"ID","Address","City","State","Zip","lat","long","id","input_address","match_indicator","match_type","matched_address","tiger_line_id","tiger_side"
879001,"812 BLYTH ROAD","VICTORIA","TX",77904,28.884880304,-97.006384767,1,"812 BLYTH ROAD, VICTORIA, TX, 77904","Match","Exact","812 BLYTH RD, VICTORIA, TX, 77904",44571544,"L"
879002,"812 BLYTHE ROAD","VICTORIA","TX",77904,28.884880304,-97.006384767,2,"812 BLYTHE ROAD, VICTORIA, TX, 77904","Match","Non_Exact","812 BLYTH RD, VICTORIA, TX, 77904",44571544,"L"
879003,"812 BRENTON LEAF DR","RUSKIN","FL",33570,27.72642525,-82.42067818,3,"812 BRENTON LEAF DR, RUSKIN, FL, 33570","Match","Exact","812 BRENTON LEAF DR, RUSKIN, FL, 33570",630040617,"R"
879004,"812 BRIGHT ST","FREDERICKSBURG","VA",22401,38.2960579360001,-77.47437393,4,"812 BRIGHT ST, FREDERICKSBURG, VA, 22401","Match","Exact","812 BRIGHT ST, FREDERICKSBURG, VA, 22401",85005496,"L"
879005,"812 BROADWAY","FULLERTON","NE",68638,41.3573524550001,-97.968654159,5,"812 BROADWAY, FULLERTON, NE, 68638","Match","Non_Exact","812 BROADWAY ST, FULLERTON, NE, 68638",167864635,"L"
879006,"812 BRYNWOOD DR","CHATTANOOGA","TN",37415,35.119508486,-85.272151467,6,"812 BRYNWOOD DR, CHATTANOOGA, TN, 37415","Match","Exact","812 BRYNWOOD DR, CHATTANOOGA, TN, 37415",59306954,"R"
879007,"812 CALEDONIAN WAY","VESTAVIA","AL",35242,33.4809404490001,-86.685668144,7,"812 CALEDONIAN WAY, VESTAVIA, AL, 35242","Match","Exact","812 CALEDONIAN WAY, VESTAVIA, AL, 35242",81657172,"L"
879008,"812 CANAL BLVD","THIBODAUX","LA",70301,29.7928434230001,-90.820560442,8,"812 CANAL BLVD, THIBODAUX, LA, 70301","Match","Exact","812 CANAL BLVD, THIBODAUX, LA, 70301",92328844,"L"
879009,"812 CANYON CREST DR","IRVING","TX",75063,32.937413389,-96.957814447,9,"812 CANYON CREST DR, IRVING, TX, 75063","Match","Exact","812 CANYON CREST DR, IRVING, TX, 75063",102980137,"R"
879010,"812 CARLISLE CT N","NASHVILLE","TN",37214,36.14684886,-86.636662165,10,"812 CARLISLE CT N, NASHVILLE, TN, 37214","Match","Exact","812 CARLISLE CT N, NASHVILLE, TN, 37214",97215325,"R"
879011,"812 CARO ST","CHATTAHOOCHEE","FL",32321,30.6838576270001,-84.835732058,11,"812 CARO ST, CHATTAHOOCHEE, FL, 32321","Match","Non_Exact","812 CARO ST, CHATTAHOOCHEE, FL, 32324",87811575,"L"
879012,"812 CATALPA AVENUE","LIMA","OH",45804,40.71975876,-84.0932589939999,12,"812 CATALPA AVENUE, LIMA, OH, 45804","Match","Exact","812 CATALPA AVE, LIMA, OH, 45804",35568296,"R"
879013,"812 CATE MEAD ROAD","WAYNESBORO","GA",30830,NA,NA,13,"812 CATE MEAD ROAD, WAYNESBORO, GA, 30830","No_Match",NA,NA,NA,NA
879014,"812 CEDAR ST","MUSCATINE","IA",52761,41.4276342260001,-91.0486386969999,14,"812 CEDAR ST, MUSCATINE, IA, 52761","Match","Exact","812 CEDAR ST, MUSCATINE, IA, 52761",99005537,"L"
879015,"812 CHERRY HILL LANE","NORTH LITTLE ROCK","AR",72116,34.78295273,-92.269831355,15,"812 CHERRY HILL LANE, NORTH LITTLE ROCK, AR, 72116","Match","Non_Exact","812 CHERRY HILL DR, N LITTLE ROCK, AR, 72116",83508290,"L"
879016,"812 CHICKASAW AVE","NASHVILLE","TN",37207,36.200651151,-86.756119828,16,"812 CHICKASAW AVE, NASHVILLE, TN, 37207","Match","Exact","812 CHICKASAW AVE, NASHVILLE, TN, 37207",97187197,"R"
879017,"812 CLEARMOUNT AVE SE","NORTH CANTON","OH",44720,40.870873831,-81.390272392,17,"812 CLEARMOUNT AVE SE, NORTH CANTON, OH, 44720","Match","Exact","812 CLEARMOUNT AVE SE, NORTH CANTON, OH, 44720",64676491,"L"
879018,"812 CLOVER DR","GAYLORD","MI",49735,45.0362361790001,-84.682326722,18,"812 CLOVER DR, GAYLORD, MI, 49735","Match","Exact","812 CLOVER DR, GAYLORD, MI, 49735",171777438,"R"
879019,"812 CLUBHOUSE ROAD","VIRGINIA BEACH","VA",23452,36.8136828190001,-76.0832312919999,19,"812 CLUBHOUSE ROAD, VIRGINIA BEACH, VA, 23452","Match","Non_Exact","812 S CLUB HOUSE RD, VA BCH, VA, 23452",122267561,"L"
879020,"812 COCKRELLL HILL RD","Ovilla","TX",75154,32.546531514,-96.890940653,20,"812 COCKRELLL HILL RD, Ovilla, TX, 75154","Match","Non_Exact","812 COCKRELL HILL RD, OVILLA, TX, 75154",103448586,"R"
879021,"812 COLLINS AVENUE","LANSDALE","PA",19446,40.207131347,-75.314097832,21,"812 COLLINS AVENUE, LANSDALE, PA, 19446","Match","Exact","812 COLLINS AVE, LANSDALE, PA, 19446",616029993,"L"
879022,"812 COLONIAL AVE","COLONIAL BEACH","VA",22443,38.2544586720001,-76.971955914,22,"812 COLONIAL AVE, COLONIAL BEACH, VA, 22443","Match","Exact","812 COLONIAL AVE, COLONIAL BCH, VA, 22443",22162866,"R"
879023,"812 CONNEMARA CIRCLE","VENICE","FL",34292,27.1107678120001,-82.411686743,23,"812 CONNEMARA CIRCLE, VENICE, FL, 34292","Match","Exact","812 CONNEMARA CIR, VENICE, FL, 34292",651730019,"R"
879024,"812 CONSTELLATION DR","GREAT FALLS","VA",22066,38.9926711360001,-77.2896286929999,24,"812 CONSTELLATION DR, GREAT FALLS, VA, 22066","Match","Exact","812 CONSTELLATION DR, GREAT FALLS, VA, 22066",75960078,"L"
879025,"812 CORN STALK DR","WINDSOR","CO",80550,40.441183638,-104.911700475,25,"812 CORN STALK DR, WINDSOR, CO, 80550","Match","Exact","812 CORN STALK DR, WINDSOR, CO, 80550",646928769,"R"
879026,"812 CRAIG STREET","NEW SMYRNA BEACH","FL",32168,29.0368641540001,-80.9311205499999,26,"812 CRAIG STREET, NEW SMYRNA BEACH, FL, 32168","Match","Exact","812 CRAIG ST, NEW SMYRNA BEACH, FL, 32168",94531497,"R"
879027,"812 CRESCENT HILL ROAD","NASHVILLE","TN",37206,36.1831551870001,-86.717847455,27,"812 CRESCENT HILL ROAD, NASHVILLE, TN, 37206","Match","Exact","812 CRESCENT HILL RD, NASHVILLE, TN, 37206",97194959,"R"
879028,"812 CRESTED BUTTE CT","MIDLAND","TX",79705,32.060269256,-102.103091457,28,"812 CRESTED BUTTE CT, MIDLAND, TX, 79705","Match","Exact","812 CRESTED BUTTE CT, MIDLAND, TX, 79705",618364587,"R"
879029,"812 CRICKET RD","SECANE","PA",19018,39.907725833,-75.3149237169999,29,"812 CRICKET RD, SECANE, PA, 19018","Match","Exact","812 CRICKET RD, SECANE, PA, 19018",652559827,"R"
879030,"812 CYNDY ST","JOHNSON CITY","NY",13790,42.123852153,-75.980655981,30,"812 CYNDY ST, JOHNSON CITY, NY, 13790","Match","Exact","812 CYNDY ST, JOHNSON CITY, NY, 13790",46373470,"L"
879031,"812 DECAMP AVE","SCHENECTADY","NY",12309,42.804481002,-73.9111349249999,31,"812 DECAMP AVE, SCHENECTADY, NY, 12309","Match","Exact","812 DECAMP AVE, SCHENECTADY, NY, 12309",18029399,"R"
879032,"812 DELIA LANE","GRETNA","LA",70056,29.8748931370001,-90.035355812,32,"812 DELIA LANE, GRETNA, LA, 70056","Match","Exact","812 DELIA LN, GRETNA, LA, 70056",624064677,"R"
879033,"812 DENNISVILLE ROAD","CAPE MAY COURT HOUSE","NJ",8210,39.1727515260001,-74.8088779029999,33,"812 DENNISVILLE ROAD, CAPE MAY COURT HOUSE, NJ, 8210","Match","Exact","812 DENNISVILLE RD, CAPE MAY COURT HOUSE, NJ, 08210",174335363,"R"
879034,"812 DEWAR AVE","HENRYETTA","OK",74437,NA,NA,34,"812 DEWAR AVE, HENRYETTA, OK, 74437","No_Match",NA,NA,NA,NA
879035,"812 E 1ST STREET","CLE ELUM","WA",98922,47.1929747620001,-120.923316609,35,"812 E 1ST STREET, CLE ELUM, WA, 98922","Match","Exact","812 E 1ST ST, CLE ELUM, WA, 98922",157197961,"R"
879036,"812 E 219","BRONX","NY",10467,40.8824933540001,-73.8594070669999,36,"812 E 219, BRONX, NY, 10467","Match","Non_Exact","812 E 219TH ST, BRONX, NY, 10467",80297310,"R"
879037,"812 E 23RD STREET","WILMINGTON","DE",19802,39.749493708,-75.5332611009999,37,"812 E 23RD STREET, WILMINGTON, DE, 19802","Match","Exact","812 E 23RD ST, WILMINGTON, DE, 19802",187259135,"R"
879038,"812 E 42ND STREET","CHICAGO","IL",60653,NA,NA,38,"812 E 42ND STREET, CHICAGO, IL, 60653","No_Match",NA,NA,NA,NA
879039,"812 E 9TH","FORT WORTH","TX",76102,32.7542136160001,-97.323300858,39,"812 E 9TH, FORT WORTH, TX, 76102","Match","Non_Exact","812 E 9TH ST, FORT WORTH, TX, 76102",649909400,"R"
879040,"812 E CHIPPEWA","SOUTH BEND","IN",46614,41.6356334870001,-86.23864394,40,"812 E CHIPPEWA, SOUTH BEND, IN, 46614","Match","Non_Exact","812 E CHIPPEWA AVE, SOUTH BEND, IN, 46614",8057742,"R"
879041,"812 E DEMPSTER","MEMPHIS","TN",38106,35.0851568240001,-90.0359231909999,41,"812 E DEMPSTER, MEMPHIS, TN, 38106","Match","Non_Exact","812 E DEMPSTER AVE, MEMPHIS, TN, 38106",72908225,"L"
879042,"812 E ELM ST","BLOOMINGTON","IL",61701,40.47285887,-88.983085649,42,"812 E ELM ST, BLOOMINGTON, IL, 61701","Match","Exact","812 E ELM ST, BLOOMINGTON, IL, 61701",20548062,"L"
879043,"812 E GARDEN ST","UVALDE","TX",78801,29.212544721,-99.772595055,43,"812 E GARDEN ST, UVALDE, TX, 78801","Match","Exact","812 E GARDEN ST, UVALDE, TX, 78801",183444891,"L"
879044,"812 E GREEN VALLEY DR","NEWBERG","OR",97132,45.3181584390001,-122.972223951,44,"812 E GREEN VALLEY DR, NEWBERG, OR, 97132","Match","Non_Exact","812 GREEN VALLEY RD, NEWBERG, OR, 97132",156499191,"L"
879045,"812 E KERR AVE APT 108","URBANA","IL",61802,40.1220624520001,-88.199204556,45,"812 E KERR AVE APT 108, URBANA, IL, 61802","Match","Non_Exact","812 E KERR AVE, URBANA, IL, 61802",640635930,"L"
879046,"812 E LAKE STREET","FORT COLLINS","CO",80524,40.5691073950001,-105.064728862,46,"812 E LAKE STREET, FORT COLLINS, CO, 80524","Match","Exact","812 E LAKE ST, FORT COLLINS, CO, 80524",188491586,"L"
879047,"812 E LONGVIEW AVE","STOCKTON","CA",95207,38.008452532,-121.300037292,47,"812 E LONGVIEW AVE, STOCKTON, CA, 95207","Match","Exact","812 E LONGVIEW AVE, STOCKTON, CA, 95207",133845698,"R"
879048,"812 E MAIN","ALAMO","TN",38001,35.7848338410001,-89.102694073,48,"812 E MAIN, ALAMO, TN, 38001","Match","Non_Exact","812 E MAIN ST, ALAMO, TN, 38001",63319821,"L"
879049,"812 E OAK STREET","SILVER CITY","NM",88061,32.7891692310001,-108.267671549,49,"812 E OAK STREET, SILVER CITY, NM, 88061","Match","Exact","812 OAK ST, SILVER CITY, NM, 88061",192655464,"R"
879050,"812 E OSBORNE AVE","TAMPA","FL",33603,27.9887955890001,-82.452824898,50,"812 E OSBORNE AVE, TAMPA, FL, 33603","Match","Exact","812 E OSBORNE AVE, TAMPA, FL, 33603",104522281,"L"
879051,"812 E PACIFIC VIEW DR","BELLINGHAM","WA",98229,NA,NA,51,"812 E PACIFIC VIEW DR, BELLINGHAM, WA, 98229","Tie",NA,NA,NA,NA
879052,"812 E PACIFIC VIEW DRIVE","BELLINGHAM","WA",98229,NA,NA,52,"812 E PACIFIC VIEW DRIVE, BELLINGHAM, WA, 98229","Tie",NA,NA,NA,NA
879053,"812 E SANTA FE AVE","SAN GABRIEL","CA",91776,34.094442304,-118.088350342,53,"812 E SANTA FE AVE, SAN GABRIEL, CA, 91776","Match","Exact","812 SANTA FE AVE, SAN GABRIEL, CA, 91776",648643044,"R"
879054,"812 E STATE STREET","MILWAUKEE","WI",53202,43.0439171460001,-87.9017893019999,54,"812 E STATE STREET, MILWAUKEE, WI, 53202","Match","Exact","812 E STATE ST, MILWAUKEE, WI, 53202",77744704,"L"
879055,"812 EADS STREET","WAYCROSS","GA",31501,31.204339014,-82.355430597,55,"812 EADS STREET, WAYCROSS, GA, 31501","Match","Exact","812 EADS ST, WAYCROSS, GA, 31501",5238243,"L"
879056,"812 EAST 2ND","MCCOOK","NE",69001,40.2048331730001,-100.622935206,56,"812 EAST 2ND, MCCOOK, NE, 69001","Match","Non_Exact","812 E 2ND ST, MCCOOK, NE, 69001",164134457,"L"
879057,"812 EAST 9TH","WINFIELD","KS",67156,37.2404705930001,-96.988214394,57,"812 EAST 9TH, WINFIELD, KS, 67156","Match","Non_Exact","812 E 9TH AVE, WINFIELD, KS, 67156",44348849,"L"
879058,"812 EAST BROADWAY","WEST MEMPHIS","AR",72301,35.1464959350001,-90.174386661,58,"812 EAST BROADWAY, WEST MEMPHIS, AR, 72301","Match","Non_Exact","812 E BROADWAY AVE, WEST MEMPHIS, AR, 72301",69372842,"L"
879059,"812 EAST C STREET","PUEBLO","CO",81003,38.258158102,-104.608003185,59,"812 EAST C STREET, PUEBLO, CO, 81003","Match","Exact","812 E C ST, PUEBLO, CO, 81003",647426623,"L"
879060,"812 EAST RIDGEWOOD ROAD","JASPER","AL",35504,33.8873089160001,-87.2632836779999,60,"812 EAST RIDGEWOOD ROAD, JASPER, AL, 35504","Match","Exact","812 E RIDGEWOOD RD, JASPER, AL, 35504",120582171,"R"
879061,"812 EDENBERRY LANE","LITHONIA","GA",30058,33.770486711,-84.080494287,61,"812 EDENBERRY LANE, LITHONIA, GA, 30058","Match","Exact","812 EDENBERRY LN, LITHONIA, GA, 30058",23396818,"L"
879062,"812 EKELA AVENUE","HONOLULU","HI",96816,21.2830555150001,-157.815390126,62,"812 EKELA AVENUE, HONOLULU, HI, 96816","Match","Exact","812 EKELA AVE, HONOLULU, HI, 96816",203242077,"L"
879063,"812 ELM ST","LUTHER","MI",49656,44.0374295230001,-85.687662184,63,"812 ELM ST, LUTHER, MI, 49656","Match","Exact","812 ELM ST, LUTHER, MI, 49656",150189461,"R"
879064,"812 ELSWICK CT","FORT MILL","SC",29708,35.019778925,-80.994503282,64,"812 ELSWICK CT, FORT MILL, SC, 29708","Match","Exact","812 ELSWICK CT, FORT MILL, SC, 29708",645272591,"R"
879065,"812 EMERALD BAY","LAGUNA BEACH","CA",92651,NA,NA,65,"812 EMERALD BAY, LAGUNA BEACH, CA, 92651","No_Match",NA,NA,NA,NA
879066,"812 EMERALD WOOD DRIVE","AUSTIN","TX",78745,30.2138197240001,-97.780931509,66,"812 EMERALD WOOD DRIVE, AUSTIN, TX, 78745","Match","Exact","812 EMERALD WOOD DR, AUSTIN, TX, 78745",63944193,"R"
879067,"812 ERIN DRIVE","OXFORD","OH",45056,39.5020203490001,-84.755380937,67,"812 ERIN DRIVE, OXFORD, OH, 45056","Match","Exact","812 ERIN DR, OXFORD, OH, 45056",113786113,"R"
879068,"812 FAIRFIELD CIRCLE","MINNETONKA","MN",55305,44.9737838980001,-93.425705872,68,"812 FAIRFIELD CIRCLE, MINNETONKA, MN, 55305","Match","Exact","812 FAIRFIELD CIR, MINNETONKA, MN, 55305",43848117,"R"
879069,"812 FALCON VIEW ST","UPLAND","CA",91784,34.1273032340001,-117.640181626,69,"812 FALCON VIEW ST, UPLAND, CA, 91784","Match","Exact","812 FALCON VIEW ST, UPLAND, CA, 91784",639051766,"R"
879070,"812 FALL PLACE","HERNDON","VA",20170,38.970688484,-77.4053017859999,70,"812 FALL PLACE, HERNDON, VA, 20170","Match","Exact","812 FALL PL, HERNDON, VA, 20170",75956290,"R"
879071,"812 FAULKNER ST","NEW SMYRNA BEACH","FL",32168,29.03790272,-80.930737236,71,"812 FAULKNER ST, NEW SMYRNA BEACH, FL, 32168","Match","Exact","812 FAULKNER ST, NEW SMYRNA BEACH, FL, 32168",94531498,"L"
879072,"812 FEATHERSTON","CLEBURNE","TX",76033,32.3407828740001,-97.398488425,72,"812 FEATHERSTON, CLEBURNE, TX, 76033","Match","Non_Exact","812 FEATHERSTON ST, CLEBURNE, TX, 76033",635890050,"R"
879073,"812 FERDINAND AVE","FOREST PARK","IL",60130,41.871604231,-87.812943188,73,"812 FERDINAND AVE, FOREST PARK, IL, 60130","Match","Exact","812 FERDINAND AVE, FOREST PARK, IL, 60130",605144608,"L"
879074,"812 FILMORE STREET","TAFT","CA",93268,35.163684512,-119.461431716,74,"812 FILMORE STREET, TAFT, CA, 93268","Match","Non_Exact","812 FILLMORE ST, TAFT, CA, 93268",109053666,"R"
879075,"812 FLORENCE LANE","HEALDSBURG","CA",95448,38.6194915180001,-122.859137504,75,"812 FLORENCE LANE, HEALDSBURG, CA, 95448","Match","Exact","812 FLORENCE LN, HEALDSBURG, CA, 95448",67461894,"R"
879076,"812 FORT MACLEUD TERRACE","LEESBURG","VA",20176,39.097626307,-77.51619822,76,"812 FORT MACLEUD TERRACE, LEESBURG, VA, 20176","Match","Non_Exact","812 FORT MACLEOD TER NE, LEESBURG, VA, 20176",62356354,"R"
879077,"812 FOXDALE AVENUE","WINNETKA","IL",60093,42.113664887,-87.7386348209999,77,"812 FOXDALE AVENUE, WINNETKA, IL, 60093","Match","Exact","812 FOXDALE AVE, WINNETKA, IL, 60093",111737628,"L"
879078,"812 FOXGLOVE","WATERLOO","IL",62298,38.353997378,-90.122293508,78,"812 FOXGLOVE, WATERLOO, IL, 62298","Match","Non_Exact","812 FOXGLOVE DR, WATERLOO, IL, 62298",647556098,"L"
879079,"812 FOXMEADOW DRIVE","LIMERICK","PA",19468,40.1983961510001,-75.532998644,79,"812 FOXMEADOW DRIVE, LIMERICK, PA, 19468","Match","Exact","812 FOXMEADOW DR, LIMERICK, PA, 19468",135112064,"L"
879080,"812 FREMONT AVE APT 306","SOUTH PASADENA","CA",91030,34.1165694490001,-118.153079707,80,"812 FREMONT AVE APT 306, SOUTH PASADENA, CA, 91030","Match","Exact","812 FREMONT AVE, SOUTH PASADENA, CA, 91030",141630223,"L"
879081,"812 FULLER RD","HERMON","ME",4401,44.8313490370001,-68.941980139,81,"812 FULLER RD, HERMON, ME, 4401","Match","Exact","812 FULLER RD, HERMON, ME, 04401",651252276,"L"
879082,"812 GARDENDALE LN","CLARKSVILLE","TN",37040,36.6263877710001,-87.2953600439999,82,"812 GARDENDALE LN, CLARKSVILLE, TN, 37040","Match","Exact","812 GARDENDALE LN, CLARKSVILLE, TN, 37040",31833157,"R"
879083,"812 GARVIN STREET","JACKSON","MS",39206,32.36038104,-90.1579830429999,83,"812 GARVIN STREET, JACKSON, MS, 39206","Match","Exact","812 GARVIN ST, JACKSON, MS, 39206",65360802,"L"
879084,"812 GARY LOOP","KILEEN","TX",76542,31.0708173200001,-97.743928082,84,"812 GARY LOOP, KILEEN, TX, 76542","Match","Non_Exact","812 GARY LOOP, KILLEEN, TX, 76542",640635167,"L"
879085,"812 GASKIN AVE S","DOUGLAS","GA",31533,31.4985442890001,-82.8454819089999,85,"812 GASKIN AVE S, DOUGLAS, GA, 31533","Match","Exact","812 GASKIN AVE S, DOUGLAS, GA, 31533",635494909,"R"
879086,"812 GASLIGHT LANE","VIRGINIA BEACH","VA",23462,36.865675534,-76.168469065,86,"812 GASLIGHT LANE, VIRGINIA BEACH, VA, 23462","Match","Non_Exact","812 GAS LIGHT LN, VA BCH, VA, 23462",122295069,"R"
879087,"812 GASTON AVENUE","FAIRMONT","WV",26554,39.474349418,-80.151060818,87,"812 GASTON AVENUE, FAIRMONT, WV, 26554","Match","Exact","812 GASTON AVE, FAIRMONT, WV, 26554",51450953,"R"
879088,"812 GEORGIA ST","LOUISIANA","MO",63353,39.447671755,-91.05214983,88,"812 GEORGIA ST, LOUISIANA, MO, 63353","Match","Exact","812 GEORGIA ST, LOUISIANA, MO, 63353",44640392,"R"
879089,"812 GILES DRIVE NE","HUNTSVILLE","AL",35801,34.746195798,-86.5547593209999,89,"812 GILES DRIVE NE, HUNTSVILLE, AL, 35801","Match","Exact","812 GILES DR NE, HUNTSVILLE, AL, 35801",58119041,"R"
879090,"812 GIVAN","BELTON","MO",64012,38.818471598,-94.520138527,90,"812 GIVAN, BELTON, MO, 64012","Match","Non_Exact","812 GIVAN AVE, BELTON, MO, 64012",100926036,"L"
879091,"812 GRAND AVE","LARAMIE","WY",82070,41.310607218,-105.586765398,91,"812 GRAND AVE, LARAMIE, WY, 82070","Match","Non_Exact","812 E GRAND AVE, LARAMIE, WY, 82070",168740230,"L"
879092,"812 GRAND HILLTOP DR","APOPKA","FL",32703,28.64883846,-81.5212290969999,92,"812 GRAND HILLTOP DR, APOPKA, FL, 32703","Match","Exact","812 GRAND HILLTOP DR, APOPKA, FL, 32703",650552531,"R"
879093,"812 GRAND STREET  APT 3L","BROOKLYN","NY",11211,40.7119274770001,-73.940983479,93,"812 GRAND STREET  APT 3L, BROOKLYN, NY, 11211","Match","Exact","812 GRAND ST, BROOKLYN, NY, 11211",59077227,"R"
879094,"812 GREEN STREET B2","DURHAM","NC",27701,36.0110155030001,-78.9035015269999,94,"812 GREEN STREET B2, DURHAM, NC, 27701","Match","Exact","812 GREEN ST, DURHAM, NC, 27701",71739415,"R"
879095,"812 GREENHAVEN DRIVE","BETHEL PARK","PA",15102,40.301464192,-80.054978704,95,"812 GREENHAVEN DRIVE, BETHEL PARK, PA, 15102","Match","Exact","812 GREENHAVEN DR, BETHEL PARK, PA, 15102",51657089,"R"
879096,"812 GRICKLE DR","NORMAN","OK",73069,35.2478990980001,-97.452989959,96,"812 GRICKLE DR, NORMAN, OK, 73069","Match","Exact","812 GRICKLE DR, NORMAN, OK, 73069",617928806,"L"
879097,"812 GUTHRIE CIRCLE","MIDDLETOWN","DE",19709,NA,NA,97,"812 GUTHRIE CIRCLE, MIDDLETOWN, DE, 19709","No_Match",NA,NA,NA,NA
879098,"812 HANCOCK STREET","GRETNA","LA",70053,29.931455709,-90.048490336,98,"812 HANCOCK STREET, GRETNA, LA, 70053","Match","Exact","812 HANCOCK ST, GRETNA, LA, 70053",93507154,"L"
879099,"812 HANNEMAN DRIVE","LINCOLN","NE",68522,40.801310664,-96.7330843189999,99,"812 HANNEMAN DRIVE, LINCOLN, NE, 68522","Match","Exact","812 HANNEMAN DR, LINCOLN, NE, 68522",28298653,"R"
879100,"812 HARTMAN AVENUE","HANOVER","PA",17331,39.790305586,-76.99154687,100,"812 HARTMAN AVENUE, HANOVER, PA, 17331","Match","Exact","812 HARTMAN AVE, HANOVER, PA, 17331",611411345,"R"
879101,"812 HASTINGS DRIVE","KISSIMMEE","FL",34744,28.2918918130001,-81.390943146,101,"812 HASTINGS DRIVE, KISSIMMEE, FL, 34744","Match","Exact","812 HASTINGS DR, KISSIMMEE, FL, 34744",176664519,"L"
879102,"812 HEARD AVE","AUBURN","AL",36830,32.588758268,-85.4634433689999,102,"812 HEARD AVE, AUBURN, AL, 36830","Match","Exact","812 HEARD AVE, AUBURN, AL, 36830",1570172,"R"
879103,"812 HEATHER LANE","NEENAH","WI",54956,44.1609490660001,-88.443364657,103,"812 HEATHER LANE, NEENAH, WI, 54956","Match","Exact","812 HEATHER LN, NEENAH, WI, 54956",74497136,"R"
879104,"812 HENDERSON ST","ROCKPORT","TX",78382,28.056904585,-97.041747389,104,"812 HENDERSON ST, ROCKPORT, TX, 78382","Match","Exact","812 HENDERSON ST, ROCKPORT, TX, 78382",637298152,"L"
879105,"812 HENRY ST SE","VALDESE","NC",28690,35.7373923910001,-81.556408478,105,"812 HENRY ST SE, VALDESE, NC, 28690","Match","Exact","812 HENRY ST SE, VALDESE, NC, 28690",37164146,"R"
879106,"812 HERKIMER ROAD","UTICA","NY",13502,43.112143556,-75.192300033,106,"812 HERKIMER ROAD, UTICA, NY, 13502","Match","Exact","812 HERKIMER RD, UTICA, NY, 13502",171529917,"R"
879107,"812 HIATT AVE","GREENWOOD","IN",46143,39.6039082350001,-86.1935802679999,107,"812 HIATT AVE, GREENWOOD, IN, 46143","Match","Exact","812 HIATT AVE, GREENWOOD, IN, 46143",114641758,"R"
879108,"812 HIATT","GREENWOOD","IN",46143,39.6039082350001,-86.1935802679999,108,"812 HIATT, GREENWOOD, IN, 46143","Match","Non_Exact","812 HIATT AVE, GREENWOOD, IN, 46143",114641758,"R"
879109,"812 HIBISCUS LN","VERO BEACH","FL",32963,27.6469067520001,-80.358206482,109,"812 HIBISCUS LN, VERO BEACH, FL, 32963","Match","Exact","812 HIBISCUS LN, VERO BEACH, FL, 32963",120334020,"L"
879110,"812 HIGH PLAIN DRIVE","BEL AIR","MD",21014,39.512205964,-76.356060102,110,"812 HIGH PLAIN DRIVE, BEL AIR, MD, 21014","Match","Exact","812 HIGH PLAIN DR, BEL AIR, MD, 21014",191650618,"R"
879111,"812 HIGHLAND DRIVE","LAS VEGAS","NM",87701,35.6192016370001,-105.235504302,111,"812 HIGHLAND DRIVE, LAS VEGAS, NM, 87701","Match","Exact","812 HIGHLAND DR, LAS VEGAS, NM, 87701",645601061,"L"
879112,"812 HILLANDALE LN","LITHONIA","GA",30058,33.7084075230001,-84.132686027,112,"812 HILLANDALE LN, LITHONIA, GA, 30058","Match","Exact","812 HILLANDALE LN, LITHONIA, GA, 30058",619388281,"R"
879113,"812 HILLTOP LANE","TOLEDO","OH",43615,41.648345057,-83.6565577169999,113,"812 HILLTOP LANE, TOLEDO, OH, 43615","Match","Exact","812 HILLTOP LN, TOLEDO, OH, 43615",33934868,"R"
879114,"812 HILLTOP LN","TOLEDO","OH",43615,41.648345057,-83.6565577169999,114,"812 HILLTOP LN, TOLEDO, OH, 43615","Match","Exact","812 HILLTOP LN, TOLEDO, OH, 43615",33934868,"R"
879115,"812 HILLTOP RD","NEWARK","DE",19711,39.700558824,-75.771262999,115,"812 HILLTOP RD, NEWARK, DE, 19711","Match","Exact","812 HILLTOP RD, NEWARK, DE, 19711",187295225,"R"
879116,"812 HUDSON PARK","EDGEWATER","NJ",7020,40.808839418,-73.990705226,116,"812 HUDSON PARK, EDGEWATER, NJ, 7020","Match","Exact","812 HUDSON PARK, EDGEWATER, NJ, 07020",650733926,"R"
879117,"812 HUDSON ST","HOBOKEN","NJ",7030,40.746154775,-74.027044695,117,"812 HUDSON ST, HOBOKEN, NJ, 7030","Match","Exact","812 HUDSON ST, HOBOKEN, NJ, 07030",638115037,"L"
879118,"812 HYDE COURT","SILVER SPRING","MD",20902,39.043082907,-77.022811777,118,"812 HYDE COURT, SILVER SPRING, MD, 20902","Match","Exact","812 HYDE CT, SILVER SPRING, MD, 20902",62064603,"L"
879119,"812 ILLINOIS ST","LAWRENCE","KS",66044,38.9690454380001,-95.2452246079999,119,"812 ILLINOIS ST, LAWRENCE, KS, 66044","Match","Exact","812 ILLINOIS ST, LAWRENCE, KS, 66044",17683812,"L"
879120,"812 IVAN","ROBINSON","TX",76706,31.465789796,-97.102865003,120,"812 IVAN, ROBINSON, TX, 76706","Match","Non_Exact","812 IVAN RD, ROBINSON, TX, 76706",146746006,"L"
879121,"812 JAMES BLVD","SIGNAL MOUNTAIN","TN",37377,35.1277210600001,-85.344435545,121,"812 JAMES BLVD, SIGNAL MOUNTAIN, TN, 37377","Match","Exact","812 JAMES BLVD, SIGNAL MOUNTAIN, TN, 37377",615528450,"R"
879122,"812 JEAN DRIVE","PORTLAND","IN",47371,40.4269185300001,-85.026108159,122,"812 JEAN DRIVE, PORTLAND, IN, 47371","Match","Non_Exact","812 S JEAN DR, PORTLAND, IN, 47371",45042895,"R"
879123,"812 JOHN DOE","CLOVIS","NM",88101,34.421377685,-103.214546254,123,"812 JOHN DOE, CLOVIS, NM, 88101","Match","Non_Exact","812 JOHN DOE ST, CLOVIS, NM, 88101",163759569,"R"
879124,"812 KARLYN LANE","COLLEGEVILLE","PA",19426,40.2137187170001,-75.423241189,124,"812 KARLYN LANE, COLLEGEVILLE, PA, 19426","Match","Exact","812 KARLYN LN, COLLEGEVILLE, PA, 19426",135132739,"L"
879125,"812 KAWANA RD","COLUMBIA","SC",29205,33.9992905620001,-80.983689715,125,"812 KAWANA RD, COLUMBIA, SC, 29205","Match","Exact","812 KAWANA RD, COLUMBIA, SC, 29205",71824645,"R"
879126,"812 KEVIN RD","BALTIMORE","MD",21229,39.296501016,-76.687243897,126,"812 KEVIN RD, BALTIMORE, MD, 21229","Match","Exact","812 KEVIN RD, BALTIMORE, MD, 21229",206413022,"L"
879127,"812 KIMSEY DRIVE","CHAPIN","SC",29036,34.159306024,-81.262899588,127,"812 KIMSEY DRIVE, CHAPIN, SC, 29036","Match","Exact","812 KIMSEY DR, CHAPIN, SC, 29036",645303717,"R"
879128,"812 KINGSTON DRIVE","CHERRY HILL","NJ",8034,39.9198691930001,-74.9898219409999,128,"812 KINGSTON DRIVE, CHERRY HILL, NJ, 8034","Match","Exact","812 KINGSTON DR, CHERRY HILL, NJ, 08034",134419214,"R"
879129,"812 KOKOMO CIRCLE","PORT ORANGE","FL",32127,29.1354875970001,-80.995695591,129,"812 KOKOMO CIRCLE, PORT ORANGE, FL, 32127","Match","Exact","812 KOKOMO CIR, PORT ORANGE, FL, 32127",94559367,"R"
879130,"812 KRIEDEMAN DRIVE","STOUGHTON","WI",53589,42.9332435470001,-89.2299621349999,130,"812 KRIEDEMAN DRIVE, STOUGHTON, WI, 53589","Match","Exact","812 KRIEDEMAN DR, STOUGHTON, WI, 53589",49502494,"R"
879131,"812 LACKLAND DR","BILOXI","MS",39532,30.4315891150001,-88.9734186809999,131,"812 LACKLAND DR, BILOXI, MS, 39532","Match","Exact","812 LACKLAND DR, BILOXI, MS, 39532",111382395,"R"
879132,"812 LAFAYETTE PARKWAY","WILLIAMSPORT","PA",17701,41.251125965,-76.9779111829999,132,"812 LAFAYETTE PARKWAY, WILLIAMSPORT, PA, 17701","Match","Exact","812 LAFAYETTE PKWY, WILLIAMSPORT, PA, 17701",59448306,"R"
879133,"812 LAUREL AVE","ASHLAND","OH",44805,40.8631794080001,-82.332092146,133,"812 LAUREL AVE, ASHLAND, OH, 44805","Match","Exact","812 LAUREL AVE, ASHLAND, OH, 44805",30146688,"L"
879134,"812 LCR 310","MART","TX",76664,31.62522857,-96.827058488,134,"812 LCR 310, MART, TX, 76664","Match","Non_Exact","812 CO RD 310, MART, TX, 76664",638586957,"R"
879135,"812 LEE ROAD 330","SMITHS STATION","AL",36877,32.6060093180001,-85.114043586,135,"812 LEE ROAD 330, SMITHS STATION, AL, 36877","Match","Exact","812 LEE ROAD 330, SMITHS STATION, AL, 36877",647795364,"L"
879136,"812 LEONARD ST","MONETBELLO","CA",90640,34.0308029980001,-118.139899574,136,"812 LEONARD ST, MONETBELLO, CA, 90640","Match","Non_Exact","812 N LEONARD ST, MONTEBELLO, CA, 90640",141638756,"R"
879137,"812 LOGAN STREET","POTTSTOWN","PA",19464,40.2596680450001,-75.639374362,137,"812 LOGAN STREET, POTTSTOWN, PA, 19464","Match","Exact","812 LOGAN ST, POTTSTOWN, PA, 19464",135061846,"R"
879138,"812 LOGAN TRAIL","ROCKY MOUNT","NC",27803,35.944384825,-77.850888051,138,"812 LOGAN TRAIL, ROCKY MOUNT, NC, 27803","Match","Exact","812 LOGAN TRL, ROCKY MOUNT, NC, 27803",90387781,"L"
879139,"812 LORIDANS DR NE","ATLANTA","GA",30342,33.87369742,-84.360736676,139,"812 LORIDANS DR NE, ATLANTA, GA, 30342","Match","Exact","812 LORIDANS DR NE, ATLANTA, GA, 30342",636763055,"L"
879140,"812 LOWER REBECCA ROAD","FITZGERALD","GA",31750,31.756674934,-83.341071035,140,"812 LOWER REBECCA ROAD, FITZGERALD, GA, 31750","Match","Exact","812 LOWER REBECCA RD, FITZGERALD, GA, 31750",189734606,"L"
879141,"812 LUNCEFORD RD","DUPO","IL",62239,38.4955834630001,-90.211177144,141,"812 LUNCEFORD RD, DUPO, IL, 62239","Match","Exact","812 LUNCEFORD RD, DUPO, IL, 62239",107888788,"R"
879142,"812 MAGNOLIA WAY NW APT 1112","ATLANTA","GA",30314,33.7576585680001,-84.41515415,142,"812 MAGNOLIA WAY NW APT 1112, ATLANTA, GA, 30314","Match","Exact","812 MAGNOLIA WAY NW, ATLANTA, GA, 30314",643277490,"R"
879143,"812 MALTA LN","SILVER SPRING","MD",20901,39.0379993390001,-77.014245939,143,"812 MALTA LN, SILVER SPRING, MD, 20901","Match","Exact","812 MALTA LN, SILVER SPRING, MD, 20901",62065024,"L"
879144,"812 MAQUOKETA DRIVE SE","CASCADE","IA",52033,42.2956032930001,-91.0031707959999,144,"812 MAQUOKETA DRIVE SE, CASCADE, IA, 52033","Match","Exact","812 MAQUOKETA DR SE, CASCADE, IA, 52033",16528113,"R"
879145,"812 MARCUS COURT","CHARLOTTE","NC",28213,35.270119128,-80.784664503,145,"812 MARCUS COURT, CHARLOTTE, NC, 28213","Match","Exact","812 MARCUS CT, CHARLOTTE, NC, 28213",70480899,"R"
879146,"812 MARSTON ROAD","WHITINSVILLE","MA",1588,42.1222499130001,-71.6587213609999,146,"812 MARSTON ROAD, WHITINSVILLE, MA, 1588","Match","Exact","812 MARSTON RD, WHITINSVILLE, MA, 01588",614094612,"R"
879147,"812 MAZATLAN DR","BAKERSFIELD","CA",93314,35.3481624610001,-119.16037896,147,"812 MAZATLAN DR, BAKERSFIELD, CA, 93314","Match","Exact","812 MAZATLAN DR, BAKERSFIELD, CA, 93314",109135491,"L"
879148,"812 MEADOW CREEK DRIVE","IRVING","TX",75038,32.882436849,-96.958599309,148,"812 MEADOW CREEK DRIVE, IRVING, TX, 75038","Match","Exact","812 MEADOW CREEK DR, IRVING, TX, 75038",103242809,"L"
879149,"812 MEADOWVIEW LANE","TWIN FALLS","CA",83301,NA,NA,149,"812 MEADOWVIEW LANE, TWIN FALLS, CA, 83301","No_Match",NA,NA,NA,NA
879150,"812 MEADOWVIEW LANE","TWIN FALLS","ID",83301,42.5578960300001,-114.424598652,150,"812 MEADOWVIEW LANE, TWIN FALLS, ID, 83301","Match","Exact","812 MEADOWVIEW LN, TWIN FALLS, ID, 83301",649896265,"R"
879151,"812 MEDLO DRIVE","FAYETTEVILLE","NC",28303,35.089845971,-78.9903166129999,151,"812 MEDLO DRIVE, FAYETTEVILLE, NC, 28303","Match","Non_Exact","812 MEDLO RD, FAYETTEVILLE, NC, 28303",64194461,"R"
879152,"812 MEDLO","FAYETTEVILLE","NC",28303,35.089845971,-78.9903166129999,152,"812 MEDLO, FAYETTEVILLE, NC, 28303","Match","Non_Exact","812 MEDLO RD, FAYETTEVILLE, NC, 28303",64194461,"R"
879153,"812 MEMORIAL DRIVE UNIT 1314","CAMBRIDGE","MA",2139,42.361064653,-71.1159159759999,153,"812 MEMORIAL DRIVE UNIT 1314, CAMBRIDGE, MA, 2139","Match","Exact","812 MEMORIAL DR, CAMBRIDGE, MA, 02139",613841965,"R"
879154,"812 MIDDLETON DR SW","VERO BEACH","FL",32962,27.5884086900001,-80.4105827879999,154,"812 MIDDLETON DR SW, VERO BEACH, FL, 32962","Match","Exact","812 MIDDLETON DR SW, VERO BEACH, FL, 32962",610924123,"L"
879155,"812 MILES CT","SANTA CLARA","CA",95051,37.3387778800001,-121.980425112,155,"812 MILES CT, SANTA CLARA, CA, 95051","Match","Exact","812 MILES CT, SANTA CLARA, CA, 95051",122899120,"R"
879156,"812 MILL CREEK DRIVE","GREENVILLE","NC",27834,35.5637562220001,-77.441572933,156,"812 MILL CREEK DRIVE, GREENVILLE, NC, 27834","Match","Exact","812 MILL CREEK DR, GREENVILLE, NC, 27834",629022688,"L"
879157,"812 MILLARD AVENUE","CONNEAUT","OH",44030,41.9579168700001,-80.573321861,157,"812 MILLARD AVENUE, CONNEAUT, OH, 44030","Match","Exact","812 MILLARD AVE, CONNEAUT, OH, 44030",117310577,"R"
879158,"812 MITCHELL STREET","RIO VISTA","CA",94571,38.1743102670001,-121.696999496,158,"812 MITCHELL STREET, RIO VISTA, CA, 94571","Match","Exact","812 MITCHELL ST, RIO VISTA, CA, 94571",192594211,"L"
879159,"812 MOCKERNUT ROAD","HOOVER","AL",35244,33.3523644110001,-86.8047435559999,159,"812 MOCKERNUT ROAD, HOOVER, AL, 35244","Match","Exact","812 MOCKERNUT RD, HOOVER, AL, 35244",82072809,"L"
879160,"812 MONTBARD DRIVE","WEST CHESTER","PA",19382,39.9536964600001,-75.5770041069999,160,"812 MONTBARD DRIVE, WEST CHESTER, PA, 19382","Match","Exact","812 MONTBARD DR, WEST CHESTER, PA, 19382",179523522,"L"
879161,"812 N 13TH STREET","PHILADELPHIA","PA",19123,39.96812228,-75.157972489,161,"812 N 13TH STREET, PHILADELPHIA, PA, 19123","Match","Exact","812 N 13TH ST, PHILADELPHIA, PA, 19123",131421954,"L"
879162,"812 N 15TH ST","FORT PIERCE","FL",34950,27.456887657,-80.3391334569999,162,"812 N 15TH ST, FORT PIERCE, FL, 34950","Match","Exact","812 N 15TH ST, FORT PIERCE, FL, 34950",120147541,"R"
879163,"812 N 18TH AVE","KELSO","WA",98626,46.1494435320001,-122.892971549,163,"812 N 18TH AVE, KELSO, WA, 98626","Match","Exact","812 N 18TH AVE, KELSO, WA, 98626",184491236,"R"
879164,"812 N 6TH STREET","LEOTI","KS",67861,38.4889605540001,-101.355728426,164,"812 N 6TH STREET, LEOTI, KS, 67861","Match","Exact","812 N 6TH ST, LEOTI, KS, 67861",141243107,"L"
879165,"812 N GLOVER ST","BALTIMORE","MD",21205,39.300192715,-76.580277784,165,"812 N GLOVER ST, BALTIMORE, MD, 21205","Match","Exact","812 N GLOVER ST, BALTIMORE, MD, 21205",206424250,"L"
879166,"812 N HARVEY","OAK PARK","IL",60302,41.9002906490001,-87.782599729,166,"812 N HARVEY, OAK PARK, IL, 60302","Match","Non_Exact","812 N HARVEY AVE, OAK PARK, IL, 60302",111752930,"R"
879167,"812 N INGLEWOOD AVE - 7","INGLEWOOD","CA",90302,33.9737042840001,-118.361211019,167,"812 N INGLEWOOD AVE - 7, INGLEWOOD, CA, 90302","Match","Non_Exact","812 N INGLEWOOD AVE, INGLEWOOD, CA, 90302",142749652,"R"
879168,"812 N K ST APT 106","TACOMA","WA",98403,47.2632964210001,-122.461563413,168,"812 N K ST APT 106, TACOMA, WA, 98403","Match","Non_Exact","812 N K ST, TACOMA, WA, 98403",184646149,"L"
879169,"812 N K STREET APT 107","TACOMA","WA",98403,47.2632964210001,-122.461563413,169,"812 N K STREET APT 107, TACOMA, WA, 98403","Match","Non_Exact","812 N K ST, TACOMA, WA, 98403",184646149,"L"
879170,"812 N KENDRICK AVE","GLENDIVE","MT",59330,47.1112384850001,-104.708792334,170,"812 N KENDRICK AVE, GLENDIVE, MT, 59330","Match","Exact","812 N KENDRICK AVE, GLENDIVE, MT, 59330",161614524,"R"
879171,"812 N LAMAR STREET","BURBANK","CA",91506,34.1778596500001,-118.331744496,171,"812 N LAMAR STREET, BURBANK, CA, 91506","Match","Non_Exact","812 N LAMER ST, BURBANK, CA, 91506",142725841,"R"
879172,"812 N NEW YORK AVE","LAKELAND","FL",33815,28.0517469930001,-81.959355304,172,"812 N NEW YORK AVE, LAKELAND, FL, 33815","Match","Exact","812 N NEW YORK AVE, LAKELAND, FL, 33815",104810097,"L"
879173,"812 N TAYLOR ST","WAKE FOREST","NC",27587,35.9876877,-78.4986291499999,173,"812 N TAYLOR ST, WAKE FOREST, NC, 27587","Match","Exact","812 N TAYLOR ST, WAKE FOREST, NC, 27587",612815085,"R"
879174,"812 N TYUS","GROESBECK","TX",76642,NA,NA,174,"812 N TYUS, GROESBECK, TX, 76642","Tie",NA,NA,NA,NA
879175,"812 N WASHINGTON AVE","BATAVIA","IL",60510,41.8587341460001,-88.306361408,175,"812 N WASHINGTON AVE, BATAVIA, IL, 60510","Match","Exact","812 N WASHINGTON AVE, BATAVIA, IL, 60510",119511626,"R"
879176,"812 N WESTMORELAND","ORLANDO","FL",32804,28.5563040530001,-81.3933665169999,176,"812 N WESTMORELAND, ORLANDO, FL, 32804","Match","Non_Exact","812 N WESTMORELAND DR, ORLANDO, FL, 32804",94280612,"L"
879177,"812 NICHOLAS TRAIL","FREMONT","IN",46737,41.7370923760001,-84.9421009229999,177,"812 NICHOLAS TRAIL, FREMONT, IN, 46737","Match","Exact","812 NICHOLAS TRL, FREMONT, IN, 46737",616174778,"L"
879178,"812 NINTH STREET","CARROLLTON","KY",41008,38.6734168830001,-85.171914504,178,"812 NINTH STREET, CARROLLTON, KY, 41008","Match","Exact","812 9TH ST, CARROLLTON, KY, 41008",65120169,"L"
879179,"812 NOBLE STREET","NORRISTOWN","PA",19401,40.126230768,-75.351080469,179,"812 NOBLE STREET, NORRISTOWN, PA, 19401","Match","Exact","812 NOBLE ST, NORRISTOWN, PA, 19401",135081756,"R"
879180,"812 NORTH 15TH ST","FORT PIERCE","FL",34950,27.456887657,-80.3391334569999,180,"812 NORTH 15TH ST, FORT PIERCE, FL, 34950","Match","Exact","812 N 15TH ST, FORT PIERCE, FL, 34950",120147541,"R"
879181,"812 NORTH 15TH STREET","FORT PIERCE","FL",34950,27.456887657,-80.3391334569999,181,"812 NORTH 15TH STREET, FORT PIERCE, FL, 34950","Match","Exact","812 N 15TH ST, FORT PIERCE, FL, 34950",120147541,"R"
879182,"812 NORTH 5TH ST","NASHVILLE","TN",37207,36.185072389,-86.763360973,182,"812 NORTH 5TH ST, NASHVILLE, TN, 37207","Match","Exact","812 N 5TH ST, NASHVILLE, TN, 37207",606816896,"L"
879183,"812 NORTH CLAYBROOK ST","MEMPHIS","TN",38107,35.1611733730001,-90.014648197,183,"812 NORTH CLAYBROOK ST, MEMPHIS, TN, 38107","Match","Exact","812 N CLAYBROOK ST, MEMPHIS, TN, 38107",72904540,"R"
879184,"812 NORTH COLLINS STREET","SAINT LOUIS","MO",63102,NA,NA,184,"812 NORTH COLLINS STREET, SAINT LOUIS, MO, 63102","No_Match",NA,NA,NA,NA
879185,"812 NORTH FORT","MURFREESBORO","TN",37130,NA,NA,185,"812 NORTH FORT, MURFREESBORO, TN, 37130","No_Match",NA,NA,NA,NA
879186,"812 NORTH STREET","MCCOMB","MS",39648,31.258715405,-90.462994963,186,"812 NORTH STREET, MCCOMB, MS, 39648","Match","Exact","812 NORTH ST, MCCOMB, MS, 39648",75855723,"R"
879187,"812 NORTH WASHINGTON STREET","GREENFIELD","OH",45123,39.358744474,-83.385556515,187,"812 NORTH WASHINGTON STREET, GREENFIELD, OH, 45123","Match","Exact","812 N WASHINGTON ST, GREENFIELD, OH, 45123",101060561,"L"
879188,"812 NORTHVIEW DRIVE","YREKA","CA",96097,41.7440946570001,-122.642928139,188,"812 NORTHVIEW DRIVE, YREKA, CA, 96097","Match","Exact","812 NORTHVIEW DR, YREKA, CA, 96097",613240372,"R"
879189,"812 NORTHWEST DRIVE","SILVER SPRING","MD",20901,NA,NA,189,"812 NORTHWEST DRIVE, SILVER SPRING, MD, 20901","No_Match",NA,NA,NA,NA
879190,"812 NW 113 STREET","MIAMI","FL",33168,25.8781980580001,-80.212619258,190,"812 NW 113 STREET, MIAMI, FL, 33168","Match","Exact","812 NW 113TH ST, MIAMI, FL, 33168",116033802,"L"
879191,"812 NW 114TH STREET","OKLAHOMA CITY","OK",73114,35.5862861640001,-97.5271465279999,191,"812 NW 114TH STREET, OKLAHOMA CITY, OK, 73114","Match","Exact","812 NW 114TH ST, OKLAHOMA CITY, OK, 73114",100394400,"L"
879192,"812 NW 15TH TERRACE APT 3","FORT LAUDERDALE","FL",33311,26.132967218,-80.1631623929999,192,"812 NW 15TH TERRACE APT 3, FORT LAUDERDALE, FL, 33311","Match","Non_Exact","812 NW 15TH TER, FORT LAUDERDALE, FL, 33311",114721069,"R"
879193,"812 NW 194TH TERRACE","EDMOND","OK",73012,35.668825113,-97.52739969,193,"812 NW 194TH TERRACE, EDMOND, OK, 73012","Match","Exact","812 NW 194TH TER, EDMOND, OK, 73012",624400068,"L"
879194,"812 NW 31ST ST","CORVALLIS","OR",97330,44.5757419450001,-123.285856728,194,"812 NW 31ST ST, CORVALLIS, OR, 97330","Match","Exact","812 NW 31ST ST, CORVALLIS, OR, 97330",155846756,"L"
879195,"812 NW 47TH ST","POMPANO BEACH","FL",33064,26.2879856370001,-80.1345963329999,195,"812 NW 47TH ST, POMPANO BEACH, FL, 33064","Match","Exact","812 NW 47TH ST, POMPANO BEACH, FL, 33064",640937937,"R"
879196,"812 NW 6TH AVE","BOYNTON BEACH","FL",33426,26.5328918340001,-80.0785266679999,196,"812 NW 6TH AVE, BOYNTON BEACH, FL, 33426","Match","Exact","812 NW 6TH AVE, BOYNTON BEACH, FL, 33426",115286992,"L"
879197,"812 OAK RIDGE CT E","BURNSVILLLE","MN",55306,44.7333475030001,-93.290111006,197,"812 OAK RIDGE CT E, BURNSVILLLE, MN, 55306","Match","Non_Exact","812 OAK RIDGE CT E, BURNSVILLE, MN, 55306",37926869,"L"
879198,"812 OAK RIDGE RD","MOSINEE","WI",54455,44.8129633890001,-89.746356554,198,"812 OAK RIDGE RD, MOSINEE, WI, 54455","Match","Exact","812 OAK RIDGE RD, MOSINEE, WI, 54455",117161213,"R"
879199,"812 OAKWOOD AVENUE","JACKSONVILLE","NC",28546,34.7544691680001,-77.379819893,199,"812 OAKWOOD AVENUE, JACKSONVILLE, NC, 28546","Match","Exact","812 OAKWOOD AVE, JACKSONVILLE, NC, 28546",14012843,"R"
879200,"812 OAKWOOD CT","CENTERTON","AR",72719,36.3600470210001,-94.271275238,200,"812 OAKWOOD CT, CENTERTON, AR, 72719","Match","Exact","812 OAKWOOD CT, CENTERTON, AR, 72719",632203076,"R"
879201,"812 OLLIE COURT APT 2D","CARPENTERSVILLE","IL",60110,42.114476553,-88.266557381,201,"812 OLLIE COURT APT 2D, CARPENTERSVILLE, IL, 60110","Match","Exact","812 OLLIE CT, CARPENTERSVILLE, IL, 60110",640814175,"L"
879202,"812 OMBRAGE RD APT C","CARENCRO","LA",70520,30.343426003,-92.0647204429999,202,"812 OMBRAGE RD APT C, CARENCRO, LA, 70520","Match","Exact","812 OMBRAGE RD, CARENCRO, LA, 70520",85644817,"R"
879203,"812 PACKARD STREET","ANN ARBOR","MI",48104,42.2691136460001,-83.738664211,203,"812 PACKARD STREET, ANN ARBOR, MI, 48104","Match","Exact","812 PACKARD ST, ANN ARBOR, MI, 48104",26014807,"R"
879204,"812 PARK CENTER","PANA","IL",62557,39.3776604700001,-89.0720481979999,204,"812 PARK CENTER, PANA, IL, 62557","Match","Non_Exact","812 PARK CENTER ST, PANA, IL, 62557",99315006,"R"
879205,"812 PARKSIDE DR","CEDAR HILL","TX",76104,32.5745799600001,-96.9501861099999,205,"812 PARKSIDE DR, CEDAR HILL, TX, 76104","Match","Non_Exact","812 PARKSIDE DR, CEDAR HILL, TX, 75104",103005151,"L"
879206,"812 PARKVIEW ST","ASHEBORO","NC",27203,35.700846772,-79.801468857,206,"812 PARKVIEW ST, ASHEBORO, NC, 27203","Match","Exact","812 PARKVIEW ST, ASHEBORO, NC, 27203",20406036,"R"
879207,"812 PARSONS ST","ATLANTA","GA",30314,33.7508707760001,-84.414375256,207,"812 PARSONS ST, ATLANTA, GA, 30314","Match","Non_Exact","812 PARSONS ST SW, ATLANTA, GA, 30314",17342971,"L"
879208,"812 PENINSULA AVE","BURLINGAME","CA",94010,37.5783335940001,-122.337575544,208,"812 PENINSULA AVE, BURLINGAME, CA, 94010","Match","Exact","812 PENINSULA AVE, BURLINGAME, CA, 94010",604983070,"R"
879209,"812 PHILADELPHIA PIKE SUITE C","WILMINGTON","DE",19809,39.7729496810001,-75.4960869019999,209,"812 PHILADELPHIA PIKE SUITE C, WILMINGTON, DE, 19809","Match","Exact","812 PHILADELPHIA PIKE, WILMINGTON, DE, 19809",187261523,"R"
879210,"812 PHILADELPHIA PIKE SUITE E","BELLEFONTE","DE",19809,39.7729496810001,-75.4960869019999,210,"812 PHILADELPHIA PIKE SUITE E, BELLEFONTE, DE, 19809","Match","Exact","812 PHILADELPHIA PIKE, BELLEFONTE, DE, 19809",187261523,"R"
879211,"812 PHILLIPS CT","MARION","SC",29571,34.1686154550001,-79.391915104,211,"812 PHILLIPS CT, MARION, SC, 29571","Match","Non_Exact","812 PHILLIPS ST, MARION, SC, 29571",28773487,"L"
879212,"812 PINE ST","MOSCOW","PA",18444,41.341323872,-75.530222268,212,"812 PINE ST, MOSCOW, PA, 18444","Match","Exact","812 PINE ST, MOSCOW, PA, 18444",139339666,"R"
879213,"812 PINEGROVE LN","LONGVIEW","TX",75604,32.515526209,-94.775812638,213,"812 PINEGROVE LN, LONGVIEW, TX, 75604","Match","Exact","812 PINEGROVE LN, LONGVIEW, TX, 75604",141108135,"R"
879214,"812 PINEY WOODS ROAD","SCOOBA","MS",39358,32.8674009810001,-88.463811935,214,"812 PINEY WOODS ROAD, SCOOBA, MS, 39358","Match","Exact","812 PINEY WOODS RD, SCOOBA, MS, 39358",711982,"R"
879215,"812 PLUM SPRINGS LOOP","BOWLING GREEN","KY",42101,37.0149725410001,-86.38035679,215,"812 PLUM SPRINGS LOOP, BOWLING GREEN, KY, 42101","Match","Exact","812 PLUM SPRINGS LOOP, BOWLING GREEN, KY, 42101",28002623,"R"
879216,"812 POCAHONTAS TRAIL","WHITE SULPHUR SPRING","WV",24986,37.8084057500001,-80.285260674,216,"812 POCAHONTAS TRAIL, WHITE SULPHUR SPRING, WV, 24986","Match","Non_Exact","812 POCAHONTAS TRL, WHT SULPHUR S, WV, 24986",646913404,"R"
879217,"812 PONDEROSA ROAD","ARDMORE","OK",73401,34.216298022,-96.958340845,217,"812 PONDEROSA ROAD, ARDMORE, OK, 73401","Match","Exact","812 PONDEROSA RD, ARDMORE, OK, 73401",14866117,"R"
879218,"812 POPULAR STREET","WILLIAMSPORT","PA",17701,41.2376021360001,-77.05776789,218,"812 POPULAR STREET, WILLIAMSPORT, PA, 17701","Match","Non_Exact","812 POPLAR ST, WILLIAMSPORT, PA, 17701",59477847,"R"
879219,"812 PRAIRIE OAKS DRIVE","PRAIRIE GROVE","AR",72753,35.984207661,-94.3283924039999,219,"812 PRAIRIE OAKS DRIVE, PRAIRIE GROVE, AR, 72753","Match","Exact","812 PRAIRIE OAKS DR, PRAIRIE GROVE, AR, 72753",49057631,"R"
879220,"812 PRINCENTON DR","DESOTO","TX",75115,NA,NA,220,"812 PRINCENTON DR, DESOTO, TX, 75115","No_Match",NA,NA,NA,NA
879221,"812 RANDAL STREET","ORLANDO","FL",32865,28.5370772540001,-81.391690769,221,"812 RANDAL STREET, ORLANDO, FL, 32865","Match","Non_Exact","812 RANDALL ST, ORLANDO, FL, 32805",94425977,"L"
879222,"812 RANDALL STREET","ORLANDO","FL",32805,28.5370772540001,-81.391690769,222,"812 RANDALL STREET, ORLANDO, FL, 32805","Match","Exact","812 RANDALL ST, ORLANDO, FL, 32805",94425977,"L"
879223,"812 RANDALL","ORLANDO","FL",32805,28.5370772540001,-81.391690769,223,"812 RANDALL, ORLANDO, FL, 32805","Match","Non_Exact","812 RANDALL ST, ORLANDO, FL, 32805",94425977,"L"
879224,"812 RAPPAHANNOCK  DR","WHITE STONE","VA",22578,37.6458562230001,-76.394610738,224,"812 RAPPAHANNOCK  DR, WHITE STONE, VA, 22578","Match","Exact","812 RAPPAHANNOCK DR, WHITE STONE, VA, 22578",30798002,"L"
879225,"812 RENAISSANCE AVENUE","MURFREESBORO","TN",37129,35.9409603350001,-86.3916181449999,225,"812 RENAISSANCE AVENUE, MURFREESBORO, TN, 37129","Match","Exact","812 RENAISSANCE AVE, MURFREESBORO, TN, 37129",606764505,"R"
879226,"812 RENAISSANCE","MURFREESBORO","TN",37129,35.9409603350001,-86.3916181449999,226,"812 RENAISSANCE, MURFREESBORO, TN, 37129","Match","Non_Exact","812 RENAISSANCE AVE, MURFREESBORO, TN, 37129",606764505,"R"
879227,"812 RICHARD LANE","GRETNA","LA",70056,29.868113314,-90.037248553,227,"812 RICHARD LANE, GRETNA, LA, 70056","Match","Exact","812 RICHARD LN, GRETNA, LA, 70056",93525929,"R"
879228,"812 RICHARDSON ST","GREENSBORO","NC",27403,36.0588718720001,-79.805041146,228,"812 RICHARDSON ST, GREENSBORO, NC, 27403","Match","Exact","812 RICHARDSON ST, GREENSBORO, NC, 27403",131032387,"R"
879229,"812 RIDGEWAY AVENUE","MORGANTOWN","WV",26505,39.6315032310001,-79.9433990639999,229,"812 RIDGEWAY AVENUE, MORGANTOWN, WV, 26505","Match","Exact","812 RIDGEWAY AVE, MORGANTOWN, WV, 26505",50742771,"R"
879230,"812 RILEY LANE","GREENSBORO","NC",27455,NA,NA,230,"812 RILEY LANE, GREENSBORO, NC, 27455","No_Match",NA,NA,NA,NA
879231,"812 ROOSEVELT","SEGUIN","TX",78155,29.5903072350001,-97.9565101649999,231,"812 ROOSEVELT, SEGUIN, TX, 78155","Match","Non_Exact","812 ROOSEVELT DR, SEGUIN, TX, 78155",54827927,"L"
879232,"812 ROSEDALE ARCH","COLUMBIA","SC",29203,34.055395725,-81.0242137929999,232,"812 ROSEDALE ARCH, COLUMBIA, SC, 29203","Match","Exact","812 ROSEDALE ARCH, COLUMBIA, SC, 29203",71818947,"L"
879233,"812 ROSEHAVEN","ALTUS","OK",73539,NA,NA,233,"812 ROSEHAVEN, ALTUS, OK, 73539","No_Match",NA,NA,NA,NA
879234,"812 RUTH AVE","KANNAPOLIS","NC",28083,35.5060904200001,-80.603447524,234,"812 RUTH AVE, KANNAPOLIS, NC, 28083","Match","Exact","812 RUTH AVE, KANNAPOLIS, NC, 28083",25272733,"R"
879235,"812 RUTH AVENUE","KANNAPOLIS","NC",28083,35.5060904200001,-80.603447524,235,"812 RUTH AVENUE, KANNAPOLIS, NC, 28083","Match","Exact","812 RUTH AVE, KANNAPOLIS, NC, 28083",25272733,"R"
879236,"812 S 23RD STREET","EASTON","PA",18042,40.680003556,-75.2425848299999,236,"812 S 23RD STREET, EASTON, PA, 18042","Match","Exact","812 S 23RD ST, EASTON, PA, 18042",136912183,"L"
879237,"812 S 31ST AVENUE","YAKIMA","WA",98902,46.590251175,-120.55006635,237,"812 S 31ST AVENUE, YAKIMA, WA, 98902","Match","Exact","812 S 31ST AVE, YAKIMA, WA, 98902",184934325,"R"
879238,"812 S 45TH ST","TACOMA","WA",98418,47.2167643340001,-122.443858258,238,"812 S 45TH ST, TACOMA, WA, 98418","Match","Exact","812 S 45TH ST, TACOMA, WA, 98418",184626008,"L"
879239,"812 S 4TH AVE","TUCSON","AZ",84201,NA,NA,239,"812 S 4TH AVE, TUCSON, AZ, 84201","No_Match",NA,NA,NA,NA
879240,"812 S 57TH STREET","PHILADELPHIA","PA",19143,39.948312124,-75.23755893,240,"812 S 57TH STREET, PHILADELPHIA, PA, 19143","Match","Exact","812 S 57TH ST, PHILADELPHIA, PA, 19143",131399299,"R"
879241,"812 S 8TH ST","PHILADELPHIA","PA",19147,39.939186524,-75.1561909769999,241,"812 S 8TH ST, PHILADELPHIA, PA, 19147","Match","Exact","812 S 8TH ST, PHILADELPHIA, PA, 19147",131424041,"R"
879242,"812 S BRADFORD STREET","DOVER","DE",19904,39.149781697,-75.52379989,242,"812 S BRADFORD STREET, DOVER, DE, 19904","Match","Exact","812 S BRADFORD ST, DOVER, DE, 19904",68088584,"L"
879243,"812 S BROADWAY ST","NEW ULM","MN",56073,44.3206506010001,-94.467920443,243,"812 S BROADWAY ST, NEW ULM, MN, 56073","Match","Non_Exact","812 N BROADWAY ST, NEW ULM, MN, 56073",28568697,"R"
879244,"812 S CALVIN RD","SPOKANE VALLEY","WA",99037,47.649504602,-117.210750083,244,"812 S CALVIN RD, SPOKANE VALLEY, WA, 99037","Match","Exact","812 S CALVIN RD, SPOKANE VALLEY, WA, 99037",189896752,"L"
879245,"812 S CLAY STREET","HINSDALE","IL",60521,41.792477526,-87.934265894,245,"812 S CLAY STREET, HINSDALE, IL, 60521","Match","Exact","812 S CLAY ST, HINSDALE, IL, 60521",112550226,"R"
879246,"812 S HENDERSON","BLOOMINGTON","IN",47401,39.1583870580001,-86.5271192659999,246,"812 S HENDERSON, BLOOMINGTON, IN, 47401","Match","Non_Exact","812 S HENDERSON ST, BLOOMINGTON, IN, 47401",42323847,"R"
879247,"812 S LAFLIN ST","CHICAGO","IL",60607,41.870964547,-87.664132423,247,"812 S LAFLIN ST, CHICAGO, IL, 60607","Match","Exact","812 S LAFLIN ST, CHICAGO, IL, 60607",605105712,"R"
879248,"812 S LARCH ST","INGLEWOOD","CA",90301,33.9538569790001,-118.350027345,248,"812 S LARCH ST, INGLEWOOD, CA, 90301","Match","Exact","812 S LARCH ST, INGLEWOOD, CA, 90301",141654604,"L"
879249,"812 S LOCUST ST APT B","DENVER","CO",80224,39.7294991800001,-104.913937983,249,"812 S LOCUST ST APT B, DENVER, CO, 80224","Match","Non_Exact","812 LOCUST ST, DENVER, CO, 80220",177339792,"R"
879250,"812 S MAIN AVE","SIOUX FALLS","SD",57104,43.5388585370001,-96.728224858,250,"812 S MAIN AVE, SIOUX FALLS, SD, 57104","Match","Exact","812 S MAIN AVE, SIOUX FALLS, SD, 57104",34972847,"L"
879251,"812 S MAIN ST","SHERIDAN","WY",82801,44.7894377970001,-106.955987272,251,"812 S MAIN ST, SHERIDAN, WY, 82801","Match","Exact","812 S MAIN ST, SHERIDAN, WY, 82801",147404726,"L"
879252,"812 S MERIDIAN DR","WASHINGTON","IN",47501,38.649178207,-87.175574314,252,"812 S MERIDIAN DR, WASHINGTON, IN, 47501","Match","Non_Exact","812 S MERIDIAN ST, WASHINGTON, IN, 47501",32069510,"R"
879253,"812 S MILLER ST APT 3S","CHICAGO","IL",60607,41.8712119670001,-87.652270417,253,"812 S MILLER ST APT 3S, CHICAGO, IL, 60607","Match","Non_Exact","812 S MILLER ST, CHICAGO, IL, 60607",624523314,"R"
879254,"812 S OAK ST","LINN","KS",66953,39.6769742980001,-97.0847608029999,254,"812 S OAK ST, LINN, KS, 66953","Match","Exact","812 OAK ST, LINN, KS, 66953",11566291,"R"
879255,"812 S STANLEY AVE","LOS ANGELES","CA",90036,34.060326639,-118.356817616,255,"812 S STANLEY AVE, LOS ANGELES, CA, 90036","Match","Exact","812 S STANLEY AVE, LOS ANGELES, CA, 90036",141599214,"L"
879256,"812 S WATSON","VISALIA","CA",93292,NA,NA,256,"812 S WATSON, VISALIA, CA, 93292","No_Match",NA,NA,NA,NA
879257,"812 SAXONY COURT","UNIVERSITY CITY","MO",63130,38.6634089340001,-90.342133228,257,"812 SAXONY COURT, UNIVERSITY CITY, MO, 63130","Match","Exact","812 SAXONY CT, UNIVERSITY CITY, MO, 63130",100133941,"R"
879258,"812 SCOTT AVE","CRAIGMONT","ID",83523,46.240514911,-116.461992862,258,"812 SCOTT AVE, CRAIGMONT, ID, 83523","Match","Exact","812 SCOTT AVE, CRAIGMONT, ID, 83523",201755314,"L"
879259,"812 SE 47TH ST","PORTLAND","OR",97215,NA,NA,259,"812 SE 47TH ST, PORTLAND, OR, 97215","No_Match",NA,NA,NA,NA
879260,"812 SEAL STREET","ST PAUL","MN",55114,44.9662573780001,-93.196109785,260,"812 SEAL STREET, ST PAUL, MN, 55114","Match","Exact","812 SEAL ST, SAINT PAUL, MN, 55114",97639024,"R"
879261,"812 SEINA VISTA DRIVE","MADISON","AL",35758,34.7083178730001,-86.7292567059999,261,"812 SEINA VISTA DRIVE, MADISON, AL, 35758","Match","Exact","812 SEINA VISTA DR, MADISON, AL, 35758",58153610,"R"
879262,"812 SHEPHERD BROTHERS BLVD","MOBERLY","MO",65270,NA,NA,262,"812 SHEPHERD BROTHERS BLVD, MOBERLY, MO, 65270","No_Match",NA,NA,NA,NA
879263,"812 SILVER HILL ROAD","NORTH LITTLE ROCK","AR",72118,34.8121604090001,-92.257735248,263,"812 SILVER HILL ROAD, NORTH LITTLE ROCK, AR, 72118","Match","Exact","812 SILVER HILL RD, N LITTLE ROCK, AR, 72118",83513987,"R"
879264,"812 SKYLINE CIR","BESSEMER","AL",35020,33.3885039620001,-86.975552148,264,"812 SKYLINE CIR, BESSEMER, AL, 35020","Match","Exact","812 SKYLINE CIR, BESSEMER, AL, 35020",81548615,"L"
879265,"812 SKYLINE DR","BESSEMER","AL",35020,33.3885039620001,-86.975552148,265,"812 SKYLINE DR, BESSEMER, AL, 35020","Match","Non_Exact","812 SKYLINE CIR, BESSEMER, AL, 35020",81548615,"L"
879266,"812 SLEEPY HOLLOW DR","CEDAR HILL","TX",75104,32.604689896,-96.958167077,266,"812 SLEEPY HOLLOW DR, CEDAR HILL, TX, 75104","Match","Exact","812 SLEEPY HOLLOW DR, CEDAR HILL, TX, 75104",103186834,"R"
879267,"812 SOUTH 8TH STREET","WILMINGTON","NC",28401,34.2257820190001,-77.93814886,267,"812 SOUTH 8TH STREET, WILMINGTON, NC, 28401","Match","Exact","812 S 8TH ST, WILMINGTON, NC, 28401",152731673,"R"
879268,"812 SOUTH DRIVE","BALDWIN","NY",11510,NA,NA,268,"812 SOUTH DRIVE, BALDWIN, NY, 11510","No_Match",NA,NA,NA,NA
879269,"812 SOUTH FLOWER ST","INGLEWOOD","CA",90301,33.9538805350001,-118.346909734,269,"812 SOUTH FLOWER ST, INGLEWOOD, CA, 90301","Match","Exact","812 S FLOWER ST, INGLEWOOD, CA, 90301",141655345,"L"
879270,"812 SOUTH MAIN","SEARCY","AR",72143,35.1376842240001,-91.7806112979999,270,"812 SOUTH MAIN, SEARCY, AR, 72143","Match","Exact","812 S MAIN, SEARCY, AR, 72143",633191087,"L"
879271,"812 SOUTH MAIN","SHERIDAN","WY",82801,44.7894511920001,-106.955987272,271,"812 SOUTH MAIN, SHERIDAN, WY, 82801","Match","Non_Exact","812 S MAIN ST, SHERIDAN, WY, 82801",147404726,"L"
879272,"812 SOUTH PLEASANT STREET","EDINBURGH","IN",46124,39.3466778490001,-85.9688630639999,272,"812 SOUTH PLEASANT STREET, EDINBURGH, IN, 46124","Match","Exact","812 S PLEASANT ST, EDINBURGH, IN, 46124",30966944,"L"
879273,"812 SOUTH PRESTON STREET","LOUISVILLE","KY",40203,38.2420474150001,-85.748097775,273,"812 SOUTH PRESTON STREET, LOUISVILLE, KY, 40203","Match","Exact","812 S PRESTON ST, LOUISVILLE, KY, 40203",96845822,"R"
879274,"812 SOUTH ST","UTICA","NY",13501,43.090997133,-75.217139958,274,"812 SOUTH ST, UTICA, NY, 13501","Match","Exact","812 SOUTH ST, UTICA, NY, 13501",171531615,"R"
879275,"812 SOUTH UNION ST","MEXICO","MO",65265,39.16576531,-91.879820554,275,"812 SOUTH UNION ST, MEXICO, MO, 65265","Match","Non_Exact","812 UNION ST, MEXICO, MO, 65265",34293688,"R"
879276,"812 SOUTHWEST AVE","PERRYTON","TX",79070,NA,NA,276,"812 SOUTHWEST AVE, PERRYTON, TX, 79070","No_Match",NA,NA,NA,NA
879277,"812 SOUTHWIND DRIVE","FAIRFIELD","OH",45014,39.3413659940001,-84.553084236,277,"812 SOUTHWIND DRIVE, FAIRFIELD, OH, 45014","Match","Exact","812 SOUTHWIND DR, FAIRFIELD, OH, 45014",113798098,"L"
879278,"812 STANDIFER","ELK CITY","OK",73644,35.4207056060001,-99.415076772,278,"812 STANDIFER, ELK CITY, OK, 73644","Match","Non_Exact","812 STANDIFER RD, ELK CITY, OK, 73644",639888702,"R"
879279,"812 STERCHI RIDGE WAY APT 222","KNOXVILLE","TN",37912,NA,NA,279,"812 STERCHI RIDGE WAY APT 222, KNOXVILLE, TN, 37912","No_Match",NA,NA,NA,NA
879280,"812 STONE RD","WESTMINSTER","MD",21158,39.642651932,-77.0253603149999,280,"812 STONE RD, WESTMINSTER, MD, 21158","Match","Exact","812 STONE RD, WESTMINSTER, MD, 21158",61750529,"R"
879281,"812 STRASBURG DRIVE","MARKS","PA",16046,40.6975522830001,-80.0363167419999,281,"812 STRASBURG DRIVE, MARKS, PA, 16046","Match","Non_Exact","812 STRASBURG DR, MARS, PA, 16046",607358498,"R"
879282,"812 SUNSET DRIVE APT 2","URBANA","IL",61801,40.123695981,-88.218084656,282,"812 SUNSET DRIVE APT 2, URBANA, IL, 61801","Match","Exact","812 SUNSET DR, URBANA, IL, 61801",8823173,"R"
879283,"812 SW 127TH ST","SEATTLE","WA",98146,47.489414063,-122.345033894,283,"812 SW 127TH ST, SEATTLE, WA, 98146","Match","Exact","812 SW 127TH ST, SEATTLE, WA, 98146",186699850,"L"
879284,"812 SW 6TH","TOPEKA","KS",66603,39.054393718,-95.683526559,284,"812 SW 6TH, TOPEKA, KS, 66603","Match","Non_Exact","812 SW 6TH AVE, TOPEKA, KS, 66603",17888918,"R"
879285,"812 TANGLE RIDGE ROAD","PERHAM","ME",4766,46.916947878,-68.236217271,285,"812 TANGLE RIDGE ROAD, PERHAM, ME, 4766","Match","Exact","812 TANGLE RIDGE RD, PERHAM, ME, 04766",123838958,"L"
879286,"812 TAYLOR AVE","RAPID CITY","SD",57701,44.091956542,-103.230497427,286,"812 TAYLOR AVE, RAPID CITY, SD, 57701","Match","Exact","812 TAYLOR AVE, RAPID CITY, SD, 57701",205507676,"R"
879287,"812 THE OLD STATION COURT","WOODBINE","MD",21797,39.349155824,-77.0468031789999,287,"812 THE OLD STATION COURT, WOODBINE, MD, 21797","Match","Exact","812 THE OLD STATION CT, WOODBINE, MD, 21797",158953407,"R"
879288,"812 THOMPSON ST","BLOOMER","WI",54724,45.1076824610001,-91.499199187,288,"812 THOMPSON ST, BLOOMER, WI, 54724","Match","Exact","812 THOMPSON ST, BLOOMER, WI, 54724",78934819,"R"
879289,"812 THORNTON AVENUE","GREENSBURG","PA",15601,40.2916913990001,-79.532899587,289,"812 THORNTON AVENUE, GREENSBURG, PA, 15601","Match","Exact","812 THORNTON AVE, GREENSBURG, PA, 15601",635510034,"R"
879290,"812 THRASH LANE","ANNISTON","AL",36207,33.634027217,-85.7844766969999,290,"812 THRASH LANE, ANNISTON, AL, 36207","Match","Exact","812 THRASH LN, ANNISTON, AL, 36207",66546132,"L"
879291,"812 TRUMAN LN","CEDAR PARK","TX",78613,30.51684256,-97.812731028,291,"812 TRUMAN LN, CEDAR PARK, TX, 78613","Match","Exact","812 TRUMAN LN, CEDAR PARK, TX, 78613",126476852,"L"
879292,"812 TUTTLE ST","MANHATTAN","KS",66502,39.2086623170001,-96.569494956,292,"812 TUTTLE ST, MANHATTAN, KS, 66502","Match","Exact","812 TUTTLE ST, MANHATTAN, KS, 66502",27795580,"L"
879293,"812 UNIVERSITY AVE","PALO ALTO","CA",94301,37.452151857,-122.155366337,293,"812 UNIVERSITY AVE, PALO ALTO, CA, 94301","Match","Exact","812 UNIVERSITY AVE, PALO ALTO, CA, 94301",122950200,"R"
879294,"812 VAN NEST AVENUE","BRONX","NY",10462,40.8446133480001,-73.861586695,294,"812 VAN NEST AVENUE, BRONX, NY, 10462","Match","Exact","812 VAN NEST AVE, BRONX, NY, 10462",80304730,"R"
879295,"812 VERHALEN","ALVIN","TX",77511,29.384228174,-95.227987811,295,"812 VERHALEN, ALVIN, TX, 77511","Match","Non_Exact","812 VERHALEN RD, ALVIN, TX, 77511",116600423,"L"
879296,"812 VILLAGE CIRCLE APT B","NEWARK","DE",19713,39.6683945080001,-75.701455488,296,"812 VILLAGE CIRCLE APT B, NEWARK, DE, 19713","Match","Exact","812 VILLAGE CIR, NEWARK, DE, 19713",187264894,"R"
879297,"812 VIRGINIA LN","RAPID CITY","SD",57701,44.1651675210001,-103.232358497,297,"812 VIRGINIA LN, RAPID CITY, SD, 57701","Match","Exact","812 VIRGINIA LN, RAPID CITY, SD, 57701",200930236,"R"
879298,"812 W 1ST ST","TOPEKA","KS",66603,39.0614312820001,-95.6804960269999,298,"812 W 1ST ST, TOPEKA, KS, 66603","Match","Non_Exact","812 W 1ST AVE, TOPEKA, KS, 66603",17888896,"R"
879299,"812 W 2ND ST","GRAND MARAIS","MN",55604,47.7519351660001,-90.344490858,299,"812 W 2ND ST, GRAND MARAIS, MN, 55604","Match","Exact","812 2ND ST, GRAND MARAIS, MN, 55604",194156803,"L"
879300,"812 W 3RD AVE","ALBANY","GA",31701,31.589543248,-84.168906605,300,"812 W 3RD AVE, ALBANY, GA, 31701","Match","Exact","812 W 3RD AVE, ALBANY, GA, 31701",84314597,"L"
879301,"812 W ARBOR POINTE WAY","NAMPA","ID",83686,43.5668602320001,-116.58845508,301,"812 W ARBOR POINTE WAY, NAMPA, ID, 83686","Match","Exact","812 W ARBOR POINTE WAY, NAMPA, ID, 83686",614162779,"L"
879302,"812 W CLOVER RD SPACE 77","TRACY","CA",95376,37.7614011100001,-121.43708777,302,"812 W CLOVER RD SPACE 77, TRACY, CA, 95376","Match","Non_Exact","812 W CLOVER RD, TRACY, CA, 95376",133910925,"L"
879303,"812 W EMERALD ISLAND DR","GILBERT","AZ",85233,33.339782477,-111.808175397,303,"812 W EMERALD ISLAND DR, GILBERT, AZ, 85233","Match","Exact","812 W EMERALD ISLAND DR, GILBERT, AZ, 85233",128787910,"L"
879304,"812 W GRANDVIEW AVE","SUNNYSIDE","WA",98944,46.3183325540001,-120.035024476,304,"812 W GRANDVIEW AVE, SUNNYSIDE, WA, 98944","Match","Exact","812 GRANDVIEW AVE, SUNNYSIDE, WA, 98944",184970177,"L"
879305,"812 W HIGHLAND BLVD","BATTLE CREEK","MI",49015,42.308373245,-85.220527574,305,"812 W HIGHLAND BLVD, BATTLE CREEK, MI, 49015","Match","Exact","812 W HIGHLAND BLVD, BATTLE CREEK, MI, 49015",11712092,"R"
879306,"812 W JACKSON","SPOKANE","WA",99205,47.6803768,-117.423891254,306,"812 W JACKSON, SPOKANE, WA, 99205","Match","Non_Exact","812 W JACKSON AVE, SPOKANE, WA, 99205",189874743,"R"
879307,"812 W LARAMIE LN","DALLAS","TX",75217,32.699533876,-96.652283541,307,"812 W LARAMIE LN, DALLAS, TX, 75217","Match","Exact","812 W LARAMIE LN, DALLAS, TX, 75217",102962783,"L"
879308,"812 W WASHINGTON ST","APPLETON","WI",54915,44.2626051060001,-88.417758158,308,"812 W WASHINGTON ST, APPLETON, WI, 54915","Match","Non_Exact","812 W WASHINGTON ST, APPLETON, WI, 54914",74920226,"R"
879309,"812 WAYCROSS","MARION","SC",29571,34.1847829280001,-79.39469917,309,"812 WAYCROSS, MARION, SC, 29571","Match","Non_Exact","812 WAYCROSS ST, MARION, SC, 29571",28773092,"R"
879310,"812 WEST 181 STREET APT 36","NEW YORK","NY",10033,40.8510788340001,-73.938893322,310,"812 WEST 181 STREET APT 36, NEW YORK, NY, 10033","Match","Exact","812 W 181ST ST, NEW YORK, NY, 10033",59655463,"L"
879311,"812 WEST 22ND AVE","EUGENE","OR",97405,44.035501072,-123.104387817,311,"812 WEST 22ND AVE, EUGENE, OR, 97405","Match","Exact","812 W 22ND AVE, EUGENE, OR, 97405",178232070,"L"
879312,"812 WEST DAYTON CIRCLE","FORT LAUDERDALE","FL",33312,26.1105920520001,-80.1954067,312,"812 WEST DAYTON CIRCLE, FORT LAUDERDALE, FL, 33312","Match","Exact","812 W DAYTON CIR, FORT LAUDERDALE, FL, 33312",114709892,"L"
879313,"812 WEST MAIN ST","MASCOUTAH","IL",62258,38.491070554,-89.8093877919999,313,"812 WEST MAIN ST, MASCOUTAH, IL, 62258","Match","Exact","812 W MAIN ST, MASCOUTAH, IL, 62258",107822735,"L"
879314,"812 WEST OSAGE","CLEVELAND","OK",74020,36.306692798,-96.472989555,314,"812 WEST OSAGE, CLEVELAND, OK, 74020","Match","Non_Exact","812 W OSAGE ST, CLEVELAND, OK, 74020",166312458,"R"
879315,"812 WEST PRAIRIEVIEW DR","COLUMBIA","MO",65202,38.9880087430001,-92.349156848,315,"812 WEST PRAIRIEVIEW DR, COLUMBIA, MO, 65202","Match","Exact","812 W PRAIRIEVIEW DR, COLUMBIA, MO, 65202",647397049,"L"
879316,"812 WESTWOOD RD","BERRYVILLE","VA",22611,39.1527182230001,-78.0069306359999,316,"812 WESTWOOD RD, BERRYVILLE, VA, 22611","Match","Exact","812 WESTWOOD RD, BERRYVILLE, VA, 22611",125895200,"L"
879317,"812 WHITBY AVENUE","YEADON","PA",19050,39.9344139620001,-75.250403021,317,"812 WHITBY AVENUE, YEADON, PA, 19050","Match","Exact","812 WHITBY AVE, YEADON, PA, 19050",134886712,"R"
879318,"812 WIDGET DRIVE","SAN JOSE","CA",95117,37.313193004,-121.960688594,318,"812 WIDGET DRIVE, SAN JOSE, CA, 95117","Match","Exact","812 WIDGET DR, SAN JOSE, CA, 95117",122900999,"L"
879319,"812 WINDWARD LANE","TALLAHASSEE","FL",32305,30.404465175,-84.267417994,319,"812 WINDWARD LANE, TALLAHASSEE, FL, 32305","Match","Exact","812 WINDWARD LN, TALLAHASSEE, FL, 32305",82883545,"L"
879320,"812 WOODLAWN RD","STEUBENVILLE","OH",43952,40.3742211740001,-80.6292520389999,320,"812 WOODLAWN RD, STEUBENVILLE, OH, 43952","Match","Exact","812 WOODLAWN RD, STEUBENVILLE, OH, 43952",648840643,"R"
879321,"812 WORCESTER DRIVE","STEVENSVILLE","MD",21666,38.965725164,-76.345362783,321,"812 WORCESTER DRIVE, STEVENSVILLE, MD, 21666","Match","Exact","812 WORCESTER DR, STEVENSVILLE, MD, 21666",68049258,"L"
879322,"812-A THIRD STREET SW","WASHINGTON","DC",20024,38.880172547,-77.015176181,322,"812-A THIRD STREET SW, WASHINGTON, DC, 20024","Match","Exact","812 3RD ST SW, WASHINGTON, DC, 20024",76227053,"L"
879323,"812","CLEVELAND","GA",44110,NA,NA,323,"812, CLEVELAND, GA, 44110","No_Match",NA,NA,NA,NA
879324,"8120 BEAVER HILLS LANE","CEDAR FALLS","IA",50613,42.5632340590001,-92.5166309539999,324,"8120 BEAVER HILLS LANE, CEDAR FALLS, IA, 50613","Match","Exact","8120 BEAVER HILLS LN, CEDAR FALLS, IA, 50613",77277599,"R"
879325,"8120 BELLEVUE ROAD","CLEVELAND","OH",44112,NA,NA,325,"8120 BELLEVUE ROAD, CLEVELAND, OH, 44112","No_Match",NA,NA,NA,NA
879326,"8120 BELMONT COURT","NORTH RICHLAND HILLS","TX",76182,32.8953563470001,-97.188730106,326,"8120 BELMONT COURT, NORTH RICHLAND HILLS, TX, 76182","Match","Exact","8120 BELMONT CT, NORTH RICHLAND HILLS, TX, 76182",617671657,"R"
879327,"8120 BUTCHERKNIFE ROAD","ROSEVILLE","OH",43777,39.8127041120001,-82.169456754,327,"8120 BUTCHERKNIFE ROAD, ROSEVILLE, OH, 43777","Match","Non_Exact","8120 BUTCHER KNIFE RD, ROSEVILLE, OH, 43777",37363434,"L"
879328,"8120 CAROLYN CT","ROSEVILLE","CA",95747,38.7510615950001,-121.339302682,328,"8120 CAROLYN CT, ROSEVILLE, CA, 95747","Match","Exact","8120 CAROLYN CT, ROSEVILLE, CA, 95747",106778013,"R"
879329,"8120 CARTER CREEK DRIVE UNIT 306","CHARLOTTE","NC",28227,35.1535319920001,-80.7353677519999,329,"8120 CARTER CREEK DRIVE UNIT 306, CHARLOTTE, NC, 28227","Match","Exact","8120 CARTER CREEK DR, CHARLOTTE, NC, 28227",70564677,"L"
879330,"8120 CASTELAR ST","OMAHA","NE",68124,41.23661723,-96.040359837,330,"8120 CASTELAR ST, OMAHA, NE, 68124","Match","Exact","8120 CASTELAR ST, OMAHA, NE, 68124",116981091,"R"
879331,"8120 CLAYMORE CT","INVER GROVE HEIGHTS","MN",55076,NA,NA,331,"8120 CLAYMORE CT, INVER GROVE HEIGHTS, MN, 55076","No_Match",NA,NA,NA,NA
879332,"8120 DANNEIL CIR","LONG GROVE","IL",60047,42.239871265,-88.037535011,332,"8120 DANNEIL CIR, LONG GROVE, IL, 60047","Match","Exact","8120 DANNEIL CIR, LONG GROVE, IL, 60047",119717135,"R"
879333,"8120 DOYLE SPRINGS ROAD","LITTLE ROCK","AR",72209,34.675444262,-92.328464195,333,"8120 DOYLE SPRINGS ROAD, LITTLE ROCK, AR, 72209","Match","Exact","8120 DOYLE SPRINGS RD, LITTLE ROCK, AR, 72209",83559629,"R"
879334,"8120 E 4TH PLACE","HIGHLAND","IN",46322,NA,NA,334,"8120 E 4TH PLACE, HIGHLAND, IN, 46322","Tie",NA,NA,NA,NA
879335,"8120 E BOREALIS DR","NAMPA","ID",83687,43.6332861280001,-116.555650893,335,"8120 E BOREALIS DR, NAMPA, ID, 83687","Match","Exact","8120 E BOREALIS DR, NAMPA, ID, 83687",627164657,"L"
879336,"8120 E BOREALIS","NAMPA","ID",83687,43.6332861280001,-116.555650893,336,"8120 E BOREALIS, NAMPA, ID, 83687","Match","Non_Exact","8120 E BOREALIS DR, NAMPA, ID, 83687",627164657,"L"
879337,"8120 E DELVIN DRIVE","BATON ROUGE","LA",70811,NA,NA,337,"8120 E DELVIN DRIVE, BATON ROUGE, LA, 70811","No_Match",NA,NA,NA,NA
879338,"8120 E JEFFERSON 7B","DETROIT","MI",48214,NA,NA,338,"8120 E JEFFERSON 7B, DETROIT, MI, 48214","No_Match",NA,NA,NA,NA
879339,"8120 E JEFFERSON AVE APT 5D","DETROIT","MI",48214,42.352200715,-82.993623457,339,"8120 E JEFFERSON AVE APT 5D, DETROIT, MI, 48214","Match","Non_Exact","8120 E JEFFERSON AVE, DETROIT, MI, 48214",95485308,"R"
879340,"8120 EAST JEFFERSON AVE APT 2B1","DETROIT","MI",48214,42.35219714,-82.99362897,340,"8120 EAST JEFFERSON AVE APT 2B1, DETROIT, MI, 48214","Match","Exact","8120 E JEFFERSON AVE, DETROIT, MI, 48214",95485308,"R"
879341,"8120 EASTERN AVE NW","WASHINGTON","DC",20012,38.9885939530001,-77.031780364,341,"8120 EASTERN AVE NW, WASHINGTON, DC, 20012","Match","Exact","8120 EASTERN AVE NW, WASHINGTON, DC, 20012",62067930,"L"
879342,"8120 ELLEN WAY","SAVAGE","MD",20763,39.1454397260001,-76.823556976,342,"8120 ELLEN WAY, SAVAGE, MD, 20763","Match","Exact","8120 ELLEN WAY, SAVAGE, MD, 20763",158932346,"L"
879343,"8120 ELLERTON AVE","ST. LOUIS","MO",63114,38.692608761,-90.332675883,343,"8120 ELLERTON AVE, ST. LOUIS, MO, 63114","Match","Exact","8120 ELLERTON AVE, SAINT LOUIS, MO, 63114",100133510,"L"
879344,"8120 FENTON STREET 202","SILVER SPRING","MD",20910,38.9905607580001,-77.023981878,344,"8120 FENTON STREET 202, SILVER SPRING, MD, 20910","Match","Exact","8120 FENTON ST, SILVER SPRING, MD, 20910",62068170,"L"
879345,"8120 FENTON STREET SUITE 202","SILVERSPRING","MD",20910,38.9905607580001,-77.023981878,345,"8120 FENTON STREET SUITE 202, SILVERSPRING, MD, 20910","Match","Non_Exact","8120 FENTON ST, SILVER SPRING, MD, 20910",62068170,"L"
879346,"8120 GARDEN POINT DR","LELAND","NC",28451,NA,NA,346,"8120 GARDEN POINT DR, LELAND, NC, 28451","No_Match",NA,NA,NA,NA
879347,"8120 GARDEN POINT DR","LELAND","NC",63017,NA,NA,347,"8120 GARDEN POINT DR, LELAND, NC, 63017","No_Match",NA,NA,NA,NA
879348,"8120 GLENDEVON LN","DULUTH","GA",30097,34.0694591270001,-84.137692279,348,"8120 GLENDEVON LN, DULUTH, GA, 30097","Match","Exact","8120 GLENDEVON LN, DULUTH, GA, 30097",637664914,"L"
879349,"8120 GRAVOIS RD","ST LOUIS","MO",63123,38.559973445,-90.30071135,349,"8120 GRAVOIS RD, ST LOUIS, MO, 63123","Match","Exact","8120 GRAVOIS RD, SAINT LOUIS, MO, 63123",606392507,"L"
879350,"8120 HARTFORD AVENUE","SILVER SPRING","MD",20910,38.991901555,-77.011586689,350,"8120 HARTFORD AVENUE, SILVER SPRING, MD, 20910","Match","Exact","8120 HARTFORD AVE, SILVER SPRING, MD, 20910",624469741,"L"
879351,"8120 HOLLANSBURG SAMPSOM RD","ARCANUM","OH",45304,40.006016242,-84.502053758,351,"8120 HOLLANSBURG SAMPSOM RD, ARCANUM, OH, 45304","Match","Non_Exact","8120 HOLLANSBURG-SAMPSON RD, ARCANUM, OH, 45304",54551298,"L"
879352,"8120 JETSTAR DRIVE SUITE 150","IRVING","TX",75063,32.9173481060001,-97.002628368,352,"8120 JETSTAR DRIVE SUITE 150, IRVING, TX, 75063","Match","Exact","8120 JETSTAR DR, IRVING, TX, 75063",103183572,"L"
879353,"8120 LAKE VIEW DR","OLIVE BRANCH","MS",38654,34.9129736030001,-89.845420051,353,"8120 LAKE VIEW DR, OLIVE BRANCH, MS, 38654","Match","Exact","8120 LAKE VIEW DR, OLIVE BRANCH, MS, 38654",91842401,"R"
879354,"8120 LAKESHORE DR","DEXTER","IA",50070,41.554842514,-94.260012526,354,"8120 LAKESHORE DR, DEXTER, IA, 50070","Match","Exact","8120 LAKESHORE DR, DEXTER, IA, 50070",68679694,"L"
879355,"8120 MAYWOOD DR","CINCINNATI","OH",45241,39.298425373,-84.360709003,355,"8120 MAYWOOD DR, CINCINNATI, OH, 45241","Match","Exact","8120 MAYWOOD DR, CINCINNATI, OH, 45241",113802227,"L"
879356,"8120 MICHENER AVENUE","PHILADELPHIA","PA",19150,40.0761507010001,-75.169239988,356,"8120 MICHENER AVENUE, PHILADELPHIA, PA, 19150","Match","Exact","8120 MICHENER AVE, PHILADELPHIA, PA, 19150",131394955,"L"
879357,"8120 MISSION HILL","JESSUP","MD",20794,NA,NA,357,"8120 MISSION HILL, JESSUP, MD, 20794","Tie",NA,NA,NA,NA
879358,"8120 N SEMMES ST","TAMPA","FL",33604,28.0215847100001,-82.441719785,358,"8120 N SEMMES ST, TAMPA, FL, 33604","Match","Exact","8120 SEMMES ST, TAMPA, FL, 33604",104519979,"L"
879359,"8120 PAISLEY","THE COLONY","TX",75056,33.1135529210001,-96.922045171,359,"8120 PAISLEY, THE COLONY, TX, 75056","Match","Exact","8120 PAISLEY, THE COLONY, TX, 75056",641486114,"R"
879360,"8120 PINE TREE LANE","WEST PALM BEACH","FL",33406,26.636960134,-80.0738004309999,360,"8120 PINE TREE LANE, WEST PALM BEACH, FL, 33406","Match","Exact","8120 PINE TREE LN, WEST PALM BEACH, FL, 33406",115280809,"L"
879361,"8120 REMINGTON DRIVE","PITTSBURGH","PA",15237,40.558697968,-80.008899186,361,"8120 REMINGTON DRIVE, PITTSBURGH, PA, 15237","Match","Exact","8120 REMINGTON DR, PITTSBURGH, PA, 15237",51607426,"R"
879362,"8120 RESEARCH BLVD 105132","AUSTIN","TX",78758,NA,NA,362,"8120 RESEARCH BLVD 105132, AUSTIN, TX, 78758","No_Match",NA,NA,NA,NA
879363,"8120 S OLD COVENTRY CIR","COTTONWOOD HEIGHT","UT",84093,40.6037782660001,-111.838223307,363,"8120 S OLD COVENTRY CIR, COTTONWOOD HEIGHT, UT, 84093","Match","Non_Exact","8120 OLD COVENTRY CIR, COTTONWOOD HEIGHTS, UT, 84093",176088539,"R"
879364,"8120 S OLD COVENTRY CIR","COTTONWOOD HEIGHTS","UT",84093,40.6037782660001,-111.838223307,364,"8120 S OLD COVENTRY CIR, COTTONWOOD HEIGHTS, UT, 84093","Match","Exact","8120 OLD COVENTRY CIR, COTTONWOOD HEIGHTS, UT, 84093",176088539,"R"
879365,"8120 S WESTFIELD TR","COLUMBIA CITY","IN",46725,41.047827397,-85.351681846,365,"8120 S WESTFIELD TR, COLUMBIA CITY, IN, 46725","Match","Exact","8120 WESTFIELD TRL, COLUMBIA CITY, IN, 46725",6649258,"R"
879366,"8120 SO CRANDON","CHICAGO","IL",60617,41.7476061460001,-87.5686074829999,366,"8120 SO CRANDON, CHICAGO, IL, 60617","Match","Non_Exact","8120 S CRANDON AVE, CHICAGO, IL, 60617",111776001,"R"
879367,"8120 SOUTH 107TH EAST AVENUE APT 5L","TULSA","OK",74133,36.0458780210001,-95.8567205959999,367,"8120 SOUTH 107TH EAST AVENUE APT 5L, TULSA, OK, 74133","Match","Exact","8120 S 107TH EAST AVE, TULSA, OK, 74133",641704646,"R"
879368,"8120 SOUTH 152ND STREET","OMAHA","NE",68138,41.177567278,-96.152045718,368,"8120 SOUTH 152ND STREET, OMAHA, NE, 68138","Match","Exact","8120 S 152ND ST, OMAHA, NE, 68138",28478427,"L"
879369,"8120 SOUTHERN SPRINGS COURT","INDIANAPOLIS","IN",46237,39.6493494280001,-86.067653467,369,"8120 SOUTHERN SPRINGS COURT, INDIANAPOLIS, IN, 46237","Match","Exact","8120 SOUTHERN SPRINGS CT, INDIANAPOLIS, IN, 46237",108029725,"R"
879370,"8120 SW 112 ST","MIAMI","FL",33156,25.66633613,-80.325893466,370,"8120 SW 112 ST, MIAMI, FL, 33156","Match","Non_Exact","8120 SW 112TH ST, MIAMI, FL, 33156",115984820,"L"
879371,"8120 SW 22ND ST APT B211","NORTH LAUDERDALE","FL",33068,26.201947472,-80.2366633669999,371,"8120 SW 22ND ST APT B211, NORTH LAUDERDALE, FL, 33068","Match","Non_Exact","8120 SW 22ND ST, N LAUDERDALE, FL, 33068",114762391,"L"
879372,"8120 SW 24TH STREET","NORTH LAUDERDALE","FL",33068,26.19924482,-80.236929176,372,"8120 SW 24TH STREET, NORTH LAUDERDALE, FL, 33068","Match","Exact","8120 SW 24TH ST, N LAUDERDALE, FL, 33068",114702777,"L"
879373,"8120 TITUS ROAD","ST. LOUIS","MO",63114,38.691297917,-90.331390583,373,"8120 TITUS ROAD, ST. LOUIS, MO, 63114","Match","Exact","8120 TITUS RD, SAINT LOUIS, MO, 63114",100193907,"L"
879374,"8120 TWO COVES DRIVE","AUSTIN","TX",78730,30.3635037280001,-97.818725693,374,"8120 TWO COVES DRIVE, AUSTIN, TX, 78730","Match","Exact","8120 TWO COVES DR, AUSTIN, TX, 78730",63925153,"R"
879375,"8120 VILLAGE 8","CAMARILLO","CA",93012,34.2218489110001,-118.991078248,375,"8120 VILLAGE 8, CAMARILLO, CA, 93012","Match","Exact","8120 VILLAGE 8, CAMARILLO, CA, 93012",109961741,"R"
879376,"8120 W VILLARD APT1","MILWAUKEE","WI",53218,NA,NA,376,"8120 W VILLARD APT1, MILWAUKEE, WI, 53218","No_Match",NA,NA,NA,NA
879377,"8120 WEST AVE C-4","LANCASTER","CA",93536,NA,NA,377,"8120 WEST AVE C-4, LANCASTER, CA, 93536","No_Match",NA,NA,NA,NA
879378,"8120 WHITE PINE DR","WISCONSIN RAPIDS","WI",54494,44.340660793,-89.7204865579999,378,"8120 WHITE PINE DR, WISCONSIN RAPIDS, WI, 54494","Match","Exact","8120 WHITE PINE DR, WISCONSIN RAPIDS, WI, 54494",126841838,"R"
879379,"8120 WINBROOK DR","CLINTON","MD",20735,NA,NA,379,"8120 WINBROOK DR, CLINTON, MD, 20735","No_Match",NA,NA,NA,NA
879380,"8120 WOODMON AVE SUITE 400","BETHESDA","MD",20814,NA,NA,380,"8120 WOODMON AVE SUITE 400, BETHESDA, MD, 20814","No_Match",NA,NA,NA,NA
879381,"8120 WOODMONT AVENUE SUITE 400","BETHESDA","MD",20814,38.9914337100001,-77.096764284,381,"8120 WOODMONT AVENUE SUITE 400, BETHESDA, MD, 20814","Match","Exact","8120 WOODMONT AVE, BETHESDA, MD, 20814",62065516,"L"
879382,"8121  S CHAPPEL","CHICAGO","IL",60617,NA,NA,382,"8121  S CHAPPEL, CHICAGO, IL, 60617","No_Match",NA,NA,NA,NA
879383,"8121 129TH STREET","OVERLAND PARK","KS",66213,38.895013889,-94.679440164,383,"8121 129TH STREET, OVERLAND PARK, KS, 66213","Match","Non_Exact","8121 W 129TH ST, OVERLAND PARK, KS, 66213",91306934,"R"
879384,"8121 256 FIFTH AVENUE E 9500","BUCKLEY","WA",98321,NA,NA,384,"8121 256 FIFTH AVENUE E 9500, BUCKLEY, WA, 98321","No_Match",NA,NA,NA,NA
879385,"8121 ALBANY AVE","TAMPA","FL",33604,28.020330099,-82.480143461,385,"8121 ALBANY AVE, TAMPA, FL, 33604","Match","Non_Exact","8121 N ALBANY AVE, TAMPA, FL, 33604",104517765,"R"
879386,"8121 AUBURN AVE","ELVERTA","CA",95626,38.716001868,-121.462382907,386,"8121 AUBURN AVE, ELVERTA, CA, 95626","Match","Exact","8121 AUBURN AVE, ELVERTA, CA, 95626",133318677,"L"
879387,"8121 BERRY RIDGE LN NW","SILVERDALE","WA",98383,47.637860307,-122.729941914,387,"8121 BERRY RIDGE LN NW, SILVERDALE, WA, 98383","Match","Exact","8121 BERRY RIDGE LN NW, SILVERDALE, WA, 98383",187672354,"L"
879388,"8121 BIRCHFIELD DRIVE","INDIANAPOLIS","IN",46268,39.9030033560001,-86.2202376769999,388,"8121 BIRCHFIELD DRIVE, INDIANAPOLIS, IN, 46268","Match","Exact","8121 BIRCHFIELD DR, INDIANAPOLIS, IN, 46268",636072797,"R"
879389,"8121 BREEN DR","HOUSTON","TX",77064,NA,NA,389,"8121 BREEN DR, HOUSTON, TX, 77064","No_Match",NA,NA,NA,NA
879390,"8121 CASTLESTONE CV","ALEXANDER","AR",72002,34.667275928,-92.493827338,390,"8121 CASTLESTONE CV, ALEXANDER, AR, 72002","Match","Exact","8121 CASTLESTONE COVE, ALEXANDER, AR, 72002",601663527,"R"
879391,"8121 COOK RIOLO ROAD","ANTELOPE","CA",95843,38.7173276890001,-121.336789822,391,"8121 COOK RIOLO ROAD, ANTELOPE, CA, 95843","Match","Exact","8121 COOK RIOLO RD, ANTELOPE, CA, 95843",629162076,"L"
879392,"8121 DONNINGTON DRIVE","WATERVILLE","OH",43566,41.51789338,-83.7361233299999,392,"8121 DONNINGTON DRIVE, WATERVILLE, OH, 43566","Match","Exact","8121 DONNINGTON DR, WATERVILLE, OH, 43566",33955271,"L"
879393,"8121 DULUTH","HIGHLAND","IN",46322,41.5687825730001,-87.445164303,393,"8121 DULUTH, HIGHLAND, IN, 46322","Match","Non_Exact","8121 DULUTH ST, HIGHLAND, IN, 46322",608980781,"L"
879394,"8121 E APPLEWAY 7","SPOKANE VALLEY","WA",99212,NA,NA,394,"8121 E APPLEWAY 7, SPOKANE VALLEY, WA, 99212","No_Match",NA,NA,NA,NA
879395,"8121 E WHITING WAY","TUCSON","AZ",85715,32.252518351,-110.818644355,395,"8121 E WHITING WAY, TUCSON, AZ, 85715","Match","Exact","8121 E WHITING WAY, TUCSON, AZ, 85715",121382651,"L"
879396,"8121 ESECO RD","AGRA","OK",74824,35.956436696,-96.885513542,396,"8121 ESECO RD, AGRA, OK, 74824","Match","Non_Exact","8121 W ESECO RD, AGRA, OK, 74824",652813579,"R"
879397,"8121 FREMONT AVE","BEN LOMOND","CA",95005,37.074608551,-122.081162303,397,"8121 FREMONT AVE, BEN LOMOND, CA, 95005","Match","Exact","8121 FREMONT AVE, BEN LOMOND, CA, 95005",125535528,"L"
879398,"8121 GEORGIA AVENUE - LL1","SILVER SPRING","MD",20910,38.990977559,-77.0266017439999,398,"8121 GEORGIA AVENUE - LL1, SILVER SPRING, MD, 20910","Match","Exact","8121 GEORGIA AVE, SILVER SPRING, MD, 20910",618600495,"R"
879399,"8121 GOTHIC AVE","LAS VEGAS","NV",89117,36.1537479840001,-115.269445049,399,"8121 GOTHIC AVE, LAS VEGAS, NV, 89117","Match","Exact","8121 GOTHIC AVE, LAS VEGAS, NV, 89117",201932505,"L"
879400,"8121 LAKE PARK ESTATES BLVD","ORLANDO","FL",32818,28.5672423950001,-81.4942419939999,400,"8121 LAKE PARK ESTATES BLVD, ORLANDO, FL, 32818","Match","Exact","8121 LAKE PARK ESTATES BLVD, ORLANDO, FL, 32818",94420434,"R"
879401,"8121 LEE JACKSON CIRCLE","SPOTSYLVANIA","VA",22553,38.2919985350001,-77.635023732,401,"8121 LEE JACKSON CIRCLE, SPOTSYLVANIA, VA, 22553","Match","Exact","8121 LEE JACKSON CIR, SPOTSYLVANIA, VA, 22553",85035400,"R"
879402,"8121 LILLIAN HWY LOT 92","PENSACOLA","FL",32506,30.4211643510001,-87.3192327949999,402,"8121 LILLIAN HWY LOT 92, PENSACOLA, FL, 32506","Match","Exact","8121 LILLIAN HWY, PENSACOLA, FL, 32506",93212355,"L"
879403,"8121 LINCOLN ST","MERRILLVILLE","IN",46410,41.465092699,-87.352718979,403,"8121 LINCOLN ST, MERRILLVILLE, IN, 46410","Match","Exact","8121 LINCOLN ST, MERRILLVILLE, IN, 46410",98453768,"L"
879404,"8121 LISMORE","THE COLONY","TX",75056,33.114229489,-96.922968308,404,"8121 LISMORE, THE COLONY, TX, 75056","Match","Exact","8121 LISMORE, THE COLONY, TX, 75056",650734740,"R"
879405,"8121 LOWER BAY LANE","INDIANAPOLIS","IN",46236,39.902894287,-85.9696534879999,405,"8121 LOWER BAY LANE, INDIANAPOLIS, IN, 46236","Match","Exact","8121 LOWER BAY LN, INDIANAPOLIS, IN, 46236",108033789,"L"
879406,"8121 MASON AVE","WINNETKA","CA",91306,34.2176307460001,-118.579770073,406,"8121 MASON AVE, WINNETKA, CA, 91306","Match","Exact","8121 MASON AVE, WINNETKA, CA, 91306",141540314,"L"
879407,"8121 MISSISSIPPI RD","LAUREL","MD",20724,39.110010136,-76.7941040599999,407,"8121 MISSISSIPPI RD, LAUREL, MD, 20724","Match","Exact","8121 MISSISSIPPI RD, LAUREL, MD, 20724",618591028,"R"
879408,"8121 NW 21CT","SUNRISE","FL",33322,NA,NA,408,"8121 NW 21CT, SUNRISE, FL, 33322","Tie",NA,NA,NA,NA
879409,"8121 OOLTEWAH GEORGETOWN RD","OOLTEWAH","TN",37363,35.148524293,-85.0422105339999,409,"8121 OOLTEWAH GEORGETOWN RD, OOLTEWAH, TN, 37363","Match","Exact","8121 OOLTEWAH GEORGETOWN RD, OOLTEWAH, TN, 37363",618923348,"L"
879410,"8121 PARK RIDGE DR","PARKVILLE","MO",64152,NA,NA,410,"8121 PARK RIDGE DR, PARKVILLE, MO, 64152","No_Match",NA,NA,NA,NA
879411,"8121 RIDGE CREEK WAY","SPRINGFIELD","VA",22153,38.7488212870001,-77.225411589,411,"8121 RIDGE CREEK WAY, SPRINGFIELD, VA, 22153","Match","Exact","8121 RIDGE CREEK WAY, SPRINGFIELD, VA, 22153",76017659,"R"
879412,"8121 RIDGE WAY COURT","WOODBRIDGE","VA",22153,NA,NA,412,"8121 RIDGE WAY COURT, WOODBRIDGE, VA, 22153","No_Match",NA,NA,NA,NA
879413,"8121 S COLFAX AVE","CHICAGO","IL",60617,41.747681447,-87.561304365,413,"8121 S COLFAX AVE, CHICAGO, IL, 60617","Match","Exact","8121 S COLFAX AVE, CHICAGO, IL, 60617",111776233,"R"
879414,"8121 S KING DRIVE UNIT A2","CHICAGO","IL",60619,NA,NA,414,"8121 S KING DRIVE UNIT A2, CHICAGO, IL, 60619","No_Match",NA,NA,NA,NA
879415,"8121 S MARION CT","CENTENNIAL","CO",80122,39.569818436,-104.972504497,415,"8121 S MARION CT, CENTENNIAL, CO, 80122","Match","Exact","8121 S MARION CT, CENTENNIAL, CO, 80122",177338038,"R"
879416,"8121 SANTALO COVE COURT","BOYNTON BEACH","FL",33473,26.510473102,-80.174329439,416,"8121 SANTALO COVE COURT, BOYNTON BEACH, FL, 33473","Match","Exact","8121 SANTALO COVE CT, BOYNTON BEACH, FL, 33473",645905010,"L"
879417,"8121 SCOTCH MEADOWS DRIVE","LAURINBURG","NC",28352,34.69135744,-79.515912546,417,"8121 SCOTCH MEADOWS DRIVE, LAURINBURG, NC, 28352","Match","Exact","8121 SCOTCH MEADOWS DR, LAURINBURG, NC, 28352",25788422,"L"
879418,"8121 SOUTH CHAPPEL","CHICAGO","IL",60617,41.747528887,-87.5746825579999,418,"8121 SOUTH CHAPPEL, CHICAGO, IL, 60617","Match","Non_Exact","8121 S CHAPPEL AVE, CHICAGO, IL, 60617",111775913,"L"
879419,"8121 ST RD 28 W","WEST POINT","IN",47992,NA,NA,419,"8121 ST RD 28 W, WEST POINT, IN, 47992","No_Match",NA,NA,NA,NA
879420,"8121 SUETELLE DRIVE","DALLAS","TX",75217,32.6939076290001,-96.68216676,420,"8121 SUETELLE DRIVE, DALLAS, TX, 75217","Match","Exact","8121 SUETELLE DR, DALLAS, TX, 75217",102959041,"L"
879421,"8121 SW 117TH LOOP","OCALA","FL",34481,29.0530782910001,-82.254774733,421,"8121 SW 117TH LOOP, OCALA, FL, 34481","Match","Exact","8121 SW 117 LOOP, OCALA, FL, 34481",116796372,"L"
879422,"8121 SW 56TH AVE","PORTLAND","OR",97219,45.466004399,-122.734310526,422,"8121 SW 56TH AVE, PORTLAND, OR, 97219","Match","Exact","8121 SW 56TH AVE, PORTLAND, OR, 97219",157561898,"R"
879423,"8121 TENNESSEE STREET","STONEWOOD","WV",26301,39.2587230730001,-80.313444856,423,"8121 TENNESSEE STREET, STONEWOOD, WV, 26301","Match","Exact","8121 TENNESSEE ST, STONEWOOD, WV, 26301",616267735,"R"
879424,"8121 W CASPER STREET","MILWAUKEE","WI",53223,43.140524482,-88.012231781,424,"8121 W CASPER STREET, MILWAUKEE, WI, 53223","Match","Exact","8121 W CASPER ST, MILWAUKEE, WI, 53223",77725862,"L"
879425,"8121 W CONGRESS ST APT 4","MILWAUKEE","WI",53218,43.097118575,-88.014202739,425,"8121 W CONGRESS ST APT 4, MILWAUKEE, WI, 53218","Match","Non_Exact","8121 W CONGRESS ST, MILWAUKEE, WI, 53218",77728039,"L"
879426,"8121 W QUINAULT AVE STE F202","KENNEWICK","WA",99336,46.223158713,-119.230420003,426,"8121 W QUINAULT AVE STE F202, KENNEWICK, WA, 99336","Match","Non_Exact","8121 W QUINAULT AVE, KENNEWICK, WA, 99336",619584258,"L"
879427,"8121 WEST THURSTON AVENUE","MILWAUKEE","WI",53218,43.121785883,-88.013002353,427,"8121 WEST THURSTON AVENUE, MILWAUKEE, WI, 53218","Match","Exact","8121 W THURSTON AVE, MILWAUKEE, WI, 53218",77725116,"L"
879428,"8121 WOODSTONE DRIVE","LENEXA","KS",66519,NA,NA,428,"8121 WOODSTONE DRIVE, LENEXA, KS, 66519","No_Match",NA,NA,NA,NA
879429,"8122 230 PL NE","REDMOND","WA",98053,47.675621731,-122.032775985,429,"8122 230 PL NE, REDMOND, WA, 98053","Match","Exact","8122 230TH PL NE, REDMOND, WA, 98053",627631974,"L"
879430,"8122 287TH STREET","RANDOLPH","MN",55065,44.533845134,-92.942166215,430,"8122 287TH STREET, RANDOLPH, MN, 55065","Match","Non_Exact","8122 287TH ST E, RANDOLPH, MN, 55065",37930157,"L"
879431,"8122 ALAN TREE ROAD","ROSEDALE","MD",21237,39.373246947,-76.4889192369999,431,"8122 ALAN TREE ROAD, ROSEDALE, MD, 21237","Match","Exact","8122 ALAN TREE RD, ROSEDALE, MD, 21237",191510588,"L"
879432,"8122 ALBIN","ST LOUIS","MO",63113,NA,NA,432,"8122 ALBIN, ST LOUIS, MO, 63113","No_Match",NA,NA,NA,NA
879433,"8122 BENNETT RD","NAMPA","ID",83686,43.473837874,-116.555187389,433,"8122 BENNETT RD, NAMPA, ID, 83686","Match","Exact","8122 BENNETT RD, NAMPA, ID, 83686",122834646,"R"
879434,"8122 CAMDEN AVENUE","OMAHA","NE",68134,41.305452406,-96.039104617,434,"8122 CAMDEN AVENUE, OMAHA, NE, 68134","Match","Exact","8122 CAMDEN AVE, OMAHA, NE, 68134",116974980,"R"
879435,"8122 COURTHOUSE ROAD","PROVIDENCE FORGE","VA",23140,37.37754219,-77.064301105,435,"8122 COURTHOUSE ROAD, PROVIDENCE FORGE, VA, 23140","Match","Exact","8122 COURTHOUSE RD, PROVIDENCE FORGE, VA, 23140",199505593,"R"
879436,"8122 CYCLAMEN WAY","BUENA PARK","CA",90620,33.8525921200001,-117.991285757,436,"8122 CYCLAMEN WAY, BUENA PARK, CA, 90620","Match","Exact","8122 CYCLAMEN WAY, BUENA PARK, CA, 90620",144414242,"R"
879437,"8122 DATAPOINT DR STE 804","SAN ANTONIO","TX",78229,29.5144652930001,-98.570079397,437,"8122 DATAPOINT DR STE 804, SAN ANTONIO, TX, 78229","Match","Exact","8122 DATAPOINT DR, SAN ANTONIO, TX, 78229",650121609,"R"
879438,"8122 E 138TH WAY","THORNTON","CO",80602,39.947597328,-104.895603348,438,"8122 E 138TH WAY, THORNTON, CO, 80602","Match","Exact","8122 E 138TH WAY, THORNTON, CO, 80602",646251072,"L"
879439,"8122 ENCHANTED FOREST DRIVE","HOUSTON","TX",77088,29.886558198,-95.472593388,439,"8122 ENCHANTED FOREST DRIVE, HOUSTON, TX, 77088","Match","Exact","8122 ENCHANTED FOREST DR, HOUSTON, TX, 77088",96026832,"R"
879440,"8122 HEZEKIAH LANE","HOUSTON","TX",77088,29.8746554430001,-95.444314278,440,"8122 HEZEKIAH LANE, HOUSTON, TX, 77088","Match","Exact","8122 HEZEKIAH LN, HOUSTON, TX, 77088",96027389,"R"
879441,"8122 JASMINE COURT","RICHMOND","TX",77469,29.527924597,-95.73785251,441,"8122 JASMINE COURT, RICHMOND, TX, 77469","Match","Exact","8122 JASMINE CT, RICHMOND, TX, 77469",641163343,"L"
879442,"8122 JOURNEY LANE SE","PORT ORCHARD","WA",98367,47.4742996040001,-122.602598242,442,"8122 JOURNEY LANE SE, PORT ORCHARD, WA, 98367","Match","Exact","8122 JOURNEY LN SE, PORT ORCHARD, WA, 98367",642477343,"L"
879443,"8122 LEE STREET","SORRENTO","LA",70778,30.18599579,-90.8605251499999,443,"8122 LEE STREET, SORRENTO, LA, 70778","Match","Exact","8122 LEE ST, SORRENTO, LA, 70778",638982870,"R"
879444,"8122 LOETSCH RIDGE","SPRING","TX",77379,30.0819624430001,-95.544344404,444,"8122 LOETSCH RIDGE, SPRING, TX, 77379","Match","Non_Exact","8122 LOETSCH RIDGE WAY, SPRING, TX, 77379",627641842,"R"
879445,"8122 MELODY DR E","SAINT GERMAIN","WI",54558,45.903553688,-89.49123273,445,"8122 MELODY DR E, SAINT GERMAIN, WI, 54558","Match","Exact","8122 MELODY DR E, SAINT GERMAIN, WI, 54558",165549217,"R"
879446,"8122 MERCHANTS LODGE","SAN ANTONIO","TX",78255,29.679915199,-98.644347959,446,"8122 MERCHANTS LODGE, SAN ANTONIO, TX, 78255","Match","Exact","8122 MERCHANTS LODGE, SAN ANTONIO, TX, 78255",650774732,"L"
879447,"8122 N 112 TH AVE","PHOENIX","AZ",85345,33.5535108650001,-112.300372722,447,"8122 N 112 TH AVE, PHOENIX, AZ, 85345","Match","Non_Exact","8122 N 112TH AVE, PEORIA, AZ, 85345",128417048,"R"
879448,"8122 N 112TH AVE","PEORIA","AZ",85345,33.5535222240001,-112.300372784,448,"8122 N 112TH AVE, PEORIA, AZ, 85345","Match","Exact","8122 N 112TH AVE, PEORIA, AZ, 85345",128417048,"R"
879449,"8122 N WASHINGTON ST","NILES","IL",60714,42.0281010910001,-87.8260545489999,449,"8122 N WASHINGTON ST, NILES, IL, 60714","Match","Exact","8122 WASHINGTON ST, NILES, IL, 60714",111732879,"L"
879450,"8122 NEWBURY CT S","CANTON","MI",48187,42.3442140600001,-83.536205111,450,"8122 NEWBURY CT S, CANTON, MI, 48187","Match","Exact","8122 NEWBURY CT S, CANTON, MI, 48187",635282769,"L"
879451,"8122 NW 17TH CT","NORTH LAUDERDALE","FL",33068,26.2051017960001,-80.2372417619999,451,"8122 NW 17TH CT, NORTH LAUDERDALE, FL, 33068","Match","Non_Exact","8122 SW 17TH CT, N LAUDERDALE, FL, 33068",617673229,"R"
879452,"8122 S ALBANY","CHICAGO","IL",60652,41.745695379,-87.699842748,452,"8122 S ALBANY, CHICAGO, IL, 60652","Match","Non_Exact","8122 S ALBANY AVE, CHICAGO, IL, 60652",111819949,"R"
879453,"8122 S AVALON","CHICAGO","IL",60619,41.7472499360001,-87.594179993,453,"8122 S AVALON, CHICAGO, IL, 60619","Match","Non_Exact","8122 S AVALON AVE, CHICAGO, IL, 60619",111774927,"R"
879454,"8122 S PEORIA","CHICAGO","IL",60653,NA,NA,454,"8122 S PEORIA, CHICAGO, IL, 60653","No_Match",NA,NA,NA,NA
879455,"8122 S QUATAR CIR","AURORA","CO",80016,39.5691186930001,-104.734951939,455,"8122 S QUATAR CIR, AURORA, CO, 80016","Match","Exact","8122 S QUATAR CIR, AURORA, CO, 80016",639664972,"R"
879456,"8122 S SPRAULDING AVENUE","CHICAGO","IL",60628,NA,NA,456,"8122 S SPRAULDING AVENUE, CHICAGO, IL, 60628","No_Match",NA,NA,NA,NA
879457,"8122 SLATER AVENUE A","HUNTINGTON BEACH","CA",92647,33.7084437770001,-117.986750254,457,"8122 SLATER AVENUE A, HUNTINGTON BEACH, CA, 92647","Match","Exact","8122 SLATER AVE, HUNTINGTON BEACH, CA, 92647",144018615,"R"
879458,"8122 SOUTH LUELLA AVENUE","CHICAGO","IL",60617,41.747561927,-87.569825093,458,"8122 SOUTH LUELLA AVENUE, CHICAGO, IL, 60617","Match","Exact","8122 S LUELLA AVE, CHICAGO, IL, 60617",111775997,"R"
879459,"8122 W FLAMINGO ROAD UNIT  243","LAS VEGAS","NV",89147,36.114692437,-115.268223829,459,"8122 W FLAMINGO ROAD UNIT  243, LAS VEGAS, NV, 89147","Match","Non_Exact","8122 W FLAMINGO RD, LAS VEGAS, NV, 89147",201965129,"R"
879460,"8122 W FLAMINGO ROAD UNIT  58","LAS VEGAS","NV",89147,36.114692437,-115.268223829,460,"8122 W FLAMINGO ROAD UNIT  58, LAS VEGAS, NV, 89147","Match","Non_Exact","8122 W FLAMINGO RD, LAS VEGAS, NV, 89147",201965129,"R"
879461,"8122 W FLAMINGO ROAD UNIT 46","LAS VEGAS","NV",89147,36.114692437,-115.268223829,461,"8122 W FLAMINGO ROAD UNIT 46, LAS VEGAS, NV, 89147","Match","Non_Exact","8122 W FLAMINGO RD, LAS VEGAS, NV, 89147",201965129,"R"
879462,"8122 WEST FLAMINGO ROAD UNIT 113","LAS VEGAS","NV",89147,36.114692399,-115.268200007,462,"8122 WEST FLAMINGO ROAD UNIT 113, LAS VEGAS, NV, 89147","Match","Exact","8122 W FLAMINGO RD, LAS VEGAS, NV, 89147",201965129,"R"
879463,"8122 WINTER BLUE CT","SPRINGFIELD","VA",22153,38.7372576750001,-77.236776348,463,"8122 WINTER BLUE CT, SPRINGFIELD, VA, 22153","Match","Exact","8122 WINTER BLUE CT, SPRINGFIELD, VA, 22153",75976973,"R"
879464,"8122 WOODBINE AVENUE","CINCINNATI","OH",45216,39.207214422,-84.470420841,464,"8122 WOODBINE AVENUE, CINCINNATI, OH, 45216","Match","Exact","8122 WOODBINE AVE, CINCINNATI, OH, 45216",103928047,"R"
879465,"8122","CHICAGO","IL",60652,NA,NA,465,"8122, CHICAGO, IL, 60652","No_Match",NA,NA,NA,NA
879466,"8123 236TH ST SW APT N302","EDMONDS","WA",98026,47.78508351,-122.342558653,466,"8123 236TH ST SW APT N302, EDMONDS, WA, 98026","Match","Exact","8123 236TH ST SW, EDMONDS, WA, 98026",608921980,"R"
879467,"8123 BLUE HERON DRIVE EAST APT 108","WILMINGTON","NC",28411,34.2922737060001,-77.7635082149999,467,"8123 BLUE HERON DRIVE EAST APT 108, WILMINGTON, NC, 28411","Match","Exact","8123 BLUE HERON DR E, WILMINGTON, NC, 28411",152764272,"L"
879468,"8123 BLUE JAY ST","BAYTOWN","TX",77523,29.8098068730001,-94.898627872,468,"8123 BLUE JAY ST, BAYTOWN, TX, 77523","Match","Exact","8123 BLUE JAY ST, BAYTOWN, TX, 77523",95965698,"R"
879469,"8123 BLUEBONNET DRIVE","LORTON","VA",22079,38.715600474,-77.2227915889999,469,"8123 BLUEBONNET DRIVE, LORTON, VA, 22079","Match","Exact","8123 BLUEBONNET DR, LORTON, VA, 22079",619947689,"R"
879470,"8123 BLUEBONNET","LORTON","VA",22079,38.715600474,-77.2227915889999,470,"8123 BLUEBONNET, LORTON, VA, 22079","Match","Non_Exact","8123 BLUEBONNET DR, LORTON, VA, 22079",619947689,"R"
879471,"8123 BULLOCK DRIVE","SPRINGFIELD","VA",22151,38.809600275,-77.2255097,471,"8123 BULLOCK DRIVE, SPRINGFIELD, VA, 22151","Match","Non_Exact","8123 BULLOCK LN, SPRINGFIELD, VA, 22151",75973294,"L"
879472,"8123 CHEYENNE HILLS TRL","RICHMOND","TX",77406,29.680227125,-95.817471865,472,"8123 CHEYENNE HILLS TRL, RICHMOND, TX, 77406","Match","Exact","8123 CHEYENNE HILLS TRL, RICHMOND, TX, 77406",648705237,"L"
879473,"8123 CHIRSTIANA","CHICAGO","IL",60652,NA,NA,473,"8123 CHIRSTIANA, CHICAGO, IL, 60652","No_Match",NA,NA,NA,NA
879474,"8123 CHURCH LANE","WINDSOR MILL","MD",21244,39.3586174380001,-76.7576445879999,474,"8123 CHURCH LANE, WINDSOR MILL, MD, 21244","Match","Exact","8123 CHURCH LN, WINDSOR MILL, MD, 21244",191507802,"L"
879475,"8123 E HOLMES RD","MEMPHIS","TN",38125,35.0059358350001,-89.791828589,475,"8123 E HOLMES RD, MEMPHIS, TN, 38125","Match","Exact","8123 E HOLMES RD, MEMPHIS, TN, 38125",618714260,"R"
879476,"8123 GREENBELT STATION PARKWAY","GREENBELT","MD",20770,39.0009221080001,-76.9173274999999,476,"8123 GREENBELT STATION PARKWAY, GREENBELT, MD, 20770","Match","Exact","8123 GREENBELT STATION PKWY, GREENBELT, MD, 20770",650159162,"R"
879477,"8123 HAMPTON LAKE DR","TAMPA","FL",33647,28.16135182,-82.3867373799999,477,"8123 HAMPTON LAKE DR, TAMPA, FL, 33647","Match","Exact","8123 HAMPTON LAKE DR, TAMPA, FL, 33647",624515891,"R"
879478,"8123 HARTZELL RD","ANCHORAGE","AK",99507,61.146767921,-149.849079225,478,"8123 HARTZELL RD, ANCHORAGE, AK, 99507","Match","Exact","8123 HARTZELL RD, ANCHORAGE, AK, 99507",190812973,"L"
879479,"8123 HARVARD DRIVE","BEN LOMOND","CA",95005,37.069830779,-122.07009133,479,"8123 HARVARD DRIVE, BEN LOMOND, CA, 95005","Match","Exact","8123 HARVARD DR, BEN LOMOND, CA, 95005",125502745,"L"
879480,"8123 LAUREL RUN DRIVE","CHARLOTTE","NC",28269,35.3892428950001,-80.762121963,480,"8123 LAUREL RUN DRIVE, CHARLOTTE, NC, 28269","Match","Exact","8123 LAUREL RUN DR, CHARLOTTE, NC, 28269",70553648,"R"
879481,"8123 MACGREGOR DR","ARLINGTON","TX",76002,32.61478372,-97.092881518,481,"8123 MACGREGOR DR, ARLINGTON, TX, 76002","Match","Exact","8123 MACGREGOR DR, ARLINGTON, TX, 76002",634105413,"L"
879482,"8123 MAGNOLIA AVE UNIT 72","RIVERSIDE","CA",92504,33.9348160210001,-117.421094102,482,"8123 MAGNOLIA AVE UNIT 72, RIVERSIDE, CA, 92504","Match","Exact","8123 MAGNOLIA AVE, RIVERSIDE, CA, 92504",608985905,"R"
879483,"8123 MATHEW PL","LINCOLN","NE",68516,40.760369724,-96.610128555,483,"8123 MATHEW PL, LINCOLN, NE, 68516","Match","Exact","8123 MATHEW PL, LINCOLN, NE, 68516",28299496,"R"
879484,"8123 MYSTIC HARBOR CIRCLE","BOYNTON BEACH","FL",33436,26.553256751,-80.107065785,484,"8123 MYSTIC HARBOR CIRCLE, BOYNTON BEACH, FL, 33436","Match","Exact","8123 MYSTIC HARBOR CIR, BOYNTON BEACH, FL, 33436",115581998,"L"
879485,"8123 NE 80TH TER","KANSAS CITY","MO",64158,39.2389283360001,-94.4853035149999,485,"8123 NE 80TH TER, KANSAS CITY, MO, 64158","Match","Exact","8123 NE 80TH TER, KANSAS CITY, MO, 64158",627694041,"R"
879486,"8123 OLD ELKINS RD","BUCKHANNON","WV",26201,38.9285440150001,-80.12441792,486,"8123 OLD ELKINS RD, BUCKHANNON, WV, 26201","Match","Exact","8123 OLD ELKINS RD, BUCKHANNON, WV, 26201",649849315,"R"
879487,"8123 S CHRISTIANA","CHICAGO","IL",60652,41.745597961,-87.705929741,487,"8123 S CHRISTIANA, CHICAGO, IL, 60652","Match","Non_Exact","8123 S CHRISTIANA AVE, CHICAGO, IL, 60652",111817447,"L"
879488,"8123 S KENWOOD AVE","CHICAGO","IL",60619,41.7472793740001,-87.591729669,488,"8123 S KENWOOD AVE, CHICAGO, IL, 60619","Match","Exact","8123 S KENWOOD AVE, CHICAGO, IL, 60619",111774948,"L"
879489,"8123 SOUTH 93RD STREET","LA VISTA","NE",68128,41.1789015730001,-96.05735472,489,"8123 SOUTH 93RD STREET, LA VISTA, NE, 68128","Match","Exact","8123 S 93RD ST, LA VISTA, NE, 68128",28490232,"L"
879490,"8123 SOUTH CARPENTER","CHICAGO","IL",60620,41.746423404,-87.649977178,490,"8123 SOUTH CARPENTER, CHICAGO, IL, 60620","Match","Non_Exact","8123 S CARPENTER ST, CHICAGO, IL, 60620",111831486,"L"
879491,"8123 SOUTHGATE BOULEVARD","N LAUDERDALE","FL",33068,26.2282994710001,-80.237447314,491,"8123 SOUTHGATE BOULEVARD, N LAUDERDALE, FL, 33068","Match","Exact","8123 SOUTHGATE BLVD, N LAUDERDALE, FL, 33068",114691874,"L"
879492,"8123 TWIN HILLS DR","HOUSTON","TX",77071,29.667406783,-95.5208063699999,492,"8123 TWIN HILLS DR, HOUSTON, TX, 77071","Match","Exact","8123 TWIN HILLS DR, HOUSTON, TX, 77071",96037303,"L"
879493,"8123 VERMANTH ROAD","JACKSONVILLE","FL",32211,30.3443645290001,-81.571117038,493,"8123 VERMANTH ROAD, JACKSONVILLE, FL, 32211","Match","Exact","8123 VERMANTH RD, JACKSONVILLE, FL, 32211",83904035,"L"
879494,"8123A PT SHERMAN DR","KODIAK","AK",99615,57.7643877520001,-152.496876837,494,"8123A PT SHERMAN DR, KODIAK, AK, 99615","Match","Non_Exact","8123 POINT SHERMAN ST, KODIAK, AK, 99615",193544594,"R"
879495,"8124 AMBIANCE WAY","PLANO","TX",75024,33.089791194,-96.790555162,495,"8124 AMBIANCE WAY, PLANO, TX, 75024","Match","Exact","8124 AMBIANCE WAY, PLANO, TX, 75024",123553498,"R"
879496,"8124 ANTOINE DR","HOUSTON","TX",77088,29.886901112,-95.4744157659999,496,"8124 ANTOINE DR, HOUSTON, TX, 77088","Match","Exact","8124 ANTOINE DR, HOUSTON, TX, 77088",96128266,"R"
879497,"8124 BEVERLY LANE","EVERETT","WA",98203,47.924828667,-122.228316174,497,"8124 BEVERLY LANE, EVERETT, WA, 98203","Match","Exact","8124 BEVERLY LN, EVERETT, WA, 98203",187795084,"R"
879498,"8124 BLUEGILL CIRCLE","OOLTEWAH","TN",37363,35.151439435,-85.049324231,498,"8124 BLUEGILL CIRCLE, OOLTEWAH, TN, 37363","Match","Exact","8124 BLUEGILL CIR, OOLTEWAH, TN, 37363",618923218,"R"
879499,"8124 CASTLESTONE DRIVE","MINT HILL","NC",28227,35.179342107,-80.6224705779999,499,"8124 CASTLESTONE DRIVE, MINT HILL, NC, 28227","Match","Exact","8124 CASTLESTONE DR, MINT HILL, NC, 28227",614165208,"L"
879500,"8124 CHESTNUT ST","WAUWATOSA","WI",53213,43.046027607,-88.013599405,500,"8124 CHESTNUT ST, WAUWATOSA, WI, 53213","Match","Non_Exact","8124 W CHESTNUT ST, WAUWATOSA, WI, 53213",77759537,"R"
