"ID","Address","City","State","Zip","lat","long","id","input_address","match_indicator","match_type","matched_address","tiger_line_id","tiger_side"
760501,"607 SE 27TH DRIVE","HOMESTEAD","FL",33033,25.464332132,-80.436795258,1,"607 SE 27TH DRIVE, HOMESTEAD, FL, 33033","Match","Exact","607 SE 27TH DR, HOMESTEAD, FL, 33033",116261336,"L"
760502,"607 SE 3RD STREET","EVANVILLE","IN",47713,37.9658904240001,-87.568028203,2,"607 SE 3RD STREET, EVANVILLE, IN, 47713","Match","Non_Exact","607 SE 3RD ST, EVANSVILLE, IN, 47713",39782638,"R"
760503,"607 SE EVERETT MALLWAY","EVERETT","WA",98208,NA,NA,3,"607 SE EVERETT MALLWAY, EVERETT, WA, 98208","No_Match",NA,NA,NA,NA
760504,"607 SE YALE ST","BENTONVILLE","AR",72712,36.365278484,-94.161378908,4,"607 SE YALE ST, BENTONVILLE, AR, 72712","Match","Exact","607 SE YALE ST, BENTONVILLE, AR, 72712",629620775,"R"
760505,"607 SHELBY  SUITE 700","DETROIT","MI",48226,42.329343742,-83.048163169,5,"607 SHELBY  SUITE 700, DETROIT, MI, 48226","Match","Non_Exact","607 SHELBY ST, DETROIT, MI, 48226",95479995,"L"
760506,"607 SHELBY 708","DETROIT","MI",48226,42.329343742,-83.048163169,6,"607 SHELBY 708, DETROIT, MI, 48226","Match","Non_Exact","607 SHELBY ST, DETROIT, MI, 48226",95479995,"L"
760507,"607 SHELBY ST  SUITE 700","DETROIT","MI",48226,42.329343742,-83.048163169,7,"607 SHELBY ST  SUITE 700, DETROIT, MI, 48226","Match","Exact","607 SHELBY ST, DETROIT, MI, 48226",95479995,"L"
760508,"607 SHELBY ST STE 700-1123","DETROIT","MI",48226,42.329343742,-83.048163169,8,"607 SHELBY ST STE 700-1123, DETROIT, MI, 48226","Match","Exact","607 SHELBY ST, DETROIT, MI, 48226",95479995,"L"
760509,"607 SHELBY ST STE 718","DETROIT","MI",48226,42.329343742,-83.048163169,9,"607 SHELBY ST STE 718, DETROIT, MI, 48226","Match","Exact","607 SHELBY ST, DETROIT, MI, 48226",95479995,"L"
760510,"607 SHELBY ST SUITE 707","DETROIT","MI",48226,42.329343742,-83.048163169,10,"607 SHELBY ST SUITE 707, DETROIT, MI, 48226","Match","Exact","607 SHELBY ST, DETROIT, MI, 48226",95479995,"L"
760511,"607 SHELBY ST","DETROIT","MI",48226,42.329343742,-83.048163169,11,"607 SHELBY ST, DETROIT, MI, 48226","Match","Exact","607 SHELBY ST, DETROIT, MI, 48226",95479995,"L"
760512,"607 SHELBY STREET SUITE 715","DETROIT","MI",48226,42.329343742,-83.048163169,12,"607 SHELBY STREET SUITE 715, DETROIT, MI, 48226","Match","Exact","607 SHELBY ST, DETROIT, MI, 48226",95479995,"L"
760513,"607 SHELBY STREET SUITE 785","DETROIT","MI",48226,42.329343742,-83.048163169,13,"607 SHELBY STREET SUITE 785, DETROIT, MI, 48226","Match","Exact","607 SHELBY ST, DETROIT, MI, 48226",95479995,"L"
760514,"607 SHELBY SUITE 707","DETROIT","MI",48226,42.329343742,-83.048163169,14,"607 SHELBY SUITE 707, DETROIT, MI, 48226","Match","Non_Exact","607 SHELBY ST, DETROIT, MI, 48226",95479995,"L"
760515,"607 SHIVERS STREET","BLYTHEVILLE","AR",72315,35.9169554650001,-89.910144187,15,"607 SHIVERS STREET, BLYTHEVILLE, AR, 72315","Match","Exact","607 SHIVERS ST, BLYTHEVILLE, AR, 72315",47217886,"L"
760516,"607 SHORT ST","LAGUNA BEACH","CA",92651,33.5418890190001,-117.777776138,16,"607 SHORT ST, LAGUNA BEACH, CA, 92651","Match","Exact","607 SHORT ST, LAGUNA BEACH, CA, 92651",144068533,"R"
760517,"607 SO ALICE AVE","SALISBURY","MO",65281,39.419711373,-92.795135752,17,"607 SO ALICE AVE, SALISBURY, MO, 65281","Match","Exact","607 S ALICE AVE, SALISBURY, MO, 65281",649843448,"R"
760518,"607 SO BEACH RD","SO BURLINGTON","VT",5403,44.423121241,-73.216686083,18,"607 SO BEACH RD, SO BURLINGTON, VT, 5403","Match","Exact","607 S BEACH RD, S BURLINGTON, VT, 05403",135841690,"R"
760519,"607 SOUTH 200TH STREET","PITTSBURG","KS",66762,37.4388772090001,-94.7416771489999,19,"607 SOUTH 200TH STREET, PITTSBURG, KS, 66762","Match","Exact","607 S 200TH ST, PITTSBURG, KS, 66762",33425223,"L"
760520,"607 SOUTH 4TH ST","OREGON","IL",61061,42.0082313820001,-89.332715992,20,"607 SOUTH 4TH ST, OREGON, IL, 61061","Match","Exact","607 S 4TH ST, OREGON, IL, 61061",52320249,"R"
760521,"607 SOUTH CHERRY GROVE AVE","ANNAPOLIS","MD",21401,38.968007248,-76.521070443,21,"607 SOUTH CHERRY GROVE AVE, ANNAPOLIS, MD, 21401","Match","Exact","607 S CHERRY GROVE AVE, ANNAPOLIS, MD, 21401",68216856,"L"
760522,"607 SOUTH PIKE STREET","SHINNSTON","WV",26431,39.3861434240001,-80.30515415,22,"607 SOUTH PIKE STREET, SHINNSTON, WV, 26431","Match","Exact","607 S PIKE ST, SHINNSTON, WV, 26431",615376395,"L"
760523,"607 ST CHARLES AVE","NEW ORLEANS","LA",70130,29.9481772570001,-90.070994776,23,"607 ST CHARLES AVE, NEW ORLEANS, LA, 70130","Match","Exact","607 SAINT CHARLES AVE, NEW ORLEANS, LA, 70130",191714297,"R"
760524,"607 STAR HAVEN COURT","MULLICA HILL","NJ",8062,39.7262097730001,-75.211802742,24,"607 STAR HAVEN COURT, MULLICA HILL, NJ, 8062","Match","Exact","607 STAR HAVEN CT, MULLICA HILL, NJ, 08062",614106956,"L"
760525,"607 STOVER ST","FORT COLLINS","CO",80524,40.579797989,-105.066557084,25,"607 STOVER ST, FORT COLLINS, CO, 80524","Match","Exact","607 STOVER ST, FORT COLLINS, CO, 80524",188491256,"R"
760526,"607 STRATFORD CIRCLE","LOCUST GROVE","VA",22508,38.3271163960001,-77.780744849,26,"607 STRATFORD CIRCLE, LOCUST GROVE, VA, 22508","Match","Exact","607 STRATFORD CIR, LOCUST GROVE, VA, 22508",29880960,"L"
760527,"607 STRATFORD CIRCLE","LOCUST GROVE","VA",22553,38.3271163960001,-77.780744849,27,"607 STRATFORD CIRCLE, LOCUST GROVE, VA, 22553","Match","Non_Exact","607 STRATFORD CIR, LOCUST GROVE, VA, 22508",29880960,"L"
760528,"607 SUMMITBLUFF DR","GREENVILLE","SC",29617,34.947919192,-82.451743084,28,"607 SUMMITBLUFF DR, GREENVILLE, SC, 29617","Match","Exact","607 SUMMITBLUFF DR, GREENVILLE, SC, 29617",624945402,"L"
760529,"607 SW 14TH STREET","OKEECHOBEE","FL",34974,27.2308117040001,-80.8351923869999,29,"607 SW 14TH STREET, OKEECHOBEE, FL, 34974","Match","Exact","607 SW 14TH ST, OKEECHOBEE, FL, 34974",4925584,"L"
760530,"607 SW HURBERT ST STE 103","NEWPORT","OR",97365,NA,NA,30,"607 SW HURBERT ST STE 103, NEWPORT, OR, 97365","Tie",NA,NA,NA,NA
760531,"607 SW MARKHAM ST","LAKE CITY","FL",32024,30.0210069070001,-82.652612069,31,"607 SW MARKHAM ST, LAKE CITY, FL, 32024","Match","Exact","607 SW MARKHAM ST, LAKE CITY, FL, 32024",649178011,"L"
760532,"607 SYDNOR ST","HOUSTON","TX",77020,29.7674105020001,-95.3385020009999,32,"607 SYDNOR ST, HOUSTON, TX, 77020","Match","Exact","607 SYDNOR ST, HOUSTON, TX, 77020",96070202,"L"
760533,"607 TALIPUT PALM PLACE","HENDERSON","NV",89011,36.0644651270001,-115.029377865,33,"607 TALIPUT PALM PLACE, HENDERSON, NV, 89011","Match","Exact","607 TALIPUT PALM PL, HENDERSON, NV, 89011",624983642,"R"
760534,"607 TANGLEWOOD DR","SICKLERVILLE","NJ",8081,39.762432082,-75.040620785,34,"607 TANGLEWOOD DR, SICKLERVILLE, NJ, 8081","Match","Exact","607 TANGLEWOOD DR, SICKLERVILLE, NJ, 08081",134420417,"R"
760535,"607 TAPPAN AVE","HAMPTON","VA",23664,37.04590991,-76.296033165,35,"607 TAPPAN AVE, HAMPTON, VA, 23664","Match","Exact","607 TAPPAN AVE, HAMPTON, VA, 23664",103760539,"L"
760536,"607 TECHEVIEW","BERWICK","LA",70342,29.722350368,-91.239419567,36,"607 TECHEVIEW, BERWICK, LA, 70342","Match","Non_Exact","607 TECHEVIEW DR, BERWICK, LA, 70342",85898953,"L"
760537,"607 TERRY STREET SE","ATLANTA","GA",30312,33.7386339880001,-84.3848476429999,37,"607 TERRY STREET SE, ATLANTA, GA, 30312","Match","Exact","607 TERRY ST SE, ATLANTA, GA, 30312",17346356,"R"
760538,"607 THIRD AVENUE EAST","CRESCO","IA",52136,43.3741421880001,-92.108343136,38,"607 THIRD AVENUE EAST, CRESCO, IA, 52136","Match","Exact","607 3RD AVE E, CRESCO, IA, 52136",27402691,"L"
760539,"607 THORNBERRY LANE","LITITZ","PA",17543,40.10514856,-76.2886673359999,39,"607 THORNBERRY LANE, LITITZ, PA, 17543","Match","Exact","607 THORNBERRY LN, LITITZ, PA, 17543",617308068,"R"
760540,"607 THOROUGHBRED AVENUE","FRISCO","TX",75036,33.1430721410001,-96.886818109,40,"607 THOROUGHBRED AVENUE, FRISCO, TX, 75036","Match","Exact","607 THOROUGHBRED AVE, FRISCO, TX, 75036",647120508,"R"
760541,"607 TILTON CT","RICHMOND","VA",23224,37.499074793,-77.504341923,41,"607 TILTON CT, RICHMOND, VA, 23224","Match","Exact","607 TILTON CT, RICHMOND, VA, 23224",201554424,"R"
760542,"607 TOM KEMP","NEW BRAUNFEL","TX",78130,29.6707145130001,-98.046175711,42,"607 TOM KEMP, NEW BRAUNFEL, TX, 78130","Match","Non_Exact","607 TOM KEMP DR, NEW BRAUNFELS, TX, 78130",641468024,"R"
760543,"607 TOWNE DRIVE NE","BYRON","MN",55920,44.035231636,-92.616895583,43,"607 TOWNE DRIVE NE, BYRON, MN, 55920","Match","Exact","607 TOWNE DR NE, BYRON, MN, 55920",30576833,"R"
760544,"607 TOWNSEND ST","MIDLAND","MI",48640,43.614463647,-84.238803863,44,"607 TOWNSEND ST, MIDLAND, MI, 48640","Match","Exact","607 TOWNSEND ST, MIDLAND, MI, 48640",81196472,"L"
760545,"607 TREE TERRACE PKWY","AUSTELL","GA",30168,33.7905943170001,-84.6191312289999,45,"607 TREE TERRACE PKWY, AUSTELL, GA, 30168","Match","Exact","607 TREE TERRACE PKWY, AUSTELL, GA, 30168",16655849,"R"
760546,"607 TUCKAHOE BOULEVARD","RICHMOND","VA",23226,37.5746833090001,-77.509673488,46,"607 TUCKAHOE BOULEVARD, RICHMOND, VA, 23226","Match","Exact","607 TUCKAHOE BLVD, RICHMOND, VA, 23226",615456996,"R"
760547,"607 TWELVE OAKS RD","WARNER ROBINS","GA",31088,32.564963033,-83.6835864989999,47,"607 TWELVE OAKS RD, WARNER ROBINS, GA, 31088","Match","Non_Exact","607 TWELVE OAKS DR, WARNER ROBINS, GA, 31088",618935972,"R"
760548,"607 TWELVE OAKS","HUDSON","WI",54016,NA,NA,48,"607 TWELVE OAKS, HUDSON, WI, 54016","No_Match",NA,NA,NA,NA
760549,"607 VERMONT","QUINCY","IL",62301,39.9344972260001,-91.4064718829999,49,"607 VERMONT, QUINCY, IL, 62301","Match","Non_Exact","607 VERMONT ST, QUINCY, IL, 62301",35064253,"R"
760550,"607 VINE STREET","LIVERPOOL","NY",13088,43.1043812980001,-76.205039573,50,"607 VINE STREET, LIVERPOOL, NY, 13088","Match","Exact","607 VINE ST, LIVERPOOL, NY, 13088",46564459,"L"
760551,"607 VINE","GRAYLING","MI",49738,44.6673922000001,-84.715887697,51,"607 VINE, GRAYLING, MI, 49738","Match","Non_Exact","607 VINE ST, GRAYLING, MI, 49738",174463422,"L"
760552,"607 VIRGINIA ST","ALDERSON","WY",24910,NA,NA,52,"607 VIRGINIA ST, ALDERSON, WY, 24910","No_Match",NA,NA,NA,NA
760553,"607 W 161ST STREET APT 2F","NEW YORK","NY",10032,40.83670741,-73.9433864,53,"607 W 161ST STREET APT 2F, NEW YORK, NY, 10032","Match","Non_Exact","607 W 161ST ST, NEW YORK, NY, 10032",59655724,"R"
760554,"607 W 191 ST APT 57","NEW YORK","NY",10040,NA,NA,54,"607 W 191 ST APT 57, NEW YORK, NY, 10040","No_Match",NA,NA,NA,NA
760555,"607 W 28TH STREET AOT 518","MINNEAPOLIS","MN",55408,44.9519423690001,-93.286963643,55,"607 W 28TH STREET AOT 518, MINNEAPOLIS, MN, 55408","Match","Non_Exact","607 W 28TH ST, MINNEAPOLIS, MN, 55408",43628653,"L"
760556,"607 W 34TH ST","SAND SPRINGS","OK",74063,36.1125053710001,-96.132223751,56,"607 W 34TH ST, SAND SPRINGS, OK, 74063","Match","Exact","607 W 34TH ST, SAND SPRINGS, OK, 74063",166431526,"L"
760557,"607 W 4TH ST","MUSCATINE","IA",52761,41.419871588,-91.052659496,57,"607 W 4TH ST, MUSCATINE, IA, 52761","Match","Exact","607 W 4TH ST, MUSCATINE, IA, 52761",98996044,"L"
760558,"607 W 4TH STREET","BLOOMINGTON","IN",47404,39.165617647,-86.540008284,58,"607 W 4TH STREET, BLOOMINGTON, IN, 47404","Match","Exact","607 W 4TH ST, BLOOMINGTON, IN, 47404",42322483,"L"
760559,"607 W 4TH","BLOOMINGTON","IN",47408,NA,NA,59,"607 W 4TH, BLOOMINGTON, IN, 47408","No_Match",NA,NA,NA,NA
760560,"607 W DUARTE ROAD UNIT C","MONROVIA","CA",91016,NA,NA,60,"607 W DUARTE ROAD UNIT C, MONROVIA, CA, 91016","Tie",NA,NA,NA,NA
760561,"607 W DUE WEST  SUITE 113","MADISON","TN",37115,NA,NA,61,"607 W DUE WEST  SUITE 113, MADISON, TN, 37115","No_Match",NA,NA,NA,NA
760562,"607 W GREENWAY PL","PEORIA","IL",61614,40.7349908690001,-89.601442031,62,"607 W GREENWAY PL, PEORIA, IL, 61614","Match","Exact","607 W GREENWAY PL, PEORIA, IL, 61614",8715247,"R"
760563,"607 W JACKSON","WELLSBURG","IA",50680,NA,NA,63,"607 W JACKSON, WELLSBURG, IA, 50680","Tie",NA,NA,NA,NA
760564,"607 W MAIN ST","GRANGEVILLE","ID",83530,45.9267867470001,-116.12708245,64,"607 W MAIN ST, GRANGEVILLE, ID, 83530","Match","Exact","607 W MAIN ST, GRANGEVILLE, ID, 83530",195897856,"R"
760565,"607 W MCDOWELL","ODESSA","MO",64076,NA,NA,65,"607 W MCDOWELL, ODESSA, MO, 64076","No_Match",NA,NA,NA,NA
760566,"607 W MULBERRY","OGDEN","IA",50212,42.0380420720001,-94.0349632099999,66,"607 W MULBERRY, OGDEN, IA, 50212","Match","Non_Exact","607 W MULBERRY ST, OGDEN, IA, 50212",64941589,"R"
760567,"607 W WASHINGTON ST","WAYNETOWN","IN",47990,40.088365293,-87.0710070969999,67,"607 W WASHINGTON ST, WAYNETOWN, IN, 47990","Match","Exact","607 W WASHINGTON ST, WAYNETOWN, IN, 47990",29363567,"R"
760568,"607 WALNT CROSSING DR","WHITSETT","NC",27377,36.0841681260001,-79.552469133,68,"607 WALNT CROSSING DR, WHITSETT, NC, 27377","Match","Non_Exact","607 WALNUT CROSSING DR, WHITSETT, NC, 27377",612875970,"L"
760569,"607 WALNUT AVENUE","ELGIN","IL",60123,42.028756349,-88.293137675,69,"607 WALNUT AVENUE, ELGIN, IL, 60123","Match","Exact","607 WALNUT AVE, ELGIN, IL, 60123",119503772,"L"
760570,"607 WALNUT CROSSING DRIVE","WHITSETT","NC",27377,36.0841681260001,-79.552469133,70,"607 WALNUT CROSSING DRIVE, WHITSETT, NC, 27377","Match","Exact","607 WALNUT CROSSING DR, WHITSETT, NC, 27377",612875970,"L"
760571,"607 WARE STREET SW","VIENNA","VA",22180,38.890964065,-77.267189053,71,"607 WARE STREET SW, VIENNA, VA, 22180","Match","Exact","607 WARE ST SW, VIENNA, VA, 22180",75968864,"R"
760572,"607 WASHINGTON AVENUE SOUTH","MINNEAPOLIS","MN",55415,44.9781823320001,-93.259794422,72,"607 WASHINGTON AVENUE SOUTH, MINNEAPOLIS, MN, 55415","Match","Exact","607 WASHINGTON AVE S, MINNEAPOLIS, MN, 55415",43633043,"R"
760573,"607 WASHINGTON CROSSING","EAST STROUSBURG","PA",18301,41.0264836160001,-75.15474689,73,"607 WASHINGTON CROSSING, EAST STROUSBURG, PA, 18301","Match","Non_Exact","607 WASHINGTON CROSSING, E STROUDSBURG, PA, 18301",645587567,"L"
760574,"607 WASHINGTON ST","WATERLOO","NE",68069,41.289696647,-96.288861131,74,"607 WASHINGTON ST, WATERLOO, NE, 68069","Match","Exact","607 WASHINGTON ST, WATERLOO, NE, 68069",116964371,"R"
760575,"607 WASHINGTON STREET","MARIETTA","OH",45750,39.4248175970001,-81.4549226359999,75,"607 WASHINGTON STREET, MARIETTA, OH, 45750","Match","Exact","607 WASHINGTON ST, MARIETTA, OH, 45750",45681014,"L"
760576,"607 WASHTENAW / APT 3","YPSILANTI","MI",48197,42.2437480400001,-83.6206969199999,76,"607 WASHTENAW / APT 3, YPSILANTI, MI, 48197","Match","Non_Exact","607 WASHTENAW RD, YPSILANTI, MI, 48197",26020778,"L"
760577,"607 WAYBRIDGE RD","TOLEDO","OH",43612,41.710918812,-83.5587620109999,77,"607 WAYBRIDGE RD, TOLEDO, OH, 43612","Match","Exact","607 WAYBRIDGE RD, TOLEDO, OH, 43612",33933998,"L"
760578,"607 WAYSIDE DR","SAN ANTONIO","TX",78213,29.502139948,-98.5423590679999,78,"607 WAYSIDE DR, SAN ANTONIO, TX, 78213","Match","Exact","607 WAYSIDE DR, SAN ANTONIO, TX, 78213",101493627,"R"
760579,"607 WEBSTER ST","CARY","NC",27511,35.7868592840001,-78.768781928,79,"607 WEBSTER ST, CARY, NC, 27511","Match","Exact","607 WEBSTER ST, CARY, NC, 27511",72498995,"L"
760580,"607 WEETAMOE","FALL RIVER","MA",2720,41.7170445690001,-71.136993855,80,"607 WEETAMOE, FALL RIVER, MA, 2720","Match","Non_Exact","607 WEETAMOE ST, FALL RIVER, MA, 02720",46771079,"R"
760581,"607 WEST 10TH","CISCO","TX",76437,32.3841226280001,-98.9833423749999,81,"607 WEST 10TH, CISCO, TX, 76437","Match","Non_Exact","607 W 10TH ST, CISCO, TX, 76437",158684107,"R"
760582,"607 WEST CEASAR","KINGSVILLE","TX",78363,NA,NA,82,"607 WEST CEASAR, KINGSVILLE, TX, 78363","No_Match",NA,NA,NA,NA
760583,"607 WEST DUARTE ROAD UNIT C","MONROVIA","CA",91016,34.132174965,-118.011840789,83,"607 WEST DUARTE ROAD UNIT C, MONROVIA, CA, 91016","Match","Exact","607 W DUARTE RD, MONROVIA, CA, 91016",141646472,"R"
760584,"607 WEST END AVENUE 10A","NEW YORK","NY",10024,40.7910426920001,-73.976287218,84,"607 WEST END AVENUE 10A, NEW YORK, NY, 10024","Match","Exact","607 W END AVE, NEW YORK, NY, 10024",59656691,"L"
760585,"607 WEST MAIN STREET","WASHINGTON","IA",52353,41.2995051230001,-91.6983111709999,85,"607 WEST MAIN STREET, WASHINGTON, IA, 52353","Match","Exact","607 W MAIN ST, WASHINGTON, IA, 52353",84182354,"L"
760586,"607 WEST MAPLE STREET","IRVINGTON","KY",40146,37.8776768720001,-86.290458913,86,"607 WEST MAPLE STREET, IRVINGTON, KY, 40146","Match","Non_Exact","607 MAPLE ST, IRVINGTON, KY, 40146",8022955,"R"
760587,"607 WEST PARKVIEW","DYERSBURG","TN",38024,36.046738351,-89.392437582,87,"607 WEST PARKVIEW, DYERSBURG, TN, 38024","Match","Non_Exact","607 W PARKVIEW ST, DYERSBURG, TN, 38024",40653113,"L"
760588,"607 WEST STATE STREEET","ROCKFORD","IL",61101,42.273029803,-89.098881523,88,"607 WEST STATE STREEET, ROCKFORD, IL, 61101","Match","Non_Exact","607 W STATE ST, ROCKFORD, IL, 61101",49253118,"R"
760589,"607 WESTCHESTER PLACE","CLARKSVILLE","TN",37043,36.5172048250001,-87.2170343609999,89,"607 WESTCHESTER PLACE, CLARKSVILLE, TN, 37043","Match","Exact","607 WESTCHESTER PL, CLARKSVILLE, TN, 37043",31832452,"R"
760590,"607 WHEELER AVE","SUNNYSIDE","WA",98944,46.323209568,-120.029123666,90,"607 WHEELER AVE, SUNNYSIDE, WA, 98944","Match","Exact","607 WHEELER AVE, SUNNYSIDE, WA, 98944",184950382,"R"
760591,"607 WHEELING AVENUE","CAMBRIDGE","OH",43725,40.024852873,-81.5931982179999,91,"607 WHEELING AVENUE, CAMBRIDGE, OH, 43725","Match","Exact","607 WHEELING AVE, CAMBRIDGE, OH, 43725",37649711,"R"
760592,"607 WILLIAM AVE","COLORADO SPRINGS","CO",80985,38.80623703,-104.814443749,92,"607 WILLIAM AVE, COLORADO SPRINGS, CO, 80985","Match","Non_Exact","607 WILLIAM AVE, COLO SPGS, CO, 80905",105518909,"L"
760593,"607 WILSON ST","WASHINGTON","NC",27889,35.554895984,-77.0658119569999,93,"607 WILSON ST, WASHINGTON, NC, 27889","Match","Exact","607 WILSON ST, WASHINGTON, NC, 27889",67953082,"R"
760594,"607 WILTON ROAD","TOWSON","MD",21286,39.3858913190001,-76.6020626219999,94,"607 WILTON ROAD, TOWSON, MD, 21286","Match","Exact","607 WILTON RD, TOWSON, MD, 21286",191473833,"R"
760595,"607 WINDSOR DRIVE","SOLON","IA",52333,41.804579813,-91.4879592569999,95,"607 WINDSOR DRIVE, SOLON, IA, 52333","Match","Exact","607 WINDSOR DR, SOLON, IA, 52333",84509368,"L"
760596,"607 WINDSOR TRL","STURKIE","AR",72578,36.4470374320001,-91.8835019699999,96,"607 WINDSOR TRL, STURKIE, AR, 72578","Match","Exact","607 WINDSOR TRL, STURKIE, AR, 72578",2046615,"R"
760597,"607 WOODCHUCK LANE","LAKE ST. LOUIS","MO",63367,38.7943477630001,-90.773006634,97,"607 WOODCHUCK LANE, LAKE ST. LOUIS, MO, 63367","Match","Exact","607 WOODCHUCK LN, LAKE SAINT LOUIS, MO, 63367",100094441,"L"
760598,"607 WOODCHUCK LN","LAKE ST LOUIS","MO",63367,38.7943477630001,-90.773006634,98,"607 WOODCHUCK LN, LAKE ST LOUIS, MO, 63367","Match","Exact","607 WOODCHUCK LN, LAKE SAINT LOUIS, MO, 63367",100094441,"L"
760599,"607 WOODSCROSSING DRIVE","INDIANAPOLIS","IN",46239,39.760500054,-86.0323224049999,99,"607 WOODSCROSSING DRIVE, INDIANAPOLIS, IN, 46239","Match","Non_Exact","607 WOODS CROSSING DR, INDIANAPOLIS, IN, 46239",108035173,"L"
760600,"607 WORCESTER RD","KNOXVILLE","TN",37934,35.8727594170001,-84.138041016,100,"607 WORCESTER RD, KNOXVILLE, TN, 37934","Match","Exact","607 WORCESTER RD, KNOXVILLE, TN, 37934",42602278,"L"
760601,"607","HAMMOND","LA",70403,NA,NA,101,"607, HAMMOND, LA, 70403","No_Match",NA,NA,NA,NA
760602,"6070 BETHLEHEM RD","SPRINGFIELD","TN",37172,36.4918768200001,-86.761759056,102,"6070 BETHLEHEM RD, SPRINGFIELD, TN, 37172","Match","Exact","6070 BETHLEHEM RD, SPRINGFIELD, TN, 37172",97437035,"L"
760603,"6070 BOBCAT PLACE","CHARLOTTE","NC",28269,35.3311389940001,-80.807298164,103,"6070 BOBCAT PLACE, CHARLOTTE, NC, 28269","Match","Exact","6070 BOBCAT PL, CHARLOTTE, NC, 28269",70539504,"L"
760604,"6070 BUFFALO ROAD","CHURCHVILLE","NY",14428,43.1130581630001,-77.850687423,104,"6070 BUFFALO ROAD, CHURCHVILLE, NY, 14428","Match","Exact","6070 BUFFALO RD, CHURCHVILLE, NY, 14428",636429906,"R"
760605,"6070 CATTAIL RD","SALE CITY","GA",31784,31.285956098,-84.032018814,105,"6070 CATTAIL RD, SALE CITY, GA, 31784","Match","Exact","6070 CATTAIL RD, SALE CITY, GA, 31784",84156210,"R"
760606,"6070 FOX CHASE TRAIL","SHREVEPORT","LA",71129,32.437047406,-93.86115778,106,"6070 FOX CHASE TRAIL, SHREVEPORT, LA, 71129","Match","Exact","6070 FOX CHASE TRL, SHREVEPORT, LA, 71129",57431751,"R"
760607,"6070 GABRIELLE CAROL CT","LAS VEGAS","NV",89149,36.2706702990001,-115.313333341,107,"6070 GABRIELLE CAROL CT, LAS VEGAS, NV, 89149","Match","Exact","6070 GABRIELLE CAROL CT, LAS VEGAS, NV, 89149",632850255,"R"
760608,"6070 MAGGIES CIRCLE UNIT 101","JACKSONVILLE","FL",32244,30.2312993,-81.7425352069999,108,"6070 MAGGIES CIRCLE UNIT 101, JACKSONVILLE, FL, 32244","Match","Exact","6070 MAGGIES CIR, JACKSONVILLE, FL, 32244",647018502,"L"
760609,"6070 MANNSFORD ROAD","BLUE ROCK","OH",43720,NA,NA,109,"6070 MANNSFORD ROAD, BLUE ROCK, OH, 43720","No_Match",NA,NA,NA,NA
760610,"6070 NEW VIENNA RD","NEW VIENNA","OH",45159,39.307815394,-83.6638302489999,110,"6070 NEW VIENNA RD, NEW VIENNA, OH, 45159","Match","Exact","6070 NEW VIENNA RD, NEW VIENNA, OH, 45159",639120918,"L"
760611,"6070 PINE HOLLOW DRIVE","PARKER","CO",80134,39.4512052900001,-104.73229688,111,"6070 PINE HOLLOW DRIVE, PARKER, CO, 80134","Match","Non_Exact","6070 N PINE HOLLOW DR, PARKER, CO, 80134",130824088,"R"
760612,"6070 PISGAH ROAD","HICKORY FLAT","MS",38633,34.6417880500001,-89.2186993989999,112,"6070 PISGAH ROAD, HICKORY FLAT, MS, 38633","Match","Exact","6070 PISGAH RD, HICKORY FLAT, MS, 38633",72807435,"L"
760613,"6070 RICHLAND ROAD","RUSHVILLE","OH",43150,39.7856616060001,-82.476395904,113,"6070 RICHLAND ROAD, RUSHVILLE, OH, 43150","Match","Non_Exact","6070 RICHLAND RD NE, RUSHVILLE, OH, 43150",37219922,"R"
760614,"6070 ROCK ELM RD","ATLANTA","GA",30349,33.6175042260001,-84.5870198919999,114,"6070 ROCK ELM RD, ATLANTA, GA, 30349","Match","Exact","6070 ROCK ELM RD, ATLANTA, GA, 30349",627596574,"R"
760615,"6070 SEQUOIA LANE","DOUGLASVILLE","GA",30135,33.640215761,-84.8269075969999,115,"6070 SEQUOIA LANE, DOUGLASVILLE, GA, 30135","Match","Exact","6070 SEQUOIA LN, DOUGLASVILLE, GA, 30135",619875964,"L"
760616,"6070 SPANISH OAKS LANE","NAPLES","FL",34119,26.26448801,-81.728908044,116,"6070 SPANISH OAKS LANE, NAPLES, FL, 34119","Match","Exact","6070 SPANISH OAKS LN, NAPLES, FL, 34119",115128308,"R"
760617,"6070 THOROUGHBRED CT UNIT B","WALDORF","MD",NA,38.6185082920001,-76.965710227,117,"6070 THOROUGHBRED CT UNIT B, WALDORF, MD, ","Match","Exact","6070 THOROUGHBRED CT, WALDORF, MD, 20603",25399302,"L"
760618,"6070 TILLAMOOK AVE","BAY CITY","OR",97107,45.519164855,-123.885461351,118,"6070 TILLAMOOK AVE, BAY CITY, OR, 97107","Match","Exact","6070 TILLAMOOK AVE, BAY CITY, OR, 97107",156379861,"R"
760619,"6070 TURNSTONE PLACE","CASTLE ROCK","CO",80104,39.364907799,-104.79914358,119,"6070 TURNSTONE PLACE, CASTLE ROCK, CO, 80104","Match","Exact","6070 TURNSTONE PL, CASTLE ROCK, CO, 80104",624354266,"L"
760620,"6070 W 3RD STREET","LOS ANGELES","CA",90036,34.0702276480001,-118.352619241,120,"6070 W 3RD STREET, LOS ANGELES, CA, 90036","Match","Exact","6070 W 3RD ST, LOS ANGELES, CA, 90036",141599116,"L"
760621,"6070 WESTFALEN CT UNIT 7","JOHNSTON","IA",50151,41.671021996,-93.762636206,121,"6070 WESTFALEN CT UNIT 7, JOHNSTON, IA, 50151","Match","Non_Exact","6070 WESTFALEN CT, JOHNSTON, IA, 50131",640337322,"L"
760622,"6070 WESTFALEN CT","JOHNSTON","IA",50131,41.671021996,-93.762636206,122,"6070 WESTFALEN CT, JOHNSTON, IA, 50131","Match","Exact","6070 WESTFALEN CT, JOHNSTON, IA, 50131",640337322,"L"
760623,"6070 WINTER GREEN RD","NORCROSS","GA",30071,33.891835384,-84.1927718759999,123,"6070 WINTER GREEN RD, NORCROSS, GA, 30071","Match","Non_Exact","6070 WINTERGREEN RD, NORCROSS, GA, 30093",88949627,"L"
760624,"6070 WOODHAVEN BLVD 6G","BROOKLYN","NY",11373,NA,NA,124,"6070 WOODHAVEN BLVD 6G, BROOKLYN, NY, 11373","No_Match",NA,NA,NA,NA
760625,"6070","CHARLOTTE","NC",28269,NA,NA,125,"6070, CHARLOTTE, NC, 28269","No_Match",NA,NA,NA,NA
760626,"60700 E 190 RD","FAIRLAND","OK",74343,36.7428559740001,-94.7891323329999,126,"60700 E 190 RD, FAIRLAND, OK, 74343","Match","Exact","60700 E 190 RD, FAIRLAND, OK, 74343",56294922,"R"
760627,"60701 E HWY 60","FAIRLAND","OK",74343,36.7840409830001,-94.78883002,127,"60701 E HWY 60, FAIRLAND, OK, 74343","Match","Non_Exact","60701 US HWY 60, FAIRLAND, OK, 74343",56288334,"R"
760628,"6071 BERNICE ST SW","AMANDA","OH",43102,39.64991179,-82.7256247139999,128,"6071 BERNICE ST SW, AMANDA, OH, 43102","Match","Exact","6071 BERNICE ST SW, AMANDA, OH, 43102",37221634,"R"
760629,"6071 CARMELL DR","COLUMBUS","OH",43228,39.9745354510001,-83.163447944,129,"6071 CARMELL DR, COLUMBUS, OH, 43228","Match","Exact","6071 CARMELL DR, COLUMBUS, OH, 43228",135629753,"L"
760630,"6071 DAVID BERGER","MT. MORRIS","MI",48458,43.0933818930001,-83.7096135639999,130,"6071 DAVID BERGER, MT. MORRIS, MI, 48458","Match","Non_Exact","6071 DAVID BERGER DR, MOUNT MORRIS, MI, 48458",69565501,"L"
760631,"6071 DOYLE DRIVE","HUNTIGNTON BEACH","CA",92647,33.7187433240001,-118.023346219,131,"6071 DOYLE DRIVE, HUNTIGNTON BEACH, CA, 92647","Match","Non_Exact","6071 DOYLE DR, HUNTINGTON BEACH, CA, 92647",144014425,"L"
760632,"6071 DOYLE DRIVE","HUNTINGTON BEACH","CA",92647,33.7187433240001,-118.023346219,132,"6071 DOYLE DRIVE, HUNTINGTON BEACH, CA, 92647","Match","Exact","6071 DOYLE DR, HUNTINGTON BEACH, CA, 92647",144014425,"L"
760633,"6071 E O REAR ROAD","COLUMBIA","MO",65202,39.0482284920001,-92.242808759,133,"6071 E O REAR ROAD, COLUMBIA, MO, 65202","Match","Non_Exact","6071 E OREAR RD, COLUMBIA, MO, 65202",604838639,"L"
760634,"6071 GARMOUTH WAY N","ST. PETERSBURG","FL",33709,27.82724947,-82.7357848079999,134,"6071 GARMOUTH WAY N, ST. PETERSBURG, FL, 33709","Match","Non_Exact","6071 GARMOUTH TER N, SAINT PETERSBURG, FL, 33709",124695056,"R"
760635,"6071 GENERAL DIAZ STREET","NEW ORLEANS","LA",70124,30.0001482320001,-90.105276482,135,"6071 GENERAL DIAZ STREET, NEW ORLEANS, LA, 70124","Match","Exact","6071 GENERAL DIAZ ST, NEW ORLEANS, LA, 70124",191705825,"R"
760636,"6071 GOLD SPIRIT ST","EASTVALE","CA",92880,33.9772819630001,-117.580910214,136,"6071 GOLD SPIRIT ST, EASTVALE, CA, 92880","Match","Exact","6071 GOLD SPIRIT ST, EASTVALE, CA, 92880",636900154,"R"
760637,"6071 GUADALAJARA ROAD NE","RIO RANCHO","NM",87144,35.2829311360001,-106.613603439,137,"6071 GUADALAJARA ROAD NE, RIO RANCHO, NM, 87144","Match","Exact","6071 GUADALAJARA RD NE, RIO RANCHO, NM, 87144",194015468,"L"
760638,"6071 HALLORAN LANE","HOFFMAN ESTATES","IL",60192,42.058831646,-88.2400434629999,138,"6071 HALLORAN LANE, HOFFMAN ESTATES, IL, 60192","Match","Exact","6071 HALLORAN LN, HOFFMAN EST, IL, 60192",635428996,"R"
760639,"6071 HIGHWAY 85 APT 31A","RIVERDALE","GA",30274,33.587926856,-84.4097892079999,139,"6071 HIGHWAY 85 APT 31A, RIVERDALE, GA, 30274","Match","Non_Exact","6071 STATE RTE 85, RIVERDALE, GA, 30274",23311752,"R"
760640,"6071 HIGHWAY 85","RIVERDALE","GA",36111,NA,NA,140,"6071 HIGHWAY 85, RIVERDALE, GA, 36111","No_Match",NA,NA,NA,NA
760641,"6071 OTTERBAIN LANE","ELLICOTT CITY","MD",21043,39.2061046040001,-76.783728734,141,"6071 OTTERBAIN LANE, ELLICOTT CITY, MD, 21043","Match","Non_Exact","6071 OTTERBEIN LN, ELLICOTT CITY, MD, 21043",652534298,"L"
760642,"6071 PAWSON ROAD","TIPTON","MI",49287,42.0420210840001,-84.105163994,142,"6071 PAWSON ROAD, TIPTON, MI, 49287","Match","Exact","6071 PAWSON RD, TIPTON, MI, 49287",633514768,"L"
760643,"6071 RANDOLF RD","BEDFORD HEIGHTS",NA,NA,NA,NA,143,"6071 RANDOLF RD, BEDFORD HEIGHTS, , ","No_Match",NA,NA,NA,NA
760644,"6071 RUTLEDGE ST SE","DENNISON","OH",NA,40.436239979,-81.359191837,144,"6071 RUTLEDGE ST SE, DENNISON, OH, ","Match","Exact","6071 RUTLEDGE ST SE, DENNISON, OH, 44621",636552756,"R"
760645,"6071 S OAK CANYON DR","HOLLADAY","UT",84121,40.640893582,-111.797430272,145,"6071 S OAK CANYON DR, HOLLADAY, UT, 84121","Match","Exact","6071 OAK CANYON DR, HOLLADAY, UT, 84121",635616606,"R"
760646,"6071 S TOPAZ PL","CHANDLER","AZ",85249,33.217621239,-111.764733655,146,"6071 S TOPAZ PL, CHANDLER, AZ, 85249","Match","Exact","6071 S TOPAZ PL, CHANDLER, AZ, 85249",128854700,"L"
760647,"6071 SPARROW STREET","MILLINGTON","TN",38053,35.3308955540001,-89.861059659,147,"6071 SPARROW STREET, MILLINGTON, TN, 38053","Match","Exact","6071 SPARROW ST, MILLINGTON, TN, 38053",72899702,"R"
760648,"60710 CROWN RIDGE CT","SOUTH BEND","IN",46614,41.6127741760001,-86.264430177,148,"60710 CROWN RIDGE CT, SOUTH BEND, IN, 46614","Match","Exact","60710 CROWN RIDGE CT, SOUTH BEND, IN, 46614",8072299,"R"
760649,"60715 E HWY 60","FAIRLAND","OK",74343,36.7841395890001,-94.788662487,149,"60715 E HWY 60, FAIRLAND, OK, 74343","Match","Non_Exact","60715 US HWY 60, FAIRLAND, OK, 74343",56288334,"R"
760650,"6072 5TH AVE S","SAINT PETERSBURG","FL",33707,27.7663778040001,-82.7177468579999,150,"6072 5TH AVE S, SAINT PETERSBURG, FL, 33707","Match","Exact","6072 5TH AVE S, SAINT PETERSBURG, FL, 33707",651749103,"L"
760651,"6072 ABBEY CHAPEL DRIVE","DUBLIN","OH",43017,40.078051278,-83.093228011,151,"6072 ABBEY CHAPEL DRIVE, DUBLIN, OH, 43017","Match","Exact","6072 ABBEY CHAPEL DR, DUBLIN, OH, 43017",135668033,"R"
760652,"6072 CROWNPOINT DR NE","RIO RANCHO","NM",87144,35.3516503860001,-106.611820419,152,"6072 CROWNPOINT DR NE, RIO RANCHO, NM, 87144","Match","Exact","6072 CROWNPOINT DR NE, RIO RANCHO, NM, 87144",611357873,"R"
760653,"6072 CUMBERLAND HIGHWAY","CHAMBERSBURG","PA",17202,40.0024729840001,-77.62570993,153,"6072 CUMBERLAND HIGHWAY, CHAMBERSBURG, PA, 17202","Match","Exact","6072 CUMBERLAND HWY, CHAMBERSBURG, PA, 17202",630544238,"R"
760654,"6072 DON CARLOS DRIVE","TAYLORSVILLE","UT",84129,40.6408798260001,-111.964838768,154,"6072 DON CARLOS DRIVE, TAYLORSVILLE, UT, 84129","Match","Exact","6072 DON CARLOS DR, TAYLORSVILLE, UT, 84129",176111981,"R"
760655,"6072 E 400 RD","EUCHA","OK",74342,36.437977204,-94.897876791,155,"6072 E 400 RD, EUCHA, OK, 74342","Match","Exact","6072 E 400 RD, EUCHA, OK, 74342",613661977,"L"
760656,"6072 FIELDS ERTEL ROAD","CINCINNATI","OH",45249,39.2931747370001,-84.337166095,156,"6072 FIELDS ERTEL ROAD, CINCINNATI, OH, 45249","Match","Exact","6072 FIELDS ERTEL RD, CINCINNATI, OH, 45249",103945486,"L"
760657,"6072 GEORGETOWN VERONA ROAD","LEWISBURG","OH",45338,39.9028080190001,-84.515707913,157,"6072 GEORGETOWN VERONA ROAD, LEWISBURG, OH, 45338","Match","Exact","6072 GEORGETOWN VERONA RD, LEWISBURG, OH, 45338",54597418,"L"
760658,"6072 GRAND CHAMPION BLVD","FORT WORTH","TX",76179,32.8466956510001,-97.378412457,158,"6072 GRAND CHAMPION BLVD, FORT WORTH, TX, 76179","Match","Exact","6072 GRAND CHAMPION BLVD, FORT WORTH, TX, 76179",102107796,"L"
760659,"6072 HOOVER DR","MAYS LANDING","NJ",8330,39.452823885,-74.766521438,159,"6072 HOOVER DR, MAYS LANDING, NJ, 8330","Match","Exact","6072 HOOVER DR, MAYS LANDING, NJ, 08330",202506842,"R"
760660,"6072 LAMB WOODS DR","BARTLETT","TN",38135,35.2559612470001,-89.860783001,160,"6072 LAMB WOODS DR, BARTLETT, TN, 38135","Match","Exact","6072 LAMB WOODS DR, BARTLETT, TN, 38135",601175887,"R"
760661,"6072 LAMBWOODS DRIVE","BARTLETT","TN",38135,35.2559612470001,-89.860783001,161,"6072 LAMBWOODS DRIVE, BARTLETT, TN, 38135","Match","Non_Exact","6072 LAMB WOODS DR, BARTLETT, TN, 38135",601175887,"R"
760662,"6072 MONASTERY DR","FAIRFIELD","OH",45014,39.3166888260001,-84.593747174,162,"6072 MONASTERY DR, FAIRFIELD, OH, 45014","Match","Exact","6072 MONASTERY DR, FAIRFIELD, OH, 45014",113812368,"R"
760663,"6072 PINE WAY BLVD","HOUSTON","TX",77023,29.7025997710001,-95.32394053,163,"6072 PINE WAY BLVD, HOUSTON, TX, 77023","Match","Non_Exact","6072 PINEWAY BLVD, HOUSTON, TX, 77023",96082573,"R"
760664,"6072 RYON COURT","SYKESVILLE","MD",21784,39.407384343,-76.955930956,164,"6072 RYON COURT, SYKESVILLE, MD, 21784","Match","Exact","6072 RYON CT, SYKESVILLE, MD, 21784",61766648,"L"
760665,"6072 S DURANGO DR","LAS VEGAS","NV",89113,36.078338768,-115.279301415,165,"6072 S DURANGO DR, LAS VEGAS, NV, 89113","Match","Exact","6072 S DURANGO DR, LAS VEGAS, NV, 89113",201961475,"L"
760666,"6072 S PARKWOOD DR","KEARNS","UT",84118,40.6408234240001,-112.010835875,166,"6072 S PARKWOOD DR, KEARNS, UT, 84118","Match","Non_Exact","6072 S PARK WOOD DR, KEARNS, UT, 84118",176104417,"L"
760667,"6072 STATE HWY 16 S","GRAHAM","TX",76450,33.010820833,-98.47494138,167,"6072 STATE HWY 16 S, GRAHAM, TX, 76450","Match","Non_Exact","6072 STATE HWY 16, GRAHAM, TX, 76450",636369997,"L"
760668,"6072 SUNSTONE DRIVE","SAN JOSE","CA",95122,37.241753069,-121.796548825,168,"6072 SUNSTONE DRIVE, SAN JOSE, CA, 95122","Match","Non_Exact","6072 SUNSTONE DR, SAN JOSE, CA, 95123",648591672,"L"
760669,"6072 THOROUGHBRED COURT UNIT B","WALDORF","MD",20603,38.618498576,-76.96571126,169,"6072 THOROUGHBRED COURT UNIT B, WALDORF, MD, 20603","Match","Exact","6072 THOROUGHBRED CT, WALDORF, MD, 20603",25399302,"L"
760670,"6072 W ALLWOOD DRIVE","FRANKLIN","WI",53132,42.900840771,-87.990938167,170,"6072 W ALLWOOD DRIVE, FRANKLIN, WI, 53132","Match","Exact","6072 W ALLWOOD DR, FRANKLIN, WI, 53132",77750461,"R"
760671,"6073 23RD STREET GOLDEN GATE BLVD","NAPLES","FL",34116,NA,NA,171,"6073 23RD STREET GOLDEN GATE BLVD, NAPLES, FL, 34116","No_Match",NA,NA,NA,NA
760672,"6073 AXIS DR","SPARKS","NV",89436,39.602299099,-119.688103396,172,"6073 AXIS DR, SPARKS, NV, 89436","Match","Exact","6073 AXIS DR, SPARKS, NV, 89436",107124955,"R"
760673,"6073 BALLARD RED SULPHUR PRKWY","BALLARD","WV",24918,37.4750144560001,-80.7788453059999,173,"6073 BALLARD RED SULPHUR PRKWY, BALLARD, WV, 24918","Match","Exact","6073 BALLARD RED SULPHUR PKWY, BALLARD, WV, 24918",650552366,"L"
760674,"6073 BREWER ROAD","MASON","OH",45040,39.396808632,-84.3263084829999,174,"6073 BREWER ROAD, MASON, OH, 45040","Match","Exact","6073 BREWER RD, MASON, OH, 45040",649562034,"R"
760675,"6073 CEDAR CREEK ROAD","NORTH BRANCH","MI",48446,43.2124085390001,-83.1559909269999,175,"6073 CEDAR CREEK ROAD, NORTH BRANCH, MI, 48446","Match","Non_Exact","6073 CEDAR CREEK RD, NORTH BRANCH, MI, 48461",110477008,"L"
760676,"6073 FALLA DRIVE","CANAL WINCHESTER","OH",43110,39.880626933,-82.8341838329999,176,"6073 FALLA DRIVE, CANAL WINCHESTER, OH, 43110","Match","Exact","6073 FALLA DR, CANAL WINCHESTER, OH, 43110",635769934,"L"
760677,"6073 GRAND CYPRESS CIR W","COCONUT CREEK","FL",33073,26.3049971730001,-80.190501476,177,"6073 GRAND CYPRESS CIR W, COCONUT CREEK, FL, 33073","Match","Exact","6073 GRAND CYPRESS CIR W, COCONUT CREEK, FL, 33073",623917843,"R"
760678,"6073 HERRINGDON ROAD","THE PLAINS","VA",20198,38.893709293,-77.7555684069999,178,"6073 HERRINGDON ROAD, THE PLAINS, VA, 20198","Match","Exact","6073 HERRINGDON RD, THE PLAINS, VA, 20198",146280645,"L"
760679,"6073 N RIVER","FREELAND","MI",48623,43.497393253,-84.114258981,179,"6073 N RIVER, FREELAND, MI, 48623","Match","Non_Exact","6073 N RIVER RD, FREELAND, MI, 48623",80207497,"L"
760680,"6073 PACK LANE","ROGERS","AR",72758,36.2745607800001,-94.178904076,180,"6073 PACK LANE, ROGERS, AR, 72758","Match","Non_Exact","6073 S PACK LN, ROGERS, AR, 72758",650785471,"L"
760681,"6073 PAW PAW PLAINS","LENOIR CITY","TN",37771,35.856481525,-84.337443736,181,"6073 PAW PAW PLAINS, LENOIR CITY, TN, 37771","Match","Non_Exact","6073 PAW PAW PLAINS RD, LENOIR CITY, TN, 37771",610285211,"L"
760682,"6073 ROCKBRIDGE RD","STONE MOUNTAIN","GA",30087,33.7890902350001,-84.1472853339999,182,"6073 ROCKBRIDGE RD, STONE MOUNTAIN, GA, 30087","Match","Exact","6073 ROCKBRIDGE RD, STONE MOUNTAIN, GA, 30087",23374793,"R"
760683,"6073 S KELSO WAY","BOISE","ID",83709,43.5479828260001,-116.311190922,183,"6073 S KELSO WAY, BOISE, ID, 83709","Match","Exact","6073 S KELSO WAY, BOISE, ID, 83709",617931850,"R"
760684,"6073 SPANISH OAK DR","PENSACOLA","FL",32526,30.4565536260001,-87.337392855,184,"6073 SPANISH OAK DR, PENSACOLA, FL, 32526","Match","Exact","6073 SPANISH OAK DR, PENSACOLA, FL, 32526",93248877,"L"
760685,"6073 SPRUCE MEADOWS","LOOP ANCHORAGE","AK",99507,61.165811751,-149.831698356,185,"6073 SPRUCE MEADOWS, LOOP ANCHORAGE, AK, 99507","Match","Non_Exact","6073 SPRUCE MEADOWS LOOP, ANCHORAGE, AK, 99507",605183019,"L"
760686,"6073 TRIDENT LANE","WOODBRIDGE","VA",22193,38.6682008970001,-77.3867903189999,186,"6073 TRIDENT LANE, WOODBRIDGE, VA, 22193","Match","Exact","6073 TRIDENT LN, WOODBRIDGE, VA, 22193",207158097,"L"
760687,"6073 VAN KEPPEL ROAD","FORESTVILLE","CA",95436,38.4784273500001,-122.884880269,187,"6073 VAN KEPPEL ROAD, FORESTVILLE, CA, 95436","Match","Exact","6073 VAN KEPPEL RD, FORESTVILLE, CA, 95436",605032079,"R"
760688,"60732 LITTLE BUTTER CREEK ROAD","HEPPNER","OR",97836,45.4226124410001,-119.306866418,188,"60732 LITTLE BUTTER CREEK ROAD, HEPPNER, OR, 97836","Match","Exact","60732 LITTLE BUTTER CREEK RD, HEPPNER, OR, 97836",175435131,"L"
760689,"6074 59TH STREET SOUTH","FARGO","ND",58104,46.793071823,-96.888099923,189,"6074 59TH STREET SOUTH, FARGO, ND, 58104","Match","Exact","6074 59 ST S, FARGO, ND, 58104",638772264,"R"
760690,"6074 ALCANTE DR","SAN JOSE","CA",95129,37.3055131460001,-122.01117537,190,"6074 ALCANTE DR, SAN JOSE, CA, 95129","Match","Exact","6074 ALCANTE DR, SAN JOSE, CA, 95129",122940835,"L"
760691,"6074 CANE CROSSING DRIVE","GAINESVILLE","GA",30507,34.211646208,-83.791451459,191,"6074 CANE CROSSING DRIVE, GAINESVILLE, GA, 30507","Match","Exact","6074 CANE CROSSING DR, GAINESVILLE, GA, 30507",98273614,"R"
760692,"6074 CAPRI CIRCLE","COLUMBUS","GA",31907,32.47313373,-84.8874919849999,192,"6074 CAPRI CIRCLE, COLUMBUS, GA, 31907","Match","Exact","6074 CAPRI CIR, COLUMBUS, GA, 31907",98944558,"R"
760693,"6074 EDGEMONT WAY","SHELBYVILLE","KY",40065,38.19031505,-85.224321635,193,"6074 EDGEMONT WAY, SHELBYVILLE, KY, 40065","Match","Exact","6074 EDGEMONT WAY, SHELBYVILLE, KY, 40065",651589529,"R"
760694,"6074 MCNAUGHTEN GROVE LANE","COLUMBUS","OH",43213,39.969876943,-82.840698043,194,"6074 MCNAUGHTEN GROVE LANE, COLUMBUS, OH, 43213","Match","Exact","6074 MCNAUGHTEN GROVE LN, COLUMBUS, OH, 43213",218680406,"R"
760695,"6074 NW 37TH DR","JENNINGS","FL",32053,30.5342764550001,-83.112151758,195,"6074 NW 37TH DR, JENNINGS, FL, 32053","Match","Exact","6074 NW 37TH DR, JENNINGS, FL, 32053",41008852,"L"
760696,"6074 OXFORD PIKE","BROOKVILLE","IN",47012,39.454710531,-84.918160089,196,"6074 OXFORD PIKE, BROOKVILLE, IN, 47012","Match","Exact","6074 OXFORD PIKE, BROOKVILLE, IN, 47012",647357369,"R"
760697,"6074 PITCHFORK RANCH DR","FRISCO","TX",75036,NA,NA,197,"6074 PITCHFORK RANCH DR, FRISCO, TX, 75036","No_Match",NA,NA,NA,NA
760698,"6074 PREAKNESS STAKES LANE","POWHATAN","VA",23139,37.554615316,-78.076630058,198,"6074 PREAKNESS STAKES LANE, POWHATAN, VA, 23139","Match","Exact","6074 PREAKNESS STAKES LN, POWHATAN, VA, 23139",628951806,"R"
760699,"6074 PREAKNESS STATES LANE","POWHATAN","VA",23139,NA,NA,199,"6074 PREAKNESS STATES LANE, POWHATAN, VA, 23139","No_Match",NA,NA,NA,NA
760700,"6074 REYNOLDS CIR","GROVETOWN","GA",30813,33.442994105,-82.218054416,200,"6074 REYNOLDS CIR, GROVETOWN, GA, 30813","Match","Exact","6074 REYNOLDS CIR, GROVETOWN, GA, 30813",641150853,"L"
760701,"6074 S FAIRFAX CT","CENTENNIAL","CO",80121,39.6067552920001,-104.928793816,201,"6074 S FAIRFAX CT, CENTENNIAL, CO, 80121","Match","Exact","6074 S FAIRFAX CT, CENTENNIAL, CO, 80121",177522165,"L"
760702,"6074 S PARFET ST","LITTLETON","CO",80127,39.6059026300001,-105.121898587,202,"6074 S PARFET ST, LITTLETON, CO, 80127","Match","Exact","6074 S PARFET ST, LITTLETON, CO, 80127",177390577,"L"
760703,"6074 SOUTH DIP CREEK ROAD","SAND SPRINGS","OK",74063,36.076031007,-96.259100211,203,"6074 SOUTH DIP CREEK ROAD, SAND SPRINGS, OK, 74063","Match","Exact","6074 S DIP CREEK RD, SAND SPRINGS, OK, 74063",166430275,"L"
760704,"6074 SPRING ISLES BLVD","LAKE WORTH","FL",33463,26.5628354450001,-80.139541465,204,"6074 SPRING ISLES BLVD, LAKE WORTH, FL, 33463","Match","Exact","6074 SPRING ISLES BLVD, LAKE WORTH, FL, 33463",115501287,"R"
760705,"6074 STROUD ROAD","CEDAR HILL","TN",37032,36.5691644070001,-86.9518383069999,205,"6074 STROUD ROAD, CEDAR HILL, TN, 37032","Match","Exact","6074 STROUD RD, CEDAR HILL, TN, 37032",97435360,"L"
760706,"6074 SUNRISE DR","PLATTEVILLE","WI",53818,42.7235013430001,-90.543142774,206,"6074 SUNRISE DR, PLATTEVILLE, WI, 53818","Match","Non_Exact","6074 SUNRISE LN, PLATTEVILLE, WI, 53818",32766975,"L"
760707,"60747 DAYSPRING DRIVE","BEND","OR",97702,NA,NA,207,"60747 DAYSPRING DRIVE, BEND, OR, 97702","No_Match",NA,NA,NA,NA
760708,"60747 WOODSIDE ROAD","BEND","OR",97702,44.005717012,-121.292521777,208,"60747 WOODSIDE ROAD, BEND, OR, 97702","Match","Exact","60747 WOODSIDE RD, BEND, OR, 97702",152555190,"L"
760709,"6075 BRAYMOORE DR","GALENA","OH",43021,40.183603933,-82.929296865,209,"6075 BRAYMOORE DR, GALENA, OH, 43021","Match","Exact","6075 BRAYMOORE DR, GALENA, OH, 43021",648284441,"L"
760710,"6075 BRIDGE FAIR RD","CUMMING","GA",30028,34.30657029,-84.168772788,210,"6075 BRIDGE FAIR RD, CUMMING, GA, 30028","Match","Exact","6075 BRIDGE FAIR RD, CUMMING, GA, 30028",629784097,"L"
760711,"6075 CALIFORNIA AVE SW","SEATTLE","WA",98136,47.547964162,-122.387167279,211,"6075 CALIFORNIA AVE SW, SEATTLE, WA, 98136","Match","Exact","6075 CALIFORNIA AVE SW, SEATTLE, WA, 98136",186661567,"R"
760712,"6075 CASTLEMONT AVE","LAS VEGAS","NV",89156,36.206052716,-115.04043266,212,"6075 CASTLEMONT AVE, LAS VEGAS, NV, 89156","Match","Exact","6075 CASTLEMONT AVE, LAS VEGAS, NV, 89156",201876199,"R"
760713,"6075 COUNTY RD 334","TYLER","TX",75708,32.4309408710001,-95.265131347,213,"6075 COUNTY RD 334, TYLER, TX, 75708","Match","Exact","6075 CO RD 334, TYLER, TX, 75708",615345365,"L"
760714,"6075 DOGWOOD TRAIL","HARLEM","GA",30814,33.4226091900001,-82.280459832,214,"6075 DOGWOOD TRAIL, HARLEM, GA, 30814","Match","Exact","6075 DOGWOOD TRL, HARLEM, GA, 30814",624153617,"L"
760715,"6075 DUBOIS ROAD","LAKELAND","FL",33811,27.955283578,-82.051308322,215,"6075 DUBOIS ROAD, LAKELAND, FL, 33811","Match","Exact","6075 DUBOIS RD, LAKELAND, FL, 33811",104910186,"R"
760716,"6075 ENCELIA RD","29 PALMS","CA",92277,34.143397792,-116.098256355,216,"6075 ENCELIA RD, 29 PALMS, CA, 92277","Match","Non_Exact","6075 ENCELIA DR, 29 PALMS, CA, 92277",614806746,"R"
760717,"6075 HIGH STREET","MARTINSVILLE","IN",46151,39.5155459170001,-86.3935138589999,217,"6075 HIGH STREET, MARTINSVILLE, IN, 46151","Match","Exact","6075 HIGH ST, MARTINSVILLE, IN, 46151",43543719,"R"
760718,"6075 HOWARD ROAD","PANAMA CITY","FL",32404,30.1194751990001,-85.584830714,218,"6075 HOWARD ROAD, PANAMA CITY, FL, 32404","Match","Exact","6075 HOWARD RD, PANAMA CITY, FL, 32404",7085589,"L"
760719,"6075 LAKESIDE BLVD","INDIANAPOLIS","IN",46278,39.8767576280001,-86.265727425,219,"6075 LAKESIDE BLVD, INDIANAPOLIS, IN, 46278","Match","Exact","6075 LAKESIDE BLVD, INDIANAPOLIS, IN, 46278",108021054,"L"
760720,"6075 LINCOLN DRIVE  UNIT 208","EDINA","MN",55436,44.892608755,-93.398501543,220,"6075 LINCOLN DRIVE  UNIT 208, EDINA, MN, 55436","Match","Exact","6075 LINCOLN DR, EDINA, MN, 55436",43837367,"L"
760721,"6075 LINCOLN DRIVE UNIT 208","EDINA","MN",55436,44.892608755,-93.398501543,221,"6075 LINCOLN DRIVE UNIT 208, EDINA, MN, 55436","Match","Exact","6075 LINCOLN DR, EDINA, MN, 55436",43837367,"L"
760722,"6075 MAGNOLIA WOODS WAY","CINCINNATI","OH",45247,39.227726354,-84.647976601,222,"6075 MAGNOLIA WOODS WAY, CINCINNATI, OH, 45247","Match","Exact","6075 MAGNOLIA WOODS WAY, CINCINNATI, OH, 45247",645434063,"L"
760723,"6075 MANOR LANE","LA PLATA","MD",20646,38.546942496,-77.0932381709999,223,"6075 MANOR LANE, LA PLATA, MD, 20646","Match","Exact","6075 MANOR LN, LA PLATA, MD, 20646",25391428,"L"
760724,"6075 N ESPANA STREET","AURORA","CO",80019,39.8072105570001,-104.759922224,224,"6075 N ESPANA STREET, AURORA, CO, 80019","Match","Exact","6075 ESPANA ST, AURORA, CO, 80019",177467936,"L"
760725,"6075 N GEREMANDER STREET","RIALTO","CA",92377,34.1434707940001,-117.376530372,225,"6075 N GEREMANDER STREET, RIALTO, CA, 92377","Match","Non_Exact","6075 GEREMANDER AVE, RIALTO, CA, 92377",144644176,"L"
760726,"6075 N WRIGHT ST","KINGSVILLE","OH",44048,41.89188432,-80.6804474959999,226,"6075 N WRIGHT ST, KINGSVILLE, OH, 44048","Match","Exact","6075 N WRIGHT ST, KINGSVILLE, OH, 44048",117308964,"L"
760727,"6075 NORTH SEQUOIA AVENUE","FRESNO","CA",93711,36.8236455250001,-119.833070546,227,"6075 NORTH SEQUOIA AVENUE, FRESNO, CA, 93711","Match","Non_Exact","6075 N SEQUOIA DR, FRESNO, CA, 93711",645794044,"L"
760728,"6075 PIONEER DR","CASHMERE","WA",98815,47.516988414,-120.496164624,228,"6075 PIONEER DR, CASHMERE, WA, 98815","Match","Exact","6075 PIONEER DR, CASHMERE, WA, 98815",156970795,"L"
760729,"6075 POPLAR AVE","MEMPHIS","TN",38119,35.102280179,-89.8618237749999,229,"6075 POPLAR AVE, MEMPHIS, TN, 38119","Match","Exact","6075 POPLAR AVE, MEMPHIS, TN, 38119",613868910,"R"
760730,"6075 S BANNOCK STREET","LITTLETON","CO",80120,39.606252183,-104.988974779,230,"6075 S BANNOCK STREET, LITTLETON, CO, 80120","Match","Exact","6075 S BANNOCK ST, LITTLETON, CO, 80120",632630857,"R"
760731,"6075 SECR 2080","CORSICANA","TX",75109,NA,NA,231,"6075 SECR 2080, CORSICANA, TX, 75109","No_Match",NA,NA,NA,NA
760732,"6075 SPRING CANYON ROAD","ODGEN","UT",84403,41.153274378,-111.906080454,232,"6075 SPRING CANYON ROAD, ODGEN, UT, 84403","Match","Non_Exact","6075 SPRING CANYON RD, OGDEN, UT, 84403",605808628,"R"
760733,"6075 SPRING CANYON ROAD","OGDEN","UT",84403,41.153274378,-111.906080454,233,"6075 SPRING CANYON ROAD, OGDEN, UT, 84403","Match","Exact","6075 SPRING CANYON RD, OGDEN, UT, 84403",605808628,"R"
760734,"6075 STATELINE ROAD","SOUTH BELOIT","IL",61080,42.4960295070001,-88.998593221,234,"6075 STATELINE ROAD, SOUTH BELOIT, IL, 61080","Match","Non_Exact","6075 STATE LINE RD, SOUTH BELOIT, IL, 61080",49296098,"R"
760735,"6075 VICKERY POINT","CUMMING","GA",30040,34.191639449,-84.236784638,235,"6075 VICKERY POINT, CUMMING, GA, 30040","Match","Exact","6075 VICKERY PT, CUMMING, GA, 30040",632549526,"L"
760736,"6075 WESTKNOLL","GRAND BLANC","MI",48439,42.938334823,-83.66908088,236,"6075 WESTKNOLL, GRAND BLANC, MI, 48439","Match","Non_Exact","6075 WESTKNOLL DR, GRAND BLANC, MI, 48439",647485775,"L"
760737,"6075 WINCHESSTER","MEMPHIS","TN",38115,35.0497787830001,-89.860555298,237,"6075 WINCHESSTER, MEMPHIS, TN, 38115","Match","Non_Exact","6075 WINCHESTER RD, MEMPHIS, TN, 38115",607468216,"R"
760738,"6075 WINCHESTER","MEMPHIS","TN",38115,35.0497787830001,-89.860555298,238,"6075 WINCHESTER, MEMPHIS, TN, 38115","Match","Non_Exact","6075 WINCHESTER RD, MEMPHIS, TN, 38115",607468216,"R"
760739,"6075 WINGED FOOT DRIVE","GRAND BLANC","MI",48439,42.895436084,-83.590119069,239,"6075 WINGED FOOT DRIVE, GRAND BLANC, MI, 48439","Match","Exact","6075 WINGED FOOT DR, GRAND BLANC, MI, 48439",69581194,"R"
760740,"6075 YORK ROAD","CROZET","VA",22932,38.0720696020001,-78.7117053979999,240,"6075 YORK ROAD, CROZET, VA, 22932","Match","Exact","6075 YORK RD, CROZET, VA, 22932",83364955,"R"
760741,"60751 WOOD ROAD","LA GRANDE","OR",97850,NA,NA,241,"60751 WOOD ROAD, LA GRANDE, OR, 97850","No_Match",NA,NA,NA,NA
760742,"6076 GLENDALE DRIVE","BOCA RATON","FL",33433,26.3367616680001,-80.138688354,242,"6076 GLENDALE DRIVE, BOCA RATON, FL, 33433","Match","Exact","6076 GLENDALE DR, BOCA RATON, FL, 33433",115547041,"L"
760743,"6076 KY HIGHWAY 906","HUSTONVILLE","KY",40437,37.477048252,-84.876467631,243,"6076 KY HIGHWAY 906, HUSTONVILLE, KY, 40437","Match","Non_Exact","6076 STATE HWY 906, HUSTONVILLE, KY, 40437",32501971,"R"
760744,"6076 MAIN STREET","MAYS LANDING","NJ",8330,39.453999164,-74.732380491,244,"6076 MAIN STREET, MAYS LANDING, NJ, 8330","Match","Exact","6076 MAIN ST, MAYS LANDING, NJ, 08330",202510158,"L"
760745,"6076 MEEKS WAY","SACRAMENTO","CA",95835,38.6827224990001,-121.498072804,245,"6076 MEEKS WAY, SACRAMENTO, CA, 95835","Match","Exact","6076 MEEKS WAY, SACRAMENTO, CA, 95835",133444151,"R"
760746,"6076 MUD MILL ROAD","BREWERTON","NY",13029,43.2006658770001,-76.100172427,246,"6076 MUD MILL ROAD, BREWERTON, NY, 13029","Match","Exact","6076 MUD MILL RD, BREWERTON, NY, 13029",46625001,"R"
760747,"6076 OLD WASHINGTON RD","ELKRIDGE","MD",21075,39.2091262000001,-76.7186819999999,247,"6076 OLD WASHINGTON RD, ELKRIDGE, MD, 21075","Match","Exact","6076 OLD WASHINGTON RD, ELKRIDGE, MD, 21075",158961411,"R"
760748,"6076 OXFORD ROAD","SHAKOPEE","MN",55379,44.7806494880001,-93.441305211,248,"6076 OXFORD ROAD, SHAKOPEE, MN, 55379","Match","Non_Exact","6076 OXFORD RD N, SHAKOPEE, MN, 55379",38156485,"R"
760749,"6076 PARFET STREET","ARVADA","CO",80004,39.8070262520001,-105.120943643,249,"6076 PARFET STREET, ARVADA, CO, 80004","Match","Exact","6076 PARFET ST, ARVADA, CO, 80004",177284843,"R"
760750,"6076 PIGEON HILL RD","SPRING GROVE","PA",17362,39.878926382,-76.927174161,250,"6076 PIGEON HILL RD, SPRING GROVE, PA, 17362","Match","Exact","6076 PIGEON HILL RD, SPRING GROVE, PA, 17362",88708842,"L"
760751,"6076 RANSOM ROAD","BIRMINGHAM","AL",35210,33.585993783,-86.624170093,251,"6076 RANSOM ROAD, BIRMINGHAM, AL, 35210","Match","Exact","6076 RANSOM RD, BIRMINGHAM, AL, 35210",81755285,"R"
760752,"6076 ROSELLE MEADOWS TRAIL","SAN DIEGO","CA",92130,32.964376008,-117.189556149,252,"6076 ROSELLE MEADOWS TRAIL, SAN DIEGO, CA, 92130","Match","Exact","6076 ROSELLE MEADOWS TRL, SAN DIEGO, CA, 92130",635494125,"R"
760753,"6076 S BISCAY ST","AURORA","CO",80016,39.605159757,-104.769479149,253,"6076 S BISCAY ST, AURORA, CO, 80016","Match","Exact","6076 S BISCAY ST, AURORA, CO, 80016",177524395,"L"
760754,"6076 SIERRA GRANDE PT","COLORADO SPRINGS","CO",80923,38.925018317,-104.714192999,254,"6076 SIERRA GRANDE PT, COLORADO SPRINGS, CO, 80923","Match","Exact","6076 SIERRA GRANDE PT, COLORADO SPRINGS, CO, 80923",610698568,"R"
760755,"6076 ST RT 45","BRISTOLVILLE","OH",44402,41.3824757350001,-80.868867353,255,"6076 ST RT 45, BRISTOLVILLE, OH, 44402","Match","Non_Exact","6076 STATE RTE 45, BRISTOLVILLE, OH, 44402",117423118,"L"
760756,"6076 STATE ST","PELLSTON","MI",49769,45.5545558060001,-84.790462463,256,"6076 STATE ST, PELLSTON, MI, 49769","Match","Exact","6076 STATE ST, PELLSTON, MI, 49769",133980928,"L"
760757,"6076 STRAWBERRY FIELDS WAY","LAKE WORTH","FL",33463,26.588871324,-80.138897932,257,"6076 STRAWBERRY FIELDS WAY, LAKE WORTH, FL, 33463","Match","Exact","6076 STRAWBERRY FIELDS WAY, LAKE WORTH, FL, 33463",115577993,"R"
760758,"6076 WILDWOOD LAKE CIRCLE","RHINELANDER","WI",54501,45.685615968,-89.467823491,258,"6076 WILDWOOD LAKE CIRCLE, RHINELANDER, WI, 54501","Match","Exact","6076 WILDWOOD LAKE CIR, RHINELANDER, WI, 54501",196589338,"L"
760759,"60760 LATHAM TRL","JOSHUA TREE","CA",92252,34.118389646,-116.338621229,259,"60760 LATHAM TRL, JOSHUA TREE, CA, 92252","Match","Exact","60760 LATHAM TRL, JOSHUA TREE, CA, 92252",144631799,"R"
760760,"6077 AIMSLEY CT APT 1010","FORT WORTH","TX",76137,32.8531201650001,-97.304739823,260,"6077 AIMSLEY CT APT 1010, FORT WORTH, TX, 76137","Match","Exact","6077 AIMSLEY CT, FORT WORTH, TX, 76137",619892059,"L"
760761,"6077 COFFEEN AVENUE","SHERIDAN","WY",82801,NA,NA,261,"6077 COFFEEN AVENUE, SHERIDAN, WY, 82801","No_Match",NA,NA,NA,NA
760762,"6077 FAR HILLS AVE 222","CENTERVILLE","OH",45459,NA,NA,262,"6077 FAR HILLS AVE 222, CENTERVILLE, OH, 45459","No_Match",NA,NA,NA,NA
760763,"6077 MAGNOLIA DR","NEDERLAND","IL",80466,NA,NA,263,"6077 MAGNOLIA DR, NEDERLAND, IL, 80466","No_Match",NA,NA,NA,NA
760764,"6077 OWLAND DRIVE","CICERO","NY",13039,NA,NA,264,"6077 OWLAND DRIVE, CICERO, NY, 13039","No_Match",NA,NA,NA,NA
760765,"6077 PINE VALLEY LN","FAIRVIEW","PA",16415,42.0406942280001,-80.1711584769999,265,"6077 PINE VALLEY LN, FAIRVIEW, PA, 16415","Match","Exact","6077 PINE VALLEY LN, FAIRVIEW, PA, 16415",617261643,"R"
760766,"6077 SOUTH FM 113","MILLSAP","TX",76066,32.693904628,-98.010287252,266,"6077 SOUTH FM 113, MILLSAP, TX, 76066","Match","Exact","6077 S FM 113, MILLSAP, TX, 76066",635377926,"R"
760767,"6077 STAG PARK ROAD","BURGAW","NC",28425,NA,NA,267,"6077 STAG PARK ROAD, BURGAW, NC, 28425","No_Match",NA,NA,NA,NA
760768,"6077 TOWNES WAY","COLUMBUS","GA",31909,NA,NA,268,"6077 TOWNES WAY, COLUMBUS, GA, 31909","No_Match",NA,NA,NA,NA
760769,"6077 W MONTEBELLO WAY","FLORENCE","AZ",85132,NA,NA,269,"6077 W MONTEBELLO WAY, FLORENCE, AZ, 85132","Tie",NA,NA,NA,NA
760770,"6077 W PICO BLVD","WEST LOS ANGELES","CA",90035,34.0527519840001,-118.373104546,270,"6077 W PICO BLVD, WEST LOS ANGELES, CA, 90035","Match","Non_Exact","6077 W PICO BLVD, LOS ANGELES, CA, 90035",141598876,"R"
760771,"6077 WILDWOOD DRIVE","ELWELL","MI",48832,43.3803755340001,-84.729768961,271,"6077 WILDWOOD DRIVE, ELWELL, MI, 48832","Match","Exact","6077 WILDWOOD DR, ELWELL, MI, 48832",80170535,"L"
760772,"60770 SOUTHGATE ROAD","BYESVILLE","OH",43723,39.9824220730001,-81.567580902,272,"60770 SOUTHGATE ROAD, BYESVILLE, OH, 43723","Match","Exact","60770 SOUTHGATE RD, BYESVILLE, OH, 43723",37642903,"R"
760773,"6078 BOONE DRIVE","CASTRO VALLEY","CA",94552,NA,NA,273,"6078 BOONE DRIVE, CASTRO VALLEY, CA, 94552","No_Match",NA,NA,NA,NA
760774,"6078 BURNSIDE LANDING DR","BURKE","VA",22015,38.7848110670001,-77.3045923079999,274,"6078 BURNSIDE LANDING DR, BURKE, VA, 22015","Match","Exact","6078 BURNSIDE LANDING DR, BURKE, VA, 22015",76056144,"R"
760775,"6078 CHETWIND DR","CICERO","NY",13039,43.147781717,-76.099498678,275,"6078 CHETWIND DR, CICERO, NY, 13039","Match","Exact","6078 CHETWIND DR, CICERO, NY, 13039",46567985,"L"
760776,"6078 CONNELY DRIVE","FRISCO","TX",75034,33.1295627910001,-96.816381076,276,"6078 CONNELY DRIVE, FRISCO, TX, 75034","Match","Exact","6078 CONNELY DR, FRISCO, TX, 75034",210483934,"L"
760777,"6078 FOUNTAIN POINTE APT 6","GRAND BLANC","MI",48439,42.943420787,-83.605934987,277,"6078 FOUNTAIN POINTE APT 6, GRAND BLANC, MI, 48439","Match","Exact","6078 FOUNTAIN POINTE, GRAND BLANC, MI, 48439",648293891,"L"
760778,"6078 JACK RABBIT RD NE","RIO RANCHO","NM",87144,35.2739529200001,-106.6103623,278,"6078 JACK RABBIT RD NE, RIO RANCHO, NM, 87144","Match","Exact","6078 JACK RABBIT RD NE, RIO RANCHO, NM, 87144",194010110,"L"
760779,"6078 LAUREL STREET","NEW ORLEANS","LA",70118,29.9195327690001,-90.123270506,279,"6078 LAUREL STREET, NEW ORLEANS, LA, 70118","Match","Exact","6078 LAUREL ST, NEW ORLEANS, LA, 70118",191702493,"L"
760780,"6078 MCABEE RD","SAN JOSE","CA",95120,37.2335178710001,-121.875952817,280,"6078 MCABEE RD, SAN JOSE, CA, 95120","Match","Exact","6078 MCABEE RD, SAN JOSE, CA, 95120",122991237,"L"
760781,"6078 PINEDALE COURT","HARRISBURG","PA",17111,40.2646932530001,-76.782830362,281,"6078 PINEDALE COURT, HARRISBURG, PA, 17111","Match","Exact","6078 PINEDALE CT, HARRISBURG, PA, 17111",624042102,"R"
760782,"6078 ROTONDO PLACE","NORCROSS","GA",30093,33.878302293,-84.183580283,282,"6078 ROTONDO PLACE, NORCROSS, GA, 30093","Match","Exact","6078 ROTONDO PL, NORCROSS, GA, 30093",88885067,"L"
760783,"6078 SHORE DR","MADISON","OH",44057,41.82899502,-81.071615472,283,"6078 SHORE DR, MADISON, OH, 44057","Match","Exact","6078 SHORE DR, MADISON, OH, 44057",137471768,"R"
760784,"6078 WESTERHAM","MAYFIELD","OH",44124,41.5116817160001,-81.460452822,284,"6078 WESTERHAM, MAYFIELD, OH, 44124","Match","Non_Exact","6078 WESTERHAM RD, MAYFIELD HEIGHTS, OH, 44124",61134503,"R"
760785,"60781 US-131 SOUTH","THREE RIVERS","MI",49093,NA,NA,285,"60781 US-131 SOUTH, THREE RIVERS, MI, 49093","No_Match",NA,NA,NA,NA
760786,"6079 126TH AVE","FENNVILLE","MI",49408,42.6083482780001,-86.1439282379999,286,"6079 126TH AVE, FENNVILLE, MI, 49408","Match","Exact","6079 126TH AVE, FENNVILLE, MI, 49408",11424545,"L"
760787,"6079 CASTLE COAKLEY","CHRISTIANSTED","VI",820,NA,NA,287,"6079 CASTLE COAKLEY, CHRISTIANSTED, VI, 820","No_Match",NA,NA,NA,NA
760788,"6079 COLONY CIRCLE","COLORADO SPRINGS","CO",80919,38.9193652000001,-104.824008037,288,"6079 COLONY CIRCLE, COLORADO SPRINGS, CO, 80919","Match","Exact","6079 COLONY CIR, COLORADO SPRINGS, CO, 80919",635613567,"R"
760789,"6079 CORK COUNTY DRIVE","GALLOWAY","OH",43119,39.93763305,-83.157050756,289,"6079 CORK COUNTY DRIVE, GALLOWAY, OH, 43119","Match","Exact","6079 CORK COUNTY DR, GALLOWAY, OH, 43119",218677292,"L"
760790,"6079 COUNTRY APPLE COURT","WEST VALLEY CITY","UT",84128,40.6939252440001,-112.035744179,290,"6079 COUNTRY APPLE COURT, WEST VALLEY CITY, UT, 84128","Match","Non_Exact","6079 W COUNTRY APPLE CT, WEST VALLEY CITY, UT, 84128",649148674,"L"
760791,"6079 CTY J","OCONTO","WI",54153,NA,NA,291,"6079 CTY J, OCONTO, WI, 54153","No_Match",NA,NA,NA,NA
760792,"6079 DADO DR","NOBLESVILLE","IN",46062,40.060507177,-86.066288516,292,"6079 DADO DR, NOBLESVILLE, IN, 46062","Match","Exact","6079 DADO DR, NOBLESVILLE, IN, 46062",29331772,"R"
760793,"6079 DANBURY COURT","MORROW","GA",30260,33.588897224,-84.3138041509999,293,"6079 DANBURY COURT, MORROW, GA, 30260","Match","Exact","6079 DANBURY CT, MORROW, GA, 30260",23315725,"R"
760794,"6079 ERINBLAIR LOOP","HAYMARKET","VA",20169,38.8273188150001,-77.621539216,294,"6079 ERINBLAIR LOOP, HAYMARKET, VA, 20169","Match","Exact","6079 ERINBLAIR LOOP, HAYMARKET, VA, 20169",207160698,"L"
760795,"6079 HOLIDAY LANE","DUBLIN","OH",43016,40.0926970950001,-83.1818956389999,295,"6079 HOLIDAY LANE, DUBLIN, OH, 43016","Match","Exact","6079 HOLIDAY LN, DUBLIN, OH, 43016",218661484,"L"
760796,"6079 KINGSLEY LAKE DRIVE","STARKE","FL",32091,NA,NA,296,"6079 KINGSLEY LAKE DRIVE, STARKE, FL, 32091","No_Match",NA,NA,NA,NA
760797,"6079 LEWIS","SAN LUIS OBISPO","CA",93401,35.2104289920001,-120.624148226,297,"6079 LEWIS, SAN LUIS OBISPO, CA, 93401","Match","Non_Exact","6079 LEWIS LN, SAN LUIS OBISPO, CA, 93401",109821555,"R"
760798,"6079 MAPLE STREET","VANDALIA","MI",49095,41.9163073010001,-85.9082228939999,298,"6079 MAPLE STREET, VANDALIA, MI, 49095","Match","Exact","6079 MAPLE ST, VANDALIA, MI, 49095",22569253,"R"
760799,"6079 MCGUIRE ROAD","FENTON","MI",48430,42.69418525,-83.800534188,299,"6079 MCGUIRE ROAD, FENTON, MI, 48430","Match","Non_Exact","6079 MC GUIRE RD, FENTON, MI, 48430",23541113,"L"
760800,"6079 TAYLOR ROAD","GAHANNA","OH",43230,40.002099883,-82.837850306,300,"6079 TAYLOR ROAD, GAHANNA, OH, 43230","Match","Exact","6079 TAYLOR RD, GAHANNA, OH, 43230",622975373,"R"
760801,"6079 W MEQUON ROAD 105","MEQUON","WI",53092,43.2214697160001,-87.9846012249999,301,"6079 W MEQUON ROAD 105, MEQUON, WI, 53092","Match","Non_Exact","6079 W MEQUON RD, MEQUON, WI, 53092",612753677,"L"
760802,"6079 WILLOW WOOD LN","DALLAS","TX",75252,33.0110667320001,-96.802101739,302,"6079 WILLOW WOOD LN, DALLAS, TX, 75252","Match","Exact","6079 WILLOW WOOD LN, DALLAS, TX, 75252",123534615,"R"
760803,"60793 DEXTER LANE","MARBLEMOUNT","WA",98267,48.574458113,-121.418198488,303,"60793 DEXTER LANE, MARBLEMOUNT, WA, 98267","Match","Exact","60793 DEXTER LN, MARBLEMOUNT, WA, 98267",637465971,"R"
760804,"607A 18TH AVE","NEWARK","NJ",7103,40.7334719030001,-74.2114576669999,304,"607A 18TH AVE, NEWARK, NJ, 7103","Match","Exact","607 18TH AVE, NEWARK, NJ, 07103",63465473,"L"
760805,"607A 18TH AVENUE","NEWARK","NJ",7103,40.7334719030001,-74.2114576669999,305,"607A 18TH AVENUE, NEWARK, NJ, 7103","Match","Exact","607 18TH AVE, NEWARK, NJ, 07103",63465473,"L"
760806,"607A NW 85TH ST","SEATTLE","WA",98117,47.6906335800001,-122.363601341,306,"607A NW 85TH ST, SEATTLE, WA, 98117","Match","Exact","607 NW 85TH ST, SEATTLE, WA, 98117",186578897,"L"
760807,"607A YORKTOWN PLACE","STATESBORO","GA",30461,32.4604926850001,-81.74370321,307,"607A YORKTOWN PLACE, STATESBORO, GA, 30461","Match","Exact","607 YORKTOWN PL, STATESBORO, GA, 30461",6128426,"L"
760808,"607B YORKTOWN PLACE","STATESBORO","GA",30461,32.4604926850001,-81.74370321,308,"607B YORKTOWN PLACE, STATESBORO, GA, 30461","Match","Exact","607 YORKTOWN PL, STATESBORO, GA, 30461",6128426,"L"
760809,"608  10TH ST","LEAVENWORTH","KS",66048,NA,NA,309,"608  10TH ST, LEAVENWORTH, KS, 66048","Tie",NA,NA,NA,NA
760810,"608 1/2 NORTH SPRINGER STREET","CARBONDALE","IL",62901,37.7327181910001,-89.225361812,310,"608 1/2 NORTH SPRINGER STREET, CARBONDALE, IL, 62901","Match","Exact","608 N SPRINGER ST, CARBONDALE, IL, 62901",95067958,"L"
760811,"608 10TH STREET","Sacramento","CA",95814,38.5846045600001,-121.491608473,311,"608 10TH STREET, Sacramento, CA, 95814","Match","Exact","608 10TH ST, SACRAMENTO, CA, 95814",133421548,"R"
760812,"608 12TH AVENUE SO","ST PETERSBURG","FL",33701,27.7585306400001,-82.6408991819999,312,"608 12TH AVENUE SO, ST PETERSBURG, FL, 33701","Match","Exact","608 12TH AVE S, SAINT PETERSBURG, FL, 33701",124708481,"L"
760813,"608 13TH ST","MODESTO","CA",95354,37.6389469860001,-120.993002027,313,"608 13TH ST, MODESTO, CA, 95354","Match","Exact","608 13TH ST, MODESTO, CA, 95354",102604910,"R"
760814,"608 14TH ST","RAWLINS","WY",82301,41.790066128,-107.251883815,314,"608 14TH ST, RAWLINS, WY, 82301","Match","Exact","608 14TH ST, RAWLINS, WY, 82301",148729037,"L"
760815,"608 15TH STREET","MOSINEE","WI",54455,44.7974772580001,-89.719611399,315,"608 15TH STREET, MOSINEE, WI, 54455","Match","Exact","608 15TH ST, MOSINEE, WI, 54455",117128457,"R"
760816,"608 19TH ST NW","RUSKIN","FL",33570,27.723972867,-82.4594440979999,316,"608 19TH ST NW, RUSKIN, FL, 33570","Match","Exact","608 19TH ST NW, RUSKIN, FL, 33570",628032340,"L"
760817,"608 19TH STREET SE","ROCHESTER","MN",55904,43.993327637,-92.4537332039999,317,"608 19TH STREET SE, ROCHESTER, MN, 55904","Match","Exact","608 19TH ST SE, ROCHESTER, MN, 55904",30554173,"R"
760818,"608 19TH STREET","HUNTINGTON BEACH","CA",92648,33.6703744180001,-118.009557413,318,"608 19TH STREET, HUNTINGTON BEACH, CA, 92648","Match","Exact","608 19TH ST, HUNTINGTON BEACH, CA, 92648",144019483,"R"
760819,"608 24TH ST W","HUNTINGTON","WV",25704,38.4069308790001,-82.494065999,319,"608 24TH ST W, HUNTINGTON, WV, 25704","Match","Exact","608 24TH ST W, HUNTINGTON, WV, 25704",101333750,"R"
760820,"608 29TH RD SOUTH","ARLINGTON","VA",22202,38.846338055,-77.055669418,320,"608 29TH RD SOUTH, ARLINGTON, VA, 22202","Match","Exact","608 29TH RD S, ARLINGTON, VA, 22202",76473219,"L"
760821,"608 2ND AVE NW","BARNESVILLE","MN",56514,46.6542988250001,-96.428731764,321,"608 2ND AVE NW, BARNESVILLE, MN, 56514","Match","Exact","608 2ND AVE NW, BARNESVILLE, MN, 56514",637409798,"L"
760822,"608 2ND ST S","BUFFALO","MN",55313,45.169231725,-93.866999447,322,"608 2ND ST S, BUFFALO, MN, 55313","Match","Exact","608 2ND ST S, BUFFALO, MN, 55313",636275008,"L"
760823,"608 2ND ST","BAGLEY","IA",50026,41.844036074,-94.428226248,323,"608 2ND ST, BAGLEY, IA, 50026","Match","Non_Exact","608 2ND AVE, BAGLEY, IA, 50026",68671108,"L"
760824,"608 2ND STREET SW","BIRMINGHAM","AL",35211,33.5036267770001,-86.838057777,324,"608 2ND STREET SW, BIRMINGHAM, AL, 35211","Match","Exact","608 2ND ST SW, BIRMINGHAM, AL, 35211",81720287,"R"
760825,"608 2ND STREET","JACKSON","MN",56143,43.6224235660001,-94.987674909,325,"608 2ND STREET, JACKSON, MN, 56143","Match","Exact","608 2ND ST, JACKSON, MN, 56143",9935437,"R"
760826,"608 2ND STREET","SPENCER","NC",28159,35.6941620920001,-80.433430433,326,"608 2ND STREET, SPENCER, NC, 28159","Match","Exact","608 2ND ST, SPENCER, NC, 28159",25270090,"R"
760827,"608 35TH ST NW","BEMIDJI","MN",56601,47.502038869,-94.886727287,327,"608 35TH ST NW, BEMIDJI, MN, 56601","Match","Non_Exact","608 35TH ST, BEMIDJI, MN, 56601",176427391,"L"
760828,"608 3RD AVENUE S","JASPER","AL",35501,33.84579433,-87.2769729189999,328,"608 3RD AVENUE S, JASPER, AL, 35501","Match","Exact","608 3RD AVE S, JASPER, AL, 35501",120584737,"L"
760829,"608 3RD ST E","HALSTAD","MN",56548,47.3517118570001,-96.8164150539999,329,"608 3RD ST E, HALSTAD, MN, 56548","Match","Exact","608 3RD ST E, HALSTAD, MN, 56548",168251155,"L"
760830,"608 46TH AVE DR NE","HICKORY","NC",28601,35.794187579,-81.30430689,330,"608 46TH AVE DR NE, HICKORY, NC, 28601","Match","Exact","608 46TH AVENUE DR NE, HICKORY, NC, 28601",45925555,"L"
760831,"608 46TH AVE NE","HICKORY","NC",28601,35.794187579,-81.30430689,331,"608 46TH AVE NE, HICKORY, NC, 28601","Match","Non_Exact","608 46TH AVENUE DR NE, HICKORY, NC, 28601",45925555,"L"
760832,"608 57TH PLACE NE","WASHINGTON","DC",20019,38.897330234,-76.919155159,332,"608 57TH PLACE NE, WASHINGTON, DC, 20019","Match","Non_Exact","608 57TH ST NE, WASHINGTON, DC, 20019",76234108,"L"
760833,"608 57TH STREET NE","ATLANTA","DC",30010,NA,NA,333,"608 57TH STREET NE, ATLANTA, DC, 30010","No_Match",NA,NA,NA,NA
760834,"608 7TH AVE S","SAINT CLOUD","MN",56301,45.553565921,-94.157410154,334,"608 7TH AVE S, SAINT CLOUD, MN, 56301","Match","Exact","608 7TH AVE S, SAINT CLOUD, MN, 56301",107415450,"L"
760835,"608 7TH AVE SE","AUSTIN","MN",55912,43.660284173,-92.968490714,335,"608 7TH AVE SE, AUSTIN, MN, 55912","Match","Exact","608 7TH AVE SE, AUSTIN, MN, 55912",27623023,"L"
760836,"608 7TH STREET NE","LONG PRAIRIE","MN",56347,45.9816990400001,-94.854076086,336,"608 7TH STREET NE, LONG PRAIRIE, MN, 56347","Match","Exact","608 7TH ST NE, LONG PRAIRIE, MN, 56347",201429294,"R"
760837,"608 8TH AVE","ASBURY PARK","NJ",7712,40.2295963080001,-74.005835162,337,"608 8TH AVE, ASBURY PARK, NJ, 7712","Match","Exact","608 8TH AVE, ASBURY PARK, NJ, 07712",90464777,"L"
760838,"608 ACORN TRAIL","HORTON","MI",49246,42.089489461,-84.4871955999999,338,"608 ACORN TRAIL, HORTON, MI, 49246","Match","Exact","608 ACORN TRL, HORTON, MI, 49246",17631089,"L"
760839,"608 ADAMS STREET","FORT ATKINSON","WI",53538,42.9354456200001,-88.8405828699999,339,"608 ADAMS STREET, FORT ATKINSON, WI, 53538","Match","Exact","608 ADAMS ST, FORT ATKINSON, WI, 53538",53216152,"R"
760840,"608 APPLEWOOD DRIVE","YANKTON","SD",57078,42.9031260020001,-97.382874713,340,"608 APPLEWOOD DRIVE, YANKTON, SD, 57078","Match","Exact","608 APPLEWOOD DR, YANKTON, SD, 57078",646687597,"L"
760841,"608 ARLIN RD","MONROE","NY",10950,41.32847675,-74.206779238,341,"608 ARLIN RD, MONROE, NY, 10950","Match","Exact","608 ARLIN RD, MONROE, NY, 10950",124469988,"R"
760842,"608 ATLANTIC ST","BETHLEHEM","PA",18015,40.6083220520001,-75.3672486099999,342,"608 ATLANTIC ST, BETHLEHEM, PA, 18015","Match","Exact","608 ATLANTIC ST, BETHLEHEM, PA, 18015",136885352,"R"
760843,"608 AUDUBON WAY","DALTON","GA",30720,34.764110687,-84.985877041,343,"608 AUDUBON WAY, DALTON, GA, 30720","Match","Exact","608 AUDUBON WAY, DALTON, GA, 30720",57366137,"L"
760844,"608 AUTHUR ST","LAFAYETTE","LA",70501,NA,NA,344,"608 AUTHUR ST, LAFAYETTE, LA, 70501","No_Match",NA,NA,NA,NA
760845,"608 AUTUMN OAKS DRIVE","ST PETERS","MO",63376,38.753121422,-90.585962137,345,"608 AUTUMN OAKS DRIVE, ST PETERS, MO, 63376","Match","Exact","608 AUTUMN OAKS DR, SAINT PETERS, MO, 63376",100049456,"R"
760846,"608 AVENUE A","OPELIKA","AL",36801,32.6490735630001,-85.3761805089999,346,"608 AVENUE A, OPELIKA, AL, 36801","Match","Exact","608 AVE A, OPELIKA, AL, 36801",1571776,"R"
760847,"608 BALDWIN AVE","NORFOLK","VA",23517,36.865727957,-76.294814397,347,"608 BALDWIN AVE, NORFOLK, VA, 23517","Match","Exact","608 BALDWIN AVE, NORFOLK, VA, 23517",122122806,"R"
760848,"608 BALSAM ST","GRANTS","NM",87020,35.1516814840001,-107.827741692,348,"608 BALSAM ST, GRANTS, NM, 87020","Match","Exact","608 BALSAM ST, GRANTS, NM, 87020",179222692,"R"
760849,"608 BARTON AVE SE UNIT 2","MINNEAPOLIS","MN",55414,NA,NA,349,"608 BARTON AVE SE UNIT 2, MINNEAPOLIS, MN, 55414","No_Match",NA,NA,NA,NA
760850,"608 BEACON ST","NEWTON CENTER","MA",2459,42.3316396800001,-71.18481528,350,"608 BEACON ST, NEWTON CENTER, MA, 2459","Match","Exact","608 BEACON ST, NEWTON CENTRE, MA, 02459",86866707,"L"
760851,"608 BEATTIE STREET","SYRACUSE","NY",13224,43.0464188920001,-76.108039812,351,"608 BEATTIE STREET, SYRACUSE, NY, 13224","Match","Exact","608 BEATTIE ST, SYRACUSE, NY, 13224",46574072,"R"
760852,"608 BELLE VISTA DRIVE","ENOLA","PA",17025,40.312049276,-76.9400488909999,352,"608 BELLE VISTA DRIVE, ENOLA, PA, 17025","Match","Exact","608 BELLE VISTA DR, ENOLA, PA, 17025",653373743,"R"
760853,"608 BELLEVUE AVENUE","DUBLIN","GA",31021,32.5379056990001,-82.913087424,353,"608 BELLEVUE AVENUE, DUBLIN, GA, 31021","Match","Exact","608 BELLEVUE AVE, DUBLIN, GA, 31021",100652504,"R"
760854,"608 BENJAMIN COURT","LAPLACE","LA",70068,30.0761993450001,-90.48040113,354,"608 BENJAMIN COURT, LAPLACE, LA, 70068","Match","Non_Exact","608 BENJAMIN CT, LA PLACE, LA, 70068",93694332,"R"
760855,"608 BERWYN DR","LOUISVILLE","KY",40223,38.254986129,-85.564946989,355,"608 BERWYN DR, LOUISVILLE, KY, 40223","Match","Exact","608 BERWYN DR, LOUISVILLE, KY, 40223",96882981,"R"
760856,"608 BEVERLY BLVD","UPPER DARBY","PA",19082,39.9581248920001,-75.2793125919999,356,"608 BEVERLY BLVD, UPPER DARBY, PA, 19082","Match","Exact","608 BEVERLY BLVD, UPPER DARBY, PA, 19082",134877283,"L"
760857,"608 BIRCH ST","RICEILLE","IA",50466,43.3591879210001,-92.551063458,357,"608 BIRCH ST, RICEILLE, IA, 50466","Match","Non_Exact","608 BIRCH ST, RICEVILLE, IA, 50466",27401065,"R"
760858,"608 BIRCH ST","RICEVILLE","IA",50466,43.3591879210001,-92.551063458,358,"608 BIRCH ST, RICEVILLE, IA, 50466","Match","Exact","608 BIRCH ST, RICEVILLE, IA, 50466",27401065,"R"
760859,"608 BIRCH STREET","RICEVILLE","IA",50466,43.3591879210001,-92.551063458,359,"608 BIRCH STREET, RICEVILLE, IA, 50466","Match","Exact","608 BIRCH ST, RICEVILLE, IA, 50466",27401065,"R"
760860,"608 BOB-O-LINK","MT PROSPECT","IL",60056,42.0858988310001,-87.945178808,360,"608 BOB-O-LINK, MT PROSPECT, IL, 60056","Match","Non_Exact","608 BOB O LINK RD, MOUNT PROSPECT, IL, 60056",111719587,"R"
760861,"608 BOHANNON BLVD","ORLANDO","FL",32824,28.397309911,-81.389769507,361,"608 BOHANNON BLVD, ORLANDO, FL, 32824","Match","Exact","608 BOHANNON BLVD, ORLANDO, FL, 32824",94389169,"R"
760862,"608 BOSQUE VERDE LANE NW","ALBUQUERQUE","NM",87104,35.0997256260001,-106.682654501,362,"608 BOSQUE VERDE LANE NW, ALBUQUERQUE, NM, 87104","Match","Exact","608 BOSQUE VERDE LN NW, ALBUQUERQUE, NM, 87104",634581946,"L"
760863,"608 BOSQUE VERDE LN NW","ALBUQUERQUE","NM",87104,35.0997256260001,-106.682654501,363,"608 BOSQUE VERDE LN NW, ALBUQUERQUE, NM, 87104","Match","Exact","608 BOSQUE VERDE LN NW, ALBUQUERQUE, NM, 87104",634581946,"L"
760864,"608 BRAEBURN AVENUE","PENN VALLEY","PA",19072,40.012885763,-75.262262618,364,"608 BRAEBURN AVENUE, PENN VALLEY, PA, 19072","Match","Non_Exact","608 BRAEBURN LN, PENN VALLEY, PA, 19072",135090597,"L"
760865,"608 BREVARD AVE APT B","COCOA","FL",32922,28.352168432,-80.726211287,365,"608 BREVARD AVE APT B, COCOA, FL, 32922","Match","Exact","608 BREVARD AVE, COCOA, FL, 32922",93894389,"L"
760866,"608 BRIAR STREET","SHERWOOD","AR",72120,34.838187943,-92.19888446,366,"608 BRIAR STREET, SHERWOOD, AR, 72120","Match","Exact","608 BRIAR ST, SHERWOOD, AR, 72120",83530426,"L"
760867,"608 BRIGGS LANE","PANAMA CITY","FL",32409,NA,NA,367,"608 BRIGGS LANE, PANAMA CITY, FL, 32409","No_Match",NA,NA,NA,NA
760868,"608 BRITTON LANE","MONROE","OH",45050,39.4541267660001,-84.365619422,368,"608 BRITTON LANE, MONROE, OH, 45050","Match","Exact","608 BRITTON LN, MONROE, OH, 45050",113820857,"R"
760869,"608 BRUNS DRIVE","ROSSFORD","OH",43460,41.5969488280001,-83.5551952279999,369,"608 BRUNS DRIVE, ROSSFORD, OH, 43460","Match","Exact","608 BRUNS DR, ROSSFORD, OH, 43460",38729882,"L"
760870,"608 BUSINESS HIGHWAY 95","WINCHESTER","ID",83555,NA,NA,370,"608 BUSINESS HIGHWAY 95, WINCHESTER, ID, 83555","No_Match",NA,NA,NA,NA
760871,"608 C HWY 80 EAST","CLINTON","MS",39056,32.3335734980001,-90.316556244,371,"608 C HWY 80 EAST, CLINTON, MS, 39056","Match","Non_Exact","608 HWY 80 W, CLINTON, MS, 39056",65362706,"L"
760872,"608 CALLI COURT","IRVING","TX",75060,32.808805873,-96.991199987,372,"608 CALLI COURT, IRVING, TX, 75060","Match","Exact","608 CALLI CT, IRVING, TX, 75060",617054875,"L"
760873,"608 CANARY CIRCLE","BLUEFIELD","VA",24605,37.2277652940001,-81.283846979,373,"608 CANARY CIRCLE, BLUEFIELD, VA, 24605","Match","Exact","608 CANARY CIR, BLUEFIELD, VA, 24605",47294133,"L"
760874,"608 CANDELILA DRIVE","DESOTO","TX",NA,32.570505811,-96.845665697,374,"608 CANDELILA DRIVE, DESOTO, TX, ","Match","Exact","608 CANDELILA DR, DESOTO, TX, 75115",624291587,"L"
760875,"608 CANDLE GLOW DRIVE","NEW IBERIA","LA",70563,29.9985575060001,-91.754305887,375,"608 CANDLE GLOW DRIVE, NEW IBERIA, LA, 70563","Match","Non_Exact","608 CANDLEGLOW DR, NEW IBERIA, LA, 70563",653313107,"R"
760876,"608 CANNON RD","SILVER SPRING","MD",20904,39.0700187940001,-76.998964706,376,"608 CANNON RD, SILVER SPRING, MD, 20904","Match","Exact","608 CANNON RD, SILVER SPRING, MD, 20904",62072551,"L"
760877,"608 CASE STREET - 47","WRANGELL","AK",99929,56.4675807770001,-132.377753388,377,"608 CASE STREET - 47, WRANGELL, AK, 99929","Match","Non_Exact","608 CASE AVE, WRANGELL, AK, 99929",207084264,"L"
760878,"608 CASTLE DR","JEFFERSON CITY","MO",65109,38.6009884960001,-92.209885291,378,"608 CASTLE DR, JEFFERSON CITY, MO, 65109","Match","Exact","608 CASTLE DR, JEFFERSON CITY, MO, 65109",34409465,"R"
760879,"608 CEDAR AVE","MOBILE","AL",36603,30.703653311,-88.066344935,379,"608 CEDAR AVE, MOBILE, AL, 36603","Match","Exact","608 CEDAR AVE, MOBILE, AL, 36603",61860997,"R"
760880,"608 CHAPEL CT","ANKENY","IA",50021,NA,NA,380,"608 CHAPEL CT, ANKENY, IA, 50021","No_Match",NA,NA,NA,NA
760881,"608 CHESTNUT ST APT C","EDDYVILLE","KY",42038,NA,NA,381,"608 CHESTNUT ST APT C, EDDYVILLE, KY, 42038","No_Match",NA,NA,NA,NA
760882,"608 CHESTNUT ST","BLUE RAPIDS","KS",66411,39.681532614,-96.656127264,382,"608 CHESTNUT ST, BLUE RAPIDS, KS, 66411","Match","Exact","608 CHESTNUT ST, BLUE RAPIDS, KS, 66411",28426294,"R"
760883,"608 CLAYDIGGER RUN","SHEFFIELD","IA",50475,42.887759449,-93.229094167,383,"608 CLAYDIGGER RUN, SHEFFIELD, IA, 50475","Match","Exact","608 CLAYDIGGER RUN, SHEFFIELD, IA, 50475",613238289,"L"
760884,"608 COLLEGE ST","VANCEBORO","NC",28586,35.301486208,-77.151425554,384,"608 COLLEGE ST, VANCEBORO, NC, 28586","Match","Exact","608 COLLEGE ST, VANCEBORO, NC, 28586",34107104,"L"
760885,"608 COLLEGE STREET","MADISONVILLE","TN",37354,35.5267428970001,-84.363635713,385,"608 COLLEGE STREET, MADISONVILLE, TN, 37354","Match","Exact","608 COLLEGE ST, MADISONVILLE, TN, 37354",85299931,"L"
760886,"608 COLUMBIA HWY","GREENSBURG","KY",42743,37.239703902,-85.4990386489999,386,"608 COLUMBIA HWY, GREENSBURG, KY, 42743","Match","Exact","608 COLUMBIA HWY, GREENSBURG, KY, 42743",639668639,"R"
760887,"608 COLUMBUS","PELLA","IA",50219,41.4094120880001,-92.914958193,387,"608 COLUMBUS, PELLA, IA, 50219","Match","Non_Exact","608 COLUMBUS ST, PELLA, IA, 50219",89472556,"R"
760888,"608 CORNELL DRIVE","PFLUGERVILLE","TX",78660,30.435814158,-97.629246183,388,"608 CORNELL DRIVE, PFLUGERVILLE, TX, 78660","Match","Exact","608 CORNELL DR, PFLUGERVILLE, TX, 78660",63988585,"L"
760889,"608 CORONATION GDNS","SOUTH BEND","IN",46637,41.7246888170001,-86.222278331,389,"608 CORONATION GDNS, SOUTH BEND, IN, 46637","Match","Exact","608 CORONATION GDNS, SOUTH BEND, IN, 46637",645494655,"L"
760890,"608 COTTAGE ST","STURGIS","MI",49091,41.7933756480001,-85.410576431,390,"608 COTTAGE ST, STURGIS, MI, 49091","Match","Exact","608 COTTAGE ST, STURGIS, MI, 49091",15318707,"R"
760891,"608 COUNTRY LANE","EWING","NJ",8628,40.24972833,-74.832891172,391,"608 COUNTRY LANE, EWING, NJ, 8628","Match","Exact","608 COUNTRY LN, EWING, NJ, 08628",60221874,"R"
760892,"608 CR 2191","CLEVELAND","TX",77327,30.376424963,-94.958968479,392,"608 CR 2191, CLEVELAND, TX, 77327","Match","Exact","608 CO RD 2191, CLEVELAND, TX, 77327",24105212,"L"
760893,"608 CRAB APPLE LANE","NEW WINDSOR","NY",12553,41.4747897840001,-74.046504548,393,"608 CRAB APPLE LANE, NEW WINDSOR, NY, 12553","Match","Exact","608 CRAB APPLE LN, NEW WINDSOR, NY, 12553",124432888,"L"
760894,"608 CRANFORD COURT","FAYETTEVILLE","NC",28303,35.096893245,-78.9767622379999,394,"608 CRANFORD COURT, FAYETTEVILLE, NC, 28303","Match","Exact","608 CRANFORD CT, FAYETTEVILLE, NC, 28303",64194409,"R"
760895,"608 CREEKSTONE COURT","JONESBORO","GA",30281,33.535087253,-84.284048059,395,"608 CREEKSTONE COURT, JONESBORO, GA, 30281","Match","Non_Exact","608 CREEKSTONE CT, JONESBORO, GA, 30236",23212137,"L"
760896,"608 CROSSING DRIVE","REEDS SPRING","MO",65737,36.6859325300001,-93.3138560849999,396,"608 CROSSING DRIVE, REEDS SPRING, MO, 65737","Match","Exact","608 CROSSING DR, REEDS SPRING, MO, 65737",227621686,"L"
760897,"608 CULLUM AVE","HURST","TX",76053,32.81315676,-97.179744885,397,"608 CULLUM AVE, HURST, TX, 76053","Match","Exact","608 CULLUM AVE, HURST, TX, 76053",101866784,"R"
760898,"608 CYPRESS LANE","EAST BRUNSWICK","NJ",8816,40.3959225300001,-74.429495792,398,"608 CYPRESS LANE, EAST BRUNSWICK, NJ, 8816","Match","Exact","608 CYPRESS LN, E BRUNSWICK, NJ, 08816",624882443,"R"
760899,"608 DAFFODIL DRIVE","BENICIA","CA",94510,38.084615205,-122.166807645,399,"608 DAFFODIL DRIVE, BENICIA, CA, 94510","Match","Exact","608 DAFFODIL DR, BENICIA, CA, 94510",192555653,"L"
760900,"608 DALTON DR APT 5","ESSEX JUNCTION","VT",5452,44.5053773590001,-73.145997665,400,"608 DALTON DR APT 5, ESSEX JUNCTION, VT, 5452","Match","Exact","608 DALTON DR, ESSEX JCT, VT, 05452",636673429,"L"
760901,"608 DARK HAMMOCK RD","FORT PIERCE","FL",34947,27.4417866200001,-80.36047102,401,"608 DARK HAMMOCK RD, FORT PIERCE, FL, 34947","Match","Exact","608 DARK HAMMOCK RD, FORT PIERCE, FL, 34947",120148525,"R"
760902,"608 DEAUVILLE DRIVEFORT WORTH","FORT WORTH","TX",76108,32.754872574,-97.509359306,402,"608 DEAUVILLE DRIVEFORT WORTH, FORT WORTH, TX, 76108","Match","Non_Exact","608 DEAUVILLE DR, FORT WORTH, TX, 76108",619872009,"R"
760903,"608 DECATUR STREET","BROOKLYN","NY",11233,40.683165715,-73.918433276,403,"608 DECATUR STREET, BROOKLYN, NY, 11233","Match","Exact","608 DECATUR ST, BROOKLYN, NY, 11233",642653279,"R"
760904,"608 DEER COUNTRY","SAN ANTONIO","TX",78253,29.432008395,-98.765085807,404,"608 DEER COUNTRY, SAN ANTONIO, TX, 78253","Match","Exact","608 DEER COUNTRY, SAN ANTONIO, TX, 78253",101687763,"L"
760905,"608 DELTINO COURT","LEXINGTON","KY",40515,37.9587768270001,-84.514940926,405,"608 DELTINO COURT, LEXINGTON, KY, 40515","Match","Exact","608 DELTINO CT, LEXINGTON, KY, 40515",618016615,"L"
760906,"608 DENHOFF DRIVE","CARY","NC",27519,35.861829433,-78.8997497399999,406,"608 DENHOFF DRIVE, CARY, NC, 27519","Match","Exact","608 DENHOFF DR, CARY, NC, 27519",648145938,"R"
760907,"608 DEVONWOOD WAY","CLINTON","MA",1510,42.3963192620001,-71.669146822,407,"608 DEVONWOOD WAY, CLINTON, MA, 1510","Match","Non_Exact","608 DEVENWOOD WAY, CLINTON, MA, 01510",636475788,"L"
760908,"608 DIVISION STREET","NEW LONDON","WI",54961,44.3881559020001,-88.736809294,408,"608 DIVISION STREET, NEW LONDON, WI, 54961","Match","Exact","608 DIVISION ST, NEW LONDON, WI, 54961",74922732,"R"
760909,"608 DONAGHEY","CONWAY","AR",72034,35.0863439140001,-92.453924983,409,"608 DONAGHEY, CONWAY, AR, 72034","Match","Non_Exact","608 DONAGHEY AVE, CONWAY, AR, 72034",141044213,"R"
760910,"608 DORSET CIRCLE","SAINT JOSEPH","IL",61873,40.1044933740001,-88.0273996609999,410,"608 DORSET CIRCLE, SAINT JOSEPH, IL, 61873","Match","Exact","608 DORSET CIR, SAINT JOSEPH, IL, 61873",8815485,"R"
760911,"608 DRESDEN AVENUE","STEUBENVILLE","OH",43952,40.3517679510001,-80.630828303,411,"608 DRESDEN AVENUE, STEUBENVILLE, OH, 43952","Match","Exact","608 DRESDEN AVE, STEUBENVILLE, OH, 43952",37801337,"L"
760912,"608 E 5TH ST N","NEWTON","IA",50208,41.704318205,-93.048315681,412,"608 E 5TH ST N, NEWTON, IA, 50208","Match","Exact","608 E 5TH ST N, NEWTON, IA, 50208",89436316,"R"
760913,"608 E 5TH ST","DANVILLE","IL",61832,40.1122307200001,-87.6285563549999,413,"608 E 5TH ST, DANVILLE, IL, 61832","Match","Exact","608 E 5TH ST, DANVILLE, IL, 61832",66000094,"R"
760914,"608 E 6TH ST","WELLSVILLE","KS",66092,38.718494594,-95.075989071,414,"608 E 6TH ST, WELLSVILLE, KS, 66092","Match","Exact","608 E 6TH ST, WELLSVILLE, KS, 66092",10607041,"L"
760915,"608 E 6TH STREET 7C","TIFTON","GA",31794,NA,NA,415,"608 E 6TH STREET 7C, TIFTON, GA, 31794","Tie",NA,NA,NA,NA
760916,"608 E 9TH ST","THE DALLES","OR",97058,45.5958514980001,-121.181982536,416,"608 E 9TH ST, THE DALLES, OR, 97058","Match","Exact","608 E 9TH ST, THE DALLES, OR, 97058",175532920,"L"
760917,"608 E APACHE","TULSA","OK",74106,36.191456026,-95.9855439739999,417,"608 E APACHE, TULSA, OK, 74106","Match","Non_Exact","608 E APACHE ST, TULSA, OK, 74106",166436915,"R"
760918,"608 E DECATUR ST","BROKEN ARROW","OK",74011,35.9805611240001,-95.78364255,418,"608 E DECATUR ST, BROKEN ARROW, OK, 74011","Match","Exact","608 E DECATUR ST, BROKEN ARROW, OK, 74011",617313884,"L"
760919,"608 E EMERSON AVENUE","GLEN ELLYN","IL",60137,41.892172257,-88.062025843,419,"608 E EMERSON AVENUE, GLEN ELLYN, IL, 60137","Match","Exact","608 EMERSON AVE, GLEN ELLYN, IL, 60137",112523074,"R"
760920,"608 E FORDYCE ST","ENGLAND","AR",72046,34.54600086,-91.9634740389999,420,"608 E FORDYCE ST, ENGLAND, AR, 72046","Match","Exact","608 E FORDYCE ST, ENGLAND, AR, 72046",79703327,"R"
760921,"608 E JAMES STREET","ELY","MN",55731,47.8976568160001,-91.857829636,421,"608 E JAMES STREET, ELY, MN, 55731","Match","Exact","608 E JAMES ST, ELY, MN, 55731",163156960,"L"
760922,"608 E LANE ST","SHELBYVILLE","TN",37160,35.485376005,-86.447818828,422,"608 E LANE ST, SHELBYVILLE, TN, 37160","Match","Exact","608 E LANE ST, SHELBYVILLE, TN, 37160",607155068,"R"
760923,"608 E LINDEN LN","MUSTANG","OK",73064,35.3848130600001,-97.712530763,423,"608 E LINDEN LN, MUSTANG, OK, 73064","Match","Exact","608 E LINDEN LN, MUSTANG, OK, 73064",633151826,"R"
760924,"608 E MACPHAIL ROAD","BEL AIR","MD",21014,39.5303715850001,-76.3317366969999,424,"608 E MACPHAIL ROAD, BEL AIR, MD, 21014","Match","Exact","608 E MACPHAIL RD, BEL AIR, MD, 21014",652388404,"L"
760925,"608 E MILLER RD","ITHACA","NY",14850,42.3697910880001,-76.430614082,425,"608 E MILLER RD, ITHACA, NY, 14850","Match","Exact","608 E MILLER RD, ITHACA, NY, 14850",624497543,"L"
760926,"608 E MOUNTAIN","SEGUIN","TX",78155,29.570472404,-97.959522183,426,"608 E MOUNTAIN, SEGUIN, TX, 78155","Match","Non_Exact","608 E MOUNTAIN ST, SEGUIN, TX, 78155",54828107,"L"
760927,"608 E NORTHVIEW ST","OLATHE","KS",66061,38.8951633720001,-94.812487721,427,"608 E NORTHVIEW ST, OLATHE, KS, 66061","Match","Non_Exact","608 E NORTHVIEW AVE, OLATHE, KS, 66061",91282937,"L"
760928,"608 E OHIO STREET","CLINTON","MO",64735,38.3666065080001,-93.767228158,428,"608 E OHIO STREET, CLINTON, MO, 64735","Match","Exact","608 E OHIO ST, CLINTON, MO, 64735",44936018,"L"
760929,"608 E PENNINGTON ST","PLANKINTON","SD",57368,43.7119754230001,-98.477978143,429,"608 E PENNINGTON ST, PLANKINTON, SD, 57368","Match","Exact","608 PENNINGTON ST, PLANKINTON, SD, 57368",624785561,"L"
760930,"608 E SOUTHVIEW","COLFAX","WA",99111,46.8751144440001,-117.357746425,430,"608 E SOUTHVIEW, COLFAX, WA, 99111","Match","Non_Exact","608 E SOUTHVIEW AVE, COLFAX, WA, 99111",173287543,"L"
760931,"608 E SUNSET DRIVE N","REDLANDS","CA",92373,34.031932555,-117.145722142,431,"608 E SUNSET DRIVE N, REDLANDS, CA, 92373","Match","Exact","608 E SUNSET DR N, REDLANDS, CA, 92373",144666861,"R"
760932,"608 E VALLEY BLVD D108","SAN GABRIEL","CA",91776,34.080064733,-118.092647371,432,"608 E VALLEY BLVD D108, SAN GABRIEL, CA, 91776","Match","Non_Exact","608 E VALLEY BLVD, SAN GABRIEL, CA, 91776",241241045,"R"
760933,"608 E VALLEY BLVD D122","SAN GABRIEL","CA",91776,34.080064733,-118.092647371,433,"608 E VALLEY BLVD D122, SAN GABRIEL, CA, 91776","Match","Non_Exact","608 E VALLEY BLVD, SAN GABRIEL, CA, 91776",241241045,"R"
760934,"608 E VALLEY BLVD SUITE D-311","SAN GABRIEL","CA",91776,34.080064733,-118.092647371,434,"608 E VALLEY BLVD SUITE D-311, SAN GABRIEL, CA, 91776","Match","Non_Exact","608 E VALLEY BLVD, SAN GABRIEL, CA, 91776",241241045,"R"
760935,"608 E WACO","BROKEN ARROW","OK",74011,NA,NA,435,"608 E WACO, BROKEN ARROW, OK, 74011","Tie",NA,NA,NA,NA
760936,"608 E WALNUT","AURORA","MO",65605,36.9605584400001,-93.713299454,436,"608 E WALNUT, AURORA, MO, 65605","Match","Non_Exact","608 E WALNUT ST, AURORA, MO, 65605",99852191,"L"
760937,"608 E4 N KUAKINI STREET","HONOLULU","HI",96817,NA,NA,437,"608 E4 N KUAKINI STREET, HONOLULU, HI, 96817","Tie",NA,NA,NA,NA
760938,"608 EAGLES VIEW","LANCASTER","PA",17601,40.0569073830001,-76.415788354,438,"608 EAGLES VIEW, LANCASTER, PA, 17601","Match","Exact","608 EAGLES VW, LANCASTER, PA, 17601",624498293,"R"
760939,"608 EAST 10TH STREET","HOLTVILLE","CA",92250,32.820160081,-115.373758747,439,"608 EAST 10TH STREET, HOLTVILLE, CA, 92250","Match","Exact","608 E 10TH ST, HOLTVILLE, CA, 92250",194500233,"L"
760940,"608 EAST 16TH STREET","CHATTANOOGA","TN",37408,35.032448898,-85.3003663379999,440,"608 EAST 16TH STREET, CHATTANOOGA, TN, 37408","Match","Exact","608 E 16TH ST, CHATTANOOGA, TN, 37408",59304758,"R"
760941,"608 EAST 19TH STREET","GEORGETOWN","TX",78626,30.6273719210001,-97.671013193,441,"608 EAST 19TH STREET, GEORGETOWN, TX, 78626","Match","Exact","608 E 19TH ST, GEORGETOWN, TX, 78626",126416812,"R"
760942,"608 EAST 72ND STREET","KANSAS CITY","MO",64131,38.997290687,-94.581956294,442,"608 EAST 72ND STREET, KANSAS CITY, MO, 64131","Match","Exact","608 E 72ND ST, KANSAS CITY, MO, 64131",91454722,"L"
760943,"608 EAST 74TH STREET","CHICAGO","IL",60619,41.7603320270001,-87.6100675289999,443,"608 EAST 74TH STREET, CHICAGO, IL, 60619","Match","Exact","608 E 74TH ST, CHICAGO, IL, 60619",605535260,"L"
760944,"608 EAST 9TH STREET APT 15","NEW YORK","NY",10009,40.7261307200001,-73.9799826029999,444,"608 EAST 9TH STREET APT 15, NEW YORK, NY, 10009","Match","Exact","608 E 9TH ST, NEW YORK, NY, 10009",59654724,"R"
760945,"608 EAST A STREET","HILLSBORO","KS",67063,38.3520373310001,-97.197727793,445,"608 EAST A STREET, HILLSBORO, KS, 67063","Match","Exact","608 E A ST, HILLSBORO, KS, 67063",120704941,"L"
760946,"608 EAST CHURCH STREET","EDENTON","NC",27932,36.061442771,-76.597120417,446,"608 EAST CHURCH STREET, EDENTON, NC, 27932","Match","Exact","608 E CHURCH ST, EDENTON, NC, 27932",18470109,"R"
760947,"608 EAST CHURCH STREET","EDENTON","NJ",27932,NA,NA,447,"608 EAST CHURCH STREET, EDENTON, NJ, 27932","No_Match",NA,NA,NA,NA
760948,"608 EAST CLUB CIRCLE","LONGWOOD","FL",32779,28.704701551,-81.447142822,448,"608 EAST CLUB CIRCLE, LONGWOOD, FL, 32779","Match","Exact","608 E CLUB CIR, LONGWOOD, FL, 32779",605416760,"L"
760949,"608 EAST COLUMB IA","FARMINGTON","MO",63640,37.779813115,-90.4143803709999,449,"608 EAST COLUMB IA, FARMINGTON, MO, 63640","Match","Non_Exact","608 E COLUMBIA ST, FARMINGTON, MO, 63640",62383097,"L"
760950,"608 EAST COLUMBIA","FARMINGTON","MO",63640,37.779813115,-90.4143803709999,450,"608 EAST COLUMBIA, FARMINGTON, MO, 63640","Match","Non_Exact","608 E COLUMBIA ST, FARMINGTON, MO, 63640",62383097,"L"
760951,"608 EAST MAIN STREET","MONCKS CORNER","SC",29461,33.203293789,-80.0389893,451,"608 EAST MAIN STREET, MONCKS CORNER, SC, 29461","Match","Non_Exact","608 W MAIN ST, MONCKS CORNER, SC, 29461",100736670,"R"
760952,"608 EAST OAK STREET","OJAI","CA",93023,34.451080624,-119.240013898,452,"608 EAST OAK STREET, OJAI, CA, 93023","Match","Exact","608 E OAK ST, OJAI, CA, 93023",109984712,"L"
760953,"608 EAST PROSPECT AVENUE","STATE COLLEGE","PA",16801,40.798115888,-77.8492329279999,453,"608 EAST PROSPECT AVENUE, STATE COLLEGE, PA, 16801","Match","Exact","608 E PROSPECT AVE, STATE COLLEGE, PA, 16801",50398665,"R"
760954,"608 EAST ST","FARMLAND","IN",47340,40.1936600710001,-85.125341302,454,"608 EAST ST, FARMLAND, IN, 47340","Match","Exact","608 EAST ST, FARMLAND, IN, 47340",31226459,"R"
760955,"608 EAST THIRD NORTH STREET","SUMMERVILLE","SC",29485,33.0200606930001,-80.164748607,455,"608 EAST THIRD NORTH STREET, SUMMERVILLE, SC, 29485","Match","Exact","608 E 3RD NORTH ST, SUMMERVILLE, SC, 29485",640500615,"R"
760956,"608 EAST THIRD STREET","PERRYVILLE","KY",40468,37.6490872150001,-84.9453751139999,456,"608 EAST THIRD STREET, PERRYVILLE, KY, 40468","Match","Exact","608 E 3RD ST, PERRYVILLE, KY, 40468",32478849,"L"
760957,"608 EAST UNIVERSITY AVE APT 613","CHAMPAIGN","IL",61820,40.1163717220001,-88.230223509,457,"608 EAST UNIVERSITY AVE APT 613, CHAMPAIGN, IL, 61820","Match","Exact","608 E UNIVERSITY AVE, CHAMPAIGN, IL, 61820",8856395,"L"
760958,"608 EAST WESTCHESTER DRIVE","TEMPE","AZ",85283,33.367390868,-111.930554697,458,"608 EAST WESTCHESTER DRIVE, TEMPE, AZ, 85283","Match","Exact","608 E WESTCHESTER DR, TEMPE, AZ, 85283",128237600,"L"
760959,"608 EASTLAKE COURT","RIO RANCHO","NM",87124,NA,NA,459,"608 EASTLAKE COURT, RIO RANCHO, NM, 87124","No_Match",NA,NA,NA,NA
760960,"608 EASTON ROAD","WILLOW GROVE","PA",19090,40.149981929,-75.120180831,460,"608 EASTON ROAD, WILLOW GROVE, PA, 19090","Match","Exact","608 EASTON RD, WILLOW GROVE, PA, 19090",629036552,"L"
760961,"608 EE PENNINGTON STREET","PLANKINTON","SD",57368,43.7119754230001,-98.477975579,461,"608 EE PENNINGTON STREET, PLANKINTON, SD, 57368","Match","Exact","608 PENNINGTON ST, PLANKINTON, SD, 57368",624785561,"L"
760962,"608 ELITA ST","FLATWOODS","KY",41139,38.5157037290001,-82.708458299,462,"608 ELITA ST, FLATWOODS, KY, 41139","Match","Non_Exact","608 ELITA LN, FLATWOODS, KY, 41139",151397943,"R"
760963,"608 ELM STREET","BONHAM","TX",75418,33.579103822,-96.174481551,463,"608 ELM STREET, BONHAM, TX, 75418","Match","Exact","608 ELM ST, BONHAM, TX, 75418",63272719,"R"
760964,"608 EMMAS GROVE RD","FLETCHER","NC",28732,35.518608919,-82.438278925,464,"608 EMMAS GROVE RD, FLETCHER, NC, 28732","Match","Exact","608 EMMAS GROVE RD, FLETCHER, NC, 28732",36872837,"L"
760965,"608 EVESHAM AVENUE","BALTIMORE","MD",21212,39.3652887490001,-76.608437827,465,"608 EVESHAM AVENUE, BALTIMORE, MD, 21212","Match","Exact","608 EVESHAM AVE, BALTIMORE, MD, 21212",640508765,"L"
760966,"608 FERRY STREET","MONTGOMERY","WV",25136,38.1828562900001,-81.3217567519999,466,"608 FERRY STREET, MONTGOMERY, WV, 25136","Match","Exact","608 FERRY ST, MONTGOMERY, WV, 25136",650003554,"R"
760967,"608 FIELD ST","COLLEYVILLE","TX",76034,32.8884736270001,-97.1585007529999,467,"608 FIELD ST, COLLEYVILLE, TX, 76034","Match","Exact","608 FIELD ST, COLLEYVILLE, TX, 76034",102104803,"L"
760968,"608 FIELDBROOK CT","MONTGOMERY","AL",36117,32.393667545,-86.192450346,468,"608 FIELDBROOK CT, MONTGOMERY, AL, 36117","Match","Exact","608 FIELDBROOK CT, MONTGOMERY, AL, 36117",1472919,"R"
760969,"608 FLAT ROCK RD","LOUISVILLE","KY",40245,38.244878988,-85.441648385,469,"608 FLAT ROCK RD, LOUISVILLE, KY, 40245","Match","Exact","608 FLAT ROCK RD, LOUISVILLE, KY, 40245",618513436,"L"
760970,"608 FLATBUSH AVENUE APT 2D","BROOKLYN","NY",11225,40.6587511340001,-73.960519683,470,"608 FLATBUSH AVENUE APT 2D, BROOKLYN, NY, 11225","Match","Exact","608 FLATBUSH AVE, BROOKLYN, NY, 11225",59078555,"R"
760971,"608 FLEMING RD","SARVER","PA",16055,40.7024590230001,-79.766081401,471,"608 FLEMING RD, SARVER, PA, 16055","Match","Exact","608 FLEMING RD, SARVER, PA, 16055",52674461,"R"
760972,"608 FOLKSTONE WAY","VIRGINIA BEACH","VA",23462,36.86290998,-76.184443713,472,"608 FOLKSTONE WAY, VIRGINIA BEACH, VA, 23462","Match","Exact","608 FOLKSTONE WAY, VA BCH, VA, 23462",122285841,"L"
760973,"608 FORREST","DUMAS","TX",79029,35.8766883650001,-101.956339238,473,"608 FORREST, DUMAS, TX, 79029","Match","Non_Exact","608 FORREST DR, DUMAS, TX, 79029",164658231,"R"
760974,"608 FOX STREET","NEW BREMEN","OH",45869,40.435314631,-84.370413227,474,"608 FOX STREET, NEW BREMEN, OH, 45869","Match","Exact","608 FOX ST, NEW BREMEN, OH, 45869",633959062,"R"
760975,"608 FRANKLIN AVE","NEW BERN","NC",28560,35.1075542130001,-77.0700734169999,475,"608 FRANKLIN AVE, NEW BERN, NC, 28560","Match","Exact","608 FRANKLIN AVE, NEW BERN, NC, 28560",34112572,"R"
760976,"608 FRANKLIN AVENUE","CHARLOTTE","NC",28206,35.249896452,-80.8250126199999,476,"608 FRANKLIN AVENUE, CHARLOTTE, NC, 28206","Match","Exact","608 FRANKLIN AVE, CHARLOTTE, NC, 28206",70479328,"R"
760977,"608 GALA WAY","NEW MARKET","MD",21774,39.3888763690001,-77.261733882,477,"608 GALA WAY, NEW MARKET, MD, 21774","Match","Exact","608 GALA WAY, NEW MARKET, MD, 21774",633864708,"R"
760978,"608 GALLEHOS AVE","OCOEE","FL",34761,NA,NA,478,"608 GALLEHOS AVE, OCOEE, FL, 34761","No_Match",NA,NA,NA,NA
760979,"608 GARDEN STREET","HOBOKEN","NJ",7030,40.743954896,-74.03073581,479,"608 GARDEN STREET, HOBOKEN, NJ, 7030","Match","Exact","608 GARDEN ST, HOBOKEN, NJ, 07030",59606900,"L"
760980,"608 GARDNER STREET","FRANKLIN","VA",23851,36.677832182,-76.9299767689999,480,"608 GARDNER STREET, FRANKLIN, VA, 23851","Match","Exact","608 GARDNER ST, FRANKLIN, VA, 23851",82706981,"L"
760981,"608 GEISER BROOK COURT","LAKE SAINT LOUIS","MO",63367,38.7793064160001,-90.757002891,481,"608 GEISER BROOK COURT, LAKE SAINT LOUIS, MO, 63367","Match","Exact","608 GEISER BROOK CT, LAKE SAINT LOUIS, MO, 63367",100090829,"L"
760982,"608 GEORGINA","SANTA MONICA","CA",90402,34.0299877210001,-118.507475381,482,"608 GEORGINA, SANTA MONICA, CA, 90402","Match","Non_Exact","608 GEORGINA AVE, SANTA MONICA, CA, 90402",142715342,"R"
760983,"608 GILMORE AVENUE","N TONAWANDA","NY",14120,43.0396761750001,-78.876955599,483,"608 GILMORE AVENUE, N TONAWANDA, NY, 14120","Match","Exact","608 GILMORE AVE, N TONAWANDA, NY, 14120",48689012,"L"
760984,"608 GLENWOOD DRIVE","EPHRATA","PA",17522,40.1870705870001,-76.13399241,484,"608 GLENWOOD DRIVE, EPHRATA, PA, 17522","Match","Exact","608 GLENWOOD DR, EPHRATA, PA, 17522",624589975,"R"
760985,"608 GOSLING MARSH RD","MARTINSBURG","WV",25404,39.443991479,-77.860166468,485,"608 GOSLING MARSH RD, MARTINSBURG, WV, 25404","Match","Exact","608 GOSLING MARSH RD, MARTINSBURG, WV, 25404",632535982,"R"
760986,"608 GOUAUX AVENUE","HOUMA","LA",70364,29.606486008,-90.7210642909999,486,"608 GOUAUX AVENUE, HOUMA, LA, 70364","Match","Exact","608 GOUAUX AVE, HOUMA, LA, 70364",92050866,"R"
760987,"608 GRAVEL PIT RD","TAYLOR","TX",76574,30.577593644,-97.3934380589999,487,"608 GRAVEL PIT RD, TAYLOR, TX, 76574","Match","Exact","608 GRAVEL PIT RD, TAYLOR, TX, 76574",126426734,"R"
760988,"608 GRINER STREET","DEL RIO","TX",78840,29.358249883,-100.900012941,488,"608 GRINER STREET, DEL RIO, TX, 78840","Match","Exact","608 GRINER ST, DEL RIO, TX, 78840",173576447,"R"
760989,"608 GRINER","DEL RIO","TX",78840,29.358249883,-100.900012941,489,"608 GRINER, DEL RIO, TX, 78840","Match","Non_Exact","608 GRINER ST, DEL RIO, TX, 78840",173576447,"R"
760990,"608 GROVE AVE","EDISON","NJ",8817,NA,NA,490,"608 GROVE AVE, EDISON, NJ, 8817","No_Match",NA,NA,NA,NA
760991,"608 GULLVIEW DR","PEOTONE","IL",60468,41.32387118,-87.812933556,491,"608 GULLVIEW DR, PEOTONE, IL, 60468","Match","Exact","608 GULLVIEW DR, PEOTONE, IL, 60468",111589139,"R"
760992,"608 GUMPPER AVE","FORT WAYNE","IN",46815,41.050854278,-85.1287927829999,492,"608 GUMPPER AVE, FORT WAYNE, IN, 46815","Match","Non_Exact","608 GUMPPER AVE, FORT WAYNE, IN, 46806",6382666,"R"
760993,"608 HALYARD DR","ALLEN","TX",75013,33.107171715,-96.703009123,493,"608 HALYARD DR, ALLEN, TX, 75013","Match","Exact","608 HALYARD DR, ALLEN, TX, 75013",123538445,"R"
760994,"608 HAMLETS CIR","VERONA","WI",53593,42.975823216,-89.5245489929999,494,"608 HAMLETS CIR, VERONA, WI, 53593","Match","Non_Exact","608 HAMLET'S CIR, VERONA, WI, 53593",49523719,"L"
760995,"608 HANFORD DR","HIGHLAND HTS","OH",44143,41.548247056,-81.472098273,495,"608 HANFORD DR, HIGHLAND HTS, OH, 44143","Match","Exact","608 HANFORD DR, HIGHLAND HEIGHTS, OH, 44143",61170073,"L"
760996,"608 HARBOR LANDING","ROSWELL","GA",30076,34.010328956,-84.316846429,496,"608 HARBOR LANDING, ROSWELL, GA, 30076","Match","Exact","608 HARBOR LNDG, ROSWELL, GA, 30076",17418342,"L"
760997,"608 HARRISON AVE","GREENVILLE","OH",45331,40.0919821000001,-84.632712538,497,"608 HARRISON AVE, GREENVILLE, OH, 45331","Match","Exact","608 HARRISON AVE, GREENVILLE, OH, 45331",54536339,"L"
760998,"608 HAWTHORN DR","PANDORA","OH",45877,NA,NA,498,"608 HAWTHORN DR, PANDORA, OH, 45877","No_Match",NA,NA,NA,NA
760999,"608 HICKORY HOLLOW LANE","JONESBORO","GA",30236,33.4888067320001,-84.371709379,499,"608 HICKORY HOLLOW LANE, JONESBORO, GA, 30236","Match","Non_Exact","608 HICKORY HOLLOW LN, JONESBORO, GA, 30238",23317144,"L"
761000,"608 HIDDEN RIDGE DRIVE","TRAVERSE CITY","MI",49686,44.7809549300001,-85.567234011,500,"608 HIDDEN RIDGE DRIVE, TRAVERSE CITY, MI, 49686","Match","Exact","608 HIDDEN RIDGE DR, TRAVERSE CITY, MI, 49686",627646918,"R"
