"ID","Address","City","State","Zip","lat","long","id","input_address","match_indicator","match_type","matched_address","tiger_line_id","tiger_side"
677001,"50 EAST 2500 NORTH SUITE 200","NORTH LOGAN","UT",84341,41.77780169,-111.831843592,1,"50 EAST 2500 NORTH SUITE 200, NORTH LOGAN, UT, 84341","Match","Exact","50 E 2500 N, NORTH LOGAN, UT, 84341",640993788,"L"
677002,"50 EAST 26TH STREET","CHICAGO","IL",60653,41.8456252890001,-87.62505634,2,"50 EAST 26TH STREET, CHICAGO, IL, 60653","Match","Non_Exact","50 E 26TH ST, CHICAGO, IL, 60616",605497800,"L"
677003,"50 EAST 28 STREET","NEW YORK","NY",10016,40.7437495820001,-73.9850914149999,3,"50 EAST 28 STREET, NEW YORK, NY, 10016","Match","Exact","50 E 28TH ST, NEW YORK, NY, 10016",59653488,"R"
677004,"50 EAST 2ND AVENUE","LITITZ","PA",17543,40.150414708,-76.3050845449999,4,"50 EAST 2ND AVENUE, LITITZ, PA, 17543","Match","Exact","50 E 2ND AVE, LITITZ, PA, 17543",179655663,"R"
677005,"50 EAST 41ST STREET","SAN ANGELO","TX",76903,31.5019086820001,-100.45729119,5,"50 EAST 41ST STREET, SAN ANGELO, TX, 76903","Match","Exact","50 E 41ST ST, SAN ANGELO, TX, 76903",190678118,"L"
677006,"50 EAST 43RD STREET","BROOKLYN","NY",11226,40.6547949970001,-73.937511286,6,"50 EAST 43RD STREET, BROOKLYN, NY, 11226","Match","Non_Exact","50 E 43RD ST, BROOKLYN, NY, 11203",59079929,"R"
677007,"50 EAST 72ND STREET","NEW YORK","NY",10075,40.7715347770001,-73.96485603,7,"50 EAST 72ND STREET, NEW YORK, NY, 10075","Match","Non_Exact","50 E 72ND ST, NEW YORK, NY, 10021",59657294,"R"
677008,"50 EAST 77TH STREET","NEW YORK","NY",10075,40.7749450970001,-73.962958172,8,"50 EAST 77TH STREET, NEW YORK, NY, 10075","Match","Exact","50 E 77TH ST, NEW YORK, NY, 10075",642471664,"R"
677009,"50 EAST 98TH STREET","NEW YORK","NY",10029,40.788309767,-73.952686708,9,"50 EAST 98TH STREET, NEW YORK, NY, 10029","Match","Exact","50 E 98TH ST, NEW YORK, NY, 10029",639434525,"R"
677010,"50 EAST BROAD ST APT 9","BETHLEHEM","PA",18018,40.6222569340001,-75.376852205,10,"50 EAST BROAD ST APT 9, BETHLEHEM, PA, 18018","Match","Exact","50 E BROAD ST, BETHLEHEM, PA, 18018",136884951,"R"
677011,"50 EAST CONCORD ST","BOSTON","MA",2118,42.337393471,-71.074361149,11,"50 EAST CONCORD ST, BOSTON, MA, 2118","Match","Exact","50 E CONCORD ST, BOSTON, MA, 02118",85700751,"L"
677012,"50 EAST DRIVE NE","HARTVILLE","OH",44632,NA,NA,12,"50 EAST DRIVE NE, HARTVILLE, OH, 44632","No_Match",NA,NA,NA,NA
677013,"50 EAST FREEDOM WAY","CINCINNATI","OH",45202,39.097085076,-84.5110529839999,13,"50 EAST FREEDOM WAY, CINCINNATI, OH, 45202","Match","Exact","50 E FREEDOM WAY, CINCINNATI, OH, 45202",647377799,"L"
677014,"50 EAST FREEDOM","CINCINNATI","OH",45202,39.097085076,-84.5110529839999,14,"50 EAST FREEDOM, CINCINNATI, OH, 45202","Match","Non_Exact","50 E FREEDOM WAY, CINCINNATI, OH, 45202",647377799,"L"
677015,"50 EAST GATE LN","WILLINGBORO","NJ",8046,40.0241357,-74.865826361,15,"50 EAST GATE LN, WILLINGBORO, NJ, 8046","Match","Non_Exact","50 EASTGATE LN, WILLINGBORO, NJ, 08046",134032291,"R"
677016,"50 EAST HILL RD","CANTON","CT",6109,NA,NA,16,"50 EAST HILL RD, CANTON, CT, 6109","No_Match",NA,NA,NA,NA
677017,"50 EAST RIVERCENTER BLVD SUITE 200","COVINGTON","KY",41011,NA,NA,17,"50 EAST RIVERCENTER BLVD SUITE 200, COVINGTON, KY, 41011","No_Match",NA,NA,NA,NA
677018,"50 EAST ROBINSON ST","KKORLANDO","FL",32801,28.545669145,-81.377902632,18,"50 EAST ROBINSON ST, KKORLANDO, FL, 32801","Match","Non_Exact","50 E ROBINSON ST, ORLANDO, FL, 32801",94281887,"R"
677019,"50 EAST ROBINSON ST","ORLANDO","FL",32801,28.545669145,-81.377902632,19,"50 EAST ROBINSON ST, ORLANDO, FL, 32801","Match","Exact","50 E ROBINSON ST, ORLANDO, FL, 32801",94281887,"R"
677020,"50 EAST ROBINSON STREET","ORLANDO","FL",32801,28.545669145,-81.377902632,20,"50 EAST ROBINSON STREET, ORLANDO, FL, 32801","Match","Exact","50 E ROBINSON ST, ORLANDO, FL, 32801",94281887,"R"
677021,"50 EAST ROIBINSON ST","ORLANDO","FL",32801,28.545669145,-81.377902632,21,"50 EAST ROIBINSON ST, ORLANDO, FL, 32801","Match","Non_Exact","50 E ROBINSON ST, ORLANDO, FL, 32801",94281887,"R"
677022,"50 EAST SALADO PARKWAY SUITE 1100","TEMPE","AZ",85281,NA,NA,22,"50 EAST SALADO PARKWAY SUITE 1100, TEMPE, AZ, 85281","No_Match",NA,NA,NA,NA
677023,"50 EAST SQUARE LANE","RICHMOND","VA",23238,37.5835973420001,-77.622395089,23,"50 EAST SQUARE LANE, RICHMOND, VA, 23238","Match","Exact","50 E SQUARE LN, RICHMOND, VA, 23238",210330736,"L"
677024,"50 EAST WASHINGTON STREET","CHAGRIN FALLS","OH",44022,41.4298913640001,-81.389527711,24,"50 EAST WASHINGTON STREET, CHAGRIN FALLS, OH, 44022","Match","Exact","50 E WASHINGTON ST, CHAGRIN FALLS, OH, 44022",61155653,"R"
677025,"50 EASTERN STATES PARKWAY","SOMERVILLE","NJ",8876,40.567101994,-74.592842202,25,"50 EASTERN STATES PARKWAY, SOMERVILLE, NJ, 8876","Match","Exact","50 EASTERN STATES PKWY, SOMERVILLE, NJ, 08876",59938603,"R"
677026,"50 EATON COURT","MANHASSET","NY",11030,40.778139459,-73.6683219729999,26,"50 EATON COURT, MANHASSET, NY, 11030","Match","Exact","50 EATON CT, MANHASSET, NY, 11030",147840876,"L"
677027,"50 EDGEHILL RD","ARLINGTON","MA",2474,42.4217704390001,-71.1554223209999,27,"50 EDGEHILL RD, ARLINGTON, MA, 2474","Match","Exact","50 EDGEHILL RD, ARLINGTON, MA, 02474",86888026,"L"
677028,"50 EDGEWOOD ACRES ROAD","HOWARD","PA",16841,41.072287771,-77.686412807,28,"50 EDGEWOOD ACRES ROAD, HOWARD, PA, 16841","Match","Exact","50 EDGEWOOD ACRES RD, HOWARD, PA, 16841",50394280,"L"
677029,"50 EDGEWOOD AVE","LONGMEADOW","MA",1106,42.060284612,-72.581768371,29,"50 EDGEWOOD AVE, LONGMEADOW, MA, 1106","Match","Exact","50 EDGEWOOD AVE, LONGMEADOW, MA, 01106",4038031,"R"
677030,"50 EDGEWOOD DRIVE","SHELBY","OH",44875,40.877318211,-82.647414316,30,"50 EDGEWOOD DRIVE, SHELBY, OH, 44875","Match","Exact","50 EDGEWOOD DR, SHELBY, OH, 44875",207225726,"L"
677031,"50 EDGEWOOD","MARQUETTE","MI",49855,46.4646102340001,-87.3438374529999,31,"50 EDGEWOOD, MARQUETTE, MI, 49855","Match","Non_Exact","50 EDGEWOOD DR, MARQUETTE, MI, 49855",182041117,"R"
677032,"50 ELDRIDGE DRIVE","ROBBINSVILLE","NJ",8691,40.2266734150001,-74.622884125,32,"50 ELDRIDGE DRIVE, ROBBINSVILLE, NJ, 8691","Match","Exact","50 ELDRIDGE DR, ROBBINSVILLE, NJ, 08691",60197439,"R"
677033,"50 ELIZABETH STREET","HAMBURG","NY",14075,42.7213832620001,-78.8244801229999,33,"50 ELIZABETH STREET, HAMBURG, NY, 14075","Match","Exact","50 ELIZABETH ST, HAMBURG, NY, 14075",48309985,"L"
677034,"50 ELIZABETH TERRACE","UPPER SADDLE RIVER","NJ",7458,41.0497036720001,-74.10688934,34,"50 ELIZABETH TERRACE, UPPER SADDLE RIVER, NJ, 7458","Match","Exact","50 ELIZABETH TER, UPPER SADDLE RIVER, NJ, 07458",64366093,"R"
677035,"50 ELM AVENUE","WYOMING","OH",45215,39.2191675240001,-84.4711135759999,35,"50 ELM AVENUE, WYOMING, OH, 45215","Match","Exact","50 ELM AVE, WYOMING, OH, 45215",103926731,"R"
677036,"50 ELM CT","PALOS HEIGHTS","IL",60463,41.655717945,-87.807185923,36,"50 ELM CT, PALOS HEIGHTS, IL, 60463","Match","Exact","50 ELM CT, PALOS HEIGHTS, IL, 60463",111875618,"R"
677037,"50 ELM STREET","BROCKTON","MA",2301,NA,NA,37,"50 ELM STREET, BROCKTON, MA, 2301","Tie",NA,NA,NA,NA
677038,"50 ELM STREET","MEDFORD","MA",2155,42.4374597300001,-71.100609085,38,"50 ELM STREET, MEDFORD, MA, 2155","Match","Exact","50 ELM ST, MEDFORD, MA, 02155",86922895,"L"
677039,"50 ELMORE ST","ROXBURY","MA",2119,42.319684427,-71.090698452,39,"50 ELMORE ST, ROXBURY, MA, 2119","Match","Exact","50 ELMORE ST, ROXBURY, MA, 02119",85699290,"R"
677040,"50 ELY ROAD","MONSON","MA",1057,42.096787701,-72.322641338,40,"50 ELY ROAD, MONSON, MA, 1057","Match","Exact","50 ELY RD, MONSON, MA, 01057",4055974,"R"
677041,"50 EMBARCADERO RD","PALO ALTO","CA",94301,37.437874208,-122.158084404,41,"50 EMBARCADERO RD, PALO ALTO, CA, 94301","Match","Exact","50 EMBARCADERO RD, PALO ALTO, CA, 94301",618160241,"R"
677042,"50 EMERALD GLEN ROAD","SALEM","CT",6420,41.461459948,-72.2411117359999,42,"50 EMERALD GLEN ROAD, SALEM, CT, 6420","Match","Non_Exact","50 EMERALD GLEN LN, SALEM, CT, 06420",56869638,"L"
677043,"50 ENGLEWOOD DRIVE","PALMYRA","VA",22063,37.9281010330001,-78.341183784,43,"50 ENGLEWOOD DRIVE, PALMYRA, VA, 22063","Match","Non_Exact","50 ENGLEWOOD DR, PALMYRA, VA, 22963",73778046,"R"
677044,"50 EQUESTRIAN DR","ELMER","NJ",8016,40.0883896920001,-74.81273278,44,"50 EQUESTRIAN DR, ELMER, NJ, 8016","Match","Non_Exact","50 EQUESTRIAN DR, BURLINGTON, NJ, 08016",134072842,"R"
677045,"50 ESMOND STREET","SMITHFIELD","RI",2917,41.874124996,-71.5048575179999,45,"50 ESMOND STREET, SMITHFIELD, RI, 2917","Match","Exact","50 ESMOND ST, SMITHFIELD, RI, 02917",47450312,"R"
677046,"50 ESTATE DRIVE","MORGANTOWN","WV",26508,39.6027710130001,-79.907884538,46,"50 ESTATE DRIVE, MORGANTOWN, WV, 26508","Match","Exact","50 ESTATE DR, MORGANTOWN, WV, 26508",50773003,"R"
677047,"50 EVENINGSIDE DRIVE","MILFORD","CT",6460,41.2069156050001,-73.0406521749999,47,"50 EVENINGSIDE DRIVE, MILFORD, CT, 6460","Match","Exact","50 EVENINGSIDE DR, MILFORD, CT, 06460",636501968,"L"
677048,"50 EVERGREEN COURT","WAKEFIELD","RI",2879,41.467227646,-71.5048140169999,48,"50 EVERGREEN COURT, WAKEFIELD, RI, 2879","Match","Exact","50 EVERGREEN CT, WAKEFIELD, RI, 02879",58912911,"L"
677049,"50 EVERGREEN ROW","ARMONK","NY",10504,41.155062301,-73.676778118,49,"50 EVERGREEN ROW, ARMONK, NY, 10504","Match","Exact","50 EVERGREEN ROW, ARMONK, NY, 10504",139760884,"L"
677050,"50 EVERIT AVE","FRAMINGHAM","MA",1702,42.2831627740001,-71.410520015,50,"50 EVERIT AVE, FRAMINGHAM, MA, 1702","Match","Exact","50 EVERIT AVE, FRAMINGHAM, MA, 01702",86850461,"L"
677051,"50 F STREET NW STE 7020","WASHINGTON","DC",20001,NA,NA,51,"50 F STREET NW STE 7020, WASHINGTON, DC, 20001","No_Match",NA,NA,NA,NA
677052,"50 FAIR STREET","COLD SPRING","NY",10516,41.4204783330001,-73.960863273,52,"50 FAIR STREET, COLD SPRING, NY, 10516","Match","Exact","50 FAIR ST, COLD SPRING, NY, 10516",139707919,"R"
677053,"50 FAIRWAY LANE","FALMOUTH","MA",2540,41.5972765930001,-70.630547253,53,"50 FAIRWAY LANE, FALMOUTH, MA, 2540","Match","Exact","50 FAIRWAY LN, FALMOUTH, MA, 02540",121571127,"R"
677054,"50 FAIRWAY OAKS DRIVE","SEDONA","AZ",86351,34.7861519250001,-111.770757076,54,"50 FAIRWAY OAKS DRIVE, SEDONA, AZ, 86351","Match","Exact","50 FAIRWAY OAKS DR, SEDONA, AZ, 86351",159475055,"L"
677055,"50 FALMOUTH DR","SHELTON","CT",6484,41.3063519660001,-73.111521867,55,"50 FALMOUTH DR, SHELTON, CT, 6484","Match","Exact","50 FALMOUTH DR, SHELTON, CT, 06484",3264786,"L"
677056,"50 FARRIS BRANCH ROAD","WALLINGFORD","KY",41093,38.3424747540001,-83.598186158,56,"50 FARRIS BRANCH ROAD, WALLINGFORD, KY, 41093","Match","Exact","50 FARRIS BRANCH RD, WALLINGFORD, KY, 41093",54404267,"R"
677057,"50 FEDERAL HILL","BREWSTER","NY",10509,41.409086631,-73.5560041319999,57,"50 FEDERAL HILL, BREWSTER, NY, 10509","Match","Non_Exact","50 FEDERAL HILL RD, BREWSTER, NY, 10509",139697388,"R"
677058,"50 FEDERAL ST 9TH FLOOR","BOSTON","MA",2119,NA,NA,58,"50 FEDERAL ST 9TH FLOOR, BOSTON, MA, 2119","No_Match",NA,NA,NA,NA
677059,"50 FEDERATION DR","BEDFORD","NH",3598,NA,NA,59,"50 FEDERATION DR, BEDFORD, NH, 3598","No_Match",NA,NA,NA,NA
677060,"50 FEILDMORE STREET","ELMONT","NY",11003,NA,NA,60,"50 FEILDMORE STREET, ELMONT, NY, 11003","No_Match",NA,NA,NA,NA
677061,"50 FENNER AVE","CLIFTON","NJ",7013,40.8929439670001,-74.1705595719999,61,"50 FENNER AVE, CLIFTON, NJ, 7013","Match","Exact","50 FENNER AVE, CLIFTON, NJ, 07013",65265337,"R"
677062,"50 FERNDALE DR","TERRE HAUTE","IN",47803,39.4603717090001,-87.3456543779999,62,"50 FERNDALE DR, TERRE HAUTE, IN, 47803","Match","Exact","50 FERNDALE DR, TERRE HAUTE, IN, 47803",27120052,"L"
677063,"50 FERRIER DRIVE","WARWICK","RI",2888,41.7480552530001,-71.38826811,63,"50 FERRIER DRIVE, WARWICK, RI, 2888","Match","Exact","50 FERRIER DR, WARWICK, RI, 02888",159148834,"L"
677064,"50 FERRY ST APT 1C","MIDDLETOWN","CT",6457,41.5639404520001,-72.650509518,64,"50 FERRY ST APT 1C, MIDDLETOWN, CT, 6457","Match","Exact","50 FERRY ST, MIDDLETOWN, CT, 06457",113889557,"L"
677065,"50 FERRY STREET APT 1C","MIDDLETOWN","CT",6457,41.5639404520001,-72.650509518,65,"50 FERRY STREET APT 1C, MIDDLETOWN, CT, 6457","Match","Exact","50 FERRY ST, MIDDLETOWN, CT, 06457",113889557,"L"
677066,"50 FIELDSTONE CIRCLE","MI","MA",2346,41.8116477120001,-70.8518872989999,66,"50 FIELDSTONE CIRCLE, MI, MA, 2346","Match","Non_Exact","50 FIELDSTONE CIR, MIDDLEBORO, MA, 02346",87465167,"L"
677067,"50 FIELDSTONE CIRCLE","MIDDLEBORO","MA",2562,NA,NA,67,"50 FIELDSTONE CIRCLE, MIDDLEBORO, MA, 2562","No_Match",NA,NA,NA,NA
677068,"50 FIELDSTONE ESTATES ROAD","YORK","ME",3909,43.159593027,-70.644036913,68,"50 FIELDSTONE ESTATES ROAD, YORK, ME, 3909","Match","Exact","50 FIELDSTONE ESTATES RD, YORK, ME, 03909",92746678,"R"
677069,"50 FIELDSTONE ROAD","BEDMINSTER","NJ",7921,40.650962867,-74.636132375,69,"50 FIELDSTONE ROAD, BEDMINSTER, NJ, 7921","Match","Exact","50 FIELDSTONE RD, BEDMINSTER, NJ, 07921",59946298,"R"
677070,"50 FIFTH AVE","ELYSBURG","PA",17824,40.869648173,-76.5531755649999,70,"50 FIFTH AVE, ELYSBURG, PA, 17824","Match","Exact","50 5TH AVE, ELYSBURG, PA, 17824",636456626,"R"
677071,"50 FISCHER LANE","PALM COAST","FL",32137,29.5639084920001,-81.216395486,71,"50 FISCHER LANE, PALM COAST, FL, 32137","Match","Exact","50 FISCHER LN, PALM COAST, FL, 32137",94948598,"R"
677072,"50 FITCH HILL AVE","FITCHBURG","MA",1420,42.5876522180001,-71.792345466,72,"50 FITCH HILL AVE, FITCHBURG, MA, 1420","Match","Exact","50 FITCH HILL AVE, FITCHBURG, MA, 01420",40028345,"L"
677073,"50 FLEMISH WAY","LUMBERTON","NJ",8048,39.9600819030001,-74.792065876,73,"50 FLEMISH WAY, LUMBERTON, NJ, 8048","Match","Exact","50 FLEMISH WAY, LUMBERTON, NJ, 08048",134074305,"R"
677074,"50 FLINT COURT","HARDY","VA",24101,37.149344049,-79.712825187,74,"50 FLINT COURT, HARDY, VA, 24101","Match","Exact","50 FLINT CT, HARDY, VA, 24101",56374533,"R"
677075,"50 FOOTHILL DR","LINCOLN PARK","NJ",7035,40.9185426230001,-74.3013619019999,75,"50 FOOTHILL DR, LINCOLN PARK, NJ, 7035","Match","Exact","50 FOOTHILL DR, LINCOLN PARK, NJ, 07035",60429160,"R"
677076,"50 FOREST AVE","WINTER HARBOR","ME",4693,44.393165201,-68.0921273399999,76,"50 FOREST AVE, WINTER HARBOR, ME, 4693","Match","Exact","50 FOREST AVE, WINTER HARBOR, ME, 04693",110257170,"R"
677077,"50 FOREST STREET APT 1218","STAMFORD","CT",6901,41.0565913830001,-73.535515902,77,"50 FOREST STREET APT 1218, STAMFORD, CT, 6901","Match","Exact","50 FOREST ST, STAMFORD, CT, 06901",3245553,"L"
677078,"50 FORSHAY RD","MONSEY","NY",10952,41.14335492,-74.0826771019999,78,"50 FORSHAY RD, MONSEY, NY, 10952","Match","Exact","50 FORSHAY RD, MONSEY, NY, 10952",653884959,"R"
677079,"50 FORT PLACE APT B1E","STATEN ISLAND","NY",10301,40.641789395,-74.07999044,79,"50 FORT PLACE APT B1E, STATEN ISLAND, NY, 10301","Match","Exact","50 FORT PL, STATEN ISLAND, NY, 10301",59878864,"L"
677080,"50 FOSTER ROAD","SHARON HILL","PA",19079,39.908014419,-75.277462025,80,"50 FOSTER ROAD, SHARON HILL, PA, 19079","Match","Non_Exact","50 FOSTER AVE, SHARON HILL, PA, 19079",134885056,"R"
677081,"50 FOSTER STREET","CAMBRIDGE","MA",2138,42.3759112130001,-71.129481433,81,"50 FOSTER STREET, CAMBRIDGE, MA, 2138","Match","Exact","50 FOSTER ST, CAMBRIDGE, MA, 02138",635530460,"L"
677082,"50 FOUNTAIN PLAZA 1400","BUFFALO","NY",14202,NA,NA,82,"50 FOUNTAIN PLAZA 1400, BUFFALO, NY, 14202","No_Match",NA,NA,NA,NA
677083,"50 FOUNTAIN PLAZA SUITE 1700","BUFFALO","NY",14202,NA,NA,83,"50 FOUNTAIN PLAZA SUITE 1700, BUFFALO, NY, 14202","No_Match",NA,NA,NA,NA
677084,"50 FOUNTAIN PLAZA","BUFFALO","NY",14202,NA,NA,84,"50 FOUNTAIN PLAZA, BUFFALO, NY, 14202","No_Match",NA,NA,NA,NA
677085,"50 FOUNTAIN VALLEY CT","SAINT PETERS","MO",63376,38.7747296260001,-90.655986694,85,"50 FOUNTAIN VALLEY CT, SAINT PETERS, MO, 63376","Match","Exact","50 FOUNTAIN VALLEY CT, SAINT PETERS, MO, 63376",617977652,"R"
677086,"50 FOURTH AVE 396","DAYTON","NV",89403,39.2402426850001,-119.589685483,86,"50 FOURTH AVE 396, DAYTON, NV, 89403","Match","Exact","50 4TH AVE, DAYTON, NV, 89403",140340621,"R"
677087,"50 FOX RUN RD","EAST FALMOUTH","MA",2536,41.6133727230001,-70.5637183649999,87,"50 FOX RUN RD, EAST FALMOUTH, MA, 2536","Match","Non_Exact","50 FOX RUN LN, EAST FALMOUTH, MA, 02536",121589040,"R"
677088,"50 FRANKLIN ST APT 16B","NYC","NY",10013,40.7170604350001,-74.0027239569999,88,"50 FRANKLIN ST APT 16B, NYC, NY, 10013","Match","Exact","50 FRANKLIN ST, NEW YORK, NY, 10013",59660397,"R"
677089,"50 FRANKLIN ST APT 2C","NEW YORK","NY",10013,40.7170604350001,-74.0027239569999,89,"50 FRANKLIN ST APT 2C, NEW YORK, NY, 10013","Match","Exact","50 FRANKLIN ST, NEW YORK, NY, 10013",59660397,"R"
677090,"50 FRANKLIN ST","FRAMINGHAM","MA",1702,42.2779254970001,-71.4178351689999,90,"50 FRANKLIN ST, FRAMINGHAM, MA, 1702","Match","Exact","50 FRANKLIN ST, FRAMINGHAM, MA, 01702",86850280,"L"
677091,"50 FRANKLIN STREET","WEATHERLY","PA",18255,40.941337989,-75.8358210609999,91,"50 FRANKLIN STREET, WEATHERLY, PA, 18255","Match","Exact","50 FRANKLIN ST, WEATHERLY, PA, 18255",80624657,"R"
677092,"50 FRANKLIN","FRAMINGHAM","MA",1702,42.2779254970001,-71.4178351689999,92,"50 FRANKLIN, FRAMINGHAM, MA, 1702","Match","Non_Exact","50 FRANKLIN ST, FRAMINGHAM, MA, 01702",86850280,"L"
677093,"50 FREDERICK STREET","RUMFORD","RI",2916,41.8442180060001,-71.362516926,93,"50 FREDERICK STREET, RUMFORD, RI, 2916","Match","Exact","50 FREDERICK ST, RUMFORD, RI, 02916",47473677,"L"
677094,"50 FREDERICKSBURG CT NE","NORTH CANTON","OH",44720,40.8764861270001,-81.392829852,94,"50 FREDERICKSBURG CT NE, NORTH CANTON, OH, 44720","Match","Non_Exact","50 FREDRICKSBURG CT NE, NORTH CANTON, OH, 44720",64719080,"L"
677095,"50 FREEMAN AVENUE","EAST ORANGE","NJ",7018,40.7539610160001,-74.214749059,95,"50 FREEMAN AVENUE, EAST ORANGE, NJ, 7018","Match","Exact","50 FREEMAN AVE, EAST ORANGE, NJ, 07018",63456067,"L"
677096,"50 FRONT ST APT 223","BINGHAMTON","NY",13905,42.095176114,-75.91871595,96,"50 FRONT ST APT 223, BINGHAMTON, NY, 13905","Match","Exact","50 FRONT ST, BINGHAMTON, NY, 13905",46362339,"R"
677097,"50 FROST STREET","FRAMINGHAM","MA",1701,42.319639609,-71.430247451,97,"50 FROST STREET, FRAMINGHAM, MA, 1701","Match","Exact","50 FROST ST, FRAMINGHAM, MA, 01701",86847084,"L"
677098,"50 FROST","FRAMINGHAM","MA",1701,42.319639609,-71.430247451,98,"50 FROST, FRAMINGHAM, MA, 1701","Match","Non_Exact","50 FROST ST, FRAMINGHAM, MA, 01701",86847084,"L"
677099,"50 FRUIT STREET","BOSTON","MA",2114,42.362418281,-71.069748757,99,"50 FRUIT STREET, BOSTON, MA, 2114","Match","Exact","50 FRUIT ST, BOSTON, MA, 02114",642551691,"L"
677100,"50 GALLISON SREET","FRANKLIN","MA",2038,42.0715766450001,-71.405846605,100,"50 GALLISON SREET, FRANKLIN, MA, 2038","Match","Non_Exact","50 GALLISON ST, FRANKLIN, MA, 02038",87260176,"R"
677101,"50 GALLISON STREET","FRANKLIN","MA",2038,42.0715766450001,-71.405846605,101,"50 GALLISON STREET, FRANKLIN, MA, 2038","Match","Exact","50 GALLISON ST, FRANKLIN, MA, 02038",87260176,"R"
677102,"50 GARDEN RD","POMPTON LAKES","NJ",7442,40.997235663,-74.296926291,102,"50 GARDEN RD, POMPTON LAKES, NJ, 7442","Match","Exact","50 GARDEN RD, POMPTON LAKES, NJ, 07442",65255881,"R"
677103,"50 GARFIELD ST","NEWARK","NY",14513,43.045347425,-77.07282069,103,"50 GARFIELD ST, NEWARK, NY, 14513","Match","Exact","50 GARFIELD ST, NEWARK, NY, 14513",14923134,"L"
677104,"50 GATES AVENUE APT 3","BROOKLYN","NY",11238,40.6843821040001,-73.9664706149999,104,"50 GATES AVENUE APT 3, BROOKLYN, NY, 11238","Match","Exact","50 GATES AVE, BROOKLYN, NY, 11238",59077990,"R"
677105,"50 GEIL ST","SALINAS","CA",93901,36.6659666090001,-121.658266419,105,"50 GEIL ST, SALINAS, CA, 93901","Match","Exact","50 GEIL ST, SALINAS, CA, 93901",196819918,"R"
677106,"50 GEORGE APPLEBAY WAY HGR 94","MORIARTY","NM",87035,NA,NA,106,"50 GEORGE APPLEBAY WAY HGR 94, MORIARTY, NM, 87035","No_Match",NA,NA,NA,NA
677107,"50 GEORGE SCHAEFFER ST","WAKEFIELD","RI",2879,41.4508545690001,-71.508264507,107,"50 GEORGE SCHAEFFER ST, WAKEFIELD, RI, 2879","Match","Exact","50 GEORGE SCHAEFFER ST, WAKEFIELD, RI, 02879",58912833,"R"
677108,"50 GEORGE STREET APT 212-B","CHARLESTON","SC",29401,32.7840610160001,-79.935542535,108,"50 GEORGE STREET APT 212-B, CHARLESTON, SC, 29401","Match","Exact","50 GEORGE ST, CHARLESTON, SC, 29401",639341276,"R"
677109,"50 GERALD AVE","BUFFALO","NY",14215,42.9251205830001,-78.8118040969999,109,"50 GERALD AVE, BUFFALO, NY, 14215","Match","Exact","50 GERALD AVE, BUFFALO, NY, 14215",48297383,"L"
677110,"50 GILES ROAD","EAST KINGSTON","NH",3827,42.948201689,-70.991641611,110,"50 GILES ROAD, EAST KINGSTON, NH, 3827","Match","Exact","50 GILES RD, EAST KINGSTON, NH, 03827",113710554,"L"
677111,"50 GLAY CT","COVINGTON","GA",30016,NA,NA,111,"50 GLAY CT, COVINGTON, GA, 30016","No_Match",NA,NA,NA,NA
677112,"50 GLEESON STREET","TORRINGTON","CT",6790,41.8071650320001,-73.127612923,112,"50 GLEESON STREET, TORRINGTON, CT, 6790","Match","Exact","50 GLEESON ST, TORRINGTON, CT, 06790",3119859,"R"
677113,"50 GLEN BYRON AVENUE","SOUTH NYACK","NY",10960,41.0788796410001,-73.9179636699999,113,"50 GLEN BYRON AVENUE, SOUTH NYACK, NY, 10960","Match","Non_Exact","50 GLEN BYRON AVE, NYACK, NY, 10960",124600857,"R"
677114,"50 GLENBROOK AVE","SAN FRANCISCO","CA",94118,37.757830928,-122.449892908,114,"50 GLENBROOK AVE, SAN FRANCISCO, CA, 94118","Match","Non_Exact","50 GLENBROOK AVE, SAN FRANCISCO, CA, 94114",192282918,"R"
677115,"50 GLENMEAD COURT","MOUNTAIN VIEW","CA",94040,37.403718483,-122.101572191,115,"50 GLENMEAD COURT, MOUNTAIN VIEW, CA, 94040","Match","Exact","50 GLENMEAD CT, MOUNTAIN VIEW, CA, 94040",636090708,"L"
677116,"50 GLENTHORNE ROAD","ROCHESTER","NY",14615,43.2074026080001,-77.640020131,116,"50 GLENTHORNE ROAD, ROCHESTER, NY, 14615","Match","Exact","50 GLENTHORNE RD, ROCHESTER, NY, 14615",14531704,"R"
677117,"50 GLORIA AVE","DRACUT","MA",1826,42.6888174790001,-71.325857291,117,"50 GLORIA AVE, DRACUT, MA, 1826","Match","Exact","50 GLORIA AVE, DRACUT, MA, 01826",86875223,"L"
677118,"50 GLYNNSHIER COURT","COVINGTON","GA",30016,33.569630902,-83.982589188,118,"50 GLYNNSHIER COURT, COVINGTON, GA, 30016","Match","Non_Exact","50 GLYNNSHIRE CT, COVINGTON, GA, 30016",635647110,"L"
677119,"50 GODFREY","BUFFALO","NY",14215,42.938465148,-78.805177552,119,"50 GODFREY, BUFFALO, NY, 14215","Match","Non_Exact","50 GODFREY ST, BUFFALO, NY, 14215",48359157,"L"
677120,"50 GOLDENROD DR","WHISPERING PINES","NC",28327,35.2550762610001,-79.3525117729999,120,"50 GOLDENROD DR, WHISPERING PINES, NC, 28327","Match","Exact","50 GOLDENROD DR, WHISPERING PINES, NC, 28327",20345555,"R"
677121,"50 GOODMAN DR","MIDDLETOWN","CT",6457,41.5782759320001,-72.695489244,121,"50 GOODMAN DR, MIDDLETOWN, CT, 6457","Match","Exact","50 GOODMAN DR, MIDDLETOWN, CT, 06457",113904702,"R"
677122,"50 GORDON ST APT 2","ALLSTON","MA",2134,42.3513839570001,-71.1400733,122,"50 GORDON ST APT 2, ALLSTON, MA, 2134","Match","Exact","50 GORDON ST, ALLSTON, MA, 02134",85695515,"L"
677123,"50 GRACE AVENUE","WARWICK","RI",2889,41.724859204,-71.3817530589999,123,"50 GRACE AVENUE, WARWICK, RI, 2889","Match","Exact","50 GRACE AVE, WARWICK, RI, 02889",159150186,"L"
677124,"50 GRANDVIEW BLVD","READING","PA",19609,40.332109954,-75.983717332,124,"50 GRANDVIEW BLVD, READING, PA, 19609","Match","Exact","50 GRANDVIEW BLVD, READING, PA, 19609",80372441,"R"
677125,"50 GRAVEL HILL RD","ASBURY","NJ",8802,40.632038729,-75.023987445,125,"50 GRAVEL HILL RD, ASBURY, NJ, 8802","Match","Exact","50 GRAVEL HILL RD, ASBURY, NJ, 08802",60023123,"R"
677126,"50 GREEN HILL ROAD","BREVARD","NC",28712,35.1727699190001,-82.7100328499999,126,"50 GREEN HILL ROAD, BREVARD, NC, 28712","Match","Exact","50 GREEN HILL RD, BREVARD, NC, 28712",647183793,"L"
677127,"50 GREENFIELD COURT","FRONT ROYAL","VA",22630,38.904514244,-78.1295866299999,127,"50 GREENFIELD COURT, FRONT ROYAL, VA, 22630","Match","Exact","50 GREENFIELD CT, FRONT ROYAL, VA, 22630",159091823,"R"
677128,"50 GREENTREE ST","HOMOSASSA","FL",34446,28.728064924,-82.540454607,128,"50 GREENTREE ST, HOMOSASSA, FL, 34446","Match","Exact","50 GREENTREE ST, HOMOSASSA, FL, 34446",86208621,"L"
677129,"50 GREENWICH STREET","LUDLOW","MA",1056,42.1618758110001,-72.473534259,129,"50 GREENWICH STREET, LUDLOW, MA, 1056","Match","Exact","50 GREENWICH ST, LUDLOW, MA, 01056",638998110,"R"
677130,"50 GREENWOOD AVE A4","MONTCLAIR","NJ",7042,40.8133556700001,-74.212383382,130,"50 GREENWOOD AVE A4, MONTCLAIR, NJ, 7042","Match","Exact","50 GREENWOOD AVE, MONTCLAIR, NJ, 07042",63448883,"L"
677131,"50 GREENWOOD PLACE / UPPER","BUFFALO","NY",14213,42.921729843,-78.8889615799999,131,"50 GREENWOOD PLACE / UPPER, BUFFALO, NY, 14213","Match","Exact","50 GREENWOOD PL, BUFFALO, NY, 14213",48288835,"L"
677132,"50 GREER ST","PRESTONBURG","KY",41653,37.666607539,-82.7355381359999,132,"50 GREER ST, PRESTONBURG, KY, 41653","Match","Non_Exact","50 GREER ST, PRESTONSBURG, KY, 41653",33618442,"L"
677133,"50 GRISWOLD DRIVE","WEST HARTFORD","CT",6119,41.771283237,-72.7342169469999,133,"50 GRISWOLD DRIVE, WEST HARTFORD, CT, 6119","Match","Exact","50 GRISWOLD DR, WEST HARTFORD, CT, 06119",3493701,"R"
677134,"50 GROCE STREET","MACHIAS","ME",4654,NA,NA,134,"50 GROCE STREET, MACHIAS, ME, 4654","No_Match",NA,NA,NA,NA
677135,"50 GROVE AVENUE","ALBANY","NY",12208,42.6522682840001,-73.787191725,135,"50 GROVE AVENUE, ALBANY, NY, 12208","Match","Exact","50 GROVE AVE, ALBANY, NY, 12208",18308906,"L"
677136,"50 GROVE STREET","ELMWOOD PARK","NJ",7407,40.9053027320001,-74.125648021,136,"50 GROVE STREET, ELMWOOD PARK, NJ, 7407","Match","Exact","50 GROVE ST, ELMWOOD PARK, NJ, 07407",64413083,"R"
677137,"50 GUILES ROAD","BARTON","NY",13734,42.1152866910001,-76.375242301,137,"50 GUILES ROAD, BARTON, NY, 13734","Match","Exact","50 GUILES RD, BARTON, NY, 13734",46714960,"L"
677138,"50 GUILFORD DR","WARWICK","RI",2886,41.7325435700001,-71.438022463,138,"50 GUILFORD DR, WARWICK, RI, 2886","Match","Exact","50 GUILFORD DR, WARWICK, RI, 02886",159146364,"L"
677139,"50 GUION PL","NEW ROCHELLE","NY",10801,40.9138473620001,-73.7877595799999,139,"50 GUION PL, NEW ROCHELLE, NY, 10801","Match","Exact","50 GUION PL, NEW ROCHELLE, NY, 10801",139842792,"L"
677140,"50 HAFER DRIVE","LEESPORT","PA",19533,40.4498045180001,-75.9628201199999,140,"50 HAFER DRIVE, LEESPORT, PA, 19533","Match","Non_Exact","50 E HAFER DR, LEESPORT, PA, 19533",634775246,"L"
677141,"50 HALL ROAD","CHELTENHAM, ENGLAND",NA,NA,NA,NA,141,"50 HALL ROAD, CHELTENHAM, ENGLAND, , ","No_Match",NA,NA,NA,NA
677142,"50 HALSEY STREET 336H","NEWARK","NJ",7102,40.740992088,-74.170992084,142,"50 HALSEY STREET 336H, NEWARK, NJ, 7102","Match","Exact","50 HALSEY ST, NEWARK, NJ, 07102",63467439,"L"
677143,"50 HALSEY STREET 420H","NEWARK","NJ",7102,40.740992088,-74.170992084,143,"50 HALSEY STREET 420H, NEWARK, NJ, 7102","Match","Exact","50 HALSEY ST, NEWARK, NJ, 07102",63467439,"L"
677144,"50 HALSEY STREET 472H","NEWARK","NJ",7102,40.740992088,-74.170992084,144,"50 HALSEY STREET 472H, NEWARK, NJ, 7102","Match","Exact","50 HALSEY ST, NEWARK, NJ, 07102",63467439,"L"
677145,"50 HALSEY STREET","NEWARK","NJ",7102,40.740992088,-74.170992084,145,"50 HALSEY STREET, NEWARK, NJ, 7102","Match","Exact","50 HALSEY ST, NEWARK, NJ, 07102",63467439,"L"
677146,"50 HAMILTON WAY","YARMOUTH","ME",4096,43.758563968,-70.1472343729999,146,"50 HAMILTON WAY, YARMOUTH, ME, 4096","Match","Exact","50 HAMILTON WAY, YARMOUTH, ME, 04096",78041734,"R"
677147,"50 HAMPSHIRE GLEN PARKWAY","HAMPTON","VA",23669,37.0236516000001,-76.371942952,147,"50 HAMPSHIRE GLEN PARKWAY, HAMPTON, VA, 23669","Match","Exact","50 HAMPSHIRE GLEN PKWY, HAMPTON, VA, 23669",639728632,"R"
677148,"50 HAMPSHIRE GLEN PKWY","HAMPTON","VA",23669,37.0236516000001,-76.371942952,148,"50 HAMPSHIRE GLEN PKWY, HAMPTON, VA, 23669","Match","Exact","50 HAMPSHIRE GLEN PKWY, HAMPTON, VA, 23669",639728632,"R"
677149,"50 HARDING STREET","EWING","NJ",8618,40.266728959,-74.787211016,149,"50 HARDING STREET, EWING, NJ, 8618","Match","Non_Exact","50 HARDING AVE, EWING, NJ, 08618",60176639,"R"
677150,"50 HAREWOOD CT","AIKEN","SC",29803,33.4549422640001,-81.7434736069999,150,"50 HAREWOOD CT, AIKEN, SC, 29803","Match","Exact","50 HAREWOOD CT, AIKEN, SC, 29803",65008631,"R"
677151,"50 HARRELL AVENUE","WILLIAMSTOWN","NJ",8094,39.702192295,-75.012472928,151,"50 HARRELL AVENUE, WILLIAMSTOWN, NJ, 8094","Match","Exact","50 HARRELL AVE, WILLIAMSTOWN, NJ, 08094",636220337,"L"
677152,"50 HARRINGTON RD","BROAD BROOK","CT",6016,41.9260696580001,-72.554961567,152,"50 HARRINGTON RD, BROAD BROOK, CT, 6016","Match","Exact","50 HARRINGTON RD, BROAD BROOK, CT, 06016",623942343,"L"
677153,"50 HARRINGTON RD","OTIS","MA",1253,42.199275646,-73.1086394399999,153,"50 HARRINGTON RD, OTIS, MA, 1253","Match","Exact","50 HARRINGTON RD, OTIS, MA, 01253",3948508,"R"
677154,"50 HARRY S TRUMAN PARKWAY","ANNAPOLIS","MD",21401,38.9816053270001,-76.564294848,154,"50 HARRY S TRUMAN PARKWAY, ANNAPOLIS, MD, 21401","Match","Exact","50 HARRY S TRUMAN PKWY, ANNAPOLIS, MD, 21401",606913295,"L"
677155,"50 HARTFORD STREET","FRAMINGHAM","MA",1702,NA,NA,155,"50 HARTFORD STREET, FRAMINGHAM, MA, 1702","No_Match",NA,NA,NA,NA
677156,"50 HASLEY STREET APT 431H","NEWARK","NJ",7102,NA,NA,156,"50 HASLEY STREET APT 431H, NEWARK, NJ, 7102","No_Match",NA,NA,NA,NA
677157,"50 HAUOLI ST APT 107","WAILUKU","HI",96793,20.793634679,-156.50913281,157,"50 HAUOLI ST APT 107, WAILUKU, HI, 96793","Match","Exact","50 HAUOLI ST, WAILUKU, HI, 96793",636131873,"R"
677158,"50 HAWKINS LANE","GILMANTON IRON WORKS","NH",3837,43.3803158630001,-71.348292557,158,"50 HAWKINS LANE, GILMANTON IRON WORKS, NH, 3837","Match","Exact","50 HAWKINS LN, GILMANTON IRON WORKS, NH, 03837",145507079,"L"
677159,"50 HAWTHORN KNOLL","CAMBRIDGE","VT",5444,44.584353837,-72.858352327,159,"50 HAWTHORN KNOLL, CAMBRIDGE, VT, 5444","Match","Exact","50 HAWTHORN KNOLL, CAMBRIDGE, VT, 05444",631807759,"R"
677160,"50 HAWTHORNE AVENUE APT C0-16","YONKERS","NY",10701,40.9314747070001,-73.9022210379999,160,"50 HAWTHORNE AVENUE APT C0-16, YONKERS, NY, 10701","Match","Exact","50 HAWTHORNE AVE, YONKERS, NY, 10701",611255104,"L"
677161,"50 HAWTHORNE WAY","SAN JOSE","CA",95110,37.344200363,-121.898059943,161,"50 HAWTHORNE WAY, SAN JOSE, CA, 95110","Match","Exact","50 HAWTHORNE WAY, SAN JOSE, CA, 95110",652204203,"L"
677162,"50 HEIGHT STREET","MARIETTA","GA",30060,33.9526503320001,-84.539639946,162,"50 HEIGHT STREET, MARIETTA, GA, 30060","Match","Exact","50 HEIGHT ST, MARIETTA, GA, 30060",17176257,"R"
677163,"50 HEIGHTS OF HILL STREET","WHITINSVILLE","MA",1588,42.129881766,-71.671201853,163,"50 HEIGHTS OF HILL STREET, WHITINSVILLE, MA, 1588","Match","Exact","50 HEIGHTS OF HILL ST, WHITINSVILLE, MA, 01588",40062015,"R"
677164,"50 HEMLOCK DRIVE","EAST HILLS","NY",11576,40.802923209,-73.6337983129999,164,"50 HEMLOCK DRIVE, EAST HILLS, NY, 11576","Match","Non_Exact","50 HEMLOCK DR, ROSLYN, NY, 11576",147663757,"L"
677165,"50 HEMPHILL RD UNIT 8","ASHEVILLE","NC",28803,35.562849251,-82.485108737,165,"50 HEMPHILL RD UNIT 8, ASHEVILLE, NC, 28803","Match","Exact","50 HEMPHILL RD, ASHEVILLE, NC, 28803",36887532,"L"
677166,"50 HENDRICKSON AVENUE","VALLEY STREAM","NY",11580,40.6749097910001,-73.695387543,166,"50 HENDRICKSON AVENUE, VALLEY STREAM, NY, 11580","Match","Exact","50 HENDRICKSON AVE, VALLEY STREAM, NY, 11580",147669964,"L"
677167,"50 HERBERT STREET APT 1R","BROOKLYN","NY",11222,40.7198542900001,-73.943432521,167,"50 HERBERT STREET APT 1R, BROOKLYN, NY, 11222","Match","Exact","50 HERBERT ST, BROOKLYN, NY, 11222",59077008,"R"
677168,"50 HICKORY HAMMOCK RD","LAKE WALES","FL",33859,27.9498302330001,-81.596147602,168,"50 HICKORY HAMMOCK RD, LAKE WALES, FL, 33859","Match","Exact","50 HICKORY HAMMOCK RD, LAKE WALES, FL, 33859",104888460,"L"
677169,"50 HICKS AVE APT 12","MEDFORD","MA",2155,42.4013513370001,-71.102541946,169,"50 HICKS AVE APT 12, MEDFORD, MA, 2155","Match","Exact","50 HICKS AVE, MEDFORD, MA, 02155",87092675,"L"
677170,"50 HICKS AVE NUM 12","MEDFORD","MA",2155,42.4013513370001,-71.102541946,170,"50 HICKS AVE NUM 12, MEDFORD, MA, 2155","Match","Exact","50 HICKS AVE, MEDFORD, MA, 02155",87092675,"L"
677171,"50 HICKS AVE","MEDFORD","MA",2155,42.4013513370001,-71.102541946,171,"50 HICKS AVE, MEDFORD, MA, 2155","Match","Exact","50 HICKS AVE, MEDFORD, MA, 02155",87092675,"L"
677172,"50 HIDDEN CREEK RD","OXFORD","OH",45056,39.5055806300001,-84.769133946,172,"50 HIDDEN CREEK RD, OXFORD, OH, 45056","Match","Exact","50 HIDDEN CREEK RD, OXFORD, OH, 45056",113817629,"R"
677173,"50 HIDDEN GLEN DR","SPARTA","NJ",7871,41.046371122,-74.575709085,173,"50 HIDDEN GLEN DR, SPARTA, NJ, 7871","Match","Exact","50 HIDDEN GLEN DR, SPARTA, NJ, 07871",98015984,"L"
677174,"50 HIDDEN LAKE DR","STAFFORD","VA",22556,38.5125486320001,-77.554607383,174,"50 HIDDEN LAKE DR, STAFFORD, VA, 22556","Match","Exact","50 HIDDEN LAKE DR, STAFFORD, VA, 22556",640934799,"L"
677175,"50 HIDDEN VALLEY RD","BLYTHE","CA",92225,NA,NA,175,"50 HIDDEN VALLEY RD, BLYTHE, CA, 92225","No_Match",NA,NA,NA,NA
677176,"50 HIDING PLACE RD","LIBBY","MT",59923,NA,NA,176,"50 HIDING PLACE RD, LIBBY, MT, 59923","No_Match",NA,NA,NA,NA
677177,"50 HIGH ST","GROTON","CT",6340,41.3226195670001,-71.99027876,177,"50 HIGH ST, GROTON, CT, 6340","Match","Exact","50 HIGH ST, GROTON, CT, 06340",56853121,"R"
677178,"50 HIGH STREET","SOUTH PORTLAND","ME",4106,43.6477918460001,-70.2386699309999,178,"50 HIGH STREET, SOUTH PORTLAND, ME, 4106","Match","Exact","50 HIGH ST, SOUTH PORTLAND, ME, 04106",78032376,"R"
677179,"50 HIGHLAND AVE","SAN FRANCISCO","CA",14572,37.737335203,-122.424321816,179,"50 HIGHLAND AVE, SAN FRANCISCO, CA, 14572","Match","Non_Exact","50 HIGHLAND AVE, SAN FRANCISCO, CA, 94110",192297756,"R"
677180,"50 HIGHLAND BLVD","KENSINGTON","CA",94707,37.9154282060001,-122.280452325,180,"50 HIGHLAND BLVD, KENSINGTON, CA, 94707","Match","Exact","50 HIGHLAND BLVD, KENSINGTON, CA, 94707",192044190,"R"
677181,"50 HIGHTOWER CHURCH RD","DAHLONEGA","GA",30533,34.557826821,-84.057162125,181,"50 HIGHTOWER CHURCH RD, DAHLONEGA, GA, 30533","Match","Exact","50 HIGHTOWER CHURCH RD, DAHLONEGA, GA, 30533",649340788,"R"
677182,"50 HILL RD S","PICKERINGTON","OH",43147,39.88277349,-82.759137573,182,"50 HILL RD S, PICKERINGTON, OH, 43147","Match","Exact","50 HILL RD S, PICKERINGTON, OH, 43147",37235028,"R"
677183,"50 HILL ST 287","SOUTHAMPTON","NY",11968,40.8835808220001,-72.394288433,183,"50 HILL ST 287, SOUTHAMPTON, NY, 11968","Match","Exact","50 HILL ST, SOUTHAMPTON, NY, 11968",114030056,"R"
677184,"50 HILLSIDE AVENUE","PRINCETON","NV",8540,NA,NA,184,"50 HILLSIDE AVENUE, PRINCETON, NV, 8540","No_Match",NA,NA,NA,NA
677185,"50 HILLTOP ROAD","SHORT HILLS","NJ",7078,40.740375068,-74.31642528,185,"50 HILLTOP ROAD, SHORT HILLS, NJ, 7078","Match","Exact","50 HILLTOP RD, SHORT HILLS, NJ, 07078",647616217,"L"
677186,"50 HOBSON AVE","MILFORD","CT",6460,41.196171221,-73.0987953439999,186,"50 HOBSON AVE, MILFORD, CT, 6460","Match","Exact","50 HOBSON AVE, MILFORD, CT, 06460",3713778,"L"
677187,"50 HODGDON ST","DAMARISCOTTA","ME",4543,44.0346266540001,-69.522524416,187,"50 HODGDON ST, DAMARISCOTTA, ME, 4543","Match","Exact","50 HODGDON ST, DAMARISCOTTA, ME, 04543",75306308,"L"
677188,"50 HOLCOMB AVE","STAMFORD","CT",6906,41.064549357,-73.5307612679999,188,"50 HOLCOMB AVE, STAMFORD, CT, 6906","Match","Exact","50 HOLCOMB AVE, STAMFORD, CT, 06906",610225731,"L"
677189,"50 HOLLYWOOD AVENUE","ROCHESTER","NY",14618,43.1277210920001,-77.567743766,189,"50 HOLLYWOOD AVENUE, ROCHESTER, NY, 14618","Match","Exact","50 HOLLYWOOD AVE, ROCHESTER, NY, 14618",14543088,"L"
677190,"50 HOLWORTHY STREET","CAMBRIDGE","MA",2138,42.375919648,-71.150143427,190,"50 HOLWORTHY STREET, CAMBRIDGE, MA, 2138","Match","Exact","50 HOLWORTHY ST, CAMBRIDGE, MA, 02138",86892042,"L"
677191,"50 HOME RD S","ONTARIO","OH",44906,NA,NA,191,"50 HOME RD S, ONTARIO, OH, 44906","No_Match",NA,NA,NA,NA
677192,"50 HONEY LOCUST CIR","HILTON HEAD ISLAND","SC",29926,32.2473302770001,-80.708150722,192,"50 HONEY LOCUST CIR, HILTON HEAD ISLAND, SC, 29926","Match","Exact","50 HONEY LOCUST CIR, HILTON HEAD ISLAND, SC, 29926",87652601,"L"
677193,"50 HONEY SUCKLE DRIVE","LAMAR","SC",29069,34.233946444,-80.135710777,193,"50 HONEY SUCKLE DRIVE, LAMAR, SC, 29069","Match","Non_Exact","50 HONEYSUCKLE LN, LAMAR, SC, 29069",79598683,"L"
677194,"50 HONEYSUCKLE RIDGE ROAD","ROME","GA",30161,34.212397556,-85.132858782,194,"50 HONEYSUCKLE RIDGE ROAD, ROME, GA, 30161","Match","Non_Exact","50 HONEYSUCKLE RIDGE RD SE, ROME, GA, 30161",642738335,"L"
677195,"50 HOPE CHAPEL ROAD","JACKSON","NJ",8527,40.088039558,-74.2673079689999,195,"50 HOPE CHAPEL ROAD, JACKSON, NJ, 8527","Match","Exact","50 HOPE CHAPEL RD, JACKSON, NJ, 08527",203719552,"R"
677196,"50 HORGAN AVE APT 38","REDWOOD CITY","CA",94061,37.463519804,-122.222537747,196,"50 HORGAN AVE APT 38, REDWOOD CITY, CA, 94061","Match","Exact","50 HORGAN AVE, REDWOOD CITY, CA, 94061",604978816,"R"
677197,"50 HOUTZ LN","PORT MATILDA","PA",16870,40.7923503170001,-78.014658195,197,"50 HOUTZ LN, PORT MATILDA, PA, 16870","Match","Exact","50 HOUTZ LN, PORT MATILDA, PA, 16870",50395404,"L"
677198,"50 HOYTS WHARF","GROTON","MA",1450,42.6225378240001,-71.5080454179999,198,"50 HOYTS WHARF, GROTON, MA, 1450","Match","Non_Exact","50 HOYTS WHARF RD, GROTON, MA, 01450",86835980,"L"
677199,"50 HUDSON BRANCH DRIVE","FREDERICA","DE",19946,39.033701002,-75.5101965859999,199,"50 HUDSON BRANCH DRIVE, FREDERICA, DE, 19946","Match","Exact","50 HUDSON BRANCH DR, FREDERICA, DE, 19946",68102106,"L"
677200,"50 HUFFMAN AVENUE","WASHINGTON","PA",15301,40.160507796,-80.244049757,200,"50 HUFFMAN AVENUE, WASHINGTON, PA, 15301","Match","Exact","50 HUFFMAN AVE, WASHINGTON, PA, 15301",52838315,"L"
677201,"50 HUMPHREY ST","NEW HAVEN","CT",6513,NA,NA,201,"50 HUMPHREY ST, NEW HAVEN, CT, 6513","No_Match",NA,NA,NA,NA
677202,"50 HUNT CLUB DR  APT 307","COPLEY","OH",44321,41.134205057,-81.655116295,202,"50 HUNT CLUB DR  APT 307, COPLEY, OH, 44321","Match","Exact","50 HUNT CLUB DR, COPLEY, OH, 44321",61393344,"R"
677203,"50 HUNT CLUB DRIVE APT 109","AKRON","OH",44321,41.134205057,-81.655116295,203,"50 HUNT CLUB DRIVE APT 109, AKRON, OH, 44321","Match","Exact","50 HUNT CLUB DR, AKRON, OH, 44321",61393344,"R"
677204,"50 HUNTER CREEK DRIVE","YORK","PA",17406,40.0582766320001,-76.7674386209999,204,"50 HUNTER CREEK DRIVE, YORK, PA, 17406","Match","Exact","50 HUNTER CREEK DR, YORK, PA, 17406",624725321,"L"
677205,"50 HURLBURT ROAD","GREAT BARRINGTON","MA",1230,42.2013243860001,-73.389524563,205,"50 HURLBURT ROAD, GREAT BARRINGTON, MA, 1230","Match","Exact","50 HURLBURT RD, GREAT BARRINGTON, MA, 01230",636913215,"L"
677206,"50 HURT PLAZA SE STE 1640","ATLANTA","GA",30303,33.75414506,-84.387573925,206,"50 HURT PLAZA SE STE 1640, ATLANTA, GA, 30303","Match","Exact","50 HURT PLZ SE, ATLANTA, GA, 30303",17344557,"L"
677207,"50 HURT PLAZA SE SUITE 1428","ATLANTA","GA",30303,33.75414506,-84.387573925,207,"50 HURT PLAZA SE SUITE 1428, ATLANTA, GA, 30303","Match","Exact","50 HURT PLZ SE, ATLANTA, GA, 30303",17344557,"L"
677208,"50 HURT PLAZA SE","ATLANTA","GA",30303,33.75414506,-84.387573925,208,"50 HURT PLAZA SE, ATLANTA, GA, 30303","Match","Exact","50 HURT PLZ SE, ATLANTA, GA, 30303",17344557,"L"
677209,"50 HURT PLAZA STE 1541","ATLANTA","GA",30303,33.75414506,-84.387573925,209,"50 HURT PLAZA STE 1541, ATLANTA, GA, 30303","Match","Non_Exact","50 HURT PLZ SE, ATLANTA, GA, 30303",17344557,"L"
677210,"50 HURT PLAZA SUITE 1440","ATLANTA","GA",30303,33.75414506,-84.387573925,210,"50 HURT PLAZA SUITE 1440, ATLANTA, GA, 30303","Match","Non_Exact","50 HURT PLZ SE, ATLANTA, GA, 30303",17344557,"L"
677211,"50 HURT PLZ SUITE 1440","ATLANTA","GA",30303,33.75414506,-84.387573925,211,"50 HURT PLZ SUITE 1440, ATLANTA, GA, 30303","Match","Non_Exact","50 HURT PLZ SE, ATLANTA, GA, 30303",17344557,"L"
677212,"50 HWY 76 LOOP","CLAYTON","GA",30525,NA,NA,212,"50 HWY 76 LOOP, CLAYTON, GA, 30525","No_Match",NA,NA,NA,NA
677213,"50 IRVING ST NW","WASHINGTON","DC",20422,38.9311787610001,-77.010894018,213,"50 IRVING ST NW, WASHINGTON, DC, 20422","Match","Exact","50 IRVING ST NW, WASHINGTON, DC, 20422",638291780,"L"
677214,"50 IVY ROAD","WELLESLEY","MA",2482,42.303889548,-71.303029447,214,"50 IVY ROAD, WELLESLEY, MA, 2482","Match","Exact","50 IVY RD, WELLESLEY, MA, 02482",87236680,"L"
677215,"50 JADE LANE","PHILLIPSBURG","NJ",8865,40.720447015,-75.166253716,215,"50 JADE LANE, PHILLIPSBURG, NJ, 8865","Match","Exact","50 JADE LN, PHILLIPSBURG, NJ, 08865",98109523,"R"
677216,"50 JAMAICA AVE ISLAND PARK","NEW YORK","NY",11558,40.6131794660001,-73.642122118,216,"50 JAMAICA AVE ISLAND PARK, NEW YORK, NY, 11558","Match","Non_Exact","50 JAMAICA AVE, ISLAND PARK, NY, 11558",147681852,"R"
677217,"50 JEAN LANE","COVINGTON","GA",30016,NA,NA,217,"50 JEAN LANE, COVINGTON, GA, 30016","No_Match",NA,NA,NA,NA
677218,"50 JEFFERSON AVE","CHICOPEE","MA",1020,42.168661532,-72.599854377,218,"50 JEFFERSON AVE, CHICOPEE, MA, 1020","Match","Exact","50 JEFFERSON AVE, CHICOPEE, MA, 01020",4022123,"R"
677219,"50 JENKINS PLACE","DAWSONVILLE","GA",30534,34.386400338,-84.1208582519999,219,"50 JENKINS PLACE, DAWSONVILLE, GA, 30534","Match","Non_Exact","50 JENKINS TRL, DAWSONVILLE, GA, 30534",70165805,"L"
677220,"50 JERROLD AVENUE UNIT 305","SAN FRANCISCO","CA",94124,37.727579329,-122.369597289,220,"50 JERROLD AVENUE UNIT 305, SAN FRANCISCO, CA, 94124","Match","Exact","50 JERROLD AVE, SAN FRANCISCO, CA, 94124",647250899,"R"
677221,"50 JOHN CALDWELL ROAD","DAHLONEGA","GA",30533,34.6428060960001,-84.0029642,221,"50 JOHN CALDWELL ROAD, DAHLONEGA, GA, 30533","Match","Non_Exact","50 JOHN CALDWELL DR, DAHLONEGA, GA, 30533",629966131,"R"
677222,"50 JOHN F KENNEDY BLVD","BAYONNE","NJ",7002,NA,NA,222,"50 JOHN F KENNEDY BLVD, BAYONNE, NJ, 7002","No_Match",NA,NA,NA,NA
677223,"50 JONES AVENUE","DORCHESTER","MA",2124,42.286293481,-71.0834147429999,223,"50 JONES AVENUE, DORCHESTER, MA, 2124","Match","Exact","50 JONES AVE, DORCHESTER, MA, 02124",85705656,"L"
677224,"50 JOYCE ST","TOMS RIVER","NJ",8753,40.002712629,-74.1248020199999,224,"50 JOYCE ST, TOMS RIVER, NJ, 8753","Match","Exact","50 JOYCE ST, TOMS RIVER, NJ, 08753",203842115,"L"
677225,"50 JUBILEE CIRCLE","ABERDEEN","NJ",7747,40.388186811,-74.210001785,225,"50 JUBILEE CIRCLE, ABERDEEN, NJ, 7747","Match","Exact","50 JUBILEE CIR, ABERDEEN, NJ, 07747",90474808,"R"
677226,"50 JUDSON AVE","NEW HAVEN","CT",6511,41.3081935000001,-72.949983762,226,"50 JUDSON AVE, NEW HAVEN, CT, 6511","Match","Exact","50 JUDSON AVE, NEW HAVEN, CT, 06511",3700196,"L"
677227,"50 KAHDENA RD","MORRISTOWN","NJ",7960,40.8057330240001,-74.506470561,227,"50 KAHDENA RD, MORRISTOWN, NJ, 7960","Match","Exact","50 KAHDENA RD, MORRISTOWN, NJ, 07960",653253444,"L"
677228,"50 KALLIO LN","BOZEMAN","MT",59718,45.6189240190001,-111.071416057,228,"50 KALLIO LN, BOZEMAN, MT, 59718","Match","Exact","50 KALLIO LN, BOZEMAN, MT, 59718",163547861,"R"
677229,"50 KANAHAN ROAD","LISBON","CT",6351,41.576144361,-71.99493942,229,"50 KANAHAN ROAD, LISBON, CT, 6351","Match","Exact","50 KANAHAN RD, LISBON, CT, 06351",611662614,"R"
677230,"50 KAREN DR","RANDOLP","MA",2368,42.1401456180001,-71.036402862,230,"50 KAREN DR, RANDOLP, MA, 2368","Match","Non_Exact","50 KAREN DR, RANDOLPH, MA, 02368",87268857,"L"
677231,"50 KAREN DR","RANDOLPH","MA",2368,42.1401456180001,-71.036402862,231,"50 KAREN DR, RANDOLPH, MA, 2368","Match","Exact","50 KAREN DR, RANDOLPH, MA, 02368",87268857,"L"
677232,"50 KAREN DRIVE","RANDOLPH","MA",2368,42.1401456180001,-71.036402862,232,"50 KAREN DRIVE, RANDOLPH, MA, 2368","Match","Exact","50 KAREN DR, RANDOLPH, MA, 02368",87268857,"L"
677233,"50 KARLI COURT","DEFUNIAK SPRINGS","FL",32435,30.6666066220001,-86.133322832,233,"50 KARLI COURT, DEFUNIAK SPRINGS, FL, 32435","Match","Exact","50 KARLI CT, DEFUNIAK SPRINGS, FL, 32435",32975528,"R"
677234,"50 KEITH COVE RD","COWAN","TN",37318,35.1499951960001,-86.0152982669999,234,"50 KEITH COVE RD, COWAN, TN, 37318","Match","Exact","50 KEITH COVE RD, COWAN, TN, 37318",649844309,"L"
677235,"50 KENDRA LANE","TAUNTON","MA",2780,41.9256638210001,-71.1599416669999,235,"50 KENDRA LANE, TAUNTON, MA, 2780","Match","Exact","50 KENDRA LN, TAUNTON, MA, 02780",46786265,"L"
677236,"50 KENSINGTON DRIVE","YOUNGSVILLE","NC",27596,36.0490510430001,-78.5306811999999,236,"50 KENSINGTON DRIVE, YOUNGSVILLE, NC, 27596","Match","Exact","50 KENSINGTON DR, YOUNGSVILLE, NC, 27596",90247675,"L"
677237,"50 KENT PLACE","WYNANTSKILL","NY",12198,NA,NA,237,"50 KENT PLACE, WYNANTSKILL, NY, 12198","No_Match",NA,NA,NA,NA
677238,"50 KESWICK ROAD","EAST WINDSOR","NJ",8520,40.2497431720001,-74.5313396769999,238,"50 KESWICK ROAD, EAST WINDSOR, NJ, 8520","Match","Exact","50 KESWICK RD, EAST WINDSOR, NJ, 08520",60198780,"L"
677239,"50 KEUNE COURT","STATEN ISLAND","NY",10304,40.6011083290001,-74.0993350319999,239,"50 KEUNE COURT, STATEN ISLAND, NY, 10304","Match","Exact","50 KEUNE CT, STATEN ISLAND, NY, 10304",59879775,"R"
677240,"50 KIM LOUISE DRIVE APT 1","CAMPBELL","CA",95008,NA,NA,240,"50 KIM LOUISE DRIVE APT 1, CAMPBELL, CA, 95008","No_Match",NA,NA,NA,NA
677241,"50 KING AVE","WEEHAWKEN","NJ",7086,40.7692495210001,-74.0187618639999,241,"50 KING AVE, WEEHAWKEN, NJ, 7086","Match","Exact","50 KING AVE, WEEHAWKEN, NJ, 07086",59599631,"L"
677242,"50 KING STREET","EDISON","NJ",8820,40.6000466260001,-74.3878300169999,242,"50 KING STREET, EDISON, NJ, 8820","Match","Exact","50 KING ST, EDISON, NJ, 08820",60261871,"L"
677243,"50 KIPP LANE LOT 31","HUDSON","NY",12534,42.2697366310001,-73.757799689,243,"50 KIPP LANE LOT 31, HUDSON, NY, 12534","Match","Exact","50 KIPP LN, HUDSON, NY, 12534",41485091,"R"
677244,"50 KITTY HAWK DRIVE","SPRINGBORO","OH",45066,39.588458943,-84.214448427,244,"50 KITTY HAWK DRIVE, SPRINGBORO, OH, 45066","Match","Exact","50 KITTY HAWK DR, SPRINGBORO, OH, 45066",632473563,"R"
677245,"50 KNOLL DRIVE","ROCKAWAY","NJ",7866,40.885594457,-74.5098297549999,245,"50 KNOLL DRIVE, ROCKAWAY, NJ, 7866","Match","Exact","50 KNOLL DR, ROCKAWAY, NJ, 07866",627218976,"L"
677246,"50 LA SAE LANE","TRYON","NC",28782,35.2394462300001,-82.263339092,246,"50 LA SAE LANE, TRYON, NC, 28782","Match","Non_Exact","50 LASAE LN, TRYON, NC, 28782",634022722,"L"
677247,"50 LAKE ELIZABETH COURT","HARVEY","LA",70058,29.8481790180001,-90.038018801,247,"50 LAKE ELIZABETH COURT, HARVEY, LA, 70058","Match","Exact","50 LAKE ELIZABETH CT, HARVEY, LA, 70058",93529392,"R"
677248,"50 LAKE FOREST DRIVE","LANSING","NY",14882,42.5465659710001,-76.5462142599999,248,"50 LAKE FOREST DRIVE, LANSING, NY, 14882","Match","Non_Exact","50 LAKE FOREST LN, LANSING, NY, 14882",636026538,"L"
677249,"50 LAKE SHORE DR","JOHNSTON","RI",2921,NA,NA,249,"50 LAKE SHORE DR, JOHNSTON, RI, 2921","No_Match",NA,NA,NA,NA
677250,"50 LAKE STREET","OSHKOSH","WI",54901,44.0095745570001,-88.5188329109999,250,"50 LAKE STREET, OSHKOSH, WI, 54901","Match","Exact","50 LAKE ST, OSHKOSH, WI, 54901",74491330,"R"
677251,"50 LAKERIDGE CT","COVINGTON","GA",30016,33.6045014470001,-83.964232614,251,"50 LAKERIDGE CT, COVINGTON, GA, 30016","Match","Exact","50 LAKERIDGE CT, COVINGTON, GA, 30016",23638256,"R"
677252,"50 LAKEVIEW DRIVE","POWDERLY","TX",75473,33.7607300940001,-95.545108576,252,"50 LAKEVIEW DRIVE, POWDERLY, TX, 75473","Match","Exact","50 LAKEVIEW DR, POWDERLY, TX, 75473",63586386,"R"
677253,"50 LAMAR SMITH RD","POPLARVILLE","MS",39470,30.7215665160001,-89.54452772,253,"50 LAMAR SMITH RD, POPLARVILLE, MS, 39470","Match","Exact","50 LAMAR SMITH RD, POPLARVILLE, MS, 39470",111493177,"R"
677254,"50 LANGHOLM DRIVE","NASHUA","NH",3062,42.7247209770001,-71.490620811,254,"50 LANGHOLM DRIVE, NASHUA, NH, 3062","Match","Exact","50 LANGHOLM DR, NASHUA, NH, 03062",113568968,"L"
677255,"50 LANSING STREET 313","SAN FRANCISCO","CA",94105,37.7861131560001,-122.393911596,255,"50 LANSING STREET 313, SAN FRANCISCO, CA, 94105","Match","Exact","50 LANSING ST, SAN FRANCISCO, CA, 94105",192281720,"R"
677256,"50 LARSEN LANE","WEST SENECA","NY",14224,42.843911883,-78.7086256059999,256,"50 LARSEN LANE, WEST SENECA, NY, 14224","Match","Exact","50 LARSEN LN, WEST SENECA, NY, 14224",48317452,"L"
677257,"50 LAUREN TRL","DALLAS","GA",30157,33.866645094,-84.9884578049999,257,"50 LAUREN TRL, DALLAS, GA, 30157","Match","Exact","50 LAUREN TRL, DALLAS, GA, 30157",618970640,"R"
677258,"50 LAVA CAP","MARKLEEVILLE","CA",96120,38.685327386,-119.800972673,258,"50 LAVA CAP, MARKLEEVILLE, CA, 96120","Match","Exact","50 LAVA CAP, MARKLEEVILLE, CA, 96120",102222429,"L"
677259,"50 LAWRENCE STREET","MALDEN","MA",2148,42.434209154,-71.024375967,259,"50 LAWRENCE STREET, MALDEN, MA, 2148","Match","Exact","50 LAWRENCE ST, MALDEN, MA, 02148",86874533,"L"
677260,"50 LEBANON ST","HARTFORD","CT",6112,41.802518918,-72.6931982369999,260,"50 LEBANON ST, HARTFORD, CT, 6112","Match","Exact","50 LEBANON ST, HARTFORD, CT, 06112",3488854,"R"
677261,"50 LEFFERTS AVE","BROOKLYN","NY",11225,40.6618246990001,-73.9592578959999,261,"50 LEFFERTS AVE, BROOKLYN, NY, 11225","Match","Exact","50 LEFFERTS AVE, BROOKLYN, NY, 11225",59079486,"R"
677262,"50 LEGION ST APT 21B","BROOKLYN","NY",11212,40.6673102350001,-73.9179414829999,262,"50 LEGION ST APT 21B, BROOKLYN, NY, 11212","Match","Exact","50 LEGION ST, BROOKLYN, NY, 11212",59083794,"R"
677263,"50 LEGION STREET","BROOKLYN","NY",11212,40.6673102350001,-73.9179414829999,263,"50 LEGION STREET, BROOKLYN, NY, 11212","Match","Exact","50 LEGION ST, BROOKLYN, NY, 11212",59083794,"R"
677264,"50 LEON ST","BOSTON","MA",2115,42.3372499220001,-71.091074755,264,"50 LEON ST, BOSTON, MA, 2115","Match","Exact","50 LEON ST, BOSTON, MA, 02115",85698937,"R"
677265,"50 LEONARD STREET","GLOUCESTER","MA",1930,42.656416909,-70.675907481,265,"50 LEONARD STREET, GLOUCESTER, MA, 1930","Match","Exact","50 LEONARD ST, GLOUCESTER, MA, 01930",86632132,"L"
677266,"50 LEVEL ACRES LOT 5","HORSE HEADS","NY",14845,42.186232841,-76.805981157,266,"50 LEVEL ACRES LOT 5, HORSE HEADS, NY, 14845","Match","Non_Exact","50 LEVEL ACRES DR, HORSEHEADS, NY, 14845",18555533,"R"
677267,"50 LEWIS PLACE","ST. LOUIS","MO",63113,38.744587445,-90.302871635,267,"50 LEWIS PLACE, ST. LOUIS, MO, 63113","Match","Non_Exact","50 LEWIS PL, SAINT LOUIS, MO, 63135",100146174,"L"
677268,"50 LEWIS ST APT 534","BOSTON","MA",46311,NA,NA,268,"50 LEWIS ST APT 534, BOSTON, MA, 46311","Tie",NA,NA,NA,NA
677269,"50 LEXINGTON AVE 12C","NEW YORK","NY",10010,40.7405146420001,-73.984020723,269,"50 LEXINGTON AVE 12C, NEW YORK, NY, 10010","Match","Exact","50 LEXINGTON AVE, NEW YORK, NY, 10010",59653651,"L"
677270,"50 LEXINGTON AVE","NYC","NY",10010,40.7405146420001,-73.984020723,270,"50 LEXINGTON AVE, NYC, NY, 10010","Match","Exact","50 LEXINGTON AVE, NEW YORK, NY, 10010",59653651,"L"
677271,"50 LEXINGTON ROAD","HOWELL","NJ",7731,40.1510868170001,-74.2191370529999,271,"50 LEXINGTON ROAD, HOWELL, NJ, 7731","Match","Exact","50 LEXINGTON RD, HOWELL, NJ, 07731",90450561,"R"
677272,"50 LIBERTY STREET","CLIFTON","NJ",7013,40.8557799960001,-74.15291717,272,"50 LIBERTY STREET, CLIFTON, NJ, 7013","Match","Exact","50 LIBERTY ST, CLIFTON, NJ, 07013",65251441,"R"
677273,"50 LIFTER ROAD","CLINTON","MS",39056,NA,NA,273,"50 LIFTER ROAD, CLINTON, MS, 39056","No_Match",NA,NA,NA,NA
677274,"50 LIGHT HOUSE ROAD","SOUTH HERO","VT",5486,44.6580357550001,-73.277426341,274,"50 LIGHT HOUSE ROAD, SOUTH HERO, VT, 5486","Match","Non_Exact","50 LIGHTHOUSE RD, SOUTH HERO, VT, 05486",136613344,"R"
677275,"50 LINCOLN AVE","BARRINGTON","RI",2806,41.746864309,-71.336561015,275,"50 LINCOLN AVE, BARRINGTON, RI, 2806","Match","Exact","50 LINCOLN AVE, BARRINGTON, RI, 02806",46479102,"L"
677276,"50 LINCOLN AVENUE","LAMBERTVILLE","NJ",8530,40.3638338550001,-74.9371125229999,276,"50 LINCOLN AVENUE, LAMBERTVILLE, NJ, 8530","Match","Exact","50 LINCOLN AVE, LAMBERTVILLE, NJ, 08530",60017469,"L"
677277,"50 LINCOLN RD SUITE A","MCDONOUGH","GA",30253,33.428029359,-84.1443852639999,277,"50 LINCOLN RD SUITE A, MCDONOUGH, GA, 30253","Match","Exact","50 LINCOLN RD, MCDONOUGH, GA, 30253",637465514,"L"
677278,"50 LINDEN STREET","TAUNTON","MA",2780,41.8895997970001,-71.075481531,278,"50 LINDEN STREET, TAUNTON, MA, 2780","Match","Exact","50 LINDEN ST, TAUNTON, MA, 02780",46777695,"L"
677279,"50 LINDERMAN AVENUE","KINGSTON","NY",12401,41.9268139850001,-74.018640639,279,"50 LINDERMAN AVENUE, KINGSTON, NY, 12401","Match","Exact","50 LINDERMAN AVE, KINGSTON, NY, 12401",41863996,"R"
677280,"50 LINKWOOD ROAD","ATLANTA","GA",30311,33.7566954970001,-84.482389117,280,"50 LINKWOOD ROAD, ATLANTA, GA, 30311","Match","Non_Exact","50 LINKWOOD RD NW, ATLANTA, GA, 30311",17337072,"L"
677281,"50 LINTON AVE","ALBANY","NY",12205,42.6920962780001,-73.790478943,281,"50 LINTON AVE, ALBANY, NY, 12205","Match","Exact","50 LINTON AVE, ALBANY, NY, 12205",18308280,"L"
677282,"50 LISWELL DRIVE","FEEDING HILLS","MA",1030,42.076939376,-72.681762078,282,"50 LISWELL DRIVE, FEEDING HILLS, MA, 1030","Match","Exact","50 LISWELL DR, FEEDING HILLS, MA, 01030",4083465,"R"
677283,"50 LITTLE CREEK DRIVE","SHARPSBURG","GA",30277,33.425415742,-84.636211798,283,"50 LITTLE CREEK DRIVE, SHARPSBURG, GA, 30277","Match","Exact","50 LITTLE CREEK DR, SHARPSBURG, GA, 30277",9347961,"L"
677284,"50 LITTLE EAGLE DR","WARSAW","IN",46580,41.232447301,-85.842880884,284,"50 LITTLE EAGLE DR, WARSAW, IN, 46580","Match","Exact","50 LITTLE EAGLE DR, WARSAW, IN, 46580",7928918,"L"
677285,"50 LITTLETREE LANE","BELLINGHAM","MA",2019,42.0433852290001,-71.494730131,285,"50 LITTLETREE LANE, BELLINGHAM, MA, 2019","Match","Non_Exact","50 LITTLE TREE LN, BELLINGHAM, MA, 02019",87258885,"R"
677286,"50 LOCUST ST","FALL RIVER","MA",2720,41.7067668620001,-71.1573581,286,"50 LOCUST ST, FALL RIVER, MA, 2720","Match","Exact","50 LOCUST ST, FALL RIVER, MA, 02720",46769495,"L"
677287,"50 LOCUST ST","HYDEN","KY",41749,NA,NA,287,"50 LOCUST ST, HYDEN, KY, 41749","No_Match",NA,NA,NA,NA
677288,"50 LOCUST STREET","HYDEN","KY",41749,NA,NA,288,"50 LOCUST STREET, HYDEN, KY, 41749","No_Match",NA,NA,NA,NA
677289,"50 LOGAN PLACE","NELLYSFORD","VA",22958,37.9001469040001,-78.873850813,289,"50 LOGAN PLACE, NELLYSFORD, VA, 22958","Match","Exact","50 LOGAN PL, NELLYSFORD, VA, 22958",98919705,"R"
677290,"50 LONG MEADOW PLACE","SOUTH SETAUKET","NY",11720,40.88667803,-73.076388284,290,"50 LONG MEADOW PLACE, SOUTH SETAUKET, NY, 11720","Match","Exact","50 LONG MEADOW PL, S SETAUKET, NY, 11720",114001905,"L"
677291,"50 LONG POND LANE","STATEN ISLAND","NY",10304,40.6148643060001,-74.080368655,291,"50 LONG POND LANE, STATEN ISLAND, NY, 10304","Match","Exact","50 LONG POND LN, STATEN ISLAND, NY, 10304",59885279,"R"
677292,"50 LONGVIEW HEIGHTS RD","ATHENS","OH",45701,39.2965996730001,-82.091572734,292,"50 LONGVIEW HEIGHTS RD, ATHENS, OH, 45701","Match","Exact","50 LONGVIEW HEIGHTS RD, ATHENS, OH, 45701",37109758,"L"
677293,"50 LOWER COLLEGE RD UNIT 1948","KINGSTON","RI",2881,41.483683597,-71.529257485,293,"50 LOWER COLLEGE RD UNIT 1948, KINGSTON, RI, 2881","Match","Exact","50 LOWER COLLEGE RD, KINGSTON, RI, 02881",58901637,"L"
677294,"50 LOWERY LESTER DR","MARTINSVILLE","VA",24112,NA,NA,294,"50 LOWERY LESTER DR, MARTINSVILLE, VA, 24112","No_Match",NA,NA,NA,NA
677295,"50 LUCKY TOWN ROAD","ELMORE","AL",36025,32.5396312670001,-86.3121243799999,295,"50 LUCKY TOWN ROAD, ELMORE, AL, 36025","Match","Exact","50 LUCKY TOWN RD, ELMORE, AL, 36025",1397064,"R"
677296,"50 LUFFBURROW LANE","RED BANK","NJ",7701,40.373212359,-74.063409199,296,"50 LUFFBURROW LANE, RED BANK, NJ, 7701","Match","Exact","50 LUFFBURROW LN, RED BANK, NJ, 07701",90486929,"R"
677297,"50 LUNDY STREET","NEWNAN","GA",30263,33.3867755750001,-84.803395028,297,"50 LUNDY STREET, NEWNAN, GA, 30263","Match","Exact","50 LUNDY ST, NEWNAN, GA, 30263",9319195,"L"
677298,"50 LYMAN SPRINGS ROAD","HILO","HI",96720,19.680799979,-155.163282883,298,"50 LYMAN SPRINGS ROAD, HILO, HI, 96720","Match","Exact","50 LYMAN SPRINGS RD, HILO, HI, 96720",614311745,"L"
677299,"50 LYNCH ROAD","MCCLEARY","WA",98557,47.0720525090001,-123.272739139,299,"50 LYNCH ROAD, MCCLEARY, WA, 98557","Match","Exact","50 LYNCH RD, MCCLEARY, WA, 98557",180600995,"L"
677300,"50 LYNWOOD DRIVE COLLIER ROW","ESSEX ROMFOD, RM5 2Q",NA,NA,NA,NA,300,"50 LYNWOOD DRIVE COLLIER ROW, ESSEX ROMFOD, RM5 2Q, , ","No_Match",NA,NA,NA,NA
677301,"50 LYONS AVENUE","NEWARK","NJ",7112,40.7068086530001,-74.2078531189999,301,"50 LYONS AVENUE, NEWARK, NJ, 7112","Match","Exact","50 LYONS AVE, NEWARK, NJ, 07112",63466212,"L"
677302,"50 MABRO DRIVE","DENVILLE","NJ",7834,40.850114268,-74.52295101,302,"50 MABRO DRIVE, DENVILLE, NJ, 7834","Match","Exact","50 MABRO DR, DENVILLE, NJ, 07834",60454911,"L"
677303,"50 MACKENZIE COURT","NEWNAN","GA",30263,33.46861369,-84.734494963,303,"50 MACKENZIE COURT, NEWNAN, GA, 30263","Match","Exact","50 MACKENZIE CT, NEWNAN, GA, 30263",645822430,"L"
677304,"50 MAGNOLIA WAY","CANTON","MA",2021,42.1924903680001,-71.1202056879999,304,"50 MAGNOLIA WAY, CANTON, MA, 2021","Match","Exact","50 MAGNOLIA WAY, CANTON, MA, 02021",625230657,"L"
677305,"50 MAILE STREET APT 22","HILO","HI",96720,19.713366895,-155.075787844,305,"50 MAILE STREET APT 22, HILO, HI, 96720","Match","Exact","50 MAILE ST, HILO, HI, 96720",203038354,"R"
677306,"50 MAIN CHANCE","FRANKFORT","KY",40601,38.205741183,-84.803063045,306,"50 MAIN CHANCE, FRANKFORT, KY, 40601","Match","Exact","50 MAIN CHANCE, FRANKFORT, KY, 40601",97064457,"R"
677307,"50 MAIN ST 4133","N EASTON","MA",2356,42.0680777200001,-71.104940976,307,"50 MAIN ST 4133, N EASTON, MA, 2356","Match","Exact","50 MAIN ST, NORTH EASTON, MA, 02356",46809451,"L"
677308,"50 MAIN ST EXT","HARWICH","MA",2645,41.6975060500001,-70.126131856,308,"50 MAIN ST EXT, HARWICH, MA, 2645","Match","Non_Exact","50 MAIN ST EXD, HARWICH, MA, 02645",634792390,"R"
677309,"50 MAIN ST","SOUTH RIVER","NJ",8882,40.451319063,-74.380521577,309,"50 MAIN ST, SOUTH RIVER, NJ, 8882","Match","Exact","50 MAIN ST, SOUTH RIVER, NJ, 08882",60268764,"L"
677310,"50 MAIN ST","SUISUN CITY","CA",94585,38.244147674,-122.040394407,310,"50 MAIN ST, SUISUN CITY, CA, 94585","Match","Exact","50 MAIN ST, SUISUN CITY, CA, 94585",192551757,"L"
677311,"50 MAIN ST","VACAVILLE","CA",95688,NA,NA,311,"50 MAIN ST, VACAVILLE, CA, 95688","No_Match",NA,NA,NA,NA
677312,"50 MAIN STREET 10TH FLOOR","WHITE PLAINS","NY",10606,41.0318340480001,-73.773210558,312,"50 MAIN STREET 10TH FLOOR, WHITE PLAINS, NY, 10606","Match","Exact","50 MAIN ST, WHITE PLAINS, NY, 10606",139741478,"R"
677313,"50 MAIN STREET","CHARLESTOWN","MA",2129,42.373235632,-71.0621845969999,313,"50 MAIN STREET, CHARLESTOWN, MA, 2129","Match","Exact","50 MAIN ST, CHARLESTOWN, MA, 02129",85709210,"L"
677314,"50 MAIN STREET","RIDGEFIELD PARK","NJ",7660,40.852409191,-74.025888981,314,"50 MAIN STREET, RIDGEFIELD PARK, NJ, 7660","Match","Exact","50 MAIN ST, RIDGEFIELD PARK, NJ, 07660",64398073,"L"
677315,"50 MANANA WAY","POINT REYES STATION","CA",94956,38.0715055650001,-122.805747931,315,"50 MANANA WAY, POINT REYES STATION, CA, 94956","Match","Exact","50 MANANA WAY, POINT REYES STATION, CA, 94956",192755308,"R"
677316,"50 MAOLIS AVENUE","WEST BRIDGEWATER","MA",2379,42.0317164430001,-71.0200662999999,316,"50 MAOLIS AVENUE, WEST BRIDGEWATER, MA, 2379","Match","Exact","50 MAOLIS AVE, W BRIDGEWATER, MA, 02379",87444673,"L"
677317,"50 MAPLE AVE APT A","CORTLAND","NY",13045,42.6028805020001,-76.1840616229999,317,"50 MAPLE AVE APT A, CORTLAND, NY, 13045","Match","Exact","50 MAPLE AVE, CORTLAND, NY, 13045",45803938,"L"
677318,"50 MAPLE AVE","CORTLAND","NY",13045,42.6028805020001,-76.1840616229999,318,"50 MAPLE AVE, CORTLAND, NY, 13045","Match","Exact","50 MAPLE AVE, CORTLAND, NY, 13045",45803938,"L"
677319,"50 MAPLE AVE","NEWPORT NEWS","VA",23607,36.9888353260001,-76.391439744,319,"50 MAPLE AVE, NEWPORT NEWS, VA, 23607","Match","Exact","50 MAPLE AVE, NEWPORT NEWS, VA, 23607",103746896,"R"
677320,"50 MAPLE AVENUE APT 117","SPRINGFIELD","NJ",7081,NA,NA,320,"50 MAPLE AVENUE APT 117, SPRINGFIELD, NJ, 7081","Tie",NA,NA,NA,NA
677321,"50 MAPLE AVENUE UNIT 113","SPRINGFIELD","NJ",7081,NA,NA,321,"50 MAPLE AVENUE UNIT 113, SPRINGFIELD, NJ, 7081","Tie",NA,NA,NA,NA
677322,"50 MAPLE AVENUE","NEWPORT NEWS","VA",23607,36.9888353260001,-76.391439744,322,"50 MAPLE AVENUE, NEWPORT NEWS, VA, 23607","Match","Exact","50 MAPLE AVE, NEWPORT NEWS, VA, 23607",103746896,"R"
677323,"50 MAPLE ST","MONTICELLO","KY",42633,36.818900211,-84.875810255,323,"50 MAPLE ST, MONTICELLO, KY, 42633","Match","Exact","50 MAPLE ST, MONTICELLO, KY, 42633",29480184,"L"
677324,"50 MAPLE STREET","JEWETT CITY","CT",6351,41.6022161590001,-71.9781165919999,324,"50 MAPLE STREET, JEWETT CITY, CT, 6351","Match","Exact","50 MAPLE ST, JEWETT CITY, CT, 06351",56836307,"R"
677325,"50 MAPLE STREET","SPRINGFIELD","VA",1199,NA,NA,325,"50 MAPLE STREET, SPRINGFIELD, VA, 1199","No_Match",NA,NA,NA,NA
677326,"50 MAPLEHURST AVE","LAKEWOOD","NJ",8701,40.0779270900001,-74.2545273329999,326,"50 MAPLEHURST AVE, LAKEWOOD, NJ, 8701","Match","Exact","50 MAPLEHURST AVE, LAKEWOOD, NJ, 08701",203720106,"R"
677327,"50 MARGARET RD","NEWTON","MA",2461,42.31711933,-71.215424054,327,"50 MARGARET RD, NEWTON, MA, 2461","Match","Exact","50 MARGARET RD, NEWTON, MA, 02461",86865723,"L"
677328,"50 MARGARET ST","TIVERTON","RI",2878,41.6274711930001,-71.1706738509999,328,"50 MARGARET ST, TIVERTON, RI, 2878","Match","Exact","50 MARGARET ST, TIVERTON, RI, 02878",47365652,"L"
677329,"50 MARION LANE","EUGENE","OR",97404,44.0778385260001,-123.121794353,329,"50 MARION LANE, EUGENE, OR, 97404","Match","Exact","50 MARION LN, EUGENE, OR, 97404",624839028,"R"
677330,"50 MARKET STREET STE 1A   289","SOUTH PORTLAND","ME",4106,43.6359867530001,-70.2529857659999,330,"50 MARKET STREET STE 1A   289, SOUTH PORTLAND, ME, 4106","Match","Exact","50 MARKET ST, SOUTH PORTLAND, ME, 04106",78028949,"L"
677331,"50 MARLIN DRIVE EAST","PITTSBURGH","PA",15216,40.3876924950001,-80.0508624569999,331,"50 MARLIN DRIVE EAST, PITTSBURGH, PA, 15216","Match","Exact","50 MARLIN DR E, PITTSBURGH, PA, 15216",51631614,"R"
677332,"50 MARLIN STREET","BROOKVILLE","PA",15825,41.166063014,-79.086526087,332,"50 MARLIN STREET, BROOKVILLE, PA, 15825","Match","Exact","50 MARLIN ST, BROOKVILLE, PA, 15825",66430912,"R"
677333,"50 MARSHALL ST","NASHUA","NH",3063,NA,NA,333,"50 MARSHALL ST, NASHUA, NH, 3063","No_Match",NA,NA,NA,NA
677334,"50 MARTENSE ST APT 3","NEW YORK","NY",11226,40.6512974950001,-73.9572518539999,334,"50 MARTENSE ST APT 3, NEW YORK, NY, 11226","Match","Non_Exact","50 MARTENSE ST, BROOKLYN, NY, 11226",59096145,"R"
677335,"50 MARY PLACE","GERMANTOWN","OH",45327,39.635192944,-84.373786271,335,"50 MARY PLACE, GERMANTOWN, OH, 45327","Match","Exact","50 MARY PL, GERMANTOWN, OH, 45327",143576756,"R"
677336,"50 MAYS LANDING RD APT 65","SOMERS POINT","NJ",8244,39.3147597440001,-74.6224315549999,336,"50 MAYS LANDING RD APT 65, SOMERS POINT, NJ, 8244","Match","Exact","50 MAYS LANDING RD, SOMERS POINT, NJ, 08244",202492355,"L"
677337,"50 MAYTHORPE ST","WINDSOR","CT",6095,41.82289231,-72.679879937,337,"50 MAYTHORPE ST, WINDSOR, CT, 6095","Match","Non_Exact","50 MAYTHORPE DR, WINDSOR, CT, 06095",3488711,"R"
677338,"50 MCCASKILL ROAD WEST","PINEHURST","NC",28374,35.196288865,-79.4784372089999,338,"50 MCCASKILL ROAD WEST, PINEHURST, NC, 28374","Match","Exact","50 MCCASKILL RD W, PINEHURST, NC, 28374",20295723,"R"
677339,"50 MCGOVER AVE","DIAMONDVILLE","WY",83116,NA,NA,339,"50 MCGOVER AVE, DIAMONDVILLE, WY, 83116","No_Match",NA,NA,NA,NA
677340,"50 MCGOVERN AVE","DIAMONDVILLE","WY",83116,NA,NA,340,"50 MCGOVERN AVE, DIAMONDVILLE, WY, 83116","No_Match",NA,NA,NA,NA
677341,"50 MCKEE STREET","EAST HARTFORD","CT",6108,41.7837445760001,-72.631541279,341,"50 MCKEE STREET, EAST HARTFORD, CT, 6108","Match","Exact","50 MCKEE ST, EAST HARTFORD, CT, 06108",604939041,"L"
677342,"50 MCKENNA DRIVE","NASHUA","NH",3062,42.7218686730001,-71.499969581,342,"50 MCKENNA DRIVE, NASHUA, NH, 3062","Match","Exact","50 MCKENNA DR, NASHUA, NH, 03062",113544998,"L"
677343,"50 MCVEY PLACE","SPRINGBORO","OH",45066,39.555122784,-84.2447700499999,343,"50 MCVEY PLACE, SPRINGBORO, OH, 45066","Match","Non_Exact","50 MC VEY PL, SPRINGBORO, OH, 45066",159019351,"R"
677344,"50 MEADOW LARK LANE","BELLE MEAD","NJ",8502,40.447804331,-74.627686379,344,"50 MEADOW LARK LANE, BELLE MEAD, NJ, 8502","Match","Exact","50 MEADOW LARK LN, BELLE MEAD, NJ, 08502",641257462,"R"
677345,"50 MEADOW ST","SPRING LAKE","NC",28390,35.219918207,-78.940427207,345,"50 MEADOW ST, SPRING LAKE, NC, 28390","Match","Exact","50 MEADOW ST, SPRING LAKE, NC, 28390",71954530,"L"
677346,"50 MEADOW STREET","GARDEN CITY","NY",11530,40.7189736330001,-73.6248081969999,346,"50 MEADOW STREET, GARDEN CITY, NY, 11530","Match","Exact","50 MEADOW ST, GARDEN CITY, NY, 11530",147826715,"R"
677347,"50 MEADOWBROOK DRIVE","CONWAY","AR",72032,35.104604915,-92.447729168,347,"50 MEADOWBROOK DRIVE, CONWAY, AR, 72032","Match","Exact","50 MEADOWBROOK DR, CONWAY, AR, 72032",141057637,"L"
677348,"50 MELENDY AVE","WATERTOWN","MA",2472,42.368763658,-71.15948937,348,"50 MELENDY AVE, WATERTOWN, MA, 2472","Match","Exact","50 MELENDY AVE, WATERTOWN, MA, 02472",86867522,"L"
677349,"50 MELVIN RD","ARLINGTON","MA",2474,42.4288459370001,-71.160620609,349,"50 MELVIN RD, ARLINGTON, MA, 2474","Match","Exact","50 MELVIN RD, ARLINGTON, MA, 02474",86887813,"L"
677350,"50 MELVIN STREET","WAKEFIELD","MA",1880,42.498880269,-71.060883232,350,"50 MELVIN STREET, WAKEFIELD, MA, 1880","Match","Exact","50 MELVIN ST, WAKEFIELD, MA, 01880",86871234,"L"
677351,"50 MENDUM ST","BOSTON","MA",2131,42.29188227,-71.129213469,351,"50 MENDUM ST, BOSTON, MA, 2131","Match","Exact","50 MENDUM ST, BOSTON, MA, 02131",85696465,"L"
677352,"50 MENORES AVENUE APT 724","CORAL GABLES","FL",33134,25.7583154390001,-80.255953914,352,"50 MENORES AVENUE APT 724, CORAL GABLES, FL, 33134","Match","Exact","50 MENORES AVE, CORAL GABLES, FL, 33134",116011936,"L"
677353,"50 METACOMET RD","PLAINVILLE","CT",6062,41.6826948660001,-72.839070057,353,"50 METACOMET RD, PLAINVILLE, CT, 6062","Match","Exact","50 METACOMET RD, PLAINVILLE, CT, 06062",3507870,"R"
677354,"50 METCHEF ST","STATEN ISLAND","NY",10304,NA,NA,354,"50 METCHEF ST, STATEN ISLAND, NY, 10304","No_Match",NA,NA,NA,NA
677355,"50 MIDDLEBURY LANE","BEVERLY","MA",1915,42.579408447,-70.852760066,355,"50 MIDDLEBURY LANE, BEVERLY, MA, 1915","Match","Exact","50 MIDDLEBURY LN, BEVERLY, MA, 01915",86664275,"L"
677356,"50 MIDDLEBURY ROAD","ORCHARD PARK","NY",14127,42.7405936850001,-78.708667947,356,"50 MIDDLEBURY ROAD, ORCHARD PARK, NY, 14127","Match","Exact","50 MIDDLEBURY RD, ORCHARD PARK, NY, 14127",48343792,"L"
677357,"50 MIDDLEFIELD RD 12","MOUNTAIN VIEW","CA",94043,37.398688367,-122.065569752,357,"50 MIDDLEFIELD RD 12, MOUNTAIN VIEW, CA, 94043","Match","Non_Exact","50 E MIDDLEFIELD RD, MOUNTAIN VIEW, CA, 94043",614030533,"R"
677358,"50 MIDWOOD AVENUE","ALLENDALE","NJ",7410,NA,NA,358,"50 MIDWOOD AVENUE, ALLENDALE, NJ, 7410","No_Match",NA,NA,NA,NA
677359,"50 MILFORD STREET","MENDON","MA",1756,42.115798345,-71.54547939,359,"50 MILFORD STREET, MENDON, MA, 1756","Match","Exact","50 MILFORD ST, MENDON, MA, 01756",40061673,"R"
677360,"50 MILK STREET 17TH FLOOR","BOSTON","MA",2109,42.356836371,-71.0569921599999,360,"50 MILK STREET 17TH FLOOR, BOSTON, MA, 2109","Match","Exact","50 MILK ST, BOSTON, MA, 02109",85710231,"L"
677361,"50 MILL CIRCLE","CLAYTON","NC",27527,35.66781324,-78.376178863,361,"50 MILL CIRCLE, CLAYTON, NC, 27527","Match","Exact","50 MILL CIR, CLAYTON, NC, 27527",26561321,"R"
677362,"50 MILL LANE","HUNTINGTON","NY",11743,40.8789427940001,-73.421410125,362,"50 MILL LANE, HUNTINGTON, NY, 11743","Match","Exact","50 MILL LN, HUNTINGTON, NY, 11743",114034022,"R"
677363,"50 MILL POND DR","WRENTHAM","MA",2093,42.047634863,-71.348534155,363,"50 MILL POND DR, WRENTHAM, MA, 2093","Match","Exact","50 MILL POND DR, WRENTHAM, MA, 02093",87277692,"R"
677364,"50 MILL POND DRIVE","WRENTHAM","MA",2093,42.047634863,-71.348534155,364,"50 MILL POND DRIVE, WRENTHAM, MA, 2093","Match","Exact","50 MILL POND DR, WRENTHAM, MA, 02093",87277692,"R"
677365,"50 MINNEHAHA CIR","MAITLAND","FL",32751,28.6293983800001,-81.353935082,365,"50 MINNEHAHA CIR, MAITLAND, FL, 32751","Match","Exact","50 MINNEHAHA CIR, MAITLAND, FL, 32751",94367624,"R"
677366,"50 MISSION TRAIL","MONTICELLO","FL",32344,NA,NA,366,"50 MISSION TRAIL, MONTICELLO, FL, 32344","No_Match",NA,NA,NA,NA
677367,"50 MISTY LANE","TAUNTON","MA",2780,41.931154313,-71.138538328,367,"50 MISTY LANE, TAUNTON, MA, 2780","Match","Exact","50 MISTY LN, TAUNTON, MA, 02780",46777513,"L"
677368,"50 MOGOLLON DRIVE","SEDONA","AZ",86336,34.8712821300001,-111.790118702,368,"50 MOGOLLON DRIVE, SEDONA, AZ, 86336","Match","Exact","50 MOGOLLON DR, SEDONA, AZ, 86336",159473888,"R"
677369,"50 MONKTON ROAD","VERGENNES","VT",5491,44.1713579940001,-73.244042705,369,"50 MONKTON ROAD, VERGENNES, VT, 5491","Match","Exact","50 MONKTON RD, VERGENNES, VT, 05491",136457484,"L"
677370,"50 MONTAUK HWY","SOUTHAMPTON","NY",11968,40.884912102,-72.428285993,370,"50 MONTAUK HWY, SOUTHAMPTON, NY, 11968","Match","Exact","50 MONTAUK HWY, SOUTHAMPTON, NY, 11968",114057518,"R"
677371,"50 MONTGOMERY PL","PITTSBURGH","PA",15212,40.4545579850001,-80.005240983,371,"50 MONTGOMERY PL, PITTSBURGH, PA, 15212","Match","Exact","50 MONTGOMERY PL, PITTSBURGH, PA, 15212",653684021,"R"
677372,"50 MONTGOMERY STREET","ROCHESTER","NY",14619,43.139807315,-77.638353674,372,"50 MONTGOMERY STREET, ROCHESTER, NY, 14619","Match","Exact","50 MONTGOMERY ST, ROCHESTER, NY, 14619",14533622,"R"
677373,"50 MONUMENT NECK RD","BOURNE","MA",2532,41.7328738680001,-70.6149810009999,373,"50 MONUMENT NECK RD, BOURNE, MA, 2532","Match","Exact","50 MONUMENT NECK RD, BOURNE, MA, 02532",121551205,"L"
677374,"50 MONUMENT WALK APT 4A","BROOKLYN","NY",11201,40.6959425800001,-73.979504709,374,"50 MONUMENT WALK APT 4A, BROOKLYN, NY, 11201","Match","Non_Exact","50 MONUMENT WALK, BROOKLYN, NY, 11205",59100588,"R"
677375,"50 MONUMENT WALK APT 4A","BROOKLYN","NY",11205,40.6959425800001,-73.979504709,375,"50 MONUMENT WALK APT 4A, BROOKLYN, NY, 11205","Match","Exact","50 MONUMENT WALK, BROOKLYN, NY, 11205",59100588,"R"
677376,"50 MOORE LANE","RENO","NV",89509,39.49261024,-119.822418562,376,"50 MOORE LANE, RENO, NV, 89509","Match","Exact","50 MOORE LN, RENO, NV, 89509",107045586,"L"
677377,"50 MORNER ROAD","RENSSELAER","NY",12144,42.640228377,-73.673669812,377,"50 MORNER ROAD, RENSSELAER, NY, 12144","Match","Exact","50 MORNER RD, RENSSELAER, NY, 12144",35742258,"R"
677378,"50 MORNINGSIDE DRIVE","NY","NY",10027,40.8054958340001,-73.959792422,378,"50 MORNINGSIDE DRIVE, NY, NY, 10027","Match","Non_Exact","50 MORNINGSIDE DR, NEW YORK, NY, 10025",59656874,"L"
677379,"50 MORNINGSIDE RD","VERONA","NJ",7044,40.826690983,-74.253557273,379,"50 MORNINGSIDE RD, VERONA, NJ, 7044","Match","Exact","50 MORNINGSIDE RD, VERONA, NJ, 07044",63459927,"R"
677380,"50 MORRIS AVENUE","GIRARD","OH",44420,41.149454012,-80.697779799,380,"50 MORRIS AVENUE, GIRARD, OH, 44420","Match","Non_Exact","50 MORRIS AVE SE, GIRARD, OH, 44420",117411468,"L"
677381,"50 MOUNT ZION RD APT D1","ATLANTA","GA",30354,NA,NA,381,"50 MOUNT ZION RD APT D1, ATLANTA, GA, 30354","Tie",NA,NA,NA,NA
677382,"50 MOUNT ZION RD APT L2","ATLANTA","GA",30354,NA,NA,382,"50 MOUNT ZION RD APT L2, ATLANTA, GA, 30354","Tie",NA,NA,NA,NA
677383,"50 MOUNTAIN VIEW DRIVE","GROTON","VT",5046,44.2043630950001,-72.200526586,383,"50 MOUNTAIN VIEW DRIVE, GROTON, VT, 5046","Match","Exact","50 MOUNTAIN VIEW DR, GROTON, VT, 05046",181085584,"R"
677384,"50 MOURNING DOVE DRIVE","LYTLE","TX",78052,29.1999138520001,-98.748945339,384,"50 MOURNING DOVE DRIVE, LYTLE, TX, 78052","Match","Non_Exact","50 MORNING DOVE DR, LYTLE, TX, 78052",629580205,"R"
677385,"50 MT VERNON AVE","ROCHESTER","NY",14620,43.1408591910001,-77.601336665,385,"50 MT VERNON AVE, ROCHESTER, NY, 14620","Match","Exact","50 MOUNT VERNON AVE, ROCHESTER, NY, 14620",14540478,"L"
677386,"50 MT VERSON","ROCHESTER","NY",14620,NA,NA,386,"50 MT VERSON, ROCHESTER, NY, 14620","No_Match",NA,NA,NA,NA
677387,"50 MULBERRY STREET 4A","NEW YORK","NY",10013,40.7152340050001,-73.9996157579999,387,"50 MULBERRY STREET 4A, NEW YORK, NY, 10013","Match","Exact","50 MULBERRY ST, NEW YORK, NY, 10013",59653809,"R"
677388,"50 MULBERRY STREET","NEW YORK","NY",10013,40.7152340050001,-73.9996157579999,388,"50 MULBERRY STREET, NEW YORK, NY, 10013","Match","Exact","50 MULBERRY ST, NEW YORK, NY, 10013",59653809,"R"
677389,"50 MURRAY HILL TERRACE","BERGENFIELD","NJ",7621,40.922209982,-73.9944059159999,389,"50 MURRAY HILL TERRACE, BERGENFIELD, NJ, 7621","Match","Exact","50 MURRAY HILL TER, BERGENFIELD, NJ, 07621",64372320,"R"
677390,"50 MURRAY STREET      APT 1315","NEW YORK","NY",10007,40.71412122,-74.00955865,390,"50 MURRAY STREET      APT 1315, NEW YORK, NY, 10007","Match","Exact","50 MURRAY ST, NEW YORK, NY, 10007",59659548,"L"
677391,"50 MURRAY STREET","NEW YORK","NY",10007,40.71412122,-74.00955865,391,"50 MURRAY STREET, NEW YORK, NY, 10007","Match","Exact","50 MURRAY ST, NEW YORK, NY, 10007",59659548,"L"
677392,"50 MYANO LANE APT 10","STAMFORD","CT",6902,41.0505421990001,-73.5643962139999,392,"50 MYANO LANE APT 10, STAMFORD, CT, 6902","Match","Exact","50 MYANO LN, STAMFORD, CT, 06902",3244631,"L"
677393,"50 N 100 E","DELTA","UT",84624,39.3526016500001,-112.572464494,393,"50 N 100 E, DELTA, UT, 84624","Match","Exact","50 N 100 E, DELTA, UT, 84624",175137609,"R"
677394,"50 N 4TH AVE","MINNEAPOLIS","MN",55401,44.9875364050001,-93.270534588,394,"50 N 4TH AVE, MINNEAPOLIS, MN, 55401","Match","Non_Exact","50 4TH AVE N, MINNEAPOLIS, MN, 55401",641230506,"R"
677395,"50 N 600 W APT 514","SALT LAKE CITY","UT",84116,40.770627001,-111.90824439,395,"50 N 600 W APT 514, SALT LAKE CITY, UT, 84116","Match","Non_Exact","50 N 600 W, SALT LAKE CITY, UT, 84116",640937673,"R"
677396,"50 N 600 W UNIT D","SALT LAKE CITY","UT",84116,40.770627001,-111.90824439,396,"50 N 600 W UNIT D, SALT LAKE CITY, UT, 84116","Match","Non_Exact","50 N 600 W, SALT LAKE CITY, UT, 84116",640937673,"R"
677397,"50 N CEDAR LAKE DR E APT 101","COLUMBIA","MO",65203,38.8966085270001,-92.3407806609999,397,"50 N CEDAR LAKE DR E APT 101, COLUMBIA, MO, 65203","Match","Non_Exact","50 N CEDAR LAKE DR E, COLUMBIA, MO, 65203",23493816,"R"
677398,"50 N CRAIG AVE UNIT 1","PASADENA","CA",91107,NA,NA,398,"50 N CRAIG AVE UNIT 1, PASADENA, CA, 91107","Tie",NA,NA,NA,NA
677399,"50 N FRANKLIN TURNPIKE","HO HO KUS","NJ",7423,40.9982454560001,-74.111451309,399,"50 N FRANKLIN TURNPIKE, HO HO KUS, NJ, 7423","Match","Exact","50 N FRANKLIN TPKE, HO HO KUS, NJ, 07423",641257644,"R"
677400,"50 N HIGHWAY 89","NORTH SALT LAKE","UT",84054,NA,NA,400,"50 N HIGHWAY 89, NORTH SALT LAKE, UT, 84054","No_Match",NA,NA,NA,NA
677401,"50 N HONOLULU ST APT 182","LAS VEGAS","NV",89110,36.15980346,-115.09361283,401,"50 N HONOLULU ST APT 182, LAS VEGAS, NV, 89110","Match","Non_Exact","50 N HONOLULU ST, LAS VEGAS, NV, 89110",637402476,"R"
677402,"50 N ILLINOIS STREET APT 515","INDIANAPOLIS","IN",46204,NA,NA,402,"50 N ILLINOIS STREET APT 515, INDIANAPOLIS, IN, 46204","Tie",NA,NA,NA,NA
677403,"50 N ILLINOIS STREET APT 908","INDIANAPOLIS","IN",46204,NA,NA,403,"50 N ILLINOIS STREET APT 908, INDIANAPOLIS, IN, 46204","Tie",NA,NA,NA,NA
677404,"50 N MAIN STREET","ROBBINSVILLE","NC",28771,35.32363831,-83.807200584,404,"50 N MAIN STREET, ROBBINSVILLE, NC, 28771","Match","Exact","50 N MAIN ST, ROBBINSVILLE, NC, 28771",35948874,"R"
677405,"50 N MOUNTAIN AVE","TUCSON","AZ",85719,32.221958713,-110.952330222,405,"50 N MOUNTAIN AVE, TUCSON, AZ, 85719","Match","Exact","50 N MOUNTAIN AVE, TUCSON, AZ, 85719",121171426,"R"
677406,"50 N PORTLAND ST","FOND DU LAC","WI",54935,43.7798837940001,-88.445891922,406,"50 N PORTLAND ST, FOND DU LAC, WI, 54935","Match","Exact","50 N PORTLAND ST, FOND DU LAC, WI, 54935",74810415,"L"
677407,"50 N RACE ST","MIDDLETOWN","PA",17057,40.195616865,-76.725642993,407,"50 N RACE ST, MIDDLETOWN, PA, 17057","Match","Exact","50 RACE ST, MIDDLETOWN, PA, 17057",70825975,"R"
677408,"50 N ROSE BLVD","AKRON","OH",44302,41.1000788870001,-81.547626738,408,"50 N ROSE BLVD, AKRON, OH, 44302","Match","Exact","50 N ROSE BLVD, AKRON, OH, 44302",652733784,"L"
677409,"50 N SECTION ST","SULLIVAN","IN",47882,39.0959787480001,-87.409614453,409,"50 N SECTION ST, SULLIVAN, IN, 47882","Match","Exact","50 N SECTION ST, SULLIVAN, IN, 47882",27074992,"L"
677410,"50 N SIERRA STREET-NO 508","RENO","NV",89501,NA,NA,410,"50 N SIERRA STREET-NO 508, RENO, NV, 89501","No_Match",NA,NA,NA,NA
677411,"50 N STEPHANIE ST","HENDERSON","NV",89074,36.0323531220001,-115.047021049,411,"50 N STEPHANIE ST, HENDERSON, NV, 89074","Match","Exact","50 N STEPHANIE ST, HENDERSON, NV, 89074",202004730,"L"
677412,"50 N VIRGINIA ST","CRYSTAL LAKE","IL",60014,42.2429503770001,-88.34163674,412,"50 N VIRGINIA ST, CRYSTAL LAKE, IL, 60014","Match","Exact","50 NORTH VIRGINIA ST, CRYSTAL LAKE, IL, 60014",647083570,"R"
677413,"50 N WHITE OAK LAKEVIEW DRIVE","MADISON","VA",22727,38.3797615730001,-78.3157257669999,413,"50 N WHITE OAK LAKEVIEW DRIVE, MADISON, VA, 22727","Match","Exact","50 N WHITE OAK LAKEVIEW DR, MADISON, VA, 22727",29577716,"L"
677414,"50 NANCY FIELD RD","ORLAND","ME",4472,NA,NA,414,"50 NANCY FIELD RD, ORLAND, ME, 4472","No_Match",NA,NA,NA,NA
677415,"50 NATURE LANE","SEWELL","NJ",8080,39.744439404,-75.118530237,415,"50 NATURE LANE, SEWELL, NJ, 8080","Match","Exact","50 NATURE LN, SEWELL, NJ, 08080",614106117,"R"
677416,"50 NCRAIG AVE UNIT 1","PASADENA","CA",91107,NA,NA,416,"50 NCRAIG AVE UNIT 1, PASADENA, CA, 91107","No_Match",NA,NA,NA,NA
677417,"50 NELSON AVENUE","OSSINING","NY",10562,41.1504863550001,-73.8620611969999,417,"50 NELSON AVENUE, OSSINING, NY, 10562","Match","Exact","50 NELSON AVE, OSSINING, NY, 10562",139766562,"R"
677418,"50 NELSON PLACE","WORCESTER","MA",1605,42.2953983890001,-71.822483187,418,"50 NELSON PLACE, WORCESTER, MA, 1605","Match","Exact","50 NELSON PL, WORCESTER, MA, 01605",40005802,"R"
677419,"50 NELSON STREET","DOVER","NJ",7801,40.888262566,-74.548835603,419,"50 NELSON STREET, DOVER, NJ, 7801","Match","Exact","50 NELSON ST, DOVER, NJ, 07801",60483378,"R"
677420,"50 NETHERWOOD AVE","PLAINFIELD","NJ",7062,40.6352714610001,-74.414336877,420,"50 NETHERWOOD AVE, PLAINFIELD, NJ, 7062","Match","Exact","50 NETHERWOOD AVE, PLAINFIELD, NJ, 07062",60583529,"R"
677421,"50 NEW HOPE","APEX","NC",27510,NA,NA,421,"50 NEW HOPE, APEX, NC, 27510","No_Match",NA,NA,NA,NA
677422,"50 NEW LOTS AVE","BROOKLYN","NY",11212,40.657418793,-73.90300156,422,"50 NEW LOTS AVE, BROOKLYN, NY, 11212","Match","Exact","50 NEW LOTS AVE, BROOKLYN, NY, 11212",59084823,"R"
677423,"50 NEW STREET","KINGSTON","NY",12401,41.917538646,-73.995022729,423,"50 NEW STREET, KINGSTON, NY, 12401","Match","Exact","50 NEW ST, KINGSTON, NY, 12401",41887389,"L"
677424,"50 NEWBURY ST","BOSTON","MA",2119,NA,NA,424,"50 NEWBURY ST, BOSTON, MA, 2119","No_Match",NA,NA,NA,NA
677425,"50 NEWCOMB DRIVE","NEW PROVIDENCE","NJ",7974,40.7153884860001,-74.3994713559999,425,"50 NEWCOMB DRIVE, NEW PROVIDENCE, NJ, 7974","Match","Exact","50 NEWCOMB DR, NEW PROVIDENCE, NJ, 07974",60602728,"L"
677426,"50 NEWTON ROAD","FISHKILL","NY",12524,41.55610784,-73.8649538129999,426,"50 NEWTON ROAD, FISHKILL, NY, 12524","Match","Exact","50 NEWTON RD, FISHKILL, NY, 12524",4219581,"R"
677427,"50 NEWTON ROAD","HAVERHILL","MA",1830,42.7957571970001,-71.0653896009999,427,"50 NEWTON ROAD, HAVERHILL, MA, 1830","Match","Exact","50 NEWTON RD, HAVERHILL, MA, 01830",86685544,"L"
677428,"50 NEWTON STREET","BOSTON","MA",2135,42.356866816,-71.164374729,428,"50 NEWTON STREET, BOSTON, MA, 2135","Match","Exact","50 NEWTON ST, BOSTON, MA, 02135",85722275,"L"
677429,"50 NEWTON STREET","PHILADELPHIA","PA",19118,40.0817829200001,-75.2076857549999,429,"50 NEWTON STREET, PHILADELPHIA, PA, 19118","Match","Exact","50 NEWTON ST, PHILADELPHIA, PA, 19118",131393824,"R"
677430,"50 NINTY TWO PLACE","GRIFFIN","GA",30223,NA,NA,430,"50 NINTY TWO PLACE, GRIFFIN, GA, 30223","No_Match",NA,NA,NA,NA
677431,"50 NOONE LANE","KINGSTON","NY",12401,41.92715373,-74.020760474,431,"50 NOONE LANE, KINGSTON, NY, 12401","Match","Exact","50 NOONE LN, KINGSTON, NY, 12401",41864001,"R"
677432,"50 NORMA DRIVE","NASHUA","NH",3062,42.741291038,-71.516879601,432,"50 NORMA DRIVE, NASHUA, NH, 3062","Match","Exact","50 NORMA DR, NASHUA, NH, 03062",113576946,"R"
677433,"50 NORMANS FORD DRIVE","SICKLERVILLE","NJ",8081,39.75515956,-74.970109835,433,"50 NORMANS FORD DRIVE, SICKLERVILLE, NJ, 8081","Match","Exact","50 NORMANS FORD DR, SICKLERVILLE, NJ, 08081",134379155,"L"
677434,"50 NORRIS ROAD","TYNGSBOROUGH","MA",1829,NA,NA,434,"50 NORRIS ROAD, TYNGSBOROUGH, MA, 1829","No_Match",NA,NA,NA,NA
677435,"50 NORTH 3RD STREET","OXFORD","PA",19363,39.786931662,-75.9784979039999,435,"50 NORTH 3RD STREET, OXFORD, PA, 19363","Match","Exact","50 N 3RD ST, OXFORD, PA, 19363",179482493,"R"
677436,"50 NORTH ALABAMA","INDIANAPOLIS","IN",46204,39.7680606210001,-86.152619413,436,"50 NORTH ALABAMA, INDIANAPOLIS, IN, 46204","Match","Non_Exact","50 N ALABAMA ST, INDIANAPOLIS, IN, 46204",108027155,"L"
677437,"50 NORTH AVENUE APT 1D","SAN RAFAEL","CA",94903,38.022590746,-122.526198181,437,"50 NORTH AVENUE APT 1D, SAN RAFAEL, CA, 94903","Match","Exact","50 NORTH AVE, SAN RAFAEL, CA, 94903",192773906,"R"
677438,"50 NORTH HIGH STREET","MARKESAN","WI",53946,43.707722989,-88.9860377209999,438,"50 NORTH HIGH STREET, MARKESAN, WI, 53946","Match","Exact","50 N HIGH ST, MARKESAN, WI, 53946",73449215,"R"
677439,"50 NORTH LAKE DRIVE","ORCHARD PARK","NY",14127,42.75718176,-78.74689202,439,"50 NORTH LAKE DRIVE, ORCHARD PARK, NY, 14127","Match","Exact","50 N LAKE DR, ORCHARD PARK, NY, 14127",48331591,"R"
677440,"50 NORTH LAURA STREET STE 1100","JACKSONVILLE","FL",32202,30.326954792,-81.659349054,440,"50 NORTH LAURA STREET STE 1100, JACKSONVILLE, FL, 32202","Match","Exact","50 N LAURA ST, JACKSONVILLE, FL, 32202",83899703,"L"
677441,"50 NORTH LAURA STREET SUITE 2500","JACKSONVILLE","FL",32202,30.326954792,-81.659349054,441,"50 NORTH LAURA STREET SUITE 2500, JACKSONVILLE, FL, 32202","Match","Exact","50 N LAURA ST, JACKSONVILLE, FL, 32202",83899703,"L"
677442,"50 NORTH LIBERTY STREET","NANTUCKET","MA",2554,41.2872345760001,-70.1078426189999,442,"50 NORTH LIBERTY STREET, NANTUCKET, MA, 2554","Match","Exact","50 N LIBERTY ST, NANTUCKET, MA, 02554",647309148,"L"
677443,"50 NORTH ONYX COURT","PIKE ROAD","AL",36064,32.361473059,-86.053576133,443,"50 NORTH ONYX COURT, PIKE ROAD, AL, 36064","Match","Non_Exact","50 ONYX CT, PIKE ROAD, AL, 36064",641742549,"R"
677444,"50 NORTH SIERRA ST 104","RENO","NV",89501,39.5251162910001,-119.814050792,444,"50 NORTH SIERRA ST 104, RENO, NV, 89501","Match","Exact","50 N SIERRA ST, RENO, NV, 89501",107045144,"R"
677445,"50 NORTH STATE STREET","CONCORD","NH",3301,43.208803786,-71.539826277,445,"50 NORTH STATE STREET, CONCORD, NH, 3301","Match","Exact","50 N STATE ST, CONCORD, NH, 03301",117717334,"R"
677446,"50 NORTH STREET C/O PENQUIS","DOVER-FOXCROFT","ME",4426,45.1862936590001,-69.231423525,446,"50 NORTH STREET C/O PENQUIS, DOVER-FOXCROFT, ME, 4426","Match","Exact","50 NORTH ST, DOVER FOXCROFT, ME, 04426",123970703,"L"
677447,"50 NORTH STREET","GRAFTON","MA",1519,42.2134096610001,-71.679789581,447,"50 NORTH STREET, GRAFTON, MA, 1519","Match","Exact","50 NORTH ST, GRAFTON, MA, 01519",40088099,"R"
677448,"50 NORTHGATE ROAD","WELLESLEY","MA",2481,42.316926218,-71.313566849,448,"50 NORTHGATE ROAD, WELLESLEY, MA, 2481","Match","Exact","50 NORTHGATE RD, WELLESLEY, MA, 02481",87236308,"L"
677449,"50 NORWICH CIRCLE","MEDFORD","MA",2155,42.43317017,-71.144260458,449,"50 NORWICH CIRCLE, MEDFORD, MA, 2155","Match","Exact","50 NORWICH CIR, MEDFORD, MA, 02155",87089490,"L"
677450,"50 NUGENTOWN ROAD","LITTLE EGG HARBOR","NJ",8087,39.609863068,-74.344377844,450,"50 NUGENTOWN ROAD, LITTLE EGG HARBOR, NJ, 8087","Match","Exact","50 NUGENTOWN RD, LITTLE EGG HARBOR, NJ, 08087",203814144,"L"
677451,"50 NW 1ST AVENUE","DELRAY BEACH","FL",33444,26.462544501,-80.0741356349999,451,"50 NW 1ST AVENUE, DELRAY BEACH, FL, 33444","Match","Exact","50 NW 1ST AVE, DELRAY BEACH, FL, 33444",115298094,"L"
677452,"50 NW 5TH AVE","HOMESTEAD","FL",33030,25.470305114,-80.484491626,452,"50 NW 5TH AVE, HOMESTEAD, FL, 33030","Match","Exact","50 NW 5TH AVE, HOMESTEAD, FL, 33030",115991959,"L"
677453,"50 OAK RIDGE DRIVE","LA SALLE","IL",61301,41.347189804,-89.034078866,453,"50 OAK RIDGE DRIVE, LA SALLE, IL, 61301","Match","Exact","50 OAK RIDGE DR, LA SALLE, IL, 61301",8623250,"R"
677454,"50 OAK STREET","LOS ALTOS","CA",94022,37.382303506,-122.118576466,454,"50 OAK STREET, LOS ALTOS, CA, 94022","Match","Exact","50 OAK ST, LOS ALTOS, CA, 94022",122953182,"L"
677455,"50 OAK TREE DRIVE","CANFIELD","OH",44406,41.037687911,-80.758381597,455,"50 OAK TREE DRIVE, CANFIELD, OH, 44406","Match","Exact","50 OAK TREE DR, CANFIELD, OH, 44406",64607853,"L"
677456,"50 OAKDALE AVE","WESTON","MA",2493,42.3159162650001,-71.326121741,456,"50 OAKDALE AVE, WESTON, MA, 2493","Match","Exact","50 OAKDALE AVE, WESTON, MA, 02493",618254443,"L"
677457,"50 OCEAN PKWAY - APT 4J","BROOKLYN","NY",11218,40.650205118,-73.975547669,457,"50 OCEAN PKWAY - APT 4J, BROOKLYN, NY, 11218","Match","Exact","50 OCEAN PKWY, BROOKLYN, NY, 11218",59080533,"R"
677458,"50 OCEAN PKWY APT 4J","BROOKLYN","NY",11218,40.650205118,-73.975547669,458,"50 OCEAN PKWY APT 4J, BROOKLYN, NY, 11218","Match","Exact","50 OCEAN PKWY, BROOKLYN, NY, 11218",59080533,"R"
677459,"50 OCEANA DRIVE WEST APT 4C","BROOKLYN","NY",11235,40.5766281320001,-73.958795432,459,"50 OCEANA DRIVE WEST APT 4C, BROOKLYN, NY, 11235","Match","Exact","50 OCEANA DR W, BROOKLYN, NY, 11235",59103252,"L"
677460,"50 OCEANSIDE DR","PALM COAST","FL",32137,29.6321511150001,-81.1994194489999,460,"50 OCEANSIDE DR, PALM COAST, FL, 32137","Match","Exact","50 OCEANSIDE DR, PALM COAST, FL, 32137",649905095,"R"
677461,"50 OCTOBER LANE","FAIRFIELD","VA",24435,37.8882964680001,-79.2731114549999,461,"50 OCTOBER LANE, FAIRFIELD, VA, 24435","Match","Exact","50 OCTOBER LN, FAIRFIELD, VA, 24435",215049622,"L"
677462,"50 OHLER LN","CORBIN","KY",40701,36.965998401,-84.05961245,462,"50 OHLER LN, CORBIN, KY, 40701","Match","Exact","50 OHLER LN, CORBIN, KY, 40701",160696991,"L"
677463,"50 OKEECHOBEE CIRCLE","SANTA ROSA BEACH","FL",32459,30.3501132320001,-86.213536566,463,"50 OKEECHOBEE CIRCLE, SANTA ROSA BEACH, FL, 32459","Match","Exact","50 OKEECHOBEE CIR, SANTA ROSA BEACH, FL, 32459",630309539,"R"
677464,"50 OLD COACH RD","FAIRFIELD","CT",6824,41.1889868470001,-73.2696170469999,464,"50 OLD COACH RD, FAIRFIELD, CT, 6824","Match","Exact","50 OLD COACH RD, FAIRFIELD, CT, 06824",3239822,"R"
677465,"50 OLD COACH ROAD","CLIFTON PARK","NY",12065,42.8126972750001,-73.775030886,465,"50 OLD COACH ROAD, CLIFTON PARK, NY, 12065","Match","Exact","50 OLD COACH RD, CLIFTON PARK, NY, 12065",18775502,"R"
677466,"50 OLD COURTHOUSE SQ FL 5","SANTA ROSA","CA",95404,NA,NA,466,"50 OLD COURTHOUSE SQ FL 5, SANTA ROSA, CA, 95404","No_Match",NA,NA,NA,NA
677467,"50 OLD DAIRY RD","TRUMBULL","CT",6611,41.246964135,-73.164186779,467,"50 OLD DAIRY RD, TRUMBULL, CT, 6611","Match","Exact","50 OLD DAIRY RD, TRUMBULL, CT, 06611",3276737,"L"
677468,"50 OLD FARM ROAD","PLYMOUTH","ME",4969,44.7442612360001,-69.180270277,468,"50 OLD FARM ROAD, PLYMOUTH, ME, 4969","Match","Exact","50 OLD FARM RD, PLYMOUTH, ME, 04969",123634686,"R"
677469,"50 OLD HICKORY LANE","OXFORD","GA",30054,33.6731847120001,-83.879786854,469,"50 OLD HICKORY LANE, OXFORD, GA, 30054","Match","Exact","50 OLD HICKORY LN, OXFORD, GA, 30054",23626270,"R"
677470,"50 OLD MAIN STREET","ROCKY HILL","CT",6067,41.6836236070001,-72.648642369,470,"50 OLD MAIN STREET, ROCKY HILL, CT, 6067","Match","Exact","50 OLD MAIN ST, ROCKY HILL, CT, 06067",3517885,"L"
677471,"50 OLD POINT WHITNEY ROAD","BRINNON","WA",98320,NA,NA,471,"50 OLD POINT WHITNEY ROAD, BRINNON, WA, 98320","Tie",NA,NA,NA,NA
677472,"50 OLD POND WAY","SNOWMASS","CO",81654,39.254776,-106.975163649,472,"50 OLD POND WAY, SNOWMASS, CO, 81654","Match","Exact","50 OLD POND WAY, SNOWMASS, CO, 81654",645565112,"R"
677473,"50 OLD ROARING BROOK ROAD","MT KISCO","NY",10549,41.197769646,-73.757312643,473,"50 OLD ROARING BROOK ROAD, MT KISCO, NY, 10549","Match","Exact","50 OLD ROARING BROOK RD, MOUNT KISCO, NY, 10549",139798258,"L"
677474,"50 OLIVER RD","MACON","MS",39341,33.119883982,-88.540914185,474,"50 OLIVER RD, MACON, MS, 39341","Match","Exact","50 OLIVER RD, MACON, MS, 39341",2791965,"R"
677475,"50 ONEIDA ST","COHOES","NY",12047,42.775667997,-73.6991524109999,475,"50 ONEIDA ST, COHOES, NY, 12047","Match","Exact","50 ONEIDA ST, COHOES, NY, 12047",18312553,"L"
677476,"50 ORCHARD APARTMENT 3-B","NEW YORK","NY",10002,40.716528748,-73.991039633,476,"50 ORCHARD APARTMENT 3-B, NEW YORK, NY, 10002","Match","Non_Exact","50 ORCHARD ST, NEW YORK, NY, 10002",59654033,"R"
677477,"50 ORCHARD DRIVE","WILLIFORD","AR",72482,36.3044950410001,-91.395853997,477,"50 ORCHARD DRIVE, WILLIFORD, AR, 72482","Match","Exact","50 ORCHARD DR, WILLIFORD, AR, 72482",604557985,"R"
677478,"50 ORCHARD ROAD","AKRON","OH",44313,41.1003437090001,-81.5525442539999,478,"50 ORCHARD ROAD, AKRON, OH, 44313","Match","Exact","50 ORCHARD RD, AKRON, OH, 44313",61339409,"R"
677479,"50 ORCHARD ROAD","WOODBRIDGE","CT",6525,41.3713926450001,-73.01850001,479,"50 ORCHARD ROAD, WOODBRIDGE, CT, 6525","Match","Exact","50 ORCHARD RD, WOODBRIDGE, CT, 06525",3732193,"L"
677480,"50 ORCHARD STREET APT 10C","NEW YORK","NY",10002,40.716528748,-73.991039633,480,"50 ORCHARD STREET APT 10C, NEW YORK, NY, 10002","Match","Exact","50 ORCHARD ST, NEW YORK, NY, 10002",59654033,"R"
677481,"50 OSGOOD PLACE SUITE 500","SAN FRANCISCO","CA",94133,37.79786211,-122.402972269,481,"50 OSGOOD PLACE SUITE 500, SAN FRANCISCO, CA, 94133","Match","Exact","50 OSGOOD PL, SAN FRANCISCO, CA, 94133",639023108,"R"
677482,"50 OVERLOOK DRIVE","NORWOOD","MA",2062,42.168084736,-71.17541662,482,"50 OVERLOOK DRIVE, NORWOOD, MA, 2062","Match","Exact","50 OVERLOOK DR, NORWOOD, MA, 02062",87275825,"L"
677483,"50 OVERLOOK DRIVE","SPRINGFIELD","MA",1118,42.1036957410001,-72.544493938,483,"50 OVERLOOK DRIVE, SPRINGFIELD, MA, 1118","Match","Exact","50 OVERLOOK DR, SPRINGFIELD, MA, 01118",4036739,"L"
677484,"50 OVERLOOK RD","HOLBROOK","MA",2343,42.1469078390001,-71.017194004,484,"50 OVERLOOK RD, HOLBROOK, MA, 2343","Match","Exact","50 OVERLOOK RD, HOLBROOK, MA, 02343",87281915,"R"
677485,"50 OXFORD ROAD","NEW HARTFORD","NY",13413,43.0687147580001,-75.2858307719999,485,"50 OXFORD ROAD, NEW HARTFORD, NY, 13413","Match","Exact","50 OXFORD RD, NEW HARTFORD, NY, 13413",171528437,"R"
677486,"50 PACES LANDING","COVINGTON","GA",30016,33.557232963,-84.000041557,486,"50 PACES LANDING, COVINGTON, GA, 30016","Match","Exact","50 PACES LNDG, COVINGTON, GA, 30016",23623127,"R"
677487,"50 PALLANT AVE","LINDEN","NJ",7036,40.6474122380001,-74.279241725,487,"50 PALLANT AVE, LINDEN, NJ, 7036","Match","Exact","50 PALLANT AVE, LINDEN, NJ, 07036",60574966,"R"
677488,"50 PARK AVENUE","BERKELEY HEIGHTS","NJ",7922,40.680874837,-74.443260118,488,"50 PARK AVENUE, BERKELEY HEIGHTS, NJ, 7922","Match","Exact","50 PARK AVE, BERKELEY HEIGHTS, NJ, 07922",60588970,"L"
677489,"50 PARK AVENUE","BERKLEY HEIGHTS","NJ",7922,40.680874837,-74.443260118,489,"50 PARK AVENUE, BERKLEY HEIGHTS, NJ, 7922","Match","Non_Exact","50 PARK AVE, BERKELEY HEIGHTS, NJ, 07922",60588970,"L"
677490,"50 PARK AVENUE","NEW YORK","NY",10016,40.7490395240001,-73.9799215199999,490,"50 PARK AVENUE, NEW YORK, NY, 10016","Match","Exact","50 PARK AVE, NEW YORK, NY, 10016",59654388,"L"
677491,"50 PARK LANE","GOLF","IL",60029,42.056186843,-87.790832918,491,"50 PARK LANE, GOLF, IL, 60029","Match","Exact","50 PARK LN, GOLF, IL, 60029",111734706,"L"
677492,"50 PARK PLACE SUITE 1100","NEWARK","NJ",7102,40.739014458,-74.1688005629999,492,"50 PARK PLACE SUITE 1100, NEWARK, NJ, 7102","Match","Exact","50 PARK PL, NEWARK, NJ, 07102",63467543,"L"
677493,"50 PARK PLACE","BRISBANE","CA",94005,37.68667422,-122.40502987,493,"50 PARK PLACE, BRISBANE, CA, 94005","Match","Non_Exact","50 PARK LN, BRISBANE, CA, 94005",647250875,"R"
677494,"50 PARK PLACE","NEWARK","NJ",7102,40.739014458,-74.1688005629999,494,"50 PARK PLACE, NEWARK, NJ, 7102","Match","Exact","50 PARK PL, NEWARK, NJ, 07102",63467543,"L"
677495,"50 PARK ROW WEST 520","PROVIDENCE","RI",2903,41.8287221320001,-71.412685972,495,"50 PARK ROW WEST 520, PROVIDENCE, RI, 2903","Match","Exact","50 PARK ROW W, PROVIDENCE, RI, 02903",47483415,"L"
677496,"50 PARK ROW WEST","PROVIDENCE","RI",2903,41.8287221320001,-71.412685972,496,"50 PARK ROW WEST, PROVIDENCE, RI, 2903","Match","Exact","50 PARK ROW W, PROVIDENCE, RI, 02903",47483415,"L"
677497,"50 PARK TERRACE EAST","NEW YORK","NY",10034,40.8702185510001,-73.9168685,497,"50 PARK TERRACE EAST, NEW YORK, NY, 10034","Match","Exact","50 PARK TER E, NEW YORK, NY, 10034",59658928,"R"
677498,"50 PARK TERRACE WEST 2C","NEW YORK","NY",10034,40.87083547,-73.918033507,498,"50 PARK TERRACE WEST 2C, NEW YORK, NY, 10034","Match","Exact","50 PARK TER W, NEW YORK, NY, 10034",59658921,"R"
677499,"50 PARMELY PLACE","SUMMIT","NJ",7901,40.7203522510001,-74.3566321549999,499,"50 PARMELY PLACE, SUMMIT, NJ, 7901","Match","Non_Exact","50 PARMLEY PL, SUMMIT, NJ, 07901",60565236,"L"
677500,"50 PARSONS BLVD","FRESH MEDOWS","NY",11365,NA,NA,500,"50 PARSONS BLVD, FRESH MEDOWS, NY, 11365","No_Match",NA,NA,NA,NA
