"ID","Address","City","State","Zip","lat","long","id","input_address","match_indicator","match_type","matched_address","tiger_line_id","tiger_side"
297501,"1955 HWY 138 SUITE 500","CONYERS","GA",30012,NA,NA,1,"1955 HWY 138 SUITE 500, CONYERS, GA, 30012","No_Match",NA,NA,NA,NA
297502,"1955 HWY 138 SUITE 500","CONYERS","GA",30013,33.671866606,-83.982394437,2,"1955 HWY 138 SUITE 500, CONYERS, GA, 30013","Match","Non_Exact","1955 STATE RTE 138, CONYERS, GA, 30013",647380854,"R"
297503,"1955 IROQUOIS CT","OSHKOSH","WI",54901,44.101165404,-88.496315456,3,"1955 IROQUOIS CT, OSHKOSH, WI, 54901","Match","Exact","1955 IROQUOIS CT, OSHKOSH, WI, 54901",74502818,"R"
297504,"1955 LANCASTER DRIVE","SPRINGDALE","AR",72762,36.224775171,-94.1506285409999,4,"1955 LANCASTER DRIVE, SPRINGDALE, AR, 72762","Match","Exact","1955 LANCASTER DR, SPRINGDALE, AR, 72762",653138892,"R"
297505,"1955 LARKSPUR APT 615","SAN ANTONIO","TX",78213,29.5451724750001,-98.522636757,5,"1955 LARKSPUR APT 615, SAN ANTONIO, TX, 78213","Match","Non_Exact","1955 LARKSPUR DR, SAN ANTONIO, TX, 78213",650151293,"R"
297506,"1955 LAS COLINAS WAY","CORAL SPRINGS","FL",33071,26.2556011980001,-80.2879724159999,6,"1955 LAS COLINAS WAY, CORAL SPRINGS, FL, 33071","Match","Exact","1955 LAS COLINAS WAY, CORAL SPRINGS, FL, 33071",114772555,"R"
297507,"1955 LEWIS MOUNTAIN ROAD","CHARLOTTESVILLE","VA",22903,38.038473708,-78.5119275019999,7,"1955 LEWIS MOUNTAIN ROAD, CHARLOTTESVILLE, VA, 22903","Match","Exact","1955 LEWIS MOUNTAIN RD, CHARLOTTESVILLE, VA, 22903",83369082,"R"
297508,"1955 LIME AVENUE","MCKINLEYVILLE","CA",95519,40.940808028,-124.091449619,8,"1955 LIME AVENUE, MCKINLEYVILLE, CA, 95519","Match","Exact","1955 LIME AVE, MCKINLEYVILLE, CA, 95519",113023672,"R"
297509,"1955 MARKET CENTER BLD APT 2105","DALLAS","TX",75207,32.7970062420001,-96.824489044,9,"1955 MARKET CENTER BLD APT 2105, DALLAS, TX, 75207","Match","Non_Exact","1955 MARKET CENTER BLVD, DALLAS, TX, 75207",650072637,"L"
297510,"1955 MARKET CENTER BLVD APT 1421","DALLAS","TX",75207,32.7970062420001,-96.824489044,10,"1955 MARKET CENTER BLVD APT 1421, DALLAS, TX, 75207","Match","Exact","1955 MARKET CENTER BLVD, DALLAS, TX, 75207",650072637,"L"
297511,"1955 MARTIN ROAD","FERNDALE","MI",48220,42.4627846820001,-83.11319173,11,"1955 MARTIN ROAD, FERNDALE, MI, 48220","Match","Exact","1955 MARTIN RD, FERNDALE, MI, 48220",69747699,"L"
297512,"1955 MCLEAN RD","FALLON","NV",89406,39.461242079,-118.833065337,12,"1955 MCLEAN RD, FALLON, NV, 89406","Match","Exact","1955 MCLEAN RD, FALLON, NV, 89406",139959126,"R"
297513,"1955 MESSMER ROAD","VERONA","KY",41092,38.807304378,-84.650226846,13,"1955 MESSMER ROAD, VERONA, KY, 41092","Match","Exact","1955 MESSMER RD, VERONA, KY, 41092",81949781,"R"
297514,"1955 MILAM STREET","FORT WORTH","TX",76112,32.75007893,-97.211584291,14,"1955 MILAM STREET, FORT WORTH, TX, 76112","Match","Exact","1955 MILAM ST, FORT WORTH, TX, 76112",101900372,"L"
297515,"1955 N ST LOUIS","CHICAGO","IL",60647,41.9168391040001,-87.713512125,15,"1955 N ST LOUIS, CHICAGO, IL, 60647","Match","Non_Exact","1955 N ST LOUIS AVE, CHICAGO, IL, 60647",605222180,"R"
297516,"1955 NE 135TH STREET UNIT 211","NORTH MIAMI","FL",33181,25.8999936710001,-80.158369373,16,"1955 NE 135TH STREET UNIT 211, NORTH MIAMI, FL, 33181","Match","Non_Exact","1955 NE 135TH ST, NORTH MIAMI, FL, 33181",116248791,"L"
297517,"1955 NORTH BENNINGTON RD","NORTH BENNINGTON","VT",5257,42.913813283,-73.242657295,17,"1955 NORTH BENNINGTON RD, NORTH BENNINGTON, VT, 5257","Match","Exact","1955 N BENNINGTON RD, N BENNINGTON, VT, 05257",641172200,"R"
297518,"1955 NORTH VAL VISTA RD","MESA","AZ",85213,NA,NA,18,"1955 NORTH VAL VISTA RD, MESA, AZ, 85213","No_Match",NA,NA,NA,NA
297519,"1955 OLD ALABAMA ROAD","TAYLORSVILLE","GA",30178,34.097473838,-84.9963809229999,19,"1955 OLD ALABAMA ROAD, TAYLORSVILLE, GA, 30178","Match","Exact","1955 OLD ALABAMA RD, TAYLORSVILLE, GA, 30178",30448385,"L"
297520,"1955 PASEO ARENA PL","EL PASO","TX",79936,31.767070125,-106.274538367,20,"1955 PASEO ARENA PL, EL PASO, TX, 79936","Match","Exact","1955 PASEO ARENA PL, EL PASO, TX, 79936",189377389,"L"
297521,"1955 PAYNE LANE","CONWAY","AR",72034,35.105811067,-92.475219879,21,"1955 PAYNE LANE, CONWAY, AR, 72034","Match","Exact","1955 PAYNE LN, CONWAY, AR, 72034",141057442,"L"
297522,"1955 POPPS FERRY RD APT 1042","BILOXI","MS",39532,30.438461723,-88.953315763,22,"1955 POPPS FERRY RD APT 1042, BILOXI, MS, 39532","Match","Exact","1955 POPPS FERRY RD, BILOXI, MS, 39532",641443283,"R"
297523,"1955 QUAIL MEADOW RD","LOS ALTOS","CA",94024,37.3432392080001,-122.092584312,23,"1955 QUAIL MEADOW RD, LOS ALTOS, CA, 94024","Match","Exact","1955 QUAIL MEADOW RD, LOS ALTOS, CA, 94024",122934646,"L"
297524,"1955 RESERVE WAY","DECATUR","IL",62521,39.8090885,-88.92911951,24,"1955 RESERVE WAY, DECATUR, IL, 62521","Match","Non_Exact","1955 E RESERVE WAY, DECATUR, IL, 62521",618338153,"R"
297525,"1955 RIDEOUT DRIVE NW","HUNTSVILLE","AL",35806,34.7560196160001,-86.669679187,25,"1955 RIDEOUT DRIVE NW, HUNTSVILLE, AL, 35806","Match","Exact","1955 RIDEOUT DR NW, HUNTSVILLE, AL, 35806",58205170,"L"
297526,"1955 RIDEOUT ROAD","HUNTSVILLE","AL",35806,NA,NA,26,"1955 RIDEOUT ROAD, HUNTSVILLE, AL, 35806","No_Match",NA,NA,NA,NA
297527,"1955 RINCAN DE AMIGOS","LAS CRUCES","NM",88012,32.4051716380001,-106.794707532,27,"1955 RINCAN DE AMIGOS, LAS CRUCES, NM, 88012","Match","Non_Exact","1955 RINCON DE AMIGOS, LAS CRUCES, NM, 88012",616319916,"L"
297528,"1955 RITNER HIGHWAY","SHIPPENSBURG","PA",17257,40.10118957,-77.431881592,28,"1955 RITNER HIGHWAY, SHIPPENSBURG, PA, 17257","Match","Exact","1955 RITNER HWY, SHIPPENSBURG, PA, 17257",647950175,"L"
297529,"1955 S KENMORE STREET","ARLINGTON","VA",22204,38.8525927970001,-77.087411473,29,"1955 S KENMORE STREET, ARLINGTON, VA, 22204","Match","Exact","1955 S KENMORE ST, ARLINGTON, VA, 22204",76477699,"L"
297530,"1955 SACRED MOUNTAIN LANE","BRENTWOOD","CA",94513,37.901027819,-121.729191082,30,"1955 SACRED MOUNTAIN LANE, BRENTWOOD, CA, 94513","Match","Exact","1955 SACRED MOUNTAIN LN, BRENTWOOD, CA, 94513",627229018,"L"
297531,"1955 SHERIDAN ROAD","BUFFALO GROVE","IL",60089,42.188734793,-87.974128492,31,"1955 SHERIDAN ROAD, BUFFALO GROVE, IL, 60089","Match","Exact","1955 SHERIDAN RD, BUFFALO GROVE, IL, 60089",119681273,"L"
297532,"1955 SILVER MAPLE TRL","NORTH LIBERTY","IA",52317,41.76811961,-91.590447555,32,"1955 SILVER MAPLE TRL, NORTH LIBERTY, IA, 52317","Match","Exact","1955 SILVER MAPLE TRL, NORTH LIBERTY, IA, 52317",617543569,"L"
297533,"1955 SKIPWOOD DR","MISSOURI CITY","TX",77489,29.6050136370001,-95.533942053,33,"1955 SKIPWOOD DR, MISSOURI CITY, TX, 77489","Match","Exact","1955 SKIPWOOD DR, MISSOURI CITY, TX, 77489",635754724,"L"
297534,"1955 SOUTH CASINO DRIVE UNIT FC6","LAUGHLIN","NV",89029,35.1623839700001,-114.574348441,34,"1955 SOUTH CASINO DRIVE UNIT FC6, LAUGHLIN, NV, 89029","Match","Exact","1955 S CASINO DR, LAUGHLIN, NV, 89029",650025127,"L"
297535,"1955 SOUTH URBAN ST","LAKEWOOD","CO",80228,39.678873826,-105.131433321,35,"1955 SOUTH URBAN ST, LAKEWOOD, CO, 80228","Match","Exact","1955 S URBAN ST, LAKEWOOD, CO, 80228",177318363,"R"
297536,"1955 STONY BROOK ROAD","STOCKBRIDGE","VT",5772,43.7456918070001,-72.721644307,36,"1955 STONY BROOK ROAD, STOCKBRIDGE, VT, 5772","Match","Exact","1955 STONY BROOK RD, STOCKBRIDGE, VT, 05772",139249692,"R"
297537,"1955 SW 5TH AVE APT 926","PORTLAND","OR",97201,45.50916053,-122.682810768,37,"1955 SW 5TH AVE APT 926, PORTLAND, OR, 97201","Match","Non_Exact","1955 SW 5TH AVE, PORTLAND, OR, 97201",638321944,"R"
297538,"1955 TUCKAWAY DRIVE","BLOOMFIELD HILLS","MI",48302,42.574710188,-83.3226394179999,38,"1955 TUCKAWAY DRIVE, BLOOMFIELD HILLS, MI, 48302","Match","Exact","1955 TUCKAWAY DR, BLOOMFIELD HILLS, MI, 48302",618413126,"R"
297539,"1955 ULSTER ST APT 343","DENVER","CO",80220,39.746620777,-104.894025071,39,"1955 ULSTER ST APT 343, DENVER, CO, 80220","Match","Exact","1955 ULSTER ST, DENVER, CO, 80220",177313595,"L"
297540,"1955 ULSTER STREET STE 1","DENVER","CO",80220,39.746620777,-104.894025071,40,"1955 ULSTER STREET STE 1, DENVER, CO, 80220","Match","Exact","1955 ULSTER ST, DENVER, CO, 80220",177313595,"L"
297541,"1955 W BASELINE RD NO 113/407","MESA","AZ",85202,NA,NA,41,"1955 W BASELINE RD NO 113/407, MESA, AZ, 85202","No_Match",NA,NA,NA,NA
297542,"1955 W FOSTER AVE APT 2","CHICAGO","IL",60640,41.9760469820001,-87.678358099,42,"1955 W FOSTER AVE APT 2, CHICAGO, IL, 60640","Match","Non_Exact","1955 W FOSTER AVE, CHICAGO, IL, 60640",605185588,"L"
297543,"1955 W GRANT  125","TUCSON","AZ",85745,NA,NA,43,"1955 W GRANT  125, TUCSON, AZ, 85745","No_Match",NA,NA,NA,NA
297544,"1955 W LINDA VISTA RD","ORACLE","AZ",85623,32.6039651500001,-110.797395775,44,"1955 W LINDA VISTA RD, ORACLE, AZ, 85623","Match","Exact","1955 W LINDA VISTA RD, ORACLE, AZ, 85623",129259718,"R"
297545,"1955 W TEXAS ST STE1","FAIRFIELD","CA",94533,38.24926415,-122.065509598,45,"1955 W TEXAS ST STE1, FAIRFIELD, CA, 94533","Match","Exact","1955 TEXAS ST, FAIRFIELD, CA, 94533",192563764,"L"
297546,"1955 W TEXAS ST","FAIRFIELD","CA",94533,38.249264112,-122.065507249,46,"1955 W TEXAS ST, FAIRFIELD, CA, 94533","Match","Exact","1955 TEXAS ST, FAIRFIELD, CA, 94533",192563764,"L"
297547,"1955 WEST EVERGREEN AVE APT 2","CHICAGO","IL",60622,41.9060218290001,-87.676219697,47,"1955 WEST EVERGREEN AVE APT 2, CHICAGO, IL, 60622","Match","Exact","1955 W EVERGREEN AVE, CHICAGO, IL, 60622",111764711,"L"
297548,"1955 WILLIAM STREET","UNION","NJ",7083,40.711003502,-74.254562501,48,"1955 WILLIAM STREET, UNION, NJ, 7083","Match","Exact","1955 WILLIAM ST, UNION, NJ, 07083",60571405,"R"
297549,"1955 WIND MEADOWS DR","BARTOW","FL",33830,27.941998181,-81.871019346,49,"1955 WIND MEADOWS DR, BARTOW, FL, 33830","Match","Exact","1955 WIND MEADOWS DR, BARTOW, FL, 33830",633999774,"R"
297550,"1955 WINDING HALLOW DR","GROVE CITY","OH",43123,39.9141316450001,-83.093046133,50,"1955 WINDING HALLOW DR, GROVE CITY, OH, 43123","Match","Non_Exact","1955 WINDING HOLLOW DR, GROVE CITY, OH, 43123",218696663,"R"
297551,"1955 YELLOW FIN DRIVE","PORT ORANGE","FL",32128,29.111831669,-81.062514092,51,"1955 YELLOW FIN DRIVE, PORT ORANGE, FL, 32128","Match","Non_Exact","1955 YELLOWFIN DR, PORT ORANGE, FL, 32128",612319120,"R"
297552,"1955","BERKELEY","CA",94702,NA,NA,52,"1955, BERKELEY, CA, 94702","No_Match",NA,NA,NA,NA
297553,"19550 7TH AVE NE","SHORELINE","WA",98155,47.7713651110001,-122.323031769,53,"19550 7TH AVE NE, SHORELINE, WA, 98155","Match","Exact","19550 7TH AVE NE, SHORELINE, WA, 98155",186573441,"R"
297554,"19550 AMBASSADOR CT","NORTH MIAMI","FL",33179,25.955286701,-80.172323745,54,"19550 AMBASSADOR CT, NORTH MIAMI, FL, 33179","Match","Non_Exact","19550 AMBASSADOR CT, MIAMI, FL, 33179",116252840,"R"
297555,"19550 AMBER MEADOW DR 130-143","BEND","OR",97702,44.0091156500001,-121.346321315,55,"19550 AMBER MEADOW DR 130-143, BEND, OR, 97702","Match","Exact","19550 AMBER MEADOW DR, BEND, OR, 97702",611084193,"L"
297556,"19550 E CRESTRIDGE CIR","CENTENNIAL","CO",80015,39.6178177290001,-104.760540043,56,"19550 E CRESTRIDGE CIR, CENTENNIAL, CO, 80015","Match","Exact","19550 E CRESTRIDGE CIR, CENTENNIAL, CO, 80015",177360094,"R"
297557,"19550 EAST 1500TH STREET","GENESEO","IL",61254,41.4330184340001,-90.144304872,57,"19550 EAST 1500TH STREET, GENESEO, IL, 61254","Match","Exact","19550 E 1500TH ST, GENESEO, IL, 61254",8906234,"R"
297558,"19550 HIDDEN GLEN ROAD","ALPINE","CA",91901,NA,NA,58,"19550 HIDDEN GLEN ROAD, ALPINE, CA, 91901","No_Match",NA,NA,NA,NA
297559,"19550 INTERNATIONAL BLVD  STE 103","SEATAC","WA",98188,NA,NA,59,"19550 INTERNATIONAL BLVD  STE 103, SEATAC, WA, 98188","No_Match",NA,NA,NA,NA
297560,"19550 LAKEWOOD DRIVE","BLOOMINGTON","IL",61705,40.424891883,-88.887786653,60,"19550 LAKEWOOD DRIVE, BLOOMINGTON, IL, 61705","Match","Exact","19550 LAKEWOOD DR, BLOOMINGTON, IL, 61705",648337546,"L"
297561,"19550 N GRAYHAWK DR UNIT 1078","SCOTTSDALE","AZ",85255,33.6631468620001,-111.894605831,61,"19550 N GRAYHAWK DR UNIT 1078, SCOTTSDALE, AZ, 85255","Match","Non_Exact","19550 N GRAYHAWK DR, SCOTTSDALE, AZ, 85255",128963253,"R"
297562,"19550 NW 1 PLACE","N MIAMI","FL",33162,NA,NA,62,"19550 NW 1 PLACE, N MIAMI, FL, 33162","No_Match",NA,NA,NA,NA
297563,"19550 S  GREEN MOUNTAIN RD","COLTON","OR",97007,45.1541448930001,-122.464444482,63,"19550 S  GREEN MOUNTAIN RD, COLTON, OR, 97007","Match","Non_Exact","19550 S GREEN MOUNTAIN RD, COLTON, OR, 97017",157903892,"L"
297564,"19550 SINGLETON ROAD W","MT. VERNON","AL",36560,31.098194886,-87.9876292069999,64,"19550 SINGLETON ROAD W, MT. VERNON, AL, 36560","Match","Non_Exact","19550 SINGLETON RD, MOUNT VERNON, AL, 36560",61896150,"R"
297565,"19550 SUGARLOAF MOUNTAIN RD","CLERMONT","FL",34715,28.6312536340001,-81.714617888,65,"19550 SUGARLOAF MOUNTAIN RD, CLERMONT, FL, 34715","Match","Exact","19550 SUGARLOAF MOUNTAIN RD, CLERMONT, FL, 34715",653177179,"L"
297566,"19550 W 207TH TERRACE","SPRING HILL","KS",66083,38.752433103,-94.811054787,66,"19550 W 207TH TERRACE, SPRING HILL, KS, 66083","Match","Exact","19550 207TH TER, SPRING HILL, KS, 66083",627780908,"R"
297567,"19550 WATER ROAD APT 2-309","GERMANTOWN","MD",20874,NA,NA,67,"19550 WATER ROAD APT 2-309, GERMANTOWN, MD, 20874","No_Match",NA,NA,NA,NA
297568,"19551 EAGLERIDGE LN","PORTER RANCH","CA",91326,34.296513911,-118.560027978,68,"19551 EAGLERIDGE LN, PORTER RANCH, CA, 91326","Match","Non_Exact","19551 EAGLE RIDGE LN, PORTER RANCH, CA, 91326",141788347,"R"
297569,"19551 SW 36TH STREET","DUNNELLON","FL",34431,29.1532036040001,-82.4463440389999,69,"19551 SW 36TH STREET, DUNNELLON, FL, 34431","Match","Exact","19551 SW 36TH ST, DUNNELLON, FL, 34431",116819990,"L"
297570,"19551 W 207TH TERRACE","SPRING HILL","KS",66083,38.7524221420001,-94.811055095,70,"19551 W 207TH TERRACE, SPRING HILL, KS, 66083","Match","Exact","19551 207TH TER, SPRING HILL, KS, 66083",627780908,"L"
297571,"19552 E CAMPBELL ROAD","BEND","OR",97702,44.0298249910001,-121.345708589,71,"19552 E CAMPBELL ROAD, BEND, OR, 97702","Match","Exact","19552 E CAMPBELL RD, BEND, OR, 97702",152586750,"L"
297572,"19553 E NOAH ROAD","NEVADA","MO",64772,37.841708704,-94.2793409609999,72,"19553 E NOAH ROAD, NEVADA, MO, 64772","Match","Exact","19553 E NOAH RD, NEVADA, MO, 64772",45012687,"R"
297573,"19553 N 53RD AVE","GLENDALE","AZ",85308,33.663163635,-112.173992041,73,"19553 N 53RD AVE, GLENDALE, AZ, 85308","Match","Non_Exact","19553 N 53RD AVE, GLENDALE, AZ, 85308",642849896,"L"
297574,"19553 QUINTON OAKS LANE","LEESBURG","VA",20175,39.0760634590001,-77.594127741,74,"19553 QUINTON OAKS LANE, LEESBURG, VA, 20175","Match","Non_Exact","19553 QUINTON OAKS DR, LEESBURG, VA, 20175",625140347,"L"
297575,"19553 SAGER LOOP","BEND","OR",97702,44.011493118,-121.34585464,75,"19553 SAGER LOOP, BEND, OR, 97702","Match","Exact","19553 SAGER LOOP, BEND, OR, 97702",639934114,"L"
297576,"19553 TWINFLOWER CIRCLE","GERMANTOWN","MD",20876,39.1763806070001,-77.2437474879999,76,"19553 TWINFLOWER CIRCLE, GERMANTOWN, MD, 20876","Match","Exact","19553 TWINFLOWER CIR, GERMANTOWN, MD, 20876",637443450,"R"
297577,"19554 COUNTY ROAD 2","CHATFIELD","MN",55923,NA,NA,77,"19554 COUNTY ROAD 2, CHATFIELD, MN, 55923","No_Match",NA,NA,NA,NA
297578,"19554 JAYDINE","CASTRO VALLEY","CA",94546,37.7016348490001,-122.065003516,78,"19554 JAYDINE, CASTRO VALLEY, CA, 94546","Match","Non_Exact","19554 JAYDINE ST, CASTRO VALLEY, CA, 94546",125015522,"L"
297579,"19554 SW 119 PL","MIAMI","FL",33177,25.584677092,-80.3857964059999,79,"19554 SW 119 PL, MIAMI, FL, 33177","Match","Non_Exact","19554 SW 119TH PL, MIAMI, FL, 33177",115989448,"R"
297580,"19555 ASH LN","PORTER RANCH","CA",91326,NA,NA,80,"19555 ASH LN, PORTER RANCH, CA, 91326","No_Match",NA,NA,NA,NA
297581,"19555 BONNEVILLE ROAD","CHESTERFIELD","IL",62630,39.285483178,-90.064387391,81,"19555 BONNEVILLE ROAD, CHESTERFIELD, IL, 62630","Match","Exact","19555 BONNEVILLE RD, CHESTERFIELD, IL, 62630",97931473,"L"
297582,"19555 E HWY 24","WAMEGO","KS",66547,39.209146549,-96.261662454,82,"19555 E HWY 24, WAMEGO, KS, 66547","Match","Non_Exact","19555 US HWY 24, WAMEGO, KS, 66547",22293184,"R"
297583,"19555 HENRY ROAD","FAIRVIEW PARK","OH",44138,41.4572757540001,-81.836066452,83,"19555 HENRY ROAD, FAIRVIEW PARK, OH, 44138","Match","Non_Exact","19555 HENRY RD, FAIRVIEW PARK, OH, 44126",61098819,"L"
297584,"19555 LEMARSH ST","NORTHRIDGE","CA",91324,34.255443685,-118.558787561,84,"19555 LEMARSH ST, NORTHRIDGE, CA, 91324","Match","Exact","19555 LEMARSH ST, NORTHRIDGE, CA, 91324",141539009,"R"
297585,"19555 MISTY MORNING DR","MONUMENT","CO",80132,39.1157102780001,-104.831820257,85,"19555 MISTY MORNING DR, MONUMENT, CO, 80132","Match","Exact","19555 MISTY MORNING DR, MONUMENT, CO, 80132",105508149,"R"
297586,"19556 E 1ST PLACE","TULSA","OK",74108,36.1584674910001,-95.758081568,86,"19556 E 1ST PLACE, TULSA, OK, 74108","Match","Exact","19556 E 1ST PL, TULSA, OK, 74108",83149369,"R"
297587,"19556 GRAND RIVER AVENUE","DETROIT","MI",48223,42.4068214480001,-83.233501798,87,"19556 GRAND RIVER AVENUE, DETROIT, MI, 48223","Match","Exact","19556 GRAND RIVER AVE, DETROIT, MI, 48223",95422312,"R"
297588,"19556 JENNINGS","RIVERSIDE","CA",92580,NA,NA,88,"19556 JENNINGS, RIVERSIDE, CA, 92580","No_Match",NA,NA,NA,NA
297589,"19556 MARCH DR","DENVER","CO",80226,NA,NA,89,"19556 MARCH DR, DENVER, CO, 80226","No_Match",NA,NA,NA,NA
297590,"19556 MCINTYRE","DETROIT","MI",48219,42.433774645,-83.263269179,90,"19556 MCINTYRE, DETROIT, MI, 48219","Match","Non_Exact","19556 MCINTYRE ST, DETROIT, MI, 48219",95420651,"R"
297591,"19557 FARMINGTON ROAD","LIVONIA","MI",48152,42.4296467,-83.375074604,91,"19557 FARMINGTON ROAD, LIVONIA, MI, 48152","Match","Exact","19557 FARMINGTON RD, LIVONIA, MI, 48152",95406849,"L"
297592,"195577 N 4380 RD","FT TOWSON","OK",74735,34.1767256700001,-95.23869245,92,"195577 N 4380 RD, FT TOWSON, OK, 74735","Match","Exact","195577 N 4380 RD, FORT TOWSON, OK, 74735",652136414,"L"
297593,"19558 HIGHPOINT RD","PURCELL","OK",73080,NA,NA,93,"19558 HIGHPOINT RD, PURCELL, OK, 73080","No_Match",NA,NA,NA,NA
297594,"19558 HOWE ROAD","STRONGSVILLE","OH",44136,41.2787778160001,-81.8109340239999,94,"19558 HOWE ROAD, STRONGSVILLE, OH, 44136","Match","Exact","19558 HOWE RD, STRONGSVILLE, OH, 44136",61157350,"R"
297595,"1956 21-7/8 STREET","RICE LAKE","WI",54868,45.491192674,-91.708379974,95,"1956 21-7/8 STREET, RICE LAKE, WI, 54868","Match","Non_Exact","1956 21 7/8 ST, RICE LAKE, WI, 54868",126284052,"L"
297596,"1956 240 RD","BELOIT","KS",67420,39.489142772,-98.228274421,96,"1956 240 RD, BELOIT, KS, 67420","Match","Exact","1956 240 RD, BELOIT, KS, 67420",633143165,"R"
297597,"1956 70TH ST","VAN HORNE","IA",52346,42.0070201780001,-92.116857965,97,"1956 70TH ST, VAN HORNE, IA, 52346","Match","Exact","1956 70TH ST, VAN HORNE, IA, 52346",94724137,"R"
297598,"1956 CALAVERAS CT","TRACY","CA",95377,37.7000455150001,-121.45119175,98,"1956 CALAVERAS CT, TRACY, CA, 95377","Match","Exact","1956 CALAVERAS CT, TRACY, CA, 95377",133920359,"R"
297599,"1956 CALCUTT DR","VINCENES","IN",47591,38.705373766,-87.472570514,99,"1956 CALCUTT DR, VINCENES, IN, 47591","Match","Non_Exact","1956 CALCUTT DR, VINCENNES, IN, 47591",30060950,"R"
297600,"1956 CARPENTER ROAD","TITUSVILLE","FL",32796,NA,NA,100,"1956 CARPENTER ROAD, TITUSVILLE, FL, 32796","Tie",NA,NA,NA,NA
297601,"1956 CHASON ROAD","LUMBERBRIDGE","NC",28357,34.9189182210001,-79.060207986,101,"1956 CHASON ROAD, LUMBERBRIDGE, NC, 28357","Match","Non_Exact","1956 CHASON RD, LUMBER BRIDGE, NC, 28357",642174609,"R"
297602,"1956 CLEARWATER DRIVE","LAWRENCEBURG","KY",40342,38.0645631950001,-84.90762139,102,"1956 CLEARWATER DRIVE, LAWRENCEBURG, KY, 40342","Match","Exact","1956 CLEARWATER DR, LAWRENCEBURG, KY, 40342",653295547,"L"
297603,"1956 CR 381","DUBLIN","TX",76446,32.1615300620001,-98.315095718,103,"1956 CR 381, DUBLIN, TX, 76446","Match","Exact","1956 CO RD 381, DUBLIN, TX, 76446",158535682,"L"
297604,"1956 CROWNDALE LANE","CANTON","MI",48188,42.2905624320001,-83.5028478249999,104,"1956 CROWNDALE LANE, CANTON, MI, 48188","Match","Exact","1956 CROWNDALE LN, CANTON, MI, 48188",95688495,"R"
297605,"1956 E 172ND ST S","MOUNDS","OK",74047,35.914369386,-95.965446213,105,"1956 E 172ND ST S, MOUNDS, OK, 74047","Match","Exact","1956 E 172ND ST S, MOUNDS, OK, 74047",641506081,"L"
297606,"1956 E 79TH ST","CHICAGO","IL",60649,41.7516033640001,-87.576740666,106,"1956 E 79TH ST, CHICAGO, IL, 60649","Match","Exact","1956 E 79TH ST, CHICAGO, IL, 60649",111775897,"L"
297607,"1956 EAST 22ND STREET","BROOKLYN","NY",11229,40.6033102000001,-73.950154423,107,"1956 EAST 22ND STREET, BROOKLYN, NY, 11229","Match","Exact","1956 E 22ND ST, BROOKLYN, NY, 11229",59090199,"R"
297608,"1956 EAST STREET","PITTSFIELD","MA",1201,42.45239523,-73.1943248969999,108,"1956 EAST STREET, PITTSFIELD, MA, 1201","Match","Exact","1956 EAST ST, PITTSFIELD, MA, 01201",3922829,"R"
297609,"1956 FAULKNER RD","CLOVER","SC",29710,35.104912905,-81.2702703479999,109,"1956 FAULKNER RD, CLOVER, SC, 29710","Match","Exact","1956 FAULKNER RD, CLOVER, SC, 29710",19784723,"L"
297610,"1956 FOSTER HILL RD","EAST CALAIS","VT",5650,44.414372574,-72.422168186,110,"1956 FOSTER HILL RD, EAST CALAIS, VT, 5650","Match","Exact","1956 FOSTER HILL RD, EAST CALAIS, VT, 05650",136663950,"R"
297611,"1956 GARDENVIEW PORT","SANTA ROSA","CA",95403,NA,NA,111,"1956 GARDENVIEW PORT, SANTA ROSA, CA, 95403","Tie",NA,NA,NA,NA
297612,"1956 GUNNISON DR","LINCOLN","NE",68521,40.8727894250001,-96.6909081859999,112,"1956 GUNNISON DR, LINCOLN, NE, 68521","Match","Exact","1956 GUNNISON DR, LINCOLN, NE, 68521",28282983,"R"
297613,"1956 HAWK TERRACE","CASTLE ROCK","CO",80104,39.3361080440001,-104.842142426,113,"1956 HAWK TERRACE, CASTLE ROCK, CO, 80104","Match","Exact","1956 HAWK TER, CASTLE ROCK, CO, 80104",624587025,"R"
297614,"1956 HAYWOOD ROAD","HENDERSONVILLE","NC",28791,35.334551553,-82.484216069,114,"1956 HAYWOOD ROAD, HENDERSONVILLE, NC, 28791","Match","Exact","1956 HAYWOOD RD, HENDERSONVILLE, NC, 28791",640615728,"R"
297615,"1956 J ROAD","LEWIS","KS",67552,37.9569398190001,-99.2310449989999,115,"1956 J ROAD, LEWIS, KS, 67552","Match","Exact","1956 J RD, LEWIS, KS, 67552",138232131,"R"
297616,"1956 LAKE ATRIUMS CIRCLE APT 143","ORLANDO","FL",32839,28.4887369680001,-81.406362308,116,"1956 LAKE ATRIUMS CIRCLE APT 143, ORLANDO, FL, 32839","Match","Exact","1956 LAKE ATRIUMS CIR, ORLANDO, FL, 32839",617826974,"L"
297617,"1956 LAWRENCE ST APT 610","DENVER","CO",80202,39.7518664140001,-104.992228533,117,"1956 LAWRENCE ST APT 610, DENVER, CO, 80202","Match","Exact","1956 LAWRENCE ST, DENVER, CO, 80202",177304464,"R"
297618,"1956 LINCOLN LANE","CHANHASSEN","MN",55317,44.8328555570001,-93.571501081,118,"1956 LINCOLN LANE, CHANHASSEN, MN, 55317","Match","Exact","1956 LINCOLN LN, CHANHASSEN, MN, 55317",617113286,"R"
297619,"1956 MILL CREEK ROAD","VIRGINIA BEACH","VA",23456,36.7755079020001,-76.120047148,119,"1956 MILL CREEK ROAD, VIRGINIA BEACH, VA, 23456","Match","Non_Exact","1956 MILL CREEK DR, VA BCH, VA, 23456",122268071,"R"
297620,"1956 N BROOKFIELD AVE","OAKHAM","MA",1068,42.317843532,-72.049456703,120,"1956 N BROOKFIELD AVE, OAKHAM, MA, 1068","Match","Non_Exact","1956 N BROOKFIELD RD, OAKHAM, MA, 01068",39995941,"L"
297621,"1956 NADINE ROAD  APT 208","WESLEY CHAPEL","FL",33544,28.185256167,-82.358200072,121,"1956 NADINE ROAD  APT 208, WESLEY CHAPEL, FL, 33544","Match","Non_Exact","1956 NADINE CT, WESLEY CHAPEL, FL, 33544",629959039,"R"
297622,"1956 NE TILLAMOOK ST APT 1956","PORTLAND","OR",97212,45.5374302070001,-122.64600581,122,"1956 NE TILLAMOOK ST APT 1956, PORTLAND, OR, 97212","Match","Non_Exact","1956 NE TILLAMOOK ST, PORTLAND, OR, 97212",157506606,"R"
297623,"1956 ORCHARD DRIVE NW","OLYMPIA","WA",98502,47.0624917640001,-122.923963833,123,"1956 ORCHARD DRIVE NW, OLYMPIA, WA, 98502","Match","Exact","1956 ORCHARD DR NW, OLYMPIA, WA, 98502",180974108,"R"
297624,"1956 POWELL ROAD","OXFORD","NC",27565,36.435611453,-78.591390319,124,"1956 POWELL ROAD, OXFORD, NC, 27565","Match","Exact","1956 POWELL RD, OXFORD, NC, 27565",637863265,"R"
297625,"1956 RACHAEL DRIVE","LANCASTER","PA",17601,40.084237982,-76.302863502,125,"1956 RACHAEL DRIVE, LANCASTER, PA, 17601","Match","Exact","1956 RACHAEL DR, LANCASTER, PA, 17601",179662168,"L"
297626,"1956 RESORT ST","NAVARRE","FL",32566,30.407092295,-86.89785965,126,"1956 RESORT ST, NAVARRE, FL, 32566","Match","Exact","1956 RESORT ST, NAVARRE, FL, 32566",74569555,"R"
297627,"1956 RICHMOND SPRINGS LANE","BELLEVILLE","IL",62220,38.48870715,-89.980303659,127,"1956 RICHMOND SPRINGS LANE, BELLEVILLE, IL, 62220","Match","Exact","1956 RICHMOND SPRINGS LN, BELLEVILLE, IL, 62220",619988565,"L"
297628,"1956 RICHMOND SPRINGS LN","BELLEVILLE","IL",62220,38.48870715,-89.980303659,128,"1956 RICHMOND SPRINGS LN, BELLEVILLE, IL, 62220","Match","Exact","1956 RICHMOND SPRINGS LN, BELLEVILLE, IL, 62220",619988565,"L"
297629,"1956 RIVER VISTA DR","MOSINEE","WI",54455,44.841897843,-89.680237467,129,"1956 RIVER VISTA DR, MOSINEE, WI, 54455","Match","Exact","1956 RIVER VISTA DR, MOSINEE, WI, 54455",117128321,"L"
297630,"1956 ROBIN BROOK WAY","ROSEVILLE","CA",95661,38.758154333,-121.235566982,130,"1956 ROBIN BROOK WAY, ROSEVILLE, CA, 95661","Match","Exact","1956 ROBIN BROOK WAY, ROSEVILLE, CA, 95661",608086961,"L"
297631,"1956 ROCK CREEK S","AKRON","OH",44333,41.190855334,-81.655046597,131,"1956 ROCK CREEK S, AKRON, OH, 44333","Match","Exact","1956 ROCK CREEK S, AKRON, OH, 44333",627918141,"R"
297632,"1956 SARATOGA BLVD","JEFFERSON CITY","MO",65109,38.551171121,-92.220230069,132,"1956 SARATOGA BLVD, JEFFERSON CITY, MO, 65109","Match","Exact","1956 SARATOGA BLVD, JEFFERSON CITY, MO, 65109",34410160,"R"
297633,"1956 SE CLATTER BRIDGE RD","OCALA","FL",34471,NA,NA,133,"1956 SE CLATTER BRIDGE RD, OCALA, FL, 34471","Tie",NA,NA,NA,NA
297634,"1956 SHERWOOD RD","AURORA","NY",13026,42.7612899040001,-76.609208855,134,"1956 SHERWOOD RD, AURORA, NY, 13026","Match","Exact","1956 SHERWOOD RD, AURORA, NY, 13026",33500363,"R"
297635,"1956 SHILOH VALLEY TRAIL","KENNESAW","GA",30144,33.9998507400001,-84.563256114,135,"1956 SHILOH VALLEY TRAIL, KENNESAW, GA, 30144","Match","Exact","1956 SHILOH VALLEY TRL, KENNESAW, GA, 30144",618320982,"R"
297636,"1956 SOUTH MAIN STREET","AKRON","OH",44301,41.0337117180001,-81.526908002,136,"1956 SOUTH MAIN STREET, AKRON, OH, 44301","Match","Exact","1956 S MAIN ST, AKRON, OH, 44301",61387059,"R"
297637,"1956 STONEHENGE AVE APT 1","BOWLING GREEN","KY",42101,36.9846704120001,-86.48275734,137,"1956 STONEHENGE AVE APT 1, BOWLING GREEN, KY, 42101","Match","Exact","1956 STONEHENGE AVE, BOWLING GREEN, KY, 42101",641320708,"L"
297638,"1956 STONER AVE","LOS ANGELES","CA",90025,34.037144143,-118.451771602,138,"1956 STONER AVE, LOS ANGELES, CA, 90025","Match","Exact","1956 STONER AVE, LOS ANGELES, CA, 90025",141568510,"L"
297639,"1956 TUDOR COURT","CHARLOTTSVILLE","VA",22902,37.986196722,-78.507780369,139,"1956 TUDOR COURT, CHARLOTTSVILLE, VA, 22902","Match","Non_Exact","1956 TUDOR CT, CHARLOTTESVILLE, VA, 22902",631980232,"R"
297640,"1956 UNION STREET","SAN FRANCISCO","CA",94123,37.797596808,-122.431554342,140,"1956 UNION STREET, SAN FRANCISCO, CA, 94123","Match","Exact","1956 UNION ST, SAN FRANCISCO, CA, 94123",192279939,"R"
297641,"1956 W FELTSON ST","KUNA","ID",83634,NA,NA,141,"1956 W FELTSON ST, KUNA, ID, 83634","No_Match",NA,NA,NA,NA
297642,"1956 W MUSEUM TRAIL","FLAGSTAFF","AZ",86001,35.231888853,-111.658039836,142,"1956 W MUSEUM TRAIL, FLAGSTAFF, AZ, 86001","Match","Exact","1956 W MUSEUM TRL, FLAGSTAFF, AZ, 86001",633366840,"R"
297643,"1956 WALNUT TERRACE","SPRINGFIELD","OH",45504,39.950061356,-83.8147656849999,143,"1956 WALNUT TERRACE, SPRINGFIELD, OH, 45504","Match","Exact","1956 WALNUT TER, SPRINGFIELD, OH, 45504",135005997,"R"
297644,"1956-J UNIVERSITY BLVD S 284","MOBILE","AL",36609,NA,NA,144,"1956-J UNIVERSITY BLVD S 284, MOBILE, AL, 36609","No_Match",NA,NA,NA,NA
297645,"19560 44TH AVE","LAKE FOREST PARK","WA",98155,47.7708019470001,-122.282771597,145,"19560 44TH AVE, LAKE FOREST PARK, WA, 98155","Match","Non_Exact","19560 44TH AVE NE, LAKE FOREST PARK, WA, 98155",625596549,"R"
297646,"19560 CR 77","FLEMING","CO",80728,40.7298587600001,-102.844273137,146,"19560 CR 77, FLEMING, CO, 80728","Match","Exact","19560 CO RD 77, FLEMING, CO, 80728",136164993,"R"
297647,"19560 GULFSTREAM DRIVE","JUPITER","FL",33469,26.963013431,-80.1061275929999,147,"19560 GULFSTREAM DRIVE, JUPITER, FL, 33469","Match","Exact","19560 GULFSTREAM DR, JUPITER, FL, 33469",115260897,"L"
297648,"19560 STROH RD","PARKER","CO",80134,NA,NA,148,"19560 STROH RD, PARKER, CO, 80134","No_Match",NA,NA,NA,NA
297649,"19560 SUNSHINE AVE","COVINGTON","LA",70433,30.469698899,-90.076046821,149,"19560 SUNSHINE AVE, COVINGTON, LA, 70433","Match","Exact","19560 SUNSHINE AVE, COVINGTON, LA, 70433",111259995,"R"
297650,"19560 WHISPERING BROOK DRIVE","TAMPA","FL",33647,28.1692198060001,-82.305752027,150,"19560 WHISPERING BROOK DRIVE, TAMPA, FL, 33647","Match","Exact","19560 WHISPERING BROOK DR, TAMPA, FL, 33647",648320418,"L"
297651,"19560","LAKE FOREST PARK","WA",98155,NA,NA,151,"19560, LAKE FOREST PARK, WA, 98155","No_Match",NA,NA,NA,NA
297652,"19561 CEDAR COURT","PRIOR LAKE","MN",55372,44.665592437,-93.335067119,152,"19561 CEDAR COURT, PRIOR LAKE, MN, 55372","Match","Exact","19561 CEDAR CT, PRIOR LAKE, MN, 55372",38155692,"R"
297653,"19561 HELENA CIRCLE","HUNTINGTON BEACH","CA",92646,33.678658736,-117.976085217,153,"19561 HELENA CIRCLE, HUNTINGTON BEACH, CA, 92646","Match","Exact","19561 HELENA CIR, HUNTINGTON BEACH, CA, 92646",144082729,"R"
297654,"19561 N RIM DRIVE","SURPRISE","AZ",85374,33.65599726,-112.399158307,154,"19561 N RIM DRIVE, SURPRISE, AZ, 85374","Match","Exact","19561 N RIM DR, SURPRISE, AZ, 85374",128954419,"L"
297655,"19563 NW 32ND PLACE","MIAMI","FL",33056,25.9521982690001,-80.25543168,155,"19563 NW 32ND PLACE, MIAMI, FL, 33056","Match","Non_Exact","19563 NW 32ND PL, MIAMI GARDENS, FL, 33056",116026924,"L"
297656,"19563 ST GILES CT","MONUMENT","CO",80132,39.1161058180001,-104.791194982,156,"19563 ST GILES CT, MONUMENT, CO, 80132","Match","Exact","19563 ST GILES CT, MONUMENT, CO, 80132",647970989,"L"
297657,"19564 GREGGSVILLE RD","PURCELLVILLE","VA",20132,39.0756615190001,-77.716010876,157,"19564 GREGGSVILLE RD, PURCELLVILLE, VA, 20132","Match","Exact","19564 GREGGSVILLE RD, PURCELLVILLE, VA, 20132",625313888,"R"
297658,"19564 ST GILES CT","MONUMENT","CO",80132,39.1160681910001,-104.791112867,158,"19564 ST GILES CT, MONUMENT, CO, 80132","Match","Exact","19564 ST GILES CT, MONUMENT, CO, 80132",647970989,"R"
297659,"19565 ALISO VIEW CIR","TRABUCO CANYON","CA",92679,33.678223555,-117.625052278,159,"19565 ALISO VIEW CIR, TRABUCO CANYON, CA, 92679","Match","Exact","19565 ALISO VIEW CIR, TRABUCO CANYON, CA, 92679",144107376,"R"
297660,"19565 DESPARADO DR","COLORADO SPRINGS","CO",80908,39.1181951980001,-104.732021546,160,"19565 DESPARADO DR, COLORADO SPRINGS, CO, 80908","Match","Exact","19565 DESPARADO DR, COLORADO SPRINGS, CO, 80908",647966987,"L"
297661,"19566 TRAILS END TERRACE","JUPITER","FL",33458,26.9602432290001,-80.126337349,161,"19566 TRAILS END TERRACE, JUPITER, FL, 33458","Match","Exact","19566 TRAILS END TER, JUPITER, FL, 33458",115580764,"L"
297662,"19567 ALSEA HWY","PHILOMATH","OR",97370,44.390216562,-123.579197615,162,"19567 ALSEA HWY, PHILOMATH, OR, 97370","Match","Exact","19567 ALSEA HWY, PHILOMATH, OR, 97370",155850744,"L"
297663,"19568 HWY 26","LEWELLEN","NE",69147,41.3488543290001,-102.186802158,163,"19568 HWY 26, LEWELLEN, NE, 69147","Match","Non_Exact","19568 US HWY 26, LEWELLEN, NE, 69147",136551538,"R"
297664,"19569 CHARDONNAY CT","SARATOGA","CA",95070,37.2794170990001,-122.014747949,164,"19569 CHARDONNAY CT, SARATOGA, CA, 95070","Match","Exact","19569 CHARDONNAY CT, SARATOGA, CA, 95070",122974495,"L"
297665,"19569 CHERRY LANE","TEHACHAPI","CA",93561,35.12062888,-118.478194207,165,"19569 CHERRY LANE, TEHACHAPI, CA, 93561","Match","Exact","19569 CHERRY LN, TEHACHAPI, CA, 93561",108990598,"L"
297666,"19569 E 40TH AVE","DENVER","CO",80249,39.7702865800001,-104.758389703,166,"19569 E 40TH AVE, DENVER, CO, 80249","Match","Exact","19569 E 40TH AVE, DENVER, CO, 80249",647267908,"L"
297667,"19569 NW 2 AVENUE","MIAMI","FL",33169,25.954069159,-80.205574271,167,"19569 NW 2 AVENUE, MIAMI, FL, 33169","Match","Non_Exact","19569 NW 2ND AVE, MIAMI, FL, 33169",116029649,"R"
297668,"19569 ORMAN ROAD","ATHENS","AL",35614,34.8419114980001,-86.943893854,168,"19569 ORMAN ROAD, ATHENS, AL, 35614","Match","Exact","19569 ORMAN RD, ATHENS, AL, 35614",95233139,"R"
297669,"19569 US HWY 12","EDWARDSBURG","MI",49112,41.7686113940001,-85.944581785,169,"19569 US HWY 12, EDWARDSBURG, MI, 49112","Match","Non_Exact","19569 US HWY 12, EDWARDSBURG, MI, 49112",642526001,"R"
297670,"19569 W 55TH PL","GOLDEN","CO",80403,39.797427972,-105.220847771,170,"19569 W 55TH PL, GOLDEN, CO, 80403","Match","Exact","19569 W 55TH PL, GOLDEN, CO, 80403",177794976,"R"
297671,"1957 52ND STREET","BROOKLYN","NY",11204,40.6244724150001,-73.979159768,171,"1957 52ND STREET, BROOKLYN, NY, 11204","Match","Exact","1957 52ND ST, BROOKLYN, NY, 11204",59097911,"L"
297672,"1957 69TH AVE","OAKLAND","CA",94621,37.7642773380001,-122.184702247,172,"1957 69TH AVE, OAKLAND, CA, 94621","Match","Exact","1957 69TH AVE, OAKLAND, CA, 94621",125008690,"L"
297673,"1957 7TH AVE","SACRAMENTO","CA",95818,38.5474825250001,-121.492082045,173,"1957 7TH AVE, SACRAMENTO, CA, 95818","Match","Exact","1957 7TH AVE, SACRAMENTO, CA, 95818",133325715,"L"
297674,"1957 BERRY ROAD","GREENWOOD","IN",46143,39.587333104,-86.1769850759999,174,"1957 BERRY ROAD, GREENWOOD, IN, 46143","Match","Exact","1957 BERRY RD, GREENWOOD, IN, 46143",114654862,"R"
297675,"1957 BRANDYWINE DR","COLUMBUS","OH",43220,40.0451987020001,-83.0699173199999,175,"1957 BRANDYWINE DR, COLUMBUS, OH, 43220","Match","Exact","1957 BRANDYWINE DR, COLUMBUS, OH, 43220",218693047,"L"
297676,"1957 CABBAGE ROAD","BLADENBORO","NC",28320,34.5953042030001,-78.7895417459999,176,"1957 CABBAGE ROAD, BLADENBORO, NC, 28320","Match","Exact","1957 CABBAGE RD, BLADENBORO, NC, 28320",63873882,"L"
297677,"1957 CHARLESTON HOUSE WAY 7305","HOLLY HILL","FL",32117,29.2497020760001,-81.0664884569999,177,"1957 CHARLESTON HOUSE WAY 7305, HOLLY HILL, FL, 32117","Match","Exact","1957 CHARLESTON HOUSE WAY, HOLLY HILL, FL, 32117",94601299,"L"
297678,"1957 CITRUS AVE","CHICO","CA",95926,39.744340149,-121.855938153,178,"1957 CITRUS AVE, CHICO, CA, 95926","Match","Exact","1957 CITRUS AVE, CHICO, CA, 95926",640585501,"L"
297679,"1957 CLOVERCROFT RD NW","ACWORTH","GA",30101,34.003460913,-84.7024177,179,"1957 CLOVERCROFT RD NW, ACWORTH, GA, 30101","Match","Exact","1957 CLOVERCROFT RD NW, ACWORTH, GA, 30101",650685735,"R"
297680,"1957 CUTLASS DR","HENDERSON","NV",89014,36.0666637960001,-115.06534462,180,"1957 CUTLASS DR, HENDERSON, NV, 89014","Match","Exact","1957 CUTLASS DR, HENDERSON, NV, 89014",201879839,"L"
297681,"1957 E 72ND PLACE","CHICAGO","IL",60649,41.7634285830001,-87.577029323,181,"1957 E 72ND PLACE, CHICAGO, IL, 60649","Match","Non_Exact","1957 E 72ND PL, CHICAGO, IL, 60649",111775585,"R"
297682,"1957 E IRVING BLVD","IRVING","TX",75060,32.803903264,-96.917299581,182,"1957 E IRVING BLVD, IRVING, TX, 75060","Match","Exact","1957 E IRVING BLVD, IRVING, TX, 75060",102894559,"L"
297683,"1957 E MIDVALLEY RD","ENOCH","UT",84721,37.7647209240001,-113.021207523,183,"1957 E MIDVALLEY RD, ENOCH, UT, 84721","Match","Exact","1957 E MIDVALLEY RD, ENOCH, UT, 84721",165404159,"R"
297684,"1957 E STREET NW SUITE 503L","WASHINGTON","DC",20052,38.895997622,-77.044276778,184,"1957 E STREET NW SUITE 503L, WASHINGTON, DC, 20052","Match","Exact","1957 E ST NW, WASHINGTON, DC, 20052",76225557,"R"
297685,"1957 E WADE RD","WARSAW","IN",46580,41.213808885,-85.8049352639999,185,"1957 E WADE RD, WARSAW, IN, 46580","Match","Exact","1957 E WADE RD, WARSAW, IN, 46580",7920842,"L"
297686,"1957 EAST 85TH","CLEVELAND","OH",44106,41.504502669,-81.627823782,186,"1957 EAST 85TH, CLEVELAND, OH, 44106","Match","Non_Exact","1957 E 85TH ST, CLEVELAND, OH, 44106",638807934,"L"
297687,"1957 EAST AVE","HAYWARD","CA",94541,37.6717258630001,-122.061999967,187,"1957 EAST AVE, HAYWARD, CA, 94541","Match","Exact","1957 EAST AVE, HAYWARD, CA, 94541",633934743,"R"
297688,"1957 HARVARD LANE","NEW LENOX","IL",60451,41.5022784080001,-87.928766025,188,"1957 HARVARD LANE, NEW LENOX, IL, 60451","Match","Exact","1957 HARVARD LN, NEW LENOX, IL, 60451",111574194,"R"
297689,"1957 HAWKSBILL DRIVE","BELLEVILLE","IL",62223,38.5617976190001,-90.0134876829999,189,"1957 HAWKSBILL DRIVE, BELLEVILLE, IL, 62223","Match","Exact","1957 HAWKSBILL DR, BELLEVILLE, IL, 62223",107884236,"R"
297690,"1957 HUASNA STREET","SAN LUIS OBISPO","CA",93405,35.254640583,-120.685357118,190,"1957 HUASNA STREET, SAN LUIS OBISPO, CA, 93405","Match","Non_Exact","1957 HUASNA DR, SAN LUIS OBISPO, CA, 93405",109732882,"L"
297691,"1957 HWY 64","MARION","AR",72364,35.205212284,-90.229118848,191,"1957 HWY 64, MARION, AR, 72364","Match","Non_Exact","1957 US HWY 64, MARION, AR, 72364",610281954,"L"
297692,"1957 KEMPWOOD LOOP","ROUND ROCK","TX",78664,30.5787207930001,-97.658320518,192,"1957 KEMPWOOD LOOP, ROUND ROCK, TX, 78664","Match","Non_Exact","1957 KEMPWOOD LOOP, ROUND ROCK, TX, 78665",619960404,"R"
297693,"1957 LAKE LOTELA DRIVE","AVON PARK","FL",33825,27.5814438510001,-81.470532223,193,"1957 LAKE LOTELA DRIVE, AVON PARK, FL, 33825","Match","Exact","1957 LAKE LOTELA DR, AVON PARK, FL, 33825",4656006,"L"
297694,"1957 LAKESIDE PARKWAY SUITE 520","TUCKER","GA",30084,33.8394396630001,-84.239424733,194,"1957 LAKESIDE PARKWAY SUITE 520, TUCKER, GA, 30084","Match","Exact","1957 LAKESIDE PKWY, TUCKER, GA, 30084",23413094,"R"
297695,"1957 LARCHMONT RD","AKRON","OH",44313,41.1229750150001,-81.580339688,195,"1957 LARCHMONT RD, AKRON, OH, 44313","Match","Exact","1957 LARCHMONT RD, AKRON, OH, 44313",61337453,"R"
297696,"1957 LONG TERRACE","UNION","NJ",7083,40.702740782,-74.2613484669999,196,"1957 LONG TERRACE, UNION, NJ, 7083","Match","Exact","1957 LONG TER, UNION, NJ, 07083",60572885,"R"
297697,"1957 MANNING HWY","GREELEYVILLE","SC",29056,33.699370618,-79.9382739609999,197,"1957 MANNING HWY, GREELEYVILLE, SC, 29056","Match","Exact","1957 MANNING HWY, GREELEYVILLE, SC, 29056",29217306,"L"
297698,"1957 MAYERS HOLLOW RD SE","GNADENHUTTEN","OH",44629,40.384366034,-81.423248616,198,"1957 MAYERS HOLLOW RD SE, GNADENHUTTEN, OH, 44629","Match","Non_Exact","1957 MYERS HOLLOW RD SE, GNADENHUTTEN, OH, 44629",612281044,"R"
297699,"1957 MIDWAY RT","MONTICELLO","AR",71655,33.4888044100001,-91.7513424269999,199,"1957 MIDWAY RT, MONTICELLO, AR, 71655","Match","Exact","1957 MIDWAY RTE, MONTICELLO, AR, 71655",610265178,"L"
297700,"1957 MIRAMAR WAY","SNELLVILLE","GA",30078,33.8960320690001,-84.022338916,200,"1957 MIRAMAR WAY, SNELLVILLE, GA, 30078","Match","Exact","1957 MIRAMAR WAY, SNELLVILLE, GA, 30078",641635124,"L"
297701,"1957 MYRTA DR","WOOSTER","OH",44691,40.885544472,-81.923033269,201,"1957 MYRTA DR, WOOSTER, OH, 44691","Match","Exact","1957 MYRTA DR, WOOSTER, OH, 44691",58718974,"L"
297702,"1957 N 36TH ST","MILWAUKEE","WI",53208,43.055733607,-87.9587703139999,202,"1957 N 36TH ST, MILWAUKEE, WI, 53208","Match","Exact","1957 N 36TH ST, MILWAUKEE, WI, 53208",77739712,"L"
297703,"1957 N 7TH","MILWAUKEE","WI",53205,43.055904592,-87.920023767,203,"1957 N 7TH, MILWAUKEE, WI, 53205","Match","Non_Exact","1957 N 7TH ST, MILWAUKEE, WI, 53205",77768589,"L"
297704,"1957 N JONES BLVD A201","LASVEGAS","NV",89108,36.193940099,-115.223952544,204,"1957 N JONES BLVD A201, LASVEGAS, NV, 89108","Match","Non_Exact","1957 N JONES BLVD, LAS VEGAS, NV, 89108",630483584,"L"
297705,"1957 NATURE TRAIL","PENSACOLA","FL",32526,30.4970150950001,-87.304221403,205,"1957 NATURE TRAIL, PENSACOLA, FL, 32526","Match","Non_Exact","1957 NATURE LN, PENSACOLA, FL, 32526",93211785,"R"
297706,"1957 PETROLIA ST","WEST BLOOMFIELD","MI",48324,42.6098928380001,-83.419252671,206,"1957 PETROLIA ST, WEST BLOOMFIELD, MI, 48324","Match","Exact","1957 PETROLIA ST, W BLOOMFIELD, MI, 48324",69695456,"L"
297707,"1957 POST OAK RD","VESTAVIA HILLS","AL",35216,33.4417121050001,-86.791047433,207,"1957 POST OAK RD, VESTAVIA HILLS, AL, 35216","Match","Exact","1957 POST OAK RD, VESTAVIA HILLS, AL, 35216",642151694,"R"
297708,"1957 QUILL COURT","KANNAPOLIS","NC",28083,35.4897563550001,-80.591559209,208,"1957 QUILL COURT, KANNAPOLIS, NC, 28083","Match","Exact","1957 QUILL CT, KANNAPOLIS, NC, 28083",646710800,"L"
297709,"1957 S GRANT AVE   A","SPRINGFIELD","MO",65807,37.1793517740001,-93.300196714,209,"1957 S GRANT AVE   A, SPRINGFIELD, MO, 65807","Match","Non_Exact","1957 S GRANT AVE, SPRINGFIELD, MO, 65807",647730768,"R"
297710,"1957 SANDRA DRIVE","CLEARWATER","FL",33764,27.9519123210001,-82.755880818,210,"1957 SANDRA DRIVE, CLEARWATER, FL, 33764","Match","Exact","1957 SANDRA DR, CLEARWATER, FL, 33764",124675984,"R"
297711,"1957 SANIBEL BAYOUS RD","SANIBEL","FL",33957,26.4671456190001,-82.1573287799999,211,"1957 SANIBEL BAYOUS RD, SANIBEL, FL, 33957","Match","Exact","1957 SANIBEL BAYOUS RD, SANIBEL, FL, 33957",118010325,"R"
297712,"1957 SOUTH 400 EAST","SALT LAKE CITY","UT",84115,40.727467979,-111.879610737,212,"1957 SOUTH 400 EAST, SALT LAKE CITY, UT, 84115","Match","Exact","1957 S 400 E, SALT LAKE CITY, UT, 84115",637522730,"L"
297713,"1957 SOUTH SPAULDING","CHICAGO","IL",60623,41.8540304100001,-87.707746583,213,"1957 SOUTH SPAULDING, CHICAGO, IL, 60623","Match","Non_Exact","1957 S SPAULDING AVE, CHICAGO, IL, 60623",111799506,"L"
297714,"1957 STEEL BRIDGE ROAD","SANFORD","NC",27330,35.457940943,-79.25869462,214,"1957 STEEL BRIDGE ROAD, SANFORD, NC, 27330","Match","Exact","1957 STEEL BRIDGE RD, SANFORD, NC, 27330",647177726,"R"
297715,"1957 TAIT STREET","LORAIN","OH",44052,41.452494415,-82.206004077,215,"1957 TAIT STREET, LORAIN, OH, 44052","Match","Non_Exact","1957 TAIT ST, LORAIN, OH, 44053",55403986,"L"
297716,"1957 TANGLEWOOD DRIVE","SNELLVILLE","GA",30078,33.8629956950001,-84.034792012,216,"1957 TANGLEWOOD DRIVE, SNELLVILLE, GA, 30078","Match","Non_Exact","1957 TANGLEWOOD DR SW, SNELLVILLE, GA, 30078",88889967,"R"
297717,"1957 TIGER FLOWERS DR","ATLANTA","GA",30314,33.7601346370001,-84.4515110199999,217,"1957 TIGER FLOWERS DR, ATLANTA, GA, 30314","Match","Non_Exact","1957 TIGER FLOWERS DR NW, ATLANTA, GA, 30314",17340256,"R"
297718,"1957 TIMBERLINE CIR","OAK GROVE","KY",42262,36.643735883,-87.39916697,218,"1957 TIMBERLINE CIR, OAK GROVE, KY, 42262","Match","Exact","1957 TIMBERLINE CIR, OAK GROVE, KY, 42262",11289405,"R"
297719,"1957 TREASURE LAKE","DUBOIS","PA",15801,NA,NA,219,"1957 TREASURE LAKE, DUBOIS, PA, 15801","No_Match",NA,NA,NA,NA
297720,"1957 VELMA STREET","ATLANTA","GA",30315,33.7004559470001,-84.3558137649999,220,"1957 VELMA STREET, ATLANTA, GA, 30315","Match","Non_Exact","1957 VELMA ST SE, ATLANTA, GA, 30315",17358701,"R"
297721,"1957 VERBANIA DRIVE","LAS VEGAS","NV",89134,36.195782222,-115.320816303,221,"1957 VERBANIA DRIVE, LAS VEGAS, NV, 89134","Match","Exact","1957 VERBANIA DR, LAS VEGAS, NV, 89134",201924290,"R"
297722,"1957 W 85TH","LOS ANGELES","CA",90047,NA,NA,222,"1957 W 85TH, LOS ANGELES, CA, 90047","No_Match",NA,NA,NA,NA
297723,"1957 W ADDISON ST APT 2","CHICAGO","IL",60613,41.946867954,-87.678075859,223,"1957 W ADDISON ST APT 2, CHICAGO, IL, 60613","Match","Non_Exact","1957 W ADDISON ST, CHICAGO, IL, 60613",605151472,"L"
297724,"1957 W BRADLEY PLACE 3","CHICAGO","IL",60613,41.949601312,-87.6781716529999,224,"1957 W BRADLEY PLACE 3, CHICAGO, IL, 60613","Match","Non_Exact","1957 W BRADLEY PL, CHICAGO, IL, 60613",652585337,"L"
297725,"1957 W JAY PLACE","TUCSON","AZ",85705,32.28944792,-111.009041494,225,"1957 W JAY PLACE, TUCSON, AZ, 85705","Match","Exact","1957 W JAY PL, TUCSON, AZ, 85705",121160555,"R"
297726,"1957 WEST 81ST STREET","LOS ANGELES","CA",90047,33.965489211,-118.312405559,226,"1957 WEST 81ST STREET, LOS ANGELES, CA, 90047","Match","Exact","1957 W 81ST ST, LOS ANGELES, CA, 90047",141658623,"R"
297727,"1957 WOODCREST DR NE","OWATONNA","MN",55060,44.1045928300001,-93.186569982,227,"1957 WOODCREST DR NE, OWATONNA, MN, 55060","Match","Exact","1957 WOODCREST DR NE, OWATONNA, MN, 55060",653416448,"R"
297728,"19570 CHARLESTON ROAD","VOLCANO","CA",95689,38.4637232000001,-120.652487296,228,"19570 CHARLESTON ROAD, VOLCANO, CA, 95689","Match","Exact","19570 CHARLESTON RD, VOLCANO, CA, 95689",132730539,"R"
297729,"19570 CRYSTAL ROCK DR APT 21","GERMANTOWN","MD",20874,39.1802960630001,-77.261776979,229,"19570 CRYSTAL ROCK DR APT 21, GERMANTOWN, MD, 20874","Match","Exact","19570 CRYSTAL ROCK DR, GERMANTOWN, MD, 20874",62140583,"L"
297730,"19570 HOLT STREET NW","ELK RIVER","MN",55330,NA,NA,230,"19570 HOLT STREET NW, ELK RIVER, MN, 55330","No_Match",NA,NA,NA,NA
297731,"19570 REDBERRY DRIVE","LOS GATOS","CA",95030,37.238284854,-122.014379492,231,"19570 REDBERRY DRIVE, LOS GATOS, CA, 95030","Match","Exact","19570 REDBERRY DR, LOS GATOS, CA, 95030",123021536,"L"
297732,"19571 GENTLE STREAM CIRCLE","GOSHEN","IN",46528,41.6477972220001,-85.842059573,232,"19571 GENTLE STREAM CIRCLE, GOSHEN, IN, 46528","Match","Exact","19571 GENTLE STREAM CIR, GOSHEN, IN, 46528",635331505,"L"
297733,"19571 MT HWY 35","BIG FORK","MT",59911,NA,NA,233,"19571 MT HWY 35, BIG FORK, MT, 59911","No_Match",NA,NA,NA,NA
297734,"19571 W 55TH LN","GOLDEN","CO",80403,39.7965525720001,-105.220926599,234,"19571 W 55TH LN, GOLDEN, CO, 80403","Match","Exact","19571 W 55TH LN, GOLDEN, CO, 80403",177797263,"R"
297735,"19571 WATERBURY LANE","HUNTINGTON BEACH","CA",92646,33.678517092,-117.966337117,235,"19571 WATERBURY LANE, HUNTINGTON BEACH, CA, 92646","Match","Exact","19571 WATERBURY LN, HUNTINGTON BEACH, CA, 92646",144020719,"R"
297736,"19572 W 104TH ST","SAPULPA","OK",74066,36.0129319330001,-96.212450853,236,"19572 W 104TH ST, SAPULPA, OK, 74066","Match","Non_Exact","19572 W 104TH ST S, SAPULPA, OK, 74066",165889166,"R"
297737,"19573 HWY 55","CARTER","OK",73627,35.2190262410001,-99.490716719,237,"19573 HWY 55, CARTER, OK, 73627","Match","Non_Exact","19573 STATE HWY 55, CARTER, OK, 73627",151552146,"R"
297738,"19573 TANGLEWOOD CIR","CLINTON TOWNSHIP","MI",48038,42.6023644900001,-82.9218171099999,238,"19573 TANGLEWOOD CIR, CLINTON TOWNSHIP, MI, 48038","Match","Exact","19573 TANGLEWOOD CIR, CLINTON TOWNSHIP, MI, 48038",110703184,"R"
297739,"19573 W 54TH PL","GOLDEN","CO",80403,39.795645737,-105.220784959,239,"19573 W 54TH PL, GOLDEN, CO, 80403","Match","Exact","19573 W 54TH PL, GOLDEN, CO, 80403",177796775,"R"
297740,"19573 W WOODLANDS AVE","BUCKEYE","AZ",85395,NA,NA,240,"19573 W WOODLANDS AVE, BUCKEYE, AZ, 85395","No_Match",NA,NA,NA,NA
297741,"19574 CONCORD LOOP","COUNCIL BLUFFS","IA",51503,41.2249147810001,-95.8125789439999,241,"19574 CONCORD LOOP, COUNCIL BLUFFS, IA, 51503","Match","Exact","19574 CONCORD LOOP, COUNCIL BLUFFS, IA, 51503",43904653,"L"
297742,"19575 ARGYLE CRES","DETROIT","MI",48203,42.4370780680001,-83.13052815,242,"19575 ARGYLE CRES, DETROIT, MI, 48203","Match","Exact","19575 ARGYLE CRES, DETROIT, MI, 48203",95506270,"L"
297743,"19575 REDDING DR","SALINAS","CA",93908,36.588851945,-121.635031308,243,"19575 REDDING DR, SALINAS, CA, 93908","Match","Exact","19575 REDDING DR, SALINAS, CA, 93908",196825145,"R"
297744,"19576 PAXSON DRIVE","SOUTH BEND","IN",46637,41.7272663950001,-86.24900478,244,"19576 PAXSON DRIVE, SOUTH BEND, IN, 46637","Match","Exact","19576 PAXSON DR, SOUTH BEND, IN, 46637",8053557,"L"
297745,"19577 ANDERSON MILL RD","BEAVERDAM","VA",23015,37.9966890250001,-77.602681321,245,"19577 ANDERSON MILL RD, BEAVERDAM, VA, 23015","Match","Exact","19577 ANDERSON MILL RD, BEAVERDAM, VA, 23015",21961614,"R"
297746,"19577 ANDERSON MILL ROAD","BEAVERDAM","VA",23015,37.9966890250001,-77.602681321,246,"19577 ANDERSON MILL ROAD, BEAVERDAM, VA, 23015","Match","Exact","19577 ANDERSON MILL RD, BEAVERDAM, VA, 23015",21961614,"R"
297747,"19577 BOW DRIVE","LINNEUS","MO",64653,39.9015010730001,-93.323177716,247,"19577 BOW DRIVE, LINNEUS, MO, 64653","Match","Exact","19577 BOW DR, LINNEUS, MO, 64653",25591278,"L"
297748,"19578 MIDWAY RD","SOUTHFIELD","MI",48075,42.452146268,-83.235724761,248,"19578 MIDWAY RD, SOUTHFIELD, MI, 48075","Match","Exact","19578 MIDWAY RD, SOUTHFIELD, MI, 48075",69739605,"R"
297749,"19579 CARLTON AVE","CASTRO VALLEY","CA",94546,37.701925621,-122.092735378,249,"19579 CARLTON AVE, CASTRO VALLEY, CA, 94546","Match","Exact","19579 CARLTON AVE, CASTRO VALLEY, CA, 94546",125014720,"R"
297750,"19579 HWY 395 S","CANYON CITY","OR",97820,NA,NA,250,"19579 HWY 395 S, CANYON CITY, OR, 97820","No_Match",NA,NA,NA,NA
297751,"1958 19TH PLACE SE 205","WASHINGTON","DC",20020,38.8645127550001,-76.9776268689999,251,"1958 19TH PLACE SE 205, WASHINGTON, DC, 20020","Match","Exact","1958 19TH PL SE, WASHINGTON, DC, 20020",76231766,"L"
297752,"1958 19TH PLACE SOUTHEAST 205","WASHINGTON","DC",20020,38.8645127550001,-76.9776268689999,252,"1958 19TH PLACE SOUTHEAST 205, WASHINGTON, DC, 20020","Match","Exact","1958 19TH PL SE, WASHINGTON, DC, 20020",76231766,"L"
297753,"1958 25TH AVENUE EAST","SEATTLE","WA",98112,47.637174455,-122.300535247,253,"1958 25TH AVENUE EAST, SEATTLE, WA, 98112","Match","Exact","1958 25TH AVE E, SEATTLE, WA, 98112",186587753,"R"
297754,"1958 2ND STREET NW","WASHINGTON","DC",20001,38.9171370600001,-77.014522367,254,"1958 2ND STREET NW, WASHINGTON, DC, 20001","Match","Exact","1958 2ND ST NW, WASHINGTON, DC, 20001",76224600,"L"
297755,"1958 365TH STREET","MADISON","KS",66860,38.1362697540001,-96.184085739,255,"1958 365TH STREET, MADISON, KS, 66860","Match","Exact","1958 365TH ST, MADISON, KS, 66860",10732482,"L"
297756,"1958 6TH STREET","ARCADIA","LA",71001,32.5540748670001,-92.919601872,256,"1958 6TH STREET, ARCADIA, LA, 71001","Match","Exact","1958 6TH ST, ARCADIA, LA, 71001",114398637,"R"
297757,"1958 ADAM ST","CONOVER","NC",28613,35.7297154020001,-81.2560907819999,257,"1958 ADAM ST, CONOVER, NC, 28613","Match","Exact","1958 ADAM ST, CONOVER, NC, 28613",45926626,"L"
297758,"1958 ALICE DRIVE","ASTOR","FL",32102,29.169713987,-81.523081732,258,"1958 ALICE DRIVE, ASTOR, FL, 32102","Match","Exact","1958 ALICE DR, ASTOR, FL, 32102",94507116,"L"
297759,"1958 ANTIETAM ST","PITTSBURGH","PA",15206,40.4867525720001,-79.9219522179999,259,"1958 ANTIETAM ST, PITTSBURGH, PA, 15206","Match","Exact","1958 ANTIETAM ST, PITTSBURGH, PA, 15206",51683581,"R"
297760,"1958 ARMSTRONG DRIVE","LANDSDALE","PA",19446,40.205403496,-75.31161281,260,"1958 ARMSTRONG DRIVE, LANDSDALE, PA, 19446","Match","Non_Exact","1958 ARMSTRONG DR, LANSDALE, PA, 19446",135130170,"R"
297761,"1958 ASPEN CIRCLE","FAYETTEVILLE","NC",28304,35.019059369,-78.95760559,261,"1958 ASPEN CIRCLE, FAYETTEVILLE, NC, 28304","Match","Exact","1958 ASPEN CIR, FAYETTEVILLE, NC, 28304",64203308,"L"
297762,"1958 AUGUSTA-CHATHAM RD","AUGUSTA","KY",41002,NA,NA,262,"1958 AUGUSTA-CHATHAM RD, AUGUSTA, KY, 41002","No_Match",NA,NA,NA,NA
297763,"1958 BAILEY AVE","BUFFALO","NY",14211,42.9077796060001,-78.813735703,263,"1958 BAILEY AVE, BUFFALO, NY, 14211","Match","Exact","1958 BAILEY AVE, BUFFALO, NY, 14211",48297545,"L"
297764,"1958 BROADWAY STREET BUILDING NUM 9","RAYNHAM","MA",2767,41.980332522,-71.069575288,264,"1958 BROADWAY STREET BUILDING NUM 9, RAYNHAM, MA, 2767","Match","Exact","1958 BROADWAY ST, RAYNHAM, MA, 02767",46782625,"L"
297765,"1958 BRYANT RD","COLUMBIA","TN",38401,35.5437917720001,-86.9514184719999,265,"1958 BRYANT RD, COLUMBIA, TN, 38401","Match","Exact","1958 BRYANT RD, COLUMBIA, TN, 38401",605865765,"R"
297766,"1958 CENTENNIAL DR","CANTON","MI",48184,42.3179404200001,-83.52263672,266,"1958 CENTENNIAL DR, CANTON, MI, 48184","Match","Non_Exact","1958 CENTENNIAL DR, CANTON, MI, 48187",617694093,"R"
297767,"1958 CENTENNIAL DRIVE","CANTON","MI",48187,42.3179404200001,-83.52263672,267,"1958 CENTENNIAL DRIVE, CANTON, MI, 48187","Match","Exact","1958 CENTENNIAL DR, CANTON, MI, 48187",617694093,"R"
297768,"1958 COPE AVENUE EAST","MAPLEWOOD","MN",55109,45.0100115380001,-93.017182627,268,"1958 COPE AVENUE EAST, MAPLEWOOD, MN, 55109","Match","Non_Exact","1958 COPE AVE, MAPLEWOOD, MN, 55109",97662007,"L"
297769,"1958 COUNTY ROAD 1035","ASHLAND","OH",44805,40.7768243790001,-82.325887087,269,"1958 COUNTY ROAD 1035, ASHLAND, OH, 44805","Match","Exact","1958 CO RD 1035, ASHLAND, OH, 44805",30174215,"L"
297770,"1958 E 70TH ST STE A","SHREVEPORT","LA",71105,32.4439239870001,-93.70909707,270,"1958 E 70TH ST STE A, SHREVEPORT, LA, 71105","Match","Non_Exact","1958 E 70TH ST, SHREVEPORT, LA, 71105",57441906,"L"
297771,"1958 EAST 48 ROAD","CADILLAC","MI",49601,NA,NA,271,"1958 EAST 48 ROAD, CADILLAC, MI, 49601","No_Match",NA,NA,NA,NA
297772,"1958 EAST BROAD STREET","BEAVER MEADOWS","NH",18216,NA,NA,272,"1958 EAST BROAD STREET, BEAVER MEADOWS, NH, 18216","No_Match",NA,NA,NA,NA
297773,"1958 EAST TIMBER OAK ST","REPUBLIC","MO",65738,37.129579818,-93.450684291,273,"1958 EAST TIMBER OAK ST, REPUBLIC, MO, 65738","Match","Exact","1958 E TIMBER OAK ST, REPUBLIC, MO, 65738",625247128,"L"
297774,"1958 EL PASO AVENUE","CLOVIS","CA",93611,36.848825665,-119.681039853,274,"1958 EL PASO AVENUE, CLOVIS, CA, 93611","Match","Non_Exact","1958 EL PASO, CLOVIS, CA, 93611",617776738,"R"
297775,"1958 FULTON ST","BROOKLYN","NY",11233,40.678799025,-73.920390396,275,"1958 FULTON ST, BROOKLYN, NY, 11233","Match","Exact","1958 FULTON ST, BROOKLYN, NY, 11233",59082899,"R"
297776,"1958 FULTON STR","BROOKLYN","NY",11233,40.678799025,-73.920390396,276,"1958 FULTON STR, BROOKLYN, NY, 11233","Match","Exact","1958 FULTON ST, BROOKLYN, NY, 11233",59082899,"R"
297777,"1958 FULTON STREET","BROOKLYN","NY",11233,40.678799025,-73.920390396,277,"1958 FULTON STREET, BROOKLYN, NY, 11233","Match","Exact","1958 FULTON ST, BROOKLYN, NY, 11233",59082899,"R"
297778,"1958 HELMO AVE","SAINT PAUL","MN",55128,44.977090407,-92.952490402,278,"1958 HELMO AVE, SAINT PAUL, MN, 55128","Match","Non_Exact","1958 HELMO AVE N, SAINT PAUL, MN, 55128",97804280,"L"
297779,"1958 HIGH STREET","LINCOLN","NE",68502,40.780954797,-96.692784368,279,"1958 HIGH STREET, LINCOLN, NE, 68502","Match","Exact","1958 HIGH ST, LINCOLN, NE, 68502",28255104,"L"
297780,"1958 HOPI RD","SANTA FE","NM",87505,35.665749949,-105.976776549,280,"1958 HOPI RD, SANTA FE, NM, 87505","Match","Exact","1958 HOPI RD, SANTA FE, NM, 87505",169377753,"L"
297781,"1958 LAKE DR","WINSTON-SALEM","NC",27127,36.031720093,-80.2884195029999,281,"1958 LAKE DR, WINSTON-SALEM, NC, 27127","Match","Exact","1958 LAKE DR, WINSTON SALEM, NC, 27127",84685199,"L"
297782,"1958 LAKE RIDGE DRIVE","KAYSVILLE","UT",84037,41.0027996760001,-111.940607325,282,"1958 LAKE RIDGE DRIVE, KAYSVILLE, UT, 84037","Match","Non_Exact","1958 S LAKE RIDGE DR, KAYSVILLE, UT, 84037",635335330,"R"
297783,"1958 LAS FLORES DRIVE","BRENTWOOD","CA",94513,37.9463734020001,-121.73346947,283,"1958 LAS FLORES DRIVE, BRENTWOOD, CA, 94513","Match","Exact","1958 LOS FLORES DR, BRENTWOOD, CA, 94513",638567779,"L"
297784,"1958 LINDEN AVE","HIGHLAND PARK","IL",60035,42.187786025,-87.794946297,284,"1958 LINDEN AVE, HIGHLAND PARK, IL, 60035","Match","Exact","1958 LINDEN AVE, HIGHLAND PARK, IL, 60035",119651668,"L"
297785,"1958 LOGGING LANE","JACKSONVILLE","FL",32221,30.282977811,-81.83268306,285,"1958 LOGGING LANE, JACKSONVILLE, FL, 32221","Match","Exact","1958 LOGGING LN, JACKSONVILLE, FL, 32221",83908412,"R"
297786,"1958 LORD FAIRFAX ROAD","MCLEAN","VA",22182,38.9108457500001,-77.2307492209999,286,"1958 LORD FAIRFAX ROAD, MCLEAN, VA, 22182","Match","Non_Exact","1958 LORD FAIRFAX RD, VIENNA, VA, 22182",76046512,"R"
297787,"1958 MATADOR WAY UNIT 102","NORTHRIDGE","CA",91330,NA,NA,287,"1958 MATADOR WAY UNIT 102, NORTHRIDGE, CA, 91330","No_Match",NA,NA,NA,NA
297788,"1958 MCCLELLAN DRIVE","FLORENCE","SC",29505,34.151903889,-79.7843585419999,288,"1958 MCCLELLAN DRIVE, FLORENCE, SC, 29505","Match","Exact","1958 MCCLELLAN DR, FLORENCE, SC, 29505",624220248,"R"
297789,"1958 MCKINLEY ST","HOLLYWOOD","FL",33020,26.024367548,-80.146431464,289,"1958 MCKINLEY ST, HOLLYWOOD, FL, 33020","Match","Exact","1958 MCKINLEY ST, HOLLYWOOD, FL, 33020",114730433,"L"
297790,"1958 MICHELLE CT","GROVE CITY","OH",43123,39.8740998100001,-83.055931862,290,"1958 MICHELLE CT, GROVE CITY, OH, 43123","Match","Exact","1958 MICHELLE CT, GROVE CITY, OH, 43123",135625425,"L"
297791,"1958 N 20 ST APT D","MILWAUKEE","WI",53205,43.0556720450001,-87.937660104,291,"1958 N 20 ST APT D, MILWAUKEE, WI, 53205","Match","Non_Exact","1958 N 20TH ST, MILWAUKEE, WI, 53205",77767769,"R"
297792,"1958 N AVE 52","LOS ANGELES","CA",90042,34.1286665270001,-118.199904632,292,"1958 N AVE 52, LOS ANGELES, CA, 90042","Match","Non_Exact","1958 N AVE 52, HIGHLAND PARK, CA, 90042",634248412,"R"
297793,"1958 N PARK AVE","INDIANAPOLIS","IN",46202,39.7931873210001,-86.147118555,293,"1958 N PARK AVE, INDIANAPOLIS, IN, 46202","Match","Exact","1958 N PARK AVE, INDIANAPOLIS, IN, 46202",107989933,"L"
297794,"1958 N RYKERS RIDGE RD","MADISON","IN",47250,38.767959078,-85.340068426,294,"1958 N RYKERS RIDGE RD, MADISON, IN, 47250","Match","Exact","1958 N RYKERS RIDGE RD, MADISON, IN, 47250",31392613,"R"
297795,"1958 N SAYRE AVE","CHICAGO","IL",60707,41.9158321850001,-87.800500112,295,"1958 N SAYRE AVE, CHICAGO, IL, 60707","Match","Non_Exact","1958 N SAYRE AVE, CHICAGO, IL, 60707",605037469,"L"
297796,"1958 NAYLOR RD","WASHINGTON","DC",20020,38.8720121110001,-76.97584698,296,"1958 NAYLOR RD, WASHINGTON, DC, 20020","Match","Non_Exact","1958 NAYLOR RD SE, WASHINGTON, DC, 20020",76231719,"L"
297797,"1958 NW 186TH STREET","MIAMI GARDEN","FL",33056,25.9443032250001,-80.234447761,297,"1958 NW 186TH STREET, MIAMI GARDEN, FL, 33056","Match","Non_Exact","1958 NW 186TH ST, MIAMI GARDENS, FL, 33056",116028017,"L"
297798,"1958 PANTHEON DRIVE","WINTER GARDEN","FL",34787,28.504876724,-81.623791324,298,"1958 PANTHEON DRIVE, WINTER GARDEN, FL, 34787","Match","Exact","1958 PANTHEON DR, WINTER GARDEN, FL, 34787",645098086,"R"
297799,"1958 POST CHASE","BLOOMFIELD","MI",48304,42.6135294320001,-83.2392924009999,299,"1958 POST CHASE, BLOOMFIELD, MI, 48304","Match","Non_Exact","1958 POST CHAISE CT, BLOOMFIELD, MI, 48304",69709474,"R"
297800,"1958 SECOND AVENUE NO106","SAN DIEGO","CA",92101,32.7257064190001,-117.162987617,300,"1958 SECOND AVENUE NO106, SAN DIEGO, CA, 92101","Match","Exact","1958 2ND AVE, SAN DIEGO, CA, 92101",195343440,"L"
297801,"1958 STEPHENS BRANCH ROAD","MARTIN","KY",41649,NA,NA,301,"1958 STEPHENS BRANCH ROAD, MARTIN, KY, 41649","No_Match",NA,NA,NA,NA
297802,"1958 STERLING OAKS CIR NE","BROOKHAVEN","GA",30319,33.8381694920001,-84.3361346359999,302,"1958 STERLING OAKS CIR NE, BROOKHAVEN, GA, 30319","Match","Non_Exact","1958 STERLING OAKS CIR, BROOKHAVEN, GA, 30319",619385760,"L"
297803,"1958 STONE SILO CIRCLE","DE PERE","WI",54115,44.4336925860001,-88.0294177379999,303,"1958 STONE SILO CIRCLE, DE PERE, WI, 54115","Match","Exact","1958 STONE SILO CIR, DE PERE, WI, 54115",633857946,"R"
297804,"1958 SUGAR PINE CIR","HOUSTON","TX",77090,30.0061572060001,-95.4569215289999,304,"1958 SUGAR PINE CIR, HOUSTON, TX, 77090","Match","Exact","1958 SUGAR PINE CIR, HOUSTON, TX, 77090",96576783,"R"
297805,"1958 SUNDROP BAY","SAN ANTONIO","TX",78224,29.33844721,-98.53946408,305,"1958 SUNDROP BAY, SAN ANTONIO, TX, 78224","Match","Exact","1958 SUNDROP BAY, SAN ANTONIO, TX, 78224",101735614,"R"
297806,"1958 TENNY NELSON ROAD","GRANTVILLE","GA",30220,33.1593133600001,-84.795579792,306,"1958 TENNY NELSON ROAD, GRANTVILLE, GA, 30220","Match","Non_Exact","1958 TENNEY NELSON RD, GRANTVILLE, GA, 30220",635555521,"L"
297807,"1958 W BERWYN AVE","CHICAGO","IL",60640,41.977867874,-87.6787856559999,307,"1958 W BERWYN AVE, CHICAGO, IL, 60640","Match","Exact","1958 W BERWYN AVE, CHICAGO, IL, 60640",652590445,"R"
297808,"1958 WILROSE PLACE","MATTHEWS","NC",28105,35.0928410380001,-80.728053162,308,"1958 WILROSE PLACE, MATTHEWS, NC, 28105","Match","Exact","1958 WILROSE PL, MATTHEWS, NC, 28105",70548730,"R"
297809,"19580 179TH PL","ENNING","SD",57737,44.5692614810001,-102.481688702,309,"19580 179TH PL, ENNING, SD, 57737","Match","Exact","19580 179TH PL, ENNING, SD, 57737",628959594,"R"
297810,"19580 LUNN RD","STRONGSVILLE","OH",44149,41.305297931,-81.8424873979999,310,"19580 LUNN RD, STRONGSVILLE, OH, 44149","Match","Exact","19580 LUNN RD, STRONGSVILLE, OH, 44149",61150447,"R"
297811,"19580 RUGGLES ROAD","SOUTH HAVEN","MI",49090,42.3469676570001,-86.2932493599999,311,"19580 RUGGLES ROAD, SOUTH HAVEN, MI, 49090","Match","Exact","19580 RUGGLES RD, SOUTH HAVEN, MI, 49090",34748854,"L"
297812,"19580 SANDSTONE LN","ROBERTSDALE","AL",36567,30.5623088020001,-87.689875122,312,"19580 SANDSTONE LN, ROBERTSDALE, AL, 36567","Match","Exact","19580 SANDSTONE LN, ROBERTSDALE, AL, 36567",131697827,"R"
297813,"19582 SPLIT RAIL RUN","LOXAHATCHEE","FL",33470,26.6932822910001,-80.356376132,313,"19582 SPLIT RAIL RUN, LOXAHATCHEE, FL, 33470","Match","Exact","19582 SPLIT RAIL RUN, LOXAHATCHEE, FL, 33470",648342901,"L"
297814,"19583 HWY 61 S","LORMAN","MS",39096,31.831324572,-91.047005332,314,"19583 HWY 61 S, LORMAN, MS, 39096","Match","Exact","19583 HWY 61 S, LORMAN, MS, 39096",612201329,"L"
297815,"19583 SHREWSBURY ROAD","DETROIT","MI",48222,42.436757777,-83.138154785,315,"19583 SHREWSBURY ROAD, DETROIT, MI, 48222","Match","Non_Exact","19583 SHREWSBURY RD, DETROIT, MI, 48221",95506263,"L"
297816,"19583 TANBARK LANE","STRONGSVILLE","OH",44149,41.334557868,-81.841978911,316,"19583 TANBARK LANE, STRONGSVILLE, OH, 44149","Match","Exact","19583 TANBARK LN, STRONGSVILLE, OH, 44149",61131311,"L"
297817,"19584 1ST STREET","HILMAR","CA",95324,37.4078956230001,-120.842675537,317,"19584 1ST STREET, HILMAR, CA, 95324","Match","Exact","19584 1ST ST, HILMAR, CA, 95324",647290755,"L"
297818,"19585 BUTTERNUT LANE","SOUTHFIELD","MI",48076,42.506765758,-83.238471805,318,"19585 BUTTERNUT LANE, SOUTHFIELD, MI, 48076","Match","Exact","19585 BUTTERNUT LN, SOUTHFIELD, MI, 48076",69835594,"L"
297819,"19585 HIGHWAY 1055","KENTWOOD","LA",70444,30.972554319,-90.3983930109999,319,"19585 HIGHWAY 1055, KENTWOOD, LA, 70444","Match","Exact","19585 HWY 1055, KENTWOOD, LA, 70444",75772657,"R"
297820,"19586 WATTS ROAD","MORRIS","OK",74445,35.6241979340001,-95.842784471,320,"19586 WATTS ROAD, MORRIS, OK, 74445","Match","Exact","19586 WATTS RD, MORRIS, OK, 74445",605467407,"L"
297821,"19587 4-MILE ROAD","STURGIS","SD",57785,44.560659833,-103.104461436,321,"19587 4-MILE ROAD, STURGIS, SD, 57785","Match","Non_Exact","19587 4 MILE RD, STURGIS, SD, 57785",200899497,"R"
297822,"19587 BEAVERLAND","DETROIT","MI",48219,42.4337570060001,-83.265565243,322,"19587 BEAVERLAND, DETROIT, MI, 48219","Match","Non_Exact","19587 BEAVERLAND ST, DETROIT, MI, 48219",95420498,"L"
297823,"19587 MOUNT JASPER DRIVE","CASTRO VALLEY","CA",94552,37.7135744760001,-122.032536807,323,"19587 MOUNT JASPER DRIVE, CASTRO VALLEY, CA, 94552","Match","Exact","19587 MT JASPER DR, CASTRO VALLEY, CA, 94552",125074092,"R"
297824,"19588 BUCK CANYON ROAD","BEND","OR",97702,44.00602704,-121.345278777,324,"19588 BUCK CANYON ROAD, BEND, OR, 97702","Match","Exact","19588 BUCK CANYON RD, BEND, OR, 97702",636594961,"R"
297825,"19588 MAYFIELD CIRCLE","HUNTINGTON BEACH","CA",92648,33.6781182500001,-118.016826218,325,"19588 MAYFIELD CIRCLE, HUNTINGTON BEACH, CA, 92648","Match","Exact","19588 MAYFIELD CIR, HUNTINGTON BEACH, CA, 92648",144262257,"L"
297826,"19588 SATURNIA LAKES DR","BOCA RATON","FL",33498,26.3845511550001,-80.2315839509999,326,"19588 SATURNIA LAKES DR, BOCA RATON, FL, 33498","Match","Exact","19588 SATURNIA LAKES DR, BOCA RATON, FL, 33498",115504513,"L"
297827,"19589 DESNA DRIVE","PORTER","TX",77365,30.1099031750001,-95.282811827,327,"19589 DESNA DRIVE, PORTER, TX, 77365","Match","Exact","19589 DESNA DR, PORTER, TX, 77365",642462721,"R"
297828,"19589 MITCHELL LANE","NEOSHO","MO",64850,36.8503188820001,-94.2903894149999,328,"19589 MITCHELL LANE, NEOSHO, MO, 64850","Match","Exact","19589 MITCHELL LN, NEOSHO, MO, 64850",623881033,"L"
297829,"1959 6TH AVE SE","VERO BEACH","FL",32962,27.5658565580001,-80.363273184,329,"1959 6TH AVE SE, VERO BEACH, FL, 32962","Match","Exact","1959 6TH AVE SE, VERO BEACH, FL, 32962",610920783,"L"
297830,"1959 71ST AVENUE","PHILADELPHIA","PA",19138,40.0623633500001,-75.150113618,330,"1959 71ST AVENUE, PHILADELPHIA, PA, 19138","Match","Exact","1959 71ST AVE, PHILADELPHIA, PA, 19138",131413264,"R"
297831,"1959 AJAY DR","ROSEVILLE","CA",95678,38.731019385,-121.29550926,331,"1959 AJAY DR, ROSEVILLE, CA, 95678","Match","Exact","1959 AJAY DR, ROSEVILLE, CA, 95678",106813391,"R"
297832,"1959 BOSWORTH LANE","NORTHFIELD","IL",60093,42.099756316,-87.7764720929999,332,"1959 BOSWORTH LANE, NORTHFIELD, IL, 60093","Match","Exact","1959 BOSWORTH LN, NORTHFIELD, IL, 60093",111729741,"R"
297833,"1959 BRANDYWINE ROAD APT 104","WEST PALM BEACH","FL",33409,26.7262283530001,-80.092005133,333,"1959 BRANDYWINE ROAD APT 104, WEST PALM BEACH, FL, 33409","Match","Exact","1959 BRANDYWINE RD, WEST PALM BEACH, FL, 33409",115353436,"R"
297834,"1959 BRIDGER RD","AKRON","OH",44312,41.0070449460001,-81.453085613,334,"1959 BRIDGER RD, AKRON, OH, 44312","Match","Exact","1959 BRIDGER RD, AKRON, OH, 44312",61356157,"L"
297835,"1959 CALLE LOIZA SUITE 410","SAN JUAN","PR",911,18.4510584330001,-66.055633601,335,"1959 CALLE LOIZA SUITE 410, SAN JUAN, PR, 911","Match","Non_Exact","1959 CLL LOIZA, SAN JUAN, PR, 00911",206604194,"R"
297836,"1959 CARRINGTON COURT","STONE MOUNATIN","GA",30387,33.8408175430001,-84.1782486989999,336,"1959 CARRINGTON COURT, STONE MOUNATIN, GA, 30387","Match","Non_Exact","1959 CARRINGTON CT, STONE MOUNTAIN, GA, 30087",23364429,"R"
297837,"1959 CHARLESTON HOUSE WAY APT 6205","HOLLY HILL","FL",32117,29.249759485,-81.066521371,337,"1959 CHARLESTON HOUSE WAY APT 6205, HOLLY HILL, FL, 32117","Match","Exact","1959 CHARLESTON HOUSE WAY, HOLLY HILL, FL, 32117",94601299,"L"
297838,"1959 COMANCHE LANE","OSHKOSH","WI",54901,44.1017499160001,-88.4950844049999,338,"1959 COMANCHE LANE, OSHKOSH, WI, 54901","Match","Exact","1959 COMANCHE LN, OSHKOSH, WI, 54901",74488658,"R"
297839,"1959 CREPE MYRTLE DR","LANCASTER","TX",75146,32.592799235,-96.794139135,339,"1959 CREPE MYRTLE DR, LANCASTER, TX, 75146","Match","Exact","1959 CREPE MYRTLE DR, LANCASTER, TX, 75146",103174902,"L"
297840,"1959 DALEWOOD PLACE","CINCINNATI","OH",45238,39.1760844840001,-84.460279484,340,"1959 DALEWOOD PLACE, CINCINNATI, OH, 45238","Match","Non_Exact","1959 DALEWOOD PL, CINCINNATI, OH, 45237",640627670,"R"
297841,"1959 DOVE LANE","BAKER","FL",32531,30.7739201700001,-86.630380883,341,"1959 DOVE LANE, BAKER, FL, 32531","Match","Exact","1959 DOVE LN, BAKER, FL, 32531",74412039,"L"
297842,"1959 EL PORTAL DR","MERCED","CA",95340,37.3249659090001,-120.449116118,342,"1959 EL PORTAL DR, MERCED, CA, 95340","Match","Exact","1959 EL PORTAL DR, MERCED, CA, 95340",640827634,"L"
297843,"1959 ELOISE CIRCLE NE","HARTVILLE","OH",44632,40.937075861,-81.3404759919999,343,"1959 ELOISE CIRCLE NE, HARTVILLE, OH, 44632","Match","Exact","1959 ELOISE CIR NE, HARTVILLE, OH, 44632",64694100,"L"
297844,"1959 FM 1564 W","CADDO MILLS","TX",75135,33.0083584820001,-96.16596398,344,"1959 FM 1564 W, CADDO MILLS, TX, 75135","Match","Exact","1959 FM 1564 W, CADDO MILLS, TX, 75135",635877643,"R"
297845,"1959 FM 1564 W","CADO MILLS","TX",75135,33.0083584820001,-96.16596398,345,"1959 FM 1564 W, CADO MILLS, TX, 75135","Match","Non_Exact","1959 FM 1564 W, CADDO MILLS, TX, 75135",635877643,"R"
297846,"1959 Francis Ave","DES MOINES","IA",50314,41.614265964,-93.644891945,346,"1959 Francis Ave, DES MOINES, IA, 50314","Match","Exact","1959 FRANCIS AVE, DES MOINES, IA, 50314",65780500,"R"
297847,"1959 GLEN TURRET DRIVE","CORDOVA","TN",38016,35.1780549280001,-89.730882475,347,"1959 GLEN TURRET DRIVE, CORDOVA, TN, 38016","Match","Non_Exact","1959 GLENTURRET DR, CORDOVA, TN, 38016",612565542,"L"
297848,"1959 GOLDEN RAIN ROAD APT 8","WALNUT CREEK","CA",94595,37.878590998,-122.079231693,348,"1959 GOLDEN RAIN ROAD APT 8, WALNUT CREEK, CA, 94595","Match","Exact","1959 GOLDEN RAIN RD, WALNUT CREEK, CA, 94595",192052424,"L"
297849,"1959 GUILDHALL DR APT F","COLUMBUS","OH",43209,39.930017449,-82.9207875709999,349,"1959 GUILDHALL DR APT F, COLUMBUS, OH, 43209","Match","Exact","1959 GUILDHALL DR, COLUMBUS, OH, 43209",135595614,"R"
297850,"1959 HALFMOON VALLEY ROAD","PORT MATILDA","PA",16870,40.794298817,-78.014886947,350,"1959 HALFMOON VALLEY ROAD, PORT MATILDA, PA, 16870","Match","Exact","1959 HALFMOON VALLEY RD, PORT MATILDA, PA, 16870",630634220,"L"
297851,"1959 LAKE BLVD APT 224","DAVIS","CA",95616,38.560571232,-121.786175259,351,"1959 LAKE BLVD APT 224, DAVIS, CA, 95616","Match","Exact","1959 LAKE BLVD, DAVIS, CA, 95616",648057048,"L"
297852,"1959 LOGAN STREET","SHREVEPORT","LA",71101,32.507207211,-93.770822149,352,"1959 LOGAN STREET, SHREVEPORT, LA, 71101","Match","Exact","1959 LOGAN ST, SHREVEPORT, LA, 71101",57435899,"L"
297853,"1959 LOIZA STREET","SAN JUAN","PR",911,NA,NA,353,"1959 LOIZA STREET, SAN JUAN, PR, 911","No_Match",NA,NA,NA,NA
297854,"1959 LONGMEADOW HILL DR","IRVING","TX",75063,32.9248046370001,-96.968802323,354,"1959 LONGMEADOW HILL DR, IRVING, TX, 75063","Match","Exact","1959 LONGMEADOW HILL DR, IRVING, TX, 75063",617054656,"R"
297855,"1959 MCGRAW AVENUE 3C","BRONX","NY",10462,40.8348153750001,-73.8595043449999,355,"1959 MCGRAW AVENUE 3C, BRONX, NY, 10462","Match","Exact","1959 MCGRAW AVE, BRONX, NY, 10462",609089819,"L"
297856,"1959 MCGRAW AVENUE APT 2F","BRONX","NY",10462,40.8348153750001,-73.8595043449999,356,"1959 MCGRAW AVENUE APT 2F, BRONX, NY, 10462","Match","Exact","1959 MCGRAW AVE, BRONX, NY, 10462",609089819,"L"
297857,"1959 MCGRAW AVENUE APT TB","BRONX","NY",10462,40.8348153750001,-73.8595043449999,357,"1959 MCGRAW AVENUE APT TB, BRONX, NY, 10462","Match","Exact","1959 MCGRAW AVE, BRONX, NY, 10462",609089819,"L"
297858,"1959 MICHIGAN AVE","ALMA","MI",48801,43.3885339290001,-84.633821973,358,"1959 MICHIGAN AVE, ALMA, MI, 48801","Match","Exact","1959 MICHIGAN AVE, ALMA, MI, 48801",80170679,"L"
297859,"1959 MILERSBURG RD","WOOSTER","OH",44691,40.7754228420001,-81.9299381129999,359,"1959 MILERSBURG RD, WOOSTER, OH, 44691","Match","Non_Exact","1959 MILLERSBURG RD, WOOSTER, OH, 44691",647844905,"L"
297860,"1959 MILLERSBURG RD","WOOSTER","OH",44691,40.7754228420001,-81.9299381129999,360,"1959 MILLERSBURG RD, WOOSTER, OH, 44691","Match","Exact","1959 MILLERSBURG RD, WOOSTER, OH, 44691",647844905,"L"
297861,"1959 N 63RD DRIVE","KANSAS CITY","KS",66102,39.127467342,-94.727890088,361,"1959 N 63RD DRIVE, KANSAS CITY, KS, 66102","Match","Exact","1959 N 63RD DR, KANSAS CITY, KS, 66102",91159814,"L"
297862,"1959 N PATTON STREET","PHILADELPHIA","PA",19121,39.986236073,-75.1852785259999,362,"1959 N PATTON STREET, PHILADELPHIA, PA, 19121","Match","Exact","1959 N PATTON ST, PHILADELPHIA, PA, 19121",131404740,"R"
297863,"1959 N PEACE HAVEN  RD -116","WINSTON SALEM","NC",27106,36.1176986410001,-80.3135972599999,363,"1959 N PEACE HAVEN  RD -116, WINSTON SALEM, NC, 27106","Match","Non_Exact","1959 PEACE HAVEN RD N, WINSTON SALEM, NC, 27106",84647718,"L"
297864,"1959 N PEACE HAVEN  RD -116","WINSTON-SALEM","NC",27106,36.1176986410001,-80.3135972599999,364,"1959 N PEACE HAVEN  RD -116, WINSTON-SALEM, NC, 27106","Match","Non_Exact","1959 PEACE HAVEN RD N, WINSTON SALEM, NC, 27106",84647718,"L"
297865,"1959 N PEACE HAVEN  RD-116","WINSTON-SALEM","NC",27106,NA,NA,365,"1959 N PEACE HAVEN  RD-116, WINSTON-SALEM, NC, 27106","No_Match",NA,NA,NA,NA
297866,"1959 NE PACIFIC ST D322 BOX 356365","SEATTLE","WA",98195,47.650779787,-122.308112643,366,"1959 NE PACIFIC ST D322 BOX 356365, SEATTLE, WA, 98195","Match","Non_Exact","1959 NE PACIFIC ST, SEATTLE, WA, 98195",186991331,"R"
297867,"1959 NE PACIFIC STREET","SEATTE","WA",98195,47.650779787,-122.308112643,367,"1959 NE PACIFIC STREET, SEATTE, WA, 98195","Match","Non_Exact","1959 NE PACIFIC ST, SEATTLE, WA, 98195",186991331,"R"
297868,"1959 NE PACIFIC STREET","SEATTLE","WA",98195,47.650779787,-122.308112643,368,"1959 NE PACIFIC STREET, SEATTLE, WA, 98195","Match","Exact","1959 NE PACIFIC ST, SEATTLE, WA, 98195",186991331,"R"
297869,"1959 NORTH 2700 EAST","LAYTON","UT",84040,41.088329259,-111.915384301,369,"1959 NORTH 2700 EAST, LAYTON, UT, 84040","Match","Exact","1959 N 2700 E, LAYTON, UT, 84040",640551320,"R"
297870,"1959 NORTH PATTON STREET","PHILADELPHIA","PA",19121,39.9862207100001,-75.18528194,370,"1959 NORTH PATTON STREET, PHILADELPHIA, PA, 19121","Match","Exact","1959 N PATTON ST, PHILADELPHIA, PA, 19121",131404740,"R"
297871,"1959 NORTHEAST PACIFIC STREET","SEATTLE","WA",98195,47.650779787,-122.308112643,371,"1959 NORTHEAST PACIFIC STREET, SEATTLE, WA, 98195","Match","Exact","1959 NE PACIFIC ST, SEATTLE, WA, 98195",186991331,"R"
297872,"1959 OAK STREET","MENDOTA HEIGHTS","MN",55118,44.8853346400001,-93.1198357659999,372,"1959 OAK STREET, MENDOTA HEIGHTS, MN, 55118","Match","Exact","1959 OAK ST, MENDOTA HEIGHTS, MN, 55118",37916063,"R"
297873,"1959 OLD KELLYTON ROAD","ALEXANDER CITY","AL",35010,32.9575866500001,-85.9825546719999,373,"1959 OLD KELLYTON ROAD, ALEXANDER CITY, AL, 35010","Match","Exact","1959 OLD KELLYTON RD, ALEX CITY, AL, 35010",1662629,"L"
297874,"1959 ORANGELAKE DR","LEWIS CENTER","OH",43035,40.1855074010001,-82.9987889079999,374,"1959 ORANGELAKE DR, LEWIS CENTER, OH, 43035","Match","Exact","1959 ORANGELAKE DR, LEWIS CENTER, OH, 43035",637242523,"L"
297875,"1959 PACIFIC ST","SEATTLE","WA",98195,47.650779787,-122.308112643,375,"1959 PACIFIC ST, SEATTLE, WA, 98195","Match","Non_Exact","1959 NE PACIFIC ST, SEATTLE, WA, 98195",186991331,"R"
297876,"1959 PARSLEY LANE APT A","JOPLIN","MO",64804,37.0709369950001,-94.5732864029999,376,"1959 PARSLEY LANE APT A, JOPLIN, MO, 64804","Match","Non_Exact","1959 S PARSLEY LN, JOPLIN, MO, 64804",66165131,"R"
297877,"1959 PIATT ROAD","MONTICELLO","IL",61856,40.0755537380001,-88.596170166,377,"1959 PIATT ROAD, MONTICELLO, IL, 61856","Match","Exact","1959 PIATT RD, MONTICELLO, IL, 61856",8553752,"R"
297878,"1959 POINT RUN RD","TRIADELPHIA","WV",26059,40.078045488,-80.60009826,378,"1959 POINT RUN RD, TRIADELPHIA, WV, 26059","Match","Exact","1959 POINT RUN RD, TRIADELPHIA, WV, 26059",38108773,"L"
297879,"1959 S  POWER ROAD  103-384","MESA","AZ",85206,33.3807418270001,-111.687815602,379,"1959 S  POWER ROAD  103-384, MESA, AZ, 85206","Match","Non_Exact","1959 S POWER RD, MESA, AZ, 85206",243914620,"L"
297880,"1959 S CRESCENT HEIGHTS BLVD","LOS ANGELES","CA",90034,34.041037713,-118.375545199,380,"1959 S CRESCENT HEIGHTS BLVD, LOS ANGELES, CA, 90034","Match","Exact","1959 S CRESCENT HEIGHTS BLVD, LOS ANGELES, CA, 90034",141600592,"R"
297881,"1959 S LIBERTY BELL RD","ROGERS","AR",72758,36.288745486,-94.1987716799999,381,"1959 S LIBERTY BELL RD, ROGERS, AR, 72758","Match","Exact","1959 S LIBERTY BELL RD, ROGERS, AR, 72758",645635309,"L"
297882,"1959 SAXON DR","FEASTERVILLE","PA",19053,40.1586957590001,-74.977367956,382,"1959 SAXON DR, FEASTERVILLE, PA, 19053","Match","Non_Exact","1959 SAXON DR, FEASTERVILLE TREVOSE, PA, 19053",623947851,"L"
297883,"1959 SPRING CREEK CIRCLE","GREEN BAY","WI",54311,44.465202187,-87.937016936,383,"1959 SPRING CREEK CIRCLE, GREEN BAY, WI, 54311","Match","Exact","1959 SPRING CREEK CIR, GREEN BAY, WI, 54311",148104900,"L"
297884,"1959 STERLING PLACE","LANCASTER","PA",17601,40.0813874340001,-76.303619923,384,"1959 STERLING PLACE, LANCASTER, PA, 17601","Match","Exact","1959 STERLING PL, LANCASTER, PA, 17601",179662184,"R"
297885,"1959 TEXAS PARKWAY","MISSOURI CITY","TX",77489,29.5989200970001,-95.52677234,385,"1959 TEXAS PARKWAY, MISSOURI CITY, TX, 77489","Match","Exact","1959 TEXAS PKWY, MISSOURI CITY, TX, 77489",78341634,"R"
297886,"1959 UNIVERSITY BLVD","HOUSTON","TX",77030,29.712297548,-95.403281325,386,"1959 UNIVERSITY BLVD, HOUSTON, TX, 77030","Match","Exact","1959 UNIVERSITY BLVD, HOUSTON, TX, 77030",96065055,"L"
297887,"1959 VAN DYK RD","EVERSON","WA",98247,48.9061333180001,-122.383021069,387,"1959 VAN DYK RD, EVERSON, WA, 98247","Match","Exact","1959 VAN DYK RD, EVERSON, WA, 98247",624011947,"L"
297888,"1959 WEWATTA ST    APT 615","DENVER","CO",80202,39.756085883,-104.998274671,388,"1959 WEWATTA ST    APT 615, DENVER, CO, 80202","Match","Exact","1959 WEWATTA ST, DENVER, CO, 80202",634927147,"L"
297889,"1959 WEWATTA STREET UNIT 305","DENVER","CO",80202,39.756085883,-104.998274671,389,"1959 WEWATTA STREET UNIT 305, DENVER, CO, 80202","Match","Exact","1959 WEWATTA ST, DENVER, CO, 80202",634927147,"L"
297890,"19590 E MAINSTREET SUITE 100","PARKER","CO",80138,NA,NA,390,"19590 E MAINSTREET SUITE 100, PARKER, CO, 80138","No_Match",NA,NA,NA,NA
297891,"19590 IBERIS AVE","LAKEVILLE","MN",55044,44.665493434,-93.248823277,391,"19590 IBERIS AVE, LAKEVILLE, MN, 55044","Match","Exact","19590 IBERIS AVE, LAKEVILLE, MN, 55044",627493804,"L"
297892,"19591 GREATWOOD LOOP","BEND","OR",97702,44.01347364,-121.34705613,392,"19591 GREATWOOD LOOP, BEND, OR, 97702","Match","Exact","19591 GREATWOOD LOOP, BEND, OR, 97702",152588821,"L"
297893,"19591 VINTAGE TRACE CIRCLE","FORT MYERS","FL",33967,26.4598551760001,-81.809654081,393,"19591 VINTAGE TRACE CIRCLE, FORT MYERS, FL, 33967","Match","Exact","19591 VINTAGE TRACE CIR, FORT MYERS, FL, 33967",649126724,"L"
297894,"19592 CLOVERWOOD CIR","HUNTINGTON BEACH","CA",92648,33.6776736400001,-118.015510044,394,"19592 CLOVERWOOD CIR, HUNTINGTON BEACH, CA, 92648","Match","Exact","19592 CLOVERWOOD CIR, HUNTINGTON BEACH, CA, 92648",144262260,"L"
297895,"19592 ELDER","DIAMOND","MO",64840,36.980256034,-94.291135266,395,"19592 ELDER, DIAMOND, MO, 64840","Match","Non_Exact","19592 ELDER RD, DIAMOND, MO, 64840",649633154,"L"
297896,"19592 NORTHRIDGE DR","NORTHVILLE","MI",48167,42.428100493,-83.454589843,396,"19592 NORTHRIDGE DR, NORTHVILLE, MI, 48167","Match","Exact","19592 NORTHRIDGE DR, NORTHVILLE, MI, 48167",95499698,"L"
297897,"19593 N LELAND RD","MARICOPA","AZ",85138,33.057225342,-112.031740273,397,"19593 N LELAND RD, MARICOPA, AZ, 85138","Match","Exact","19593 LELAND RD, MARICOPA, AZ, 85138",606153255,"L"
297898,"19594 120TH ST","HERMAN","MN",56248,NA,NA,398,"19594 120TH ST, HERMAN, MN, 56248","No_Match",NA,NA,NA,NA
297899,"19594 350TH STREET NW","NEWFOLDEN","MN",56738,48.3844550750001,-96.466151611,399,"19594 350TH STREET NW, NEWFOLDEN, MN, 56738","Match","Exact","19594 350TH ST NW, NEWFOLDEN, MN, 56738",171361903,"L"
297900,"19594 SATURNIA LAKES DRIVE","BOCA RATON","FL",33498,26.384483625,-80.231597219,400,"19594 SATURNIA LAKES DRIVE, BOCA RATON, FL, 33498","Match","Exact","19594 SATURNIA LAKES DR, BOCA RATON, FL, 33498",115504513,"L"
297901,"19595 ARGYLE CRESCENT","DETROIT","MI",48203,42.4371036910001,-83.130270815,401,"19595 ARGYLE CRESCENT, DETROIT, MI, 48203","Match","Exact","19595 ARGYLE CRES, DETROIT, MI, 48203",95506270,"L"
297902,"19595 E MAPLEWOOD AVE","AURORA","CO",80016,39.606188843,-104.759078871,402,"19595 E MAPLEWOOD AVE, AURORA, CO, 80016","Match","Non_Exact","19595 E MAPLEWOOD AVE, AURORA, CO, 80016",617953970,"L"
297903,"19595 S CLEARVIEW RD","SPRING HILL","KS",66083,38.7717778910001,-94.739575856,403,"19595 S CLEARVIEW RD, SPRING HILL, KS, 66083","Match","Exact","19595 S CLEARVIEW RD, SPRING HILL, KS, 66083",91294277,"R"
297904,"19595 SPRING STREET","ADAMS","NY",13605,43.804132467,-75.979857904,404,"19595 SPRING STREET, ADAMS, NY, 13605","Match","Exact","19595 SPRING ST, ADAMS, NY, 13605",648363595,"R"
297905,"19596 SW SANDRA LANE","ALOHA","OR",97003,45.502573424,-122.879920251,405,"19596 SW SANDRA LANE, ALOHA, OR, 97003","Match","Exact","19596 SW SANDRA LN, ALOHA, OR, 97003",158230417,"L"
297906,"19597 MELROSE","SOUTHFIELD","MI",48075,42.448499231,-83.23578753,406,"19597 MELROSE, SOUTHFIELD, MI, 48075","Match","Non_Exact","19597 MELROSE AVE, SOUTHFIELD, MI, 48075",69755066,"L"
297907,"19599 E BELLEVIEW PL","CENTENNIAL","CO",80015,39.6236615510001,-104.760512926,407,"19599 E BELLEVIEW PL, CENTENNIAL, CO, 80015","Match","Non_Exact","19599 E BELLEVIEW PL, CENTENNIAL, CO, 80015",177560345,"R"
297908,"195J HICKORY STREET","SPRINGFIELD","MA",1109,42.09956515,-72.5593569219999,408,"195J HICKORY STREET, SPRINGFIELD, MA, 1109","Match","Exact","195 HICKORY ST, SPRINGFIELD, MA, 01109",4036218,"R"
297909,"196  REGENT BLVD","HOLLAND","MI",49423,42.7469897350001,-86.110658555,409,"196  REGENT BLVD, HOLLAND, MI, 49423","Match","Exact","196 REGENT BLVD, HOLLAND, MI, 49423",11436379,"R"
297910,"196 AINSLIE ST NO 2","BROOKLYN","NY",11211,40.712853367,-73.9465670449999,410,"196 AINSLIE ST NO 2, BROOKLYN, NY, 11211","Match","Non_Exact","196 AINSLIE ST, BROOKLYN, NY, 11211",59076863,"R"
297911,"196 ALPS ROAD SUITE 2 PMB 159","ATHENS","GA",30606,33.9458302190001,-83.409024448,411,"196 ALPS ROAD SUITE 2 PMB 159, ATHENS, GA, 30606","Match","Exact","196 ALPS RD, ATHENS, GA, 30606",4801374,"R"
297912,"196 AMBOY STREET","BROOKLYN","NY",11212,40.665680863,-73.9136344349999,412,"196 AMBOY STREET, BROOKLYN, NY, 11212","Match","Exact","196 AMBOY ST, BROOKLYN, NY, 11212",59083831,"R"
297913,"196 ANITA DRIVE","PASADENA","CA",91105,NA,NA,413,"196 ANITA DRIVE, PASADENA, CA, 91105","No_Match",NA,NA,NA,NA
297914,"196 APARTMENT COURT DRIVE 159","BATON ROUGE","LA",70806,30.446086667,-91.123513897,414,"196 APARTMENT COURT DRIVE 159, BATON ROUGE, LA, 70806","Match","Exact","196 APARTMENT COURT DR, BATON ROUGE, LA, 70806",92197242,"L"
297915,"196 APARTMENT COURT DRIVE APT 179","BATON ROUGE","LA",70806,30.446086667,-91.123513897,415,"196 APARTMENT COURT DRIVE APT 179, BATON ROUGE, LA, 70806","Match","Exact","196 APARTMENT COURT DR, BATON ROUGE, LA, 70806",92197242,"L"
297916,"196 APARTMENT CT DR","BATON ROUGE","LA",70806,NA,NA,416,"196 APARTMENT CT DR, BATON ROUGE, LA, 70806","No_Match",NA,NA,NA,NA
297917,"196 APRICOT DRIVE","KYLE","TX",78640,29.963539446,-97.844747392,417,"196 APRICOT DRIVE, KYLE, TX, 78640","Match","Exact","196 APRICOT DR, KYLE, TX, 78640",650164300,"R"
297918,"196 APRIL RIDGE LANE","LAWRENCEVILLE",NA,NA,33.9316677420001,-83.95585469,418,"196 APRIL RIDGE LANE, LAWRENCEVILLE, , ","Match","Exact","196 APRIL RIDGE LN, LAWRENCEVILLE, GA, 30045",633054746,"R"
297919,"196 ASHAROKEN AVE","NORTHPORT","NY",11768,40.9281348750001,-73.359056439,419,"196 ASHAROKEN AVE, NORTHPORT, NY, 11768","Match","Exact","196 ASHAROKEN AVE, NORTHPORT, NY, 11768",114250234,"R"
297920,"196 AUDUBON DRIVE","HAVANA","FL",32333,30.606256036,-84.4690260789999,420,"196 AUDUBON DRIVE, HAVANA, FL, 32333","Match","Exact","196 AUDUBON DR, HAVANA, FL, 32333",87832449,"R"
297921,"196 AUNEY WAY","GRANVILLE","NY",12832,43.3847256770001,-73.2879668799999,421,"196 AUNEY WAY, GRANVILLE, NY, 12832","Match","Exact","196 AUNEY WAY, GRANVILLE, NY, 12832",139162650,"R"
297922,"196 AVALEA POINT","PONTE VEDRA","FL",32082,NA,NA,422,"196 AVALEA POINT, PONTE VEDRA, FL, 32082","No_Match",NA,NA,NA,NA
297923,"196 AZALEA LANE","FRANKLIN","TN",37064,35.867369995,-86.86278103,423,"196 AZALEA LANE, FRANKLIN, TN, 37064","Match","Exact","196 AZALEA LN, FRANKLIN, TN, 37064",624807957,"L"
297924,"196 BACK CREEK LAND","LYNDHURST","VA",22952,37.97345491,-78.950287182,424,"196 BACK CREEK LAND, LYNDHURST, VA, 22952","Match","Non_Exact","196 BACK CREEK LN, LYNDHURST, VA, 22952",98822056,"R"
297925,"196 BALTIMORE AVE","PT PLEASANT BEACH","NJ",8742,40.0970417500001,-74.042382989,425,"196 BALTIMORE AVE, PT PLEASANT BEACH, NJ, 8742","Match","Exact","196 BALTIMORE AVE, PT PLEASANT BEACH, NJ, 08742",203734552,"R"
297926,"196 BAYOU BEND ROAD","GROVELAND","FL",34736,28.624237696,-81.784753393,426,"196 BAYOU BEND ROAD, GROVELAND, FL, 34736","Match","Exact","196 BAYOU BEND RD, GROVELAND, FL, 34736",617502482,"R"
297927,"196 BLOOMFIELD AVENUE","BLOOMFIELD","NJ",7003,40.781511746,-74.190959504,427,"196 BLOOMFIELD AVENUE, BLOOMFIELD, NJ, 7003","Match","Exact","196 BLOOMFIELD AVE, BLOOMFIELD, NJ, 07003",63451390,"L"
297928,"196 BLUE MTN DR","MONTICELLO","UT",84535,37.8704256030001,-109.352215995,428,"196 BLUE MTN DR, MONTICELLO, UT, 84535","Match","Exact","196 BLUE MOUNTAIN DR, MONTICELLO, UT, 84535",177052149,"L"
297929,"196 BLUE SWAMP RD","LITCHFIELD","CT",6759,41.76444503,-73.295113008,429,"196 BLUE SWAMP RD, LITCHFIELD, CT, 6759","Match","Exact","196 BLUE SWAMP RD, LITCHFIELD, CT, 06759",3128402,"R"
297930,"196 BRADHURST AVENUE APT 17","NEW YORK","NY",10039,40.8271923900001,-73.9400202319999,430,"196 BRADHURST AVENUE APT 17, NEW YORK, NY, 10039","Match","Exact","196 BRADHURST AVE, NEW YORK, NY, 10039",59656258,"R"
297931,"196 BRIDLEWOOD DR","JACKSONVILLE","NC",28540,34.828211636,-77.469614689,431,"196 BRIDLEWOOD DR, JACKSONVILLE, NC, 28540","Match","Exact","196 BRIDLEWOOD DR, JACKSONVILLE, NC, 28540",605409727,"R"
297932,"196 BROADWAY APT 2","BROOKLYN","NY",11211,40.7097391830001,-73.961788887,432,"196 BROADWAY APT 2, BROOKLYN, NY, 11211","Match","Exact","196 BROADWAY, BROOKLYN, NY, 11211",59076143,"R"
297933,"196 CAMP CREEK CIRCLE","CORNELIA","GA",30531,34.5450130730001,-83.525760414,433,"196 CAMP CREEK CIRCLE, CORNELIA, GA, 30531","Match","Exact","196 CAMP CREEK CIR, CORNELIA, GA, 30531",41723179,"R"
297934,"196 CANNONBALL DRIVE","TINTON FALLS","NJ",7712,40.2502672840001,-74.087804757,434,"196 CANNONBALL DRIVE, TINTON FALLS, NJ, 7712","Match","Exact","196 CANNONBALL DR, TINTON FALLS, NJ, 07712",632487701,"L"
297935,"196 CARPATHIAN DR","APOPKA","FL",32712,NA,NA,435,"196 CARPATHIAN DR, APOPKA, FL, 32712","No_Match",NA,NA,NA,NA
297936,"196 CASSINGHAM RD","BEXLEY","OH",43209,NA,NA,436,"196 CASSINGHAM RD, BEXLEY, OH, 43209","Tie",NA,NA,NA,NA
297937,"196 CASTLE HILL RD","WHITINSVILLE","MA",1588,42.10263439,-71.669023613,437,"196 CASTLE HILL RD, WHITINSVILLE, MA, 1588","Match","Exact","196 CASTLE HILL RD, WHITINSVILLE, MA, 01588",40094004,"R"
297938,"196 CECIL SMITH RD","HUSTONVILLE","KY",40437,37.398317579,-84.7746280539999,438,"196 CECIL SMITH RD, HUSTONVILLE, KY, 40437","Match","Exact","196 CECIL SMITH RD, HUSTONVILLE, KY, 40437",32548741,"R"
297939,"196 CENTRAL AVE","METUCHEN","NJ",8840,40.545425548,-74.3700279559999,439,"196 CENTRAL AVE, METUCHEN, NJ, 8840","Match","Exact","196 CENTRAL AVE, METUCHEN, NJ, 08840",645311075,"R"
297940,"196 CHANNEL VIEW","WARWICK","RI",2889,41.6787219010001,-71.388564494,440,"196 CHANNEL VIEW, WARWICK, RI, 2889","Match","Exact","196 CHANNEL VW, WARWICK, RI, 02889",639859284,"L"
297941,"196 CHARLTON STREET","NEWARK","NJ",7108,40.7282858200001,-74.1897701629999,441,"196 CHARLTON STREET, NEWARK, NJ, 7108","Match","Exact","196 CHARLTON ST, NEWARK, NJ, 07108",63466413,"L"
297942,"196 CHERRY OAK LANE","MONTGOMERY","TX",77316,30.2836496830001,-95.560077591,442,"196 CHERRY OAK LANE, MONTGOMERY, TX, 77316","Match","Exact","196 CHERRY OAK LN, MONTGOMERY, TX, 77316",650757500,"L"
297943,"196 CHURCH RD","MARMORA","NJ",8223,39.2565429220001,-74.66641523,443,"196 CHURCH RD, MARMORA, NJ, 8223","Match","Exact","196 CHURCH RD, MARMORA, NJ, 08223",174341513,"R"
297944,"196 CHURCH STREET","WEST CREEK","NJ",8092,39.6346029970001,-74.308561988,444,"196 CHURCH STREET, WEST CREEK, NJ, 8092","Match","Exact","196 CHURCH ST, WEST CREEK, NJ, 08092",203704968,"R"
297945,"196 CIRCLE RD","BELLEFONTE","PA",16823,41.0005410320001,-77.813826274,445,"196 CIRCLE RD, BELLEFONTE, PA, 16823","Match","Exact","196 CIRCLE RD, BELLEFONTE, PA, 16823",651290718,"L"
297946,"196 CLARK LN","SUMMERVILLE","SC",29483,32.9886746190001,-80.255390029,446,"196 CLARK LN, SUMMERVILLE, SC, 29483","Match","Exact","196 CLARK LN, SUMMERVILLE, SC, 29483",178456808,"L"
297947,"196 CLINTON AVENUE - APT B 31","BROOKLYN","NY",11205,40.6922397050001,-73.96863738,447,"196 CLINTON AVENUE - APT B 31, BROOKLYN, NY, 11205","Match","Exact","196 CLINTON AVE, BROOKLYN, NY, 11205",59077777,"R"
297948,"196 CLINTON AVENUE D24","BROOKLYN","NY",11205,40.6922397050001,-73.96863738,448,"196 CLINTON AVENUE D24, BROOKLYN, NY, 11205","Match","Exact","196 CLINTON AVE, BROOKLYN, NY, 11205",59077777,"R"
297949,"196 CLINTON AVENUE","BROOKLYN","NY",11205,40.6922397050001,-73.96863738,449,"196 CLINTON AVENUE, BROOKLYN, NY, 11205","Match","Exact","196 CLINTON AVE, BROOKLYN, NY, 11205",59077777,"R"
297950,"196 CLUBHOUSE XING","ACKWORTH","GA",30144,NA,NA,450,"196 CLUBHOUSE XING, ACKWORTH, GA, 30144","No_Match",NA,NA,NA,NA
297951,"196 COLBERT ROAD","CHARLOTTESVILLE","VA",22901,NA,NA,451,"196 COLBERT ROAD, CHARLOTTESVILLE, VA, 22901","No_Match",NA,NA,NA,NA
297952,"196 COLONIAL DR","CALIMESA","CA",92320,33.995998091,-117.036835137,452,"196 COLONIAL DR, CALIMESA, CA, 92320","Match","Exact","196 COLONIAL DR, CALIMESA, CA, 92320",627446401,"L"
297953,"196 COOK AVENUE","SALEM","NJ",8079,39.565100784,-75.4769897049999,453,"196 COOK AVENUE, SALEM, NJ, 8079","Match","Exact","196 COOK AVE, SALEM, NJ, 08079",174412517,"R"
297954,"196 COOLIDGE STREET","SWANSEA","MA",2777,41.733804703,-71.20403076,454,"196 COOLIDGE STREET, SWANSEA, MA, 2777","Match","Exact","196 COOLIDGE ST, SWANSEA, MA, 02777",46766707,"L"
297955,"196 COPPER STREET","ELKO","NV",89801,40.847148814,-115.790874021,455,"196 COPPER STREET, ELKO, NV, 89801","Match","Exact","196 COPPER ST, ELKO, NV, 89801",154621870,"R"
297956,"196 COREY ST","AGAWAM","MA",1001,42.075686933,-72.60626145,456,"196 COREY ST, AGAWAM, MA, 1001","Match","Exact","196 COREY ST, AGAWAM, MA, 01001",4052052,"R"
297957,"196 CORNWALL DRIVE","CRETE","IL",60417,41.463934915,-87.611628707,457,"196 CORNWALL DRIVE, CRETE, IL, 60417","Match","Exact","196 CORNWALL DR, CRETE, IL, 60417",651912173,"R"
297958,"196 COUNTRY CLUB ROAD","EMPORIA","VA",23847,36.74584494,-77.497038361,458,"196 COUNTRY CLUB ROAD, EMPORIA, VA, 23847","Match","Exact","196 COUNTRY CLUB RD, EMPORIA, VA, 23847",54240142,"L"
297959,"196 COUNTY ROAD","WALPOLE","NH",3608,43.0609071430001,-72.423473241,459,"196 COUNTY ROAD, WALPOLE, NH, 3608","Match","Exact","196 COUNTY RD, WALPOLE, NH, 03608",124073144,"L"
297960,"196 CR 782","JONESBORO","AR",72405,35.940724532,-90.6337784359999,460,"196 CR 782, JONESBORO, AR, 72405","Match","Exact","196 CO RD 782, JONESBORO, AR, 72405",46938096,"R"
297961,"196 CRAIG RD","FORSYTH","GA",31029,33.193379888,-83.9400738319999,461,"196 CRAIG RD, FORSYTH, GA, 31029","Match","Exact","196 CRAIG RD, FORSYTH, GA, 31029",66670121,"R"
297962,"196 CROOKED OAK CT","SHEPHERDSVILLE","KY",40165,37.9825228780001,-85.72614888,462,"196 CROOKED OAK CT, SHEPHERDSVILLE, KY, 40165","Match","Exact","196 CROOKED OAK CT, SHEPHERDSVILLE, KY, 40165",614118354,"R"
297963,"196 CROWN STREET - APT 410","NEW HAVEN","CT",6510,41.3057925040001,-72.929163273,463,"196 CROWN STREET - APT 410, NEW HAVEN, CT, 6510","Match","Exact","196 CROWN ST, NEW HAVEN, CT, 06510",3701142,"L"
297964,"196 DAKOTA TRAIL","ROCKWOOD","TN",37854,35.941346029,-84.682767257,464,"196 DAKOTA TRAIL, ROCKWOOD, TN, 37854","Match","Exact","196 DAKOTA TRL, ROCKWOOD, TN, 37854",653287374,"L"
297965,"196 DAM VIEW DRIVE","MEDIA","PA",19063,39.948136768,-75.397055871,465,"196 DAM VIEW DRIVE, MEDIA, PA, 19063","Match","Non_Exact","196 DAMVIEW DR, MEDIA, PA, 19063",134894469,"L"
297966,"196 DEXTER AVENUE","REDWOOD CITY","CA",94063,37.470461148,-122.208412971,466,"196 DEXTER AVENUE, REDWOOD CITY, CA, 94063","Match","Exact","196 DEXTER AVE, REDWOOD CITY, CA, 94063",192364114,"R"
297967,"196 DOE RUN DR","CAIRO","GA",39828,30.8729680550001,-84.1444094399999,467,"196 DOE RUN DR, CAIRO, GA, 39828","Match","Exact","196 DOE RUN DR, CAIRO, GA, 39828",84361053,"L"
297968,"196 DUPONT RD","MANSURA","LA",71350,31.105334559,-92.0818019069999,468,"196 DUPONT RD, MANSURA, LA, 71350","Match","Exact","196 DUPONT RD, MANSURA, LA, 71350",635822197,"R"
297969,"196 E OLIVE BERRY LANE","DRAPER","UT",84020,40.5396692890001,-111.887298544,469,"196 E OLIVE BERRY LANE, DRAPER, UT, 84020","Match","Exact","196 OLIVE BERRY LN, DRAPER, UT, 84020",176131646,"R"
297970,"196 E PRINCETON RD","PRINCETON","MA",1541,42.469410962,-71.850900441,470,"196 E PRINCETON RD, PRINCETON, MA, 1541","Match","Exact","196 E PRINCETON RD, PRINCETON, MA, 01541",40096265,"R"
297971,"196 E WARFIELD DR","MOORESVILLE","NC",28115,35.6017532920001,-80.779086938,471,"196 E WARFIELD DR, MOORESVILLE, NC, 28115","Match","Exact","196 E WARFIELD DR, MOORESVILLE, NC, 28115",646468073,"R"
297972,"196 EAST BEAUMONT","COLUMBUS","OH",43214,40.0574360160001,-83.014559707,472,"196 EAST BEAUMONT, COLUMBUS, OH, 43214","Match","Non_Exact","196 E BEAUMONT RD, COLUMBUS, OH, 43214",218695275,"L"
297973,"196 EAST MAIN STREET  STE 2C378","MILFORD","MA",1757,42.150840111,-71.499940551,473,"196 EAST MAIN STREET  STE 2C378, MILFORD, MA, 1757","Match","Exact","196 E MAIN ST, MILFORD, MA, 01757",625709620,"L"
297974,"196 EAST MAIN STREET SUITE 2C 378","MILFORD","MA",1757,42.150840111,-71.499940551,474,"196 EAST MAIN STREET SUITE 2C 378, MILFORD, MA, 1757","Match","Exact","196 E MAIN ST, MILFORD, MA, 01757",625709620,"L"
297975,"196 EAST STREET","SHARON","MA",2067,42.1169368270001,-71.1634182779999,475,"196 EAST STREET, SHARON, MA, 2067","Match","Exact","196 EAST ST, SHARON, MA, 02067",617269299,"L"
297976,"196 EASY STREET","NANCY","KY",42544,37.021795067,-84.7901625809999,476,"196 EASY STREET, NANCY, KY, 42544","Match","Exact","196 EASY ST, NANCY, KY, 42544",39088148,"L"
297977,"196 EVERGREEN STREET","REPUBLIC","MI",49879,46.3627522200001,-87.9827111829999,477,"196 EVERGREEN STREET, REPUBLIC, MI, 49879","Match","Exact","196 EVERGREEN ST, REPUBLIC, MI, 49879",182071318,"L"
297978,"196 EXCHANGE ST","BANGOR","ME",4401,44.8019336610001,-68.7690413399999,478,"196 EXCHANGE ST, BANGOR, ME, 4401","Match","Exact","196 EXCHANGE ST, BANGOR, ME, 04401",123628553,"L"
297979,"196 FAGAN BLVD","WEST POINT","MS",39773,33.6044562320001,-88.668232009,479,"196 FAGAN BLVD, WEST POINT, MS, 39773","Match","Exact","196 FAGAN BLVD, WEST POINT, MS, 39773",607690818,"R"
297980,"196 FAIRLAND DRIVE","NORTH AUGUSTA","SC",29841,NA,NA,480,"196 FAIRLAND DRIVE, NORTH AUGUSTA, SC, 29841","No_Match",NA,NA,NA,NA
297981,"196 FLEMING AVENUE","SAN JOSE","CA",95127,37.373940383,-121.816916855,481,"196 FLEMING AVENUE, SAN JOSE, CA, 95127","Match","Exact","196 FLEMING AVE, SAN JOSE, CA, 95127",122983669,"R"
297982,"196 FORREST CHAPEL RD","HARTSELLE","AL",35640,34.446859074,-86.9981657769999,482,"196 FORREST CHAPEL RD, HARTSELLE, AL, 35640","Match","Non_Exact","196 FOREST CHAPEL RD, HARTSELLE, AL, 35640",97123482,"L"
297983,"196 FORT ARGYLE ROAD","SAVANNAH","GA",31419,32.0101422920001,-81.293778458,483,"196 FORT ARGYLE ROAD, SAVANNAH, GA, 31419","Match","Exact","196 FORT ARGYLE RD, SAVANNAH, GA, 31419",650568202,"R"
297984,"196 FOSTON CHAPEL RD","HOPKINSVILLE","KY",42240,36.820631876,-87.502077175,484,"196 FOSTON CHAPEL RD, HOPKINSVILLE, KY, 42240","Match","Exact","196 FOSTON CHAPEL RD, HOPKINSVILLE, KY, 42240",11299559,"L"
297985,"196 FREDERICK ROAD","TONAWANDA","NY",14150,43.0036875380001,-78.854161189,485,"196 FREDERICK ROAD, TONAWANDA, NY, 14150","Match","Exact","196 FREDERICK RD, TONAWANDA, NY, 14150",48359424,"R"
297986,"196 FREYER DR NE","MARIETTA","GA",30060,33.963607036,-84.546408097,486,"196 FREYER DR NE, MARIETTA, GA, 30060","Match","Non_Exact","196 FREYER DR, MARIETTA, GA, 30060",17175893,"R"
297987,"196 GARTH ROAD 1E","SCARSDALE","NY",10583,40.9834935640001,-73.8117735499999,487,"196 GARTH ROAD 1E, SCARSDALE, NY, 10583","Match","Exact","196 GARTH RD, SCARSDALE, NY, 10583",650109207,"L"
297988,"196 GEORGIA ST","SPINDALE","NC",28160,35.366667551,-81.930788214,488,"196 GEORGIA ST, SPINDALE, NC, 28160","Match","Exact","196 GEORGIA ST, SPINDALE, NC, 28160",19388596,"R"
297989,"196 GLEN ST","FARMINGTON","AR",72730,36.040510457,-94.2332721769999,489,"196 GLEN ST, FARMINGTON, AR, 72730","Match","Non_Exact","196 E GLEN ST, FARMINGTON, AR, 72730",49059427,"L"
297990,"196 GREELEY RD","WINDSOR","ME",4363,44.319321653,-69.543958456,490,"196 GREELEY RD, WINDSOR, ME, 4363","Match","Exact","196 GREELEY RD, WINDSOR, ME, 04363",75459743,"L"
297991,"196 GREEN GIANT RD","TOWNSEND","DE",19734,39.41614215,-75.712671695,491,"196 GREEN GIANT RD, TOWNSEND, DE, 19734","Match","Exact","196 GREEN GIANT RD, TOWNSEND, DE, 19734",187301294,"R"
297992,"196 GROVE STREET","RAMSEY","NJ",7446,41.067010601,-74.154631133,492,"196 GROVE STREET, RAMSEY, NJ, 7446","Match","Exact","196 GROVE ST, RAMSEY, NJ, 07446",64400491,"R"
297993,"196 HAMBY RD","CHATSWORTH","GA",30705,34.8048550950001,-84.700342028,493,"196 HAMBY RD, CHATSWORTH, GA, 30705","Match","Exact","196 HAMBY RD, CHATSWORTH, GA, 30705",57111648,"L"
297994,"196 HARRISON STREET","PATERSON","NJ",7514,NA,NA,494,"196 HARRISON STREET, PATERSON, NJ, 7514","No_Match",NA,NA,NA,NA
297995,"196 HAZELTON LOOP","MOORESVILLE","NC",28115,35.5731758800001,-80.879933477,495,"196 HAZELTON LOOP, MOORESVILLE, NC, 28115","Match","Non_Exact","196 HAZELTON LOOP, MOORESVILLE, NC, 28117",45991151,"R"
297996,"196 HEADWATERS DRIVE","HARWICH","MA",2645,41.709846462,-70.093394373,496,"196 HEADWATERS DRIVE, HARWICH, MA, 2645","Match","Exact","196 HEADWATERS DR, HARWICH, MA, 02645",121630258,"L"
297997,"196 HENNIING DR","WEST PALM BEACH","FL",33405,26.673567932,-80.0809145169999,497,"196 HENNIING DR, WEST PALM BEACH, FL, 33405","Match","Non_Exact","196 HENNING DR, WEST PALM BEACH, FL, 33406",115273543,"L"
297998,"196 HINCHEY ROAD","ROCHESTER","NY",14624,43.1387259250001,-77.6763604829999,498,"196 HINCHEY ROAD, ROCHESTER, NY, 14624","Match","Exact","196 HINCHEY RD, ROCHESTER, NY, 14624",14530805,"R"
297999,"196 HOPKINS AVENUE","JERSEY CITY","NJ",7306,40.7384401620001,-74.058987031,499,"196 HOPKINS AVENUE, JERSEY CITY, NJ, 7306","Match","Exact","196 HOPKINS AVE, JERSEY CITY, NJ, 07306",59605018,"R"
298000,"196 HORIZON LANE","GLASTONBURY","CT",6033,41.710379957,-72.46852856,500,"196 HORIZON LANE, GLASTONBURY, CT, 6033","Match","Exact","196 HORIZON LN, GLASTONBURY, CT, 06033",3536026,"R"
