"ID","Address","City","State","Zip","lat","long","id","input_address","match_indicator","match_type","matched_address","tiger_line_id","tiger_side"
491001,"3103 N 18TH STREET","TAMPA","FL",33605,27.9714188570001,-82.439239156,1,"3103 N 18TH STREET, TAMPA, FL, 33605","Match","Exact","3103 N 18TH ST, TAMPA, FL, 33605",104523809,"R"
491002,"3103 N 193RD AVE","ELKHORN","NE",68022,41.2862349100001,-96.219210883,2,"3103 N 193RD AVE, ELKHORN, NE, 68022","Match","Exact","3103 N 193RD AVE, ELKHORN, NE, 68022",624441205,"L"
491003,"3103 N ATLANTIC AVE SUITE H","CAPE CANAVERAL","FL",32920,NA,NA,3,"3103 N ATLANTIC AVE SUITE H, CAPE CANAVERAL, FL, 32920","No_Match",NA,NA,NA,NA
491004,"3103 NE 132ND AVENUE","VANCOUVER","WA",98682,45.6451770300001,-122.537154043,4,"3103 NE 132ND AVENUE, VANCOUVER, WA, 98682","Match","Exact","3103 NE 132ND AVE, VANCOUVER, WA, 98682",158329356,"R"
491005,"3103 NE ROSA PARKS WAY","PORTLAND","OR",97211,NA,NA,5,"3103 NE ROSA PARKS WAY, PORTLAND, OR, 97211","No_Match",NA,NA,NA,NA
491006,"3103 NORMA PL","TOMS RIVERT","NJ",8755,40.042004429,-74.248588156,6,"3103 NORMA PL, TOMS RIVERT, NJ, 8755","Match","Non_Exact","3103 NORMA PL, TOMS RIVER, NJ, 08755",203844139,"R"
491007,"3103 NORTH 50 STREET","OMAHA","NE",68104,41.2874095500001,-95.990240539,7,"3103 NORTH 50 STREET, OMAHA, NE, 68104","Match","Exact","3103 N 50TH ST, OMAHA, NE, 68104",116978354,"R"
491008,"3103 NY 42","AVERILL PARK","NY",12018,NA,NA,8,"3103 NY 42, AVERILL PARK, NY, 12018","No_Match",NA,NA,NA,NA
491009,"3103 OLD ELM WAY","SAN ANTONIO","TX",78230,29.548537421,-98.546279238,9,"3103 OLD ELM WAY, SAN ANTONIO, TX, 78230","Match","Exact","3103 OLD ELM WAY, SAN ANTONIO, TX, 78230",101492387,"L"
491010,"3103 OWL STREET","MONROE","LA",71202,32.513129345,-92.08228093,10,"3103 OWL STREET, MONROE, LA, 71202","Match","Non_Exact","3103 OWL ST, MONROE, LA, 71201",161086745,"L"
491011,"3103 PALADIN TERRACE","OLNEY","MD",20832,39.155764488,-77.0623034719999,11,"3103 PALADIN TERRACE, OLNEY, MD, 20832","Match","Exact","3103 PALADIN TER, OLNEY, MD, 20832",62093674,"R"
491012,"3103 PLEASANT AVE APT 1D","NORFOLK","VA",23518,36.931077687,-76.204852429,12,"3103 PLEASANT AVE APT 1D, NORFOLK, VA, 23518","Match","Exact","3103 PLEASANT AVE, NORFOLK, VA, 23518",122125378,"R"
491013,"3103 PRESBURY ST","BALTIMORE","MD",21216,39.307089284,-76.669333275,13,"3103 PRESBURY ST, BALTIMORE, MD, 21216","Match","Exact","3103 PRESBURY ST, BALTIMORE, MD, 21216",206414047,"L"
491014,"3103 RICHMOND ST","PHILADELPHIA","PA",19134,39.9817459540001,-75.103769159,14,"3103 RICHMOND ST, PHILADELPHIA, PA, 19134","Match","Exact","3103 RICHMOND ST, PHILADELPHIA, PA, 19134",131429925,"R"
491015,"3103 ROCKGATE PL","SIMI VALLEY","CA",93063,34.291410581,-118.721417262,15,"3103 ROCKGATE PL, SIMI VALLEY, CA, 93063","Match","Exact","3103 ROCKGATE PL, SIMI VALLEY, CA, 93063",110072137,"R"
491016,"3103 S 115TH EAST AVENUE","TULSA","OK",74146,36.1178800370001,-95.848913026,16,"3103 S 115TH EAST AVENUE, TULSA, OK, 74146","Match","Exact","3103 S 115TH EAST AVE, TULSA, OK, 74146",166454396,"L"
491017,"3103 S WILLOW ST","SEATTLE","WA",98108,47.540718225,-122.291390636,17,"3103 S WILLOW ST, SEATTLE, WA, 98108","Match","Exact","3103 S WILLOW ST, SEATTLE, WA, 98108",186717533,"R"
491018,"3103 SECOND ST","FORT MYERS","FL",33916,26.6474951440001,-81.850227463,18,"3103 SECOND ST, FORT MYERS, FL, 33916","Match","Exact","3103 2ND ST, FORT MYERS, FL, 33916",118021843,"L"
491019,"3103 SHERWOOD OAKS LANE","DECATUR","GA",30034,33.6934668640001,-84.2172536909999,19,"3103 SHERWOOD OAKS LANE, DECATUR, GA, 30034","Match","Exact","3103 SHERWOOD OAKS LN, DECATUR, GA, 30034",23387930,"L"
491020,"3103 SOUTH ASH","PINE BLUFF","AR",71603,34.1979857380001,-92.016374743,20,"3103 SOUTH ASH, PINE BLUFF, AR, 71603","Match","Non_Exact","3103 S ASH ST, PINE BLUFF, AR, 71603",2553832,"L"
491021,"3103 SOUTH GENESEE ROAD","BURTON","MI",48519,42.985923831,-83.61410804,21,"3103 SOUTH GENESEE ROAD, BURTON, MI, 48519","Match","Exact","3103 S GENESEE RD, BURTON, MI, 48519",69589326,"L"
491022,"3103 SOUTHWEST BLVD APT 2","CHARLOTTE","NC",28216,35.263986377,-80.8689540509999,22,"3103 SOUTHWEST BLVD APT 2, CHARLOTTE, NC, 28216","Match","Exact","3103 SOUTHWEST BLVD, CHARLOTTE, NC, 28216",70477020,"L"
491023,"3103 STONEBRIDGE DR","NESBIT","MS",38651,NA,NA,23,"3103 STONEBRIDGE DR, NESBIT, MS, 38651","No_Match",NA,NA,NA,NA
491024,"3103 SUMMIT LANE","FULTONDALE","AL",35068,33.5960459340001,-86.824422678,24,"3103 SUMMIT LANE, FULTONDALE, AL, 35068","Match","Exact","3103 SUMMIT LN, FULTONDALE, AL, 35068",627395240,"L"
491025,"3103 SW 148 PLACE","MIAMI","FL",33185,25.7382795950001,-80.4351821669999,25,"3103 SW 148 PLACE, MIAMI, FL, 33185","Match","Exact","3103 SW 148TH PL, MIAMI, FL, 33185",642105709,"R"
491026,"3103 Swallow Lane","ROLLING MEADOWS","IL",60008,42.0738260260001,-88.019182179,26,"3103 Swallow Lane, ROLLING MEADOWS, IL, 60008","Match","Exact","3103 SWALLOW LN, ROLLING MDWS, IL, 60008",111698359,"L"
491027,"3103 THOMPKINS SQUARE COURT 1-203","INDIANAPOLIS","IN",46205,39.8263188110001,-86.1113039969999,27,"3103 THOMPKINS SQUARE COURT 1-203, INDIANAPOLIS, IN, 46205","Match","Exact","3103 THOMPKINS SQUARE CT, INDIANAPOLIS, IN, 46205",640835420,"R"
491028,"3103 THUNDERBIRD","HAYS","KS",67601,NA,NA,28,"3103 THUNDERBIRD, HAYS, KS, 67601","Tie",NA,NA,NA,NA
491029,"3103 US HIGHWAY 70 WEST","EFLAND","NC",27243,36.081435184,-79.161092399,29,"3103 US HIGHWAY 70 WEST, EFLAND, NC, 27243","Match","Non_Exact","3103 US HWY 70, EFLAND, NC, 27243",624448904,"L"
491030,"3103 VALLETTE ST","BELLINGHAM","WA",98225,48.7712256950001,-122.483152141,30,"3103 VALLETTE ST, BELLINGHAM, WA, 98225","Match","Exact","3103 VALLETTE ST, BELLINGHAM, WA, 98225",183771544,"L"
491031,"3103 VALLEY DRIVE","SIOUX CITY","IA",51104,42.523540391,-96.415897591,31,"3103 VALLEY DRIVE, SIOUX CITY, IA, 51104","Match","Exact","3103 VALLEY DR, SIOUX CITY, IA, 51104",93420449,"L"
491032,"3103 VIA SOMBRA","CARLSBAD","CA",92010,33.1732545420001,-117.317479358,32,"3103 VIA SOMBRA, CARLSBAD, CA, 92010","Match","Exact","3103 VIA SOMBRA, CARLSBAD, CA, 92010",195290975,"R"
491033,"3103 WEEPING CHERRY DR","CHAMPAIGN","IL",61822,40.0748101190001,-88.288658413,33,"3103 WEEPING CHERRY DR, CHAMPAIGN, IL, 61822","Match","Exact","3103 WEEPING CHERRY DR, CHAMPAIGN, IL, 61822",8831979,"L"
491034,"3103 WEST NORTHSIDE DRIVE","JACKSON","MS",39213,32.3560129540001,-90.228856853,34,"3103 WEST NORTHSIDE DRIVE, JACKSON, MS, 39213","Match","Exact","3103 W NORTHSIDE DR, JACKSON, MS, 39213",649481875,"R"
491035,"3103 WESTVIEW RD SW","WILLMAR","MN",56201,45.142081477,-95.08538678,35,"3103 WESTVIEW RD SW, WILLMAR, MN, 56201","Match","Non_Exact","3103 WESTVIEW RD NW, WILLMAR, MN, 56201",608804247,"R"
491036,"3103 WILLIAMSBURG RD","CLARKSVILLE","TN",37043,36.5196274890001,-87.2225659819999,36,"3103 WILLIAMSBURG RD, CLARKSVILLE, TN, 37043","Match","Exact","3103 WILLIAMSBURG RD, CLARKSVILLE, TN, 37043",31828270,"R"
491037,"3103 WINTERSMITH DR","ARLINGTON","TX",76014,32.6942788630001,-97.070620331,37,"3103 WINTERSMITH DR, ARLINGTON, TX, 76014","Match","Exact","3103 WINTERSMITH DR, ARLINGTON, TX, 76014",101913820,"R"
491038,"3103 WOOD HAVEN STREET","PARAGOULD","AR",72450,36.0136507670001,-90.527326059,38,"3103 WOOD HAVEN STREET, PARAGOULD, AR, 72450","Match","Exact","3103 WOOD HAVEN ST, PARAGOULD, AR, 72450",47065758,"L"
491039,"3103 YORICH LANE","ORLANDO","FL",32822,28.50777491,-81.280115467,39,"3103 YORICH LANE, ORLANDO, FL, 32822","Match","Non_Exact","3103 YORYCH LN, ORLANDO, FL, 32822",94295202,"L"
491040,"31030 COVEY ROAD","LEONIDAS","MI",49066,41.999400961,-85.350885131,40,"31030 COVEY ROAD, LEONIDAS, MI, 49066","Match","Exact","31030 COVEY RD, LEONIDAS, MI, 49066",15315925,"L"
491041,"31030 KEENELAND DR","FAIR OAKS RANCH","TX",78015,29.756079072,-98.651327752,41,"31030 KEENELAND DR, FAIR OAKS RANCH, TX, 78015","Match","Exact","31030 KEENELAND DR, FAIR OAKS RANCH, TX, 78015",102770367,"L"
491042,"31031 BERRYHILL","FARMINGTON HILLS","MI",48331,42.5237870770001,-83.403220115,42,"31031 BERRYHILL, FARMINGTON HILLS, MI, 48331","Match","Non_Exact","31031 BERRYHILL ST, FARMINGTON HILLS, MI, 48331",69775144,"L"
491043,"31031 SURFBIRD WAY","MILLSBORO","DE",19966,38.6188486560001,-75.184939212,43,"31031 SURFBIRD WAY, MILLSBORO, DE, 19966","Match","Exact","31031 SURFBIRD WAY, MILLSBORO, DE, 19966",648963915,"R"
491044,"31033 BUTTERMILK CT","EVERGREEN","CO",80439,39.684526792,-105.353178855,44,"31033 BUTTERMILK CT, EVERGREEN, CO, 80439","Match","Exact","31033 BUTTERMILK CT, EVERGREEN, CO, 80439",177388180,"L"
491045,"31035 AUTUMN LAKE DRIVE","WALKER","LA",70785,30.518829801,-90.866197958,45,"31035 AUTUMN LAKE DRIVE, WALKER, LA, 70785","Match","Exact","31035 AUTUMN LAKE DR, WALKER, LA, 70785",627292319,"L"
491046,"31035 MASENA DR","WESLEY CHAPEL","FL",33545,28.2563726490001,-82.302693155,46,"31035 MASENA DR, WESLEY CHAPEL, FL, 33545","Match","Exact","31035 MASENA DR, WESLEY CHAPEL, FL, 33545",634076021,"R"
491047,"31035 NICE AVE","MENTONE","CA",92359,34.0664009830001,-117.127107564,47,"31035 NICE AVE, MENTONE, CA, 92359","Match","Exact","31035 NICE AVE, MENTONE, CA, 92359",144716430,"R"
491048,"31035 NICE AVE","PERKINS","CA",92359,34.0664009830001,-117.127107564,48,"31035 NICE AVE, PERKINS, CA, 92359","Match","Non_Exact","31035 NICE AVE, MENTONE, CA, 92359",144716430,"R"
491049,"31035 SE CURRIN","ESTACADA","OR",97023,45.298995086,-122.301767459,49,"31035 SE CURRIN, ESTACADA, OR, 97023","Match","Non_Exact","31035 SE CURRIN RD, ESTACADA, OR, 97023",157972664,"L"
491050,"31036 NE 116TH ST","CARNATION","WA",98014,47.701194904,-121.924309074,50,"31036 NE 116TH ST, CARNATION, WA, 98014","Match","Exact","31036 NE 116TH ST, CARNATION, WA, 98014",648691470,"L"
491051,"31037 S TOWER RD","GOETZVILLE","MI",49736,46.056171303,-84.1131539629999,51,"31037 S TOWER RD, GOETZVILLE, MI, 49736","Match","Exact","31037 S TOWER RD, GOETZVILLE, MI, 49736",130558860,"R"
491052,"31039 N 45 ST","CAVE CREEK","AZ",85331,33.767823433,-111.984393784,52,"31039 N 45 ST, CAVE CREEK, AZ, 85331","Match","Exact","31039 N 45TH ST, CAVE CREEK, AZ, 85331",128591152,"R"
491053,"3104 129TH AVE NE","BLAINE","MN",55449,45.2046509910001,-93.190680944,53,"3104 129TH AVE NE, BLAINE, MN, 55449","Match","Exact","3104 129TH AVE NE, BLAINE, MN, 55449",642699088,"R"
491054,"3104 2ND AVE S","GREAT FALLS","MT",59405,47.502853987,-111.253602462,54,"3104 2ND AVE S, GREAT FALLS, MT, 59405","Match","Exact","3104 2ND AVE S, GREAT FALLS, MT, 59405",202227463,"R"
491055,"3104 5TH ST E","WEST FARGO","ND",58078,46.8354386940001,-96.8899982949999,55,"3104 5TH ST E, WEST FARGO, ND, 58078","Match","Exact","3104 5TH ST E, WEST FARGO, ND, 58078",641584633,"R"
491056,"3104 AIRPORT ROAD","FENWICK","WV",26202,NA,NA,56,"3104 AIRPORT ROAD, FENWICK, WV, 26202","No_Match",NA,NA,NA,NA
491057,"3104 ALLISTER DRIVE","Pine Bluff","AR",71603,34.1983542780001,-92.050974818,57,"3104 ALLISTER DRIVE, Pine Bluff, AR, 71603","Match","Exact","3104 ALLISTER DR, PINE BLUFF, AR, 71603",2553260,"R"
491058,"3104 ALLISTER","PINE BLUFF","AR",71603,34.1983542780001,-92.050974818,58,"3104 ALLISTER, PINE BLUFF, AR, 71603","Match","Non_Exact","3104 ALLISTER DR, PINE BLUFF, AR, 71603",2553260,"R"
491059,"3104 AMARILLO","EL PASO","TX",79936,31.784130115,-106.311838408,59,"3104 AMARILLO, EL PASO, TX, 79936","Match","Non_Exact","3104 AMARILLO ST, EL PASO, TX, 79936",189348946,"R"
491060,"3104 AMHERST ST","HOUSTON","TX",77005,29.7158904890001,-95.426197838,60,"3104 AMHERST ST, HOUSTON, TX, 77005","Match","Exact","3104 AMHERST ST, HOUSTON, TX, 77005",96063477,"R"
491061,"3104 AUDUBON BLVD","CLEVELAND","OH",44104,41.4737917890001,-81.612911875,61,"3104 AUDUBON BLVD, CLEVELAND, OH, 44104","Match","Exact","3104 AUDUBON BLVD, CLEVELAND, OH, 44104",61115140,"R"
491062,"3104 AVALON STREET","PITTSBURGH","PA",15219,40.4485568100001,-79.961884261,62,"3104 AVALON STREET, PITTSBURGH, PA, 15219","Match","Exact","3104 AVALON ST, PITTSBURGH, PA, 15219",51642699,"R"
491063,"3104 BARCROFT DR","UPPER MARLBORO","MD",20774,38.9318992440001,-76.8457416749999,63,"3104 BARCROFT DR, UPPER MARLBORO, MD, 20774","Match","Exact","3104 BARCROFT DR, UPPER MARLBORO, MD, 20774",635474460,"R"
491064,"3104 BARLOW ST","MONROE","LA",71201,32.515310878,-92.081767565,64,"3104 BARLOW ST, MONROE, LA, 71201","Match","Exact","3104 BARLOW ST, MONROE, LA, 71201",161086739,"R"
491065,"3104 BAYWOOD COURT","CONYERS","GA",30123,NA,NA,65,"3104 BAYWOOD COURT, CONYERS, GA, 30123","No_Match",NA,NA,NA,NA
491066,"3104 BEACHCOMBER DR","EL PASO","TX",79936,31.784018803,-106.316510887,66,"3104 BEACHCOMBER DR, EL PASO, TX, 79936","Match","Exact","3104 BEACHCOMBER DR, EL PASO, TX, 79936",189374188,"R"
491067,"3104 BECKHAM PLACE","FAYETTEVILLE","NC",28304,35.0421590380001,-78.9309152439999,67,"3104 BECKHAM PLACE, FAYETTEVILLE, NC, 28304","Match","Exact","3104 BECKHAM PL, FAYETTEVILLE, NC, 28304",64199607,"L"
491068,"3104 BECKHAM PLACE","FAYETTEVILLE","ND",28304,NA,NA,68,"3104 BECKHAM PLACE, FAYETTEVILLE, ND, 28304","No_Match",NA,NA,NA,NA
491069,"3104 BECKHAMM PLACE","FAYETTEVILLE","NC",28304,35.0421590380001,-78.9309152439999,69,"3104 BECKHAMM PLACE, FAYETTEVILLE, NC, 28304","Match","Non_Exact","3104 BECKHAM PL, FAYETTEVILLE, NC, 28304",64199607,"L"
491070,"3104 BEETHOVEN WAY","SILVER SPRING","MD",20904,39.068407865,-76.9454264139999,70,"3104 BEETHOVEN WAY, SILVER SPRING, MD, 20904","Match","Exact","3104 BEETHOVEN WAY, SILVER SPRING, MD, 20904",62074396,"R"
491071,"3104 BEND OF THE RIVER ROAD","NASH","NC",27822,35.858814765,-77.958766622,71,"3104 BEND OF THE RIVER ROAD, NASH, NC, 27822","Match","Non_Exact","3104 BEND OF THE RIVER RD, ELM CITY, NC, 27822",90399349,"L"
491072,"3104 BERRYBUSH COURT","CHARLOTTE","NC",28269,35.285999469,-80.813990283,72,"3104 BERRYBUSH COURT, CHARLOTTE, NC, 28269","Match","Exact","3104 BERRYBUSH CT, CHARLOTTE, NC, 28269",70478460,"L"
491073,"3104 BIRDWOOD CIRCLE","AUSTIN","TX",78704,30.2374173010001,-97.771056684,73,"3104 BIRDWOOD CIRCLE, AUSTIN, TX, 78704","Match","Exact","3104 BIRDWOOD CIR, AUSTIN, TX, 78704",63943956,"R"
491074,"3104 BLACKFORD PKWY","LEXINGTON","KY",40509,38.0219469300001,-84.39379717,74,"3104 BLACKFORD PKWY, LEXINGTON, KY, 40509","Match","Exact","3104 BLACKFORD PKWY, LEXINGTON, KY, 40509",638661113,"R"
491075,"3104 BLUE WILLOW WAY","GREENVILLE","NC",27893,35.5830901790001,-77.410512732,75,"3104 BLUE WILLOW WAY, GREENVILLE, NC, 27893","Match","Non_Exact","3104 BLUEWILLOW WAY, GREENVILLE, NC, 27834",80029558,"L"
491076,"3104 BONNYBROOK DR S","LAKELAND","FL",33811,27.971556875,-82.007991616,76,"3104 BONNYBROOK DR S, LAKELAND, FL, 33811","Match","Exact","3104 BONNYBROOK DR S, LAKELAND, FL, 33811",104864629,"R"
491077,"3104 BRAEPARK  COURT","DICKINSON","TX",77539,29.4606017740001,-95.0918669869999,77,"3104 BRAEPARK  COURT, DICKINSON, TX, 77539","Match","Non_Exact","3104 BRAEPARK LN, DICKINSON, TX, 77539",614176236,"L"
491078,"3104 BROADWAY STREET","NEW ORLEANS","LA",70125,29.9577054650001,-90.1108787049999,78,"3104 BROADWAY STREET, NEW ORLEANS, LA, 70125","Match","Exact","3104 BROADWAY ST, NEW ORLEANS, LA, 70125",191732643,"L"
491079,"3104 BUENA VISTA DR","PLANO","TX",75025,33.084016725,-96.751726062,79,"3104 BUENA VISTA DR, PLANO, TX, 75025","Match","Exact","3104 BUENA VISTA DR, PLANO, TX, 75025",123533270,"L"
491080,"3104 BUTTERFLY WAY","DUMFRIES","VA",22026,38.5796482380001,-77.306947791,80,"3104 BUTTERFLY WAY, DUMFRIES, VA, 22026","Match","Exact","3104 BUTTERFLY WAY, DUMFRIES, VA, 22026",207144366,"L"
491081,"3104 CAMELBACK RD STE 2382","PHOENIX","AZ",85016,33.5099227270001,-112.015596265,81,"3104 CAMELBACK RD STE 2382, PHOENIX, AZ, 85016","Match","Non_Exact","3104 E CAMELBACK RD, PHOENIX, AZ, 85016",633219625,"L"
491082,"3104 CANDLEBROOK DR","WYLIE","TX",75098,33.016649252,-96.588223467,82,"3104 CANDLEBROOK DR, WYLIE, TX, 75098","Match","Exact","3104 CANDLEBROOK DR, WYLIE, TX, 75098",123562081,"R"
491083,"3104 CASTLETON COURT","OAKTON","VA",22124,38.8773734850001,-77.3097710119999,83,"3104 CASTLETON COURT, OAKTON, VA, 22124","Match","Exact","3104 CASTLETON CT, OAKTON, VA, 22124",215919353,"R"
491084,"3104 CLEMANS RD","CLARKSTON","WA",99403,46.364518896,-117.065849507,84,"3104 CLEMANS RD, CLARKSTON, WA, 99403","Match","Exact","3104 CLEMANS RD, CLARKSTON, WA, 99403",607258005,"L"
491085,"3104 COUNTY ROAD 61","MIDLAND CITY","AL",36350,31.4168781440001,-85.494847157,85,"3104 COUNTY ROAD 61, MIDLAND CITY, AL, 36350","Match","Exact","3104 CO RD 61, MIDLAND CITY, AL, 36350",639014163,"L"
491086,"3104 COUNTY ROAD 7520","LUBBOCK","TX",79423,NA,NA,86,"3104 COUNTY ROAD 7520, LUBBOCK, TX, 79423","No_Match",NA,NA,NA,NA
491087,"3104 CR 4405","COMMERCE","TX",75428,33.225147943,-95.970331712,87,"3104 CR 4405, COMMERCE, TX, 75428","Match","Exact","3104 CO RD 4405, COMMERCE, TX, 75428",42858606,"L"
491088,"3104 CROFT DRIVE","ST. ANTHONY","MN",55418,45.0250091440001,-93.210264497,88,"3104 CROFT DRIVE, ST. ANTHONY, MN, 55418","Match","Exact","3104 CROFT DR, SAINT ANTHONY, MN, 55418",43637782,"L"
491089,"3104 CUNNINGHAM LANE","DOUGLASVILLE","GA",30135,33.7126520030001,-84.640429346,89,"3104 CUNNINGHAM LANE, DOUGLASVILLE, GA, 30135","Match","Exact","3104 CUNNINGHAM LN, DOUGLASVILLE, GA, 30135",618475076,"L"
491090,"3104 CUNNINGHAM LN","DOUGLASVILLE","GA",30135,33.7126520030001,-84.640429346,90,"3104 CUNNINGHAM LN, DOUGLASVILLE, GA, 30135","Match","Exact","3104 CUNNINGHAM LN, DOUGLASVILLE, GA, 30135",618475076,"L"
491091,"3104 DECKER FIELD LN","PEARLAND","TX",77584,29.553397838,-95.414205887,91,"3104 DECKER FIELD LN, PEARLAND, TX, 77584","Match","Exact","3104 DECKER FIELD LN, PEARLAND, TX, 77584",627491835,"L"
491092,"3104 DEVEREUX COURT","PLEASANTON","CA",94588,37.661763314,-121.908630184,92,"3104 DEVEREUX COURT, PLEASANTON, CA, 94588","Match","Exact","3104 DEVEREUX CT, PLEASANTON, CA, 94588",125062900,"R"
491093,"3104 DUNN HILL COURT","LEXINGTON","KY",40509,38.0188057710001,-84.401141302,93,"3104 DUNN HILL COURT, LEXINGTON, KY, 40509","Match","Non_Exact","3104 DUNHILL CT, LEXINGTON, KY, 40509",31951628,"R"
491094,"3104 DURANGO COURT","BURLINGTON","KY",41005,39.0644530770001,-84.726873217,94,"3104 DURANGO COURT, BURLINGTON, KY, 41005","Match","Exact","3104 DURANGO CT, BURLINGTON, KY, 41005",623834216,"R"
491095,"3104 DURBIN COURT","WILMINGTON","NC",28409,34.188201319,-77.8764505359999,95,"3104 DURBIN COURT, WILMINGTON, NC, 28409","Match","Exact","3104 DURBIN CT, WILMINGTON, NC, 28409",152776294,"R"
491096,"3104 E BROADWAY RD UNIT 330","MESA","AZ",85205,NA,NA,96,"3104 E BROADWAY RD UNIT 330, MESA, AZ, 85205","No_Match",NA,NA,NA,NA
491097,"3104 E CAMELBACK RD 2186","PHOENIX","AZ",85016,33.5099227270001,-112.015596265,97,"3104 E CAMELBACK RD 2186, PHOENIX, AZ, 85016","Match","Non_Exact","3104 E CAMELBACK RD, PHOENIX, AZ, 85016",633219625,"L"
491098,"3104 E CAMELBACK RD 302","PHOENIX","AZ",85016,33.5099227270001,-112.015596265,98,"3104 E CAMELBACK RD 302, PHOENIX, AZ, 85016","Match","Non_Exact","3104 E CAMELBACK RD, PHOENIX, AZ, 85016",633219625,"L"
491099,"3104 E CAMELBACK RD BOX 831","PHOENIX","AZ",85016,33.5099227270001,-112.015596265,99,"3104 E CAMELBACK RD BOX 831, PHOENIX, AZ, 85016","Match","Non_Exact","3104 E CAMELBACK RD, PHOENIX, AZ, 85016",633219625,"L"
491100,"3104 E CAMELBACK RD STE 416","PHOENIX","AZ",85016,33.5099227270001,-112.015596265,100,"3104 E CAMELBACK RD STE 416, PHOENIX, AZ, 85016","Match","Non_Exact","3104 E CAMELBACK RD, PHOENIX, AZ, 85016",633219625,"L"
491101,"3104 E CAMELBACK RD","PHOENIX","AZ",85016,33.5099227270001,-112.015596265,101,"3104 E CAMELBACK RD, PHOENIX, AZ, 85016","Match","Exact","3104 E CAMELBACK RD, PHOENIX, AZ, 85016",633219625,"L"
491102,"3104 E CAMELBACK ROAD NUMBER 1172","PHOENIX","AZ",85016,33.5099227270001,-112.015596265,102,"3104 E CAMELBACK ROAD NUMBER 1172, PHOENIX, AZ, 85016","Match","Non_Exact","3104 E CAMELBACK RD, PHOENIX, AZ, 85016",633219625,"L"
491103,"3104 E CAMELBACK ROAD STE 2425","PHOENIX","AZ",85016,33.5099227270001,-112.015596265,103,"3104 E CAMELBACK ROAD STE 2425, PHOENIX, AZ, 85016","Match","Non_Exact","3104 E CAMELBACK RD, PHOENIX, AZ, 85016",633219625,"L"
491104,"3104 E CHARTER OAK ROAD","PHOENIX","AZ",85032,33.599054542,-112.015212068,104,"3104 E CHARTER OAK ROAD, PHOENIX, AZ, 85032","Match","Exact","3104 E CHARTER OAK RD, PHOENIX, AZ, 85032",128185961,"L"
491105,"3104 EDWARD HOFFMAN DR APT 1","CHAMPAIGN","IL",61822,40.1264343140001,-88.297578559,105,"3104 EDWARD HOFFMAN DR APT 1, CHAMPAIGN, IL, 61822","Match","Exact","3104 EDWARD HOFFMAN DR, CHAMPAIGN, IL, 61822",640191400,"R"
491106,"3104 EDWARD STREET NE","SAINT ANTHONY","MN",55418,45.024391918,-93.2243869929999,106,"3104 EDWARD STREET NE, SAINT ANTHONY, MN, 55418","Match","Exact","3104 EDWARD ST NE, SAINT ANTHONY, MN, 55418",43836192,"L"
491107,"3104 EGGEMAN RD","FORT WAYNE","IN",46814,41.0551669160001,-85.293833686,107,"3104 EGGEMAN RD, FORT WAYNE, IN, 46814","Match","Exact","3104 EGGEMAN RD, FORT WAYNE, IN, 46814",6411150,"R"
491108,"3104 EL SEGUNDO BLVD APT 7","LYNWOOD","CA",90262,33.916853695,-118.217186838,108,"3104 EL SEGUNDO BLVD APT 7, LYNWOOD, CA, 90262","Match","Non_Exact","3104 E EL SEGUNDO BLVD, LYNWOOD, CA, 90262",141678157,"R"
491109,"3104 FAIRFIELD","AMARILLO","TX",79103,NA,NA,109,"3104 FAIRFIELD, AMARILLO, TX, 79103","No_Match",NA,NA,NA,NA
491110,"3104 FAIRMOUNT AVENUE","ATLANTIC CITY","NJ",8401,39.3564681510001,-74.4509481969999,110,"3104 FAIRMOUNT AVENUE, ATLANTIC CITY, NJ, 8401","Match","Exact","3104 FAIRMOUNT AVE, ATLANTIC CITY, NJ, 08401",202489190,"L"
491111,"3104 FILBERT ST UNIT A","OAKLAND","CA",94608,37.822207044,-122.278137379,111,"3104 FILBERT ST UNIT A, OAKLAND, CA, 94608","Match","Exact","3104 FILBERT ST, OAKLAND, CA, 94608",124996349,"R"
491112,"3104 FLORENCE CT","SAN JOSE","CA",95127,37.363344592,-121.825198512,112,"3104 FLORENCE CT, SAN JOSE, CA, 95127","Match","Exact","3104 FLORENCE CT, SAN JOSE, CA, 95127",122912955,"R"
491113,"3104 FOREST DRIVE","ALTON","IL",62002,38.8889860090001,-90.13575301,113,"3104 FOREST DRIVE, ALTON, IL, 62002","Match","Exact","3104 FOREST DR, ALTON, IL, 62002",107680821,"L"
491114,"3104 FOX TROT","COLUMBIA","MO",65202,38.9831478070001,-92.3394296989999,114,"3104 FOX TROT, COLUMBIA, MO, 65202","Match","Non_Exact","3104 FOX TROT DR, COLUMBIA, MO, 65202",23492901,"R"
491115,"3104 GARDNER BLVD","JEFFERSONVILLE","IN",47130,38.33011573,-85.715881505,115,"3104 GARDNER BLVD, JEFFERSONVILLE, IN, 47130","Match","Exact","3104 GARDNER BLVD, JEFFERSONVILLE, IN, 47130",64919802,"L"
491116,"3104 GREEN ACRE LANE","LANCASTER","TX",75146,32.547555973,-96.769352833,116,"3104 GREEN ACRE LANE, LANCASTER, TX, 75146","Match","Exact","3104 GREEN ACRE LN, LANCASTER, TX, 75146",103184634,"R"
491117,"3104 GREENHILL DRIVE","HUNTSVILLE","AL",35810,34.7679000690001,-86.608271895,117,"3104 GREENHILL DRIVE, HUNTSVILLE, AL, 35810","Match","Exact","3104 GREENHILL DR, HUNTSVILLE, AL, 35810",58115627,"R"
491118,"3104 HAMILTON COVE","BENTON","CO",72015,NA,NA,118,"3104 HAMILTON COVE, BENTON, CO, 72015","No_Match",NA,NA,NA,NA
491119,"3104 HASCALL STREET","OMAHA","NE",68105,41.228567024,-95.9592376369999,119,"3104 HASCALL STREET, OMAHA, NE, 68105","Match","Exact","3104 HASCALL ST, OMAHA, NE, 68105",117010112,"R"
491120,"3104 HEMLOCK HILLS LANE","APEX","NC",27539,35.692830735,-78.7475311169999,120,"3104 HEMLOCK HILLS LANE, APEX, NC, 27539","Match","Exact","3104 HEMLOCK HILLS LN, APEX, NC, 27539",72665190,"R"
491121,"3104 HIGBEE COURT","MODESTO","CA",95350,37.6837844340001,-121.016363424,121,"3104 HIGBEE COURT, MODESTO, CA, 95350","Match","Exact","3104 HIGBEE CT, MODESTO, CA, 95350",102599900,"R"
491122,"3104 HIGBEE CT","MODESTO","CA",95350,37.6837844340001,-121.016363424,122,"3104 HIGBEE CT, MODESTO, CA, 95350","Match","Exact","3104 HIGBEE CT, MODESTO, CA, 95350",102599900,"R"
491123,"3104 JARRARD ST","HOUSTON","TX",77005,29.7166041040001,-95.426205698,123,"3104 JARRARD ST, HOUSTON, TX, 77005","Match","Exact","3104 JARRARD ST, HOUSTON, TX, 77005",96063476,"R"
491124,"3104 JEANNE MARIE CT","AUSTIN","TX",78745,30.2007632670001,-97.829438399,124,"3104 JEANNE MARIE CT, AUSTIN, TX, 78745","Match","Exact","3104 JEANNE MARIE CT, AUSTIN, TX, 78745",63939872,"R"
491125,"3104 JEFFERSON PL","BELLINGHAM","MA",2019,42.1032875430001,-71.470380674,125,"3104 JEFFERSON PL, BELLINGHAM, MA, 2019","Match","Exact","3104 JEFFERSON PL, BELLINGHAM, MA, 02019",614696715,"L"
491126,"3104 JOHN WILLIS ROAD","NEW BERN","NC",28562,35.0328380510001,-77.019320594,126,"3104 JOHN WILLIS ROAD, NEW BERN, NC, 28562","Match","Exact","3104 JOHN WILLIS RD, NEW BERN, NC, 28562",617976050,"L"
491127,"3104 KELSEY PLAZA","KANNAPOLIS","NC",28081,35.4612449850001,-80.656316611,127,"3104 KELSEY PLAZA, KANNAPOLIS, NC, 28081","Match","Exact","3104 KELSEY PLZ, KANNAPOLIS, NC, 28081",618563905,"L"
491128,"3104 LADOVA WAY","SPRINGDALE","MD",20774,NA,NA,128,"3104 LADOVA WAY, SPRINGDALE, MD, 20774","No_Match",NA,NA,NA,NA
491129,"3104 LAKEVIEW DRIVE","GRAPEVINE","TX",76051,32.9704159840001,-97.103557644,129,"3104 LAKEVIEW DRIVE, GRAPEVINE, TX, 76051","Match","Exact","3104 LAKEVIEW DR, GRAPEVINE, TX, 76051",102105590,"L"
491130,"3104 LEEWARD DRIVE","HAVERSTRAW","NY",10927,41.189823862,-73.957693983,130,"3104 LEEWARD DRIVE, HAVERSTRAW, NY, 10927","Match","Exact","3104 LEEWARD DR, HAVERSTRAW, NY, 10927",637725379,"R"
491131,"3104 LEON AVE","COLUMBUS","OH",43219,40.0159055880001,-82.927244491,131,"3104 LEON AVE, COLUMBUS, OH, 43219","Match","Exact","3104 LEON AVE, COLUMBUS, OH, 43219",135711431,"L"
491132,"3104 LORD BALTIMORE DRIVE","BALTIMORE","MD",21244,39.3385189430001,-76.7513125849999,132,"3104 LORD BALTIMORE DRIVE, BALTIMORE, MD, 21244","Match","Exact","3104 LORD BALTIMORE DR, BALTIMORE, MD, 21244",191507754,"L"
491133,"3104 MARY ST / APT B","PITTSBURGH","PA",15203,40.421950286,-79.9643506319999,133,"3104 MARY ST / APT B, PITTSBURGH, PA, 15203","Match","Exact","3104 MARY ST, PITTSBURGH, PA, 15203",647522115,"R"
491134,"3104 MISTY VIEW TRL","LILBURN","GA",30047,33.8829114120001,-84.0636015009999,134,"3104 MISTY VIEW TRL, LILBURN, GA, 30047","Match","Exact","3104 MISTY VIEW TRL, LILBURN, GA, 30047",636141234,"R"
491135,"3104 MONTANA DEL SOL","SAN CLEMENTE","CA",92673,33.4628579440001,-117.617744402,135,"3104 MONTANA DEL SOL, SAN CLEMENTE, CA, 92673","Match","Exact","3104 MONTANA DEL SOL, SAN CLEMENTE, CA, 92673",609047709,"L"
491136,"3104 N AREMINA AVENUE  SUITE 2","TAMPA","FL",33607,NA,NA,136,"3104 N AREMINA AVENUE  SUITE 2, TAMPA, FL, 33607","No_Match",NA,NA,NA,NA
491137,"3104 N KENNETH AVE","CHICAGO","IL",60641,41.9372858450001,-87.7382155769999,137,"3104 N KENNETH AVE, CHICAGO, IL, 60641","Match","Exact","3104 N KENNETH AVE, CHICAGO, IL, 60641",605193857,"L"
491138,"3104 N NATOMA","CHICAGO","IL",60634,41.9365592820001,-87.7919871679999,138,"3104 N NATOMA, CHICAGO, IL, 60634","Match","Non_Exact","3104 N NATOMA AVE, CHICAGO, IL, 60634",605162952,"L"
491139,"3104 NE 49TH AVENUE","PORTLAND","OR",97213,45.545557278,-122.612680059,139,"3104 NE 49TH AVENUE, PORTLAND, OR, 97213","Match","Exact","3104 NE 49TH AVE, PORTLAND, OR, 97213",157511185,"R"
491140,"3104 NORTH ARMENIA AVE STE 2","TAMPA","FL",33607,27.967525666,-82.484875914,140,"3104 NORTH ARMENIA AVE STE 2, TAMPA, FL, 33607","Match","Exact","3104 N ARMENIA AVE, TAMPA, FL, 33607",104517071,"L"
491141,"3104 NORTH ARMENIA AVE SUITE 2","TAMPA","FL",33607,27.967525666,-82.484875914,141,"3104 NORTH ARMENIA AVE SUITE 2, TAMPA, FL, 33607","Match","Exact","3104 N ARMENIA AVE, TAMPA, FL, 33607",104517071,"L"
491142,"3104 NW 171ST TER","EDMOND","OK",73012,35.646359659,-97.571577248,142,"3104 NW 171ST TER, EDMOND, OK, 73012","Match","Exact","3104 NW 171ST TER, EDMOND, OK, 73012",606070824,"L"
491143,"3104 NW 19TH ST APT 203","LAUDERHILL","FL",33311,26.1507963810001,-80.187349377,143,"3104 NW 19TH ST APT 203, LAUDERHILL, FL, 33311","Match","Non_Exact","3104 NW 19TH ST, LAUDERHILL, FL, 33311",635618286,"R"
491144,"3104 OCEAN DRIVE","AUGUSTA","GA",30909,33.463894791,-82.110496655,144,"3104 OCEAN DRIVE, AUGUSTA, GA, 30909","Match","Exact","3104 OCEAN DR, AUGUSTA, GA, 30909",55654277,"L"
491145,"3104 OCTAVIA PLACE","ATLANTA","GA",30340,33.8797632500001,-84.2320241309999,145,"3104 OCTAVIA PLACE, ATLANTA, GA, 30340","Match","Exact","3104 OCTAVIA PL, ATLANTA, GA, 30340",23361664,"L"
491146,"3104 OLIVER DRIVE","GREENSBORO","NC",27406,NA,NA,146,"3104 OLIVER DRIVE, GREENSBORO, NC, 27406","No_Match",NA,NA,NA,NA
491147,"3104 PAOLO DRIVE","GRAND PRAIRIE","TX",75052,32.6295911450001,-97.064041861,147,"3104 PAOLO DRIVE, GRAND PRAIRIE, TX, 75052","Match","Exact","3104 PAOLO DR, GRAND PRAIRIE, TX, 75052",102122013,"R"
491148,"3104 PARLIAMENT ST","IRVING","TX",75062,32.8406292270001,-96.988701635,148,"3104 PARLIAMENT ST, IRVING, TX, 75062","Match","Exact","3104 PARLIAMENT ST, IRVING, TX, 75062",102886519,"L"
491149,"3104 PECAN CREST COVE","ROUND ROCK","TX",78681,30.5326988570001,-97.725675812,149,"3104 PECAN CREST COVE, ROUND ROCK, TX, 78681","Match","Exact","3104 PECAN CREST COVE, ROUND ROCK, TX, 78681",126474881,"R"
491150,"3104 PENINSULA DR","JAMESTOWN","NC",27282,36.038130342,-79.9279679959999,150,"3104 PENINSULA DR, JAMESTOWN, NC, 27282","Match","Exact","3104 PENINSULA DR, JAMESTOWN, NC, 27282",131081238,"L"
491151,"3104 PEPPERWOOD COURT","FULLERTON","CA",92835,NA,NA,151,"3104 PEPPERWOOD COURT, FULLERTON, CA, 92835","No_Match",NA,NA,NA,NA
491152,"3104 POPE MANOR CIRCLE","MARIETTA","GA",30062,34.013727046,-84.459331707,152,"3104 POPE MANOR CIRCLE, MARIETTA, GA, 30062","Match","Exact","3104 POPE MANOR CIR, MARIETTA, GA, 30062",618318792,"L"
491153,"3104 POST OAK CT","WINTER HAVEN","FL",33884,28.00460701,-81.6479388779999,153,"3104 POST OAK CT, WINTER HAVEN, FL, 33884","Match","Exact","3104 POST OAK CT, WINTER HAVEN, FL, 33884",104829582,"R"
491154,"3104 QUAIL COURT","MCALLEN","TX",78504,26.267747146,-98.245360884,154,"3104 QUAIL COURT, MCALLEN, TX, 78504","Match","Exact","3104 QUAIL CT, MCALLEN, TX, 78504",71493212,"R"
491155,"3104 QUARTON","BLOOMFIELD HILLS","MI",48304,42.5593929500001,-83.25455719,155,"3104 QUARTON, BLOOMFIELD HILLS, MI, 48304","Match","Non_Exact","3104 QUARTON RD, BLOOMFIELD HILLS, MI, 48304",639237697,"R"
491156,"3104 QUEEN ANNE CT","ATLANTA","GA",30350,34.007442698,-84.338017223,156,"3104 QUEEN ANNE CT, ATLANTA, GA, 30350","Match","Exact","3104 QUEEN ANNE CT, ATLANTA, GA, 30350",17364561,"L"
491157,"3104 QUENBY","HOUSTON","TX",77005,29.721636833,-95.426290476,157,"3104 QUENBY, HOUSTON, TX, 77005","Match","Non_Exact","3104 QUENBY ST, HOUSTON, TX, 77005",96063479,"R"
491158,"3104 REID BROOK LANE","CHARLOTTE","NC",28208,35.2448480910001,-80.9152132739999,158,"3104 REID BROOK LANE, CHARLOTTE, NC, 28208","Match","Exact","3104 REID BROOK LN, CHARLOTTE, NC, 28208",70593571,"R"
491159,"3104 RIVER BLUFFS CT","RICHMOND","VA",23223,37.57827415,-77.383908772,159,"3104 RIVER BLUFFS CT, RICHMOND, VA, 23223","Match","Exact","3104 RIVER BLUFFS CT, RICHMOND, VA, 23223",106664699,"L"
491160,"3104 RYAN DRIVE","TAYLORSVILLE","UT",84129,40.6491204540001,-111.96558646,160,"3104 RYAN DRIVE, TAYLORSVILLE, UT, 84129","Match","Non_Exact","3104 W RYAN DR, TAYLORSVILLE, UT, 84129",636687640,"R"
491161,"3104 RYAN JAY DRIVE APT 839","CHARLOTTE","NC",28269,35.316508637,-80.783817415,161,"3104 RYAN JAY DRIVE APT 839, CHARLOTTE, NC, 28269","Match","Exact","3104 RYAN JAY DR, CHARLOTTE, NC, 28269",70598832,"R"
491162,"3104 S 800 E","SALT LAKE CITY","UT",84106,40.70343884,-111.868333339,162,"3104 S 800 E, SALT LAKE CITY, UT, 84106","Match","Non_Exact","3104 S 800 E, SALT LAKE CITY, UT, 84106",176081041,"R"
491163,"3104 SACRAMENTO RD","PHELAN","CA",92329,34.4771427810001,-117.594953192,163,"3104 SACRAMENTO RD, PHELAN, CA, 92329","Match","Non_Exact","3104 SACRAMENTO RD, PHELAN, CA, 92371",144769156,"R"
491164,"3104 SACRAMENTO RD","PHELAN","CA",92371,34.4771427810001,-117.594953192,164,"3104 SACRAMENTO RD, PHELAN, CA, 92371","Match","Exact","3104 SACRAMENTO RD, PHELAN, CA, 92371",144769156,"R"
491165,"3104 SHADY LANE DRIVE","ANADARKO","OK",73005,35.0430896610001,-98.252908944,165,"3104 SHADY LANE DRIVE, ANADARKO, OK, 73005","Match","Exact","3104 SHADY LANE DR, ANADARKO, OK, 73005",92440454,"L"
491166,"3104 SILVER DOLLAR CT","PEARLAND","TX",77584,29.550573037,-95.348614364,166,"3104 SILVER DOLLAR CT, PEARLAND, TX, 77584","Match","Exact","3104 SILVER DOLLAR CT, PEARLAND, TX, 77584",116644063,"R"
491167,"3104 SLATE STREET","BATON ROUGE","LA",70802,30.460291506,-91.15740368,167,"3104 SLATE STREET, BATON ROUGE, LA, 70802","Match","Exact","3104 SLATE ST, BATON ROUGE, LA, 70802",92183735,"R"
491168,"3104 SPRING MILL RD","GREENSBORO","NC",27406,36.0221517690001,-79.75620348,168,"3104 SPRING MILL RD, GREENSBORO, NC, 27406","Match","Exact","3104 SPRING MILL RD, GREENSBORO, NC, 27406",131052809,"L"
491169,"3104 SPRINGDALE","SPRINGDALE","MD",20774,NA,NA,169,"3104 SPRINGDALE, SPRINGDALE, MD, 20774","No_Match",NA,NA,NA,NA
491170,"3104 SPRINGWATER COURT","KOKOMO","IN",46902,40.4313857550001,-86.11029538,170,"3104 SPRINGWATER COURT, KOKOMO, IN, 46902","Match","Exact","3104 SPRINGWATER CT, KOKOMO, IN, 46902",27272315,"R"
491171,"3104 SPRUCELEIGH LANE","SIOUX FALLS","SD",57105,43.5253301710001,-96.76454948,171,"3104 SPRUCELEIGH LANE, SIOUX FALLS, SD, 57105","Match","Non_Exact","3104 W SPRUCELEIGH LN, SIOUX FALLS, SD, 57105",35011696,"R"
491172,"3104 SW 105TH TERRACE","OKLAHOMA CITY","OK",73170,35.3625503550001,-97.569784141,172,"3104 SW 105TH TERRACE, OKLAHOMA CITY, OK, 73170","Match","Exact","3104 SW 105TH TER, OKLAHOMA CITY, OK, 73170",99929428,"R"
491173,"3104 SW WINDRIFT AVE 2","BENTONVILLE","AR",72713,36.337571332,-94.2472685719999,173,"3104 SW WINDRIFT AVE 2, BENTONVILLE, AR, 72713","Match","Non_Exact","3104 SW WINDRIFT AVE, BENTONVILLE, AR, 72713",601627681,"R"
491174,"3104 TAMARA CIRCLE","GRAWN","MI",49637,44.6452646450001,-85.704454497,174,"3104 TAMARA CIRCLE, GRAWN, MI, 49637","Match","Exact","3104 TAMARA CIR, GRAWN, MI, 49637",650600772,"R"
491175,"3104 TEAL","LOUISVILLE","KY",40213,38.208419936,-85.727545548,175,"3104 TEAL, LOUISVILLE, KY, 40213","Match","Non_Exact","3104 TEAL AVE, LOUISVILLE, KY, 40213",96871393,"R"
491176,"3104 TWIN LAKES DRIVE","PROSPER","TX",75078,33.264316335,-96.773513818,176,"3104 TWIN LAKES DRIVE, PROSPER, TX, 75078","Match","Exact","3104 TWIN LAKES DR, PROSPER, TX, 75078",210506697,"R"
491177,"3104 TYLER COURT","GLENARDEN","MD",20706,38.935569086,-76.872448398,177,"3104 TYLER COURT, GLENARDEN, MD, 20706","Match","Exact","3104 TYLER CT, GLENARDEN, MD, 20706",76309826,"L"
491178,"3104 VAIL AVENUE","REDONDO BEACH","CA",90278,33.882905269,-118.369953107,178,"3104 VAIL AVENUE, REDONDO BEACH, CA, 90278","Match","Exact","3104 VAIL AVE, REDONDO BEACH, CA, 90278",141662724,"R"
491179,"3104 VT RTE 100","DUXBURY","VT",5676,NA,NA,179,"3104 VT RTE 100, DUXBURY, VT, 5676","No_Match",NA,NA,NA,NA
491180,"3104 W 12TH STREET","JACKSONVILLE","FL",32254,30.351086045,-81.720957044,180,"3104 W 12TH STREET, JACKSONVILLE, FL, 32254","Match","Exact","3104 W 12TH ST, JACKSONVILLE, FL, 32254",83888860,"L"
491181,"3104 W BELLE PLAIN AVE 2","CHICAGO","IL",60618,NA,NA,181,"3104 W BELLE PLAIN AVE 2, CHICAGO, IL, 60618","No_Match",NA,NA,NA,NA
491182,"3104 W GRANT STREET","HOPEWELL","VA",23860,37.2983657560001,-77.3155178599999,182,"3104 W GRANT STREET, HOPEWELL, VA, 23860","Match","Exact","3104 W GRANT ST, HOPEWELL, VA, 23860",54155843,"L"
491183,"3104 W MARKHAM ST","LITTLE ROCK","AR",72205,34.750945804,-92.307644284,183,"3104 W MARKHAM ST, LITTLE ROCK, AR, 72205","Match","Exact","3104 W MARKHAM ST, LITTLE ROCK, AR, 72205",83508769,"R"
491184,"3104 W SCOTT STREET","SPRINGFIELD","MO",65802,37.220568632,-93.3393470459999,184,"3104 W SCOTT STREET, SPRINGFIELD, MO, 65802","Match","Exact","3104 W SCOTT ST, SPRINGFIELD, MO, 65802",76700135,"R"
491185,"3104 W WINDSOR RD","CHAMPAIGN","IL",61822,40.0839596860001,-88.296549568,185,"3104 W WINDSOR RD, CHAMPAIGN, IL, 61822","Match","Exact","3104 WINDSOR RD, CHAMPAIGN, IL, 61822",640636017,"R"
491186,"3104 WALNUT RUN","FORT WAYNE","IN",46814,41.0555863170001,-85.33024639,186,"3104 WALNUT RUN, FORT WAYNE, IN, 46814","Match","Exact","3104 WALNUT RUN, FORT WAYNE, IN, 46814",618149677,"R"
491187,"3104 WALPOLE","MEMPHIS","TN",38118,35.0349368190001,-89.959922376,187,"3104 WALPOLE, MEMPHIS, TN, 38118","Match","Non_Exact","3104 WALPOLE AVE, MEMPHIS, TN, 38118",72919479,"L"
491188,"3104 WATERLEAF AVE","BENTONVILLE","AR",72712,NA,NA,188,"3104 WATERLEAF AVE, BENTONVILLE, AR, 72712","No_Match",NA,NA,NA,NA
491189,"3104 WESTERN AVENUE - 506","SEATTLE","WA",98121,47.617853041,-122.356073493,189,"3104 WESTERN AVENUE - 506, SEATTLE, WA, 98121","Match","Exact","3104 WESTERN AVE, SEATTLE, WA, 98121",186990100,"R"
491190,"3104 WILD RUN ROAD","PENNSBURG","PA",18073,40.371900184,-75.53640068,190,"3104 WILD RUN ROAD, PENNSBURG, PA, 18073","Match","Exact","3104 WILD RUN RD, PENNSBURG, PA, 18073",135123583,"R"
491191,"3104 WINDWOOD FARMS DR","OAKTON","VA",22124,38.875810459,-77.2964999719999,191,"3104 WINDWOOD FARMS DR, OAKTON, VA, 22124","Match","Exact","3104 WINDWOOD FARMS DR, OAKTON, VA, 22124",76045469,"R"
491192,"3104 WINWOOD FARMS DR","OAKTON","VA",22124,38.875810459,-77.2964999719999,192,"3104 WINWOOD FARMS DR, OAKTON, VA, 22124","Match","Non_Exact","3104 WINDWOOD FARMS DR, OAKTON, VA, 22124",76045469,"R"
491193,"3104 WOODLAND TRAIL","AVON","OH",44011,41.445499268,-82.0646903159999,193,"3104 WOODLAND TRAIL, AVON, OH, 44011","Match","Exact","3104 WOODLAND TRL, AVON, OH, 44011",650199782,"R"
491194,"3104 XILINGOL DRIVE","INDIAN TRAIL","NC",28079,35.091916558,-80.6047419399999,194,"3104 XILINGOL DRIVE, INDIAN TRAIL, NC, 28079","Match","Exact","3104 XILINGOL DR, INDIAN TRAIL, NC, 28079",652068287,"R"
491195,"3104-1 SW DEERFIELD BLVD","BENTONVILLE","AR",72713,36.33833738,-94.247257926,195,"3104-1 SW DEERFIELD BLVD, BENTONVILLE, AR, 72713","Match","Exact","3104 SW DEERFIELD BLVD, BENTONVILLE, AR, 72713",601627679,"L"
491196,"31040 LUCERNE","FRANKLIN","MI",48025,42.515800858,-83.2931588979999,196,"31040 LUCERNE, FRANKLIN, MI, 48025","Match","Non_Exact","31040 LUCERNE DR, FRANKLIN, MI, 48025",69729728,"R"
491197,"31042 VERONA ST","FARMINGTON HILLS","MI",48331,42.5249641820001,-83.39343951,197,"31042 VERONA ST, FARMINGTON HILLS, MI, 48331","Match","Exact","31042 VERONA ST, FARMINGTON HILLS, MI, 48331",641241412,"R"
491198,"31044 PROUT COURT","WESLEY CHAPEL","FL",33543,28.173490171,-82.303334666,198,"31044 PROUT COURT, WESLEY CHAPEL, FL, 33543","Match","Exact","31044 PROUT CT, WESLEY CHAPEL, FL, 33543",635074440,"L"
491199,"31044 ROAD 400","COARSEGOLD","CA",93614,37.1990330470001,-119.800252676,199,"31044 ROAD 400, COARSEGOLD, CA, 93614","Match","Exact","31044 RD 400, COARSEGOLD, CA, 93614",102369900,"L"
491200,"31046 AL HWY 35","WOODVILLE","AL",35776,34.616266076,-86.2832776669999,200,"31046 AL HWY 35, WOODVILLE, AL, 35776","Match","Non_Exact","31046 STATE RTE 35, WOODVILLE, AL, 35776",58033000,"L"
491201,"31047 BIG BEAR DRIVE","EVERGREEN","CO",80439,39.6915757260001,-105.352519509,201,"31047 BIG BEAR DRIVE, EVERGREEN, CO, 80439","Match","Exact","31047 BIG BEAR DR, EVERGREEN, CO, 80439",640549586,"R"
491202,"31047 TWP RD 369","WALHONDING","OH",43843,40.2982691510001,-82.188018998,202,"31047 TWP RD 369, WALHONDING, OH, 43843","Match","Exact","31047 TWP RD 369, WALHONDING, OH, 43843",52116271,"L"
491203,"3105 108TH AVE","ALLEGAN","MI",49010,42.479165472,-85.846307616,203,"3105 108TH AVE, ALLEGAN, MI, 49010","Match","Exact","3105 108TH AVE, ALLEGAN, MI, 49010",636407802,"L"
491204,"3105 11TH AVENUE SOUTH","MINNEAPOLIS","MN",55407,44.9464454340001,-93.25882024,204,"3105 11TH AVENUE SOUTH, MINNEAPOLIS, MN, 55407","Match","Exact","3105 11TH AVE S, MINNEAPOLIS, MN, 55407",43634686,"L"
491205,"3105 14TH STREET SOUTH","ARLINGTON","VA",22204,38.8578513360001,-77.088157495,205,"3105 14TH STREET SOUTH, ARLINGTON, VA, 22204","Match","Exact","3105 14TH ST S, ARLINGTON, VA, 22204",76471567,"R"
491206,"3105 17TH RD S","ARLINGTON","VA",22204,38.8548412060001,-77.086965095,206,"3105 17TH RD S, ARLINGTON, VA, 22204","Match","Exact","3105 17TH RD S, ARLINGTON, VA, 22204",636651576,"R"
491207,"3105 4TH STREET","MARION","IA",52302,42.0526189080001,-91.605568327,207,"3105 4TH STREET, MARION, IA, 52302","Match","Exact","3105 4TH ST, MARION, IA, 52302",17046286,"R"
491208,"3105 7TH AVE NW","WILLMAR","MN",56201,45.1324451180001,-95.086874967,208,"3105 7TH AVE NW, WILLMAR, MN, 56201","Match","Exact","3105 7TH AVE NW, WILLMAR, MN, 56201",36725863,"L"
491209,"3105 8TH ST WEST","LEHIGH ACRES FL","FL",33971,26.620675109,-81.6788142359999,209,"3105 8TH ST WEST, LEHIGH ACRES FL, FL, 33971","Match","Non_Exact","3105 8TH ST W, LEHIGH ACRES, FL, 33971",118052513,"L"
491210,"3105 ACAPULCO WAY","EAST POINT","GA",30344,33.636965085,-84.490665926,210,"3105 ACAPULCO WAY, EAST POINT, GA, 30344","Match","Exact","3105 ACAPULCO WAY, EAST POINT, GA, 30344",17339116,"R"
491211,"3105 ADMIRALTY LANE","FOSTER CITY","CA",94404,37.560846403,-122.26807182,211,"3105 ADMIRALTY LANE, FOSTER CITY, CA, 94404","Match","Exact","3105 ADMIRALTY LN, FOSTER CITY, CA, 94404",192400332,"R"
491212,"3105 ADMIRALTY LN","FOSTER CITY","CA",94404,37.560846403,-122.26807182,212,"3105 ADMIRALTY LN, FOSTER CITY, CA, 94404","Match","Exact","3105 ADMIRALTY LN, FOSTER CITY, CA, 94404",192400332,"R"
491213,"3105 ALLENDALE STREET","PITTSBURGH","PA",15204,40.454454899,-80.060059509,213,"3105 ALLENDALE STREET, PITTSBURGH, PA, 15204","Match","Exact","3105 ALLENDALE ST, PITTSBURGH, PA, 15204",51622057,"L"
491214,"3105 ASHWOOD CT","RICHARDSON","TX",75082,32.991617779,-96.646028241,214,"3105 ASHWOOD CT, RICHARDSON, TX, 75082","Match","Exact","3105 ASHWOOD CT, RICHARDSON, TX, 75082",123553325,"L"
491215,"3105 BERO ROAD","HALETHORPE","MD",21227,39.238961789,-76.65352716,215,"3105 BERO ROAD, HALETHORPE, MD, 21227","Match","Exact","3105 BERO RD, HALETHORPE, MD, 21227",191486768,"L"
491216,"3105 BIRCH BROOK LANE","ABINGDON","MD",21009,39.4738742100001,-76.2872450789999,216,"3105 BIRCH BROOK LANE, ABINGDON, MD, 21009","Match","Exact","3105 BIRCH BROOK LN, ABINGDON, MD, 21009",191660898,"R"
491217,"3105 BIRCH ST","LINCOLNTON","NC",28092,35.4733915480001,-81.1830803249999,217,"3105 BIRCH ST, LINCOLNTON, NC, 28092","Match","Exact","3105 BIRCH ST, LINCOLNTON, NC, 28092",69535316,"L"
491218,"3105 BOLDMERE TRL","SMYRNA","GA",30080,33.878792554,-84.474688591,218,"3105 BOLDMERE TRL, SMYRNA, GA, 30080","Match","Exact","3105 BOLDMERE TRL, SMYRNA, GA, 30080",647793531,"R"
491219,"3105 BOND RULER CT","BOWIE","MD",20721,NA,NA,219,"3105 BOND RULER CT, BOWIE, MD, 20721","No_Match",NA,NA,NA,NA
491220,"3105 BRANCH","BELLS","TX",75414,NA,NA,220,"3105 BRANCH, BELLS, TX, 75414","No_Match",NA,NA,NA,NA
491221,"3105 BRANT STREET","KATY","TX",77493,29.81870437,-95.825156775,221,"3105 BRANT STREET, KATY, TX, 77493","Match","Exact","3105 BRANT ST, KATY, TX, 77493",96012391,"R"
491222,"3105 BRIDAL WREATH","DALLAS","TX",75233,32.6957555330001,-96.8712162,222,"3105 BRIDAL WREATH, DALLAS, TX, 75233","Match","Non_Exact","3105 BRIDAL WREATH LN, DALLAS, TX, 75233",102941341,"R"
491223,"3105 CANE MILL CT","ALBANY","GA",31721,31.5919963280001,-84.2255193679999,223,"3105 CANE MILL CT, ALBANY, GA, 31721","Match","Exact","3105 CANE MILL CT, ALBANY, GA, 31721",84323677,"R"
491224,"3105 CARUTH","DALLAS","TX",75225,32.8592565870001,-96.780600389,224,"3105 CARUTH, DALLAS, TX, 75225","Match","Non_Exact","3105 CARUTH BLVD, DALLAS, TX, 75225",102907183,"L"
491225,"3105 CASE STREET","PARAGOULD","AR",72450,36.0679100950001,-90.5271755909999,225,"3105 CASE STREET, PARAGOULD, AR, 72450","Match","Exact","3105 CASE ST, PARAGOULD, AR, 72450",47066775,"R"
491226,"3105 CASTLE ROCK LOOP","DISCOVERY BAY","CA",94505,37.916609167,-121.614253185,226,"3105 CASTLE ROCK LOOP, DISCOVERY BAY, CA, 94505","Match","Non_Exact","3105 CASTLEROCK LOOP, DISCOVERY BAY, CA, 94505",625587446,"L"
491227,"3105 CASTLEMAINE DRIVE","CHARLOTTE","NC",28269,35.320049226,-80.788956669,227,"3105 CASTLEMAINE DRIVE, CHARLOTTE, NC, 28269","Match","Exact","3105 CASTLEMAINE DR, CHARLOTTE, NC, 28269",70542375,"R"
491228,"3105 CHANDA LANE","MURFREESBORO","TN",37129,35.911904888,-86.415598528,228,"3105 CHANDA LANE, MURFREESBORO, TN, 37129","Match","Exact","3105 CHANDA LN, MURFREESBORO, TN, 37129",59040434,"R"
491229,"3105 CHELSEA LANE","MUSKOGEE","OK",74403,35.786775,-95.327026473,229,"3105 CHELSEA LANE, MUSKOGEE, OK, 74403","Match","Exact","3105 CHELSEA LN, MUSKOGEE, OK, 74403",623951593,"L"
491230,"3105 CHELSEA MEAD","FORT SMITH","AR",72908,35.285019113,-94.40332047,230,"3105 CHELSEA MEAD, FORT SMITH, AR, 72908","Match","Exact","3105 CHELSEA MEAD, FORT SMITH, AR, 72908",56118383,"L"
491231,"3105 CHURCHILL PLACE","LOUISVILLE","KY",40220,38.2138433820001,-85.626934445,231,"3105 CHURCHILL PLACE, LOUISVILLE, KY, 40220","Match","Exact","3105 CHURCHILL PL, LOUISVILLE, KY, 40220",96926683,"R"
491232,"3105 CLARENDON RD","BROOKLYN","NY",11226,40.6433204310001,-73.94768207,232,"3105 CLARENDON RD, BROOKLYN, NY, 11226","Match","Exact","3105 CLARENDON RD, BROOKLYN, NY, 11226",59081565,"L"
491233,"3105 CLEARY AVE  APT 11","METAIRIE","LA",70002,30.001687616,-90.172179167,233,"3105 CLEARY AVE  APT 11, METAIRIE, LA, 70002","Match","Exact","3105 CLEARY AVE, METAIRIE, LA, 70002",93500395,"R"
491234,"3105 COBBLESTONE BLVD","FAYETTEVILLE","GA",30215,33.4495905360001,-84.4351955659999,234,"3105 COBBLESTONE BLVD, FAYETTEVILLE, GA, 30215","Match","Exact","3105 COBBLESTONE BLVD, FAYETTEVILLE, GA, 30215",648217119,"R"
491235,"3105 COMLY RD APT A","PHILADELPHIA","PA",19154,40.092340081,-74.9871515139999,235,"3105 COMLY RD APT A, PHILADELPHIA, PA, 19154","Match","Exact","3105 COMLY RD, PHILADELPHIA, PA, 19154",131433537,"L"
491236,"3105 COUNTRY CLUB LANE","JEFFERSONVILLE","IN",47130,38.3136168720001,-85.736910146,236,"3105 COUNTRY CLUB LANE, JEFFERSONVILLE, IN, 47130","Match","Exact","3105 COUNTRY CLUB LN, JEFFERSONVILLE, IN, 47130",64888557,"L"
491237,"3105 COUNTRY KNOLL DR","SAINT CHARLES","MO",63303,38.7399947530001,-90.566059174,237,"3105 COUNTRY KNOLL DR, SAINT CHARLES, MO, 63303","Match","Exact","3105 COUNTRY KNOLL DR, SAINT CHARLES, MO, 63303",100030682,"R"
491238,"3105 COUNTY ROAD 81","ROSHARON","TX",77583,29.468193554,-95.427085679,238,"3105 COUNTY ROAD 81, ROSHARON, TX, 77583","Match","Exact","3105 CR 81, ROSHARON, TX, 77583",625089512,"L"
491239,"3105 CRAIGLAWN ROAD","BELTSVILLE","MD",20704,39.0534211610001,-76.943103401,239,"3105 CRAIGLAWN ROAD, BELTSVILLE, MD, 20704","Match","Non_Exact","3105 CRAIGLAWN RD, BELTSVILLE, MD, 20705",76323532,"R"
491240,"3105 CROSS KEY DR","FLORISSANT","MO",63033,38.8074310850001,-90.297613435,240,"3105 CROSS KEY DR, FLORISSANT, MO, 63033","Match","Non_Exact","3105 CROSS KEYS DR, FLORISSANT, MO, 63033",604196545,"L"
491241,"3105 CROWN ROCK","EL PASO","TX",79938,31.787062441,-106.233228121,241,"3105 CROWN ROCK, EL PASO, TX, 79938","Match","Non_Exact","3105 CROWN ROCK DR, EL PASO, TX, 79938",618949715,"L"
491242,"3105 CUMBRESS CIRCLE","HUNTSVILLE","AL",35810,34.7660162830001,-86.6258411919999,242,"3105 CUMBRESS CIRCLE, HUNTSVILLE, AL, 35810","Match","Non_Exact","3105 CUMBRES CIR NW, HUNTSVILLE, AL, 35810",58153252,"R"
491243,"3105 CURRY COURT","SACRAMENTO","CA",95821,38.621232901,-121.362663404,243,"3105 CURRY COURT, SACRAMENTO, CA, 95821","Match","Exact","3105 CURRY CT, SACRAMENTO, CA, 95821",133413096,"L"
491244,"3105 DEEANN ANN DRIVE","MEMPHIS","TN",38119,35.06444458,-89.811755314,244,"3105 DEEANN ANN DRIVE, MEMPHIS, TN, 38119","Match","Non_Exact","3105 DEE ANN DR, MEMPHIS, TN, 38119",72937242,"L"
491245,"3105 DOGWOOD DRIVE","LOUISVILLE","KY",40220,38.2187989970001,-85.641527329,245,"3105 DOGWOOD DRIVE, LOUISVILLE, KY, 40220","Match","Exact","3105 DOGWOOD DR, LOUISVILLE, KY, 40220",96856637,"L"
491246,"3105 E 10TH ST UNIT H","GREENVILLE","NC",27834,NA,NA,246,"3105 E 10TH ST UNIT H, GREENVILLE, NC, 27834","No_Match",NA,NA,NA,NA
491247,"3105 E 126TH ST","BURNSVILLE","MN",55337,44.7764194100001,-93.231950367,247,"3105 E 126TH ST, BURNSVILLE, MN, 55337","Match","Exact","3105 E 126TH ST, BURNSVILLE, MN, 55337",37923840,"L"
491248,"3105 E 30TH ST","CHATTANOOGA","TN",37407,35.0061274990001,-85.275217589,248,"3105 E 30TH ST, CHATTANOOGA, TN, 37407","Match","Exact","3105 E 30TH ST, CHATTANOOGA, TN, 37407",59313648,"L"
491249,"3105 E 5TH RD LOT C","LASALLE","IL",61301,NA,NA,249,"3105 E 5TH RD LOT C, LASALLE, IL, 61301","No_Match",NA,NA,NA,NA
491250,"3105 E 98TH STREET","INDIANAPOLIS","IN",46280,39.93076998,-86.108595441,250,"3105 E 98TH STREET, INDIANAPOLIS, IN, 46280","Match","Exact","3105 E 98TH ST, INDIANAPOLIS, IN, 46280",652682657,"L"
491251,"3105 E BANISTER RD","ST AUGUSTINE","FL",32092,30.050028664,-81.549992231,251,"3105 E BANISTER RD, ST AUGUSTINE, FL, 32092","Match","Exact","3105 E BANISTER RD, SAINT AUGUSTINE, FL, 32092",624152718,"R"
491252,"3105 E BLACKFORD AVE","EVANSVILLE","IN",47714,37.963406127,-87.512310788,252,"3105 E BLACKFORD AVE, EVANSVILLE, IN, 47714","Match","Exact","3105 E BLACKFORD AVE, EVANSVILLE, IN, 47714",39786922,"R"
491253,"3105 E ELM STREET","TAMPA","FL",33610,28.009919584,-82.425335192,253,"3105 E ELM STREET, TAMPA, FL, 33610","Match","Exact","3105 E ELM ST, TAMPA, FL, 33610",104612975,"R"
491254,"3105 E JEFFERSON STREET APARTMENT A","ORLANDO","FL",32803,28.5450937570001,-81.344773092,254,"3105 E JEFFERSON STREET APARTMENT A, ORLANDO, FL, 32803","Match","Non_Exact","3105 E JEFFERSON ST, ORLANDO, FL, 32803",637926397,"L"
491255,"3105 EAST 22ND STREET","MINNEAPOLIS","MN",55406,44.960978718,-93.226729817,255,"3105 EAST 22ND STREET, MINNEAPOLIS, MN, 55406","Match","Exact","3105 E 22ND ST, MINNEAPOLIS, MN, 55406",43638517,"R"
491256,"3105 EAST 5TH ROAD LOT A","LA SALLE","IL",61301,41.383736146,-89.067850557,256,"3105 EAST 5TH ROAD LOT A, LA SALLE, IL, 61301","Match","Exact","3105 E 5TH RD, LA SALLE, IL, 61301",635484944,"L"
491257,"3105 EAST DERBYSHIRE","CLEVELAND HEIGHTS","OH",44108,NA,NA,257,"3105 EAST DERBYSHIRE, CLEVELAND HEIGHTS, OH, 44108","No_Match",NA,NA,NA,NA
491258,"3105 ELIZABETH STREET","DENVER","CO",80205,39.76088765,-104.956118449,258,"3105 ELIZABETH STREET, DENVER, CO, 80205","Match","Exact","3105 ELIZABETH ST, DENVER, CO, 80205",177310428,"L"
491259,"3105 EP TRUE PKWY APT 515","WEST DES MOINES","IA",50265,NA,NA,259,"3105 EP TRUE PKWY APT 515, WEST DES MOINES, IA, 50265","No_Match",NA,NA,NA,NA
491260,"3105 FLOYD SPRINGS ROAD","ARMUCHEE","GA",30105,34.455862058,-85.1509127589999,260,"3105 FLOYD SPRINGS ROAD, ARMUCHEE, GA, 30105","Match","Non_Exact","3105 FLOYD SPRINGS RD NE, ARMUCHEE, GA, 30105",30716024,"L"
491261,"3105 FOOTHILL COURT","DUBUQUE","IA",52001,42.508633128,-90.717078606,261,"3105 FOOTHILL COURT, DUBUQUE, IA, 52001","Match","Exact","3105 FOOTHILL CT, DUBUQUE, IA, 52001",16907027,"R"
491262,"3105 GADDIS ROAD","CANTON","GA",30115,34.232224715,-84.3553774969999,262,"3105 GADDIS ROAD, CANTON, GA, 30115","Match","Exact","3105 GADDIS RD, CANTON, GA, 30115",629563186,"R"
491263,"3105 GOURDNECK RD","TULLAHOMA","TN",37388,35.2905265860001,-86.2577615879999,263,"3105 GOURDNECK RD, TULLAHOMA, TN, 37388","Match","Non_Exact","3105 GOURDNECK RD NW, TULLAHOMA, TN, 37388",57958127,"R"
491264,"3105 GRAPEVINE LN","CARROLLTON","TX",75007,33.0025383510001,-96.8697242489999,264,"3105 GRAPEVINE LN, CARROLLTON, TX, 75007","Match","Exact","3105 GRAPEVINE LN, CARROLLTON, TX, 75007",103406815,"L"
491265,"3105 HALF EASTLAKE AVENUE EAST","SEATTLE","WA",98102,NA,NA,265,"3105 HALF EASTLAKE AVENUE EAST, SEATTLE, WA, 98102","No_Match",NA,NA,NA,NA
491266,"3105 HARBOR DR","ST AUGUSTINE","FL",32084,29.9161721500001,-81.308567522,266,"3105 HARBOR DR, ST AUGUSTINE, FL, 32084","Match","Exact","3105 HARBOR DR, SAINT AUGUSTINE, FL, 32084",92594254,"L"
491267,"3105 HARRIS FERRY RD","IRVINE","KY",40336,37.8125645490001,-84.116010113,267,"3105 HARRIS FERRY RD, IRVINE, KY, 40336","Match","Exact","3105 HARRIS FERRY RD, IRVINE, KY, 40336",31902384,"R"
491268,"3105 HIGHWAY 90","CONWAY","SC",29526,NA,NA,268,"3105 HIGHWAY 90, CONWAY, SC, 29526","No_Match",NA,NA,NA,NA
491269,"3105 HOLME AVE","BERWYN","IL",60402,NA,NA,269,"3105 HOLME AVE, BERWYN, IL, 60402","No_Match",NA,NA,NA,NA
491270,"3105 HUDSON POND LANE","MARIETTA","GA",30062,34.0280276070001,-84.463571744,270,"3105 HUDSON POND LANE, MARIETTA, GA, 30062","Match","Non_Exact","3105 HUDSON POND LN NE, MARIETTA, GA, 30062",614186999,"R"
491271,"3105 JUHAN RD","STONE MOUNTAIN","GA",30087,33.802116181,-84.077264354,271,"3105 JUHAN RD, STONE MOUNTAIN, GA, 30087","Match","Non_Exact","3105 JUHAN RD SW, STONE MOUNTAIN, GA, 30087",88948118,"R"
491272,"3105 JUPITER","WINNEMUCCA","NV",89445,40.925182464,-117.770634233,272,"3105 JUPITER, WINNEMUCCA, NV, 89445","Match","Non_Exact","3105 JUPITER ST, WINNEMUCCA, NV, 89445",170973329,"R"
491273,"3105 KENDLY","PINE BLUFF","AR",71603,NA,NA,273,"3105 KENDLY, PINE BLUFF, AR, 71603","No_Match",NA,NA,NA,NA
491274,"3105 KENDYL ST","PINE BLUFF","AR",71603,34.1977530570001,-92.050282544,274,"3105 KENDYL ST, PINE BLUFF, AR, 71603","Match","Exact","3105 KENDYL ST, PINE BLUFF, AR, 71603",2581269,"L"
491275,"3105 KEYSTONE POINTE COURT","SAINT CLOUD","FL",34772,28.206596953,-81.302924387,275,"3105 KEYSTONE POINTE COURT, SAINT CLOUD, FL, 34772","Match","Exact","3105 KEYSTONE POINTE CT, SAINT CLOUD, FL, 34772",633036706,"L"
491276,"3105 KREIS LANE","CINCINNATI","OH",45205,NA,NA,276,"3105 KREIS LANE, CINCINNATI, OH, 45205","No_Match",NA,NA,NA,NA
491277,"3105 LAKEFIELD RD","YORK","PA",17402,39.958085393,-76.6392916359999,277,"3105 LAKEFIELD RD, YORK, PA, 17402","Match","Exact","3105 LAKEFIELD RD, YORK, PA, 17402",627068474,"R"
491278,"3105 LANDING LANE","CORAOPOLIS","PA",15108,40.5239026840001,-80.226719901,278,"3105 LANDING LANE, CORAOPOLIS, PA, 15108","Match","Exact","3105 LANDING LN, CORAOPOLIS, PA, 15108",51931688,"R"
491279,"3105 LINDA LANE","SINKING SPRING","PA",19608,40.3320745090001,-76.0135864,279,"3105 LINDA LANE, SINKING SPRING, PA, 19608","Match","Exact","3105 LINDA LN, SINKING SPRING, PA, 19608",80408327,"L"
491280,"3105 LINDA ST","JEFFERSON CITY","MO",65109,38.608415026,-92.233415328,280,"3105 LINDA ST, JEFFERSON CITY, MO, 65109","Match","Exact","3105 LINDA ST, JEFFERSON CITY, MO, 65109",34409496,"R"
491281,"3105 LOURDES STREET","DALLAS","TX",75211,32.7587003040001,-96.8714372599999,281,"3105 LOURDES STREET, DALLAS, TX, 75211","Match","Exact","3105 LOURDES ST, DALLAS, TX, 75211",102939988,"R"
491282,"3105 MADISON PLACE","HYATTSVILLE","MD",20782,38.9625535810001,-76.96387298,282,"3105 MADISON PLACE, HYATTSVILLE, MD, 20782","Match","Exact","3105 MADISON PL, HYATTSVILLE, MD, 20782",76304314,"R"
491283,"3105 MADISON ST","BELLEVUE","NE",68005,41.1265484830001,-95.8988241439999,283,"3105 MADISON ST, BELLEVUE, NE, 68005","Match","Exact","3105 MADISON ST, BELLEVUE, NE, 68005",28471345,"L"
491284,"3105 MAGNOLIA LANE","OCEAN SPRINGS","MS",39564,30.386643425,-88.77116626,284,"3105 MAGNOLIA LANE, OCEAN SPRINGS, MS, 39564","Match","Exact","3105 MAGNOLIA LN, OCEAN SPRINGS, MS, 39564",89259527,"L"
491285,"3105 MEMORY LANE","SILVER SPRING","MD",20904,39.067317061,-76.942862566,285,"3105 MEMORY LANE, SILVER SPRING, MD, 20904","Match","Exact","3105 MEMORY LN, SILVER SPRING, MD, 20904",62078004,"L"
491286,"3105 MERMENTAU COVE ROAD","MORSE","LA",70559,30.162409111,-92.579184133,286,"3105 MERMENTAU COVE ROAD, MORSE, LA, 70559","Match","Exact","3105 MERMENTAU COVE RD, MORSE, LA, 70559",640065339,"R"
491287,"3105 MILLENNIUM DRIVE","WILLINGBORO","NJ",8046,40.051159539,-74.890672443,287,"3105 MILLENNIUM DRIVE, WILLINGBORO, NJ, 8046","Match","Non_Exact","3105 MILLENIUM DR, WILLINGBORO, NJ, 08046",651194394,"R"
491288,"3105 N HIGHVIEW AVE","ALTADENA","CA",91001,34.1967549770001,-118.143006693,288,"3105 N HIGHVIEW AVE, ALTADENA, CA, 91001","Match","Exact","3105 HIGHVIEW AVE, ALTADENA, CA, 91001",141628052,"L"
491289,"3105 N LANSING AVE","TULSA","OK",74106,NA,NA,289,"3105 N LANSING AVE, TULSA, OK, 74106","No_Match",NA,NA,NA,NA
491290,"3105 N MESA VERDE AVE","FARMINGTON","NM",87401,36.756960728,-108.19393721,290,"3105 N MESA VERDE AVE, FARMINGTON, NM, 87401","Match","Exact","3105 MESA VERDE AVE, FARMINGTON, NM, 87401",127481920,"L"
491291,"3105 N MUNICIPAL DR","FARMINGTON","NM",87401,36.7563360890001,-108.211567574,291,"3105 N MUNICIPAL DR, FARMINGTON, NM, 87401","Match","Exact","3105 MUNICIPAL DR, FARMINGTON, NM, 87401",127403285,"R"
491292,"3105 N NEENAH","CHICAGO","IL",60634,NA,NA,292,"3105 N NEENAH, CHICAGO, IL, 60634","No_Match",NA,NA,NA,NA
491293,"3105 NC HWY 86 N","HILLSBOROUGH","NC",27278,NA,NA,293,"3105 NC HWY 86 N, HILLSBOROUGH, NC, 27278","No_Match",NA,NA,NA,NA
491294,"3105 NE 68TH AVE","PORTLAND","OR",97213,45.545462507,-122.59331213,294,"3105 NE 68TH AVE, PORTLAND, OR, 97213","Match","Exact","3105 NE 68TH AVE, PORTLAND, OR, 97213",157512848,"L"
491295,"3105 NE PURCELL BLVD","BEND","OR",97701,44.0828324330001,-121.273738392,295,"3105 NE PURCELL BLVD, BEND, OR, 97701","Match","Exact","3105 NE PURCELL BLVD, BEND, OR, 97701",152587403,"R"
491296,"3105 NW 107 AVENUE SUITE 601","DORAL","FL",33172,25.8021664300001,-80.369249281,296,"3105 NW 107 AVENUE SUITE 601, DORAL, FL, 33172","Match","Non_Exact","3105 NW 107TH AVE, DORAL, FL, 33172",648441177,"R"
491297,"3105 NW 15TH","REDMOND","OR",97756,44.3042653480001,-121.183902583,297,"3105 NW 15TH, REDMOND, OR, 97756","Match","Non_Exact","3105 NW 15TH ST, REDMOND, OR, 97756",611083963,"L"
491298,"3105 OLD YORKTOWN ROAD","YORKTOWN HEIGHTS","NY",10598,41.311276702,-73.812517051,298,"3105 OLD YORKTOWN ROAD, YORKTOWN HEIGHTS, NY, 10598","Match","Exact","3105 OLD YORKTOWN RD, YORKTOWN HEIGHTS, NY, 10598",139845569,"L"
491299,"3105 PALOMINO DR","POWDER SPRINGS","GA",30127,33.872127348,-84.65335483,299,"3105 PALOMINO DR, POWDER SPRINGS, GA, 30127","Match","Exact","3105 PALOMINO DR, POWDER SPGS, GA, 30127",17225310,"L"
491300,"3105 PARKER DRIVE","VALPARAISO","IN",46383,41.496937761,-87.058008571,300,"3105 PARKER DRIVE, VALPARAISO, IN, 46383","Match","Exact","3105 PARKER DR, VALPARAISO, IN, 46383",119913330,"R"
491301,"3105 PECAN CREST COVE","ROUND ROCK","TX",78681,30.532691475,-97.7256664,301,"3105 PECAN CREST COVE, ROUND ROCK, TX, 78681","Match","Exact","3105 PECAN CREST COVE, ROUND ROCK, TX, 78681",126474881,"L"
491302,"3105 PERIWINCLE CT","CHARLOTTE","NC",28269,35.2962752920001,-80.808053865,302,"3105 PERIWINCLE CT, CHARLOTTE, NC, 28269","Match","Non_Exact","3105 PERIWINKLE CT, CHARLOTTE, NC, 28269",70535176,"R"
491303,"3105 PERIWINKLE COURT","CHARLOTTE","NC",28269,35.2962752920001,-80.808053865,303,"3105 PERIWINKLE COURT, CHARLOTTE, NC, 28269","Match","Exact","3105 PERIWINKLE CT, CHARLOTTE, NC, 28269",70535176,"R"
491304,"3105 PHEASANT AVENUE","WAUSAU","WI",54401,44.9296002080001,-89.671190913,304,"3105 PHEASANT AVENUE, WAUSAU, WI, 54401","Match","Exact","3105 PHEASANT AVE, WAUSAU, WI, 54401",117150191,"L"
491305,"3105 POPLAR BEND","VIRGINIA BEACH","VA",23452,36.8619006810001,-76.084165958,305,"3105 POPLAR BEND, VIRGINIA BEACH, VA, 23452","Match","Exact","3105 POPLAR BEND, VA BCH, VA, 23452",122304943,"R"
491306,"3105 QUARTZ LANE","FULLERTON","CA",92831,33.8847219580001,-117.874422691,306,"3105 QUARTZ LANE, FULLERTON, CA, 92831","Match","Exact","3105 QUARTZ LN, FULLERTON, CA, 92831",143993763,"L"
491307,"3105 QUEENSDALE DR","MONROE","NC",28110,35.0537625520001,-80.608386787,307,"3105 QUEENSDALE DR, MONROE, NC, 28110","Match","Exact","3105 QUEENSDALE DR, MONROE, NC, 28110",14199462,"R"
491308,"3105 QUINN DRIVE","WILSON","NC",27896,35.7528958670001,-77.958866083,308,"3105 QUINN DRIVE, WILSON, NC, 27896","Match","Exact","3105 QUINN DR, WILSON, NC, 27896",26713814,"L"
491309,"3105 RAINTREE","PLANO","TX",75074,33.0320205900001,-96.6724528189999,309,"3105 RAINTREE, PLANO, TX, 75074","Match","Non_Exact","3105 RAINTREE DR, PLANO, TX, 75074",123489646,"L"
491310,"3105 REGENCY DRIVE","INDEPENDENCE","KS",67301,37.2601860340001,-95.725701611,310,"3105 REGENCY DRIVE, INDEPENDENCE, KS, 67301","Match","Exact","3105 REGENCY DR, INDEPENDENCE, KS, 67301",635552140,"L"
491311,"3105 RIVERFRONT","PITTSBURGH","PA",15238,40.485510812,-79.875847838,311,"3105 RIVERFRONT, PITTSBURGH, PA, 15238","Match","Non_Exact","3105 RIVERFRONT DR, PITTSBURGH, PA, 15238",651468258,"R"
491312,"3105 RUSTY LN","BLOOMINGTON","IL",61704,40.5093764850001,-88.919447684,312,"3105 RUSTY LN, BLOOMINGTON, IL, 61704","Match","Exact","3105 RUSTY LN, BLOOMINGTON, IL, 61704",20562744,"R"
491313,"3105 S 1ST ST APT 202","AUSTIN","TX",78704,30.2337158510001,-97.764905531,313,"3105 S 1ST ST APT 202, AUSTIN, TX, 78704","Match","Non_Exact","3105 S 1ST ST, AUSTIN, TX, 78704",64015879,"L"
491314,"3105 S 28TH PL APT 12","ROGERS","AR",72758,36.294364531,-94.16883023,314,"3105 S 28TH PL APT 12, ROGERS, AR, 72758","Match","Non_Exact","3105 S 28TH PL, ROGERS, AR, 72758",641789303,"L"
491315,"3105 S 67TH E AVE","TULSA","OK",74145,36.1187782970001,-95.901722179,315,"3105 S 67TH E AVE, TULSA, OK, 74145","Match","Exact","3105 S 67TH EAST AVE, TULSA, OK, 74145",166450918,"L"
491316,"3105 S BEAR CLAW","MERIDIAN","ID",83642,43.576779791,-116.40013195,316,"3105 S BEAR CLAW, MERIDIAN, ID, 83642","Match","Non_Exact","3105 S BEAR CLAW PL, MERIDIAN, ID, 83642",117928486,"R"
491317,"3105 S JUNIPER","BROKEN ARROW","OK",74012,NA,NA,317,"3105 S JUNIPER, BROKEN ARROW, OK, 74012","Tie",NA,NA,NA,NA
491318,"3105 S MERIDIAN ROAD","WABASH","IN",46992,40.7812340340001,-85.7909759779999,318,"3105 S MERIDIAN ROAD, WABASH, IN, 46992","Match","Exact","3105 S MERIDIAN RD, WABASH, IN, 46992",15529923,"R"
491319,"3105 S MLK 241","LANSING","MI",48910,NA,NA,319,"3105 S MLK 241, LANSING, MI, 48910","No_Match",NA,NA,NA,NA
491320,"3105 SADDLE BROOK TRL","SUN PRAIRIE","WI",53590,43.2149820600001,-89.2396864689999,320,"3105 SADDLE BROOK TRL, SUN PRAIRIE, WI, 53590","Match","Exact","3105 SADDLE BROOK TRL, SUN PRAIRIE, WI, 53590",647111595,"L"
491321,"3105 SANDHILL DR","DEXTER","MI",48130,42.341759756,-83.9016255939999,321,"3105 SANDHILL DR, DEXTER, MI, 48130","Match","Exact","3105 SANDHILL DR, DEXTER, MI, 48130",630066093,"R"
491322,"3105 SAXONY DRIVE","MOUNT LAUREL","NJ",8054,39.9769525,-74.876382812,322,"3105 SAXONY DRIVE, MOUNT LAUREL, NJ, 8054","Match","Exact","3105 SAXONY DR, MOUNT LAUREL, NJ, 08054",134063049,"L"
491323,"3105 SHADOWS LAKE DR","BATON ROUGE","LA",70816,30.4200477810001,-90.990251958,323,"3105 SHADOWS LAKE DR, BATON ROUGE, LA, 70816","Match","Exact","3105 SHADOWS LAKE DR, BATON ROUGE, LA, 70816",606183864,"L"
491324,"3105 SHAWLANDS RD","KILLEEN","TX",76542,31.049178483,-97.725290765,324,"3105 SHAWLANDS RD, KILLEEN, TX, 76542","Match","Exact","3105 SHAWLANDS RD, KILLEEN, TX, 76542",632060344,"L"
491325,"3105 SHEFFIELD DR","CINNAMINSON","NJ",8077,39.984046199,-74.988246128,325,"3105 SHEFFIELD DR, CINNAMINSON, NJ, 8077","Match","Exact","3105 SHEFFIELD DR, CINNAMINSON, NJ, 08077",134026923,"L"
491326,"3105 SILVER BELL DR","LAKE HAVASU CITY","AZ",86406,34.478745486,-114.292600283,326,"3105 SILVER BELL DR, LAKE HAVASU CITY, AZ, 86406","Match","Exact","3105 SILVER BELL DR, LAKE HAVASU CITY, AZ, 86406",190368792,"L"
491327,"3105 SOCIETY DRIVE","CLAYMONT","DE",19703,39.8203844000001,-75.461004245,327,"3105 SOCIETY DRIVE, CLAYMONT, DE, 19703","Match","Exact","3105 SOCIETY DR, CLAYMONT, DE, 19703",187282456,"L"
491328,"3105 SOUTH 47TH STREET J129","TACOMA","WA",98409,47.2148963010001,-122.476573902,328,"3105 SOUTH 47TH STREET J129, TACOMA, WA, 98409","Match","Exact","3105 S 47TH ST, TACOMA, WA, 98409",184620603,"R"
491329,"3105 SPARROW ST","HOUSTON","TX",77051,29.6519744020001,-95.3785205089999,329,"3105 SPARROW ST, HOUSTON, TX, 77051","Match","Exact","3105 SPARROW ST, HOUSTON, TX, 77051",96088653,"L"
491330,"3105 SR 574 APT 20","PLANT CITY","FL",33563,28.013641917,-82.154255473,330,"3105 SR 574 APT 20, PLANT CITY, FL, 33563","Match","Non_Exact","3105 STATE HWY 574, PLANT CITY, FL, 33563",104546651,"L"
491331,"3105 ST LUKES CHURCH RD","PROSPERITY","SC",29127,34.1558547970001,-81.567409615,331,"3105 ST LUKES CHURCH RD, PROSPERITY, SC, 29127","Match","Exact","3105 SAINT LUKES CHURCH RD, PROSPERITY, SC, 29127",45375752,"L"
491332,"3105 ST MIHIEL AVENUE","NORFOLK","VA",23509,36.875153622,-76.2590512469999,332,"3105 ST MIHIEL AVENUE, NORFOLK, VA, 23509","Match","Exact","3105 SAINT MIHIEL AVE, NORFOLK, VA, 23509",122134627,"L"
491333,"3105 ST PHILIP ST","NEW ORLEANS","LA",70119,29.9762350600001,-90.085402276,333,"3105 ST PHILIP ST, NEW ORLEANS, LA, 70119","Match","Exact","3105 SAINT PHILIP ST, NEW ORLEANS, LA, 70119",191709350,"R"
491334,"3105 SUMMERBEND COURT","PEORIA","IL",61615,40.8163072840001,-89.640369353,334,"3105 SUMMERBEND COURT, PEORIA, IL, 61615","Match","Non_Exact","3105 W SUMMERBEND CT, PEORIA, IL, 61615",8732352,"R"
491335,"3105 SUNVIEW DR 43503","BIRMINGHAM","AL",35243,33.462065469,-86.73528113,335,"3105 SUNVIEW DR 43503, BIRMINGHAM, AL, 35243","Match","Exact","3105 SUNVIEW DR, BIRMINGHAM, AL, 35243",81584976,"R"
491336,"3105 SURREY LN","HAZEL CREST","IL",NA,41.56789123,-87.692416979,336,"3105 SURREY LN, HAZEL CREST, IL, ","Match","Exact","3105 SURREY LN, HAZEL CREST, IL, 60429",112207118,"R"
491337,"3105 SW IVY PLACE","DUNNELLON","FL",34431,29.1488520280001,-82.4831423209999,337,"3105 SW IVY PLACE, DUNNELLON, FL, 34431","Match","Exact","3105 SW IVY PL, DUNNELLON, FL, 34431",116713065,"R"
491338,"3105 SW JOSHUA AVE","BENTONVILLE","AR",72713,36.3302166240001,-94.247130681,338,"3105 SW JOSHUA AVE, BENTONVILLE, AR, 72713","Match","Exact","3105 SW JOSHUA AVE, BENTONVILLE, AR, 72713",627616114,"L"
491339,"3105 SYCAMORE DR","MOORE","OK",73160,35.3093898700001,-97.4963641529999,339,"3105 SYCAMORE DR, MOORE, OK, 73160","Match","Exact","3105 SYCAMORE DR, MOORE, OK, 73160",618161168,"L"
491340,"3105 TROOST AVENUE","KANSAS CITY","MO",64109,39.070293744,-94.571314955,340,"3105 TROOST AVENUE, KANSAS CITY, MO, 64109","Match","Exact","3105 TROOST AVE, KANSAS CITY, MO, 64109",91446443,"L"
491341,"3105 TURKEY HILL CT","WINSTON SALEM","NC",27106,36.1220753530001,-80.3031323399999,341,"3105 TURKEY HILL CT, WINSTON SALEM, NC, 27106","Match","Exact","3105 TURKEY HILL CT, WINSTON SALEM, NC, 27106",84687707,"L"
491342,"3105 TWELVE OAKS BLVD","CLARKSVILLE","TN",37042,36.6406613560001,-87.373750751,342,"3105 TWELVE OAKS BLVD, CLARKSVILLE, TN, 37042","Match","Exact","3105 TWELVE OAKS BLVD, CLARKSVILLE, TN, 37042",638736239,"R"
491343,"3105 TWIN BROOKS DRIVE","GREENSBORO","NC",27407,36.0213892900001,-79.855930051,343,"3105 TWIN BROOKS DRIVE, GREENSBORO, NC, 27407","Match","Exact","3105 TWIN BROOKS DR, GREENSBORO, NC, 27407",131114988,"L"
491344,"3105 VAL VISTA DRIVE","EASTON","PA",18045,40.698337961,-75.276052873,344,"3105 VAL VISTA DRIVE, EASTON, PA, 18045","Match","Exact","3105 VAL VISTA DR, EASTON, PA, 18045",653534370,"R"
491345,"3105 W 11TH ST","LOS ANGELES","CA",90006,34.0508467270001,-118.306523111,345,"3105 W 11TH ST, LOS ANGELES, CA, 90006","Match","Non_Exact","3105 W 11TH ST, LOS ANGELES, CA, 90006",141604005,"R"
491346,"3105 W 62ND AVE","DENVER","CO",80221,39.8089154080001,-105.028369512,346,"3105 W 62ND AVE, DENVER, CO, 80221","Match","Exact","3105 W 62ND AVE, DENVER, CO, 80221",177415595,"R"
491347,"3105 W ARGYLE ST APT1","CHICAGO","IL",60625,41.9721049550001,-87.70638479,347,"3105 W ARGYLE ST APT1, CHICAGO, IL, 60625","Match","Non_Exact","3105 W ARGYLE ST, CHICAGO, IL, 60625",605182753,"L"
491348,"3105 W DOROTHEA CT","VISALIA","CA",93277,36.3024451690001,-119.325239153,348,"3105 W DOROTHEA CT, VISALIA, CA, 93277","Match","Non_Exact","3105 W DOROTHEA AVE, VISALIA, CA, 93277",202790953,"R"
491349,"3105 W JUNEAU AVE","MILWAUKEE","WI",53208,43.045873145,-87.952961296,349,"3105 W JUNEAU AVE, MILWAUKEE, WI, 53208","Match","Exact","3105 W JUNEAU AVE, MILWAUKEE, WI, 53208",77739998,"L"
491350,"3105 W MERCURY BLVD","HAMPTON","VA",23666,37.033289358,-76.416366948,350,"3105 W MERCURY BLVD, HAMPTON, VA, 23666","Match","Exact","3105 W MERCURY BLVD, HAMPTON, VA, 23666",103755599,"L"
491351,"3105 W NORTH A ST","TAMPA","FL",33609,27.9458931400001,-82.4942348769999,351,"3105 W NORTH A ST, TAMPA, FL, 33609","Match","Exact","3105 W NORTH A ST, TAMPA, FL, 33609",104526449,"R"
491352,"3105 W NORTHGATE DR APT 2009","IRVING","TX",75062,32.8558920840001,-96.9886035549999,352,"3105 W NORTHGATE DR APT 2009, IRVING, TX, 75062","Match","Non_Exact","3105 W NORTHGATE DR, IRVING, TX, 75062",103238697,"L"
491353,"3105 W TOP OF THE WORLD CIRCLE","WASILLA","AK",99654,61.5447405210001,-149.527854271,353,"3105 W TOP OF THE WORLD CIRCLE, WASILLA, AK, 99654","Match","Exact","3105 TOP OF THE WORLD CIR, WASILLA, AK, 99654",646824365,"L"
491354,"3105 W VALANNA COURT","GLENDALE","WI",53209,43.143953858,-87.950359141,354,"3105 W VALANNA COURT, GLENDALE, WI, 53209","Match","Exact","3105 W VALANNA CT, GLENDALE, WI, 53209",77735231,"L"
491355,"3105 W WILDFLOWER ST","FAYETTEVILLE","AR",72704,36.085915727,-94.203338415,355,"3105 W WILDFLOWER ST, FAYETTEVILLE, AR, 72704","Match","Exact","3105 W WILDFLOWER ST, FAYETTEVILLE, AR, 72704",49060625,"R"
491356,"3105 WALNUT STREET","INKSTER","MI",48141,42.2882297080001,-83.3184354429999,356,"3105 WALNUT STREET, INKSTER, MI, 48141","Match","Exact","3105 WALNUT ST, INKSTER, MI, 48141",95434558,"L"
491357,"3105 WASHINGTON RD","EAST POINT","GA",30344,33.6709023230001,-84.462284831,357,"3105 WASHINGTON RD, EAST POINT, GA, 30344","Match","Exact","3105 WASHINGTON RD, EAST POINT, GA, 30344",643289966,"R"
491358,"3105 WASHINGTON ROAD SUITE C","EAST POINT","GA",30344,33.6709023230001,-84.462284831,358,"3105 WASHINGTON ROAD SUITE C, EAST POINT, GA, 30344","Match","Exact","3105 WASHINGTON RD, EAST POINT, GA, 30344",643289966,"R"
491359,"3105 WATCHILL AVENUE","MEDFORD","NY",11763,40.8337580350001,-72.982015328,359,"3105 WATCHILL AVENUE, MEDFORD, NY, 11763","Match","Exact","3105 WATCHILL AVE, MEDFORD, NY, 11763",114012394,"R"
491360,"3105 WESTERN BRANCH BLVD","CHESAPEAKE","VA",23321,36.8623510510001,-76.401573771,360,"3105 WESTERN BRANCH BLVD, CHESAPEAKE, VA, 23321","Match","Exact","3105 WESTERN BRANCH BLVD, CHESAPEAKE, VA, 23321",121767897,"L"
491361,"3105 WILLIAMS RD","COLUMBUS","OH",43207,NA,NA,361,"3105 WILLIAMS RD, COLUMBUS, OH, 43207","No_Match",NA,NA,NA,NA
491362,"3105 WINDLAND DRIVE","GREEN BAY","WI",54311,44.4908789570001,-87.927512381,362,"3105 WINDLAND DRIVE, GREEN BAY, WI, 54311","Match","Exact","3105 WINDLAND DR, GREEN BAY, WI, 54311",148119348,"L"
491363,"3105 WINDLASS COURT","TAMPA","FL",33607,27.970816649,-82.560164949,363,"3105 WINDLASS COURT, TAMPA, FL, 33607","Match","Exact","3105 WINDLASS CT, TAMPA, FL, 33607",104582748,"R"
491364,"3105 WOODLAND HILLS DRIVE APT 29","ANN ARBOR","MI",48108,42.2428818270001,-83.6732430609999,364,"3105 WOODLAND HILLS DRIVE APT 29, ANN ARBOR, MI, 48108","Match","Exact","3105 WOODLAND HILLS DR, ANN ARBOR, MI, 48108",26054504,"L"
491365,"3105 WYNTREE COURT","MATTHEWS","NC",28104,35.0854732130001,-80.689475909,365,"3105 WYNTREE COURT, MATTHEWS, NC, 28104","Match","Exact","3105 WYNTREE CT, MATTHEWS, NC, 28104",618493248,"R"
491366,"3105","BLOOMINGTON","IN",47408,NA,NA,366,"3105, BLOOMINGTON, IN, 47408","No_Match",NA,NA,NA,NA
491367,"3105","CARROLLTON","TX",75007,NA,NA,367,"3105, CARROLLTON, TX, 75007","No_Match",NA,NA,NA,NA
491368,"31050 MALCOLM ST","HERMISTON","OR",97838,45.8736547500001,-119.290111668,368,"31050 MALCOLM ST, HERMISTON, OR, 97838","Match","Exact","31050 MALCOLM ST, HERMISTON, OR, 97838",170427759,"R"
491369,"31051 SCISSORBILL ROAD","OCEAN VIEW","DE",19970,38.5602079860001,-75.117814622,369,"31051 SCISSORBILL ROAD, OCEAN VIEW, DE, 19970","Match","Exact","31051 SCISSORBILL RD, OCEAN VIEW, DE, 19970",640565985,"L"
491370,"31052 EDENDALE DR","WESLEY CHAPEL","FL",33543,28.2093648540001,-82.302457362,370,"31052 EDENDALE DR, WESLEY CHAPEL, FL, 33543","Match","Exact","31052 EDENDALE DR, WESLEY CHAPEL, FL, 33543",618495630,"R"
491371,"31052 EDENDALE DRIVE","WESLEY CHAPEL","FL",33543,28.2093648540001,-82.302457362,371,"31052 EDENDALE DRIVE, WESLEY CHAPEL, FL, 33543","Match","Exact","31052 EDENDALE DR, WESLEY CHAPEL, FL, 33543",618495630,"R"
491372,"31054 STATE HWY 129","NEW CAMBRIA","MO",63558,39.743786975,-92.799860692,372,"31054 STATE HWY 129, NEW CAMBRIA, MO, 63558","Match","Exact","31054 STATE HWY 129, NEW CAMBRIA, MO, 63558",24968415,"R"
491373,"31055 OLNEY WAY","MILLSBORO","DE",19966,NA,NA,373,"31055 OLNEY WAY, MILLSBORO, DE, 19966","No_Match",NA,NA,NA,NA
491374,"31057 GARBER ROAD","GUTTENBERG","IA",52052,42.7853384260001,-91.191464772,374,"31057 GARBER ROAD, GUTTENBERG, IA, 52052","Match","Exact","31057 GARBER RD, GUTTENBERG, IA, 52052",636494903,"R"
491375,"31057 SKIPTON CORDOVA ROAD","CORDOVA","MD",21625,38.8769947800001,-75.996592364,375,"31057 SKIPTON CORDOVA ROAD, CORDOVA, MD, 21625","Match","Exact","31057 SKIPTON CORDOVA RD, CORDOVA, MD, 21625",68397451,"L"
491376,"31059 NICE AVENUE","MENTONE","CA",92359,34.0663954610001,-117.126667249,376,"31059 NICE AVENUE, MENTONE, CA, 92359","Match","Exact","31059 NICE AVE, MENTONE, CA, 92359",144716430,"R"
491377,"31059 PLEASANT VALLEY ROAD","MENIFEE","CA",92584,33.669133984,-117.183272012,377,"31059 PLEASANT VALLEY ROAD, MENIFEE, CA, 92584","Match","Exact","31059 PLEASANT VALLEY RD, MENIFEE, CA, 92584",194812889,"L"
491378,"3106 117TH AVE NE LK","STEVENS","WA",98258,48.025468141,-122.073782788,378,"3106 117TH AVE NE LK, STEVENS, WA, 98258","Match","Non_Exact","3106 117TH AVE NE, LAKE STEVENS, WA, 98258",187796592,"L"
491379,"3106 29TH AVE SE","PUYALLUP","WA",98374,47.164405114,-122.252541659,379,"3106 29TH AVE SE, PUYALLUP, WA, 98374","Match","Exact","3106 29TH AVE SE, PUYALLUP, WA, 98374",184681644,"R"
491380,"3106 336TH ST S","ROY","WA",98580,46.952395756,-122.472921696,380,"3106 336TH ST S, ROY, WA, 98580","Match","Exact","3106 336TH ST S, ROY, WA, 98580",636827204,"L"
491381,"3106 38TH TER E","BRADENTON","FL",34208,27.4650334290001,-82.5236466379999,381,"3106 38TH TER E, BRADENTON, FL, 34208","Match","Exact","3106 38TH TER E, BRADENTON, FL, 34208",16288412,"R"
491382,"3106 39TH AVE NE","MINNEAPOLIS","MN",55421,45.039292119,-93.2168385159999,382,"3106 39TH AVE NE, MINNEAPOLIS, MN, 55421","Match","Exact","3106 39TH AVE NE, MINNEAPOLIS, MN, 55421",97637783,"R"
491383,"3106 4TH AVENUE","SIOUX CITY","IA",51106,42.4697507050001,-96.369051043,383,"3106 4TH AVENUE, SIOUX CITY, IA, 51106","Match","Exact","3106 4TH AVE, SIOUX CITY, IA, 51106",93424540,"R"
491384,"3106 54TH AVE NE","TACOMA","WA",98422,47.2847944860001,-122.37460574,384,"3106 54TH AVE NE, TACOMA, WA, 98422","Match","Exact","3106 54TH AVE NE, TACOMA, WA, 98422",184713675,"L"
491385,"3106 70TH STREET","URBANDALE","IA",50322,41.6232336460001,-93.712224597,385,"3106 70TH STREET, URBANDALE, IA, 50322","Match","Exact","3106 70TH ST, URBANDALE, IA, 50322",65776866,"L"
491386,"3106 ADONNA DRIVE","HUNTSVILLE","AL",35810,34.7642499620001,-86.641857546,386,"3106 ADONNA DRIVE, HUNTSVILLE, AL, 35810","Match","Non_Exact","3106 ADONNA DR NW, HUNTSVILLE, AL, 35810",58140882,"R"
491387,"3106 ARCADIA DR","AUGUSTA","GA",30906,33.4356621810001,-82.06269897,387,"3106 ARCADIA DR, AUGUSTA, GA, 30906","Match","Exact","3106 ARCADIA DR, AUGUSTA, GA, 30906",55635638,"R"
491388,"3106 AUBURN DR","MIDLAND","TX",79705,32.0257280910001,-102.123265714,388,"3106 AUBURN DR, MIDLAND, TX, 79705","Match","Exact","3106 AUBURN DR, MIDLAND, TX, 79705",139578502,"R"
491389,"3106 AUBURN PATH","SUGAR LAND","TX",77479,29.569062698,-95.6407038949999,389,"3106 AUBURN PATH, SUGAR LAND, TX, 77479","Match","Exact","3106 AUBURN PATH, SUGAR LAND, TX, 77479",641152244,"L"
491390,"3106 BARTON POINT CIRCLE","AUSTIN","TX",78733,30.295544007,-97.8952948579999,390,"3106 BARTON POINT CIRCLE, AUSTIN, TX, 78733","Match","Exact","3106 BARTON POINT CIR, AUSTIN, TX, 78733",63936556,"R"
491391,"3106 BATON ROUGE DR","KOKOMO","IN",46902,40.4606784750001,-86.173073404,391,"3106 BATON ROUGE DR, KOKOMO, IN, 46902","Match","Exact","3106 BATON ROUGE DR, KOKOMO, IN, 46902",27262041,"L"
491392,"3106 BEE TREE LAND","SIGNAL MOUNTAIN","TN",37377,35.163665501,-85.3289970069999,392,"3106 BEE TREE LAND, SIGNAL MOUNTAIN, TN, 37377","Match","Non_Exact","3106 BEE TREE LN, SIGNAL MOUNTAIN, TN, 37377",59332764,"R"
491393,"3106 BLUFFVIEW DR","GARLAND","TX",75043,32.879969788,-96.595246706,393,"3106 BLUFFVIEW DR, GARLAND, TX, 75043","Match","Exact","3106 BLUFFVIEW DR, GARLAND, TX, 75043",102979593,"R"
491394,"3106 BRIDGE VALLEY RD","LA GRANGE","TX",78945,29.904409431,-96.9288142629999,394,"3106 BRIDGE VALLEY RD, LA GRANGE, TX, 78945","Match","Exact","3106 BRIDGE VALLEY RD, LA GRANGE, TX, 78945",646217760,"R"
491395,"3106 CALLAWAY DR","MIDLAND","TX",79707,32.008265077,-102.167507416,395,"3106 CALLAWAY DR, MIDLAND, TX, 79707","Match","Exact","3106 CALLAWAY DR, MIDLAND, TX, 79707",139597231,"R"
491396,"3106 CANE MILL CT","ALBANY","GA",31721,31.591981274,-84.225532885,396,"3106 CANE MILL CT, ALBANY, GA, 31721","Match","Exact","3106 CANE MILL CT, ALBANY, GA, 31721",84323677,"L"
491397,"3106 CATALPA DR","DAYTON","OH",45405,39.799496366,-84.225881305,397,"3106 CATALPA DR, DAYTON, OH, 45405","Match","Exact","3106 CATALPA DR, DAYTON, OH, 45405",143565795,"R"
491398,"3106 CEDARHURST ROAD","BALTIMORE","MD",21214,39.3424855270001,-76.5680600919999,398,"3106 CEDARHURST ROAD, BALTIMORE, MD, 21214","Match","Exact","3106 CEDARHURST RD, BALTIMORE, MD, 21214",206411155,"L"
491399,"3106 CENTRAL AVE","ALAMEDA","CA",94501,37.758658917,-122.232654317,399,"3106 CENTRAL AVE, ALAMEDA, CA, 94501","Match","Exact","3106 CENTRAL AVE, ALAMEDA, CA, 94501",125006914,"R"
491400,"3106 CYPRESS MILL","STILLWATER","OK",74074,NA,NA,400,"3106 CYPRESS MILL, STILLWATER, OK, 74074","No_Match",NA,NA,NA,NA
491401,"3106 DAUPHINE STREET","NEW ORELANS","LA",70117,29.964416161,-90.0449323839999,401,"3106 DAUPHINE STREET, NEW ORELANS, LA, 70117","Match","Non_Exact","3106 DAUPHINE ST, NEW ORLEANS, LA, 70117",191717272,"R"
491402,"3106 E BALTIMORE STREET","BALTIMORE","MD",21224,39.2923540030001,-76.573090732,402,"3106 E BALTIMORE STREET, BALTIMORE, MD, 21224","Match","Exact","3106 E BALTIMORE ST, BALTIMORE, MD, 21224",206425203,"L"
491403,"3106 E TRENTON AVE","ORANGE","CA",92867,33.8118381510001,-117.820834669,403,"3106 E TRENTON AVE, ORANGE, CA, 92867","Match","Exact","3106 E TRENTON AVE, ORANGE, CA, 92867",144032099,"R"
491404,"3106 EDGECLIFF FALLS CT","KATY","TX",77449,29.818778008,-95.765356368,404,"3106 EDGECLIFF FALLS CT, KATY, TX, 77449","Match","Exact","3106 EDGECLIFF FALLS CT, KATY, TX, 77449",625668217,"L"
491405,"3106 EGER PLACE","BRONX","NY",10465,40.811280348,-73.80414767,405,"3106 EGER PLACE, BRONX, NY, 10465","Match","Exact","3106 EGER PL, BRONX, NY, 10465",80307964,"R"
491406,"3106 EUGENE STREET","HOOD RIVER","OR",97031,45.705995837,-121.54487783,406,"3106 EUGENE STREET, HOOD RIVER, OR, 97031","Match","Exact","3106 EUGENE ST, HOOD RIVER, OR, 97031",624724891,"R"
491407,"3106 FAIRWAY AVENUE","BRISTOL","PA",19007,40.1080467520001,-74.88870438,407,"3106 FAIRWAY AVENUE, BRISTOL, PA, 19007","Match","Exact","3106 FAIRWAY AVE, BRISTOL, PA, 19007",134716550,"R"
491408,"3106 FALLING LEAF","VALDOSTA","GA",31602,NA,NA,408,"3106 FALLING LEAF, VALDOSTA, GA, 31602","Tie",NA,NA,NA,NA
491409,"3106 FENNEGAN CT","WOODBRIDGE","VA",22192,38.699463759,-77.3034237859999,409,"3106 FENNEGAN CT, WOODBRIDGE, VA, 22192","Match","Exact","3106 FENNEGAN CT, WOODBRIDGE, VA, 22192",76510337,"L"
491410,"3106 FLOATING LEAF LANE","WALDORF","MD",20603,38.6262707270001,-76.946684961,410,"3106 FLOATING LEAF LANE, WALDORF, MD, 20603","Match","Exact","3106 FLOATING LEAF LN, WALDORF, MD, 20603",637457618,"R"
491411,"3106 FOLLIN LANE","FLORENCE","SC",29505,34.1356070310001,-79.724067841,411,"3106 FOLLIN LANE, FLORENCE, SC, 29505","Match","Exact","3106 FOLLIN LN, FLORENCE, SC, 29505",28897337,"R"
491412,"3106 FREDERICK AVE","COLONIAL HEIGHTS","VA",23834,37.262923372,-77.39502844,412,"3106 FREDERICK AVE, COLONIAL HEIGHTS, VA, 23834","Match","Exact","3106 FREDERICK AVE, COLONIAL HEIGHTS, VA, 23834",201550081,"L"
491413,"3106 GALENA AVE","N CHESTERFIELD","VA",23237,37.392794472,-77.44058451,413,"3106 GALENA AVE, N CHESTERFIELD, VA, 23237","Match","Exact","3106 GALENA AVE, NORTH CHESTERFIELD, VA, 23237",201582333,"R"
491414,"3106 GAMBREIL COURT","LOUISVILLE","KY",40205,38.2049384740001,-85.6883293289999,414,"3106 GAMBREIL COURT, LOUISVILLE, KY, 40205","Match","Non_Exact","3106 GAMBRIEL CT, LOUISVILLE, KY, 40205",96853318,"R"
491415,"3106 GLADE SPRINGS DRIVE","KINGWOOD","TX",77339,30.0650684840001,-95.1939484329999,415,"3106 GLADE SPRINGS DRIVE, KINGWOOD, TX, 77339","Match","Exact","3106 GLADE SPRINGS DR, KINGWOOD, TX, 77339",96048461,"L"
491416,"3106 GLENDALE AVE","BALTIMORE","MD",21234,39.3698129470001,-76.5439934679999,416,"3106 GLENDALE AVE, BALTIMORE, MD, 21234","Match","Exact","3106 GLENDALE AVE, BALTIMORE, MD, 21234",206410959,"L"
491417,"3106 HATHAWAY CT","ATLANTA","GA",30341,33.879846806,-84.241063047,417,"3106 HATHAWAY CT, ATLANTA, GA, 30341","Match","Exact","3106 HATHAWAY CT, ATLANTA, GA, 30341",23361563,"L"
491418,"3106 HILL STREET","NEW SMYRNA BEACH","FL",32169,29.0141841400001,-80.881961282,418,"3106 HILL STREET, NEW SMYRNA BEACH, FL, 32169","Match","Exact","3106 HILL ST, NEW SMYRNA BEACH, FL, 32169",94534579,"R"
491419,"3106 HOLDEN ST","ELGIN","IL",60124,42.0171049160001,-88.3580510469999,419,"3106 HOLDEN ST, ELGIN, IL, 60124","Match","Exact","3106 HOLDEN ST, ELGIN, IL, 60124",119587808,"R"
491420,"3106 HOLDEN","ELGIN","IL",60124,42.0171049160001,-88.3580510469999,420,"3106 HOLDEN, ELGIN, IL, 60124","Match","Non_Exact","3106 HOLDEN ST, ELGIN, IL, 60124",119587808,"R"
491421,"3106 INGERSOLL AVE","DES MOINES","IA",50312,41.5862895820001,-93.6625140099999,421,"3106 INGERSOLL AVE, DES MOINES, IA, 50312","Match","Exact","3106 INGERSOLL AVE, DES MOINES, IA, 50312",65780823,"L"
491422,"3106 IVYDALE ROAD","PEARLAND","TX",77581,29.5488972040001,-95.272325569,422,"3106 IVYDALE ROAD, PEARLAND, TX, 77581","Match","Exact","3106 IVYDALE RD, PEARLAND, TX, 77581",616462680,"R"
491423,"3106 JACOB DRIVE","WYLIE","TX",75098,33.0362961490001,-96.586941205,423,"3106 JACOB DRIVE, WYLIE, TX, 75098","Match","Non_Exact","3106 W JACOB DR, WYLIE, TX, 75098",614178314,"L"
491424,"3106 LAKE AVENUE","CHEVERLY","MD",20785,38.9283007490001,-76.915909595,424,"3106 LAKE AVENUE, CHEVERLY, MD, 20785","Match","Exact","3106 LAKE AVE, CHEVERLY, MD, 20785",76307517,"L"
491425,"3106 LEAFLET WAY","AUGUST","GA",30909,NA,NA,425,"3106 LEAFLET WAY, AUGUST, GA, 30909","No_Match",NA,NA,NA,NA
491426,"3106 LEGEND OAKS","BELTON","TX",76513,NA,NA,426,"3106 LEGEND OAKS, BELTON, TX, 76513","Tie",NA,NA,NA,NA
491427,"3106 LIBERTY HEIGHTS AVENUE","BALTIMORE","MD",21215,39.323333516,-76.6684603099999,427,"3106 LIBERTY HEIGHTS AVENUE, BALTIMORE, MD, 21215","Match","Exact","3106 LIBERTY HEIGHTS AVE, BALTIMORE, MD, 21215",206406487,"R"
491428,"3106 LOMBARDI WAY","CEDAR PARK","TX",78713,30.4578584270001,-97.846636876,428,"3106 LOMBARDI WAY, CEDAR PARK, TX, 78713","Match","Non_Exact","3106 LOMBARDI WAY, CEDAR PARK, TX, 78613",645483401,"R"
491429,"3106 MADISON ST","BELLEVUE","NE",68005,41.126556398,-95.898838561,429,"3106 MADISON ST, BELLEVUE, NE, 68005","Match","Exact","3106 MADISON ST, BELLEVUE, NE, 68005",28471345,"R"
491430,"3106 MALAXIS LANE","RICHMOND","TX",77469,29.554513555,-95.750585424,430,"3106 MALAXIS LANE, RICHMOND, TX, 77469","Match","Exact","3106 MALAXIS LN, RICHMOND, TX, 77469",637975874,"R"
491431,"3106 MARCANDO LANE","UPPER MARLBORO","MD",20774,38.8466691360001,-76.8000800789999,431,"3106 MARCANDO LANE, UPPER MARLBORO, MD, 20774","Match","Exact","3106 MARCANDO LN, UPPER MARLBORO, MD, 20774",76320109,"L"
491432,"3106 MEADOW BAY DRIVE","DICKINSON","TX",77539,29.4562453840001,-95.093698038,432,"3106 MEADOW BAY DRIVE, DICKINSON, TX, 77539","Match","Exact","3106 MEADOW BAY DR, DICKINSON, TX, 77539",96721956,"R"
491433,"3106 MEADOW STREET","LYNN HAVEN","FL",32444,30.2119073490001,-85.63819167,433,"3106 MEADOW STREET, LYNN HAVEN, FL, 32444","Match","Exact","3106 MEADOW ST, LYNN HAVEN, FL, 32444",7091133,"R"
491434,"3106 MOREWOOD RD","FAIRLAWN","OH",44333,41.126797163,-81.620514349,434,"3106 MOREWOOD RD, FAIRLAWN, OH, 44333","Match","Exact","3106 MOREWOOD RD, FAIRLAWN, OH, 44333",61336380,"L"
491435,"3106 MYSTIC FOREST","MISSOURI CITY","TX",77459,29.4947238930001,-95.5428893659999,435,"3106 MYSTIC FOREST, MISSOURI CITY, TX, 77459","Match","Exact","3106 MYSTIC FRST, MISSOURI CITY, TX, 77459",633672357,"L"
491436,"3106 NORMOUNT","BALTIMORE","MD",21226,NA,NA,436,"3106 NORMOUNT, BALTIMORE, MD, 21226","No_Match",NA,NA,NA,NA
491437,"3106 NW APPLE HARVEST","BENTONVILLE","AR",72712,36.3749717600001,-94.2458730549999,437,"3106 NW APPLE HARVEST, BENTONVILLE, AR, 72712","Match","Exact","3106 APPLE HARVEST, BENTONVILLE, AR, 72712",47855934,"R"
491438,"3106 PENNSYLVANIA AVE SE","WASHINGTON","DC",20020,38.8702601030001,-76.9627269389999,438,"3106 PENNSYLVANIA AVE SE, WASHINGTON, DC, 20020","Match","Exact","3106 PENNSYLVANIA AVE SE, WASHINGTON, DC, 20020",647587415,"L"
491439,"3106 RAILWAY DRIVE SW","BYRON CENTER","MI",49315,42.818924113,-85.743254392,439,"3106 RAILWAY DRIVE SW, BYRON CENTER, MI, 49315","Match","Exact","3106 RAILWAY DR SW, BYRON CENTER, MI, 49315",650335281,"L"
491440,"3106 REDONDO DRIVE","TEXAS CITY","TX",77568,29.411666584,-95.047355446,440,"3106 REDONDO DRIVE, TEXAS CITY, TX, 77568","Match","Exact","3106 REDONDO DR, TEXAS CITY, TX, 77568",651028853,"R"
491441,"3106 RIVERFRONT DRIVE","PITTSBURGH","PA",15238,40.4855163720001,-79.875849031,441,"3106 RIVERFRONT DRIVE, PITTSBURGH, PA, 15238","Match","Exact","3106 RIVERFRONT DR, PITTSBURGH, PA, 15238",651468258,"R"
491442,"3106 RIVIERE DU CHIEN LP E","MOBILE","AL",36693,NA,NA,442,"3106 RIVIERE DU CHIEN LP E, MOBILE, AL, 36693","No_Match",NA,NA,NA,NA
491443,"3106 S 1ST ST","RIDGEFIELD","WA",98642,45.8152608820001,-122.717460995,443,"3106 S 1ST ST, RIDGEFIELD, WA, 98642","Match","Exact","3106 S 1ST ST, RIDGEFIELD, WA, 98642",627190809,"R"
491444,"3106 S FRANCISCO WAY","ANTIOCH","CA",94509,37.9892034820001,-121.832039445,444,"3106 S FRANCISCO WAY, ANTIOCH, CA, 94509","Match","Exact","3106 S FRANCISCO WAY, ANTIOCH, CA, 94509",192068080,"R"
491445,"3106 SAMAR DRIVE","SAN ANTONIO","TX",78217,29.5338493350001,-98.439781366,445,"3106 SAMAR DRIVE, SAN ANTONIO, TX, 78217","Match","Exact","3106 SAMAR DR, SAN ANTONIO, TX, 78217",101499048,"R"
491446,"3106 SANDPIPER LN","SAFETY HARBOR","FL",34695,28.0215254450001,-82.6982359149999,446,"3106 SANDPIPER LN, SAFETY HARBOR, FL, 34695","Match","Exact","3106 SANDPIPER LN, SAFETY HARBOR, FL, 34695",124682479,"R"
491447,"3106 SHELBURNE RD","BALTIMORE","MD",21208,39.3716915200001,-76.697795462,447,"3106 SHELBURNE RD, BALTIMORE, MD, 21208","Match","Exact","3106 SHELBURNE RD, BALTIMORE, MD, 21208",206403962,"R"
491448,"3106 SOUTHWEST BLVE APT 5","CHARLOTTE","NC",28216,NA,NA,448,"3106 SOUTHWEST BLVE APT 5, CHARLOTTE, NC, 28216","No_Match",NA,NA,NA,NA
491449,"3106 STANOLIND AVE","MIDLAND","TX",79705,32.0121894160001,-102.119087847,449,"3106 STANOLIND AVE, MIDLAND, TX, 79705","Match","Exact","3106 STANOLIND AVE, MIDLAND, TX, 79705",139578951,"R"
491450,"3106 SUMMERSET DRIVE","BOZEMAN","MT",59715,45.6480414430001,-111.050241073,450,"3106 SUMMERSET DRIVE, BOZEMAN, MT, 59715","Match","Exact","3106 SUMMERSET DR, BOZEMAN, MT, 59715",615078030,"R"
491451,"3106 SW WENTWORTH AVE","BENTONVILLE","AR",72712,36.321321036,-94.248630372,451,"3106 SW WENTWORTH AVE, BENTONVILLE, AR, 72712","Match","Non_Exact","3106 SW WENTWORTH AVE, BENTONVILLE, AR, 72713",619902800,"L"
491452,"3106 SYLVAN AVENUE","OAKLAND","CA",64602,37.800232732,-122.200120357,452,"3106 SYLVAN AVENUE, OAKLAND, CA, 64602","Match","Non_Exact","3106 SYLVAN AVE, OAKLAND, CA, 94602",125004290,"L"
491453,"3106 TERRACE GREENE CIRCLE","BARBOURSVILLE","VA",22923,NA,NA,453,"3106 TERRACE GREENE CIRCLE, BARBOURSVILLE, VA, 22923","No_Match",NA,NA,NA,NA
491454,"3106 TRAPPER DRIVE","SOUTH PARK","PA",15219,40.2892992450001,-79.9884112,454,"3106 TRAPPER DRIVE, SOUTH PARK, PA, 15219","Match","Non_Exact","3106 TRAPPER DR, SOUTH PARK, PA, 15129",51658820,"L"
491455,"3106 TROY AVENUE","CINCINNATI","OH",45213,39.184912545,-84.430207539,455,"3106 TROY AVENUE, CINCINNATI, OH, 45213","Match","Exact","3106 TROY AVE, CINCINNATI, OH, 45213",103929399,"R"
491456,"3106 W 14TH AVE","DENVER","CO",80204,39.7382201980001,-105.026682395,456,"3106 W 14TH AVE, DENVER, CO, 80204","Match","Non_Exact","3106 W 14TH AVE, DENVER, CO, 80204",177389596,"L"
491457,"3106 W UNIVERSITY","DURANT","OK",74701,NA,NA,457,"3106 W UNIVERSITY, DURANT, OK, 74701","No_Match",NA,NA,NA,NA
491458,"3106 WELLINGTON AVENUE","NASHVILLE","TN",37212,36.1396634920001,-86.81341914,458,"3106 WELLINGTON AVENUE, NASHVILLE, TN, 37212","Match","Exact","3106 WELLINGTON AVE, NASHVILLE, TN, 37212",97189929,"R"
491459,"3106 WESLEY STONECREST","LITHONIA","GA",30038,33.690124021,-84.090540131,459,"3106 WESLEY STONECREST, LITHONIA, GA, 30038","Match","Non_Exact","3106 WESLEY STONECREST CIR, LITHONIA, GA, 30038",23400401,"L"
491460,"3106 WEST 1000 NORTH","TREMONTON","UT",84337,41.7252615730001,-112.212805035,460,"3106 WEST 1000 NORTH, TREMONTON, UT, 84337","Match","Exact","3106 W 1000 N, TREMONTON, UT, 84337",651071606,"L"
491461,"3106 WOODLAWN DRIVE","NASHVILLE","TN",37315,36.123595117,-86.823276172,461,"3106 WOODLAWN DRIVE, NASHVILLE, TN, 37315","Match","Non_Exact","3106 WOODLAWN DR, NASHVILLE, TN, 37215",647615613,"R"
491462,"3106 WOODRIDGE AVE NW","CANTON","OH",44717,NA,NA,462,"3106 WOODRIDGE AVE NW, CANTON, OH, 44717","No_Match",NA,NA,NA,NA
491463,"3106 WYNNFIELD DRIVE","HIGH POINT","NC",27265,36.0107489220001,-79.9686981259999,463,"3106 WYNNFIELD DRIVE, HIGH POINT, NC, 27265","Match","Exact","3106 WYNNFIELD DR, HIGH POINT, NC, 27265",131078333,"L"
491464,"3106","DES MOINES","IA",50312,NA,NA,464,"3106, DES MOINES, IA, 50312","No_Match",NA,NA,NA,NA
491465,"31061 260TH AVE NW","ARGYLE","MN",56713,48.326788697,-96.609762527,465,"31061 260TH AVE NW, ARGYLE, MN, 56713","Match","Exact","31061 260TH AVE NW, ARGYLE, MN, 56713",626120877,"L"
491466,"31061 PASEO VALENCIA","SAN JUAN CAPISTRANO","CA",92675,33.5117591540001,-117.637353469,466,"31061 PASEO VALENCIA, SAN JUAN CAPISTRANO, CA, 92675","Match","Non_Exact","31061 PSO VALENCIA, SAN JUAN CAPISTRANO, CA, 92675",144074383,"R"
491467,"31061 STATE HIGHWAY 136","UNIONVILLE","MO",63565,NA,NA,467,"31061 STATE HIGHWAY 136, UNIONVILLE, MO, 63565","No_Match",NA,NA,NA,NA
491468,"31067 NICE","MENTONE","CA",92359,34.066393621,-117.126520478,468,"31067 NICE, MENTONE, CA, 92359","Match","Non_Exact","31067 NICE AVE, MENTONE, CA, 92359",144716430,"R"
491469,"3107 44TH ST","LUBBOCK","TX",79413,33.554211611,-101.881542446,469,"3107 44TH ST, LUBBOCK, TX, 79413","Match","Exact","3107 44TH ST, LUBBOCK, TX, 79413",185253777,"L"
491470,"3107 7TH ST","WAYLAND","MI",49348,42.648223794,-85.613429825,470,"3107 7TH ST, WAYLAND, MI, 49348","Match","Exact","3107 7TH ST, WAYLAND, MI, 49348",643778468,"L"
491471,"3107 94TH STREET","EAST ELMHURST","NY",11369,NA,NA,471,"3107 94TH STREET, EAST ELMHURST, NY, 11369","No_Match",NA,NA,NA,NA
491472,"3107 ADIRONDACK AVE","COLUMBUS","OH",43231,40.08583135,-82.934812316,472,"3107 ADIRONDACK AVE, COLUMBUS, OH, 43231","Match","Exact","3107 ADIRONDACK AVE, COLUMBUS, OH, 43231",218697630,"R"
491473,"3107 AMBROSE AVE","NASHVILLE","TN",37207,36.207421111,-86.74806258,473,"3107 AMBROSE AVE, NASHVILLE, TN, 37207","Match","Exact","3107 AMBROSE AVE, NASHVILLE, TN, 37207",97187219,"L"
491474,"3107 BAYVIEW DRIVE","ALAMEDA","CA",94501,37.7512769910001,-122.239901032,474,"3107 BAYVIEW DRIVE, ALAMEDA, CA, 94501","Match","Exact","3107 BAYVIEW DR, ALAMEDA, CA, 94501",125005595,"L"
491475,"3107 BEECHLAND ROAD","LEWISBURG","KY",42256,37.0368552750001,-86.917333377,475,"3107 BEECHLAND ROAD, LEWISBURG, KY, 42256","Match","Exact","3107 BEECHLAND RD, LEWISBURG, KY, 42256",15842292,"L"
491476,"3107 BEECKWOOD LANE","FALLS CHURCH","VA",22042,NA,NA,476,"3107 BEECKWOOD LANE, FALLS CHURCH, VA, 22042","No_Match",NA,NA,NA,NA
491477,"3107 BRUNSWICK AVE","NEW BERN","NC",28562,35.1256272410001,-77.093077587,477,"3107 BRUNSWICK AVE, NEW BERN, NC, 28562","Match","Exact","3107 BRUNSWICK AVE, NEW BERN, NC, 28562",643622297,"L"
491478,"3107 CANYON POINT CIR","ROSWELL","GA",30076,33.998007527,-84.301165193,478,"3107 CANYON POINT CIR, ROSWELL, GA, 30076","Match","Exact","3107 CANYON POINT CIR, ROSWELL, GA, 30076",644988944,"R"
491479,"3107 CHERRY CREEK D","MISSOURI CITY","TX",77459,29.575109078,-95.522269511,479,"3107 CHERRY CREEK D, MISSOURI CITY, TX, 77459","Match","Non_Exact","3107 CHERRY CREEK DR, MISSOURI CITY, TX, 77459",78275764,"R"
491480,"3107 CLEVELAND AVE NW","WASHINGTON","DC",20008,38.92644706,-77.061861299,480,"3107 CLEVELAND AVE NW, WASHINGTON, DC, 20008","Match","Exact","3107 CLEVELAND AVE NW, WASHINGTON, DC, 20008",76221145,"R"
491481,"3107 DARWIN LN","KOKOMO","IN",46902,40.4513068730001,-86.104284601,481,"3107 DARWIN LN, KOKOMO, IN, 46902","Match","Exact","3107 DARWIN LN, KOKOMO, IN, 46902",27265771,"R"
491482,"3107 DOGWOOD LANE","MARGATE","FL",33063,26.267378992,-80.218949061,482,"3107 DOGWOOD LANE, MARGATE, FL, 33063","Match","Exact","3107 DOGWOOD LN, MARGATE, FL, 33063",114780731,"L"
491483,"3107 DOUGLASDALE ROAD","RICHMOND","VA",23221,37.544911529,-77.485227966,483,"3107 DOUGLASDALE ROAD, RICHMOND, VA, 23221","Match","Exact","3107 DOUGLASDALE RD, RICHMOND, VA, 23221",610894511,"R"
491484,"3107 DUNDEE ROAD","LOUISVILLE","KY",40205,38.2128112240001,-85.691053589,484,"3107 DUNDEE ROAD, LOUISVILLE, KY, 40205","Match","Exact","3107 DUNDEE RD, LOUISVILLE, KY, 40205",96853193,"L"
491485,"3107 E DOWNING STREET","MESA","AZ",85213,33.4294867400001,-111.763206507,485,"3107 E DOWNING STREET, MESA, AZ, 85213","Match","Exact","3107 E DOWNING ST, MESA, AZ, 85213",128378679,"R"
491486,"3107 E HICKORY PARK CIRCLE","SUGAR LAND","TX",77479,29.5748020890001,-95.609091457,486,"3107 E HICKORY PARK CIRCLE, SUGAR LAND, TX, 77479","Match","Exact","3107 E HICKORY PARK CIR, SUGAR LAND, TX, 77479",78286376,"R"
491487,"3107 EAMES LANE","ELK GROVE","CA",95758,NA,NA,487,"3107 EAMES LANE, ELK GROVE, CA, 95758","No_Match",NA,NA,NA,NA
491488,"3107 EASTWAY DRIVE","ISLAND LAKE","IL",60042,42.284496894,-88.193721516,488,"3107 EASTWAY DRIVE, ISLAND LAKE, IL, 60042","Match","Exact","3107 EASTWAY DR, ISLAND LAKE, IL, 60042",649610285,"R"
491489,"3107 ELIM ESTATE DRIVE","COLUMBUS","OH",43232,39.9241922580001,-82.909992704,489,"3107 ELIM ESTATE DRIVE, COLUMBUS, OH, 43232","Match","Non_Exact","3107 ELIM ESTATES DR, COLUMBUS, OH, 43232",641119580,"R"
491490,"3107 FALLING ROCK COURT","CHARLOTTE","NC",28213,35.3024223150001,-80.692901131,490,"3107 FALLING ROCK COURT, CHARLOTTE, NC, 28213","Match","Exact","3107 FALLING ROCK CT, CHARLOTTE, NC, 28213",70562695,"R"
491491,"3107 FOX SQUIRREL DR","ORANGE PARK","FL",32073,30.1850405370001,-81.7991539829999,491,"3107 FOX SQUIRREL DR, ORANGE PARK, FL, 32073","Match","Exact","3107 FOX SQUIRREL DR, ORANGE PARK, FL, 32073",606233756,"R"
491492,"3107 FOXCROFT RD","LITTLE ROCK","AR",72227,34.7807812290001,-92.3627616539999,492,"3107 FOXCROFT RD, LITTLE ROCK, AR, 72227","Match","Exact","3107 FOXCROFT RD, LITTLE ROCK, AR, 72227",83568101,"R"
491493,"3107 GOLFERS WAY","VILLA RICA","GA",30180,33.737189605,-84.892188629,493,"3107 GOLFERS WAY, VILLA RICA, GA, 30180","Match","Exact","3107 GOLFERS WAY, VILLA RICA, GA, 30180",636397545,"L"
491494,"3107 HARVEST RD","JAY","FL",32565,30.881335601,-87.182656822,494,"3107 HARVEST RD, JAY, FL, 32565","Match","Exact","3107 HARVEST RD, JAY, FL, 32565",74575153,"L"
491495,"3107 HAVER HILL LN SE","OWENS CROSS ROADS","AL",35763,34.67606756,-86.457920427,495,"3107 HAVER HILL LN SE, OWENS CROSS ROADS, AL, 35763","Match","Non_Exact","3107 HAVERHILL LN, OWENS CROSS ROADS, AL, 35763",58154174,"R"
491496,"3107 HAWKS RIDGE DRIVE","LAKELAND","FL",33810,28.1139181680001,-82.009852387,496,"3107 HAWKS RIDGE DRIVE, LAKELAND, FL, 33810","Match","Exact","3107 HAWKS RIDGE DR, LAKELAND, FL, 33810",616668196,"R"
491497,"3107 HICKORY GROVE LANE","PEARLAND","TX",77584,29.5860434040001,-95.375903909,497,"3107 HICKORY GROVE LANE, PEARLAND, TX, 77584","Match","Exact","3107 HICKORY GROVE LN, PEARLAND, TX, 77584",116611262,"L"
491498,"3107 HIGHWAY 388","BROOKSVILLE","MS",39739,33.2350287290001,-88.525676814,498,"3107 HIGHWAY 388, BROOKSVILLE, MS, 39739","Match","Non_Exact","3107 STATE HWY 388, BROOKSVILLE, MS, 39739",649555067,"R"
491499,"3107 HILLBURN ROAD","BAKERSFIELD","CA",93306,35.3795389800001,-118.948532912,499,"3107 HILLBURN ROAD, BAKERSFIELD, CA, 93306","Match","Exact","3107 HILLBURN RD, BAKERSFIELD, CA, 93306",109095851,"R"
491500,"3107 HOPE SPRINGS COURT","INDIANAPOLIS","IN",46268,39.8869123960001,-86.214013106,500,"3107 HOPE SPRINGS COURT, INDIANAPOLIS, IN, 46268","Match","Exact","3107 HOPE SPRINGS CT, INDIANAPOLIS, IN, 46268",647086351,"R"
