"ID","Address","City","State","Zip","lat","long","id","input_address","match_indicator","match_type","matched_address","tiger_line_id","tiger_side"
237501,"16524 COWAN RD","SANTA FE","TX",77517,29.408110763,-95.148832321,1,"16524 COWAN RD, SANTA FE, TX, 77517","Match","Exact","16524 COWAN RD, SANTA FE, TX, 77517",96723401,"L"
237502,"16524 E FLOYD AVENUE","AURORA","CO",80013,39.657060556,-104.794464667,2,"16524 E FLOYD AVENUE, AURORA, CO, 80013","Match","Exact","16524 E FLOYD AVE, AURORA, CO, 80013",177357376,"R"
237503,"16524 FRAZIER ROAD","PLANO","IL",60545,41.66615276,-88.575741834,3,"16524 FRAZIER ROAD, PLANO, IL, 60545","Match","Exact","16524 FRAZIER RD, PLANO, IL, 60545",611666811,"R"
237504,"16524 GIBSON RD SW","TENINO","WA",98589,46.847834612,-122.957781376,4,"16524 GIBSON RD SW, TENINO, WA, 98589","Match","Exact","16524 GIBSON RD SW, TENINO, WA, 98589",180964769,"R"
237505,"16524 JAGUAR AVE","LAKEVILLE","MN",55044,44.7100274040001,-93.2714914159999,5,"16524 JAGUAR AVE, LAKEVILLE, MN, 55044","Match","Exact","16524 JAGUAR AVE, LAKEVILLE, MN, 55044",37928484,"R"
237506,"16524 MONTGOMERY CT","FONTANA","CA",92336,34.119399855,-117.439659452,6,"16524 MONTGOMERY CT, FONTANA, CA, 92336","Match","Non_Exact","16524 MONTGOMERY AVE, FONTANA, CA, 92336",144642396,"L"
237507,"16524 SAWYER AVENUE","MARKHAM","IL",60428,41.589361415,-87.69572002,7,"16524 SAWYER AVENUE, MARKHAM, IL, 60428","Match","Exact","16524 SAWYER AVE, MARKHAM, IL, 60428",111704907,"R"
237508,"16524 W 132ND","OLATHE","KS",66062,NA,NA,8,"16524 W 132ND, OLATHE, KS, 66062","Tie",NA,NA,NA,NA
237509,"16525 149TH CT","BONNER SPRINGS","KS",66012,39.0735681190001,-94.926731833,9,"16525 149TH CT, BONNER SPRINGS, KS, 66012","Match","Exact","16525 149TH CT, BONNER SPRINGS, KS, 66012",91408171,"L"
237510,"16525 84TH AVENUE CT E","PUYALLUP","WA",98375,47.106208424,-122.316380849,10,"16525 84TH AVENUE CT E, PUYALLUP, WA, 98375","Match","Exact","16525 84TH AVENUE CT E, PUYALLUP, WA, 98375",184743792,"L"
237511,"16525 E AVE OF THE FOUNTAINS 107","FOUNTAIN HILLS","AZ",85268,33.6058963730001,-111.723782116,11,"16525 E AVE OF THE FOUNTAINS 107, FOUNTAIN HILLS, AZ, 85268","Match","Non_Exact","16525 E AVE OF THE FOUNTAINS, FOUNTAIN HILLS, AZ, 85268",649876690,"R"
237512,"16525 GOVERNOR BRIDGE ROAD UNIT 303","BOWIE","MD",20716,NA,NA,12,"16525 GOVERNOR BRIDGE ROAD UNIT 303, BOWIE, MD, 20716","No_Match",NA,NA,NA,NA
237513,"16525 GOVERNORS BRIDGE ROAD STE 206","BOWIE","MD",20721,NA,NA,13,"16525 GOVERNORS BRIDGE ROAD STE 206, BOWIE, MD, 20721","No_Match",NA,NA,NA,NA
237514,"16525 MAPLEWILD AVE SW","BURIEN","WA",98166,47.455004961,-122.372229059,14,"16525 MAPLEWILD AVE SW, BURIEN, WA, 98166","Match","Exact","16525 MAPLEWILD AVE SW, BURIEN, WA, 98166",239758970,"R"
237515,"16525 MCDONALD RD","NEHALEM","OR",97131,45.727935201,-123.857575239,15,"16525 MCDONALD RD, NEHALEM, OR, 97131","Match","Exact","16525 MCDONALD RD, NEHALEM, OR, 97131",156377064,"R"
237516,"16525 N 71ST AVE","PEORIA","AZ",85382,33.634664001,-112.211054951,16,"16525 N 71ST AVE, PEORIA, AZ, 85382","Match","Exact","16525 N 71ST AVE, PEORIA, AZ, 85382",128861870,"R"
237517,"16525 SW 107 CT","MIAMI","FL",33152,25.6164421620001,-80.3664859529999,17,"16525 SW 107 CT, MIAMI, FL, 33152","Match","Non_Exact","16525 SW 107TH CT, MIAMI, FL, 33157",115982541,"L"
237518,"16525 TAMMANY LANE","WILLIAMSPORT","MD",21795,39.6102140670001,-77.795690048,18,"16525 TAMMANY LANE, WILLIAMSPORT, MD, 21795","Match","Exact","16525 TAMMANY LN, WILLIAMSPORT, MD, 21795",617515373,"L"
237519,"16525 VANOWEN ST 201","VAN NUYS","CA",91406,34.19390323,-118.493004557,19,"16525 VANOWEN ST 201, VAN NUYS, CA, 91406","Match","Exact","16525 VANOWEN ST, VAN NUYS, CA, 91406",141556293,"R"
237520,"16526 CYPRESS BRIDGE DR","CYPRESS","TX",77429,29.990879744,-95.679066368,20,"16526 CYPRESS BRIDGE DR, CYPRESS, TX, 77429","Match","Exact","16526 CYPRESS BRIDGE DR, CYPRESS, TX, 77429",627521781,"R"
237521,"16526 FOLIAGE AVE W","ROSEMOUNT","MN",55068,44.710133338,-93.202364202,21,"16526 FOLIAGE AVE W, ROSEMOUNT, MN, 55068","Match","Exact","16526 FOLIAGE AVE W, ROSEMOUNT, MN, 55068",37907510,"R"
237522,"16526 LACEY LANE","MISSOURI","TX",77489,29.6368241230001,-95.5348262099999,22,"16526 LACEY LANE, MISSOURI, TX, 77489","Match","Non_Exact","16526 LACEY LN, MISSOURI CITY, TX, 77489",96354167,"L"
237523,"16526 LACROSS LN","CHESTERFIELD","MO",63005,38.649988067,-90.58082653,23,"16526 LACROSS LN, CHESTERFIELD, MO, 63005","Match","Exact","16526 LACROSS LN, CHESTERFIELD, MO, 63005",635568170,"R"
237524,"16526 MANDATE DR","HOUSTON","TX",77049,29.8094145270001,-95.1361154699999,24,"16526 MANDATE DR, HOUSTON, TX, 77049","Match","Exact","16526 MANDATE DR, HOUSTON, TX, 77049",645178318,"R"
237525,"16526 MILL DR","ROSHARON","TX",77354,29.3484962040001,-95.541523328,25,"16526 MILL DR, ROSHARON, TX, 77354","Match","Non_Exact","16526 MILL DR, ROSHARON, TX, 77583",116610478,"R"
237526,"16526 W 78TH ST BOX106","EDEN PRAIRIE","MN",55346,44.862758684,-93.487356748,26,"16526 W 78TH ST BOX106, EDEN PRAIRIE, MN, 55346","Match","Non_Exact","16526 W 78TH ST, EDEN PRAIRIE, MN, 55346",613542817,"R"
237527,"16526 W 78TH ST NUM 146","EDEN PRAIRIE","MN",55346,44.862758684,-93.487356748,27,"16526 W 78TH ST NUM 146, EDEN PRAIRIE, MN, 55346","Match","Non_Exact","16526 W 78TH ST, EDEN PRAIRIE, MN, 55346",613542817,"R"
237528,"16526 W 78TH STREET","EDEN PRAIRIE","MN",55346,44.862758684,-93.487356748,28,"16526 W 78TH STREET, EDEN PRAIRIE, MN, 55346","Match","Exact","16526 W 78TH ST, EDEN PRAIRIE, MN, 55346",613542817,"R"
237529,"16527 PARK LORNE","HOUSTON","TX",77084,29.8325593820001,-95.651868161,29,"16527 PARK LORNE, HOUSTON, TX, 77084","Match","Non_Exact","16527 PARK LORNE DR, HOUSTON, TX, 77084",96016081,"R"
237530,"16527 W IRONWOOD ST","SURPRISE","AZ",85300,33.6279894040001,-112.415176268,30,"16527 W IRONWOOD ST, SURPRISE, AZ, 85300","Match","Non_Exact","16527 W IRONWOOD ST, SURPRISE, AZ, 85388",243972240,"L"
237531,"16527 W IRONWOOD ST","SURPRISE","AZ",85388,33.6279894040001,-112.415176268,31,"16527 W IRONWOOD ST, SURPRISE, AZ, 85388","Match","Exact","16527 W IRONWOOD ST, SURPRISE, AZ, 85388",243972240,"L"
237532,"16528 300TH ROAD","UNIONVILLE","MO",63565,40.498509718,-92.994937745,32,"16528 300TH ROAD, UNIONVILLE, MO, 63565","Match","Exact","16528 300TH RD, UNIONVILLE, MO, 63565",54685416,"R"
237533,"16528 8TH AVE NE","SHORELINE","WA",98155,47.7490228870001,-122.32122825,33,"16528 8TH AVE NE, SHORELINE, WA, 98155","Match","Exact","16528 8TH AVE NE, SHORELINE, WA, 98155",239760982,"R"
237534,"16528 CHANDLER PARK DRIVE","DETROIT","MI",48224,42.4086448730001,-82.9392096,34,"16528 CHANDLER PARK DRIVE, DETROIT, MI, 48224","Match","Exact","16528 CHANDLER PARK DR, DETROIT, MI, 48224",95719244,"R"
237535,"16529 ARROWHEAD TRAIL","CLERMONT","FL",35711,28.560303699,-81.683718243,35,"16529 ARROWHEAD TRAIL, CLERMONT, FL, 35711","Match","Non_Exact","16529 ARROWHEAD TRL, CLERMONT, FL, 34711",94204032,"L"
237536,"16529 ESTRELLA AVE","GARDENA","CA",90247,33.881370175,-118.285552344,36,"16529 ESTRELLA AVE, GARDENA, CA, 90247","Match","Exact","16529 ESTRELLA AVE, GARDENA, CA, 90247",141667658,"R"
237537,"16529 HYLAND COURT","LAKEVILLE","MN",55044,44.709673223,-93.24489519,37,"16529 HYLAND COURT, LAKEVILLE, MN, 55044","Match","Exact","16529 HYLAND CT, LAKEVILLE, MN, 55044",37925255,"R"
237538,"16529 TERRACE HOLLOW LANE","SUGAR LAND","TX",77498,29.6466291790001,-95.671438122,38,"16529 TERRACE HOLLOW LANE, SUGAR LAND, TX, 77498","Match","Exact","16529 TERRACE HOLLOW LN, SUGAR LAND, TX, 77498",78332537,"L"
237539,"1653 18000 ROAD","PARSONS","KS",67357,37.252040245,-95.2407872969999,39,"1653 18000 ROAD, PARSONS, KS, 67357","Match","Exact","1653 18000 RD, PARSONS, KS, 67357",13737404,"L"
237540,"1653 7TH ST 149","SANTA MONICA","CA",90406,34.0150134290001,-118.487961877,40,"1653 7TH ST 149, SANTA MONICA, CA, 90406","Match","Non_Exact","1653 7TH ST, SANTA MONICA, CA, 90401",141559641,"L"
237541,"1653 ALEMEDA AVE SW","BIRMINGHAM","AL",35211,33.482722661,-86.857515502,41,"1653 ALEMEDA AVE SW, BIRMINGHAM, AL, 35211","Match","Exact","1653 ALEMEDA AVE SW, BIRMINGHAM, AL, 35211",81559395,"L"
237542,"1653 AMBERWOOD DR APT12","SOUTH PASADENA","CA",91016,34.1219825920001,-118.149535351,42,"1653 AMBERWOOD DR APT12, SOUTH PASADENA, CA, 91016","Match","Non_Exact","1653 AMBERWOOD DR, SOUTH PASADENA, CA, 91030",141630271,"L"
237543,"1653 APPLE DRIVE","MYRTLE POINT","OR",97458,43.0655698410001,-124.130968673,43,"1653 APPLE DRIVE, MYRTLE POINT, OR, 97458","Match","Exact","1653 APPLE DR, MYRTLE POINT, OR, 97458",136996254,"L"
237544,"1653 BARNES AVENUE","BRONX","NY",10462,40.8442126740001,-73.861955968,44,"1653 BARNES AVENUE, BRONX, NY, 10462","Match","Exact","1653 BARNES AVE, BRONX, NY, 10462",80304642,"L"
237545,"1653 BEETHOVEN DR","WESTLAKE","OH",44145,41.46300058,-81.915922628,45,"1653 BEETHOVEN DR, WESTLAKE, OH, 44145","Match","Exact","1653 BEETHOVEN DR, WESTLAKE, OH, 44145",61138989,"L"
237546,"1653 BILLY CASPER","EL PASO","TX",79936,31.7608581150001,-106.312855365,46,"1653 BILLY CASPER, EL PASO, TX, 79936","Match","Non_Exact","1653 BILLY CASPER DR, EL PASO, TX, 79936",189349329,"R"
237547,"1653 BLOSSOM HILL RD","SAN JOSE","CA",95124,37.236352604,-121.90654066,47,"1653 BLOSSOM HILL RD, SAN JOSE, CA, 95124","Match","Exact","1653 BLOSSOM HILL RD, SAN JOSE, CA, 95124",122946809,"R"
237548,"1653 CARDIFF RD","UPPER ARLINGTON","OH",43221,40.004365627,-83.0537785879999,48,"1653 CARDIFF RD, UPPER ARLINGTON, OH, 43221","Match","Exact","1653 CARDIFF RD, UPPER ARLINGTON, OH, 43221",218690110,"L"
237549,"1653 CATON RD","CORNING","NY",14830,42.0796811280001,-77.043058824,49,"1653 CATON RD, CORNING, NY, 14830","Match","Exact","1653 CATON RD, CORNING, NY, 14830",638554118,"L"
237550,"1653 CLEMSON DRIVE","BRUNSWICK","OH",44212,41.2302578970001,-81.836500856,50,"1653 CLEMSON DRIVE, BRUNSWICK, OH, 44212","Match","Exact","1653 CLEMSON DR, BRUNSWICK, OH, 44212",58689753,"R"
237551,"1653 COLEMAN STREET","BROOKLYN","NY",11234,40.617747836,-73.9340582739999,51,"1653 COLEMAN STREET, BROOKLYN, NY, 11234","Match","Exact","1653 COLEMAN ST, BROOKLYN, NY, 11234",59090405,"L"
237552,"1653 DILAR DRIVE","GROVE","OK",74344,36.5604282910001,-94.795948068,52,"1653 DILAR DRIVE, GROVE, OK, 74344","Match","Exact","1653 DILAR DR, GROVE, OK, 74344",49672991,"R"
237553,"1653 DORRIS CREEK RD","DONNELLSON","IL",62019,38.986917094,-89.5042062489999,53,"1653 DORRIS CREEK RD, DONNELLSON, IL, 62019","Match","Exact","1653 DORRIS CREEK RD, DONNELLSON, IL, 62019",101032738,"L"
237554,"1653 DOUGLAS","TRENTON","MI",48183,42.153787869,-83.215861449,54,"1653 DOUGLAS, TRENTON, MI, 48183","Match","Non_Exact","1653 DOUGLAS ST, TRENTON, MI, 48183",95505581,"L"
237555,"1653 E 74TH PLACE 3","CHICAGO","IL",60649,41.7596946940001,-87.584020123,55,"1653 E 74TH PLACE 3, CHICAGO, IL, 60649","Match","Non_Exact","1653 E 74TH PL, CHICAGO, IL, 60649",605555352,"R"
237556,"1653 E FONTANA DR","CASA GRANDE","AZ",85122,32.942495562,-111.715030551,56,"1653 E FONTANA DR, CASA GRANDE, AZ, 85122","Match","Exact","1653 E FONTANA DR, CASA GRANDE, AZ, 85122",631777209,"L"
237557,"1653 E GARY ST","MESA","AZ",85203,33.4391595290001,-111.795208642,57,"1653 E GARY ST, MESA, AZ, 85203","Match","Exact","1653 E GARY ST, MESA, AZ, 85203",128244747,"R"
237558,"1653 E PARK AVE","GILBERT","AZ",85234,33.354620636,-111.754413828,58,"1653 E PARK AVE, GILBERT, AZ, 85234","Match","Exact","1653 E PARK AVE, GILBERT, AZ, 85234",128809364,"L"
237559,"1653 FLAG LN","VALE","NC",28168,35.5066057610001,-81.336046731,59,"1653 FLAG LN, VALE, NC, 28168","Match","Exact","1653 FLAG LN, VALE, NC, 28168",69540752,"L"
237560,"1653 GOLDENROD","HOUGHTON LAKE","MI",48629,44.278916248,-84.755374391,60,"1653 GOLDENROD, HOUGHTON LAKE, MI, 48629","Match","Non_Exact","1653 GOLDENROD DR, HOUGHTON LAKE, MI, 48629",179425405,"L"
237561,"1653 HARRIS DRIVE","MESA","AZ",85204,33.3853623320001,-111.796932476,61,"1653 HARRIS DRIVE, MESA, AZ, 85204","Match","Non_Exact","1653 S HARRIS DR, MESA, AZ, 85204",243913431,"L"
237562,"1653 HOLLAND AVE","BRONX","NY",10462,40.8437252430001,-73.863652929,62,"1653 HOLLAND AVE, BRONX, NY, 10462","Match","Exact","1653 HOLLAND AVE, BRONX, NY, 10462",80304635,"L"
237563,"1653 HUNTINGTON DRIVE SOUTH","PASADENA","CA",91030,34.104083024,-118.14740095,63,"1653 HUNTINGTON DRIVE SOUTH, PASADENA, CA, 91030","Match","Non_Exact","1653 HUNTINGTON DR, SOUTH PASADENA, CA, 91030",141630541,"R"
237564,"1653 KESSINGTON CT","FORT MYERS","FL",33907,26.5920791770001,-81.8789742769999,64,"1653 KESSINGTON CT, FORT MYERS, FL, 33907","Match","Non_Exact","1653 KENSINGTON CT, FORT MYERS, FL, 33907",118025170,"L"
237565,"1653 KIDDER AVE","FAIRFIELD","CA",94533,38.2599247790001,-122.030197638,65,"1653 KIDDER AVE, FAIRFIELD, CA, 94533","Match","Exact","1653 KIDDER AVE, FAIRFIELD, CA, 94533",192578540,"L"
237566,"1653 KIDDER AVENUE","FAIRFIELD","CA",94533,38.2599247790001,-122.030197638,66,"1653 KIDDER AVENUE, FAIRFIELD, CA, 94533","Match","Exact","1653 KIDDER AVE, FAIRFIELD, CA, 94533",192578540,"L"
237567,"1653 KIVALINA STREET","FAIRBANKS","AK",99701,64.833789413,-147.788803875,67,"1653 KIVALINA STREET, FAIRBANKS, AK, 99701","Match","Non_Exact","1653 KIVALINA ST, FAIRBANKS, AK, 99709",190892666,"L"
237568,"1653 LITITZ PIKE NUM 1100","LANCASTER","PA",17601,NA,NA,68,"1653 LITITZ PIKE NUM 1100, LANCASTER, PA, 17601","No_Match",NA,NA,NA,NA
237569,"1653 LITITZ PIKE UNIT 212","LANCASTER","CA",17601,NA,NA,69,"1653 LITITZ PIKE UNIT 212, LANCASTER, CA, 17601","No_Match",NA,NA,NA,NA
237570,"1653 LITITZ PIKE UNIT 223","LANCASTER","FL",17601,NA,NA,70,"1653 LITITZ PIKE UNIT 223, LANCASTER, FL, 17601","No_Match",NA,NA,NA,NA
237571,"1653 MANSVILLE TER","NORTH FORT MYERS","FL",33903,26.6468899170001,-81.909530274,71,"1653 MANSVILLE TER, NORTH FORT MYERS, FL, 33903","Match","Exact","1653 MANSVILLE TER, N FORT MYERS, FL, 33903",118081090,"L"
237572,"1653 MASON KNOLL ROAD","SAINT LOUIS","MO",63131,38.6137259560001,-90.472738621,72,"1653 MASON KNOLL ROAD, SAINT LOUIS, MO, 63131","Match","Exact","1653 MASON KNOLL RD, SAINT LOUIS, MO, 63131",100123918,"L"
237573,"1653 MERRIMAN ROAD SUITE 203","AKRON","OH",44313,41.1334761300001,-81.549255386,73,"1653 MERRIMAN ROAD SUITE 203, AKRON, OH, 44313","Match","Exact","1653 MERRIMAN RD, AKRON, OH, 44313",61338876,"R"
237574,"1653 MILL SPRINGS ROAD","NEW MARKET","TN",37820,36.1425257390001,-83.530222529,74,"1653 MILL SPRINGS ROAD, NEW MARKET, TN, 37820","Match","Exact","1653 MILL SPRINGS RD, NEW MARKET, TN, 37820",608230706,"L"
237575,"1653 N 900TH ST","FLAT ROCK","IL",62427,38.8738806100001,-87.7759084909999,75,"1653 N 900TH ST, FLAT ROCK, IL, 62427","Match","Exact","1653 N 900 ST, FLAT ROCK, IL, 62427",650251145,"R"
237576,"1653 N OAKFAIR","SPRINGFIELD","MO",65802,37.226014272,-93.198174323,76,"1653 N OAKFAIR, SPRINGFIELD, MO, 65802","Match","Non_Exact","1653 N OAKFAIR PL, SPRINGFIELD, MO, 65802",624146800,"L"
237577,"1653 N PRAIRIE CREEK ROAD","DALLAS","TX",75217,32.7403974530001,-96.66567902,77,"1653 N PRAIRIE CREEK ROAD, DALLAS, TX, 75217","Match","Exact","1653 N PRAIRIE CREEK RD, DALLAS, TX, 75217",102961601,"L"
237578,"1653 N SUNSET BLVD","SAFFORD","AZ",85546,32.8558962210001,-109.703897716,78,"1653 N SUNSET BLVD, SAFFORD, AZ, 85546","Match","Exact","1653 N SUNSET BLVD, SAFFORD, AZ, 85546",128012989,"L"
237579,"1653 OBLOCK ROAD","PITTSBURGH","PA",15239,40.471681754,-79.7194503429999,79,"1653 OBLOCK ROAD, PITTSBURGH, PA, 15239","Match","Exact","1653 OBLOCK RD, PITTSBURGH, PA, 15239",605184837,"L"
237580,"1653 OLD WARRIOR RD","SUMITON","AL",35148,33.738121649,-87.051593844,80,"1653 OLD WARRIOR RD, SUMITON, AL, 35148","Match","Exact","1653 OLD WARRIOR RD, SUMITON, AL, 35148",120601143,"R"
237581,"1653 ORLEANS QUARTERS","BRUSLY","LA",70719,30.399429222,-91.2561090839999,81,"1653 ORLEANS QUARTERS, BRUSLY, LA, 70719","Match","Non_Exact","1653 ORLEANS QUARTERS DR, BRUSLY, LA, 70719",606643632,"L"
237582,"1653 ORLEANS ST","STILLWATER","MN",55082,NA,NA,82,"1653 ORLEANS ST, STILLWATER, MN, 55082","No_Match",NA,NA,NA,NA
237583,"1653 PANORAMA DR","ARCATA","CA",95521,40.861282848,-124.062119341,83,"1653 PANORAMA DR, ARCATA, CA, 95521","Match","Exact","1653 PANORAMA DR, ARCATA, CA, 95521",651366030,"R"
237584,"1653 PARK ROAD NW APT 2","WASHINGTON","DC",20010,38.9321401880001,-77.0376962129999,84,"1653 PARK ROAD NW APT 2, WASHINGTON, DC, 20010","Match","Exact","1653 PARK RD NW, WASHINGTON, DC, 20010",76222850,"R"
237585,"1653 PHEASANTWOOD TRAIL","NORTHFIELD","MN",55057,44.4424214040001,-93.1745005349999,85,"1653 PHEASANTWOOD TRAIL, NORTHFIELD, MN, 55057","Match","Exact","1653 PHEASANTWOOD TRL, NORTHFIELD, MN, 55057",37335516,"L"
237586,"1653 PLUM CREEK DRIVE","MIDLOTHIAN","TX",76065,32.446426849,-96.979804079,86,"1653 PLUM CREEK DRIVE, MIDLOTHIAN, TX, 76065","Match","Exact","1653 PLUM CREEK DR, MIDLOTHIAN, TX, 76065",625050077,"L"
237587,"1653 PORTLAND AVENUE","LOUISVILLE","KY",40203,38.263690077,-85.776189572,87,"1653 PORTLAND AVENUE, LOUISVILLE, KY, 40203","Match","Exact","1653 PORTLAND AVE, LOUISVILLE, KY, 40203",96842007,"R"
237588,"1653 S AVENTINE CT","PORTLAND","OR",97219,NA,NA,88,"1653 S AVENTINE CT, PORTLAND, OR, 97219","No_Match",NA,NA,NA,NA
237589,"1653 S E TRUMPET LANE","PORT SAINT LUCIE","FL",34983,27.2903333630001,-80.3419357609999,89,"1653 S E TRUMPET LANE, PORT SAINT LUCIE, FL, 34983","Match","Exact","1653 SE TRUMPET LN, PORT ST LUCIE, FL, 34983",120152201,"L"
237590,"1653 S FARM ROAD 123","SPRINGFIELD","MO",65807,37.1858958720001,-93.365141152,90,"1653 S FARM ROAD 123, SPRINGFIELD, MO, 65807","Match","Non_Exact","1653 S FARM RD 123, SPRINGFIELD, MO, 65807",635576988,"L"
237591,"1653 SQUIRE DR SW","MARIETTA","GA",30008,33.869800265,-84.602289561,91,"1653 SQUIRE DR SW, MARIETTA, GA, 30008","Match","Exact","1653 SQUIRE DR SW, MARIETTA, GA, 30008",17173818,"L"
237592,"1653 STATE STREET","CALUMET CITY","IL",60409,41.6301107080001,-87.564918393,92,"1653 STATE STREET, CALUMET CITY, IL, 60409","Match","Exact","1653 STATE ST, CALUMET CITY, IL, 60409",111779719,"L"
237593,"1653 TIGER CREEK LN W","JACKSONVILLE","FL",32225,NA,NA,93,"1653 TIGER CREEK LN W, JACKSONVILLE, FL, 32225","No_Match",NA,NA,NA,NA
237594,"1653 TREETOP DRIVE","ERIE","PA",16509,NA,NA,94,"1653 TREETOP DRIVE, ERIE, PA, 16509","No_Match",NA,NA,NA,NA
237595,"1653 W CONGRESS PARKWAY","CHICAGO","IL",60612,NA,NA,95,"1653 W CONGRESS PARKWAY, CHICAGO, IL, 60612","No_Match",NA,NA,NA,NA
237596,"1653 W HUNTERS CREEK","LAPEER","MI",48446,42.9852588420001,-83.323205846,96,"1653 W HUNTERS CREEK, LAPEER, MI, 48446","Match","Non_Exact","1653 W HUNTERS CRK RD, LAPEER, MI, 48446",110469140,"R"
237597,"1653 W PINE ST","COAL TOWNSHIP","PA",17866,40.784815774,-76.57759097,97,"1653 W PINE ST, COAL TOWNSHIP, PA, 17866","Match","Exact","1653 W PINE ST, COAL TOWNSHIP, PA, 17866",48060934,"L"
237598,"1653 W STATE ROAD 234","FORTVILLE","IN",46040,NA,NA,98,"1653 W STATE ROAD 234, FORTVILLE, IN, 46040","Tie",NA,NA,NA,NA
237599,"1653 WATAUGA AVENUE","ORLANDO","FL",32803,28.5227510350001,-81.33519592,99,"1653 WATAUGA AVENUE, ORLANDO, FL, 32803","Match","Non_Exact","1653 WATAUGA AVE, ORLANDO, FL, 32812",606170276,"L"
237600,"1653 WAVERLY ST","DETROIT","MI",48238,42.3963978900001,-83.111046274,100,"1653 WAVERLY ST, DETROIT, MI, 48238","Match","Exact","1653 WAVERLY ST, DETROIT, MI, 48238",95462437,"L"
237601,"1653 WISHER ROAD","PATOKA","IL",62875,38.721353111,-89.063175273,101,"1653 WISHER ROAD, PATOKA, IL, 62875","Match","Exact","1653 WISHER RD, PATOKA, IL, 62875",93045741,"R"
237602,"1653 WOOSTER STREET","LOS ANGELES","CA",90035,34.049388621,-118.383357168,102,"1653 WOOSTER STREET, LOS ANGELES, CA, 90035","Match","Non_Exact","1653 S WOOSTER ST, LOS ANGELES, CA, 90035",141573057,"R"
237603,"1653-4 PARK MEADOWS DRIVE","FT MYERS","FL",33908,26.5670812380001,-81.880098758,103,"1653-4 PARK MEADOWS DRIVE, FT MYERS, FL, 33908","Match","Non_Exact","1653 PARK MEADOWS DR, FORT MYERS, FL, 33907",650024714,"R"
237604,"16530 41ST PL W","LYNNWOOD","WA",98037,47.848570264,-122.288854672,104,"16530 41ST PL W, LYNNWOOD, WA, 98037","Match","Exact","16530 41ST PL W, LYNNWOOD, WA, 98037",606935166,"R"
237605,"16530 COUNTY LINE ROAD","UMATILLA","FL",32784,28.9587742040001,-81.6835671649999,105,"16530 COUNTY LINE ROAD, UMATILLA, FL, 32784","Match","Exact","16530 COUNTY LINE RD, UMATILLA, FL, 32784",638650356,"L"
237606,"16530 NW 18TH AVE","MIAMI GARDENS","FL",33054,25.925218564,-80.230517471,106,"16530 NW 18TH AVE, MIAMI GARDENS, FL, 33054","Match","Exact","16530 NW 18TH AVE, MIAMI GARDENS, FL, 33054",116028627,"L"
237607,"16530 SHEFFIELD RUN DRIVE","HOUSTON","TX",77084,29.8495836540001,-95.650018591,107,"16530 SHEFFIELD RUN DRIVE, HOUSTON, TX, 77084","Match","Exact","16530 SHEFFIELD RUN DR, HOUSTON, TX, 77084",645201094,"L"
237608,"16530 SW 137TH APT 1122","MIAMI","FL",33177,NA,NA,108,"16530 SW 137TH APT 1122, MIAMI, FL, 33177","No_Match",NA,NA,NA,NA
237609,"16530 VENTURA BLVD 305","ENCINO","CA",91436,34.157650045,-118.492999046,109,"16530 VENTURA BLVD 305, ENCINO, CA, 91436","Match","Exact","16530 VENTURA BLVD, ENCINO, CA, 91436",142714839,"L"
237610,"16530 VENTURA BLVD","ENCINO","CA",91436,34.157650045,-118.492999046,110,"16530 VENTURA BLVD, ENCINO, CA, 91436","Match","Exact","16530 VENTURA BLVD, ENCINO, CA, 91436",142714839,"L"
237611,"16531 A E MULLINEX RD","WOODBINE","MD",21797,39.318573717,-77.0896471409999,111,"16531 A E MULLINEX RD, WOODBINE, MD, 21797","Match","Non_Exact","16531 AE MULLINIX RD, WOODBINE, MD, 21797",158969052,"L"
237612,"16531 ARDREY PLACE DR","CHARLOTTE","NC",28277,35.0325978930001,-80.83656064,112,"16531 ARDREY PLACE DR, CHARLOTTE, NC, 28277","Match","Exact","16531 ARDREY PLACE DR, CHARLOTTE, NC, 28277",648571633,"R"
237613,"16531 DENVER MILLER RD","SUGAR LAND","TX",77498,29.6546089330001,-95.675296088,113,"16531 DENVER MILLER RD, SUGAR LAND, TX, 77498","Match","Exact","16531 DENVER MILLER RD, SUGAR LAND, TX, 77498",227745235,"R"
237614,"16531 LONESOME QUAIL DR","MISSOURI CITY","TX",77489,29.586992917,-95.519680227,114,"16531 LONESOME QUAIL DR, MISSOURI CITY, TX, 77489","Match","Exact","16531 LONESOME QUAIL DR, MISSOURI CITY, TX, 77489",78271097,"R"
237615,"16531 OHIO","DETROIT","MI",48221,42.41276207,-83.155785922,115,"16531 OHIO, DETROIT, MI, 48221","Match","Non_Exact","16531 OHIO ST, DETROIT, MI, 48221",95425992,"L"
237616,"16531 S  DENVER AVE APT 4","GARDENA","CA",90248,33.8814066830001,-118.283719947,116,"16531 S  DENVER AVE APT 4, GARDENA, CA, 90248","Match","Non_Exact","16531 S DENVER AVE, GARDENA, CA, 90248",141667662,"R"
237617,"16532 120TH AVE SE","RENTON","WA",98058,47.4544522780001,-122.180783941,117,"16532 120TH AVE SE, RENTON, WA, 98058","Match","Exact","16532 120TH AVE SE, RENTON, WA, 98058",186633638,"L"
237618,"16532 213TH PL NE","WOODINVILLE","WA",98077,47.74813013,-122.051706102,118,"16532 213TH PL NE, WOODINVILLE, WA, 98077","Match","Exact","16532 213TH PL NE, WOODINVILLE, WA, 98077",186616409,"R"
237619,"16532 FOREST PINE DRIVE","WILDWOOD","MO",63011,38.586748076,-90.6249973389999,119,"16532 FOREST PINE DRIVE, WILDWOOD, MO, 63011","Match","Exact","16532 FOREST PINE DR, WILDWOOD, MO, 63011",100109391,"R"
237620,"16532 PLAINVIEW","DETROIT","MI",48219,42.410360423,-83.2367320549999,120,"16532 PLAINVIEW, DETROIT, MI, 48219","Match","Non_Exact","16532 PLAINVIEW AVE, DETROIT, MI, 48219",95422279,"R"
237621,"16533 178TH AVE NE","WOODINVILLE","WA",98072,47.7477835500001,-122.102500231,121,"16533 178TH AVE NE, WOODINVILLE, WA, 98072","Match","Exact","16533 178TH AVE NE, WOODINVILLE, WA, 98072",239777182,"L"
237622,"16533 BELLBROOK STREET","COVINA","CA",91722,34.0980536370001,-117.924392867,122,"16533 BELLBROOK STREET, COVINA, CA, 91722","Match","Non_Exact","16533 E BELLBROOK ST, COVINA, CA, 91722",142780948,"L"
237623,"16533 CADWELL ST","LA PUENTE","CA",91744,34.0367560380001,-117.927457303,123,"16533 CADWELL ST, LA PUENTE, CA, 91744","Match","Non_Exact","16533 E CADWELL ST, LA PUENTE, CA, 91744",141714156,"L"
237624,"16533 FRAIZER ST NE","HAM LAKE","MN",55304,45.2704558730001,-93.159617471,124,"16533 FRAIZER ST NE, HAM LAKE, MN, 55304","Match","Exact","16533 FRAIZER ST NE, HAM LAKE, MN, 55304",97550299,"L"
237625,"16533 KALO COURT","APPLE VALLEY","CA",92307,34.551461653,-117.27707561,125,"16533 KALO COURT, APPLE VALLEY, CA, 92307","Match","Exact","16533 KALO CT, APPLE VALLEY, CA, 92307",144570672,"L"
237626,"16533 LOCK 17 ROAD","BROOKWOOD","AL",35444,33.3843436820001,-87.310465089,126,"16533 LOCK 17 ROAD, BROOKWOOD, AL, 35444","Match","Exact","16533 LOCK 17 RD, BROOKWOOD, AL, 35444",641195071,"L"
237627,"16533 N RED ROCK DR","STRONGSVILLE","OH",44136,41.2893856370001,-81.818745382,127,"16533 N RED ROCK DR, STRONGSVILLE, OH, 44136","Match","Non_Exact","16533 N REDROCK DR, STRONGSVILLE, OH, 44136",61132415,"L"
237628,"16534 426TH WAY SE","NORTH BEND","WA",98045,47.4521041890001,-121.771796893,128,"16534 426TH WAY SE, NORTH BEND, WA, 98045","Match","Exact","16534 426TH WAY SE, NORTH BEND, WA, 98045",186960824,"L"
237629,"16534 ARDMORE","DETROIT","MI",48235,42.412111092,-83.184968351,129,"16534 ARDMORE, DETROIT, MI, 48235","Match","Non_Exact","16534 ARDMORE ST, DETROIT, MI, 48235",95424807,"R"
237630,"16534 BURNELL OAKS LANE","HOUSTON","TX",77090,30.0073737050001,-95.439720741,130,"16534 BURNELL OAKS LANE, HOUSTON, TX, 77090","Match","Exact","16534 BURNELL OAKS LN, HOUSTON, TX, 77090",624748659,"L"
237631,"16534 HAMSHIRE ROAD","WINNIE","TX",77665,29.878141193,-94.351396885,131,"16534 HAMSHIRE ROAD, WINNIE, TX, 77665","Match","Exact","16534 HAMSHIRE RD, WINNIE, TX, 77665",73889274,"L"
237632,"16535 BAXTER FOREST RIDGE DR","CHESTERFIELD","MO",63005,38.6419241880001,-90.5754292939999,132,"16535 BAXTER FOREST RIDGE DR, CHESTERFIELD, MO, 63005","Match","Exact","16535 BAXTER FOREST RIDGE DR, CHESTERFIELD, MO, 63005",100170080,"R"
237633,"16535 BAXTER FOREST RIDGE DRIVE","CHESTERFIELD","MO",63005,38.6419241880001,-90.5754292939999,133,"16535 BAXTER FOREST RIDGE DRIVE, CHESTERFIELD, MO, 63005","Match","Exact","16535 BAXTER FOREST RIDGE DR, CHESTERFIELD, MO, 63005",100170080,"R"
237634,"16535 CANYON CROSS","SAN ANTONIO","TX",78232,29.598891902,-98.459007796,134,"16535 CANYON CROSS, SAN ANTONIO, TX, 78232","Match","Exact","16535 CANYON CROSS, SAN ANTONIO, TX, 78232",101566634,"L"
237635,"16535 CHATSWORTH STREET","GRANADA HILLS","CA",91344,34.2647159570001,-118.492238537,135,"16535 CHATSWORTH STREET, GRANADA HILLS, CA, 91344","Match","Exact","16535 CHATSWORTH ST, GRANADA HILLS, CA, 91344",141543060,"R"
237636,"16535 NW 90 AVENUE","MIAMI LAKES","FL",33016,25.923354843,-80.3475952919999,136,"16535 NW 90 AVENUE, MIAMI LAKES, FL, 33016","Match","Non_Exact","16535 NW 90TH AVE, MIAMI LAKES, FL, 33018",116258617,"R"
237637,"16535 STUART AVE","ORLAND PARK","IL",60467,41.5891953190001,-87.8850732449999,137,"16535 STUART AVE, ORLAND PARK, IL, 60467","Match","Exact","16535 STUART AVE, ORLAND PARK, IL, 60467",112217610,"L"
237638,"16535 WATERMAN DR","ROSEVILLE","MI",48066,42.4821028000001,-82.950127659,138,"16535 WATERMAN DR, ROSEVILLE, MI, 48066","Match","Exact","16535 WATERMAN DR, ROSEVILLE, MI, 48066",110679010,"L"
237639,"16536 119TH AVE SE","RENTON","WA",98058,47.454028646,-122.181993851,139,"16536 119TH AVE SE, RENTON, WA, 98058","Match","Exact","16536 119TH AVE SE, RENTON, WA, 98058",239773781,"L"
237640,"16536 PRAIRE","SOUTH HOLLAND","IL",60473,41.5942061920001,-87.6139373029999,140,"16536 PRAIRE, SOUTH HOLLAND, IL, 60473","Match","Non_Exact","16536 PRAIRIE AVE, SOUTH HOLLAND, IL, 60473",111778788,"R"
237641,"16536 SW 97 STREET","MIAMI","FL",33196,25.6754537750001,-80.463745076,141,"16536 SW 97 STREET, MIAMI, FL, 33196","Match","Exact","16536 SW 97TH ST, MIAMI, FL, 33196",116263545,"R"
237642,"16536 WELLS FARGO AVE","PALMDALE","CA",93591,34.59673345,-117.83615977,142,"16536 WELLS FARGO AVE, PALMDALE, CA, 93591","Match","Exact","16536 WELLS FARGO AVE, PALMDALE, CA, 93591",141706196,"R"
237643,"16536 WOODLAWN ACRES","BATON ROUGE","LA",70817,30.3837405670001,-91.001136085,143,"16536 WOODLAWN ACRES, BATON ROUGE, LA, 70817","Match","Non_Exact","16536 WOODLAWN ACRES AVE, BATON ROUGE, LA, 70817",92195412,"R"
237644,"16537 121ST AVE","RENTON","WA",98058,47.45490693,-122.179466495,144,"16537 121ST AVE, RENTON, WA, 98058","Match","Non_Exact","16537 121ST AVE SE, RENTON, WA, 98058",239766513,"R"
237645,"16537 EDGEWOOD RD","PLAINFIELD","IL",60586,41.5833554390001,-88.177893109,145,"16537 EDGEWOOD RD, PLAINFIELD, IL, 60586","Match","Exact","16537 EDGEWOOD RD, PLAINFIELD, IL, 60586",111617537,"R"
237646,"16537 HIDDEN RIVER CIRCLE","PLAINFILED","IL",60586,41.582548909,-88.2187931449999,146,"16537 HIDDEN RIVER CIRCLE, PLAINFILED, IL, 60586","Match","Non_Exact","16537 HIDDEN RIVER CIR, PLAINFIELD, IL, 60586",111625696,"R"
237647,"16537 LOUISVILLE PLACE","WOODBRIDGE","VA",22191,38.5936162840001,-77.274724829,147,"16537 LOUISVILLE PLACE, WOODBRIDGE, VA, 22191","Match","Exact","16537 LOUISVILLE PL, WOODBRIDGE, VA, 22191",619943092,"R"
237648,"16537 MONTE CARLO LN","HOUSTON","TX",77053,29.584678039,-95.4706040039999,148,"16537 MONTE CARLO LN, HOUSTON, TX, 77053","Match","Exact","16537 MONTE CARLO LN, HOUSTON, TX, 77053",78292312,"R"
237649,"16537 PARKER PLACE DRIVE","PRAIRIEVILLE","LA",70769,30.313087662,-90.930029636,149,"16537 PARKER PLACE DRIVE, PRAIRIEVILLE, LA, 70769","Match","Exact","16537 PARKER PLACE DR, PRAIRIEVILLE, LA, 70769",648947281,"L"
237650,"16538 CYPRESS BRIDGE DR","CYPRESS","TX",77429,29.9908783220001,-95.679187251,150,"16538 CYPRESS BRIDGE DR, CYPRESS, TX, 77429","Match","Exact","16538 CYPRESS BRIDGE DR, CYPRESS, TX, 77429",627521781,"R"
237651,"16538 LONGS CHURCH ROAD","EAST LIVERPOOL","OH",NA,40.663874848,-80.559732653,151,"16538 LONGS CHURCH ROAD, EAST LIVERPOOL, OH, ","Match","Exact","16538 LONGS CHURCH RD, EAST LIVERPOOL, OH, 43920",641120419,"R"
237652,"16538 RESERVOIR LOOP","DUMFRIES","VA",22026,38.5938231490001,-77.31209032,152,"16538 RESERVOIR LOOP, DUMFRIES, VA, 22026","Match","Exact","16538 RESERVOIR LOOP, DUMFRIES, VA, 22026",610226520,"L"
237653,"16539 COBINGTON DR","CLINTON TWP","MI",48038,42.6139502170001,-82.9686738089999,153,"16539 COBINGTON DR, CLINTON TWP, MI, 48038","Match","Non_Exact","16539 COVINGTON, CLINTON TOWNSHIP, MI, 48038",617070936,"L"
237654,"16539 KIPLING AVE","CLEVELAND","OH",44110,41.5582475160001,-81.5640817079999,154,"16539 KIPLING AVE, CLEVELAND, OH, 44110","Match","Exact","16539 KIPLING AVE, CLEVELAND, OH, 44110",61121387,"L"
237655,"16539 MORGAN RUN","MISSOURI CITY","TX",77489,29.6373590790001,-95.534415702,155,"16539 MORGAN RUN, MISSOURI CITY, TX, 77489","Match","Exact","16539 MORGAN RUN, MISSOURI CITY, TX, 77489",233356443,"L"
237656,"16539 MORGAN RUN","MISSOURI","TX",77489,29.6373590790001,-95.534415702,156,"16539 MORGAN RUN, MISSOURI, TX, 77489","Match","Non_Exact","16539 MORGAN RUN, MISSOURI CITY, TX, 77489",233356443,"L"
237657,"16539 S LUELLA","SOUTH HOLLAND","IL",60473,41.593429755,-87.567273469,157,"16539 S LUELLA, SOUTH HOLLAND, IL, 60473","Match","Non_Exact","16539 LUELLA AVE, SOUTH HOLLAND, IL, 60473",111781291,"L"
237658,"16539 XAVIER AVE","MADRID","IA",50156,41.7914952200001,-93.829135405,158,"16539 XAVIER AVE, MADRID, IA, 50156","Match","Exact","16539 XAVIER AVE, MADRID, IA, 50156",65642273,"L"
237659,"1654 11TH AVE","SPARTA","WI",54656,44.0213304500001,-90.652725802,159,"1654 11TH AVE, SPARTA, WI, 54656","Match","Non_Exact","1654 S 11TH AVE, SPARTA, WI, 54656",51064360,"R"
237660,"1654 12TH AVENUE","GRAFTON","WI",53024,43.313306664,-87.9516357049999,160,"1654 12TH AVENUE, GRAFTON, WI, 53024","Match","Exact","1654 12TH AVE, GRAFTON, WI, 53024",95902621,"L"
237661,"1654 24TH ST","CUYAHOGA FALLS","OH",44223,41.128700076,-81.511924032,161,"1654 24TH ST, CUYAHOGA FALLS, OH, 44223","Match","Exact","1654 24TH ST, CUYAHOGA FALLS, OH, 44223",61339305,"L"
237662,"1654 AMNESTY DRIVE","NORTH PORT","FL",34288,27.074869215,-82.14099707,162,"1654 AMNESTY DRIVE, NORTH PORT, FL, 34288","Match","Exact","1654 AMNESTY DR, NORTH PORT, FL, 34288",16436003,"R"
237663,"1654 BREDING ROAD","AKRON","OH",44310,41.108778547,-81.4751983259999,163,"1654 BREDING ROAD, AKRON, OH, 44310","Match","Non_Exact","1654 BREIDING RD, AKRON, OH, 44310",61350593,"L"
237664,"1654 CECILIA DRIVE","ATLANTA","GA",30316,33.7190500080001,-84.3256387769999,164,"1654 CECILIA DRIVE, ATLANTA, GA, 30316","Match","Non_Exact","1654 CECILIA DR SE, ATLANTA, GA, 30316",23401072,"L"
237665,"1654 CHEROKEE ROAD","LOUISVILLE","KY",40205,38.2331466840001,-85.695577387,165,"1654 CHEROKEE ROAD, LOUISVILLE, KY, 40205","Match","Exact","1654 CHEROKEE RD, LOUISVILLE, KY, 40205",96852819,"R"
237666,"1654 COUGAR AVE","NORFOLK","VA",23518,36.9220337840001,-76.230026809,166,"1654 COUGAR AVE, NORFOLK, VA, 23518","Match","Exact","1654 COUGAR AVE, NORFOLK, VA, 23518",122125048,"L"
237667,"1654 CRAWFORD DRIVE","WILLITS","CA",95490,39.452160941,-123.379416301,167,"1654 CRAWFORD DRIVE, WILLITS, CA, 95490","Match","Exact","1654 CRAWFORD DR, WILLITS, CA, 95490",67259406,"L"
237668,"1654 CROMER ROAD","ELBERTON","GA",30635,34.1604393330001,-82.921438162,168,"1654 CROMER ROAD, ELBERTON, GA, 30635","Match","Exact","1654 CROMER RD, ELBERTON, GA, 30635",619860971,"R"
237669,"1654 DANBROOK DR","SACRAMENTO","CA",95835,38.66548456,-121.497689091,169,"1654 DANBROOK DR, SACRAMENTO, CA, 95835","Match","Exact","1654 DANBROOK DR, SACRAMENTO, CA, 95835",642587549,"R"
237670,"1654 DEXTER LANE","CHARLESTON","SC",29412,32.724822241,-79.97615016,170,"1654 DEXTER LANE, CHARLESTON, SC, 29412","Match","Exact","1654 DEXTER LN, CHARLESTON, SC, 29412",604838539,"L"
237671,"1654 DIAMOND ST UNIT 1","SAN DIEGO","CA",92109,32.802798737,-117.240713795,171,"1654 DIAMOND ST UNIT 1, SAN DIEGO, CA, 92109","Match","Exact","1654 DIAMOND ST, SAN DIEGO, CA, 92109",195302982,"L"
237672,"1654 E OLIVE","SPRINGFIELD","MO",65802,37.210182875,-93.264917666,172,"1654 E OLIVE, SPRINGFIELD, MO, 65802","Match","Non_Exact","1654 E OLIVE ST, SPRINGFIELD, MO, 65802",76678526,"R"
237673,"1654 E SWAN CIR ST","SAINT LOUIS","MO",63144,38.625643687,-90.3494754709999,173,"1654 E SWAN CIR ST, SAINT LOUIS, MO, 63144","Match","Non_Exact","1654 E SWAN CIR, SAINT LOUIS, MO, 63144",100191014,"L"
237674,"1654 FOOTHILLS DRIVE S","GOLDEN","CO",80401,39.685377171,-105.278812992,174,"1654 FOOTHILLS DRIVE S, GOLDEN, CO, 80401","Match","Exact","1654 FOOTHILLS DR S, GOLDEN, CO, 80401",624706744,"L"
237675,"1654 FOX HOLLOW","EASTON","PA",18040,40.7164050100001,-75.235917543,175,"1654 FOX HOLLOW, EASTON, PA, 18040","Match","Non_Exact","1654 FOX HOLLOW LN, EASTON, PA, 18040",136958233,"L"
237676,"1654 GORSUCH AVENUE","BALTIMORE","MD",21218,39.3212324100001,-76.594656001,176,"1654 GORSUCH AVENUE, BALTIMORE, MD, 21218","Match","Exact","1654 GORSUCH AVE, BALTIMORE, MD, 21218",206423381,"L"
237677,"1654 GREAT PLAIN","NEEDHAM","MA",2492,42.286353707,-71.2609874839999,177,"1654 GREAT PLAIN, NEEDHAM, MA, 2492","Match","Non_Exact","1654 GREAT PLAIN AVE, NEEDHAM, MA, 02492",87241004,"L"
237678,"1654 GREENWICH DRIVE","TROY","MI",48098,42.5794087470001,-83.18151506,178,"1654 GREENWICH DRIVE, TROY, MI, 48098","Match","Exact","1654 GREENWICH DR, TROY, MI, 48098",69763067,"R"
237679,"1654 HAZELWOOD ST","DETROIT","MI",48206,42.3756222550001,-83.096104146,179,"1654 HAZELWOOD ST, DETROIT, MI, 48206","Match","Exact","1654 HAZELWOOD ST, DETROIT, MI, 48206",95717647,"R"
237680,"1654 HIGHWAY 15 NORTH","HOUSTON","MS",38851,33.9585041610001,-88.9915864879999,180,"1654 HIGHWAY 15 NORTH, HOUSTON, MS, 38851","Match","Exact","1654 HWY 15 N, HOUSTON, MS, 38851",607200609,"R"
237681,"1654 HOLMDEN AVE APT 1","CLEVELAND","OH",44109,41.4668129410001,-81.694125156,181,"1654 HOLMDEN AVE APT 1, CLEVELAND, OH, 44109","Match","Exact","1654 HOLMDEN AVE, CLEVELAND, OH, 44109",61115782,"R"
237682,"1654 IOWA RD","PRINCETON","KS",66078,38.50289888,-95.3414385889999,182,"1654 IOWA RD, PRINCETON, KS, 66078","Match","Exact","1654 IOWA RD, PRINCETON, KS, 66078",10618811,"R"
237683,"1654 KING JAMES DR","PITTSBURGH","PA",15237,40.5592287700001,-80.070851684,183,"1654 KING JAMES DR, PITTSBURGH, PA, 15237","Match","Exact","1654 KING JAMES DR, PITTSBURGH, PA, 15237",51696258,"L"
237684,"1654 LANCASTER DRIVE","O'FALLON","IL",62269,38.625071534,-89.905263798,184,"1654 LANCASTER DRIVE, O'FALLON, IL, 62269","Match","Non_Exact","1654 LANCASTER DR, O FALLON, IL, 62269",107933518,"L"
237685,"1654 LEWIS AVENUE","GULFPORT","MS",39501,NA,NA,185,"1654 LEWIS AVENUE, GULFPORT, MS, 39501","No_Match",NA,NA,NA,NA
237686,"1654 LINDEN BLVD","VINELAND","NJ",8361,39.4601421410001,-74.9757905239999,186,"1654 LINDEN BLVD, VINELAND, NJ, 8361","Match","Exact","1654 LINDEN BLVD, VINELAND, NJ, 08361",174115738,"R"
237687,"1654 LYNWOOD PLACE","CASPER","WY",82604,42.8320475200001,-106.346800114,187,"1654 LYNWOOD PLACE, CASPER, WY, 82604","Match","Exact","1654 LYNWOOD PL, CASPER, WY, 82604",149022092,"R"
237688,"1654 LYONS DRIVE SUITE 107","NAS FT WORTH JRB","TX",76127,NA,NA,188,"1654 LYONS DRIVE SUITE 107, NAS FT WORTH JRB, TX, 76127","No_Match",NA,NA,NA,NA
237689,"1654 MAIN STREET","BUFFALO","NY",14209,42.916804622,-78.862939099,189,"1654 MAIN STREET, BUFFALO, NY, 14209","Match","Exact","1654 MAIN ST, BUFFALO, NY, 14209",48289781,"L"
237690,"1654 MARATHON DRIVE","LAS VEGAS","NV",89108,36.189986317,-115.238566388,190,"1654 MARATHON DRIVE, LAS VEGAS, NV, 89108","Match","Exact","1654 MARATHON DR, LAS VEGAS, NV, 89108",201859766,"L"
237691,"1654 MARTHON DRIVE","LAS VEGAS","NV",89108,36.189986317,-115.238566388,191,"1654 MARTHON DRIVE, LAS VEGAS, NV, 89108","Match","Non_Exact","1654 MARATHON DR, LAS VEGAS, NV, 89108",201859766,"L"
237692,"1654 MIRAMONTE AVE","MOUNTAIN VIEW","CA",94040,37.3756608150001,-122.086934889,192,"1654 MIRAMONTE AVE, MOUNTAIN VIEW, CA, 94040","Match","Exact","1654 MIRAMONTE AVE, MOUNTAIN VIEW, CA, 94040",618168653,"R"
237693,"1654 N 60TH STREET","PHILADELPHIA","PA",19151,39.9767242250001,-75.240390431,193,"1654 N 60TH STREET, PHILADELPHIA, PA, 19151","Match","Exact","1654 N 60TH ST, PHILADELPHIA, PA, 19151",131397278,"L"
237694,"1654 N ALMOND","MESA","AZ",85213,33.446112236,-111.780465558,194,"1654 N ALMOND, MESA, AZ, 85213","Match","Exact","1654 N ALMOND, MESA, AZ, 85213",128244952,"L"
237695,"1654 N FARMINGDALE","PLEASANT PLAINS","IL",62677,39.8249199310001,-89.8058326669999,195,"1654 N FARMINGDALE, PLEASANT PLAINS, IL, 62677","Match","Non_Exact","1654 N FARMINGDALE RD, PLEASANT PLAINS, IL, 62677",97313249,"R"
237696,"1654 N KLAMATH PLACE","ORANGE","CA",92867,33.815180066,-117.799149592,196,"1654 N KLAMATH PLACE, ORANGE, CA, 92867","Match","Exact","1654 N KLAMATH PL, ORANGE, CA, 92867",144034227,"L"
237697,"1654 NETHERWOOD AVE","MEMPHIS","TN",38106,35.113507473,-90.007196795,197,"1654 NETHERWOOD AVE, MEMPHIS, TN, 38106","Match","Exact","1654 NETHERWOOD AVE, MEMPHIS, TN, 38106",72916919,"L"
237698,"1654 NW CREST PLACE","CORVALLIS","OR",97330,44.584430624,-123.285667002,198,"1654 NW CREST PLACE, CORVALLIS, OR, 97330","Match","Exact","1654 NW CREST PL, CORVALLIS, OR, 97330",155848489,"L"
237699,"1654 OAK TREE DR","HOUSTON","TX",77080,29.802286413,-95.526719976,199,"1654 OAK TREE DR, HOUSTON, TX, 77080","Match","Exact","1654 OAK TREE DR, HOUSTON, TX, 77080",642476149,"R"
237700,"1654 OLD US HIGHWAY 67","CHAPIN","IL",62628,39.764708822,-90.350517268,200,"1654 OLD US HIGHWAY 67, CHAPIN, IL, 62628","Match","Exact","1654 US HWY 67, CHAPIN, IL, 62628",647639617,"R"
237701,"1654 PLUMBAGO COURT","HONOLULU","HI",96818,21.3366877280001,-157.903475211,201,"1654 PLUMBAGO COURT, HONOLULU, HI, 96818","Match","Exact","1654 PLUMBAGO CT, HONOLULU, HI, 96818",203336112,"L"
237702,"1654 ROUNDELAY LANE","WINTER PARK","FL",32789,28.598411119,-81.331794128,202,"1654 ROUNDELAY LANE, WINTER PARK, FL, 32789","Match","Exact","1654 ROUNDELAY LN, WINTER PARK, FL, 32789",94418011,"R"
237703,"1654 S ELM ST","DENVER","CO",80222,39.6865270800001,-104.929352556,203,"1654 S ELM ST, DENVER, CO, 80222","Match","Exact","1654 S ELM ST, DENVER, CO, 80222",177340174,"L"
237704,"1654 S LAFAYETTE ST","DENVER","CO",80210,39.6865639810001,-104.971060587,204,"1654 S LAFAYETTE ST, DENVER, CO, 80210","Match","Exact","1654 S LAFAYETTE ST, DENVER, CO, 80210",177332552,"L"
237705,"1654 S LONE ELM","OLATHE","KS",66061,38.8567659080001,-94.834410675,205,"1654 S LONE ELM, OLATHE, KS, 66061","Match","Non_Exact","1654 S LONE ELM RD, OLATHE, KS, 66061",91333110,"R"
237706,"1654 S RADFORD","SPRINGFIELD","MO",65802,NA,NA,206,"1654 S RADFORD, SPRINGFIELD, MO, 65802","No_Match",NA,NA,NA,NA
237707,"1654 S WABASH AVE","REDLANDS","CA",92373,34.0258268320001,-117.137406412,207,"1654 S WABASH AVE, REDLANDS, CA, 92373","Match","Exact","1654 S WABASH AVE, REDLANDS, CA, 92373",144980409,"L"
237708,"1654 SESAME STREET","WORLAND","WY",82401,43.954434377,-108.002934352,208,"1654 SESAME STREET, WORLAND, WY, 82401","Match","Exact","1654 SESAME ST, WORLAND, WY, 82401",646566497,"L"
237709,"1654 STEPHEN BURNET CT","LAS VEGAS","NV",89102,36.151901368,-115.198064368,209,"1654 STEPHEN BURNET CT, LAS VEGAS, NV, 89102","Match","Exact","1654 STEPHEN BURNET CT, LAS VEGAS, NV, 89102",201861410,"R"
237710,"1654 THORNWOOD RD","WEST DES MOINES","IA",50265,41.5458148640001,-93.755384552,210,"1654 THORNWOOD RD, WEST DES MOINES, IA, 50265","Match","Exact","1654 THORNWOOD RD, W DES MOINES, IA, 50265",65784681,"L"
237711,"1654 TREETOP VIEW","SILVER SPRING","MD",20904,39.048027473,-76.9813759369999,211,"1654 TREETOP VIEW, SILVER SPRING, MD, 20904","Match","Non_Exact","1654 TREETOP VIEW TER, SILVER SPRING, MD, 20904",636884239,"L"
237712,"1654 UNION ST STE 5","BROOKLYN","NY",11213,40.6679608950001,-73.9337587159999,212,"1654 UNION ST STE 5, BROOKLYN, NY, 11213","Match","Exact","1654 UNION ST, BROOKLYN, NY, 11213",59079784,"R"
237713,"1654 US HWY 36","ST FRANCIS","KS",67756,39.7565854150001,-101.754605006,213,"1654 US HWY 36, ST FRANCIS, KS, 67756","Match","Exact","1654 US HWY 36, SAINT FRANCIS, KS, 67756",161415897,"R"
237714,"1654 VICGROSS AVENUE","AKRON","OH",44310,41.1075743540001,-81.469329124,214,"1654 VICGROSS AVENUE, AKRON, OH, 44310","Match","Exact","1654 VICGROSS AVE, AKRON, OH, 44310",61350674,"L"
237715,"1654 VILLAGE CENTER DR UNIT 101","LAKELAND","FL",33803,28.001761,-81.9827287429999,215,"1654 VILLAGE CENTER DR UNIT 101, LAKELAND, FL, 33803","Match","Exact","1654 VILLAGE CENTER DR, LAKELAND, FL, 33803",619735454,"L"
237716,"1654 WILD GOOSE RUN","ST CHARLES","MO",63303,38.7748679530001,-90.54857659,216,"1654 WILD GOOSE RUN, ST CHARLES, MO, 63303","Match","Exact","1654 WILD GOOSE RUN, SAINT CHARLES, MO, 63303",605571105,"L"
237717,"1654 WOODGLEN LN","ALTADENA","CA",91001,34.1954699460001,-118.116020577,217,"1654 WOODGLEN LN, ALTADENA, CA, 91001","Match","Exact","1654 WOODGLEN LN, ALTADENA, CA, 91001",142248540,"R"
237718,"1654","PALMDALE","CA",93551,NA,NA,218,"1654, PALMDALE, CA, 93551","No_Match",NA,NA,NA,NA
237719,"16540 BASELINE AVE","FONTANA","CA",92336,34.1213683820001,-117.443613516,219,"16540 BASELINE AVE, FONTANA, CA, 92336","Match","Exact","16540 BASELINE AVE, FONTANA, CA, 92336",144964900,"L"
237720,"16540 BLENHAM WAY","CHESTERFIELD","MO",63005,38.6490768100001,-90.580739278,220,"16540 BLENHAM WAY, CHESTERFIELD, MO, 63005","Match","Exact","16540 BLENHAM WAY, CHESTERFIELD, MO, 63005",100167911,"R"
237721,"16540 CHAMBERLAIN ROAD","GRAFTON","OH",44044,41.245734955,-82.061878382,221,"16540 CHAMBERLAIN ROAD, GRAFTON, OH, 44044","Match","Exact","16540 CHAMBERLAIN RD, GRAFTON, OH, 44044",55436835,"L"
237722,"16540 DESERT STAR DRIVE","CONROE","TX",77302,30.2167148250001,-95.323138232,222,"16540 DESERT STAR DRIVE, CONROE, TX, 77302","Match","Exact","16540 DESERT STAR DR, CONROE, TX, 77302",79331673,"R"
237723,"16540 GRANGE RD","PAONIA","CO",81428,38.894145501,-107.567797184,223,"16540 GRANGE RD, PAONIA, CO, 81428","Match","Exact","16540 GRANGE RD, PAONIA, CO, 81428",643673513,"R"
237724,"16540 HAYDENVILLE ROAD","HAYDENVILLE","OH",43127,NA,NA,224,"16540 HAYDENVILLE ROAD, HAYDENVILLE, OH, 43127","No_Match",NA,NA,NA,NA
237725,"16540 IREDELL STREET","BRIGHTON","CO",80603,39.9954557360001,-104.637162992,225,"16540 IREDELL STREET, BRIGHTON, CO, 80603","Match","Exact","16540 IREDELL ST, BRIGHTON, CO, 80603",177457395,"R"
237726,"16540 LEVADE DR","LEESBURG","VA",20176,39.1578481440001,-77.542456495,226,"16540 LEVADE DR, LEESBURG, VA, 20176","Match","Exact","16540 LEVADE DR, LEESBURG, VA, 20176",641422959,"R"
237727,"16540 NE 4TH PLAIN BLVD STE 106-95","VANCOUVER","WA",98682,NA,NA,227,"16540 NE 4TH PLAIN BLVD STE 106-95, VANCOUVER, WA, 98682","No_Match",NA,NA,NA,NA
237728,"16540 POINTE VILLAGE DR SUITE 201","LUTZ","FL",33558,28.189556645,-82.5410999439999,228,"16540 POINTE VILLAGE DR SUITE 201, LUTZ, FL, 33558","Match","Exact","16540 POINTE VILLAGE DR, LUTZ, FL, 33558",641337670,"L"
237729,"16540 SCENIC DRIVE","BARBEAU","MI",49710,46.266631875,-84.1973763949999,229,"16540 SCENIC DRIVE, BARBEAU, MI, 49710","Match","Non_Exact","16540 S SCENIC DR, BARBEAU, MI, 49710",642501897,"L"
237730,"16540 SW SHANE CT","SHERWOOD","OR",97140,45.3581448100001,-122.847341093,230,"16540 SW SHANE CT, SHERWOOD, OR, 97140","Match","Non_Exact","16540 NW SHANE CT, SHERWOOD, OR, 97140",158201736,"R"
237731,"16540 VENTURA BOULEVARD STE 405","ENCINO","CA",91436,34.157672786,-118.493165125,231,"16540 VENTURA BOULEVARD STE 405, ENCINO, CA, 91436","Match","Exact","16540 VENTURA BLVD, ENCINO, CA, 91436",142714839,"L"
237732,"16540 WORMER ST","DETROIT","MI",48219,42.4099717330001,-83.279464477,232,"16540 WORMER ST, DETROIT, MI, 48219","Match","Exact","16540 WORMER ST, DETROIT, MI, 48219",95420260,"R"
237733,"16541 ASHTON AVE","DETROIT","MI",48219,42.410546777,-83.219873682,233,"16541 ASHTON AVE, DETROIT, MI, 48219","Match","Exact","16541 ASHTON AVE, DETROIT, MI, 48219",95423261,"L"
237734,"16541 GOTHARD STREET SUITE 215","HUNTINGTON BEACH","CA",92647,33.7214801260001,-118.000183853,234,"16541 GOTHARD STREET SUITE 215, HUNTINGTON BEACH, CA, 92647","Match","Exact","16541 GOTHARD ST, HUNTINGTON BEACH, CA, 92647",144251164,"R"
237735,"16541 OLD SPANISH TRAIL","DES ALLMENDS","LA",70030,NA,NA,235,"16541 OLD SPANISH TRAIL, DES ALLMENDS, LA, 70030","No_Match",NA,NA,NA,NA
237736,"16541 REDMOND WAY 223C","REDMOND","WA",98052,47.673352654,-122.119618868,236,"16541 REDMOND WAY 223C, REDMOND, WA, 98052","Match","Exact","16541 REDMOND WAY, REDMOND, WA, 98052",186999332,"L"
237737,"16541 REDMOND WAY STE 466","REDMOND","WA",98052,47.673352654,-122.119618868,237,"16541 REDMOND WAY STE 466, REDMOND, WA, 98052","Match","Exact","16541 REDMOND WAY, REDMOND, WA, 98052",186999332,"L"
237738,"16541 REDMOND WAY","REDMOND","WA",98052,47.673352654,-122.119618868,238,"16541 REDMOND WAY, REDMOND, WA, 98052","Match","Exact","16541 REDMOND WAY, REDMOND, WA, 98052",186999332,"L"
237739,"16541 S WOOD ST","MARKHAM","IL",60428,41.5890353720001,-87.6607172939999,239,"16541 S WOOD ST, MARKHAM, IL, 60428","Match","Exact","16541 WOOD ST, MARKHAM, IL, 60428",111706015,"L"
237740,"16542 HWY 211","TRIMBLE","TN",38259,36.2038560710001,-89.195282869,240,"16542 HWY 211, TRIMBLE, TN, 38259","Match","Non_Exact","16542 STATE RTE 211, TRIMBLE, TN, 38259",40650778,"R"
237741,"16542 LUELLA AVE","SOUTH HOLLAND","IL",60473,41.593398183,-87.5672700809999,241,"16542 LUELLA AVE, SOUTH HOLLAND, IL, 60473","Match","Exact","16542 LUELLA AVE, SOUTH HOLLAND, IL, 60473",111781291,"R"
237742,"16542 RIVERWOOD DR","LONG PRAIRIE","MN",56345,46.000282462,-94.352447694,242,"16542 RIVERWOOD DR, LONG PRAIRIE, MN, 56345","Match","Non_Exact","16542 RIVERWOOD DR, SOBIESKI, MN, 56345",167410631,"R"
237743,"16542 VENTURA BLD SUITE 200","ENCINO","CA",91436,34.157677334,-118.493198341,243,"16542 VENTURA BLD SUITE 200, ENCINO, CA, 91436","Match","Non_Exact","16542 VENTURA BLVD, ENCINO, CA, 91436",142714839,"L"
237744,"16542 VENTURA BLVD SUITE 200","ENCINO","CA",91436,34.157677334,-118.493198341,244,"16542 VENTURA BLVD SUITE 200, ENCINO, CA, 91436","Match","Exact","16542 VENTURA BLVD, ENCINO, CA, 91436",142714839,"L"
237745,"16543 COPPER KETTLE WAY","LA MIRADA","CA",90638,33.916124563,-117.977420947,245,"16543 COPPER KETTLE WAY, LA MIRADA, CA, 90638","Match","Exact","16543 COPPER KETTLE WAY, LA MIRADA, CA, 90638",141753132,"L"
237746,"16543 HAMLIN STREET","LAKE BALBOA","CA",91406,34.188447336,-118.494401868,246,"16543 HAMLIN STREET, LAKE BALBOA, CA, 91406","Match","Exact","16543 HAMLIN ST, LAKE BALBOA, CA, 91406",141556320,"R"
237747,"16543 LA HERMOSA DR","WHITTIER","CA",90603,33.933173336,-117.977463597,247,"16543 LA HERMOSA DR, WHITTIER, CA, 90603","Match","Exact","16543 LA HERMOSA DR, WHITTIER, CA, 90603",639057416,"L"
237748,"16543 PALISADES COMMONS DRIVE","CHARLOTTE","NC",28278,35.0854204660001,-81.019878584,248,"16543 PALISADES COMMONS DRIVE, CHARLOTTE, NC, 28278","Match","Exact","16543 PALISADES COMMONS DR, CHARLOTTE, NC, 28278",648377373,"L"
237749,"16543 STENT CUT OFF RD","JAMESTOWN","CA",95327,37.9237888970001,-120.411657256,249,"16543 STENT CUT OFF RD, JAMESTOWN, CA, 95327","Match","Exact","16543 STENT CUT OFF RD, JAMESTOWN, CA, 95327",101419893,"R"
237750,"16543 W IRONWOOD ST","SURPRISE","AZ",85388,33.6279963970001,-112.415364452,250,"16543 W IRONWOOD ST, SURPRISE, AZ, 85388","Match","Exact","16543 W IRONWOOD ST, SURPRISE, AZ, 85388",243972240,"L"
237751,"16544 BROOKHOLLOW DR","WESTFIELD","IN",46074,40.028940377,-86.103214064,251,"16544 BROOKHOLLOW DR, WESTFIELD, IN, 46074","Match","Non_Exact","16544 BROOKHOLLOW DR, WESTFIELD, IN, 46062",29336532,"R"
237752,"16544 SMOOTH PINE LANE","SUGAR LAND","TX",77498,29.647260467,-95.669597938,252,"16544 SMOOTH PINE LANE, SUGAR LAND, TX, 77498","Match","Exact","16544 SMOOTH PINE LN, SUGAR LAND, TX, 77498",78334107,"R"
237753,"16544 TRAVERTINE DRIVE","ATHENS","AL",25613,34.7945012920001,-86.922313538,253,"16544 TRAVERTINE DRIVE, ATHENS, AL, 25613","Match","Non_Exact","16544 TRAVERTINE DR, ATHENS, AL, 35613",624741244,"L"
237754,"16544 W 168TH PLACE","OLATHE","KS",66062,38.8231050050001,-94.778009486,254,"16544 W 168TH PLACE, OLATHE, KS, 66062","Match","Exact","16544 W 168TH PL, OLATHE, KS, 66062",619890730,"R"
237755,"16545 COUNTY LINE ROAD","UMATILLA","FL",32784,28.959291718,-81.6844808499999,255,"16545 COUNTY LINE ROAD, UMATILLA, FL, 32784","Match","Exact","16545 COUNTY LINE RD, UMATILLA, FL, 32784",638650356,"R"
237756,"16545 E BLACKTHORN WAY","PARKER","CO",80134,39.5117534350001,-104.797875541,256,"16545 E BLACKTHORN WAY, PARKER, CO, 80134","Match","Exact","16545 E BLACKTHORN WAY, PARKER, CO, 80134",130843038,"R"
237757,"16545 HUMBOLDT ST","THORNTON","CO",80602,39.995414484,-104.966634133,257,"16545 HUMBOLDT ST, THORNTON, CO, 80602","Match","Exact","16545 HUMBOLDT ST, THORNTON, CO, 80602",177422003,"R"
237758,"16545 VENTURA BLVD STE 24","ENCINO","CA",91436,34.1576927,-118.493229394,258,"16545 VENTURA BLVD STE 24, ENCINO, CA, 91436","Match","Exact","16545 VENTURA BLVD, ENCINO, CA, 91436",142714839,"R"
237759,"16545 VILLAGE DRIVE  BUILDING A","JERSEY VILLAGE","TX",77040,29.8899117870001,-95.5768850109999,259,"16545 VILLAGE DRIVE  BUILDING A, JERSEY VILLAGE, TX, 77040","Match","Exact","16545 VILLAGE DR, JERSEY VILLAGE, TX, 77040",96648602,"R"
237760,"16545 WOOD STREET","MARKHAM","IL",60426,41.588974181,-87.660717067,260,"16545 WOOD STREET, MARKHAM, IL, 60426","Match","Non_Exact","16545 WOOD ST, MARKHAM, IL, 60428",111706015,"L"
237761,"16545 WORMER","DETROIT","MI",48219,42.4099993510001,-83.279480365,261,"16545 WORMER, DETROIT, MI, 48219","Match","Non_Exact","16545 WORMER ST, DETROIT, MI, 48219",95420260,"L"
237762,"16546 JORDAN GARDNER OVAL","CHAGRIN FALLS","OH",44023,41.419342731,-81.384597297,262,"16546 JORDAN GARDNER OVAL, CHAGRIN FALLS, OH, 44023","Match","Exact","16546 JORDAN GARDNER OVAL, CHAGRIN FALLS, OH, 44023",623834551,"L"
237763,"16546 KNOTTINGWOOD","OAKFOREST","IL",60452,41.590963104,-87.734539618,263,"16546 KNOTTINGWOOD, OAKFOREST, IL, 60452","Match","Non_Exact","16546 KNOTTINGWOOD AVE, OAK FOREST, IL, 60452",112203218,"L"
237764,"16546 MANASSAS ST","SAN DIEGO","CA",92127,33.013880945,-117.116359363,264,"16546 MANASSAS ST, SAN DIEGO, CA, 92127","Match","Exact","16546 MANASSAS ST, SAN DIEGO, CA, 92127",612890493,"R"
237765,"16546 PARKRIDGE AVENUE","SONORA","CA",95370,38.0011031600001,-120.281567081,265,"16546 PARKRIDGE AVENUE, SONORA, CA, 95370","Match","Exact","16546 PARKRIDGE AVE, SONORA, CA, 95370",651543603,"R"
237766,"16547 LASALLE AVE","DETROIT","MI",48221,NA,NA,266,"16547 LASALLE AVE, DETROIT, MI, 48221","No_Match",NA,NA,NA,NA
237767,"16547 MARSHFIELD","MARKHAM","IL",60428,41.5889527370001,-87.657091011,267,"16547 MARSHFIELD, MARKHAM, IL, 60428","Match","Non_Exact","16547 MARSHFIELD AVE, MARKHAM, IL, 60428",111706031,"L"
237768,"16548 SE 260TH ST","COVINGTON","WA",98042,47.368569474,-122.120288874,268,"16548 SE 260TH ST, COVINGTON, WA, 98042","Match","Exact","16548 SE 260TH ST, COVINGTON, WA, 98042",630052862,"L"
237769,"16549 E COLISEUM AVE","BATON ROUGE","LA",70816,30.454097243,-90.999756759,269,"16549 E COLISEUM AVE, BATON ROUGE, LA, 70816","Match","Exact","16549 E COLISEUM AVE, BATON ROUGE, LA, 70816",92194785,"R"
237770,"16549 FIELDCREST AVENUE","FARMINGTON","MN",55024,44.70928925,-93.189144857,270,"16549 FIELDCREST AVENUE, FARMINGTON, MN, 55024","Match","Exact","16549 FIELDCREST AVE, FARMINGTON, MN, 55024",37937008,"L"
237771,"16549 SOUTH BIG VALLEY BLVD","CLAREMORE","OK",74017,NA,NA,271,"16549 SOUTH BIG VALLEY BLVD, CLAREMORE, OK, 74017","No_Match",NA,NA,NA,NA
237772,"1655 25TH AVENUE","SAN FRANCISCO","CA",94122,37.756676171,-122.483097339,272,"1655 25TH AVENUE, SAN FRANCISCO, CA, 94122","Match","Exact","1655 25TH AVE, SAN FRANCISCO, CA, 94122",192278063,"R"
237773,"1655 44TH ST","BROOKLYN","NY",11219,40.633036729,-73.9812584489999,273,"1655 44TH ST, BROOKLYN, NY, 11219","Match","Non_Exact","1655 44TH ST, BROOKLYN, NY, 11204",59080667,"L"
237774,"1655 44TH STREET","BROOKLYN","NY",11204,40.633036729,-73.9812584489999,274,"1655 44TH STREET, BROOKLYN, NY, 11204","Match","Exact","1655 44TH ST, BROOKLYN, NY, 11204",59080667,"L"
237775,"1655 4TH STREET","COLUMBIA CITY","OR",97018,45.887973978,-122.810290499,275,"1655 4TH STREET, COLUMBIA CITY, OR, 97018","Match","Exact","1655 FOURTH ST, COLUMBIA CITY, OR, 97018",158080952,"L"
237776,"1655 58TH TER S NUMBER 2","ST PETERSBURG","FL",33712,27.7141816870001,-82.65565716,276,"1655 58TH TER S NUMBER 2, ST PETERSBURG, FL, 33712","Match","Exact","1655 58TH TER S, SAINT PETERSBURG, FL, 33712",124711267,"R"
237777,"1655 A ST  APT 1","EUREKA","CA",95501,40.7920869640001,-124.170768288,277,"1655 A ST  APT 1, EUREKA, CA, 95501","Match","Exact","1655 A ST, EUREKA, CA, 95501",645951258,"L"
237778,"1655 ASHWOOD COURT","TROY","MI",48085,42.603184481,-83.117093156,278,"1655 ASHWOOD COURT, TROY, MI, 48085","Match","Exact","1655 ASHWOOD CT, TROY, MI, 48085",648199668,"L"
237779,"1655 ASHWOOD DR","ASHTABULA","OH",44004,NA,NA,279,"1655 ASHWOOD DR, ASHTABULA, OH, 44004","No_Match",NA,NA,NA,NA
237780,"1655 ASTOR FARMS PL","SANFORD","FL",32771,28.8294462760001,-81.361559566,280,"1655 ASTOR FARMS PL, SANFORD, FL, 32771","Match","Exact","1655 ASTOR FARMS PL, SANFORD, FL, 32771",635890603,"R"
237781,"1655 AZURE LANE 304","WINSTON-SALEM","NC",27127,36.019883593,-80.262979502,281,"1655 AZURE LANE 304, WINSTON-SALEM, NC, 27127","Match","Exact","1655 AZURE LN, WINSTON SALEM, NC, 27127",627583505,"R"
237782,"1655 BARCLAY HILL RD","BEAVER","PA",15009,40.6777775680001,-80.3788372559999,282,"1655 BARCLAY HILL RD, BEAVER, PA, 15009","Match","Exact","1655 BARCLAY HILL RD, BEAVER, PA, 15009",632695631,"L"
237783,"1655 BARNHART RD","TROY","OH",45373,40.0152016320001,-84.243406319,283,"1655 BARNHART RD, TROY, OH, 45373","Match","Exact","1655 BARNHART RD, TROY, OH, 45373",135301058,"R"
237784,"1655 BEAVER AVENUE","DES MOINES","IA",50310,41.6088566550001,-93.670137364,284,"1655 BEAVER AVENUE, DES MOINES, IA, 50310","Match","Exact","1655 BEAVER AVE, DES MOINES, IA, 50310",65779845,"R"
237785,"1655 BETHESDA WAY","CRESCENT CITY","CA",95531,41.775873663,-124.205965696,285,"1655 BETHESDA WAY, CRESCENT CITY, CA, 95531","Match","Exact","1655 BETHESDA WAY, CRESCENT CITY, CA, 95531",113168645,"R"
237786,"1655 BIG TRAIL DR  304","JACKSON","WY",83001,NA,NA,286,"1655 BIG TRAIL DR  304, JACKSON, WY, 83001","No_Match",NA,NA,NA,NA
237787,"1655 BLOUNTVILLE BLVD","BLOUNTVILLE","TN",37617,36.533590152,-82.318136706,287,"1655 BLOUNTVILLE BLVD, BLOUNTVILLE, TN, 37617","Match","Exact","1655 BLOUNTVILLE BLVD, BLOUNTVILLE, TN, 37617",127836903,"R"
237788,"1655 BRIARCLIFFE","WHEATON","IL",60189,41.844144982,-88.084703873,288,"1655 BRIARCLIFFE, WHEATON, IL, 60189","Match","Non_Exact","1655 BRIARCLIFFE BLVD, WHEATON, IL, 60189",653205818,"L"
237789,"1655 BRIARHEATH DRIVE","AURORA","IL",60505,41.7818916310001,-88.271188948,289,"1655 BRIARHEATH DRIVE, AURORA, IL, 60505","Match","Exact","1655 BRIARHEATH DR, AURORA, IL, 60505",119589463,"R"
237790,"1655 BROWN ROAD","HEPHZIBAH","GA",30815,33.323642856,-82.011306906,290,"1655 BROWN ROAD, HEPHZIBAH, GA, 30815","Match","Exact","1655 BROWN RD, HEPHZIBAH, GA, 30815",55651012,"L"
237791,"1655 BURGUNDY ROAD","ENCINITAS","CA",92024,33.0794067520001,-117.290287452,291,"1655 BURGUNDY ROAD, ENCINITAS, CA, 92024","Match","Exact","1655 BURGUNDY RD, ENCINITAS, CA, 92024",195707086,"R"
237792,"1655 CAROOL ROAD","MICHIE","TN",38357,35.0381950710001,-88.3769010239999,292,"1655 CAROOL ROAD, MICHIE, TN, 38357","Match","Non_Exact","1655 CARROLL RD, MICHIE, TN, 38357",21175942,"R"
237793,"1655 CELESTE CT","MERCED","CA",95341,37.292807431,-120.459511199,293,"1655 CELESTE CT, MERCED, CA, 95341","Match","Exact","1655 CELESTE CT, MERCED, CA, 95341",125309993,"L"
237794,"1655 CENTERVIEW DR APT 1635","DULUTH","GA",30096,33.9501437330001,-84.122376373,294,"1655 CENTERVIEW DR APT 1635, DULUTH, GA, 30096","Match","Non_Exact","1655 CENTERVIEW DR NW, DULUTH, GA, 30096",88916281,"R"
237795,"1655 CENTERVIEW DR APT 338","DULUTH","GA",30096,33.9501437330001,-84.122376373,295,"1655 CENTERVIEW DR APT 338, DULUTH, GA, 30096","Match","Non_Exact","1655 CENTERVIEW DR NW, DULUTH, GA, 30096",88916281,"R"
237796,"1655 CENTERVIEW DR APT 528","DULUTH","GA",30096,33.9501437330001,-84.122376373,296,"1655 CENTERVIEW DR APT 528, DULUTH, GA, 30096","Match","Non_Exact","1655 CENTERVIEW DR NW, DULUTH, GA, 30096",88916281,"R"
237797,"1655 CENTERVIEW DR SUITE 1317","DULUTH","GA",30096,33.9501437330001,-84.122376373,297,"1655 CENTERVIEW DR SUITE 1317, DULUTH, GA, 30096","Match","Non_Exact","1655 CENTERVIEW DR NW, DULUTH, GA, 30096",88916281,"R"
237798,"1655 CENTERVIEW SUITE 1231","DULUTH","GA",30096,NA,NA,298,"1655 CENTERVIEW SUITE 1231, DULUTH, GA, 30096","No_Match",NA,NA,NA,NA
237799,"1655 CHERRY BLOSSOM TERRACE","HEATHROW","FL",32746,28.7884433310001,-81.383909585,299,"1655 CHERRY BLOSSOM TERRACE, HEATHROW, FL, 32746","Match","Exact","1655 CHERRY BLOSSOM TER, HEATHROW, FL, 32746",635499407,"R"
237800,"1655 CHERRY STEET","BOOTHWYN","PA",19061,39.8400938780001,-75.447799345,300,"1655 CHERRY STEET, BOOTHWYN, PA, 19061","Match","Exact","1655 CHERRY ST, BOOTHWYN, PA, 19061",619273457,"L"
237801,"1655 CHERRY STREET","BOOTHWYN","PA",19061,39.8400938780001,-75.447799345,301,"1655 CHERRY STREET, BOOTHWYN, PA, 19061","Match","Exact","1655 CHERRY ST, BOOTHWYN, PA, 19061",619273457,"L"
237802,"1655 CHERRY STREET","UPPER CHICHESTER","PA",19061,39.8400938780001,-75.447799345,302,"1655 CHERRY STREET, UPPER CHICHESTER, PA, 19061","Match","Exact","1655 CHERRY ST, UPPER CHICHESTER, PA, 19061",619273457,"L"
237803,"1655 COTTONDALE DRIVE","BATON ROUGE","LA",70815,30.4375071970001,-91.0824562619999,303,"1655 COTTONDALE DRIVE, BATON ROUGE, LA, 70815","Match","Exact","1655 COTTONDALE DR, BATON ROUGE, LA, 70815",92191205,"R"
237804,"1655 COUNTRYSIDE DRIVE","INDIANAPOLIS","IN",46231,39.7436555560001,-86.31183502,304,"1655 COUNTRYSIDE DRIVE, INDIANAPOLIS, IN, 46231","Match","Exact","1655 COUNTRYSIDE DR, INDIANAPOLIS, IN, 46231",108023048,"R"
237805,"1655 COUNTY ROAD V","MOUNT PLEASANT","WI",53177,NA,NA,305,"1655 COUNTY ROAD V, MOUNT PLEASANT, WI, 53177","No_Match",NA,NA,NA,NA
237806,"1655 CR 2200 E","ST JOSEPH","IL",61873,40.122960574,-88.04691159,306,"1655 CR 2200 E, ST JOSEPH, IL, 61873","Match","Exact","1655 CO RD 2200 E, SAINT JOSEPH, IL, 61873",642370659,"R"
237807,"1655 CR 3250","MOUNT PLEASANT","TX",75455,33.2817622580001,-94.939412547,307,"1655 CR 3250, MOUNT PLEASANT, TX, 75455","Match","Exact","1655 CO RD 3250, MOUNT PLEASANT, TX, 75455",83232084,"L"
237808,"1655 DAWN DRIVE","SUWANEE","GA",30024,34.110021321,-84.127450395,308,"1655 DAWN DRIVE, SUWANEE, GA, 30024","Match","Exact","1655 DAWN DR, SUWANEE, GA, 30024",624059725,"L"
237809,"1655 DELIA DRIVE","DECATUR","GA",30033,33.823027369,-84.256227692,309,"1655 DELIA DRIVE, DECATUR, GA, 30033","Match","Exact","1655 DELIA DR, DECATUR, GA, 30033",23362229,"R"
237810,"1655 DIMAS COURT","AZUSA","CA",91702,34.1513559300001,-117.9092319,310,"1655 DIMAS COURT, AZUSA, CA, 91702","Match","Exact","1655 DIMAS CT, AZUSA, CA, 91702",241159191,"R"
237811,"1655 DORAL DR","UPLAND","CA",91784,34.1219593060001,-117.623928655,311,"1655 DORAL DR, UPLAND, CA, 91784","Match","Exact","1655 DORAL DR, UPLAND, CA, 91784",144686722,"L"
237812,"1655 E 6TH ST A4 102","CORONA","CA",92879,33.873784291,-117.53138914,312,"1655 E 6TH ST A4 102, CORONA, CA, 92879","Match","Non_Exact","1655 E 6TH ST, CORONA, CA, 92879",195094396,"R"
237813,"1655 E 6TH STREET SUITE A1 107","CORONA","CA",92879,33.873784291,-117.53138914,313,"1655 E 6TH STREET SUITE A1 107, CORONA, CA, 92879","Match","Non_Exact","1655 E 6TH ST, CORONA, CA, 92879",195094396,"R"
237814,"1655 E CAMPUS CENTER DRIVE","SALT LAKE CITY","UT",84112,40.760816859,-111.84315911,314,"1655 E CAMPUS CENTER DRIVE, SALT LAKE CITY, UT, 84112","Match","Exact","1655 CAMPUS CENTER DR, SALT LAKE CITY, UT, 84112",641004350,"L"
237815,"1655 E CONNECTICUT AVE","SOUTHERN PINES","NC",28387,35.158558327,-79.363548486,315,"1655 E CONNECTICUT AVE, SOUTHERN PINES, NC, 28387","Match","Exact","1655 E CONNECTICUT AVE, SOUTHERN PINES, NC, 28387",20345586,"R"
237816,"1655 E DALKE AVE","SPOKANE","WA",99208,47.713204363,-117.385645656,316,"1655 E DALKE AVE, SPOKANE, WA, 99208","Match","Exact","1655 E DALKE AVE, SPOKANE, WA, 99208",189878119,"L"
237817,"1655 E LANCASTER BLVD","LANCASTER","CA",93535,34.696906095,-118.09999189,317,"1655 E LANCASTER BLVD, LANCASTER, CA, 93535","Match","Exact","1655 E LANCASTER BLVD, LANCASTER, CA, 93535",241249083,"L"
237818,"1655 E SOUTHERN AVE APT 3","TEMPE","AZ",85282,NA,NA,318,"1655 E SOUTHERN AVE APT 3, TEMPE, AZ, 85282","Tie",NA,NA,NA,NA
237819,"1655 EAST GATE DRIVE","STONE MOUNTAIN","GA",30087,33.832620241,-84.139384019,319,"1655 EAST GATE DRIVE, STONE MOUNTAIN, GA, 30087","Match","Exact","1655 E GATE DR, STONE MOUNTAIN, GA, 30087",23386809,"R"
237820,"1655 EAST HOPE","MESA","AZ",85203,33.4428500330001,-111.79509556,320,"1655 EAST HOPE, MESA, AZ, 85203","Match","Non_Exact","1655 E HOPE ST, MESA, AZ, 85203",128244513,"R"
237821,"1655 EAST NORTHERN PARKWAY","BALTIMORE","MD",21239,39.366446266,-76.583264559,321,"1655 EAST NORTHERN PARKWAY, BALTIMORE, MD, 21239","Match","Exact","1655 E NORTHERN PKWY, BALTIMORE, MD, 21239",206447673,"L"
237822,"1655 ELMWOOD AVE 110","ROCHESTER","NY",14620,43.1256510600001,-77.5914545369999,322,"1655 ELMWOOD AVE 110, ROCHESTER, NY, 14620","Match","Exact","1655 ELMWOOD AVE, ROCHESTER, NY, 14620",14541277,"R"
237823,"1655 EVERGREEN ROAD","FRANKFORT","KY",40601,38.140525208,-84.9446372519999,323,"1655 EVERGREEN ROAD, FRANKFORT, KY, 40601","Match","Exact","1655 EVERGREEN RD, FRANKFORT, KY, 40601",97052824,"L"
237824,"1655 FLATBUSH AVE A503","BROOKLYN","NY",11210,40.6302227900001,-73.944896716,324,"1655 FLATBUSH AVE A503, BROOKLYN, NY, 11210","Match","Exact","1655 FLATBUSH AVE, BROOKLYN, NY, 11210",59081791,"L"
237825,"1655 FLATBUSH AVE APT 408","BROOKLYN","NY",11210,40.6302227900001,-73.944896716,325,"1655 FLATBUSH AVE APT 408, BROOKLYN, NY, 11210","Match","Exact","1655 FLATBUSH AVE, BROOKLYN, NY, 11210",59081791,"L"
237826,"1655 FLATBUSH AVE APT C406","BROOKLYN","NY",11210,40.6302227900001,-73.944896716,326,"1655 FLATBUSH AVE APT C406, BROOKLYN, NY, 11210","Match","Exact","1655 FLATBUSH AVE, BROOKLYN, NY, 11210",59081791,"L"
237827,"1655 FLATBUSH AVE C610","BROOKLYN","NY",11210,40.6302227900001,-73.944896716,327,"1655 FLATBUSH AVE C610, BROOKLYN, NY, 11210","Match","Exact","1655 FLATBUSH AVE, BROOKLYN, NY, 11210",59081791,"L"
237828,"1655 FLATBUSH AVE","BROOKLYN","NY",11210,40.6302227900001,-73.944896716,328,"1655 FLATBUSH AVE, BROOKLYN, NY, 11210","Match","Exact","1655 FLATBUSH AVE, BROOKLYN, NY, 11210",59081791,"L"
237829,"1655 FLATBUSH AVENUE - A1603","BROOKLYN","NY",11210,40.6302227900001,-73.944896716,329,"1655 FLATBUSH AVENUE - A1603, BROOKLYN, NY, 11210","Match","Exact","1655 FLATBUSH AVE, BROOKLYN, NY, 11210",59081791,"L"
237830,"1655 FM 528","WEBSTER","TX",77598,29.5244963600001,-95.1391684389999,330,"1655 FM 528, WEBSTER, TX, 77598","Match","Non_Exact","1655 FM 528 RD, WEBSTER, TX, 77598",644728478,"L"
237831,"1655 FM 622","GOLIAD","TX",77963,28.7318901800001,-97.3597369569999,331,"1655 FM 622, GOLIAD, TX, 77963","Match","Exact","1655 FM 622, GOLIAD, TX, 77963",36038966,"R"
237832,"1655 FOXWOOD DR","TRACY","CA",95376,37.7370200830001,-121.446366128,332,"1655 FOXWOOD DR, TRACY, CA, 95376","Match","Exact","1655 FOXWOOD DR, TRACY, CA, 95376",133889001,"R"
237833,"1655 FREY LANE","MISSOULA","MT",59808,46.8818596070001,-114.095993397,333,"1655 FREY LANE, MISSOULA, MT, 59808","Match","Exact","1655 FREY LN, MISSOULA, MT, 59808",205298453,"R"
237834,"1655 GARRETT HOUSE LANE","FAIRFELD","OH",45014,39.3120373730001,-84.57725411,334,"1655 GARRETT HOUSE LANE, FAIRFELD, OH, 45014","Match","Non_Exact","1655 GARRETT HOUSE LN, FAIRFIELD, OH, 45014",113808307,"R"
237835,"1655 GARRETT HOUSE LANE","FAIRFIELD","OH",45014,39.3120373730001,-84.57725411,335,"1655 GARRETT HOUSE LANE, FAIRFIELD, OH, 45014","Match","Exact","1655 GARRETT HOUSE LN, FAIRFIELD, OH, 45014",113808307,"R"
237836,"1655 GEORGE CRAVEN RD","BAXLEY","GA",31513,31.8377046160001,-82.297661879,336,"1655 GEORGE CRAVEN RD, BAXLEY, GA, 31513","Match","Exact","1655 GEORGE CRAVEN RD, BAXLEY, GA, 31513",631974286,"R"
237837,"1655 GEORGIA DR","CONCORD","CA",94519,37.973695863,-122.003007594,337,"1655 GEORGIA DR, CONCORD, CA, 94519","Match","Exact","1655 GEORGIA DR, CONCORD, CA, 94519",192057816,"L"
237838,"1655 GRAYSON HWY","GRAYSON","GA",30017,33.9053327330001,-83.9658814699999,338,"1655 GRAYSON HWY, GRAYSON, GA, 30017","Match","Exact","1655 GRAYSON HWY, GRAYSON, GA, 30017",628089800,"L"
237839,"1655 GREENFIELD AVE APT 14","LOS ANGELES","CA",90025,34.0499506350001,-118.442380235,339,"1655 GREENFIELD AVE APT 14, LOS ANGELES, CA, 90025","Match","Exact","1655 GREENFIELD AVE, LOS ANGELES, CA, 90025",652036812,"R"
237840,"1655 HARDING ST","CONKLIN","MI",49403,43.132853589,-85.8307217289999,340,"1655 HARDING ST, CONKLIN, MI, 49403","Match","Exact","1655 HARDING ST, CONKLIN, MI, 49403",642645693,"R"
237841,"1655 HIGHLAND PARK DRIVE","HIGHLAND","MI",48356,42.6551518000001,-83.5807220089999,341,"1655 HIGHLAND PARK DRIVE, HIGHLAND, MI, 48356","Match","Exact","1655 HIGHLAND PARK DR, HIGHLAND, MI, 48356",69812629,"L"
237842,"1655 HONEYBROOK DRIVE","JENISON","MI",49428,42.9272997030001,-85.823274783,342,"1655 HONEYBROOK DRIVE, JENISON, MI, 49428","Match","Exact","1655 HONEYBROOK DR, JENISON, MI, 49428",71082495,"R"
237843,"1655 HUMMINGBIRD LANE","COOPER HILL","VA",24079,37.029780999,-80.112253303,343,"1655 HUMMINGBIRD LANE, COOPER HILL, VA, 24079","Match","Non_Exact","1655 HUMMINGBIRD LN SE, COPPER HILL, VA, 24079",635296110,"R"
237844,"1655 INDEPENDENCE TRAIL","CUMMING","GA",30040,34.1799690350001,-84.155986556,344,"1655 INDEPENDENCE TRAIL, CUMMING, GA, 30040","Match","Exact","1655 INDEPENDENCE TRL, CUMMING, GA, 30040",647934897,"L"
237845,"1655 IRIS COURT","LOS BANOS","CA",93635,37.050496857,-120.870978925,345,"1655 IRIS COURT, LOS BANOS, CA, 93635","Match","Exact","1655 IRIS CT, LOS BANOS, CA, 93635",125341537,"R"
237846,"1655 IRISH HILL","BILOXI","MS",39531,30.3977021920001,-88.9378100059999,346,"1655 IRISH HILL, BILOXI, MS, 39531","Match","Non_Exact","1655 IRISH HILL DR, BILOXI, MS, 39531",111403305,"R"
237847,"1655 JACKSON SCHOOL HOUSE RD","PASCOAG","RI",2859,41.932807596,-71.7226413779999,347,"1655 JACKSON SCHOOL HOUSE RD, PASCOAG, RI, 2859","Match","Exact","1655 JACKSON SCHOOL HOUSE RD, PASCOAG, RI, 02859",47444217,"L"
237848,"1655 JONES AVENUE","JACKSON","MS",39204,32.291531687,-90.212303462,348,"1655 JONES AVENUE, JACKSON, MS, 39204","Match","Exact","1655 JONES AVE, JACKSON, MS, 39204",65371605,"L"
237849,"1655 JUNIATA RD","AKRON","OH",44305,41.088302029,-81.4576454739999,349,"1655 JUNIATA RD, AKRON, OH, 44305","Match","Exact","1655 JUNIATA RD, AKRON, OH, 44305",61352087,"L"
237850,"1655 LA PRESA AVENUE","SPRING VALLEY","CA",91977,32.7207465560001,-116.992208351,350,"1655 LA PRESA AVENUE, SPRING VALLEY, CA, 91977","Match","Exact","1655 LA PRESA AVE, SPRING VALLEY, CA, 91977",195362683,"R"
237851,"1655 LENOX ROAD","SCHENECTADY","NY",12308,42.82184984,-73.92129339,351,"1655 LENOX ROAD, SCHENECTADY, NY, 12308","Match","Exact","1655 LENOX RD, SCHENECTADY, NY, 12308",18029018,"L"
237852,"1655 LINCOLN GAP ROAD","LINCOLN","VT",5443,44.091116776,-72.95326834,352,"1655 LINCOLN GAP ROAD, LINCOLN, VT, 5443","Match","Exact","1655 LINCOLN GAP RD, LINCOLN, VT, 05443",136466884,"L"
237853,"1655 LISA AVE","VISTA","CA",92084,33.224876609,-117.243057698,353,"1655 LISA AVE, VISTA, CA, 92084","Match","Exact","1655 LISA AVE, VISTA, CA, 92084",195288424,"R"
237854,"1655 LITCHFIELD ROAD","ROCK HILL","SC",29732,35.0198736610001,-81.1098177269999,354,"1655 LITCHFIELD ROAD, ROCK HILL, SC, 29732","Match","Exact","1655 LITCHFIELD RD, ROCK HILL, SC, 29732",19788358,"R"
237855,"1655 MANASCO CIRCLE","FOLSOM","CA",95630,38.6781405770001,-121.116973104,355,"1655 MANASCO CIRCLE, FOLSOM, CA, 95630","Match","Exact","1655 MANASCO CIR, FOLSOM, CA, 95630",133444625,"R"
237856,"1655 MARIETTA WAY 105","SPARKS","NV",89431,39.5197761270001,-119.75400404,356,"1655 MARIETTA WAY 105, SPARKS, NV, 89431","Match","Exact","1655 MARIETTA WAY, SPARKS, NV, 89431",107109488,"R"
237857,"1655 MARK TWAIN","FLORISSANT","MO",63031,NA,NA,357,"1655 MARK TWAIN, FLORISSANT, MO, 63031","No_Match",NA,NA,NA,NA
237858,"1655 MERRILL DR A","SAN JOSE","CA",95124,37.2418286280001,-121.907127785,358,"1655 MERRILL DR A, SAN JOSE, CA, 95124","Match","Exact","1655 MERRILL DR, SAN JOSE, CA, 95124",122946775,"R"
237859,"1655 MERRILL DR APT A","SAN JOSE","CA",95124,37.2418286280001,-121.907127785,359,"1655 MERRILL DR APT A, SAN JOSE, CA, 95124","Match","Exact","1655 MERRILL DR, SAN JOSE, CA, 95124",122946775,"R"
237860,"1655 MISSION STREET UNIT 1045","SAN FRANCISCO","CA",94103,37.771531886,-122.419394763,360,"1655 MISSION STREET UNIT 1045, SAN FRANCISCO, CA, 94103","Match","Exact","1655 MISSION ST, SAN FRANCISCO, CA, 94103",192298624,"R"
237861,"1655 N 23RD ST","MCALLEN","TX",78501,NA,NA,361,"1655 N 23RD ST, MCALLEN, TX, 78501","No_Match",NA,NA,NA,NA
237862,"1655 N CALIFORNIA BLVD - APT 310","WALNUT CREEK","CA",94596,37.902038415,-122.064648573,362,"1655 N CALIFORNIA BLVD - APT 310, WALNUT CREEK, CA, 94596","Match","Non_Exact","1655 N CALIFORNIA BLVD, WALNUT CREEK, CA, 94596",192050124,"L"
237863,"1655 N LOREL","CHICAGO","IL",60639,41.9106888360001,-87.759363787,363,"1655 N LOREL, CHICAGO, IL, 60639","Match","Non_Exact","1655 N LOREL AVE, CHICAGO, IL, 60639",605039904,"R"
237864,"1655 N PORTAL DRIVE NW","WASHINGTON","DC",20012,NA,NA,364,"1655 N PORTAL DRIVE NW, WASHINGTON, DC, 20012","Tie",NA,NA,NA,NA
237865,"1655 N STAGECOACH CT","WICHITA","KS",67230,37.713883347,-97.16985427,365,"1655 N STAGECOACH CT, WICHITA, KS, 67230","Match","Exact","1655 N STAGECOACH CT, WICHITA, KS, 67230",115714437,"R"
237866,"1655 N TVA RD","WEST POINT","MS",39773,NA,NA,366,"1655 N TVA RD, WEST POINT, MS, 39773","No_Match",NA,NA,NA,NA
237867,"1655 NORTH TEGNER","WICKENBURG","AZ",85390,NA,NA,367,"1655 NORTH TEGNER, WICKENBURG, AZ, 85390","No_Match",NA,NA,NA,NA
237868,"1655 OAKWOOD DR ROOM NO N423","NARBERTH","PA",19072,40.040056646,-75.255782,368,"1655 OAKWOOD DR ROOM NO N423, NARBERTH, PA, 19072","Match","Exact","1655 OAKWOOD DR, NARBERTH, PA, 19072",650150302,"R"
237869,"1655 OWENSVILLE ROAD","CHARLOTTESVILLE","VA",22901,38.0818490520001,-78.591624853,369,"1655 OWENSVILLE ROAD, CHARLOTTESVILLE, VA, 22901","Match","Exact","1655 OWENSVILLE RD, CHARLOTTESVILLE, VA, 22901",83403181,"R"
237870,"1655 PALM BEACH LAKES BLVD","WEST PALM BEACH","FL",33401,26.7248041290001,-80.082115339,370,"1655 PALM BEACH LAKES BLVD, WEST PALM BEACH, FL, 33401","Match","Exact","1655 PALM BEACH LAKES BLVD, WEST PALM BEACH, FL, 33401",115271744,"R"
237871,"1655 PATTERSON ROAD","CHINA GROVE","NC",28028,NA,NA,371,"1655 PATTERSON ROAD, CHINA GROVE, NC, 28028","No_Match",NA,NA,NA,NA
237872,"1655 PEEL AVENUE","ORLANDO","FL",32806,28.5226828150001,-81.347528927,372,"1655 PEEL AVENUE, ORLANDO, FL, 32806","Match","Exact","1655 PEEL AVE, ORLANDO, FL, 32806",653179094,"L"
237873,"1655 PORTSIDE PLACE","SAN MARCOS","CA",92078,33.103940295,-117.205396546,373,"1655 PORTSIDE PLACE, SAN MARCOS, CA, 92078","Match","Exact","1655 PORTSIDE PL, SAN MARCOS, CA, 92078",195762860,"L"
237874,"1655 RESEVOIR AVE","WILLOW GROVE","PA",19090,NA,NA,374,"1655 RESEVOIR AVE, WILLOW GROVE, PA, 19090","No_Match",NA,NA,NA,NA
237875,"1655 ROWLAND YORK DRIVE","LINCOLNTON","GA",30817,33.8093770880001,-82.4779882669999,375,"1655 ROWLAND YORK DRIVE, LINCOLNTON, GA, 30817","Match","Exact","1655 ROWLAND YORK DR, LINCOLNTON, GA, 30817",43125244,"R"
237876,"1655 S BETHESDA WAY","CRESCENT CITY","CA",95531,41.775883208,-124.205965813,376,"1655 S BETHESDA WAY, CRESCENT CITY, CA, 95531","Match","Exact","1655 BETHESDA WAY, CRESCENT CITY, CA, 95531",113168645,"R"
237877,"1655 S BLUE ISLAND PMB 536","CHICAGO","IL",60621,NA,NA,377,"1655 S BLUE ISLAND PMB 536, CHICAGO, IL, 60621","No_Match",NA,NA,NA,NA
237878,"1655 S ELM STREET  UNIT 321","CANBY","OR",97013,NA,NA,378,"1655 S ELM STREET  UNIT 321, CANBY, OR, 97013","No_Match",NA,NA,NA,NA
237879,"1655 S HANOVER ST","POTTSTOWN","PA",19465,NA,NA,379,"1655 S HANOVER ST, POTTSTOWN, PA, 19465","No_Match",NA,NA,NA,NA
237880,"1655 S MADISON ST","DENVER","CO",80210,39.6865201000001,-104.946517343,380,"1655 S MADISON ST, DENVER, CO, 80210","Match","Exact","1655 S MADISON ST, DENVER, CO, 80210",177339207,"R"
237881,"1655 S OXFORD AVE","LOS ANGELES","CA",90006,34.042682461,-118.307657203,381,"1655 S OXFORD AVE, LOS ANGELES, CA, 90006","Match","Exact","1655 S OXFORD AVE, LOS ANGELES, CA, 90006",652036869,"R"
237882,"1655 S SAINT MALO STREET","WEST COVINA","CA",91790,34.0506338210001,-117.947859201,382,"1655 S SAINT MALO STREET, WEST COVINA, CA, 91790","Match","Exact","1655 S SAINT MALO ST, WEST COVINA, CA, 91790",141711836,"R"
237883,"1655 S TROY STREET","CHICAGO","IL",60623,41.857484528,-87.7041957,383,"1655 S TROY STREET, CHICAGO, IL, 60623","Match","Exact","1655 S TROY ST, CHICAGO, IL, 60623",605098150,"L"
237884,"1655 SAINT ANDREWS CHURCH ROAD","HENDERSON","NC",27537,36.3542612370001,-78.4479060579999,384,"1655 SAINT ANDREWS CHURCH ROAD, HENDERSON, NC, 27537","Match","Exact","1655 SAINT ANDREWS CHURCH RD, HENDERSON, NC, 27537",624525325,"R"
237885,"1655 SAND CASTLE ROAD","SANIBEL","FL",33957,26.454784762,-82.0412840069999,385,"1655 SAND CASTLE ROAD, SANIBEL, FL, 33957","Match","Exact","1655 SAND CASTLE RD, SANIBEL, FL, 33957",636403581,"R"
237886,"1655 SARATOGA DRIVE","LAFAYETTE","CO",80026,39.9826344150001,-105.085391592,386,"1655 SARATOGA DRIVE, LAFAYETTE, CO, 80026","Match","Exact","1655 SARATOGA DR, LAFAYETTE, CO, 80026",645645103,"L"
237887,"1655 SHERINGTON LN UNIT Z-107","NEWPORT BEACH","CA",92660,NA,NA,387,"1655 SHERINGTON LN UNIT Z-107, NEWPORT BEACH, CA, 92660","No_Match",NA,NA,NA,NA
237888,"1655 SOUTH INGRAM MILL ROAD K203","SPRINGFIELD","MO",65804,37.1831692800001,-93.225723514,388,"1655 SOUTH INGRAM MILL ROAD K203, SPRINGFIELD, MO, 65804","Match","Exact","1655 S INGRAM MILL RD, SPRINGFIELD, MO, 65804",647742743,"R"
237889,"1655 STEVENSON RD","FRANKLIN","KY",42134,36.8031885990001,-86.582570886,389,"1655 STEVENSON RD, FRANKLIN, KY, 42134","Match","Exact","1655 STEVENSON RD, FRANKLIN, KY, 42134",29602562,"L"
237890,"1655 STEVENSON ROAD","FRANKLIN","KY",42134,36.8031885990001,-86.582570886,390,"1655 STEVENSON ROAD, FRANKLIN, KY, 42134","Match","Exact","1655 STEVENSON RD, FRANKLIN, KY, 42134",29602562,"L"
237891,"1655 STRATFORD RD","LAWRENCE","KS",66044,38.96157315,-95.255550848,391,"1655 STRATFORD RD, LAWRENCE, KS, 66044","Match","Exact","1655 STRATFORD RD, LAWRENCE, KS, 66044",17684533,"L"
237892,"1655 SW PADDOCK","PORT SAINT LUCIE","FL",34987,27.293110133,-80.428208807,392,"1655 SW PADDOCK, PORT SAINT LUCIE, FL, 34987","Match","Non_Exact","1655 PADDOCK ST, PORT ST LUCIE, FL, 34987",120180406,"R"
237893,"1655 SWALLOWTAIL LANE","SANFORD","FL",32771,28.8288879410001,-81.3605739559999,393,"1655 SWALLOWTAIL LANE, SANFORD, FL, 32771","Match","Exact","1655 SWALLOWTAIL LN, SANFORD, FL, 32771",633978186,"R"
237894,"1655 TURKEY HOLLOW RD","BAXTER","TN",38544,36.1897530480001,-85.663756193,394,"1655 TURKEY HOLLOW RD, BAXTER, TN, 38544","Match","Exact","1655 TURKEY HOLLOW RD, BAXTER, TN, 38544",25139341,"R"
237895,"1655 UNDERCLIFF AVE","BRONX","NY",10453,40.8497112580001,-73.921520442,395,"1655 UNDERCLIFF AVE, BRONX, NY, 10453","Match","Exact","1655 UNDERCLIFF AVE, BRONX, NY, 10453",609080739,"L"
237896,"1655 UNION ST","LANCASTER","OH",43130,39.7185658110001,-82.6265931249999,396,"1655 UNION ST, LANCASTER, OH, 43130","Match","Exact","1655 UNION ST, LANCASTER, OH, 43130",37220252,"L"
237897,"1655 UNION STREET","BROOKLYN","NY",11213,40.6680705590001,-73.9355454929999,397,"1655 UNION STREET, BROOKLYN, NY, 11213","Match","Exact","1655 UNION ST, BROOKLYN, NY, 11213",59079766,"L"
237898,"1655 VENUS CIR","RICHLAND","WA",99352,46.2303933490001,-119.257762825,398,"1655 VENUS CIR, RICHLAND, WA, 99352","Match","Exact","1655 VENUS CR, RICHLAND, WA, 99352",606988499,"R"
237899,"1655 W 109TH STREET","LOS ANGELES","CA",90047,33.9374623530001,-118.305675105,399,"1655 W 109TH STREET, LOS ANGELES, CA, 90047","Match","Exact","1655 W 109TH ST, LOS ANGELES, CA, 90047",141660792,"R"
237900,"1655 W 109TH STREET","LOS ANGELES","CA",90747,33.9374623530001,-118.305675105,400,"1655 W 109TH STREET, LOS ANGELES, CA, 90747","Match","Non_Exact","1655 W 109TH ST, LOS ANGELES, CA, 90047",141660792,"R"
237901,"1655 W 215TH","TORRANCE","CA",90501,33.8334887840001,-118.307896464,401,"1655 W 215TH, TORRANCE, CA, 90501","Match","Non_Exact","1655 W 215TH ST, TORRANCE, CA, 90501",642865103,"R"
237902,"1655 W GULF TO LAKE HWY","LECANTO","FL",34461,NA,NA,402,"1655 W GULF TO LAKE HWY, LECANTO, FL, 34461","No_Match",NA,NA,NA,NA
237903,"1655 W LIDNER AVE","MESA","AZ",85202,NA,NA,403,"1655 W LIDNER AVE, MESA, AZ, 85202","No_Match",NA,NA,NA,NA
237904,"1655 WEST BIG TRAILS DRIVE P0 8411","JACKSON","WY",83001,43.4323151890001,-110.796402091,404,"1655 WEST BIG TRAILS DRIVE P0 8411, JACKSON, WY, 83001","Match","Exact","1655 W BIG TRAILS DR, JACKSON, WY, 83001",130422251,"R"
237905,"1655 WILDWOOD DRIVE","WOOSTER","OH",44691,40.838569926,-81.916338331,405,"1655 WILDWOOD DRIVE, WOOSTER, OH, 44691","Match","Exact","1655 WILDWOOD DR, WOOSTER, OH, 44691",58738683,"R"
237906,"1655","HOUSTON","TX",77251,NA,NA,406,"1655, HOUSTON, TX, 77251","No_Match",NA,NA,NA,NA
237907,"1655","SALISBURY","NC",28144,NA,NA,407,"1655, SALISBURY, NC, 28144","No_Match",NA,NA,NA,NA
237908,"16550 ARROW BLVD UNIT 79","FONTANA","CA",92355,34.0993542430001,-117.443241564,408,"16550 ARROW BLVD UNIT 79, FONTANA, CA, 92355","Match","Non_Exact","16550 ARROW BLVD, FONTANA, CA, 92335",144642378,"L"
237909,"16550 BURCHAM","LOGAN","OH",43138,39.5008091390001,-82.434099158,409,"16550 BURCHAM, LOGAN, OH, 43138","Match","Non_Exact","16550 BURCHAM RD, LOGAN, OH, 43138",36071254,"L"
237910,"16550 CHAPEL","DETROIT","MI",48219,42.409971311,-83.253626256,410,"16550 CHAPEL, DETROIT, MI, 48219","Match","Non_Exact","16550 CHAPEL ST, DETROIT, MI, 48219",95421266,"R"
237911,"16550 CHEYENNE","DETROIT","MI",48235,42.4124548630001,-83.17527176,411,"16550 CHEYENNE, DETROIT, MI, 48235","Match","Non_Exact","16550 CHEYENNE ST, DETROIT, MI, 48235",95424915,"R"
237912,"16550 FRANKLIN ROAD","FORT BRAGG","CA",95437,39.3879326900001,-123.77134384,412,"16550 FRANKLIN ROAD, FORT BRAGG, CA, 95437","Match","Exact","16550 FRANKLIN RD, FORT BRAGG, CA, 95437",67312186,"L"
237913,"16550 ISSAC VILLAR RD","PRAIRIEVILLE","LA",70769,30.314367804,-90.858761121,413,"16550 ISSAC VILLAR RD, PRAIRIEVILLE, LA, 70769","Match","Exact","16550 ISSAC VILLAR RD, PRAIRIEVILLE, LA, 70769",115044221,"R"
237914,"16550 LAFLEUR DRIVE","EAST LANSING","MI",48823,NA,NA,414,"16550 LAFLEUR DRIVE, EAST LANSING, MI, 48823","No_Match",NA,NA,NA,NA
237915,"16550 LASALLE AVE","DETROIT","MI",48221,NA,NA,415,"16550 LASALLE AVE, DETROIT, MI, 48221","No_Match",NA,NA,NA,NA
237916,"16550 MORNINGSIDE DR","MONTVERDE","FL",34756,28.5874238380001,-81.675692227,416,"16550 MORNINGSIDE DR, MONTVERDE, FL, 34756","Match","Exact","16550 MORNINGSIDE DR, MONTVERDE, FL, 34756",94182786,"L"
237917,"16550 S LUELLA","SOUTH HOLLAND","IL",60473,41.5933206110001,-87.567233663,417,"16550 S LUELLA, SOUTH HOLLAND, IL, 60473","Match","Non_Exact","16550 LUELLA AVE, SOUTH HOLLAND, IL, 60473",111781291,"R"
237918,"16550 SW 84 AVE","PALMETTO BAY","FL",33157,25.616674576,-80.328808379,418,"16550 SW 84 AVE, PALMETTO BAY, FL, 33157","Match","Non_Exact","16550 SW 84TH AVE, PALMETTO BAY, FL, 33157",115986823,"R"
237919,"16550 VANOWEN UNIT 103","LAKE BALBOA","CA",91406,34.193892265,-118.49349101,419,"16550 VANOWEN UNIT 103, LAKE BALBOA, CA, 91406","Match","Non_Exact","16550 VANOWEN ST, LAKE BALBOA, CA, 91406",141556293,"L"
237920,"16550","MONTVERDE","FL",34756,NA,NA,420,"16550, MONTVERDE, FL, 34756","No_Match",NA,NA,NA,NA
237921,"16551 164TH AVE SE","RENTON","WA",98058,47.4539600530001,-122.121424391,421,"16551 164TH AVE SE, RENTON, WA, 98058","Match","Exact","16551 164TH AVE SE, RENTON, WA, 98058",636730604,"L"
237922,"16551 ECHO HILL WAY","HACIENDA HEIGHTS","CA",91745,33.9847783450001,-117.949011478,422,"16551 ECHO HILL WAY, HACIENDA HEIGHTS, CA, 91745","Match","Non_Exact","16551 ECHO HILL LN, HACIENDA HTS, CA, 91745",141756333,"L"
237923,"16551 FERGUSON","DETROIT","MI",48235,42.4108395710001,-83.209831224,423,"16551 FERGUSON, DETROIT, MI, 48235","Match","Non_Exact","16551 FERGUSON ST, DETROIT, MI, 48235",95423559,"L"
237924,"16551 NE 5TH STREET","WILLISTON","FL",32696,29.338480642,-82.497490044,424,"16551 NE 5TH STREET, WILLISTON, FL, 32696","Match","Non_Exact","16551 NE 5TH ST, WILLISTON, FL, 32696",635790843,"R"
237925,"16551 S SAHUARITA PL","SAHUARITA","AZ",85629,31.954694659,-110.825021599,425,"16551 S SAHUARITA PL, SAHUARITA, AZ, 85629","Match","Exact","16551 S SAHUARITA PL, SAHUARITA, AZ, 85629",627419091,"L"
237926,"16551 SW 120 PLACE","CEDAR KEY","FL",32625,29.1527050390001,-83.0465140049999,426,"16551 SW 120 PLACE, CEDAR KEY, FL, 32625","Match","Exact","16551 SW 120TH PL, CEDAR KEY, FL, 32625",43312116,"L"
237927,"16551 VICTORIA CROSSING UNIT D","GROVER","MO",63040,38.5732000400001,-90.6293680809999,427,"16551 VICTORIA CROSSING UNIT D, GROVER, MO, 63040","Match","Non_Exact","16551 VICTORIA CROSSING DR, GROVER, MO, 63040",100188116,"R"
237928,"16551 WESTON WAY","BROOMFIELD","CO",80023,39.996558963,-105.023727977,428,"16551 WESTON WAY, BROOMFIELD, CO, 80023","Match","Exact","16551 WESTON WAY, BROOMFIELD, CO, 80023",633629432,"L"
237929,"16552 77TH ST SE","BECKER","MN",55308,45.4586748460001,-93.817371881,429,"16552 77TH ST SE, BECKER, MN, 55308","Match","Exact","16552 77TH ST SE, BECKER, MN, 55308",97765881,"L"
237930,"16552 NE PACIFIC TERRACE","PORTLAND","OR",97230,45.5289833800001,-122.492440894,430,"16552 NE PACIFIC TERRACE, PORTLAND, OR, 97230","Match","Exact","16552 NE PACIFIC TER, PORTLAND, OR, 97230",157592759,"R"
237931,"16552 SW 39TH STREET","MIRAMAR","FL",33027,25.972239926,-80.367192271,431,"16552 SW 39TH STREET, MIRAMAR, FL, 33027","Match","Exact","16552 SW 39TH ST, MIRAMAR, FL, 33027",114797520,"R"
237932,"16553 81ST AVENUE N","MAPLE GROVE","MN",55311,45.1029725320001,-93.4898838029999,432,"16553 81ST AVENUE N, MAPLE GROVE, MN, 55311","Match","Exact","16553 81ST AVE N, MAPLE GROVE, MN, 55311",43845284,"L"
237933,"16554 DELATE RD NE","POULSBO","WA",98370,47.713483824,-122.614688631,433,"16554 DELATE RD NE, POULSBO, WA, 98370","Match","Exact","16554 DELATE RD NE, POULSBO, WA, 98370",187636724,"R"
237934,"16554 GIBSON MILL ROAD","CULPEPER","VA",22701,38.476133507,-78.0554728239999,434,"16554 GIBSON MILL ROAD, CULPEPER, VA, 22701","Match","Exact","16554 GIBSON MILL RD, CULPEPER, VA, 22701",29847645,"L"
237935,"16554 SE 30TH ST","BELLEVUE","WA",98008,47.583043323,-122.11965483,435,"16554 SE 30TH ST, BELLEVUE, WA, 98008","Match","Exact","16554 SE 30TH ST, BELLEVUE, WA, 98008",186614885,"L"
237936,"16554 SW 59 TERRACE","MIAMI","FL",33193,25.7096426410001,-80.461552064,436,"16554 SW 59 TERRACE, MIAMI, FL, 33193","Match","Exact","16554 SW 59TH TER, MIAMI, FL, 33193",649356917,"R"
237937,"16555 BENTLER","DETROIT","MI",48219,42.4100210980001,-83.252400643,437,"16555 BENTLER, DETROIT, MI, 48219","Match","Non_Exact","16555 BENTLER ST, DETROIT, MI, 48219",95421268,"L"
237938,"16555 CO RD 1","METAMORA","OH",43540,41.7078824440001,-83.880009038,438,"16555 CO RD 1, METAMORA, OH, 43540","Match","Exact","16555 CO RD 1, METAMORA, OH, 43540",635572644,"L"
237939,"16555 DEGROOT ROAD","COLORADO SPRINGS","CO",80928,38.590358666,-104.498018331,439,"16555 DEGROOT ROAD, COLORADO SPRINGS, CO, 80928","Match","Exact","16555 DEGROOT RD, COLORADO SPRINGS, CO, 80928",610779412,"R"
237940,"16555 HARMONY LN","ST ROBERT","MO",65584,37.844453593,-92.142653888,440,"16555 HARMONY LN, ST ROBERT, MO, 65584","Match","Exact","16555 HARMONY LN, SAINT ROBERT, MO, 65584",646108296,"L"
237941,"16555 ROLLING HILLS","DUBUQUE","IA",52001,42.5404762000001,-90.698595814,441,"16555 ROLLING HILLS, DUBUQUE, IA, 52001","Match","Non_Exact","16555 ROLLING HILLS ESTATE, DUBUQUE, IA, 52001",624617674,"R"
237942,"16555 W 53RD PL","GOLDEN","CO",80403,39.7925973160001,-105.187634378,442,"16555 W 53RD PL, GOLDEN, CO, 80403","Match","Exact","16555 W 53RD PL, GOLDEN, CO, 80403",177749847,"R"
237943,"165553 TRASK BRIDGE ROAD","PECATONICA","IL",61063,NA,NA,443,"165553 TRASK BRIDGE ROAD, PECATONICA, IL, 61063","No_Match",NA,NA,NA,NA
237944,"16556 355TH AVENUE","BATTLE LAKE","MN",56515,46.2027321910001,-95.7498619899999,444,"16556 355TH AVENUE, BATTLE LAKE, MN, 56515","Match","Exact","16556 355TH AVE, BATTLE LAKE, MN, 56515",168311655,"R"
237945,"16556 STONECREST DR","CONROE","TX",77302,30.2113198340001,-95.371229827,445,"16556 STONECREST DR, CONROE, TX, 77302","Match","Exact","16556 STONECREST DR, CONROE, TX, 77302",79335687,"R"
237946,"16556 VALENCIA AVE STE A","FONTANA","CA",92335,34.0975440770001,-117.443120081,446,"16556 VALENCIA AVE STE A, FONTANA, CA, 92335","Match","Exact","16556 VALENCIA AVE, FONTANA, CA, 92335",144645248,"L"
237947,"16556 WILLOW WALK DR","LOCKPORT","IL",60441,41.567795371,-88.0182034869999,447,"16556 WILLOW WALK DR, LOCKPORT, IL, 60441","Match","Exact","16556 WILLOW WALK DR, LOCKPORT, IL, 60441",641283220,"R"
237948,"16557 HIGHLAND SUMMIT DR","WILDWOOD","MO",63011,38.621669179,-90.6226754899999,448,"16557 HIGHLAND SUMMIT DR, WILDWOOD, MO, 63011","Match","Exact","16557 HIGHLAND SUMMIT DR, WILDWOOD, MO, 63011",100179801,"R"
237949,"16557 HIGHLAND SUMMIT DRIVE","WILDWOOD","MO",63011,38.621669179,-90.6226754899999,449,"16557 HIGHLAND SUMMIT DRIVE, WILDWOOD, MO, 63011","Match","Exact","16557 HIGHLAND SUMMIT DR, WILDWOOD, MO, 63011",100179801,"R"
237950,"16557 SE 30TH ST","BELLEVUE","WA",98008,47.583032233,-122.119632486,450,"16557 SE 30TH ST, BELLEVUE, WA, 98008","Match","Exact","16557 SE 30TH ST, BELLEVUE, WA, 98008",186614885,"R"
237951,"16559 COUNTY ROAD X31","ANAMOSA","IA",52205,NA,NA,451,"16559 COUNTY ROAD X31, ANAMOSA, IA, 52205","No_Match",NA,NA,NA,NA
237952,"1656  FINCHES GARDEN ROAD","BETHLEHEM","PA",18015,40.6009349830001,-75.349048521,452,"1656  FINCHES GARDEN ROAD, BETHLEHEM, PA, 18015","Match","Exact","1656 FINCHES GARDEN RD, BETHLEHEM, PA, 18015",627071598,"L"
237953,"1656 51ST STREET","BROOKLYN","NY",11204,40.6290923060001,-73.985292452,453,"1656 51ST STREET, BROOKLYN, NY, 11204","Match","Exact","1656 51ST ST, BROOKLYN, NY, 11204",59080348,"R"
237954,"1656 5TH AVE UNIT E","BAY SHORE","NY",11706,NA,NA,454,"1656 5TH AVE UNIT E, BAY SHORE, NY, 11706","Tie",NA,NA,NA,NA
237955,"1656 5TH AVE","BAY SHORE","NY",11706,NA,NA,455,"1656 5TH AVE, BAY SHORE, NY, 11706","Tie",NA,NA,NA,NA
237956,"1656 ADSWOOD RD","CLARKSVILLE","TN",37042,36.515305154,-87.4244148239999,456,"1656 ADSWOOD RD, CLARKSVILLE, TN, 37042","Match","Exact","1656 ADSWOOD RD, CLARKSVILLE, TN, 37042",31831348,"L"
237957,"1656 ANDREW ST SE","KENTWOOD","MI",49508,42.8742181200001,-85.6236978319999,457,"1656 ANDREW ST SE, KENTWOOD, MI, 49508","Match","Exact","1656 ANDREW ST SE, KENTWOOD, MI, 49508",12465542,"R"
237958,"1656 BARBARA ANN CIRCLE","KANNAPOLIS","NC",28083,35.496659091,-80.597286012,458,"1656 BARBARA ANN CIRCLE, KANNAPOLIS, NC, 28083","Match","Exact","1656 BARBARA ANN CIR, KANNAPOLIS, NC, 28083",24915726,"R"
237959,"1656 BARBERS LANE","WEST PALM BEACH","FL",33417,NA,NA,459,"1656 BARBERS LANE, WEST PALM BEACH, FL, 33417","No_Match",NA,NA,NA,NA
237960,"1656 BLACKOAK COURT","LIVERMORE","CA",94551,37.723327055,-121.714638319,460,"1656 BLACKOAK COURT, LIVERMORE, CA, 94551","Match","Exact","1656 BLACKOAK CT, LIVERMORE, CA, 94551",125074161,"R"
237961,"1656 CARROLL ST","BROOKLYN","NY",11213,40.666170331,-73.932239038,461,"1656 CARROLL ST, BROOKLYN, NY, 11213","Match","Exact","1656 CARROLL ST, BROOKLYN, NY, 11213",59079782,"R"
237962,"1656 CENTER POINT ROAD","BIRMINGHAM","AL",35215,NA,NA,462,"1656 CENTER POINT ROAD, BIRMINGHAM, AL, 35215","Tie",NA,NA,NA,NA
237963,"1656 CHESTNUT OAK","SCHERTZ","TX",78154,29.595323724,-98.262214909,463,"1656 CHESTNUT OAK, SCHERTZ, TX, 78154","Match","Exact","1656 CHESTNUT OAK, SCHERTZ, TX, 78154",234718884,"R"
237964,"1656 CHESTNUT STREET","BOWLING GREEN","KY",42101,36.9827574460001,-86.452815828,464,"1656 CHESTNUT STREET, BOWLING GREEN, KY, 42101","Match","Exact","1656 CHESTNUT ST, BOWLING GREEN, KY, 42101",28005812,"R"
237965,"1656 CHURCH STREET","AMBRIDGE","PA",15003,40.5998676780001,-80.232474236,465,"1656 CHURCH STREET, AMBRIDGE, PA, 15003","Match","Exact","1656 CHURCH ST, AMBRIDGE, PA, 15003",52568167,"R"
237966,"1656 CORAL AVENUE","NORTH LAUDERDALE","FL",33068,26.2060096490001,-80.240681594,466,"1656 CORAL AVENUE, NORTH LAUDERDALE, FL, 33068","Match","Exact","1656 CORAL AVE, N LAUDERDALE, FL, 33068",114751805,"R"
237967,"1656 CR 2400 N","ARTHUR","IL",61911,39.7539712280001,-88.5013798109999,467,"1656 CR 2400 N, ARTHUR, IL, 61911","Match","Non_Exact","1656 CO RD 2400N, ARTHUR, IL, 61911",5815207,"L"
237968,"1656 DOTSON RIDGE RD","HICO","WV",25854,38.1164345070001,-80.9578521879999,468,"1656 DOTSON RIDGE RD, HICO, WV, 25854","Match","Exact","1656 DOTSON RIDGE, HICO, WV, 25854",75088999,"L"
237969,"1656 E CYPRESS LANE","FAYETTEVILLE","AR",72703,36.088026346,-94.137315159,469,"1656 E CYPRESS LANE, FAYETTEVILLE, AR, 72703","Match","Exact","1656 E CYPRESS LN, FAYETTEVILLE, AR, 72703",49085655,"L"
237970,"1656 E LONGVIEW DR","PARK CITY","UT",84036,40.632869505,-111.389336126,470,"1656 E LONGVIEW DR, PARK CITY, UT, 84036","Match","Non_Exact","1656 LONGVIEW DR, FRANCIS, UT, 84036",651104304,"L"
237971,"1656 E SYCAMORE","COLUMBUS","OH",43206,39.9470449120001,-82.953186295,471,"1656 E SYCAMORE, COLUMBUS, OH, 43206","Match","Non_Exact","1656 E SYCAMORE ST, COLUMBUS, OH, 43206",218512575,"L"
237972,"1656 EUREKA ROAD","SOUTH SHORE","KY",41175,38.559823362,-83.007810927,472,"1656 EUREKA ROAD, SOUTH SHORE, KY, 41175","Match","Exact","1656 EUREKA RD, SOUTH SHORE, KY, 41175",151412205,"L"
237973,"1656 EVERGREEN PARK DR","COSHOCTON","OH",43812,40.254607461,-81.8398893409999,473,"1656 EVERGREEN PARK DR, COSHOCTON, OH, 43812","Match","Exact","1656 EVERGREEN PARK DR, COSHOCTON, OH, 43812",52106195,"L"
237974,"1656 FARM MEADOW RD","FARMINGTON","UT",84025,40.9857782300001,-111.923282536,474,"1656 FARM MEADOW RD, FARMINGTON, UT, 84025","Match","Non_Exact","1656 W FARM MEADOW RD, FARMINGTON, UT, 84025",229338470,"R"
237975,"1656 FLORIDA AVENUE","PALM HARBOR","FL",34683,28.0781580170001,-82.755991646,475,"1656 FLORIDA AVENUE, PALM HARBOR, FL, 34683","Match","Exact","1656 FLORIDA AVE, PALM HARBOR, FL, 34683",124775779,"R"
237976,"1656 FOYE DRIVE","JACKSON","MI",49203,42.206533719,-84.3876428029999,476,"1656 FOYE DRIVE, JACKSON, MI, 49203","Match","Exact","1656 FOYE DR, JACKSON, MI, 49203",17618735,"L"
237977,"1656 HALLMARK HILL DRIVE","GRIFFIN","GA",30223,33.276974642,-84.296925228,477,"1656 HALLMARK HILL DRIVE, GRIFFIN, GA, 30223","Match","Non_Exact","1656 HALLMARK HILLS DR, GRIFFIN, GA, 30223",618709382,"L"
237978,"1656 HERON LOOP DR","HOWELL","MI",48855,42.6237717700001,-83.913504587,478,"1656 HERON LOOP DR, HOWELL, MI, 48855","Match","Exact","1656 HERON LOOP DR, HOWELL, MI, 48855",643022346,"R"
237979,"1656 INDIANA STREET","LAWRENCE","KS",66044,38.9536426170001,-95.243004083,479,"1656 INDIANA STREET, LAWRENCE, KS, 66044","Match","Exact","1656 INDIANA ST, LAWRENCE, KS, 66044",17684785,"L"
237980,"1656 JADE BLVD","VALPARAISO","IN",46385,41.5046179870001,-87.0814240839999,480,"1656 JADE BLVD, VALPARAISO, IN, 46385","Match","Exact","1656 JADE BLVD, VALPARAISO, IN, 46385",600438471,"L"
237981,"1656 KEN KLARE DR","BEAVER CREEK","CA",45432,NA,NA,481,"1656 KEN KLARE DR, BEAVER CREEK, CA, 45432","No_Match",NA,NA,NA,NA
237982,"1656 KINGSLEY DR","ANDERSON","IN",46011,40.124242414,-85.700522099,482,"1656 KINGSLEY DR, ANDERSON, IN, 46011","Match","Exact","1656 KINGSLEY DR, ANDERSON, IN, 46011",31112834,"R"
237983,"1656 LAUREL STREET","MOBILE","AL",36604,30.6817295490001,-88.078100944,483,"1656 LAUREL STREET, MOBILE, AL, 36604","Match","Exact","1656 LAUREL ST, MOBILE, AL, 36604",61861228,"R"
237984,"1656 LUCK STREET","SHREVEPORT","LA",71108,NA,NA,484,"1656 LUCK STREET, SHREVEPORT, LA, 71108","No_Match",NA,NA,NA,NA
237985,"1656 MCKINLEY ST","EUGENE","OR",97402,44.0422616990001,-123.129040597,485,"1656 MCKINLEY ST, EUGENE, OR, 97402","Match","Exact","1656 MCKINLEY ST, EUGENE, OR, 97402",178165799,"R"
237986,"1656 N HAMPSHIRE LANE","LEHI","UT",84043,40.407886235,-111.883457548,486,"1656 N HAMPSHIRE LANE, LEHI, UT, 84043","Match","Exact","1656 HAMPSHIRE LN, LEHI, UT, 84043",645135336,"R"
237987,"1656 N RANDALL AVE","COLTON","CA",92324,34.0860098260001,-117.337010186,487,"1656 N RANDALL AVE, COLTON, CA, 92324","Match","Exact","1656 N RANDALL AVE, COLTON, CA, 92324",144687880,"L"
237988,"1656 NORTH 16TH STREET","BATON ROUGE","LA",70802,30.4629047170001,-91.173289386,488,"1656 NORTH 16TH STREET, BATON ROUGE, LA, 70802","Match","Exact","1656 N 16TH ST, BATON ROUGE, LA, 70802",92180464,"R"
237989,"1656 NORTH 16TH","BATON ROUGE","LA",70802,30.4629047170001,-91.173289386,489,"1656 NORTH 16TH, BATON ROUGE, LA, 70802","Match","Non_Exact","1656 N 16TH ST, BATON ROUGE, LA, 70802",92180464,"R"
237990,"1656 OAK LANE","WAUKON","IA",52172,43.3084200270001,-91.46078964,490,"1656 OAK LANE, WAUKON, IA, 52172","Match","Exact","1656 OAK LN, WAUKON, IA, 52172",627103821,"L"
237991,"1656 OAK RIDGE CIRCLE","EAGAN","MN",55122,44.8001039760001,-93.184066007,491,"1656 OAK RIDGE CIRCLE, EAGAN, MN, 55122","Match","Exact","1656 OAK RIDGE CIR, EAGAN, MN, 55122",624880397,"R"
237992,"1656 ORCHARD DRIVE","OJAI","CA",93023,34.428321188,-119.287076537,492,"1656 ORCHARD DRIVE, OJAI, CA, 93023","Match","Exact","1656 ORCHARD DR, OJAI, CA, 93023",109981944,"R"
237993,"1656 PERLICH STREET","MCLEAN","VA",22101,38.9237104910001,-77.1708996259999,493,"1656 PERLICH STREET, MCLEAN, VA, 22101","Match","Exact","1656 PERLICH ST, MCLEAN, VA, 22101",641080909,"L"
237994,"1656 PLAZA DR","MARRERO","LA",70072,29.8846909970001,-90.116229059,494,"1656 PLAZA DR, MARRERO, LA, 70072","Match","Exact","1656 PLAZA DR, MARRERO, LA, 70072",93505894,"R"
237995,"1656 POWDERHORN DRIVE","NEWTOWN","PA",18940,40.2593766360001,-74.8940847869999,495,"1656 POWDERHORN DRIVE, NEWTOWN, PA, 18940","Match","Exact","1656 POWDERHORN DR, NEWTOWN, PA, 18940",624188285,"L"
237996,"1656 PROSPECT STREET","SPRINGFIELD","OH",45503,39.9271357600001,-83.783020608,496,"1656 PROSPECT STREET, SPRINGFIELD, OH, 45503","Match","Exact","1656 PROSPECT ST, SPRINGFIELD, OH, 45503",135010341,"L"
237997,"1656 REDSTONE CT","ST AUGUSTINE","FL",32092,30.0558521450001,-81.5250013089999,497,"1656 REDSTONE CT, ST AUGUSTINE, FL, 32092","Match","Exact","1656 REDSTONE CT, SAINT AUGUSTINE, FL, 32092",92623422,"R"
237998,"1656 RICHMOND DRIVE","LOUISVILLE","KY",40205,38.2214113260001,-85.708296756,498,"1656 RICHMOND DRIVE, LOUISVILLE, KY, 40205","Match","Exact","1656 RICHMOND DR, LOUISVILLE, KY, 40205",618513015,"R"
237999,"1656 S 173RD DR","GOODYEAR","AZ",85338,33.4312197990001,-112.432744736,499,"1656 S 173RD DR, GOODYEAR, AZ, 85338","Match","Exact","1656 S 173RD DR, GOODYEAR, AZ, 85338",128855695,"R"
238000,"1656 S NUTMEG ST","BENNETT","CO",80102,39.6851112510001,-104.513429692,500,"1656 S NUTMEG ST, BENNETT, CO, 80102","Match","Exact","1656 S NUTMEG ST, BENNETT, CO, 80102",177526310,"L"
