"ID","Address","City","State","Zip","lat","long","id","input_address","match_indicator","match_type","matched_address","tiger_line_id","tiger_side"
967001,"P O BOX 7547","NORTH BERGEN","NJ",7047,NA,NA,1,"P O BOX 7547, NORTH BERGEN, NJ, 7047","No_Match",NA,NA,NA,NA
967002,"P O BOX 755","FLORENCE","SC",29503,NA,NA,2,"P O BOX 755, FLORENCE, SC, 29503","No_Match",NA,NA,NA,NA
967003,"P O BOX 755","HANOVER","NH",3755,NA,NA,3,"P O BOX 755, HANOVER, NH, 3755","No_Match",NA,NA,NA,NA
967004,"P O BOX 755","RULEVILLE","MS",38771,NA,NA,4,"P O BOX 755, RULEVILLE, MS, 38771","No_Match",NA,NA,NA,NA
967005,"P O BOX 755","WESTMINSTER","MD",21158,NA,NA,5,"P O BOX 755, WESTMINSTER, MD, 21158","No_Match",NA,NA,NA,NA
967006,"P O BOX 758","ANGEL FIRE","NM",87710,NA,NA,6,"P O BOX 758, ANGEL FIRE, NM, 87710","No_Match",NA,NA,NA,NA
967007,"P O BOX 76","CEDAR KEY","FL",32625,NA,NA,7,"P O BOX 76, CEDAR KEY, FL, 32625","No_Match",NA,NA,NA,NA
967008,"P O BOX 76","EVADALE","TX",77615,NA,NA,8,"P O BOX 76, EVADALE, TX, 77615","No_Match",NA,NA,NA,NA
967009,"P O BOX 760","ARROYO SECO","NM",87514,NA,NA,9,"P O BOX 760, ARROYO SECO, NM, 87514","No_Match",NA,NA,NA,NA
967010,"P O BOX 760324","LATHRUP-VILLAGE","MI",48076,NA,NA,10,"P O BOX 760324, LATHRUP-VILLAGE, MI, 48076","No_Match",NA,NA,NA,NA
967011,"P O BOX 760503","LATHRUP VILLAGE","MI",48076,NA,NA,11,"P O BOX 760503, LATHRUP VILLAGE, MI, 48076","No_Match",NA,NA,NA,NA
967012,"P O BOX 7611","PINE BLUFF","AR",71611,NA,NA,12,"P O BOX 7611, PINE BLUFF, AR, 71611","No_Match",NA,NA,NA,NA
967013,"P O BOX 7624","BAINBRIDGE","GA",39818,NA,NA,13,"P O BOX 7624, BAINBRIDGE, GA, 39818","No_Match",NA,NA,NA,NA
967014,"P O BOX 763","LOON LAKE","WA",99148,NA,NA,14,"P O BOX 763, LOON LAKE, WA, 99148","No_Match",NA,NA,NA,NA
967015,"P O BOX 7632","DENVER","CO",80207,NA,NA,15,"P O BOX 7632, DENVER, CO, 80207","No_Match",NA,NA,NA,NA
967016,"P O BOX 763476","DALLAS","TX",75376,NA,NA,16,"P O BOX 763476, DALLAS, TX, 75376","No_Match",NA,NA,NA,NA
967017,"P O BOX 764","SWANSEA","SC",29160,NA,NA,17,"P O BOX 764, SWANSEA, SC, 29160","No_Match",NA,NA,NA,NA
967018,"P O BOX 765","LATON","CA",93242,NA,NA,18,"P O BOX 765, LATON, CA, 93242","No_Match",NA,NA,NA,NA
967019,"P O BOX 7652","WILTON","CT",6897,NA,NA,19,"P O BOX 7652, WILTON, CT, 6897","No_Match",NA,NA,NA,NA
967020,"P O BOX 765234","DALLAS","TX",75376,NA,NA,20,"P O BOX 765234, DALLAS, TX, 75376","No_Match",NA,NA,NA,NA
967021,"P O BOX 765266","DALLAS","TX",75376,NA,NA,21,"P O BOX 765266, DALLAS, TX, 75376","No_Match",NA,NA,NA,NA
967022,"P O BOX 7654","SILVER SPRINGS","MD",20907,NA,NA,22,"P O BOX 7654, SILVER SPRINGS, MD, 20907","No_Match",NA,NA,NA,NA
967023,"P O BOX 766","ANADARKO","OK",73005,NA,NA,23,"P O BOX 766, ANADARKO, OK, 73005","No_Match",NA,NA,NA,NA
967024,"P O BOX 76617","MILWAUKEE","WI",53216,NA,NA,24,"P O BOX 76617, MILWAUKEE, WI, 53216","No_Match",NA,NA,NA,NA
967025,"P O BOX 767","WILLIAMSTON","SC",29697,NA,NA,25,"P O BOX 767, WILLIAMSTON, SC, 29697","No_Match",NA,NA,NA,NA
967026,"P O BOX 7673","TALLAHASSEE","FL",32314,NA,NA,26,"P O BOX 7673, TALLAHASSEE, FL, 32314","No_Match",NA,NA,NA,NA
967027,"P O BOX 768","MOORHEAD","MS",38671,NA,NA,27,"P O BOX 768, MOORHEAD, MS, 38671","No_Match",NA,NA,NA,NA
967028,"P O BOX 769","TAZEWELL","TN",37879,NA,NA,28,"P O BOX 769, TAZEWELL, TN, 37879","No_Match",NA,NA,NA,NA
967029,"P O BOX 77","EAST SPENCER","NC",28039,NA,NA,29,"P O BOX 77, EAST SPENCER, NC, 28039","No_Match",NA,NA,NA,NA
967030,"P O BOX 77","REDCREST","CA",95569,NA,NA,30,"P O BOX 77, REDCREST, CA, 95569","No_Match",NA,NA,NA,NA
967031,"P O BOX 77","TALKING ROCK","GA",30175,NA,NA,31,"P O BOX 77, TALKING ROCK, GA, 30175","No_Match",NA,NA,NA,NA
967032,"P O BOX 770","HAGERMAN","ID",83332,NA,NA,32,"P O BOX 770, HAGERMAN, ID, 83332","No_Match",NA,NA,NA,NA
967033,"P O BOX 770095","NEW ORLEANS","LA",70117,NA,NA,33,"P O BOX 770095, NEW ORLEANS, LA, 70117","No_Match",NA,NA,NA,NA
967034,"P O BOX 7703","MORENO VALLEY","CA",92552,NA,NA,34,"P O BOX 7703, MORENO VALLEY, CA, 92552","No_Match",NA,NA,NA,NA
967035,"P O BOX 7704","RENO","NV",89510,NA,NA,35,"P O BOX 7704, RENO, NV, 89510","No_Match",NA,NA,NA,NA
967036,"P O BOX 770849","WINTER GARDEN","FL",34777,NA,NA,36,"P O BOX 770849, WINTER GARDEN, FL, 34777","No_Match",NA,NA,NA,NA
967037,"P O BOX 771","DAVIS","WV",26260,NA,NA,37,"P O BOX 771, DAVIS, WV, 26260","No_Match",NA,NA,NA,NA
967038,"P O BOX 77116","ATLANTA","GA",30357,NA,NA,38,"P O BOX 77116, ATLANTA, GA, 30357","No_Match",NA,NA,NA,NA
967039,"P O BOX 771383","ST LOUIS","MO",63177,NA,NA,39,"P O BOX 771383, ST LOUIS, MO, 63177","No_Match",NA,NA,NA,NA
967040,"P O BOX 772","MONTGOMERY","TX",77356,NA,NA,40,"P O BOX 772, MONTGOMERY, TX, 77356","No_Match",NA,NA,NA,NA
967041,"P O BOX 773","DAYTON","IN",47941,NA,NA,41,"P O BOX 773, DAYTON, IN, 47941","No_Match",NA,NA,NA,NA
967042,"P O BOX 773","NEWTON","WV",25266,NA,NA,42,"P O BOX 773, NEWTON, WV, 25266","No_Match",NA,NA,NA,NA
967043,"P O BOX 773","QUEEN CREEK","AZ",85142,NA,NA,43,"P O BOX 773, QUEEN CREEK, AZ, 85142","No_Match",NA,NA,NA,NA
967044,"P O BOX 773","STOLLINGS","WV",25646,NA,NA,44,"P O BOX 773, STOLLINGS, WV, 25646","No_Match",NA,NA,NA,NA
967045,"P O BOX 77363","TUCSON","AZ",85703,NA,NA,45,"P O BOX 77363, TUCSON, AZ, 85703","No_Match",NA,NA,NA,NA
967046,"P O BOX 774","HARROGATE","TN",37752,NA,NA,46,"P O BOX 774, HARROGATE, TN, 37752","No_Match",NA,NA,NA,NA
967047,"P O BOX 774","RANCHOS DE TAOS","NM",87557,NA,NA,47,"P O BOX 774, RANCHOS DE TAOS, NM, 87557","No_Match",NA,NA,NA,NA
967048,"P O BOX 7742","HAMPTON","VA",23666,NA,NA,48,"P O BOX 7742, HAMPTON, VA, 23666","No_Match",NA,NA,NA,NA
967049,"P O BOX 775","HIXSON","TN",37343,NA,NA,49,"P O BOX 775, HIXSON, TN, 37343","No_Match",NA,NA,NA,NA
967050,"P O BOX 776283","STEAMBOAT SPRINGS","CO",80477,NA,NA,50,"P O BOX 776283, STEAMBOAT SPRINGS, CO, 80477","No_Match",NA,NA,NA,NA
967051,"P O BOX 777","HAMILTON","GA",31811,NA,NA,51,"P O BOX 777, HAMILTON, GA, 31811","No_Match",NA,NA,NA,NA
967052,"P O BOX 777","RICHLAND","MO",65556,NA,NA,52,"P O BOX 777, RICHLAND, MO, 65556","No_Match",NA,NA,NA,NA
967053,"P O BOX 778","GARRISONVILLE","VA",22463,NA,NA,53,"P O BOX 778, GARRISONVILLE, VA, 22463","No_Match",NA,NA,NA,NA
967054,"P O BOX 7781","CHRISTIANSTED","VI",823,NA,NA,54,"P O BOX 7781, CHRISTIANSTED, VI, 823","No_Match",NA,NA,NA,NA
967055,"P O BOX 78","GRANVILLE","TN",38564,NA,NA,55,"P O BOX 78, GRANVILLE, TN, 38564","No_Match",NA,NA,NA,NA
967056,"P O BOX 780","CEDAR HILL","TX",75106,NA,NA,56,"P O BOX 780, CEDAR HILL, TX, 75106","No_Match",NA,NA,NA,NA
967057,"P O BOX 780833","WICHITA","KS",67278,NA,NA,57,"P O BOX 780833, WICHITA, KS, 67278","No_Match",NA,NA,NA,NA
967058,"P O BOX 780837","SEBASTIAN","FL",32978,NA,NA,58,"P O BOX 780837, SEBASTIAN, FL, 32978","No_Match",NA,NA,NA,NA
967059,"P O BOX 781","FORT MEADE","FL",33841,NA,NA,59,"P O BOX 781, FORT MEADE, FL, 33841","No_Match",NA,NA,NA,NA
967060,"P O BOX 781","WEST PLAINS","MO",65775,NA,NA,60,"P O BOX 781, WEST PLAINS, MO, 65775","No_Match",NA,NA,NA,NA
967061,"P O BOX 781035","ORLANDO","FL",32878,NA,NA,61,"P O BOX 781035, ORLANDO, FL, 32878","No_Match",NA,NA,NA,NA
967062,"P O BOX 781925","WICHITA","KS",67278,NA,NA,62,"P O BOX 781925, WICHITA, KS, 67278","No_Match",NA,NA,NA,NA
967063,"P O BOX 782","FLIPPIN","AR",72634,NA,NA,63,"P O BOX 782, FLIPPIN, AR, 72634","No_Match",NA,NA,NA,NA
967064,"P O BOX 782","MOUNTAINAIR","NM",87036,NA,NA,64,"P O BOX 782, MOUNTAINAIR, NM, 87036","No_Match",NA,NA,NA,NA
967065,"P O BOX 782295","ORLANDO","FL",32878,NA,NA,65,"P O BOX 782295, ORLANDO, FL, 32878","No_Match",NA,NA,NA,NA
967066,"P O BOX 783","FAYETTEVILLE","WV",25840,NA,NA,66,"P O BOX 783, FAYETTEVILLE, WV, 25840","No_Match",NA,NA,NA,NA
967067,"P O BOX 785","SOPHIA","WV",25921,NA,NA,67,"P O BOX 785, SOPHIA, WV, 25921","No_Match",NA,NA,NA,NA
967068,"P O BOX 786","NORRIS","TN",37828,NA,NA,68,"P O BOX 786, NORRIS, TN, 37828","No_Match",NA,NA,NA,NA
967069,"P O BOX 787","COLUMBUS","NC",28722,NA,NA,69,"P O BOX 787, COLUMBUS, NC, 28722","No_Match",NA,NA,NA,NA
967070,"P O BOX 787","LUSK","WY",82225,NA,NA,70,"P O BOX 787, LUSK, WY, 82225","No_Match",NA,NA,NA,NA
967071,"P O BOX 7878","KINGSHILL","VI",850,NA,NA,71,"P O BOX 7878, KINGSHILL, VI, 850","No_Match",NA,NA,NA,NA
967072,"P O BOX 788","CHESTER","SC",29706,NA,NA,72,"P O BOX 788, CHESTER, SC, 29706","No_Match",NA,NA,NA,NA
967073,"P O BOX 788","SOMERSET","TX",78069,NA,NA,73,"P O BOX 788, SOMERSET, TX, 78069","No_Match",NA,NA,NA,NA
967074,"P O BOX 79","RIDDLETON","TN",37151,NA,NA,74,"P O BOX 79, RIDDLETON, TN, 37151","No_Match",NA,NA,NA,NA
967075,"P O BOX 790","KALISPELL","MT",59903,NA,NA,75,"P O BOX 790, KALISPELL, MT, 59903","No_Match",NA,NA,NA,NA
967076,"P O BOX 790","PORT GIBSON","MS",39150,NA,NA,76,"P O BOX 790, PORT GIBSON, MS, 39150","No_Match",NA,NA,NA,NA
967077,"P O BOX 7905","PORT SAINT LUCIE","FL",34952,NA,NA,77,"P O BOX 7905, PORT SAINT LUCIE, FL, 34952","No_Match",NA,NA,NA,NA
967078,"P O BOX 791","COLLINSVILLE","IL",62234,NA,NA,78,"P O BOX 791, COLLINSVILLE, IL, 62234","No_Match",NA,NA,NA,NA
967079,"P O BOX 792","HEDGESVILLE","WV",25427,NA,NA,79,"P O BOX 792, HEDGESVILLE, WV, 25427","No_Match",NA,NA,NA,NA
967080,"P O BOX 792","YORKTOWN","VA",23692,NA,NA,80,"P O BOX 792, YORKTOWN, VA, 23692","No_Match",NA,NA,NA,NA
967081,"P O BOX 792113","NEW ORLEANS",NA,NA,NA,NA,81,"P O BOX 792113, NEW ORLEANS, , ","No_Match",NA,NA,NA,NA
967082,"P O BOX 793","BLACK CREEK","GA",31308,NA,NA,82,"P O BOX 793, BLACK CREEK, GA, 31308","No_Match",NA,NA,NA,NA
967083,"P O BOX 793","MILLBRAE","CA",94030,NA,NA,83,"P O BOX 793, MILLBRAE, CA, 94030","No_Match",NA,NA,NA,NA
967084,"P O BOX 794","SHADY COVE","OR",97539,NA,NA,84,"P O BOX 794, SHADY COVE, OR, 97539","No_Match",NA,NA,NA,NA
967085,"P O BOX 79443","HOUSTON","TX",77279,NA,NA,85,"P O BOX 79443, HOUSTON, TX, 77279","No_Match",NA,NA,NA,NA
967086,"P O BOX 796","FLEISCHMANNS","NY",12430,NA,NA,86,"P O BOX 796, FLEISCHMANNS, NY, 12430","No_Match",NA,NA,NA,NA
967087,"P O BOX 796","TERRELL","TX",75160,NA,NA,87,"P O BOX 796, TERRELL, TX, 75160","No_Match",NA,NA,NA,NA
967088,"P O BOX 79670","DALLAS","TX",75379,NA,NA,88,"P O BOX 79670, DALLAS, TX, 75379","No_Match",NA,NA,NA,NA
967089,"P O BOX 8","ALVA","FL",33920,NA,NA,89,"P O BOX 8, ALVA, FL, 33920","No_Match",NA,NA,NA,NA
967090,"P O BOX 8","BARBOURSVILLE","WV",25504,NA,NA,90,"P O BOX 8, BARBOURSVILLE, WV, 25504","No_Match",NA,NA,NA,NA
967091,"P O BOX 8","DORSET","OH",44032,NA,NA,91,"P O BOX 8, DORSET, OH, 44032","No_Match",NA,NA,NA,NA
967092,"P O BOX 8","GUSTAVUS","AK",99826,NA,NA,92,"P O BOX 8, GUSTAVUS, AK, 99826","No_Match",NA,NA,NA,NA
967093,"P O BOX 8","NORTH WASHINGTON","PA",16048,NA,NA,93,"P O BOX 8, NORTH WASHINGTON, PA, 16048","No_Match",NA,NA,NA,NA
967094,"P O BOX 8","THREE RIVERS","TX",78071,NA,NA,94,"P O BOX 8, THREE RIVERS, TX, 78071","No_Match",NA,NA,NA,NA
967095,"P O BOX 8","WEST MINERAL","KS",66762,NA,NA,95,"P O BOX 8, WEST MINERAL, KS, 66762","No_Match",NA,NA,NA,NA
967096,"P O BOX 80","STUTTGART","AR",72160,NA,NA,96,"P O BOX 80, STUTTGART, AR, 72160","No_Match",NA,NA,NA,NA
967097,"P O BOX 80006","SIMPSONVILLE","SC",29680,NA,NA,97,"P O BOX 80006, SIMPSONVILLE, SC, 29680","No_Match",NA,NA,NA,NA
967098,"P O BOX 80011","CONYERS","GA",30013,NA,NA,98,"P O BOX 80011, CONYERS, GA, 30013","No_Match",NA,NA,NA,NA
967099,"P O BOX 800266","DALLAS","TX",75380,NA,NA,99,"P O BOX 800266, DALLAS, TX, 75380","No_Match",NA,NA,NA,NA
967100,"P O BOX 8006","CANTON","OH",44711,NA,NA,100,"P O BOX 8006, CANTON, OH, 44711","No_Match",NA,NA,NA,NA
967101,"P O BOX 8010","CHRISTIANSTED","VI",823,NA,NA,101,"P O BOX 8010, CHRISTIANSTED, VI, 823","No_Match",NA,NA,NA,NA
967102,"P O BOX 8010","SEMINOLE","FL",33775,NA,NA,102,"P O BOX 8010, SEMINOLE, FL, 33775","No_Match",NA,NA,NA,NA
967103,"P O BOX 80116","BATON ROUGE","LA",70898,NA,NA,103,"P O BOX 80116, BATON ROUGE, LA, 70898","No_Match",NA,NA,NA,NA
967104,"P O BOX 801437","ACWORTH","GA",30101,NA,NA,104,"P O BOX 801437, ACWORTH, GA, 30101","No_Match",NA,NA,NA,NA
967105,"P O BOX 802","CALVERTON","NY",11933,NA,NA,105,"P O BOX 802, CALVERTON, NY, 11933","No_Match",NA,NA,NA,NA
967106,"P O BOX 802","GARDEN VALLEY","ID",83622,NA,NA,106,"P O BOX 802, GARDEN VALLEY, ID, 83622","No_Match",NA,NA,NA,NA
967107,"P O BOX 80248","CONYERS","GA",30013,NA,NA,107,"P O BOX 80248, CONYERS, GA, 30013","No_Match",NA,NA,NA,NA
967108,"P O BOX 802712","DALLAS","TX",75380,NA,NA,108,"P O BOX 802712, DALLAS, TX, 75380","No_Match",NA,NA,NA,NA
967109,"P O BOX 803","FOREST","MS",39074,NA,NA,109,"P O BOX 803, FOREST, MS, 39074","No_Match",NA,NA,NA,NA
967110,"P O BOX 803","IONE","WA",99139,NA,NA,110,"P O BOX 803, IONE, WA, 99139","No_Match",NA,NA,NA,NA
967111,"P O BOX 803234","SANTA CLARITA","CA",91380,NA,NA,111,"P O BOX 803234, SANTA CLARITA, CA, 91380","No_Match",NA,NA,NA,NA
967112,"P O BOX 8034","LACEY","WA",98509,NA,NA,112,"P O BOX 8034, LACEY, WA, 98509","No_Match",NA,NA,NA,NA
967113,"P O BOX 80353","SIMPSONVILLE","SC",29680,NA,NA,113,"P O BOX 80353, SIMPSONVILLE, SC, 29680","No_Match",NA,NA,NA,NA
967114,"P O BOX 8036","HOUMA","LA",70361,NA,NA,114,"P O BOX 8036, HOUMA, LA, 70361","No_Match",NA,NA,NA,NA
967115,"P O BOX 804","HUGO","CO",80821,NA,NA,115,"P O BOX 804, HUGO, CO, 80821","No_Match",NA,NA,NA,NA
967116,"P O BOX 804","SHEBOYGAN","WI",53082,NA,NA,116,"P O BOX 804, SHEBOYGAN, WI, 53082","No_Match",NA,NA,NA,NA
967117,"P O BOX 805","CLEVELAND","TX",77328,NA,NA,117,"P O BOX 805, CLEVELAND, TX, 77328","No_Match",NA,NA,NA,NA
967118,"P O BOX 805","PINEVILLE","WV",24874,NA,NA,118,"P O BOX 805, PINEVILLE, WV, 24874","No_Match",NA,NA,NA,NA
967119,"P O BOX 8052","STOCKTON","CA",95208,NA,NA,119,"P O BOX 8052, STOCKTON, CA, 95208","No_Match",NA,NA,NA,NA
967120,"P O BOX 806","KEYPORT","WA",98345,NA,NA,120,"P O BOX 806, KEYPORT, WA, 98345","No_Match",NA,NA,NA,NA
967121,"P O BOX 806511","CHICAGO","IL",60680,NA,NA,121,"P O BOX 806511, CHICAGO, IL, 60680","No_Match",NA,NA,NA,NA
967122,"P O BOX 807","AMELIA","VA",23002,NA,NA,122,"P O BOX 807, AMELIA, VA, 23002","No_Match",NA,NA,NA,NA
967123,"P O BOX 807","PETERSTOWN","WV",24963,NA,NA,123,"P O BOX 807, PETERSTOWN, WV, 24963","No_Match",NA,NA,NA,NA
967124,"P O BOX 807","STEPHENS","AR",NA,NA,NA,124,"P O BOX 807, STEPHENS, AR, ","No_Match",NA,NA,NA,NA
967125,"P O BOX 8070","CHRISTIANSTED","VI",823,NA,NA,125,"P O BOX 8070, CHRISTIANSTED, VI, 823","No_Match",NA,NA,NA,NA
967126,"P O BOX 808","WYLIE","TX",75098,NA,NA,126,"P O BOX 808, WYLIE, TX, 75098","No_Match",NA,NA,NA,NA
967127,"P O BOX 81","DEWITT","AR",72042,NA,NA,127,"P O BOX 81, DEWITT, AR, 72042","No_Match",NA,NA,NA,NA
967128,"P O BOX 81","NEW WASHINGTON","IN",47162,NA,NA,128,"P O BOX 81, NEW WASHINGTON, IN, 47162","No_Match",NA,NA,NA,NA
967129,"P O BOX 81","THOMAS","WV",26292,NA,NA,129,"P O BOX 81, THOMAS, WV, 26292","No_Match",NA,NA,NA,NA
967130,"P O BOX 810","OOLTEWAH","TN",37363,NA,NA,130,"P O BOX 810, OOLTEWAH, TN, 37363","No_Match",NA,NA,NA,NA
967131,"P O BOX 8102","COLUMBIA","SC",29209,NA,NA,131,"P O BOX 8102, COLUMBIA, SC, 29209","No_Match",NA,NA,NA,NA
967132,"P O BOX 812","HORSESHOE","NC",28742,NA,NA,132,"P O BOX 812, HORSESHOE, NC, 28742","No_Match",NA,NA,NA,NA
967133,"P O BOX 812","KENANSVILLE","NC",28349,NA,NA,133,"P O BOX 812, KENANSVILLE, NC, 28349","No_Match",NA,NA,NA,NA
967134,"P O BOX 81222","MOBILE","AL",36689,NA,NA,134,"P O BOX 81222, MOBILE, AL, 36689","No_Match",NA,NA,NA,NA
967135,"P O BOX 81325","CHICAGO","IL",60681,NA,NA,135,"P O BOX 81325, CHICAGO, IL, 60681","No_Match",NA,NA,NA,NA
967136,"P O BOX 813676","SMYRNA","GA",30081,NA,NA,136,"P O BOX 813676, SMYRNA, GA, 30081","No_Match",NA,NA,NA,NA
967137,"P O BOX 814","ANAHUAC","TX",77514,NA,NA,137,"P O BOX 814, ANAHUAC, TX, 77514","No_Match",NA,NA,NA,NA
967138,"P O BOX 814076","HOLLYWOOD","FL",33081,NA,NA,138,"P O BOX 814076, HOLLYWOOD, FL, 33081","No_Match",NA,NA,NA,NA
967139,"P O BOX 815","CARNATION","WA",98014,NA,NA,139,"P O BOX 815, CARNATION, WA, 98014","No_Match",NA,NA,NA,NA
967140,"P O BOX 815","FALFURRIAS","TX",78355,NA,NA,140,"P O BOX 815, FALFURRIAS, TX, 78355","No_Match",NA,NA,NA,NA
967141,"P O BOX 815","HOLLISTER","MO",65673,NA,NA,141,"P O BOX 815, HOLLISTER, MO, 65673","No_Match",NA,NA,NA,NA
967142,"P O BOX 815","VALLEY SPRINGS","CA",95252,NA,NA,142,"P O BOX 815, VALLEY SPRINGS, CA, 95252","No_Match",NA,NA,NA,NA
967143,"P O BOX 8158","STATESBORO","GA",30460,NA,NA,143,"P O BOX 8158, STATESBORO, GA, 30460","No_Match",NA,NA,NA,NA
967144,"P O BOX 817","PAHRUMP","NV",89041,NA,NA,144,"P O BOX 817, PAHRUMP, NV, 89041","No_Match",NA,NA,NA,NA
967145,"P O BOX 8175","GREENVILLE","SC",29604,NA,NA,145,"P O BOX 8175, GREENVILLE, SC, 29604","No_Match",NA,NA,NA,NA
967146,"P O BOX 818","COATS","NC",27521,NA,NA,146,"P O BOX 818, COATS, NC, 27521","No_Match",NA,NA,NA,NA
967147,"P O BOX 818","DANBURY","TX",77534,NA,NA,147,"P O BOX 818, DANBURY, TX, 77534","No_Match",NA,NA,NA,NA
967148,"P O BOX 81876","CONYERS","GA",30013,NA,NA,148,"P O BOX 81876, CONYERS, GA, 30013","No_Match",NA,NA,NA,NA
967149,"P O BOX 819","LIVINGSTON","AL",35470,NA,NA,149,"P O BOX 819, LIVINGSTON, AL, 35470","No_Match",NA,NA,NA,NA
967150,"P O BOX 8192","PORT SAINT LUCIE","FL",34985,NA,NA,150,"P O BOX 8192, PORT SAINT LUCIE, FL, 34985","No_Match",NA,NA,NA,NA
967151,"P O BOX 82 BAMENDA - CAMEROON","BAMENDA",NA,NA,NA,NA,151,"P O BOX 82 BAMENDA - CAMEROON, BAMENDA, , ","No_Match",NA,NA,NA,NA
967152,"P O BOX 82","CUMBERLAND","ME",4021,NA,NA,152,"P O BOX 82, CUMBERLAND, ME, 4021","No_Match",NA,NA,NA,NA
967153,"P O BOX 82","EAST FALMOUTH","MA",2536,NA,NA,153,"P O BOX 82, EAST FALMOUTH, MA, 2536","No_Match",NA,NA,NA,NA
967154,"P O BOX 820","BIXBY","OK",74008,NA,NA,154,"P O BOX 820, BIXBY, OK, 74008","No_Match",NA,NA,NA,NA
967155,"P O BOX 820","HURST","TX",76053,NA,NA,155,"P O BOX 820, HURST, TX, 76053","No_Match",NA,NA,NA,NA
967156,"P O BOX 820","PAULDEN","AZ",86334,NA,NA,156,"P O BOX 820, PAULDEN, AZ, 86334","No_Match",NA,NA,NA,NA
967157,"P O BOX 820067","NEW ORLEANS","LA",70122,NA,NA,157,"P O BOX 820067, NEW ORLEANS, LA, 70122","No_Match",NA,NA,NA,NA
967158,"P O BOX 820067","NEW ORLEANS","LA",70182,NA,NA,158,"P O BOX 820067, NEW ORLEANS, LA, 70182","No_Match",NA,NA,NA,NA
967159,"P O BOX 820386","HOUSTON","TX",77282,NA,NA,159,"P O BOX 820386, HOUSTON, TX, 77282","No_Match",NA,NA,NA,NA
967160,"P O BOX 821","WAILUKU","HI",96793,NA,NA,160,"P O BOX 821, WAILUKU, HI, 96793","No_Match",NA,NA,NA,NA
967161,"P O BOX 821113","N RICHLAND HILLS","TX",76182,NA,NA,161,"P O BOX 821113, N RICHLAND HILLS, TX, 76182","No_Match",NA,NA,NA,NA
967162,"P O BOX 82161","PEMBROKE PINES","FL",33082,NA,NA,162,"P O BOX 82161, PEMBROKE PINES, FL, 33082","No_Match",NA,NA,NA,NA
967163,"P O BOX 821893","VICKSBURG","MS",39182,NA,NA,163,"P O BOX 821893, VICKSBURG, MS, 39182","No_Match",NA,NA,NA,NA
967164,"P O BOX 822","CLEVELAND","OK",74020,NA,NA,164,"P O BOX 822, CLEVELAND, OK, 74020","No_Match",NA,NA,NA,NA
967165,"P O BOX 822","DAVIS","WV",26260,NA,NA,165,"P O BOX 822, DAVIS, WV, 26260","No_Match",NA,NA,NA,NA
967166,"P O BOX 822","LOYALTON","CA",96118,NA,NA,166,"P O BOX 822, LOYALTON, CA, 96118","No_Match",NA,NA,NA,NA
967167,"P O BOX 822","WELCH","WV",24801,NA,NA,167,"P O BOX 822, WELCH, WV, 24801","No_Match",NA,NA,NA,NA
967168,"P O BOX 822055","PEMBROKE PINES","FL",33082,NA,NA,168,"P O BOX 822055, PEMBROKE PINES, FL, 33082","No_Match",NA,NA,NA,NA
967169,"P O BOX 8222","JACKSON","MS",39284,NA,NA,169,"P O BOX 8222, JACKSON, MS, 39284","No_Match",NA,NA,NA,NA
967170,"P O BOX 823","SEVERNA PARK","MD",21146,NA,NA,170,"P O BOX 823, SEVERNA PARK, MD, 21146","No_Match",NA,NA,NA,NA
967171,"P O BOX 8233","FORT","TX",76124,NA,NA,171,"P O BOX 8233, FORT, TX, 76124","No_Match",NA,NA,NA,NA
967172,"P O BOX 824","WILLS POINT","TX",75169,NA,NA,172,"P O BOX 824, WILLS POINT, TX, 75169","No_Match",NA,NA,NA,NA
967173,"P O BOX 824141","DALLAS","TX",75382,NA,NA,173,"P O BOX 824141, DALLAS, TX, 75382","No_Match",NA,NA,NA,NA
967174,"P O BOX 8243","FORT WORTH","TX",76124,NA,NA,174,"P O BOX 8243, FORT WORTH, TX, 76124","No_Match",NA,NA,NA,NA
967175,"P O BOX 8249","MRYTLE BEACH","SC",29578,NA,NA,175,"P O BOX 8249, MRYTLE BEACH, SC, 29578","No_Match",NA,NA,NA,NA
967176,"P O BOX 826","GARDENDALE","TX",79758,NA,NA,176,"P O BOX 826, GARDENDALE, TX, 79758","No_Match",NA,NA,NA,NA
967177,"P O BOX 826","PORTSMOUTH","RI",2871,NA,NA,177,"P O BOX 826, PORTSMOUTH, RI, 2871","No_Match",NA,NA,NA,NA
967178,"P O BOX 828","SLIDELL","LA",70459,NA,NA,178,"P O BOX 828, SLIDELL, LA, 70459","No_Match",NA,NA,NA,NA
967179,"P O BOX 828","SOPHIA","WV",25921,NA,NA,179,"P O BOX 828, SOPHIA, WV, 25921","No_Match",NA,NA,NA,NA
967180,"P O BOX 82914","TAMPA","FL",33682,NA,NA,180,"P O BOX 82914, TAMPA, FL, 33682","No_Match",NA,NA,NA,NA
967181,"P O BOX 8292","PORTSMOUTH","NH",3802,NA,NA,181,"P O BOX 8292, PORTSMOUTH, NH, 3802","No_Match",NA,NA,NA,NA
967182,"P O BOX 83","GUFFEY","CO",80820,NA,NA,182,"P O BOX 83, GUFFEY, CO, 80820","No_Match",NA,NA,NA,NA
967183,"P O BOX 83","JENNINGS","LA",70546,NA,NA,183,"P O BOX 83, JENNINGS, LA, 70546","No_Match",NA,NA,NA,NA
967184,"P O BOX 83","MILLBROOK","NY",12545,NA,NA,184,"P O BOX 83, MILLBROOK, NY, 12545","No_Match",NA,NA,NA,NA
967185,"P O BOX 83","ST THOMAS","VI",804,NA,NA,185,"P O BOX 83, ST THOMAS, VI, 804","No_Match",NA,NA,NA,NA
967186,"P O BOX 830023","TUSKEGEE","AL",36083,NA,NA,186,"P O BOX 830023, TUSKEGEE, AL, 36083","No_Match",NA,NA,NA,NA
967187,"P O BOX 830088","TUSKEGEE","AL",36083,NA,NA,187,"P O BOX 830088, TUSKEGEE, AL, 36083","No_Match",NA,NA,NA,NA
967188,"P O BOX 830244","TUSKEGEE","AL",36083,NA,NA,188,"P O BOX 830244, TUSKEGEE, AL, 36083","No_Match",NA,NA,NA,NA
967189,"P O BOX 830365","TUSKEGEE","AL",36083,NA,NA,189,"P O BOX 830365, TUSKEGEE, AL, 36083","No_Match",NA,NA,NA,NA
967190,"P O BOX 830614","TUSKEGEE","AL",36083,NA,NA,190,"P O BOX 830614, TUSKEGEE, AL, 36083","No_Match",NA,NA,NA,NA
967191,"P O BOX 831","BERKELEY SPRINGS","WV",25411,NA,NA,191,"P O BOX 831, BERKELEY SPRINGS, WV, 25411","No_Match",NA,NA,NA,NA
967192,"P O BOX 832","LYNWOOD","CA",90262,NA,NA,192,"P O BOX 832, LYNWOOD, CA, 90262","No_Match",NA,NA,NA,NA
967193,"P O BOX 832","PETERSTOWN","WV",24963,NA,NA,193,"P O BOX 832, PETERSTOWN, WV, 24963","No_Match",NA,NA,NA,NA
967194,"P O BOX 834","GLENDORA","CA",91740,NA,NA,194,"P O BOX 834, GLENDORA, CA, 91740","No_Match",NA,NA,NA,NA
967195,"P O BOX 834","MCKEESPORT","PA",15134,NA,NA,195,"P O BOX 834, MCKEESPORT, PA, 15134","No_Match",NA,NA,NA,NA
967196,"P O BOX 834","OKAHUMPKA","FL",34762,NA,NA,196,"P O BOX 834, OKAHUMPKA, FL, 34762","No_Match",NA,NA,NA,NA
967197,"P O BOX 83444","CONYERS","GA",30013,NA,NA,197,"P O BOX 83444, CONYERS, GA, 30013","No_Match",NA,NA,NA,NA
967198,"P O BOX 835","BARBOURSVILLE","WV",25504,NA,NA,198,"P O BOX 835, BARBOURSVILLE, WV, 25504","No_Match",NA,NA,NA,NA
967199,"P O BOX 835","SOUTH BOSTON","VA",24558,NA,NA,199,"P O BOX 835, SOUTH BOSTON, VA, 24558","No_Match",NA,NA,NA,NA
967200,"P O BOX 8358","ST THOMAS","VI",801,NA,NA,200,"P O BOX 8358, ST THOMAS, VI, 801","No_Match",NA,NA,NA,NA
967201,"P O BOX 838","DAYTON","TN",37321,NA,NA,201,"P O BOX 838, DAYTON, TN, 37321","No_Match",NA,NA,NA,NA
967202,"P O BOX 8390","ALEXANDRIA","VA",22306,NA,NA,202,"P O BOX 8390, ALEXANDRIA, VA, 22306","No_Match",NA,NA,NA,NA
967203,"P O BOX 84","DUNCAN","MS",38740,NA,NA,203,"P O BOX 84, DUNCAN, MS, 38740","No_Match",NA,NA,NA,NA
967204,"P O BOX 84","DUNCAN","NE",68634,NA,NA,204,"P O BOX 84, DUNCAN, NE, 68634","No_Match",NA,NA,NA,NA
967205,"P O BOX 84","HORATIO","SC",29062,NA,NA,205,"P O BOX 84, HORATIO, SC, 29062","No_Match",NA,NA,NA,NA
967206,"P O BOX 84","RAMSEY","NJ",7446,NA,NA,206,"P O BOX 84, RAMSEY, NJ, 7446","No_Match",NA,NA,NA,NA
967207,"P O BOX 84","TREGO","MT",59934,NA,NA,207,"P O BOX 84, TREGO, MT, 59934","No_Match",NA,NA,NA,NA
967208,"P O BOX 8401","TUCSON","AZ",85738,NA,NA,208,"P O BOX 8401, TUCSON, AZ, 85738","No_Match",NA,NA,NA,NA
967209,"P O BOX 8404","GREENWOOD","MS",38935,NA,NA,209,"P O BOX 8404, GREENWOOD, MS, 38935","No_Match",NA,NA,NA,NA
967210,"P O BOX 8406","FT WORTH","TX",76124,NA,NA,210,"P O BOX 8406, FT WORTH, TX, 76124","No_Match",NA,NA,NA,NA
967211,"P O BOX 841","BELTSVILLE","MD",20704,NA,NA,211,"P O BOX 841, BELTSVILLE, MD, 20704","No_Match",NA,NA,NA,NA
967212,"P O BOX 841","BOAZ","AL",35957,NA,NA,212,"P O BOX 841, BOAZ, AL, 35957","No_Match",NA,NA,NA,NA
967213,"P O BOX 841356","PEARLAND","TX",77584,NA,NA,213,"P O BOX 841356, PEARLAND, TX, 77584","No_Match",NA,NA,NA,NA
967214,"P O BOX 841395","PEARLAND","TX",77584,NA,NA,214,"P O BOX 841395, PEARLAND, TX, 77584","No_Match",NA,NA,NA,NA
967215,"P O BOX 841478","PEARLAND","TX",77584,NA,NA,215,"P O BOX 841478, PEARLAND, TX, 77584","No_Match",NA,NA,NA,NA
967216,"P O BOX 842","SEVERNA PARK","MD",21146,NA,NA,216,"P O BOX 842, SEVERNA PARK, MD, 21146","No_Match",NA,NA,NA,NA
967217,"P O BOX 8420","HUNTSVILLE","TX",77340,NA,NA,217,"P O BOX 8420, HUNTSVILLE, TX, 77340","No_Match",NA,NA,NA,NA
967218,"P O BOX 8422","JACKSONVILLE","TX",76766,NA,NA,218,"P O BOX 8422, JACKSONVILLE, TX, 76766","No_Match",NA,NA,NA,NA
967219,"P O BOX 84301","PEARLAND","TX",77584,NA,NA,219,"P O BOX 84301, PEARLAND, TX, 77584","No_Match",NA,NA,NA,NA
967220,"P O BOX 844","WAIANAE","HI",96792,NA,NA,220,"P O BOX 844, WAIANAE, HI, 96792","No_Match",NA,NA,NA,NA
967221,"P O BOX 8470","WACO","TX",76714,NA,NA,221,"P O BOX 8470, WACO, TX, 76714","No_Match",NA,NA,NA,NA
967222,"P O BOX 8470","WICHITA","KS",67208,NA,NA,222,"P O BOX 8470, WICHITA, KS, 67208","No_Match",NA,NA,NA,NA
967223,"P O BOX 85","BELMAR","NJ",7719,NA,NA,223,"P O BOX 85, BELMAR, NJ, 7719","No_Match",NA,NA,NA,NA
967224,"P O BOX 85","ELLISBURG","NY",13636,NA,NA,224,"P O BOX 85, ELLISBURG, NY, 13636","No_Match",NA,NA,NA,NA
967225,"P O BOX 85","ONEONTA","AL",35121,NA,NA,225,"P O BOX 85, ONEONTA, AL, 35121","No_Match",NA,NA,NA,NA
967226,"P O BOX 85","REDFIELD","IA",50233,NA,NA,226,"P O BOX 85, REDFIELD, IA, 50233","No_Match",NA,NA,NA,NA
967227,"P O BOX 85","SPURGER","TX",77660,NA,NA,227,"P O BOX 85, SPURGER, TX, 77660","No_Match",NA,NA,NA,NA
967228,"P O BOX 850","LIVINGSTON","LA",70754,NA,NA,228,"P O BOX 850, LIVINGSTON, LA, 70754","No_Match",NA,NA,NA,NA
967229,"P O BOX 850","WAYNESBORO","TN",38485,NA,NA,229,"P O BOX 850, WAYNESBORO, TN, 38485","No_Match",NA,NA,NA,NA
967230,"P O BOX 8502","SAN LUIS","AZ",85349,NA,NA,230,"P O BOX 8502, SAN LUIS, AZ, 85349","No_Match",NA,NA,NA,NA
967231,"P O BOX 850892","MOBILE","AL",36685,NA,NA,231,"P O BOX 850892, MOBILE, AL, 36685","No_Match",NA,NA,NA,NA
967232,"P O BOX 851","CLANTON","AL",35046,NA,NA,232,"P O BOX 851, CLANTON, AL, 35046","No_Match",NA,NA,NA,NA
967233,"P O BOX 851044","MESQUITE","TX",75185,NA,NA,233,"P O BOX 851044, MESQUITE, TX, 75185","No_Match",NA,NA,NA,NA
967234,"P O BOX 852","LOUISVILLE","GA",30434,NA,NA,234,"P O BOX 852, LOUISVILLE, GA, 30434","No_Match",NA,NA,NA,NA
967235,"P O BOX 852","ONEONTA","AL",35121,NA,NA,235,"P O BOX 852, ONEONTA, AL, 35121","No_Match",NA,NA,NA,NA
967236,"P O BOX 8524","HUNTSVILLE","AL",35808,NA,NA,236,"P O BOX 8524, HUNTSVILLE, AL, 35808","No_Match",NA,NA,NA,NA
967237,"P O BOX 853","PRAIRIEVILLE","LA",70769,NA,NA,237,"P O BOX 853, PRAIRIEVILLE, LA, 70769","No_Match",NA,NA,NA,NA
967238,"P O BOX 855","RACINE","OH",45771,NA,NA,238,"P O BOX 855, RACINE, OH, 45771","No_Match",NA,NA,NA,NA
967239,"P O BOX 8557","FRESNO","CA",93747,NA,NA,239,"P O BOX 8557, FRESNO, CA, 93747","No_Match",NA,NA,NA,NA
967240,"P O BOX 856","MOBILE","AL",36601,NA,NA,240,"P O BOX 856, MOBILE, AL, 36601","No_Match",NA,NA,NA,NA
967241,"P O BOX 857","CENTRE","AL",35960,NA,NA,241,"P O BOX 857, CENTRE, AL, 35960","No_Match",NA,NA,NA,NA
967242,"P O BOX 8573","SAVANNAH","GA",31412,NA,NA,242,"P O BOX 8573, SAVANNAH, GA, 31412","No_Match",NA,NA,NA,NA
967243,"P O BOX 858","JEFFERSON","GA",30549,NA,NA,243,"P O BOX 858, JEFFERSON, GA, 30549","No_Match",NA,NA,NA,NA
967244,"P O BOX 86","BRONX","NY",10451,NA,NA,244,"P O BOX 86, BRONX, NY, 10451","No_Match",NA,NA,NA,NA
967245,"P O BOX 86","CARLYLE","IL",62231,NA,NA,245,"P O BOX 86, CARLYLE, IL, 62231","No_Match",NA,NA,NA,NA
967246,"P O BOX 86","MOUNT VERNON","NY",10552,NA,NA,246,"P O BOX 86, MOUNT VERNON, NY, 10552","No_Match",NA,NA,NA,NA
967247,"P O BOX 86","SHEPHERDSTOWN","WV",25443,NA,NA,247,"P O BOX 86, SHEPHERDSTOWN, WV, 25443","No_Match",NA,NA,NA,NA
967248,"P O BOX 860","WINNSBORO","TX",75494,NA,NA,248,"P O BOX 860, WINNSBORO, TX, 75494","No_Match",NA,NA,NA,NA
967249,"P O BOX 860066","SHAWNEE","KS",66286,NA,NA,249,"P O BOX 860066, SHAWNEE, KS, 66286","No_Match",NA,NA,NA,NA
967250,"P O BOX 8601","ST. THOMAS","VI",801,NA,NA,250,"P O BOX 8601, ST. THOMAS, VI, 801","No_Match",NA,NA,NA,NA
967251,"P O BOX 861","MILLBROOK","NY",12545,NA,NA,251,"P O BOX 861, MILLBROOK, NY, 12545","No_Match",NA,NA,NA,NA
967252,"P O BOX 861438","WARRENTON","VA",20187,NA,NA,252,"P O BOX 861438, WARRENTON, VA, 20187","No_Match",NA,NA,NA,NA
967253,"P O BOX 861544","LOS ANGELES","CA",90086,NA,NA,253,"P O BOX 861544, LOS ANGELES, CA, 90086","No_Match",NA,NA,NA,NA
967254,"P O BOX 862","BRISTOW","OK",74010,NA,NA,254,"P O BOX 862, BRISTOW, OK, 74010","No_Match",NA,NA,NA,NA
967255,"P O BOX 862","LIVERMORE","CA",94551,NA,NA,255,"P O BOX 862, LIVERMORE, CA, 94551","No_Match",NA,NA,NA,NA
967256,"P O BOX 8625","SPRINGFIELD","MO",66801,NA,NA,256,"P O BOX 8625, SPRINGFIELD, MO, 66801","No_Match",NA,NA,NA,NA
967257,"P O BOX 863","NEW YORK","NY",10008,NA,NA,257,"P O BOX 863, NEW YORK, NY, 10008","No_Match",NA,NA,NA,NA
967258,"P O BOX 863","WHEATON","IL",60187,NA,NA,258,"P O BOX 863, WHEATON, IL, 60187","No_Match",NA,NA,NA,NA
967259,"P O BOX 864","MATHIS","TX",78368,NA,NA,259,"P O BOX 864, MATHIS, TX, 78368","No_Match",NA,NA,NA,NA
967260,"P O BOX 86422","TUCSON","AZ",85754,NA,NA,260,"P O BOX 86422, TUCSON, AZ, 85754","No_Match",NA,NA,NA,NA
967261,"P O BOX 865","PAHALA","HI",96777,NA,NA,261,"P O BOX 865, PAHALA, HI, 96777","No_Match",NA,NA,NA,NA
967262,"P O BOX 866","LYONS","GA",30436,NA,NA,262,"P O BOX 866, LYONS, GA, 30436","No_Match",NA,NA,NA,NA
967263,"P O BOX 869","PENITAS","TX",78576,NA,NA,263,"P O BOX 869, PENITAS, TX, 78576","No_Match",NA,NA,NA,NA
967264,"P O BOX 8697","HONOLULU","HI",96830,NA,NA,264,"P O BOX 8697, HONOLULU, HI, 96830","No_Match",NA,NA,NA,NA
967265,"P O BOX 86975","LOS ANGELES","CA",90086,NA,NA,265,"P O BOX 86975, LOS ANGELES, CA, 90086","No_Match",NA,NA,NA,NA
967266,"P O BOX 87","JOSHUA","TX",76058,NA,NA,266,"P O BOX 87, JOSHUA, TX, 76058","No_Match",NA,NA,NA,NA
967267,"P O BOX 870-488","NEW ORLEANS","LA",70187,NA,NA,267,"P O BOX 870-488, NEW ORLEANS, LA, 70187","No_Match",NA,NA,NA,NA
967268,"P O BOX 870007","STONE MOUNTAIN","GA",30087,NA,NA,268,"P O BOX 870007, STONE MOUNTAIN, GA, 30087","No_Match",NA,NA,NA,NA
967269,"P O BOX 870221","NEW ORLEANS","LA",70187,NA,NA,269,"P O BOX 870221, NEW ORLEANS, LA, 70187","No_Match",NA,NA,NA,NA
967270,"P O BOX 870713","STONE MOUNTAIN","GA",30087,NA,NA,270,"P O BOX 870713, STONE MOUNTAIN, GA, 30087","No_Match",NA,NA,NA,NA
967271,"P O BOX 870991","NEW ORLEANS","LA",70187,NA,NA,271,"P O BOX 870991, NEW ORLEANS, LA, 70187","No_Match",NA,NA,NA,NA
967272,"P O BOX 871","HUMBLE","TX",77347,NA,NA,272,"P O BOX 871, HUMBLE, TX, 77347","No_Match",NA,NA,NA,NA
967273,"P O BOX 8710","AVON","CO",81620,NA,NA,273,"P O BOX 8710, AVON, CO, 81620","No_Match",NA,NA,NA,NA
967274,"P O BOX 871881","VANCOUVER","WA",98684,NA,NA,274,"P O BOX 871881, VANCOUVER, WA, 98684","No_Match",NA,NA,NA,NA
967275,"P O BOX 87305","MESQUITE","TX",75150,NA,NA,275,"P O BOX 87305, MESQUITE, TX, 75150","No_Match",NA,NA,NA,NA
967276,"P O BOX 87436","CHICAGO","IL",60680,NA,NA,276,"P O BOX 87436, CHICAGO, IL, 60680","No_Match",NA,NA,NA,NA
967277,"P O BOX 875","FOREST","VA",24551,NA,NA,277,"P O BOX 875, FOREST, VA, 24551","No_Match",NA,NA,NA,NA
967278,"P O BOX 876","MAURICE","LA",70555,NA,NA,278,"P O BOX 876, MAURICE, LA, 70555","No_Match",NA,NA,NA,NA
967279,"P O BOX 876","NAMPA","ID",83651,NA,NA,279,"P O BOX 876, NAMPA, ID, 83651","No_Match",NA,NA,NA,NA
967280,"P O BOX 877","MORRISVILLE","NC",27560,NA,NA,280,"P O BOX 877, MORRISVILLE, NC, 27560","No_Match",NA,NA,NA,NA
967281,"P O BOX 878","VAN VLECK","TX",77482,NA,NA,281,"P O BOX 878, VAN VLECK, TX, 77482","No_Match",NA,NA,NA,NA
967282,"P O BOX 879","OLIVE HILL","KY",41164,NA,NA,282,"P O BOX 879, OLIVE HILL, KY, 41164","No_Match",NA,NA,NA,NA
967283,"P O BOX 879","WINLOCK","WA",98596,NA,NA,283,"P O BOX 879, WINLOCK, WA, 98596","No_Match",NA,NA,NA,NA
967284,"P O BOX 8791","ST. THOMAS","VI",801,NA,NA,284,"P O BOX 8791, ST. THOMAS, VI, 801","No_Match",NA,NA,NA,NA
967285,"P O BOX 88","LAKE CREEK","TX",75450,NA,NA,285,"P O BOX 88, LAKE CREEK, TX, 75450","No_Match",NA,NA,NA,NA
967286,"P O BOX 88","MATHISTON","MS",39752,NA,NA,286,"P O BOX 88, MATHISTON, MS, 39752","No_Match",NA,NA,NA,NA
967287,"P O BOX 880275","PUKALANI","HI",96788,NA,NA,287,"P O BOX 880275, PUKALANI, HI, 96788","No_Match",NA,NA,NA,NA
967288,"P O BOX 881","LINCOLN","AR",72744,NA,NA,288,"P O BOX 881, LINCOLN, AR, 72744","No_Match",NA,NA,NA,NA
967289,"P O BOX 882","GRIFFIN","GA",30224,NA,NA,289,"P O BOX 882, GRIFFIN, GA, 30224","No_Match",NA,NA,NA,NA
967290,"P O BOX 882","GROVELAND","FL",34736,NA,NA,290,"P O BOX 882, GROVELAND, FL, 34736","No_Match",NA,NA,NA,NA
967291,"P O BOX 882","NITRO","WV",25143,NA,NA,291,"P O BOX 882, NITRO, WV, 25143","No_Match",NA,NA,NA,NA
967292,"P O BOX 882","OLNEY","MD",20832,NA,NA,292,"P O BOX 882, OLNEY, MD, 20832","No_Match",NA,NA,NA,NA
967293,"P O BOX 883","ATLANTA","GA",30101,NA,NA,293,"P O BOX 883, ATLANTA, GA, 30101","No_Match",NA,NA,NA,NA
967294,"P O BOX 883","JENKS","OK",74037,NA,NA,294,"P O BOX 883, JENKS, OK, 74037","No_Match",NA,NA,NA,NA
967295,"P O BOX 8837","INDEPENDENCE","MO",64114,NA,NA,295,"P O BOX 8837, INDEPENDENCE, MO, 64114","No_Match",NA,NA,NA,NA
967296,"P O BOX 8837","KANSAS CITY","MO",64114,NA,NA,296,"P O BOX 8837, KANSAS CITY, MO, 64114","No_Match",NA,NA,NA,NA
967297,"P O BOX 885","FERNDALE","CA",95536,NA,NA,297,"P O BOX 885, FERNDALE, CA, 95536","No_Match",NA,NA,NA,NA
967298,"P O BOX 885","NOVI","MI",48376,NA,NA,298,"P O BOX 885, NOVI, MI, 48376","No_Match",NA,NA,NA,NA
967299,"P O BOX 885","ROSENBERG","TX",77471,NA,NA,299,"P O BOX 885, ROSENBERG, TX, 77471","No_Match",NA,NA,NA,NA
967300,"P O BOX 8855","WARNER ROBINS","GA",31088,NA,NA,300,"P O BOX 8855, WARNER ROBINS, GA, 31088","No_Match",NA,NA,NA,NA
967301,"P O BOX 886","HINESVILLE","GA",31310,NA,NA,301,"P O BOX 886, HINESVILLE, GA, 31310","No_Match",NA,NA,NA,NA
967302,"P O BOX 887","HALIFAX","VA",24558,NA,NA,302,"P O BOX 887, HALIFAX, VA, 24558","No_Match",NA,NA,NA,NA
967303,"P O BOX 887","HINESVILLE","GA",31310,NA,NA,303,"P O BOX 887, HINESVILLE, GA, 31310","No_Match",NA,NA,NA,NA
967304,"P O BOX 8885","SPRING","TX",77387,NA,NA,304,"P O BOX 8885, SPRING, TX, 77387","No_Match",NA,NA,NA,NA
967305,"P O BOX 889","KANEOHE","HI",96744,NA,NA,305,"P O BOX 889, KANEOHE, HI, 96744","No_Match",NA,NA,NA,NA
967306,"P O BOX 889","SUWANEE","GA",30024,NA,NA,306,"P O BOX 889, SUWANEE, GA, 30024","No_Match",NA,NA,NA,NA
967307,"P O BOX 8897","TYLER","TX",75711,NA,NA,307,"P O BOX 8897, TYLER, TX, 75711","No_Match",NA,NA,NA,NA
967308,"P O BOX 89","LELAND","MS",38756,NA,NA,308,"P O BOX 89, LELAND, MS, 38756","No_Match",NA,NA,NA,NA
967309,"P O BOX 89","SELMA","CA",93662,NA,NA,309,"P O BOX 89, SELMA, CA, 93662","No_Match",NA,NA,NA,NA
967310,"P O BOX 890420","OKLAHOMA CITY","OK",73169,NA,NA,310,"P O BOX 890420, OKLAHOMA CITY, OK, 73169","No_Match",NA,NA,NA,NA
967311,"P O BOX 8916","ST. THOMAS","VI",801,NA,NA,311,"P O BOX 8916, ST. THOMAS, VI, 801","No_Match",NA,NA,NA,NA
967312,"P O BOX 892","RIVERDALE","MD",20738,NA,NA,312,"P O BOX 892, RIVERDALE, MD, 20738","No_Match",NA,NA,NA,NA
967313,"P O BOX 893010","TEMECULA","CA",92589,NA,NA,313,"P O BOX 893010, TEMECULA, CA, 92589","No_Match",NA,NA,NA,NA
967314,"P O BOX 896","BRYAN","OH",43506,NA,NA,314,"P O BOX 896, BRYAN, OH, 43506","No_Match",NA,NA,NA,NA
967315,"P O BOX 896","THREE RIVERS","CA",93271,NA,NA,315,"P O BOX 896, THREE RIVERS, CA, 93271","No_Match",NA,NA,NA,NA
967316,"P O BOX 897","PIERRE","SD",57501,NA,NA,316,"P O BOX 897, PIERRE, SD, 57501","No_Match",NA,NA,NA,NA
967317,"P O BOX 897","THREE RIVERS","CA",93271,NA,NA,317,"P O BOX 897, THREE RIVERS, CA, 93271","No_Match",NA,NA,NA,NA
967318,"P O BOX 898","BLUE LAKE","CA",95525,NA,NA,318,"P O BOX 898, BLUE LAKE, CA, 95525","No_Match",NA,NA,NA,NA
967319,"P O BOX 9","DEXTER","ME",4930,NA,NA,319,"P O BOX 9, DEXTER, ME, 4930","No_Match",NA,NA,NA,NA
967320,"P O BOX 9","EVADALE","TX",77615,NA,NA,320,"P O BOX 9, EVADALE, TX, 77615","No_Match",NA,NA,NA,NA
967321,"P O BOX 9","FAIRLAND","OK",74343,NA,NA,321,"P O BOX 9, FAIRLAND, OK, 74343","No_Match",NA,NA,NA,NA
967322,"P O BOX 9","NAZARETH","KY",40008,NA,NA,322,"P O BOX 9, NAZARETH, KY, 40008","No_Match",NA,NA,NA,NA
967323,"P O BOX 9","PARADISE VALLEY","NV",89426,NA,NA,323,"P O BOX 9, PARADISE VALLEY, NV, 89426","No_Match",NA,NA,NA,NA
967324,"P O BOX 9","SCHULENBURG","TX",78956,NA,NA,324,"P O BOX 9, SCHULENBURG, TX, 78956","No_Match",NA,NA,NA,NA
967325,"P O BOX 9","TUMACACORI","AZ",85640,NA,NA,325,"P O BOX 9, TUMACACORI, AZ, 85640","No_Match",NA,NA,NA,NA
967326,"P O BOX 90","ELGIN","OK",73538,NA,NA,326,"P O BOX 90, ELGIN, OK, 73538","No_Match",NA,NA,NA,NA
967327,"P O BOX 90","HAWTHORNE","NJ",7507,NA,NA,327,"P O BOX 90, HAWTHORNE, NJ, 7507","No_Match",NA,NA,NA,NA
967328,"P O BOX 90","LA CENTER","KY",42056,NA,NA,328,"P O BOX 90, LA CENTER, KY, 42056","No_Match",NA,NA,NA,NA
967329,"P O BOX 90","PARADISE VLY","NV",89426,NA,NA,329,"P O BOX 90, PARADISE VLY, NV, 89426","No_Match",NA,NA,NA,NA
967330,"P O BOX 90","SALE CREEK","TN",37373,NA,NA,330,"P O BOX 90, SALE CREEK, TN, 37373","No_Match",NA,NA,NA,NA
967331,"P O BOX 900","THREE RIVERS","CA",93271,NA,NA,331,"P O BOX 900, THREE RIVERS, CA, 93271","No_Match",NA,NA,NA,NA
967332,"P O BOX 900","WESTFIELD CTR","OH",44251,NA,NA,332,"P O BOX 900, WESTFIELD CTR, OH, 44251","No_Match",NA,NA,NA,NA
967333,"P O BOX 900221","HOMESTEAD","FL",33090,NA,NA,333,"P O BOX 900221, HOMESTEAD, FL, 33090","No_Match",NA,NA,NA,NA
967334,"P O BOX 901055","MEMPHIS","TN",38190,NA,NA,334,"P O BOX 901055, MEMPHIS, TN, 38190","No_Match",NA,NA,NA,NA
967335,"P O BOX 901552","KANSAS CITY","MO",64190,NA,NA,335,"P O BOX 901552, KANSAS CITY, MO, 64190","No_Match",NA,NA,NA,NA
967336,"P O BOX 902","DEERFIELD BEACH","FL",33443,NA,NA,336,"P O BOX 902, DEERFIELD BEACH, FL, 33443","No_Match",NA,NA,NA,NA
967337,"P O BOX 902","HOMER","AK",99603,NA,NA,337,"P O BOX 902, HOMER, AK, 99603","No_Match",NA,NA,NA,NA
967338,"P O BOX 9020","KAILUA KONA","HI",96740,NA,NA,338,"P O BOX 9020, KAILUA KONA, HI, 96740","No_Match",NA,NA,NA,NA
967339,"P O BOX 9020","TYLER","TX",75711,NA,NA,339,"P O BOX 9020, TYLER, TX, 75711","No_Match",NA,NA,NA,NA
967340,"P O BOX 902150","MEMPHIS","TN",38190,NA,NA,340,"P O BOX 902150, MEMPHIS, TN, 38190","No_Match",NA,NA,NA,NA
967341,"P O BOX 90224","WASHINGTON","DC",20090,NA,NA,341,"P O BOX 90224, WASHINGTON, DC, 20090","No_Match",NA,NA,NA,NA
967342,"P O BOX 90257","WASHINGTON","DC",20090,NA,NA,342,"P O BOX 90257, WASHINGTON, DC, 20090","No_Match",NA,NA,NA,NA
967343,"P O BOX 9027","PENSACOLA","FL",32513,NA,NA,343,"P O BOX 9027, PENSACOLA, FL, 32513","No_Match",NA,NA,NA,NA
967344,"P O BOX 903","LUFKIN","TX",75904,NA,NA,344,"P O BOX 903, LUFKIN, TX, 75904","No_Match",NA,NA,NA,NA
967345,"P O BOX 90373","ANCHORAGE","AK",99509,NA,NA,345,"P O BOX 90373, ANCHORAGE, AK, 99509","No_Match",NA,NA,NA,NA
967346,"P O BOX 904","BREWTON","AL",36426,NA,NA,346,"P O BOX 904, BREWTON, AL, 36426","No_Match",NA,NA,NA,NA
967347,"P O BOX 90403","NASHVILLE","TN",37209,NA,NA,347,"P O BOX 90403, NASHVILLE, TN, 37209","No_Match",NA,NA,NA,NA
967348,"P O BOX 90457","PHOENIX","AZ",85066,NA,NA,348,"P O BOX 90457, PHOENIX, AZ, 85066","No_Match",NA,NA,NA,NA
967349,"P O BOX 905","GROVES","TX",77619,NA,NA,349,"P O BOX 905, GROVES, TX, 77619","No_Match",NA,NA,NA,NA
967350,"P O BOX 905","PETAL","MS",39465,NA,NA,350,"P O BOX 905, PETAL, MS, 39465","No_Match",NA,NA,NA,NA
967351,"P O BOX 90507","LOS ANGELES","CA",90009,NA,NA,351,"P O BOX 90507, LOS ANGELES, CA, 90009","No_Match",NA,NA,NA,NA
967352,"P O BOX 906","COLUMBIA","KY",42728,NA,NA,352,"P O BOX 906, COLUMBIA, KY, 42728","No_Match",NA,NA,NA,NA
967353,"P O BOX 906","ORANGE","CA",92856,NA,NA,353,"P O BOX 906, ORANGE, CA, 92856","No_Match",NA,NA,NA,NA
967354,"P O BOX 9062","RICHMOND","VA",23225,NA,NA,354,"P O BOX 9062, RICHMOND, VA, 23225","No_Match",NA,NA,NA,NA
967355,"P O BOX 90682","HOUSTON","TX",77290,NA,NA,355,"P O BOX 90682, HOUSTON, TX, 77290","No_Match",NA,NA,NA,NA
967356,"P O BOX 907","WEST JORDAN","UT",84084,NA,NA,356,"P O BOX 907, WEST JORDAN, UT, 84084","No_Match",NA,NA,NA,NA
967357,"P O BOX 90751","SAN BERNARDINO","CA",92427,NA,NA,357,"P O BOX 90751, SAN BERNARDINO, CA, 92427","No_Match",NA,NA,NA,NA
967358,"P O BOX 908","JASPER","TX",75951,NA,NA,358,"P O BOX 908, JASPER, TX, 75951","No_Match",NA,NA,NA,NA
967359,"P O BOX 91","FORT WORTH","TX",76101,NA,NA,359,"P O BOX 91, FORT WORTH, TX, 76101","No_Match",NA,NA,NA,NA
967360,"P O BOX 91","HUMBLE","TX",77347,NA,NA,360,"P O BOX 91, HUMBLE, TX, 77347","No_Match",NA,NA,NA,NA
967361,"P O BOX 91","LOS ALAMITOS","CA",90720,NA,NA,361,"P O BOX 91, LOS ALAMITOS, CA, 90720","No_Match",NA,NA,NA,NA
967362,"P O BOX 91","NETTLETON","MS",38858,NA,NA,362,"P O BOX 91, NETTLETON, MS, 38858","No_Match",NA,NA,NA,NA
967363,"P O BOX 91","TENNYSON","IN",47637,NA,NA,363,"P O BOX 91, TENNYSON, IN, 47637","No_Match",NA,NA,NA,NA
967364,"P O BOX 91099","COLUMBIA","SC",29223,NA,NA,364,"P O BOX 91099, COLUMBIA, SC, 29223","No_Match",NA,NA,NA,NA
967365,"P O BOX 911","BROOKNEAL","VA",24528,NA,NA,365,"P O BOX 911, BROOKNEAL, VA, 24528","No_Match",NA,NA,NA,NA
967366,"P O BOX 911","BRYAN","TX",77806,NA,NA,366,"P O BOX 911, BRYAN, TX, 77806","No_Match",NA,NA,NA,NA
967367,"P O BOX 911","CAPE MAY COURT HOUSE","NJ",8210,NA,NA,367,"P O BOX 911, CAPE MAY COURT HOUSE, NJ, 8210","No_Match",NA,NA,NA,NA
967368,"P O BOX 912","ATHENS","TX",75751,NA,NA,368,"P O BOX 912, ATHENS, TX, 75751","No_Match",NA,NA,NA,NA
967369,"P O BOX 912","CHIEFLAND","FL",32644,NA,NA,369,"P O BOX 912, CHIEFLAND, FL, 32644","No_Match",NA,NA,NA,NA
967370,"P O BOX 912","DUCKTOWN","TN",37326,NA,NA,370,"P O BOX 912, DUCKTOWN, TN, 37326","No_Match",NA,NA,NA,NA
967371,"P O BOX 912","GUILDERLAND","NY",12084,NA,NA,371,"P O BOX 912, GUILDERLAND, NY, 12084","No_Match",NA,NA,NA,NA
967372,"P O BOX 912","ZANESVILLE","OH",43702,NA,NA,372,"P O BOX 912, ZANESVILLE, OH, 43702","No_Match",NA,NA,NA,NA
967373,"P O BOX 91282","RALEIGH","NC",27675,NA,NA,373,"P O BOX 91282, RALEIGH, NC, 27675","No_Match",NA,NA,NA,NA
967374,"P O BOX 913","MONROVIA","CA",91017,NA,NA,374,"P O BOX 913, MONROVIA, CA, 91017","No_Match",NA,NA,NA,NA
967375,"P O BOX 913","PT CLEAR","AL",36564,NA,NA,375,"P O BOX 913, PT CLEAR, AL, 36564","No_Match",NA,NA,NA,NA
967376,"P O BOX 914","BEATTY","NV",89003,NA,NA,376,"P O BOX 914, BEATTY, NV, 89003","No_Match",NA,NA,NA,NA
967377,"P O BOX 914","MARIANNA","AR",72360,NA,NA,377,"P O BOX 914, MARIANNA, AR, 72360","No_Match",NA,NA,NA,NA
967378,"P O BOX 914","MCGEHEE","AR",71654,NA,NA,378,"P O BOX 914, MCGEHEE, AR, 71654","No_Match",NA,NA,NA,NA
967379,"P O BOX 91462","LAKELAND","FL",33804,NA,NA,379,"P O BOX 91462, LAKELAND, FL, 33804","No_Match",NA,NA,NA,NA
967380,"P O BOX 91485","HOUSTON","TX",77291,NA,NA,380,"P O BOX 91485, HOUSTON, TX, 77291","No_Match",NA,NA,NA,NA
967381,"P O BOX 915","COLUMBIA","MO",65205,NA,NA,381,"P O BOX 915, COLUMBIA, MO, 65205","No_Match",NA,NA,NA,NA
967382,"P O BOX 915","WINDERMERE","FL",34786,NA,NA,382,"P O BOX 915, WINDERMERE, FL, 34786","No_Match",NA,NA,NA,NA
967383,"P O BOX 91531","LAKELAND","FL",33804,NA,NA,383,"P O BOX 91531, LAKELAND, FL, 33804","No_Match",NA,NA,NA,NA
967384,"P O BOX 917","NEDERLAND","CO",80466,NA,NA,384,"P O BOX 917, NEDERLAND, CO, 80466","No_Match",NA,NA,NA,NA
967385,"P O BOX 92","AMESBURY","MA",1913,NA,NA,385,"P O BOX 92, AMESBURY, MA, 1913","No_Match",NA,NA,NA,NA
967386,"P O BOX 92","CORNING","CA",96021,NA,NA,386,"P O BOX 92, CORNING, CA, 96021","No_Match",NA,NA,NA,NA
967387,"P O BOX 92","HAILEY","ID",83333,NA,NA,387,"P O BOX 92, HAILEY, ID, 83333","No_Match",NA,NA,NA,NA
967388,"P O BOX 92","KELSO","MO",63758,NA,NA,388,"P O BOX 92, KELSO, MO, 63758","No_Match",NA,NA,NA,NA
967389,"P O BOX 92","LISMAN","AL",36912,NA,NA,389,"P O BOX 92, LISMAN, AL, 36912","No_Match",NA,NA,NA,NA
967390,"P O BOX 92","MADISON","WV",25130,NA,NA,390,"P O BOX 92, MADISON, WV, 25130","No_Match",NA,NA,NA,NA
967391,"P O BOX 92","NORTH SUTTON","NH",3260,NA,NA,391,"P O BOX 92, NORTH SUTTON, NH, 3260","No_Match",NA,NA,NA,NA
967392,"P O BOX 92","TABOR","IA",51653,NA,NA,392,"P O BOX 92, TABOR, IA, 51653","No_Match",NA,NA,NA,NA
967393,"P O BOX 920536","HOUSTON","TX",77292,NA,NA,393,"P O BOX 920536, HOUSTON, TX, 77292","No_Match",NA,NA,NA,NA
967394,"P O BOX 921","FRUITLAND PARK","FL",34731,NA,NA,394,"P O BOX 921, FRUITLAND PARK, FL, 34731","No_Match",NA,NA,NA,NA
967395,"P O BOX 921","WINSTON","GA",30187,NA,NA,395,"P O BOX 921, WINSTON, GA, 30187","No_Match",NA,NA,NA,NA
967396,"P O BOX 9217","MONTGOMERY","AL",36108,NA,NA,396,"P O BOX 9217, MONTGOMERY, AL, 36108","No_Match",NA,NA,NA,NA
967397,"P O BOX 922","KAPAA","HI",96746,NA,NA,397,"P O BOX 922, KAPAA, HI, 96746","No_Match",NA,NA,NA,NA
967398,"P O BOX 922","OKMULGEE","OK",74447,NA,NA,398,"P O BOX 922, OKMULGEE, OK, 74447","No_Match",NA,NA,NA,NA
967399,"P O BOX 92345","LONG BEACH","CA",90809,NA,NA,399,"P O BOX 92345, LONG BEACH, CA, 90809","No_Match",NA,NA,NA,NA
967400,"P O BOX 924","FORNEY","TX",75126,NA,NA,400,"P O BOX 924, FORNEY, TX, 75126","No_Match",NA,NA,NA,NA
967401,"P O BOX 924","KIIHEI","HI",96753,NA,NA,401,"P O BOX 924, KIIHEI, HI, 96753","No_Match",NA,NA,NA,NA
967402,"P O BOX 924111","HOMESTEAD","FL",33032,NA,NA,402,"P O BOX 924111, HOMESTEAD, FL, 33032","No_Match",NA,NA,NA,NA
967403,"P O BOX 92417","WASHINGTON","DC",20090,NA,NA,403,"P O BOX 92417, WASHINGTON, DC, 20090","No_Match",NA,NA,NA,NA
967404,"P O BOX 924613","HOUSTON","TX",77292,NA,NA,404,"P O BOX 924613, HOUSTON, TX, 77292","No_Match",NA,NA,NA,NA
967405,"P O BOX 926","FAYETTEVILLE","GA",30214,NA,NA,405,"P O BOX 926, FAYETTEVILLE, GA, 30214","No_Match",NA,NA,NA,NA
967406,"P O BOX 927","ROYSE CITY","TX",75189,NA,NA,406,"P O BOX 927, ROYSE CITY, TX, 75189","No_Match",NA,NA,NA,NA
967407,"P O BOX 92710","LAKELAND","FL",33804,NA,NA,407,"P O BOX 92710, LAKELAND, FL, 33804","No_Match",NA,NA,NA,NA
967408,"P O BOX 92731","LONG BEACH","CA",90809,NA,NA,408,"P O BOX 92731, LONG BEACH, CA, 90809","No_Match",NA,NA,NA,NA
967409,"P O BOX 928","ANCHOR POINT","AK",99556,NA,NA,409,"P O BOX 928, ANCHOR POINT, AK, 99556","No_Match",NA,NA,NA,NA
967410,"P O BOX 929","DAYTONA BEACH","FL",32115,NA,NA,410,"P O BOX 929, DAYTONA BEACH, FL, 32115","No_Match",NA,NA,NA,NA
967411,"P O BOX 929","WHITE SULPHUR SPRING","WV",24986,NA,NA,411,"P O BOX 929, WHITE SULPHUR SPRING, WV, 24986","No_Match",NA,NA,NA,NA
967412,"P O BOX 93","ADDISON","TX",75001,NA,NA,412,"P O BOX 93, ADDISON, TX, 75001","No_Match",NA,NA,NA,NA
967413,"P O BOX 93","GATESVILLE","NC",27938,NA,NA,413,"P O BOX 93, GATESVILLE, NC, 27938","No_Match",NA,NA,NA,NA
967414,"P O BOX 93","LINCOLN","DE",19960,NA,NA,414,"P O BOX 93, LINCOLN, DE, 19960","No_Match",NA,NA,NA,NA
967415,"P O BOX 93","MARION","SC",29571,NA,NA,415,"P O BOX 93, MARION, SC, 29571","No_Match",NA,NA,NA,NA
967416,"P O BOX 93","ROUGH READY","CA",95975,NA,NA,416,"P O BOX 93, ROUGH READY, CA, 95975","No_Match",NA,NA,NA,NA
967417,"P O BOX 930151","NORCROSS","GA",30003,NA,NA,417,"P O BOX 930151, NORCROSS, GA, 30003","No_Match",NA,NA,NA,NA
967418,"P O BOX 931","LOON LAKE","WA",99148,NA,NA,418,"P O BOX 931, LOON LAKE, WA, 99148","No_Match",NA,NA,NA,NA
967419,"P O BOX 931","OCOEE","FL",34761,NA,NA,419,"P O BOX 931, OCOEE, FL, 34761","No_Match",NA,NA,NA,NA
967420,"P O BOX 931","RED OAK","TX",75154,NA,NA,420,"P O BOX 931, RED OAK, TX, 75154","No_Match",NA,NA,NA,NA
967421,"P O BOX 932","NEW YORK","NY",10030,NA,NA,421,"P O BOX 932, NEW YORK, NY, 10030","No_Match",NA,NA,NA,NA
967422,"P O BOX 933","CHRISTIANSTED","VI",821,NA,NA,422,"P O BOX 933, CHRISTIANSTED, VI, 821","No_Match",NA,NA,NA,NA
967423,"P O BOX 933","HOLLIDAY","TX",76366,NA,NA,423,"P O BOX 933, HOLLIDAY, TX, 76366","No_Match",NA,NA,NA,NA
967424,"P O BOX 933","SMITH STATION","AL",36877,NA,NA,424,"P O BOX 933, SMITH STATION, AL, 36877","No_Match",NA,NA,NA,NA
967425,"P O BOX 93381","CLEVELAND","OH",44101,NA,NA,425,"P O BOX 93381, CLEVELAND, OH, 44101","No_Match",NA,NA,NA,NA
967426,"P O BOX 935","WEST POINT","CA",95255,NA,NA,426,"P O BOX 935, WEST POINT, CA, 95255","No_Match",NA,NA,NA,NA
967427,"P O BOX 936","MARION","MT",59925,NA,NA,427,"P O BOX 936, MARION, MT, 59925","No_Match",NA,NA,NA,NA
967428,"P O BOX 936","MENARD","TX",76859,NA,NA,428,"P O BOX 936, MENARD, TX, 76859","No_Match",NA,NA,NA,NA
967429,"P O BOX 936","REDWOOD VALLEY","CA",95470,NA,NA,429,"P O BOX 936, REDWOOD VALLEY, CA, 95470","No_Match",NA,NA,NA,NA
967430,"P O BOX 93658","CITY OF INDUSTRY","CA",91715,NA,NA,430,"P O BOX 93658, CITY OF INDUSTRY, CA, 91715","No_Match",NA,NA,NA,NA
967431,"P O BOX 938","BEATTY","NV",89003,NA,NA,431,"P O BOX 938, BEATTY, NV, 89003","No_Match",NA,NA,NA,NA
967432,"P O BOX 938","ELM CITY","NC",27822,NA,NA,432,"P O BOX 938, ELM CITY, NC, 27822","No_Match",NA,NA,NA,NA
967433,"P O BOX 94","ALPINE","TX",79831,NA,NA,433,"P O BOX 94, ALPINE, TX, 79831","No_Match",NA,NA,NA,NA
967434,"P O BOX 94","DYERSBRUG","TN",38025,NA,NA,434,"P O BOX 94, DYERSBRUG, TN, 38025","No_Match",NA,NA,NA,NA
967435,"P O BOX 94","GRAPELAND","TX",75844,NA,NA,435,"P O BOX 94, GRAPELAND, TX, 75844","No_Match",NA,NA,NA,NA
967436,"P O BOX 94","MIDWAY","GA",31320,NA,NA,436,"P O BOX 94, MIDWAY, GA, 31320","No_Match",NA,NA,NA,NA
967437,"P O BOX 94","PRIDDY","TX",76870,NA,NA,437,"P O BOX 94, PRIDDY, TX, 76870","No_Match",NA,NA,NA,NA
967438,"P O BOX 940031","HOUSTON","TX",77094,NA,NA,438,"P O BOX 940031, HOUSTON, TX, 77094","No_Match",NA,NA,NA,NA
967439,"P O BOX 940672","PLANO","TX",75094,NA,NA,439,"P O BOX 940672, PLANO, TX, 75094","No_Match",NA,NA,NA,NA
967440,"P O BOX 941054","ATLANTA","GA",31141,NA,NA,440,"P O BOX 941054, ATLANTA, GA, 31141","No_Match",NA,NA,NA,NA
967441,"P O BOX 941383","MAITLAND","FL",32794,NA,NA,441,"P O BOX 941383, MAITLAND, FL, 32794","No_Match",NA,NA,NA,NA
967442,"P O BOX 941522","HOUSTON","TX",77094,NA,NA,442,"P O BOX 941522, HOUSTON, TX, 77094","No_Match",NA,NA,NA,NA
967443,"P O BOX 942","ALVIN","TX",77512,NA,NA,443,"P O BOX 942, ALVIN, TX, 77512","No_Match",NA,NA,NA,NA
967444,"P O BOX 942","SPRINGFIELD","OH",45501,NA,NA,444,"P O BOX 942, SPRINGFIELD, OH, 45501","No_Match",NA,NA,NA,NA
967445,"P O BOX 942","TAYLOR","TX",76574,NA,NA,445,"P O BOX 942, TAYLOR, TX, 76574","No_Match",NA,NA,NA,NA
967446,"P O BOX 942522","HOUSTON","TX",77094,NA,NA,446,"P O BOX 942522, HOUSTON, TX, 77094","No_Match",NA,NA,NA,NA
967447,"P O BOX 943","FAYETTEVILLE","GA",30214,NA,NA,447,"P O BOX 943, FAYETTEVILLE, GA, 30214","No_Match",NA,NA,NA,NA
967448,"P O BOX 9433","PENSACOLA","FL",32513,NA,NA,448,"P O BOX 9433, PENSACOLA, FL, 32513","No_Match",NA,NA,NA,NA
967449,"P O BOX 944","GROESBECK","TX",76642,NA,NA,449,"P O BOX 944, GROESBECK, TX, 76642","No_Match",NA,NA,NA,NA
967450,"P O BOX 944","KINGS MTN","NC",28086,NA,NA,450,"P O BOX 944, KINGS MTN, NC, 28086","No_Match",NA,NA,NA,NA
967451,"P O BOX 945","LINCOLN CITY","OR",97367,NA,NA,451,"P O BOX 945, LINCOLN CITY, OR, 97367","No_Match",NA,NA,NA,NA
967452,"P O BOX 949","COLDSPRING","TX",77331,NA,NA,452,"P O BOX 949, COLDSPRING, TX, 77331","No_Match",NA,NA,NA,NA
967453,"P O BOX 949","EUREKA","CA",95502,NA,NA,453,"P O BOX 949, EUREKA, CA, 95502","No_Match",NA,NA,NA,NA
967454,"P O BOX 95","ARUA","LA",70506,NA,NA,454,"P O BOX 95, ARUA, LA, 70506","No_Match",NA,NA,NA,NA
967455,"P O BOX 95","CROSBY","PA",16724,NA,NA,455,"P O BOX 95, CROSBY, PA, 16724","No_Match",NA,NA,NA,NA
967456,"P O BOX 95","D'LO","MS",39062,NA,NA,456,"P O BOX 95, D'LO, MS, 39062","No_Match",NA,NA,NA,NA
967457,"P O BOX 95","DAYTON","OH",45401,NA,NA,457,"P O BOX 95, DAYTON, OH, 45401","No_Match",NA,NA,NA,NA
967458,"P O BOX 95","HOLTVILLE","CA",92250,NA,NA,458,"P O BOX 95, HOLTVILLE, CA, 92250","No_Match",NA,NA,NA,NA
967459,"P O BOX 95","JACKSON","MN",56143,NA,NA,459,"P O BOX 95, JACKSON, MN, 56143","No_Match",NA,NA,NA,NA
967460,"P O BOX 950263","LAKE MARY","FL",32795,NA,NA,460,"P O BOX 950263, LAKE MARY, FL, 32795","No_Match",NA,NA,NA,NA
967461,"P O BOX 951","ANAHUAC","TX",77514,NA,NA,461,"P O BOX 951, ANAHUAC, TX, 77514","No_Match",NA,NA,NA,NA
967462,"P O BOX 9513","WILMINGTON","DE",19809,NA,NA,462,"P O BOX 9513, WILMINGTON, DE, 19809","No_Match",NA,NA,NA,NA
967463,"P O BOX 9516","COLLEGE STATION","TX",77842,NA,NA,463,"P O BOX 9516, COLLEGE STATION, TX, 77842","No_Match",NA,NA,NA,NA
967464,"P O BOX 95213","SEATTLE","WA",98145,NA,NA,464,"P O BOX 95213, SEATTLE, WA, 98145","No_Match",NA,NA,NA,NA
967465,"P O BOX 9535","BEXLEY","OH",43209,NA,NA,465,"P O BOX 9535, BEXLEY, OH, 43209","No_Match",NA,NA,NA,NA
967466,"P O BOX 955","KIMBERTON","PA",19442,NA,NA,466,"P O BOX 955, KIMBERTON, PA, 19442","No_Match",NA,NA,NA,NA
967467,"P O BOX 955","WILDOMAR","CA",92595,NA,NA,467,"P O BOX 955, WILDOMAR, CA, 92595","No_Match",NA,NA,NA,NA
967468,"P O BOX 957","AGUADA","PR",602,NA,NA,468,"P O BOX 957, AGUADA, PR, 602","No_Match",NA,NA,NA,NA
967469,"P O BOX 957","PICKENS","MS",39146,NA,NA,469,"P O BOX 957, PICKENS, MS, 39146","No_Match",NA,NA,NA,NA
967470,"P O BOX 957235","DULUTH","GA",30095,NA,NA,470,"P O BOX 957235, DULUTH, GA, 30095","No_Match",NA,NA,NA,NA
967471,"P O BOX 957403","DULUTH","GA",30095,NA,NA,471,"P O BOX 957403, DULUTH, GA, 30095","No_Match",NA,NA,NA,NA
967472,"P O BOX 958188","DULUTH","GA",30096,NA,NA,472,"P O BOX 958188, DULUTH, GA, 30096","No_Match",NA,NA,NA,NA
967473,"P O BOX 95886","SEATTLE","WA",98145,NA,NA,473,"P O BOX 95886, SEATTLE, WA, 98145","No_Match",NA,NA,NA,NA
967474,"P O BOX 959","SWEENY","TX",77480,NA,NA,474,"P O BOX 959, SWEENY, TX, 77480","No_Match",NA,NA,NA,NA
967475,"P O BOX 96","ALBION","ID",83311,NA,NA,475,"P O BOX 96, ALBION, ID, 83311","No_Match",NA,NA,NA,NA
967476,"P O BOX 96","FLATONIA","TX",78941,NA,NA,476,"P O BOX 96, FLATONIA, TX, 78941","No_Match",NA,NA,NA,NA
967477,"P O BOX 96","RANDOLPH","OH",44265,NA,NA,477,"P O BOX 96, RANDOLPH, OH, 44265","No_Match",NA,NA,NA,NA
967478,"P O BOX 96","WATERTOWN","TN",37184,NA,NA,478,"P O BOX 96, WATERTOWN, TN, 37184","No_Match",NA,NA,NA,NA
967479,"P O BOX 960","POPLARVILLE","MS",39470,NA,NA,479,"P O BOX 960, POPLARVILLE, MS, 39470","No_Match",NA,NA,NA,NA
967480,"P O BOX 960994","RIVERDALE","GA",30296,NA,NA,480,"P O BOX 960994, RIVERDALE, GA, 30296","No_Match",NA,NA,NA,NA
967481,"P O BOX 961","PINE LAKE","GA",30260,NA,NA,481,"P O BOX 961, PINE LAKE, GA, 30260","No_Match",NA,NA,NA,NA
967482,"P O BOX 9614","CHARLOTTE AMALIE","VI",801,NA,NA,482,"P O BOX 9614, CHARLOTTE AMALIE, VI, 801","No_Match",NA,NA,NA,NA
967483,"P O BOX 962","CRANE","TX",79731,NA,NA,483,"P O BOX 962, CRANE, TX, 79731","No_Match",NA,NA,NA,NA
967484,"P O BOX 962","LATROBE","PA",15650,NA,NA,484,"P O BOX 962, LATROBE, PA, 15650","No_Match",NA,NA,NA,NA
967485,"P O BOX 96272","HOUSTON","TX",77213,NA,NA,485,"P O BOX 96272, HOUSTON, TX, 77213","No_Match",NA,NA,NA,NA
967486,"P O BOX 963","BURNSVILLE","NC",28714,NA,NA,486,"P O BOX 963, BURNSVILLE, NC, 28714","No_Match",NA,NA,NA,NA
967487,"P O BOX 963","PINE BUSH","NY",12566,NA,NA,487,"P O BOX 963, PINE BUSH, NY, 12566","No_Match",NA,NA,NA,NA
967488,"P O BOX 9636","TYLER","TX",75711,NA,NA,488,"P O BOX 9636, TYLER, TX, 75711","No_Match",NA,NA,NA,NA
967489,"P O BOX 964","DUNCAN","AZ",85534,NA,NA,489,"P O BOX 964, DUNCAN, AZ, 85534","No_Match",NA,NA,NA,NA
967490,"P O BOX 965","MIMS","FL",32754,NA,NA,490,"P O BOX 965, MIMS, FL, 32754","No_Match",NA,NA,NA,NA
967491,"P O BOX 965","TEMPLETON","CA",93465,NA,NA,491,"P O BOX 965, TEMPLETON, CA, 93465","No_Match",NA,NA,NA,NA
967492,"P O BOX 966","CLARKSTON","GA",30021,NA,NA,492,"P O BOX 966, CLARKSTON, GA, 30021","No_Match",NA,NA,NA,NA
967493,"P O BOX 966","RANCHOS DE TAOS","NM",87557,NA,NA,493,"P O BOX 966, RANCHOS DE TAOS, NM, 87557","No_Match",NA,NA,NA,NA
967494,"P O BOX 968","CHICKASHA","OK",73023,NA,NA,494,"P O BOX 968, CHICKASHA, OK, 73023","No_Match",NA,NA,NA,NA
967495,"P O BOX 9683","COLUMBUS","OH",43209,NA,NA,495,"P O BOX 9683, COLUMBUS, OH, 43209","No_Match",NA,NA,NA,NA
967496,"P O BOX 9685","FAYETTEVILLE","NC",28311,NA,NA,496,"P O BOX 9685, FAYETTEVILLE, NC, 28311","No_Match",NA,NA,NA,NA
967497,"P O BOX 9685","PORT ST LUCIE","FL",34985,NA,NA,497,"P O BOX 9685, PORT ST LUCIE, FL, 34985","No_Match",NA,NA,NA,NA
967498,"P O BOX 97","LITTLE RIVER","AL",36550,NA,NA,498,"P O BOX 97, LITTLE RIVER, AL, 36550","No_Match",NA,NA,NA,NA
967499,"P O BOX 970 PARK FOREST","CHICAGO","IL",60466,NA,NA,499,"P O BOX 970 PARK FOREST, CHICAGO, IL, 60466","No_Match",NA,NA,NA,NA
967500,"P O BOX 9705","FOUNTAIN VALLEY","CA",92728,NA,NA,500,"P O BOX 9705, FOUNTAIN VALLEY, CA, 92728","No_Match",NA,NA,NA,NA
