"ID","Address","City","State","Zip","lat","long","id","input_address","match_indicator","match_type","matched_address","tiger_line_id","tiger_side"
837001,"730 MADRID ST","SAN FRANCISCO","CA",94112,37.717989174,-122.435556443,1,"730 MADRID ST, SAN FRANCISCO, CA, 94112","Match","Exact","730 MADRID ST, SAN FRANCISCO, CA, 94112",192286648,"R"
837002,"730 MAIN ST UNIT 256","NORTH MYRTLE BEACH","SC",29582,33.8260946230001,-78.6774311089999,2,"730 MAIN ST UNIT 256, NORTH MYRTLE BEACH, SC, 29582","Match","Exact","730 MAIN ST, N MYRTLE BCH, SC, 29582",29105026,"R"
837003,"730 MAIN STREET SUITE 356","NORTH MYRTLE BEACH","SC",29582,33.8260946230001,-78.6774311089999,3,"730 MAIN STREET SUITE 356, NORTH MYRTLE BEACH, SC, 29582","Match","Exact","730 MAIN ST, N MYRTLE BCH, SC, 29582",29105026,"R"
837004,"730 MALLORY DR","WAXAHACHIE","TX",75167,32.4896827860001,-96.8788755049999,4,"730 MALLORY DR, WAXAHACHIE, TX, 75167","Match","Exact","730 MALLORY DR, WAXAHACHIE, TX, 75167",624548834,"L"
837005,"730 MARGUERITE AVE","CORNING","CA",96021,39.9285161400001,-122.169461007,5,"730 MARGUERITE AVE, CORNING, CA, 96021","Match","Exact","730 MARGUERITE AVE, CORNING, CA, 96021",119393484,"L"
837006,"730 MEADOWHAWK","VACAVILLE","CA",95687,38.322414028,-121.964399123,6,"730 MEADOWHAWK, VACAVILLE, CA, 95687","Match","Non_Exact","730 MEADOWHAWK DR, VACAVILLE, CA, 95687",192545704,"R"
837007,"730 MEDILL AVE NE","MASSILLON","OH",44646,40.811936099,-81.516291178,7,"730 MEDILL AVE NE, MASSILLON, OH, 44646","Match","Exact","730 MEDILL AVE NE, MASSILLON, OH, 44646",64668652,"L"
837008,"730 MEGAN DR","GREENVILLE","NC",27834,NA,NA,8,"730 MEGAN DR, GREENVILLE, NC, 27834","No_Match",NA,NA,NA,NA
837009,"730 MERRILL AVE","LANSING","MI",48912,42.7413766350001,-84.513215047,9,"730 MERRILL AVE, LANSING, MI, 48912","Match","Non_Exact","730 MERRILL ST, LANSING, MI, 48912",17501016,"R"
837010,"730 MICHELLE DRIVE","NEWPORT NEWS","VA",23601,37.059745166,-76.4543112489999,10,"730 MICHELLE DRIVE, NEWPORT NEWS, VA, 23601","Match","Exact","730 MICHELLE DR, NEWPORT NEWS, VA, 23601",103812932,"R"
837011,"730 MILL CIR","ALPHARETTA","GA",30022,34.0159213740001,-84.234386435,11,"730 MILL CIR, ALPHARETTA, GA, 30022","Match","Exact","730 MILL CIR, ALPHARETTA, GA, 30022",17390831,"L"
837012,"730 MINE FORK RD","BEAVER DAM","KY",42320,37.3824401950001,-86.893760495,12,"730 MINE FORK RD, BEAVER DAM, KY, 42320","Match","Exact","730 MINE FORK RD, BEAVER DAM, KY, 42320",27956201,"L"
837013,"730 MONTERREY","BEAUMONT","TX",77706,30.0801130770001,-94.179492743,13,"730 MONTERREY, BEAUMONT, TX, 77706","Match","Non_Exact","730 MONTERREY DR, BEAUMONT, TX, 77706",73852005,"R"
837014,"730 MOORMANS ARM RD","NASHVILLE","TN",37207,36.216189618,-86.812932431,14,"730 MOORMANS ARM RD, NASHVILLE, TN, 37207","Match","Exact","730 MOORMANS ARM RD, NASHVILLE, TN, 37207",97214508,"R"
837015,"730 N 14TH","LINCOLN","NE",68588,NA,NA,15,"730 N 14TH, LINCOLN, NE, 68588","No_Match",NA,NA,NA,NA
837016,"730 N 150 W","AMERICAN FORK","UT",84003,40.39166722,-111.802613102,16,"730 N 150 W, AMERICAN FORK, UT, 84003","Match","Exact","730 N 150 W, AMERICAN FORK, UT, 84003",134223196,"L"
837017,"730 N 4TH ST","MINNEAPOLIS","MN",55401,44.986180818,-93.279472198,17,"730 N 4TH ST, MINNEAPOLIS, MN, 55401","Match","Exact","730 N 4TH ST, MINNEAPOLIS, MN, 55401",43739138,"R"
837018,"730 N 72ND WAY","HOLLWOOD","FL",33024,26.0159189510001,-80.233660769,18,"730 N 72ND WAY, HOLLWOOD, FL, 33024","Match","Non_Exact","730 N 72ND WAY, HOLLYWOOD, FL, 33024",114713178,"L"
837019,"730 N 72ND WAY","HOLLYWOOD","FL",33024,26.0159189510001,-80.233660769,19,"730 N 72ND WAY, HOLLYWOOD, FL, 33024","Match","Exact","730 N 72ND WAY, HOLLYWOOD, FL, 33024",114713178,"L"
837020,"730 N CEDAR RIDGE DR","ORACLE","AZ",85623,32.6074936810001,-110.764767262,20,"730 N CEDAR RIDGE DR, ORACLE, AZ, 85623","Match","Exact","730 N CEDAR RIDGE DR, ORACLE, AZ, 85623",129311591,"L"
837021,"730 N DIAMOND BAR BLVD","DIAMOND BAR","CA",91765,34.03262196,-117.808414025,21,"730 N DIAMOND BAR BLVD, DIAMOND BAR, CA, 91765","Match","Exact","730 N DIAMOND BAR BLVD, DIAMOND BAR, CA, 91765",647694910,"R"
837022,"730 N DOBSON RD","GREER","SC",29651,34.9540203830001,-82.2047800679999,22,"730 N DOBSON RD, GREER, SC, 29651","Match","Exact","730 N DOBSON RD, GREER, SC, 29651",638426759,"L"
837023,"730 N EUCALYPTUS AVE APT 8","INGLEWOOD","CA",90302,33.971954269,-118.359280891,23,"730 N EUCALYPTUS AVE APT 8, INGLEWOOD, CA, 90302","Match","Non_Exact","730 N EUCALYPTUS AVE, INGLEWOOD, CA, 90302",141653894,"R"
837024,"730 N LINCOLN STREET","STOCKTON","CA",95203,37.958681089,-121.299576427,24,"730 N LINCOLN STREET, STOCKTON, CA, 95203","Match","Exact","730 N LINCOLN ST, STOCKTON, CA, 95203",133849154,"R"
837025,"730 N MADERA AVE","ONTARIO","CA",91764,34.071528045,-117.619022553,25,"730 N MADERA AVE, ONTARIO, CA, 91764","Match","Exact","730 N MADERA AVE, ONTARIO, CA, 91764",144636755,"R"
837026,"730 N RAILROAD AVE","LOVELAND","CO",80537,40.3989555100001,-105.07596052,26,"730 N RAILROAD AVE, LOVELAND, CO, 80537","Match","Exact","730 N RAILROAD AVE, LOVELAND, CO, 80537",188485860,"R"
837027,"730 N ROCHESTER ST APT 11","MUKWONAGO","WI",53149,NA,NA,27,"730 N ROCHESTER ST APT 11, MUKWONAGO, WI, 53149","Tie",NA,NA,NA,NA
837028,"730 N TEJON ST","COLORADO SPRINGS","CO",80903,38.8442513190001,-104.822952242,28,"730 N TEJON ST, COLORADO SPRINGS, CO, 80903","Match","Exact","730 N TEJON ST, COLORADO SPRINGS, CO, 80903",105514152,"L"
837029,"730 N VAN BUREN STREET","IOWA CITY","IA",52245,41.669437622,-91.528583726,29,"730 N VAN BUREN STREET, IOWA CITY, IA, 52245","Match","Exact","730 N VAN BUREN ST, IOWA CITY, IA, 52245",84495391,"R"
837030,"730 NASSAU PARKWAY","ROCKFORD","IL",61107,42.2758020730001,-89.002064552,30,"730 NASSAU PARKWAY, ROCKFORD, IL, 61107","Match","Exact","730 NASSAU PKWY, ROCKFORD, IL, 61107",49262954,"L"
837031,"730 NAVAJO WAY","FREMONT","CA",94539,37.4892054590001,-121.920201086,31,"730 NAVAJO WAY, FREMONT, CA, 94539","Match","Exact","730 NAVAJO WAY, FREMONT, CA, 94539",124990106,"L"
837032,"730 NE 10TH PLACE","GAINESVILLE","FL",32601,29.6615003420001,-82.316525973,32,"730 NE 10TH PLACE, GAINESVILLE, FL, 32601","Match","Exact","730 NE 10TH PL, GAINESVILLE, FL, 32601",6809016,"L"
837033,"730 NE 2ND ST","BOCA RATON","FL",33432,26.3526615330001,-80.073834075,33,"730 NE 2ND ST, BOCA RATON, FL, 33432","Match","Exact","730 NE 2ND ST, BOCA RATON, FL, 33432",115303889,"R"
837034,"730 NOME STREET","AKRON","OH",44320,41.089458947,-81.570477473,34,"730 NOME STREET, AKRON, OH, 44320","Match","Non_Exact","730 NOME AVE, AKRON, OH, 44320",61338287,"R"
837035,"730 NORTH 5TH STREET","PRESCOTT","AZ",86301,34.554585957,-112.467311552,35,"730 NORTH 5TH STREET, PRESCOTT, AZ, 86301","Match","Non_Exact","730 5TH ST, PRESCOTT, AZ, 86301",159456725,"L"
837036,"730 NORTH CEDAR RIDGE DRIVE 5221","ORACLE","AZ",85623,32.607485379,-110.764768231,36,"730 NORTH CEDAR RIDGE DRIVE 5221, ORACLE, AZ, 85623","Match","Exact","730 N CEDAR RIDGE DR, ORACLE, AZ, 85623",129311591,"L"
837037,"730 NORTH JAY STREET","ROME","NY",13440,43.224334276,-75.4575938579999,37,"730 NORTH JAY STREET, ROME, NY, 13440","Match","Exact","730 N JAY ST, ROME, NY, 13440",171521853,"R"
837038,"730 NORTH OAK DRIVE","HOUSTON","TX",77073,30.006549206,-95.416406732,38,"730 NORTH OAK DRIVE, HOUSTON, TX, 77073","Match","Exact","730 N OAK DR, HOUSTON, TX, 77073",642862458,"R"
837039,"730 NORTH PLANKINTON AVENUE","MILWAUKEE","WI",53203,43.039196244,-87.911648092,39,"730 NORTH PLANKINTON AVENUE, MILWAUKEE, WI, 53203","Match","Exact","730 N PLANKINTON AVE, MILWAUKEE, WI, 53203",77741895,"R"
837040,"730 NW 18 STREET","POMPANO BEACH","FL",33060,26.2530544860001,-80.1338663,40,"730 NW 18 STREET, POMPANO BEACH, FL, 33060","Match","Exact","730 NW 18TH ST, POMPANO BEACH, FL, 33060",114741488,"L"
837041,"730 NW 3RD AVE","GRAND RAPIDS","MN",55744,47.2394891650001,-93.532916976,41,"730 NW 3RD AVE, GRAND RAPIDS, MN, 55744","Match","Exact","730 NW 3RD AVE, GRAND RAPIDS, MN, 55744",162932805,"L"
837042,"730 NW HEINZWOOD CIR","LAWTON","OK",73505,34.615086294,-98.445261713,42,"730 NW HEINZWOOD CIR, LAWTON, OK, 73505","Match","Exact","730 NW HEINZWOOD CIR, LAWTON, OK, 73505",15017067,"L"
837043,"730 OAK LEAF CIRCLE","ARROYO GRANDE","CA",93420,35.1364063090001,-120.598216642,43,"730 OAK LEAF CIRCLE, ARROYO GRANDE, CA, 93420","Match","Exact","730 OAK LEAF CIR, ARROYO GRANDE, CA, 93420",109794884,"R"
837044,"730 OAK ST","MOLALLA","OR",97038,45.147999267,-122.565742697,44,"730 OAK ST, MOLALLA, OR, 97038","Match","Exact","730 OAK ST, MOLALLA, OR, 97038",642887079,"L"
837045,"730 OAK TREE LANE","DANVILLE","IN",46122,NA,NA,45,"730 OAK TREE LANE, DANVILLE, IN, 46122","No_Match",NA,NA,NA,NA
837046,"730 OAKMONT AVE UNIT 909","LAS VEGAS","NV",89109,36.138587344,-115.147229884,46,"730 OAKMONT AVE UNIT 909, LAS VEGAS, NV, 89109","Match","Exact","730 OAKMONT AVE, LAS VEGAS, NV, 89109",201870746,"L"
837047,"730 OCEAN AVE","JERSEY CITY","NJ",7305,40.7108818950001,-74.075742987,47,"730 OCEAN AVE, JERSEY CITY, NJ, 7305","Match","Exact","730 OCEAN AVE, JERSEY CITY, NJ, 07305",59604408,"R"
837048,"730 OELLA AVE","ELLICOTT CITY","MD",21043,39.2763347430001,-76.787070404,48,"730 OELLA AVE, ELLICOTT CITY, MD, 21043","Match","Exact","730 OELLA AVE, ELLICOTT CITY, MD, 21043",653284486,"R"
837049,"730 OELLA AVE","GLENN DALE","MD",20769,NA,NA,49,"730 OELLA AVE, GLENN DALE, MD, 20769","No_Match",NA,NA,NA,NA
837050,"730 PARK BLVD","EAST LIVERPOOL","OH",43920,40.6445981470001,-80.572537817,50,"730 PARK BLVD, EAST LIVERPOOL, OH, 43920","Match","Exact","730 PARK BLVD, EAST LIVERPOOL, OH, 43920",63655110,"R"
837051,"730 PARSONS STREET","LA HABRA","CA",90631,33.9381937860001,-117.975628909,51,"730 PARSONS STREET, LA HABRA, CA, 90631","Match","Exact","730 PARSONS ST, LA HABRA, CA, 90631",143997672,"R"
837052,"730 PEACHTREE ST NE 570","ATLANTA","GA",30308,33.7745583490001,-84.3846884389999,52,"730 PEACHTREE ST NE 570, ATLANTA, GA, 30308","Match","Non_Exact","730 PEACHTREE ST, ATLANTA, GA, 30308",17343615,"L"
837053,"730 PEACHTREE ST NE SUITE 570","ATLANTA","GA",30308,33.7745583490001,-84.3846884389999,53,"730 PEACHTREE ST NE SUITE 570, ATLANTA, GA, 30308","Match","Non_Exact","730 PEACHTREE ST, ATLANTA, GA, 30308",17343615,"L"
837054,"730 PEACHTREE ST NE SUITE 570","ATLANTA","MD",76227,NA,NA,54,"730 PEACHTREE ST NE SUITE 570, ATLANTA, MD, 76227","No_Match",NA,NA,NA,NA
837055,"730 PEACHTREE ST NE UNIT 570","ATLANTA","GA",30308,33.7745583490001,-84.3846884389999,55,"730 PEACHTREE ST NE UNIT 570, ATLANTA, GA, 30308","Match","Non_Exact","730 PEACHTREE ST, ATLANTA, GA, 30308",17343615,"L"
837056,"730 PEACHTREE STREET NE 570","ATLANTA","GA",30308,33.7745583490001,-84.3846884389999,56,"730 PEACHTREE STREET NE 570, ATLANTA, GA, 30308","Match","Non_Exact","730 PEACHTREE ST, ATLANTA, GA, 30308",17343615,"L"
837057,"730 PEACHTREE STREET NE SUITE 570","ATLANTA","GA",30308,33.7745583490001,-84.3846884389999,57,"730 PEACHTREE STREET NE SUITE 570, ATLANTA, GA, 30308","Match","Non_Exact","730 PEACHTREE ST, ATLANTA, GA, 30308",17343615,"L"
837058,"730 PEBBLE CREEK LANE","LEBANON","TN",37090,36.187843731,-86.3848852849999,58,"730 PEBBLE CREEK LANE, LEBANON, TN, 37090","Match","Exact","730 PEBBLE CREEK LN, LEBANON, TN, 37090",650977586,"R"
837059,"730 PETEYWOOD DR","AUSTELL","GA",30106,33.855132681,-84.579710607,59,"730 PETEYWOOD DR, AUSTELL, GA, 30106","Match","Exact","730 PETEYWOOD DR, AUSTELL, GA, 30106",17231948,"R"
837060,"730 PINE STREET","HILLMAN","MI",49746,45.070548564,-83.8994276619999,60,"730 PINE STREET, HILLMAN, MI, 49746","Match","Exact","730 PINE ST, HILLMAN, MI, 49746",135980524,"R"
837061,"730 PLEASANT AVE","BOYNE CITY","MI",49712,45.206683942,-85.01911876,61,"730 PLEASANT AVE, BOYNE CITY, MI, 49712","Match","Exact","730 PLEASANT AVE, BOYNE CITY, MI, 49712",134487078,"L"
837062,"730 POINSETTA DR","SATELLITE BEACH","FL",32937,28.1600475010001,-80.590008231,62,"730 POINSETTA DR, SATELLITE BEACH, FL, 32937","Match","Exact","730 POINSETTA DR, SATELLITE BEACH, FL, 32937",93901544,"R"
837063,"730 POINTE PACIFIC DRIVE APT 7","DALY CITY","CA",94014,37.700818741,-122.453735322,63,"730 POINTE PACIFIC DRIVE APT 7, DALY CITY, CA, 94014","Match","Exact","730 POINTE PACIFIC DR, DALY CITY, CA, 94014",619073701,"R"
837064,"730 POLK STREET 4TH FLOOR","SAN FRANCISCO","CA",94109,37.783628089,-122.41927652,64,"730 POLK STREET 4TH FLOOR, SAN FRANCISCO, CA, 94109","Match","Exact","730 POLK ST, SAN FRANCISCO, CA, 94109",192287135,"R"
837065,"730 PONCE DE LEON PLACE NE","ATLANTA","GA",30306,33.774299623,-84.3636978439999,65,"730 PONCE DE LEON PLACE NE, ATLANTA, GA, 30306","Match","Exact","730 PONCE DE LEON PL NE, ATLANTA, GA, 30306",17356999,"L"
837066,"730 PRAIRIE VIEW DR","HERCULANEUM","MO",63048,38.2415472320001,-90.412305353,66,"730 PRAIRIE VIEW DR, HERCULANEUM, MO, 63048","Match","Exact","730 PRAIRIE VIEW DR, HERCULANEUM, MO, 63048",635825620,"R"
837067,"730 QUAIL HOLLOW DR","ELIZABETHTON","TN",37643,36.311253283,-82.2711180649999,67,"730 QUAIL HOLLOW DR, ELIZABETHTON, TN, 37643","Match","Exact","730 QUAIL HOLLOW DR, ELIZABETHTON, TN, 37643",43051779,"L"
837068,"730 QUINTON AVE","TRENTON","NJ",8629,40.2203335950001,-74.740250348,68,"730 QUINTON AVE, TRENTON, NJ, 8629","Match","Exact","730 QUINTON AVE, TRENTON, NJ, 08629",60225206,"L"
837069,"730 REGISTRY RUN NW","KENNESAW","GA",30152,33.9749237980001,-84.691992327,69,"730 REGISTRY RUN NW, KENNESAW, GA, 30152","Match","Exact","730 REGISTRY RUN NW, KENNESAW, GA, 30152",634052993,"L"
837070,"730 RIDDLE ROAD 209N","CINCINNATI","TX",45220,NA,NA,70,"730 RIDDLE ROAD 209N, CINCINNATI, TX, 45220","No_Match",NA,NA,NA,NA
837071,"730 RIGGINS ROAD","TALLAHASSEE","FL",32308,30.450376808,-84.236752022,71,"730 RIGGINS ROAD, TALLAHASSEE, FL, 32308","Match","Exact","730 RIGGINS RD, TALLAHASSEE, FL, 32308",82854660,"L"
837072,"730 RIVERSIDE DRIVE APT 7C","NEW YORK","NY",10031,40.83054343,-73.9495847699999,72,"730 RIVERSIDE DRIVE APT 7C, NEW YORK, NY, 10031","Match","Exact","730 RIVERSIDE DR, NEW YORK, NY, 10031",59655905,"R"
837073,"730 RIVERSIDE DRIVE SUITE  9E","NEW YORK","NY",10031,40.83054343,-73.9495847699999,73,"730 RIVERSIDE DRIVE SUITE  9E, NEW YORK, NY, 10031","Match","Exact","730 RIVERSIDE DR, NEW YORK, NY, 10031",59655905,"R"
837074,"730 RIVERSIDE DRIVE SUITE 9E","NEW YORK","NY",10031,40.83054343,-73.9495847699999,74,"730 RIVERSIDE DRIVE SUITE 9E, NEW YORK, NY, 10031","Match","Exact","730 RIVERSIDE DR, NEW YORK, NY, 10031",59655905,"R"
837075,"730 RIVERSIDE DRIVE","ESSEX","MD",21221,39.298120838,-76.4663851879999,75,"730 RIVERSIDE DRIVE, ESSEX, MD, 21221","Match","Exact","730 RIVERSIDE DR, ESSEX, MD, 21221",191489495,"R"
837076,"730 RIVERSIDE LANE","BLUE RIDGE","GA",30513,34.7938043550001,-84.268538639,76,"730 RIVERSIDE LANE, BLUE RIDGE, GA, 30513","Match","Exact","730 RIVERSIDE LN, BLUE RIDGE, GA, 30513",627355973,"L"
837077,"730 ROBIN DR","SANTA CLARA","CA",95050,37.3411300750001,-121.9615527,77,"730 ROBIN DR, SANTA CLARA, CA, 95050","Match","Exact","730 ROBIN DR, SANTA CLARA, CA, 95050",122899514,"L"
837078,"730 ROGERS AVE","BROOKLYN","NY",11226,40.6534259050001,-73.952768608,78,"730 ROGERS AVE, BROOKLYN, NY, 11226","Match","Exact","730 ROGERS AVE, BROOKLYN, NY, 11226",650076597,"R"
837079,"730 ROOSEVELT DRIVE","BELOIT","KS",67420,NA,NA,79,"730 ROOSEVELT DRIVE, BELOIT, KS, 67420","Tie",NA,NA,NA,NA
837080,"730 RUBRIGHT RD","APOLLO","PA",15613,40.523870548,-79.5466370359999,80,"730 RUBRIGHT RD, APOLLO, PA, 15613","Match","Exact","730 RUBRIGHT RD, APOLLO, PA, 15613",642116809,"L"
837081,"730 RUTLEDGE AVE","CHARLESTON","SC",29403,32.803115851,-79.953525713,81,"730 RUTLEDGE AVE, CHARLESTON, SC, 29403","Match","Exact","730 RUTLEDGE AVE, CHARLESTON, SC, 29403",108806181,"R"
837082,"730 S 2ND STREET","SAN JOSE","CA",95111,37.325575965,-121.881234842,82,"730 S 2ND STREET, SAN JOSE, CA, 95111","Match","Non_Exact","730 S 2ND ST, SAN JOSE, CA, 95112",122908781,"L"
837083,"730 S 2ND STREET","SAN JOSE","CA",95112,37.325575965,-121.881234842,83,"730 S 2ND STREET, SAN JOSE, CA, 95112","Match","Exact","730 S 2ND ST, SAN JOSE, CA, 95112",122908781,"L"
837084,"730 S BEACH ST UNIT 1","ORMOND BEACH","FL",32174,NA,NA,84,"730 S BEACH ST UNIT 1, ORMOND BEACH, FL, 32174","Tie",NA,NA,NA,NA
837085,"730 S BETTTINA WAY","WASILLA","AK",99623,61.5762722260001,-149.561976891,85,"730 S BETTTINA WAY, WASILLA, AK, 99623","Match","Non_Exact","730 BETTINA WAY, WASILLA, AK, 99623",191070669,"R"
837086,"730 S BROADWAY","ESCONDIDO","CA",92025,33.115793049,-117.07729502,86,"730 S BROADWAY, ESCONDIDO, CA, 92025","Match","Exact","730 S BROADWAY, ESCONDIDO, CA, 92025",612876702,"L"
837087,"730 S CHESTNUT STREET","NANTICOKE","PA",18634,41.1995830230001,-75.995399408,87,"730 S CHESTNUT STREET, NANTICOKE, PA, 18634","Match","Exact","730 S CHESTNUT ST, NANTICOKE, PA, 18634",80906529,"R"
837088,"730 S CLARK APT 302","CHICAGO","IL",60605,NA,NA,88,"730 S CLARK APT 302, CHICAGO, IL, 60605","No_Match",NA,NA,NA,NA
837089,"730 S CLOVERDALE AVE","LOS ANGELES","CA",90036,34.061479272,-118.346457805,89,"730 S CLOVERDALE AVE, LOS ANGELES, CA, 90036","Match","Exact","730 S CLOVERDALE AVE, LOS ANGELES, CA, 90036",634862442,"L"
837090,"730 S CLOVERDALE","LOS ANGELES","CA",90036,34.061479272,-118.346457805,90,"730 S CLOVERDALE, LOS ANGELES, CA, 90036","Match","Non_Exact","730 S CLOVERDALE AVE, LOS ANGELES, CA, 90036",634862442,"L"
837091,"730 S GUDGELL CT","SALT LAKE CITY","UT",84111,40.753759707,-111.877904697,91,"730 S GUDGELL CT, SALT LAKE CITY, UT, 84111","Match","Exact","730 S GUDGELL CT, SALT LAKE CITY, UT, 84111",176078203,"R"
837092,"730 S MAIN S","DUNKIRK","IN",47336,NA,NA,92,"730 S MAIN S, DUNKIRK, IN, 47336","No_Match",NA,NA,NA,NA
837093,"730 S TROY STREET AVE","CINCINNATI","OH",45246,NA,NA,93,"730 S TROY STREET AVE, CINCINNATI, OH, 45246","No_Match",NA,NA,NA,NA
837094,"730 SAINT CLAIR NW","WALKER","MI",49534,42.978098194,-85.774034888,94,"730 SAINT CLAIR NW, WALKER, MI, 49534","Match","Non_Exact","730 SAINT CLAIR AVE NW, WALKER, MI, 49534",12452561,"R"
837095,"730 SAKAKAWEA EST RD NO 49","PICK CITY","ND",58545,NA,NA,95,"730 SAKAKAWEA EST RD NO 49, PICK CITY, ND, 58545","No_Match",NA,NA,NA,NA
837096,"730 SAKAKAWEA RD NO 49","PICK CITY","ND",58545,NA,NA,96,"730 SAKAKAWEA RD NO 49, PICK CITY, ND, 58545","No_Match",NA,NA,NA,NA
837097,"730 SANCTUARY DRIVE","OVIEDO","FL",32766,28.6619316960001,-81.151680239,97,"730 SANCTUARY DRIVE, OVIEDO, FL, 32766","Match","Exact","730 SANCTUARY DR, OVIEDO, FL, 32766",93797835,"L"
837098,"730 SE 5TH TERRACE","POMPANO BEACH","FL",33060,26.220961849,-80.114475877,98,"730 SE 5TH TERRACE, POMPANO BEACH, FL, 33060","Match","Exact","730 SE 5TH TER, POMPANO BEACH, FL, 33060",114695588,"L"
837099,"730 SE CASTLE PARK COURT","OAK HARBOR","WA",98277,48.2917620630001,-122.654073597,99,"730 SE CASTLE PARK COURT, OAK HARBOR, WA, 98277","Match","Exact","730 SE CASTLE PARK CT, OAK HARBOR, WA, 98277",187581124,"R"
837100,"730 SE MAYLOR ST","OAK HARBOR","WA",98277,48.2923412970001,-122.641960405,100,"730 SE MAYLOR ST, OAK HARBOR, WA, 98277","Match","Exact","730 SE MAYLOR ST, OAK HARBOR, WA, 98277",187580035,"R"
837101,"730 SE PARKER DR","WAUKEE","IA",50263,41.6090634220001,-93.8596023439999,101,"730 SE PARKER DR, WAUKEE, IA, 50263","Match","Exact","730 SE PARKER DR, WAUKEE, IA, 50263",65648042,"R"
837102,"730 SEA ST","SUTHERLIN","OR",97479,43.3884553,-123.300193552,102,"730 SEA ST, SUTHERLIN, OR, 97479","Match","Exact","730 SEA ST, SUTHERLIN, OR, 97479",137240349,"R"
837103,"730 SELLS STATION ROAD","LITTLESTOWN","PA",17340,39.777323079,-77.056988474,103,"730 SELLS STATION ROAD, LITTLESTOWN, PA, 17340","Match","Exact","730 SELLS STATION RD, LITTLESTOWN, PA, 17340",60866322,"R"
837104,"730 SEVENTEENTH STREET SUITE 695","DENVER","CO",80202,39.7464152900001,-104.991374319,104,"730 SEVENTEENTH STREET SUITE 695, DENVER, CO, 80202","Match","Exact","730 17TH ST, DENVER, CO, 80202",177627635,"L"
837105,"730 SHERATON ST","AKRON","OH",44310,NA,NA,105,"730 SHERATON ST, AKRON, OH, 44310","No_Match",NA,NA,NA,NA
837106,"730 SHOEMAKER ROAD","HOOPA","CA",95546,41.028025337,-123.664941552,106,"730 SHOEMAKER ROAD, HOOPA, CA, 95546","Match","Exact","730 SHOEMAKER RD, HOOPA, CA, 95546",651681866,"L"
837107,"730 SIENNA DRIVE","CUMMING","GA",30040,34.205963319,-84.159764121,107,"730 SIENNA DRIVE, CUMMING, GA, 30040","Match","Exact","730 SIENNA DR, CUMMING, GA, 30040",632567079,"R"
837108,"730 SIENNA VALLEY DRIVE","BRASELTON","GA",30517,34.113146301,-83.8164191559999,108,"730 SIENNA VALLEY DRIVE, BRASELTON, GA, 30517","Match","Exact","730 SIENNA VALLEY DR, BRASELTON, GA, 30517",650258589,"L"
837109,"730 SIESTA KEY CIRCLE","SARASOTA","FL",34242,27.286025201,-82.555749845,109,"730 SIESTA KEY CIRCLE, SARASOTA, FL, 34242","Match","Exact","730 SIESTA KEY CIR, SARASOTA, FL, 34242",16348709,"L"
837110,"730 SINCLAIR WAY","JONESBORO","GA",30238,33.4693172820001,-84.367176961,110,"730 SINCLAIR WAY, JONESBORO, GA, 30238","Match","Exact","730 SINCLAIR WAY, JONESBORO, GA, 30238",635313997,"R"
837111,"730 SOU MAIN STREET","BIRD ISLAND","MN",55310,44.760971877,-94.894937571,111,"730 SOU MAIN STREET, BIRD ISLAND, MN, 55310","Match","Non_Exact","730 N MAIN ST, BIRD ISLAND, MN, 55310",605036492,"L"
837112,"730 SOUTH 4TH STREET APT 2F","PHILADELPHIA","PA",19147,39.9397268010001,-75.149609171,112,"730 SOUTH 4TH STREET APT 2F, PHILADELPHIA, PA, 19147","Match","Exact","730 S 4TH ST, PHILADELPHIA, PA, 19147",131424369,"R"
837113,"730 SOUTH MAIN STREET","BIRD ISLAND","MN",55310,44.760971877,-94.894937571,113,"730 SOUTH MAIN STREET, BIRD ISLAND, MN, 55310","Match","Non_Exact","730 N MAIN ST, BIRD ISLAND, MN, 55310",605036492,"L"
837114,"730 SPARROW LANE","HAROODSBURG","KY",40330,37.7230577510001,-84.8560509119999,114,"730 SPARROW LANE, HAROODSBURG, KY, 40330","Match","Non_Exact","730 SPARROW LN, HARRODSBURG, KY, 40330",32610385,"R"
837115,"730 SPYGLASS DR","SANFORD","NC",28311,35.117334477,-78.8957320919999,115,"730 SPYGLASS DR, SANFORD, NC, 28311","Match","Non_Exact","730 SPY GLASS DR, FAYETTEVILLE, NC, 28311",64229324,"L"
837116,"730 STOVALL ROAD","ELIZABETHTOWN","KY",42701,37.759303577,-85.736963856,116,"730 STOVALL ROAD, ELIZABETHTOWN, KY, 42701","Match","Exact","730 STOVALL RD, ELIZABETHTOWN, KY, 42701",34661226,"R"
837117,"730 SUNBIRD LN","BERTHOUD","CO",80513,40.3061489180001,-105.142352853,117,"730 SUNBIRD LN, BERTHOUD, CO, 80513","Match","Exact","730 SUNBIRD LN, BERTHOUD, CO, 80513",188620841,"R"
837118,"730 SUNNYFIELD LANE","BALTIMORE","MD",21225,39.209021496,-76.630666322,118,"730 SUNNYFIELD LANE, BALTIMORE, MD, 21225","Match","Exact","730 SUNNYFIELD LN, BALTIMORE, MD, 21225",68189755,"R"
837119,"730 SUNRISE AVE 120","ROSEVILLE","CA",95661,38.733068514,-121.272051594,119,"730 SUNRISE AVE 120, ROSEVILLE, CA, 95661","Match","Exact","730 SUNRISE AVE, ROSEVILLE, CA, 95661",106778146,"R"
837120,"730 SW ST CLAIR 44","PORTLAND","OR",97205,NA,NA,120,"730 SW ST CLAIR 44, PORTLAND, OR, 97205","No_Match",NA,NA,NA,NA
837121,"730 TARPON AVE UNIT B","FERNANDINA BEACH","FL",32034,30.6762126680001,-81.431173966,121,"730 TARPON AVE UNIT B, FERNANDINA BEACH, FL, 32034","Match","Exact","730 TARPON AVE, FERNANDINA BCH, FL, 32034",639080435,"L"
837122,"730 TAYLORS BRIDGE HIGHWAY","CLINTON","NC",28328,34.948901011,-78.2901174419999,122,"730 TAYLORS BRIDGE HIGHWAY, CLINTON, NC, 28328","Match","Exact","730 TAYLORS BRIDGE HWY, CLINTON, NC, 28328",638660348,"L"
837123,"730 TAYLORSVILLE MFG ROAD","TAYLORSVILLE","NC",28681,35.8937620390001,-81.136369497,123,"730 TAYLORSVILLE MFG ROAD, TAYLORSVILLE, NC, 28681","Match","Exact","730 TAYLORSVILLE MFG RD, TAYLORSVILLE, NC, 28681",45797053,"R"
837124,"730 TENNESSEE ST","VALLEJO","CA",94590,38.1099523390001,-122.25031376,124,"730 TENNESSEE ST, VALLEJO, CA, 94590","Match","Exact","730 TENNESSEE ST, VALLEJO, CA, 94590",192527472,"L"
837125,"730 TERESITA BLVD","SAN FRANCISCO","CA",94127,37.7352532730001,-122.446309305,125,"730 TERESITA BLVD, SAN FRANCISCO, CA, 94127","Match","Exact","730 TERESITA BLVD, SAN FRANCISCO, CA, 94127",192297625,"R"
837126,"730 TIDAL MARSH WALK","LOGANVILLE","GA",30052,33.844267686,-83.877927716,126,"730 TIDAL MARSH WALK, LOGANVILLE, GA, 30052","Match","Exact","730 TIDAL MARSH WALK, LOGANVILLE, GA, 30052",618476290,"R"
837127,"730 TWIN EAGLES LANE","LEBANON","KY",40033,37.5345701300001,-85.298307622,127,"730 TWIN EAGLES LANE, LEBANON, KY, 40033","Match","Exact","730 TWIN EAGLES LN, LEBANON, KY, 40033",32591665,"L"
837128,"730 UNIVERSITY AVENUE","ITHACA","NY",14850,42.44934011,-76.4882555199999,128,"730 UNIVERSITY AVENUE, ITHACA, NY, 14850","Match","Exact","730 UNIVERSITY AVE, ITHACA, NY, 14850",18857432,"L"
837129,"730 VALLEY LANE","WEATHERFORD","TX",76085,32.7750707220001,-97.7482567819999,129,"730 VALLEY LANE, WEATHERFORD, TX, 76085","Match","Exact","730 VALLEY LN, WEATHERFORD, TX, 76085",651157222,"R"
837130,"730 VALLEY ROAD","KNOXVILLE","MD",21758,39.3352403700001,-77.702247513,130,"730 VALLEY ROAD, KNOXVILLE, MD, 21758","Match","Exact","730 VALLEY RD, KNOXVILLE, MD, 21758",612179870,"L"
837131,"730 VENETIAN ISLES DRIVE APT 105","LAKE PARK","FL",33403,26.799406317,-80.08650039,131,"730 VENETIAN ISLES DRIVE APT 105, LAKE PARK, FL, 33403","Match","Exact","730 VENETIAN ISLES DR, LAKE PARK, FL, 33403",624443040,"L"
837132,"730 VILLAGIO PL APT 408","FAYETTEVILLE","NC",28303,35.0841874610001,-78.945301511,132,"730 VILLAGIO PL APT 408, FAYETTEVILLE, NC, 28303","Match","Exact","730 VILLAGIO PL, FAYETTEVILLE, NC, 28303",646511950,"R"
837133,"730 W CHEYENNE SUITE 10","NORTH LAS VEGAS","NV",89030,NA,NA,133,"730 W CHEYENNE SUITE 10, NORTH LAS VEGAS, NV, 89030","No_Match",NA,NA,NA,NA
837134,"730 W COUCH PL UNIT 1601","CHICAGO","IL",60661,41.885112543,-87.646847775,134,"730 W COUCH PL UNIT 1601, CHICAGO, IL, 60661","Match","Non_Exact","730 W COUCH PL, CHICAGO, IL, 60661",111768103,"R"
837135,"730 W EL SEGUNDO BLVD 105","GARDENA","CA",90247,33.916419541,-118.287799608,135,"730 W EL SEGUNDO BLVD 105, GARDENA, CA, 90247","Match","Non_Exact","730 W EL SEGUNDO BLVD, GARDENA, CA, 90247",141662283,"L"
837136,"730 W HALLANDALE BEACH BLVD STE 109","HALLENDALE","FL",33009,25.9855917940001,-80.1415179589999,136,"730 W HALLANDALE BEACH BLVD STE 109, HALLENDALE, FL, 33009","Match","Non_Exact","730 E HALLANDALE BEACH BLVD, HALLANDALE, FL, 33009",637823515,"R"
837137,"730 W INDIANOLA","ROSEBURG","OR",97471,43.212172266,-123.381653079,137,"730 W INDIANOLA, ROSEBURG, OR, 97471","Match","Non_Exact","730 W INDIANOLA ST, ROSEBURG, OR, 97471",137184994,"L"
837138,"730 W LOCKWOOD","WICHITA","KS",67217,37.595382897,-97.347596666,138,"730 W LOCKWOOD, WICHITA, KS, 67217","Match","Non_Exact","730 W LOCKWOOD ST, WICHITA, KS, 67217",115663001,"L"
837139,"730 W MAIN ST","CRAB ORCHARD","KY",40419,37.4075439000001,-84.4281114459999,139,"730 W MAIN ST, CRAB ORCHARD, KY, 40419","Match","Exact","730 W MAIN ST, CRAB ORCHARD, KY, 40419",640106022,"R"
837140,"730 W MARKET ST","LIMA","OH",45801,40.7400624960001,-84.119415698,140,"730 W MARKET ST, LIMA, OH, 45801","Match","Exact","730 W MARKET ST, LIMA, OH, 45801",35566909,"R"
837141,"730 W MAYWOOD ST","WICHITA","KS",67217,37.594055166,-97.34729471,141,"730 W MAYWOOD ST, WICHITA, KS, 67217","Match","Exact","730 W MAYWOOD ST, WICHITA, KS, 67217",115656668,"L"
837142,"730 WARREN AVENUE","THORNWOOD","NY",10594,41.1175782770001,-73.782871918,142,"730 WARREN AVENUE, THORNWOOD, NY, 10594","Match","Exact","730 WARREN AVE, THORNWOOD, NY, 10594",139735382,"R"
837143,"730 WASHINGTON AVE N APT 531","MINNEAPOLIS","MN",55401,44.9879231890001,-93.277306441,143,"730 WASHINGTON AVE N APT 531, MINNEAPOLIS, MN, 55401","Match","Exact","730 WASHINGTON AVE N, MINNEAPOLIS, MN, 55401",642906253,"R"
837144,"730 WAVELAND AVE","ATLANTA","GA",30349,33.5982712050001,-84.47942359,144,"730 WAVELAND AVE, ATLANTA, GA, 30349","Match","Exact","730 WAVELAND AVE, ATLANTA, GA, 30349",627712855,"L"
837145,"730 WEST 4TH STREET APT 303","LONG BEACH","CA",90802,33.771696234,-118.201308695,145,"730 WEST 4TH STREET APT 303, LONG BEACH, CA, 90802","Match","Exact","730 W 4TH ST, LONG BEACH, CA, 90802",141693260,"L"
837146,"730 WEST 5TH STREET","WASHINGTON","MO",63090,38.5570565420001,-91.021734615,146,"730 WEST 5TH STREET, WASHINGTON, MO, 63090","Match","Exact","730 W 5TH ST, WASHINGTON, MO, 63090",618129303,"R"
837147,"730 WEST ADAMS AVE","PLEASANTVILLE","NJ",8232,39.3999385180001,-74.531134814,147,"730 WEST ADAMS AVE, PLEASANTVILLE, NJ, 8232","Match","Exact","730 W ADAMS AVE, PLEASANTVILLE, NJ, 08232",202485740,"R"
837148,"730 WEST BAIN","DEXTER","MO",63841,36.791673803,-89.9680191039999,148,"730 WEST BAIN, DEXTER, MO, 63841","Match","Non_Exact","730 W BAIN ST, DEXTER, MO, 63841",35376468,"R"
837149,"730 WEST BARRY 2W","CHICAGO","IL",60657,41.9378591550001,-87.6479341519999,149,"730 WEST BARRY 2W, CHICAGO, IL, 60657","Match","Non_Exact","730 W BARRY AVE, CHICAGO, IL, 60657",639809700,"R"
837150,"730 WEST DEAN STREET","VIRDEN","IL",62690,39.5010273,-89.780418805,150,"730 WEST DEAN STREET, VIRDEN, IL, 62690","Match","Exact","730 W DEAN ST, VIRDEN, IL, 62690",97933322,"R"
837151,"730 WEST PACKARD","DECATUR","IL",62522,39.8523000440001,-88.965164049,151,"730 WEST PACKARD, DECATUR, IL, 62522","Match","Non_Exact","730 W PACKARD ST, DECATUR, IL, 62522",20745996,"R"
837152,"730 WEST TANTALLON DRIVE","FORT WASHINGTON","MD",20744,38.7152608760001,-77.015387119,152,"730 WEST TANTALLON DRIVE, FORT WASHINGTON, MD, 20744","Match","Exact","730 W TANTALLON DR, FT WASHINGTON, MD, 20744",76371150,"L"
837153,"730 WHITLEY ROAD","MIDDLESEX","NC",27557,35.7142743470001,-78.239704789,153,"730 WHITLEY ROAD, MIDDLESEX, NC, 27557","Match","Exact","730 WHITLEY RD, MIDDLESEX, NC, 27557",26557729,"L"
837154,"730 WILD GINGER LN","AUBURN","AL",36830,32.5870165530001,-85.468090467,154,"730 WILD GINGER LN, AUBURN, AL, 36830","Match","Exact","730 WILD GINGER LN, AUBURN, AL, 36830",1570254,"R"
837155,"730 WILLOW SPRING HILL CT","TOWN AND COUNTRY","MO",63017,38.6401317510001,-90.51852896,155,"730 WILLOW SPRING HILL CT, TOWN AND COUNTRY, MO, 63017","Match","Exact","730 WILLOW SPRING HILL CT, TOWN AND COUNTRY, MO, 63017",100193569,"R"
837156,"730 WILLOW TRACE DRIVE","WHITES CREEK","TN",37189,36.239611633,-86.800895333,156,"730 WILLOW TRACE DRIVE, WHITES CREEK, TN, 37189","Match","Exact","730 WILLOW TRACE DR, WHITES CREEK, TN, 37189",97215198,"L"
837157,"730 WINDERMERE XING","MADISONVILLE","LA",70447,30.454710613,-90.2161971639999,157,"730 WINDERMERE XING, MADISONVILLE, LA, 70447","Match","Non_Exact","730 WINDERMERE CROSSING E, MADISONVILLE, LA, 70447",618160353,"R"
837158,"730 WINDSOR WOODS","PADUCAH","KY",42001,37.0694105540001,-88.657935567,158,"730 WINDSOR WOODS, PADUCAH, KY, 42001","Match","Exact","730 WINDSOR WOODS, PADUCAH, KY, 42001",8394131,"R"
837159,"730 WOLCOTT DRIVE","PHILADELPHIA","PA",19118,40.0573215050001,-75.210176243,159,"730 WOLCOTT DRIVE, PHILADELPHIA, PA, 19118","Match","Exact","730 WOLCOTT DR, PHILADELPHIA, PA, 19118",131440592,"R"
837160,"730 WOODCREST STREET","MOORE","OK",73160,35.322920271,-97.478455942,160,"730 WOODCREST STREET, MOORE, OK, 73160","Match","Non_Exact","730 WOOD CREST ST, MOORE, OK, 73160",99908214,"R"
837161,"730 WOODLAKE DRIVE","JACKSON","MS",39204,32.388103427,-90.176802476,161,"730 WOODLAKE DRIVE, JACKSON, MS, 39204","Match","Non_Exact","730 WOODLAKE DR, JACKSON, MS, 39206",65360026,"L"
837162,"730 WOODLAKE DRIVE","JACKSON","MS",39206,32.388103427,-90.176802476,162,"730 WOODLAKE DRIVE, JACKSON, MS, 39206","Match","Exact","730 WOODLAKE DR, JACKSON, MS, 39206",65360026,"L"
837163,"730 WOODRIDGE COURT","GRAND JUNCTION","CO",81505,39.1132143400001,-108.576867729,163,"730 WOODRIDGE COURT, GRAND JUNCTION, CO, 81505","Match","Exact","730 WOODRIDGE CT, GRAND JCT, CO, 81505",633191660,"L"
837164,"730 WOODS AVENUE","ORLANDO","FL",32805,28.5336729790001,-81.39510863,164,"730 WOODS AVENUE, ORLANDO, FL, 32805","Match","Exact","730 WOODS AVE, ORLANDO, FL, 32805",94280967,"R"
837165,"730 YAMPA ST B2","STEAMBOAT SPRINGS","CO",80487,40.484864675,-106.834760988,165,"730 YAMPA ST B2, STEAMBOAT SPRINGS, CO, 80487","Match","Exact","730 YAMPA ST, STEAMBOAT SPRINGS, CO, 80487",105988393,"R"
837166,"730 YORKDALE DRIVE","CHARLOTTE","NC",28217,35.1547046040001,-80.914306927,166,"730 YORKDALE DRIVE, CHARLOTTE, NC, 28217","Match","Exact","730 YORKDALE DR, CHARLOTTE, NC, 28217",70516732,"L"
837167,"730 YUMA STREET","CHARLOTTE","NC",28213,35.26857154,-80.792139707,167,"730 YUMA STREET, CHARLOTTE, NC, 28213","Match","Exact","730 YUMA ST, CHARLOTTE, NC, 28213",70480847,"R"
837168,"730-B AMBERLY DRIVE","WATERFORD","MI",48328,42.6499799370001,-83.343735129,168,"730-B AMBERLY DRIVE, WATERFORD, MI, 48328","Match","Exact","730 AMBERLY DR, WATERFORD, MI, 48328",627813138,"R"
837169,"730","ADA","OK",74820,NA,NA,169,"730, ADA, OK, 74820","No_Match",NA,NA,NA,NA
837170,"730","KANSAS CITY","MO",64195,NA,NA,170,"730, KANSAS CITY, MO, 64195","No_Match",NA,NA,NA,NA
837171,"730","SHERIDAN","WY",82801,NA,NA,171,"730, SHERIDAN, WY, 82801","No_Match",NA,NA,NA,NA
837172,"730","YORK","SC",29745,NA,NA,172,"730, YORK, SC, 29745","No_Match",NA,NA,NA,NA
837173,"7300 20TH ST LOT 66","VERO BEACH","FL",32966,NA,NA,173,"7300 20TH ST LOT 66, VERO BEACH, FL, 32966","No_Match",NA,NA,NA,NA
837174,"7300 20TH STREET 179","VERO BEACH","FL",32966,NA,NA,174,"7300 20TH STREET 179, VERO BEACH, FL, 32966","No_Match",NA,NA,NA,NA
837175,"7300 80TH ST SE","MINOT","ND",58701,48.159398927,-101.175497923,175,"7300 80TH ST SE, MINOT, ND, 58701","Match","Exact","7300 80TH ST SE, MINOT, ND, 58701",646612369,"R"
837176,"7300 ABERCORN STREET SUITE A","SAVANNAH","GA",31406,32.0093896550001,-81.114644014,176,"7300 ABERCORN STREET SUITE A, SAVANNAH, GA, 31406","Match","Exact","7300 ABERCORN ST, SAVANNAH, GA, 31406",6173362,"L"
837177,"7300 ADRIENNE GLEN AVENUE","SPRINGFIELD","VA",22152,38.75708253,-77.236153879,177,"7300 ADRIENNE GLEN AVENUE, SPRINGFIELD, VA, 22152","Match","Exact","7300 ADRIENNE GLEN AVE, SPRINGFIELD, VA, 22152",76036243,"L"
837178,"7300 ALPINE VIEW COURT","WHITE LAKE","MI",48383,42.657499467,-83.5171467329999,178,"7300 ALPINE VIEW COURT, WHITE LAKE, MI, 48383","Match","Exact","7300 ALPINE VIEW CT, WHITE LAKE, MI, 48383",69802236,"L"
837179,"7300 BANKS ST","JUSTICE","IL",60458,41.757673921,-87.842855672,179,"7300 BANKS ST, JUSTICE, IL, 60458","Match","Exact","7300 BANKS ST, JUSTICE, IL, 60458",111808434,"R"
837180,"7300 BATTLE POINT","DOUGLASVILLE","GA",30134,33.7792890330001,-84.734813128,180,"7300 BATTLE POINT, DOUGLASVILLE, GA, 30134","Match","Exact","7300 BATTLE PT, DOUGLASVILLE, GA, 30134",618477700,"R"
837181,"7300 BEARD AVENUE","BROOKLYN PARK","MN",55443,45.087979707,-93.3264531949999,181,"7300 BEARD AVENUE, BROOKLYN PARK, MN, 55443","Match","Non_Exact","7300 BEARD AVE N, BROOKLYN PARK, MN, 55443",43615521,"R"
837182,"7300 BELFONTE LANE","TERRE HAUTE","IN",47802,39.3787560600001,-87.40977603,182,"7300 BELFONTE LANE, TERRE HAUTE, IN, 47802","Match","Exact","7300 BELFONTE LN, TERRE HAUTE, IN, 47802",27126845,"L"
837183,"7300 BELLINGAHM DRIVE","KNOXVILLE","TN",37919,35.9190821440001,-84.021802823,183,"7300 BELLINGAHM DRIVE, KNOXVILLE, TN, 37919","Match","Non_Exact","7300 BELLINGHAM DR, KNOXVILLE, TN, 37919",42663945,"R"
837184,"7300 BELLINGHAM DRIVE","KNOXVILLE","TN",37919,35.9190821440001,-84.021802823,184,"7300 BELLINGHAM DRIVE, KNOXVILLE, TN, 37919","Match","Exact","7300 BELLINGHAM DR, KNOXVILLE, TN, 37919",42663945,"R"
837185,"7300 BENISH DRIVE","GAITHERSBURG","MD",20879,NA,NA,185,"7300 BENISH DRIVE, GAITHERSBURG, MD, 20879","No_Match",NA,NA,NA,NA
837186,"7300 BENT BOW TRAIL","CHANHASSEN","MN",55317,44.871795245,-93.584615835,186,"7300 BENT BOW TRAIL, CHANHASSEN, MN, 55317","Match","Exact","7300 BENT BOW TRL, CHANHASSEN, MN, 55317",43504708,"R"
837187,"7300 BEVERLY AVE","CANTON","OH",44721,40.887830476,-81.361824406,187,"7300 BEVERLY AVE, CANTON, OH, 44721","Match","Non_Exact","7300 BEVERLY AVE NE, CANTON, OH, 44721",64693967,"R"
837188,"7300 BROOKLYN BLVD","BROOKLYN PARK","MN",55443,45.0874415420001,-93.344528832,188,"7300 BROOKLYN BLVD, BROOKLYN PARK, MN, 55443","Match","Exact","7300 BROOKLYN BLVD, BROOKLYN PARK, MN, 55443",641220607,"R"
837189,"7300 BROOKYLN BLVD","BROOKLYN PARK","MN",55443,45.0874415420001,-93.344528832,189,"7300 BROOKYLN BLVD, BROOKLYN PARK, MN, 55443","Match","Non_Exact","7300 BROOKLYN BLVD, BROOKLYN PARK, MN, 55443",641220607,"R"
837190,"7300 BURLINGTON AVE N","ST PETERSBURG","FL",33710,27.77357276,-82.739453725,190,"7300 BURLINGTON AVE N, ST PETERSBURG, FL, 33710","Match","Exact","7300 BURLINGTON AVE N, SAINT PETERSBURG, FL, 33710",124694268,"L"
837191,"7300 BUTTE VISTA","PRESCOTT VALLEY","AZ",86315,34.6482936690001,-112.334897217,191,"7300 BUTTE VISTA, PRESCOTT VALLEY, AZ, 86315","Match","Exact","7300 BUTTE VIS, PRESCOTT VALLEY, AZ, 86315",159537588,"R"
837192,"7300 CALLBRAM LANE","AUSTIN","TX",78736,30.236527752,-97.890163274,192,"7300 CALLBRAM LANE, AUSTIN, TX, 78736","Match","Exact","7300 CALLBRAM LN, AUSTIN, TX, 78736",63937155,"R"
837193,"7300 CARDINAL ROAD","CRESTWOOD","KY",40014,38.3202587910001,-85.475530253,193,"7300 CARDINAL ROAD, CRESTWOOD, KY, 40014","Match","Exact","7300 CARDINAL RD, CRESTWOOD, KY, 40014",130920436,"L"
837194,"7300 CARTISIAN AVE","BROOKLYN PARK","MN",55428,45.0706073480001,-93.372929956,194,"7300 CARTISIAN AVE, BROOKLYN PARK, MN, 55428","Match","Exact","7300 CARTISIAN AVE, BROOKLYN PARK, MN, 55428",43828815,"R"
837195,"7300 CASTLEGATE BLVD","KNOXVILLE","TN",37918,36.0967584470001,-83.9007117209999,195,"7300 CASTLEGATE BLVD, KNOXVILLE, TN, 37918","Match","Exact","7300 CASTLEGATE BLVD, KNOXVILLE, TN, 37918",42653698,"R"
837196,"7300 CEDAR POST RD - APT M6","LIVERPOOL","NY",13088,43.1217585800001,-76.166867396,196,"7300 CEDAR POST RD - APT M6, LIVERPOOL, NY, 13088","Match","Exact","7300 CEDAR POST RD, LIVERPOOL, NY, 13088",46625407,"L"
837197,"7300 CHESNUT COURT","OLMSTED FALLS","OH",44138,NA,NA,197,"7300 CHESNUT COURT, OLMSTED FALLS, OH, 44138","No_Match",NA,NA,NA,NA
837198,"7300 CITY LINE AVE SUITE 310","PHILADELPHIA","PA",19151,NA,NA,198,"7300 CITY LINE AVE SUITE 310, PHILADELPHIA, PA, 19151","No_Match",NA,NA,NA,NA
837199,"7300 COLFAX AVE","LINCOLN","NE",68507,40.850639707,-96.62086927,199,"7300 COLFAX AVE, LINCOLN, NE, 68507","Match","Non_Exact","7300 COLFAX ST, LINCOLN, NE, 68507",28259315,"L"
837200,"7300 COVERED BRIDGE DR","AUSTIN","TX",78736,30.242584035,-97.899421616,200,"7300 COVERED BRIDGE DR, AUSTIN, TX, 78736","Match","Exact","7300 COVERED BRIDGE DR, AUSTIN, TX, 78736",64037695,"R"
837201,"7300 CROSBY LAKE ROAD","WHITE LAKE","MI",48383,42.700355077,-83.516853263,201,"7300 CROSBY LAKE ROAD, WHITE LAKE, MI, 48383","Match","Exact","7300 CROSBY LAKE RD, WHITE LAKE, MI, 48383",69805890,"R"
837202,"7300 CRYSTAL LAKE DR","SWARTZ CREEK","MI",48473,42.918303963,-83.7295503189999,202,"7300 CRYSTAL LAKE DR, SWARTZ CREEK, MI, 48473","Match","Exact","7300 CRYSTAL LAKE, SWARTZ CREEK, MI, 48473",633574449,"R"
837203,"7300 DIXIE HWY SUITE 300","CLARKSTONE","MI",48346,42.7265387090001,-83.4325150239999,203,"7300 DIXIE HWY SUITE 300, CLARKSTONE, MI, 48346","Match","Non_Exact","7300 DIXIE HWY, CLARKSTON, MI, 48346",618069390,"R"
837204,"7300 E 109 ST","KANSAS CITY","MO",64134,38.925293266,-94.505663136,204,"7300 E 109 ST, KANSAS CITY, MO, 64134","Match","Exact","7300 E 109TH ST, KANSAS CITY, MO, 64134",91466060,"L"
837205,"7300 E 109TH ST","KANSAS CITY","MO",64134,38.925293266,-94.505663136,205,"7300 E 109TH ST, KANSAS CITY, MO, 64134","Match","Exact","7300 E 109TH ST, KANSAS CITY, MO, 64134",91466060,"L"
837206,"7300 EAST PALM LANE","SCOTTSDALE","AZ",85051,33.4693987250001,-111.923359812,206,"7300 EAST PALM LANE, SCOTTSDALE, AZ, 85051","Match","Non_Exact","7300 E PALM LN, SCOTTSDALE, AZ, 85257",128230877,"L"
837207,"7300 EAST PALM LANE","SCOTTSDALE","AZ",85257,33.4693987250001,-111.923359812,207,"7300 EAST PALM LANE, SCOTTSDALE, AZ, 85257","Match","Exact","7300 E PALM LN, SCOTTSDALE, AZ, 85257",128230877,"L"
837208,"7300 EBBTIDE DRIVE","NEW ORLEANS","LA",70126,30.0344889520001,-90.000442333,208,"7300 EBBTIDE DRIVE, NEW ORLEANS, LA, 70126","Match","Exact","7300 EBBTIDE DR, NEW ORLEANS, LA, 70126",191730133,"R"
837209,"7300 EDERVILLE RD APT 111","FT WORTH","TX",76112,NA,NA,209,"7300 EDERVILLE RD APT 111, FT WORTH, TX, 76112","No_Match",NA,NA,NA,NA
837210,"7300 EVERGREN DRIVE","LITTLE ROCK","AR",72207,34.762667687,-92.355313173,210,"7300 EVERGREN DRIVE, LITTLE ROCK, AR, 72207","Match","Non_Exact","7300 EVERGREEN DR, LITTLE ROCK, AR, 72207",642519106,"R"
837211,"7300 FAIRWAY TRL","BOCA RATON","FL",33487,26.4143820510001,-80.084700557,211,"7300 FAIRWAY TRL, BOCA RATON, FL, 33487","Match","Exact","7300 FAIRWAY TRL, BOCA RATON, FL, 33487",115324839,"R"
837212,"7300 FERNDALE PLACE","WESTERVILLE","OH",43082,40.139268175,-82.8616486929999,212,"7300 FERNDALE PLACE, WESTERVILLE, OH, 43082","Match","Exact","7300 FERNDALE PL, WESTERVILLE, OH, 43082",24590102,"L"
837213,"7300 FIRCREST","SEBASTOPOL","CA",95472,38.390340012,-122.821881746,213,"7300 FIRCREST, SEBASTOPOL, CA, 95472","Match","Non_Exact","7300 FIRCREST AVE, SEBASTOPOL, CA, 95472",67465869,"R"
837214,"7300 FOREST RIDGE DR","SCHERERVILLE","IN",46375,41.4869485400001,-87.399537768,214,"7300 FOREST RIDGE DR, SCHERERVILLE, IN, 46375","Match","Exact","7300 FOREST RIDGE DR, SCHERERVILLE, IN, 46375",98444913,"R"
837215,"7300 GALLAGHER DRIVE APT 301","EDINA","MN",55435,44.869489249,-93.3315186409999,215,"7300 GALLAGHER DRIVE APT 301, EDINA, MN, 55435","Match","Exact","7300 GALLAGHER DR, EDINA, MN, 55435",611449870,"R"
837216,"7300 GRANADA BLVD","MIRAMAR","GA",33023,NA,NA,216,"7300 GRANADA BLVD, MIRAMAR, GA, 33023","No_Match",NA,NA,NA,NA
837217,"7300 GUNPOWDER ROAD","BALTIMORE","MD",21220,39.3732310450001,-76.346764319,217,"7300 GUNPOWDER ROAD, BALTIMORE, MD, 21220","Match","Exact","7300 GUNPOWDER RD, BALTIMORE, MD, 21220",191482280,"L"
837218,"7300 HIDDEN FOREST DR","HUDSONVILLE","MI",49426,42.9017593120001,-85.892750437,218,"7300 HIDDEN FOREST DR, HUDSONVILLE, MI, 49426","Match","Exact","7300 HIDDEN FOREST DR, HUDSONVILLE, MI, 49426",71089704,"L"
837219,"7300 HILMAR DR","CHESTERFIELD","VA",23234,37.4171727140001,-77.491605916,219,"7300 HILMAR DR, CHESTERFIELD, VA, 23234","Match","Non_Exact","7300 HILMAR DR, NORTH CHESTERFIELD, VA, 23234",201545939,"L"
837220,"7300 HOLLY SPRINGS LANE","ELKRIDGE","MD",21075,NA,NA,220,"7300 HOLLY SPRINGS LANE, ELKRIDGE, MD, 21075","No_Match",NA,NA,NA,NA
837221,"7300 HWY 210 SOUTH","AUTRYVILLE","NC",28318,34.952919605,-78.685594474,221,"7300 HWY 210 SOUTH, AUTRYVILLE, NC, 28318","Match","Non_Exact","7300 STATE HWY 210 S, AUTRYVILLE, NC, 28318",64208473,"L"
837222,"7300 JACKSON","KANSAS CITY","MO",64132,38.9934302620001,-94.538457771,222,"7300 JACKSON, KANSAS CITY, MO, 64132","Match","Non_Exact","7300 JACKSON AVE, KANSAS CITY, MO, 64132",91457415,"R"
837223,"7300 JOHNSON FARM ROAD","CHADSFORD","PA",19317,39.847666373,-75.54026549,223,"7300 JOHNSON FARM ROAD, CHADSFORD, PA, 19317","Match","Non_Exact","7300 JOHNSON FARM LN, CHADDS FORD, PA, 19317",644987593,"R"
837224,"7300 JOHNSTON ROAD","PLEASANTON","CA",94588,37.7910408830001,-121.830808026,224,"7300 JOHNSTON ROAD, PLEASANTON, CA, 94588","Match","Exact","7300 JOHNSTON RD, PLEASANTON, CA, 94588",607866875,"R"
837225,"7300 KNOLLWOOD RD","TOWSON","MD",21286,39.3858585900001,-76.5937446619999,225,"7300 KNOLLWOOD RD, TOWSON, MD, 21286","Match","Exact","7300 KNOLLWOOD RD, TOWSON, MD, 21286",191475391,"L"
837226,"7300 LAKE HAVASU","BAKERSFIELD","CA",93312,NA,NA,226,"7300 LAKE HAVASU, BAKERSFIELD, CA, 93312","No_Match",NA,NA,NA,NA
837227,"7300 LAKE ROCK DRIVE","FORT WORTH","TX",76179,32.8874250470001,-97.432366714,227,"7300 LAKE ROCK DRIVE, FORT WORTH, TX, 76179","Match","Exact","7300 LAKE ROCK DR, FORT WORTH, TX, 76179",619874800,"R"
837228,"7300 LAKEVIEW DR","BLANCHARD","OK",73010,35.20654933,-97.638350603,228,"7300 LAKEVIEW DR, BLANCHARD, OK, 73010","Match","Exact","7300 LAKEVIEW DR, BLANCHARD, OK, 73010",243245957,"R"
837229,"7300 LANCELOT DR","PARMA","OH",44134,41.3674225890001,-81.6957915469999,229,"7300 LANCELOT DR, PARMA, OH, 44134","Match","Exact","7300 LANCELOT DR, PARMA, OH, 44134",61141225,"R"
837230,"7300 LANKESHIM BLVD APT 165","NORTH HOLLYWOOD","CA",91605,NA,NA,230,"7300 LANKESHIM BLVD APT 165, NORTH HOLLYWOOD, CA, 91605","No_Match",NA,NA,NA,NA
837231,"7300 MAPLE AVE UNIT 219","PENNSAUKEN","NJ",8109,NA,NA,231,"7300 MAPLE AVE UNIT 219, PENNSAUKEN, NJ, 8109","No_Match",NA,NA,NA,NA
837232,"7300 MEADOW GLEN DR","PARKER","TX",75002,33.0414805130001,-96.592194075,232,"7300 MEADOW GLEN DR, PARKER, TX, 75002","Match","Exact","7300 MEADOW GLEN DR, PARKER, TX, 75002",643960730,"R"
837233,"7300 MICHAEL ROAD","MIDDLETOWN","OH",45042,39.5456534520001,-84.418541531,233,"7300 MICHAEL ROAD, MIDDLETOWN, OH, 45042","Match","Exact","7300 MICHAEL RD, MIDDLETOWN, OH, 45042",113811248,"L"
837234,"7300 MISTY GLENN DR","EDMOND","OK",73025,35.7301668630001,-97.5063038279999,234,"7300 MISTY GLENN DR, EDMOND, OK, 73025","Match","Non_Exact","7300 MISTY GLEN DR, EDMOND, OK, 73025",121972512,"L"
837235,"7300 MT OAK LANE","GEORGETOWN","CA",95651,38.919124416,-120.804953282,235,"7300 MT OAK LANE, GEORGETOWN, CA, 95651","Match","Non_Exact","7300 MT OAK LN, GEORGETOWN, CA, 95634",635390542,"L"
837236,"7300 N DYSART RD","GLENDALE","AZ",85007,33.540935935,-112.341206818,236,"7300 N DYSART RD, GLENDALE, AZ, 85007","Match","Non_Exact","7300 N DYSART RD, GLENDALE, AZ, 85307",244030691,"L"
837237,"7300 N DYSART RD","GLENDALE","AZ",85307,33.540935935,-112.341206818,237,"7300 N DYSART RD, GLENDALE, AZ, 85307","Match","Exact","7300 N DYSART RD, GLENDALE, AZ, 85307",244030691,"L"
837238,"7300 N KENDALL DR SUITE 760","MIAMI","FL",33156,25.688706111,-80.313200539,238,"7300 N KENDALL DR SUITE 760, MIAMI, FL, 33156","Match","Non_Exact","7300 N KENDALL DR, MIAMI, FL, 33156",642228400,"L"
837239,"7300 N MEREDITH","TUCSON","AS",85741,NA,NA,239,"7300 N MEREDITH, TUCSON, AS, 85741","No_Match",NA,NA,NA,NA
837240,"7300 NE 8TH AVE","MIAMI","FL",33138,25.8426850550001,-80.179740624,240,"7300 NE 8TH AVE, MIAMI, FL, 33138","Match","Exact","7300 NE 8TH AVE, MIAMI, FL, 33138",116007054,"L"
837241,"7300 NIGHTHAWK WAY","CARY","IL",60013,42.2220191870001,-88.224637838,241,"7300 NIGHTHAWK WAY, CARY, IL, 60013","Match","Exact","7300 NIGHTHAWK WAY, CARY, IL, 60013",119849305,"L"
837242,"7300 NILES CENTER ROAD","SKOKIE","IL",60077,42.0132769040001,-87.7615232699999,242,"7300 NILES CENTER ROAD, SKOKIE, IL, 60077","Match","Exact","7300 NILES CENTER RD, SKOKIE, IL, 60077",635795109,"L"
837243,"7300 NILES CENTER","SKOKIE","IL",60077,42.0132769040001,-87.7615232699999,243,"7300 NILES CENTER, SKOKIE, IL, 60077","Match","Non_Exact","7300 NILES CENTER RD, SKOKIE, IL, 60077",635795109,"L"
837244,"7300 NORMANDIE CT","ST LOUIS","MO",63042,38.7771609420001,-90.345651586,244,"7300 NORMANDIE CT, ST LOUIS, MO, 63042","Match","Non_Exact","7300 NORMANDIE CT, HAZELWOOD, MO, 63042",604463588,"R"
837245,"7300 NORTH DREAMY DRAW DRIVE    101","PHOENIX","AZ",85020,33.54365976,-112.044168564,245,"7300 NORTH DREAMY DRAW DRIVE    101, PHOENIX, AZ, 85020","Match","Exact","7300 N DREAMY DRAW DR, PHOENIX, AZ, 85020",128591448,"L"
837246,"7300 NORTH MONA LISA APT 16296","TUCSON","AZ",85741,32.3397945200001,-111.0204654,246,"7300 NORTH MONA LISA APT 16296, TUCSON, AZ, 85741","Match","Non_Exact","7300 N MONA LISA RD, TUCSON, AZ, 85741",612219360,"R"
837247,"7300 NW 118TH STREET","OKLAHOMA CITY","OK",73162,35.5918724090001,-97.642834619,247,"7300 NW 118TH STREET, OKLAHOMA CITY, OK, 73162","Match","Exact","7300 NW 118TH ST, OKLAHOMA CITY, OK, 73162",100386714,"L"
837248,"7300 NW 11TH CT","PLANTATION","FL",33313,26.1386712240001,-80.245899309,248,"7300 NW 11TH CT, PLANTATION, FL, 33313","Match","Exact","7300 NW 11TH CT, PLANTATION, FL, 33313",114704345,"L"
837249,"7300 NW 17TH STREET APT 221","PLANTATION","FL",33313,26.147034524,-80.247695251,249,"7300 NW 17TH STREET APT 221, PLANTATION, FL, 33313","Match","Non_Exact","7300 NW 17TH ST, PLANTATION, FL, 33313",114704302,"L"
837250,"7300 NW 1ST STREET APT 105","PLANTATION","FL",33317,26.1220726980001,-80.2470006679999,250,"7300 NW 1ST STREET APT 105, PLANTATION, FL, 33317","Match","Non_Exact","7300 NW 1ST ST, PLANTATION, FL, 33317",638637319,"R"
837251,"7300 OLIVE TREE COURT","GAITHERSBURG","MD",20879,39.1733298350001,-77.1451301659999,251,"7300 OLIVE TREE COURT, GAITHERSBURG, MD, 20879","Match","Exact","7300 OLIVE TREE CT, GAITHERSBURG, MD, 20879",62096889,"L"
837252,"7300 OLIVER STREET","LANHAM","MD",20706,38.9572150330001,-76.8872143849999,252,"7300 OLIVER STREET, LANHAM, MD, 20706","Match","Exact","7300 OLIVER ST, LANHAM, MD, 20706",76338072,"L"
837253,"7300 ORCHARD TRACE","WILMINGTON","NC",28409,34.179049557,-77.850905438,253,"7300 ORCHARD TRACE, WILMINGTON, NC, 28409","Match","Exact","7300 ORCHARD TRCE, WILMINGTON, NC, 28409",152749425,"R"
837254,"7300 PARKDALE DR","NORFOLK","VA",23505,36.909151149,-76.267040575,254,"7300 PARKDALE DR, NORFOLK, VA, 23505","Match","Exact","7300 PARKDALE DR, NORFOLK, VA, 23505",122140152,"L"
837255,"7300 PAWTUCKET","CHARLOTTE","NC",28214,35.265417234,-80.954847217,255,"7300 PAWTUCKET, CHARLOTTE, NC, 28214","Match","Non_Exact","7300 PAWTUCKETT RD, CHARLOTTE, NC, 28214",70474151,"L"
837256,"7300 PENZANCE BLVD","FORT MYERS","FL",33966,26.5704953800001,-81.8337187719999,256,"7300 PENZANCE BLVD, FORT MYERS, FL, 33966","Match","Exact","7300 PENZANCE BLVD, FORT MYERS, FL, 33966",118081549,"R"
837257,"7300 PINES BLVD - BC LIBRARY","PEMBROKE PINES","FL",33024,NA,NA,257,"7300 PINES BLVD - BC LIBRARY, PEMBROKE PINES, FL, 33024","No_Match",NA,NA,NA,NA
837258,"7300 PINES BLVD- BC LIBRARY","PEMBROKE PINES","FL",33024,NA,NA,258,"7300 PINES BLVD- BC LIBRARY, PEMBROKE PINES, FL, 33024","No_Match",NA,NA,NA,NA
837259,"7300 PROVIDENCE DR","EDWARDSVILLE","IL",62025,38.799090732,-89.922790219,259,"7300 PROVIDENCE DR, EDWARDSVILLE, IL, 62025","Match","Exact","7300 PROVIDENCE DR, EDWARDSVILLE, IL, 62025",641112012,"L"
837260,"7300 QUARTER HORSE ROAD","SARASOTA","FL",34241,27.2739963220001,-82.424135199,260,"7300 QUARTER HORSE ROAD, SARASOTA, FL, 34241","Match","Exact","7300 QUARTER HORSE RD, SARASOTA, FL, 34241",16357497,"L"
837261,"7300 REINHADT COLLEGE DRIVE","WALESKA","GA",30183,NA,NA,261,"7300 REINHADT COLLEGE DRIVE, WALESKA, GA, 30183","No_Match",NA,NA,NA,NA
837262,"7300 RENDON NEW HOPE ROAD","FORT WORH","TX",76140,32.5709975770001,-97.233023384,262,"7300 RENDON NEW HOPE ROAD, FORT WORH, TX, 76140","Match","Non_Exact","7300 RENDON NEW HOPE RD, FORT WORTH, TX, 76140",101903697,"R"
837263,"7300 RENDON NEW HOPE ROAD","FORT WORTH","TX",76140,32.5709975770001,-97.233023384,263,"7300 RENDON NEW HOPE ROAD, FORT WORTH, TX, 76140","Match","Exact","7300 RENDON NEW HOPE RD, FORT WORTH, TX, 76140",101903697,"R"
837264,"7300 ROUGON ROAD LOT 75","PORT ALLEN","LA",70767,30.5724050380001,-91.364982995,264,"7300 ROUGON ROAD LOT 75, PORT ALLEN, LA, 70767","Match","Exact","7300 ROUGON RD, PORT ALLEN, LA, 70767",92297026,"R"
837265,"7300 S ASHLAND AVE","CHICAGO","IL",60636,41.7611985950001,-87.663689652,265,"7300 S ASHLAND AVE, CHICAGO, IL, 60636","Match","Exact","7300 S ASHLAND AVE, CHICAGO, IL, 60636",111820910,"R"
837266,"7300 S CONSTANCE AVE","CHICAGO","IL",60649,41.762323522,-87.580512611,266,"7300 S CONSTANCE AVE, CHICAGO, IL, 60649","Match","Exact","7300 S CONSTANCE AVE, CHICAGO, IL, 60649",639788598,"R"
837267,"7300 S RIVER RD","DALEVILLE","IN",47334,40.1273122310001,-85.557158828,267,"7300 S RIVER RD, DALEVILLE, IN, 47334","Match","Exact","7300 S RIVER RD, DALEVILLE, IN, 47334",30842187,"R"
837268,"7300 S W 140 AVENUE","MIAMI","FL",33183,25.6984624,-80.420033222,268,"7300 S W 140 AVENUE, MIAMI, FL, 33183","Match","Exact","7300 SW 140TH AVE, MIAMI, FL, 33183",115966570,"R"
837269,"7300 SHALIMAR STREET","MIRAMAR","FL",33023,25.9927005600001,-80.232407969,269,"7300 SHALIMAR STREET, MIRAMAR, FL, 33023","Match","Exact","7300 SHALIMAR ST, MIRAMAR, FL, 33023",114733937,"L"
837270,"7300 SIX FORKS ROAD","RALEIGH","NC",27615,35.879258173,-78.6458036449999,270,"7300 SIX FORKS ROAD, RALEIGH, NC, 27615","Match","Exact","7300 SIX FORKS RD, RALEIGH, NC, 27615",72496185,"R"
837271,"7300 SIX MILE LANE 5","LOUISVILLE","KY",40220,NA,NA,271,"7300 SIX MILE LANE 5, LOUISVILLE, KY, 40220","No_Match",NA,NA,NA,NA
837272,"7300 SOUTH COTTAGE GROVE","CHICAGO","IL",60619,41.7620860220001,-87.605492149,272,"7300 SOUTH COTTAGE GROVE, CHICAGO, IL, 60619","Match","Non_Exact","7300 S COTTAGE GROVE AVE, CHICAGO, IL, 60619",111772641,"R"
837273,"7300 SPINNAKER AVENUE NORTHEAST","TUSCALOOSA","AL",35406,33.2847613590001,-87.4950886249999,273,"7300 SPINNAKER AVENUE NORTHEAST, TUSCALOOSA, AL, 35406","Match","Exact","7300 SPINNAKER AVE NE, TUSCALOOSA, AL, 35406",82224690,"L"
837274,"7300 STATE AVENUE APT-624","KANSAS CITY","KS",66112,NA,NA,274,"7300 STATE AVENUE APT-624, KANSAS CITY, KS, 66112","No_Match",NA,NA,NA,NA
837275,"7300 STATE ROAD 73","MARSHALL","WI",53559,NA,NA,275,"7300 STATE ROAD 73, MARSHALL, WI, 53559","No_Match",NA,NA,NA,NA
837276,"7300 SW 33RD ST","LINCOLN","NE",68523,40.738167123,-96.769031062,276,"7300 SW 33RD ST, LINCOLN, NE, 68523","Match","Exact","7300 SW 33RD ST, LINCOLN, NE, 68523",623717258,"R"
837277,"7300 SW 84 PLACE","MIAMI","FL",33143,25.7015745640001,-80.3314679819999,277,"7300 SW 84 PLACE, MIAMI, FL, 33143","Match","Exact","7300 SW 84TH PL, MIAMI, FL, 33143",115984174,"R"
837278,"7300 UNIT A COLINA VISTA LOOP","AUSTIN","TX",78750,NA,NA,278,"7300 UNIT A COLINA VISTA LOOP, AUSTIN, TX, 78750","No_Match",NA,NA,NA,NA
837279,"7300 VAN DUSEN RD","LAUREL","MD",20707,39.08365739,-76.883467664,279,"7300 VAN DUSEN RD, LAUREL, MD, 20707","Match","Exact","7300 VAN DUSEN RD, LAUREL, MD, 20707",646375397,"R"
837280,"7300 W ARCHER","SUMMIT","IL",60501,41.7918352500001,-87.804058961,280,"7300 W ARCHER, SUMMIT, IL, 60501","Match","Non_Exact","7300 ARCHER AVE, SUMMIT, IL, 60501",111796342,"R"
837281,"7300 W FULLERTON AVE UNIT 35280","ELMWOOD PARK","IL",60707,NA,NA,281,"7300 W FULLERTON AVE UNIT 35280, ELMWOOD PARK, IL, 60707","No_Match",NA,NA,NA,NA
837282,"7300 W FULLERTON AVE UNIT","ELMWOOD PARK","IL",60707,NA,NA,282,"7300 W FULLERTON AVE UNIT, ELMWOOD PARK, IL, 60707","No_Match",NA,NA,NA,NA
837283,"7300 W PALMER LAKE DRIVE","BROOKLYN PARK","MN",55429,45.087308481,-93.325048334,283,"7300 W PALMER LAKE DRIVE, BROOKLYN PARK, MN, 55429","Match","Non_Exact","7300 PALMER LAKE DR W, BROOKLYN PARK, MN, 55429",43850723,"R"
837284,"7300 W PIRATES COVE RD UNIT 1069","LAS VEGAS","NV",89145,NA,NA,284,"7300 W PIRATES COVE RD UNIT 1069, LAS VEGAS, NV, 89145","Tie",NA,NA,NA,NA
837285,"7300 WAYNE AVE","MIAMI BEACH","FL",33139,25.8582583190001,-80.1266028649999,285,"7300 WAYNE AVE, MIAMI BEACH, FL, 33139","Match","Non_Exact","7300 WAYNE AVE, MIAMI BEACH, FL, 33141",116009195,"L"
837286,"7300 WEST ADDISON STREET","CHICAGO","IL",60607,41.9452212580001,-87.809519495,286,"7300 WEST ADDISON STREET, CHICAGO, IL, 60607","Match","Non_Exact","7300 W ADDISON ST, CHICAGO, IL, 60634",111747512,"R"
837287,"7300 WEST ROSE CREEK ROAD","WINNEMUCCA","NV",89445,40.912017694,-117.838609865,287,"7300 WEST ROSE CREEK ROAD, WINNEMUCCA, NV, 89445","Match","Exact","7300 W ROSE CREEK RD, WINNEMUCCA, NV, 89445",170973218,"R"
837288,"7300","LANHAM","MD",20706,NA,NA,288,"7300, LANHAM, MD, 20706","No_Match",NA,NA,NA,NA
837289,"73006 MCDERMOTT CREEK ROAD","SANDSTONE","MN",55072,46.17129134,-92.384491769,289,"73006 MCDERMOTT CREEK ROAD, SANDSTONE, MN, 55072","Match","Exact","73006 MCDERMOTT CREEK RD, SANDSTONE, MN, 55072",611845026,"R"
837290,"7300NW 118TH STREET","OKLAHOMA CITY","OK",73162,35.5918724090001,-97.642834619,290,"7300NW 118TH STREET, OKLAHOMA CITY, OK, 73162","Match","Non_Exact","7300 NW 118TH ST, OKLAHOMA CITY, OK, 73162",100386714,"L"
837291,"7301 12TH AVE WEST","BRADENTON","FL",34209,27.4894722060001,-82.6350422,291,"7301 12TH AVE WEST, BRADENTON, FL, 34209","Match","Exact","7301 12TH AVE W, BRADENTON, FL, 34209",16232718,"L"
837292,"7301 52ND DRIVE E","BRADENTON","FL",34203,27.4484498140001,-82.467522805,292,"7301 52ND DRIVE E, BRADENTON, FL, 34203","Match","Exact","7301 52ND DR E, BRADENTON, FL, 34203",16258818,"L"
837293,"7301 6TH AVE APT 19","TACOMA","WA",98406,47.2555312060001,-122.534545608,293,"7301 6TH AVE APT 19, TACOMA, WA, 98406","Match","Exact","7301 6TH AVE, TACOMA, WA, 98406",184643279,"R"
837294,"7301 8TH STREET NORTH","ST  PETERSBURG","FL",33702,27.8389670170001,-82.644836303,294,"7301 8TH STREET NORTH, ST  PETERSBURG, FL, 33702","Match","Exact","7301 8TH ST N, SAINT PETERSBURG, FL, 33702",124703425,"R"
837295,"7301 AIRLINE AVE","URBANDALE","IA",50322,41.632981821,-93.718637341,295,"7301 AIRLINE AVE, URBANDALE, IA, 50322","Match","Exact","7301 AIRLINE AVE, URBANDALE, IA, 50322",65775851,"R"
837296,"7301 ALMA DRIVE UNIT 923","PLANO","TX",75025,33.0707035190001,-96.709596959,296,"7301 ALMA DRIVE UNIT 923, PLANO, TX, 75025","Match","Exact","7301 ALMA DR, PLANO, TX, 75025",210486853,"L"
837297,"7301 ALMA DRIVE","PLANO","TX",75023,33.0707035190001,-96.709596959,297,"7301 ALMA DRIVE, PLANO, TX, 75023","Match","Non_Exact","7301 ALMA DR, PLANO, TX, 75025",210486853,"L"
837298,"7301 AMBERLY UNIT 205","DELRAY BEACH","FL",33446,26.462087825,-80.160589192,298,"7301 AMBERLY UNIT 205, DELRAY BEACH, FL, 33446","Match","Non_Exact","7301 AMBERLY LN, DELRAY BEACH, FL, 33446",115327451,"R"
837299,"7301 ARMENT DRIVE","GLEN MILLS","PA",19342,NA,NA,299,"7301 ARMENT DRIVE, GLEN MILLS, PA, 19342","No_Match",NA,NA,NA,NA
837300,"7301 BALMORAL DR","COLLEYVILLE","TX",76034,32.914264915,-97.141597136,300,"7301 BALMORAL DR, COLLEYVILLE, TX, 76034","Match","Exact","7301 BALMORAL DR, COLLEYVILLE, TX, 76034",102106760,"R"
837301,"7301 BELMONT STAKES DRIVE","MIDLOTHIAN","VA",23112,37.398990629,-77.653472482,301,"7301 BELMONT STAKES DRIVE, MIDLOTHIAN, VA, 23112","Match","Exact","7301 BELMONT STAKES DR, MIDLOTHIAN, VA, 23112",201561979,"R"
837302,"7301 BILBY RD APT 308","ELK GROVE","CA",95757,38.3795062940001,-121.415925531,302,"7301 BILBY RD APT 308, ELK GROVE, CA, 95757","Match","Exact","7301 BILBY RD, ELK GROVE, CA, 95757",133445853,"L"
837303,"7301 BLAIR ROAD NW","WASHINGTON","DC",20012,38.978384766,-77.021885433,303,"7301 BLAIR ROAD NW, WASHINGTON, DC, 20012","Match","Exact","7301 BLAIR RD NW, WASHINGTON, DC, 20012",76221758,"R"
837304,"7301 BRIGADE COURT","FREDERICKSBURG","VA",22407,38.299288652,-77.5905252049999,304,"7301 BRIGADE COURT, FREDERICKSBURG, VA, 22407","Match","Exact","7301 BRIGADE CT, FREDERICKSBURG, VA, 22407",618667074,"R"
837305,"7301 BROADWAY AVENUE N","ROCHESTER","MN",55906,44.101199143,-92.435807257,305,"7301 BROADWAY AVENUE N, ROCHESTER, MN, 55906","Match","Exact","7301 BROADWAY AVE N, ROCHESTER, MN, 55906",30551371,"R"
837306,"7301 BRYAN WAY","BELTON","MO",64012,38.8262451150001,-94.505374044,306,"7301 BRYAN WAY, BELTON, MO, 64012","Match","Exact","7301 BRYAN WAY, BELTON, MO, 64012",100928171,"L"
837307,"7301 BURNET ROAD SUITE 102-328","AUSTIN","TX",78757,30.3483536890001,-97.735703964,307,"7301 BURNET ROAD SUITE 102-328, AUSTIN, TX, 78757","Match","Exact","7301 BURNET RD, AUSTIN, TX, 78757",63930896,"R"
837308,"7301 CABALLO RANGE AVE","LAS VEGAS","NV",89179,35.9874753230001,-115.250302009,308,"7301 CABALLO RANGE AVE, LAS VEGAS, NV, 89179","Match","Non_Exact","7301 W CABALLO RANGE AVE, LAS VEGAS, NV, 89179",625226285,"R"
837309,"7301 CIRCLE AVE APT 205","FOREST PARK","IL",60130,41.8861400380001,-87.807713888,309,"7301 CIRCLE AVE APT 205, FOREST PARK, IL, 60130","Match","Exact","7301 CIRCLE AVE, FOREST PARK, IL, 60130",111752723,"R"
837310,"7301 CRUBE COURT","GRANBURY","TX",76049,32.4077760330001,-97.6430110859999,310,"7301 CRUBE COURT, GRANBURY, TX, 76049","Match","Exact","7301 CRUBE CT, GRANBURY, TX, 76049",627308065,"R"
837311,"7301 E 22ND ST STE 2W","TUCSON","AZ",85710,32.2064950430001,-110.836536951,311,"7301 E 22ND ST STE 2W, TUCSON, AZ, 85710","Match","Non_Exact","7301 E 22ND ST, TUCSON, AZ, 85710",121182846,"L"
837312,"7301 E 22ND STE10E","TUCSON","AZ",85710,NA,NA,312,"7301 E 22ND STE10E, TUCSON, AZ, 85710","No_Match",NA,NA,NA,NA
837313,"7301 E 22ND STREET","TUCSON","AZ",85710,32.2064950430001,-110.836536951,313,"7301 E 22ND STREET, TUCSON, AZ, 85710","Match","Exact","7301 E 22ND ST, TUCSON, AZ, 85710",121182846,"L"
837314,"7301 E BRAINERD APT C7","CHATTANOOGA","TN",37421,NA,NA,314,"7301 E BRAINERD APT C7, CHATTANOOGA, TN, 37421","No_Match",NA,NA,NA,NA
837315,"7301 E CYPRESSHEAD DR","PARKLAND","FL",33067,26.321456707,-80.2241273829999,315,"7301 E CYPRESSHEAD DR, PARKLAND, FL, 33067","Match","Exact","7301 E CYPRESSHEAD DR, PARKLAND, FL, 33067",114737491,"L"
837316,"7301 E INDIAN BEND ROAD","SCOTTSDALE","AZ",85250,33.538666635,-111.924173978,316,"7301 E INDIAN BEND ROAD, SCOTTSDALE, AZ, 85250","Match","Exact","7301 E INDIAN BEND RD, SCOTTSDALE, AZ, 85250",128942590,"R"
837317,"7301 EAST BRAINERD ROAD 210","CHATTANOOGA","TN",37431,35.0170466700001,-85.1668951,317,"7301 EAST BRAINERD ROAD 210, CHATTANOOGA, TN, 37431","Match","Non_Exact","7301 E BRAINERD RD, CHATTANOOGA, TN, 37421",59319470,"L"
837318,"7301 EAST BROWN ROAD","MESA","AZ",85207,33.4369273780001,-111.673837365,318,"7301 EAST BROWN ROAD, MESA, AZ, 85207","Match","Exact","7301 E BROWN RD, MESA, AZ, 85207",243920220,"L"
837319,"7301 FAMILY ACRES ROAD","HANOVER","MD",21076,39.1616309950001,-76.755409914,319,"7301 FAMILY ACRES ROAD, HANOVER, MD, 21076","Match","Exact","7301 FAMILY ACRES RD, HANOVER, MD, 21076",68205498,"L"
837320,"7301 FM 1902","JOSHUA","TX",76058,32.4693924800001,-97.419649911,320,"7301 FM 1902, JOSHUA, TX, 76058","Match","Exact","7301 FM 1902, JOSHUA, TX, 76058",651651946,"R"
837321,"7301 GLENDYNE DR S","JACKSONVILLE","FL",32216,30.264704538,-81.584949845,321,"7301 GLENDYNE DR S, JACKSONVILLE, FL, 32216","Match","Exact","7301 GLENDYNE DR S, JACKSONVILLE, FL, 32216",83947358,"R"
837322,"7301 HAMILTON AVENUE","PITTSBURGH","PA",15208,40.454094556,-79.895146973,322,"7301 HAMILTON AVENUE, PITTSBURGH, PA, 15208","Match","Exact","7301 HAMILTON AVE, PITTSBURGH, PA, 15208",51647860,"L"
837323,"7301 HAMPSHIRE DR NE","CEDAR RAPIDS","IA",52402,42.051162252,-91.6327150229999,323,"7301 HAMPSHIRE DR NE, CEDAR RAPIDS, IA, 52402","Match","Exact","7301 HAMPSHIRE DR NE, CEDAR RAPIDS, IA, 52402",17046696,"L"
837324,"7301 HANNA STREET","GILROY","CA",95020,37.0039099200001,-121.57285125,324,"7301 HANNA STREET, GILROY, CA, 95020","Match","Exact","7301 HANNA ST, GILROY, CA, 95020",122932180,"L"
837325,"7301 HENNESSY BLVD SUITE 200","BATON ROUGE","LA",70808,NA,NA,325,"7301 HENNESSY BLVD SUITE 200, BATON ROUGE, LA, 70808","No_Match",NA,NA,NA,NA
837326,"7301 HENRY HARRIS ROAD","LANCASTER","SC",29720,34.9285649500001,-80.810156885,326,"7301 HENRY HARRIS ROAD, LANCASTER, SC, 29720","Match","Exact","7301 HENRY HARRIS RD, LANCASTER, SC, 29720",653323851,"L"
837327,"7301 HERITAGE CT - APT 11","RALEIGH","NC",27615,NA,NA,327,"7301 HERITAGE CT - APT 11, RALEIGH, NC, 27615","No_Match",NA,NA,NA,NA
837328,"7301 KLINE AVE","LUBBOCK","TX",79424,33.527349379,-101.954797674,328,"7301 KLINE AVE, LUBBOCK, TX, 79424","Match","Exact","7301 KLINE AVE, LUBBOCK, TX, 79424",643107240,"R"
837329,"7301 LEMON GRASS DR","PARKLAND","FL",33076,26.321444206,-80.2536593679999,329,"7301 LEMON GRASS DR, PARKLAND, FL, 33076","Match","Exact","7301 LEMON GRASS DR, PARKLAND, FL, 33076",623949908,"L"
837330,"7301 LENNOX AVE UNIT C-10","VAN NUYS","CA",91405,34.2031571420001,-118.446415168,330,"7301 LENNOX AVE UNIT C-10, VAN NUYS, CA, 91405","Match","Exact","7301 LENNOX AVE, VAN NUYS, CA, 91405",141550215,"L"
837331,"7301 Lismore Court",NA,NA,NA,NA,NA,331,"7301 Lismore Court, , , ","No_Match",NA,NA,NA,NA
837332,"7301 LISMORE COURT","ORLANDO","FL",32835,28.5118189720001,-81.490811792,332,"7301 LISMORE COURT, ORLANDO, FL, 32835","Match","Exact","7301 LISMORE CT, ORLANDO, FL, 32835",94379771,"R"
837333,"7301 Lismore Court","Orlando",NA,NA,28.5118189720001,-81.490811792,333,"7301 Lismore Court, Orlando, , ","Match","Exact","7301 LISMORE CT, ORLANDO, FL, 32835",94379771,"R"
837334,"7301 LONG BEACH BLVD","BRANT BEACH","NJ",8008,39.6134804380001,-74.202624608,334,"7301 LONG BEACH BLVD, BRANT BEACH, NJ, 8008","Match","Non_Exact","7301 LONG BEACH BLVD, LONG BEACH TOWNSHIP, NJ, 08008",203817208,"R"
837335,"7301 LOWER RIDGE ROAD","EVERETT","WA",98203,47.9322307250001,-122.231976471,335,"7301 LOWER RIDGE ROAD, EVERETT, WA, 98203","Match","Exact","7301 LOWER RIDGE RD, EVERETT, WA, 98203",624946503,"L"
837336,"7301 MASONVILLE DR","ANNANDALE","VA",22003,38.8496239070001,-77.1967470719999,336,"7301 MASONVILLE DR, ANNANDALE, VA, 22003","Match","Exact","7301 MASONVILLE DR, ANNANDALE, VA, 22003",75979981,"L"
837337,"7301 MONTERREY DR","FORT WORTH","TX",76112,32.750212796,-97.201808553,337,"7301 MONTERREY DR, FORT WORTH, TX, 76112","Match","Exact","7301 MONTERREY DR, FORT WORTH, TX, 76112",101901070,"L"
837338,"7301 MOSS STONE DRIVE SW","CONYERS","GA",30094,33.674812467,-84.091093996,338,"7301 MOSS STONE DRIVE SW, CONYERS, GA, 30094","Match","Non_Exact","7301 MOSS STONE DR, CONYERS, GA, 30094",619378750,"R"
837339,"7301 N 12TH ST","PHOENIX","AZ",85020,33.5441193940001,-112.056375167,339,"7301 N 12TH ST, PHOENIX, AZ, 85020","Match","Exact","7301 N 12TH ST, PHOENIX, AZ, 85020",128207424,"R"
837340,"7301 N RIDGE BLVD APT 310","CHICAGO","IL",60645,42.014128441,-87.683710551,340,"7301 N RIDGE BLVD APT 310, CHICAGO, IL, 60645","Match","Non_Exact","7301 N RIDGE BLVD, CHICAGO, IL, 60645",111744436,"R"
837341,"7301 N RIDGE BLVD APT 407","CHICAGO","IL",60626,NA,NA,341,"7301 N RIDGE BLVD APT 407, CHICAGO, IL, 60626","No_Match",NA,NA,NA,NA
837342,"7301 N SHERIDAN RD","CHICAGO","IL",60626,42.0139036360001,-87.66404266,342,"7301 N SHERIDAN RD, CHICAGO, IL, 60626","Match","Exact","7301 N SHERIDAN RD, CHICAGO, IL, 60626",111891485,"R"
837343,"7301 NORDLING RD","HOUSTON","TX",77076,29.867310751,-95.39118192,343,"7301 NORDLING RD, HOUSTON, TX, 77076","Match","Exact","7301 NORDLING RD, HOUSTON, TX, 77076",96053785,"L"
837344,"7301 NORMANDIE COURT APT C","HAZELWOOD","MO",63042,38.777162423,-90.345665522,344,"7301 NORMANDIE COURT APT C, HAZELWOOD, MO, 63042","Match","Exact","7301 NORMANDIE CT, HAZELWOOD, MO, 63042",604463588,"L"
837345,"7301 NW 16 ST D271","PLANTATION","FL",33313,26.1445665630001,-80.246807146,345,"7301 NW 16 ST D271, PLANTATION, FL, 33313","Match","Non_Exact","7301 NW 16TH ST, PLANTATION, FL, 33313",114704241,"R"
837346,"7301 OUTHAUL LANE","BURKE","VA",22015,38.762834614,-77.280319893,346,"7301 OUTHAUL LANE, BURKE, VA, 22015","Match","Exact","7301 OUTHAUL LN, BURKE, VA, 22015",75974584,"L"
837347,"7301 PLOVER CIRCLE","TEXAS CITY","TX",77591,29.388540735,-94.992286588,347,"7301 PLOVER CIRCLE, TEXAS CITY, TX, 77591","Match","Exact","7301 PLOVER CIR, TEXAS CITY, TX, 77591",96687674,"L"
837348,"7301 RACHEL ROAD","LINCOLN","NE",68516,40.7217484380001,-96.619365392,348,"7301 RACHEL ROAD, LINCOLN, NE, 68516","Match","Exact","7301 RACHEL RD, LINCOLN, NE, 68516",645236533,"R"
837349,"7301 RANCH RD 620 N SUITE 155 375","AUSTIN","TX",78726,30.4047159850001,-97.8535007139999,349,"7301 RANCH RD 620 N SUITE 155 375, AUSTIN, TX, 78726","Match","Exact","7301 RANCH RD 620 N, AUSTIN, TX, 78726",63986077,"R"
837350,"7301 RANCH ROAD 620 N SUITE 155 255","AUSTIN","TX",78726,30.4047159850001,-97.8535007139999,350,"7301 RANCH ROAD 620 N SUITE 155 255, AUSTIN, TX, 78726","Match","Exact","7301 RANCH RD 620 N, AUSTIN, TX, 78726",63986077,"R"
837351,"7301 RAVINIA","ST. LOUIS","MO",63121,38.709961096,-90.290507294,351,"7301 RAVINIA, ST. LOUIS, MO, 63121","Match","Non_Exact","7301 RAVINIA DR, SAINT LOUIS, MO, 63121",100146811,"R"
837352,"7301 REDGE RAINEY RD","ONA","FL",33865,27.3377424,-81.961928426,352,"7301 REDGE RAINEY RD, ONA, FL, 33865","Match","Exact","7301 REDGE RAINEY RD, ONA, FL, 33865",16197919,"L"
837353,"7301 REMINGTON AVE","BAKERSFIELD","CA",93309,35.3585062110001,-119.083993223,353,"7301 REMINGTON AVE, BAKERSFIELD, CA, 93309","Match","Exact","7301 REMINGTON AVE, BAKERSFIELD, CA, 93309",109084568,"L"
837354,"7301 REYNOLDS ST","PITTSBURGH","PA",15208,40.445805196,-79.9012470819999,354,"7301 REYNOLDS ST, PITTSBURGH, PA, 15208","Match","Exact","7301 REYNOLDS ST, PITTSBURGH, PA, 15208",51652383,"L"
837355,"7301 ROYAL SPRINGS BLVD","KNOXVILLE","TN",37918,36.0953483640001,-83.900960966,355,"7301 ROYAL SPRINGS BLVD, KNOXVILLE, TN, 37918","Match","Exact","7301 ROYAL SPRINGS BLVD, KNOXVILLE, TN, 37918",42653682,"R"
837356,"7301 RR 620 N STE 155 BOX 112","AUSTIN","TX",78726,NA,NA,356,"7301 RR 620 N STE 155 BOX 112, AUSTIN, TX, 78726","No_Match",NA,NA,NA,NA
837357,"7301 RR 620 N STE 155 BOX 112","AUSTIN","TX",78728,NA,NA,357,"7301 RR 620 N STE 155 BOX 112, AUSTIN, TX, 78728","No_Match",NA,NA,NA,NA
837358,"7301 S HARRISON HILLS DR 205","LA VISTA","NE",68128,41.185938729,-96.091684016,358,"7301 S HARRISON HILLS DR 205, LA VISTA, NE, 68128","Match","Non_Exact","7301 S HARRISON HILLS DR, LA VISTA, NE, 68128",637346516,"L"
837359,"7301 S KENTON LN","SIOUX FALLS","SD",57108,43.478167752,-96.7507289599999,359,"7301 S KENTON LN, SIOUX FALLS, SD, 57108","Match","Exact","7301 S KENTON LN, SIOUX FALLS, SD, 57108",639598401,"R"
837360,"7301 S PAXTON STREET","CHICAGO","IL",60649,41.762424523,-87.571288324,360,"7301 S PAXTON STREET, CHICAGO, IL, 60649","Match","Non_Exact","7301 S PAXTON AVE, CHICAGO, IL, 60649",111775619,"L"
837361,"7301 S REDBUD AVE","BROKEN ARROW","OK",74011,35.9815612800001,-95.810153729,361,"7301 S REDBUD AVE, BROKEN ARROW, OK, 74011","Match","Exact","7301 S REDBUD AVE, BROKEN ARROW, OK, 74011",166517333,"R"
837362,"7301 SE 172ND LEGACY LANE","THE VILLAGES","FL",32162,28.97061111,-82.032306738,362,"7301 SE 172ND LEGACY LANE, THE VILLAGES, FL, 32162","Match","Exact","7301 SE 172ND LEGACY LN, THE VILLAGES, FL, 32162",629167755,"R"
837363,"7301 SOUTH LAUREL STREET","PINE BLUFF","AR",71603,34.150972794,-92.007744927,363,"7301 SOUTH LAUREL STREET, PINE BLUFF, AR, 71603","Match","Exact","7301 S LAUREL ST, PINE BLUFF, AR, 71603",2554199,"R"
837364,"7301 SPRINGFIELD AVENUE","SYKESVILLE","DC",21784,NA,NA,364,"7301 SPRINGFIELD AVENUE, SYKESVILLE, DC, 21784","No_Match",NA,NA,NA,NA
837365,"7301 SPRINGFIELD AVENUE","SYKESVILLE","MD",21784,39.373098349,-76.9675012819999,365,"7301 SPRINGFIELD AVENUE, SYKESVILLE, MD, 21784","Match","Exact","7301 SPRINGFIELD AVE, SYKESVILLE, MD, 21784",61755851,"L"
837366,"7301 STONEROCK CIRCLE","ORLANDO","FL",32819,28.427904085,-81.477575623,366,"7301 STONEROCK CIRCLE, ORLANDO, FL, 32819","Match","Exact","7301 STONEROCK CIR, ORLANDO, FL, 32819",94424240,"R"
837367,"7301 SUNVIEW DR","COLUMBIA","SC",29209,33.970854467,-80.931878441,367,"7301 SUNVIEW DR, COLUMBIA, SC, 29209","Match","Exact","7301 SUNVIEW DR, COLUMBIA, SC, 29209",71830286,"R"
837368,"7301 SW 57TH COURT UNIT 560","SOUTH MIAMI","FL",33040,NA,NA,368,"7301 SW 57TH COURT UNIT 560, SOUTH MIAMI, FL, 33040","No_Match",NA,NA,NA,NA
837369,"7301 TULANE AVE","ST. LOUIS","MO",63105,38.6623359750001,-90.324853855,369,"7301 TULANE AVE, ST. LOUIS, MO, 63105","Match","Non_Exact","7301 TULANE AVE, SAINT LOUIS, MO, 63130",100134291,"R"
837370,"7301 W 114TH PL","WORTH","IL",60482,41.6834590720001,-87.7998137339999,370,"7301 W 114TH PL, WORTH, IL, 60482","Match","Exact","7301 114TH PL, WORTH, IL, 60482",111812378,"L"
837371,"7301 W 25TH ST - UNIT 297","CHICAGO","IL",60546,NA,NA,371,"7301 W 25TH ST - UNIT 297, CHICAGO, IL, 60546","No_Match",NA,NA,NA,NA
837372,"7301 W MANCHESTER AVE","LOS ANGELES","CA",90045,33.959844645,-118.422595199,372,"7301 W MANCHESTER AVE, LOS ANGELES, CA, 90045","Match","Exact","7301 W MANCHESTER AVE, LOS ANGELES, CA, 90045",241169965,"R"
837373,"7301 WEST MANSFIELD AVENUE","DENVER","CO",80235,39.6459683960001,-105.078585403,373,"7301 WEST MANSFIELD AVENUE, DENVER, CO, 80235","Match","Exact","7301 W MANSFIELD AVE, DENVER, CO, 80235",177741056,"L"
837374,"7301 WHITE LANE COURT","PEARLAND","TX",77547,29.549039973,-95.332503736,374,"7301 WHITE LANE COURT, PEARLAND, TX, 77547","Match","Non_Exact","7301 WHITE LANE CT, PEARLAND, TX, 77584",614113235,"L"
837375,"7301 WHITE LANE COURT","PEARLAND","TX",77584,29.549039973,-95.332503736,375,"7301 WHITE LANE COURT, PEARLAND, TX, 77584","Match","Exact","7301 WHITE LANE CT, PEARLAND, TX, 77584",614113235,"L"
837376,"7301 WHITEWOOD DRIVE","FORT WORTH","TX",76137,32.872030904,-97.29342465,376,"7301 WHITEWOOD DRIVE, FORT WORTH, TX, 76137","Match","Exact","7301 WHITEWOOD DR, FORT WORTH, TX, 76137",101854370,"L"
837377,"7301 WILES ROAD STE 202","CORAL SPRINGS","FL",33067,26.286665009,-80.2243267489999,377,"7301 WILES ROAD STE 202, CORAL SPRINGS, FL, 33067","Match","Exact","7301 WILES RD, CORAL SPRINGS, FL, 33067",114750207,"R"
837378,"7301 WYLES RD 106","CORAL SPRINGS","FL",33067,26.286665009,-80.2243267489999,378,"7301 WYLES RD 106, CORAL SPRINGS, FL, 33067","Match","Non_Exact","7301 WILES RD, CORAL SPRINGS, FL, 33067",114750207,"R"
837379,"7301 WYTHEVILLE CIRCLE","FREDERICKSBURG","VA",22407,38.268034334,-77.579901026,379,"7301 WYTHEVILLE CIRCLE, FREDERICKSBURG, VA, 22407","Match","Exact","7301 WYTHEVILLE CIR, FREDERICKSBURG, VA, 22407",647706206,"R"
837380,"7302 6TH AVE APT 13","TACOMA","WA",98406,47.255520344,-122.534568228,380,"7302 6TH AVE APT 13, TACOMA, WA, 98406","Match","Exact","7302 6TH AVE, TACOMA, WA, 98406",184643279,"L"
837381,"7302 BANBURY CT","BATON ROUGE","LA",70818,30.543096883,-91.1168095149999,381,"7302 BANBURY CT, BATON ROUGE, LA, 70818","Match","Non_Exact","7302 BANBURY CT, BATON ROUGE, LA, 70811",92186412,"R"
837382,"7302 BONDURANT RD","PUEBLO","CO",81004,37.9747209340001,-104.856188073,382,"7302 BONDURANT RD, PUEBLO, CO, 81004","Match","Exact","7302 BONDURANT RD, PUEBLO, CO, 81004",105055108,"L"
837383,"7302 CHISOS PASS","AUSTIN","TX",78724,30.313651587,-97.658984366,383,"7302 CHISOS PASS, AUSTIN, TX, 78724","Match","Exact","7302 CHISOS PASS, AUSTIN, TX, 78724",63935299,"L"
837384,"7302 COLONY VIEW LN","MISSOURI CITY","TX",77459,29.5516466600001,-95.553905012,384,"7302 COLONY VIEW LN, MISSOURI CITY, TX, 77459","Match","Exact","7302 COLONY VIEW LN, MISSOURI CITY, TX, 77459",78293241,"R"
837385,"7302 COPPER CREEK DRIVE","YPSILANTI","MI",48197,42.184551707,-83.6074807959999,385,"7302 COPPER CREEK DRIVE, YPSILANTI, MI, 48197","Match","Exact","7302 COPPER CREEK DR, YPSILANTI, MI, 48197",26040111,"L"
837386,"7302 DEERWOOD","MINOCQUA","WI",54548,45.81824298,-89.745945541,386,"7302 DEERWOOD, MINOCQUA, WI, 54548","Match","Non_Exact","7302 DEERWOOD RD, MINOCQUA, WI, 54548",196581630,"R"
837387,"7302 E 77TH COURT","TULSA","OK",74133,36.0521107440001,-95.8937178689999,387,"7302 E 77TH COURT, TULSA, OK, 74133","Match","Exact","7302 E 77TH CT, TULSA, OK, 74133",166455078,"R"
837388,"7302 GODDARD DRIVE","LANHAM","MD",20706,38.990539487,-76.843644173,388,"7302 GODDARD DRIVE, LANHAM, MD, 20706","Match","Exact","7302 GODDARD DR, LANHAM, MD, 20706",76333886,"R"
837389,"7302 GRAND CANYON DRIVE UNIT B","AUSTIN","TX",78752,30.329458297,-97.693451322,389,"7302 GRAND CANYON DRIVE UNIT B, AUSTIN, TX, 78752","Match","Exact","7302 GRAND CANYON DR, AUSTIN, TX, 78752",63932692,"L"
837390,"7302 LORD BARTON DR","FREDRICKSBURG","VA",22407,38.274789307,-77.5856366789999,390,"7302 LORD BARTON DR, FREDRICKSBURG, VA, 22407","Match","Non_Exact","7302 LORD BARTON DR, FREDERICKSBURG, VA, 22407",85017801,"L"
837391,"7302 N 177TH AVE","WADDELL","AZ",85355,33.54168337,-112.439831138,391,"7302 N 177TH AVE, WADDELL, AZ, 85355","Match","Exact","7302 N 177TH AVE, WADDELL, AZ, 85355",128165747,"R"
837392,"7302 N PENNSYLVANIA","INDIANAPOLIS","IN",46240,39.8881210640001,-86.1554169139999,392,"7302 N PENNSYLVANIA, INDIANAPOLIS, IN, 46240","Match","Non_Exact","7302 N PENNSYLVANIA ST, INDIANAPOLIS, IN, 46240",107983115,"L"
837393,"7302 N RICHMOND AVE","PORTLAND","OR",97203,45.588409611,-122.751422226,393,"7302 N RICHMOND AVE, PORTLAND, OR, 97203","Match","Exact","7302 N RICHMOND AVE, PORTLAND, OR, 97203",157493669,"R"
837394,"7302 NE TWIN SPITS ROAD","HANSVILLE","WA",98340,47.9185868010001,-122.551034574,394,"7302 NE TWIN SPITS ROAD, HANSVILLE, WA, 98340","Match","Exact","7302 NE TWIN SPITS RD, HANSVILLE, WA, 98340",651709407,"R"
837395,"7302 NEW ALBANY LINKS","NEW ALBANY","OH",43054,40.105425541,-82.785363128,395,"7302 NEW ALBANY LINKS, NEW ALBANY, OH, 43054","Match","Non_Exact","7302 NEW ALBANY LINKS DR, NEW ALBANY, OH, 43054",641109492,"R"
837396,"7302 NORTH 58TH DRIVE","GLENDALE","AZ",85301,33.544142702,-112.184926563,396,"7302 NORTH 58TH DRIVE, GLENDALE, AZ, 85301","Match","Exact","7302 N 58TH DR, GLENDALE, AZ, 85301",128192990,"L"
837397,"7302 NORTH RICHMOND AVENUE","PORTLAND","OR",97203,45.58840938,-122.751422382,397,"7302 NORTH RICHMOND AVENUE, PORTLAND, OR, 97203","Match","Exact","7302 N RICHMOND AVE, PORTLAND, OR, 97203",157493669,"R"
837398,"7302 NW 45TH AVENUE","COCONUT CREEK","FL",33073,26.32135542,-80.1857506969999,398,"7302 NW 45TH AVENUE, COCONUT CREEK, FL, 33073","Match","Exact","7302 NW 45TH AVE, COCONUT CREEK, FL, 33073",114773650,"R"
837399,"7302 OAK VALLEY DR","GUTHRIE","OK",73044,NA,NA,399,"7302 OAK VALLEY DR, GUTHRIE, OK, 73044","No_Match",NA,NA,NA,NA
837400,"7302 ORCHARD LAKE BLVD","LOUISVILLE","KY",40218,38.1904953170001,-85.619233472,400,"7302 ORCHARD LAKE BLVD, LOUISVILLE, KY, 40218","Match","Exact","7302 ORCHARD LAKE BLVD, LOUISVILLE, KY, 40218",96928890,"R"
837401,"7302 PUTTER","SAN ANTONIO","TX",78244,29.4864615400001,-98.343528138,401,"7302 PUTTER, SAN ANTONIO, TX, 78244","Match","Non_Exact","7302 PUTTER RD, SAN ANTONIO, TX, 78244",101537475,"R"
837402,"7302 ROCKRIDGE ROAD","PIKESVILLE","MD",21207,39.352252396,-76.733525534,402,"7302 ROCKRIDGE ROAD, PIKESVILLE, MD, 21207","Match","Exact","7302 ROCKRIDGE RD, PIKESVILLE, MD, 21207",191468543,"R"
837403,"7302 S GERMER ST","TAMPA","FL",33616,27.8607878980001,-82.53502582,403,"7302 S GERMER ST, TAMPA, FL, 33616","Match","Exact","7302 GERMER ST, TAMPA, FL, 33616",104509528,"L"
837404,"7302 S MEADOWS LANE","FRENCH LICK","IN",47432,38.4485683520001,-86.600759535,404,"7302 S MEADOWS LANE, FRENCH LICK, IN, 47432","Match","Exact","7302 S MEADOWS LN, FRENCH LICK, IN, 47432",32146994,"L"
837405,"7302 S YATES BOULEVARD","CHICAGO","IL",60649,41.7624448060001,-87.566450319,405,"7302 S YATES BOULEVARD, CHICAGO, IL, 60649","Match","Exact","7302 S YATES BLVD, CHICAGO, IL, 60649",111775694,"R"
837406,"7302 SILVERWOOD TRAIL","HUMBLE","TX",77346,30.0196121390001,-95.165869947,406,"7302 SILVERWOOD TRAIL, HUMBLE, TX, 77346","Match","Exact","7302 SILVERWOOD TRL, HUMBLE, TX, 77346",96558518,"R"
837407,"7302 SIX MILE LN APT 1","LOUISVILLE","KY",40220,NA,NA,407,"7302 SIX MILE LN APT 1, LOUISVILLE, KY, 40220","No_Match",NA,NA,NA,NA
837408,"7302 SOUTH BINGHAM JUNCTION BLVD","MIDVALE","UT",84047,40.6191252720001,-111.916148426,408,"7302 SOUTH BINGHAM JUNCTION BLVD, MIDVALE, UT, 84047","Match","Non_Exact","7302 BINGHAM JUNCTION BLVD, MIDVALE, UT, 84047",641001545,"R"
837409,"7302 SOUTH GERMER ST","TAMPA","FL",33616,27.8607878980001,-82.53502582,409,"7302 SOUTH GERMER ST, TAMPA, FL, 33616","Match","Non_Exact","7302 GERMER ST, TAMPA, FL, 33616",104509528,"L"
837410,"7302 TOMLINSON ST","DALLAS","TX",75248,32.982506861,-96.7811181169999,410,"7302 TOMLINSON ST, DALLAS, TX, 75248","Match","Exact","7302 TOMLINSON ST, DALLAS, TX, 75248",102896242,"R"
837411,"7302 TREETOP HILL LANE","SPRINGFIELD","VA",22152,38.7580539200001,-77.230572057,411,"7302 TREETOP HILL LANE, SPRINGFIELD, VA, 22152","Match","Exact","7302 TREETOP HILL LN, SPRINGFIELD, VA, 22152",76017472,"R"
837412,"7302 VILLAGE DR","MASON","OH",45040,39.333055545,-84.3241828979999,412,"7302 VILLAGE DR, MASON, OH, 45040","Match","Exact","7302 VILLAGE DR, MASON, OH, 45040",159046050,"L"
837413,"7302 W 23RD ST RD","GREELEY","CO",80634,40.4008869510001,-104.795465142,413,"7302 W 23RD ST RD, GREELEY, CO, 80634","Match","Non_Exact","7302 W 23RD ST, GREELEY, CO, 80634",188727859,"R"
837414,"7302 W DONALD DR","GLENDALE","AZ",85310,33.687219618,-112.21493007,414,"7302 W DONALD DR, GLENDALE, AZ, 85310","Match","Exact","7302 W DONALD DR, GLENDALE, AZ, 85310",128387116,"R"
837415,"7302 W WIND LAKE RD","WIND LAKE","WI",53185,42.8191293610001,-88.156549037,415,"7302 W WIND LAKE RD, WIND LAKE, WI, 53185","Match","Exact","7302 W WIND LAKE RD, WIND LAKE, WI, 53185",77903611,"R"
837416,"7302 WARDLEIGH RD","HILL AFB","UT",84056,NA,NA,416,"7302 WARDLEIGH RD, HILL AFB, UT, 84056","No_Match",NA,NA,NA,NA
837417,"7302 WEST OAK AVE","UNION GAP","WA",98903,46.560524936,-120.606639925,417,"7302 WEST OAK AVE, UNION GAP, WA, 98903","Match","Exact","7302 W OAK AVE, UNION GAP, WA, 98903",652064741,"R"
837418,"7303 ALTHORP WAY","NASHVILLE","TN",37211,36.026692989,-86.7112703509999,418,"7303 ALTHORP WAY, NASHVILLE, TN, 37211","Match","Exact","7303 ALTHORP WAY, NASHVILLE, TN, 37211",606364522,"L"
837419,"7303 ALTHROP WAY","NASHVILLE","TN",37211,36.026692989,-86.7112703509999,419,"7303 ALTHROP WAY, NASHVILLE, TN, 37211","Match","Non_Exact","7303 ALTHORP WAY, NASHVILLE, TN, 37211",606364522,"L"
837420,"7303 BENARES STREET","DOWNEY","CA",90241,NA,NA,420,"7303 BENARES STREET, DOWNEY, CA, 90241","No_Match",NA,NA,NA,NA
837421,"7303 CHICAMUXEN COURT","BRANDYWINE","MD",20613,38.694077946,-76.8820137979999,421,"7303 CHICAMUXEN COURT, BRANDYWINE, MD, 20613","Match","Exact","7303 CHICAMUXEN CT, BRANDYWINE, MD, 20613",636188022,"R"
837422,"7303 CISSUS CV","AUSTIN","TX",78759,30.4149769570001,-97.774981839,422,"7303 CISSUS CV, AUSTIN, TX, 78759","Match","Exact","7303 CISSUS COVE, AUSTIN, TX, 78759",63925967,"L"
837423,"7303 COUNTY RD 428","FULTON","MO",65251,38.7708619860001,-91.868276171,423,"7303 COUNTY RD 428, FULTON, MO, 65251","Match","Exact","7303 CO RD 428, FULTON, MO, 65251",34374905,"R"
837424,"7303 DEN MEADE AVE","FORT WASHINGTON","MD",20744,38.789682004,-76.96052725,424,"7303 DEN MEADE AVE, FORT WASHINGTON, MD, 20744","Match","Exact","7303 DEN MEADE AVE, FT WASHINGTON, MD, 20744",76315652,"R"
837425,"7303 DODDINGTON CT","LAUREL","MD",20707,39.093543094,-76.878537692,425,"7303 DODDINGTON CT, LAUREL, MD, 20707","Match","Exact","7303 DODDINGTON CT, LAUREL, MD, 20707",76354968,"R"
837426,"7303 FARGO DR","AMARILLO","TX",79118,35.13476589,-101.879097486,426,"7303 FARGO DR, AMARILLO, TX, 79118","Match","Exact","7303 FARGO DR, AMARILLO, TX, 79118",641830226,"R"
837427,"7303 FOUNTAIN SPRAY","KATY","TX",77494,29.7060697900001,-95.792311599,427,"7303 FOUNTAIN SPRAY, KATY, TX, 77494","Match","Exact","7303 FOUNTAIN SPRAY, KATY, TX, 77494",624622165,"R"
837428,"7303 GREENHILL ROAD","PHILADELPHIA","PA",19151,39.978975845,-75.2663905639999,428,"7303 GREENHILL ROAD, PHILADELPHIA, PA, 19151","Match","Exact","7303 GREENHILL RD, PHILADELPHIA, PA, 19151",131392977,"R"
837429,"7303 HOMESTEAD ROAD","MORGANTOWN","IN",46160,39.302038441,-86.238704997,429,"7303 HOMESTEAD ROAD, MORGANTOWN, IN, 46160","Match","Exact","7303 HOMESTEAD RD, MORGANTOWN, IN, 46160",43527432,"R"
837430,"7303 JOSEPH LANE","BAYTOWN","TX",77523,29.800149187,-94.848372586,430,"7303 JOSEPH LANE, BAYTOWN, TX, 77523","Match","Exact","7303 JOSEPH LN, BAYTOWN, TX, 77523",95965764,"R"
837431,"7303 JULIA RD","CHEYENNE","WY",82009,41.185237611,-104.72027207,431,"7303 JULIA RD, CHEYENNE, WY, 82009","Match","Exact","7303 JULIA RD, CHEYENNE, WY, 82009",604965706,"R"
837432,"7303 LAKE ARMSTRONG ROAD","ARLINGTON","WA",98223,48.2173950930001,-122.131581047,432,"7303 LAKE ARMSTRONG ROAD, ARLINGTON, WA, 98223","Match","Exact","7303 LAKE ARMSTRONG RD, ARLINGTON, WA, 98223",649427912,"L"
837433,"7303 LAKE FRONT TRAIL","ARLINGTON","TX",76002,32.622986628,-97.104815138,433,"7303 LAKE FRONT TRAIL, ARLINGTON, TX, 76002","Match","Exact","7303 LAKE FRONT TRL, ARLINGTON, TX, 76002",102188223,"R"
837434,"7303 MONTGOMERY NE","ALBUQUERUQE","NM",87109,35.1307540560001,-106.564823033,434,"7303 MONTGOMERY NE, ALBUQUERUQE, NM, 87109","Match","Non_Exact","7303 MONTGOMERY BLVD NE, ALBUQUERQUE, NM, 87109",206777191,"L"
837435,"7303 N 115TH ST","LONGMONT","CO",80504,40.1082878660001,-105.083775878,435,"7303 N 115TH ST, LONGMONT, CO, 80504","Match","Exact","7303 N 115TH ST, LONGMONT, CO, 80504",188165376,"L"
837436,"7303 NE WILLIAM ROGERS RD","INDIANOLA","WA",98342,47.7468646190001,-122.546418621,436,"7303 NE WILLIAM ROGERS RD, INDIANOLA, WA, 98342","Match","Exact","7303 NE WILLIAM ROGERS RD, INDIANOLA, WA, 98342",187636434,"R"
837437,"7303 NW 116TH LANE","PARKLAND","FL",33076,26.3212825000001,-80.283281645,437,"7303 NW 116TH LANE, PARKLAND, FL, 33076","Match","Exact","7303 NW 116TH LN, PARKLAND, FL, 33076",114820464,"R"
837438,"7303 PAVILLION DR","HOUSTON","TX",77083,29.6977124520001,-95.638314069,438,"7303 PAVILLION DR, HOUSTON, TX, 77083","Match","Non_Exact","7303 PAVILION DR, HOUSTON, TX, 77083",636880966,"R"
837439,"7303 RIDGE AVENUE","PHILADELPHIA","PA",19128,40.0466521880001,-75.233757834,439,"7303 RIDGE AVENUE, PHILADELPHIA, PA, 19128","Match","Exact","7303 RIDGE AVE, PHILADELPHIA, PA, 19128",628810381,"R"
837440,"7303 RIPLEY COURT","ORLANDO","FL",32836,28.4257565460001,-81.484249733,440,"7303 RIPLEY COURT, ORLANDO, FL, 32836","Match","Exact","7303 RIPLEY CT, ORLANDO, FL, 32836",94400649,"R"
837441,"7303 RONDEL COURT","SAN DIEGO","CA",92119,32.8068625540001,-117.044620461,441,"7303 RONDEL COURT, SAN DIEGO, CA, 92119","Match","Exact","7303 RONDEL CT, SAN DIEGO, CA, 92119",195323286,"R"
837442,"7303 S MARYLAND","CHICAGO","IL",60619,41.7621220840001,-87.6042236819999,442,"7303 S MARYLAND, CHICAGO, IL, 60619","Match","Non_Exact","7303 S MARYLAND AVE, CHICAGO, IL, 60619",605535323,"L"
837443,"7303 S PLATTE RIVER PKWY   201","LITTLETON","CO",80120,39.585128539,-105.027016117,443,"7303 S PLATTE RIVER PKWY   201, LITTLETON, CO, 80120","Match","Non_Exact","7303 S PLATTE RIVER PKWY, LITTLETON, CO, 80120",177559840,"R"
837444,"7303 SALISBURY RD","MAUMEE","OH",43537,41.583289999,-83.715605373,444,"7303 SALISBURY RD, MAUMEE, OH, 43537","Match","Exact","7303 SALISBURY RD, MAUMEE, OH, 43537",33928824,"L"
837445,"7303 SENNAWOOD DR","CEDAR HILL","MO",63016,38.344722792,-90.5988242879999,445,"7303 SENNAWOOD DR, CEDAR HILL, MO, 63016","Match","Exact","7303 SENNAWOOD DR, CEDAR HILL, MO, 63016",627709326,"L"
837446,"7303 SHARPSBURG PIKE - UME WASH","BOONESBORO","MD",21713,39.5166582850001,-77.744816024,446,"7303 SHARPSBURG PIKE - UME WASH, BOONESBORO, MD, 21713","Match","Non_Exact","7303 SHARPSBURG PIKE, BOONSBORO, MD, 21713",639631865,"R"
837447,"7303 SPRING CYPRESS ROAD APT 437","SPRING","TX",77373,30.046725456,-95.534499065,447,"7303 SPRING CYPRESS ROAD APT 437, SPRING, TX, 77373","Match","Non_Exact","7303 SPRING CYPRESS RD, SPRING, TX, 77379",650102286,"R"
837448,"7303 STONEHURST RD N","JACKSONVILLE","FL",32277,30.3552202400001,-81.575306616,448,"7303 STONEHURST RD N, JACKSONVILLE, FL, 32277","Match","Exact","7303 STONEHURST RD N, JACKSONVILLE, FL, 32277",83903749,"L"
837449,"7303 SW BEAVERTON-HILLSDALE HWY","PORTLAND","OR",97225,45.486085802,-122.752141576,449,"7303 SW BEAVERTON-HILLSDALE HWY, PORTLAND, OR, 97225","Match","Exact","7303 SW BEAVERTON-HILLSDALE HWY, PORTLAND, OR, 97225",158187923,"R"
837450,"7303 URANUS DRIVE","SARASOTA","FL",34243,27.410611686,-82.565860497,450,"7303 URANUS DRIVE, SARASOTA, FL, 34243","Match","Exact","7303 URANUS DR, SARASOTA, FL, 34243",16258277,"L"
837451,"7303 W AVIAN COURT","FRANKLIN","WI",53132,NA,NA,451,"7303 W AVIAN COURT, FRANKLIN, WI, 53132","No_Match",NA,NA,NA,NA
837452,"7303 W CANAL DR STE A101","KENNEWICK","WA",99336,46.226740089,-119.219893806,452,"7303 W CANAL DR STE A101, KENNEWICK, WA, 99336","Match","Non_Exact","7303 W CANAL DR, KENNEWICK, WA, 99336",175011324,"L"
837453,"7303 WASHITA WAY","SAN ANTONIO","TX",78256,29.607216782,-98.616169579,453,"7303 WASHITA WAY, SAN ANTONIO, TX, 78256","Match","Exact","7303 WASHITA WAY, SAN ANTONIO, TX, 78256",101571547,"R"
837454,"7303 WILLOWBRANCH CT","NORTH CHESTEFIELD","VA",23234,37.414175669,-77.499695414,454,"7303 WILLOWBRANCH CT, NORTH CHESTEFIELD, VA, 23234","Match","Non_Exact","7303 WILLOWBRANCH CT, NORTH CHESTERFIELD, VA, 23234",201545946,"R"
837455,"7303 WINCHESTER DRIVE","SOLON","OH",44139,41.35878216,-81.440429288,455,"7303 WINCHESTER DRIVE, SOLON, OH, 44139","Match","Exact","7303 WINCHESTER DR, SOLON, OH, 44139",61144600,"R"
837456,"7303 WINCHETER DR","SOLON","OH",44139,41.35878216,-81.440429288,456,"7303 WINCHETER DR, SOLON, OH, 44139","Match","Non_Exact","7303 WINCHESTER DR, SOLON, OH, 44139",61144600,"R"
837457,"7303 WOOD ROCK RD","LOUISVILLE","KY",40291,38.165316741,-85.622259183,457,"7303 WOOD ROCK RD, LOUISVILLE, KY, 40291","Match","Exact","7303 WOOD ROCK RD, LOUISVILLE, KY, 40291",96860197,"R"
837458,"73030 LIONS DR","COVINGTON","LA",70433,NA,NA,458,"73030 LIONS DR, COVINGTON, LA, 70433","No_Match",NA,NA,NA,NA
837459,"73036 184TH STREET","QUEENS","NY",11366,NA,NA,459,"73036 184TH STREET, QUEENS, NY, 11366","No_Match",NA,NA,NA,NA
837460,"7304 139TH AVE SW","BOWMAN","ND",58623,46.347324653,-103.258826423,460,"7304 139TH AVE SW, BOWMAN, ND, 58623","Match","Exact","7304 139TH AVE SW, BOWMAN, ND, 58623",197268845,"L"
837461,"7304 18TH AVE","BROOKLYN","NY",11204,40.6145013460001,-73.994867604,461,"7304 18TH AVE, BROOKLYN, NY, 11204","Match","Exact","7304 18TH AVE, BROOKLYN, NY, 11204",59088432,"R"
837462,"7304 49TH AVE SE","OLYMPI","WA",98513,47.003193448,-122.783407823,462,"7304 49TH AVE SE, OLYMPI, WA, 98513","Match","Non_Exact","7304 49TH AVE SE, OLYMPIA, WA, 98513",180948370,"R"
837463,"7304 5TH AVE","BROOKLYN","NY",11209,40.6309169420001,-74.022061029,463,"7304 5TH AVE, BROOKLYN, NY, 11209","Match","Exact","7304 5TH AVE, BROOKLYN, NY, 11209",59094289,"R"
837464,"7304 ABBINGTON DRIVE","OXON HILL","MD",20745,38.789750515,-77.0004908929999,464,"7304 ABBINGTON DRIVE, OXON HILL, MD, 20745","Match","Exact","7304 ABBINGTON DR, OXON HILL, MD, 20745",76315088,"L"
837465,"7304 BRIDGE TOWN LANE SE","CALEDONIA","MI",49316,NA,NA,465,"7304 BRIDGE TOWN LANE SE, CALEDONIA, MI, 49316","No_Match",NA,NA,NA,NA
837466,"7304 CHATHAM ST","SPRINGFIELD","VA",22151,38.8051217560001,-77.197207158,466,"7304 CHATHAM ST, SPRINGFIELD, VA, 22151","Match","Exact","7304 CHATHAM ST, SPRINGFIELD, VA, 22151",75983248,"R"
837467,"7304 CLOISTER DR","SARASOTA","FL",34231,27.2491280040001,-82.498451522,467,"7304 CLOISTER DR, SARASOTA, FL, 34231","Match","Exact","7304 CLOISTER DR, SARASOTA, FL, 34231",16355502,"R"
837468,"7304 COLONEL GLENN RD","LITTLE ROCK","AR",72204,34.7162529560001,-92.356907053,468,"7304 COLONEL GLENN RD, LITTLE ROCK, AR, 72204","Match","Exact","7304 COLONEL GLENN RD, LITTLE ROCK, AR, 72204",650129678,"R"
837469,"7304 COUNTY ROAD 21","SAN LUIS","CO",81152,37.103190913,-105.384666564,469,"7304 COUNTY ROAD 21, SAN LUIS, CO, 81152","Match","Exact","7304 CO RD 21, SAN LUIS, CO, 81152",104247186,"R"
837470,"7304 CREEK SONG COURT","KNOXVILLE","TN",37763,35.91860702,-83.8249759029999,470,"7304 CREEK SONG COURT, KNOXVILLE, TN, 37763","Match","Non_Exact","7304 CREEK SONG CT, KNOXVILLE, TN, 37920",42660609,"L"
837471,"7304 CRESCENT BEACH ROAD","VAUGHN","WA",98394,47.32377339,-122.785649678,471,"7304 CRESCENT BEACH ROAD, VAUGHN, WA, 98394","Match","Non_Exact","7304 CRESCENT BEACH RD NW, VAUGHN, WA, 98394",647961805,"L"
837472,"7304 DIRECTOR DR","BATON ROUGE","LA",70817,30.3850032130001,-91.017273256,472,"7304 DIRECTOR DR, BATON ROUGE, LA, 70817","Match","Exact","7304 DIRECTOR DR, BATON ROUGE, LA, 70817",92195132,"R"
837473,"7304 E STOP 11 RD","INDIANAPOLIS","IN",46259,39.651943343,-86.0383682739999,473,"7304 E STOP 11 RD, INDIANAPOLIS, IN, 46259","Match","Exact","7304 E STOP 11 RD, INDIANAPOLIS, IN, 46259",108029825,"L"
837474,"7304 EAST FIRELANDS DRIVE","HUDSON","OH",44236,41.2581385560001,-81.39888346,474,"7304 EAST FIRELANDS DRIVE, HUDSON, OH, 44236","Match","Exact","7304 E FIRELANDS DR, HUDSON, OH, 44236",61366516,"L"
837475,"7304 FARM BELL LANE","OXFORD","NC",27565,NA,NA,475,"7304 FARM BELL LANE, OXFORD, NC, 27565","No_Match",NA,NA,NA,NA
837476,"7304 FOSSIL CREEK DRIVE","ARLINGTON","VA",76002,NA,NA,476,"7304 FOSSIL CREEK DRIVE, ARLINGTON, VA, 76002","No_Match",NA,NA,NA,NA
837477,"7304 GALILEO CT LANHAM","LANHAM","MD",20706,38.9905791460001,-76.8415198169999,477,"7304 GALILEO CT LANHAM, LANHAM, MD, 20706","Match","Exact","7304 GALILEO CT, LANHAM, MD, 20706",76333885,"R"
837478,"7304 GETTYSBURG DR","NEW PORT RICHEY","FL",34653,28.2633561230001,-82.678812366,478,"7304 GETTYSBURG DR, NEW PORT RICHEY, FL, 34653","Match","Exact","7304 GETTYSBURG DR, NEW PORT RICHEY, FL, 34653",86379160,"L"
837479,"7304 GLEN ARBOR RD","LOUISVILLE","KY",40222,38.2784514140001,-85.616661122,479,"7304 GLEN ARBOR RD, LOUISVILLE, KY, 40222","Match","Exact","7304 GLEN ARBOR RD, LOUISVILLE, KY, 40222",96855403,"R"
837480,"7304 HAMBERBEE CT","SACRAMENTO","CA",95842,NA,NA,480,"7304 HAMBERBEE CT, SACRAMENTO, CA, 95842","No_Match",NA,NA,NA,NA
837481,"7304 HOGPATH RD","GREENVILLE","OH",45331,40.0491558300001,-84.537498747,481,"7304 HOGPATH RD, GREENVILLE, OH, 45331","Match","Exact","7304 HOGPATH RD, GREENVILLE, OH, 45331",54552178,"L"
837482,"7304 JOHNNYCAKE RD","CATONSVILLE","MD",21228,39.3050814760001,-76.763637805,482,"7304 JOHNNYCAKE RD, CATONSVILLE, MD, 21228","Match","Exact","7304 JOHNNYCAKE RD, CATONSVILLE, MD, 21228",191482858,"R"
837483,"7304 MID TIMBER DRIVE","GREENVILLE","MI",48838,43.186905149,-85.2955476609999,483,"7304 MID TIMBER DRIVE, GREENVILLE, MI, 48838","Match","Exact","7304 MID TIMBER DR, GREENVILLE, MI, 48838",625542677,"L"
837484,"7304 MIDDLE ST","COLUMBIA","SC",29223,34.059879752,-80.96549841,484,"7304 MIDDLE ST, COLUMBIA, SC, 29223","Match","Exact","7304 MIDDLE ST, COLUMBIA, SC, 29223",604763955,"R"
837485,"7304 NE ST JOHNS ROAD","VANCOUVER","WA",98665,45.675851622,-122.629201069,485,"7304 NE ST JOHNS ROAD, VANCOUVER, WA, 98665","Match","Exact","7304 NE ST JOHNS RD, VANCOUVER, WA, 98665",158323363,"L"
837486,"7304 NW 112TH TERRACE","PARKLAND","FL",33076,26.3217258010001,-80.276501592,486,"7304 NW 112TH TERRACE, PARKLAND, FL, 33076","Match","Exact","7304 NW 112TH TER, PARKLAND, FL, 33076",625179774,"L"
837487,"7304 PALOMINO TRAIL","SARASOTA","FL",34241,27.268037253,-82.3790595299999,487,"7304 PALOMINO TRAIL, SARASOTA, FL, 34241","Match","Exact","7304 PALOMINO TRL, SARASOTA, FL, 34241",16357574,"L"
837488,"7304 PLAINFIELD ROAD","CINCINNATI","OH",45236,39.200605196,-84.399834426,488,"7304 PLAINFIELD ROAD, CINCINNATI, OH, 45236","Match","Exact","7304 PLAINFIELD RD, CINCINNATI, OH, 45236",103932218,"R"
837489,"7304 ROCKCLIFF DRIVE","HOPKINSVILLE","KY",42240,36.879969492,-87.45517556,489,"7304 ROCKCLIFF DRIVE, HOPKINSVILLE, KY, 42240","Match","Exact","7304 ROCKCLIFF DR, HOPKINSVILLE, KY, 42240",11286802,"L"
837490,"7304 S BENNETT","CHICAGO","IL",60649,41.762272307,-87.579285069,490,"7304 S BENNETT, CHICAGO, IL, 60649","Match","Non_Exact","7304 S BENNETT AVE, CHICAGO, IL, 60649",111774775,"R"
837491,"7304 S HIGHLAND DR","COTTONWOOD HEIGHTS","UT",84121,40.618609726,-111.834341785,491,"7304 S HIGHLAND DR, COTTONWOOD HEIGHTS, UT, 84121","Match","Exact","7304 HIGHLAND DR, COTTONWOOD HEIGHTS, UT, 84121",636693601,"R"
837492,"7304 SANDERLING PLACE","PHILADELPHIA","PA",19153,39.908668285,-75.235341552,492,"7304 SANDERLING PLACE, PHILADELPHIA, PA, 19153","Match","Exact","7304 SANDERLING PL, PHILADELPHIA, PA, 19153",636466240,"L"
837493,"7304 SENNAWOOD","CEDAR HILL","MO",63016,38.344931183,-90.5987523109999,493,"7304 SENNAWOOD, CEDAR HILL, MO, 63016","Match","Non_Exact","7304 SENNAWOOD DR, CEDAR HILL, MO, 63016",627709326,"R"
837494,"7304 SNOWBIRD WAY","INDIANAPOLIS","IN",46259,NA,NA,494,"7304 SNOWBIRD WAY, INDIANAPOLIS, IN, 46259","No_Match",NA,NA,NA,NA
837495,"7304 SWANSON DRIVE","PLANO","TX",75025,33.076308806,-96.7630439279999,495,"7304 SWANSON DRIVE, PLANO, TX, 75025","Match","Exact","7304 SWANSON DR, PLANO, TX, 75025",123533713,"R"
837496,"7304 TREETOP HILL LANE","SPRINGFIELD","VA",22152,38.7580453750001,-77.230572815,496,"7304 TREETOP HILL LANE, SPRINGFIELD, VA, 22152","Match","Exact","7304 TREETOP HILL LN, SPRINGFIELD, VA, 22152",76017472,"R"
837497,"7304 UDINE AVENUE","ORLANDO","FL",32819,28.4574047610001,-81.447876799,497,"7304 UDINE AVENUE, ORLANDO, FL, 32819","Match","Exact","7304 UDINE AVE, ORLANDO, FL, 32819",94289494,"R"
837498,"7304 WEST CLINTON AVE","CLEVELAND","OH",44102,41.48179702,-81.734831308,498,"7304 WEST CLINTON AVE, CLEVELAND, OH, 44102","Match","Non_Exact","7304 CLINTON AVE, CLEVELAND, OH, 44102",61101327,"R"
837499,"7304 WEXFORD CT","NORTH RICHLAND HILLS","TX",76182,32.891445548,-97.224944361,499,"7304 WEXFORD CT, NORTH RICHLAND HILLS, TX, 76182","Match","Exact","7304 WEXFORD CT, NORTH RICHLAND HILLS, TX, 76182",101861078,"R"
837500,"7304 WILLOW GLEN WAY","ELKRIDGE","MD",21075,39.1790646790001,-76.781266739,500,"7304 WILLOW GLEN WAY, ELKRIDGE, MD, 21075","Match","Exact","7304 WILLOW GLEN WAY, ELKRIDGE, MD, 21075",158942367,"L"
