"ID","Address","City","State","Zip","lat","long","id","input_address","match_indicator","match_type","matched_address","tiger_line_id","tiger_side"
222501,"16 W 25TH STREET SUITE 301","BALTIMORE","MD",21218,NA,NA,1,"16 W 25TH STREET SUITE 301, BALTIMORE, MD, 21218","Tie",NA,NA,NA,NA
222502,"16 W 25TH STREET","BALTIMORE","MD",21218,39.317841018,-76.6175822659999,2,"16 W 25TH STREET, BALTIMORE, MD, 21218","Match","Exact","16 W 25TH ST, BALTIMORE, MD, 21218",206418844,"R"
222503,"16 W 270 94TH PLACE","BURR RIDGE","IL",60527,41.716520519,-87.9422418,3,"16 W 270 94TH PLACE, BURR RIDGE, IL, 60527","Match","Exact","16 94TH PL, BURR RIDGE, IL, 60527",112553163,"L"
222504,"16 W 472 HONEYSUCKLE ROSE LANE","WILLOWBROOKS","IL",60527,NA,NA,4,"16 W 472 HONEYSUCKLE ROSE LANE, WILLOWBROOKS, IL, 60527","Tie",NA,NA,NA,NA
222505,"16 W BROAD ST","RICHMOND","VA",23220,37.5457643020001,-77.442011135,5,"16 W BROAD ST, RICHMOND, VA, 23220","Match","Exact","16 W BROAD ST, RICHMOND, VA, 23220",635263045,"L"
222506,"16 W FRANCIS","MADILL","OK",73446,34.0856742770001,-96.7702393439999,6,"16 W FRANCIS, MADILL, OK, 73446","Match","Non_Exact","16 W FRANCIS ST, MADILL, OK, 73446",63233636,"R"
222507,"16 W HANOVER AVE","RANDOLPH","NJ",7869,40.828787768,-74.562998839,7,"16 W HANOVER AVE, RANDOLPH, NJ, 7869","Match","Exact","16 W HANOVER AVE, RANDOLPH, NJ, 07869",60465431,"R"
222508,"16 W MAIN ST UNIV OF DELAWARE","NEWARK","DE",19716,39.682993148,-75.7543398129999,8,"16 W MAIN ST UNIV OF DELAWARE, NEWARK, DE, 19716","Match","Non_Exact","16 W MAIN ST, NEWARK, DE, 19716",606230709,"R"
222509,"16 W MAIN ST","WHITE SULPHUR SPRING","MT",59645,NA,NA,9,"16 W MAIN ST, WHITE SULPHUR SPRING, MT, 59645","No_Match",NA,NA,NA,NA
222510,"16 W MAPLE DRIVE","SEVILLE","OH",44273,41.006563294,-81.879238098,10,"16 W MAPLE DRIVE, SEVILLE, OH, 44273","Match","Exact","16 W MAPLE DR, SEVILLE, OH, 44273",58685642,"R"
222511,"16 W NORTH ST PO BOX 69","CATAWBA","OH",43010,NA,NA,11,"16 W NORTH ST PO BOX 69, CATAWBA, OH, 43010","Tie",NA,NA,NA,NA
222512,"16 W POMFRET STREET","CARLISLE","PA",17013,40.199949356,-77.189804357,12,"16 W POMFRET STREET, CARLISLE, PA, 17013","Match","Exact","16 W POMFRET ST, CARLISLE, PA, 17013",60933302,"L"
222513,"16 WADING BIRD LOOP WESTON WOODS","BLYTHEWOOD","SC",29016,34.1650835520001,-80.9861286719999,13,"16 WADING BIRD LOOP WESTON WOODS, BLYTHEWOOD, SC, 29016","Match","Exact","16 WADING BIRD LOOP, BLYTHEWOOD, SC, 29016",645306421,"R"
222514,"16 WADSWORTH ROAD","ARLINGTON","MA",2476,42.4166971340001,-71.198036483,14,"16 WADSWORTH ROAD, ARLINGTON, MA, 2476","Match","Exact","16 WADSWORTH RD, ARLINGTON, MA, 02476",87171739,"L"
222515,"16 WALDEN SQ RD","CAMBRIDGE","MA",2140,NA,NA,15,"16 WALDEN SQ RD, CAMBRIDGE, MA, 2140","Tie",NA,NA,NA,NA
222516,"16 WALDRON AVE","NYACK","NY",10960,41.0910162760001,-73.936430184,16,"16 WALDRON AVE, NYACK, NY, 10960","Match","Exact","16 WALDRON AVE, NYACK, NY, 10960",124598757,"R"
222517,"16 WALL ST","NORWALK","CT",6850,41.118561179,-73.4115314479999,17,"16 WALL ST, NORWALK, CT, 6850","Match","Exact","16 WALL ST, NORWALK, CT, 06850",3250733,"R"
222518,"16 WALLACE STREET","PROVIDENCE","RI",2909,41.8107188440001,-71.443583646,18,"16 WALLACE STREET, PROVIDENCE, RI, 2909","Match","Exact","16 WALLACE ST, PROVIDENCE, RI, 02909",47460628,"L"
222519,"16 WALNUT TRAIL","FAIRFIELD","PA",17320,39.729143853,-77.374107422,19,"16 WALNUT TRAIL, FAIRFIELD, PA, 17320","Match","Exact","16 WALNUT TRL, FAIRFIELD, PA, 17320",60868639,"R"
222520,"16 WALNUT TREE HILL ROAD","SANDY HOOK","CT",6482,41.4213580480001,-73.289510294,20,"16 WALNUT TREE HILL ROAD, SANDY HOOK, CT, 6482","Match","Exact","16 WALNUT TREE HILL RD, SANDY HOOK, CT, 06482",635727437,"R"
222521,"16 WALNUT WAY","HIGHLAND MILLS","NY",10930,41.3566814180001,-74.129033167,21,"16 WALNUT WAY, HIGHLAND MILLS, NY, 10930","Match","Exact","16 WALNUT WAY, HIGHLAND MILLS, NY, 10930",124497390,"R"
222522,"16 WALSH LANE","GREENWICH","CT",6830,41.010135081,-73.632981464,22,"16 WALSH LANE, GREENWICH, CT, 6830","Match","Exact","16 WALSH LN, GREENWICH, CT, 06830",618527648,"L"
222523,"16 WARD ST","STATEN ISLAND","NY",10304,40.635019103,-74.0809668759999,23,"16 WARD ST, STATEN ISLAND, NY, 10304","Match","Non_Exact","16 WARD AVE, STATEN ISLAND, NY, 10304",59878978,"R"
222524,"16 WARREN AVENUE","KENMORE","NY",14217,42.9615357280001,-78.869099059,24,"16 WARREN AVENUE, KENMORE, NY, 14217","Match","Exact","16 WARREN AVE, KENMORE, NY, 14217",48288046,"L"
222525,"16 WARREN CT","MONSEY","NY",10952,41.1206016780001,-74.059847281,25,"16 WARREN CT, MONSEY, NY, 10952","Match","Exact","16 WARREN CT, MONSEY, NY, 10952",124626057,"L"
222526,"16 WARREN ST","PLAINSBORO","NJ",8536,40.3283079400001,-74.5814739689999,26,"16 WARREN ST, PLAINSBORO, NJ, 8536","Match","Exact","16 WARREN ST, PLAINSBORO, NJ, 08536",611254717,"L"
222527,"16 WASHINGTON PLACE","GARFIELD","NJ",7026,40.8644572800001,-74.1069977779999,27,"16 WASHINGTON PLACE, GARFIELD, NJ, 7026","Match","Exact","16 WASHINGTON PL, GARFIELD, NJ, 07026",64392702,"R"
222528,"16 WASHINGTON PLACE","WHITE PLAINS","NY",10603,41.0535507910001,-73.787939022,28,"16 WASHINGTON PLACE, WHITE PLAINS, NY, 10603","Match","Exact","16 WASHINGTON PL, WHITE PLAINS, NY, 10603",139738430,"R"
222529,"16 WASHINGTON ST","BRATTLEBORO","VT",5301,42.845712694,-72.5572890239999,29,"16 WASHINGTON ST, BRATTLEBORO, VT, 5301","Match","Exact","16 WASHINGTON ST, BRATTLEBORO, VT, 05301",171080367,"L"
222530,"16 WASHINGTON ST","STONEHAM","MA",2180,42.4823862710001,-71.0934367309999,30,"16 WASHINGTON ST, STONEHAM, MA, 2180","Match","Exact","16 WASHINGTON ST, STONEHAM, MA, 02180",86856708,"L"
222531,"16 WASHINGTON STREET","BEVERLY","MA",1915,42.54603725,-70.878283058,31,"16 WASHINGTON STREET, BEVERLY, MA, 1915","Match","Exact","16 WASHINGTON ST, BEVERLY, MA, 01915",86644169,"L"
222532,"16 WASHINGTON STREET","BRATTLEBORO","VT",5301,42.845712694,-72.5572890239999,32,"16 WASHINGTON STREET, BRATTLEBORO, VT, 5301","Match","Exact","16 WASHINGTON ST, BRATTLEBORO, VT, 05301",171080367,"L"
222533,"16 WATER MILL","ALISO VIEJO","CA",92656,33.5673937650001,-117.731592726,33,"16 WATER MILL, ALISO VIEJO, CA, 92656","Match","Exact","16 WATER MILL, ALISO VIEJO, CA, 92656",144394267,"R"
222534,"16 WATER STREET","ASHBURNHAM","MA",1430,42.637565673,-71.9081598179999,34,"16 WATER STREET, ASHBURNHAM, MA, 1430","Match","Exact","16 WATER ST, ASHBURNHAM, MA, 01430",39986444,"R"
222535,"16 WATERBURY ROAD","PROSPECT","CT",6712,41.505530419,-72.9798892059999,35,"16 WATERBURY ROAD, PROSPECT, CT, 6712","Match","Exact","16 WATERBURY RD, PROSPECT, CT, 06712",3736738,"R"
222536,"16 WATERHOUSE ROAD","GORHAM","ME",4038,43.6548962530001,-70.432069572,36,"16 WATERHOUSE ROAD, GORHAM, ME, 4038","Match","Exact","16 WATERHOUSE RD, GORHAM, ME, 04038",625297545,"R"
222537,"16 WATTS AVENUE","DENVILLE","NJ",7834,NA,NA,37,"16 WATTS AVENUE, DENVILLE, NJ, 7834","No_Match",NA,NA,NA,NA
222538,"16 WAVERLY RD","NATCHEZ","MS",39120,31.4398660700001,-91.3843768469999,38,"16 WAVERLY RD, NATCHEZ, MS, 39120","Match","Non_Exact","16 WAVERLY LN, NATCHEZ, MS, 39120",616377898,"R"
222539,"16 WAYNE AVE","BRAINTREE","MA",2184,42.1994237000001,-71.014998788,39,"16 WAYNE AVE, BRAINTREE, MA, 2184","Match","Exact","16 WAYNE AVE, BRAINTREE, MA, 02184",87265604,"L"
222540,"16 WAYNEL CIRCLE SE","FORT WALTON BEACH","FL",32548,30.409048924,-86.5933971159999,40,"16 WAYNEL CIRCLE SE, FORT WALTON BEACH, FL, 32548","Match","Exact","16 WAYNEL CIR SE, FORT WALTON BEACH, FL, 32548",74393044,"L"
222541,"16 WEATHERBEE STREET","WARREN","PA",16365,41.868855169,-79.15349193,41,"16 WEATHERBEE STREET, WARREN, PA, 16365","Match","Exact","16 WEATHERBEE ST, WARREN, PA, 16365",98678254,"R"
222542,"16 WEBSTER ROAD","CUMBERLAND","ME",4021,NA,NA,42,"16 WEBSTER ROAD, CUMBERLAND, ME, 4021","No_Match",NA,NA,NA,NA
222543,"16 WEDGEWOOD COURT","GLEN HEAD","NY",11545,40.84907416,-73.606449545,43,"16 WEDGEWOOD COURT, GLEN HEAD, NY, 11545","Match","Exact","16 WEDGEWOOD CT, GLEN HEAD, NY, 11545",147622938,"L"
222544,"16 WEIGAND STREET 2","WEST SENECA","NY",14224,42.8560561250001,-78.7499464749999,44,"16 WEIGAND STREET 2, WEST SENECA, NY, 14224","Match","Exact","16 WEIGAND ST, WEST SENECA, NY, 14224",48304306,"L"
222545,"16 WELDON ROAD","EDISON","NJ",8817,40.5127935630001,-74.399253401,45,"16 WELDON ROAD, EDISON, NJ, 8817","Match","Exact","16 WELDON RD, EDISON, NJ, 08817",60266308,"R"
222546,"16 WELLINGTON AVE","GREENVILLE","SC",29609,34.867303441,-82.3791131529999,46,"16 WELLINGTON AVE, GREENVILLE, SC, 29609","Match","Exact","16 WELLINGTON AVE, GREENVILLE, SC, 29609",38302243,"R"
222547,"16 WELLINGTON AVENUE","GREENVILLE","SC",29609,34.867303441,-82.3791131529999,47,"16 WELLINGTON AVENUE, GREENVILLE, SC, 29609","Match","Exact","16 WELLINGTON AVE, GREENVILLE, SC, 29609",38302243,"R"
222548,"16 WELLINGTON","GREENVILLE","SC",29609,34.867303441,-82.3791131529999,48,"16 WELLINGTON, GREENVILLE, SC, 29609","Match","Non_Exact","16 WELLINGTON AVE, GREENVILLE, SC, 29609",38302243,"R"
222549,"16 WELLS LN","SHORT HILLS","NJ",7078,40.728089895,-74.323627769,49,"16 WELLS LN, SHORT HILLS, NJ, 7078","Match","Exact","16 WELLS LN, SHORT HILLS, NJ, 07078",63461483,"L"
222550,"16 WENDY WAY","PORTLAND","ME",4103,43.7163226480001,-70.285265506,50,"16 WENDY WAY, PORTLAND, ME, 4103","Match","Exact","16 WENDY WAY, PORTLAND, ME, 04103",78044965,"L"
222551,"16 WENTWORTH LANE","NOVATO","CA",94949,38.059483626,-122.567798192,51,"16 WENTWORTH LANE, NOVATO, CA, 94949","Match","Exact","16 WENTWORTH LN, NOVATO, CA, 94949",192761261,"R"
222552,"16 WESLEYAN RD","COMMACK","NY",11725,40.853151504,-73.2634136569999,52,"16 WESLEYAN RD, COMMACK, NY, 11725","Match","Exact","16 WESLEYAN RD, COMMACK, NY, 11725",113983261,"R"
222553,"16 WEST 1000 NORTH","BOUNTIFUL","UT",84010,40.8995989420001,-111.879550118,53,"16 WEST 1000 NORTH, BOUNTIFUL, UT, 84010","Match","Exact","16 W 1000 N, BOUNTIFUL, UT, 84010",229353062,"R"
222554,"16 WEST 121","NEW YORK","NY",10027,40.804654107,-73.9460294,54,"16 WEST 121, NEW YORK, NY, 10027","Match","Non_Exact","16 W 121ST ST, NEW YORK, NY, 10027",59657740,"L"
222555,"16 WEST 16TH ST 1ES","NEW YORK","NY",10011,40.737603232,-73.9933063829999,55,"16 WEST 16TH ST 1ES, NEW YORK, NY, 10011","Match","Exact","16 W 16TH ST, NEW YORK, NY, 10011",59653508,"L"
222556,"16 WEST 16TH STREET APT 14NN","NEW YORK","NY",10011,40.737603232,-73.9933063829999,56,"16 WEST 16TH STREET APT 14NN, NEW YORK, NY, 10011","Match","Exact","16 W 16TH ST, NEW YORK, NY, 10011",59653508,"L"
222557,"16 WEST 21ST STREET APT 10","NEW YORK","NY",10010,40.7405337320001,-73.991171013,57,"16 WEST 21ST STREET APT 10, NEW YORK, NY, 10010","Match","Exact","16 W 21ST ST, NEW YORK, NY, 10010",59653502,"L"
222558,"16 WEST 32ND STREET  SET 407","NEW YORK","NY",10001,40.747508081,-73.986343296,58,"16 WEST 32ND STREET  SET 407, NEW YORK, NY, 10001","Match","Exact","16 W 32ND ST, NEW YORK, NY, 10001",59653447,"L"
222559,"16 WEST 46TH STREET 7TH FLR","NEW YORK","NY",10036,40.7563037460001,-73.979680588,59,"16 WEST 46TH STREET 7TH FLR, NEW YORK, NY, 10036","Match","Exact","16 W 46TH ST, NEW YORK, NY, 10036",59657140,"L"
222560,"16 WEST 77 ST 1EE","NEW YORK","NY",10024,40.7797118930001,-73.974149853,60,"16 WEST 77 ST 1EE, NEW YORK, NY, 10024","Match","Exact","16 W 77TH ST, NEW YORK, NY, 10024",59657071,"L"
222561,"16 WEST 77TH STREET 6F","NEW YORK","NY",10024,40.7797118930001,-73.974149853,61,"16 WEST 77TH STREET 6F, NEW YORK, NY, 10024","Match","Exact","16 W 77TH ST, NEW YORK, NY, 10024",59657071,"L"
222562,"16 WEST 9TH STREET","SHAWNEE","OK",74801,35.3287013240001,-96.9237766909999,62,"16 WEST 9TH STREET, SHAWNEE, OK, 74801","Match","Exact","16 W 9TH ST, SHAWNEE, OK, 74801",100579361,"R"
222563,"16 WEST BEE STREET","SUMTER","SC",29150,33.9115883430001,-80.342889799,63,"16 WEST BEE STREET, SUMTER, SC, 29150","Match","Exact","16 W BEE ST, SUMTER, SC, 29150",202698730,"L"
222564,"16 WEST BERNATH DR","HAMILTON SQUARE","NJ",8690,40.2378377040001,-74.655963485,64,"16 WEST BERNATH DR, HAMILTON SQUARE, NJ, 8690","Match","Exact","16 W BERNATH DR, HAMILTON SQUARE, NJ, 08690",60184628,"L"
222565,"16 WEST DEVONIA AVENUE","MOUNT VERNON","NY",10552,40.92952681,-73.834840361,65,"16 WEST DEVONIA AVENUE, MOUNT VERNON, NY, 10552","Match","Exact","16 W DEVONIA AVE, MOUNT VERNON, NY, 10552",139746862,"L"
222566,"16 WEST HANOVER AVE","RANDOLPH","NJ",7869,40.828787768,-74.562998839,66,"16 WEST HANOVER AVE, RANDOLPH, NJ, 7869","Match","Exact","16 W HANOVER AVE, RANDOLPH, NJ, 07869",60465431,"R"
222567,"16 WEST HOLLY STREET","CRANFORD","NJ",7016,40.6561294580001,-74.311762317,67,"16 WEST HOLLY STREET, CRANFORD, NJ, 7016","Match","Exact","16 W HOLLY ST, CRANFORD, NJ, 07016",60570475,"L"
222568,"16 WEST MAIN STREET","NORTH VERNON","IN",47265,39.0042472470001,-85.628039835,68,"16 WEST MAIN STREET, NORTH VERNON, IN, 47265","Match","Exact","16 W MAIN ST, NORTH VERNON, IN, 47265",30123810,"L"
222569,"16 WEST MARTIN STREET","RALEIGH","NC",27601,35.776938955,-78.639468403,69,"16 WEST MARTIN STREET, RALEIGH, NC, 27601","Match","Exact","16 W MARTIN ST, RALEIGH, NC, 27601",72508485,"R"
222570,"16 WEST MORNINGSIDE DRIVE","BLUFFTON","SC",29910,32.2621374930001,-80.916506037,70,"16 WEST MORNINGSIDE DRIVE, BLUFFTON, SC, 29910","Match","Exact","16 W MORNINGSIDE DR, BLUFFTON, SC, 29910",625108001,"R"
222571,"16 WEST RAINSONG","FARMINGTON","AR",72730,NA,NA,71,"16 WEST RAINSONG, FARMINGTON, AR, 72730","No_Match",NA,NA,NA,NA
222572,"16 WEST ROAD","SHORT HILLS","NJ",7078,40.7253582110001,-74.339672548,72,"16 WEST ROAD, SHORT HILLS, NJ, 7078","Match","Exact","16 WEST RD, SHORT HILLS, NJ, 07078",63461418,"R"
222573,"16 WEST ST","NORWICH","CT",6360,41.5154244600001,-72.08764724,73,"16 WEST ST, NORWICH, CT, 6360","Match","Exact","16 WEST ST, NORWICH, CT, 06360",56846797,"L"
222574,"16 WESTGATE DR APT T2","WOBURN","MA",1801,42.4990592570001,-71.1682092679999,74,"16 WESTGATE DR APT T2, WOBURN, MA, 1801","Match","Exact","16 WESTGATE DR, WOBURN, MA, 01801",623527542,"R"
222575,"16 WESTMINSTER STREET","WORCESTER","MA",1605,42.276619972,-71.7932112569999,75,"16 WESTMINSTER STREET, WORCESTER, MA, 1605","Match","Exact","16 WESTMINSTER ST, WORCESTER, MA, 01605",40010701,"R"
222576,"16 WESTRIDGE DR","ASHEVILLE","NC",28803,35.493659961,-82.5278290369999,76,"16 WESTRIDGE DR, ASHEVILLE, NC, 28803","Match","Exact","16 WESTRIDGE DR, ASHEVILLE, NC, 28803",36868437,"L"
222577,"16 WESTWIND WAY","GOLDENDALE","WA",98620,45.855066074,-120.838040078,77,"16 WESTWIND WAY, GOLDENDALE, WA, 98620","Match","Exact","16 WESTWIND WAY, GOLDENDALE, WA, 98620",175644114,"L"
222578,"16 WESVALLEY ROAD","LAKE PLACID","NY",12946,44.2803260970001,-73.9920363379999,78,"16 WESVALLEY ROAD, LAKE PLACID, NY, 12946","Match","Exact","16 WESVALLEY RD, LAKE PLACID, NY, 12946",652827275,"R"
222579,"16 WHEATLAND CIRCLE","LEBANON","PA",17042,40.3134638510001,-76.4516953099999,79,"16 WHEATLAND CIRCLE, LEBANON, PA, 17042","Match","Exact","16 WHEATLAND CIR, LEBANON, PA, 17042",611343711,"L"
222580,"16 WHISPERING OAKS","DENISON","TX",75020,33.7439258320001,-96.575458783,80,"16 WHISPERING OAKS, DENISON, TX, 75020","Match","Non_Exact","16 WHISPERING OAKS DR, DENISON, TX, 75020",63373380,"R"
222581,"16 WHISPERING WOODS DRIVE","SMITHTOWN","NY",11787,40.864978109,-73.246457225,81,"16 WHISPERING WOODS DRIVE, SMITHTOWN, NY, 11787","Match","Exact","16 WHISPERING WOODS DR, SMITHTOWN, NY, 11787",114236561,"L"
222582,"16 WHITE OAK COURT","MONMOUTH JCT","NJ",8852,40.387785767,-74.5482222099999,82,"16 WHITE OAK COURT, MONMOUTH JCT, NJ, 8852","Match","Exact","16 WHITE OAK CT, MONMOUTH JCT, NJ, 08852",60304412,"L"
222583,"16 WHITE OAK LANE","WAKE VILLAGE","TX",75501,33.421672798,-94.117321055,83,"16 WHITE OAK LANE, WAKE VILLAGE, TX, 75501","Match","Exact","16 WHITE OAK LN, WAKE VILLAGE, TX, 75501",57681196,"R"
222584,"16 WHITE PINE LANE","BIRCHWOOD","MN",55110,45.0584194050001,-92.97738056,84,"16 WHITE PINE LANE, BIRCHWOOD, MN, 55110","Match","Non_Exact","16 WHITE PINE LN, DELLWOOD, MN, 55110",97796273,"R"
222585,"16 WHITETAIL WAY","LEVANT","ME",4456,NA,NA,85,"16 WHITETAIL WAY, LEVANT, ME, 4456","No_Match",NA,NA,NA,NA
222586,"16 WHITEWOOD DRIVE","NEWTOWN","CT",6470,41.4218068660001,-73.333998686,86,"16 WHITEWOOD DRIVE, NEWTOWN, CT, 6470","Match","Non_Exact","16 WHITEWOOD RD, NEWTOWN, CT, 06470",653171137,"R"
222587,"16 WHITMORE STREET","ROCHESTER","NY",14620,43.1409231010001,-77.600480365,87,"16 WHITMORE STREET, ROCHESTER, NY, 14620","Match","Exact","16 WHITMORE ST, ROCHESTER, NY, 14620",14540479,"L"
222588,"16 WIGHT STREET","BELFAST","ME",4915,44.4143214430001,-68.9975442369999,88,"16 WIGHT STREET, BELFAST, ME, 4915","Match","Exact","16 WIGHT ST, BELFAST, ME, 04915",75641047,"R"
222589,"16 WIGHT STREET","EDISON","NJ",8820,NA,NA,89,"16 WIGHT STREET, EDISON, NJ, 8820","No_Match",NA,NA,NA,NA
222590,"16 WILCOX DRIVE","WILKES BARRE","PA",18705,41.25921579,-75.8364206809999,90,"16 WILCOX DRIVE, WILKES BARRE, PA, 18705","Match","Exact","16 WILCOX DR, WILKES BARRE, PA, 18705",80956445,"L"
222591,"16 WILD DOG WOOD WAY","GREENVILLE","SC",29605,34.7482628700001,-82.3367242639999,91,"16 WILD DOG WOOD WAY, GREENVILLE, SC, 29605","Match","Non_Exact","16 WILD DOGWOOD WAY, GREENVILLE, SC, 29605",625086261,"R"
222592,"16 WILD ROSE AVE","HOLDEN","MA",1520,42.3576777310001,-71.865640588,92,"16 WILD ROSE AVE, HOLDEN, MA, 1520","Match","Exact","16 WILD ROSE AVE, HOLDEN, MA, 01520",40004838,"L"
222593,"16 WILDFLOWER COURT","FREEHOLD","NJ",7728,40.2451181120001,-74.30582194,93,"16 WILDFLOWER COURT, FREEHOLD, NJ, 7728","Match","Exact","16 WILDFLOWER CT, FREEHOLD, NJ, 07728",90494307,"L"
222594,"16 WILDFLOWER LANE","NORTH CONWAY","NH",3860,44.0898670460001,-71.1632154879999,94,"16 WILDFLOWER LANE, NORTH CONWAY, NH, 3860","Match","Exact","16 WILDFLOWER LN, NORTH CONWAY, NH, 03860",230803441,"R"
222595,"16 WILDFLOWER LANE","PUTNAM VALLEY","NY",10579,41.358792226,-73.8722224159999,95,"16 WILDFLOWER LANE, PUTNAM VALLEY, NY, 10579","Match","Exact","16 WILDFLOWER LN, PUTNAM VALLEY, NY, 10579",139696751,"R"
222596,"16 WILLIAM ST","SUMMIT","NJ",7901,40.711813293,-74.3568125479999,96,"16 WILLIAM ST, SUMMIT, NJ, 7901","Match","Exact","16 WILLIAM ST, SUMMIT, NJ, 07901",60565379,"R"
222597,"16 WILLOW AVENUE","GILMANTON","NH",3237,43.4545073740001,-71.4086963679999,97,"16 WILLOW AVENUE, GILMANTON, NH, 3237","Match","Exact","16 WILLOW AVE, GILMANTON, NH, 03237",145486761,"R"
222598,"16 WILLOW DR","NEPTUNE","NJ",7753,40.20583248,-74.081827081,98,"16 WILLOW DR, NEPTUNE, NJ, 7753","Match","Exact","16 WILLOW DR, NEPTUNE, NJ, 07753",90457026,"L"
222599,"16 WILSON AVE - NO 2","SOMERVILLE","MD",2145,NA,NA,99,"16 WILSON AVE - NO 2, SOMERVILLE, MD, 2145","No_Match",NA,NA,NA,NA
222600,"16 WILSON AVENUE","DERRY","NH",3038,42.880068872,-71.320643678,100,"16 WILSON AVENUE, DERRY, NH, 3038","Match","Exact","16 WILSON AVE, DERRY, NH, 03038",113712763,"L"
222601,"16 WILSON RD","STONEHAM","MA",2180,42.467212642,-71.098718095,101,"16 WILSON RD, STONEHAM, MA, 2180","Match","Exact","16 WILSON RD, STONEHAM, MA, 02180",86856835,"L"
222602,"16 WILTON STREET","PRINCETON","NJ",8540,40.3543666360001,-74.642632464,102,"16 WILTON STREET, PRINCETON, NJ, 8540","Match","Exact","16 WILTON ST, PRINCETON, NJ, 08540",60171022,"L"
222603,"16 WINDING WAY","MULLICA HILL","NJ",8062,39.7371757600001,-75.19846617,103,"16 WINDING WAY, MULLICA HILL, NJ, 8062","Match","Exact","16 WINDING WAY, MULLICA HILL, NJ, 08062",134604442,"R"
222604,"16 WINDJAMMER LN UNIT 8","MOUNT ARLINGTON","NJ",7856,40.9238347240001,-74.6461353,104,"16 WINDJAMMER LN UNIT 8, MOUNT ARLINGTON, NJ, 7856","Match","Exact","16 WINDJAMMER LN, MOUNT ARLINGTON, NJ, 07856",624666197,"R"
222605,"16 WINDWARD DR","BELLINGHAM","WA",98229,NA,NA,105,"16 WINDWARD DR, BELLINGHAM, WA, 98229","No_Match",NA,NA,NA,NA
222606,"16 WINDWOOD COURT","QUARRYVILLE","PA",17566,39.861742083,-76.210085694,106,"16 WINDWOOD COURT, QUARRYVILLE, PA, 17566","Match","Exact","16 WINDWOOD CT, QUARRYVILLE, PA, 17566",179682331,"L"
222607,"16 WINDY HILL RD","ANNANDALE","NJ",8801,40.619354473,-74.889584478,107,"16 WINDY HILL RD, ANNANDALE, NJ, 8801","Match","Exact","16 WINDY HILL RD, ANNANDALE, NJ, 08801",629170126,"L"
222608,"16 WINDY HILL ROAD","ANNANDALE","NJ",8801,40.619354473,-74.889584478,108,"16 WINDY HILL ROAD, ANNANDALE, NJ, 8801","Match","Exact","16 WINDY HILL RD, ANNANDALE, NJ, 08801",629170126,"L"
222609,"16 WINGWALKER WAY","BUENA VISTA","VA",24416,NA,NA,109,"16 WINGWALKER WAY, BUENA VISTA, VA, 24416","No_Match",NA,NA,NA,NA
222610,"16 WINSTEAD AVE","METHUEN","MA",1844,42.6980566220001,-71.225414486,110,"16 WINSTEAD AVE, METHUEN, MA, 1844","Match","Exact","16 WINSTEAD AVE, METHUEN, MA, 01844",86625529,"L"
222611,"16 WINTER ST APT 36C","WALTHAM","MA",2451,42.3938667240001,-71.24414985,111,"16 WINTER ST APT 36C, WALTHAM, MA, 2451","Match","Exact","16 WINTER ST, WALTHAM, MA, 02451",87110927,"L"
222612,"16 WINTERHILL RD","MADISON","CT",6443,41.321350658,-72.630807981,112,"16 WINTERHILL RD, MADISON, CT, 6443","Match","Exact","16 WINTERHILL RD, MADISON, CT, 06443",604742884,"R"
222613,"16 WINTHROP DR","RIVERSIDE","CT",6878,41.03661636,-73.5769921039999,113,"16 WINTHROP DR, RIVERSIDE, CT, 6878","Match","Exact","16 WINTHROP DR, RIVERSIDE, CT, 06878",618528301,"R"
222614,"16 WINTON STREET","CRANSTON","RI",2910,41.7694029290001,-71.4170519739999,114,"16 WINTON STREET, CRANSTON, RI, 2910","Match","Exact","16 WINTON ST, CRANSTON, RI, 02910",47471840,"L"
222615,"16 WINWARD WAY","MIDDLE RIVER","MD",21220,NA,NA,115,"16 WINWARD WAY, MIDDLE RIVER, MD, 21220","No_Match",NA,NA,NA,NA
222616,"16 WISAHICKON AVENUE","AMBLER","PA",19002,40.15162172,-75.226447121,116,"16 WISAHICKON AVENUE, AMBLER, PA, 19002","Match","Non_Exact","16 WISSAHICKON AVE, AMBLER, PA, 19002",135119424,"L"
222617,"16 WITCHES SPRING ROAD","HOLLIS","NH",3049,42.7932794370001,-71.597101278,117,"16 WITCHES SPRING ROAD, HOLLIS, NH, 3049","Match","Exact","16 WITCHES SPRING RD, HOLLIS, NH, 03049",113543638,"L"
222618,"16 WOOD LANE","LITTLE COMPTON","RI",2837,41.5249294160001,-71.1747417569999,118,"16 WOOD LANE, LITTLE COMPTON, RI, 2837","Match","Exact","16 WOOD LN, LITTLE COMPTON, RI, 02837",47352894,"L"
222619,"16 WOODBINE STREET","SOMERVILLE","MA",2143,42.3912271020001,-71.1049066859999,119,"16 WOODBINE STREET, SOMERVILLE, MA, 2143","Match","Exact","16 WOODBINE ST, SOMERVILLE, MA, 02143",86868499,"R"
222620,"16 WOODBRIAR COURT","JACKSONVILLE","AR",72076,34.855628946,-92.103066728,120,"16 WOODBRIAR COURT, JACKSONVILLE, AR, 72076","Match","Exact","16 WOODBRIAR CT, JACKSONVILLE, AR, 72076",83531196,"L"
222621,"16 WOODBRIDGE STREET","NEW BRUNSWICK","NJ",8901,40.4966215330001,-74.458705577,121,"16 WOODBRIDGE STREET, NEW BRUNSWICK, NJ, 8901","Match","Exact","16 WOODBRIDGE ST, NEW BRUNSWICK, NJ, 08901",60360782,"L"
222622,"16 WOODBROOK CIRCLE","WILMINGTON","DE",19810,39.802645392,-75.5019574679999,122,"16 WOODBROOK CIRCLE, WILMINGTON, DE, 19810","Match","Exact","16 WOODBROOK CIR, WILMINGTON, DE, 19810",187260182,"L"
222623,"16 WOODFIELD DRIVE","WEBSTER","NY",14580,43.1795751350001,-77.492795003,123,"16 WOODFIELD DRIVE, WEBSTER, NY, 14580","Match","Exact","16 WOODFIELD DR, WEBSTER, NY, 14580",14559464,"L"
222624,"16 WOODHILL ROAD","NEWTOWN SQUARE","PA",19073,39.992097421,-75.3790075479999,124,"16 WOODHILL ROAD, NEWTOWN SQUARE, PA, 19073","Match","Exact","16 WOODHILL RD, NEWTOWN SQUARE, PA, 19073",134897974,"L"
222625,"16 WOODLAND DRIVE","WINDHAM","CT",6280,41.7136357960001,-72.180329268,125,"16 WOODLAND DRIVE, WINDHAM, CT, 6280","Match","Exact","16 WOODLAND DR, WINDHAM, CT, 06280",56441560,"L"
222626,"16 WOODLANDS DRIVE","BLACK MOUNTAIN","NC",28711,35.6095696090001,-82.354570994,126,"16 WOODLANDS DRIVE, BLACK MOUNTAIN, NC, 28711","Match","Exact","16 WOODLANDS DR, BLACK MOUNTAIN, NC, 28711",644188310,"L"
222627,"16 WOODLAWN AVENUE","NORTH ADAMS","MA",1247,42.6923518,-73.140849847,127,"16 WOODLAWN AVENUE, NORTH ADAMS, MA, 1247","Match","Exact","16 WOODLAWN AVE, NORTH ADAMS, MA, 01247",3978557,"R"
222628,"16 WOODLAWN ROAD","DARTMOUTH","MA",2747,41.6240471680001,-70.977753292,128,"16 WOODLAWN ROAD, DARTMOUTH, MA, 2747","Match","Exact","16 WOODLAWN RD, DARTMOUTH, MA, 02747",46749352,"L"
222629,"16 WOODMEADOW DR","SALEM","NH",3079,42.792093831,-71.210654189,129,"16 WOODMEADOW DR, SALEM, NH, 3079","Match","Exact","16 WOODMEADOW DR, SALEM, NH, 03079",113712282,"R"
222630,"16 WOODS LANE","PINEVILLE","KY",40977,36.741061872,-83.6718376429999,130,"16 WOODS LANE, PINEVILLE, KY, 40977","Match","Exact","16 WOODS LN, PINEVILLE, KY, 40977",87981452,"L"
222631,"16 WOODSIDE DR","LONDONDERRY","NH",3053,42.8994917950001,-71.436142089,131,"16 WOODSIDE DR, LONDONDERRY, NH, 3053","Match","Exact","16 WOODSIDE DR, LONDONDERRY, NH, 03053",113668116,"R"
222632,"16 WOODSONG CT","AMELIA","OH",45102,39.021191684,-84.2137057529999,132,"16 WOODSONG CT, AMELIA, OH, 45102","Match","Exact","16 WOODSONG CT, AMELIA, OH, 45102",619672878,"L"
222633,"16 WOODSONG ROAD","EDGECOMB","ME",4556,NA,NA,133,"16 WOODSONG ROAD, EDGECOMB, ME, 4556","No_Match",NA,NA,NA,NA
222634,"16 WOOLEYS LN","GREAT NECK","NY",11023,40.7972202010001,-73.732947896,134,"16 WOOLEYS LN, GREAT NECK, NY, 11023","Match","Exact","16 WOOLEYS LN, GREAT NECK, NY, 11023",147656143,"R"
222635,"16 WRIGHT LANE","HOUSATONIC","MA",1236,42.2319269810001,-73.3683369729999,135,"16 WRIGHT LANE, HOUSATONIC, MA, 1236","Match","Exact","16 WRIGHT LN, HOUSATONIC, MA, 01236",3937426,"R"
222636,"16 WRIGHT STREET","EDISON","NJ",8820,40.6016745160001,-74.384234057,136,"16 WRIGHT STREET, EDISON, NJ, 8820","Match","Exact","16 WRIGHT ST, EDISON, NJ, 08820",60290493,"L"
222637,"16 WYCHWOOD LANE","LANGHORNE","PA",19047,40.189457874,-74.912514221,137,"16 WYCHWOOD LANE, LANGHORNE, PA, 19047","Match","Exact","16 WYCHWOOD LN, LANGHORNE, PA, 19047",134738069,"L"
222638,"16 WYNN AVENUE","PITTSBURGH","PA",15205,NA,NA,138,"16 WYNN AVENUE, PITTSBURGH, PA, 15205","No_Match",NA,NA,NA,NA
222639,"16 WYVERN STREET UNIT 2","ROSLINDALE","MA",2131,42.2885641770001,-71.117416093,139,"16 WYVERN STREET UNIT 2, ROSLINDALE, MA, 2131","Match","Exact","16 WYVERN ST, ROSLINDALE, MA, 02131",85703859,"L"
222640,"16 YEARLING WAY","BURLINGTON","NJ",8016,40.08163842,-74.8108949749999,140,"16 YEARLING WAY, BURLINGTON, NJ, 8016","Match","Exact","16 YEARLING WAY, BURLINGTON, NJ, 08016",134084032,"R"
222641,"16 YORKSHIRE DRIVE","LINCOLNSHIRE","IL",60069,42.1959260130001,-87.908229422,141,"16 YORKSHIRE DRIVE, LINCOLNSHIRE, IL, 60069","Match","Exact","16 YORKSHIRE DR, LINCOLNSHIRE, IL, 60069",119644196,"R"
222642,"16 YORKSHIRE DRIVE","LINCOLNSHIRE",NA,60069,42.1959260130001,-87.908229422,142,"16 YORKSHIRE DRIVE, LINCOLNSHIRE, , 60069","Match","Exact","16 YORKSHIRE DR, LINCOLNSHIRE, IL, 60069",119644196,"R"
222643,"16 ZANCO WAY","NOVATO","CA",94947,38.10286847,-122.583590118,143,"16 ZANCO WAY, NOVATO, CA, 94947","Match","Exact","16 ZANCO WAY, NOVATO, CA, 94947",192757520,"R"
222644,"16-02 KIPP ST","FAIR LAWN","NJ",7410,40.9325340450001,-74.123304178,144,"16-02 KIPP ST, FAIR LAWN, NJ, 7410","Match","Exact","16-2 KIPP ST, FAIR LAWN, NJ, 07410",64380162,"R"
222645,"16-06 JORDAN ROAD","FAIR LAWN","NJ",7410,40.9442109140001,-74.110013506,145,"16-06 JORDAN ROAD, FAIR LAWN, NJ, 7410","Match","Exact","16-6 JORDAN RD, FAIR LAWN, NJ, 07410",64380653,"L"
222646,"16-1423 HOPUE RD","KURTISTOWN","HI",96760,19.535441033,-155.067643248,146,"16-1423 HOPUE RD, KURTISTOWN, HI, 96760","Match","Exact","16-1423 HOPUE RD, KURTISTOWN, HI, 96760",203041622,"R"
222647,"16-1428 POHAKU CIR","KEAAU","HI",96749,19.5735497740001,-155.004464027,147,"16-1428 POHAKU CIR, KEAAU, HI, 96749","Match","Exact","16-1428 POHAKU CIR, KEAAU, HI, 96749",635778649,"L"
222648,"16-1633 MOHO RD","KURTISTOWN","HI",96760,NA,NA,148,"16-1633 MOHO RD, KURTISTOWN, HI, 96760","Tie",NA,NA,NA,NA
222649,"16-166 MELEKAHIWA ST","KEAAU","HI",96749,19.638140478,-155.046956818,149,"16-166 MELEKAHIWA ST, KEAAU, HI, 96749","Match","Exact","16-166 MELEKAHIWA ST, KEAAU, HI, 96749",645558650,"L"
222650,"16-18 NORTH 4T ST","PATERSON","NJ",7522,NA,NA,150,"16-18 NORTH 4T ST, PATERSON, NJ, 7522","No_Match",NA,NA,NA,NA
222651,"16-1936  36TH AVE","KEAAU","HI",96749,19.542709025,-154.986957329,151,"16-1936  36TH AVE, KEAAU, HI, 96749","Match","Exact","16-1936 36TH AVE, KEAAU, HI, 96749",635779234,"L"
222652,"16-1936 36TH AVE","PAHOA","HI",96778,NA,NA,152,"16-1936 36TH AVE, PAHOA, HI, 96778","No_Match",NA,NA,NA,NA
222653,"16-2 CRANBERRY RIDGE","READING","PA",19602,40.3015881110001,-75.871762296,153,"16-2 CRANBERRY RIDGE, READING, PA, 19602","Match","Non_Exact","16 CRANBERRY RIDGE, READING, PA, 19606",646767484,"R"
222654,"16-20 SPRUCE ST APT 8","PASSAIC","NJ",7055,NA,NA,154,"16-20 SPRUCE ST APT 8, PASSAIC, NJ, 7055","Tie",NA,NA,NA,NA
222655,"16-2053 MAILE WAY","PAHOA","HI",96778,19.5419564860001,-154.976228446,155,"16-2053 MAILE WAY, PAHOA, HI, 96778","Match","Exact","16-2053 MAILE WAY, PAHOA, HI, 96778",202974651,"L"
222656,"16-2055 SANDALWOOD DRIVE","PAHOA","HI",96778,19.522483343,-154.995017755,156,"16-2055 SANDALWOOD DRIVE, PAHOA, HI, 96778","Match","Exact","16-2055 SANDALWOOD DR, PAHOA, HI, 96778",202974697,"R"
222657,"16-2085 LEIALOHA DRIVE","PAHOA","HI",96778,19.5366437210001,-154.981478373,157,"16-2085 LEIALOHA DRIVE, PAHOA, HI, 96778","Match","Exact","16-2085 LEIALOHA DR, PAHOA, HI, 96778",202974758,"R"
222658,"16-2095 SILVERSWORD DRIVE","PAHOA","HI",96778,19.521559585,-154.993336692,158,"16-2095 SILVERSWORD DRIVE, PAHOA, HI, 96778","Match","Exact","16 SILVERSWORD DR, PAHOA, HI, 96778",202974693,"R"
222659,"16-2101 VISTA DRIVE","PAHOA","HI",96778,19.530863444,-154.98792762,159,"16-2101 VISTA DRIVE, PAHOA, HI, 96778","Match","Exact","16-2101 VISTA DR, PAHOA, HI, 96778",202974731,"R"
222660,"16-2132 UILANI DRIVE","PAHOA","HI",96778,19.52172219,-154.989997669,160,"16-2132 UILANI DRIVE, PAHOA, HI, 96778","Match","Exact","16-2132 UILANI DR, PAHOA, HI, 96778",202974678,"L"
222661,"16-23 PAULDING AVENUE","MORRIS PARK","NY",10462,NA,NA,161,"16-23 PAULDING AVENUE, MORRIS PARK, NY, 10462","No_Match",NA,NA,NA,NA
222662,"16-29 GEORGE ST","FAIR LAWN","NJ",7410,NA,NA,162,"16-29 GEORGE ST, FAIR LAWN, NJ, 7410","Tie",NA,NA,NA,NA
222663,"16-3A FRENCHMANS BAY","ST THOMAS","VI",802,NA,NA,163,"16-3A FRENCHMANS BAY, ST THOMAS, VI, 802","No_Match",NA,NA,NA,NA
222664,"16-40 STEPHEN ST 2","FLUSHING","NY",11385,NA,NA,164,"16-40 STEPHEN ST 2, FLUSHING, NY, 11385","No_Match",NA,NA,NA,NA
222665,"16-491 ORCHIDLAND DRIVE","Keaau","HI",96749,19.5454141170001,-155.017742343,165,"16-491 ORCHIDLAND DRIVE, Keaau, HI, 96749","Match","Exact","16-491 ORCHIDLAND DR, KEAAU, HI, 96749",638509645,"L"
222666,"16-566 KEAAU-PAHOA RD STE 188-540","KEAAU","HI",96749,19.621339735,-155.038541037,166,"16-566 KEAAU-PAHOA RD STE 188-540, KEAAU, HI, 96749","Match","Non_Exact","16-566 KEAAU PAHOA RD, KEAAU, HI, 96749",614318102,"L"
222667,"16-59 BELL BLVD FL 1","BAYSIDE","NY",11360,40.784366903,-73.777884914,167,"16-59 BELL BLVD FL 1, BAYSIDE, NY, 11360","Match","Exact","16-59 BELL BLVD, BAYSIDE, NY, 11360",59701980,"L"
222668,"16-643 KIPIMANA ST 20","KEAAU","HI",96749,19.634801678,-155.051719734,168,"16-643 KIPIMANA ST 20, KEAAU, HI, 96749","Match","Exact","16-643 KIPIMANA ST, KEAAU, HI, 96749",203024733,"L"
222669,"16-66 BELL BLVD APT 343","BAYSIDE","NY",11360,40.783925482,-73.7775819399999,169,"16-66 BELL BLVD APT 343, BAYSIDE, NY, 11360","Match","Exact","16-66 BELL BLVD, BAYSIDE, NY, 11360",59701980,"R"
222670,"16-664 MILO ST","KEAAU","HI",96749,19.6265512640001,-155.031623594,170,"16-664 MILO ST, KEAAU, HI, 96749","Match","Exact","16-664 MILO ST, KEAAU, HI, 96749",614316641,"L"
222671,"16-685 MILO STREET","KEAAU","HI",96749,19.6264098410001,-155.031954862,171,"16-685 MILO STREET, KEAAU, HI, 96749","Match","Exact","16-685 MILO ST, KEAAU, HI, 96749",614316641,"R"
222672,"16-6TH AVENUE SE","QUINCY","WA",98848,NA,NA,172,"16-6TH AVENUE SE, QUINCY, WA, 98848","No_Match",NA,NA,NA,NA
222673,"16-70 BELL BLVD","BAYSIDE","NY",11360,40.783842486,-73.777521871,173,"16-70 BELL BLVD, BAYSIDE, NY, 11360","Match","Exact","16-70 BELL BLVD, BAYSIDE, NY, 11360",59701980,"R"
222674,"16-82 81 STREET","BROOKLYN","NY",11214,40.6288965470001,-74.0371456789999,174,"16-82 81 STREET, BROOKLYN, NY, 11214","Match","Non_Exact","16 81ST ST, BROOKLYN, NY, 11209",59093424,"R"
222675,"16","ARDEN","NC",28704,NA,NA,175,"16, ARDEN, NC, 28704","No_Match",NA,NA,NA,NA
222676,"16","BEAVERTON","OR",97006,NA,NA,176,"16, BEAVERTON, OR, 97006","No_Match",NA,NA,NA,NA
222677,"16","BRIARCLIFF MANOR","NY",10510,NA,NA,177,"16, BRIARCLIFF MANOR, NY, 10510","No_Match",NA,NA,NA,NA
222678,"16","BURNSVILLE","NC",28714,NA,NA,178,"16, BURNSVILLE, NC, 28714","No_Match",NA,NA,NA,NA
222679,"16","CHESTERFEILD","VA",23838,NA,NA,179,"16, CHESTERFEILD, VA, 23838","No_Match",NA,NA,NA,NA
222680,"16","EAST LANSING","MI",48823,NA,NA,180,"16, EAST LANSING, MI, 48823","No_Match",NA,NA,NA,NA
222681,"16","JERSEY CITY","NJ",7305,NA,NA,181,"16, JERSEY CITY, NJ, 7305","No_Match",NA,NA,NA,NA
222682,"16","KIMBERLY DR","TN",1876,NA,NA,182,"16, KIMBERLY DR, TN, 1876","No_Match",NA,NA,NA,NA
222683,"16","LEWES","DE",19958,NA,NA,183,"16, LEWES, DE, 19958","No_Match",NA,NA,NA,NA
222684,"16","MANLY","IA",50456,NA,NA,184,"16, MANLY, IA, 50456","No_Match",NA,NA,NA,NA
222685,"16","MEDFORD","NJ",8055,NA,NA,185,"16, MEDFORD, NJ, 8055","No_Match",NA,NA,NA,NA
222686,"16","MONTVERDE","FL",34756,NA,NA,186,"16, MONTVERDE, FL, 34756","No_Match",NA,NA,NA,NA
222687,"16","PRAIRIEVILLE","LA",70769,NA,NA,187,"16, PRAIRIEVILLE, LA, 70769","No_Match",NA,NA,NA,NA
222688,"16","TRUCKEE","CA",96161,NA,NA,188,"16, TRUCKEE, CA, 96161","No_Match",NA,NA,NA,NA
222689,"160  160 ALTAMARINE LN","SAN DIEGO","CA",92114,NA,NA,189,"160  160 ALTAMARINE LN, SAN DIEGO, CA, 92114","No_Match",NA,NA,NA,NA
222690,"160  AVE B APT B","ROCHESTER","NY",14605,43.178538078,-77.622390883,190,"160  AVE B APT B, ROCHESTER, NY, 14605","Match","Non_Exact","160 AVE B, ROCHESTER, NY, 14621",14532446,"L"
222691,"160  PINE HOLLOW COURT","NASHVILLE","IN",47448,NA,NA,191,"160  PINE HOLLOW COURT, NASHVILLE, IN, 47448","No_Match",NA,NA,NA,NA
222692,"160 12TH AVE NE","NAPLES","FL",34120,26.2517943440001,-81.605524714,192,"160 12TH AVE NE, NAPLES, FL, 34120","Match","Exact","160 12TH AVE NE, NAPLES, FL, 34120",115128999,"R"
222693,"160 16TH ST2ND FL","PATERSON","NJ",7501,40.915900306,-74.1602434929999,193,"160 16TH ST2ND FL, PATERSON, NJ, 7501","Match","Non_Exact","160 16TH AVE, PATERSON, NJ, 07501",65264293,"R"
222694,"160 1ST ST","WESTHOPE","ND",58711,NA,NA,194,"160 1ST ST, WESTHOPE, ND, 58711","No_Match",NA,NA,NA,NA
222695,"160 20TH ST APT 14","SPRINGFIELD","OR",97477,44.0465759960001,-122.995478449,195,"160 20TH ST APT 14, SPRINGFIELD, OR, 97477","Match","Exact","160 20TH ST, SPRINGFIELD, OR, 97477",178173561,"L"
222696,"160 20TH STREET","HUEYTOWN","AL",35023,33.438762125,-86.9934973909999,196,"160 20TH STREET, HUEYTOWN, AL, 35023","Match","Exact","160 20TH ST, HUEYTOWN, AL, 35023",647560662,"R"
222697,"160 37TH STREET","LINDENHURST","NY",11757,40.6917486130001,-73.383752471,197,"160 37TH STREET, LINDENHURST, NY, 11757","Match","Exact","160 37TH ST, LINDENHURST, NY, 11757",113973597,"R"
222698,"160 56TH AVE S","ST PETERSBURG","FL",33705,27.7172005800001,-82.634159884,198,"160 56TH AVE S, ST PETERSBURG, FL, 33705","Match","Exact","160 56TH AVE S, SAINT PETERSBURG, FL, 33705",124714126,"L"
222699,"160 A COLLINS ST","HARTFORD","CT",6105,41.772769666,-72.689827695,199,"160 A COLLINS ST, HARTFORD, CT, 6105","Match","Exact","160 COLLINS ST, HARTFORD, CT, 06105",3494618,"R"
222700,"160 ACADEMY STREET","POUGHKEEPSIE","NY",12601,41.6926776380001,-73.9290636269999,200,"160 ACADEMY STREET, POUGHKEEPSIE, NY, 12601","Match","Exact","160 ACADEMY ST, POUGHKEEPSIE, NY, 12601",4168021,"R"
222701,"160 ADIRONDACK DR","EAST GREENWICH","RI",2818,41.6334991910001,-71.5016172479999,201,"160 ADIRONDACK DR, EAST GREENWICH, RI, 2818","Match","Exact","160 ADIRONDACK DR, EAST GREENWICH, RI, 02818",159155770,"R"
222702,"160 ADOBE CREEK ROAD","FLORENCE","CO",81226,NA,NA,202,"160 ADOBE CREEK ROAD, FLORENCE, CO, 81226","No_Match",NA,NA,NA,NA
222703,"160 ADVENTURELAND DR STE B","ALTOONA","IA",50009,NA,NA,203,"160 ADVENTURELAND DR STE B, ALTOONA, IA, 50009","No_Match",NA,NA,NA,NA
222704,"160 AIDAN ST","WAUKEE","IA",50263,41.5974075130001,-93.875008881,204,"160 AIDAN ST, WAUKEE, IA, 50263","Match","Exact","160 AIDAN ST, WAUKEE, IA, 50263",617113500,"L"
222705,"160 AIRPORT RD","SUNBURY","PA",17801,40.8295780780001,-76.7339854689999,205,"160 AIRPORT RD, SUNBURY, PA, 17801","Match","Exact","160 AIRPORT RD, SUNBURY, PA, 17801",48058446,"R"
222706,"160 ALISON TRAIL","COVINGTON","GA",30014,33.5807603270001,-83.771384385,206,"160 ALISON TRAIL, COVINGTON, GA, 30014","Match","Exact","160 ALISON TRL, COVINGTON, GA, 30014",23639087,"L"
222707,"160 ALLEN ST","NEW YORK","NY",10002,40.721389507,-73.989136324,207,"160 ALLEN ST, NEW YORK, NY, 10002","Match","Exact","160 ALLEN ST, NEW YORK, NY, 10002",59654095,"R"
222708,"160 ALLEN STREET - APT 20","NEW YORK","NY",10002,40.721389507,-73.989136324,208,"160 ALLEN STREET - APT 20, NEW YORK, NY, 10002","Match","Exact","160 ALLEN ST, NEW YORK, NY, 10002",59654095,"R"
222709,"160 ALLEN STREET SUITE 20","NEW YORK","NY",10002,40.721389507,-73.989136324,209,"160 ALLEN STREET SUITE 20, NEW YORK, NY, 10002","Match","Exact","160 ALLEN ST, NEW YORK, NY, 10002",59654095,"R"
222710,"160 ALLEN STREET","NEW YORK","NY",10002,40.721389507,-73.989136324,210,"160 ALLEN STREET, NEW YORK, NY, 10002","Match","Exact","160 ALLEN ST, NEW YORK, NY, 10002",59654095,"R"
222711,"160 ALLSTON ST","CAMBRIDGE","MA",2139,42.35876325,-71.108415435,211,"160 ALLSTON ST, CAMBRIDGE, MA, 2139","Match","Exact","160 ALLSTON ST, CAMBRIDGE, MA, 02139",639006149,"L"
222712,"160 ALOHILANI STREET","PUKALANI","HI",96768,20.8392177280001,-156.347301006,212,"160 ALOHILANI STREET, PUKALANI, HI, 96768","Match","Non_Exact","160 ALOHILANI ST, MAKAWAO, HI, 96768",85069421,"L"
222713,"160 ALUMNI DRIVE","MIDDLETOWN","PA",17057,NA,NA,213,"160 ALUMNI DRIVE, MIDDLETOWN, PA, 17057","No_Match",NA,NA,NA,NA
222714,"160 ANNALISA CT","BLOOMINGDALE","IL",60108,41.9521178630001,-88.05034434,214,"160 ANNALISA CT, BLOOMINGDALE, IL, 60108","Match","Exact","160 ANNALISA CT, BLOOMINGDALE, IL, 60108",608944888,"R"
222715,"160 ANTIETAM ROAD","DELRAN","NJ",8075,39.997351425,-74.952058167,215,"160 ANTIETAM ROAD, DELRAN, NJ, 8075","Match","Exact","160 ANTIETAM RD, DELRAN, NJ, 08075",134030396,"R"
222716,"160 ANTIOCH PIKE","NASHVILLE","TN",37211,36.1008909060001,-86.729200495,216,"160 ANTIOCH PIKE, NASHVILLE, TN, 37211","Match","Exact","160 ANTIOCH PIKE, NASHVILLE, TN, 37211",97213278,"R"
222717,"160 APPLE VALLEY DRIVE","LANGHORNE","PA",19047,40.1963358780001,-74.8945265739999,217,"160 APPLE VALLEY DRIVE, LANGHORNE, PA, 19047","Match","Exact","160 APPLE VALLEY DR, LANGHORNE, PA, 19047",134732608,"L"
222718,"160 ARCHIE WAY","WOODSTOCK","GA",30188,34.1340818140001,-84.502804689,218,"160 ARCHIE WAY, WOODSTOCK, GA, 30188","Match","Exact","160 ARCHIE WAY, WOODSTOCK, GA, 30188",617659242,"R"
222719,"160 ARCHIPELAGO","AUSTIN","TX",78217,NA,NA,219,"160 ARCHIPELAGO, AUSTIN, TX, 78217","No_Match",NA,NA,NA,NA
222720,"160 ARUBA LANE","PONTE VEDRA","FL",32082,30.2485766290001,-81.392187318,220,"160 ARUBA LANE, PONTE VEDRA, FL, 32082","Match","Exact","160 ARUBA LN, PONTE VEDRA, FL, 32082",92625642,"L"
222721,"160 ASHEWOOD COMMONS DRIVE","COLUMBIA","SC",29209,33.962908285,-80.929643121,221,"160 ASHEWOOD COMMONS DRIVE, COLUMBIA, SC, 29209","Match","Exact","160 ASHEWOOD COMMONS DR, COLUMBIA, SC, 29209",604752997,"R"
222722,"160 ASPEN DR","LAKE HAVASU CITY","AZ",86403,34.4707009800001,-114.329791718,222,"160 ASPEN DR, LAKE HAVASU CITY, AZ, 86403","Match","Exact","160 ASPEN DR, LAKE HAVASU CITY, AZ, 86403",190282457,"R"
222723,"160 ATHOL AVENUE B","OAKLAND","CA",94606,37.801005494,-122.252859028,223,"160 ATHOL AVENUE B, OAKLAND, CA, 94606","Match","Exact","160 ATHOL AVE, OAKLAND, CA, 94606",125001233,"R"
222724,"160 AUSTIN OAKS DR","ELLENWOOD","GA",30294,33.6242081070001,-84.189092257,224,"160 AUSTIN OAKS DR, ELLENWOOD, GA, 30294","Match","Exact","160 AUSTIN OAKS DR, ELLENWOOD, GA, 30294",23195154,"R"
222725,"160 AUTUMN TRAIL","RINGGOLD","GA",30736,34.9112455320001,-85.151132876,225,"160 AUTUMN TRAIL, RINGGOLD, GA, 30736","Match","Non_Exact","160 AUTUMN DR, RINGGOLD, GA, 30736",66699793,"R"
222726,"160 AVE B","ROCHESTER","NY",14608,43.178538078,-77.622390883,226,"160 AVE B, ROCHESTER, NY, 14608","Match","Non_Exact","160 AVE B, ROCHESTER, NY, 14621",14532446,"L"
222727,"160 AVE B","ROCHESTER","NY",14621,43.178538078,-77.622390883,227,"160 AVE B, ROCHESTER, NY, 14621","Match","Exact","160 AVE B, ROCHESTER, NY, 14621",14532446,"L"
222728,"160 AVIATION DR NORTH","NAPLES","FL",34104,26.1536409140001,-81.766998875,228,"160 AVIATION DR NORTH, NAPLES, FL, 34104","Match","Exact","160 AVIATION DR N, NAPLES, FL, 34104",115157612,"R"
222729,"160 AVIATION DRIVE NORTH","NAPLES","FL",34104,26.1536409140001,-81.766998875,229,"160 AVIATION DRIVE NORTH, NAPLES, FL, 34104","Match","Exact","160 AVIATION DR N, NAPLES, FL, 34104",115157612,"R"
222730,"160 AVIATION DRIVE NORTH","NAPLES","FL",81201,26.1536409140001,-81.766998875,230,"160 AVIATION DRIVE NORTH, NAPLES, FL, 81201","Match","Non_Exact","160 AVIATION DR N, NAPLES, FL, 34104",115157612,"R"
222731,"160 BARNARD RD","GRANDY","NC",27939,36.2569422620001,-75.8892748329999,231,"160 BARNARD RD, GRANDY, NC, 27939","Match","Exact","160 BARNARD RD, GRANDY, NC, 27939",81389813,"L"
222732,"160 BARNARD ROAD","GRANDY","NC",27939,36.2569422620001,-75.8892748329999,232,"160 BARNARD ROAD, GRANDY, NC, 27939","Match","Exact","160 BARNARD RD, GRANDY, NC, 27939",81389813,"L"
222733,"160 BASKET STREET","CENTER SANDWICH","NH",3227,43.8414016090001,-71.4360346129999,233,"160 BASKET STREET, CENTER SANDWICH, NH, 3227","Match","Exact","160 BASKET ST, CENTER SANDWICH, NH, 03227",145610664,"L"
222734,"160 BEACH STREET","WARRENTON","VA",20186,38.7152054630001,-77.8009646089999,234,"160 BEACH STREET, WARRENTON, VA, 20186","Match","Exact","160 BEACH ST, WARRENTON, VA, 20186",146258414,"L"
222735,"160 BEAR COVE RD","MARS HILL","NC",28754,35.8922635660001,-82.551591174,235,"160 BEAR COVE RD, MARS HILL, NC, 28754","Match","Exact","160 BEAR COVE RD, MARS HILL, NC, 28754",608822376,"R"
222736,"160 BEAR LODGE DR","TOWNSEND","TN",37882,35.6564175170001,-83.770023895,236,"160 BEAR LODGE DR, TOWNSEND, TN, 37882","Match","Exact","160 BEAR LODGE DR, TOWNSEND, TN, 37882",89853802,"R"
222737,"160 BEAVER DRIVE","BYRON","GA",31008,32.623366172,-83.8199967159999,237,"160 BEAVER DRIVE, BYRON, GA, 31008","Match","Exact","160 BEAVER DR, BYRON, GA, 31008",93731310,"R"
222738,"160 BEAVER STREET","ANSONIA","CT",6401,41.345891334,-73.071469591,238,"160 BEAVER STREET, ANSONIA, CT, 6401","Match","Exact","160 BEAVER ST, ANSONIA, CT, 06401",3734494,"R"
222739,"160 BEECH TREE TRAIL","KITTY HAWK","NC",27949,36.1247586600001,-75.7370450879999,239,"160 BEECH TREE TRAIL, KITTY HAWK, NC, 27949","Match","Exact","160 BEECH TREE TRL, KITTY HAWK, NC, 27949",81298994,"R"
222740,"160 BEECHCREST DRIVE","JACKSON","MS",39211,32.377647419,-90.1184002909999,240,"160 BEECHCREST DRIVE, JACKSON, MS, 39211","Match","Exact","160 BEECHCREST DR, JACKSON, MS, 39211",65361567,"L"
222741,"160 BELL ST","EXCELSIOR","MN",55331,44.904638533,-93.570646751,241,"160 BELL ST, EXCELSIOR, MN, 55331","Match","Exact","160 BELL ST, EXCELSIOR, MN, 55331",43605241,"R"
222742,"160 BELLERIVE ROAD","SPRINGFIELD","IL",62704,39.7802840910001,-89.705524252,242,"160 BELLERIVE ROAD, SPRINGFIELD, IL, 62704","Match","Exact","160 BELLERIVE RD, SPRINGFIELD, IL, 62704",97320342,"L"
222743,"160 BENT TRAIL DRIVE","SOUTHLAKE","TX",76092,32.924524836,-97.154304456,243,"160 BENT TRAIL DRIVE, SOUTHLAKE, TX, 76092","Match","Exact","160 BENT TRAIL DR, SOUTHLAKE, TX, 76092",102089274,"R"
222744,"160 BERKSHIRE PLACE","IRVINGTON","NJ",7111,40.7162159050001,-74.235762571,244,"160 BERKSHIRE PLACE, IRVINGTON, NJ, 7111","Match","Exact","160 BERKSHIRE PL, IRVINGTON, NJ, 07111",63464761,"R"
222745,"160 BERNHARD HILL LN","EUREKA","MT",59917,NA,NA,245,"160 BERNHARD HILL LN, EUREKA, MT, 59917","No_Match",NA,NA,NA,NA
222746,"160 BETHEL AVE","BERLIN","NJ",8091,39.8057867420001,-74.943196341,246,"160 BETHEL AVE, BERLIN, NJ, 8091","Match","Non_Exact","160 BETHEL AVE, WEST BERLIN, NJ, 08091",134364223,"R"
222747,"160 BETHLEHEM PIKE SUITE 120","COLMAR","PA",18915,40.271097092,-75.256850393,247,"160 BETHLEHEM PIKE SUITE 120, COLMAR, PA, 18915","Match","Exact","160 BETHLEHEM PIKE, COLMAR, PA, 18915",616078968,"R"
222748,"160 BETTY LN","BROOKFIELD","WI",53005,43.0308992600001,-88.125503894,248,"160 BETTY LN, BROOKFIELD, WI, 53005","Match","Exact","160 BETTY LN, BROOKFIELD, WI, 53005",53815823,"L"
222749,"160 BIG OAK CIRCLE","ATHENS","GA",30605,33.923819746,-83.283486911,249,"160 BIG OAK CIRCLE, ATHENS, GA, 30605","Match","Exact","160 BIG OAK CIR, ATHENS, GA, 30605",653444294,"R"
222750,"160 BIRCH HILL DRIVE","ALPHARETTA","GA",30022,NA,NA,250,"160 BIRCH HILL DRIVE, ALPHARETTA, GA, 30022","No_Match",NA,NA,NA,NA
222751,"160 BIRDSALL ST 1145","HOUSTON","TX",77007,29.7622456720001,-95.420084679,251,"160 BIRDSALL ST 1145, HOUSTON, TX, 77007","Match","Exact","160 BIRDSALL ST, HOUSTON, TX, 77007",96060581,"R"
222752,"160 BISHOP DR","WESTWEGO","LA",70094,29.9126078740001,-90.217647415,252,"160 BISHOP DR, WESTWEGO, LA, 70094","Match","Exact","160 BISHOP DR, WESTWEGO, LA, 70094",93496714,"R"
222753,"160 BISHOP WOODS ROAD","MARQUETTE","MI",49855,46.5387521320001,-87.4549219469999,253,"160 BISHOP WOODS ROAD, MARQUETTE, MI, 49855","Match","Exact","160 BISHOP WOODS RD, MARQUETTE, MI, 49855",182055472,"R"
222754,"160 BLACKSPRING RD","MILLEDGEVILLE","GA",31061,NA,NA,254,"160 BLACKSPRING RD, MILLEDGEVILLE, GA, 31061","No_Match",NA,NA,NA,NA
222755,"160 BOERUM ST APT C","BROOKLYN","NY",11206,40.7059375850001,-73.9424093549999,255,"160 BOERUM ST APT C, BROOKLYN, NY, 11206","Match","Exact","160 BOERUM ST, BROOKLYN, NY, 11206",59077283,"R"
222756,"160 BONNIE LN","FAYETTEVILLE","GA",30215,33.4383399380001,-84.430387024,256,"160 BONNIE LN, FAYETTEVILLE, GA, 30215","Match","Exact","160 BONNIE LN, FAYETTEVILLE, GA, 30215",629778410,"L"
222757,"160 BOVET ROAD STE 307","SAN MATEO","CA",94102,37.549978304,-122.316497718,257,"160 BOVET ROAD STE 307, SAN MATEO, CA, 94102","Match","Non_Exact","160 BOVET RD, SAN MATEO, CA, 94402",192379570,"R"
222758,"160 BOWNE ROAD","ATLANTIC HIGHLANDS","NJ",NA,40.3886062300001,-74.0499989859999,258,"160 BOWNE ROAD, ATLANTIC HIGHLANDS, NJ, ","Match","Exact","160 BOWNE RD, ATLANTIC HIGHLANDS, NJ, 07716",90571710,"R"
222759,"160 BOYLSTON ST APT 1105","BROOKLINE","MA",2467,42.3201342740001,-71.175901177,259,"160 BOYLSTON ST APT 1105, BROOKLINE, MA, 2467","Match","Non_Exact","160 BOYLSTON ST, BOSTON COLLEGE, MA, 02467",613846133,"L"
222760,"160 BOYLSTON STREET 2256","CHESTNUT HILL","MA",2467,42.3201342740001,-71.175901177,260,"160 BOYLSTON STREET 2256, CHESTNUT HILL, MA, 2467","Match","Exact","160 BOYLSTON ST, CHESTNUT HILL, MA, 02467",613846133,"L"
222761,"160 BRADDOCK ROAD","WILLIAMSBURG","VA",23185,37.2468896190001,-76.749270946,261,"160 BRADDOCK ROAD, WILLIAMSBURG, VA, 23185","Match","Exact","160 BRADDOCK RD, WILLIAMSBURG, VA, 23185",625828530,"R"
222762,"160 BRADLEY BLVD","RICHLAND","WA",99352,46.265696044,-119.259770042,262,"160 BRADLEY BLVD, RICHLAND, WA, 99352","Match","Exact","160 BRADLEY BLVD, RICHLAND, WA, 99352",628970731,"R"
222763,"160 BRENTWOOD DRIVE","PENFIELD","NY",14526,43.1365331110001,-77.458039954,263,"160 BRENTWOOD DRIVE, PENFIELD, NY, 14526","Match","Exact","160 BRENTWOOD DR, PENFIELD, NY, 14526",14546345,"L"
222764,"160 BRENTWOOD RD","DOUGLAS","GA",31535,31.4657886680001,-82.9101039,264,"160 BRENTWOOD RD, DOUGLAS, GA, 31535","Match","Exact","160 BRENTWOOD RD, DOUGLAS, GA, 31535",625073545,"L"
222765,"160 BRIDGE STREET","WESTBROOK","ME",4092,43.6819235180001,-70.367434218,265,"160 BRIDGE STREET, WESTBROOK, ME, 4092","Match","Exact","160 BRIDGE ST, WESTBROOK, ME, 04092",78023467,"L"
222766,"160 BRIGHT AUTUMN LANE","ROCHESTER","NY",14626,43.2196572870001,-77.710347326,266,"160 BRIGHT AUTUMN LANE, ROCHESTER, NY, 14626","Match","Exact","160 BRIGHT AUTUMN LN, ROCHESTER, NY, 14626",14563726,"L"
222767,"160 BROADWAY STREET APT D7","CLINTON","MS",39056,32.3295412900001,-90.324416508,267,"160 BROADWAY STREET APT D7, CLINTON, MS, 39056","Match","Exact","160 BROADWAY ST, CLINTON, MS, 39056",612880474,"R"
222768,"160 BROOK LANE","CHESHIRE","CT",6410,41.5166860200001,-72.8938796899999,268,"160 BROOK LANE, CHESHIRE, CT, 6410","Match","Exact","160 BROOK LN, CHESHIRE, CT, 06410",3737602,"L"
222769,"160 BROOK STREET","GARDEN CITY","NY",11530,40.727561054,-73.613885691,269,"160 BROOK STREET, GARDEN CITY, NY, 11530","Match","Exact","160 BROOK ST, GARDEN CITY, NY, 11530",147627437,"R"
222770,"160 BROYLES RD","HENDERSONVILLE","NC",28791,35.3392549390001,-82.5288484709999,270,"160 BROYLES RD, HENDERSONVILLE, NC, 28791","Match","Exact","160 BROYLES RD, HENDERSONVILLE, NC, 28791",152283299,"R"
222771,"160 BRUNSWICK AVE EAST","HOLDEN BEACH","NC",28462,33.915458535,-78.2625379099999,271,"160 BRUNSWICK AVE EAST, HOLDEN BEACH, NC, 28462","Match","Exact","160 BRUNSWICK AVE E, HOLDEN BEACH, NC, 28462",153179982,"L"
222772,"160 BRUNSWICK QUAY","SE16 7PT LONDON",NA,NA,NA,NA,272,"160 BRUNSWICK QUAY, SE16 7PT LONDON, , ","No_Match",NA,NA,NA,NA
222773,"160 BURDICK ROAD","GLOVERSVILLE","NY",12078,43.080618886,-74.3869932919999,273,"160 BURDICK ROAD, GLOVERSVILLE, NY, 12078","Match","Exact","160 BURDICK RD, GLOVERSVILLE, NY, 12078",153647145,"R"
222774,"160 BURNS ROAD","ELYRIA","OH",44035,41.4094954760001,-82.080639441,274,"160 BURNS ROAD, ELYRIA, OH, 44035","Match","Exact","160 BURNS RD, ELYRIA, OH, 44035",55431443,"L"
222775,"160 BURTON STREET","ASHEVILLE","NC",28806,35.5838481160001,-82.5846551769999,275,"160 BURTON STREET, ASHEVILLE, NC, 28806","Match","Exact","160 BURTON ST, ASHEVILLE, NC, 28806",36842202,"L"
222776,"160 BUSH ST","BRONX","NY",10453,40.851796838,-73.9048873789999,276,"160 BUSH ST, BRONX, NY, 10453","Match","Exact","160 BUSH ST, BRONX, NY, 10453",640810939,"R"
222777,"160 C ST APT 212","BRAWLEY","CA",92227,32.9819565270001,-115.54032733,277,"160 C ST APT 212, BRAWLEY, CA, 92227","Match","Exact","160 C ST, BRAWLEY, CA, 92227",194488045,"L"
222778,"160 CAMBRIDGE PARK UNIT 223","CAMBRIDGE","MA",2140,42.394988729,-71.1467558369999,278,"160 CAMBRIDGE PARK UNIT 223, CAMBRIDGE, MA, 2140","Match","Non_Exact","160 CAMBRIDGE PARK DR, CAMBRIDGE, MA, 02140",650123460,"L"
222779,"160 CAMBRIDGEPARK DRIVE NO 241","CAMBRIDGE","MA",2140,42.394988729,-71.1467558369999,279,"160 CAMBRIDGEPARK DRIVE NO 241, CAMBRIDGE, MA, 2140","Match","Non_Exact","160 CAMBRIDGEPARK DR, CAMBRIDGE, MA, 02140",650123460,"L"
222780,"160 CAMBRIDGEPARK DRIVE NO 544","CAMBRIDGE","MA",2140,42.394988729,-71.1467558369999,280,"160 CAMBRIDGEPARK DRIVE NO 544, CAMBRIDGE, MA, 2140","Match","Non_Exact","160 CAMBRIDGEPARK DR, CAMBRIDGE, MA, 02140",650123460,"L"
222781,"160 CAMELOT DR","FAYETTEVILLE","GA",30214,33.4827042650001,-84.4907010109999,281,"160 CAMELOT DR, FAYETTEVILLE, GA, 30214","Match","Non_Exact","160 E CAMELOT DR, FAYETTEVILLE, GA, 30214",75949777,"L"
222782,"160 CANNERY RIDGE LN","CROSS JUNCTION","VA",22625,39.322192,-78.2958820219999,282,"160 CANNERY RIDGE LN, CROSS JUNCTION, VA, 22625","Match","Exact","160 CANNERY RIDGE LN, CROSS JCT, VA, 22625",617907591,"R"
222783,"160 CANTERBURY ROAD","BLOOMFIELD HILLS","MI",48304,42.574215617,-83.231563202,283,"160 CANTERBURY ROAD, BLOOMFIELD HILLS, MI, 48304","Match","Exact","160 CANTERBURY RD, BLOOMFIELD HILLS, MI, 48304",69777835,"R"
222784,"160 CAROL CANYON DR","SEDONA","AZ",86336,34.8600695600001,-111.810144185,284,"160 CAROL CANYON DR, SEDONA, AZ, 86336","Match","Exact","160 CAROL CANYON DR, SEDONA, AZ, 86336",159474011,"R"
222785,"160 CARTBODY RD","CARROLLTON","GA",30116,33.514816727,-85.016763791,285,"160 CARTBODY RD, CARROLLTON, GA, 30116","Match","Exact","160 CARTBODY RD, CARROLLTON, GA, 30116",17114551,"R"
222786,"160 CASTLE DRIVE","MADISON","AL",35758,34.7514586550001,-86.7130785109999,286,"160 CASTLE DRIVE, MADISON, AL, 35758","Match","Exact","160 CASTLE DR, MADISON, AL, 35758",638470294,"R"
222787,"160 CASTLE HEIGHTS AVENUE","PENNSVILLE","NJ",8070,39.6486699980001,-75.522018002,287,"160 CASTLE HEIGHTS AVENUE, PENNSVILLE, NJ, 8070","Match","Exact","160 CASTLE HEIGHTS AVE, PENNSVILLE, NJ, 08070",174423101,"L"
222788,"160 CATTLE DRIVE","MCVEYTOWN","PA",17051,NA,NA,288,"160 CATTLE DRIVE, MCVEYTOWN, PA, 17051","No_Match",NA,NA,NA,NA
222789,"160 CAVALIER DRIVE","HARPERS FERRY","WV",25425,39.3199319330001,-77.7540462159999,289,"160 CAVALIER DRIVE, HARPERS FERRY, WV, 25425","Match","Exact","160 CAVALIER DR, HARPERS FERRY, WV, 25425",636677106,"L"
222790,"160 CEDAR CREST COURT","REIDSVILLE","NC",27320,36.2789870130001,-79.769001378,290,"160 CEDAR CREST COURT, REIDSVILLE, NC, 27320","Match","Exact","160 CEDAR CREST CT, REIDSVILLE, NC, 27320",56229664,"R"
222791,"160 CEDAR RIDGE DR","WETUMPKA","AL",36093,32.4692034660001,-86.103339779,291,"160 CEDAR RIDGE DR, WETUMPKA, AL, 36093","Match","Exact","160 CEDAR RIDGE DR, WETUMPKA, AL, 36093",635342949,"R"
222792,"160 CEDAR STREET","AUBURN","CA",95603,38.8971439850001,-121.081858341,292,"160 CEDAR STREET, AUBURN, CA, 95603","Match","Exact","160 CEDAR ST, AUBURN, CA, 95603",106771994,"R"
222793,"160 CENTENNIAL TRACE","ROSWELL","GA",30076,34.0105790110001,-84.2976701279999,293,"160 CENTENNIAL TRACE, ROSWELL, GA, 30076","Match","Exact","160 CENTENNIAL TRCE, ROSWELL, GA, 30076",17405277,"R"
222794,"160 CENTER ST","CLIFTON","NJ",7011,40.8739188750001,-74.129738753,294,"160 CENTER ST, CLIFTON, NJ, 7011","Match","Exact","160 CENTER ST, CLIFTON, NJ, 07011",641256996,"R"
222795,"160 CENTURY COURT","WYTHEVILLE","VA",24382,36.9488572870001,-81.103467892,295,"160 CENTURY COURT, WYTHEVILLE, VA, 24382","Match","Exact","160 CENTURY CT, WYTHEVILLE, VA, 24382",47641727,"L"
222796,"160 CENTURY HILL DRIVE","OREGON","IL",61061,42.016490091,-89.351559257,296,"160 CENTURY HILL DRIVE, OREGON, IL, 61061","Match","Exact","160 CENTURY HILL DR, OREGON, IL, 61061",52330515,"R"
222797,"160 CHAPEL ROAD","MANCHESTER","CT",6042,NA,NA,297,"160 CHAPEL ROAD, MANCHESTER, CT, 6042","No_Match",NA,NA,NA,NA
222798,"160 CHARLOTTE STREET","WATERBURY","CT",6704,41.5749088910001,-73.036300511,298,"160 CHARLOTTE STREET, WATERBURY, CT, 6704","Match","Exact","160 CHARLOTTE ST, WATERBURY, CT, 06704",3727190,"R"
222799,"160 CHEROHALA COURT","COVINGTON","GA",30016,33.5995447180001,-83.9378895469999,299,"160 CHEROHALA COURT, COVINGTON, GA, 30016","Match","Exact","160 CHEROHALA CT, COVINGTON, GA, 30016",618464060,"R"
222800,"160 CHEROKEE HL","CANTON","GA",30115,34.179483415,-84.401176694,300,"160 CHEROKEE HL, CANTON, GA, 30115","Match","Exact","160 CHEROKEE HILL, CANTON, GA, 30115",68857819,"R"
222801,"160 CHESTNUT STREET","CAMDEN","ME",4843,44.196772487,-69.0602288169999,301,"160 CHESTNUT STREET, CAMDEN, ME, 4843","Match","Exact","160 CHESTNUT ST, CAMDEN, ME, 04843",75560092,"R"
222802,"160 CHESTNUT","SEVEN HILLS","OH",44131,41.384341083,-81.6837530509999,302,"160 CHESTNUT, SEVEN HILLS, OH, 44131","Match","Non_Exact","160 CHESTNUT RD, SEVEN HILLS, OH, 44131",61117630,"R"
222803,"160 CHOPTACK RD","ROGERSVILLE","TN",37857,36.4076277360001,-83.115169732,303,"160 CHOPTACK RD, ROGERSVILLE, TN, 37857","Match","Exact","160 CHOPTACK RD, ROGERSVILLE, TN, 37857",636662075,"L"
222804,"160 CINNAMON COVE DRIVE APT 103","MELBOURNE","FL",32901,NA,NA,304,"160 CINNAMON COVE DRIVE APT 103, MELBOURNE, FL, 32901","No_Match",NA,NA,NA,NA
222805,"160 CIRUS ST","PEARISBURG","VA",24134,37.332281166,-80.748777037,305,"160 CIRUS ST, PEARISBURG, VA, 24134","Match","Exact","160 CIRUS ST, PEARISBURG, VA, 24134",46979255,"L"
222806,"160 CITRUS RD","RIVER RIDGE","LA",70123,29.952964336,-90.2168983619999,306,"160 CITRUS RD, RIVER RIDGE, LA, 70123","Match","Exact","160 CITRUS RD, RIVER RIDGE, LA, 70123",635863831,"L"
222807,"160 CITRUS ROAD","RIVER RIDGE","LA",70123,29.952964336,-90.2168983619999,307,"160 CITRUS ROAD, RIVER RIDGE, LA, 70123","Match","Exact","160 CITRUS RD, RIVER RIDGE, LA, 70123",635863831,"L"
222808,"160 CLAIREMONT AVENUE SUITE 160","DECATUR","GA",30030,33.776970013,-84.296510341,308,"160 CLAIREMONT AVENUE SUITE 160, DECATUR, GA, 30030","Match","Exact","160 CLAIREMONT AVE, DECATUR, GA, 30030",23367094,"L"
222809,"160 CLAREMONT DRIVE","COVINGTON","GA",30016,33.566131683,-83.930858429,309,"160 CLAREMONT DRIVE, COVINGTON, GA, 30016","Match","Exact","160 CLAREMONT DR, COVINGTON, GA, 30016",23626914,"R"
222810,"160 CLARENDON ST","ORANGEBURG","SC",29115,33.494837401,-80.847434189,310,"160 CLARENDON ST, ORANGEBURG, SC, 29115","Match","Non_Exact","160 CLARENDON ST SE, ORANGEBURG, SC, 29115",19217344,"L"
222811,"160 CLEARVIEW ROAD","CHARLESTOWN","RI",2813,41.3606837580001,-71.678159735,311,"160 CLEARVIEW ROAD, CHARLESTOWN, RI, 2813","Match","Exact","160 CLEARVIEW RD, CHARLESTOWN, RI, 02813",58898030,"L"
222812,"160 CLEVELAND ST","WOODBURN","OR",97071,NA,NA,312,"160 CLEVELAND ST, WOODBURN, OR, 97071","Tie",NA,NA,NA,NA
222813,"160 CLIVEDEN AVENUE","GLENSIDE","PA",19038,40.105401059,-75.156130257,313,"160 CLIVEDEN AVENUE, GLENSIDE, PA, 19038","Match","Exact","160 CLIVEDEN AVE, GLENSIDE, PA, 19038",135092280,"L"
222814,"160 CNOKLIN AVE","WHIETLY HIGHTS","NY",11798,NA,NA,314,"160 CNOKLIN AVE, WHIETLY HIGHTS, NY, 11798","No_Match",NA,NA,NA,NA
222815,"160 COCHITUATE ROAD","FRAMINGHAM","MA",1701,42.3009118300001,-71.4076687,315,"160 COCHITUATE ROAD, FRAMINGHAM, MA, 1701","Match","Exact","160 COCHITUATE RD, FRAMINGHAM, MA, 01701",86848339,"L"
222816,"160 COLUMBUS ROAD","MOUNT VERNON","OH",43050,40.3799919620001,-82.494947788,316,"160 COLUMBUS ROAD, MOUNT VERNON, OH, 43050","Match","Exact","160 COLUMBUS RD, MOUNT VERNON, OH, 43050",24658622,"L"
222817,"160 COMANCHE ST APT 18","MONTEVALLO","AL",35115,33.1090718360001,-86.8495623589999,317,"160 COMANCHE ST APT 18, MONTEVALLO, AL, 35115","Match","Exact","160 COMANCHE ST, MONTEVALLO, AL, 35115",82125890,"R"
222818,"160 COMMONWEALTH AVE NO 313","BOSTON","MA",2116,42.3516092690001,-71.0784190689999,318,"160 COMMONWEALTH AVE NO 313, BOSTON, MA, 2116","Match","Non_Exact","160 COMMONWEALTH AVE, BOSTON, MA, 02116",85697634,"L"
222819,"160 CONCORD ST B26","NASHUA","NH",3064,42.7887749970001,-71.4688690849999,319,"160 CONCORD ST B26, NASHUA, NH, 3064","Match","Exact","160 CONCORD ST, NASHUA, NH, 03064",650014132,"L"
222820,"160 CONGRESS PARK DR 116","DELRAY BEACH","FL",33445,26.4560167560001,-80.094034247,320,"160 CONGRESS PARK DR 116, DELRAY BEACH, FL, 33445","Match","Exact","160 CONGRESS PARK DR, DELRAY BEACH, FL, 33445",115290844,"L"
222821,"160 CONSTITUTION AVE","WALLINGFORD","CT",6492,41.451744412,-72.8021837429999,321,"160 CONSTITUTION AVE, WALLINGFORD, CT, 6492","Match","Non_Exact","160 CONSTITUTION ST, WALLINGFORD, CT, 06492",3721923,"L"
222822,"160 CONVENT AVENUE MARSHAK 052","NEW YORK","NY",10031,40.818619239,-73.950642739,322,"160 CONVENT AVENUE MARSHAK 052, NEW YORK, NY, 10031","Match","Exact","160 CONVENT AVE, NEW YORK, NY, 10031",59664777,"L"
222823,"160 CORBIN ROAD","HAMDEN","CT",6517,41.349140848,-72.898564601,323,"160 CORBIN ROAD, HAMDEN, CT, 6517","Match","Exact","160 CORBIN RD, HAMDEN, CT, 06517",3702704,"L"
222824,"160 CORSON ST APT 232","PASADENA","CA",91103,34.151271926,-118.147576322,324,"160 CORSON ST APT 232, PASADENA, CA, 91103","Match","Exact","160 CORSON ST, PASADENA, CA, 91103",647485895,"R"
222825,"160 COUNTRY CLUB BLVD","WARREN","OH",44484,NA,NA,325,"160 COUNTRY CLUB BLVD, WARREN, OH, 44484","No_Match",NA,NA,NA,NA
222826,"160 COUNTRY CLUB DR","DAPHNE","AL",36526,30.6444095590001,-87.903538074,326,"160 COUNTRY CLUB DR, DAPHNE, AL, 36526","Match","Exact","160 COUNTRY CLUB DR, DAPHNE, AL, 36526",131648380,"R"
222827,"160 COUNTRY PLACE LANE","HOPKINS","SC",29061,33.858665757,-80.874092264,327,"160 COUNTRY PLACE LANE, HOPKINS, SC, 29061","Match","Exact","160 COUNTRY PLACE LN, HOPKINS, SC, 29061",71860594,"L"
222828,"160 COUNTRY ROAD 113","SANTA FE","NM",87506,35.9226835310001,-105.983682503,328,"160 COUNTRY ROAD 113, SANTA FE, NM, 87506","Match","Non_Exact","160 CO RD 113, SANTA FE, NM, 87506",169399544,"R"
222829,"160 COUNTY RD 4038","CHILTON","TX",76632,31.2660925870001,-96.986804266,329,"160 COUNTY RD 4038, CHILTON, TX, 76632","Match","Exact","160 CO RD 4038, CHILTON, TX, 76632",24840524,"R"
222830,"160 COUNTY ROAD 255","GEORGETOWN","TX",78633,30.7114574560001,-97.860568369,330,"160 COUNTY ROAD 255, GEORGETOWN, TX, 78633","Match","Exact","160 CO RD 255, GEORGETOWN, TX, 78633",126414859,"R"
222831,"160 COUNTY ROAD 316","JONESBORO","AR",72401,35.8830328020001,-90.745297663,331,"160 COUNTY ROAD 316, JONESBORO, AR, 72401","Match","Exact","160 CO RD 316, JONESBORO, AR, 72401",46930110,"R"
222832,"160 COUNTY ROAD 4038","CHILTON","TX",76632,31.2660925870001,-96.986804266,332,"160 COUNTY ROAD 4038, CHILTON, TX, 76632","Match","Exact","160 CO RD 4038, CHILTON, TX, 76632",24840524,"R"
222833,"160 COUNTY ROAD 577","H","AL",35077,34.076841464,-86.8254113789999,333,"160 COUNTY ROAD 577, H, AL, 35077","Match","Non_Exact","160 CO RD 577, HANCEVILLE, AL, 35077",130254528,"R"
222834,"160 COUNTY ROAD 730","RICEVILLE","TN",37370,35.3378111860001,-84.7166546029999,334,"160 COUNTY ROAD 730, RICEVILLE, TN, 37370","Match","Exact","160 CO RD 730, RICEVILLE, TN, 37370",88551353,"L"
222835,"160 COUNTY ROAD","MOUNT OLIVE","NC",28365,35.1836277400001,-78.074849183,335,"160 COUNTY ROAD, MOUNT OLIVE, NC, 28365","Match","Exact","160 COUNTY RD, MOUNT OLIVE, NC, 28365",14414517,"R"
222836,"160 COUNTY ROAD4038","CHILTON","TX",76632,31.2660925870001,-96.986804266,336,"160 COUNTY ROAD4038, CHILTON, TX, 76632","Match","Exact","160 CO RD 4038, CHILTON, TX, 76632",24840524,"R"
222837,"160 COVINGTON ROAD","PHILADELPHIA","PA",19120,40.0506222230001,-75.119380652,337,"160 COVINGTON ROAD, PHILADELPHIA, PA, 19120","Match","Exact","160 COVINGTON RD, PHILADELPHIA, PA, 19120",131414465,"L"
222838,"160 CR223","FLORENCE","TX",76527,30.804903639,-97.851293297,338,"160 CR223, FLORENCE, TX, 76527","Match","Exact","160 CO RD 223, FLORENCE, TX, 76527",126493549,"R"
222839,"160 CREEKVIEW BLVD","COVINGTON","GA",39916,33.593457771,-83.958705803,339,"160 CREEKVIEW BLVD, COVINGTON, GA, 39916","Match","Non_Exact","160 CREEKVIEW BLVD, COVINGTON, GA, 30016",23637664,"R"
222840,"160 CROSSWINDS DRIVE","LITTLESTOWN","PA",17340,39.753107637,-77.117846168,340,"160 CROSSWINDS DRIVE, LITTLESTOWN, PA, 17340","Match","Non_Exact","160 CROSSWIND DR, LITTLESTOWN, PA, 17340",651772479,"L"
222841,"160 CROWN STREET","BROOKLYN","NY",11225,40.666511776,-73.954960593,341,"160 CROWN STREET, BROOKLYN, NY, 11225","Match","Exact","160 CROWN ST, BROOKLYN, NY, 11225",59079387,"R"
222842,"160 CURLY OAKS DR","CLYDE","NC",28721,35.5215786110001,-82.908182384,342,"160 CURLY OAKS DR, CLYDE, NC, 28721","Match","Exact","160 CURLY OAKS DR, CLYDE, NC, 28721",151821347,"R"
222843,"160 CUTHBERT FARM RD","SHELDON","SC",29941,NA,NA,343,"160 CUTHBERT FARM RD, SHELDON, SC, 29941","No_Match",NA,NA,NA,NA
222844,"160 DARLINGTON RD","SYRACUSE","NY",13208,43.073789934,-76.136293501,344,"160 DARLINGTON RD, SYRACUSE, NY, 13208","Match","Exact","160 DARLINGTON RD, SYRACUSE, NY, 13208",46569527,"R"
222845,"160 DARLINGTON ROAD","SYRACUSE","NY",13208,43.073789934,-76.136293501,345,"160 DARLINGTON ROAD, SYRACUSE, NY, 13208","Match","Exact","160 DARLINGTON RD, SYRACUSE, NY, 13208",46569527,"R"
222846,"160 DAVENPORT FARM LANE SOUTH","STAMFORD","CT",6903,41.1267977000001,-73.530258821,346,"160 DAVENPORT FARM LANE SOUTH, STAMFORD, CT, 6903","Match","Exact","160 DAVENPORT FARM LN S, STAMFORD, CT, 06903",617657109,"R"
222847,"160 DEER DRIVE","SILVER LAKE","NH",3875,43.9050236300001,-71.1827952789999,347,"160 DEER DRIVE, SILVER LAKE, NH, 3875","Match","Exact","160 DEER DR, SILVER LAKE, NH, 03875",145619976,"R"
222848,"160 DEER POINT ROAD","OLGA","WA",98279,48.609645062,-122.812576789,348,"160 DEER POINT ROAD, OLGA, WA, 98279","Match","Exact","160 DEER POINT RD, OLGA, WA, 98279",647322278,"L"
222849,"160 DELGADO CT","VALLEJO","CA",94591,38.1154026450001,-122.220106918,349,"160 DELGADO CT, VALLEJO, CA, 94591","Match","Exact","160 DELGADO CT, VALLEJO, CA, 94591",192528538,"L"
222850,"160 DENNY WAY","EL CAJON","CA",92020,32.820552935,-116.963243176,350,"160 DENNY WAY, EL CAJON, CA, 92020","Match","Exact","160 DENNY WAY, EL CAJON, CA, 92020",195327898,"R"
222851,"160 DEWEY AVE","ALBERTSON","NY",11507,40.7636822470001,-73.653231491,351,"160 DEWEY AVE, ALBERTSON, NY, 11507","Match","Exact","160 DEWEY AVE, ALBERTSON, NY, 11507",147663386,"R"
222852,"160 DONNER AVE","ROSEVILLE","CA",95678,38.7469264630001,-121.278136796,352,"160 DONNER AVE, ROSEVILLE, CA, 95678","Match","Exact","160 DONNER AVE, ROSEVILLE, CA, 95678",106764900,"R"
222853,"160 DOWNY BROOK LN","FAYETTEVILLE","GA",30215,33.409130927,-84.4164709469999,353,"160 DOWNY BROOK LN, FAYETTEVILLE, GA, 30215","Match","Non_Exact","160 DOWNYBROOK LN, FAYETTEVILLE, GA, 30215",75928660,"R"
222854,"160 E 22ND ST APT 17B","NEW YORK","NY",10010,40.7383977050001,-73.984194031,354,"160 E 22ND ST APT 17B, NEW YORK, NY, 10010","Match","Non_Exact","160 E 22ND ST, NEW YORK, NY, 10010",640421938,"R"
222855,"160 E 3RD ST","NEW YORK","NY",10009,40.723420537,-73.984754696,355,"160 E 3RD ST, NEW YORK, NY, 10009","Match","Exact","160 E 3RD ST, NEW YORK, NY, 10009",59654075,"R"
222856,"160 E 3RD STREET APT 61","NEW YORK","NY",10009,40.723420537,-73.984754696,356,"160 E 3RD STREET APT 61, NEW YORK, NY, 10009","Match","Non_Exact","160 E 3RD ST, NEW YORK, NY, 10009",59654075,"R"
222857,"160 E 400 N","BOULDER","UT",84716,NA,NA,357,"160 E 400 N, BOULDER, UT, 84716","No_Match",NA,NA,NA,NA
222858,"160 E 49TH","EUGENE","OR",97405,44.00402139,-123.092429133,358,"160 E 49TH, EUGENE, OR, 97405","Match","Non_Exact","160 E 49TH AVE, EUGENE, OR, 97405",178211894,"R"
222859,"160 E 55TH ST","NEW YORK","NY",10022,40.759311321,-73.96934301,359,"160 E 55TH ST, NEW YORK, NY, 10022","Match","Exact","160 E 55TH ST, NEW YORK, NY, 10022",59657484,"R"
222860,"160 E 62 ST","HIALEAH","FL",33013,25.878761936,-80.279892874,360,"160 E 62 ST, HIALEAH, FL, 33013","Match","Exact","160 E 62ND ST, HIALEAH, FL, 33013",116031975,"R"
222861,"160 E 65 STREET 8E","NEW YOKR","NY",10065,NA,NA,361,"160 E 65 STREET 8E, NEW YOKR, NY, 10065","No_Match",NA,NA,NA,NA
222862,"160 E 84TH ST 18A","NEW YORK","NY",10028,40.777949075,-73.956005427,362,"160 E 84TH ST 18A, NEW YORK, NY, 10028","Match","Non_Exact","160 E 84TH ST, NEW YORK, NY, 10028",59658259,"R"
222863,"160 E 97TH ST","NEW YORK","NY",10029,40.7863713400001,-73.950032849,363,"160 E 97TH ST, NEW YORK, NY, 10029","Match","Exact","160 E 97TH ST, NEW YORK, NY, 10029",638988364,"R"
222864,"160 E ADAMS ST","MANTENO","IL",60950,41.246691662,-87.832120505,364,"160 E ADAMS ST, MANTENO, IL, 60950","Match","Exact","160 E ADAMS ST, MANTENO, IL, 60950",98363634,"R"
222865,"160 E BOOKER AVE","WYANDANCH","NY",11798,40.7396557320001,-73.3583631129999,365,"160 E BOOKER AVE, WYANDANCH, NY, 11798","Match","Exact","160 E BOOKER AVE, WYANDANCH, NY, 11798",113974974,"R"
222866,"160 E CLAIBORNE ST","MONROEVILLE","AL",36460,NA,NA,366,"160 E CLAIBORNE ST, MONROEVILLE, AL, 36460","No_Match",NA,NA,NA,NA
222867,"160 E FRONT STREET","ERIE","PA",16507,NA,NA,367,"160 E FRONT STREET, ERIE, PA, 16507","Tie",NA,NA,NA,NA
222868,"160 E HARNEY RD","ESKO","MN",55733,46.721513782,-92.3310520809999,368,"160 E HARNEY RD, ESKO, MN, 55733","Match","Exact","160 E HARNEY RD, ESKO, MN, 55733",612105974,"R"
222869,"160 E MAUMEE ST APT 6","ADRIAN","MI",49221,NA,NA,369,"160 E MAUMEE ST APT 6, ADRIAN, MI, 49221","Tie",NA,NA,NA,NA
222870,"160 E ORCHARD","DELTON","MI",49046,42.4998663210001,-85.406574538,370,"160 E ORCHARD, DELTON, MI, 49046","Match","Non_Exact","160 E ORCHARD ST, DELTON, MI, 49046",10509788,"L"
222871,"160 E PINE ST","LONG BEACH","NY",11561,40.592292264,-73.658433798,371,"160 E PINE ST, LONG BEACH, NY, 11561","Match","Exact","160 E PINE ST, LONG BEACH, NY, 11561",147842781,"R"
222872,"160 E QUEEN ANNE DR","CHULA VISTA","CA",91911,32.616351916,-117.049179648,372,"160 E QUEEN ANNE DR, CHULA VISTA, CA, 91911","Match","Exact","160 E QUEEN ANNE DR, CHULA VISTA, CA, 91911",195357327,"R"
222873,"160 E STATE ST APT 1","PLEASANTVILLE","PA",16341,NA,NA,373,"160 E STATE ST APT 1, PLEASANTVILLE, PA, 16341","Tie",NA,NA,NA,NA
222874,"160 E VISTA MILL DR","LEWISVILLE","TX",75067,NA,NA,374,"160 E VISTA MILL DR, LEWISVILLE, TX, 75067","No_Match",NA,NA,NA,NA
222875,"160 E VISTA RIDGE CIRCLE","LEWISVILLE","TX",75067,NA,NA,375,"160 E VISTA RIDGE CIRCLE, LEWISVILLE, TX, 75067","No_Match",NA,NA,NA,NA
222876,"160 E WANDERING STAR","SHELTON","WA",98584,NA,NA,376,"160 E WANDERING STAR, SHELTON, WA, 98584","No_Match",NA,NA,NA,NA
222877,"160 EAGLE CHASE LANE","TROUTMAN","NC",28166,35.6579406170001,-80.93465415,377,"160 EAGLE CHASE LANE, TROUTMAN, NC, 28166","Match","Exact","160 EAGLE CHASE LN, TROUTMAN, NC, 28166",46011393,"R"
222878,"160 EAST 100 SOUTH","ORANGEVILLE","UT",84537,39.226363604,-111.05017446,378,"160 EAST 100 SOUTH, ORANGEVILLE, UT, 84537","Match","Exact","160 E 100 S, ORANGEVILLE, UT, 84537",133669531,"L"
222879,"160 EAST 200 SOUTH","HEBER CITY","UT",84032,40.504992815,-111.410651399,379,"160 EAST 200 SOUTH, HEBER CITY, UT, 84032","Match","Exact","160 E 200 S, HEBER CITY, UT, 84032",177184150,"L"
222880,"160 EAST 38TH STREET 32A","NEW YORK","NY",10016,40.7486562130001,-73.977267733,380,"160 EAST 38TH STREET 32A, NEW YORK, NY, 10016","Match","Exact","160 E 38TH ST, NEW YORK, NY, 10016",59654434,"R"
222881,"160 EAST 38TH STREET","NEW YORK","NY",10016,40.7486562130001,-73.977267733,381,"160 EAST 38TH STREET, NEW YORK, NY, 10016","Match","Exact","160 E 38TH ST, NEW YORK, NY, 10016",59654434,"R"
222882,"160 EAST 3RD STREET 6E","NEW YORK","NY",10009,40.72342559,-73.984766714,382,"160 EAST 3RD STREET 6E, NEW YORK, NY, 10009","Match","Exact","160 E 3RD ST, NEW YORK, NY, 10009",59654075,"R"
222883,"160 EAST 7TH STREET","CHESTER","PA",19013,39.85152637,-75.358733966,383,"160 EAST 7TH STREET, CHESTER, PA, 19013","Match","Exact","160 E 7TH ST, CHESTER, PA, 19013",134881825,"L"
222884,"160 EAST 84TH ST SUITE 18A","NEW YORK","NY",10028,40.777955579,-73.956020743,384,"160 EAST 84TH ST SUITE 18A, NEW YORK, NY, 10028","Match","Exact","160 E 84TH ST, NEW YORK, NY, 10028",59658259,"R"
222885,"160 EAST 88TH STREET  APT11BC","NEW YORK","NY",10128,40.7805751560001,-73.954107245,385,"160 EAST 88TH STREET  APT11BC, NEW YORK, NY, 10128","Match","Exact","160 E 88TH ST, NEW YORK, NY, 10128",59658281,"R"
222886,"160 EAST 91 ST NO 6F","NEW YORK","NY",10128,NA,NA,386,"160 EAST 91 ST NO 6F, NEW YORK, NY, 10128","No_Match",NA,NA,NA,NA
222887,"160 EAST 97TH ST UNIT 4D","NEW YORK","NY",10029,NA,NA,387,"160 EAST 97TH ST UNIT 4D, NEW YORK, NY, 10029","No_Match",NA,NA,NA,NA
222888,"160 EAST COACHMAN PLACE","MUTTONTOWN","NY",11791,NA,NA,388,"160 EAST COACHMAN PLACE, MUTTONTOWN, NY, 11791","No_Match",NA,NA,NA,NA
222889,"160 EAST DOE RUN ROAD","KENNETT SQUARE","PA",19348,39.8864968440001,-75.710719964,389,"160 EAST DOE RUN ROAD, KENNETT SQUARE, PA, 19348","Match","Exact","160 E DOE RUN RD, KENNETT SQUARE, PA, 19348",624042536,"L"
222890,"160 EAST HIGHLAND AVE / SUITE A","SIERRA MADRE","CA",91024,34.1643470590001,-118.048834923,390,"160 EAST HIGHLAND AVE / SUITE A, SIERRA MADRE, CA, 91024","Match","Exact","160 E HIGHLAND AVE, SIERRA MADRE, CA, 91024",142741068,"R"
222891,"160 EAST JOHNNY S TAITAGUE STREET","TALOFOFO","GU",96915,NA,NA,391,"160 EAST JOHNNY S TAITAGUE STREET, TALOFOFO, GU, 96915","No_Match",NA,NA,NA,NA
222892,"160 EAST MAIN ST","GEORGETOWN","KY",40324,38.209879277,-84.5585409509999,392,"160 EAST MAIN ST, GEORGETOWN, KY, 40324","Match","Exact","160 E MAIN ST, GEORGETOWN, KY, 40324",41232122,"L"
222893,"160 EAST MAUDE","MENDENHALL","MS",39114,NA,NA,393,"160 EAST MAUDE, MENDENHALL, MS, 39114","No_Match",NA,NA,NA,NA
222894,"160 EASY STREET","HARWICH","MA",2645,41.7054476260001,-70.121341034,394,"160 EASY STREET, HARWICH, MA, 2645","Match","Exact","160 EASY ST, HARWICH, MA, 02645",613293297,"L"
222895,"160 EDWARD DRIVE","MILLEN","GA",30442,32.810097947,-81.9805622379999,395,"160 EDWARD DRIVE, MILLEN, GA, 30442","Match","Exact","160 EDWARD DR, MILLEN, GA, 30442",17970010,"L"
222896,"160 ELBERTA COVE","ROSWELL","GA",30075,34.0487276170001,-84.367148335,396,"160 ELBERTA COVE, ROSWELL, GA, 30075","Match","Exact","160 ELBERTA COVE, ROSWELL, GA, 30075",17351831,"R"
222897,"160 ELK TRAIL","CLANCY","MT",59634,NA,NA,397,"160 ELK TRAIL, CLANCY, MT, 59634","No_Match",NA,NA,NA,NA
222898,"160 ELLENDALE LANE NW","ATLANTA","GA",30318,33.7592331970001,-84.466354084,398,"160 ELLENDALE LANE NW, ATLANTA, GA, 30318","Match","Exact","160 ELLENDALE LN NW, ATLANTA, GA, 30318",17339814,"L"
222899,"160 ELM ST","GREENFIELD","MA",1301,42.596692633,-72.611180969,399,"160 ELM ST, GREENFIELD, MA, 1301","Match","Exact","160 ELM ST, GREENFIELD, MA, 01301",636981666,"L"
222900,"160 ELM STREET","SOMERVILLE","MA",2145,NA,NA,400,"160 ELM STREET, SOMERVILLE, MA, 2145","No_Match",NA,NA,NA,NA
222901,"160 ELVIE CT","AVONDALE","LA",70094,29.898857994,-90.2097048319999,401,"160 ELVIE CT, AVONDALE, LA, 70094","Match","Exact","160 ELVIE CT, AVONDALE, LA, 70094",93505018,"L"
222902,"160 ESEVERRI LANE","LA HABRA HEIGHTS","CA",90631,33.9479390920001,-117.962668986,402,"160 ESEVERRI LANE, LA HABRA HEIGHTS, CA, 90631","Match","Exact","160 ESEVERRI LN, LA HABRA HEIGHTS, CA, 90631",142800948,"R"
222903,"160 EVERGREEN RD","BROCKPORT","NY",14420,43.2173582130001,-77.948324299,403,"160 EVERGREEN RD, BROCKPORT, NY, 14420","Match","Exact","160 EVERGREEN RD, BROCKPORT, NY, 14420",14560607,"R"
222904,"160 EVERHART RD","MOCKSVILLE","NC",27028,35.877511629,-80.473898795,404,"160 EVERHART RD, MOCKSVILLE, NC, 27028","Match","Exact","160 EVERHART RD, MOCKSVILLE, NC, 27028",84586332,"L"
222905,"160 EXCHAGE ST","ASHLAND","ME",4732,NA,NA,405,"160 EXCHAGE ST, ASHLAND, ME, 4732","No_Match",NA,NA,NA,NA
222906,"160 FAIRBANKS","SACRAMENTO","CA",95838,38.6259926930001,-121.46340864,406,"160 FAIRBANKS, SACRAMENTO, CA, 95838","Match","Non_Exact","160 FAIRBANKS AVE, SACRAMENTO, CA, 95838",133320983,"R"
222907,"160 FAIRFIELD DR","ROMEOVILLE","IL",60446,41.618457607,-88.1559233099999,407,"160 FAIRFIELD DR, ROMEOVILLE, IL, 60446","Match","Exact","160 FAIRFIELD DR, ROMEOVILLE, IL, 60446",111608142,"L"
222908,"160 FAIROAKS CIR","STOCKBRIDGE","GA",30281,33.620394984,-84.197913534,408,"160 FAIROAKS CIR, STOCKBRIDGE, GA, 30281","Match","Exact","160 FAIROAKS CIR, STOCKBRIDGE, GA, 30281",210418860,"R"
222909,"160 FAIRVIEW COURT","GENEVA","IL",60134,41.889310424,-88.3559929099999,409,"160 FAIRVIEW COURT, GENEVA, IL, 60134","Match","Exact","160 FAIRVIEW CT, GENEVA, IL, 60134",119535926,"L"
222910,"160 FARM BROOK PASS","FAYETTEVILLE","GA",30215,NA,NA,410,"160 FARM BROOK PASS, FAYETTEVILLE, GA, 30215","No_Match",NA,NA,NA,NA
222911,"160 FARROWS ST APT 1","PUTNAM","CT",6260,41.9177676200001,-71.898147347,411,"160 FARROWS ST APT 1, PUTNAM, CT, 6260","Match","Exact","160 FARROWS ST, PUTNAM, CT, 06260",56460988,"L"
222912,"160 FCR 482","TEAGUE","TX",75860,31.612820943,-96.152223551,412,"160 FCR 482, TEAGUE, TX, 75860","Match","Non_Exact","160 CO RD 482, TEAGUE, TX, 75860",625120170,"L"
222913,"160 FISHTOWN ROAD","MYSTIC","CT",6355,41.34707093,-71.999172041,413,"160 FISHTOWN ROAD, MYSTIC, CT, 6355","Match","Exact","160 FISHTOWN RD, MYSTIC, CT, 06355",56857229,"L"
222914,"160 FOLLYHATCH","IRVINE","CA",92618,33.69007136,-117.736794341,414,"160 FOLLYHATCH, IRVINE, CA, 92618","Match","Exact","160 FOLLYHATCH, IRVINE, CA, 92618",650738070,"L"
222915,"160 FOREST DRIVE","ADVANCE","NC",27006,36.0114183850001,-80.457527032,415,"160 FOREST DRIVE, ADVANCE, NC, 27006","Match","Exact","160 FOREST DR, ADVANCE, NC, 27006",635896359,"L"
222916,"160 FOREST DRIVE","MOUNT KISCO","NY",10549,41.2053869480001,-73.7375016079999,416,"160 FOREST DRIVE, MOUNT KISCO, NY, 10549","Match","Exact","160 FOREST DR, MOUNT KISCO, NY, 10549",139758645,"L"
222917,"160 FOSTER AVENUE","MALVERNE","NY",11565,40.6701069920001,-73.6808704759999,417,"160 FOSTER AVENUE, MALVERNE, NY, 11565","Match","Exact","160 FOSTER AVE, MALVERNE, NY, 11565",147670681,"L"
222918,"160 FOSTER CENTER ROAD","FOSTER","RI",2825,41.8052358830001,-71.7278344429999,418,"160 FOSTER CENTER ROAD, FOSTER, RI, 2825","Match","Exact","160 FOSTER CENTER RD, FOSTER, RI, 02825",47445578,"R"
222919,"160 FOSTER CENTER","FOSTER","RI",2825,41.8052358830001,-71.7278344429999,419,"160 FOSTER CENTER, FOSTER, RI, 2825","Match","Non_Exact","160 FOSTER CENTER RD, FOSTER, RI, 02825",47445578,"R"
222920,"160 FOUNTAIN STREET","PHILADELPHIA","PA",19127,40.032802422,-75.231709317,420,"160 FOUNTAIN STREET, PHILADELPHIA, PA, 19127","Match","Exact","160 FOUNTAIN ST, PHILADELPHIA, PA, 19127",131396067,"L"
222921,"160 FRANKLIN AVE","FRANKLIN","OH",43085,40.0901181140001,-83.012227385,421,"160 FRANKLIN AVE, FRANKLIN, OH, 43085","Match","Non_Exact","160 FRANKLIN AVE, WORTHINGTON, OH, 43085",218686099,"L"
222922,"160 FRANKLIN DR","KINGMAN","AZ",86401,NA,NA,422,"160 FRANKLIN DR, KINGMAN, AZ, 86401","No_Match",NA,NA,NA,NA
222923,"160 FRASIER FIR LANE","COLUMBIA","SC",29229,34.1511411810001,-80.8930165419999,423,"160 FRASIER FIR LANE, COLUMBIA, SC, 29229","Match","Exact","160 FRASIER FIR LN, COLUMBIA, SC, 29229",612219265,"R"
222924,"160 FRED BOWLES ROAD","BANKSTON","AL",35542,NA,NA,424,"160 FRED BOWLES ROAD, BANKSTON, AL, 35542","No_Match",NA,NA,NA,NA
222925,"160 FREMONT ST","CAMBRIDGE","MA",1603,42.24261475,-71.824297115,425,"160 FREMONT ST, CAMBRIDGE, MA, 1603","Match","Non_Exact","160 FREMONT ST, WORCESTER, MA, 01603",40009627,"R"
222926,"160 FREMONT STREET - UNIT 235","WORCESTER","MA",1603,42.24261475,-71.824297115,426,"160 FREMONT STREET - UNIT 235, WORCESTER, MA, 1603","Match","Exact","160 FREMONT ST, WORCESTER, MA, 01603",40009627,"R"
222927,"160 FRONT STREET","MIDDLETOWN","CT",6457,41.5443125830001,-72.6406876089999,427,"160 FRONT STREET, MIDDLETOWN, CT, 6457","Match","Exact","160 FRONT ST, MIDDLETOWN, CT, 06457",113889938,"L"
222928,"160 GALE BLVD APT 202","MELVINDALE","MI",48122,42.2736421910001,-83.187661619,428,"160 GALE BLVD APT 202, MELVINDALE, MI, 48122","Match","Exact","160 GALE BLVD, MELVINDALE, MI, 48122",95504661,"R"
222929,"160 GARLAND DR","MENLO PARK","CA",94025,37.437300883,-122.186730837,429,"160 GARLAND DR, MENLO PARK, CA, 94025","Match","Exact","160 GARLAND DR, MENLO PARK, CA, 94025",192365574,"R"
222930,"160 GENESEE STREET","AUBURN","NY",13021,42.929615584,-76.570425412,430,"160 GENESEE STREET, AUBURN, NY, 13021","Match","Exact","160 GENESEE ST, AUBURN, NY, 13021",33498409,"R"
222931,"160 GLASGOW LANE","SAN CARLOS","CA",94070,37.494447215,-122.27182263,431,"160 GLASGOW LANE, SAN CARLOS, CA, 94070","Match","Exact","160 GLASGOW LN, SAN CARLOS, CA, 94070",192399060,"L"
222932,"160 GLAUSER DRIVE","LOWER BURRELL","PA",15068,40.591912479,-79.690642345,432,"160 GLAUSER DRIVE, LOWER BURRELL, PA, 15068","Match","Non_Exact","160 GLAUSER LN, LOWER BURRELL, PA, 15068",613026275,"R"
222933,"160 GLEN AVE S","LAKEWOOD","NJ",8701,40.088480793,-74.237338134,433,"160 GLEN AVE S, LAKEWOOD, NJ, 8701","Match","Exact","160 GLEN AVE S, LAKEWOOD, NJ, 08701",647810750,"R"
222934,"160 GLEN MEADOW DR","REIDSVILLE","NC",27320,36.4528147350001,-79.7135746989999,434,"160 GLEN MEADOW DR, REIDSVILLE, NC, 27320","Match","Exact","160 GLEN MEADOW DR, REIDSVILLE, NC, 27320",56214032,"L"
222935,"160 GLENDALE","COPPELL","TX",75019,32.952431011,-96.991260855,435,"160 GLENDALE, COPPELL, TX, 75019","Match","Non_Exact","160 GLENDALE DR, COPPELL, TX, 75019",102992485,"L"
222936,"160 GRANITE PEAK DRIVE","BOZEMAN","MT",59718,NA,NA,436,"160 GRANITE PEAK DRIVE, BOZEMAN, MT, 59718","No_Match",NA,NA,NA,NA
222937,"160 GRANT STREET","HAWORTH","NJ",7641,40.959775296,-73.977560986,437,"160 GRANT STREET, HAWORTH, NJ, 7641","Match","Exact","160 GRANT ST, HAWORTH, NJ, 07641",64370644,"L"
222938,"160 GRAPHIC BLVD","BERGENFIELD","NJ",7621,40.9296708520001,-74.010073327,438,"160 GRAPHIC BLVD, BERGENFIELD, NJ, 7621","Match","Exact","160 GRAPHIC BLVD, BERGENFIELD, NJ, 07621",64387568,"L"
222939,"160 GREAT OAK DRIVE","GARNER","NC",27529,35.5819486400001,-78.515982722,439,"160 GREAT OAK DRIVE, GARNER, NC, 27529","Match","Exact","160 GREAT OAK DR, GARNER, NC, 27529",637651783,"R"
222940,"160 GREEN ST NUMBER 1","MELROSE","MA",2176,42.465768401,-71.059542128,440,"160 GREEN ST NUMBER 1, MELROSE, MA, 2176","Match","Exact","160 GREEN ST, MELROSE, MA, 02176",86871614,"L"
222941,"160 GREENCROFT PL","DANVILLE","VA",24541,36.558010729,-79.396720065,441,"160 GREENCROFT PL, DANVILLE, VA, 24541","Match","Exact","160 GREENCROFT PL, DANVILLE, VA, 24541",56664617,"R"
222942,"160 GREENWAY DRIVE","COVINGTON","GA",30016,33.575260369,-83.977428801,442,"160 GREENWAY DRIVE, COVINGTON, GA, 30016","Match","Exact","160 GREENWAY DR, COVINGTON, GA, 30016",23638061,"L"
222943,"160 GREENWAY DRIVE","COVINGTON","GA",NA,33.575260369,-83.977428801,443,"160 GREENWAY DRIVE, COVINGTON, GA, ","Match","Exact","160 GREENWAY DR, COVINGTON, GA, 30016",23638061,"L"
222944,"160 GREENWAY FARM RD","SENECA","SC",29672,34.721376079,-83.000096159,444,"160 GREENWAY FARM RD, SENECA, SC, 29672","Match","Exact","160 GREENWAY FARM RD, SENECA, SC, 29672",25651885,"L"
222945,"160 GREENWOOD ROAD","LAKE OSWEGO","OR",97034,45.41425101,-122.665317018,445,"160 GREENWOOD ROAD, LAKE OSWEGO, OR, 97034","Match","Exact","160 GREENWOOD RD, LAKE OSWEGO, OR, 97034",157981075,"L"
222946,"160 GUMWOOD STREET","BUFFALO","WY",82834,44.339997108,-106.748810093,446,"160 GUMWOOD STREET, BUFFALO, WY, 82834","Match","Exact","160 GUMWOOD ST, BUFFALO, WY, 82834",147307673,"L"
222947,"160 GUTHRIE ROAD","PARIS","TN",38242,36.317187964,-88.322748221,447,"160 GUTHRIE ROAD, PARIS, TN, 38242","Match","Exact","160 GUTHRIE RD, PARIS, TN, 38242",607044813,"R"
222948,"160 H LANE","NOVATO","CA",94945,38.118836752,-122.539519025,448,"160 H LANE, NOVATO, CA, 94945","Match","Exact","160 H LN, NOVATO, CA, 94945",192758057,"R"
222949,"160 HACKEETT PLACE","RUTHERFORD","NJ",7070,40.8320743530001,-74.109605287,449,"160 HACKEETT PLACE, RUTHERFORD, NJ, 7070","Match","Non_Exact","160 HACKETT PL, RUTHERFORD, NJ, 07070",64394854,"R"
222950,"160 HAGERMAN AVE EAST","HAGERMAN","ID",83332,42.8118680520001,-114.89987999,450,"160 HAGERMAN AVE EAST, HAGERMAN, ID, 83332","Match","Non_Exact","160 HAGERMAN AVE W, HAGERMAN, ID, 83332",636226150,"L"
222951,"160 HANDY ROAD","ELMA","NY",14059,42.849105507,-78.661499823,451,"160 HANDY ROAD, ELMA, NY, 14059","Match","Exact","160 HANDY RD, ELMA, NY, 14059",48308694,"L"
222952,"160 HARMONY RD","WEXFORD","PA",15090,40.6471625340001,-80.082970771,452,"160 HARMONY RD, WEXFORD, PA, 15090","Match","Exact","160 HARMONY RD, WEXFORD, PA, 15090",614394211,"R"
222953,"160 HARREL STREET","MORRISVILLE","VT",5661,44.568818789,-72.594371312,453,"160 HARREL STREET, MORRISVILLE, VT, 5661","Match","Exact","160 HARREL ST, MORRISVILLE, VT, 05661",136624152,"L"
222954,"160 HARTE CIRCLE","WILLISTON","VT",5495,44.447666177,-73.083971659,454,"160 HARTE CIRCLE, WILLISTON, VT, 5495","Match","Exact","160 HARTE CIR, WILLISTON, VT, 05495",135838815,"R"
222955,"160 HARVARD LANE","SEAL BEACH","CA",90740,33.777679795,-118.094997053,455,"160 HARVARD LANE, SEAL BEACH, CA, 90740","Match","Exact","160 HARVARD LN, SEAL BEACH, CA, 90740",144002479,"R"
222956,"160 HAVERFORD DR","NASHVILLE","TN",37205,36.103833771,-86.8757789539999,456,"160 HAVERFORD DR, NASHVILLE, TN, 37205","Match","Non_Exact","160 HAVERFORD AVE, NASHVILLE, TN, 37205",606837153,"R"
222957,"160 HEARTWOOD CIR","OZARK","AL",36360,31.4410267650001,-85.65542619,457,"160 HEARTWOOD CIR, OZARK, AL, 36360","Match","Exact","160 HEARTWOOD CIR, OZARK, AL, 36360",99597365,"R"
222958,"160 HEARTWOOD CIRCLE","OZARK","AL",36360,31.4410267650001,-85.65542619,458,"160 HEARTWOOD CIRCLE, OZARK, AL, 36360","Match","Exact","160 HEARTWOOD CIR, OZARK, AL, 36360",99597365,"R"
222959,"160 HEATHER DR","STANFIELD","OR",97875,45.7890576290001,-119.221970985,459,"160 HEATHER DR, STANFIELD, OR, 97875","Match","Exact","160 HEATHER DR, STANFIELD, OR, 97875",170443228,"R"
222960,"160 HENRY ROAD","JEFFERSON","TX",75657,32.7118250360001,-94.462567752,460,"160 HENRY ROAD, JEFFERSON, TX, 75657","Match","Exact","160 HENRY RD, JEFFERSON, TX, 75657",57749926,"L"
222961,"160 HERITAGE POINT DRIVE","SIMPSONVILLE","SC",29681,34.721691551,-82.235043446,461,"160 HERITAGE POINT DRIVE, SIMPSONVILLE, SC, 29681","Match","Exact","160 HERITAGE POINT DR, SIMPSONVILLE, SC, 29681",639820406,"R"
222962,"160 HERITAGE POINT","WILLIAMSBURG","VA",23188,NA,NA,462,"160 HERITAGE POINT, WILLIAMSBURG, VA, 23188","No_Match",NA,NA,NA,NA
222963,"160 HIDDEN LAKE DRIVE","HULL","GA",30646,34.019402948,-83.310959372,463,"160 HIDDEN LAKE DRIVE, HULL, GA, 30646","Match","Exact","160 HIDDEN LAKE DR, HULL, GA, 30646",4807925,"R"
222964,"160 HIGH POINT BLVD  UNIT A","BOYNTON BEACH","FL",33435,26.5095786420001,-80.06768723,464,"160 HIGH POINT BLVD  UNIT A, BOYNTON BEACH, FL, 33435","Match","Exact","160 HIGH POINT BLVD, BOYNTON BEACH, FL, 33435",115296664,"L"
222965,"160 HIGHLAND AVENUE","COTUIT","MA",2635,41.6211537070001,-70.4405858109999,465,"160 HIGHLAND AVENUE, COTUIT, MA, 2635","Match","Exact","160 HIGHLAND AVE, COTUIT, MA, 02635",121575712,"R"
222966,"160 HIGHLAND ROAD","SCHWENKSVILLE","PA",19473,40.257408298,-75.515439478,466,"160 HIGHLAND ROAD, SCHWENKSVILLE, PA, 19473","Match","Exact","160 HIGHLAND RD, SCHWENKSVILLE, PA, 19473",135131777,"R"
222967,"160 HILDA","LUMBERTON","TX",77657,30.26056113,-94.1865034529999,467,"160 HILDA, LUMBERTON, TX, 77657","Match","Non_Exact","160 HILDA RD, LUMBERTON, TX, 77657",23972232,"R"
222968,"160 HILLCREST AVE","MORRISTOWN","NJ",7960,40.7925997930001,-74.501203924,468,"160 HILLCREST AVE, MORRISTOWN, NJ, 7960","Match","Exact","160 HILLCREST AVE, MORRISTOWN, NJ, 07960",647642411,"L"
222969,"160 HILLSIDE DRIVE","POTTSTOWN","PA",19464,40.238997797,-75.6176522599999,469,"160 HILLSIDE DRIVE, POTTSTOWN, PA, 19464","Match","Exact","160 HILLSIDE DR, POTTSTOWN, PA, 19464",135063520,"L"
222970,"160 HILLSIDE ROAD","PHILIPSBURG","PA",16866,40.88184619,-78.22148229,470,"160 HILLSIDE ROAD, PHILIPSBURG, PA, 16866","Match","Exact","160 HILLSIDE RD, PHILIPSBURG, PA, 16866",50388118,"R"
222971,"160 HIMROD ROAD","WATERFORD","PA",16441,41.973879019,-79.99004897,471,"160 HIMROD ROAD, WATERFORD, PA, 16441","Match","Exact","160 HIMROD RD, WATERFORD, PA, 16441",117482249,"L"
222972,"160 HOBSON ST","NEWARK","NJ",7112,40.714697888,-74.2182945439999,472,"160 HOBSON ST, NEWARK, NJ, 7112","Match","Exact","160 HOBSON ST, NEWARK, NJ, 07112",647616164,"L"
222973,"160 HOLGATE STREET","LA HABRA","CA",90631,33.932853525,-117.922141213,473,"160 HOLGATE STREET, LA HABRA, CA, 90631","Match","Exact","160 HOLGATE ST, LA HABRA, CA, 90631",144006346,"R"
222974,"160 HOLLYHOCK COURT","MARCO ISLAND","FL",34145,25.9434043590001,-81.693005081,474,"160 HOLLYHOCK COURT, MARCO ISLAND, FL, 34145","Match","Exact","160 HOLLYHOCK CT, MARCO ISLAND, FL, 34145",115123237,"L"
222975,"160 HOMESIDE DRIVE","ALORTON","IL",62207,38.5817287720001,-90.113542447,475,"160 HOMESIDE DRIVE, ALORTON, IL, 62207","Match","Exact","160 HOMESIDE DR, ALORTON, IL, 62207",107833240,"L"
222976,"160 HOMESTEAD RD APT 208","MANKATO","MN",56001,44.1490807770001,-93.9878833509999,476,"160 HOMESTEAD RD APT 208, MANKATO, MN, 56001","Match","Exact","160 HOMESTEAD RD, MANKATO, MN, 56001",28113408,"L"
222977,"160 HUMMINGBIRD COURT","MYRTLE BEACH","SC",29579,33.7161660670001,-78.957705945,477,"160 HUMMINGBIRD COURT, MYRTLE BEACH, SC, 29579","Match","Exact","160 HUMMINGBIRD CT, MYRTLE BEACH, SC, 29579",29073188,"L"
222978,"160 HUNTER FARM ROAD","PETERBOROUGH","NH",3458,42.8932211320001,-71.968050842,478,"160 HUNTER FARM ROAD, PETERBOROUGH, NH, 3458","Match","Exact","160 HUNTER FARM RD, PETERBOROUGH, NH, 03458",113563525,"R"
222979,"160 HUNTERS POINT DR","ATHENS","GA",30606,NA,NA,479,"160 HUNTERS POINT DR, ATHENS, GA, 30606","No_Match",NA,NA,NA,NA
222980,"160 HURST CIRCLE","FERRIS","TX",75125,32.499385735,-96.613435855,480,"160 HURST CIRCLE, FERRIS, TX, 75125","Match","Exact","160 HURST CIR, FERRIS, TX, 75125",103513313,"R"
222981,"160 HWY 535","FRAKES","KY",40940,36.5940304640001,-83.8837365909999,481,"160 HWY 535, FRAKES, KY, 40940","Match","Non_Exact","160 STATE HWY 535, FRAKES, KY, 40940",87976823,"R"
222982,"160 HYANNIS CT","VACAVILLE","CA",95687,38.332478603,-121.953461087,482,"160 HYANNIS CT, VACAVILLE, CA, 95687","Match","Exact","160 HYANNIS CT, VACAVILLE, CA, 95687",192535931,"L"
222983,"160 ILLINOIS STREET","CENTRAL FALLS","RI",2863,41.8883204860001,-71.392762776,483,"160 ILLINOIS STREET, CENTRAL FALLS, RI, 2863","Match","Exact","160 ILLINOIS ST, CENTRAL FALLS, RI, 02863",47455531,"L"
222984,"160 IRVIN LANE","DECATUR","TN",37322,35.5285383730001,-84.7847159949999,484,"160 IRVIN LANE, DECATUR, TN, 37322","Match","Non_Exact","160 IRWIN AVE, DECATUR, TN, 37322",79417833,"L"
222985,"160 ISLAND PLACE","MEMPHIS","TN",38103,35.1698501770001,-90.0516754189999,485,"160 ISLAND PLACE, MEMPHIS, TN, 38103","Match","Exact","160 ISLAND PL, MEMPHIS, TN, 38103",72966514,"L"
222986,"160 IVY CREEK LANE APT 204","LYNCHBURG","VA",24502,NA,NA,486,"160 IVY CREEK LANE APT 204, LYNCHBURG, VA, 24502","No_Match",NA,NA,NA,NA
222987,"160 JASPER DRIVE","STOCKBRIDGE","GA",30281,33.5239040710001,-84.2731453759999,487,"160 JASPER DRIVE, STOCKBRIDGE, GA, 30281","Match","Exact","160 JASPER DR, STOCKBRIDGE, GA, 30281",23193496,"L"
222988,"160 JOHN ROLFE LANE","WILLIAMSBURG","VA",23185,37.244309888,-76.8082270529999,488,"160 JOHN ROLFE LANE, WILLIAMSBURG, VA, 23185","Match","Exact","160 JOHN ROLFE LN, WILLIAMSBURG, VA, 23185",103770213,"R"
222989,"160 JUBILEE HILL DRIVE","GROVER","MO",63040,38.5743082660001,-90.6304594219999,489,"160 JUBILEE HILL DRIVE, GROVER, MO, 63040","Match","Exact","160 JUBILEE HILL DR, GROVER, MO, 63040",100176588,"R"
222990,"160 KAREN ST","QUINCY","CA",95971,39.9308778990001,-120.89970339,490,"160 KAREN ST, QUINCY, CA, 95971","Match","Exact","160 KAREN ST, QUINCY, CA, 95971",127203638,"R"
222991,"160 KAUFFMAN HILL ROAD","MIFFLINTOWN","PA",17059,40.556117117,-77.320011366,491,"160 KAUFFMAN HILL ROAD, MIFFLINTOWN, PA, 17059","Match","Exact","160 KAUFFMAN HILL RD, MIFFLINTOWN, PA, 17059",47944375,"R"
222992,"160 KENDAL DR APT 1017","LEXINGTON","VA",24450,37.7810747890001,-79.460202022,492,"160 KENDAL DR APT 1017, LEXINGTON, VA, 24450","Match","Exact","160 KENDAL DR, LEXINGTON, VA, 24450",215063159,"R"
222993,"160 KENSINGTON ROAD","GARDEN CITY","NY",11530,40.729341752,-73.657805434,493,"160 KENSINGTON ROAD, GARDEN CITY, NY, 11530","Match","Exact","160 KENSINGTON RD, GARDEN CITY, NY, 11530",147671734,"L"
222994,"160 KEONEKAI RD APT 25-101","KIHEI","HI",96753,20.713897999,-156.441619395,494,"160 KEONEKAI RD APT 25-101, KIHEI, HI, 96753","Match","Exact","160 KEONEKAI RD, KIHEI, HI, 96753",630561783,"L"
222995,"160 KING GEORGE WAY","COLUMBIA","SC",29210,34.0516137180001,-81.128894261,495,"160 KING GEORGE WAY, COLUMBIA, SC, 29210","Match","Exact","160 KING GEORGE WAY, COLUMBIA, SC, 29210",70059633,"R"
222996,"160 KIRKWOOD DR","BUFFALO","NY",14224,42.84842703,-78.794361666,496,"160 KIRKWOOD DR, BUFFALO, NY, 14224","Match","Exact","160 KIRKWOOD DR, BUFFALO, NY, 14224",48304321,"L"
222997,"160 KIRKWOOD DRIVE","WEST SENECA","NY",14224,42.84842703,-78.794361666,497,"160 KIRKWOOD DRIVE, WEST SENECA, NY, 14224","Match","Exact","160 KIRKWOOD DR, WEST SENECA, NY, 14224",48304321,"L"
222998,"160 KOOKABURRA BEND","KYLE","TX",78640,30.0372552750001,-97.834021939,498,"160 KOOKABURRA BEND, KYLE, TX, 78640","Match","Exact","160 KOOKABURRA BND, KYLE, TX, 78640",650164294,"R"
222999,"160 LAKE TUCCI CIRCLE","WRIGHT CITY","MO",63390,38.8458719830001,-91.0405234039999,499,"160 LAKE TUCCI CIRCLE, WRIGHT CITY, MO, 63390","Match","Exact","160 LAKE TUCCI CIR, WRIGHT CITY, MO, 63390",638634128,"R"
223000,"160 LAKE WELLINGTON DR","KINGSLAND","GA",31548,30.797819803,-81.650997581,500,"160 LAKE WELLINGTON DR, KINGSLAND, GA, 31548","Match","Exact","160 LAKE WELLINGTON DR, KINGSLAND, GA, 31548",210951128,"L"
