"ID","Address","City","State","Zip","lat","long","id","input_address","match_indicator","match_type","matched_address","tiger_line_id","tiger_side"
1004001,"W10807 E HARMONY DRIVE","LODI","WI",53555,43.373022905,-89.536874643,1,"W10807 E HARMONY DRIVE, LODI, WI, 53555","Match","Exact","W10807 E HARMONY DR, LODI, WI, 53555",73324555,"R"
1004002,"W10812 EVIE LN","ELCHO","WI",54428,45.4400879630001,-89.190372969,2,"W10812 EVIE LN, ELCHO, WI, 54428","Match","Exact","W10812 EVIE LN, ELCHO, WI, 54428",196406221,"R"
1004003,"W10812","ELCHO","WI",54428,NA,NA,3,"W10812, ELCHO, WI, 54428","No_Match",NA,NA,NA,NA
1004004,"W10818 CTY RD O","PORTAGE","WI",53901,NA,NA,4,"W10818 CTY RD O, PORTAGE, WI, 53901","No_Match",NA,NA,NA,NA
1004005,"W10841 WILDWOOD WAY","POYNETTE","WI",53955,NA,NA,5,"W10841 WILDWOOD WAY, POYNETTE, WI, 53955","No_Match",NA,NA,NA,NA
1004006,"W10857 OAK RIDGE LANE","KENNAN","WI",54537,45.552256334,-90.617896233,6,"W10857 OAK RIDGE LANE, KENNAN, WI, 54537","Match","Exact","W10857 OAK RIDGE LN, KENNAN, WI, 54537",612036730,"R"
1004007,"W10882 COUNTY ROAD X","STANLEY","WI",54768,NA,NA,7,"W10882 COUNTY ROAD X, STANLEY, WI, 54768","No_Match",NA,NA,NA,NA
1004008,"W10882 SCHMOLDT ROAD","ROSENDALE","WI",54974,43.7927914900001,-88.719847992,8,"W10882 SCHMOLDT ROAD, ROSENDALE, WI, 54974","Match","Exact","W10882 SCHMOLDT RD, ROSENDALE, WI, 54974",74838811,"R"
1004009,"W10890 COUNTY ROAD V","POYNETTE","WI",53955,NA,NA,9,"W10890 COUNTY ROAD V, POYNETTE, WI, 53955","No_Match",NA,NA,NA,NA
1004010,"W10901 CTY W","CRIVITZ","WI",54114,NA,NA,10,"W10901 CTY W, CRIVITZ, WI, 54114","No_Match",NA,NA,NA,NA
1004011,"W10909 CTY RD TC","BRANDON","WI",53919,NA,NA,11,"W10909 CTY RD TC, BRANDON, WI, 53919","No_Match",NA,NA,NA,NA
1004012,"W10909 CURTIS LAKE ROAD","COLOMA","WI",54930,44.004172485,-89.424997258,12,"W10909 CURTIS LAKE ROAD, COLOMA, WI, 54930","Match","Exact","W10909 CURTIS LAKE RD, COLOMA, WI, 54930",73482474,"L"
1004013,"W10915 E LAKE DRIVE","STOCKHOLM","WI",54769,44.4534059270001,-92.202886169,13,"W10915 E LAKE DRIVE, STOCKHOLM, WI, 54769","Match","Exact","W10915 E LAKE DR, STOCKHOLM, WI, 54769",46206088,"L"
1004014,"W10917 EAGLE DRIVE","LODI","WI",53555,43.3690786220001,-89.5483552169999,14,"W10917 EAGLE DRIVE, LODI, WI, 53555","Match","Exact","W10917 EAGLE DR, LODI, WI, 53555",73333440,"R"
1004015,"W10964 HAGON LANE","ETTRICK","WI",54627,44.1502917670001,-91.171183738,15,"W10964 HAGON LANE, ETTRICK, WI, 54627","Match","Exact","W10964 HAGON LN, ETTRICK, WI, 54627",46247799,"L"
1004016,"W11019 ZAHN ROAD","BLACK RIVER FALLS","WI",54615,44.317059833,-90.864228025,16,"W11019 ZAHN ROAD, BLACK RIVER FALLS, WI, 54615","Match","Exact","W11019 ZAHN RD, BLACK RIVER FALLS, WI, 54615",50692490,"R"
1004017,"W11027 DEER RUN DRIVE","LODI","WI",53555,43.376677714,-89.550341994,17,"W11027 DEER RUN DRIVE, LODI, WI, 53555","Match","Exact","W11027 DEER RUN DR, LODI, WI, 53555",73340498,"R"
1004018,"W11038 DEER RUN DRIVE","LODI","WI",53555,43.376688679,-89.550341994,18,"W11038 DEER RUN DRIVE, LODI, WI, 53555","Match","Exact","W11038 DEER RUN DR, LODI, WI, 53555",73340498,"L"
1004019,"W11042 COUNTY ROAD D","CLINTONVILLE","WI",54929,NA,NA,19,"W11042 COUNTY ROAD D, CLINTONVILLE, WI, 54929","No_Match",NA,NA,NA,NA
1004020,"W1106 KIEL RD","NEW HOLSTEIN","WI",53061,43.906258974,-88.221615937,20,"W1106 KIEL RD, NEW HOLSTEIN, WI, 53061","Match","Exact","W1106 KIEL RD, NEW HOLSTEIN, WI, 53061",74838715,"R"
1004021,"W11085 RIVERSIDE RD","MARION","WI",54950,44.737526159,-88.816579917,21,"W11085 RIVERSIDE RD, MARION, WI, 54950","Match","Exact","W11085 RIVERSIDE RD, MARION, WI, 54950",635741682,"R"
1004022,"W11096 CHRISTMAN RD LOT 12","BRUCE","WI",54819,45.46162401,-91.244281367,22,"W11096 CHRISTMAN RD LOT 12, BRUCE, WI, 54819","Match","Exact","W11096 CHRISTMAN RD, BRUCE, WI, 54819",126547862,"R"
1004023,"W11098 LAKE POINT DRIVE","LODI","WI",53555,43.374544111,-89.550093754,23,"W11098 LAKE POINT DRIVE, LODI, WI, 53555","Match","Exact","W11098 LAKE POINT DR, LODI, WI, 53555",73335510,"R"
1004024,"W1110 CTY V","BERLIN","WI",54923,NA,NA,24,"W1110 CTY V, BERLIN, WI, 54923","No_Match",NA,NA,NA,NA
1004025,"W11109 LAKE VIEW DRIVE","LODI","WI",53555,43.3756708380001,-89.550059416,25,"W11109 LAKE VIEW DRIVE, LODI, WI, 53555","Match","Exact","W11109 LAKE VIEW DR, LODI, WI, 53555",73333351,"L"
1004026,"W11157 BOGUS RD","DEERBROOK","WI",54424,45.32175991,-89.21375094,26,"W11157 BOGUS RD, DEERBROOK, WI, 54424","Match","Exact","W11157 BOGUS RD, DEERBROOK, WI, 54424",196400382,"R"
1004027,"W1117 RESHEL RD","PITTSVILLE","WI",54466,44.3679523810001,-90.367247983,27,"W1117 RESHEL RD, PITTSVILLE, WI, 54466","Match","Exact","W1117 RESHEL RD, PITTSVILLE, WI, 54466",50681725,"L"
1004028,"W11221 ST HWY 8","TRIPOLI","WI",54564,45.555025297,-89.998733261,28,"W11221 ST HWY 8, TRIPOLI, WI, 54564","Match","Non_Exact","W11221 US HWY 8, TRIPOLI, WI, 54564",635616474,"L"
1004029,"W11243 RED CEDAR DRIVE","LODI","WI",53555,43.355466231,-89.55939004,29,"W11243 RED CEDAR DRIVE, LODI, WI, 53555","Match","Non_Exact","W11243 RED CEDAR RD, LODI, WI, 53555",73340290,"R"
1004030,"W11265 RED CEDAR DR","LODI","WI",53555,43.354436632,-89.5596835219999,30,"W11265 RED CEDAR DR, LODI, WI, 53555","Match","Non_Exact","W11265 RED CEDAR RD, LODI, WI, 53555",73336932,"R"
1004031,"W11270 CO RD C","BLACK RIVER FALLS","WI",54615,44.284270706,-90.8738864219999,31,"W11270 CO RD C, BLACK RIVER FALLS, WI, 54615","Match","Exact","W11270 CO RD C, BLACK RIVER FALLS, WI, 54615",50693243,"R"
1004032,"W11309 COUNTY HWY V","LODI","WI",53555,NA,NA,32,"W11309 COUNTY HWY V, LODI, WI, 53555","No_Match",NA,NA,NA,NA
1004033,"W11310 WINKLE RD","SHAWANO","WI",54166,44.811376442,-88.812775412,33,"W11310 WINKLE RD, SHAWANO, WI, 54166","Match","Exact","W11310 WINKLE RD, SHAWANO, WI, 54166",126863176,"R"
1004034,"W1132 COUNTY RD C","GLEASON","WI",54435,NA,NA,34,"W1132 COUNTY RD C, GLEASON, WI, 54435","No_Match",NA,NA,NA,NA
1004035,"W113369 COUNTY ROAD V","LODI","WI",53555,NA,NA,35,"W113369 COUNTY ROAD V, LODI, WI, 53555","No_Match",NA,NA,NA,NA
1004036,"W11349 OLDEN ROAD","RIPON","WI",54971,43.8512619470001,-88.734725758,36,"W11349 OLDEN ROAD, RIPON, WI, 54971","Match","Exact","W11349 OLDEN RD, RIPON, WI, 54971",74825395,"L"
1004037,"W11352 BAY DRIVE","LODI","WI",53555,43.3662519420001,-89.562317166,37,"W11352 BAY DRIVE, LODI, WI, 53555","Match","Exact","W11352 BAY DR, LODI, WI, 53555",73324592,"R"
1004038,"W11388 EDGEWOOD ROAD","BRUCE","WI",54819,45.5222514220001,-91.264980183,38,"W11388 EDGEWOOD ROAD, BRUCE, WI, 54819","Match","Exact","W11388 EDGEWOOD RD, BRUCE, WI, 54819",611900525,"L"
1004039,"W11388 HIGH POINT ROAD","LODI","WI",53555,43.3514076070001,-89.5628626229999,39,"W11388 HIGH POINT ROAD, LODI, WI, 53555","Match","Exact","W11388 HIGH POINT RD, LODI, WI, 53555",73336936,"R"
1004040,"W11402 STATE ROAD 33","RANDOLPH","WI",53956,NA,NA,40,"W11402 STATE ROAD 33, RANDOLPH, WI, 53956","No_Match",NA,NA,NA,NA
1004041,"W11415 HAWTHORN DR","WAUPUN","WI",53963,43.643484582,-88.7344269019999,41,"W11415 HAWTHORN DR, WAUPUN, WI, 53963","Match","Exact","W11415 HAWTHORN DR, WAUPUN, WI, 53963",74828626,"L"
1004042,"W11473 BAUMANN LN","WATERLOO","WI",53594,43.2416355410001,-88.9645367529999,42,"W11473 BAUMANN LN, WATERLOO, WI, 53594","Match","Exact","W11473 BAUMANN LN, WATERLOO, WI, 53594",53556352,"R"
1004043,"W11473 CENTER ROAD","STANLEY","WI",54768,44.9880612910001,-90.8978115199999,43,"W11473 CENTER ROAD, STANLEY, WI, 54768","Match","Exact","W11473 CENTER RD, STANLEY, WI, 54768",639223171,"R"
1004044,"W11498 MAPLE RIDGE ROAD","GRESHAM","WI",54128,44.8257160250001,-88.836076459,44,"W11498 MAPLE RIDGE ROAD, GRESHAM, WI, 54128","Match","Exact","W11498 MAPLE RIDGE RD, GRESHAM, WI, 54128",126862792,"L"
1004045,"W11499 COUNTY ROAD M","RIVER FALLS","WI",54022,NA,NA,45,"W11499 COUNTY ROAD M, RIVER FALLS, WI, 54022","No_Match",NA,NA,NA,NA
1004046,"W11505 CTR V","LODI","WI",53555,NA,NA,46,"W11505 CTR V, LODI, WI, 53555","No_Match",NA,NA,NA,NA
1004047,"W11525 WISCONSIN AVENUE","DUNBAR","WI",54119,45.649559583,-88.171133835,47,"W11525 WISCONSIN AVENUE, DUNBAR, WI, 54119","Match","Exact","W11525 WISCONSIN AVE, DUNBAR, WI, 54119",636677308,"L"
1004048,"W11527 DEMNYCK ROAD","LODI","WI",63666,NA,NA,48,"W11527 DEMNYCK ROAD, LODI, WI, 63666","No_Match",NA,NA,NA,NA
1004049,"W11567 REYNOLDS ROAD","LODI","WI",53555,43.3146494630001,-89.568362524,49,"W11567 REYNOLDS ROAD, LODI, WI, 53555","Match","Exact","W11567 REYNOLDS RD, LODI, WI, 53555",73324957,"L"
1004050,"W11585 KENNEDY DRIVE","DUNBAR","WI",54119,45.6469055640001,-88.1752247639999,50,"W11585 KENNEDY DRIVE, DUNBAR, WI, 54119","Match","Exact","W11585 KENNEDY DR, DUNBAR, WI, 54119",169979876,"L"
1004051,"W11586 OAK GROVE ROAD","BLACK RIVER FALLS","WI",54615,44.3712426440001,-90.8835580859999,51,"W11586 OAK GROVE ROAD, BLACK RIVER FALLS, WI, 54615","Match","Exact","W11586 OAK GROVE RD, BLACK RIVER FALLS, WI, 54615",50678489,"R"
1004052,"W1174 COUNTRY RD V","BERLIN","WI",54923,NA,NA,52,"W1174 COUNTRY RD V, BERLIN, WI, 54923","No_Match",NA,NA,NA,NA
1004053,"W1174 DECATUR ALBANY RD","BRODHEAD","WI",53520,42.6830886720001,-89.4246141089999,53,"W1174 DECATUR ALBANY RD, BRODHEAD, WI, 53520","Match","Exact","W1174 DECATUR ALBANY RD, BRODHEAD, WI, 53520",48530744,"L"
1004054,"W1175 RUNNINGEN COURT","STODDARD","WI",54658,43.642540002,-91.20080336,54,"W1175 RUNNINGEN COURT, STODDARD, WI, 54658","Match","Exact","W1175 RUNNINGEN CT, STODDARD, WI, 54658",652099872,"R"
1004055,"W11768 AMITY ROAD","BRANDON","WI",53919,43.705417933,-88.7251358999999,55,"W11768 AMITY ROAD, BRANDON, WI, 53919","Match","Exact","W11768 AMITY RD, BRANDON, WI, 53919",74817794,"L"
1004056,"W1179 LAKE DR","GENOA CITY","WI",53128,42.537342994,-88.357440911,56,"W1179 LAKE DR, GENOA CITY, WI, 53128","Match","Exact","W1179 LAKE DR, GENOA CITY, WI, 53128",53673738,"R"
1004057,"W11801 SHANKEY ROAD","BLACK RIVER FALLS","WI",54615,44.3060976350001,-90.899999838,57,"W11801 SHANKEY ROAD, BLACK RIVER FALLS, WI, 54615","Match","Exact","W11801 SHANKEY RD, BLACK RIVER FALLS, WI, 54615",50690180,"R"
1004058,"W11911 778TH AVENUE","RIVER FALLS","WI",54022,44.8221474210001,-92.7319916929999,58,"W11911 778TH AVENUE, RIVER FALLS, WI, 54022","Match","Exact","W11911 778TH AVE, RIVER FALLS, WI, 54022",95865286,"R"
1004059,"W11945 PRINDLE RD","ALMA CENTER","WI",54611,44.4148755350001,-90.905933018,59,"W11945 PRINDLE RD, ALMA CENTER, WI, 54611","Match","Exact","W11945 PRINDLE RD, ALMA CENTER, WI, 54611",50676994,"L"
1004060,"W11946","GRESHAM","WI",54128,NA,NA,60,"W11946, GRESHAM, WI, 54128","No_Match",NA,NA,NA,NA
1004061,"W12002 SLACK RD","LODI","WI",53555,43.3547146270001,-89.596345254,61,"W12002 SLACK RD, LODI, WI, 53555","Match","Exact","W12002 SLACK RD, LODI, WI, 53555",73324626,"R"
1004062,"W12025 COUNTY ROAD AA","RANDOLPH","WI",53956,NA,NA,62,"W12025 COUNTY ROAD AA, RANDOLPH, WI, 53956","No_Match",NA,NA,NA,NA
1004063,"W12030 WALL STREET","PORTAGE","WI",53901,43.492613808,-89.597472911,63,"W12030 WALL STREET, PORTAGE, WI, 53901","Match","Non_Exact","W12030 WALL STREET RD, PORTAGE, WI, 53901",73319866,"R"
1004064,"W12059 HIGHWAY 113","LODI","WI",53555,43.3655214610001,-89.5996917959999,64,"W12059 HIGHWAY 113, LODI, WI, 53555","Match","Non_Exact","W12059 STATE HWY 113, LODI, WI, 53555",73324640,"L"
1004065,"W12151 STATE ROAD 113","LODI","WI",53555,43.3657760560001,-89.6037695049999,65,"W12151 STATE ROAD 113, LODI, WI, 53555","Match","Exact","W12151 STATE RD 113, LODI, WI, 53555",636685371,"L"
1004066,"W12165 846TH AVE","RIVER FALLS","WI",54022,44.846642783,-92.7454903289999,66,"W12165 846TH AVE, RIVER FALLS, WI, 54022","Match","Exact","W12165 846TH AVE, RIVER FALLS, WI, 54022",95868851,"L"
1004067,"W1220 PINE ROAD","DORCHESTER","WI",54425,44.9738733620001,-90.375477366,67,"W1220 PINE ROAD, DORCHESTER, WI, 54425","Match","Exact","W1220 PINE RD, DORCHESTER, WI, 54425",50857891,"L"
1004068,"W12228 REEDS CORNER ROAD","RIPON","WI",54971,43.7929480710001,-88.771758302,68,"W12228 REEDS CORNER ROAD, RIPON, WI, 54971","Match","Non_Exact","W12228 REEDS CORNERS RD, RIPON, WI, 54971",74825453,"L"
1004069,"W12250 LANGE ROAD","COLUMBUS","WI",53925,43.346583068,-89.000209518,69,"W12250 LANGE ROAD, COLUMBUS, WI, 53925","Match","Exact","W12250 LANGE RD, COLUMBUS, WI, 53925",53559073,"R"
1004070,"W12297 820TH AVE","RIVER FALLS","WI",54022,44.838326409,-92.751039288,70,"W12297 820TH AVE, RIVER FALLS, WI, 54022","Match","Exact","W12297 820TH AVE, RIVER FALLS, WI, 54022",95869943,"R"
1004071,"W12317 WHITETAIL RUN","LODI","WI",53555,43.364529808,-89.612121132,71,"W12317 WHITETAIL RUN, LODI, WI, 53555","Match","Exact","W12317 WHITETAIL RUN, LODI, WI, 53555",73339583,"R"
1004072,"W12328 LAROCK LN","CRIVITZ","WI",54114,45.3425733400001,-88.215192071,72,"W12328 LAROCK LN, CRIVITZ, WI, 54114","Match","Exact","W12328 LAROCK LN, CRIVITZ, WI, 54114",642490399,"R"
1004073,"W1233 COUNTY ROAD K","RIPON","WI",54971,NA,NA,73,"W1233 COUNTY ROAD K, RIPON, WI, 54971","No_Match",NA,NA,NA,NA
1004074,"W124 US HIGHWAY 10","MONDOVI","WI",54755,44.5779269080001,-91.556848254,74,"W124 US HIGHWAY 10, MONDOVI, WI, 54755","Match","Exact","W124 US HWY 10, MONDOVI, WI, 54755",45764293,"L"
1004075,"W12425 NORTHWOODS LANE","ELCHO","WI",54428,45.445896641,-89.271565991,75,"W12425 NORTHWOODS LANE, ELCHO, WI, 54428","Match","Exact","W12425 NORTHWOODS LN, ELCHO, WI, 54428",636684862,"R"
1004076,"W12465 STATE ROAD 95","ALMA CENTER","WI",54611,NA,NA,76,"W12465 STATE ROAD 95, ALMA CENTER, WI, 54611","No_Match",NA,NA,NA,NA
1004077,"W1256 S SHORE DRIVE","PALMYRA","WI",53156,42.857310478,-88.594920475,77,"W1256 S SHORE DRIVE, PALMYRA, WI, 53156","Match","Exact","W1256 S SHORE DR, PALMYRA, WI, 53156",640793145,"L"
1004078,"W12575 AMITY ROAD","BRANDON","WI",53919,43.7056322660001,-88.793108241,78,"W12575 AMITY ROAD, BRANDON, WI, 53919","Match","Exact","W12575 AMITY RD, BRANDON, WI, 53919",650331082,"L"
1004079,"W125N10968","GERMANTOWN","WI",53022,NA,NA,79,"W125N10968, GERMANTOWN, WI, 53022","No_Match",NA,NA,NA,NA
1004080,"W126 N6326 PARKWAY DR","MENOMONEE FALLS","WI",53051,NA,NA,80,"W126 N6326 PARKWAY DR, MENOMONEE FALLS, WI, 53051","Tie",NA,NA,NA,NA
1004081,"W1263 CEDAR LANE","SAINT IGNACE","MI",49781,45.865220213,-84.784513965,81,"W1263 CEDAR LANE, SAINT IGNACE, MI, 49781","Match","Exact","W1263 CEDAR LN, SAINT IGNACE, MI, 49781",130717729,"R"
1004082,"W1263 FISH RD","BANGOR","WI",54614,43.9317825640001,-90.960476746,82,"W1263 FISH RD, BANGOR, WI, 54614","Match","Exact","W1263 FISH RD, BANGOR, WI, 54614",51007460,"L"
1004083,"W1267 SIENA CIRCLE","LAKE GENEVA","WI",53147,42.5777211540001,-88.362729653,83,"W1267 SIENA CIRCLE, LAKE GENEVA, WI, 53147","Match","Exact","W1267 SIENA CIR, LAKE GENEVA, WI, 53147",607316746,"R"
1004084,"W1268 S SHORE DRIVE","PALMYRA","WI",53156,42.856799853,-88.5952935349999,84,"W1268 S SHORE DRIVE, PALMYRA, WI, 53156","Match","Exact","W1268 S SHORE DR, PALMYRA, WI, 53156",640793145,"L"
1004085,"W12699 STATE ROAD","ETTRICK","WI",54627,NA,NA,85,"W12699 STATE ROAD, ETTRICK, WI, 54627","No_Match",NA,NA,NA,NA
1004086,"W12709 COUNTY RD AS","BRANDON","WI",53963,NA,NA,86,"W12709 COUNTY RD AS, BRANDON, WI, 53963","No_Match",NA,NA,NA,NA
1004087,"W1273 FISH CREEK RD","ONEIDA","WI",54115,44.4587875390001,-88.2451739859999,87,"W1273 FISH CREEK RD, ONEIDA, WI, 54115","Match","Non_Exact","W1273 FISH CREEK RD, DE PERE, WI, 54115",74900566,"L"
1004088,"W1276 WEINER RD","COLUMBUS","WI",53925,43.2904043460001,-89.0638174649999,88,"W1276 WEINER RD, COLUMBUS, WI, 53925","Match","Exact","W1276 WEINER RD, COLUMBUS, WI, 53925",73336280,"L"
1004089,"W128 S6402 BERGER LANE","MUSKEGO","WI",53150,NA,NA,89,"W128 S6402 BERGER LANE, MUSKEGO, WI, 53150","Tie",NA,NA,NA,NA
1004090,"W128 S9531 WALTER HAGEN DR","MUSKEGO","WI",53150,NA,NA,90,"W128 S9531 WALTER HAGEN DR, MUSKEGO, WI, 53150","Tie",NA,NA,NA,NA
1004091,"W128 S9565 WALTER HAGEN DR","MUSKEGO","WI",53150,NA,NA,91,"W128 S9565 WALTER HAGEN DR, MUSKEGO, WI, 53150","Tie",NA,NA,NA,NA
1004092,"W1282 EARL COURT","KEWASKUM","WI",53040,43.5466385510001,-88.220385693,92,"W1282 EARL COURT, KEWASKUM, WI, 53040","Match","Exact","W1282 EARL CT, KEWASKUM, WI, 53040",74829269,"R"
1004093,"W12828 REEDS CORNER ROAD","RIPON","WI",54971,43.793122478,-88.798666978,93,"W12828 REEDS CORNER ROAD, RIPON, WI, 54971","Match","Non_Exact","W12828 REEDS CORNERS RD, RIPON, WI, 54971",74813801,"L"
1004094,"W12898 HESTEKIN ROAD","WHITEHALL","WI",54773,44.388827862,-91.191687255,94,"W12898 HESTEKIN ROAD, WHITEHALL, WI, 54773","Match","Exact","W12898 HESTEKIN RD, WHITEHALL, WI, 54773",651674838,"R"
1004095,"W1296 STATE HIGHWAY 96","KAUKAUNA","WI",54130,NA,NA,95,"W1296 STATE HIGHWAY 96, KAUKAUNA, WI, 54130","No_Match",NA,NA,NA,NA
1004096,"W13034 STEINFEST ROAD","TIGERTON","WI",54486,44.726754348,-88.910320099,96,"W13034 STEINFEST ROAD, TIGERTON, WI, 54486","Match","Exact","W13034 STEINFEST RD, TIGERTON, WI, 54486",126872241,"R"
1004097,"W13056 COUNTY ROAD M","CAROLINE","WI",54928,NA,NA,97,"W13056 COUNTY ROAD M, CAROLINE, WI, 54928","No_Match",NA,NA,NA,NA
1004098,"W1306 COUNTY ROAD D","MODENA","WI",54755,NA,NA,98,"W1306 COUNTY ROAD D, MODENA, WI, 54755","No_Match",NA,NA,NA,NA
1004099,"W130N6650 NORTHFIELD DR","MENOMONEE FALLS","WI",53051,NA,NA,99,"W130N6650 NORTHFIELD DR, MENOMONEE FALLS, WI, 53051","Tie",NA,NA,NA,NA
1004100,"W131 S8449 EAGLES WAY","MUSKEGO","WI",53150,42.8924596510001,-88.07916284,100,"W131 S8449 EAGLES WAY, MUSKEGO, WI, 53150","Match","Exact","W131 EAGLES WAY, MUSKEGO, WI, 53150",53910430,"R"
1004101,"W13114 CECILE CIRCLE","LODI","WI",53555,43.3528801420001,-89.6532889389999,101,"W13114 CECILE CIRCLE, LODI, WI, 53555","Match","Exact","W13114 CECILE CIR, LODI, WI, 53555",73336941,"L"
1004102,"W1312 CO ROAD 352 G12","CEDAR RIVER","MI",49887,NA,NA,102,"W1312 CO ROAD 352 G12, CEDAR RIVER, MI, 49887","No_Match",NA,NA,NA,NA
1004103,"W13244 COUNTY ROAD J","LODI","WI",53555,NA,NA,103,"W13244 COUNTY ROAD J, LODI, WI, 53555","No_Match",NA,NA,NA,NA
1004104,"W132S6922 FENNIMORE LN","MUSKEGO","WI",53150,42.92005407,-88.080121049,104,"W132S6922 FENNIMORE LN, MUSKEGO, WI, 53150","Match","Exact","W132S6922 FENNIMORE LN, MUSKEGO, WI, 53150",53854840,"L"
1004105,"W13334 STATE RD 95","BLAIR","WI",54616,NA,NA,105,"W13334 STATE RD 95, BLAIR, WI, 54616","No_Match",NA,NA,NA,NA
1004106,"W133N6196 HUMMINGBIRD WAY","MENOMONEE FALLS","WI",53051,43.130277053,-88.076512322,106,"W133N6196 HUMMINGBIRD WAY, MENOMONEE FALLS, WI, 53051","Match","Exact","W133 HUMMINGBIRD WAY, MENOMONEE FALLS, WI, 53051",617671173,"R"
1004107,"W1343 NAUMAN RD","CECIEL","WI",54114,44.8021377650001,-88.3206418249999,107,"W1343 NAUMAN RD, CECIEL, WI, 54114","Match","Non_Exact","W1343 NAUMAN RD, CECIL, WI, 54111",126872647,"R"
1004108,"W13431 SPUR FIVE","SHELDON","WI",54766,45.3204307300001,-90.721051231,108,"W13431 SPUR FIVE, SHELDON, WI, 54766","Match","Non_Exact","W13431 SPR FIVE, SHELDON, WI, 54766",117242621,"R"
1004109,"W13439 COUNTY ROAD C","HANCOCK","WI",54943,NA,NA,109,"W13439 COUNTY ROAD C, HANCOCK, WI, 54943","No_Match",NA,NA,NA,NA
1004110,"W1349 GRANT RD","RUBICON","WI",53078,43.3474089150001,-88.473234371,110,"W1349 GRANT RD, RUBICON, WI, 53078","Match","Exact","W1349 GRANT RD, RUBICON, WI, 53078",53558752,"R"
1004111,"W13502 LINES RD","BRANDON","WI",54919,NA,NA,111,"W13502 LINES RD, BRANDON, WI, 54919","No_Match",NA,NA,NA,NA
1004112,"W1355 COUNTY RD A","BERLIN","WI",54923,NA,NA,112,"W1355 COUNTY RD A, BERLIN, WI, 54923","No_Match",NA,NA,NA,NA
1004113,"W1362 MARIETTA AVENUE","IXONIA","WI",53036,43.1457442780001,-88.602428346,113,"W1362 MARIETTA AVENUE, IXONIA, WI, 53036","Match","Exact","W1362 MARIETTA AVE, IXONIA, WI, 53036",53219252,"L"
1004114,"W136N6776 CLASS RD","MENOMONEE FALLS","WI",53051,43.140760131,-88.0796285599999,114,"W136N6776 CLASS RD, MENOMONEE FALLS, WI, 53051","Match","Non_Exact","W136 CLAAS RD, MENOMONEE FALLS, WI, 53051",53849782,"L"
1004115,"W136S8415 HOLZ DR","MUSKEGO","WI",53150,42.8941244850001,-88.085000545,115,"W136S8415 HOLZ DR, MUSKEGO, WI, 53150","Match","Exact","W136S8415 HOLZ DR, MUSKEGO, WI, 53150",53863421,"R"
1004116,"W1373 COUNTY ROAD CW","WATERTOWN","WI",53094,NA,NA,116,"W1373 COUNTY ROAD CW, WATERTOWN, WI, 53094","No_Match",NA,NA,NA,NA
1004117,"W137N7390 CLAAS ROAD","MENOMONEE FALLS","WI",53051,43.149984954,-88.07939891,117,"W137N7390 CLAAS ROAD, MENOMONEE FALLS, WI, 53051","Match","Exact","W137N7390 CLAAS RD, MENOMONEE FALLS, WI, 53051",633846543,"R"
1004118,"W1381 AUTUMN WOOD LN","MARINETTE","WI",54143,45.0527252630001,-87.6677082529999,118,"W1381 AUTUMN WOOD LN, MARINETTE, WI, 54143","Match","Exact","W1381 AUTUMN WOOD LN, MARINETTE, WI, 54143",169998910,"R"
1004119,"W1382 GREENVIEW ROAD","GENOA CITY","WI",53128,42.538329112,-88.367790796,119,"W1382 GREENVIEW ROAD, GENOA CITY, WI, 53128","Match","Exact","W1382 GREENVIEW RD, GENOA CITY, WI, 53128",607317045,"R"
1004120,"W1394 N BLUE SPRING LAKE DRIVE","PALMYRA","WI",53156,42.8633781300001,-88.59964016,120,"W1394 N BLUE SPRING LAKE DRIVE, PALMYRA, WI, 53156","Match","Exact","W1394 N BLUE SPRING LAKE DR, PALMYRA, WI, 53156",53220259,"R"
1004121,"W13970 ISLAND LAKE ROAD","WEYERHAEUSER","WI",54895,45.314793765,-91.3947447209999,121,"W13970 ISLAND LAKE ROAD, WEYERHAEUSER, WI, 54895","Match","Exact","W13970 ISLAND LAKE RD, WEYERHAEUSER, WI, 54895",126547242,"L"
1004122,"W14012 CRESTVIEW DR","PRAIRIE DU SAC","WI",53578,43.3244420710001,-89.696102882,122,"W14012 CRESTVIEW DR, PRAIRIE DU SAC, WI, 53578","Match","Exact","W14012 CRESTVIEW DR, PRAIRIE DU SAC, WI, 53578",627096921,"L"
1004123,"W14049 OAK HAVEN DR","RIPON","WI",54971,43.8945668760001,-88.857712362,123,"W14049 OAK HAVEN DR, RIPON, WI, 54971","Match","Exact","W14049 OAK HAVEN DR, RIPON, WI, 54971",74841202,"R"
1004124,"W14050 ISLAND LAKE ROAD","WEYERHAEUSER","WI",54895,45.3134407840001,-91.4071781919999,124,"W14050 ISLAND LAKE ROAD, WEYERHAEUSER, WI, 54895","Match","Exact","W14050 ISLAND LAKE RD, WEYERHAEUSER, WI, 54895",126548696,"L"
1004125,"W140N9100 LILLY RD","MENOMONEE FALLS","WI",53051,43.181821965,-88.08359508,125,"W140N9100 LILLY RD, MENOMONEE FALLS, WI, 53051","Match","Exact","W140N9100 LILLY RD, MENOMONEE FALLS, WI, 53051",640037850,"R"
1004126,"W141 N2015 SOMERSET DRIVE","MENOMONEE FALLS","WI",53051,NA,NA,126,"W141 N2015 SOMERSET DRIVE, MENOMONEE FALLS, WI, 53051","Tie",NA,NA,NA,NA
1004127,"W141 N6739 MEMORY ROAD","MENOMONEE FALLS","WI",53051,NA,NA,127,"W141 N6739 MEMORY ROAD, MENOMONEE FALLS, WI, 53051","Tie",NA,NA,NA,NA
1004128,"W14198 GOLF ROAD","PRAIRIE DU SAC","WI",53578,43.3147858040001,-89.7050478199999,128,"W14198 GOLF ROAD, PRAIRIE DU SAC, WI, 53578","Match","Exact","W14198 GOLF RD, PRAIRIE DU SAC, WI, 53578",73324403,"L"
1004129,"W142 N6344 MILL RIDGE DRIVE","MENOMONEE FALLS","WI",53051,NA,NA,129,"W142 N6344 MILL RIDGE DRIVE, MENOMONEE FALLS, WI, 53051","Tie",NA,NA,NA,NA
1004130,"W142","MUSKEGO","WI",53150,NA,NA,130,"W142, MUSKEGO, WI, 53150","No_Match",NA,NA,NA,NA
1004131,"W1422 WESTVIEW COURT","SPRING VALLEY","WI",54767,44.8324575950001,-92.266638125,131,"W1422 WESTVIEW COURT, SPRING VALLEY, WI, 54767","Match","Exact","W1422 WESTVIEW CT, SPRING VALLEY, WI, 54767",95868430,"L"
1004132,"W142N6344 MILL RIDGE DRIVE","MENOMONEE FALLS","WI",53051,43.1328610350001,-88.0883586469999,132,"W142N6344 MILL RIDGE DRIVE, MENOMONEE FALLS, WI, 53051","Match","Exact","W142N6344 MILL RIDGE DR, MENOMONEE FALLS, WI, 53051",53872602,"R"
1004133,"W1431 S SHORE DRIVE","PALMYRA","WI",53156,42.8553693800001,-88.606166576,133,"W1431 S SHORE DRIVE, PALMYRA, WI, 53156","Match","Exact","W1431 S SHORE DR, PALMYRA, WI, 53156",53220100,"R"
1004134,"W14311 BROOKWOOD COURT","RIPON","WI",54971,43.854635047,-88.875273691,134,"W14311 BROOKWOOD COURT, RIPON, WI, 54971","Match","Exact","W14311 BROOKWOOD CT, RIPON, WI, 54971",74824203,"R"
1004135,"W144 S7435 Indian Trail","MUSKEGO","WI",53150,NA,NA,135,"W144 S7435 Indian Trail, MUSKEGO, WI, 53150","Tie",NA,NA,NA,NA
1004136,"W1441 SEWARD CIRCLE","BERLIN","WI",54923,43.9459753680001,-88.951057401,136,"W1441 SEWARD CIRCLE, BERLIN, WI, 54923","Match","Exact","W1441 SEWARD CIR, BERLIN, WI, 54923",73455584,"L"
1004137,"W1445 MADSEN ROAD","MARINETTE","WI",54143,45.064068524,-87.659512584,137,"W1445 MADSEN ROAD, MARINETTE, WI, 54143","Match","Exact","W1445 MADSEN RD, MARINETTE, WI, 54143",169996034,"L"
1004138,"W14479 HOOKER ROAD","GILMAN","WI",54433,45.263716543,-90.782932956,138,"W14479 HOOKER ROAD, GILMAN, WI, 54433","Match","Exact","W14479 HOOKER RD, GILMAN, WI, 54433",117233800,"L"
1004139,"W1459 HWY 18","SULLIVAN","WI",53178,43.0123457080001,-88.604681663,139,"W1459 HWY 18, SULLIVAN, WI, 53178","Match","Non_Exact","W1459 US HWY 18, SULLIVAN, WI, 53178",635769864,"R"
1004140,"W145N7394 NORTHWOOD DR","MENOMONEE FALLS","WI",53051,NA,NA,140,"W145N7394 NORTHWOOD DR, MENOMONEE FALLS, WI, 53051","Tie",NA,NA,NA,NA
1004141,"W1460 CHEESEMAN RD","SAINT IGNACE","MI",49781,45.8925519840001,-84.797301131,141,"W1460 CHEESEMAN RD, SAINT IGNACE, MI, 49781","Match","Exact","W1460 CHEESEMAN RD, SAINT IGNACE, MI, 49781",130721397,"R"
1004142,"W14674  POLLEY LN","GILMAN","WI",54433,45.1409923140001,-90.792711154,142,"W14674  POLLEY LN, GILMAN, WI, 54433","Match","Exact","W14674 POLLEY LN, GILMAN, WI, 54433",117236492,"R"
1004143,"W146N8243 SCHLAFER DR","MENOMONEE FALLS","WI",53051,43.169450886,-88.091967212,143,"W146N8243 SCHLAFER DR, MENOMONEE FALLS, WI, 53051","Match","Exact","W146N8243 SCHLAFER DR, MENOMONEE FALLS, WI, 53051",53814073,"L"
1004144,"W146N8548 MACARTHUR DR","MENOMONEE FALLS","WI",53051,NA,NA,144,"W146N8548 MACARTHUR DR, MENOMONEE FALLS, WI, 53051","Tie",NA,NA,NA,NA
1004145,"W146N8570 MACARTHUR","MENOMONEE FALLS","WI",53051,NA,NA,145,"W146N8570 MACARTHUR, MENOMONEE FALLS, WI, 53051","No_Match",NA,NA,NA,NA
1004146,"W147 N9807 RIMROCK ROAD","GERMANTOWN","WI",53022,NA,NA,146,"W147 N9807 RIMROCK ROAD, GERMANTOWN, WI, 53022","Tie",NA,NA,NA,NA
1004147,"W14706 FRENCHICK LN","WEYERHAEUSER","WI",54895,NA,NA,147,"W14706 FRENCHICK LN, WEYERHAEUSER, WI, 54895","No_Match",NA,NA,NA,NA
1004148,"W147N 7700 NORTH POINT DR APT 26","MENOMONEE FALLS","WI",53051,NA,NA,148,"W147N 7700 NORTH POINT DR APT 26, MENOMONEE FALLS, WI, 53051","No_Match",NA,NA,NA,NA
1004149,"W147N4860 DOLPHIN DR","MENOMONEE","WI",53051,43.1052205930001,-88.0946006089999,149,"W147N4860 DOLPHIN DR, MENOMONEE, WI, 53051","Match","Non_Exact","W147 DOLPHIN DR, MENOMONEE FLS, WI, 53051",53814437,"R"
1004150,"W147N6664 ASH DR","MENOMONEE FALLS","WI",53051,43.138463189,-88.094093753,150,"W147N6664 ASH DR, MENOMONEE FALLS, WI, 53051","Match","Exact","W147N6664 ASH DR, MENOMONEE FALLS, WI, 53051",53839627,"L"
1004151,"W147S6800 DURHAM PL","MUSKEGO","WI",53150,42.92158254,-88.099440148,151,"W147S6800 DURHAM PL, MUSKEGO, WI, 53150","Match","Exact","W147S6800 DURHAM PL, MUSKEGO, WI, 53150",625302482,"L"
1004152,"W148 N7167 TERRIWOOD CT","MENOMONEE FALLS","WI",53051,43.147654162,-88.0954522919999,152,"W148 N7167 TERRIWOOD CT, MENOMONEE FALLS, WI, 53051","Match","Exact","W148 TERRIWOOD CT, MENOMONEE FALLS, WI, 53051",53839691,"L"
1004153,"W148 N8252 ALBERT PLACE","MENOMONEE FALLS","WI",53051,NA,NA,153,"W148 N8252 ALBERT PLACE, MENOMONEE FALLS, WI, 53051","Tie",NA,NA,NA,NA
1004154,"W148N10912 HIGH RIDGE CT","GERMANTOWN","WI",53022,43.216662076,-88.094377476,154,"W148N10912 HIGH RIDGE CT, GERMANTOWN, WI, 53022","Match","Exact","W148N10912 HIGH RIDGE CT, GERMANTOWN, WI, 53022",79572126,"L"
1004155,"W148N7548 SYLVAN LANE","MENOMONEE FALLS","WI",53051,NA,NA,155,"W148N7548 SYLVAN LANE, MENOMONEE FALLS, WI, 53051","Tie",NA,NA,NA,NA
1004156,"W148N7896 WOODLAND DR","MENOMONEE FALLS","WI",53051,NA,NA,156,"W148N7896 WOODLAND DR, MENOMONEE FALLS, WI, 53051","Tie",NA,NA,NA,NA
1004157,"W149N9841 TREE TOPS CT","GERMANTOWN","WI",53022,43.1957525450001,-88.09763106,157,"W149N9841 TREE TOPS CT, GERMANTOWN, WI, 53022","Match","Exact","W149N9841 TREE TOPS CT, GERMANTOWN, WI, 53022",605353742,"L"
1004158,"W15 IBADAN STREET/ADAMAWA ROAD","KADUNA STATE NIGERIA",NA,NA,NA,NA,158,"W15 IBADAN STREET/ADAMAWA ROAD, KADUNA STATE NIGERIA, , ","No_Match",NA,NA,NA,NA
1004159,"W150 N5288 BADGER DRIVE","MENOMONEE FALLS","WI",53051,43.114953482,-88.100010287,159,"W150 N5288 BADGER DRIVE, MENOMONEE FALLS, WI, 53051","Match","Exact","W150 BADGER DR, MENOMONEE FALLS, WI, 53051",53840612,"L"
1004160,"W15023 COUNTY RD S","GILMAN","WI",54433,NA,NA,160,"W15023 COUNTY RD S, GILMAN, WI, 54433","No_Match",NA,NA,NA,NA
1004161,"W150N10098 WINDSONG CIR W","GERMANTOWN","WI",53022,43.200753406,-88.096724719,161,"W150N10098 WINDSONG CIR W, GERMANTOWN, WI, 53022","Match","Exact","W150N10098 WINDSONG CIR W, GERMANTOWN, WI, 53022",79572654,"L"
1004162,"W150N10971 DOGWOOD CT","GERMANTOWN","WI",53022,43.2166293220001,-88.09577675,162,"W150N10971 DOGWOOD CT, GERMANTOWN, WI, 53022","Match","Exact","W150N10971 DOGWOOD CT, GERMANTOWN, WI, 53022",79571311,"L"
1004163,"W150N7349 WOOD VIEW DRIVE","MENOMONEE FALLS","WI",53051,43.1513530760001,-88.097648996,163,"W150N7349 WOOD VIEW DRIVE, MENOMONEE FALLS, WI, 53051","Match","Exact","W150N7349 WOOD VIEW DR, MENOMONEE FALLS, WI, 53051",53910292,"R"
1004164,"W150S7002 CORNELL CIRCLE","MUSKEGO","WI",53150,42.9199103930001,-88.10029601,164,"W150S7002 CORNELL CIRCLE, MUSKEGO, WI, 53150","Match","Exact","W150S7002 CORNELL CIR, MUSKEGO, WI, 53150",653399297,"L"
1004165,"W1511 HAPPY HOLLOW RD","CAMPBELLSPORT","WI",53010,43.637572989,-88.232816509,165,"W1511 HAPPY HOLLOW RD, CAMPBELLSPORT, WI, 53010","Match","Exact","W1511 HAPPY HOLLOW RD, CAMPBELLSPORT, WI, 53010",74837282,"L"
1004166,"W15153 CTY RD S","GILMAN","WI",54433,NA,NA,166,"W15153 CTY RD S, GILMAN, WI, 54433","No_Match",NA,NA,NA,NA
1004167,"W151N5386 BADGER DR","MENOMONEE FALLS","WI",55051,43.1150894960001,-88.1002403969999,167,"W151N5386 BADGER DR, MENOMONEE FALLS, WI, 55051","Match","Non_Exact","W151 BADGER DR, MENOMONEE FLS, WI, 53051",53840612,"R"
1004168,"W15298","TIGERTON","WI",54486,NA,NA,168,"W15298, TIGERTON, WI, 54486","No_Match",NA,NA,NA,NA
1004169,"W153 N5187 PLAZA DR","MENOMONEE FALLS","WI",53051,NA,NA,169,"W153 N5187 PLAZA DR, MENOMONEE FALLS, WI, 53051","Tie",NA,NA,NA,NA
1004170,"W15309 RED RIVER ROAD","ANTIGO","WI",54414,44.985951759,-89.0233961,170,"W15309 RED RIVER ROAD, ANTIGO, WI, 54414","Match","Non_Exact","W15309 RED RIVER RD, BIRNAMWOOD, WI, 54414",126859664,"L"
1004171,"W153N8681 MARGARET ROAD","MENOMONEE FALLS","WI",53051,43.1759174580001,-88.0997603869999,171,"W153N8681 MARGARET ROAD, MENOMONEE FALLS, WI, 53051","Match","Exact","W153 MARGARET RD, MENOMONEE FALLS, WI, 53051",53813978,"R"
1004172,"W154 N10244 REGENCY CT S","GERMANTOWN","WI",53022,NA,NA,172,"W154 N10244 REGENCY CT S, GERMANTOWN, WI, 53022","Tie",NA,NA,NA,NA
1004173,"W1546 32RD","CARNEY","MI",49812,NA,NA,173,"W1546 32RD, CARNEY, MI, 49812","No_Match",NA,NA,NA,NA
1004174,"W15476 RIVER DRIVE","GALESVILLE","WI",54630,44.0778069930001,-91.261938936,174,"W15476 RIVER DRIVE, GALESVILLE, WI, 54630","Match","Exact","W15476 RIVER DR, GALESVILLE, WI, 54630",46246969,"R"
1004175,"W1550 DREIER ROAD","HILBERT","WI",54129,44.09526743,-88.1185304429999,175,"W1550 DREIER ROAD, HILBERT, WI, 54129","Match","Exact","W1550 DREIER RD, HILBERT, WI, 54129",74787227,"L"
1004176,"W15507 PLEASANT RIDGE ROAD","WEYERHAEUSER","WI",54895,45.3730673470001,-91.4739383259999,176,"W15507 PLEASANT RIDGE ROAD, WEYERHAEUSER, WI, 54895","Match","Exact","W15507 PLEASANT RIDGE RD, WEYERHAEUSER, WI, 54895",611896950,"R"
1004177,"W15520 GOLF ROAD","ETTRICK","WI",54627,NA,NA,177,"W15520 GOLF ROAD, ETTRICK, WI, 54627","No_Match",NA,NA,NA,NA
1004178,"W156 S7350 QUIETWOOD DR","MUSKEGO","WI",53150,42.913740148,-88.111226189,178,"W156 S7350 QUIETWOOD DR, MUSKEGO, WI, 53150","Match","Exact","W156 QUIETWOOD DR, MUSKEGO, WI, 53150",53856305,"L"
1004179,"W15646 BIRCH ROAD","ANTIGO","WI",54409,NA,NA,179,"W15646 BIRCH ROAD, ANTIGO, WI, 54409","No_Match",NA,NA,NA,NA
1004180,"W1569 MIDDLE DR","PULASKI","WI",54162,44.717141708,-88.317798731,180,"W1569 MIDDLE DR, PULASKI, WI, 54162","Match","Exact","W1569 MIDDLE DR, PULASKI, WI, 54162",126868781,"L"
1004181,"W156N10304 PILGRIM ROAD","GERMANTOWN","WI",53022,43.202632012,-88.103091811,181,"W156N10304 PILGRIM ROAD, GERMANTOWN, WI, 53022","Match","Exact","W156N10304 PILGRIM RD, GERMANTOWN, WI, 53022",79560102,"R"
1004182,"W156N11385 PILGRIM RD","GERMANTOWN","WI",53022,43.2236135460001,-88.103196172,182,"W156N11385 PILGRIM RD, GERMANTOWN, WI, 53022","Match","Exact","W156N11385 PILGRIM RD, GERMANTOWN, WI, 53022",79559751,"R"
1004183,"W157 N193 W FOND DU LAC AVE","GERMANTOWN","WI",53022,NA,NA,183,"W157 N193 W FOND DU LAC AVE, GERMANTOWN, WI, 53022","Tie",NA,NA,NA,NA
1004184,"W15721 MARTEN RD","BIRNAMWOOD","WI",54414,44.9937336790001,-89.043480389,184,"W15721 MARTEN RD, BIRNAMWOOD, WI, 54414","Match","Exact","W15721 MARTEN RD, BIRNAMWOOD, WI, 54414",126872839,"L"
1004185,"W15723 HWY 10","OSSEO","IA",54758,NA,NA,185,"W15723 HWY 10, OSSEO, IA, 54758","No_Match",NA,NA,NA,NA
1004186,"W15728 STATE HIGHWAY 121","HIXTON","WI",54635,44.4581854940001,-91.101068034,186,"W15728 STATE HIGHWAY 121, HIXTON, WI, 54635","Match","Exact","W15728 STATE HWY 121, HIXTON, WI, 54635",618286267,"L"
1004187,"W15766 STATE HWY 121","HIXTON","WI",54635,44.4561677660001,-91.1042994809999,187,"W15766 STATE HWY 121, HIXTON, WI, 54635","Match","Exact","W15766 STATE HWY 121, HIXTON, WI, 54635",618286266,"L"
1004188,"W1578 BAKERTOWN ROAD","SULLIVAN","WI",53178,43.0414957940001,-88.614252473,188,"W1578 BAKERTOWN ROAD, SULLIVAN, WI, 53178","Match","Non_Exact","W1578 BAKERTOWN DR, SULLIVAN, WI, 53178",53241852,"R"
1004189,"W15790 HWY 10","OSSEO","WI",54758,NA,NA,189,"W15790 HWY 10, OSSEO, WI, 54758","No_Match",NA,NA,NA,NA
1004190,"W157N10460 FIELDSTONE PASS","GERMANTOWN","WI",53022,43.211464877,-88.114564192,190,"W157N10460 FIELDSTONE PASS, GERMANTOWN, WI, 53022","Match","Exact","W157N10460 FIELDSTONE PASS, GERMANTOWN, WI, 53022",79563551,"L"
1004191,"W157N5839 CHERYLN DR","MENOMONEE FALLS","WI",53051,43.1214035880001,-88.106279726,191,"W157N5839 CHERYLN DR, MENOMONEE FALLS, WI, 53051","Match","Exact","W157N5839 CHERYLN DR, MENOMONEE FALLS, WI, 53051",53872020,"R"
1004192,"W1584 CESLER VALLEY ROAD","ALMA","WI",54610,44.396639437,-91.8490502989999,192,"W1584 CESLER VALLEY ROAD, ALMA, WI, 54610","Match","Exact","W1584 CESLER VALLEY RD, ALMA, WI, 54610",45734982,"L"
1004193,"W1597349 WOODVIEW DR","MENOMONEE FALLS","WI",53051,NA,NA,193,"W1597349 WOODVIEW DR, MENOMONEE FALLS, WI, 53051","No_Match",NA,NA,NA,NA
1004194,"W1598 COUNTY ROAD C","BROOKLYN","WI",53521,NA,NA,194,"W1598 COUNTY ROAD C, BROOKLYN, WI, 53521","No_Match",NA,NA,NA,NA
1004195,"W159N4940 GRAYSLAND DR","MENOMONEE FALLS","WI",53051,43.107016501,-88.110148705,195,"W159N4940 GRAYSLAND DR, MENOMONEE FALLS, WI, 53051","Match","Non_Exact","W159 GRAYSLAND DR E, MENOMONEE FALLS, WI, 53051",53852174,"L"
1004196,"W159N8997 PATTON DR","MENOMONEE FALLS","WI",53051,43.1813512620001,-88.108216544,196,"W159N8997 PATTON DR, MENOMONEE FALLS, WI, 53051","Match","Exact","W159N8997 PATTON DR, MENOMONEE FALLS, WI, 53051",53813838,"R"
1004197,"W159S7181 MARTIN DR","MUSKEGO","WI",53150,NA,NA,197,"W159S7181 MARTIN DR, MUSKEGO, WI, 53150","Tie",NA,NA,NA,NA
1004198,"W160N5452 WESTWIND DR","MENOMONEE FALLS","WI",53051,43.1172275440001,-88.114152121,198,"W160N5452 WESTWIND DR, MENOMONEE FALLS, WI, 53051","Match","Exact","W160N5452 WESTWIND DR, MENOMONEE FALLS, WI, 53051",633846336,"R"
1004199,"W161 N10653 FIELDSTONE PASS","GERMANTOWN","WI",53022,43.2114643640001,-88.110491079,199,"W161 N10653 FIELDSTONE PASS, GERMANTOWN, WI, 53022","Match","Exact","W161 FIELDSTONE PASS, GERMANTOWN, WI, 53022",79572609,"R"
1004200,"W161 N5711 BETTE DRIVE","MENOMONEE FALLS","WI",53051,NA,NA,200,"W161 N5711 BETTE DRIVE, MENOMONEE FALLS, WI, 53051","Tie",NA,NA,NA,NA
1004201,"W1611 US HWY 2","VULCAN","MI",49892,45.7517334520001,-87.699122877,201,"W1611 US HWY 2, VULCAN, MI, 49892","Match","Exact","W1611 US HWY 2, VULCAN, MI, 49892",620136091,"R"
1004202,"W1612 ECHO VALLEY RD","FREEDOM","WI",54130,44.3293885840001,-88.271619575,202,"W1612 ECHO VALLEY RD, FREEDOM, WI, 54130","Match","Exact","W1612 ECHO VALLEY RD, FREEDOM, WI, 54130",74889965,"L"
1004203,"W1628 FROELICH ROAD","SULLIVAN","WI",53178,42.9922556130001,-88.622978197,203,"W1628 FROELICH ROAD, SULLIVAN, WI, 53178","Match","Exact","W1628 FROELICH RD, SULLIVAN, WI, 53178",53232691,"L"
1004204,"W16399 BREAKNECK ROAD","BIRCHWOOD","WI",54817,45.6237907230001,-91.5164034489999,204,"W16399 BREAKNECK ROAD, BIRCHWOOD, WI, 54817","Match","Exact","W16399 BREAKNECK RD, BIRCHWOOD, WI, 54817",126541829,"L"
1004205,"W1642 RADER ROAD","MARINETTE","WI",54143,45.056627581,-87.678375724,205,"W1642 RADER ROAD, MARINETTE, WI, 54143","Match","Exact","W1642 RADER RD, MARINETTE, WI, 54143",169998903,"L"
1004206,"W164N11540 CASTLE CT","GERMANTOWN","WI",53022,43.227442841,-88.113324914,206,"W164N11540 CASTLE CT, GERMANTOWN, WI, 53022","Match","Exact","W164N11540 CASTLE CT, GERMANTOWN, WI, 53022",79559712,"L"
1004207,"W16533 WILSON CREEK LANE","WITTENEBRG","WI",54499,44.840252471,-89.078151514,207,"W16533 WILSON CREEK LANE, WITTENEBRG, WI, 54499","Match","Non_Exact","W16533 WILSON CREEK LN, WITTENBERG, WI, 54499",126877483,"L"
1004208,"W1658 SANDSTONE AVENUE","RIPON","WI",54971,43.8156349700001,-88.964444183,208,"W1658 SANDSTONE AVENUE, RIPON, WI, 54971","Match","Exact","W1658 SANDSTONE AVE, RIPON, WI, 54971",73448975,"L"
1004209,"W166S11015 LOOMIS DRIVE","MUSKEGO","WI",53150,NA,NA,209,"W166S11015 LOOMIS DRIVE, MUSKEGO, WI, 53150","No_Match",NA,NA,NA,NA
1004210,"W16714 LANGNER ROAD","OSSEO","WI",54758,NA,NA,210,"W16714 LANGNER ROAD, OSSEO, WI, 54758","No_Match",NA,NA,NA,NA
1004211,"W16735 OLD HWY 14","RICE LAKE","WI",54868,45.4365843940001,-91.540362186,211,"W16735 OLD HWY 14, RICE LAKE, WI, 54868","Match","Non_Exact","W16735 OLD 14, RICE LAKE, WI, 54868",126546220,"L"
1004212,"W168 N10726 JUNIPER DR","GERMANTOWN","WI",53022,NA,NA,212,"W168 N10726 JUNIPER DR, GERMANTOWN, WI, 53022","Tie",NA,NA,NA,NA
1004213,"W1688 RANCH ROAD","SEYMOUR","WI",54165,NA,NA,213,"W1688 RANCH ROAD, SEYMOUR, WI, 54165","No_Match",NA,NA,NA,NA
1004214,"W1689 COUNTY HWY J","MUKWONAGO","WI",53149,NA,NA,214,"W1689 COUNTY HWY J, MUKWONAGO, WI, 53149","No_Match",NA,NA,NA,NA
1004215,"W1689 COUNTY ROAD C","PULASKI","WI",54162,NA,NA,215,"W1689 COUNTY ROAD C, PULASKI, WI, 54162","No_Match",NA,NA,NA,NA
1004216,"W16898 US HWY 10","OSSEO","WI",54758,44.5885279180001,-91.160045125,216,"W16898 US HWY 10, OSSEO, WI, 54758","Match","Exact","W16898 US HWY 10, OSSEO, WI, 54758",649744118,"R"
1004217,"W168N10247 BITTERSWEET TRL","GERMANTOWN","WI",53022,43.203838638,-88.122836095,217,"W168N10247 BITTERSWEET TRL, GERMANTOWN, WI, 53022","Match","Exact","W168N10247 BITTERSWEET TRL, GERMANTOWN, WI, 53022",79566927,"R"
1004218,"W168N9289 GRAND AVE","MENOMONEE FALLS","WI",53051,43.1864337430001,-88.119123913,218,"W168N9289 GRAND AVE, MENOMONEE FALLS, WI, 53051","Match","Exact","W168N9289 GRAND AVE, MENOMONEE FALLS, WI, 53051",53873271,"R"
1004219,"W168S7979 PARKLAND DRIVE","MUSKEGO","WI",53150,42.900227805,-88.1240618319999,219,"W168S7979 PARKLAND DRIVE, MUSKEGO, WI, 53150","Match","Non_Exact","W168 PARKLAND CT, MUSKEGO, WI, 53150",53857571,"R"
1004220,"W16984 DOPP RD","ETTRICK","WI",54627,44.1476447900001,-91.290511232,220,"W16984 DOPP RD, ETTRICK, WI, 54627","Match","Exact","W16984 DOPP RD, ETTRICK, WI, 54627",46244661,"R"
1004221,"W169N5391 OAK RIDGE TRAIL","MENOMONEE FALLS","WI",53005,43.115610943,-88.121614173,221,"W169N5391 OAK RIDGE TRAIL, MENOMONEE FALLS, WI, 53005","Match","Non_Exact","W169 OAK RIDGE TRL, MENOMONEE FLS, WI, 53051",53852178,"L"
1004222,"W1701 KNUTES RD","PITTSVILLE","WI",54466,44.3796749850001,-90.3975084319999,222,"W1701 KNUTES RD, PITTSVILLE, WI, 54466","Match","Exact","W1701 KNUTES RD, PITTSVILLE, WI, 54466",50678438,"L"
1004223,"W170N11567 ARMADA DRIVE","GERMANTOWN","WI",53022,43.228018198,-88.121257079,223,"W170N11567 ARMADA DRIVE, GERMANTOWN, WI, 53022","Match","Exact","W170N11567 ARMADA DR, GERMANTOWN, WI, 53022",79570915,"R"
1004224,"W17125 FABER LN","MEDFORD","WI",54451,NA,NA,224,"W17125 FABER LN, MEDFORD, WI, 54451","No_Match",NA,NA,NA,NA
1004225,"W171N7114 SHADY LANE","MENOMONEE FALLS","WI",53051,43.147077655,-88.123704913,225,"W171N7114 SHADY LANE, MENOMONEE FALLS, WI, 53051","Match","Exact","W171N7114 SHADY LN, MENOMONEE FALLS, WI, 53051",53813681,"R"
1004226,"W1723 STATE ROAD 28","THERESA","WI",53091,NA,NA,226,"W1723 STATE ROAD 28, THERESA, WI, 53091","No_Match",NA,NA,NA,NA
1004227,"W172N7300 SHADY LANE","MENOMONEE FALLS","WI",53051,43.150437765,-88.124265248,227,"W172N7300 SHADY LANE, MENOMONEE FALLS, WI, 53051","Match","Exact","W172N7300 SHADY LN, MENOMONEE FALLS, WI, 53051",53813673,"R"
1004228,"W172N7735 SHADY LANE","MENOMONEE FALLS","WI",53051,43.157584136,-88.124081464,228,"W172N7735 SHADY LANE, MENOMONEE FALLS, WI, 53051","Match","Exact","W172N7735 SHADY LN, MENOMONEE FALLS, WI, 53051",648508493,"L"
1004229,"W1733 CTY HWY G","RANDOLPH","WI",53956,NA,NA,229,"W1733 CTY HWY G, RANDOLPH, WI, 53956","No_Match",NA,NA,NA,NA
1004230,"W173N8490 WESTBRIDGE AVE","MENOMONEE FALLS","ID",53051,NA,NA,230,"W173N8490 WESTBRIDGE AVE, MENOMONEE FALLS, ID, 53051","No_Match",NA,NA,NA,NA
1004231,"W173S7616 WESTWOOD DR","MUSKEGO","WI",53150,42.9048546700001,-88.130998397,231,"W173S7616 WESTWOOD DR, MUSKEGO, WI, 53150","Match","Exact","W173 WESTWOOD DR, MUSKEGO, WI, 53150",53822697,"R"
1004232,"W174N10351 AUTUMN CT","GERMANTOWN","WI",53022,43.205762206,-88.126582975,232,"W174N10351 AUTUMN CT, GERMANTOWN, WI, 53022","Match","Exact","W174N10351 AUTUMN CT, GERMANTOWN, WI, 53022",79568386,"R"
1004233,"W1755 COUNTY ROAD P","IXONIA","WI",53033,NA,NA,233,"W1755 COUNTY ROAD P, IXONIA, WI, 53033","No_Match",NA,NA,NA,NA
1004234,"W175N11117 STONE WOOD DR UNIT 211","GERMANTOWN","WI",53022,43.2197594880001,-88.12659454,234,"W175N11117 STONE WOOD DR UNIT 211, GERMANTOWN, WI, 53022","Match","Non_Exact","W175N11117 STONEWOOD DR, GERMANTOWN, WI, 53022",637359804,"R"
1004235,"W175N7911 WILDWOD DR APT 239","MENOMONEE FALLS","WI",53051,43.1616506980001,-88.127108702,235,"W175N7911 WILDWOD DR APT 239, MENOMONEE FALLS, WI, 53051","Match","Non_Exact","W175N7911 WILDWOOD DR, MENOMONEE FALLS, WI, 53051",53859432,"R"
1004236,"W176 S8658 NATURE CT","MUSKEGO","WI",53150,NA,NA,236,"W176 S8658 NATURE CT, MUSKEGO, WI, 53150","Tie",NA,NA,NA,NA
1004237,"W176N5153 EVELYN TERR","MENOMONEE FALLS","WI",53051,43.110681566,-88.131117189,237,"W176N5153 EVELYN TERR, MENOMONEE FALLS, WI, 53051","Match","Exact","W176N5153 EVELYN TER, MENOMONEE FALLS, WI, 53051",53813726,"L"
1004238,"W176S8044 JOEL DRIVE","MUSKEGO","WI",53150,42.8989963060001,-88.134955711,238,"W176S8044 JOEL DRIVE, MUSKEGO, WI, 53150","Match","Exact","W176S8044 JOEL DR, MUSKEGO, WI, 53150",53842950,"L"
1004239,"W177N8595 LYNWOOD DRIVE","MENOMONEE FALLS","WI",53051,43.173825637,-88.130847285,239,"W177N8595 LYNWOOD DRIVE, MENOMONEE FALLS, WI, 53051","Match","Exact","W177N8595 LYNWOOD DR, MENOMONEE FALLS, WI, 53051",53813336,"L"
1004240,"W1783 AMARANTH DRIVE","OCONOMOWOC","WI",53066,43.085627942,-88.621720325,240,"W1783 AMARANTH DRIVE, OCONOMOWOC, WI, 53066","Match","Non_Exact","W1783 W AMARANTH DR, OCONOMOWOC, WI, 53066",53219379,"R"
1004241,"W1790 HEATHMOR DRIVE","SHEBOYGAN","WI",53083,43.7839792980001,-87.784104391,241,"W1790 HEATHMOR DRIVE, SHEBOYGAN, WI, 53083","Match","Exact","W1790 HEATHMOR DR, SHEBOYGAN, WI, 53083",648096026,"R"
1004242,"W1791 BENDER ROAD","SHEBOYGAN","WI",53083,43.797004239,-87.780821007,242,"W1791 BENDER ROAD, SHEBOYGAN, WI, 53083","Match","Exact","W1791 BENDER RD, SHEBOYGAN, WI, 53083",79512004,"L"
1004243,"W17951 SILVER CREEK","GALESVILLE","WI",54630,44.0933141030001,-91.295686744,243,"W17951 SILVER CREEK, GALESVILLE, WI, 54630","Match","Exact","W17951 SILVER CREEK, GALESVILLE, WI, 54630",46251002,"R"
1004244,"W1796 HIGHVIEW CT","SHEBOYGAN","WI",53083,43.7943161380001,-87.7854761519999,244,"W1796 HIGHVIEW CT, SHEBOYGAN, WI, 53083","Match","Non_Exact","W1796 HIGH VIEW CT, SHEBOYGAN, WI, 53083",79507486,"L"
1004245,"W1797 CENTER VALLEY RD","FREEDOM","WI",54130,44.4006998130001,-88.272259737,245,"W1797 CENTER VALLEY RD, FREEDOM, WI, 54130","Match","Exact","W1797 CENTER VALLEY RD, FREEDOM, WI, 54130",74899252,"L"
1004246,"W180 S8218 PIONEER DR","MUSKEGO","WI",53150,NA,NA,246,"W180 S8218 PIONEER DR, MUSKEGO, WI, 53150","Tie",NA,NA,NA,NA
1004247,"W180N6275 MARCY RD","MENONONEE FALLS","WI",53051,43.128971456,-88.1348964049999,247,"W180N6275 MARCY RD, MENONONEE FALLS, WI, 53051","Match","Non_Exact","W180 MARCY RD, MENOMONEE FALLS, WI, 53051",53871945,"L"
1004248,"W180S6701 MUSKEGO DRIVE","MUSKEGO","WI",53150,42.924671303,-88.140268724,248,"W180S6701 MUSKEGO DRIVE, MUSKEGO, WI, 53150","Match","Exact","W180S6701 MUSKEGO DR, MUSKEGO, WI, 53150",53822594,"R"
1004249,"W180S8202 PIONEER DRIVE","MUSKEGO","WI",53150,42.8955688950001,-88.141046682,249,"W180S8202 PIONEER DRIVE, MUSKEGO, WI, 53150","Match","Exact","W180S8202 PIONEER DR, MUSKEGO, WI, 53150",53831645,"R"
1004250,"W181 CHURCH RD","OCONTO FALLS","WI",54154,44.838411664,-88.255414593,250,"W181 CHURCH RD, OCONTO FALLS, WI, 54154","Match","Exact","W181 CHURCH RD, OCONTO FALLS, WI, 54154",126875608,"R"
1004251,"W1814 KRAUSE ROAD","MARINETTE","WI",54143,45.02019298,-87.701672731,251,"W1814 KRAUSE ROAD, MARINETTE, WI, 54143","Match","Exact","W1814 KRAUSE RD, MARINETTE, WI, 54143",169995404,"L"
1004252,"W181N6052 JACKSON DRIVE","MENOMONEE FALLS","WI",53051,43.1236818580001,-88.1365179909999,252,"W181N6052 JACKSON DRIVE, MENOMONEE FALLS, WI, 53051","Match","Exact","W181N6052 JACKSON DR, MENOMONEE FALLS, WI, 53051",53813700,"R"
1004253,"W1825 WILDERNESS AVE","RIB LAKE","WI",54470,45.323386971,-90.139313536,253,"W1825 WILDERNESS AVE, RIB LAKE, WI, 54470","Match","Exact","W1825 WILDERNESS AVE, RIB LAKE, WI, 54470",117235780,"R"
1004254,"W1829 HEATHMOR DR","SHEBOYGAN","WI",53083,43.7839701840001,-87.7840959489999,254,"W1829 HEATHMOR DR, SHEBOYGAN, WI, 53083","Match","Exact","W1829 HEATHMOR DR, SHEBOYGAN, WI, 53083",648096026,"L"
1004255,"W182N5748 BALSAM CT","MENOMONEE FALLS","WI",53051,43.1221460300001,-88.138266787,255,"W182N5748 BALSAM CT, MENOMONEE FALLS, WI, 53051","Match","Exact","W182N5748 BALSAM CT, MENOMONEE FALLS, WI, 53051",53813709,"R"
1004256,"W1833 COUNTY RD S","ALMA","WI",54610,NA,NA,256,"W1833 COUNTY RD S, ALMA, WI, 54610","No_Match",NA,NA,NA,NA
1004257,"W1838 ST PETERS ROAD","EAST TROY","WI",53120,NA,NA,257,"W1838 ST PETERS ROAD, EAST TROY, WI, 53120","No_Match",NA,NA,NA,NA
1004258,"W183N8926 MARYHILL DR","MENOMONEE FALLS","WI",53051,43.180499495,-88.1381457689999,258,"W183N8926 MARYHILL DR, MENOMONEE FALLS, WI, 53051","Match","Exact","W183N8926 MARYHILL DR, MENOMONEE FALLS, WI, 53051",53813271,"L"
1004259,"W184 WELSCH ROAD","WINNECONNE","WI",54986,44.109414955,-88.889550229,259,"W184 WELSCH ROAD, WINNECONNE, WI, 54986","Match","Exact","W184 WELSCH RD, WINNECONNE, WI, 54986",73485089,"L"
1004260,"W185 S8750 RACINE AVE","MUSKEGO","WI",53150,NA,NA,260,"W185 S8750 RACINE AVE, MUSKEGO, WI, 53150","Tie",NA,NA,NA,NA
1004261,"W185585834","MUSKEGO","WI",53150,NA,NA,261,"W185585834, MUSKEGO, WI, 53150","No_Match",NA,NA,NA,NA
1004262,"W18596 ORIOLE ROAD","ELAND","WI",54427,44.8850058040001,-89.1864180539999,262,"W18596 ORIOLE ROAD, ELAND, WI, 54427","Match","Exact","W18596 ORIOLE RD, ELAND, WI, 54427",635640133,"R"
1004263,"W18642 BENJAMIN LANE","ETTRICK","WI",54627,44.195997913,-91.3265155839999,263,"W18642 BENJAMIN LANE, ETTRICK, WI, 54627","Match","Exact","W18642 BENJAMIN LN, ETTRICK, WI, 54627",46244519,"L"
1004264,"W1869 BRYE ROAD","COON VALLEY","WI",54623,43.7322173640001,-91.0004018879999,264,"W1869 BRYE ROAD, COON VALLEY, WI, 54623","Match","Exact","W1869 BRYE RD, COON VALLEY, WI, 54623",51008562,"R"
1004265,"W186S6746 JEWEL CREST DR","MUSKEGO","WI",53150,42.9214506650001,-88.147706178,265,"W186S6746 JEWEL CREST DR, MUSKEGO, WI, 53150","Match","Exact","W186S6746 JEWEL CREST DR, MUSKEGO, WI, 53150",53822507,"R"
1004266,"W18712 SILVER CREEK RD","GALESVILLE","WI",54630,44.0920840790001,-91.324788026,266,"W18712 SILVER CREEK RD, GALESVILLE, WI, 54630","Match","Exact","W18712 SILVER CREEK RD, GALESVILLE, WI, 54630",650720723,"L"
1004267,"W18754 LILY ROAD","BIRNAMWOOD","WI",54414,44.9104897070001,-89.204083316,267,"W18754 LILY ROAD, BIRNAMWOOD, WI, 54414","Match","Exact","W18754 LILY RD, BIRNAMWOOD, WI, 54414",126859368,"L"
1004268,"W188 S6757 GOLD DRIVE","MUSKEGO","WI",53150,NA,NA,268,"W188 S6757 GOLD DRIVE, MUSKEGO, WI, 53150","Tie",NA,NA,NA,NA
1004269,"W1889 HOFA PARK DRIVE","SEYMOUR","WI",54165,44.6215356810001,-88.272354029,269,"W1889 HOFA PARK DRIVE, SEYMOUR, WI, 54165","Match","Exact","W1889 HOFA PARK DR, SEYMOUR, WI, 54165",126869776,"L"
1004270,"W1893 DUCK CREEK AVE","NESHKORO","WI",54960,43.9234565190001,-89.252340641,270,"W1893 DUCK CREEK AVE, NESHKORO, WI, 54960","Match","Exact","W1893 DUCK CREEK AVE, NESHKORO, WI, 54960",73203335,"L"
1004271,"W1893 DUCK CREEK AVENUE","NESHKORO","WI",54960,43.9234565190001,-89.252340641,271,"W1893 DUCK CREEK AVENUE, NESHKORO, WI, 54960","Match","Exact","W1893 DUCK CREEK AVE, NESHKORO, WI, 54960",73203335,"L"
1004272,"W1899 CALMAR ROAD","MALONE","WI",53049,43.892140152,-88.255914876,272,"W1899 CALMAR ROAD, MALONE, WI, 53049","Match","Exact","W1899 CALMAR RD, MALONE, WI, 53049",642258184,"L"
1004273,"W1903 KEMPEN RD","FREEDOM","WI",54130,44.408189259,-88.283548313,273,"W1903 KEMPEN RD, FREEDOM, WI, 54130","Match","Exact","W1903 KEMPEN RD, FREEDOM, WI, 54130",74879390,"R"
1004274,"W190S7262 LOCHREST BLVD","MUSKEGO","WI",53150,NA,NA,274,"W190S7262 LOCHREST BLVD, MUSKEGO, WI, 53150","No_Match",NA,NA,NA,NA
1004275,"W19184 LUND ROAD","STRUM","WI",54770,44.4931437210001,-91.3298773339999,275,"W19184 LUND ROAD, STRUM, WI, 54770","Match","Exact","W19184 LUND RD, STRUM, WI, 54770",46241072,"L"
1004276,"W191S6445 HILLENDALE DRIVE","MUSKEGO","WI",53150,42.923697878,-88.15507968,276,"W191S6445 HILLENDALE DRIVE, MUSKEGO, WI, 53150","Match","Exact","W191S6445 HILLENDALE DR, MUSKEGO, WI, 53150",53822378,"L"
1004277,"W191S7626 RACINE AVE","MUSKEGO","WI",53150,42.907098325,-88.154845446,277,"W191S7626 RACINE AVE, MUSKEGO, WI, 53150","Match","Exact","W191S7626 RACINE AVE, MUSKEGO, WI, 53150",53822435,"R"
1004278,"W192N5827 SPENCERS PASS","MENOMONEE FALLS","WI",53051,43.1232108610001,-88.150560723,278,"W192N5827 SPENCERS PASS, MENOMONEE FALLS, WI, 53051","Match","Exact","W192N5827 SPENCERS PASS, MENOMONEE FALLS, WI, 53051",617670592,"L"
1004279,"W193S7465 RACINE AVENUE","MUSKEGO","WI",53150,NA,NA,279,"W193S7465 RACINE AVENUE, MUSKEGO, WI, 53150","Tie",NA,NA,NA,NA
1004280,"W1942 EAGLE ROAD","NESHKORO","WI",54960,NA,NA,280,"W1942 EAGLE ROAD, NESHKORO, WI, 54960","No_Match",NA,NA,NA,NA
1004281,"W195","MARKESAN","WI",53946,NA,NA,281,"W195, MARKESAN, WI, 53946","No_Match",NA,NA,NA,NA
1004282,"W1959 SPRING PRAIRIE RD","BURLINGTON","WI",53105,42.6915351690001,-88.400655419,282,"W1959 SPRING PRAIRIE RD, BURLINGTON, WI, 53105","Match","Exact","W1959 SPRING PRAIRIE RD, BURLINGTON, WI, 53105",53680860,"R"
1004283,"W196 N5611 POWELL DRIVE","MENOMONEE FALLS","WI",53051,NA,NA,283,"W196 N5611 POWELL DRIVE, MENOMONEE FALLS, WI, 53051","Tie",NA,NA,NA,NA
1004284,"W196N13704 HWY 145","RICHFIELD","WI",53076,NA,NA,284,"W196N13704 HWY 145, RICHFIELD, WI, 53076","No_Match",NA,NA,NA,NA
1004285,"W197 410TH AVE","PLUM CITY","WI",54761,44.68445645,-92.142809216,285,"W197 410TH AVE, PLUM CITY, WI, 54761","Match","Exact","W197 410TH AVE, PLUM CITY, WI, 54761",639185683,"L"
1004286,"W197 N17114 STONEWALL DRIVE","JACKSON","WI",53037,NA,NA,286,"W197 N17114 STONEWALL DRIVE, JACKSON, WI, 53037","Tie",NA,NA,NA,NA
1004287,"W1971 EAGLE ROAD","NESHKORO","WI",54960,43.89040126,-89.266568419,287,"W1971 EAGLE ROAD, NESHKORO, WI, 54960","Match","Exact","W1971 EAGLE RD, NESHKORO, WI, 54960",611908124,"R"
1004288,"W1973 VANS CT","FREEDOM","WI",54130,44.383835198,-88.282812233,288,"W1973 VANS CT, FREEDOM, WI, 54130","Match","Exact","W1973 VANS CT, FREEDOM, WI, 54130",74879217,"R"
1004289,"W1976 EAGLE ROAD","NESHKORO","WI",54960,43.8904158010001,-89.261142693,289,"W1976 EAGLE ROAD, NESHKORO, WI, 54960","Match","Exact","W1976 EAGLE RD, NESHKORO, WI, 54960",73198999,"L"
1004290,"W1978 DAVIS CREEK ROAD","MINDORO","WI",54644,44.0542947810001,-91.008607414,290,"W1978 DAVIS CREEK ROAD, MINDORO, WI, 54644","Match","Exact","W1978 DAVIS CREEK RD, MINDORO, WI, 54644",647199020,"R"
1004291,"W197N17030 STONEWALL DRIVE","JACKSON","WI",53037,43.3281506050001,-88.15357875,291,"W197N17030 STONEWALL DRIVE, JACKSON, WI, 53037","Match","Exact","W197N17030 STONEWALL DR, JACKSON, WI, 53037",613778557,"L"
1004292,"W1980 OCONNOR CT","FREEDOM","WI",54130,44.3926653520001,-88.2853497999999,292,"W1980 OCONNOR CT, FREEDOM, WI, 54130","Match","Exact","W1980 OCONNOR CT, FREEDOM, WI, 54130",74899216,"L"
1004293,"W1980 STATE ROAD 60","RUBICON","WI",53078,NA,NA,293,"W1980 STATE ROAD 60, RUBICON, WI, 53078","No_Match",NA,NA,NA,NA
1004294,"W1982 COUNTY ROAD J","PRINCETON","WI",54968,NA,NA,294,"W1982 COUNTY ROAD J, PRINCETON, WI, 54968","No_Match",NA,NA,NA,NA
1004295,"W198S10798 RED OAK COURT","MUSKEGO","WI",53150,42.8484026880001,-88.161688118,295,"W198S10798 RED OAK COURT, MUSKEGO, WI, 53150","Match","Exact","W198 RED OAK CT, MUSKEGO, WI, 53150",53845900,"R"
1004296,"W1991 EAST RIVER RD","BERLIN","WI",54923,43.931744957,-88.985834349,296,"W1991 EAST RIVER RD, BERLIN, WI, 54923","Match","Exact","W1991 E RIVER RD, BERLIN, WI, 54923",73447791,"R"
1004297,"W1998 CLOVERDALE RD","COLBY","WI",54421,44.872488382,-90.4196072249999,297,"W1998 CLOVERDALE RD, COLBY, WI, 54421","Match","Exact","W1998 CLOVERDALE RD, COLBY, WI, 54421",50886139,"L"
1004298,"W1999 PLEASANT AVE","MARKESAN","WI",53946,43.732263544,-88.978875143,298,"W1999 PLEASANT AVE, MARKESAN, WI, 53946","Match","Exact","W1999 PLEASANT AVE, MARKESAN, WI, 53946",73453593,"L"
1004299,"W199M11298 ROSEWOOD CT","GERMANTOWN","WI",53022,NA,NA,299,"W199M11298 ROSEWOOD CT, GERMANTOWN, WI, 53022","Tie",NA,NA,NA,NA
1004300,"W200S6873 ADRIAN DR","MUSKEGO","WI",53150,42.920215915,-88.163926607,300,"W200S6873 ADRIAN DR, MUSKEGO, WI, 53150","Match","Exact","W200S6873 ADRIAN DR, MUSKEGO, WI, 53150",627098566,"R"
1004301,"W2017 VANS CT","FREEDOM","WI",54130,44.383835198,-88.282812233,301,"W2017 VANS CT, FREEDOM, WI, 54130","Match","Exact","W2017 VANS CT, FREEDOM, WI, 54130",74879217,"R"
1004302,"W20177 BLUE STEM LN","GALESVILLE","WI",54630,44.07364419,-91.351752764,302,"W20177 BLUE STEM LN, GALESVILLE, WI, 54630","Match","Exact","W20177 BLUE STEM LN, GALESVILLE, WI, 54630",631775702,"L"
1004303,"W2021 CO ROAD V V","KESHENA","WI",54135,44.888772051,-88.5871786339999,303,"W2021 CO ROAD V V, KESHENA, WI, 54135","Match","Non_Exact","W2021 CO RD VV, KESHENA, WI, 54135",196451367,"L"
1004304,"W2023 TWIN LAKES RD","MARKESAN","WI",53946,43.794631456,-88.98552476,304,"W2023 TWIN LAKES RD, MARKESAN, WI, 53946","Match","Exact","W2023 TWIN LAKES RD, MARKESAN, WI, 53946",73448561,"R"
1004305,"W2034 COUNTY B","MARINETTE","WI",54143,NA,NA,305,"W2034 COUNTY B, MARINETTE, WI, 54143","No_Match",NA,NA,NA,NA
1004306,"W20342","GALESVILLE","WI",54630,NA,NA,306,"W20342, GALESVILLE, WI, 54630","No_Match",NA,NA,NA,NA
1004307,"W206 US HIGHWAY 10","MONDOVI","WI",54755,44.5762458410001,-91.573908269,307,"W206 US HIGHWAY 10, MONDOVI, WI, 54755","Match","Exact","W206 US HWY 10, MONDOVI, WI, 54755",45764295,"L"
1004308,"W2066 BRUETTE RD","WAUSAUKEE","WI",54177,45.3049543880001,-87.694719063,308,"W2066 BRUETTE RD, WAUSAUKEE, WI, 54177","Match","Exact","W2066 BRUETTE RD, WAUSAUKEE, WI, 54177",169992138,"R"
1004309,"W206N16660 BLACKBERRY CIRCLE","JACKSON","WI",53037,43.3224139270001,-88.16359628,309,"W206N16660 BLACKBERRY CIRCLE, JACKSON, WI, 53037","Match","Exact","W206N16660 BLACKBERRY CIR, JACKSON, WI, 53037",649751525,"L"
1004310,"W2071 TWIN LAKES RD","MARKESAN","WI",53946,43.794631456,-88.98552476,310,"W2071 TWIN LAKES RD, MARKESAN, WI, 53946","Match","Exact","W2071 TWIN LAKES RD, MARKESAN, WI, 53946",73448561,"R"
1004311,"W207S8240 HILLENDALE DRIVE","MUSKEGO","WI",53150,42.894643219,-88.1744108409999,311,"W207S8240 HILLENDALE DRIVE, MUSKEGO, WI, 53150","Match","Exact","W207S8240 HILLENDALE DR, MUSKEGO, WI, 53150",617669482,"R"
1004312,"W208 MERIDIAN ROAD","THERESA","WI",53091,43.5003503940001,-88.411918696,312,"W208 MERIDIAN ROAD, THERESA, WI, 53091","Match","Exact","W208 MERIDIAN RD, THERESA, WI, 53091",53541435,"L"
1004313,"W2086 FINNIGANS RIDGE LANE","FREEDOM","WI",54130,44.3959927860001,-88.282575822,313,"W2086 FINNIGANS RIDGE LANE, FREEDOM, WI, 54130","Match","Exact","W2086 FINNIGANS RIDGE LN, FREEDOM, WI, 54130",617908745,"R"
1004314,"W2088 EVERGREEN DRIVE","KAUKAUNA","WI",54130,44.301078794,-88.302198585,314,"W2088 EVERGREEN DRIVE, KAUKAUNA, WI, 54130","Match","Non_Exact","W2088 E EVERGREEN DR, KAUKAUNA, WI, 54130",74906827,"L"
1004315,"W2089 EVERGREEN DRIVE","KAUKAUNA","WI",54130,NA,NA,315,"W2089 EVERGREEN DRIVE, KAUKAUNA, WI, 54130","No_Match",NA,NA,NA,NA
1004316,"W20914 SACIA RD","GALESVILLE","WI",54630,44.0994072,-91.372011205,316,"W20914 SACIA RD, GALESVILLE, WI, 54630","Match","Exact","W20914 SACIA RD, GALESVILLE, WI, 54630",648531080,"R"
1004317,"W2092 FINNIGANS RIDGE LANE","FREEDOM","WI",54130,44.3959927860001,-88.282575822,317,"W2092 FINNIGANS RIDGE LANE, FREEDOM, WI, 54130","Match","Exact","W2092 FINNIGANS RIDGE LN, FREEDOM, WI, 54130",617908745,"R"
1004318,"W210 N11120 MOUNTBROOKE DR","GERMANTOWN","WI",53022,NA,NA,318,"W210 N11120 MOUNTBROOKE DR, GERMANTOWN, WI, 53022","Tie",NA,NA,NA,NA
1004319,"W211 N11863 HILLTOP DR B9","GERMANTOWN","WI",53022,43.2350349970001,-88.174675344,319,"W211 N11863 HILLTOP DR B9, GERMANTOWN, WI, 53022","Match","Exact","W211 HILLTOP DR, GERMANTOWN, WI, 53022",79558949,"L"
1004320,"W2114 CHESTERFIELD COURT","KAUKAUNA","WI",54130,NA,NA,320,"W2114 CHESTERFIELD COURT, KAUKAUNA, WI, 54130","No_Match",NA,NA,NA,NA
1004321,"W2115 LUDWIG STREET","FREEDOM","WI",54130,44.3911974580001,-88.291567874,321,"W2115 LUDWIG STREET, FREEDOM, WI, 54130","Match","Exact","W2115 LUDWIG ST, FREEDOM, WI, 54130",74899229,"L"
1004322,"W2128 FRIESLAND RD","CAMBRIA","WI",53923,43.5877432500001,-89.118897787,322,"W2128 FRIESLAND RD, CAMBRIA, WI, 53923","Match","Exact","W2128 FRIESLAND RD, CAMBRIA, WI, 53923",73331937,"L"
1004323,"W213 CHURCH RD","OCONTO FALLS","WI",54154,44.838411664,-88.255414593,323,"W213 CHURCH RD, OCONTO FALLS, WI, 54154","Match","Exact","W213 CHURCH RD, OCONTO FALLS, WI, 54154",126875608,"R"
1004324,"W2139 STATE ROAD 11","ELKHORN","WI",53121,42.691250014,-88.4070530449999,324,"W2139 STATE ROAD 11, ELKHORN, WI, 53121","Match","Exact","W2139 STATE RD 11, ELKHORN, WI, 53121",607343343,"L"
1004325,"W21441 HUGHS FILLA RD","INDEPENDENCE","WI",54747,44.3634199950001,-91.374260501,325,"W21441 HUGHS FILLA RD, INDEPENDENCE, WI, 54747","Match","Non_Exact","W21441 HUGHES FILLA RD, INDEPENDENCE, WI, 54747",46248649,"L"
1004326,"W2151 KIEL ROAD","NEW HOLSTEIN","WI",53061,NA,NA,326,"W2151 KIEL ROAD, NEW HOLSTEIN, WI, 53061","No_Match",NA,NA,NA,NA
1004327,"W2155 SOUTH AVE","LOMIRA","WI",53048,43.571882481,-88.503142533,327,"W2155 SOUTH AVE, LOMIRA, WI, 53048","Match","Exact","W2155 SOUTH AVE, LOMIRA, WI, 53048",53539167,"R"
1004328,"W215M10367 LAUREL COURT","COLGATE","WI",53017,NA,NA,328,"W215M10367 LAUREL COURT, COLGATE, WI, 53017","Tie",NA,NA,NA,NA
1004329,"W215N10115 HICKORY DR","COLGATE","WI",53017,43.202660914,-88.1763204279999,329,"W215N10115 HICKORY DR, COLGATE, WI, 53017","Match","Exact","W215N10115 HICKORY DR, COLGATE, WI, 53017",79559981,"R"
1004330,"W215N5986 ARBOR LANE","MENOMONEE FALLS","WI",53051,43.126132709,-88.1788160689999,330,"W215N5986 ARBOR LANE, MENOMONEE FALLS, WI, 53051","Match","Exact","W215N5986 ARBOR LN, MENOMONEE FALLS, WI, 53051",53810699,"L"
1004331,"W2161 MARIGOLD DR","BRILLION","WI",54110,44.214750263,-88.144469557,331,"W2161 MARIGOLD DR, BRILLION, WI, 54110","Match","Exact","W2161 MARIGOLD DR, BRILLION, WI, 54110",74788499,"L"
1004332,"W2162 DAISY LN","BRILLION","WI",54110,44.2137247680001,-88.1445049869999,332,"W2162 DAISY LN, BRILLION, WI, 54110","Match","Exact","W2162 DAISY LN, BRILLION, WI, 54110",74788496,"R"
1004333,"W2170 SPRING LAKE RD","MARKESAN","WI",53946,NA,NA,333,"W2170 SPRING LAKE RD, MARKESAN, WI, 53946","No_Match",NA,NA,NA,NA
1004334,"W2171 OAK RIDGE AVENUE","EAST TROY","WI",53120,42.80553651,-88.409078478,334,"W2171 OAK RIDGE AVENUE, EAST TROY, WI, 53120","Match","Exact","W2171 OAK RIDGE AVE, EAST TROY, WI, 53120",53675423,"R"
1004335,"W21715 RED FOX LANE","TREMPEALEAU","WI",54661,43.994425843,-91.3811081649999,335,"W21715 RED FOX LANE, TREMPEALEAU, WI, 54661","Match","Exact","W21715 RED FOX LN, TREMPEALEAU, WI, 54661",46249421,"L"
1004336,"W2172 COUNTRY CLUB LANE","EAST TROY","WI",53120,42.811930326,-88.4113134949999,336,"W2172 COUNTRY CLUB LANE, EAST TROY, WI, 53120","Match","Exact","W2172 COUNTRY CLUB LN, EAST TROY, WI, 53120",53675434,"R"
1004337,"W2172 COUNTYR CLUB LANE","EAST TROY","WI",53120,42.811930326,-88.4113134949999,337,"W2172 COUNTYR CLUB LANE, EAST TROY, WI, 53120","Match","Non_Exact","W2172 COUNTRY CLUB LN, EAST TROY, WI, 53120",53675434,"R"
1004338,"W2174 HOLY HILL RD","CECIL","WI",54166,44.843727867,-88.356280084,338,"W2174 HOLY HILL RD, CECIL, WI, 54166","Match","Non_Exact","W2174 HOLY HILL RD, CECIL, WI, 54111",635741708,"L"
1004339,"W2179 RIVER LN","GILLETT","WI",54124,NA,NA,339,"W2179 RIVER LN, GILLETT, WI, 54124","No_Match",NA,NA,NA,NA
1004340,"W21828 DONALD VETO LANE","GALESVILLE","WI",54630,44.170727061,-91.389575714,340,"W21828 DONALD VETO LANE, GALESVILLE, WI, 54630","Match","Exact","W21828 DONALD VETO LN, GALESVILLE, WI, 54630",46233792,"R"
1004341,"W2183 COUNTY ROAD B","MARINETTE","WI",54143,NA,NA,341,"W2183 COUNTY ROAD B, MARINETTE, WI, 54143","No_Match",NA,NA,NA,NA
1004342,"W218N11431 APPLETON AVE","GERMANTOWN","WI",53022,NA,NA,342,"W218N11431 APPLETON AVE, GERMANTOWN, WI, 53022","No_Match",NA,NA,NA,NA
1004343,"W218N5387 TAYLORS WOODS DR","MENOMONEE FALLS","WI",53051,43.1154054780001,-88.18345062,343,"W218N5387 TAYLORS WOODS DR, MENOMONEE FALLS, WI, 53051","Match","Exact","W218N5387 TAYLORS WOODS DR, MENOMONEE FALLS, WI, 53051",53910252,"R"
1004344,"W2207 TAYLOR RD PO BOX 235","WHITE LAKE","WI",54491,45.1930526450001,-88.744782012,344,"W2207 TAYLOR RD PO BOX 235, WHITE LAKE, WI, 54491","Match","Exact","W2207 TAYLOR RD, WHITE LAKE, WI, 54491",196407051,"L"
1004345,"W221 S3942 CRESTVIEW DR","WAUKESHA","WI",53189,NA,NA,345,"W221 S3942 CRESTVIEW DR, WAUKESHA, WI, 53189","Tie",NA,NA,NA,NA
1004346,"W221 S6102 SEFTAR ROAD","WAUKESHA","WI",53189,NA,NA,346,"W221 S6102 SEFTAR ROAD, WAUKESHA, WI, 53189","Tie",NA,NA,NA,NA
1004347,"W221S4522 SUNRIDGE COURT","WAUKESHA","WI",53189,42.9630233840001,-88.1919146069999,347,"W221S4522 SUNRIDGE COURT, WAUKESHA, WI, 53189","Match","Non_Exact","W221 SUN RIDGE CT, WAUKESHA, WI, 53189",53847328,"L"
1004348,"W22282 11TH STREET","TREMPEALEAU","WI",54661,44.0132385530001,-91.3976267909999,348,"W22282 11TH STREET, TREMPEALEAU, WI, 54661","Match","Exact","W22282 11TH ST, TREMPEALEAU, WI, 54661",46235314,"L"
1004349,"W223 N4994 EASTVIEW DR","SUSSEX","WI",53089,NA,NA,349,"W223 N4994 EASTVIEW DR, SUSSEX, WI, 53089","Tie",NA,NA,NA,NA
1004350,"W223 S3061 RACINE AVE","WAUKESHA","WI",53186,NA,NA,350,"W223 S3061 RACINE AVE, WAUKESHA, WI, 53186","Tie",NA,NA,NA,NA
1004351,"W223 S9880 BIG BEND DR","BIG BEND","WI",53103,42.86526989,-88.196506083,351,"W223 S9880 BIG BEND DR, BIG BEND, WI, 53103","Match","Exact","W223 BIG BEND DR, BIG BEND, WI, 53103",627815039,"R"
1004352,"W223N7390 HAMILTON DRIVE","SUSSEX","WI",53089,43.152598309,-88.192568255,352,"W223N7390 HAMILTON DRIVE, SUSSEX, WI, 53089","Match","Exact","W223N7390 HAMILTON DR, SUSSEX, WI, 53089",53843482,"L"
1004353,"W224 S6390 S GUTHRIE ROAD","WAUKESHA","WI",53189,NA,NA,353,"W224 S6390 S GUTHRIE ROAD, WAUKESHA, WI, 53189","Tie",NA,NA,NA,NA
1004354,"W224S7250 GUTHRIE DRIVE","BIG BEND","WI",53103,42.9133549360001,-88.1990828799999,354,"W224S7250 GUTHRIE DRIVE, BIG BEND, WI, 53103","Match","Exact","W224S7250 GUTHRIE DR, BIG BEND, WI, 53103",650565149,"L"
1004355,"W2251 COMMERCIAL ST","POY SIPPI","WI",54967,NA,NA,355,"W2251 COMMERCIAL ST, POY SIPPI, WI, 54967","No_Match",NA,NA,NA,NA
1004356,"W2251 COMMERCIAL STREET","POY SIPPI","WI",54967,NA,NA,356,"W2251 COMMERCIAL STREET, POY SIPPI, WI, 54967","No_Match",NA,NA,NA,NA
1004357,"W22619 PRAIRIE WOOD DRIVE","TREMPEALEAU","WI",54661,44.013647866,-91.4036580969999,357,"W22619 PRAIRIE WOOD DRIVE, TREMPEALEAU, WI, 54661","Match","Exact","W22619 PRAIRIE WOOD DR, TREMPEALEAU, WI, 54661",650735609,"L"
1004358,"W226N3548 WETHERSFIELD RD","PEWAUKEE","WI",53072,43.083550905,-88.1970640869999,358,"W226N3548 WETHERSFIELD RD, PEWAUKEE, WI, 53072","Match","Exact","W226N3548 WETHERSFIELD RD, PEWAUKEE, WI, 53072",617671879,"R"
1004359,"W227S8510 LAKE PARK DR","BIG BEND","WI",53103,42.8871570150001,-88.204035047,359,"W227S8510 LAKE PARK DR, BIG BEND, WI, 53103","Match","Exact","W227S8510 LAKE PARK DR, BIG BEND, WI, 53103",648287282,"R"
1004360,"W228 S1544 ANTIOCH ST","WAUKESHA","WI",53186,NA,NA,360,"W228 S1544 ANTIOCH ST, WAUKESHA, WI, 53186","Tie",NA,NA,NA,NA
1004361,"W228 S8916 JACKSON PARKWAY","BIG BEND","WI",53103,NA,NA,361,"W228 S8916 JACKSON PARKWAY, BIG BEND, WI, 53103","Tie",NA,NA,NA,NA
1004362,"W228N791 WESTMOUND DRIVE","WAUKESHA","WI",53186,43.037804948,-88.201971267,362,"W228N791 WESTMOUND DRIVE, WAUKESHA, WI, 53186","Match","Exact","W228N791 WESTMOUND DR, WAUKESHA, WI, 53186",53812405,"L"
1004363,"W229 COUNTY ROAD V V","SEYMOUR","WI",54165,NA,NA,363,"W229 COUNTY ROAD V V, SEYMOUR, WI, 54165","No_Match",NA,NA,NA,NA
1004364,"W229 S9015 JACKSON PARKWAY","BIG BEND","WI",53103,NA,NA,364,"W229 S9015 JACKSON PARKWAY, BIG BEND, WI, 53103","Tie",NA,NA,NA,NA
1004365,"W22N5956 LYNWOOD DRIVE","LISBON","WI",53089,NA,NA,365,"W22N5956 LYNWOOD DRIVE, LISBON, WI, 53089","No_Match",NA,NA,NA,NA
1004366,"W2304 COUNTY ROAD VJ","SHEBOYGAN FALLS","WI",53085,NA,NA,366,"W2304 COUNTY ROAD VJ, SHEBOYGAN FALLS, WI, 53085","No_Match",NA,NA,NA,NA
1004367,"W230N7454 E STONERIDGE CT","SUSSEX","WI",53089,43.1529712230001,-88.206336283,367,"W230N7454 E STONERIDGE CT, SUSSEX, WI, 53089","Match","Exact","W230N7454 E STONERIDGE CT, SUSSEX, WI, 53089",53843632,"L"
1004368,"W230S8945 CLARK STREET","BIG BEND","WI",53103,42.88152261,-88.208796486,368,"W230S8945 CLARK STREET, BIG BEND, WI, 53103","Match","Exact","W230S8945 CLARK ST, BIG BEND, WI, 53103",53821886,"L"
1004369,"W2317 E JEFFERSON ROAD","CHILTON","WI",53014,NA,NA,369,"W2317 E JEFFERSON ROAD, CHILTON, WI, 53014","No_Match",NA,NA,NA,NA
1004370,"W231N7956 MARTIN CT","SUSSEX","WI",53089,43.160055309,-88.207172441,370,"W231N7956 MARTIN CT, SUSSEX, WI, 53089","Match","Exact","W231N7956 MARTIN CT, SUSSEX, WI, 53089",53859010,"R"
1004371,"W232 N6208 WAUKESHA AVENUE","SUSSEX","WI",53089,NA,NA,371,"W232 N6208 WAUKESHA AVENUE, SUSSEX, WI, 53089","Tie",NA,NA,NA,NA
1004372,"W2324 NORTH STAR LANE","SHEBOYGAN","WI",53083,43.807979468,-87.810640359,372,"W2324 NORTH STAR LANE, SHEBOYGAN, WI, 53083","Match","Non_Exact","W2324 N STAR RD, SHEBOYGAN, WI, 53083",79523112,"L"
1004373,"W2327 POND ROAD","NEOSHO","WI",53059,43.315420583,-88.512502346,373,"W2327 POND ROAD, NEOSHO, WI, 53059","Match","Exact","W2327 POND RD, NEOSHO, WI, 53059",616734214,"L"
1004374,"W232N9035 WOODED RIDGE TRAIL","SUSSEX","WI",53089,43.1776165520001,-88.205998611,374,"W232N9035 WOODED RIDGE TRAIL, SUSSEX, WI, 53089","Match","Exact","W232N9035 WOODED RIDGE TRL, SUSSEX, WI, 53089",53850284,"L"
1004375,"W2337 CHESTNUT LANE","FREEDOM","WI",54132,NA,NA,375,"W2337 CHESTNUT LANE, FREEDOM, WI, 54132","No_Match",NA,NA,NA,NA
1004376,"W234 STATE RD 20","EAST TROY","WI",53210,42.7782463570001,-88.3147242169999,376,"W234 STATE RD 20, EAST TROY, WI, 53210","Match","Non_Exact","W234 STATE RD 20, EAST TROY, WI, 53120",53676261,"R"
1004377,"W2343 BONNIE LANE","KAUKAUNA","WI",54130,44.3269646680001,-88.3028892839999,377,"W2343 BONNIE LANE, KAUKAUNA, WI, 54130","Match","Exact","W2343 BONNIE LN, KAUKAUNA, WI, 54130",74899509,"L"
1004378,"W234N6495 LAUREL LANE","SUSSEX","WI",53089,43.136155149,-88.213584437,378,"W234N6495 LAUREL LANE, SUSSEX, WI, 53089","Match","Exact","W234N6495 LAUREL LN, SUSSEX, WI, 53089",53810418,"R"
1004379,"W234N7871 MALLARD CT","SUSSEX","WI",53089,43.1601727140001,-88.212173385,379,"W234N7871 MALLARD CT, SUSSEX, WI, 53089","Match","Exact","W234N7871 MALLARD CT, SUSSEX, WI, 53089",53859016,"L"
1004380,"W2358N7085 MICHELE LANE","SUSSEX","WI",53089,NA,NA,380,"W2358N7085 MICHELE LANE, SUSSEX, WI, 53089","No_Match",NA,NA,NA,NA
1004381,"W236 N6061 PINE TERRACE","SUSSEX","WI",53089,NA,NA,381,"W236 N6061 PINE TERRACE, SUSSEX, WI, 53089","Tie",NA,NA,NA,NA
1004382,"W2364 COUNTY ROAD Y","MAYVILLE","WI",53050,NA,NA,382,"W2364 COUNTY ROAD Y, MAYVILLE, WI, 53050","No_Match",NA,NA,NA,NA
1004383,"W2377 NORTH BLOOM FIELD ROAD","LAKE GENEVA","WI",53147,42.5746987680001,-88.4141269149999,383,"W2377 NORTH BLOOM FIELD ROAD, LAKE GENEVA, WI, 53147","Match","Non_Exact","W2377 N BLOOMFIELD RD, LAKE GENEVA, WI, 53147",607347719,"R"
1004384,"W237N6956 HASTINGS LN","SUSSEX","WI",53089,NA,NA,384,"W237N6956 HASTINGS LN, SUSSEX, WI, 53089","Tie",NA,NA,NA,NA
1004385,"W237S5575 MAPLE HILL DR","WAUKESHA","WI",53189,42.9429247950001,-88.223593766,385,"W237S5575 MAPLE HILL DR, WAUKESHA, WI, 53189","Match","Exact","W237S5575 MAPLE HILL DR, WAUKESHA, WI, 53189",53821069,"L"
1004386,"W238N5967 ESSEX CIRCLE","SUSSEX","WI",53089,43.1247863250001,-88.221935472,386,"W238N5967 ESSEX CIRCLE, SUSSEX, WI, 53089","Match","Exact","W238N5967 ESSEX CIR, SUSSEX, WI, 53089",53833244,"L"
1004387,"W238N6924 GALE DRIVE","SUSSEX","WI",53089,43.1436654440001,-88.2212304459999,387,"W238N6924 GALE DRIVE, SUSSEX, WI, 53089","Match","Exact","W238N6924 GALE DR, SUSSEX, WI, 53089",53810190,"L"
1004388,"W2397 HEATHER STREET","PRAIRIE DU SAC","WI",53578,NA,NA,388,"W2397 HEATHER STREET, PRAIRIE DU SAC, WI, 53578","No_Match",NA,NA,NA,NA
1004389,"W239N7229 LAUREL WOOD CT","SUSSEX","WI",53089,43.150054201,-88.222900941,389,"W239N7229 LAUREL WOOD CT, SUSSEX, WI, 53089","Match","Exact","W239N7229 LAUREL WOOD CT, SUSSEX, WI, 53089",221923010,"R"
1004390,"W239N7474 HIGH RIDGE DR","SUSSEX","WI",53089,NA,NA,390,"W239N7474 HIGH RIDGE DR, SUSSEX, WI, 53089","No_Match",NA,NA,NA,NA
1004391,"W23S5162 ERMINE COURT","WAUKESHA","WI",53189,NA,NA,391,"W23S5162 ERMINE COURT, WAUKESHA, WI, 53189","No_Match",NA,NA,NA,NA
1004392,"W24148 GERMAN COULEE LN","ARCADIA","WI",54612,NA,NA,392,"W24148 GERMAN COULEE LN, ARCADIA, WI, 54612","No_Match",NA,NA,NA,NA
1004393,"W243 N2708 CREEKSIDE CT","PEEWAUKEE","WI",53072,NA,NA,393,"W243 N2708 CREEKSIDE CT, PEEWAUKEE, WI, 53072","Tie",NA,NA,NA,NA
1004394,"W2435 CTY E","CAMBRIA","WI",53923,NA,NA,394,"W2435 CTY E, CAMBRIA, WI, 53923","No_Match",NA,NA,NA,NA
1004395,"W243N5789 FALCON DR","SUSSEX","WI",53089,NA,NA,395,"W243N5789 FALCON DR, SUSSEX, WI, 53089","No_Match",NA,NA,NA,NA
1004396,"W244 N4850 SWAN RD","PEWAUKEE","WI",53072,NA,NA,396,"W244 N4850 SWAN RD, PEWAUKEE, WI, 53072","Tie",NA,NA,NA,NA
1004397,"W245 N2799 SINGLE TREE DRIVE","PEWAUKEE","WI",53072,43.0712018,-88.2343282799999,397,"W245 N2799 SINGLE TREE DRIVE, PEWAUKEE, WI, 53072","Match","Exact","W245 SINGLE TREE DR, PEWAUKEE, WI, 53072",221922112,"R"
1004398,"W24525 WESTVIEW LANE","TREMPEALEAU","WI",54661,NA,NA,398,"W24525 WESTVIEW LANE, TREMPEALEAU, WI, 54661","No_Match",NA,NA,NA,NA
1004399,"W245N5770 PARTRIDGE LANE","SUSSEX","WI",53089,43.1233690020001,-88.237416829,399,"W245N5770 PARTRIDGE LANE, SUSSEX, WI, 53089","Match","Exact","W245N5770 PARTRIDGE LN, SUSSEX, WI, 53089",53837866,"L"
1004400,"W246 N6643 PEWAUKEE RD","SUSSEX","WI",53089,NA,NA,400,"W246 N6643 PEWAUKEE RD, SUSSEX, WI, 53089","Tie",NA,NA,NA,NA
1004401,"W246 N6701 CHAMPENY COURT","SUSSEX","WI",53089,43.1396223580001,-88.2367852519999,401,"W246 N6701 CHAMPENY COURT, SUSSEX, WI, 53089","Match","Non_Exact","W246 CHAMPENY RD, SUSSEX, WI, 53089",53902657,"R"
1004402,"W2461 ST RD 92","BROOKLYN","WI",53521,NA,NA,402,"W2461 ST RD 92, BROOKLYN, WI, 53521","No_Match",NA,NA,NA,NA
1004403,"W2464 HWY 64","MEDFORD","WI",54451,45.142290174,-90.171395439,403,"W2464 HWY 64, MEDFORD, WI, 54451","Match","Non_Exact","W2464 STATE HWY 64, MEDFORD, WI, 54451",117239222,"R"
1004404,"W25281 TODD RD","TREMPEALEAU","WI",54661,44.072812759,-91.4538010049999,404,"W25281 TODD RD, TREMPEALEAU, WI, 54661","Match","Exact","W25281 TODD RD, TREMPEALEAU, WI, 54661",649752952,"L"
1004405,"W2531 CEDAR ROAD","EAU CLAIRE","WI",54701,44.6907085930001,-91.534688578,405,"W2531 CEDAR ROAD, EAU CLAIRE, WI, 54701","Match","Exact","W2531 CEDAR RD, EAU CLAIRE, WI, 54701",46079236,"R"
1004406,"W2548 VIOLET LANE","MERRILL","WI",54452,45.181490743,-89.549196078,406,"W2548 VIOLET LANE, MERRILL, WI, 54452","Match","Exact","W2548 VIOLET LN, MERRILL, WI, 54452",201788324,"R"
1004407,"W2554 KINGSTON LN","MARINETTE","WI",54143,45.0357663460001,-87.724937174,407,"W2554 KINGSTON LN, MARINETTE, WI, 54143","Match","Exact","W2554 KINGSTON LN, MARINETTE, WI, 54143",169998840,"L"
1004408,"W2560 BOOTH LAKE HEIGHTS LN","EAST TROY","WI",53120,42.795942843,-88.427999389,408,"W2560 BOOTH LAKE HEIGHTS LN, EAST TROY, WI, 53120","Match","Exact","W2560 BOOTH LAKE HEIGHTS LN, EAST TROY, WI, 53120",53675807,"L"
1004409,"W2561 MILEY ROAD","SHEBOYGAN FALLS","WI",53085,43.684839561,-87.825763227,409,"W2561 MILEY ROAD, SHEBOYGAN FALLS, WI, 53085","Match","Exact","W2561 MILEY RD, SHEBOYGAN FALLS, WI, 53085",79506770,"R"
1004410,"W256S10215 SANDHILL RDG","MUKWONAGO","WI",53149,42.858812764,-88.260656081,410,"W256S10215 SANDHILL RDG, MUKWONAGO, WI, 53149","Match","Non_Exact","W256 SANDHILL RIDGE RD, MUKWONAGO, WI, 53149",53858820,"R"
1004411,"W257 S5314 WOOD LILLY LANE","WAUKESHA","WI",53189,NA,NA,411,"W257 S5314 WOOD LILLY LANE, WAUKESHA, WI, 53189","Tie",NA,NA,NA,NA
1004412,"W2570 BLOCK ROAD","APPLETON","WI",54915,44.249453094,-88.317600059,412,"W2570 BLOCK ROAD, APPLETON, WI, 54915","Match","Exact","W2570 BLOCK RD, APPLETON, WI, 54915",74893219,"R"
1004413,"W2573 CANDLELITE WAY","APPLETON","WI",54915,NA,NA,413,"W2573 CANDLELITE WAY, APPLETON, WI, 54915","No_Match",NA,NA,NA,NA
1004414,"W2579 SHELTON TOWER RD","SARONA","WI",54870,NA,NA,414,"W2579 SHELTON TOWER RD, SARONA, WI, 54870","No_Match",NA,NA,NA,NA
1004415,"W257N7753 MAJESTIC PLACE","SUSSEX","WI",53089,NA,NA,415,"W257N7753 MAJESTIC PLACE, SUSSEX, WI, 53089","No_Match",NA,NA,NA,NA
1004416,"W258 S7980 PRAIRIESIDE DRIVE","MUKWONAGO","WI",53149,NA,NA,416,"W258 S7980 PRAIRIESIDE DRIVE, MUKWONAGO, WI, 53149","Tie",NA,NA,NA,NA
1004417,"W260 JAN COURT","KAUKAUNA","WI",54136,44.25156751,-88.2020969439999,417,"W260 JAN COURT, KAUKAUNA, WI, 54136","Match","Non_Exact","W260 JAN CT, KAUKAUNA, WI, 54130",74902459,"L"
1004418,"W2607 FOX RIVER SHORES","BERLIN","WI",54923,43.9459920370001,-89.012072787,418,"W2607 FOX RIVER SHORES, BERLIN, WI, 54923","Match","Non_Exact","W2607 FOX RIVER SHORES E, BERLIN, WI, 54923",73450030,"L"
1004419,"W260N6140 BRACKLYN DRIVE","SUSSEX","WI",53089,43.1277532560001,-88.2674956829999,419,"W260N6140 BRACKLYN DRIVE, SUSSEX, WI, 53089","Match","Exact","W260N6140 BRACKLYN DR, SUSSEX, WI, 53089",624895729,"R"
1004420,"W261 COUNTY ROAD H","FREMONT","WI",54940,NA,NA,420,"W261 COUNTY ROAD H, FREMONT, WI, 54940","No_Match",NA,NA,NA,NA
1004421,"W261N2881 DEER HAVEN DRIVE","PEWAUKEE","WI",53072,43.072191135,-88.269258625,421,"W261N2881 DEER HAVEN DRIVE, PEWAUKEE, WI, 53072","Match","Exact","W261N2881 DEER HAVEN DR, PEWAUKEE, WI, 53072",53856071,"R"
1004422,"W261N4340 HIGH ROAD","PEWAUKEE","WI",53072,43.0973326430001,-88.270307657,422,"W261N4340 HIGH ROAD, PEWAUKEE, WI, 53072","Match","Exact","W261N4340 HIGH RD, PEWAUKEE, WI, 53072",53834170,"L"
1004423,"W2620 RUBY CT","APPLETON","WI",54915,44.245249528,-88.320730093,423,"W2620 RUBY CT, APPLETON, WI, 54915","Match","Exact","W2620 RUBY CT, APPLETON, WI, 54915",74899670,"L"
1004424,"W263 HILLENDALE DR","OCONOMOWOC","WI",53066,43.133644244,-88.546618068,424,"W263 HILLENDALE DR, OCONOMOWOC, WI, 53066","Match","Exact","W263 HILLENDALE DR, OCONOMOWOC, WI, 53066",53219765,"R"
1004425,"W2631 COUNTY ROAD ES","EAST TROY","WI",53120,NA,NA,425,"W2631 COUNTY ROAD ES, EAST TROY, WI, 53120","No_Match",NA,NA,NA,NA
1004426,"W2637 OTTO COURT","EAST TROY","WI",53120,42.8189471690001,-88.425933333,426,"W2637 OTTO COURT, EAST TROY, WI, 53120","Match","Exact","W2637 OTTO CT, EAST TROY, WI, 53120",53675305,"R"
1004427,"W264 N2727 CHRISTIAN LANE","PEWAUKEE","WI",53072,43.068389886,-88.274584648,427,"W264 N2727 CHRISTIAN LANE, PEWAUKEE, WI, 53072","Match","Exact","W264 CHRISTIAN LN, PEWAUKEE, WI, 53072",53845986,"L"
1004428,"W2651 KIEL ROAD","MALONE","WI",53049,43.9068099040001,-88.283903719,428,"W2651 KIEL ROAD, MALONE, WI, 53049","Match","Exact","W2651 KIEL RD, MALONE, WI, 53049",617959486,"R"
1004429,"W2668 CLARENCE CT","LA CROSSE","WI",54601,43.7852380460001,-91.039835501,429,"W2668 CLARENCE CT, LA CROSSE, WI, 54601","Match","Exact","W2668 CLARENCE CT, LA CROSSE, WI, 54601",646405219,"L"
1004430,"W2671 STORYCREEK CIRCLE","BELLEVILLE","WI",53508,42.819400731,-89.496172314,430,"W2671 STORYCREEK CIRCLE, BELLEVILLE, WI, 53508","Match","Non_Exact","W2671 STORY CREEK CIR, BELLEVILLE, WI, 53508",627196694,"R"
1004431,"W2674 STORY CREEK CIRCLE","BELLEVILLE","WI",53508,42.819411696,-89.496172314,431,"W2674 STORY CREEK CIRCLE, BELLEVILLE, WI, 53508","Match","Exact","W2674 STORY CREEK CIR, BELLEVILLE, WI, 53508",627196694,"L"
1004432,"W2679 COUNTY ROAD HH","WARRENS","WI",54666,NA,NA,432,"W2679 COUNTY ROAD HH, WARRENS, WI, 54666","No_Match",NA,NA,NA,NA
1004433,"W267N2843 WOODLAND DR","PEWAUKEE","WI",53072,NA,NA,433,"W267N2843 WOODLAND DR, PEWAUKEE, WI, 53072","Tie",NA,NA,NA,NA
1004434,"W267N6982 HICKORY CHASM DR","LISBON","WI",53089,NA,NA,434,"W267N6982 HICKORY CHASM DR, LISBON, WI, 53089","No_Match",NA,NA,NA,NA
1004435,"W268 N7189 THOUSAND OAKS DRIVE","LISBON","WI",53089,NA,NA,435,"W268 N7189 THOUSAND OAKS DRIVE, LISBON, WI, 53089","No_Match",NA,NA,NA,NA
1004436,"W2685 LUMBER YARD ROAD","JUDA","WI",53550,42.589471518,-89.494697376,436,"W2685 LUMBER YARD ROAD, JUDA, WI, 53550","Match","Exact","W2685 LUMBER YARD RD, JUDA, WI, 53550",605416698,"R"
1004437,"W268N2778 PLATT STREET","PEWAUKEE","WI",53072,43.068542387,-88.282040372,437,"W268N2778 PLATT STREET, PEWAUKEE, WI, 53072","Match","Exact","W268 PLATT ST, PEWAUKEE, WI, 53072",53809578,"R"
1004438,"W2695 HILLSIDE DRIVE","APPLETON","WI",54915,NA,NA,438,"W2695 HILLSIDE DRIVE, APPLETON, WI, 54915","No_Match",NA,NA,NA,NA
1004439,"W269N2713 LELAH AVE","PEWAUKEE","WI",53072,43.068565451,-88.2840142109999,439,"W269N2713 LELAH AVE, PEWAUKEE, WI, 53072","Match","Exact","W269N2713 LELAH AVE, PEWAUKEE, WI, 53072",53809574,"L"
1004440,"W270 S3831 HEATHER DR","WAUKESHA","WI",53189,NA,NA,440,"W270 S3831 HEATHER DR, WAUKESHA, WI, 53189","Tie",NA,NA,NA,NA
1004441,"W270N7534 OAKWOOD CT","HARTLAND","WI",53029,43.1557016180001,-88.28762453,441,"W270N7534 OAKWOOD CT, HARTLAND, WI, 53029","Match","Exact","W270N7534 OAKWOOD CT, HARTLAND, WI, 53029",53856629,"L"
1004442,"W271  S3855 CIDER HILLS CT","WAUKESHA","WI",53189,NA,NA,442,"W271  S3855 CIDER HILLS CT, WAUKESHA, WI, 53189","Tie",NA,NA,NA,NA
1004443,"W272 N2684 LAKEVIEW BLVD","PEWAUKEE","WI",53072,NA,NA,443,"W272 N2684 LAKEVIEW BLVD, PEWAUKEE, WI, 53072","Tie",NA,NA,NA,NA
1004444,"W2730 DAKOTA LANE","NESHKORO","WI",54960,43.97044212,-89.3014049939999,444,"W2730 DAKOTA LANE, NESHKORO, WI, 54960","Match","Exact","W2730 DAKOTA LN, NESHKORO, WI, 54960",611914582,"L"
1004445,"W275 S8860 HIDDEN LAKES DRIVE","MUKWONAGO","WI",53149,NA,NA,445,"W275 S8860 HIDDEN LAKES DRIVE, MUKWONAGO, WI, 53149","Tie",NA,NA,NA,NA
1004446,"W2763 730TH AVENUE","SPRING VALLEY","WI",54767,44.8011930870001,-92.2696540759999,446,"W2763 730TH AVENUE, SPRING VALLEY, WI, 54767","Match","Exact","W2763 730TH AVE, SPRING VALLEY, WI, 54767",635785401,"L"
1004447,"W2766 BROOKSIDE DRIVE","APPLETON","WI",54913,44.336461365,-88.331642067,447,"W2766 BROOKSIDE DRIVE, APPLETON, WI, 54913","Match","Exact","W2766 BROOKSIDE DR, APPLETON, WI, 54913",74904848,"L"
1004448,"W277 S8960 LAKESIDE DR","MUKWONAGO","WI",53149,NA,NA,448,"W277 S8960 LAKESIDE DR, MUKWONAGO, WI, 53149","Tie",NA,NA,NA,NA
1004449,"W277S8910 HILLTOP LANE","MUKWONAGO","WI",53149,NA,NA,449,"W277S8910 HILLTOP LANE, MUKWONAGO, WI, 53149","Tie",NA,NA,NA,NA
1004450,"W279 N5583 HANOVER HILL RD","SUSSEX","WI",53089,NA,NA,450,"W279 N5583 HANOVER HILL RD, SUSSEX, WI, 53089","Tie",NA,NA,NA,NA
1004451,"W2796 HIGHWAY 67","CAMPELSPORT","WI",53010,43.601146618,-88.2944236389999,451,"W2796 HIGHWAY 67, CAMPELSPORT, WI, 53010","Match","Non_Exact","W2796 STATE HWY 67, CAMPBELLSPORT, WI, 53010",74831547,"L"
1004452,"W279N8428 COPPER CT","HARTLAND","WI",53029,43.171272914,-88.299528111,452,"W279N8428 COPPER CT, HARTLAND, WI, 53029","Match","Exact","W279 COPPER CT, HARTLAND, WI, 53029",633846608,"R"
1004453,"W280 N9048 HIDEAWAY DR","HARTLAND","WI",53029,NA,NA,453,"W280 N9048 HIDEAWAY DR, HARTLAND, WI, 53029","Tie",NA,NA,NA,NA
1004454,"W280 REFORMATORY RD","ONEIDA","WI",54155,44.559990025,-88.197887204,454,"W280 REFORMATORY RD, ONEIDA, WI, 54155","Match","Exact","W280 REFORMATORY RD, ONEIDA, WI, 54155",74882733,"R"
1004455,"W280N3507 TAYLORS WOODS RD","PEWAUKEE","WI",53072,43.081735919,-88.3070424219999,455,"W280N3507 TAYLORS WOODS RD, PEWAUKEE, WI, 53072","Match","Exact","W280N3507 TAYLORS WOODS RD, PEWAUKEE, WI, 53072",53809411,"R"
1004456,"W2820 CHIEF LITTLE WAVE APT 1","KESHENA","WI",54135,44.873652448,-88.627990717,456,"W2820 CHIEF LITTLE WAVE APT 1, KESHENA, WI, 54135","Match","Non_Exact","W2820 CHIEF LITTLE WAVE RD, KESHENA, WI, 54135",196447506,"R"
1004457,"W2825 CENTER VALLEY RD","FREEDOM","WI",54130,44.40091253,-88.327455452,457,"W2825 CENTER VALLEY RD, FREEDOM, WI, 54130","Match","Exact","W2825 CENTER VALLEY RD, FREEDOM, WI, 54130",74879482,"R"
1004458,"W285 N6708 PARKER COURT","HARTLAND","WI",53029,NA,NA,458,"W285 N6708 PARKER COURT, HARTLAND, WI, 53029","Tie",NA,NA,NA,NA
1004459,"W286 N3374 STONE FENCE CT","PEWAUKEE","WI",53072,NA,NA,459,"W286 N3374 STONE FENCE CT, PEWAUKEE, WI, 53072","Tie",NA,NA,NA,NA
1004460,"W2865 CARTER ROAD","MARKESAN","WI",53946,NA,NA,460,"W2865 CARTER ROAD, MARKESAN, WI, 53946","No_Match",NA,NA,NA,NA
1004461,"W2869 WILSON LIMA RD","OOSTBURG","WI",53070,43.6449437730001,-87.839754627,461,"W2869 WILSON LIMA RD, OOSTBURG, WI, 53070","Match","Exact","W2869 WILSON LIMA RD, OOSTBURG, WI, 53070",634188520,"R"
1004462,"W2870 WAGNER RD","WAUSAUKEE","WI",54177,45.301903215,-87.7228971649999,462,"W2870 WAGNER RD, WAUSAUKEE, WI, 54177","Match","Exact","W2870 WAGNER RD, WAUSAUKEE, WI, 54177",169992133,"R"
1004463,"W2887 KLOSS RD","LACROSSE","WI",54601,43.810216489,-91.054278527,463,"W2887 KLOSS RD, LACROSSE, WI, 54601","Match","Non_Exact","W2887 KLOSS RD, LA CROSSE, WI, 54601",51006611,"R"
1004464,"W2887 KLOSS ROAD","LA CROSSE","WI",54601,43.811195481,-91.0522305379999,464,"W2887 KLOSS ROAD, LA CROSSE, WI, 54601","Match","Exact","W2887 KLOSS RD, LA CROSSE, WI, 54601",51006611,"R"
1004465,"W288N7685 APPALOOSA LANE","HARTFORD","WI",53029,43.1561356810001,-88.3175818449999,465,"W288N7685 APPALOOSA LANE, HARTFORD, WI, 53029","Match","Non_Exact","W288 APPALOOSA LN, HARTLAND, WI, 53029",53854846,"L"
1004466,"W2890 STATE HWY 64","MEDFORD","WI",54451,45.1426420440001,-90.188968218,466,"W2890 STATE HWY 64, MEDFORD, WI, 54451","Match","Exact","W2890 STATE HWY 64, MEDFORD, WI, 54451",117239061,"R"
1004467,"W290 N3040 HILLCREST DRIVE","PEWAUKEE","WI",53072,NA,NA,467,"W290 N3040 HILLCREST DRIVE, PEWAUKEE, WI, 53072","Tie",NA,NA,NA,NA
1004468,"W2905 COUTY ROAD S","FREEDOM","WI",54130,NA,NA,468,"W2905 COUTY ROAD S, FREEDOM, WI, 54130","No_Match",NA,NA,NA,NA
1004469,"W290N3855 FOX FIELD COURT","PEWAUKEE","WI",53072,43.087797805,-88.323543667,469,"W290N3855 FOX FIELD COURT, PEWAUKEE, WI, 53072","Match","Exact","W290 FOX FIELD CT, PEWAUKEE, WI, 53072",53844985,"R"
1004470,"W291N 6249 TALON CT","HARTLAND","WI",53029,NA,NA,470,"W291N 6249 TALON CT, HARTLAND, WI, 53029","Tie",NA,NA,NA,NA
1004471,"W291N3757 TREELINE CT","PEWAUKEE","WI",53072,43.0868345580001,-88.325180955,471,"W291N3757 TREELINE CT, PEWAUKEE, WI, 53072","Match","Exact","W291 TREELINE CT, PEWAUKEE, WI, 53072",53844973,"R"
1004472,"W291N3923 ROUND HILL CIR","PEWAUKEE","WI",53072,NA,NA,472,"W291N3923 ROUND HILL CIR, PEWAUKEE, WI, 53072","Tie",NA,NA,NA,NA
1004473,"W291N3923 ROUND HILL CIRCLE","PEWAUKEE","WI",53072,NA,NA,473,"W291N3923 ROUND HILL CIRCLE, PEWAUKEE, WI, 53072","Tie",NA,NA,NA,NA
1004474,"W291S5270 RIDGEFIELD ROAD","WAUKESHA","WI",53189,42.9477055090001,-88.32504044,474,"W291S5270 RIDGEFIELD ROAD, WAUKESHA, WI, 53189","Match","Exact","W291S5270 RIDGEFIELD RD, WAUKESHA, WI, 53189",53845270,"R"
1004475,"W2926 MAPLE RD","MERRILL","WI",54452,NA,NA,475,"W2926 MAPLE RD, MERRILL, WI, 54452","No_Match",NA,NA,NA,NA
1004476,"W292N6261 DORN RD","MERTON","WI",53029,43.131871238,-88.327377667,476,"W292N6261 DORN RD, MERTON, WI, 53029","Match","Non_Exact","W292 DORN RD, HARTLAND, WI, 53029",53859695,"R"
1004477,"W2934 SAND CRANE DR","BELLEVILLE","WI",53508,42.8433982270001,-89.506027279,477,"W2934 SAND CRANE DR, BELLEVILLE, WI, 53508","Match","Exact","W2934 SAND CRANE DR, BELLEVILLE, WI, 53508",629350915,"R"
1004478,"W2945 STATE ROAD 28","SHEBOYGAN FALLS","WI",53085,NA,NA,478,"W2945 STATE ROAD 28, SHEBOYGAN FALLS, WI, 53085","No_Match",NA,NA,NA,NA
1004479,"W2958 CTY RD G","MARINETTE","WI",54173,NA,NA,479,"W2958 CTY RD G, MARINETTE, WI, 54173","No_Match",NA,NA,NA,NA
1004480,"W2960 CREEKSIDE CT","APPLETON","WI",54915,44.2443132170001,-88.338545344,480,"W2960 CREEKSIDE CT, APPLETON, WI, 54915","Match","Exact","W2960 CREEKSIDE CT, APPLETON, WI, 54915",74897124,"L"
1004481,"W298 N5380 GREEN BRIAR DR","HARTLAND","WI",53029,NA,NA,481,"W298 N5380 GREEN BRIAR DR, HARTLAND, WI, 53029","Tie",NA,NA,NA,NA
1004482,"W299 N6654 COUNTY HWY E","HARTLAND","WI",53029,NA,NA,482,"W299 N6654 COUNTY HWY E, HARTLAND, WI, 53029","No_Match",NA,NA,NA,NA
1004483,"W2991 FARMSTEAD DRIVER","APPLETON","WI",54915,44.2454035910001,-88.33849243,483,"W2991 FARMSTEAD DRIVER, APPLETON, WI, 54915","Match","Non_Exact","W2991 FARMSTEAD DR, APPLETON, WI, 54915",74921496,"L"
1004484,"W2998 COUNTY RD D","PHILLIPS","WI",54555,NA,NA,484,"W2998 COUNTY RD D, PHILLIPS, WI, 54555","No_Match",NA,NA,NA,NA
1004485,"W299N6034 COUNTRY RD E","HARTLAND","WI",53209,NA,NA,485,"W299N6034 COUNTRY RD E, HARTLAND, WI, 53209","No_Match",NA,NA,NA,NA
1004486,"W299S10672 PHANTOM WOOD ROAD","MUKWONAGO","WI",53149,42.851220218,-88.343978078,486,"W299S10672 PHANTOM WOOD ROAD, MUKWONAGO, WI, 53149","Match","Non_Exact","W299 PHANTOM WOODS RD, MUKWONAGO, WI, 53149",649748477,"R"
1004487,"W299S10917 VALLEY RIDGE DR","MUKWONAGO","WI",53149,42.8455061070001,-88.344677566,487,"W299S10917 VALLEY RIDGE DR, MUKWONAGO, WI, 53149","Match","Exact","W299S10917 VALLEY RIDGE DR, MUKWONAGO, WI, 53149",53832489,"L"
1004488,"W30 LINDA DR MOBILE HOME PARK","WALNUTPORT","PA",18088,40.74233352,-75.589212204,488,"W30 LINDA DR MOBILE HOME PARK, WALNUTPORT, PA, 18088","Match","Exact","W30 LINDA DR, WALNUTPORT, PA, 18088",647956887,"L"
1004489,"W3001 COUNTY LINE ROAD","CLEVELAND","WI",53015,43.891586751,-87.8571096479999,489,"W3001 COUNTY LINE ROAD, CLEVELAND, WI, 53015","Match","Exact","W3001 COUNTY LINE RD, CLEVELAND, WI, 53015",79490788,"R"
1004490,"W301S1487 BRANDYBROOK RD","WAUKESHA","WI",53188,43.0172208220001,-88.346802892,490,"W301S1487 BRANDYBROOK RD, WAUKESHA, WI, 53188","Match","Exact","W301S1487 BRANDYBROOK RD, WAUKESHA, WI, 53188",653398618,"R"
1004491,"W3023 SPRINGFIELD DRIVE","APPLETON","WI",54915,44.2468466490001,-88.34255122,491,"W3023 SPRINGFIELD DRIVE, APPLETON, WI, 54915","Match","Exact","W3023 SPRINGFIELD DR, APPLETON, WI, 54915",74897161,"R"
1004492,"W3024 ST CHARLES ROAD","CHILTON","WI",53014,43.970060899,-88.185974986,492,"W3024 ST CHARLES ROAD, CHILTON, WI, 53014","Match","Exact","W3024 SAINT CHARLES RD, CHILTON, WI, 53014",74783370,"R"
1004493,"W302N3057 WINDRUSH CIRCLE","PEWAUKEE","WI",53072,NA,NA,493,"W302N3057 WINDRUSH CIRCLE, PEWAUKEE, WI, 53072","No_Match",NA,NA,NA,NA
1004494,"W302N6117 SPENCE RD","HARTLAND","WI",53029,43.129425686,-88.3465250369999,494,"W302N6117 SPENCE RD, HARTLAND, WI, 53029","Match","Exact","W302N6117 SPENCE RD, HARTLAND, WI, 53029",53855004,"R"
1004495,"W303 N8690","HARTLAND","WI",53029,NA,NA,495,"W303 N8690, HARTLAND, WI, 53029","No_Match",NA,NA,NA,NA
1004496,"W303 N8697 WOODLAND DRIVE","HARTLAND","WI",53029,NA,NA,496,"W303 N8697 WOODLAND DRIVE, HARTLAND, WI, 53029","Tie",NA,NA,NA,NA
1004497,"W304 S8030 OAKRIDGE DR","MUKWONAGO","WI",53149,NA,NA,497,"W304 S8030 OAKRIDGE DR, MUKWONAGO, WI, 53149","Tie",NA,NA,NA,NA
1004498,"W3049 COLTON RD","MINONG","WI",54859,46.135365607,-91.69549299,498,"W3049 COLTON RD, MINONG, WI, 54859","Match","Exact","W3049 COLTON RD, MINONG, WI, 54859",629484292,"R"
1004499,"W304N2368 WESTWIND DR N  UNIT 4A","PEWAUKEE","WI",53072,NA,NA,499,"W304N2368 WESTWIND DR N  UNIT 4A, PEWAUKEE, WI, 53072","No_Match",NA,NA,NA,NA
1004500,"W305N6519 BEAVER VIEW ROAD","HARTLAND","WI",53029,43.1396654000001,-88.3527256419999,500,"W305N6519 BEAVER VIEW ROAD, HARTLAND, WI, 53029","Match","Exact","W305N6519 BEAVER VIEW RD, HARTLAND, WI, 53029",53808274,"R"
