"ID","Address","City","State","Zip","lat","long","id","input_address","match_indicator","match_type","matched_address","tiger_line_id","tiger_side"
601501,"410 DICKERSON LANE","STRASBURG","VA",22657,38.9912237350001,-78.3476363679999,1,"410 DICKERSON LANE, STRASBURG, VA, 22657","Match","Exact","410 DICKERSON LN, STRASBURG, VA, 22657",55935586,"R"
601502,"410 DICKERSON STREET","VIDALIA","GA",30474,32.2217226010001,-82.406114233,2,"410 DICKERSON STREET, VIDALIA, GA, 30474","Match","Non_Exact","410 DICKERSON DR, VIDALIA, GA, 30474",4776375,"L"
601503,"410 DICKSON RD","CAMPOBELLO","SC",29322,35.0931889550001,-82.1190525809999,3,"410 DICKSON RD, CAMPOBELLO, SC, 29322","Match","Exact","410 DICKSON RD, CAMPOBELLO, SC, 29322",645497682,"R"
601504,"410 DOGWOOD LN","SOUTHERN PNES","NC",28387,35.166961412,-79.394333395,4,"410 DOGWOOD LN, SOUTHERN PNES, NC, 28387","Match","Exact","410 DOGWOOD LN, SOUTHERN PINES, NC, 28387",20318297,"L"
601505,"410 DOGWOOD STREET","ALBEMARLE","NC",28001,35.340881354,-80.153970728,5,"410 DOGWOOD STREET, ALBEMARLE, NC, 28001","Match","Exact","410 DOGWOOD ST, ALBEMARLE, NC, 28001",14080518,"L"
601506,"410 DR MLK JR DR S","AHOSKIE","NC",27910,NA,NA,6,"410 DR MLK JR DR S, AHOSKIE, NC, 27910","No_Match",NA,NA,NA,NA
601507,"410 E 13TH ST 1C","NEW YORK","NY",10009,40.730499679,-73.982706483,7,"410 E 13TH ST 1C, NEW YORK, NY, 10009","Match","Non_Exact","410 E 13TH ST, NEW YORK, NY, 10009",59654598,"R"
601508,"410 E 14 ST 201","SANFORD","FL",32771,NA,NA,8,"410 E 14 ST 201, SANFORD, FL, 32771","Tie",NA,NA,NA,NA
601509,"410 E 264TH ST","EUCLID","OH",44132,41.6175298420001,-81.500321503,9,"410 E 264TH ST, EUCLID, OH, 44132","Match","Exact","410 E 264TH ST, EUCLID, OH, 44132",61132884,"R"
601510,"410 E 4TH STREET","STROMSBURG","NE",68666,41.1140968620001,-97.593103368,10,"410 E 4TH STREET, STROMSBURG, NE, 68666","Match","Exact","410 4TH ST, STROMSBURG, NE, 68666",159743219,"R"
601511,"410 E 5TH ST APT 109","AUSTIN","TX",78701,30.2660909160001,-97.739491938,11,"410 E 5TH ST APT 109, AUSTIN, TX, 78701","Match","Non_Exact","410 E 5TH ST, AUSTIN, TX, 78701",63946495,"L"
601512,"410 E 5TH STREET","GREENSBURG","IN",47240,39.348873,-85.4789807,12,"410 E 5TH STREET, GREENSBURG, IN, 47240","Match","Exact","410 E 5TH ST, GREENSBURG, IN, 47240",31188957,"R"
601513,"410 E ALLEN STREET BOX1147","TOMBSTONE","AZ",85638,31.7161959040001,-110.076756486,13,"410 E ALLEN STREET BOX1147, TOMBSTONE, AZ, 85638","Match","Non_Exact","410 W ALLEN ST, TOMBSTONE, AZ, 85638",120972486,"R"
601514,"410 E BELOIT AVE","SALINA","KS",67401,38.8189064310001,-97.6024830009999,14,"410 E BELOIT AVE, SALINA, KS, 67401","Match","Exact","410 E BELOIT AVE, SALINA, KS, 67401",196685746,"L"
601515,"410 E BLAKELY AVENUE","BROWNSVILLE","OR",97327,44.385276629,-122.979873691,15,"410 E BLAKELY AVENUE, BROWNSVILLE, OR, 97327","Match","Exact","410 E BLAKELY AVE, BROWNSVILLE, OR, 97327",156043735,"L"
601516,"410 E BROADWAY 5C","LONG BEACH","NY",11561,NA,NA,16,"410 E BROADWAY 5C, LONG BEACH, NY, 11561","Tie",NA,NA,NA,NA
601517,"410 E BROADWAY ST","TOLONO","IL",61880,39.9843288050001,-88.2552452159999,17,"410 E BROADWAY ST, TOLONO, IL, 61880","Match","Exact","410 E BROADWAY ST, TOLONO, IL, 61880",8799453,"L"
601518,"410 E BUTLER STREET","LEXINGTON","SC",29072,33.9804588260001,-81.2321737779999,18,"410 E BUTLER STREET, LEXINGTON, SC, 29072","Match","Exact","410 E BUTLER ST, LEXINGTON, SC, 29072",70051034,"R"
601519,"410 E CARRIERE","WASHINGTON","LA",70589,30.6134132380001,-92.0556278129999,19,"410 E CARRIERE, WASHINGTON, LA, 70589","Match","Non_Exact","410 CARRIER ST, WASHINGTON, LA, 70589",106433814,"L"
601520,"410 E CENTEX EXPRESSWAY","HARKER HEIGHTS","TX",76548,NA,NA,20,"410 E CENTEX EXPRESSWAY, HARKER HEIGHTS, TX, 76548","No_Match",NA,NA,NA,NA
601521,"410 E CHESTNUT","ARCHER CITY","TX",76351,33.5911646860001,-98.62162583,21,"410 E CHESTNUT, ARCHER CITY, TX, 76351","Match","Non_Exact","410 E CHESTNUT ST, ARCHER CITY, TX, 76351",182416380,"L"
601522,"410 E DALLAS AVE","COOPER","TX",75432,33.3738257530001,-95.685241379,22,"410 E DALLAS AVE, COOPER, TX, 75432","Match","Exact","410 E DALLAS AVE, COOPER, TX, 75432",70337913,"L"
601523,"410 E DRIVE","MONTGOMERY","AL",36113,NA,NA,23,"410 E DRIVE, MONTGOMERY, AL, 36113","No_Match",NA,NA,NA,NA
601524,"410 E FELLOWS","DIXON","IL",61021,41.8503591830001,-89.481087702,24,"410 E FELLOWS, DIXON, IL, 61021","Match","Non_Exact","410 E FELLOWS ST, DIXON, IL, 61021",48743496,"R"
601525,"410 E HARRISON AVE","HARLINGEN","TX",78550,26.1906710740001,-97.692115407,25,"410 E HARRISON AVE, HARLINGEN, TX, 78550","Match","Exact","410 E HARRISON AVE, HARLINGEN, TX, 78550",89955398,"R"
601526,"410 E HUSTINGS LANE 10","NEWPORT NEWS","VA",23608,NA,NA,26,"410 E HUSTINGS LANE 10, NEWPORT NEWS, VA, 23608","No_Match",NA,NA,NA,NA
601527,"410 E HUSTON ST","WEST BURLINGTON","IA",52655,40.8230202940001,-91.152285046,27,"410 E HUSTON ST, WEST BURLINGTON, IA, 52655","Match","Exact","410 HUSTON ST, W BURLINGTON, IA, 52655",5539036,"R"
601528,"410 E KENNEDY","LEXINGTON","OK",73080,NA,NA,28,"410 E KENNEDY, LEXINGTON, OK, 73080","No_Match",NA,NA,NA,NA
601529,"410 E MAIN ST","BIGGSVILLE","IL",61418,NA,NA,29,"410 E MAIN ST, BIGGSVILLE, IL, 61418","No_Match",NA,NA,NA,NA
601530,"410 E MAIN STREET","LEWISVILLE","TX",75057,33.0463269840001,-96.9901628649999,30,"410 E MAIN STREET, LEWISVILLE, TX, 75057","Match","Exact","410 E MAIN ST, LEWISVILLE, TX, 75057",103349394,"L"
601531,"410 E MEADOW RD","MURRAY","UT",84107,NA,NA,31,"410 E MEADOW RD, MURRAY, UT, 84107","Tie",NA,NA,NA,NA
601532,"410 E MOUND STREET","CIRCLEVILLE","OH",43113,39.597389793,-82.938191511,32,"410 E MOUND STREET, CIRCLEVILLE, OH, 43113","Match","Exact","410 E MOUND ST, CIRCLEVILLE, OH, 43113",636562670,"R"
601533,"410 E NOBLE","LEBANON","IN",46052,40.0392375050001,-86.4643637679999,33,"410 E NOBLE, LEBANON, IN, 46052","Match","Non_Exact","410 E NOBLE ST, LEBANON, IN, 46052",610985786,"R"
601534,"410 E NORTH STREET","APPLETON","WI",54911,44.2656243480001,-88.400742413,34,"410 E NORTH STREET, APPLETON, WI, 54911","Match","Exact","410 E NORTH ST, APPLETON, WI, 54911",74920542,"L"
601535,"410 E ORCHID WAY","HOWEY IN THE HILLS","FL",34737,28.7227199700001,-81.77063529,35,"410 E ORCHID WAY, HOWEY IN THE HILLS, FL, 34737","Match","Exact","410 ORCHID WAY, HOWEY IN THE HILLS, FL, 34737",94102401,"L"
601536,"410 E PAYTON ST","GREENTOWN","IN",46936,40.482112951,-85.96212845,36,"410 E PAYTON ST, GREENTOWN, IN, 46936","Match","Exact","410 E PAYTON ST, GREENTOWN, IN, 46936",615875768,"L"
601537,"410 E PRINCETON AVE","GILBERT","AZ",85234,33.3651143600001,-111.781910623,37,"410 E PRINCETON AVE, GILBERT, AZ, 85234","Match","Exact","410 E PRINCETON AVE, GILBERT, AZ, 85234",128330048,"L"
601538,"410 E SANTA CLARA STREET NO 111","SAN JOSE","CA",95113,NA,NA,38,"410 E SANTA CLARA STREET NO 111, SAN JOSE, CA, 95113","No_Match",NA,NA,NA,NA
601539,"410 E SANTA CLARA STREET UNIT 903","SAN JOSE","CA",95113,NA,NA,39,"410 E SANTA CLARA STREET UNIT 903, SAN JOSE, CA, 95113","Tie",NA,NA,NA,NA
601540,"410 E SOUTHERN AVE","TEMPE","AZ",85282,33.3929369700001,-111.932997929,40,"410 E SOUTHERN AVE, TEMPE, AZ, 85282","Match","Exact","410 E SOUTHERN AVE, TEMPE, AZ, 85282",128227658,"L"
601541,"410 E SPRING ST STE B2","COOKEVILLE","TN",38501,NA,NA,41,"410 E SPRING ST STE B2, COOKEVILLE, TN, 38501","Tie",NA,NA,NA,NA
601542,"410 E TAYLOR ST SUITE K2","GRIFFIN","GA",30223,NA,NA,42,"410 E TAYLOR ST SUITE K2, GRIFFIN, GA, 30223","No_Match",NA,NA,NA,NA
601543,"410 E TAYLOR STE K-2","GRIFFIN","GA",30223,NA,NA,43,"410 E TAYLOR STE K-2, GRIFFIN, GA, 30223","No_Match",NA,NA,NA,NA
601544,"410 E THIRD ST","PELLA","IA",50219,41.401706849,-92.911278409,44,"410 E THIRD ST, PELLA, IA, 50219","Match","Exact","410 E 3RD ST, PELLA, IA, 50219",89472705,"R"
601545,"410 E UNIVERSITY AVE","LAFAYETTE","LA",70504,30.2156418070001,-92.016784645,45,"410 E UNIVERSITY AVE, LAFAYETTE, LA, 70504","Match","Non_Exact","410 E UNIVERSITY AVE, LAFAYETTE, LA, 70503",85616268,"R"
601546,"410 E WALTANN LANE","PHOENIX","AZ",85022,33.6276183520001,-112.067781921,46,"410 E WALTANN LANE, PHOENIX, AZ, 85022","Match","Exact","410 E WALTANN LN, PHOENIX, AZ, 85022",128183079,"L"
601547,"410 E WASHINGTON ST","IOWA CITY","IA",52240,41.660046698,-91.5299197959999,47,"410 E WASHINGTON ST, IOWA CITY, IA, 52240","Match","Exact","410 E WASHINGTON ST, IOWA CITY, IA, 52240",84495493,"L"
601548,"410 E WASHINGTON STREET","MOUNT CARROLL","IL",61053,42.097432284,-89.974600656,48,"410 E WASHINGTON STREET, MOUNT CARROLL, IL, 61053","Match","Exact","410 E WASHINGTON ST, MOUNT CARROLL, IL, 61053",617441990,"R"
601549,"410 EACH 54 STREET APT 3A","AVERNE","NY",11692,NA,NA,49,"410 EACH 54 STREET APT 3A, AVERNE, NY, 11692","No_Match",NA,NA,NA,NA
601550,"410 EAGLE VIEW DRIVE","FORT POLK","LA",71459,NA,NA,50,"410 EAGLE VIEW DRIVE, FORT POLK, LA, 71459","No_Match",NA,NA,NA,NA
601551,"410 EAST 25TH STREET","BROOKLYN","NY",11226,40.640239541,-73.953269645,51,"410 EAST 25TH STREET, BROOKLYN, NY, 11226","Match","Exact","410 E 25TH ST, BROOKLYN, NY, 11226",59081467,"R"
601552,"410 EAST 38TH ST","MARION","IN",46953,40.522780767,-85.6627737919999,52,"410 EAST 38TH ST, MARION, IN, 46953","Match","Exact","410 E 38TH ST, MARION, IN, 46953",619707552,"R"
601553,"410 EAST 4TH STREET","STROMSBURG","NE",68666,41.1140968620001,-97.593103368,53,"410 EAST 4TH STREET, STROMSBURG, NE, 68666","Match","Non_Exact","410 4TH ST, STROMSBURG, NE, 68666",159743219,"R"
601554,"410 EAST 54TH STREET","KANSAS CITY","MO",64110,39.0291298720001,-94.582742127,54,"410 EAST 54TH STREET, KANSAS CITY, MO, 64110","Match","Exact","410 E 54TH ST, KANSAS CITY, MO, 64110",91448218,"L"
601555,"410 EAST 57TH STREET  APT 3A","NEW YORK","NY",10022,40.758148729,-73.962553306,55,"410 EAST 57TH STREET  APT 3A, NEW YORK, NY, 10022","Match","Exact","410 E 57TH ST, NEW YORK, NY, 10022",650073202,"R"
601556,"410 EAST 900 NORTH","VALPARAISO","IN",46383,41.563651076,-86.986786187,56,"410 EAST 900 NORTH, VALPARAISO, IN, 46383","Match","Exact","410 E 900 N, VALPARAISO, IN, 46383",606978036,"R"
601557,"410 EAST 9TH STREET APT 2","NEW YORK","NY",10009,40.728037156,-73.9845080059999,57,"410 EAST 9TH STREET APT 2, NEW YORK, NY, 10009","Match","Exact","410 E 9TH ST, NEW YORK, NY, 10009",59654070,"R"
601558,"410 EAST BLACK STREET","ROCK HILL","SC",29731,34.9218343310001,-81.022373778,58,"410 EAST BLACK STREET, ROCK HILL, SC, 29731","Match","Non_Exact","410 E BLACK ST, ROCK HILL, SC, 29730",19792060,"R"
601559,"410 EAST BLAINE AVENUE","GETTYSBURG","SD",57442,45.0124583150001,-99.95100967,59,"410 EAST BLAINE AVENUE, GETTYSBURG, SD, 57442","Match","Exact","410 E BLAINE AVE, GETTYSBURG, SD, 57442",198465651,"L"
601560,"410 EAST FITZGERALD AVE","GERALD","MO",63037,38.4053382710001,-91.324331081,60,"410 EAST FITZGERALD AVE, GERALD, MO, 63037","Match","Non_Exact","410 E FITZGERALD, GERALD, MO, 63037",636235764,"R"
601561,"410 EAST HARRISON AVE","HARLINGEN","TX",78550,26.190671067,-97.692117309,61,"410 EAST HARRISON AVE, HARLINGEN, TX, 78550","Match","Exact","410 E HARRISON AVE, HARLINGEN, TX, 78550",89955398,"R"
601562,"410 EAST HARVARD STREET APT A","GLENDALE","CA",91205,34.144479957,-118.25098698,62,"410 EAST HARVARD STREET APT A, GLENDALE, CA, 91205","Match","Exact","410 E HARVARD ST, GLENDALE, CA, 91205",142730725,"R"
601563,"410 EAST JEFFERSON STREET","AMERICUS","GA",31709,32.074287654,-84.2286931089999,63,"410 EAST JEFFERSON STREET, AMERICUS, GA, 31709","Match","Exact","410 E JEFFERSON ST, AMERICUS, GA, 31709",30753767,"R"
601564,"410 EAST KILDARE STREET","LANCASTER","CA",93535,34.6996690510001,-118.123735074,64,"410 EAST KILDARE STREET, LANCASTER, CA, 93535","Match","Exact","410 E KILDARE ST, LANCASTER, CA, 93535",141526690,"R"
601565,"410 EAST LINCOLNWAY","VALPARAISO","IN",46383,41.4677933300001,-87.056038784,65,"410 EAST LINCOLNWAY, VALPARAISO, IN, 46383","Match","Exact","410 E LINCOLNWAY, VALPARAISO, IN, 46383",119914406,"R"
601566,"410 EAST MAIN STREET SUITE 202","ELIZABETH CITY","NC",27909,36.299941673,-76.221137278,66,"410 EAST MAIN STREET SUITE 202, ELIZABETH CITY, NC, 27909","Match","Exact","410 E MAIN ST, ELIZABETH CITY, NC, 27909",18592558,"R"
601567,"410 EAST MANOR DRIVE","SPRINGBORO","OH",45066,39.578113725,-84.2126182069999,67,"410 EAST MANOR DRIVE, SPRINGBORO, OH, 45066","Match","Exact","410 E MANOR DR, SPRINGBORO, OH, 45066",632477246,"L"
601568,"410 EAST MONTCASTLE DR APT H","GREENSBORO","NC",27406,36.0228015980001,-79.7853762399999,68,"410 EAST MONTCASTLE DR APT H, GREENSBORO, NC, 27406","Match","Exact","410 E MONTCASTLE DR, GREENSBORO, NC, 27406",642169102,"R"
601569,"410 EAST MONTCASTLE DRIVE APT H","GREENSBORO","NC",27406,36.0228015980001,-79.7853762399999,69,"410 EAST MONTCASTLE DRIVE APT H, GREENSBORO, NC, 27406","Match","Exact","410 E MONTCASTLE DR, GREENSBORO, NC, 27406",642169102,"R"
601570,"410 EAST POPLAR STREET","HAVILAND","KS",67059,37.619434981,-99.102142454,70,"410 EAST POPLAR STREET, HAVILAND, KS, 67059","Match","Exact","410 E POPLAR ST, HAVILAND, KS, 67059",159885634,"L"
601571,"410 EAST RICHMOND ROAD","RICHMOND","VA",23224,37.547819518,-77.3744514969999,71,"410 EAST RICHMOND ROAD, RICHMOND, VA, 23224","Match","Non_Exact","410 E RICHMOND RD, RICHMOND, VA, 23223",106684143,"L"
601572,"410 EAST RIVER ROAD APT 709","BRAINERD","MN",56401,46.353778323,-94.208436134,72,"410 EAST RIVER ROAD APT 709, BRAINERD, MN, 56401","Match","Exact","410 E RIVER RD, BRAINERD, MN, 56401",611816654,"L"
601573,"410 EAST SPRUCE ST","SAULT STE MARIE","MI",49783,46.4956412720001,-84.3415133349999,73,"410 EAST SPRUCE ST, SAULT STE MARIE, MI, 49783","Match","Non_Exact","410 E SPRUCE ST, SAULT SAINTE MARIE, MI, 49783",130548848,"L"
601574,"410 EAST STREET","MERRILL","WI",54452,45.1825396190001,-89.7042220279999,74,"410 EAST STREET, MERRILL, WI, 54452","Match","Exact","410 EAST ST, MERRILL, WI, 54452",201782687,"L"
601575,"410 EAST STREET","SAVANNAH","NC",31405,NA,NA,75,"410 EAST STREET, SAVANNAH, NC, 31405","No_Match",NA,NA,NA,NA
601576,"410 EAST VIRGINIA LANE","MACON","GA",31217,32.8711569210001,-83.541219691,76,"410 EAST VIRGINIA LANE, MACON, GA, 31217","Match","Exact","410 E VIRGINIA LN, MACON, GA, 31217",635541696,"R"
601577,"410 EAST WASHINGTON ST  APT 201","BLOOMINGTON","IL",61704,40.4796657100001,-88.9897854179999,77,"410 EAST WASHINGTON ST  APT 201, BLOOMINGTON, IL, 61704","Match","Non_Exact","410 E WASHINGTON ST, BLOOMINGTON, IL, 61701",20545889,"L"
601578,"410 EAST WATER","PALMYRA","MO",63461,39.8005446340001,-91.519215284,78,"410 EAST WATER, PALMYRA, MO, 63461","Match","Non_Exact","410 E WATER ST, PALMYRA, MO, 63461",35342912,"L"
601579,"410 EDGEHILL DR","OXFORD","OH",45056,39.501483561,-84.749881595,79,"410 EDGEHILL DR, OXFORD, OH, 45056","Match","Exact","410 EDGEHILL DR, OXFORD, OH, 45056",113794284,"R"
601580,"410 EDGEMORE ROAD","PHILADELPHIA","PA",19151,39.9699683690001,-75.252513047,80,"410 EDGEMORE ROAD, PHILADELPHIA, PA, 19151","Match","Exact","410 EDGEMORE RD, PHILADELPHIA, PA, 19151",131397064,"L"
601581,"410 EDGEWOOD DRIVE","EXTON","PA",19341,40.0355879100001,-75.655004812,81,"410 EDGEWOOD DRIVE, EXTON, PA, 19341","Match","Exact","410 EDGEWOOD DR, EXTON, PA, 19341",179512636,"L"
601582,"410 EG RANCH RD","LAREDO","TX",78046,NA,NA,82,"410 EG RANCH RD, LAREDO, TX, 78046","No_Match",NA,NA,NA,NA
601583,"410 ELGIN ROAD","HUBERT","NC",28538,NA,NA,83,"410 ELGIN ROAD, HUBERT, NC, 28538","No_Match",NA,NA,NA,NA
601584,"410 EMERALD TRACE","JONESBORO","GA",30236,33.533421882,-84.2827322049999,84,"410 EMERALD TRACE, JONESBORO, GA, 30236","Match","Exact","410 EMERALD TRCE, JONESBORO, GA, 30236",23203845,"L"
601585,"410 EMMETT ST UNIT 82","BRISTOL","CT",6010,41.6623616590001,-72.908043613,85,"410 EMMETT ST UNIT 82, BRISTOL, CT, 6010","Match","Exact","410 EMMETT ST, BRISTOL, CT, 06010",648207855,"R"
601586,"410 ENGLISH ELM LN","NORMAN","OK",73069,35.2478955720001,-97.4479006779999,86,"410 ENGLISH ELM LN, NORMAN, OK, 73069","Match","Exact","410 ENGLISH ELM LN, NORMAN, OK, 73069",99959272,"R"
601587,"410 ETOWAH VALLEY WAY","WOODSTOCK","GA",30189,34.106659807,-84.5604796489999,87,"410 ETOWAH VALLEY WAY, WOODSTOCK, GA, 30189","Match","Exact","410 ETOWAH VALLEY WAY, WOODSTOCK, GA, 30189",68863367,"R"
601588,"410 EUGENE ST","RADCLIFFE","IA",50230,42.315493889,-93.4315475499999,88,"410 EUGENE ST, RADCLIFFE, IA, 50230","Match","Exact","410 EUGENE ST, RADCLIFFE, IA, 50230",77438311,"R"
601589,"410 EUROPA WAY","LAS VEGAS","NV",89154,36.167921171,-115.272799693,89,"410 EUROPA WAY, LAS VEGAS, NV, 89154","Match","Non_Exact","410 EUROPA WAY, LAS VEGAS, NV, 89145",201933977,"R"
601590,"410 EVA STREET","MONKS CORNER","SC",29461,33.0780103970001,-80.022243064,90,"410 EVA STREET, MONKS CORNER, SC, 29461","Match","Non_Exact","410 EVA ST, MONCKS CORNER, SC, 29461",605125220,"L"
601591,"410 EVERNIA STREET APT 229","WEST PALM BEACH","FL",33401,26.7113529740001,-80.0538202609999,91,"410 EVERNIA STREET APT 229, WEST PALM BEACH, FL, 33401","Match","Exact","410 EVERNIA ST, WEST PALM BEACH, FL, 33401",115512985,"L"
601592,"410 EVERNIA STREET","WEST PALM BEACH","FL",33401,26.7113529740001,-80.0538202609999,92,"410 EVERNIA STREET, WEST PALM BEACH, FL, 33401","Match","Exact","410 EVERNIA ST, WEST PALM BEACH, FL, 33401",115512985,"L"
601593,"410 FAIRLANE","PEKIN","IL",61554,40.5721276800001,-89.62309205,93,"410 FAIRLANE, PEKIN, IL, 61554","Match","Non_Exact","410 FAIRLANE AVE, PEKIN, IL, 61554",22498767,"R"
601594,"410 FAIRWAY BLUFF DR","WYLIE","TX",75098,32.990141554,-96.5520719789999,94,"410 FAIRWAY BLUFF DR, WYLIE, TX, 75098","Match","Exact","410 FAIRWAY BLUFF DR, WYLIE, TX, 75098",632064131,"R"
601595,"410 FAIRWAY DRIVE","FAIRBORN","OH",45324,39.7977261940001,-84.013837596,95,"410 FAIRWAY DRIVE, FAIRBORN, OH, 45324","Match","Exact","410 FAIRWAY DR, FAIRBORN, OH, 45324",143385320,"R"
601596,"410 FAIRWAY OAKS","ROCKPORT","TX",78382,28.049345729,-97.055556075,96,"410 FAIRWAY OAKS, ROCKPORT, TX, 78382","Match","Exact","410 FAIRWAY OAKS, ROCKPORT, TX, 78382",83252775,"L"
601597,"410 FEMRITE DR","MONONA","WI",53716,43.052441521,-89.3220252359999,97,"410 FEMRITE DR, MONONA, WI, 53716","Match","Exact","410 FEMRITE DR, MONONA, WI, 53716",49531655,"L"
601598,"410 FERDINAND DRIVE","NORTH VERSAILLES","PA",15137,40.3853883630001,-79.8419188399999,98,"410 FERDINAND DRIVE, NORTH VERSAILLES, PA, 15137","Match","Exact","410 FERDINAND DR, N VERSAILLES, PA, 15137",51672746,"R"
601599,"410 FERNHURST LANE","EVANS","GA",30809,33.5839828430001,-82.163815224,99,"410 FERNHURST LANE, EVANS, GA, 30809","Match","Exact","410 FERNHURST LN, EVANS, GA, 30809",641038748,"L"
601600,"410 FERNHURST","EVANS","GA",30809,33.5839828430001,-82.163815224,100,"410 FERNHURST, EVANS, GA, 30809","Match","Non_Exact","410 FERNHURST LN, EVANS, GA, 30809",641038748,"L"
601601,"410 FERNWAY DRIVE","BURLINGTON","NC",27217,36.126054378,-79.437799479,101,"410 FERNWAY DRIVE, BURLINGTON, NC, 27217","Match","Exact","410 FERNWAY DR, BURLINGTON, NC, 27217",652522861,"L"
601602,"410 FERNWOOD RD","SEVERNA PARK","MD",21146,NA,NA,102,"410 FERNWOOD RD, SEVERNA PARK, MD, 21146","Tie",NA,NA,NA,NA
601603,"410 FIELDSTONE","WINDSOR","CO",80550,40.485591523,-104.925767417,103,"410 FIELDSTONE, WINDSOR, CO, 80550","Match","Non_Exact","410 FIELDSTONE DR, WINDSOR, CO, 80550",188721497,"L"
601604,"410 FIRESIDE COURT","GIRARD","PA",16417,42.010370505,-80.319070484,104,"410 FIRESIDE COURT, GIRARD, PA, 16417","Match","Exact","410 FIRESIDE CT, GIRARD, PA, 16417",117505276,"R"
601605,"410 FOGGY MOUNTAIN DR","OLD FORT","NC",28762,35.6328893260001,-82.154413225,105,"410 FOGGY MOUNTAIN DR, OLD FORT, NC, 28762","Match","Exact","410 FOGGY MTN DR, OLD FORT, NC, 28762",233031390,"R"
601606,"410 FOLEY ROAD","RUSSELL SPRINGS","KY",42642,37.078435606,-85.054608559,106,"410 FOLEY ROAD, RUSSELL SPRINGS, KY, 42642","Match","Exact","410 FOLEY RD, RUSSELL SPRINGS, KY, 42642",624757102,"R"
601607,"410 FOREST DRIVE","MAIDEN","NC",28650,35.5769928460001,-81.203632172,107,"410 FOREST DRIVE, MAIDEN, NC, 28650","Match","Exact","410 FOREST DR, MAIDEN, NC, 28650",640600934,"L"
601608,"410 FOREST GLEN DR","ALBANY","GA",31707,31.5874755840001,-84.212565888,108,"410 FOREST GLEN DR, ALBANY, GA, 31707","Match","Exact","410 FOREST GLEN DR, ALBANY, GA, 31707",639064417,"R"
601609,"410 FOX SHORES DR APT 3","KAUKAUNA","WI",54130,44.2807693500001,-88.274657636,109,"410 FOX SHORES DR APT 3, KAUKAUNA, WI, 54130","Match","Exact","410 FOX SHORES DR, KAUKAUNA, WI, 54130",74889658,"R"
601610,"410 FRANK HALL DR","ALBERT LEA","MN",56007,43.6428035710001,-93.360978694,110,"410 FRANK HALL DR, ALBERT LEA, MN, 56007","Match","Exact","410 FRANK HALL DR, ALBERT LEA, MN, 56007",39534789,"L"
601611,"410 FRANK PATTERSON RD","HAZEL GREEN","AL",35750,34.958085833,-86.597628048,111,"410 FRANK PATTERSON RD, HAZEL GREEN, AL, 35750","Match","Exact","410 FRANK PATTERSON RD, HAZEL GREEN, AL, 35750",58193425,"R"
601612,"410 FRANKLIN AVE","DES MOINES","IA",50314,41.61129693,-93.623864715,112,"410 FRANKLIN AVE, DES MOINES, IA, 50314","Match","Exact","410 FRANKLIN AVE, DES MOINES, IA, 50314",65782206,"L"
601613,"410 FRANKLIN ST","FORT COLLINS","CO",80521,40.593006293,-105.10003308,113,"410 FRANKLIN ST, FORT COLLINS, CO, 80521","Match","Exact","410 FRANKLIN ST, FORT COLLINS, CO, 80521",188490218,"R"
601614,"410 FREMONT BOX224","TOMBSTONE","AZ",85638,NA,NA,114,"410 FREMONT BOX224, TOMBSTONE, AZ, 85638","No_Match",NA,NA,NA,NA
601615,"410 FRONT STREET","MARIETTA","OH",45750,39.4168399690001,-81.458338672,115,"410 FRONT STREET, MARIETTA, OH, 45750","Match","Exact","410 FRONT ST, MARIETTA, OH, 45750",45681355,"R"
601616,"410 FRONT STREET","MARIETTA","OH",45760,39.4168399690001,-81.458338672,116,"410 FRONT STREET, MARIETTA, OH, 45760","Match","Non_Exact","410 FRONT ST, MARIETTA, OH, 45750",45681355,"R"
601617,"410 GALLATIN STREET NW","WASHINGTON","DC",20011,38.952116243,-77.018456135,117,"410 GALLATIN STREET NW, WASHINGTON, DC, 20011","Match","Exact","410 GALLATIN ST NW, WASHINGTON, DC, 20011",76223417,"L"
601618,"410 GARBUTT RD","JESUP","GA",31545,31.6156268610001,-81.88574948,118,"410 GARBUTT RD, JESUP, GA, 31545","Match","Exact","410 GARBUTT RD, JESUP, GA, 31545",4835791,"R"
601619,"410 GARDEN SPRINGS DR","OAKLAND","TN",38060,35.206979679,-89.509135613,119,"410 GARDEN SPRINGS DR, OAKLAND, TN, 38060","Match","Exact","410 GARDEN SPRINGS, OAKLAND, TN, 38060",639812529,"L"
601620,"410 GARDENA ST","MICHIGAN CITY","IN",46360,41.698572036,-86.8888901399999,120,"410 GARDENA ST, MICHIGAN CITY, IN, 46360","Match","Exact","410 GARDENA ST, MICHIGAN CITY, IN, 46360",15411613,"L"
601621,"410 GATES LN","HANSON","KY",42413,37.451021326,-87.4892436379999,121,"410 GATES LN, HANSON, KY, 42413","Match","Exact","410 GATES LN, HANSON, KY, 42413",11516351,"L"
601622,"410 GATEWAY BLVD","HURON","OH",44839,41.389462569,-82.534461224,122,"410 GATEWAY BLVD, HURON, OH, 44839","Match","Exact","410 GATEWAY BLVD, HURON, OH, 44839",55327414,"R"
601623,"410 GATEWOOD ROAD","CHERRY HILL","NJ",8003,39.869369272,-74.989121416,123,"410 GATEWOOD ROAD, CHERRY HILL, NJ, 8003","Match","Exact","410 GATEWOOD RD, CHERRY HILL, NJ, 08003",134358643,"R"
601624,"410 GIBBS LN","GALLATIN","TN",37066,36.4192840590001,-86.4278777229999,124,"410 GIBBS LN, GALLATIN, TN, 37066","Match","Exact","410 GIBBS LN, GALLATIN, TN, 37066",649766284,"L"
601625,"410 GILBERT AVE","MENLO PARK","CA",94025,37.459489992,-122.156873639,125,"410 GILBERT AVE, MENLO PARK, CA, 94025","Match","Exact","410 GILBERT AVE, MENLO PARK, CA, 94025",192366264,"R"
601626,"410 GINA DRIVE","HARKER HEIGHTS","TX",76548,31.0755209590001,-97.62484424,126,"410 GINA DRIVE, HARKER HEIGHTS, TX, 76548","Match","Exact","410 GINA DR, HARKER HEIGHTS, TX, 76548",146227000,"L"
601627,"410 GINGERBEND DR","CHAMPAIGN","IL",61822,40.1126792640001,-88.2922235509999,127,"410 GINGERBEND DR, CHAMPAIGN, IL, 61822","Match","Non_Exact","410 GINGER BEND DR, CHAMPAIGN, IL, 61822",652585021,"L"
601628,"410 GOODALL AVE","DAYTONA BEACH","FL",32118,29.2192960680001,-81.007970466,128,"410 GOODALL AVE, DAYTONA BEACH, FL, 32118","Match","Exact","410 GOODALL AVE, DAYTONA BEACH, FL, 32118",94525368,"R"
601629,"410 GOODALL AVENUE","DAYTONA BEACH","FL",32118,29.2192960680001,-81.007970466,129,"410 GOODALL AVENUE, DAYTONA BEACH, FL, 32118","Match","Exact","410 GOODALL AVE, DAYTONA BEACH, FL, 32118",94525368,"R"
601630,"410 GRAFTON CT","GREER","SC",29650,34.89159069,-82.2453165109999,130,"410 GRAFTON CT, GREER, SC, 29650","Match","Exact","410 GRAFTON CT, GREER, SC, 29650",38370824,"R"
601631,"410 GRAISBURY AVE","HADDONFIELD","NJ",8033,39.897674104,-75.049981002,131,"410 GRAISBURY AVE, HADDONFIELD, NJ, 8033","Match","Exact","410 GRAISBURY AVE, HADDONFIELD, NJ, 08033",134353976,"L"
601632,"410 GRAMATAN AVE","MOUNT VERNON","NY",10552,40.9212953160001,-73.837364607,132,"410 GRAMATAN AVE, MOUNT VERNON, NY, 10552","Match","Exact","410 GRAMATAN AVE, MOUNT VERNON, NY, 10552",139746852,"L"
601633,"410 GRANT ST APT D","OCEANSIDE","CA",92054,33.195865473,-117.370100228,133,"410 GRANT ST APT D, OCEANSIDE, CA, 92054","Match","Exact","410 GRANT ST, OCEANSIDE, CA, 92054",195280720,"L"
601634,"410 GRANT STREET","BADIN","NC",28009,35.407219544,-80.122803629,134,"410 GRANT STREET, BADIN, NC, 28009","Match","Exact","410 GRANT ST, BADIN, NC, 28009",14078181,"L"
601635,"410 GRAVEL BEND RD","EGG HARBOR TOWNSHIP","NJ",8234,39.4318420650001,-74.61922147,135,"410 GRAVEL BEND RD, EGG HARBOR TOWNSHIP, NJ, 8234","Match","Exact","410 GRAVEL BEND RD, EGG HARBOR TOWNSHIP, NJ, 08234",202507118,"L"
601636,"410 GRAY LANE","MOUNT PLEASANT","TN",38474,35.5478685900001,-87.202974415,136,"410 GRAY LANE, MOUNT PLEASANT, TN, 38474","Match","Exact","410 GRAY LN, MOUNT PLEASANT, TN, 38474",26881293,"L"
601637,"410 GREEN OAKS CIRCLE APT 2096","ARLINGTON","TX",76006,32.785334784,-97.113681582,137,"410 GREEN OAKS CIRCLE APT 2096, ARLINGTON, TX, 76006","Match","Exact","410 GREEN OAKS CIR, ARLINGTON, TX, 76006",102121569,"R"
601638,"410 HALE DRIVE","THIBODAUX","LA",70301,29.7587204020001,-90.8015765219999,138,"410 HALE DRIVE, THIBODAUX, LA, 70301","Match","Exact","410 HALE DR, THIBODAUX, LA, 70301",92346686,"L"
601639,"410 HALF MOON LANE","BOSSIER CITY","LA",71111,32.573364268,-93.6734952589999,139,"410 HALF MOON LANE, BOSSIER CITY, LA, 71111","Match","Exact","410 HALF MOON LN, BOSSIER CITY, LA, 71111",628651411,"L"
601640,"410 HALSEY STREET","BROOKLYN","NY",11213,40.6832206130001,-73.93751814,140,"410 HALSEY STREET, BROOKLYN, NY, 11213","Match","Non_Exact","410 HALSEY ST, BROOKLYN, NY, 11233",59079301,"R"
601641,"410 HANCOCK AVE","VANDERGRIFT","PA",15690,40.599976144,-79.567192016,141,"410 HANCOCK AVE, VANDERGRIFT, PA, 15690","Match","Exact","410 HANCOCK AVE, VANDERGRIFT, PA, 15690",53023978,"R"
601642,"410 HARRISON AVENUE","ASTORIA","OR",97103,46.1856610730001,-123.838683897,142,"410 HARRISON AVENUE, ASTORIA, OR, 97103","Match","Exact","410 HARRISON AVE, ASTORIA, OR, 97103",159221610,"R"
601643,"410 HAWTHORNE RD","LUPTON","AZ",86508,NA,NA,143,"410 HAWTHORNE RD, LUPTON, AZ, 86508","No_Match",NA,NA,NA,NA
601644,"410 HAZEL GROVE LANE","CROZET","VA",22932,NA,NA,144,"410 HAZEL GROVE LANE, CROZET, VA, 22932","No_Match",NA,NA,NA,NA
601645,"410 HEATHER VIEW DR","JONESBOROUGH","TN",37659,36.339556529,-82.46523588,145,"410 HEATHER VIEW DR, JONESBOROUGH, TN, 37659","Match","Exact","410 HEATHER VIEW DR, JONESBOROUGH, TN, 37659",127943780,"R"
601646,"410 HEDIN TERRACE","GASTON","OR",97119,45.434300534,-123.147749248,146,"410 HEDIN TERRACE, GASTON, OR, 97119","Match","Exact","410 HEDIN TER, GASTON, OR, 97119",639783036,"L"
601647,"410 HESSL BLVD","CHAMPAIGN","IL",61820,40.102294208,-88.248784593,147,"410 HESSL BLVD, CHAMPAIGN, IL, 61820","Match","Non_Exact","410 HESSEL BLVD, CHAMPAIGN, IL, 61820",8810874,"R"
601648,"410 HIAWATHA TRAIL","WOOD DALE","IL",60191,41.95584853,-87.965548682,148,"410 HIAWATHA TRAIL, WOOD DALE, IL, 60191","Match","Exact","410 HIAWATHA TRL, WOOD DALE, IL, 60191",649651375,"R"
601649,"410 HICKORY ST","BUFFALO","NY",14204,42.8899343910001,-78.860475271,149,"410 HICKORY ST, BUFFALO, NY, 14204","Match","Exact","410 HICKORY ST, BUFFALO, NY, 14204",48291138,"L"
601650,"410 HICKORY STREET","BUFFALO","NY",14204,42.8899343910001,-78.860475271,150,"410 HICKORY STREET, BUFFALO, NY, 14204","Match","Exact","410 HICKORY ST, BUFFALO, NY, 14204",48291138,"L"
601651,"410 HIDDEN MEADOW WAY","MIDDLETON","ID",83644,43.7240632240001,-116.630826321,151,"410 HIDDEN MEADOW WAY, MIDDLETON, ID, 83644","Match","Non_Exact","410 W HIDDEN MEADOW WAY, MIDDLETON, ID, 83644",625588409,"L"
601652,"410 HIDDEN TRAIL CT","BURLESON","TX",76028,32.5242702560001,-97.313387512,152,"410 HIDDEN TRAIL CT, BURLESON, TX, 76028","Match","Exact","410 HIDDEN TRAIL CT, BURLESON, TX, 76028",225919273,"L"
601653,"410 HIDDEN VALLEY ROAD","MEDIA","PA",19063,39.922759614,-75.3692340229999,153,"410 HIDDEN VALLEY ROAD, MEDIA, PA, 19063","Match","Exact","410 HIDDEN VALLEY RD, MEDIA, PA, 19063",134894808,"R"
601654,"410 HIGH RIDGE RD","KINGS MTN","KY",40442,37.3469464410001,-84.7799026819999,154,"410 HIGH RIDGE RD, KINGS MTN, KY, 40442","Match","Exact","410 HIGH RIDGE RD, KINGS MOUNTAIN, KY, 40442",32510418,"R"
601655,"410 HILLSIDE CT","SHULLSBURG","WI",53586,42.569699879,-90.238639436,155,"410 HILLSIDE CT, SHULLSBURG, WI, 53586","Match","Exact","410 HILLSIDE CT, SHULLSBURG, WI, 53586",32878176,"R"
601656,"410 HOLLIDAY ROAD","NORTH SPRINGFIELD","PA",16430,42.0011707740001,-80.438058252,156,"410 HOLLIDAY ROAD, NORTH SPRINGFIELD, PA, 16430","Match","Exact","410 HOLLIDAY RD, N SPRINGFIELD, PA, 16430",117480910,"L"
601657,"410 HOLLOW CREEK ROAD   43","LEXINGTON","KY",40511,38.072988606,-84.475628187,157,"410 HOLLOW CREEK ROAD   43, LEXINGTON, KY, 40511","Match","Exact","410 HOLLOW CREEK RD, LEXINGTON, KY, 40511",636246026,"L"
601658,"410 HOLLOW CREEK ROAD  43","LEXINGTON","KY",40511,38.072988606,-84.475628187,158,"410 HOLLOW CREEK ROAD  43, LEXINGTON, KY, 40511","Match","Exact","410 HOLLOW CREEK RD, LEXINGTON, KY, 40511",636246026,"L"
601659,"410 HOLLOW CREEK ROAD APT 43","LEXINGTON","KY",40511,38.072988606,-84.475628187,159,"410 HOLLOW CREEK ROAD APT 43, LEXINGTON, KY, 40511","Match","Exact","410 HOLLOW CREEK RD, LEXINGTON, KY, 40511",636246026,"L"
601660,"410 HOLLY DRIVE","ANNAPOLIS","MD",21403,38.938036422,-76.493532401,160,"410 HOLLY DRIVE, ANNAPOLIS, MD, 21403","Match","Exact","410 HOLLY DR, ANNAPOLIS, MD, 21403",68173737,"R"
601661,"410 HOLLY STREET","JOHNSON CITY","TN",37601,36.305767621,-82.350856387,161,"410 HOLLY STREET, JOHNSON CITY, TN, 37601","Match","Non_Exact","410 HOLLY ST, JOHNSON CITY, TN, 37604",127924650,"R"
601662,"410 HOPKINS STREET","RIO RICO","AZ",85648,31.4757421410001,-110.975319151,162,"410 HOPKINS STREET, RIO RICO, AZ, 85648","Match","Exact","410 HOPKINS ST, RIO RICO, AZ, 85648",120859155,"L"
601663,"410 HOXIE CT","ELGIN","IL",60123,42.0439602440001,-88.317319084,163,"410 HOXIE CT, ELGIN, IL, 60123","Match","Non_Exact","410 HOXIE AVE, ELGIN, IL, 60123",119581459,"L"
601664,"410 HUDSON CT","CARY","NC",27511,35.7844603550001,-78.766785611,164,"410 HUDSON CT, CARY, NC, 27511","Match","Exact","410 HUDSON CT, CARY, NC, 27511",72499013,"L"
601665,"410 HUDSON ROAD","GREENVILLE","SC",29615,34.8620628300001,-82.320249029,165,"410 HUDSON ROAD, GREENVILLE, SC, 29615","Match","Exact","410 HUDSON RD, GREENVILLE, SC, 29615",38309935,"R"
601666,"410 HUNTER ST","WOODBURY","NJ",8096,39.836447428,-75.1427135719999,166,"410 HUNTER ST, WOODBURY, NJ, 8096","Match","Exact","410 HUNTER ST, WOODBURY, NJ, 08096",134583565,"L"
601667,"410 HUNTINGTON AVE","VENTURA","CA",93004,34.2764553530001,-119.190255446,167,"410 HUNTINGTON AVE, VENTURA, CA, 93004","Match","Exact","410 HUNTINGTON AVE, VENTURA, CA, 93004",109956689,"L"
601668,"410 HURON ST","ELMORE","OH",43416,41.476361948,-83.290154415,168,"410 HURON ST, ELMORE, OH, 43416","Match","Exact","410 HURON ST, ELMORE, OH, 43416",44070884,"L"
601669,"410 HWY ST","MUSCOTAH","KS",66058,NA,NA,169,"410 HWY ST, MUSCOTAH, KS, 66058","No_Match",NA,NA,NA,NA
601670,"410 ICE POND RD","PATTERSON","NY",12563,NA,NA,170,"410 ICE POND RD, PATTERSON, NY, 12563","No_Match",NA,NA,NA,NA
601671,"410 IRONBARK DR","WEBSTER","TX",77598,29.553571306,-95.142082763,171,"410 IRONBARK DR, WEBSTER, TX, 77598","Match","Exact","410 IRONBARK DR, WEBSTER, TX, 77598",96114850,"R"
601672,"410 JACKSON STREET","EVELETH","MN",55734,47.464261994,-92.539729533,172,"410 JACKSON STREET, EVELETH, MN, 55734","Match","Exact","410 JACKSON ST, EVELETH, MN, 55734",163171285,"R"
601673,"410 JACOLYN DR SW APT 4","CEDAR RAPIDS","IA",52404,41.9658243710001,-91.7306190149999,173,"410 JACOLYN DR SW APT 4, CEDAR RAPIDS, IA, 52404","Match","Exact","410 JACOLYN DR SW, CEDAR RAPIDS, IA, 52404",648099247,"L"
601674,"410 JANE DRIVE","WINDSOR","CA",95492,38.5574803530001,-122.815079517,174,"410 JANE DRIVE, WINDSOR, CA, 95492","Match","Exact","410 JANE DR, WINDSOR, CA, 95492",67511342,"L"
601675,"410 JEFFERSON ST","MOAB","UT",84532,38.555900121,-109.542492923,175,"410 JEFFERSON ST, MOAB, UT, 84532","Match","Exact","410 JEFFERSON ST, MOAB, UT, 84532",126066281,"R"
601676,"410 JEFFERY RD","BIG SPRING","TX",79720,32.1632914260001,-101.458168982,176,"410 JEFFERY RD, BIG SPRING, TX, 79720","Match","Exact","410 JEFFERY RD, BIG SPRING, TX, 79720",182888581,"R"
601677,"410 JOHN ST","UNION CITY","MI",49094,42.0690372650001,-85.133644971,177,"410 JOHN ST, UNION CITY, MI, 49094","Match","Exact","410 JOHN ST, UNION CITY, MI, 49094",8216791,"R"
601678,"410 JORDON POND LANE","BOWIE","MD",20721,38.896500689,-76.746142817,178,"410 JORDON POND LANE, BOWIE, MD, 20721","Match","Exact","410 JORDON POND LN, BOWIE, MD, 20721",76352250,"L"
601679,"410 JOSLYN WAY","BATAVIA","IL",60510,NA,NA,179,"410 JOSLYN WAY, BATAVIA, IL, 60510","No_Match",NA,NA,NA,NA
601680,"410 KAY LAYNE DRIVE","PAWNEE","IL",62558,NA,NA,180,"410 KAY LAYNE DRIVE, PAWNEE, IL, 62558","No_Match",NA,NA,NA,NA
601681,"410 KEATON WAY","SUFFOLK","VA",23434,36.7716157940001,-76.5925160959999,181,"410 KEATON WAY, SUFFOLK, VA, 23434","Match","Exact","410 KEATON WAY, SUFFOLK, VA, 23434",122230718,"R"
601682,"410 KELSEY ANN COURT","WENTZVILLE","MO",63385,38.7816444040001,-90.864587687,182,"410 KELSEY ANN COURT, WENTZVILLE, MO, 63385","Match","Exact","410 KELSEY ANN CT, WENTZVILLE, MO, 63385",635858659,"R"
601683,"410 KENDRICK TERRACE","ATLANTA","GA",30331,33.686629962,-84.546572464,183,"410 KENDRICK TERRACE, ATLANTA, GA, 30331","Match","Exact","410 KENDRICK TER, ATLANTA, GA, 30331",624758434,"R"
601684,"410 KETTLE BOTTOM DRIVE","REISTERTOWN","MD",21136,39.435936665,-76.8278910289999,184,"410 KETTLE BOTTOM DRIVE, REISTERTOWN, MD, 21136","Match","Non_Exact","410 KETTLE BOTTOM RD, REISTERSTOWN, MD, 21136",645622383,"L"
601685,"410 KIMBERLITE STREET","TIFFIN","IA",52340,41.70453702,-91.658826819,185,"410 KIMBERLITE STREET, TIFFIN, IA, 52340","Match","Exact","410 KIMBERLITE ST, TIFFIN, IA, 52340",84509888,"L"
601686,"410 KUDER ST","EDEN","NC",27288,36.5001209610001,-79.75907025,186,"410 KUDER ST, EDEN, NC, 27288","Match","Exact","410 KUDER ST, EDEN, NC, 27288",56221918,"R"
601687,"410 KUEHU STREET","KAPOLEI","HI",96707,NA,NA,187,"410 KUEHU STREET, KAPOLEI, HI, 96707","No_Match",NA,NA,NA,NA
601688,"410 LA MIRADA AVENUE","SAN MARINO","CA",91108,34.112159826,-118.136416273,188,"410 LA MIRADA AVENUE, SAN MARINO, CA, 91108","Match","Exact","410 LA MIRADA AVE, SAN MARINO, CA, 91108",141631182,"R"
601689,"410 LAKESHORE DRIVE","LAKE MARY","FL",32746,28.743933301,-81.347644921,189,"410 LAKESHORE DRIVE, LAKE MARY, FL, 32746","Match","Exact","410 LAKESHORE DR, LAKE MARY, FL, 32746",93795608,"R"
601690,"410 LANCASTER AVE APT 113","HAVERFORD","PA",19041,40.014237397,-75.3036517149999,190,"410 LANCASTER AVE APT 113, HAVERFORD, PA, 19041","Match","Exact","410 LANCASTER AVE, HAVERFORD, PA, 19041",135086847,"L"
601691,"410 LANCASTER DR","HOUM","LA",70360,29.5791075970001,-90.758144311,191,"410 LANCASTER DR, HOUM, LA, 70360","Match","Non_Exact","410 LANCASTER DR, HOUMA, LA, 70360",92072011,"R"
601692,"410 LANCASTER DR","HOUMA","LA",70360,29.5791075970001,-90.758144311,192,"410 LANCASTER DR, HOUMA, LA, 70360","Match","Exact","410 LANCASTER DR, HOUMA, LA, 70360",92072011,"R"
601693,"410 LEICESTER SQUARE DRIVE","BALLWIN","MO",63021,38.5647868200001,-90.547702699,193,"410 LEICESTER SQUARE DRIVE, BALLWIN, MO, 63021","Match","Exact","410 LEICESTER SQUARE DR, BALLWIN, MO, 63021",100183974,"L"
601694,"410 LENON STREET","ROSEBORO","NC",28382,34.9476648420001,-78.504055003,194,"410 LENON STREET, ROSEBORO, NC, 28382","Match","Exact","410 LENON ST, ROSEBORO, NC, 28382",14240032,"R"
601695,"410 LENOX PLACE","SOUTH ORANGE","NJ",7079,40.743520088,-74.273969743,195,"410 LENOX PLACE, SOUTH ORANGE, NJ, 7079","Match","Exact","410 LENOX PL, SOUTH ORANGE, NJ, 07079",642734944,"L"
601696,"410 LEVI HOLLOW RD","LAWRENCEBURG","TN",38464,35.3867706890001,-87.576644331,196,"410 LEVI HOLLOW RD, LAWRENCEBURG, TN, 38464","Match","Exact","410 LEVI HOLLOW RD, LAWRENCEBURG, TN, 38464",652026242,"L"
601697,"410 LEXINGTON AVE N","NEW PRAGUE","MN",56071,44.547706293,-93.567016612,197,"410 LEXINGTON AVE N, NEW PRAGUE, MN, 56071","Match","Exact","410 LEXINGTON AVE N, NEW PRAGUE, MN, 56071",38143190,"L"
601698,"410 LIBERTY STREET","DURHAM","NC",27701,35.9938187810001,-78.89574673,198,"410 LIBERTY STREET, DURHAM, NC, 27701","Match","Exact","410 LIBERTY ST, DURHAM, NC, 27701",71742407,"R"
601699,"410 LINDEN ST","CINCINNATI OHIO USA","OH",45216,39.186193056,-84.4893283499999,199,"410 LINDEN ST, CINCINNATI OHIO USA, OH, 45216","Match","Non_Exact","410 LINDEN ST, CINCINNATI, OH, 45216",103923947,"R"
601700,"410 LINE ROAD","MECHANICSBURG","PA",17050,40.23838468,-77.02105514,200,"410 LINE ROAD, MECHANICSBURG, PA, 17050","Match","Exact","410 LINE RD, MECHANICSBURG, PA, 17050",640722003,"R"
601701,"410 LINFIELD DRIVE","MENLO PARK","CA",94025,37.4513290800001,-122.17140909,201,"410 LINFIELD DRIVE, MENLO PARK, CA, 94025","Match","Exact","410 LINFIELD DR, MENLO PARK, CA, 94025",192365608,"R"
601702,"410 LINFIELD DRIVE","PALO ALTO","CA",94025,37.4513290800001,-122.17140909,202,"410 LINFIELD DRIVE, PALO ALTO, CA, 94025","Match","Non_Exact","410 LINFIELD DR, MENLO PARK, CA, 94025",192365608,"R"
601703,"410 LODGE COVE","CHESAPEAKE","VA",23323,36.7267207140001,-76.3465836569999,203,"410 LODGE COVE, CHESAPEAKE, VA, 23323","Match","Exact","410 LODGE COVE, CHESAPEAKE, VA, 23323",121786998,"R"
601704,"410 LOMBARDI RD","LE MARS","IA",51031,42.781827676,-96.1600908079999,204,"410 LOMBARDI RD, LE MARS, IA, 51031","Match","Exact","410 LOMBARDI RD, LE MARS, IA, 51031",93328749,"R"
601705,"410 LONDON LANE","AVON","IN",46123,39.7688596840001,-86.403850367,205,"410 LONDON LANE, AVON, IN, 46123","Match","Exact","410 LONDON LN, AVON, IN, 46123",89207796,"R"
601706,"410 LONGFIELD RD","NEWARK","DE",19713,39.660686529,-75.7222933799999,206,"410 LONGFIELD RD, NEWARK, DE, 19713","Match","Exact","410 LONGFIELD RD, NEWARK, DE, 19713",187264793,"L"
601707,"410 LOOP ROAD","REFORM","AL",35481,33.398780559,-88.055609218,207,"410 LOOP ROAD, REFORM, AL, 35481","Match","Exact","410 LOOP RD, REFORM, AL, 35481",619619,"L"
601708,"410 LORI LN UNIT 5","ASHLAND","OR",97520,42.204250571,-122.71897928,208,"410 LORI LN UNIT 5, ASHLAND, OR, 97520","Match","Exact","410 LORI LN, ASHLAND, OR, 97520",155562577,"R"
601709,"410 LOWER STATE ROAD","NORTH WALES","PA",19454,40.222776814,-75.2053770319999,209,"410 LOWER STATE ROAD, NORTH WALES, PA, 19454","Match","Exact","410 LOWER STATE RD, NORTH WALES, PA, 19454",635655597,"R"
601710,"410 LOYALTY DRIVE APT B","FAYETTEVILLE","NC",28301,35.0439782930001,-78.8687694769999,210,"410 LOYALTY DRIVE APT B, FAYETTEVILLE, NC, 28301","Match","Exact","410 LOYALTY DR, FAYETTEVILLE, NC, 28301",646748327,"R"
601711,"410 MADDOX RD","GRIFFIN","GA",30224,33.213047252,-84.26022826,211,"410 MADDOX RD, GRIFFIN, GA, 30224","Match","Exact","410 MADDOX RD, GRIFFIN, GA, 30224",23761644,"L"
601712,"410 MAGELLAN AVENUE APT 1006","HONOLULU","HI",96813,21.310462833,-157.851897725,212,"410 MAGELLAN AVENUE APT 1006, HONOLULU, HI, 96813","Match","Exact","410 MAGELLAN AVE, HONOLULU, HI, 96813",203236346,"L"
601713,"410 MAIN AVE EAST","GAYLORD","MN",55334,44.5530477140001,-94.220848894,213,"410 MAIN AVE EAST, GAYLORD, MN, 55334","Match","Non_Exact","410 MAIN AVE, GAYLORD, MN, 55334",37014021,"L"
601714,"410 MAIN ST","BUCHANAN","MI",49107,41.83170203,-86.360258249,214,"410 MAIN ST, BUCHANAN, MI, 49107","Match","Exact","410 MAIN ST, BUCHANAN, MI, 49107",119977657,"L"
601715,"410 MAIN ST","DELANO","CA",93215,35.761606758,-119.243883888,215,"410 MAIN ST, DELANO, CA, 93215","Match","Exact","410 MAIN ST, DELANO, CA, 93215",108997859,"R"
601716,"410 MAIN ST","NEW HARTFORD","CT",6057,NA,NA,216,"410 MAIN ST, NEW HARTFORD, CT, 6057","No_Match",NA,NA,NA,NA
601717,"410 MAIN STREET","ALTA","IA",51002,42.671329266,-95.304170664,217,"410 MAIN STREET, ALTA, IA, 51002","Match","Non_Exact","410 S MAIN ST, ALTA, IA, 51002",77377611,"L"
601718,"410 MAIN STREET","RIDGEFIELD","CT",6877,41.281785805,-73.498421631,218,"410 MAIN STREET, RIDGEFIELD, CT, 6877","Match","Exact","410 MAIN ST, RIDGEFIELD, CT, 06877",3278557,"L"
601719,"410 MAIN","MELSTONE","MT",59054,46.598632885,-107.867594587,219,"410 MAIN, MELSTONE, MT, 59054","Match","Non_Exact","410 MAIN ST, MELSTONE, MT, 59054",170776106,"R"
601720,"410 MANOR DR APT A1","LAWRENCEBURG","TN",38464,35.2704100760001,-87.317881437,220,"410 MANOR DR APT A1, LAWRENCEBURG, TN, 38464","Match","Exact","410 MANOR DR, LAWRENCEBURG, TN, 38464",638901525,"L"
601721,"410 MANTOOTH","LUFKIN","TX",75904,31.3414688560001,-94.733063742,221,"410 MANTOOTH, LUFKIN, TX, 75904","Match","Non_Exact","410 MANTOOTH AVE, LUFKIN, TX, 75904",23840432,"L"
601722,"410 MAPLE DR","LOS ALAMOS","NM",87544,35.905931862,-106.307043496,222,"410 MAPLE DR, LOS ALAMOS, NM, 87544","Match","Exact","410 MAPLE DR, LOS ALAMOS, NM, 87544",143757452,"R"
601723,"410 MAPLE RUN","ROUND ROCK","TX",78664,NA,NA,223,"410 MAPLE RUN, ROUND ROCK, TX, 78664","Tie",NA,NA,NA,NA
601724,"410 MAPLEWOOD DR","FRANCIS CREEK","WI",54214,44.2012064030001,-87.720854721,224,"410 MAPLEWOOD DR, FRANCIS CREEK, WI, 54214","Match","Exact","410 MAPLEWOOD DR, FRANCIS CREEK, WI, 54214",147957364,"L"
601725,"410 MARBLE CREEK LANE","NICHOLASVILLE","KY",40356,NA,NA,225,"410 MARBLE CREEK LANE, NICHOLASVILLE, KY, 40356","No_Match",NA,NA,NA,NA
601726,"410 MARBLE CREEK LN","NICHOLASVILLE","KY",40356,NA,NA,226,"410 MARBLE CREEK LN, NICHOLASVILLE, KY, 40356","No_Match",NA,NA,NA,NA
601727,"410 MARKET AVE NW","MITCHELLVILLE","IA",50169,41.671152433,-93.3604210249999,227,"410 MARKET AVE NW, MITCHELLVILLE, IA, 50169","Match","Exact","410 MARKET AVE NW, MITCHELLVILLE, IA, 50169",65770967,"L"
601728,"410 MARTIN LUTHER KING STREET","SELMA","AL",36701,32.41313876,-87.01682164,228,"410 MARTIN LUTHER KING STREET, SELMA, AL, 36701","Match","Non_Exact","410 MARTIN LUTHER KING ST, SELMA, AL, 36703",1301289,"R"
601729,"410 MEADOW LANE","PEEBLES","OH",45660,38.905729546,-83.4095696809999,229,"410 MEADOW LANE, PEEBLES, OH, 45660","Match","Exact","410 MEADOW LN, PEEBLES, OH, 45660",100849586,"R"
601730,"410 MEADOWLARK PL","GADSDEN","AL",35903,34.0097335,-85.945459359,230,"410 MEADOWLARK PL, GADSDEN, AL, 35903","Match","Non_Exact","410 MEADOWLARK, GADSDEN, AL, 35903",66786544,"L"
601731,"410 MELANIE WAY","MAITLAND","FL",32751,28.644394748,-81.3843198719999,231,"410 MELANIE WAY, MAITLAND, FL, 32751","Match","Exact","410 MELANIE WAY, MAITLAND, FL, 32751",93796287,"R"
601732,"410 MERRIMACK STREET","MANCHESTER","CT",3103,NA,NA,232,"410 MERRIMACK STREET, MANCHESTER, CT, 3103","No_Match",NA,NA,NA,NA
601733,"410 MILAN DRIVE UNIT 117","SAN JOSE","CA",95134,37.4010909830001,-121.922513942,233,"410 MILAN DRIVE UNIT 117, SAN JOSE, CA, 95134","Match","Exact","410 MILAN DR, SAN JOSE, CA, 95134",123009604,"L"
601734,"410 MILAN DRIVE","SAN JOSE","CA",95134,37.4010909830001,-121.922513942,234,"410 MILAN DRIVE, SAN JOSE, CA, 95134","Match","Exact","410 MILAN DR, SAN JOSE, CA, 95134",123009604,"L"
601735,"410 MILL POND DR","YOUNGSVILLE","LA",70592,30.111545305,-92.008956934,235,"410 MILL POND DR, YOUNGSVILLE, LA, 70592","Match","Exact","410 MILL POND DR, YOUNGSVILLE, LA, 70592",85640034,"L"
601736,"410 MILL","LINCOLN PARK","MI",48146,42.2397897210001,-83.1615885309999,236,"410 MILL, LINCOLN PARK, MI, 48146","Match","Non_Exact","410 MILL ST, LINCOLN PARK, MI, 48146",95450635,"R"
601737,"410 MIRAMAR AVENUE","SAN FRANCISCO","CA",94112,NA,NA,237,"410 MIRAMAR AVENUE, SAN FRANCISCO, CA, 94112","No_Match",NA,NA,NA,NA
601738,"410 MISSISSIPPI AVE","SILVER SPRING","MD",20910,38.9876203750001,-77.009612916,238,"410 MISSISSIPPI AVE, SILVER SPRING, MD, 20910","Match","Exact","410 MISSISSIPPI AVE, SILVER SPRING, MD, 20910",62068761,"L"
601739,"410 MOCKINGBIRD VALLEY RD APT 7","LOUISVILLE","KY",40207,38.275646764,-85.6919261149999,239,"410 MOCKINGBIRD VALLEY RD APT 7, LOUISVILLE, KY, 40207","Match","Exact","410 MOCKINGBIRD VALLEY RD, LOUISVILLE, KY, 40207",642504192,"L"
601740,"410 MOLYNEUX STREET","ROCKWOOD","TN",37854,35.8730030450001,-84.668678222,240,"410 MOLYNEUX STREET, ROCKWOOD, TN, 37854","Match","Exact","410 MOLYNEUX ST, ROCKWOOD, TN, 37854",88593652,"R"
601741,"410 MORNING MIST COURT","ALPHARETTA","GA",30022,34.068329158,-84.245947929,241,"410 MORNING MIST COURT, ALPHARETTA, GA, 30022","Match","Non_Exact","410 MORNING MIST CT, ALPHARETTA, GA, 30005",17376990,"L"
601742,"410 N 2ND ST UNIT 439","MINNEAPOLIS","MN",55401,NA,NA,242,"410 N 2ND ST UNIT 439, MINNEAPOLIS, MN, 55401","Tie",NA,NA,NA,NA
601743,"410 N 44TH STREET SUITE 700","PHOENIX","AZ",85008,33.452985465,-111.987144911,243,"410 N 44TH STREET SUITE 700, PHOENIX, AZ, 85008","Match","Non_Exact","410 N 44TH ST, PHOENIX, AZ, 85008",128840074,"L"
601744,"410 N 4TH ST","ATHENA","OR",97813,45.8146955230001,-118.488977158,244,"410 N 4TH ST, ATHENA, OR, 97813","Match","Exact","410 N 4TH ST, ATHENA, OR, 97813",170401629,"L"
601745,"410 N ARSENAL AVE","INDIANAPOLIS","IN",46201,39.7726581110001,-86.133458342,245,"410 N ARSENAL AVE, INDIANAPOLIS, IN, 46201","Match","Exact","410 N ARSENAL AVE, INDIANAPOLIS, IN, 46201",640947516,"L"
601746,"410 N AVE C","SHINER","TX",77984,29.4297826920001,-97.1683923639999,246,"410 N AVE C, SHINER, TX, 77984","Match","Exact","410 AVE C, SHINER, TX, 77984",42259651,"L"
601747,"410 N BALL ST","OWOSSO","MI",48867,43.0009289970001,-84.171885657,247,"410 N BALL ST, OWOSSO, MI, 48867","Match","Exact","410 N BALL ST, OWOSSO, MI, 48867",23645763,"R"
601748,"410 N BRATTON ST","DECHERD","TN",37324,35.2176541970001,-86.073157183,248,"410 N BRATTON ST, DECHERD, TN, 37324","Match","Exact","410 N BRATTON ST, DECHERD, TN, 37324",57969488,"R"
601749,"410 N CENTRAL EXPRY","ALLEN","TX",75013,NA,NA,249,"410 N CENTRAL EXPRY, ALLEN, TX, 75013","No_Match",NA,NA,NA,NA
601750,"410 N CHAPEL GATE LN","BALTIMORE","MD",21229,39.2872189340001,-76.700278134,250,"410 N CHAPEL GATE LN, BALTIMORE, MD, 21229","Match","Exact","410 N CHAPEL GATE LN, BALTIMORE, MD, 21229",206453118,"R"
601751,"410 N CIVIC DRIVE","WALNUT CREEK","CA",94596,37.9131874060001,-122.059858899,251,"410 N CIVIC DRIVE, WALNUT CREEK, CA, 94596","Match","Exact","410 N CIVIC DR, WALNUT CREEK, CA, 94596",613806557,"R"
601752,"410 N CLARK ST","OLEAN","NY",14760,42.0773333670001,-78.4029689129999,252,"410 N CLARK ST, OLEAN, NY, 14760","Match","Exact","410 N CLARK ST, OLEAN, NY, 14760",122031808,"R"
601753,"410 N COLLEGE ST","NEWCOMERSTOWN","OH",43832,40.279667229,-81.60437798,253,"410 N COLLEGE ST, NEWCOMERSTOWN, OH, 43832","Match","Exact","410 N COLLEGE ST, NEWCOMERSTOWN, OH, 43832",647703994,"L"
601754,"410 N DIVISION STREET","WAUNAKEE","WI",53597,43.1952116100001,-89.4468258859999,254,"410 N DIVISION STREET, WAUNAKEE, WI, 53597","Match","Exact","410 N DIVISION ST, WAUNAKEE, WI, 53597",49465867,"L"
601755,"410 N DOWNEY ST","WEST BRANCH","IA",52358,41.675067402,-91.346568659,255,"410 N DOWNEY ST, WEST BRANCH, IA, 52358","Match","Exact","410 N DOWNEY ST, WEST BRANCH, IA, 52358",16702648,"L"
601756,"410 N FREDERIC ST","BURANK","CA",91505,34.165513118,-118.332840403,256,"410 N FREDERIC ST, BURANK, CA, 91505","Match","Non_Exact","410 N FREDERIC ST, BURBANK, CA, 91505",142726272,"R"
601757,"410 N HILLMAN","OKMULGEE","OK",74447,35.625878404,-95.9503601499999,257,"410 N HILLMAN, OKMULGEE, OK, 74447","Match","Non_Exact","410 N HILLMAN AVE, OKMULGEE, OK, 74447",605468728,"L"
601758,"410 N MADISON AVE","EATONTON","GA",31024,33.3312730390001,-83.3927826459999,258,"410 N MADISON AVE, EATONTON, GA, 31024","Match","Exact","410 N MADISON AVE, EATONTON, GA, 31024",635608500,"R"
601759,"410 N MAIN ST","TAFT","OK",74463,35.7630473790001,-95.547268506,259,"410 N MAIN ST, TAFT, OK, 74463","Match","Non_Exact","410 MAIN, TAFT, OK, 74463",91925737,"R"
601760,"410 N MAX","HINTON","OK",73047,35.4749474220001,-98.3605151419999,260,"410 N MAX, HINTON, OK, 73047","Match","Non_Exact","410 N MAX ST, HINTON, OK, 73047",92456027,"R"
601761,"410 N MERRILL AVE","DUNCANVILLE","TX",75116,32.6548990160001,-96.906376856,261,"410 N MERRILL AVE, DUNCANVILLE, TX, 75116","Match","Exact","410 N MERRILL AVE, DUNCANVILLE, TX, 75116",102943114,"R"
601762,"410 N MILDRED STREET","CHARLES TOWN","WV",25414,39.2928261590001,-77.8590535819999,262,"410 N MILDRED STREET, CHARLES TOWN, WV, 25414","Match","Exact","410 N MILDRED ST, CHARLES TOWN, WV, 25414",123436645,"L"
601763,"410 N MISSOUR AVE","LARGO","FL",33770,NA,NA,263,"410 N MISSOUR AVE, LARGO, FL, 33770","No_Match",NA,NA,NA,NA
601764,"410 N MISSOURI AVE","LARGO","FL",33770,27.921495093,-82.787715154,264,"410 N MISSOURI AVE, LARGO, FL, 33770","Match","Non_Exact","410 MISSOURI AVE N, LARGO, FL, 33770",124675257,"R"
601765,"410 N MOLLEY ST","BENNINGTON","NE",68007,41.3689268040001,-96.157177473,265,"410 N MOLLEY ST, BENNINGTON, NE, 68007","Match","Exact","410 N MOLLEY ST, BENNINGTON, NE, 68007",116965775,"L"
601766,"410 N NEWSTEAD","ST LOUIS","MO",63108,38.6453881730001,-90.253002429,266,"410 N NEWSTEAD, ST LOUIS, MO, 63108","Match","Non_Exact","410 N NEWSTEAD AVE, SAINT LOUIS, MO, 63108",641138680,"R"
601767,"410 N PARK BOULEVARD","GLEN ELLYN","IL",60137,41.875658625,-88.062486059,267,"410 N PARK BOULEVARD, GLEN ELLYN, IL, 60137","Match","Exact","410 N PARK BLVD, GLEN ELLYN, IL, 60137",112524665,"L"
601768,"410 N PARK DR","DALTON","GA",30720,34.796645353,-84.9758290839999,268,"410 N PARK DR, DALTON, GA, 30720","Match","Exact","410 N PARK DR, DALTON, GA, 30720",57385115,"R"
601769,"410 N PEARL ST","VICKSBURG","MI",49097,NA,NA,269,"410 N PEARL ST, VICKSBURG, MI, 49097","Tie",NA,NA,NA,NA
601770,"410 N PETERSON RD","BENNETT","CO",80102,39.7202216750001,-104.508467228,270,"410 N PETERSON RD, BENNETT, CO, 80102","Match","Exact","410 N PETERSON RD, BENNETT, CO, 80102",177538355,"L"
601771,"410 N RAMUNNO DR UNIT 1907","MIDDLETOWN","DE",19709,39.455908994,-75.7294352709999,271,"410 N RAMUNNO DR UNIT 1907, MIDDLETOWN, DE, 19709","Match","Exact","410 RAMUNNO DR, MIDDLETOWN, DE, 19709",617263570,"L"
601772,"410 N RAMUNNO DR UNIT 412","MIDDLETOWN","DE",19709,39.455908994,-75.7294352709999,272,"410 N RAMUNNO DR UNIT 412, MIDDLETOWN, DE, 19709","Match","Exact","410 RAMUNNO DR, MIDDLETOWN, DE, 19709",617263570,"L"
601773,"410 N RAMUNNO DR UNIT 511","MIDDLETOWN","DE",19709,39.455908994,-75.7294352709999,273,"410 N RAMUNNO DR UNIT 511, MIDDLETOWN, DE, 19709","Match","Exact","410 RAMUNNO DR, MIDDLETOWN, DE, 19709",617263570,"L"
601774,"410 N RIVER PARK DR","GUTTENBERG","IA",52052,42.7899498570001,-91.0994112499999,274,"410 N RIVER PARK DR, GUTTENBERG, IA, 52052","Match","Exact","410 N RIVER PARK DR, GUTTENBERG, IA, 52052",48478793,"L"
601775,"410 N SHADY LANE","DOTHAN","AL",36303,31.235472354,-85.451812984,275,"410 N SHADY LANE, DOTHAN, AL, 36303","Match","Exact","410 N SHADY LN, DOTHAN, AL, 36303",101233405,"R"
601776,"410 N ST PAUL","STANTON","TX",79782,32.131257111,-101.792826377,276,"410 N ST PAUL, STANTON, TX, 79782","Match","Non_Exact","410 ST PAUL ST, STANTON, TX, 79782",139548246,"R"
601777,"410 N UNION ST","DODGEVILLE","WI",53533,42.9632143010001,-90.129049359,277,"410 N UNION ST, DODGEVILLE, WI, 53533","Match","Exact","410 N UNION ST, DODGEVILLE, WI, 53533",49795247,"L"
601778,"410 N WASHINGTON AVE","BROWNSVILLE","TN",38012,35.598712015,-89.2619805319999,278,"410 N WASHINGTON AVE, BROWNSVILLE, TN, 38012","Match","Exact","410 N WASHINGTON AVE, BROWNSVILLE, TN, 38012",614270172,"R"
601779,"410 N WHITE RD APT 2114","SAN JOSE","CA",95127,NA,NA,279,"410 N WHITE RD APT 2114, SAN JOSE, CA, 95127","Tie",NA,NA,NA,NA
601780,"410 NACE ROAD","TROUTVILLE","VA",24175,37.444267676,-79.835460971,280,"410 NACE ROAD, TROUTVILLE, VA, 24175","Match","Exact","410 NACE RD, TROUTVILLE, VA, 24175",62447874,"L"
601781,"410 NATALEN","SAN ANTONIO","TX",78209,29.4557388170001,-98.463303606,281,"410 NATALEN, SAN ANTONIO, TX, 78209","Match","Non_Exact","410 NATALEN ST, SAN ANTONIO, TX, 78209",101525230,"R"
601782,"410 NATURES WAY SW","HUNTSVILLE","AL",35824,34.6624628700001,-86.73062924,282,"410 NATURES WAY SW, HUNTSVILLE, AL, 35824","Match","Exact","410 NATURES WAY SW, HUNTSVILLE, AL, 35824",648327691,"R"
601783,"410 NAVAJO SPRINGS ROAD","DIAMOND BAR","CA",91765,NA,NA,283,"410 NAVAJO SPRINGS ROAD, DIAMOND BAR, CA, 91765","Tie",NA,NA,NA,NA
601784,"410 NE 208TH TER","MIAMI","FL",33179,NA,NA,284,"410 NE 208TH TER, MIAMI, FL, 33179","No_Match",NA,NA,NA,NA
601785,"410 NE 28TH AVE","PORTLAND","OR",97232,45.525845523,-122.637200546,285,"410 NE 28TH AVE, PORTLAND, OR, 97232","Match","Exact","410 NE 28TH AVE, PORTLAND, OR, 97232",157507392,"R"
601786,"410 NE 4TH","OAKLAND","OR",97462,43.4249398740001,-123.297953595,286,"410 NE 4TH, OAKLAND, OR, 97462","Match","Non_Exact","410 NE 4TH ST, OAKLAND, OR, 97462",137241841,"R"
601787,"410 NEBOBISH ST","BAY CITY","MI",48708,43.603728673,-83.863769239,287,"410 NEBOBISH ST, BAY CITY, MI, 48708","Match","Exact","410 NEBOBISH ST, BAY CITY, MI, 48708",81142641,"R"
601788,"410 NEW ROAD","WILLIAMSON","NY",14589,NA,NA,288,"410 NEW ROAD, WILLIAMSON, NY, 14589","No_Match",NA,NA,NA,NA
601789,"410 NEWBURY PL","ST PETERSBURG","FL",33716,27.888637606,-82.6603803089999,289,"410 NEWBURY PL, ST PETERSBURG, FL, 33716","Match","Non_Exact","410 NEWBURY PL N, SAINT PETERSBURG, FL, 33716",645830840,"R"
601790,"410 NOBLE STREET","LOVELADY","TX",75851,31.1300267010001,-95.442513654,290,"410 NOBLE STREET, LOVELADY, TX, 75851","Match","Exact","410 NOBLE ST, LOVELADY, TX, 75851",636366239,"L"
601791,"410 NORTH 12TH STREET","RICHMOND","VA",23298,37.540251584,-77.43032921,291,"410 NORTH 12TH STREET, RICHMOND, VA, 23298","Match","Exact","410 N 12TH ST, RICHMOND, VA, 23298",201540689,"L"
601792,"410 NORTH 15TH ST","WILMINGTON","NC",28401,34.241587216,-77.930788251,292,"410 NORTH 15TH ST, WILMINGTON, NC, 28401","Match","Exact","410 N 15TH ST, WILMINGTON, NC, 28401",152731081,"R"
601793,"410 NORTH 1ST NUMBER 234","SAN JOSE","CA",95112,37.34235153,-121.895168539,293,"410 NORTH 1ST NUMBER 234, SAN JOSE, CA, 95112","Match","Non_Exact","410 N 1ST ST, SAN JOSE, CA, 95112",618196397,"R"
601794,"410 NORTH 4TH AVENUE","KENESAW","NE",68956,40.623370806,-98.653649849,294,"410 NORTH 4TH AVENUE, KENESAW, NE, 68956","Match","Exact","410 N 4TH AVE, KENESAW, NE, 68956",196203316,"R"
601795,"410 NORTH 7TH STREET","COLBY","WI",54421,44.913279405,-90.324969193,295,"410 NORTH 7TH STREET, COLBY, WI, 54421","Match","Exact","410 N 7TH ST, COLBY, WI, 54421",50858442,"R"
601796,"410 NORTH A STREET","LAKE WORTH","FL",33460,26.6207026870001,-80.0649263079999,296,"410 NORTH A STREET, LAKE WORTH, FL, 33460","Match","Exact","410 N A ST, LAKE WORTH, FL, 33460",115293746,"R"
601797,"410 NORTH B STREET","FORT SMITH","AR",72901,NA,NA,297,"410 NORTH B STREET, FORT SMITH, AR, 72901","No_Match",NA,NA,NA,NA
601798,"410 NORTH JEFFERSON","MOUNT PLEASANT","TX",75455,33.1592457040001,-94.9684967319999,298,"410 NORTH JEFFERSON, MOUNT PLEASANT, TX, 75455","Match","Non_Exact","410 N JEFFERSON AVE, MOUNT PLEASANT, TX, 75455",83219921,"R"
601799,"410 NORTH LAKESIDE DRIVE","MCPHERSON","KS",67460,38.3730090670001,-97.649436671,299,"410 NORTH LAKESIDE DRIVE, MCPHERSON, KS, 67460","Match","Exact","410 N LAKESIDE DR, MCPHERSON, KS, 67460",142894774,"L"
601800,"410 NORTH LOSEY BOULEVARD","LA CROSSE","WI",54601,NA,NA,300,"410 NORTH LOSEY BOULEVARD, LA CROSSE, WI, 54601","No_Match",NA,NA,NA,NA
601801,"410 NORTH MAIN STREET","LOMBARD","IL",60148,41.895893802,-88.017995989,301,"410 NORTH MAIN STREET, LOMBARD, IL, 60148","Match","Exact","410 N MAIN ST, LOMBARD, IL, 60148",112523661,"L"
601802,"410 NORTH OLIVER AVE","FAYETTEVILLE","AR",72701,36.068973957,-94.181455262,302,"410 NORTH OLIVER AVE, FAYETTEVILLE, AR, 72701","Match","Exact","410 N OLIVER AVE, FAYETTEVILLE, AR, 72701",49045013,"R"
601803,"410 NORTH PALM COURT","BROKEN ARROW","OK",74012,36.0561463240001,-95.834816887,303,"410 NORTH PALM COURT, BROKEN ARROW, OK, 74012","Match","Exact","410 N PALM CT, BROKEN ARROW, OK, 74012",166491289,"R"
601804,"410 NORTH SAHUARA AVENUE","TUCSON","AZ",85711,32.2263305660001,-110.866544464,304,"410 NORTH SAHUARA AVENUE, TUCSON, AZ, 85711","Match","Exact","410 N SAHUARA AVE, TUCSON, AZ, 85711",121180832,"R"
601805,"410 NORTH SARGENT AVENUE APT 3","GLENDIVE","MT",59330,47.1050398460001,-104.70702372,305,"410 NORTH SARGENT AVENUE APT 3, GLENDIVE, MT, 59330","Match","Exact","410 N SARGENT AVE, GLENDIVE, MT, 59330",161614621,"R"
601806,"410 NORTH STREET","OTHO","IA",50569,42.424737823,-94.148851377,306,"410 NORTH STREET, OTHO, IA, 50569","Match","Exact","410 NORTH ST, OTHO, IA, 50569",66075862,"R"
601807,"410 NORTHWOOD ROAD","WEST PALM BEACH","FL",33407,26.7349436710001,-80.0531919269999,307,"410 NORTHWOOD ROAD, WEST PALM BEACH, FL, 33407","Match","Exact","410 NORTHWOOD RD, WEST PALM BEACH, FL, 33407",115538842,"L"
601808,"410 NORTHWOOD","WEST PALM BEACH","FL",33407,26.7349436710001,-80.0531919269999,308,"410 NORTHWOOD, WEST PALM BEACH, FL, 33407","Match","Non_Exact","410 NORTHWOOD RD, WEST PALM BEACH, FL, 33407",115538842,"L"
601809,"410 NW 14TH STREET","POMPANO BEACH","FL",33060,26.24495094,-80.128547243,309,"410 NW 14TH STREET, POMPANO BEACH, FL, 33060","Match","Exact","410 NW 14TH ST, POMPANO BEACH, FL, 33060",114769212,"L"
601810,"410 NW 16TH","LINCOLN","NE",68524,NA,NA,310,"410 NW 16TH, LINCOLN, NE, 68524","No_Match",NA,NA,NA,NA
601811,"410 O STREET SW APT 306","WASHINGTON","DC",20024,38.873417992,-77.017749425,311,"410 O STREET SW APT 306, WASHINGTON, DC, 20024","Match","Exact","410 O ST SW, WASHINGTON, DC, 20024",76227018,"L"
601812,"410 OAK AVE","URBANA","IA",42345,42.2215712300001,-91.8816926649999,312,"410 OAK AVE, URBANA, IA, 42345","Match","Non_Exact","410 OAK AVE, URBANA, IA, 52345",94721066,"L"
601813,"410 OAK CREEK BLVD","SEDONA","AZ",86336,34.8581794740001,-111.787798102,313,"410 OAK CREEK BLVD, SEDONA, AZ, 86336","Match","Exact","410 OAK CREEK BLVD, SEDONA, AZ, 86336",635507568,"R"
601814,"410 OAK ST","MERKEL","TX",79536,32.4665100770001,-100.012870462,314,"410 OAK ST, MERKEL, TX, 79536","Match","Non_Exact","410 S OAK ST, MERKEL, TX, 79536",129952972,"L"
601815,"410 OAK TRAILS","CLEVELAND","OK",74020,36.2714062060001,-96.441884223,315,"410 OAK TRAILS, CLEVELAND, OK, 74020","Match","Exact","410 OAK TRL, CLEVELAND, OK, 74020",166321276,"R"
601816,"410 OAK","MERKEL","TX",79536,NA,NA,316,"410 OAK, MERKEL, TX, 79536","No_Match",NA,NA,NA,NA
601817,"410 OAKLAND AVE","INDIALANTIC","FL",32903,28.0948763640001,-80.5752275,317,"410 OAKLAND AVE, INDIALANTIC, FL, 32903","Match","Exact","410 OAKLAND AVE, INDIALANTIC, FL, 32903",93906213,"R"
601818,"410 OAKSTONE LANE","KNOXVILLE","TN",37918,NA,NA,318,"410 OAKSTONE LANE, KNOXVILLE, TN, 37918","No_Match",NA,NA,NA,NA
601819,"410 OBSERVATORY ST","ANN ARBOR","MI",48104,42.2782885500001,-83.730990095,319,"410 OBSERVATORY ST, ANN ARBOR, MI, 48104","Match","Exact","410 OBSERVATORY ST, ANN ARBOR, MI, 48104",26015102,"R"
601820,"410 OGDEN AVE SUITE 3B","JERSEY CITY","NJ",7307,40.7474562,-74.041069522,320,"410 OGDEN AVE SUITE 3B, JERSEY CITY, NJ, 7307","Match","Exact","410 OGDEN AVE, JERSEY CITY, NJ, 07307",59605348,"R"
601821,"410 OHIO AVE NW","HURON","SD",57350,44.37086523,-98.21843893,321,"410 OHIO AVE NW, HURON, SD, 57350","Match","Exact","410 OHIO AVE NW, HURON, SD, 57350",636590727,"L"
601822,"410 OLD SMITH FARM ROAD","SPRINGFIELD","WV",26763,39.50459477,-78.688303558,322,"410 OLD SMITH FARM ROAD, SPRINGFIELD, WV, 26763","Match","Exact","410 OLD SMITH FARM RD, SPRINGFIELD, WV, 26763",601545628,"R"
601823,"410 OTTERAY AVENUE","HIGH POINT","NC",27262,35.968442893,-80.022412467,323,"410 OTTERAY AVENUE, HIGH POINT, NC, 27262","Match","Exact","410 OTTERAY AVE, HIGH POINT, NC, 27262",131038781,"R"
601824,"410 OUACHITA ST","ARKADELPHIA","AR",71998,34.124558635,-93.0524260179999,324,"410 OUACHITA ST, ARKADELPHIA, AR, 71998","Match","Exact","410 OUACHITA ST, ARKADELPHIA, AR, 71998",10550443,"R"
601825,"410 Overview Dr","ATLANTA","GA",30327,33.9051467830001,-84.421461001,325,"410 Overview Dr, ATLANTA, GA, 30327","Match","Non_Exact","410 OVERVIEW DR NW, ATLANTA, GA, 30327",17332933,"L"
601826,"410 PALISADES RD","HARRODSBURG","KY",40330,37.857477488,-84.692815039,326,"410 PALISADES RD, HARRODSBURG, KY, 40330","Match","Exact","410 PALISADES RD, HARRODSBURG, KY, 40330",32613649,"R"
601827,"410 PARK AVENUE","RYE","NY",10580,40.962650915,-73.7051752899999,327,"410 PARK AVENUE, RYE, NY, 10580","Match","Exact","410 PARK AVE, RYE, NY, 10580",139843559,"L"
601828,"410 PARK RANCH PLACE","ESCONDIDO","CA",92025,33.0834304950001,-117.062905965,328,"410 PARK RANCH PLACE, ESCONDIDO, CA, 92025","Match","Exact","410 PARK RANCH PL, ESCONDIDO, CA, 92025",195709633,"R"
601829,"410 PARKAY","INA","IL",62846,NA,NA,329,"410 PARKAY, INA, IL, 62846","No_Match",NA,NA,NA,NA
601830,"410 PARKWOOD ROAD","PITTSBURGH","PA",15210,40.4141367780001,-79.981290018,330,"410 PARKWOOD ROAD, PITTSBURGH, PA, 15210","Match","Exact","410 PARKWOOD RD, PITTSBURGH, PA, 15210",51637375,"R"
601831,"410 PARTRIDGE AVE","SILVER CITY","NM",88061,32.7437054660001,-108.272113699,331,"410 PARTRIDGE AVE, SILVER CITY, NM, 88061","Match","Exact","410 PARTRIDGE AVE, SILVER CITY, NM, 88061",192678097,"L"
601832,"410 PASSAIC AVENUE","WEST CALDWELL","NJ",7006,40.840675076,-74.302187101,332,"410 PASSAIC AVENUE, WEST CALDWELL, NJ, 7006","Match","Exact","410 PASSAIC AVE, W CALDWELL, NJ, 07006",63482230,"R"
601833,"410 PASTELL LANE","CONSHOHOCKEN","PA",19428,40.090679488,-75.295325227,333,"410 PASTELL LANE, CONSHOHOCKEN, PA, 19428","Match","Exact","410 PASTELL LN, CONSHOHOCKEN, PA, 19428",135084992,"R"
601834,"410 PATHFINDER DR","BIRDSBORO","PA",19508,40.30883879,-75.834426535,334,"410 PATHFINDER DR, BIRDSBORO, PA, 19508","Match","Exact","410 PATHFINDER DR, BIRDSBORO, PA, 19508",80409905,"R"
601835,"410 PATRICK CT","BRYAN","OH",43506,41.465355528,-84.555967188,335,"410 PATRICK CT, BRYAN, OH, 43506","Match","Exact","410 PATRICK CT, BRYAN, OH, 43506",8324637,"L"
601836,"410 PEACHTREE PKWY STE 4245","CUMMING","GA",30041,NA,NA,336,"410 PEACHTREE PKWY STE 4245, CUMMING, GA, 30041","No_Match",NA,NA,NA,NA
601837,"410 PEAR TREE LANE","PEARISBURG","VA",24134,37.1941990780001,-80.828504223,337,"410 PEAR TREE LANE, PEARISBURG, VA, 24134","Match","Exact","410 PEAR TREE LN, PEARISBURG, VA, 24134",47003742,"L"
601838,"410 PEASHWAY","SOUTH BEND","IN",46617,41.692118287,-86.2457568459999,338,"410 PEASHWAY, SOUTH BEND, IN, 46617","Match","Non_Exact","410 PEASHWAY ST, SOUTH BEND, IN, 46617",8054530,"R"
601839,"410 PENDLETON WAY SUTIE 2","OAKLAND","CA",94621,37.7360065840001,-122.200222806,339,"410 PENDLETON WAY SUTIE 2, OAKLAND, CA, 94621","Match","Exact","410 PENDLETON WAY, OAKLAND, CA, 94621",125008349,"L"
601840,"410 PENSION RIDGE ROAD","BOOTHBAY","ME",4537,43.9000924330001,-69.5976336799999,340,"410 PENSION RIDGE ROAD, BOOTHBAY, ME, 4537","Match","Exact","410 PENSION RIDGE RD, BOOTHBAY, ME, 04537",610465956,"R"
601841,"410 PERKINSWOOD NE","WARREN","OH",44483,41.2402219430001,-80.784887845,341,"410 PERKINSWOOD NE, WARREN, OH, 44483","Match","Non_Exact","410 PERKINSWOOD BLVD NE, WARREN, OH, 44483",117407521,"R"
601842,"410 PHILLIPS AVE","PORTSOUTH","VA",23707,36.831278921,-76.3332522709999,342,"410 PHILLIPS AVE, PORTSOUTH, VA, 23707","Match","Non_Exact","410 PHILLIPS AVE, PORTSMOUTH, VA, 23707",122193903,"R"
601843,"410 PICKFORD DRIVE","KATY","TX",77450,29.7769813680001,-95.76413354,343,"410 PICKFORD DRIVE, KATY, TX, 77450","Match","Exact","410 PICKFORD DR, KATY, TX, 77450",96013513,"L"
601844,"410 PIERCE STREET SUITE 220","HOUSTON","TX",77002,29.7525092070001,-95.375845649,344,"410 PIERCE STREET SUITE 220, HOUSTON, TX, 77002","Match","Exact","410 PIERCE ST, HOUSTON, TX, 77002",96067140,"R"
601845,"410 PIKE STREET SW  APT 207","WILSON","NC",27893,35.71771161,-77.938044668,345,"410 PIKE STREET SW  APT 207, WILSON, NC, 27893","Match","Exact","410 PIKE ST SW, WILSON, NC, 27893",640665348,"R"
601846,"410 PIKE STREET SW APT 207","WILSON","NC",27893,35.71771161,-77.938044668,346,"410 PIKE STREET SW APT 207, WILSON, NC, 27893","Match","Exact","410 PIKE ST SW, WILSON, NC, 27893",640665348,"R"
601847,"410 PINE ST SE STE 320","VIENNA","VA",22180,38.9066605780001,-77.256446239,347,"410 PINE ST SE STE 320, VIENNA, VA, 22180","Match","Exact","410 PINE ST SE, VIENNA, VA, 22180",76015080,"L"
601848,"410 PINEWOOD AVE","KANNAPOLIS","NC",28081,35.5201372500001,-80.65616464,348,"410 PINEWOOD AVE, KANNAPOLIS, NC, 28081","Match","Exact","410 PINEWOOD AVE, KANNAPOLIS, NC, 28081",25271837,"R"
601849,"410 PIPER","DETROIT","MI",48215,42.363338755,-82.9437312749999,349,"410 PIPER, DETROIT, MI, 48215","Match","Non_Exact","410 PIPER BLVD, DETROIT, MI, 48215",95486115,"R"
601850,"410 PITTSFIELD DRIVE","WORTHINGTON","OH",43085,40.0949674990001,-83.0088330139999,350,"410 PITTSFIELD DRIVE, WORTHINGTON, OH, 43085","Match","Exact","410 PITTSFIELD DR, WORTHINGTON, OH, 43085",218697896,"L"
601851,"410 PLANATION DRIVE","RINCON","GA",31326,32.309182213,-81.229220863,351,"410 PLANATION DRIVE, RINCON, GA, 31326","Match","Non_Exact","410 PLANTATION DR, RINCON, GA, 31326",6276361,"L"
601852,"410 PLANTATION ROAD","ROCK HILL","SC",29732,34.97424246,-81.04347039,352,"410 PLANTATION ROAD, ROCK HILL, SC, 29732","Match","Exact","410 PLANTATION RD, ROCK HILL, SC, 29732",19790606,"R"
601853,"410 PLATT AVE","RED LODGE","MT",59068,45.182834272,-109.245575717,353,"410 PLATT AVE, RED LODGE, MT, 59068","Match","Exact","410 PLATT AVE, RED LODGE, MT, 59068",180407234,"R"
601854,"410 PLEASANT AVE","ASTORIA","OR",97103,46.182143878,-123.851052872,354,"410 PLEASANT AVE, ASTORIA, OR, 97103","Match","Exact","410 PLEASANT AVE, ASTORIA, OR, 97103",642573405,"R"
601855,"410 PLUM AVE","LIVINGSTON","TX",77351,30.711026218,-94.948018932,355,"410 PLUM AVE, LIVINGSTON, TX, 77351","Match","Exact","410 PLUM AVE, LIVINGSTON, TX, 77351",23234685,"R"
601856,"410 POMELO AVE APT D","MONTEREY PARK","CA",91755,34.057854902,-118.110252153,356,"410 POMELO AVE APT D, MONTEREY PARK, CA, 91755","Match","Non_Exact","410 S POMELO AVE, MONTEREY PARK, CA, 91755",142739303,"L"
601857,"410 PONCE DELEON DR","HOT SPRINGS VILLAGE","AR",71909,34.6351751440001,-92.888851683,357,"410 PONCE DELEON DR, HOT SPRINGS VILLAGE, AR, 71909","Match","Non_Exact","410 PONCE DE LEON DR, HOT SPRINGS VILLAGE, AR, 71909",649439378,"L"
601858,"410 PONDEROSA","DREXEL","MO",64742,NA,NA,358,"410 PONDEROSA, DREXEL, MO, 64742","No_Match",NA,NA,NA,NA
601859,"410 PONTIAC","LUBBOCK","TX",79416,33.592000129,-101.962467338,359,"410 PONTIAC, LUBBOCK, TX, 79416","Match","Non_Exact","410 PONTIAC AVE, LUBBOCK, TX, 79416",185274579,"R"
601860,"410 POPPY LANE","NORMAN","OK",73069,35.248166687,-97.447683121,360,"410 POPPY LANE, NORMAN, OK, 73069","Match","Exact","410 POPPY LN, NORMAN, OK, 73069",99959273,"R"
601861,"410 PRIMROSE LANE","MONETT","MO",65708,36.932127644,-93.93385864,361,"410 PRIMROSE LANE, MONETT, MO, 65708","Match","Exact","410 PRIMROSE LN, MONETT, MO, 65708",99871959,"L"
601862,"410 PROFT PLACE","COLUMBIA HEIGHTS","MN",55421,45.039042088,-93.26079022,362,"410 PROFT PLACE, COLUMBIA HEIGHTS, MN, 55421","Match","Exact","410 PROFT PL, COLUMBIA HEIGHTS, MN, 55421",617527281,"L"
601863,"410 PROSPECT AVE","MT VERNON","NY",10553,40.914190675,-73.8234689179999,363,"410 PROSPECT AVE, MT VERNON, NY, 10553","Match","Non_Exact","410 E PROSPECT AVE, MOUNT VERNON, NY, 10553",139748783,"R"
601864,"410 PUBLIC SQ","WATERTOWN","TN",37184,36.099896367,-86.133945656,364,"410 PUBLIC SQ, WATERTOWN, TN, 37184","Match","Exact","410 PUBLIC SQ, WATERTOWN, TN, 37184",89691999,"R"
601865,"410 QUAIL RIDGE DRIVE","PLAINSBORO","NJ",8536,NA,NA,365,"410 QUAIL RIDGE DRIVE, PLAINSBORO, NJ, 8536","No_Match",NA,NA,NA,NA
601866,"410 QUAIL RIDGE LN","DICKINSON","TX",77539,29.433767124,-95.140165349,366,"410 QUAIL RIDGE LN, DICKINSON, TX, 77539","Match","Exact","410 QUAIL RIDGE LN, DICKINSON, TX, 77539",636862236,"L"
601867,"410 QUAKER HILL CT","AURORA","IL",69504,41.7585611820001,-88.220817873,367,"410 QUAKER HILL CT, AURORA, IL, 69504","Match","Non_Exact","410 QUAKER HILL CT, AURORA, IL, 60504",112590062,"R"
601868,"410 QUARRY PLACE","QUARRYVILLE","PA",17566,39.893554894,-76.171935885,368,"410 QUARRY PLACE, QUARRYVILLE, PA, 17566","Match","Exact","410 QUARRY PL, QUARRYVILLE, PA, 17566",179671488,"R"
601869,"410 QUARRY POINT ROAD","MALVERN","PA",19355,40.063558915,-75.529104062,369,"410 QUARRY POINT ROAD, MALVERN, PA, 19355","Match","Exact","410 QUARRY POINT RD, MALVERN, PA, 19355",651771429,"R"
601870,"410 RAYMOR AVE","CORONA","CA",92879,33.857363633,-117.563780515,370,"410 RAYMOR AVE, CORONA, CA, 92879","Match","Exact","410 RAYMOR AVE, CORONA, CA, 92879",194777995,"R"
601871,"410 REEDSIDE DR","FANCY GAP","VA",24328,36.6817495000001,-80.709399831,371,"410 REEDSIDE DR, FANCY GAP, VA, 24328","Match","Exact","410 REEDSIDE DR, FANCY GAP, VA, 24328",648420769,"R"
601872,"410 REVOLUTION COURT","NEWARK","DE",19702,39.6498198370001,-75.6821914349999,372,"410 REVOLUTION COURT, NEWARK, DE, 19702","Match","Exact","410 REVOLUTION CT, NEWARK, DE, 19702",187287438,"R"
601873,"410 RICHMOND HILL ROAD APT 3A","STATEN ISLAND","NY",10314,40.5826571810001,-74.1563246169999,373,"410 RICHMOND HILL ROAD APT 3A, STATEN ISLAND, NY, 10314","Match","Exact","410 RICHMOND HILL RD, STATEN ISLAND, NY, 10314",59886388,"L"
601874,"410 RIDGE DR","HOOPER","NE",68031,41.6031137140001,-96.5430228009999,374,"410 RIDGE DR, HOOPER, NE, 68031","Match","Exact","410 RIDGE DR, HOOPER, NE, 68031",136327533,"R"
601875,"410 RIDGE DR","VICTORIA","TX",77904,28.8902970730001,-97.0018384529999,375,"410 RIDGE DR, VICTORIA, TX, 77904","Match","Exact","410 RIDGE DR, VICTORIA, TX, 77904",44577609,"R"
601876,"410 RIDGE DRIVE","HOOPER","NE",68031,41.6031137140001,-96.5430228009999,376,"410 RIDGE DRIVE, HOOPER, NE, 68031","Match","Exact","410 RIDGE DR, HOOPER, NE, 68031",136327533,"R"
601877,"410 RIDGE PARK CV","RAYMOND","MS",39154,32.22092495,-90.341064516,377,"410 RIDGE PARK CV, RAYMOND, MS, 39154","Match","Exact","410 RIDGE PARK COVE, RAYMOND, MS, 39154",65381072,"R"
601878,"410 RIDGELAND RD","DOTHAN","AL",36301,31.1944741360001,-85.3399592499999,378,"410 RIDGELAND RD, DOTHAN, AL, 36301","Match","Exact","410 RIDGELAND RD, DOTHAN, AL, 36301",650753002,"R"
601879,"410 RIDGEVIEW COURT","ARNOLD","MD",21012,39.062278921,-76.502096987,379,"410 RIDGEVIEW COURT, ARNOLD, MD, 21012","Match","Exact","410 RIDGEVIEW CT, ARNOLD, MD, 21012",68170045,"L"
601880,"410 RIVER HILLS RD","RIVER FALLS","WI",54022,NA,NA,380,"410 RIVER HILLS RD, RIVER FALLS, WI, 54022","No_Match",NA,NA,NA,NA
601881,"410 RIVERSIDE AVE","AVON BY THE SEA","NJ",7717,40.1884052010001,-74.0192032969999,381,"410 RIVERSIDE AVE, AVON BY THE SEA, NJ, 7717","Match","Exact","410 RIVERSIDE AVE, AVON BY SEA, NJ, 07717",624626268,"R"
601882,"410 ROBERTS RD","GRAYLING","MI",49738,NA,NA,382,"410 ROBERTS RD, GRAYLING, MI, 49738","Tie",NA,NA,NA,NA
601883,"410 ROCKET STREET","ROCHESTER","NY",14609,43.174281319,-77.565920059,383,"410 ROCKET STREET, ROCHESTER, NY, 14609","Match","Exact","410 ROCKET ST, ROCHESTER, NY, 14609",14541993,"L"
601884,"410 ROCKRIDGE AVE","TRUSSVILLE","AL",35173,33.629746314,-86.6116240009999,384,"410 ROCKRIDGE AVE, TRUSSVILLE, AL, 35173","Match","Exact","410 ROCKRIDGE AVE, TRUSSVILLE, AL, 35173",81570749,"R"
601885,"410 ROCKVALLEY DR SW","CEDAR RAPIDS","IA",52404,41.9691688770001,-91.758692099,385,"410 ROCKVALLEY DR SW, CEDAR RAPIDS, IA, 52404","Match","Exact","410 ROCKVALLEY DR SW, CEDAR RAPIDS, IA, 52404",17037111,"L"
601886,"410 ROCKY RIDGE ROAD","DENVER","PA",17517,40.2601233170001,-76.2240725949999,386,"410 ROCKY RIDGE ROAD, DENVER, PA, 17517","Match","Exact","410 ROCKY RIDGE RD, DENVER, PA, 17517",179646230,"R"
601887,"410 ROLLING PINES LANE","DUNCAN","SC",29334,34.889580333,-82.095709584,387,"410 ROLLING PINES LANE, DUNCAN, SC, 29334","Match","Exact","410 ROLLING PINES LN, DUNCAN, SC, 29334",19499412,"R"
601888,"410 ROSEDALE COURT SUITE 190","WARRENTON","VA",20186,38.718543331,-77.7836728139999,388,"410 ROSEDALE COURT SUITE 190, WARRENTON, VA, 20186","Match","Exact","410 ROSEDALE CT, WARRENTON, VA, 20186",146270774,"R"
601889,"410 ROSEWOOD DRIVE","ST. JOSEPH","IL",61873,40.1137282610001,-88.0313075079999,389,"410 ROSEWOOD DRIVE, ST. JOSEPH, IL, 61873","Match","Exact","410 ROSEWOOD DR, SAINT JOSEPH, IL, 61873",8825871,"L"
601890,"410 ROYAL COLONNADE","ARLINGTON","TX",76011,32.7717575,-97.113931204,390,"410 ROYAL COLONNADE, ARLINGTON, TX, 76011","Match","Exact","410 ROYAL COLONNADE, ARLINGTON, TX, 76011",102097026,"R"
601891,"410 RUSKIN DRIVE APT 201","CHARLOTTESVILLE","VA",22901,38.0710435550001,-78.462976652,391,"410 RUSKIN DRIVE APT 201, CHARLOTTESVILLE, VA, 22901","Match","Exact","410 RUSKIN DR, CHARLOTTESVILLE, VA, 22901",651937986,"R"
601892,"410 RUSSELL PL","ELIZABETH","NJ",7202,40.6569725310001,-74.224813464,392,"410 RUSSELL PL, ELIZABETH, NJ, 7202","Match","Exact","410 RUSSELL PL, ELIZABETH, NJ, 07202",60578386,"R"
601893,"410 S 13TH ST","FREDONIA","KS",66736,37.5257252580001,-95.817350768,393,"410 S 13TH ST, FREDONIA, KS, 66736","Match","Exact","410 S 13TH ST, FREDONIA, KS, 66736",18490785,"R"
601894,"410 S 1ST SPACE 185","EL CAJON","CA",92019,NA,NA,394,"410 S 1ST SPACE 185, EL CAJON, CA, 92019","No_Match",NA,NA,NA,NA
601895,"410 S 20TH STREET","COLLINSVILLE","OK",74021,36.3605634410001,-95.849299284,395,"410 S 20TH STREET, COLLINSVILLE, OK, 74021","Match","Exact","410 S 20TH ST, COLLINSVILLE, OK, 74021",166487298,"L"
601896,"410 S 2ND AVE W","NEWTON","IA",50208,41.6985452820001,-93.057706438,396,"410 S 2ND AVE W, NEWTON, IA, 50208","Match","Exact","410 S 2ND AVE W, NEWTON, IA, 50208",89424846,"L"
601897,"410 S 300 E","AMERICAN FORK","UT",84003,40.3685679650001,-111.790737437,397,"410 S 300 E, AMERICAN FORK, UT, 84003","Match","Exact","410 S 300 E, AMERICAN FORK, UT, 84003",134251874,"R"
601898,"410 S 300 E","MT PLEASANT","UT",84647,39.5406737220001,-111.449573512,398,"410 S 300 E, MT PLEASANT, UT, 84647","Match","Exact","410 S 300 E, MOUNT PLEASANT, UT, 84647",133786049,"L"
601899,"410 S ALBANY AVE UNIT 2","TAMPA","FL",33606,NA,NA,399,"410 S ALBANY AVE UNIT 2, TAMPA, FL, 33606","Tie",NA,NA,NA,NA
601900,"410 S BROADWAY AVE","SYLACAUGA","AL",35150,33.1598618310001,-86.250874199,400,"410 S BROADWAY AVE, SYLACAUGA, AL, 35150","Match","Exact","410 BROADWAY AVE, SYLACAUGA, AL, 35150",66925185,"R"
601901,"410 S BROADWAY","HERINGTON","KS",67449,38.666947104,-96.9435345859999,401,"410 S BROADWAY, HERINGTON, KS, 67449","Match","Non_Exact","410 S BROADWAY ST, HERINGTON, KS, 67449",88136059,"R"
601902,"410 S COWEN STREET","GARRETT","IN",46738,41.3472107600001,-85.1368627909999,402,"410 S COWEN STREET, GARRETT, IN, 46738","Match","Exact","410 S COWEN ST, GARRETT, IN, 46738",6514206,"L"
601903,"410 S DEEPWOOD DR","RADCLIFF","KY",40160,37.832111447,-85.94821137,403,"410 S DEEPWOOD DR, RADCLIFF, KY, 40160","Match","Exact","410 S DEEPWOOD DR, RADCLIFF, KY, 40160",34616598,"R"
601904,"410 S FAIRVIEW AVE","PARK RIDGE","IL",60068,42.005783308,-87.8343379189999,404,"410 S FAIRVIEW AVE, PARK RIDGE, IL, 60068","Match","Exact","410 S FAIRVIEW AVE, PARK RIDGE, IL, 60068",111732682,"R"
601905,"410 S HOLLY STREET","HAMMOND","LA",70403,30.501819858,-90.4565722249999,405,"410 S HOLLY STREET, HAMMOND, LA, 70403","Match","Exact","410 S HOLLY ST, HAMMOND, LA, 70403",75751866,"L"
601906,"410 S LOUISIANA ST","KENNEWICK","WA",99336,46.2033259840001,-119.236377155,406,"410 S LOUISIANA ST, KENNEWICK, WA, 99336","Match","Exact","410 S LOUISIANA ST, KENNEWICK, WA, 99336",606999877,"R"
601907,"410 S M ST","LAKE WORTH","FL",33460,26.610763826,-80.053570115,407,"410 S M ST, LAKE WORTH, FL, 33460","Match","Exact","410 S M ST, LAKE WORTH, FL, 33460",115294407,"L"
601908,"410 S MAIN ST","EULESS","TX",76040,32.83284437,-97.0824461239999,408,"410 S MAIN ST, EULESS, TX, 76040","Match","Exact","410 S MAIN ST, EULESS, TX, 76040",101873047,"R"
601909,"410 S MAIN ST","WAYLAND","MI",49348,42.671361249,-85.643187456,409,"410 S MAIN ST, WAYLAND, MI, 49348","Match","Exact","410 S MAIN ST, WAYLAND, MI, 49348",11416659,"L"
601910,"410 S MAIN STREET","HOPKINSVIILE","KY",42240,36.8679723480001,-87.487215718,410,"410 S MAIN STREET, HOPKINSVIILE, KY, 42240","Match","Non_Exact","410 S MAIN ST, HOPKINSVILLE, KY, 42240",11272283,"L"
601911,"410 S MANHATTAN PLACE APT 106","LOS ANGELES","CA",90020,34.0668383340001,-118.310344397,411,"410 S MANHATTAN PLACE APT 106, LOS ANGELES, CA, 90020","Match","Non_Exact","410 S MANHATTAN PL, LOS ANGELES, CA, 90020",141603789,"L"
601912,"410 S MAPLE AVE APT 230","FALLS CHURCH","VA",22046,38.8862690390001,-77.166923432,412,"410 S MAPLE AVE APT 230, FALLS CHURCH, VA, 22046","Match","Non_Exact","410 N MAPLE AVE, FALLS CHURCH, VA, 22046",75979375,"R"
601913,"410 S MCKINLEY","ALBANY","GA",31701,31.572004706,-84.166126256,413,"410 S MCKINLEY, ALBANY, GA, 31701","Match","Non_Exact","410 S MCKINLEY ST, ALBANY, GA, 31701",84314753,"L"
601914,"410 S NORMA","WESTLAND","MI",48186,42.3055573400001,-83.418920691,414,"410 S NORMA, WESTLAND, MI, 48186","Match","Non_Exact","410 S NORMA ST, WESTLAND, MI, 48186",95412150,"R"
601915,"410 S OHIO AVE","COLUMBUS","OH",43205,39.956917655,-82.97092557,415,"410 S OHIO AVE, COLUMBUS, OH, 43205","Match","Exact","410 S OHIO AVE, COLUMBUS, OH, 43205",135580679,"L"
601916,"410 S OLTENDORF RD","STREAMWOOD","IL",60107,42.023583166,-88.174044137,416,"410 S OLTENDORF RD, STREAMWOOD, IL, 60107","Match","Exact","410 S OLTENDORF RD, STREAMWOOD, IL, 60107",112374164,"R"
601917,"410 S ORCHARD AVE","BOISE","ID",83705,43.6009697120001,-116.243489963,417,"410 S ORCHARD AVE, BOISE, ID, 83705","Match","Non_Exact","410 S ORCHARD ST, BOISE, ID, 83705",117863013,"L"
601918,"410 S ORCHARD ST STE 128","BOISE","ID",83705,NA,NA,418,"410 S ORCHARD ST STE 128, BOISE, ID, 83705","No_Match",NA,NA,NA,NA
601919,"410 S ORCHARD ST SUITE 136","BOISE","ID",83705,NA,NA,419,"410 S ORCHARD ST SUITE 136, BOISE, ID, 83705","No_Match",NA,NA,NA,NA
601920,"410 S OTTER BRANCH DRIVE","GLENDORA","NJ",8029,39.8401338,-75.060540745,420,"410 S OTTER BRANCH DRIVE, GLENDORA, NJ, 8029","Match","Exact","410 S OTTER BRANCH DR, GLENDORA, NJ, 08029",642521646,"R"
601921,"410 S PASEO LAREDO","CATHEDRAL CITY","CA",92234,33.779420294,-116.447670483,421,"410 S PASEO LAREDO, CATHEDRAL CITY, CA, 92234","Match","Non_Exact","410 PSO LAREDO S, CATHEDRAL CITY, CA, 92234",651005915,"R"
601922,"410 S PHILADEPHIA ST","AMARILLO","TX",79104,35.206240544,-101.810805801,422,"410 S PHILADEPHIA ST, AMARILLO, TX, 79104","Match","Non_Exact","410 S PHILADELPHIA ST, AMARILLO, TX, 79104",182473493,"R"
601923,"410 S PROCTOR KNOTT AVE","LEBANON","KY",40033,NA,NA,423,"410 S PROCTOR KNOTT AVE, LEBANON, KY, 40033","Tie",NA,NA,NA,NA
601924,"410 S RAMPART BLVD STE 390","LAS VEGAS","NV",89145,36.168204954,-115.287119837,424,"410 S RAMPART BLVD STE 390, LAS VEGAS, NV, 89145","Match","Non_Exact","410 S RAMPART BLVD, LAS VEGAS, NV, 89145",201903786,"L"
601925,"410 S SALLUST ST","JASONVILLE","IN",47438,39.160266929,-87.208074876,425,"410 S SALLUST ST, JASONVILLE, IN, 47438","Match","Exact","410 S SALLUST ST, JASONVILLE, IN, 47438",39300435,"R"
601926,"410 S SHAWNEE AVE-APT B","BARTLESVILLE","OK",74003,NA,NA,426,"410 S SHAWNEE AVE-APT B, BARTLESVILLE, OK, 74003","No_Match",NA,NA,NA,NA
601927,"410 S SHERMAN ST","FITZGERALD","GA",31750,31.711101716,-83.251515277,427,"410 S SHERMAN ST, FITZGERALD, GA, 31750","Match","Exact","410 S SHERMAN ST, FITZGERALD, GA, 31750",9490819,"R"
601928,"410 S SUNRISE DR","GILBERT","AZ",85233,33.342314779,-111.813318001,428,"410 S SUNRISE DR, GILBERT, AZ, 85233","Match","Exact","410 S SUNRISE DR, GILBERT, AZ, 85233",128787672,"L"
601929,"410 S WALTON WALKER BLVD  204","DALLAS","TX",75211,NA,NA,429,"410 S WALTON WALKER BLVD  204, DALLAS, TX, 75211","Tie",NA,NA,NA,NA
601930,"410 S WELLMAN ROAD","NASHVILLE","MI",49073,42.6478083910001,-85.1537599,430,"410 S WELLMAN ROAD, NASHVILLE, MI, 49073","Match","Exact","410 S WELLMAN RD, NASHVILLE, MI, 49073",10513125,"L"
601931,"410 S WEST ST","ODON","IN",47562,38.8388308400001,-86.996855964,431,"410 S WEST ST, ODON, IN, 47562","Match","Exact","410 S WEST ST, ODON, IN, 47562",32082739,"L"
601932,"410 S WOLFE STREET","BALTIMORE","MD",21231,39.2865827420001,-76.5901680219999,432,"410 S WOLFE STREET, BALTIMORE, MD, 21231","Match","Exact","410 S WOLFE ST, BALTIMORE, MD, 21231",639169629,"R"
601933,"410 SABAL PALM LN","PEARLAND","TX",77584,29.584142979,-95.375481834,433,"410 SABAL PALM LN, PEARLAND, TX, 77584","Match","Exact","410 SABAL PALM LN, PEARLAND, TX, 77584",116617090,"L"
601934,"410 SAEGER AVENUE","FORT PIERCE","FL",34982,27.3522760540001,-80.327726211,434,"410 SAEGER AVENUE, FORT PIERCE, FL, 34982","Match","Exact","410 SAEGER AVE, FORT PIERCE, FL, 34982",610750602,"R"
601935,"410 SAINT NICHOLAS AVE APT 9F","NEW YORK","NY",10027,40.8141045460001,-73.9496135809999,435,"410 SAINT NICHOLAS AVE APT 9F, NEW YORK, NY, 10027","Match","Exact","410 ST NICHOLAS AVE, NEW YORK, NY, 10027",649784933,"R"
601936,"410 SANDBURG DR","SACRAMENTO","CA",95816,38.569626597,-121.428354336,436,"410 SANDBURG DR, SACRAMENTO, CA, 95816","Match","Non_Exact","410 SANDBURG DR, SACRAMENTO, CA, 95819",133335202,"L"
601937,"410 SANTA FE","HAYS","KS",67601,38.8652030980001,-99.3283642809999,437,"410 SANTA FE, HAYS, KS, 67601","Match","Exact","410 SANTA FE, HAYS, KS, 67601",149809357,"L"
601938,"410 SCARLET STREET","NORMAN","OK",73072,35.2225591600001,-97.506933368,438,"410 SCARLET STREET, NORMAN, OK, 73072","Match","Exact","410 SCARLET ST, NORMAN, OK, 73072",99907127,"L"
601939,"410 SCHARS LANE","PITTSBURGH","PA",15237,40.535485538,-80.029478898,439,"410 SCHARS LANE, PITTSBURGH, PA, 15237","Match","Exact","410 SCHARS LN, PITTSBURGH, PA, 15237",51619991,"R"
601940,"410 SCHEAFE RD","WAPPINGERS FALLS","NY",12590,41.6192725990001,-73.930612544,440,"410 SCHEAFE RD, WAPPINGERS FALLS, NY, 12590","Match","Non_Exact","410 SHEAFE RD, WAPPINGERS FALLS, NY, 12590",4226174,"R"
601941,"410 SCHOOL ST","BELLEVILLE","WI",53508,NA,NA,441,"410 SCHOOL ST, BELLEVILLE, WI, 53508","Tie",NA,NA,NA,NA
601942,"410 SCHOOLERS POND WAY","ARNOLD","MD",21012,39.0682227030001,-76.503658886,442,"410 SCHOOLERS POND WAY, ARNOLD, MD, 21012","Match","Exact","410 SCHOOLERS POND WAY, ARNOLD, MD, 21012",68208660,"L"
601943,"410 SCOVILLE AVE","STICKNEY","IL",60402,NA,NA,443,"410 SCOVILLE AVE, STICKNEY, IL, 60402","No_Match",NA,NA,NA,NA
601944,"410 SE 3RD ST","HALLANDALE BCH","FL",33009,25.9819209520001,-80.1440562449999,444,"410 SE 3RD ST, HALLANDALE BCH, FL, 33009","Match","Exact","410 SE 3RD ST, HALLANDALE BEACH, FL, 33009",114737089,"R"
601945,"410 SE 3RD ST","HALLANDALE BEACH","FL",33009,25.9819209520001,-80.1440562449999,445,"410 SE 3RD ST, HALLANDALE BEACH, FL, 33009","Match","Exact","410 SE 3RD ST, HALLANDALE BEACH, FL, 33009",114737089,"R"
601946,"410 SE 4TH AVE","HALLANDALE","FL",33009,25.980823217,-80.144257576,446,"410 SE 4TH AVE, HALLANDALE, FL, 33009","Match","Exact","410 SE 4TH AVE, HALLANDALE, FL, 33009",114766798,"R"
601947,"410 SE BRENTWOOD DR","LEES SUMMIT","MO",64063,38.9109377120001,-94.353866591,447,"410 SE BRENTWOOD DR, LEES SUMMIT, MO, 64063","Match","Exact","410 SE BRENTWOOD DR, LEES SUMMIT, MO, 64063",91478872,"R"
601948,"410 SE OLENO PARK ROAD","HIGH SPRINGS","FL",32643,29.9156939640001,-82.5837363859999,448,"410 SE OLENO PARK ROAD, HIGH SPRINGS, FL, 32643","Match","Exact","410 SE OLENO PARK RD, HIGH SPRINGS, FL, 32643",633726194,"R"
601949,"410 SE RANGER DR","LACEY","WA",98503,47.0492462120001,-122.781379603,449,"410 SE RANGER DR, LACEY, WA, 98503","Match","Non_Exact","410 RANGER DR SE, LACEY, WA, 98503",180948066,"L"
601950,"410 SE THIRD STREET","EAGLE GROVE","IA",50533,42.6609649110001,-93.897395532,450,"410 SE THIRD STREET, EAGLE GROVE, IA, 50533","Match","Exact","410 SE 3RD ST, EAGLE GROVE, IA, 50533",90718854,"L"
601951,"410 SHELBY STREET","FRANKFORT","KY",40601,38.1920949130001,-84.876389246,451,"410 SHELBY STREET, FRANKFORT, KY, 40601","Match","Exact","410 SHELBY ST, FRANKFORT, KY, 40601",97044737,"L"
601952,"410 SHELTON AVE","GROOM","TX",79039,35.203653768,-101.100590949,452,"410 SHELTON AVE, GROOM, TX, 79039","Match","Exact","410 SHELTON AVE, GROOM, TX, 79039",182196698,"R"
601953,"410 SHERIDAN AVE","BOZEMAN","MT",59718,45.683781239,-111.085347809,453,"410 SHERIDAN AVE, BOZEMAN, MT, 59718","Match","Exact","410 SHERIDAN AVE, BOZEMAN, MT, 59718",163518921,"L"
601954,"410 SHORT AVE","SUN VALLEY","NV",89433,39.5873630630001,-119.768385724,454,"410 SHORT AVE, SUN VALLEY, NV, 89433","Match","Exact","410 SHORT AVE, SUN VALLEY, NV, 89433",107047319,"R"
601955,"410 SHORT AVE","UN VALLEY","NV",89433,39.5873630630001,-119.768385724,455,"410 SHORT AVE, UN VALLEY, NV, 89433","Match","Non_Exact","410 SHORT AVE, SUN VALLEY, NV, 89433",107047319,"R"
601956,"410 SIBLEY PARKWAY 313","MANKATO","MN",56001,44.1647812420001,-94.024768735,456,"410 SIBLEY PARKWAY 313, MANKATO, MN, 56001","Match","Exact","410 SIBLEY PKWY, MANKATO, MN, 56001",28097947,"R"
601957,"410 SIERRA WAY","CEDAR HILL","TX",75104,32.6123918270001,-96.949987549,457,"410 SIERRA WAY, CEDAR HILL, TX, 75104","Match","Exact","410 SIERRA WAY, CEDAR HILL, TX, 75104",102981588,"R"
601958,"410 SILK COURT","AKRON","OH",44319,40.970793262,-81.534561176,458,"410 SILK COURT, AKRON, OH, 44319","Match","Exact","410 SILK CT, AKRON, OH, 44319",61358045,"L"
601959,"410 SIXTH AVE","ADDISON","IL",60101,41.934553018,-88.009461119,459,"410 SIXTH AVE, ADDISON, IL, 60101","Match","Non_Exact","410 N 6TH AVE, ADDISON, IL, 60101",647491807,"L"
601960,"410 SOLOMON STREET","GREENVILLE","MS",38703,33.408334225,-91.03097508,460,"410 SOLOMON STREET, GREENVILLE, MS, 38703","Match","Non_Exact","410 N SOLOMON ST, GREENVILLE, MS, 38703",1153651,"L"
601961,"410 SOLOMON STRRET","GREENVILLE","MS",38703,NA,NA,461,"410 SOLOMON STRRET, GREENVILLE, MS, 38703","No_Match",NA,NA,NA,NA
601962,"410 SOMERSET DR","MONROE","LA",71203,32.553941066,-92.016846184,462,"410 SOMERSET DR, MONROE, LA, 71203","Match","Exact","410 SOMERSET DR, MONROE, LA, 71203",161096218,"R"
601963,"410 SORRENTO VALLEY BLVD SUITE 40","SAN DIEGO","CA",92121,NA,NA,463,"410 SORRENTO VALLEY BLVD SUITE 40, SAN DIEGO, CA, 92121","No_Match",NA,NA,NA,NA
601964,"410 SOUTH 12TH AVENUE","MAYWOOD","IL",60153,41.8835506,-87.847715631,464,"410 SOUTH 12TH AVENUE, MAYWOOD, IL, 60153","Match","Exact","410 S 12TH AVE, MAYWOOD, IL, 60153",111748356,"R"
601965,"410 SOUTH 16 STREET","WILMINGTON","NC",28401,34.2317242180001,-77.9283067059999,465,"410 SOUTH 16 STREET, WILMINGTON, NC, 28401","Match","Exact","410 S 16TH ST, WILMINGTON, NC, 28401",152731309,"R"
601966,"410 SOUTH 21ST STREET","TERRE HAUTE","IN",47803,39.462165096,-87.385911901,466,"410 SOUTH 21ST STREET, TERRE HAUTE, IN, 47803","Match","Exact","410 S 21ST ST, TERRE HAUTE, IN, 47803",606483003,"L"
601967,"410 SOUTH 7TH STREET","NEWARK","NJ",7103,40.7344774480001,-74.199954825,467,"410 SOUTH 7TH STREET, NEWARK, NJ, 7103","Match","Exact","410 S 7TH ST, NEWARK, NJ, 07103",637819808,"L"
601968,"410 SOUTH BEVERLY DRIVE","SANDUSKY","OH",44870,41.4185727820001,-82.695684044,468,"410 SOUTH BEVERLY DRIVE, SANDUSKY, OH, 44870","Match","Exact","410 S BEVERLY DR, SANDUSKY, OH, 44870",55325382,"R"
601969,"410 SOUTH BOWMAN AVENUE","HOLYOKE","CO",80734,40.582385345,-102.306353924,469,"410 SOUTH BOWMAN AVENUE, HOLYOKE, CO, 80734","Match","Exact","410 S BOWMAN AVE, HOLYOKE, CO, 80734",176791106,"L"
601970,"410 SOUTH BROADWAY","GLASGOW","KY",42141,36.9927437220001,-85.912521585,470,"410 SOUTH BROADWAY, GLASGOW, KY, 42141","Match","Exact","410 S BROADWAY, GLASGOW, KY, 42141",29508704,"R"
601971,"410 SOUTH ELM AVENUE","OWATONNA","MN",55060,NA,NA,471,"410 SOUTH ELM AVENUE, OWATONNA, MN, 55060","No_Match",NA,NA,NA,NA
601972,"410 SOUTH FIFTH STREET","LOUISVILLE","KY",40202,38.252907238,-85.75886608,472,"410 SOUTH FIFTH STREET, LOUISVILLE, KY, 40202","Match","Exact","410 S 5TH ST, LOUISVILLE, KY, 40202",96912847,"R"
601973,"410 SOUTH FLORIDA","AMARILLO","TX",79106,35.2130292510001,-101.867533784,473,"410 SOUTH FLORIDA, AMARILLO, TX, 79106","Match","Non_Exact","410 S FLORIDA ST, AMARILLO, TX, 79106",182469814,"R"
601974,"410 SOUTH GRANADOS","SOLANO BEACH","CA",92075,32.9883566240001,-117.266769493,474,"410 SOUTH GRANADOS, SOLANO BEACH, CA, 92075","Match","Non_Exact","410 S GRANADOS AVE, SOLANA BEACH, CA, 92075",195294213,"L"
601975,"410 SOUTH MAIN STREET","MEMPHIS","TN",38103,35.1355812520001,-90.058176663,475,"410 SOUTH MAIN STREET, MEMPHIS, TN, 38103","Match","Exact","410 S MAIN ST, MEMPHIS, TN, 38103",72903218,"L"
601976,"410 SOUTH RAMPART BLVD SUITE 390","LAS VEGAS","NV",89145,36.1682241410001,-115.287113898,476,"410 SOUTH RAMPART BLVD SUITE 390, LAS VEGAS, NV, 89145","Match","Exact","410 S RAMPART BLVD, LAS VEGAS, NV, 89145",201903786,"L"
601977,"410 SOUTH RAMSEY ST  APT 4","CALEDONIA","MN",55921,43.631845179,-91.4992835799999,477,"410 SOUTH RAMSEY ST  APT 4, CALEDONIA, MN, 55921","Match","Exact","410 S RAMSEY ST, CALEDONIA, MN, 55921",55817802,"L"
601978,"410 SOUTH WALNUT","APPLETON","WI",54911,44.258721091,-88.412059114,478,"410 SOUTH WALNUT, APPLETON, WI, 54911","Match","Non_Exact","410 S WALNUT ST, APPLETON, WI, 54911",74920634,"L"
601979,"410 SOUTHGATE","SACRAMENTO","CA",95815,38.6029576820001,-121.457082953,479,"410 SOUTHGATE, SACRAMENTO, CA, 95815","Match","Non_Exact","410 SOUTHGATE RD, SACRAMENTO, CA, 95815",133324790,"R"
601980,"410 SOUTHWEST 18TH STREET","FORT LAUDERDALE","FL",33315,26.09915026,-80.147112993,480,"410 SOUTHWEST 18TH STREET, FORT LAUDERDALE, FL, 33315","Match","Exact","410 SW 18TH ST, FORT LAUDERDALE, FL, 33315",114728039,"L"
601981,"410 SPRING HOLLOW DR","MIDDLETOWN","DE",19709,39.4728113240001,-75.70600207,481,"410 SPRING HOLLOW DR, MIDDLETOWN, DE, 19709","Match","Exact","410 SPRING HOLLOW DR, MIDDLETOWN, DE, 19709",633687202,"R"
601982,"410 SPRUCE DRIVE","MERCER","PA",16137,41.232564288,-80.248955616,482,"410 SPRUCE DRIVE, MERCER, PA, 16137","Match","Exact","410 SPRUCE DR, MERCER, PA, 16137",70647817,"R"
601983,"410 SPYGLASS RD","MCQUEENEY","TX",78123,29.6032095250001,-98.036726774,483,"410 SPYGLASS RD, MCQUEENEY, TX, 78123","Match","Exact","410 SPYGLASS RD, MCQUEENEY, TX, 78123",54825953,"R"
601984,"410 SPYGLASS","MCQUEENEY","TX",78213,NA,NA,484,"410 SPYGLASS, MCQUEENEY, TX, 78213","No_Match",NA,NA,NA,NA
601985,"410 ST NICHOLAS AVE APT 7B","NEW YORK","NY",10027,40.8141045460001,-73.9496135809999,485,"410 ST NICHOLAS AVE APT 7B, NEW YORK, NY, 10027","Match","Exact","410 ST NICHOLAS AVE, NEW YORK, NY, 10027",649784933,"R"
601986,"410 STABLEFORD COURT","ATHENS","GA",30607,33.9869354840001,-83.4265119889999,486,"410 STABLEFORD COURT, ATHENS, GA, 30607","Match","Exact","410 STABLEFORD CT, ATHENS, GA, 30607",614136653,"R"
601987,"410 STANLEY FALLS DRIVE","ANNA","TX",75409,33.347806227,-96.576263711,487,"410 STANLEY FALLS DRIVE, ANNA, TX, 75409","Match","Exact","410 STANLEY FALLS DR, ANNA, TX, 75409",614167706,"R"
601988,"410 STATE ST","MANTON","MI",49663,44.407365531,-85.400623469,488,"410 STATE ST, MANTON, MI, 49663","Match","Exact","410 STATE ST, MANTON, MI, 49663",146092529,"L"
601989,"410 STATE STREET","STERLING","CO",80751,40.6267259840001,-103.217036649,489,"410 STATE STREET, STERLING, CO, 80751","Match","Exact","410 STATE ST, STERLING, CO, 80751",136170855,"L"
601990,"410 STONE ROAD","ROCHESTER","NY",14616,43.2248236080001,-77.6385334509999,490,"410 STONE ROAD, ROCHESTER, NY, 14616","Match","Exact","410 STONE RD, ROCHESTER, NY, 14616",14527598,"R"
601991,"410 STONE STREET","GEORGETOWN","IL",61846,39.977834821,-87.6405240459999,491,"410 STONE STREET, GEORGETOWN, IL, 61846","Match","Exact","410 STONE ST, GEORGETOWN, IL, 61846",65987450,"L"
601992,"410 STONEHEDGE DR","GRAHAM","NC",27253,36.0614435430001,-79.3701296309999,492,"410 STONEHEDGE DR, GRAHAM, NC, 27253","Match","Exact","410 STONEHEDGE DR, GRAHAM, NC, 27253",627530396,"R"
601993,"410 STORTER AVE","EVERGLADES CITY","FL",34139,NA,NA,493,"410 STORTER AVE, EVERGLADES CITY, FL, 34139","Tie",NA,NA,NA,NA
601994,"410 SUMMIT ST","IONE","CA",95640,NA,NA,494,"410 SUMMIT ST, IONE, CA, 95640","No_Match",NA,NA,NA,NA
601995,"410 SUNNYSIDE RD","TROUT LAKE","WA",98650,45.9767127700001,-121.468657796,495,"410 SUNNYSIDE RD, TROUT LAKE, WA, 98650","Match","Exact","410 SUNNYSIDE RD, TROUT LAKE, WA, 98650",175658013,"R"
601996,"410 SUNRISE DR","TRACY","MN",56175,44.230774432,-95.608941669,496,"410 SUNRISE DR, TRACY, MN, 56175","Match","Exact","410 SUNRISE DR, TRACY, MN, 56175",38522286,"R"
601997,"410 SUNSET AVENUE","DEL RIO","TX",78840,NA,NA,497,"410 SUNSET AVENUE, DEL RIO, TX, 78840","No_Match",NA,NA,NA,NA
601998,"410 SUSSEX AVENUE","SEAFORD","DE",19973,38.640763469,-75.6318712359999,498,"410 SUSSEX AVENUE, SEAFORD, DE, 19973","Match","Exact","410 SUSSEX AVE, SEAFORD, DE, 19973",607439600,"L"
601999,"410 SW 137 ST","BURIEN","WA",98166,47.4799974200001,-122.340207292,499,"410 SW 137 ST, BURIEN, WA, 98166","Match","Exact","410 SW 137TH ST, BURIEN, WA, 98166",239773378,"R"
602000,"410 SW 29 TERRACE","FORT LAUDERDALE","FL",33312,26.116675134,-80.183750502,500,"410 SW 29 TERRACE, FORT LAUDERDALE, FL, 33312","Match","Exact","410 SW 29TH TER, FORT LAUDERDALE, FL, 33312",114710249,"L"
