"ID","Address","City","State","Zip","lat","long","id","input_address","match_indicator","match_type","matched_address","tiger_line_id","tiger_side"
513501,"3250 WILSHIRE BL","LOS ANGELES","CA",90010,34.0617817740001,-118.293044822,1,"3250 WILSHIRE BL, LOS ANGELES, CA, 90010","Match","Exact","3250 WILSHIRE BLVD, LOS ANGELES, CA, 90010",141604950,"L"
513502,"3250 WILSHIRE BLVD 1700","LOS ANGELES","CA",90010,34.0617817740001,-118.293044822,2,"3250 WILSHIRE BLVD 1700, LOS ANGELES, CA, 90010","Match","Exact","3250 WILSHIRE BLVD, LOS ANGELES, CA, 90010",141604950,"L"
513503,"3250 WILSHIRE BLVD 1705","LOS ANGELES","CA",90010,34.0617817740001,-118.293044822,3,"3250 WILSHIRE BLVD 1705, LOS ANGELES, CA, 90010","Match","Exact","3250 WILSHIRE BLVD, LOS ANGELES, CA, 90010",141604950,"L"
513504,"3250 WILSHIRE BLVD STE 900","LOS ANGELES","CA",90010,34.0617817740001,-118.293044822,4,"3250 WILSHIRE BLVD STE 900, LOS ANGELES, CA, 90010","Match","Exact","3250 WILSHIRE BLVD, LOS ANGELES, CA, 90010",141604950,"L"
513505,"3250 WILSHIRE BLVD SUITE 1500","LOS ANGELES","CA",90010,34.0617817740001,-118.293044822,5,"3250 WILSHIRE BLVD SUITE 1500, LOS ANGELES, CA, 90010","Match","Exact","3250 WILSHIRE BLVD, LOS ANGELES, CA, 90010",141604950,"L"
513506,"3250 WILSHIRE BLVD SUITE 1750J","LOS ANGELES","CA",90010,34.0617817740001,-118.293044822,6,"3250 WILSHIRE BLVD SUITE 1750J, LOS ANGELES, CA, 90010","Match","Exact","3250 WILSHIRE BLVD, LOS ANGELES, CA, 90010",141604950,"L"
513507,"3250 WILSHIRE BOULEVARD","LOS ANGELES","CA",90010,34.0617817740001,-118.293044822,7,"3250 WILSHIRE BOULEVARD, LOS ANGELES, CA, 90010","Match","Exact","3250 WILSHIRE BLVD, LOS ANGELES, CA, 90010",141604950,"L"
513508,"32500 AGUA DULCE CANYON ROAD","SANTA CLARITA","CA",91390,34.4806790580001,-118.33067706,8,"32500 AGUA DULCE CANYON ROAD, SANTA CLARITA, CA, 91390","Match","Exact","32500 AGUA DULCE CANYON RD, SANTA CLARITA, CA, 91390",241247953,"R"
513509,"32500 CHARDON ROAD","WILLOUGHBY HILLS","OH",44094,41.5839613800001,-81.450799547,9,"32500 CHARDON ROAD, WILLOUGHBY HILLS, OH, 44094","Match","Exact","32500 CHARDON RD, WILLOUGHBY HILLS, OH, 44094",647709095,"R"
513510,"32500 EL DIENTE COURT","EVERGREEN","CO",80439,39.6874848420001,-105.369734305,10,"32500 EL DIENTE COURT, EVERGREEN, CO, 80439","Match","Exact","32500 EL DIENTE CT, EVERGREEN, CO, 80439",177732196,"L"
513511,"32500 MONROE COURT APT 207","SOLON","OH",44139,41.3607766920001,-81.4465118159999,11,"32500 MONROE COURT APT 207, SOLON, OH, 44139","Match","Exact","32500 MONROE CT, SOLON, OH, 44139",638456581,"R"
513512,"32500 PINE TREE LANE","WALLER","TX",77494,30.2376114480001,-95.9309692589999,12,"32500 PINE TREE LANE, WALLER, TX, 77494","Match","Non_Exact","32500 PINE TREE LN, WALLER, TX, 77484",629678979,"R"
513513,"32500 SCENIC LANE","FRANKLIN","MI",48025,42.524193444,-83.316515284,13,"32500 SCENIC LANE, FRANKLIN, MI, 48025","Match","Exact","32500 SCENIC LN, FRANKLIN, MI, 48025",69727811,"R"
513514,"32500 TELEGRAPH SUITE 222","BINGHAM FARMS","MI",48025,NA,NA,14,"32500 TELEGRAPH SUITE 222, BINGHAM FARMS, MI, 48025","No_Match",NA,NA,NA,NA
513515,"32501 J ROAD","HOTCHKISS","CO",81419,38.785017274,-107.753382888,15,"32501 J ROAD, HOTCHKISS, CO, 81419","Match","Exact","32501 J RD, HOTCHKISS, CO, 81419",647355184,"R"
513516,"32501 MCDONNELL LANE","FORT BRAGG","CA",95437,39.3872055640001,-123.80161629,16,"32501 MCDONNELL LANE, FORT BRAGG, CA, 95437","Match","Exact","32501 MCDONNELL LN, FORT BRAGG, CA, 95437",627878554,"R"
513517,"32503 SEACLIFF DR","RANCHO PALOS VERDES","CA",90275,33.732203332,-118.344453221,17,"32503 SEACLIFF DR, RANCHO PALOS VERDES, CA, 90275","Match","Exact","32503 SEACLIFF DR, RANCHO PALOS VERDES, CA, 90275",141688100,"L"
513518,"32504 181ST AVE SE","AUBURN","WA",98902,47.3101980540001,-122.098874439,18,"32504 181ST AVE SE, AUBURN, WA, 98902","Match","Non_Exact","32504 181ST AVE SE, AUBURN, WA, 98092",186643696,"R"
513519,"32504 E 171ST ST S","COWETA","OK",74429,35.91548942,-95.613948888,19,"32504 E 171ST ST S, COWETA, OK, 74429","Match","Exact","32504 E 171ST ST S, COWETA, OK, 74429",606232456,"L"
513520,"32504 N 56TH PL","CAVE CREEK","AZ",85331,33.7800314940001,-111.959426827,20,"32504 N 56TH PL, CAVE CREEK, AZ, 85331","Match","Exact","32504 N 56TH PL, CAVE CREEK, AZ, 85331",243974992,"L"
513521,"32505 138TH PL SE","AUBURN","WA",98092,47.310054232,-122.160120123,21,"32505 138TH PL SE, AUBURN, WA, 98092","Match","Exact","32505 138TH PL SE, AUBURN, WA, 98092",633784596,"R"
513522,"32505 CR 20","STEAMBOAT SPRINGS","CO",80487,40.384169054,-106.816635824,22,"32505 CR 20, STEAMBOAT SPRINGS, CO, 80487","Match","Exact","32505 CO RD 20, STEAMBOAT SPRINGS, CO, 80487",608262127,"R"
513523,"32509 STATE HWY 11","ROSEAU","MN",56751,48.8366963060001,-95.9099927409999,23,"32509 STATE HWY 11, ROSEAU, MN, 56751","Match","Exact","32509 STATE HWY 11, ROSEAU, MN, 56751",635610898,"L"
513524,"3251 3RD AVE N NUMBER 125","ST PETERSBURG","FL",NA,27.774655523,-82.676448759,24,"3251 3RD AVE N NUMBER 125, ST PETERSBURG, FL, ","Match","Exact","3251 3RD AVE N, SAINT PETERSBURG, FL, 33713",124705448,"R"
513525,"3251 3RD AVE NUMBER 125","ST PETERSBURG","FL",33713,27.774655523,-82.676448759,25,"3251 3RD AVE NUMBER 125, ST PETERSBURG, FL, 33713","Match","Non_Exact","3251 3RD AVE N, SAINT PETERSBURG, FL, 33713",124705448,"R"
513526,"3251 3RD AVENUE N STE 125","ST PETERSBURG","FL",33713,27.774655523,-82.676448759,26,"3251 3RD AVENUE N STE 125, ST PETERSBURG, FL, 33713","Match","Exact","3251 3RD AVE N, SAINT PETERSBURG, FL, 33713",124705448,"R"
513527,"3251 AUSTINS COLONY PKWY","BRYAN","TX",77808,30.681325341,-96.336604125,27,"3251 AUSTINS COLONY PKWY, BRYAN, TX, 77808","Match","Exact","3251 AUSTINS COLONY PKWY, BRYAN, TX, 77808",21835000,"L"
513528,"3251 BIG BEAR ROAD","STRATFORD","IA",50249,42.33554725,-93.914064963,28,"3251 BIG BEAR ROAD, STRATFORD, IA, 50249","Match","Exact","3251 BIG BEAR RD, STRATFORD, IA, 50249",65746241,"L"
513529,"3251 BOWLING GREEN CT","CINCINNATI","OH",45225,39.14284331,-84.552957724,29,"3251 BOWLING GREEN CT, CINCINNATI, OH, 45225","Match","Exact","3251 BOWLING GREEN CT, CINCINNATI, OH, 45225",103922182,"L"
513530,"3251 BOY WOOD ROAD","GRAHAM","NC",27253,36.0067178690001,-79.3758094679999,30,"3251 BOY WOOD ROAD, GRAHAM, NC, 27253","Match","Exact","3251 BOY WOOD RD, GRAHAM, NC, 27253",71666615,"L"
513531,"3251 BRIARWOOD BLVD","EAST POINT","GA",30344,33.6668703650001,-84.4847370209999,31,"3251 BRIARWOOD BLVD, EAST POINT, GA, 30344","Match","Exact","3251 BRIARWOOD BLVD, EAST POINT, GA, 30344",17338565,"R"
513532,"3251 BRITTON ROAD","PERRY","MI",48872,42.834039519,-84.2232474469999,32,"3251 BRITTON ROAD, PERRY, MI, 48872","Match","Exact","3251 BRITTON RD, PERRY, MI, 48872",640410809,"R"
513533,"3251 BUTTERNUT DRIVE","HAMPTON","VA",23666,37.0335582800001,-76.419317059,33,"3251 BUTTERNUT DRIVE, HAMPTON, VA, 23666","Match","Exact","3251 BUTTERNUT DR, HAMPTON, VA, 23666",103755584,"L"
513534,"3251 CHANDON WAY","HIGHLANDS RANCH","CO",80126,39.5173427490001,-104.948062612,34,"3251 CHANDON WAY, HIGHLANDS RANCH, CO, 80126","Match","Exact","3251 CHANDON WAY, HIGHLANDS RANCH, CO, 80126",130841035,"L"
513535,"3251 CORTE MALPASO STE 501B/C","CAMARILLO","CA",93012,NA,NA,35,"3251 CORTE MALPASO STE 501B/C, CAMARILLO, CA, 93012","No_Match",NA,NA,NA,NA
513536,"3251 CORTE VALENCIA","FAIRFIELD","CA",94534,38.290108677,-122.071776295,36,"3251 CORTE VALENCIA, FAIRFIELD, CA, 94534","Match","Exact","3251 CORTE VALENCIA, FAIRFIELD, CA, 94534",192566582,"L"
513537,"3251 CRISWELL","LANCASTER","TX",75134,NA,NA,37,"3251 CRISWELL, LANCASTER, TX, 75134","No_Match",NA,NA,NA,NA
513538,"3251 CROOKED OAK DR","LENOIR CITY","TN",37771,35.800068896,-84.306275681,38,"3251 CROOKED OAK DR, LENOIR CITY, TN, 37771","Match","Exact","3251 CROOKED OAK DR, LENOIR CITY, TN, 37771",99974912,"R"
513539,"3251 CROSS KEYS RD","COLUMBUS","OH",43232,39.906583535,-82.908527206,39,"3251 CROSS KEYS RD, COLUMBUS, OH, 43232","Match","Exact","3251 CROSS KEYS RD, COLUMBUS, OH, 43232",218643760,"R"
513540,"3251 DOUGLAS HWY","JUNEAU","AK",99801,58.2947567200001,-134.430250318,40,"3251 DOUGLAS HWY, JUNEAU, AK, 99801","Match","Exact","3251 DOUGLAS HWY, JUNEAU, AK, 99801",190966358,"R"
513541,"3251 E BONANZA ROAD","GILBERT","AZ",85297,33.288439236,-111.718981022,41,"3251 E BONANZA ROAD, GILBERT, AZ, 85297","Match","Exact","3251 E BONANZA RD, GILBERT, AZ, 85297",128817288,"R"
513542,"3251 FOREST","KANSAS CITY","MO",64109,39.0677160600001,-94.5702220969999,42,"3251 FOREST, KANSAS CITY, MO, 64109","Match","Non_Exact","3251 FOREST AVE, KANSAS CITY, MO, 64109",91446457,"L"
513543,"3251 GLENGREEN DRIVE","LANCASTER","PA",17601,40.049008192,-76.411952519,43,"3251 GLENGREEN DRIVE, LANCASTER, PA, 17601","Match","Exact","3251 GLENGREEN DR, LANCASTER, PA, 17601",179680052,"L"
513544,"3251 GRANDVIEW RD","ELLWOOD CITY","PA",16117,40.8656321930001,-80.213837887,44,"3251 GRANDVIEW RD, ELLWOOD CITY, PA, 16117","Match","Exact","3251 GRANDVIEW RD, ELLWOOD CITY, PA, 16117",65188157,"L"
513545,"3251 HAMILTON LANE","GARNET VALLEY","PA",19060,39.850124269,-75.489383877,45,"3251 HAMILTON LANE, GARNET VALLEY, PA, 19060","Match","Exact","3251 HAMILTON LN, GARNET VALLEY, PA, 19060",605202588,"R"
513546,"3251 HARRISON WOODS LANE","TERRE HAUTE","IN",47805,39.503069259,-87.331138036,46,"3251 HARRISON WOODS LANE, TERRE HAUTE, IN, 47805","Match","Non_Exact","3251 HARRISON WOODS RD, TERRE HAUTE, IN, 47805",617334918,"L"
513547,"3251 HEBRON RD","HENDERSONVILLE","NC",28739,35.305739784,-82.5359438519999,47,"3251 HEBRON RD, HENDERSONVILLE, NC, 28739","Match","Exact","3251 HEBRON RD, HENDERSONVILLE, NC, 28739",152307288,"L"
513548,"3251 HIGH SEA DRIVE","GREENBACKVILLE","VA",23356,37.989486314,-75.425228572,48,"3251 HIGH SEA DRIVE, GREENBACKVILLE, VA, 23356","Match","Exact","3251 HIGH SEA DR, GREENBACKVILLE, VA, 23356",114572167,"R"
513549,"3251 HOLYDALE AVE","LOS ANGELES","CA",90039,34.1114953640001,-118.258597437,49,"3251 HOLYDALE AVE, LOS ANGELES, CA, 90039","Match","Non_Exact","3251 HOLLYDALE DR, LOS ANGELES, CA, 90039",141610692,"R"
513550,"3251 HOSMER RD","GASPORT","NY",14067,43.2501744900001,-78.60591313,50,"3251 HOSMER RD, GASPORT, NY, 14067","Match","Exact","3251 HOSMER RD, GASPORT, NY, 14067",48695589,"R"
513551,"3251 HWY 95","CAMBRIDGE","ID",83610,44.5675675740001,-116.568374011,51,"3251 HWY 95, CAMBRIDGE, ID, 83610","Match","Non_Exact","3251 US HWY 95, CAMBRIDGE, ID, 83610",138423632,"R"
513552,"3251 KISMAN RD","CLEVELAND","OH",44105,NA,NA,52,"3251 KISMAN RD, CLEVELAND, OH, 44105","No_Match",NA,NA,NA,NA
513553,"3251 LAUREL STREET","ANCHORAGE","AK",99507,NA,NA,53,"3251 LAUREL STREET, ANCHORAGE, AK, 99507","No_Match",NA,NA,NA,NA
513554,"3251 LOUISIANA AVE S MINNEAPOLIS","MINNEAPOLIS","MN",55426,44.9446003730001,-93.370811854,54,"3251 LOUISIANA AVE S MINNEAPOLIS, MINNEAPOLIS, MN, 55426","Match","Exact","3251 LOUISIANA AVE S, MINNEAPOLIS, MN, 55426",653421400,"L"
513555,"3251 MATLOCK RD","MANFIELD","TX",76063,NA,NA,55,"3251 MATLOCK RD, MANFIELD, TX, 76063","No_Match",NA,NA,NA,NA
513556,"3251 MATLOCK ROAD 141103","MANSFIELD","TX",76063,NA,NA,56,"3251 MATLOCK ROAD 141103, MANSFIELD, TX, 76063","No_Match",NA,NA,NA,NA
513557,"3251 NE 180TH AVE","WILLISTON","FL",39686,29.3795978850001,-82.4725331389999,57,"3251 NE 180TH AVE, WILLISTON, FL, 39686","Match","Non_Exact","3251 NE 180TH AVE, WILLISTON, FL, 32696",612201323,"R"
513558,"3251 NW 173RD TERRACE","MIAMI GARDENS","FL",33056,25.931866561,-80.2545189749999,58,"3251 NW 173RD TERRACE, MIAMI GARDENS, FL, 33056","Match","Exact","3251 NW 173RD TER, MIAMI GARDENS, FL, 33056",116028068,"R"
513559,"3251 NW 198TH STREET","MIAMI GARDENS","FL",33056,25.954693462,-80.255472955,59,"3251 NW 198TH STREET, MIAMI GARDENS, FL, 33056","Match","Exact","3251 NW 198TH ST, MIAMI GARDENS, FL, 33056",116027522,"R"
513560,"3251 OLD BARN ROAD","PONTE VEDRA BEACH","FL",32082,30.181963662,-81.369016791,60,"3251 OLD BARN ROAD, PONTE VEDRA BEACH, FL, 32082","Match","Exact","3251 OLD BARN RD, PONTE VEDRA BEACH, FL, 32082",92602576,"L"
513561,"3251 OREANA DRIVE","CARSON CITY","NV",89701,39.138327991,-119.751271757,61,"3251 OREANA DRIVE, CARSON CITY, NV, 89701","Match","Exact","3251 OREANA DR, CARSON CITY, NV, 89701",199526880,"R"
513562,"3251 POPLAR RIDGE DR","REX","GA",30294,33.5673939820001,-84.283654731,62,"3251 POPLAR RIDGE DR, REX, GA, 30294","Match","Non_Exact","3251 POPLAR RIDGE DR, REX, GA, 30273",23326298,"R"
513563,"3251 PORT CLINTON RD","FREMONT","OH",43420,41.3960193720001,-83.108607681,63,"3251 PORT CLINTON RD, FREMONT, OH, 43420","Match","Exact","3251 PORT CLINTON RD, FREMONT, OH, 43420",38667114,"R"
513564,"3251 PRUNERIDGE AVE","SANTA CLARA","CA",95051,37.330488937,-121.987022707,64,"3251 PRUNERIDGE AVE, SANTA CLARA, CA, 95051","Match","Exact","3251 PRUNERIDGE AVE, SANTA CLARA, CA, 95051",650441527,"R"
513565,"3251 RIVERWOOD WAY","CASTLE ROCK","CO",NA,39.396422366,-104.88275584,65,"3251 RIVERWOOD WAY, CASTLE ROCK, CO, ","Match","Exact","3251 RIVERWOOD WAY, CASTLE ROCK, CO, 80109",649061826,"L"
513566,"3251 ROYAL AVE APT 2A","OCEANSIDE","NY",11572,40.6313665710001,-73.65431258,66,"3251 ROYAL AVE APT 2A, OCEANSIDE, NY, 11572","Match","Exact","3251 ROYAL AVE, OCEANSIDE, NY, 11572",147680530,"L"
513567,"3251 S CLAY STREET","GREEN BAY","WI",54301,44.4635510050001,-88.034672717,67,"3251 S CLAY STREET, GREEN BAY, WI, 54301","Match","Exact","3251 S CLAY ST, GREEN BAY, WI, 54301",148101896,"L"
513568,"3251 S KRAMERIA ST","DENVER","CO",80222,39.6592958300001,-104.917191006,68,"3251 S KRAMERIA ST, DENVER, CO, 80222","Match","Exact","3251 S KRAMERIA ST, DENVER, CO, 80222",177341771,"R"
513569,"3251 S STEWART AVE UNIT D","CHICAGO","IL",60616,41.8354185150001,-87.635900328,69,"3251 S STEWART AVE UNIT D, CHICAGO, IL, 60616","Match","Non_Exact","3251 S STEWART AVE, CHICAGO, IL, 60616",111828718,"L"
513570,"3251 SCHANROCK RD","MERIDIAN","MS",39301,32.3293000130001,-88.658450814,70,"3251 SCHANROCK RD, MERIDIAN, MS, 39301","Match","Exact","3251 SCHANROCK RD, MERIDIAN, MS, 39301",196462,"R"
513571,"3251 SHADY WILLOW DR","ORLANDO","FL",32808,28.5842018020001,-81.445744051,71,"3251 SHADY WILLOW DR, ORLANDO, FL, 32808","Match","Exact","3251 SHADY WILLOW DR, ORLANDO, FL, 32808",94270272,"R"
513572,"3251 SOUTH CARMAN AVENUE","SPRINGFIELD","IL",62703,39.7566734160001,-89.658185808,72,"3251 SOUTH CARMAN AVENUE, SPRINGFIELD, IL, 62703","Match","Non_Exact","3251 CARMAN AVE, SPRINGFIELD, IL, 62703",97324306,"R"
513573,"3251 SOUTH PINE BARREN ROAD","MC DAVID","FL",32568,30.8264615370001,-87.352670325,73,"3251 SOUTH PINE BARREN ROAD, MC DAVID, FL, 32568","Match","Exact","3251 S PINE BARREN RD, MC DAVID, FL, 32568",93277210,"L"
513574,"3251 SW 53 AVENUE","FT LAUDERDALE","FL",33312,26.0572211050001,-80.187963754,74,"3251 SW 53 AVENUE, FT LAUDERDALE, FL, 33312","Match","Non_Exact","3251 SW 53RD ST, FORT LAUDERDALE, FL, 33312",114791073,"R"
513575,"3251 SW 67 AVE","MIAMI","FL",33155,25.7397206530001,-80.303165303,75,"3251 SW 67 AVE, MIAMI, FL, 33155","Match","Exact","3251 SW 67TH AVE, MIAMI, FL, 33155",115977588,"L"
513576,"3251 TRAFALGAR LN","WOODBRIDGE","VA",22192,38.6651742400001,-77.309845051,76,"3251 TRAFALGAR LN, WOODBRIDGE, VA, 22192","Match","Exact","3251 TRAFALGAR LN, WOODBRIDGE, VA, 22192",76510660,"R"
513577,"3251 TRENT ROAD","ORIENTAL","NC",28571,35.0857934740001,-76.669573293,77,"3251 TRENT ROAD, ORIENTAL, NC, 28571","Match","Exact","3251 TRENT RD, ORIENTAL, NC, 28571",67922603,"R"
513578,"3251 W 53RD AVE","DENVER","CO",80221,39.7929385150001,-105.029372384,78,"3251 W 53RD AVE, DENVER, CO, 80221","Match","Exact","3251 W 53RD AVE, DENVER, CO, 80221",177298970,"R"
513579,"3251 W 6TH ST STE 342","LOS ANGELES","CA",90020,34.0636103190001,-118.29300786,79,"3251 W 6TH ST STE 342, LOS ANGELES, CA, 90020","Match","Non_Exact","3251 W 6TH ST, LOS ANGELES, CA, 90020",141604949,"R"
513580,"3251 W 6TH STREET STE 351","LOS ANGELES","CA",90020,34.0636103190001,-118.29300786,80,"3251 W 6TH STREET STE 351, LOS ANGELES, CA, 90020","Match","Non_Exact","3251 W 6TH ST, LOS ANGELES, CA, 90020",141604949,"R"
513581,"3251 W CORNISH CIR","SOUTH JORDAN","UT",84095,40.557315788,-111.968547773,81,"3251 W CORNISH CIR, SOUTH JORDAN, UT, 84095","Match","Exact","3251 CORNISH CIR, SOUTH JORDAN, UT, 84095",176154521,"L"
513582,"3251 WALL BLVD APT 904","GRETNA","LA",70056,NA,NA,82,"3251 WALL BLVD APT 904, GRETNA, LA, 70056","No_Match",NA,NA,NA,NA
513583,"3251 WALL BLVD APT1806","GRETNA","LA",70056,NA,NA,83,"3251 WALL BLVD APT1806, GRETNA, LA, 70056","No_Match",NA,NA,NA,NA
513584,"3251 WALL BLVD SUITE 105","GRETNA","LA",70056,NA,NA,84,"3251 WALL BLVD SUITE 105, GRETNA, LA, 70056","No_Match",NA,NA,NA,NA
513585,"3251 WALL BLVD","GRETNA","LA",70056,NA,NA,85,"3251 WALL BLVD, GRETNA, LA, 70056","No_Match",NA,NA,NA,NA
513586,"3251 WANDERING OAKS","ORANGE PARK","FL",32065,30.1729338170001,-81.814776708,86,"3251 WANDERING OAKS, ORANGE PARK, FL, 32065","Match","Non_Exact","3251 WANDERING OAKS DR, ORANGE PARK, FL, 32065",83836091,"R"
513587,"3251 WOODLAWN DR","GROVES","TX",77619,29.9298486050001,-93.9193847,87,"3251 WOODLAWN DR, GROVES, TX, 77619","Match","Exact","3251 WOODLAWN DR, GROVES, TX, 77619",73874073,"L"
513588,"32510 DAHLIA LANE","WILDOMAR","CA",92595,33.6006366290001,-117.269333155,88,"32510 DAHLIA LANE, WILDOMAR, CA, 92595","Match","Exact","32510 DAHLIA LN, WILDOMAR, CA, 92595",608997073,"R"
513589,"32510 TALL OAKS WAY","MAGNOLIA","TX",77354,30.215920087,-95.667046362,89,"32510 TALL OAKS WAY, MAGNOLIA, TX, 77354","Match","Exact","32510 TALL OAKS WAY, MAGNOLIA, TX, 77354",635761003,"R"
513590,"32511 CLAY BANK RD","ERHARD","MN",56534,NA,NA,90,"32511 CLAY BANK RD, ERHARD, MN, 56534","No_Match",NA,NA,NA,NA
513591,"32511 WHITBURN TRAIL","FULSHEAR","TX",77441,29.6663120640001,-95.9290001209999,91,"32511 WHITBURN TRAIL, FULSHEAR, TX, 77441","Match","Exact","32511 WHITBURN TRL, FULSHEAR, TX, 77441",78320312,"L"
513592,"32515 HIGHWAY 31","CALERA","AL",35040,33.064790068,-86.752632367,92,"32515 HIGHWAY 31, CALERA, AL, 35040","Match","Non_Exact","32515 US HWY 31, CALERA, AL, 35040",652224402,"L"
513593,"32517 LAPLANT ROAD","GRAND RAPIDS","MN",55744,47.1528634140001,-93.543796484,93,"32517 LAPLANT ROAD, GRAND RAPIDS, MN, 55744","Match","Exact","32517 LAPLANT RD, GRAND RAPIDS, MN, 55744",648210952,"L"
513594,"32517 SE 3RD ST","CARNATION","WA",98014,47.6057129260001,-121.905453427,94,"32517 SE 3RD ST, CARNATION, WA, 98014","Match","Exact","32517 SE 3RD ST, CARNATION, WA, 98014",186620417,"R"
513595,"32519 DIAGONAL ROAD","HERMISTON","OR",97838,45.862634331,-119.228072175,95,"32519 DIAGONAL ROAD, HERMISTON, OR, 97838","Match","Exact","32519 DIAGONAL RD, HERMISTON, OR, 97838",170435627,"L"
513596,"32519 SEACLIFF DRIVE","RANCHO PALOS VERDES","CA",90275,33.7321390720001,-118.344273829,96,"32519 SEACLIFF DRIVE, RANCHO PALOS VERDES, CA, 90275","Match","Exact","32519 SEACLIFF DR, RANCHO PALOS VERDES, CA, 90275",141688100,"L"
513597,"3252 ALAMEDA","CORPUS CHRISTI","TX",78411,NA,NA,97,"3252 ALAMEDA, CORPUS CHRISTI, TX, 78411","No_Match",NA,NA,NA,NA
513598,"3252 ALBANS DRIVE","LOS ALAMITOS","CA",90720,NA,NA,98,"3252 ALBANS DRIVE, LOS ALAMITOS, CA, 90720","No_Match",NA,NA,NA,NA
513599,"3252 ANNRAE STREET","SAN DIEGO","CA",92123,32.8031735340001,-117.153628393,99,"3252 ANNRAE STREET, SAN DIEGO, CA, 92123","Match","Exact","3252 ANNRAE ST, SAN DIEGO, CA, 92123",195306445,"L"
513600,"3252 APPLETON DRIVE","TALLAHASSEE","FL",32311,30.3948373530001,-84.2115637969999,100,"3252 APPLETON DRIVE, TALLAHASSEE, FL, 32311","Match","Exact","3252 APPLETON DR, TALLAHASSEE, FL, 32311",82902970,"L"
513601,"3252 ARABIAN ROAD","HELENA","MT",59602,46.7133697100001,-111.922000455,101,"3252 ARABIAN ROAD, HELENA, MT, 59602","Match","Exact","3252 ARABIAN RD, HELENA, MT, 59602",617979454,"L"
513602,"3252 BIDLINGTON DRIVE","COLUMBUS","OH",43224,40.0356348440001,-82.9454988429999,102,"3252 BIDLINGTON DRIVE, COLUMBUS, OH, 43224","Match","Exact","3252 BIDLINGTON DR, COLUMBUS, OH, 43224",642841935,"L"
513603,"3252 BILL WATERS ROAD","MONTEREY","TN",38574,36.160312956,-85.226110593,103,"3252 BILL WATERS ROAD, MONTEREY, TN, 38574","Match","Exact","3252 BILL WATERS RD, MONTEREY, TN, 38574",25157840,"L"
513604,"3252 BRIAROAK DRIVE","DULUTH","GA",30096,33.955147362,-84.1148471989999,104,"3252 BRIAROAK DRIVE, DULUTH, GA, 30096","Match","Exact","3252 BRIAROAK DR, DULUTH, GA, 30096",636090244,"L"
513605,"3252 CALHOUN RD NE","ROME","GA",30161,34.3098944340001,-85.099881636,105,"3252 CALHOUN RD NE, ROME, GA, 30161","Match","Exact","3252 CALHOUN RD NE, ROME, GA, 30161",30698129,"R"
513606,"3252 CASTANEDA DRIVE","CLIFTON","CO",81520,39.093719456,-108.449609937,106,"3252 CASTANEDA DRIVE, CLIFTON, CO, 81520","Match","Exact","3252 CASTANEDA DR, CLIFTON, CO, 81520",122436392,"L"
513607,"3252 CHATWIN AVE","LONG BEACH","CA",90808,33.8163581480001,-118.123225727,107,"3252 CHATWIN AVE, LONG BEACH, CA, 90808","Match","Non_Exact","3252 N CHATWIN AVE, LONG BEACH, CA, 90808",141742378,"R"
513608,"3252 CLEVELAND AVENUE NO 8","COLUMBUS","OH",43224,40.034507322,-82.9634702279999,108,"3252 CLEVELAND AVENUE NO 8, COLUMBUS, OH, 43224","Match","Non_Exact","3252 CLEVELAND AVE, COLUMBUS, OH, 43224",637222832,"L"
513609,"3252 COLLEGE BLVD","LYNN HAVEN","FL",32444,30.2395754660001,-85.6133361509999,109,"3252 COLLEGE BLVD, LYNN HAVEN, FL, 32444","Match","Exact","3252 COLLEGE BLVD, LYNN HAVEN, FL, 32444",7091130,"R"
513610,"3252 COLLEGE STREET","JACKSONVILLE","FL",32205,30.313991146,-81.710640532,110,"3252 COLLEGE STREET, JACKSONVILLE, FL, 32205","Match","Non_Exact","3252 COLLEGE PL, JACKSONVILLE, FL, 32205",83894347,"L"
513611,"3252 COPLEY AVE","SAN DIEGO","CA",92116,32.7672693280001,-117.123925706,111,"3252 COPLEY AVE, SAN DIEGO, CA, 92116","Match","Exact","3252 COPLEY AVE, SAN DIEGO, CA, 92116",195769360,"L"
513612,"3252 E 130TH","CLEVELAND","OH",44120,41.4700756720001,-81.591879214,112,"3252 E 130TH, CLEVELAND, OH, 44120","Match","Non_Exact","3252 E 130TH ST, CLEVELAND, OH, 44120",61126483,"R"
513613,"3252 EDGEMONT STREET","PHILADELPHIA","PA",19134,39.9851668040001,-75.1006311209999,113,"3252 EDGEMONT STREET, PHILADELPHIA, PA, 19134","Match","Exact","3252 EDGEMONT ST, PHILADELPHIA, PA, 19134",131429951,"L"
513614,"3252 FOREST HILL DRIVE","BELDEN","MS",38826,34.284647927,-88.7595674469999,114,"3252 FOREST HILL DRIVE, BELDEN, MS, 38826","Match","Non_Exact","3252 FORREST HILL DR, BELDEN, MS, 38826",617588532,"L"
513615,"3252 FOXCROFT RD UNIT 308","MIRAMAR","FL",33025,25.9794070520001,-80.2650030359999,115,"3252 FOXCROFT RD UNIT 308, MIRAMAR, FL, 33025","Match","Exact","3252 FOXCROFT RD, MIRAMAR, FL, 33025",114778354,"L"
513616,"3252 FOXCROFT ROAD","MIRAMAR","FL",33025,25.9794070520001,-80.2650030359999,116,"3252 FOXCROFT ROAD, MIRAMAR, FL, 33025","Match","Exact","3252 FOXCROFT RD, MIRAMAR, FL, 33025",114778354,"L"
513617,"3252 GIRARD AVE S APT 304","MINNEAPOLIS","MN",55408,44.9437519370001,-93.297061919,117,"3252 GIRARD AVE S APT 304, MINNEAPOLIS, MN, 55408","Match","Exact","3252 GIRARD AVE S, MINNEAPOLIS, MN, 55408",43628595,"R"
513618,"3252 HAMMER STREET","KLAMATH FALLS","OR",97603,42.1970058590001,-121.711816489,118,"3252 HAMMER STREET, KLAMATH FALLS, OR, 97603","Match","Exact","3252 HAMMER ST, KLAMATH FALLS, OR, 97603",624547712,"L"
513619,"3252 HAWKS NEST DR","KISSIMMEE","FL",34741,28.3472536690001,-81.431312314,119,"3252 HAWKS NEST DR, KISSIMMEE, FL, 34741","Match","Exact","3252 HAWKS NEST DR, KISSIMMEE, FL, 34741",176691430,"L"
513620,"3252 HILLVIEW LANE","LAFAYETTE","CA",94549,37.9067511810001,-122.099535052,120,"3252 HILLVIEW LANE, LAFAYETTE, CA, 94549","Match","Exact","3252 HILLVIEW LN, LAFAYETTE, CA, 94549",607682220,"L"
513621,"3252 HOOPER RD","FOREST","VA",24551,37.3952051050001,-79.279591136,121,"3252 HOOPER RD, FOREST, VA, 24551","Match","Exact","3252 HOOPER RD, FOREST, VA, 24551",624994541,"L"
513622,"3252 HUNTERS LANDING RD","BINGHAMTON","NY",13903,42.0307957210001,-75.924268992,122,"3252 HUNTERS LANDING RD, BINGHAMTON, NY, 13903","Match","Exact","3252 HUNTERS LANDING RD, BINGHAMTON, NY, 13903",46350931,"R"
513623,"3252 HUNTERS LANDING RD","BINGHAMTON","NY",13909,42.0307957210001,-75.924268992,123,"3252 HUNTERS LANDING RD, BINGHAMTON, NY, 13909","Match","Non_Exact","3252 HUNTERS LANDING RD, BINGHAMTON, NY, 13903",46350931,"R"
513624,"3252 KENNETH DRIVE","LOS ANGELES","CA",90031,34.082988519,-118.186398862,124,"3252 KENNETH DRIVE, LOS ANGELES, CA, 90031","Match","Non_Exact","3252 KENNETH DR, LOS ANGELES, CA, 90032",640425129,"R"
513625,"3252 KILER CANYON ROAD","PASO ROBLES","CA",93446,35.6069782050001,-120.730562502,125,"3252 KILER CANYON ROAD, PASO ROBLES, CA, 93446","Match","Exact","3252 KILER CANYON RD, PASO ROBLES, CA, 93446",109899897,"L"
513626,"3252 LEXINGTON WAY","AUGUSTA","GA",30909,33.4552071410001,-82.098190398,126,"3252 LEXINGTON WAY, AUGUSTA, GA, 30909","Match","Exact","3252 LEXINGTON WAY, AUGUSTA, GA, 30909",619883440,"R"
513627,"3252 LOCUST HOLLOW","NOLENSVILLE","TN",37135,35.94833729,-86.675107415,127,"3252 LOCUST HOLLOW, NOLENSVILLE, TN, 37135","Match","Exact","3252 LOCUST HOLLOW, NOLENSVILLE, TN, 37135",614926414,"R"
513628,"3252 MURRAY ROAD","LIMA","OH",45801,40.7856328240001,-83.982449948,128,"3252 MURRAY ROAD, LIMA, OH, 45801","Match","Exact","3252 MURRAY RD, LIMA, OH, 45801",209544684,"L"
513629,"3252 N BENTLEY RDG","FAYETTEVILLE","AR",72704,36.1112932670001,-94.199158887,129,"3252 N BENTLEY RDG, FAYETTEVILLE, AR, 72704","Match","Exact","3252 N BENTLEY RIDGE, FAYETTEVILLE, AR, 72704",641626743,"R"
513630,"3252 N FRONTAGE RD E NE","MOSES LAKE","WA",98837,47.104535233,-119.421633071,130,"3252 N FRONTAGE RD E NE, MOSES LAKE, WA, 98837","Match","Non_Exact","3252 N FRONTAGE RD E, MOSES LAKE, WA, 98837",635619349,"R"
513631,"3252 NORTH PALMER STREET","MILWAUKEE","WI",53212,43.0776456770001,-87.90879474,131,"3252 NORTH PALMER STREET, MILWAUKEE, WI, 53212","Match","Exact","3252 N PALMER ST, MILWAUKEE, WI, 53212",77743335,"R"
513632,"3252 OLIVER AV N","MINNEAPOLIS","MN",55412,45.014184716,-93.306971107,132,"3252 OLIVER AV N, MINNEAPOLIS, MN, 55412","Match","Exact","3252 OLIVER AVE N, MINNEAPOLIS, MN, 55412",43622098,"R"
513633,"3252 OVERLAND AVENUE","LOS ANGELES","CA",90034,34.0284591830001,-118.414470555,133,"3252 OVERLAND AVENUE, LOS ANGELES, CA, 90034","Match","Exact","3252 OVERLAND AVE, LOS ANGELES, CA, 90034",650077652,"L"
513634,"3252 PORSPECT AVE","LA CRESCENTA","CA",91214,34.2269866180001,-118.249626006,134,"3252 PORSPECT AVE, LA CRESCENTA, CA, 91214","Match","Non_Exact","3252 PROSPECT AVE, LA CRESCENTA, CA, 91214",142669224,"L"
513635,"3252 PRIMROSE LANE","YPSILANTI","MI",48197,42.1965112560001,-83.695316982,135,"3252 PRIMROSE LANE, YPSILANTI, MI, 48197","Match","Exact","3252 PRIMROSE LN, YPSILANTI, MI, 48197",648064118,"R"
513636,"3252 RAUCHTOWN RD","JERSEY SHORE","PA",17740,41.130398573,-77.2335636829999,136,"3252 RAUCHTOWN RD, JERSEY SHORE, PA, 17740","Match","Exact","3252 RAUCHTOWN RD, JERSEY SHORE, PA, 17740",77161009,"R"
513637,"3252 RICE STREET","SAINT PAUL","MN",55126,45.0399513720001,-93.1062441889999,137,"3252 RICE STREET, SAINT PAUL, MN, 55126","Match","Exact","3252 RICE ST, SAINT PAUL, MN, 55126",97643025,"R"
513638,"3252 S BRUNSWICK AVE","SPRINGFIELD","MO",65809,37.1524087820001,-93.223537154,138,"3252 S BRUNSWICK AVE, SPRINGFIELD, MO, 65809","Match","Exact","3252 BRUNSWICK AVE, SPRINGFIELD, MO, 65809",76704423,"R"
513639,"3252 SE  23RD ST","GRESHAM","OR",97080,45.480805984,-122.399396869,139,"3252 SE  23RD ST, GRESHAM, OR, 97080","Match","Exact","3252 SE 23RD ST, GRESHAM, OR, 97080",157552480,"R"
513640,"3252 SOUTH WINTON ROAD M22","ROCHESTER","NY",14623,43.0886948400001,-77.581946564,140,"3252 SOUTH WINTON ROAD M22, ROCHESTER, NY, 14623","Match","Exact","3252 S WINTON RD, ROCHESTER, NY, 14623",14561868,"L"
513641,"3252 SOUTHFORK DRIVE","PACE","FL",32571,30.633538518,-87.18956203,141,"3252 SOUTHFORK DRIVE, PACE, FL, 32571","Match","Exact","3252 SOUTHFORK DR, PACE, FL, 32571",618793938,"R"
513642,"3252 SW WARNICKS RD","ST JOSEPH","MO",64504,39.6471719080001,-94.910321498,142,"3252 SW WARNICKS RD, ST JOSEPH, MO, 64504","Match","Exact","3252 SW WARNICKS RD, SAINT JOSEPH, MO, 64504",15970153,"L"
513643,"3252 VISTA DEL CAMINO","MARINA","CA",93933,36.6879435380001,-121.792309783,143,"3252 VISTA DEL CAMINO, MARINA, CA, 93933","Match","Exact","3252 VIS DEL CAMINO, MARINA, CA, 93933",196855006,"R"
513644,"32521 FAVARA DR","TEMECULA","CA",92592,33.4882617480001,-117.092075654,144,"32521 FAVARA DR, TEMECULA, CA, 92592","Match","Exact","32521 FAVARA DR, TEMECULA, CA, 92592",194869035,"R"
513645,"32522 WESTMINSTER DRIVE","WESTON LAKES","TX",77441,29.652331625,-95.930443348,145,"32522 WESTMINSTER DRIVE, WESTON LAKES, TX, 77441","Match","Exact","32522 WESTMINSTER DR, WESTON LAKES, TX, 77441",635235438,"L"
513646,"32523 342ND AVE SE","RAVENSDALE","WA",98051,47.3089996250001,-121.889776637,146,"32523 342ND AVE SE, RAVENSDALE, WA, 98051","Match","Exact","32523 342ND AVE SE, RAVENSDALE, WA, 98051",187068635,"L"
513647,"32524 JEFFERSON TOWNSHIP PWY","MARIETTA","GA",30066,NA,NA,147,"32524 JEFFERSON TOWNSHIP PWY, MARIETTA, GA, 30066","No_Match",NA,NA,NA,NA
513648,"32524 REGENTS BOULEVARD","UNION CITY","CA",94587,37.580823122,-122.069614883,148,"32524 REGENTS BOULEVARD, UNION CITY, CA, 94587","Match","Exact","32524 REGENTS BLVD, UNION CITY, CA, 94587",125023377,"R"
513649,"32525 JIVARO ST NW","CAMBRIDGE","MN",55008,45.558495722,-93.379184606,149,"32525 JIVARO ST NW, CAMBRIDGE, MN, 55008","Match","Exact","32525 JIVARO ST NW, CAMBRIDGE, MN, 55008",97625253,"R"
513650,"32526 DUNFORD STREET","FARMINGTON HILLS","MI",48334,42.506500665,-83.372231342,150,"32526 DUNFORD STREET, FARMINGTON HILLS, MI, 48334","Match","Exact","32526 DUNFORD ST, FARMINGTON HILLS, MI, 48334",69723253,"R"
513651,"325261 HWY 2","NEWPORT","WA",99156,48.1194221470001,-117.207758743,151,"325261 HWY 2, NEWPORT, WA, 99156","Match","Non_Exact","325261 US HWY 2, NEWPORT, WA, 99156",638448228,"L"
513652,"32528 HOLLY OAK DRIVE","LAUREL","DE",19956,38.5414944870001,-75.581051368,152,"32528 HOLLY OAK DRIVE, LAUREL, DE, 19956","Match","Exact","32528 HOLLY OAK DR, LAUREL, DE, 19956",106135299,"L"
513653,"32529 36TH AVE SW","FEDERAL WAY","WA",98023,47.310980537,-122.377987695,153,"32529 36TH AVE SW, FEDERAL WAY, WA, 98023","Match","Exact","32529 36TH AVE SW, FEDERAL WAY, WA, 98023",239774277,"R"
513654,"3252W RUSKIN","MILWAUKEE","WI",53215,NA,NA,154,"3252W RUSKIN, MILWAUKEE, WI, 53215","No_Match",NA,NA,NA,NA
513655,"3253 ARROWHEAD CT","ALTADENA","CA",91001,34.201685943,-118.13202849,155,"3253 ARROWHEAD CT, ALTADENA, CA, 91001","Match","Exact","3253 ARROWHEAD CT, ALTADENA, CA, 91001",141626741,"L"
513656,"3253 BRUCKNER BLVD","BRONX","NY",10461,40.840137559,-73.825982475,156,"3253 BRUCKNER BLVD, BRONX, NY, 10461","Match","Exact","3253 BRUCKNER BLVD, BRONX, NY, 10461",80306851,"L"
513657,"3253 CLYDE SUTTON DRIVE","GRIFTON","NC",28530,35.3967437800001,-77.4994287329999,157,"3253 CLYDE SUTTON DRIVE, GRIFTON, NC, 28530","Match","Non_Exact","3253 CLYDE SUTTON, GRIFTON, NC, 28530",624338774,"R"
513658,"3253 DOGWOOD DR","HAPEVILLE","GA",30354,33.665437979,-84.408576432,158,"3253 DOGWOOD DR, HAPEVILLE, GA, 30354","Match","Exact","3253 DOGWOOD DR, HAPEVILLE, GA, 30354",17349513,"R"
513659,"3253 E PAGE AVE","GILBERT","AZ",85234,33.3557762070001,-111.720173219,159,"3253 E PAGE AVE, GILBERT, AZ, 85234","Match","Exact","3253 E PAGE AVE, GILBERT, AZ, 85234",128822854,"L"
513660,"3253 E PRISCILLA COURT","PHOENIX","AZ",85008,33.463108334,-112.010923784,160,"3253 E PRISCILLA COURT, PHOENIX, AZ, 85008","Match","Exact","3253 E PRISCILLA CT, PHOENIX, AZ, 85008",128293478,"R"
513661,"3253 EMERSON AVE SO","MPLS","MN",55408,44.9437641170001,-93.294493593,161,"3253 EMERSON AVE SO, MPLS, MN, 55408","Match","Exact","3253 EMERSON AVE S, MINNEAPOLIS, MN, 55408",43628614,"L"
513662,"3253 FOXCROFT ROAD BLDG G 110","MIRAMAR","FL",33025,25.9794183610001,-80.264902193,162,"3253 FOXCROFT ROAD BLDG G 110, MIRAMAR, FL, 33025","Match","Exact","3253 FOXCROFT RD, MIRAMAR, FL, 33025",114778354,"R"
513663,"3253 GALAHAD DRIVE","DALLAS","TX",75229,32.890496113,-96.868269345,163,"3253 GALAHAD DRIVE, DALLAS, TX, 75229","Match","Exact","3253 GALAHAD DR, DALLAS, TX, 75229",102898613,"L"
513664,"3253 GIRARD AVE S APT 10","MINNEAPOLIS","MN",55408,44.9437518330001,-93.297046429,164,"3253 GIRARD AVE S APT 10, MINNEAPOLIS, MN, 55408","Match","Exact","3253 GIRARD AVE S, MINNEAPOLIS, MN, 55408",43628595,"L"
513665,"3253 GREEN KNOLL RD","BALTIMORE","MD",21244,39.3544920370001,-76.789974241,165,"3253 GREEN KNOLL RD, BALTIMORE, MD, 21244","Match","Exact","3253 GREEN KNOLL RD, BALTIMORE, MD, 21244",191463300,"R"
513666,"3253 GREEN KNOLL RD","WINDSOR MILL","MD",21244,39.3544920370001,-76.789974241,166,"3253 GREEN KNOLL RD, WINDSOR MILL, MD, 21244","Match","Exact","3253 GREEN KNOLL RD, WINDSOR MILL, MD, 21244",191463300,"R"
513667,"3253 GREENKNOLL ROAD","BALTIMORE","MD",21244,39.3544920370001,-76.789974241,167,"3253 GREENKNOLL ROAD, BALTIMORE, MD, 21244","Match","Non_Exact","3253 GREEN KNOLL RD, BALTIMORE, MD, 21244",191463300,"R"
513668,"3253 GREENWOOD DR","DEWEY","IL",61840,40.3449091270001,-88.299996973,168,"3253 GREENWOOD DR, DEWEY, IL, 61840","Match","Exact","3253 GREENWOOD DR, DEWEY, IL, 61840",625149291,"R"
513669,"3253 KALLIN AVENUE","LONG BEACH","CA",90808,33.8158379860001,-118.097246659,169,"3253 KALLIN AVENUE, LONG BEACH, CA, 90808","Match","Exact","3253 KALLIN AVE, LONG BEACH, CA, 90808",141745480,"L"
513670,"3253 LEISURE LANE","YOUNG HARRIS","GA",30582,NA,NA,170,"3253 LEISURE LANE, YOUNG HARRIS, GA, 30582","No_Match",NA,NA,NA,NA
513671,"3253 LOGAN STREET","OAKLAND","CA",94601,37.7873410110001,-122.220202954,171,"3253 LOGAN STREET, OAKLAND, CA, 94601","Match","Exact","3253 LOGAN ST, OAKLAND, CA, 94601",637732675,"R"
513672,"3253 MONMOUTH DR","COLUMUS","OH",43219,40.0234956640001,-82.923841726,172,"3253 MONMOUTH DR, COLUMUS, OH, 43219","Match","Non_Exact","3253 MONMOUTH DR, COLUMBUS, OH, 43219",218531141,"R"
513673,"3253 MORRISON AVE","CINCINNATI","OH",45220,39.141958118,-84.52909943,173,"3253 MORRISON AVE, CINCINNATI, OH, 45220","Match","Exact","3253 MORRISON AVE, CINCINNATI, OH, 45220",647377286,"L"
513674,"3253 N CLIFTON AVE","CHICAGO","IL",60657,41.9408375730001,-87.657765173,174,"3253 N CLIFTON AVE, CHICAGO, IL, 60657","Match","Exact","3253 N CLIFTON AVE, CHICAGO, IL, 60657",111762390,"R"
513675,"3253 N KENMORE UNIT 2","CHICAGO","IL",60657,NA,NA,175,"3253 N KENMORE UNIT 2, CHICAGO, IL, 60657","No_Match",NA,NA,NA,NA
513676,"3253 N LEWISVILLE LN","PARAGON","IN",46166,39.475739473,-86.617726169,176,"3253 N LEWISVILLE LN, PARAGON, IN, 46166","Match","Exact","3253 LEWISVILLE LN, PARAGON, IN, 46166",43572378,"R"
513677,"3253 NE CR 337","BRONSON","FL",32621,29.3795170450001,-82.610685986,177,"3253 NE CR 337, BRONSON, FL, 32621","Match","Exact","3253 CO RD 337, BRONSON, FL, 32621",612309310,"R"
513678,"3253 NORCROSS LANE","DALLAS","TX",75229,32.8895831400001,-96.8686700809999,178,"3253 NORCROSS LANE, DALLAS, TX, 75229","Match","Exact","3253 NORCROSS LN, DALLAS, TX, 75229",102898599,"L"
513679,"3253 NORMANDY WOODS DR APT H","ELLICOTT CITY","MD",21043,39.283254749,-76.8020379989999,179,"3253 NORMANDY WOODS DR APT H, ELLICOTT CITY, MD, 21043","Match","Exact","3253 NORMANDY WOODS DR, ELLICOTT CITY, MD, 21043",158959075,"L"
513680,"3253 ROGERS AVENUE","FORT WORTH","TX",76109,32.702937008,-97.361542,180,"3253 ROGERS AVENUE, FORT WORTH, TX, 76109","Match","Exact","3253 ROGERS AVE, FORT WORTH, TX, 76109",101886318,"L"
513681,"3253 S 500 W","BRINGHURST","IN",46913,40.500841246,-86.619783825,181,"3253 S 500 W, BRINGHURST, IN, 46913","Match","Exact","3253 S 500 W, BRINGHURST, IN, 46913",27048137,"R"
513682,"3253 SMITH ROAD","GROVELAND","FL",34736,28.606277839,-81.896408827,182,"3253 SMITH ROAD, GROVELAND, FL, 34736","Match","Exact","3253 SMITH RD, GROVELAND, FL, 34736",641441324,"R"
513683,"3253 SNOWDEN LANE","HOWELL","MI",48843,42.594374246,-83.878541608,183,"3253 SNOWDEN LANE, HOWELL, MI, 48843","Match","Non_Exact","3253 N SNOWDEN LN, HOWELL, MI, 48843",23567576,"L"
513684,"3253 STANTON RD SE","WASHINGTON","DC",20020,38.8479237270001,-76.9806707559999,184,"3253 STANTON RD SE, WASHINGTON, DC, 20020","Match","Exact","3253 STANTON RD SE, WASHINGTON, DC, 20020",624368224,"R"
513685,"3253 STARSDALE","MEMPHIS","TN",38118,35.0597022870001,-89.899636667,185,"3253 STARSDALE, MEMPHIS, TN, 38118","Match","Non_Exact","3253 STARSDALE ST, MEMPHIS, TN, 38118",72927836,"R"
513686,"3253 W LEWISTON CIR","SOUTH JORDAN","UT",84095,40.559830091,-111.968542924,186,"3253 W LEWISTON CIR, SOUTH JORDAN, UT, 84095","Match","Exact","3253 LEWISTON CIR, SOUTH JORDAN, UT, 84095",176154509,"L"
513687,"3253 W LOS ALTOS AVE","FRESNO","CA",93711,36.8329940680001,-119.849925864,187,"3253 W LOS ALTOS AVE, FRESNO, CA, 93711","Match","Exact","3253 W LOS ALTOS AVE, FRESNO, CA, 93711",197566414,"L"
513688,"3253 W POTOMAC 2F","CHICAGO","IL",60651,NA,NA,188,"3253 W POTOMAC 2F, CHICAGO, IL, 60651","No_Match",NA,NA,NA,NA
513689,"32530 LAMA CT","TEMECULA","CA",92592,33.4997886620001,-117.091799361,189,"32530 LAMA CT, TEMECULA, CA, 92592","Match","Exact","32530 LAMA CT, TEMECULA, CA, 92592",195087823,"L"
513690,"32530 SHIELA WAY","UNION CITY","CA",94587,37.5751261620001,-122.07345426,190,"32530 SHIELA WAY, UNION CITY, CA, 94587","Match","Exact","32530 SHIELA WAY, UNION CITY, CA, 94587",125023601,"R"
513691,"32535 S 128TH AVE","MANTENO","IL",60950,41.2969009560001,-87.919671895,191,"32535 S 128TH AVE, MANTENO, IL, 60950","Match","Exact","32535 128TH AVE, MANTENO, IL, 60950",111527066,"R"
513692,"32535 S ELEVATOR ROAD","MANTENO","IL",60950,41.2968843570001,-87.9196713279999,192,"32535 S ELEVATOR ROAD, MANTENO, IL, 60950","Match","Exact","32535 S ELEVATOR RD, MANTENO, IL, 60950",111527066,"R"
513693,"32537 59TH AVE WAY","CANNON FALLS","MN",55009,44.477513969,-92.91980304,193,"32537 59TH AVE WAY, CANNON FALLS, MN, 55009","Match","Exact","32537 59TH AVENUE WAY, CANNON FALLS, MN, 55009",31559832,"R"
513694,"32537HARMONY OAKS DRIVE","WESLEY CHAPEL","FL",33545,NA,NA,194,"32537HARMONY OAKS DRIVE, WESLEY CHAPEL, FL, 33545","No_Match",NA,NA,NA,NA
513695,"32539 2ND AVE","SAN ANTONIO","FL",33576,28.340145235,-82.2774278219999,195,"32539 2ND AVE, SAN ANTONIO, FL, 33576","Match","Exact","32539 2ND AVE, SAN ANTONIO, FL, 33576",86344477,"R"
513696,"3254 15TH AVE S APT 1N","MINNEAPOLIS","MN",55407,44.943757218,-93.253758477,196,"3254 15TH AVE S APT 1N, MINNEAPOLIS, MN, 55407","Match","Exact","3254 15TH AVE S, MINNEAPOLIS, MN, 55407",43634738,"R"
513697,"3254 48TH STREET APT 1R","ASTORIA","NY",11103,NA,NA,197,"3254 48TH STREET APT 1R, ASTORIA, NY, 11103","No_Match",NA,NA,NA,NA
513698,"3254 48TH STREET","ASTORIA","NY",11103,NA,NA,198,"3254 48TH STREET, ASTORIA, NY, 11103","No_Match",NA,NA,NA,NA
513699,"3254 8TH AVENUE NORTH","ST. PETERSBURG","FL",33712,27.7800410570001,-82.6775899529999,199,"3254 8TH AVENUE NORTH, ST. PETERSBURG, FL, 33712","Match","Non_Exact","3254 8TH AVE N, SAINT PETERSBURG, FL, 33713",124704871,"L"
513700,"3254 AUTUMN LANE","JANESVILLE","WI",53546,42.720069349,-88.9672498899999,200,"3254 AUTUMN LANE, JANESVILLE, WI, 53546","Match","Exact","3254 AUTUMN LN, JANESVILLE, WI, 53546",617256675,"R"
513701,"3254 BANNING ROAD","CINCINNATI","OH",45239,39.212048006,-84.589723517,201,"3254 BANNING ROAD, CINCINNATI, OH, 45239","Match","Exact","3254 BANNING RD, CINCINNATI, OH, 45239",103951250,"R"
513702,"3254 BLACK OAK DRIVE","EAGAN","MN",55121,44.8386776630001,-93.1068665929999,202,"3254 BLACK OAK DRIVE, EAGAN, MN, 55121","Match","Exact","3254 BLACK OAK DR, EAGAN, MN, 55121",37932691,"L"
513703,"3254 CASA LINDA DRIVE","DECATUR","GA",30032,33.7220647620001,-84.2565263509999,203,"3254 CASA LINDA DRIVE, DECATUR, GA, 30032","Match","Exact","3254 CASA LINDA DR, DECATUR, GA, 30032",23404003,"L"
513704,"3254 COLLINGWOOD","DETROIT","MI",48206,42.3781585040001,-83.119509178,204,"3254 COLLINGWOOD, DETROIT, MI, 48206","Match","Non_Exact","3254 COLLINGWOOD ST, DETROIT, MI, 48206",95471497,"R"
513705,"3254 CREEK MEADOW CIRCLE","NORTH CHESTERFIELD","VA",23234,37.44591194,-77.45629029,205,"3254 CREEK MEADOW CIRCLE, NORTH CHESTERFIELD, VA, 23234","Match","Exact","3254 CREEK MEADOW CIR, NORTH CHESTERFIELD, VA, 23234",201560849,"R"
513706,"3254 E KEMPER ROAD","CINCINNATI","OH",45241,39.283094066,-84.408532818,206,"3254 E KEMPER ROAD, CINCINNATI, OH, 45241","Match","Exact","3254 E KEMPER RD, CINCINNATI, OH, 45241",103955954,"L"
513707,"3254 EAST CLINTON LANE","CAMP VERDE","AZ",86322,34.516323802,-111.793598509,207,"3254 EAST CLINTON LANE, CAMP VERDE, AZ, 86322","Match","Exact","3254 E CLINTON LN, CAMP VERDE, AZ, 86322",159479465,"L"
513708,"3254 EAST MARYLAND STREET","DECATUR","IL",62521,39.8198505330001,-88.905458462,208,"3254 EAST MARYLAND STREET, DECATUR, IL, 62521","Match","Exact","3254 E MARYLAND ST, DECATUR, IL, 62521",20750094,"L"
513709,"3254 ECHO PARK DR","HILLIARD","OH",43026,40.018131811,-83.177723772,209,"3254 ECHO PARK DR, HILLIARD, OH, 43026","Match","Exact","3254 ECHO PARK DR, HILLIARD, OH, 43026",218682337,"R"
513710,"3254 GENTILLY BLVD","NEW ORLEANS","LA",70122,30.000447905,-90.0581088599999,210,"3254 GENTILLY BLVD, NEW ORLEANS, LA, 70122","Match","Exact","3254 GENTILLY BLVD, NEW ORLEANS, LA, 70122",191734960,"L"
513711,"3254 GORGONIO RD","PHELAN","CA",92371,NA,NA,211,"3254 GORGONIO RD, PHELAN, CA, 92371","No_Match",NA,NA,NA,NA
513712,"3254 GRANGER AVE E H2","BILLINGS","MT",59102,45.758360227,-108.599209245,212,"3254 GRANGER AVE E H2, BILLINGS, MT, 59102","Match","Exact","3254 GRANGER AVE E, BILLINGS, MT, 59102",608053392,"R"
513713,"3254 HAMLINE AVENUE NORTH","ARDEN HILLS","MN",55112,45.036641188,-93.1600981139999,213,"3254 HAMLINE AVENUE NORTH, ARDEN HILLS, MN, 55112","Match","Exact","3254 HAMLINE AVE N, ARDEN HILLS, MN, 55112",97639928,"R"
513714,"3254 HAZELWOOD","DETROIT","MI",48206,42.369202332,-83.113579643,214,"3254 HAZELWOOD, DETROIT, MI, 48206","Match","Non_Exact","3254 HAZELWOOD ST, DETROIT, MI, 48206",95471613,"R"
513715,"3254 HAZELWOOD","DETROIT","MI",48224,NA,NA,215,"3254 HAZELWOOD, DETROIT, MI, 48224","No_Match",NA,NA,NA,NA
513716,"3254 HIGHWAY 32 E","SALEM","MO",65560,NA,NA,216,"3254 HIGHWAY 32 E, SALEM, MO, 65560","No_Match",NA,NA,NA,NA
513717,"3254 KENSINGTON RD","AVONDALE ESTATES","GA",30002,33.7717114610001,-84.25707633,217,"3254 KENSINGTON RD, AVONDALE ESTATES, GA, 30002","Match","Exact","3254 KENSINGTON RD, AVONDALE EST, GA, 30002",642670020,"L"
513718,"3254 MABEE ROAD","ONTARIO","OH",44903,40.779736934,-82.633737402,218,"3254 MABEE ROAD, ONTARIO, OH, 44903","Match","Exact","3254 MABEE RD, ONTARIO, OH, 44903",207224859,"R"
513719,"3254 MAIN ST SUITE 235-140","FRISCO","TX",75034,33.1532417970001,-96.861559308,219,"3254 MAIN ST SUITE 235-140, FRISCO, TX, 75034","Match","Non_Exact","3254 MAIN ST, FRISCO, TX, 75033",614147100,"R"
513720,"3254 N 44TH ST","MILWAUKEE","WI",53216,43.078195098,-87.968614878,220,"3254 N 44TH ST, MILWAUKEE, WI, 53216","Match","Exact","3254 N 44TH ST, MILWAUKEE, WI, 53216",77732148,"R"
513721,"3254 NE 211TH TERR","AVENTURA","FL",33180,25.9712710330001,-80.1362640959999,221,"3254 NE 211TH TERR, AVENTURA, FL, 33180","Match","Exact","3254 NE 211TH TER, AVENTURA, FL, 33180",640561867,"L"
513722,"3254 NORTH WINN RD","DECORAH","IA",52101,43.412365902,-91.809919457,222,"3254 NORTH WINN RD, DECORAH, IA, 52101","Match","Exact","3254 N WINN RD, DECORAH, IA, 52101",27526238,"R"
513723,"3254 NW 104TH TERRACE","SUNRISE","FL",33351,26.166395304,-80.2892748639999,223,"3254 NW 104TH TERRACE, SUNRISE, FL, 33351","Match","Exact","3254 NW 104TH TER, SUNRISE, FL, 33351",114811338,"R"
513724,"3254 OAKDALE RD","STUDIO CITY","CA",91604,NA,NA,224,"3254 OAKDALE RD, STUDIO CITY, CA, 91604","No_Match",NA,NA,NA,NA
513725,"3254 PENDLETON AVE","CHARLOTTE","NC",28210,35.1427284580001,-80.838941419,225,"3254 PENDLETON AVE, CHARLOTTE, NC, 28210","Match","Exact","3254 PENDLETON AVE, CHARLOTTE, NC, 28210",70489359,"R"
513726,"3254 PERRINE RD","RIVES JUNCTION","MI",49277,42.3933392930001,-84.44850314,226,"3254 PERRINE RD, RIVES JUNCTION, MI, 49277","Match","Exact","3254 PERRINE RD, RIVES JUNCTION, MI, 49277",648157999,"L"
513727,"3254 RICKS ROAD","CHESTER","SC",29706,34.7438348150001,-81.386547003,227,"3254 RICKS ROAD, CHESTER, SC, 29706","Match","Non_Exact","3254 RICKS DR, CHESTER, SC, 29706",651594581,"R"
513728,"3254 RIVERWOODS DR NE","ROCKFORD","MI",49341,43.083755744,-85.588294586,228,"3254 RIVERWOODS DR NE, ROCKFORD, MI, 49341","Match","Exact","3254 RIVERWOODS DR NE, ROCKFORD, MI, 49341",12496943,"L"
513729,"3254 S 301ST PL","AUBURN","WA",98001,47.331628289,-122.291047381,229,"3254 S 301ST PL, AUBURN, WA, 98001","Match","Exact","3254 S 301ST PL, AUBURN, WA, 98001",650628684,"R"
513730,"3254 S PILLSBERRY AVENUE","SIOUX FALLS","SD",57103,43.5158798410001,-96.6743029959999,230,"3254 S PILLSBERRY AVENUE, SIOUX FALLS, SD, 57103","Match","Exact","3254 S PILLSBERRY AVE, SIOUX FALLS, SD, 57103",34992226,"L"
513731,"3254 S US HWY","LIBERTY","IN",47353,NA,NA,231,"3254 S US HWY, LIBERTY, IN, 47353","No_Match",NA,NA,NA,NA
513732,"3254 SECOND STREET","OCEANSIDE","NY",11572,40.6314823430001,-73.63721866,232,"3254 SECOND STREET, OCEANSIDE, NY, 11572","Match","Exact","3254 2ND ST, OCEANSIDE, NY, 11572",147681522,"R"
513733,"3254 TOULOUSE","BOURBONNAIS","IL",60914,41.172027928,-87.9006081109999,233,"3254 TOULOUSE, BOURBONNAIS, IL, 60914","Match","Exact","3254 TOULOUSE, BOURBONNAIS, IL, 60914",606611375,"L"
513734,"3254 TRANQUILITY CT SE","SALEM","OR",97317,44.8738710220001,-122.996494007,234,"3254 TRANQUILITY CT SE, SALEM, OR, 97317","Match","Exact","3254 TRANQUILITY CT SE, SALEM, OR, 97317",156251984,"R"
513735,"3254 VAN AKEN BLVD","SHAKER HEIGHTS","OH",44120,41.470948795,-81.5757129309999,235,"3254 VAN AKEN BLVD, SHAKER HEIGHTS, OH, 44120","Match","Exact","3254 VAN AKEN BLVD, SHAKER HEIGHTS, OH, 44120",61127150,"R"
513736,"3254 W 86TH STREET","CHICAGO","IL",60652,41.7373903870001,-87.7042464529999,236,"3254 W 86TH STREET, CHICAGO, IL, 60652","Match","Exact","3254 W 86TH ST, CHICAGO, IL, 60652",112048152,"L"
513737,"3254 W FLOURNOY","CHICAGO","IL",60624,41.872771551,-87.707501969,237,"3254 W FLOURNOY, CHICAGO, IL, 60624","Match","Non_Exact","3254 W FLOURNOY ST, CHICAGO, IL, 60624",605084566,"R"
513738,"3254 W ROCKPORT PARK DRIVE","JANESVILLE","WI",53548,42.6634456730001,-89.063563718,238,"3254 W ROCKPORT PARK DRIVE, JANESVILLE, WI, 53548","Match","Exact","3254 W ROCKPORT PARK DR, JANESVILLE, WI, 53548",648160538,"R"
513739,"3254 WEST 116TH STREET","CLEVELAND","OH",44111,41.463832731,-81.7676874639999,239,"3254 WEST 116TH STREET, CLEVELAND, OH, 44111","Match","Exact","3254 W 116TH ST, CLEVELAND, OH, 44111",61103044,"R"
513740,"3254 WEST 116TH","CLEVELAND","OH",44111,41.463832731,-81.7676874639999,240,"3254 WEST 116TH, CLEVELAND, OH, 44111","Match","Non_Exact","3254 W 116TH ST, CLEVELAND, OH, 44111",61103044,"R"
513741,"3254 WININGS LANE","CARMEL","IN",46074,39.994886992,-86.2153620239999,241,"3254 WININGS LANE, CARMEL, IN, 46074","Match","Exact","3254 WININGS LN, CARMEL, IN, 46074",618464038,"R"
513742,"32542 SAFFLOWER ST","WINCHESTER","CA",92596,33.619213474,-117.091992499,242,"32542 SAFFLOWER ST, WINCHESTER, CA, 92596","Match","Exact","32542 SAFFLOWER ST, WINCHESTER, CA, 92596",618479650,"R"
513743,"32545 LAKERIDGE COURT","TEMECULA","CA",92591,NA,NA,243,"32545 LAKERIDGE COURT, TEMECULA, CA, 92591","No_Match",NA,NA,NA,NA
513744,"32545 STONY BROOK LANE","SOLON","OH",44139,41.404434232,-81.4486796209999,244,"32545 STONY BROOK LANE, SOLON, OH, 44139","Match","Exact","32545 STONY BROOK LN, SOLON, OH, 44139",61136491,"L"
513745,"3255 2ND ST","LASALLE","MI",48145,41.8496956560001,-83.470158908,245,"3255 2ND ST, LASALLE, MI, 48145","Match","Non_Exact","3255 2ND ST, LA SALLE, MI, 48145",40484813,"R"
513746,"3255 325TH AVENUE","ST EDWARD","NE",68660,41.59156813,-97.860016192,246,"3255 325TH AVENUE, ST EDWARD, NE, 68660","Match","Exact","3255 325TH AVE, SAINT EDWARD, NE, 68660",161719623,"R"
513747,"3255 39TH ST","ZACHARY","LA",70791,30.6379590390001,-91.165863128,247,"3255 39TH ST, ZACHARY, LA, 70791","Match","Exact","3255 39TH ST, ZACHARY, LA, 70791",92210371,"L"
513748,"3255 39TH STREET","ZACHARY","LA",70791,30.6379590390001,-91.165863128,248,"3255 39TH STREET, ZACHARY, LA, 70791","Match","Exact","3255 39TH ST, ZACHARY, LA, 70791",92210371,"L"
513749,"3255 52ND CIR E","PALMETTO","FL",34221,27.560445933,-82.5315240419999,249,"3255 52ND CIR E, PALMETTO, FL, 34221","Match","Exact","3255 52ND CIR E, PALMETTO, FL, 34221",651186606,"R"
513750,"3255 BLAIR AVENUE","HUNTINGDON","PA",16652,40.5101960810001,-78.005271807,250,"3255 BLAIR AVENUE, HUNTINGDON, PA, 16652","Match","Exact","3255 BLAIR AVE, HUNTINGDON, PA, 16652",50615299,"R"
513751,"3255 BROOMFIELD RD","DOVER","AR",72837,35.4764748480001,-93.0791727279999,251,"3255 BROOMFIELD RD, DOVER, AR, 72837","Match","Exact","3255 BROOMFIELD RD, DOVER, AR, 72837",637279958,"L"
513752,"3255 CALVIN CT","EAST POINT","GA",30344,33.667803888,-84.490384589,252,"3255 CALVIN CT, EAST POINT, GA, 30344","Match","Exact","3255 CALVIN CT, EAST POINT, GA, 30344",636750822,"R"
513753,"3255 CERRITOS AVE","SIGNAL HILL","CA",90755,33.816261814,-118.17740551,253,"3255 CERRITOS AVE, SIGNAL HILL, CA, 90755","Match","Exact","3255 CERRITOS AVE, SIGNAL HILL, CA, 90755",141686994,"L"
513754,"3255 CHAMBERS STREET","EUGENE","OR",97405,44.022072522,-123.117214961,254,"3255 CHAMBERS STREET, EUGENE, OR, 97405","Match","Exact","3255 CHAMBERS ST, EUGENE, OR, 97405",178168642,"L"
513755,"3255 CHESTNUT DR APT 2","EAST POINT","GA",30344,33.642871434,-84.494871463,255,"3255 CHESTNUT DR APT 2, EAST POINT, GA, 30344","Match","Exact","3255 CHESTNUT DR, EAST POINT, GA, 30344",643296542,"R"
513756,"3255 COUNTRY CLUB DR E","ROCHESTER","IN",46975,41.049508286,-86.167688577,256,"3255 COUNTRY CLUB DR E, ROCHESTER, IN, 46975","Match","Exact","3255 COUNTRY CLUB DR E, ROCHESTER, IN, 46975",7848452,"L"
513757,"3255 COUNTY ROAD 15","HALEYVILLE","AL",35565,34.2197667890001,-87.487364675,257,"3255 COUNTY ROAD 15, HALEYVILLE, AL, 35565","Match","Exact","3255 CO RD 15, HALEYVILLE, AL, 35565",651723362,"L"
513758,"3255 COYOTE HILLS WAY","CASTLE ROCK","CO",80109,39.3965744710001,-104.913693541,258,"3255 COYOTE HILLS WAY, CASTLE ROCK, CO, 80109","Match","Exact","3255 COYOTE HILLS WAY, CASTLE ROCK, CO, 80109",130813131,"L"
513759,"3255 CYPRESS LEGENDS DRIVE","FORT MYERS","FL",33905,26.618661855,-81.796709237,259,"3255 CYPRESS LEGENDS DRIVE, FORT MYERS, FL, 33905","Match","Non_Exact","3255 CYPRESS LEGENDS CIR, FORT MYERS, FL, 33905",653182679,"L"
513760,"3255 CYPRESS PARK RD UNIT C","GREENSBORO","NC",27407,36.0303182550001,-79.846289185,260,"3255 CYPRESS PARK RD UNIT C, GREENSBORO, NC, 27407","Match","Exact","3255 CYPRESS PARK RD, GREENSBORO, NC, 27407",131106356,"L"
513761,"3255 DOVER DR","BOULDER","CA",80305,NA,NA,261,"3255 DOVER DR, BOULDER, CA, 80305","No_Match",NA,NA,NA,NA
513762,"3255 DOVER DR","BOULDER","CO",80305,39.9871702550001,-105.254327839,262,"3255 DOVER DR, BOULDER, CO, 80305","Match","Exact","3255 DOVER DR, BOULDER, CO, 80305",188209557,"L"
513763,"3255 E 3RD ST","SILVER SPRINGS","NV",89429,39.353244008,-119.188318764,263,"3255 E 3RD ST, SILVER SPRINGS, NV, 89429","Match","Exact","3255 E 3RD ST, SILVER SPRINGS, NV, 89429",140338994,"L"
513764,"3255 FAIRGROVE TERRACE","ROCHESTER HILLS","MI",48309,42.6307208000001,-83.198186967,264,"3255 FAIRGROVE TERRACE, ROCHESTER HILLS, MI, 48309","Match","Exact","3255 FAIRGROVE TER, ROCHESTER HILLS, MI, 48309",69819354,"L"
513765,"3255 GOTHIC PLACE","COLORADO SPRINGS","CO",80917,38.8790454950001,-104.725108687,265,"3255 GOTHIC PLACE, COLORADO SPRINGS, CO, 80917","Match","Exact","3255 GOTHIC PL, COLORADO SPRINGS, CO, 80917",105522154,"L"
513766,"3255 HUELANI","HONOLULU","HI",96822,21.3207539810001,-157.809510881,266,"3255 HUELANI, HONOLULU, HI, 96822","Match","Non_Exact","3255 HUELANI DR, HONOLULU, HI, 96822",635724693,"R"
513767,"3255 LAUREL ST","INDIANAPOLIS","IN",46227,39.7189922750001,-86.136007851,267,"3255 LAUREL ST, INDIANAPOLIS, IN, 46227","Match","Exact","3255 LAUREL ST, INDIANAPOLIS, IN, 46227",108028945,"L"
513768,"3255 LIV MOOR","COLUMBUS","OH",43227,39.9386549430001,-82.907309743,268,"3255 LIV MOOR, COLUMBUS, OH, 43227","Match","Non_Exact","3255 LIV MOOR DR, COLUMBUS, OH, 43227",218647498,"R"
513769,"3255 LONGVIEW RD","MECHANICSBURG","PA",17055,40.1905619520001,-76.941269597,269,"3255 LONGVIEW RD, MECHANICSBURG, PA, 17055","Match","Exact","3255 LONGVIEW RD, MECHANICSBURG, PA, 17055",651598062,"L"
513770,"3255 LORIEN DRIVE","PINCKNEY","MI",48169,42.4399240320001,-83.880489246,270,"3255 LORIEN DRIVE, PINCKNEY, MI, 48169","Match","Exact","3255 LORIEN DR, PINCKNEY, MI, 48169",23555999,"R"
513771,"3255 LORIEN","PINCKNEY","MI",48116,NA,NA,271,"3255 LORIEN, PINCKNEY, MI, 48116","No_Match",NA,NA,NA,NA
513772,"3255 LORIEN","PINCKNEY","MI",48169,42.4399240320001,-83.880489246,272,"3255 LORIEN, PINCKNEY, MI, 48169","Match","Non_Exact","3255 LORIEN DR, PINCKNEY, MI, 48169",23555999,"R"
513773,"3255 MAGNOILIA AVENUE","LONG BEACH","CA",90806,33.816264851,-118.19807294,273,"3255 MAGNOILIA AVENUE, LONG BEACH, CA, 90806","Match","Non_Exact","3255 MAGNOLIA AVE, LONG BEACH, CA, 90806",141685754,"L"
513774,"3255 N 500 E","KENDALLVILLE","IN",46755,41.399416977,-85.32833952,274,"3255 N 500 E, KENDALLVILLE, IN, 46755","Match","Exact","3255 N 500 E, KENDALLVILLE, IN, 46755",6593928,"L"
513775,"3255 NE 184TH STREET APT 12218","NORTH MIAMI BEACH","FL",33160,NA,NA,275,"3255 NE 184TH STREET APT 12218, NORTH MIAMI BEACH, FL, 33160","No_Match",NA,NA,NA,NA
513776,"3255 NE 85TH AVENUE","PORTLAND","OR",97220,45.546135373,-122.575806697,276,"3255 NE 85TH AVENUE, PORTLAND, OR, 97220","Match","Exact","3255 NE 85TH AVE, PORTLAND, OR, 97220",157513238,"L"
513777,"3255 NORTH EASTMORELAND DRIVE","OREGON","OH",43616,NA,NA,277,"3255 NORTH EASTMORELAND DRIVE, OREGON, OH, 43616","No_Match",NA,NA,NA,NA
513778,"3255 NORTH OHIO ST","ARLINGTON","VA",22207,38.9018882940001,-77.152397793,278,"3255 NORTH OHIO ST, ARLINGTON, VA, 22207","Match","Exact","3255 N OHIO ST, ARLINGTON, VA, 22207",76466595,"R"
513779,"3255 NW 94TH AVE NUM 8067","CORAL SPRINGS","FL",33065,26.2711129570001,-80.2518833089999,279,"3255 NW 94TH AVE NUM 8067, CORAL SPRINGS, FL, 33065","Match","Non_Exact","3255 NW 94TH AVE, CORAL SPRINGS, FL, 33065",637060672,"L"
513780,"3255 NW 94TH AVE NUM 8711","CORAL SPRINGS","FL",33065,26.2711129570001,-80.2518833089999,280,"3255 NW 94TH AVE NUM 8711, CORAL SPRINGS, FL, 33065","Match","Non_Exact","3255 NW 94TH AVE, CORAL SPRINGS, FL, 33065",637060672,"L"
513781,"3255 PIONEER DRIVE","GREEN BAY","WI",54313,44.4765326890001,-88.1157467,281,"3255 PIONEER DRIVE, GREEN BAY, WI, 54313","Match","Exact","3255 PIONEER DR, GREEN BAY, WI, 54313",148097355,"L"
513782,"3255 POND RIDGE TRAIL","SNELLVILLE","GA",30078,33.844956675,-83.983621871,282,"3255 POND RIDGE TRAIL, SNELLVILLE, GA, 30078","Match","Exact","3255 POND RIDGE TRL, SNELLVILLE, GA, 30078",88948621,"R"
513783,"3255 REBEL RIDGE LANE","CULPEPER","VA",22701,38.3587054230001,-77.946354479,283,"3255 REBEL RIDGE LANE, CULPEPER, VA, 22701","Match","Exact","3255 REBEL RIDGE LN, CULPEPER, VA, 22701",629417408,"L"
513784,"3255 S DORSEY LANE UNIT 1046","TEMPE","AZ",85282,33.3935920340001,-111.917723957,284,"3255 S DORSEY LANE UNIT 1046, TEMPE, AZ, 85282","Match","Non_Exact","3255 S DORSEY LN, TEMPE, AZ, 85282",128922905,"L"
513785,"3255 S DORSEY LANE","TEMPE","AZ",85282,33.3935920340001,-111.917723957,285,"3255 S DORSEY LANE, TEMPE, AZ, 85282","Match","Exact","3255 S DORSEY LN, TEMPE, AZ, 85282",128922905,"L"
513786,"3255 S HUDSON ST","SEATTLE","WA",98118,47.5570460700001,-122.290420661,286,"3255 S HUDSON ST, SEATTLE, WA, 98118","Match","Exact","3255 S HUDSON ST, SEATTLE, WA, 98118",239763191,"R"
513787,"3255 S SEPULVEDA BLVD 302","LOS ANGELES","CA",90034,34.0235105400001,-118.425594433,287,"3255 S SEPULVEDA BLVD 302, LOS ANGELES, CA, 90034","Match","Non_Exact","3255 S SEPULVEDA BLVD, LOS ANGELES, CA, 90034",141573358,"R"
513788,"3255 SAINT ROSE PARKWAY SUITE 160","HENDERSON","NV",89074,35.9972880490001,-115.127811886,288,"3255 SAINT ROSE PARKWAY SUITE 160, HENDERSON, NV, 89074","Match","Non_Exact","3255 SAINT ROSE PKWY, HENDERSON, NV, 89052",650611516,"R"
513789,"3255 SKYVIEW DR","TALLAHASSEE","FL",32303,30.515447545,-84.346944607,289,"3255 SKYVIEW DR, TALLAHASSEE, FL, 32303","Match","Exact","3255 SKYVIEW DR, TALLAHASSEE, FL, 32303",82877593,"R"
513790,"3255 SUPERIOR AVE","EAST TROY","WI",53120,42.7893852660001,-88.422695942,290,"3255 SUPERIOR AVE, EAST TROY, WI, 53120","Match","Exact","3255 SUPERIOR AVE, EAST TROY, WI, 53120",53675868,"R"
513791,"3255 TIMUCUA CIRCLE","ORLANDO","FL",32837,28.3496334210001,-81.422944296,291,"3255 TIMUCUA CIRCLE, ORLANDO, FL, 32837","Match","Exact","3255 TIMUCUA CIR, ORLANDO, FL, 32837",94338679,"R"
513792,"3255 WEST HANOVER PARK DRIVE","WEST VALLEY CITY","UT",84119,40.71011614,-111.969142133,292,"3255 WEST HANOVER PARK DRIVE, WEST VALLEY CITY, UT, 84119","Match","Non_Exact","3255 HANOVER PARK DR, WEST VALLEY CITY, UT, 84119",176128367,"L"
513793,"3255 WILMINGTON RD","MONTGOMERY","AL",36105,32.3480977630001,-86.3010585119999,293,"3255 WILMINGTON RD, MONTGOMERY, AL, 36105","Match","Exact","3255 WILMINGTON RD, MONTGOMERY, AL, 36105",1544463,"L"
513794,"3255 WILMINGTON ROAD","MONTGOMERY","AL",36105,32.3480977630001,-86.3010585119999,294,"3255 WILMINGTON ROAD, MONTGOMERY, AL, 36105","Match","Exact","3255 WILMINGTON RD, MONTGOMERY, AL, 36105",1544463,"L"
513795,"3255 WILSHIRE BLVD STE 1717","LOS ANGELES","CA",90010,34.0617919690001,-118.293161793,295,"3255 WILSHIRE BLVD STE 1717, LOS ANGELES, CA, 90010","Match","Exact","3255 WILSHIRE BLVD, LOS ANGELES, CA, 90010",141604950,"R"
513796,"3255 WILSHIRE BLVD SUITE 1688","LOS ANGELES","CA",90010,34.0617919690001,-118.293161793,296,"3255 WILSHIRE BLVD SUITE 1688, LOS ANGELES, CA, 90010","Match","Exact","3255 WILSHIRE BLVD, LOS ANGELES, CA, 90010",141604950,"R"
513797,"3255 WILSHRIE BLVD STE 1717","LOS ANGELES","CA",90010,34.0617919690001,-118.293161793,297,"3255 WILSHRIE BLVD STE 1717, LOS ANGELES, CA, 90010","Match","Non_Exact","3255 WILSHIRE BLVD, LOS ANGELES, CA, 90010",141604950,"R"
513798,"3255 ZARTHAN AVE S","ST LOUIS PARK","MN",55416,44.944994265,-93.3543685989999,298,"3255 ZARTHAN AVE S, ST LOUIS PARK, MN, 55416","Match","Exact","3255 ZARTHAN AVE S, SAINT LOUIS PARK, MN, 55416",43625651,"L"
513799,"32551 JOSEPH LN","PHILOMATH","OR",97370,44.5213356400001,-123.42810792,299,"32551 JOSEPH LN, PHILOMATH, OR, 97370","Match","Exact","32551 JOSEPH LN, PHILOMATH, OR, 97370",155870528,"R"
513800,"32551 NESTLEWOOD","FARMINGTON","MI",48334,42.5082709960001,-83.372182031,300,"32551 NESTLEWOOD, FARMINGTON, MI, 48334","Match","Non_Exact","32551 NESTLEWOOD ST, FARMINGTON, MI, 48334",69775594,"L"
513801,"32557 COUNTY 30","LAPORTE","MN",56461,47.1933489420001,-94.6826542269999,301,"32557 COUNTY 30, LAPORTE, MN, 56461","Match","Exact","32557 COUNTY 30, LAPORTE, MN, 56461",608297083,"L"
513802,"3256 3256 HIGH SEA DR","GREENBACKVILLE","VA",23356,37.9893471240001,-75.425169007,302,"3256 3256 HIGH SEA DR, GREENBACKVILLE, VA, 23356","Match","Exact","3256 HIGH SEA DR, GREENBACKVILLE, VA, 23356",114572167,"L"
513803,"3256 4TH ROAD","BREMEN","IN",46506,41.419456655,-86.123085105,303,"3256 4TH ROAD, BREMEN, IN, 46506","Match","Exact","3256 4TH RD, BREMEN, IN, 46506",7640222,"L"
513804,"3256 BERRY DR","STUDIO CITY","CA",91604,34.1331155880001,-118.379766456,304,"3256 BERRY DR, STUDIO CITY, CA, 91604","Match","Exact","3256 BERRY DR, STUDIO CITY, CA, 91604",141566146,"R"
513805,"3256 BROWNS ISLAND CT","WEST SACRAMENTO","CA",95691,38.5373607330001,-121.564242957,305,"3256 BROWNS ISLAND CT, WEST SACRAMENTO, CA, 95691","Match","Exact","3256 BROWNS ISLAND CT, WEST SACRAMENTO, CA, 95691",67706568,"R"
513806,"3256 CARLOTTTA","MIDDLEBURG","FL",32068,30.1064841260001,-81.820931844,306,"3256 CARLOTTTA, MIDDLEBURG, FL, 32068","Match","Non_Exact","3256 CARLOTTA RD, MIDDLEBURG, FL, 32068",83835159,"L"
513807,"3256 CEDAR ROAD","BUYCK","MN",55771,47.9591548720001,-92.541882102,307,"3256 CEDAR ROAD, BUYCK, MN, 55771","Match","Exact","3256 CEDAR RD, BUYCK, MN, 55771",163184412,"R"
513808,"3256 CEDARBROOK","CLEVELAND HEIGHTS","OH",44118,41.49964156,-81.562814862,308,"3256 CEDARBROOK, CLEVELAND HEIGHTS, OH, 44118","Match","Non_Exact","3256 CEDARBROOK RD, CLEVELAND HEIGHTS, OH, 44118",61123314,"R"
513809,"3256 COUNTY ROAD 17","SAWYERVILLE","AL",36776,32.7220361780001,-87.739983436,309,"3256 COUNTY ROAD 17, SAWYERVILLE, AL, 36776","Match","Exact","3256 CO RD 17, SAWYERVILLE, AL, 36776",39003844,"R"
513810,"3256 DREW AVE N","ROBBINSDALE","MN",55422,45.0146634540001,-93.3260774249999,310,"3256 DREW AVE N, ROBBINSDALE, MN, 55422","Match","Exact","3256 DREW AVE N, ROBBINSDALE, MN, 55422",43832458,"R"
513811,"3256 E SCARBOROUGH","CLEVELAND HEIGHTS","OH",44118,41.4941420920001,-81.5629493769999,311,"3256 E SCARBOROUGH, CLEVELAND HEIGHTS, OH, 44118","Match","Non_Exact","3256 E SCARBORUGH RD, CLEVELAND HEIGHTS, OH, 44118",61125240,"R"
513812,"3256 FIREBUSH AVENUE","ROSAMOND","CA",93560,34.8516472040001,-118.190293055,312,"3256 FIREBUSH AVENUE, ROSAMOND, CA, 93560","Match","Exact","3256 FIREBUSH AVE, ROSAMOND, CA, 93560",109572697,"L"
513813,"3256 HARDISTY AVENUE","CINCINNATI","OH",45208,39.1315416470001,-84.4255565839999,313,"3256 HARDISTY AVENUE, CINCINNATI, OH, 45208","Match","Exact","3256 HARDISTY AVE, CINCINNATI, OH, 45208",103933215,"L"
513814,"3256 HOLDEN DRIVE","NEW LEXINGTON","OH",43764,39.737317735,-82.220194195,314,"3256 HOLDEN DRIVE, NEW LEXINGTON, OH, 43764","Match","Non_Exact","3256 HOLDEN DR NE, NEW LEXINGTON, OH, 43764",37366129,"R"
513815,"3256 KITTY DUVALL DRIVE","ANNAPOLIS","MD",21402,38.93026596,-76.477738104,315,"3256 KITTY DUVALL DRIVE, ANNAPOLIS, MD, 21402","Match","Non_Exact","3256 KITTY DUVALL DR, ANNAPOLIS, MD, 21403",68193526,"R"
513816,"3256 LOCKRIDGE","KANSAS CITY","MO",64128,39.075705557,-94.545148553,316,"3256 LOCKRIDGE, KANSAS CITY, MO, 64128","Match","Non_Exact","3256 LOCKRIDGE AVE, KANSAS CITY, MO, 64128",91450221,"L"
513817,"3256 MERCER UNIVERSITY/UNIT 116","CHAMBLEE","GA",30341,NA,NA,317,"3256 MERCER UNIVERSITY/UNIT 116, CHAMBLEE, GA, 30341","No_Match",NA,NA,NA,NA
513818,"3256 MILLWOOD TRAIL SE","SMYRNA","GA",30080,33.8713807230001,-84.504557338,318,"3256 MILLWOOD TRAIL SE, SMYRNA, GA, 30080","Match","Exact","3256 MILLWOOD TRL SE, SMYRNA, GA, 30080",17226606,"R"
513819,"3256 MOSSER ROAD","MCHENRY","MD",21541,39.5675803240001,-79.299513417,319,"3256 MOSSER ROAD, MCHENRY, MD, 21541","Match","Non_Exact","3256 MOSSER RD, MC HENRY, MD, 21541",74190624,"L"
513820,"3256 MOUNT PISGAH CEMETERY RD","CONWAY","SC",29526,33.9194951010001,-79.05611981,320,"3256 MOUNT PISGAH CEMETERY RD, CONWAY, SC, 29526","Match","Exact","3256 MOUNT PISGAH CEMETERY RD, CONWAY, SC, 29526",647276614,"L"
513821,"3256 N 146TH AVENUE","GOODYEAR","AZ",85395,33.484014157,-112.373435324,321,"3256 N 146TH AVENUE, GOODYEAR, AZ, 85395","Match","Exact","3256 N 146TH AVE, GOODYEAR, AZ, 85395",128425882,"R"
513822,"3256 N RICHARDS STREET","MILWAUKEE","WI",53212,43.077826325,-87.907599934,322,"3256 N RICHARDS STREET, MILWAUKEE, WI, 53212","Match","Exact","3256 N RICHARDS ST, MILWAUKEE, WI, 53212",77743339,"R"
513823,"3256 NORTHAVEN RD","DALLAS","TX",75229,32.9021225870001,-96.8704290649999,323,"3256 NORTHAVEN RD, DALLAS, TX, 75229","Match","Exact","3256 NORTHAVEN RD, DALLAS, TX, 75229",103206566,"R"
513824,"3256 NW 54TH A 204","SEATTLE","CA",98107,NA,NA,324,"3256 NW 54TH A 204, SEATTLE, CA, 98107","No_Match",NA,NA,NA,NA
513825,"3256 ROBERTSON DR","BEAVERTON","MI",48612,43.8927198120001,-84.4982845219999,325,"3256 ROBERTSON DR, BEAVERTON, MI, 48612","Match","Exact","3256 ROBERTSON DR, BEAVERTON, MI, 48612",110422866,"L"
513826,"3256 ROLLING HILLS LANE","APOPKA","FL",32712,28.7392936740001,-81.537402437,326,"3256 ROLLING HILLS LANE, APOPKA, FL, 32712","Match","Exact","3256 ROLLING HILLS LN, APOPKA, FL, 32712",629932396,"L"
513827,"3256 ROSEDALE DRIVE","ARNOLD","MO",63010,38.422291194,-90.393759672,327,"3256 ROSEDALE DRIVE, ARNOLD, MO, 63010","Match","Exact","3256 ROSEDALE DR, ARNOLD, MO, 63010",636524102,"R"
513828,"3256 RUCKLE ST","INDIANAPOLIS","IN",46205,39.815033542,-86.148483921,328,"3256 RUCKLE ST, INDIANAPOLIS, IN, 46205","Match","Exact","3256 RUCKLE ST, INDIANAPOLIS, IN, 46205",107989150,"L"
513829,"3256 SILVER STREET","HINESBURG","VT",5461,44.280892893,-73.1089546969999,329,"3256 SILVER STREET, HINESBURG, VT, 5461","Match","Exact","3256 SILVER ST, HINESBURG, VT, 05461",135859888,"L"
513830,"3256 SIR SCOTT CT","LAWRENCEVILLE","GA",30044,33.9085756040001,-84.0867473019999,330,"3256 SIR SCOTT CT, LAWRENCEVILLE, GA, 30044","Match","Non_Exact","3256 SIR SCOTT CT NW, LAWRENCEVILLE, GA, 30044",88964069,"R"
513831,"3256 SOUTH 106TH STREET","WEST ALLIS","WI",53227,42.9850369810001,-88.044317943,331,"3256 SOUTH 106TH STREET, WEST ALLIS, WI, 53227","Match","Exact","3256 S 106TH ST, WEST ALLIS, WI, 53227",77745423,"L"
513832,"3256 THOMPSON ST","MUSKEGON","MI",49441,43.219383189,-86.324126408,332,"3256 THOMPSON ST, MUSKEGON, MI, 49441","Match","Non_Exact","3256 THOMPSON AVE, MUSKEGON, MI, 49441",77673157,"R"
513833,"3256 W BELLE PLAINE AVE 1","CHICAGO","IL",60618,41.9557229070001,-87.7097800289999,333,"3256 W BELLE PLAINE AVE 1, CHICAGO, IL, 60618","Match","Non_Exact","3256 W BELLE PLAINE AVE, CHICAGO, IL, 60618",111757131,"R"
513834,"3256 WARREN DR","WATERFORD","MI",48329,42.6851183270001,-83.385144458,334,"3256 WARREN DR, WATERFORD, MI, 48329","Match","Exact","3256 WARREN DR, WATERFORD, MI, 48329",69817373,"R"
513835,"3256 WEATHERED WOOD WAY","REX","GA",30273,33.5635453310001,-84.283615304,335,"3256 WEATHERED WOOD WAY, REX, GA, 30273","Match","Exact","3256 WEATHERED WOOD WAY, REX, GA, 30273",23325057,"L"
513836,"3256 WEST LAKE MARY BLVD SUITE 1100","LAKE MARY","FL",32746,28.756135941,-81.335340834,336,"3256 WEST LAKE MARY BLVD SUITE 1100, LAKE MARY, FL, 32746","Match","Exact","3256 W LAKE MARY BLVD, LAKE MARY, FL, 32746",629621206,"L"
513837,"3256 WILCOX","MUSKEGON","MI",49441,43.2208338780001,-86.324124011,337,"3256 WILCOX, MUSKEGON, MI, 49441","Match","Non_Exact","3256 WILCOX AVE, MUSKEGON, MI, 49441",77668499,"R"
513838,"32561 NEWELL STREET","PARKERSBURG","IA",50665,42.5747765790001,-92.771189482,338,"32561 NEWELL STREET, PARKERSBURG, IA, 50665","Match","Non_Exact","32561 NEWELL AVE, PARKERSBURG, IA, 50665",651746408,"L"
513839,"32561 PILA DEGRACIA","SAN JUAN CAPISTRANO","CA",92675,33.489855778,-117.668265659,339,"32561 PILA DEGRACIA, SAN JUAN CAPISTRANO, CA, 92675","Match","Exact","32561 PILA DEGRACIA, SAN JUAN CAPISTRANO, CA, 92675",624976925,"L"
513840,"32565 B GOLDEN LANTERN 354","DANA POINT","CA",92629,33.48875322,-117.698158777,340,"32565 B GOLDEN LANTERN 354, DANA POINT, CA, 92629","Match","Non_Exact","32565 GOLDEN LANTERN ST, DANA POINT, CA, 92629",640226566,"R"
513841,"32565 B GOLDEN LANTERN ST SUITE 2","DANA POINT","CA",92629,33.48875322,-117.698158777,341,"32565 B GOLDEN LANTERN ST SUITE 2, DANA POINT, CA, 92629","Match","Exact","32565 GOLDEN LANTERN ST, DANA POINT, CA, 92629",640226566,"R"
513842,"32565 SW THREE DEER LANE","SHERIDAN","OR",97378,45.1287737970001,-123.447429385,342,"32565 SW THREE DEER LANE, SHERIDAN, OR, 97378","Match","Exact","32565 THREE DEER LN, SHERIDAN, OR, 97378",156506263,"R"
513843,"32565-B GOLDEN LANTERN ST 118","DANA POINT","CA",92629,33.488763116,-117.698158421,343,"32565-B GOLDEN LANTERN ST 118, DANA POINT, CA, 92629","Match","Exact","32565 GOLDEN LANTERN ST, DANA POINT, CA, 92629",640226566,"R"
513844,"32565-B GOLDEN LANTERN STREET 185","DANA POINT","CA",92629,33.488763116,-117.698158421,344,"32565-B GOLDEN LANTERN STREET 185, DANA POINT, CA, 92629","Match","Exact","32565 GOLDEN LANTERN ST, DANA POINT, CA, 92629",640226566,"R"
513845,"32565-B GOLDEN LANTERN STREET 185","DANA POINT","CA",92926,33.488763116,-117.698158421,345,"32565-B GOLDEN LANTERN STREET 185, DANA POINT, CA, 92926","Match","Non_Exact","32565 GOLDEN LANTERN ST, DANA POINT, CA, 92629",640226566,"R"
513846,"32567 335TH STREET","WAUKEE","IA",50263,41.5571276650001,-93.854278554,346,"32567 335TH STREET, WAUKEE, IA, 50263","Match","Exact","32567 335TH ST, WAUKEE, IA, 50263",653518212,"L"
513847,"3257 7TH ST","SARASOT","FL",34237,27.341810937,-82.504000398,347,"3257 7TH ST, SARASOT, FL, 34237","Match","Non_Exact","3257 7TH ST, SARASOTA, FL, 34237",16413894,"L"
513848,"3257 7TH ST","SARASOTA","FL",34237,27.341810937,-82.504000398,348,"3257 7TH ST, SARASOTA, FL, 34237","Match","Exact","3257 7TH ST, SARASOTA, FL, 34237",16413894,"L"
513849,"3257 BARONS LANE","SAN RAMON","CA",94582,37.7488625070001,-121.894896727,349,"3257 BARONS LANE, SAN RAMON, CA, 94582","Match","Exact","3257 BARONS LN, SAN RAMON, CA, 94582",629319797,"R"
513850,"3257 BERT KOUNS APARTMENT 20105","SHREVEPORT","LA",71118,NA,NA,350,"3257 BERT KOUNS APARTMENT 20105, SHREVEPORT, LA, 71118","No_Match",NA,NA,NA,NA
513851,"3257 BERT KOUNS INDUSTRIAL APT15205","SHREVEPORT","LA",71118,32.402116474,-93.827466762,351,"3257 BERT KOUNS INDUSTRIAL APT15205, SHREVEPORT, LA, 71118","Match","Non_Exact","3257 BERT KOUNS INDUSTRIAL LOOP, SHREVEPORT, LA, 71118",57487771,"L"
513852,"3257 BERT KOURS INDUSTRIAL LOOP 101","SHREVEPORT","LA",71270,NA,NA,352,"3257 BERT KOURS INDUSTRIAL LOOP 101, SHREVEPORT, LA, 71270","No_Match",NA,NA,NA,NA
513853,"3257 CARRIAGE DR","PALM HARBOR","FL",34684,28.0988324150001,-82.738222927,353,"3257 CARRIAGE DR, PALM HARBOR, FL, 34684","Match","Exact","3257 CARRIAGE DR, PALM HARBOR, FL, 34684",124679601,"R"
513854,"3257 CASTLETON STREET","GROVE CITY","OH",43123,39.897048414,-83.072744615,354,"3257 CASTLETON STREET, GROVE CITY, OH, 43123","Match","Exact","3257 CASTLETON ST, GROVE CITY, OH, 43123",135626967,"R"
513855,"3257 CREEK TRACE E","POWDER SPRINGS","GA",30127,33.8727501070001,-84.718599448,355,"3257 CREEK TRACE E, POWDER SPRINGS, GA, 30127","Match","Exact","3257 CREEK TRCE E, POWDER SPGS, GA, 30127",614186912,"R"
513856,"3257 DESERETTE LN","COLUMBUS","OH",43224,40.034746802,-82.9485906319999,356,"3257 DESERETTE LN, COLUMBUS, OH, 43224","Match","Exact","3257 DESERETTE LN, COLUMBUS, OH, 43224",218657328,"R"
513857,"3257 EAST GERONIMO COURT","GILBERT","AZ",85295,33.2939226460001,-111.719439487,357,"3257 EAST GERONIMO COURT, GILBERT, AZ, 85295","Match","Exact","3257 E GERONIMO CT, GILBERT, AZ, 85295",128852721,"R"
513858,"3257 KEMPF ST","LEMON GROVE","CA",91945,32.7412032550001,-117.026334826,358,"3257 KEMPF ST, LEMON GROVE, CA, 91945","Match","Exact","3257 KEMPF ST, LEMON GROVE, CA, 91945",195359911,"R"
513859,"3257 N SOUTHPORT AVENUE","CHICAGO","IL",60657,41.9410190510001,-87.663842108,359,"3257 N SOUTHPORT AVENUE, CHICAGO, IL, 60657","Match","Exact","3257 N SOUTHPORT AVE, CHICAGO, IL, 60657",111762294,"R"
513860,"3257 PHOENIX","MERCED","CA",95348,37.3226016350001,-120.49963064,360,"3257 PHOENIX, MERCED, CA, 95348","Match","Non_Exact","3257 PHOENIX WAY, MERCED, CA, 95348",125347208,"R"
513861,"3257 S HUNTER OAK WAY","WEST VALLEY CITY","UT",84128,40.701001649,-112.057811918,361,"3257 S HUNTER OAK WAY, WEST VALLEY CITY, UT, 84128","Match","Exact","3257 HUNTER OAK WAY, WEST VALLEY CITY, UT, 84128",176156873,"R"
513862,"3257 S STREET","LINCOLN","NE",68524,NA,NA,362,"3257 S STREET, LINCOLN, NE, 68524","Tie",NA,NA,NA,NA
513863,"3257 SARILLE ST","ATLANTA","GA",30331,NA,NA,363,"3257 SARILLE ST, ATLANTA, GA, 30331","No_Match",NA,NA,NA,NA
513864,"3257 SWEET BUCKEYE DR","MARIETTA","GA",30066,34.031761171,-84.491521967,364,"3257 SWEET BUCKEYE DR, MARIETTA, GA, 30066","Match","Exact","3257 SWEET BUCKEYE DR, MARIETTA, GA, 30066",17194592,"R"
513865,"3257 W IVANWALD DR","REELSVILLE","IN",46171,39.4974902220001,-86.911825471,365,"3257 W IVANWALD DR, REELSVILLE, IN, 46171","Match","Exact","3257 W IVANWALD DR, REELSVILLE, IN, 46171",635529243,"L"
513866,"3257 WYNDHAM PARK WAY","DECATUR","GA",30034,33.689208186,-84.2165297129999,366,"3257 WYNDHAM PARK WAY, DECATUR, GA, 30034","Match","Exact","3257 WYNDHAM PARK WAY, DECATUR, GA, 30034",23387909,"R"
513867,"32570 JENSEN LN","WILDOMAR","CA",92595,33.6082334870001,-117.282257839,367,"32570 JENSEN LN, WILDOMAR, CA, 92595","Match","Exact","32570 JENSEN LN, WILDOMAR, CA, 92595",608994208,"R"
513868,"32579 BRETON DR","WINCHESTER","CA",92596,33.5902716520001,-117.090451828,368,"32579 BRETON DR, WINCHESTER, CA, 92596","Match","Exact","32579 BRETON DR, WINCHESTER, CA, 92596",609000044,"R"
513869,"3258 230TH STREET","ROSE HILL","IA",52586,41.32200842,-92.438330688,369,"3258 230TH STREET, ROSE HILL, IA, 52586","Match","Exact","3258 230TH ST, ROSE HILL, IA, 52586",89380221,"R"
513870,"3258 55TH STREET 2FL","WOODSIDE","NY",11377,NA,NA,370,"3258 55TH STREET 2FL, WOODSIDE, NY, 11377","No_Match",NA,NA,NA,NA
513871,"3258 ALGONQUIN PKWY","TOLEDO","OH",43606,41.6806015510001,-83.599314362,371,"3258 ALGONQUIN PKWY, TOLEDO, OH, 43606","Match","Exact","3258 ALGONQUIN PKWY, TOLEDO, OH, 43606",33933408,"R"
513872,"3258 BETHANY LANE","ELLICOTT CITY","MD",21042,39.2813740220001,-76.859385392,372,"3258 BETHANY LANE, ELLICOTT CITY, MD, 21042","Match","Exact","3258 BETHANY LN, ELLICOTT CITY, MD, 21042",624703169,"R"
513873,"3258 BETHANY LANE","ELLICOTT CITY","MD",21402,39.2813740220001,-76.859385392,373,"3258 BETHANY LANE, ELLICOTT CITY, MD, 21402","Match","Non_Exact","3258 BETHANY LN, ELLICOTT CITY, MD, 21042",624703169,"R"
513874,"3258 BOULDER BROOK DR","LITHONIA","GA",30038,33.6888061980001,-84.125605385,374,"3258 BOULDER BROOK DR, LITHONIA, GA, 30038","Match","Exact","3258 BOULDER BROOK DR, LITHONIA, GA, 30038",23376237,"L"
513875,"3258 BROAD ST","DEXTER","MI",48130,42.338853666,-83.8874849219999,375,"3258 BROAD ST, DEXTER, MI, 48130","Match","Exact","3258 BROAD ST, DEXTER, MI, 48130",26010569,"R"
513876,"3258 CLUB DRIVE","MACON","GA",31217,32.865842496,-83.562096593,376,"3258 CLUB DRIVE, MACON, GA, 31217","Match","Exact","3258 CLUB DR, MACON, GA, 31217",81064943,"L"
513877,"3258 COOLODGE HWY","ROYAL OAK","MI",48073,42.51485524,-83.1873712519999,377,"3258 COOLODGE HWY, ROYAL OAK, MI, 48073","Match","Non_Exact","3258 COOLIDGE HWY, ROYAL OAK, MI, 48073",630329498,"R"
513878,"3258 E TUMBLER ROAD","ATOKA","OK",74525,NA,NA,378,"3258 E TUMBLER ROAD, ATOKA, OK, 74525","No_Match",NA,NA,NA,NA
513879,"3258 EAST HILL RD","FRIENDSHIP","NY",14739,42.142737803,-78.0890005689999,379,"3258 EAST HILL RD, FRIENDSHIP, NY, 14739","Match","Exact","3258 E HILL RD, FRIENDSHIP, NY, 14739",641263329,"R"
513880,"3258 ESCOTT AVE","TOLEDO","OH",43614,41.5868970810001,-83.6182325569999,380,"3258 ESCOTT AVE, TOLEDO, OH, 43614","Match","Exact","3258 ESCOTT AVE, TOLEDO, OH, 43614",33936917,"R"
513881,"3258 FERNDELL DR","WINTER PARK","FL",32792,28.6183597460001,-81.306455194,381,"3258 FERNDELL DR, WINTER PARK, FL, 32792","Match","Exact","3258 FERNDELL DR, WINTER PARK, FL, 32792",93745045,"R"
513882,"3258 GAYLORD AVENUE","PITTSBURGH","PA",15216,40.388591068,-80.040028552,382,"3258 GAYLORD AVENUE, PITTSBURGH, PA, 15216","Match","Exact","3258 GAYLORD AVE, PITTSBURGH, PA, 15216",51632270,"R"
513883,"3258 HANLEY","HAMTRAMCK","MI",48212,42.3941402410001,-83.0502607239999,383,"3258 HANLEY, HAMTRAMCK, MI, 48212","Match","Non_Exact","3258 HANLEY ST, HAMTRAMCK, MI, 48212",95465359,"R"
513884,"3258 HIGHWAY 172","DURANGO","CO",81303,37.198493033,-107.776962305,384,"3258 HIGHWAY 172, DURANGO, CO, 81303","Match","Exact","3258 HWY 172, DURANGO, CO, 81303",91699961,"R"
513885,"3258 HIGHWAY 172","ELBERT","CO",80106,NA,NA,385,"3258 HIGHWAY 172, ELBERT, CO, 80106","No_Match",NA,NA,NA,NA
513886,"3258 I STREET","WASHOUGAL","WA",98671,45.582877362,-122.335406285,386,"3258 I STREET, WASHOUGAL, WA, 98671","Match","Exact","3258 I ST, WASHOUGAL, WA, 98671",158367096,"R"
513887,"3258 KOLL RD","JENNINGS","LA",70546,30.2899011920001,-92.661102646,387,"3258 KOLL RD, JENNINGS, LA, 70546","Match","Exact","3258 KOLL RD, JENNINGS, LA, 70546",88221631,"L"
513888,"3258 LANIER DR","BATON ROUGE","LA",70814,30.480048583,-91.109116775,388,"3258 LANIER DR, BATON ROUGE, LA, 70814","Match","Exact","3258 LANIER DR, BATON ROUGE, LA, 70814",637547044,"R"
513889,"3258 LANIER","BATON ROUGE","LA",70814,30.480048583,-91.109116775,389,"3258 LANIER, BATON ROUGE, LA, 70814","Match","Non_Exact","3258 LANIER DR, BATON ROUGE, LA, 70814",637547044,"R"
513890,"3258 LINDAHL ROAD","DULUTH","MN",55810,46.745875289,-92.259138668,390,"3258 LINDAHL ROAD, DULUTH, MN, 55810","Match","Exact","3258 LINDAHL RD, DULUTH, MN, 55810",163208428,"R"
513891,"3258 MCCLENDON ROAD","BATON ROUGE","LA",70810,30.314984538,-91.122669746,391,"3258 MCCLENDON ROAD, BATON ROUGE, LA, 70810","Match","Non_Exact","3258 MCCLENDON CT, BATON ROUGE, LA, 70810",92211982,"R"
513892,"3258 MINNOW CREEK DRIVE","HERNANDO BEACH","FL",34607,28.500400676,-82.660290904,392,"3258 MINNOW CREEK DRIVE, HERNANDO BEACH, FL, 34607","Match","Exact","3258 MINNOW CREEK DR, HERNANDO BEACH, FL, 34607",85452041,"R"
513893,"3258 N CHAMBERLAIN BLVD","NORTH PORT","FL",34286,NA,NA,393,"3258 N CHAMBERLAIN BLVD, NORTH PORT, FL, 34286","Tie",NA,NA,NA,NA
513894,"3258 NATOMA WAY","ORLANDO","FL",32825,28.503855093,-81.2371319659999,394,"3258 NATOMA WAY, ORLANDO, FL, 32825","Match","Exact","3258 NATOMA WAY, ORLANDO, FL, 32825",94396961,"R"
513895,"3258 NORTH HASKELL AVE","DALLAS","TX",75204,32.8108677210001,-96.796200031,395,"3258 NORTH HASKELL AVE, DALLAS, TX, 75204","Match","Exact","3258 N HASKELL AVE, DALLAS, TX, 75204",619141558,"R"
513896,"3258 QUEENSTOWN DRIVE","MOUNT RAINIER","MD",20712,38.951869001,-76.963958174,396,"3258 QUEENSTOWN DRIVE, MOUNT RAINIER, MD, 20712","Match","Exact","3258 QUEENSTOWN DR, MOUNT RAINIER, MD, 20712",76391058,"L"
513897,"3258 REX AVE","SAINT LOUIS","MO",63114,38.7144205820001,-90.366027993,397,"3258 REX AVE, SAINT LOUIS, MO, 63114","Match","Exact","3258 REX AVE, SAINT LOUIS, MO, 63114",100120771,"R"
513898,"3258 S AVENUE","COLUMBUS","OH",43207,39.896438973,-82.97722119,398,"3258 S AVENUE, COLUMBUS, OH, 43207","Match","Exact","3258 S AVE, COLUMBUS, OH, 43207",218643634,"R"
513899,"3258 S LOWE","CHICAGO","IL",60616,41.8352004590001,-87.642560642,399,"3258 S LOWE, CHICAGO, IL, 60616","Match","Non_Exact","3258 S LOWE AVE, CHICAGO, IL, 60616",111828290,"R"
513900,"3258 S PINE ISLAND RD","BEAUMONT","TX",77713,30.0456158150001,-94.256108662,400,"3258 S PINE ISLAND RD, BEAUMONT, TX, 77713","Match","Exact","3258 S PINE ISLAND RD, BEAUMONT, TX, 77713",73897069,"R"
513901,"3258 SOUTHEAST RIVER VISTA DRIVE","PORT SAINT LUCIE","FL",34952,27.248004168,-80.3186259349999,401,"3258 SOUTHEAST RIVER VISTA DRIVE, PORT SAINT LUCIE, FL, 34952","Match","Exact","3258 SE RIVER VISTA DR, PORT ST LUCIE, FL, 34952",640919251,"L"
513902,"3258 SPRING LAKE OVERLOOK","LITHONIA","GA",30038,33.684711753,-84.140995956,402,"3258 SPRING LAKE OVERLOOK, LITHONIA, GA, 30038","Match","Exact","3258 SPRING LAKE OVERLOOK, LITHONIA, GA, 30038",23396685,"R"
513903,"3258 VALLEY LANE S","COLUMBUS","OH",43231,40.082222829,-82.931269405,403,"3258 VALLEY LANE S, COLUMBUS, OH, 43231","Match","Exact","3258 VALLEY LN S, COLUMBUS, OH, 43231",135588266,"L"
513904,"3258 VALLEY PIKE","WINCHESTER","VA",22602,39.1370025590001,-78.190705507,404,"3258 VALLEY PIKE, WINCHESTER, VA, 22602","Match","Exact","3258 VALLEY PIKE, WINCHESTER, VA, 22602",55597330,"R"
513905,"3258 WEST BEEBE CAPPS EXPRESSWAY","SEARCY","AR",72143,NA,NA,405,"3258 WEST BEEBE CAPPS EXPRESSWAY, SEARCY, AR, 72143","No_Match",NA,NA,NA,NA
513906,"32581 MEADOW MOUNTAIN ROAD","EVERGREEN","CO",80439,39.6914180000001,-105.370839659,406,"32581 MEADOW MOUNTAIN ROAD, EVERGREEN, CO, 80439","Match","Exact","32581 MEADOW MOUNTAIN RD, EVERGREEN, CO, 80439",177274788,"R"
513907,"32583 SNOWSHOE ROAD","EVERGREEN","CO",80439,39.6053376470001,-105.369997229,407,"32583 SNOWSHOE ROAD, EVERGREEN, CO, 80439","Match","Exact","32583 SNOWSHOE RD, EVERGREEN, CO, 80439",638776038,"R"
513908,"32584 GALATINA STREET","TEMECULA","CA",92592,33.490819881,-117.090764697,408,"32584 GALATINA STREET, TEMECULA, CA, 92592","Match","Exact","32584 GALATINA ST, TEMECULA, CA, 92592",194871247,"L"
513909,"32585 NOTTINGHAM COURT","LINDSTROM","MN",55045,45.4189136150001,-92.836491582,409,"32585 NOTTINGHAM COURT, LINDSTROM, MN, 55045","Match","Exact","32585 NOTTINGHAM CT, LINDSTROM, MN, 55045",97593016,"R"
513910,"3259 BARBARA CIRCLE","RENO","NV",89503,39.5277460890001,-119.858481164,410,"3259 BARBARA CIRCLE, RENO, NV, 89503","Match","Exact","3259 BARBARA CIR, RENO, NV, 89503",640023656,"L"
513911,"3259 BRAMSON PLACE","SAN DIEGO","CA",92104,32.75428263,-117.122866117,411,"3259 BRAMSON PLACE, SAN DIEGO, CA, 92104","Match","Exact","3259 BRAMSON PL, SAN DIEGO, CA, 92104",195345776,"R"
513912,"3259 EMANUEL DRIVE","LAKE WALES","FL",33898,27.95560249,-81.535477826,412,"3259 EMANUEL DRIVE, LAKE WALES, FL, 33898","Match","Exact","3259 EMANUEL DR, LAKE WALES, FL, 33898",104864239,"L"
513913,"3259 FANONE DR","PORT HURON","MI",48060,43.0015227820001,-82.507064398,413,"3259 FANONE DR, PORT HURON, MI, 48060","Match","Exact","3259 FANONE DR, PORT HURON, MI, 48060",110981451,"L"
513914,"3259 FRED CARTER RD","ODUM","GA",31555,31.8009755310001,-82.098160787,414,"3259 FRED CARTER RD, ODUM, GA, 31555","Match","Exact","3259 FRED CARTER RD, ODUM, GA, 31555",636376666,"L"
513915,"3259 GARCIA DRIVE","TALLAHASSEE","FL",32309,30.505773859,-84.220055067,415,"3259 GARCIA DRIVE, TALLAHASSEE, FL, 32309","Match","Exact","3259 GARCIA DR, TALLAHASSEE, FL, 32309",82859746,"L"
513916,"3259 GRASSLAND HILLS RD","JASPER","IN",47546,38.417793438,-86.956714097,416,"3259 GRASSLAND HILLS RD, JASPER, IN, 47546","Match","Exact","3259 GRASSLAND HILLS RD, JASPER, IN, 47546",7880252,"L"
513917,"3259 HOLDREGE ST  ROOM 10","LINCOLN","NE",68503,40.8280147770001,-96.673779826,417,"3259 HOLDREGE ST  ROOM 10, LINCOLN, NE, 68503","Match","Exact","3259 HOLDREGE ST, LINCOLN, NE, 68503",28254094,"R"
513918,"3259 HOLDREGE ST  ROOM 7","LINCOLN","NE",68503,40.8280147770001,-96.673779826,418,"3259 HOLDREGE ST  ROOM 7, LINCOLN, NE, 68503","Match","Exact","3259 HOLDREGE ST, LINCOLN, NE, 68503",28254094,"R"
513919,"3259 HYATT COURT","SAINT PETERS","MO",63303,38.748691588,-90.5663924949999,419,"3259 HYATT COURT, SAINT PETERS, MO, 63303","Match","Exact","3259 HYATT CT, SAINT PETERS, MO, 63303",100054431,"R"
513920,"3259 HYATT COURT","ST. PETERS","MO",63303,38.748691588,-90.5663924949999,420,"3259 HYATT COURT, ST. PETERS, MO, 63303","Match","Exact","3259 HYATT CT, SAINT PETERS, MO, 63303",100054431,"R"
513921,"3259 JUNGERS CT","HELENA","MT",59602,46.623885795,-111.921551369,421,"3259 JUNGERS CT, HELENA, MT, 59602","Match","Exact","3259 JUNGERS CT, HELENA, MT, 59602",633532597,"R"
513922,"3259 KNIGHTS BRIDGE RD","SAN JOSE","CA",95132,37.4092567530001,-121.856131434,422,"3259 KNIGHTS BRIDGE RD, SAN JOSE, CA, 95132","Match","Exact","3259 KNIGHTS BRIDGE RD, SAN JOSE, CA, 95132",122963797,"L"
513923,"3259 KOAPAKA ST STE B","HONOLULU","HI",96819,21.335734486,-157.913349136,423,"3259 KOAPAKA ST STE B, HONOLULU, HI, 96819","Match","Exact","3259 KOAPAKA ST, HONOLULU, HI, 96819",616636367,"L"
513924,"3259 LAPP LANE","NAPERVILLE","IL",60564,41.7048020880001,-88.218317783,424,"3259 LAPP LANE, NAPERVILLE, IL, 60564","Match","Exact","3259 LAPP LN, NAPERVILLE, IL, 60564",111618614,"L"
513925,"3259 LEE DRIVE","BUFORD","GA",30518,34.153622,-83.978713883,425,"3259 LEE DRIVE, BUFORD, GA, 30518","Match","Exact","3259 LEE DR, BUFORD, GA, 30518",622527184,"R"
513926,"3259 PALM TREE DR","STONECREST","GA",30038,33.690782476,-84.178470278,426,"3259 PALM TREE DR, STONECREST, GA, 30038","Match","Exact","3259 PALM TREE DR, STONECREST, GA, 30038",23383357,"R"
513927,"3259 POLO DRIVE","GULFSTREAM","FL",33483,26.495111821,-80.0559642809999,427,"3259 POLO DRIVE, GULFSTREAM, FL, 33483","Match","Non_Exact","3259 POLO DR, GULF STREAM, FL, 33483",115297902,"R"
513928,"3259 PROGRESS DR","ORLANDO","FL",32826,28.588451025,-81.199081586,428,"3259 PROGRESS DR, ORLANDO, FL, 32826","Match","Exact","3259 PROGRESS DR, ORLANDO, FL, 32826",94312858,"R"
513929,"3259 SABAL SPRINGS BLVD","NORTH FORT MYERS","FL",33917,26.719267835,-81.900406787,429,"3259 SABAL SPRINGS BLVD, NORTH FORT MYERS, FL, 33917","Match","Exact","3259 SABAL SPRINGS BLVD, N FORT MYERS, FL, 33917",118050850,"L"
513930,"3259 SNOW PARK LN E","MEMPHIS","TN",38119,35.0594230770001,-89.798605629,430,"3259 SNOW PARK LN E, MEMPHIS, TN, 38119","Match","Exact","3259 SNOW PARK LN E, MEMPHIS, TN, 38119",643443823,"L"
513931,"3259 SOUTH 675 WEST","BOUNTIFUL","UT",84010,40.854110523,-111.897522029,431,"3259 SOUTH 675 WEST, BOUNTIFUL, UT, 84010","Match","Exact","3259 S 675 W, BOUNTIFUL, UT, 84010",229353950,"L"
513932,"3259 SUNDANCE CIRCLE","NAPLES","FL",34109,26.2387802760001,-81.7579740639999,432,"3259 SUNDANCE CIRCLE, NAPLES, FL, 34109","Match","Exact","3259 SUNDANCE CIR, NAPLES, FL, 34109",115227653,"R"
513933,"3259 TAMARA DRIVE UNIT 3","NAPLES","FL",34109,26.2136453850001,-81.755707662,433,"3259 TAMARA DRIVE UNIT 3, NAPLES, FL, 34109","Match","Exact","3259 TAMARA DR, NAPLES, FL, 34109",619120110,"L"
513934,"3259 TRAIL POINT","DOUGLASVILLE","GA",30135,33.6854383530001,-84.689160237,434,"3259 TRAIL POINT, DOUGLASVILLE, GA, 30135","Match","Exact","3259 TRAIL PT, DOUGLASVILLE, GA, 30135",619831597,"L"
513935,"3259 WELMINGHAM DRIVE SW","ATLANTA","GA",30331,33.662365064,-84.518715863,435,"3259 WELMINGHAM DRIVE SW, ATLANTA, GA, 30331","Match","Non_Exact","3259 WELMINGHAM DR, ATLANTA, GA, 30331",653479582,"R"
513936,"3259 WEMYSS DRIVE","CINCINNATI","OH",45251,39.306368311,-84.582617301,436,"3259 WEMYSS DRIVE, CINCINNATI, OH, 45251","Match","Exact","3259 WEMYSS DR, CINCINNATI, OH, 45251",103977871,"L"
513937,"3259 WISDOM WAY","PRESCOTT","AZ",86305,NA,NA,437,"3259 WISDOM WAY, PRESCOTT, AZ, 86305","No_Match",NA,NA,NA,NA
513938,"32590 BALD RIDGE ROAD","DAVENPORT","WA",99122,47.735487376,-117.990999492,438,"32590 BALD RIDGE ROAD, DAVENPORT, WA, 99122","Match","Non_Exact","32590 BALD RIDGE RD N, DAVENPORT, WA, 99122",607289333,"R"
513939,"32594 LONGRIDGE ROAD","PARSONBURG","MD",21849,38.3692570760001,-75.48165252,439,"32594 LONGRIDGE ROAD, PARSONBURG, MD, 21849","Match","Non_Exact","32594 LONGRIDGE RD, PARSONSBURG, MD, 21849",635738951,"R"
513940,"32595 645 AVE","WATKINS","MN",55389,45.2191911730001,-94.471493612,440,"32595 645 AVE, WATKINS, MN, 55389","Match","Exact","32595 645TH AVE, WATKINS, MN, 55389",36985896,"L"
513941,"32598 E 713 RD","WAGONER","OK",74467,35.9837062130001,-95.3046423229999,441,"32598 E 713 RD, WAGONER, OK, 74467","Match","Exact","32598 E 713 RD, WAGONER, OK, 74467",83144750,"R"
513942,"32598 RANCHOS LADERA ROAD","BONSALL","CA",92003,33.3041147270001,-117.155665504,442,"32598 RANCHOS LADERA ROAD, BONSALL, CA, 92003","Match","Exact","32598 RANCHOS LADERA RD, BONSALL, CA, 92003",195288024,"R"
513943,"32598 SEWARD HWY","MOOSE PASS","AK",99631,60.454401391,-149.36996081,443,"32598 SEWARD HWY, MOOSE PASS, AK, 99631","Match","Exact","32598 SEWARD HWY, MOOSE PASS, AK, 99631",635215285,"L"
513944,"32598 SURREY LANE","AVON LAKE","OH",44012,41.503806244,-82.011731862,444,"32598 SURREY LANE, AVON LAKE, OH, 44012","Match","Exact","32598 SURREY LN, AVON LAKE, OH, 44012",55410214,"R"
513945,"32599 C C RD","SLIDELL","LA",70460,30.2809442560001,-89.86168034,445,"32599 C C RD, SLIDELL, LA, 70460","Match","Exact","32599 C C RD, SLIDELL, LA, 70460",632477783,"R"
513946,"325A CENTRE AVENUE","NEW ROCHELLE","NY",10805,40.901411501,-73.778425319,446,"325A CENTRE AVENUE, NEW ROCHELLE, NY, 10805","Match","Exact","325 CENTRE AVE, NEW ROCHELLE, NY, 10805",139751429,"R"
513947,"325G JACOBS MANAGEMENT CENTER","BUFFALO","NY",14260,NA,NA,447,"325G JACOBS MANAGEMENT CENTER, BUFFALO, NY, 14260","No_Match",NA,NA,NA,NA
513948,"326 130TH ST","SEATON","IL",61476,41.1166153180001,-90.843344347,448,"326 130TH ST, SEATON, IL, 61476","Match","Exact","326 130TH ST, SEATON, IL, 61476",5470750,"L"
513949,"326 13TH STREET","HUNTINGTON BEACH","CA",92648,33.6643942910001,-118.007189885,449,"326 13TH STREET, HUNTINGTON BEACH, CA, 92648","Match","Exact","326 13TH ST, HUNTINGTON BEACH, CA, 92648",144019572,"R"
513950,"326 15TH STREET","OAKLAND","CA",94612,37.8040703990001,-122.267467327,450,"326 15TH STREET, OAKLAND, CA, 94612","Match","Exact","326 15TH ST, OAKLAND, CA, 94612",124997172,"R"
513951,"326 17 MILE ROAD","KENT CITY","MI",49330,43.2197749960001,-85.68189685,451,"326 17 MILE ROAD, KENT CITY, MI, 49330","Match","Exact","326 17 MILE RD, KENT CITY, MI, 49330",12523956,"L"
513952,"326 2ND AVENUE","DECATUR","GA",30030,33.755966931,-84.310454119,452,"326 2ND AVENUE, DECATUR, GA, 30030","Match","Non_Exact","326 2ND AVE NE, DECATUR, GA, 30030",23366785,"L"
513953,"326 2ND STREET","COLONIAL BEACH","VA",22443,38.2571210630001,-76.973444376,453,"326 2ND STREET, COLONIAL BEACH, VA, 22443","Match","Exact","326 2ND ST, COLONIAL BCH, VA, 22443",22162830,"R"
513954,"326 4TH AVE","WASHBURN","ND",58577,47.2918751970001,-101.033083966,454,"326 4TH AVE, WASHBURN, ND, 58577","Match","Exact","326 4TH AVE, WASHBURN, ND, 58577",635851734,"R"
513955,"326 4TH ST SE","WASHINGTON","DC",20003,38.885203344,-77.0005647359999,455,"326 4TH ST SE, WASHINGTON, DC, 20003","Match","Exact","326 4TH ST SE, WASHINGTON, DC, 20003",76230569,"L"
513956,"326 5TH ST","AMES","IA",50010,42.0259174890001,-93.614225963,456,"326 5TH ST, AMES, IA, 50010","Match","Exact","326 5TH ST, AMES, IA, 50010",65947120,"L"
513957,"326 6TH STREET","EAST NORWICH","NY",11731,40.868354423,-73.330764673,457,"326 6TH STREET, EAST NORWICH, NY, 11731","Match","Non_Exact","326 6TH ST, ELWOOD, NY, 11731",113965337,"R"
513958,"326 7TH STREET","LAKEWOOD","NJ",8701,40.096883447,-74.2167608629999,458,"326 7TH STREET, LAKEWOOD, NJ, 8701","Match","Exact","326 7TH ST, LAKEWOOD, NJ, 08701",203723522,"R"
513959,"326 ABBEY DR","POLK CITY","FL",33868,28.1854302580001,-81.823545317,459,"326 ABBEY DR, POLK CITY, FL, 33868","Match","Exact","326 ABBEY DR, POLK CITY, FL, 33868",104815053,"R"
513960,"326 ABERDEEN DR","PITTSBURGH","PA",15239,40.503559361,-79.750081342,460,"326 ABERDEEN DR, PITTSBURGH, PA, 15239","Match","Exact","326 ABERDEEN DR, PITTSBURGH, PA, 15239",635375154,"R"
513961,"326 ALBANY","SHREVEPORT","LA",71105,32.4688220240001,-93.7235796269999,461,"326 ALBANY, SHREVEPORT, LA, 71105","Match","Non_Exact","326 ALBANY AVE, SHREVEPORT, LA, 71105",57438516,"R"
513962,"326 ANCASTER COURT","NEKOOSA","WI",54494,44.209053829,-89.794933307,462,"326 ANCASTER COURT, NEKOOSA, WI, 54494","Match","Non_Exact","326 ANCASTER CT, NEKOOSA, WI, 54457",73279612,"L"
513963,"326 ANGELA AVE","ARABI","LA",70032,29.9508314500001,-90.009041721,463,"326 ANGELA AVE, ARABI, LA, 70032","Match","Exact","326 ANGELA AVE, ARABI, LA, 70032",111186555,"L"
513964,"326 ANTIOCH ROAD","MCDONOUGH","GA",30252,33.4226029020001,-84.053637449,464,"326 ANTIOCH ROAD, MCDONOUGH, GA, 30252","Match","Exact","326 ANTIOCH RD, MCDONOUGH, GA, 30252",210411087,"L"
513965,"326 ARABIAN AVE","POCATELLO","ID",83201,42.9142370180001,-112.426165529,465,"326 ARABIAN AVE, POCATELLO, ID, 83201","Match","Exact","326 ARABIAN AVE, POCATELLO, ID, 83201",204363766,"R"
513966,"326 ARROYO DR","ENCINITAS","CA",92024,33.0516587820001,-117.292996563,466,"326 ARROYO DR, ENCINITAS, CA, 92024","Match","Exact","326 ARROYO DR, ENCINITAS, CA, 92024",195292708,"R"
513967,"326 ASBURY AVENUE","RIPLEY","TN",38063,35.7216589820001,-89.566096397,467,"326 ASBURY AVENUE, RIPLEY, TN, 38063","Match","Non_Exact","326 ASBURY RD, RIPLEY, TN, 38063",607066463,"R"
513968,"326 AYERS ROCK RD","JASPER","GA",30143,34.5394718850001,-84.449896064,468,"326 AYERS ROCK RD, JASPER, GA, 30143","Match","Exact","326 AYERS ROCK RD, JASPER, GA, 30143",627660615,"L"
513969,"326 BADGER DRIVE","BARABOO","WI",53913,43.4632924160001,-89.7489029669999,469,"326 BADGER DRIVE, BARABOO, WI, 53913","Match","Exact","326 BADGER DR, BARABOO, WI, 53913",86534524,"R"
513970,"326 BARKLEY ST","ELLOREE","SC",29047,33.5319410020001,-80.5669083609999,470,"326 BARKLEY ST, ELLOREE, SC, 29047","Match","Non_Exact","326 E BARKLEY ST, ELLOREE, SC, 29047",19229843,"L"
513971,"326 BEACHGRASS LANE","SUMMERVILLE","SC",29486,33.118939115,-80.112435972,471,"326 BEACHGRASS LANE, SUMMERVILLE, SC, 29486","Match","Exact","326 BEACHGRASS LN, SUMMERVILLE, SC, 29486",645289084,"L"
513972,"326 BEECH LANE","MIDDLETOWN","DE",19709,39.53122971,-75.668257615,472,"326 BEECH LANE, MIDDLETOWN, DE, 19709","Match","Exact","326 BEECH LN, MIDDLETOWN, DE, 19709",187286003,"R"
513973,"326 BERRY HILL DRIVE","SYLVA","NC",28779,35.3362285370001,-83.2017729249999,473,"326 BERRY HILL DRIVE, SYLVA, NC, 28779","Match","Non_Exact","326 BERRY HILL RD, SYLVA, NC, 28779",35988976,"R"
513974,"326 BOGUE LOOP RD","NEWPORT","NC",28570,34.7080170310001,-77.014503846,474,"326 BOGUE LOOP RD, NEWPORT, NC, 28570","Match","Exact","326 BOGUE LOOP RD, NEWPORT, NC, 28570",640639624,"L"
513975,"326 BRAZIL STREET","SAN FRANCISCO","CA",94112,37.7234122950001,-122.432150464,475,"326 BRAZIL STREET, SAN FRANCISCO, CA, 94112","Match","Non_Exact","326 BRAZIL AVE, SAN FRANCISCO, CA, 94112",192286821,"R"
513976,"326 BRAZOS DR","ABILENE","TX",79602,NA,NA,476,"326 BRAZOS DR, ABILENE, TX, 79602","No_Match",NA,NA,NA,NA
513977,"326 BRECKENRIDGE ROAD","CHATHAM","IL",62629,39.671575515,-89.691010181,477,"326 BRECKENRIDGE ROAD, CHATHAM, IL, 62629","Match","Exact","326 BRECKENRIDGE RD, CHATHAM, IL, 62629",97349613,"L"
513978,"326 BRIDGE PLAZA N APT 3D","FORT LEE","NJ",7024,40.8567852850001,-73.971038144,478,"326 BRIDGE PLAZA N APT 3D, FORT LEE, NJ, 7024","Match","Exact","326 BRIDGE PLZ N, FORT LEE, NJ, 07024",64391886,"L"
513979,"326 BROADWAY APT 15","SOMERVILLE","MA",2145,42.3927998240001,-71.093892449,479,"326 BROADWAY APT 15, SOMERVILLE, MA, 2145","Match","Exact","326 BROADWAY, SOMERVILLE, MA, 02145",86869090,"L"
513980,"326 BRUBAKER ROAD","WAVERLY","OH",45690,39.120886161,-83.186409041,480,"326 BRUBAKER ROAD, WAVERLY, OH, 45690","Match","Exact","326 BRUBAKER RD, WAVERLY, OH, 45690",55079763,"R"
513981,"326 BUTCHER RD","CLAYVILLE","NY",13322,42.9908962820001,-75.1749118079999,481,"326 BUTCHER RD, CLAYVILLE, NY, 13322","Match","Exact","326 BUTCHER RD, CLAYVILLE, NY, 13322",636406770,"L"
513982,"326 CAD COLLINS LANE","LILLINGTON","NC",27546,35.4295852870001,-78.885696582,482,"326 CAD COLLINS LANE, LILLINGTON, NC, 27546","Match","Exact","326 CAD COLLINS LN, LILLINGTON, NC, 27546",71955080,"L"
513983,"326 CALE ROAD","PRESCOTT","AR",71857,33.7920215120001,-93.3702267419999,483,"326 CALE ROAD, PRESCOTT, AR, 71857","Match","Exact","326 CALE RD, PRESCOTT, AR, 71857",10260353,"L"
513984,"326 CALLAND DR","OROFINO","ID",83544,46.493086572,-116.266296812,484,"326 CALLAND DR, OROFINO, ID, 83544","Match","Exact","326 CALLAND DR, OROFINO, ID, 83544",201691539,"R"
513985,"326 CANBEAL RD","FARMERVILLE","LA",71241,32.819864271,-92.3471588149999,485,"326 CANBEAL RD, FARMERVILLE, LA, 71241","Match","Exact","326 CANBEAL RD, FARMERVILLE, LA, 71241",150043104,"L"
513986,"326 CAPE DR","WASHINGTON","DC",20001,NA,NA,486,"326 CAPE DR, WASHINGTON, DC, 20001","No_Match",NA,NA,NA,NA
513987,"326 CAPE LOOKOUT LOOP","EMERALD ISLE","NC",28594,34.660348234,-77.069943773,487,"326 CAPE LOOKOUT LOOP, EMERALD ISLE, NC, 28594","Match","Exact","326 CAPE LOOKOUT LOOP, EMERALD ISLE, NC, 28594",33871770,"R"
513988,"326 CASTLE DR","ENGLEWOOD CLIFFS","NJ",7632,40.877055016,-73.959479847,488,"326 CASTLE DR, ENGLEWOOD CLIFFS, NJ, 7632","Match","Exact","326 CASTLE DR, ENGLEWOOD CLIFFS, NJ, 07632",64375620,"L"
513989,"326 CELLO ST","DAVENPORT","FL",33896,28.2442256790001,-81.6497191299999,489,"326 CELLO ST, DAVENPORT, FL, 33896","Match","Exact","326 CELLO ST, DAVENPORT, FL, 33896",104879780,"R"
513990,"326 CENTER VALLEY RD","SANDPOINT","ID",83864,48.385767344,-116.535341927,490,"326 CENTER VALLEY RD, SANDPOINT, ID, 83864","Match","Exact","326 CENTER VALLEY RD, SANDPOINT, ID, 83864",169498685,"R"
513991,"326 CHAPEL STREET","NORFOLK","VA",23504,36.8477259650001,-76.282437946,491,"326 CHAPEL STREET, NORFOLK, VA, 23504","Match","Exact","326 CHAPEL ST, NORFOLK, VA, 23504",122138142,"R"
513992,"326 CHERRY HILL COURT","MEDINA","MN",55340,45.0486113630001,-93.530928853,492,"326 CHERRY HILL COURT, MEDINA, MN, 55340","Match","Exact","326 CHERRY HILL CT, MEDINA, MN, 55340",43847411,"R"
513993,"326 CHURCH STREET NE","DAWSON","GA",39842,31.7765920570001,-84.4434140119999,493,"326 CHURCH STREET NE, DAWSON, GA, 39842","Match","Exact","326 CHURCH ST NE, DAWSON, GA, 39842",89113806,"R"
513994,"326 CLEARBROOK AVE","LANSDOWNE","PA",19050,39.9512651850001,-75.2766234059999,494,"326 CLEARBROOK AVE, LANSDOWNE, PA, 19050","Match","Exact","326 CLEARBROOK AVE, LANSDOWNE, PA, 19050",134877332,"L"
513995,"326 CLINTON ST","BROOKLYN","NY",11231,40.6856398950001,-73.996584564,495,"326 CLINTON ST, BROOKLYN, NY, 11231","Match","Exact","326 CLINTON ST, BROOKLYN, NY, 11231",59074838,"R"
513996,"326 CLOVERLEAF RD","LAKE PLACID","FL",33852,27.341891994,-81.396916769,496,"326 CLOVERLEAF RD, LAKE PLACID, FL, 33852","Match","Exact","326 CLOVERLEAF RD, LAKE PLACID, FL, 33852",4674550,"L"
513997,"326 COKI AMALIE COURT","CHARLESTON","SC",29492,NA,NA,497,"326 COKI AMALIE COURT, CHARLESTON, SC, 29492","No_Match",NA,NA,NA,NA
513998,"326 COLUMBUS AVENUE 5D","NEW YORK","NY",10024,40.7795524970001,-73.9772375109999,498,"326 COLUMBUS AVENUE 5D, NEW YORK, NY, 10024","Match","Non_Exact","326 COLUMBUS AVE, NEW YORK, NY, 10023",59657072,"L"
513999,"326 CONCORD AVE","GREENSBURG","PA",15601,40.3061158400001,-79.5483402579999,499,"326 CONCORD AVE, GREENSBURG, PA, 15601","Match","Exact","326 CONCORD AVE, GREENSBURG, PA, 15601",52975345,"R"
514000,"326 CONGO ROAD","BARTO","PA",19504,NA,NA,500,"326 CONGO ROAD, BARTO, PA, 19504","No_Match",NA,NA,NA,NA
