"ID","Address","City","State","Zip","lat","long","id","input_address","match_indicator","match_type","matched_address","tiger_line_id","tiger_side"
624501,"4300 MORNINGSIDE AVE","SIOUX CITY","IA",51106,42.470591895,-96.352357533,1,"4300 MORNINGSIDE AVE, SIOUX CITY, IA, 51106","Match","Exact","4300 MORNINGSIDE AVE, SIOUX CITY, IA, 51106",93425574,"R"
624502,"4300 N CORRINGTON AVE STE 100","KANSAS CITY","MO",64117,39.1688181060001,-94.496199157,2,"4300 N CORRINGTON AVE STE 100, KANSAS CITY, MO, 64117","Match","Non_Exact","4300 N CORRINGTON AVE, KANSAS CITY, MO, 64117",89785562,"L"
624503,"4300 N MARINE DR APT 604","CHICAGO","IL",60613,41.961031926,-87.646828795,3,"4300 N MARINE DR APT 604, CHICAGO, IL, 60613","Match","Non_Exact","4300 N MARINE DR, CHICAGO, IL, 60613",611251767,"L"
624504,"4300 N MARINE DRIVE  APT 604","CHICAGO","IL",60613,41.961031926,-87.646828795,4,"4300 N MARINE DRIVE  APT 604, CHICAGO, IL, 60613","Match","Non_Exact","4300 N MARINE DR, CHICAGO, IL, 60613",611251767,"L"
624505,"4300 N RICHMOND STREET","APPLETON","WI",54915,44.3055499870001,-88.414994652,5,"4300 N RICHMOND STREET, APPLETON, WI, 54915","Match","Non_Exact","4300 N RICHMOND ST, APPLETON, WI, 54913",74906466,"R"
624506,"4300 N UNIVERSITY - A107","SUNRISE","FL",33351,NA,NA,6,"4300 N UNIVERSITY - A107, SUNRISE, FL, 33351","No_Match",NA,NA,NA,NA
624507,"4300 N UNIVERSITY DR STE F100","SUNRISE","FL",33351,NA,NA,7,"4300 N UNIVERSITY DR STE F100, SUNRISE, FL, 33351","No_Match",NA,NA,NA,NA
624508,"4300 N UNIVERSITY DRIVE -  A107","SUNRISE","FL",33351,NA,NA,8,"4300 N UNIVERSITY DRIVE -  A107, SUNRISE, FL, 33351","No_Match",NA,NA,NA,NA
624509,"4300 N UNIVERSITY DRIVE STE A10","LAUDERHILL","FL",33351,NA,NA,9,"4300 N UNIVERSITY DRIVE STE A10, LAUDERHILL, FL, 33351","No_Match",NA,NA,NA,NA
624510,"4300 NE 16 AVE","POMPANO BEACH","FL",33064,26.284475952,-80.10101847,10,"4300 NE 16 AVE, POMPANO BEACH, FL, 33064","Match","Exact","4300 NE 16TH AVE, POMPANO BEACH, FL, 33064",114743755,"R"
624511,"4300 NE 25 AVE","FORT LAUDERDALE","FL",33308,26.1818390510001,-80.1106219179999,11,"4300 NE 25 AVE, FORT LAUDERDALE, FL, 33308","Match","Exact","4300 NE 25TH AVE, FORT LAUDERDALE, FL, 33308",629668377,"R"
624512,"4300 NE 92ND ST","KANSAS CITY","MO",64156,39.260063244,-94.528889179,12,"4300 NE 92ND ST, KANSAS CITY, MO, 64156","Match","Exact","4300 NE 92ND ST, KANSAS CITY, MO, 64156",641514653,"L"
624513,"4300 NE BROADWAY ST STE 3","PORTLAND","OR",97213,45.5351215490001,-122.619826748,13,"4300 NE BROADWAY ST STE 3, PORTLAND, OR, 97213","Match","Non_Exact","4300 NE BROADWAY ST, PORTLAND, OR, 97213",157511737,"R"
624514,"4300 NEBRASKA AVE NW","WASHINGTON","DC",20016,38.9442738380001,-77.0804777019999,14,"4300 NEBRASKA AVE NW, WASHINGTON, DC, 20016","Match","Exact","4300 NEBRASKA AVE NW, WASHINGTON, DC, 20016",76220431,"L"
624515,"4300 NEBRASKA AVE NY RM Y254","WASHINGTON","DC",20016,38.9442738380001,-77.0804777019999,15,"4300 NEBRASKA AVE NY RM Y254, WASHINGTON, DC, 20016","Match","Non_Exact","4300 NEBRASKA AVE NW, WASHINGTON, DC, 20016",76220431,"L"
624516,"4300 NEVIL BEND LN","MOSELEY","VA",23120,37.441966113,-77.720111802,16,"4300 NEVIL BEND LN, MOSELEY, VA, 23120","Match","Exact","4300 NEVIL BEND LN, MOSELEY, VA, 23120",636890916,"L"
624517,"4300 NORTHPOINT CT","ENGLEWOOD","OH",45322,39.8539093730001,-84.3068487209999,17,"4300 NORTHPOINT CT, ENGLEWOOD, OH, 45322","Match","Exact","4300 NORTHPOINT CT, ENGLEWOOD, OH, 45322",143561396,"R"
624518,"4300 OAK KNOLL DR","PLANO","TX",75093,33.03937927,-96.77725778,18,"4300 OAK KNOLL DR, PLANO, TX, 75093","Match","Exact","4300 OAK KNOLL DR, PLANO, TX, 75093",123558490,"L"
624519,"4300 OAK RIDGE LANE","CAMBRIDGE","OH",43725,40.0316175740001,-81.662216364,19,"4300 OAK RIDGE LANE, CAMBRIDGE, OH, 43725","Match","Exact","4300 OAK RIDGE LN, CAMBRIDGE, OH, 43725",612395152,"R"
624520,"4300 OLD DOMINION DRIVE - 713","ARLINGTON","VA",22207,38.899251742,-77.113600999,20,"4300 OLD DOMINION DRIVE - 713, ARLINGTON, VA, 22207","Match","Non_Exact","4300 OLD DOMINION DR, ARLINGTON, VA, 22207",615539633,"L"
624521,"4300 PAULA RIDGE CT","FORT WORTH","TX",76137,32.8516630140001,-97.2927493289999,21,"4300 PAULA RIDGE CT, FORT WORTH, TX, 76137","Match","Exact","4300 PAULA RIDGE CT, FORT WORTH, TX, 76137",619873200,"R"
624522,"4300 PINE TREE ST","ORCHARD LAKE","MI",48323,42.5727459980001,-83.398767382,22,"4300 PINE TREE ST, ORCHARD LAKE, MI, 48323","Match","Non_Exact","4300 PINE TREE DR, ORCHARD LAKE, MI, 48323",69784407,"L"
624523,"4300 PORTSMOUTH BLVD STE 174  -9085","CHESAPEAKE","VA",23321,36.822404943,-76.418417657,23,"4300 PORTSMOUTH BLVD STE 174  -9085, CHESAPEAKE, VA, 23321","Match","Exact","4300 PORTSMOUTH BLVD, CHESAPEAKE, VA, 23321",121767806,"R"
624524,"4300 PORTSMOUTH BLVD STE174 -9085","CHESAPEAKE","VA",23321,36.822404943,-76.418417657,24,"4300 PORTSMOUTH BLVD STE174 -9085, CHESAPEAKE, VA, 23321","Match","Exact","4300 PORTSMOUTH BLVD, CHESAPEAKE, VA, 23321",121767806,"R"
624525,"4300 PORTSMOUTH BLVD STE174-9085","CHESAPEAKE","VA",23321,36.822404943,-76.418417657,25,"4300 PORTSMOUTH BLVD STE174-9085, CHESAPEAKE, VA, 23321","Match","Exact","4300 PORTSMOUTH BLVD, CHESAPEAKE, VA, 23321",121767806,"R"
624526,"4300 PRAIRIE COUNTRY LN","RILEY","KS",66531,39.2477326580001,-96.765798226,26,"4300 PRAIRIE COUNTRY LN, RILEY, KS, 66531","Match","Non_Exact","4300 PRARIE COUNTRY LN, RILEY, KS, 66531",647248788,"R"
624527,"4300 PROSPECT AVE NE 18","ALBUQUERQUE","NM",87110,35.107405397,-106.59671228,27,"4300 PROSPECT AVE NE 18, ALBUQUERQUE, NM, 87110","Match","Exact","4300 PROSPECT AVE NE, ALBUQUERQUE, NM, 87110",206715696,"R"
624528,"4300 RANCHO CENTRO NW","ALBUQUERQUE","NM",87120,35.1762082230001,-106.683335239,28,"4300 RANCHO CENTRO NW, ALBUQUERQUE, NM, 87120","Match","Exact","4300 RANCHO CENTRO NW, ALBUQUERQUE, NM, 87120",206744344,"R"
624529,"4300 RIVERSIDE DRIVE","UPPER ARLINGTON","OH",43221,40.0413064210001,-83.094351318,29,"4300 RIVERSIDE DRIVE, UPPER ARLINGTON, OH, 43221","Match","Non_Exact","4300 RIVERSIDE DR, UPPER ARLINGTON, OH, 43220",218656216,"R"
624530,"4300 RIVIERA SUN DRIVE","ELLICOTT CITY","MD",21043,39.25062215,-76.7927374669999,30,"4300 RIVIERA SUN DRIVE, ELLICOTT CITY, MD, 21043","Match","Exact","4300 RIVIERA SUN DR, ELLICOTT CITY, MD, 21043",614144966,"R"
624531,"4300 ROCKMOORE RD","JACKSON","WY",83001,43.41839501,-110.814274024,31,"4300 ROCKMOORE RD, JACKSON, WY, 83001","Match","Non_Exact","4300 ROCKMORE RD, JACKSON, WY, 83001",637492326,"R"
624532,"4300 ROSEMEADE","DALLAS","TX",75287,33.0112491250001,-96.838755266,32,"4300 ROSEMEADE, DALLAS, TX, 75287","Match","Non_Exact","4300 ROSEMEADE PKWY, DALLAS, TX, 75287",210492941,"L"
624533,"4300 S CREEK CT","HUNTINGTOWN","MD",20639,38.6271038680001,-76.621073343,33,"4300 S CREEK CT, HUNTINGTOWN, MD, 20639","Match","Exact","4300 S CREEK CT, HUNTINGTOWN, MD, 20639",78172989,"R"
624534,"4300 S HOLBROOK","SIOUX FALLS","SD",57106,43.5070195970001,-96.8001597209999,34,"4300 S HOLBROOK, SIOUX FALLS, SD, 57106","Match","Non_Exact","4300 S HOLBROOK AVE, SIOUX FALLS, SD, 57106",34970478,"L"
624535,"4300 S JOG ROAD UNIT 541943","GREENACRES","FL",33454,26.6148715740001,-80.146732314,35,"4300 S JOG ROAD UNIT 541943, GREENACRES, FL, 33454","Match","Non_Exact","4300 JOG RD, GREENACRES, FL, 33467",115314819,"L"
624536,"4300 S LAFAYETTE ST","ENGLEWOOD","CO",80113,39.6385008130001,-104.971376073,36,"4300 S LAFAYETTE ST, ENGLEWOOD, CO, 80113","Match","Exact","4300 S LAFAYETTE ST, ENGLEWOOD, CO, 80113",177334600,"L"
624537,"4300 S MONACO ST","DENVER","CO",80237,39.7768605680001,-104.912872708,37,"4300 S MONACO ST, DENVER, CO, 80237","Match","Non_Exact","4300 MONACO ST, DENVER, CO, 80216",177367385,"R"
624538,"4300 S US HWY 1 STE  203-204","JUPITER","FL",33477,NA,NA,38,"4300 S US HWY 1 STE  203-204, JUPITER, FL, 33477","No_Match",NA,NA,NA,NA
624539,"4300 S VALIANT CT","ANNANDALE","VA",22003,38.830700881,-77.231609874,39,"4300 S VALIANT CT, ANNANDALE, VA, 22003","Match","Exact","4300 S VALIANT CT, ANNANDALE, VA, 22003",75973197,"R"
624540,"4300 SADDLE RIDGE TRAIL","FLOWER MOUND","TX",75028,33.057757065,-97.097490819,40,"4300 SADDLE RIDGE TRAIL, FLOWER MOUND, TX, 75028","Match","Exact","4300 SADDLE RIDGE TRL, FLOWER MOUND, TX, 75028",218075172,"R"
624541,"4300 SE 14TH TERRACE","GAINESVILLE","FL",32641,29.613372977,-82.306927419,41,"4300 SE 14TH TERRACE, GAINESVILLE, FL, 32641","Match","Exact","4300 SE 14 TER, GAINESVILLE, FL, 32641",6810314,"R"
624542,"4300 SE 51ST PLACE","OCALA","FL",34480,29.135742538,-82.077114738,42,"4300 SE 51ST PLACE, OCALA, FL, 34480","Match","Exact","4300 SE 51ST PL, OCALA, FL, 34480",116750201,"R"
624543,"4300 SE HILLYARD RD","GRESHAM","OR",97080,45.4768880980001,-122.389080767,43,"4300 SE HILLYARD RD, GRESHAM, OR, 97080","Match","Exact","4300 SE HILLYARD RD, GRESHAM, OR, 97080",157569619,"R"
624544,"4300 SHARON RD APT 501","CHARLOTTE","NC",28211,35.1526167860001,-80.82700625,44,"4300 SHARON RD APT 501, CHARLOTTE, NC, 28211","Match","Exact","4300 SHARON RD, CHARLOTTE, NC, 28211",618150582,"R"
624545,"4300 SHERIDAN ST APT 136","HOLLYWOOD","FL",33021,26.0326761260001,-80.186365618,45,"4300 SHERIDAN ST APT 136, HOLLYWOOD, FL, 33021","Match","Exact","4300 SHERIDAN ST, HOLLYWOOD, FL, 33021",637740743,"R"
624546,"4300 SIGMA RD SUITE 100","DALLAS","TX",75244,32.9371047660001,-96.8365503159999,46,"4300 SIGMA RD SUITE 100, DALLAS, TX, 75244","Match","Exact","4300 SIGMA RD, DALLAS, TX, 75244",102897878,"R"
624547,"4300 SNAPFINGER WOODS DR","DECATUR","GA",30035,33.711333476,-84.212611712,47,"4300 SNAPFINGER WOODS DR, DECATUR, GA, 30035","Match","Exact","4300 SNAPFINGER WOODS DR, DECATUR, GA, 30035",619385350,"L"
624548,"4300 SOQUEL DRIVE 223","SOQUEL","CA",95073,36.98793005,-121.961897795,48,"4300 SOQUEL DRIVE 223, SOQUEL, CA, 95073","Match","Exact","4300 SOQUEL DR, SOQUEL, CA, 95073",606002897,"R"
624549,"4300 SOUTH ATLANTIC AVE","PONCE INLET","FL",32127,29.121648039,-80.9521824019999,49,"4300 SOUTH ATLANTIC AVE, PONCE INLET, FL, 32127","Match","Exact","4300 S ATLANTIC AVE, PONCE INLET, FL, 32127",94530180,"R"
624550,"4300 SOUTH TAMMY LN","HEBER CITY","UT",84032,NA,NA,50,"4300 SOUTH TAMMY LN, HEBER CITY, UT, 84032","No_Match",NA,NA,NA,NA
624551,"4300 SOUTH WALNUT AVENUE","BROKEN ARROW","OK",74011,36.010893283,-95.813552285,51,"4300 SOUTH WALNUT AVENUE, BROKEN ARROW, OK, 74011","Match","Exact","4300 S WALNUT AVE, BROKEN ARROW, OK, 74011",166464425,"R"
624552,"4300 SPANISH BROOM","ALBUQUERQUE","NM",87120,NA,NA,52,"4300 SPANISH BROOM, ALBUQUERQUE, NM, 87120","No_Match",NA,NA,NA,NA
624553,"4300 STATE HWY 6 SOUTH","QUANAH","TX",79252,34.2544534370001,-99.739432426,53,"4300 STATE HWY 6 SOUTH, QUANAH, TX, 79252","Match","Non_Exact","4300 STATE HWY 6, QUANAH, TX, 79252",164798414,"L"
624554,"4300 STATEN ISLAND DR","PLANO","TX",75024,33.0760411580001,-96.776370179,54,"4300 STATEN ISLAND DR, PLANO, TX, 75024","Match","Exact","4300 STATEN ISLAND DR, PLANO, TX, 75024",123531061,"R"
624555,"4300 STATESVILLE ROAD","CHARLOTTE","NC",28269,35.278378822,-80.8344847709999,55,"4300 STATESVILLE ROAD, CHARLOTTE, NC, 28269","Match","Exact","4300 STATESVILLE RD, CHARLOTTE, NC, 28269",70507289,"R"
624556,"4300 STILLWELL AVE","LOS ANGELES","CA",90032,34.0945994320001,-118.16364389,56,"4300 STILLWELL AVE, LOS ANGELES, CA, 90032","Match","Exact","4300 STILLWELL AVE, LOS ANGELES, CA, 90032",141635169,"R"
624557,"4300 STONEFIELD  DRIVE","CHARLOTTE","NC",28269,35.321881181,-80.801024593,57,"4300 STONEFIELD  DRIVE, CHARLOTTE, NC, 28269","Match","Exact","4300 STONEFIELD DR, CHARLOTTE, NC, 28269",70532502,"R"
624558,"4300 STURTEVANT","DETROIT","MI",48204,42.382285472,-83.1326520649999,58,"4300 STURTEVANT, DETROIT, MI, 48204","Match","Non_Exact","4300 STURTEVANT ST, DETROIT, MI, 48204",95470506,"R"
624559,"4300 SULLIVAN DRIVE","BELLEVILLE","IL",62223,38.5644009580001,-90.001876543,59,"4300 SULLIVAN DRIVE, BELLEVILLE, IL, 62223","Match","Exact","4300 SULLIVAN DR, BELLEVILLE, IL, 62223",107857106,"L"
624560,"4300 SW 21ST STREET","WEST PARK","FL",33023,25.991784266,-80.1863160729999,60,"4300 SW 21ST STREET, WEST PARK, FL, 33023","Match","Exact","4300 SW 21ST ST, WEST PARK, FL, 33023",114735285,"L"
624561,"4300 SW 62ND AVENUE","MIAMI","FL",33155,25.730893295,-80.294578982,61,"4300 SW 62ND AVENUE, MIAMI, FL, 33155","Match","Exact","4300 SW 62ND AVE, MIAMI, FL, 33155",116260640,"R"
624562,"4300 SW FAIRVIEW CIRCUS","PORTLAND","OR",97221,45.517009838,-122.721501776,62,"4300 SW FAIRVIEW CIRCUS, PORTLAND, OR, 97221","Match","Exact","4300 SW FAIRVIEW CIRCUS, PORTLAND, OR, 97221",157559930,"L"
624563,"4300 THE WOOD DRIVE APT 1620","SAN JOSE","CA",95136,NA,NA,63,"4300 THE WOOD DRIVE APT 1620, SAN JOSE, CA, 95136","No_Match",NA,NA,NA,NA
624564,"4300 THE WOODS DR APT D1925","SAN JOSE","CA",95136,NA,NA,64,"4300 THE WOODS DR APT D1925, SAN JOSE, CA, 95136","No_Match",NA,NA,NA,NA
624565,"4300 THUNDER TWICE STREET","LAS VEGAS","NV",89129,36.2384035910001,-115.255272963,65,"4300 THUNDER TWICE STREET, LAS VEGAS, NV, 89129","Match","Exact","4300 THUNDER TWICE ST, LAS VEGAS, NV, 89129",612692889,"R"
624566,"4300 TOMPKINS AVE","OAKLAND","CA",94169,NA,NA,66,"4300 TOMPKINS AVE, OAKLAND, CA, 94169","No_Match",NA,NA,NA,NA
624567,"4300 VAL DECHIANA AVENUE","LAS VEGAS","NV",89141,35.9975945250001,-115.19699323,67,"4300 VAL DECHIANA AVENUE, LAS VEGAS, NV, 89141","Match","Exact","4300 VAL DECHIANA AVE, LAS VEGAS, NV, 89141",201998515,"R"
624568,"4300 W 187TH ST","COUNTRY CLUB HILLS","IL",60478,41.5498220900001,-87.721105324,68,"4300 W 187TH ST, COUNTRY CLUB HILLS, IL, 60478","Match","Exact","4300 187TH ST, COUNTRY CLUB HILLS, IL, 60478",618053808,"L"
624569,"4300 W CYPRESS STREET - SUITE 850","TAMPA","FL",33607,27.9521919530001,-82.5160938339999,69,"4300 W CYPRESS STREET - SUITE 850, TAMPA, FL, 33607","Match","Non_Exact","4300 W CYPRESS ST, TAMPA, FL, 33607",104618225,"L"
624570,"4300 W DONGES LANE","BROWN DEER","WI",53223,43.1912874540001,-87.96491853,70,"4300 W DONGES LANE, BROWN DEER, WI, 53223","Match","Exact","4300 W DONGES LN, BROWN DEER, WI, 53223",77725429,"R"
624571,"4300 W LAKE MARY BLVD  STE 1010 313","LAKE MARY","FL",32746,28.756016835,-81.350221701,71,"4300 W LAKE MARY BLVD  STE 1010 313, LAKE MARY, FL, 32746","Match","Non_Exact","4300 W LAKE MARY BLVD, LAKE MARY, FL, 32746",93798657,"R"
624572,"4300 WAIALAE AVE APT B802","HONOLULU","HI",96816,NA,NA,72,"4300 WAIALAE AVE APT B802, HONOLULU, HI, 96816","No_Match",NA,NA,NA,NA
624573,"4300 WAIALAE AVE B201","HONOLULU","HI",96816,NA,NA,73,"4300 WAIALAE AVE B201, HONOLULU, HI, 96816","No_Match",NA,NA,NA,NA
624574,"4300 WALES DRIVE","DAYTON","OH",45405,39.8053440090001,-84.231396382,74,"4300 WALES DRIVE, DAYTON, OH, 45405","Match","Exact","4300 WALES DR, DAYTON, OH, 45405",645862700,"R"
624575,"4300 WALES STREET","DAYTON","OH",45405,39.8053440090001,-84.231396382,75,"4300 WALES STREET, DAYTON, OH, 45405","Match","Non_Exact","4300 WALES DR, DAYTON, OH, 45405",645862700,"R"
624576,"4300 WARFIELD PLACE","RALEIGH","NC",27604,35.808449769,-78.564170116,76,"4300 WARFIELD PLACE, RALEIGH, NC, 27604","Match","Exact","4300 WARFIELD PL, RALEIGH, NC, 27604",72642814,"L"
624577,"4300 WENDOVER ROAD","BALTIMORE","MD",21218,39.34180781,-76.610603924,77,"4300 WENDOVER ROAD, BALTIMORE, MD, 21218","Match","Exact","4300 WENDOVER RD, BALTIMORE, MD, 21218",206408709,"L"
624578,"4300 WEST HIGHWAY 22","CORSICANA","TX",75110,32.089157351,-96.533219709,78,"4300 WEST HIGHWAY 22, CORSICANA, TX, 75110","Match","Exact","4300 W HWY 22, CORSICANA, TX, 75110",183913378,"R"
624579,"4300 WEST LAKE MARY BOULEVARD","LAKE MARY","FL",32746,28.756016819,-81.3502148159999,79,"4300 WEST LAKE MARY BOULEVARD, LAKE MARY, FL, 32746","Match","Exact","4300 W LAKE MARY BLVD, LAKE MARY, FL, 32746",93798657,"R"
624580,"4300 WESTBANK DRIVE","AUSTIN","TX",78746,30.2768918570001,-97.817970176,80,"4300 WESTBANK DRIVE, AUSTIN, TX, 78746","Match","Exact","4300 WESTBANK DR, AUSTIN, TX, 78746",649019058,"R"
624581,"4300 WESTBANK DRIVE","WEST LAKE HILLS","TX",78746,30.2768918570001,-97.817970176,81,"4300 WESTBANK DRIVE, WEST LAKE HILLS, TX, 78746","Match","Exact","4300 WESTBANK DR, WEST LAKE HILLS, TX, 78746",649019058,"R"
624582,"4300 WHITE AVE","BALTIMORE","MD",21206,39.3428518470001,-76.541338778,82,"4300 WHITE AVE, BALTIMORE, MD, 21206","Match","Exact","4300 WHITE AVE, BALTIMORE, MD, 21206",206412121,"L"
624583,"4300 WHITES AVENUE","BALTIMORE","MD",21206,NA,NA,83,"4300 WHITES AVENUE, BALTIMORE, MD, 21206","No_Match",NA,NA,NA,NA
624584,"4300 WILD PLUM COURT","AUSTIN","TX",78731,30.345634696,-97.7749414529999,84,"4300 WILD PLUM COURT, AUSTIN, TX, 78731","Match","Exact","4300 WILD PLUM CT, AUSTIN, TX, 78731",63928506,"R"
624585,"4300 WILEY POST ROAD","ADDISON","TX",55107,32.960216185,-96.8359298,85,"4300 WILEY POST ROAD, ADDISON, TX, 55107","Match","Non_Exact","4300 WILEY POST RD, ADDISON, TX, 75001",635140306,"R"
624586,"4300 WILEY POST ROAD","ADDISON","TX",75001,32.960216185,-96.8359298,86,"4300 WILEY POST ROAD, ADDISON, TX, 75001","Match","Exact","4300 WILEY POST RD, ADDISON, TX, 75001",635140306,"R"
624587,"4300 WINDSONG WAY","OKLAHOMA CITY","OK",73120,35.5949454560001,-97.600191104,87,"4300 WINDSONG WAY, OKLAHOMA CITY, OK, 73120","Match","Exact","4300 WINDSONG WAY, OKLAHOMA CITY, OK, 73120",100429295,"L"
624588,"4300 WISCONSIN AVE","STICKNEY","IL",60402,41.8138587220001,-87.799770057,88,"4300 WISCONSIN AVE, STICKNEY, IL, 60402","Match","Exact","4300 WISCONSIN AVE, STICKNEY, IL, 60402",111795931,"R"
624589,"4300 WOODLAND PARK AVE N APT 102","SEATTLE","WA",98103,47.6596021890001,-122.344570189,89,"4300 WOODLAND PARK AVE N APT 102, SEATTLE, WA, 98103","Match","Exact","4300 WOODLAND PARK AVE N, SEATTLE, WA, 98103",186581587,"R"
624590,"4300-C HAZEL AVE","PALM BEACH GARDENS","FL",33410,26.8476322280001,-80.10161656,90,"4300-C HAZEL AVE, PALM BEACH GARDENS, FL, 33410","Match","Exact","4300 HAZEL AVE, PALM BEACH GARDENS, FL, 33410",115546318,"L"
624591,"43001 W KIMBERLY ST","MARICOPA","AZ",85138,33.0525348960001,-112.029422539,91,"43001 W KIMBERLY ST, MARICOPA, AZ, 85138","Match","Exact","43001 W KIMBERLY ST, MARICOPA, AZ, 85138",627563987,"R"
624592,"430028TH STREET NORTH","ST.PETERSBURG","FL",33714,NA,NA,92,"430028TH STREET NORTH, ST.PETERSBURG, FL, 33714","No_Match",NA,NA,NA,NA
624593,"43003 WEST MAGNOLIA ROAD","MARICOPA","AZ",85138,33.0566445790001,-112.029671592,93,"43003 WEST MAGNOLIA ROAD, MARICOPA, AZ, 85138","Match","Exact","43003 W MAGNOLIA RD, MARICOPA, AZ, 85138",627563803,"L"
624594,"43009 MILL RACE TERRACE","LEESBURG","VA",20176,39.1117926530001,-77.5130561349999,94,"43009 MILL RACE TERRACE, LEESBURG, VA, 20176","Match","Exact","43009 MILL RACE TER, LEESBURG, VA, 20176",62356082,"L"
624595,"4300B CANNON RIDGE CRT","FAIRFAX","VA",22033,38.8627084170001,-77.373115217,95,"4300B CANNON RIDGE CRT, FAIRFAX, VA, 22033","Match","Exact","4300 CANNON RIDGE CT, FAIRFAX, VA, 22033",618703360,"R"
624596,"4301 - 228TH AVE NE","REDMOND","WA",98053,NA,NA,96,"4301 - 228TH AVE NE, REDMOND, WA, 98053","No_Match",NA,NA,NA,NA
624597,"4301 115TH AVE SE","SNOHOMISH","WA",98290,47.9568536620001,-122.077241384,97,"4301 115TH AVE SE, SNOHOMISH, WA, 98290","Match","Exact","4301 115TH AVE SE, SNOHOMISH, WA, 98290",649602592,"L"
624598,"4301 129TH STREET","URBANDALE","IA",50323,41.6400487940001,-93.795348172,98,"4301 129TH STREET, URBANDALE, IA, 50323","Match","Exact","4301 129TH ST, URBANDALE, IA, 50323",627630881,"L"
624599,"4301 23RD PARKWAY APT 502","TEMPLE HILLS","MD",20748,NA,NA,99,"4301 23RD PARKWAY APT 502, TEMPLE HILLS, MD, 20748","No_Match",NA,NA,NA,NA
624600,"4301 28TH ST N BLDG B APT 114","ST PETERSBURG","FL",33714,27.810794463,-82.671337955,100,"4301 28TH ST N BLDG B APT 114, ST PETERSBURG, FL, 33714","Match","Exact","4301 28TH ST N, SAINT PETERSBURG, FL, 33714",124702563,"R"
624601,"4301 3RD AVE NORTH","SAINT PETERSBURG","FL",33713,27.7746221410001,-82.691785742,101,"4301 3RD AVE NORTH, SAINT PETERSBURG, FL, 33713","Match","Exact","4301 3RD AVE N, SAINT PETERSBURG, FL, 33713",124700826,"R"
624602,"4301 3RD STREET","TILLAMOOK","OR",97141,45.4569113910001,-123.81370932,102,"4301 3RD STREET, TILLAMOOK, OR, 97141","Match","Exact","4301 3RD ST, TILLAMOOK, OR, 97141",620879013,"R"
624603,"4301 48TH AVE NORTHWEST","NORMAN","OK",73702,35.269962035,-97.511956997,103,"4301 48TH AVE NORTHWEST, NORMAN, OK, 73702","Match","Non_Exact","4301 48TH AVE NW, NORMAN, OK, 73072",99952934,"R"
624604,"4301 48TH AVE NW","NORMAN","OK",73072,35.269962035,-97.511956997,104,"4301 48TH AVE NW, NORMAN, OK, 73072","Match","Exact","4301 48TH AVE NW, NORMAN, OK, 73072",99952934,"R"
624605,"4301 85TH AVENUE","PRINCETON","MN",55371,45.606716915,-93.584331866,105,"4301 85TH AVENUE, PRINCETON, MN, 55371","Match","Exact","4301 85TH AVE, PRINCETON, MN, 55371",163074883,"L"
624606,"4301 A SAINT ANDREWS","MIDLAND","TX",79707,NA,NA,106,"4301 A SAINT ANDREWS, MIDLAND, TX, 79707","Tie",NA,NA,NA,NA
624607,"4301 AIRLINE ROAD","CHESAPEAKE","VA",23321,36.7928549470001,-76.402318228,107,"4301 AIRLINE ROAD, CHESAPEAKE, VA, 23321","Match","Non_Exact","4301 AIRLINE BLVD, CHESAPEAKE, VA, 23321",121768640,"L"
624608,"4301 ANDOVER","SAULK VILLAGE","IL",60007,NA,NA,108,"4301 ANDOVER, SAULK VILLAGE, IL, 60007","No_Match",NA,NA,NA,NA
624609,"4301 APPLEWOOD LANE","MATTESON","IL",60443,41.509961429,-87.720184484,109,"4301 APPLEWOOD LANE, MATTESON, IL, 60443","Match","Exact","4301 APPLEWOOD LN, MATTESON, IL, 60443",111708282,"L"
624610,"4301 ATLANTIC AVENUE SUITE 6","LONG BEACH","CA",90807,33.8344243060001,-118.185002795,110,"4301 ATLANTIC AVENUE SUITE 6, LONG BEACH, CA, 90807","Match","Exact","4301 ATLANTIC AVE, LONG BEACH, CA, 90807",141686097,"L"
624611,"4301 AVE L","GALVSTON","TX",77550,29.2921902860001,-94.814397263,111,"4301 AVE L, GALVSTON, TX, 77550","Match","Non_Exact","4301 AVE L, GALVESTON, TX, 77550",96679323,"L"
624612,"4301 AVENUE D","BROOKLYN","NY",11203,40.641727904,-73.936029493,112,"4301 AVENUE D, BROOKLYN, NY, 11203","Match","Exact","4301 AVE D, BROOKLYN, NY, 11203",59081959,"L"
624613,"4301 BARRERA DR","CORPUS CHRISTI","TX",78416,27.756766059,-97.448140946,113,"4301 BARRERA DR, CORPUS CHRISTI, TX, 78416","Match","Exact","4301 BARRERA DR, CORPUS CHRISTI, TX, 78416",178513672,"R"
624614,"4301 BARRINGTON","KILLEEN","TX",76549,31.0959683230001,-97.803246573,114,"4301 BARRINGTON, KILLEEN, TX, 76549","Match","Non_Exact","4301 BARRINGTON TRL, KILLEEN, TX, 76549",146175834,"R"
624615,"4301 BARTON ROAD","LOOMIS","CA",95650,38.805176562,-121.186665372,115,"4301 BARTON ROAD, LOOMIS, CA, 95650","Match","Exact","4301 BARTON RD, LOOMIS, CA, 95650",106790104,"R"
624616,"4301 BEMISS RD APT B203","VALDOSTA","GA",31605,30.919496016,-83.2542620629999,116,"4301 BEMISS RD APT B203, VALDOSTA, GA, 31605","Match","Exact","4301 BEMISS RD, VALDOSTA, GA, 31605",87739000,"L"
624617,"4301 BLAIR OAKS DR","THE COLONY","TX",75056,33.0726433240001,-96.886405451,117,"4301 BLAIR OAKS DR, THE COLONY, TX, 75056","Match","Exact","4301 BLAIR OAKS DR, THE COLONY, TX, 75056",103380152,"R"
624618,"4301 BRAD ST","MOSES LAKE","WA",98837,47.152134667,-119.238152699,118,"4301 BRAD ST, MOSES LAKE, WA, 98837","Match","Non_Exact","4301 BRAD ST NE, MOSES LAKE, WA, 98837",157091194,"L"
624619,"4301 BRIAR RIDGE DRIVE","COLLEYVILLE","TX",76034,32.8720512800001,-97.153482078,119,"4301 BRIAR RIDGE DRIVE, COLLEYVILLE, TX, 76034","Match","Exact","4301 BRIAR RIDGE DR, COLLEYVILLE, TX, 76034",101867424,"R"
624620,"4301 BROADWAY AGO 107","SAN ANTONIO","TX",78209,29.46674282,-98.463646919,120,"4301 BROADWAY AGO 107, SAN ANTONIO, TX, 78209","Match","Non_Exact","4301 BROADWAY, SAN ANTONIO, TX, 78208",101524767,"L"
624621,"4301 BROADWAY CPO 293","SAN ANTONIO","TX",78209,29.46674282,-98.463646919,121,"4301 BROADWAY CPO 293, SAN ANTONIO, TX, 78209","Match","Non_Exact","4301 BROADWAY, SAN ANTONIO, TX, 78208",101524767,"L"
624622,"4301 BUTLER PLACE","OKLAHOMA CITY","OK",73118,35.5147165390001,-97.53556358,122,"4301 BUTLER PLACE, OKLAHOMA CITY, OK, 73118","Match","Exact","4301 BUTLER PL, OKLAHOMA CITY, OK, 73118",100399815,"L"
624623,"4301 CARLA DR","CHEYENNE","WY",82009,41.1650032520001,-104.757265051,123,"4301 CARLA DR, CHEYENNE, WY, 82009","Match","Exact","4301 CARLA DR, CHEYENNE, WY, 82009",160148310,"R"
624624,"4301 CENTRAL GARDENS WAY 101","PALM BEACH GARDENS","FL",33418,26.8628378970001,-80.1103549329999,124,"4301 CENTRAL GARDENS WAY 101, PALM BEACH GARDENS, FL, 33418","Match","Exact","4301 CENTRAL GARDENS WAY, PALM BEACH GARDENS, FL, 33418",649881082,"L"
624625,"4301 CHADWICK RD","EVANSVILLE","IL",47710,NA,NA,125,"4301 CHADWICK RD, EVANSVILLE, IL, 47710","No_Match",NA,NA,NA,NA
624626,"4301 CHADWICK RD","EVANSVILLE","IN",47710,38.0174458400001,-87.56680672,126,"4301 CHADWICK RD, EVANSVILLE, IN, 47710","Match","Exact","4301 CHADWICK RD, EVANSVILLE, IN, 47710",39780006,"R"
624627,"4301 CHARLESTON WAY","SHELBYVILLE","KY",40065,38.1634612460001,-85.225400871,127,"4301 CHARLESTON WAY, SHELBYVILLE, KY, 40065","Match","Exact","4301 CHARLESTON WAY, SHELBYVILLE, KY, 40065",97086028,"L"
624628,"4301 CHOUTEAU","STLOUIS","MO",63110,38.6291148060001,-90.254160708,128,"4301 CHOUTEAU, STLOUIS, MO, 63110","Match","Non_Exact","4301 CHOUTEAU AVE, SAINT LOUIS, MO, 63110",107597043,"R"
624629,"4301 CITY POINT DR","NORTH RICHLAND HILLS","TX",76180,NA,NA,129,"4301 CITY POINT DR, NORTH RICHLAND HILLS, TX, 76180","No_Match",NA,NA,NA,NA
624630,"4301 CITY POINT DRIVE","NORTH RICHLAND HILLS","TX",76180,NA,NA,130,"4301 CITY POINT DRIVE, NORTH RICHLAND HILLS, TX, 76180","No_Match",NA,NA,NA,NA
624631,"4301 COLE SPRINGS DRI","BISHOP","GA",30621,33.837726665,-83.508440192,131,"4301 COLE SPRINGS DRI, BISHOP, GA, 30621","Match","Non_Exact","4301 COLE SPRINGS DR, BISHOP, GA, 30621",618759289,"L"
624632,"4301 COLFAX AVE","STUDIO CITY","CA",91604,34.147829524,-118.387715918,132,"4301 COLFAX AVE, STUDIO CITY, CA, 91604","Match","Exact","4301 COLFAX AVE, STUDIO CITY, CA, 91604",648166526,"L"
624633,"4301 COLUMBIA PIKE APT 531","ARLINGTON","VA",22204,38.8581218690001,-77.103651445,133,"4301 COLUMBIA PIKE APT 531, ARLINGTON, VA, 22204","Match","Non_Exact","4301 S COLUMBIA PIKE, ARLINGTON, VA, 22204",76471321,"R"
624634,"4301 CONFEDERATE POINT ROAD 48","JACKSONVILLE","FL",32210,30.262598365,-81.730643508,134,"4301 CONFEDERATE POINT ROAD 48, JACKSONVILLE, FL, 32210","Match","Exact","4301 CONFEDERATE POINT RD, JACKSONVILLE, FL, 32210",83911747,"R"
624635,"4301 COOL SPRINGS CV","LAKELAND","TN",38002,35.242845834,-89.726464483,135,"4301 COOL SPRINGS CV, LAKELAND, TN, 38002","Match","Exact","4301 COOL SPRINGS COVE, LAKELAND, TN, 38002",618367003,"L"
624636,"4301 CREIGHTON ROAD","PENSACOLA","FL",32504,30.4951928020001,-87.166168106,136,"4301 CREIGHTON ROAD, PENSACOLA, FL, 32504","Match","Exact","4301 CREIGHTON RD, PENSACOLA, FL, 32504",93307708,"R"
624637,"4301 CRIMSON LEAF COVE","MEMPHIS","TN",38125,35.0307717170001,-89.828092156,137,"4301 CRIMSON LEAF COVE, MEMPHIS, TN, 38125","Match","Exact","4301 CRIMSON LEAF COVE, MEMPHIS, TN, 38125",72930948,"R"
624638,"4301 DEPREY RD","ABRAMS","WI",54101,44.800146517,-87.983201209,138,"4301 DEPREY RD, ABRAMS, WI, 54101","Match","Exact","4301 DEPREY RD, ABRAMS, WI, 54101",632112625,"L"
624639,"4301 DON FELIPE DR","LOS ANGELES","CA",90008,NA,NA,139,"4301 DON FELIPE DR, LOS ANGELES, CA, 90008","No_Match",NA,NA,NA,NA
624640,"4301 E 52ND STREET","KANSAS CITY","MO",64130,39.0316133200001,-94.535125001,140,"4301 E 52ND STREET, KANSAS CITY, MO, 64130","Match","Exact","4301 E 52ND ST, KANSAS CITY, MO, 64130",91453275,"R"
624641,"4301 E GUADALUPE RD","GILBERT","AZ",85234,NA,NA,141,"4301 E GUADALUPE RD, GILBERT, AZ, 85234","No_Match",NA,NA,NA,NA
624642,"4301 E RED BRIDGE ROAD","KANSAS CITY","MO",64137,38.924235217,-94.541516644,142,"4301 E RED BRIDGE ROAD, KANSAS CITY, MO, 64137","Match","Exact","4301 E RED BRIDGE RD, KANSAS CITY, MO, 64137",91457908,"R"
624643,"4301 EAST 163RD","CLEVELAND","OH",44128,41.4426264800001,-81.567187808,143,"4301 EAST 163RD, CLEVELAND, OH, 44128","Match","Non_Exact","4301 E 163RD ST, CLEVELAND, OH, 44128",61127794,"L"
624644,"4301 EAST HALL ROAD","GAINESVILLE","GA",30507,34.299977158,-83.734807567,144,"4301 EAST HALL ROAD, GAINESVILLE, GA, 30507","Match","Exact","4301 E HALL RD, GAINESVILLE, GA, 30507",624616580,"R"
624645,"4301 EGREMONT COURT","COLLEGE STATION","TX",77845,30.541511515,-96.286027573,145,"4301 EGREMONT COURT, COLLEGE STATION, TX, 77845","Match","Exact","4301 EGREMONT CT, COLLEGE STATION, TX, 77845",650894669,"L"
624646,"4301 EMDEN STREET","SILVER SPIRNG","MD",20906,39.050015575,-77.0835700339999,146,"4301 EMDEN STREET, SILVER SPIRNG, MD, 20906","Match","Non_Exact","4301 EMDEN ST, SILVER SPRING, MD, 20906",62061116,"R"
624647,"4301 ENDCLIFFE DR","AUSTIN","TX",78731,30.368910633,-97.7648167739999,147,"4301 ENDCLIFFE DR, AUSTIN, TX, 78731","Match","Exact","4301 ENDCLIFFE DR, AUSTIN, TX, 78731",63927816,"L"
624648,"4301 ESTATE ST","CROSSETT","AR",71635,33.1395521910001,-92.008951086,148,"4301 ESTATE ST, CROSSETT, AR, 71635","Match","Exact","4301 ESTATE ST, CROSSETT, AR, 71635",31453089,"R"
624649,"4301 FLUHR DRIVE","LOUISVILLE","KY",40216,38.1823500720001,-85.8019057079999,149,"4301 FLUHR DRIVE, LOUISVILLE, KY, 40216","Match","Exact","4301 FLUHR DR, LOUISVILLE, KY, 40216",96847923,"L"
624650,"4301 FOREST TEAL","FRESNO","TX",77545,NA,NA,150,"4301 FOREST TEAL, FRESNO, TX, 77545","No_Match",NA,NA,NA,NA
624651,"4301 FOX CROFT RD","NORMAN","OK",73026,35.19419191,-97.376884234,151,"4301 FOX CROFT RD, NORMAN, OK, 73026","Match","Exact","4301 FOX CROFT RD, NORMAN, OK, 73026",648959868,"R"
624652,"4301 FOX CROFT ROAD","NORMAN","OK",73026,35.19419191,-97.376884234,152,"4301 FOX CROFT ROAD, NORMAN, OK, 73026","Match","Exact","4301 FOX CROFT RD, NORMAN, OK, 73026",648959868,"R"
624653,"4301 FOXGLOVE TRAIL","GARDENDALE","AL",35071,33.6391659180001,-86.815808846,153,"4301 FOXGLOVE TRAIL, GARDENDALE, AL, 35071","Match","Exact","4301 FOXGLOVE TRL, GARDENDALE, AL, 35071",81670552,"L"
624654,"4301 GERMANTOWN PIKE","DAYTON","OH",45417,39.7275428520001,-84.263917743,154,"4301 GERMANTOWN PIKE, DAYTON, OH, 45417","Match","Exact","4301 GERMANTOWN PIKE, DAYTON, OH, 45417",143577638,"R"
624655,"4301 GLADSTONE BLVD","KANSAS CITY","MO",64123,39.1182034510001,-94.531028287,155,"4301 GLADSTONE BLVD, KANSAS CITY, MO, 64123","Match","Exact","4301 GLADSTONE BLVD, KANSAS CITY, MO, 64123",91530017,"R"
624656,"4301 GLADYS","SANTA CRUZ","CA",95062,36.966829535,-121.96300081,156,"4301 GLADYS, SANTA CRUZ, CA, 95062","Match","Non_Exact","4301 GLADYS AVE, SANTA CRUZ, CA, 95062",125508133,"L"
624657,"4301 GLEN MEADOWS","PARKER","TX",75002,33.0713269610001,-96.647355773,157,"4301 GLEN MEADOWS, PARKER, TX, 75002","Match","Non_Exact","4301 GLEN MEADOWS DR, PARKER, TX, 75002",649844504,"R"
624658,"4301 GRAMERCEY CIRCLE","ALEXANDRIA","VA",22309,38.7402249,-77.109364553,158,"4301 GRAMERCEY CIRCLE, ALEXANDRIA, VA, 22309","Match","Non_Exact","4301 GRAMERCY CIR, ALEXANDRIA, VA, 22309",76021366,"R"
624659,"4301 GRAND AVENUE PKWY","AUSTIN","TX",78728,30.4682817660001,-97.686710316,159,"4301 GRAND AVENUE PKWY, AUSTIN, TX, 78728","Match","Exact","4301 GRAND AVENUE PKWY, AUSTIN, TX, 78728",628009703,"R"
624660,"4301 GREENHAVEN DR","NIXA","MO",65714,37.067194918,-93.261785216,160,"4301 GREENHAVEN DR, NIXA, MO, 65714","Match","Non_Exact","4301 GREEN HAVEN DR, NIXA, MO, 65714",624407299,"L"
624661,"4301 HECKTOWN ROAD","BETHLEHEM","PA",18020,40.6943310460001,-75.3230742279999,161,"4301 HECKTOWN ROAD, BETHLEHEM, PA, 18020","Match","Exact","4301 HECKTOWN RD, BETHLEHEM, PA, 18020",136958747,"R"
624662,"4301 HIDDEN VALLEY COURT","COLLEYVILLE","TX",76034,32.874097653,-97.155681327,162,"4301 HIDDEN VALLEY COURT, COLLEYVILLE, TX, 76034","Match","Exact","4301 HIDDEN VALLEY CT, COLLEYVILLE, TX, 76034",101867410,"R"
624663,"4301 HILLSPIRE AVE NW","ALBUQUERQUE","NM",87120,35.156244637,-106.684852188,163,"4301 HILLSPIRE AVE NW, ALBUQUERQUE, NM, 87120","Match","Exact","4301 HILLSPIRE AVE NW, ALBUQUERQUE, NM, 87120",206762470,"R"
624664,"4301 JONES BRIDGE RD","BETHESDA","MD",20814,NA,NA,164,"4301 JONES BRIDGE RD, BETHESDA, MD, 20814","No_Match",NA,NA,NA,NA
624665,"4301 LA SIERRA AVE UNIT 20","RIVERSIDE","CA",92505,33.911984642,-117.483151778,165,"4301 LA SIERRA AVE UNIT 20, RIVERSIDE, CA, 92505","Match","Non_Exact","4301 LA SIERRA AVE, RIVERSIDE, CA, 92505",639955316,"R"
624666,"4301 LAKE RIDGE PARKWAY","RIVERDALE","GA",30296,NA,NA,166,"4301 LAKE RIDGE PARKWAY, RIVERDALE, GA, 30296","No_Match",NA,NA,NA,NA
624667,"4301 LAKE WASHINGTON BLVD NE","KIRKLAND","WA",98033,47.647608803,-122.202939834,167,"4301 LAKE WASHINGTON BLVD NE, KIRKLAND, WA, 98033","Match","Exact","4301 LAKE WASHINGTON BLVD NE, KIRKLAND, WA, 98033",634327299,"L"
624668,"4301 LONE ELM ST","SACHSE","TX",75048,32.9622332920001,-96.5746297329999,168,"4301 LONE ELM ST, SACHSE, TX, 75048","Match","Exact","4301 LONE ELM ST, SACHSE, TX, 75048",646694386,"L"
624669,"4301 LONGDALE FURNACE RD","CLIFTON FORGE","VA",24422,37.802121958,-79.7365630799999,169,"4301 LONGDALE FURNACE RD, CLIFTON FORGE, VA, 24422","Match","Exact","4301 LONGDALE FURNACE RD, CLIFTON FORGE, VA, 24422",641113291,"L"
624670,"4301 LOST SPRING COURT","LOUISVILLE","KY",40241,NA,NA,170,"4301 LOST SPRING COURT, LOUISVILLE, KY, 40241","No_Match",NA,NA,NA,NA
624671,"4301 MANNER GATE DRIVE","LOUISVILLE","KY",40228,38.204766121,-85.623022868,171,"4301 MANNER GATE DRIVE, LOUISVILLE, KY, 40228","Match","Non_Exact","4301 MANNER GATE DR, LOUISVILLE, KY, 40220",96857413,"L"
624672,"4301 MANORFIELD WAY 201","RALEIGH","NC",27612,35.8385929460001,-78.691174003,172,"4301 MANORFIELD WAY 201, RALEIGH, NC, 27612","Match","Non_Exact","4301 MANOR FIELD WAY, RALEIGH, NC, 27612",612816829,"L"
624673,"4301 MARKHAM STREET SUITE 540","LITTLE ROCK","AR",72205,34.751550975,-92.320455521,173,"4301 MARKHAM STREET SUITE 540, LITTLE ROCK, AR, 72205","Match","Non_Exact","4301 W MARKHAM ST, LITTLE ROCK, AR, 72205",83505761,"L"
624674,"4301 MARTH AVE","LOUISVILLE","KY",40220,NA,NA,174,"4301 MARTH AVE, LOUISVILLE, KY, 40220","No_Match",NA,NA,NA,NA
624675,"4301 MERCER CT","CONCORD","CA",94521,37.9674604630001,-121.986782882,175,"4301 MERCER CT, CONCORD, CA, 94521","Match","Exact","4301 MERCER CT, CONCORD, CA, 94521",192058133,"L"
624676,"4301 MIDTOWN SQ APT 1031","CAMP SPRINGS","MD",20746,38.8304176940001,-76.908415396,176,"4301 MIDTOWN SQ APT 1031, CAMP SPRINGS, MD, 20746","Match","Exact","4301 MIDTOWN SQ, CAMP SPRINGS, MD, 20746",646569763,"L"
624677,"4301 MILE 10 N","MERCEDES","TX",78570,NA,NA,177,"4301 MILE 10 N, MERCEDES, TX, 78570","No_Match",NA,NA,NA,NA
624678,"4301 MILITARY RD NW APT 506","WASHINGTON","DC",20015,38.96102734,-77.084401645,178,"4301 MILITARY RD NW APT 506, WASHINGTON, DC, 20015","Match","Exact","4301 MILITARY RD NW, WASHINGTON, DC, 20015",76219616,"R"
624679,"4301 MILITARY ROAD NW","WASHINGTON","DC",20015,38.96102734,-77.084401645,179,"4301 MILITARY ROAD NW, WASHINGTON, DC, 20015","Match","Exact","4301 MILITARY RD NW, WASHINGTON, DC, 20015",76219616,"R"
624680,"4301 MILITARY ROAD","WASHINGTON","DC",20015,38.96102734,-77.084401645,180,"4301 MILITARY ROAD, WASHINGTON, DC, 20015","Match","Non_Exact","4301 MILITARY RD NW, WASHINGTON, DC, 20015",76219616,"R"
624681,"4301 MUTTER ROAD","ST CLOUD","FL",34769,28.238778886,-81.3168047089999,181,"4301 MUTTER ROAD, ST CLOUD, FL, 34769","Match","Exact","4301 MUTTER RD, SAINT CLOUD, FL, 34769",176683873,"R"
624682,"4301 N 6TH STREET","PHILADELPHIA","PA",19140,40.0169884470001,-75.136784425,182,"4301 N 6TH STREET, PHILADELPHIA, PA, 19140","Match","Exact","4301 N 6TH ST, PHILADELPHIA, PA, 19140",131417670,"R"
624683,"4301 N 75TH STREET SUITE 105","SCOTTSDALE","AZ",85251,33.499738715,-111.920071563,183,"4301 N 75TH STREET SUITE 105, SCOTTSDALE, AZ, 85251","Match","Non_Exact","4301 N 75TH ST, SCOTTSDALE, AZ, 85251",642850384,"R"
624684,"4301 N HWY 19-A  LOT 110","MT. DORA","FL",32757,NA,NA,184,"4301 N HWY 19-A  LOT 110, MT. DORA, FL, 32757","No_Match",NA,NA,NA,NA
624685,"4301 N JUNE","OKLAHOMA CITY","OK",73112,35.514201932,-97.582485318,185,"4301 N JUNE, OKLAHOMA CITY, OK, 73112","Match","Non_Exact","4301 N JUNE AVE, OKLAHOMA CITY, OK, 73112",100395837,"L"
624686,"4301 N MACARTHUR BLVD STE 203","IRVING","TX",75038,32.8638900300001,-96.9600790549999,186,"4301 N MACARTHUR BLVD STE 203, IRVING, TX, 75038","Match","Non_Exact","4301 N MACARTHUR BLVD, IRVING, TX, 75038",103262879,"L"
624687,"4301 N SHARY RD","PALMHURST","TX",78573,NA,NA,187,"4301 N SHARY RD, PALMHURST, TX, 78573","No_Match",NA,NA,NA,NA
624688,"4301 NE 1ST STREET 2841","RENTON","WA",98059,NA,NA,188,"4301 NE 1ST STREET 2841, RENTON, WA, 98059","No_Match",NA,NA,NA,NA
624689,"4301 NE LAURELHURST PLACE","PORTLAND","OR",97213,45.5298076070001,-122.618229249,189,"4301 NE LAURELHURST PLACE, PORTLAND, OR, 97213","Match","Exact","4301 NE LAURELHURST PL, PORTLAND, OR, 97213",157511763,"L"
624690,"4301 NORTH HENDERSON RD APT 103","ARLINGTON","VA",22203,38.8746704160001,-77.1099957,190,"4301 NORTH HENDERSON RD APT 103, ARLINGTON, VA, 22203","Match","Exact","4301 N HENDERSON RD, ARLINGTON, VA, 22203",76468918,"R"
624691,"4301 NOTTINGHAM DRIVE","NEW ORLEANS","LA",70119,NA,NA,191,"4301 NOTTINGHAM DRIVE, NEW ORLEANS, LA, 70119","No_Match",NA,NA,NA,NA
624692,"4301 NW 36TH WAY","LAUDERDALE LAKES","FL",33309,26.1787540070001,-80.198952417,192,"4301 NW 36TH WAY, LAUDERDALE LAKES, FL, 33309","Match","Exact","4301 NW 36TH WAY, LAUDERDALE LAKES, FL, 33309",114707023,"L"
624693,"4301 NW 63RD ST 107","OKLAHOMA CITY","OK",73116,35.536826997,-97.59683762,193,"4301 NW 63RD ST 107, OKLAHOMA CITY, OK, 73116","Match","Non_Exact","4301 NW 63RD ST, OKLAHOMA CITY, OK, 73116",652823224,"R"
624694,"4301 OAK CIR STE 23","BOCA RATON","FL",33431,26.388902967,-80.083537103,194,"4301 OAK CIR STE 23, BOCA RATON, FL, 33431","Match","Exact","4301 OAK CIR, BOCA RATON, FL, 33431",115575442,"L"
624695,"4301 ORCHARD LAKE RD 180-222","WEST BLOOMFIELD","MI",48323,42.574349195,-83.3621486489999,195,"4301 ORCHARD LAKE RD 180-222, WEST BLOOMFIELD, MI, 48323","Match","Exact","4301 ORCHARD LAKE RD, W BLOOMFIELD, MI, 48323",69721923,"L"
624696,"4301 ORCHARD LAKE RD SUITE 180-273","WEST BLOOMFIELD","MI",48323,42.574349195,-83.3621486489999,196,"4301 ORCHARD LAKE RD SUITE 180-273, WEST BLOOMFIELD, MI, 48323","Match","Exact","4301 ORCHARD LAKE RD, W BLOOMFIELD, MI, 48323",69721923,"L"
624697,"4301 ORCHARD LAKE RD","WEST BLOOMFIELD","MI",48323,42.574349195,-83.3621486489999,197,"4301 ORCHARD LAKE RD, WEST BLOOMFIELD, MI, 48323","Match","Exact","4301 ORCHARD LAKE RD, W BLOOMFIELD, MI, 48323",69721923,"L"
624698,"4301 ORCHARD LK RD","WEST BLOOMFIELD","MI",48323,42.574349195,-83.3621486489999,198,"4301 ORCHARD LK RD, WEST BLOOMFIELD, MI, 48323","Match","Exact","4301 ORCHARD LAKE RD, W BLOOMFIELD, MI, 48323",69721923,"L"
624699,"4301 ORKNEY CT","WOODBRIDGE","VA",22192,38.6882397960001,-77.334917928,199,"4301 ORKNEY CT, WOODBRIDGE, VA, 22192","Match","Exact","4301 ORKNEY CT, WOODBRIDGE, VA, 22192",76532337,"L"
624700,"4301 PALAMA","KALAHEO","GU",96741,NA,NA,200,"4301 PALAMA, KALAHEO, GU, 96741","No_Match",NA,NA,NA,NA
624701,"4301 PALAMA","KALAHEO","HI",96741,21.919076934,-159.524279313,201,"4301 PALAMA, KALAHEO, HI, 96741","Match","Non_Exact","4301 PALAMA ST, KALAHEO, HI, 96741",635495812,"L"
624702,"4301 PARADISE DRIVE","CARMICHAEL","CA",95608,38.6421364020001,-121.302135686,202,"4301 PARADISE DRIVE, CARMICHAEL, CA, 95608","Match","Exact","4301 PARADISE DR, CARMICHAEL, CA, 95608",133343776,"L"
624703,"4301 PARK AVENUE UNIT 620","DES MOINES","IA",50321,41.5555470530001,-93.674595746,203,"4301 PARK AVENUE UNIT 620, DES MOINES, IA, 50321","Match","Exact","4301 PARK AVE, DES MOINES, IA, 50321",65785312,"R"
624704,"4301 PLANZ ROAD APT - D","BAKERSFIELD","CA",93309,35.325018007,-119.050439057,204,"4301 PLANZ ROAD APT - D, BAKERSFIELD, CA, 93309","Match","Exact","4301 PLANZ RD, BAKERSFIELD, CA, 93309",109091612,"L"
624705,"4301 PLUMAS CT","SACRAMENTO","CA",95820,38.534440492,-121.45692018,205,"4301 PLUMAS CT, SACRAMENTO, CA, 95820","Match","Exact","4301 PLUMAS CT, SACRAMENTO, CA, 95820",133327320,"R"
624706,"4301 PLUMCREST DRIVE","SMYRNA","GA",30082,NA,NA,206,"4301 PLUMCREST DRIVE, SMYRNA, GA, 30082","No_Match",NA,NA,NA,NA
624707,"4301 POWELL CEMETERY RD PO BOX 603","TOLAR","TX",76476,32.365679648,-97.877538288,207,"4301 POWELL CEMETERY RD PO BOX 603, TOLAR, TX, 76476","Match","Exact","4301 POWELL CEMETERY RD, TOLAR, TX, 76476",158793389,"R"
624708,"4301 REAR STATE ST","EAST ST LOUIS","IL",62205,NA,NA,208,"4301 REAR STATE ST, EAST ST LOUIS, IL, 62205","No_Match",NA,NA,NA,NA
624709,"4301 RHONE DRIVE","NEW PORT RICHEY","FL",34655,28.221370796,-82.661041473,209,"4301 RHONE DRIVE, NEW PORT RICHEY, FL, 34655","Match","Exact","4301 RHONE DR, NEW PORT RICHEY, FL, 34655",635361152,"L"
624710,"4301 RIDGEWOOD AVENUE","BALTIMORE","MD",21215,39.336641403,-76.691780449,210,"4301 RIDGEWOOD AVENUE, BALTIMORE, MD, 21215","Match","Exact","4301 RIDGEWOOD AVE, BALTIMORE, MD, 21215",206405094,"L"
624711,"4301 ROLAND","ST LOUIS","MO",63121,NA,NA,211,"4301 ROLAND, ST LOUIS, MO, 63121","No_Match",NA,NA,NA,NA
624712,"4301 S 205TH EAST AVE","BROKEN ARROW","OK",74014,36.1016070040001,-95.7488886199999,212,"4301 S 205TH EAST AVE, BROKEN ARROW, OK, 74014","Match","Exact","4301 S 205TH E AVE, BROKEN ARROW, OK, 74014",83177751,"L"
624713,"4301 S ELLIS","CHICAGO","IL",60653,41.8167016410001,-87.601840646,213,"4301 S ELLIS, CHICAGO, IL, 60653","Match","Non_Exact","4301 S ELLIS AVE, CHICAGO, IL, 60653",605498962,"L"
624714,"4301 S HILTON ST","TERRE HAUTE","IN",47802,39.414444911,-87.396115627,214,"4301 S HILTON ST, TERRE HAUTE, IN, 47802","Match","Exact","4301 S HILTON ST, TERRE HAUTE, IN, 47802",27128677,"L"
624715,"4301 S LAFAYETTE STREET","CHERRY HILLS VILLAGE","CO",80113,39.6385009250001,-104.97139031,215,"4301 S LAFAYETTE STREET, CHERRY HILLS VILLAGE, CO, 80113","Match","Exact","4301 S LAFAYETTE ST, CHERRY HILLS VILLAGE, CO, 80113",177334600,"R"
624716,"4301 S NARCISSUS AVE","BROKEN ARROW","OK",74011,36.0081131970001,-95.8068523489999,216,"4301 S NARCISSUS AVE, BROKEN ARROW, OK, 74011","Match","Exact","4301 S NARCISSUS AVE, BROKEN ARROW, OK, 74011",617313183,"L"
624717,"4301 S PINE ST STE 112","TACOMA","WA",98409,47.218133994,-122.47363309,217,"4301 S PINE ST STE 112, TACOMA, WA, 98409","Match","Non_Exact","4301 S PINE ST, TACOMA, WA, 98409",184620607,"L"
624718,"4301 SADDLE RIVER DRIVE","BOWIE","MD",20720,38.947453991,-76.805961897,218,"4301 SADDLE RIVER DRIVE, BOWIE, MD, 20720","Match","Exact","4301 SADDLE RIVER DR, BOWIE, MD, 20720",639359771,"R"
624719,"4301 SCENIC LANE","HARLINGEN","TX",78552,26.1463052760001,-97.763984095,219,"4301 SCENIC LANE, HARLINGEN, TX, 78552","Match","Exact","4301 SCENIC LN, HARLINGEN, TX, 78552",89989927,"R"
624720,"4301 SHADOWDALE","BRIDGE CITY","TX",77611,NA,NA,220,"4301 SHADOWDALE, BRIDGE CITY, TX, 77611","No_Match",NA,NA,NA,NA
624721,"4301 SHAMROCK LANE 3A","MCHENRY","IL",60050,42.3148954690001,-88.280166034,221,"4301 SHAMROCK LANE 3A, MCHENRY, IL, 60050","Match","Non_Exact","4301 W SHAMROCK LN, MCHENRY, IL, 60050",628986445,"L"
624722,"4301 SHAWNEE CIR","CHATTANOOGA","TN",37411,35.0280012640001,-85.230447845,222,"4301 SHAWNEE CIR, CHATTANOOGA, TN, 37411","Match","Exact","4301 SHAWNEE CIR, CHATTANOOGA, TN, 37411",59311199,"L"
624723,"4301 SHOSHONI AVENUE","ANCHORAGE","AK",99516,61.0928892160001,-149.801829048,223,"4301 SHOSHONI AVENUE, ANCHORAGE, AK, 99516","Match","Exact","4301 SHOSHONI AVE, ANCHORAGE, AK, 99516",190803861,"L"
624724,"4301 SMITH RYALS ROAD","PLANT CITY","FL",33567,27.9560251500001,-82.0885311919999,224,"4301 SMITH RYALS ROAD, PLANT CITY, FL, 33567","Match","Exact","4301 SMITH RYALS RD, PLANT CITY, FL, 33567",104504330,"L"
624725,"4301 SO LILAC PLACE","SIOUX FALLS","SD",57105,43.5039302600001,-96.752525638,225,"4301 SO LILAC PLACE, SIOUX FALLS, SD, 57105","Match","Exact","4301 S LILAC PL, SIOUX FALLS, SD, 57105",34975309,"R"
624726,"4301 SOUTH STATE STREET","CHICAGO","IL",60609,41.816420457,-87.626259671,226,"4301 SOUTH STATE STREET, CHICAGO, IL, 60609","Match","Exact","4301 S STATE ST, CHICAGO, IL, 60609",605539414,"L"
624727,"4301 SOUTHWEST CHASESTONE AVE 1","BENTONVILLE","AZ",72712,NA,NA,227,"4301 SOUTHWEST CHASESTONE AVE 1, BENTONVILLE, AZ, 72712","No_Match",NA,NA,NA,NA
624728,"4301 STONE WAY N APT 224","SEATTLE","WA",98103,47.659240287,-122.342260396,228,"4301 STONE WAY N APT 224, SEATTLE, WA, 98103","Match","Exact","4301 STONE WAY N, SEATTLE, WA, 98103",186582820,"L"
624729,"4301 STONEBROOK DRIVE","JONESBORO","AR",72404,35.791694191,-90.675702611,229,"4301 STONEBROOK DRIVE, JONESBORO, AR, 72404","Match","Exact","4301 STONEBROOK DR, JONESBORO, AR, 72404",46934024,"R"
624730,"4301 SUGAR RIDGE RD","HILLSBOROUGH","NC",27278,36.0055400360001,-79.1836537309999,230,"4301 SUGAR RIDGE RD, HILLSBOROUGH, NC, 27278","Match","Exact","4301 SUGAR RIDGE RD, HILLSBOROUGH, NC, 27278",72409811,"R"
624731,"4301 SUMMIT PLACE","ALEXANDRIA","VA",22312,38.8312640870001,-77.146846543,231,"4301 SUMMIT PLACE, ALEXANDRIA, VA, 22312","Match","Exact","4301 SUMMIT PL, ALEXANDRIA, VA, 22312",75981977,"L"
624732,"4301 SW 14TH STREET","MIAMI","FL",33134,25.7585457220001,-80.265265921,232,"4301 SW 14TH STREET, MIAMI, FL, 33134","Match","Exact","4301 SW 14TH ST, MIAMI, FL, 33134",116010628,"R"
624733,"4301 SW 3 STREET","PLANTATION","FL",33317,26.117240925,-80.205024711,233,"4301 SW 3 STREET, PLANTATION, FL, 33317","Match","Exact","4301 SW 3RD ST, PLANTATION, FL, 33317",114763369,"R"
624734,"4301 TANNER DRIVE","MIDLAND","TX",79703,31.983774119,-102.128734908,234,"4301 TANNER DRIVE, MIDLAND, TX, 79703","Match","Exact","4301 TANNER DR, MIDLAND, TX, 79703",139580252,"L"
624735,"4301 TEAKWOOD CIRCLE","BRADENTON","FL",34208,27.4962838550001,-82.508663268,235,"4301 TEAKWOOD CIRCLE, BRADENTON, FL, 34208","Match","Exact","4301 TEAKWOOD CIR, BRADENTON, FL, 34208",16279546,"L"
624736,"4301 TWIN PINES DRIVE","KNOXVILLE","TN",37921,35.967992806,-84.012963226,236,"4301 TWIN PINES DRIVE, KNOXVILLE, TN, 37921","Match","Exact","4301 TWIN PINES DR, KNOXVILLE, TN, 37921",42613533,"L"
624737,"4301 W MAIN ST","RUSSELLVILLE","AR",72801,35.2961087150001,-93.168792867,237,"4301 W MAIN ST, RUSSELLVILLE, AR, 72801","Match","Exact","4301 W MAIN ST, RUSSELLVILLE, AR, 72801",641724094,"L"
624738,"4301 W MARKHAM SLOT 543","LITTLE ROCK","AR",72205,NA,NA,238,"4301 W MARKHAM SLOT 543, LITTLE ROCK, AR, 72205","No_Match",NA,NA,NA,NA
624739,"4301 W MARKHAM ST SUITE 520-1","LITTLE ROCK","AR",72205,34.7515516030001,-92.320472663,239,"4301 W MARKHAM ST SUITE 520-1, LITTLE ROCK, AR, 72205","Match","Non_Exact","4301 W MARKHAM ST, LITTLE ROCK, AR, 72205",83505761,"L"
624740,"4301 W MARKHAM ST","LITTLE ROCK","AR",72205,34.7515516030001,-92.320472663,240,"4301 W MARKHAM ST, LITTLE ROCK, AR, 72205","Match","Exact","4301 W MARKHAM ST, LITTLE ROCK, AR, 72205",83505761,"L"
624741,"4301 W WASHINGTON BLVD","CHICAGO","IL",60624,41.8819517470001,-87.733259147,241,"4301 W WASHINGTON BLVD, CHICAGO, IL, 60624","Match","Exact","4301 W WASHINGTON BLVD, CHICAGO, IL, 60624",111758541,"L"
624742,"4301 W WILLIAM CANNON DR B150-321","AUSTIN","TX",78749,NA,NA,242,"4301 W WILLIAM CANNON DR B150-321, AUSTIN, TX, 78749","No_Match",NA,NA,NA,NA
624743,"4301 W WILLIAM CANNON DRIVE","AUSTIN","TX",87849,30.222085055,-97.838705126,243,"4301 W WILLIAM CANNON DRIVE, AUSTIN, TX, 87849","Match","Non_Exact","4301 W WILLIAM CANNON DR, AUSTIN, TX, 78745",641662351,"L"
624744,"4301 WALLABY COURT","ANTIOCH","CA",94531,37.9706938510001,-121.775219224,244,"4301 WALLABY COURT, ANTIOCH, CA, 94531","Match","Exact","4301 WALLABY CT, ANTIOCH, CA, 94531",192099674,"R"
624745,"4301 WEST BROADWAY","ROBBINSDALE","MN",55422,45.033595167,-93.342141869,245,"4301 WEST BROADWAY, ROBBINSDALE, MN, 55422","Match","Non_Exact","4301 W BROADWAY AVE, ROBBINSDALE, MN, 55422",43618373,"L"
624746,"4301 WEST MARKHAM SLOT 735","LITTLE ROCK","AR",72205,34.751550975,-92.320455521,246,"4301 WEST MARKHAM SLOT 735, LITTLE ROCK, AR, 72205","Match","Non_Exact","4301 W MARKHAM ST, LITTLE ROCK, AR, 72205",83505761,"L"
624747,"4301 WEST MARKHAM","LITTLE ROCK","AR",72205,34.751550975,-92.320455521,247,"4301 WEST MARKHAM, LITTLE ROCK, AR, 72205","Match","Non_Exact","4301 W MARKHAM ST, LITTLE ROCK, AR, 72205",83505761,"L"
624748,"4301 WEST VILLAGE AVENUE","CAMP SPRINGS","MD",20746,38.830651688,-76.909528796,248,"4301 WEST VILLAGE AVENUE, CAMP SPRINGS, MD, 20746","Match","Exact","4301 W VILLAGE AVE, CAMP SPRINGS, MD, 20746",638237282,"L"
624749,"4301 WESTBANK DR STE150","AUSTIN","TX",78746,30.2771494780001,-97.818591386,249,"4301 WESTBANK DR STE150, AUSTIN, TX, 78746","Match","Exact","4301 WESTBANK DR, AUSTIN, TX, 78746",649019059,"L"
624750,"4301 WESTVIEW DR","NORTHBROOK","IL",60062,42.090745602,-87.862152339,250,"4301 WESTVIEW DR, NORTHBROOK, IL, 60062","Match","Exact","4301 WESTVIEW DR, NORTHBROOK, IL, 60062",111719378,"R"
624751,"4301 WILHELM STREET","FORT WORTH","TX",76119,32.7013645050001,-97.254553089,251,"4301 WILHELM STREET, FORT WORTH, TX, 76119","Match","Exact","4301 WILHELM ST, FORT WORTH, TX, 76119",101899414,"L"
624752,"4301 WINESAP DR","HUTCHINSON","KS",67502,38.1012771650001,-97.8774644969999,252,"4301 WINESAP DR, HUTCHINSON, KS, 67502","Match","Exact","4301 WINESAP DR, HUTCHINSON, KS, 67502",647648988,"R"
624753,"4301 WOLF RD","MONTGOMERY","OH",45416,39.8097355520001,-84.255327761,253,"4301 WOLF RD, MONTGOMERY, OH, 45416","Match","Non_Exact","4301 WOLF RD, DAYTON, OH, 45416",143628524,"L"
624754,"4301 WORONZOF","ANCHORAGE","AK",99517,61.1940709020001,-149.964323681,254,"4301 WORONZOF, ANCHORAGE, AK, 99517","Match","Non_Exact","4301 WORONZOF DR, ANCHORAGE, AK, 99517",614865057,"R"
624755,"4301-A ACROPOLIS COURT","AUSTIN","TX",78759,30.41251019,-97.7298257749999,255,"4301-A ACROPOLIS COURT, AUSTIN, TX, 78759","Match","Exact","4301 ACROPOLIS CT, AUSTIN, TX, 78759",63991704,"L"
624756,"4301-A LAWNDALE DRIVE","GREENSBORO","NC",27438,36.1312203960001,-79.832285344,256,"4301-A LAWNDALE DRIVE, GREENSBORO, NC, 27438","Match","Non_Exact","4301 LAWNDALE DR, GREENSBORO, NC, 27455",131091595,"L"
624757,"43010 CHESTERTON ST","ASHBURN","VA",20147,39.0532550630001,-77.511188665,257,"43010 CHESTERTON ST, ASHBURN, VA, 20147","Match","Exact","43010 CHESTERTON ST, ASHBURN, VA, 20147",62367014,"L"
624758,"4301M I-10 SERVICE ROAD WEST","METAIRIE","LA",70006,NA,NA,258,"4301M I-10 SERVICE ROAD WEST, METAIRIE, LA, 70006","No_Match",NA,NA,NA,NA
624759,"4302 13TH STREET","WASHINGTON","DC",20017,38.9419026300001,-76.988309285,259,"4302 13TH STREET, WASHINGTON, DC, 20017","Match","Non_Exact","4302 13TH ST NE, WASHINGTON, DC, 20017",76228315,"L"
624760,"4302 224TH PL SW","MOUNTLAKE TERRACE","WA",98043,47.795193157,-122.290426047,260,"4302 224TH PL SW, MOUNTLAKE TERRACE, WA, 98043","Match","Exact","4302 224TH PL SW, MOUNTLAKE TERRACE, WA, 98043",187757242,"L"
624761,"4302 335TH ST","MAPLETON","IA",51034,42.2187009240001,-95.767036997,261,"4302 335TH ST, MAPLETON, IA, 51034","Match","Exact","4302 335TH ST, MAPLETON, IA, 51034",93415017,"R"
624762,"4302 37TH STREET NW","WASHINGTON","DC",20008,38.944963919,-77.072417389,262,"4302 37TH STREET NW, WASHINGTON, DC, 20008","Match","Exact","4302 37TH ST NW, WASHINGTON, DC, 20008",76220534,"L"
624763,"4302 42ND STREET","SUNNYSIDE","NY",11104,NA,NA,263,"4302 42ND STREET, SUNNYSIDE, NY, 11104","No_Match",NA,NA,NA,NA
624764,"4302 AQUA VERDE DR","AUSTIN","TX",78746,30.344396057,-97.8093928819999,264,"4302 AQUA VERDE DR, AUSTIN, TX, 78746","Match","Exact","4302 AQUA VERDE DR, AUSTIN, TX, 78746",646526491,"L"
624765,"4302 AVENUE I","BROOKLYN","NY",11210,40.630091538,-73.934769054,265,"4302 AVENUE I, BROOKLYN, NY, 11210","Match","Exact","4302 AVE I, BROOKLYN, NY, 11210",59082158,"R"
624766,"4302 BOLTON VALLEY ACCESS RD 302","BOLTON VALLEY","VT",5477,44.420510393,-72.851081511,266,"4302 BOLTON VALLEY ACCESS RD 302, BOLTON VALLEY, VT, 5477","Match","Exact","4302 BOLTON VALLEY ACCESS RD, BOLTON VALLEY, VT, 05477",135845344,"L"
624767,"4302 BOSTON AVENUE","SAN DIEGO","CA",92113,32.693235063,-117.102265264,267,"4302 BOSTON AVENUE, SAN DIEGO, CA, 92113","Match","Exact","4302 BOSTON AVE, SAN DIEGO, CA, 92113",612873719,"L"
624768,"4302 BROADWAY STREET","INDIANAPOLIS","IN",46205,39.8341412770001,-86.1468778619999,268,"4302 BROADWAY STREET, INDIANAPOLIS, IN, 46205","Match","Exact","4302 BROADWAY ST, INDIANAPOLIS, IN, 46205",107989021,"L"
624769,"4302 CHICOT STREET","PASCAGOULA","MS",39581,30.376250305,-88.525041769,269,"4302 CHICOT STREET, PASCAGOULA, MS, 39581","Match","Exact","4302 CHICOT ST, PASCAGOULA, MS, 39581",89270626,"R"
624770,"4302 CURLY OAKS DRIVE","HOUSTON","TX",77053,29.6083056350001,-95.443041761,270,"4302 CURLY OAKS DRIVE, HOUSTON, TX, 77053","Match","Exact","4302 CURLY OAKS DR, HOUSTON, TX, 77053",96041214,"R"
624771,"4302 DEERPATH LANE","PHILADELPHIA","PA",19154,40.079567394,-74.974023938,271,"4302 DEERPATH LANE, PHILADELPHIA, PA, 19154","Match","Exact","4302 DEERPATH LN, PHILADELPHIA, PA, 19154",131441537,"R"
624772,"4302 DOW WAY","PASADENA","TX",77505,29.6451440280001,-95.1509273899999,272,"4302 DOW WAY, PASADENA, TX, 77505","Match","Exact","4302 DOW WAY, PASADENA, TX, 77505",645841720,"R"
624773,"4302 DUDLEY NORTH DRIVE","INDIANAPOLIS","IN",46237,39.6867367560001,-86.094185486,273,"4302 DUDLEY NORTH DRIVE, INDIANAPOLIS, IN, 46237","Match","Exact","4302 DUDLEY N DR, INDIANAPOLIS, IN, 46237",108009596,"L"
624774,"4302 DUVAL STREET UNIT B","AUSTIN","TX",78751,30.3048501420001,-97.726003814,274,"4302 DUVAL STREET UNIT B, AUSTIN, TX, 78751","Match","Exact","4302 DUVAL ST, AUSTIN, TX, 78751",63998616,"L"
624775,"4302 E MOUNTAIN VISTA DRIVE","PHOENIX","AZ",85048,NA,NA,275,"4302 E MOUNTAIN VISTA DRIVE, PHOENIX, AZ, 85048","Tie",NA,NA,NA,NA
624776,"4302 EAST SCIOTA ST","SCIO","NY",14880,42.1733907230001,-77.973912463,276,"4302 EAST SCIOTA ST, SCIO, NY, 14880","Match","Exact","4302 E SCIOTA ST, SCIO, NY, 14880",82604624,"L"
624777,"4302 EDWARDS RD APT 2 E","TAYLOR","SC",29687,34.901358094,-82.322710034,277,"4302 EDWARDS RD APT 2 E, TAYLOR, SC, 29687","Match","Non_Exact","4302 EDWARDS RD, TAYLORS, SC, 29687",38309035,"R"
624778,"4302 ELIZABETH ST","CUDAHY","CA",90201,33.9638926740001,-118.192659463,278,"4302 ELIZABETH ST, CUDAHY, CA, 90201","Match","Exact","4302 ELIZABETH ST, CUDAHY, CA, 90201",142852305,"R"
624779,"4302 FAIRWAY DR","GRANBURY","TX",76049,32.4284883990001,-97.699349845,279,"4302 FAIRWAY DR, GRANBURY, TX, 76049","Match","Exact","4302 FAIRWAY DR, GRANBURY, TX, 76049",629618346,"L"
624780,"4302 FORCE DRIVE","HUNTSVILLE","AL",35810,34.780160462,-86.583983899,280,"4302 FORCE DRIVE, HUNTSVILLE, AL, 35810","Match","Non_Exact","4302 FORCE DR NW, HUNTSVILLE, AL, 35810",58116046,"R"
624781,"4302 FORESTBROOK","LIVERPOOL","NY",13090,43.1462759340001,-76.216082394,281,"4302 FORESTBROOK, LIVERPOOL, NY, 13090","Match","Non_Exact","4302 FORESTBROOK DR, LIVERPOOL, NY, 13090",46562778,"R"
624782,"4302 FRUITWOOD CT","BOWIE","MD",20720,38.948476107,-76.812697651,282,"4302 FRUITWOOD CT, BOWIE, MD, 20720","Match","Exact","4302 FRUITWOOD CT, BOWIE, MD, 20720",76311003,"L"
624783,"4302 GROTE LOT 1","CLAYTON","WA",99110,48.018970913,-117.598326509,283,"4302 GROTE LOT 1, CLAYTON, WA, 99110","Match","Non_Exact","4302 GROTE RD, CLAYTON, WA, 99110",174860306,"R"
624784,"4302 HOLLYWOOD BLVD  UNIT 99","HOLLYWOOD","FL",33021,26.010414326,-80.186752981,284,"4302 HOLLYWOOD BLVD  UNIT 99, HOLLYWOOD, FL, 33021","Match","Exact","4302 HOLLYWOOD BLVD, HOLLYWOOD, FL, 33021",637758055,"R"
624785,"4302 HOLLYWOOD BLVD 289","HOLLYWOOD","FL",33021,26.010414326,-80.186752981,285,"4302 HOLLYWOOD BLVD 289, HOLLYWOOD, FL, 33021","Match","Exact","4302 HOLLYWOOD BLVD, HOLLYWOOD, FL, 33021",637758055,"R"
624786,"4302 HOLLYWOOD BLVD SUITE 135","HOLLYWOOD","FL",33021,26.010414326,-80.186752981,286,"4302 HOLLYWOOD BLVD SUITE 135, HOLLYWOOD, FL, 33021","Match","Exact","4302 HOLLYWOOD BLVD, HOLLYWOOD, FL, 33021",637758055,"R"
624787,"4302 HOLLYWOOD BLVD SUITE 151","HOLLYWOOD","FL",33021,26.010414326,-80.186752981,287,"4302 HOLLYWOOD BLVD SUITE 151, HOLLYWOOD, FL, 33021","Match","Exact","4302 HOLLYWOOD BLVD, HOLLYWOOD, FL, 33021",637758055,"R"
624788,"4302 HOLLYWOOD BLVD SUITE 99","HOLLYWOOD","FL",33021,26.010414326,-80.186752981,288,"4302 HOLLYWOOD BLVD SUITE 99, HOLLYWOOD, FL, 33021","Match","Exact","4302 HOLLYWOOD BLVD, HOLLYWOOD, FL, 33021",637758055,"R"
624789,"4302 HOLLYWOOD BLVD SUITE135","HOLLYWOOD","FL",33021,26.010414326,-80.186752981,289,"4302 HOLLYWOOD BLVD SUITE135, HOLLYWOOD, FL, 33021","Match","Exact","4302 HOLLYWOOD BLVD, HOLLYWOOD, FL, 33021",637758055,"R"
624790,"4302 HONEYPIE DR","MADISON","WI",53718,43.0355601140001,-89.287316959,290,"4302 HONEYPIE DR, MADISON, WI, 53718","Match","Exact","4302 HONEYPIE DR, MADISON, WI, 53718",626692759,"R"
624791,"4302 INGHAM AVE","COLUMBUS","OH",43214,40.0510677710001,-83.011792978,291,"4302 INGHAM AVE, COLUMBUS, OH, 43214","Match","Exact","4302 INGHAM AVE, COLUMBUS, OH, 43214",135569522,"R"
624792,"4302 JADE CIRCLE SE","DECATUR","AL",35603,34.524617032,-86.937149394,292,"4302 JADE CIRCLE SE, DECATUR, AL, 35603","Match","Non_Exact","4302 JADE CIR, DECATUR, AL, 35603",97145682,"L"
624793,"4302 JADE CIRCLE","DECATUR","AL",35603,34.524617032,-86.937149394,293,"4302 JADE CIRCLE, DECATUR, AL, 35603","Match","Exact","4302 JADE CIR, DECATUR, AL, 35603",97145682,"L"
624794,"4302 JASMINE COVE WAY","WILMINGTON","NC",28412,34.1576393240001,-77.896605285,294,"4302 JASMINE COVE WAY, WILMINGTON, NC, 28412","Match","Exact","4302 JASMINE COVE WAY, WILMINGTON, NC, 28412",152749182,"L"
624795,"4302 KATONAH AVENUE","BRONX","NY",10470,40.898443168,-73.8673426989999,295,"4302 KATONAH AVENUE, BRONX, NY, 10470","Match","Exact","4302 KATONAH AVE, BRONX, NY, 10470",80296862,"R"
624796,"4302 KING COTTON LANE","MISSOURI CITY","TX",77459,29.5585265,-95.548664786,296,"4302 KING COTTON LANE, MISSOURI CITY, TX, 77459","Match","Exact","4302 KING COTTON LN, MISSOURI CITY, TX, 77459",78269680,"L"
624797,"4302 KIRKWOOD","CORPUS CHRISTI","TX",78411,27.7388831760001,-97.4013744169999,297,"4302 KIRKWOOD, CORPUS CHRISTI, TX, 78411","Match","Non_Exact","4302 KIRKWOOD DR, CORPUS CHRISTI, TX, 78411",178519142,"L"
624798,"4302 LAUREL DR","HOUSTON","TX",NA,29.707536836,-95.347955332,298,"4302 LAUREL DR, HOUSTON, TX, ","Match","Exact","4302 LAUREL DR, HOUSTON, TX, 77021",96074168,"R"
624799,"4302 LUKOW PL","VALRICO","FL",33596,27.872963493,-82.254226043,299,"4302 LUKOW PL, VALRICO, FL, 33596","Match","Exact","4302 LUKOW PL, VALRICO, FL, 33596",104564876,"R"
624800,"4302 LYNNANN DR","LAS VEGAS","NV",89110,36.1870538570001,-115.082114002,300,"4302 LYNNANN DR, LAS VEGAS, NV, 89110","Match","Exact","4302 LYNNANN DR, LAS VEGAS, NV, 89110",201874594,"L"
624801,"4302 MARTON RD","KINGSTON","MI",48741,43.3907149680001,-83.105622433,301,"4302 MARTON RD, KINGSTON, MI, 48741","Match","Exact","4302 MARTON RD, KINGSTON, MI, 48741",81253190,"L"
624802,"4302 MASTERS DR","LEAGUE CITY","TX",77573,29.529287718,-95.0557677319999,302,"4302 MASTERS DR, LEAGUE CITY, TX, 77573","Match","Exact","4302 MASTERS DR, LEAGUE CITY, TX, 77573",96694913,"L"
624803,"4302 MOUNT FOSTER AVE","SAN DIEGO","CA",92117,32.81944607,-117.190492475,303,"4302 MOUNT FOSTER AVE, SAN DIEGO, CA, 92117","Match","Exact","4302 MOUNT FOSTER AVE, SAN DIEGO, CA, 92117",195304824,"L"
624804,"4302 NORTH 67TH STREET","MILWAUKEE","WI",53216,43.0956235460001,-87.995701074,304,"4302 NORTH 67TH STREET, MILWAUKEE, WI, 53216","Match","Exact","4302 N 67TH ST, MILWAUKEE, WI, 53216",77730561,"R"
624805,"4302 OAK STREET","BELLWOOD","IL",60104,41.885208146,-87.885956952,305,"4302 OAK STREET, BELLWOOD, IL, 60104","Match","Exact","4302 OAK ST, BELLWOOD, IL, 60104",605137644,"L"
624806,"4302 OLD YORK ROAD","BALTIMORE","MD",21212,NA,NA,306,"4302 OLD YORK ROAD, BALTIMORE, MD, 21212","Tie",NA,NA,NA,NA
624807,"4302 PARK PALOMA","CALABASAS","CA",91302,34.1475016810001,-118.631092011,307,"4302 PARK PALOMA, CALABASAS, CA, 91302","Match","Exact","4302 PARK PALOMA, CALABASAS, CA, 91302",141807461,"L"
624808,"4302 PEACH WAY","BOULDER","CO",80301,40.051763474,-105.250235016,308,"4302 PEACH WAY, BOULDER, CO, 80301","Match","Exact","4302 PEACH WAY, BOULDER, CO, 80301",220752045,"R"
624809,"4302 RAMUDA WAY","SILVER CITY","NM",88061,32.805407658,-108.249655624,309,"4302 RAMUDA WAY, SILVER CITY, NM, 88061","Match","Exact","4302 RAMUDA WAY, SILVER CITY, NM, 88061",651863645,"R"
624810,"4302 RHAWN ST","PHILADELPHIA","PA",19136,40.038656706,-75.026993867,310,"4302 RHAWN ST, PHILADELPHIA, PA, 19136","Match","Exact","4302 RHAWN ST, PHILADELPHIA, PA, 19136",131432818,"R"
624811,"4302 RINGROSE DR","MISSOURI CITY","TX",77459,29.588316918,-95.575595983,311,"4302 RINGROSE DR, MISSOURI CITY, TX, 77459","Match","Exact","4302 RINGROSE DR, MISSOURI CITY, TX, 77459",78290719,"L"
624812,"4302 RINGROSE DRIVE","MISSOURI CITY","TX",77459,29.588316918,-95.575595983,312,"4302 RINGROSE DRIVE, MISSOURI CITY, TX, 77459","Match","Exact","4302 RINGROSE DR, MISSOURI CITY, TX, 77459",78290719,"L"
624813,"4302 RIVER RD NW","WASHINGTON","DC",20016,38.951389797,-77.084028869,313,"4302 RIVER RD NW, WASHINGTON, DC, 20016","Match","Exact","4302 RIVER RD NW, WASHINGTON, DC, 20016",76219679,"L"
624814,"4302 ROCKLANE DRIVE","CONLEY","GA",30288,33.6368449660001,-84.3237118979999,314,"4302 ROCKLANE DRIVE, CONLEY, GA, 30288","Match","Exact","4302 ROCKLANE DR, CONLEY, GA, 30288",23335435,"L"
624815,"4302 SECOND AVENUE","DALLAS","TX",75210,32.76488805,-96.749074498,315,"4302 SECOND AVENUE, DALLAS, TX, 75210","Match","Non_Exact","4302 S 2ND AVE, DALLAS, TX, 75210",102955768,"L"
624816,"4302 SOUTH AKRON COURT","GREENWOOD VILLAGE","CO",80111,39.638812285,-104.883133807,316,"4302 SOUTH AKRON COURT, GREENWOOD VILLAGE, CO, 80111","Match","Exact","4302 S AKRON CT, GREENWOOD VILLAGE, CO, 80111",177344495,"L"
624817,"4302 SPRING AVENUE","HALETHORPE","MD",21227,39.234943894,-76.6777833639999,317,"4302 SPRING AVENUE, HALETHORPE, MD, 21227","Match","Exact","4302 SPRING AVE, HALETHORPE, MD, 21227",624194535,"R"
624818,"4302 STRAIGHT ARROW ROAD","DAYTON","OH",45430,39.7098572350001,-84.1029387949999,318,"4302 STRAIGHT ARROW ROAD, DAYTON, OH, 45430","Match","Exact","4302 STRAIGHT ARROW RD, DAYTON, OH, 45430",143377087,"R"
624819,"4302 SW BLUEGRASS DRIVE","ANKENY","IA",50023,41.6924054030001,-93.625088684,319,"4302 SW BLUEGRASS DRIVE, ANKENY, IA, 50023","Match","Exact","4302 SW BLUEGRASS DR, ANKENY, IA, 50023",640396134,"L"
624820,"4302 SYMES DRIVE","BELLE MEAD","NJ",8502,40.4684210680001,-74.655199072,320,"4302 SYMES DRIVE, BELLE MEAD, NJ, 8502","Match","Exact","4302 SYMES DR, BELLE MEAD, NJ, 08502",624898407,"R"
624821,"4302 THORNLEIGH DR","INDIANAPOLIS","IN",46226,39.842883602,-86.0944013129999,321,"4302 THORNLEIGH DR, INDIANAPOLIS, IN, 46226","Match","Exact","4302 THORNLEIGH DR, INDIANAPOLIS, IN, 46226",107995726,"L"
624822,"4302 TIRLING COURT","CHARLOTTE","NC",28215,35.2441722310001,-80.775895844,322,"4302 TIRLING COURT, CHARLOTTE, NC, 28215","Match","Exact","4302 TIRLING CT, CHARLOTTE, NC, 28215",618145792,"L"
624823,"4302 W CORONA ST","TAMPA","FL",33629,27.9140616020001,-82.51645294,323,"4302 W CORONA ST, TAMPA, FL, 33629","Match","Exact","4302 W CORONA ST, TAMPA, FL, 33629",104525776,"L"
624824,"4302 W RINGWOOD RD","MCHENRY","IL",60057,42.4037661510001,-88.278918065,324,"4302 W RINGWOOD RD, MCHENRY, IL, 60057","Match","Non_Exact","4302 W RINGWOOD RD, MCHENRY, IL, 60051",617572138,"L"
624825,"4302 W THUNDERWOOD CIRCLE","FRESNO","TX",77545,29.523968155,-95.482856882,325,"4302 W THUNDERWOOD CIRCLE, FRESNO, TX, 77545","Match","Exact","4302 W THUNDERWOOD CIR, FRESNO, TX, 77545",645478516,"L"
624826,"4302 WATERFORD VALLEY DRIVE 1923","DURHAM","NC",27713,NA,NA,326,"4302 WATERFORD VALLEY DRIVE 1923, DURHAM, NC, 27713","No_Match",NA,NA,NA,NA
624827,"4302 WEST 6TH STREET","COFFEYVILLE","KS",67337,37.0387092510001,-95.6761776009999,327,"4302 WEST 6TH STREET, COFFEYVILLE, KS, 67337","Match","Exact","4302 W 6TH ST, COFFEYVILLE, KS, 67337",13789863,"R"
624828,"4302 WEST PEAR STREET","PEALAND","TX",77581,29.5617182400001,-95.289592936,328,"4302 WEST PEAR STREET, PEALAND, TX, 77581","Match","Non_Exact","4302 W PEAR ST, PEARLAND, TX, 77581",116568880,"R"
624829,"4302 WICKBY","WESTON LAKES","TX",77441,29.6629603280001,-95.943075334,329,"4302 WICKBY, WESTON LAKES, TX, 77441","Match","Non_Exact","4302 WICKBY ST, WESTON LAKES, TX, 77441",639256944,"L"
624830,"4302 WOODRIDGE DR","SANDUSKY","OH",44870,41.403408524,-82.649943191,330,"4302 WOODRIDGE DR, SANDUSKY, OH, 44870","Match","Exact","4302 WOODRIDGE DR, SANDUSKY, OH, 44870",55334910,"L"
624831,"4302 YORK RD","MARLOW","OK",73055,34.6089215150001,-97.878423834,331,"4302 YORK RD, MARLOW, OK, 73055","Match","Exact","4302 YORK RD, MARLOW, OK, 73055",13678272,"L"
624832,"43021 LA RIVA DR","ASHBURN","VA",20148,38.991247033,-77.5139092749999,332,"43021 LA RIVA DR, ASHBURN, VA, 20148","Match","Exact","43021 LA RIVA DR, ASHBURN, VA, 20148",628628797,"R"
624833,"43025 THOROUGHGOOD DR STE 102","CHANTILLY","VA",20152,38.9179134520001,-77.515119671,333,"43025 THOROUGHGOOD DR STE 102, CHANTILLY, VA, 20152","Match","Exact","43025 THOROUGHGOOD DR, CHANTILLY, VA, 20152",62346852,"L"
624834,"43026 ARLINGTON RD","CANTON","MI",48187,42.343594523,-83.466740436,334,"43026 ARLINGTON RD, CANTON, MI, 48187","Match","Exact","43026 ARLINGTON RD, CANTON, MI, 48187",95408684,"R"
624835,"43029 CHESTERTON STREET","ASHBURN","VA",20147,39.053858002,-77.510048884,335,"43029 CHESTERTON STREET, ASHBURN, VA, 20147","Match","Exact","43029 CHESTERTON ST, ASHBURN, VA, 20147",62355330,"R"
624836,"43029 HARRAH STREET","FLUSHING","OH",43977,40.111572354,-81.018307152,336,"43029 HARRAH STREET, FLUSHING, OH, 43977","Match","Exact","43029 HARRAH ST, FLUSHING, OH, 43977",36226093,"L"
624837,"4303  FRIESIAN LN","RIVERSIDE","CA",92509,34.0096678200001,-117.476081023,337,"4303  FRIESIAN LN, RIVERSIDE, CA, 92509","Match","Exact","4303 FRIESIAN LN, RIVERSIDE, CA, 92509",608986846,"L"
624838,"4303 10TH ST W","LEHIGH ACRES","FL",33971,26.6225393930001,-81.713076762,338,"4303 10TH ST W, LEHIGH ACRES, FL, 33971","Match","Exact","4303 10TH ST W, LEHIGH ACRES, FL, 33971",118059320,"L"
624839,"4303 13TH STREET","MENOMINEE","MI",49858,45.1394939080001,-87.6175065849999,339,"4303 13TH STREET, MENOMINEE, MI, 49858","Match","Exact","4303 13TH ST, MENOMINEE, MI, 49858",170209963,"L"
624840,"4303 ALLISON STREET APARTMENT 1","NORWOOD","OH",45212,39.1571054570001,-84.46154576,340,"4303 ALLISON STREET APARTMENT 1, NORWOOD, OH, 45212","Match","Exact","4303 ALLISON ST, NORWOOD, OH, 45212",103929788,"L"
624841,"4303 ASCOT ROAD","HEPHZIBAH","GA",30815,33.303804719,-82.0038066509999,341,"4303 ASCOT ROAD, HEPHZIBAH, GA, 30815","Match","Exact","4303 ASCOT RD, HEPHZIBAH, GA, 30815",55658360,"L"
624842,"4303 BAYCHESTER AVENUE","BRONX","NY",10466,40.896937306,-73.84520594,342,"4303 BAYCHESTER AVENUE, BRONX, NY, 10466","Match","Exact","4303 BAYCHESTER AVE, BRONX, NY, 10466",80297529,"L"
624843,"4303 BELL AVE","SARASOTA","FL",34231,27.2934418340001,-82.5011797829999,343,"4303 BELL AVE, SARASOTA, FL, 34231","Match","Exact","4303 BELL AVE, SARASOTA, FL, 34231",16353394,"L"
624844,"4303 BENNING","HOUSTON","TX",77035,29.6570284480001,-95.450797667,344,"4303 BENNING, HOUSTON, TX, 77035","Match","Non_Exact","4303 BENNING DR, HOUSTON, TX, 77035",96040338,"L"
624845,"4303 BIG BEND TRAIL","TAYLOR","TX",76574,30.5970089300001,-97.4233159569999,345,"4303 BIG BEND TRAIL, TAYLOR, TX, 76574","Match","Exact","4303 BIG BEND TRL, TAYLOR, TX, 76574",645593574,"L"
624846,"4303 BIRCHCROFT DR","HOUSTON","TX",77088,29.869215522,-95.467276918,346,"4303 BIRCHCROFT DR, HOUSTON, TX, 77088","Match","Exact","4303 BIRCHCROFT DR, HOUSTON, TX, 77088",96027059,"L"
624847,"4303 BOULEVARD AVENUE","ATLANTIC CITY","NJ",8401,39.351774092,-74.462642433,347,"4303 BOULEVARD AVENUE, ATLANTIC CITY, NJ, 8401","Match","Exact","4303 BOULEVARD AVE, ATLANTIC CITY, NJ, 08401",202488951,"R"
624848,"4303 BUCKINGHAM AVE","DETROIT","MI",48224,42.396132885,-82.940683529,348,"4303 BUCKINGHAM AVE, DETROIT, MI, 48224","Match","Exact","4303 BUCKINGHAM AVE, DETROIT, MI, 48224",95487227,"L"
624849,"4303 BUCKINGHAM","DETROIT","MI",48224,42.396132885,-82.940683529,349,"4303 BUCKINGHAM, DETROIT, MI, 48224","Match","Non_Exact","4303 BUCKINGHAM RD, DETROIT, MI, 48224",95487227,"L"
624850,"4303 CARACALLA DRIVE","FLORISSANT","MO",63033,38.7798891400001,-90.275444778,350,"4303 CARACALLA DRIVE, FLORISSANT, MO, 63033","Match","Exact","4303 CARACALLA DR, FLORISSANT, MO, 63033",100145578,"L"
624851,"4303 CEDAR FOREST DR APT H","FAIRFAX","VA",22030,38.857427263,-77.3657604109999,351,"4303 CEDAR FOREST DR APT H, FAIRFAX, VA, 22030","Match","Exact","4303 CEDAR FOREST DR, FAIRFAX, VA, 22030",76024559,"R"
624852,"4303 CEDAR TREE LANE","BURTONSVILLE","MD",20866,39.0996513750001,-76.922819064,352,"4303 CEDAR TREE LANE, BURTONSVILLE, MD, 20866","Match","Exact","4303 CEDAR TREE LN, BURTONSVILLE, MD, 20866",62094028,"L"
624853,"4303 COMANCHE","PASADENA","TX",77504,29.6480582470001,-95.1782757,353,"4303 COMANCHE, PASADENA, TX, 77504","Match","Non_Exact","4303 COMANCHE ST, PASADENA, TX, 77504",96105332,"L"
624854,"4303 DENALI PLACE","BISMARCK","ND",58503,46.876351442,-100.726459227,354,"4303 DENALI PLACE, BISMARCK, ND, 58503","Match","Exact","4303 DENALI PL, BISMARCK, ND, 58503",198880798,"R"
624855,"4303 DICKENS PLACE DR W","SOUTHAVEN","MS",38672,34.922881933,-89.953623454,355,"4303 DICKENS PLACE DR W, SOUTHAVEN, MS, 38672","Match","Exact","4303 DICKENS PLACE DR W, SOUTHAVEN, MS, 38672",91853803,"L"
624856,"4303 EAST CR 100 SOUTH","AVON","IN",46123,39.7476270760001,-86.432385661,356,"4303 EAST CR 100 SOUTH, AVON, IN, 46123","Match","Exact","4303 E CO RD 100 S, AVON, IN, 46123",89200221,"R"
624857,"4303 EAST REGNAS AVE","TAMPA","FL",33617,28.025250913,-82.413241108,357,"4303 EAST REGNAS AVE, TAMPA, FL, 33617","Match","Exact","4303 E REGNAS AVE, TAMPA, FL, 33617",104531861,"R"
624858,"4303 ELM AVE APT 307","LONG BEACH","CA",90807,33.8367118190001,-118.188084587,358,"4303 ELM AVE APT 307, LONG BEACH, CA, 90807","Match","Exact","4303 ELM AVE, LONG BEACH, CA, 90807",141686047,"L"
624859,"4303 EWING COURT","POWELL","OH",43065,40.1597038630001,-83.1002089839999,359,"4303 EWING COURT, POWELL, OH, 43065","Match","Exact","4303 EWING CT, POWELL, OH, 43065",24592812,"L"
624860,"4303 GALLATIN STREET","HYATTSVILLE","MD",20781,38.9526329020001,-76.943223404,360,"4303 GALLATIN STREET, HYATTSVILLE, MD, 20781","Match","Exact","4303 GALLATIN ST, HYATTSVILLE, MD, 20781",76305933,"R"
624861,"4303 GOLFWAY DRIVE","EIGHTMILE","AL",36613,30.755016407,-88.164107082,361,"4303 GOLFWAY DRIVE, EIGHTMILE, AL, 36613","Match","Non_Exact","4303 GOLFWAY ST, EIGHT MILE, AL, 36613",61848093,"L"
624862,"4303 GREEN POINT DR","GREENSBORO","NC",27407,36.040150469,-79.865449503,362,"4303 GREEN POINT DR, GREENSBORO, NC, 27407","Match","Exact","4303 GREEN POINT DR, GREENSBORO, NC, 27407",131049862,"L"
624863,"4303 HILLSWICK CT","SUGAR LAND","TX",77479,29.5600502,-95.6155292449999,363,"4303 HILLSWICK CT, SUGAR LAND, TX, 77479","Match","Exact","4303 HILLSWICK CT, SUGAR LAND, TX, 77479",78287732,"L"
624864,"4303 HOLYOKE DR SE","KENTWOOD","MI",49508,42.88616804,-85.619356167,364,"4303 HOLYOKE DR SE, KENTWOOD, MI, 49508","Match","Exact","4303 HOLYOKE DR SE, KENTWOOD, MI, 49508",12481316,"L"
624865,"4303 HORACE DRIVE","HUNTSVILLE","AL",35816,34.730618298,-86.6325153069999,365,"4303 HORACE DRIVE, HUNTSVILLE, AL, 35816","Match","Non_Exact","4303 HORACE DR NW, HUNTSVILLE, AL, 35816",58113655,"L"
624866,"4303 HUNTING HAWK DRIVE","LEBANON","OH",45036,39.4626510530001,-84.287398428,366,"4303 HUNTING HAWK DRIVE, LEBANON, OH, 45036","Match","Exact","4303 HUNTING HAWK DR, LEBANON, OH, 45036",641130646,"R"
624867,"4303 IVANHOE","NORWOOD","OH",45212,39.1572055980001,-84.464253249,367,"4303 IVANHOE, NORWOOD, OH, 45212","Match","Non_Exact","4303 IVANHOE AVE, NORWOOD, OH, 45212",103929781,"L"
624868,"4303 JENA ST","NEW ORLEANS","LA",70125,29.949083068,-90.106790377,368,"4303 JENA ST, NEW ORLEANS, LA, 70125","Match","Exact","4303 JENA ST, NEW ORLEANS, LA, 70125",191711129,"R"
624869,"4303 JOHNSON","HAMMOND","IN",46327,41.6354741230001,-87.513571532,369,"4303 JOHNSON, HAMMOND, IN, 46327","Match","Non_Exact","4303 JOHNSON AVE, HAMMOND, IN, 46327",98416475,"L"
624870,"4303 JUNEWOOD CT","RENO","NV",89509,39.4826313830001,-119.822356318,370,"4303 JUNEWOOD CT, RENO, NV, 89509","Match","Exact","4303 JUNEWOOD CT, RENO, NV, 89509",107045637,"R"
624871,"4303 LAKE FARMS CT","LINDEN","MI",48451,42.807095432,-83.755724195,371,"4303 LAKE FARMS CT, LINDEN, MI, 48451","Match","Exact","4303 LAKE FARMS CT, LINDEN, MI, 48451",630313701,"L"
624872,"4303 LAKE STREET","LAKE CHARLES","LA",70605,30.1795019950001,-93.232365771,372,"4303 LAKE STREET, LAKE CHARLES, LA, 70605","Match","Exact","4303 LAKE ST, LAKE CHARLES, LA, 70605",88438213,"L"
624873,"4303 LONDONDERRY","KALAMAZOO","MI",49006,42.2986812130001,-85.642127381,373,"4303 LONDONDERRY, KALAMAZOO, MI, 49006","Match","Non_Exact","4303 LONDONDERRY AVE, KALAMAZOO, MI, 49006",12236928,"R"
624874,"4303 LUCKWOOD RD","PINE BLUFF","AR",71603,34.183052816,-92.116766777,374,"4303 LUCKWOOD RD, PINE BLUFF, AR, 71603","Match","Exact","4303 LUCKWOOD RD, PINE BLUFF, AR, 71603",2561761,"R"
624875,"4303 MAINE AVE","BALTIMORE","MD",21207,39.3284667200001,-76.690561696,375,"4303 MAINE AVE, BALTIMORE, MD, 21207","Match","Exact","4303 MAINE AVE, BALTIMORE, MD, 21207",636216696,"L"
624876,"4303 MANDI AVE","LITTLE RIVER","SC",29566,33.851982547,-78.695620404,376,"4303 MANDI AVE, LITTLE RIVER, SC, 29566","Match","Exact","4303 MANDI AVE, LITTLE RIVER, SC, 29566",29101768,"R"
624877,"4303 MASONIC LANE","HENRICO","VA",23231,37.5281368550001,-77.375699486,377,"4303 MASONIC LANE, HENRICO, VA, 23231","Match","Exact","4303 MASONIC LN, HENRICO, VA, 23231",106650794,"L"
624878,"4303 MONARCH DRIVE","SUGAR LAND","TX",77479,29.552955701,-95.635246383,378,"4303 MONARCH DRIVE, SUGAR LAND, TX, 77479","Match","Exact","4303 MONARCH DR, SUGAR LAND, TX, 77479",627306323,"R"
624879,"4303 MT CARMEL LN","COLUMBIA","MO",65203,38.954428314,-92.399123474,379,"4303 MT CARMEL LN, COLUMBIA, MO, 65203","Match","Exact","4303 MOUNT CARMEL LN, COLUMBIA, MO, 65203",23489722,"R"
624880,"4303 N 140TH ST","OMAHA","NE",68164,41.297580323,-96.133346952,380,"4303 N 140TH ST, OMAHA, NE, 68164","Match","Exact","4303 N 140TH ST, OMAHA, NE, 68164",640436897,"R"
624881,"4303 N 18TH PL","PHOENIX","AZ",85016,33.4993957820001,-112.042127791,381,"4303 N 18TH PL, PHOENIX, AZ, 85016","Match","Exact","4303 N 18TH PL, PHOENIX, AZ, 85016",128209667,"R"
624882,"4303 N 52ND ST","Milwaukee","WI",53216,43.0955039460001,-87.978237698,382,"4303 N 52ND ST, Milwaukee, WI, 53216","Match","Exact","4303 N 52ND ST, MILWAUKEE, WI, 53216",77731334,"L"
624883,"4303 N CR 100 E","NEW CASTLE","IN",47362,39.9945777840001,-85.365676564,383,"4303 N CR 100 E, NEW CASTLE, IN, 47362","Match","Exact","4303 N CO RD 100 E, NEW CASTLE, IN, 47362",29985174,"L"
624884,"4303 NARRAGANSETT AVE","SAN DIEGO","CA",92107,32.737812521,-117.240536269,384,"4303 NARRAGANSETT AVE, SAN DIEGO, CA, 92107","Match","Exact","4303 NARRAGANSETT AVE, SAN DIEGO, CA, 92107",195339829,"L"
624885,"4303 NASH ROAD","WAKEMAN","OH",44889,NA,NA,385,"4303 NASH ROAD, WAKEMAN, OH, 44889","No_Match",NA,NA,NA,NA
624886,"4303 OAK CREEK RD","LEANDER TX","TX",78641,30.6182318960001,-97.895995541,386,"4303 OAK CREEK RD, LEANDER TX, TX, 78641","Match","Non_Exact","4303 OAK CREEK RD, LEANDER, TX, 78641",126487514,"R"
624887,"4303 OAK CREEK RD","LEANDER","TX",78641,30.6182318960001,-97.895995541,387,"4303 OAK CREEK RD, LEANDER, TX, 78641","Match","Exact","4303 OAK CREEK RD, LEANDER, TX, 78641",126487514,"R"
624888,"4303 OAK CREEK ROAD","LEANDER","TX",78641,30.6182318960001,-97.895995541,388,"4303 OAK CREEK ROAD, LEANDER, TX, 78641","Match","Exact","4303 OAK CREEK RD, LEANDER, TX, 78641",126487514,"R"
624889,"4303 OXFORD WAY","NORMAN","OK",73072,35.238359911,-97.504872017,389,"4303 OXFORD WAY, NORMAN, OK, 73072","Match","Exact","4303 OXFORD WAY, NORMAN, OK, 73072",99935042,"R"
624890,"4303 PLATEAU ROAD","NEWTON","NC",28658,35.59379683,-81.358322535,390,"4303 PLATEAU ROAD, NEWTON, NC, 28658","Match","Exact","4303 PLATEAU RD, NEWTON, NC, 28658",641093739,"L"
624891,"4303 RANEY WAY","CHARLOTTE","NC",28205,35.1986600560001,-80.78063994,391,"4303 RANEY WAY, CHARLOTTE, NC, 28205","Match","Exact","4303 RANEY WAY, CHARLOTTE, NC, 28205",70516032,"L"
624892,"4303 RICE STREET","LIHUE","HI",96766,21.9736206760001,-159.366485794,392,"4303 RICE STREET, LIHUE, HI, 96766","Match","Exact","4303 RICE ST, LIHUE, HI, 96766",203392170,"R"
624893,"4303 RIDGE POINTE LANE","FAYETTEVILLE","NC",28311,35.167226472,-78.8680722999999,393,"4303 RIDGE POINTE LANE, FAYETTEVILLE, NC, 28311","Match","Exact","4303 RIDGE POINTE LN, FAYETTEVILLE, NC, 28311",633001723,"R"
624894,"4303 SALLY CT","GRAND PRAIRE","TX",75052,32.6664517770001,-97.012870686,394,"4303 SALLY CT, GRAND PRAIRE, TX, 75052","Match","Non_Exact","4303 SALLY CT, GRAND PRAIRIE, TX, 75052",103002214,"R"
624895,"4303 SAN PEDRO CT","MIDLAND","TX",79707,32.020904655,-102.168266824,395,"4303 SAN PEDRO CT, MIDLAND, TX, 79707","Match","Exact","4303 SAN PEDRO CT, MIDLAND, TX, 79707",643488322,"L"
624896,"4303 SHANE COURT","VIRGINIA","VA",23462,36.818438556,-76.123780733,396,"4303 SHANE COURT, VIRGINIA, VA, 23462","Match","Non_Exact","4303 SHANE CT, VAB, VA, 23462",122266227,"L"
624897,"4303 SHILOH","SAN ANTONIO","TX",78220,29.402326535,-98.4099378189999,397,"4303 SHILOH, SAN ANTONIO, TX, 78220","Match","Exact","4303 SHILOH, SAN ANTONIO, TX, 78220",101532538,"L"
624898,"4303 SILVER HILL DRIVE","GREENWOOD","IN",46142,39.6279631090001,-86.18711146,398,"4303 SILVER HILL DRIVE, GREENWOOD, IN, 46142","Match","Exact","4303 SILVER HILL DR, GREENWOOD, IN, 46142",641441092,"L"
624899,"4303 SOUTH BAY DR SE","MANDAN","ND",58554,NA,NA,399,"4303 SOUTH BAY DR SE, MANDAN, ND, 58554","No_Match",NA,NA,NA,NA
624900,"4303 STONE AVENUE","SIOUX CITY","IA",51106,42.4792066190001,-96.351741724,400,"4303 STONE AVENUE, SIOUX CITY, IA, 51106","Match","Exact","4303 STONE AVE, SIOUX CITY, IA, 51106",93441776,"L"
624901,"4303 SUNBURST","HANNIBAL","MO",63401,39.722138607,-91.410248719,401,"4303 SUNBURST, HANNIBAL, MO, 63401","Match","Non_Exact","4303 SUNBURST DR, HANNIBAL, MO, 63401",35337856,"L"
624902,"4303 SW 4TH ST","ANKENY","IA",50023,41.728679798,-93.6568198589999,402,"4303 SW 4TH ST, ANKENY, IA, 50023","Match","Exact","4303 SW 4TH ST, ANKENY, IA, 50023",641282891,"L"
624903,"4303 SWINDON TERRACE","UPPER MARLBORO","MD",20772,38.828117627,-76.778429579,403,"4303 SWINDON TERRACE, UPPER MARLBORO, MD, 20772","Match","Exact","4303 SWINDON TER, UPPER MARLBORO, MD, 20772",76393662,"R"
624904,"4303 TAVERNGREEN LANE","BOWIE","MD",20720,38.95012948,-76.7957577559999,404,"4303 TAVERNGREEN LANE, BOWIE, MD, 20720","Match","Exact","4303 TAVERNGREEN LN, BOWIE, MD, 20720",635750140,"L"
624905,"4303 TIMBERBROOK DRIVE","CANFIELD","OH",44406,41.0648962010001,-80.728983625,405,"4303 TIMBERBROOK DRIVE, CANFIELD, OH, 44406","Match","Exact","4303 TIMBERBROOK DR, CANFIELD, OH, 44406",64617166,"L"
624906,"4303 TOWNSHIP RD 25","RAWSON","OH",45881,NA,NA,406,"4303 TOWNSHIP RD 25, RAWSON, OH, 45881","No_Match",NA,NA,NA,NA
624907,"4303 TROY STREET","WAUSAU","WI",54403,45.0020488050001,-89.616101387,407,"4303 TROY STREET, WAUSAU, WI, 54403","Match","Exact","4303 TROY ST, WAUSAU, WI, 54403",117136744,"R"
624908,"4303 W 1425 SOUTH","SYRACUSE","UT",84075,41.0932538650001,-112.108770808,408,"4303 W 1425 SOUTH, SYRACUSE, UT, 84075","Match","Exact","4303 1425 S, SYRACUSE, UT, 84075",627380232,"L"
624909,"4303 W ELY RD","HANNIBAL","MO",63401,39.7110369800001,-91.4096749019999,409,"4303 W ELY RD, HANNIBAL, MO, 63401","Match","Exact","4303 W ELY RD, HANNIBAL, MO, 63401",648778650,"R"
624910,"4303 W ROLAND ST","TAMPA","FL",33609,27.943851986,-82.5161035099999,410,"4303 W ROLAND ST, TAMPA, FL, 33609","Match","Exact","4303 W ROLAND ST, TAMPA, FL, 33609",104524837,"R"
624911,"4303 WALKER AVE","TOLEDO","OH",43612,41.6966990700001,-83.563428581,411,"4303 WALKER AVE, TOLEDO, OH, 43612","Match","Exact","4303 WALKER AVE, TOLEDO, OH, 43612",33934364,"L"
624912,"4303 WALKER AVE","TOLEDO","OH",46312,41.6966990700001,-83.563428581,412,"4303 WALKER AVE, TOLEDO, OH, 46312","Match","Non_Exact","4303 WALKER AVE, TOLEDO, OH, 43612",33934364,"L"
624913,"4303 WATERFORD LANDING DR","LUTZ","FL",33558,28.1639243220001,-82.512849678,413,"4303 WATERFORD LANDING DR, LUTZ, FL, 33558","Match","Exact","4303 WATERFORD LANDING DR, LUTZ, FL, 33558",104584600,"L"
624914,"4303 WEST 92ND STREET","PERKINS","OK",74059,36.0144738050001,-97.114967411,414,"4303 WEST 92ND STREET, PERKINS, OK, 74059","Match","Exact","4303 W 92ND ST, PERKINS, OK, 74059",166387256,"R"
624915,"4303 WEST VILLAGE AVE APT 4007","CAMP SPRINGS","MD",20746,38.8306343990001,-76.909550408,415,"4303 WEST VILLAGE AVE APT 4007, CAMP SPRINGS, MD, 20746","Match","Exact","4303 W VILLAGE AVE, CAMP SPRINGS, MD, 20746",638237282,"L"
624916,"4303 WESTLAKE CIRCLE","VAN BUREN TWP","MI",48111,NA,NA,416,"4303 WESTLAKE CIRCLE, VAN BUREN TWP, MI, 48111","No_Match",NA,NA,NA,NA
624917,"4303 WESTPORT TERRACE","LOUISVILLE","KY",40207,38.262309821,-85.632703261,417,"4303 WESTPORT TERRACE, LOUISVILLE, KY, 40207","Match","Exact","4303 WESTPORT TER, LOUISVILLE, KY, 40207",96855542,"L"
624918,"4303 WILLOW RIDGE DRIVE","PARKER","TX",75002,33.0625542820001,-96.647374095,418,"4303 WILLOW RIDGE DRIVE, PARKER, TX, 75002","Match","Exact","4303 WILLOW RIDGE DR, PARKER, TX, 75002",123544028,"L"
624919,"4303 WINDSOR POINT","VICKSBURG","MS",39180,32.242149677,-90.8363629309999,419,"4303 WINDSOR POINT, VICKSBURG, MS, 39180","Match","Exact","4303 WINDSOR PT, VICKSBURG, MS, 39180",71305270,"L"
624920,"4303 WOODBRIDGEDRIVE","KINGWOOD","TX",77339,NA,NA,420,"4303 WOODBRIDGEDRIVE, KINGWOOD, TX, 77339","No_Match",NA,NA,NA,NA
624921,"4303 WOODIRON DRIVE","DULUTH","GA",30097,33.9881873800001,-84.0951011769999,421,"4303 WOODIRON DRIVE, DULUTH, GA, 30097","Match","Exact","4303 WOODIRON DR, DULUTH, GA, 30097",634064563,"R"
624922,"43037 ADDLESTONE PL","ASHBURN","VA",20148,38.9812448960001,-77.5133213679999,422,"43037 ADDLESTONE PL, ASHBURN, VA, 20148","Match","Exact","43037 ADDLESTONE PL, ASHBURN, VA, 20148",645698308,"R"
624923,"43039 20TH ST EAST","LANCASTER","CA",93535,34.664486513,-118.094535295,423,"43039 20TH ST EAST, LANCASTER, CA, 93535","Match","Non_Exact","43039 N 20TH ST E, LANCASTER, CA, 93535",142830477,"L"
624924,"4304 10TH STREET NW","ROCHESTER","MN",55901,44.0363633590001,-92.5272967,424,"4304 10TH STREET NW, ROCHESTER, MN, 55901","Match","Exact","4304 10TH ST NW, ROCHESTER, MN, 55901",30562960,"L"
624925,"4304 23RD PARKWAY","TEMPLE HILLS","MD",20748,38.830738265,-76.957347165,425,"4304 23RD PARKWAY, TEMPLE HILLS, MD, 20748","Match","Exact","4304 23RD PKWY, TEMPLE HILLS, MD, 20748",76369817,"L"
624926,"4304 70TH AVE","SWEA CITY","IA",50590,43.3869100300001,-94.32440862,426,"4304 70TH AVE, SWEA CITY, IA, 50590","Match","Exact","4304 70TH AVE, SWEA CITY, IA, 50590",635879113,"R"
624927,"4304 AIRPORT FREEWAY SUITE 110","FORT WORTH","TX",76117,32.7757711610001,-97.285165224,427,"4304 AIRPORT FREEWAY SUITE 110, FORT WORTH, TX, 76117","Match","Non_Exact","4304 AIRPORT FWY, FT WORTH, TX, 76111",101859330,"R"
624928,"4304 ALCOVE AVE","LUBBOCK","TX",79407,33.5551223620001,-101.991951854,428,"4304 ALCOVE AVE, LUBBOCK, TX, 79407","Match","Exact","4304 ALCOVE AVE, LUBBOCK, TX, 79407",652338245,"R"
624929,"4304 ANN FITZ HUGH DR","ANNANDALE","VA",22003,38.830183268,-77.2493837549999,429,"4304 ANN FITZ HUGH DR, ANNANDALE, VA, 22003","Match","Exact","4304 ANN FITZ HUGH DR, ANNANDALE, VA, 22003",75972476,"R"
624930,"4304 APACHE CT","BRYAN","TX",78745,30.658243575,-96.3126487439999,430,"4304 APACHE CT, BRYAN, TX, 78745","Match","Non_Exact","4304 APACHE CT, BRYAN, TX, 77802",21816404,"R"
624931,"4304 ARBOR WOOD CT","BURTONSVILLE","MD",20866,39.0912196530001,-76.919506492,431,"4304 ARBOR WOOD CT, BURTONSVILLE, MD, 20866","Match","Exact","4304 ARBOR WOOD CT, BURTONSVILLE, MD, 20866",650595520,"L"
624932,"4304 AUSTIN PASS CT","ST CHARLES","MO",63304,38.703061323,-90.617166179,432,"4304 AUSTIN PASS CT, ST CHARLES, MO, 63304","Match","Exact","4304 AUSTIN PASS CT, SAINT CHARLES, MO, 63304",100096050,"L"
624933,"4304 BEAR CREEK LANE","MEMPHIS","TN",38141,35.0307282360001,-89.838594681,433,"4304 BEAR CREEK LANE, MEMPHIS, TN, 38141","Match","Exact","4304 BEAR CREEK LN, MEMPHIS, TN, 38141",72948954,"R"
624934,"4304 BOULDER DRIVE","PARKER","TX",75002,33.063016518,-96.648281003,434,"4304 BOULDER DRIVE, PARKER, TX, 75002","Match","Exact","4304 BOULDER DR, PARKER, TX, 75002",123544029,"L"
624935,"4304 BRAMBLERIDGE","MIDLAND","MI",48640,43.6516353540001,-84.2799282989999,435,"4304 BRAMBLERIDGE, MIDLAND, MI, 48640","Match","Non_Exact","4304 BRAMBLERIDGE LN, MIDLAND, MI, 48640",81192189,"R"
624936,"4304 BRIDLE RUN LANE","RICHMOND","VA",23223,37.5717694050001,-77.358197898,436,"4304 BRIDLE RUN LANE, RICHMOND, VA, 23223","Match","Exact","4304 BRIDLE RUN LN, RICHMOND, VA, 23223",636822661,"L"
624937,"4304 BUFFORD ROAD","ADGER","AL",35006,33.389965826,-87.091485373,437,"4304 BUFFORD ROAD, ADGER, AL, 35006","Match","Exact","4304 BUFFORD RD, ADGER, AL, 35006",81543461,"L"
624938,"4304 BURCHARD","RALEIGH","NC",27616,35.8957129840001,-78.5170410709999,438,"4304 BURCHARD, RALEIGH, NC, 27616","Match","Non_Exact","4304 BURCHARD DR, RALEIGH, NC, 27616",641563986,"R"
624939,"4304 BUTLER STREET","PITTSBURGH","PA",15201,40.4707264670001,-79.96026914,439,"4304 BUTLER STREET, PITTSBURGH, PA, 15201","Match","Exact","4304 BUTLER ST, PITTSBURGH, PA, 15201",51642725,"R"
624940,"4304 CALAVARES DRIVE","LEXINGTON","KY",40514,37.9873709390001,-84.576860424,440,"4304 CALAVARES DRIVE, LEXINGTON, KY, 40514","Match","Non_Exact","4304 CALEVARES DR, LEXINGTON, KY, 40514",31924203,"L"
624941,"4304 CARNWATH ROAD","TALLAHASSEE","FL",32303,30.495281688,-84.339000098,441,"4304 CARNWATH ROAD, TALLAHASSEE, FL, 32303","Match","Exact","4304 CARNWATH RD, TALLAHASSEE, FL, 32303",82847370,"R"
624942,"4304 CASSANDRA DR","FLOWER MOUND","TX",75022,33.0310784320001,-97.0984169129999,442,"4304 CASSANDRA DR, FLOWER MOUND, TX, 75022","Match","Exact","4304 CASSANDRA DR, FLOWER MOUND, TX, 75022",624884389,"L"
624943,"4304 CATHERINE AVE","COLUMBIA","SC",29203,34.0445292000001,-81.0520188039999,443,"4304 CATHERINE AVE, COLUMBIA, SC, 29203","Match","Exact","4304 CATHERINE AVE, COLUMBIA, SC, 29203",71818095,"R"
624944,"4304 CLEMENS DR","LEXINGTON","KY",40514,37.9880969000001,-84.578163419,444,"4304 CLEMENS DR, LEXINGTON, KY, 40514","Match","Exact","4304 CLEMENS DR, LEXINGTON, KY, 40514",31924199,"L"
624945,"4304 COBURN PL APT 105","RALEIGH","NC",27616,35.847975735,-78.561320038,445,"4304 COBURN PL APT 105, RALEIGH, NC, 27616","Match","Exact","4304 COBURN PL, RALEIGH, NC, 27616",208346153,"R"
624946,"4304 DALTON CT","FLOYDS KNOBS","IN",47119,38.3488571710001,-85.895108391,446,"4304 DALTON CT, FLOYDS KNOBS, IN, 47119","Match","Exact","4304 DALTON CT, FLOYDS KNOBS, IN, 47119",89556581,"R"
624947,"4304 DECATUR DR APT 1205","COLLEGE STATION","TX",77845,30.561663186,-96.267178705,447,"4304 DECATUR DR APT 1205, COLLEGE STATION, TX, 77845","Match","Exact","4304 DECATUR DR, COLLEGE STATION, TX, 77845",640713086,"R"
624948,"4304 DOGWOOD LN","VICKSBURG","MS",39180,32.33758212,-90.740984507,448,"4304 DOGWOOD LN, VICKSBURG, MS, 39180","Match","Exact","4304 DOGWOOD LN, VICKSBURG, MS, 39180",71296304,"L"
624949,"4304 DREXEL WAY","DUNWOODY","GA",30346,NA,NA,449,"4304 DREXEL WAY, DUNWOODY, GA, 30346","No_Match",NA,NA,NA,NA
624950,"4304 ESPLANADE CIR","FOLSOM","CA",95630,38.6904699520001,-121.115146369,450,"4304 ESPLANADE CIR, FOLSOM, CA, 95630","Match","Exact","4304 ESPLANADE CIR, FOLSOM, CA, 95630",653156651,"R"
624951,"4304 EVERGREEN LN STE 104D","ANNANDALE","VA",22203,38.831745616,-77.186122486,451,"4304 EVERGREEN LN STE 104D, ANNANDALE, VA, 22203","Match","Non_Exact","4304 EVERGREEN LN, ANNANDALE, VA, 22003",635445203,"R"
624952,"4304 FORWALT PLACE","WILMINGTON","NC",28409,34.1610335890001,-77.882745783,452,"4304 FORWALT PLACE, WILMINGTON, NC, 28409","Match","Exact","4304 FORWALT PL, WILMINGTON, NC, 28409",152750538,"R"
624953,"4304 GREENMOUNT RD","PHILADELPHIA","PA",19154,40.0796053120001,-74.971392951,453,"4304 GREENMOUNT RD, PHILADELPHIA, PA, 19154","Match","Exact","4304 GREENMOUNT RD, PHILADELPHIA, PA, 19154",131434666,"R"
624954,"4304 GUM TREE LANE","LEXINGTON","KY",40514,37.999186959,-84.586044256,454,"4304 GUM TREE LANE, LEXINGTON, KY, 40514","Match","Non_Exact","4304 GUM TREE LN, LEXINGTON, KY, 40513",31955565,"R"
624955,"4304 HICKORY ROCK DR","POWELL","OH",43065,40.192482037,-83.109300865,455,"4304 HICKORY ROCK DR, POWELL, OH, 43065","Match","Exact","4304 HICKORY ROCK DR, POWELL, OH, 43065",213000369,"L"
624956,"4304 HUNTINGTON WOODS","WOOSTER","OH",44691,40.8523668080001,-81.9526867289999,456,"4304 HUNTINGTON WOODS, WOOSTER, OH, 44691","Match","Exact","4304 HUNTINGTON WOODS, WOOSTER, OH, 44691",58739352,"L"
624957,"4304 JACKRABBIT DR","BILLINGS","MT",59106,45.728100264,-108.625100826,457,"4304 JACKRABBIT DR, BILLINGS, MT, 59106","Match","Exact","4304 JACKRABBIT DR, BILLINGS, MT, 59106",181490329,"R"
624958,"4304 JADE CIRCLE SE","DECATUR","AL",35603,34.5245725390001,-86.937151941,458,"4304 JADE CIRCLE SE, DECATUR, AL, 35603","Match","Non_Exact","4304 JADE CIR, DECATUR, AL, 35603",97145683,"L"
624959,"4304 KINGSBURY DR","PLANO","TX",75093,33.040454341,-96.777491171,459,"4304 KINGSBURY DR, PLANO, TX, 75093","Match","Exact","4304 KINGSBURY DR, PLANO, TX, 75093",123531973,"R"
624960,"4304 LA QUINTA ST","CARPINTERIA","CA",93013,34.406876304,-119.528874746,460,"4304 LA QUINTA ST, CARPINTERIA, CA, 93013","Match","Exact","4304 LA QUINTA ST, CARPINTERIA, CA, 93013",108607851,"L"
624961,"4304 LAKELET WAY","LOUISVILLE","KY",40299,38.1840094940001,-85.5127317229999,461,"4304 LAKELET WAY, LOUISVILLE, KY, 40299","Match","Exact","4304 LAKELET WAY, LOUISVILLE, KY, 40299",96975858,"R"
624962,"4304 LAUREL HILL DRIVE","NORTH LAS VEGAS","NV",89032,36.2377475640001,-115.174439483,462,"4304 LAUREL HILL DRIVE, NORTH LAS VEGAS, NV, 89032","Match","Exact","4304 LAUREL HILL DR, N LAS VEGAS, NV, 89032",201909047,"R"
624963,"4304 LOCH HAVEN COURT","MCKINNEY","TX",75070,33.1821810650001,-96.67312356,463,"4304 LOCH HAVEN COURT, MCKINNEY, TX, 75070","Match","Non_Exact","4304 LOCH HAVEN CT, MCKINNEY, TX, 75072",210482376,"L"
624964,"4304 LOMA DEL NORTE DR","EL PASO","TX",79934,31.930097978,-106.449008956,464,"4304 LOMA DEL NORTE DR, EL PASO, TX, 79934","Match","Exact","4304 LOMA DEL NORTE DR, EL PASO, TX, 79934",189397052,"R"
624965,"4304 LONG BRANCH ROAD","SAN DIEGO","CA",92107,32.743963057,-117.236555105,465,"4304 LONG BRANCH ROAD, SAN DIEGO, CA, 92107","Match","Non_Exact","4304 LONG BRANCH AVE, SAN DIEGO, CA, 92107",195339507,"R"
624966,"4304 LONGHORN AVE","GILLETTE","WY",82718,44.2557662930001,-105.500444025,466,"4304 LONGHORN AVE, GILLETTE, WY, 82718","Match","Exact","4304 LONGHORN AVE, GILLETTE, WY, 82718",624985969,"L"
624967,"4304 MARISSA","DENAIR","CA",95316,37.5208868880001,-120.799777279,467,"4304 MARISSA, DENAIR, CA, 95316","Match","Non_Exact","4304 MARISSA ST, DENAIR, CA, 95316",635888632,"L"
624968,"4304 MCKINLEY STREET","HOUSTON","TX",77051,29.6704414270001,-95.364551692,468,"4304 MCKINLEY STREET, HOUSTON, TX, 77051","Match","Exact","4304 MCKINLEY ST, HOUSTON, TX, 77051",96088560,"R"
624969,"4304 MIERA LN","WEST VALLEY CITY","UT",84120,40.695094565,-111.993883966,469,"4304 MIERA LN, WEST VALLEY CITY, UT, 84120","Match","Exact","4304 MIERA LN, WEST VALLEY CITY, UT, 84120",176070012,"L"
624970,"4304 MT VERNON DRIVE","AUSTIN","TX",78745,30.2243518440001,-97.7771345359999,470,"4304 MT VERNON DRIVE, AUSTIN, TX, 78745","Match","Exact","4304 MOUNT VERNON DR, AUSTIN, TX, 78745",63944282,"R"
624971,"4304 N 138TH ST","OMAHA","NE",68164,41.2972517320001,-96.1294303399999,471,"4304 N 138TH ST, OMAHA, NE, 68164","Match","Exact","4304 N 138TH ST, OMAHA, NE, 68164",117002808,"L"
624972,"4304 N 400 W","LEHI","UT",84043,40.4418701820001,-111.855028357,472,"4304 N 400 W, LEHI, UT, 84043","Match","Exact","4304 400 W, LEHI, UT, 84043",645135916,"R"
624973,"4304 N KINGSWOOD DR","BOISE","ID",83704,43.644332074,-116.289724612,473,"4304 N KINGSWOOD DR, BOISE, ID, 83704","Match","Non_Exact","4304 KINGSWOOD DR, BOISE, ID, 83704",117857185,"R"
624974,"4304 N TERRY AVE","OKLAHOMA CITY","OK",73111,35.515659725,-97.482633925,474,"4304 N TERRY AVE, OKLAHOMA CITY, OK, 73111","Match","Exact","4304 N TERRY AVE, OKLAHOMA CITY, OK, 73111",100411598,"R"
624975,"4304 N TERRY AVENUE","OKLAHOMA CITY","OK",73111,35.515659725,-97.482633925,475,"4304 N TERRY AVENUE, OKLAHOMA CITY, OK, 73111","Match","Exact","4304 N TERRY AVE, OKLAHOMA CITY, OK, 73111",100411598,"R"
624976,"4304 NICOLE COURT SW","ALBUQUERQUE","NM",87105,35.012630761,-106.703519869,476,"4304 NICOLE COURT SW, ALBUQUERQUE, NM, 87105","Match","Exact","4304 NICOLE CT SW, ALBUQUERQUE, NM, 87105",206700752,"L"
624977,"4304 NORTH JACK TONE ROAD","STOCKTON","CA",95215,38.012245294,-121.149778077,477,"4304 NORTH JACK TONE ROAD, STOCKTON, CA, 95215","Match","Exact","4304 N JACK TONE RD, STOCKTON, CA, 95215",133856565,"R"
624978,"4304 NORTH OKETO","NORRIDGE","IL",60706,41.9582820000001,-87.81215779,478,"4304 NORTH OKETO, NORRIDGE, IL, 60706","Match","Non_Exact","4304 N OKETO AVE, NORRIDGE, IL, 60706",605172094,"L"
624979,"4304 NORTH OZARK","NORRIDGE","IL",60706,41.958030842,-87.82073221,479,"4304 NORTH OZARK, NORRIDGE, IL, 60706","Match","Non_Exact","4304 N OZARK AVE, NORRIDGE, IL, 60706",605248895,"L"
624980,"4304 NORTHWIND DRIVE","BAKERSFIELD","CA",93313,35.2951914280001,-119.049849544,480,"4304 NORTHWIND DRIVE, BAKERSFIELD, CA, 93313","Match","Exact","4304 NORTHWIND DR, BAKERSFIELD, CA, 93313",109113494,"L"
624981,"4304 NW 164TH TER","EDMOND","OK",73013,35.6380086560001,-97.600074204,481,"4304 NW 164TH TER, EDMOND, OK, 73013","Match","Exact","4304 NW 164TH TER, EDMOND, OK, 73013",606076402,"L"
624982,"4304 OLD SAYBROOK COURT","CHARLOTTE","NC",28211,35.152834238,-80.799666584,482,"4304 OLD SAYBROOK COURT, CHARLOTTE, NC, 28211","Match","Exact","4304 OLD SAYBROOK CT, CHARLOTTE, NC, 28211",70489824,"L"
624983,"4304 PEASE ST APT 1/2","HOUSTON","TX",77023,29.7360232280001,-95.3378820679999,483,"4304 PEASE ST APT 1/2, HOUSTON, TX, 77023","Match","Exact","4304 PEASE ST, HOUSTON, TX, 77023",96073733,"R"
624984,"4304 PINEHURST CIRCLE","STOCKTON","CA",95219,37.9737170970001,-121.352006412,484,"4304 PINEHURST CIRCLE, STOCKTON, CA, 95219","Match","Exact","4304 PINEHURST CIR, STOCKTON, CA, 95219",133928730,"R"
624985,"4304 RAWHIDE RD","PUEBLO","CO",81008,38.3183022760001,-104.629419342,485,"4304 RAWHIDE RD, PUEBLO, CO, 81008","Match","Exact","4304 RAWHIDE RD, PUEBLO, CO, 81008",105023059,"L"
624986,"4304 REBECCA CT","GRAND PRAIRIE","TX",75052,32.665630686,-97.00917492,486,"4304 REBECCA CT, GRAND PRAIRIE, TX, 75052","Match","Exact","4304 REBECCA CT, GRAND PRAIRIE, TX, 75052",103002256,"R"
624987,"4304 REGALWOOD TERRACE","BURTONSVILLE","MD",20866,39.0989231830001,-76.92050628,487,"4304 REGALWOOD TERRACE, BURTONSVILLE, MD, 20866","Match","Exact","4304 REGALWOOD TER, BURTONSVILLE, MD, 20866",62105214,"R"
624988,"4304 RIDERS MARK","EDMOND","OK",73025,35.698258294,-97.5025645109999,488,"4304 RIDERS MARK, EDMOND, OK, 73025","Match","Non_Exact","4304 RIDER'S MARK, EDMOND, OK, 73025",100385537,"L"
624989,"4304 RIVIERA SUN DR","ELLICOTT CITY","MD",21043,39.250424831,-76.792571154,489,"4304 RIVIERA SUN DR, ELLICOTT CITY, MD, 21043","Match","Exact","4304 RIVIERA SUN DR, ELLICOTT CITY, MD, 21043",614144966,"R"
624990,"4304 S REDBUD AVE","BOKEN ARROW","OK",74011,36.0095670200001,-95.811294854,490,"4304 S REDBUD AVE, BOKEN ARROW, OK, 74011","Match","Non_Exact","4304 S REDBUD AVE, BROKEN ARROW, OK, 74011",166489881,"L"
624991,"4304 S REDBUD AVE","BROKEN ARROW","OK",74011,36.0095149220001,-95.811294854,491,"4304 S REDBUD AVE, BROKEN ARROW, OK, 74011","Match","Exact","4304 S REDBUD AVE, BROKEN ARROW, OK, 74011",166489881,"L"
624992,"4304 S SUMMERCREST LOOP","ROUND ROCK","TX",78681,30.546212677,-97.756805922,492,"4304 S SUMMERCREST LOOP, ROUND ROCK, TX, 78681","Match","Exact","4304 S SUMMERCREST LOOP, ROUND ROCK, TX, 78681",636382569,"R"
624993,"4304 SAINT ELMO AVE","CHATTANOOGA","TN",37409,35.0031575090001,-85.329001327,493,"4304 SAINT ELMO AVE, CHATTANOOGA, TN, 37409","Match","Exact","4304 SAINT ELMO AVE, CHATTANOOGA, TN, 37409",59312177,"L"
624994,"4304 SANDY BRAE DR","HURLOCK","MD",21643,38.6278218090001,-75.8930830739999,494,"4304 SANDY BRAE DR, HURLOCK, MD, 21643","Match","Exact","4304 SANDY BRAE DR, HURLOCK, MD, 21643",99666256,"R"
624995,"4304 SAVANNAH DR","ATLANTA","GA",30349,33.6372625230001,-84.508674962,495,"4304 SAVANNAH DR, ATLANTA, GA, 30349","Match","Exact","4304 SAVANNAH DR, ATLANTA, GA, 30349",635310532,"L"
624996,"4304 SHATTUCK RD","GARDEN PRAIRIE","IL",61038,42.215814483,-88.751395582,496,"4304 SHATTUCK RD, GARDEN PRAIRIE, IL, 61038","Match","Exact","4304 SHATTUCK RD, GARDEN PR, IL, 61038",92159112,"L"
624997,"4304 SHOAL CREEK DR","GREENSBORO","NC",27410,36.1355418370001,-79.924233026,497,"4304 SHOAL CREEK DR, GREENSBORO, NC, 27410","Match","Exact","4304 SHOAL CREEK DR, GREENSBORO, NC, 27410",131110412,"L"
624998,"4304 SIR JULIAN COURT","RALEIGH","NC",27610,NA,NA,498,"4304 SIR JULIAN COURT, RALEIGH, NC, 27610","No_Match",NA,NA,NA,NA
624999,"4304 SOUTH BIRCHWOOD AVE","SIOUX FALLS","SD",57103,43.5051340850001,-96.696805883,499,"4304 SOUTH BIRCHWOOD AVE, SIOUX FALLS, SD, 57103","Match","Exact","4304 S BIRCHWOOD AVE, SIOUX FALLS, SD, 57103",34975797,"L"
625000,"4304 SOUTH BIRDWOOD AVE","SIOUX FALLS","SD",57103,NA,NA,500,"4304 SOUTH BIRDWOOD AVE, SIOUX FALLS, SD, 57103","No_Match",NA,NA,NA,NA
