"ID","Address","City","State","Zip","lat","long","id","input_address","match_indicator","match_type","matched_address","tiger_line_id","tiger_side"
867001,"8 DAWT MILL DR","TECUMSEH","MO",65760,NA,NA,1,"8 DAWT MILL DR, TECUMSEH, MO, 65760","No_Match",NA,NA,NA,NA
867002,"8 DAY STREET","NORWOOD","MA",2062,42.191663916,-71.1997508059999,2,"8 DAY STREET, NORWOOD, MA, 2062","Match","Exact","8 DAY ST, NORWOOD, MA, 02062",87243670,"L"
867003,"8 DEANE RD","HOPATCONG","NJ",7843,40.944968354,-74.6511833719999,3,"8 DEANE RD, HOPATCONG, NJ, 7843","Match","Exact","8 DEANE RD, HOPATCONG, NJ, 07843",98007159,"R"
867004,"8 DEBORAH ANN DRIVE","REHOBOTH","MA",2769,41.8115275070001,-71.224875474,4,"8 DEBORAH ANN DRIVE, REHOBOTH, MA, 2769","Match","Exact","8 DEBORAH ANN DR, REHOBOTH, MA, 02769",625735423,"L"
867005,"8 DEBORAH AVE","COVENTRY","RI",2816,41.675672064,-71.5674210939999,5,"8 DEBORAH AVE, COVENTRY, RI, 2816","Match","Exact","8 DEBORAH AVE, COVENTRY, RI, 02816",159143881,"L"
867006,"8 DEBORAH LANE","MORRISTOWN","NJ",7960,40.80417256,-74.4983354349999,6,"8 DEBORAH LANE, MORRISTOWN, NJ, 7960","Match","Non_Exact","8 DEBORAH DR, MORRISTOWN, NJ, 07960",60441851,"R"
867007,"8 DEBRA DRIVE","ESSEX","VT",5452,44.4932050510001,-73.0833965419999,7,"8 DEBRA DRIVE, ESSEX, VT, 5452","Match","Non_Exact","8 DEBRA DR, ESSEX JCT, VT, 05452",135847016,"L"
867008,"8 DEEP HOLLOW DR","LOCUST","NJ",7760,40.3856750200001,-74.024829966,8,"8 DEEP HOLLOW DR, LOCUST, NJ, 7760","Match","Exact","8 DEEP HOLLOW DR, LOCUST, NJ, 07760",90589720,"L"
867009,"8 DEER CREEK RD","POESTENKILL","NY",12140,42.6953338530001,-73.563910548,9,"8 DEER CREEK RD, POESTENKILL, NY, 12140","Match","Exact","8 DEER CREEK RD, POESTENKILL, NY, 12140",35740392,"R"
867010,"8 DEER GLEN COURT","WINDSOR MILL","MD",21244,39.349640886,-76.7705125809999,10,"8 DEER GLEN COURT, WINDSOR MILL, MD, 21244","Match","Exact","8 DEER GLEN CT, WINDSOR MILL, MD, 21244",646654273,"R"
867011,"8 DEER PATH","NATICK","MA",1760,42.270069748,-71.3416526569999,11,"8 DEER PATH, NATICK, MA, 1760","Match","Exact","8 DEER PATH, NATICK, MA, 01760",86930995,"L"
867012,"8 DEER RUN COURT","EAST BRUNSWICK","NJ",8536,NA,NA,12,"8 DEER RUN COURT, EAST BRUNSWICK, NJ, 8536","No_Match",NA,NA,NA,NA
867013,"8 DEER RUN ROAD","POUGHKEEPSIE","NY",12601,41.6390085080001,-73.8990104969999,13,"8 DEER RUN ROAD, POUGHKEEPSIE, NY, 12601","Match","Non_Exact","8 DEER RUN RD, POUGHKEEPSIE, NY, 12603",4227143,"R"
867014,"8 DEER TRAIL","OAKDALE","CT",6370,41.4609186870001,-72.176100914,14,"8 DEER TRAIL, OAKDALE, CT, 6370","Match","Exact","8 DEER TRL, OAKDALE, CT, 06370",56840361,"R"
867015,"8 DEERFIELD  ROAD","GREENVILLE","SC",29605,34.7837846510001,-82.3840806429999,15,"8 DEERFIELD  ROAD, GREENVILLE, SC, 29605","Match","Exact","8 DEERFIELD RD, GREENVILLE, SC, 29605",38305609,"R"
867016,"8 DEERFIELD ROAD","GREENVILLE","SC",29605,34.7837846510001,-82.3840806429999,16,"8 DEERFIELD ROAD, GREENVILLE, SC, 29605","Match","Exact","8 DEERFIELD RD, GREENVILLE, SC, 29605",38305609,"R"
867017,"8 DEL MAR","IRVINE","CA",92602,33.718376537,-117.775312447,17,"8 DEL MAR, IRVINE, CA, 92602","Match","Exact","8 DEL MAR, IRVINE, CA, 92602",649791736,"L"
867018,"8 DELREY AVENUE","CATONSVILLE","MD",21228,39.273883589,-76.727616384,18,"8 DELREY AVENUE, CATONSVILLE, MD, 21228","Match","Exact","8 DELREY AVE, CATONSVILLE, MD, 21228",191484465,"L"
867019,"8 DELWOOD RD","CHESTER","NJ",7930,40.811036024,-74.6978821989999,19,"8 DELWOOD RD, CHESTER, NJ, 7930","Match","Exact","8 DELWOOD RD, CHESTER, NJ, 07930",642713666,"R"
867020,"8 DEMOTT DRIVE","WHITE HOUSE STATION","NJ",8889,40.5969508050001,-74.7444213209999,20,"8 DEMOTT DRIVE, WHITE HOUSE STATION, NJ, 8889","Match","Non_Exact","8 DEMOTT RD, WHITE HSE STA, NJ, 08889",60011902,"L"
867021,"8 DEN AVE","MERRIMACK","NH",3054,42.844518442,-71.5030508999999,21,"8 DEN AVE, MERRIMACK, NH, 3054","Match","Exact","8 DEN AVE, MERRIMACK, NH, 03054",113543384,"L"
867022,"8 DENBO DRIVE","NEPTUNE","NJ",7753,40.2308981910001,-74.071703317,22,"8 DENBO DRIVE, NEPTUNE, NJ, 7753","Match","Exact","8 DENBO DR, NEPTUNE, NJ, 07753",90456827,"R"
867023,"8 DENMARK LANE","JACKSON","NJ",8527,40.102263701,-74.260908523,23,"8 DENMARK LANE, JACKSON, NJ, 8527","Match","Exact","8 DENMARK LN, JACKSON, NJ, 08527",203719797,"R"
867024,"8 DEPALMA CT","SOMERSET","NJ",8873,40.5143807110001,-74.4956405189999,24,"8 DEPALMA CT, SOMERSET, NJ, 8873","Match","Exact","8 DEPALMA CT, SOMERSET, NJ, 08873",59956842,"R"
867025,"8 DEPOT HILL ROAD","COBALT","CT",6414,41.562973625,-72.55657834,25,"8 DEPOT HILL ROAD, COBALT, CT, 6414","Match","Exact","8 DEPOT HILL RD, COBALT, CT, 06414",113885314,"R"
867026,"8 DERBY LANE","NEW CITY","NY",10956,41.1376878400001,-73.969299776,26,"8 DERBY LANE, NEW CITY, NY, 10956","Match","Exact","8 DERBY LN, NEW CITY, NY, 10956",124597632,"R"
867027,"8 DERBY MILFORD RD 3RD FL","DERBY","CT",6418,NA,NA,27,"8 DERBY MILFORD RD 3RD FL, DERBY, CT, 6418","No_Match",NA,NA,NA,NA
867028,"8 DEVONSHIRE COURT","EWING","NJ",8628,40.2713149420001,-74.83753094,28,"8 DEVONSHIRE COURT, EWING, NJ, 8628","Match","Exact","8 DEVONSHIRE CT, EWING, NJ, 08628",60193674,"L"
867029,"8 DEWEY ST","DORCHESTER","MA",2125,42.3167980700001,-71.077351813,29,"8 DEWEY ST, DORCHESTER, MA, 2125","Match","Exact","8 DEWEY ST, DORCHESTER, MA, 02125",85701789,"L"
867030,"8 DIAMOND CT","WEST WINDSOR","NJ",8550,40.2914780890001,-74.590139381,30,"8 DIAMOND CT, WEST WINDSOR, NJ, 8550","Match","Exact","8 DIAMOND CT, WEST WINDSOR, NJ, 08550",60192183,"R"
867031,"8 DIAMOND RD","LEXINGTON","MA",2420,42.4703100940001,-71.23233651,31,"8 DIAMOND RD, LEXINGTON, MA, 2420","Match","Exact","8 DIAMOND RD, LEXINGTON, MA, 02420",86881697,"L"
867032,"8 DIANA ROAD","OGDEN DUNES","IN",46368,41.626519575,-87.195111658,32,"8 DIANA ROAD, OGDEN DUNES, IN, 46368","Match","Exact","8 DIANA RD, OGDEN DUNES, IN, 46368",119929988,"R"
867033,"8 DIXIE LANE","LIMERICK","ME",4048,43.664789334,-70.758681737,33,"8 DIXIE LANE, LIMERICK, ME, 4048","Match","Non_Exact","8 DIXIE CIR, LIMERICK, ME, 04048",92750617,"L"
867034,"8 DIXON AVENUE","AMITYVILLE","NY",11701,40.6844783430001,-73.4178493539999,34,"8 DIXON AVENUE, AMITYVILLE, NY, 11701","Match","Exact","8 DIXON AVE, AMITYVILLE, NY, 11701",113972392,"L"
867035,"8 DOE DRIVE","DALLAS","PA",18612,41.3316816270001,-75.9763063079999,35,"8 DOE DRIVE, DALLAS, PA, 18612","Match","Exact","8 DOE DR, DALLAS, PA, 18612",80954060,"R"
867036,"8 DOE HAVEN CIRCLE","DEPEW","NY",14043,42.923201867,-78.6816095249999,36,"8 DOE HAVEN CIRCLE, DEPEW, NY, 14043","Match","Non_Exact","8 DOEHAVEN CIR, DEPEW, NY, 14043",48327996,"R"
867037,"8 DOE RUN DR","NEWBURYPORT","MA",1950,42.8074364510001,-70.899957007,37,"8 DOE RUN DR, NEWBURYPORT, MA, 1950","Match","Exact","8 DOE RUN DR, NEWBURYPORT, MA, 01950",86620783,"R"
867038,"8 DOGWOOD COURT","WESTWOOD","NJ",7675,40.97503011,-74.044642542,38,"8 DOGWOOD COURT, WESTWOOD, NJ, 7675","Match","Exact","8 DOGWOOD CT, WESTWOOD, NJ, 07675",642879678,"L"
867039,"8 DOGWOOD LANE","BOONTON TOWNSHIP","NJ",7005,40.919561113,-74.422638123,39,"8 DOGWOOD LANE, BOONTON TOWNSHIP, NJ, 7005","Match","Exact","8 DOGWOOD LN, BOONTON TOWNSHIP, NJ, 07005",60444284,"R"
867040,"8 DOGWOOD LN","KATONAH","NY",10536,41.2863096080001,-73.702543648,40,"8 DOGWOOD LN, KATONAH, NY, 10536","Match","Exact","8 DOGWOOD LN, KATONAH, NY, 10536",139753534,"R"
867041,"8 DOGWOOD STREET","PARK FOREST","IL",60466,41.4860618660001,-87.673461921,41,"8 DOGWOOD STREET, PARK FOREST, IL, 60466","Match","Exact","8 DOGWOOD ST, PARK FOREST, IL, 60466",111711384,"R"
867042,"8 DONNA STREET","WILLISTON","SC",29853,33.406679431,-81.433859701,42,"8 DONNA STREET, WILLISTON, SC, 29853","Match","Exact","8 DONNA ST, WILLISTON, SC, 29853",19074645,"R"
867043,"8 DONOVAN ST","CONCORD","NH",3301,43.182283576,-71.5350445299999,43,"8 DONOVAN ST, CONCORD, NH, 3301","Match","Exact","8 DONOVAN ST, CONCORD, NH, 03301",117717117,"L"
867044,"8 DORCHESTER COURT","PRINCETON","NJ",8540,40.315591813,-74.6926366719999,44,"8 DORCHESTER COURT, PRINCETON, NJ, 8540","Match","Exact","8 DORCHESTER CT, PRINCETON, NJ, 08540",60195038,"L"
867045,"8 DORIAN WAY","HOLBROOK","MA",2343,42.1313175500001,-71.020446669,45,"8 DORIAN WAY, HOLBROOK, MA, 2343","Match","Exact","8 DORIAN WAY, HOLBROOK, MA, 02343",87269094,"L"
867046,"8 DOUTHIT ST","GREENVILLE","SC",29601,34.8469568260001,-82.41550406,46,"8 DOUTHIT ST, GREENVILLE, SC, 29601","Match","Non_Exact","8 DOUTHIT CIR, GREENVILLE, SC, 29601",38319363,"L"
867047,"8 DRAKE CT","SOUTH WINDSOR","CT",6074,41.812058021,-72.5672792619999,47,"8 DRAKE CT, SOUTH WINDSOR, CT, 6074","Match","Exact","8 DRAKE CT, SOUTH WINDSOR, CT, 06074",627377230,"R"
867048,"8 DRAYTON HALL DRIVE","SIMPSONVILLE","SC",29681,34.803254225,-82.2098925239999,48,"8 DRAYTON HALL DRIVE, SIMPSONVILLE, SC, 29681","Match","Non_Exact","8 DRAYTON HALL RD, SIMPSONVILLE, SC, 29681",640772464,"R"
867049,"8 DRIFTWOOD BLVD","KENNER","LA",70065,30.019849918,-90.228695993,49,"8 DRIFTWOOD BLVD, KENNER, LA, 70065","Match","Exact","8 DRIFTWOOD BLVD, KENNER, LA, 70065",93527432,"R"
867050,"8 DRUID CIRCLE","LITITZ","PA",17543,40.121266077,-76.32961282,50,"8 DRUID CIRCLE, LITITZ, PA, 17543","Match","Exact","8 DRUID CIR, LITITZ, PA, 17543",179688944,"R"
867051,"8 DUART LN","BELLA VISTA","AR",72715,36.4937175590001,-94.3544680049999,51,"8 DUART LN, BELLA VISTA, AR, 72715","Match","Exact","8 DUART LN, BELLA VISTA, AR, 72715",47857139,"R"
867052,"8 DUCLAIR CT","LITTLE ROCK","AR",72223,34.775911363,-92.466001198,52,"8 DUCLAIR CT, LITTLE ROCK, AR, 72223","Match","Exact","8 DUCLAIR CT, LITTLE ROCK, AR, 72223",83542148,"L"
867053,"8 DUDLEY DR","SUTTON","MA",1590,42.1505724940001,-71.760733,53,"8 DUDLEY DR, SUTTON, MA, 1590","Match","Exact","8 DUDLEY DR, SUTTON, MA, 01590",639008146,"L"
867054,"8 DUNAWAY DRIVE","RICHMOND","VA",23238,37.583428381,-77.633284977,54,"8 DUNAWAY DRIVE, RICHMOND, VA, 23238","Match","Exact","8 DUNAWAY DR, RICHMOND, VA, 23238",210330717,"L"
867055,"8 DUNCAN CREEK ROAD","BOYES","MT",59316,NA,NA,55,"8 DUNCAN CREEK ROAD, BOYES, MT, 59316","No_Match",NA,NA,NA,NA
867056,"8 DUNEDIN LANE","BELLA VISTA","AR",72715,36.4654504430001,-94.307588432,56,"8 DUNEDIN LANE, BELLA VISTA, AR, 72715","Match","Exact","8 DUNEDIN LN, BELLA VISTA, AR, 72715",47844192,"R"
867057,"8 DUNHAM ROAD","PARK FOREST","IL",60442,41.4822323610001,-87.6698320949999,57,"8 DUNHAM ROAD, PARK FOREST, IL, 60442","Match","Non_Exact","8 DUNHAM RD, PARK FOREST, IL, 60466",111711458,"R"
867058,"8 DUTCHESS TERRACE","BEACON","NY",12508,41.5104946440001,-73.9746454959999,58,"8 DUTCHESS TERRACE, BEACON, NY, 12508","Match","Exact","8 DUTCHESS TER, BEACON, NY, 12508",4161899,"R"
867059,"8 DUTTON ROAD","PELHAM","NH",3076,42.7256131840001,-71.314322107,59,"8 DUTTON ROAD, PELHAM, NH, 3076","Match","Exact","8 DUTTON RD, PELHAM, NH, 03076",113560255,"R"
867060,"8 E 13TH STREET","LAKEWOOD","NJ",8701,NA,NA,60,"8 E 13TH STREET, LAKEWOOD, NJ, 8701","No_Match",NA,NA,NA,NA
867061,"8 E 300 SOUTH","LAKETOWN","UT",84038,41.8189347520001,-111.322554278,61,"8 E 300 SOUTH, LAKETOWN, UT, 84038","Match","Exact","8 E 300 S, LAKETOWN, UT, 84038",160583261,"L"
867062,"8 E 31 STREET","BRANT BEACH","NJ",8008,39.5825627730001,-74.2262576269999,62,"8 E 31 STREET, BRANT BEACH, NJ, 8008","Match","Non_Exact","8 E 31ST ST, LONG BEACH TOWNSHIP, NJ, 08008",203788069,"L"
867063,"8 E 9TH ST APT 2609","CHICAGO","IL",60605,NA,NA,63,"8 E 9TH ST APT 2609, CHICAGO, IL, 60605","Tie",NA,NA,NA,NA
867064,"8 E 9TH ST","CHICAGO","IL",60605,41.8705342260001,-87.6272440929999,64,"8 E 9TH ST, CHICAGO, IL, 60605","Match","Exact","8 E 9TH ST, CHICAGO, IL, 60605",111828871,"L"
867065,"8 E 9TH STREET APT 1101","CHICAGO","IL",60605,NA,NA,65,"8 E 9TH STREET APT 1101, CHICAGO, IL, 60605","Tie",NA,NA,NA,NA
867066,"8 E ALDINE DRIVE","HOCKESSIN","DE",19707,39.784489406,-75.67258122,66,"8 E ALDINE DRIVE, HOCKESSIN, DE, 19707","Match","Exact","8 E ALDINE DR, HOCKESSIN, DE, 19707",187281916,"L"
867067,"8 E ALPINE ST","NEWARK","NJ",7114,40.7188136010001,-74.189505669,67,"8 E ALPINE ST, NEWARK, NJ, 7114","Match","Exact","8 E ALPINE ST, NEWARK, NJ, 07114",63466465,"R"
867068,"8 E BROADWAY STE 410","SALT LAKE CITY","UT",84111,40.7628199700001,-111.890855181,68,"8 E BROADWAY STE 410, SALT LAKE CITY, UT, 84111","Match","Non_Exact","8 E BROADWAY, SALT LAKE CITY, UT, 84111",609018963,"R"
867069,"8 E BROADWAY SUITE 410","SALT LAKE CITY","UT",84111,40.7628199700001,-111.890855181,69,"8 E BROADWAY SUITE 410, SALT LAKE CITY, UT, 84111","Match","Non_Exact","8 E BROADWAY, SALT LAKE CITY, UT, 84111",609018963,"R"
867070,"8 E COTTONWOOD STREET","COTTONWOOD","AZ",86326,34.7286608040001,-112.027664237,70,"8 E COTTONWOOD STREET, COTTONWOOD, AZ, 86326","Match","Exact","8 E COTTONWOOD ST, COTTONWOOD, AZ, 86326",159518001,"R"
867071,"8 E CREST DRIVE","ROCHESTER","NY",14606,43.167406676,-77.714637233,71,"8 E CREST DRIVE, ROCHESTER, NY, 14606","Match","Exact","8 E CREST DR, ROCHESTER, NY, 14606",14529746,"R"
867072,"8 E RANDOLPH ST","CHICAGO","IL",60601,41.8844985360001,-87.627557109,72,"8 E RANDOLPH ST, CHICAGO, IL, 60601","Match","Exact","8 E RANDOLPH ST, CHICAGO, IL, 60601",111769100,"L"
867073,"8 E RANDOLPH UNIT 1505","CHICAGO","IL",60601,NA,NA,73,"8 E RANDOLPH UNIT 1505, CHICAGO, IL, 60601","No_Match",NA,NA,NA,NA
867074,"8 E TALLPINE DRIVE","HAMPTON","VA",23666,37.033919666,-76.3957569299999,74,"8 E TALLPINE DRIVE, HAMPTON, VA, 23666","Match","Non_Exact","8 TALL PINE DR, HAMPTON, VA, 23666",103808509,"R"
867075,"8 E WEALD AVENUE","BEAR","DE",19701,39.593482254,-75.7358055399999,75,"8 E WEALD AVENUE, BEAR, DE, 19701","Match","Non_Exact","8 EASTWEALD AVE, BEAR, DE, 19701",187276656,"L"
867076,"8 EAGLE DRIVE","COVENTRY","RI",2816,41.682673455,-71.600795408,76,"8 EAGLE DRIVE, COVENTRY, RI, 2816","Match","Exact","8 EAGLE DR, COVENTRY, RI, 02816",159141002,"R"
867077,"8 EAGLE ST","HOOSICK FALLS","NY",12090,42.9021147190001,-73.3448894919999,77,"8 EAGLE ST, HOOSICK FALLS, NY, 12090","Match","Exact","8 EAGLE ST, HOOSICK FALLS, NY, 12090",35721280,"L"
867078,"8 EAGLE ST","HOOSICK FALLS","NY",12865,42.9021147190001,-73.3448894919999,78,"8 EAGLE ST, HOOSICK FALLS, NY, 12865","Match","Non_Exact","8 EAGLE ST, HOOSICK FALLS, NY, 12090",35721280,"L"
867079,"8 EAGLE TRAIL 1634B","HATTIESBURG","MS",39402,NA,NA,79,"8 EAGLE TRAIL 1634B, HATTIESBURG, MS, 39402","No_Match",NA,NA,NA,NA
867080,"8 EAGLES AERIE COURT","HICKORY CREEK","TX",75065,33.120869273,-97.0594467339999,80,"8 EAGLES AERIE COURT, HICKORY CREEK, TX, 75065","Match","Exact","8 EAGLES AERIE CT, HICKORY CREEK, TX, 75065",640557435,"R"
867081,"8 EAHAL CT","MONROE","NY",10950,41.339314051,-74.168267284,81,"8 EAHAL CT, MONROE, NY, 10950","Match","Exact","8 EAHAL CT, MONROE, NY, 10950",124453529,"L"
867082,"8 EARLE STREET","LISBON FALLS","ME",4252,44.001010492,-70.056310439,82,"8 EARLE STREET, LISBON FALLS, ME, 4252","Match","Exact","8 EARLE ST, LISBON FALLS, ME, 04252",77964273,"L"
867083,"8 EARLEY CT","STAFFORD","VA",22554,38.480027271,-77.382054881,83,"8 EARLEY CT, STAFFORD, VA, 22554","Match","Exact","8 EARLEY CT, STAFFORD, VA, 22554",646444120,"R"
867084,"8 EAST 110TH ST 4G","NEW YORK","NY",10029,40.7965717320001,-73.948577768,84,"8 EAST 110TH ST 4G, NEW YORK, NY, 10029","Match","Exact","8 E 110TH ST, NEW YORK, NY, 10029",59657775,"R"
867085,"8 EAST 110TH STREET APT 2E","NEW YORK","NY",10029,40.7965717320001,-73.948577768,85,"8 EAST 110TH STREET APT 2E, NEW YORK, NY, 10029","Match","Exact","8 E 110TH ST, NEW YORK, NY, 10029",59657775,"R"
867086,"8 EAST 127 STREET","NEW YORK","NY",10035,40.8075810670001,-73.941013227,86,"8 EAST 127 STREET, NEW YORK, NY, 10035","Match","Exact","8 E 127TH ST, NEW YORK, NY, 10035",59656455,"R"
867087,"8 EAST AVE","CORTLAND","NY",13045,42.6001081410001,-76.163467689,87,"8 EAST AVE, CORTLAND, NY, 13045","Match","Exact","8 EAST AVE, CORTLAND, NY, 13045",45804065,"L"
867088,"8 EAST BATTERY STREET","ABINGTON","MA",2351,42.133000775,-70.93981225,88,"8 EAST BATTERY STREET, ABINGTON, MA, 2351","Match","Exact","8 E BATTERY ST, ABINGTON, MA, 02351",87431189,"L"
867089,"8 EAST BROADWAY SUITE 320","SALT LAKE CITY","UT",84111,40.7628198780001,-111.890868298,89,"8 EAST BROADWAY SUITE 320, SALT LAKE CITY, UT, 84111","Match","Exact","8 E BROADWAY, SALT LAKE CITY, UT, 84111",609018963,"R"
867090,"8 EAST BROADWAY SUITE 410","SALT LAKE CITY","UT",84111,40.7628198780001,-111.890868298,90,"8 EAST BROADWAY SUITE 410, SALT LAKE CITY, UT, 84111","Match","Exact","8 E BROADWAY, SALT LAKE CITY, UT, 84111",609018963,"R"
867091,"8 EAST BROADWAY SUITE 550","SALT LAKE CITY","UT",84111,40.7628198780001,-111.890868298,91,"8 EAST BROADWAY SUITE 550, SALT LAKE CITY, UT, 84111","Match","Exact","8 E BROADWAY, SALT LAKE CITY, UT, 84111",609018963,"R"
867092,"8 EAST BROADWAY SUITE 625","SALT LAKE CITY","UT",84111,40.7628198780001,-111.890868298,92,"8 EAST BROADWAY SUITE 625, SALT LAKE CITY, UT, 84111","Match","Exact","8 E BROADWAY, SALT LAKE CITY, UT, 84111",609018963,"R"
867093,"8 EAST CLEVELAND STREET","APOPKA","FL",32703,28.654709365,-81.511126944,93,"8 EAST CLEVELAND STREET, APOPKA, FL, 32703","Match","Exact","8 E CLEVELAND ST, APOPKA, FL, 32703",94267705,"R"
867094,"8 EAST FIGUEROA STREET SUITE 210","SANTA BARBARA","CA",93101,34.4225623880001,-119.7030072,94,"8 EAST FIGUEROA STREET SUITE 210, SANTA BARBARA, CA, 93101","Match","Exact","8 E FIGUEROA ST, SANTA BARBARA, CA, 93101",108605276,"R"
867095,"8 EAST GRANT STREET","MCRAE-HELENA","GA",31055,32.0691306100001,-82.89343633,95,"8 EAST GRANT STREET, MCRAE-HELENA, GA, 31055","Match","Non_Exact","8 E GRANT ST, MC RAE HELENA, GA, 31055",9464974,"L"
867096,"8 EAST HIGH STREET","ANNVILLE","PA",17003,40.3264143800001,-76.512397338,96,"8 EAST HIGH STREET, ANNVILLE, PA, 17003","Match","Exact","8 E HIGH ST, ANNVILLE, PA, 17003",80672163,"R"
867097,"8 EAST IRVING STREET","CHEVY CHASE","MD",20815,38.9693616610001,-77.076888394,97,"8 EAST IRVING STREET, CHEVY CHASE, MD, 20815","Match","Exact","8 E IRVING ST, CHEVY CHASE, MD, 20815",637336550,"R"
867098,"8 EAST LIBERTY","SAINT JOHN","WA",99171,47.0899548400001,-117.581094092,98,"8 EAST LIBERTY, SAINT JOHN, WA, 99171","Match","Non_Exact","8 E LIBERTY ST, SAINT JOHN, WA, 99171",173303259,"L"
867099,"8 EAST LONG STREET APT 210","COLUMBUS","OH",43215,39.964974527,-83.000918697,99,"8 EAST LONG STREET APT 210, COLUMBUS, OH, 43215","Match","Exact","8 E LONG ST, COLUMBUS, OH, 43215",135576034,"L"
867100,"8 EAST PLACE","SUFFERN","NY",10901,NA,NA,100,"8 EAST PLACE, SUFFERN, NY, 10901","No_Match",NA,NA,NA,NA
867101,"8 EAST PRESCOTT STREET","WESTFORD","MA",1886,42.58158095,-71.486025141,101,"8 EAST PRESCOTT STREET, WESTFORD, MA, 1886","Match","Exact","8 E PRESCOTT ST, WESTFORD, MA, 01886",86894913,"R"
867102,"8 EAST PROMISELAND","CARLSBAD","NM",88220,32.292541634,-104.157987631,102,"8 EAST PROMISELAND, CARLSBAD, NM, 88220","Match","Non_Exact","8 E PROMISE LAND RD, CARLSBAD, NM, 88220",131317089,"L"
867103,"8 EAST RANDOLPH STREET 2408","CHICAGO","IL",60601,41.884498492,-87.627568146,103,"8 EAST RANDOLPH STREET 2408, CHICAGO, IL, 60601","Match","Exact","8 E RANDOLPH ST, CHICAGO, IL, 60601",111769100,"L"
867104,"8 EAST STREET","PLAINFIELD","MA",0,NA,NA,104,"8 EAST STREET, PLAINFIELD, MA, 0","No_Match",NA,NA,NA,NA
867105,"8 EAST THRUSH DRIVE","MILFORD","DE",19963,38.9003140310001,-75.39971381,105,"8 EAST THRUSH DRIVE, MILFORD, DE, 19963","Match","Exact","8 E THRUSH DR, MILFORD, DE, 19963",106135718,"L"
867106,"8 EASTVIEW DRIVE APT 3","WATERVLIET","NY",12189,42.735431744,-73.7183384969999,106,"8 EASTVIEW DRIVE APT 3, WATERVLIET, NY, 12189","Match","Exact","8 EASTVIEW DR, WATERVLIET, NY, 12189",622826186,"R"
867107,"8 EDEN PARK DRIVE","CRANSTON","RI",2910,41.771463302,-71.4471416769999,107,"8 EDEN PARK DRIVE, CRANSTON, RI, 2910","Match","Exact","8 EDEN PARK DR, CRANSTON, RI, 02910",47471088,"R"
867108,"8 EDGE HILL ROAD","WLLESLEY","MA",2481,42.32185772,-71.285503575,108,"8 EDGE HILL ROAD, WLLESLEY, MA, 2481","Match","Non_Exact","8 EDGE HILL RD, WELLESLEY, MA, 02481",87236773,"L"
867109,"8 EDGEHILL ROAD","BRAINTREE","MA",2184,42.225688065,-70.968787725,109,"8 EDGEHILL ROAD, BRAINTREE, MA, 2184","Match","Non_Exact","8 EDGE HILL RD, BRAINTREE, MA, 02184",87251503,"L"
867110,"8 EDGEMONT","SCARSDALE","NY",10583,NA,NA,110,"8 EDGEMONT, SCARSDALE, NY, 10583","Tie",NA,NA,NA,NA
867111,"8 EDGEWOOD ROAD","SLINGERLANDS","NY",12159,42.627732474,-73.8623940429999,111,"8 EDGEWOOD ROAD, SLINGERLANDS, NY, 12159","Match","Exact","8 EDGEWOOD RD, SLINGERLANDS, NY, 12159",18304573,"L"
867112,"8 EDMOND RD","BETHEL","CT",6801,41.392915601,-73.383069808,112,"8 EDMOND RD, BETHEL, CT, 6801","Match","Exact","8 EDMOND RD, BETHEL, CT, 06801",3233900,"L"
867113,"8 EDMONDSON","LEXINGTON","VA",24450,37.778660352,-79.449063891,113,"8 EDMONDSON, LEXINGTON, VA, 24450","Match","Non_Exact","8 EDMONDSON AVE, LEXINGTON, VA, 24450",63109451,"L"
867114,"8 EGBERT HILL RD","MORRISTOWN","NJ",7960,40.804540628,-74.493206921,114,"8 EGBERT HILL RD, MORRISTOWN, NJ, 7960","Match","Exact","8 EGBERT HILL RD, MORRISTOWN, NJ, 07960",60443084,"R"
867115,"8 EGLANTINE AVENUE","PENNINGTON","NJ",8534,40.3289457590001,-74.7887873129999,115,"8 EGLANTINE AVENUE, PENNINGTON, NJ, 8534","Match","Exact","8 EGLANTINE AVE, PENNINGTON, NJ, 08534",60176052,"L"
867116,"8 EGLANTINE AVENUE","PENNINGTON","NJ",9534,NA,NA,116,"8 EGLANTINE AVENUE, PENNINGTON, NJ, 9534","No_Match",NA,NA,NA,NA
867117,"8 EL BONITA WAY","BENICIA","CA",94510,38.059605639,-122.145000736,117,"8 EL BONITA WAY, BENICIA, CA, 94510","Match","Non_Exact","8 EL BONITO WAY, BENICIA, CA, 94510",192530849,"R"
867118,"8 ELBO LN","TREVOSE","PA",19053,NA,NA,118,"8 ELBO LN, TREVOSE, PA, 19053","No_Match",NA,NA,NA,NA
867119,"8 ELDRED HTS RD","ELDRED","NY",12732,41.5288411600001,-74.882282173,119,"8 ELDRED HTS RD, ELDRED, NY, 12732","Match","Exact","8 ELDRED HEIGHTS RD, ELDRED, NY, 12732",128986713,"R"
867120,"8 ELENA ROAD","LEXINGTON","MA",2421,42.4416337640001,-71.2535289959999,120,"8 ELENA ROAD, LEXINGTON, MA, 2421","Match","Exact","8 ELENA RD, LEXINGTON, MA, 02421",86855091,"L"
867121,"8 ELIZABETH PLACE","ERIAL","NJ",8081,39.76225958,-74.994114876,121,"8 ELIZABETH PLACE, ERIAL, NJ, 8081","Match","Exact","8 ELIZABETH PL, ERIAL, NJ, 08081",134362754,"R"
867122,"8 ELLERDALE ROAD","FALLSINGTON","PA",19054,40.18953744,-74.811161351,122,"8 ELLERDALE ROAD, FALLSINGTON, PA, 19054","Match","Exact","8 ELLERDALE RD, FALLSINGTON, PA, 19054",623947842,"L"
867123,"8 ELLIOT PLACE","PALM COAST","FL",32164,29.486501763,-81.2301440379999,123,"8 ELLIOT PLACE, PALM COAST, FL, 32164","Match","Exact","8 ELLIOT PL, PALM COAST, FL, 32164",94962730,"R"
867124,"8 ELM STREET","KINGSTON","MA",2364,41.99260185,-70.7342008219999,124,"8 ELM STREET, KINGSTON, MA, 2364","Match","Exact","8 ELM ST, KINGSTON, MA, 02364",87435680,"L"
867125,"8 ELM STREET","SAVANNA","IL",61074,42.090594455,-90.143588225,125,"8 ELM STREET, SAVANNA, IL, 61074","Match","Exact","8 ELM ST, SAVANNA, IL, 61074",27682972,"R"
867126,"8 ELMER MILLER RD","TRENTON","TN",38382,35.957646298,-88.919511362,126,"8 ELMER MILLER RD, TRENTON, TN, 38382","Match","Exact","8 ELMER MILLER RD, TRENTON, TN, 38382",40826749,"L"
867127,"8 ELNA DRIVE","SMITHFIELD","RI",2917,41.9243822930001,-71.547787989,127,"8 ELNA DRIVE, SMITHFIELD, RI, 2917","Match","Exact","8 ELNA DR, SMITHFIELD, RI, 02917",47535543,"L"
867128,"8 ELSIE STREET","EVERETT","MA",2149,42.4116707520001,-71.0390166349999,128,"8 ELSIE STREET, EVERETT, MA, 2149","Match","Exact","8 ELSIE ST, EVERETT, MA, 02149",87093252,"L"
867129,"8 ELVEN ROAD","ROSLINDALE","MA",2131,42.2936204590001,-71.120246763,129,"8 ELVEN ROAD, ROSLINDALE, MA, 2131","Match","Exact","8 ELVEN RD, ROSLINDALE, MA, 02131",85696665,"L"
867130,"8 EMBASSY CT","GREAT NECK","NY",11021,40.7940406050001,-73.731597742,130,"8 EMBASSY CT, GREAT NECK, NY, 11021","Match","Exact","8 EMBASSY CT, GREAT NECK, NY, 11021",147656164,"R"
867131,"8 EMBODEN AVE","OTISVILLE","NY",10963,41.476586486,-74.532704268,131,"8 EMBODEN AVE, OTISVILLE, NY, 10963","Match","Exact","8 EMBODEN AVE, OTISVILLE, NY, 10963",124499077,"R"
867132,"8 EMERY LANE","KENNEBUNK","ME",4043,43.362949133,-70.4896896659999,132,"8 EMERY LANE, KENNEBUNK, ME, 4043","Match","Exact","8 EMERY LN, KENNEBUNK, ME, 04043",92746321,"L"
867133,"8 EMILY COURT","MORICHES","NY",11955,40.798138512,-72.821789512,133,"8 EMILY COURT, MORICHES, NY, 11955","Match","Exact","8 EMILY CT, MORICHES, NY, 11955",114273986,"L"
867134,"8 ENDICOTT ROAD","ANDOVER","MA",1810,42.6671821950001,-71.160757212,134,"8 ENDICOTT ROAD, ANDOVER, MA, 1810","Match","Exact","8 ENDICOTT RD, ANDOVER, MA, 01810",86629269,"L"
867135,"8 ENGLISH NEIGHBORHOOD ROAD","WOODSTOCK","CT",6281,41.9935909930001,-71.998698459,135,"8 ENGLISH NEIGHBORHOOD ROAD, WOODSTOCK, CT, 6281","Match","Exact","8 ENGLISH NEIGHBORHOOD RD, WOODSTOCK, CT, 06281",56443959,"L"
867136,"8 ERIC DR","PALM COAST","FL",32164,29.491022985,-81.232687475,136,"8 ERIC DR, PALM COAST, FL, 32164","Match","Exact","8 ERIC DR, PALM COAST, FL, 32164",94943423,"L"
867137,"8 ERVEN AVE","STREATOR","IL",61364,41.1489532950001,-88.828073214,137,"8 ERVEN AVE, STREATOR, IL, 61364","Match","Non_Exact","8 ERVEN RD, STREATOR, IL, 61364",8591869,"L"
867138,"8 ESQUIRE CIRCLE","PEABODY","MA",1960,42.5397793000001,-70.93155805,138,"8 ESQUIRE CIRCLE, PEABODY, MA, 1960","Match","Exact","8 ESQUIRE CIR, PEABODY, MA, 01960",86640534,"L"
867139,"8 ESSEX ROAD","SCOTCH PLAINS","NJ",7076,40.6287664860001,-74.3734308689999,139,"8 ESSEX ROAD, SCOTCH PLAINS, NJ, 7076","Match","Exact","8 ESSEX RD, SCOTCH PLAINS, NJ, 07076",60591720,"R"
867140,"8 ETHAN ALLEN DRIVE","ACTON","MA",1720,42.4718784290001,-71.492244398,140,"8 ETHAN ALLEN DRIVE, ACTON, MA, 1720","Match","Exact","8 ETHAN ALLEN DR, ACTON, MA, 01720",86841484,"L"
867141,"8 ETHERINGTON CRESCENT","ROCHESTER","NY",14428,43.093930265,-77.737651461,141,"8 ETHERINGTON CRESCENT, ROCHESTER, NY, 14428","Match","Non_Exact","8 ETHERINGTON CRES, CLIFTON, NY, 14428",650708034,"L"
867142,"8 EUCLID STREET","MARSHALLVILLE","OH",44645,40.8998655030001,-81.7322694599999,142,"8 EUCLID STREET, MARSHALLVILLE, OH, 44645","Match","Exact","8 EUCLID ST, MARSHALLVILLE, OH, 44645",58732636,"R"
867143,"8 EUCLID TERRACE","PARSIPPANY","NJ",7054,40.8772243180001,-74.395061061,143,"8 EUCLID TERRACE, PARSIPPANY, NJ, 7054","Match","Exact","8 EUCLID TER, PARSIPPANY, NJ, 07054",60458398,"R"
867144,"8 EVANS CIR","POQUOSON","VA",23662,37.1424760880001,-76.3725501339999,144,"8 EVANS CIR, POQUOSON, VA, 23662","Match","Exact","8 EVANS CIR, POQUOSON, VA, 23662",103761486,"L"
867145,"8 EVERETT LANE","FOXBORO","MA",2035,42.096766304,-71.2411216739999,145,"8 EVERETT LANE, FOXBORO, MA, 2035","Match","Exact","8 EVERETT LN, FOXBORO, MA, 02035",87261992,"L"
867146,"8 EVERETT STREET","VALLEY STREAM","NY",11580,40.682612503,-73.723349231,146,"8 EVERETT STREET, VALLEY STREAM, NY, 11580","Match","Exact","8 EVERETT ST, VALLEY STREAM, NY, 11580",147667710,"L"
867147,"8 EVERGREEN AVENUE","WILTON","CT",6897,41.188706209,-73.42314455,147,"8 EVERGREEN AVENUE, WILTON, CT, 6897","Match","Exact","8 EVERGREEN AVE, WILTON, CT, 06897",3259774,"R"
867148,"8 EVERGREEN DRIVE","NEWARK","DE",19702,39.6293236240001,-75.701289393,148,"8 EVERGREEN DRIVE, NEWARK, DE, 19702","Match","Exact","8 EVERGREEN DR, NEWARK, DE, 19702",187265007,"R"
867149,"8 EVERGREEN PLACE","HACKETTSTOWN","NJ",7840,40.8203014540001,-74.826315917,149,"8 EVERGREEN PLACE, HACKETTSTOWN, NJ, 7840","Match","Exact","8 EVERGREEN PL, HACKETTSTOWN, NJ, 07840",649304497,"L"
867150,"8 EXBURY WAY","HOUSTON","TX",77056,29.759909963,-95.4639565269999,150,"8 EXBURY WAY, HOUSTON, TX, 77056","Match","Exact","8 EXBURY WAY, HOUSTON, TX, 77056",96624684,"R"
867151,"8 EXECUTIVE DRIVE","TOMS RIVER","NJ",8755,39.9855498910001,-74.263454579,151,"8 EXECUTIVE DRIVE, TOMS RIVER, NJ, 8755","Match","Exact","8 EXECUTIVE DR, TOMS RIVER, NJ, 08755",636226176,"R"
867152,"8 EXETER ROAD","AVONDALE ESTATES","GA",30002,33.7748495060001,-84.271144287,152,"8 EXETER ROAD, AVONDALE ESTATES, GA, 30002","Match","Exact","8 EXETER RD, AVONDALE EST, GA, 30002",23369423,"L"
867153,"8 FACTORY LANE","WILMINGTON","MA",1887,42.537770231,-71.165260748,153,"8 FACTORY LANE, WILMINGTON, MA, 1887","Match","Non_Exact","8 FACTORY RD, WILMINGTON, MA, 01887",87080332,"L"
867154,"8 FAHY AVENUE","STATEN ISLAND","NY",10314,40.620164124,-74.167494569,154,"8 FAHY AVENUE, STATEN ISLAND, NY, 10314","Match","Exact","8 FAHY AVE, STATEN ISLAND, NY, 10314",59887975,"R"
867155,"8 FAIR HAVEN ROAD","RUMSON","NJ",7760,40.354378925,-74.025447636,155,"8 FAIR HAVEN ROAD, RUMSON, NJ, 7760","Match","Exact","8 FAIR HAVEN RD, RUMSON, NJ, 07760",90452800,"R"
867156,"8 FAIRFIELD DRIVE","DUDLEY","MA",1571,42.0563453180001,-71.908371804,156,"8 FAIRFIELD DRIVE, DUDLEY, MA, 1571","Match","Exact","8 FAIRFIELD DR, DUDLEY, MA, 01571",40065127,"L"
867157,"8 FAIRFIELD LN","MECHANICSBURG","PA",17050,40.230118272,-77.083505482,157,"8 FAIRFIELD LN, MECHANICSBURG, PA, 17050","Match","Exact","8 FAIRFIELD LN, MECHANICSBURG, PA, 17050",60954925,"L"
867158,"8 FAIRFIELD STREET","MONTCLAIR","NJ",7042,40.8287264590001,-74.202112139,158,"8 FAIRFIELD STREET, MONTCLAIR, NJ, 7042","Match","Exact","8 FAIRFIELD ST, MONTCLAIR, NJ, 07042",63448830,"L"
867159,"8 FAIRGROUND","LITCHFIELD","IL",62056,39.1642448360001,-89.654435448,159,"8 FAIRGROUND, LITCHFIELD, IL, 62056","Match","Non_Exact","8 FAIRGROUND AVE, LITCHFIELD, IL, 62056",99450000,"R"
867160,"8 FAIRMONT AVENUE","MEDFORD","NY",11763,40.829426121,-73.0039038799999,160,"8 FAIRMONT AVENUE, MEDFORD, NY, 11763","Match","Exact","8 FAIRMONT AVE, MEDFORD, NY, 11763",114012141,"L"
867161,"8 FAIRMOUNT CT","DEARBORN","MI",48124,42.305628583,-83.281459075,161,"8 FAIRMOUNT CT, DEARBORN, MI, 48124","Match","Exact","8 FAIRMOUNT CT, DEARBORN, MI, 48124",95432740,"R"
867162,"8 FAIRVIEW AVE","PEQUANNOCK","NJ",7440,40.945567753,-74.282109288,162,"8 FAIRVIEW AVE, PEQUANNOCK, NJ, 7440","Match","Exact","8 FAIRVIEW AVE, PEQUANNOCK, NJ, 07440",60429295,"R"
867163,"8 FAIRWAY LANE","MEDWAY","MA",2053,42.1728316630001,-71.414420444,163,"8 FAIRWAY LANE, MEDWAY, MA, 2053","Match","Exact","8 FAIRWAY LN, MEDWAY, MA, 02053",87287031,"R"
867164,"8 FAIRWAY ROAD","ESSEX","MD",21221,39.3057425280001,-76.486225819,164,"8 FAIRWAY ROAD, ESSEX, MD, 21221","Match","Exact","8 FAIRWAY RD, ESSEX, MD, 21221",191489251,"L"
867165,"8 FAITH DRIVE","OCEAN","NJ",7712,40.243120004,-74.0489089069999,165,"8 FAITH DRIVE, OCEAN, NJ, 7712","Match","Exact","8 FAITH DR, OCEAN, NJ, 07712",90455808,"R"
867166,"8 FAITH LANE","ARDSLEY","NY",10502,41.0030904280001,-73.8446062789999,166,"8 FAITH LANE, ARDSLEY, NY, 10502","Match","Exact","8 FAITH LN, ARDSLEY, NY, 10502",636808168,"L"
867167,"8 FALCON LANE","NORWICH","VT",5055,43.7250510760001,-72.297067061,167,"8 FALCON LANE, NORWICH, VT, 5055","Match","Exact","8 FALCON LN, NORWICH, VT, 05055",139250440,"R"
867168,"8 FALCONRIDGE","COTO DE CAZA","CA",92679,33.5661666560001,-117.579158559,168,"8 FALCONRIDGE, COTO DE CAZA, CA, 92679","Match","Non_Exact","8 FALCONRIDGE DR, COTO DE CAZA, CA, 92679",608140836,"L"
867169,"8 FALCONS POINTE DRIVE","CHICO","CA",95928,39.7648948570001,-121.783245183,169,"8 FALCONS POINTE DRIVE, CHICO, CA, 95928","Match","Non_Exact","8 FALCON POINTE DR, CHICO, CA, 95928",653154987,"R"
867170,"8 FALLS BROOK ROAD","HUDSON","MA",1749,42.4064544500001,-71.58276402,170,"8 FALLS BROOK ROAD, HUDSON, MA, 1749","Match","Exact","8 FALLS BROOK RD, HUDSON, MA, 01749",87162112,"L"
867171,"8 FANCHER PLACE","STATEN","NY",10303,40.6379887080001,-74.1683587099999,171,"8 FANCHER PLACE, STATEN, NY, 10303","Match","Non_Exact","8 FANCHER PL, STATEN ISLAND, NY, 10303",59877192,"L"
867172,"8 FANEUIL HALL 3RD FL","BOSTON","MA",2109,NA,NA,172,"8 FANEUIL HALL 3RD FL, BOSTON, MA, 2109","No_Match",NA,NA,NA,NA
867173,"8 FAR CORNERS LOOP","SPARKS","MD",21152,39.5216927070001,-76.636042488,173,"8 FAR CORNERS LOOP, SPARKS, MD, 21152","Match","Non_Exact","8 FAR CORNERS CT, SPARKS, MD, 21152",191507227,"R"
867174,"8 FARM HILLS","HINGHAM","MA",2043,42.1764084820001,-70.893749285,174,"8 FARM HILLS, HINGHAM, MA, 2043","Match","Non_Exact","8 FARM HILLS LN, HINGHAM, MA, 02043",87431454,"R"
867175,"8 FARMWOOD RD","CONCORD","NH",3301,43.2729608450001,-71.554799213,175,"8 FARMWOOD RD, CONCORD, NH, 3301","Match","Exact","8 FARMWOOD RD, CONCORD, NH, 03301",117727281,"R"
867176,"8 FARNHAM RAOD","WEST HARTFORD","CT",6119,41.7674372110001,-72.7278916879999,176,"8 FARNHAM RAOD, WEST HARTFORD, CT, 6119","Match","Non_Exact","8 FARNHAM RD, WEST HARTFORD, CT, 06119",3493915,"R"
867177,"8 FARRAGUT AVENUE","BAY SHORE","NY",11706,40.746978137,-73.259377005,177,"8 FARRAGUT AVENUE, BAY SHORE, NY, 11706","Match","Exact","8 FARRAGUT AVE, BAY SHORE, NY, 11706",113995605,"L"
867178,"8 FAWN DRIVE","SHREWSBURG","PA",17361,39.775501036,-76.670822701,178,"8 FAWN DRIVE, SHREWSBURG, PA, 17361","Match","Non_Exact","8 FAWN DR, SHREWSBURY, PA, 17361",618249619,"R"
867179,"8 FAWN MEADOW ROAD","OAKDALE","CT",6370,41.461370591,-72.136131141,179,"8 FAWN MEADOW ROAD, OAKDALE, CT, 6370","Match","Non_Exact","8 FAWNS MEADOW RD, OAKDALE, CT, 06370",617773265,"L"
867180,"8 FELS CIRCLE","WELLESLEY","MA",2482,42.303500985,-71.3137896819999,180,"8 FELS CIRCLE, WELLESLEY, MA, 2482","Match","Non_Exact","8 FELLS CIR, WELLESLEY, MA, 02482",87236526,"L"
867181,"8 FERN DRIVE","BLOOMFIELD","CT",6002,41.8193466060001,-72.710309201,181,"8 FERN DRIVE, BLOOMFIELD, CT, 6002","Match","Exact","8 FERN DR, BLOOMFIELD, CT, 06002",3486192,"R"
867182,"8 FERNALD POINT RD","SOUTHWEST HARBOR","ME",4679,44.292590251,-68.32614954,182,"8 FERNALD POINT RD, SOUTHWEST HARBOR, ME, 4679","Match","Exact","8 FERNALD POINT RD, SOUTHWEST HARBOR, ME, 04679",110260264,"L"
867183,"8 FERNWOOD DRIVE","NEWTON","NH",3858,42.85438365,-71.0440537659999,183,"8 FERNWOOD DRIVE, NEWTON, NH, 3858","Match","Exact","8 FERNWOOD DR, NEWTON, NH, 03858",113691678,"L"
867184,"8 FIAT AVE","ISELIN","NJ",8830,40.5761508640001,-74.32322701,184,"8 FIAT AVE, ISELIN, NJ, 8830","Match","Exact","8 FIAT AVE, ISELIN, NJ, 08830",60273380,"R"
867185,"8 FIAT AVENUE","ISELIN","NJ",8830,40.5761508640001,-74.32322701,185,"8 FIAT AVENUE, ISELIN, NJ, 8830","Match","Exact","8 FIAT AVE, ISELIN, NJ, 08830",60273380,"R"
867186,"8 FIELDCREST RD","CHESTER","NJ",7930,40.780253734,-74.688512779,186,"8 FIELDCREST RD, CHESTER, NJ, 7930","Match","Exact","8 FIELDCREST RD, CHESTER, NJ, 07930",60467613,"R"
867187,"8 FILLMORE AVE","STATEN ISLAND","NY",10314,40.6039306430001,-74.134386792,187,"8 FILLMORE AVE, STATEN ISLAND, NY, 10314","Match","Exact","8 FILLMORE AVE, STATEN ISLAND, NY, 10314",59876320,"R"
867188,"8 FILOMENA DRIVE","PITTSFIELD","MA",1201,42.4262606020001,-73.2078791599999,188,"8 FILOMENA DRIVE, PITTSFIELD, MA, 1201","Match","Exact","8 FILOMENA DR, PITTSFIELD, MA, 01201",3937115,"R"
867189,"8 FINADY AVE","BETHLEHEM","PA",18015,40.6025220930001,-75.390031173,189,"8 FINADY AVE, BETHLEHEM, PA, 18015","Match","Exact","8 FINADY AVE, BETHLEHEM, PA, 18015",136884738,"R"
867190,"8 FIRECHASE CIRCLE","NEWARK","DE",19711,39.734905553,-75.713025392,190,"8 FIRECHASE CIRCLE, NEWARK, DE, 19711","Match","Exact","8 FIRECHASE CIR, NEWARK, DE, 19711",187277772,"L"
867191,"8 FIRENZD ROAD","JACKSON","NJ",8527,NA,NA,191,"8 FIRENZD ROAD, JACKSON, NJ, 8527","No_Match",NA,NA,NA,NA
867192,"8 FIRENZE ROAD","JACKSON","NJ",8527,40.1455671940001,-74.327626777,192,"8 FIRENZE ROAD, JACKSON, NJ, 8527","Match","Exact","8 FIRENZE RD, JACKSON, NJ, 08527",641809758,"R"
867193,"8 FIRESIDE DRIVE","BROWNSVILLE","TX",78521,25.9410173250001,-97.4961702419999,193,"8 FIRESIDE DRIVE, BROWNSVILLE, TX, 78521","Match","Exact","8 FIRESIDE DR, BROWNSVILLE, TX, 78521",89964540,"R"
867194,"8 FISHER RD","TONASKET","WA",98855,48.6515214280001,-119.470014193,194,"8 FISHER RD, TONASKET, WA, 98855","Match","Exact","8 FISHER RD, TONASKET, WA, 98855",638570665,"L"
867195,"8 FITZ TERRACE","CHELSEA","MA",2150,42.397507612,-71.028766323,195,"8 FITZ TERRACE, CHELSEA, MA, 2150","Match","Exact","8 FITZ TER, CHELSEA, MA, 02150",85707237,"L"
867196,"8 FLETCHER BLVD","SICKLERVILLE","NJ",8081,39.708075733,-74.923020933,196,"8 FLETCHER BLVD, SICKLERVILLE, NJ, 8081","Match","Exact","8 FLETCHER BLVD, SICKLERVILLE, NJ, 08081",134396076,"L"
867197,"8 FLORENCE AVE UNIT 16D","FREEPORT","NY",11520,40.6370330730001,-73.595547718,197,"8 FLORENCE AVE UNIT 16D, FREEPORT, NY, 11520","Match","Exact","8 FLORENCE AVE, FREEPORT, NY, 11520",147638378,"R"
867198,"8 FLORENCE COURT","SACRAMENTO","CA",95831,38.481607904,-121.515377381,198,"8 FLORENCE COURT, SACRAMENTO, CA, 95831","Match","Exact","8 FLORENCE CT, SACRAMENTO, CA, 95831",133391034,"R"
867199,"8 FLORENCE STREET","BROCKTON","MA",2301,42.0722542980001,-71.019131336,199,"8 FLORENCE STREET, BROCKTON, MA, 2301","Match","Exact","8 FLORENCE ST, BROCKTON, MA, 02301",87444245,"L"
867200,"8 FLORESTA","GUNNISON","CO",81230,38.5554484310001,-106.933884005,200,"8 FLORESTA, GUNNISON, CO, 81230","Match","Non_Exact","8 FLORESTA ST, GUNNISON, CO, 81230",108363567,"R"
867201,"8 FLYCATCHER WAY UNIT 102","ARDEN","NC",28704,35.452654162,-82.5384160419999,201,"8 FLYCATCHER WAY UNIT 102, ARDEN, NC, 28704","Match","Exact","8 FLYCATCHER WAY, ARDEN, NC, 28704",638881854,"L"
867202,"8 FLYER DRIVE","WINDSOR","CT",6095,NA,NA,202,"8 FLYER DRIVE, WINDSOR, CT, 6095","No_Match",NA,NA,NA,NA
867203,"8 FORDHAM HILL OVAL 1B","BRONX","NY",10468,40.8644442950001,-73.9080668079999,203,"8 FORDHAM HILL OVAL 1B, BRONX, NY, 10468","Match","Exact","8 FORDHAM HILL OVAL, BRONX, NY, 10468",640814408,"L"
867204,"8 FORDHAM OVAL SUITE 7B","BRONX","NY",10468,NA,NA,204,"8 FORDHAM OVAL SUITE 7B, BRONX, NY, 10468","No_Match",NA,NA,NA,NA
867205,"8 FOREST DRIVE","GREENWOOD LAKE","NY",10925,41.2264913270001,-74.283937297,205,"8 FOREST DRIVE, GREENWOOD LAKE, NY, 10925","Match","Exact","8 FOREST DR, GREENWOOD LAKE, NY, 10925",124410497,"L"
867206,"8 FORTUNE WAY","SUFFERN","NY",10901,41.125266783,-74.124986581,206,"8 FORTUNE WAY, SUFFERN, NY, 10901","Match","Exact","8 FORTUNE WAY, SUFFERN, NY, 10901",624313384,"R"
867207,"8 FOSTER AVE","HAMPDEN","ME",4444,44.714266304,-68.8476653,207,"8 FOSTER AVE, HAMPDEN, ME, 4444","Match","Exact","8 FOSTER AVE, HAMPDEN, ME, 04444",618285161,"R"
867208,"8 FOUNTAIN PLAZA ROAD","NEWCASTLE","WY",82701,43.8512135770001,-104.183702593,208,"8 FOUNTAIN PLAZA ROAD, NEWCASTLE, WY, 82701","Match","Exact","8 FOUNTAIN PLAZA RD, NEWCASTLE, WY, 82701",147507795,"L"
867209,"8 FOX GRAPE ROAD","HILTON HEAD ISLAND","SC",29928,32.1361603080001,-80.775473072,209,"8 FOX GRAPE ROAD, HILTON HEAD ISLAND, SC, 29928","Match","Exact","8 FOX GRAPE RD, HILTON HEAD ISLAND, SC, 29928",87630328,"R"
867210,"8 FOX GRAPE","HILTON HEAD ISLAND","SC",29928,32.1361603080001,-80.775473072,210,"8 FOX GRAPE, HILTON HEAD ISLAND, SC, 29928","Match","Non_Exact","8 FOX GRAPE RD, HILTON HEAD ISLAND, SC, 29928",87630328,"R"
867211,"8 FOX HOLLOW RUN","SHADY SHORES","TX",76208,33.1633014540001,-97.062319353,211,"8 FOX HOLLOW RUN, SHADY SHORES, TX, 76208","Match","Exact","8 FOX HOLLOW RUN, SHADY SHORES, TX, 76208",103391037,"R"
867212,"8 FOX MEADOW LANE","WINDSOR","CT",6095,41.89184556,-72.678429566,212,"8 FOX MEADOW LANE, WINDSOR, CT, 6095","Match","Exact","8 FOX MEADOW LN, WINDSOR, CT, 06095",637853055,"R"
867213,"8 FRANCINE COURT","WHITE PLAINS","NY",10607,41.0439903400001,-73.808436505,213,"8 FRANCINE COURT, WHITE PLAINS, NY, 10607","Match","Exact","8 FRANCINE CT, WHITE PLAINS, NY, 10607",139737926,"R"
867214,"8 FRANKLIN AVENUE","FLOURTOWN","PA",19031,40.1000218410001,-75.212192414,214,"8 FRANKLIN AVENUE, FLOURTOWN, PA, 19031","Match","Exact","8 FRANKLIN AVE, FLOURTOWN, PA, 19031",135106032,"R"
867215,"8 FRANKLIN DR","MAHOPAC","NY",10541,41.345382618,-73.718990537,215,"8 FRANKLIN DR, MAHOPAC, NY, 10541","Match","Exact","8 FRANKLIN DR, MAHOPAC, NY, 10541",139789322,"R"
867216,"8 FRANKLIN DRIVE","MAHOPAC","NY",10541,41.345382618,-73.718990537,216,"8 FRANKLIN DRIVE, MAHOPAC, NY, 10541","Match","Exact","8 FRANKLIN DR, MAHOPAC, NY, 10541",139789322,"R"
867217,"8 FRANKLIN ST","MT HOLLY SPRINGS","PA",17065,40.118231478,-77.1797102799999,217,"8 FRANKLIN ST, MT HOLLY SPRINGS, PA, 17065","Match","Exact","8 FRANKLIN ST, MT HOLLY SPGS, PA, 17065",221284969,"R"
867218,"8 FRANKLIN","LAWRENCEVILLE","PA",16929,41.998849417,-77.1242121069999,218,"8 FRANKLIN, LAWRENCEVILLE, PA, 16929","Match","Non_Exact","8 FRANKLIN ST, LAWRENCEVILLE, PA, 16929",189657485,"R"
867219,"8 FRAZIER COURTS 3B","TRENTON","NJ",8638,NA,NA,219,"8 FRAZIER COURTS 3B, TRENTON, NJ, 8638","No_Match",NA,NA,NA,NA
867220,"8 FRED ELLER DRIVE","MONSEY","NY",10952,41.1046151560001,-74.070106578,220,"8 FRED ELLER DRIVE, MONSEY, NY, 10952","Match","Exact","8 FRED ELLER DR, MONSEY, NY, 10952",124593848,"R"
867221,"8 FREEDOM COVE","BYRAM","MS",39272,32.1760536030001,-90.287981476,221,"8 FREEDOM COVE, BYRAM, MS, 39272","Match","Exact","8 FREEDOM COVE, BYRAM, MS, 39272",65386919,"L"
867222,"8 FREEMONT LANE","COLTS NECK","NJ",7722,40.2915538890001,-74.1961825769999,222,"8 FREEMONT LANE, COLTS NECK, NJ, 7722","Match","Exact","8 FREEMONT LN, COLTS NECK, NJ, 07722",90488563,"R"
867223,"8 FREMONT AVENUE N BOX 270","SEATTLE","WA",98103,NA,NA,223,"8 FREMONT AVENUE N BOX 270, SEATTLE, WA, 98103","No_Match",NA,NA,NA,NA
867224,"8 FRENCH AVE","AUBURN","NY",13021,42.913867366,-76.5436944259999,224,"8 FRENCH AVE, AUBURN, NY, 13021","Match","Exact","8 FRENCH AVE, AUBURN, NY, 13021",33497327,"R"
867225,"8 FULTON DRIVE","STAFFORD","VA",22554,38.467464706,-77.450412004,225,"8 FULTON DRIVE, STAFFORD, VA, 22554","Match","Exact","8 FULTON DR, STAFFORD, VA, 22554",25565461,"L"
867226,"8 FURBISH POND LANE","NORTH READING","MA",1864,42.5640484080001,-71.12837638,226,"8 FURBISH POND LANE, NORTH READING, MA, 1864","Match","Exact","8 FURBISH POND LN, NORTH READING, MA, 01864",617692930,"L"
867227,"8 FURNESS LANE","STAFFORD SPRINGS","CT",6076,41.9543812160001,-72.282129024,227,"8 FURNESS LANE, STAFFORD SPRINGS, CT, 6076","Match","Exact","8 FURNESS LN, STAFFORD SPGS, CT, 06076",57005540,"R"
867228,"8 GABLE RIDGE ROAD","WESTBOROUGH","MA",1581,42.2470979500001,-71.603943954,228,"8 GABLE RIDGE ROAD, WESTBOROUGH, MA, 1581","Match","Exact","8 GABLE RIDGE RD, WESTBOROUGH, MA, 01581",40055233,"R"
867229,"8 GARDEN LANE","ARLINGTON","TX",76016,32.695117483,-97.167527369,229,"8 GARDEN LANE, ARLINGTON, TX, 76016","Match","Exact","8 GARDEN LN, ARLINGTON, TX, 76016",630166306,"L"
867230,"8 GARRETSON DRIVE","FRANKLIN PARK","NJ",8823,40.4427970020001,-74.557278765,230,"8 GARRETSON DRIVE, FRANKLIN PARK, NJ, 8823","Match","Exact","8 GARRETSON DR, FRANKLIN PARK, NJ, 08823",59999731,"L"
867231,"8 GARRY AVENUE","EAST FALMOUTH","MA",2536,41.5697368020001,-70.5689844299999,231,"8 GARRY AVENUE, EAST FALMOUTH, MA, 2536","Match","Exact","8 GARRY AVE, EAST FALMOUTH, MA, 02536",121594400,"R"
867232,"8 GARY LANE","NORTH EASTON","MA",2356,42.0497471510001,-71.1002636869999,232,"8 GARY LANE, NORTH EASTON, MA, 2356","Match","Exact","8 GARY LN, NORTH EASTON, MA, 02356",46846298,"L"
867233,"8 GATEHOUSE RD","SEA RANCH LAKES","FL",33308,26.201674156,-80.097147934,233,"8 GATEHOUSE RD, SEA RANCH LAKES, FL, 33308","Match","Exact","8 GATEHOUSE RD, SEA RANCH LAKES, FL, 33308",114724988,"L"
867234,"8 GATES POND ROAD","BERLIN","MA",1503,42.3955790090001,-71.603199149,234,"8 GATES POND ROAD, BERLIN, MA, 1503","Match","Exact","8 GATES POND RD, BERLIN, MA, 01503",40036304,"L"
867235,"8 GEORGE ST","HAMPTON BAYS","NY",11946,40.884428272,-72.507703722,235,"8 GEORGE ST, HAMPTON BAYS, NY, 11946","Match","Exact","8 GEORGE ST, HAMPTON BAYS, NY, 11946",114027226,"L"
867236,"8 GILBERT TRAIL NE","ATLANTA","GA",30308,33.768376011,-84.3792030659999,236,"8 GILBERT TRAIL NE, ATLANTA, GA, 30308","Match","Exact","8 GILBERT TRL NE, ATLANTA, GA, 30308",17343797,"R"
867237,"8 GILLEN DRIVE","PARLIN","NJ",8859,40.462673598,-74.2881938319999,237,"8 GILLEN DRIVE, PARLIN, NJ, 8859","Match","Exact","8 GILLEN DR, PARLIN, NJ, 08859",60284422,"R"
867238,"8 GILLETTE PLACE","MURRELLS INLET","SC",29576,33.521896446,-79.0659615719999,238,"8 GILLETTE PLACE, MURRELLS INLET, SC, 29576","Match","Exact","8 GILLETTE PL, MURRELLS INLET, SC, 29576",28998716,"R"
867239,"8 GILLFORD STREET","WORCESTER","MA",1606,42.3344657590001,-71.793587539,239,"8 GILLFORD STREET, WORCESTER, MA, 1606","Match","Non_Exact","8 GUILFORD ST, WORCESTER, MA, 01606",40065169,"L"
867240,"8 GILLMORE POND ROAD","JAFFREY","NH",3452,42.810484821,-72.0296318969999,240,"8 GILLMORE POND ROAD, JAFFREY, NH, 3452","Match","Non_Exact","8 GILMORE POND RD, JAFFREY, NH, 03452",124057862,"R"
867241,"8 GILMORE POND ROAD","JAFFREY","NH",3452,42.810484821,-72.0296318969999,241,"8 GILMORE POND ROAD, JAFFREY, NH, 3452","Match","Exact","8 GILMORE POND RD, JAFFREY, NH, 03452",124057862,"R"
867242,"8 GINA MARIE LANE","ELKTON","MD",21921,39.6250750350001,-75.830816371,242,"8 GINA MARIE LANE, ELKTON, MD, 21921","Match","Exact","8 GINA MARIE LN, ELKTON, MD, 21921",626828868,"L"
867243,"8 GINGER WAY","SHARON","MA",2067,42.131689018,-71.149058145,243,"8 GINGER WAY, SHARON, MA, 2067","Match","Exact","8 GINGER WAY, SHARON, MA, 02067",87290546,"L"
867244,"8 GLADWYNE COURT","SPRING VALLEY","NY",10977,41.146293584,-74.06376825,244,"8 GLADWYNE COURT, SPRING VALLEY, NY, 10977","Match","Exact","8 GLADWYNE CT, SPRING VALLEY, NY, 10977",124592691,"L"
867245,"8 GLEN CT","NAPA","CA",94558,38.313718974,-122.31932027,245,"8 GLEN CT, NAPA, CA, 94558","Match","Exact","8 GLEN CT, NAPA, CA, 94558",67414595,"L"
867246,"8 GLEN EAGLE WAY","FAIRPORT","NY",14450,43.1225964880001,-77.42600951,246,"8 GLEN EAGLE WAY, FAIRPORT, NY, 14450","Match","Exact","8 GLEN EAGLE WAY, FAIRPORT, NY, 14450",14566312,"R"
867247,"8 GLEN EAGLES LANE","PINEHURST","NC",28374,35.229515265,-79.4394738129999,247,"8 GLEN EAGLES LANE, PINEHURST, NC, 28374","Match","Exact","8 GLEN EAGLES LN, PINEHURST, NC, 28374",20298444,"R"
867248,"8 GLEN GROVE DRIVE","SIMPSONVILLE","SC",29681,34.812034398,-82.231752611,248,"8 GLEN GROVE DRIVE, SIMPSONVILLE, SC, 29681","Match","Non_Exact","8 GLENGROVE DR, SIMPSONVILLE, SC, 29681",624809100,"L"
867249,"8 GLEN KNOLL COURT","COLUMBIA","SC",29229,34.15515486,-80.90432372,249,"8 GLEN KNOLL COURT, COLUMBIA, SC, 29229","Match","Exact","8 GLEN KNOLL CT, COLUMBIA, SC, 29229",71863993,"R"
867250,"8 GLEN OAK RD","FREDERICKSBURG","VA",22405,38.3282347300001,-77.424018748,250,"8 GLEN OAK RD, FREDERICKSBURG, VA, 22405","Match","Exact","8 GLEN OAK RD, FREDERICKSBURG, VA, 22405",615265275,"L"
867251,"8 GLEN ROAD","WINCHESTER","MA",1890,42.4471085060001,-71.149755365,251,"8 GLEN ROAD, WINCHESTER, MA, 1890","Match","Exact","8 GLEN RD, WINCHESTER, MA, 01890",86886809,"L"
867252,"8 GLENHAVEN ROAD","WEST ROXBURY","MA",2132,42.2707418780001,-71.163032293,252,"8 GLENHAVEN ROAD, WEST ROXBURY, MA, 2132","Match","Exact","8 GLENHAVEN RD, WEST ROXBURY, MA, 02132",85702682,"L"
867253,"8 GLOVERSLANE","EASTON","CT",6612,NA,NA,253,"8 GLOVERSLANE, EASTON, CT, 6612","No_Match",NA,NA,NA,NA
867254,"8 GOLDEN CIRCLE LN","SHREWSBURY","PA",17361,39.7580829280001,-76.664777666,254,"8 GOLDEN CIRCLE LN, SHREWSBURY, PA, 17361","Match","Exact","8 GOLDEN CIRCLE LN, SHREWSBURY, PA, 17361",88714165,"R"
867255,"8 GOLDEN OAKS COVE","MAUMELLE","AR",72113,34.878327368,-92.3983547129999,255,"8 GOLDEN OAKS COVE, MAUMELLE, AR, 72113","Match","Exact","8 GOLDEN OAKS COVE, MAUMELLE, AR, 72113",642519406,"R"
867256,"8 GOLDEN WILLOW AVE","LAKEWOOD","NJ",8701,40.041102514,-74.175679631,256,"8 GOLDEN WILLOW AVE, LAKEWOOD, NJ, 8701","Match","Non_Exact","8 GOLDEN WILLOWS AVE, LAKEWOOD, NJ, 08701",640451774,"R"
867257,"8 GOLDENEYE DRIVE","TOPSHAM","ME",4086,43.932783375,-69.930011726,257,"8 GOLDENEYE DRIVE, TOPSHAM, ME, 4086","Match","Exact","8 GOLDENEYE DR, TOPSHAM, ME, 04086",647510990,"R"
867258,"8 GOLDENROD AVENUE","NORTHPORT","NY",11768,40.905658288,-73.335564899,258,"8 GOLDENROD AVENUE, NORTHPORT, NY, 11768","Match","Exact","8 GOLDENROD AVE, NORTHPORT, NY, 11768",113964805,"R"
867259,"8 GOLFVIEW TER","ROTANDA WEST","FL",33947,26.8860376100001,-82.290703862,259,"8 GOLFVIEW TER, ROTANDA WEST, FL, 33947","Match","Non_Exact","8 GOLFVIEW TER, ROTONDA WEST, FL, 33947",4295622,"L"
867260,"8 GOVERNOR DOHERTY ROAD","BILLERICA","MA",1821,42.566896512,-71.234594836,260,"8 GOVERNOR DOHERTY ROAD, BILLERICA, MA, 1821","Match","Exact","8 GOV DOHERTY RD, BILLERICA, MA, 01821",87088430,"L"
867261,"8 GRACE MEWS","LONDON","FL",33445,NA,NA,261,"8 GRACE MEWS, LONDON, FL, 33445","No_Match",NA,NA,NA,NA
867262,"8 GRAF COURT","MOBILE","AL",36606,30.687911285,-88.110864063,262,"8 GRAF COURT, MOBILE, AL, 36606","Match","Exact","8 GRAF CT, MOBILE, AL, 36606",61859991,"L"
867263,"8 GRAND AVENUE","SOUTH AMBOY","NJ",8879,40.471461232,-74.27920333,263,"8 GRAND AVENUE, SOUTH AMBOY, NJ, 8879","Match","Non_Exact","8 GRAND ST, SOUTH AMBOY, NJ, 08879",60284513,"L"
867264,"8 GRANITE CIRCLE","ROSWELL","NM",88201,33.421040062,-104.534521994,264,"8 GRANITE CIRCLE, ROSWELL, NM, 88201","Match","Exact","8 GRANITE CIR, ROSWELL, NM, 88201",636539909,"R"
867265,"8 GRANITE PL UNIT 34","GAITHERSBURG","MD",20878,39.127111455,-77.238894339,265,"8 GRANITE PL UNIT 34, GAITHERSBURG, MD, 20878","Match","Exact","8 GRANITE PL, GAITHERSBURG, MD, 20878",632533053,"L"
867266,"8 GRAY LANE","WESTPORT","CT",6880,41.1258585630001,-73.300460877,266,"8 GRAY LANE, WESTPORT, CT, 6880","Match","Exact","8 GRAY LN, WESTPORT, CT, 06880",3239144,"R"
867267,"8 GRAY ROCK DR NE","ROME","GA",30165,34.293980167,-85.232744554,267,"8 GRAY ROCK DR NE, ROME, GA, 30165","Match","Non_Exact","8 GRAY ROCK DR, ROME, GA, 30165",30700950,"R"
867268,"8 GRAY ROCK DR NW","ROME","GA",30165,34.293980167,-85.232744554,268,"8 GRAY ROCK DR NW, ROME, GA, 30165","Match","Non_Exact","8 GRAY ROCK DR, ROME, GA, 30165",30700950,"R"
867269,"8 GRAYWOOD COURT","SACRAMENTO","CA",95823,38.461534027,-121.418819842,269,"8 GRAYWOOD COURT, SACRAMENTO, CA, 95823","Match","Exact","8 GRAYWOOD CT, SACRAMENTO, CA, 95823",133431216,"R"
867270,"8 GREAT QUARTER ROAD","SANDY HOOK","CT",6482,41.391975023,-73.190840118,270,"8 GREAT QUARTER ROAD, SANDY HOOK, CT, 6482","Match","Exact","8 GREAT QUARTER RD, SANDY HOOK, CT, 06482",640792697,"R"
867271,"8 GREEN BRIER COURT","NORTH EAST","MD",21901,39.607837095,-75.929239719,271,"8 GREEN BRIER COURT, NORTH EAST, MD, 21901","Match","Non_Exact","8 GREENBRIER CT, NORTH EAST, MD, 21901",606686309,"L"
867272,"8 GREEN LANE","UPTON","MA",1568,42.137965626,-71.605614627,272,"8 GREEN LANE, UPTON, MA, 1568","Match","Exact","8 GREEN LN, UPTON, MA, 01568",40073158,"L"
867273,"8 GREENBRIAR LANE","PAOLI","PA",19301,40.02670326,-75.479854212,273,"8 GREENBRIAR LANE, PAOLI, PA, 19301","Match","Exact","8 GREENBRIAR LN, PAOLI, PA, 19301",179497981,"R"
867274,"8 GREENBROOK DRIVE","COLUMBUS","NJ",8022,40.088187544,-74.6687789759999,274,"8 GREENBROOK DRIVE, COLUMBUS, NJ, 8022","Match","Exact","8 GREENBROOK DR, COLUMBUS, NJ, 08022",134084257,"R"
867275,"8 GREENLEAF","WHITMAN","MA",2382,42.080616369,-70.945261161,275,"8 GREENLEAF, WHITMAN, MA, 2382","Match","Non_Exact","8 GREENLEAF ST, WHITMAN, MA, 02382",87483534,"L"
867276,"8 GREENRIDGE","ELGIN","IL",60120,42.056097746,-88.258728304,276,"8 GREENRIDGE, ELGIN, IL, 60120","Match","Non_Exact","8 GREENRIDGE RD, ELGIN, IL, 60120",111687364,"R"
867277,"8 GREENVIEW ST","CUMBERLAND","RI",2864,41.964027908,-71.451132187,277,"8 GREENVIEW ST, CUMBERLAND, RI, 2864","Match","Exact","8 GREENVIEW ST, CUMBERLAND, RI, 02864",47482556,"L"
867278,"8 GREENWOOD LANE","ACTON","MA",1720,42.49131228,-71.432549034,278,"8 GREENWOOD LANE, ACTON, MA, 1720","Match","Exact","8 GREENWOOD LN, ACTON, MA, 01720",86842666,"R"
867279,"8 GREENWOOD LANE","WOODBURY","NY",11797,40.812640044,-73.466860448,279,"8 GREENWOOD LANE, WOODBURY, NY, 11797","Match","Exact","8 GREENWOOD LN, WOODBURY, NY, 11797",147694483,"R"
867280,"8 GREGORIOU XENOPOULOU","RAFINA, GREECE","AA",19009,NA,NA,280,"8 GREGORIOU XENOPOULOU, RAFINA, GREECE, AA, 19009","No_Match",NA,NA,NA,NA
867281,"8 GREGORY DRIVE","NEW MILFORD","CT",6776,41.6081734900001,-73.432414498,281,"8 GREGORY DRIVE, NEW MILFORD, CT, 6776","Match","Exact","8 GREGORY DR, NEW MILFORD, CT, 06776",3110142,"L"
867282,"8 GREY ROCKS COURT","GLASTONBURY","CT",6033,41.706273826,-72.530595348,282,"8 GREY ROCKS COURT, GLASTONBURY, CT, 6033","Match","Exact","8 GREY ROCKS CT, GLASTONBURY, CT, 06033",3533244,"L"
867283,"8 GREYSTONE CIRCLE","NEWTOWN SQUARE","PA",19073,39.9645613320001,-75.3981812169999,283,"8 GREYSTONE CIRCLE, NEWTOWN SQUARE, PA, 19073","Match","Exact","8 GREYSTONE CIR, NEWTOWN SQUARE, PA, 19073",625300091,"L"
867284,"8 GREYSTONE STATION","ST. PETERS","MO",63376,38.7675098880001,-90.562977969,284,"8 GREYSTONE STATION, ST. PETERS, MO, 63376","Match","Exact","8 GREYSTONE STA, SAINT PETERS, MO, 63376",635620541,"R"
867285,"8 GRIFTON PL","DURHAM","NC",27704,36.0514762760001,-78.884547368,285,"8 GRIFTON PL, DURHAM, NC, 27704","Match","Exact","8 GRIFTON PL, DURHAM, NC, 27704",618114439,"R"
867286,"8 GRINNEL DRIVE","CAMP HILL","PA",17011,40.2268036630001,-76.898781674,286,"8 GRINNEL DRIVE, CAMP HILL, PA, 17011","Match","Exact","8 GRINNEL DR, CAMP HILL, PA, 17011",60951825,"L"
867287,"8 GROSBEAK ROAD","YONKERS","NY",NA,40.9469463720001,-73.8593365139999,287,"8 GROSBEAK ROAD, YONKERS, NY, ","Match","Exact","8 GROSBEAK RD, YONKERS, NY, 10701",139744717,"L"
867288,"8 GROVE AVE","GREENWOOD LAKE","NY",10925,41.2184098320001,-74.2943168159999,288,"8 GROVE AVE, GREENWOOD LAKE, NY, 10925","Match","Exact","8 GROVE AVE, GREENWOOD LAKE, NY, 10925",623879573,"R"
867289,"8 GROVE STREET","BERKLEY","MA",2779,41.8293310930001,-71.0263578729999,289,"8 GROVE STREET, BERKLEY, MA, 2779","Match","Exact","8 GROVE ST, BERKLEY, MA, 02779",46801588,"R"
867290,"8 GROVELAND ROAD","GENESEO","NY",14454,42.791677823,-77.807167766,290,"8 GROVELAND ROAD, GENESEO, NY, 14454","Match","Exact","8 GROVELAND RD, GENESEO, NY, 14454",616096086,"L"
867291,"8 GULF HILL DRIVE","SOUTH DARTMOUTH","MA",2748,41.5845036170001,-70.9727735339999,291,"8 GULF HILL DRIVE, SOUTH DARTMOUTH, MA, 2748","Match","Exact","8 GULF HILL DR, SOUTH DARTMOUTH, MA, 02748",46794704,"L"
867292,"8 GUNN ROAD","MONTAGUE","MA",1351,42.516275276,-72.531144995,292,"8 GUNN ROAD, MONTAGUE, MA, 1351","Match","Exact","8 GUNN RD, MONTAGUE, MA, 01351",39918994,"L"
867293,"8 GUNNISON","IRVINE","CA",92612,33.6589433350001,-117.818748106,293,"8 GUNNISON, IRVINE, CA, 92612","Match","Exact","8 GUNNISON, IRVINE, CA, 92612",624286951,"L"
867294,"8 GUNTHERS VIEW","TOWACO","NJ",7082,NA,NA,294,"8 GUNTHERS VIEW, TOWACO, NJ, 7082","No_Match",NA,NA,NA,NA
867295,"8 GUYER RD","WESTPORT","CT",6880,41.1288567290001,-73.348401511,295,"8 GUYER RD, WESTPORT, CT, 6880","Match","Exact","8 GUYER RD, WESTPORT, CT, 06880",3238599,"R"
867296,"8 HACHBERRY DRIVE","QUINTER","KS",67752,NA,NA,296,"8 HACHBERRY DRIVE, QUINTER, KS, 67752","No_Match",NA,NA,NA,NA
867297,"8 HADLEY PLACE","HADLEY","MA",1035,42.350147995,-72.589438575,297,"8 HADLEY PLACE, HADLEY, MA, 1035","Match","Exact","8 HADLEY PL, HADLEY, MA, 01035",39858134,"L"
867298,"8 HALFMOON RD","BEACON","NY",12508,41.527438266,-73.9750399919999,298,"8 HALFMOON RD, BEACON, NY, 12508","Match","Non_Exact","8 HALF MOON RD, BEACON, NY, 12508",642832393,"L"
867299,"8 HALSEY LANE","CLOSTER","NJ",7624,40.9696984180001,-73.947147515,299,"8 HALSEY LANE, CLOSTER, NJ, 7624","Match","Exact","8 HALSEY LN, CLOSTER, NJ, 07624",64371323,"L"
867300,"8 HALSEY ST","LAWRENCE","MA",1843,42.68788755,-71.147967153,300,"8 HALSEY ST, LAWRENCE, MA, 1843","Match","Exact","8 HALSEY ST, LAWRENCE, MA, 01843",86629203,"L"
867301,"8 HALSEY STREET","LAWRENCE","MA",1843,42.68788755,-71.147967153,301,"8 HALSEY STREET, LAWRENCE, MA, 1843","Match","Exact","8 HALSEY ST, LAWRENCE, MA, 01843",86629203,"L"
867302,"8 HALSEY","LAWRENCE","MA",1843,42.68788755,-71.147967153,302,"8 HALSEY, LAWRENCE, MA, 1843","Match","Non_Exact","8 HALSEY ST, LAWRENCE, MA, 01843",86629203,"L"
867303,"8 HAMEL CIRCLE","LITCHFIELD","NH",3052,42.8355382500001,-71.459732131,303,"8 HAMEL CIRCLE, LITCHFIELD, NH, 3052","Match","Exact","8 HAMEL CIR, LITCHFIELD, NH, 03052",648223158,"L"
867304,"8 HAMELACHA ST","RAMAT HASHARON, IS",NA,NA,NA,NA,304,"8 HAMELACHA ST, RAMAT HASHARON, IS, , ","No_Match",NA,NA,NA,NA
867305,"8 HAMILTON RD","BROOKLINE","MA",2446,42.350194383,-71.125757193,305,"8 HAMILTON RD, BROOKLINE, MA, 2446","Match","Exact","8 HAMILTON RD, BROOKLINE, MA, 02446",87244349,"L"
867306,"8 HAMILTON ROAD","WELLESLEY","MA",2482,42.3118953640001,-71.3173280469999,306,"8 HAMILTON ROAD, WELLESLEY, MA, 2482","Match","Exact","8 HAMILTON RD, WELLESLEY, MA, 02482",87236373,"L"
867307,"8 HAMPSHIRE CT","BOLINGBROOK","IL",60440,41.7162095040001,-88.0589444459999,307,"8 HAMPSHIRE CT, BOLINGBROOK, IL, 60440","Match","Exact","8 HAMPSHIRE CT, BOLINGBROOK, IL, 60440",111543953,"R"
867308,"8 HAMPSHIRE DRIVE","LONDONDERRY","NH",3053,42.8546878240001,-71.381978149,308,"8 HAMPSHIRE DRIVE, LONDONDERRY, NH, 3053","Match","Non_Exact","8 HAMPSHIRE LN, LONDONDERRY, NH, 03053",113668288,"R"
867309,"8 HAMPTON CIRCLE","HULL","MA",2045,42.270603785,-70.864211312,309,"8 HAMPTON CIRCLE, HULL, MA, 2045","Match","Exact","8 HAMPTON CIR, HULL, MA, 02045",87429999,"R"
867310,"8 HAMPTON ROAD","HOWELL","NJ",7731,40.159849036,-74.215140708,310,"8 HAMPTON ROAD, HOWELL, NJ, 7731","Match","Exact","8 HAMPTON RD, HOWELL, NJ, 07731",90450655,"L"
867311,"8 HANN TERRACE","WASHINGTON","NJ",7882,40.756807268,-74.980985591,311,"8 HANN TERRACE, WASHINGTON, NJ, 7882","Match","Exact","8 HANN TER, WASHINGTON, NJ, 07882",98106084,"R"
867312,"8 HANOVER AVENUE","WHIPPANY","NJ",7981,40.805753607,-74.4477663499999,312,"8 HANOVER AVENUE, WHIPPANY, NJ, 7981","Match","Exact","8 HANOVER AVE, WHIPPANY, NJ, 07981",60443873,"L"
867313,"8 HANOVER DR","MEDFORD","NJ",8055,39.839572382,-74.779583525,313,"8 HANOVER DR, MEDFORD, NJ, 8055","Match","Exact","8 HANOVER DR, MEDFORD, NJ, 08055",134067143,"R"
867314,"8 HARBORVIEW AVENUE","EAST HAMPTON","NY",11937,40.993436049,-72.182116584,314,"8 HARBORVIEW AVENUE, EAST HAMPTON, NY, 11937","Match","Non_Exact","8 HARBOR VIEW AVE, EAST HAMPTON, NY, 11937",642833008,"R"
867315,"8 HARDY WATER DR","LAWRENCEVILLE","GA",30045,33.9768902010001,-83.934966047,315,"8 HARDY WATER DR, LAWRENCEVILLE, GA, 30045","Match","Exact","8 HARDY WATER DR, LAWRENCEVILLE, GA, 30045",646849957,"R"
867316,"8 HARMONY ROAD","DALLAS PLANTATION","ME",4970,44.971577279,-70.583396948,316,"8 HARMONY ROAD, DALLAS PLANTATION, ME, 4970","Match","Exact","8 HARMONY RD, DALLAS PLT, ME, 04970",634878268,"L"
867317,"8 HARMONY ROAD","DALLAS PLT","ME",4970,44.971577279,-70.583396948,317,"8 HARMONY ROAD, DALLAS PLT, ME, 4970","Match","Exact","8 HARMONY RD, DALLAS PLT, ME, 04970",634878268,"L"
867318,"8 HARMONY ROAD","DALLAS PLT.","ME",4970,44.971577279,-70.583396948,318,"8 HARMONY ROAD, DALLAS PLT., ME, 4970","Match","Exact","8 HARMONY RD, DALLAS PLT, ME, 04970",634878268,"L"
867319,"8 HARMONY STREET","DANBURY","CT",6810,41.3923718080001,-73.457182667,319,"8 HARMONY STREET, DANBURY, CT, 6810","Match","Exact","8 HARMONY ST, DANBURY, CT, 06810",3231818,"L"
867320,"8 HAROLD PLAZA","MONROE","NJ",8831,40.3629315520001,-74.43578331,320,"8 HAROLD PLAZA, MONROE, NJ, 8831","Match","Exact","8 HAROLD PLZ, MONROE, NJ, 08831",60300531,"L"
867321,"8 HARRINGTON ST APT 2","REVERE","MA",2151,42.4066572250001,-71.010720561,321,"8 HARRINGTON ST APT 2, REVERE, MA, 2151","Match","Exact","8 HARRINGTON ST, REVERE, MA, 02151",85707924,"L"
867322,"8 HARRISON AVE","BROOKLYN","NY",11211,40.706756811,-73.954519751,322,"8 HARRISON AVE, BROOKLYN, NY, 11211","Match","Exact","8 HARRISON AVE, BROOKLYN, NY, 11211",59076767,"R"
867323,"8 HARRISON AVE","RENSSELAER","NY",NA,42.647220207,-73.7387593289999,323,"8 HARRISON AVE, RENSSELAER, NY, ","Match","Exact","8 HARRISON AVE, RENSSELAER, NY, 12144",35727818,"R"
867324,"8 HARRISON AVENUE","BROOKLYN","NY",11211,40.706756811,-73.954519751,324,"8 HARRISON AVENUE, BROOKLYN, NY, 11211","Match","Exact","8 HARRISON AVE, BROOKLYN, NY, 11211",59076767,"R"
867325,"8 HARTLEY COURT","MILFORD","NJ",8848,40.611694711,-75.0163383839999,325,"8 HARTLEY COURT, MILFORD, NJ, 8848","Match","Exact","8 HARTLEY CT, MILFORD, NJ, 08848",60026646,"R"
867326,"8 HARTLEY FARMS RD","MORRISTOWN","NJ",7960,40.757155003,-74.4604947829999,326,"8 HARTLEY FARMS RD, MORRISTOWN, NJ, 7960","Match","Exact","8 HARTLEY FARMS RD, MORRISTOWN, NJ, 07960",634423871,"R"
867327,"8 HARTS HILL CIRCLE","WHITEBORO","NY",13492,43.103327849,-75.307461492,327,"8 HARTS HILL CIRCLE, WHITEBORO, NY, 13492","Match","Non_Exact","8 HARTS HILL CIR, WHITESBORO, NY, 13492",171527378,"R"
867328,"8 HARTS HILL CIRCLE","WHITESBORO","NY",13492,43.103327849,-75.307461492,328,"8 HARTS HILL CIRCLE, WHITESBORO, NY, 13492","Match","Exact","8 HARTS HILL CIR, WHITESBORO, NY, 13492",171527378,"R"
867329,"8 HARTWELL DRIVE","SIMPSONVILLE","SC",29681,34.7595524160001,-82.255795822,329,"8 HARTWELL DRIVE, SIMPSONVILLE, SC, 29681","Match","Exact","8 HARTWELL DR, SIMPSONVILLE, SC, 29681",38380983,"R"
867330,"8 HARVEST TRAIL","NEWARK","DE",19702,39.6287370800001,-75.7525617329999,330,"8 HARVEST TRAIL, NEWARK, DE, 19702","Match","Exact","8 HARVEST TRL, NEWARK, DE, 19702",187290209,"R"
867331,"8 HARVEY COURT","CLARK","NJ",7066,40.611190288,-74.329135864,331,"8 HARVEY COURT, CLARK, NJ, 7066","Match","Exact","8 HARVEY CT, CLARK, NJ, 07066",651342971,"R"
867332,"8 HARVEY COURT","SUMMIT","NJ",7901,40.721198658,-74.3872320679999,332,"8 HARVEY COURT, SUMMIT, NJ, 7901","Match","Exact","8 HARVEY CT, SUMMIT, NJ, 07901",60564797,"L"
867333,"8 HATCHER COURT","AMITYVILLE","NY",11701,40.693512163,-73.422648884,333,"8 HATCHER COURT, AMITYVILLE, NY, 11701","Match","Exact","8 HATCHER CT, AMITYVILLE, NY, 11701",113970834,"R"
867334,"8 HAVEN AVENUE SUITE 221","PORT WASHINGTON","NY",11050,40.8300443460001,-73.6882096579999,334,"8 HAVEN AVENUE SUITE 221, PORT WASHINGTON, NY, 11050","Match","Exact","8 HAVEN AVE, PORT WASHINGTON, NY, 11050",147659289,"R"
867335,"8 HAWK RIDGE CT","CHAPIN","SC",29036,34.1353997580001,-81.266674387,335,"8 HAWK RIDGE CT, CHAPIN, SC, 29036","Match","Non_Exact","8 HAWKS RIDGE CT, CHAPIN, SC, 29036",624382976,"R"
867336,"8 HAWTHORN AVE","WESTFIELD","MA",1085,NA,NA,336,"8 HAWTHORN AVE, WESTFIELD, MA, 1085","No_Match",NA,NA,NA,NA
867337,"8 HAWTHORN WAY","WETHERSFIELD","CT",6109,41.6834692900001,-72.696132956,337,"8 HAWTHORN WAY, WETHERSFIELD, CT, 6109","Match","Exact","8 HAWTHORN WAY, WETHERSFIELD, CT, 06109",627717480,"R"
867338,"8 HAWTHORNE AVE","WESTFIELD","MA",1085,42.1219211850001,-72.771950373,338,"8 HAWTHORNE AVE, WESTFIELD, MA, 1085","Match","Exact","8 HAWTHORNE AVE, WESTFIELD, MA, 01085",4030424,"L"
867339,"8 HAZEL ROAD","BERKELEY","CA",94705,37.856386151,-122.246285409,339,"8 HAZEL ROAD, BERKELEY, CA, 94705","Match","Exact","8 HAZEL RD, BERKELEY, CA, 94705",606340917,"R"
867340,"8 HAZEN PLACE","FORT EDWARD","NY",12828,43.263176781,-73.6364139949999,340,"8 HAZEN PLACE, FORT EDWARD, NY, 12828","Match","Exact","8 HAZEN PL, FORT EDWARD, NY, 12828",18782277,"R"
867341,"8 HEARTHSTONE DR","SOUTH WINDSOR","CT",6074,41.8513658790001,-72.5338321949999,341,"8 HEARTHSTONE DR, SOUTH WINDSOR, CT, 6074","Match","Non_Exact","8 HEARTHSTONE LN, SOUTH WINDSOR, CT, 06074",628527915,"R"
867342,"8 HEATHER LANE","CANTON","MA",2021,42.1695388260001,-71.148835902,342,"8 HEATHER LANE, CANTON, MA, 2021","Match","Exact","8 HEATHER LN, CANTON, MA, 02021",87278755,"L"
867343,"8 HEATHERFIELD WAY","DOVER","DE",19904,39.159170772,-75.5666852959999,343,"8 HEATHERFIELD WAY, DOVER, DE, 19904","Match","Exact","8 HEATHERFIELD WAY, DOVER, DE, 19904",68101318,"L"
867344,"8 HEATHERWOOD COURT","MEDFORD","NJ",8055,39.8555841990001,-74.833479234,344,"8 HEATHERWOOD COURT, MEDFORD, NJ, 8055","Match","Exact","8 HEATHERWOOD CT, MEDFORD, NJ, 08055",134038882,"R"
867345,"8 HEATHERWOOD DRIVE","LAUREL","MS",39440,31.7380977350001,-89.1334536369999,345,"8 HEATHERWOOD DRIVE, LAUREL, MS, 39440","Match","Exact","8 HEATHERWOOD DR, LAUREL, MS, 39440",411619,"L"
867346,"8 HEATHERWOOD LN","PUEBLO","CO",81008,38.316902649,-104.628577239,346,"8 HEATHERWOOD LN, PUEBLO, CO, 81008","Match","Exact","8 HEATHERWOOD LN, PUEBLO, CO, 81008",105023268,"R"
867347,"8 HEATHROW MANOR COURT","NOTTINGHAM","MD",21236,39.3882815280001,-76.481402894,347,"8 HEATHROW MANOR COURT, NOTTINGHAM, MD, 21236","Match","Exact","8 HEATHROW MANOR CT, NOTTINGHAM, MD, 21236",191479682,"L"
867348,"8 HELEN AVE","PEDRICKTOWN","NJ",8067,39.766439387,-75.416512387,348,"8 HELEN AVE, PEDRICKTOWN, NJ, 8067","Match","Exact","8 HELEN AVE, PEDRICKTOWN, NJ, 08067",174415065,"R"
867349,"8 HELEN AVENUE","WEST ORANGE","NJ",7052,40.764371985,-74.2593977939999,349,"8 HELEN AVENUE, WEST ORANGE, NJ, 7052","Match","Exact","8 HELEN AVE, WEST ORANGE, NJ, 07052",63460904,"L"
867350,"8 HELIOS CIRCLE","EMIGRANT","MT",59027,45.363185967,-110.763975437,350,"8 HELIOS CIRCLE, EMIGRANT, MT, 59027","Match","Exact","8 HELIOS CIR, EMIGRANT, MT, 59027",637624018,"R"
867351,"8 HELLER DR","BRIDGEWATER","NJ",8807,40.5859722060001,-74.6079698889999,351,"8 HELLER DR, BRIDGEWATER, NJ, 8807","Match","Exact","8 HELLER DR, BRIDGEWATER, NJ, 08807",60001328,"R"
867352,"8 HENDERSON DR","NAPLES","FL",34114,26.051296886,-81.688754468,352,"8 HENDERSON DR, NAPLES, FL, 34114","Match","Exact","8 HENDERSON DR, NAPLES, FL, 34114",115135550,"L"
867353,"8 HERITAGE COURT","JACKSON","MS",39211,32.392146397,-90.118761053,353,"8 HERITAGE COURT, JACKSON, MS, 39211","Match","Exact","8 HERITAGE CT, JACKSON, MS, 39211",65361207,"L"
867354,"8 HERITAGE DRIVE","SPARTA","NJ",7871,41.0133657220001,-74.6303170049999,354,"8 HERITAGE DRIVE, SPARTA, NJ, 7871","Match","Exact","8 HERITAGE DR, SPARTA, NJ, 07871",98014579,"L"
867355,"8 HERON LANE","HOPEDALE","MA",1747,42.120284756,-71.523445163,355,"8 HERON LANE, HOPEDALE, MA, 1747","Match","Exact","8 HERON LN, HOPEDALE, MA, 01747",642604209,"R"
867356,"8 HEYDEN ROAD","SHOKAN","NY",12481,41.9937338670001,-74.210212546,356,"8 HEYDEN ROAD, SHOKAN, NY, 12481","Match","Exact","8 HEYDEN RD, SHOKAN, NY, 12481",41925946,"R"
867357,"8 HIAWATHA TRAIL","HOLLISTON","MA",1746,42.235243129,-71.42198522,357,"8 HIAWATHA TRAIL, HOLLISTON, MA, 1746","Match","Exact","8 HIAWATHA TRL, HOLLISTON, MA, 01746",646588352,"L"
867358,"8 HICKORY CREEK CT","ARDEN","NC",28704,35.4730596970001,-82.49360224,358,"8 HICKORY CREEK CT, ARDEN, NC, 28704","Match","Exact","8 HICKORY CREEK CT, ARDEN, NC, 28704",36874969,"L"
867359,"8 HICKORY LANE","NORTHBROOK","IL",60062,42.1295316360001,-87.8091926929999,359,"8 HICKORY LANE, NORTHBROOK, IL, 60062","Match","Exact","8 HICKORY LN, NORTHBROOK, IL, 60062",111839853,"L"
867360,"8 HICKORY ROAD","DENVILLE","NJ",7834,40.871465383,-74.498297205,360,"8 HICKORY ROAD, DENVILLE, NJ, 7834","Match","Exact","8 HICKORY RD, DENVILLE, NJ, 07834",60439581,"R"
867361,"8 HIDDEN COVE CIR","VALPARAISO","FL",32580,30.504747437,-86.500754611,361,"8 HIDDEN COVE CIR, VALPARAISO, FL, 32580","Match","Exact","8 HIDDEN COVE CIR, VALPARAISO, FL, 32580",74438508,"R"
867362,"8 HIDDEN CREST COURT","CLIFTON PARK","NY",12065,42.8326022480001,-73.8211243819999,362,"8 HIDDEN CREST COURT, CLIFTON PARK, NY, 12065","Match","Exact","8 HIDDEN CREST CT, CLIFTON PARK, NY, 12065",18808345,"L"
867363,"8 HIDDEN LAGOON COURT","SAVANNAH","GA",31419,32.0424940560001,-81.248550505,363,"8 HIDDEN LAGOON COURT, SAVANNAH, GA, 31419","Match","Exact","8 HIDDEN LAGOON CT, SAVANNAH, GA, 31419",627397450,"R"
867364,"8 HIDDEN LANE","KENNEBUNK","ME",4043,43.387640989,-70.55291306,364,"8 HIDDEN LANE, KENNEBUNK, ME, 4043","Match","Exact","8 HIDDEN LN, KENNEBUNK, ME, 04043",92741395,"L"
867365,"8 HIDEN CHASE","DECATUR","GA",30087,NA,NA,365,"8 HIDEN CHASE, DECATUR, GA, 30087","No_Match",NA,NA,NA,NA
867366,"8 HIGH FARMS RD","WESTTOWN","NY",10998,41.3438330160001,-74.554971855,366,"8 HIGH FARMS RD, WESTTOWN, NY, 10998","Match","Non_Exact","8 HIGH FARMS, WESTTOWN, NY, 10998",124396260,"L"
867367,"8 HIGH POINT DR","POUGHKEEPSIE","NY",12603,41.6451401630001,-73.8235137729999,367,"8 HIGH POINT DR, POUGHKEEPSIE, NY, 12603","Match","Exact","8 HIGH POINT DR, POUGHKEEPSIE, NY, 12603",4170744,"R"
867368,"8 HIGH STREET","CHESTER","VT",5143,43.258985609,-72.5966490769999,368,"8 HIGH STREET, CHESTER, VT, 5143","Match","Exact","8 HIGH ST, CHESTER, VT, 05143",139274347,"R"
867369,"8 HIGH STREET","STOW","MA",1775,42.399775321,-71.5273672129999,369,"8 HIGH STREET, STOW, MA, 1775","Match","Exact","8 HIGH ST, STOW, MA, 01775",86900679,"L"
867370,"8 HIGHCROFT CT","NISKAYUNA","NY",12309,42.754821491,-73.8423088929999,370,"8 HIGHCROFT CT, NISKAYUNA, NY, 12309","Match","Exact","8 HIGHCROFT CT, NISKAYUNA, NY, 12309",650270580,"L"
867371,"8 HIGHLAND PARK AVE","BOSTON","MA",2119,42.3268793300001,-71.095677086,371,"8 HIGHLAND PARK AVE, BOSTON, MA, 2119","Match","Exact","8 HIGHLAND PARK AVE, BOSTON, MA, 02119",85724405,"R"
867372,"8 HIGHLAND PARK AVENUE","ROXBURY","MA",2119,42.3268793300001,-71.095677086,372,"8 HIGHLAND PARK AVENUE, ROXBURY, MA, 2119","Match","Exact","8 HIGHLAND PARK AVE, ROXBURY, MA, 02119",85724405,"R"
867373,"8 HIGHLAND PLACE APT 2L","MAPLEWOOD","NJ",7040,40.731127972,-74.278549974,373,"8 HIGHLAND PLACE APT 2L, MAPLEWOOD, NJ, 7040","Match","Exact","8 HIGHLAND PL, MAPLEWOOD, NJ, 07040",63462189,"L"
867374,"8 HIGHLAND STREET","FOXBORO","MA",2035,42.0781484880001,-71.231917778,374,"8 HIGHLAND STREET, FOXBORO, MA, 2035","Match","Exact","8 HIGHLAND ST, FOXBORO, MA, 02035",87262655,"L"
867375,"8 HIGHLAND TERRACE","RINGGOLD","GA",30736,34.9760757350001,-85.185712143,375,"8 HIGHLAND TERRACE, RINGGOLD, GA, 30736","Match","Exact","8 HIGHLAND TER, RINGGOLD, GA, 30736",637337272,"L"
867376,"8 HIGHLANDVIEW AVE","WINCHESTER","MA",1890,42.4666982690001,-71.1359001869999,376,"8 HIGHLANDVIEW AVE, WINCHESTER, MA, 1890","Match","Non_Exact","8 HIGHLAND VIEW AVE, WINCHESTER, MA, 01890",86887159,"L"
867377,"8 HIGHPOINT CIR 209","QUINCY","MA",2169,42.2485233020001,-71.020796277,377,"8 HIGHPOINT CIR 209, QUINCY, MA, 2169","Match","Exact","8 HIGHPOINT CIR, QUINCY, MA, 02169",616416515,"L"
867378,"8 HIGHRIDGE ROAD","SPRING VALLEY","NY",10977,41.1503810580001,-74.041720133,378,"8 HIGHRIDGE ROAD, SPRING VALLEY, NY, 10977","Match","Exact","8 HIGHRIDGE RD, SPRING VALLEY, NY, 10977",124614202,"R"
867379,"8 HILL DALE ROAD","PLYMOUTH","MA",2360,41.946752331,-70.641287408,379,"8 HILL DALE ROAD, PLYMOUTH, MA, 2360","Match","Exact","8 HILL DALE RD, PLYMOUTH, MA, 02360",87439568,"L"
867380,"8 HILL TOP COURT","LAKEWOOD","NJ",8701,40.097836822,-74.25422922,380,"8 HILL TOP COURT, LAKEWOOD, NJ, 8701","Match","Exact","8 HILL TOP CT, LAKEWOOD, NJ, 08701",648546258,"R"
867381,"8 HILLBROOK LANE","MILFORD","NJ",8848,40.606347032,-75.1193173199999,381,"8 HILLBROOK LANE, MILFORD, NJ, 8848","Match","Exact","8 HILLBROOK LN, MILFORD, NJ, 08848",60014679,"L"
867382,"8 HILLINGTON COURT","CHADDS FORD","PA",19317,NA,NA,382,"8 HILLINGTON COURT, CHADDS FORD, PA, 19317","No_Match",NA,NA,NA,NA
867383,"8 HILLS LANDING","TROY","NY",12180,42.713113064,-73.6555301879999,383,"8 HILLS LANDING, TROY, NY, 12180","Match","Exact","8 HILLS LNDG, TROY, NY, 12180",35737046,"L"
867384,"8 HILLSDALE ROAD","RANDOLPH","MA",2368,42.1478997140001,-71.0372997809999,384,"8 HILLSDALE ROAD, RANDOLPH, MA, 2368","Match","Exact","8 HILLSDALE RD, RANDOLPH, MA, 02368",87268419,"R"
867385,"8 HILLSIDE AVE NO 208","SALT LAKE CITY","UT",84103,NA,NA,385,"8 HILLSIDE AVE NO 208, SALT LAKE CITY, UT, 84103","No_Match",NA,NA,NA,NA
867386,"8 HILLSIDE DR","DENNIS","MA",2638,NA,NA,386,"8 HILLSIDE DR, DENNIS, MA, 2638","No_Match",NA,NA,NA,NA
867387,"8 HILLSIDE ROAD UNIT D","GREENBELT","MD",20770,39.007277742,-76.875309024,387,"8 HILLSIDE ROAD UNIT D, GREENBELT, MD, 20770","Match","Exact","8 HILLSIDE RD, GREENBELT, MD, 20770",76326821,"R"
867388,"8 HILLSIDE ROAD","STRATFORD","NJ",8084,39.8249450330001,-75.0258132009999,388,"8 HILLSIDE ROAD, STRATFORD, NJ, 8084","Match","Exact","8 HILLSIDE RD, STRATFORD, NJ, 08084",134419376,"R"
867389,"8 HILLTOP LN","BRENTWOOD","NH",3833,42.9659242600001,-71.081463017,389,"8 HILLTOP LN, BRENTWOOD, NH, 3833","Match","Exact","8 HILLTOP LN, BRENTWOOD, NH, 03833",624937261,"L"
867390,"8 HILLTOP ROAD","NEWTON","NJ",7860,41.023906792,-74.753709825,390,"8 HILLTOP ROAD, NEWTON, NJ, 7860","Match","Exact","8 HILLTOP RD, NEWTON, NJ, 07860",97999475,"R"
867391,"8 HILLTOP","IRVINE","CA",92603,33.6400128330001,-117.809980319,391,"8 HILLTOP, IRVINE, CA, 92603","Match","Exact","8 HILLTOP, IRVINE, CA, 92603",144060260,"R"
867392,"8 HITCHING POST DRIVE","WALPOLE","MA",2081,42.12501795,-71.271588578,392,"8 HITCHING POST DRIVE, WALPOLE, MA, 2081","Match","Exact","8 HITCHING POST DR, WALPOLE, MA, 02081",87282651,"L"
867393,"8 HOFFMAN PL","WHITESBORO","NY",13492,43.133514699,-75.300594404,393,"8 HOFFMAN PL, WHITESBORO, NY, 13492","Match","Exact","8 HOFFMAN PL, WHITESBORO, NY, 13492",171526531,"R"
867394,"8 HOGGARDS RIDGE","LITTLE ROCK","AR",72211,34.738276173,-92.427274778,394,"8 HOGGARDS RIDGE, LITTLE ROCK, AR, 72211","Match","Exact","8 HOGGARDS RIDGE, LITTLE ROCK, AR, 72211",641822001,"L"
867395,"8 HOLIDAY POINT ROAD","SHERMAN","CT",6784,41.578193921,-73.4902377879999,395,"8 HOLIDAY POINT ROAD, SHERMAN, CT, 6784","Match","Exact","8 HOLIDAY POINT RD, SHERMAN, CT, 06784",635575051,"R"
867396,"8 HOLLERS ST","LONGVIEW","TX",75601,32.5142334990001,-94.699634369,396,"8 HOLLERS ST, LONGVIEW, TX, 75601","Match","Exact","8 HOLLERS ST, LONGVIEW, TX, 75601",141177940,"L"
867397,"8 HOLLOWAY","LAKE ST LOUIS","MO",63367,38.7967743610001,-90.759538124,397,"8 HOLLOWAY, LAKE ST LOUIS, MO, 63367","Match","Non_Exact","8 HOLLOWAY DR, LAKE SAINT LOUIS, MO, 63367",100033778,"L"
867398,"8 HOLLYCHASE","RICHWOOD","TX",77531,29.07212537,-95.415370315,398,"8 HOLLYCHASE, RICHWOOD, TX, 77531","Match","Non_Exact","8 HOLLYCHASE ST, RICHWOOD, TX, 77531",116579613,"L"
867399,"8 HOLST STREET","TREYNOR","IA",51575,41.2315294650001,-95.612019622,399,"8 HOLST STREET, TREYNOR, IA, 51575","Match","Exact","8 HOLST ST, TREYNOR, IA, 51575",43905821,"R"
867400,"8 HOMESTEAD DRIVE","WHEATLEY HEIGHTS","NY",11798,40.7580334990001,-73.382669133,400,"8 HOMESTEAD DRIVE, WHEATLEY HEIGHTS, NY, 11798","Match","Exact","8 HOMESTEAD DR, WHEATLEY HEIGHTS, NY, 11798",113967936,"R"
867401,"8 HOMESTEAD RD","WINTHROP","WA",98862,48.5604982510001,-120.343547773,401,"8 HOMESTEAD RD, WINTHROP, WA, 98862","Match","Exact","8 HOMESTEAD RD, WINTHROP, WA, 98862",157357898,"R"
867402,"8 HOMESTEAD ROAD","KINGSTON 2 JAMAICA",NA,NA,NA,NA,402,"8 HOMESTEAD ROAD, KINGSTON 2 JAMAICA, , ","No_Match",NA,NA,NA,NA
867403,"8 HOMESTEAD STREET","ALBANY","NY",12203,42.67556849,-73.823688257,403,"8 HOMESTEAD STREET, ALBANY, NY, 12203","Match","Exact","8 HOMESTEAD ST, ALBANY, NY, 12203",18307333,"R"
867404,"8 HONE STREET","KINGSTON","NY",12401,41.9166979510001,-73.9873242319999,404,"8 HONE STREET, KINGSTON, NY, 12401","Match","Exact","8 HONE ST, KINGSTON, NY, 12401",41879887,"L"
867405,"8 HOPEWELL AVE","LUMBERTON","NJ",8048,39.941075964,-74.7920667019999,405,"8 HOPEWELL AVE, LUMBERTON, NJ, 8048","Match","Exact","8 HOPEWELL AVE, LUMBERTON, NJ, 08048",134055219,"R"
867406,"8 HOPEWELL FARM ROAD","NATICK","MA",1760,42.259366637,-71.34753359,406,"8 HOPEWELL FARM ROAD, NATICK, MA, 1760","Match","Exact","8 HOPEWELL FARM RD, NATICK, MA, 01760",87120211,"L"
867407,"8 HOPKINS STREET","JAMAICA PLAIN","MA",2130,42.309188971,-71.133169672,407,"8 HOPKINS STREET, JAMAICA PLAIN, MA, 2130","Match","Non_Exact","8 HOPKINS RD, JAMAICA PLAIN, MA, 02130",85741879,"L"
867408,"8 HORSE PEN ROAD","NEWPORT NEWS","VA",23602,37.086848493,-76.536742147,408,"8 HORSE PEN ROAD, NEWPORT NEWS, VA, 23602","Match","Exact","8 HORSE PEN RD, NEWPORT NEWS, VA, 23602",103818076,"R"
867409,"8 HORSEHOE CIRCLE W","CANNONSBURG","PA",15317,NA,NA,409,"8 HORSEHOE CIRCLE W, CANNONSBURG, PA, 15317","No_Match",NA,NA,NA,NA
867410,"8 HOWARD AVE","VALLEJO","CA",94590,38.1213681610001,-122.232906059,410,"8 HOWARD AVE, VALLEJO, CA, 94590","Match","Exact","8 HOWARD AVE, VALLEJO, CA, 94590",192527815,"R"
867411,"8 HOWARD DR","MONSEY","NY",10952,NA,NA,411,"8 HOWARD DR, MONSEY, NY, 10952","No_Match",NA,NA,NA,NA
867412,"8 HOWARD STREET","WEST LAWN","PA",19609,40.326235765,-76.0030934659999,412,"8 HOWARD STREET, WEST LAWN, PA, 19609","Match","Exact","8 HOWARD ST, WEST LAWN, PA, 19609",80372110,"R"
867413,"8 HOYT DRIVE","ROMNEY","WV",26757,NA,NA,413,"8 HOYT DRIVE, ROMNEY, WV, 26757","No_Match",NA,NA,NA,NA
867414,"8 HUGHES PLACE 2W","NEW HAVEN","CT",6511,41.305836915,-72.9178948969999,414,"8 HUGHES PLACE 2W, NEW HAVEN, CT, 6511","Match","Exact","8 HUGHES PL, NEW HAVEN, CT, 06511",3701475,"L"
867415,"8 HUNE COURT","NOVATO","CA",94954,38.1105070770001,-122.602505426,415,"8 HUNE COURT, NOVATO, CA, 94954","Match","Non_Exact","8 HUNE CT, NOVATO, CA, 94947",192786719,"R"
867416,"8 HUNTERS RUN","SUDBURY","MA",1776,42.4027671790001,-71.419673089,416,"8 HUNTERS RUN, SUDBURY, MA, 1776","Match","Exact","8 HUNTERS RUN, SUDBURY, MA, 01776",86931044,"L"
867417,"8 HUNTING HOLLOW DR","PEPPERPIKE","OH",44124,41.4748254780001,-81.449725571,417,"8 HUNTING HOLLOW DR, PEPPERPIKE, OH, 44124","Match","Non_Exact","8 HUNTING HOLLOW DR, PEPPER PIKE, OH, 44124",61135162,"L"
867418,"8 HUNTS POINT ROAD","CAPE ELIZABETH","ME",4107,43.57347141,-70.2041914559999,418,"8 HUNTS POINT ROAD, CAPE ELIZABETH, ME, 4107","Match","Exact","8 HUNTS POINT RD, CAPE ELIZABETH, ME, 04107",78034210,"L"
867419,"8 HYMAN CT","BROOKLYN","NY",11229,40.5862485480001,-73.922792022,419,"8 HYMAN CT, BROOKLYN, NY, 11229","Match","Exact","8 HYMAN CT, BROOKLYN, NY, 11229",59093256,"R"
867420,"8 IDLEWOOD DR","GREENVILLE","SC",29609,34.876668775,-82.383059469,420,"8 IDLEWOOD DR, GREENVILLE, SC, 29609","Match","Exact","8 IDLEWOOD DR, GREENVILLE, SC, 29609",38299147,"R"
867421,"8 INDIAN CLUB ROAD","FORT SALONGA","NY",11768,40.9068922550001,-73.3077996709999,421,"8 INDIAN CLUB ROAD, FORT SALONGA, NY, 11768","Match","Exact","8 INDIAN CLUB RD, FORT SALONGA, NY, 11768",114275368,"L"
867422,"8 INDIAN SPRING LN","HIGH BRIDGE","NJ",8829,NA,NA,422,"8 INDIAN SPRING LN, HIGH BRIDGE, NJ, 8829","Tie",NA,NA,NA,NA
867423,"8 INSKEEP COURT","TABERNACLE","NJ",8088,39.82981198,-74.74578632,423,"8 INSKEEP COURT, TABERNACLE, NJ, 8088","Match","Exact","8 INSKEEP CT, TABERNACLE, NJ, 08088",643092769,"R"
867424,"8 INTERSTATE ST","SUFFERN","NY",10901,41.106923066,-74.143648645,424,"8 INTERSTATE ST, SUFFERN, NY, 10901","Match","Exact","8 INTERSTATE ST, SUFFERN, NY, 10901",124618987,"R"
867425,"8 INVERNESS COURT","WADING RIVER","NY",11792,40.9273309390001,-72.832044377,425,"8 INVERNESS COURT, WADING RIVER, NY, 11792","Match","Exact","8 INVERNESS CT, WADING RIVER, NY, 11792",624812355,"R"
867426,"8 IRA COURT","BROOKLYN","NY",11229,40.59026914,-73.928153084,426,"8 IRA COURT, BROOKLYN, NY, 11229","Match","Exact","8 IRA CT, BROOKLYN, NY, 11229",59093044,"R"
867427,"8 IREDALE STREET","BRIDGTON","ME",4009,44.055130767,-70.702191566,427,"8 IREDALE STREET, BRIDGTON, ME, 4009","Match","Exact","8 IREDALE ST, BRIDGTON, ME, 04009",78017849,"R"
867428,"8 IRON HORSE RD","LITTLE ROCK","AR",72223,34.757176873,-92.478602479,428,"8 IRON HORSE RD, LITTLE ROCK, AR, 72223","Match","Exact","8 IRON HORSE RD, LITTLE ROCK, AR, 72223",83565204,"R"
867429,"8 IRONSTONE DRIVE","CARLISLE","PA",17015,40.198321191,-77.1065299589999,429,"8 IRONSTONE DRIVE, CARLISLE, PA, 17015","Match","Exact","8 IRONSTONE DR, CARLISLE, PA, 17015",647859265,"L"
867430,"8 ISLAND GREEN COURT","KINGWOOD","TX",77339,30.031407389,-95.182025559,430,"8 ISLAND GREEN COURT, KINGWOOD, TX, 77339","Match","Exact","8 ISLAND GREEN CT, KINGWOOD, TX, 77339",96428302,"L"
867431,"8 ISLANDER WAY","POQUOSON","VA",23662,37.1323233000001,-76.386402,431,"8 ISLANDER WAY, POQUOSON, VA, 23662","Match","Exact","8 ISLANDER WAY, POQUOSON, VA, 23662",617115066,"R"
867432,"8 IVA COURT","BROOKLYN","NY",11229,NA,NA,432,"8 IVA COURT, BROOKLYN, NY, 11229","No_Match",NA,NA,NA,NA
867433,"8 IVY CIRCLE","CLINTON","IL",61727,40.1420298830001,-88.96873902,433,"8 IVY CIRCLE, CLINTON, IL, 61727","Match","Exact","8 IVY CIR, CLINTON, IL, 61727",20509202,"R"
867434,"8 IVY COURT","KENNEBUNK","ME",4043,43.397660296,-70.539140655,434,"8 IVY COURT, KENNEBUNK, ME, 4043","Match","Exact","8 IVY CT, KENNEBUNK, ME, 04043",92741353,"L"
867435,"8 IVY LANE","ANDOVER","MA",1810,42.6276410580001,-71.1177215669999,435,"8 IVY LANE, ANDOVER, MA, 1810","Match","Exact","8 IVY LN, ANDOVER, MA, 01810",86650691,"R"
867436,"8 IVYBERRY COURT","MONTGOMERY VILLAGE","MD",20886,39.1817512710001,-77.179054295,436,"8 IVYBERRY COURT, MONTGOMERY VILLAGE, MD, 20886","Match","Exact","8 IVYBERRY CT, MONTGOMERY VILLAGE, MD, 20886",62092529,"R"
867437,"8 JACKSON AVENUE","PEABODY","MA",1960,42.5541324370001,-71.016476903,437,"8 JACKSON AVENUE, PEABODY, MA, 1960","Match","Exact","8 JACKSON AVE, PEABODY, MA, 01960",86655405,"L"
867438,"8 JACKSON STREET","WILSON","AR",72395,35.571130827,-90.0427673409999,438,"8 JACKSON STREET, WILSON, AR, 72395","Match","Exact","8 JACKSON ST, WILSON, AR, 72395",47228747,"L"
867439,"8 JADE LANE","HEREFORD","PA",18056,40.4537946740001,-75.545140846,439,"8 JADE LANE, HEREFORD, PA, 18056","Match","Exact","8 JADE LN, HEREFORD, PA, 18056",624260633,"R"
867440,"8 JAN COURT","MONTVALE","NJ",7645,41.0548779440001,-74.031630803,440,"8 JAN COURT, MONTVALE, NJ, 7645","Match","Exact","8 JAN CT, MONTVALE, NJ, 07645",64368334,"R"
867441,"8 JANET DR","PLAINVIEW","NY",11803,40.769612771,-73.496484285,441,"8 JANET DR, PLAINVIEW, NY, 11803","Match","Exact","8 JANET DR, PLAINVIEW, NY, 11803",147690000,"L"
867442,"8 JANICE CIR","NATCHEZ","MS",39120,31.541630911,-91.366696352,442,"8 JANICE CIR, NATCHEZ, MS, 39120","Match","Exact","8 JANICE CIR, NATCHEZ, MS, 39120",79847581,"L"
867443,"8 JASMINE CT","SAVANNAH","GA",31406,32.0138746910001,-81.067881311,443,"8 JASMINE CT, SAVANNAH, GA, 31406","Match","Exact","8 JASMINE CT, SAVANNAH, GA, 31406",6185762,"R"
867444,"8 JASMINE WAY","SWELL","NJ",8080,39.7892704380001,-75.0946952589999,444,"8 JASMINE WAY, SWELL, NJ, 8080","Match","Non_Exact","8 JASMINE WAY, SEWELL, NJ, 08080",634436627,"R"
867445,"8 JASON DRIVE","LONDONDERRY","NH",3053,42.8448338490001,-71.412938238,445,"8 JASON DRIVE, LONDONDERRY, NH, 3053","Match","Exact","8 JASON DR, LONDONDERRY, NH, 03053",113685964,"L"
867446,"8 JEAN COURT","MALVERNE","NY",11565,40.672085699,-73.673876491,446,"8 JEAN COURT, MALVERNE, NY, 11565","Match","Exact","8 JEAN CT, MALVERNE, NY, 11565",147674804,"R"
867447,"8 JEFFERS ROAD","PLAINSBORO","NC",8536,NA,NA,447,"8 JEFFERS ROAD, PLAINSBORO, NC, 8536","No_Match",NA,NA,NA,NA
867448,"8 JENNIFER LANE","STAFFORD","CT",6076,41.9437962470001,-72.323619138,448,"8 JENNIFER LANE, STAFFORD, CT, 6076","Match","Non_Exact","8 JENNIFER LN, STAFFORD SPGS, CT, 06076",57006893,"R"
867449,"8 JEPSEN COURT","W. NEWTON","MA",2465,42.352604532,-71.227384227,449,"8 JEPSEN COURT, W. NEWTON, MA, 2465","Match","Exact","8 JEPSEN CT, WEST NEWTON, MA, 02465",86862583,"R"
867450,"8 JERBEN DRIVE","STONY POINT","NY",10980,41.216459656,-73.988992492,450,"8 JERBEN DRIVE, STONY POINT, NY, 10980","Match","Exact","8 JERBEN DR, STONY POINT, NY, 10980",124628516,"L"
867451,"8 JERDENS LANE","ROCKPORT","MA",1966,42.653924836,-70.607650502,451,"8 JERDENS LANE, ROCKPORT, MA, 1966","Match","Exact","8 JERDENS LN, ROCKPORT, MA, 01966",86679243,"R"
867452,"8 JESSICA DR","HOWELL","NJ",7731,40.12389527,-74.142374968,452,"8 JESSICA DR, HOWELL, NJ, 7731","Match","Exact","8 JESSICA DR, HOWELL, NJ, 07731",90481644,"L"
867453,"8 JETLAND PLACE","BRIDGEPORT","CT",6604,NA,NA,453,"8 JETLAND PLACE, BRIDGEPORT, CT, 6604","No_Match",NA,NA,NA,NA
867454,"8 JO MERLYN DR","TAYLOR","PA",18517,41.3943380580001,-75.7098845739999,454,"8 JO MERLYN DR, TAYLOR, PA, 18517","Match","Non_Exact","8 JOMERLYN DR, TAYLOR, PA, 18517",139345764,"R"
867455,"8 JOAN AVENUE","NOVATO","CA",94947,38.0997852990001,-122.570688924,455,"8 JOAN AVENUE, NOVATO, CA, 94947","Match","Exact","8 JOAN AVE, NOVATO, CA, 94947",192757815,"R"
867456,"8 JOANN DRIVE","METROPOLIS","IL",62960,37.1705969650001,-88.740013674,456,"8 JOANN DRIVE, METROPOLIS, IL, 62960","Match","Exact","8 JOANN DR, METROPOLIS, IL, 62960",5904103,"R"
867457,"8 JOHN SMITH DRIVE","WEST HARTFORD","CT",6107,41.7360407830001,-72.756933706,457,"8 JOHN SMITH DRIVE, WEST HARTFORD, CT, 6107","Match","Exact","8 JOHN SMITH DR, WEST HARTFORD, CT, 06107",3513200,"L"
867458,"8 JOHN STREET","DEMAREST","NJ",7627,40.9537221140001,-73.9603928499999,458,"8 JOHN STREET, DEMAREST, NJ, 7627","Match","Exact","8 JOHN ST, DEMAREST, NJ, 07627",64425591,"R"
867459,"8 JOHNSON AVE","PORT JERVIS","NY",12771,41.3813115780001,-74.6845036129999,459,"8 JOHNSON AVE, PORT JERVIS, NY, 12771","Match","Exact","8 JOHNSON AVE, PORT JERVIS, NY, 12771",124385063,"L"
867460,"8 JOHNSON AVENUE","PORT JERVIS","NY",12771,41.3813115780001,-74.6845036129999,460,"8 JOHNSON AVENUE, PORT JERVIS, NY, 12771","Match","Exact","8 JOHNSON AVE, PORT JERVIS, NY, 12771",124385063,"L"
867461,"8 JOHNSON HILL ROAD","POLAND","ME",4274,44.035441829,-70.439306588,461,"8 JOHNSON HILL ROAD, POLAND, ME, 4274","Match","Exact","8 JOHNSON HILL RD, POLAND, ME, 04274",77967092,"L"
867462,"8 JOHNSON RD","BINGHAMTON","NY",13901,42.143927558,-75.904068906,462,"8 JOHNSON RD, BINGHAMTON, NY, 13901","Match","Non_Exact","8 JOHNSON RD, BINGHAMTON, NY, 13905",46341714,"R"
867463,"8 JOHNSON ROAD","SHARON","MA",2067,42.115612696,-71.1417006299999,463,"8 JOHNSON ROAD, SHARON, MA, 2067","Match","Exact","8 JOHNSON RD, SHARON, MA, 02067",87263223,"R"
867464,"8 JOSEPHINE RD","MEDFORD","MA",2155,42.4346897360001,-71.142795264,464,"8 JOSEPHINE RD, MEDFORD, MA, 2155","Match","Exact","8 JOSEPHINE RD, MEDFORD, MA, 02155",86887973,"L"
867465,"8 JOSEPHINE ROAD","MEDFORD","MA",2155,42.4346897360001,-71.142795264,465,"8 JOSEPHINE ROAD, MEDFORD, MA, 2155","Match","Exact","8 JOSEPHINE RD, MEDFORD, MA, 02155",86887973,"L"
867466,"8 JOSHUA CIRCLE","ELMORE","AL",36025,32.5269055860001,-86.358800958,466,"8 JOSHUA CIRCLE, ELMORE, AL, 36025","Match","Exact","8 JOSHUA CIR, ELMORE, AL, 36025",627297789,"R"
867467,"8 JOY ST","SEBAGO","ME",4029,43.8437607810001,-70.626785992,467,"8 JOY ST, SEBAGO, ME, 4029","Match","Exact","8 JOY ST, SEBAGO, ME, 04029",78012698,"L"
867468,"8 JOYCE LANE","WAYNE","NJ",7470,40.952415692,-74.241128257,468,"8 JOYCE LANE, WAYNE, NJ, 7470","Match","Exact","8 JOYCE LN, WAYNE, NJ, 07470",639002511,"R"
867469,"8 JUDITH RD","HUDSON","MA",1749,42.3739715820001,-71.574127789,469,"8 JUDITH RD, HUDSON, MA, 1749","Match","Exact","8 JUDITH RD, HUDSON, MA, 01749",614926056,"L"
867470,"8 JULIADA DR","LEBANON","PA",17042,40.3090657810001,-76.33240416,470,"8 JULIADA DR, LEBANON, PA, 17042","Match","Exact","8 JULIADA DR, LEBANON, PA, 17042",80678959,"L"
867471,"8 JUNE DRIVE","SPRING BROOK TWP","PA",18444,41.325522834,-75.5674683249999,471,"8 JUNE DRIVE, SPRING BROOK TWP, PA, 18444","Match","Exact","8 JUNE DR, SPRING BROOK TOWNSHIP, PA, 18444",606749377,"R"
867472,"8 JUNIPER STREET","CHELMSFORD","MA",1824,42.6120241020001,-71.335376362,472,"8 JUNIPER STREET, CHELMSFORD, MA, 1824","Match","Exact","8 JUNIPER ST, CHELMSFORD, MA, 01824",86893689,"L"
867473,"8 JUNO STREET","SALISBURY","MA",1950,NA,NA,473,"8 JUNO STREET, SALISBURY, MA, 1950","No_Match",NA,NA,NA,NA
867474,"8 JUSTAMERE LN","NORTH BABYLON","NY",11703,40.726080429,-73.333117234,474,"8 JUSTAMERE LN, NORTH BABYLON, NY, 11703","Match","Exact","8 JUSTAMERE LN, NORTH BABYLON, NY, 11703",642833290,"R"
867475,"8 KELLEY RD","FALMOUTH","ME",4105,43.6993056540001,-70.241325209,475,"8 KELLEY RD, FALMOUTH, ME, 4105","Match","Exact","8 KELLEY RD, FALMOUTH, ME, 04105",78032055,"L"
867476,"8 KELLIE COURT","CALIFON","NJ",7830,40.722268123,-74.842304097,476,"8 KELLIE COURT, CALIFON, NJ, 7830","Match","Exact","8 KELLIE CT, CALIFON, NJ, 07830",60023314,"R"
867477,"8 KELLY LANE","WEST BUXTON","ME",4093,43.610322286,-70.502927609,477,"8 KELLY LANE, WEST BUXTON, ME, 4093","Match","Non_Exact","8 KELLY LN, BUXTON, ME, 04093",92756147,"L"
867478,"8 KELMAR AVENUE","MALVERN","PA",19355,40.0508299040001,-75.568470502,478,"8 KELMAR AVENUE, MALVERN, PA, 19355","Match","Exact","8 KELMAR AVE, MALVERN, PA, 19355",179505587,"R"
867479,"8 KENDAL CT","CRANSTON","RI",2921,NA,NA,479,"8 KENDAL CT, CRANSTON, RI, 2921","No_Match",NA,NA,NA,NA
867480,"8 KENNEDY ROAD","MORRIS PLAINS","NJ",7950,40.8198569420001,-74.4812722679999,480,"8 KENNEDY ROAD, MORRIS PLAINS, NJ, 7950","Match","Non_Exact","8 KENNEDY AVE, MORRIS PLAINS, NJ, 07950",60442501,"L"
867481,"8 KENNETH AVENUE","BROCKTON","MA",2302,42.0700395600001,-71.004895753,481,"8 KENNETH AVENUE, BROCKTON, MA, 2302","Match","Exact","8 KENNETH AVE, BROCKTON, MA, 02302",87444944,"L"
867482,"8 KENSIGNTON ROAD","ARLINGTON","MA",2476,NA,NA,482,"8 KENSIGNTON ROAD, ARLINGTON, MA, 2476","No_Match",NA,NA,NA,NA
867483,"8 KENSINGTON CIR","NORTHAMPTON","PA",18067,40.715200619,-75.4817804309999,483,"8 KENSINGTON CIR, NORTHAMPTON, PA, 18067","Match","Exact","8 KENSINGTON CIR, NORTHAMPTON, PA, 18067",136889480,"R"
867484,"8 KENSINGTON PLACE","GLENDIVE","MT",59330,47.117013376,-104.69049625,484,"8 KENSINGTON PLACE, GLENDIVE, MT, 59330","Match","Exact","8 KENSINGTON PL, GLENDIVE, MT, 59330",161615411,"R"
867485,"8 KENSWICK CMNS","NEW ALBANY","OH",43054,NA,NA,485,"8 KENSWICK CMNS, NEW ALBANY, OH, 43054","No_Match",NA,NA,NA,NA
867486,"8 KENT STREET","GRANITE FALLS","NC",28630,35.7949489380001,-81.42059904,486,"8 KENT STREET, GRANITE FALLS, NC, 28630","Match","Exact","8 KENT ST, GRANITE FALLS, NC, 28630",45848290,"L"
867487,"8 KENWAY STREET","CAMBRIDGE","MA",2138,42.3758318210001,-71.131639365,487,"8 KENWAY STREET, CAMBRIDGE, MA, 2138","Match","Exact","8 KENWAY ST, CAMBRIDGE, MA, 02138",86892364,"L"
867488,"8 KENWOOD","DANVILLE","IL",61832,NA,NA,488,"8 KENWOOD, DANVILLE, IL, 61832","No_Match",NA,NA,NA,NA
867489,"8 KESTREL CT","WASHINGTON","NJ",7882,40.7377284230001,-74.972808909,489,"8 KESTREL CT, WASHINGTON, NJ, 7882","Match","Exact","8 KESTREL CT, WASHINGTON, NJ, 07882",642965645,"L"
867490,"8 KICKAPOO PLACE","CHARLESTON","IL",61920,39.4459494610001,-88.164312364,490,"8 KICKAPOO PLACE, CHARLESTON, IL, 61920","Match","Exact","8 KICKAPOO PL, CHARLESTON, IL, 61920",5450685,"R"
867491,"8 KILBURN COURT APT 2","NEWPORT","RI",2840,41.492949982,-71.3102405669999,491,"8 KILBURN COURT APT 2, NEWPORT, RI, 2840","Match","Exact","8 KILBURN CT, NEWPORT, RI, 02840",47349124,"L"
867492,"8 KILLARNEY CIRCLE","BLUFFTON","SC",29910,32.2963983540001,-80.893771832,492,"8 KILLARNEY CIRCLE, BLUFFTON, SC, 29910","Match","Non_Exact","8 KILLARNEY CIR, BLUFFTON, SC, 29909",87647017,"R"
867493,"8 KIMBALL COURT APT 910","BURLINGTON","MA",1803,NA,NA,493,"8 KIMBALL COURT APT 910, BURLINGTON, MA, 1803","No_Match",NA,NA,NA,NA
867494,"8 KIMBALL CT APT 812","BURLINGTON","MA",1803,NA,NA,494,"8 KIMBALL CT APT 812, BURLINGTON, MA, 1803","No_Match",NA,NA,NA,NA
867495,"8 KIMBERLY DRIVE","MIDDLETOWN","DE",19709,39.457729354,-75.7135508,495,"8 KIMBERLY DRIVE, MIDDLETOWN, DE, 19709","Match","Non_Exact","8 KIMBERLY CT, MIDDLETOWN, DE, 19709",187304756,"R"
867496,"8 KIMBERLY DRIVE","WHITMAN","MA",2382,42.084701984,-70.97209236,496,"8 KIMBERLY DRIVE, WHITMAN, MA, 2382","Match","Exact","8 KIMBERLY DR, WHITMAN, MA, 02382",87445418,"L"
867497,"8 KIMBLE BEACH RD","CAPE MAY","NJ",8210,39.0996751820001,-74.877451723,497,"8 KIMBLE BEACH RD, CAPE MAY, NJ, 8210","Match","Non_Exact","8 KIMBLES BEACH RD, CAPE MAY CH, NJ, 08210",174351219,"R"
867498,"8 KING STREET","TOMS RIVER","NJ",8753,39.9606302020001,-74.194880691,498,"8 KING STREET, TOMS RIVER, NJ, 8753","Match","Exact","8 KING ST, TOMS RIVER, NJ, 08753",203726939,"R"
867499,"8 KINGS MILL","SAN ANTOIO","TX",78257,29.644789309,-98.609917589,499,"8 KINGS MILL, SAN ANTOIO, TX, 78257","Match","Non_Exact","8 KINGS MILL, SAN ANTONIO, TX, 78257",101577858,"R"
867500,"8 KINGS MILL","SAN ANTONIO","TX",78257,29.644789309,-98.609917589,500,"8 KINGS MILL, SAN ANTONIO, TX, 78257","Match","Exact","8 KINGS MILL, SAN ANTONIO, TX, 78257",101577858,"R"
