"ID","Address","City","State","Zip","lat","long","id","input_address","match_indicator","match_type","matched_address","tiger_line_id","tiger_side"
981001,"PO BOX 26636","BENBROOK","TX",76126,NA,NA,1,"PO BOX 26636, BENBROOK, TX, 76126","No_Match",NA,NA,NA,NA
981002,"PO BOX 26641","LITTLE ROCK","AR",72221,NA,NA,2,"PO BOX 26641, LITTLE ROCK, AR, 72221","No_Match",NA,NA,NA,NA
981003,"PO BOX 2665","KAMUELA","HI",96743,NA,NA,3,"PO BOX 2665, KAMUELA, HI, 96743","No_Match",NA,NA,NA,NA
981004,"PO BOX 26651","ROCHESTER","NY",14626,NA,NA,4,"PO BOX 26651, ROCHESTER, NY, 14626","No_Match",NA,NA,NA,NA
981005,"PO BOX 266531","WESTON","FL",33326,NA,NA,5,"PO BOX 266531, WESTON, FL, 33326","No_Match",NA,NA,NA,NA
981006,"PO BOX 2666","APPLETON","WI",54912,NA,NA,6,"PO BOX 2666, APPLETON, WI, 54912","No_Match",NA,NA,NA,NA
981007,"PO BOX 2666","LITTLE ROCK","AR",72203,NA,NA,7,"PO BOX 2666, LITTLE ROCK, AR, 72203","No_Match",NA,NA,NA,NA
981008,"PO BOX 2667","DUXBURY","MA",2331,NA,NA,8,"PO BOX 2667, DUXBURY, MA, 2331","No_Match",NA,NA,NA,NA
981009,"PO BOX 2667","LOS LUNAS","NM",87031,NA,NA,9,"PO BOX 2667, LOS LUNAS, NM, 87031","No_Match",NA,NA,NA,NA
981010,"PO BOX 2668","RENTON","WA",98056,NA,NA,10,"PO BOX 2668, RENTON, WA, 98056","No_Match",NA,NA,NA,NA
981011,"PO BOX 2668","RENTON","WA",98059,NA,NA,11,"PO BOX 2668, RENTON, WA, 98059","No_Match",NA,NA,NA,NA
981012,"PO BOX 2668","SAG HARBOR","NY",11963,NA,NA,12,"PO BOX 2668, SAG HARBOR, NY, 11963","No_Match",NA,NA,NA,NA
981013,"PO BOX 266844","HOUSOTN","TX",77207,NA,NA,13,"PO BOX 266844, HOUSOTN, TX, 77207","No_Match",NA,NA,NA,NA
981014,"PO BOX 266844","HOUSTON","TX",77207,NA,NA,14,"PO BOX 266844, HOUSTON, TX, 77207","No_Match",NA,NA,NA,NA
981015,"PO BOX 2669","LA JOLLA","CA",92038,NA,NA,15,"PO BOX 2669, LA JOLLA, CA, 92038","No_Match",NA,NA,NA,NA
981016,"PO BOX 26691","RALEIGH","NC",27611,NA,NA,16,"PO BOX 26691, RALEIGH, NC, 27611","No_Match",NA,NA,NA,NA
981017,"PO BOX 267","ARLINGTON","OR",97812,NA,NA,17,"PO BOX 267, ARLINGTON, OR, 97812","No_Match",NA,NA,NA,NA
981018,"PO BOX 267","COLUMBUS","TX",78934,NA,NA,18,"PO BOX 267, COLUMBUS, TX, 78934","No_Match",NA,NA,NA,NA
981019,"PO BOX 267","CONDON","OR",97823,NA,NA,19,"PO BOX 267, CONDON, OR, 97823","No_Match",NA,NA,NA,NA
981020,"PO BOX 267","EL PRADO","NM",87529,NA,NA,20,"PO BOX 267, EL PRADO, NM, 87529","No_Match",NA,NA,NA,NA
981021,"PO BOX 267","ELLSWORTH","PA",15331,NA,NA,21,"PO BOX 267, ELLSWORTH, PA, 15331","No_Match",NA,NA,NA,NA
981022,"PO BOX 267","LISBON","MD",21765,NA,NA,22,"PO BOX 267, LISBON, MD, 21765","No_Match",NA,NA,NA,NA
981023,"PO BOX 267","MCCORMICK","SC",29835,NA,NA,23,"PO BOX 267, MCCORMICK, SC, 29835","No_Match",NA,NA,NA,NA
981024,"PO BOX 267","MOUNTAIN HOME","TX",78058,NA,NA,24,"PO BOX 267, MOUNTAIN HOME, TX, 78058","No_Match",NA,NA,NA,NA
981025,"PO BOX 267","NEWPORT","WA",99156,NA,NA,25,"PO BOX 267, NEWPORT, WA, 99156","No_Match",NA,NA,NA,NA
981026,"PO BOX 267","PUT-IN-BAY","OH",43456,NA,NA,26,"PO BOX 267, PUT-IN-BAY, OH, 43456","No_Match",NA,NA,NA,NA
981027,"PO BOX 267","RANBURNE","AL",36273,NA,NA,27,"PO BOX 267, RANBURNE, AL, 36273","No_Match",NA,NA,NA,NA
981028,"PO BOX 267","WAVERLY","MN",55390,NA,NA,28,"PO BOX 267, WAVERLY, MN, 55390","No_Match",NA,NA,NA,NA
981029,"PO BOX 267","WELLSTON","OH",45692,NA,NA,29,"PO BOX 267, WELLSTON, OH, 45692","No_Match",NA,NA,NA,NA
981030,"PO BOX 26702","INDIANAPOLIS","IN",46226,NA,NA,30,"PO BOX 26702, INDIANAPOLIS, IN, 46226","No_Match",NA,NA,NA,NA
981031,"PO BOX 26705","TEMPE","AZ",85285,NA,NA,31,"PO BOX 26705, TEMPE, AZ, 85285","No_Match",NA,NA,NA,NA
981032,"PO BOX 26707","JACKSONVILLE","FL",32226,NA,NA,32,"PO BOX 26707, JACKSONVILLE, FL, 32226","No_Match",NA,NA,NA,NA
981033,"PO BOX 2671","BLUE RIDGE","GA",30513,NA,NA,33,"PO BOX 2671, BLUE RIDGE, GA, 30513","No_Match",NA,NA,NA,NA
981034,"PO BOX 2671","CRESTED BUTTE","CO",81224,NA,NA,34,"PO BOX 2671, CRESTED BUTTE, CO, 81224","No_Match",NA,NA,NA,NA
981035,"PO BOX 2671","GRANITE BAY","CA",95746,NA,NA,35,"PO BOX 2671, GRANITE BAY, CA, 95746","No_Match",NA,NA,NA,NA
981036,"PO BOX 26715","LITTLE ROCK","AR",72221,NA,NA,36,"PO BOX 26715, LITTLE ROCK, AR, 72221","No_Match",NA,NA,NA,NA
981037,"PO BOX 2672","HOUSTON","TX",77252,NA,NA,37,"PO BOX 2672, HOUSTON, TX, 77252","No_Match",NA,NA,NA,NA
981038,"PO BOX 2673","BROKEN ARROW","OK",74013,NA,NA,38,"PO BOX 2673, BROKEN ARROW, OK, 74013","No_Match",NA,NA,NA,NA
981039,"PO BOX 2673","EVERETT","WA",98213,NA,NA,39,"PO BOX 2673, EVERETT, WA, 98213","No_Match",NA,NA,NA,NA
981040,"PO BOX 2673","WHITEHOUSE","OH",43571,NA,NA,40,"PO BOX 2673, WHITEHOUSE, OH, 43571","No_Match",NA,NA,NA,NA
981041,"PO BOX 26732","LOS ANGELES","CA",90026,NA,NA,41,"PO BOX 26732, LOS ANGELES, CA, 90026","No_Match",NA,NA,NA,NA
981042,"PO BOX 267392","WESTON","FL",33326,NA,NA,42,"PO BOX 267392, WESTON, FL, 33326","No_Match",NA,NA,NA,NA
981043,"PO BOX 2674","WEST COVINA","CA",91793,NA,NA,43,"PO BOX 2674, WEST COVINA, CA, 91793","No_Match",NA,NA,NA,NA
981044,"PO BOX 2675","ARLINGTON","VA",22202,NA,NA,44,"PO BOX 2675, ARLINGTON, VA, 22202","No_Match",NA,NA,NA,NA
981045,"PO BOX 2675","BIG BEAR CITY","CA",92314,NA,NA,45,"PO BOX 2675, BIG BEAR CITY, CA, 92314","No_Match",NA,NA,NA,NA
981046,"PO BOX 2675","GEORGETOWN","SC",29442,NA,NA,46,"PO BOX 2675, GEORGETOWN, SC, 29442","No_Match",NA,NA,NA,NA
981047,"PO BOX 2675","ISSAQUAH","WA",98027,NA,NA,47,"PO BOX 2675, ISSAQUAH, WA, 98027","No_Match",NA,NA,NA,NA
981048,"PO BOX 2675","KENAI","AK",99611,NA,NA,48,"PO BOX 2675, KENAI, AK, 99611","No_Match",NA,NA,NA,NA
981049,"PO BOX 267506","WESTON","FL",33326,NA,NA,49,"PO BOX 267506, WESTON, FL, 33326","No_Match",NA,NA,NA,NA
981050,"PO BOX 2676","DESOTO","TX",75123,NA,NA,50,"PO BOX 2676, DESOTO, TX, 75123","No_Match",NA,NA,NA,NA
981051,"PO BOX 2676","DESOTO","TX",75213,NA,NA,51,"PO BOX 2676, DESOTO, TX, 75213","No_Match",NA,NA,NA,NA
981052,"PO BOX 26774","MACON","GA",31221,NA,NA,52,"PO BOX 26774, MACON, GA, 31221","No_Match",NA,NA,NA,NA
981053,"PO BOX 2679","HUNTINGTON STATION","NY",11746,NA,NA,53,"PO BOX 2679, HUNTINGTON STATION, NY, 11746","No_Match",NA,NA,NA,NA
981054,"PO BOX 2679","KINGS BEACH","CA",96143,NA,NA,54,"PO BOX 2679, KINGS BEACH, CA, 96143","No_Match",NA,NA,NA,NA
981055,"PO BOX 2679","SANTA ROSA","CA",95405,NA,NA,55,"PO BOX 2679, SANTA ROSA, CA, 95405","No_Match",NA,NA,NA,NA
981056,"PO BOX 268","BARNARD","VT",5031,NA,NA,56,"PO BOX 268, BARNARD, VT, 5031","No_Match",NA,NA,NA,NA
981057,"PO BOX 268","CANTON","GA",30114,NA,NA,57,"PO BOX 268, CANTON, GA, 30114","No_Match",NA,NA,NA,NA
981058,"PO BOX 268","CAVE SPRING","GA",30124,NA,NA,58,"PO BOX 268, CAVE SPRING, GA, 30124","No_Match",NA,NA,NA,NA
981059,"PO BOX 268","DELTAVILLE","VA",23043,NA,NA,59,"PO BOX 268, DELTAVILLE, VA, 23043","No_Match",NA,NA,NA,NA
981060,"PO BOX 268","GLOVERSVILLE","NY",12078,NA,NA,60,"PO BOX 268, GLOVERSVILLE, NY, 12078","No_Match",NA,NA,NA,NA
981061,"PO BOX 268","GUSTAVUS","AK",99826,NA,NA,61,"PO BOX 268, GUSTAVUS, AK, 99826","No_Match",NA,NA,NA,NA
981062,"PO BOX 268","LAFAYETTE","OR",97127,NA,NA,62,"PO BOX 268, LAFAYETTE, OR, 97127","No_Match",NA,NA,NA,NA
981063,"PO BOX 268","LITTLE FALLS","NJ",7424,NA,NA,63,"PO BOX 268, LITTLE FALLS, NJ, 7424","No_Match",NA,NA,NA,NA
981064,"PO BOX 268","MALTA","MT",59538,NA,NA,64,"PO BOX 268, MALTA, MT, 59538","No_Match",NA,NA,NA,NA
981065,"PO BOX 268","MARBLE FALL","TX",78654,NA,NA,65,"PO BOX 268, MARBLE FALL, TX, 78654","No_Match",NA,NA,NA,NA
981066,"PO BOX 268","MARBLE FALLS","TX",78654,NA,NA,66,"PO BOX 268, MARBLE FALLS, TX, 78654","No_Match",NA,NA,NA,NA
981067,"PO BOX 268","PARKTON","NC",28371,NA,NA,67,"PO BOX 268, PARKTON, NC, 28371","No_Match",NA,NA,NA,NA
981068,"PO BOX 268","PHILIPSBURG","MT",59858,NA,NA,68,"PO BOX 268, PHILIPSBURG, MT, 59858","No_Match",NA,NA,NA,NA
981069,"PO BOX 268","REDFIELD","AR",72132,NA,NA,69,"PO BOX 268, REDFIELD, AR, 72132","No_Match",NA,NA,NA,NA
981070,"PO BOX 268","ROCK CAVE","WV",26234,NA,NA,70,"PO BOX 268, ROCK CAVE, WV, 26234","No_Match",NA,NA,NA,NA
981071,"PO BOX 268","RUPERT","WV",25984,NA,NA,71,"PO BOX 268, RUPERT, WV, 25984","No_Match",NA,NA,NA,NA
981072,"PO BOX 268","SEWARD","AK",99664,NA,NA,72,"PO BOX 268, SEWARD, AK, 99664","No_Match",NA,NA,NA,NA
981073,"PO BOX 268","SHAWNEE","CO",90475,NA,NA,73,"PO BOX 268, SHAWNEE, CO, 90475","No_Match",NA,NA,NA,NA
981074,"PO BOX 268","STANLEY","ND",58784,NA,NA,74,"PO BOX 268, STANLEY, ND, 58784","No_Match",NA,NA,NA,NA
981075,"PO BOX 268","SUNRAY","TX",79086,NA,NA,75,"PO BOX 268, SUNRAY, TX, 79086","No_Match",NA,NA,NA,NA
981076,"PO BOX 268","WHITFIELD","MS",39193,NA,NA,76,"PO BOX 268, WHITFIELD, MS, 39193","No_Match",NA,NA,NA,NA
981077,"PO BOX 268","ZIONVILLE","NC",28698,NA,NA,77,"PO BOX 268, ZIONVILLE, NC, 28698","No_Match",NA,NA,NA,NA
981078,"PO BOX 268175","WESTON","FL",33326,NA,NA,78,"PO BOX 268175, WESTON, FL, 33326","No_Match",NA,NA,NA,NA
981079,"PO BOX 26824","ALBUQUERQUE","NM",87125,NA,NA,79,"PO BOX 26824, ALBUQUERQUE, NM, 87125","No_Match",NA,NA,NA,NA
981080,"PO BOX 2683","MADISON","MS",39130,NA,NA,80,"PO BOX 2683, MADISON, MS, 39130","No_Match",NA,NA,NA,NA
981081,"PO BOX 26872","BROOKLYN","NY",11202,NA,NA,81,"PO BOX 26872, BROOKLYN, NY, 11202","No_Match",NA,NA,NA,NA
981082,"PO BOX 2688","HURON","CA",93234,NA,NA,82,"PO BOX 2688, HURON, CA, 93234","No_Match",NA,NA,NA,NA
981083,"PO BOX 2688","MORIARTY","NM",87035,NA,NA,83,"PO BOX 2688, MORIARTY, NM, 87035","No_Match",NA,NA,NA,NA
981084,"PO BOX 26896","LOS ANGELES","CA",90026,NA,NA,84,"PO BOX 26896, LOS ANGELES, CA, 90026","No_Match",NA,NA,NA,NA
981085,"PO BOX 269","ASTORIA","OR",97103,NA,NA,85,"PO BOX 269, ASTORIA, OR, 97103","No_Match",NA,NA,NA,NA
981086,"PO BOX 269","ATLANTIC BEACH","NY",11509,NA,NA,86,"PO BOX 269, ATLANTIC BEACH, NY, 11509","No_Match",NA,NA,NA,NA
981087,"PO BOX 269","BAYTOWN","TX",77522,NA,NA,87,"PO BOX 269, BAYTOWN, TX, 77522","No_Match",NA,NA,NA,NA
981088,"PO BOX 269","BELTON","TX",76513,NA,NA,88,"PO BOX 269, BELTON, TX, 76513","No_Match",NA,NA,NA,NA
981089,"PO BOX 269","CHERRY CREEK","SD",57622,NA,NA,89,"PO BOX 269, CHERRY CREEK, SD, 57622","No_Match",NA,NA,NA,NA
981090,"PO BOX 269","EAST BURKE","VT",5832,NA,NA,90,"PO BOX 269, EAST BURKE, VT, 5832","No_Match",NA,NA,NA,NA
981091,"PO BOX 269","HYGIENE","CO",80533,NA,NA,91,"PO BOX 269, HYGIENE, CO, 80533","No_Match",NA,NA,NA,NA
981092,"PO BOX 269","INDEPENDENCE","KS",67301,NA,NA,92,"PO BOX 269, INDEPENDENCE, KS, 67301","No_Match",NA,NA,NA,NA
981093,"PO BOX 269","LAURENS","SC",29360,NA,NA,93,"PO BOX 269, LAURENS, SC, 29360","No_Match",NA,NA,NA,NA
981094,"PO BOX 269","MONTMORENCI","SC",29839,NA,NA,94,"PO BOX 269, MONTMORENCI, SC, 29839","No_Match",NA,NA,NA,NA
981095,"PO BOX 269","SALYERSVILLE","KY",41465,NA,NA,95,"PO BOX 269, SALYERSVILLE, KY, 41465","No_Match",NA,NA,NA,NA
981096,"PO BOX 269","SNELLVILLE","GA",30078,NA,NA,96,"PO BOX 269, SNELLVILLE, GA, 30078","No_Match",NA,NA,NA,NA
981097,"PO BOX 269","ST MARYS","WV",26170,NA,NA,97,"PO BOX 269, ST MARYS, WV, 26170","No_Match",NA,NA,NA,NA
981098,"PO BOX 269","STANWOOD","WA",98292,NA,NA,98,"PO BOX 269, STANWOOD, WA, 98292","No_Match",NA,NA,NA,NA
981099,"PO BOX 269","SUNBURY","NC",27979,NA,NA,99,"PO BOX 269, SUNBURY, NC, 27979","No_Match",NA,NA,NA,NA
981100,"PO BOX 269","TIVOLI","TX",77990,NA,NA,100,"PO BOX 269, TIVOLI, TX, 77990","No_Match",NA,NA,NA,NA
981101,"PO BOX 269","VALLEY MILLS","TX",76689,NA,NA,101,"PO BOX 269, VALLEY MILLS, TX, 76689","No_Match",NA,NA,NA,NA
981102,"PO BOX 269","WILLOW","AK",99688,NA,NA,102,"PO BOX 269, WILLOW, AK, 99688","No_Match",NA,NA,NA,NA
981103,"PO BOX 2690","PALMER","AK",99645,NA,NA,103,"PO BOX 2690, PALMER, AK, 99645","No_Match",NA,NA,NA,NA
981104,"PO BOX 26904","EL PASO","TX",79926,NA,NA,104,"PO BOX 26904, EL PASO, TX, 79926","No_Match",NA,NA,NA,NA
981105,"PO BOX 2691","SPRINGFIELD","VA",22152,NA,NA,105,"PO BOX 2691, SPRINGFIELD, VA, 22152","No_Match",NA,NA,NA,NA
981106,"PO BOX 2692","SPRING","TX",77383,NA,NA,106,"PO BOX 2692, SPRING, TX, 77383","No_Match",NA,NA,NA,NA
981107,"PO BOX 269232","INDIANAPOLIS","IN",46226,NA,NA,107,"PO BOX 269232, INDIANAPOLIS, IN, 46226","No_Match",NA,NA,NA,NA
981108,"PO BOX 26927","TUCSON","AZ",85726,NA,NA,108,"PO BOX 26927, TUCSON, AZ, 85726","No_Match",NA,NA,NA,NA
981109,"PO BOX 2694","CLANTON","AL",35046,NA,NA,109,"PO BOX 2694, CLANTON, AL, 35046","No_Match",NA,NA,NA,NA
981110,"PO BOX 26952","RALEIGH","NC",27611,NA,NA,110,"PO BOX 26952, RALEIGH, NC, 27611","No_Match",NA,NA,NA,NA
981111,"PO BOX 26962","CHARLOTTE","NC",28221,NA,NA,111,"PO BOX 26962, CHARLOTTE, NC, 28221","No_Match",NA,NA,NA,NA
981112,"PO BOX 2697","BRYSON CITY","NC",28713,NA,NA,112,"PO BOX 2697, BRYSON CITY, NC, 28713","No_Match",NA,NA,NA,NA
981113,"PO BOX 26972","AUSTIN","TX",78755,NA,NA,113,"PO BOX 26972, AUSTIN, TX, 78755","No_Match",NA,NA,NA,NA
981114,"PO BOX 26977","FORT WORTH","TX",76126,NA,NA,114,"PO BOX 26977, FORT WORTH, TX, 76126","No_Match",NA,NA,NA,NA
981115,"PO BOX 2698","BOISE","ID",83701,NA,NA,115,"PO BOX 2698, BOISE, ID, 83701","No_Match",NA,NA,NA,NA
981116,"PO BOX 2699","SEODNA","AZ",86339,NA,NA,116,"PO BOX 2699, SEODNA, AZ, 86339","No_Match",NA,NA,NA,NA
981117,"PO BOX 27 - 40414","ISIBANIA, KENYA",NA,NA,NA,NA,117,"PO BOX 27 - 40414, ISIBANIA, KENYA, , ","No_Match",NA,NA,NA,NA
981118,"PO BOX 27","AKIAK","AK",99552,NA,NA,118,"PO BOX 27, AKIAK, AK, 99552","No_Match",NA,NA,NA,NA
981119,"PO BOX 27","ALLENDALE","NJ",7401,NA,NA,119,"PO BOX 27, ALLENDALE, NJ, 7401","No_Match",NA,NA,NA,NA
981120,"PO BOX 27","ALTON","NH",3809,NA,NA,120,"PO BOX 27, ALTON, NH, 3809","No_Match",NA,NA,NA,NA
981121,"PO BOX 27","ATMORE","AL",36504,NA,NA,121,"PO BOX 27, ATMORE, AL, 36504","No_Match",NA,NA,NA,NA
981122,"PO BOX 27","BONHAM","TX",75418,NA,NA,122,"PO BOX 27, BONHAM, TX, 75418","No_Match",NA,NA,NA,NA
981123,"PO BOX 27","CENTERVILLE","AR",72829,NA,NA,123,"PO BOX 27, CENTERVILLE, AR, 72829","No_Match",NA,NA,NA,NA
981124,"PO BOX 27","COLDWATER","MS",38618,NA,NA,124,"PO BOX 27, COLDWATER, MS, 38618","No_Match",NA,NA,NA,NA
981125,"PO BOX 27","CONTINENTAL DIVIDE","NM",87312,NA,NA,125,"PO BOX 27, CONTINENTAL DIVIDE, NM, 87312","No_Match",NA,NA,NA,NA
981126,"PO BOX 27","CONYERS","GA",30012,NA,NA,126,"PO BOX 27, CONYERS, GA, 30012","No_Match",NA,NA,NA,NA
981127,"PO BOX 27","CRESCENT","OR",97733,NA,NA,127,"PO BOX 27, CRESCENT, OR, 97733","No_Match",NA,NA,NA,NA
981128,"PO BOX 27","ELK GARDEN","WV",26717,NA,NA,128,"PO BOX 27, ELK GARDEN, WV, 26717","No_Match",NA,NA,NA,NA
981129,"PO BOX 27","ELKADER","IA",52043,NA,NA,129,"PO BOX 27, ELKADER, IA, 52043","No_Match",NA,NA,NA,NA
981130,"PO BOX 27","GLENDALE","OR",97442,NA,NA,130,"PO BOX 27, GLENDALE, OR, 97442","No_Match",NA,NA,NA,NA
981131,"PO BOX 27","GRASS VALLEY,","CA",95945,NA,NA,131,"PO BOX 27, GRASS VALLEY,, CA, 95945","No_Match",NA,NA,NA,NA
981132,"PO BOX 27","HAUULA","HI",96717,NA,NA,132,"PO BOX 27, HAUULA, HI, 96717","No_Match",NA,NA,NA,NA
981133,"PO BOX 27","HOULKA","MS",38850,NA,NA,133,"PO BOX 27, HOULKA, MS, 38850","No_Match",NA,NA,NA,NA
981134,"PO BOX 27","HUFFMAN","TX",77336,NA,NA,134,"PO BOX 27, HUFFMAN, TX, 77336","No_Match",NA,NA,NA,NA
981135,"PO BOX 27","JACKPOT","NV",89825,NA,NA,135,"PO BOX 27, JACKPOT, NV, 89825","No_Match",NA,NA,NA,NA
981136,"PO BOX 27","KINGSTON","AR",72742,NA,NA,136,"PO BOX 27, KINGSTON, AR, 72742","No_Match",NA,NA,NA,NA
981137,"PO BOX 27","KUNIA","HI",96759,NA,NA,137,"PO BOX 27, KUNIA, HI, 96759","No_Match",NA,NA,NA,NA
981138,"PO BOX 27","LAKEVILLE","OH",44638,NA,NA,138,"PO BOX 27, LAKEVILLE, OH, 44638","No_Match",NA,NA,NA,NA
981139,"PO BOX 27","LISBON","NY",13658,NA,NA,139,"PO BOX 27, LISBON, NY, 13658","No_Match",NA,NA,NA,NA
981140,"PO BOX 27","LITTLEROCK","WA",98556,NA,NA,140,"PO BOX 27, LITTLEROCK, WA, 98556","No_Match",NA,NA,NA,NA
981141,"PO BOX 27","LOIZA","PR",772,NA,NA,141,"PO BOX 27, LOIZA, PR, 772","No_Match",NA,NA,NA,NA
981142,"PO BOX 27","MANDERSON","SD",57756,NA,NA,142,"PO BOX 27, MANDERSON, SD, 57756","No_Match",NA,NA,NA,NA
981143,"PO BOX 27","MAPLE","NC",27956,NA,NA,143,"PO BOX 27, MAPLE, NC, 27956","No_Match",NA,NA,NA,NA
981144,"PO BOX 27","MOODYS","OK",74444,NA,NA,144,"PO BOX 27, MOODYS, OK, 74444","No_Match",NA,NA,NA,NA
981145,"PO BOX 27","NEW YORK","NY",10032,NA,NA,145,"PO BOX 27, NEW YORK, NY, 10032","No_Match",NA,NA,NA,NA
981146,"PO BOX 27","NIXA","MO",65714,NA,NA,146,"PO BOX 27, NIXA, MO, 65714","No_Match",NA,NA,NA,NA
981147,"PO BOX 27","PEAK","SC",29122,NA,NA,147,"PO BOX 27, PEAK, SC, 29122","No_Match",NA,NA,NA,NA
981148,"PO BOX 27","SHUSHAN","NY",12873,NA,NA,148,"PO BOX 27, SHUSHAN, NY, 12873","No_Match",NA,NA,NA,NA
981149,"PO BOX 27","SNOOK","TX",77878,NA,NA,149,"PO BOX 27, SNOOK, TX, 77878","No_Match",NA,NA,NA,NA
981150,"PO BOX 27","ST FRANCIS","SD",57572,NA,NA,150,"PO BOX 27, ST FRANCIS, SD, 57572","No_Match",NA,NA,NA,NA
981151,"PO BOX 27","SWEET HOME","OR",97386,NA,NA,151,"PO BOX 27, SWEET HOME, OR, 97386","No_Match",NA,NA,NA,NA
981152,"PO BOX 27","VENICE","IL",62090,NA,NA,152,"PO BOX 27, VENICE, IL, 62090","No_Match",NA,NA,NA,NA
981153,"PO BOX 27","WATROS","NM",87753,NA,NA,153,"PO BOX 27, WATROS, NM, 87753","No_Match",NA,NA,NA,NA
981154,"PO BOX 27","WEST HEMPSTEAD","NY",11552,NA,NA,154,"PO BOX 27, WEST HEMPSTEAD, NY, 11552","No_Match",NA,NA,NA,NA
981155,"PO BOX 27","WEST STOCKBRIDGE","MA",1266,NA,NA,155,"PO BOX 27, WEST STOCKBRIDGE, MA, 1266","No_Match",NA,NA,NA,NA
981156,"PO BOX 27","WILKESVILLE","OH",45695,NA,NA,156,"PO BOX 27, WILKESVILLE, OH, 45695","No_Match",NA,NA,NA,NA
981157,"PO BOX 27","WYOLA","MT",59089,NA,NA,157,"PO BOX 27, WYOLA, MT, 59089","No_Match",NA,NA,NA,NA
981158,"PO BOX 270","ABIQUIU","NM",87510,NA,NA,158,"PO BOX 270, ABIQUIU, NM, 87510","No_Match",NA,NA,NA,NA
981159,"PO BOX 270","DUCHESSE","UT",84021,NA,NA,159,"PO BOX 270, DUCHESSE, UT, 84021","No_Match",NA,NA,NA,NA
981160,"PO BOX 270","HAVERSTRAW","NY",10927,NA,NA,160,"PO BOX 270, HAVERSTRAW, NY, 10927","No_Match",NA,NA,NA,NA
981161,"PO BOX 270","OCEANSIDE","CA",92049,NA,NA,161,"PO BOX 270, OCEANSIDE, CA, 92049","No_Match",NA,NA,NA,NA
981162,"PO BOX 270","ROYSE CITY","TX",75189,NA,NA,162,"PO BOX 270, ROYSE CITY, TX, 75189","No_Match",NA,NA,NA,NA
981163,"PO BOX 270","STOCKTON","UT",84071,NA,NA,163,"PO BOX 270, STOCKTON, UT, 84071","No_Match",NA,NA,NA,NA
981164,"PO BOX 2700","LA PINE","OR",97739,NA,NA,164,"PO BOX 2700, LA PINE, OR, 97739","No_Match",NA,NA,NA,NA
981165,"PO BOX 270003","FLOWER MOUND","TX",75027,NA,NA,165,"PO BOX 270003, FLOWER MOUND, TX, 75027","No_Match",NA,NA,NA,NA
981166,"PO BOX 270008","GUAYNABO","PR",928,NA,NA,166,"PO BOX 270008, GUAYNABO, PR, 928","No_Match",NA,NA,NA,NA
981167,"PO BOX 270010","SUSANVILLE","CA",96127,NA,NA,167,"PO BOX 270010, SUSANVILLE, CA, 96127","No_Match",NA,NA,NA,NA
981168,"PO BOX 270013","HARTFORD","WI",53027,NA,NA,168,"PO BOX 270013, HARTFORD, WI, 53027","No_Match",NA,NA,NA,NA
981169,"PO BOX 270083","DALLAS","TX",75227,NA,NA,169,"PO BOX 270083, DALLAS, TX, 75227","No_Match",NA,NA,NA,NA
981170,"PO BOX 2701","TUSCALOOSA","AL",35405,NA,NA,170,"PO BOX 2701, TUSCALOOSA, AL, 35405","No_Match",NA,NA,NA,NA
981171,"PO BOX 270113","CORPUS CHRISTI","TX",78413,NA,NA,171,"PO BOX 270113, CORPUS CHRISTI, TX, 78413","No_Match",NA,NA,NA,NA
981172,"PO BOX 270127","SAN JUAN","PR",926,NA,NA,172,"PO BOX 270127, SAN JUAN, PR, 926","No_Match",NA,NA,NA,NA
981173,"PO BOX 270152","DALLAS","TX",75227,NA,NA,173,"PO BOX 270152, DALLAS, TX, 75227","No_Match",NA,NA,NA,NA
981174,"PO BOX 270155","LAS VEGAS","NV",89127,NA,NA,174,"PO BOX 270155, LAS VEGAS, NV, 89127","No_Match",NA,NA,NA,NA
981175,"PO BOX 270181","LOUISVILLE","CO",80027,NA,NA,175,"PO BOX 270181, LOUISVILLE, CO, 80027","No_Match",NA,NA,NA,NA
981176,"PO BOX 27021","FORTH WORTH","TX",27021,NA,NA,176,"PO BOX 27021, FORTH WORTH, TX, 27021","No_Match",NA,NA,NA,NA
981177,"PO BOX 2703","CRESTED BUTTE","CO",81224,NA,NA,177,"PO BOX 2703, CRESTED BUTTE, CO, 81224","No_Match",NA,NA,NA,NA
981178,"PO BOX 270321","VADNAIS HEIGHTS","MN",55127,NA,NA,178,"PO BOX 270321, VADNAIS HEIGHTS, MN, 55127","No_Match",NA,NA,NA,NA
981179,"PO BOX 270367","LOUISVILLE","CO",80027,NA,NA,179,"PO BOX 270367, LOUISVILLE, CO, 80027","No_Match",NA,NA,NA,NA
981180,"PO BOX 270384","CORPUS CHRISTI","TX",78427,NA,NA,180,"PO BOX 270384, CORPUS CHRISTI, TX, 78427","No_Match",NA,NA,NA,NA
981181,"PO BOX 2704","KENAI","AK",99611,NA,NA,181,"PO BOX 2704, KENAI, AK, 99611","No_Match",NA,NA,NA,NA
981182,"PO BOX 2704","MCDONOUGH","GA",30253,NA,NA,182,"PO BOX 2704, MCDONOUGH, GA, 30253","No_Match",NA,NA,NA,NA
981183,"PO BOX 2704","WAXAHACHIE","TX",75165,NA,NA,183,"PO BOX 2704, WAXAHACHIE, TX, 75165","No_Match",NA,NA,NA,NA
981184,"PO BOX 270433","LAS VEGAS","NV",89127,NA,NA,184,"PO BOX 270433, LAS VEGAS, NV, 89127","No_Match",NA,NA,NA,NA
981185,"PO BOX 270435","LOUISVILLE","CO",80027,NA,NA,185,"PO BOX 270435, LOUISVILLE, CO, 80027","No_Match",NA,NA,NA,NA
981186,"PO BOX 270451","FLOWER MOUND","TX",75027,NA,NA,186,"PO BOX 270451, FLOWER MOUND, TX, 75027","No_Match",NA,NA,NA,NA
981187,"PO BOX 270460","LOUISVILLE","CO",80027,NA,NA,187,"PO BOX 270460, LOUISVILLE, CO, 80027","No_Match",NA,NA,NA,NA
981188,"PO BOX 270473","KANSAS CITY","MO",64127,NA,NA,188,"PO BOX 270473, KANSAS CITY, MO, 64127","No_Match",NA,NA,NA,NA
981189,"PO BOX 270552","WEST ALLIS","WI",53227,NA,NA,189,"PO BOX 270552, WEST ALLIS, WI, 53227","No_Match",NA,NA,NA,NA
981190,"PO BOX 270691","KANSAS CITY","MO",64127,NA,NA,190,"PO BOX 270691, KANSAS CITY, MO, 64127","No_Match",NA,NA,NA,NA
981191,"PO BOX 270696","KANSA CITY","MO",64127,NA,NA,191,"PO BOX 270696, KANSA CITY, MO, 64127","No_Match",NA,NA,NA,NA
981192,"PO BOX 2707","CENTENNIAL","CO",80161,NA,NA,192,"PO BOX 2707, CENTENNIAL, CO, 80161","No_Match",NA,NA,NA,NA
981193,"PO BOX 2707","LAPLACE","LA",70069,NA,NA,193,"PO BOX 2707, LAPLACE, LA, 70069","No_Match",NA,NA,NA,NA
981194,"PO BOX 2707","WOODWARD","OK",73802,NA,NA,194,"PO BOX 2707, WOODWARD, OK, 73802","No_Match",NA,NA,NA,NA
981195,"PO BOX 270710","SAN DIEGO","CA",92198,NA,NA,195,"PO BOX 270710, SAN DIEGO, CA, 92198","No_Match",NA,NA,NA,NA
981196,"PO BOX 2708","CHINO HILLS","CA",91709,NA,NA,196,"PO BOX 2708, CHINO HILLS, CA, 91709","No_Match",NA,NA,NA,NA
981197,"PO BOX 27083","WEST HAVEN","CT",6516,NA,NA,197,"PO BOX 27083, WEST HAVEN, CT, 6516","No_Match",NA,NA,NA,NA
981198,"PO BOX 270841","FORT COLLINS","CO",80527,NA,NA,198,"PO BOX 270841, FORT COLLINS, CO, 80527","No_Match",NA,NA,NA,NA
981199,"PO BOX 27087","OAKLAND","CA",94602,NA,NA,199,"PO BOX 27087, OAKLAND, CA, 94602","No_Match",NA,NA,NA,NA
981200,"PO BOX 270870","SUSANVILLE","CA",96127,NA,NA,200,"PO BOX 270870, SUSANVILLE, CA, 96127","No_Match",NA,NA,NA,NA
981201,"PO BOX 27091","EL PASO","TX",79926,NA,NA,201,"PO BOX 27091, EL PASO, TX, 79926","No_Match",NA,NA,NA,NA
981202,"PO BOX 270912","LAS VEGAS","NV",89127,NA,NA,202,"PO BOX 270912, LAS VEGAS, NV, 89127","No_Match",NA,NA,NA,NA
981203,"PO BOX 270925","CORPUS CHRISTI","TX",78427,NA,NA,203,"PO BOX 270925, CORPUS CHRISTI, TX, 78427","No_Match",NA,NA,NA,NA
981204,"PO BOX 27093","FRESNO","CA",93729,NA,NA,204,"PO BOX 27093, FRESNO, CA, 93729","No_Match",NA,NA,NA,NA
981205,"PO BOX 271","ARGENTA","IL",62501,NA,NA,205,"PO BOX 271, ARGENTA, IL, 62501","No_Match",NA,NA,NA,NA
981206,"PO BOX 271","BOISE","ID",83701,NA,NA,206,"PO BOX 271, BOISE, ID, 83701","No_Match",NA,NA,NA,NA
981207,"PO BOX 271","CEDAR HILL","TX",75106,NA,NA,207,"PO BOX 271, CEDAR HILL, TX, 75106","No_Match",NA,NA,NA,NA
981208,"PO BOX 271","COLORADO SPRINGS","CO",80901,NA,NA,208,"PO BOX 271, COLORADO SPRINGS, CO, 80901","No_Match",NA,NA,NA,NA
981209,"PO BOX 271","COLUMBIA","MD",21045,NA,NA,209,"PO BOX 271, COLUMBIA, MD, 21045","No_Match",NA,NA,NA,NA
981210,"PO BOX 271","DE QUEEN","AR",71832,NA,NA,210,"PO BOX 271, DE QUEEN, AR, 71832","No_Match",NA,NA,NA,NA
981211,"PO BOX 271","DIXON","KY",42409,NA,NA,211,"PO BOX 271, DIXON, KY, 42409","No_Match",NA,NA,NA,NA
981212,"PO BOX 271","ELYSIAN FIELDS","TX",75642,NA,NA,212,"PO BOX 271, ELYSIAN FIELDS, TX, 75642","No_Match",NA,NA,NA,NA
981213,"PO BOX 271","FRANKLIN","LA",70538,NA,NA,213,"PO BOX 271, FRANKLIN, LA, 70538","No_Match",NA,NA,NA,NA
981214,"PO BOX 271","GLENDALE","OR",97442,NA,NA,214,"PO BOX 271, GLENDALE, OR, 97442","No_Match",NA,NA,NA,NA
981215,"PO BOX 271","GUADALUPI","NC",87722,NA,NA,215,"PO BOX 271, GUADALUPI, NC, 87722","No_Match",NA,NA,NA,NA
981216,"PO BOX 271","ITASCA","TX",76055,NA,NA,216,"PO BOX 271, ITASCA, TX, 76055","No_Match",NA,NA,NA,NA
981217,"PO BOX 271","LAFAYETTE","CA",94549,NA,NA,217,"PO BOX 271, LAFAYETTE, CA, 94549","No_Match",NA,NA,NA,NA
981218,"PO BOX 271","LAKE ANDES","SD",57356,NA,NA,218,"PO BOX 271, LAKE ANDES, SD, 57356","No_Match",NA,NA,NA,NA
981219,"PO BOX 271","LINDSEY","TX",76250,NA,NA,219,"PO BOX 271, LINDSEY, TX, 76250","No_Match",NA,NA,NA,NA
981220,"PO BOX 271","MIRANDA","CA",95553,NA,NA,220,"PO BOX 271, MIRANDA, CA, 95553","No_Match",NA,NA,NA,NA
981221,"PO BOX 271","MURPHYS","CA",95247,NA,NA,221,"PO BOX 271, MURPHYS, CA, 95247","No_Match",NA,NA,NA,NA
981222,"PO BOX 271","NANTUCKET","MA",2554,NA,NA,222,"PO BOX 271, NANTUCKET, MA, 2554","No_Match",NA,NA,NA,NA
981223,"PO BOX 271","NEW STRAITSVILLE","OH",43766,NA,NA,223,"PO BOX 271, NEW STRAITSVILLE, OH, 43766","No_Match",NA,NA,NA,NA
981224,"PO BOX 271","PHOENIX","MD",21131,NA,NA,224,"PO BOX 271, PHOENIX, MD, 21131","No_Match",NA,NA,NA,NA
981225,"PO BOX 271","PIEDRA","CA",93649,NA,NA,225,"PO BOX 271, PIEDRA, CA, 93649","No_Match",NA,NA,NA,NA
981226,"PO BOX 271","PRATHER","CA",93651,NA,NA,226,"PO BOX 271, PRATHER, CA, 93651","No_Match",NA,NA,NA,NA
981227,"PO BOX 271","ROSALIA","WA",99170,NA,NA,227,"PO BOX 271, ROSALIA, WA, 99170","No_Match",NA,NA,NA,NA
981228,"PO BOX 271","ROWENA","TX",76875,NA,NA,228,"PO BOX 271, ROWENA, TX, 76875","No_Match",NA,NA,NA,NA
981229,"PO BOX 271","SALOME","AZ",85348,NA,NA,229,"PO BOX 271, SALOME, AZ, 85348","No_Match",NA,NA,NA,NA
981230,"PO BOX 271","SAUTEE NACOOCHEE","GA",30571,NA,NA,230,"PO BOX 271, SAUTEE NACOOCHEE, GA, 30571","No_Match",NA,NA,NA,NA
981231,"PO BOX 271","SAVANNAH","MO",64485,NA,NA,231,"PO BOX 271, SAVANNAH, MO, 64485","No_Match",NA,NA,NA,NA
981232,"PO BOX 271","SELDOVIA","AK",99663,NA,NA,232,"PO BOX 271, SELDOVIA, AK, 99663","No_Match",NA,NA,NA,NA
981233,"PO BOX 271","SHELBY","MT",59474,NA,NA,233,"PO BOX 271, SHELBY, MT, 59474","No_Match",NA,NA,NA,NA
981234,"PO BOX 271","STARTUP","WA",98293,NA,NA,234,"PO BOX 271, STARTUP, WA, 98293","No_Match",NA,NA,NA,NA
981235,"PO BOX 271","TEHACHAPI","CA",93581,NA,NA,235,"PO BOX 271, TEHACHAPI, CA, 93581","No_Match",NA,NA,NA,NA
981236,"PO BOX 271","TOBYHANNA","PA",18466,NA,NA,236,"PO BOX 271, TOBYHANNA, PA, 18466","No_Match",NA,NA,NA,NA
981237,"PO BOX 271","VAIL","AZ",85641,NA,NA,237,"PO BOX 271, VAIL, AZ, 85641","No_Match",NA,NA,NA,NA
981238,"PO BOX 271","WEDGEFIELD","SC",29168,NA,NA,238,"PO BOX 271, WEDGEFIELD, SC, 29168","No_Match",NA,NA,NA,NA
981239,"PO BOX 2710","WEATHERFORD","TX",76086,NA,NA,239,"PO BOX 2710, WEATHERFORD, TX, 76086","No_Match",NA,NA,NA,NA
981240,"PO BOX 27105","OVERLAND PARK","KS",66225,NA,NA,240,"PO BOX 27105, OVERLAND PARK, KS, 66225","No_Match",NA,NA,NA,NA
981241,"PO BOX 271094","SALT LAKE CITY","UT",84127,NA,NA,241,"PO BOX 271094, SALT LAKE CITY, UT, 84127","No_Match",NA,NA,NA,NA
981242,"PO BOX 2711","BLAIRSVILLE","GA",30514,NA,NA,242,"PO BOX 2711, BLAIRSVILLE, GA, 30514","No_Match",NA,NA,NA,NA
981243,"PO BOX 2711","CLEBURNE","TX",76033,NA,NA,243,"PO BOX 2711, CLEBURNE, TX, 76033","No_Match",NA,NA,NA,NA
981244,"PO BOX 2711","KENNESAW","GA",30156,NA,NA,244,"PO BOX 2711, KENNESAW, GA, 30156","No_Match",NA,NA,NA,NA
981245,"PO BOX 2711","WATSONVILLE","CA",95077,NA,NA,245,"PO BOX 2711, WATSONVILLE, CA, 95077","No_Match",NA,NA,NA,NA
981246,"PO BOX 271104","CORPUS CHRISTI","TX",78427,NA,NA,246,"PO BOX 271104, CORPUS CHRISTI, TX, 78427","No_Match",NA,NA,NA,NA
981247,"PO BOX 271147","LOUISVILLE","CO",80027,NA,NA,247,"PO BOX 271147, LOUISVILLE, CO, 80027","No_Match",NA,NA,NA,NA
981248,"PO BOX 271171","LITTLETON","CO",80127,NA,NA,248,"PO BOX 271171, LITTLETON, CO, 80127","No_Match",NA,NA,NA,NA
981249,"PO BOX 271193","FLOWER MOUND","TX",75027,NA,NA,249,"PO BOX 271193, FLOWER MOUND, TX, 75027","No_Match",NA,NA,NA,NA
981250,"PO BOX 271201","LAS VEGAS","NV",89127,NA,NA,250,"PO BOX 271201, LAS VEGAS, NV, 89127","No_Match",NA,NA,NA,NA
981251,"PO BOX 2713","HOMER","AK",99603,NA,NA,251,"PO BOX 2713, HOMER, AK, 99603","No_Match",NA,NA,NA,NA
981252,"PO BOX 2713","NIKOLAEVSK","AK",99556,NA,NA,252,"PO BOX 2713, NIKOLAEVSK, AK, 99556","No_Match",NA,NA,NA,NA
981253,"PO BOX 2713","PORT ANGELES","WA",98362,NA,NA,253,"PO BOX 2713, PORT ANGELES, WA, 98362","No_Match",NA,NA,NA,NA
981254,"PO BOX 271321","LAS VEGAS","NV",89127,NA,NA,254,"PO BOX 271321, LAS VEGAS, NV, 89127","No_Match",NA,NA,NA,NA
981255,"PO BOX 27133","LAS VEGAS","NV",89127,NA,NA,255,"PO BOX 27133, LAS VEGAS, NV, 89127","No_Match",NA,NA,NA,NA
981256,"PO BOX 2714","CERES","CA",95307,NA,NA,256,"PO BOX 2714, CERES, CA, 95307","No_Match",NA,NA,NA,NA
981257,"PO BOX 2714","CLINTON","MD",20735,NA,NA,257,"PO BOX 2714, CLINTON, MD, 20735","No_Match",NA,NA,NA,NA
981258,"PO BOX 2714","MARYSVILLE","CA",95901,NA,NA,258,"PO BOX 2714, MARYSVILLE, CA, 95901","No_Match",NA,NA,NA,NA
981259,"PO BOX 271497","MEMPHIS","TN",38174,NA,NA,259,"PO BOX 271497, MEMPHIS, TN, 38174","No_Match",NA,NA,NA,NA
981260,"PO BOX 2715","CENTENNIAL","CO",80122,NA,NA,260,"PO BOX 2715, CENTENNIAL, CO, 80122","No_Match",NA,NA,NA,NA
981261,"PO BOX 2715","VACAVILLE","CA",95696,NA,NA,261,"PO BOX 2715, VACAVILLE, CA, 95696","No_Match",NA,NA,NA,NA
981262,"PO BOX 2716","BRYSON CITY","NC",28713,NA,NA,262,"PO BOX 2716, BRYSON CITY, NC, 28713","No_Match",NA,NA,NA,NA
981263,"PO BOX 27160","EL PASO","TX",79926,NA,NA,263,"PO BOX 27160, EL PASO, TX, 79926","No_Match",NA,NA,NA,NA
981264,"PO BOX 271606","LAS VEGAS","NV",89127,NA,NA,264,"PO BOX 271606, LAS VEGAS, NV, 89127","No_Match",NA,NA,NA,NA
981265,"PO BOX 27162","GREENVILLE","SC",29616,NA,NA,265,"PO BOX 27162, GREENVILLE, SC, 29616","No_Match",NA,NA,NA,NA
981266,"PO BOX 271733","LAS VEGAS","NV",89127,NA,NA,266,"PO BOX 271733, LAS VEGAS, NV, 89127","No_Match",NA,NA,NA,NA
981267,"PO BOX 271746","LITTLETON","CO",80127,NA,NA,267,"PO BOX 271746, LITTLETON, CO, 80127","No_Match",NA,NA,NA,NA
981268,"PO BOX 27182","WASHINGTON","DC",20038,NA,NA,268,"PO BOX 27182, WASHINGTON, DC, 20038","No_Match",NA,NA,NA,NA
981269,"PO BOX 272","AUBREY","TX",76227,NA,NA,269,"PO BOX 272, AUBREY, TX, 76227","No_Match",NA,NA,NA,NA
981270,"PO BOX 272","BARDWELL","KY",42023,NA,NA,270,"PO BOX 272, BARDWELL, KY, 42023","No_Match",NA,NA,NA,NA
981271,"PO BOX 272","BELMONT","NC",28012,NA,NA,271,"PO BOX 272, BELMONT, NC, 28012","No_Match",NA,NA,NA,NA
981272,"PO BOX 272","BERKELEY SPRINGS","WV",25411,NA,NA,272,"PO BOX 272, BERKELEY SPRINGS, WV, 25411","No_Match",NA,NA,NA,NA
981273,"PO BOX 272","CORNING","CA",96021,NA,NA,273,"PO BOX 272, CORNING, CA, 96021","No_Match",NA,NA,NA,NA
981274,"PO BOX 272","DODGEVILLE","WI",53533,NA,NA,274,"PO BOX 272, DODGEVILLE, WI, 53533","No_Match",NA,NA,NA,NA
981275,"PO BOX 272","DONOVAN","IL",60931,NA,NA,275,"PO BOX 272, DONOVAN, IL, 60931","No_Match",NA,NA,NA,NA
981276,"PO BOX 272","GARNAVILLO","IA",52049,NA,NA,276,"PO BOX 272, GARNAVILLO, IA, 52049","No_Match",NA,NA,NA,NA
981277,"PO BOX 272","GILLETTE","WY",82717,NA,NA,277,"PO BOX 272, GILLETTE, WY, 82717","No_Match",NA,NA,NA,NA
981278,"PO BOX 272","IREDELL","TX",76649,NA,NA,278,"PO BOX 272, IREDELL, TX, 76649","No_Match",NA,NA,NA,NA
981279,"PO BOX 272","ITTA BENA","MS",38941,NA,NA,279,"PO BOX 272, ITTA BENA, MS, 38941","No_Match",NA,NA,NA,NA
981280,"PO BOX 272","JUDSON","TX",75660,NA,NA,280,"PO BOX 272, JUDSON, TX, 75660","No_Match",NA,NA,NA,NA
981281,"PO BOX 272","LANCASTER","MA",1532,NA,NA,281,"PO BOX 272, LANCASTER, MA, 1532","No_Match",NA,NA,NA,NA
981282,"PO BOX 272","MARBLE HILL","MO",63764,NA,NA,282,"PO BOX 272, MARBLE HILL, MO, 63764","No_Match",NA,NA,NA,NA
981283,"PO BOX 272","PAWLING","NY",12564,NA,NA,283,"PO BOX 272, PAWLING, NY, 12564","No_Match",NA,NA,NA,NA
981284,"PO BOX 272","PORTSMOUTH","VA",23705,NA,NA,284,"PO BOX 272, PORTSMOUTH, VA, 23705","No_Match",NA,NA,NA,NA
981285,"PO BOX 272","SCOTTDALE","GA",30079,NA,NA,285,"PO BOX 272, SCOTTDALE, GA, 30079","No_Match",NA,NA,NA,NA
981286,"PO BOX 272","SHERIDAN","OR",97378,NA,NA,286,"PO BOX 272, SHERIDAN, OR, 97378","No_Match",NA,NA,NA,NA
981287,"PO BOX 272","SUTTON","WV",26601,NA,NA,287,"PO BOX 272, SUTTON, WV, 26601","No_Match",NA,NA,NA,NA
981288,"PO BOX 272","TAHOE VISTA","CA",96148,NA,NA,288,"PO BOX 272, TAHOE VISTA, CA, 96148","No_Match",NA,NA,NA,NA
981289,"PO BOX 272","VANDERBILT","TX",77991,NA,NA,289,"PO BOX 272, VANDERBILT, TX, 77991","No_Match",NA,NA,NA,NA
981290,"PO BOX 272","WRANGELL","AK",99929,NA,NA,290,"PO BOX 272, WRANGELL, AK, 99929","No_Match",NA,NA,NA,NA
981291,"PO BOX 27201","SAINT LOUIS","MO",63137,NA,NA,291,"PO BOX 27201, SAINT LOUIS, MO, 63137","No_Match",NA,NA,NA,NA
981292,"PO BOX 27201","SAN ANTONIO","TX",78227,NA,NA,292,"PO BOX 27201, SAN ANTONIO, TX, 78227","No_Match",NA,NA,NA,NA
981293,"PO BOX 2721","BATON ROUGE","LA",70801,NA,NA,293,"PO BOX 2721, BATON ROUGE, LA, 70801","No_Match",NA,NA,NA,NA
981294,"PO BOX 2721","BURLESON","TX",76097,NA,NA,294,"PO BOX 2721, BURLESON, TX, 76097","No_Match",NA,NA,NA,NA
981295,"PO BOX 2721","FAIRFIELD","CA",94533,NA,NA,295,"PO BOX 2721, FAIRFIELD, CA, 94533","No_Match",NA,NA,NA,NA
981296,"PO BOX 2721","POUGHKEEPSIE","NY",12602,NA,NA,296,"PO BOX 2721, POUGHKEEPSIE, NY, 12602","No_Match",NA,NA,NA,NA
981297,"PO BOX 2721","POUGHKEEPSIE","NY",12603,NA,NA,297,"PO BOX 2721, POUGHKEEPSIE, NY, 12603","No_Match",NA,NA,NA,NA
981298,"PO BOX 2721","SOUTH SAN FRANCISCO","CA",94083,NA,NA,298,"PO BOX 2721, SOUTH SAN FRANCISCO, CA, 94083","No_Match",NA,NA,NA,NA
981299,"PO BOX 2721","STAUNTON","VA",24402,NA,NA,299,"PO BOX 2721, STAUNTON, VA, 24402","No_Match",NA,NA,NA,NA
981300,"PO BOX 2722","LOS ALAMITOS","CA",92122,NA,NA,300,"PO BOX 2722, LOS ALAMITOS, CA, 92122","No_Match",NA,NA,NA,NA
981301,"PO BOX 2722","POCATELLO","ID",83206,NA,NA,301,"PO BOX 2722, POCATELLO, ID, 83206","No_Match",NA,NA,NA,NA
981302,"PO BOX 2722","TALLAHASSEE","FL",32316,NA,NA,302,"PO BOX 2722, TALLAHASSEE, FL, 32316","No_Match",NA,NA,NA,NA
981303,"PO BOX 27221","DETROIT","MI",48227,NA,NA,303,"PO BOX 27221, DETROIT, MI, 48227","No_Match",NA,NA,NA,NA
981304,"PO BOX 272234","TAMPA","FL",33688,NA,NA,304,"PO BOX 272234, TAMPA, FL, 33688","No_Match",NA,NA,NA,NA
981305,"PO BOX 2724","AMARILLO","TX",79105,NA,NA,305,"PO BOX 2724, AMARILLO, TX, 79105","No_Match",NA,NA,NA,NA
981306,"PO BOX 27242","MEMPHIS","TN",38167,NA,NA,306,"PO BOX 27242, MEMPHIS, TN, 38167","No_Match",NA,NA,NA,NA
981307,"PO BOX 27246","TUCSON","AZ",85726,NA,NA,307,"PO BOX 27246, TUCSON, AZ, 85726","No_Match",NA,NA,NA,NA
981308,"PO BOX 2725","RANCHO CUCAMONGA","CA",91729,NA,NA,308,"PO BOX 2725, RANCHO CUCAMONGA, CA, 91729","No_Match",NA,NA,NA,NA
981309,"PO BOX 27259","GREENVILLE","SC",29616,NA,NA,309,"PO BOX 27259, GREENVILLE, SC, 29616","No_Match",NA,NA,NA,NA
981310,"PO BOX 2727","GEARHART","OR",97138,NA,NA,310,"PO BOX 2727, GEARHART, OR, 97138","No_Match",NA,NA,NA,NA
981311,"PO BOX 27277 100 ORCHARD PARK DRIVE","GREENVILLE","SC",29616,34.854660638,-82.3292279949999,311,"PO BOX 27277 100 ORCHARD PARK DRIVE, GREENVILLE, SC, 29616","Match","Non_Exact","100 ORCHARD PARK DR, GREENVILLE, SC, 29615",38364074,"R"
981312,"PO BOX 272852","TAMPA","FL",33688,NA,NA,312,"PO BOX 272852, TAMPA, FL, 33688","No_Match",NA,NA,NA,NA
981313,"PO BOX 272879","TAMPA","FL",33688,NA,NA,313,"PO BOX 272879, TAMPA, FL, 33688","No_Match",NA,NA,NA,NA
981314,"PO BOX 2729","CYPRESS","TX",77410,NA,NA,314,"PO BOX 2729, CYPRESS, TX, 77410","No_Match",NA,NA,NA,NA
981315,"PO BOX 2729","LAREDO","TX",78044,NA,NA,315,"PO BOX 2729, LAREDO, TX, 78044","No_Match",NA,NA,NA,NA
981316,"PO BOX 272931","BOCA RATON","FL",33427,NA,NA,316,"PO BOX 272931, BOCA RATON, FL, 33427","No_Match",NA,NA,NA,NA
981317,"PO BOX 272955","BOCA RATON","FL",33427,NA,NA,317,"PO BOX 272955, BOCA RATON, FL, 33427","No_Match",NA,NA,NA,NA
981318,"PO BOX 273","BELLE PLAINE","KS",67013,NA,NA,318,"PO BOX 273, BELLE PLAINE, KS, 67013","No_Match",NA,NA,NA,NA
981319,"PO BOX 273","BOYD","TX",76023,NA,NA,319,"PO BOX 273, BOYD, TX, 76023","No_Match",NA,NA,NA,NA
981320,"PO BOX 273","BRENTWOOD","TN",37024,NA,NA,320,"PO BOX 273, BRENTWOOD, TN, 37024","No_Match",NA,NA,NA,NA
981321,"PO BOX 273","CENTRAL CITY","CO",80427,NA,NA,321,"PO BOX 273, CENTRAL CITY, CO, 80427","No_Match",NA,NA,NA,NA
981322,"PO BOX 273","COALDALE","CO",81222,NA,NA,322,"PO BOX 273, COALDALE, CO, 81222","No_Match",NA,NA,NA,NA
981323,"PO BOX 273","COTTAGE GROVE","WI",53527,NA,NA,323,"PO BOX 273, COTTAGE GROVE, WI, 53527","No_Match",NA,NA,NA,NA
981324,"PO BOX 273","COTTONWOOD","ID",83522,NA,NA,324,"PO BOX 273, COTTONWOOD, ID, 83522","No_Match",NA,NA,NA,NA
981325,"PO BOX 273","COVINGTON","OH",45318,NA,NA,325,"PO BOX 273, COVINGTON, OH, 45318","No_Match",NA,NA,NA,NA
981326,"PO BOX 273","DEARBORN HEIGHTS","MI",48127,NA,NA,326,"PO BOX 273, DEARBORN HEIGHTS, MI, 48127","No_Match",NA,NA,NA,NA
981327,"PO BOX 273","DIVIDE","CO",80814,NA,NA,327,"PO BOX 273, DIVIDE, CO, 80814","No_Match",NA,NA,NA,NA
981328,"PO BOX 273","EL RITO","NM",87530,NA,NA,328,"PO BOX 273, EL RITO, NM, 87530","No_Match",NA,NA,NA,NA
981329,"PO BOX 273","FRIES","VA",24330,NA,NA,329,"PO BOX 273, FRIES, VA, 24330","No_Match",NA,NA,NA,NA
981330,"PO BOX 273","FULSHEAR","TX",77441,NA,NA,330,"PO BOX 273, FULSHEAR, TX, 77441","No_Match",NA,NA,NA,NA
981331,"PO BOX 273","GRANT CITY","MO",64456,NA,NA,331,"PO BOX 273, GRANT CITY, MO, 64456","No_Match",NA,NA,NA,NA
981332,"PO BOX 273","GRAY SUMMIT","MO",63039,NA,NA,332,"PO BOX 273, GRAY SUMMIT, MO, 63039","No_Match",NA,NA,NA,NA
981333,"PO BOX 273","KANOPOLIS","KS",67454,NA,NA,333,"PO BOX 273, KANOPOLIS, KS, 67454","No_Match",NA,NA,NA,NA
981334,"PO BOX 273","MARIETTA","OH",45750,NA,NA,334,"PO BOX 273, MARIETTA, OH, 45750","No_Match",NA,NA,NA,NA
981335,"PO BOX 273","MASTONTOWN","WV",26542,NA,NA,335,"PO BOX 273, MASTONTOWN, WV, 26542","No_Match",NA,NA,NA,NA
981336,"PO BOX 273","OAKFIELD","NY",14125,NA,NA,336,"PO BOX 273, OAKFIELD, NY, 14125","No_Match",NA,NA,NA,NA
981337,"PO BOX 273","PARKER FORD","PA",19457,NA,NA,337,"PO BOX 273, PARKER FORD, PA, 19457","No_Match",NA,NA,NA,NA
981338,"PO BOX 273","PEARBLOSSOM","CA",93553,NA,NA,338,"PO BOX 273, PEARBLOSSOM, CA, 93553","No_Match",NA,NA,NA,NA
981339,"PO BOX 273","PINCKNEYVILLE","IL",62274,NA,NA,339,"PO BOX 273, PINCKNEYVILLE, IL, 62274","No_Match",NA,NA,NA,NA
981340,"PO BOX 273","RUMNEY","NH",3266,NA,NA,340,"PO BOX 273, RUMNEY, NH, 3266","No_Match",NA,NA,NA,NA
981341,"PO BOX 273","SOMERSET","CA",95684,NA,NA,341,"PO BOX 273, SOMERSET, CA, 95684","No_Match",NA,NA,NA,NA
981342,"PO BOX 273","WARM SPRINGS","OR",97761,NA,NA,342,"PO BOX 273, WARM SPRINGS, OR, 97761","No_Match",NA,NA,NA,NA
981343,"PO BOX 273","WATERLOO","IA",50704,NA,NA,343,"PO BOX 273, WATERLOO, IA, 50704","No_Match",NA,NA,NA,NA
981344,"PO BOX 273","WEST GLACIER","MT",59936,NA,NA,344,"PO BOX 273, WEST GLACIER, MT, 59936","No_Match",NA,NA,NA,NA
981345,"PO BOX 2730","SPRINGFIELD","MO",65801,NA,NA,345,"PO BOX 2730, SPRINGFIELD, MO, 65801","No_Match",NA,NA,NA,NA
981346,"PO BOX 2731","CEDAR HILL","TX",75106,NA,NA,346,"PO BOX 2731, CEDAR HILL, TX, 75106","No_Match",NA,NA,NA,NA
981347,"PO BOX 2731","YORK","PA",17405,NA,NA,347,"PO BOX 2731, YORK, PA, 17405","No_Match",NA,NA,NA,NA
981348,"PO BOX 2732","GUAYNABO","PR",970,NA,NA,348,"PO BOX 2732, GUAYNABO, PR, 970","No_Match",NA,NA,NA,NA
981349,"PO BOX 2732","LEAGUE CITY","TX",77574,NA,NA,349,"PO BOX 2732, LEAGUE CITY, TX, 77574","No_Match",NA,NA,NA,NA
981350,"PO BOX 2732","MACON","GA",31203,NA,NA,350,"PO BOX 2732, MACON, GA, 31203","No_Match",NA,NA,NA,NA
981351,"PO BOX 2732","OXNARD","CA",93034,NA,NA,351,"PO BOX 2732, OXNARD, CA, 93034","No_Match",NA,NA,NA,NA
981352,"PO BOX 2732","PINE BLUFF","AR",71613,NA,NA,352,"PO BOX 2732, PINE BLUFF, AR, 71613","No_Match",NA,NA,NA,NA
981353,"PO BOX 2732","WEST COLUMBIA","SC",29171,NA,NA,353,"PO BOX 2732, WEST COLUMBIA, SC, 29171","No_Match",NA,NA,NA,NA
981354,"PO BOX 273302","BOCA RATON","FL",33427,NA,NA,354,"PO BOX 273302, BOCA RATON, FL, 33427","No_Match",NA,NA,NA,NA
981355,"PO BOX 27331","HOUSTON","TX",77227,NA,NA,355,"PO BOX 27331, HOUSTON, TX, 77227","No_Match",NA,NA,NA,NA
981356,"PO BOX 273313","TAMPA","FL",33624,NA,NA,356,"PO BOX 273313, TAMPA, FL, 33624","No_Match",NA,NA,NA,NA
981357,"PO BOX 273385","FORT COLLINS","CO",80527,NA,NA,357,"PO BOX 273385, FORT COLLINS, CO, 80527","No_Match",NA,NA,NA,NA
981358,"PO BOX 2734","TUBA CITY","AZ",86045,NA,NA,358,"PO BOX 2734, TUBA CITY, AZ, 86045","No_Match",NA,NA,NA,NA
981359,"PO BOX 2737","CLEVELAND","OH",44127,NA,NA,359,"PO BOX 2737, CLEVELAND, OH, 44127","No_Match",NA,NA,NA,NA
981360,"PO BOX 27376","CLEVELAND","OH",44127,NA,NA,360,"PO BOX 27376, CLEVELAND, OH, 44127","No_Match",NA,NA,NA,NA
981361,"PO BOX 2738","BIGFORK","MT",59911,NA,NA,361,"PO BOX 2738, BIGFORK, MT, 59911","No_Match",NA,NA,NA,NA
981362,"PO BOX 2738","GILLETTE","WY",82717,NA,NA,362,"PO BOX 2738, GILLETTE, WY, 82717","No_Match",NA,NA,NA,NA
981363,"PO BOX 2738","LEBANON","VA",24266,NA,NA,363,"PO BOX 2738, LEBANON, VA, 24266","No_Match",NA,NA,NA,NA
981364,"PO BOX 27391","SEATTLE","WA",98165,NA,NA,364,"PO BOX 27391, SEATTLE, WA, 98165","No_Match",NA,NA,NA,NA
981365,"PO BOX 274","ALBION","RI",2802,NA,NA,365,"PO BOX 274, ALBION, RI, 2802","No_Match",NA,NA,NA,NA
981366,"PO BOX 274","ASHLAND","IL",62612,NA,NA,366,"PO BOX 274, ASHLAND, IL, 62612","No_Match",NA,NA,NA,NA
981367,"PO BOX 274","CEDARVILLE","CA",96104,NA,NA,367,"PO BOX 274, CEDARVILLE, CA, 96104","No_Match",NA,NA,NA,NA
981368,"PO BOX 274","CLANCY","MT",59634,NA,NA,368,"PO BOX 274, CLANCY, MT, 59634","No_Match",NA,NA,NA,NA
981369,"PO BOX 274","DAVIS","WV",26260,NA,NA,369,"PO BOX 274, DAVIS, WV, 26260","No_Match",NA,NA,NA,NA
981370,"PO BOX 274","DAYTON","MT",59914,NA,NA,370,"PO BOX 274, DAYTON, MT, 59914","No_Match",NA,NA,NA,NA
981371,"PO BOX 274","E. STROUDSBURG","PA",18301,NA,NA,371,"PO BOX 274, E. STROUDSBURG, PA, 18301","No_Match",NA,NA,NA,NA
981372,"PO BOX 274","EVANSVILLE","MN",56326,NA,NA,372,"PO BOX 274, EVANSVILLE, MN, 56326","No_Match",NA,NA,NA,NA
981373,"PO BOX 274","FARMINGTON","WV",26571,NA,NA,373,"PO BOX 274, FARMINGTON, WV, 26571","No_Match",NA,NA,NA,NA
981374,"PO BOX 274","FATE","TX",75132,NA,NA,374,"PO BOX 274, FATE, TX, 75132","No_Match",NA,NA,NA,NA
981375,"PO BOX 274","FROST","TX",76641,NA,NA,375,"PO BOX 274, FROST, TX, 76641","No_Match",NA,NA,NA,NA
981376,"PO BOX 274","HANKINSON","ND",58041,NA,NA,376,"PO BOX 274, HANKINSON, ND, 58041","No_Match",NA,NA,NA,NA
981377,"PO BOX 274","KOOSKIA","ID",83539,NA,NA,377,"PO BOX 274, KOOSKIA, ID, 83539","No_Match",NA,NA,NA,NA
981378,"PO BOX 274","LEBANON","VA",24266,NA,NA,378,"PO BOX 274, LEBANON, VA, 24266","No_Match",NA,NA,NA,NA
981379,"PO BOX 274","ROGERS","MN",55374,NA,NA,379,"PO BOX 274, ROGERS, MN, 55374","No_Match",NA,NA,NA,NA
981380,"PO BOX 274","SALTILLO","MS",38866,NA,NA,380,"PO BOX 274, SALTILLO, MS, 38866","No_Match",NA,NA,NA,NA
981381,"PO BOX 274","SUNRAY","TX",79086,NA,NA,381,"PO BOX 274, SUNRAY, TX, 79086","No_Match",NA,NA,NA,NA
981382,"PO BOX 274","TOLEDO","OR",97391,NA,NA,382,"PO BOX 274, TOLEDO, OR, 97391","No_Match",NA,NA,NA,NA
981383,"PO BOX 274","WILLIAMSTON","MI",48895,NA,NA,383,"PO BOX 274, WILLIAMSTON, MI, 48895","No_Match",NA,NA,NA,NA
981384,"PO BOX 274","WOODBURY","CT",6798,NA,NA,384,"PO BOX 274, WOODBURY, CT, 6798","No_Match",NA,NA,NA,NA
981385,"PO BOX 2740","PAGE","AZ",86040,NA,NA,385,"PO BOX 2740, PAGE, AZ, 86040","No_Match",NA,NA,NA,NA
981386,"PO BOX 2741","ANGLETON","TX",77516,NA,NA,386,"PO BOX 2741, ANGLETON, TX, 77516","No_Match",NA,NA,NA,NA
981387,"PO BOX 2741","ELIZABETH CITY","NC",27909,NA,NA,387,"PO BOX 2741, ELIZABETH CITY, NC, 27909","No_Match",NA,NA,NA,NA
981388,"PO BOX 2741","MECHANICSVILLE","VA",23116,NA,NA,388,"PO BOX 2741, MECHANICSVILLE, VA, 23116","No_Match",NA,NA,NA,NA
981389,"PO BOX 274108","TAMPA","FL",33688,NA,NA,389,"PO BOX 274108, TAMPA, FL, 33688","No_Match",NA,NA,NA,NA
981390,"PO BOX 2742","EVANS","GA",30809,NA,NA,390,"PO BOX 2742, EVANS, GA, 30809","No_Match",NA,NA,NA,NA
981391,"PO BOX 2743","MCKINNEY","TX",75070,NA,NA,391,"PO BOX 2743, MCKINNEY, TX, 75070","No_Match",NA,NA,NA,NA
981392,"PO BOX 2745","WENATCHEE","WA",98807,NA,NA,392,"PO BOX 2745, WENATCHEE, WA, 98807","No_Match",NA,NA,NA,NA
981393,"PO BOX 27465","ALBUQUERQUE","NM",87125,NA,NA,393,"PO BOX 27465, ALBUQUERQUE, NM, 87125","No_Match",NA,NA,NA,NA
981394,"PO BOX 2747","ASPEN","CO",81612,NA,NA,394,"PO BOX 2747, ASPEN, CO, 81612","No_Match",NA,NA,NA,NA
981395,"PO BOX 2747","POST FALLS","ID",83877,NA,NA,395,"PO BOX 2747, POST FALLS, ID, 83877","No_Match",NA,NA,NA,NA
981396,"PO BOX 2749","CHARLESTON","WV",25330,NA,NA,396,"PO BOX 2749, CHARLESTON, WV, 25330","No_Match",NA,NA,NA,NA
981397,"PO BOX 27499","GOLDEN VALLEY","MN",55427,NA,NA,397,"PO BOX 27499, GOLDEN VALLEY, MN, 55427","No_Match",NA,NA,NA,NA
981398,"PO BOX 275","CHINO HILLS","CA",91709,NA,NA,398,"PO BOX 275, CHINO HILLS, CA, 91709","No_Match",NA,NA,NA,NA
981399,"PO BOX 275","CLIFTON","AZ",85533,NA,NA,399,"PO BOX 275, CLIFTON, AZ, 85533","No_Match",NA,NA,NA,NA
981400,"PO BOX 275","COOS BAY","OR",97420,NA,NA,400,"PO BOX 275, COOS BAY, OR, 97420","No_Match",NA,NA,NA,NA
981401,"PO BOX 275","FREDERICK","CO",80530,NA,NA,401,"PO BOX 275, FREDERICK, CO, 80530","No_Match",NA,NA,NA,NA
981402,"PO BOX 275","FROST","TX",76641,NA,NA,402,"PO BOX 275, FROST, TX, 76641","No_Match",NA,NA,NA,NA
981403,"PO BOX 275","HARTINGTON","NE",68739,NA,NA,403,"PO BOX 275, HARTINGTON, NE, 68739","No_Match",NA,NA,NA,NA
981404,"PO BOX 275","HARTWOOD","VA",22471,NA,NA,404,"PO BOX 275, HARTWOOD, VA, 22471","No_Match",NA,NA,NA,NA
981405,"PO BOX 275","HOBSON","MT",59452,NA,NA,405,"PO BOX 275, HOBSON, MT, 59452","No_Match",NA,NA,NA,NA
981406,"PO BOX 275","HURTSBORO","AL",36860,NA,NA,406,"PO BOX 275, HURTSBORO, AL, 36860","No_Match",NA,NA,NA,NA
981407,"PO BOX 275","IRON RIDGE","WI",53035,NA,NA,407,"PO BOX 275, IRON RIDGE, WI, 53035","No_Match",NA,NA,NA,NA
981408,"PO BOX 275","LEBO","KS",66856,NA,NA,408,"PO BOX 275, LEBO, KS, 66856","No_Match",NA,NA,NA,NA
981409,"PO BOX 275","LUCKEY","OH",43443,NA,NA,409,"PO BOX 275, LUCKEY, OH, 43443","No_Match",NA,NA,NA,NA
981410,"PO BOX 275","LYLE","WA",98635,NA,NA,410,"PO BOX 275, LYLE, WA, 98635","No_Match",NA,NA,NA,NA
981411,"PO BOX 275","MADISON HEIGHTS","VA",24572,NA,NA,411,"PO BOX 275, MADISON HEIGHTS, VA, 24572","No_Match",NA,NA,NA,NA
981412,"PO BOX 275","MANVEL","TX",77578,NA,NA,412,"PO BOX 275, MANVEL, TX, 77578","No_Match",NA,NA,NA,NA
981413,"PO BOX 275","MARBLE CITY","OK",74945,NA,NA,413,"PO BOX 275, MARBLE CITY, OK, 74945","No_Match",NA,NA,NA,NA
981414,"PO BOX 275","MARBLE FALLS","TX",78654,NA,NA,414,"PO BOX 275, MARBLE FALLS, TX, 78654","No_Match",NA,NA,NA,NA
981415,"PO BOX 275","MEGARGEL","TX",76370,NA,NA,415,"PO BOX 275, MEGARGEL, TX, 76370","No_Match",NA,NA,NA,NA
981416,"PO BOX 275","MIDDLE GRANVILLE","NY",12849,NA,NA,416,"PO BOX 275, MIDDLE GRANVILLE, NY, 12849","No_Match",NA,NA,NA,NA
981417,"PO BOX 275","NATOMA","KS",67651,NA,NA,417,"PO BOX 275, NATOMA, KS, 67651","No_Match",NA,NA,NA,NA
981418,"PO BOX 275","RUNNING SPRINGS","CA",92382,NA,NA,418,"PO BOX 275, RUNNING SPRINGS, CA, 92382","No_Match",NA,NA,NA,NA
981419,"PO BOX 275","SPENCERPORT","NY",14559,NA,NA,419,"PO BOX 275, SPENCERPORT, NY, 14559","No_Match",NA,NA,NA,NA
981420,"PO BOX 275","TEMPLE","GA",30179,NA,NA,420,"PO BOX 275, TEMPLE, GA, 30179","No_Match",NA,NA,NA,NA
981421,"PO BOX 275","WACCABUC","NY",10597,NA,NA,421,"PO BOX 275, WACCABUC, NY, 10597","No_Match",NA,NA,NA,NA
981422,"PO BOX 2751","MONTAUK","NY",11954,NA,NA,422,"PO BOX 2751, MONTAUK, NY, 11954","No_Match",NA,NA,NA,NA
981423,"PO BOX 2751","ROANOKE","VA",24001,NA,NA,423,"PO BOX 2751, ROANOKE, VA, 24001","No_Match",NA,NA,NA,NA
981424,"PO BOX 2751","TOLEDO","OH",43606,NA,NA,424,"PO BOX 2751, TOLEDO, OH, 43606","No_Match",NA,NA,NA,NA
981425,"PO BOX 27514","HOUSTON","TX",77227,NA,NA,425,"PO BOX 27514, HOUSTON, TX, 77227","No_Match",NA,NA,NA,NA
981426,"PO BOX 27517","LOS ANGELES","CA",90027,NA,NA,426,"PO BOX 27517, LOS ANGELES, CA, 90027","No_Match",NA,NA,NA,NA
981427,"PO BOX 2752","LAS VEGAS","NM",87701,NA,NA,427,"PO BOX 2752, LAS VEGAS, NM, 87701","No_Match",NA,NA,NA,NA
981428,"PO BOX 2752","RENO","NV",89505,NA,NA,428,"PO BOX 2752, RENO, NV, 89505","No_Match",NA,NA,NA,NA
981429,"PO BOX 2754","HARKER HEIGHTS","TX",76548,NA,NA,429,"PO BOX 2754, HARKER HEIGHTS, TX, 76548","No_Match",NA,NA,NA,NA
981430,"PO BOX 2754","MANASSAS","VA",20108,NA,NA,430,"PO BOX 2754, MANASSAS, VA, 20108","No_Match",NA,NA,NA,NA
981431,"PO BOX 2754","VISALIA","CA",93279,NA,NA,431,"PO BOX 2754, VISALIA, CA, 93279","No_Match",NA,NA,NA,NA
981432,"PO BOX 2754","YAKIMA","WA",98907,NA,NA,432,"PO BOX 2754, YAKIMA, WA, 98907","No_Match",NA,NA,NA,NA
981433,"PO BOX 2755","NIAGARA FALLS","NY",14302,NA,NA,433,"PO BOX 2755, NIAGARA FALLS, NY, 14302","No_Match",NA,NA,NA,NA
981434,"PO BOX 27552","RALEIGH","NC",27611,NA,NA,434,"PO BOX 27552, RALEIGH, NC, 27611","No_Match",NA,NA,NA,NA
981435,"PO BOX 2756","BERKELEY","CA",94702,NA,NA,435,"PO BOX 2756, BERKELEY, CA, 94702","No_Match",NA,NA,NA,NA
981436,"PO BOX 2756","SHELBY","NC",28151,NA,NA,436,"PO BOX 2756, SHELBY, NC, 28151","No_Match",NA,NA,NA,NA
981437,"PO BOX 2757","SOUTHFIELD","MI",48037,NA,NA,437,"PO BOX 2757, SOUTHFIELD, MI, 48037","No_Match",NA,NA,NA,NA
981438,"PO BOX 27571","TUCSON","AZ",85726,NA,NA,438,"PO BOX 27571, TUCSON, AZ, 85726","No_Match",NA,NA,NA,NA
981439,"PO BOX 27573","SAN DIEGO","CA",92198,NA,NA,439,"PO BOX 27573, SAN DIEGO, CA, 92198","No_Match",NA,NA,NA,NA
981440,"PO BOX 2759","PALM DESERT","CA",92261,NA,NA,440,"PO BOX 2759, PALM DESERT, CA, 92261","No_Match",NA,NA,NA,NA
981441,"PO BOX 276  72 SERENADE LANE","HARPERS FERRY","WV",25425,39.390896405,-77.742907244,441,"PO BOX 276  72 SERENADE LANE, HARPERS FERRY, WV, 25425","Match","Exact","72 SERENADE LN, HARPERS FERRY, WV, 25425",123430446,"R"
981442,"PO BOX 276 A","HONDO","NM",88336,NA,NA,442,"PO BOX 276 A, HONDO, NM, 88336","No_Match",NA,NA,NA,NA
981443,"PO BOX 276","ALLEN","NE",68710,NA,NA,443,"PO BOX 276, ALLEN, NE, 68710","No_Match",NA,NA,NA,NA
981444,"PO BOX 276","BIG SANDY","TX",75755,NA,NA,444,"PO BOX 276, BIG SANDY, TX, 75755","No_Match",NA,NA,NA,NA
981445,"PO BOX 276","BRISTOL","ME",4539,NA,NA,445,"PO BOX 276, BRISTOL, ME, 4539","No_Match",NA,NA,NA,NA
981446,"PO BOX 276","BRUNSWICK","ME",4539,NA,NA,446,"PO BOX 276, BRUNSWICK, ME, 4539","No_Match",NA,NA,NA,NA
981447,"PO BOX 276","CENTERTON","AR",72719,NA,NA,447,"PO BOX 276, CENTERTON, AR, 72719","No_Match",NA,NA,NA,NA
981448,"PO BOX 276","CHATHAM","MI",49816,NA,NA,448,"PO BOX 276, CHATHAM, MI, 49816","No_Match",NA,NA,NA,NA
981449,"PO BOX 276","CHILHOWIE","VA",24319,NA,NA,449,"PO BOX 276, CHILHOWIE, VA, 24319","No_Match",NA,NA,NA,NA
981450,"PO BOX 276","CLEARLAKE","CA",95422,NA,NA,450,"PO BOX 276, CLEARLAKE, CA, 95422","No_Match",NA,NA,NA,NA
981451,"PO BOX 276","E LONGMEADOW","MA",1028,NA,NA,451,"PO BOX 276, E LONGMEADOW, MA, 1028","No_Match",NA,NA,NA,NA
981452,"PO BOX 276","EDEN","UT",84310,NA,NA,452,"PO BOX 276, EDEN, UT, 84310","No_Match",NA,NA,NA,NA
981453,"PO BOX 276","EMORY","TX",75440,NA,NA,453,"PO BOX 276, EMORY, TX, 75440","No_Match",NA,NA,NA,NA
981454,"PO BOX 276","FORT ATKINSON","WI",53538,NA,NA,454,"PO BOX 276, FORT ATKINSON, WI, 53538","No_Match",NA,NA,NA,NA
981455,"PO BOX 276","FRISCO","TX",75034,NA,NA,455,"PO BOX 276, FRISCO, TX, 75034","No_Match",NA,NA,NA,NA
981456,"PO BOX 276","GOOSE CREEK","SC",29445,NA,NA,456,"PO BOX 276, GOOSE CREEK, SC, 29445","No_Match",NA,NA,NA,NA
981457,"PO BOX 276","GOSHEN","NH",3752,NA,NA,457,"PO BOX 276, GOSHEN, NH, 3752","No_Match",NA,NA,NA,NA
981458,"PO BOX 276","KURTISTOWN","HI",96760,NA,NA,458,"PO BOX 276, KURTISTOWN, HI, 96760","No_Match",NA,NA,NA,NA
981459,"PO BOX 276","LACROSSE","FL",32658,NA,NA,459,"PO BOX 276, LACROSSE, FL, 32658","No_Match",NA,NA,NA,NA
981460,"PO BOX 276","LOCUST GROVE","VA",22508,NA,NA,460,"PO BOX 276, LOCUST GROVE, VA, 22508","No_Match",NA,NA,NA,NA
981461,"PO BOX 276","LOUVIERS","CO",80131,NA,NA,461,"PO BOX 276, LOUVIERS, CO, 80131","No_Match",NA,NA,NA,NA
981462,"PO BOX 276","MILACA","MN",56353,NA,NA,462,"PO BOX 276, MILACA, MN, 56353","No_Match",NA,NA,NA,NA
981463,"PO BOX 276","NAALEHU","HI",96772,NA,NA,463,"PO BOX 276, NAALEHU, HI, 96772","No_Match",NA,NA,NA,NA
981464,"PO BOX 276","NEWTOWN","CT",6470,NA,NA,464,"PO BOX 276, NEWTOWN, CT, 6470","No_Match",NA,NA,NA,NA
981465,"PO BOX 276","SAXTONS RIVER","VT",5154,NA,NA,465,"PO BOX 276, SAXTONS RIVER, VT, 5154","No_Match",NA,NA,NA,NA
981466,"PO BOX 276","SOUTH HERO","VT",5486,NA,NA,466,"PO BOX 276, SOUTH HERO, VT, 5486","No_Match",NA,NA,NA,NA
981467,"PO BOX 276","SUSSEX","WI",53089,NA,NA,467,"PO BOX 276, SUSSEX, WI, 53089","No_Match",NA,NA,NA,NA
981468,"PO BOX 276","WALNUT","CA",91788,NA,NA,468,"PO BOX 276, WALNUT, CA, 91788","No_Match",NA,NA,NA,NA
981469,"PO BOX 276","WINTON","NC",27986,NA,NA,469,"PO BOX 276, WINTON, NC, 27986","No_Match",NA,NA,NA,NA
981470,"PO BOX 2760","BLUE RIDGE","GA",30513,NA,NA,470,"PO BOX 2760, BLUE RIDGE, GA, 30513","No_Match",NA,NA,NA,NA
981471,"PO BOX 2760","FAIRFIELD","CA",94533,NA,NA,471,"PO BOX 2760, FAIRFIELD, CA, 94533","No_Match",NA,NA,NA,NA
981472,"PO BOX 2761","CUMMING","GA",30028,NA,NA,472,"PO BOX 2761, CUMMING, GA, 30028","No_Match",NA,NA,NA,NA
981473,"PO BOX 2762","COVINGTON","GA",30015,NA,NA,473,"PO BOX 2762, COVINGTON, GA, 30015","No_Match",NA,NA,NA,NA
981474,"PO BOX 27637","SAN FRANCISCO","CA",94127,NA,NA,474,"PO BOX 27637, SAN FRANCISCO, CA, 94127","No_Match",NA,NA,NA,NA
981475,"PO BOX 2764","CEDAR PARK","TX",78630,NA,NA,475,"PO BOX 2764, CEDAR PARK, TX, 78630","No_Match",NA,NA,NA,NA
981476,"PO BOX 27657","SAN ANTONIO","TX",78227,NA,NA,476,"PO BOX 27657, SAN ANTONIO, TX, 78227","No_Match",NA,NA,NA,NA
981477,"PO BOX 2766","STAMFORD","CT",6906,NA,NA,477,"PO BOX 2766, STAMFORD, CT, 6906","No_Match",NA,NA,NA,NA
981478,"PO BOX 27672","PHILADELPHIA","PA",19118,NA,NA,478,"PO BOX 27672, PHILADELPHIA, PA, 19118","No_Match",NA,NA,NA,NA
981479,"PO BOX 276732","SACRAMENTO","CA",95827,NA,NA,479,"PO BOX 276732, SACRAMENTO, CA, 95827","No_Match",NA,NA,NA,NA
981480,"PO BOX 27685","LOS ANGELES","CA",90027,NA,NA,480,"PO BOX 27685, LOS ANGELES, CA, 90027","No_Match",NA,NA,NA,NA
981481,"PO BOX 27687","DETROIT","MI",48207,NA,NA,481,"PO BOX 27687, DETROIT, MI, 48207","No_Match",NA,NA,NA,NA
981482,"PO BOX 2769","COTTONWOOD","AZ",86326,NA,NA,482,"PO BOX 2769, COTTONWOOD, AZ, 86326","No_Match",NA,NA,NA,NA
981483,"PO BOX 277","ALVARADO","TX",76009,NA,NA,483,"PO BOX 277, ALVARADO, TX, 76009","No_Match",NA,NA,NA,NA
981484,"PO BOX 277","BENTON","TN",37307,NA,NA,484,"PO BOX 277, BENTON, TN, 37307","No_Match",NA,NA,NA,NA
981485,"PO BOX 277","BOTKINS","OH",45306,NA,NA,485,"PO BOX 277, BOTKINS, OH, 45306","No_Match",NA,NA,NA,NA
981486,"PO BOX 277","BUFFALO","TX",75831,NA,NA,486,"PO BOX 277, BUFFALO, TX, 75831","No_Match",NA,NA,NA,NA
981487,"PO BOX 277","CADDO MILLS","TX",75135,NA,NA,487,"PO BOX 277, CADDO MILLS, TX, 75135","No_Match",NA,NA,NA,NA
981488,"PO BOX 277","CANUTE","OK",73626,NA,NA,488,"PO BOX 277, CANUTE, OK, 73626","No_Match",NA,NA,NA,NA
981489,"PO BOX 277","CLEVELAND","GA",30528,NA,NA,489,"PO BOX 277, CLEVELAND, GA, 30528","No_Match",NA,NA,NA,NA
981490,"PO BOX 277","ELGIN","SC",29045,NA,NA,490,"PO BOX 277, ELGIN, SC, 29045","No_Match",NA,NA,NA,NA
981491,"PO BOX 277","FAIRFOREST","SC",29336,NA,NA,491,"PO BOX 277, FAIRFOREST, SC, 29336","No_Match",NA,NA,NA,NA
981492,"PO BOX 277","FALMOUTH","MA",2541,NA,NA,492,"PO BOX 277, FALMOUTH, MA, 2541","No_Match",NA,NA,NA,NA
981493,"PO BOX 277","FREDERICK","PA",19435,NA,NA,493,"PO BOX 277, FREDERICK, PA, 19435","No_Match",NA,NA,NA,NA
981494,"PO BOX 277","HARRISON","AR",72602,NA,NA,494,"PO BOX 277, HARRISON, AR, 72602","No_Match",NA,NA,NA,NA
981495,"PO BOX 277","LOVELL","ME",4016,NA,NA,495,"PO BOX 277, LOVELL, ME, 4016","No_Match",NA,NA,NA,NA
981496,"PO BOX 277","LUSBY","MD",20657,NA,NA,496,"PO BOX 277, LUSBY, MD, 20657","No_Match",NA,NA,NA,NA
981497,"PO BOX 277","LUTSEN","MN",55612,NA,NA,497,"PO BOX 277, LUTSEN, MN, 55612","No_Match",NA,NA,NA,NA
981498,"PO BOX 277","LUXORA","AR",72358,NA,NA,498,"PO BOX 277, LUXORA, AR, 72358","No_Match",NA,NA,NA,NA
981499,"PO BOX 277","MARENGO","IN",47140,NA,NA,499,"PO BOX 277, MARENGO, IN, 47140","No_Match",NA,NA,NA,NA
981500,"PO BOX 277","MAYAGUEZ","PR",681,NA,NA,500,"PO BOX 277, MAYAGUEZ, PR, 681","No_Match",NA,NA,NA,NA
