"ID","Address","City","State","Zip","lat","long","id","input_address","match_indicator","match_type","matched_address","tiger_line_id","tiger_side"
775001,"6240 PEGGOTTY AVE","LAS VEGAS","NV",89130,36.274274109,-115.229603833,1,"6240 PEGGOTTY AVE, LAS VEGAS, NV, 89130","Match","Exact","6240 PEGGOTTY AVE, LAS VEGAS, NV, 89130",202004389,"R"
775002,"6240 POST ROAD","CUMMING","GA",30040,34.178109772,-84.2216889869999,2,"6240 POST ROAD, CUMMING, GA, 30040","Match","Exact","6240 POST RD, CUMMING, GA, 30040",70177431,"L"
775003,"6240 PRIMROSE DR","LA MESA","CA",91942,32.791374391,-116.988959657,3,"6240 PRIMROSE DR, LA MESA, CA, 91942","Match","Exact","6240 PRIMROSE DR, LA MESA, CA, 91942",649823621,"L"
775004,"6240 ROSSING ST","HURLOCK","MD",21643,38.6265809720001,-75.8504322699999,4,"6240 ROSSING ST, HURLOCK, MD, 21643","Match","Exact","6240 ROSSING ST, HURLOCK, MD, 21643",99665482,"R"
775005,"6240 ROSSING STREET","HURLOCK","MD",21643,38.6265809720001,-75.8504322699999,5,"6240 ROSSING STREET, HURLOCK, MD, 21643","Match","Exact","6240 ROSSING ST, HURLOCK, MD, 21643",99665482,"R"
775006,"6240 ROYAL LAKES ESTATES AVE","GONZALES","LA",70737,30.1608700840001,-90.932717541,6,"6240 ROYAL LAKES ESTATES AVE, GONZALES, LA, 70737","Match","Exact","6240 ROYAL LAKES ESTATES AVE, GONZALES, LA, 70737",625390051,"R"
775007,"6240 S 16TH DR","PHOENIX","AZ",85040,NA,NA,7,"6240 S 16TH DR, PHOENIX, AZ, 85040","No_Match",NA,NA,NA,NA
775008,"6240 S BISHOP STREET","CHICAGO","IL",60636,41.780572669,-87.660607372,8,"6240 S BISHOP STREET, CHICAGO, IL, 60636","Match","Exact","6240 S BISHOP ST, CHICAGO, IL, 60636",605487526,"R"
775009,"6240 S CONGRESS AVE SUITE G6","LANTANA","FL",33462,26.5838963940001,-80.092469659,9,"6240 S CONGRESS AVE SUITE G6, LANTANA, FL, 33462","Match","Non_Exact","6240 S CONGRESS AVE, LANTANA, FL, 33462",650064638,"L"
775010,"6240 SANDRISE COURT  301","ELKRIDGE","MD",21075,39.2066151430001,-76.734095353,10,"6240 SANDRISE COURT  301, ELKRIDGE, MD, 21075","Match","Exact","6240 SANDRISE CT, ELKRIDGE, MD, 21075",158937060,"R"
775011,"6240 SANDRISE COURT  APT 301","ELKRIDGE","MD",21075,39.2066151430001,-76.734095353,11,"6240 SANDRISE COURT  APT 301, ELKRIDGE, MD, 21075","Match","Exact","6240 SANDRISE CT, ELKRIDGE, MD, 21075",158937060,"R"
775012,"6240 SANDRISE COURT 301","ELKRIDGE","MD",21075,39.2066151430001,-76.734095353,12,"6240 SANDRISE COURT 301, ELKRIDGE, MD, 21075","Match","Exact","6240 SANDRISE CT, ELKRIDGE, MD, 21075",158937060,"R"
775013,"6240 SEVENOAKS AVE","BATON ROUGE","LA",70806,30.440716255,-91.125881052,13,"6240 SEVENOAKS AVE, BATON ROUGE, LA, 70806","Match","Exact","6240 SEVENOAKS AVE, BATON ROUGE, LA, 70806",92189206,"R"
775014,"6240 SW 171ST AVE","BEAVERTON","OR",97007,45.474588075,-122.852525064,14,"6240 SW 171ST AVE, BEAVERTON, OR, 97007","Match","Exact","6240 SW 171ST AVE, BEAVERTON, OR, 97007",158183983,"L"
775015,"6240 SW 20 STREET","MIAMI","FL",33155,25.752196381,-80.296418204,15,"6240 SW 20 STREET, MIAMI, FL, 33155","Match","Exact","6240 SW 20TH ST, MIAMI, FL, 33155",115977485,"L"
775016,"6240 SW TRELLIS DR","CORVALLIS","OR",97333,44.5572814020001,-123.322960787,16,"6240 SW TRELLIS DR, CORVALLIS, OR, 97333","Match","Exact","6240 SW TRELLIS DR, CORVALLIS, OR, 97333",155870657,"R"
775017,"6240 SYLMAR AVENUE","VAN NUYS","CA",91401,34.1834355890001,-118.446519418,17,"6240 SYLMAR AVENUE, VAN NUYS, CA, 91401","Match","Exact","6240 SYLMAR AVE, VAN NUYS, CA, 91401",638098759,"R"
775018,"6240 TIMBERVIEW DRIVE","LANSING","MI",48906,NA,NA,18,"6240 TIMBERVIEW DRIVE, LANSING, MI, 48906","No_Match",NA,NA,NA,NA
775019,"6240 TURRET DR","COLORADO SPRINGS","CO",80918,38.92207856,-104.800209643,19,"6240 TURRET DR, COLORADO SPRINGS, CO, 80918","Match","Exact","6240 TURRET DR, COLORADO SPRINGS, CO, 80918",105510010,"L"
775020,"6240 W ORCHID LN","CHANDLER","AZ",85226,33.3235804130001,-111.947153849,20,"6240 W ORCHID LN, CHANDLER, AZ, 85226","Match","Exact","6240 W ORCHID LN, CHANDLER, AZ, 85226",640976679,"R"
775021,"6240 W SAN JOSE","FRESNO","CA",93723,NA,NA,21,"6240 W SAN JOSE, FRESNO, CA, 93723","No_Match",NA,NA,NA,NA
775022,"6240 WEST 156TH ST","OVERLAND PARK","KS",66223,38.846925905,-94.658485965,22,"6240 WEST 156TH ST, OVERLAND PARK, KS, 66223","Match","Exact","6240 W 156TH ST, OVERLAND PARK, KS, 66223",91308720,"R"
775023,"6240 WEST BORAX AVENUE","KEARNS","UT",84118,40.645480736,-112.040175102,23,"6240 WEST BORAX AVENUE, KEARNS, UT, 84118","Match","Non_Exact","6240 BORAX AVE, KEARNS, UT, 84118",176115220,"R"
775024,"6240 WEST OAKLAND PARK BLVD 190051","MOORE HAVEN","FL",33417,NA,NA,24,"6240 WEST OAKLAND PARK BLVD 190051, MOORE HAVEN, FL, 33417","No_Match",NA,NA,NA,NA
775025,"6240 WESTBURY DRIVE","SALISBURY","MD",21801,38.366365466,-75.664751372,25,"6240 WESTBURY DRIVE, SALISBURY, MD, 21801","Match","Exact","6240 WESTBURY DR, SALISBURY, MD, 21801",643638371,"L"
775026,"6240 WRIGHT ROAD","CANAL WINCHESTER","OH",43110,39.888296698,-82.822546656,26,"6240 WRIGHT ROAD, CANAL WINCHESTER, OH, 43110","Match","Exact","6240 WRIGHT RD, CANAL WINCHESTER, OH, 43110",637308040,"L"
775027,"62405 HIDDEN POND DRIVE","WASHINGTON TWP","MI",48094,42.753707127,-83.025336506,27,"62405 HIDDEN POND DRIVE, WASHINGTON TWP, MI, 48094","Match","Exact","62405 HIDDEN POND DR, WASHINGTON TOWNSHIP, MI, 48094",110727250,"R"
775028,"62407 COND DRIVE","JONES","MI",49061,41.890457778,-85.800237242,28,"62407 COND DRIVE, JONES, MI, 49061","Match","Exact","62407 COND DR, JONES, MI, 49061",22579236,"R"
775029,"6241 63RD AVENUE","TUSCALOOSA","AL",35401,33.152677248,-87.615805525,29,"6241 63RD AVENUE, TUSCALOOSA, AL, 35401","Match","Exact","6241 63RD AVE, TUSCALOOSA, AL, 35401",82179954,"R"
775030,"6241 ALLEN RD","ELK","WA",99009,48.047535849,-117.245177877,30,"6241 ALLEN RD, ELK, WA, 99009","Match","Exact","6241 ALLEN RD, ELK, WA, 99009",169919647,"R"
775031,"6241 AQUATIC CIRCLE","COLORADO SPRINGS","CO",80923,38.9225549070001,-104.702464323,31,"6241 AQUATIC CIRCLE, COLORADO SPRINGS, CO, 80923","Match","Exact","6241 AQUATIC CIR, COLORADO SPRINGS, CO, 80923",105575115,"R"
775032,"6241 BANDELERO DRIVE","EL PASO","TX",79912,31.8463751530001,-106.529421622,32,"6241 BANDELERO DRIVE, EL PASO, TX, 79912","Match","Non_Exact","6241 BANDOLERO DR, EL PASO, TX, 79912",189334978,"R"
775033,"6241 BERKSHIRE LN","RACINE","WI",53406,42.750087367,-87.8574918639999,33,"6241 BERKSHIRE LN, RACINE, WI, 53406","Match","Exact","6241 BERKSHIRE LN, RACINE, WI, 53406",77927375,"L"
775034,"6241 BIRCH HILL DRIVE","MADISON","WI",53711,43.0328137660001,-89.489970068,34,"6241 BIRCH HILL DRIVE, MADISON, WI, 53711","Match","Exact","6241 BIRCH HILL DR, MADISON, WI, 53711",49557711,"L"
775035,"6241 DOLORES DRIVE","OAK FOREST","IL",60452,41.607684686,-87.7722203549999,35,"6241 DOLORES DRIVE, OAK FOREST, IL, 60452","Match","Exact","6241 DOLORES DR, OAK FOREST, IL, 60452",111702586,"L"
775036,"6241 E STATE ROAD 62","DALE","IN",47523,38.1681039580001,-86.938316887,36,"6241 E STATE ROAD 62, DALE, IN, 47523","Match","Exact","6241 STATE RD 62, DALE, IN, 47523",7995194,"L"
775037,"6241 ERIC LANE","MONTGOMERY","AL",36116,32.3037675090001,-86.22674705,37,"6241 ERIC LANE, MONTGOMERY, AL, 36116","Match","Exact","6241 ERIC LN, MONTGOMERY, AL, 36116",1484747,"R"
775038,"6241 HAZELTINE BLVD","EXCELSIOR","MN",55331,NA,NA,38,"6241 HAZELTINE BLVD, EXCELSIOR, MN, 55331","No_Match",NA,NA,NA,NA
775039,"6241 ITASKA","SAINT LOUIS","MO",63109,38.58555439,-90.296906367,39,"6241 ITASKA, SAINT LOUIS, MO, 63109","Match","Non_Exact","6241 ITASKA ST, SAINT LOUIS, MO, 63109",605135519,"R"
775040,"6241 JACK LONDON CIRCLE","SACRAMENTO","CA",95842,38.68383873,-121.352751859,40,"6241 JACK LONDON CIRCLE, SACRAMENTO, CA, 95842","Match","Exact","6241 JACK LONDON CIR, SACRAMENTO, CA, 95842",133332253,"L"
775041,"6241 LAKE LUCERNE DR","SAN DIEGO","CA",92119,32.79295618,-117.035579979,41,"6241 LAKE LUCERNE DR, SAN DIEGO, CA, 92119","Match","Exact","6241 LAKE LUCERNE DR, SAN DIEGO, CA, 92119",195325300,"R"
775042,"6241 LAKESIDE DRIVE","QUINTON","VA",23141,37.4888507920001,-77.12905005,42,"6241 LAKESIDE DRIVE, QUINTON, VA, 23141","Match","Exact","6241 LAKESIDE DR, QUINTON, VA, 23141",106730498,"R"
775043,"6241 LARCHWOOD AVENUE","PHILADELPHIA","PA",19143,39.9545771590001,-75.247239502,43,"6241 LARCHWOOD AVENUE, PHILADELPHIA, PA, 19143","Match","Exact","6241 LARCHWOOD AVE, PHILADELPHIA, PA, 19143",131397630,"R"
775044,"6241 LINDSEY ROAD","MYRTLE BEACH","SC",29588,33.676143521,-79.026866652,44,"6241 LINDSEY ROAD, MYRTLE BEACH, SC, 29588","Match","Exact","6241 LINDSEY RD, MYRTLE BEACH, SC, 29588",29072720,"L"
775045,"6241 MORNING DOVE DRIVE","BATON ROUGE","LA",70817,30.3935413950001,-91.036665869,45,"6241 MORNING DOVE DRIVE, BATON ROUGE, LA, 70817","Match","Non_Exact","6241 MOURNING DOVE DR, BATON ROUGE, LA, 70817",606191511,"R"
775046,"6241 N 600 E","FREMONT","IN",46737,41.73507441,-84.8794589249999,46,"6241 N 600 E, FREMONT, IN, 46737","Match","Exact","6241 N 600 E, FREMONT, IN, 46737",7722439,"L"
775047,"6241 N WINTHROP APT 305","CHICAGO","IL",60660,NA,NA,47,"6241 N WINTHROP APT 305, CHICAGO, IL, 60660","No_Match",NA,NA,NA,NA
775048,"6241 OAK CLUSTER CIRCLE","TAMPA","FL",33624,28.0179968620001,-82.549125985,48,"6241 OAK CLUSTER CIRCLE, TAMPA, FL, 33624","Match","Non_Exact","6241 OAK CLUSTER CIR, TAMPA, FL, 33634",104508224,"R"
775049,"6241 OAKLAND DRIVE","WOODBRIDGE","VA",22193,38.668697068,-77.393972639,49,"6241 OAKLAND DRIVE, WOODBRIDGE, VA, 22193","Match","Exact","6241 OAKLAND DR, WOODBRIDGE, VA, 22193",207157552,"R"
775050,"6241 SALAMANDER RUN LANE","CHARLOTTE","NC",28215,35.2550234010001,-80.720484999,50,"6241 SALAMANDER RUN LANE, CHARLOTTE, NC, 28215","Match","Exact","6241 SALAMANDER RUN LN, CHARLOTTE, NC, 28215",608601436,"R"
775051,"6241 ST REGIS CIRCLE APT 104","RALEIGH","NC",27606,NA,NA,51,"6241 ST REGIS CIRCLE APT 104, RALEIGH, NC, 27606","No_Match",NA,NA,NA,NA
775052,"6241 STONEHENGE CIRCLE","BURLINGTON","KY",41005,39.020932741,-84.7289758859999,52,"6241 STONEHENGE CIRCLE, BURLINGTON, KY, 41005","Match","Exact","6241 STONEHENGE CIR, BURLINGTON, KY, 41005",81950862,"L"
775053,"6241 SW 138 CT UNIT F","MIAMI","FL",33183,25.708773562,-80.417362539,53,"6241 SW 138 CT UNIT F, MIAMI, FL, 33183","Match","Non_Exact","6241 SW 138TH CT, MIAMI, FL, 33183",116282328,"L"
775054,"6241 SWEETWATER DR W","LAKELAND","FL",33811,27.9513845910001,-82.019951852,54,"6241 SWEETWATER DR W, LAKELAND, FL, 33811","Match","Exact","6241 SWEETWATER DR W, LAKELAND, FL, 33811",104838774,"R"
775055,"6241 VERNON STREET","LONG BEACH","CA",90815,33.8018998950001,-118.110514108,55,"6241 VERNON STREET, LONG BEACH, CA, 90815","Match","Non_Exact","6241 E VERNON ST, LONG BEACH, CA, 90815",141745749,"L"
775056,"6241 W BROADWAY","BROOKLYN PARK","MN",55428,45.067618285,-93.3754861039999,56,"6241 W BROADWAY, BROOKLYN PARK, MN, 55428","Match","Non_Exact","6241 W BROADWAY AVE, BROOKLYN PARK, MN, 55428",647771077,"L"
775057,"6241 W KINNICKINNIC RIVER PKWY","MIWAUKEE","WI",53219,42.9937163320001,-87.990699498,57,"6241 W KINNICKINNIC RIVER PKWY, MIWAUKEE, WI, 53219","Match","Non_Exact","6241 W KINNICKINNIC RIVER PKWY, MILWAUKEE, WI, 53219",77747838,"L"
775058,"6241 WARNER AVE SPC 176","HUNTINGTON BEACH","CA",92647,33.7155370940001,-118.023041668,58,"6241 WARNER AVE SPC 176, HUNTINGTON BEACH, CA, 92647","Match","Exact","6241 WARNER AVE, HUNTINGTON BEACH, CA, 92647",609065967,"L"
775059,"6241 WARNER AVENUE APT 134","HUNTINGTON BEACH","CA",92647,33.7155370940001,-118.023041668,59,"6241 WARNER AVENUE APT 134, HUNTINGTON BEACH, CA, 92647","Match","Exact","6241 WARNER AVE, HUNTINGTON BEACH, CA, 92647",609065967,"L"
775060,"6241 WARWICK RD","RICHMOND","VA",23225,37.5008220870001,-77.5116017569999,60,"6241 WARWICK RD, RICHMOND, VA, 23225","Match","Exact","6241 WARWICK RD, RICHMOND, VA, 23225",652494469,"L"
775061,"6241","GALENA","OH",43021,NA,NA,61,"6241, GALENA, OH, 43021","No_Match",NA,NA,NA,NA
775062,"62410 ERICKSON ROAD","BEND","OR",97701,44.0801338810001,-121.207738749,62,"62410 ERICKSON ROAD, BEND, OR, 97701","Match","Exact","62410 ERICKSON RD, BEND, OR, 97701",152558748,"R"
775063,"6242 38TH AVE NE","SEATTLE","WA",98115,47.6743298320001,-122.286913417,63,"6242 38TH AVE NE, SEATTLE, WA, 98115","Match","Exact","6242 38TH AVE NE, SEATTLE, WA, 98115",239762204,"R"
775064,"6242 AGASSI ACE CT","SPRING","TX",77379,30.0181830290001,-95.501905639,64,"6242 AGASSI ACE CT, SPRING, TX, 77379","Match","Exact","6242 AGASSI ACE CT, SPRING, TX, 77379",96164816,"R"
775065,"6242 BOARDMAN RD NW","OLYMPIA","WA",98502,47.122081495,-122.966848485,65,"6242 BOARDMAN RD NW, OLYMPIA, WA, 98502","Match","Exact","6242 BOARDMAN RD NW, OLYMPIA, WA, 98502",180980687,"R"
775066,"6242 EAST ARBOR AVENUE SUITE 111","MESA","AZ",85206,33.412741474,-111.697042621,66,"6242 EAST ARBOR AVENUE SUITE 111, MESA, AZ, 85206","Match","Exact","6242 E ARBOR AVE, MESA, AZ, 85206",128928616,"R"
775067,"6242 GOLDEN EAGLE WAY","BILLINGS","MT",59106,45.804844374,-108.676006417,67,"6242 GOLDEN EAGLE WAY, BILLINGS, MT, 59106","Match","Exact","6242 GOLDEN EAGLE WAY, BILLINGS, MT, 59106",608053363,"R"
775068,"6242 LIBERTY MILL","FENTON","MI",48430,42.6947783900001,-83.766952985,68,"6242 LIBERTY MILL, FENTON, MI, 48430","Match","Non_Exact","6242 LIBERTY MILL DR, FENTON, MI, 48430",614117700,"L"
775069,"6242 MILL BRANCH ROAD","COLUMBUS","GA",31907,32.4736354720001,-84.884769036,69,"6242 MILL BRANCH ROAD, COLUMBUS, GA, 31907","Match","Exact","6242 MILL BRANCH RD, COLUMBUS, GA, 31907",98944572,"R"
775070,"6242 N PARK AVENUE","PHILADELPHIA","PA",19141,40.0480434620001,-75.141568879,70,"6242 N PARK AVENUE, PHILADELPHIA, PA, 19141","Match","Exact","6242 N PARK AVE, PHILADELPHIA, PA, 19141",131413978,"L"
775071,"6242 ROSADO DR","CASPER","WY",82609,42.8374151080001,-106.236220148,71,"6242 ROSADO DR, CASPER, WY, 82609","Match","Exact","6242 ROSADO DR, CASPER, WY, 82609",636535696,"L"
775072,"6242 RUMFORD LN APT C","HOUSTON","TX",77084,29.865146709,-95.6395401079999,72,"6242 RUMFORD LN APT C, HOUSTON, TX, 77084","Match","Exact","6242 RUMFORD LN, HOUSTON, TX, 77084",96645687,"R"
775073,"6242 SE 29TH WAY","GRESHAM","OR",97080,45.4761172250001,-122.370130959,73,"6242 SE 29TH WAY, GRESHAM, OR, 97080","Match","Exact","6242 SE 29TH WAY, GRESHAM, OR, 97080",157555649,"L"
775074,"6242 SE MCNARY ROAD","MILWAUKIE","OR",97266,45.4055587010001,-122.599917287,74,"6242 SE MCNARY ROAD, MILWAUKIE, OR, 97266","Match","Non_Exact","6242 SE MCNARY RD, MILWAUKIE, OR, 97267",157948377,"R"
775075,"6242 SO CARPENTER STREET","CHICAGO","IL",60621,41.7808706590001,-87.6508942629999,75,"6242 SO CARPENTER STREET, CHICAGO, IL, 60621","Match","Exact","6242 S CARPENTER ST, CHICAGO, IL, 60621",605567771,"R"
775076,"6242 STATE RD 56 EAST","WINSLOW","IN",47598,NA,NA,76,"6242 STATE RD 56 EAST, WINSLOW, IN, 47598","No_Match",NA,NA,NA,NA
775077,"6242 W DRUMMOND DR","MERIDIAN","ID",83646,NA,NA,77,"6242 W DRUMMOND DR, MERIDIAN, ID, 83646","No_Match",NA,NA,NA,NA
775078,"6242 WELHAM ROAD","INDIANAPOLIS","IN",46220,39.8824804160001,-86.05958186,78,"6242 WELHAM ROAD, INDIANAPOLIS, IN, 46220","Match","Exact","6242 WELHAM RD, INDIANAPOLIS, IN, 46220",107997101,"L"
775079,"6242 WILLOW OAK LN","ORLANDO","FL",32809,28.4676782180001,-81.394087057,79,"6242 WILLOW OAK LN, ORLANDO, FL, 32809","Match","Exact","6242 WILLOW OAK LN, ORLANDO, FL, 32809",94331245,"R"
775080,"6242 WOODLAND ROAD","LINTHICUM HEIGHTS","MD",21090,39.20336558,-76.669503273,80,"6242 WOODLAND ROAD, LINTHICUM HEIGHTS, MD, 21090","Match","Exact","6242 WOODLAND RD, LINTHICUM HEIGHTS, MD, 21090",68155136,"R"
775081,"6243 14TH AVE S","GULFPORT","FL",33707,27.7564121830001,-82.72082614,81,"6243 14TH AVE S, GULFPORT, FL, 33707","Match","Exact","6243 14TH AVE S, GULFPORT, FL, 33707",124699189,"R"
775082,"6243 BAY CLUB DRIVE APT 4","FORT LAUDERDALE","FL",33308,26.2080181540001,-80.100235953,82,"6243 BAY CLUB DRIVE APT 4, FORT LAUDERDALE, FL, 33308","Match","Exact","6243 BAY CLUB DR, FORT LAUDERDALE, FL, 33308",648166764,"R"
775083,"6243 CHICASAWAY STREET","MARION","MS",39342,NA,NA,83,"6243 CHICASAWAY STREET, MARION, MS, 39342","No_Match",NA,NA,NA,NA
775084,"6243 E 45TH LANE","YUMA","AZ",85365,32.6448365460001,-114.525204245,84,"6243 E 45TH LANE, YUMA, AZ, 85365","Match","Exact","6243 E 45TH LN, YUMA, AZ, 85365",614115308,"R"
775085,"6243 E FAIRFIELD STREET","MESA","AZ",85205,33.4342044100001,-111.696572204,85,"6243 E FAIRFIELD STREET, MESA, AZ, 85205","Match","Exact","6243 E FAIRFIELD ST, MESA, AZ, 85205",128928632,"L"
775086,"6243 E PHILLIPS PL","CENTENNIAL","CO",80112,39.567989159,-104.916975076,86,"6243 E PHILLIPS PL, CENTENNIAL, CO, 80112","Match","Exact","6243 E PHILLIPS PL, CENTENNIAL, CO, 80112",177346283,"L"
775087,"6243 ENCLAVE CIRCLE","JOHNSTON","IA",50131,41.7057521780001,-93.7056223869999,87,"6243 ENCLAVE CIRCLE, JOHNSTON, IA, 50131","Match","Exact","6243 ENCLAVE CIR, JOHNSTON, IA, 50131",617120167,"L"
775088,"6243 GIRVIN DRIVE","OAKLAND","CA",94611,37.8282494050001,-122.198118971,88,"6243 GIRVIN DRIVE, OAKLAND, CA, 94611","Match","Exact","6243 GIRVIN DR, OAKLAND, CA, 94611",627122003,"L"
775089,"6243 HEATHER GLENN DRIVE","SUFFOLK","VA",23435,36.8813532200001,-76.418766595,89,"6243 HEATHER GLENN DRIVE, SUFFOLK, VA, 23435","Match","Non_Exact","6243 HEATHER GLEN DR, SUFFOLK, VA, 23435",636670021,"L"
775090,"6243 HOPEFUL LIGHT","LAS VEGAS","GA",89139,NA,NA,90,"6243 HOPEFUL LIGHT, LAS VEGAS, GA, 89139","No_Match",NA,NA,NA,NA
775091,"6243 LAKE VALLEY PT","LITHONIA","GA",30058,33.7677982230001,-84.1339099749999,91,"6243 LAKE VALLEY PT, LITHONIA, GA, 30058","Match","Exact","6243 LAKE VALLEY PT, LITHONIA, GA, 30058",619388084,"R"
775092,"6243 MARSDEN ST","PHILADELPHIA","PA",19135,40.0206411840001,-75.0550163619999,92,"6243 MARSDEN ST, PHILADELPHIA, PA, 19135","Match","Exact","6243 MARSDEN ST, PHILADELPHIA, PA, 19135",131435116,"R"
775093,"6243 RICKIE LANE","PALMDALE","CA",93551,34.6394148100001,-118.24104488,93,"6243 RICKIE LANE, PALMDALE, CA, 93551","Match","Exact","6243 RICKIE LN, PALMDALE, CA, 93551",141801749,"L"
775094,"6243 S NEW HOPE","BELMONT","NC",28012,35.176119118,-81.0552963979999,94,"6243 S NEW HOPE, BELMONT, NC, 28012","Match","Non_Exact","6243 S NEW HOPE RD, BELMONT, NC, 28012",648743160,"R"
775095,"6243 S ST LAWRENCE","CHICAGO","IL",60637,41.7815391550001,-87.610818153,95,"6243 S ST LAWRENCE, CHICAGO, IL, 60637","Match","Non_Exact","6243 S ST LAWRENCE AVE, CHICAGO, IL, 60637",605542515,"L"
775096,"6243 SAGEWOOD CT","INDIANAPOLIS","IN",46268,39.8693756260001,-86.24630531,96,"6243 SAGEWOOD CT, INDIANAPOLIS, IN, 46268","Match","Exact","6243 SAGEWOOD CT, INDIANAPOLIS, IN, 46268",108025491,"L"
775097,"6243 SAUK TRAIL","SALINE","MI",48176,42.195734213,-83.7053114729999,97,"6243 SAUK TRAIL, SALINE, MI, 48176","Match","Exact","6243 SAUK TRL, SALINE, MI, 48176",26017359,"L"
775098,"6243 SW 57 ST","SOUTH MIAMI","FL",33143,25.717745139,-80.294919468,98,"6243 SW 57 ST, SOUTH MIAMI, FL, 33143","Match","Exact","6243 SW 57TH ST, SOUTH MIAMI, FL, 33143",115978668,"R"
775099,"6243 TYRE CIRCLE","ANCHORAGE","AK",99502,61.1551590500001,-149.994880179,99,"6243 TYRE CIRCLE, ANCHORAGE, AK, 99502","Match","Exact","6243 TYRE CIR, ANCHORAGE, AK, 99502",605181744,"R"
775100,"6243 U HWY","GATEWOOD","MO",63942,NA,NA,100,"6243 U HWY, GATEWOOD, MO, 63942","No_Match",NA,NA,NA,NA
775101,"6243 WHITETAIL","BRYAN","TX",77808,30.7285489170001,-96.306962767,101,"6243 WHITETAIL, BRYAN, TX, 77808","Match","Non_Exact","6243 WHITETAIL LN, BRYAN, TX, 77808",21845037,"L"
775102,"6244 CREEKVIEW LN N","BROOKLYN PARK","MN",55443,45.109514624,-93.361096861,102,"6244 CREEKVIEW LN N, BROOKLYN PARK, MN, 55443","Match","Exact","6244 CREEKVIEW LN N, BROOKLYN PARK, MN, 55443",645545244,"R"
775103,"6244 DREAM DUST DRIVE","NORTH RICHLAND HILLS","TX",76180,32.8588537960001,-97.234124166,103,"6244 DREAM DUST DRIVE, NORTH RICHLAND HILLS, TX, 76180","Match","Exact","6244 DREAM DUST DR, NORTH RICHLAND HILLS, TX, 76180",635377016,"L"
775104,"6244 EL CAJON BLVD SUITE 22","SAN DIEGO","CA",92115,NA,NA,104,"6244 EL CAJON BLVD SUITE 22, SAN DIEGO, CA, 92115","No_Match",NA,NA,NA,NA
775105,"6244 FROSTY WINTER CT","CENTREVILLE","VA",20120,38.836602778,-77.453544704,105,"6244 FROSTY WINTER CT, CENTREVILLE, VA, 20120","Match","Exact","6244 FROSTY WINTER CT, CENTREVILLE, VA, 20120",76025841,"R"
775106,"6244 GENEVA LN","FT WORTH","TX",76131,32.8573778030001,-97.325861797,106,"6244 GENEVA LN, FT WORTH, TX, 76131","Match","Exact","6244 GENEVA LN, FORT WORTH, TX, 76131",619873495,"R"
775107,"6244 GOUGH CT","CLEMMENS","NC",27012,36.0698956410001,-80.378022701,107,"6244 GOUGH CT, CLEMMENS, NC, 27012","Match","Non_Exact","6244 GOUGH CT, CLEMMONS, NC, 27012",624091498,"R"
775108,"6244 HATCHETT MILL RD","SPOTTSVILLE","KY",42458,37.8359847420001,-87.4344118239999,108,"6244 HATCHETT MILL RD, SPOTTSVILLE, KY, 42458","Match","Exact","6244 HATCHETT MILL RD, SPOTTSVILLE, KY, 42458",57919728,"R"
775109,"6244 KLUMP AVE","NORTH HOLLYWOOD","CA",91606,34.1835790280001,-118.375758507,109,"6244 KLUMP AVE, NORTH HOLLYWOOD, CA, 91606","Match","Exact","6244 KLUMP AVE, N HOLLYWOOD, CA, 91606",141564464,"R"
775110,"6244 LAKE VALLEY POINT","LITHONIA","GA",30058,33.76781937,-84.1339143009999,110,"6244 LAKE VALLEY POINT, LITHONIA, GA, 30058","Match","Exact","6244 LAKE VALLEY PT, LITHONIA, GA, 30058",619388084,"L"
775111,"6244 MALLARD LANE","LOTHIAN","MD",20711,38.764555429,-76.6780302619999,111,"6244 MALLARD LANE, LOTHIAN, MD, 20711","Match","Exact","6244 MALLARD LN, LOTHIAN, MD, 20711",68183309,"R"
775112,"6244 MORGAN CT","BETTENDORF","IA",52722,41.585677483,-90.4728842,112,"6244 MORGAN CT, BETTENDORF, IA, 52722","Match","Exact","6244 MORGAN CT, BETTENDORF, IA, 52722",641959362,"L"
775113,"6244 MUIRLOCH DRIVE","DUBLIN","OH",43017,40.136145092,-83.1594257409999,113,"6244 MUIRLOCH DRIVE, DUBLIN, OH, 43017","Match","Exact","6244 MUIRLOCH DR, DUBLIN, OH, 43017",135768473,"L"
775114,"6244 N 4TH ST","PHILADELPHIA","PA",19120,40.046116972,-75.126480559,114,"6244 N 4TH ST, PHILADELPHIA, PA, 19120","Match","Exact","6244 N 4TH ST, PHILADELPHIA, PA, 19120",131414308,"L"
775115,"6244 NORTH NORDICA AVENUE","CHICAGO","IL",60631,41.9956077150001,-87.802526775,115,"6244 NORTH NORDICA AVENUE, CHICAGO, IL, 60631","Match","Exact","6244 N NORDICA AVE, CHICAGO, IL, 60631",605165483,"L"
775116,"6244 PLASKA AVE","HUNTINGTON PARK","CA",90255,33.982394776,-118.210505495,116,"6244 PLASKA AVE, HUNTINGTON PARK, CA, 90255","Match","Exact","6244 PLASKA AVE, HUNTINGTON PARK, CA, 90255",142763023,"L"
775117,"6244 REUTER","DEARBORN","MI",48126,42.3355083980001,-83.1715941589999,117,"6244 REUTER, DEARBORN, MI, 48126","Match","Non_Exact","6244 REUTER ST, DEARBORN, MI, 48126",95494491,"L"
775118,"6244 RIME VILLAGE DR - 208","HUNTSVILLE","AL",35805,NA,NA,118,"6244 RIME VILLAGE DR - 208, HUNTSVILLE, AL, 35805","No_Match",NA,NA,NA,NA
775119,"6244 RIVIERA LANE","JACKSONVILLE","FL",32216,30.2982678750001,-81.596799977,119,"6244 RIVIERA LANE, JACKSONVILLE, FL, 32216","Match","Exact","6244 RIVIERA LN, JACKSONVILLE, FL, 32216",623902169,"R"
775120,"6244 ROTHBURY WAY APT 1","EAST LANSING","MI",48823,42.762131835,-84.4631311639999,120,"6244 ROTHBURY WAY APT 1, EAST LANSING, MI, 48823","Match","Exact","6244 ROTHBURY WAY, EAST LANSING, MI, 48823",644962996,"R"
775121,"6244 STONEWALK LANE","NEW ALBANY","OH",43054,40.0655659350001,-82.851862634,121,"6244 STONEWALK LANE, NEW ALBANY, OH, 43054","Match","Exact","6244 STONEWALK LN, NEW ALBANY, OH, 43054",637588113,"R"
775122,"6244 TINKER ST","SHREVEPORT","LA",71109,32.4517513980001,-93.800973029,122,"6244 TINKER ST, SHREVEPORT, LA, 71109","Match","Exact","6244 TINKER ST, SHREVEPORT, LA, 71109",57432358,"R"
775123,"6244 VOSSWOOD DR","NASHVILLE","TN",37205,36.1101705730001,-86.887072673,123,"6244 VOSSWOOD DR, NASHVILLE, TN, 37205","Match","Exact","6244 VOSSWOOD DR, NASHVILLE, TN, 37205",97180325,"R"
775124,"6244 W BERENICE","CHICAGO","IL",60634,41.9502560130001,-87.782692024,124,"6244 W BERENICE, CHICAGO, IL, 60634","Match","Non_Exact","6244 W BERENICE AVE, CHICAGO, IL, 60634",111750610,"R"
775125,"6244 WEATHERSFIELD WAY","WILLAMSBURG","VA",23188,37.331843285,-76.750261564,125,"6244 WEATHERSFIELD WAY, WILLAMSBURG, VA, 23188","Match","Non_Exact","6244 WEATHERSFIELD WAY, WILLIAMSBURG, VA, 23188",103776562,"R"
775126,"6244 WHITE BIRCH LANE","MATTESON","IL",60443,41.5146764310001,-87.767243897,126,"6244 WHITE BIRCH LANE, MATTESON, IL, 60443","Match","Exact","6244 WHITE BIRCH LN, MATTESON, IL, 60443",111706857,"L"
775127,"6244 WILD HERON WAY","COLLEGE GROVE","TN",37046,35.823880081,-86.734031341,127,"6244 WILD HERON WAY, COLLEGE GROVE, TN, 37046","Match","Exact","6244 WILD HERON WAY, COLLEGE GROVE, TN, 37046",648196847,"L"
775128,"6245 49TH LANE NW","OLYMPIA","WA",98502,47.104470877,-123.012636126,128,"6245 49TH LANE NW, OLYMPIA, WA, 98502","Match","Exact","6245 49TH LN NW, OLYMPIA, WA, 98502",648504407,"L"
775129,"6245 AERODROME WAY","GEORGETOWN","CA",95634,38.916956853,-120.863843991,129,"6245 AERODROME WAY, GEORGETOWN, CA, 95634","Match","Exact","6245 AERODROME WAY, GEORGETOWN, CA, 95634",633888353,"R"
775130,"6245 AINSWORTH RD","COCOA","FL",32927,28.4676059510001,-80.822266606,130,"6245 AINSWORTH RD, COCOA, FL, 32927","Match","Exact","6245 AINSWORTH RD, COCOA, FL, 32927",93912725,"L"
775131,"6245 AMMONS DRIVE","ARVADA","CO",80004,39.810776425,-105.087157802,131,"6245 AMMONS DRIVE, ARVADA, CO, 80004","Match","Exact","6245 AMMONS DR, ARVADA, CO, 80004",177776641,"L"
775132,"6245 ANNIEDORA LANE","TALLAHASSEE","FL",32311,30.3744672460001,-84.110818753,132,"6245 ANNIEDORA LANE, TALLAHASSEE, FL, 32311","Match","Exact","6245 ANNIEDORA LN, TALLAHASSEE, FL, 32311",82881066,"R"
775133,"6245 BAYBERRY DRIVE","COLUMBUS","GA",31907,32.467705439,-84.878001365,133,"6245 BAYBERRY DRIVE, COLUMBUS, GA, 31907","Match","Exact","6245 BAYBERRY DR, COLUMBUS, GA, 31907",637355090,"R"
775134,"6245 BEECHCREST PLACE","CINCINNATI","OH",45230,39.0904525560001,-84.384501553,134,"6245 BEECHCREST PLACE, CINCINNATI, OH, 45230","Match","Exact","6245 BEECHCREST PL, CINCINNATI, OH, 45230",103962050,"R"
775135,"6245 BERKEY SOUTHERN ROAD","WHITEHOUSE","OH",43571,NA,NA,135,"6245 BERKEY SOUTHERN ROAD, WHITEHOUSE, OH, 43571","No_Match",NA,NA,NA,NA
775136,"6245 BROAD STREET UNIT B","BETHESDA","MD",20816,38.941653251,-77.1198844309999,136,"6245 BROAD STREET UNIT B, BETHESDA, MD, 20816","Match","Exact","6245 BROAD ST, BETHESDA, MD, 20816",62059138,"R"
775137,"6245 CAMDEN ROAD","CAMDEN","OH",45311,39.6562827700001,-84.6484183589999,137,"6245 CAMDEN ROAD, CAMDEN, OH, 45311","Match","Exact","6245 CAMDEN RD, CAMDEN, OH, 45311",54589043,"R"
775138,"6245 CHICASAWHAY ST","MARION","MS",39342,32.4271907830001,-88.6521551989999,138,"6245 CHICASAWHAY ST, MARION, MS, 39342","Match","Non_Exact","6245 CHICKASAWHAY ST, MARION, MS, 39342",203563,"L"
775139,"6245 CLAY HILL COURT","GAINESVILLE","VA",20155,38.821569937,-77.5909697239999,139,"6245 CLAY HILL COURT, GAINESVILLE, VA, 20155","Match","Exact","6245 CLAY HILL CT, GAINESVILLE, VA, 20155",207145269,"R"
775140,"6245 DAZZLING COURT","COLORADO SPRINGS","CO",80922,38.904900845,-104.704237324,140,"6245 DAZZLING COURT, COLORADO SPRINGS, CO, 80922","Match","Exact","6245 DAZZLING CT, COLORADO SPRINGS, CO, 80922",105550102,"L"
775141,"6245 E MINNESOTA DR","DENVER","CO",80224,39.6912771,-104.915638503,141,"6245 E MINNESOTA DR, DENVER, CO, 80224","Match","Exact","6245 E MINNESOTA DR, DENVER, CO, 80224",177340414,"L"
775142,"6245 E MINNESOTA DRIVE","DENVER","CO",80224,39.6912771,-104.915638503,142,"6245 E MINNESOTA DRIVE, DENVER, CO, 80224","Match","Exact","6245 E MINNESOTA DR, DENVER, CO, 80224",177340414,"L"
775143,"6245 E RENO AVENUE","MIDWEST CITY","OK",73110,35.4642336270001,-97.4172316629999,143,"6245 E RENO AVENUE, MIDWEST CITY, OK, 73110","Match","Exact","6245 E RENO AVE, MIDWEST CITY, OK, 73110",606173826,"L"
775144,"6245 E TYGARTS ROAD","GREENUP","KY",41144,NA,NA,144,"6245 E TYGARTS ROAD, GREENUP, KY, 41144","No_Match",NA,NA,NA,NA
775145,"6245 GREEN HERON ST","LAS VEGAS","NV",89115,36.2744951110001,-115.077250754,145,"6245 GREEN HERON ST, LAS VEGAS, NV, 89115","Match","Exact","6245 GREEN HERON ST, LAS VEGAS, NV, 89115",629674292,"L"
775146,"6245 LAKE GULCH ROAD","CASTLE ROCK","CO",80104,39.267726549,-104.766132949,146,"6245 LAKE GULCH ROAD, CASTLE ROCK, CO, 80104","Match","Exact","6245 LAKE GULCH RD, CASTLE ROCK, CO, 80104",130845361,"R"
775147,"6245 MICHAEL LANE","MATTESON","IL",60443,41.524207495,-87.7678229959999,147,"6245 MICHAEL LANE, MATTESON, IL, 60443","Match","Exact","6245 MICHAEL LN, MATTESON, IL, 60443",112202502,"L"
775148,"6245 NELWOOD ROAD","PARMA HEIGHTS","OH",44130,41.3933919470001,-81.747110403,148,"6245 NELWOOD ROAD, PARMA HEIGHTS, OH, 44130","Match","Exact","6245 NELWOOD RD, PARMA HEIGHTS, OH, 44130",61106901,"L"
775149,"6245 POPLAR GROVE DRIVE","PORT ORANGE","FL",32127,29.081965015,-80.987467221,149,"6245 POPLAR GROVE DRIVE, PORT ORANGE, FL, 32127","Match","Exact","6245 POPLAR GROVE DR, PORT ORANGE, FL, 32127",94559204,"L"
775150,"6245 RENWICK","HOUSTON","TX",77081,29.713309501,-95.484763014,150,"6245 RENWICK, HOUSTON, TX, 77081","Match","Non_Exact","6245 RENWICK DR, HOUSTON, TX, 77081",96614903,"L"
775151,"6245 RENWICKDR","HOUSTON","TX",77801,NA,NA,151,"6245 RENWICKDR, HOUSTON, TX, 77801","No_Match",NA,NA,NA,NA
775152,"6245 S MILLBROOK WAY","AURORA","CO",80016,39.6028518100001,-104.688092469,152,"6245 S MILLBROOK WAY, AURORA, CO, 80016","Match","Exact","6245 S MILLBROOK WAY, AURORA, CO, 80016",177562553,"L"
775153,"6245 S POPLAR GROVE ROAD","COLUMBUS","IN",47201,39.1016120900001,-86.112074016,153,"6245 S POPLAR GROVE ROAD, COLUMBUS, IN, 47201","Match","Non_Exact","6245 POPLAR GROOVE RD, COLUMBUS, IN, 47201",633619278,"R"
775154,"6245 SKYLINE DRIVE","CHARLOTTE","NC",28269,35.378317463,-80.767788755,154,"6245 SKYLINE DRIVE, CHARLOTTE, NC, 28269","Match","Exact","6245 SKYLINE DR, CHARLOTTE, NC, 28269",70523786,"L"
775155,"6245 SNOWBIRD DRIVE","COLORADO SPRINGS","CO",80918,38.921775084,-104.782909754,155,"6245 SNOWBIRD DRIVE, COLORADO SPRINGS, CO, 80918","Match","Exact","6245 SNOWBIRD DR, COLORADO SPRINGS, CO, 80918",105510189,"L"
775156,"6245 SOUTH 79TH STREET","LINCOLN","NE",68516,40.7492573550001,-96.6152783809999,156,"6245 SOUTH 79TH STREET, LINCOLN, NE, 68516","Match","Exact","6245 S 79TH ST, LINCOLN, NE, 68516",28299184,"R"
775157,"6245 SOUTH LA BREA  APT  3","LOS ANGELES","CA",90056,33.982664775,-118.358562634,157,"6245 SOUTH LA BREA  APT  3, LOS ANGELES, CA, 90056","Match","Non_Exact","6245 S LA BREA AVE, LOS ANGELES, CA, 90056",141653861,"R"
775158,"6245 SPRINGWOOD ROAD","PARMA HEIGHTS","OH",44130,41.393454138,-81.746051324,158,"6245 SPRINGWOOD ROAD, PARMA HEIGHTS, OH, 44130","Match","Exact","6245 SPRINGWOOD RD, PARMA HEIGHTS, OH, 44130",61106916,"L"
775159,"6245 STEFLAND DR","SEAFORD","DE",19973,38.590257681,-75.647979716,159,"6245 STEFLAND DR, SEAFORD, DE, 19973","Match","Exact","6245 STEFLAND DR, SEAFORD, DE, 19973",607438928,"L"
775160,"6245 SUNRISE TERRACE","MINNEAPOLIS","MN",55428,45.06761577,-93.382546812,160,"6245 SUNRISE TERRACE, MINNEAPOLIS, MN, 55428","Match","Exact","6245 SUNRISE TER, MINNEAPOLIS, MN, 55428",43842457,"L"
775161,"6245 SUNSET CREST WAY","SAN DIEGO","CA",92121,32.9174362890001,-117.186297163,161,"6245 SUNSET CREST WAY, SAN DIEGO, CA, 92121","Match","Exact","6245 SUNSET CREST WAY, SAN DIEGO, CA, 92121",195673051,"R"
775162,"6245 SW KENDALE LAKES CIR UNIT A210","MIAMI","FL",33183,25.7084315750001,-80.423591071,162,"6245 SW KENDALE LAKES CIR UNIT A210, MIAMI, FL, 33183","Match","Non_Exact","6245 SW KENDALE LAKES CIR, MIAMI, FL, 33183",116089482,"R"
775163,"6245 SW KENDALE LAKES CIR","MIAMI","FL",33183,25.7084315750001,-80.423591071,163,"6245 SW KENDALE LAKES CIR, MIAMI, FL, 33183","Match","Exact","6245 SW KENDALE LAKES CIR, MIAMI, FL, 33183",116089482,"R"
775164,"6245 TURFWAY DRIVE","CUMMING","GA",30040,34.1715279270001,-84.1758069969999,164,"6245 TURFWAY DRIVE, CUMMING, GA, 30040","Match","Exact","6245 TURFWAY DR, CUMMING, GA, 30040",618445656,"L"
775165,"6245 VICKERY","DALLAS","TX",75214,32.8230876470001,-96.7570911779999,165,"6245 VICKERY, DALLAS, TX, 75214","Match","Non_Exact","6245 VICKERY BLVD, DALLAS, TX, 75214",102918642,"L"
775166,"6245 W MESCAL ST","GLENDALE","AZ",85304,33.5861496160001,-112.193395464,166,"6245 W MESCAL ST, GLENDALE, AZ, 85304","Match","Exact","6245 W MESCAL ST, GLENDALE, AZ, 85304",128261920,"R"
775167,"6245 WEST ILES","NEW BERLIN","IL",62670,39.7708541850001,-89.767751861,167,"6245 WEST ILES, NEW BERLIN, IL, 62670","Match","Non_Exact","6245 W ILES AVE, NEW BERLIN, IL, 62670",97367452,"L"
775168,"6245 WILSHIRE BLVD","LOS ANGELES","CA",90048,34.0632942830001,-118.364202567,168,"6245 WILSHIRE BLVD, LOS ANGELES, CA, 90048","Match","Exact","6245 WILSHIRE BLVD, LOS ANGELES, CA, 90048",141598822,"R"
775169,"6246 170TH STREET","ALBIA","IA",52531,41.049408871,-92.8608166779999,169,"6246 170TH STREET, ALBIA, IA, 52531","Match","Exact","6246 170TH ST, ALBIA, IA, 52531",627103533,"L"
775170,"6246 AMESBURY STREET","SAN DIEGO","CA",92114,32.699837873,-117.064304469,170,"6246 AMESBURY STREET, SAN DIEGO, CA, 92114","Match","Exact","6246 AMESBURY ST, SAN DIEGO, CA, 92114",195353086,"L"
775171,"6246 CERNECH RD","KASNAS CITY","KS",66104,39.150374394,-94.722875567,171,"6246 CERNECH RD, KASNAS CITY, KS, 66104","Match","Non_Exact","6246 CERNECH RD, KANSAS CITY, KS, 66104",91133335,"R"
775172,"6246 E CROCUS DRIVE","SCOTTSDALE","AR",85254,NA,NA,172,"6246 E CROCUS DRIVE, SCOTTSDALE, AR, 85254","No_Match",NA,NA,NA,NA
775173,"6246 E STATE ROAD 45","BLOOMINGTON","IN",47408,39.2134613920001,-86.457601148,173,"6246 E STATE ROAD 45, BLOOMINGTON, IN, 47408","Match","Non_Exact","6246 E STATE RD 45, BLOOMINGTON, IN, 47408",42335535,"R"
775174,"6246 ERDRICK ST","PHILADELPHIA","PA",19135,40.0251629140001,-75.059285113,174,"6246 ERDRICK ST, PHILADELPHIA, PA, 19135","Match","Exact","6246 ERDRICK ST, PHILADELPHIA, PA, 19135",131434881,"L"
775175,"6246 GODFREY","DALLAS","TX",75217,32.7281355960001,-96.713523331,175,"6246 GODFREY, DALLAS, TX, 75217","Match","Non_Exact","6246 GODFREY AVE, DALLAS, TX, 75217",102957683,"R"
775176,"6246 HERITAGE PLACE","CHARLOTTE","NC",28210,35.1275907290001,-80.842112024,176,"6246 HERITAGE PLACE, CHARLOTTE, NC, 28210","Match","Exact","6246 HERITAGE PL, CHARLOTTE, NC, 28210",70489465,"R"
775177,"6246 HICKORY LANE CIRCLE","UNION CITY","GA",30291,33.5593957940001,-84.518613236,177,"6246 HICKORY LANE CIRCLE, UNION CITY, GA, 30291","Match","Exact","6246 HICKORY LANE CIR, UNION CITY, GA, 30291",636194409,"L"
775178,"6246 KNAPP","ADA","MI",49301,NA,NA,178,"6246 KNAPP, ADA, MI, 49301","No_Match",NA,NA,NA,NA
775179,"6246 MISSISSIPPI STREET","CAMP LEJEUNE","NC",28547,34.69968956,-77.347706337,179,"6246 MISSISSIPPI STREET, CAMP LEJEUNE, NC, 28547","Match","Exact","6246 MISSISSIPPI ST, CAMP LEJEUNE, NC, 28547",653459958,"L"
775180,"6246 MONTEO LN","INDIANAPOLIS","IN",46217,39.676166686,-86.182978253,180,"6246 MONTEO LN, INDIANAPOLIS, IN, 46217","Match","Exact","6246 MONTEO LN, INDIANAPOLIS, IN, 46217",627093981,"R"
775181,"6246 MOSSLINE DRIVE","JACKSON","MS",39211,32.3971878300001,-90.131720102,181,"6246 MOSSLINE DRIVE, JACKSON, MS, 39211","Match","Exact","6246 MOSSLINE DR, JACKSON, MS, 39211",65361007,"L"
775182,"6246 N CAMAC ST","PHILADELPHIA","PA",19141,40.0478607630001,-75.1397400659999,182,"6246 N CAMAC ST, PHILADELPHIA, PA, 19141","Match","Exact","6246 N CAMAC ST, PHILADELPHIA, PA, 19141",131413985,"L"
775183,"6246 N CAMAC STREET","PHILADELPHIA","PA",19141,40.0478607630001,-75.1397400659999,183,"6246 N CAMAC STREET, PHILADELPHIA, PA, 19141","Match","Exact","6246 N CAMAC ST, PHILADELPHIA, PA, 19141",131413985,"L"
775184,"6246 N LAWNDALE","CHICAGO","IL",60659,41.9945846900001,-87.721464456,184,"6246 N LAWNDALE, CHICAGO, IL, 60659","Match","Non_Exact","6246 N LAWNDALE AVE, CHICAGO, IL, 60659",111742353,"L"
775185,"6246 NORTH MAPLEWOOD AVE","CHICAGO","IL",60659,41.994908819,-87.693461201,185,"6246 NORTH MAPLEWOOD AVE, CHICAGO, IL, 60659","Match","Exact","6246 N MAPLEWOOD AVE, CHICAGO, IL, 60659",111744717,"L"
775186,"6246 NW 171ST STREET","HIALEAH","FL",33015,25.928892643,-80.303217592,186,"6246 NW 171ST STREET, HIALEAH, FL, 33015","Match","Exact","6246 NW 171ST ST, HIALEAH, FL, 33015",116044294,"R"
775187,"6246 OHM CT","SAN DIEGO","CA",92122,32.853056526,-117.211481882,187,"6246 OHM CT, SAN DIEGO, CA, 92122","Match","Exact","6246 OHM CT, SAN DIEGO, CA, 92122",195302191,"L"
775188,"6246 PIEDRA NEGRAS COURT","KATY","TX",77450,29.7116459740001,-95.733597959,188,"6246 PIEDRA NEGRAS COURT, KATY, TX, 77450","Match","Exact","6246 PIEDRA NEGRAS CT, KATY, TX, 77450",78324771,"L"
775189,"6246 S STEWART","CHICAGO","IL",60621,41.7806152000001,-87.635068546,189,"6246 S STEWART, CHICAGO, IL, 60621","Match","Non_Exact","6246 S STEWART AVE, CHICAGO, IL, 60621",605490920,"R"
775190,"6246 SOUTH BEND SQUARE","ORLANDO","FL",32807,28.5220621870001,-81.299726337,190,"6246 SOUTH BEND SQUARE, ORLANDO, FL, 32807","Match","Exact","6246 S BEND SQ, ORLANDO, FL, 32807",94387390,"L"
775191,"6246 UNION HILL RD","CANTON","GA",30115,34.2000032240001,-84.382038855,191,"6246 UNION HILL RD, CANTON, GA, 30115","Match","Exact","6246 UNION HILL RD, CANTON, GA, 30115",68826805,"R"
775192,"6246 W CERMAK ROAD","BERWYN","IL",60402,41.8508215590001,-87.7802482709999,192,"6246 W CERMAK ROAD, BERWYN, IL, 60402","Match","Exact","6246 CERMAK RD, BERWYN, IL, 60402",111795240,"R"
775193,"62462 110TH AVE","CLAREMONT","MN",55924,44.0454460870001,-93.0258587439999,193,"62462 110TH AVE, CLAREMONT, MN, 55924","Match","Exact","62462 110TH AVE, CLAREMONT, MN, 55924",31428237,"R"
775194,"6247 ASH STREET","MISSION","KS",66205,39.0158820140001,-94.646628796,194,"6247 ASH STREET, MISSION, KS, 66205","Match","Exact","6247 ASH ST, MISSION, KS, 66205",91273776,"L"
775195,"6247 BAYBERRY DRIVE","COLUMBUS","GA",31907,32.467483443,-84.878217919,195,"6247 BAYBERRY DRIVE, COLUMBUS, GA, 31907","Match","Exact","6247 BAYBERRY DR, COLUMBUS, GA, 31907",637355089,"R"
775196,"6247 CHARLES STREET","PHILADELPHIA","PA",19135,40.026404218,-75.060368398,196,"6247 CHARLES STREET, PHILADELPHIA, PA, 19135","Match","Exact","6247 CHARLES ST, PHILADELPHIA, PA, 19135",131428798,"R"
775197,"6247 GLEN HOLLOW DR","LIBERTY TWP","OH",45011,39.3804067190001,-84.4121529829999,197,"6247 GLEN HOLLOW DR, LIBERTY TWP, OH, 45011","Match","Exact","6247 GLEN HOLLOW DR, LIBERTY TWP, OH, 45011",113819029,"L"
775198,"6247 HIGHLAND AVE","RICHMOND","CA",94805,37.9448351840001,-122.313764451,198,"6247 HIGHLAND AVE, RICHMOND, CA, 94805","Match","Exact","6247 HIGHLAND AVE, RICHMOND, CA, 94805",617628613,"L"
775199,"6247 HILL ROAD","AMARILLO","TX",79119,35.12412413,-102.028350646,199,"6247 HILL ROAD, AMARILLO, TX, 79119","Match","Exact","6247 HILL RD, AMARILLO, TX, 79119",647393464,"R"
775200,"6247 KENDRA COURT","STONECREST","GA",30058,33.7209243790001,-84.125209255,200,"6247 KENDRA COURT, STONECREST, GA, 30058","Match","Exact","6247 KENDRA CT, STONECREST, GA, 30058",647247640,"R"
775201,"6247 N SHADOWHILL WAY","LOVELAND","OH",45140,39.224372235,-84.255603191,201,"6247 N SHADOWHILL WAY, LOVELAND, OH, 45140","Match","Exact","6247 N SHADOWHILL WAY, LOVELAND, OH, 45140",118454125,"L"
775202,"6247 PASTOR TIMOTHY J WINTERS ST","SAN DIEGO","CA",92114,NA,NA,202,"6247 PASTOR TIMOTHY J WINTERS ST, SAN DIEGO, CA, 92114","No_Match",NA,NA,NA,NA
775203,"6247 RICHMOND RD","SOLON","OH",44139,41.3899501750001,-81.488908548,203,"6247 RICHMOND RD, SOLON, OH, 44139","Match","Exact","6247 RICHMOND RD, SOLON, OH, 44139",624770642,"L"
775204,"6247 S URBAN ST","LITTLETON","CO",80127,39.603434172,-105.13615954,204,"6247 S URBAN ST, LITTLETON, CO, 80127","Match","Exact","6247 S URBAN ST, LITTLETON, CO, 80127",177801552,"R"
775205,"6247 S WINDERMERE DR","SHREVEPORT","LA",71129,32.4383636680001,-93.8663107409999,205,"6247 S WINDERMERE DR, SHREVEPORT, LA, 71129","Match","Exact","6247 S WINDERMERE DR, SHREVEPORT, LA, 71129",57431687,"L"
775206,"6247 W COUNTY LINE RD","LULA","GA",30554,34.3910936710001,-83.659981983,206,"6247 W COUNTY LINE RD, LULA, GA, 30554","Match","Exact","6247 COUNTY LINE RD, LULA, GA, 30554",653495915,"R"
775207,"6247 WILSON RD","VERNON CENTER","NY",13477,43.0306142840001,-75.474227813,207,"6247 WILSON RD, VERNON CENTER, NY, 13477","Match","Exact","6247 WILSON RD, VERNON CENTER, NY, 13477",171548363,"R"
775208,"6247","INVERNESS","FL",34450,NA,NA,208,"6247, INVERNESS, FL, 34450","No_Match",NA,NA,NA,NA
775209,"62470 OPHIR","MONTROSE","CO",81401,NA,NA,209,"62470 OPHIR, MONTROSE, CO, 81401","No_Match",NA,NA,NA,NA
775210,"6248 ARABELLA DRIVE","CASTLE ROCK","CO",80108,39.4220606310001,-104.776433446,210,"6248 ARABELLA DRIVE, CASTLE ROCK, CO, 80108","Match","Exact","6248 ARABELLA DR, CASTLE ROCK, CO, 80108",627317189,"L"
775211,"6248 AUTRY MILL ROAD","GODWIN","NC",28344,35.1826957070001,-78.614248257,211,"6248 AUTRY MILL ROAD, GODWIN, NC, 28344","Match","Exact","6248 AUTRY MILL RD, GODWIN, NC, 28344",638294231,"R"
775212,"6248 AVON AVE","SAN GABRIEL","CA",91775,34.112616625,-118.078741984,212,"6248 AVON AVE, SAN GABRIEL, CA, 91775","Match","Exact","6248 AVON AVE, SAN GABRIEL, CA, 91775",141634891,"R"
775213,"6248 COOSA COUNTY ROAD 56","WEOGUFKA","AL",35183,NA,NA,213,"6248 COOSA COUNTY ROAD 56, WEOGUFKA, AL, 35183","Tie",NA,NA,NA,NA
775214,"6248 EAST MERCER WAY","MERCER ISLAND","WA",98040,47.5464803180001,-122.212156833,214,"6248 EAST MERCER WAY, MERCER ISLAND, WA, 98040","Match","Exact","6248 E MERCER WAY, MERCER ISLAND, WA, 98040",648656217,"L"
775215,"6248 HILLSIDE RD","SPRINGFIELD","VA",22152,38.780764504,-77.249411631,215,"6248 HILLSIDE RD, SPRINGFIELD, VA, 22152","Match","Exact","6248 HILLSIDE RD, SPRINGFIELD, VA, 22152",76047041,"R"
775216,"6248 LAKELAND AVE NORTH APT 106","BROOKLYN PARK","MN",55428,45.067145768,-93.366235994,216,"6248 LAKELAND AVE NORTH APT 106, BROOKLYN PARK, MN, 55428","Match","Exact","6248 LAKELAND AVE N, BROOKLYN PARK, MN, 55428",43614417,"R"
775217,"6248 N 16000 EAST ROAD","MOMENCE","IL",60954,NA,NA,217,"6248 N 16000 EAST ROAD, MOMENCE, IL, 60954","No_Match",NA,NA,NA,NA
775218,"6248 N WHEELING AVE","KANSAS CITY","MO",64119,39.2065375080001,-94.5087830589999,218,"6248 N WHEELING AVE, KANSAS CITY, MO, 64119","Match","Exact","6248 N WHEELING AVE, KANSAS CITY, MO, 64119",89761091,"L"
775219,"6248 NORTH 4TH DRIVE","PHOENIX","AZ",85013,33.5292082240001,-112.079877281,219,"6248 NORTH 4TH DRIVE, PHOENIX, AZ, 85013","Match","Exact","6248 N 4TH DR, PHOENIX, AZ, 85013",128317340,"R"
775220,"6248 SPARROWHAWK WAY","OAKWOOD VILLAGE","OH",44146,41.389179368,-81.490468886,220,"6248 SPARROWHAWK WAY, OAKWOOD VILLAGE, OH, 44146","Match","Exact","6248 SPARROWHAWK WAY, OAKWOOD VILLAGE, OH, 44146",624770723,"R"
775221,"6248 VILLAGE ARBOR LANE","MABELTON","GA",30126,33.801329609,-84.519078593,221,"6248 VILLAGE ARBOR LANE, MABELTON, GA, 30126","Match","Non_Exact","6248 VILLAGE ARBOR LN SE, MABLETON, GA, 30126",614184274,"R"
775222,"6248 WASHINGTON BLVD","ARLINGTON","VA",22205,38.8873881650001,-77.1506778729999,222,"6248 WASHINGTON BLVD, ARLINGTON, VA, 22205","Match","Exact","6248 WASHINGTON BLVD, ARLINGTON, VA, 22205",76466750,"L"
775223,"6248 WILLOWCREST DR","COLUMBUS","OH",43229,40.095482335,-82.966688092,223,"6248 WILLOWCREST DR, COLUMBUS, OH, 43229","Match","Exact","6248 WILLOWCREST DR, COLUMBUS, OH, 43229",135570417,"R"
775224,"6248 WINSTON FALLS AVENUE","LAS VEGAS","NV",89139,36.036336433,-115.228861035,224,"6248 WINSTON FALLS AVENUE, LAS VEGAS, NV, 89139","Match","Exact","6248 WINSTON FALLS AVE, LAS VEGAS, NV, 89139",612992682,"R"
775225,"6248 WINSTON FALLS","LAS VEGAS","NV",89139,36.036336433,-115.228861035,225,"6248 WINSTON FALLS, LAS VEGAS, NV, 89139","Match","Non_Exact","6248 WINSTON FALLS AVE, LAS VEGAS, NV, 89139",612992682,"R"
775226,"6249 134TH ST W","APPLE VALLEY","MN",55124,44.75274718,-93.191192316,226,"6249 134TH ST W, APPLE VALLEY, MN, 55124","Match","Exact","6249 134TH ST W, APPLE VALLEY, MN, 55124",37906068,"L"
775227,"6249 160TH AVE SE","BELLEVUE","WA",98006,47.5472425200001,-122.12663466,227,"6249 160TH AVE SE, BELLEVUE, WA, 98006","Match","Exact","6249 160TH AVE SE, BELLEVUE, WA, 98006",186955594,"L"
775228,"6249 BELLAIRE DRIVE","NEW ORLEANS","LA",70124,30.0053267070001,-90.121541897,228,"6249 BELLAIRE DRIVE, NEW ORLEANS, LA, 70124","Match","Exact","6249 BELLAIRE DR, NEW ORLEANS, LA, 70124",191699725,"R"
775229,"6249 DAVON CT","LOVELAND","OH",45140,39.2198785780001,-84.273979192,229,"6249 DAVON CT, LOVELAND, OH, 45140","Match","Exact","6249 DAVON CT, LOVELAND, OH, 45140",118458688,"R"
775230,"6249 EAST FM 916","GRANDVIEW","TX",76050,32.2583445290001,-97.249709127,230,"6249 EAST FM 916, GRANDVIEW, TX, 76050","Match","Non_Exact","6249 FM 916, GRANDVIEW, TX, 76050",103544236,"L"
775231,"6249 FORESTDALE AVENUE","DAYTON","OH",45417,39.758896824,-84.2969519329999,231,"6249 FORESTDALE AVENUE, DAYTON, OH, 45417","Match","Exact","6249 FORESTDALE AVE, DAYTON, OH, 45417",143562878,"R"
775232,"6249 JUSTINS RIDGE RD","NASHVILLE","IN",47448,39.1956515630001,-86.134842928,232,"6249 JUSTINS RIDGE RD, NASHVILLE, IN, 47448","Match","Exact","6249 JUSTINS RIDGE RD, NASHVILLE, IN, 47448",43529208,"L"
775233,"6249 JUSTINS RIDGE ROAD","NASHVILLE","IN",47448,39.1956515630001,-86.134842928,233,"6249 JUSTINS RIDGE ROAD, NASHVILLE, IN, 47448","Match","Exact","6249 JUSTINS RIDGE RD, NASHVILLE, IN, 47448",43529208,"L"
775234,"6249 KAWAIHAE PLACE","HONOLULU","HI",96825,21.288596431,-157.718000342,234,"6249 KAWAIHAE PLACE, HONOLULU, HI, 96825","Match","Exact","6249 KAWAIHAE PL, HONOLULU, HI, 96825",203244042,"R"
775235,"6249 N 1600TH ST","WEST UNION","IL",62477,39.240281012,-87.721278561,235,"6249 N 1600TH ST, WEST UNION, IL, 62477","Match","Exact","6249 N 1600TH ST, WEST UNION, IL, 62477",5647936,"L"
775236,"6249 NORTHWOOD AVE APT 1","SAINT LOUIS","MO",63105,38.63854725,-90.305106418,236,"6249 NORTHWOOD AVE APT 1, SAINT LOUIS, MO, 63105","Match","Exact","6249 NORTHWOOD AVE, SAINT LOUIS, MO, 63105",633068894,"R"
775237,"6249 RAINTREE LANE","INDIANAPOLIS","IN",46236,39.870922314,-85.9642742089999,237,"6249 RAINTREE LANE, INDIANAPOLIS, IN, 46236","Match","Exact","6249 RAINTREE LN, INDIANAPOLIS, IN, 46236",108011999,"R"
775238,"6249 S 37TH ST","OMAHA","NE",68107,41.19591683,-95.9696228619999,238,"6249 S 37TH ST, OMAHA, NE, 68107","Match","Exact","6249 S 37TH ST, OMAHA, NE, 68107",116986369,"L"
775239,"6249 SELBORN DR SW","ATLANTA","GA",30331,33.6899002800001,-84.5928689959999,239,"6249 SELBORN DR SW, ATLANTA, GA, 30331","Match","Non_Exact","6249 SELBORN DR, ATLANTA, GA, 30331",627745195,"L"
775240,"6249 SOUTH WASHINGTON","GRAND FORKE","ND",58201,47.854846115,-97.0451988949999,240,"6249 SOUTH WASHINGTON, GRAND FORKE, ND, 58201","Match","Non_Exact","6249 S WASHINGTON ST, GRAND FORKS, ND, 58201",643484512,"L"
775241,"6249 W SILVER SPRING DR","MILWAUKEE","WI",53218,43.119373228,-87.989621918,241,"6249 W SILVER SPRING DR, MILWAUKEE, WI, 53218","Match","Exact","6249 W SILVER SPRING DR, MILWAUKEE, WI, 53218",77726345,"L"
775242,"62495 690TH STREET","WIOTA","IA",50274,41.3261457890001,-94.872920571,242,"62495 690TH STREET, WIOTA, IA, 50274","Match","Exact","62495 690TH ST, WIOTA, IA, 50274",61593194,"L"
775243,"62498 GREENLEY PL","NOVELTY","MO",63460,NA,NA,243,"62498 GREENLEY PL, NOVELTY, MO, 63460","No_Match",NA,NA,NA,NA
775244,"624A CERRILLOS RAOD","SANTA","NM",87505,35.681251967,-105.946473132,244,"624A CERRILLOS RAOD, SANTA, NM, 87505","Match","Non_Exact","624 CERRILLOS RD, SANTA FE, NM, 87505",635528902,"R"
775245,"625 141ST COURT SE E205","BELLEVUE","WA",98007,47.604307336,-122.152258592,245,"625 141ST COURT SE E205, BELLEVUE, WA, 98007","Match","Exact","625 141ST CT SE, BELLEVUE, WA, 98007",186613375,"L"
775246,"625 148TH CT NE","BRADENTON","FL",34212,27.5090389110001,-82.394516201,246,"625 148TH CT NE, BRADENTON, FL, 34212","Match","Exact","625 148TH CT NE, BRADENTON, FL, 34212",653182809,"L"
775247,"625 160TH AVE NE","MUDOCK","MN",56271,45.3875544750001,-95.2964013549999,247,"625 160TH AVE NE, MUDOCK, MN, 56271","Match","Non_Exact","625 160TH AVE NE, MURDOCK, MN, 56271",164930656,"R"
775248,"625 17TH ST","MANHATTAN BEACH","CA",90266,33.889928345,-118.407630777,248,"625 17TH ST, MANHATTAN BEACH, CA, 90266","Match","Exact","625 17TH ST, MANHATTAN BEACH, CA, 90266",642867645,"L"
775249,"625 17TH STREET","MANHATTAN BEACH","CA",90266,33.889928345,-118.407630777,249,"625 17TH STREET, MANHATTAN BEACH, CA, 90266","Match","Exact","625 17TH ST, MANHATTAN BEACH, CA, 90266",642867645,"L"
775250,"625 18TH ST APT 6","VERO BEACH","FL",32960,27.6342752480001,-80.385667079,250,"625 18TH ST APT 6, VERO BEACH, FL, 32960","Match","Exact","625 18TH ST, VERO BEACH, FL, 32960",120305239,"L"
775251,"625 18TH STREET","GERING","NE",69341,41.813290583,-103.670629008,251,"625 18TH STREET, GERING, NE, 69341","Match","Exact","625 18TH ST, GERING, NE, 69341",160062834,"L"
775252,"625 20TH AVE NW","BAUDETTE","MN",56623,48.7381734580001,-94.663726192,252,"625 20TH AVE NW, BAUDETTE, MN, 56623","Match","Exact","625 20TH AVE NW, BAUDETTE, MN, 56623",176532024,"R"
775253,"625 28TH ST","NEWPORT NEWS","VA",23607,36.9836835940001,-76.421510511,253,"625 28TH ST, NEWPORT NEWS, VA, 23607","Match","Exact","625 28TH ST, NEWPORT NEWS, VA, 23607",103746270,"L"
775254,"625 28TH STREET","NEWPORT NEWS","VA",23607,36.9836835940001,-76.421510511,254,"625 28TH STREET, NEWPORT NEWS, VA, 23607","Match","Exact","625 28TH ST, NEWPORT NEWS, VA, 23607",103746270,"L"
775255,"625 36TH ST","RAPID CITY","SD",57701,44.08095424,-103.278513833,255,"625 36TH ST, RAPID CITY, SD, 57701","Match","Non_Exact","625 36TH ST, RAPID CITY, SD, 57702",205506804,"R"
775256,"625 5TH AVE","NEWPORT","MN",55055,44.8615886630001,-93.002344334,256,"625 5TH AVE, NEWPORT, MN, 55055","Match","Exact","625 5TH AVE, NEWPORT, MN, 55055",97785826,"L"
775257,"625 6TH AVENUE SOUTH","BROOKINGS","SD",57006,44.2991823360001,-96.795263262,257,"625 6TH AVENUE SOUTH, BROOKINGS, SD, 57006","Match","Exact","625 6TH AVE S, BROOKINGS, SD, 57006",193623204,"R"
775258,"625 6TH ST","RICHMOND","CA",94801,37.9409970450001,-122.363428725,258,"625 6TH ST, RICHMOND, CA, 94801","Match","Exact","625 6TH ST, RICHMOND, CA, 94801",192112718,"L"
775259,"625 7TH AVE","HAMMOND","OR",97121,46.1970785520001,-123.943739272,259,"625 7TH AVE, HAMMOND, OR, 97121","Match","Exact","625 7TH AVE, HAMMOND, OR, 97121",159219932,"R"
775260,"625 7TH ST NW","JAMESTOWN","ND",58401,46.9021821430001,-98.6991187099999,260,"625 7TH ST NW, JAMESTOWN, ND, 58401","Match","Non_Exact","625 7TH ST SE, JAMESTOWN, ND, 58401",151885676,"L"
775261,"625 8TH STREET","SOMERVILLE","TX",77879,30.341561626,-96.5347467939999,261,"625 8TH STREET, SOMERVILLE, TX, 77879","Match","Exact","625 8TH ST, SOMERVILLE, TX, 77879",24803342,"R"
775262,"625 9TH COURT SOUTH","BIRMINGHAM","AL",35205,33.4936481510001,-86.8165812509999,262,"625 9TH COURT SOUTH, BIRMINGHAM, AL, 35205","Match","Exact","625 9TH CT S, BIRMINGHAM, AL, 35205",81575395,"R"
775263,"625 9TH COURT","FOX ISLAND","WA",98333,47.2555701480001,-122.620218652,263,"625 9TH COURT, FOX ISLAND, WA, 98333","Match","Exact","625 9TH CT, FOX ISLAND, WA, 98333",184684480,"L"
775264,"625 ACKLIN AVENUE","TOLEDO","OH",43620,41.6669894550001,-83.5577888889999,264,"625 ACKLIN AVENUE, TOLEDO, OH, 43620","Match","Exact","625 ACKLIN AVE, TOLEDO, OH, 43620",33938493,"L"
775265,"625 AIRPORT RD","HUNTSVILLE","AL",35802,34.691199774,-86.572648794,265,"625 AIRPORT RD, HUNTSVILLE, AL, 35802","Match","Non_Exact","625 AIRPORT RD SW, HUNTSVILLE, AL, 35802",58214669,"R"
775266,"625 ALAMEDA DRIVE  24","ONTARIO","OR",97914,44.0227692880001,-116.983130216,266,"625 ALAMEDA DRIVE  24, ONTARIO, OR, 97914","Match","Exact","625 ALAMEDA DR, ONTARIO, OR, 97914",636602293,"L"
775267,"625 ALBERT STREET","NEW HYDE PARK","NY",11040,40.7375279090001,-73.6841696339999,267,"625 ALBERT STREET, NEW HYDE PARK, NY, 11040","Match","Exact","625 ALBERT ST, NEW HYDE PARK, NY, 11040",147666104,"L"
775268,"625 ALBERTSON RD","WINSLOW","NJ",8095,NA,NA,268,"625 ALBERTSON RD, WINSLOW, NJ, 8095","No_Match",NA,NA,NA,NA
775269,"625 AMANDA PLACE","WINSTON SALEM","NC",27101,36.105548223,-80.205560282,269,"625 AMANDA PLACE, WINSTON SALEM, NC, 27101","Match","Non_Exact","625 AMANDA PL NE, WINSTON SALEM, NC, 27101",84634867,"R"
775270,"625 AMAPOLA AVE APT D","TORRANCE","CA",90501,33.840215254,-118.323773434,270,"625 AMAPOLA AVE APT D, TORRANCE, CA, 90501","Match","Exact","625 AMAPOLA AVE, TORRANCE, CA, 90501",142758766,"R"
775271,"625 AMARILLO","HOWARDWICK","TX",79226,35.051336658,-100.898221231,271,"625 AMARILLO, HOWARDWICK, TX, 79226","Match","Non_Exact","625 AMARILLO ST, HOWARDWICK, TX, 79226",642148065,"L"
775272,"625 APPERSON WAY","JOHNS CREEK","GA",30024,34.046538093,-84.116642795,272,"625 APPERSON WAY, JOHNS CREEK, GA, 30024","Match","Exact","625 APPERSON WAY, JOHNS CREEK, GA, 30024",627272980,"R"
775273,"625 ARCADIA STREET APT 309","HURST","TX",76053,NA,NA,273,"625 ARCADIA STREET APT 309, HURST, TX, 76053","No_Match",NA,NA,NA,NA
775274,"625 ARROWHEAD DRIVE","SAN JOSE","CA",95123,37.23595361,-121.837617995,274,"625 ARROWHEAD DRIVE, SAN JOSE, CA, 95123","Match","Exact","625 ARROWHEAD DR, SAN JOSE, CA, 95123",122924269,"R"
775275,"625 ATACOSA","FORT WORTH","TX",76120,NA,NA,275,"625 ATACOSA, FORT WORTH, TX, 76120","No_Match",NA,NA,NA,NA
775276,"625 ATLANTA AVENUE","ATLANTA","GA",30312,33.7304005980001,-84.366734096,276,"625 ATLANTA AVENUE, ATLANTA, GA, 30312","Match","Non_Exact","625 ATLANTA AVE SE, ATLANTA, GA, 30312",17358210,"R"
775277,"625 ATWOOD DR","CORONA","CA",92879,33.88855154,-117.557367697,277,"625 ATWOOD DR, CORONA, CA, 92879","Match","Non_Exact","625 ATWOOD CIR, CORONA, CA, 92879",194732220,"L"
775278,"625 AUNT LUCY LN SW STE 21","SMYRNA","GA",30082,33.859419157,-84.5750227199999,278,"625 AUNT LUCY LN SW STE 21, SMYRNA, GA, 30082","Match","Exact","625 AUNT LUCY LN SW, SMYRNA, GA, 30082",634052110,"R"
775279,"625 AUWINA STREET","KAILUA","HI",96735,21.3889215230001,-157.734035278,279,"625 AUWINA STREET, KAILUA, HI, 96735","Match","Non_Exact","625 AUWINA ST, KAILUA, HI, 96734",203240169,"R"
775280,"625 AVALON COURT DRIVE","MELVILLE","NY",11747,NA,NA,280,"625 AVALON COURT DRIVE, MELVILLE, NY, 11747","No_Match",NA,NA,NA,NA
775281,"625 BARCELONA COURT","SATELLITE BEACH","FL",32937,28.176470335,-80.6063107369999,281,"625 BARCELONA COURT, SATELLITE BEACH, FL, 32937","Match","Exact","625 BARCELONA CT, SATELLITE BEACH, FL, 32937",650013221,"L"
775282,"625 BARKLEY CIRCLE","ALABASTER","AL",35007,NA,NA,282,"625 BARKLEY CIRCLE, ALABASTER, AL, 35007","Tie",NA,NA,NA,NA
775283,"625 BEACHWOOD ROAD","SOUTH HAVEN","MN",55382,45.329995926,-94.123340545,283,"625 BEACHWOOD ROAD, SOUTH HAVEN, MN, 55382","Match","Exact","625 BEACHWOOD RD, SOUTH HAVEN, MN, 55382",627108419,"L"
775284,"625 BEAL STREET","HILLSBORO","IL",62049,39.1549904290001,-89.4765270349999,284,"625 BEAL STREET, HILLSBORO, IL, 62049","Match","Exact","625 BEAL ST, HILLSBORO, IL, 62049",99455361,"R"
775285,"625 BEAVER STREET","LEETSDALE","PA",15056,40.562295045,-80.2038041609999,285,"625 BEAVER STREET, LEETSDALE, PA, 15056","Match","Exact","625 BEAVER ST, LEETSDALE, PA, 15056",607687725,"R"
775286,"625 BEELER BLVD","HAMILTON","OH",45013,39.431543155,-84.568153705,286,"625 BEELER BLVD, HAMILTON, OH, 45013","Match","Exact","625 BEELER BLVD, HAMILTON, OH, 45013",113817229,"L"
775287,"625 BELLEMONT COURT","DULUTH","GA",30097,34.052072508,-84.137118729,287,"625 BELLEMONT COURT, DULUTH, GA, 30097","Match","Exact","625 BELLEMONT CT, DULUTH, GA, 30097",17401989,"L"
775288,"625 BENJAMIN COURT","MCDONOUGH","GA",30252,33.4216294230001,-84.1266438659999,288,"625 BENJAMIN COURT, MCDONOUGH, GA, 30252","Match","Exact","625 BENJAMIN CT, MCDONOUGH, GA, 30252",648266796,"R"
775289,"625 BERKELEY RUN","ATLANTA","GA",30342,33.9065339100001,-84.371391688,289,"625 BERKELEY RUN, ATLANTA, GA, 30342","Match","Non_Exact","625 BERKELEY RUN NE, ATLANTA, GA, 30342",17391860,"R"
775290,"625 BERRY AVE APT 207","HAYWARD","CA",94544,37.656157249,-122.073874463,290,"625 BERRY AVE APT 207, HAYWARD, CA, 94544","Match","Exact","625 BERRY AVE, HAYWARD, CA, 94544",606825782,"R"
775291,"625 BIRCHWOOD AVE","DES PLAINES","IL",60018,42.0150876750001,-87.906828478,291,"625 BIRCHWOOD AVE, DES PLAINES, IL, 60018","Match","Exact","625 BIRCHWOOD AVE, DES PLAINES, IL, 60018",111723375,"R"
775292,"625 BLACK BROOK RD","GOFFSTOWN","NH",3045,43.059014889,-71.5686073539999,292,"625 BLACK BROOK RD, GOFFSTOWN, NH, 3045","Match","Exact","625 BLACK BROOK RD, GOFFSTOWN, NH, 03045",653296502,"R"
775293,"625 BLOSSOM LANE","CHRISTIANSBURG","VA",24073,37.149117221,-80.396793228,293,"625 BLOSSOM LANE, CHRISTIANSBURG, VA, 24073","Match","Non_Exact","625 BLOSSOM RD, CHRISTIANSBURG, VA, 24073",73629228,"L"
775294,"625 BOHICKET RD","WILMORE","KY",40390,37.8551412310001,-84.645815634,294,"625 BOHICKET RD, WILMORE, KY, 40390","Match","Exact","625 BOHICKET RD, WILMORE, KY, 40390",38463913,"L"
775295,"625 BOSTON POST RD","SUDBURY","MA",1776,42.3604519880001,-71.439477197,295,"625 BOSTON POST RD, SUDBURY, MA, 1776","Match","Exact","625 BOSTON POST RD, SUDBURY, MA, 01776",87101317,"L"
775296,"625 BOULEVARD NE","ATLANTA","GA",30308,33.7718026110001,-84.371639016,296,"625 BOULEVARD NE, ATLANTA, GA, 30308","Match","Exact","625 BOULEVARD NE, ATLANTA, GA, 30308",17356821,"R"
775297,"625 BREAKNECK ROAD","MULLICA HILL","NJ",8062,39.752845699,-75.2045330179999,297,"625 BREAKNECK ROAD, MULLICA HILL, NJ, 8062","Match","Exact","625 BREAKNECK RD, MULLICA HILL, NJ, 08062",134612012,"R"
775298,"625 BROAD ST SUITE 240","NEWARK","NJ",7102,40.7400030160001,-74.169672923,298,"625 BROAD ST SUITE 240, NEWARK, NJ, 7102","Match","Exact","625 BROAD ST, NEWARK, NJ, 07102",63467448,"R"
775299,"625 BROAD STREET STE 240","NEWARK","NJ",7102,40.7400030160001,-74.169672923,299,"625 BROAD STREET STE 240, NEWARK, NJ, 7102","Match","Exact","625 BROAD ST, NEWARK, NJ, 07102",63467448,"R"
775300,"625 BROAD STREET SUITE 240","NEWARK","NJ",7102,40.7400030160001,-74.169672923,300,"625 BROAD STREET SUITE 240, NEWARK, NJ, 7102","Match","Exact","625 BROAD ST, NEWARK, NJ, 07102",63467448,"R"
775301,"625 BROOKVIEW LANE","WOLCOTT","VT",5680,44.549515141,-72.514261835,301,"625 BROOKVIEW LANE, WOLCOTT, VT, 5680","Match","Exact","625 BROOKVIEW LN, WOLCOTT, VT, 05680",650014043,"L"
775302,"625 BRUCE AVE","FLOSSMOOR","IL",60422,41.5511917430001,-87.680271959,302,"625 BRUCE AVE, FLOSSMOOR, IL, 60422","Match","Exact","625 BRUCE AVE, FLOSSMOOR, IL, 60422",111709053,"L"
775303,"625 BUCK MOUNTAIN ROAD","DOVER","AR",72837,35.3777585980001,-92.99990106,303,"625 BUCK MOUNTAIN ROAD, DOVER, AR, 72837","Match","Exact","625 BUCK MOUNTAIN RD, DOVER, AR, 72837",81888763,"L"
775304,"625 BUENA LOMA ST","ALTADENA","CA",91001,34.1826870190001,-118.138721886,304,"625 BUENA LOMA ST, ALTADENA, CA, 91001","Match","Exact","625 BUENA LOMA ST, ALTADENA, CA, 91001",141628193,"L"
775305,"625 BURKE AVENUE 3","BRONX","NY",10467,40.8715058390001,-73.869991882,305,"625 BURKE AVENUE 3, BRONX, NY, 10467","Match","Exact","625 BURKE AVE, BRONX, NY, 10467",80303219,"L"
775306,"625 BURSTING SUN","NORTH LAS VEGAS","NV",89032,36.2197946060001,-115.149791403,306,"625 BURSTING SUN, NORTH LAS VEGAS, NV, 89032","Match","Non_Exact","625 BURSTING SUN AVE, N LAS VEGAS, NV, 89032",636831593,"L"
775307,"625 CAMELLIA COURT APT 2304","HAYWARD","CA",94544,37.6359800600001,-122.054904232,307,"625 CAMELLIA COURT APT 2304, HAYWARD, CA, 94544","Match","Exact","625 CAMELLIA CT, HAYWARD, CA, 94544",125059965,"R"
775308,"625 CAMEO COURT","CHRISTIANSBURG","VA",24073,37.147384489,-80.428990963,308,"625 CAMEO COURT, CHRISTIANSBURG, VA, 24073","Match","Exact","625 CAMEO CT, CHRISTIANSBURG, VA, 24073",641114455,"L"
775309,"625 CANTERBURY COURT","COPPELL","TX",75019,32.988766168,-97.0064623809999,309,"625 CANTERBURY COURT, COPPELL, TX, 75019","Match","Exact","625 CANTERBURY CT, COPPELL, TX, 75019",642782290,"L"
775310,"625 CANTERBURY LANE","NORTH SALT LAKE","UT",84054,40.848943696,-111.941128472,310,"625 CANTERBURY LANE, NORTH SALT LAKE, UT, 84054","Match","Non_Exact","625 CANTERBURY, N SALT LAKE, UT, 84054",229364028,"L"
775311,"625 CANTRILL DRIVE APARTMENT 465C","DAVIS","CA",95618,38.548993061,-121.720121922,311,"625 CANTRILL DRIVE APARTMENT 465C, DAVIS, CA, 95618","Match","Exact","625 CANTRILL DR, DAVIS, CA, 95618",606339705,"L"
775312,"625 CARACLE COURT","MILLERSVILLE","MD",21108,39.1125179250001,-76.619533502,312,"625 CARACLE COURT, MILLERSVILLE, MD, 21108","Match","Exact","625 CARACLE CT, MILLERSVILLE, MD, 21108",618352424,"R"
775313,"625 CARRINGTON CT","SAN RAMON","CA",94582,37.752850994,-121.897531503,313,"625 CARRINGTON CT, SAN RAMON, CA, 94582","Match","Exact","625 CARRINGTON CT, SAN RAMON, CA, 94582",192117699,"R"
775314,"625 CARROLL STREET","BROOKLYN","NY",11215,40.674927822,-73.9807452639999,314,"625 CARROLL STREET, BROOKLYN, NY, 11215","Match","Exact","625 CARROLL ST, BROOKLYN, NY, 11215",59078110,"L"
775315,"625 CASA LOMA BLVD","BOYNTON BEACH","FL",33435,26.5280190400001,-80.055460733,315,"625 CASA LOMA BLVD, BOYNTON BEACH, FL, 33435","Match","Exact","625 CASA LOMA BLVD, BOYNTON BEACH, FL, 33435",115583018,"L"
775316,"625 CATHARINE ST","PHILADELPHIA","PA",19147,39.9388722690001,-75.153901283,316,"625 CATHARINE ST, PHILADELPHIA, PA, 19147","Match","Exact","625 CATHARINE ST, PHILADELPHIA, PA, 19147",131424273,"R"
775317,"625 CATON AVE","BROOKLYN","NY",11218,40.6477294790001,-73.974377712,317,"625 CATON AVE, BROOKLYN, NY, 11218","Match","Exact","625 CATON AVE, BROOKLYN, NY, 11218",59080554,"L"
775318,"625 CELESTE STREET","NEW ORLEANS","LA",70130,29.9282232470001,-90.068199802,318,"625 CELESTE STREET, NEW ORLEANS, LA, 70130","Match","Exact","625 CELESTE ST, NEW ORLEANS, LA, 70130",191714772,"R"
775319,"625 CHADBURY WAY","KISSIMMEE","FL",34744,28.286037332,-81.330910027,319,"625 CHADBURY WAY, KISSIMMEE, FL, 34744","Match","Exact","625 CHADBURY WAY, KISSIMMEE, FL, 34744",176697727,"L"
775320,"625 CHARLIE HARRIS LOOP","QUINCY","FL",32340,30.6589560850001,-84.5621302009999,320,"625 CHARLIE HARRIS LOOP, QUINCY, FL, 32340","Match","Non_Exact","625 CHARLIE HARRIS LOOP, QUINCY, FL, 32352",636371039,"L"
775321,"625 CHESTNUT STREET","KEARNY","NJ",7032,40.77232294,-74.140514277,321,"625 CHESTNUT STREET, KEARNY, NJ, 7032","Match","Exact","625 CHESTNUT ST, KEARNY, NJ, 07032",59600744,"L"
775322,"625 CHICAGO AVENUE","WAUKESHA","WI",53188,43.015371859,-88.239543649,322,"625 CHICAGO AVENUE, WAUKESHA, WI, 53188","Match","Exact","625 CHICAGO AVE, WAUKESHA, WI, 53188",53811645,"L"
775323,"625 CIRCLE DRIVE","BRYAN","OH",43506,41.465197199,-84.559172341,323,"625 CIRCLE DRIVE, BRYAN, OH, 43506","Match","Exact","625 CIRCLE DR, BRYAN, OH, 43506",8324649,"R"
775324,"625 CO HWY 524","PARMA","MO",63870,36.579065927,-89.926189444,324,"625 CO HWY 524, PARMA, MO, 63870","Match","Non_Exact","625 CO RD 524, PARMA, MO, 63870",635822475,"L"
775325,"625 COMMONWEALTH AVE","BRONX","NY",10473,40.8173715770001,-73.8648925049999,325,"625 COMMONWEALTH AVE, BRONX, NY, 10473","Match","Exact","625 COMMONWEALTH AVE, BRONX, NY, 10473",80305096,"L"
775326,"625 CORAL GLEN LOOP","ALTAMONTE","FL",32714,28.6497859520001,-81.417747565,326,"625 CORAL GLEN LOOP, ALTAMONTE, FL, 32714","Match","Non_Exact","625 CORAL GLEN LOOP, ALTAMONTE SPRINGS, FL, 32714",93793181,"R"
775327,"625 COTTONWOOD DRIVE","GARNER","IA",50438,43.104961469,-93.60970092,327,"625 COTTONWOOD DRIVE, GARNER, IA, 50438","Match","Exact","625 COTTONWOOD DR, GARNER, IA, 50438",7408559,"L"
775328,"625 COUNTRY ROAD 91","BISHOP","TX",78343,27.6088032970001,-97.867157833,328,"625 COUNTRY ROAD 91, BISHOP, TX, 78343","Match","Non_Exact","625 CO RD 91, BISHOP, TX, 78343",605798761,"L"
775329,"625 COUNTY ROAD 417","HOUSTON","MS",38851,33.837264675,-89.102821862,329,"625 COUNTY ROAD 417, HOUSTON, MS, 38851","Match","Exact","625 CO RD 417, HOUSTON, MS, 38851",607211467,"R"
775330,"625 CR 240","CROSS PLAINS","TX",76443,NA,NA,330,"625 CR 240, CROSS PLAINS, TX, 76443","No_Match",NA,NA,NA,NA
775331,"625 CR 240","RISING STAR","TX",76443,32.1508215550001,-99.0748239069999,331,"625 CR 240, RISING STAR, TX, 76443","Match","Non_Exact","625 CO RD 240, RISING STAR, TX, 76471",158683029,"L"
775332,"625 CR 4120","SIMMS","TX",75574,NA,NA,332,"625 CR 4120, SIMMS, TX, 75574","No_Match",NA,NA,NA,NA
775333,"625 CREEK SIDE WAY APT 1522","NEW BRAUNFEL","TX",78130,29.7249102480001,-98.06818234,333,"625 CREEK SIDE WAY APT 1522, NEW BRAUNFEL, TX, 78130","Match","Non_Exact","625 CREEKSIDE WAY, NEW BRAUNFELS, TX, 78130",649327155,"L"
775334,"625 CREEKSIDE WAY APT 2306","NEW BRAUNFELS","TX",78130,29.7249102480001,-98.06818234,334,"625 CREEKSIDE WAY APT 2306, NEW BRAUNFELS, TX, 78130","Match","Exact","625 CREEKSIDE WAY, NEW BRAUNFELS, TX, 78130",649327155,"L"
775335,"625 CRESTMONT WAY","GREENVILLE","SC",29615,34.864475751,-82.254954456,335,"625 CRESTMONT WAY, GREENVILLE, SC, 29615","Match","Exact","625 CRESTMONT WAY, GREENVILLE, SC, 29615",640764806,"L"
775336,"625 CRYSTAL LAKE RD","LUTZ","FL",33548,28.1352936760001,-82.474068584,336,"625 CRYSTAL LAKE RD, LUTZ, FL, 33548","Match","Exact","625 CRYSTAL LAKE RD, LUTZ, FL, 33548",629642228,"R"
775337,"625 DARE ROAD","YORKTOWN","VA",23692,37.1692940290001,-76.4413546709999,337,"625 DARE ROAD, YORKTOWN, VA, 23692","Match","Exact","625 DARE RD, YORKTOWN, VA, 23692",103793634,"R"
775338,"625 DAVIS ROAD","EDINBURG","TX",78541,26.358474852,-98.158593601,338,"625 DAVIS ROAD, EDINBURG, TX, 78541","Match","Exact","625 DAVIS RD, EDINBURG, TX, 78541",71516177,"R"
775339,"625 DEER RIDGE DRIVE","CLARKSVILLE","TN",37042,36.552377822,-87.432732543,339,"625 DEER RIDGE DRIVE, CLARKSVILLE, TN, 37042","Match","Exact","625 DEER RIDGE DR, CLARKSVILLE, TN, 37042",624752225,"R"
775340,"625 DELLWOOD STREET","BETHLEHEM","PA",18018,40.62277951,-75.365881633,340,"625 DELLWOOD STREET, BETHLEHEM, PA, 18018","Match","Exact","625 DELLWOOD ST, BETHLEHEM, PA, 18018",136885756,"L"
775341,"625 DILGER APT 214","WAUKEGAN","IL",60085,NA,NA,341,"625 DILGER APT 214, WAUKEGAN, IL, 60085","No_Match",NA,NA,NA,NA
775342,"625 DOE TRAIL","CONWAY","AR",72034,NA,NA,342,"625 DOE TRAIL, CONWAY, AR, 72034","No_Match",NA,NA,NA,NA
775343,"625 E 100 S","HYDE PARK","UT",84318,NA,NA,343,"625 E 100 S, HYDE PARK, UT, 84318","No_Match",NA,NA,NA,NA
775344,"625 E 1200 N","SHELLEY","ID",83274,43.3669737060001,-112.155934512,344,"625 E 1200 N, SHELLEY, ID, 83274","Match","Exact","625 E 1200 N, SHELLEY, ID, 83274",130040773,"R"
775345,"625 E 2ND AVE","GASTONIA","NC",28054,35.2607545710001,-81.172826817,345,"625 E 2ND AVE, GASTONIA, NC, 28054","Match","Exact","625 E 2ND AVE, GASTONIA, NC, 28054",70453346,"R"
775346,"625 E 43RD AVE","EUGENE","OR",97405,44.008252536,-123.083657634,346,"625 E 43RD AVE, EUGENE, OR, 97405","Match","Exact","625 E 43RD AVE, EUGENE, OR, 97405",605395831,"L"
775347,"625 E 65TH TER","KANSAS CITY","MO",64131,39.0090953330001,-94.580153174,347,"625 E 65TH TER, KANSAS CITY, MO, 64131","Match","Exact","625 E 65TH TER, KANSAS CITY, MO, 64131",91454564,"R"
775348,"625 E 6TH AVE","DURANGO","CO",81301,37.2690285080001,-107.874816293,348,"625 E 6TH AVE, DURANGO, CO, 81301","Match","Exact","625 E 6TH AVE, DURANGO, CO, 81301",91697040,"L"
775349,"625 E 96TH STREET","KANSAS CITY","MO",64131,38.9541068930001,-94.5837919639999,349,"625 E 96TH STREET, KANSAS CITY, MO, 64131","Match","Exact","625 E 96TH ST, KANSAS CITY, MO, 64131",91491570,"R"
775350,"625 E COURT AVE","DES MOINES","IA",50309,41.587628146,-93.6089721439999,350,"625 E COURT AVE, DES MOINES, IA, 50309","Match","Exact","625 E COURT AVE, DES MOINES, IA, 50309",65818263,"R"
775351,"625 E DUCATI WAY","ST GEORGE","UT",84790,37.046178556,-113.570262892,351,"625 E DUCATI WAY, ST GEORGE, UT, 84790","Match","Exact","625 E DUCATI WAY, SAINT GEORGE, UT, 84790",605914187,"L"
775352,"625 E HAYCRAFT AVE","COEUR D'ALENE","ID",83815,47.7024113890001,-116.77811573,352,"625 E HAYCRAFT AVE, COEUR D'ALENE, ID, 83815","Match","Non_Exact","625 E HAYCRAFT AVE, COEUR D ALENE, ID, 83815",192904674,"L"
775353,"625 E HENNICK ST","PINEDALE","WY",82941,NA,NA,353,"625 E HENNICK ST, PINEDALE, WY, 82941","No_Match",NA,NA,NA,NA
775354,"625 E LANCASTER AVE APT C303","WYNNEWOOD","PA",19096,40.0004285580001,-75.274347083,354,"625 E LANCASTER AVE APT C303, WYNNEWOOD, PA, 19096","Match","Non_Exact","625 E LANCASTER AVE, WYNNEWOOD, PA, 19096",135087719,"R"
775355,"625 E MAIN ST 102B-233","ASPEN","CO",81611,NA,NA,355,"625 E MAIN ST 102B-233, ASPEN, CO, 81611","Tie",NA,NA,NA,NA
775356,"625 E MAIN ST STE 102B-233","ASPEN","CO",81611,NA,NA,356,"625 E MAIN ST STE 102B-233, ASPEN, CO, 81611","Tie",NA,NA,NA,NA
775357,"625 E MAIN ST","CORSICA","SD",57328,43.4236727420001,-98.402205129,357,"625 E MAIN ST, CORSICA, SD, 57328","Match","Exact","625 E MAIN ST, CORSICA, SD, 57328",200678416,"L"
775358,"625 E MAIN ST","UNION CITY","TN",38261,36.4255928310001,-89.05124671,358,"625 E MAIN ST, UNION CITY, TN, 38261","Match","Exact","625 E MAIN ST, UNION CITY, TN, 38261",30894278,"L"
775359,"625 E QUEEN ST UNIT 4","INGLEWOOD","CA",90302,NA,NA,359,"625 E QUEEN ST UNIT 4, INGLEWOOD, CA, 90302","No_Match",NA,NA,NA,NA
775360,"625 E SANTA CLARA ST STE 101","VENTURA","CA",93001,34.279540056,-119.291100741,360,"625 E SANTA CLARA ST STE 101, VENTURA, CA, 93001","Match","Non_Exact","625 E SANTA CLARA ST, VENTURA, CA, 93001",109951085,"L"
775361,"625 E STASSNEY LANE APT 3204","AUSTIN","TX",78745,30.2014192450001,-97.769896199,361,"625 E STASSNEY LANE APT 3204, AUSTIN, TX, 78745","Match","Non_Exact","625 E STASSNEY LN, AUSTIN, TX, 78745",64034108,"R"
775362,"625 E THIRD","VALLEY CENTER","KS",67147,37.835897376,-97.3647693139999,362,"625 E THIRD, VALLEY CENTER, KS, 67147","Match","Non_Exact","625 E 3RD ST, VALLEY CENTER, KS, 67147",645797013,"R"
775363,"625 E VETERANS MEMORIAL PKWY","WARRENTON","MO",63383,NA,NA,363,"625 E VETERANS MEMORIAL PKWY, WARRENTON, MO, 63383","No_Match",NA,NA,NA,NA
775364,"625 E WELDON AVE","FRESNO","CA",93704,36.7685522950001,-119.803531296,364,"625 E WELDON AVE, FRESNO, CA, 93704","Match","Exact","625 E WELDON AVE, FRESNO, CA, 93704",197574679,"L"
775365,"625 EAST 22ND STREET","LOS ANGELES","CA",90011,34.0255443980001,-118.260635949,365,"625 EAST 22ND STREET, LOS ANGELES, CA, 90011","Match","Exact","625 E 22ND ST, LOS ANGELES, CA, 90011",141619211,"L"
775366,"625 EAST 86TH STREET","BLOOMINGTON","MN",55420,44.847936385,-93.266629323,366,"625 EAST 86TH STREET, BLOOMINGTON, MN, 55420","Match","Exact","625 E 86TH ST, BLOOMINGTON, MN, 55420",43596302,"R"
775367,"625 EAST AZALEA","YAMHILL","OR",97148,45.342232413,-123.1817548,367,"625 EAST AZALEA, YAMHILL, OR, 97148","Match","Non_Exact","625 E AZALEA ST, YAMHILL, OR, 97148",613402032,"R"
775368,"625 EAST PINE ST","MISSOULA","MT",59802,46.870964443,-113.986100593,368,"625 EAST PINE ST, MISSOULA, MT, 59802","Match","Exact","625 E PINE ST, MISSOULA, MT, 59802",205286908,"R"
775369,"625 EAST PINE STREET","MISSOULA","MT",59802,46.870964443,-113.986100593,369,"625 EAST PINE STREET, MISSOULA, MT, 59802","Match","Exact","625 E PINE ST, MISSOULA, MT, 59802",205286908,"R"
775370,"625 EAST SAVAGE STREET","HAMBURG","AR",71646,33.233304366,-91.790892415,370,"625 EAST SAVAGE STREET, HAMBURG, AR, 71646","Match","Exact","625 E SAVAGE ST, HAMBURG, AR, 71646",31447298,"R"
775371,"625 EDGEWOOD DRIVE","KENT","OH",44240,41.159107679,-81.351667323,371,"625 EDGEWOOD DRIVE, KENT, OH, 44240","Match","Exact","625 EDGEWOOD DR, KENT, OH, 44240",137516164,"R"
775372,"625 ELDEN STREET SUITE 102","HERDON","VA",20170,38.9693525170001,-77.382156906,372,"625 ELDEN STREET SUITE 102, HERDON, VA, 20170","Match","Non_Exact","625 ELDEN ST, HERNDON, VA, 20170",76050417,"L"
775373,"625 ELM COURT","BOX ELDER","SD",57719,44.1383750320001,-103.05170757,373,"625 ELM COURT, BOX ELDER, SD, 57719","Match","Exact","625 ELM CT, BOX ELDER, SD, 57719",205526734,"R"
775374,"625 ERBLE LANE","LAKE CHARLES","LA",70611,30.3099620200001,-93.1889209139999,374,"625 ERBLE LANE, LAKE CHARLES, LA, 70611","Match","Exact","625 ERBLE LN, LAKE CHARLES, LA, 70611",624347383,"L"
775375,"625 EVANS RD","SAN LUIS OBISPO","CA",93401,35.23040889,-120.64753748,375,"625 EVANS RD, SAN LUIS OBISPO, CA, 93401","Match","Exact","625 EVANS RD, SAN LUIS OBISPO, CA, 93401",109821103,"R"
775376,"625 EWING DRIVE","NASHVILLE","TN",37207,36.2315509220001,-86.797768477,376,"625 EWING DRIVE, NASHVILLE, TN, 37207","Match","Exact","625 EWING DR, NASHVILLE, TN, 37207",97204859,"L"
775377,"625 EYAM HALL LN","APEX","NC",27502,35.7451948550001,-78.870286397,377,"625 EYAM HALL LN, APEX, NC, 27502","Match","Exact","625 EYAM HALL LN, APEX, NC, 27502",618483516,"L"
775378,"625 EYERS GROVE ROAD","BLOOMSBURG","PA",17815,41.0842434890001,-76.571396035,378,"625 EYERS GROVE ROAD, BLOOMSBURG, PA, 17815","Match","Non_Exact","625 EYERSGROVE RD, BLOOMSBURG, PA, 17815",648732403,"R"
775379,"625 FAIR OAKS AVE STE 377","SOUTH PASADENA","CA",91030,34.118546506,-118.150318242,379,"625 FAIR OAKS AVE STE 377, SOUTH PASADENA, CA, 91030","Match","Exact","625 FAIR OAKS AVE, SOUTH PASADENA, CA, 91030",653212916,"R"
775380,"625 FAIR OAKS AVE SUITE 270","SOUTH PASADENA","CA",91030,34.118546506,-118.150318242,380,"625 FAIR OAKS AVE SUITE 270, SOUTH PASADENA, CA, 91030","Match","Exact","625 FAIR OAKS AVE, SOUTH PASADENA, CA, 91030",653212916,"R"
775381,"625 FAIRFIELD DRIVE","LIMA","OH",45805,40.7474706100001,-84.134236952,381,"625 FAIRFIELD DRIVE, LIMA, OH, 45805","Match","Exact","625 FAIRFIELD DR, LIMA, OH, 45805",35565981,"L"
775382,"625 FAIRWAY DRIVE","SOUTHERN PINES","NC",28387,35.2071764470001,-79.3890452219999,382,"625 FAIRWAY DRIVE, SOUTHERN PINES, NC, 28387","Match","Exact","625 FAIRWAY DR, SOUTHERN PINES, NC, 28387",20332482,"R"
775383,"625 FAIRWICK DRIVE","SAINT LOUIS","MO",63129,38.4915513130001,-90.311332508,383,"625 FAIRWICK DRIVE, SAINT LOUIS, MO, 63129","Match","Exact","625 FAIRWICK DR, SAINT LOUIS, MO, 63129",100157937,"R"
775384,"625 FIELD CREST DR","CARROLL","IA",51401,42.0520724290001,-94.8754948169999,384,"625 FIELD CREST DR, CARROLL, IA, 51401","Match","Exact","625 FIELD CREST DR, CARROLL, IA, 51401",633294646,"L"
775385,"625 FIRST STREET","DONORA","PA",15033,40.1736333970001,-79.8630571259999,385,"625 FIRST STREET, DONORA, PA, 15033","Match","Exact","625 1ST ST, DONORA, PA, 15033",52810586,"R"
775386,"625 FLEISHER ROAD","GALESBURG","IL",61401,40.900361693,-90.3203169079999,386,"625 FLEISHER ROAD, GALESBURG, IL, 61401","Match","Exact","625 FLEISHER RD, GALESBURG, IL, 61401",9040819,"L"
775387,"625 FM 407 E","ARGYLE","TX",76226,33.101210257,-97.179084593,387,"625 FM 407 E, ARGYLE, TX, 76226","Match","Exact","625 FM 407 E, ARGYLE, TX, 76226",635382821,"R"
775388,"625 FOREST TRAIL","MONTGOMERY","AL",36117,32.396862965,-86.1507682069999,388,"625 FOREST TRAIL, MONTGOMERY, AL, 36117","Match","Exact","625 FOREST TRL, MONTGOMERY, AL, 36117",1547202,"R"
775389,"625 G STREET","CHENEY","WA",99004,47.4888066340001,-117.581347286,389,"625 G STREET, CHENEY, WA, 99004","Match","Exact","625 G ST, CHENEY, WA, 99004",189861093,"R"
775390,"625 GAZETTA WAY","WEST PALM BEACH","FL",33413,26.686509216,-80.1566287319999,390,"625 GAZETTA WAY, WEST PALM BEACH, FL, 33413","Match","Exact","625 GAZETTA WAY, WEST PALM BEACH, FL, 33413",636089395,"L"
775391,"625 GEORGIA AVENUE RM 204","CHATTANOOGA","TN",37402,35.049027112,-85.306419956,391,"625 GEORGIA AVENUE RM 204, CHATTANOOGA, TN, 37402","Match","Exact","625 GEORGIA AVE, CHATTANOOGA, TN, 37402",604713350,"L"
775392,"625 GLENNOAKS DRIVE","KNOXVILLE","TN",37921,NA,NA,392,"625 GLENNOAKS DRIVE, KNOXVILLE, TN, 37921","No_Match",NA,NA,NA,NA
775393,"625 GLENSFORD DR","FAYETTEVILLE","NC",28314,35.052702896,-78.9615340129999,393,"625 GLENSFORD DR, FAYETTEVILLE, NC, 28314","Match","Exact","625 GLENSFORD DR, FAYETTEVILLE, NC, 28314",64196102,"L"
775394,"625 GLENWOOD LN","HENDERSON","NV",89002,36.0096312210001,-114.966770452,394,"625 GLENWOOD LN, HENDERSON, NV, 89002","Match","Exact","625 GLENWOOD LN, HENDERSON, NV, 89002",201959967,"R"
775395,"625 GRAMATAN AVE APT 2C","MOUNT VERNON","NY",10552,40.9272184530001,-73.835200761,395,"625 GRAMATAN AVE APT 2C, MOUNT VERNON, NY, 10552","Match","Exact","625 GRAMATAN AVE, MOUNT VERNON, NY, 10552",139746899,"R"
775396,"625 GRAND AVENUE","HANNIBAL","MO",63401,39.7106798350001,-91.373255383,396,"625 GRAND AVENUE, HANNIBAL, MO, 63401","Match","Exact","625 GRAND AVE, HANNIBAL, MO, 63401",35335899,"L"
775397,"625 GRAND AVENUE","NEWBURGH","NY",12550,41.528582016,-74.009680106,397,"625 GRAND AVENUE, NEWBURGH, NY, 12550","Match","Exact","625 GRAND AVE, NEWBURGH, NY, 12550",124497899,"L"
775398,"625 GRANDIN RD","CHARLOTTE","NC",28208,35.2315952960001,-80.8636948399999,398,"625 GRANDIN RD, CHARLOTTE, NC, 28208","Match","Exact","625 GRANDIN RD, CHARLOTTE, NC, 28208",70508020,"L"
775399,"625 GREEN VALLEY RD","GREENSBORO","NC",27408,36.0864643630001,-79.827436672,399,"625 GREEN VALLEY RD, GREENSBORO, NC, 27408","Match","Exact","625 GREEN VALLEY RD, GREENSBORO, NC, 27408",131104778,"L"
775400,"625 GRINNEL AVE","TOMS RIVER","NJ",8757,40.006276589,-74.273377001,400,"625 GRINNEL AVE, TOMS RIVER, NJ, 8757","Match","Non_Exact","625 GRINNELL AVE, TOMS RIVER, NJ, 08757",203721547,"L"
775401,"625 GULF AIRE DR","PORT ST JOE","FL",32456,29.915986221,-85.373271326,401,"625 GULF AIRE DR, PORT ST JOE, FL, 32456","Match","Exact","625 GULF AIRE DR, PORT SAINT JOE, FL, 32456",650132960,"L"
775402,"625 GULF AIRE DRIVE","PORT ST JOE","FL",32456,29.915986221,-85.373271326,402,"625 GULF AIRE DRIVE, PORT ST JOE, FL, 32456","Match","Exact","625 GULF AIRE DR, PORT SAINT JOE, FL, 32456",650132960,"L"
775403,"625 HAMILTON STREET APT A","NORRISTOWN","PA",19401,40.1249372710001,-75.356206506,403,"625 HAMILTON STREET APT A, NORRISTOWN, PA, 19401","Match","Exact","625 HAMILTON ST, NORRISTOWN, PA, 19401",135081583,"L"
775404,"625 HAMPTON DR","LAKE VILLA","IL",60046,42.404381734,-88.064736835,404,"625 HAMPTON DR, LAKE VILLA, IL, 60046","Match","Exact","625 HAMPTON DR, LAKE VILLA, IL, 60046",119701705,"L"
775405,"625 HAMPTON DRIVE","LAKE VILLA","IL",60046,42.404381734,-88.064736835,405,"625 HAMPTON DRIVE, LAKE VILLA, IL, 60046","Match","Exact","625 HAMPTON DR, LAKE VILLA, IL, 60046",119701705,"L"
775406,"625 HANLEY DOWNS DR","CANTONMENT","FL",32533,30.5777295180001,-87.334990125,406,"625 HANLEY DOWNS DR, CANTONMENT, FL, 32533","Match","Exact","625 HANLEY DOWNS DR, CANTONMENT, FL, 32533",93281536,"R"
775407,"625 HARRISON STREET","WEST LAFAYETTE","IN",47906,40.4203411500001,-86.9141622779999,407,"625 HARRISON STREET, WEST LAFAYETTE, IN, 47906","Match","Non_Exact","625 HARRISON ST, W LAFAYETTE, IN, 47907",27305337,"L"
775408,"625 HARRISON STREET","WEST LAFAYETTE","IN",47907,40.4203411500001,-86.9141622779999,408,"625 HARRISON STREET, WEST LAFAYETTE, IN, 47907","Match","Exact","625 HARRISON ST, W LAFAYETTE, IN, 47907",27305337,"L"
775409,"625 HARVARD STREET","HOUSTON","TX",77007,29.782017237,-95.396244065,409,"625 HARVARD STREET, HOUSTON, TX, 77007","Match","Exact","625 HARVARD ST, HOUSTON, TX, 77007",96061526,"L"
775410,"625 HAYES RD","STARR","SC",29684,34.4222624700001,-82.6543822419999,410,"625 HAYES RD, STARR, SC, 29684","Match","Exact","625 HAYES RD, STARR, SC, 29684",652908484,"L"
775411,"625 HEATH DRIVE","MONTGOMERY","AL",36108,32.3635377210001,-86.333662174,411,"625 HEATH DRIVE, MONTGOMERY, AL, 36108","Match","Exact","625 HEATH DR, MONTGOMERY, AL, 36108",1467942,"R"
775412,"625 HIGH STREET","ANDERSON","IN",46012,40.114129989,-85.671283567,412,"625 HIGH STREET, ANDERSON, IN, 46012","Match","Exact","625 HIGH ST, ANDERSON, IN, 46012",31114288,"R"
775413,"625 HIGHLAND AVENUE","SAN MARTIN","CA",95046,37.0707310970001,-121.614266102,413,"625 HIGHLAND AVENUE, SAN MARTIN, CA, 95046","Match","Exact","625 HIGHLAND AVE, SAN MARTIN, CA, 95046",646591375,"R"
775414,"625 HIGHLAND TERRACE","SHEBOYGAN","WI",53083,43.7746155510001,-87.71003267,414,"625 HIGHLAND TERRACE, SHEBOYGAN, WI, 53083","Match","Exact","625 HIGHLAND TER, SHEBOYGAN, WI, 53083",79496914,"L"
775415,"625 HILBERT DRIVE","FALLBROOK","CA",92028,33.3974295400001,-117.246758255,415,"625 HILBERT DRIVE, FALLBROOK, CA, 92028","Match","Exact","625 HILBERT DR, FALLBROOK, CA, 92028",651702451,"R"
775416,"625 HILLCREST ROAD","RIDGEWOOD","NJ",7450,40.9971674220001,-74.116433515,416,"625 HILLCREST ROAD, RIDGEWOOD, NJ, 7450","Match","Exact","625 HILLCREST RD, RIDGEWOOD, NJ, 07450",64376315,"R"
775417,"625 HILLTOP DRIVE","DALLAS","NC",28034,35.337585232,-81.1792399189999,417,"625 HILLTOP DRIVE, DALLAS, NC, 28034","Match","Exact","625 HILLTOP DR, DALLAS, NC, 28034",70374520,"R"
775418,"625 HILTON LN","WALTERBORO","SC",29488,NA,NA,418,"625 HILTON LN, WALTERBORO, SC, 29488","No_Match",NA,NA,NA,NA
775419,"625 HOVEY WAY","ROSEVILLE","CA",95678,38.756146836,-121.306657048,419,"625 HOVEY WAY, ROSEVILLE, CA, 95678","Match","Exact","625 HOVEY WAY, ROSEVILLE, CA, 95678",639851672,"L"
775420,"625 HUDSON AVENUE","TAMPA","FL",33606,27.918524211,-82.451435478,420,"625 HUDSON AVENUE, TAMPA, FL, 33606","Match","Exact","625 HUDSON AVE, TAMPA, FL, 33606",104531209,"L"
775421,"625 HULTON ST","CARNEGIE","PA",15106,40.40352721,-80.098152221,421,"625 HULTON ST, CARNEGIE, PA, 15106","Match","Exact","625 HULTON ST, CARNEGIE, PA, 15106",51616438,"L"
775422,"625 HUNTOVER LANE","FREDERICK","MD",21703,39.4068767250001,-77.46660508,422,"625 HUNTOVER LANE, FREDERICK, MD, 21703","Match","Exact","625 HUNTOVER LN, FREDERICK, MD, 21703",60702703,"R"
775423,"625 HURL WAY","HOPKINSVILLE","KY",42240,36.841818081,-87.517808536,423,"625 HURL WAY, HOPKINSVILLE, KY, 42240","Match","Exact","625 HURL WAY, HOPKINSVILLE, KY, 42240",11297824,"R"
775424,"625 HYANNIS DR","HOLLY SPRINGS","NC",27540,35.6765224120001,-78.827072282,424,"625 HYANNIS DR, HOLLY SPRINGS, NC, 27540","Match","Exact","625 HYANNIS DR, HOLLY SPRINGS, NC, 27540",636581671,"L"
775425,"625 IDAHO AVENUE","VERONA","PA",15147,40.4958579880001,-79.8155325979999,425,"625 IDAHO AVENUE, VERONA, PA, 15147","Match","Exact","625 IDAHO AVE, VERONA, PA, 15147",51668200,"L"
775426,"625 JACKSON COURT","SATELLITE BEACH","FL",32937,28.183212558,-80.607908067,426,"625 JACKSON COURT, SATELLITE BEACH, FL, 32937","Match","Exact","625 JACKSON CT, SATELLITE BEACH, FL, 32937",93901099,"L"
775427,"625 JACKSON ST","ANOKA","MN",55303,45.1987076990001,-93.3803457229999,427,"625 JACKSON ST, ANOKA, MN, 55303","Match","Exact","625 JACKSON ST, ANOKA, MN, 55303",97483293,"L"
775428,"625 JACKSON ST","YREKA","CA",96097,41.728941961,-122.644819864,428,"625 JACKSON ST, YREKA, CA, 96097","Match","Exact","625 JACKSON ST, YREKA, CA, 96097",113225039,"L"
775429,"625 JACKSON STREET","MOVILLE","IA",51039,42.48661014,-96.066599577,429,"625 JACKSON STREET, MOVILLE, IA, 51039","Match","Exact","625 JACKSON ST, MOVILLE, IA, 51039",636263363,"R"
775430,"625 JAMESTOWN BLVD APT 1226","ALTAMONTE SPRINGS","FL",32714,28.6815048760001,-81.407469228,430,"625 JAMESTOWN BLVD APT 1226, ALTAMONTE SPRINGS, FL, 32714","Match","Exact","625 JAMESTOWN BLVD, ALTAMONTE SPRINGS, FL, 32714",606887994,"R"
775431,"625 JEFFERSON PLACE C","BRONX","NY",10456,40.8334240140001,-73.900002596,431,"625 JEFFERSON PLACE C, BRONX, NY, 10456","Match","Exact","625 JEFFERSON PL, BRONX, NY, 10456",80301315,"L"
775432,"625 JEFFERSON PLACE","BRONX","NY",10456,40.8334240140001,-73.900002596,432,"625 JEFFERSON PLACE, BRONX, NY, 10456","Match","Exact","625 JEFFERSON PL, BRONX, NY, 10456",80301315,"L"
775433,"625 JEFFERSON","QUINCY","IL",62301,39.921088995,-91.406229359,433,"625 JEFFERSON, QUINCY, IL, 62301","Match","Non_Exact","625 JEFFERSON ST, QUINCY, IL, 62301",35064679,"R"
775434,"625 JENNIFER AVENUE","CARMI","IL",62821,38.0683215610001,-88.182148049,434,"625 JENNIFER AVENUE, CARMI, IL, 62821","Match","Exact","625 JENNIFER AVE, CARMI, IL, 62821",634528846,"L"
775435,"625 JENNY LANE","STAR CITY","AR",71667,33.882657179,-91.909320146,435,"625 JENNY LANE, STAR CITY, AR, 71667","Match","Exact","625 JENNY LN, STAR CITY, AR, 71667",2649567,"R"
775436,"625 JEWEL LANE N","PLYMOUTH","MN",55447,44.9860714700001,-93.49966246,436,"625 JEWEL LANE N, PLYMOUTH, MN, 55447","Match","Exact","625 JEWEL LN N, PLYMOUTH, MN, 55447",43819696,"L"
775437,"625 JORDAN RIDGE LANE","RALEIGH","NC",27603,35.6033487380001,-78.6236625619999,437,"625 JORDAN RIDGE LANE, RALEIGH, NC, 27603","Match","Exact","625 JORDAN RIDGE LN, RALEIGH, NC, 27603",72599162,"R"
775438,"625 KALMIA","KETTLE FALLS","WA",99141,48.6072978500001,-118.059399754,438,"625 KALMIA, KETTLE FALLS, WA, 99141","Match","Non_Exact","625 KALMIA ST, KETTLE FALLS, WA, 99141",174843330,"R"
775439,"625 KENMOOR AVE SE STE 301","GRAND RAPIDS","MI",49546,42.9510484910001,-85.5654644699999,439,"625 KENMOOR AVE SE STE 301, GRAND RAPIDS, MI, 49546","Match","Non_Exact","625 KENMOOR AVE, GRAND RAPIDS, MI, 49546",12488393,"L"
775440,"625 KENMOOR AVE SE SUITE 301","GRAND RAPIDS","MI",49546,42.9510484910001,-85.5654644699999,440,"625 KENMOOR AVE SE SUITE 301, GRAND RAPIDS, MI, 49546","Match","Non_Exact","625 KENMOOR AVE, GRAND RAPIDS, MI, 49546",12488393,"L"
775441,"625 KIMPTON","MADISON","MS",39110,NA,NA,441,"625 KIMPTON, MADISON, MS, 39110","No_Match",NA,NA,NA,NA
775442,"625 KING AVENUE","BRONX","NY",10464,40.855528307,-73.789417223,442,"625 KING AVENUE, BRONX, NY, 10464","Match","Exact","625 KING AVE, BRONX, NY, 10464",80307793,"L"
775443,"625 KITLOU COURT","HOLLAND","OH",43528,41.6304149440001,-83.740868184,443,"625 KITLOU COURT, HOLLAND, OH, 43528","Match","Exact","625 KITLOU CT, HOLLAND, OH, 43528",33953761,"L"
775444,"625 KY HWY 2141","STANFORD","KY",40484,NA,NA,444,"625 KY HWY 2141, STANFORD, KY, 40484","No_Match",NA,NA,NA,NA
775445,"625 LA SALLE AVENUE","SAN FRANCISCO","CA",94124,37.727565563,-122.372648327,445,"625 LA SALLE AVENUE, SAN FRANCISCO, CA, 94124","Match","Exact","625 LA SALLE AVE, SAN FRANCISCO, CA, 94124",639023764,"L"
775446,"625 LAKE DOT CIRCLE SUITE 404","ORLANDO","FL",32801,28.5514939780001,-81.3858698179999,446,"625 LAKE DOT CIRCLE SUITE 404, ORLANDO, FL, 32801","Match","Exact","625 LAKE DOT CIR, ORLANDO, FL, 32801",612455133,"R"
775447,"625 LAKE DOT CIRCLE","ORLANDO","FL",32801,28.5514939780001,-81.3858698179999,447,"625 LAKE DOT CIRCLE, ORLANDO, FL, 32801","Match","Exact","625 LAKE DOT CIR, ORLANDO, FL, 32801",612455133,"R"
775448,"625 LAKE VARUNA DRIVE","GAITHERSBURG","MD",20878,39.1202784700001,-77.2308856659999,448,"625 LAKE VARUNA DRIVE, GAITHERSBURG, MD, 20878","Match","Exact","625 LAKE VARUNA DR, GAITHERSBURG, MD, 20878",647262337,"R"
775449,"625 LANCE VIEW LN","LAWRENCEVILLE","GA",30045,33.9642271660001,-83.938255947,449,"625 LANCE VIEW LN, LAWRENCEVILLE, GA, 30045","Match","Exact","625 LANCE VIEW LN, LAWRENCEVILLE, GA, 30045",647919722,"L"
775450,"625 LAREDO DRIVE","MURPHY","TX",75094,33.0386020780001,-96.597942943,450,"625 LAREDO DRIVE, MURPHY, TX, 75094","Match","Exact","625 LAREDO DR, MURPHY, TX, 75094",619982016,"R"
775451,"625 LAS PALOMAS CANYON RD","WILLIAMSBURG","NM",87942,NA,NA,451,"625 LAS PALOMAS CANYON RD, WILLIAMSBURG, NM, 87942","No_Match",NA,NA,NA,NA
775452,"625 LAUREL RIDGE DR","GAHANNA","OH",43230,40.0347596340001,-82.878104589,452,"625 LAUREL RIDGE DR, GAHANNA, OH, 43230","Match","Exact","625 LAUREL RIDGE DR, GAHANNA, OH, 43230",218694091,"L"
775453,"625 LAURENS ROAD","LANDRUM","SC",29356,35.1366114690001,-82.201057674,453,"625 LAURENS ROAD, LANDRUM, SC, 29356","Match","Exact","625 LAURENS RD, LANDRUM, SC, 29356",640602288,"R"
775454,"625 LAZELLE STREET","STURGIS","SD",57785,44.4147263670001,-103.49995588,454,"625 LAZELLE STREET, STURGIS, SD, 57785","Match","Exact","625 LAZELLE ST, STURGIS, SD, 57785",200908362,"R"
775455,"625 LIN DON DRIVE UNIT 21","HALIFAX","PA",17032,40.4683369310001,-76.9269643809999,455,"625 LIN DON DRIVE UNIT 21, HALIFAX, PA, 17032","Match","Non_Exact","625 LINN DON DR, HALIFAX, PA, 17032",638527149,"L"
775456,"625 LITCHFIELD TPKE","NEW HARTFORD","CT",6057,41.8301967850001,-72.987697063,456,"625 LITCHFIELD TPKE, NEW HARTFORD, CT, 6057","Match","Exact","625 LITCHFIELD TPKE, NEW HARTFORD, CT, 06057",611512202,"L"
775457,"625 LIVE OAK DR","ADKINS","TX",78101,29.286571813,-98.212840107,457,"625 LIVE OAK DR, ADKINS, TX, 78101","Match","Exact","625 LIVE OAK DR, ADKINS, TX, 78101",54883647,"R"
775458,"625 LONGHUNTER COURT","NASHVILLE","TN",37217,36.0936146080001,-86.639014554,458,"625 LONGHUNTER COURT, NASHVILLE, TN, 37217","Match","Non_Exact","625 LONG HUNTER CT, NASHVILLE, TN, 37217",606824815,"R"
775459,"625 LOOMIS RD","LAS CRUCES","NM",88007,32.357183247,-106.807083168,459,"625 LOOMIS RD, LAS CRUCES, NM, 88007","Match","Exact","625 LOOMIS RD, LAS CRUCES, NM, 88007",612718483,"R"
775460,"625 LYNHURST DR SW","ATLANTA","GA",30311,33.7380467140001,-84.489611673,460,"625 LYNHURST DR SW, ATLANTA, GA, 30311","Match","Exact","625 LYNHURST DR SW, ATLANTA, GA, 30311",17337462,"R"
775461,"625 MACDONOUGH STREET","BROOKLYN","NY",11233,40.683612381,-73.921156783,461,"625 MACDONOUGH STREET, BROOKLYN, NY, 11233","Match","Exact","625 MACDONOUGH ST, BROOKLYN, NY, 11233",59082887,"L"
775462,"625 MAGNOLIA LANE","COLUMBUS","MS",39705,33.522019706,-88.423360625,462,"625 MAGNOLIA LANE, COLUMBUS, MS, 39705","Match","Exact","625 MAGNOLIA LN, COLUMBUS, MS, 39705",610588625,"L"
775463,"625 MAHONIN AVE","WARREN","OH",44483,NA,NA,463,"625 MAHONIN AVE, WARREN, OH, 44483","No_Match",NA,NA,NA,NA
775464,"625 MAHONING AVE","WARREN","OH",44483,41.2408331460001,-80.8241719219999,464,"625 MAHONING AVE, WARREN, OH, 44483","Match","Non_Exact","625 MAHONING AVE NW, WARREN, OH, 44483",117405185,"L"
775465,"625 MAIN ST","DANBURY","NC",27016,36.4085730640001,-80.2097364429999,465,"625 MAIN ST, DANBURY, NC, 27016","Match","Exact","625 MAIN ST, DANBURY, NC, 27016",56328860,"R"
775466,"625 MAIN ST","OSAGE","IA",50461,43.2840911480001,-92.81237236,466,"625 MAIN ST, OSAGE, IA, 50461","Match","Exact","625 MAIN ST, OSAGE, IA, 50461",7470646,"R"
775467,"625 MAIN STREET APT 620","NEW YORK","NY",10044,40.763321105,-73.94865358,467,"625 MAIN STREET APT 620, NEW YORK, NY, 10044","Match","Exact","625 MAIN ST, NEW YORK, NY, 10044",59664035,"L"
775468,"625 MAIN STREET NO LL36","SYRACUSE","NY",10044,NA,NA,468,"625 MAIN STREET NO LL36, SYRACUSE, NY, 10044","No_Match",NA,NA,NA,NA
775469,"625 MAIN STREET","NEW YORK","NY",10044,40.763321105,-73.94865358,469,"625 MAIN STREET, NEW YORK, NY, 10044","Match","Exact","625 MAIN ST, NEW YORK, NY, 10044",59664035,"L"
775470,"625 MAIN STREET","PAINTSVILLE","KY",41240,37.813334792,-82.811016442,470,"625 MAIN STREET, PAINTSVILLE, KY, 41240","Match","Exact","625 MAIN ST, PAINTSVILLE, KY, 41240",33670080,"R"
775471,"625 MAIN STREET","WATERTOWN","MA",2472,NA,NA,471,"625 MAIN STREET, WATERTOWN, MA, 2472","No_Match",NA,NA,NA,NA
775472,"625 MALDEN AVE E","SEATTLE","WA",98112,47.62453958,-122.313615848,472,"625 MALDEN AVE E, SEATTLE, WA, 98112","Match","Exact","625 MALDEN AVE E, SEATTLE, WA, 98112",186587513,"L"
775473,"625 MANSFIELD ROAD","WILLOW GROVE","PA",19090,40.157196954,-75.1135295409999,473,"625 MANSFIELD ROAD, WILLOW GROVE, PA, 19090","Match","Exact","625 MANSFIELD RD, WILLOW GROVE, PA, 19090",135105370,"R"
775474,"625 MAPLE STREET","BREMEN","OH",43107,39.7034889940001,-82.4335529049999,474,"625 MAPLE STREET, BREMEN, OH, 43107","Match","Exact","625 MAPLE ST, BREMEN, OH, 43107",37225192,"R"
775475,"625 MARINA BLVD","BULLHEAD CITY","AZ",86442,NA,NA,475,"625 MARINA BLVD, BULLHEAD CITY, AZ, 86442","No_Match",NA,NA,NA,NA
775476,"625 MARNICE ROAD","FRESNO","CA",93710,NA,NA,476,"625 MARNICE ROAD, FRESNO, CA, 93710","No_Match",NA,NA,NA,NA
775477,"625 MARNICE ROAD","RIO LINDA","CA",95673,38.685430056,-121.475833724,477,"625 MARNICE ROAD, RIO LINDA, CA, 95673","Match","Exact","625 MARNICE RD, RIO LINDA, CA, 95673",133412645,"R"
775478,"625 MARSHALL ROAD","COLDWATER","MI",49036,41.9742512660001,-85.000713971,478,"625 MARSHALL ROAD, COLDWATER, MI, 49036","Match","Exact","625 MARSHALL RD, COLDWATER, MI, 49036",8212603,"R"
775479,"625 MARSHALL STREET SUITE 1500","LITTLE ROCK","AR",72201,34.7453265840001,-92.291354925,479,"625 MARSHALL STREET SUITE 1500, LITTLE ROCK, AR, 72201","Match","Exact","625 MARSHALL ST, LITTLE ROCK, AR, 72201",83541435,"L"
775480,"625 MARTIN LUTHER KING DRIVE","KENSETT","AR",72082,35.229545203,-91.659212365,480,"625 MARTIN LUTHER KING DRIVE, KENSETT, AR, 72082","Match","Non_Exact","625 E DR MARTIN LUTHER KING DR, KENSETT, AR, 72082",82948194,"R"
775481,"625 MAYFLOWER COURT","LA PLACE","LA",70068,30.0751649150001,-90.4816154119999,481,"625 MAYFLOWER COURT, LA PLACE, LA, 70068","Match","Exact","625 MAYFLOWER CT, LA PLACE, LA, 70068",93694338,"L"
775482,"625 MEADOW DR - LOWRY CROSSING","MCKINNEY","TX",75069,33.163432453,-96.537139983,482,"625 MEADOW DR - LOWRY CROSSING, MCKINNEY, TX, 75069","Match","Exact","625 MEADOW DR, MCKINNEY, TX, 75069",123559051,"R"
775483,"625 MEADOW GREEN CIRCLE","GAHANNA","OH",43230,40.01487466,-82.8617074909999,483,"625 MEADOW GREEN CIRCLE, GAHANNA, OH, 43230","Match","Exact","625 MEADOW GREEN CIR, GAHANNA, OH, 43230",135592655,"R"
775484,"625 MEADOW RIDGE LANE","KIRKWOOD","MO",63122,38.5982904320001,-90.393561865,484,"625 MEADOW RIDGE LANE, KIRKWOOD, MO, 63122","Match","Non_Exact","625 MEADOWRIDGE LN, KIRKWOOD, MO, 63122",100137850,"L"
775485,"625 MEADOWBROOK DRIVE","HUNTINGDON VALLEY","PA",19006,40.111794079,-75.079697086,485,"625 MEADOWBROOK DRIVE, HUNTINGDON VALLEY, PA, 19006","Match","Exact","625 MEADOWBROOK DR, HUNTINGDON VALLEY, PA, 19006",135130745,"R"
775486,"625 MENDOTA COURT","MADISON","WI",53703,43.0766379180001,-89.396530593,486,"625 MENDOTA COURT, MADISON, WI, 53703","Match","Exact","625 MENDOTA CT, MADISON, WI, 53703",49469410,"L"
775487,"625 MERCHANT","WAPELLO","IA",52653,41.183535132,-91.189662287,487,"625 MERCHANT, WAPELLO, IA, 52653","Match","Non_Exact","625 MERCHANT ST, WAPELLO, IA, 52653",9387645,"L"
775488,"625 MILLER AVE","VALLEJO","CA",94591,38.1046682360001,-122.228246878,488,"625 MILLER AVE, VALLEJO, CA, 94591","Match","Exact","625 MILLER AVE, VALLEJO, CA, 94591",192569714,"L"
775489,"625 MONROE STREET NE APT 440","WASHINGTON","DC",20017,38.9323597470001,-76.99691682,489,"625 MONROE STREET NE APT 440, WASHINGTON, DC, 20017","Match","Exact","625 MONROE ST NE, WASHINGTON, DC, 20017",76241741,"R"
775490,"625 MONROE STREET NE APT 550","WASHINGTON","DC",20017,38.9323597470001,-76.99691682,490,"625 MONROE STREET NE APT 550, WASHINGTON, DC, 20017","Match","Exact","625 MONROE ST NE, WASHINGTON, DC, 20017",76241741,"R"
775491,"625 MONROE STREET NE","WASHINGTON","DC",20017,38.9323597470001,-76.99691682,491,"625 MONROE STREET NE, WASHINGTON, DC, 20017","Match","Exact","625 MONROE ST NE, WASHINGTON, DC, 20017",76241741,"R"
775492,"625 MULE DEER NW","SALEM","OR",97304,44.942505194,-123.080859512,492,"625 MULE DEER NW, SALEM, OR, 97304","Match","Non_Exact","625 MULE DEER ST NW, SALEM, OR, 97304",610950384,"L"
775493,"625 N 4TH STREET","ARKANSAS CITY","KS",67005,37.068612171,-97.044021543,493,"625 N 4TH STREET, ARKANSAS CITY, KS, 67005","Match","Exact","625 N 4TH ST, ARKANSAS CITY, KS, 67005",44342493,"L"
775494,"625 N 5TH STREET","LOUP CITY","NE",68853,41.2803244930001,-98.964370915,494,"625 N 5TH STREET, LOUP CITY, NE, 68853","Match","Exact","625 N 5TH ST, LOUP CITY, NE, 68853",198272347,"L"
775495,"625 N ASHE STREET","SOUTHERN PINES","NC",28387,35.176804083,-79.384058212,495,"625 N ASHE STREET, SOUTHERN PINES, NC, 28387","Match","Exact","625 N ASHE ST, SOUTHERN PINES, NC, 28387",20296213,"R"
775496,"625 N BELVEDERE AVENUE","TUCSON","AZ",85711,32.2293926930001,-110.896899272,496,"625 N BELVEDERE AVENUE, TUCSON, AZ, 85711","Match","Exact","625 N BELVEDERE AVE, TUCSON, AZ, 85711",121179583,"L"
775497,"625 N CENTRAL AVE","CONNERSVILLE","IN",47331,39.6424856940001,-85.138503701,497,"625 N CENTRAL AVE, CONNERSVILLE, IN, 47331","Match","Exact","625 N CENTRAL AVE, CONNERSVILLE, IN, 47331",606878028,"L"
775498,"625 N EUCLID APT 609","ST LOUIS","MO",63108,NA,NA,498,"625 N EUCLID APT 609, ST LOUIS, MO, 63108","No_Match",NA,NA,NA,NA
775499,"625 N FIFTH STREET","SPEARFISH","SD",57783,44.4890397280001,-103.860284062,499,"625 N FIFTH STREET, SPEARFISH, SD, 57783","Match","Exact","625 N 5TH ST, SPEARFISH, SD, 57783",193362533,"L"
775500,"625 N FOURTH STREET","PLATTEVILLE","WI",53818,42.740040073,-90.475923117,500,"625 N FOURTH STREET, PLATTEVILLE, WI, 53818","Match","Exact","625 N 4TH ST, PLATTEVILLE, WI, 53818",32755580,"R"
