"ID","Address","City","State","Zip","lat","long","id","input_address","match_indicator","match_type","matched_address","tiger_line_id","tiger_side"
485501,"30733 RUE VALOIS","RANCHO PALOS VERDES","CA",90275,33.7534415590001,-118.40815725,1,"30733 RUE VALOIS, RANCHO PALOS VERDES, CA, 90275","Match","Exact","30733 RUE VALOIS, RANCHO PALOS VERDES, CA, 90275",141585046,"R"
485502,"30736 HIGHWAY 200 STE 102","PONDERAY","ID",83852,48.301032052,-116.539938648,2,"30736 HIGHWAY 200 STE 102, PONDERAY, ID, 83852","Match","Exact","30736 HWY 200, PONDERAY, ID, 83852",169500961,"R"
485503,"30736 PEORIA ROAD","SHEDD","OR",97377,44.477910766,-123.207361173,3,"30736 PEORIA ROAD, SHEDD, OR, 97377","Match","Exact","30736 PEORIA RD, SHEDD, OR, 97377",649992146,"L"
485504,"30737 HIGHWAY 19 BLVD","CANNON FALLS","MN",55009,NA,NA,4,"30737 HIGHWAY 19 BLVD, CANNON FALLS, MN, 55009","No_Match",NA,NA,NA,NA
485505,"30739 PORTOBAGO TRAIL","PORT ROYAL","VA",22535,38.131396427,-77.1108227889999,5,"30739 PORTOBAGO TRAIL, PORT ROYAL, VA, 22535","Match","Exact","30739 PORTOBAGO TRL, PORT ROYAL, VA, 22535",21967146,"R"
485506,"3074 48TH STREET APT 2D","LONG ISLAND CITY","NY",11103,NA,NA,6,"3074 48TH STREET APT 2D, LONG ISLAND CITY, NY, 11103","No_Match",NA,NA,NA,NA
485507,"3074 BRENT ROAD","REDDING","CA",96002,40.562024131,-122.373368971,7,"3074 BRENT ROAD, REDDING, CA, 96002","Match","Exact","3074 BRENT RD, REDDING, CA, 96002",126628027,"R"
485508,"3074 CHANNEL DRIVE","VENTURA","CA",93003,34.262954716,-119.256010412,8,"3074 CHANNEL DRIVE, VENTURA, CA, 93003","Match","Exact","3074 CHANNEL DR, VENTURA, CA, 93003",109952195,"R"
485509,"3074 CHISHOLM CT","MAPLEWOOD","MN",55119,NA,NA,9,"3074 CHISHOLM CT, MAPLEWOOD, MN, 55119","No_Match",NA,NA,NA,NA
485510,"3074 CHORT ALLEY","ORLANDO","FL",32828,NA,NA,10,"3074 CHORT ALLEY, ORLANDO, FL, 32828","No_Match",NA,NA,NA,NA
485511,"3074 COMBRAY CIRCLE","FLORENCE","SC",29501,34.2056896030001,-79.839341588,11,"3074 COMBRAY CIRCLE, FLORENCE, SC, 29501","Match","Exact","3074 COMBRAY CIR, FLORENCE, SC, 29501",627153026,"R"
485512,"3074 CORE CT","CEDAR SPRINGS","MI",49319,43.2399858470001,-85.594228206,12,"3074 CORE CT, CEDAR SPRINGS, MI, 49319","Match","Exact","3074 CORE CT, CEDAR SPRINGS, MI, 49319",637099632,"R"
485513,"3074 COUNTY LINE RD","ST PAULS","NC",28384,NA,NA,13,"3074 COUNTY LINE RD, ST PAULS, NC, 28384","No_Match",NA,NA,NA,NA
485514,"3074 DENALI WAY","ROCK HILL","SC",29732,34.9998779630001,-81.026253442,14,"3074 DENALI WAY, ROCK HILL, SC, 29732","Match","Exact","3074 DENALI WAY, ROCK HILL, SC, 29732",618821272,"R"
485515,"3074 ENDICOTT COURT","WALDORF","MD",20602,38.611203346,-76.8967329129999,15,"3074 ENDICOTT COURT, WALDORF, MD, 20602","Match","Exact","3074 ENDICOTT CT, WALDORF, MD, 20602",25381566,"R"
485516,"3074 EWING AVENUE","ALTADENA","CA",91001,34.196989009,-118.14469189,16,"3074 EWING AVENUE, ALTADENA, CA, 91001","Match","Non_Exact","3074 EWING ST, ALTADENA, CA, 91001",141628050,"R"
485517,"3074 FARRINGTON DR","BATON ROUGE","LA",70814,30.4782993160001,-91.085196239,17,"3074 FARRINGTON DR, BATON ROUGE, LA, 70814","Match","Exact","3074 FARRINGTON DR, BATON ROUGE, LA, 70814",92190207,"R"
485518,"3074 FM 1563","WOLFE CITY","TX",75496,33.36388707,-95.982093661,18,"3074 FM 1563, WOLFE CITY, TX, 75496","Match","Exact","3074 FM 1563, WOLFE CITY, TX, 75496",42870956,"R"
485519,"3074 JACKSON PASSAGE","BLOOMINGTON SPRINGS","TN",38545,36.216316922,-85.6048092839999,19,"3074 JACKSON PASSAGE, BLOOMINGTON SPRINGS, TN, 38545","Match","Exact","3074 JACKSON PSGE, BLOOMINGTON SPRINGS, TN, 38545",652878456,"L"
485520,"3074 JOSHUA TREE CIRCLE","STOCKTON","CA",95209,38.043625031,-121.350333826,20,"3074 JOSHUA TREE CIRCLE, STOCKTON, CA, 95209","Match","Exact","3074 JOSHUA TREE CIR, STOCKTON, CA, 95209",133930329,"L"
485521,"3074 KAHEWAI PL","HONOLULU","HI",96822,21.312295256,-157.807102643,21,"3074 KAHEWAI PL, HONOLULU, HI, 96822","Match","Exact","3074 KAHEWAI PL, HONOLULU, HI, 96822",203238147,"L"
485522,"3074 KAHEWAI PLACE","HONOLU","HI",96822,21.312295256,-157.807102643,22,"3074 KAHEWAI PLACE, HONOLU, HI, 96822","Match","Non_Exact","3074 KAHEWAI PL, HONOLULU, HI, 96822",203238147,"L"
485523,"3074 KALEI CT","PERRIS","CA",92553,33.8292402450001,-117.192132055,23,"3074 KALEI CT, PERRIS, CA, 92553","Match","Non_Exact","3074 KALEI CT, PERRIS, CA, 92571",627032402,"L"
485524,"3074 KALEI CT","PERRIS","CA",92571,33.8292402450001,-117.192132055,24,"3074 KALEI CT, PERRIS, CA, 92571","Match","Exact","3074 KALEI CT, PERRIS, CA, 92571",627032402,"L"
485525,"3074 LONG BRIDGE LN","LAKELAND","TN",38002,35.2099018970001,-89.736899153,25,"3074 LONG BRIDGE LN, LAKELAND, TN, 38002","Match","Exact","3074 LONG BRIDGE LN, LAKELAND, TN, 38002",72953514,"L"
485526,"3074 MACKENZI LANE","YORK","PA",17408,39.8821382580001,-76.796762266,26,"3074 MACKENZI LANE, YORK, PA, 17408","Match","Exact","3074 MACKENZI LN, YORK, PA, 17408",619801539,"L"
485527,"3074 MOON LAKE DR","BLOOMFIELD","MI",48323,42.5833897800001,-83.345271157,27,"3074 MOON LAKE DR, BLOOMFIELD, MI, 48323","Match","Non_Exact","3074 MOON LAKE DR, W BLOOMFIELD, MI, 48323",69759145,"L"
485528,"3074 N 250 W","LEHI","UT",84043,40.4256840840001,-111.853501431,28,"3074 N 250 W, LEHI, UT, 84043","Match","Non_Exact","3074 N 250 W, LEHI, UT, 84043",134259868,"L"
485529,"3074 NE STRIPLING COURT","PRINEVILLE","OR",97754,44.3286388650001,-120.836750156,29,"3074 NE STRIPLING COURT, PRINEVILLE, OR, 97754","Match","Exact","3074 NE STRIPLING CT, PRINEVILLE, OR, 97754",636575865,"R"
485530,"3074 NEEDHAMS COURT","ELLENWOOD","GA",30294,33.6067939960001,-84.288401315,30,"3074 NEEDHAMS COURT, ELLENWOOD, GA, 30294","Match","Non_Exact","3074 NEEDHAM'S CT, ELLENWOOD, GA, 30294",627670287,"L"
485531,"3074 NORTH 33RD STREET","KANSAS CITY","KS",66104,39.1422708320001,-94.666507812,31,"3074 NORTH 33RD STREET, KANSAS CITY, KS, 66104","Match","Exact","3074 N 33RD ST, KANSAS CITY, KS, 66104",91134777,"L"
485532,"3074 PINECREST ST","SARASOTA","FL",34239,27.302417242,-82.508185603,32,"3074 PINECREST ST, SARASOTA, FL, 34239","Match","Exact","3074 PINECREST ST, SARASOTA, FL, 34239",16405377,"R"
485533,"3074 POLK COUNTY LINE ROAD","RUTHERFORDTON","NC",28139,NA,NA,33,"3074 POLK COUNTY LINE ROAD, RUTHERFORDTON, NC, 28139","No_Match",NA,NA,NA,NA
485534,"3074 QUASAR DRIVE","CRESTVIEW","FL",32539,30.77807246,-86.536324856,34,"3074 QUASAR DRIVE, CRESTVIEW, FL, 32539","Match","Exact","3074 QUASAR DR, CRESTVIEW, FL, 32539",74407085,"R"
485535,"3074 RAINBOW DRIVE","DECATUR","GA",30034,33.709656017,-84.2641703749999,35,"3074 RAINBOW DRIVE, DECATUR, GA, 30034","Match","Exact","3074 RAINBOW DR, DECATUR, GA, 30034",23370738,"L"
485536,"3074 RENAULT ST","SAN DIEGO","CA",92122,32.849946796,-117.218659735,36,"3074 RENAULT ST, SAN DIEGO, CA, 92122","Match","Exact","3074 RENAULT ST, SAN DIEGO, CA, 92122",195302024,"L"
485537,"3074 ROXBURY CT","WEST LINN","OR",97068,45.365151714,-122.640155625,37,"3074 ROXBURY CT, WEST LINN, OR, 97068","Match","Exact","3074 ROXBURY CT, WEST LINN, OR, 97068",157985227,"L"
485538,"3074 SHARWOOD CT","WOODBRIDGE","VA",22192,NA,NA,38,"3074 SHARWOOD CT, WOODBRIDGE, VA, 22192","No_Match",NA,NA,NA,NA
485539,"3074 SIMMONS RD","PERRY","NY",14530,42.7361234540001,-77.992369738,39,"3074 SIMMONS RD, PERRY, NY, 14530","Match","Exact","3074 SIMMONS RD, PERRY, NY, 14530",48882251,"L"
485540,"3074 TRELAWNEY LANE","FALLBROOK","CA",92028,33.36710802,-117.196529999,40,"3074 TRELAWNEY LANE, FALLBROOK, CA, 92028","Match","Exact","3074 TRELAWNEY LN, FALLBROOK, CA, 92028",195387328,"L"
485541,"3074 W GENESEE AVE","SAGINAW","MI",48602,43.4356117040001,-83.98197456,41,"3074 W GENESEE AVE, SAGINAW, MI, 48602","Match","Exact","3074 W GENESEE AVE, SAGINAW, MI, 48602",80209530,"R"
485542,"3074","REDDING","CA",96002,NA,NA,42,"3074, REDDING, CA, 96002","No_Match",NA,NA,NA,NA
485543,"30740 LEE RD","SEDALIA","MO",65301,38.7843037420001,-93.1168198129999,43,"30740 LEE RD, SEDALIA, MO, 65301","Match","Exact","30740 LEE RD, SEDALIA, MO, 65301",624855762,"L"
485544,"30741 136TH ST","SELBY","SD",57472,45.420321141,-100.032963929,44,"30741 136TH ST, SELBY, SD, 57472","Match","Exact","30741 136TH ST, SELBY, SD, 57472",198543512,"L"
485545,"30742 GRANGER AVE","UNION CITY","CA",94587,37.598299721,-122.077773524,45,"30742 GRANGER AVE, UNION CITY, CA, 94587","Match","Exact","30742 GRANGER AVE, UNION CITY, CA, 94587",125022980,"R"
485546,"30742 GRANGER AVENUE","UNION CITY","CA",94587,37.598299721,-122.077773524,46,"30742 GRANGER AVENUE, UNION CITY, CA, 94587","Match","Exact","30742 GRANGER AVE, UNION CITY, CA, 94587",125022980,"R"
485547,"30744 SUNDERLAND DRIVE","FARMINGTON HILLS","MI",48331,42.522048688,-83.424798774,47,"30744 SUNDERLAND DRIVE, FARMINGTON HILLS, MI, 48331","Match","Exact","30744 SUNDERLAND DR, FARMINGTON HILLS, MI, 48331",69785545,"R"
485548,"30745 12TH PL SW","FEDERAL WAY","WA",98023,47.3268089950001,-122.350548499,48,"30745 12TH PL SW, FEDERAL WAY, WA, 98023","Match","Exact","30745 12TH PL SW, FEDERAL WAY, WA, 98023",186648291,"R"
485549,"30745 HUNTERS DR","FARMINGTON HILLS","MI",48334,42.5218454500001,-83.365375512,49,"30745 HUNTERS DR, FARMINGTON HILLS, MI, 48334","Match","Exact","30745 HUNTERS DR, FARMINGTON HILLS, MI, 48334",69723310,"L"
485550,"30746 PRINCIPIO DRIVE","MALIBU","CA",90265,34.032869508,-118.841643924,50,"30746 PRINCIPIO DRIVE, MALIBU, CA, 90265","Match","Exact","30746 PRINCIPIO DR, MALIBU, CA, 90265",141719983,"R"
485551,"30748 CAVALIER CT","UNION CITY","CA",94587,37.5978868710001,-122.084378251,51,"30748 CAVALIER CT, UNION CITY, CA, 94587","Match","Exact","30748 CAVALIER CT, UNION CITY, CA, 94587",125078957,"R"
485552,"30748 PYRAMID POINT DRIVE","CANYON LAKE","CA",92587,33.674871755,-117.25656255,52,"30748 PYRAMID POINT DRIVE, CANYON LAKE, CA, 92587","Match","Exact","30748 PYRAMID POINT DR, CANYON LAKE, CA, 92587",194707563,"R"
485553,"30749 CO RD 18","BROOTEN","MN",56316,45.5673844830001,-95.11145764,53,"30749 CO RD 18, BROOTEN, MN, 56316","Match","Non_Exact","30749 CO HWY 18, BROOTEN, MN, 56316",107405007,"L"
485554,"30749 REDTAIL CT","OCEAN VIEW","DE",19970,38.5671086520001,-75.122370158,54,"30749 REDTAIL CT, OCEAN VIEW, DE, 19970","Match","Exact","30749 REDTAIL CT, OCEAN VIEW, DE, 19970",626091835,"R"
485555,"30749 W COOPER BEND ROAD","KINTA","OK",74552,NA,NA,55,"30749 W COOPER BEND ROAD, KINTA, OK, 74552","No_Match",NA,NA,NA,NA
485556,"3075 19TH AVENUE SOUTH","ST PETERSBURG","FL",33712,27.751068978,-82.674649325,56,"3075 19TH AVENUE SOUTH, ST PETERSBURG, FL, 33712","Match","Exact","3075 19TH AVE S, SAINT PETERSBURG, FL, 33712",124705790,"R"
485557,"3075 ARCTIC BOULEVARD BOX 2084","ANCHORAGE","AK",99503,61.1931425500001,-149.897952261,57,"3075 ARCTIC BOULEVARD BOX 2084, ANCHORAGE, AK, 99503","Match","Exact","3075 ARCTIC BLVD, ANCHORAGE, AK, 99503",635209681,"L"
485558,"3075 BOOK RD STE 103 9134","NAPERVILLE","IL",60567,41.7331212130001,-88.18668917,58,"3075 BOOK RD STE 103 9134, NAPERVILLE, IL, 60567","Match","Non_Exact","3075 BOOK RD, NAPERVILLE, IL, 60540",112733470,"R"
485559,"3075 BROOKVIEW FOREST DR","NASHVILLE","TN",37211,36.016933361,-86.7125666539999,59,"3075 BROOKVIEW FOREST DR, NASHVILLE, TN, 37211","Match","Exact","3075 BROOKVIEW FOREST DR, NASHVILLE, TN, 37211",631786611,"L"
485560,"3075 CAITLYNN DRIVE","SUMTER","SC",29154,33.8902053480001,-80.414308412,60,"3075 CAITLYNN DRIVE, SUMTER, SC, 29154","Match","Exact","3075 CAITLYNN DR, SUMTER, SC, 29154",202706878,"L"
485561,"3075 CHELSEA LN","ACWORTH","GA",30102,34.110000642,-84.613501631,61,"3075 CHELSEA LN, ACWORTH, GA, 30102","Match","Exact","3075 CHELSEA LN, ACWORTH, GA, 30102",642590490,"R"
485562,"3075 CO RD 43","WATERLOO","IN",46706,41.4208147150001,-84.9864698279999,62,"3075 CO RD 43, WATERLOO, IN, 46706","Match","Non_Exact","3075 CO RD 43, WATERLOO, IN, 46793",6516433,"R"
485563,"3075 DANA POINTE DR","PINCKNEY","MI",48169,42.470059861,-83.888444986,63,"3075 DANA POINTE DR, PINCKNEY, MI, 48169","Match","Exact","3075 DANA POINTE DR, PINCKNEY, MI, 48169",23561727,"L"
485564,"3075 DARTMOUTH DR","JANESVILLE","WI",53548,42.6900284700001,-89.0620126479999,64,"3075 DARTMOUTH DR, JANESVILLE, WI, 53548","Match","Exact","3075 DARTMOUTH DR, JANESVILLE, WI, 53548",617255066,"L"
485565,"3075 DENALI WAY","ROCK HILL","SC",29732,34.999971385,-81.026217006,65,"3075 DENALI WAY, ROCK HILL, SC, 29732","Match","Exact","3075 DENALI WAY, ROCK HILL, SC, 29732",618821272,"L"
485566,"3075 E FLAMINGO RD","LAS VEGAS","NV",89121,36.114971962,-115.108218994,66,"3075 E FLAMINGO RD, LAS VEGAS, NV, 89121","Match","Exact","3075 E FLAMINGO RD, LAS VEGAS, NV, 89121",639403090,"R"
485567,"3075 E FLAMINGO ROAD  SUITE 118","LAS VEGAS","NV",89121,36.114971962,-115.108218994,67,"3075 E FLAMINGO ROAD  SUITE 118, LAS VEGAS, NV, 89121","Match","Non_Exact","3075 E FLAMINGO RD, LAS VEGAS, NV, 89121",639403090,"R"
485568,"3075 EAST KENNEDY DRIVE  106","SALT LAKE CITY","UT",84108,40.7480281090001,-111.803336165,68,"3075 EAST KENNEDY DRIVE  106, SALT LAKE CITY, UT, 84108","Match","Exact","3075 E KENNEDY DR, SALT LAKE CITY, UT, 84108",176109885,"L"
485569,"3075 ENCLAVE BAY DRIVE","CHATTANOOGA","TN",37415,35.0943067650001,-85.2707694869999,69,"3075 ENCLAVE BAY DRIVE, CHATTANOOGA, TN, 37415","Match","Exact","3075 ENCLAVE BAY DR, CHATTANOOGA, TN, 37415",59343283,"R"
485570,"3075 F","REDDING","CA",96002,NA,NA,70,"3075 F, REDDING, CA, 96002","No_Match",NA,NA,NA,NA
485571,"3075 FAIRBLUFF HWY","GREEN SEA","SC",29545,34.1785400540001,-78.9734095649999,71,"3075 FAIRBLUFF HWY, GREEN SEA, SC, 29545","Match","Non_Exact","3075 FAIR BLUFF HWY, GREEN SEA, SC, 29545",29045726,"L"
485572,"3075 FENWOOD TRAIL","ROSWELL","GA",30075,34.019148343,-84.386372638,72,"3075 FENWOOD TRAIL, ROSWELL, GA, 30075","Match","Exact","3075 FENWOOD TRL, ROSWELL, GA, 30075",17373254,"L"
485573,"3075 GOLF COURSE RD","WALL","SD",57790,43.9679306,-102.258284541,73,"3075 GOLF COURSE RD, WALL, SD, 57790","Match","Exact","3075 GOLF COURSE RD, WALL, SD, 57790",607276724,"L"
485574,"3075 GRAHAMVILLE RD","CONWAY","SC",29526,33.8443233080001,-78.930939393,74,"3075 GRAHAMVILLE RD, CONWAY, SC, 29526","Match","Exact","3075 GRAHAMVILLE RD, CONWAY, SC, 29526",607105972,"L"
485575,"3075 GRASSLANDS DR","LAKELAND","FL",33803,28.0071653840001,-81.983001467,75,"3075 GRASSLANDS DR, LAKELAND, FL, 33803","Match","Exact","3075 GRASSLANDS DR, LAKELAND, FL, 33803",104860833,"R"
485576,"3075 HEWLETT AVE","MERRICK","NY",11566,40.6460146160001,-73.538927923,76,"3075 HEWLETT AVE, MERRICK, NY, 11566","Match","Exact","3075 HEWLETT AVE, MERRICK, NY, 11566",147639355,"L"
485577,"3075 HIGHLAND PARKWAY","DOWNER GROVE","IL",60515,41.833260237,-88.010880551,77,"3075 HIGHLAND PARKWAY, DOWNER GROVE, IL, 60515","Match","Non_Exact","3075 HIGHLAND AVE, DOWNERS GROVE, IL, 60515",638152072,"L"
485578,"3075 HURON PLACE","LIMA","OH",45806,40.6975331630001,-84.1615479989999,78,"3075 HURON PLACE, LIMA, OH, 45806","Match","Exact","3075 HURON PL, LIMA, OH, 45806",209541652,"R"
485579,"3075 HUSTLE RD","CARET","VA",22436,38.047715312,-77.1090442729999,79,"3075 HUSTLE RD, CARET, VA, 22436","Match","Exact","3075 HUSTLE RD, CARET, VA, 22436",21882123,"R"
485580,"3075 JORDAN ROAD","OREFIELD","PA",18069,40.6364372690001,-75.60874418,80,"3075 JORDAN ROAD, OREFIELD, PA, 18069","Match","Exact","3075 JORDAN RD, OREFIELD, PA, 18069",80791623,"R"
485581,"3075 KISSING ROCK LANE","LOWELL","MI",49331,42.908073431,-85.412105884,81,"3075 KISSING ROCK LANE, LOWELL, MI, 49331","Match","Exact","3075 KISSING ROCK LN, LOWELL, MI, 49331",12506138,"L"
485582,"3075 L ST","SAN DIEGO","CA",92102,32.7074579370001,-117.128001249,82,"3075 L ST, SAN DIEGO, CA, 92102","Match","Exact","3075 L ST, SAN DIEGO, CA, 92102",195348200,"R"
485583,"3075 LANDER ROAD","PEPPER PIKE","OH",44124,41.4741813380001,-81.4633439839999,83,"3075 LANDER ROAD, PEPPER PIKE, OH, 44124","Match","Exact","3075 LANDER RD, PEPPER PIKE, OH, 44124",61167810,"L"
485584,"3075 LONE BLUFF WAY","SAN JOSE","CA",95111,37.2985917830001,-121.833451662,84,"3075 LONE BLUFF WAY, SAN JOSE, CA, 95111","Match","Exact","3075 LONE BLUFF WAY, SAN JOSE, CA, 95111",122914893,"R"
485585,"3075 MALLORY ST","PORTAGE","IN",46368,41.5625086470001,-87.174900212,85,"3075 MALLORY ST, PORTAGE, IN, 46368","Match","Exact","3075 MALLORY ST, PORTAGE, IN, 46368",632506767,"L"
485586,"3075 MERCEDES AVE","DAVIS","CA",95616,38.570141699,-121.751393165,86,"3075 MERCEDES AVE, DAVIS, CA, 95616","Match","Exact","3075 MERCEDES AVE, DAVIS, CA, 95616",67696167,"R"
485587,"3075 N BETHEL","SANGER","CA",93657,36.7802936190001,-119.574203737,87,"3075 N BETHEL, SANGER, CA, 93657","Match","Non_Exact","3075 N BETHEL AVE, SANGER, CA, 93657",197621162,"L"
485588,"3075 N LITCHFIELD ROAD","GOODYEAR","AZ",85395,33.4803662300001,-112.35999977,88,"3075 N LITCHFIELD ROAD, GOODYEAR, AZ, 85395","Match","Non_Exact","3075 LITCHFIELD RD BYP, GOODYEAR, AZ, 85395",653305337,"L"
485589,"3075 N MAIN ST","SPANISH FORK","UT",84660,40.1483349690001,-111.656835045,89,"3075 N MAIN ST, SPANISH FORK, UT, 84660","Match","Exact","3075 N MAIN ST, SPANISH FORK, UT, 84660",134247293,"L"
485590,"3075 NORTH CREEK ROAD","YOUNGSTOWN","NY",14174,43.2648510490001,-79.0088034029999,90,"3075 NORTH CREEK ROAD, YOUNGSTOWN, NY, 14174","Match","Non_Exact","3075 CREEK RD, YOUNGSTOWN, NY, 14174",641264110,"R"
485591,"3075 NW ANKENY CT","ANKENY","IA",50023,NA,NA,91,"3075 NW ANKENY CT, ANKENY, IA, 50023","No_Match",NA,NA,NA,NA
485592,"3075 PACIFIC HEIGHTS RD","HONOLULU","HI",96813,21.3275123710001,-157.838409801,92,"3075 PACIFIC HEIGHTS RD, HONOLULU, HI, 96813","Match","Exact","3075 PACIFIC HEIGHTS RD, HONOLULU, HI, 96813",203237027,"R"
485593,"3075 PIONEER ROAD","MEDFORD","OR",97501,42.258449571,-122.848922526,93,"3075 PIONEER ROAD, MEDFORD, OR, 97501","Match","Exact","3075 PIONEER RD, MEDFORD, OR, 97501",155574942,"R"
485594,"3075 QUEEN CITY AVE","CINCINNATI","OH",45238,39.136157536,-84.603335102,94,"3075 QUEEN CITY AVE, CINCINNATI, OH, 45238","Match","Exact","3075 QUEEN CITY AVE, CINCINNATI, OH, 45238",636700735,"L"
485595,"3075 REDDING AVENUE APT 921C","SACRAMENTO","CA",95820,38.5461525060001,-121.423077983,95,"3075 REDDING AVENUE APT 921C, SACRAMENTO, CA, 95820","Match","Exact","3075 REDDING AVE, SACRAMENTO, CA, 95820",634220156,"L"
485596,"3075 S RANGELINE RD","COLUMBIA","MO",65201,38.9168044790001,-92.200376403,96,"3075 S RANGELINE RD, COLUMBIA, MO, 65201","Match","Exact","3075 S RANGELINE RD, COLUMBIA, MO, 65201",604991222,"L"
485597,"3075 SOUTH AVENUE 4E","YUMA","AZ",85365,NA,NA,97,"3075 SOUTH AVENUE 4E, YUMA, AZ, 85365","No_Match",NA,NA,NA,NA
485598,"3075 SOUTHERN ELM CT","FAIRFAX","VA",22031,38.869421668,-77.2725288789999,98,"3075 SOUTHERN ELM CT, FAIRFAX, VA, 22031","Match","Exact","3075 SOUTHERN ELM CT, FAIRFAX, VA, 22031",75969216,"L"
485599,"3075 SUNVALLEY DRIVE","SUMTER","SC",29154,NA,NA,99,"3075 SUNVALLEY DRIVE, SUMTER, SC, 29154","No_Match",NA,NA,NA,NA
485600,"3075 SW 19 STREET","MIAMI","FL",33145,25.7538827000001,-80.243954656,100,"3075 SW 19 STREET, MIAMI, FL, 33145","Match","Non_Exact","3075 SW 19TH ST, MIAMI, FL, 33145",116014311,"R"
485601,"3075 SYLVAN RD","ATLANTA","GA",30354,33.671970888,-84.418899218,101,"3075 SYLVAN RD, ATLANTA, GA, 30354","Match","Non_Exact","3075 SYLVAN RD, ATLANTA, GA, 30344",17433442,"R"
485602,"3075 THRASHER CIRCLE","DECATUR","GA",30032,33.717870007,-84.263600307,102,"3075 THRASHER CIRCLE, DECATUR, GA, 30032","Match","Exact","3075 THRASHER CIR, DECATUR, GA, 30032",23370547,"R"
485603,"3075 UNION ST","ROCKLIN","CA",95677,38.7965268560001,-121.246033695,103,"3075 UNION ST, ROCKLIN, CA, 95677","Match","Exact","3075 UNION ST, ROCKLIN, CA, 95677",106764234,"L"
485604,"3075 VICTORIA FALLS DRIVE","BURLINGTON","NC",27215,36.064709968,-79.4921165069999,104,"3075 VICTORIA FALLS DRIVE, BURLINGTON, NC, 27215","Match","Exact","3075 VICTORIA FALLS DR, BURLINGTON, NC, 27215",647178349,"R"
485605,"3075 VIRGINIA ST","COCONUT GROVE","FL",33133,25.734043059,-80.2417055559999,105,"3075 VIRGINIA ST, COCONUT GROVE, FL, 33133","Match","Exact","3075 VIRGINIA ST, COCONUT GROVE, FL, 33133",116014906,"L"
485606,"3075 VIRGINIA ST","MIAMI","FL",33133,25.734043059,-80.2417055559999,106,"3075 VIRGINIA ST, MIAMI, FL, 33133","Match","Exact","3075 VIRGINIA ST, MIAMI, FL, 33133",116014906,"L"
485607,"3075 VON OSHEN DRIVE","ORANGEBURG","SC",29115,33.5336474220001,-80.86245503,107,"3075 VON OSHEN DRIVE, ORANGEBURG, SC, 29115","Match","Non_Exact","3075 VAN OSHEN DR, ORANGEBURG, SC, 29118",19229114,"R"
485608,"3075 W OAKLAND PARK STE 203","FORT LAUDERDALE","FL",33311,NA,NA,108,"3075 W OAKLAND PARK STE 203, FORT LAUDERDALE, FL, 33311","No_Match",NA,NA,NA,NA
485609,"3075 WEST ASHLAN AVE SUITE 23","FRESNO","CA",93722,36.793713026,-119.845187477,109,"3075 WEST ASHLAN AVE SUITE 23, FRESNO, CA, 93722","Match","Exact","3075 W ASHLAN AVE, FRESNO, CA, 93722",197568011,"L"
485610,"3075 WILLOW GROVE BLVD APT 4102","MCKINNY","TX",75070,33.1734219580001,-96.719090578,110,"3075 WILLOW GROVE BLVD APT 4102, MCKINNY, TX, 75070","Match","Non_Exact","3075 WILLOW GROVE BLVD, MCKINNEY, TX, 75070",639626523,"L"
485611,"3075 WILSHIRE BLVD STE 505","LOS ANGELES","CA",90010,34.061817449,-118.288462193,111,"3075 WILSHIRE BLVD STE 505, LOS ANGELES, CA, 90010","Match","Exact","3075 WILSHIRE BLVD, LOS ANGELES, CA, 90010",141605003,"R"
485612,"30751 FOX RUN LANE","SAN JUAN CAPISTRANO","CA",92675,33.5167027740001,-117.640469045,112,"30751 FOX RUN LANE, SAN JUAN CAPISTRANO, CA, 92675","Match","Exact","30751 FOX RUN LN, SAN JUAN CAPISTRANO, CA, 92675",144074326,"R"
485613,"30751 FOX RUN LN","SAN JUAN CAPISTRANO","CA",92675,33.5167027740001,-117.640469045,113,"30751 FOX RUN LN, SAN JUAN CAPISTRANO, CA, 92675","Match","Exact","30751 FOX RUN LN, SAN JUAN CAPISTRANO, CA, 92675",144074326,"R"
485614,"30751 TAMARACK ST APT 40207","WIXOM","MI",48393,42.5204894840001,-83.518767516,114,"30751 TAMARACK ST APT 40207, WIXOM, MI, 48393","Match","Exact","30751 TAMARACK ST, WIXOM, MI, 48393",69790148,"L"
485615,"30755 64TH AVE","LAWTON","MI",49065,42.1861287360001,-85.849715427,115,"30755 64TH AVE, LAWTON, MI, 49065","Match","Exact","30755 64TH AVE, LAWTON, MI, 49065",34767917,"L"
485616,"30755 DOVER AVE","WARREN","MI",48088,42.519350537,-82.993670564,116,"30755 DOVER AVE, WARREN, MI, 48088","Match","Exact","30755 DOVER AVE, WARREN, MI, 48088",110675120,"L"
485617,"30757 FAIRFAX STREET","SOUTHFIELD","MI",48076,42.5154639130001,-83.206894113,117,"30757 FAIRFAX STREET, SOUTHFIELD, MI, 48076","Match","Exact","30757 FAIRFAX ST, SOUTHFIELD, MI, 48076",69736084,"L"
485618,"30758 340TH ST NE","GATZKE","MN",56724,48.3673064660001,-95.8145590249999,118,"30758 340TH ST NE, GATZKE, MN, 56724","Match","Exact","30758 340TH ST NE, GATZKE, MN, 56724",171360896,"R"
485619,"30758 MIDLAND TRAIL E","LEWISBURG","WV",24901,37.811041119,-80.4670626239999,119,"30758 MIDLAND TRAIL E, LEWISBURG, WV, 24901","Match","Exact","30758 MIDLAND TRL E, LEWISBURG, WV, 24901",74760358,"L"
485620,"3075B JUNIPER ST","MCCHORD FIELD","WA",98439,NA,NA,120,"3075B JUNIPER ST, MCCHORD FIELD, WA, 98439","No_Match",NA,NA,NA,NA
485621,"3076 AMBERWAY","BARGERSVILLE","IN",46106,NA,NA,121,"3076 AMBERWAY, BARGERSVILLE, IN, 46106","No_Match",NA,NA,NA,NA
485622,"3076 ASHBOURNE CIRCLE","SAN RAMON","CA",94583,37.744576608,-121.98882049,122,"3076 ASHBOURNE CIRCLE, SAN RAMON, CA, 94583","Match","Exact","3076 ASHBOURNE CIR, SAN RAMON, CA, 94583",607873364,"L"
485623,"3076 BELLERIVE DR","ST LOUIS","MO",63121,38.7051218350001,-90.3103432039999,123,"3076 BELLERIVE DR, ST LOUIS, MO, 63121","Match","Exact","3076 BELLERIVE DR, SAINT LOUIS, MO, 63121",650043799,"R"
485624,"3076 EVERETT RD","PISGAH FOREST","NC",28712,NA,NA,124,"3076 EVERETT RD, PISGAH FOREST, NC, 28712","No_Match",NA,NA,NA,NA
485625,"3076 FARRELLS ROAD","BRANCHVILLE","SC",29432,33.203291678,-80.88477037,125,"3076 FARRELLS ROAD, BRANCHVILLE, SC, 29432","Match","Exact","3076 FARRELLS RD, BRANCHVILLE, SC, 29432",18959368,"L"
485626,"3076 HUMPHRIES DR","ATLANTA","GA",30359,NA,NA,126,"3076 HUMPHRIES DR, ATLANTA, GA, 30359","No_Match",NA,NA,NA,NA
485627,"3076 HUMPHRIES DRIVE","ATLANTA","GA",30354,33.671656194,-84.375680358,127,"3076 HUMPHRIES DRIVE, ATLANTA, GA, 30354","Match","Non_Exact","3076 HUMPHRIES DR SE, ATLANTA, GA, 30354",17358865,"L"
485628,"3076 LINCOYA BAY DRIVE","NASHVILLE","TN",37214,36.144319825,-86.622587545,128,"3076 LINCOYA BAY DRIVE, NASHVILLE, TN, 37214","Match","Exact","3076 LINCOYA BAY DR, NASHVILLE, TN, 37214",625095570,"L"
485629,"3076 MATT DRIVE","EUGENE","OR",97408,44.0972769740001,-123.069310595,129,"3076 MATT DRIVE, EUGENE, OR, 97408","Match","Exact","3076 MATT DR, EUGENE, OR, 97408",650922273,"R"
485630,"3076 N GERONIMO","PRESCOTT","AZ",86305,34.5969181410001,-112.505693623,130,"3076 N GERONIMO, PRESCOTT, AZ, 86305","Match","Non_Exact","3076 GERONIMO RD, PRESCOTT, AZ, 86305",159454829,"L"
485631,"3076 N GREGG AVENUE APT 12","FAYETTEVILLE","AR",72703,36.107644448,-94.163527194,131,"3076 N GREGG AVENUE APT 12, FAYETTEVILLE, AR, 72703","Match","Non_Exact","3076 N GREGG AVE, FAYETTEVILLE, AR, 72703",49050578,"R"
485632,"3076 NORTH GREG STE 12","FAYETTEVILLE","AR",72703,NA,NA,132,"3076 NORTH GREG STE 12, FAYETTEVILLE, AR, 72703","No_Match",NA,NA,NA,NA
485633,"3076 RAVINE POINT DR","COLUMBUS","OH",43231,NA,NA,133,"3076 RAVINE POINT DR, COLUMBUS, OH, 43231","No_Match",NA,NA,NA,NA
485634,"3076 SOUTH 1000 EAST","SALT LAKE CITY","UT",84106,40.704001174,-111.862590446,134,"3076 SOUTH 1000 EAST, SALT LAKE CITY, UT, 84106","Match","Exact","3076 S 1000 E, SALT LAKE CITY, UT, 84106",641896726,"R"
485635,"3076 SUNRISE BLVD","SLIDELL","LA",70461,30.2093288310001,-89.7725339039999,135,"3076 SUNRISE BLVD, SLIDELL, LA, 70461","Match","Exact","3076 SUNRISE BLVD, SLIDELL, LA, 70461",650047893,"R"
485636,"3076 TWIN PINE ROAD","THOMSON","GA",30824,33.5366196040001,-82.518743507,136,"3076 TWIN PINE ROAD, THOMSON, GA, 30824","Match","Exact","3076 TWIN PINE RD, THOMSON, GA, 30824",43156573,"R"
485637,"3076 VISTA TOWERS DRIVE","COLUMBIA","SC",29201,NA,NA,137,"3076 VISTA TOWERS DRIVE, COLUMBIA, SC, 29201","No_Match",NA,NA,NA,NA
485638,"3076 WILD ORCHID LANE","BURTON","MI",48519,42.987309872,-83.6023611859999,138,"3076 WILD ORCHID LANE, BURTON, MI, 48519","Match","Exact","3076 WILD ORCHID LN, BURTON, MI, 48519",618430635,"R"
485639,"30760 BARNETT LANE","DENHAM SPRINGS","LA",70706,30.509443209,-90.928869134,139,"30760 BARNETT LANE, DENHAM SPRINGS, LA, 70706","Match","Non_Exact","30760 BARNETT LN, DENHAM SPRINGS, LA, 70726",612909409,"R"
485640,"30760 CAMPBELL","WARREN","MI",48093,42.519933866,-83.014946174,140,"30760 CAMPBELL, WARREN, MI, 48093","Match","Non_Exact","30760 CAMPBELL AVE, WARREN, MI, 48093",110689117,"R"
485641,"30760 JEFFREY COURT APT 202","NEW HUDSON","MI",48165,42.5152164450001,-83.648081329,141,"30760 JEFFREY COURT APT 202, NEW HUDSON, MI, 48165","Match","Exact","30760 JEFFREY CT, NEW HUDSON, MI, 48165",69715498,"L"
485642,"30761 222ND WAY SE","BLACK DIAMOND","WA",98010,47.3259198550001,-122.046493941,142,"30761 222ND WAY SE, BLACK DIAMOND, WA, 98010","Match","Exact","30761 222ND WAY SE, BLACK DIAMOND, WA, 98010",187067884,"R"
485643,"30761 CR 390","GOBLES","MI",49055,42.404612134,-85.850332996,143,"30761 CR 390, GOBLES, MI, 49055","Match","Exact","30761 CO RD 390, GOBLES, MI, 49055",627803977,"R"
485644,"30761 ROAD 216","EXETER","CA",93221,36.346188913,-119.089676419,144,"30761 ROAD 216, EXETER, CA, 93221","Match","Exact","30761 RD 216, EXETER, CA, 93221",202766416,"L"
485645,"30762 BARRONS WAY","UNION CITY","CA",94587,37.5976001290001,-122.083859074,145,"30762 BARRONS WAY, UNION CITY, CA, 94587","Match","Exact","30762 BARRONS WAY, UNION CITY, CA, 94587",617283142,"L"
485646,"30762 REDDING AVE","SHAFER","MN",55074,45.3940170910001,-92.750904562,146,"30762 REDDING AVE, SHAFER, MN, 55074","Match","Exact","30762 REDDING AVE, SHAFER, MN, 55074",647168609,"L"
485647,"30764 KOINONIA ROAD","EUGENE","OR",97405,43.968459039,-123.132712718,147,"30764 KOINONIA ROAD, EUGENE, OR, 97405","Match","Exact","30764 KOINONIA RD, EUGENE, OR, 97405",178169361,"R"
485648,"30765 PACIFIC COAST HIGHWAY NUM 121","MALIBU","CA",90265,34.0301691000001,-118.842211484,148,"30765 PACIFIC COAST HIGHWAY NUM 121, MALIBU, CA, 90265","Match","Exact","30765 PACIFIC COAST HWY, MALIBU, CA, 90265",241171563,"L"
485649,"30765 PACIFIC COAST HWY STE 440","MALIBU","CA",90265,34.0301691000001,-118.842211484,149,"30765 PACIFIC COAST HWY STE 440, MALIBU, CA, 90265","Match","Exact","30765 PACIFIC COAST HWY, MALIBU, CA, 90265",241171563,"L"
485650,"30765 PACIFIC COAST HWY STE184","MALIBU","CA",90265,34.0301691000001,-118.842211484,150,"30765 PACIFIC COAST HWY STE184, MALIBU, CA, 90265","Match","Exact","30765 PACIFIC COAST HWY, MALIBU, CA, 90265",241171563,"L"
485651,"30765 PACIFIC COAST HWY STE411","MALIBU","CA",90265,34.0301691000001,-118.842211484,151,"30765 PACIFIC COAST HWY STE411, MALIBU, CA, 90265","Match","Exact","30765 PACIFIC COAST HWY, MALIBU, CA, 90265",241171563,"L"
485652,"30765 PACIFIC COAST HWY SUITE 131","MALIBU","CA",90265,34.0301691000001,-118.842211484,152,"30765 PACIFIC COAST HWY SUITE 131, MALIBU, CA, 90265","Match","Exact","30765 PACIFIC COAST HWY, MALIBU, CA, 90265",241171563,"L"
485653,"30765 PACIFIC COAST HWY UNIT 215","MALIBU","CA",90265,34.0301691000001,-118.842211484,153,"30765 PACIFIC COAST HWY UNIT 215, MALIBU, CA, 90265","Match","Exact","30765 PACIFIC COAST HWY, MALIBU, CA, 90265",241171563,"L"
485654,"30765 PACIFIC COAST HWY UNIT 477","MALIBU","CA",90265,34.0301691000001,-118.842211484,154,"30765 PACIFIC COAST HWY UNIT 477, MALIBU, CA, 90265","Match","Exact","30765 PACIFIC COAST HWY, MALIBU, CA, 90265",241171563,"L"
485655,"30766 TAMARACK ST","WIXOM","MI",48393,42.52043961,-83.519100925,155,"30766 TAMARACK ST, WIXOM, MI, 48393","Match","Exact","30766 TAMARACK ST, WIXOM, MI, 48393",69790148,"R"
485656,"30769 BASHAN ROAD","RACINE","OH",45771,39.003826013,-81.884399344,156,"30769 BASHAN ROAD, RACINE, OH, 45771","Match","Exact","30769 BASHAN RD, RACINE, OH, 45771",101276793,"L"
485657,"3077 BRENTON MANOR LOOP","WINTER HAVEN","FL",33881,28.071771647,-81.65310951,157,"3077 BRENTON MANOR LOOP, WINTER HAVEN, FL, 33881","Match","Exact","3077 BRENTON MANOR LOOP, WINTER HAVEN, FL, 33881",615582251,"L"
485658,"3077 CC ROAD","KILN","MS",39566,NA,NA,158,"3077 CC ROAD, KILN, MS, 39566","No_Match",NA,NA,NA,NA
485659,"3077 HUNTERS DR","JENISON","MI",49428,42.9172432820001,-85.8599546309999,159,"3077 HUNTERS DR, JENISON, MI, 49428","Match","Exact","3077 HUNTERS DR, JENISON, MI, 49428",71104926,"R"
485660,"3077 JACARANDA DR","BAKERSFIELD","CA",93301,35.389129113,-119.029968929,160,"3077 JACARANDA DR, BAKERSFIELD, CA, 93301","Match","Exact","3077 JACARANDA DR, BAKERSFIELD, CA, 93301",645293868,"L"
485661,"3077 KINGS REALM AVENUE","COLUMBUS","OH",43232,39.917337398,-82.840471989,161,"3077 KINGS REALM AVENUE, COLUMBUS, OH, 43232","Match","Exact","3077 KINGS REALM AVE, COLUMBUS, OH, 43232",218664961,"R"
485662,"3077 LEEMAN FERRY RD SW","HUNTSVILLE","AL",35801,34.700128856,-86.591782977,162,"3077 LEEMAN FERRY RD SW, HUNTSVILLE, AL, 35801","Match","Exact","3077 LEEMAN FERRY RD SW, HUNTSVILLE, AL, 35801",58206216,"L"
485663,"3077 LIVINGSTON","CLEVELAND","OH",44120,41.47478934,-81.589306227,163,"3077 LIVINGSTON, CLEVELAND, OH, 44120","Match","Non_Exact","3077 LIVINGSTON RD, CLEVELAND, OH, 44120",649990626,"L"
485664,"3077 N MAYFAIR SUITE 300","WAUWATOSA","WI",53222,NA,NA,164,"3077 N MAYFAIR SUITE 300, WAUWATOSA, WI, 53222","No_Match",NA,NA,NA,NA
485665,"3077 NE RENE AVENUE","GRESHAM","OR",97230,45.514424106,-122.409458522,165,"3077 NE RENE AVENUE, GRESHAM, OR, 97230","Match","Non_Exact","3077 NE RENE AVE, GRESHAM, OR, 97030",641697449,"R"
485666,"3077 NORTH STREET","EAST TROY","WI",53120,42.7910307010001,-88.414328128,166,"3077 NORTH STREET, EAST TROY, WI, 53120","Match","Exact","3077 NORTH ST, EAST TROY, WI, 53120",53675865,"R"
485667,"3077 NORTHLAKE WAY NW","BREMERTON","WA",98312,47.5907848680001,-122.712955738,167,"3077 NORTHLAKE WAY NW, BREMERTON, WA, 98312","Match","Exact","3077 NORTHLAKE WAY NW, BREMERTON, WA, 98312",625103972,"L"
485668,"3077 OLD DIXIE HIGHWAY","MIMS","FL",32754,28.68343959,-80.8494265639999,168,"3077 OLD DIXIE HIGHWAY, MIMS, FL, 32754","Match","Exact","3077 OLD DIXIE HWY, MIMS, FL, 32754",653168345,"L"
485669,"3077 UNIVERSITY AVE","LOS ANGELES","CA",90007,34.0260952360001,-118.282143388,169,"3077 UNIVERSITY AVE, LOS ANGELES, CA, 90007","Match","Exact","3077 UNIVERSITY AVE, LOS ANGELES, CA, 90007",141607485,"R"
485670,"3077 VIA DRIVE","MERCED","CA",95348,NA,NA,170,"3077 VIA DRIVE, MERCED, CA, 95348","No_Match",NA,NA,NA,NA
485671,"30770 GRAND VIEW CIRCLE","TEMECULA","CA",92591,33.5452669910001,-117.121732575,171,"30770 GRAND VIEW CIRCLE, TEMECULA, CA, 92591","Match","Exact","30770 GRAND VIEW CIR, TEMECULA, CA, 92591",608999387,"R"
485672,"30770 OVERSEAS HIGHWAY","BIG PINE KEY","FL",33043,NA,NA,172,"30770 OVERSEAS HIGHWAY, BIG PINE KEY, FL, 33043","No_Match",NA,NA,NA,NA
485673,"30770 REVIS ROAD","COARSEGOLD","CA",93614,37.1964543,-119.762588613,173,"30770 REVIS ROAD, COARSEGOLD, CA, 93614","Match","Exact","30770 REVIS RD, COARSEGOLD, CA, 93614",102329757,"L"
485674,"30771 NE OHIO RD","GREELEY","KS",66033,38.3397437260001,-95.2037590689999,174,"30771 NE OHIO RD, GREELEY, KS, 66033","Match","Exact","30771 NE OHIO RD, GREELEY, KS, 66033",10474027,"L"
485675,"30771 VIA LA CRESTA","RANCHO PALOS VERDES","CA",90275,NA,NA,175,"30771 VIA LA CRESTA, RANCHO PALOS VERDES, CA, 90275","No_Match",NA,NA,NA,NA
485676,"30773 MILFORD RD BOX 183","NEW HUDSON","MI",48165,42.5111098470001,-83.615716891,176,"30773 MILFORD RD BOX 183, NEW HUDSON, MI, 48165","Match","Exact","30773 MILFORD RD, NEW HUDSON, MI, 48165",69715680,"L"
485677,"30773 MILFORD ROAD PMB 196","NEW HUDSON","MI",48165,42.5111098470001,-83.615716891,177,"30773 MILFORD ROAD PMB 196, NEW HUDSON, MI, 48165","Match","Exact","30773 MILFORD RD, NEW HUDSON, MI, 48165",69715680,"L"
485678,"30773 PRAIRIE SUN WAY","MURRIETA","CA",92563,33.609566445,-117.120348397,178,"30773 PRAIRIE SUN WAY, MURRIETA, CA, 92563","Match","Non_Exact","30773 PRAIRE SUN WAY, MURRIETA, CA, 92563",640887944,"L"
485679,"30773 YOUNG DOVE STREET","MENIFEE","CA",92584,33.6736034520001,-117.184939628,179,"30773 YOUNG DOVE STREET, MENIFEE, CA, 92584","Match","Exact","30773 YOUNG DOVE ST, MENIFEE, CA, 92584",195093490,"R"
485680,"30773","NEW HUDSON","MI",48165,NA,NA,180,"30773, NEW HUDSON, MI, 48165","No_Match",NA,NA,NA,NA
485681,"30774 OAK VALLEY DR","FARMINGTON HILLS","MI",48331,42.522649437,-83.389855285,181,"30774 OAK VALLEY DR, FARMINGTON HILLS, MI, 48331","Match","Exact","30774 OAK VALLEY DR, FARMINGTON HILLS, MI, 48331",69814598,"R"
485682,"30777 N LAKE DRIVE","SEDALIA","MO",65301,38.7019953390001,-93.117844593,182,"30777 N LAKE DRIVE, SEDALIA, MO, 65301","Match","Exact","30777 N LAKE DR, SEDALIA, MO, 65301",54725595,"L"
485683,"30777 NORTHWESTERN HIGHWAY STE 102","FARMINGTON HILLS","MI",48334,NA,NA,183,"30777 NORTHWESTERN HIGHWAY STE 102, FARMINGTON HILLS, MI, 48334","No_Match",NA,NA,NA,NA
485684,"30777 RANCHO CALIF RD UNIT 893422","TEMECULA","CA",92589,33.507565954,-117.121838161,184,"30777 RANCHO CALIF RD UNIT 893422, TEMECULA, CA, 92589","Match","Non_Exact","30777 RANCHO CALIFORNIA RD, TEMECULA, CA, 92591",194717316,"R"
485685,"30777","FARMINGTON HILLS","MI",48334,NA,NA,185,"30777, FARMINGTON HILLS, MI, 48334","No_Match",NA,NA,NA,NA
485686,"30779 NELSON CIR","WESTLAND","MI",48186,42.295852935,-83.3438362969999,186,"30779 NELSON CIR, WESTLAND, MI, 48186","Match","Exact","30779 NELSON CIR, WESTLAND, MI, 48186",95712348,"L"
485687,"3078 160TH AVENUE","HENDRICKS","MN",56136,NA,NA,187,"3078 160TH AVENUE, HENDRICKS, MN, 56136","No_Match",NA,NA,NA,NA
485688,"3078 BALARDO WAY","SAN JOSE","CA",95148,37.325913879,-121.778427139,188,"3078 BALARDO WAY, SAN JOSE, CA, 95148","Match","Exact","3078 BALARDO WAY, SAN JOSE, CA, 95148",122917506,"L"
485689,"3078 CHICO HWY 101","BRIDGEPORT","TX",76426,NA,NA,189,"3078 CHICO HWY 101, BRIDGEPORT, TX, 76426","No_Match",NA,NA,NA,NA
485690,"3078 CLAIREMONT RD NE 716","BROOKHAVEN","GA",30329,33.8478887040001,-84.315474361,190,"3078 CLAIREMONT RD NE 716, BROOKHAVEN, GA, 30329","Match","Non_Exact","3078 CLAIRMONT RD NE, BROOKHAVEN, GA, 30329",628060876,"L"
485691,"3078 CLAIRMONT RD APT 504","ATLANTA","GA",30329,33.8478887040001,-84.315474361,191,"3078 CLAIRMONT RD APT 504, ATLANTA, GA, 30329","Match","Non_Exact","3078 CLAIRMONT RD NE, ATLANTA, GA, 30329",628060876,"L"
485692,"3078 CLAIRMONT RD NE APT 728","BROOKHAVEN","GA",30329,33.8478887040001,-84.315474361,192,"3078 CLAIRMONT RD NE APT 728, BROOKHAVEN, GA, 30329","Match","Exact","3078 CLAIRMONT RD NE, BROOKHAVEN, GA, 30329",628060876,"L"
485693,"3078 CLAIRMONT RD","ATLANTA","GA",30329,33.8478887040001,-84.315474361,193,"3078 CLAIRMONT RD, ATLANTA, GA, 30329","Match","Non_Exact","3078 CLAIRMONT RD NE, ATLANTA, GA, 30329",628060876,"L"
485694,"3078 CLAIRMONT ROAD APT 625","BROOK HAVEN","GA",30329,33.8478887040001,-84.315474361,194,"3078 CLAIRMONT ROAD APT 625, BROOK HAVEN, GA, 30329","Match","Non_Exact","3078 CLAIRMONT RD NE, BROOKHAVEN, GA, 30329",628060876,"L"
485695,"3078 CLAIRMONTH RD NE APT 104","ATLANTA","GA",30329,NA,NA,195,"3078 CLAIRMONTH RD NE APT 104, ATLANTA, GA, 30329","No_Match",NA,NA,NA,NA
485696,"3078 E WATERMAN WAY","GILBERT","AZ",85297,33.286588668,-111.723496086,196,"3078 E WATERMAN WAY, GILBERT, AZ, 85297","Match","Exact","3078 E WATERMAN WAY, GILBERT, AZ, 85297",647431348,"L"
485697,"3078 EASTBROOK TERRACE SW","ATLANTA","GA",30331,33.671670899,-84.509742809,197,"3078 EASTBROOK TERRACE SW, ATLANTA, GA, 30331","Match","Non_Exact","3078 EASTBROOK TER, ATLANTA, GA, 30331",610240799,"R"
485698,"3078 ESSER PLACE","WALDORF","MD",20603,38.6289002930001,-76.9660838519999,198,"3078 ESSER PLACE, WALDORF, MD, 20603","Match","Exact","3078 ESSER PL, WALDORF, MD, 20603",25392921,"R"
485699,"3078 FAIRWOOD AVE","COLUMBUS","OH",43207,39.9022357000001,-82.9576097,199,"3078 FAIRWOOD AVE, COLUMBUS, OH, 43207","Match","Exact","3078 FAIRWOOD AVE, COLUMBUS, OH, 43207",135586355,"L"
485700,"3078 FIELDCREST DRIVE","MONTGOMERY","AL",36106,32.3466393460001,-86.246836969,200,"3078 FIELDCREST DRIVE, MONTGOMERY, AL, 36106","Match","Exact","3078 FIELDCREST DR, MONTGOMERY, AL, 36106",1488971,"R"
485701,"3078 GOLDEN GLOW ROAD","DE PERE","WI",54115,44.3716228600001,-88.183091996,201,"3078 GOLDEN GLOW ROAD, DE PERE, WI, 54115","Match","Exact","3078 GOLDEN GLOW RD, DE PERE, WI, 54115",148117751,"R"
485702,"3078 HENRICH FARM LANE","ALLISON PARK","PA",15101,40.5753900460001,-79.936964374,202,"3078 HENRICH FARM LANE, ALLISON PARK, PA, 15101","Match","Exact","3078 HENRICH FARM LN, ALLISON PARK, PA, 15101",51933981,"R"
485703,"3078 HIGHWAY 519","ATHENS","LA",71003,32.645614467,-92.961466348,203,"3078 HIGHWAY 519, ATHENS, LA, 71003","Match","Non_Exact","3078 STATE RTE 519, ATHENS, LA, 71003",605892179,"R"
485704,"3078 MAPLE ROAD","NEWFANE","NY",14108,43.265344144,-78.8002000119999,204,"3078 MAPLE ROAD, NEWFANE, NY, 14108","Match","Exact","3078 MAPLE RD, NEWFANE, NY, 14108",48689856,"R"
485705,"3078 MCKINNON WAY","OAKTON","VA",22124,38.8780533130001,-77.3041327559999,205,"3078 MCKINNON WAY, OAKTON, VA, 22124","Match","Exact","3078 MCKINNON WAY, OAKTON, VA, 22124",76042785,"R"
485706,"3078 NC HWY 45 SOUTH","PLYMOUTH","NC",27962,NA,NA,206,"3078 NC HWY 45 SOUTH, PLYMOUTH, NC, 27962","Tie",NA,NA,NA,NA
485707,"3078 RIO ARRIZA LOOP","LAS CRUCES","NM",88012,32.3716893100001,-106.755774938,207,"3078 RIO ARRIZA LOOP, LAS CRUCES, NM, 88012","Match","Exact","3078 RIO ARRIZA LOOP, LAS CRUCES, NM, 88012",639524477,"L"
485708,"3078 S DUKEWATER CIR","WEST VALLEY","UT",84120,NA,NA,208,"3078 S DUKEWATER CIR, WEST VALLEY, UT, 84120","No_Match",NA,NA,NA,NA
485709,"3078 SEA GULL LANE","STOCKTON","CA",95219,37.9965289150001,-121.352444408,209,"3078 SEA GULL LANE, STOCKTON, CA, 95219","Match","Exact","3078 SEA GULL LN, STOCKTON, CA, 95219",133888854,"R"
485710,"3078 SPRUCE CIR","ST GEORGE","UT",84790,37.053228559,-113.560311941,210,"3078 SPRUCE CIR, ST GEORGE, UT, 84790","Match","Exact","3078 SPRUCE CIR, SAINT GEORGE, UT, 84790",166167397,"L"
485711,"3078 SUNFISH DRIVE","ALLEGAN","MI",49010,42.4716338590001,-85.8447278469999,211,"3078 SUNFISH DRIVE, ALLEGAN, MI, 49010","Match","Exact","3078 SUNFISH DR, ALLEGAN, MI, 49010",11435886,"R"
485712,"3078 THISTLE DRIVE","LAKE HAVASU CITY","AZ",86406,34.4859590360001,-114.296904436,212,"3078 THISTLE DRIVE, LAKE HAVASU CITY, AZ, 86406","Match","Exact","3078 THISTLE DR, LAKE HAVASU CITY, AZ, 86406",190281562,"R"
485713,"3078 W 6620 SO","WEST JORDAN","UT",84084,40.6309287440001,-111.965019562,213,"3078 W 6620 SO, WEST JORDAN, UT, 84084","Match","Exact","3078 W 6620 S, WEST JORDAN, UT, 84084",176075100,"L"
485714,"30780 HIGHWAY 109","LA JUNTA","CO",81050,38.079405256,-103.528126248,214,"30780 HIGHWAY 109, LA JUNTA, CO, 81050","Match","Non_Exact","30780 STATE HWY 109, LA JUNTA, CO, 81050",653083119,"R"
485715,"30785 E TOURIST RD","DRUMMOND ISLAND","MI",49726,46.035179349,-83.723010008,215,"30785 E TOURIST RD, DRUMMOND ISLAND, MI, 49726","Match","Exact","30785 E TOURIST RD, DRUMMOND ISLAND, MI, 49726",635520911,"L"
485716,"30787 143RD AVE","SPRING VALLEY","MN",55975,43.801911164,-92.3644183219999,216,"30787 143RD AVE, SPRING VALLEY, MN, 55975","Match","Exact","30787 143RD AVE, SPRING VALLEY, MN, 55975",651639269,"L"
485717,"30787 TAMARACK","WIXOM","MI",48393,42.5204086780001,-83.519527,217,"30787 TAMARACK, WIXOM, MI, 48393","Match","Non_Exact","30787 TAMARACK ST, WIXOM, MI, 48393",69790148,"L"
485718,"30789 EAST 1920 ROAD","RINGLING","OK",73456,NA,NA,218,"30789 EAST 1920 ROAD, RINGLING, OK, 73456","No_Match",NA,NA,NA,NA
485719,"3079 180TH ST","LOCKRIDGE","IA",52635,NA,NA,219,"3079 180TH ST, LOCKRIDGE, IA, 52635","No_Match",NA,NA,NA,NA
485720,"3079 BELLFLOWER WAY","LAKELAND","FL",33811,28.00655963,-82.033632618,220,"3079 BELLFLOWER WAY, LAKELAND, FL, 33811","Match","Exact","3079 BELLFLOWER WAY, LAKELAND, FL, 33811",633997146,"R"
485721,"3079 BROWNS BRIDGE RD","GAINESVILLE","GA",30504,34.2810632860001,-83.886409321,221,"3079 BROWNS BRIDGE RD, GAINESVILLE, GA, 30504","Match","Exact","3079 BROWNS BRIDGE RD, GAINESVILLE, GA, 30504",618452372,"R"
485722,"3079 BUCKEYE DRIVE","WINTER HAVEN","FL",33881,NA,NA,222,"3079 BUCKEYE DRIVE, WINTER HAVEN, FL, 33881","No_Match",NA,NA,NA,NA
485723,"3079 BUMBLE BEE RD","ACCIDENT","MD",21520,39.591692016,-79.3356150829999,223,"3079 BUMBLE BEE RD, ACCIDENT, MD, 21520","Match","Exact","3079 BUMBLE BEE RD, ACCIDENT, MD, 21520",74190887,"L"
485724,"3079 CAMBIER RD","NEWARK","NY",14513,43.117242693,-77.146711496,224,"3079 CAMBIER RD, NEWARK, NY, 14513","Match","Exact","3079 CAMBIER RD, NEWARK, NY, 14513",14913171,"L"
485725,"3079 CAMPBELLTON RD SUITE 105","ATLANTA","GA",30311,33.694089859,-84.4886987209999,225,"3079 CAMPBELLTON RD SUITE 105, ATLANTA, GA, 30311","Match","Non_Exact","3079 CAMPBELLTON RD SW, ATLANTA, GA, 30311",17337693,"R"
485726,"3079 CAMPBELLTON RD SW STE 203","ATLANTA","GA",30311,33.694089859,-84.4886987209999,226,"3079 CAMPBELLTON RD SW STE 203, ATLANTA, GA, 30311","Match","Exact","3079 CAMPBELLTON RD SW, ATLANTA, GA, 30311",17337693,"R"
485727,"3079 COLORADO COVE","SAN ANTONIO","TX",78253,29.4657922920001,-98.7363923199999,227,"3079 COLORADO COVE, SAN ANTONIO, TX, 78253","Match","Exact","3079 COLORADO COVE, SAN ANTONIO, TX, 78253",645128725,"L"
485728,"3079 CR 408","STEPHENVILLE","TX",76401,32.2577310140001,-98.355128775,228,"3079 CR 408, STEPHENVILLE, TX, 76401","Match","Exact","3079 CO RD 408, STEPHENVILLE, TX, 76401",158528129,"L"
485729,"3079 E GRANT","FRESNO","CA",93701,36.7486270740001,-119.773025424,229,"3079 E GRANT, FRESNO, CA, 93701","Match","Non_Exact","3079 E GRANT AVE, FRESNO, CA, 93701",197580224,"L"
485730,"3079 EAST VIRGO PLACE","CHANDLER","AZ",85249,33.2241773110001,-111.788241372,230,"3079 EAST VIRGO PLACE, CHANDLER, AZ, 85249","Match","Exact","3079 E VIRGO PL, CHANDLER, AZ, 85249",128854210,"R"
485731,"3079 FRAMINGTON CIRCLE","COLUMBUS","OH",43224,NA,NA,231,"3079 FRAMINGTON CIRCLE, COLUMBUS, OH, 43224","No_Match",NA,NA,NA,NA
485732,"3079 HIGH RIDGE ROAD","YORKTOWN HEIGHTS","NY",10598,41.313959851,-73.78307568,232,"3079 HIGH RIDGE ROAD, YORKTOWN HEIGHTS, NY, 10598","Match","Exact","3079 HIGH RIDGE RD, YORKTOWN HEIGHTS, NY, 10598",139780733,"R"
485733,"3079 HOLLYWOOD DR","DECATUR","GA",30033,33.8043831690001,-84.265806574,233,"3079 HOLLYWOOD DR, DECATUR, GA, 30033","Match","Exact","3079 HOLLYWOOD DR, DECATUR, GA, 30033",23384730,"R"
485734,"3079 JACKSON STREET EXT","ORIENT","IA",50858,NA,NA,234,"3079 JACKSON STREET EXT, ORIENT, IA, 50858","No_Match",NA,NA,NA,NA
485735,"3079 JONQUIL DRIVE","TAYLORSVILLE","UT",84129,40.643055562,-111.964870109,235,"3079 JONQUIL DRIVE, TAYLORSVILLE, UT, 84129","Match","Exact","3079 JONQUIL DR, TAYLORSVILLE, UT, 84129",176114396,"R"
485736,"3079 MASSACHUSETTS AVE 1","CINCINNATI","OH",45225,39.1402650630001,-84.535434225,236,"3079 MASSACHUSETTS AVE 1, CINCINNATI, OH, 45225","Match","Exact","3079 MASSACHUSETTS AVE, CINCINNATI, OH, 45225",103922886,"L"
485737,"3079 MOSLEY FERRY RD","ASHLAND CITY","TN",37015,36.3687732540001,-87.225029658,237,"3079 MOSLEY FERRY RD, ASHLAND CITY, TN, 37015","Match","Exact","3079 MOSLEY FERRY RD, ASHLAND CITY, TN, 37015",637208219,"R"
485738,"3079 ORDWAY DR NW  J","ROANOKE","VA",24017,37.3047677100001,-79.976132848,238,"3079 ORDWAY DR NW  J, ROANOKE, VA, 24017","Match","Exact","3079 ORDWAY DR NW, ROANOKE, VA, 24017",62902840,"R"
485739,"3079 PEACHTREE INDUSTRIAL BLVD","DULUTH","GA",30097,NA,NA,239,"3079 PEACHTREE INDUSTRIAL BLVD, DULUTH, GA, 30097","No_Match",NA,NA,NA,NA
485740,"3079 S CHARLESTOWN RD","LEXINGTON","IN",47138,38.648321912,-85.6326533929999,240,"3079 S CHARLESTOWN RD, LEXINGTON, IN, 47138","Match","Exact","3079 S CHARLESTOWN RD, LEXINGTON, IN, 47138",31603930,"R"
485741,"3079 SANGRIA STREET","KISSIMMEE","FL",34744,28.337825395,-81.321092818,241,"3079 SANGRIA STREET, KISSIMMEE, FL, 34744","Match","Exact","3079 SANGRIA ST, KISSIMMEE, FL, 34744",650164523,"R"
485742,"3079 STILLRIVER DRIVE","HOWELL","MI",48843,42.595941838,-83.889888226,242,"3079 STILLRIVER DRIVE, HOWELL, MI, 48843","Match","Exact","3079 STILLRIVER DR, HOWELL, MI, 48843",614122186,"L"
485743,"3079 TRACKROCK RD","BLAIRSVILLE","GA",30512,NA,NA,243,"3079 TRACKROCK RD, BLAIRSVILLE, GA, 30512","No_Match",NA,NA,NA,NA
485744,"3079 TRES LOGOS LN","DALLAS","TX",75228,32.8533680730001,-96.6597143819999,244,"3079 TRES LOGOS LN, DALLAS, TX, 75228","Match","Exact","3079 TRES LOGOS LN, DALLAS, TX, 75228",102929929,"L"
485745,"30790 PRIMROSE DR","WARREN","MI",48088,42.5214342840001,-82.974617504,245,"30790 PRIMROSE DR, WARREN, MI, 48088","Match","Exact","30790 PRIMROSE DR, WARREN, MI, 48088",110699042,"R"
485746,"30791 HUNT CLUB DRIVE","SANJUAN CAPISTRANO","CA",92675,33.5163014880001,-117.642885869,246,"30791 HUNT CLUB DRIVE, SANJUAN CAPISTRANO, CA, 92675","Match","Non_Exact","30791 HUNT CLUB DR, SAN JUAN CAPISTRANO, CA, 92675",649775155,"L"
485747,"30791 MARBELLA VISTA","SAN JUAN CAPISTRANO","CA",92675,33.51607132,-117.660051716,247,"30791 MARBELLA VISTA, SAN JUAN CAPISTRANO, CA, 92675","Match","Exact","30791 MARBELLA VIS, SAN JUAN CAPISTRANO, CA, 92675",637912675,"L"
485748,"30791 POLO FIELD","POTTER VALLEY","CA",95469,NA,NA,248,"30791 POLO FIELD, POTTER VALLEY, CA, 95469","No_Match",NA,NA,NA,NA
485749,"30792 MOLLY B ROAD","LEWES","DE",19958,38.7492723140001,-75.212700126,249,"30792 MOLLY B ROAD, LEWES, DE, 19958","Match","Exact","30792 MOLLY B RD, LEWES, DE, 19958",106105439,"L"
485750,"30793 ATLANTA LANE","WESTLAKE","OH",44145,41.454162395,-81.960549014,250,"30793 ATLANTA LANE, WESTLAKE, OH, 44145","Match","Exact","30793 ATLANTA LN, WESTLAKE, OH, 44145",61137790,"L"
485751,"30794 LAMAR","FARMINGTON HILLS","MI",48336,42.465447021,-83.3527506149999,251,"30794 LAMAR, FARMINGTON HILLS, MI, 48336","Match","Non_Exact","30794 LAMAR ST, FARMINGTON HILLS, MI, 48336",69730759,"R"
485752,"30795 ALLEN AVE","HOMELAND","CA",92548,33.7376983460001,-117.125841115,252,"30795 ALLEN AVE, HOMELAND, CA, 92548","Match","Exact","30795 ALLEN AVE, HOMELAND, CA, 92548",194882625,"R"
485753,"30796 GOLDENRIDGE","NOVI","MI",48377,NA,NA,253,"30796 GOLDENRIDGE, NOVI, MI, 48377","No_Match",NA,NA,NA,NA
485754,"30797 COUNTRY RIDGE CIRCLE","FARMINGTON HILLS","MI",48331,42.5236072000001,-83.423670449,254,"30797 COUNTRY RIDGE CIRCLE, FARMINGTON HILLS, MI, 48331","Match","Exact","30797 COUNTRY RIDGE CIR, FARMINGTON HILLS, MI, 48331",69721095,"R"
485755,"30799 LA MADELINE COURT","DENHAM SPRINGS","LA",70726,30.508898523,-90.913588125,255,"30799 LA MADELINE COURT, DENHAM SPRINGS, LA, 70726","Match","Exact","30799 LA MADELINE CT, DENHAM SPRINGS, LA, 70726",612909176,"L"
485756,"30799 LA MADELINE CT","DENHAM SPRINGS","LA",70726,30.508898523,-90.913588125,256,"30799 LA MADELINE CT, DENHAM SPRINGS, LA, 70726","Match","Exact","30799 LA MADELINE CT, DENHAM SPRINGS, LA, 70726",612909176,"L"
485757,"30799 PINETREE  235","PEPPER PIKE","OH",44124,41.462316464,-81.4587978769999,257,"30799 PINETREE  235, PEPPER PIKE, OH, 44124","Match","Non_Exact","30799 PINETREE RD, PEPPER PIKE, OH, 44124",61136180,"L"
485758,"30799 PINETREE ROAD 418","PEPPER PIKE","OH",44124,41.462316464,-81.4587978769999,258,"30799 PINETREE ROAD 418, PEPPER PIKE, OH, 44124","Match","Exact","30799 PINETREE RD, PEPPER PIKE, OH, 44124",61136180,"L"
485759,"30799 PINETREE ROAD SUITE 226","CLEVELAND","OH",44124,41.462316464,-81.4587978769999,259,"30799 PINETREE ROAD SUITE 226, CLEVELAND, OH, 44124","Match","Exact","30799 PINETREE RD, CLEVELAND, OH, 44124",61136180,"L"
485760,"30799 PINETREE ROAD","CLEVELAND","OH",44124,41.462316464,-81.4587978769999,260,"30799 PINETREE ROAD, CLEVELAND, OH, 44124","Match","Exact","30799 PINETREE RD, CLEVELAND, OH, 44124",61136180,"L"
485761,"30799 PINETREE ROAD","CLEVELAND","OH",44128,41.462316464,-81.4587978769999,261,"30799 PINETREE ROAD, CLEVELAND, OH, 44128","Match","Non_Exact","30799 PINETREE RD, CLEVELAND, OH, 44124",61136180,"L"
485762,"307A CARPENTER DAM RD","HOT SPRINGS","AR",71901,34.468972486,-93.020696616,262,"307A CARPENTER DAM RD, HOT SPRINGS, AR, 71901","Match","Exact","307 CARPENTER DAM RD, HOT SPRINGS, AR, 71901",650172977,"R"
485763,"307A KAMANI STREET","HONOLULU","HI",96813,21.296492179,-157.857181435,263,"307A KAMANI STREET, HONOLULU, HI, 96813","Match","Exact","307 KAMANI ST, HONOLULU, HI, 96813",203236471,"R"
485764,"307A RALSTON DRIVE","MOUNT LAUREL","NJ",8054,39.9552902990001,-74.8704790039999,264,"307A RALSTON DRIVE, MOUNT LAUREL, NJ, 8054","Match","Exact","307 RALSTON DR, MOUNT LAUREL, NJ, 08054",134062507,"R"
485765,"307A S SEVENTH ST","FOWLER","CA",93625,36.6276822890001,-119.677565082,265,"307A S SEVENTH ST, FOWLER, CA, 93625","Match","Exact","307 S 7TH ST, FOWLER, CA, 93625",197588009,"L"
485766,"307B WALNUT ST","SOUTH AMBOY","NJ",8779,NA,NA,266,"307B WALNUT ST, SOUTH AMBOY, NJ, 8779","No_Match",NA,NA,NA,NA
485767,"307B WOODCREEK DRIVE APT 104","BOLINGBROOK","IL",60440,41.6873902090001,-88.0804504449999,267,"307B WOODCREEK DRIVE APT 104, BOLINGBROOK, IL, 60440","Match","Exact","307 WOODCREEK DR, BOLINGBROOK, IL, 60440",111595169,"L"
485768,"308  MONMOUTH AVE","LAKEWOOD","NJ",8701,40.0937572020001,-74.210410318,268,"308  MONMOUTH AVE, LAKEWOOD, NJ, 8701","Match","Exact","308 MONMOUTH AVE, LAKEWOOD, NJ, 08701",203723733,"L"
485769,"308 1/2 NE 72ND ST APT 2","SEATTLE","WA",98115,47.6803280130001,-122.325656841,269,"308 1/2 NE 72ND ST APT 2, SEATTLE, WA, 98115","Match","Exact","308 NE 72ND ST, SEATTLE, WA, 98115",239761635,"L"
485770,"308 11TH AVE N","SHELBY","MT",59474,48.5094018550001,-111.869143865,270,"308 11TH AVE N, SHELBY, MT, 59474","Match","Exact","308 11TH AVE N, SHELBY, MT, 59474",204293765,"R"
485771,"308 11TH AVE SO","SO ST PAUL","MN",55075,44.8868762880001,-93.047501631,271,"308 11TH AVE SO, SO ST PAUL, MN, 55075","Match","Exact","308 11TH AVE S, SOUTH SAINT PAUL, MN, 55075",37917129,"R"
485772,"308 11TH ST","NOCONA","TX",76255,33.7877465780001,-97.71427212,272,"308 11TH ST, NOCONA, TX, 76255","Match","Exact","308 11TH ST, NOCONA, TX, 76255",152109582,"L"
485773,"308 14TH ST","FARMINGTON","MN",55024,44.6400716640001,-93.1270837449999,273,"308 14TH ST, FARMINGTON, MN, 55024","Match","Exact","308 14TH ST, FARMINGTON, MN, 55024",37933927,"R"
485774,"308 14TH STREET","KENOVA","WV",25530,38.401796733,-82.576736924,274,"308 14TH STREET, KENOVA, WV, 25530","Match","Exact","308 14TH ST, KENOVA, WV, 25530",57202183,"R"
485775,"308 16TH STREET WEST","PALMETTO","FL",34221,27.5276356000001,-82.565828768,275,"308 16TH STREET WEST, PALMETTO, FL, 34221","Match","Exact","308 16TH ST W, PALMETTO, FL, 34221",16243374,"L"
485776,"308 1ST AVE","MONTE VISTA","CO",81144,37.58051319,-106.154840927,276,"308 1ST AVE, MONTE VISTA, CO, 81144","Match","Exact","308 1ST AVE, MONTE VISTA, CO, 81144",104362092,"L"
485777,"308 1ST STREET NE","GARDEN CITY","SD",57236,44.958221994,-97.578711479,277,"308 1ST STREET NE, GARDEN CITY, SD, 57236","Match","Exact","308 1ST ST NE, GARDEN CITY, SD, 57236",201137812,"L"
485778,"308 1ST STREET","KENNETT","MO",63857,36.236518652,-90.055039591,278,"308 1ST STREET, KENNETT, MO, 63857","Match","Exact","308 1ST ST, KENNETT, MO, 63857",38799197,"R"
485779,"308 220TH ST","STAR PRAIRIE","WI",54026,45.2557635220001,-92.611381621,279,"308 220TH ST, STAR PRAIRIE, WI, 54026","Match","Exact","308 220TH ST, STAR PRAIRIE, WI, 54026",110854420,"R"
485780,"308 25TH STREET","ALTOONA","PA",16602,40.499925838,-78.403559005,280,"308 25TH STREET, ALTOONA, PA, 16602","Match","Exact","308 25TH ST, ALTOONA, PA, 16602",49711144,"R"
485781,"308 2ND AVE","CLARENCE","IA",52216,41.8884616660001,-91.0626985549999,281,"308 2ND AVE, CLARENCE, IA, 52216","Match","Exact","308 2ND AVE, CLARENCE, IA, 52216",16700514,"L"
485782,"308 2ND AVENUE SE","CULLMAN","AL",35055,34.1755817760001,-86.840544988,282,"308 2ND AVENUE SE, CULLMAN, AL, 35055","Match","Exact","308 2ND AVE SE, CULLMAN, AL, 35055",130220523,"R"
485783,"308 2ND AVENUE SW","CULLMAN","AL",35055,34.175090799,-86.843857435,283,"308 2ND AVENUE SW, CULLMAN, AL, 35055","Match","Exact","308 2ND AVE SW, CULLMAN, AL, 35055",130220527,"L"
485784,"308 2ND ST NW","MANDAN","ND",58554,46.827984551,-100.894104334,284,"308 2ND ST NW, MANDAN, ND, 58554","Match","Exact","308 2ND ST NW, MANDAN, ND, 58554",199032473,"R"
485785,"308 2ND STREET","LESTER","IA",51242,43.4364568330001,-96.332426266,285,"308 2ND STREET, LESTER, IA, 51242","Match","Exact","308 2ND ST, LESTER, IA, 51242",649878718,"R"
485786,"308 3RD AVE NE","CHOTEAU","MT",59422,47.8151749150001,-112.181997577,286,"308 3RD AVE NE, CHOTEAU, MT, 59422","Match","Exact","308 3RD AVE NE, CHOTEAU, MT, 59422",202607913,"L"
485787,"308 3RD STREET SOUTH","STILLWATER","MN",55082,45.054251832,-92.808030345,287,"308 3RD STREET SOUTH, STILLWATER, MN, 55082","Match","Exact","308 3RD ST S, STILLWATER, MN, 55082",97794146,"R"
485788,"308 44TH STREET NE","WASHINGTON","DC",20019,38.894241697,-76.939202337,288,"308 44TH STREET NE, WASHINGTON, DC, 20019","Match","Exact","308 44TH ST NE, WASHINGTON, DC, 20019",76233434,"L"
485789,"308 4TH AVE S 814","SEATTLE","WA",98104,47.5993177390001,-122.328975585,289,"308 4TH AVE S 814, SEATTLE, WA, 98104","Match","Exact","308 4TH AVE S, SEATTLE, WA, 98104",239762538,"L"
485790,"308 4TH AVE W","SWEA CITY","IA",50590,43.384982802,-94.309972387,290,"308 4TH AVE W, SWEA CITY, IA, 50590","Match","Exact","308 4TH AVE W, SWEA CITY, IA, 50590",9848005,"L"
485791,"308 4TH STREET","PALACIOS","TX",77465,28.701641431,-96.2151334009999,291,"308 4TH STREET, PALACIOS, TX, 77465","Match","Exact","308 4TH ST, PALACIOS, TX, 77465",83288449,"R"
485792,"308 5TH AVENUE 2A","BROOKLYN","NY",11215,40.673322334,-73.982851629,292,"308 5TH AVENUE 2A, BROOKLYN, NY, 11215","Match","Exact","308 5TH AVE, BROOKLYN, NY, 11215",59078103,"R"
485793,"308 6TH ST SE","LONG BEACH","WA",98631,NA,NA,293,"308 6TH ST SE, LONG BEACH, WA, 98631","Tie",NA,NA,NA,NA
485794,"308 7TH ST S","GLEN ULLIN","ND",58631,46.813094977,-101.838673067,294,"308 7TH ST S, GLEN ULLIN, ND, 58631","Match","Non_Exact","308 7TH ST, GLEN ULLIN, ND, 58631",199017336,"L"
485795,"308 7TH STREET","ODONNELL","TX",79351,32.9658276440001,-101.826101155,295,"308 7TH STREET, ODONNELL, TX, 79351","Match","Exact","308 7TH ST, ODONNELL, TX, 79351",183047850,"R"
485796,"308 8 W CHELTEN AVE","PHILADELPHIA","PA",19144,NA,NA,296,"308 8 W CHELTEN AVE, PHILADELPHIA, PA, 19144","No_Match",NA,NA,NA,NA
485797,"308 9TH ST SE","LITTLE FALLS","MN",56345,45.9724957180001,-94.350988962,297,"308 9TH ST SE, LITTLE FALLS, MN, 56345","Match","Exact","308 9TH ST SE, LITTLE FALLS, MN, 56345",167394211,"L"
485798,"308 A SHEPHERD HILLS","MADISON","TN",37115,36.2940498180001,-86.691607367,298,"308 A SHEPHERD HILLS, MADISON, TN, 37115","Match","Non_Exact","308 SHEPHERD HILLS DR, MADISON, TN, 37115",639905349,"R"
485799,"308 ABBOT STREET","SPRINGFIELD","MA",1119,NA,NA,299,"308 ABBOT STREET, SPRINGFIELD, MA, 1119","No_Match",NA,NA,NA,NA
485800,"308 ADAMS STREET SE","ALBUQUERQUE","NM",87108,35.075498135,-106.594346011,300,"308 ADAMS STREET SE, ALBUQUERQUE, NM, 87108","Match","Exact","308 ADAMS ST SE, ALBUQUERQUE, NM, 87108",206716421,"L"
485801,"308 ADAMS STREET","COATSBURG","IL",62325,40.0308191440001,-91.160795811,301,"308 ADAMS STREET, COATSBURG, IL, 62325","Match","Exact","308 ADAMS ST, COATSBURG, IL, 62325",35074626,"R"
485802,"308 AIRPORT ROAD","CHERAW","SC",29520,34.7154946570001,-79.951603623,302,"308 AIRPORT ROAD, CHERAW, SC, 29520","Match","Non_Exact","308 AIRPORT LN, CHERAW, SC, 29520",14331788,"L"
485803,"308 ALEXANDER AVE","BAXTER","TN",38544,36.156055258,-85.643945878,303,"308 ALEXANDER AVE, BAXTER, TN, 38544","Match","Non_Exact","308 ALEXANDER ST, BAXTER, TN, 38544",25152778,"L"
485804,"308 ALFRED ST  APT B","ATHENS","WI",54411,45.0325295820001,-90.0739028529999,304,"308 ALFRED ST  APT B, ATHENS, WI, 54411","Match","Exact","308 ALFRED ST, ATHENS, WI, 54411",117120353,"R"
485805,"308 ALFRED ST APT B","Athens","WI",54411,45.0325295820001,-90.0739028529999,305,"308 ALFRED ST APT B, Athens, WI, 54411","Match","Exact","308 ALFRED ST, ATHENS, WI, 54411",117120353,"R"
485806,"308 ALLENHURST AVE","NEPTUNE","NJ",7753,40.216029554,-74.056558217,306,"308 ALLENHURST AVE, NEPTUNE, NJ, 7753","Match","Exact","308 ALLENHURST AVE, NEPTUNE, NJ, 07753",90457597,"R"
485807,"308 ALPERT AVENUE","FORT COLLINS","CO",80525,40.564370872,-105.073696309,307,"308 ALPERT AVENUE, FORT COLLINS, CO, 80525","Match","Exact","308 ALPERT AVE, FORT COLLINS, CO, 80525",188491501,"L"
485808,"308 AMBERWINE COURT","ANTIOCH","TN",37013,36.0428480840001,-86.5819347029999,308,"308 AMBERWINE COURT, ANTIOCH, TN, 37013","Match","Exact","308 AMBERWINE CT, ANTIOCH, TN, 37013",97213513,"R"
485809,"308 AMHERST DR SE","ALBUQUERQUE","NM",87106,35.0769843190001,-106.605774114,309,"308 AMHERST DR SE, ALBUQUERQUE, NM, 87106","Match","Exact","308 AMHERST DR SE, ALBUQUERQUE, NM, 87106",206710399,"L"
485810,"308 ANDERSON AVENUE","WESTMINSTER","SC",29693,34.671183779,-83.089414167,310,"308 ANDERSON AVENUE, WESTMINSTER, SC, 29693","Match","Exact","308 ANDERSON AVE, WESTMINSTER, SC, 29693",25638151,"R"
485811,"308 ANDOVER STREET","SAN FRANCISCO","CA",94110,37.7389607260001,-122.416466906,311,"308 ANDOVER STREET, SAN FRANCISCO, CA, 94110","Match","Exact","308 ANDOVER ST, SAN FRANCISCO, CA, 94110",192288663,"R"
485812,"308 ANGEL LEA","CARL JUNCTION","MO",64834,37.1744808720001,-94.551378915,312,"308 ANGEL LEA, CARL JUNCTION, MO, 64834","Match","Non_Exact","308 ANGEL LEA DR, CARL JUNCTION, MO, 64834",66165387,"R"
485813,"308 APACHE DR","PAINT LICK","KY",40461,37.560811905,-84.3463060939999,313,"308 APACHE DR, PAINT LICK, KY, 40461","Match","Exact","308 APACHE DR, PAINT LICK, KY, 40461",635638426,"R"
485814,"308 APPLE ROAD","CASTLE HAYNE","NC",28429,34.303972215,-77.94778372,314,"308 APPLE ROAD, CASTLE HAYNE, NC, 28429","Match","Exact","308 APPLE RD, CASTLE HAYNE, NC, 28429",152746163,"L"
485815,"308 ARBANA DRIVE","ANN ARBOR","MI",48103,42.283926428,-83.7620957679999,315,"308 ARBANA DRIVE, ANN ARBOR, MI, 48103","Match","Exact","308 ARBANA DR, ANN ARBOR, MI, 48103",26014188,"R"
485816,"308 ARCADIA ST SW","HARTSELLE",NA,NA,34.420485016,-86.928882174,316,"308 ARCADIA ST SW, HARTSELLE, , ","Match","Exact","308 ARCADIA ST SW, HARTSELLE, AL, 35640",97105958,"R"
485817,"308 ARDMORE DR","MIDDLETOWN","OH",45042,39.5173340970001,-84.376976645,317,"308 ARDMORE DR, MIDDLETOWN, OH, 45042","Match","Exact","308 ARDMORE DR, MIDDLETOWN, OH, 45042",113796415,"L"
485818,"308 ARTISAN","ORLANDO","FL",32824,28.3944375200001,-81.3730791689999,318,"308 ARTISAN, ORLANDO, FL, 32824","Match","Non_Exact","308 ARTISAN ST, ORLANDO, FL, 32824",628001209,"R"
485819,"308 ASHTON DRIVE","LEESBURG","VA",20175,39.115853429,-77.577385293,319,"308 ASHTON DRIVE, LEESBURG, VA, 20175","Match","Non_Exact","308 ASHTON DR SW, LEESBURG, VA, 20175",62339142,"L"
485820,"308 ASPEN DR","DOVER","OH",44622,40.5514198160001,-81.4831094849999,320,"308 ASPEN DR, DOVER, OH, 44622","Match","Exact","308 ASPEN DR, DOVER, OH, 44622",623999749,"L"
485821,"308 ASPEN DRIVE","CRAWFORDSVILLE","IN",47933,40.048147498,-86.867972959,321,"308 ASPEN DRIVE, CRAWFORDSVILLE, IN, 47933","Match","Exact","308 ASPEN DR, CRAWFORDSVILLE, IN, 47933",29368614,"R"
485822,"308 AVENDALE STREET","PORTSMOUTH","VA",23731,NA,NA,322,"308 AVENDALE STREET, PORTSMOUTH, VA, 23731","No_Match",NA,NA,NA,NA
485823,"308 AVENUE G","KENTWOOD","LA",70444,30.9368214470001,-90.5092016409999,323,"308 AVENUE G, KENTWOOD, LA, 70444","Match","Exact","308 AVE G, KENTWOOD, LA, 70444",75742741,"L"
485824,"308 AZORES PLACE","GROVELAND","FL",34736,28.5792844100001,-81.8130061849999,324,"308 AZORES PLACE, GROVELAND, FL, 34736","Match","Exact","308 AZORES PL, GROVELAND, FL, 34736",617509525,"R"
485825,"308 BALTIMORE BLVD","SEA GIRT","NJ",8750,40.133273848,-74.034639359,325,"308 BALTIMORE BLVD, SEA GIRT, NJ, 8750","Match","Exact","308 BALTIMORE BLVD, SEA GIRT, NJ, 08750",90467787,"L"
485826,"308 BANKS ST","GRAHAM","NC",27253,36.067079796,-79.404517438,326,"308 BANKS ST, GRAHAM, NC, 27253","Match","Exact","308 BANKS ST, GRAHAM, NC, 27253",71665618,"L"
485827,"308 BARBOUR ST","PROVIDENCE","KY",42450,37.390696045,-87.759411332,327,"308 BARBOUR ST, PROVIDENCE, KY, 42450","Match","Exact","308 BARBOUR ST, PROVIDENCE, KY, 42450",12113678,"R"
485828,"308 BAREBACK TRAIL","HARKER HEIGHTS","TX",76548,31.053607657,-97.668715178,328,"308 BAREBACK TRAIL, HARKER HEIGHTS, TX, 76548","Match","Exact","308 BAREBACK TRL, HARKER HEIGHTS, TX, 76548",146206785,"R"
485829,"308 BAYBRIDGE DRIVE","COLUMBIA","SC",29229,34.1918247610001,-80.9027748349999,329,"308 BAYBRIDGE DRIVE, COLUMBIA, SC, 29229","Match","Exact","308 BAYBRIDGE DR, COLUMBIA, SC, 29229",646566278,"R"
485830,"308 BAYOU BLUE BYPASS RD","GRAY","LA",70359,29.720113477,-90.777816645,330,"308 BAYOU BLUE BYPASS RD, GRAY, LA, 70359","Match","Exact","308 BAYOU BLUE BYPASS RD, GRAY, LA, 70359",92071801,"R"
485831,"308 BEACHWOOD DR","GRAND ISLAND","NE",68803,40.920458835,-98.40146408,331,"308 BEACHWOOD DR, GRAND ISLAND, NE, 68803","Match","Exact","308 BEACHWOOD DR, GRAND ISLAND, NE, 68803",196284065,"L"
485832,"308 BEAUMONT DRIVE","VESTAVIA","AL",35216,33.4549152450001,-86.7720982609999,332,"308 BEAUMONT DRIVE, VESTAVIA, AL, 35216","Match","Exact","308 BEAUMONT DR, VESTAVIA, AL, 35216",81584532,"R"
485833,"308 BELIN COURT","MARION","SC",29571,34.0627626310001,-79.308163448,333,"308 BELIN COURT, MARION, SC, 29571","Match","Exact","308 BELIN CT, MARION, SC, 29571",28785917,"R"
485834,"308 BEVARD CT","ABERDEEN","MD",21001,39.5215706280001,-76.165784464,334,"308 BEVARD CT, ABERDEEN, MD, 21001","Match","Exact","308 BEVARD CT, ABERDEEN, MD, 21001",191686172,"L"
485835,"308 BIG BRANCH ROAD","CHESAPEAKE","OH",45619,38.429361348,-82.456616901,335,"308 BIG BRANCH ROAD, CHESAPEAKE, OH, 45619","Match","Exact","308 BIG BRANCH RD, CHESAPEAKE, OH, 45619",55023568,"L"
485836,"308 BIRCH AVE","SELMA","AL",36701,32.43316115,-87.038122546,336,"308 BIRCH AVE, SELMA, AL, 36701","Match","Exact","308 BIRCH AVE, SELMA, AL, 36701",1283023,"R"
485837,"308 BIRCH AVENUE","SELMA","AL",36701,32.43316115,-87.038122546,337,"308 BIRCH AVENUE, SELMA, AL, 36701","Match","Exact","308 BIRCH AVE, SELMA, AL, 36701",1283023,"R"
485838,"308 BIRCH DR","NEPTUNE","NJ",7753,40.207357464,-74.0901359059999,338,"308 BIRCH DR, NEPTUNE, NJ, 7753","Match","Exact","308 BIRCH DR, NEPTUNE, NJ, 07753",90456309,"L"
485839,"308 BLACK BEAR DR","MCKINNEY","TX",75071,33.205247679,-96.746968216,339,"308 BLACK BEAR DR, MCKINNEY, TX, 75071","Match","Exact","308 BLACK BEAR DR, MCKINNEY, TX, 75071",642933613,"R"
485840,"308 BLACKMON CIRCLE","ADAMSVILLE","AL",35005,33.590589691,-86.923306193,340,"308 BLACKMON CIRCLE, ADAMSVILLE, AL, 35005","Match","Non_Exact","308 BLACKMON CIR W, ADAMSVILLE, AL, 35005",81614133,"R"
485841,"308 BLACKPOINT RD","NESHANIC STATION","NJ",8853,40.509849531,-74.739677967,341,"308 BLACKPOINT RD, NESHANIC STATION, NJ, 8853","Match","Exact","308 BLACKPOINT RD, NESHANIC STA, NJ, 08853",59975187,"L"
485842,"308 BLUE FOX CIRCLE","HAUGHTON","LA",71037,32.5680528460001,-93.62250067,342,"308 BLUE FOX CIRCLE, HAUGHTON, LA, 71037","Match","Exact","308 BLUE FOX CIR, HAUGHTON, LA, 71037",635019916,"R"
485843,"308 BONAVENTURE DR","LAGRANGE","GA",30240,NA,NA,343,"308 BONAVENTURE DR, LAGRANGE, GA, 30240","No_Match",NA,NA,NA,NA
485844,"308 BOND STREET","SPICELAND","IN",47385,39.8348741080001,-85.442654824,344,"308 BOND STREET, SPICELAND, IN, 47385","Match","Non_Exact","308 BOND AVE, SPICELAND, IN, 47385",616752040,"R"
485845,"308 BOSTON STREET","TROY","NY",12182,42.798433387,-73.662249211,345,"308 BOSTON STREET, TROY, NY, 12182","Match","Exact","308 BOSTON ST, TROY, NY, 12182",35729866,"R"
485846,"308 BOWEN RD","ANDERSON","SC",29621,34.5787731620001,-82.612411516,346,"308 BOWEN RD, ANDERSON, SC, 29621","Match","Exact","308 BOWEN RD, ANDERSON, SC, 29621",25492101,"L"
485847,"308 BRANCH CIR SE","VIENNA","VA",22180,38.9028058530001,-77.255421675,347,"308 BRANCH CIR SE, VIENNA, VA, 22180","Match","Exact","308 BRANCH CIR SE, VIENNA, VA, 22180",75970677,"R"
485848,"308 BREWER ST","WALNUT","IL",61376,NA,NA,348,"308 BREWER ST, WALNUT, IL, 61376","No_Match",NA,NA,NA,NA
485849,"308 BRIARWOOD","SULPHUR SPRINGS","TX",75482,33.0787482760001,-95.609532544,349,"308 BRIARWOOD, SULPHUR SPRINGS, TX, 75482","Match","Exact","308 BRIARWOOD, SULPHUR SPRINGS, TX, 75482",42797292,"R"
485850,"308 BRITTANY PARK","ANDERSON","SC",29621,34.5496230190001,-82.648914197,350,"308 BRITTANY PARK, ANDERSON, SC, 29621","Match","Exact","308 BRITTANY PARK, ANDERSON, SC, 29621",25489473,"L"
485851,"308 BROADWAY ST","SALMON","ID",83467,45.1801042820001,-113.900655983,351,"308 BROADWAY ST, SALMON, ID, 83467","Match","Exact","308 BROADWAY ST, SALMON, ID, 83467",135496836,"L"
485852,"308 BROMLEY PLACE","EAST BRUNSWICK","NJ",8816,40.411685075,-74.411048619,352,"308 BROMLEY PLACE, EAST BRUNSWICK, NJ, 8816","Match","Exact","308 BROMLEY PL, E BRUNSWICK, NJ, 08816",60341312,"R"
485853,"308 BROOKHAVEN COURT","HAYWARD","CA",94544,37.623056074,-122.046859857,353,"308 BROOKHAVEN COURT, HAYWARD, CA, 94544","Match","Exact","308 BROOKHAVEN CT, HAYWARD, CA, 94544",125070609,"R"
485854,"308 BUFFALO STREET","CADDO","OK",74729,34.126785135,-96.263514618,354,"308 BUFFALO STREET, CADDO, OK, 74729","Match","Exact","308 BUFFALO ST, CADDO, OK, 74729",62484812,"R"
485855,"308 BURNETT AVE","LAKE VILLA","IL",60046,42.414337318,-88.0746363759999,355,"308 BURNETT AVE, LAKE VILLA, IL, 60046","Match","Non_Exact","308 E BURNETT AVE, LAKE VILLA, IL, 60046",119622982,"L"
485856,"308 BUSH ST STE 8","RED WING","MN",55066,44.565107745,-92.533877999,356,"308 BUSH ST STE 8, RED WING, MN, 55066","Match","Exact","308 BUSH ST, RED WING, MN, 55066",31539006,"L"
485857,"308 CALIBRE LAKE PKWY SE","SMYRNA","GA",30082,33.83340681,-84.493272895,357,"308 CALIBRE LAKE PKWY SE, SMYRNA, GA, 30082","Match","Non_Exact","308 CALIBRE LAKE PKWY, SMYRNA, GA, 30082",17247658,"R"
485858,"308 CANDLELIGHT LANE","GUNNISON","CO",81230,38.5873698070001,-106.890928067,358,"308 CANDLELIGHT LANE, GUNNISON, CO, 81230","Match","Exact","308 CANDLELIGHT LN, GUNNISON, CO, 81230",607045641,"L"
485859,"308 CANONCHET ROAD","ROCKVILLE","RI",2873,41.514553666,-71.763943169,359,"308 CANONCHET ROAD, ROCKVILLE, RI, 2873","Match","Exact","308 CANONCHET RD, ROCKVILLE, RI, 02873",58898757,"R"
485860,"308 CAPTAINS CT","MANSFIELD","TX",76063,32.558834615,-97.0578893749999,360,"308 CAPTAINS CT, MANSFIELD, TX, 76063","Match","Exact","308 CAPTAINS CT, MANSFIELD, TX, 76063",618507662,"R"
485861,"308 CARLISLE ROAD","LAKELAND","FL",33813,27.9898620380001,-81.954619508,361,"308 CARLISLE ROAD, LAKELAND, FL, 33813","Match","Non_Exact","308 E CARLISLE RD, LAKELAND, FL, 33813",104812526,"L"
485862,"308 CARTER ST","TIMMONSVILLE","SC",29161,34.131100829,-79.935130392,362,"308 CARTER ST, TIMMONSVILLE, SC, 29161","Match","Exact","308 CARTER ST, TIMMONSVILLE, SC, 29161",28875401,"R"
485863,"308 CARVER CIRCLE","EUTAW","AL",35462,32.8345297720001,-87.8796537869999,363,"308 CARVER CIRCLE, EUTAW, AL, 35462","Match","Exact","308 CARVER CIR, EUTAW, AL, 35462",9652876,"L"
485864,"308 CASCADE LN","OSWEGO","IL",60543,41.6980022120001,-88.322845026,364,"308 CASCADE LN, OSWEGO, IL, 60543","Match","Exact","308 CASCADE LN, OSWEGO, IL, 60543",647512904,"L"
485865,"308 CASSIES WAY","VINE GROVE","KY",42701,37.90601796,-86.055831911,365,"308 CASSIES WAY, VINE GROVE, KY, 42701","Match","Non_Exact","308 CASSIES WAY, VINE GROVE, KY, 40175",625186096,"R"
485866,"308 CASTAIC AVE","PISMO BEACH","CA",93449,35.1544096700001,-120.672251455,366,"308 CASTAIC AVE, PISMO BEACH, CA, 93449","Match","Exact","308 CASTAIC AVE, PISMO BEACH, CA, 93449",109821205,"L"
485867,"308 CATE CENTER DR - ROOM 418","NORMAN","OK",73019,35.20363831,-97.444852877,367,"308 CATE CENTER DR - ROOM 418, NORMAN, OK, 73019","Match","Non_Exact","308 CATE CENTER DR, NORMAN, OK, 73072",99948071,"R"
485868,"308 CAYUGA STREET","BELLAIRE","MI",49615,NA,NA,368,"308 CAYUGA STREET, BELLAIRE, MI, 49615","Tie",NA,NA,NA,NA
485869,"308 CEDAR GROVE LANE","PEARL","MS",39208,32.2192853510001,-90.04033141,369,"308 CEDAR GROVE LANE, PEARL, MS, 39208","Match","Exact","308 CEDAR GROVE LN, PEARL, MS, 39208",627528108,"L"
485870,"308 CEDAR LAKE BOULEVARD","GEORGETOWN","TX",78633,30.685943422,-97.725302986,370,"308 CEDAR LAKE BOULEVARD, GEORGETOWN, TX, 78633","Match","Exact","308 CEDAR LAKE BLVD, GEORGETOWN, TX, 78633",648934378,"R"
485871,"308 CELESTIAL LANE","CHATTANOOGA","TN",37343,35.1720268660001,-85.2398065309999,371,"308 CELESTIAL LANE, CHATTANOOGA, TN, 37343","Match","Non_Exact","308 CELESTIAL LN, HIXSON, TN, 37343",59335154,"L"
485872,"308 CEMETARY RD","ALPENA","AR",72611,36.291562077,-93.293090497,372,"308 CEMETARY RD, ALPENA, AR, 72611","Match","Non_Exact","308 CEMETERY RD, ALPENA, AR, 72611",19978919,"L"
485873,"308 CENTRAL AVE","DAYTON","OH",45406,39.7674978160001,-84.207789858,373,"308 CENTRAL AVE, DAYTON, OH, 45406","Match","Exact","308 CENTRAL AVE, DAYTON, OH, 45406",143570079,"R"
485874,"308 CENTRAL AVENUE","OCEAN CITY","NJ",8226,39.284729487,-74.567414996,374,"308 CENTRAL AVENUE, OCEAN CITY, NJ, 8226","Match","Exact","308 CENTRAL AVE, OCEAN CITY, NJ, 08226",174343347,"R"
485875,"308 CENTRAL STREET","GADSDEN","TN",38337,35.774466626,-88.992420717,375,"308 CENTRAL STREET, GADSDEN, TN, 38337","Match","Exact","308 CENTRAL ST, GADSDEN, TN, 38337",63321676,"L"
485876,"308 CHARLES ALEXANDER COURT","ALEXANDRIA","VA",22301,38.8285217870001,-77.066316527,376,"308 CHARLES ALEXANDER COURT, ALEXANDRIA, VA, 22301","Match","Exact","308 CHARLES ALEXANDER CT, ALEXANDRIA, VA, 22301",76063010,"L"
485877,"308 CHARLESTOWN DRIVE","BOLINGBROOK","IL",60440,41.720394609,-88.0563941789999,377,"308 CHARLESTOWN DRIVE, BOLINGBROOK, IL, 60440","Match","Exact","308 CHARLESTOWN DR, BOLINGBROOK, IL, 60440",111543944,"L"
485878,"308 CHARLOTTE DRIVE","PORTSMOUTH","VA",23701,36.824168108,-76.388981243,378,"308 CHARLOTTE DRIVE, PORTSMOUTH, VA, 23701","Match","Exact","308 CHARLOTTE DR, PORTSMOUTH, VA, 23701",122191295,"L"
485879,"308 CHERRY ST NW","DECATUR","AL",35601,34.613752866,-86.9902267849999,379,"308 CHERRY ST NW, DECATUR, AL, 35601","Match","Exact","308 CHERRY ST NW, DECATUR, AL, 35601",97113060,"R"
485880,"308 CHERY ST NW","DECTUR","AL",35601,34.613752866,-86.9902267849999,380,"308 CHERY ST NW, DECTUR, AL, 35601","Match","Non_Exact","308 CHERRY ST NW, DECATUR, AL, 35601",97113060,"R"
485881,"308 CHESHIRE DRIVE","WARNER ROBINS","GA",31088,32.565671653,-83.69581125,381,"308 CHESHIRE DRIVE, WARNER ROBINS, GA, 31088","Match","Exact","308 CHESHIRE DR, WARNER ROBINS, GA, 31088",628089611,"L"
485882,"308 CHESTER AVE","MANSFILED","OH",44903,40.7734276370001,-82.5257632399999,382,"308 CHESTER AVE, MANSFILED, OH, 44903","Match","Non_Exact","308 CHESTER AVE, MANSFIELD, OH, 44903",12832945,"R"
485883,"308 CHESTERFIELD RD","OAKDALE","CT",6370,41.4516358160001,-72.180792337,383,"308 CHESTERFIELD RD, OAKDALE, CT, 6370","Match","Exact","308 CHESTERFIELD RD, OAKDALE, CT, 06370",611687667,"L"
485884,"308 CHESTNUT ST","GLADE SPRING","VA",24340,36.792649624,-81.7697712789999,384,"308 CHESTNUT ST, GLADE SPRING, VA, 24340","Match","Exact","308 CHESTNUT ST, GLADE SPRING, VA, 24340",154351536,"L"
485885,"308 CHESTNUT ST","PEARISBURG","VA",24134,37.322592265,-80.713177221,385,"308 CHESTNUT ST, PEARISBURG, VA, 24134","Match","Exact","308 CHESTNUT ST, PEARISBURG, VA, 24134",46980200,"L"
485886,"308 CHIEFTAN LANE","BOONSBORO","MD",21713,39.4975078370001,-77.6675529839999,386,"308 CHIEFTAN LANE, BOONSBORO, MD, 21713","Match","Exact","308 CHIEFTAN LN, BOONSBORO, MD, 21713",60807058,"L"
485887,"308 CHRISTOPHER TODD DRIVE","MOORE","OK",73160,35.3086555020001,-97.469847836,387,"308 CHRISTOPHER TODD DRIVE, MOORE, OK, 73160","Match","Exact","308 CHRISTOPHER TODD DR, MOORE, OK, 73160",99908316,"R"
485888,"308 CHURCH CT","GREENSBORO","NC",27401,36.0766482560001,-79.787640869,388,"308 CHURCH CT, GREENSBORO, NC, 27401","Match","Exact","308 CHURCH CT, GREENSBORO, NC, 27401",131101794,"R"
485889,"308 CHURCH ST","TELLICO PLAINS","TN",37385,35.359065521,-84.298696244,389,"308 CHURCH ST, TELLICO PLAINS, TN, 37385","Match","Exact","308 CHURCH ST, TELLICO PLAINS, TN, 37385",85294982,"R"
485890,"308 CIVIC AVE","SALISBURY","MD",21804,38.367808665,-75.573395546,390,"308 CIVIC AVE, SALISBURY, MD, 21804","Match","Exact","308 CIVIC AVE, SALISBURY, MD, 21804",114452318,"L"
485891,"308 CLAFLIN BOULEVARD","FRANKLIN SQUARE","NY",11010,40.6995335560001,-73.670504239,391,"308 CLAFLIN BOULEVARD, FRANKLIN SQUARE, NY, 11010","Match","Exact","308 CLAFLIN BLVD, FRANKLIN SQUARE, NY, 11010",147673989,"R"
485892,"308 CLASSON AVE NO 1","BROOKLYN","NY",11238,40.68874814,-73.959984622,392,"308 CLASSON AVE NO 1, BROOKLYN, NY, 11238","Match","Non_Exact","308 CLASSON AVE, BROOKLYN, NY, 11238",59078029,"R"
485893,"308 CLEVELAND AVE","LEHIGH ACRES","FL",33936,26.6109807400001,-81.609361876,393,"308 CLEVELAND AVE, LEHIGH ACRES, FL, 33936","Match","Exact","308 CLEVELAND AVE, LEHIGH ACRES, FL, 33936",117992338,"R"
485894,"308 CLOVER FORK DRIVE","KNOXVILLE","TN",37934,35.8838877480001,-84.18167851,394,"308 CLOVER FORK DRIVE, KNOXVILLE, TN, 37934","Match","Exact","308 CLOVER FORK DR, KNOXVILLE, TN, 37934",42666058,"R"
485895,"308 COBB RD","ANDOVER","VT",5143,43.301782874,-72.70156672,395,"308 COBB RD, ANDOVER, VT, 5143","Match","Exact","308 COBB RD, ANDOVER, VT, 05143",643637696,"R"
485896,"308 CONCEPTS 21 DRIVE","LITHONIA","GA",30058,33.704277244,-84.158967607,396,"308 CONCEPTS 21 DRIVE, LITHONIA, GA, 30058","Match","Exact","308 CONCEPTS 21 DR, LITHONIA, GA, 30058",23403855,"R"
485897,"308 CONTOUR DRIVE","LAKE CHARLES","LA",70605,30.1732430260001,-93.216942714,397,"308 CONTOUR DRIVE, LAKE CHARLES, LA, 70605","Match","Exact","308 CONTOUR DR, LAKE CHARLES, LA, 70605",88438445,"R"
485898,"308 COOLEY ROAD","LAGRANGE","GA",30241,NA,NA,398,"308 COOLEY ROAD, LAGRANGE, GA, 30241","No_Match",NA,NA,NA,NA
485899,"308 COORSDALE DRIVE","CARY","NC",27511,35.751922,-78.775277946,399,"308 COORSDALE DRIVE, CARY, NC, 27511","Match","Exact","308 COORSDALE DR, CARY, NC, 27511",72563833,"R"
485900,"308 CORK TREE LN","ROCKVILLE","MD",20850,39.1125726000001,-77.1675934099999,400,"308 CORK TREE LN, ROCKVILLE, MD, 20850","Match","Exact","308 CORK TREE LN, ROCKVILLE, MD, 20850",62098941,"R"
485901,"308 COUNTRY COURT","ANTIOCH","TN",37013,36.077922044,-86.606023894,401,"308 COUNTRY COURT, ANTIOCH, TN, 37013","Match","Exact","308 COUNTRY CT, ANTIOCH, TN, 37013",97206630,"L"
485902,"308 COURT AVE","DES MOINES","IA",50309,41.58525848,-93.620608401,402,"308 COURT AVE, DES MOINES, IA, 50309","Match","Exact","308 COURT AVE, DES MOINES, IA, 50309",65783060,"L"
485903,"308 CR 134","HICO","TX",76457,31.9851340610001,-98.044387461,403,"308 CR 134, HICO, TX, 76457","Match","Exact","308 CO RD 134, HICO, TX, 76457",633791951,"R"
485904,"308 CR 2775","HONEY GROVE","TX",75446,33.6463997760001,-95.9075924379999,404,"308 CR 2775, HONEY GROVE, TX, 75446","Match","Exact","308 CO RD 2775, HONEY GROVE, TX, 75446",63264823,"R"
485905,"308 CR 395","WINGATE","TX",79566,32.042434675,-100.10644043,405,"308 CR 395, WINGATE, TX, 79566","Match","Exact","308 CO RD 395, WINGATE, TX, 79566",129898009,"L"
485906,"308 CR 403A","MARBLE FALLS","TX",78654,30.486299843,-98.287944118,406,"308 CR 403A, MARBLE FALLS, TX, 78654","Match","Exact","308 CO RD 403A, MARBLE FALLS, TX, 78654",146483350,"L"
485907,"308 CRABAPPLE","WYLIE","TX",75098,33.013707771,-96.591553575,407,"308 CRABAPPLE, WYLIE, TX, 75098","Match","Non_Exact","308 CRABAPPLE DR, WYLIE, TX, 75098",123562123,"L"
485908,"308 CREEKBANK WAY SE","SMYRNA","GA",30082,33.840680218,-84.5160772999999,408,"308 CREEKBANK WAY SE, SMYRNA, GA, 30082","Match","Non_Exact","308 CREEKBANK WAY, SMYRNA, GA, 30082",614175181,"R"
485909,"308 CRESCENT GARDENS DRIVE","PITTSBURGH","PA",15235,NA,NA,409,"308 CRESCENT GARDENS DRIVE, PITTSBURGH, PA, 15235","No_Match",NA,NA,NA,NA
485910,"308 CRESSON GIBBSBORO ROAD","VOORHEES","NJ",8043,NA,NA,410,"308 CRESSON GIBBSBORO ROAD, VOORHEES, NJ, 8043","No_Match",NA,NA,NA,NA
485911,"308 CRIMSON DRIVE","DALLAS","GA",30132,33.9641896810001,-84.806874369,411,"308 CRIMSON DRIVE, DALLAS, GA, 30132","Match","Exact","308 CRIMSON DR, DALLAS, GA, 30132",618968457,"R"
485912,"308 CROWNHILL DRIVE","PLEASANTON","TX",78064,28.973773285,-98.487714485,412,"308 CROWNHILL DRIVE, PLEASANTON, TX, 78064","Match","Exact","308 CROWNHILL DR, PLEASANTON, TX, 78064",650886273,"L"
485913,"308 CRYSTAL LAKE DRIVE","DESOTO","TX",75115,32.593761326,-96.905544315,413,"308 CRYSTAL LAKE DRIVE, DESOTO, TX, 75115","Match","Exact","308 CRYSTAL LAKE DR, DESOTO, TX, 75115",624608268,"L"
485914,"308 CUTHRELL LANE","VIRGINIA BEACH","VA",23320,36.738959833,-76.252939929,414,"308 CUTHRELL LANE, VIRGINIA BEACH, VA, 23320","Match","Non_Exact","308 CUTHRELL LN, CHESAPEAKE, VA, 23320",650143899,"R"
485915,"308 D STREET","GLEN ULLIN","ND",58631,46.8138201350001,-101.82550228,415,"308 D STREET, GLEN ULLIN, ND, 58631","Match","Non_Exact","308 D ST S, GLEN ULLIN, ND, 58631",199003854,"R"
485916,"308 DAFFODIL LANE","CHESAPEAKE","VA",23324,36.8007895630001,-76.2543089009999,416,"308 DAFFODIL LANE, CHESAPEAKE, VA, 23324","Match","Non_Exact","308 DAFFODIL LN, CHESAPEAKE, VA, 23325",121776257,"R"
485917,"308 DANBURY RD","KEARNY","AZ",85137,33.054547191,-110.907305959,417,"308 DANBURY RD, KEARNY, AZ, 85137","Match","Exact","308 DANBURY RD, KEARNY, AZ, 85137",129146304,"R"
485918,"308 DANSBY COURT","PIKE","AL",36064,32.2612708350001,-86.026778642,418,"308 DANSBY COURT, PIKE, AL, 36064","Match","Non_Exact","308 DANSBY CT, PIKE ROAD, AL, 36064",645066761,"R"
485919,"308 DAVE SMITH ROAD","PROSPECT HILL","NC",27314,36.2501937490001,-79.193594896,419,"308 DAVE SMITH ROAD, PROSPECT HILL, NC, 27314","Match","Exact","308 DAVE SMITH RD, PROSPECT HILL, NC, 27314",640093381,"R"
485920,"308 DEER RUN DRIVE","SELLERBURG","IN",47172,38.364496462,-85.7690072029999,420,"308 DEER RUN DRIVE, SELLERBURG, IN, 47172","Match","Non_Exact","308 DEER RUN DR, SELLERSBURG, IN, 47172",642900950,"R"
485921,"308 DELAINE WOODS DRIVE","IRMO","SC",29063,34.1141139110001,-81.1532607729999,421,"308 DELAINE WOODS DRIVE, IRMO, SC, 29063","Match","Exact","308 DELAINE WOODS DR, IRMO, SC, 29063",604794476,"R"
485922,"308 DELAWARE ST SE","GRAND RAPIDS","MI",49507,42.9458573840001,-85.660858646,422,"308 DELAWARE ST SE, GRAND RAPIDS, MI, 49507","Match","Exact","308 DELAWARE ST SE, GRAND RAPIDS, MI, 49507",12459013,"R"
485923,"308 DELLWOOD ROAD","AVON LAKE","OH",44012,41.5003153980001,-82.02621199,423,"308 DELLWOOD ROAD, AVON LAKE, OH, 44012","Match","Exact","308 DELLWOOD RD, AVON LAKE, OH, 44012",55407911,"R"
485924,"308 DEVON STREET","MANTEO","NC",27954,35.9106126040001,-75.672650614,424,"308 DEVON STREET, MANTEO, NC, 27954","Match","Exact","308 DEVON ST, MANTEO, NC, 27954",81302092,"L"
485925,"308 DOGWOOD","MIDDLETON","TN",38052,35.0659510260001,-88.886148979,425,"308 DOGWOOD, MIDDLETON, TN, 38052","Match","Non_Exact","308 DOGWOOD AVE, MIDDLETON, TN, 38052",21119293,"L"
485926,"308 DONALD BANKS BLVD","VIDALIA","GA",30474,32.130509396,-82.422171529,426,"308 DONALD BANKS BLVD, VIDALIA, GA, 30474","Match","Exact","308 DONALD BANKS BLVD, VIDALIA, GA, 30474",4778711,"L"
485927,"308 DUNMORE ST","NORFOLK","VA",23510,36.851258355,-76.294624397,427,"308 DUNMORE ST, NORFOLK, VA, 23510","Match","Exact","308 DUNMORE ST, NORFOLK, VA, 23510",122136389,"R"
485928,"308 DUNWOODY DRIVE","RALEIGH","NC",27615,35.9197850130001,-78.6585961929999,428,"308 DUNWOODY DRIVE, RALEIGH, NC, 27615","Match","Exact","308 DUNWOODY DR, RALEIGH, NC, 27615",72520877,"L"
485929,"308 DYKE ST","HERREID","SD",57632,45.83594401,-100.064074882,429,"308 DYKE ST, HERREID, SD, 57632","Match","Exact","308 DYKE ST, HERREID, SD, 57632",199663874,"L"
485930,"308 E 14TH AVE","NAPERVILLE","IL",60563,41.791847739,-88.143952231,430,"308 E 14TH AVE, NAPERVILLE, IL, 60563","Match","Exact","308 E 14TH AVE, NAPERVILLE, IL, 60563",112528589,"R"
485931,"308 E 14TH ST","WAHOO","NE",68066,41.218537159,-96.616959096,431,"308 E 14TH ST, WAHOO, NE, 68066","Match","Exact","308 E 14TH ST, WAHOO, NE, 68066",28512564,"R"
485932,"308 E 17TH","HUTCHINSON","KS",67501,NA,NA,432,"308 E 17TH, HUTCHINSON, KS, 67501","No_Match",NA,NA,NA,NA
485933,"308 E 18TH ST APT 3A","NEW YORK","NY",10003,40.7346896720001,-73.982761249,433,"308 E 18TH ST APT 3A, NEW YORK, NY, 10003","Match","Non_Exact","308 E 18TH ST, NEW YORK, NY, 10003",59654580,"R"
485934,"308 E 1ST","KEENE","TX",76059,32.39521991,-97.322234796,434,"308 E 1ST, KEENE, TX, 76059","Match","Non_Exact","308 E FIRST ST, KEENE, TX, 76059",103518507,"L"
485935,"308 E 25TH ST PL S","NEWTON","IA",50208,NA,NA,435,"308 E 25TH ST PL S, NEWTON, IA, 50208","No_Match",NA,NA,NA,NA
485936,"308 E 26TH PL","CHICAGO","IL",60616,41.8456975120001,-87.6202358739999,436,"308 E 26TH PL, CHICAGO, IL, 60616","Match","Non_Exact","308 E 26TH ST, CHICAGO, IL, 60616",112386977,"L"
485937,"308 E 2ND","RITZVILLE","WA",99169,47.127404615,-118.375287496,437,"308 E 2ND, RITZVILLE, WA, 99169","Match","Non_Exact","308 E 2ND AVE, RITZVILLE, WA, 99169",181841009,"L"
485938,"308 E 30TH ST","NEW YORK","NY",10016,40.7421095620001,-73.977325717,438,"308 E 30TH ST, NEW YORK, NY, 10016","Match","Exact","308 E 30TH ST, NEW YORK, NY, 10016",59654567,"R"
485939,"308 E 4TH ST","WAYNE","NE",68787,42.2324545970001,-97.014374328,439,"308 E 4TH ST, WAYNE, NE, 68787","Match","Exact","308 E 4TH ST, WAYNE, NE, 68787",163747106,"R"
485940,"308 E 5TH ST","HUNTINGBURG","IN",47542,38.297665529,-86.956890642,440,"308 E 5TH ST, HUNTINGBURG, IN, 47542","Match","Exact","308 E 5TH ST, HUNTINGBURG, IN, 47542",7873432,"L"
485941,"308 E 94TH ST APT 4W","NEW YORK","NY",10128,40.7827896090001,-73.9476856649999,441,"308 E 94TH ST APT 4W, NEW YORK, NY, 10128","Match","Non_Exact","308 E 94TH ST, NEW YORK, NY, 10128",59657979,"R"
485942,"308 E 9TH STREET 506","LOS ANGELES","CA",90015,NA,NA,442,"308 E 9TH STREET 506, LOS ANGELES, CA, 90015","Tie",NA,NA,NA,NA
485943,"308 E ALDER","RITZVILLE","WA",99169,47.1300403860001,-118.379967342,443,"308 E ALDER, RITZVILLE, WA, 99169","Match","Non_Exact","308 E ALDER AVE, RITZVILLE, WA, 99169",181840594,"L"
485944,"308 E BURLINGTON ST STE 138","IOWA CITY","IA",52240,41.65786002,-91.5314454109999,444,"308 E BURLINGTON ST STE 138, IOWA CITY, IA, 52240","Match","Non_Exact","308 E BURLINGTON ST, IOWA CITY, IA, 52240",84495496,"L"
485945,"308 E BURLINGTON ST STE138","IOWA CITY","IA",52240,41.65786002,-91.5314454109999,445,"308 E BURLINGTON ST STE138, IOWA CITY, IA, 52240","Match","Non_Exact","308 E BURLINGTON ST, IOWA CITY, IA, 52240",84495496,"L"
485946,"308 E CALDWELL","PARIS","MO",65275,39.481455494,-91.997639466,446,"308 E CALDWELL, PARIS, MO, 65275","Match","Non_Exact","308 E CALDWELL ST, PARIS, MO, 65275",31748910,"R"
485947,"308 E CAYUGA","BELLAIRE","MI",49615,44.975433546,-85.2063492409999,447,"308 E CAYUGA, BELLAIRE, MI, 49615","Match","Non_Exact","308 E CAYUGA ST, BELLAIRE, MI, 49615",145826418,"L"
485948,"308 E DALE HTS","HORSE CAVE","KY",42749,37.182422838,-85.8999739719999,448,"308 E DALE HTS, HORSE CAVE, KY, 42749","Match","Exact","308 E DALE HTS, HORSE CAVE, KY, 42749",96809301,"L"
485949,"308 E DECLARATION COURT","PURCELLVILLE","VA",20132,39.141141695,-77.7107665679999,449,"308 E DECLARATION COURT, PURCELLVILLE, VA, 20132","Match","Exact","308 E DECLARATION CT, PURCELLVILLE, VA, 20132",218935505,"L"
485950,"308 E ESSEX LANE","FORT WAYNE","IN",46825,41.1271635910001,-85.13747746,450,"308 E ESSEX LANE, FORT WAYNE, IN, 46825","Match","Exact","308 E ESSEX LN, FORT WAYNE, IN, 46825",606490503,"L"
485951,"308 E FILLMORE ST","PETERSBURG","VA",23803,37.222656,-77.396732743,451,"308 E FILLMORE ST, PETERSBURG, VA, 23803","Match","Exact","308 E FILLMORE ST, PETERSBURG, VA, 23803",54151166,"R"
485952,"308 E FIRST STREET","DEXTER","NM",88230,33.1977382690001,-104.37414496,452,"308 E FIRST STREET, DEXTER, NM, 88230","Match","Exact","308 1ST ST, DEXTER, NM, 88230",131779862,"R"
485953,"308 E FRANKLIN ST APT 2B","CLINTON","MO",64735,NA,NA,453,"308 E FRANKLIN ST APT 2B, CLINTON, MO, 64735","Tie",NA,NA,NA,NA
485954,"308 E GORDON ST","STERLING","VA",20164,39.0135416950001,-77.388752224,454,"308 E GORDON ST, STERLING, VA, 20164","Match","Exact","308 E GORDON ST, STERLING, VA, 20164",62328210,"R"
485955,"308 E GRAND LAKE BLVD","WEST CHICAGO","IL",60185,41.889273976,-88.202889516,455,"308 E GRAND LAKE BLVD, WEST CHICAGO, IL, 60185","Match","Exact","308 E GRAND LAKE BLVD, WEST CHICAGO, IL, 60185",112516174,"R"
485956,"308 E GREEN ST APT 909C","CHAMPAIGN","IL",61820,NA,NA,456,"308 E GREEN ST APT 909C, CHAMPAIGN, IL, 61820","Tie",NA,NA,NA,NA
485957,"308 E HALE AVE","OSCEOLA","AR",72370,35.702838124,-89.9660030269999,457,"308 E HALE AVE, OSCEOLA, AR, 72370","Match","Exact","308 E HALE AVE, OSCEOLA, AR, 72370",47222145,"L"
485958,"308 E JEFFERSON ST","WASHINGTON","IA",52353,41.2973797700001,-91.689139623,458,"308 E JEFFERSON ST, WASHINGTON, IA, 52353","Match","Exact","308 E JEFFERSON ST, WASHINGTON, IA, 52353",601634476,"R"
485959,"308 E KING STREET","E FLAT ROCK","NC",28726,35.282176281,-82.415272632,459,"308 E KING STREET, E FLAT ROCK, NC, 28726","Match","Exact","308 E KING ST, E FLAT ROCK, NC, 28726",152258801,"R"
485960,"308 E NELSON ST","BOWIE","TX",76230,33.561447308,-97.8408049939999,460,"308 E NELSON ST, BOWIE, TX, 76230","Match","Exact","308 E NELSON ST, BOWIE, TX, 76230",152115245,"L"
485961,"308 E OAK ST","NICHOLASVILLE","KY",40356,37.880999311,-84.566504569,461,"308 E OAK ST, NICHOLASVILLE, KY, 40356","Match","Exact","308 E OAK ST, NICHOLASVILLE, KY, 40356",38460319,"R"
485962,"308 E ONEAL ST","GAFFNEY","SC",29340,35.0594086470001,-81.6587327079999,462,"308 E ONEAL ST, GAFFNEY, SC, 29340","Match","Exact","308 E ONEAL ST, GAFFNEY, SC, 29340",18988986,"L"
485963,"308 E ROSE STREET","GRAYVILLE","IL",62844,38.2538252410001,-87.992856374,463,"308 E ROSE STREET, GRAYVILLE, IL, 62844","Match","Exact","308 E ROSE ST, GRAYVILLE, IL, 62844",38208708,"R"
485964,"308 E SCOTT WAYNE DR","NIXA","MO",65714,37.058502914,-93.291197169,464,"308 E SCOTT WAYNE DR, NIXA, MO, 65714","Match","Exact","308 SCOTT WAYNE DR, NIXA, MO, 65714",99816961,"R"
485965,"308 E SECOND","RITZVILLE","WA",99169,NA,NA,465,"308 E SECOND, RITZVILLE, WA, 99169","No_Match",NA,NA,NA,NA
485966,"308 E SIMPSON STREET SUITE 102","LAFAYETTE","CO",80026,NA,NA,466,"308 E SIMPSON STREET SUITE 102, LAFAYETTE, CO, 80026","Tie",NA,NA,NA,NA
485967,"308 E SOPER ST","WINNEBAGO","IL",61088,42.2651962990001,-89.2380277619999,467,"308 E SOPER ST, WINNEBAGO, IL, 61088","Match","Exact","308 E SOPER ST, WINNEBAGO, IL, 61088",647226332,"R"
485968,"308 E STATE ST","PENDLETON","IN",46064,40.002182492,-85.742205628,468,"308 E STATE ST, PENDLETON, IN, 46064","Match","Exact","308 E STATE ST, PENDLETON, IN, 46064",31112361,"L"
485969,"308 E STUART","FORT COLLINS","CO",80525,40.563461858,-105.073701223,469,"308 E STUART, FORT COLLINS, CO, 80525","Match","Non_Exact","308 E STUART ST, FORT COLLINS, CO, 80525",636176853,"L"
485970,"308 E TAMARACK ST","IRONWOOD","MI",49938,46.4470677830001,-90.160150178,470,"308 E TAMARACK ST, IRONWOOD, MI, 49938","Match","Exact","308 E TAMARACK ST, IRONWOOD, MI, 49938",164953747,"L"
485971,"308 E THATCHER STREET","BOISE","ID",83702,43.6239599900001,-116.191314847,471,"308 E THATCHER STREET, BOISE, ID, 83702","Match","Exact","308 THATCHER ST, BOISE, ID, 83702",117860305,"R"
485972,"308 E WALDO ST","GROVELAND","FL",34736,28.5552411570001,-81.855706089,472,"308 E WALDO ST, GROVELAND, FL, 34736","Match","Exact","308 E WALDO ST, GROVELAND, FL, 34736",94103745,"L"
485973,"308 E WALNUT ST","INDIANAPOLIS","IN",46202,39.7766966200001,-86.151995147,473,"308 E WALNUT ST, INDIANAPOLIS, IN, 46202","Match","Exact","308 E WALNUT ST, INDIANAPOLIS, IN, 46202",107991800,"R"
485974,"308 E WALNUT","FAYETTE","MO",65248,39.146156669,-92.680415479,474,"308 E WALNUT, FAYETTE, MO, 65248","Match","Non_Exact","308 E WALNUT ST, FAYETTE, MO, 65248",23119626,"L"
485975,"308 E WATER STREET","SHULLSBURG","WI",53586,42.57068723,-90.227862715,475,"308 E WATER STREET, SHULLSBURG, WI, 53586","Match","Exact","308 E WATER ST, SHULLSBURG, WI, 53586",32877825,"L"
485976,"308 E WILSON ST","OAK HILL","WV",25901,37.99372879,-81.1290046939999,476,"308 E WILSON ST, OAK HILL, WV, 25901","Match","Exact","308 WILSON ST, OAK HILL, WV, 25901",641064009,"L"
485977,"308 E YATES ST","NEW BERLIN","IL",62670,39.726273195,-89.910259821,477,"308 E YATES ST, NEW BERLIN, IL, 62670","Match","Exact","308 E YATES ST, NEW BERLIN, IL, 62670",97315519,"R"
485978,"308 E YELM AVE","YELM","WA",98597,46.93971487,-122.602451605,478,"308 E YELM AVE, YELM, WA, 98597","Match","Exact","308 E YELM AVE, YELM, WA, 98597",629075195,"R"
485979,"308 EAST 105TH STREET APT 1W","NEW YORK","NY",10029,40.7897965060001,-73.942575773,479,"308 EAST 105TH STREET APT 1W, NEW YORK, NY, 10029","Match","Exact","308 E 105TH ST, NEW YORK, NY, 10029",59658178,"R"
485980,"308 EAST 21ST STREET","SOUTH SIOUX CITY","NE",68776,42.4698197050001,-96.410626231,480,"308 EAST 21ST STREET, SOUTH SIOUX CITY, NE, 68776","Match","Exact","308 E 21ST ST, SOUTH SIOUX CITY, NE, 68776",193807190,"R"
485981,"308 EAST 280TH STREET","EUCLID","OH",44132,41.623525214,-81.489501676,481,"308 EAST 280TH STREET, EUCLID, OH, 44132","Match","Exact","308 E 280TH ST, EUCLID, OH, 44132",639396523,"R"
485982,"308 EAST 78TH STREET / APT 10","NEW YORK","NY",10075,40.7724939390001,-73.955179957,482,"308 EAST 78TH STREET / APT 10, NEW YORK, NY, 10075","Match","Exact","308 E 78TH ST, NEW YORK, NY, 10075",650088528,"R"
485983,"308 EAST EL CAMPO","STOCKTON","CA",95207,38.0132972490001,-121.306520723,483,"308 EAST EL CAMPO, STOCKTON, CA, 95207","Match","Non_Exact","308 E EL CAMPO AVE, STOCKTON, CA, 95207",133845612,"R"
485984,"308 EAST FIFTH STREET","METROPOLIS","IL",62960,37.149570209,-88.729136554,484,"308 EAST FIFTH STREET, METROPOLIS, IL, 62960","Match","Exact","308 E 5TH ST, METROPOLIS, IL, 62960",5901518,"L"
485985,"308 EAST GREEN STREET APT 810","CHAMPAIGN","IL",61820,40.110255223,-88.2351102059999,485,"308 EAST GREEN STREET APT 810, CHAMPAIGN, IL, 61820","Match","Exact","308 E GREEN ST, CHAMPAIGN, IL, 61820",8812015,"L"
485986,"308 EAST HIGH STREET/SUITE 108","JEFFERSON CITY","MO",65101,38.5750349740001,-92.169686078,486,"308 EAST HIGH STREET/SUITE 108, JEFFERSON CITY, MO, 65101","Match","Non_Exact","308 E HIGH ST, JEFFERSON CITY, MO, 65101",639967842,"L"
485987,"308 EAST LAKESHORE DRIVE","HIGHLAND LAKES","NJ",7422,41.1682083060001,-74.453736098,487,"308 EAST LAKESHORE DRIVE, HIGHLAND LAKES, NJ, 7422","Match","Exact","308 E LAKESHORE DR, HIGHLAND LAKES, NJ, 07422",98000703,"R"
485988,"308 EAST LOURDES CIRCLE","MOBILE","AL",36617,30.6980666480001,-88.09101299,488,"308 EAST LOURDES CIRCLE, MOBILE, AL, 36617","Match","Exact","308 E LOURDES CIR, MOBILE, AL, 36617",61859949,"R"
485989,"308 EAST MAIN ST","BEAVERVILLE","IL",60912,40.949618468,-87.652064308,489,"308 EAST MAIN ST, BEAVERVILLE, IL, 60912","Match","Non_Exact","308 MAIN ST, BEAVERVILLE, IL, 60912",90765069,"R"
485990,"308 EAST MARBLE ST","BURNET","TX",78611,30.755059569,-98.224500451,490,"308 EAST MARBLE ST, BURNET, TX, 78611","Match","Exact","308 E MARBLE ST, BURNET, TX, 78611",146486742,"L"
485991,"308 EAST MARKET STREET","STEAMBOAT ROCK","IA",50672,42.408446971,-93.0575792019999,491,"308 EAST MARKET STREET, STEAMBOAT ROCK, IA, 50672","Match","Exact","308 E MARKET ST, STEAMBOAT ROCK, IA, 50672",77438064,"R"
485992,"308 EAST MEADOW AVE","EAST MEADOW","NY",11554,40.7163557800001,-73.56124801,492,"308 EAST MEADOW AVE, EAST MEADOW, NY, 11554","Match","Exact","308 E MEADOW AVE, EAST MEADOW, NY, 11554",147632777,"R"
485993,"308 EAST PEARL STREET","JACKSON","MS",39201,32.298659178,-90.184175249,493,"308 EAST PEARL STREET, JACKSON, MS, 39201","Match","Exact","308 E PEARL ST, JACKSON, MS, 39201",65372574,"L"
485994,"308 EAST PEARL STREET","THOMPSON","MS",39201,32.298659178,-90.184175249,494,"308 EAST PEARL STREET, THOMPSON, MS, 39201","Match","Non_Exact","308 E PEARL ST, JACKSON, MS, 39201",65372574,"L"
485995,"308 EAST SPRING STREET","FAYETTEVILLE","AR",72701,36.0646579090001,-94.1544135669999,495,"308 EAST SPRING STREET, FAYETTEVILLE, AR, 72701","Match","Exact","308 E SPRING ST, FAYETTEVILLE, AR, 72701",49046768,"L"
485996,"308 EAST SUPERIOR STREET","CLARKSVILLE","IA",50619,42.784647014,-92.6651134419999,496,"308 EAST SUPERIOR STREET, CLARKSVILLE, IA, 50619","Match","Exact","308 E SUPERIOR ST, CLARKSVILLE, IA, 50619",9608046,"L"
485997,"308 EASTBURY AVE NE","NORTH CANTON","OH",44720,40.87863091,-81.384716345,497,"308 EASTBURY AVE NE, NORTH CANTON, OH, 44720","Match","Exact","308 EASTBURY AVE NE, NORTH CANTON, OH, 44720",64704849,"R"
485998,"308 EASTERN AVENUE NE","CRARY","ND",58327,48.0725615100001,-98.6384435429999,498,"308 EASTERN AVENUE NE, CRARY, ND, 58327","Match","Non_Exact","308 EASTERN AVE N, CRARY, ND, 58327",181173656,"R"
485999,"308 ECHO RIDGE RAOD","SWANSBORO","NC",28584,34.7592212980001,-77.093684904,499,"308 ECHO RIDGE RAOD, SWANSBORO, NC, 28584","Match","Non_Exact","308 ECHO RIDGE RD, SWANSBORO, NC, 28584",624761598,"L"
486000,"308 ECKFORD STREET APARTMENT 5E","BROOKLYN","NY",11222,40.7291659890001,-73.951821744,500,"308 ECKFORD STREET APARTMENT 5E, BROOKLYN, NY, 11222","Match","Exact","308 ECKFORD ST, BROOKLYN, NY, 11222",59076284,"R"
