"ID","Address","City","State","Zip","lat","long","id","input_address","match_indicator","match_type","matched_address","tiger_line_id","tiger_side"
209501,"1533 NOLE DRIVE","JEFFERSONVILLE","IN",47130,38.314447677,-85.726969771,1,"1533 NOLE DRIVE, JEFFERSONVILLE, IN, 47130","Match","Exact","1533 NOLE DR, JEFFERSONVILLE, IN, 47130",64919648,"R"
209502,"1533 NORRIS ST","CAMDEN","NJ",8103,NA,NA,2,"1533 NORRIS ST, CAMDEN, NJ, 8103","No_Match",NA,NA,NA,NA
209503,"1533 OLD BRIDGE COURT","CANTON","MI",48188,42.2965156860001,-83.4542792789999,3,"1533 OLD BRIDGE COURT, CANTON, MI, 48188","Match","Non_Exact","1533 OLDBRIDGE CT, CANTON, MI, 48188",95411791,"L"
209504,"1533 OLD US HWY 54","AUXVASSE","MO",65231,39.010366063,-91.8973454169999,4,"1533 OLD US HWY 54, AUXVASSE, MO, 65231","Match","Exact","1533 OLD US HWY 54, AUXVASSE, MO, 65231",221028871,"L"
209505,"1533 OLDE COURSE LANE","SALEM","VA",24153,37.315477544,-80.0600026389999,5,"1533 OLDE COURSE LANE, SALEM, VA, 24153","Match","Exact","1533 OLDE COURSE LN, SALEM, VA, 24153",626138586,"R"
209506,"1533 ORR STREET","MEMPHIS","TN",38108,35.1742634760001,-89.954708323,6,"1533 ORR STREET, MEMPHIS, TN, 38108","Match","Exact","1533 ORR ST, MEMPHIS, TN, 38108",72914266,"L"
209507,"1533 PECK ROAD","SOUTH EL MONTE","CA",91733,34.040033889,-118.036802822,7,"1533 PECK ROAD, SOUTH EL MONTE, CA, 91733","Match","Exact","1533 PECK RD, S EL MONTE, CA, 91733",141650338,"L"
209508,"1533 PELICAN PLACE","PALM HARBOR","FL",34683,28.0533871260001,-82.767996889,8,"1533 PELICAN PLACE, PALM HARBOR, FL, 34683","Match","Exact","1533 PELICAN PL, PALM HARBOR, FL, 34683",124729282,"R"
209509,"1533 PENINSULA CIRCLE","CASTLE ROCK","CO",80104,39.355941074,-104.854495569,9,"1533 PENINSULA CIRCLE, CASTLE ROCK, CO, 80104","Match","Exact","1533 PENINSULA CIR, CASTLE ROCK, CO, 80104",130832307,"L"
209510,"1533 PINEY GROVE RD","KERNERSVILLE","NC",27284,36.160905531,-80.055028227,10,"1533 PINEY GROVE RD, KERNERSVILLE, NC, 27284","Match","Exact","1533 PINEY GROVE RD, KERNERSVILLE, NC, 27284",635546209,"L"
209511,"1533 PLACER WAY","SALINAS","CA",93906,36.708046772,-121.643091373,11,"1533 PLACER WAY, SALINAS, CA, 93906","Match","Exact","1533 PLACER WAY, SALINAS, CA, 93906",196861018,"L"
209512,"1533 POTOMAC HEIGHTS DRIVE","FT. WASHINGTON","MD",20744,38.7702817750001,-76.9845394129999,12,"1533 POTOMAC HEIGHTS DRIVE, FT. WASHINGTON, MD, 20744","Match","Exact","1533 POTOMAC HEIGHTS DR, FT WASHINGTON, MD, 20744",649105725,"R"
209513,"1533 PRESCOTT DRIVE","LACASTER","TX",75134,32.6105202160001,-96.78158855,13,"1533 PRESCOTT DRIVE, LACASTER, TX, 75134","Match","Non_Exact","1533 PRESCOTT DR, LANCASTER, TX, 75134",103167562,"L"
209514,"1533 PRESERVE LANE","HOUSTON","TX",77089,29.581427068,-95.256680005,14,"1533 PRESERVE LANE, HOUSTON, TX, 77089","Match","Exact","1533 PRESERVE LN, HOUSTON, TX, 77089",641935879,"R"
209515,"1533 PROSPECT AVENUE","THOUSAND ISLAND PARK","NY",13692,44.2896434,-76.031897638,15,"1533 PROSPECT AVENUE, THOUSAND ISLAND PARK, NY, 13692","Match","Exact","1533 PROSPECT AVE, THOUSAND ISLAND PARK, NY, 13692",154227140,"R"
209516,"1533 RANCHVIEW LN","CARROLLTON",NA,75007,33.0067580510001,-96.9042923659999,16,"1533 RANCHVIEW LN, CARROLLTON, , 75007","Match","Exact","1533 RANCHVIEW LN, CARROLLTON, TX, 75007",103382645,"R"
209517,"1533 RAYMOND RD APT 187","JACKSON","MS",39204,32.280861982,-90.255969253,17,"1533 RAYMOND RD APT 187, JACKSON, MS, 39204","Match","Exact","1533 RAYMOND RD, JACKSON, MS, 39204",611221481,"L"
209518,"1533 REDONDO LANE","LAKEWOOD","NJ",8701,40.097101019,-74.157998108,18,"1533 REDONDO LANE, LAKEWOOD, NJ, 8701","Match","Exact","1533 REDONDO LN, LAKEWOOD, NJ, 08701",203724597,"L"
209519,"1533 S 21ST ST  APT 5","LINCOLN","NE",68502,40.7974687010001,-96.690600653,19,"1533 S 21ST ST  APT 5, LINCOLN, NE, 68502","Match","Non_Exact","1533 S 21ST ST, LINCOLN, NE, 68502",28255411,"R"
209520,"1533 S CALIFORNIA AVE","COMPTON","CA",90221,33.882372258,-118.211039277,20,"1533 S CALIFORNIA AVE, COMPTON, CA, 90221","Match","Exact","1533 S CALIFORNIA AVE, COMPTON, CA, 90221",141682677,"R"
209521,"1533 S DEL MAR AVE UNIT M","SAN GABRIEL","CA",91776,34.081002004,-118.099563431,21,"1533 S DEL MAR AVE UNIT M, SAN GABRIEL, CA, 91776","Match","Non_Exact","1533 S DEL MAR AVE, SAN GABRIEL, CA, 91776",142739007,"R"
209522,"1533 S RIVERWOOD DRIVE","WABASH","IN",46992,40.801512931,-85.7765935479999,22,"1533 S RIVERWOOD DRIVE, WABASH, IN, 46992","Match","Exact","1533 S RIVERWOOD DR, WABASH, IN, 46992",647422174,"R"
209523,"1533 S TRUMBULL AVENUE","CHICAGO","IL",60623,41.860187051,-87.711577042,23,"1533 S TRUMBULL AVENUE, CHICAGO, IL, 60623","Match","Exact","1533 S TRUMBULL AVE, CHICAGO, IL, 60623",111799038,"L"
209524,"1533 SE 12TH AVE","GAINESVILLE","FL",32641,29.640279068,-82.305254009,24,"1533 SE 12TH AVE, GAINESVILLE, FL, 32641","Match","Exact","1533 SE 12TH AVE, GAINESVILLE, FL, 32641",639067011,"R"
209525,"1533 SE MAIN ST","PORTLAND","OR",97214,45.513631231,-122.65026437,25,"1533 SE MAIN ST, PORTLAND, OR, 97214","Match","Exact","1533 SE MAIN ST, PORTLAND, OR, 97214",157509084,"L"
209526,"1533 SHAWNEE RD APT 4","LIMA","OH",45805,40.717544483,-84.151591001,26,"1533 SHAWNEE RD APT 4, LIMA, OH, 45805","Match","Exact","1533 SHAWNEE RD, LIMA, OH, 45805",35565636,"L"
209527,"1533 SNAFFLE BIT DRIVE","GARDNERVILLE","NV",89410,38.949098255,-119.749249738,27,"1533 SNAFFLE BIT DRIVE, GARDNERVILLE, NV, 89410","Match","Exact","1533 SNAFFLE BIT DR, GARDNERVILLE, NV, 89410",651589005,"R"
209528,"1533 SOUTH BOUVIER ST","PHILADELPHIA","PA",19146,39.93211562,-75.174009429,28,"1533 SOUTH BOUVIER ST, PHILADELPHIA, PA, 19146","Match","Exact","1533 S BOUVIER ST, PHILADELPHIA, PA, 19146",652294908,"L"
209529,"1533 STATE STREET","SCHENECTADY","NY",12304,42.789987712,-73.9147733889999,29,"1533 STATE STREET, SCHENECTADY, NY, 12304","Match","Exact","1533 STATE ST, SCHENECTADY, NY, 12304",18030289,"L"
209530,"1533 SURRY HILL CT","CHARLOTTESVILLE","VA",22901,38.079276845,-78.461434222,30,"1533 SURRY HILL CT, CHARLOTTESVILLE, VA, 22901","Match","Exact","1533 SURRY HILL CT, CHARLOTTESVILLE, VA, 22901",83375184,"L"
209531,"1533 SW JOSHUA ST","PORTLAND","OR",97219,45.438023135,-122.693866943,31,"1533 SW JOSHUA ST, PORTLAND, OR, 97219","Match","Exact","1533 SW JOSHUA ST, PORTLAND, OR, 97219",624103538,"L"
209532,"1533 TAINTER ST","ST HELENA","CA",94574,38.5018767880001,-122.471596395,32,"1533 TAINTER ST, ST HELENA, CA, 94574","Match","Exact","1533 TAINTER ST, SAINT HELENA, CA, 94574",67412964,"L"
209533,"1533 THIRD AVENUE","YORK","PA",17403,39.9677634540001,-76.697229321,33,"1533 THIRD AVENUE, YORK, PA, 17403","Match","Exact","1533 3RD AVE, YORK, PA, 17403",88733223,"L"
209534,"1533 TOBOGGAN RUN","MANASQUAN","NJ",8736,40.110408766,-74.08451676,34,"1533 TOBOGGAN RUN, MANASQUAN, NJ, 8736","Match","Exact","1533 TOBOGGAN RUN, MANASQUAN, NJ, 08736",90467131,"R"
209535,"1533 W DOWRY CT APT B","TAYLORSVILEL","UT",84123,40.6418408860001,-111.934824012,35,"1533 W DOWRY CT APT B, TAYLORSVILEL, UT, 84123","Match","Non_Exact","1533 DOWRY CT, TAYLORSVILLE, UT, 84123",176139894,"L"
209536,"1533 W DOWRY CT APT B","TAYLORSVILLE","UT",84123,40.6418408860001,-111.934824012,36,"1533 W DOWRY CT APT B, TAYLORSVILLE, UT, 84123","Match","Exact","1533 DOWRY CT, TAYLORSVILLE, UT, 84123",176139894,"L"
209537,"1533 W HIGH ST","STOWE","PA",19464,40.245584136,-75.685763299,37,"1533 W HIGH ST, STOWE, PA, 19464","Match","Exact","1533 W HIGH ST, STOWE, PA, 19464",135060817,"R"
209538,"1533 W HOLLYWOOD AVE","CHICAGO","IL",60660,41.985123758,-87.669170293,38,"1533 W HOLLYWOOD AVE, CHICAGO, IL, 60660","Match","Exact","1533 W HOLLYWOOD AVE, CHICAGO, IL, 60660",111745632,"L"
209539,"1533 W JARVIS AVE APT 411","CHICAGO","IL",60626,42.0160070700001,-87.6694713109999,39,"1533 W JARVIS AVE APT 411, CHICAGO, IL, 60626","Match","Non_Exact","1533 W JARVIS AVE, CHICAGO, IL, 60626",111745204,"L"
209540,"1533 W SAN BERNARDINO RD APT 8","WEST COVINA","CA",91790,34.08995435,-117.93824179,40,"1533 W SAN BERNARDINO RD APT 8, WEST COVINA, CA, 91790","Match","Non_Exact","1533 W SAN BERNARDINO RD, WEST COVINA, CA, 91790",142245242,"R"
209541,"1533 WEST 12TH AVE","HUTCHINSON","KS",67501,38.0664580260001,-97.960138934,41,"1533 WEST 12TH AVE, HUTCHINSON, KS, 67501","Match","Exact","1533 W 12TH AVE, HUTCHINSON, KS, 67501",142934101,"R"
209542,"1533 WEST 31ST STREET","RIVIERA BEACH","FL",33404,26.7880912460001,-80.079258049,42,"1533 WEST 31ST STREET, RIVIERA BEACH, FL, 33404","Match","Exact","1533 W 31ST ST, RIVIERA BEACH, FL, 33404",115529065,"L"
209543,"1533 WEST AVENUE C","MULESHOE","TX",79347,34.232685486,-102.740474391,43,"1533 WEST AVENUE C, MULESHOE, TX, 79347","Match","Exact","1533 W AVE C, MULESHOE, TX, 79347",163970264,"L"
209544,"1533 WEST HOLLY HEDGES DRIVE","PEORIA","IL",61614,40.754865626,-89.6156334999999,44,"1533 WEST HOLLY HEDGES DRIVE, PEORIA, IL, 61614","Match","Exact","1533 W HOLLY HEDGES DR, PEORIA, IL, 61614",8714962,"R"
209545,"1533 WHITINGHAM ST SE","NORTH CANTON","OH",44720,NA,NA,45,"1533 WHITINGHAM ST SE, NORTH CANTON, OH, 44720","No_Match",NA,NA,NA,NA
209546,"1533 WILDBERRY LANE","OAK HARBOR","WA",98277,48.3051397030001,-122.697902068,46,"1533 WILDBERRY LANE, OAK HARBOR, WA, 98277","Match","Exact","1533 WILDBERRY LN, OAK HARBOR, WA, 98277",624538664,"R"
209547,"1533 WILDBERRY LN","OAK HARBOR","WA",98277,48.3051397030001,-122.697902068,47,"1533 WILDBERRY LN, OAK HARBOR, WA, 98277","Match","Exact","1533 WILDBERRY LN, OAK HARBOR, WA, 98277",624538664,"R"
209548,"1533 WINGO LN APT 2","BOURBONNAIS","IL",60914,41.1671309160001,-87.8433584919999,48,"1533 WINGO LN APT 2, BOURBONNAIS, IL, 60914","Match","Exact","1533 WINGO LN, BOURBONNAIS, IL, 60914",98368662,"R"
209549,"1533 WOODBRIDGE STREET APT 108","SAINT PAUL","MN",55117,44.9881428690001,-93.108424714,49,"1533 WOODBRIDGE STREET APT 108, SAINT PAUL, MN, 55117","Match","Non_Exact","1533 N WOODBRIDGE ST, SAINT PAUL, MN, 55117",97661651,"L"
209550,"1533 YARBERRY DR","PETALUMA","CA",94954,38.2644015070001,-122.64795667,50,"1533 YARBERRY DR, PETALUMA, CA, 94954","Match","Exact","1533 YARBERRY DR, PETALUMA, CA, 94954",67491046,"L"
209551,"1533 ZIMMER ROAD","ADDY","WA",99101,48.3473257850001,-117.847238456,51,"1533 ZIMMER ROAD, ADDY, WA, 99101","Match","Exact","1533 ZIMMER RD, ADDY, WA, 99101",174869857,"R"
209552,"1533 ZION HILL ROAD","LANCASTER","SC",29720,34.7707213190001,-80.740618468,52,"1533 ZION HILL ROAD, LANCASTER, SC, 29720","Match","Exact","1533 ZION HILL RD, LANCASTER, SC, 29720",40703572,"L"
209553,"1533","BRISTOL","ME",4539,NA,NA,53,"1533, BRISTOL, ME, 4539","No_Match",NA,NA,NA,NA
209554,"15330  W BOLA  DRIVE","SURPRISE","AZ",85376,33.635796773,-112.390040591,54,"15330  W BOLA  DRIVE, SURPRISE, AZ, 85376","Match","Non_Exact","15330 W BOLA DR, SURPRISE, AZ, 85374",244022214,"R"
209555,"15330 AMERICAN WAY","GAITHERSBURG","MD",20878,39.1072511350001,-77.236231916,55,"15330 AMERICAN WAY, GAITHERSBURG, MD, 20878","Match","Exact","15330 AMERICAN WAY, GAITHERSBURG, MD, 20878",62048754,"L"
209556,"15330 BAMMEL NORTH HOUSTON","HOUSTON","TX",77014,NA,NA,56,"15330 BAMMEL NORTH HOUSTON, HOUSTON, TX, 77014","Tie",NA,NA,NA,NA
209557,"15330 COUNTRY RIDGE DRIVE","CHESTERFIELD","MO",63017,38.627924955,-90.556809984,57,"15330 COUNTRY RIDGE DRIVE, CHESTERFIELD, MO, 63017","Match","Exact","15330 COUNTRY RIDGE DR, CHESTERFIELD, MO, 63017",100111173,"L"
209558,"15330 EAST 200 SOUTH","COLUMBUS","IN",47203,39.1741741870001,-85.7543960369999,58,"15330 EAST 200 SOUTH, COLUMBUS, IN, 47203","Match","Exact","15330 E 200 S, COLUMBUS, IN, 47203",606461657,"R"
209559,"15330 ELLA BLVD UNIT 901","HOUSTON","TX",77090,29.9903805020001,-95.431149493,59,"15330 ELLA BLVD UNIT 901, HOUSTON, TX, 77090","Match","Exact","15330 ELLA BLVD, HOUSTON, TX, 77090",642110812,"R"
209560,"15330 HIDDEN FOAL DRIVE","JACKSONVILLE","FL",32235,30.207662102,-81.952657218,60,"15330 HIDDEN FOAL DRIVE, JACKSONVILLE, FL, 32235","Match","Non_Exact","15330 HIDDEN FOAL DR, JACKSONVILLE, FL, 32234",641024150,"L"
209561,"15330 HWY 64","BEN WHEELER","TX",75754,32.4592614900001,-95.721233043,61,"15330 HWY 64, BEN WHEELER, TX, 75754","Match","Non_Exact","15330 STATE HWY 64, BEN WHEELER, TX, 75754",649878889,"R"
209562,"15330 LIBERTY RIVER 6301","HOUSTON","TX",77049,29.835705106,-95.165457238,62,"15330 LIBERTY RIVER 6301, HOUSTON, TX, 77049","Match","Non_Exact","15330 LIBERTY RIVER DR, HOUSTON, TX, 77049",630204451,"R"
209563,"15330 MARMOSET ST NW","RAMSEY","MN",55303,45.249078271,-93.4816761599999,63,"15330 MARMOSET ST NW, RAMSEY, MN, 55303","Match","Exact","15330 MARMOSET ST NW, RAMSEY, MN, 55303",639095795,"L"
209564,"15330 NE 10 CT","NORTH MIAMI BEACH","FL",33162,25.9165363980001,-80.178834173,64,"15330 NE 10 CT, NORTH MIAMI BEACH, FL, 33162","Match","Exact","15330 NE 10TH CT, N MIAMI BEACH, FL, 33162",116036075,"L"
209565,"15330 S 156 COURT NO 110","OMAHA","NE",68135,NA,NA,65,"15330 S 156 COURT NO 110, OMAHA, NE, 68135","No_Match",NA,NA,NA,NA
209566,"15330 SW 49TH STREET","MIRAMAR","FL",33027,25.9636957050001,-80.3497826129999,66,"15330 SW 49TH STREET, MIRAMAR, FL, 33027","Match","Exact","15330 SW 49TH ST, MIRAMAR, FL, 33027",114778056,"L"
209567,"15331 CAPE DR N","JACKSONVILLE","FL",32226,30.5179139860001,-81.571993753,67,"15331 CAPE DR N, JACKSONVILLE, FL, 32226","Match","Exact","15331 CAPE DR N, JACKSONVILLE, FL, 32226",636331836,"R"
209568,"15331 CLEAR STREET","NOBLESVILLE","IN",46060,40.010967061,-85.984632172,68,"15331 CLEAR STREET, NOBLESVILLE, IN, 46060","Match","Exact","15331 CLEAR ST, NOBLESVILLE, IN, 46060",231603471,"R"
209569,"15331 COUNTY ROAD 90","PIERCE","CO",80650,40.640186901,-104.767365512,69,"15331 COUNTY ROAD 90, PIERCE, CO, 80650","Match","Exact","15331 CO RD 90, PIERCE, CO, 80650",188683828,"L"
209570,"15331 CR 90","PIERCE","CO",80650,40.640186901,-104.767365512,70,"15331 CR 90, PIERCE, CO, 80650","Match","Exact","15331 CO RD 90, PIERCE, CO, 80650",188683828,"L"
209571,"15331 E 71ST STREET SOUTH","DERBY","KS",67037,37.5629795450001,-97.159966755,71,"15331 E 71ST STREET SOUTH, DERBY, KS, 67037","Match","Exact","15331 E 71ST ST S, DERBY, KS, 67037",115707983,"R"
209572,"15331 FORRER","DETROIT","MI",48227,42.4020453890001,-83.2015831429999,72,"15331 FORRER, DETROIT, MI, 48227","Match","Non_Exact","15331 FORRER ST, DETROIT, MI, 48227",95423788,"L"
209573,"15331 JOAN STREET","ROYAL OAK","MI",48237,42.4680363690001,-83.199505428,73,"15331 JOAN STREET, ROYAL OAK, MI, 48237","Match","Non_Exact","15331 JOAN ST, OAK PARK, MI, 48237",69778695,"L"
209574,"15331 NORTH MOUNTAIN RD","BROADWAY","VA",22815,38.6506160700001,-78.8399481989999,74,"15331 NORTH MOUNTAIN RD, BROADWAY, VA, 22815","Match","Exact","15331 N MOUNTAIN RD, BROADWAY, VA, 22815",55722803,"L"
209575,"15331 NW 32ND AVENUE","OPA-LOCKA","FL",33054,25.9135513890001,-80.252142936,75,"15331 NW 32ND AVENUE, OPA-LOCKA, FL, 33054","Match","Exact","15331 NW 32ND AVE, OPA LOCKA, FL, 33054",116028273,"R"
209576,"15331 SE EVERGREEN HWY","VANCOU","WA",98683,45.591587926,-122.514057233,76,"15331 SE EVERGREEN HWY, VANCOU, WA, 98683","Match","Non_Exact","15331 SE EVERGREEN HWY, VANCOUVER, WA, 98683",649872193,"R"
209577,"15331 SE EVERGREEN HWY","VANCOUVER","WA",98683,45.591587926,-122.514057233,77,"15331 SE EVERGREEN HWY, VANCOUVER, WA, 98683","Match","Exact","15331 SE EVERGREEN HWY, VANCOUVER, WA, 98683",649872193,"R"
209578,"15331 W  BELL RD 212","SURPRISE","AZ",85374,NA,NA,78,"15331 W  BELL RD 212, SURPRISE, AZ, 85374","No_Match",NA,NA,NA,NA
209579,"15331 W MORNING GLORY ST","GOODYEAR","AZ",85338,33.4444680230001,-112.389094734,79,"15331 W MORNING GLORY ST, GOODYEAR, AZ, 85338","Match","Exact","15331 W MORNING GLORY ST, GOODYEAR, AZ, 85338",243959131,"R"
209580,"153314 HWY 84","LOGANSPORT","LA",71049,NA,NA,80,"153314 HWY 84, LOGANSPORT, LA, 71049","No_Match",NA,NA,NA,NA
209581,"15332 ANTIOCH STREET - NO 303","PACIFIC PALISADES","CA",90272,34.0470089310001,-118.526336618,81,"15332 ANTIOCH STREET - NO 303, PACIFIC PALISADES, CA, 90272","Match","Exact","15332 ANTIOCH ST, PACIFIC PALISADES, CA, 90272",141558497,"L"
209582,"15332 ANTIOCH STREET SUITE 517","PACIFIC PALISADES","CA",90272,34.0470089310001,-118.526336618,82,"15332 ANTIOCH STREET SUITE 517, PACIFIC PALISADES, CA, 90272","Match","Exact","15332 ANTIOCH ST, PACIFIC PALISADES, CA, 90272",141558497,"L"
209583,"15332 BEALFRED DR","FENTON","MI",48430,42.8029320850001,-83.740784987,83,"15332 BEALFRED DR, FENTON, MI, 48430","Match","Exact","15332 BEALFRED DR, FENTON, MI, 48430",69579255,"L"
209584,"15332 BEALFRED","FENTON","MI",48430,42.8029320850001,-83.740784987,84,"15332 BEALFRED, FENTON, MI, 48430","Match","Non_Exact","15332 BEALFRED DR, FENTON, MI, 48430",69579255,"L"
209585,"15332 HWY 99 SUITE 11","LYNNWOOD","WA",98087,47.859444855,-122.286398192,85,"15332 HWY 99 SUITE 11, LYNNWOOD, WA, 98087","Match","Non_Exact","15332 STATE RTE 99, LYNNWOOD, WA, 98087",187754082,"R"
209586,"15332 S RIDGEWAY","CHICAGO","IL",60623,NA,NA,86,"15332 S RIDGEWAY, CHICAGO, IL, 60623","No_Match",NA,NA,NA,NA
209587,"15332 SW 74TH PLACE","PALMETTO BAY","FL",33157,25.6277813790001,-80.314634514,87,"15332 SW 74TH PLACE, PALMETTO BAY, FL, 33157","Match","Exact","15332 SW 74TH PL, PALMETTO BAY, FL, 33157",642622504,"R"
209588,"15333 BROEKER PLACE","CHESTERFIELD","MO",63017,38.661305569,-90.5505931,88,"15333 BROEKER PLACE, CHESTERFIELD, MO, 63017","Match","Non_Exact","15333 BROEKER PLACE DR, CHESTERFIELD, MO, 63017",100179211,"R"
209589,"15333 CIRCLE DR","PUNTA GORDA","FL",33955,26.809254035,-81.953729572,89,"15333 CIRCLE DR, PUNTA GORDA, FL, 33955","Match","Exact","15333 CIRCLE DR, PUNTA GORDA, FL, 33955",4316688,"R"
209590,"15333 CULVER DR STE 340S","IRVINE","CA",92604,NA,NA,90,"15333 CULVER DR STE 340S, IRVINE, CA, 92604","No_Match",NA,NA,NA,NA
209591,"15333 CULVER DRIVE STE 340 3D","IRVINE","CA",92604,NA,NA,91,"15333 CULVER DRIVE STE 340 3D, IRVINE, CA, 92604","No_Match",NA,NA,NA,NA
209592,"15333 CULVER DRIVE SUITE 340-253","IRVINE","CA",92604,NA,NA,92,"15333 CULVER DRIVE SUITE 340-253, IRVINE, CA, 92604","No_Match",NA,NA,NA,NA
209593,"15333 JOSEPH PHELPS AVE","BAKERSFIELD","CA",93314,35.374781044,-119.173266371,93,"15333 JOSEPH PHELPS AVE, BAKERSFIELD, CA, 93314","Match","Exact","15333 JOSEPH PHELPS AVE, BAKERSFIELD, CA, 93314",616483178,"R"
209594,"15333 MANSFIELD","DETROIT","MI",48227,42.4019915920001,-83.205205312,94,"15333 MANSFIELD, DETROIT, MI, 48227","Match","Non_Exact","15333 MANSFIELD ST, DETROIT, MI, 48227",95423775,"L"
209595,"15333 N HAYDEN RD APT 2131","SCOTTSDALE","AZ",85260,33.6259514710001,-111.898594978,95,"15333 N HAYDEN RD APT 2131, SCOTTSDALE, AZ, 85260","Match","Non_Exact","15333 N HAYDEN RD, SCOTTSDALE, AZ, 85260",128261010,"L"
209596,"15333 N PIMA RD STE 305","SCOTTSDALE","AZ",85260,NA,NA,96,"15333 N PIMA RD STE 305, SCOTTSDALE, AZ, 85260","No_Match",NA,NA,NA,NA
209597,"15333 N PIMA RD STE 305","SCOTTSDALE","AZ",95260,NA,NA,97,"15333 N PIMA RD STE 305, SCOTTSDALE, AZ, 95260","No_Match",NA,NA,NA,NA
209598,"15333 SHERMAN WAY SUITE 1368","VAN NUYS","CA",91406,34.201306995,-118.467133253,98,"15333 SHERMAN WAY SUITE 1368, VAN NUYS, CA, 91406","Match","Non_Exact","15333 W SHERMAN WAY, VAN NUYS, CA, 91406",241188496,"R"
209599,"15334 AZRA DR","ODESSA","FL",33556,28.183151321,-82.5631316509999,99,"15334 AZRA DR, ODESSA, FL, 33556","Match","Exact","15334 AZRA DR, ODESSA, FL, 33556",625021174,"L"
209600,"15334 HERON DR","NEOSHO","MO",64850,36.8458885580001,-94.455043125,100,"15334 HERON DR, NEOSHO, MO, 64850","Match","Exact","15334 HERON DR, NEOSHO, MO, 64850",55998242,"L"
209601,"15334 O AVENUE","COLUMBUS JUNCTION","IA",52738,41.2825905670001,-91.282866739,101,"15334 O AVENUE, COLUMBUS JUNCTION, IA, 52738","Match","Exact","15334 O AVE, COLUMBUS JUNCTION, IA, 52738",9388972,"R"
209602,"15334 SOUTHWOODTRACE LN","HOUSTON","TX",77049,29.820059228,-95.167555873,102,"15334 SOUTHWOODTRACE LN, HOUSTON, TX, 77049","Match","Non_Exact","15334 SOUTHWOOD TRACE LN, HOUSTON, TX, 77049",627662820,"L"
209603,"15334N 144TH AVENUE","SUPRISE","AZ",85379,33.622963156,-112.370229853,103,"15334N 144TH AVENUE, SUPRISE, AZ, 85379","Match","Non_Exact","15334 N 144 AVE, SURPRISE, AZ, 85379",617972410,"L"
209604,"15335 59TH ST NE","MINTO","ND",58261,NA,NA,104,"15335 59TH ST NE, MINTO, ND, 58261","No_Match",NA,NA,NA,NA
209605,"15335 CYPRESS","CALDWELL","ID",86307,NA,NA,105,"15335 CYPRESS, CALDWELL, ID, 86307","No_Match",NA,NA,NA,NA
209606,"15335 LA JOLLA DRIVE","MORGAN HILL","CA",95037,37.104872035,-121.638771159,106,"15335 LA JOLLA DRIVE, MORGAN HILL, CA, 95037","Match","Exact","15335 LA JOLLA DR, MORGAN HILL, CA, 95037",614046214,"R"
209607,"15335 MERION COURT","NORTHVILLE","MI",48168,42.4005503320001,-83.500589054,107,"15335 MERION COURT, NORTHVILLE, MI, 48168","Match","Exact","15335 MERION CT, NORTHVILLE, MI, 48168",95737216,"R"
209608,"15335 MORRISON ST STE 115","SHERMAN OAKS","CA",91403,34.160281937,-118.466924218,108,"15335 MORRISON ST STE 115, SHERMAN OAKS, CA, 91403","Match","Exact","15335 MORRISON ST, SHERMAN OAKS, CA, 91403",141560580,"R"
209609,"15335 PARK ROW APT 106","HOUSTON","TX",77084,NA,NA,109,"15335 PARK ROW APT 106, HOUSTON, TX, 77084","No_Match",NA,NA,NA,NA
209610,"15335 PARK ROW APT 2403","HOUSTON","TX",77084,NA,NA,110,"15335 PARK ROW APT 2403, HOUSTON, TX, 77084","No_Match",NA,NA,NA,NA
209611,"15335 PARK ROW UNIT 1902","HOUSTON","TX",77084,NA,NA,111,"15335 PARK ROW UNIT 1902, HOUSTON, TX, 77084","No_Match",NA,NA,NA,NA
209612,"15335 SIENNA OAK DR","CYPRESS","TX",77433,30.009441128,-95.754155532,112,"15335 SIENNA OAK DR, CYPRESS, TX, 77433","Match","Exact","15335 SIENNA OAK DR, CYPRESS, TX, 77433",624800775,"R"
209613,"15335 SIENNA OAK","CYPRESS","TX",77433,30.009441128,-95.754155532,113,"15335 SIENNA OAK, CYPRESS, TX, 77433","Match","Non_Exact","15335 SIENNA OAK DR, CYPRESS, TX, 77433",624800775,"R"
209614,"15335 W JENAN DRIVE","SURPRISE","AZ",85379,33.591158825,-112.389913553,114,"15335 W JENAN DRIVE, SURPRISE, AZ, 85379","Match","Exact","15335 W JENAN DR, SURPRISE, AZ, 85379",243969530,"R"
209615,"15336 7TH AVE","PHOENIX","IL",60426,41.6100275380001,-87.627324457,115,"15336 7TH AVE, PHOENIX, IL, 60426","Match","Exact","15336 7TH AVE, PHOENIX, IL, 60426",605700466,"R"
209616,"15336 7TH AVE","PHONIOX","IL",60424,41.6100275380001,-87.627324457,116,"15336 7TH AVE, PHONIOX, IL, 60424","Match","Non_Exact","15336 7TH AVE, PHOENIX, IL, 60426",605700466,"R"
209617,"15336 7TH AVEE","PHOENIX","IL",60426,41.6100275380001,-87.627324457,117,"15336 7TH AVEE, PHOENIX, IL, 60426","Match","Non_Exact","15336 7TH AVE, PHOENIX, IL, 60426",605700466,"R"
209618,"15336 BILTMORE","DETROIT","MI",48227,42.401952586,-83.2103856369999,118,"15336 BILTMORE, DETROIT, MI, 48227","Match","Non_Exact","15336 BILTMORE ST, DETROIT, MI, 48227",95423694,"R"
209619,"15336 CHAD DR SE","YELM","WA",98597,46.955889938,-122.614292648,119,"15336 CHAD DR SE, YELM, WA, 98597","Match","Exact","15336 CHAD DR SE, YELM, WA, 98597",614104777,"R"
209620,"15336 MESA ESTATES COURT","RAMONA","CA",92065,32.988601386,-116.783795093,120,"15336 MESA ESTATES COURT, RAMONA, CA, 92065","Match","Exact","15336 MESA ESTATES CT, RAMONA, CA, 92065",195462084,"R"
209621,"15336 OAKFIELD","DETROIT","MI",48227,42.4018867240001,-83.214259914,121,"15336 OAKFIELD, DETROIT, MI, 48227","Match","Non_Exact","15336 OAKFIELD ST, DETROIT, MI, 48227",95423464,"R"
209622,"15336 WASHBURN","DETROIT","MH",48238,NA,NA,122,"15336 WASHBURN, DETROIT, MH, 48238","No_Match",NA,NA,NA,NA
209623,"15337 95TH AVE N","MAPLE GROVE","MN",55369,45.126700951,-93.47480194,123,"15337 95TH AVE N, MAPLE GROVE, MN, 55369","Match","Exact","15337 95TH AVE N, MAPLE GROVE, MN, 55369",43814854,"R"
209624,"15337 A A BUMGARNER RD","JUSTIN","TX",76247,33.132321904,-97.3675658719999,124,"15337 A A BUMGARNER RD, JUSTIN, TX, 76247","Match","Non_Exact","15337 AA BUMGARNER RD, JUSTIN, TX, 76247",651679378,"R"
209625,"15337 CHARLES R AVE","EASTPOINTE","MI",48021,42.4681992110001,-82.963527471,125,"15337 CHARLES R AVE, EASTPOINTE, MI, 48021","Match","Exact","15337 CHARLES R AVE, EASTPOINTE, MI, 48021",110679121,"L"
209626,"15337 EAST PALOMINO BOULEVARD","FOUNTAIN HILLS","AZ",85268,33.591686307,-111.749406491,126,"15337 EAST PALOMINO BOULEVARD, FOUNTAIN HILLS, AZ, 85268","Match","Exact","15337 E PALOMINO BLVD, FOUNTAIN HILLS, AZ, 85268",128190414,"R"
209627,"15337 GILCHRIST ST","DETROIT","MI",48227,42.401932118,-83.211500364,127,"15337 GILCHRIST ST, DETROIT, MI, 48227","Match","Exact","15337 GILCHRIST ST, DETROIT, MI, 48227",95423688,"L"
209628,"15337 GILCRIST","DETROIT","MI",48227,NA,NA,128,"15337 GILCRIST, DETROIT, MI, 48227","No_Match",NA,NA,NA,NA
209629,"15337 LEWIS LANE","MADILL","OK",73446,NA,NA,129,"15337 LEWIS LANE, MADILL, OK, 73446","No_Match",NA,NA,NA,NA
209630,"15337 PARETE RD","JACKSONVILLE","FL",32218,30.516944627,-81.7328196999999,130,"15337 PARETE RD, JACKSONVILLE, FL, 32218","Match","Exact","15337 PARETE RD, JACKSONVILLE, FL, 32218",83885580,"R"
209631,"15337 S CICERO AVE","OAK FOREST","IL",60452,41.6135253830001,-87.736859327,131,"15337 S CICERO AVE, OAK FOREST, IL, 60452","Match","Exact","15337 CICERO AVE, OAK FOREST, IL, 60452",112381036,"L"
209632,"15337 TINA LANE","WOODBRIDGE","VA",22193,38.618487885,-77.3168546049999,132,"15337 TINA LANE, WOODBRIDGE, VA, 22193","Match","Exact","15337 TINA LN, WOODBRIDGE, VA, 22193",635411969,"R"
209633,"15338 91ST AVE SE","YELM","WA",98597,46.9551903870001,-122.614747105,133,"15338 91ST AVE SE, YELM, WA, 98597","Match","Exact","15338 91ST AVE SE, YELM, WA, 98597",615323508,"L"
209634,"15338 FALCON CREST COURT","SAN DIEGO","CA",92127,33.0044105210001,-117.103282786,134,"15338 FALCON CREST COURT, SAN DIEGO, CA, 92127","Match","Exact","15338 FALCON CREST CT, SAN DIEGO, CA, 92127",612890754,"R"
209635,"15338 INDIAN PAINT CIRCLE","BLUFFDALE","UT",84065,40.4728573370001,-111.945033195,135,"15338 INDIAN PAINT CIRCLE, BLUFFDALE, UT, 84065","Match","Exact","15338 INDIAN PAINT CIR, BLUFFDALE, UT, 84065",625270273,"R"
209636,"15338 W STATE RD 27/70","STONE LAKE","WI",54876,NA,NA,136,"15338 W STATE RD 27/70, STONE LAKE, WI, 54876","No_Match",NA,NA,NA,NA
209637,"15339 DEERFIELD AVE","EASTPOINTE","MI",48021,42.4699493050001,-82.962896534,137,"15339 DEERFIELD AVE, EASTPOINTE, MI, 48021","Match","Exact","15339 DEERFIELD AVE, EASTPOINTE, MI, 48021",110679117,"L"
209638,"15339 DEERFIELD","EASTPOINTE","MI",48021,42.4699493050001,-82.962896534,138,"15339 DEERFIELD, EASTPOINTE, MI, 48021","Match","Non_Exact","15339 DEERFIELD AVE, EASTPOINTE, MI, 48021",110679117,"L"
209639,"15339 WHITCOMB","DETROIT","MI",48227,42.4023120030001,-83.196315367,139,"15339 WHITCOMB, DETROIT, MI, 48227","Match","Non_Exact","15339 WHITCOMB ST, DETROIT, MI, 48227",95424689,"L"
209640,"15339 WIMBORNE LN","NAPLES","FL",34110,26.311372094,-81.8200299869999,140,"15339 WIMBORNE LN, NAPLES, FL, 34110","Match","Exact","15339 WIMBORNE LN, NAPLES, FL, 34110",115191704,"R"
209641,"1534 29TH ST","ASHLAND","WV",41101,NA,NA,141,"1534 29TH ST, ASHLAND, WV, 41101","No_Match",NA,NA,NA,NA
209642,"1534 ALLEN LANE","MORGANFIELD","KY",42437,37.6803116310001,-87.881377438,142,"1534 ALLEN LANE, MORGANFIELD, KY, 42437","Match","Exact","1534 ALLEN LN, MORGANFIELD, KY, 42437",100706571,"L"
209643,"1534 AMBER AVE","WEST RICHLAND","WA",99353,46.2871204830001,-119.372284798,143,"1534 AMBER AVE, WEST RICHLAND, WA, 99353","Match","Exact","1534 AMBER AVE, WEST RICHLAND, WA, 99353",642953503,"R"
209644,"1534 ARBOR VIEW 101","MEMPHIS","TN",38134,35.167182573,-89.838691957,144,"1534 ARBOR VIEW 101, MEMPHIS, TN, 38134","Match","Non_Exact","1534 ARBOR VIEW CT, MEMPHIS, TN, 38134",607414547,"L"
209645,"1534 ARCO DE GOYA","LAS CRUCES","NM",88007,32.316496396,-106.871036278,145,"1534 ARCO DE GOYA, LAS CRUCES, NM, 88007","Match","Exact","1534 ARCO DE GOYA, LAS CRUCES, NM, 88007",627535364,"L"
209646,"1534 AUGUSTA LANE","CARY","IL",60013,42.20684413,-88.2785753159999,146,"1534 AUGUSTA LANE, CARY, IL, 60013","Match","Exact","1534 AUGUSTA LN, CARY, IL, 60013",606263111,"R"
209647,"1534 AUTUMN DRIVE","LANCASTER","OH",43130,39.7449002970001,-82.6344934749999,147,"1534 AUTUMN DRIVE, LANCASTER, OH, 43130","Match","Exact","1534 AUTUMN DR, LANCASTER, OH, 43130",37236001,"R"
209648,"1534 BATEAU LANDING","CHESAPEAKE","VA",23321,36.7991364160001,-76.4234215719999,148,"1534 BATEAU LANDING, CHESAPEAKE, VA, 23321","Match","Exact","1534 BATEAU LNDG, CHESAPEAKE, VA, 23321",121793617,"R"
209649,"1534 BATEAU LANDINGZX","CHESAPEAKE","VA",23321,36.7991364160001,-76.4234215719999,149,"1534 BATEAU LANDINGZX, CHESAPEAKE, VA, 23321","Match","Non_Exact","1534 BATEAU LNDG, CHESAPEAKE, VA, 23321",121793617,"R"
209650,"1534 BEACH AVENUE APT 21","BROX","NY",10460,40.838480019,-73.867324401,150,"1534 BEACH AVENUE APT 21, BROX, NY, 10460","Match","Non_Exact","1534 BEACH AVE, BRONX, NY, 10460",80304624,"R"
209651,"1534 BEACHCOMBER DR","LAKE HAVASU CITY","AZ",86403,34.46609891,-114.350851525,151,"1534 BEACHCOMBER DR, LAKE HAVASU CITY, AZ, 86403","Match","Non_Exact","1534 BEACHCOMBER BLVD, LAKE HAVASU CITY, AZ, 86403",190282685,"L"
209652,"1534 BEVERLY RD","PHILADELPHIA","PA",19138,40.0585718820001,-75.160027341,152,"1534 BEVERLY RD, PHILADELPHIA, PA, 19138","Match","Exact","1534 BEVERLY RD, PHILADELPHIA, PA, 19138",131413123,"R"
209653,"1534 BIG CREEK ROAD UPPER","SIAS","WV",25506,NA,NA,153,"1534 BIG CREEK ROAD UPPER, SIAS, WV, 25506","No_Match",NA,NA,NA,NA
209654,"1534 BRIDGET COURT","UPLAND","CA",91784,34.123693476,-117.679341304,154,"1534 BRIDGET COURT, UPLAND, CA, 91784","Match","Exact","1534 BRIDGET CT, UPLAND, CA, 91784",144669586,"L"
209655,"1534 BRIDGEWATER ROAD","BENSALEM","PA",19020,40.108056306,-74.929267465,155,"1534 BRIDGEWATER ROAD, BENSALEM, PA, 19020","Match","Exact","1534 BRIDGEWATER RD, BENSALEM, PA, 19020",134715147,"L"
209656,"1534 BUTLER STREET","EASTON","PA",18042,40.685416726,-75.2321353089999,156,"1534 BUTLER STREET, EASTON, PA, 18042","Match","Exact","1534 BUTLER ST, EASTON, PA, 18042",136882591,"L"
209657,"1534 C SHAREN DR","SALISBURY","MD",21804,38.3709582340001,-75.5561712969999,157,"1534 C SHAREN DR, SALISBURY, MD, 21804","Match","Exact","1534 SHAREN DR, SALISBURY, MD, 21804",114470148,"L"
209658,"1534 CENTENNIAL OVERLOOK","CRESTONE","CO",81131,37.962084503,-105.684775062,158,"1534 CENTENNIAL OVERLOOK, CRESTONE, CO, 81131","Match","Exact","1534 CENTENNIAL OVERLOOK, CRESTONE, CO, 81131",104383693,"L"
209659,"1534 CHAMPLIN DRIVE","SAINT LOUIS","MO",63136,38.7583047470001,-90.278081057,159,"1534 CHAMPLIN DRIVE, SAINT LOUIS, MO, 63136","Match","Exact","1534 CHAMPLIN DR, SAINT LOUIS, MO, 63136",100145567,"R"
209660,"1534 CHAMPLIN DRIVE","ST LOUIS","MO",63136,38.7583047470001,-90.278081057,160,"1534 CHAMPLIN DRIVE, ST LOUIS, MO, 63136","Match","Exact","1534 CHAMPLIN DR, SAINT LOUIS, MO, 63136",100145567,"R"
209661,"1534 CHAPMAN STREET","CEDAR HILL","TX",75104,32.623663939,-96.953634168,161,"1534 CHAPMAN STREET, CEDAR HILL, TX, 75104","Match","Exact","1534 CHAPMAN ST, CEDAR HILL, TX, 75104",103280280,"R"
209662,"1534 CLARK DR","YARDLEY","PA",19067,40.22635476,-74.866714862,162,"1534 CLARK DR, YARDLEY, PA, 19067","Match","Exact","1534 CLARK DR, YARDLEY, PA, 19067",134741789,"L"
209663,"1534 CLOVER HILLS DRIVE","ELKO","NV",89801,40.8354693480001,-115.802092802,163,"1534 CLOVER HILLS DRIVE, ELKO, NV, 89801","Match","Exact","1534 CLOVER HILLS DR, ELKO, NV, 89801",154625641,"R"
209664,"1534 COLLEGE AVE","HARRISONBURG","VA",22802,38.4763194610001,-78.877850576,164,"1534 COLLEGE AVE, HARRISONBURG, VA, 22802","Match","Exact","1534 COLLEGE AVE, HARRISONBURG, VA, 22802",55709889,"R"
209665,"1534 COUNTY ROAD 142","OVALO","TX",79541,32.175918021,-99.768901789,165,"1534 COUNTY ROAD 142, OVALO, TX, 79541","Match","Exact","1534 CO RD 142, OVALO, TX, 79541",129950139,"L"
209666,"1534 COUTANT AVENUE","LAKEWOOD","OH",44107,41.4797789410001,-81.770318549,166,"1534 COUTANT AVENUE, LAKEWOOD, OH, 44107","Match","Exact","1534 COUTANT AVE, LAKEWOOD, OH, 44107",653480716,"R"
209667,"1534 CROOKED STICK LN","VALRICO","FL",33596,27.8746138810001,-82.2568497779999,167,"1534 CROOKED STICK LN, VALRICO, FL, 33596","Match","Non_Exact","1534 CROOKED STICK DR, VALRICO, FL, 33596",104619190,"L"
209668,"1534 DEVONHURST DRIVE","COLUMBUS","OH",43232,39.946386294,-82.8519683549999,168,"1534 DEVONHURST DRIVE, COLUMBUS, OH, 43232","Match","Exact","1534 DEVONHURST DR, COLUMBUS, OH, 43232",218678912,"L"
209669,"1534 E 13TH ST","BROOKLYN","NY",11230,40.6117930080001,-73.960745119,169,"1534 E 13TH ST, BROOKLYN, NY, 11230","Match","Exact","1534 E 13TH ST, BROOKLYN, NY, 11230",59089863,"R"
209670,"1534 E 65TH PL","CHICAGO","IL",60636,41.7760751490001,-87.58788961,170,"1534 E 65TH PL, CHICAGO, IL, 60636","Match","Non_Exact","1534 E 65TH PL, CHICAGO, IL, 60637",111774531,"L"
209671,"1534 E CR 800 N","SPRINGPORT","IN",47386,40.047458174,-85.3562732359999,171,"1534 E CR 800 N, SPRINGPORT, IN, 47386","Match","Exact","1534 E CO RD 800 N, SPRINGPORT, IN, 47386",29998024,"L"
209672,"1534 E HIGHLAND AVE","REDLANDS","CA",92374,34.0520294240001,-117.151188147,172,"1534 E HIGHLAND AVE, REDLANDS, CA, 92374","Match","Exact","1534 E HIGHLAND AVE, REDLANDS, CA, 92374",645537725,"R"
209673,"1534 E US HWY 34","EARLVILLE","IL",60518,41.586458442,-88.87017257,173,"1534 E US HWY 34, EARLVILLE, IL, 60518","Match","Exact","1534 E US HWY 34, EARLVILLE, IL, 60518",636380906,"R"
209674,"1534 EAST AVE","BAXTER SPRINGS","KS",66713,37.0201073760001,-94.7342867849999,174,"1534 EAST AVE, BAXTER SPRINGS, KS, 66713","Match","Exact","1534 EAST AVE, BAXTER SPGS, KS, 66713",65897942,"R"
209675,"1534 EAST AVENUE","BAXTER SPRINGS","KS",66713,37.0201073760001,-94.7342867849999,175,"1534 EAST AVENUE, BAXTER SPRINGS, KS, 66713","Match","Exact","1534 EAST AVE, BAXTER SPGS, KS, 66713",65897942,"R"
209676,"1534 FOPPIANO LOOP","ROUND ROCK","TX",78665,30.5064456200001,-97.629357913,176,"1534 FOPPIANO LOOP, ROUND ROCK, TX, 78665","Match","Exact","1534 FOPPIANO LOOP, ROUND ROCK, TX, 78665",126474692,"R"
209677,"1534 FRONT STREET","SAN DIEGO","CA",92101,32.7213037390001,-117.164768505,177,"1534 FRONT STREET, SAN DIEGO, CA, 92101","Match","Exact","1534 FRONT ST, SAN DIEGO, CA, 92101",195343511,"L"
209678,"1534 GARDEN VISTA GROVE","COLORADO SPRINGS","CO",80904,38.830359866,-104.860667878,178,"1534 GARDEN VISTA GROVE, COLORADO SPRINGS, CO, 80904","Match","Exact","1534 GARDEN VISTA GROVE, COLORADO SPRINGS, CO, 80904",610730939,"L"
209679,"1534 GARDEN VISTA GRV","COLORADO SPRINGS","CO",80904,38.830359866,-104.860667878,179,"1534 GARDEN VISTA GRV, COLORADO SPRINGS, CO, 80904","Match","Exact","1534 GARDEN VISTA GROVE, COLORADO SPRINGS, CO, 80904",610730939,"L"
209680,"1534 GATEKEEPER WAY","CENTERVILLE","OH",45458,39.604025203,-84.2013866629999,180,"1534 GATEKEEPER WAY, CENTERVILLE, OH, 45458","Match","Exact","1534 GATEKEEPER WAY, CENTERVILLE, OH, 45458",143604011,"R"
209681,"1534 GENTILLY BLVD","NEW ORLEANS","LA",70119,29.979068797,-90.077762483,181,"1534 GENTILLY BLVD, NEW ORLEANS, LA, 70119","Match","Exact","1534 GENTILLY BLVD, NEW ORLEANS, LA, 70119",191708698,"R"
209682,"1534 GONDOLA COURT","STOCKTON","CA",95207,37.9946571610001,-121.326292522,182,"1534 GONDOLA COURT, STOCKTON, CA, 95207","Match","Exact","1534 GONDOLA CT, STOCKTON, CA, 95207",133844817,"R"
209683,"1534 GOODRICH AVENUE","SAINT PAUL","MN",55105,44.937924346,-93.165041742,183,"1534 GOODRICH AVENUE, SAINT PAUL, MN, 55105","Match","Exact","1534 GOODRICH AVE, SAINT PAUL, MN, 55105",97645808,"L"
209684,"1534 GRAND CANAL","IRVINE","CA",92620,33.6926680980001,-117.759155427,184,"1534 GRAND CANAL, IRVINE, CA, 92620","Match","Exact","1534 GRAND CANAL, IRVINE, CA, 92620",647339782,"R"
209685,"1534 GRANT ST","BRADDOCK","PA",15104,40.402402362,-79.8443292169999,185,"1534 GRANT ST, BRADDOCK, PA, 15104","Match","Exact","1534 GRANT ST, BRADDOCK, PA, 15104",51670777,"R"
209686,"1534 GROVE STREET","BOULDER","CO",80302,40.015407215,-105.274452085,186,"1534 GROVE STREET, BOULDER, CO, 80302","Match","Exact","1534 GROVE ST, BOULDER, CO, 80302",188159850,"R"
209687,"1534 GROVE STREET","OSHKOSH","WI",54901,44.036377515,-88.525100939,187,"1534 GROVE STREET, OSHKOSH, WI, 54901","Match","Exact","1534 GROVE ST, OSHKOSH, WI, 54901",74488508,"R"
209688,"1534 GULF AVENUE","WILMINGTON","CA",90744,33.7935122650001,-118.274078462,188,"1534 GULF AVENUE, WILMINGTON, CA, 90744","Match","Non_Exact","1534 N GULF AVE, WILMINGTON, CA, 90744",141670262,"R"
209689,"1534 HAROLD STREET","HOUSTON","TX",77006,29.7412650140001,-95.398199004,189,"1534 HAROLD STREET, HOUSTON, TX, 77006","Match","Exact","1534 HAROLD ST, HOUSTON, TX, 77006",96064182,"R"
209690,"1534 HINES ROAD","FARMINGTON","NM",87401,36.715178544,-108.171686603,190,"1534 HINES ROAD, FARMINGTON, NM, 87401","Match","Exact","1534 HINES RD, FARMINGTON, NM, 87401",611570914,"L"
209691,"1534 HOLMAN ROAD","OAKLAND","CA",94610,NA,NA,191,"1534 HOLMAN ROAD, OAKLAND, CA, 94610","No_Match",NA,NA,NA,NA
209692,"1534 JENNY LEE","WICHITA FALLS","TX",76302,33.854488604,-98.4985707719999,192,"1534 JENNY LEE, WICHITA FALLS, TX, 76302","Match","Non_Exact","1534 JENNEY LEE DR, WICHITA FALLS, TX, 76302",169846240,"R"
209693,"1534 KENSINGTON DR","MURFREESBORO","TN",37130,35.8161504380001,-86.366106083,193,"1534 KENSINGTON DR, MURFREESBORO, TN, 37130","Match","Exact","1534 KENSINGTON DR, MURFREESBORO, TN, 37130",59042630,"R"
209694,"1534 LAGUNA LANE","LAKEWOOD","NJ",8701,40.094021039,-74.1597232299999,194,"1534 LAGUNA LANE, LAKEWOOD, NJ, 8701","Match","Exact","1534 LAGUNA LN, LAKEWOOD, NJ, 08701",203724571,"R"
209695,"1534 LAKEVIEW DR APT 215","DARIEN","IL",60561,41.7394015940001,-87.9814640339999,195,"1534 LAKEVIEW DR APT 215, DARIEN, IL, 60561","Match","Exact","1534 LAKEVIEW DR, DARIEN, IL, 60561",112667412,"L"
209696,"1534 LANGFORD ROAD","BALTIMORE","MD",21207,39.29730441,-76.720455952,196,"1534 LANGFORD ROAD, BALTIMORE, MD, 21207","Match","Exact","1534 LANGFORD RD, BALTIMORE, MD, 21207",191547882,"L"
209697,"1534 LANTERNS REST RD UNIT 202","MYRTLE BEACH","SC",29579,33.697202421,-78.956358238,197,"1534 LANTERNS REST RD UNIT 202, MYRTLE BEACH, SC, 29579","Match","Exact","1534 LANTERNS REST RD, MYRTLE BEACH, SC, 29579",631203824,"R"
209698,"1534 LAUREL WOOD WAY","FREDERICK","MD",21701,39.4492138320001,-77.381517144,198,"1534 LAUREL WOOD WAY, FREDERICK, MD, 21701","Match","Exact","1534 LAUREL WOOD WAY, FREDERICK, MD, 21701",604957554,"R"
209699,"1534 LEE AVE","NEW ULLM","MN",56073,44.3098515520001,-94.4827884759999,199,"1534 LEE AVE, NEW ULLM, MN, 56073","Match","Non_Exact","1534 LEE AVE, NEW ULM, MN, 56073",627639785,"L"
209700,"1534 LIME LEAF LN","DUNCANVILLE","TX",75137,32.631746649,-96.896398028,200,"1534 LIME LEAF LN, DUNCANVILLE, TX, 75137","Match","Exact","1534 LIME LEAF LN, DUNCANVILLE, TX, 75137",103280199,"L"
209701,"1534 LOCKWOOD DR APT D1","SILVER SPRING","MD",20904,NA,NA,201,"1534 LOCKWOOD DR APT D1, SILVER SPRING, MD, 20904","No_Match",NA,NA,NA,NA
209702,"1534 LONG PAW LANE","CHARLOTTE","NC",28214,35.298112078,-80.962107504,202,"1534 LONG PAW LANE, CHARLOTTE, NC, 28214","Match","Exact","1534 LONG PAW LN, CHARLOTTE, NC, 28214",640628223,"R"
209703,"1534 MADISON AV","BRIDGEPORT","CT",6606,41.1998899930001,-73.212561678,203,"1534 MADISON AV, BRIDGEPORT, CT, 6606","Match","Exact","1534 MADISON AVE, BRIDGEPORT, CT, 06606",3223118,"R"
209704,"1534 MAMMOTH LANE","IMPERIAL","MO",63052,38.366083782,-90.3891726149999,204,"1534 MAMMOTH LANE, IMPERIAL, MO, 63052","Match","Exact","1534 MAMMOTH LN, IMPERIAL, MO, 63052",62806026,"R"
209705,"1534 MAPLE GROVE ROAD","CHILLICOTHE","OH",45601,39.353164941,-83.083809875,205,"1534 MAPLE GROVE ROAD, CHILLICOTHE, OH, 45601","Match","Exact","1534 MAPLE GROVE RD, CHILLICOTHE, OH, 45601",37490933,"R"
209706,"1534 N 120 STREET","OMAHA","NE",68154,41.2735411030001,-96.1005463659999,206,"1534 N 120 STREET, OMAHA, NE, 68154","Match","Exact","1534 N 120TH ST, OMAHA, NE, 68154",611238445,"L"
209707,"1534 N 58TH AVE REAR","HOLLYWOOD","FL",33021,26.023605619,-80.2040545579999,207,"1534 N 58TH AVE REAR, HOLLYWOOD, FL, 33021","Match","Non_Exact","1534 N 58TH AVE, HOLLYWOOD, FL, 33021",114717044,"L"
209708,"1534 N AVON ST","BURBANK","CA",91505,34.1780171890001,-118.348132262,208,"1534 N AVON ST, BURBANK, CA, 91505","Match","Exact","1534 N AVON ST, BURBANK, CA, 91505",142725936,"R"
209709,"1534 N CENTRAL","CHICAGO","IL",60651,41.908489607,-87.7658843849999,209,"1534 N CENTRAL, CHICAGO, IL, 60651","Match","Non_Exact","1534 N CENTRAL AVE, CHICAGO, IL, 60651",605046083,"L"
209710,"1534 N HUMBOLDT AVE APT 35","MILWAUKEE","WI",53202,43.0497992690001,-87.898183807,210,"1534 N HUMBOLDT AVE APT 35, MILWAUKEE, WI, 53202","Match","Non_Exact","1534 N HUMBOLDT AVE, MILWAUKEE, WI, 53202",77744555,"R"
209711,"1534 N RECKER ROAD","MESA","AZ",85205,33.4433132450001,-111.701631888,211,"1534 N RECKER ROAD, MESA, AZ, 85205","Match","Exact","1534 N RECKER RD, MESA, AZ, 85205",128925805,"L"
209712,"1534 N STAFFORD ST","ARLINGTON","VA",22207,38.889814722,-77.111701296,212,"1534 N STAFFORD ST, ARLINGTON, VA, 22207","Match","Exact","1534 N STAFFORD ST, ARLINGTON, VA, 22207",76468293,"L"
209713,"1534 NE 8TH ST APT 106","HOMESTEAD","FL",33033,25.47733427,-80.4560579769999,213,"1534 NE 8TH ST APT 106, HOMESTEAD, FL, 33033","Match","Non_Exact","1534 NE 8TH ST, HOMESTEAD, FL, 33033",115992727,"R"
209714,"1534 NEVADA ST UNIT B","HOUSTON","TX",77006,29.750772741,-95.3992684899999,214,"1534 NEVADA ST UNIT B, HOUSTON, TX, 77006","Match","Exact","1534 NEVADA ST, HOUSTON, TX, 77006",96062176,"R"
209715,"1534 NORTH 13TH STREET","PHILADELPHIA","PA",19122,39.976100016,-75.156199003,215,"1534 NORTH 13TH STREET, PHILADELPHIA, PA, 19122","Match","Exact","1534 N 13TH ST, PHILADELPHIA, PA, 19122",131421669,"L"
209716,"1534 NORTH 400 WEST APT B","BOUNTIFUL","UT",84010,40.9056057610001,-111.889867534,216,"1534 NORTH 400 WEST APT B, BOUNTIFUL, UT, 84010","Match","Exact","1534 N 400 W, BOUNTIFUL, UT, 84010",229364178,"R"
209717,"1534 NORTHWAY DR SUITE 202","ST CLOUD","MN",56303,45.5773845090001,-94.182765289,217,"1534 NORTHWAY DR SUITE 202, ST CLOUD, MN, 56303","Match","Exact","1534 NORTHWAY DR, SAINT CLOUD, MN, 56303",107414131,"R"
209718,"1534 PALMSTONE DR","APOPKA","FL",32703,28.6564405830001,-81.496151469,218,"1534 PALMSTONE DR, APOPKA, FL, 32703","Match","Exact","1534 PALMSTONE DR, APOPKA, FL, 32703",94397118,"R"
209719,"1534 PALOLO AVENUE Q","HONOLULU","HI",96816,21.2913445360001,-157.802106922,219,"1534 PALOLO AVENUE Q, HONOLULU, HI, 96816","Match","Exact","1534 PALOLO AVE, HONOLULU, HI, 96816",203263519,"L"
209720,"1534 PARK GROVE DRIVE","LAWRENCEVILLE","GA",30046,33.9543765510001,-84.045208738,220,"1534 PARK GROVE DRIVE, LAWRENCEVILLE, GA, 30046","Match","Exact","1534 PARK GROVE DR, LAWRENCEVILLE, GA, 30046",645858032,"L"
209721,"1534 PINEY WOODS ROAD","MONTICELLO","FL",32344,30.5191693620001,-83.920273819,221,"1534 PINEY WOODS ROAD, MONTICELLO, FL, 32344","Match","Non_Exact","1534 PINNEY WOODS RD, MONTICELLO, FL, 32344",637490647,"R"
209722,"1534 PITNER","EVANSTON","IL",60201,42.0453404530001,-87.7052712989999,222,"1534 PITNER, EVANSTON, IL, 60201","Match","Non_Exact","1534 PITNER AVE, EVANSTON, IL, 60201",111743231,"L"
209723,"1534 PLAZA LANE 113","BURLINGAME","CA",94010,37.594710724,-122.385582809,223,"1534 PLAZA LANE 113, BURLINGAME, CA, 94010","Match","Exact","1534 PLAZA LN, BURLINGAME, CA, 94010",192400052,"L"
209724,"1534 PLUM ST","TERRE HAUTE","IN",47803,39.4858356930001,-87.3924638249999,224,"1534 PLUM ST, TERRE HAUTE, IN, 47803","Match","Non_Exact","1534 PLUM ST, TERRE HAUTE, IN, 47804",606507660,"L"
209725,"1534 QUADRANT AVENUE","LOUISVILLE","KY",40205,38.2292808940001,-85.7118145269999,225,"1534 QUADRANT AVENUE, LOUISVILLE, KY, 40205","Match","Exact","1534 QUADRANT AVE, LOUISVILLE, KY, 40205",96847374,"R"
209726,"1534 RAGEN ST APT 101","MEMPHIS","TN",38116,NA,NA,226,"1534 RAGEN ST APT 101, MEMPHIS, TN, 38116","No_Match",NA,NA,NA,NA
209727,"1534 RIDGEWOOD ROAD","COPLEY","OH",44321,NA,NA,227,"1534 RIDGEWOOD ROAD, COPLEY, OH, 44321","No_Match",NA,NA,NA,NA
209728,"1534 ROANE ST","COVINGTON","TN",38019,35.548908081,-89.6551272679999,228,"1534 ROANE ST, COVINGTON, TN, 38019","Match","Exact","1534 ROANE ST, COVINGTON, TN, 38019",73171627,"L"
209729,"1534 RUAN STREET","PHILADELPHIA","PA",19124,40.010799578,-75.090528924,229,"1534 RUAN STREET, PHILADELPHIA, PA, 19124","Match","Exact","1534 RUAN ST, PHILADELPHIA, PA, 19124",131427782,"R"
209730,"1534 S GREEN RD","SOUTH EUCLID","OH",44121,41.51815365,-81.519422062,230,"1534 S GREEN RD, SOUTH EUCLID, OH, 44121","Match","Exact","1534 S GREEN RD, SOUTH EUCLID, OH, 44121",61125718,"R"
209731,"1534 SAN VICENTE RD","RAMONA","CA",92065,33.021130575,-116.866494745,231,"1534 SAN VICENTE RD, RAMONA, CA, 92065","Match","Exact","1534 SAN VICENTE RD, RAMONA, CA, 92065",195330819,"L"
209732,"1534 SCHARPE","HOUSTON","TX",77023,29.7252563910001,-95.329199704,232,"1534 SCHARPE, HOUSTON, TX, 77023","Match","Non_Exact","1534 SCHARPE ST, HOUSTON, TX, 77023",96081906,"R"
209733,"1534 SE 40TH AVENUE","PORTLAND","OR",97214,45.5115938800001,-122.621202256,233,"1534 SE 40TH AVENUE, PORTLAND, OR, 97214","Match","Exact","1534 SE 40TH AVE, PORTLAND, OR, 97214",653428660,"L"
209734,"1534 SOUTH FRANKLIN AVENUE","FLINT","MI",48503,43.0127969980001,-83.6647912299999,234,"1534 SOUTH FRANKLIN AVENUE, FLINT, MI, 48503","Match","Exact","1534 S FRANKLIN AVE, FLINT, MI, 48503",69606811,"R"
209735,"1534 SPRUCE RD","MELBOURNE","FL",32935,28.114621433,-80.644525941,235,"1534 SPRUCE RD, MELBOURNE, FL, 32935","Match","Exact","1534 SPRUCE RD, MELBOURNE, FL, 32935",93929153,"L"
209736,"1534 SPRUCE ROAD","CLYMER","PA",15728,40.6640598210001,-78.871317532,236,"1534 SPRUCE ROAD, CLYMER, PA, 15728","Match","Exact","1534 SPRUCE RD, CLYMER, PA, 15728",651760993,"R"
209737,"1534 STITZEL RD","ELKO","NV",89801,40.8311753150001,-115.72945928,237,"1534 STITZEL RD, ELKO, NV, 89801","Match","Exact","1534 STITZEL RD, ELKO, NV, 89801",154630606,"R"
209738,"1534 STONELEIGH COURT APT 1032","ARLINGTON","TX",76011,32.76886955,-97.087658988,238,"1534 STONELEIGH COURT APT 1032, ARLINGTON, TX, 76011","Match","Exact","1534 STONELEIGH CT, ARLINGTON, TX, 76011",102138841,"R"
209739,"1534 STROTHCAMP RD","CUBA","MO",65453,38.1664073650001,-91.4546909429999,239,"1534 STROTHCAMP RD, CUBA, MO, 65453","Match","Exact","1534 STROTHCAMP RD, CUBA, MO, 65453",611773214,"R"
209740,"1534 SW 172ND TERRACE APT 407","BEAVERTON","OR",97003,45.5091397690001,-122.853834276,240,"1534 SW 172ND TERRACE APT 407, BEAVERTON, OR, 97003","Match","Non_Exact","1534 SW 172ND TER, BEAVERTON, OR, 97003",641907770,"R"
209741,"1534 SW COLLEGE AVE","TOPEKA","KS",66604,39.0393182930001,-95.7003958719999,241,"1534 SW COLLEGE AVE, TOPEKA, KS, 66604","Match","Exact","1534 SW COLLEGE AVE, TOPEKA, KS, 66604",17887615,"L"
209742,"1534 TAMARACK ST","MISSOULA","MT",59802,46.906959934,-113.958754967,242,"1534 TAMARACK ST, MISSOULA, MT, 59802","Match","Exact","1534 TAMARACK ST, MISSOULA, MT, 59802",205236203,"R"
209743,"1534 THISTLE STREET","RANCHO CUCAMONGA","CA",91701,NA,NA,243,"1534 THISTLE STREET, RANCHO CUCAMONGA, CA, 91701","No_Match",NA,NA,NA,NA
209744,"1534 W 54TH ST","LOS ANGELES","CA",90062,33.993237956,-118.303211906,244,"1534 W 54TH ST, LOS ANGELES, CA, 90062","Match","Exact","1534 W 54TH ST, LOS ANGELES, CA, 90062",652033293,"L"
209745,"1534 W 99TH ST","LOS ANGELES","CA",90047,33.9459345390001,-118.303274758,245,"1534 W 99TH ST, LOS ANGELES, CA, 90047","Match","Exact","1534 W 99TH ST, LOS ANGELES, CA, 90047",141659134,"L"
209746,"1534 W FARGO UNIT 2N","CHICAGO","IL",60626,NA,NA,246,"1534 W FARGO UNIT 2N, CHICAGO, IL, 60626","No_Match",NA,NA,NA,NA
209747,"1534 W ROGERS","MILWAUKEE","WI",53204,43.0083564760001,-87.931834614,247,"1534 W ROGERS, MILWAUKEE, WI, 53204","Match","Non_Exact","1534 W ROGERS ST, MILWAUKEE, WI, 53204",77742196,"R"
209748,"1534 WAGON TRAIN DR SE","ALBUQUERQUE","NM",87123,35.043403835,-106.494325228,248,"1534 WAGON TRAIN DR SE, ALBUQUERQUE, NM, 87123","Match","Exact","1534 WAGON TRAIN DR SE, ALBUQUERQUE, NM, 87123",615117274,"R"
209749,"1534 WAYNE DRIVE","CRETE","IL",60417,41.4380899330001,-87.638990997,249,"1534 WAYNE DRIVE, CRETE, IL, 60417","Match","Exact","1534 WAYNE DR, CRETE, IL, 60417",111630389,"R"
209750,"1534 WEST 15TH AVE","ANCHORAGE","AK",99501,61.207716152,-149.912521375,250,"1534 WEST 15TH AVE, ANCHORAGE, AK, 99501","Match","Exact","1534 W 15TH AVE, ANCHORAGE, AK, 99501",190796780,"L"
209751,"1534 WEST 2250 N RD","BOURBONNAIS","IL",60914,41.1514674740001,-87.904439926,251,"1534 WEST 2250 N RD, BOURBONNAIS, IL, 60914","Match","Non_Exact","1534 W 2250N RD, BOURBONNAIS, IL, 60914",635499947,"L"
209752,"1534 WINFORD RD","BALTIMORE","MD",21239,39.353103033,-76.587959767,252,"1534 WINFORD RD, BALTIMORE, MD, 21239","Match","Exact","1534 WINFORD RD, BALTIMORE, MD, 21239",206465371,"L"
209753,"1534 WITHERSPOON WAY","HOLT","MI",48842,42.626599615,-84.548559466,253,"1534 WITHERSPOON WAY, HOLT, MI, 48842","Match","Exact","1534 WITHERSPOON WAY, HOLT, MI, 48842",626226278,"R"
209754,"1534 WOODLAND DRIVE","PORTAGE","MI",49024,42.211822124,-85.6073468499999,254,"1534 WOODLAND DRIVE, PORTAGE, MI, 49024","Match","Exact","1534 WOODLAND DR, PORTAGE, MI, 49024",12225679,"R"
209755,"1534 YALE AVE","SHREVEPORT","LA",71103,32.496308899,-93.772230838,255,"1534 YALE AVE, SHREVEPORT, LA, 71103","Match","Exact","1534 YALE AVE, SHREVEPORT, LA, 71103",57436072,"R"
209756,"15340 162ND AVE NE","WOODINVILLE","WA",98072,47.739093106,-122.123254456,256,"15340 162ND AVE NE, WOODINVILLE, WA, 98072","Match","Exact","15340 162ND AVE NE, WOODINVILLE, WA, 98072",186601046,"R"
209757,"15340 98TH TRAIL N","JUPITER","FL",33478,26.9032287790001,-80.190374274,257,"15340 98TH TRAIL N, JUPITER, FL, 33478","Match","Exact","15340 98TH TRL N, JUPITER, FL, 33478",115524240,"L"
209758,"15340 BILTMORE","DETROIT","MI",48227,42.4020146070001,-83.210388532,258,"15340 BILTMORE, DETROIT, MI, 48227","Match","Non_Exact","15340 BILTMORE ST, DETROIT, MI, 48227",95423694,"R"
209759,"15340 BLUEFISH CIRCLE","LAKEWOOD RANCH","FL",34202,27.4244654770001,-82.387720029,259,"15340 BLUEFISH CIRCLE, LAKEWOOD RANCH, FL, 34202","Match","Non_Exact","15340 BLUE FISH CIR, LAKEWOOD RCH, FL, 34202",633729756,"L"
209760,"15340 HIGHWAY 46","HEFLIN","AL",36264,33.5634596420001,-85.429036788,260,"15340 HIGHWAY 46, HEFLIN, AL, 36264","Match","Non_Exact","15340 STATE RTE 46, HEFLIN, AL, 36264",30370112,"L"
209761,"15340 HWY 46","HEFLIN","AL",36264,33.5634596420001,-85.429036788,261,"15340 HWY 46, HEFLIN, AL, 36264","Match","Non_Exact","15340 STATE RTE 46, HEFLIN, AL, 36264",30370112,"L"
209762,"15340 JOG RD STE 215","DELRAY BEACH","FL",33446,26.4492033450001,-80.146916957,262,"15340 JOG RD STE 215, DELRAY BEACH, FL, 33446","Match","Exact","15340 JOG RD, DELRAY BEACH, FL, 33446",653197750,"L"
209763,"15340 MOSS STREET","BROOKSVILLE","FL",34604,28.506885595,-82.4716533879999,263,"15340 MOSS STREET, BROOKSVILLE, FL, 34604","Match","Exact","15340 MOSS ST, BROOKSVILLE, FL, 34604",85436264,"R"
209764,"15340 NIGHT HERON","SAN ANTONIO","TX",78253,29.436111699,-98.800107751,264,"15340 NIGHT HERON, SAN ANTONIO, TX, 78253","Match","Exact","15340 NIGHT HERON, SAN ANTONIO, TX, 78253",650612918,"L"
209765,"15340 PENNY AVE","SANDY","OR",97055,45.4126980780001,-122.280230247,265,"15340 PENNY AVE, SANDY, OR, 97055","Match","Exact","15340 PENNY AVE, SANDY, OR, 97055",157989585,"R"
209766,"15340 ROSEMARY BLVD","OAK PARK","MI",48237,42.4649872840001,-83.1986738959999,266,"15340 ROSEMARY BLVD, OAK PARK, MI, 48237","Match","Exact","15340 ROSEMARY BLVD, OAK PARK, MI, 48237",69741165,"R"
209767,"15340 SE YAMHILL ST","PORTLAND","OR",97233,45.515962965,-122.505920415,267,"15340 SE YAMHILL ST, PORTLAND, OR, 97233","Match","Exact","15340 SE YAMHILL ST, PORTLAND, OR, 97233",157549889,"R"
209768,"15341 CARTAGENA COURT","CORPUS CHRISTI","TX",78418,27.6001500890001,-97.243646304,268,"15341 CARTAGENA COURT, CORPUS CHRISTI, TX, 78418","Match","Exact","15341 CARTAGENA CT, CORPUS CHRISTI, TX, 78418",178524692,"L"
209769,"15341 HAYFORD ST","LA MIRADA","CA",90638,33.8890229130001,-118.003809764,269,"15341 HAYFORD ST, LA MIRADA, CA, 90638","Match","Exact","15341 HAYFORD ST, LA MIRADA, CA, 90638",141754837,"L"
209770,"15341 W 83RD TER","LENEXA","KS",66219,38.9767889010001,-94.764392287,270,"15341 W 83RD TER, LENEXA, KS, 66219","Match","Exact","15341 W 83RD TER, LENEXA, KS, 66219",91294803,"L"
209771,"15341","BOSTON","MA",2123,NA,NA,271,"15341, BOSTON, MA, 2123","No_Match",NA,NA,NA,NA
209772,"15342 BAY EAGLE WAY","APPLE VALLEY","MN",55124,NA,NA,272,"15342 BAY EAGLE WAY, APPLE VALLEY, MN, 55124","No_Match",NA,NA,NA,NA
209773,"15342 COURT AMBER TRAIL","CYPRESS","TX",77433,30.005518738,-95.754276325,273,"15342 COURT AMBER TRAIL, CYPRESS, TX, 77433","Match","Exact","15342 COURT AMBER TRL, CYPRESS, TX, 77433",624799400,"R"
209774,"15342 HAWTHORNE BLVD 410","LAWNDALE","CA",90260,33.8917739190001,-118.352355492,274,"15342 HAWTHORNE BLVD 410, LAWNDALE, CA, 90260","Match","Exact","15342 HAWTHORNE BLVD, LAWNDALE, CA, 90260",241243077,"L"
209775,"15342 HAWTHORNE BLVD NO 410","LAWNDALE","CA",90260,33.8917739190001,-118.352355492,275,"15342 HAWTHORNE BLVD NO 410, LAWNDALE, CA, 90260","Match","Non_Exact","15342 HAWTHORNE BLVD, LAWNDALE, CA, 90260",241243077,"L"
209776,"15342 HOTCHKISS VALLEY ROAD","LOUDON","TN",37774,35.7865729420001,-84.345032252,276,"15342 HOTCHKISS VALLEY ROAD, LOUDON, TN, 37774","Match","Non_Exact","15342 HOTCHKISS VALLEY RD E, LOUDON, TN, 37774",611312332,"L"
209777,"15342 OAK MEADOW RD","PENN VALLEY","CA",95946,39.1463197480001,-121.185742219,277,"15342 OAK MEADOW RD, PENN VALLEY, CA, 95946","Match","Exact","15342 OAK MEADOW RD, PENN VALLEY, CA, 95946",106557688,"L"
209778,"15342 W ILIFF AVE","LAKEWOOD","CO",80228,39.6737910030001,-105.172741739,278,"15342 W ILIFF AVE, LAKEWOOD, CO, 80228","Match","Non_Exact","15342 W ILIFF DR, LAKEWOOD, CO, 80228",627329300,"L"
209779,"15342 W TURNEY AVE","GOODYEAR","AZ",85395,33.49876019,-112.387606662,279,"15342 W TURNEY AVE, GOODYEAR, AZ, 85395","Match","Exact","15342 W TURNEY AVE, GOODYEAR, AZ, 85395",243960331,"L"
209780,"15343 39TH AVE N","PLYMOUTH","MN",55446,45.027480316,-93.47432321,280,"15343 39TH AVE N, PLYMOUTH, MN, 55446","Match","Exact","15343 39TH AVE N, PLYMOUTH, MN, 55446",43821869,"R"
209781,"15343 MEADOWLARK DR","GRAND HAVEN","MI",49417,43.039970855,-86.169112223,281,"15343 MEADOWLARK DR, GRAND HAVEN, MI, 49417","Match","Exact","15343 MEADOWLARK DR, GRAND HAVEN, MI, 49417",628674316,"L"
209782,"15343 PLETZER RD SE","TURNER","OR",97392,44.732477976,-122.946705615,282,"15343 PLETZER RD SE, TURNER, OR, 97392","Match","Exact","15343 PLETZER RD SE, TURNER, OR, 97392",156236684,"L"
209783,"15343 WARM SPRINGS AVEUE","MANASSAS","VA",20112,38.620694164,-77.38935778,283,"15343 WARM SPRINGS AVEUE, MANASSAS, VA, 20112","Match","Non_Exact","15343 WARM SPRINGS LN, MANASSAS, VA, 20112",76525816,"R"
209784,"15344 82ND TERRACE NORTH","PALM BEACH GARDENS","FL",33418,26.9016939160001,-80.1635392219999,284,"15344 82ND TERRACE NORTH, PALM BEACH GARDENS, FL, 33418","Match","Exact","15344 82ND TER N, PALM BEACH GARDENS, FL, 33418",115524112,"L"
209785,"15344 DEERING","LIVONIA","MI",48154,42.3993803750001,-83.320175057,285,"15344 DEERING, LIVONIA, MI, 48154","Match","Exact","15344 DEERING, LIVONIA, MI, 48154",95419145,"R"
209786,"153442 HOTCHKISS VALLEY RD EAST","LOUDON","TN",37774,NA,NA,286,"153442 HOTCHKISS VALLEY RD EAST, LOUDON, TN, 37774","No_Match",NA,NA,NA,NA
209787,"15345 GLENHURST","SOUTHGATE","MI",48195,42.2253789440001,-83.2104495199999,287,"15345 GLENHURST, SOUTHGATE, MI, 48195","Match","Exact","15345 GLENHURST, SOUTHGATE, MI, 48195",95698015,"R"
209788,"15345 LAUREL GROVE DRIVE","ALPHARETTA","GA",30004,34.1543345870001,-84.297165781,288,"15345 LAUREL GROVE DRIVE, ALPHARETTA, GA, 30004","Match","Exact","15345 LAUREL GROVE DR, ALPHARETTA, GA, 30004",17365827,"R"
209789,"15345 MAYFIELD RD","HUNTSBURG","OH",44046,41.53470872,-81.094652991,289,"15345 MAYFIELD RD, HUNTSBURG, OH, 44046","Match","Exact","15345 MAYFIELD RD, HUNTSBURG, OH, 44046",137439867,"R"
209790,"15345 N SCOTTSDALE RD APT 4007","SCOTTSDALE","AZ",85254,33.625531881,-111.925594558,290,"15345 N SCOTTSDALE RD APT 4007, SCOTTSDALE, AZ, 85254","Match","Non_Exact","15345 N SCOTTSDALE RD, SCOTTSDALE, AZ, 85254",128915621,"R"
209791,"15345 STINSON DR","GRASS VALLEY","CA",95949,39.1463365650001,-121.057221403,291,"15345 STINSON DR, GRASS VALLEY, CA, 95949","Match","Exact","15345 STINSON DR, GRASS VALLEY, CA, 95949",106536269,"R"
209792,"15345 TEWKESBURY PLACE","UPPER MARLBORO","MD",20774,38.8587328570001,-76.7393425229999,292,"15345 TEWKESBURY PLACE, UPPER MARLBORO, MD, 20774","Match","Exact","15345 TEWKESBURY PL, UPPER MARLBORO, MD, 20774",641486608,"R"
209793,"15345 WOODRUFF PLACE UNIT 8","BELLFLOWER","CA",90706,33.8938310620001,-118.117426448,293,"15345 WOODRUFF PLACE UNIT 8, BELLFLOWER, CA, 90706","Match","Exact","15345 WOODRUFF PL, BELLFLOWER, CA, 90706",142793889,"R"
209794,"15346 S CR 208","BLAIR","OK",73526,NA,NA,294,"15346 S CR 208, BLAIR, OK, 73526","No_Match",NA,NA,NA,NA
209795,"15347 FULLER ROAD","ADAMS CENTER","NY",13606,43.8886750140001,-75.976611087,295,"15347 FULLER ROAD, ADAMS CENTER, NY, 13606","Match","Exact","15347 FULLER RD, ADAMS CENTER, NY, 13606",649963405,"L"
209796,"15347 LEAHY ST","BELLFLOWER","CA",90706,33.8944263120001,-118.124208282,296,"15347 LEAHY ST, BELLFLOWER, CA, 90706","Match","Non_Exact","15347 LEAHY AVE, BELLFLOWER, CA, 90706",141737532,"R"
209797,"15347 SHEFFIED SQUARE PARKWAY","ORLAND PARK","IL",60462,41.6108426700001,-87.87580508,297,"15347 SHEFFIED SQUARE PARKWAY, ORLAND PARK, IL, 60462","Match","Non_Exact","15347 SHEFFIELD SQUARE PKWY, ORLAND PARK, IL, 60462",641695165,"L"
209798,"15347 SUNNYSIDE LN SE","YELM","WA",98597,46.8655596450001,-122.512063325,298,"15347 SUNNYSIDE LN SE, YELM, WA, 98597","Match","Exact","15347 SUNNYSIDE LN SE, YELM, WA, 98597",627464279,"R"
209799,"15347 VIA LA GITANO","POWAY","CA",92064,32.992968153,-117.057351651,299,"15347 VIA LA GITANO, POWAY, CA, 92064","Match","Exact","15347 VIA LA GITANO, POWAY, CA, 92064",195316664,"R"
209800,"15348 E NATIONAL RD","MARSHALL","IL",62441,NA,NA,300,"15348 E NATIONAL RD, MARSHALL, IL, 62441","Tie",NA,NA,NA,NA
209801,"15348 FM 380","MILES","TX",76861,31.4752708020001,-100.184521061,301,"15348 FM 380, MILES, TX, 76861","Match","Exact","15348 FM 380, MILES, TX, 76861",190666652,"R"
209802,"15348 HAMILTON ST","GULFPORT","MS",39503,30.4568631930001,-89.097583847,302,"15348 HAMILTON ST, GULFPORT, MS, 39503","Match","Exact","15348 HAMILTON ST, GULFPORT, MS, 39503",111414504,"L"
209803,"15348 MORBURN","HORIZON","TX",79928,NA,NA,303,"15348 MORBURN, HORIZON, TX, 79928","No_Match",NA,NA,NA,NA
209804,"15348 SANDY CT","SPRING HILL","FL",34610,28.413134843,-82.562049724,304,"15348 SANDY CT, SPRING HILL, FL, 34610","Match","Exact","15348 SANDY CT, SPRING HILL, FL, 34610",86363327,"R"
209805,"15348 W 75TH PLACE","ARVADA","CO",80007,39.8335861800001,-105.172354091,305,"15348 W 75TH PLACE, ARVADA, CO, 80007","Match","Exact","15348 W 75TH PL, ARVADA, CO, 80007",177764833,"R"
209806,"15349 107TH LOOP SE","YELM","WA",98597,46.931225877,-122.615559935,306,"15349 107TH LOOP SE, YELM, WA, 98597","Match","Exact","15349 107TH LOOP SE, YELM, WA, 98597",180973443,"R"
209807,"15349 LORD CULPEPPER COURT","WOODBRIDGE","VA",22191,38.6174458470001,-77.267110977,307,"15349 LORD CULPEPPER COURT, WOODBRIDGE, VA, 22191","Match","Non_Exact","15349 LORD CULPEPER CT, WOODBRIDGE, VA, 22191",609938913,"R"
209808,"15349 MARION AVENUE","DADE CITY","FL",33523,28.38179646,-82.201216852,308,"15349 MARION AVENUE, DADE CITY, FL, 33523","Match","Exact","15349 MARION AVE, DADE CITY, FL, 33523",86334543,"L"
209809,"15349 MARTIN RD NW","QUINCY","WA",98848,47.261823647,-119.817965455,309,"15349 MARTIN RD NW, QUINCY, WA, 98848","Match","Exact","15349 MARTIN RD NW, QUINCY, WA, 98848",157085508,"R"
209810,"15349 STILLFIELD COURT","CENTREVILLE","VA",20120,38.8414579350001,-77.477373255,310,"15349 STILLFIELD COURT, CENTREVILLE, VA, 20120","Match","Exact","15349 STILLFIELD CT, CENTREVILLE, VA, 20120",76018157,"R"
209811,"1534A HWY 19 SOUTH","MERIDIAN","MS",39301,NA,NA,311,"1534A HWY 19 SOUTH, MERIDIAN, MS, 39301","No_Match",NA,NA,NA,NA
209812,"1535 14TH AVE S","SEATTLE","WA",98144,47.589635474,-122.314861514,312,"1535 14TH AVE S, SEATTLE, WA, 98144","Match","Exact","1535 14TH AVE S, SEATTLE, WA, 98144",186593482,"R"
209813,"1535 14TH ST W","HASTINGS","MN",55033,44.733954494,-92.884919854,313,"1535 14TH ST W, HASTINGS, MN, 55033","Match","Exact","1535 14TH ST W, HASTINGS, MN, 55033",635588192,"L"
209814,"1535 2ND STREET","RADFORD","VA",24141,37.1213319,-80.588354013,314,"1535 2ND STREET, RADFORD, VA, 24141","Match","Exact","1535 SECOND ST, RADFORD, VA, 24141",73651448,"L"
209815,"1535 35ST SO","SAINT PETERSBURG","FL",33711,NA,NA,315,"1535 35ST SO, SAINT PETERSBURG, FL, 33711","No_Match",NA,NA,NA,NA
209816,"1535 35TH LOOP","KENNEWICK","WA",99337,46.17718065,-119.140146181,316,"1535 35TH LOOP, KENNEWICK, WA, 99337","Match","Non_Exact","1535 W 35TH LOOP, KENNEWICK, WA, 99337",617529011,"L"
209817,"1535 4TH AVE S","FARGO","ND",58103,46.8708083660001,-96.805084904,317,"1535 4TH AVE S, FARGO, ND, 58103","Match","Exact","1535 4TH AVE S, FARGO, ND, 58103",151447514,"R"
209818,"1535 5TH AVENUE C","SAN RAFAEL","CA",94901,37.9747683350001,-122.534409979,318,"1535 5TH AVENUE C, SAN RAFAEL, CA, 94901","Match","Exact","1535 5TH AVE, SAN RAFAEL, CA, 94901",192764377,"L"
209819,"1535 AIRPORT BOULEVARD","NAPA","CA",94558,NA,NA,319,"1535 AIRPORT BOULEVARD, NAPA, CA, 94558","No_Match",NA,NA,NA,NA
209820,"1535 AMERICANA BLVD APT 12P","ORLANDO","FL",32839,28.4844690140001,-81.40083414,320,"1535 AMERICANA BLVD APT 12P, ORLANDO, FL, 32839","Match","Exact","1535 AMERICANA BLVD, ORLANDO, FL, 32839",611451549,"R"
209821,"1535 ASHBURNHAM DRIVE","CROFTON","MD",21114,39.025719048,-76.67832483,321,"1535 ASHBURNHAM DRIVE, CROFTON, MD, 21114","Match","Exact","1535 ASHBURNHAM DR, CROFTON, MD, 21114",68189494,"R"
209822,"1535 BALDWIN LAKES DR","GROVETOWN","GA",30813,33.501446276,-82.172236702,322,"1535 BALDWIN LAKES DR, GROVETOWN, GA, 30813","Match","Exact","1535 BALDWIN LAKES DR, GROVETOWN, GA, 30813",638510967,"R"
209823,"1535 BATTERS BOX DR","OFALLON","MO",63366,38.8285298690001,-90.683331419,323,"1535 BATTERS BOX DR, OFALLON, MO, 63366","Match","Non_Exact","1535 BATTERS BOX DR, O FALLON, MO, 63366",605523827,"R"
209824,"1535 BELLEVUE AVE","SEATTLE","WA",98122,47.614502245,-122.326820947,324,"1535 BELLEVUE AVE, SEATTLE, WA, 98122","Match","Exact","1535 BELLEVUE AVE, SEATTLE, WA, 98122",186589792,"L"
209825,"1535 BERRY RD","HOMEWOOD","AL",35226,33.441976728,-86.819820599,325,"1535 BERRY RD, HOMEWOOD, AL, 35226","Match","Non_Exact","1535 BERRY RD, HOOVER, AL, 35226",81616314,"R"
209826,"1535 BLAKELY ROAD","EAST AURORA","NY",14052,42.726694276,-78.62176364,326,"1535 BLAKELY ROAD, EAST AURORA, NY, 14052","Match","Non_Exact","1535 BLAKELEY RD, EAST AURORA, NY, 14052",48343486,"R"
209827,"1535 BOULEVARD WAY","WALNUT CREEK","CA",94595,37.886537038,-122.078243709,327,"1535 BOULEVARD WAY, WALNUT CREEK, CA, 94595","Match","Exact","1535 BOULEVARD WAY, WALNUT CREEK, CA, 94595",192052402,"R"
209828,"1535 BREAKWATER TER","HOLLYWOOD","FL",33019,25.998429118,-80.1272190669999,328,"1535 BREAKWATER TER, HOLLYWOOD, FL, 33019","Match","Exact","1535 BREAKWATER TER, HOLLYWOOD, FL, 33019",114816529,"L"
209829,"1535 BROADWAY","DETROIT","MI",48226,42.33605113,-83.0487203879999,329,"1535 BROADWAY, DETROIT, MI, 48226","Match","Non_Exact","1535 BROADWAY ST, DETROIT, MI, 48226",95479912,"L"
209830,"1535 BROCKTON LANE SOUTH","MOBILE","AL",36695,30.658891694,-88.2164235979999,330,"1535 BROCKTON LANE SOUTH, MOBILE, AL, 36695","Match","Exact","1535 BROCKTON LN S, MOBILE, AL, 36695",61945656,"R"
209831,"1535 BROWN AVE","WHITING","IN",46394,41.6856922000001,-87.5098596079999,331,"1535 BROWN AVE, WHITING, IN, 46394","Match","Exact","1535 BROWN AVE, WHITING, IN, 46394",98415798,"L"
209832,"1535 CABANISS LANE","WEATHERFORD","TX",76088,32.8278363380001,-97.910191131,332,"1535 CABANISS LANE, WEATHERFORD, TX, 76088","Match","Exact","1535 CABANISS LN, WEATHERFORD, TX, 76088",635378006,"L"
209833,"1535 CANDACE LANE","YARDLEY","PA",19067,40.2225994070001,-74.864408258,333,"1535 CANDACE LANE, YARDLEY, PA, 19067","Match","Exact","1535 CANDACE LN, YARDLEY, PA, 19067",624201517,"L"
209834,"1535 CANDLEWOOD DRIVE","REDDING","CA",96003,40.585158742,-122.325551703,334,"1535 CANDLEWOOD DRIVE, REDDING, CA, 96003","Match","Exact","1535 CANDLEWOOD DR, REDDING, CA, 96003",126668074,"L"
209835,"1535 CARALEIGH MILLS CT 215","RALEIGH","NC",27603,35.75921558,-78.652593146,335,"1535 CARALEIGH MILLS CT 215, RALEIGH, NC, 27603","Match","Exact","1535 CARALEIGH MILLS CT, RALEIGH, NC, 27603",612821505,"L"
209836,"1535 CARALEIGH MILLS CT APT 140","RALEIGH","NC",27603,35.75921558,-78.652593146,336,"1535 CARALEIGH MILLS CT APT 140, RALEIGH, NC, 27603","Match","Exact","1535 CARALEIGH MILLS CT, RALEIGH, NC, 27603",612821505,"L"
209837,"1535 CARALEIGH MILLS CT UNIT 109","RALEIGH","NC",27603,35.75921558,-78.652593146,337,"1535 CARALEIGH MILLS CT UNIT 109, RALEIGH, NC, 27603","Match","Exact","1535 CARALEIGH MILLS CT, RALEIGH, NC, 27603",612821505,"L"
209838,"1535 CARAVAN TRL","DALLAS","TX",75241,32.6759374110001,-96.7987109599999,338,"1535 CARAVAN TRL, DALLAS, TX, 75241","Match","Exact","1535 CARAVAN TRL, DALLAS, TX, 75241",102951887,"L"
209839,"1535 CEDAR DR","CASSVILLE","MO",65625,36.68626814,-93.856359047,339,"1535 CEDAR DR, CASSVILLE, MO, 65625","Match","Exact","1535 CEDAR DR, CASSVILLE, MO, 65625",624399711,"L"
209840,"1535 CEDAR GROVE ROAD","FEURA BUSH","NY",12067,42.55194493,-73.919337844,340,"1535 CEDAR GROVE ROAD, FEURA BUSH, NY, 12067","Match","Exact","1535 CEDAR GROVE RD, FEURA BUSH, NY, 12067",18321653,"L"
209841,"1535 COATSWORTH LANE","ROCKHILL","SC",29732,34.9385091410001,-81.0680739109999,341,"1535 COATSWORTH LANE, ROCKHILL, SC, 29732","Match","Non_Exact","1535 COATSWORTH LN, ROCK HILL, SC, 29732",19833992,"L"
209842,"1535 COLLEGE AVE","PALO ALTO","CA",94306,37.41849617,-122.153966815,342,"1535 COLLEGE AVE, PALO ALTO, CA, 94306","Match","Exact","1535 COLLEGE AVE, PALO ALTO, CA, 94306",122951765,"L"
209843,"1535 COVERED BRIDGE DIVE","DELAND","FL",32724,28.9875080360001,-81.2768325439999,343,"1535 COVERED BRIDGE DIVE, DELAND, FL, 32724","Match","Non_Exact","1535 COVERED BRIDGE DR, DELAND, FL, 32724",94543339,"R"
209844,"1535 CRAIG PLACE","SAN PEDRO","CA",90732,33.7405901610001,-118.312023142,344,"1535 CRAIG PLACE, SAN PEDRO, CA, 90732","Match","Exact","1535 CRAIG PL, SAN PEDRO, CA, 90732",141689977,"L"
209845,"1535 CRESCENT PLACE","SAN MARCOS","CA",92078,33.10040236,-117.20723647,345,"1535 CRESCENT PLACE, SAN MARCOS, CA, 92078","Match","Non_Exact","1535 CRESCENT, SAN MARCOS, CA, 92078",195762867,"L"
209846,"1535 CUNARD ROAD","COLUMBUS","OH",43227,39.940906898,-82.901269101,346,"1535 CUNARD ROAD, COLUMBUS, OH, 43227","Match","Exact","1535 CUNARD RD, COLUMBUS, OH, 43227",218678777,"R"
209847,"1535 CURRY RD","SEGUIN","TX",78155,29.393439234,-98.00103587,347,"1535 CURRY RD, SEGUIN, TX, 78155","Match","Exact","1535 CURRY RD, SEGUIN, TX, 78155",54852968,"L"
209848,"1535 DARK RIDGE ROAD","ELK PARK","NC",28622,36.2172257,-81.9400332659999,348,"1535 DARK RIDGE ROAD, ELK PARK, NC, 28622","Match","Exact","1535 DARK RIDGE RD, ELK PARK, NC, 28622",36766163,"L"
209849,"1535 DELLSWAY RD","TOWSON","MD",21286,39.394238692,-76.572268505,349,"1535 DELLSWAY RD, TOWSON, MD, 21286","Match","Exact","1535 DELLSWAY RD, TOWSON, MD, 21286",191540375,"R"
209850,"1535 DELLSWAY ROAD","TOWSON","MD",21286,39.394238692,-76.572268505,350,"1535 DELLSWAY ROAD, TOWSON, MD, 21286","Match","Exact","1535 DELLSWAY RD, TOWSON, MD, 21286",191540375,"R"
209851,"1535 DONALD AARON","SAN ANTONIO","TX",78221,29.2318038550001,-98.471344777,351,"1535 DONALD AARON, SAN ANTONIO, TX, 78221","Match","Non_Exact","1535 DONALD AARON ST, SAN ANTONIO, TX, 78221",101486027,"R"
209852,"1535 DRY CREEK ROAD NW","GRANVILLE","OH",43023,40.119456948,-82.526335122,352,"1535 DRY CREEK ROAD NW, GRANVILLE, OH, 43023","Match","Exact","1535 DRY CREEK RD NW, GRANVILLE, OH, 43023",61512220,"R"
209853,"1535 E 60TH ST","TULSA","OK",74105,36.077023479,-95.970337934,353,"1535 E 60TH ST, TULSA, OK, 74105","Match","Exact","1535 E 60TH ST, TULSA, OK, 74105",166444264,"L"
209854,"1535 E APOLLO RD","PHOENIX","AZ",85042,33.386298745,-112.049060367,354,"1535 E APOLLO RD, PHOENIX, AZ, 85042","Match","Exact","1535 E APOLLO RD, PHOENIX, AZ, 85042",624690360,"L"
209855,"1535 E ARTEMIS TRAIL","SAN TAN VALLEY","AZ",85140,33.2176102620001,-111.549130661,355,"1535 E ARTEMIS TRAIL, SAN TAN VALLEY, AZ, 85140","Match","Exact","1535 E ARTEMIS TRL, SAN TAN VALLEY, AZ, 85140",625175160,"L"
209856,"1535 E HORSESHOE AVE","GILBERT","AZ",85296,33.345855204,-111.757160398,356,"1535 E HORSESHOE AVE, GILBERT, AZ, 85296","Match","Exact","1535 E HORSESHOE AVE, GILBERT, AZ, 85296",128783459,"R"
209857,"1535 E KILDARE ST","LANCASTER","CA",93535,34.699788939,-118.102851406,357,"1535 E KILDARE ST, LANCASTER, CA, 93535","Match","Exact","1535 E KILDARE ST, LANCASTER, CA, 93535",141797882,"R"
209858,"1535 E NEW YORK AVE","DELAND","FL",32724,29.0278145620001,-81.271141013,358,"1535 E NEW YORK AVE, DELAND, FL, 32724","Match","Exact","1535 E NEW YORK AVE, DELAND, FL, 32724",94510760,"R"
209859,"1535 E STATE ST","ROCKFORD","IL",61104,42.266946121,-89.071019424,359,"1535 E STATE ST, ROCKFORD, IL, 61104","Match","Exact","1535 E STATE ST, ROCKFORD, IL, 61104",652588025,"R"
209860,"1535 EAST 13TH STREET","DES MOINES","IA",50316,41.6067688150001,-93.603320465,360,"1535 EAST 13TH STREET, DES MOINES, IA, 50316","Match","Exact","1535 E 13TH ST, DES MOINES, IA, 50316",65783608,"R"
209861,"1535 EAST 17TH STREET APT 6R","BROOKLYN","NY",11230,40.6123791970001,-73.95702755,361,"1535 EAST 17TH STREET APT 6R, BROOKLYN, NY, 11230","Match","Exact","1535 E 17TH ST, BROOKLYN, NY, 11230",59090059,"L"
209862,"1535 EAST 3970 SOUTH","SALT LAKE CITY","UT",84124,40.6854109380001,-111.847482925,362,"1535 EAST 3970 SOUTH, SALT LAKE CITY, UT, 84124","Match","Exact","1535 E 3970 S, SALT LAKE CITY, UT, 84124",624932552,"L"
209863,"1535 EAST 74TH STREET","CHICAGO","IL",60619,41.760572569,-87.587551261,363,"1535 EAST 74TH STREET, CHICAGO, IL, 60619","Match","Exact","1535 E 74TH ST, CHICAGO, IL, 60619",605555203,"R"
209864,"1535 EAST COBB AVE","SAPULPA","OK",74066,36.01025717,-96.088570098,364,"1535 EAST COBB AVE, SAPULPA, OK, 74066","Match","Exact","1535 E COBB AVE, SAPULPA, OK, 74066",165865621,"L"
209865,"1535 EAST HELLMAN APT 9","LONG BEACH","CA",90813,33.776251202,-118.172803689,365,"1535 EAST HELLMAN APT 9, LONG BEACH, CA, 90813","Match","Non_Exact","1535 E HELLMAN ST, LONG BEACH, CA, 90813",141694977,"L"
209866,"1535 EAST IRENE DRIVE","CASA GRANDE","AZ",85122,32.8989855230001,-111.721205249,366,"1535 EAST IRENE DRIVE, CASA GRANDE, AZ, 85122","Match","Exact","1535 E IRENE DR, CASA GRANDE, AZ, 85122",129252005,"R"
209867,"1535 EASY RIDER LANE","BOULDER","CO",80303,40.060530607,-105.278558878,367,"1535 EASY RIDER LANE, BOULDER, CO, 80303","Match","Non_Exact","1535 EASY RIDER LN, BOULDER, CO, 80304",648159692,"R"
209868,"1535 EASY RIDER LN UNIT 201","BOULDER","CO",80304,40.060530607,-105.278558878,368,"1535 EASY RIDER LN UNIT 201, BOULDER, CO, 80304","Match","Exact","1535 EASY RIDER LN, BOULDER, CO, 80304",648159692,"R"
209869,"1535 EDDY STREET 315","SOMERVILLE","MA",2143,NA,NA,369,"1535 EDDY STREET 315, SOMERVILLE, MA, 2143","No_Match",NA,NA,NA,NA
209870,"1535 EDEN ISLE BLVD NE -167","ST PETERSBURG","FL",33704,27.8044446060001,-82.6143538429999,370,"1535 EDEN ISLE BLVD NE -167, ST PETERSBURG, FL, 33704","Match","Exact","1535 EDEN ISLE BLVD NE, SAINT PETERSBURG, FL, 33704",124775473,"R"
209871,"1535 ELMWOOD AVENUE","FOLCROFT","PA",19032,39.9001480040001,-75.278021598,371,"1535 ELMWOOD AVENUE, FOLCROFT, PA, 19032","Match","Exact","1535 ELMWOOD AVE, FOLCROFT, PA, 19032",134885134,"L"
209872,"1535 ETON WAY","CROFTON","MD",21114,39.0065683820001,-76.6847531769999,372,"1535 ETON WAY, CROFTON, MD, 21114","Match","Exact","1535 ETON WAY, CROFTON, MD, 21114",68162339,"L"
209873,"1535 EXETER AVE","DALLAS","TX",75216,32.695006603,-96.802062118,373,"1535 EXETER AVE, DALLAS, TX, 75216","Match","Exact","1535 EXETER AVE, DALLAS, TX, 75216",102951462,"L"
209874,"1535 FARMERS LANE 129","SANTA ROSA","CA",95405,38.4335969430001,-122.688439639,374,"1535 FARMERS LANE 129, SANTA ROSA, CA, 95405","Match","Exact","1535 FARMERS LN, SANTA ROSA, CA, 95405",67470951,"R"
209875,"1535 FARMERS LANE 343","SANTA ROSA","CA",94505,38.4335969430001,-122.688439639,375,"1535 FARMERS LANE 343, SANTA ROSA, CA, 94505","Match","Non_Exact","1535 FARMERS LN, SANTA ROSA, CA, 95405",67470951,"R"
209876,"1535 FARMERS LANE NBR 264","SANTA ROSA","CA",95403,38.4335969430001,-122.688439639,376,"1535 FARMERS LANE NBR 264, SANTA ROSA, CA, 95403","Match","Non_Exact","1535 FARMERS LN, SANTA ROSA, CA, 95405",67470951,"R"
209877,"1535 FARMERS LANE NBR 264","SANTA ROSA","CA",95405,38.4335969430001,-122.688439639,377,"1535 FARMERS LANE NBR 264, SANTA ROSA, CA, 95405","Match","Exact","1535 FARMERS LN, SANTA ROSA, CA, 95405",67470951,"R"
209878,"1535 FELIZ LANE SW","ALBUQUERQUE","NM",87108,35.064109719,-106.67639973,378,"1535 FELIZ LANE SW, ALBUQUERQUE, NM, 87108","Match","Non_Exact","1535 FELIZ LN SW, ALBUQUERQUE, NM, 87105",206707084,"R"
209879,"1535 FISCHER AVE","MCKINLEYVILLE","CA",95519,40.9323638600001,-124.120149893,379,"1535 FISCHER AVE, MCKINLEYVILLE, CA, 95519","Match","Exact","1535 FISCHER AVE, MCKINLEYVILLE, CA, 95519",113045505,"R"
209880,"1535 FM 499","CUMBY","TX",75433,33.1373890680001,-95.825966385,380,"1535 FM 499, CUMBY, TX, 75433","Match","Exact","1535 FM 499, CUMBY, TX, 75433",42791183,"L"
209881,"1535 FM 667","PURDON","TX",76679,31.9828814540001,-96.700539802,381,"1535 FM 667, PURDON, TX, 76679","Match","Exact","1535 FM 667, PURDON, TX, 76679",183909970,"L"
209882,"1535 FONTANA DR","ST LOUIS","MO",63146,38.6887430900001,-90.457630501,382,"1535 FONTANA DR, ST LOUIS, MO, 63146","Match","Exact","1535 FONTANA DR, SAINT LOUIS, MO, 63146",100124227,"L"
209883,"1535 FOREST AVE","BALDWIN","NY",11510,40.6733526030001,-73.6020795219999,383,"1535 FOREST AVE, BALDWIN, NY, 11510","Match","Exact","1535 FOREST AVE, BALDWIN, NY, 11510",147629996,"L"
209884,"1535 FOREST AVE","RIVER FOREST","IL",60305,41.9075021720001,-87.821985661,384,"1535 FOREST AVE, RIVER FOREST, IL, 60305","Match","Exact","1535 FOREST AVE, RIVER FOREST, IL, 60305",111748941,"R"
209885,"1535 FRANCISCO STREET","SAN FRANCISCO","CA",94123,37.8025037470001,-122.430462096,385,"1535 FRANCISCO STREET, SAN FRANCISCO, CA, 94123","Match","Exact","1535 FRANCISCO ST, SAN FRANCISCO, CA, 94123",192279822,"L"
209886,"1535 FRANKLIN ST UNIT 4M","DENVER","CO",80218,39.7406164280001,-104.96846076,386,"1535 FRANKLIN ST UNIT 4M, DENVER, CO, 80218","Match","Exact","1535 FRANKLIN ST, DENVER, CO, 80218",177306100,"L"
209887,"1535 FRANKLIN ST UNIT 7K","DENVER","CO",80218,39.7406164280001,-104.96846076,387,"1535 FRANKLIN ST UNIT 7K, DENVER, CO, 80218","Match","Exact","1535 FRANKLIN ST, DENVER, CO, 80218",177306100,"L"
209888,"1535 FRANKLIN ST UNIT 8B","DENVER","CO",80218,39.7406164280001,-104.96846076,388,"1535 FRANKLIN ST UNIT 8B, DENVER, CO, 80218","Match","Exact","1535 FRANKLIN ST, DENVER, CO, 80218",177306100,"L"
209889,"1535 FRANKLIN ST UNIT 8E","DENVER","CO",80218,39.7406164280001,-104.96846076,389,"1535 FRANKLIN ST UNIT 8E, DENVER, CO, 80218","Match","Exact","1535 FRANKLIN ST, DENVER, CO, 80218",177306100,"L"
209890,"1535 FRANKLIN ST UNIT 9G","DENVER","CO",80218,39.7406164280001,-104.96846076,390,"1535 FRANKLIN ST UNIT 9G, DENVER, CO, 80218","Match","Exact","1535 FRANKLIN ST, DENVER, CO, 80218",177306100,"L"
209891,"1535 FRENCHMANS BEND RD","MONROE","LA",71203,32.640980665,-92.044292323,391,"1535 FRENCHMANS BEND RD, MONROE, LA, 71203","Match","Exact","1535 FRENCHMANS BEND RD, MONROE, LA, 71203",649807721,"L"
209892,"1535 GALEN ST SE","WASHINGTON","DC",20020,38.8628521050001,-76.9830849969999,392,"1535 GALEN ST SE, WASHINGTON, DC, 20020","Match","Exact","1535 GALEN ST SE, WASHINGTON, DC, 20020",76234893,"R"
209893,"1535 GALLERIA COURT DRIVE APT 113","CHARLOTTE","NC",28270,35.135793763,-80.736177222,393,"1535 GALLERIA COURT DRIVE APT 113, CHARLOTTE, NC, 28270","Match","Exact","1535 GALLERIA COURT DR, CHARLOTTE, NC, 28270",618156751,"L"
209894,"1535 GANTS CIRCLE","KISSIMMEE","FL",34744,28.264487058,-81.377455185,394,"1535 GANTS CIRCLE, KISSIMMEE, FL, 34744","Match","Exact","1535 GANTS CIR, KISSIMMEE, FL, 34744",176695086,"L"
209895,"1535 GARRISONVILLE ROAD","STAFFORD","VA",22556,38.489185757,-77.490574328,395,"1535 GARRISONVILLE ROAD, STAFFORD, VA, 22556","Match","Exact","1535 GARRISONVILLE RD, STAFFORD, VA, 22556",647886641,"L"
209896,"1535 GREENSMARK DR","HOUSTON","TX",77067,29.942862952,-95.446677544,396,"1535 GREENSMARK DR, HOUSTON, TX, 77067","Match","Exact","1535 GREENSMARK DR, HOUSTON, TX, 77067",96656071,"R"
209897,"1535 GREENSMARK DRIVE","HOUSTON","TX",77067,29.942862952,-95.446677544,397,"1535 GREENSMARK DRIVE, HOUSTON, TX, 77067","Match","Exact","1535 GREENSMARK DR, HOUSTON, TX, 77067",96656071,"R"
209898,"1535 HAZELWOOD AVENUE","LOS ANGELES","CA",90041,34.1239284550001,-118.214695152,398,"1535 HAZELWOOD AVENUE, LOS ANGELES, CA, 90041","Match","Exact","1535 HAZELWOOD AVE, LOS ANGELES, CA, 90041",634248367,"L"
209899,"1535 HILLSIDE OAK DR","GRAYSON","GA",30017,33.8995319790001,-83.9850578859999,399,"1535 HILLSIDE OAK DR, GRAYSON, GA, 30017","Match","Non_Exact","1535 HILLSIDE OAK DR SW, GRAYSON, GA, 30017",88917786,"R"
209900,"1535 HURLEY AVENUE","CINCINNATI","OH",45237,39.1932497990001,-84.462553768,400,"1535 HURLEY AVENUE, CINCINNATI, OH, 45237","Match","Exact","1535 HURLEY AVE, CINCINNATI, OH, 45237",103928698,"L"
209901,"1535 J D BUCHANAN RD","HANSON","KY",42413,37.395349996,-87.525156137,401,"1535 J D BUCHANAN RD, HANSON, KY, 42413","Match","Non_Exact","1535 JD BUCHANAN RD, HANSON, KY, 42413",11524686,"L"
209902,"1535 JACKS CANYON ROAD","SEDONA","AZ",86351,34.7838527120001,-111.737147942,402,"1535 JACKS CANYON ROAD, SEDONA, AZ, 86351","Match","Exact","1535 JACKS CANYON RD, SEDONA, AZ, 86351",635507167,"L"
209903,"1535 JAMESTOWN DR","CUPERTINO","CA",95014,37.296077842,-122.034229949,403,"1535 JAMESTOWN DR, CUPERTINO, CA, 95014","Match","Non_Exact","1535 JAMES TOWN DR, CUPERTINO, CA, 95014",122940891,"R"
209904,"1535 JEAROLDSTOWN ROAD","CHUCKEY","TN",37641,36.3641405320001,-82.697728259,404,"1535 JEAROLDSTOWN ROAD, CHUCKEY, TN, 37641","Match","Exact","1535 JEAROLDSTOWN RD, CHUCKEY, TN, 37641",635863105,"L"
209905,"1535 JEFFERSON ST BIN 42","PHOENIX","AZ",85007,33.4470504880001,-112.092215082,405,"1535 JEFFERSON ST BIN 42, PHOENIX, AZ, 85007","Match","Non_Exact","1535 W JEFFERSON ST, PHOENIX, AZ, 85007",128211623,"L"
209906,"1535 JOHNSON ST","HOLLYWOOD","FL",33020,26.0190775360001,-80.138018758,406,"1535 JOHNSON ST, HOLLYWOOD, FL, 33020","Match","Exact","1535 JOHNSON ST, HOLLYWOOD, FL, 33020",114730817,"R"
209907,"1535 KERN ST","FRESNO","CA",93706,36.729942484,-119.79320211,407,"1535 KERN ST, FRESNO, CA, 93706","Match","Exact","1535 KERN ST, FRESNO, CA, 93706",197579679,"L"
209908,"1535 LABURNUM","CHICO",NA,NA,39.743800062,-121.845788978,408,"1535 LABURNUM, CHICO, , ","Match","Non_Exact","1535 LABURNUM AVE, CHICO, CA, 95926",640586096,"L"
209909,"1535 LAKE BLAINE RD","KALISPELL","MT",59901,48.234745054,-114.10693422,409,"1535 LAKE BLAINE RD, KALISPELL, MT, 59901","Match","Exact","1535 LAKE BLAINE RD, KALISPELL, MT, 59901",204108997,"L"
209910,"1535 LANDISBURG RD","LANDISBURG","PA",17040,40.3460533790001,-77.2743769739999,410,"1535 LANDISBURG RD, LANDISBURG, PA, 17040","Match","Exact","1535 LANDISBURG RD, LANDISBURG, PA, 17040",61068249,"R"
209911,"1535 LARCHMONT RD","CLEVELAND","OH",44110,41.5655119670001,-81.551534803,411,"1535 LARCHMONT RD, CLEVELAND, OH, 44110","Match","Exact","1535 LARCHMONT RD, CLEVELAND, OH, 44110",61123742,"L"
209912,"1535 LEXI LANE","EUREKA","CA",95503,40.7617036730001,-124.153865366,412,"1535 LEXI LANE, EUREKA, CA, 95503","Match","Exact","1535 LEXI LN, EUREKA, CA, 95503",631765419,"R"
209913,"1535 LEXINGTON","WINFIELD","IA",52659,41.0881040250001,-91.5055687879999,413,"1535 LEXINGTON, WINFIELD, IA, 52659","Match","Non_Exact","1535 LEXINGTON AVE, WINFIELD, IA, 52659",16096657,"L"
209914,"1535 LONGEATON DR","COLUMBUS","OH",43220,40.050722502,-83.061026617,414,"1535 LONGEATON DR, COLUMBUS, OH, 43220","Match","Exact","1535 LONGEATON DR, COLUMBUS, OH, 43220",218656580,"L"
209915,"1535 MADDUX AVE","MODESTO","CA",95358,37.6582142560001,-121.039113368,415,"1535 MADDUX AVE, MODESTO, CA, 95358","Match","Exact","1535 MADDUX AVE, MODESTO, CA, 95358",102602288,"L"
209916,"1535 MANDEVILLE ST","NEW ORLEANS","LA",70117,29.9731233160001,-90.054730948,416,"1535 MANDEVILLE ST, NEW ORLEANS, LA, 70117","Match","Exact","1535 MANDEVILLE ST, NEW ORLEANS, LA, 70117",191716438,"R"
209917,"1535 MISSION ST","SAN FRANCISCO","CA",94103,37.7737556650001,-122.417730101,417,"1535 MISSION ST, SAN FRANCISCO, CA, 94103","Match","Exact","1535 MISSION ST, SAN FRANCISCO, CA, 94103",192287228,"L"
209918,"1535 MISSION STREET","SAN FRANCISCO","CA",94103,37.7737556650001,-122.417730101,418,"1535 MISSION STREET, SAN FRANCISCO, CA, 94103","Match","Exact","1535 MISSION ST, SAN FRANCISCO, CA, 94103",192287228,"L"
209919,"1535 MOORE ROAD","STAFFORD","TX",77477,29.5962797870001,-95.548769194,419,"1535 MOORE ROAD, STAFFORD, TX, 77477","Match","Exact","1535 MOORE RD, STAFFORD, TX, 77477",636889680,"R"
209920,"1535 MORGAN ST","WOOSTER","OH",44691,40.816523955,-81.947676846,420,"1535 MORGAN ST, WOOSTER, OH, 44691","Match","Exact","1535 MORGAN ST, WOOSTER, OH, 44691",58721612,"R"
209921,"1535 MOUNTAIN SHADOW TRAIL","STONE MOUNTAIN","GA",30087,33.828170583,-84.172745068,421,"1535 MOUNTAIN SHADOW TRAIL, STONE MOUNTAIN, GA, 30087","Match","Exact","1535 MOUNTAIN SHADOW TRL, STONE MOUNTAIN, GA, 30087",23411722,"L"
209922,"1535 N BROADWAY","ESCONDIDO","CA",92026,33.144006459,-117.090178758,422,"1535 N BROADWAY, ESCONDIDO, CA, 92026","Match","Exact","1535 N BROADWAY, ESCONDIDO, CA, 92026",195312310,"L"
209923,"1535 N ELM STREET","PLATTEVILLE","WI",53818,42.747460806,-90.479994829,423,"1535 N ELM STREET, PLATTEVILLE, WI, 53818","Match","Exact","1535 N ELM ST, PLATTEVILLE, WI, 53818",32764372,"R"
209924,"1535 N GREENFIELD RD","GILBERT","AZ",85234,33.377615172,-111.739575229,424,"1535 N GREENFIELD RD, GILBERT, AZ, 85234","Match","Exact","1535 N GREENFIELD RD, GILBERT, AZ, 85234",640590619,"L"
209925,"1535 N ILLINOIS","WICHITA","KS",67203,37.712112313,-97.388547914,425,"1535 N ILLINOIS, WICHITA, KS, 67203","Match","Non_Exact","1535 N ILLINOIS ST, WICHITA, KS, 67203",115630491,"L"
209926,"1535 N SCOTTSDALE RD  2077","TEMPE","AZ",85281,33.446826463,-111.926435692,426,"1535 N SCOTTSDALE RD  2077, TEMPE, AZ, 85281","Match","Non_Exact","1535 N SCOTTSDALE RD, TEMPE, AZ, 85281",128226089,"R"
209927,"1535 N SCOTTSDALE ROAD","TEMPE","AZ",85281,33.446826463,-111.926435692,427,"1535 N SCOTTSDALE ROAD, TEMPE, AZ, 85281","Match","Exact","1535 N SCOTTSDALE RD, TEMPE, AZ, 85281",128226089,"R"
209928,"1535 NE 171ST ST","N MIAMI BEACH","FL",33162,25.933071129,-80.169570484,428,"1535 NE 171ST ST, N MIAMI BEACH, FL, 33162","Match","Exact","1535 NE 171ST ST, N MIAMI BEACH, FL, 33162",116035957,"L"
209929,"1535 NE 54TH AVENUE","PORTLAND","OR",97213,45.5340331790001,-122.607888196,429,"1535 NE 54TH AVENUE, PORTLAND, OR, 97213","Match","Exact","1535 NE 54TH AVE, PORTLAND, OR, 97213",157512135,"L"
209930,"1535 NORTH 28TH STREET","MILWAUKEE","WI",53208,43.0505619470001,-87.948831775,430,"1535 NORTH 28TH STREET, MILWAUKEE, WI, 53208","Match","Exact","1535 N 28TH ST, MILWAUKEE, WI, 53208",77739889,"L"
209931,"1535 OAK FOREST DRIVE","ORMOND BEACH","FL",32174,29.3250199410001,-81.074588574,431,"1535 OAK FOREST DRIVE, ORMOND BEACH, FL, 32174","Match","Exact","1535 OAK FOREST DR, ORMOND BEACH, FL, 32174",94553335,"R"
209932,"1535 OWEN WAY","WAXAHACHIE","TX",75165,NA,NA,432,"1535 OWEN WAY, WAXAHACHIE, TX, 75165","No_Match",NA,NA,NA,NA
209933,"1535 PALISADE BLVD","DUPONT","WA",98327,47.0956264880001,-122.638854502,433,"1535 PALISADE BLVD, DUPONT, WA, 98327","Match","Exact","1535 PALISADE BLVD, DUPONT, WA, 98327",184693501,"L"
209934,"1535 PALMER DRIVE APARTMENT 410","LARAMIE","WY",82070,41.3006209750001,-105.577806059,434,"1535 PALMER DRIVE APARTMENT 410, LARAMIE, WY, 82070","Match","Exact","1535 PALMER DR, LARAMIE, WY, 82070",168740741,"L"
209935,"1535 PARK TER SW","ALBANY","OR",97321,44.6244502060001,-123.120883552,435,"1535 PARK TER SW, ALBANY, OR, 97321","Match","Exact","1535 PARK TER SW, ALBANY, OR, 97321",156073383,"R"
209936,"1535 PINHOOK DRIVE","SAVANNAH","TN",38372,35.216136497,-88.219048556,436,"1535 PINHOOK DRIVE, SAVANNAH, TN, 38372","Match","Exact","1535 PINHOOK DR, SAVANNAH, TN, 38372",649876005,"L"
209937,"1535 PLATT SPRINGS RD UNIT 5235","WEST COLUMBIA","SC",29171,33.9788056420001,-81.079449574,437,"1535 PLATT SPRINGS RD UNIT 5235, WEST COLUMBIA, SC, 29171","Match","Non_Exact","1535 PLATT SPRINGS RD, WEST COLUMBIA, SC, 29169",70062679,"L"
209938,"1535 PLATT SPRINGS RD UNIT 7108","WEST COLUMBIA","SC",29171,33.9788056420001,-81.079449574,438,"1535 PLATT SPRINGS RD UNIT 7108, WEST COLUMBIA, SC, 29171","Match","Non_Exact","1535 PLATT SPRINGS RD, WEST COLUMBIA, SC, 29169",70062679,"L"
209939,"1535 PRESSBURG STREET","NEW ORLEANS","LA",70122,30.017528315,-90.076487675,439,"1535 PRESSBURG STREET, NEW ORLEANS, LA, 70122","Match","Exact","1535 PRESSBURG ST, NEW ORLEANS, LA, 70122",191703526,"L"
209940,"1535 PUNAHOU ST PH-A","HONOLULU","HI",96822,21.3022636900001,-157.832960562,440,"1535 PUNAHOU ST PH-A, HONOLULU, HI, 96822","Match","Exact","1535 PUNAHOU ST, HONOLULU, HI, 96822",203237580,"R"
209941,"1535 RIVER PARKWAY BLVD 103","SHREVEPORT","LA",71104,32.4963687040001,-93.71641608,441,"1535 RIVER PARKWAY BLVD 103, SHREVEPORT, LA, 71104","Match","Exact","1535 RIVER PKWY BLVD, SHREVEPORT, LA, 71104",57491084,"R"
209942,"1535 S OAKMONT AVE","SPRINGFIELD","MO",65809,37.184451482,-93.21145279,442,"1535 S OAKMONT AVE, SPRINGFIELD, MO, 65809","Match","Exact","1535 S OAKMONT AVE, SPRINGFIELD, MO, 65809",76680439,"R"
209943,"1535 SAPPHIRE LN","VISTA","CA",92081,33.148920779,-117.239916495,443,"1535 SAPPHIRE LN, VISTA, CA, 92081","Match","Exact","1535 SAPPHIRE LN, VISTA, CA, 92081",195431190,"L"
209944,"1535 SCHENONE COURT UNIT C","CONCORD","CA",94521,37.954188172,-121.960291458,444,"1535 SCHENONE COURT UNIT C, CONCORD, CA, 94521","Match","Exact","1535 SCHENONE CT, CONCORD, CA, 94521",607794554,"R"
209945,"1535 SE ALDER ST","PORTLAND","OR",97214,45.517908322,-122.650216269,445,"1535 SE ALDER ST, PORTLAND, OR, 97214","Match","Exact","1535 SE ALDER ST, PORTLAND, OR, 97214",157506922,"L"
209946,"1535 SE SILKWOOD CIRCLE","LEES SUMMIT","MO",64063,38.9080585310001,-94.344451364,446,"1535 SE SILKWOOD CIRCLE, LEES SUMMIT, MO, 64063","Match","Exact","1535 SE SILKWOOD CIR, LEES SUMMIT, MO, 64063",91513171,"R"
209947,"1535 SE STONEBRIDGE DR","CEDAREDGE","CO",81413,38.8852054820001,-107.925608148,447,"1535 SE STONEBRIDGE DR, CEDAREDGE, CO, 81413","Match","Exact","1535 SE STONEBRIDGE DR, CEDAREDGE, CO, 81413",122394962,"R"
209948,"1535 SILVER STREET","BRONX","NY",10461,40.843641448,-73.847392605,448,"1535 SILVER STREET, BRONX, NY, 10461","Match","Exact","1535 SILVER ST, BRONX, NY, 10461",80305541,"L"
209949,"1535 SINGH STREET","FLORENCE","KY",41042,39.00733317,-84.6927754439999,449,"1535 SINGH STREET, FLORENCE, KY, 41042","Match","Exact","1535 SINGH ST, FLORENCE, KY, 41042",610491323,"R"
209950,"1535 SKYLINE DRIVE","KISSIMMEE","FL",34744,28.255561485,-81.380823477,450,"1535 SKYLINE DRIVE, KISSIMMEE, FL, 34744","Match","Exact","1535 SKYLINE DR, KISSIMMEE, FL, 34744",176659253,"L"
209951,"1535 SNAPDRAGON DRIVE","WELLINGTON","FL",33414,26.659165118,-80.271151717,451,"1535 SNAPDRAGON DRIVE, WELLINGTON, FL, 33414","Match","Exact","1535 SNAPDRAGON DR, WELLINGTON, FL, 33414",115253231,"R"
209952,"1535 SOUTH 1900 EAST","SALT LAKE CITY","UT",84108,40.7361066890001,-111.836501464,452,"1535 SOUTH 1900 EAST, SALT LAKE CITY, UT, 84108","Match","Exact","1535 S 1900 E, SALT LAKE CITY, UT, 84108",176081650,"L"
209953,"1535 SOUTH WARREN AVE","SAGINAW","MI",48601,43.4155640020001,-83.9336255969999,453,"1535 SOUTH WARREN AVE, SAGINAW, MI, 48601","Match","Exact","1535 S WARREN AVE, SAGINAW, MI, 48601",80215934,"R"
209954,"1535 SPRING LAWN AVE","CINCINNATI","OH",45223,39.1760687390001,-84.540045882,454,"1535 SPRING LAWN AVE, CINCINNATI, OH, 45223","Match","Non_Exact","1535 SPRING LAWN LN, CINCINNATI, OH, 45223",103980602,"L"
209955,"1535 ST ANNE","DETROIT","MI",48216,42.3239232400001,-83.078914402,455,"1535 ST ANNE, DETROIT, MI, 48216","Match","Non_Exact","1535 SAINTE ANNE ST, DETROIT, MI, 48216",95478732,"L"
209956,"1535 ST CROIX CIRCLE","GOLDEN VALLEY","MN",55422,44.9948563940001,-93.3404368669999,456,"1535 ST CROIX CIRCLE, GOLDEN VALLEY, MN, 55422","Match","Exact","1535 SAINT CROIX CIR, GOLDEN VALLEY, MN, 55422",43831976,"L"
209957,"1535 STURM AVENUE","INDIANAPOLIS","IN",46201,39.773026068,-86.132822434,457,"1535 STURM AVENUE, INDIANAPOLIS, IN, 46201","Match","Exact","1535 STURM AVE, INDIANAPOLIS, IN, 46201",640947518,"L"
209958,"1535 SUNSET CIRCLE","MOUNT DORA","FL",32757,28.8205535060001,-81.661470362,458,"1535 SUNSET CIRCLE, MOUNT DORA, FL, 32757","Match","Exact","1535 SUNSET CIR, MOUNT DORA, FL, 32757",94155138,"L"
209959,"1535 SW 87 AVE","MIAMI","FL",33174,25.7555188160001,-80.33593432,459,"1535 SW 87 AVE, MIAMI, FL, 33174","Match","Exact","1535 SW 87TH AVE, MIAMI, FL, 33174",116091281,"R"
209960,"1535 SWAYZE STREET","YAZOO CITY","MS",39194,32.8671274710001,-90.400980083,460,"1535 SWAYZE STREET, YAZOO CITY, MS, 39194","Match","Exact","1535 SWAYZE ST, YAZOO CITY, MS, 39194",152203079,"L"
209961,"1535 T STREET NW","WASHINGTON","DC",20009,38.9155796140001,-77.03526913,461,"1535 T STREET NW, WASHINGTON, DC, 20009","Match","Exact","1535 T ST NW, WASHINGTON, DC, 20009",76223171,"R"
209962,"1535 THORNBURY DR","MYRTLE BEACH","SC",29577,33.669974192,-78.95419729,462,"1535 THORNBURY DR, MYRTLE BEACH, SC, 29577","Match","Exact","1535 THORNBURY DR, MYRTLE BEACH, SC, 29577",631243134,"L"
209963,"1535 TIMBERDOODLE DRIVE","SAINT CLOUD","MN",56303,45.5778282890001,-94.223213124,463,"1535 TIMBERDOODLE DRIVE, SAINT CLOUD, MN, 56303","Match","Exact","1535 TIMBERDOODLE DR, SAINT CLOUD, MN, 56303",611981550,"L"
209964,"1535 TOWNE PARK LN","FRANKLIN","TN",37067,35.9258425090001,-86.784242198,464,"1535 TOWNE PARK LN, FRANKLIN, TN, 37067","Match","Exact","1535 TOWNE PARK LN, FRANKLIN, TN, 37067",73128436,"R"
209965,"1535 TREBOR ROAD","SAINT JOSEPH","MI",49085,42.056536185,-86.490920472,465,"1535 TREBOR ROAD, SAINT JOSEPH, MI, 49085","Match","Exact","1535 TREBOR RD, SAINT JOSEPH, MI, 49085",119974138,"R"
209966,"1535 TURRIFF WAY","SAN JOSE","CA",95132,37.4006687580001,-121.861665096,466,"1535 TURRIFF WAY, SAN JOSE, CA, 95132","Match","Exact","1535 TURRIFF WAY, SAN JOSE, CA, 95132",122963137,"L"
209967,"1535 US 19 S SUITE 14","LEESBURG","GA",31763,NA,NA,467,"1535 US 19 S SUITE 14, LEESBURG, GA, 31763","No_Match",NA,NA,NA,NA
209968,"1535 VALLEY RD","BETHLEHEM","PA",18018,40.635401745,-75.402781875,468,"1535 VALLEY RD, BETHLEHEM, PA, 18018","Match","Exact","1535 VALLEY RD, BETHLEHEM, PA, 18018",80765131,"L"
209969,"1535 VENICE AVE","MONROVIA","CA",91016,34.1344279300001,-118.015966177,469,"1535 VENICE AVE, MONROVIA, CA, 91016","Match","Exact","1535 VENICE AVE, MONROVIA, CA, 91016",241241670,"R"
209970,"1535 W 15TH ST","LAWRENCE","KS",66045,38.957064786,-95.253003775,470,"1535 W 15TH ST, LAWRENCE, KS, 66045","Match","Exact","1535 W 15TH ST, LAWRENCE, KS, 66045",17684549,"L"
209971,"1535 W ASHER ST","CHICAGO","IL",60643,41.670879701,-87.660417674,471,"1535 W ASHER ST, CHICAGO, IL, 60643","Match","Exact","1535 W ASHER ST, CHICAGO, IL, 60643",618343384,"L"
209972,"1535 W CANFIELD APT 7","DETROIT","MI",48208,NA,NA,472,"1535 W CANFIELD APT 7, DETROIT, MI, 48208","No_Match",NA,NA,NA,NA
209973,"1535 W FRANKLIN RD","MERIDIAN","ID",83642,43.6046811190001,-116.412167021,473,"1535 W FRANKLIN RD, MERIDIAN, ID, 83642","Match","Exact","1535 W FRANKLIN RD, MERIDIAN, ID, 83642",642578043,"R"
209974,"1535 W JEFFERSON","PHOENIX","AZ",85007,33.4470504390001,-112.092228115,474,"1535 W JEFFERSON, PHOENIX, AZ, 85007","Match","Non_Exact","1535 W JEFFERSON ST, PHOENIX, AZ, 85007",128211623,"L"
209975,"1535 W JEFFERSON","PHOENIX","AZ",NA,33.4470504390001,-112.092228115,475,"1535 W JEFFERSON, PHOENIX, AZ, ","Match","Non_Exact","1535 W JEFFERSON ST, PHOENIX, AZ, 85007",128211623,"L"
209976,"1535 W KEATING AVE","CHANDLER","AZ",NA,NA,NA,476,"1535 W KEATING AVE, CHANDLER, AZ, ","No_Match",NA,NA,NA,NA
209977,"1535 WALLING LANE","NILES","MI",49120,41.854833786,-86.279177815,477,"1535 WALLING LANE, NILES, MI, 49120","Match","Exact","1535 WALLING LN, NILES, MI, 49120",119990319,"L"
209978,"1535 WARFORD STREET","MEMPHIS","TN",38108,35.1747699920001,-89.962218261,478,"1535 WARFORD STREET, MEMPHIS, TN, 38108","Match","Exact","1535 WARFORD ST, MEMPHIS, TN, 38108",72911745,"L"
209979,"1535 WARFORD","MEMPHIS","TN",38108,35.1747699920001,-89.962218261,479,"1535 WARFORD, MEMPHIS, TN, 38108","Match","Non_Exact","1535 WARFORD ST, MEMPHIS, TN, 38108",72911745,"L"
209980,"1535 WASHINGTON","WEST CHESTER","PA",19382,39.910929905,-75.650226028,480,"1535 WASHINGTON, WEST CHESTER, PA, 19382","Match","Non_Exact","1535 WASHINGTON LN, WEST CHESTER, PA, 19382",179492635,"L"
209981,"1535 WEILAND MANOR","SPRING","TX",77373,NA,NA,481,"1535 WEILAND MANOR, SPRING, TX, 77373","No_Match",NA,NA,NA,NA
209982,"1535 WEST CLOUD ROAD","PHOENIX","AZ",85086,33.8135003400001,-112.092389313,482,"1535 WEST CLOUD ROAD, PHOENIX, AZ, 85086","Match","Exact","1535 W CLOUD RD, PHOENIX, AZ, 85086",128139780,"R"
209983,"1535 WEST FIRST STREET","DAYTON","OH",45402,39.7569890350001,-84.2195296469999,483,"1535 WEST FIRST STREET, DAYTON, OH, 45402","Match","Exact","1535 W 1ST ST, DAYTON, OH, 45402",143569788,"R"
209984,"1535 WEST MONROE","SPRINGFIELD","IL",62704,39.7996397000001,-89.6785220259999,484,"1535 WEST MONROE, SPRINGFIELD, IL, 62704","Match","Non_Exact","1535 W MONROE ST, SPRINGFIELD, IL, 62704",97322128,"R"
209985,"1535 WEST MULBERRY AVE","SAN ANTONIO","TX",78201,29.4571829380001,-98.519668837,485,"1535 WEST MULBERRY AVE, SAN ANTONIO, TX, 78201","Match","Exact","1535 W MULBERRY AVE, SAN ANTONIO, TX, 78201",101514376,"R"
209986,"1535 WEST STOLL PLACE","DENVER","CO",80221,39.7870582360001,-105.00542061,486,"1535 WEST STOLL PLACE, DENVER, CO, 80221","Match","Exact","1535 W STOLL PL, DENVER, CO, 80221",177302533,"R"
209987,"1535 WESTLAKE DRIVE","KELSEYVILLE","CA",95451,39.0206513200001,-122.757957759,487,"1535 WESTLAKE DRIVE, KELSEYVILLE, CA, 95451","Match","Exact","1535 WESTLAKE DR, KELSEYVILLE, CA, 95451",67043864,"L"
209988,"1535 WILMA LEA LN","WALLIS","TX",77485,29.6864526250001,-96.141067086,488,"1535 WILMA LEA LN, WALLIS, TX, 77485","Match","Exact","1535 WILMA LEA LN, WALLIS, TX, 77485",636630514,"L"
209989,"1535 WINTERBERRY DR","MURFREESBORO","TN",37130,35.880075106,-86.370672478,489,"1535 WINTERBERRY DR, MURFREESBORO, TN, 37130","Match","Non_Exact","1535 WINTERBURY DR, MURFREESBORO, TN, 37130",59037130,"L"
209990,"1535 WOODBRIDGE COURT","CINCINNATI","OH",45240,39.2991568090001,-84.5379822689999,490,"1535 WOODBRIDGE COURT, CINCINNATI, OH, 45240","Match","Exact","1535 WOODBRIDGE CT, CINCINNATI, OH, 45240",103960457,"R"
209991,"1535 YARDLEY ST","SANTA ROSA","CA",95403,38.456039661,-122.767257457,491,"1535 YARDLEY ST, SANTA ROSA, CA, 95403","Match","Exact","1535 YARDLEY ST, SANTA ROSA, CA, 95403",604974275,"R"
209992,"1535","COLUMBUS","OH",43227,NA,NA,492,"1535, COLUMBUS, OH, 43227","No_Match",NA,NA,NA,NA
209993,"1535","SAN FRANCISCO","CA",94103,NA,NA,493,"1535, SAN FRANCISCO, CA, 94103","No_Match",NA,NA,NA,NA
209994,"15350 AMBERLY DR UNIT 5122","TAMPA","FL",33647,28.087914052,-82.402938437,494,"15350 AMBERLY DR UNIT 5122, TAMPA, FL, 33647","Match","Exact","15350 AMBERLY DR, TAMPA, FL, 33647",635369601,"L"
209995,"15350 AMBERLY DR UNIT 523","TAMPA","FL",33647,28.087914052,-82.402938437,495,"15350 AMBERLY DR UNIT 523, TAMPA, FL, 33647","Match","Exact","15350 AMBERLY DR, TAMPA, FL, 33647",635369601,"L"
209996,"15350 AMBERLY DRIVE APT 4322","TAMPA","FL",33647,28.087914052,-82.402938437,496,"15350 AMBERLY DRIVE APT 4322, TAMPA, FL, 33647","Match","Exact","15350 AMBERLY DR, TAMPA, FL, 33647",635369601,"L"
209997,"15350 AMBERLY DRIVE UNIT 1322","TAMPA","FL",33647,28.087914052,-82.402938437,497,"15350 AMBERLY DRIVE UNIT 1322, TAMPA, FL, 33647","Match","Exact","15350 AMBERLY DR, TAMPA, FL, 33647",635369601,"L"
209998,"15350 AMBERLY DRIVE UNIT 1821","TAMPA","FL",33647,28.087914052,-82.402938437,498,"15350 AMBERLY DRIVE UNIT 1821, TAMPA, FL, 33647","Match","Exact","15350 AMBERLY DR, TAMPA, FL, 33647",635369601,"L"
209999,"15350 LORRAINE ROAD","BILOXI","MS",39532,30.5100627200001,-88.979630215,499,"15350 LORRAINE ROAD, BILOXI, MS, 39532","Match","Exact","15350 LORRAINE RD, BILOXI, MS, 39532",111398371,"R"
210000,"15350 N LEWIS AVE","SKIATOOK","OK",74070,36.3771119350001,-95.956000713,500,"15350 N LEWIS AVE, SKIATOOK, OK, 74070","Match","Exact","15350 N LEWIS AVE, SKIATOOK, OK, 74070",638912751,"R"
