"ID","Address","City","State","Zip","lat","long","id","input_address","match_indicator","match_type","matched_address","tiger_line_id","tiger_side"
710001,"5310 HAUSER WAY","WEST BLOOMFIELD","MI",48323,42.5594588340001,-83.381711031,1,"5310 HAUSER WAY, WEST BLOOMFIELD, MI, 48323","Match","Exact","5310 HAUSER WAY, W BLOOMFIELD, MI, 48323",69721791,"L"
710002,"5310 HELEN WAY","SACRAMENTO","CA",95822,38.5268821780001,-121.492085895,2,"5310 HELEN WAY, SACRAMENTO, CA, 95822","Match","Exact","5310 HELEN WAY, SACRAMENTO, CA, 95822",133326402,"R"
710003,"5310 HIGHMEADOW AVENUE","DAYTON","OH",45415,39.8234883800001,-84.2535371449999,3,"5310 HIGHMEADOW AVENUE, DAYTON, OH, 45415","Match","Non_Exact","5310 HIGHMEADOW LN, DAYTON, OH, 45415",143564650,"R"
710004,"5310 ILLAHEE LN NE","OLYMPIA","WA",98516,47.1073742240001,-122.745760445,4,"5310 ILLAHEE LN NE, OLYMPIA, WA, 98516","Match","Exact","5310 ILLAHEE LN NE, OLYMPIA, WA, 98516",629074706,"R"
710005,"5310 JUDSONVILLE DR","ANTIOCH","CA",94531,37.963694203,-121.819591088,5,"5310 JUDSONVILLE DR, ANTIOCH, CA, 94531","Match","Exact","5310 JUDSONVILLE DR, ANTIOCH, CA, 94531",617829274,"L"
710006,"5310 KELLER SPRINGS RD 432","DALLAS","TX",75248,32.968501643,-96.81546095,6,"5310 KELLER SPRINGS RD 432, DALLAS, TX, 75248","Match","Exact","5310 KELLER SPRINGS RD, DALLAS, TX, 75248",650063913,"R"
710007,"5310 KESWICK CT","ORLANDO","FL",32812,28.507657142,-81.318039176,7,"5310 KESWICK CT, ORLANDO, FL, 32812","Match","Exact","5310 KESWICK CT, ORLANDO, FL, 32812",94288051,"R"
710008,"5310 KIETZKE LANE STE 205","RENO","NV",89511,39.471724479,-119.792302635,8,"5310 KIETZKE LANE STE 205, RENO, NV, 89511","Match","Exact","5310 KIETZKE LN, RENO, NV, 89511",107098508,"L"
710009,"5310 LAKE BOULEVARD","NEWARD","CA",94560,NA,NA,9,"5310 LAKE BOULEVARD, NEWARD, CA, 94560","No_Match",NA,NA,NA,NA
710010,"5310 LAKE LINDERO DR","AGOURA HILLS","CA",91301,34.1489315920001,-118.78675329,10,"5310 LAKE LINDERO DR, AGOURA HILLS, CA, 91301","Match","Exact","5310 LAKE LINDERO DR, AGOURA HILLS, CA, 91301",142784272,"R"
710011,"5310 LAS VERDES CIRCLE  SUITE 116","DELRAY BEACH","FL",33484,26.440855986,-80.1272570419999,11,"5310 LAS VERDES CIRCLE  SUITE 116, DELRAY BEACH, FL, 33484","Match","Exact","5310 LAS VERDES CIR, DELRAY BEACH, FL, 33484",115482159,"L"
710012,"5310 LATHROP AVE","MT. PLEASANT","WI",53403,42.669199905,-87.826072074,12,"5310 LATHROP AVE, MT. PLEASANT, WI, 53403","Match","Exact","5310 LATHROP AVE, MOUNT PLEASANT, WI, 53403",77916716,"R"
710013,"5310 LATHROP AVENUE","MT. PLEASANT","WI",53403,42.669199905,-87.826072074,13,"5310 LATHROP AVENUE, MT. PLEASANT, WI, 53403","Match","Exact","5310 LATHROP AVE, MOUNT PLEASANT, WI, 53403",77916716,"R"
710014,"5310 LINDENWOOD AVE","SAINT LOUIS","MO",63109,38.592959772,-90.281438206,14,"5310 LINDENWOOD AVE, SAINT LOUIS, MO, 63109","Match","Exact","5310 LINDENWOOD AVE, SAINT LOUIS, MO, 63109",605129153,"L"
710015,"5310 LUNNS STORE ROAD","CHAPEL HILL","TN",37034,35.685595972,-86.7597781649999,15,"5310 LUNNS STORE ROAD, CHAPEL HILL, TN, 37034","Match","Exact","5310 LUNNS STORE RD, CHAPEL HILL, TN, 37034",58974997,"R"
710016,"5310 MARY ANN LN","ORLANDO","FL",32810,28.63867728,-81.440567917,16,"5310 MARY ANN LN, ORLANDO, FL, 32810","Match","Exact","5310 MARY ANN LN, ORLANDO, FL, 32810",94269156,"R"
710017,"5310 MARYLAND WAY","BRENTWOOD","TN",37027,36.0364599280001,-86.8110604359999,17,"5310 MARYLAND WAY, BRENTWOOD, TN, 37027","Match","Exact","5310 MARYLAND WAY, BRENTWOOD, TN, 37027",73116146,"L"
710018,"5310 MEADOWCREST CV","MEMPHIS","TN",38117,35.121126755,-89.8861528639999,18,"5310 MEADOWCREST CV, MEMPHIS, TN, 38117","Match","Exact","5310 MEADOWCREST COVE, MEMPHIS, TN, 38117",72926645,"L"
710019,"5310 MERCHANDISE DRIVE","FORT WAYNE","IN",46825,41.1261761000001,-85.153135692,19,"5310 MERCHANDISE DRIVE, FORT WAYNE, IN, 46825","Match","Exact","5310 MERCHANDISE DR, FORT WAYNE, IN, 46825",6376484,"R"
710020,"5310 MOSQUERO RD","SPRING HILL","FL",34608,28.5043504880001,-82.5756087569999,20,"5310 MOSQUERO RD, SPRING HILL, FL, 34608","Match","Non_Exact","5310 MOSQUERO RD, SPRING HILL, FL, 34606",85423597,"L"
710021,"5310 N 33RD STREET","PHOENIX","AZ",85018,NA,NA,21,"5310 N 33RD STREET, PHOENIX, AZ, 85018","Tie",NA,NA,NA,NA
710022,"5310 N 43RD ST","TACOMA","WA",98407,47.287981888,-122.508013841,22,"5310 N 43RD ST, TACOMA, WA, 98407","Match","Exact","5310 N 43RD ST, TACOMA, WA, 98407",184643752,"L"
710023,"5310 N 485 RD","ROSE","OK",74364,36.098298109,-95.005565274,23,"5310 N 485 RD, ROSE, OK, 74364","Match","Exact","5310 N 485 RD, ROSE, OK, 74364",624272821,"R"
710024,"5310 N 73RD","MILWAUKEE","WI",53218,43.114560607,-88.0021165479999,24,"5310 N 73RD, MILWAUKEE, WI, 53218","Match","Non_Exact","5310 N 73RD ST, MILWAUKEE, WI, 53218",77726177,"R"
710025,"5310 N STARNES RD","BLOOMINGTON","IN",47404,39.228084606,-86.658861685,25,"5310 N STARNES RD, BLOOMINGTON, IN, 47404","Match","Exact","5310 N STARNES RD, BLOOMINGTON, IN, 47404",42319167,"R"
710026,"5310 NE 9 TERRACE","POMPANO BEACH","FL",33064,26.296701383,-80.110752845,26,"5310 NE 9 TERRACE, POMPANO BEACH, FL, 33064","Match","Exact","5310 NE 9TH TER, POMPANO BEACH, FL, 33064",114822649,"R"
710027,"5310 OLD HUNDRED LANE","ATLANTA","GA",30327,33.9013301850001,-84.3937872019999,27,"5310 OLD HUNDRED LANE, ATLANTA, GA, 30327","Match","Non_Exact","5310 OLD HUNDRED LN NW, ATLANTA, GA, 30327",17361484,"L"
710028,"5310 PARAGON ST","ROCKLIN","CA",95677,38.7907599480001,-121.253444442,28,"5310 PARAGON ST, ROCKLIN, CA, 95677","Match","Exact","5310 PARAGON ST, ROCKLIN, CA, 95677",106764250,"R"
710029,"5310 PARK LEDGE COURT","CLARENCE","NY",14031,42.9898247730001,-78.639721777,29,"5310 PARK LEDGE COURT, CLARENCE, NY, 14031","Match","Non_Exact","5310 PARKLEDGE CT, CLARENCE, NY, 14031",48317079,"L"
710030,"5310 PENDLETON ROAD","LOUISVILLE","KY",40272,38.049596792,-85.86542186,30,"5310 PENDLETON ROAD, LOUISVILLE, KY, 40272","Match","Exact","5310 PENDLETON RD, LOUISVILLE, KY, 40272",96974796,"R"
710031,"5310 PEPPERCORN STREET","DURHAM","NC",27704,36.0693658060001,-78.900526857,31,"5310 PEPPERCORN STREET, DURHAM, NC, 27704","Match","Exact","5310 PEPPERCORN ST, DURHAM, NC, 27704",71736030,"R"
710032,"5310 PINETREE DRIVE","MIAMI BEACH","FL",33140,25.830539892,-80.1244529969999,32,"5310 PINETREE DRIVE, MIAMI BEACH, FL, 33140","Match","Non_Exact","5310 PINE TREE DR, MIAMI BEACH, FL, 33140",116009423,"L"
710033,"5310 RAVEN ROW","DALLAS","TX",75236,32.6810848120001,-96.896277988,33,"5310 RAVEN ROW, DALLAS, TX, 75236","Match","Exact","5310 RAVEN ROW, DALLAS, TX, 75236",103219900,"R"
710034,"5310 REBER PL","ST LOUIS","MO",63139,38.6081778590001,-90.2760463,34,"5310 REBER PL, ST LOUIS, MO, 63139","Match","Exact","5310 REBER PL, SAINT LOUIS, MO, 63139",619015352,"R"
710035,"5310 REGENT STREET","MADISON","WI",53705,43.0680490510001,-89.47046276,35,"5310 REGENT STREET, MADISON, WI, 53705","Match","Exact","5310 REGENT ST, MADISON, WI, 53705",49467189,"R"
710036,"5310 ROSEMONT AVE","LA CRESENTA","CA",91214,34.2356812890001,-118.235010915,36,"5310 ROSEMONT AVE, LA CRESENTA, CA, 91214","Match","Non_Exact","5310 ROSEMONT AVE, LA CRESCENTA, CA, 91214",141589641,"R"
710037,"5310 SCHAAD ROAD","KNOXVILLE","TN",37931,35.976532648,-84.059126689,37,"5310 SCHAAD ROAD, KNOXVILLE, TN, 37931","Match","Exact","5310 SCHAAD RD, KNOXVILLE, TN, 37931",625619782,"L"
710038,"5310 SHADOW STONE ST","BAKERSFIELD","CA",93313,35.3068431360001,-119.087210453,38,"5310 SHADOW STONE ST, BAKERSFIELD, CA, 93313","Match","Exact","5310 SHADOW STONE ST, BAKERSFIELD, CA, 93313",109135635,"R"
710039,"5310 SHAWANO TERRACE","MADISON","WI",53705,43.062369759,-89.469401504,39,"5310 SHAWANO TERRACE, MADISON, WI, 53705","Match","Exact","5310 SHAWANO TER, MADISON, WI, 53705",49467208,"R"
710040,"5310 SHILOH WOODS DRIVE","CUMMING","GA",30040,34.132402938,-84.211760759,40,"5310 SHILOH WOODS DRIVE, CUMMING, GA, 30040","Match","Exact","5310 SHILOH WOODS DR, CUMMING, GA, 30040",646176616,"R"
710041,"5310 SILVER STONE DRIVE","MEMPHIS","TN",38125,35.0036315350001,-89.825926393,41,"5310 SILVER STONE DRIVE, MEMPHIS, TN, 38125","Match","Exact","5310 SILVER STONE DR, MEMPHIS, TN, 38125",618713130,"L"
710042,"5310 SPRUCE AVE","CLEARLAKE","CA",95422,38.9452836990001,-122.626694295,42,"5310 SPRUCE AVE, CLEARLAKE, CA, 95422","Match","Exact","5310 SPRUCE AVE, CLEARLAKE, CA, 95422",67049676,"R"
710043,"5310 STORMY SUNSET","SAN ANTONIO","TX",78247,29.586179373,-98.3857909559999,43,"5310 STORMY SUNSET, SAN ANTONIO, TX, 78247","Match","Exact","5310 STORMY SUNSET, SAN ANTONIO, TX, 78247",101704553,"R"
710044,"5310 TEAKWOOD DR","KANNAPOLIS","NC",28083,35.489533351,-80.527883823,44,"5310 TEAKWOOD DR, KANNAPOLIS, NC, 28083","Match","Exact","5310 TEAKWOOD DR, KANNAPOLIS, NC, 28083",24898537,"R"
710045,"5310 TILDEN AVENUE","BROOKLYN","NY",11203,40.648366061,-73.926927884,45,"5310 TILDEN AVENUE, BROOKLYN, NY, 11203","Match","Exact","5310 TILDEN AVE, BROOKLYN, NY, 11203",59085831,"R"
710046,"5310 TIMBERWYCK TRAIL","INTERLOCHEN","MI",49684,44.608982283,-85.766034839,46,"5310 TIMBERWYCK TRAIL, INTERLOCHEN, MI, 49684","Match","Non_Exact","5310 TIMBERWYCK TRL, INTERLOCHEN, MI, 49643",644028724,"L"
710047,"5310 TULLIS DR","NEW ORLEANS","LA",70131,29.900967425,-89.999604141,47,"5310 TULLIS DR, NEW ORLEANS, LA, 70131","Match","Exact","5310 TULLIS DR, NEW ORLEANS, LA, 70131",191757228,"L"
710048,"5310 W MERCER WAY","MERCER ISLAND","WA",98040,47.554639776,-122.229297387,48,"5310 W MERCER WAY, MERCER ISLAND, WA, 98040","Match","Exact","5310 W MERCER WAY, MERCER ISLAND, WA, 98040",239777703,"L"
710049,"5310 W PARKER","CHICAGO","IL",60639,41.9304631410001,-87.759254241,49,"5310 W PARKER, CHICAGO, IL, 60639","Match","Non_Exact","5310 W PARKER AVE, CHICAGO, IL, 60639",111753457,"R"
710050,"5310 W PARKER","CHICAGO","IL",NA,41.9304631410001,-87.759254241,50,"5310 W PARKER, CHICAGO, IL, ","Match","Non_Exact","5310 W PARKER AVE, CHICAGO, IL, 60639",111753457,"R"
710051,"5310 WALKER COURT","STONE MTN","GA",30088,33.7721366490001,-84.170971165,51,"5310 WALKER COURT, STONE MTN, GA, 30088","Match","Exact","5310 WALKER CT, STONE MOUNTAIN, GA, 30088",23385081,"L"
710052,"5310 WATERTON LAKES DRIVE","INDIANAPOLIS","IN",46237,39.690751279,-86.058298773,52,"5310 WATERTON LAKES DRIVE, INDIANAPOLIS, IN, 46237","Match","Exact","5310 WATERTON LAKES DR, INDIANAPOLIS, IN, 46237",108040137,"R"
710053,"5310 WEST GOLDENWOOD DRIVE","INGLEWOOD","CA",90302,33.9816818530001,-118.373462205,53,"5310 WEST GOLDENWOOD DRIVE, INGLEWOOD, CA, 90302","Match","Exact","5310 W GOLDENWOOD DR, INGLEWOOD, CA, 90302",142665512,"L"
710054,"5310 WHITNEY COURT","PASADENA","TX",77505,29.6574507770001,-95.160878812,54,"5310 WHITNEY COURT, PASADENA, TX, 77505","Match","Exact","5310 WHITNEY CT, PASADENA, TX, 77505",96601225,"R"
710055,"5310 WILLOW LAKE CT","DISCOVERY BAY","CA",94505,37.9115751250001,-121.596576402,55,"5310 WILLOW LAKE CT, DISCOVERY BAY, CA, 94505","Match","Exact","5310 WILLOW LAKE CT, DISCOVERY BAY, CA, 94505",192033381,"L"
710056,"5310 WINDERMERE","HOUSTON","TX",77033,NA,NA,56,"5310 WINDERMERE, HOUSTON, TX, 77033","No_Match",NA,NA,NA,NA
710057,"5310 WOODBRIDGE COURT","ERIE","PA",16509,42.080672372,-80.077994367,57,"5310 WOODBRIDGE COURT, ERIE, PA, 16509","Match","Exact","5310 WOODBRIDGE CT, ERIE, PA, 16509",117510500,"L"
710058,"5310 WYALUSING AVE","PHILADELPHIA","PA",19131,39.969339651,-75.227121556,58,"5310 WYALUSING AVE, PHILADELPHIA, PA, 19131","Match","Exact","5310 WYALUSING AVE, PHILADELPHIA, PA, 19131",131398446,"L"
710059,"53109 NW 12TH ST","SCAPPOOSE","OR",97056,45.7664780320001,-122.890328827,59,"53109 NW 12TH ST, SCAPPOOSE, OR, 97056","Match","Exact","53109 NW 12 ST, SCAPPOOSE, OR, 97056",627653569,"L"
710060,"5310C BIRDS VIEW LANE","ALEXANDRIA","VA",22312,38.806581753,-77.151590734,60,"5310C BIRDS VIEW LANE, ALEXANDRIA, VA, 22312","Match","Exact","5310 BIRDS VIEW LN, ALEXANDRIA, VA, 22312",76044154,"L"
710061,"5311  PROVIDENCE DRIVE","MATTESON","IL",60443,41.518027031,-87.745448301,61,"5311  PROVIDENCE DRIVE, MATTESON, IL, 60443","Match","Exact","5311 PROVIDENCE DR, MATTESON, IL, 60443",112387246,"L"
710062,"5311 22ND ST W","BRADENTON","FL",34207,27.44745318,-82.583478763,62,"5311 22ND ST W, BRADENTON, FL, 34207","Match","Exact","5311 22ND ST W, BRADENTON, FL, 34207",16235949,"L"
710063,"5311 25TH AVE S","SEATTLE","WA",98108,47.554480819,-122.300402144,63,"5311 25TH AVE S, SEATTLE, WA, 98108","Match","Exact","5311 25TH AVE S, SEATTLE, WA, 98108",186682367,"R"
710064,"5311 37TH ROAD","WOODSIDE","NY",11377,NA,NA,64,"5311 37TH ROAD, WOODSIDE, NY, 11377","No_Match",NA,NA,NA,NA
710065,"5311 8TH STREET NW APT 6","WASHINGTON","DC",20011,38.9543654560001,-77.023932313,65,"5311 8TH STREET NW APT 6, WASHINGTON, DC, 20011","Match","Exact","5311 8TH ST NW, WASHINGTON, DC, 20011",76223301,"R"
710066,"5311 ACOMA RD SE","ALBUQUERQUE","NM",87108,35.075002731,-106.58601338,66,"5311 ACOMA RD SE, ALBUQUERQUE, NM, 87108","Match","Exact","5311 ACOMA RD SE, ALBUQUERQUE, NM, 87108",206716818,"L"
710067,"5311 APOLLO DR","HOUSTON","TX",77091,29.8443929360001,-95.427546359,67,"5311 APOLLO DR, HOUSTON, TX, 77091","Match","Non_Exact","5311 APOLLO ST, HOUSTON, TX, 77091",96053960,"L"
710068,"5311 ARROWSHIRE DRIVE","LA GRANGE","KY",40031,38.3920833500001,-85.454288526,68,"5311 ARROWSHIRE DRIVE, LA GRANGE, KY, 40031","Match","Exact","5311 ARROWSHIRE DR, LA GRANGE, KY, 40031",130914447,"L"
710069,"5311 ASKEW LN","HOUSTON","TX",77016,NA,NA,69,"5311 ASKEW LN, HOUSTON, TX, 77016","No_Match",NA,NA,NA,NA
710070,"5311 BAMBOO LANE","NAPERVILLE","IL",60564,41.675824918,-88.225098298,70,"5311 BAMBOO LANE, NAPERVILLE, IL, 60564","Match","Exact","5311 BAMBOO LN, NAPERVILLE, IL, 60564",607944444,"R"
710071,"5311 BAYVIEW DRIVE","FORT LAUDERDALE","FL",33308,26.192603589,-80.1069524489999,71,"5311 BAYVIEW DRIVE, FORT LAUDERDALE, FL, 33308","Match","Exact","5311 BAYVIEW DR, FORT LAUDERDALE, FL, 33308",114724154,"L"
710072,"5311 BEACON RIGHT DRIVE","GRANITE FALLS","NC",28630,NA,NA,72,"5311 BEACON RIGHT DRIVE, GRANITE FALLS, NC, 28630","No_Match",NA,NA,NA,NA
710073,"5311 BEVERLY HILL ST APT 8","HOUSTON","TX",77056,29.7301363510001,-95.469334719,73,"5311 BEVERLY HILL ST APT 8, HOUSTON, TX, 77056","Match","Non_Exact","5311 BEVERLYHILL ST, HOUSTON, TX, 77056",627953413,"L"
710074,"5311 BLUE RIDGE AVE","RICHMOND","VA",23231,37.5111804680001,-77.3942215069999,74,"5311 BLUE RIDGE AVE, RICHMOND, VA, 23231","Match","Exact","5311 BLUE RIDGE AVE, RICHMOND, VA, 23231",201549248,"L"
710075,"5311 BREEZEWOOD DRIVE","MISHAWAKA","IN",46544,41.672831778,-86.1009754,75,"5311 BREEZEWOOD DRIVE, MISHAWAKA, IN, 46544","Match","Exact","5311 BREEZEWOOD DR, MISHAWAKA, IN, 46544",8064863,"L"
710076,"5311 BRIGHTON PARK LN","JACKSONVILLE","FL",32210,30.249293408,-81.820876695,76,"5311 BRIGHTON PARK LN, JACKSONVILLE, FL, 32210","Match","Exact","5311 BRIGHTON PARK LN, JACKSONVILLE, FL, 32210",627659404,"R"
710077,"5311 CASEY WAY APT D","INDIANAPOLIS","IN",46221,39.6694228700001,-86.2514684179999,77,"5311 CASEY WAY APT D, INDIANAPOLIS, IN, 46221","Match","Exact","5311 CASEY WAY, INDIANAPOLIS, IN, 46221",640863738,"L"
710078,"5311 CHADWELL RD","NORWOOD","MO",65717,37.1141270300001,-92.462746984,78,"5311 CHADWELL RD, NORWOOD, MO, 65717","Match","Exact","5311 CHADWELL RD, NORWOOD, MO, 65717",629966613,"R"
710079,"5311 CLOVER MOSS S","BAKERSFIELD","CA",93313,35.306999004,-119.083478593,79,"5311 CLOVER MOSS S, BAKERSFIELD, CA, 93313","Match","Non_Exact","5311 CLOVER MOSS ST, BAKERSFIELD, CA, 93313",109139110,"R"
710080,"5311 DARTMOUTH DR","PARMA","OH",44129,41.414638731,-81.7458758239999,80,"5311 DARTMOUTH DR, PARMA, OH, 44129","Match","Exact","5311 DARTMOUTH DR, PARMA, OH, 44129",61106597,"L"
710081,"5311 DEL MONTE CT","CAPE CORAL","FL",33904,26.547779232,-81.9592263769999,81,"5311 DEL MONTE CT, CAPE CORAL, FL, 33904","Match","Exact","5311 DEL MONTE CT, CAPE CORAL, FL, 33904",118170022,"L"
710082,"5311 DUNLEIGH DR","BURKE","VA",22015,38.8067953660001,-77.262573004,82,"5311 DUNLEIGH DR, BURKE, VA, 22015","Match","Exact","5311 DUNLEIGH DR, BURKE, VA, 22015",76057832,"L"
710083,"5311 E 102ND ST","TULSA","OK",74137,36.015908263,-95.91698472,83,"5311 E 102ND ST, TULSA, OK, 74137","Match","Exact","5311 E 102ND ST, TULSA, OK, 74137",166472021,"R"
710084,"5311 EAGLE CAY WAY","COCONUT CREEK","FL",33073,26.3019477890001,-80.1960082479999,84,"5311 EAGLE CAY WAY, COCONUT CREEK, FL, 33073","Match","Exact","5311 EAGLE CAY WAY, COCONUT CREEK, FL, 33073",114792912,"L"
710085,"5311 ELGIN HILLS WAY","ANTELOPE","CA",95843,38.7246270360001,-121.341192257,85,"5311 ELGIN HILLS WAY, ANTELOPE, CA, 95843","Match","Exact","5311 ELGIN HILLS WAY, ANTELOPE, CA, 95843",133388701,"L"
710086,"5311 ENGLISH DRIVE","LAKELAND","FL",33813,27.9691552520001,-81.8975176179999,86,"5311 ENGLISH DRIVE, LAKELAND, FL, 33813","Match","Non_Exact","5311 ENGLISH DR, LAKELAND, FL, 33812",104927131,"R"
710087,"5311 FAIR RIDGE DR","SAN ANTONIO","TX",78228,29.4848958860001,-98.580110001,87,"5311 FAIR RIDGE DR, SAN ANTONIO, TX, 78228","Match","Exact","5311 FAIR RIDGE DR, SAN ANTONIO, TX, 78228",101509648,"L"
710088,"5311 FAIR RIDGE DRIVE","SAN ANTONIO","TX",78228,29.4848958860001,-98.580110001,88,"5311 FAIR RIDGE DRIVE, SAN ANTONIO, TX, 78228","Match","Exact","5311 FAIR RIDGE DR, SAN ANTONIO, TX, 78228",101509648,"L"
710089,"5311 FERN AVE","GRAND BLANC","MI",48439,42.9503953890001,-83.6636889179999,89,"5311 FERN AVE, GRAND BLANC, MI, 48439","Match","Exact","5311 FERN AVE, GRAND BLANC, MI, 48439",69576440,"L"
710090,"5311 GALAXIE DRIVE","LOUISVILLE","KY",40258,38.157240965,-85.855917204,90,"5311 GALAXIE DRIVE, LOUISVILLE, KY, 40258","Match","Exact","5311 GALAXIE DR, LOUISVILLE, KY, 40258",96838573,"R"
710091,"5311 GREEN SPRINGS DRIVE","MILTON","FL",32583,30.624643587,-86.8803944859999,91,"5311 GREEN SPRINGS DRIVE, MILTON, FL, 32583","Match","Exact","5311 GREEN SPRINGS DR, MILTON, FL, 32583",74579569,"R"
710092,"5311 GROVE","ST.LOUIS","MO",63135,38.732194248,-90.312178592,92,"5311 GROVE, ST.LOUIS, MO, 63135","Match","Non_Exact","5311 GROVE AVE, SAINT LOUIS, MO, 63135",100146324,"L"
710093,"5311 HUDGINS ROAD","MEMPHIS","TN",38116,35.0034713220001,-90.000241481,93,"5311 HUDGINS ROAD, MEMPHIS, TN, 38116","Match","Exact","5311 HUDGINS RD, MEMPHIS, TN, 38116",72922998,"R"
710094,"5311 JAMESWOOD LN","BIRMINGHAM","AL",35244,33.3656981550001,-86.761623561,94,"5311 JAMESWOOD LN, BIRMINGHAM, AL, 35244","Match","Exact","5311 JAMESWOOD LN, BIRMINGHAM, AL, 35244",82082392,"L"
710095,"5311 KEPPLER ROAD","TEMPLE HILLS","MD",20748,38.817127654,-76.92666006,95,"5311 KEPPLER ROAD, TEMPLE HILLS, MD, 20748","Match","Exact","5311 KEPPLER RD, TEMPLE HILLS, MD, 20748",76411776,"R"
710096,"5311 LAKELAND DRIVE","ROANOKE","VA",24018,37.229380281,-80.023513898,96,"5311 LAKELAND DRIVE, ROANOKE, VA, 24018","Match","Exact","5311 LAKELAND DR, ROANOKE, VA, 24018",62907651,"R"
710097,"5311 LANAI DRIVE","YAKIMA","WA",98908,46.5876339980001,-120.579282011,97,"5311 LANAI DRIVE, YAKIMA, WA, 98908","Match","Exact","5311 LANAI DR, YAKIMA, WA, 98908",184963926,"R"
710098,"5311 LIBBIE MILL WEST BOULEVARD","RICHMOND","VA",23230,37.59072996,-77.498337625,98,"5311 LIBBIE MILL WEST BOULEVARD, RICHMOND, VA, 23230","Match","Exact","5311 LIBBIE MILL WEST BLVD, RICHMOND, VA, 23230",652128890,"L"
710099,"5311 MAGGIORE STREET","CORAL GABLES","FL",33146,25.721259635,-80.2637472709999,99,"5311 MAGGIORE STREET, CORAL GABLES, FL, 33146","Match","Exact","5311 MAGGIORE ST, CORAL GABLES, FL, 33146",116013835,"L"
710100,"5311 MARIGOLD DRIVE","CASTALIA","OH",44824,41.3749845780001,-82.816651687,100,"5311 MARIGOLD DRIVE, CASTALIA, OH, 44824","Match","Exact","5311 MARIGOLD DR, CASTALIA, OH, 44824",55332947,"R"
710101,"5311 MCDOWELL STREET","NORTON SHORES","MI",49441,43.1564743690001,-86.277550764,101,"5311 MCDOWELL STREET, NORTON SHORES, MI, 49441","Match","Exact","5311 MCDOWELL ST, NORTON SHORES, MI, 49441",77652918,"R"
710102,"5311 MCDOWELL","NORTON SHORES","MI",49441,43.1564743690001,-86.277550764,102,"5311 MCDOWELL, NORTON SHORES, MI, 49441","Match","Non_Exact","5311 MCDOWELL ST, NORTON SHORES, MI, 49441",77652918,"R"
710103,"5311 MERLIN","SAN ANTONIO","TX",78218,29.5003800750001,-98.387643509,103,"5311 MERLIN, SAN ANTONIO, TX, 78218","Match","Non_Exact","5311 MERLIN DR, SAN ANTONIO, TX, 78218",101542479,"L"
710104,"5311 MILLSTONE COURT","BELMONT","NC",28012,35.208449129,-81.025677151,104,"5311 MILLSTONE COURT, BELMONT, NC, 28012","Match","Exact","5311 MILLSTONE CT, BELMONT, NC, 28012",70415842,"L"
710105,"5311 MILLSTONE CT","BELMONT","NC",28012,35.208449129,-81.025677151,105,"5311 MILLSTONE CT, BELMONT, NC, 28012","Match","Exact","5311 MILLSTONE CT, BELMONT, NC, 28012",70415842,"L"
710106,"5311 MISSION CIR","GRANBURY","TX",76049,NA,NA,106,"5311 MISSION CIR, GRANBURY, TX, 76049","Tie",NA,NA,NA,NA
710107,"5311 N 44TH LANE","MCALLEN","TX",78504,26.2561035580001,-98.261922249,107,"5311 N 44TH LANE, MCALLEN, TX, 78504","Match","Exact","5311 N 44TH LN, MCALLEN, TX, 78504",623851997,"R"
710108,"5311 N CLARK ST APT 3S","CHICAGO","IL",60640,41.978387308,-87.668323508,108,"5311 N CLARK ST APT 3S, CHICAGO, IL, 60640","Match","Non_Exact","5311 N CLARK ST, CHICAGO, IL, 60640",111761223,"R"
710109,"5311 N GLENWOOD AVENUE","CHICAGO","IL",60640,41.9784439160001,-87.664799573,109,"5311 N GLENWOOD AVENUE, CHICAGO, IL, 60640","Match","Exact","5311 N GLENWOOD AVE, CHICAGO, IL, 60640",111761422,"R"
710110,"5311 NE 15TH AVE","PORTLAND","OR",97211,45.561709126,-122.649698966,110,"5311 NE 15TH AVE, PORTLAND, OR, 97211","Match","Exact","5311 NE 15TH AVE, PORTLAND, OR, 97211",157505611,"L"
710111,"5311 NORTH TUTHILL ROAD","LITCHFIELD PARK","AZ",85340,33.521891354,-112.496523407,111,"5311 NORTH TUTHILL ROAD, LITCHFIELD PARK, AZ, 85340","Match","Exact","5311 N TUTHILL RD, LITCHFIELD PARK, AZ, 85340",128165592,"L"
710112,"5311 NORTHFIELD RD  416","BEDFORD HTS","OH",44146,41.411354359,-81.527327252,112,"5311 NORTHFIELD RD  416, BEDFORD HTS, OH, 44146","Match","Exact","5311 NORTHFIELD RD, BEDFORD HEIGHTS, OH, 44146",613728958,"L"
710113,"5311 NORTHFIELD ROAD STE 309","BEDFORD HTS","OH",44146,41.411354359,-81.527327252,113,"5311 NORTHFIELD ROAD STE 309, BEDFORD HTS, OH, 44146","Match","Exact","5311 NORTHFIELD RD, BEDFORD HEIGHTS, OH, 44146",613728958,"L"
710114,"5311 NW 131ST AVE","PORTLAND","OR",97229,45.5577201450001,-122.812098968,114,"5311 NW 131ST AVE, PORTLAND, OR, 97229","Match","Exact","5311 NW 131ST AVE, PORTLAND, OR, 97229",617830750,"L"
710115,"5311 OJIBWAY AVE N","OAK PARK HEIGHTS","MN",55082,45.0262925860001,-92.818137694,115,"5311 OJIBWAY AVE N, OAK PARK HEIGHTS, MN, 55082","Match","Exact","5311 OJIBWAY AVE N, OAK PARK HEIGHTS, MN, 55082",97798503,"L"
710116,"5311 OSAGE ROAD","WATERLOO","IA",50703,42.4834690480001,-92.232354303,116,"5311 OSAGE ROAD, WATERLOO, IA, 50703","Match","Exact","5311 OSAGE RD, WATERLOO, IA, 50703",641380722,"L"
710117,"5311 PALISADES DR","CINCINNATI","OH",45238,39.084970179,-84.619921236,117,"5311 PALISADES DR, CINCINNATI, OH, 45238","Match","Exact","5311 PALISADES DR, CINCINNATI, OH, 45238",103961943,"L"
710118,"5311 PANORAMA TERR","PANORA","IA",50216,41.7120983400001,-94.3710818009999,118,"5311 PANORAMA TERR, PANORA, IA, 50216","Match","Exact","5311 PANORAMA TER, PANORA, IA, 50216",68673721,"L"
710119,"5311 PARKLINE DRIVE","COLUMBUS","OH",43232,39.9146234030001,-82.8544521749999,119,"5311 PARKLINE DRIVE, COLUMBUS, OH, 43232","Match","Exact","5311 PARKLINE DR, COLUMBUS, OH, 43232",218645382,"R"
710120,"5311 PLUMRIDGE DR","CINCINNATI","OH",45238,39.105772443,-84.6184677699999,120,"5311 PLUMRIDGE DR, CINCINNATI, OH, 45238","Match","Exact","5311 PLUMRIDGE DR, CINCINNATI, OH, 45238",103918491,"L"
710121,"5311 PROVIDENCE DRIVE","MATTESON","IL",60443,41.518027031,-87.745448301,121,"5311 PROVIDENCE DRIVE, MATTESON, IL, 60443","Match","Exact","5311 PROVIDENCE DR, MATTESON, IL, 60443",112387246,"L"
710122,"5311 RAINBOW RIDGE COURT","ROCKFORD","MI",49341,43.112761983,-85.5390324689999,122,"5311 RAINBOW RIDGE COURT, ROCKFORD, MI, 49341","Match","Non_Exact","5311 RAINBOW RIDGE CT NE, ROCKFORD, MI, 49341",12524505,"L"
710123,"5311 RHODA LANE","WILLIAMSBURG","VA",23188,37.2813004820001,-76.736169482,123,"5311 RHODA LANE, WILLIAMSBURG, VA, 23188","Match","Exact","5311 RHODA LN, WILLIAMSBURG, VA, 23188",651921107,"L"
710124,"5311 RIVIERA CT","COLLEGE STATION","TX",77845,30.5547804180001,-96.232734196,124,"5311 RIVIERA CT, COLLEGE STATION, TX, 77845","Match","Exact","5311 RIVIERA CT, COLLEGE STATION, TX, 77845",627304532,"L"
710125,"5311 S COLUMBIA PL","TULSA","OK",74105,36.0859412550001,-95.950702846,125,"5311 S COLUMBIA PL, TULSA, OK, 74105","Match","Exact","5311 S COLUMBIA PL, TULSA, OK, 74105",166444440,"L"
710126,"5311 S FM 441 RD","LOUISE","TX",77455,29.08528506,-96.324705717,126,"5311 S FM 441 RD, LOUISE, TX, 77455","Match","Exact","5311 S FM 441 RD, LOUISE, TX, 77455",42513542,"R"
710127,"5311 S HOLT AVE","LOS ANGELES","CA",90056,33.993876062,-118.372940955,127,"5311 S HOLT AVE, LOS ANGELES, CA, 90056","Match","Exact","5311 S HOLT AVE, LOS ANGELES, CA, 90056",142444760,"R"
710128,"5311 SPRINGLAKE WAY","BALTIMORE","MD",21212,39.359712437,-76.616243004,128,"5311 SPRINGLAKE WAY, BALTIMORE, MD, 21212","Match","Exact","5311 SPRINGLAKE WAY, BALTIMORE, MD, 21212",206407959,"R"
710129,"5311 STIRRUP STREET","LAS VEGAS","NV",89119,36.0923898520001,-115.12332724,129,"5311 STIRRUP STREET, LAS VEGAS, NV, 89119","Match","Exact","5311 STIRRUP ST, LAS VEGAS, NV, 89119",201872933,"R"
710130,"5311 STONINGTON AVE","BALTIMORE","MD",21207,NA,NA,130,"5311 STONINGTON AVE, BALTIMORE, MD, 21207","No_Match",NA,NA,NA,NA
710131,"5311 TATTERSHALL AVENUE","WESTMINSTER","CA",92683,33.7582448570001,-118.037151329,131,"5311 TATTERSHALL AVENUE, WESTMINSTER, CA, 92683","Match","Exact","5311 TATTERSHALL AVE, WESTMINSTER, CA, 92683",144003884,"L"
710132,"5311 TEAL WAY","BAYTOWN","TX",77523,29.810442632,-94.841721553,132,"5311 TEAL WAY, BAYTOWN, TX, 77523","Match","Exact","5311 TEAL WAY, BAYTOWN, TX, 77523",627348814,"R"
710133,"5311 TIMBERDALE AVE","MEMPHIS","TN",38135,35.2249057670001,-89.885552118,133,"5311 TIMBERDALE AVE, MEMPHIS, TN, 38135","Match","Exact","5311 TIMBERDALE AVE, MEMPHIS, TN, 38135",72957479,"R"
710134,"5311 TOWNSHIP ROAD 137","TIFFIN","OH",44833,NA,NA,134,"5311 TOWNSHIP ROAD 137, TIFFIN, OH, 44833","No_Match",NA,NA,NA,NA
710135,"5311 W TUCANNON AVE","KENNEWICK","WA",99336,46.226145827,-119.192028626,135,"5311 W TUCANNON AVE, KENNEWICK, WA, 99336","Match","Exact","5311 W TUCANNON AVE, KENNEWICK, WA, 99336",638805116,"L"
710136,"5311 WHITFIELD CHAPEL ROAD","LANHAM","MD",20706,38.952098634,-76.856360079,136,"5311 WHITFIELD CHAPEL ROAD, LANHAM, MD, 20706","Match","Exact","5311 WHITFIELD CHAPEL RD, LANHAM, MD, 20706",76309712,"R"
710137,"5311 WINDRIDGE LN","ORLANDO","FL",32810,28.6264447630001,-81.443505751,137,"5311 WINDRIDGE LN, ORLANDO, FL, 32810","Match","Exact","5311 WINDRIDGE LN, ORLANDO, FL, 32810",94269213,"L"
710138,"53111 VALDEZ LANE","PASCO","WA",99301,NA,NA,138,"53111 VALDEZ LANE, PASCO, WA, 99301","No_Match",NA,NA,NA,NA
710139,"53113 TROPICAL STREET","LAKE ELSINORE","CA",92532,33.7082583500001,-117.300832595,139,"53113 TROPICAL STREET, LAKE ELSINORE, CA, 92532","Match","Exact","53113 TROPICAL ST, LAKE ELSINORE, CA, 92532",633956204,"R"
710140,"5312 12TH AVENUE SOUTH","MINNEAPOLIS","MN",55417,44.906737822,-93.2575640859999,140,"5312 12TH AVENUE SOUTH, MINNEAPOLIS, MN, 55417","Match","Exact","5312 12TH AVE S, MINNEAPOLIS, MN, 55417",43635048,"R"
710141,"5312 143RD AVENUE SE","BELLEVUE","WA",98006,47.5545495970001,-122.150852179,141,"5312 143RD AVENUE SE, BELLEVUE, WA, 98006","Match","Exact","5312 143RD AVE SE, BELLEVUE, WA, 98006",186615211,"R"
710142,"5312 2 STREET NW","WASHINGTON","DC",20011,38.954688882,-77.013583368,142,"5312 2 STREET NW, WASHINGTON, DC, 20011","Match","Exact","5312 2ND ST NW, WASHINGTON, DC, 20011",76223782,"L"
710143,"5312 ASILOMAR COURT","UNION CITY","CA",94587,37.5773129520001,-122.081650185,143,"5312 ASILOMAR COURT, UNION CITY, CA, 94587","Match","Exact","5312 ASILOMAR CT, UNION CITY, CA, 94587",125076504,"R"
710144,"5312 BARDOT CIRCLE","RICHMOND","VA",23225,NA,NA,144,"5312 BARDOT CIRCLE, RICHMOND, VA, 23225","No_Match",NA,NA,NA,NA
710145,"5312 BATTLE RUN DRIVE","CATAWBA","NC",28609,35.6549285720001,-81.0774465759999,145,"5312 BATTLE RUN DRIVE, CATAWBA, NC, 28609","Match","Exact","5312 BATTLE RUN DR, CATAWBA, NC, 28609",45927488,"L"
710146,"5312 BEAVERTON DR","MEMPHIS","TN",38127,35.270998859,-90.037917667,146,"5312 BEAVERTON DR, MEMPHIS, TN, 38127","Match","Exact","5312 BEAVERTON DR, MEMPHIS, TN, 38127",72897125,"R"
710147,"5312 BEXAR","DALLAS","TX",75215,32.7494895740001,-96.753385381,147,"5312 BEXAR, DALLAS, TX, 75215","Match","Non_Exact","5312 BEXAR ST, DALLAS, TX, 75215",102955970,"L"
710148,"5312 BLEECKER STREET","VIRGINIA BEACH","VA",23462,36.8417915790001,-76.1671825,148,"5312 BLEECKER STREET, VIRGINIA BEACH, VA, 23462","Match","Exact","5312 BLEECKER ST, VA BCH, VA, 23462",646585283,"R"
710149,"5312 BRIERCLIFF DRIVE","HAMBURG","NY",14075,42.740091168,-78.896974808,149,"5312 BRIERCLIFF DRIVE, HAMBURG, NY, 14075","Match","Exact","5312 BRIERCLIFF DR, HAMBURG, NY, 14075",641423073,"L"
710150,"5312 CARLISLE ST","PHILADELPHIA","PA",19140,NA,NA,150,"5312 CARLISLE ST, PHILADELPHIA, PA, 19140","No_Match",NA,NA,NA,NA
710151,"5312 CARTWRIGHT AVE SUITE 8","NORTH HOLLYWOOD","CA",91601,34.1668724200001,-118.363167976,151,"5312 CARTWRIGHT AVE SUITE 8, NORTH HOLLYWOOD, CA, 91601","Match","Exact","5312 CARTWRIGHT AVE, N HOLLYWOOD, CA, 91601",642865379,"R"
710152,"5312 DORCHESTER RD","GREENSBORO","NC",27407,36.012579348,-79.882219504,152,"5312 DORCHESTER RD, GREENSBORO, NC, 27407","Match","Exact","5312 DORCHESTER RD, GREENSBORO, NC, 27407",131043867,"R"
710153,"5312 DUTCHER ROAD","HOWELL","MI",48843,42.5194207810001,-84.028581511,153,"5312 DUTCHER ROAD, HOWELL, MI, 48843","Match","Exact","5312 DUTCHER RD, HOWELL, MI, 48843",23574972,"L"
710154,"5312 E COMMERCE AVE","SPOKANE","WA",99212,47.6756994690001,-117.331182379,154,"5312 E COMMERCE AVE, SPOKANE, WA, 99212","Match","Exact","5312 E COMMERCE AVE, SPOKANE, WA, 99212",189884326,"R"
710155,"5312 FRANKLIN GOLDMINE ROAD","CUMMING","GA",30028,NA,NA,155,"5312 FRANKLIN GOLDMINE ROAD, CUMMING, GA, 30028","No_Match",NA,NA,NA,NA
710156,"5312 FREDELIA DRIVE","TOLEDO","OH",43623,41.711902792,-83.648318154,156,"5312 FREDELIA DRIVE, TOLEDO, OH, 43623","Match","Exact","5312 FREDELIA DR, TOLEDO, OH, 43623",33952569,"R"
710157,"5312 GERMANTOWN AVENUE","PHILADELPHIA","PA",19119,40.032205693,-75.169015902,157,"5312 GERMANTOWN AVENUE, PHILADELPHIA, PA, 19119","Match","Non_Exact","5312 GERMANTOWN AVE, PHILADELPHIA, PA, 19144",639164075,"L"
710158,"5312 GERMANTOWN AVENUE","PHILADELPHIA","PA",19144,40.032205693,-75.169015902,158,"5312 GERMANTOWN AVENUE, PHILADELPHIA, PA, 19144","Match","Exact","5312 GERMANTOWN AVE, PHILADELPHIA, PA, 19144",639164075,"L"
710159,"5312 GLENWICK LN","DALLAS","TX",75209,32.847226178,-96.820840511,159,"5312 GLENWICK LN, DALLAS, TX, 75209","Match","Exact","5312 GLENWICK LN, DALLAS, TX, 75209",103201861,"R"
710160,"5312 HICKORY GROVE RD","STANLEY","NC",28164,35.3373561390001,-81.091896398,160,"5312 HICKORY GROVE RD, STANLEY, NC, 28164","Match","Exact","5312 HICKORY GROVE RD, STANLEY, NC, 28164",70457997,"R"
710161,"5312 HIGH POINT DRIVE","SAN ANGELO","TX",76904,31.411079515,-100.488845069,161,"5312 HIGH POINT DRIVE, SAN ANGELO, TX, 76904","Match","Exact","5312 HIGH POINT DR, SAN ANGELO, TX, 76904",190680551,"L"
710162,"5312 IDAHO AVE E","FORT LEWIS","WA",98433,47.0969668400001,-122.605265515,162,"5312 IDAHO AVE E, FORT LEWIS, WA, 98433","Match","Non_Exact","5312 IDAHO AVE, FORT LEWIS, WA, 98433",184691015,"L"
710163,"5312 JACKSON","PASCO","WA",99301,46.2755474240001,-119.161174293,163,"5312 JACKSON, PASCO, WA, 99301","Match","Non_Exact","5312 JACKSON LN, PASCO, WA, 99301",643453068,"L"
710164,"5312 JOHN REYNOLDS DRIVE","JACKSONVILLE","FL",32277,30.365855943,-81.612653479,164,"5312 JOHN REYNOLDS DRIVE, JACKSONVILLE, FL, 32277","Match","Exact","5312 JOHN REYNOLDS DR, JACKSONVILLE, FL, 32277",83898512,"R"
710165,"5312 KENSINGTON LN","CROSS LANES","WV",25313,38.4287308720001,-81.790503929,165,"5312 KENSINGTON LN, CROSS LANES, WV, 25313","Match","Exact","5312 KENSINGTON LN, CROSS LANES, WV, 25313",78584457,"R"
710166,"5312 LAUREL POINTE DR","VALRICO","FL",33596,27.8899404970001,-82.207060185,166,"5312 LAUREL POINTE DR, VALRICO, FL, 33596","Match","Exact","5312 LAUREL POINTE DR, VALRICO, FL, 33596",104592144,"L"
710167,"5312 LONG ROAD APT B","ORLANDO","FL",32808,28.609955697,-81.434682451,167,"5312 LONG ROAD APT B, ORLANDO, FL, 32808","Match","Exact","5312 LONG RD, ORLANDO, FL, 32808",94303928,"L"
710168,"5312 LOTTIE LANE","EL PASO","TX",79932,31.8528236110001,-106.617248267,168,"5312 LOTTIE LANE, EL PASO, TX, 79932","Match","Exact","5312 LOTTIE LN, EL PASO, TX, 79932",189379777,"L"
710169,"5312 MACCHONANCHY STREET","VIRGINIA BEACH","VA",23464,36.7811609170001,-76.17009014,169,"5312 MACCHONANCHY STREET, VIRGINIA BEACH, VA, 23464","Match","Exact","5312 MACCHONANCHY ST, VA BCH, VA, 23464",122301056,"L"
710170,"5312 MCBETH CT","TAMPA","FL",33624,28.0647561480001,-82.534231787,170,"5312 MCBETH CT, TAMPA, FL, 33624","Match","Non_Exact","5312 MACBETH CT, TAMPA, FL, 33624",104699784,"R"
710171,"5312 N 45TH ST","TACOMA","WA",98407,47.2897958120001,-122.508034577,171,"5312 N 45TH ST, TACOMA, WA, 98407","Match","Exact","5312 N 45TH ST, TACOMA, WA, 98407",184643709,"L"
710172,"5312 N MAGNOLIA AVE","CHICAGO","IL",60640,41.9784657820001,-87.661206383,172,"5312 N MAGNOLIA AVE, CHICAGO, IL, 60640","Match","Exact","5312 N MAGNOLIA AVE, CHICAGO, IL, 60640",111761445,"L"
710173,"5312 N WINTHROP AVE  UNIT 4S","CHICAGO","IL",60640,41.978518029,-87.657877916,173,"5312 N WINTHROP AVE  UNIT 4S, CHICAGO, IL, 60640","Match","Non_Exact","5312 N WINTHROP AVE, CHICAGO, IL, 60640",111761488,"L"
710174,"5312 N WINTHROP AVE NO 1S","CHICAGO","IL",60640,NA,NA,174,"5312 N WINTHROP AVE NO 1S, CHICAGO, IL, 60640","No_Match",NA,NA,NA,NA
710175,"5312 NELSON STREET","SACRAMENTO","CA",95820,38.5271584820001,-121.430353822,175,"5312 NELSON STREET, SACRAMENTO, CA, 95820","Match","Exact","5312 NELSON ST, SACRAMENTO, CA, 95820",133337003,"R"
710176,"5312 OAK GLADE LANE","KNOXVILLE","TN",37918,36.0650480690001,-83.894739559,176,"5312 OAK GLADE LANE, KNOXVILLE, TN, 37918","Match","Exact","5312 OAK GLADE LN, KNOXVILLE, TN, 37918",42655864,"L"
710177,"5312 OAK GLADE LN","KNOXVILLE","TN",37918,36.0650480690001,-83.894739559,177,"5312 OAK GLADE LN, KNOXVILLE, TN, 37918","Match","Exact","5312 OAK GLADE LN, KNOXVILLE, TN, 37918",42655864,"L"
710178,"5312 OHIO STREET","SOUTH CHARLESTON","WV",25309,38.3522606990001,-81.740817232,178,"5312 OHIO STREET, SOUTH CHARLESTON, WV, 25309","Match","Exact","5312 OHIO ST, S CHARLESTON, WV, 25309",78586736,"R"
710179,"5312 RIDGEVIEW CIRCLE","EL SORANTE","CA",94803,37.9591857890001,-122.286372374,179,"5312 RIDGEVIEW CIRCLE, EL SORANTE, CA, 94803","Match","Non_Exact","5312 RIDGEVIEW CIR, EL SOBRANTE, CA, 94803",192042807,"R"
710180,"5312 S NEWLAND AVE","CHICAGO","IL",60638,41.795518945,-87.795335128,180,"5312 S NEWLAND AVE, CHICAGO, IL, 60638","Match","Exact","5312 S NEWLAND AVE, CHICAGO, IL, 60638",111796315,"R"
710181,"5312 SENDERO DRIVE","FORT WORTH","TX",76126,32.693857286,-97.462385624,181,"5312 SENDERO DRIVE, FORT WORTH, TX, 76126","Match","Exact","5312 SENDERO DR, FORT WORTH, TX, 76126",642822357,"R"
710182,"5312 SIDNEY LN","LAS VEGAS","NM",87701,35.6508185330001,-105.247393633,182,"5312 SIDNEY LN, LAS VEGAS, NM, 87701","Match","Non_Exact","5312 SYDNEY LN, LAS VEGAS, NM, 87701",169012852,"L"
710183,"5312 SIESTA COURT","SARASOTA","FL",34242,27.27308829,-82.545696886,183,"5312 SIESTA COURT, SARASOTA, FL, 34242","Match","Exact","5312 SIESTA CT, SARASOTA, FL, 34242",16348990,"L"
710184,"5312 SIX FORKS RD STE 301","RALEIGH","NC",27609,35.854594687,-78.6421266249999,184,"5312 SIX FORKS RD STE 301, RALEIGH, NC, 27609","Match","Exact","5312 SIX FORKS RD, RALEIGH, NC, 27609",72505526,"R"
710185,"5312 SOUTH FARMHOUSE PLACE","BOISE","ID",83716,43.5535921960001,-116.120022477,185,"5312 SOUTH FARMHOUSE PLACE, BOISE, ID, 83716","Match","Exact","5312 S FARMHOUSE PL, BOISE, ID, 83716",117884335,"R"
710186,"5312 SOUTH WALNUT STREET","MUNCIE","IN",47302,40.145822314,-85.3791042239999,186,"5312 SOUTH WALNUT STREET, MUNCIE, IN, 47302","Match","Exact","5312 S WALNUT ST, MUNCIE, IN, 47302",641434422,"L"
710187,"5312 SOUTHWEST AVENUE","SAINT LOUIS","MO",63139,38.61088721,-90.2759026149999,187,"5312 SOUTHWEST AVENUE, SAINT LOUIS, MO, 63139","Match","Exact","5312 SOUTHWEST AVE, SAINT LOUIS, MO, 63139",107594737,"L"
710188,"5312 SUMMER ROSE BLVD","KNOXVILLE","TN",37918,36.055767975,-83.881419115,188,"5312 SUMMER ROSE BLVD, KNOXVILLE, TN, 37918","Match","Exact","5312 SUMMER ROSE BLVD, KNOXVILLE, TN, 37918",631012436,"L"
710189,"5312 SWINDLE ROAD","WHITES CREEK","TN",37189,36.301067914,-86.855026531,189,"5312 SWINDLE ROAD, WHITES CREEK, TN, 37189","Match","Exact","5312 SWINDLE RD, WHITES CREEK, TN, 37189",97212816,"R"
710190,"5312 TRAMORE AVE","BALTIMORE","MD",21214,39.3538312470001,-76.5679017269999,190,"5312 TRAMORE AVE, BALTIMORE, MD, 21214","Match","Non_Exact","5312 TRAMORE RD, BALTIMORE, MD, 21214",206433101,"L"
710191,"5312 TRAMORE ROAD","BALTIMORE","MD",21214,39.3538312470001,-76.5679017269999,191,"5312 TRAMORE ROAD, BALTIMORE, MD, 21214","Match","Exact","5312 TRAMORE RD, BALTIMORE, MD, 21214",206433101,"L"
710192,"5312 UNAKA AVE","CHARLOTTE","NC",28205,35.1945186510001,-80.770489622,192,"5312 UNAKA AVE, CHARLOTTE, NC, 28205","Match","Exact","5312 UNAKA AVE, CHARLOTTE, NC, 28205",70491946,"R"
710193,"5312 W 64TH ST","EDINA","MN",55439,44.8870139650001,-93.359416298,193,"5312 W 64TH ST, EDINA, MN, 55439","Match","Exact","5312 W 64TH ST, EDINA, MN, 55439",43627092,"R"
710194,"5312 WEST GLADYS","CHICAGO","IL",60644,41.875723194,-87.758057749,194,"5312 WEST GLADYS, CHICAGO, IL, 60644","Match","Non_Exact","5312 W GLADYS AVE, CHICAGO, IL, 60644",111754883,"R"
710195,"5312 WYNTERHALL DRIVE","DUNWOODY","GA",30338,33.9547392760001,-84.341592027,195,"5312 WYNTERHALL DRIVE, DUNWOODY, GA, 30338","Match","Exact","5312 WYNTERHALL DR, DUNWOODY, GA, 30338",23377061,"L"
710196,"53120 AVENIDA MENDOZA","LA QUINTA","CA",92253,33.6625800520001,-116.306251036,196,"53120 AVENIDA MENDOZA, LA QUINTA, CA, 92253","Match","Exact","53120 AVE MENDOZA, LA QUINTA, CA, 92253",194774707,"L"
710197,"53120 ST RT 681","REEDSVILLE","OH",45772,39.145156758,-81.7868849829999,197,"53120 ST RT 681, REEDSVILLE, OH, 45772","Match","Non_Exact","53120 STATE RTE 681, REEDSVILLE, OH, 45772",101268162,"R"
710198,"53121 COOK ROAD","LORANGER","LA",70446,30.6242563910001,-90.415250219,198,"53121 COOK ROAD, LORANGER, LA, 70446","Match","Exact","53121 COOK RD, LORANGER, LA, 70446",75762462,"L"
710199,"5313 144TH PL SW","EDMONDS","WA",98026,47.86759017,-122.305944578,199,"5313 144TH PL SW, EDMONDS, WA, 98026","Match","Exact","5313 144TH PL SW, EDMONDS, WA, 98026",187753303,"R"
710200,"5313 ARCHSTONE DR  APT 203","TAMPA","FL",33635,27.9941623610001,-82.556161577,200,"5313 ARCHSTONE DR  APT 203, TAMPA, FL, 33635","Match","Non_Exact","5313 ARCHSTONE DR, TAMPA, FL, 33634",104703218,"L"
710201,"5313 BASS PLACE SE","WASHINGTON","DC",20020,38.8853228130001,-76.925587768,201,"5313 BASS PLACE SE, WASHINGTON, DC, 20020","Match","Non_Exact","5313 BASS PL SE, WASHINGTON, DC, 20019",76234243,"R"
710202,"5313 BAY LAGOON CIR","ORLANDO","FL",32819,28.4870646970001,-81.484499568,202,"5313 BAY LAGOON CIR, ORLANDO, FL, 32819","Match","Exact","5313 BAY LAGOON CIR, ORLANDO, FL, 32819",94333398,"L"
710203,"5313 BENT CREEK DR","OKLAHOMA CITY","OK",73135,35.4123876800001,-97.424270583,203,"5313 BENT CREEK DR, OKLAHOMA CITY, OK, 73135","Match","Exact","5313 BENT CREEK DR, OKLAHOMA CITY, OK, 73135",100449812,"R"
710204,"5313 BENTGRASS RUN DR","CHARLOTTE","NC",28269,35.3853287110001,-80.76697164,204,"5313 BENTGRASS RUN DR, CHARLOTTE, NC, 28269","Match","Exact","5313 BENTGRASS RUN DR, CHARLOTTE, NC, 28269",70545283,"R"
710205,"5313 BLUFF VIEW DR","INDIANAPOLIS","IN",46217,39.687950637,-86.1820588739999,205,"5313 BLUFF VIEW DR, INDIANAPOLIS, IN, 46217","Match","Exact","5313 BLUFF VIEW DR, INDIANAPOLIS, IN, 46217",636515709,"L"
710206,"5313 BRADBURY CT","TAMPA","FL",33624,28.079060192,-82.540601097,206,"5313 BRADBURY CT, TAMPA, FL, 33624","Match","Exact","5313 BRADBURY CT, TAMPA, FL, 33624",104563254,"R"
710207,"5313 BRIARHILL DRIVE","CINCINNATI","OH",45238,39.0907032900001,-84.6195234749999,207,"5313 BRIARHILL DRIVE, CINCINNATI, OH, 45238","Match","Exact","5313 BRIARHILL DR, CINCINNATI, OH, 45238",103918658,"L"
710208,"5313 CHARLESTOWN RD","MERCERSBURG","PA",17236,39.844403458,-77.9386611849999,208,"5313 CHARLESTOWN RD, MERCERSBURG, PA, 17236","Match","Exact","5313 CHARLESTOWN RD, MERCERSBURG, PA, 17236",647521169,"L"
710209,"5313 CIRCITA DEL SUR","SANTA FE","NM",87507,35.640740415,-106.028273745,209,"5313 CIRCITA DEL SUR, SANTA FE, NM, 87507","Match","Exact","5313 CIRCITA DEL SUR, SANTA FE, NM, 87507",624884854,"R"
710210,"5313 CO RD 14","FLAT ROCK","AL",35966,34.857125781,-85.727897142,210,"5313 CO RD 14, FLAT ROCK, AL, 35966","Match","Exact","5313 CO RD 14, FLAT ROCK, AL, 35966",58032316,"R"
710211,"5313 COMMONS CT","VIRGINIA BEACH","VA",23462,36.8358909310001,-76.1684066129999,211,"5313 COMMONS CT, VIRGINIA BEACH, VA, 23462","Match","Exact","5313 COMMONS CT, VA BCH, VA, 23462",122262954,"L"
710212,"5313 COMMONS CT","VIRGINIA","VA",23462,36.8358909310001,-76.1684066129999,212,"5313 COMMONS CT, VIRGINIA, VA, 23462","Match","Non_Exact","5313 COMMONS CT, VAB, VA, 23462",122262954,"L"
710213,"5313 COOPER LANE","PLAIN CITY","OH",43064,40.1007859950001,-83.275628855,213,"5313 COOPER LANE, PLAIN CITY, OH, 43064","Match","Exact","5313 COOPER LN, PLAIN CITY, OH, 43064",613750316,"R"
710214,"5313 CR 7560","LUBBOCK","TX",79424,33.450491675,-101.925856714,214,"5313 CR 7560, LUBBOCK, TX, 79424","Match","Exact","5313 CO RD 7560, LUBBOCK, TX, 79424",185331084,"R"
710215,"5313 DIVIDEND DR","DECATUR","GA",30035,33.71643735,-84.17119259,215,"5313 DIVIDEND DR, DECATUR, GA, 30035","Match","Exact","5313 DIVIDEND DR, DECATUR, GA, 30035",23375057,"L"
710216,"5313 DOVER RD","APPLE CREEK","OH",44606,40.756741705,-81.8699114889999,216,"5313 DOVER RD, APPLE CREEK, OH, 44606","Match","Exact","5313 DOVER RD, APPLE CREEK, OH, 44606",58761074,"L"
710217,"5313 EDGER DRIVE","CINCINNATI","OH",45239,39.1834430050001,-84.5826765159999,217,"5313 EDGER DRIVE, CINCINNATI, OH, 45239","Match","Exact","5313 EDGER DR, CINCINNATI, OH, 45239",103948622,"R"
710218,"5313 ESPLANADE PARK CIRCLE APT 5207","ORLANDO","FL",32839,28.484480795,-81.404630309,218,"5313 ESPLANADE PARK CIRCLE APT 5207, ORLANDO, FL, 32839","Match","Exact","5313 ESPLANADE PARK CIR, ORLANDO, FL, 32839",640891019,"L"
710219,"5313 FIRESIDE DR","RALEIGH","NC",27609,35.8538317840001,-78.6164481819999,219,"5313 FIRESIDE DR, RALEIGH, NC, 27609","Match","Exact","5313 FIRESIDE DR, RALEIGH, NC, 27609",72595904,"R"
710220,"5313 GILLESPIE STREET - APT 1","PHILADELPHIA","PA",19124,40.0170739210001,-75.068758046,220,"5313 GILLESPIE STREET - APT 1, PHILADELPHIA, PA, 19124","Match","Exact","5313 GILLESPIE ST, PHILADELPHIA, PA, 19124",131428884,"R"
710221,"5313 GILLESPIE STREET","PHILADELPHIA","PA",19124,40.0170739210001,-75.068758046,221,"5313 GILLESPIE STREET, PHILADELPHIA, PA, 19124","Match","Exact","5313 GILLESPIE ST, PHILADELPHIA, PA, 19124",131428884,"R"
710222,"5313 HERITAGE DR","LAFAYETTE","IN",47905,40.4202395030001,-86.803066389,222,"5313 HERITAGE DR, LAFAYETTE, IN, 47905","Match","Exact","5313 HERITAGE DR, LAFAYETTE, IN, 47905",27310133,"L"
710223,"5313 INTERLACHEN BLVD","EDINA","MN",55436,44.913302608,-93.358604037,223,"5313 INTERLACHEN BLVD, EDINA, MN, 55436","Match","Exact","5313 INTERLACHEN BLVD, EDINA, MN, 55436",43626238,"L"
710224,"5313 LAKE SHASTINA DR","WEED","CA",96094,41.524577349,-122.376665972,224,"5313 LAKE SHASTINA DR, WEED, CA, 96094","Match","Exact","5313 LAKE SHASTINA DR, WEED, CA, 96094",113231388,"R"
710225,"5313 LAKE SHASTINA DRIVE","WEED","CA",96094,41.524577349,-122.376665972,225,"5313 LAKE SHASTINA DRIVE, WEED, CA, 96094","Match","Exact","5313 LAKE SHASTINA DR, WEED, CA, 96094",113231388,"R"
710226,"5313 LIBBEY AVENUE","FORT WORTH","TX",76107,32.7206562010001,-97.4010893769999,226,"5313 LIBBEY AVENUE, FORT WORTH, TX, 76107","Match","Exact","5313 LIBBEY AVE, FORT WORTH, TX, 76107",101880983,"L"
710227,"5313 LUV RD","PLATTSMOUTH","NE",68048,41.023987757,-95.9955497019999,227,"5313 LUV RD, PLATTSMOUTH, NE, 68048","Match","Exact","5313 LUV RD, PLATTSMOUTH, NE, 68048",10370674,"R"
710228,"5313 MABELVALE PIKE","LITTLE ROCK","AR",72209,34.701448296,-92.341525879,228,"5313 MABELVALE PIKE, LITTLE ROCK, AR, 72209","Match","Exact","5313 MABELVALE PIKE, LITTLE ROCK, AR, 72209",83512054,"L"
710229,"5313 MANILA AVE","OAKLAND","CA",94618,37.838419657,-122.252807352,229,"5313 MANILA AVE, OAKLAND, CA, 94618","Match","Exact","5313 MANILA AVE, OAKLAND, CA, 94618",124999411,"L"
710230,"5313 MARSHBURN AVE","ARCADIA","CA",91006,34.101559079,-118.023905901,230,"5313 MARSHBURN AVE, ARCADIA, CA, 91006","Match","Exact","5313 MARSHBURN AVE, ARCADIA, CA, 91006",241241566,"L"
710231,"5313 MURIEL DR","GLENDALE","AZ",85308,33.6453866160001,-112.173562427,231,"5313 MURIEL DR, GLENDALE, AZ, 85308","Match","Non_Exact","5313 W MURIEL DR, GLENDALE, AZ, 85308",128417581,"R"
710232,"5313 N TIMBER RIM","SPOKANE","WA",99213,NA,NA,232,"5313 N TIMBER RIM, SPOKANE, WA, 99213","No_Match",NA,NA,NA,NA
710233,"5313 NORTH COUNTY ROAD 11","FORT COLLINS","CO",80524,40.6620835190001,-105.038400284,233,"5313 NORTH COUNTY ROAD 11, FORT COLLINS, CO, 80524","Match","Exact","5313 N CO RD 11, FORT COLLINS, CO, 80524",188619411,"L"
710234,"5313 NW VISTA DRIVE","WOODLAND","WA",98674,45.897816972,-122.72479737,234,"5313 NW VISTA DRIVE, WOODLAND, WA, 98674","Match","Exact","5313 NW VISTA DR, WOODLAND, WA, 98674",158342200,"L"
710235,"5313 PAGEWOOD LANE","HOUSTON","TX",77056,29.7276734500001,-95.46866575,235,"5313 PAGEWOOD LANE, HOUSTON, TX, 77056","Match","Exact","5313 PAGEWOOD LN, HOUSTON, TX, 77056",96033290,"L"
710236,"5313 PLATA ROSA COURT","CAMARILLO","CA",93012,34.239222146,-118.998958689,236,"5313 PLATA ROSA COURT, CAMARILLO, CA, 93012","Match","Exact","5313 PLATA ROSA CT, CAMARILLO, CA, 93012",110053055,"R"
710237,"5313 REFLECTIONS BLVD","LUTZ","FL",33558,28.1617875250001,-82.528555475,237,"5313 REFLECTIONS BLVD, LUTZ, FL, 33558","Match","Exact","5313 REFLECTIONS BLVD, LUTZ, FL, 33558",649951008,"L"
710238,"5313 REIGER AVE APT C","DALLAS","TX",75214,32.7996265950001,-96.760528272,238,"5313 REIGER AVE APT C, DALLAS, TX, 75214","Match","Exact","5313 REIGER AVE, DALLAS, TX, 75214",102919875,"L"
710239,"5313 RIVERVIEW DR","ST AUGUSTINE","FL",32080,29.796794547,-81.270202814,239,"5313 RIVERVIEW DR, ST AUGUSTINE, FL, 32080","Match","Exact","5313 RIVERVIEW DR, SAINT AUGUSTINE, FL, 32080",92586388,"L"
710240,"5313 S MYRTLE LN","SPOKANE","WA",99223,47.605736022,-117.35156074,240,"5313 S MYRTLE LN, SPOKANE, WA, 99223","Match","Exact","5313 S MYRTLE LN, SPOKANE, WA, 99223",633828940,"L"
710241,"5313 S SAWYER AVE","CHICAGO","IL",60632,41.79681465,-87.7048653589999,241,"5313 S SAWYER AVE, CHICAGO, IL, 60632","Match","Exact","5313 S SAWYER AVE, CHICAGO, IL, 60632",111804362,"L"
710242,"5313 SPRING ARBOR ROAD","JACKSON","MI",49201,42.2256605370001,-84.4903161249999,242,"5313 SPRING ARBOR ROAD, JACKSON, MI, 49201","Match","Exact","5313 SPRING ARBOR RD, JACKSON, MI, 49201",17614514,"L"
710243,"5313 STUDELEY AVE","NORFOLK","VA",23508,36.892219412,-76.3138697379999,243,"5313 STUDELEY AVE, NORFOLK, VA, 23508","Match","Exact","5313 STUDELEY AVE, NORFOLK, VA, 23508",122144065,"L"
710244,"5313 VILLAGE PARK","BELLEVUE","WA",98006,NA,NA,244,"5313 VILLAGE PARK, BELLEVUE, WA, 98006","No_Match",NA,NA,NA,NA
710245,"5313 W 70TH TERRACE","PRAIRIE VILLAGE","KS",66208,39.001269989,-94.647488954,245,"5313 W 70TH TERRACE, PRAIRIE VILLAGE, KS, 66208","Match","Exact","5313 W 70TH TER, PRAIRIE VLG, KS, 66208",91278148,"L"
710246,"5313 W PINE AVE","FRESNO","CA",93722,36.761217441,-119.885701928,246,"5313 W PINE AVE, FRESNO, CA, 93722","Match","Exact","5313 W PINE AVE, FRESNO, CA, 93722",619127282,"R"
710247,"5313 W RICHERT","FRESNO","CA",93722,36.7968577620001,-119.886311983,247,"5313 W RICHERT, FRESNO, CA, 93722","Match","Non_Exact","5313 W RICHERT AVE, FRESNO, CA, 93722",639046467,"R"
710248,"5313 WAYNE ST APT A","RALEIGH","NC",27606,35.759971208,-78.725403032,248,"5313 WAYNE ST APT A, RALEIGH, NC, 27606","Match","Exact","5313 WAYNE ST, RALEIGH, NC, 27606",208360863,"L"
710249,"5313 WAYNE ST APT B","RALEIGH","NC",27606,35.759971208,-78.725403032,249,"5313 WAYNE ST APT B, RALEIGH, NC, 27606","Match","Exact","5313 WAYNE ST, RALEIGH, NC, 27606",208360863,"L"
710250,"53130 GRASSY KNOLL DR","SOUTH BEND","IN",46628,41.7208511750001,-86.365696025,250,"53130 GRASSY KNOLL DR, SOUTH BEND, IN, 46628","Match","Exact","53130 GRASSY KNOLL DR, SOUTH BEND, IN, 46628",616551181,"L"
710251,"53138 397TH ST","PAYNESVILLE","MN",56362,45.3229235480001,-94.7022147919999,251,"53138 397TH ST, PAYNESVILLE, MN, 56362","Match","Exact","53138 397TH ST, PAYNESVILLE, MN, 56362",36973335,"R"
710252,"5314 1/2 PACKARD STREET","LOS ANGELES","CA",90019,34.050042589,-118.352411594,252,"5314 1/2 PACKARD STREET, LOS ANGELES, CA, 90019","Match","Exact","5314 PACKARD ST, LOS ANGELES, CA, 90019",141599338,"L"
710253,"5314 19TH AVE W","BRADENTON","FL",34209,27.4826954640001,-82.6144406829999,253,"5314 19TH AVE W, BRADENTON, FL, 34209","Match","Exact","5314 19TH AVE W, BRADENTON, FL, 34209",16249849,"L"
710254,"5314 6 MILE RD","RACINE","WI",53402,42.81340119,-87.842952004,254,"5314 6 MILE RD, RACINE, WI, 53402","Match","Exact","5314 SIX MILE RD, RACINE, WI, 53402",77918779,"R"
710255,"5314 AMBROSE XING","IMPERIAL","MO",63052,38.3887465970001,-90.42106574,255,"5314 AMBROSE XING, IMPERIAL, MO, 63052","Match","Exact","5314 AMBROSE CROSSING, IMPERIAL, MO, 63052",647242182,"L"
710256,"5314 ARAPAHO LANE","ALEXANDRIA","VA",22312,38.8069898850001,-77.162988193,256,"5314 ARAPAHO LANE, ALEXANDRIA, VA, 22312","Match","Exact","5314 ARAPAHO LN, ALEXANDRIA, VA, 22312",76044240,"R"
710257,"5314 BENT TREE CT NE","CEDAR RAPIDS","IA",52411,42.0154551040001,-91.714359686,257,"5314 BENT TREE CT NE, CEDAR RAPIDS, IA, 52411","Match","Exact","5314 BENT TREE CT NE, CEDAR RAPIDS, IA, 52411",17038839,"R"
710258,"5314 CARIBBEAN PL","JONESBORO","AR",72401,35.779361097,-90.678089394,258,"5314 CARIBBEAN PL, JONESBORO, AR, 72401","Match","Non_Exact","5314 CARIBBEAN PL, JONESBORO, AR, 72404",46934035,"L"
710259,"5314 CLIPPER COVER","MIDLOTHIAN","VA",23112,NA,NA,259,"5314 CLIPPER COVER, MIDLOTHIAN, VA, 23112","No_Match",NA,NA,NA,NA
710260,"5314 CONNIE CIRCLE","MONTGOMERY","AL",36108,32.298841929,-86.343735889,260,"5314 CONNIE CIRCLE, MONTGOMERY, AL, 36108","Match","Exact","5314 CONNIE CIR, MONTGOMERY, AL, 36108",1474627,"R"
710261,"5314 COSMIC WAY","FAIRVIEW","PA",16415,42.043300695,-80.184053884,261,"5314 COSMIC WAY, FAIRVIEW, PA, 16415","Match","Exact","5314 COSMIC WAY, FAIRVIEW, PA, 16415",617261711,"R"
710262,"5314 COUNTY ROAD 32","NORWICH","NY",13815,42.499228622,-75.514505161,262,"5314 COUNTY ROAD 32, NORWICH, NY, 13815","Match","Exact","5314 CO RD 32, NORWICH, NY, 13815",46437344,"R"
710263,"5314 DOVES DRIVE","GODFREY","IL",62035,NA,NA,263,"5314 DOVES DRIVE, GODFREY, IL, 62035","No_Match",NA,NA,NA,NA
710264,"5314 DUNFRED CIRCLE SE","CANTON","OH",44707,40.7361939790001,-81.3676855269999,264,"5314 DUNFRED CIRCLE SE, CANTON, OH, 44707","Match","Exact","5314 DUNFRED CIR SE, CANTON, OH, 44707",64687125,"L"
710265,"5314 E HAMLIN PLACE","YUMA","AZ",85365,32.6399303920001,-114.542788434,265,"5314 E HAMLIN PLACE, YUMA, AZ, 85365","Match","Exact","5314 E HAMLIN PL, YUMA, AZ, 85365",631101964,"L"
710266,"5314 FLORADALE DRIVE","CROSS LANES","WV",25313,38.4356231950001,-81.7819202169999,266,"5314 FLORADALE DRIVE, CROSS LANES, WV, 25313","Match","Exact","5314 FLORADALE DR, CROSS LANES, WV, 25313",78617171,"R"
710267,"5314 GILLESPIE AVENUE","RICHMOND","VA",23228,37.601332363,-77.46321492,267,"5314 GILLESPIE AVENUE, RICHMOND, VA, 23228","Match","Exact","5314 GILLESPIE AVE, RICHMOND, VA, 23228",106677818,"L"
710268,"5314 GLASCOW CT","LOS ANGELES","CA",90045,33.97132012,-118.372613733,268,"5314 GLASCOW CT, LOS ANGELES, CA, 90045","Match","Non_Exact","5314 GLASGOW CT, LOS ANGELES, CA, 90045",141653588,"L"
710269,"5314 GLEN OAKS WAY","WEST DES MOINES","IA",50266,41.556808468,-93.7792578299999,269,"5314 GLEN OAKS WAY, WEST DES MOINES, IA, 50266","Match","Exact","5314 GLEN OAKS WAY, WEST DES MOINES, IA, 50266",65852338,"L"
710270,"5314 GODBEY DRIVE","LA CANADA","CA",91011,34.2136745560001,-118.186484746,270,"5314 GODBEY DRIVE, LA CANADA, CA, 91011","Match","Exact","5314 GODBEY DR, LA CANADA, CA, 91011",650223689,"R"
710271,"5314 GULL DR","SCHERERVILLE","IN",46375,41.492868102,-87.400101865,271,"5314 GULL DR, SCHERERVILLE, IN, 46375","Match","Exact","5314 GULL DR, SCHERERVILLE, IN, 46375",98444853,"L"
710272,"5314 HIL MAR DRIVE","DISTRICT HEIGHTS","MD",20747,38.8439759730001,-76.9100893409999,272,"5314 HIL MAR DRIVE, DISTRICT HEIGHTS, MD, 20747","Match","Exact","5314 HIL MAR DR, DISTRICT HEIGHTS, MD, 20747",76375234,"R"
710273,"5314 INVERNESS","CORPUS CHRISTI","TX",78143,NA,NA,273,"5314 INVERNESS, CORPUS CHRISTI, TX, 78143","No_Match",NA,NA,NA,NA
710274,"5314 JAHNKE ROAD","RICHMOND","VA",23225,37.519055231,-77.4975061759999,274,"5314 JAHNKE ROAD, RICHMOND, VA, 23225","Match","Exact","5314 JAHNKE RD, RICHMOND, VA, 23225",201536697,"R"
710275,"5314 JOYCE LN","IMPERIAL","MO",63052,38.3918705630001,-90.394782759,275,"5314 JOYCE LN, IMPERIAL, MO, 63052","Match","Exact","5314 JOYCE LN, IMPERIAL, MO, 63052",62810302,"L"
710276,"5314 LAKEVALE TERRACE","BOWIE","MD",20720,38.963833003,-76.759019203,276,"5314 LAKEVALE TERRACE, BOWIE, MD, 20720","Match","Exact","5314 LAKEVALE TER, BOWIE, MD, 20720",76350173,"R"
710277,"5314 LERWICK DR","HOUSTON","TX",77084,29.8554602930001,-95.656500013,277,"5314 LERWICK DR, HOUSTON, TX, 77084","Match","Exact","5314 LERWICK DR, HOUSTON, TX, 77084",96015500,"R"
710278,"5314 LINCOLNWAY E","MISHAWAKA","IN",46544,41.663375251,-86.1013072549999,278,"5314 LINCOLNWAY E, MISHAWAKA, IN, 46544","Match","Exact","5314 LINCOLNWAY E, MISHAWAKA, IN, 46544",8080163,"L"
710279,"5314 LOUISE ST","BAYTOWN","TX",77521,29.772728955,-95.009913833,279,"5314 LOUISE ST, BAYTOWN, TX, 77521","Match","Exact","5314 LOUISE ST, BAYTOWN, TX, 77521",96108542,"L"
710280,"5314 MAGNOLIA LN","EVANS","GA",30809,33.5373930710001,-82.218677556,280,"5314 MAGNOLIA LN, EVANS, GA, 30809","Match","Exact","5314 MAGNOLIA LN, EVANS, GA, 30809",644923477,"R"
710281,"5314 MORELLO RD","BALTIMORE","MD",21214,39.3529955490001,-76.566412661,281,"5314 MORELLO RD, BALTIMORE, MD, 21214","Match","Exact","5314 MORELLO RD, BALTIMORE, MD, 21214",206410711,"L"
710282,"5314 N 43RD","TACOMA","WA",98407,47.2879823100001,-122.508064773,282,"5314 N 43RD, TACOMA, WA, 98407","Match","Non_Exact","5314 N 43RD ST, TACOMA, WA, 98407",184643752,"L"
710283,"5314 N COOK STREET","MCFARLAND","WI",53558,NA,NA,283,"5314 N COOK STREET, MCFARLAND, WI, 53558","Tie",NA,NA,NA,NA
710284,"5314 NE 22 COURT","RENTON","WA",98059,47.5106197900001,-122.147671976,284,"5314 NE 22 COURT, RENTON, WA, 98059","Match","Exact","5314 NE 22ND CT, RENTON, WA, 98059",239778308,"L"
710285,"5314 NE 276TH AVE","CAMAS","WA",98607,45.6612397000001,-122.389304825,285,"5314 NE 276TH AVE, CAMAS, WA, 98607","Match","Exact","5314 NE 276TH AVE, CAMAS, WA, 98607",158361517,"L"
710286,"5314 NORTH PASS","MCFARLAND","WI",53558,43.009384734,-89.28960552,286,"5314 NORTH PASS, MCFARLAND, WI, 53558","Match","Exact","5314 NORTH PASS, MCFARLAND, WI, 53558",49494719,"R"
710287,"5314 OLD SAINT MARYS PIKE","PARKERSBURG","WV",26104,39.3164540550001,-81.444079394,287,"5314 OLD SAINT MARYS PIKE, PARKERSBURG, WV, 26104","Match","Exact","5314 OLD SAINT MARYS PIKE, PARKERSBURG, WV, 26104",648545419,"R"
710288,"5314 P STREET","WASHOUGAL","WA",98671,45.587575558,-122.312196041,288,"5314 P STREET, WASHOUGAL, WA, 98671","Match","Exact","5314 P ST, WASHOUGAL, WA, 98671",623952680,"R"
710289,"5314 PEDDINGTON LN","POWDER SPRINGS","GA",30127,NA,NA,289,"5314 PEDDINGTON LN, POWDER SPRINGS, GA, 30127","No_Match",NA,NA,NA,NA
710290,"5314 PENN AVENUE SOUTH","MINNEAPOLIS","MN",55419,44.9065221710001,-93.3086508539999,290,"5314 PENN AVENUE SOUTH, MINNEAPOLIS, MN, 55419","Match","Exact","5314 PENN AVE S, MINNEAPOLIS, MN, 55419",43628890,"R"
710291,"5314 PENSACOLA DRIVE","GARLAND","TX",75043,32.8522835750001,-96.579893805,291,"5314 PENSACOLA DRIVE, GARLAND, TX, 75043","Match","Exact","5314 PENSACOLA DR, GARLAND, TX, 75043",102933262,"L"
710292,"5314 PUDMAN RIVER LN","SUGARLAND","TX",77479,29.5440542360001,-95.602229639,292,"5314 PUDMAN RIVER LN, SUGARLAND, TX, 77479","Match","Non_Exact","5314 PUDMAN RIVER LN, SUGAR LAND, TX, 77479",648706643,"R"
710293,"5314 QUALEY PLACE","WOODBRIDGE","VA",22193,38.66310961,-77.367591865,293,"5314 QUALEY PLACE, WOODBRIDGE, VA, 22193","Match","Exact","5314 QUALEY PL, WOODBRIDGE, VA, 22193",76524775,"L"
710294,"5314 QUALEY PLACE","WOODBRIDGE","VA",22913,38.66310961,-77.367591865,294,"5314 QUALEY PLACE, WOODBRIDGE, VA, 22913","Match","Non_Exact","5314 QUALEY PL, WOODBRIDGE, VA, 22193",76524775,"L"
710295,"5314 RITCHIE AVE","ENID","OK",73707,NA,NA,295,"5314 RITCHIE AVE, ENID, OK, 73707","No_Match",NA,NA,NA,NA
710296,"5314 SHANNAMARA DRIVE","MATTHEWS","NC",28104,35.131399732,-80.6441535879999,296,"5314 SHANNAMARA DRIVE, MATTHEWS, NC, 28104","Match","Exact","5314 SHANNAMARA DR, MATTHEWS, NC, 28104",14218871,"L"
710297,"5314 SHARON TRAIL","LAKELAND","FL",33810,28.1109648400001,-82.0608587789999,297,"5314 SHARON TRAIL, LAKELAND, FL, 33810","Match","Exact","5314 SHARON TRL, LAKELAND, FL, 33810",104558920,"R"
710298,"5314 SHELDON ST","EASTMAN","GA",31023,32.206001309,-83.173153116,298,"5314 SHELDON ST, EASTMAN, GA, 31023","Match","Exact","5314 SHELDON ST, EASTMAN, GA, 31023",9517290,"R"
710299,"5314 SHELDON STREET","EASTMAN","GA",31023,32.206001309,-83.173153116,299,"5314 SHELDON STREET, EASTMAN, GA, 31023","Match","Exact","5314 SHELDON ST, EASTMAN, GA, 31023",9517290,"R"
710300,"5314 SHORELINE DRIVE","KETCHIKAN","AK",99901,55.379906916,-131.731769588,300,"5314 SHORELINE DRIVE, KETCHIKAN, AK, 99901","Match","Exact","5314 SHORELINE DR, KETCHIKAN, AK, 99901",207039318,"L"
710301,"5314 STORMY TRAIL","SAN ANTONIO","TX",78247,29.5855264580001,-98.3852755629999,301,"5314 STORMY TRAIL, SAN ANTONIO, TX, 78247","Match","Exact","5314 STORMY TRL, SAN ANTONIO, TX, 78247",101704555,"R"
710302,"5314 SUNFLOWER","EUREKA","MO",63025,38.471544357,-90.630674218,302,"5314 SUNFLOWER, EUREKA, MO, 63025","Match","Non_Exact","5314 SUNFLOWER DR, EUREKA, MO, 63025",637605230,"R"
710303,"5314 SUNRIVER RD","GASTONIA","NC",28054,NA,NA,303,"5314 SUNRIVER RD, GASTONIA, NC, 28054","No_Match",NA,NA,NA,NA
710304,"5314 SW 153 PLACE SOUTH","MIAMI","FL",33185,25.7160333890001,-80.440192661,304,"5314 SW 153 PLACE SOUTH, MIAMI, FL, 33185","Match","Exact","5314 SW 153RD PL S, MIAMI, FL, 33185",116071712,"R"
710305,"5314 TRADING POST","SAN ANTONIO","TX",78242,29.3374684790001,-98.6020748019999,305,"5314 TRADING POST, SAN ANTONIO, TX, 78242","Match","Non_Exact","5314 TRADING POST ST, SAN ANTONIO, TX, 78242",101519360,"R"
710306,"5314 TREEPOINT","SANTA FE","TX",77510,29.36845915,-95.1117338289999,306,"5314 TREEPOINT, SANTA FE, TX, 77510","Match","Non_Exact","5314 TREEPOINT LN, SANTA FE, TX, 77510",96708190,"L"
710307,"5314 VALLEY MILLS RD","MUNNSVILLE","NY",13409,42.983454076,-75.587045856,307,"5314 VALLEY MILLS RD, MUNNSVILLE, NY, 13409","Match","Exact","5314 VALLEY MILLS RD, MUNNSVILLE, NY, 13409",46514417,"R"
710308,"5314 VALLEY PINES DRIVE","KINGWOOD","TX",77345,30.055461888,-95.165757012,308,"5314 VALLEY PINES DRIVE, KINGWOOD, TX, 77345","Match","Exact","5314 VALLEY PINES DR, KINGWOOD, TX, 77345",96049358,"L"
710309,"5314 WESTERN AVE","OMAHA","NE",68132,41.270535432,-95.996501236,309,"5314 WESTERN AVE, OMAHA, NE, 68132","Match","Exact","5314 WESTERN AVE, OMAHA, NE, 68132",116978491,"R"
710310,"5314 WILEY ST","RIVERDALE","MD",20737,38.9555848800001,-76.89770097,310,"5314 WILEY ST, RIVERDALE, MD, 20737","Match","Exact","5314 WILEY ST, RIVERDALE, MD, 20737",76308711,"L"
710311,"5314 WOOLDRIDGE ROAD","CORPUS CHRISTI","TX",78413,27.6939907180001,-97.384679281,311,"5314 WOOLDRIDGE ROAD, CORPUS CHRISTI, TX, 78413","Match","Exact","5314 WOOLDRIDGE RD, CORPUS CHRISTI, TX, 78413",178520679,"L"
710312,"5314 WOOLDRIDGE ST","CORPUS CHRISTI","TX",78413,27.6939907180001,-97.384679281,312,"5314 WOOLDRIDGE ST, CORPUS CHRISTI, TX, 78413","Match","Non_Exact","5314 WOOLDRIDGE RD, CORPUS CHRISTI, TX, 78413",178520679,"L"
710313,"53141 HOLLY FERN COURT","SOUTH BEND","IN",46637,41.721241639,-86.229668809,313,"53141 HOLLY FERN COURT, SOUTH BEND, IN, 46637","Match","Exact","53141 HOLLY FERN CT, SOUTH BEND, IN, 46637",8070319,"R"
710314,"5315 15TH AVE","BROOKLYN","NY",11219,40.6300290190001,-73.9901359849999,314,"5315 15TH AVE, BROOKLYN, NY, 11219","Match","Exact","5315 15TH AVE, BROOKLYN, NY, 11219",59080273,"L"
710315,"5315 1ST AVE S","ST PETERSBURG","FL",33707,27.770056514,-82.70560477,315,"5315 1ST AVE S, ST PETERSBURG, FL, 33707","Match","Exact","5315 1ST AVE S, SAINT PETERSBURG, FL, 33707",124700302,"R"
710316,"5315 24TH AVE F","LACEY","WA",98503,NA,NA,316,"5315 24TH AVE F, LACEY, WA, 98503","No_Match",NA,NA,NA,NA
710317,"5315 32ND AVE S","SEATTLE","WA",98118,47.554332634,-122.291564459,317,"5315 32ND AVE S, SEATTLE, WA, 98118","Match","Exact","5315 32ND AVE S, SEATTLE, WA, 98118",186595953,"R"
710318,"5315 8TH STREET NW","WASHINGTON, DC","DC",20011,38.954402117,-77.023934146,318,"5315 8TH STREET NW, WASHINGTON, DC, DC, 20011","Match","Exact","5315 8TH ST NW, WASHINGTON, DC, 20011",76223301,"R"
710319,"5315 AMBERLY DRIVE","MT. AIRY","MD",21771,39.4254012320001,-77.0758821599999,319,"5315 AMBERLY DRIVE, MT. AIRY, MD, 21771","Match","Exact","5315 AMBERLY DR, MOUNT AIRY, MD, 21771",637381701,"R"
710320,"5315 ARAPAHO LANE","ALEXANDRIA","VA",22312,38.8069937830001,-77.162975042,320,"5315 ARAPAHO LANE, ALEXANDRIA, VA, 22312","Match","Exact","5315 ARAPAHO LN, ALEXANDRIA, VA, 22312",76044240,"L"
710321,"5315 ARQUILLA DR","RICHTON PARK","IL",60471,41.4787346530001,-87.741735104,321,"5315 ARQUILLA DR, RICHTON PARK, IL, 60471","Match","Exact","5315 ARQUILLA DR, RICHTON PARK, IL, 60471",112382593,"R"
710322,"5315 B CYPRESS CREEK PARKWAY","HOUSTON","TX",77069,NA,NA,322,"5315 B CYPRESS CREEK PARKWAY, HOUSTON, TX, 77069","No_Match",NA,NA,NA,NA
710323,"5315 BINFORD PLACE","ATLANTA","GA",30331,33.7213868170001,-84.562886229,323,"5315 BINFORD PLACE, ATLANTA, GA, 30331","Match","Non_Exact","5315 BINFORD PL SW, ATLANTA, GA, 30331",650109241,"R"
710324,"5315 BOBO RD","PINE BLUFF","AR",71603,34.1763274030001,-92.034775407,324,"5315 BOBO RD, PINE BLUFF, AR, 71603","Match","Exact","5315 BOBO RD, PINE BLUFF, AR, 71603",2581272,"L"
710325,"5315 CANYON HOLLOW","HOUSTON","TX",77084,29.852595384,-95.666320538,325,"5315 CANYON HOLLOW, HOUSTON, TX, 77084","Match","Exact","5315 CANYON HOLLOW, HOUSTON, TX, 77084",635246265,"R"
710326,"5315 CHALLENGER AVE","BAKERSFIELD","CA",93312,35.407865916,-119.13386435,326,"5315 CHALLENGER AVE, BAKERSFIELD, CA, 93312","Match","Exact","5315 CHALLENGER AVE, BAKERSFIELD, CA, 93312",619907694,"L"
710327,"5315 CHESTNUT BLUFF TERRACE","MIDLOTHIAN","VA",23112,37.4263696,-77.682248768,327,"5315 CHESTNUT BLUFF TERRACE, MIDLOTHIAN, VA, 23112","Match","Exact","5315 CHESTNUT BLUFF TER, MIDLOTHIAN, VA, 23112",201562869,"R"
710328,"5315 COBBLERS CROSSING","MCHENRY","IL",60050,42.324291701,-88.300572255,328,"5315 COBBLERS CROSSING, MCHENRY, IL, 60050","Match","Exact","5315 COBBLERS CROSSING, MCHENRY, IL, 60050",119872544,"R"
710329,"5315 COLODNY DR UNIT 9","AGOURA HILLS","CA",91301,34.14538006,-118.74136023,329,"5315 COLODNY DR UNIT 9, AGOURA HILLS, CA, 91301","Match","Exact","5315 COLODNY DR, AGOURA HILLS, CA, 91301",142786295,"R"
710330,"5315 DIAMOND ST","PHILADELPHIA","PA",19131,39.9885917840001,-75.230711218,330,"5315 DIAMOND ST, PHILADELPHIA, PA, 19131","Match","Exact","5315 DIAMOND ST, PHILADELPHIA, PA, 19131",131396731,"R"
710331,"5315 DUVAL STREET","AUSTIN","TX",78751,30.316629226,-97.718381463,331,"5315 DUVAL STREET, AUSTIN, TX, 78751","Match","Exact","5315 DUVAL ST, AUSTIN, TX, 78751",63931840,"R"
710332,"5315 E 26TH PL","TULSA","OK",85114,36.1248225850001,-95.917462286,332,"5315 E 26TH PL, TULSA, OK, 85114","Match","Non_Exact","5315 E 26TH PL, TULSA, OK, 74114",166450426,"L"
710333,"5315 E 86TH ST","NEWAYGO","MI",49337,43.399350375,-85.6697039749999,333,"5315 E 86TH ST, NEWAYGO, MI, 49337","Match","Exact","5315 E 86TH ST, NEWAYGO, MI, 49337",150226072,"L"
710334,"5315 EASTKNOLL CT","CINCINNATI","OH",45239,NA,NA,334,"5315 EASTKNOLL CT, CINCINNATI, OH, 45239","No_Match",NA,NA,NA,NA
710335,"5315 EDDS LANE","CROSS LANES","WV",25313,38.4357966760001,-81.77683096,335,"5315 EDDS LANE, CROSS LANES, WV, 25313","Match","Exact","5315 EDDS LN, CROSS LANES, WV, 25313",78670396,"L"
710336,"5315 ESTATE VIEW TRACE","SUWANEE","GA",30024,34.0891244100001,-84.130624439,336,"5315 ESTATE VIEW TRACE, SUWANEE, GA, 30024","Match","Non_Exact","5315 ESTATE VIEW TRL, SUWANEE, GA, 30024",629769864,"R"
710337,"5315 FOREST TIMBERS DRIVE","HUMBLE","TX",77346,30.004038273,-95.194933211,337,"5315 FOREST TIMBERS DRIVE, HUMBLE, TX, 77346","Match","Exact","5315 FOREST TIMBERS DR, HUMBLE, TX, 77346",96049102,"L"
710338,"5315 FREDERICKSBURG RD","SAN ANTONIO","TX",78229,29.5054459460001,-98.562549242,338,"5315 FREDERICKSBURG RD, SAN ANTONIO, TX, 78229","Match","Exact","5315 FREDERICKSBURG RD, SAN ANTONIO, TX, 78229",627887946,"L"
710339,"5315 GEORGIA LANE","LOUISVILLE","KY",40219,38.1468932990001,-85.663461926,339,"5315 GEORGIA LANE, LOUISVILLE, KY, 40219","Match","Exact","5315 GEORGIA LN, LOUISVILLE, KY, 40219",96858639,"L"
710340,"5315 GERMAINE COURT","COLORADO SPRINGS","CO",80919,38.9080432270001,-104.839474559,340,"5315 GERMAINE COURT, COLORADO SPRINGS, CO, 80919","Match","Exact","5315 GERMAINE CT, COLORADO SPRINGS, CO, 80919",105528813,"L"
710341,"5315 HARBOR MIST","BAYTOWN","TX",77521,29.809597094,-94.979629362,341,"5315 HARBOR MIST, BAYTOWN, TX, 77521","Match","Exact","5315 HARBOR MIST, BAYTOWN, TX, 77521",96575046,"L"
710342,"5315 HARDT ROAD","GIBSONIA","PA",15044,40.6179694250001,-79.9758477829999,342,"5315 HARDT ROAD, GIBSONIA, PA, 15044","Match","Exact","5315 HARDT RD, GIBSONIA, PA, 15044",641814816,"R"
710343,"5315 HARLAN DRIVE","EL PASO","TX",79924,31.8900751050001,-106.416746192,343,"5315 HARLAN DRIVE, EL PASO, TX, 79924","Match","Exact","5315 HARLAN DR, EL PASO, TX, 79924",189339458,"L"
710344,"5315 HOLSCHER ROAD","MCFARLAND","WI",53558,43.022355342,-89.276543835,344,"5315 HOLSCHER ROAD, MCFARLAND, WI, 53558","Match","Exact","5315 HOLSCHER RD, MCFARLAND, WI, 53558",49520361,"L"
710345,"5315 HUNT CLUB WAY","SARASOTA","FL",34238,27.2117166730001,-82.4618659349999,345,"5315 HUNT CLUB WAY, SARASOTA, FL, 34238","Match","Exact","5315 HUNT CLUB WAY, SARASOTA, FL, 34238",16433892,"L"
710346,"5315 HWY 45 N","CONOVER","WI",54519,NA,NA,346,"5315 HWY 45 N, CONOVER, WI, 54519","No_Match",NA,NA,NA,NA
710347,"5315 INDIGO WAY","MIDDLETON","WI",53562,43.1229171840001,-89.472091112,347,"5315 INDIGO WAY, MIDDLETON, WI, 53562","Match","Exact","5315 INDIGO WAY, MIDDLETON, WI, 53562",49556177,"R"
710348,"5315 ISHAM CHAMBERS RD","ROUGEMONT","NC",27572,36.2291456450001,-78.820886451,348,"5315 ISHAM CHAMBERS RD, ROUGEMONT, NC, 27572","Match","Exact","5315 ISHAM CHAMBERS RD, ROUGEMONT, NC, 27572",71777822,"L"
710349,"5315 LEE STREET","LEHIGH ACRES","FL",33971,26.6167250010001,-81.739429351,349,"5315 LEE STREET, LEHIGH ACRES, FL, 33971","Match","Exact","5315 LEE ST, LEHIGH ACRES, FL, 33971",118058407,"L"
710350,"5315 LOUGHBOROUGH AVE","SAINT LOUIS","MO",63109,38.572784819,-90.289887569,350,"5315 LOUGHBOROUGH AVE, SAINT LOUIS, MO, 63109","Match","Exact","5315 LOUGHBOROUGH AVE, SAINT LOUIS, MO, 63109",619015732,"R"
710351,"5315 LOUGHBOROUGH AVENUE","SAINT LOUIS","MO",63109,38.572784819,-90.289887569,351,"5315 LOUGHBOROUGH AVENUE, SAINT LOUIS, MO, 63109","Match","Exact","5315 LOUGHBOROUGH AVE, SAINT LOUIS, MO, 63109",619015732,"R"
710352,"5315 MACK ROAD APT 1633","DALLAS","TX",75254,NA,NA,352,"5315 MACK ROAD APT 1633, DALLAS, TX, 75254","No_Match",NA,NA,NA,NA
710353,"5315 MANOR PARK DRIVE","UPPER MARLBORO","MD",20772,38.8228562360001,-76.83198126,353,"5315 MANOR PARK DRIVE, UPPER MARLBORO, MD, 20772","Match","Exact","5315 MANOR PARK DR, UPPER MARLBORO, MD, 20772",651707708,"L"
710354,"5315 MARSH LANDING LANE","SUFFOLK","VA",23435,36.877310605,-76.443396623,354,"5315 MARSH LANDING LANE, SUFFOLK, VA, 23435","Match","Exact","5315 MARSH LANDING LN, SUFFOLK, VA, 23435",122233268,"L"
710355,"5315 MINNEHAHA AVE NO 206","MINNEAPOLIS","MN",55417,44.907073896,-93.2046577469999,355,"5315 MINNEHAHA AVE NO 206, MINNEAPOLIS, MN, 55417","Match","Non_Exact","5315 MINNEHAHA AVE, MINNEAPOLIS, MN, 55417",43641145,"L"
710356,"5315 MOON SHELL DRIVE","APOLLO BEACH","FL",33572,27.741943624,-82.4169137979999,356,"5315 MOON SHELL DRIVE, APOLLO BEACH, FL, 33572","Match","Exact","5315 MOON SHELL DR, APOLLO BEACH, FL, 33572",633883230,"R"
710357,"5315 MORGANTON RD","FAYETTEVILLE","NC",28314,35.07238575,-78.9702878269999,357,"5315 MORGANTON RD, FAYETTEVILLE, NC, 28314","Match","Exact","5315 MORGANTON RD, FAYETTEVILLE, NC, 28314",64215953,"L"
710358,"5315 MORNING SAGE WAY","SAN DIEGO","CA",92130,NA,NA,358,"5315 MORNING SAGE WAY, SAN DIEGO, CA, 92130","No_Match",NA,NA,NA,NA
710359,"5315 MORNINGVIEW","HOFFMAN ESTATES","IL",60192,NA,NA,359,"5315 MORNINGVIEW, HOFFMAN ESTATES, IL, 60192","Tie",NA,NA,NA,NA
710360,"5315 N CLARK 234","CHICAGO","IL",60640,NA,NA,360,"5315 N CLARK 234, CHICAGO, IL, 60640","No_Match",NA,NA,NA,NA
710361,"5315 N CLARK ST NUM 176","CHICAGO","IL",60640,41.9785052330001,-87.6683183059999,361,"5315 N CLARK ST NUM 176, CHICAGO, IL, 60640","Match","Non_Exact","5315 N CLARK ST, CHICAGO, IL, 60640",111761223,"R"
710362,"5315 N CLARK ST","CHICAGO","IL",60640,41.9785052330001,-87.6683183059999,362,"5315 N CLARK ST, CHICAGO, IL, 60640","Match","Exact","5315 N CLARK ST, CHICAGO, IL, 60640",111761223,"R"
710363,"5315 N VISTA CT","SPOKANE","WA",99212,47.705075982,-117.292985173,363,"5315 N VISTA CT, SPOKANE, WA, 99212","Match","Exact","5315 N VISTA CT, SPOKANE, WA, 99212",189897130,"R"
710364,"5315 N WASHINGTON ST","KANSAS CITY","MO",64118,39.1911135650001,-94.5865757459999,364,"5315 N WASHINGTON ST, KANSAS CITY, MO, 64118","Match","Exact","5315 N WASHINGTON ST, KANSAS CITY, MO, 64118",89756043,"R"
710365,"5315 OAK LEAF DRIVE","MOUNT JOY","PA",17552,40.1193225230001,-76.483826748,365,"5315 OAK LEAF DRIVE, MOUNT JOY, PA, 17552","Match","Exact","5315 OAK LEAF DR, MOUNT JOY, PA, 17552",648145481,"R"
710366,"5315 OLD GARDEN ROAD","WILMINGTON","NC",28405,34.238953021,-77.85504989,366,"5315 OLD GARDEN ROAD, WILMINGTON, NC, 28405","Match","Non_Exact","5315 OLD GARDEN RD, WILMINGTON, NC, 28403",624808015,"L"
710367,"5315 PAINTER STREET","NEW ORLEANS","LA",70122,NA,NA,367,"5315 PAINTER STREET, NEW ORLEANS, LA, 70122","No_Match",NA,NA,NA,NA
710368,"5315 PARKER CONE WAY","GREENVILLE","SC",29609,34.8715869750001,-82.419341741,368,"5315 PARKER CONE WAY, GREENVILLE, SC, 29609","Match","Exact","5315 PARKER CONE WAY, GREENVILLE, SC, 29609",646631715,"L"
710369,"5315 PATRICIA PLAACE","WEEKI WACHEE","FL",34607,28.5077514720001,-82.5970044709999,369,"5315 PATRICIA PLAACE, WEEKI WACHEE, FL, 34607","Match","Non_Exact","5315 PATRICIA PL, WEEKI WACHEE, FL, 34607",85424774,"R"
710370,"5315 PERCHE POINTE PL","COLUMBIA","MO",65203,38.9390877440001,-92.4152326509999,370,"5315 PERCHE POINTE PL, COLUMBIA, MO, 65203","Match","Non_Exact","5315 PERCHE POINTE, COLUMBIA, MO, 65203",643130955,"R"
710371,"5315 PLYMOUTH CT STE 104","CHICAGO","IL",60605,NA,NA,371,"5315 PLYMOUTH CT STE 104, CHICAGO, IL, 60605","No_Match",NA,NA,NA,NA
710372,"5315 RED MAPLE LANE","FULTON","MO",65251,38.817382982,-91.976460597,372,"5315 RED MAPLE LANE, FULTON, MO, 65251","Match","Exact","5315 RED MAPLE LN, FULTON, MO, 65251",34376785,"R"
710373,"5315 RIVER RIDGE AVE NW","ALBUQUERQUE","NM",87114,35.21620483,-106.690036778,373,"5315 RIVER RIDGE AVE NW, ALBUQUERQUE, NM, 87114","Match","Exact","5315 RIVER RIDGE AVE NW, ALBUQUERQUE, NM, 87114",206796819,"R"
710374,"5315 RIVER RIDGE LN","ANN ARBOR","MI",48103,42.3208379280001,-83.833402942,374,"5315 RIVER RIDGE LN, ANN ARBOR, MI, 48103","Match","Exact","5315 RIVER RIDGE LN, ANN ARBOR, MI, 48103",630123018,"R"
710375,"5315 S ELLIS","CHICAGO","IL",60615,41.799107001,-87.601287831,375,"5315 S ELLIS, CHICAGO, IL, 60615","Match","Non_Exact","5315 S ELLIS AVE, CHICAGO, IL, 60615",111771631,"L"
710376,"5315 S PINE AVE","LONG BEACH","CA",90805,33.8527105160001,-118.191730766,376,"5315 S PINE AVE, LONG BEACH, CA, 90805","Match","Exact","5315 PINE AVE, LONG BEACH, CA, 90805",141684295,"L"
710377,"5315 S SLAUSON AVENUE","CULVER CITY","CA",90230,NA,NA,377,"5315 S SLAUSON AVENUE, CULVER CITY, CA, 90230","Tie",NA,NA,NA,NA
710378,"5315 SHOTWELL COURT","WOODSTOCK","GA",30188,34.102297983,-84.4395579649999,378,"5315 SHOTWELL COURT, WOODSTOCK, GA, 30188","Match","Exact","5315 SHOTWELL CT, WOODSTOCK, GA, 30188",68840642,"L"
710379,"5315 SILVER LEDGE DRIVE","KATY","TX",77493,29.8506221760001,-95.803619283,379,"5315 SILVER LEDGE DRIVE, KATY, TX, 77493","Match","Exact","5315 SILVER LEDGE DR, KATY, TX, 77493",652752404,"L"
710380,"5315 SO 194 ST","OMAHA","NE",68022,41.204092281,-96.219022058,380,"5315 SO 194 ST, OMAHA, NE, 68022","Match","Non_Exact","5315 S 194TH ST, OMAHA, NE, 68135",649852082,"L"
710381,"5315 SPIVA CROSSING RD","HALLSVILLE","MO",65255,39.0582131030001,-92.2418935269999,381,"5315 SPIVA CROSSING RD, HALLSVILLE, MO, 65255","Match","Non_Exact","5315 E SPIVA CROSSING RD, HALLSVILLE, MO, 65255",652552446,"R"
710382,"5315 STONEMEADOW AVE UNIT A","COLUMBUS","OH",43220,40.063109072,-83.090102416,382,"5315 STONEMEADOW AVE UNIT A, COLUMBUS, OH, 43220","Match","Exact","5315 STONEMEADOW AVE, COLUMBUS, OH, 43220",218694703,"R"
710383,"5315 SUNDALE PLACE S","COLUMBUS","OH",43232,39.912135735,-82.856374076,383,"5315 SUNDALE PLACE S, COLUMBUS, OH, 43232","Match","Exact","5315 SUNDALE PL S, COLUMBUS, OH, 43232",218645385,"R"
710384,"5315 SUNSET LANE","CHEVY CHASE","MD",20815,38.972868261,-77.108245804,384,"5315 SUNSET LANE, CHEVY CHASE, MD, 20815","Match","Exact","5315 SUNSET LN, CHEVY CHASE, MD, 20815",62058952,"R"
710385,"5315 TOBINS GULLY DRIVE","KATY","TX",77084,29.850879881,-95.69438461,385,"5315 TOBINS GULLY DRIVE, KATY, TX, 77084","Match","Non_Exact","5315 TOBINS GULLY DR, KATY, TX, 77449",652679691,"L"
710386,"5315 TRINDLE RD","MECHANICSBURG","PA",17050,40.2171237110001,-76.993413655,386,"5315 TRINDLE RD, MECHANICSBURG, PA, 17050","Match","Non_Exact","5315 E TRINDLE RD, MECHANICSBURG, PA, 17050",647849956,"R"
710387,"5315 VISTA DEL CERRO NE","ALBUQUERQUE","NM",87111,35.1426727480001,-106.508907258,387,"5315 VISTA DEL CERRO NE, ALBUQUERQUE, NM, 87111","Match","Exact","5315 VIS DEL CERRO NE, ALBUQUERQUE, NM, 87111",206715154,"R"
710388,"5315 WEST BLVD","LOS ANGELES","CA",90043,33.9945652210001,-118.335549196,388,"5315 WEST BLVD, LOS ANGELES, CA, 90043","Match","Exact","5315 WEST BLVD, LOS ANGELES, CA, 90043",141654939,"R"
710389,"5315 WESTERN LN","LITTLE ROCK","AR",72209,34.7009545970001,-92.336166324,389,"5315 WESTERN LN, LITTLE ROCK, AR, 72209","Match","Exact","5315 WESTERN LN, LITTLE ROCK, AR, 72209",83560203,"R"
710390,"5315 WHISTLE STOP DR","TEMPLE","TX",76502,31.0451109430001,-97.362466984,390,"5315 WHISTLE STOP DR, TEMPLE, TX, 76502","Match","Exact","5315 WHISTLE STOP DR, TEMPLE, TX, 76502",146228799,"L"
710391,"5315 WILLOW GLEN","HOUSTON","TX",77033,29.6713961150001,-95.342870708,391,"5315 WILLOW GLEN, HOUSTON, TX, 77033","Match","Non_Exact","5315 WILLOW GLEN DR, HOUSTON, TX, 77033",96089608,"L"
710392,"5315-B CYPRESS CREEK PKWY SUITE 158","HOUSTON","TX",77069,NA,NA,392,"5315-B CYPRESS CREEK PKWY SUITE 158, HOUSTON, TX, 77069","No_Match",NA,NA,NA,NA
710393,"5315-B CYPRESS CREEK PKWY SUITE 337","HOUSTON","TX",77069,NA,NA,393,"5315-B CYPRESS CREEK PKWY SUITE 337, HOUSTON, TX, 77069","No_Match",NA,NA,NA,NA
710394,"5315-B CYPRESS CREEK PKWY SUITE 373","HOUSTON","TX",77069,NA,NA,394,"5315-B CYPRESS CREEK PKWY SUITE 373, HOUSTON, TX, 77069","No_Match",NA,NA,NA,NA
710395,"5315-B CYPRESS CREEK PRKWY 244","HOUSTON","TX",77069,NA,NA,395,"5315-B CYPRESS CREEK PRKWY 244, HOUSTON, TX, 77069","No_Match",NA,NA,NA,NA
710396,"5315-B CYPRESS CREEK PRKWY","HOUSTON","TX",77069,NA,NA,396,"5315-B CYPRESS CREEK PRKWY, HOUSTON, TX, 77069","No_Match",NA,NA,NA,NA
710397,"53157 US HWY","HODGEN","OK",74939,NA,NA,397,"53157 US HWY, HODGEN, OK, 74939","No_Match",NA,NA,NA,NA
710398,"5316 143RD AVE SE","BELLEVUE","WA",98006,47.554552379,-122.150813227,398,"5316 143RD AVE SE, BELLEVUE, WA, 98006","Match","Exact","5316 143RD AVE SE, BELLEVUE, WA, 98006",186615211,"R"
710399,"5316 14TH AVE","BROOKLYN","NY",11219,40.631339978,-73.992376249,399,"5316 14TH AVE, BROOKLYN, NY, 11219","Match","Exact","5316 14TH AVE, BROOKLYN, NY, 11219",59080259,"R"
710400,"5316 24TH AVE SO","SEATTLE","WA",98108,47.554258046,-122.301573778,400,"5316 24TH AVE SO, SEATTLE, WA, 98108","Match","Exact","5316 24TH AVE S, SEATTLE, WA, 98108",239758945,"L"
710401,"5316 34TH AVE","MOLINE","IL",61265,41.47833739,-90.4640485909999,401,"5316 34TH AVE, MOLINE, IL, 61265","Match","Exact","5316 34TH AVE, MOLINE, IL, 61265",9214868,"R"
710402,"5316 ACEVEDO CT","COLUMBUS","OH",43235,40.0664690180001,-83.0640505549999,402,"5316 ACEVEDO CT, COLUMBUS, OH, 43235","Match","Exact","5316 ACEVEDO CT, COLUMBUS, OH, 43235",218694951,"R"
710403,"5316 ADORATO DRIVE","NORTH LAS VEGAS","NV",89031,36.256533791,-115.196230918,403,"5316 ADORATO DRIVE, NORTH LAS VEGAS, NV, 89031","Match","Exact","5316 ADORATO DR, N LAS VEGAS, NV, 89031",201998595,"L"
710404,"5316 ARGUS DRIVE","LOS ANGELES","CA",90041,34.143750191,-118.206232767,404,"5316 ARGUS DRIVE, LOS ANGELES, CA, 90041","Match","Exact","5316 ARGUS DR, LOS ANGELES, CA, 90041",141613433,"R"
710405,"5316 BUSHEL DRIVE","EVANSVILLE","IN",47711,38.025303448,-87.550680722,405,"5316 BUSHEL DRIVE, EVANSVILLE, IN, 47711","Match","Exact","5316 BUSHEL DR, EVANSVILLE, IN, 47711",645288108,"L"
710406,"5316 CLUB COURT","RICHMOND","CA",94806,37.9945195540001,-122.348503313,406,"5316 CLUB COURT, RICHMOND, CA, 94806","Match","Exact","5316 CLUB CT, RICHMOND, CA, 94806",650617760,"L"
710407,"5316 CONWAY CIRCLE","KNOXVILLE","TN",37921,35.983224459,-84.007801641,407,"5316 CONWAY CIRCLE, KNOXVILLE, TN, 37921","Match","Exact","5316 CONWAY CIR, KNOXVILLE, TN, 37921",42613488,"L"
710408,"5316 COTTONWOOD SUITE 1","MEMPHIS","TN",38118,35.068901818,-89.8860405309999,408,"5316 COTTONWOOD SUITE 1, MEMPHIS, TN, 38118","Match","Non_Exact","5316 COTTONWOOD RD, MEMPHIS, TN, 38118",72928096,"L"
710409,"5316 CROSBY RD","ROCK HALL","MD",21661,39.124638905,-76.2112054519999,409,"5316 CROSBY RD, ROCK HALL, MD, 21661","Match","Exact","5316 CROSBY RD, ROCK HALL, MD, 21661",612151878,"L"
710410,"5316 CUMBERLAND PLAIN DR","RALEIGH","NC",27616,35.864922607,-78.550115464,410,"5316 CUMBERLAND PLAIN DR, RALEIGH, NC, 27616","Match","Exact","5316 CUMBERLAND PLAIN DR, RALEIGH, NC, 27616",72626030,"L"
710411,"5316 DRIFTON DRIVE","LOUISVILLE","KY",40241,38.321854446,-85.5335223879999,411,"5316 DRIFTON DRIVE, LOUISVILLE, KY, 40241","Match","Exact","5316 DRIFTON DR, LOUISVILLE, KY, 40241",130919153,"L"
710412,"5316 EDINGTON LANE","RALEIGH","NC",27604,35.826738736,-78.545326363,412,"5316 EDINGTON LANE, RALEIGH, NC, 27604","Match","Exact","5316 EDINGTON LN, RALEIGH, NC, 27604",72643180,"R"
710413,"5316 FAIRFAX AVENUE","OAKLAND","CA",94601,37.772244619,-122.200799828,413,"5316 FAIRFAX AVENUE, OAKLAND, CA, 94601","Match","Exact","5316 FAIRFAX AVE, OAKLAND, CA, 94601",606213433,"L"
710414,"5316 FOXRIDGE DR","BATON ROUGE","LA",70817,30.404237589,-91.028750352,414,"5316 FOXRIDGE DR, BATON ROUGE, LA, 70817","Match","Exact","5316 FOXRIDGE DR, BATON ROUGE, LA, 70817",92194928,"R"
710415,"5316 HICKS DR","COLORADO SPRINGS","CO",80911,38.7672727890001,-104.72833294,415,"5316 HICKS DR, COLORADO SPRINGS, CO, 80911","Match","Exact","5316 HICKS DR, COLORADO SPRINGS, CO, 80911",647972506,"R"
710416,"5316 JADE","DALLAS","TX",75232,32.6813448390001,-96.8406880219999,416,"5316 JADE, DALLAS, TX, 75232","Match","Non_Exact","5316 JADE DR, DALLAS, TX, 75232",102948217,"L"
710417,"5316 LA BRANCH","HOUSTON","TX",77004,29.7251092830001,-95.383818035,417,"5316 LA BRANCH, HOUSTON, TX, 77004","Match","Non_Exact","5316 LA BRANCH ST, HOUSTON, TX, 77004",96071204,"R"
710418,"5316 LA CRESTA CT","LOS ANGELES","CA",90038,34.085552281,-118.309630505,418,"5316 LA CRESTA CT, LOS ANGELES, CA, 90038","Match","Exact","5316 LA CRESTA CT, LOS ANGELES, CA, 90038",141603061,"L"
710419,"5316 MEADOWBROOK DR","TRINITY","NC",27370,35.8777853280001,-79.9894224719999,419,"5316 MEADOWBROOK DR, TRINITY, NC, 27370","Match","Exact","5316 MEADOWBROOK DR, TRINITY, NC, 27370",20450560,"L"
710420,"5316 MEDLOCK CORNERS DRIVE","NORCROSS","GA",30092,NA,NA,420,"5316 MEDLOCK CORNERS DRIVE, NORCROSS, GA, 30092","No_Match",NA,NA,NA,NA
710421,"5316 MOUNTAIN VIEW","LAS VEGAS","NV",89146,36.1549289480001,-115.213055915,421,"5316 MOUNTAIN VIEW, LAS VEGAS, NV, 89146","Match","Non_Exact","5316 MOUNTAIN VIEW DR, LAS VEGAS, NV, 89146",201861226,"R"
710422,"5316 N 45TH PLACE","PHOENIX","AZ",85018,33.515432724,-111.981748012,422,"5316 N 45TH PLACE, PHOENIX, AZ, 85018","Match","Exact","5316 N 45TH PL, PHOENIX, AZ, 85018",128944123,"R"
710423,"5316 N 58TH STREET","MILWAUKEE","WI",53218,43.114134151,-87.984927865,423,"5316 N 58TH STREET, MILWAUKEE, WI, 53218","Match","Exact","5316 N 58TH ST, MILWAUKEE, WI, 53218",77726770,"R"
710424,"5316 N COLONIAL AVENUE 101","FRESNO","CA",93704,36.8147666720001,-119.802813542,424,"5316 N COLONIAL AVENUE 101, FRESNO, CA, 93704","Match","Non_Exact","5316 N COLONIAL AVE, FRESNO, CA, 93704",197572411,"L"
710425,"5316 N ILLINOIS ST","FAIRVIEW HEIGHTS","MO",62208,NA,NA,425,"5316 N ILLINOIS ST, FAIRVIEW HEIGHTS, MO, 62208","No_Match",NA,NA,NA,NA
710426,"5316 NEW UTRECHT AVENUE","BROOKLYN","NY",11219,40.6330496730001,-73.995210161,426,"5316 NEW UTRECHT AVENUE, BROOKLYN, NY, 11219","Match","Exact","5316 NEW UTRECHT AVE, BROOKLYN, NY, 11219",59080223,"R"
710427,"5316 OAK BEND CT","MOBILE","AL",36609,30.6583294060001,-88.166444317,427,"5316 OAK BEND CT, MOBILE, AL, 36609","Match","Exact","5316 OAK BEND CT, MOBILE, AL, 36609",61944959,"R"
710428,"5316 OAKES AVE","SUPERIOR","WI",54880,46.675771474,-92.107270592,428,"5316 OAKES AVE, SUPERIOR, WI, 54880","Match","Exact","5316 OAKES AVE, SUPERIOR, WI, 54880",164842162,"L"
710429,"5316 OLYMPIA LANE","GREENDALE","WI",53129,42.9357168700001,-87.982123714,429,"5316 OLYMPIA LANE, GREENDALE, WI, 53129","Match","Exact","5316 OLYMPIA LN, GREENDALE, WI, 53129",77749917,"L"
710430,"5316 ORCHARD STREET WEST","TACOMA","WA",98467,47.2089400150001,-122.505268234,430,"5316 ORCHARD STREET WEST, TACOMA, WA, 98467","Match","Non_Exact","5316 ORCHARD ST, TACOMA, WA, 98467",184760507,"L"
710431,"5316 S AZURITE TRAIL","FLAGSTAFF","AZ",86005,35.1538912560001,-111.677569842,431,"5316 S AZURITE TRAIL, FLAGSTAFF, AZ, 86005","Match","Exact","5316 S AZURITE TRL, FLAGSTAFF, AZ, 86005",653150029,"R"
710432,"5316 S HARPER AVE","CHICAGO","IL",60615,41.798965267,-87.5890843299999,432,"5316 S HARPER AVE, CHICAGO, IL, 60615","Match","Exact","5316 S HARPER AVE, CHICAGO, IL, 60615",605537287,"R"
710433,"5316 SHADY GROVE LANE","LAS VEGAS","NV",89130,36.255857598,-115.222357559,433,"5316 SHADY GROVE LANE, LAS VEGAS, NV, 89130","Match","Exact","5316 SHADY GROVE LN, LAS VEGAS, NV, 89130",201916821,"R"
710434,"5316 SIX FORKS ROAD","RALEIGH","NC",27609,35.854626221,-78.642112292,434,"5316 SIX FORKS ROAD, RALEIGH, NC, 27609","Match","Exact","5316 SIX FORKS RD, RALEIGH, NC, 27609",72505526,"R"
710435,"5316 SOUTH GREENWOOD APT 3F","CHICAGO","IL",60615,41.799104567,-87.599738293,435,"5316 SOUTH GREENWOOD APT 3F, CHICAGO, IL, 60615","Match","Non_Exact","5316 S GREENWOOD AVE, CHICAGO, IL, 60615",111771647,"R"
710436,"5316 STEUBEN DR","MEMPHIS","TN",38134,35.2192371680001,-89.8864781359999,436,"5316 STEUBEN DR, MEMPHIS, TN, 38134","Match","Exact","5316 STEUBEN DR, MEMPHIS, TN, 38134",72923597,"L"
710437,"5316 TILDEN AVENUE 2ND FLOOR","BROOKLYN","NY",11203,40.6483691620001,-73.9268778539999,437,"5316 TILDEN AVENUE 2ND FLOOR, BROOKLYN, NY, 11203","Match","Exact","5316 TILDEN AVE, BROOKLYN, NY, 11203",59085831,"R"
710438,"5316 TRAILWAY DRIVE","ROCKVILLE","MD",20853,39.103424224,-77.106918196,438,"5316 TRAILWAY DRIVE, ROCKVILLE, MD, 20853","Match","Exact","5316 TRAILWAY DR, ROCKVILLE, MD, 20853",62055242,"L"
710439,"5316 TRIMOTOR COURT","FAIR OAKS","CA",95628,38.662719995,-121.219320251,439,"5316 TRIMOTOR COURT, FAIR OAKS, CA, 95628","Match","Exact","5316 TRIMOTOR CT, FAIR OAKS, CA, 95628",133383646,"L"
710440,"5316 TYLER DR","GRAND PRAIRIE","TX",75052,32.644929958,-97.035084228,440,"5316 TYLER DR, GRAND PRAIRIE, TX, 75052","Match","Exact","5316 TYLER DR, GRAND PRAIRIE, TX, 75052",103280792,"R"
710441,"5316 VALLEY RIDGE AVE","LOS ANGELES","CA",90043,33.993804906,-118.344374741,441,"5316 VALLEY RIDGE AVE, LOS ANGELES, CA, 90043","Match","Exact","5316 VALLEY RIDGE AVE, LOS ANGELES, CA, 90043",142750276,"L"
710442,"5316 W LIVINGSTON","PASCO","WA",99301,46.252507445,-119.160415032,442,"5316 W LIVINGSTON, PASCO, WA, 99301","Match","Non_Exact","5316 W LIVINGSTON RD, PASCO, WA, 99301",640296802,"L"
710443,"5316 WITCH HAZEL LANE","FREDERICK","MD",21703,NA,NA,443,"5316 WITCH HAZEL LANE, FREDERICK, MD, 21703","No_Match",NA,NA,NA,NA
710444,"53160 PLACID DRIVE","SOUTH BEND","IN",46637,41.721062718,-86.24089314,444,"53160 PLACID DRIVE, SOUTH BEND, IN, 46637","Match","Exact","53160 PLACID DR, SOUTH BEND, IN, 46637",8054341,"L"
710445,"5317 AMINDA STREET","SHAWNEE","KS",66226,39.031475856,-94.8462387229999,445,"5317 AMINDA STREET, SHAWNEE, KS, 66226","Match","Exact","5317 AMINDA ST, SHAWNEE, KS, 66226",91308248,"L"
710446,"5317 ANHINGA TRAIL","NEW PORT RICHEY","FL",34653,28.236117264,-82.6743020329999,446,"5317 ANHINGA TRAIL, NEW PORT RICHEY, FL, 34653","Match","Exact","5317 ANHINGA TRL, NEW PORT RICHEY, FL, 34653",623709216,"L"
710447,"5317 BATAAN RD","HOUSTON","TX",77033,29.6834931810001,-95.3395633329999,447,"5317 BATAAN RD, HOUSTON, TX, 77033","Match","Exact","5317 BATAAN RD, HOUSTON, TX, 77033",96089523,"L"
710448,"5317 BENTON AVE","DOWNERS GROVE","IL",60515,41.7904839110001,-88.000561616,448,"5317 BENTON AVE, DOWNERS GROVE, IL, 60515","Match","Exact","5317 BENTON AVE, DOWNERS GROVE, IL, 60515",112534615,"L"
710449,"5317 BIG SPRINGS RANCH ROAD","WENATCHEE","WA",98801,47.3304643750001,-120.24234291,449,"5317 BIG SPRINGS RANCH ROAD, WENATCHEE, WA, 98801","Match","Exact","5317 BIG SPRINGS RANCH RD, WENATCHEE, WA, 98801",156987408,"L"
710450,"5317 CAHUENGA BLVD UNIT B","NORTH HOLLYWOOD","CA",91601,34.165569991,-118.361542532,450,"5317 CAHUENGA BLVD UNIT B, NORTH HOLLYWOOD, CA, 91601","Match","Exact","5317 CAHUENGA BLVD, N HOLLYWOOD, CA, 91601",642865380,"L"
710451,"5317 CAMBRIA DR","PENSACOLA","FL",32507,30.3252859500001,-87.411919035,451,"5317 CAMBRIA DR, PENSACOLA, FL, 32507","Match","Exact","5317 CAMBRIA DR, PENSACOLA, FL, 32507",93209070,"L"
710452,"5317 CATHY DRIVE","MONTGOMERY","AL",36108,32.299891023,-86.3476135,452,"5317 CATHY DRIVE, MONTGOMERY, AL, 36108","Match","Exact","5317 CATHY DR, MONTGOMERY, AL, 36108",1474608,"L"
710453,"5317 COLT DRIVE","WEST DES MOINES","IA",50266,41.582162327,-93.7789938619999,453,"5317 COLT DRIVE, WEST DES MOINES, IA, 50266","Match","Exact","5317 COLT DR, WEST DES MOINES, IA, 50266",65799854,"L"
710454,"5317 COLUMBIA RD SUITE E","COLUMBIA","MD",21044,39.2343938130001,-76.8448954309999,454,"5317 COLUMBIA RD SUITE E, COLUMBIA, MD, 21044","Match","Exact","5317 COLUMBIA RD, COLUMBIA, MD, 21044",158962181,"L"
710455,"5317 CUPIDS DART DR","CENTREVILLE","VA",20120,NA,NA,455,"5317 CUPIDS DART DR, CENTREVILLE, VA, 20120","No_Match",NA,NA,NA,NA
710456,"5317 DEGNAN DR","MARTINEZ","CA",94553,37.9804846480001,-122.115615592,456,"5317 DEGNAN DR, MARTINEZ, CA, 94553","Match","Exact","5317 DEGNAN DR, MARTINEZ, CA, 94553",192046127,"L"
710457,"5317 E 6TH STREET","TUCSON","AZ",85711,32.2280841890001,-110.878755761,457,"5317 E 6TH STREET, TUCSON, AZ, 85711","Match","Exact","5317 E 6TH ST, TUCSON, AZ, 85711",121221227,"L"
710458,"5317 ENGLEWOOD PLACE APT D","SAINT LOUIS","MO",63121,38.713800624,-90.285773007,458,"5317 ENGLEWOOD PLACE APT D, SAINT LOUIS, MO, 63121","Match","Exact","5317 ENGLEWOOD PL, SAINT LOUIS, MO, 63121",100180892,"L"
710459,"5317 FRUITVILLE RD 48","SARASOTA","FL",34232,27.337944034,-82.462980567,459,"5317 FRUITVILLE RD 48, SARASOTA, FL, 34232","Match","Exact","5317 FRUITVILLE RD, SARASOTA, FL, 34232",16427616,"L"
710460,"5317 FRUITVILLE ROAD NUM 191","SARASOTA","FL",34232,27.337944034,-82.462980567,460,"5317 FRUITVILLE ROAD NUM 191, SARASOTA, FL, 34232","Match","Exact","5317 FRUITVILLE RD, SARASOTA, FL, 34232",16427616,"L"
710461,"5317 FRUITVILLE ROAD STE 87","SARASOTA","FL",34232,27.337944034,-82.462980567,461,"5317 FRUITVILLE ROAD STE 87, SARASOTA, FL, 34232","Match","Exact","5317 FRUITVILLE RD, SARASOTA, FL, 34232",16427616,"L"
710462,"5317 GERMAIN STREET","STEPHENS CITY","VA",22655,39.085388235,-78.217681941,462,"5317 GERMAIN STREET, STEPHENS CITY, VA, 22655","Match","Exact","5317 GERMAIN ST, STEPHENS CITY, VA, 22655",55603750,"L"
710463,"5317 GIST AVENUE","BALTIMORE","MD",21215,39.3469605980001,-76.685280263,463,"5317 GIST AVENUE, BALTIMORE, MD, 21215","Match","Exact","5317 GIST AVE, BALTIMORE, MD, 21215",206445496,"R"
710464,"5317 GLOVER LANE","MILTON","FL",32570,NA,NA,464,"5317 GLOVER LANE, MILTON, FL, 32570","No_Match",NA,NA,NA,NA
710465,"5317 GRAN PARADISO PL NW","ISSAQUAH","WA",98027,47.5534659830001,-122.097834672,465,"5317 GRAN PARADISO PL NW, ISSAQUAH, WA, 98027","Match","Exact","5317 GRAN PARADISO PL NW, ISSAQUAH, WA, 98027",186927028,"R"
710466,"5317 GRAN PARADISO PLACE NW","ISSAQUAH","WA",98027,47.5534659830001,-122.097834672,466,"5317 GRAN PARADISO PLACE NW, ISSAQUAH, WA, 98027","Match","Exact","5317 GRAN PARADISO PL NW, ISSAQUAH, WA, 98027",186927028,"R"
710467,"5317 GREENSIDE CT","ORLANDO","FL",32819,28.4813895550001,-81.503786641,467,"5317 GREENSIDE CT, ORLANDO, FL, 32819","Match","Exact","5317 GREENSIDE CT, ORLANDO, FL, 32819",606123731,"L"
710468,"5317 HAYES STREET NE","WASHINGTON","DC",20019,38.899751973,-76.924467726,468,"5317 HAYES STREET NE, WASHINGTON, DC, 20019","Match","Exact","5317 HAYES ST NE, WASHINGTON, DC, 20019",76233983,"R"
710469,"5317 HIGHGATE ROAD STE 212","DURHAM","NC",27713,35.910559806,-78.942574064,469,"5317 HIGHGATE ROAD STE 212, DURHAM, NC, 27713","Match","Non_Exact","5317 HIGHGATE DR, DURHAM, NC, 27713",71765022,"L"
710470,"5317 HILAND ROAD","EAGLE RIVER","AK",99577,61.2689988640001,-149.477488334,470,"5317 HILAND ROAD, EAGLE RIVER, AK, 99577","Match","Exact","5317 HILAND RD, EAGLE RIVER, AK, 99577",190827423,"L"
710471,"5317 JARVIS AVE","SKOKIE","IL",60077,42.0154880110001,-87.759449758,471,"5317 JARVIS AVE, SKOKIE, IL, 60077","Match","Exact","5317 JARVIS AVE, SKOKIE, IL, 60077",642124369,"L"
710472,"5317 JONQUIL COURT","MIDDLETON","WI",53562,43.1139167970001,-89.4728754239999,472,"5317 JONQUIL COURT, MIDDLETON, WI, 53562","Match","Exact","5317 JONQUIL CT, MIDDLETON, WI, 53562",49466097,"L"
710473,"5317 JONQUIL CT","MIDDLETON","WI",53562,43.1139167970001,-89.4728754239999,473,"5317 JONQUIL CT, MIDDLETON, WI, 53562","Match","Exact","5317 JONQUIL CT, MIDDLETON, WI, 53562",49466097,"L"
710474,"5317 LORRETTA DR","MT AIRY","MD",21771,39.427580248,-77.078474047,474,"5317 LORRETTA DR, MT AIRY, MD, 21771","Match","Non_Exact","5317 LORETTA DR, MOUNT AIRY, MD, 21771",61791304,"R"
710475,"5317 MARBORO DRIVE","RACINE","WI",53406,42.713061114,-87.843229482,475,"5317 MARBORO DRIVE, RACINE, WI, 53406","Match","Exact","5317 MARBORO DR, RACINE, WI, 53406",77908791,"L"
710476,"5317 N 37TH ST","MILWAUKEE","WI",53209,43.114176119,-87.95882675,476,"5317 N 37TH ST, MILWAUKEE, WI, 53209","Match","Exact","5317 N 37TH ST, MILWAUKEE, WI, 53209",77735497,"L"
710477,"5317 N 37TH STREET","MILWAUKEE","WI",53209,43.114176119,-87.95882675,477,"5317 N 37TH STREET, MILWAUKEE, WI, 53209","Match","Exact","5317 N 37TH ST, MILWAUKEE, WI, 53209",77735497,"L"
710478,"5317 N JEFFERSON ST","SPOKANE","WA",99205,47.706477545,-117.428481044,478,"5317 N JEFFERSON ST, SPOKANE, WA, 99205","Match","Exact","5317 N JEFFERSON ST, SPOKANE, WA, 99205",189872910,"L"
710479,"5317 NEW CASTLETON LANE","FORT WORTH","TX",76135,32.8304315730001,-97.403842891,479,"5317 NEW CASTLETON LANE, FORT WORTH, TX, 76135","Match","Exact","5317 NEW CASTLETON LN, FORT WORTH, TX, 76135",638654572,"L"
710480,"5317 NEWHALL RD","DURHAM","NC",27713,35.888242211,-78.910323787,480,"5317 NEWHALL RD, DURHAM, NC, 27713","Match","Exact","5317 NEWHALL RD, DURHAM, NC, 27713",71744288,"L"
710481,"5317 NORTH HILLS DRIVE","RALEIGH","NC",27612,35.849693388,-78.660988488,481,"5317 NORTH HILLS DRIVE, RALEIGH, NC, 27612","Match","Exact","5317 N HILLS DR, RALEIGH, NC, 27612",72496467,"L"
710482,"5317 PLEASANT RIDGE RD","RISING SUN","IN",47040,38.950487767,-84.9210649249999,482,"5317 PLEASANT RIDGE RD, RISING SUN, IN, 47040","Match","Exact","5317 PLEASANT RIDGE RD, RISING SUN, IN, 47040",76884333,"R"
710483,"5317 PLYMOUTH RD SUITE 100","BALTIMORE","MD",21214,39.353957123,-76.5711530459999,483,"5317 PLYMOUTH RD SUITE 100, BALTIMORE, MD, 21214","Match","Exact","5317 PLYMOUTH RD, BALTIMORE, MD, 21214",206409918,"R"
710484,"5317 RUSSELL DRIVE","WAUSAU","WI",54401,44.9608385990001,-89.703448954,484,"5317 RUSSELL DRIVE, WAUSAU, WI, 54401","Match","Exact","5317 RUSSELL DR, WAUSAU, WI, 54401",117152696,"R"
710485,"5317 SIESTA COURT","SARASOTA","FL",34242,27.272973334,-82.545694564,485,"5317 SIESTA COURT, SARASOTA, FL, 34242","Match","Exact","5317 SIESTA CT, SARASOTA, FL, 34242",16348990,"R"
710486,"5317 SMOKE TREE DRIVE","ARLINGTON","TX",76018,32.6600028190001,-97.1100316,486,"5317 SMOKE TREE DRIVE, ARLINGTON, TX, 76018","Match","Exact","5317 SMOKE TREE DR, ARLINGTON, TX, 76018",101911739,"R"
710487,"5317 SW 140TH PL","MIAMI","FL",33175,25.7162041300001,-80.421037355,487,"5317 SW 140TH PL, MIAMI, FL, 33175","Match","Exact","5317 SW 140TH PL, MIAMI, FL, 33175",115964034,"R"
710488,"5317 SWIFT HILL LANE","SANDSTON","VA",23150,37.488694138,-77.196174143,488,"5317 SWIFT HILL LANE, SANDSTON, VA, 23150","Match","Exact","5317 SWIFT HILL LN, SANDSTON, VA, 23150",106665242,"R"
710489,"5317 SWIFT HILL LN","SANDSTON","VA",23150,37.488694138,-77.196174143,489,"5317 SWIFT HILL LN, SANDSTON, VA, 23150","Match","Exact","5317 SWIFT HILL LN, SANDSTON, VA, 23150",106665242,"R"
710490,"5317 THOMPSON CREEK RD","JACKSONVILLE","OR",97530,42.194051894,-123.214907763,490,"5317 THOMPSON CREEK RD, JACKSONVILLE, OR, 97530","Match","Exact","5317 THOMPSON CREEK RD, JACKSONVILLE, OR, 97530",155549661,"L"
710491,"5317 VALENCIA LN SW","VERO BEACH","FL",32968,NA,NA,491,"5317 VALENCIA LN SW, VERO BEACH, FL, 32968","No_Match",NA,NA,NA,NA
710492,"5317 VERSAILLES AVENUE","BRIGHTON","MI",48116,NA,NA,492,"5317 VERSAILLES AVENUE, BRIGHTON, MI, 48116","No_Match",NA,NA,NA,NA
710493,"5317 VIEWSIDE DR","GARLAND","TX",75043,32.862389767,-96.595429407,493,"5317 VIEWSIDE DR, GARLAND, TX, 75043","Match","Non_Exact","5317 VIEWSIDE, GARLAND, TX, 75043",103277043,"L"
710494,"5317 W GIDDINGS STREET APT 3","CHICAGO","IL",60630,41.9663289380001,-87.7605232339999,494,"5317 W GIDDINGS STREET APT 3, CHICAGO, IL, 60630","Match","Non_Exact","5317 W GIDDINGS ST, CHICAGO, IL, 60630",605185526,"L"
710495,"5317 WESTERN PLAINS AVE","ABILENE","TX",79606,32.3604327310001,-99.796352,495,"5317 WESTERN PLAINS AVE, ABILENE, TX, 79606","Match","Exact","5317 WESTERN PLAINS AVE, ABILENE, TX, 79606",129967553,"L"
710496,"5317 WILHELM DRIVE","MOBILE","AL",36618,30.7314828930001,-88.1652521089999,496,"5317 WILHELM DRIVE, MOBILE, AL, 36618","Match","Exact","5317 WILHELM DR, MOBILE, AL, 36618",61846906,"L"
710497,"5317 WINGOHOCKING TERRACE","PHILADELPHIA","PA",19144,40.037623108,-75.163753261,497,"5317 WINGOHOCKING TERRACE, PHILADELPHIA, PA, 19144","Match","Exact","5317 WINGOHOCKING TER, PHILADELPHIA, PA, 19144",131395903,"L"
710498,"5317 WINKLER DRIVE","AMARILLO","TX",79109,NA,NA,498,"5317 WINKLER DRIVE, AMARILLO, TX, 79109","No_Match",NA,NA,NA,NA
710499,"5317 WINSLOW CROSSING","LITHONIA","GA",30038,33.6905737060001,-84.172080066,499,"5317 WINSLOW CROSSING, LITHONIA, GA, 30038","Match","Exact","5317 WINSLOW CROSSING, LITHONIA, GA, 30038",23383361,"R"
710500,"5317 WOOD LILLY LANE","WATERFORD","WI",53185,42.7849935500001,-88.204520175,500,"5317 WOOD LILLY LANE, WATERFORD, WI, 53185","Match","Exact","5317 WOOD LILLY LN, WATERFORD, WI, 53185",77918348,"R"
