"ID","Address","City","State","Zip","lat","long","id","input_address","match_indicator","match_type","matched_address","tiger_line_id","tiger_side"
778501,"630 SHORE ROAD","LONG BEACH","NY",11561,40.5840630000001,-73.645797562,1,"630 SHORE ROAD, LONG BEACH, NY, 11561","Match","Exact","630 SHORE RD, LONG BEACH, NY, 11561",650040614,"R"
778502,"630 SILVER LAKE","LOS ANGELES","CA",90017,NA,NA,2,"630 SILVER LAKE, LOS ANGELES, CA, 90017","No_Match",NA,NA,NA,NA
778503,"630 SOLEDAD ST","ARLINGTON","TX",76002,32.609532587,-97.1010195379999,3,"630 SOLEDAD ST, ARLINGTON, TX, 76002","Match","Exact","630 SOLEDAD ST, ARLINGTON, TX, 76002",102188039,"R"
778504,"630 SOUTH 11TH STREET","PHILADELPHIA","PA",19147,39.9424692910001,-75.160328405,4,"630 SOUTH 11TH STREET, PHILADELPHIA, PA, 19147","Match","Exact","630 S 11TH ST, PHILADELPHIA, PA, 19147",131438446,"R"
778505,"630 SOUTH BREWSTER RD","VINELAND","NJ",8361,39.475451262,-74.976859528,5,"630 SOUTH BREWSTER RD, VINELAND, NJ, 8361","Match","Exact","630 S BREWSTER RD, VINELAND, NJ, 08361",645216773,"L"
778506,"630 SOUTH MAIN STREET","WATER VALLEY","MS",38965,34.130594839,-89.641009235,6,"630 SOUTH MAIN STREET, WATER VALLEY, MS, 38965","Match","Exact","630 S MAIN ST, WATER VALLEY, MS, 38965",639489891,"L"
778507,"630 SOUTH MILL STREET","ORRVILLE","OH",44667,40.8349762230001,-81.762127756,7,"630 SOUTH MILL STREET, ORRVILLE, OH, 44667","Match","Exact","630 S MILL ST, ORRVILLE, OH, 44667",58753410,"R"
778508,"630 SOUTH ROOSEVELT AVENUE","ARLINGTON HEIGHTS","IL",60005,42.0730978820001,-87.9696677909999,8,"630 SOUTH ROOSEVELT AVENUE, ARLINGTON HEIGHTS, IL, 60005","Match","Exact","630 S ROOSEVELT AVE, ARLINGTON HEIGHTS, IL, 60005",111716434,"R"
778509,"630 SOUTH STEWART AVENUE","LOMBARD","IL",60148,41.8739464020001,-88.010896481,9,"630 SOUTH STEWART AVENUE, LOMBARD, IL, 60148","Match","Exact","630 S STEWART AVE, LOMBARD, IL, 60148",112693728,"R"
778510,"630 SPLITLOG AVE","KANSAS CITY","KS",66101,39.1090543620001,-94.624805483,10,"630 SPLITLOG AVE, KANSAS CITY, KS, 66101","Match","Exact","630 SPLITLOG AVE, KANSAS CITY, KS, 66101",91140971,"R"
778511,"630 SPROUT BROOK ROAD","PUTNAM VALLEY","NY",10579,41.357489258,-73.8892462169999,11,"630 SPROUT BROOK ROAD, PUTNAM VALLEY, NY, 10579","Match","Exact","630 SPROUT BROOK RD, PUTNAM VALLEY, NY, 10579",139677426,"R"
778512,"630 ST ISAAC CT","FAIRBURN","GA",30213,33.5835518480001,-84.6275881349999,12,"630 ST ISAAC CT, FAIRBURN, GA, 30213","Match","Exact","630 ST ISAAC CT, FAIRBURN, GA, 30213",624578393,"L"
778513,"630 STANLEY AVE APT 8F","BROOKLYN","NY",11207,40.6587715950001,-73.885240966,13,"630 STANLEY AVE APT 8F, BROOKLYN, NY, 11207","Match","Exact","630 STANLEY AVE, BROOKLYN, NY, 11207",609080664,"R"
778514,"630 STANLEY AVENUE APT 8F","BROOKYN","NY",11207,40.6587715950001,-73.885240966,14,"630 STANLEY AVENUE APT 8F, BROOKYN, NY, 11207","Match","Non_Exact","630 STANLEY AVE, BROOKLYN, NY, 11207",609080664,"R"
778515,"630 STATE ROUTE 12","FLEMINGTON","NJ",8822,40.508854209,-74.941709998,15,"630 STATE ROUTE 12, FLEMINGTON, NJ, 8822","Match","Exact","630 STATE RTE 12, FLEMINGTON, NJ, 08822",60007190,"R"
778516,"630 STATE STREET","OSAGE","IA",50461,43.283075556,-92.812267257,16,"630 STATE STREET, OSAGE, IA, 50461","Match","Exact","630 STATE ST, OSAGE, IA, 50461",7470679,"L"
778517,"630 STEPHANY CIRCLE","RURAL HALL","NC",27045,36.2117635710001,-80.272127268,17,"630 STEPHANY CIRCLE, RURAL HALL, NC, 27045","Match","Exact","630 STEPHANY CIR, RURAL HALL, NC, 27045",84675089,"L"
778518,"630 STEWART RD","EADS","TN",38028,35.2382779910001,-89.6252931989999,18,"630 STEWART RD, EADS, TN, 38028","Match","Exact","630 STEWART RD, EADS, TN, 38028",627783293,"R"
778519,"630 SUNNYSIDE RD","TROUT LAKE","WA",98650,45.954468805,-121.47407392,19,"630 SUNNYSIDE RD, TROUT LAKE, WA, 98650","Match","Exact","630 SUNNYSIDE RD, TROUT LAKE, WA, 98650",624853154,"R"
778520,"630 SUNNYSIDE","ELMHURST","IL",60126,NA,NA,20,"630 SUNNYSIDE, ELMHURST, IL, 60126","No_Match",NA,NA,NA,NA
778521,"630 SUNRISE ST","DENVER","IA",50622,42.668731463,-92.321332543,21,"630 SUNRISE ST, DENVER, IA, 50622","Match","Exact","630 SUNRISE ST, DENVER, IA, 50622",77353186,"L"
778522,"630 SURFSIDE DR","AKRON","OH",44319,40.993591445,-81.544879523,22,"630 SURFSIDE DR, AKRON, OH, 44319","Match","Exact","630 SURFSIDE DR, AKRON, OH, 44319",61373116,"L"
778523,"630 SW 5TH AVE SUITE 500","PORTLAND","OR",97204,45.5192423830001,-122.677317666,23,"630 SW 5TH AVE SUITE 500, PORTLAND, OR, 97204","Match","Non_Exact","630 SW 5TH AVE, PORTLAND, OR, 97204",157499263,"L"
778524,"630 SWEET HOLLOW ROAD","BLOOMSBURY","NJ",8804,40.634049739,-75.0688453829999,24,"630 SWEET HOLLOW ROAD, BLOOMSBURY, NJ, 8804","Match","Exact","630 SWEET HOLLOW RD, BLOOMSBURY, NJ, 08804",632486548,"R"
778525,"630 TENNESSE STREET","GREEN CASTLE","IN",46135,39.6372173840001,-86.851751447,25,"630 TENNESSE STREET, GREEN CASTLE, IN, 46135","Match","Non_Exact","630 TENNESSEE ST, GREENCASTLE, IN, 46135",50104097,"L"
778526,"630 TENNESSE STREET","GREENCASTLE","IN",46135,39.6372173840001,-86.851751447,26,"630 TENNESSE STREET, GREENCASTLE, IN, 46135","Match","Non_Exact","630 TENNESSEE ST, GREENCASTLE, IN, 46135",50104097,"L"
778527,"630 TENNIS CLUB DR APT 408","FORT LAUDERDALE","FL",33311,NA,NA,27,"630 TENNIS CLUB DR APT 408, FORT LAUDERDALE, FL, 33311","No_Match",NA,NA,NA,NA
778528,"630 TENNYSON AVENUE","WINCHESTER","VA",22601,39.1795251280001,-78.178067815,28,"630 TENNYSON AVENUE, WINCHESTER, VA, 22601","Match","Exact","630 TENNYSON AVE, WINCHESTER, VA, 22601",55608638,"R"
778529,"630 TENTH STEET","KIEL","WI",53042,43.9123920590001,-88.0441222159999,29,"630 TENTH STEET, KIEL, WI, 53042","Match","Exact","630 10TH ST, KIEL, WI, 53042",640626905,"L"
778530,"630 TIMBERLAKE DR","CHAPIN","SC",29036,34.0766897230001,-81.3706096879999,30,"630 TIMBERLAKE DR, CHAPIN, SC, 29036","Match","Exact","630 TIMBERLAKE DR, CHAPIN, SC, 29036",70086590,"R"
778531,"630 TRIANA STREET","WEST PALM BEACH","FL",33413,26.6859198990001,-80.1493666219999,31,"630 TRIANA STREET, WEST PALM BEACH, FL, 33413","Match","Exact","630 TRIANA ST, WEST PALM BEACH, FL, 33413",636088519,"L"
778532,"630 TULIP POPLAR CT","MOORESVILLE","IN",46158,39.600444521,-86.3597915829999,32,"630 TULIP POPLAR CT, MOORESVILLE, IN, 46158","Match","Exact","630 TULIP POPLAR CT, MOORESVILLE, IN, 46158",43555790,"R"
778533,"630 TURTLE CREEK DRIVE SOUTH","INDIANAPOLIS","IN",46227,NA,NA,33,"630 TURTLE CREEK DRIVE SOUTH, INDIANAPOLIS, IN, 46227","No_Match",NA,NA,NA,NA
778534,"630 TWO RIVERS DR","MUKWONAGO","WI",53149,42.871447473,-88.307423872,34,"630 TWO RIVERS DR, MUKWONAGO, WI, 53149","Match","Exact","630 TWO RIVERS DR, MUKWONAGO, WI, 53149",635818372,"L"
778535,"630 VALENCIA STREET","SAN FRANCISCO","CA",94110,37.762891127,-122.421696491,35,"630 VALENCIA STREET, SAN FRANCISCO, CA, 94110","Match","Exact","630 VALENCIA ST, SAN FRANCISCO, CA, 94110",192284285,"R"
778536,"630 VALLEY CIRCLE","HAGERMAN","ID",83332,42.8210524770001,-114.892747999,36,"630 VALLEY CIRCLE, HAGERMAN, ID, 83332","Match","Exact","630 VALLEY CIR, HAGERMAN, ID, 83332",216702319,"L"
778537,"630 VALLEY MALL PARKWAY 299","EAST WENATCHEE","WA",98802,47.412922866,-120.291716718,37,"630 VALLEY MALL PARKWAY 299, EAST WENATCHEE, WA, 98802","Match","Exact","630 VALLEY MALL PKWY, EAST WENATCHEE, WA, 98802",156883729,"R"
778538,"630 VALLEY OAK DR","VACAVILLE","CA",95687,38.356917777,-121.941558246,38,"630 VALLEY OAK DR, VACAVILLE, CA, 95687","Match","Exact","630 VALLEY OAK DR, VACAVILLE, CA, 95687",192546062,"R"
778539,"630 VEITENHEIMER RD","WINDTHORST","TX",76389,33.5984568040001,-98.420529892,39,"630 VEITENHEIMER RD, WINDTHORST, TX, 76389","Match","Exact","630 VEITENHEIMER RD, WINDTHORST, TX, 76389",169783051,"R"
778540,"630 VENICE WAY 203","INGLEWOOD","CA",90302,33.9703146350001,-118.365667131,40,"630 VENICE WAY 203, INGLEWOOD, CA, 90302","Match","Exact","630 VENICE WAY, INGLEWOOD, CA, 90302",650071824,"L"
778541,"630 W 118TH STREET","LOS ANGELES","CA",90044,33.9261368750001,-118.28553197,41,"630 W 118TH STREET, LOS ANGELES, CA, 90044","Match","Exact","630 W 118TH ST, LOS ANGELES, CA, 90044",141661735,"L"
778542,"630 W 139TH STREET APT 1C","NEW YORK","NY",10031,40.8229446020001,-73.95394952,42,"630 W 139TH STREET APT 1C, NEW YORK, NY, 10031","Match","Non_Exact","630 W 139TH ST, NEW YORK, NY, 10031",59655865,"L"
778543,"630 W 168TH STREET","NEW YORK","NY",10032,40.8417259670001,-73.94128798,43,"630 W 168TH STREET, NEW YORK, NY, 10032","Match","Exact","630 W 168TH ST, NEW YORK, NY, 10032",59655674,"L"
778544,"630 W 170TH ST","NEW YORK","NY",10032,40.8427757090001,-73.940072454,44,"630 W 170TH ST, NEW YORK, NY, 10032","Match","Exact","630 W 170TH ST, NEW YORK, NY, 10032",59655686,"L"
778545,"630 W 40TH STREET","SAVANNAH","GA",31415,32.0565387250001,-81.108189811,45,"630 W 40TH STREET, SAVANNAH, GA, 31415","Match","Exact","630 W 40TH ST, SAVANNAH, GA, 31415",6171321,"R"
778546,"630 W 5TH STREET","LOS ANGELES","CA",90071,NA,NA,46,"630 W 5TH STREET, LOS ANGELES, CA, 90071","No_Match",NA,NA,NA,NA
778547,"630 W 7TH STREET","RINCON","GA",31326,32.2904581600001,-81.242587525,47,"630 W 7TH STREET, RINCON, GA, 31326","Match","Exact","630 W SEVENTH ST, RINCON, GA, 31326",6271923,"L"
778548,"630 W AUSTIN ST","FLINT","MI",48505,43.069398962,-83.712391308,48,"630 W AUSTIN ST, FLINT, MI, 48505","Match","Non_Exact","630 W AUSTIN AVE, FLINT, MI, 48505",69563879,"R"
778549,"630 W BONITA 10-E","CLAREMONT","CA",91711,NA,NA,49,"630 W BONITA 10-E, CLAREMONT, CA, 91711","No_Match",NA,NA,NA,NA
778550,"630 W BROAD","MINEOLA","TX",75790,NA,NA,50,"630 W BROAD, MINEOLA, TX, 75790","No_Match",NA,NA,NA,NA
778551,"630 W DIVERSITY PARKWAY","CHICAGO","MO",60614,NA,NA,51,"630 W DIVERSITY PARKWAY, CHICAGO, MO, 60614","No_Match",NA,NA,NA,NA
778552,"630 W DRUMMOND PLACE","CHICAGO","IL",60514,41.930485037,-87.644980146,52,"630 W DRUMMOND PLACE, CHICAGO, IL, 60514","Match","Non_Exact","630 W DRUMMOND PL, CHICAGO, IL, 60614",641756620,"R"
778553,"630 W DUARTE RD SUT305","ARCADIA","CA",91007,34.126484073,-118.052032435,53,"630 W DUARTE RD SUT305, ARCADIA, CA, 91007","Match","Non_Exact","630 W DUARTE RD, ARCADIA, CA, 91007",141644407,"L"
778554,"630 W MAIN","HOPKINS","MI",49328,42.6240704960001,-85.769825097,54,"630 W MAIN, HOPKINS, MI, 49328","Match","Exact","630 W MAIN, HOPKINS, MI, 49328",11419662,"R"
778555,"630 W MILLER ST","ORLANDO","FL",32805,28.5237686150001,-81.387642939,55,"630 W MILLER ST, ORLANDO, FL, 32805","Match","Exact","630 W MILLER ST, ORLANDO, FL, 32805",94281596,"L"
778556,"630 W QUEEN ST UNIT 10","INGLEWOOD","CA",90301,NA,NA,56,"630 W QUEEN ST UNIT 10, INGLEWOOD, CA, 90301","Tie",NA,NA,NA,NA
778557,"630 W THARPE ST","TALLAHASSEE","FL",32303,30.4637412210001,-84.290260597,57,"630 W THARPE ST, TALLAHASSEE, FL, 32303","Match","Exact","630 W THARPE ST, TALLAHASSEE, FL, 32303",82850168,"R"
778558,"630 W WARD LANE SUITE 102","GREEN VALLEY","AZ",85614,31.8867642490001,-111.001897287,58,"630 W WARD LANE SUITE 102, GREEN VALLEY, AZ, 85614","Match","Non_Exact","630 W WARD LN, GREEN VALLEY, AZ, 85614",121192036,"R"
778559,"630 WALES DRIVE","LOUDONVILLE","OH",44842,40.6313339930001,-82.2240590219999,59,"630 WALES DRIVE, LOUDONVILLE, OH, 44842","Match","Exact","630 WALES DR, LOUDONVILLE, OH, 44842",30167047,"R"
778560,"630 WASHINGTON AVENUE","LOS BANOS","CA",93635,37.055975941,-120.849753802,60,"630 WASHINGTON AVENUE, LOS BANOS, CA, 93635","Match","Exact","630 WASHINGTON AVE, LOS BANOS, CA, 93635",125290844,"R"
778561,"630 WATERSTONE DRIVE","LAWRENCEVILL","GA",30046,33.930723433,-83.988837099,61,"630 WATERSTONE DRIVE, LAWRENCEVILL, GA, 30046","Match","Non_Exact","630 WATERSTONE DR SW, LAWRENCEVILLE, GA, 30046",630017097,"L"
778562,"630 WEST 170TH STREET APT 3F","NEW YORK","NY",10032,40.8427703460001,-73.9400597059999,62,"630 WEST 170TH STREET APT 3F, NEW YORK, NY, 10032","Match","Exact","630 W 170TH ST, NEW YORK, NY, 10032",59655686,"L"
778563,"630 WEST 246TH STREET APT 234","BRONX","NY",10471,40.8923794460001,-73.911203148,63,"630 WEST 246TH STREET APT 234, BRONX, NY, 10471","Match","Exact","630 W 246TH ST, BRONX, NY, 10471",80310308,"L"
778564,"630 WEST 6TH ST","LOS ANGELES","CA",90017,34.0489172260001,-118.25554547,64,"630 WEST 6TH ST, LOS ANGELES, CA, 90017","Match","Exact","630 W 6TH ST, LOS ANGELES, CA, 90017",141617202,"L"
778565,"630 WEST 8TH STREET","GARNER","IA",50438,43.09781394,-93.609815829,65,"630 WEST 8TH STREET, GARNER, IA, 50438","Match","Exact","630 W 8TH ST, GARNER, IA, 50438",7405279,"L"
778566,"630 WEST CANTY UNIT A3","DALLAS","TX",75208,32.7523579410001,-96.833073622,66,"630 WEST CANTY UNIT A3, DALLAS, TX, 75208","Match","Non_Exact","630 W CANTY ST, DALLAS, TX, 75208",102945949,"L"
778567,"630 WEST END AVE APT 3","NEW YORK","NY",10024,40.7918265960001,-73.9756996199999,67,"630 WEST END AVE APT 3, NEW YORK, NY, 10024","Match","Exact","630 W END AVE, NEW YORK, NY, 10024",59656687,"R"
778568,"630 WEST FISHER AVENUE APT 108","PHILADELPHIA","PA",19120,40.0321556550001,-75.133703806,68,"630 WEST FISHER AVENUE APT 108, PHILADELPHIA, PA, 19120","Match","Exact","630 W FISHER AVE, PHILADELPHIA, PA, 19120",131419345,"L"
778569,"630 WEST HUNTINGTON DR","ARCADIA","CA",91007,34.1316397040001,-118.052703498,69,"630 WEST HUNTINGTON DR, ARCADIA, CA, 91007","Match","Exact","630 W HUNTINGTON DR, ARCADIA, CA, 91007",241254800,"R"
778570,"630 WEST JOHNSON ST","PHILADELPHIA","PA",19144,40.034467164,-75.194205413,70,"630 WEST JOHNSON ST, PHILADELPHIA, PA, 19144","Match","Exact","630 W JOHNSON ST, PHILADELPHIA, PA, 19144",131400445,"R"
778571,"630 WEST LASALLE AVENUE","SOUTH BEND","IN",46601,41.679014968,-86.258668641,71,"630 WEST LASALLE AVENUE, SOUTH BEND, IN, 46601","Match","Exact","630 W LASALLE AVE, SOUTH BEND, IN, 46601",8054146,"L"
778572,"630 WEST PINE STREET","PALMYRA","PA",17078,40.299078556,-76.5999706659999,72,"630 WEST PINE STREET, PALMYRA, PA, 17078","Match","Exact","630 W PINE ST, PALMYRA, PA, 17078",634969821,"R"
778573,"630 WEST SHERIDAN ROAD","CHICAGO","IL",60613,41.9529713580001,-87.646056562,73,"630 WEST SHERIDAN ROAD, CHICAGO, IL, 60613","Match","Exact","630 W SHERIDAN RD, CHICAGO, IL, 60613",111766648,"R"
778574,"630 WHISPERING SPRINGS DRIVE","FOND DU LAC","WI",54937,43.792563591,-88.368720019,74,"630 WHISPERING SPRINGS DRIVE, FOND DU LAC, WI, 54937","Match","Exact","630 WHISPERING SPRINGS DR, FOND DU LAC, WI, 54937",635620945,"L"
778575,"630 WHITE TAIL RIDGE DRIVE","FAIRLAWN","OH",44333,41.116539082,-81.62263316,75,"630 WHITE TAIL RIDGE DRIVE, FAIRLAWN, OH, 44333","Match","Exact","630 WHITE TAIL RIDGE DR, FAIRLAWN, OH, 44333",61374101,"L"
778576,"630 WILLERS COURT","LAKE CITY","MN",55041,44.4564311440001,-92.2851064339999,76,"630 WILLERS COURT, LAKE CITY, MN, 55041","Match","Exact","630 WILLERS CT, LAKE CITY, MN, 55041",31554469,"L"
778577,"630 WILSON SQUARE","ELBERFELD","IN",47613,38.15303522,-87.444906686,77,"630 WILSON SQUARE, ELBERFELD, IN, 47613","Match","Exact","630 WILSON SQ, ELBERFELD, IN, 47613",32203045,"R"
778578,"630 WIMBLEDON COURT","EUGENE","OR",97401,44.080608371,-123.112666129,78,"630 WIMBLEDON COURT, EUGENE, OR, 97401","Match","Exact","630 WIMBLEDON CT, EUGENE, OR, 97401",178194757,"L"
778579,"630 WINWOOD DR","VESTAVIA HILLS","AL",35226,33.411701371,-86.825297795,79,"630 WINWOOD DR, VESTAVIA HILLS, AL, 35226","Match","Exact","630 WINWOOD DR, VESTAVIA HILLS, AL, 35226",81582433,"L"
778580,"630 WRIGHT ST APT 224","ROBSTOWN","TX",78380,27.785459293,-97.659281343,80,"630 WRIGHT ST APT 224, ROBSTOWN, TX, 78380","Match","Non_Exact","630 WRIGHT AVE, ROBSTOWN, TX, 78380",178511036,"R"
778581,"630","CHRISTIANSTED","VI",820,NA,NA,81,"630, CHRISTIANSTED, VI, 820","No_Match",NA,NA,NA,NA
778582,"630","KILLONA","LA",70057,NA,NA,82,"630, KILLONA, LA, 70057","No_Match",NA,NA,NA,NA
778583,"630","PALM SPRINGS","CA",92264,NA,NA,83,"630, PALM SPRINGS, CA, 92264","No_Match",NA,NA,NA,NA
778584,"6300 ALFRED HARRELL HIGHWAY","BAKERSFIELD","CA",93308,NA,NA,84,"6300 ALFRED HARRELL HIGHWAY, BAKERSFIELD, CA, 93308","No_Match",NA,NA,NA,NA
778585,"6300 ANCHOR LANE","ROCKLEDGE","FL",32955,28.247443764,-80.679198532,85,"6300 ANCHOR LANE, ROCKLEDGE, FL, 32955","Match","Exact","6300 ANCHOR LN, ROCKLEDGE, FL, 32955",93899910,"R"
778586,"6300 ANTON PL","AMARILLO","TX",79109,35.137810266,-101.905627075,86,"6300 ANTON PL, AMARILLO, TX, 79109","Match","Exact","6300 ANTON PL, AMARILLO, TX, 79109",182653322,"R"
778587,"6300 AVE ISLA VERDE/ 817","CAROLINA","PR",979,NA,NA,87,"6300 AVE ISLA VERDE/ 817, CAROLINA, PR, 979","No_Match",NA,NA,NA,NA
778588,"6300 BALCOM AVE","ENCINO","CA",91316,34.1859060510001,-118.520714479,88,"6300 BALCOM AVE, ENCINO, CA, 91316","Match","Exact","6300 BALCOM AVE, ENCINO, CA, 91316",141555549,"R"
778589,"6300 BETTINGER DRIVE","COLLEYVILLE","TX",76034,32.900066775,-97.168506279,89,"6300 BETTINGER DRIVE, COLLEYVILLE, TX, 76034","Match","Exact","6300 BETTINGER DR, COLLEYVILLE, TX, 76034",635831028,"R"
778590,"6300 BIRCH ST LOT 117","WESTON","WI",54476,44.8998939740001,-89.582819805,90,"6300 BIRCH ST LOT 117, WESTON, WI, 54476","Match","Exact","6300 BIRCH ST, WESTON, WI, 54476",616167363,"R"
778591,"6300 BRANCH HILL MIAMIVILLE ROAD","LOVELAND","OH",45140,39.2283976300001,-84.300922127,91,"6300 BRANCH HILL MIAMIVILLE ROAD, LOVELAND, OH, 45140","Match","Exact","6300 BRANCH HILL MIAMIVILLE RD, LOVELAND, OH, 45140",118443564,"L"
778592,"6300 BROOKSTONE DRIVE","ARLINGTON","TX",76001,32.6434819410001,-97.166335937,92,"6300 BROOKSTONE DRIVE, ARLINGTON, TX, 76001","Match","Exact","6300 BROOKSTONE DR, ARLINGTON, TX, 76001",101930545,"R"
778593,"6300 BUCKNELL CIRCLE","VIRGINIA BEACH","VA",23464,36.8036592770001,-76.215283356,93,"6300 BUCKNELL CIRCLE, VIRGINIA BEACH, VA, 23464","Match","Exact","6300 BUCKNELL CIR, VA BCH, VA, 23464",122283629,"L"
778594,"6300 CAMBRIDGE COURT","NEW ORLEANS","LA",70131,29.9186603700001,-89.986976828,94,"6300 CAMBRIDGE COURT, NEW ORLEANS, LA, 70131","Match","Exact","6300 CAMBRIDGE CT, NEW ORLEANS, LA, 70131",191723621,"L"
778595,"6300 CANARY FALLS LN APT 204","RALEIGH","NC",27606,35.7842128620001,-78.747653848,95,"6300 CANARY FALLS LN APT 204, RALEIGH, NC, 27606","Match","Exact","6300 CANARY FALLS LN, RALEIGH, NC, 27606",648793689,"R"
778596,"6300 CHERRY ROAD","OCALA","FL",34472,29.1681017120001,-82.049040378,96,"6300 CHERRY ROAD, OCALA, FL, 34472","Match","Exact","6300 CHERRY RD, OCALA, FL, 34472",639762948,"R"
778597,"6300 COHOCTAH","FENTON","MI",48430,42.7638695520001,-83.82968711,97,"6300 COHOCTAH, FENTON, MI, 48430","Match","Exact","6300 COHOCTAH, FENTON, MI, 48430",23556678,"L"
778598,"6300 COLDSTREAM DR","HIGHLAND HGTS","OH",44143,41.562946099,-81.4527031379999,98,"6300 COLDSTREAM DR, HIGHLAND HGTS, OH, 44143","Match","Non_Exact","6300 COLDSTREAM RD, HIGHLAND HGTS, OH, 44143",61145394,"R"
778599,"6300 CONNAUGHT CT","OKLAHOMA CITY","OK",73132,35.5603524730001,-97.6265129129999,99,"6300 CONNAUGHT CT, OKLAHOMA CITY, OK, 73132","Match","Exact","6300 CONNAUGHT CT, OKLAHOMA CITY, OK, 73132",100388138,"L"
778600,"6300 COUNTY ROAD 145","BRECKENRIDGE","TX",76424,32.629597904,-98.799322492,100,"6300 COUNTY ROAD 145, BRECKENRIDGE, TX, 76424","Match","Exact","6300 CO RD 145, BRECKENRIDGE, TX, 76424",187525920,"R"
778601,"6300 CRACKLINGTOWN ROAD","HUGHESVILLE","MD",20637,38.539363929,-76.819822775,101,"6300 CRACKLINGTOWN ROAD, HUGHESVILLE, MD, 20637","Match","Exact","6300 CRACKLINGTOWN RD, HUGHESVILLE, MD, 20637",25372132,"R"
778602,"6300 CREEDMOOR RD 170-187","RALEIGH","NC",27612,35.871499445,-78.679652973,102,"6300 CREEDMOOR RD 170-187, RALEIGH, NC, 27612","Match","Exact","6300 CREEDMOOR RD, RALEIGH, NC, 27612",639843715,"R"
778603,"6300 CREEDMOOR RD STE 170 - 213","RALEIGH","NC",27612,35.871499445,-78.679652973,103,"6300 CREEDMOOR RD STE 170 - 213, RALEIGH, NC, 27612","Match","Exact","6300 CREEDMOOR RD, RALEIGH, NC, 27612",639843715,"R"
778604,"6300 CRESCENTVILLE RD","PHILADELPHIA","PA",19120,40.045000972,-75.1128663059999,104,"6300 CRESCENTVILLE RD, PHILADELPHIA, PA, 19120","Match","Exact","6300 CRESCENTVILLE RD, PHILADELPHIA, PA, 19120",647554284,"L"
778605,"6300 CREST GREEN RD APT 101","BIRMINGHAM","AL",35212,33.5345505660001,-86.7347134,105,"6300 CREST GREEN RD APT 101, BIRMINGHAM, AL, 35212","Match","Non_Exact","6300 CREST GREEN RD S, BIRMINGHAM, AL, 35212",640553107,"L"
778606,"6300 CRESTGATE LANE","TUCKER","GA",30084,33.8653276380001,-84.178732193,106,"6300 CRESTGATE LANE, TUCKER, GA, 30084","Match","Non_Exact","6300 CRESTGATE LN NW, TUCKER, GA, 30084",623855746,"R"
778607,"6300 CYPRESS DR","Excelsior","MN",55331,44.8897939730001,-93.60466865,107,"6300 CYPRESS DR, Excelsior, MN, 55331","Match","Exact","6300 CYPRESS DR, EXCELSIOR, MN, 55331",43497643,"R"
778608,"6300 DARLING ST","BLACKLICK","OH",43004,40.0356008860001,-82.817057586,108,"6300 DARLING ST, BLACKLICK, OH, 43004","Match","Non_Exact","6300 DARLING RD, BLACKLICK, OH, 43004",218694271,"R"
778609,"6300 DEANE HILL DR","KNOXVILLE","TN",37919,35.9320575300001,-84.005103149,109,"6300 DEANE HILL DR, KNOXVILLE, TN, 37919","Match","Exact","6300 DEANE HILL DR, KNOXVILLE, TN, 37919",42615720,"L"
778610,"6300 DEANE HILL DRIVE","KNOXVILLE","TN",37919,35.9320575300001,-84.005103149,110,"6300 DEANE HILL DRIVE, KNOXVILLE, TN, 37919","Match","Exact","6300 DEANE HILL DR, KNOXVILLE, TN, 37919",42615720,"L"
778611,"6300 DEERING DRIVE","ODESSA","TX",79762,31.8857030830001,-102.306918335,111,"6300 DEERING DRIVE, ODESSA, TX, 79762","Match","Exact","6300 DEERING DR, ODESSA, TX, 79762",139431870,"R"
778612,"6300 DRIFTWOOD DRIVE","GRAND FORKS","ND",58201,47.8581299950001,-97.017601116,112,"6300 DRIFTWOOD DRIVE, GRAND FORKS, ND, 58201","Match","Exact","6300 DRIFTWOOD DR, GRAND FORKS, ND, 58201",171308526,"R"
778613,"6300 DULIN CREEK ROAD","HOUSE SPRINGS","MO",63051,38.348762499,-90.58786537,113,"6300 DULIN CREEK ROAD, HOUSE SPRINGS, MO, 63051","Match","Exact","6300 DULIN CREEK RD, HOUSE SPRINGS, MO, 63051",639162228,"R"
778614,"6300 DUNHAVEN CT","SALISBURY","MD",21801,38.3662677090001,-75.6480499739999,114,"6300 DUNHAVEN CT, SALISBURY, MD, 21801","Match","Exact","6300 DUNHAVEN CT, SALISBURY, MD, 21801",114461933,"L"
778615,"6300 E 102ND ST","KANSAS CITY","MO",64134,38.9400486320001,-94.5160085649999,115,"6300 E 102ND ST, KANSAS CITY, MO, 64134","Match","Exact","6300 E 102ND ST, KANSAS CITY, MO, 64134",91465765,"L"
778616,"6300 E 102ND STREEET","KANSAS CITY","MO",64134,NA,NA,116,"6300 E 102ND STREEET, KANSAS CITY, MO, 64134","No_Match",NA,NA,NA,NA
778617,"6300 E 102ND STREET","KANSAS CITY","MO",64134,38.9400486320001,-94.5160085649999,117,"6300 E 102ND STREET, KANSAS CITY, MO, 64134","Match","Exact","6300 E 102ND ST, KANSAS CITY, MO, 64134",91465765,"L"
778618,"6300 E PEACH ST","INVERNESS","FL",34452,28.7962689240001,-82.3300064329999,118,"6300 E PEACH ST, INVERNESS, FL, 34452","Match","Exact","6300 E PEACH ST, INVERNESS, FL, 34452",86204054,"L"
778619,"6300 EAST HAMPDEN AVE UNIT C 296","DENVER","CO",80222,NA,NA,119,"6300 EAST HAMPDEN AVE UNIT C 296, DENVER, CO, 80222","No_Match",NA,NA,NA,NA
778620,"6300 EAVENS ROOST","TRAVERSE CITY","MI",49684,NA,NA,120,"6300 EAVENS ROOST, TRAVERSE CITY, MI, 49684","No_Match",NA,NA,NA,NA
778621,"6300 EHRHARDT","SACRAMENTO","CA",95823,38.456188485,-121.430753155,121,"6300 EHRHARDT, SACRAMENTO, CA, 95823","Match","Non_Exact","6300 EHRHARDT AVE, SACRAMENTO, CA, 95823",133403148,"L"
778622,"6300 ENRIGHT AVE APT 316","ST. LOUIS","MO",63130,NA,NA,122,"6300 ENRIGHT AVE APT 316, ST. LOUIS, MO, 63130","No_Match",NA,NA,NA,NA
778623,"6300 ENTERPRISE LANE","MADISON","WI",53719,43.057332161,-89.489862843,123,"6300 ENTERPRISE LANE, MADISON, WI, 53719","Match","Exact","6300 ENTERPRISE LN, MADISON, WI, 53719",49506340,"R"
778624,"6300 ESTATE FRYDENHOJ 27B","ST. THOMAS","VI",802,NA,NA,124,"6300 ESTATE FRYDENHOJ 27B, ST. THOMAS, VI, 802","No_Match",NA,NA,NA,NA
778625,"6300 ESTATE FRYDENHOJ 8B","ST. THOMAS","VI",802,NA,NA,125,"6300 ESTATE FRYDENHOJ 8B, ST. THOMAS, VI, 802","No_Match",NA,NA,NA,NA
778626,"6300 FLATROCK RD APT A","COLUMBUS","GA",31907,32.532237702,-84.8751363549999,126,"6300 FLATROCK RD APT A, COLUMBUS, GA, 31907","Match","Non_Exact","6300 FLAT ROCK RD, COLUMBUS, GA, 31907",98950361,"R"
778627,"6300 FM 423 APT 4203","FRISCO","TX",75034,NA,NA,127,"6300 FM 423 APT 4203, FRISCO, TX, 75034","No_Match",NA,NA,NA,NA
778628,"6300 FM423","FRISCO","TX",75036,NA,NA,128,"6300 FM423, FRISCO, TX, 75036","No_Match",NA,NA,NA,NA
778629,"6300 GRAND VISTA AVE","CINCINNATI","OH",45213,39.1873275070001,-84.4218987839999,129,"6300 GRAND VISTA AVE, CINCINNATI, OH, 45213","Match","Exact","6300 GRAND VISTA AVE, CINCINNATI, OH, 45213",103965863,"R"
778630,"6300 HATTERAS CLUB DRIVE","LAKE WORTH","FL",33463,26.5826093360001,-80.1424514399999,130,"6300 HATTERAS CLUB DRIVE, LAKE WORTH, FL, 33463","Match","Exact","6300 HATTERAS CLUB DR, LAKE WORTH, FL, 33463",115488868,"R"
778631,"6300 HICKSON HILL ROAD","POLAND","IN",47868,39.3767796290001,-86.884785262,131,"6300 HICKSON HILL ROAD, POLAND, IN, 47868","Match","Exact","6300 HICKSON HILL RD, POLAND, IN, 47868",606734401,"L"
778632,"6300 HILLCROFT       SUITE 519","HOUSTON","TX",77081,29.713671527,-95.495646044,132,"6300 HILLCROFT       SUITE 519, HOUSTON, TX, 77081","Match","Non_Exact","6300 HILLCROFT ST, HOUSTON, TX, 77081",96614645,"R"
778633,"6300 HWY 30","CEDAR HILL","MO",63016,NA,NA,133,"6300 HWY 30, CEDAR HILL, MO, 63016","No_Match",NA,NA,NA,NA
778634,"6300 JACK STREET","FINLEYVILLE","PA",15332,40.2620790060001,-80.002179874,134,"6300 JACK STREET, FINLEYVILLE, PA, 15332","Match","Exact","6300 JACK ST, FINLEYVILLE, PA, 15332",52807229,"R"
778635,"6300 JIMMY CARTER BLVD SUITE 104","NORCROSS","GA",30071,33.929782222,-84.221046472,135,"6300 JIMMY CARTER BLVD SUITE 104, NORCROSS, GA, 30071","Match","Exact","6300 JIMMY CARTER BLVD, NORCROSS, GA, 30071",651045499,"R"
778636,"6300 LA CALMA DR","AUSTIN","TX",78752,30.324389124,-97.7025753519999,136,"6300 LA CALMA DR, AUSTIN, TX, 78752","Match","Exact","6300 LA CALMA DR, AUSTIN, TX, 78752",64094697,"L"
778637,"6300 LANDOVER RD","CHEVERLY","MD",20785,38.9335014930001,-76.90877118,137,"6300 LANDOVER RD, CHEVERLY, MD, 20785","Match","Exact","6300 LANDOVER RD, CHEVERLY, MD, 20785",76307678,"L"
778638,"6300 LEE ROAD 279","VALLEY","AL",36854,32.664657364,-85.171374795,138,"6300 LEE ROAD 279, VALLEY, AL, 36854","Match","Exact","6300 LEE ROAD 279, VALLEY, AL, 36854",632576369,"R"
778639,"6300 LINCOLN AVE","EVANSVILLE","IN",47715,37.969367972,-87.475127873,139,"6300 LINCOLN AVE, EVANSVILLE, IN, 47715","Match","Exact","6300 LINCOLN AVE, EVANSVILLE, IN, 47715",39787382,"L"
778640,"6300 LINDENWOOD COURT","ST. LOUIS","MO",63109,NA,NA,140,"6300 LINDENWOOD COURT, ST. LOUIS, MO, 63109","No_Match",NA,NA,NA,NA
778641,"6300 LINWOOD AVE","CLEVELAND","OH",44103,41.5119837450001,-81.647239702,141,"6300 LINWOOD AVE, CLEVELAND, OH, 44103","Match","Exact","6300 LINWOOD AVE, CLEVELAND, OH, 44103",61112875,"R"
778642,"6300 LINWOOD ROAD","CLEVELAND","OH",44103,41.5119837450001,-81.647239702,142,"6300 LINWOOD ROAD, CLEVELAND, OH, 44103","Match","Non_Exact","6300 LINWOOD AVE, CLEVELAND, OH, 44103",61112875,"R"
778643,"6300 LONGVIEW ROAD","KANSAS CITY","MO",64134,38.915734118,-94.516981582,143,"6300 LONGVIEW ROAD, KANSAS CITY, MO, 64134","Match","Exact","6300 LONGVIEW RD, KANSAS CITY, MO, 64134",91458457,"L"
778644,"6300 LYNN LANE","LAGO VISTA","TX",78645,30.4602313550001,-97.991990721,144,"6300 LYNN LANE, LAGO VISTA, TX, 78645","Match","Exact","6300 LYNN LN, LAGO VISTA, TX, 78645",63921269,"R"
778645,"6300 MARTINS LANE","LANHAM","MD",20706,38.9643556770001,-76.888177684,145,"6300 MARTINS LANE, LANHAM, MD, 20706","Match","Exact","6300 MARTINS LN, LANHAM, MD, 20706",76308173,"L"
778646,"6300 MCCARRAAN ST UNIT 2014","LAS VEGAS","NV",89081,NA,NA,146,"6300 MCCARRAAN ST UNIT 2014, LAS VEGAS, NV, 89081","No_Match",NA,NA,NA,NA
778647,"6300 MCCARRAN ST UNIT 1075","NORTH LAS VEGAS","NV",89081,NA,NA,147,"6300 MCCARRAN ST UNIT 1075, NORTH LAS VEGAS, NV, 89081","No_Match",NA,NA,NA,NA
778648,"6300 MILGEN APMT 1501","COLUMBUS","GA",31907,NA,NA,148,"6300 MILGEN APMT 1501, COLUMBUS, GA, 31907","Tie",NA,NA,NA,NA
778649,"6300 MILLBROOK ROAD","BRENTWOOD","TN",37027,36.0336321400001,-86.8331387109999,149,"6300 MILLBROOK ROAD, BRENTWOOD, TN, 37027","Match","Non_Exact","6300 MILBROOK RD, BRENTWOOD, TN, 37027",73110890,"L"
778650,"6300 MONTGOMERY RD","CINCINNATI","OH",45213,39.184500213,-84.4229050609999,150,"6300 MONTGOMERY RD, CINCINNATI, OH, 45213","Match","Exact","6300 MONTGOMERY RD, CINCINNATI, OH, 45213",103931755,"R"
778651,"6300 MOSELEY DIXON RD APT 203S","MACON","GA",31220,32.8312904920001,-83.765972504,151,"6300 MOSELEY DIXON RD APT 203S, MACON, GA, 31220","Match","Exact","6300 MOSELEY DIXON RD, MACON, GA, 31220",81080592,"R"
778652,"6300 MOUNT ALTO AVE","BALTIMORE","MD",21207,39.317584674,-76.726851744,152,"6300 MOUNT ALTO AVE, BALTIMORE, MD, 21207","Match","Exact","6300 MT ALTO AVE, BALTIMORE, MD, 21207",191483750,"R"
778653,"6300 MOUNTAIN BROOK LANE","SANDY SPRINGS","GA",30328,33.9269794050001,-84.4161514209999,153,"6300 MOUNTAIN BROOK LANE, SANDY SPRINGS, GA, 30328","Match","Non_Exact","6300 MOUNTAIN BROOK LN NW, SANDY SPRINGS, GA, 30328",17417249,"L"
778654,"6300 N 8TH STREET  2ND FLOOR","PHILADELPHIA","PA",19126,40.0490216640001,-75.134343644,154,"6300 N 8TH STREET  2ND FLOOR, PHILADELPHIA, PA, 19126","Match","Non_Exact","6300 N 8TH ST, PHILADELPHIA, PA, 19126",131414198,"L"
778655,"6300 N AURELIUS RD","LANSING","MI",48911,42.6668355470001,-84.523550316,155,"6300 N AURELIUS RD, LANSING, MI, 48911","Match","Exact","6300 AURELIUS RD, LANSING, MI, 48911",17503793,"R"
778656,"6300 N MILLSBORO STREET","WICHITA","KS",67219,37.7974919050001,-97.313981084,156,"6300 N MILLSBORO STREET, WICHITA, KS, 67219","Match","Exact","6300 MILLSBORO ST, WICHITA, KS, 67219",115631871,"R"
778657,"6300 N PARK AVE","PHILADELLPHIA","PA",19141,40.049022311,-75.141353728,157,"6300 N PARK AVE, PHILADELLPHIA, PA, 19141","Match","Non_Exact","6300 N PARK AVE, PHILADELPHIA, PA, 19141",131413975,"L"
778658,"6300 N WAYNE RD STE 851162","WESTLAND","MI",48185,42.329996871,-83.387283251,158,"6300 N WAYNE RD STE 851162, WESTLAND, MI, 48185","Match","Exact","6300 WAYNE RD, WESTLAND, MI, 48185",95413690,"R"
778659,"6300 N WICKHAM RD STE 132C","MELBOURNE","FL",32940,28.214736455,-80.6726883329999,159,"6300 N WICKHAM RD STE 132C, MELBOURNE, FL, 32940","Match","Non_Exact","6300 N WICKHAM RD, MELBOURNE, FL, 32940",93933873,"L"
778660,"6300 NO WICKHAM RD STE 132C","MELBOURNE","FL",32940,28.2147206700001,-80.6726778089999,160,"6300 NO WICKHAM RD STE 132C, MELBOURNE, FL, 32940","Match","Non_Exact","6300 N WICKHAM RD, MELBOURNE, FL, 32940",93933873,"L"
778661,"6300 NORTH RIDGE","CHICAGO","IL",60660,41.995652326,-87.675762059,161,"6300 NORTH RIDGE, CHICAGO, IL, 60660","Match","Non_Exact","6300 N RIDGE AVE, CHICAGO, IL, 60660",618343269,"L"
778662,"6300 NORTH SAGEWOOD ROAD H-309","PARK CITY","UT",84098,40.722607742,-111.543532693,162,"6300 NORTH SAGEWOOD ROAD H-309, PARK CITY, UT, 84098","Match","Non_Exact","6300 N SAGE WOOD DR, PARK CITY, UT, 84098",607535506,"L"
778663,"6300 NORTH WICKHAM ROAD NUM 130-408","MELBOURNE","FL",32940,28.2147206700001,-80.6726778089999,163,"6300 NORTH WICKHAM ROAD NUM 130-408, MELBOURNE, FL, 32940","Match","Exact","6300 N WICKHAM RD, MELBOURNE, FL, 32940",93933873,"L"
778664,"6300 NW 11TH STREET","MARGATE","FL",33063,26.241559766,-80.210208575,164,"6300 NW 11TH STREET, MARGATE, FL, 33063","Match","Exact","6300 NW 11TH ST, MARGATE, FL, 33063",114692286,"L"
778665,"6300 NW 2ND AVENUE APT 407","BOCA RATON","FL",33487,26.4055182060001,-80.082278533,165,"6300 NW 2ND AVENUE APT 407, BOCA RATON, FL, 33487","Match","Non_Exact","6300 NW 2ND AVE, BOCA RATON, FL, 33487",115335635,"R"
778666,"6300 NW 2ND AVENUE APT 409","BOCA RATON","FL",33487,26.4055182060001,-80.082278533,166,"6300 NW 2ND AVENUE APT 409, BOCA RATON, FL, 33487","Match","Non_Exact","6300 NW 2ND AVE, BOCA RATON, FL, 33487",115335635,"R"
778667,"6300 NW 2ND AVENUE PH 409","BOCA RATON","FL",33487,26.4055182060001,-80.082278533,167,"6300 NW 2ND AVENUE PH 409, BOCA RATON, FL, 33487","Match","Non_Exact","6300 NW 2ND AVE, BOCA RATON, FL, 33487",115335635,"R"
778668,"6300 NW 2ND AVENUE SUITE 409","BOCA RATON","FL",33487,26.4055182060001,-80.082278533,168,"6300 NW 2ND AVENUE SUITE 409, BOCA RATON, FL, 33487","Match","Non_Exact","6300 NW 2ND AVE, BOCA RATON, FL, 33487",115335635,"R"
778669,"6300 NW 41ST","OKLAHOMA CITY","OK",73112,NA,NA,169,"6300 NW 41ST, OKLAHOMA CITY, OK, 73112","No_Match",NA,NA,NA,NA
778670,"6300 O MALLEY RD","ANCHORAGE","AK",99507,61.1230607360001,-149.764742861,170,"6300 O MALLEY RD, ANCHORAGE, AK, 99507","Match","Non_Exact","6300 O'MALLEY RD, ANCHORAGE, AK, 99507",190804439,"R"
778671,"6300 OAKLEY ROAD","UNION CITY","GA",30291,NA,NA,171,"6300 OAKLEY ROAD, UNION CITY, GA, 30291","No_Match",NA,NA,NA,NA
778672,"6300 OLD CANTON ROAD APT 4-201","JACKSON","MS",39211,32.391236603,-90.11266726,172,"6300 OLD CANTON ROAD APT 4-201, JACKSON, MS, 39211","Match","Non_Exact","6300 OLD CANTON RD, JACKSON, MS, 39211",611215231,"R"
778673,"6300 OLD HICKORY COURT","CHARLOTTE","NC",28227,35.2158394730001,-80.7192037469999,173,"6300 OLD HICKORY COURT, CHARLOTTE, NC, 28227","Match","Exact","6300 OLD HICKORY CT, CHARLOTTE, NC, 28227",70493882,"L"
778674,"6300 OLD YORK RD APT 809","PHILADELPHIA","PA",19141,40.0487817170001,-75.1449018179999,174,"6300 OLD YORK RD APT 809, PHILADELPHIA, PA, 19141","Match","Non_Exact","6300 OLD YORK RD, PHILADELPHIA, PA, 19141",131413875,"L"
778675,"6300 OWENSMOUTH AVE B103","WOODLAND HILLS","CA",91367,34.184683362,-118.601514215,175,"6300 OWENSMOUTH AVE B103, WOODLAND HILLS, CA, 91367","Match","Exact","6300 OWENSMOUTH AVE, WOODLAND HILLS, CA, 91367",648859491,"R"
778676,"6300 OWENSMOUTH AVE","WOODLAND HILLS","CA",91367,34.184683362,-118.601514215,176,"6300 OWENSMOUTH AVE, WOODLAND HILLS, CA, 91367","Match","Exact","6300 OWENSMOUTH AVE, WOODLAND HILLS, CA, 91367",648859491,"R"
778677,"6300 PAWNEE DRIVE","LYNCHBURG","VA",24502,37.375147858,-79.202504789,177,"6300 PAWNEE DRIVE, LYNCHBURG, VA, 24502","Match","Exact","6300 PAWNEE DR, LYNCHBURG, VA, 24502",62625746,"R"
778678,"6300 PLAZA GATE LANE UNIT 1142","JACKSONVILLE","FL",32217,NA,NA,178,"6300 PLAZA GATE LANE UNIT 1142, JACKSONVILLE, FL, 32217","No_Match",NA,NA,NA,NA
778679,"6300 RAILROAD STREET","MOUNT JACKSON","VA",22842,38.738848482,-78.647609984,179,"6300 RAILROAD STREET, MOUNT JACKSON, VA, 22842","Match","Exact","6300 RAILROAD ST, MOUNT JACKSON, VA, 22842",55937589,"R"
778680,"6300 REAFIELD DR APT 11","CHARLOTTE","NC",28226,35.0837697380001,-80.8293740679999,180,"6300 REAFIELD DR APT 11, CHARLOTTE, NC, 28226","Match","Exact","6300 REAFIELD DR, CHARLOTTE, NC, 28226",70534205,"R"
778681,"6300 RIDGLEA PL STE 123","FORT WORTH","TX",76116,32.723829375,-97.416620834,181,"6300 RIDGLEA PL STE 123, FORT WORTH, TX, 76116","Match","Exact","6300 RIDGLEA PL, FORT WORTH, TX, 76116",101880238,"R"
778682,"6300 RIDGLEA PLACE STE 123","FORT WORTH","TX",76116,32.723829375,-97.416620834,182,"6300 RIDGLEA PLACE STE 123, FORT WORTH, TX, 76116","Match","Exact","6300 RIDGLEA PL, FORT WORTH, TX, 76116",101880238,"R"
778683,"6300 RIDGLEA PLACE SUITE 105","FORT WORTH","TX",76116,32.723829375,-97.416620834,183,"6300 RIDGLEA PLACE SUITE 105, FORT WORTH, TX, 76116","Match","Exact","6300 RIDGLEA PL, FORT WORTH, TX, 76116",101880238,"R"
778684,"6300 RIDGLEA PLACE SUITE 318","FORT WORTH","TX",76116,32.723829375,-97.416620834,184,"6300 RIDGLEA PLACE SUITE 318, FORT WORTH, TX, 76116","Match","Exact","6300 RIDGLEA PL, FORT WORTH, TX, 76116",101880238,"R"
778685,"6300 RIVERDALE AVENUE","BRONX","NY",10471,40.912511937,-73.902566717,185,"6300 RIVERDALE AVENUE, BRONX, NY, 10471","Match","Exact","6300 RIVERDALE AVE, BRONX, NY, 10471",80314480,"R"
778686,"6300 ROCKSHIRE DRIVE","CHARLOTTE","NC",28227,35.2206190520001,-80.712502602,186,"6300 ROCKSHIRE DRIVE, CHARLOTTE, NC, 28227","Match","Exact","6300 ROCKSHIRE DR, CHARLOTTE, NC, 28227",70553838,"L"
778687,"6300 ROCKWOOD CIRCLE ROAD LOT203","CAMERON","MO",64429,39.814050873,-94.234202636,187,"6300 ROCKWOOD CIRCLE ROAD LOT203, CAMERON, MO, 64429","Match","Non_Exact","6300 ROCKWOOD CREEK, CAMERON, MO, 64429",17810253,"L"
778688,"6300 ROCKWOOD CREEK ROAD LOT 203","CAMERON","MO",64429,39.814050873,-94.234202636,188,"6300 ROCKWOOD CREEK ROAD LOT 203, CAMERON, MO, 64429","Match","Exact","6300 ROCKWOOD CREEK, CAMERON, MO, 64429",17810253,"L"
778689,"6300 ROUNDROCK TRAIL 206","PLANO","TX",75023,33.057465651,-96.746452371,189,"6300 ROUNDROCK TRAIL 206, PLANO, TX, 75023","Match","Exact","6300 ROUNDROCK TRL, PLANO, TX, 75023",210472955,"L"
778690,"6300 S BLACK HILLS WAY","CHANDLER","AZ",85249,33.21418443,-111.759773371,190,"6300 S BLACK HILLS WAY, CHANDLER, AZ, 85249","Match","Exact","6300 S BLACK HILLS WAY, CHANDLER, AZ, 85249",128854849,"R"
778691,"6300 S FALLS CIRCLE D 405","LAUDERHILL","FL",33319,NA,NA,191,"6300 S FALLS CIRCLE D 405, LAUDERHILL, FL, 33319","No_Match",NA,NA,NA,NA
778692,"6300 S FALLS CIRCLE DR","LAUDERHILL","FL",33319,26.175268278,-80.232915089,192,"6300 S FALLS CIRCLE DR, LAUDERHILL, FL, 33319","Match","Exact","6300 S FALLS CIRCLE DR, LAUDERHILL, FL, 33319",650061824,"L"
778693,"6300 S OLD VILLAGE PLACE SUITE 100","SIOUX FALLS","SD",57108,43.4885058610001,-96.746378801,193,"6300 S OLD VILLAGE PLACE SUITE 100, SIOUX FALLS, SD, 57108","Match","Non_Exact","6300 S OLD VILLAGE PL, SIOUX FALLS, SD, 57108",633086453,"L"
778694,"6300 S SYRACUSE WAY STE 110","CENTENNIAL","CO",80111,39.6021020690001,-104.899482803,194,"6300 S SYRACUSE WAY STE 110, CENTENNIAL, CO, 80111","Match","Non_Exact","6300 S SYRACUSE WAY, CENTENNIAL, CO, 80111",610832456,"L"
778695,"6300 S SYRACUSE WAY STE 150","ENGLEWOOD","CO",80111,39.6021020690001,-104.899482803,195,"6300 S SYRACUSE WAY STE 150, ENGLEWOOD, CO, 80111","Match","Non_Exact","6300 S SYRACUSE WAY, ENGLEWOOD, CO, 80111",610832456,"L"
778696,"6300 S WOODLAWN","CHICAGO","IL",60615,NA,NA,196,"6300 S WOODLAWN, CHICAGO, IL, 60615","No_Match",NA,NA,NA,NA
778697,"6300 SAMUEL BLVD SUITE 102","DALLAS","TX",75228,32.792227687,-96.697976954,197,"6300 SAMUEL BLVD SUITE 102, DALLAS, TX, 75228","Match","Non_Exact","6300 SAMUELL BLVD, DALLAS, TX, 75228",103199857,"R"
778698,"6300 SAMUEL BLVD SUITE102","DALLAS","TX",75228,32.792227687,-96.697976954,198,"6300 SAMUEL BLVD SUITE102, DALLAS, TX, 75228","Match","Non_Exact","6300 SAMUELL BLVD, DALLAS, TX, 75228",103199857,"R"
778699,"6300 SANDGATE DRIVE","SUFFOLK","VA",23435,36.885304191,-76.411691489,199,"6300 SANDGATE DRIVE, SUFFOLK, VA, 23435","Match","Non_Exact","6300 SAND GATE DR S, SUFFOLK, VA, 23435",122231558,"R"
778700,"6300 SCHADE","MIDLAND","MI",48640,NA,NA,200,"6300 SCHADE, MIDLAND, MI, 48640","No_Match",NA,NA,NA,NA
778701,"6300 SELBORN DR","ATLANTA","GA",30331,33.6885675410001,-84.595467862,201,"6300 SELBORN DR, ATLANTA, GA, 30331","Match","Exact","6300 SELBORN DR, ATLANTA, GA, 30331",653479639,"R"
778702,"6300 SERANO WAY","NAPLES","FL",34113,26.095299235,-81.709282242,202,"6300 SERANO WAY, NAPLES, FL, 34113","Match","Exact","6300 SERANO WAY, NAPLES, FL, 34113",640856605,"R"
778703,"6300 SOUTH GRANT DR","CENTENNIAL","CO",80121,39.602202483,-104.984591086,203,"6300 SOUTH GRANT DR, CENTENNIAL, CO, 80121","Match","Exact","6300 S GRANT DR, CENTENNIAL, CO, 80121",177337437,"L"
778704,"6300 SOUTH POINTE BLVD 235","FORT MYERS","FL",33919,26.551387413,-81.905448431,204,"6300 SOUTH POINTE BLVD 235, FORT MYERS, FL, 33919","Match","Exact","6300 S POINTE BLVD, FORT MYERS, FL, 33919",650026998,"R"
778705,"6300 SOUTHBRIDGE","HORN LAKE","MS",38671,NA,NA,205,"6300 SOUTHBRIDGE, HORN LAKE, MS, 38671","No_Match",NA,NA,NA,NA
778706,"6300 SPRINGS LN APT F","PEACHTREE CORNERS","GA",30092,33.949440183,-84.2525244839999,206,"6300 SPRINGS LN APT F, PEACHTREE CORNERS, GA, 30092","Match","Exact","6300 SPRINGS LN, PEACHTREE CORNERS, GA, 30092",644928201,"L"
778707,"6300 STEVENSON AVE UNIT 209","ALEXANDRIA","VA",22304,38.813054187,-77.140094134,207,"6300 STEVENSON AVE UNIT 209, ALEXANDRIA, VA, 22304","Match","Exact","6300 STEVENSON AVE, ALEXANDRIA, VA, 22304",75982239,"L"
778708,"6300 STOCKTON DR","CHATTANOOGA","TN",37416,35.075357889,-85.175690264,208,"6300 STOCKTON DR, CHATTANOOGA, TN, 37416","Match","Exact","6300 STOCKTON DR, CHATTANOOGA, TN, 37416",59316546,"R"
778709,"6300 STONEWOOD DR STE 106B","PLANO","TX",75024,33.056809334,-96.774517165,209,"6300 STONEWOOD DR STE 106B, PLANO, TX, 75024","Match","Exact","6300 STONEWOOD DR, PLANO, TX, 75024",210506304,"L"
778710,"6300 SW 10TH COURT","NORTH LAUDERDALE","FL",33068,26.215372609,-80.210640239,210,"6300 SW 10TH COURT, NORTH LAUDERDALE, FL, 33068","Match","Exact","6300 SW 10TH CT, N LAUDERDALE, FL, 33068",114692908,"L"
778711,"6300 SW 34TH ST","MIRAMAR","FL",33023,25.9802647060001,-80.212438273,211,"6300 SW 34TH ST, MIRAMAR, FL, 33023","Match","Exact","6300 SW 34TH ST, MIRAMAR, FL, 33023",114734899,"L"
778712,"6300 SWANSON RD","RICHMOND","VA",23225,37.494204853,-77.510793141,212,"6300 SWANSON RD, RICHMOND, VA, 23225","Match","Exact","6300 SWANSON RD, RICHMOND, VA, 23225",201536880,"R"
778713,"6300 THORPE DR","MASON","TN",38049,35.390391514,-89.509044284,213,"6300 THORPE DR, MASON, TN, 38049","Match","Exact","6300 THORPE DR, MASON, TN, 38049",72692630,"R"
778714,"6300 TRAILWOOD DR","PLANO","TX",75024,33.063227021,-96.8381568189999,214,"6300 TRAILWOOD DR, PLANO, TX, 75024","Match","Exact","6300 TRAILWOOD DR, PLANO, TX, 75024",123531597,"R"
778715,"6300 US HWY 21","JONESVILLE","NC",28642,NA,NA,215,"6300 US HWY 21, JONESVILLE, NC, 28642","No_Match",NA,NA,NA,NA
778716,"6300 UTICA AVE","FIRESTONE","CO",80504,40.164458494,-104.935411325,216,"6300 UTICA AVE, FIRESTONE, CO, 80504","Match","Exact","6300 UTICA AVE, FIRESTONE, CO, 80504",188752904,"R"
778717,"6300 VARIEL AVE","WOODLAND HILLS","CA",91367,34.184459873,-118.592775301,217,"6300 VARIEL AVE, WOODLAND HILLS, CA, 91367","Match","Exact","6300 VARIEL AVE, WOODLAND HILLS, CA, 91367",648156923,"R"
778718,"6300 VARIEL STREET 450","WOODLAND HILLS","CA",91367,34.184459873,-118.592775301,218,"6300 VARIEL STREET 450, WOODLAND HILLS, CA, 91367","Match","Non_Exact","6300 VARIEL AVE, WOODLAND HILLS, CA, 91367",648156923,"R"
778719,"6300 W LAKE MEAD 1135","LAS VEGAS","VA",89108,NA,NA,219,"6300 W LAKE MEAD 1135, LAS VEGAS, VA, 89108","No_Match",NA,NA,NA,NA
778720,"6300 W MICHIGAN AVE APT C5","LANSING","MI",48917,42.7337421920001,-84.641473708,220,"6300 W MICHIGAN AVE APT C5, LANSING, MI, 48917","Match","Non_Exact","6300 W MICHIGAN AVE, LANSING, MI, 48917",12048503,"R"
778721,"6300 W TROPICANA AVE TRLR 197","LAS VEGAS","NV",89121,NA,NA,221,"6300 W TROPICANA AVE TRLR 197, LAS VEGAS, NV, 89121","No_Match",NA,NA,NA,NA
778722,"6300 WASHINGTON PIKE","KNOXVILLE","TN",37918,NA,NA,222,"6300 WASHINGTON PIKE, KNOXVILLE, TN, 37918","Tie",NA,NA,NA,NA
778723,"6300 WEST AVE J-12","LANCASTER","CA",93536,NA,NA,223,"6300 WEST AVE J-12, LANCASTER, CA, 93536","No_Match",NA,NA,NA,NA
778724,"6300 WEST MICHIGAN AVENUE APT E-11","LANSING","MI",48917,42.7337425490001,-84.641466446,224,"6300 WEST MICHIGAN AVENUE APT E-11, LANSING, MI, 48917","Match","Exact","6300 W MICHIGAN AVE, LANSING, MI, 48917",12048503,"R"
778725,"6300 WEST MICHIGAN AVENUE","LANSING","MI",48917,42.7337425490001,-84.641466446,225,"6300 WEST MICHIGAN AVENUE, LANSING, MI, 48917","Match","Exact","6300 W MICHIGAN AVE, LANSING, MI, 48917",12048503,"R"
778726,"6300 WILLOW FARM DR","DENVER","NC",28037,35.5270818380001,-81.053331622,226,"6300 WILLOW FARM DR, DENVER, NC, 28037","Match","Exact","6300 WILLOW FARM DR, DENVER, NC, 28037",624109851,"R"
778727,"6300 WILLOW FARM DRIVE","DENVER","NC",28037,35.5270818380001,-81.053331622,227,"6300 WILLOW FARM DRIVE, DENVER, NC, 28037","Match","Exact","6300 WILLOW FARM DR, DENVER, NC, 28037",624109851,"R"
778728,"6300 WILMINGTON DRIVE","BURKE","VA",22015,38.780695705,-77.284893143,228,"6300 WILMINGTON DRIVE, BURKE, VA, 22015","Match","Exact","6300 WILMINGTON DR, BURKE, VA, 22015",75974460,"R"
778729,"6300 WILSHIRE BOULEVARD","LOS ANGELES","CA",90048,34.0634519550001,-118.365693111,229,"6300 WILSHIRE BOULEVARD, LOS ANGELES, CA, 90048","Match","Exact","6300 WILSHIRE BLVD, LOS ANGELES, CA, 90048",141598794,"L"
778730,"63000 BAYOU JACOB RD","PLAQUEMINE","LA",70764,30.2552574220001,-91.304082742,230,"63000 BAYOU JACOB RD, PLAQUEMINE, LA, 70764","Match","Exact","63000 BAYOU JACOB RD, PLAQUEMINE, LA, 70764",85553933,"R"
778731,"63001 RICHLAND AVENUE","TIMNATH","CO",80547,NA,NA,231,"63001 RICHLAND AVENUE, TIMNATH, CO, 80547","No_Match",NA,NA,NA,NA
778732,"63003 CROWN POINT RD","COOS BAY","OR",97420,43.3332308620001,-124.306187655,232,"63003 CROWN POINT RD, COOS BAY, OR, 97420","Match","Exact","63003 CROWN POINT RD, COOS BAY, OR, 97420",137081998,"R"
778733,"63005 BALLENTINE","CHAPEL HILL","NC",27517,35.8500792310001,-79.0395867949999,233,"63005 BALLENTINE, CHAPEL HILL, NC, 27517","Match","Exact","63005 BALLENTINE, CHAPEL HILL, NC, 27517",651599032,"L"
778734,"6301 41ST AVE E","TACOMA","WA",98443,47.200304396,-122.373851513,234,"6301 41ST AVE E, TACOMA, WA, 98443","Match","Exact","6301 41ST AVE E, TACOMA, WA, 98443",184760971,"L"
778735,"6301 47TH AVENUE","RIVERDALE","MD",20737,38.964091754,-76.935724056,235,"6301 47TH AVENUE, RIVERDALE, MD, 20737","Match","Exact","6301 47TH AVE, RIVERDALE, MD, 20737",639360722,"R"
778736,"6301 ALEMDA RD APT 442","HOUSTON","TX",77021,29.7099328640001,-95.382963001,236,"6301 ALEMDA RD APT 442, HOUSTON, TX, 77021","Match","Non_Exact","6301 ALMEDA RD, HOUSTON, TX, 77021",96610115,"L"
778737,"6301 ALEXANDER CIRCLE NE","ATLANTA","GA",30326,33.8544494710001,-84.365957287,237,"6301 ALEXANDER CIRCLE NE, ATLANTA, GA, 30326","Match","Non_Exact","6301 ALEXANDER CIR, ATLANTA, GA, 30326",647365199,"L"
778738,"6301 ALLEN STREET","NORTH LITTLE ROCK","AR",72118,34.8118782240001,-92.2724020379999,238,"6301 ALLEN STREET, NORTH LITTLE ROCK, AR, 72118","Match","Exact","6301 ALLEN ST, N LITTLE ROCK, AR, 72118",83507457,"L"
778739,"6301 ALMEDA RD 413","HOUSTON","TX",77021,29.7099328640001,-95.382963001,239,"6301 ALMEDA RD 413, HOUSTON, TX, 77021","Match","Exact","6301 ALMEDA RD, HOUSTON, TX, 77021",96610115,"L"
778740,"6301 AMELIA","HOUSTON","TX",77055,NA,NA,240,"6301 AMELIA, HOUSTON, TX, 77055","No_Match",NA,NA,NA,NA
778741,"6301 APRIL BROOK CIRCLE","COLUMBIA","MD",21045,39.1973371440001,-76.803644586,241,"6301 APRIL BROOK CIRCLE, COLUMBIA, MD, 21045","Match","Exact","6301 APRIL BROOK CIR, COLUMBIA, MD, 21045",158934682,"R"
778742,"6301 ARROW HEAD DRIVE","MONROE","LA",71203,32.5353867600001,-92.049764819,242,"6301 ARROW HEAD DRIVE, MONROE, LA, 71203","Match","Exact","6301 ARROW HEAD DR, MONROE, LA, 71203",161089380,"L"
778743,"6301 ARROWHEAD DRIVE","MONROE","LA",71203,32.5353867600001,-92.049764819,243,"6301 ARROWHEAD DRIVE, MONROE, LA, 71203","Match","Non_Exact","6301 ARROW HEAD DR, MONROE, LA, 71203",161089380,"L"
778744,"6301 BARNETTS RD","CHARLES CITY","VA",23030,37.403859583,-77.140128032,244,"6301 BARNETTS RD, CHARLES CITY, VA, 23030","Match","Exact","6301 BARNETTS RD, CHARLES CITY, VA, 23030",199507870,"L"
778745,"6301 BASS AVENUE","LOUISVILLE","KY",40059,NA,NA,245,"6301 BASS AVENUE, LOUISVILLE, KY, 40059","No_Match",NA,NA,NA,NA
778746,"6301 BEACH BLVD STE 202","BUENA PARK","CA",90621,33.869235185,-117.998315209,246,"6301 BEACH BLVD STE 202, BUENA PARK, CA, 90621","Match","Exact","6301 BEACH BLVD, BUENA PARK, CA, 90621",636431871,"R"
778747,"6301 BEACH BLVD STE 300","BUENA PARK","CA",90621,33.869235185,-117.998315209,247,"6301 BEACH BLVD STE 300, BUENA PARK, CA, 90621","Match","Exact","6301 BEACH BLVD, BUENA PARK, CA, 90621",636431871,"R"
778748,"6301 BENJAMIN ROAD","TAMPA","FL",33634,NA,NA,248,"6301 BENJAMIN ROAD, TAMPA, FL, 33634","No_Match",NA,NA,NA,NA
778749,"6301 BERKMAN DRIVE APT 111","AUSTIN","TX",78723,30.3168520720001,-97.69086015,249,"6301 BERKMAN DRIVE APT 111, AUSTIN, TX, 78723","Match","Exact","6301 BERKMAN DR, AUSTIN, TX, 78723",63932791,"R"
778750,"6301 BLUESTONE PLACE","CLIFTON","VA",20124,38.818800647,-77.4166586859999,250,"6301 BLUESTONE PLACE, CLIFTON, VA, 20124","Match","Exact","6301 BLUESTONE PL, CLIFTON, VA, 20124",76011639,"R"
778751,"6301 BYRON LANE","SAN RAMON","CA",94582,37.7497983920001,-121.897955554,251,"6301 BYRON LANE, SAN RAMON, CA, 94582","Match","Exact","6301 BYRON LN, SAN RAMON, CA, 94582",192117682,"R"
778752,"6301 CALHOUN RD APT 12","HOUSTON","TX",77021,29.695115195,-95.347815813,252,"6301 CALHOUN RD APT 12, HOUSTON, TX, 77021","Match","Exact","6301 CALHOUN RD, HOUSTON, TX, 77021",96089134,"L"
778753,"6301 CALIFORNIA AVE","ODESSA","TX",79762,31.9195423370001,-102.315779758,253,"6301 CALIFORNIA AVE, ODESSA, TX, 79762","Match","Exact","6301 CALIFORNIA AVE, ODESSA, TX, 79762",139438441,"R"
778754,"6301 CAMP ROBINSON RD A213","NORTH LITTLE ROCK","AR",72118,34.8137197790001,-92.268998782,254,"6301 CAMP ROBINSON RD A213, NORTH LITTLE ROCK, AR, 72118","Match","Exact","6301 CAMP ROBINSON RD, N LITTLE ROCK, AR, 72118",612962283,"L"
778755,"6301 CAMPUS DRIVE","FREDERICKSBURG","VA",22407,NA,NA,255,"6301 CAMPUS DRIVE, FREDERICKSBURG, VA, 22407","No_Match",NA,NA,NA,NA
778756,"6301 CATHWICK COURT","MCCALLA","AL",35111,33.328342048,-87.007749559,256,"6301 CATHWICK COURT, MCCALLA, AL, 35111","Match","Non_Exact","6301 CATHWICK CT, MC CALLA, AL, 35111",646178188,"L"
778757,"6301 CEDAR DONNE CIR","SIMPSONVILLE","SC",29680,34.7109744890001,-82.261150804,257,"6301 CEDAR DONNE CIR, SIMPSONVILLE, SC, 29680","Match","Exact","6301 CEDAR DONNE CIR, SIMPSONVILLE, SC, 29680",639819858,"L"
778758,"6301 CHATHAM PARK DRIVE","BRANDYWINE","MD",20613,38.7074782110001,-76.8988238759999,258,"6301 CHATHAM PARK DRIVE, BRANDYWINE, MD, 20613","Match","Exact","6301 CHATHAM PARK DR, BRANDYWINE, MD, 20613",639468343,"L"
778759,"6301 CLIFF DRIVE","FORT SMITH","AR",72903,35.356975517,-94.365983876,259,"6301 CLIFF DRIVE, FORT SMITH, AR, 72903","Match","Exact","6301 CLIFF DR, FORT SMITH, AR, 72903",56104690,"L"
778760,"6301 COLLINS AVE","MIAMI BEACH","FL",33141,25.8445801560001,-80.12072002,260,"6301 COLLINS AVE, MIAMI BEACH, FL, 33141","Match","Exact","6301 COLLINS AVE, MIAMI BEACH, FL, 33141",650071836,"R"
778761,"6301 COUNTY RD 10","ROCKFORD","MN",55373,NA,NA,261,"6301 COUNTY RD 10, ROCKFORD, MN, 55373","No_Match",NA,NA,NA,NA
778762,"6301 CREST CLUB CIRCLE","BIRMINGHAM","AL",35212,33.533802999,-86.735038049,262,"6301 CREST CLUB CIRCLE, BIRMINGHAM, AL, 35212","Match","Exact","6301 CREST CLUB CIR, BIRMINGHAM, AL, 35212",81580347,"R"
778763,"6301 DE SOTO AVE UNIT 148","WOODLAND HILLS","CA",91367,34.184371781,-118.588888155,263,"6301 DE SOTO AVE UNIT 148, WOODLAND HILLS, CA, 91367","Match","Non_Exact","6301 DE SOTO AVE, WOODLAND HILLS, CA, 91367",648156915,"L"
778764,"6301 DE SOTO AVE UNIT 43","WOODLAND HILLS","CA",91367,34.184371781,-118.588888155,264,"6301 DE SOTO AVE UNIT 43, WOODLAND HILLS, CA, 91367","Match","Non_Exact","6301 DE SOTO AVE, WOODLAND HILLS, CA, 91367",648156915,"L"
778765,"6301 DONZAREMBO AVE","LAS VEGAS","NV",89108,36.197617332,-115.230228564,265,"6301 DONZAREMBO AVE, LAS VEGAS, NV, 89108","Match","Non_Exact","6301 DON ZAREMBO AVE, LAS VEGAS, NV, 89108",201859019,"L"
778766,"6301 E CATALINA DR","SCOTTSDALE","AZ",85251,33.481672379,-111.944739282,266,"6301 E CATALINA DR, SCOTTSDALE, AZ, 85251","Match","Exact","6301 E CATALINA DR, SCOTTSDALE, AZ, 85251",128225549,"R"
778767,"6301 E HAMPTON DR","INDIANAPOLIS","IN",46226,39.839430743,-86.058485896,267,"6301 E HAMPTON DR, INDIANAPOLIS, IN, 46226","Match","Exact","6301 E HAMPTON DR, INDIANAPOLIS, IN, 46226",107997446,"R"
778768,"6301 E NUGGET PATCH TRAIL","PRESCOTT","AZ",86303,34.5444889890001,-112.3570677,268,"6301 E NUGGET PATCH TRAIL, PRESCOTT, AZ, 86303","Match","Exact","6301 E NUGGET PATCH TRL, PRESCOTT, AZ, 86303",650505461,"L"
778769,"6301 EASR BROAD","TEXARKANA","AR",71854,NA,NA,269,"6301 EASR BROAD, TEXARKANA, AR, 71854","No_Match",NA,NA,NA,NA
778770,"6301 EAST CALLE DE MIRAR","TUCSON","AZ",85750,32.320333394,-110.857836663,270,"6301 EAST CALLE DE MIRAR, TUCSON, AZ, 85750","Match","Non_Exact","6301 E CLL DEL MIRAR, TUCSON, AZ, 85750",121192983,"R"
778771,"6301 EASTOVER DRIVE","NEW ORLEANS","LA",70128,30.0439750520001,-89.9522834959999,271,"6301 EASTOVER DRIVE, NEW ORLEANS, LA, 70128","Match","Exact","6301 EASTOVER DR, NEW ORLEANS, LA, 70128",191748539,"L"
778772,"6301 EDSALL RD 222","ALEXANDRIA","VA",22312,38.8034107730001,-77.145392282,272,"6301 EDSALL RD 222, ALEXANDRIA, VA, 22312","Match","Exact","6301 EDSALL RD, ALEXANDRIA, VA, 22312",76007793,"L"
778773,"6301 ELI DRIVE","ANTIOCH","PR",37013,NA,NA,273,"6301 ELI DRIVE, ANTIOCH, PR, 37013","No_Match",NA,NA,NA,NA
778774,"6301 ELI DRIVE","ANTIOCH","TN",37013,36.024459205,-86.6386453119999,274,"6301 ELI DRIVE, ANTIOCH, TN, 37013","Match","Exact","6301 ELI DR, ANTIOCH, TN, 37013",641651878,"L"
778775,"6301 EUNICE AVE","LOS ANGELES","CA",90042,34.123674974,-118.180344625,275,"6301 EUNICE AVE, LOS ANGELES, CA, 90042","Match","Exact","6301 EUNICE AVE, LOS ANGELES, CA, 90042",141615326,"L"
778776,"6301 FATHER TRIBOU","LITTLE ROCK","AR",72205,34.7558869470001,-92.341615486,276,"6301 FATHER TRIBOU, LITTLE ROCK, AR, 72205","Match","Non_Exact","6301 FATHER TRIBOU ST, LITTLE ROCK, AR, 72205",647721966,"L"
778777,"6301 FM 945 SOUTH","CLEVELAND","TX",77328,30.482226057,-95.193425661,277,"6301 FM 945 SOUTH, CLEVELAND, TX, 77328","Match","Non_Exact","6301 FM 945, CLEVELAND, TX, 77328",636445722,"R"
778778,"6301 GLEN KNOLL DR","FORT WORTH","TX",76179,32.852491759,-97.406200024,278,"6301 GLEN KNOLL DR, FORT WORTH, TX, 76179","Match","Exact","6301 GLEN KNOLL DR, FORT WORTH, TX, 76179",102087348,"R"
778779,"6301 GLENEAGLES DRIVE","TYLER","TX",75703,32.279436423,-95.329129708,279,"6301 GLENEAGLES DRIVE, TYLER, TX, 75703","Match","Exact","6301 GLENEAGLES DR, TYLER, TX, 75703",141272564,"L"
778780,"6301 GREEN BAY ROAD","KENOSHA","WI",53142,42.5780320530001,-87.884945761,280,"6301 GREEN BAY ROAD, KENOSHA, WI, 53142","Match","Exact","6301 GREEN BAY RD, KENOSHA, WI, 53142",605366698,"L"
778781,"6301 HADLEY GREEN COURT APT 305","CHARLOTTE","NC",28210,35.1271465190001,-80.834177896,281,"6301 HADLEY GREEN COURT APT 305, CHARLOTTE, NC, 28210","Match","Exact","6301 HADLEY GREEN CT, CHARLOTTE, NC, 28210",70505640,"L"
778782,"6301 HAMPTON PL","ELKRIDGE","MD",21075,39.1986162260001,-76.777119758,282,"6301 HAMPTON PL, ELKRIDGE, MD, 21075","Match","Exact","6301 HAMPTON PL, ELKRIDGE, MD, 21075",158933707,"L"
778783,"6301 HERITAGE TRACE DRIVE","MOBILE","AL",36695,30.6203732060001,-88.1908752529999,283,"6301 HERITAGE TRACE DRIVE, MOBILE, AL, 36695","Match","Exact","6301 HERITAGE TRACE DR, MOBILE, AL, 36695",61948023,"L"
778784,"6301 HIGHLAND DRIVE","AUSTIN","TX",78731,NA,NA,284,"6301 HIGHLAND DRIVE, AUSTIN, TX, 78731","No_Match",NA,NA,NA,NA
778785,"6301 HIGHLAND HILLS DRIVE","AUSTIN","TX",78731,30.350685045,-97.761972364,285,"6301 HIGHLAND HILLS DRIVE, AUSTIN, TX, 78731","Match","Exact","6301 HIGHLAND HILLS DR, AUSTIN, TX, 78731",63928903,"R"
778786,"6301 HIGHWAY 183","CISCO","TX",76437,32.3676138330001,-98.9701449359999,286,"6301 HIGHWAY 183, CISCO, TX, 76437","Match","Non_Exact","6301 US HWY 183, CISCO, TX, 76437",158699376,"R"
778787,"6301 HINSDALE DRIVE","AMARILLO","TX",79109,35.1424367450001,-101.906812331,287,"6301 HINSDALE DRIVE, AMARILLO, TX, 79109","Match","Exact","6301 HINSDALE DR, AMARILLO, TX, 79109",182653295,"R"
778788,"6301 HOME AT LAST LN","CRESTVIEW","FL",32539,30.8297039660001,-86.432412305,288,"6301 HOME AT LAST LN, CRESTVIEW, FL, 32539","Match","Exact","6301 HOME AT LAST LN, CRESTVIEW, FL, 32539",74415472,"R"
778789,"6301 HONOLULU AVENUE UNIT 18","TUJUNGA","CA",91042,34.2332659590001,-118.269345419,289,"6301 HONOLULU AVENUE UNIT 18, TUJUNGA, CA, 91042","Match","Exact","6301 HONOLULU AVE, TUJUNGA, CA, 91042",142724135,"L"
778790,"6301 HONOLULU AVENUE UNIT 19","TUJUNGA","CA",91042,34.2332659590001,-118.269345419,290,"6301 HONOLULU AVENUE UNIT 19, TUJUNGA, CA, 91042","Match","Exact","6301 HONOLULU AVE, TUJUNGA, CA, 91042",142724135,"L"
778791,"6301 HOWELL COBB COURT NW","ACWORTH","GA",30101,34.0640127980001,-84.738576251,291,"6301 HOWELL COBB COURT NW, ACWORTH, GA, 30101","Match","Non_Exact","6301 HOWELL COBB CT, ACWORTH, GA, 30101",618953062,"L"
778792,"6301 INDIANA AVENUE","LUBBOCK","TX",79413,33.5369109960001,-101.887731158,292,"6301 INDIANA AVENUE, LUBBOCK, TX, 79413","Match","Exact","6301 INDIANA AVE, LUBBOCK, TX, 79413",185253920,"L"
778793,"6301 IVY LN  SUITE 140","BELTSVILLLE","MD",20770,39.0084171190001,-76.89719917,293,"6301 IVY LN  SUITE 140, BELTSVILLLE, MD, 20770","Match","Non_Exact","6301 IVY LN, GREENBELT, MD, 20770",76386847,"L"
778794,"6301 KIRKWOOD BLVD SW","CEDAR RAPIDS","IA",52404,41.917457357,-91.656650755,294,"6301 KIRKWOOD BLVD SW, CEDAR RAPIDS, IA, 52404","Match","Exact","6301 KIRKWOOD BLVD SW, CEDAR RAPIDS, IA, 52404",653239574,"L"
778795,"6301 KIRKWOOD BLVD","CEDAR RAPIDS","IA",52404,41.917457357,-91.656650755,295,"6301 KIRKWOOD BLVD, CEDAR RAPIDS, IA, 52404","Match","Non_Exact","6301 KIRKWOOD BLVD SW, CEDAR RAPIDS, IA, 52404",653239574,"L"
778796,"6301 KLAMATH DR","WESTMINSTER","CA",92683,33.769032469,-118.02010622,296,"6301 KLAMATH DR, WESTMINSTER, CA, 92683","Match","Exact","6301 KLAMATH DR, WESTMINSTER, CA, 92683",144003804,"L"
778797,"6301 LAKE ATHABASKA PLACE","SAN DIEGO","CA",92119,32.794280413,-117.009184167,297,"6301 LAKE ATHABASKA PLACE, SAN DIEGO, CA, 92119","Match","Exact","6301 LAKE ATHABASKA PL, SAN DIEGO, CA, 92119",195326174,"R"
778798,"6301 LITTLE DEER LANE","COLUMBUS","OH",43213,39.9718246780001,-82.835907356,298,"6301 LITTLE DEER LANE, COLUMBUS, OH, 43213","Match","Exact","6301 LITTLE DEER LN, COLUMBUS, OH, 43213",135621389,"R"
778799,"6301 LIVEWOOD OAKS DRIVE","ORLANDO","FL",32818,28.583446952,-81.4679903259999,299,"6301 LIVEWOOD OAKS DRIVE, ORLANDO, FL, 32818","Match","Exact","6301 LIVEWOOD OAKS DR, ORLANDO, FL, 32818",94402554,"R"
778800,"6301 LYNN CREST LANE 308","RALEIGH","NC",27609,35.8672591370001,-78.643251861,300,"6301 LYNN CREST LANE 308, RALEIGH, NC, 27609","Match","Exact","6301 LYNN CREST LN, RALEIGH, NC, 27609",208346893,"R"
778801,"6301 MACKEY STREET","MERRIAM","KS",66202,39.0147679240001,-94.685226157,301,"6301 MACKEY STREET, MERRIAM, KS, 66202","Match","Exact","6301 MACKEY ST, MERRIAM, KS, 66202",91272932,"L"
778802,"6301 MARTINE ST","FORT WORTH","TX",76179,32.852484055,-97.403737029,302,"6301 MARTINE ST, FORT WORTH, TX, 76179","Match","Non_Exact","6301 MARITIME ST, FORT WORTH, TX, 76179",619868215,"L"
778803,"6301 MIDLOTHIAN TURNPIKE","RICHMOND","VA",23225,NA,NA,303,"6301 MIDLOTHIAN TURNPIKE, RICHMOND, VA, 23225","No_Match",NA,NA,NA,NA
778804,"6301 MONTROSE ROAD","ROCKVILLE","MD",20852,39.0532464250001,-77.130960686,304,"6301 MONTROSE ROAD, ROCKVILLE, MD, 20852","Match","Exact","6301 MONTROSE RD, ROCKVILLE, MD, 20852",647254116,"L"
778805,"6301 MOUNTAIN SHADOWS UNIT B","AUSTIN","TX",78735,30.2536034840001,-97.895109395,305,"6301 MOUNTAIN SHADOWS UNIT B, AUSTIN, TX, 78735","Match","Non_Exact","6301 MOUNTAIN SHADOWS DR, AUSTIN, TX, 78735",64016508,"L"
778806,"6301 N 56TH STREET","TAMPA","FL",33610,28.005248318,-82.393536953,306,"6301 N 56TH STREET, TAMPA, FL, 33610","Match","Exact","6301 N 56TH ST, TAMPA, FL, 33610",104532951,"R"
778807,"6301 N CALLE DEL HALCON","TUCSON","AZ",85718,32.320875797,-110.91342496,307,"6301 N CALLE DEL HALCON, TUCSON, AZ, 85718","Match","Non_Exact","6301 N CLL DEL HALCON, TUCSON, AZ, 85718",618210813,"R"
778808,"6301 N CHARLES STREET SUITE 1","BALTIMORE","MD",21212,NA,NA,308,"6301 N CHARLES STREET SUITE 1, BALTIMORE, MD, 21212","No_Match",NA,NA,NA,NA
778809,"6301 N ELLENDALE AVE","FRESNO","CA",93722,36.8254495200001,-119.888973886,309,"6301 N ELLENDALE AVE, FRESNO, CA, 93722","Match","Exact","6301 N ELLENDALE AVE, FRESNO, CA, 93722",197615554,"L"
778810,"6301 N SHERIDAN RD 8B","CHICAGO","IL",60660,41.9964995400001,-87.655574676,310,"6301 N SHERIDAN RD 8B, CHICAGO, IL, 60660","Match","Non_Exact","6301 N SHERIDAN RD, CHICAGO, IL, 60660",638170195,"R"
778811,"6301 N SHERIDAN RD","CHICAGO","IL",60660,41.9964995400001,-87.655574676,311,"6301 N SHERIDAN RD, CHICAGO, IL, 60660","Match","Exact","6301 N SHERIDAN RD, CHICAGO, IL, 60660",638170195,"R"
778812,"6301 N SHERIDAN ROAD APT 11B","CHICAGO","IL",60660,41.9964995400001,-87.655574676,312,"6301 N SHERIDAN ROAD APT 11B, CHICAGO, IL, 60660","Match","Non_Exact","6301 N SHERIDAN RD, CHICAGO, IL, 60660",638170195,"R"
778813,"6301 N SHERIDAN","CHICAGO","IL",60660,41.9964995400001,-87.655574676,313,"6301 N SHERIDAN, CHICAGO, IL, 60660","Match","Non_Exact","6301 N SHERIDAN RD, CHICAGO, IL, 60660",638170195,"R"
778814,"6301 NAAMAN FOREST BLVD APT 14302","GARLAND","TX",75044,32.971396283,-96.6569185769999,314,"6301 NAAMAN FOREST BLVD APT 14302, GARLAND, TX, 75044","Match","Exact","6301 NAAMAN FOREST BLVD, GARLAND, TX, 75044",650205924,"L"
778815,"6301 NE 44TH TERRACE","KANSAS CITY","MO",64117,39.174712492,-94.504939978,315,"6301 NE 44TH TERRACE, KANSAS CITY, MO, 64117","Match","Exact","6301 NE 44TH TER, KANSAS CITY, MO, 64117",89790683,"L"
778816,"6301 NEWT DR","ANCHORAGE","AK",99507,61.163277921,-149.82600236,316,"6301 NEWT DR, ANCHORAGE, AK, 99507","Match","Exact","6301 NEWT DR, ANCHORAGE, AK, 99507",190812878,"L"
778817,"6301 NORTH FALL CIRCLE DRIVE","LAUDERHILL","FL",33319,26.1763000030001,-80.2330828519999,317,"6301 NORTH FALL CIRCLE DRIVE, LAUDERHILL, FL, 33319","Match","Non_Exact","6301 N FALLS CIRCLE DR, LAUDERHILL, FL, 33319",114703229,"R"
778818,"6301 NW HOGAN DR","PARKVILLE","MO",64152,39.2093245350001,-94.711561429,318,"6301 NW HOGAN DR, PARKVILLE, MO, 64152","Match","Exact","6301 NW HOGAN DR, PARKVILLE, MO, 64152",39693528,"R"
778819,"6301 OLD WESTHAM DRIVE","SUFFOLK","VA",23435,36.8854423130001,-76.412767101,319,"6301 OLD WESTHAM DRIVE, SUFFOLK, VA, 23435","Match","Non_Exact","6301 OLD WESTHAM DR S, SUFFOLK, VA, 23435",122231573,"L"
778820,"6301 PINE HILLS LANE","DENTON","TX",76210,NA,NA,320,"6301 PINE HILLS LANE, DENTON, TX, 76210","No_Match",NA,NA,NA,NA
778821,"6301 PINE HILLS LN","DENTON","TX",76210,NA,NA,321,"6301 PINE HILLS LN, DENTON, TX, 76210","No_Match",NA,NA,NA,NA
778822,"6301 PINEFIELD ROAD","COLUMBIA","SC",29206,34.0413986390001,-80.9640022679999,322,"6301 PINEFIELD ROAD, COLUMBIA, SC, 29206","Match","Non_Exact","6301 PINEFIELD DR, COLUMBIA, SC, 29206",71862415,"L"
778823,"6301 POWELL ST","DOWNERS GROVE","IL",60516,41.772620965,-88.016588766,323,"6301 POWELL ST, DOWNERS GROVE, IL, 60516","Match","Exact","6301 POWELL ST, DOWNERS GROVE, IL, 60516",112539717,"L"
778824,"6301 PRAIRE HILL LANE","FLOWERMOUND","TX",75028,33.071312343,-97.066887994,324,"6301 PRAIRE HILL LANE, FLOWERMOUND, TX, 75028","Match","Non_Exact","6301 PRAIRIE HILL LN, FLOWERMOUND, TX, 75028",641536410,"R"
778825,"6301 PRESTON ROAD STE 700","PLANO","TX",75024,NA,NA,325,"6301 PRESTON ROAD STE 700, PLANO, TX, 75024","No_Match",NA,NA,NA,NA
778826,"6301 PRIMROSE LANE","PINE BLUFF","AR",71603,34.098326388,-92.075433604,326,"6301 PRIMROSE LANE, PINE BLUFF, AR, 71603","Match","Exact","6301 PRIMROSE LN, PINE BLUFF, AR, 71603",624958627,"L"
778827,"6301 RIDGEWAY RD","RICHMOND","VA",23226,NA,NA,327,"6301 RIDGEWAY RD, RICHMOND, VA, 23226","No_Match",NA,NA,NA,NA
778828,"6301 RIVERDALE AVE 1194","BRONX","NY",10471,40.912730637,-73.902524676,328,"6301 RIVERDALE AVE 1194, BRONX, NY, 10471","Match","Exact","6301 RIVERDALE AVE, BRONX, NY, 10471",80314480,"L"
778829,"6301 RIVERWOODS DRIVE","BLACKSHEAR","GA",31516,31.2594932260001,-82.345985506,329,"6301 RIVERWOODS DRIVE, BLACKSHEAR, GA, 31516","Match","Exact","6301 RIVERWOODS DR, BLACKSHEAR, GA, 31516",642907017,"R"
778830,"6301 ROCKHILL RD STE 323","KANSAS CITY","MO",64152,39.0132935,-94.576877657,330,"6301 ROCKHILL RD STE 323, KANSAS CITY, MO, 64152","Match","Non_Exact","6301 ROCKHILL RD, KANSAS CITY, MO, 64131",91454776,"L"
778831,"6301 ROYAL BIRKDALE OVERLOOK","AUSTIN","TX",78746,30.2828953150001,-97.8404384039999,331,"6301 ROYAL BIRKDALE OVERLOOK, AUSTIN, TX, 78746","Match","Exact","6301 ROYAL BIRKDALE OVLK, AUSTIN, TX, 78746",63937901,"L"
778832,"6301 S HALSTED OFFICE 2310","CHICAGO","IL",60621,NA,NA,332,"6301 S HALSTED OFFICE 2310, CHICAGO, IL, 60621","No_Match",NA,NA,NA,NA
778833,"6301 S LOOP E","HOUSTON","TX",77087,29.6973220630001,-95.313951592,333,"6301 S LOOP E, HOUSTON, TX, 77087","Match","Exact","6301 S LOOP E, HOUSTON, TX, 77087",96120139,"L"
778834,"6301 S STADIUM LANE","KATY","TX",77494,29.781126854,-95.83049491,334,"6301 S STADIUM LANE, KATY, TX, 77494","Match","Exact","6301 S STADIUM LN, KATY, TX, 77494",78338851,"L"
778835,"6301 S STREET","SACRAMENTO","CA",95811,38.5517943300001,-121.430707564,335,"6301 S STREET, SACRAMENTO, CA, 95811","Match","Non_Exact","6301 S ST, SACRAMENTO, CA, 95817",133364123,"L"
778836,"6301 S VINTAGE OAK LANE","SALT LAKE CITY","UT",84121,40.6361515090001,-111.839085113,336,"6301 S VINTAGE OAK LANE, SALT LAKE CITY, UT, 84121","Match","Exact","6301 VINTAGE OAK LN, SALT LAKE CITY, UT, 84121",176129974,"R"
778837,"6301 SAVANNAH PLACE","STOCKTON","CA",95219,38.0016990990001,-121.358268412,337,"6301 SAVANNAH PLACE, STOCKTON, CA, 95219","Match","Exact","6301 SAVANNAH PL, STOCKTON, CA, 95219",133842724,"L"
778838,"6301 SCOTHGLEN","ORLANDO","FL",32822,NA,NA,338,"6301 SCOTHGLEN, ORLANDO, FL, 32822","No_Match",NA,NA,NA,NA
778839,"6301 SHERMAN ST","PHILADELPHIA","PA",19144,40.0371267290001,-75.1871937719999,339,"6301 SHERMAN ST, PHILADELPHIA, PA, 19144","Match","Exact","6301 SHERMAN ST, PHILADELPHIA, PA, 19144",131400462,"R"
778840,"6301 SOUTH BLACKHAWK WAY","AURORA","CO",80016,39.6019951150001,-104.825422248,340,"6301 SOUTH BLACKHAWK WAY, AURORA, CO, 80016","Match","Exact","6301 S BLACKHAWK WAY, AURORA, CO, 80016",177540395,"L"
778841,"6301 SOUTH LEWIS  APARTMENT 74","TULSA","OK",74136,36.072523984,-95.9579559219999,341,"6301 SOUTH LEWIS  APARTMENT 74, TULSA, OK, 74136","Match","Non_Exact","6301 S LEWIS AVE, TULSA, OK, 74136",611253486,"L"
778842,"6301 STADIUM LANE","KATY","TX",77494,29.781126854,-95.83049491,342,"6301 STADIUM LANE, KATY, TX, 77494","Match","Non_Exact","6301 S STADIUM LN, KATY, TX, 77494",78338851,"L"
778843,"6301 STATE HWY 153","COLEMAN","TX",76834,31.866163982,-99.6378009909999,343,"6301 STATE HWY 153, COLEMAN, TX, 76834","Match","Exact","6301 STATE HWY 153, COLEMAN, TX, 76834",633913479,"L"
778844,"6301 STEVENSON AVE 817","ALEXANDRIA","VA",22304,38.8131421790001,-77.140938542,344,"6301 STEVENSON AVE 817, ALEXANDRIA, VA, 22304","Match","Exact","6301 STEVENSON AVE, ALEXANDRIA, VA, 22304",75982239,"R"
778845,"6301 STEVENSON AVENUE","ALEXANDRIA","VA",22304,38.8131421790001,-77.140938542,345,"6301 STEVENSON AVENUE, ALEXANDRIA, VA, 22304","Match","Exact","6301 STEVENSON AVE, ALEXANDRIA, VA, 22304",75982239,"R"
778846,"6301 STONEFIELD ROAD","MIDDLETON","WI",53562,43.086723394,-89.491322246,346,"6301 STONEFIELD ROAD, MIDDLETON, WI, 53562","Match","Exact","6301 STONEFIELD RD, MIDDLETON, WI, 53562",642076557,"L"
778847,"6301 STONEY CT","AUSTELL","GA",30168,33.8005379570001,-84.5876465549999,347,"6301 STONEY CT, AUSTELL, GA, 30168","Match","Exact","6301 STONEY CT, AUSTELL, GA, 30168",17218531,"L"
778848,"6301 STREAMWOOD LANE","MATTESON","IL",60443,41.518021547,-87.768563988,348,"6301 STREAMWOOD LANE, MATTESON, IL, 60443","Match","Exact","6301 STREAMWOOD LN, MATTESON, IL, 60443",111706798,"L"
778849,"6301 TRALEE DR NW","OLYMPIA","WA",98502,47.1223516110001,-122.930963955,349,"6301 TRALEE DR NW, OLYMPIA, WA, 98502","Match","Exact","6301 TRALEE DR NW, OLYMPIA, WA, 98502",180980695,"L"
778850,"6301 TRAMORE ROAD","BALTIMORE","MD",21214,39.363047873,-76.566741184,350,"6301 TRAMORE ROAD, BALTIMORE, MD, 21214","Match","Exact","6301 TRAMORE RD, BALTIMORE, MD, 21214",206410530,"R"
778851,"6301 VERDE VISTA CIR","ASHEVILLE","NC",28805,35.572085315,-82.509459503,351,"6301 VERDE VISTA CIR, ASHEVILLE, NC, 28805","Match","Exact","6301 VERDE VISTA CIR, ASHEVILLE, NC, 28805",652162676,"L"
778852,"6301 VIRGILIA COURT","RALEIGH","NC",27616,35.869663797,-78.5439393359999,352,"6301 VIRGILIA COURT, RALEIGH, NC, 27616","Match","Exact","6301 VIRGILIA CT, RALEIGH, NC, 27616",72649328,"L"
778853,"6301 W BRUSH FORK DRIVE","WEST JORDAN","UT",84081,40.598392871,-112.040990664,353,"6301 W BRUSH FORK DRIVE, WEST JORDAN, UT, 84081","Match","Exact","6301 W BRUSH FORK DR, WEST JORDAN, UT, 84081",639876480,"R"
778854,"6301 WARNER AVENUE SPC 8","HUNTINGTON BEACH","CA",92647,33.7155503020001,-118.021547306,354,"6301 WARNER AVENUE SPC 8, HUNTINGTON BEACH, CA, 92647","Match","Exact","6301 WARNER AVE, HUNTINGTON BEACH, CA, 92647",609060339,"L"
778855,"6301 WAXHAW HY","MINERAL SPRINGS","NC",28108,NA,NA,355,"6301 WAXHAW HY, MINERAL SPRINGS, NC, 28108","No_Match",NA,NA,NA,NA
778856,"6301 WESTERN RUN DR","BALTIMORE","MD",21215,39.364463906,-76.689754056,356,"6301 WESTERN RUN DR, BALTIMORE, MD, 21215","Match","Exact","6301 WESTERN RUN DR, BALTIMORE, MD, 21215",206464984,"R"
778857,"6301 WILBUR DR","AUSTIN","TX",78757,30.3410725520001,-97.745476823,357,"6301 WILBUR DR, AUSTIN, TX, 78757","Match","Exact","6301 WILBUR DR, AUSTIN, TX, 78757",63929200,"R"
778858,"6301 WINDHAVEN PARKWAY","PLANO","TX",75093,33.0568626560001,-96.836338503,358,"6301 WINDHAVEN PARKWAY, PLANO, TX, 75093","Match","Exact","6301 WINDHAVEN PKWY, PLANO, TX, 75093",210488076,"L"
778859,"6301 WINDHAVEN WAY APT 1213","PLANO","TX",75093,33.0568626560001,-96.836338503,359,"6301 WINDHAVEN WAY APT 1213, PLANO, TX, 75093","Match","Non_Exact","6301 WINDHAVEN PKWY, PLANO, TX, 75093",210488076,"L"
778860,"6301 WINIFRED DR","FORT WORTH","TX",76133,32.6547933730001,-97.398978584,360,"6301 WINIFRED DR, FORT WORTH, TX, 76133","Match","Exact","6301 WINIFRED DR, FORT WORTH, TX, 76133",101882821,"L"
778861,"6301 WYNWOOD LANE","TRUSSVILLE","AL",35173,33.6819817620001,-86.5594834409999,361,"6301 WYNWOOD LANE, TRUSSVILLE, AL, 35173","Match","Exact","6301 WYNWOOD LN, TRUSSVILLE, AL, 35173",635557249,"R"
778862,"6301 YOSEMITE AVENUE","EXCELSIOR","MN",55331,44.8896187390001,-93.559902736,362,"6301 YOSEMITE AVENUE, EXCELSIOR, MN, 55331","Match","Exact","6301 YOSEMITE AVE, EXCELSIOR, MN, 55331",43497841,"R"
778863,"6301","PRESCOTT","AZ",86303,NA,NA,363,"6301, PRESCOTT, AZ, 86303","No_Match",NA,NA,NA,NA
778864,"63010 RANGE ROAD","LORE CITY","OH",43755,40.0104159470001,-81.439608888,364,"63010 RANGE ROAD, LORE CITY, OH, 43755","Match","Exact","63010 RANGE RD, LORE CITY, OH, 43755",612395255,"R"
778865,"6302 116TH STREET COURT NW","GIG HARBOR","WA",98332,47.364125927,-122.622801411,365,"6302 116TH STREET COURT NW, GIG HARBOR, WA, 98332","Match","Exact","6302 116TH STREET CT NW, GIG HARBOR, WA, 98332",624489538,"R"
778866,"6302 119TH PLACE SE","BELLEVUE","WA",98006,47.5463654100001,-122.181013679,366,"6302 119TH PLACE SE, BELLEVUE, WA, 98006","Match","Exact","6302 119TH PL SE, BELLEVUE, WA, 98006",186941528,"R"
778867,"6302 6TH ST CT NE","TACOMA","WA",98422,47.263201101,-122.344374338,367,"6302 6TH ST CT NE, TACOMA, WA, 98422","Match","Exact","6302 6TH ST CT NE, TACOMA, WA, 98422",184679033,"R"
778868,"6302 73RD ST APT 202","KENOSHA","IL",53142,NA,NA,368,"6302 73RD ST APT 202, KENOSHA, IL, 53142","No_Match",NA,NA,NA,NA
778869,"6302 82 AVE","KENOSHA","WI",53142,42.5788610010001,-87.907527841,369,"6302 82 AVE, KENOSHA, WI, 53142","Match","Exact","6302 82ND AVE, KENOSHA, WI, 53142",79820468,"R"
778870,"6302 ALDERWOOD ST","SPRING HILL","FL",34606,28.460050218,-82.6127895449999,370,"6302 ALDERWOOD ST, SPRING HILL, FL, 34606","Match","Exact","6302 ALDERWOOD ST, SPRING HILL, FL, 34606",85432216,"R"
778871,"6302 ARNOLD DR UNIT A","AUSTIN","TX",78723,30.309277482,-97.673830875,371,"6302 ARNOLD DR UNIT A, AUSTIN, TX, 78723","Match","Exact","6302 ARNOLD DR, AUSTIN, TX, 78723",63935134,"L"
778872,"6302 BLAKE AVE","AMARILLO","TX",79119,NA,NA,372,"6302 BLAKE AVE, AMARILLO, TX, 79119","No_Match",NA,NA,NA,NA
778873,"6302 BRACKETT ROAD","WILLIAMSBURG","MI",49690,44.787234556,-85.4498156609999,373,"6302 BRACKETT ROAD, WILLIAMSBURG, MI, 49690","Match","Exact","6302 BRACKETT RD, WILLIAMSBURG, MI, 49690",145530999,"R"
778874,"6302 BRADLEY PL","MADISON","WI",53711,43.0420125370001,-89.490278458,374,"6302 BRADLEY PL, MADISON, WI, 53711","Match","Exact","6302 BRADLEY PL, MADISON, WI, 53711",49467538,"R"
778875,"6302 BROOKCREST DR","ARLINGTON","TX",76018,32.644361469,-97.091414841,375,"6302 BROOKCREST DR, ARLINGTON, TX, 76018","Match","Exact","6302 BROOKCREST DR, ARLINGTON, TX, 76018",101932280,"R"
778876,"6302 C T PL","STATESBORO","GA",30461,NA,NA,376,"6302 C T PL, STATESBORO, GA, 30461","No_Match",NA,NA,NA,NA
778877,"6302 CEDARPOST COURT","LOUISVILLE","KY",40291,38.1548028810001,-85.5849521279999,377,"6302 CEDARPOST COURT, LOUISVILLE, KY, 40291","Match","Exact","6302 CEDARPOST CT, LOUISVILLE, KY, 40291",96884535,"L"
778878,"6302 CEDARPOST","LOUISVILLE","KY",40291,38.1548028810001,-85.5849521279999,378,"6302 CEDARPOST, LOUISVILLE, KY, 40291","Match","Non_Exact","6302 CEDARPOST CT, LOUISVILLE, KY, 40291",96884535,"L"
778879,"6302 CHESTNUT PKWY","FLOWERY BRANCH","GA",30542,34.1725143840001,-83.959288739,379,"6302 CHESTNUT PKWY, FLOWERY BRANCH, GA, 30542","Match","Exact","6302 CHESTNUT PKWY, FLOWERY BR, GA, 30542",98260312,"L"
778880,"6302 CROSSWOODS CIRCLE","FALLS CHURCH","VA",22044,38.8468518970001,-77.15284129,380,"6302 CROSSWOODS CIRCLE, FALLS CHURCH, VA, 22044","Match","Exact","6302 CROSSWOODS CIR, FALLS CHURCH, VA, 22044",76045726,"R"
778881,"6302 CYPRESS POINT DRIVE","MONROE","LA",71203,32.5346044070001,-92.046317831,381,"6302 CYPRESS POINT DRIVE, MONROE, LA, 71203","Match","Exact","6302 CYPRESS POINT DR, MONROE, LA, 71203",161089395,"L"
778882,"6302 DEL ORO RD","GRANITE BAY","CA",95746,38.7655526610001,-121.183846994,382,"6302 DEL ORO RD, GRANITE BAY, CA, 95746","Match","Exact","6302 DEL ORO RD, GRANITE BAY, CA, 95746",106770339,"L"
778883,"6302 E CACTUS WREN RD","PARADISE VALLEY","AZ",85253,33.5347216000001,-111.945691031,383,"6302 E CACTUS WREN RD, PARADISE VALLEY, AZ, 85253","Match","Exact","6302 E CACTUS WREN RD, PARADISE VALLEY, AZ, 85253",128600310,"L"
778884,"6302 E HALBERT RD","BETHESDA","MD",20817,38.9725955010001,-77.14034058,384,"6302 E HALBERT RD, BETHESDA, MD, 20817","Match","Exact","6302 E HALBERT RD, BETHESDA, MD, 20817",62057869,"L"
778885,"6302 E HILLCREST BLVD","SCOTTSDALE","AZ",85251,33.504985619,-111.945020564,385,"6302 E HILLCREST BLVD, SCOTTSDALE, AZ, 85251","Match","Exact","6302 E HILLCREST BLVD, SCOTTSDALE, AZ, 85251",128355172,"L"
778886,"6302 EAST BARNAN STREET","TUCSON","AZ",85710,32.215875608,-110.857798588,386,"6302 EAST BARNAN STREET, TUCSON, AZ, 85710","Match","Exact","6302 E BARNAN ST, TUCSON, AZ, 85710",121181066,"R"
778887,"6302 FOLEY SQUARE","AMARILLO","TX",79119,NA,NA,387,"6302 FOLEY SQUARE, AMARILLO, TX, 79119","No_Match",NA,NA,NA,NA
778888,"6302 FOXWOOD COURT","LIBERTY TOWNSHIP","OH",45044,39.3934779950001,-84.398127055,388,"6302 FOXWOOD COURT, LIBERTY TOWNSHIP, OH, 45044","Match","Exact","6302 FOXWOOD CT, LIBERTY TOWNSHIP, OH, 45044",113808878,"R"
778889,"6302 GABRIELLE WAY","DAVENPORT","IA",52807,41.5863573350001,-90.516030245,389,"6302 GABRIELLE WAY, DAVENPORT, IA, 52807","Match","Exact","6302 GABRIELLE WAY, DAVENPORT, IA, 52807",650855793,"L"
778890,"6302 HAMOCK PARK RD","WEST PALM BEACH","FL",33411,26.722609447,-80.139699782,390,"6302 HAMOCK PARK RD, WEST PALM BEACH, FL, 33411","Match","Non_Exact","6302 HAMMOCK PARK RD, WEST PALM BEACH, FL, 33411",115572357,"R"
778891,"6302 KINCAID AVE","BATON ROUGE","IA",70805,NA,NA,391,"6302 KINCAID AVE, BATON ROUGE, IA, 70805","No_Match",NA,NA,NA,NA
778892,"6302 LAKE KATHLEEN AVE","SAN DIEGO","CA",92119,32.795387186,-117.024403024,392,"6302 LAKE KATHLEEN AVE, SAN DIEGO, CA, 92119","Match","Exact","6302 LAKE KATHLEEN AVE, SAN DIEGO, CA, 92119",195325453,"L"
778893,"6302 LONG BEACH","ST LEONARD","MD",20685,38.459320883,-76.4735322889999,393,"6302 LONG BEACH, ST LEONARD, MD, 20685","Match","Non_Exact","6302 LONG BEACH DR, SAINT LEONARD, MD, 20685",78180556,"L"
778894,"6302 MOUNT EDEN AVE","LAS VEGAS","NV",89139,36.041384271,-115.230203343,394,"6302 MOUNT EDEN AVE, LAS VEGAS, NV, 89139","Match","Exact","6302 MOUNT EDEN AVE, LAS VEGAS, NV, 89139",641500918,"R"
778895,"6302 N 45TH STREET","TACOMA","WA",98407,47.2899299050001,-122.521207652,395,"6302 N 45TH STREET, TACOMA, WA, 98407","Match","Exact","6302 N 45TH ST, TACOMA, WA, 98407",184643492,"L"
778896,"6302 N BALES","GLADSTONE","MO",64119,39.2084615430001,-94.539020905,396,"6302 N BALES, GLADSTONE, MO, 64119","Match","Non_Exact","6302 N BALES AVE, GLADSTONE, MO, 64119",89758112,"L"
778897,"6302 N ELLENDALE AVE","FRESNO","CA",93722,36.825967377,-119.888793322,397,"6302 N ELLENDALE AVE, FRESNO, CA, 93722","Match","Exact","6302 N ELLENDALE AVE, FRESNO, CA, 93722",197615554,"R"
778898,"6302 N SELLAND AVE","FRESNO","CA",93711,36.828194878,-119.855646193,398,"6302 N SELLAND AVE, FRESNO, CA, 93711","Match","Exact","6302 N SELLAND AVE, FRESNO, CA, 93711",197614422,"L"
778899,"6302 NORTH ROAD","COFFEEN","IL",62017,NA,NA,399,"6302 NORTH ROAD, COFFEEN, IL, 62017","No_Match",NA,NA,NA,NA
778900,"6302 OLD YORK RD APT 308","PHILADELPHIA","PA",19141,40.048802391,-75.144888243,400,"6302 OLD YORK RD APT 308, PHILADELPHIA, PA, 19141","Match","Non_Exact","6302 OLD YORK RD, PHILADELPHIA, PA, 19141",131413875,"L"
778901,"6302 ORANGE BLOSSOM LANE","ROSENBERG","TX",77471,29.5468780200001,-95.765240231,401,"6302 ORANGE BLOSSOM LANE, ROSENBERG, TX, 77471","Match","Exact","6302 ORANGE BLOSSOM LN, ROSENBERG, TX, 77471",641271772,"L"
778902,"6302 RAY HOLLOW RD","ARENA","WI",53503,43.116901168,-89.902132511,402,"6302 RAY HOLLOW RD, ARENA, WI, 53503","Match","Exact","6302 RAY HOLLOW RD, ARENA, WI, 53503",49793205,"L"
778903,"6302 RIDGEROAD DRIVE NW","PIEDMONT","OK",73078,35.696045864,-97.748994168,403,"6302 RIDGEROAD DRIVE NW, PIEDMONT, OK, 73078","Match","Non_Exact","6302 RIDGE ROAD DR NW, PIEDMONT, OK, 73078",92554771,"L"
778904,"6302 ROWE CT","CATONSVILLE","MD",21228,39.2993159490001,-76.7406375369999,404,"6302 ROWE CT, CATONSVILLE, MD, 21228","Match","Exact","6302 ROWE CT, CATONSVILLE, MD, 21228",191483679,"R"
778905,"6302 S HARRISON ST","FORT WAYNE","IN",46807,41.0270023260001,-85.137501497,405,"6302 S HARRISON ST, FORT WAYNE, IN, 46807","Match","Exact","6302 S HARRISON ST, FORT WAYNE, IN, 46807",6383027,"R"
778906,"6302 SHADOW OAK DR","LAS VEGAS","NV",89031,36.274778182,-115.164807531,406,"6302 SHADOW OAK DR, LAS VEGAS, NV, 89031","Match","Non_Exact","6302 SHADOW OAK DR, N LAS VEGAS, NV, 89031",201981022,"R"
778907,"6302 STABLEWOOD WAY","LITHONIA","GA",30058,33.729545285,-84.131943597,407,"6302 STABLEWOOD WAY, LITHONIA, GA, 30058","Match","Exact","6302 STABLEWOOD WAY, LITHONIA, GA, 30058",23379188,"L"
778908,"6302 STURBRIDGE COURT","SARASOTA","FL",34238,27.257980554,-82.466253734,408,"6302 STURBRIDGE COURT, SARASOTA, FL, 34238","Match","Exact","6302 STURBRIDGE CT, SARASOTA, FL, 34238",16447987,"R"
778909,"6302 TALLOWTREE DRIVE","HILLIARD","OH",43026,40.0458793280001,-83.186238179,409,"6302 TALLOWTREE DRIVE, HILLIARD, OH, 43026","Match","Exact","6302 TALLOWTREE DR, HILLIARD, OH, 43026",218702144,"R"
778910,"6302 TIDWELL ROAD","HOUSTON","TX",77016,29.8483880920001,-95.3071724869999,410,"6302 TIDWELL ROAD, HOUSTON, TX, 77016","Match","Exact","6302 TIDWELL RD, HOUSTON, TX, 77016",96076673,"R"
778911,"6302 TIOGA COURT","BOSSIER CITY","LA",71112,32.444147464,-93.653291211,411,"6302 TIOGA COURT, BOSSIER CITY, LA, 71112","Match","Exact","6302 TIOGA CT, BOSSIER CITY, LA, 71112",108527409,"R"
778912,"6302 TROTTER ST","PHILADELPHIA","PA",19111,40.041613263,-75.084367556,412,"6302 TROTTER ST, PHILADELPHIA, PA, 19111","Match","Exact","6302 TROTTER ST, PHILADELPHIA, PA, 19111",131415983,"L"
778913,"6302 TWIN BRIDGES DR","ZEPHRYHILLS","FL",33541,28.2477886360001,-82.2242268159999,413,"6302 TWIN BRIDGES DR, ZEPHRYHILLS, FL, 33541","Match","Non_Exact","6302 TWIN BRIDGES DR, ZEPHYRHILLS, FL, 33541",618493595,"R"
778914,"6302 VALHALLA DR","LOVES PARK","IL",61111,42.3317267250001,-88.992071477,414,"6302 VALHALLA DR, LOVES PARK, IL, 61111","Match","Exact","6302 VALHALLA DR, LOVES PARK, IL, 61111",49280582,"L"
778915,"6302 W DORMANY RD","PLANT CITY","FL",33565,28.0862226200001,-82.208227906,415,"6302 W DORMANY RD, PLANT CITY, FL, 33565","Match","Exact","6302 W DORMANY RD, PLANT CITY, FL, 33565",650348828,"R"
778916,"6302 W FILLY ST","BOISE","ID",83629,43.663780994,-116.267355681,416,"6302 W FILLY ST, BOISE, ID, 83629","Match","Non_Exact","6302 W FILLY ST, BOISE, ID, 83703",651776684,"R"
778917,"6302 W KENT DR","CHANDLER","AZ",85226,33.3259702190001,-111.950272599,417,"6302 W KENT DR, CHANDLER, AZ, 85226","Match","Exact","6302 W KENT DR, CHANDLER, AZ, 85226",128777758,"L"
778918,"6302 W LINDA LANE","CHANDLER","AZ",85226,33.316676817,-111.951305185,418,"6302 W LINDA LANE, CHANDLER, AZ, 85226","Match","Exact","6302 W LINDA LN, CHANDLER, AZ, 85226",128777778,"L"
778919,"6302 W WELLINGTON WAY APT A","MCCORDSVILLE","IN",46055,39.889558806,-85.925082123,419,"6302 W WELLINGTON WAY APT A, MCCORDSVILLE, IN, 46055","Match","Non_Exact","6302 W WELLINGTON WAY, MCCORDSVILLE, IN, 46055",614107122,"L"
778920,"6302 WELLINGTON DR","UNION CITY","GA",30291,33.5942620540001,-84.56331547,420,"6302 WELLINGTON DR, UNION CITY, GA, 30291","Match","Exact","6302 WELLINGTON DR, UNION CITY, GA, 30291",17432554,"L"
778921,"6302 WESCOTT DRIVE","SUMMERFIELD","NC",27358,36.1728462940001,-79.9372517799999,421,"6302 WESCOTT DRIVE, SUMMERFIELD, NC, 27358","Match","Exact","6302 WESCOTT DR, SUMMERFIELD, NC, 27358",131080194,"R"
778922,"6302 WILLOW BROOKE DR","LIBERTY TOWNSHIP","OH",45011,39.3945789910001,-84.454161471,422,"6302 WILLOW BROOKE DR, LIBERTY TOWNSHIP, OH, 45011","Match","Exact","6302 WILLOW BROOKE DR, LIBERTY TWP, OH, 45011",113816388,"R"
778923,"6302 WILLOWOOD LANE","ALEXANDRIA","MD",22310,NA,NA,423,"6302 WILLOWOOD LANE, ALEXANDRIA, MD, 22310","No_Match",NA,NA,NA,NA
778924,"6302 WINGATE STREET APT 204","ALEXANDRIA","VA",22312,38.8213944730001,-77.145674476,424,"6302 WINGATE STREET APT 204, ALEXANDRIA, VA, 22312","Match","Exact","6302 WINGATE ST, ALEXANDRIA, VA, 22312",75981990,"R"
778925,"6302 WOODCHUCK DR","PENDLETON","IN",46064,40.014095802,-85.7031548799999,425,"6302 WOODCHUCK DR, PENDLETON, IN, 46064","Match","Exact","6302 WOODCHUCK DR, PENDLETON, IN, 46064",31123549,"R"
778926,"6302","SPRINGFIELD","VA",22152,NA,NA,426,"6302, SPRINGFIELD, VA, 22152","No_Match",NA,NA,NA,NA
778927,"63020 RIDGEWOOD DRIVE","CAMBRIDGE","OH",43725,40.0178415940001,-81.631361463,427,"63020 RIDGEWOOD DRIVE, CAMBRIDGE, OH, 43725","Match","Exact","63020 RIDGEWOOD DR, CAMBRIDGE, OH, 43725",613644106,"R"
778928,"6303 26 MILE RD SUITE 200","WASHINGTON","MI",48094,42.7137674940001,-83.042213713,428,"6303 26 MILE RD SUITE 200, WASHINGTON, MI, 48094","Match","Exact","6303 26 MILE RD, WASHINGTON, MI, 48094",110731138,"L"
778929,"6303 7TH AVE","LOS ANGELES","CA",90043,33.9827038990001,-118.324517221,429,"6303 7TH AVE, LOS ANGELES, CA, 90043","Match","Exact","6303 7TH AVE, LOS ANGELES, CA, 90043",141655197,"R"
778930,"6303 ACORN RIDGE TRAIL","HILLSBOROUGH","NC",27278,36.126279842,-78.9849995009999,430,"6303 ACORN RIDGE TRAIL, HILLSBOROUGH, NC, 27278","Match","Exact","6303 ACORN RIDGE TRL, HILLSBOROUGH, NC, 27278",72391116,"R"
778931,"6303 ALDERFER","ODESSA","TX",79762,31.9055695050001,-102.383849979,431,"6303 ALDERFER, ODESSA, TX, 79762","Match","Non_Exact","6303 ALDERFER AVE, ODESSA, TX, 79762",139427362,"L"
778932,"6303 AMBER VALLEY LANE","INDIANAPOLIS","IN",46237,39.6767757740001,-86.046287077,432,"6303 AMBER VALLEY LANE, INDIANAPOLIS, IN, 46237","Match","Exact","6303 AMBER VALLEY LN, INDIANAPOLIS, IN, 46237",108065631,"L"
778933,"6303 BILLINGTON ST","HOUSTON","TX",77084,29.8658526930001,-95.637259246,433,"6303 BILLINGTON ST, HOUSTON, TX, 77084","Match","Exact","6303 BILLINGTON ST, HOUSTON, TX, 77084",96142827,"L"
778934,"6303 BLUE LAGOON DRIVE SUITE 400","MIAMI","FL",33125,25.783152225,-80.297777352,434,"6303 BLUE LAGOON DRIVE SUITE 400, MIAMI, FL, 33125","Match","Non_Exact","6303 BLUE LAGOON DR, MIAMI, FL, 33126",116261486,"R"
778935,"6303 BLUE TWILIGHT COURT","LAS","NV",89108,NA,NA,435,"6303 BLUE TWILIGHT COURT, LAS, NV, 89108","No_Match",NA,NA,NA,NA
778936,"6303 CAPON STREET","SEAT PLEASANT","MD",20743,38.8931268630001,-76.8984765979999,436,"6303 CAPON STREET, SEAT PLEASANT, MD, 20743","Match","Exact","6303 CAPON ST, SEAT PLEASANT, MD, 20743",76332380,"L"
778937,"6303 CLARK RD","HARRISON","TN",37341,35.1273770760001,-85.14048422,437,"6303 CLARK RD, HARRISON, TN, 37341","Match","Exact","6303 CLARK RD, HARRISON, TN, 37341",59316191,"L"
778938,"6303 CLINTON WAY","CLINTON","MD",20735,38.7407652690001,-76.899805613,438,"6303 CLINTON WAY, CLINTON, MD, 20735","Match","Exact","6303 CLINTON WAY, CLINTON, MD, 20735",76370953,"R"
778939,"6303 DITMAN STREET","PHILDELPHIA","PA",19144,40.021678185,-75.054461851,439,"6303 DITMAN STREET, PHILDELPHIA, PA, 19144","Match","Non_Exact","6303 DITMAN ST, PHILADELPHIA, PA, 19135",131435110,"R"
778940,"6303 DORA BOULEVARD","INDEPENDENCE","OH",44131,41.370499087,-81.6449923339999,440,"6303 DORA BOULEVARD, INDEPENDENCE, OH, 44131","Match","Exact","6303 DORA BLVD, INDEPENDENCE, OH, 44131",61140643,"L"
778941,"6303 E 690 RD","LOYAL","OK",73756,NA,NA,441,"6303 E 690 RD, LOYAL, OK, 73756","No_Match",NA,NA,NA,NA
778942,"6303 E COUNTY RD 350 S","FRANKFORT","IN",46041,40.235672725,-86.391737432,442,"6303 E COUNTY RD 350 S, FRANKFORT, IN, 46041","Match","Exact","6303 E CO RD 350 S, FRANKFORT, IN, 46041",27230495,"R"
778943,"6303 E FM 2812","EDINBURG","TX",78542,26.3768865170001,-98.08245075,443,"6303 E FM 2812, EDINBURG, TX, 78542","Match","Exact","6303 FM 2812, EDINBURG, TX, 78542",637595395,"R"
778944,"6303 FUR SEAL COURT","WALDORF","MD",20603,38.623079009,-76.9622875159999,444,"6303 FUR SEAL COURT, WALDORF, MD, 20603","Match","Exact","6303 FUR SEAL CT, WALDORF, MD, 20603",25384684,"R"
778945,"6303 GLENEAGLES DR","TYLER","TX",75703,32.2794168570001,-95.329133285,445,"6303 GLENEAGLES DR, TYLER, TX, 75703","Match","Exact","6303 GLENEAGLES DR, TYLER, TX, 75703",141272564,"L"
778946,"6303 HARRISON AVENUE","CINCINNATI","OH",45247,39.1922700740001,-84.658500566,446,"6303 HARRISON AVENUE, CINCINNATI, OH, 45247","Match","Exact","6303 HARRISON AVE, CINCINNATI, OH, 45247",103948683,"L"
778947,"6303 JOYCE DRIVE","TEMPLE HILLS","MD",20748,38.8038766600001,-76.9174333779999,447,"6303 JOYCE DRIVE, TEMPLE HILLS, MD, 20748","Match","Exact","6303 JOYCE DR, TEMPLE HILLS, MD, 20748",76316895,"R"
778948,"6303 KENNEDY HILLS CT","SUGARLAND","TX",77479,29.545592787,-95.6123852549999,448,"6303 KENNEDY HILLS CT, SUGARLAND, TX, 77479","Match","Non_Exact","6303 KENNEDY HILLS CT, SUGAR LAND, TX, 77479",642934441,"L"
778949,"6303 LA SALLES RD","DEL RAY BEACH","FL",33484,NA,NA,449,"6303 LA SALLES RD, DEL RAY BEACH, FL, 33484","No_Match",NA,NA,NA,NA
778950,"6303 LANSDOWNE AVENUE","PHILADELPHIA","PA",19151,39.975325995,-75.245640076,450,"6303 LANSDOWNE AVENUE, PHILADELPHIA, PA, 19151","Match","Exact","6303 LANSDOWNE AVE, PHILADELPHIA, PA, 19151",131397168,"R"
778951,"6303 LITHOPOLIS RD","GROVEPORT","OH",43125,39.84600497,-82.86109132,451,"6303 LITHOPOLIS RD, GROVEPORT, OH, 43125","Match","Exact","6303 LITHOPOLIS RD, GROVEPORT, OH, 43125",218639517,"R"
778952,"6303 MANSFIELD DRIVE","GREENDALE","WI",53129,42.9497218560001,-87.9931875629999,452,"6303 MANSFIELD DRIVE, GREENDALE, WI, 53129","Match","Exact","6303 MANSFIELD DR, GREENDALE, WI, 53129",77749511,"L"
778953,"6303 MARGARET CT","INDIAN TRAIL","NC",28079,35.08499613,-80.6325470099999,453,"6303 MARGARET CT, INDIAN TRAIL, NC, 28079","Match","Exact","6303 MARGARET CT, INDIAN TRAIL, NC, 28079",626011796,"L"
778954,"6303 MCPHERSON","UNIVERSITY CITY","MO",63130,38.6522736700001,-90.3025668349999,454,"6303 MCPHERSON, UNIVERSITY CITY, MO, 63130","Match","Non_Exact","6303 MCPHERSON AVE, UNIVERSITY CITY, MO, 63130",100153439,"R"
778955,"6303 MOHAWK ST","HOUSTON","TX",77016,29.877768728,-95.295656526,455,"6303 MOHAWK ST, HOUSTON, TX, 77016","Match","Exact","6303 MOHAWK ST, HOUSTON, TX, 77016",96075384,"L"
778956,"6303 MONTGOMERY ROAD","CINCINNATI","OH",45213,39.184536032,-84.422865622,456,"6303 MONTGOMERY ROAD, CINCINNATI, OH, 45213","Match","Exact","6303 MONTGOMERY RD, CINCINNATI, OH, 45213",103931755,"L"
778957,"6303 N TROY ST APT 2","CHICAGO","IL",60659,41.9957972490001,-87.708069262,457,"6303 N TROY ST APT 2, CHICAGO, IL, 60659","Match","Non_Exact","6303 N TROY ST, CHICAGO, IL, 60659",646566627,"L"
778958,"6303 OWENSMOUTH AVE 10TH FLOOR","WOODLAND HILLS","CA",91367,34.1846995560001,-118.60152747,458,"6303 OWENSMOUTH AVE 10TH FLOOR, WOODLAND HILLS, CA, 91367","Match","Exact","6303 OWENSMOUTH AVE, WOODLAND HILLS, CA, 91367",648859491,"L"
778959,"6303 OWL WAY","LIVERMORE","CA",94551,37.720137449,-121.720841534,459,"6303 OWL WAY, LIVERMORE, CA, 94551","Match","Exact","6303 OWL WAY, LIVERMORE, CA, 94551",125071772,"R"
778960,"6303 PASTURE VIEW PLACE","GAINESVILLE","VA",20155,38.819388464,-77.5925358499999,460,"6303 PASTURE VIEW PLACE, GAINESVILLE, VA, 20155","Match","Exact","6303 PASTURE VIEW PL, GAINESVILLE, VA, 20155",207145294,"L"
778961,"6303 PEGGY","FORT WORTH","TX",76133,32.653354274,-97.356298856,461,"6303 PEGGY, FORT WORTH, TX, 76133","Match","Non_Exact","6303 PEGGY DR, FORT WORTH, TX, 76133",101894176,"L"
778962,"6303 QUINN AVE","MAYS LANDING","NJ",8330,39.451625801,-74.7499068559999,462,"6303 QUINN AVE, MAYS LANDING, NJ, 8330","Match","Exact","6303 QUINN AVE, MAYS LANDING, NJ, 08330",202494659,"L"
778963,"6303 RIVER PARKWAY NE","CEDAR RAPIDS","IA",52411,42.0117314240001,-91.725588118,463,"6303 RIVER PARKWAY NE, CEDAR RAPIDS, IA, 52411","Match","Non_Exact","6303 RIVER PKWY, CEDAR RAPIDS, IA, 52411",645483374,"L"
778964,"6303 RORY COURT","LANHAM","MD",20706,38.976560641,-76.830285383,464,"6303 RORY COURT, LANHAM, MD, 20706","Match","Exact","6303 RORY CT, LANHAM, MD, 20706",76418613,"L"
778965,"6303 ROSERIDGE LN","HOUSTON","TX",77053,29.5961083660001,-95.478290182,465,"6303 ROSERIDGE LN, HOUSTON, TX, 77053","Match","Exact","6303 ROSERIDGE LN, HOUSTON, TX, 77053",78270743,"L"
778966,"6303 S 120TH E AVE","BROKEN ARROW","OK",74012,36.0727701230001,-95.842547521,466,"6303 S 120TH E AVE, BROKEN ARROW, OK, 74012","Match","Exact","6303 S 120TH EAST AVE, BROKEN ARROW, OK, 74012",166457895,"R"
778967,"6303 S 120TH EAST AVE","BROKEN ARROW","OH",74012,NA,NA,467,"6303 S 120TH EAST AVE, BROKEN ARROW, OH, 74012","No_Match",NA,NA,NA,NA
778968,"6303 S 120TH EAST AVE","BROKEN ARROW","OK",74012,36.0727701230001,-95.842547521,468,"6303 S 120TH EAST AVE, BROKEN ARROW, OK, 74012","Match","Exact","6303 S 120TH EAST AVE, BROKEN ARROW, OK, 74012",166457895,"R"
778969,"6303 S NORMANDIE AVE","LOS ANGELES","CA",90044,33.982257008,-118.300261016,469,"6303 S NORMANDIE AVE, LOS ANGELES, CA, 90044","Match","Exact","6303 S NORMANDIE AVE, LOS ANGELES, CA, 90044",635894478,"R"
778970,"6303 S SADDLE CREEK LANE","FULSHEAR","TX",77441,29.698721936,-95.850947777,470,"6303 S SADDLE CREEK LANE, FULSHEAR, TX, 77441","Match","Exact","6303 S SADDLE CREEK LN, FULSHEAR, TX, 77441",641060642,"R"
778971,"6303 S SHELBY RIDGE ST","SPOKANE","WA",99224,47.5956095510001,-117.421356539,471,"6303 S SHELBY RIDGE ST, SPOKANE, WA, 99224","Match","Exact","6303 S SHELBY RIDGE ST, SPOKANE, WA, 99224",605678036,"L"
778972,"6303 SANDPIPER CT","ELKRIDGE","MD",21075,39.2076822280001,-76.735667226,472,"6303 SANDPIPER CT, ELKRIDGE, MD, 21075","Match","Exact","6303 SANDPIPER CT, ELKRIDGE, MD, 21075",636217748,"L"
778973,"6303 SHADY OAKS DRIVE","TYLER","TX",75703,32.279810625,-95.322406794,473,"6303 SHADY OAKS DRIVE, TYLER, TX, 75703","Match","Exact","6303 SHADY OAKS DR, TYLER, TX, 75703",141272572,"L"
778974,"6303 SHADY SHORES APT 881","DENTON","TX",76208,NA,NA,474,"6303 SHADY SHORES APT 881, DENTON, TX, 76208","No_Match",NA,NA,NA,NA
778975,"6303 SHERMAN STREET","PHILADELPHIA","PA",19144,40.0371698760001,-75.187266934,475,"6303 SHERMAN STREET, PHILADELPHIA, PA, 19144","Match","Exact","6303 SHERMAN ST, PHILADELPHIA, PA, 19144",131400462,"R"
778976,"6303 SIENNA RANCH RD 2202","MISSOURI CITY","TX",77459,29.5393697760001,-95.550565724,476,"6303 SIENNA RANCH RD 2202, MISSOURI CITY, TX, 77459","Match","Exact","6303 SIENNA RANCH RD, MISSOURI CITY, TX, 77459",647120758,"L"
778977,"6303 SIENNA RANCH RD 2211","MISSOURI CITY","TX",77459,29.5393697760001,-95.550565724,477,"6303 SIENNA RANCH RD 2211, MISSOURI CITY, TX, 77459","Match","Exact","6303 SIENNA RANCH RD, MISSOURI CITY, TX, 77459",647120758,"L"
778978,"6303 SIENNA RANCH RD APT 1108","MISSOURI CITY","TX",77459,29.5393697760001,-95.550565724,478,"6303 SIENNA RANCH RD APT 1108, MISSOURI CITY, TX, 77459","Match","Exact","6303 SIENNA RANCH RD, MISSOURI CITY, TX, 77459",647120758,"L"
778979,"6303 SIENNA RANCH RD APT 1328","MISSOURI CITY","TX",77459,29.5393697760001,-95.550565724,479,"6303 SIENNA RANCH RD APT 1328, MISSOURI CITY, TX, 77459","Match","Exact","6303 SIENNA RANCH RD, MISSOURI CITY, TX, 77459",647120758,"L"
778980,"6303 ST ALBION WY","MOUNTLAKE TERRACE","WA",98089,47.801923689,-122.317967666,480,"6303 ST ALBION WY, MOUNTLAKE TERRACE, WA, 98089","Match","Non_Exact","6303 ST ALBION WAY, MOUNTLAKE TERRACE, WA, 98043",187756347,"L"
778981,"6303 STABLEWOOD WAY","LITHONIA","GA",30058,33.729532552,-84.131950877,481,"6303 STABLEWOOD WAY, LITHONIA, GA, 30058","Match","Exact","6303 STABLEWOOD WAY, LITHONIA, GA, 30058",23379188,"R"
778982,"6303 SUMMER SWEET DR","CLINTON","MD",20735,38.7325600570001,-76.898025075,482,"6303 SUMMER SWEET DR, CLINTON, MD, 20735","Match","Non_Exact","6303 SUMMERSWEET DR, CLINTON, MD, 20735",634547284,"L"
778983,"6303 SW 33RD PL","PORTLAND","OR",97239,45.4781670830001,-122.71096228,483,"6303 SW 33RD PL, PORTLAND, OR, 97239","Match","Exact","6303 SW 33RD PL, PORTLAND, OR, 97239",157500070,"R"
778984,"6303 TIMBERGROVE GARDENS LANE","HOUSTON","TX",77008,NA,NA,484,"6303 TIMBERGROVE GARDENS LANE, HOUSTON, TX, 77008","No_Match",NA,NA,NA,NA
778985,"6303 VENANGO DR","LOUISVILLE","KY",40258,38.1456260900001,-85.8689251389999,485,"6303 VENANGO DR, LOUISVILLE, KY, 40258","Match","Exact","6303 VENANGO DR, LOUISVILLE, KY, 40258",96837519,"R"
778986,"6303 VENANGO DR","PLEASURE RIDGE PARK","KY",40258,38.1456260900001,-85.8689251389999,486,"6303 VENANGO DR, PLEASURE RIDGE PARK, KY, 40258","Match","Exact","6303 VENANGO DR, PLEASURE RIDGE PARK, KY, 40258",96837519,"R"
778987,"6303 VIRGINIA FIELDS DR","KATY","TX",77494,29.7014515430001,-95.8345178819999,487,"6303 VIRGINIA FIELDS DR, KATY, TX, 77494","Match","Exact","6303 VIRGINIA FIELDS DR, KATY, TX, 77494",627525194,"R"
778988,"6303 W 91ST TERR","OVERLAND PARK","KS",66212,38.9629850750001,-94.658391778,488,"6303 W 91ST TERR, OVERLAND PARK, KS, 66212","Match","Exact","6303 W 91ST TER, OVERLAND PARK, KS, 66212",91306565,"R"
778989,"6303 W IRONWOOD DR","GLENDALE","AZ",85302,33.575983906,-112.195227692,489,"6303 W IRONWOOD DR, GLENDALE, AZ, 85302","Match","Exact","6303 W IRONWOOD DR, GLENDALE, AZ, 85302",128261826,"L"
778990,"6303 W SHADY SHORES RD APT 818","DENTON","TX",76208,33.1632211300001,-97.068140458,490,"6303 W SHADY SHORES RD APT 818, DENTON, TX, 76208","Match","Non_Exact","6303 W SHADY SHORES RD, DENTON, TX, 76208",640381438,"R"
778991,"6303 YORK RD","SPRING GROVE","PA",17362,39.8411099750001,-76.9044456569999,491,"6303 YORK RD, SPRING GROVE, PA, 17362","Match","Exact","6303 YORK RD, SPRING GROVE, PA, 17362",637566443,"L"
778992,"6303","MIAMI","FL",33155,NA,NA,492,"6303, MIAMI, FL, 33155","No_Match",NA,NA,NA,NA
778993,"63036 JIG RD","MONTROSE","CO",81401,38.525121513,-107.911800887,493,"63036 JIG RD, MONTROSE, CO, 81401","Match","Exact","63036 JIG RD, MONTROSE, CO, 81401",612976793,"R"
778994,"6304 1/2 DE PRIEST ST","HOUSTON","TX",77091,29.8568210650001,-95.4180569919999,494,"6304 1/2 DE PRIEST ST, HOUSTON, TX, 77091","Match","Exact","6304 DE PRIEST ST, HOUSTON, TX, 77091",96053180,"R"
778995,"6304 252 ST","LITTLE NECK","NY",11362,NA,NA,495,"6304 252 ST, LITTLE NECK, NY, 11362","No_Match",NA,NA,NA,NA
778996,"6304 31 PLACE NW","WASHINGTON","DC",20015,38.9729791390001,-77.061309835,496,"6304 31 PLACE NW, WASHINGTON, DC, 20015","Match","Exact","6304 31ST PL NW, WASHINGTON, DC, 20015",76219363,"L"
778997,"6304 85TH PLACE","NEW CARROLLTON","MD",20784,38.9732689950001,-76.8729253,497,"6304 85TH PLACE, NEW CARROLLTON, MD, 20784","Match","Exact","6304 85TH PL, NEW CARROLLTON, MD, 20784",76308378,"L"
778998,"6304 ARIZONIA DR","DENVER","CO",80204,NA,NA,498,"6304 ARIZONIA DR, DENVER, CO, 80204","No_Match",NA,NA,NA,NA
778999,"6304 BARRIE ROAD APT 1A","EDINA","MN",55435,44.8887647560001,-93.323326451,499,"6304 BARRIE ROAD APT 1A, EDINA, MN, 55435","Match","Exact","6304 BARRIE RD, EDINA, MN, 55435",43835392,"R"
779000,"6304 BENTWOOD DRIVE","OKLAHOMA CITY","OK",73169,35.4043743400001,-97.665938758,500,"6304 BENTWOOD DRIVE, OKLAHOMA CITY, OK, 73169","Match","Non_Exact","6304 BENT WOOD DR, OKLAHOMA CITY, OK, 73169",646835692,"L"
