"ID","Address","City","State","Zip","lat","long","id","input_address","match_indicator","match_type","matched_address","tiger_line_id","tiger_side"
928501,"918 8TH AVE NE","ABERDEEN","SD",57401,45.47371249,-98.474262902,1,"918 8TH AVE NE, ABERDEEN, SD, 57401","Match","Exact","918 8TH AVE NE, ABERDEEN, SD, 57401",200795181,"R"
928502,"918 9TH AVE NE","ROCHESTER","MN",55906,44.033284779,-92.4512696689999,2,"918 9TH AVE NE, ROCHESTER, MN, 55906","Match","Exact","918 9TH AVE NE, ROCHESTER, MN, 55906",30551783,"R"
928503,"918 9TH ST NW APT A","PUYALLUP","WA",98371,47.199288445,-122.305585568,3,"918 9TH ST NW APT A, PUYALLUP, WA, 98371","Match","Exact","918 9TH ST NW, PUYALLUP, WA, 98371",184634395,"L"
928504,"918 9TH ST NW UNIT A","PUYALLUP","WA",98371,47.199288445,-122.305585568,4,"918 9TH ST NW UNIT A, PUYALLUP, WA, 98371","Match","Exact","918 9TH ST NW, PUYALLUP, WA, 98371",184634395,"L"
928505,"918 ALAMEDA ST","VALLEJO","CA",94590,38.105485243,-122.248206301,5,"918 ALAMEDA ST, VALLEJO, CA, 94590","Match","Exact","918 ALAMEDA ST, VALLEJO, CA, 94590",192569538,"R"
928506,"918 ALKIRE LAKE DR","SUGARLAND","TX",77478,29.6112559600001,-95.610539118,6,"918 ALKIRE LAKE DR, SUGARLAND, TX, 77478","Match","Non_Exact","918 ALKIRE LAKE DR, SUGAR LAND, TX, 77478",647985140,"R"
928507,"918 ALLEN SPRING LN","JENISON","MI",48428,42.914754804,-85.804220844,7,"918 ALLEN SPRING LN, JENISON, MI, 48428","Match","Non_Exact","918 ALLEN SPRINGS LN, JENISON, MI, 49428",624817158,"L"
928508,"918 ALLENDALE STREET","BALTIMORE","MD",21229,39.2981646920001,-76.678631313,8,"918 ALLENDALE STREET, BALTIMORE, MD, 21229","Match","Exact","918 ALLENDALE ST, BALTIMORE, MD, 21229",206413319,"L"
928509,"918 ANTARES RD","HELENA","MT",59602,46.7275906830001,-112.02718439,9,"918 ANTARES RD, HELENA, MT, 59602","Match","Exact","918 ANTARES RD, HELENA, MT, 59602",634739491,"L"
928510,"918 ARBUTUS COURT","GOLDEN","CO",80401,39.7311465240001,-105.148799477,10,"918 ARBUTUS COURT, GOLDEN, CO, 80401","Match","Exact","918 ARBUTUS CT, GOLDEN, CO, 80401",623926886,"L"
928511,"918 AUGUSTA ST","SAULT STE MARIE","MI",49783,46.4900828290001,-84.3470792969999,11,"918 AUGUSTA ST, SAULT STE MARIE, MI, 49783","Match","Non_Exact","918 AUGUSTA ST, SAULT SAINTE MARIE, MI, 49783",130549102,"L"
928512,"918 AVE M","BROOKLYN","NY",11230,40.6173993250001,-73.965518263,12,"918 AVE M, BROOKLYN, NY, 11230","Match","Exact","918 AVE M, BROOKLYN, NY, 11230",59089641,"R"
928513,"918 AVENUE M","BROOKLYN","NY",11230,40.6173993250001,-73.965518263,13,"918 AVENUE M, BROOKLYN, NY, 11230","Match","Exact","918 AVE M, BROOKLYN, NY, 11230",59089641,"R"
928514,"918 AZURINE CIRCLE","FORT MILL","SC",29708,35.0595447000001,-80.987767139,14,"918 AZURINE CIRCLE, FORT MILL, SC, 29708","Match","Exact","918 AZURINE CIR, FORT MILL, SC, 29708",19835577,"R"
928515,"918 BIG BETHEL ROAD","HAMPTON","VA",23666,37.043749544,-76.428121474,15,"918 BIG BETHEL ROAD, HAMPTON, VA, 23666","Match","Exact","918 BIG BETHEL RD, HAMPTON, VA, 23666",103804307,"R"
928516,"918 BING LANE","CHARLOTTESVILLE","VA",22903,38.020266855,-78.507521083,16,"918 BING LANE, CHARLOTTESVILLE, VA, 22903","Match","Exact","918 BING LN, CHARLOTTESVILLE, VA, 22903",624387327,"R"
928517,"918 BLOOMINGTON","CORPUS CHRISTI","TX",78414,NA,NA,17,"918 BLOOMINGTON, CORPUS CHRISTI, TX, 78414","No_Match",NA,NA,NA,NA
928518,"918 BLUE QUAIL RUN","GLENN HEIGHTS","TX",75154,32.564587703,-96.832281375,18,"918 BLUE QUAIL RUN, GLENN HEIGHTS, TX, 75154","Match","Exact","918 BLUE QUAIL RUN, GLENN HEIGHTS, TX, 75154",103278116,"R"
928519,"918 BOAR CIRCLE","FREMONT","CA",94539,37.509698916,-121.912149941,19,"918 BOAR CIRCLE, FREMONT, CA, 94539","Match","Exact","918 BOAR CIR, FREMONT, CA, 94539",617583439,"L"
928520,"918 BRANNIGAN VILLAGE DR","WINSTON-SALEM","NC",27127,36.015836762,-80.265550397,20,"918 BRANNIGAN VILLAGE DR, WINSTON-SALEM, NC, 27127","Match","Exact","918 BRANNIGAN VILLAGE DR, WINSTON SALEM, NC, 27127",635546809,"L"
928521,"918 BRENNAN CT","SOUTH PLAINFIELD","NJ",7080,40.570248135,-74.425607149,21,"918 BRENNAN CT, SOUTH PLAINFIELD, NJ, 7080","Match","Exact","918 BRENNAN CT, S PLAINFIELD, NJ, 07080",635298285,"L"
928522,"918 BRENTON LEAF DRIVE","RUSKIN","FL",33570,27.7247224700001,-82.4202548109999,22,"918 BRENTON LEAF DRIVE, RUSKIN, FL, 33570","Match","Exact","918 BRENTON LEAF DR, RUSKIN, FL, 33570",630040617,"R"
928523,"918 BRIDGE STREET NORTHWEST","WINSTON-SALEM","NC",27101,36.1038346010001,-80.259708809,23,"918 BRIDGE STREET NORTHWEST, WINSTON-SALEM, NC, 27101","Match","Exact","918 BRIDGE ST NW, WINSTON SALEM, NC, 27101",636640577,"L"
928524,"918 BUSH ST","CALEDONIA","MN",55921,43.626273462,-91.487617018,24,"918 BUSH ST, CALEDONIA, MN, 55921","Match","Exact","918 BUSH ST, CALEDONIA, MN, 55921",55803994,"R"
928525,"918 BUTTERFLY GARDEN TRAIL","RICHMOND","TX",77046,29.6416600530001,-95.721059213,25,"918 BUTTERFLY GARDEN TRAIL, RICHMOND, TX, 77046","Match","Non_Exact","918 BUTTERFLY GARDEN TRL, RICHMOND, TX, 77406",648704907,"R"
928526,"918 CARDINAL DR","LEBANON","OH",45036,39.4513605550001,-84.209691161,26,"918 CARDINAL DR, LEBANON, OH, 45036","Match","Exact","918 CARDINAL DR, LEBANON, OH, 45036",159013544,"R"
928527,"918 CASSEQUE PROVINCE","MOUNT PLEASANT","SC",29464,32.840930127,-79.8295392369999,27,"918 CASSEQUE PROVINCE, MOUNT PLEASANT, SC, 29464","Match","Exact","918 CASSEQUE PROVINCE, MOUNT PLEASANT, SC, 29464",635601979,"L"
928528,"918 CASSIQUE PROVENCE","MT. PLEASANT","SC",29464,32.840930127,-79.8295392369999,28,"918 CASSIQUE PROVENCE, MT. PLEASANT, SC, 29464","Match","Non_Exact","918 CASSEQUE PROVINCE, MOUNT PLEASANT, SC, 29464",635601979,"L"
928529,"918 CATLIN COURT","KENT","OH",44240,41.161178125,-81.383109814,29,"918 CATLIN COURT, KENT, OH, 44240","Match","Exact","918 CATLIN CT, KENT, OH, 44240",137526348,"L"
928530,"918 CEDAR STREET","EAST SPENCER","NC",28039,35.6779733700001,-80.446218314,30,"918 CEDAR STREET, EAST SPENCER, NC, 28039","Match","Non_Exact","918 CEDAR ST, EAST SPENCER, NC, 28144",25269708,"R"
928531,"918 CENTER STREET","MIDDLEBORO","MA",2346,41.895150748,-70.925185755,31,"918 CENTER STREET, MIDDLEBORO, MA, 2346","Match","Exact","918 CENTRE ST, MIDDLEBORO, MA, 02346",642484017,"R"
928532,"918 CHARLOTTE ROAD","PLAINFIELD","NJ",7060,40.6191026060001,-74.398238694,32,"918 CHARLOTTE ROAD, PLAINFIELD, NJ, 7060","Match","Exact","918 CHARLOTTE RD, PLAINFIELD, NJ, 07060",60560789,"R"
928533,"918 CHEHALEM ST","NEWBERG","OR",97132,45.2926281680001,-122.967552429,33,"918 CHEHALEM ST, NEWBERG, OR, 97132","Match","Non_Exact","918 S CHEHALEM ST, NEWBERG, OR, 97132",156499877,"R"
928534,"918 CLARANCE","BRONX","NY",10465,NA,NA,34,"918 CLARANCE, BRONX, NY, 10465","No_Match",NA,NA,NA,NA
928535,"918 CLAUSSEN","GRAND ISLAND","NE",68801,40.9143157500001,-98.3332771189999,35,"918 CLAUSSEN, GRAND ISLAND, NE, 68801","Match","Non_Exact","918 CLAUSSEN AVE, GRAND ISLAND, NE, 68801",196251557,"L"
928536,"918 CLAY STREET APT 208","OAKLAND","CA",94607,37.8019917680001,-122.275681905,36,"918 CLAY STREET APT 208, OAKLAND, CA, 94607","Match","Exact","918 CLAY ST, OAKLAND, CA, 94607",124997089,"R"
928537,"918 CLINTON ROAD","LOS ALTOS","CA",94024,37.3585176980001,-122.088877089,37,"918 CLINTON ROAD, LOS ALTOS, CA, 94024","Match","Exact","918 CLINTON RD, LOS ALTOS, CA, 94024",122934877,"R"
928538,"918 CO RT 82","TROUPSBURG","NY",14885,42.0438122990001,-77.542286008,38,"918 CO RT 82, TROUPSBURG, NY, 14885","Match","Exact","918 CO RTE 82, TROUPSBURG, NY, 14885",14720305,"R"
928539,"918 COLLEG LANE","ALLENTOWN","PA",18103,NA,NA,39,"918 COLLEG LANE, ALLENTOWN, PA, 18103","No_Match",NA,NA,NA,NA
928540,"918 COLUMBUS STREET","EL GRANADA","CA",94018,37.507379885,-122.468732449,40,"918 COLUMBUS STREET, EL GRANADA, CA, 94018","Match","Exact","918 COLUMBUS ST, EL GRANADA, CA, 94018",192387099,"L"
928541,"918 CONGRESS AVE STE 100","AUSTIN","TX",78701,30.27107821,-97.741687204,41,"918 CONGRESS AVE STE 100, AUSTIN, TX, 78701","Match","Exact","918 CONGRESS AVE, AUSTIN, TX, 78701",63943447,"L"
928542,"918 CONGRESS SUITE 100","AUSTIN","TX",78701,30.27107821,-97.741687204,42,"918 CONGRESS SUITE 100, AUSTIN, TX, 78701","Match","Non_Exact","918 CONGRESS AVE, AUSTIN, TX, 78701",63943447,"L"
928543,"918 COUNTY RD","MONTPELIER","VT",70117,44.282454882,-72.547959286,43,"918 COUNTY RD, MONTPELIER, VT, 70117","Match","Non_Exact","918 COUNTY RD, MONTPELIER, VT, 05602",136690230,"R"
928544,"918 CRESTFIELD AVENUE","LIBERTYVILLE","IL",60048,42.2741551710001,-87.967901188,44,"918 CRESTFIELD AVENUE, LIBERTYVILLE, IL, 60048","Match","Exact","918 CRESTFIELD AVE, LIBERTYVILLE, IL, 60048",119638846,"L"
928545,"918 CRESTVIEW ROAD","EASLEY","SC",29642,34.809945521,-82.562901696,45,"918 CRESTVIEW ROAD, EASLEY, SC, 29642","Match","Exact","918 CRESTVIEW RD, EASLEY, SC, 29642",636621037,"R"
928546,"918 D ST","DAVIS","CA",95616,38.552471881,-121.744178228,46,"918 D ST, DAVIS, CA, 95616","Match","Exact","918 D ST, DAVIS, CA, 95616",67691455,"R"
928547,"918 DACIAN AVENUE","DURHAM","NC",27701,36.0076816210001,-78.9062435549999,47,"918 DACIAN AVENUE, DURHAM, NC, 27701","Match","Exact","918 DACIAN AVE, DURHAM, NC, 27701",71739372,"R"
928548,"918 DALEY ST","EDMONDS","WA",98020,47.8137293550001,-122.366172449,48,"918 DALEY ST, EDMONDS, WA, 98020","Match","Exact","918 DALEY ST, EDMONDS, WA, 98020",635212538,"R"
928549,"918 DEER CT","ABINGDON","MD",21009,39.4805419950001,-76.274760675,49,"918 DEER CT, ABINGDON, MD, 21009","Match","Exact","918 DEER CT, ABINGDON, MD, 21009",191654496,"R"
928550,"918 DELAND AVENUE","CHERRY HILL","NJ",8034,39.916881457,-74.997134154,50,"918 DELAND AVENUE, CHERRY HILL, NJ, 8034","Match","Exact","918 DELAND AVE, CHERRY HILL, NJ, 08034",134419201,"L"
928551,"918 DENSTON RD","WEST DEPTFORD","NJ",8086,NA,NA,51,"918 DENSTON RD, WEST DEPTFORD, NJ, 8086","No_Match",NA,NA,NA,NA
928552,"918 DIEDRICH DRIVE","FLATWOODS","KY",41139,38.523347335,-82.715836038,52,"918 DIEDRICH DRIVE, FLATWOODS, KY, 41139","Match","Exact","918 DIEDRICH DR, FLATWOODS, KY, 41139",639998630,"L"
928553,"918 DIVISION ST","GREEN BAY","WI",54303,44.5237020220001,-88.029436757,53,"918 DIVISION ST, GREEN BAY, WI, 54303","Match","Exact","918 DIVISION ST, GREEN BAY, WI, 54303",148100024,"R"
928554,"918 DONNELLY PLACE","MCHENRY","IL",60050,42.3162284910001,-88.268352657,54,"918 DONNELLY PLACE, MCHENRY, IL, 60050","Match","Exact","918 DONNELLY PL, MCHENRY, IL, 60050",119845616,"L"
928555,"918 E 108TH STREET","BROOKLYN","NY",11236,40.6485207000001,-73.892124987,55,"918 E 108TH STREET, BROOKLYN, NY, 11236","Match","Exact","918 E 108TH ST, BROOKLYN, NY, 11236",59086968,"R"
928556,"918 E 1450 ROAD","LAWRENCE","KS",66046,38.870847134,-95.233542825,56,"918 E 1450 ROAD, LAWRENCE, KS, 66046","Match","Exact","918 E 1450 RD, LAWRENCE, KS, 66046",17689041,"R"
928557,"918 E 170TH ST","SOUTH HOLLAND","IL",60473,41.5863377760001,-87.594684104,57,"918 E 170TH ST, SOUTH HOLLAND, IL, 60473","Match","Exact","918 E 170TH ST, SOUTH HOLLAND, IL, 60473",111780706,"L"
928558,"918 E 40TH AVE APT 1A","GRIFFITH","IN",46319,NA,NA,58,"918 E 40TH AVE APT 1A, GRIFFITH, IN, 46319","Tie",NA,NA,NA,NA
928559,"918 E 8TH STREET","PORT ANGELES","WA",98362,48.1067654780001,-123.42396394,59,"918 E 8TH STREET, PORT ANGELES, WA, 98362","Match","Exact","918 E 8TH ST, PORT ANGELES, WA, 98362",150849109,"L"
928560,"918 E CALHOUN ST","SPRINGFIELD","MO",65802,37.2220854660001,-93.280509831,60,"918 E CALHOUN ST, SPRINGFIELD, MO, 65802","Match","Exact","918 E CALHOUN ST, SPRINGFIELD, MO, 65802",647737093,"R"
928561,"918 E CALHOUN","SPRINGFIELD","MO",65801,NA,NA,61,"918 E CALHOUN, SPRINGFIELD, MO, 65801","No_Match",NA,NA,NA,NA
928562,"918 E CALHOUN","SPRINGFIELD","MO",65802,NA,NA,62,"918 E CALHOUN, SPRINGFIELD, MO, 65802","No_Match",NA,NA,NA,NA
928563,"918 E CAMPANELLA DRIVE","COLUMBIA","SC",29229,NA,NA,63,"918 E CAMPANELLA DRIVE, COLUMBIA, SC, 29229","No_Match",NA,NA,NA,NA
928564,"918 E CARPENTER ST","IOLA","KS",66749,37.929395609,-95.393444038,64,"918 E CARPENTER ST, IOLA, KS, 66749","Match","Exact","918 E CARPENTER ST, IOLA, KS, 66749",27439249,"R"
928565,"918 E CLEMENTS BRIDGE RD","RUNNE MEDE","NJ",8078,39.8569302540001,-75.0622405459999,65,"918 E CLEMENTS BRIDGE RD, RUNNE MEDE, NJ, 8078","Match","Non_Exact","918 E CLEMENTS BRIDGE RD, RUNNEMEDE, NJ, 08078",642757082,"R"
928566,"918 E CLEMENTS BRIDGE ROAD N20","RUNNEMEDE","NJ",8078,39.8569305410001,-75.062240157,66,"918 E CLEMENTS BRIDGE ROAD N20, RUNNEMEDE, NJ, 8078","Match","Non_Exact","918 E CLEMENTS BRIDGE RD, RUNNEMEDE, NJ, 08078",642757082,"R"
928567,"918 E DENWALL DR","CARSON","CA",90746,33.8474400150001,-118.258083156,67,"918 E DENWALL DR, CARSON, CA, 90746","Match","Exact","918 E DENWALL DR, CARSON, CA, 90746",141680629,"R"
928568,"918 E EDWARD ST","GREENSBURG","IN",47240,39.342945033,-85.472300978,68,"918 E EDWARD ST, GREENSBURG, IN, 47240","Match","Non_Exact","918 E EDWARD DR, GREENSBURG, IN, 47240",31187610,"L"
928569,"918 E ESCUDA DR","PHOENIX","AZ",85024,33.668120206,-112.060990029,69,"918 E ESCUDA DR, PHOENIX, AZ, 85024","Match","Exact","918 E ESCUDA DR, PHOENIX, AZ, 85024",128182127,"L"
928570,"918 E PRAIRIE FIELD LN","SAHUARITA","AZ",85629,31.877834168,-110.966378898,70,"918 E PRAIRIE FIELD LN, SAHUARITA, AZ, 85629","Match","Exact","918 E PRAIRIE FIELD LN, SAHUARITA, AZ, 85629",637778001,"L"
928571,"918 E SAINT CLAIR STREET","TAMPA","FL",33605,NA,NA,71,"918 E SAINT CLAIR STREET, TAMPA, FL, 33605","Tie",NA,NA,NA,NA
928572,"918 EAGLE POINT DRIVE","MATTESON","IL",60443,41.5091339850001,-87.7678969949999,72,"918 EAGLE POINT DRIVE, MATTESON, IL, 60443","Match","Exact","918 EAGLE POINT DR, MATTESON, IL, 60443",637498243,"R"
928573,"918 EAST 100 SOUTH","SALT LAKE CITY","UT",84102,40.76717806,-111.864618807,73,"918 EAST 100 SOUTH, SALT LAKE CITY, UT, 84102","Match","Exact","918 E 100 S, SALT LAKE CITY, UT, 84102",176068099,"R"
928574,"918 EAST 14TH STREET","BROOKLYN","NY",11230,40.626909964,-73.962670927,74,"918 EAST 14TH STREET, BROOKLYN, NY, 11230","Match","Exact","918 E 14TH ST, BROOKLYN, NY, 11230",59081233,"R"
928575,"918 EAST AVENUE","HOLDREGE","NE",68949,40.443278192,-99.369851855,75,"918 EAST AVENUE, HOLDREGE, NE, 68949","Match","Exact","918 EAST AVE, HOLDREGE, NE, 68949",137756980,"R"
928576,"918 EAST DANWALL DRIVE","CARSON","CA",90746,NA,NA,76,"918 EAST DANWALL DRIVE, CARSON, CA, 90746","No_Match",NA,NA,NA,NA
928577,"918 EAST DELAWARE AVENUE","REDLANDS","CA",92374,34.0715907690001,-117.170862466,77,"918 EAST DELAWARE AVENUE, REDLANDS, CA, 92374","Match","Exact","918 E DELAWARE AVE, REDLANDS, CA, 92374",144664615,"R"
928578,"918 EAST FIRST STREET","PANA","IL",62557,39.388460163,-89.0680109689999,78,"918 EAST FIRST STREET, PANA, IL, 62557","Match","Non_Exact","918 1ST ST, PANA, IL, 62557",99322030,"R"
928579,"918 EAST GREEN STREET D101","FRANKLINTON","NC",27525,36.103604637,-78.440360358,79,"918 EAST GREEN STREET D101, FRANKLINTON, NC, 27525","Match","Exact","918 E GREEN ST, FRANKLINTON, NC, 27525",90226816,"L"
928580,"918 EDGEWOOD AVENUE","FOLSOM","PA",19033,39.895070649,-75.3326065859999,80,"918 EDGEWOOD AVENUE, FOLSOM, PA, 19033","Match","Exact","918 EDGEWOOD AVE, FOLSOM, PA, 19033",134880239,"R"
928581,"918 ELDEN STREET","HERNDON","VA",20170,38.9692457900001,-77.393556334,81,"918 ELDEN STREET, HERNDON, VA, 20170","Match","Exact","918 ELDEN ST, HERNDON, VA, 20170",75956529,"R"
928582,"918 FILLY LN","TEMPLE","TX",76504,31.099852196,-97.388843821,82,"918 FILLY LN, TEMPLE, TX, 76504","Match","Exact","918 FILLY LN, TEMPLE, TX, 76504",146227808,"R"
928583,"918 GEORGE ALLEN DRIVE","SOUTH VIENNA","OH",45369,39.9379391080001,-83.5960062839999,83,"918 GEORGE ALLEN DRIVE, SOUTH VIENNA, OH, 45369","Match","Exact","918 GEORGE ALLEN DR, SOUTH VIENNA, OH, 45369",629968216,"L"
928584,"918 GLENDALE ROAD","MARIETTA","OH",45750,39.426775375,-81.441185499,84,"918 GLENDALE ROAD, MARIETTA, OH, 45750","Match","Exact","918 GLENDALE RD, MARIETTA, OH, 45750",45698764,"R"
928585,"918 GOLDSBORO AVENUE","STATESVILLE","NC",28677,35.7648162310001,-80.8945374589999,85,"918 GOLDSBORO AVENUE, STATESVILLE, NC, 28677","Match","Exact","918 GOLDSBORO AVE, STATESVILLE, NC, 28677",46038242,"R"
928586,"918 GREENWOOD DR","GREENSBORO","NC",27410,36.092402814,-79.846918623,86,"918 GREENWOOD DR, GREENSBORO, NC, 27410","Match","Exact","918 GREENWOOD DR, GREENSBORO, NC, 27410",131104643,"R"
928587,"918 GROUSE RD","GLENN HEIGHTS","TX",75154,32.565333266,-96.8347348629999,87,"918 GROUSE RD, GLENN HEIGHTS, TX, 75154","Match","Exact","918 GROUSE RD, GLENN HEIGHTS, TX, 75154",103278109,"R"
928588,"918 HAMPTON AVENUE","BROOKLYN","NY",11235,40.580113925,-73.9456035119999,88,"918 HAMPTON AVENUE, BROOKLYN, NY, 11235","Match","Exact","918 HAMPTON AVE, BROOKLYN, NY, 11235",59091934,"R"
928589,"918 HARLAN CIRCLE","SAN DIEGO","CA",92114,32.715727261,-117.036522361,89,"918 HARLAN CIRCLE, SAN DIEGO, CA, 92114","Match","Exact","918 HARLAN CIR, SAN DIEGO, CA, 92114",195360930,"L"
928590,"918 HEARTLAND PARK LANE","ANTIOCH","IL",60002,42.4553651570001,-88.048890528,90,"918 HEARTLAND PARK LANE, ANTIOCH, IL, 60002","Match","Exact","918 HEARTLAND PARK LN, ANTIOCH, IL, 60002",640089256,"R"
928591,"918 HERON CIRCLE","SEAL BEACH","CA",90740,33.750781019,-118.089694897,91,"918 HERON CIRCLE, SEAL BEACH, CA, 90740","Match","Exact","918 HERON CIR, SEAL BEACH, CA, 90740",624053339,"R"
928592,"918 HINMAN AVE UNIT B","EVANSTON","IL",60202,42.0343411870001,-87.677772206,92,"918 HINMAN AVE UNIT B, EVANSTON, IL, 60202","Match","Exact","918 HINMAN AVE, EVANSTON, IL, 60202",111743824,"L"
928593,"918 HUMPHREY BLVD","DELTONA","FL",32738,28.8892953000001,-81.1816563739999,93,"918 HUMPHREY BLVD, DELTONA, FL, 32738","Match","Exact","918 HUMPHREY BLVD, DELTONA, FL, 32738",94503436,"L"
928594,"918 ILWACO PLACE NE","RENTON","WA",98059,47.4977873980001,-122.149293549,94,"918 ILWACO PLACE NE, RENTON, WA, 98059","Match","Exact","918 ILWACO PL NE, RENTON, WA, 98059",627189627,"L"
928595,"918 JEFFERSON DRIVE","PALMYRA","VA",22963,37.9192795980001,-78.307491773,95,"918 JEFFERSON DRIVE, PALMYRA, VA, 22963","Match","Non_Exact","918 JEFFERSON DR E, PALMYRA, VA, 22963",73778915,"L"
928596,"918 JOE FRANK HARIS PKWY -200191","CARTERSVILLE","GA",30120,34.199420688,-84.794416294,96,"918 JOE FRANK HARIS PKWY -200191, CARTERSVILLE, GA, 30120","Match","Non_Exact","918 JOE FRANK HARRIS PKWY, CARTERSVILLE, GA, 30121",612536459,"R"
928597,"918 JORDACHE DRIVE","LOVELAND","CO",80538,40.439776189,-105.089223348,97,"918 JORDACHE DRIVE, LOVELAND, CO, 80538","Match","Exact","918 JORDACHE DR, LOVELAND, CO, 80538",636176819,"R"
928598,"918 JULIE LN","LAKELAND","FL",33813,27.975495521,-81.9496678949999,98,"918 JULIE LN, LAKELAND, FL, 33813","Match","Exact","918 JULIE LN, LAKELAND, FL, 33813",104812751,"L"
928599,"918 JUSTIN TERRACE","SAN ANTONIO","TX",78251,29.443063957,-98.676786121,99,"918 JUSTIN TERRACE, SAN ANTONIO, TX, 78251","Match","Exact","918 JUSTIN TER, SAN ANTONIO, TX, 78251",619937983,"L"
928600,"918 KENBROOK COURT","SILVER SPRING","MD",20902,39.0389406840001,-77.0257910779999,100,"918 KENBROOK COURT, SILVER SPRING, MD, 20902","Match","Exact","918 KENBROOK CT, SILVER SPRING, MD, 20902",62064749,"R"
928601,"918 KENSINGTON DRIVE","CENTERTON","AR",72719,36.359387376,-94.269732569,101,"918 KENSINGTON DRIVE, CENTERTON, AR, 72719","Match","Exact","918 KENSINGTON DR, CENTERTON, AR, 72719",47885530,"L"
928602,"918 LAKE AVE","SPRING LAKE HEIGHTS","NJ",7762,40.1462417060001,-74.0460169309999,102,"918 LAKE AVE, SPRING LAKE HEIGHTS, NJ, 7762","Match","Non_Exact","918 LAKE AVE, SPRING LAKE, NJ, 07762",90459157,"R"
928603,"918 LAKECREST AVE APT H","HIGH POINT","NC",27265,36.000266294,-80.008332121,103,"918 LAKECREST AVE APT H, HIGH POINT, NC, 27265","Match","Exact","918 LAKECREST AVE, HIGH POINT, NC, 27265",131038485,"R"
928604,"918 LAMONTE LN","HOUSTON","TX",77018,29.8270599350001,-95.420795158,104,"918 LAMONTE LN, HOUSTON, TX, 77018","Match","Exact","918 LAMONTE LN, HOUSTON, TX, 77018",96054224,"R"
928605,"918 LANETT AVENUE","FAR ROCKAWAY","NY",11691,40.5988339630001,-73.7450878349999,105,"918 LANETT AVENUE, FAR ROCKAWAY, NY, 11691","Match","Exact","918 LANETT AVE, FAR ROCKAWAY, NY, 11691",59723846,"R"
928606,"918 LOGGERS","ROCHESTER","MI",48307,42.6923679860001,-83.101303784,106,"918 LOGGERS, ROCHESTER, MI, 48307","Match","Non_Exact","918 LOGGERS CIR, ROCHESTER, MI, 48307",69792856,"L"
928607,"918 LORENE DR","WYLIE","TX",75098,33.001293074,-96.5269718549999,107,"918 LORENE DR, WYLIE, TX, 75098","Match","Exact","918 LORENE DR, WYLIE, TX, 75098",625264937,"L"
928608,"918 MAGNOLIA CIRCLE","JONESBORO","GA",30236,33.5365180420001,-84.37200441,108,"918 MAGNOLIA CIRCLE, JONESBORO, GA, 30236","Match","Exact","918 MAGNOLIA CIR, JONESBORO, GA, 30236",23326399,"R"
928609,"918 MAGNOLIA ST","BEAUFORT","SC",29906,NA,NA,109,"918 MAGNOLIA ST, BEAUFORT, SC, 29906","No_Match",NA,NA,NA,NA
928610,"918 MAIN STREET","CLINTON","MA",1510,42.428922153,-71.687981354,110,"918 MAIN STREET, CLINTON, MA, 1510","Match","Exact","918 MAIN ST, CLINTON, MA, 01510",40035275,"R"
928611,"918 MARGARET STREET","HAPEVILLE","GA",30354,33.6626154370001,-84.41913536,111,"918 MARGARET STREET, HAPEVILLE, GA, 30354","Match","Exact","918 MARGARET ST, HAPEVILLE, GA, 30354",17349607,"L"
928612,"918 MCDANIEL AVENUE","ANNISTON","AL",36201,33.6556156340001,-85.8473221409999,112,"918 MCDANIEL AVENUE, ANNISTON, AL, 36201","Match","Exact","918 MCDANIEL AVE, ANNISTON, AL, 36201",66542305,"L"
928613,"918 MCKINNEY PARK LN","HOUSTON","TX",77003,29.7461262850001,-95.34564022,113,"918 MCKINNEY PARK LN, HOUSTON, TX, 77003","Match","Exact","918 MCKINNEY PARK LN, HOUSTON, TX, 77003",640069345,"L"
928614,"918 MEADOWBROOK DRIVE","HUNTINGDON VALLEY","PA",19006,40.1118121220001,-75.078485256,114,"918 MEADOWBROOK DRIVE, HUNTINGDON VALLEY, PA, 19006","Match","Exact","918 MEADOWBROOK DR, HUNTINGDON VALLEY, PA, 19006",135130818,"R"
928615,"918 MIDDLE VALLEY RD","HARDY","VA",24101,37.1429738470001,-79.7357023289999,115,"918 MIDDLE VALLEY RD, HARDY, VA, 24101","Match","Exact","918 MIDDLE VALLEY RD, HARDY, VA, 24101",56403190,"R"
928616,"918 MIDWAY AVE","DURHAM","NC",27703,35.966622165,-78.857505508,116,"918 MIDWAY AVE, DURHAM, NC, 27703","Match","Exact","918 MIDWAY AVE, DURHAM, NC, 27703",71773740,"R"
928617,"918 MISSION AVE","OCEANSIDE","CA",92054,33.197797834,-117.376320974,117,"918 MISSION AVE, OCEANSIDE, CA, 92054","Match","Exact","918 MISSION AVE, OCEANSIDE, CA, 92054",195280602,"L"
928618,"918 MISSION WAY","SACRAMENTO","CA",95819,38.5695944390001,-121.449632946,118,"918 MISSION WAY, SACRAMENTO, CA, 95819","Match","Exact","918 MISSION WAY, SACRAMENTO, CA, 95819",133420669,"R"
928619,"918 MONTROSE PKWY","NORCROSS","GA",30092,33.9710043440001,-84.206068525,119,"918 MONTROSE PKWY, NORCROSS, GA, 30092","Match","Exact","918 MONTROSE PKWY, NORCROSS, GA, 30092",88951609,"R"
928620,"918 MOSS DRIVE","SAN JOSE","CA",95116,37.344708327,-121.84202305,120,"918 MOSS DRIVE, SAN JOSE, CA, 95116","Match","Exact","918 MOSS DR, SAN JOSE, CA, 95116",122912581,"L"
928621,"918 MULBERRY BUSH CT","ORLANDO","FL",32828,28.5420794890001,-81.1767482019999,121,"918 MULBERRY BUSH CT, ORLANDO, FL, 32828","Match","Exact","918 MULBERRY BUSH CT, ORLANDO, FL, 32828",94397304,"R"
928622,"918 MURDOCK RD","PHILADELPHIA","PA",19144,NA,NA,122,"918 MURDOCK RD, PHILADELPHIA, PA, 19144","No_Match",NA,NA,NA,NA
928623,"918 N 17TH STREET","MANHATTAN","KS",66506,39.1876451250001,-96.583195191,123,"918 N 17TH STREET, MANHATTAN, KS, 66506","Match","Non_Exact","918 N 17TH ST, MANHATTAN, KS, 66502",647245355,"R"
928624,"918 N 23RD AVENUE","MELROSE PARK","IL",60160,41.8951242740001,-87.861595385,124,"918 N 23RD AVENUE, MELROSE PARK, IL, 60160","Match","Exact","918 23RD AVE, MELROSE PARK, IL, 60160",111727663,"L"
928625,"918 N 66TH ST","PHILA.","PA",19151,39.9772464540001,-75.252415745,125,"918 N 66TH ST, PHILA., PA, 19151","Match","Exact","918 N 66TH ST, PHILA, PA, 19151",131396970,"L"
928626,"918 N 77 SUNSHINE STRIP","HARLINGEN","TX",78550,NA,NA,126,"918 N 77 SUNSHINE STRIP, HARLINGEN, TX, 78550","No_Match",NA,NA,NA,NA
928627,"918 N BRIDGE ST","CHIPPEWA FALLS","WI",54729,44.9413302820001,-91.3983826899999,127,"918 N BRIDGE ST, CHIPPEWA FALLS, WI, 54729","Match","Exact","918 N BRIDGE ST, CHIPPEWA FALLS, WI, 54729",78924194,"L"
928628,"918 N CLEVELAND STREET","ORANGE","CA",92867,33.802597049,-117.847095081,128,"918 N CLEVELAND STREET, ORANGE, CA, 92867","Match","Exact","918 N CLEVELAND ST, ORANGE, CA, 92867",144030996,"L"
928629,"918 N MARKET ST APT 5","INGLEWOOD","CA",90302,33.974957083,-118.356546316,129,"918 N MARKET ST APT 5, INGLEWOOD, CA, 90302","Match","Non_Exact","918 N MARKET ST, INGLEWOOD, CA, 90302",141653902,"R"
928630,"918 N RENDON STREET","NEW ORLEANS","LA",70119,29.9760712400001,-90.086829236,130,"918 N RENDON STREET, NEW ORLEANS, LA, 70119","Match","Exact","918 N RENDON ST, NEW ORLEANS, LA, 70119",191709349,"R"
928631,"918 N SAN DIEGO AVE","ONTARIO","CA",91764,34.07426137,-117.611986793,131,"918 N SAN DIEGO AVE, ONTARIO, CA, 91764","Match","Exact","918 N SAN DIEGO AVE, ONTARIO, CA, 91764",144636702,"R"
928632,"918 NE 18TH STREET","GAINESVILLE","FL",32641,29.659399153,-82.30160539,132,"918 NE 18TH STREET, GAINESVILLE, FL, 32641","Match","Non_Exact","918 NE 18TH ST, GAINESVILLE, FL, 32641",6809618,"L"
928633,"918 NE 26TH AVENUE","FORT LAUDERDALE","FL",33304,26.136210121,-80.1107661569999,133,"918 NE 26TH AVENUE, FORT LAUDERDALE, FL, 33304","Match","Non_Exact","918 NE 26TH AVE, FORT LAUDERDALE, FL, 33304",114726256,"R"
928634,"918 NORTH 59TH AVE","PENSACOLA","FL",32506,30.421568501,-87.294024157,134,"918 NORTH 59TH AVE, PENSACOLA, FL, 32506","Match","Exact","918 N 59TH AVE, PENSACOLA, FL, 32506",93282137,"R"
928635,"918 NORTH ECHO LANE","WASHINGTON","UT",84780,37.1436445460001,-113.457115946,135,"918 NORTH ECHO LANE, WASHINGTON, UT, 84780","Match","Exact","918 N ECHO LN, WASHINGTON, UT, 84780",607579071,"R"
928636,"918 NORTH STREET","BELGIUM","WI",53004,43.5004770900001,-87.8590949919999,136,"918 NORTH STREET, BELGIUM, WI, 53004","Match","Exact","918 NORTH ST, BELGIUM, WI, 53004",95899004,"L"
928637,"918 NORTHRIDGE AVE","SPRINGFIELD","OR",97477,44.0671644930001,-123.013303361,137,"918 NORTHRIDGE AVE, SPRINGFIELD, OR, 97477","Match","Exact","918 NORTHRIDGE AVE, SPRINGFIELD, OR, 97477",178172435,"L"
928638,"918 NW MOSSEY OAK WAY","JENSEN BEACH","FL",34957,27.2509504820001,-80.2606636089999,138,"918 NW MOSSEY OAK WAY, JENSEN BEACH, FL, 34957","Match","Non_Exact","918 NW MOSSY OAK WAY, JENSEN BEACH, FL, 34957",120452975,"R"
928639,"918 NW MOSSY OAK WAY","JENSEN BEACH","FL",34957,27.2509504820001,-80.2606636089999,139,"918 NW MOSSY OAK WAY, JENSEN BEACH, FL, 34957","Match","Exact","918 NW MOSSY OAK WAY, JENSEN BEACH, FL, 34957",120452975,"R"
928640,"918 OBISPO ST","GUADALUPE","CA",93434,34.969326304,-120.569608769,140,"918 OBISPO ST, GUADALUPE, CA, 93434","Match","Exact","918 OBISPO ST, GUADALUPE, CA, 93434",108578419,"R"
928641,"918 OLD MILL ROAD","ROCKY MOUNT","NC",27803,35.942876412,-77.8363520199999,141,"918 OLD MILL ROAD, ROCKY MOUNT, NC, 27803","Match","Exact","918 OLD MILL RD, ROCKY MOUNT, NC, 27803",90383029,"L"
928642,"918 OREGON TRAIL","CINCINNATI","OH",45215,39.232383032,-84.49016692,142,"918 OREGON TRAIL, CINCINNATI, OH, 45215","Match","Exact","918 OREGON TRL, CINCINNATI, OH, 45215",103920387,"R"
928643,"918 PALM DRIVE","ORLANDO","FL",32803,28.5573788460001,-81.3556974099999,143,"918 PALM DRIVE, ORLANDO, FL, 32803","Match","Exact","918 PALM DR, ORLANDO, FL, 32803",94285052,"L"
928644,"918 PEACOCK RD","RICHMOND","IN",47374,39.832746684,-84.914808936,144,"918 PEACOCK RD, RICHMOND, IN, 47374","Match","Exact","918 PEACOCK RD, RICHMOND, IN, 47374",31324054,"L"
928645,"918 PENISTON ST","NEW ORLEANS","LA",70115,29.9216895770001,-90.094157237,145,"918 PENISTON ST, NEW ORLEANS, LA, 70115","Match","Exact","918 PENISTON ST, NEW ORLEANS, LA, 70115",191713187,"L"
928646,"918 PENN ST APT 2B","READING","PA",19602,40.3351952730001,-75.919625815,146,"918 PENN ST APT 2B, READING, PA, 19602","Match","Exact","918 PENN ST, READING, PA, 19602",80383107,"R"
928647,"918 PINECREST AVE SE","EAST GRAND RAPIDS","MI",49506,42.9462340800001,-85.615535898,147,"918 PINECREST AVE SE, EAST GRAND RAPIDS, MI, 49506","Match","Exact","918 PINECREST AVE SE, EAST GRAND RAPIDS, MI, 49506",12462650,"L"
928648,"918 POND COURT","LEBANON","OH",45036,39.4549481130001,-84.221725192,148,"918 POND COURT, LEBANON, OH, 45036","Match","Exact","918 POND CT, LEBANON, OH, 45036",159040134,"R"
928649,"918 PRAIRIE ZENNIA","BERNALILLO","NM",87004,35.3091660430001,-106.570719158,149,"918 PRAIRIE ZENNIA, BERNALILLO, NM, 87004","Match","Non_Exact","918 PRAIRIE ZINNIA DR, BERNALILLO, NM, 87004",625699603,"R"
928650,"918 PROSPECT","TOLEDO","OH",43606,41.658844215,-83.564929523,150,"918 PROSPECT, TOLEDO, OH, 43606","Match","Non_Exact","918 PROSPECT AVE, TOLEDO, OH, 43606",33938525,"R"
928651,"918 RALEY STREET","GADSDEN","AL",35903,34.001016975,-85.968062586,151,"918 RALEY STREET, GADSDEN, AL, 35903","Match","Exact","918 RALEY ST, GADSDEN, AL, 35903",66772543,"L"
928652,"918 REBA PL APT 2N","EVANSTON","IL",60202,42.0298453790001,-87.684361541,152,"918 REBA PL APT 2N, EVANSTON, IL, 60202","Match","Exact","918 REBA PL, EVANSTON, IL, 60202",616790033,"L"
928653,"918 REMSEN AVE","BROOKLYN","NY",11236,40.6459341930001,-73.9123220119999,153,"918 REMSEN AVE, BROOKLYN, NY, 11236","Match","Exact","918 REMSEN AVE, BROOKLYN, NY, 11236",59086317,"R"
928654,"918 RIDGE SQ APT 301","ELK GROVE VILLAGE","IL",60007,42.003724334,-87.989458235,154,"918 RIDGE SQ APT 301, ELK GROVE VILLAGE, IL, 60007","Match","Exact","918 RIDGE SQ, ELK GROVE VILLAGE, IL, 60007",605599946,"R"
928655,"918 RIVER RD","CANNON FALLS","MN",55009,NA,NA,155,"918 RIVER RD, CANNON FALLS, MN, 55009","No_Match",NA,NA,NA,NA
928656,"918 RIVERSTONE DR","SAN ANTONIO","TX",78258,29.643396733,-98.499562231,156,"918 RIVERSTONE DR, SAN ANTONIO, TX, 78258","Match","Exact","918 RIVERSTONE DR, SAN ANTONIO, TX, 78258",101578009,"L"
928657,"918 ROCK CANYON CR","SAN JOSE","CA",95127,37.3942542990001,-121.828051773,157,"918 ROCK CANYON CR, SAN JOSE, CA, 95127","Match","Exact","918 ROCK CANYON CIR, SAN JOSE, CA, 95127",122985808,"L"
928658,"918 ROOSEVELT AVE","AMES","IA",50010,42.0304480190001,-93.622452422,158,"918 ROOSEVELT AVE, AMES, IA, 50010","Match","Exact","918 ROOSEVELT AVE, AMES, IA, 50010",65946846,"R"
928659,"918 ROUTE 202","NESHANIC STATION","NJ",8853,40.54167605,-74.7556551819999,159,"918 ROUTE 202, NESHANIC STATION, NJ, 8853","Match","Non_Exact","918 US HWY 202, NESHANIC STA, NJ, 08853",60037939,"R"
928660,"918 S 230 W","PRINCETON","IN",47670,NA,NA,160,"918 S 230 W, PRINCETON, IN, 47670","No_Match",NA,NA,NA,NA
928661,"918 S ARDMORE AVE","LOS ANGELES","CA",90006,34.0552447790001,-118.301966458,161,"918 S ARDMORE AVE, LOS ANGELES, CA, 90006","Match","Exact","918 S ARDMORE AVE, LOS ANGELES, CA, 90006",141604036,"L"
928662,"918 S BODINE STREET","PHILA","PA",19147,39.935306548,-75.1484088839999,162,"918 S BODINE STREET, PHILA, PA, 19147","Match","Exact","918 S BODINE ST, PHILA, PA, 19147",131436942,"R"
928663,"918 S HARVARD BLVD  201","LOS ANGELES","CA",90006,34.0552581170001,-118.30414531,163,"918 S HARVARD BLVD  201, LOS ANGELES, CA, 90006","Match","Non_Exact","918 S HARVARD BLVD, LOS ANGELES, CA, 90006",141604030,"L"
928664,"918 S HORTON ST","SEATTLE","WA",98134,47.574226911,-122.32136772,164,"918 S HORTON ST, SEATTLE, WA, 98134","Match","Exact","918 S HORTON ST, SEATTLE, WA, 98134",186992816,"L"
928665,"918 S MARENGO AVE STE 2","PASADENA","CA",91106,34.13003508,-118.145791094,165,"918 S MARENGO AVE STE 2, PASADENA, CA, 91106","Match","Non_Exact","918 S MARENGO AVE, PASADENA, CA, 91106",141629731,"L"
928666,"918 S RAMONA AVE APT 1","CORONA","CA",92879,33.8719573870001,-117.565692767,166,"918 S RAMONA AVE APT 1, CORONA, CA, 92879","Match","Non_Exact","918 S RAMONA AVE, CORONA, CA, 92879",194777674,"R"
928667,"918 SAINT GEORGE STREET","ORLANDO","FL",32805,28.530320121,-81.4240691969999,167,"918 SAINT GEORGE STREET, ORLANDO, FL, 32805","Match","Exact","918 ST GEORGE ST, ORLANDO, FL, 32805",94273680,"R"
928668,"918 SAINT JOHNS AVE","GREEN COVE SPRINGS","FL",32043,30.004067246,-81.684464781,168,"918 SAINT JOHNS AVE, GREEN COVE SPRINGS, FL, 32043","Match","Exact","918 ST JOHNS AVE, GREEN COVE SPRINGS, FL, 32043",83811699,"R"
928669,"918 SE 17TH STREET","DEERFIELD BEACH","FL",33441,26.29439316,-80.089689547,169,"918 SE 17TH STREET, DEERFIELD BEACH, FL, 33441","Match","Exact","918 SE 17TH ST, DEERFIELD BEACH, FL, 33441",114743304,"R"
928670,"918 SE 1ST STREET","PENDLETON","OR",97801,45.6650377440001,-118.78163091,170,"918 SE 1ST STREET, PENDLETON, OR, 97801","Match","Exact","918 SE 1ST ST, PENDLETON, OR, 97801",170405989,"R"
928671,"918 SKYLINE VISTA","HOUSTON","TX",77019,29.759317421,-95.377431698,171,"918 SKYLINE VISTA, HOUSTON, TX, 77019","Match","Exact","918 SKYLINE VIS, HOUSTON, TX, 77019",96353757,"R"
928672,"918 SOUTH 2ND AVE","MARSHALLTOWN","IA",50158,42.037748331,-92.910299015,172,"918 SOUTH 2ND AVE, MARSHALLTOWN, IA, 50158","Match","Exact","918 S 2ND AVE, MARSHALLTOWN, IA, 50158",90921166,"R"
928673,"918 SOUTH MANOR","BLOOMINGTON","IN",47401,39.1573862450001,-86.5216894599999,173,"918 SOUTH MANOR, BLOOMINGTON, IN, 47401","Match","Non_Exact","918 S MANOR RD, BLOOMINGTON, IN, 47401",42323893,"R"
928674,"918 SOUTH WALNUT STREET","BUCYRUS","OH",44820,40.798647798,-82.974042305,174,"918 SOUTH WALNUT STREET, BUCYRUS, OH, 44820","Match","Exact","918 S WALNUT ST, BUCYRUS, OH, 44820",12073758,"R"
928675,"918 SOUTH","NORWALK","IA",50211,41.474037674,-93.677516703,175,"918 SOUTH, NORWALK, IA, 50211","Match","Non_Exact","918 SOUTH AVE, NORWALK, IA, 50211",83759975,"R"
928676,"918 SPRING KNOL","SAN ANTONIO","TX",78258,29.627256932,-98.488835807,176,"918 SPRING KNOL, SAN ANTONIO, TX, 78258","Match","Exact","918 SPRING KNOLL, SAN ANTONIO, TX, 78258",101556143,"L"
928677,"918 SPRING KNOLL","SAN ANTONIO","TX",78258,29.627256932,-98.488835807,177,"918 SPRING KNOLL, SAN ANTONIO, TX, 78258","Match","Exact","918 SPRING KNOLL, SAN ANTONIO, TX, 78258",101556143,"L"
928678,"918 SPRING PARK LOOP APT B","CELEBRATION","FL",34747,28.3126320270001,-81.555608083,178,"918 SPRING PARK LOOP APT B, CELEBRATION, FL, 34747","Match","Exact","918 SPRING PARK LOOP, CELEBRATION, FL, 34747",176694722,"R"
928679,"918 SPRING PARK LOOP","CELEBRATION","FL",34747,28.3126320270001,-81.555608083,179,"918 SPRING PARK LOOP, CELEBRATION, FL, 34747","Match","Exact","918 SPRING PARK LOOP, CELEBRATION, FL, 34747",176694722,"R"
928680,"918 SPRING RD","CLEVELAND","OH",44109,41.4344431320001,-81.685401328,180,"918 SPRING RD, CLEVELAND, OH, 44109","Match","Exact","918 SPRING RD, CLEVELAND, OH, 44109",61116780,"R"
928681,"918 STARBIT ROAD","TOWSON","MD",21286,39.4089085030001,-76.582507204,181,"918 STARBIT ROAD, TOWSON, MD, 21286","Match","Exact","918 STARBIT RD, TOWSON, MD, 21286",191475159,"L"
928682,"918 STILL SPRING RUN","INMAN","SC",29349,35.099218104,-82.0422092759999,182,"918 STILL SPRING RUN, INMAN, SC, 29349","Match","Exact","918 STILL SPRING RUN, INMAN, SC, 29349",632226966,"L"
928683,"918 SW 11TH TERRACE","DELRAY BEACH","FL",33444,26.4478547000001,-80.085079553,183,"918 SW 11TH TERRACE, DELRAY BEACH, FL, 33444","Match","Exact","918 SW 11TH TER, DELRAY BEACH, FL, 33444",115291123,"R"
928684,"918 SW 56TH TERRACE","GAINESVILLE","FL",32607,29.6436558350001,-82.401952868,184,"918 SW 56TH TERRACE, GAINESVILLE, FL, 32607","Match","Exact","918 SW 56TH TER, GAINESVILLE, FL, 32607",6822110,"R"
928685,"918 TALLY HO COURT","CHARLOTTE","NC",28212,35.167314978,-80.757976572,185,"918 TALLY HO COURT, CHARLOTTE, NC, 28212","Match","Exact","918 TALLY HO CT, CHARLOTTE, NC, 28212",70493189,"R"
928686,"918 THIRD STREET","NATCHITOCHES","LA",71457,31.7656769980001,-93.08859413,186,"918 THIRD STREET, NATCHITOCHES, LA, 71457","Match","Exact","918 3RD ST, NATCHITOCHES, LA, 71457",13349498,"L"
928687,"918 THIRD STREET","WOODLAND","CA",95695,38.6688118050001,-121.770723049,187,"918 THIRD STREET, WOODLAND, CA, 95695","Match","Exact","918 3RD ST, WOODLAND, CA, 95695",67690352,"R"
928688,"918 TWO LICK ROAD","CYNTHIANA","KY",41031,38.459029027,-84.2661861409999,188,"918 TWO LICK ROAD, CYNTHIANA, KY, 41031","Match","Exact","918 TWO LICK RD, CYNTHIANA, KY, 41031",639004212,"R"
928689,"918 VAN BUREN ST","BALDWIN","NY",11510,40.6325952650001,-73.6047088349999,189,"918 VAN BUREN ST, BALDWIN, NY, 11510","Match","Exact","918 VAN BUREN ST, BALDWIN, NY, 11510",147638041,"R"
928690,"918 VAULTED OAK","HOUSTON","TX",77008,29.7877006160001,-95.439017193,190,"918 VAULTED OAK, HOUSTON, TX, 77008","Match","Non_Exact","918 VAULTED OAK ST, HOUSTON, TX, 77008",625309241,"R"
928691,"918 W ACADEMY ST","WINSTON-SALEM","NC",27101,36.086075167,-80.2509756279999,191,"918 W ACADEMY ST, WINSTON-SALEM, NC, 27101","Match","Exact","918 W ACADEMY ST, WINSTON SALEM, NC, 27101",84610815,"L"
928692,"918 W BARNES AVE","LANSING","MI",48910,42.7149438180001,-84.564454846,192,"918 W BARNES AVE, LANSING, MI, 48910","Match","Exact","918 W BARNES AVE, LANSING, MI, 48910",17498840,"R"
928693,"918 W CANAL DRIVE B","KENNEWICK","WA",99336,46.210778487,-119.130375144,193,"918 W CANAL DRIVE B, KENNEWICK, WA, 99336","Match","Non_Exact","918 W CANAL DR, KENNEWICK, WA, 99336",174987437,"R"
928694,"918 W FALCON","SPOKANE","WA",99218,47.7591606440001,-117.424644491,194,"918 W FALCON, SPOKANE, WA, 99218","Match","Non_Exact","918 W FALCON AVE, SPOKANE, WA, 99218",189868194,"R"
928695,"918 W GARVEY AVE UNIT 108","MONTEREY PARK","CA",91754,34.062454008,-118.136000653,195,"918 W GARVEY AVE UNIT 108, MONTEREY PARK, CA, 91754","Match","Non_Exact","918 W GARVEY AVE, MONTEREY PARK, CA, 91754",141636896,"L"
928696,"918 W HUNTINGTON DR","ARCADIA","CA",91007,34.131037556,-118.06143584,196,"918 W HUNTINGTON DR, ARCADIA, CA, 91007","Match","Exact","918 W HUNTINGTON DR, ARCADIA, CA, 91007",241142912,"L"
928697,"918 W ILLINOIS","CHICAGO","IL",60620,NA,NA,197,"918 W ILLINOIS, CHICAGO, IL, 60620","No_Match",NA,NA,NA,NA
928698,"918 W SPRINGFIELD AVE","CHAMPAIGN","IL",61821,40.1126666760001,-88.259271771,198,"918 W SPRINGFIELD AVE, CHAMPAIGN, IL, 61821","Match","Exact","918 W SPRINGFIELD AVE, CHAMPAIGN, IL, 61821",8810505,"R"
928699,"918 W SPRINGFIELD","CHAMPAIGN","IL",61821,40.1126666760001,-88.259271771,199,"918 W SPRINGFIELD, CHAMPAIGN, IL, 61821","Match","Non_Exact","918 W SPRINGFIELD AVE, CHAMPAIGN, IL, 61821",8810505,"R"
928700,"918 WACADEMY ST","WINSTON-SALEM","NC",27101,NA,NA,200,"918 WACADEMY ST, WINSTON-SALEM, NC, 27101","No_Match",NA,NA,NA,NA
928701,"918 WATAUGA ST","KINGSPORT","TN",37660,36.5488401970001,-82.550748803,201,"918 WATAUGA ST, KINGSPORT, TN, 37660","Match","Exact","918 WATAUGA ST, KINGSPORT, TN, 37660",127828328,"L"
928702,"918 WATERS EDGE","TOMS RIVER","NJ",8753,39.9986455970001,-74.151578929,202,"918 WATERS EDGE, TOMS RIVER, NJ, 8753","Match","Non_Exact","918 WATERS EDGE DR, TOMS RIVER, NJ, 08753",203795735,"L"
928703,"918 WAWASET ST","WILMINGTON","DE",19806,39.7536725740001,-75.5512564909999,203,"918 WAWASET ST, WILMINGTON, DE, 19806","Match","Exact","918 WAWASET ST, WILMINGTON, DE, 19806",187257616,"L"
928704,"918 WELLS STREET","CONSHOHOCKEN","PA",19428,40.0783790450001,-75.29539866,204,"918 WELLS STREET, CONSHOHOCKEN, PA, 19428","Match","Exact","918 WELLS ST, CONSHOHOCKEN, PA, 19428",135085821,"L"
928705,"918 WELTUN CT","NEWPORT NEWS","VA",23608,37.1370672840001,-76.564121337,205,"918 WELTUN CT, NEWPORT NEWS, VA, 23608","Match","Non_Exact","918 WELDUN CT, NEWPORT NEWS, VA, 23608",625011855,"R"
928706,"918 WEST 5TH STREET","CONNERSVILLE","IN",47331,39.643035271,-85.148634632,206,"918 WEST 5TH STREET, CONNERSVILLE, IN, 47331","Match","Exact","918 W 5TH ST, CONNERSVILLE, IN, 47331",31019863,"R"
928707,"918 WEST BLVD","RACINE","WI",53405,42.722213335,-87.8162234919999,207,"918 WEST BLVD, RACINE, WI, 53405","Match","Exact","918 WEST BLVD, RACINE, WI, 53405",77909463,"R"
928708,"918 WEST FOOTHILL BLVD","AZUSA","CA",91702,34.133542462,-117.918478286,208,"918 WEST FOOTHILL BLVD, AZUSA, CA, 91702","Match","Exact","918 W FOOTHILL BLVD, AZUSA, CA, 91702",142779121,"L"
928709,"918 WEST FRIBLEY STREET","TAMPA","FL",33603,27.9746008710001,-82.4721636149999,209,"918 WEST FRIBLEY STREET, TAMPA, FL, 33603","Match","Exact","918 W FRIBLEY ST, TAMPA, FL, 33603",104521111,"L"
928710,"918 WEST GRAHAM DRIVE","BLOOMINGTON","IN",47403,39.139946052,-86.5435595339999,210,"918 WEST GRAHAM DRIVE, BLOOMINGTON, IN, 47403","Match","Exact","918 W GRAHAM DR, BLOOMINGTON, IN, 47403",42322927,"R"
928711,"918 WEST MAIN","LEESBURG","FL",34748,28.811161257,-81.8794718669999,211,"918 WEST MAIN, LEESBURG, FL, 34748","Match","Non_Exact","918 W MAIN ST, LEESBURG, FL, 34748",94096956,"R"
928712,"918 WEST SUMMIT AVENUE","FERGUS FALLS","MN",56537,46.2855776480001,-96.0911299649999,212,"918 WEST SUMMIT AVENUE, FERGUS FALLS, MN, 56537","Match","Exact","918 W SUMMIT AVE, FERGUS FALLS, MN, 56537",168288770,"R"
928713,"918 WESTMINISTER LN","DUNCANVILLE","TX",75137,32.643353045,-96.934892871,213,"918 WESTMINISTER LN, DUNCANVILLE, TX, 75137","Match","Exact","918 WESTMINISTER LN, DUNCANVILLE, TX, 75137",102989642,"L"
928714,"918 WHITBY CT","SUGAR LAND","TX",77479,29.594286562,-95.6624817699999,214,"918 WHITBY CT, SUGAR LAND, TX, 77479","Match","Exact","918 WHITBY CT, SUGAR LAND, TX, 77479",78289217,"L"
928715,"918 WILLIAMS STREET","SPARTA","WI",54656,43.951506722,-90.822774723,215,"918 WILLIAMS STREET, SPARTA, WI, 54656","Match","Exact","918 WILLIAMS ST, SPARTA, WI, 54656",51081767,"R"
928716,"918 WILLOW AVE 5R","HOBOKEN","NJ",7030,40.7482265510001,-74.0314349609999,216,"918 WILLOW AVE 5R, HOBOKEN, NJ, 7030","Match","Exact","918 WILLOW AVE, HOBOKEN, NJ, 07030",59606834,"L"
928717,"918 WOODEN BOULEVARD","ORLANDO","FL",32805,28.5301658930001,-81.4212302879999,217,"918 WOODEN BOULEVARD, ORLANDO, FL, 32805","Match","Exact","918 WOODEN BLVD, ORLANDO, FL, 32805",94273708,"R"
928718,"918 WYNNEWOOD ROAD","PHILADELPHIA","PA",19151,39.9785798300001,-75.247526835,218,"918 WYNNEWOOD ROAD, PHILADELPHIA, PA, 19151","Match","Exact","918 WYNNEWOOD RD, PHILADELPHIA, PA, 19151",131397155,"L"
928719,"9180 BONES ROAD","TABERG","NY",13471,43.306263147,-75.680991659,219,"9180 BONES ROAD, TABERG, NY, 13471","Match","Exact","9180 BONES RD, TABERG, NY, 13471",640432450,"R"
928720,"9180 BROWN DEER RD","SAN DIEGO","CA",92121,32.889195902,-117.180069416,220,"9180 BROWN DEER RD, SAN DIEGO, CA, 92121","Match","Exact","9180 BROWN DEER RD, SAN DIEGO, CA, 92121",195666741,"L"
928721,"9180 CINCINNATI COLUMBUS RD","CINCINNATI","OH",45069,39.31957598,-84.3670805,221,"9180 CINCINNATI COLUMBUS RD, CINCINNATI, OH, 45069","Match","Non_Exact","9180 CINCINNATI COLUMBUS RD, WEST CHESTER, OH, 45069",113802122,"L"
928722,"9180 E 200 S","GREENTOWN","IN",46936,NA,NA,222,"9180 E 200 S, GREENTOWN, IN, 46936","No_Match",NA,NA,NA,NA
928723,"9180 E 350 S","ZIONSVILLE","IN",46077,39.9906893250001,-86.2965925889999,223,"9180 E 350 S, ZIONSVILLE, IN, 46077","Match","Exact","9180 E 350 S, ZIONSVILLE, IN, 46077",610980811,"L"
928724,"9180 KIPTON DRIVE","FRANKLIN","OH",45005,39.5858943280001,-84.294524146,224,"9180 KIPTON DRIVE, FRANKLIN, OH, 45005","Match","Exact","9180 KIPTON DR, FRANKLIN, OH, 45005",159017545,"L"
928725,"9180 LOGAN BERRY LANE","CORDOVA","TN",38016,NA,NA,225,"9180 LOGAN BERRY LANE, CORDOVA, TN, 38016","No_Match",NA,NA,NA,NA
928726,"9180 MOONSHINE HALLOW","LAUREL","MD",20723,39.121629254,-76.841390073,226,"9180 MOONSHINE HALLOW, LAUREL, MD, 20723","Match","Non_Exact","9180 MOONSHINE HOLLOW, LAUREL, MD, 20723",158960036,"R"
928727,"9180 NE OAK","ALEXANDRIA","IN",46001,40.2359948750001,-85.672112764,227,"9180 NE OAK, ALEXANDRIA, IN, 46001","Match","Non_Exact","9180 NE OAK ST, ALEXANDRIA, IN, 46001",636454458,"R"
928728,"9180 SALEM HOLLOW ROAD","NEW STRAITSVILLE","OH",43766,39.583424286,-82.197523543,228,"9180 SALEM HOLLOW ROAD, NEW STRAITSVILLE, OH, 43766","Match","Exact","9180 SALEM HOLLOW RD, NEW STRAITSVILLE, OH, 43766",37373803,"R"
928729,"9180 SELKIRK COURT","VILLAGE OF LAKEWOOD","IL",60014,42.229711396,-88.376086357,229,"9180 SELKIRK COURT, VILLAGE OF LAKEWOOD, IL, 60014","Match","Exact","9180 SELKIRK CT, VILLAGE OF LAKEWOOD, IL, 60014",119867413,"R"
928730,"9180 SHADOW CREEK","CONVERSE","TX",78109,NA,NA,230,"9180 SHADOW CREEK, CONVERSE, TX, 78109","No_Match",NA,NA,NA,NA
928731,"9180 SW 171ST","MIAMI","FL",33196,25.680431115,-80.4726745199999,231,"9180 SW 171ST, MIAMI, FL, 33196","Match","Non_Exact","9180 SW 171ST CT, MIAMI, FL, 33196",642201251,"R"
928732,"9180 TOWN SQUARE BLVD SUITE 1141","AMARILLO","TX",79119,35.150057555,-101.944392954,232,"9180 TOWN SQUARE BLVD SUITE 1141, AMARILLO, TX, 79119","Match","Exact","9180 TOWN SQUARE BLVD, AMARILLO, TX, 79119",641816138,"R"
928733,"9180 W TWIN LAKES ROAD","RATHDRUM","ID",83858,47.8945938420001,-116.899090494,233,"9180 W TWIN LAKES ROAD, RATHDRUM, ID, 83858","Match","Exact","9180 W TWIN LAKES RD, RATHDRUM, ID, 83858",192944499,"R"
928734,"9181 BELLASERRA CIRCLE","MYRTLE BEACH","SC",29577,NA,NA,234,"9181 BELLASERRA CIRCLE, MYRTLE BEACH, SC, 29577","No_Match",NA,NA,NA,NA
928735,"9181 BRIGGS RD 54","ENGLEWOOD","FL",34223,NA,NA,235,"9181 BRIGGS RD 54, ENGLEWOOD, FL, 34223","No_Match",NA,NA,NA,NA
928736,"9181 DRAYTON LANE","FORT MILL","SC",29707,34.9743678450001,-80.867370189,236,"9181 DRAYTON LANE, FORT MILL, SC, 29707","Match","Exact","9181 DRAYTON LN, FORT MILL, SC, 29707",627972622,"R"
928737,"9181 E WETHERSFIELD RD","SCOTTSDAE","AZ",85260,33.5976103150001,-111.883455858,237,"9181 E WETHERSFIELD RD, SCOTTSDAE, AZ, 85260","Match","Non_Exact","9181 E WETHERSFIELD RD, SCOTTSDALE, AZ, 85260",128593823,"L"
928738,"9181 E WETHERSFIELD RD","SCOTTSDALE","AZ",85260,33.5976103150001,-111.883452273,238,"9181 E WETHERSFIELD RD, SCOTTSDALE, AZ, 85260","Match","Exact","9181 E WETHERSFIELD RD, SCOTTSDALE, AZ, 85260",128593823,"L"
928739,"9181 F M 1339","MARTINDALE","TX",78655,29.776293308,-97.8578231609999,239,"9181 F M 1339, MARTINDALE, TX, 78655","Match","Non_Exact","9181 FM 1339, MARTINDALE, TX, 78655",54820225,"R"
928740,"9181 FM 660","FERRIS","TX",75125,NA,NA,240,"9181 FM 660, FERRIS, TX, 75125","No_Match",NA,NA,NA,NA
928741,"9181 NORTH SHORE NE","MINERAL CITY","OH",44656,40.534132496,-81.278021251,241,"9181 NORTH SHORE NE, MINERAL CITY, OH, 44656","Match","Non_Exact","9181 N SHORE DR NE, MINERAL CITY, OH, 44656",44239029,"L"
928742,"9181 SCENIC PINE DRIVE","PARKER","CO",80134,39.4397322900001,-104.715484085,242,"9181 SCENIC PINE DRIVE, PARKER, CO, 80134","Match","Exact","9181 SCENIC PINE DR, PARKER, CO, 80134",623785893,"L"
928743,"9181 SE 171 DRAYTON PLACE","THE VILLAGES","FL",32162,28.972481047,-82.0011017259999,243,"9181 SE 171 DRAYTON PLACE, THE VILLAGES, FL, 32162","Match","Exact","9181 SE 171ST DRAYTON PL, THE VILLAGES, FL, 32162",116840048,"L"
928744,"9181 US HWY 277 SOUTH","HAWLEY","TX",79525,NA,NA,244,"9181 US HWY 277 SOUTH, HAWLEY, TX, 79525","No_Match",NA,NA,NA,NA
928745,"9182 CEDAR RIDGE DRIVE","GRANITE BAY","CA",95746,38.7345124180001,-121.217743077,245,"9182 CEDAR RIDGE DRIVE, GRANITE BAY, CA, 95746","Match","Exact","9182 CEDAR RIDGE DR, GRANITE BAY, CA, 95746",608080262,"R"
928746,"9182 DROWN AVE","MCKEAN","PA",16426,41.994869097,-80.133658161,246,"9182 DROWN AVE, MCKEAN, PA, 16426","Match","Exact","9182 DROWN AVE, MCKEAN, PA, 16426",647945601,"L"
928747,"9182 FOREST LN","DALLAS","TX",75243,32.909092049,-96.743241285,247,"9182 FOREST LN, DALLAS, TX, 75243","Match","Exact","9182 FOREST LN, DALLAS, TX, 75243",103244795,"R"
928748,"9182 KAPPAA LANE","HUNTINGTON BEACH","CA",92646,33.6444058230001,-117.967671178,248,"9182 KAPPAA LANE, HUNTINGTON BEACH, CA, 92646","Match","Non_Exact","9182 KAPAA DR, HUNTINGTON BEACH, CA, 92646",144021464,"R"
928749,"9182 LEBERATOR CT","SPRING HILL","FL",34608,28.4865087920001,-82.570170912,249,"9182 LEBERATOR CT, SPRING HILL, FL, 34608","Match","Non_Exact","9182 LIBERATOR CT, SPRING HILL, FL, 34608",85447931,"L"
928750,"9182 READING AVENUE","WESTMINSTER","CA",92683,33.75717301,-117.969870374,250,"9182 READING AVENUE, WESTMINSTER, CA, 92683","Match","Exact","9182 READING AVE, WESTMINSTER, CA, 92683",144016631,"R"
928751,"9182 SVL BOX","VICTORVILLE","CA",92395,NA,NA,251,"9182 SVL BOX, VICTORVILLE, CA, 92395","No_Match",NA,NA,NA,NA
928752,"9183 E MARKET ST","PITTSFORD","MI",49271,41.8620036040001,-84.473311068,252,"9183 E MARKET ST, PITTSFORD, MI, 49271","Match","Exact","9183 MARKET ST, PITTSFORD, MI, 49271",8285773,"L"
928753,"9183 HECTOR AVE","SAN DIEGO","CA",92123,32.791978219,-117.128731277,253,"9183 HECTOR AVE, SAN DIEGO, CA, 92123","Match","Exact","9183 HECTOR AVE, SAN DIEGO, CA, 92123",195321600,"R"
928754,"9183 PETER AVE","HOUGHTON LAKE","MI",48629,44.3466503220001,-84.7963680249999,254,"9183 PETER AVE, HOUGHTON LAKE, MI, 48629","Match","Exact","9183 PETER AVE, HOUGHTON LAKE, MI, 48629",179442369,"L"
928755,"9183 RIVER RIDGE DRIVE","HEARNE","TX",77859,30.8182299060001,-96.544231367,255,"9183 RIVER RIDGE DRIVE, HEARNE, TX, 77859","Match","Exact","9183 RIVER RIDGE DR, HEARNE, TX, 77859",24689945,"R"
928756,"9183 S 47TH STREET","FRANKLIN","WI",53132,42.878306939,-87.9764180079999,256,"9183 S 47TH STREET, FRANKLIN, WI, 53132","Match","Exact","9183 S 47TH ST, FRANKLIN, WI, 53132",77766157,"L"
928757,"9183 SANDY BEACH LANE","KING GEORGE","VA",22485,38.2869433760001,-77.017631272,257,"9183 SANDY BEACH LANE, KING GEORGE, VA, 22485","Match","Exact","9183 SANDY BEACH LN, KING GEORGE, VA, 22485",605297000,"R"
928758,"9183 SOUTH JEFFERSON PLACE NO 5","SANDY","UT",84070,NA,NA,258,"9183 SOUTH JEFFERSON PLACE NO 5, SANDY, UT, 84070","No_Match",NA,NA,NA,NA
928759,"9183 SW TUSTENUGGEE AVE","LAKE CITY","FL",32024,30.0098918260001,-82.643252336,259,"9183 SW TUSTENUGGEE AVE, LAKE CITY, FL, 32024","Match","Exact","9183 SW TUSTENUGGEE AVE, LAKE CITY, FL, 32024",5150959,"R"
928760,"91832 HIGHWAY 104","WARRENTON","OR",97146,46.136011582,-123.930099981,260,"91832 HIGHWAY 104, WARRENTON, OR, 97146","Match","Non_Exact","91832 STATE RTE 104, WARRENTON, OR, 97146",159243367,"L"
928761,"9184 MONTORO DRIVE","CINCINNATI","OH",45321,39.236568639,-84.5638446,261,"9184 MONTORO DRIVE, CINCINNATI, OH, 45321","Match","Non_Exact","9184 MONTORO DR, CINCINNATI, OH, 45231",103919486,"R"
928762,"9184 UPLAND LN N","MAPLE GROVE","MN",55369,45.120905715,-93.479539055,262,"9184 UPLAND LN N, MAPLE GROVE, MN, 55369","Match","Exact","9184 UPLAND LN N, MAPLE GROVE, MN, 55369",43854481,"L"
928763,"9184 VISTA WEST DR","WEST JORDAN","UT",84088,40.5843219720001,-111.981092453,263,"9184 VISTA WEST DR, WEST JORDAN, UT, 84088","Match","Exact","9184 VISTA WEST DR, WEST JORDAN, UT, 84088",176155282,"L"
928764,"9184 WHALEYS LAKE LANE","JONESBORO","GA",30238,33.5045710420001,-84.377757865,264,"9184 WHALEYS LAKE LANE, JONESBORO, GA, 30238","Match","Exact","9184 WHALEYS LAKE LN, JONESBORO, GA, 30238",23327475,"L"
928765,"9185 CARRIAGE HOUSE LANE","COLUMBIA","MD",21045,39.2093067910001,-76.827417135,265,"9185 CARRIAGE HOUSE LANE, COLUMBIA, MD, 21045","Match","Exact","9185 CARRIAGE HOUSE LN, COLUMBIA, MD, 21045",158942747,"L"
928766,"9185 COLLEEN","BOISE","ID",83709,NA,NA,266,"9185 COLLEEN, BOISE, ID, 83709","No_Match",NA,NA,NA,NA
928767,"9185 GRAPE STREET","FRANKSTON","TX",75763,32.1176095930001,-95.481048356,267,"9185 GRAPE STREET, FRANKSTON, TX, 75763","Match","Exact","9185 GRAPE ST, FRANKSTON, TX, 75763",125814071,"R"
928768,"9185 KEYS PLACE","GLENEDEN BEACH","OR",97388,44.899692078,-124.010378901,268,"9185 KEYS PLACE, GLENEDEN BEACH, OR, 97388","Match","Exact","9185 KEYS PL, GLENEDEN BEACH, OR, 97388",155927950,"R"
928769,"9185 LINDEN RD","SWARTZ CREEK","MI",48473,42.894275125,-83.76936511,269,"9185 LINDEN RD, SWARTZ CREEK, MI, 48473","Match","Exact","9185 LINDEN RD, SWARTZ CREEK, MI, 48473",631773250,"R"
928770,"9185 N FINUCANE DR","HAYDEN","ID",83835,47.7552091760001,-116.773208942,270,"9185 N FINUCANE DR, HAYDEN, ID, 83835","Match","Exact","9185 N FINUCANE DR, HAYDEN, ID, 83835",192940401,"R"
928771,"9185 OGDEN ST","OMAHA","NE",68134,41.3072356870001,-96.055722886,271,"9185 OGDEN ST, OMAHA, NE, 68134","Match","Exact","9185 OGDEN ST, OMAHA, NE, 68134",116969155,"L"
928772,"9185 SW BURNHAM STREET","TIGARD","OR",97223,45.4291363950001,-122.77103809,272,"9185 SW BURNHAM STREET, TIGARD, OR, 97223","Match","Exact","9185 SW BURNHAM ST, TIGARD, OR, 97223",158196253,"R"
928773,"9185 SW QUAKER ROAD","CHETOPA","KS",67336,37.0900632300001,-94.998552524,273,"9185 SW QUAKER ROAD, CHETOPA, KS, 67336","Match","Exact","9185 SW QUAKER RD, CHETOPA, KS, 67336",65903524,"L"
928774,"9185 TILLER DR","OLMSTED FALLS","OH",44138,41.358890844,-81.951365482,274,"9185 TILLER DR, OLMSTED FALLS, OH, 44138","Match","Exact","9185 TILLER DR, OLMSTED FALLS, OH, 44138",633983165,"L"
928775,"91850 MCCUE RD","SCIO","OH",43988,40.426915846,-81.087275468,275,"91850 MCCUE RD, SCIO, OH, 43988","Match","Exact","91850 MCCUE RD, SCIO, OH, 43988",642862906,"R"
928776,"91851 CATCHING CREEK LANE","MYRTLE POINT","OR",97458,43.0144236190001,-124.203380377,276,"91851 CATCHING CREEK LANE, MYRTLE POINT, OR, 97458","Match","Exact","91851 CATCHING CREEK LN, MYRTLE POINT, OR, 97458",137036294,"L"
928777,"9186 ELLIS WAY","ARVADA","CO",80005,39.8627200290001,-105.157567452,277,"9186 ELLIS WAY, ARVADA, CO, 80005","Match","Exact","9186 ELLIS WAY, ARVADA, CO, 80005",641517591,"R"
928778,"9186 PINION DRIVE","WELLINGTON","FL",33467,26.630747453,-80.193014348,278,"9186 PINION DRIVE, WELLINGTON, FL, 33467","Match","Exact","9186 PINION DR, WELLINGTON, FL, 33467",115510735,"R"
928779,"9186 WHITCOMB ST","DETROIT","MI",48228,42.3617307310001,-83.194989316,279,"9186 WHITCOMB ST, DETROIT, MI, 48228","Match","Exact","9186 WHITCOMB ST, DETROIT, MI, 48228",95441927,"R"
928780,"9186 WILDERIDGE LN","CORDOVA","TN",38018,35.131365514,-89.7566531639999,280,"9186 WILDERIDGE LN, CORDOVA, TN, 38018","Match","Exact","9186 WILDERIDGE LN, CORDOVA, TN, 38018",607428438,"L"
928781,"91868 YOUNGS RIVER ROAD","ASTORIA","OR",97103,46.144559696,-123.829095131,281,"91868 YOUNGS RIVER ROAD, ASTORIA, OR, 97103","Match","Exact","91868 YOUNGS RIVER RD, ASTORIA, OR, 97103",159222168,"L"
928782,"9187 COOGAN DR","CINCINNATI","OH",45231,39.237648565,-84.569375029,282,"9187 COOGAN DR, CINCINNATI, OH, 45231","Match","Exact","9187 COOGAN DR, CINCINNATI, OH, 45231",103919474,"L"
928783,"9187 PYRITE CIRCLE","MOSCA","CO",81146,37.708300265,-105.869525458,283,"9187 PYRITE CIRCLE, MOSCA, CO, 81146","Match","Exact","9187 PYRITE CIR, MOSCA, CO, 81146",104178702,"R"
928784,"9187 PYRITE CIRLCE","MOSCA","CO",81146,37.708300265,-105.869525458,284,"9187 PYRITE CIRLCE, MOSCA, CO, 81146","Match","Non_Exact","9187 PYRITE CIR, MOSCA, CO, 81146",104178702,"R"
928785,"9187 S 700 E","SANDY","UT",84070,40.584597338,-111.872186021,285,"9187 S 700 E, SANDY, UT, 84070","Match","Exact","9187 S 700 E, SANDY, UT, 84070",636801206,"L"
928786,"9187 TOPAZ STREET","FAIRFAX","VA",22031,38.877497718,-77.26207412,286,"9187 TOPAZ STREET, FAIRFAX, VA, 22031","Match","Exact","9187 TOPAZ ST, FAIRFAX, VA, 22031",618944446,"R"
928787,"9187 W FLAMINGO RD SUITE 110","LAS VEGAS","NV",89147,36.114907992,-115.291729787,287,"9187 W FLAMINGO RD SUITE 110, LAS VEGAS, NV, 89147","Match","Non_Exact","9187 W FLAMINGO RD, LAS VEGAS, NV, 89147",201957152,"L"
928788,"91872 W HIGHWAY 90","ALPINE","TX",79830,30.292556125,-103.797664836,288,"91872 W HIGHWAY 90, ALPINE, TX, 79830","Match","Non_Exact","91872 US HWY 90, ALPINE, TX, 79830",183976494,"R"
928789,"9188 MORNINGTON WAY","LONE TREE","CO",80124,39.5304741250001,-104.882641252,289,"9188 MORNINGTON WAY, LONE TREE, CO, 80124","Match","Exact","9188 MORNINGTON WAY, LONE TREE, CO, 80124",627184590,"R"
928790,"9188 PAMPAS CT","COVINGTON","KY",41015,38.9817574740001,-84.5036590889999,290,"9188 PAMPAS CT, COVINGTON, KY, 41015","Match","Exact","9188 PAMPAS CT, COVINGTON, KY, 41015",103896987,"L"
928791,"9188 PINEWOOD CT","ATASCADERO","CA",93422,35.4605245710001,-120.645505135,291,"9188 PINEWOOD CT, ATASCADERO, CA, 93422","Match","Exact","9188 PINEWOOD CT, ATASCADERO, CA, 93422",109797072,"R"
928792,"9188 SW PLATINUM PLACE","BEAVERTON","OR",97007,45.4534071900001,-122.835704957,292,"9188 SW PLATINUM PLACE, BEAVERTON, OR, 97007","Match","Exact","9188 SW PLATINUM PL, BEAVERTON, OR, 97007",605207756,"L"
928793,"9189 CRESCENT LN","LAPLATA","MD",20646,38.5788618290001,-76.9971265619999,293,"9189 CRESCENT LN, LAPLATA, MD, 20646","Match","Non_Exact","9189 CRESCENT LN, LA PLATA, MD, 20646",649956212,"L"
928794,"9189 HWY 24","FORT YATES","ND",58538,46.096435188,-100.675330222,294,"9189 HWY 24, FORT YATES, ND, 58538","Match","Non_Exact","9189 STATE HWY 24, FORT YATES, ND, 58538",197231953,"R"
928795,"9189 PAULINE ST","MONTAGUE","MI",49437,43.425849386,-86.36445183,295,"9189 PAULINE ST, MONTAGUE, MI, 49437","Match","Exact","9189 PAULINE ST, MONTAGUE, MI, 49437",77663552,"R"
928796,"9189 S POLARIS LN","WASILLA","AK",99623,NA,NA,296,"9189 S POLARIS LN, WASILLA, AK, 99623","Tie",NA,NA,NA,NA
928797,"9189 SPOONBILL RIDGE PLACE","LAS VEGAS","NV",89143,36.310473496,-115.295550802,297,"9189 SPOONBILL RIDGE PLACE, LAS VEGAS, NV, 89143","Match","Exact","9189 SPOONBILL RIDGE PL, LAS VEGAS, NV, 89143",612989482,"L"
928798,"9189 WOODLAND COVE COURT","LAS VEGAS","NV",89123,36.0228173190001,-115.158626762,298,"9189 WOODLAND COVE COURT, LAS VEGAS, NV, 89123","Match","Exact","9189 WOODLAND COVE CT, LAS VEGAS, NV, 89123",201952056,"R"
928799,"918A MYRTLE STREET","PHILADELPHIA","MS",39350,32.772446943,-89.100032567,299,"918A MYRTLE STREET, PHILADELPHIA, MS, 39350","Match","Non_Exact","918 E MYRTLE ST, PHILADELPHIA, MS, 39350",157772299,"L"
928800,"918A NORTH POINDEXTER STREET","ELIZABETH CITY","NC",27909,36.3052553520001,-76.215499145,300,"918A NORTH POINDEXTER STREET, ELIZABETH CITY, NC, 27909","Match","Exact","918 N POINDEXTER ST, ELIZABETH CITY, NC, 27909",18592391,"R"
928801,"919 - 204TH DR SE","SNOHOMISH","WA",98290,NA,NA,301,"919 - 204TH DR SE, SNOHOMISH, WA, 98290","No_Match",NA,NA,NA,NA
928802,"919 12TH AVE S","MINNEAPOLIS","MN",55414,NA,NA,302,"919 12TH AVE S, MINNEAPOLIS, MN, 55414","No_Match",NA,NA,NA,NA
928803,"919 13TH AVE S","NAMPA","ID",83651,43.5718281960001,-116.566794563,303,"919 13TH AVE S, NAMPA, ID, 83651","Match","Exact","919 13TH AVE S, NAMPA, ID, 83651",122787216,"L"
928804,"919 1ST AVENUE","WILLIAMSPORT","PA",17701,41.248040372,-77.019519526,304,"919 1ST AVENUE, WILLIAMSPORT, PA, 17701","Match","Exact","919 1ST AVE, WILLIAMSPORT, PA, 17701",59478270,"L"
928805,"919 20TH STREET","ZION","IL",60099,42.4588610010001,-87.820768007,305,"919 20TH STREET, ZION, IL, 60099","Match","Exact","919 20TH ST, ZION, IL, 60099",119628202,"L"
928806,"919 39TH ST SW","ROCHESTER","MN",55902,43.9658350180001,-92.476978308,306,"919 39TH ST SW, ROCHESTER, MN, 55902","Match","Exact","919 39TH ST SW, ROCHESTER, MN, 55902",30559301,"L"
928807,"919 4TH STREET","MIAMI BEACH","FL",33139,25.773601533,-80.137413199,307,"919 4TH STREET, MIAMI BEACH, FL, 33139","Match","Exact","919 4TH ST, MIAMI BEACH, FL, 33139",116020732,"R"
928808,"919 53RD AVENUE","OAKLAND","CA",94601,37.76501726,-122.209994499,308,"919 53RD AVENUE, OAKLAND, CA, 94601","Match","Exact","919 53RD AVE, OAKLAND, CA, 94601",125007593,"L"
928809,"919 6TH STREET","AURORA","NE",68818,40.8652768250001,-98.01061487,309,"919 6TH STREET, AURORA, NE, 68818","Match","Exact","919 6TH ST, AURORA, NE, 68818",159712427,"L"
928810,"919 7TH STREET","PORTSMOUTH","OH",45662,38.7355221460001,-82.99367834,310,"919 7TH STREET, PORTSMOUTH, OH, 45662","Match","Exact","919 7TH ST, PORTSMOUTH, OH, 45662",55113663,"R"
928811,"919 8TH STREET","KALONA","IA",52247,41.49390291,-91.701949473,311,"919 8TH STREET, KALONA, IA, 52247","Match","Exact","919 8TH ST, KALONA, IA, 52247",84187444,"R"
928812,"919 9TH ST APT 4","SANTA MONICA","CA",90403,34.0267057230001,-118.497933917,312,"919 9TH ST APT 4, SANTA MONICA, CA, 90403","Match","Exact","919 9TH ST, SANTA MONICA, CA, 90403",141559073,"L"
928813,"919 A STREET APT B","MISSOULA","MT",59802,46.877015962,-113.990600916,313,"919 A STREET APT B, MISSOULA, MT, 59802","Match","Exact","919 A ST, MISSOULA, MT, 59802",640619485,"L"
928814,"919 ALBANY AVE","LOS ANGELES","CA",90015,34.0490654660001,-118.270313352,314,"919 ALBANY AVE, LOS ANGELES, CA, 90015","Match","Non_Exact","919 ALBANY ST, LOS ANGELES, CA, 90015",141616694,"R"
928815,"919 ALLENDALE RD1","BIG SPRINGS","TX",79720,NA,NA,315,"919 ALLENDALE RD1, BIG SPRINGS, TX, 79720","No_Match",NA,NA,NA,NA
928816,"919 ALMA DRIVE","MONTGOMERY","AL",36108,32.3640951140001,-86.334723415,316,"919 ALMA DRIVE, MONTGOMERY, AL, 36108","Match","Exact","919 ALMA DR, MONTGOMERY, AL, 36108",1467935,"R"
928817,"919 ANDERSON STREET","SEGUIN","TX",78155,29.5815725890001,-97.9770627889999,317,"919 ANDERSON STREET, SEGUIN, TX, 78155","Match","Exact","919 ANDERSON ST, SEGUIN, TX, 78155",54826961,"R"
928818,"919 ARGONNE DRIVE","BALTIMORE","MD",21218,39.3384504970001,-76.6020982699999,318,"919 ARGONNE DRIVE, BALTIMORE, MD, 21218","Match","Exact","919 ARGONNE DR, BALTIMORE, MD, 21218",206409159,"R"
928819,"919 ARMSTRONG BLVD","OCEAN","NJ",7712,40.271064004,-74.046041268,319,"919 ARMSTRONG BLVD, OCEAN, NJ, 7712","Match","Exact","919 ARMSTRONG BLVD, OCEAN, NJ, 07712",90529921,"R"
928820,"919 ASBURY WAY","BOYNTON BEACH","FL",33426,NA,NA,320,"919 ASBURY WAY, BOYNTON BEACH, FL, 33426","No_Match",NA,NA,NA,NA
928821,"919 ASPEN CT","DESOTO","TX",75115,32.615914225,-96.835764755,321,"919 ASPEN CT, DESOTO, TX, 75115","Match","Exact","919 ASPEN CT, DESOTO, TX, 75115",103188549,"R"
928822,"919 AVON ST","CHARLOTTESVILLE","VA",22902,38.0226257620001,-78.480416942,322,"919 AVON ST, CHARLOTTESVILLE, VA, 22902","Match","Exact","919 AVON ST, CHARLOTTESVILLE, VA, 22902",83370880,"R"
928823,"919 AZALEA COURT","BURLESON","TX",76028,32.5714380110001,-97.327185229,323,"919 AZALEA COURT, BURLESON, TX, 76028","Match","Exact","919 AZALEA CT, BURLESON, TX, 76028",102189041,"L"
928824,"919 BARRETT AVENUE SUITE 2","LOUISILLE","KY",40204,38.2396068990001,-85.730665613,324,"919 BARRETT AVENUE SUITE 2, LOUISILLE, KY, 40204","Match","Non_Exact","919 BARRET AVE, LOUISVILLE, KY, 40204",96847057,"L"
928825,"919 BARRETT AVENUE SUITE 2","LOUISVILLE","KY",40204,38.2396068990001,-85.730665613,325,"919 BARRETT AVENUE SUITE 2, LOUISVILLE, KY, 40204","Match","Non_Exact","919 BARRET AVE, LOUISVILLE, KY, 40204",96847057,"L"
928826,"919 BAYRIDGE DRIVE","JACKSON","MS",39211,32.389023271,-90.1409672249999,326,"919 BAYRIDGE DRIVE, JACKSON, MS, 39211","Match","Exact","919 BAYRIDGE DR, JACKSON, MS, 39211",611230398,"L"
928827,"919 BEARKAT BLVD","HUNTSVILLE","TX",77340,NA,NA,327,"919 BEARKAT BLVD, HUNTSVILLE, TX, 77340","No_Match",NA,NA,NA,NA
928828,"919 BERT","ARLINGTON","TX",76012,32.7734521260001,-97.116761755,328,"919 BERT, ARLINGTON, TX, 76012","Match","Non_Exact","919 BERT DR, ARLINGTON, TX, 76012",101873350,"R"
928829,"919 BIRCH AVE","UNION","NJ",7083,40.677114691,-74.238238656,329,"919 BIRCH AVE, UNION, NJ, 7083","Match","Exact","919 BIRCH AVE, UNION, NJ, 07083",639002627,"R"
928830,"919 BIRCH AVENUE","UNION","NJ",7083,40.677114691,-74.238238656,330,"919 BIRCH AVENUE, UNION, NJ, 7083","Match","Exact","919 BIRCH AVE, UNION, NJ, 07083",639002627,"R"
928831,"919 BOXWOOD DRIVE","LEWISVILLE","TX",75067,33.0351091530001,-97.0305168469999,331,"919 BOXWOOD DRIVE, LEWISVILLE, TX, 75067","Match","Exact","919 BOXWOOD DR, LEWISVILLE, TX, 75067",103348406,"R"
928832,"919 BRADFORD AVENUE","NASHVILLE","TN",37204,36.1276454010001,-86.783805602,332,"919 BRADFORD AVENUE, NASHVILLE, TN, 37204","Match","Exact","919 BRADFORD AVE, NASHVILLE, TN, 37204",97190819,"L"
928833,"919 BRINTON AVE","PITCAIRN","PA",15140,40.406656765,-79.773507998,333,"919 BRINTON AVE, PITCAIRN, PA, 15140","Match","Exact","919 BRINTON AVE, PITCAIRN, PA, 15140",51674686,"R"
928834,"919 BRYANT ST","CALIMESA","CA",92320,34.004165141,-117.034470684,334,"919 BRYANT ST, CALIMESA, CA, 92320","Match","Exact","919 BRYANT ST, CALIMESA, CA, 92320",195064384,"L"
928835,"919 CAMBRIDGE DR","DUNCANVILLE","GA",75137,NA,NA,335,"919 CAMBRIDGE DR, DUNCANVILLE, GA, 75137","No_Match",NA,NA,NA,NA
928836,"919 CAMBRIDGE DR","DUNCANVILLE","TX",75137,32.623057439,-96.889944712,336,"919 CAMBRIDGE DR, DUNCANVILLE, TX, 75137","Match","Exact","919 CAMBRIDGE DR, DUNCANVILLE, TX, 75137",640539714,"L"
928837,"919 CAMBRIDGE DR","DUNCANVILLE","TX",NA,32.623057439,-96.889944712,337,"919 CAMBRIDGE DR, DUNCANVILLE, TX, ","Match","Exact","919 CAMBRIDGE DR, DUNCANVILLE, TX, 75137",640539714,"L"
928838,"919 CANON ROAD","SANTA BARBARA","CA",93110,34.4273341310001,-119.759033014,338,"919 CANON ROAD, SANTA BARBARA, CA, 93110","Match","Non_Exact","919 CANON DR, SANTA BARBARA, CA, 93110",108603026,"R"
928839,"919 CARISSA CT","CAMARILLO","CA",93012,34.226286202,-118.984371559,339,"919 CARISSA CT, CAMARILLO, CA, 93012","Match","Exact","919 CARISSA CT, CAMARILLO, CA, 93012",110049085,"L"
928840,"919 CARPICO DR NE","LANCASTER","OH",43130,39.748339254,-82.581608155,340,"919 CARPICO DR NE, LANCASTER, OH, 43130","Match","Exact","919 CARPICO DR NE, LANCASTER, OH, 43130",635873236,"L"
928841,"919 CECIL AVENUE","LOUISVILLE","KY",40211,38.2463585960001,-85.820893703,341,"919 CECIL AVENUE, LOUISVILLE, KY, 40211","Match","Exact","919 CECIL AVE, LOUISVILLE, KY, 40211",653265035,"L"
928842,"919 CENTREVILLE ST","MARION","AL",36756,NA,NA,342,"919 CENTREVILLE ST, MARION, AL, 36756","No_Match",NA,NA,NA,NA
928843,"919 CHERL DR","SYRACUSE","NE",68446,40.6609292570001,-96.185743009,343,"919 CHERL DR, SYRACUSE, NE, 68446","Match","Exact","919 CHERL DR, SYRACUSE, NE, 68446",636283877,"L"
928844,"919 CHESTER CIRCLE","PENDLETON","SC",29670,34.6585060460001,-82.7704520409999,344,"919 CHESTER CIRCLE, PENDLETON, SC, 29670","Match","Exact","919 CHESTER CIR, PENDLETON, SC, 29670",25440959,"L"
928845,"919 CHIP COVE LANE","KNOXVILLE","TN",37938,36.05663775,-83.988331391,345,"919 CHIP COVE LANE, KNOXVILLE, TN, 37938","Match","Exact","919 CHIP COVE LN, KNOXVILLE, TN, 37938",42634559,"L"
928846,"919 CLERMONT ST","BAKER","LA",70714,30.5803489580001,-91.13359794,346,"919 CLERMONT ST, BAKER, LA, 70714","Match","Exact","919 CLERMONT ST, BAKER, LA, 70714",92208876,"L"
928847,"919 CLINTON AVE","SOUTH EUCLID","OH",44121,41.5353396190001,-81.523201695,347,"919 CLINTON AVE, SOUTH EUCLID, OH, 44121","Match","Exact","919 CLINTON AVE, SOUTH EUCLID, OH, 44121",61124800,"L"
928848,"919 COHASSET STREET","LAS VEGAS","NV",89109,36.176474689,-115.039020511,348,"919 COHASSET STREET, LAS VEGAS, NV, 89109","Match","Non_Exact","919 COHASSET ST, LAS VEGAS, NV, 89110",201915259,"R"
928849,"919 COLLEEN DRIVE","NEWPORT NEWS","VA",23608,37.1373915520001,-76.555375257,349,"919 COLLEEN DRIVE, NEWPORT NEWS, VA, 23608","Match","Exact","919 COLLEEN DR, NEWPORT NEWS, VA, 23608",103816683,"L"
928850,"919 CONFERENCE DR 4-315","GOODLETTSVILLE","TN",37072,36.3239300340001,-86.701070869,350,"919 CONFERENCE DR 4-315, GOODLETTSVILLE, TN, 37072","Match","Exact","919 CONFERENCE DR, GOODLETTSVILLE, TN, 37072",97182408,"L"
928851,"919 COPLEY BRANCH RD","BUTLER","TN",37604,36.3685981840001,-82.023168019,351,"919 COPLEY BRANCH RD, BUTLER, TN, 37604","Match","Non_Exact","919 COPLEY BRANCH RD, BUTLER, TN, 37640",52077912,"L"
928852,"919 COREY LANE","PLAINFIELD","IN",46168,39.694621141,-86.376185431,352,"919 COREY LANE, PLAINFIELD, IN, 46168","Match","Exact","919 COREY LN, PLAINFIELD, IN, 46168",89205569,"L"
928853,"919 CORK OAK LN","MINEOLA","FL",34715,28.6035354250001,-81.763209557,353,"919 CORK OAK LN, MINEOLA, FL, 34715","Match","Non_Exact","919 CORK OAK LN, MINNEOLA, FL, 34715",647502998,"R"
928854,"919 COTTON ST","SAN DIEGO","CA",92102,32.715338837,-117.094648356,354,"919 COTTON ST, SAN DIEGO, CA, 92102","Match","Exact","919 COTTON ST, SAN DIEGO, CA, 92102",195350617,"R"
928855,"919 COUNTY ROUTE 41","HUDSON FALLS","NY",12839,43.349739965,-73.506888213,355,"919 COUNTY ROUTE 41, HUDSON FALLS, NY, 12839","Match","Exact","919 CO RTE 41, HUDSON FALLS, NY, 12839",635640801,"L"
928856,"919 CRESSMAN RD","HARLEYSVILLE","PA",19446,40.2409828830001,-75.400644282,356,"919 CRESSMAN RD, HARLEYSVILLE, PA, 19446","Match","Non_Exact","919 CRESSMAN RD, HARLEYSVILLE, PA, 19438",135067437,"L"
928857,"919 CRESTWOOD LANE","CASSELBERRY","FL",32707,NA,NA,357,"919 CRESTWOOD LANE, CASSELBERRY, FL, 32707","No_Match",NA,NA,NA,NA
928858,"919 CROSS PLAINS DR","ALLEN","TX",75013,33.1121360380001,-96.705127714,358,"919 CROSS PLAINS DR, ALLEN, TX, 75013","Match","Exact","919 CROSS PLAINS DR, ALLEN, TX, 75013",123548840,"L"
928859,"919 CURTIS DR","ARLINGTON","TX",76012,32.774114963,-97.116686515,359,"919 CURTIS DR, ARLINGTON, TX, 76012","Match","Exact","919 CURTIS DR, ARLINGTON, TX, 76012",101873349,"R"
928860,"919 DAVIS BOULEVARD","SEYMOUR","TN",37865,35.8313181,-83.737202123,360,"919 DAVIS BOULEVARD, SEYMOUR, TN, 37865","Match","Exact","919 DAVIS BLVD, SEYMOUR, TN, 37865",107524708,"R"
928861,"919 DAVIS RD","LEAGUE CITY","TX",77573,29.541690922,-95.076444238,361,"919 DAVIS RD, LEAGUE CITY, TX, 77573","Match","Exact","919 DAVIS RD, LEAGUE CITY, TX, 77573",96713709,"L"
928862,"919 DELAWARE AVE","AMES","IA",50014,42.0308855910001,-93.679862747,362,"919 DELAWARE AVE, AMES, IA, 50014","Match","Exact","919 DELAWARE AVE, AMES, IA, 50014",635853788,"L"
928863,"919 DOMINION WALK DRIVE","SNELLVILLE","GA",30078,NA,NA,363,"919 DOMINION WALK DRIVE, SNELLVILLE, GA, 30078","No_Match",NA,NA,NA,NA
928864,"919 DOWNING CIRCLE","LINCOLN","CA",95648,38.87665287,-121.312207818,364,"919 DOWNING CIRCLE, LINCOLN, CA, 95648","Match","Exact","919 DOWNING CIR, LINCOLN, CA, 95648",631999084,"L"
928865,"919 DRIFTWOOD DRIVE","EL CENTRO","CA",92243,32.7760858090001,-115.562206173,365,"919 DRIFTWOOD DRIVE, EL CENTRO, CA, 92243","Match","Exact","919 DRIFTWOOD DR, EL CENTRO, CA, 92243",194495999,"R"
928866,"919 DUNHILL WAY","NEWPORT NEWS","VA",23602,37.1135795770001,-76.476116556,366,"919 DUNHILL WAY, NEWPORT NEWS, VA, 23602","Match","Exact","919 DUNHILL WAY, NEWPORT NEWS, VA, 23602",103812664,"R"
928867,"919 E 15TH ST","CHRISTOPHER","IL",62822,37.9651562770001,-89.042746751,367,"919 E 15TH ST, CHRISTOPHER, IL, 62822","Match","Exact","919 E 15TH ST, CHRISTOPHER, IL, 62822",92948763,"L"
928868,"919 E 15TH STREET","RICHMOND","VA",23224,37.51298139,-77.4406206469999,368,"919 E 15TH STREET, RICHMOND, VA, 23224","Match","Exact","919 E 15TH ST, RICHMOND, VA, 23224",201542162,"R"
928869,"919 E CARSON ST","LONG BEACH","CA",90807,33.832425304,-118.181564826,369,"919 E CARSON ST, LONG BEACH, CA, 90807","Match","Exact","919 CARSON ST, LONG BEACH, CA, 90807",141686309,"L"
928870,"919 E CREOLE HWY","CREOLE","LA",70632,29.8190447590001,-93.0620189209999,370,"919 E CREOLE HWY, CREOLE, LA, 70632","Match","Non_Exact","919 E CREOLE RD, CREOLE, LA, 70632",88661825,"L"
928871,"919 E GENESEE ST APT 366C","SYRACUSE","NY",13210,43.0469486370001,-76.137462839,371,"919 E GENESEE ST APT 366C, SYRACUSE, NY, 13210","Match","Non_Exact","919 E GENESEE ST, SYRACUSE, NY, 13210",46571335,"L"
928872,"919 E LEMON ST APT 237","TEMPE","AZ",85281,33.416816184,-111.925225538,372,"919 E LEMON ST APT 237, TEMPE, AZ, 85281","Match","Non_Exact","919 E LEMON ST, TEMPE, AZ, 85281",650137241,"R"
928873,"919 E MAIN ST","SEBEWAING","MI",48759,43.7292347310001,-83.437778408,373,"919 E MAIN ST, SEBEWAING, MI, 48759","Match","Exact","919 E MAIN ST, SEBEWAING, MI, 48759",161242886,"R"
928874,"919 EARLSFERRY DR","CHANNELVIEW","TX",77530,29.79095334,-95.154737309,374,"919 EARLSFERRY DR, CHANNELVIEW, TX, 77530","Match","Exact","919 EARLSFERRY DR, CHANNELVIEW, TX, 77530",96427778,"L"
928875,"919 EAST 98 STREET","BROOKLYN","NY",11236,40.6479891060001,-73.903963812,375,"919 EAST 98 STREET, BROOKLYN, NY, 11236","Match","Exact","919 E 98TH ST, BROOKLYN, NY, 11236",59086597,"L"
928876,"919 EAST CENTER STREET","WARSAW","IN",46580,41.2380627410001,-85.8441909489999,376,"919 EAST CENTER STREET, WARSAW, IN, 46580","Match","Exact","919 E CENTER ST, WARSAW, IN, 46580",7920274,"R"
928877,"919 EAST MAIN STREET 24TH FLOOR","RICHMOND","VA",23219,37.538088482,-77.436100557,377,"919 EAST MAIN STREET 24TH FLOOR, RICHMOND, VA, 23219","Match","Exact","919 E MAIN ST, RICHMOND, VA, 23219",201540587,"R"
928878,"919 ECHO LN","HOUSTON","TX",77024,29.778941021,-95.521231804,378,"919 ECHO LN, HOUSTON, TX, 77024","Match","Exact","919 ECHO LN, HOUSTON, TX, 77024",96029576,"L"
928879,"919 ECTOR CHASE NW","KENNESAW","GA",30152,33.9773990580001,-84.615104247,379,"919 ECTOR CHASE NW, KENNESAW, GA, 30152","Match","Exact","919 ECTOR CHASE NW, KENNESAW, GA, 30152",620005590,"R"
928880,"919 ELLIOTT DR","CEDAR HILL","TX",75104,32.5804246480001,-96.928160217,380,"919 ELLIOTT DR, CEDAR HILL, TX, 75104","Match","Exact","919 ELLIOTT DR, CEDAR HILL, TX, 75104",102981902,"R"
928881,"919 EMERALD DRIVE","DESOTO","TX",75115,32.6106467130001,-96.879964306,381,"919 EMERALD DRIVE, DESOTO, TX, 75115","Match","Exact","919 EMERALD DR, DESOTO, TX, 75115",623861467,"L"
928882,"919 EMMA STREET","ELIZABETH","NJ",7201,40.669283911,-74.2011699079999,382,"919 EMMA STREET, ELIZABETH, NJ, 7201","Match","Exact","919 EMMA ST, ELIZABETH, NJ, 07201",60595424,"R"
928883,"919 EXCELSIOR AVENUE","CROYDON","PA",19021,40.0867735250001,-74.8985252319999,383,"919 EXCELSIOR AVENUE, CROYDON, PA, 19021","Match","Exact","919 EXCELSIOR AVE, CROYDON, PA, 19021",134717520,"L"
928884,"919 FIRST STREET","MANHATTAN BEACH","CA",90266,33.8793863020001,-118.399813745,384,"919 FIRST STREET, MANHATTAN BEACH, CA, 90266","Match","Exact","919 1ST ST, MANHATTAN BEACH, CA, 90266",141582519,"L"
928885,"919 FOSTER AVENUE","BROOKLYN","NY",11230,40.6317661410001,-73.967897611,385,"919 FOSTER AVENUE, BROOKLYN, NY, 11230","Match","Exact","919 FOSTER AVE, BROOKLYN, NY, 11230",59081124,"L"
928886,"919 FOUSHEEST","GREENSBORO","NC",27405,NA,NA,386,"919 FOUSHEEST, GREENSBORO, NC, 27405","No_Match",NA,NA,NA,NA
928887,"919 FOXPOINTE CIR","DELRAY BEACH","FL",33445,26.4481986650001,-80.121318177,387,"919 FOXPOINTE CIR, DELRAY BEACH, FL, 33445","Match","Exact","919 FOXPOINTE CIR, DELRAY BEACH, FL, 33445",644044429,"R"
928888,"919 FRANKLIN AVENUE","LEXINGTON","MO",64067,39.1845513970001,-93.884368885,388,"919 FRANKLIN AVENUE, LEXINGTON, MO, 64067","Match","Exact","919 FRANKLIN AVE, LEXINGTON, MO, 64067",20922681,"R"
928889,"919 FRANKLIN STREET","BURKE","SD",57523,43.181214035,-99.28791752,389,"919 FRANKLIN STREET, BURKE, SD, 57523","Match","Exact","919 FRANKLIN ST, BURKE, SD, 57523",174562660,"L"
928890,"919 FRANKLIN STREET","LOUISVILLE","KY",40206,38.2560815780001,-85.734978943,390,"919 FRANKLIN STREET, LOUISVILLE, KY, 40206","Match","Exact","919 FRANKLIN ST, LOUISVILLE, KY, 40206",96845198,"L"
928891,"919 FRANKLIN","LEXINGTON","MO",64067,39.1845513970001,-93.884368885,391,"919 FRANKLIN, LEXINGTON, MO, 64067","Match","Non_Exact","919 FRANKLIN AVE, LEXINGTON, MO, 64067",20922681,"R"
928892,"919 FRESNO CT","RIO RICO","AZ",85648,31.43687734,-111.021775479,392,"919 FRESNO CT, RIO RICO, AZ, 85648","Match","Non_Exact","919 FRESNO CORTE, RIO RICO, AZ, 85648",120898105,"R"
928893,"919 FRUITDALE PLACE","SAN JOSE","CA",95126,NA,NA,393,"919 FRUITDALE PLACE, SAN JOSE, CA, 95126","Tie",NA,NA,NA,NA
928894,"919 FRUITDALE PLACE","SAN JOSE","CA",95127,NA,NA,394,"919 FRUITDALE PLACE, SAN JOSE, CA, 95127","Tie",NA,NA,NA,NA
928895,"919 GEORGIAN POINT DRIVE","LAWRENCEVILLE","GA",30045,33.953009002,-83.94004362,395,"919 GEORGIAN POINT DRIVE, LAWRENCEVILLE, GA, 30045","Match","Exact","919 GEORGIAN POINT DR, LAWRENCEVILLE, GA, 30045",88964201,"L"
928896,"919 GILDER DRIVE","NEW CASTLE","DE",19720,39.6210594090001,-75.6496552789999,396,"919 GILDER DRIVE, NEW CASTLE, DE, 19720","Match","Exact","919 GILDER DR, NEW CASTLE, DE, 19720",187281651,"L"
928897,"919 GLENVIEW DR","HURON","OH",44839,41.3924589100001,-82.571161253,397,"919 GLENVIEW DR, HURON, OH, 44839","Match","Exact","919 GLENVIEW DR, HURON, OH, 44839",55334995,"L"
928898,"919 GLENWOOD AVE","SYRACUSE","NY",13207,43.019416404,-76.174287926,398,"919 GLENWOOD AVE, SYRACUSE, NY, 13207","Match","Exact","919 GLENWOOD AVE, SYRACUSE, NY, 13207",46622737,"L"
928899,"919 GOLDEN BELL LANE","GROVETOWN","GA",30813,33.492165421,-82.2399442989999,399,"919 GOLDEN BELL LANE, GROVETOWN, GA, 30813","Match","Exact","919 GOLDEN BELL LN, GROVETOWN, GA, 30813",640759265,"R"
928900,"919 GOSHEN CHURCH ROAD","ROOPVILLE","GA",30170,33.4123446580001,-85.105015927,400,"919 GOSHEN CHURCH ROAD, ROOPVILLE, GA, 30170","Match","Exact","919 GOSHEN CHURCH RD, ROOPVILLE, GA, 30170",9415567,"R"
928901,"919 GRANDON AVE","BEXLEY","OH",43209,39.951004315,-82.926742716,401,"919 GRANDON AVE, BEXLEY, OH, 43209","Match","Exact","919 GRANDON AVE, BEXLEY, OH, 43209",135591111,"R"
928902,"919 HARRIS AVE","OKLAHOMA CITY","OK",73107,35.4757153690001,-97.599987904,402,"919 HARRIS AVE, OKLAHOMA CITY, OK, 73107","Match","Exact","919 HARRIS AVE, OKLAHOMA CITY, OK, 73107",100392033,"L"
928903,"919 HCR 3266","MOUNT CALM","TX",76673,NA,NA,403,"919 HCR 3266, MOUNT CALM, TX, 76673","No_Match",NA,NA,NA,NA
928904,"919 HENRY CLAY AVE","NEW ORLEANS","LA",70118,29.9242526670001,-90.12389723,404,"919 HENRY CLAY AVE, NEW ORLEANS, LA, 70118","Match","Exact","919 HENRY CLAY AVE, NEW ORLEANS, LA, 70118",191702436,"R"
928905,"919 HERKIMER ST","HOUSTON","TX",77008,29.7873153690001,-95.4061072059999,405,"919 HERKIMER ST, HOUSTON, TX, 77008","Match","Exact","919 HERKIMER ST, HOUSTON, TX, 77008",96060963,"L"
928906,"919 HICKORY DR","HUNTINGBURG","IN",47542,38.27976083,-86.966206662,406,"919 HICKORY DR, HUNTINGBURG, IN, 47542","Match","Exact","919 HICKORY DR, HUNTINGBURG, IN, 47542",7874085,"L"
928907,"919 HILLCREST DR","HOLLYWOOD","FL",32021,26.001573685,-80.189218717,407,"919 HILLCREST DR, HOLLYWOOD, FL, 32021","Match","Non_Exact","919 HILLCREST DR, HOLLYWOOD, FL, 33021",650098075,"L"
928908,"919 HOMER ST","NEW ORLEANS","LA",70114,29.9465152980001,-90.047000811,408,"919 HOMER ST, NEW ORLEANS, LA, 70114","Match","Exact","919 HOMER ST, NEW ORLEANS, LA, 70114",191718895,"R"
928909,"919 HUNT CLUB RUN","CHARLESTON","SC",29414,32.818494237,-80.120865324,409,"919 HUNT CLUB RUN, CHARLESTON, SC, 29414","Match","Exact","919 HUNT CLUB RUN, CHARLESTON, SC, 29414",624602461,"R"
928910,"919 J AVE","NEVADA","IA",50201,42.0206891600001,-93.447877115,410,"919 J AVE, NEVADA, IA, 50201","Match","Exact","919 J AVE, NEVADA, IA, 50201",65942772,"R"
928911,"919 JEFFERSON","SHREVEPORT","LA",71104,32.4802937440001,-93.748635303,411,"919 JEFFERSON, SHREVEPORT, LA, 71104","Match","Non_Exact","919 JEFFERSON PL, SHREVEPORT, LA, 71104",57437019,"L"
928912,"919 KAMPENGA","MUSKEGON","MI",49442,NA,NA,412,"919 KAMPENGA, MUSKEGON, MI, 49442","No_Match",NA,NA,NA,NA
928913,"919 KINGS PARK RD","MONROE","MI",48161,41.92283716,-83.4557001489999,413,"919 KINGS PARK RD, MONROE, MI, 48161","Match","Exact","919 KINGS PARK RD, MONROE, MI, 48161",40503129,"L"
928914,"919 KOSCIUSZKO AVENUE","GLEN BURNIE","MD",21060,39.151755435,-76.54724794,414,"919 KOSCIUSZKO AVENUE, GLEN BURNIE, MD, 21060","Match","Exact","919 KOSCIUSZKO AVE, GLEN BURNIE, MD, 21060",617914042,"R"
928915,"919 LAKE AVE","EDGEWATER","FL",32132,28.9817912770001,-80.910327447,415,"919 LAKE AVE, EDGEWATER, FL, 32132","Match","Exact","919 LAKE AVE, EDGEWATER, FL, 32132",94553692,"L"
928916,"919 LAKE FRONT DRIVE","MITCHELLVILLE","MD",20721,38.9009852,-76.8132971699999,416,"919 LAKE FRONT DRIVE, MITCHELLVILLE, MD, 20721","Match","Exact","919 LAKE FRONT DR, MITCHELLVILLE, MD, 20721",76354432,"L"
928917,"919 LANCELOT DRIVE","FLORENCE","SC",29505,34.1512160460001,-79.7820154519999,417,"919 LANCELOT DRIVE, FLORENCE, SC, 29505","Match","Exact","919 LANCELOT DR, FLORENCE, SC, 29505",28883673,"R"
928918,"919 LAURA DRIVE","MARION","OH",43302,40.5725673330001,-83.103801677,418,"919 LAURA DRIVE, MARION, OH, 43302","Match","Exact","919 LAURA DR, MARION, OH, 43302",12710507,"L"
928919,"919 LENOX PLACE","CINCINNATI","OH",45229,39.1539455870001,-84.4817153979999,419,"919 LENOX PLACE, CINCINNATI, OH, 45229","Match","Exact","919 LENOX PL, CINCINNATI, OH, 45229",103925649,"R"
928920,"919 LESLIE ROAD","CHARLESTON","WV",25314,38.34639889,-81.6640229879999,420,"919 LESLIE ROAD, CHARLESTON, WV, 25314","Match","Exact","919 LESLIE RD, CHARLESTON, WV, 25314",78593022,"R"
928921,"919 LIBERTY CT","DALLAS","TX",75204,32.7923574810001,-96.789911241,421,"919 LIBERTY CT, DALLAS, TX, 75204","Match","Exact","919 LIBERTY CT, DALLAS, TX, 75204",102990441,"L"
928922,"919 LILAC DRIVE NORTH","GOLDEN VALLEY","MN",55422,44.989199609,-93.3498167119999,422,"919 LILAC DRIVE NORTH, GOLDEN VALLEY, MN, 55422","Match","Exact","919 LILAC DR N, GOLDEN VALLEY, MN, 55422",640760035,"L"
928923,"919 LINDELL AVENUE","PETOSKEY","MI",49770,45.369427111,-84.946669565,423,"919 LINDELL AVENUE, PETOSKEY, MI, 49770","Match","Exact","919 LINDELL AVE, PETOSKEY, MI, 49770",133995806,"R"
928924,"919 LOVERING AVE","WILMINGTON","DE",19806,39.753256343,-75.5521402809999,424,"919 LOVERING AVE, WILMINGTON, DE, 19806","Match","Exact","919 LOVERING AVE, WILMINGTON, DE, 19806",187257626,"R"
928925,"919 LYNVUE AVE","LINTHICUM HEIGHTS","MD",21090,39.2076195820001,-76.642704991,425,"919 LYNVUE AVE, LINTHICUM HEIGHTS, MD, 21090","Match","Non_Exact","919 LYNVUE RD, LINTHICUM HEIGHTS, MD, 21090",68156221,"R"
928926,"919 MACLAY DR","SAN JOSE","CA",95123,37.2396793240001,-121.857169967,426,"919 MACLAY DR, SAN JOSE, CA, 95123","Match","Exact","919 MACLAY DR, SAN JOSE, CA, 95123",122922898,"R"
928927,"919 MAGNOLIA LN","LANCASTER","TX",75146,32.6033260880001,-96.7754137159999,427,"919 MAGNOLIA LN, LANCASTER, TX, 75146","Match","Exact","919 MAGNOLIA LN, LANCASTER, TX, 75146",102955141,"R"
928928,"919 MAIN STREET","GARDENDALE","AL",35071,33.6487038430001,-86.811250214,428,"919 MAIN STREET, GARDENDALE, AL, 35071","Match","Exact","919 MAIN ST, GARDENDALE, AL, 35071",81563606,"R"
928929,"919 MANOR DRIVE","TACOMA","WA",98446,47.2261813200001,-122.516452313,429,"919 MANOR DRIVE, TACOMA, WA, 98446","Match","Non_Exact","919 MANOR DR, TACOMA, WA, 98466",184619707,"L"
928930,"919 MANSARD DR APT 107","BIRMINGHAM","AL",35209,33.4791458890001,-86.811061399,430,"919 MANSARD DR APT 107, BIRMINGHAM, AL, 35209","Match","Exact","919 MANSARD DR, BIRMINGHAM, AL, 35209",81581431,"R"
928931,"919 MAUMEE AVE","MANSFIELD","OH",44906,40.7540229420001,-82.550039154,431,"919 MAUMEE AVE, MANSFIELD, OH, 44906","Match","Exact","919 MAUMEE AVE, MANSFIELD, OH, 44906",12831803,"L"
928932,"919 MCFARLANE AVE","SEBASTOPOL","CA",95472,38.391779737,-122.824911337,432,"919 MCFARLANE AVE, SEBASTOPOL, CA, 95472","Match","Exact","919 MCFARLANE AVE, SEBASTOPOL, CA, 95472",67508123,"L"
928933,"919 MERRIFIELD STREET SE","GRAND RAPIDS","MI",49507,42.924797583,-85.645017267,433,"919 MERRIFIELD STREET SE, GRAND RAPIDS, MI, 49507","Match","Exact","919 MERRIFIELD ST SE, GRAND RAPIDS, MI, 49507",12462172,"L"
928934,"919 MIAMI CHAPEL ROAD","DAYTON","OH",45417,39.738125473,-84.210210182,434,"919 MIAMI CHAPEL ROAD, DAYTON, OH, 45417","Match","Exact","919 MIAMI CHAPEL RD, DAYTON, OH, 45417",143570984,"R"
928935,"919 MORNINGSIDE DR","LEBANON","IN",46052,40.0543924930001,-86.456670135,435,"919 MORNINGSIDE DR, LEBANON, IN, 46052","Match","Exact","919 MORNINGSIDE DR, LEBANON, IN, 46052",29256063,"R"
928936,"919 MOUNTAIN VIEW CT","REEDSPORT","OR",97467,NA,NA,436,"919 MOUNTAIN VIEW CT, REEDSPORT, OR, 97467","No_Match",NA,NA,NA,NA
928937,"919 MOWRY AVE APT 9","FREMONT","CA",94536,NA,NA,437,"919 MOWRY AVE APT 9, FREMONT, CA, 94536","No_Match",NA,NA,NA,NA
928938,"919 MOWRY AVE","FREMONT","CA",94536,NA,NA,438,"919 MOWRY AVE, FREMONT, CA, 94536","No_Match",NA,NA,NA,NA
928939,"919 MURRAH FOREST","NORTH AUGUSTA","SC",29860,NA,NA,439,"919 MURRAH FOREST, NORTH AUGUSTA, SC, 29860","Tie",NA,NA,NA,NA
928940,"919 MYRTLE AVE    APT 11L","BRROKLYN","NY",11203,40.6958378050001,-73.9452619259999,440,"919 MYRTLE AVE    APT 11L, BRROKLYN, NY, 11203","Match","Non_Exact","919 MYRTLE AVE, BROOKLYN, NY, 11206",650067155,"L"
928941,"919 N 1ST ST","PHOENIX","AZ",85004,33.457897459,-112.072524839,441,"919 N 1ST ST, PHOENIX, AZ, 85004","Match","Exact","919 N 1ST ST, PHOENIX, AZ, 85004",128213414,"R"
928942,"919 N 21","BOISE","ID",83702,43.6288707420001,-116.214507248,442,"919 N 21, BOISE, ID, 83702","Match","Non_Exact","919 N 21ST ST, BOISE, ID, 83702",117859591,"L"
928943,"919 N 2ND STREET","GUTTENBERG","IA",52052,42.7956188220001,-91.101894138,443,"919 N 2ND STREET, GUTTENBERG, IA, 52052","Match","Exact","919 N 2ND ST, GUTTENBERG, IA, 52052",48478754,"R"
928944,"919 N NAID ST","GRAND SALINE","TX",75140,32.681007607,-95.711587545,444,"919 N NAID ST, GRAND SALINE, TX, 75140","Match","Exact","919 N NAID ST, GRAND SALINE, TX, 75140",42917312,"L"
928945,"919 N PEAK","DALLAS","TX",75204,32.795431883,-96.775371977,445,"919 N PEAK, DALLAS, TX, 75204","Match","Non_Exact","919 N PEAK ST, DALLAS, TX, 75204",652308272,"L"
928946,"919 N WAHSATCH AVE","COLORADO SPRINGS","CO",90908,NA,NA,446,"919 N WAHSATCH AVE, COLORADO SPRINGS, CO, 90908","No_Match",NA,NA,NA,NA
928947,"919 N WALLER AVE","CHICAGO","IL",60651,41.8970746520001,-87.767894373,447,"919 N WALLER AVE, CHICAGO, IL, 60651","Match","Exact","919 N WALLER AVE, CHICAGO, IL, 60651",111754041,"R"
928948,"919 N WALLER","CHICAGO","IL",60651,41.8970746520001,-87.767894373,448,"919 N WALLER, CHICAGO, IL, 60651","Match","Non_Exact","919 N WALLER AVE, CHICAGO, IL, 60651",111754041,"R"
928949,"919 N WALNUT ST","COATESVILLE","PA",18320,NA,NA,449,"919 N WALNUT ST, COATESVILLE, PA, 18320","Tie",NA,NA,NA,NA
928950,"919 N WALNUT ST","COATESVILLE","PA",19320,NA,NA,450,"919 N WALNUT ST, COATESVILLE, PA, 19320","Tie",NA,NA,NA,NA
928951,"919 NE 9TH ST","OCALA","FL",34470,29.1956881730001,-82.1283968769999,451,"919 NE 9TH ST, OCALA, FL, 34470","Match","Exact","919 NE 9TH ST, OCALA, FL, 34470",116725668,"L"
928952,"919 NE ORCHARD DR","MYRTLE CREEK","OR",97457,43.029741099,-123.286347689,452,"919 NE ORCHARD DR, MYRTLE CREEK, OR, 97457","Match","Exact","919 ORCHARD DR, MYRTLE CREEK, OR, 97457",137235310,"R"
928953,"919 NORTH BROAD STREET","ELIZABETH","NJ",7208,40.686054332,-74.2146241089999,453,"919 NORTH BROAD STREET, ELIZABETH, NJ, 7208","Match","Exact","919 N BROAD ST, ELIZABETH, NJ, 07208",60577818,"R"
928954,"919 NORTH CASS ST APT B","CORINTH","MS",38834,34.9378249320001,-88.515602041,454,"919 NORTH CASS ST APT B, CORINTH, MS, 38834","Match","Exact","919 N CASS ST, CORINTH, MS, 38834",91048835,"L"
928955,"919 NORTH CHUCKY PIKE","JEFFERSON CITY","TN",37760,36.1238032700001,-83.456860059,455,"919 NORTH CHUCKY PIKE, JEFFERSON CITY, TN, 37760","Match","Exact","919 N CHUCKY PIKE, JEFFERSON CITY, TN, 37760",42566047,"L"
928956,"919 NORTH CHUCKY PIKE","JEFFERSON CITY","TN",37814,36.1238032700001,-83.456860059,456,"919 NORTH CHUCKY PIKE, JEFFERSON CITY, TN, 37814","Match","Non_Exact","919 N CHUCKY PIKE, JEFFERSON CITY, TN, 37760",42566047,"L"
928957,"919 NORTH HARPER UNIT 14","WEST HOLLYWOOD","CA",90046,34.0874713810001,-118.369081772,457,"919 NORTH HARPER UNIT 14, WEST HOLLYWOOD, CA, 90046","Match","Non_Exact","919 N HARPER AVE, W HOLLYWOOD, CA, 90046",141598038,"L"
928958,"919 NORTH JEFFERSON","SAINT LOUIS","MO",63106,38.638078315,-90.2128198939999,458,"919 NORTH JEFFERSON, SAINT LOUIS, MO, 63106","Match","Non_Exact","919 N JEFFERSON AVE, SAINT LOUIS, MO, 63106",107604337,"L"
928959,"919 NORTH MARKET ST STE 950","WILMINGTON","DE",19801,39.744883015,-75.548268407,459,"919 NORTH MARKET ST STE 950, WILMINGTON, DE, 19801","Match","Exact","919 N MARKET ST, WILMINGTON, DE, 19801",187257882,"L"
928960,"919 NORTH MARKET STREET SUITE 950","WILMINGTON","DE",19801,39.744883015,-75.548268407,460,"919 NORTH MARKET STREET SUITE 950, WILMINGTON, DE, 19801","Match","Exact","919 N MARKET ST, WILMINGTON, DE, 19801",187257882,"L"
928961,"919 NORTH MARKET STREET","WILMINGTON","DE",19801,39.744883015,-75.548268407,461,"919 NORTH MARKET STREET, WILMINGTON, DE, 19801","Match","Exact","919 N MARKET ST, WILMINGTON, DE, 19801",187257882,"L"
928962,"919 NORTH PRAIRIE AVE","JOLIET","IL",60435,41.5400423130001,-88.1025671789999,462,"919 NORTH PRAIRIE AVE, JOLIET, IL, 60435","Match","Exact","919 N PRAIRIE AVE, JOLIET, IL, 60435",111540655,"L"
928963,"919 NORTH PRAIRIE","JOLIET","IL",60435,41.5400423130001,-88.1025671789999,463,"919 NORTH PRAIRIE, JOLIET, IL, 60435","Match","Non_Exact","919 N PRAIRIE AVE, JOLIET, IL, 60435",111540655,"L"
928964,"919 NORTH WALNUT ST","COATESVILLE","PA",19320,39.986356324,-75.847481429,464,"919 NORTH WALNUT ST, COATESVILLE, PA, 19320","Match","Exact","919 N WALNUT ST, COATESVILLE, PA, 19320",179479829,"R"
928965,"919 NORTHWIND DRIVE","WINSTON-SALEM","NC",27127,35.9886238620001,-80.238660194,465,"919 NORTHWIND DRIVE, WINSTON-SALEM, NC, 27127","Match","Exact","919 NORTHWIND DR, WINSTON SALEM, NC, 27127",20221923,"L"
928966,"919 NW 2ND AVE APT 704","MIAMI","FL",33136,25.782918517,-80.198011822,466,"919 NW 2ND AVE APT 704, MIAMI, FL, 33136","Match","Non_Exact","919 NW 2ND AVE, MIAMI, FL, 33136",116017766,"R"
928967,"919 OAK ST","HOUSTON","TX",77018,29.835589021,-95.414590613,467,"919 OAK ST, HOUSTON, TX, 77018","Match","Exact","919 OAK ST, HOUSTON, TX, 77018",96054756,"L"
928968,"919 OAKVILLE CROSS RD","OAKVILLE","CA",94562,NA,NA,468,"919 OAKVILLE CROSS RD, OAKVILLE, CA, 94562","No_Match",NA,NA,NA,NA
928969,"919 OLD BAILEYTON RD","AFTON","TN",37616,36.2600462670001,-82.817146489,469,"919 OLD BAILEYTON RD, AFTON, TN, 37616","Match","Exact","919 OLD BAILEYTON RD, AFTON, TN, 37616",652878496,"L"
928970,"919 OLDE STATION COURT","FAIRFIELD","OH",45014,39.3144330710001,-84.496160314,470,"919 OLDE STATION COURT, FAIRFIELD, OH, 45014","Match","Exact","919 OLDE STATION, FAIRFIELD, OH, 45014",604774247,"R"
928971,"919 OLIVERS CT","LAWRENCE","KS",66044,38.956472961,-95.225135057,471,"919 OLIVERS CT, LAWRENCE, KS, 66044","Match","Non_Exact","919 OLIVER'S CT, LAWRENCE, KS, 66044",618064668,"R"
928972,"919 ORIOLE DRIVE","LAGUNA BEACH","CA",92651,33.536604991,-117.766156102,472,"919 ORIOLE DRIVE, LAGUNA BEACH, CA, 92651","Match","Exact","919 ORIOLE DR, LAGUNA BEACH, CA, 92651",609045958,"R"
928973,"919 OXMOOR ROAD APT 301","BIRMINGHAM","AL",35209,33.4735470690001,-86.8090518449999,473,"919 OXMOOR ROAD APT 301, BIRMINGHAM, AL, 35209","Match","Exact","919 OXMOOR RD, BIRMINGHAM, AL, 35209",81581466,"R"
928974,"919 PANORAMA DRIVE","BAKERSFIELD","CA",93305,35.409055731,-118.984796799,474,"919 PANORAMA DRIVE, BAKERSFIELD, CA, 93305","Match","Exact","919 PANORAMA DR, BAKERSFIELD, CA, 93305",109094272,"R"
928975,"919 PARK PLACE 2L","BROOKLYN","NY",11213,40.6732660220001,-73.947172032,475,"919 PARK PLACE 2L, BROOKLYN, NY, 11213","Match","Exact","919 PARK PL, BROOKLYN, NY, 11213",59079439,"L"
928976,"919 PATER","BRAWLEY","CA",92227,32.9882357390001,-115.539406218,476,"919 PATER, BRAWLEY, CA, 92227","Match","Non_Exact","919 PATER ST, BRAWLEY, CA, 92227",194530345,"R"
928977,"919 PHEASANT RUN","NEWARK","DE",19711,39.6844790820001,-75.7765733699999,477,"919 PHEASANT RUN, NEWARK, DE, 19711","Match","Exact","919 PHEASANT RUN, NEWARK, DE, 19711",187251583,"L"
928978,"919 PINE HAVEN DRIVE","HUEYTOWN","AL",35023,33.4382041760001,-86.999887955,478,"919 PINE HAVEN DRIVE, HUEYTOWN, AL, 35023","Match","Non_Exact","919 PINEHAVEN DR, HUEYTOWN, AL, 35023",81546360,"R"
928979,"919 PINE STREET","BOULDER","CO",80302,40.0191873250001,-105.284071441,479,"919 PINE STREET, BOULDER, CO, 80302","Match","Exact","919 PINE ST, BOULDER, CO, 80302",188159477,"L"
928980,"919 POWELL DR","GARNER","NC",27529,35.7151820660001,-78.614723431,480,"919 POWELL DR, GARNER, NC, 27529","Match","Exact","919 POWELL DR, GARNER, NC, 27529",72511643,"L"
928981,"919 POWERS STREET","OSHKOSH","WI",54901,44.0284015870001,-88.529451604,481,"919 POWERS STREET, OSHKOSH, WI, 54901","Match","Exact","919 POWERS ST, OSHKOSH, WI, 54901",74490608,"L"
928982,"919 PRAIRIE SMOKE LN","DUNCANVILLE","TX",75137,32.642567892,-96.917768601,482,"919 PRAIRIE SMOKE LN, DUNCANVILLE, TX, 75137","Match","Exact","919 PRAIRIE SMOKE LN, DUNCANVILLE, TX, 75137",103179141,"L"
928983,"919 QUAIL CREEK DRIVE","GRAND PRAIRIE","TX",75052,32.704870493,-97.017690881,483,"919 QUAIL CREEK DRIVE, GRAND PRAIRIE, TX, 75052","Match","Exact","919 QUAIL CREEK DR, GRAND PRAIRIE, TX, 75052",617670177,"L"
928984,"919 QUEENSDALE DRIVE","CARY","NC",27519,35.8208474960001,-78.92271427,484,"919 QUEENSDALE DRIVE, CARY, NC, 27519","Match","Exact","919 QUEENSDALE DR, CARY, NC, 27519",648328440,"R"
928985,"919 RAMOS DRIVE","LADY LAKE","FL",32159,28.9363722640001,-81.962534783,485,"919 RAMOS DRIVE, LADY LAKE, FL, 32159","Match","Exact","919 RAMOS DR, LADY LAKE, FL, 32159",618384296,"L"
928986,"919 REYNOLDS DRIVE","SHERIDAN","AR",72150,34.2942645140001,-92.409983518,486,"919 REYNOLDS DRIVE, SHERIDAN, AR, 72150","Match","Exact","919 REYNOLDS DR, SHERIDAN, AR, 72150",2497009,"L"
928987,"919 RICHARDSON COURT","CHEYENNE","WY",82001,41.1424063360001,-104.832557709,487,"919 RICHARDSON COURT, CHEYENNE, WY, 82001","Match","Exact","919 RICHARDSON CT, CHEYENNE, WY, 82001",636255636,"L"
928988,"919 RIDGE DR 11-03","DEKALB","IL",60115,41.9485433900001,-88.768592815,488,"919 RIDGE DR 11-03, DEKALB, IL, 60115","Match","Exact","919 RIDGE DR, DEKALB, IL, 60115",642646949,"L"
928989,"919 RIVER OAKS LANE","CHARLOTTE","NC",28226,35.1301585470001,-80.789143876,489,"919 RIVER OAKS LANE, CHARLOTTE, NC, 28226","Match","Exact","919 RIVER OAKS LN, CHARLOTTE, NC, 28226",70492961,"L"
928990,"919 ROAMING ROAD","ALLEN","TX",75002,33.097112462,-96.6479358829999,490,"919 ROAMING ROAD, ALLEN, TX, 75002","Match","Non_Exact","919 ROAMING ROAD DR, ALLEN, TX, 75002",123495294,"L"
928991,"919 RUMLEY AVENUE","DEFOREST","WI",53532,43.2353293400001,-89.331388622,491,"919 RUMLEY AVENUE, DEFOREST, WI, 53532","Match","Non_Exact","919 RUMLEY RUN, DEFOREST, WI, 53532",627375757,"L"
928992,"919 RUTTER AVE","LANCASTER","OH",43130,39.7239350610001,-82.586262973,492,"919 RUTTER AVE, LANCASTER, OH, 43130","Match","Exact","919 RUTTER AVE, LANCASTER, OH, 43130",647373930,"L"
928993,"919 S 37TH ST","MANITOWOC","WI",54220,44.0901647760001,-87.692926676,493,"919 S 37TH ST, MANITOWOC, WI, 54220","Match","Exact","919 S 37TH ST, MANITOWOC, WI, 54220",147949123,"L"
928994,"919 S ARDMORE AVE UNIT 4","LOS ANGELES","CA",90006,34.0551854920001,-118.301979524,494,"919 S ARDMORE AVE UNIT 4, LOS ANGELES, CA, 90006","Match","Non_Exact","919 S ARDMORE AVE, LOS ANGELES, CA, 90006",141604036,"R"
928995,"919 S CENTRAL AVE","FAIRBORN","OH",45324,NA,NA,495,"919 S CENTRAL AVE, FAIRBORN, OH, 45324","Tie",NA,NA,NA,NA
928996,"919 S QUINCY ST","GREEN BAY","WI",54301,44.5012588230001,-88.016371444,496,"919 S QUINCY ST, GREEN BAY, WI, 54301","Match","Exact","919 S QUINCY ST, GREEN BAY, WI, 54301",148100955,"L"
928997,"919 S UTAH ST","ARLINGTON","VA",22204,38.8595725490001,-77.105973805,497,"919 S UTAH ST, ARLINGTON, VA, 22204","Match","Exact","919 S UTAH ST, ARLINGTON, VA, 22204",76471302,"L"
928998,"919 SADDLE DR","HELENA","MT",59601,46.5759886540001,-111.990815626,498,"919 SADDLE DR, HELENA, MT, 59601","Match","Exact","919 SADDLE DR, HELENA, MT, 59601",202364706,"L"
928999,"919 SAINT GERMAIN ROAD","CHULA VISTA","CA",91913,32.6477897180001,-116.973177404,499,"919 SAINT GERMAIN ROAD, CHULA VISTA, CA, 91913","Match","Exact","919 SAINT GERMAIN RD, CHULA VISTA, CA, 91913",195663834,"R"
929000,"919 SANDCHERRY WAY","JACKSON","WY",83001,NA,NA,500,"919 SANDCHERRY WAY, JACKSON, WY, 83001","No_Match",NA,NA,NA,NA
