"ID","Address","City","State","Zip","lat","long","id","input_address","match_indicator","match_type","matched_address","tiger_line_id","tiger_side"
975501,"PO BOX 174","BARBOURVILLE","KY",40906,NA,NA,1,"PO BOX 174, BARBOURVILLE, KY, 40906","No_Match",NA,NA,NA,NA
975502,"PO BOX 174","CHADRON","NE",69337,NA,NA,2,"PO BOX 174, CHADRON, NE, 69337","No_Match",NA,NA,NA,NA
975503,"PO BOX 174","CHATFIELD","TX",75105,NA,NA,3,"PO BOX 174, CHATFIELD, TX, 75105","No_Match",NA,NA,NA,NA
975504,"PO BOX 174","CLEVELAND","MS",38732,NA,NA,4,"PO BOX 174, CLEVELAND, MS, 38732","No_Match",NA,NA,NA,NA
975505,"PO BOX 174","DELTA JUNCTION","AK",99737,NA,NA,5,"PO BOX 174, DELTA JUNCTION, AK, 99737","No_Match",NA,NA,NA,NA
975506,"PO BOX 174","DOWNIEVILLE","CA",95936,NA,NA,6,"PO BOX 174, DOWNIEVILLE, CA, 95936","No_Match",NA,NA,NA,NA
975507,"PO BOX 174","FISHERS","IN",46038,NA,NA,7,"PO BOX 174, FISHERS, IN, 46038","No_Match",NA,NA,NA,NA
975508,"PO BOX 174","GATESVILLE","TX",76528,NA,NA,8,"PO BOX 174, GATESVILLE, TX, 76528","No_Match",NA,NA,NA,NA
975509,"PO BOX 174","GLENFORD","OH",43739,NA,NA,9,"PO BOX 174, GLENFORD, OH, 43739","No_Match",NA,NA,NA,NA
975510,"PO BOX 174","GREENFIELD","MO",65661,NA,NA,10,"PO BOX 174, GREENFIELD, MO, 65661","No_Match",NA,NA,NA,NA
975511,"PO Box 174","Hamilton","MT",59840,NA,NA,11,"PO Box 174, Hamilton, MT, 59840","No_Match",NA,NA,NA,NA
975512,"PO BOX 174","HEMPHILL","TX",75948,NA,NA,12,"PO BOX 174, HEMPHILL, TX, 75948","No_Match",NA,NA,NA,NA
975513,"PO BOX 174","HUMBOLDT","IA",50548,NA,NA,13,"PO BOX 174, HUMBOLDT, IA, 50548","No_Match",NA,NA,NA,NA
975514,"PO BOX 174","JERSEY CITY","NJ",7303,NA,NA,14,"PO BOX 174, JERSEY CITY, NJ, 7303","No_Match",NA,NA,NA,NA
975515,"PO BOX 174","LEWISBERRY","PA",17339,NA,NA,15,"PO BOX 174, LEWISBERRY, PA, 17339","No_Match",NA,NA,NA,NA
975516,"PO BOX 174","LIVINGSTON","MT",59047,NA,NA,16,"PO BOX 174, LIVINGSTON, MT, 59047","No_Match",NA,NA,NA,NA
975517,"PO BOX 174","MENARD","TX",76859,NA,NA,17,"PO BOX 174, MENARD, TX, 76859","No_Match",NA,NA,NA,NA
975518,"PO BOX 174","MILFORD","TX",76670,NA,NA,18,"PO BOX 174, MILFORD, TX, 76670","No_Match",NA,NA,NA,NA
975519,"PO BOX 174","NASH","TX",75569,NA,NA,19,"PO BOX 174, NASH, TX, 75569","No_Match",NA,NA,NA,NA
975520,"PO BOX 174","NEOTSU","OR",97364,NA,NA,20,"PO BOX 174, NEOTSU, OR, 97364","No_Match",NA,NA,NA,NA
975521,"PO BOX 174","PORT HAYWOOD","VA",23138,NA,NA,21,"PO BOX 174, PORT HAYWOOD, VA, 23138","No_Match",NA,NA,NA,NA
975522,"PO BOX 174","SOUTH LEE","MA",1260,NA,NA,22,"PO BOX 174, SOUTH LEE, MA, 1260","No_Match",NA,NA,NA,NA
975523,"PO BOX 174","SPRING HILL","TN",37174,NA,NA,23,"PO BOX 174, SPRING HILL, TN, 37174","No_Match",NA,NA,NA,NA
975524,"PO BOX 174","ST JOHN","VI",831,NA,NA,24,"PO BOX 174, ST JOHN, VI, 831","No_Match",NA,NA,NA,NA
975525,"PO BOX 174","STUTTGART","AR",72160,NA,NA,25,"PO BOX 174, STUTTGART, AR, 72160","No_Match",NA,NA,NA,NA
975526,"PO BOX 174","WAIMEA","HI",96796,NA,NA,26,"PO BOX 174, WAIMEA, HI, 96796","No_Match",NA,NA,NA,NA
975527,"PO BOX 174","WATERBURY","VT",5676,NA,NA,27,"PO BOX 174, WATERBURY, VT, 5676","No_Match",NA,NA,NA,NA
975528,"PO BOX 1740","CARNELIAN BAY","CA",96140,NA,NA,28,"PO BOX 1740, CARNELIAN BAY, CA, 96140","No_Match",NA,NA,NA,NA
975529,"PO BOX 1740","STANTON","TX",79782,NA,NA,29,"PO BOX 1740, STANTON, TX, 79782","No_Match",NA,NA,NA,NA
975530,"PO BOX 1741","ALAMOSA","CO",81101,NA,NA,30,"PO BOX 1741, ALAMOSA, CO, 81101","No_Match",NA,NA,NA,NA
975531,"PO BOX 1741","MANOMET","MA",2345,NA,NA,31,"PO BOX 1741, MANOMET, MA, 2345","No_Match",NA,NA,NA,NA
975532,"PO BOX 1741","MONROE","NC",28111,NA,NA,32,"PO BOX 1741, MONROE, NC, 28111","No_Match",NA,NA,NA,NA
975533,"PO BOX 1741","SEWARD","AK",99664,NA,NA,33,"PO BOX 1741, SEWARD, AK, 99664","No_Match",NA,NA,NA,NA
975534,"PO BOX 1741","WENATCHEE","WA",98807,NA,NA,34,"PO BOX 1741, WENATCHEE, WA, 98807","No_Match",NA,NA,NA,NA
975535,"PO BOX 174195","ARLINGTON","TX",76003,NA,NA,35,"PO BOX 174195, ARLINGTON, TX, 76003","No_Match",NA,NA,NA,NA
975536,"PO BOX 1742","BILLINGS","MT",59102,NA,NA,36,"PO BOX 1742, BILLINGS, MT, 59102","No_Match",NA,NA,NA,NA
975537,"PO BOX 1742","CHATTANOOGA","TN",37401,NA,NA,37,"PO BOX 1742, CHATTANOOGA, TN, 37401","No_Match",NA,NA,NA,NA
975538,"PO BOX 1742","LIHUE","HI",96766,NA,NA,38,"PO BOX 1742, LIHUE, HI, 96766","No_Match",NA,NA,NA,NA
975539,"PO BOX 1742","MARINA","CA",93933,NA,NA,39,"PO BOX 1742, MARINA, CA, 93933","No_Match",NA,NA,NA,NA
975540,"PO BOX 1742","PAHOA","HI",96778,NA,NA,40,"PO BOX 1742, PAHOA, HI, 96778","No_Match",NA,NA,NA,NA
975541,"PO BOX 1742","SOUTHERN PINES","NC",28388,NA,NA,41,"PO BOX 1742, SOUTHERN PINES, NC, 28388","No_Match",NA,NA,NA,NA
975542,"PO BOX 17420","PORTLAND","OR",97217,NA,NA,42,"PO BOX 17420, PORTLAND, OR, 97217","No_Match",NA,NA,NA,NA
975543,"PO BOX 174200","BOZEMAN","MT",59717,NA,NA,43,"PO BOX 174200, BOZEMAN, MT, 59717","No_Match",NA,NA,NA,NA
975544,"PO BOX 17428","WEST PALM BEACH","FL",33416,NA,NA,44,"PO BOX 17428, WEST PALM BEACH, FL, 33416","No_Match",NA,NA,NA,NA
975545,"PO BOX 1743","GIRDWOOD","AK",99587,NA,NA,45,"PO BOX 1743, GIRDWOOD, AK, 99587","No_Match",NA,NA,NA,NA
975546,"PO BOX 1743","TULSA","OK",74101,NA,NA,46,"PO BOX 1743, TULSA, OK, 74101","No_Match",NA,NA,NA,NA
975547,"PO BOX 17436","LOUISVILLE","KY",40217,NA,NA,47,"PO BOX 17436, LOUISVILLE, KY, 40217","No_Match",NA,NA,NA,NA
975548,"PO BOX 1744","AKRON","OH",44309,NA,NA,48,"PO BOX 1744, AKRON, OH, 44309","No_Match",NA,NA,NA,NA
975549,"PO BOX 1744","ELK GROVE","CA",95759,NA,NA,49,"PO BOX 1744, ELK GROVE, CA, 95759","No_Match",NA,NA,NA,NA
975550,"PO BOX 1744","SANTA CRUZ","NM",87567,NA,NA,50,"PO BOX 1744, SANTA CRUZ, NM, 87567","No_Match",NA,NA,NA,NA
975551,"PO BOX 1744","WILMINGTON","DE",19899,NA,NA,51,"PO BOX 1744, WILMINGTON, DE, 19899","No_Match",NA,NA,NA,NA
975552,"PO BOX 1745","GREENSBORO","NC",27402,NA,NA,52,"PO BOX 1745, GREENSBORO, NC, 27402","No_Match",NA,NA,NA,NA
975553,"PO BOX 1745","PAGO PAGO","AS",96799,NA,NA,53,"PO BOX 1745, PAGO PAGO, AS, 96799","No_Match",NA,NA,NA,NA
975554,"PO BOX 17459","LONG BEACH","CA",90807,NA,NA,54,"PO BOX 17459, LONG BEACH, CA, 90807","No_Match",NA,NA,NA,NA
975555,"PO BOX 1746","CHARLESTON","WV",25326,NA,NA,55,"PO BOX 1746, CHARLESTON, WV, 25326","No_Match",NA,NA,NA,NA
975556,"PO BOX 1746","GOLD BEACH","OR",97444,NA,NA,56,"PO BOX 1746, GOLD BEACH, OR, 97444","No_Match",NA,NA,NA,NA
975557,"PO BOX 1746","PALESTINE","TX",75802,NA,NA,57,"PO BOX 1746, PALESTINE, TX, 75802","No_Match",NA,NA,NA,NA
975558,"PO BOX 1746","WHITE SALMON","WA",98672,NA,NA,58,"PO BOX 1746, WHITE SALMON, WA, 98672","No_Match",NA,NA,NA,NA
975559,"PO BOX 17464","HATTIESBURG","MS",39404,NA,NA,59,"PO BOX 17464, HATTIESBURG, MS, 39404","No_Match",NA,NA,NA,NA
975560,"PO BOX 1747","BATON ROUGE","LA",70821,NA,NA,60,"PO BOX 1747, BATON ROUGE, LA, 70821","No_Match",NA,NA,NA,NA
975561,"PO BOX 1747","KOLOA","HI",96756,NA,NA,61,"PO BOX 1747, KOLOA, HI, 96756","No_Match",NA,NA,NA,NA
975562,"PO BOX 1747","SANTA CRUZ","NM",87567,NA,NA,62,"PO BOX 1747, SANTA CRUZ, NM, 87567","No_Match",NA,NA,NA,NA
975563,"PO BOX 17471","SUGAR LAND","TX",77496,NA,NA,63,"PO BOX 17471, SUGAR LAND, TX, 77496","No_Match",NA,NA,NA,NA
975564,"PO BOX 1748","PROGRESO","TX",78579,NA,NA,64,"PO BOX 1748, PROGRESO, TX, 78579","No_Match",NA,NA,NA,NA
975565,"PO BOX 1748","SNOQUALMIE","WA",98065,NA,NA,65,"PO BOX 1748, SNOQUALMIE, WA, 98065","No_Match",NA,NA,NA,NA
975566,"PO BOX 1749","BRANDON","MS",39043,NA,NA,66,"PO BOX 1749, BRANDON, MS, 39043","No_Match",NA,NA,NA,NA
975567,"PO BOX 1749","DELTA JUNCTION","AK",99737,NA,NA,67,"PO BOX 1749, DELTA JUNCTION, AK, 99737","No_Match",NA,NA,NA,NA
975568,"PO BOX 1749","MONTEREY","CA",93942,NA,NA,68,"PO BOX 1749, MONTEREY, CA, 93942","No_Match",NA,NA,NA,NA
975569,"PO BOX 175","ABINGDON","VA",24212,NA,NA,69,"PO BOX 175, ABINGDON, VA, 24212","No_Match",NA,NA,NA,NA
975570,"PO BOX 175","ALFRED","ME",4002,NA,NA,70,"PO BOX 175, ALFRED, ME, 4002","No_Match",NA,NA,NA,NA
975571,"PO BOX 175","ALTAMONT","NY",12009,NA,NA,71,"PO BOX 175, ALTAMONT, NY, 12009","No_Match",NA,NA,NA,NA
975572,"PO BOX 175","AMELIA","LA",70340,NA,NA,72,"PO BOX 175, AMELIA, LA, 70340","No_Match",NA,NA,NA,NA
975573,"PO BOX 175","AMO","IN",46103,NA,NA,73,"PO BOX 175, AMO, IN, 46103","No_Match",NA,NA,NA,NA
975574,"PO BOX 175","ARLINGTON","OR",97812,NA,NA,74,"PO BOX 175, ARLINGTON, OR, 97812","No_Match",NA,NA,NA,NA
975575,"PO BOX 175","ASHLAND","AL",36251,NA,NA,75,"PO BOX 175, ASHLAND, AL, 36251","No_Match",NA,NA,NA,NA
975576,"PO BOX 175","ATHENA","OR",97813,NA,NA,76,"PO BOX 175, ATHENA, OR, 97813","No_Match",NA,NA,NA,NA
975577,"PO BOX 175","BAHAMA","NC",27503,NA,NA,77,"PO BOX 175, BAHAMA, NC, 27503","No_Match",NA,NA,NA,NA
975578,"PO BOX 175","BOLTON","MS",39041,NA,NA,78,"PO BOX 175, BOLTON, MS, 39041","No_Match",NA,NA,NA,NA
975579,"PO BOX 175","DENVER","NC",28037,NA,NA,79,"PO BOX 175, DENVER, NC, 28037","No_Match",NA,NA,NA,NA
975580,"PO BOX 175","GRAND RAPIDS","OH",43522,NA,NA,80,"PO BOX 175, GRAND RAPIDS, OH, 43522","No_Match",NA,NA,NA,NA
975581,"PO BOX 175","LAKESIDE","OR",97449,NA,NA,81,"PO BOX 175, LAKESIDE, OR, 97449","No_Match",NA,NA,NA,NA
975582,"PO BOX 175","LANCASTER","WI",53813,NA,NA,82,"PO BOX 175, LANCASTER, WI, 53813","No_Match",NA,NA,NA,NA
975583,"PO BOX 175","LEAGUE CITY","TX",77573,NA,NA,83,"PO BOX 175, LEAGUE CITY, TX, 77573","No_Match",NA,NA,NA,NA
975584,"PO BOX 175","LONGS","SC",29568,NA,NA,84,"PO BOX 175, LONGS, SC, 29568","No_Match",NA,NA,NA,NA
975585,"PO BOX 175","MEADVILLE","MS",39653,NA,NA,85,"PO BOX 175, MEADVILLE, MS, 39653","No_Match",NA,NA,NA,NA
975586,"PO BOX 175","NEWNAN","GA",30264,NA,NA,86,"PO BOX 175, NEWNAN, GA, 30264","No_Match",NA,NA,NA,NA
975587,"PO BOX 175","PALISADE","CO",81526,NA,NA,87,"PO BOX 175, PALISADE, CO, 81526","No_Match",NA,NA,NA,NA
975588,"PO BOX 175","PEMBROKE","VA",24136,NA,NA,88,"PO BOX 175, PEMBROKE, VA, 24136","No_Match",NA,NA,NA,NA
975589,"PO BOX 175","PREMONT","TX",78375,NA,NA,89,"PO BOX 175, PREMONT, TX, 78375","No_Match",NA,NA,NA,NA
975590,"PO BOX 175","QUINCY","CA",95971,NA,NA,90,"PO BOX 175, QUINCY, CA, 95971","No_Match",NA,NA,NA,NA
975591,"PO BOX 175","REBECCA","GA",31783,NA,NA,91,"PO BOX 175, REBECCA, GA, 31783","No_Match",NA,NA,NA,NA
975592,"PO BOX 175","SILVER CITY","NM",88061,NA,NA,92,"PO BOX 175, SILVER CITY, NM, 88061","No_Match",NA,NA,NA,NA
975593,"PO BOX 175","VILONIA","AR",72173,NA,NA,93,"PO BOX 175, VILONIA, AR, 72173","No_Match",NA,NA,NA,NA
975594,"PO BOX 175","WALSTONBURG","NC",27888,NA,NA,94,"PO BOX 175, WALSTONBURG, NC, 27888","No_Match",NA,NA,NA,NA
975595,"PO BOX 175","WAR","WV",24892,NA,NA,95,"PO BOX 175, WAR, WV, 24892","No_Match",NA,NA,NA,NA
975596,"PO BOX 175","WASHINGTON","NC",27889,NA,NA,96,"PO BOX 175, WASHINGTON, NC, 27889","No_Match",NA,NA,NA,NA
975597,"PO BOX 175","WHITELAND","IN",46184,NA,NA,97,"PO BOX 175, WHITELAND, IN, 46184","No_Match",NA,NA,NA,NA
975598,"PO BOX 175","WINDSOR","CT",6095,NA,NA,98,"PO BOX 175, WINDSOR, CT, 6095","No_Match",NA,NA,NA,NA
975599,"PO BOX 1750","CASTLE ROCK","CO",80104,NA,NA,99,"PO BOX 1750, CASTLE ROCK, CO, 80104","No_Match",NA,NA,NA,NA
975600,"PO BOX 1750","CLINTON","OK",73601,NA,NA,100,"PO BOX 1750, CLINTON, OK, 73601","No_Match",NA,NA,NA,NA
975601,"PO BOX 1750","FRITCH","TX",79036,NA,NA,101,"PO BOX 1750, FRITCH, TX, 79036","No_Match",NA,NA,NA,NA
975602,"PO BOX 1750","RINCON","PR",677,NA,NA,102,"PO BOX 1750, RINCON, PR, 677","No_Match",NA,NA,NA,NA
975603,"PO BOX 1750","ZILLAH","WA",98953,NA,NA,103,"PO BOX 1750, ZILLAH, WA, 98953","No_Match",NA,NA,NA,NA
975604,"PO BOX 1751","KLAMATH FALLS","OR",97601,NA,NA,104,"PO BOX 1751, KLAMATH FALLS, OR, 97601","No_Match",NA,NA,NA,NA
975605,"PO BOX 1751","PLAINS","MT",59859,NA,NA,105,"PO BOX 1751, PLAINS, MT, 59859","No_Match",NA,NA,NA,NA
975606,"PO BOX 1751","SARASOTA","FL",34230,NA,NA,106,"PO BOX 1751, SARASOTA, FL, 34230","No_Match",NA,NA,NA,NA
975607,"PO BOX 1751","STANWOOD","WA",98292,NA,NA,107,"PO BOX 1751, STANWOOD, WA, 98292","No_Match",NA,NA,NA,NA
975608,"PO BOX 1751","WALDORF","MD",20604,NA,NA,108,"PO BOX 1751, WALDORF, MD, 20604","No_Match",NA,NA,NA,NA
975609,"PO BOX 17512","HONOLULU","HI",96817,NA,NA,109,"PO BOX 17512, HONOLULU, HI, 96817","No_Match",NA,NA,NA,NA
975610,"PO BOX 1752","BLACK CANYON CITY","AZ",85324,NA,NA,110,"PO BOX 1752, BLACK CANYON CITY, AZ, 85324","No_Match",NA,NA,NA,NA
975611,"PO BOX 1752","BROWNING","MT",59417,NA,NA,111,"PO BOX 1752, BROWNING, MT, 59417","No_Match",NA,NA,NA,NA
975612,"PO BOX 1752","COCKEYSVILLE","MD",21030,NA,NA,112,"PO BOX 1752, COCKEYSVILLE, MD, 21030","No_Match",NA,NA,NA,NA
975613,"PO BOX 1752","GILLETTE","WY",82717,NA,NA,113,"PO BOX 1752, GILLETTE, WY, 82717","No_Match",NA,NA,NA,NA
975614,"PO BOX 1753","ASHBURN","VA",20146,NA,NA,114,"PO BOX 1753, ASHBURN, VA, 20146","No_Match",NA,NA,NA,NA
975615,"PO BOX 1753","BUDA","TX",78610,NA,NA,115,"PO BOX 1753, BUDA, TX, 78610","No_Match",NA,NA,NA,NA
975616,"PO BOX 1753","EAGLE LAKE","FL",33839,NA,NA,116,"PO BOX 1753, EAGLE LAKE, FL, 33839","No_Match",NA,NA,NA,NA
975617,"PO BOX 1753","FORT PIERCE","FL",34954,NA,NA,117,"PO BOX 1753, FORT PIERCE, FL, 34954","No_Match",NA,NA,NA,NA
975618,"PO BOX 1754","CHICAGO","IL",60690,NA,NA,118,"PO BOX 1754, CHICAGO, IL, 60690","No_Match",NA,NA,NA,NA
975619,"PO BOX 1754","EL PASO","TX",79949,NA,NA,119,"PO BOX 1754, EL PASO, TX, 79949","No_Match",NA,NA,NA,NA
975620,"PO BOX 1754","GUAYNABO","PR",970,NA,NA,120,"PO BOX 1754, GUAYNABO, PR, 970","No_Match",NA,NA,NA,NA
975621,"PO BOX 1754","SARATOGA","WY",82331,NA,NA,121,"PO BOX 1754, SARATOGA, WY, 82331","No_Match",NA,NA,NA,NA
975622,"PO BOX 1754","YUCAIPA","CA",92399,NA,NA,122,"PO BOX 1754, YUCAIPA, CA, 92399","No_Match",NA,NA,NA,NA
975623,"PO BOX 1755","BIRMINGHAM","MI",48012,NA,NA,123,"PO BOX 1755, BIRMINGHAM, MI, 48012","No_Match",NA,NA,NA,NA
975624,"PO BOX 1755","STANTON","TX",79782,NA,NA,124,"PO BOX 1755, STANTON, TX, 79782","No_Match",NA,NA,NA,NA
975625,"PO BOX 1756","LA PORTE","TX",77571,NA,NA,125,"PO BOX 1756, LA PORTE, TX, 77571","No_Match",NA,NA,NA,NA
975626,"PO BOX 1757","MATTITUCK","NY",11952,NA,NA,126,"PO BOX 1757, MATTITUCK, NY, 11952","No_Match",NA,NA,NA,NA
975627,"PO BOX 1757","NAPLES","ME",4055,NA,NA,127,"PO BOX 1757, NAPLES, ME, 4055","No_Match",NA,NA,NA,NA
975628,"PO BOX 1757","SUTHERLIN","OR",97479,NA,NA,128,"PO BOX 1757, SUTHERLIN, OR, 97479","No_Match",NA,NA,NA,NA
975629,"PO BOX 1758","PAONIA","CO",81428,NA,NA,129,"PO BOX 1758, PAONIA, CO, 81428","No_Match",NA,NA,NA,NA
975630,"PO BOX 17581","BOULDER","CO",80301,NA,NA,130,"PO BOX 17581, BOULDER, CO, 80301","No_Match",NA,NA,NA,NA
975631,"PO BOX 1759","SHINGLE SPRINGS","CA",95682,NA,NA,131,"PO BOX 1759, SHINGLE SPRINGS, CA, 95682","No_Match",NA,NA,NA,NA
975632,"PO BOX 17593","BOULDER","CO",80308,NA,NA,132,"PO BOX 17593, BOULDER, CO, 80308","No_Match",NA,NA,NA,NA
975633,"PO BOX 17593","SUGAR LAND","TX",77496,NA,NA,133,"PO BOX 17593, SUGAR LAND, TX, 77496","No_Match",NA,NA,NA,NA
975634,"PO BOX 176","BATON ROUGE","LA",70821,NA,NA,134,"PO BOX 176, BATON ROUGE, LA, 70821","No_Match",NA,NA,NA,NA
975635,"PO BOX 176","BAY CITY","TX",77404,NA,NA,135,"PO BOX 176, BAY CITY, TX, 77404","No_Match",NA,NA,NA,NA
975636,"PO BOX 176","BOERNE","TX",78006,NA,NA,136,"PO BOX 176, BOERNE, TX, 78006","No_Match",NA,NA,NA,NA
975637,"PO BOX 176","CAMBRIDGE","NY",12816,NA,NA,137,"PO BOX 176, CAMBRIDGE, NY, 12816","No_Match",NA,NA,NA,NA
975638,"PO BOX 176","COLDWATER","MS",38618,NA,NA,138,"PO BOX 176, COLDWATER, MS, 38618","No_Match",NA,NA,NA,NA
975639,"PO BOX 176","CORVALLIS","MT",59828,NA,NA,139,"PO BOX 176, CORVALLIS, MT, 59828","No_Match",NA,NA,NA,NA
975640,"PO BOX 176","CORYDON","KY",42406,NA,NA,140,"PO BOX 176, CORYDON, KY, 42406","No_Match",NA,NA,NA,NA
975641,"PO BOX 176","ELOY","AZ",85231,NA,NA,141,"PO BOX 176, ELOY, AZ, 85231","No_Match",NA,NA,NA,NA
975642,"PO BOX 176","ENGLEWOOD","FL",34295,NA,NA,142,"PO BOX 176, ENGLEWOOD, FL, 34295","No_Match",NA,NA,NA,NA
975643,"PO BOX 176","GRANTS PASS","OR",97528,NA,NA,143,"PO BOX 176, GRANTS PASS, OR, 97528","No_Match",NA,NA,NA,NA
975644,"PO BOX 176","GRASS VALLEY","CA",95945,NA,NA,144,"PO BOX 176, GRASS VALLEY, CA, 95945","No_Match",NA,NA,NA,NA
975645,"PO BOX 176","NIXA","MO",65714,NA,NA,145,"PO BOX 176, NIXA, MO, 65714","No_Match",NA,NA,NA,NA
975646,"PO BOX 176","OMAHA","NE",68102,NA,NA,146,"PO BOX 176, OMAHA, NE, 68102","No_Match",NA,NA,NA,NA
975647,"PO BOX 176","RICHWOOD","OH",43344,NA,NA,147,"PO BOX 176, RICHWOOD, OH, 43344","No_Match",NA,NA,NA,NA
975648,"PO BOX 176","SAGAPONACK","NY",11962,NA,NA,148,"PO BOX 176, SAGAPONACK, NY, 11962","No_Match",NA,NA,NA,NA
975649,"PO BOX 176","SAINT JO","TX",76265,NA,NA,149,"PO BOX 176, SAINT JO, TX, 76265","No_Match",NA,NA,NA,NA
975650,"PO BOX 176","SEYMOUR","TX",76380,NA,NA,150,"PO BOX 176, SEYMOUR, TX, 76380","No_Match",NA,NA,NA,NA
975651,"PO BOX 176","SHANNON","AL",35142,NA,NA,151,"PO BOX 176, SHANNON, AL, 35142","No_Match",NA,NA,NA,NA
975652,"PO BOX 176","STONEBORO","PA",16153,NA,NA,152,"PO BOX 176, STONEBORO, PA, 16153","No_Match",NA,NA,NA,NA
975653,"PO BOX 176","TONTO BASIN","AZ",85553,NA,NA,153,"PO BOX 176, TONTO BASIN, AZ, 85553","No_Match",NA,NA,NA,NA
975654,"PO BOX 176","WAR","WV",24892,NA,NA,154,"PO BOX 176, WAR, WV, 24892","No_Match",NA,NA,NA,NA
975655,"PO BOX 176","WINNECONNE","WI",54986,NA,NA,155,"PO BOX 176, WINNECONNE, WI, 54986","No_Match",NA,NA,NA,NA
975656,"PO BOX 176","WRENTHAM","MA",2093,NA,NA,156,"PO BOX 176, WRENTHAM, MA, 2093","No_Match",NA,NA,NA,NA
975657,"PO BOX 1760","COTTONWOOD","AZ",86326,NA,NA,157,"PO BOX 1760, COTTONWOOD, AZ, 86326","No_Match",NA,NA,NA,NA
975658,"PO BOX 1761","LA MIRADA","CA",90637,NA,NA,158,"PO BOX 1761, LA MIRADA, CA, 90637","No_Match",NA,NA,NA,NA
975659,"PO BOX 1761","SISTERS","OR",97759,NA,NA,159,"PO BOX 1761, SISTERS, OR, 97759","No_Match",NA,NA,NA,NA
975660,"PO BOX 17613","OKLAHOMA CITY","OK",73136,NA,NA,160,"PO BOX 17613, OKLAHOMA CITY, OK, 73136","No_Match",NA,NA,NA,NA
975661,"PO BOX 1762","AUBURN","NY",13021,NA,NA,161,"PO BOX 1762, AUBURN, NY, 13021","No_Match",NA,NA,NA,NA
975662,"PO BOX 1762","BLOOMFIELD","NJ",7003,NA,NA,162,"PO BOX 1762, BLOOMFIELD, NJ, 7003","No_Match",NA,NA,NA,NA
975663,"PO BOX 1762","CODY","WY",82414,NA,NA,163,"PO BOX 1762, CODY, WY, 82414","No_Match",NA,NA,NA,NA
975664,"PO BOX 1762","TRENTON","NJ",8607,NA,NA,164,"PO BOX 1762, TRENTON, NJ, 8607","No_Match",NA,NA,NA,NA
975665,"PO BOX 1763","BROKEN ARROW","OK",74013,NA,NA,165,"PO BOX 1763, BROKEN ARROW, OK, 74013","No_Match",NA,NA,NA,NA
975666,"PO BOX 1763","CHESTER","CA",96020,NA,NA,166,"PO BOX 1763, CHESTER, CA, 96020","No_Match",NA,NA,NA,NA
975667,"PO BOX 1763","CLEVELAND","TX",77328,NA,NA,167,"PO BOX 1763, CLEVELAND, TX, 77328","No_Match",NA,NA,NA,NA
975668,"PO BOX 1763","HELENDALE","CA",92342,NA,NA,168,"PO BOX 1763, HELENDALE, CA, 92342","No_Match",NA,NA,NA,NA
975669,"PO BOX 1763","MATTESON","IL",60443,NA,NA,169,"PO BOX 1763, MATTESON, IL, 60443","No_Match",NA,NA,NA,NA
975670,"PO BOX 1763","OLNEY","MD",20832,NA,NA,170,"PO BOX 1763, OLNEY, MD, 20832","No_Match",NA,NA,NA,NA
975671,"PO BOX 1763","TEMPLETON","CA",93465,NA,NA,171,"PO BOX 1763, TEMPLETON, CA, 93465","No_Match",NA,NA,NA,NA
975672,"PO BOX 1764","APOPKA","FL",32704,NA,NA,172,"PO BOX 1764, APOPKA, FL, 32704","No_Match",NA,NA,NA,NA
975673,"PO BOX 1764","NORTH CONWAY","NH",3860,NA,NA,173,"PO BOX 1764, NORTH CONWAY, NH, 3860","No_Match",NA,NA,NA,NA
975674,"PO BOX 1764","ONEONTA","AL",35121,NA,NA,174,"PO BOX 1764, ONEONTA, AL, 35121","No_Match",NA,NA,NA,NA
975675,"PO BOX 17643","JACKSONVILLE","FL",32245,NA,NA,175,"PO BOX 17643, JACKSONVILLE, FL, 32245","No_Match",NA,NA,NA,NA
975676,"PO BOX 1765","DENTON","TX",76202,NA,NA,176,"PO BOX 1765, DENTON, TX, 76202","No_Match",NA,NA,NA,NA
975677,"PO BOX 1766","BINGHAMTON","NY",13902,NA,NA,177,"PO BOX 1766, BINGHAMTON, NY, 13902","No_Match",NA,NA,NA,NA
975678,"PO BOX 1766","COEUR D ALENE","ID",83816,NA,NA,178,"PO BOX 1766, COEUR D ALENE, ID, 83816","No_Match",NA,NA,NA,NA
975679,"PO BOX 1766","HARTSVILLE","SC",29551,NA,NA,179,"PO BOX 1766, HARTSVILLE, SC, 29551","No_Match",NA,NA,NA,NA
975680,"PO BOX 1766","LOWELL","AR",72745,NA,NA,180,"PO BOX 1766, LOWELL, AR, 72745","No_Match",NA,NA,NA,NA
975681,"PO BOX 1766","OKLAHOMA CITY","OK",73101,NA,NA,181,"PO BOX 1766, OKLAHOMA CITY, OK, 73101","No_Match",NA,NA,NA,NA
975682,"PO BOX 1766","SILVERDALE","WA",98383,NA,NA,182,"PO BOX 1766, SILVERDALE, WA, 98383","No_Match",NA,NA,NA,NA
975683,"PO BOX 17665","ROCHESTER","NY",14617,NA,NA,183,"PO BOX 17665, ROCHESTER, NY, 14617","No_Match",NA,NA,NA,NA
975684,"PO BOX 1767","AFTON","WY",83110,NA,NA,184,"PO BOX 1767, AFTON, WY, 83110","No_Match",NA,NA,NA,NA
975685,"PO BOX 1767","EVANSVILLE","WY",82636,NA,NA,185,"PO BOX 1767, EVANSVILLE, WY, 82636","No_Match",NA,NA,NA,NA
975686,"PO BOX 1767","MONTGOMERY","AL",36012,NA,NA,186,"PO BOX 1767, MONTGOMERY, AL, 36012","No_Match",NA,NA,NA,NA
975687,"PO BOX 1767","MONTGOMERY","AL",36102,NA,NA,187,"PO BOX 1767, MONTGOMERY, AL, 36102","No_Match",NA,NA,NA,NA
975688,"PO BOX 1768","BOTHELL","WA",98041,NA,NA,188,"PO BOX 1768, BOTHELL, WA, 98041","No_Match",NA,NA,NA,NA
975689,"PO BOX 1768","ELIZABETH CITY","NC",27909,NA,NA,189,"PO BOX 1768, ELIZABETH CITY, NC, 27909","No_Match",NA,NA,NA,NA
975690,"PO BOX 17682","PORTLAND","ME",4112,NA,NA,190,"PO BOX 17682, PORTLAND, ME, 4112","No_Match",NA,NA,NA,NA
975691,"PO BOX 1769","KAMUELA","HI",96743,NA,NA,191,"PO BOX 1769, KAMUELA, HI, 96743","No_Match",NA,NA,NA,NA
975692,"PO BOX 17690","MEMPHIS","TN",38187,NA,NA,192,"PO BOX 17690, MEMPHIS, TN, 38187","No_Match",NA,NA,NA,NA
975693,"PO BOX 177","BIG TIMBER","MT",59011,NA,NA,193,"PO BOX 177, BIG TIMBER, MT, 59011","No_Match",NA,NA,NA,NA
975694,"PO BOX 177","BONHAM","TX",75418,NA,NA,194,"PO BOX 177, BONHAM, TX, 75418","No_Match",NA,NA,NA,NA
975695,"PO BOX 177","CIRCLEVILLE","OH",43113,NA,NA,195,"PO BOX 177, CIRCLEVILLE, OH, 43113","No_Match",NA,NA,NA,NA
975696,"PO BOX 177","DULUTH","GA",30096,NA,NA,196,"PO BOX 177, DULUTH, GA, 30096","No_Match",NA,NA,NA,NA
975697,"PO BOX 177","FAUNSDALE","AL",36738,NA,NA,197,"PO BOX 177, FAUNSDALE, AL, 36738","No_Match",NA,NA,NA,NA
975698,"PO BOX 177","GREENSBORO","FL",32330,NA,NA,198,"PO BOX 177, GREENSBORO, FL, 32330","No_Match",NA,NA,NA,NA
975699,"PO BOX 177","HARVARD","MA",1451,NA,NA,199,"PO BOX 177, HARVARD, MA, 1451","No_Match",NA,NA,NA,NA
975700,"PO BOX 177","HYDE PARK","PA",15641,NA,NA,200,"PO BOX 177, HYDE PARK, PA, 15641","No_Match",NA,NA,NA,NA
975701,"PO BOX 177","KIRBYVILLE","TX",75956,NA,NA,201,"PO BOX 177, KIRBYVILLE, TX, 75956","No_Match",NA,NA,NA,NA
975702,"PO BOX 177","LIBERTY","KY",42539,NA,NA,202,"PO BOX 177, LIBERTY, KY, 42539","No_Match",NA,NA,NA,NA
975703,"PO BOX 177","LOVINGTON","NM",88260,NA,NA,203,"PO BOX 177, LOVINGTON, NM, 88260","No_Match",NA,NA,NA,NA
975704,"PO BOX 177","MARIETTA","GA",30061,NA,NA,204,"PO BOX 177, MARIETTA, GA, 30061","No_Match",NA,NA,NA,NA
975705,"PO BOX 177","MEDORA","IN",47260,NA,NA,205,"PO BOX 177, MEDORA, IN, 47260","No_Match",NA,NA,NA,NA
975706,"PO BOX 177","MUNDAY","TX",76371,NA,NA,206,"PO BOX 177, MUNDAY, TX, 76371","No_Match",NA,NA,NA,NA
975707,"PO BOX 177","NEW CASTLE","TX",76372,NA,NA,207,"PO BOX 177, NEW CASTLE, TX, 76372","No_Match",NA,NA,NA,NA
975708,"PO BOX 177","PACIFIC CITY","OR",97135,NA,NA,208,"PO BOX 177, PACIFIC CITY, OR, 97135","No_Match",NA,NA,NA,NA
975709,"PO BOX 177","PORT WASHINGTON","OH",43837,NA,NA,209,"PO BOX 177, PORT WASHINGTON, OH, 43837","No_Match",NA,NA,NA,NA
975710,"PO BOX 177","SALMON","ID",83467,NA,NA,210,"PO BOX 177, SALMON, ID, 83467","No_Match",NA,NA,NA,NA
975711,"PO BOX 177","SHASTA LAKE CITY","CA",96019,NA,NA,211,"PO BOX 177, SHASTA LAKE CITY, CA, 96019","No_Match",NA,NA,NA,NA
975712,"PO BOX 177","SOMERVILLE","NJ",8876,NA,NA,212,"PO BOX 177, SOMERVILLE, NJ, 8876","No_Match",NA,NA,NA,NA
975713,"PO BOX 177","WAUSEON","OH",43567,NA,NA,213,"PO BOX 177, WAUSEON, OH, 43567","No_Match",NA,NA,NA,NA
975714,"PO BOX 177","WESTFIELD","IN",46074,NA,NA,214,"PO BOX 177, WESTFIELD, IN, 46074","No_Match",NA,NA,NA,NA
975715,"PO BOX 177","WETMORE","CO",81253,NA,NA,215,"PO BOX 177, WETMORE, CO, 81253","No_Match",NA,NA,NA,NA
975716,"PO BOX 177","WILLIAMSON","NY",14589,NA,NA,216,"PO BOX 177, WILLIAMSON, NY, 14589","No_Match",NA,NA,NA,NA
975717,"PO BOX 177","WILMINGTON","VT",5363,NA,NA,217,"PO BOX 177, WILMINGTON, VT, 5363","No_Match",NA,NA,NA,NA
975718,"PO BOX 177","WOODY CREEK","CO",81656,NA,NA,218,"PO BOX 177, WOODY CREEK, CO, 81656","No_Match",NA,NA,NA,NA
975719,"PO BOX 177","YORBA LINDA","CA",92885,NA,NA,219,"PO BOX 177, YORBA LINDA, CA, 92885","No_Match",NA,NA,NA,NA
975720,"PO BOX 1770- BOX 288","SAN FRANCISCO","CA",94115,NA,NA,220,"PO BOX 1770- BOX 288, SAN FRANCISCO, CA, 94115","No_Match",NA,NA,NA,NA
975721,"PO BOX 1770","PEARL CITY","HI",96782,NA,NA,221,"PO BOX 1770, PEARL CITY, HI, 96782","No_Match",NA,NA,NA,NA
975722,"PO BOX 17705","PHILADELPHIA","PA",19135,NA,NA,222,"PO BOX 17705, PHILADELPHIA, PA, 19135","No_Match",NA,NA,NA,NA
975723,"PO BOX 177055","IRVING","TX",75017,NA,NA,223,"PO BOX 177055, IRVING, TX, 75017","No_Match",NA,NA,NA,NA
975724,"PO BOX 1771","BELFAIR","WA",98528,NA,NA,224,"PO BOX 1771, BELFAIR, WA, 98528","No_Match",NA,NA,NA,NA
975725,"PO BOX 1771","NEW LONDON","NH",3257,NA,NA,225,"PO BOX 1771, NEW LONDON, NH, 3257","No_Match",NA,NA,NA,NA
975726,"PO BOX 1771","PORTERVILLE","CA",93258,NA,NA,226,"PO BOX 1771, PORTERVILLE, CA, 93258","No_Match",NA,NA,NA,NA
975727,"PO BOX 1771","SALISBURY","NC",28145,NA,NA,227,"PO BOX 1771, SALISBURY, NC, 28145","No_Match",NA,NA,NA,NA
975728,"PO BOX 1772 ST BONAVENTURE","ST BONAVENTURE","NY",14778,NA,NA,228,"PO BOX 1772 ST BONAVENTURE, ST BONAVENTURE, NY, 14778","No_Match",NA,NA,NA,NA
975729,"PO BOX 1772","COLUMBIA FALLS","MT",59912,NA,NA,229,"PO BOX 1772, COLUMBIA FALLS, MT, 59912","No_Match",NA,NA,NA,NA
975730,"PO BOX 1772","DRIPPING SPRINGS","TX",78620,NA,NA,230,"PO BOX 1772, DRIPPING SPRINGS, TX, 78620","No_Match",NA,NA,NA,NA
975731,"PO BOX 1772","FRASER","CO",80442,NA,NA,231,"PO BOX 1772, FRASER, CO, 80442","No_Match",NA,NA,NA,NA
975732,"PO BOX 1772","VERONA","MS",38879,NA,NA,232,"PO BOX 1772, VERONA, MS, 38879","No_Match",NA,NA,NA,NA
975733,"PO BOX 1773","ASHBURN","VA",20146,NA,NA,233,"PO BOX 1773, ASHBURN, VA, 20146","No_Match",NA,NA,NA,NA
975734,"PO BOX 1773","CARROLLTON","GA",30112,NA,NA,234,"PO BOX 1773, CARROLLTON, GA, 30112","No_Match",NA,NA,NA,NA
975735,"PO BOX 1773","KAMUELA","HI",96743,NA,NA,235,"PO BOX 1773, KAMUELA, HI, 96743","No_Match",NA,NA,NA,NA
975736,"PO BOX 1773","LANDER","WY",82520,NA,NA,236,"PO BOX 1773, LANDER, WY, 82520","No_Match",NA,NA,NA,NA
975737,"PO BOX 1773","MANSFIELD","OH",44901,NA,NA,237,"PO BOX 1773, MANSFIELD, OH, 44901","No_Match",NA,NA,NA,NA
975738,"PO BOX 1773","TOMBALL","TX",77377,NA,NA,238,"PO BOX 1773, TOMBALL, TX, 77377","No_Match",NA,NA,NA,NA
975739,"PO BOX 1774","ADA","OK",74821,NA,NA,239,"PO BOX 1774, ADA, OK, 74821","No_Match",NA,NA,NA,NA
975740,"PO BOX 1774","MCCALL","ID",83638,NA,NA,240,"PO BOX 1774, MCCALL, ID, 83638","No_Match",NA,NA,NA,NA
975741,"PO BOX 1774","SMYRNA","GA",30081,NA,NA,241,"PO BOX 1774, SMYRNA, GA, 30081","No_Match",NA,NA,NA,NA
975742,"PO BOX 1775","DADE CITY","FL",33526,NA,NA,242,"PO BOX 1775, DADE CITY, FL, 33526","No_Match",NA,NA,NA,NA
975743,"PO BOX 17752","SUGARLAND","TX",77496,NA,NA,243,"PO BOX 17752, SUGARLAND, TX, 77496","No_Match",NA,NA,NA,NA
975744,"PO BOX 1776","OVERTON","NV",89040,NA,NA,244,"PO BOX 1776, OVERTON, NV, 89040","No_Match",NA,NA,NA,NA
975745,"PO BOX 1776","PORTSMOUTH","VA",23702,NA,NA,245,"PO BOX 1776, PORTSMOUTH, VA, 23702","No_Match",NA,NA,NA,NA
975746,"PO BOX 1776","ST. FRANCISVILLE","LA",70775,NA,NA,246,"PO BOX 1776, ST. FRANCISVILLE, LA, 70775","No_Match",NA,NA,NA,NA
975747,"PO BOX 1776","TEMPLE","GA",30179,NA,NA,247,"PO BOX 1776, TEMPLE, GA, 30179","No_Match",NA,NA,NA,NA
975748,"PO BOX 1777","LAGUNA BEACH","CA",92652,NA,NA,248,"PO BOX 1777, LAGUNA BEACH, CA, 92652","No_Match",NA,NA,NA,NA
975749,"PO BOX 1777","SUN VALLEY","ID",83353,NA,NA,249,"PO BOX 1777, SUN VALLEY, ID, 83353","No_Match",NA,NA,NA,NA
975750,"PO BOX 1778","ELIZABETHTOWN","NC",28337,NA,NA,250,"PO BOX 1778, ELIZABETHTOWN, NC, 28337","No_Match",NA,NA,NA,NA
975751,"PO BOX 1778","FALLBROOK","CA",92088,NA,NA,251,"PO BOX 1778, FALLBROOK, CA, 92088","No_Match",NA,NA,NA,NA
975752,"PO BOX 17786","ASHEVILLE","NC",28816,NA,NA,252,"PO BOX 17786, ASHEVILLE, NC, 28816","No_Match",NA,NA,NA,NA
975753,"PO BOX 1779","HOMER","AK",99603,NA,NA,253,"PO BOX 1779, HOMER, AK, 99603","No_Match",NA,NA,NA,NA
975754,"PO BOX 17793","SAN DIEGO","CA",92177,NA,NA,254,"PO BOX 17793, SAN DIEGO, CA, 92177","No_Match",NA,NA,NA,NA
975755,"PO BOX 17793","SAN DIEGO",NA,NA,NA,NA,255,"PO BOX 17793, SAN DIEGO, , ","No_Match",NA,NA,NA,NA
975756,"PO Box 178","Ballentine","SC",29002,NA,NA,256,"PO Box 178, Ballentine, SC, 29002","No_Match",NA,NA,NA,NA
975757,"PO BOX 178","Ballentine","SC",29002,NA,NA,257,"PO BOX 178, Ballentine, SC, 29002","No_Match",NA,NA,NA,NA
975758,"PO BOX 178","BELLS","TX",75414,NA,NA,258,"PO BOX 178, BELLS, TX, 75414","No_Match",NA,NA,NA,NA
975759,"PO BOX 178","CANTON CENTER","CT",6020,NA,NA,259,"PO BOX 178, CANTON CENTER, CT, 6020","No_Match",NA,NA,NA,NA
975760,"PO BOX 178","CANTWELL","AK",99729,NA,NA,260,"PO BOX 178, CANTWELL, AK, 99729","No_Match",NA,NA,NA,NA
975761,"PO BOX 178","EVERGREEN","VA",23939,NA,NA,261,"PO BOX 178, EVERGREEN, VA, 23939","No_Match",NA,NA,NA,NA
975762,"PO BOX 178","FREDERICKSBURG","OH",44627,NA,NA,262,"PO BOX 178, FREDERICKSBURG, OH, 44627","No_Match",NA,NA,NA,NA
975763,"PO BOX 178","GUSTAVUS","AK",99826,NA,NA,263,"PO BOX 178, GUSTAVUS, AK, 99826","No_Match",NA,NA,NA,NA
975764,"PO BOX 178","HARTFORD","IA",50118,NA,NA,264,"PO BOX 178, HARTFORD, IA, 50118","No_Match",NA,NA,NA,NA
975765,"PO BOX 178","HAZEN","AR",72064,NA,NA,265,"PO BOX 178, HAZEN, AR, 72064","No_Match",NA,NA,NA,NA
975766,"PO BOX 178","HAZEN","AZ",72064,NA,NA,266,"PO BOX 178, HAZEN, AZ, 72064","No_Match",NA,NA,NA,NA
975767,"PO BOX 178","HOLMAN","NM",87723,NA,NA,267,"PO BOX 178, HOLMAN, NM, 87723","No_Match",NA,NA,NA,NA
975768,"PO BOX 178","HYAMPOM","CA",96046,NA,NA,268,"PO BOX 178, HYAMPOM, CA, 96046","No_Match",NA,NA,NA,NA
975769,"PO BOX 178","IRWINTON","GA",31042,NA,NA,269,"PO BOX 178, IRWINTON, GA, 31042","No_Match",NA,NA,NA,NA
975770,"PO BOX 178","KINGS BEACH","CA",96143,NA,NA,270,"PO BOX 178, KINGS BEACH, CA, 96143","No_Match",NA,NA,NA,NA
975771,"PO BOX 178","MARBLE CITY","OK",74945,NA,NA,271,"PO BOX 178, MARBLE CITY, OK, 74945","No_Match",NA,NA,NA,NA
975772,"PO BOX 178","MARION","PA",17235,NA,NA,272,"PO BOX 178, MARION, PA, 17235","No_Match",NA,NA,NA,NA
975773,"PO BOX 178","OKANOGAN","WA",98840,NA,NA,273,"PO BOX 178, OKANOGAN, WA, 98840","No_Match",NA,NA,NA,NA
975774,"PO BOX 178","ORTONVILLE","MI",48462,NA,NA,274,"PO BOX 178, ORTONVILLE, MI, 48462","No_Match",NA,NA,NA,NA
975775,"PO BOX 178","PROCTORSVILLE","VT",5153,NA,NA,275,"PO BOX 178, PROCTORSVILLE, VT, 5153","No_Match",NA,NA,NA,NA
975776,"PO BOX 178","PROCTORVILLE","NC",28375,NA,NA,276,"PO BOX 178, PROCTORVILLE, NC, 28375","No_Match",NA,NA,NA,NA
975777,"PO BOX 178","SMITHSBURG","MD",21783,NA,NA,277,"PO BOX 178, SMITHSBURG, MD, 21783","No_Match",NA,NA,NA,NA
975778,"PO BOX 178","STURGIS","MI",49091,NA,NA,278,"PO BOX 178, STURGIS, MI, 49091","No_Match",NA,NA,NA,NA
975779,"PO BOX 178","WISE","VA",24293,NA,NA,279,"PO BOX 178, WISE, VA, 24293","No_Match",NA,NA,NA,NA
975780,"PO BOX 1780","BETHEL ISLAND","CA",94511,NA,NA,280,"PO BOX 1780, BETHEL ISLAND, CA, 94511","No_Match",NA,NA,NA,NA
975781,"PO BOX 1780","CHINO HILLS","CA",91709,NA,NA,281,"PO BOX 1780, CHINO HILLS, CA, 91709","No_Match",NA,NA,NA,NA
975782,"PO BOX 1780","DUBOIS","WY",82513,NA,NA,282,"PO BOX 1780, DUBOIS, WY, 82513","No_Match",NA,NA,NA,NA
975783,"PO BOX 1780","MIDDLETOWN","CA",95461,NA,NA,283,"PO BOX 1780, MIDDLETOWN, CA, 95461","No_Match",NA,NA,NA,NA
975784,"PO BOX 17801","ANAHIEM","CA",92817,NA,NA,284,"PO BOX 17801, ANAHIEM, CA, 92817","No_Match",NA,NA,NA,NA
975785,"PO BOX 1781","EAGAR","AZ",85925,NA,NA,285,"PO BOX 1781, EAGAR, AZ, 85925","No_Match",NA,NA,NA,NA
975786,"PO BOX 1781","NEWPORT BEACH","CA",92659,NA,NA,286,"PO BOX 1781, NEWPORT BEACH, CA, 92659","No_Match",NA,NA,NA,NA
975787,"PO BOX 1781","NIXA","MO",65714,NA,NA,287,"PO BOX 1781, NIXA, MO, 65714","No_Match",NA,NA,NA,NA
975788,"PO BOX 1781","PRINEVILLE","OR",97754,NA,NA,288,"PO BOX 1781, PRINEVILLE, OR, 97754","No_Match",NA,NA,NA,NA
975789,"PO BOX 1781","RAHWAY","NJ",7065,NA,NA,289,"PO BOX 1781, RAHWAY, NJ, 7065","No_Match",NA,NA,NA,NA
975790,"PO BOX 1781","RED OAK","TX",75154,NA,NA,290,"PO BOX 1781, RED OAK, TX, 75154","No_Match",NA,NA,NA,NA
975791,"PO BOX 1781","RED PAK","TX",75154,NA,NA,291,"PO BOX 1781, RED PAK, TX, 75154","No_Match",NA,NA,NA,NA
975792,"PO BOX 1781","WEST COVINA","CA",91793,NA,NA,292,"PO BOX 1781, WEST COVINA, CA, 91793","No_Match",NA,NA,NA,NA
975793,"PO BOX 1782","AIKEN","SC",29802,NA,NA,293,"PO BOX 1782, AIKEN, SC, 29802","No_Match",NA,NA,NA,NA
975794,"PO BOX 1782","CLAREMORE","OK",74018,NA,NA,294,"PO BOX 1782, CLAREMORE, OK, 74018","No_Match",NA,NA,NA,NA
975795,"PO BOX 17829","HONOLULU","HI",96819,NA,NA,295,"PO BOX 17829, HONOLULU, HI, 96819","No_Match",NA,NA,NA,NA
975796,"PO BOX 1783","BEAVERTON","OR",97075,NA,NA,296,"PO BOX 1783, BEAVERTON, OR, 97075","No_Match",NA,NA,NA,NA
975797,"PO BOX 1783","CAMPBELL","CA",NA,NA,NA,297,"PO BOX 1783, CAMPBELL, CA, ","No_Match",NA,NA,NA,NA
975798,"PO BOX 1783","KAMUELA","HI",96743,NA,NA,298,"PO BOX 1783, KAMUELA, HI, 96743","No_Match",NA,NA,NA,NA
975799,"PO BOX 1783","SILVERTHORNE","CO",80498,NA,NA,299,"PO BOX 1783, SILVERTHORNE, CO, 80498","No_Match",NA,NA,NA,NA
975800,"PO BOX 17836","ASHEVILLE","NC",28816,NA,NA,300,"PO BOX 17836, ASHEVILLE, NC, 28816","No_Match",NA,NA,NA,NA
975801,"PO BOX 1784","FORT COLLINS","CO",80522,NA,NA,301,"PO BOX 1784, FORT COLLINS, CO, 80522","No_Match",NA,NA,NA,NA
975802,"PO BOX 1784","KAIBETO","AZ",86053,NA,NA,302,"PO BOX 1784, KAIBETO, AZ, 86053","No_Match",NA,NA,NA,NA
975803,"PO BOX 1784","KEALAKEKUA","HI",96750,NA,NA,303,"PO BOX 1784, KEALAKEKUA, HI, 96750","No_Match",NA,NA,NA,NA
975804,"PO BOX 1784","OZARK","MO",65721,NA,NA,304,"PO BOX 1784, OZARK, MO, 65721","No_Match",NA,NA,NA,NA
975805,"PO BOX 1784","TOMBSTONE","AZ",85638,NA,NA,305,"PO BOX 1784, TOMBSTONE, AZ, 85638","No_Match",NA,NA,NA,NA
975806,"PO BOX 1785","GIG HARBOR","WA",98335,NA,NA,306,"PO BOX 1785, GIG HARBOR, WA, 98335","No_Match",NA,NA,NA,NA
975807,"PO BOX 1785","SPOKANE","WA",99210,NA,NA,307,"PO BOX 1785, SPOKANE, WA, 99210","No_Match",NA,NA,NA,NA
975808,"PO BOX 1785","WILSON","WY",83014,NA,NA,308,"PO BOX 1785, WILSON, WY, 83014","No_Match",NA,NA,NA,NA
975809,"PO BOX 1786","EUREKA","MT",59917,NA,NA,309,"PO BOX 1786, EUREKA, MT, 59917","No_Match",NA,NA,NA,NA
975810,"PO BOX 1786","GEORGETOWN","TX",78626,NA,NA,310,"PO BOX 1786, GEORGETOWN, TX, 78626","No_Match",NA,NA,NA,NA
975811,"PO BOX 1786","RUSSELLVILLE","AR",72811,NA,NA,311,"PO BOX 1786, RUSSELLVILLE, AR, 72811","No_Match",NA,NA,NA,NA
975812,"PO BOX 1786","VALDEZ","AK",99686,NA,NA,312,"PO BOX 1786, VALDEZ, AK, 99686","No_Match",NA,NA,NA,NA
975813,"PO BOX 1787","OURAY","CO",81427,NA,NA,313,"PO BOX 1787, OURAY, CO, 81427","No_Match",NA,NA,NA,NA
975814,"PO BOX 17876","EL PASO","TX",79917,NA,NA,314,"PO BOX 17876, EL PASO, TX, 79917","No_Match",NA,NA,NA,NA
975815,"PO BOX 1788","ESTES PARK","CO",80517,NA,NA,315,"PO BOX 1788, ESTES PARK, CO, 80517","No_Match",NA,NA,NA,NA
975816,"PO BOX 1788","ESTES PARK",NA,NA,NA,NA,316,"PO BOX 1788, ESTES PARK, , ","No_Match",NA,NA,NA,NA
975817,"PO BOX 1788","JACKSON","WY",83001,NA,NA,317,"PO BOX 1788, JACKSON, WY, 83001","No_Match",NA,NA,NA,NA
975818,"PO BOX 1788","NEW YORK","NY",10021,NA,NA,318,"PO BOX 1788, NEW YORK, NY, 10021","No_Match",NA,NA,NA,NA
975819,"PO BOX 1788","PANAMA CITY","FL",32402,NA,NA,319,"PO BOX 1788, PANAMA CITY, FL, 32402","No_Match",NA,NA,NA,NA
975820,"PO BOX 1788","STEPHENVILLE","TX",76401,NA,NA,320,"PO BOX 1788, STEPHENVILLE, TX, 76401","No_Match",NA,NA,NA,NA
975821,"PO BOX 1789","FRESNO","TX",77545,NA,NA,321,"PO BOX 1789, FRESNO, TX, 77545","No_Match",NA,NA,NA,NA
975822,"PO BOX 1789","JACKSON","MS",39174,NA,NA,322,"PO BOX 1789, JACKSON, MS, 39174","No_Match",NA,NA,NA,NA
975823,"PO BOX 178916","SAN DIEGO","CA",92177,NA,NA,323,"PO BOX 178916, SAN DIEGO, CA, 92177","No_Match",NA,NA,NA,NA
975824,"PO BOX 179","BELOIT","KS",67420,NA,NA,324,"PO BOX 179, BELOIT, KS, 67420","No_Match",NA,NA,NA,NA
975825,"PO BOX 179","EAST BOTOHBAY","ME",4544,NA,NA,325,"PO BOX 179, EAST BOTOHBAY, ME, 4544","No_Match",NA,NA,NA,NA
975826,"PO BOX 179","FRANKLIN","VA",23851,NA,NA,326,"PO BOX 179, FRANKLIN, VA, 23851","No_Match",NA,NA,NA,NA
975827,"PO BOX 179","HALLSBORO","NC",28442,NA,NA,327,"PO BOX 179, HALLSBORO, NC, 28442","No_Match",NA,NA,NA,NA
975828,"PO BOX 179","LYNN","AR",72440,NA,NA,328,"PO BOX 179, LYNN, AR, 72440","No_Match",NA,NA,NA,NA
975829,"PO BOX 179","NARR","RI",2882,NA,NA,329,"PO BOX 179, NARR, RI, 2882","No_Match",NA,NA,NA,NA
975830,"PO BOX 179","NARRAGANSETT","RI",2882,NA,NA,330,"PO BOX 179, NARRAGANSETT, RI, 2882","No_Match",NA,NA,NA,NA
975831,"PO BOX 179","NATURAL DAM","AR",72948,NA,NA,331,"PO BOX 179, NATURAL DAM, AR, 72948","No_Match",NA,NA,NA,NA
975832,"PO BOX 179","PLUMSTEADVILLE","PA",18949,NA,NA,332,"PO BOX 179, PLUMSTEADVILLE, PA, 18949","No_Match",NA,NA,NA,NA
975833,"PO BOX 179","SOUTH PARIS","ME",4281,NA,NA,333,"PO BOX 179, SOUTH PARIS, ME, 4281","No_Match",NA,NA,NA,NA
975834,"PO BOX 179","WHITEHALL","MT",59759,NA,NA,334,"PO BOX 179, WHITEHALL, MT, 59759","No_Match",NA,NA,NA,NA
975835,"PO BOX 1791","CHARLESTON","WV",25326,NA,NA,335,"PO BOX 1791, CHARLESTON, WV, 25326","No_Match",NA,NA,NA,NA
975836,"PO BOX 1791","DRAPER","UT",84020,NA,NA,336,"PO BOX 1791, DRAPER, UT, 84020","No_Match",NA,NA,NA,NA
975837,"PO BOX 1791","OWINGS MILLS","MD",21117,NA,NA,337,"PO BOX 1791, OWINGS MILLS, MD, 21117","No_Match",NA,NA,NA,NA
975838,"PO BOX 1791","PENDLETON","OR",97801,NA,NA,338,"PO BOX 1791, PENDLETON, OR, 97801","No_Match",NA,NA,NA,NA
975839,"PO BOX 1791","SCOTTSDALE","AZ",85252,NA,NA,339,"PO BOX 1791, SCOTTSDALE, AZ, 85252","No_Match",NA,NA,NA,NA
975840,"PO BOX 1791","SCOTTSDALW","AZ",85252,NA,NA,340,"PO BOX 1791, SCOTTSDALW, AZ, 85252","No_Match",NA,NA,NA,NA
975841,"PO BOX 1791","SOLDOTNA","AK",99669,NA,NA,341,"PO BOX 1791, SOLDOTNA, AK, 99669","No_Match",NA,NA,NA,NA
975842,"PO BOX 17912","TUCSON","AZ",85731,NA,NA,342,"PO BOX 17912, TUCSON, AZ, 85731","No_Match",NA,NA,NA,NA
975843,"PO BOX 1792","BREVARD","NC",28712,NA,NA,343,"PO BOX 1792, BREVARD, NC, 28712","No_Match",NA,NA,NA,NA
975844,"PO BOX 1792","LITHONIA","MS",30058,NA,NA,344,"PO BOX 1792, LITHONIA, MS, 30058","No_Match",NA,NA,NA,NA
975845,"PO BOX 1792","LUCERNE","CA",95458,NA,NA,345,"PO BOX 1792, LUCERNE, CA, 95458","No_Match",NA,NA,NA,NA
975846,"PO BOX 1793","ADDISON","TX",75001,NA,NA,346,"PO BOX 1793, ADDISON, TX, 75001","No_Match",NA,NA,NA,NA
975847,"PO BOX 1793","ESTES PARK","CO",80517,NA,NA,347,"PO BOX 1793, ESTES PARK, CO, 80517","No_Match",NA,NA,NA,NA
975848,"PO BOX 1793","MIDDLEBURG","VA",20118,NA,NA,348,"PO BOX 1793, MIDDLEBURG, VA, 20118","No_Match",NA,NA,NA,NA
975849,"PO BOX 1793","SANDPOINT","ID",83846,NA,NA,349,"PO BOX 1793, SANDPOINT, ID, 83846","No_Match",NA,NA,NA,NA
975850,"PO BOX 179336","HONOLULU","HI",96817,NA,NA,350,"PO BOX 179336, HONOLULU, HI, 96817","No_Match",NA,NA,NA,NA
975851,"PO BOX 17934","PLANTATION","FL",33324,NA,NA,351,"PO BOX 17934, PLANTATION, FL, 33324","No_Match",NA,NA,NA,NA
975852,"PO BOX 179373","RICHMOND HEIGHTS","MO",63117,NA,NA,352,"PO BOX 179373, RICHMOND HEIGHTS, MO, 63117","No_Match",NA,NA,NA,NA
975853,"PO BOX 1794","CARY","NC",27512,NA,NA,353,"PO BOX 1794, CARY, NC, 27512","No_Match",NA,NA,NA,NA
975854,"PO BOX 1794","HOMER","AK",99603,NA,NA,354,"PO BOX 1794, HOMER, AK, 99603","No_Match",NA,NA,NA,NA
975855,"PO BOX 1794","NEW YORK","NY",10025,NA,NA,355,"PO BOX 1794, NEW YORK, NY, 10025","No_Match",NA,NA,NA,NA
975856,"PO BOX 17948","HONOLULU","HI",96817,NA,NA,356,"PO BOX 17948, HONOLULU, HI, 96817","No_Match",NA,NA,NA,NA
975857,"PO BOX 1795","BOWIE","MD",20716,NA,NA,357,"PO BOX 1795, BOWIE, MD, 20716","No_Match",NA,NA,NA,NA
975858,"PO BOX 1795","MAKAWAO","HI",96768,NA,NA,358,"PO BOX 1795, MAKAWAO, HI, 96768","No_Match",NA,NA,NA,NA
975859,"PO BOX 1795","SACO","ME",4072,NA,NA,359,"PO BOX 1795, SACO, ME, 4072","No_Match",NA,NA,NA,NA
975860,"PO BOX 1796","HANFORD","CA",93232,NA,NA,360,"PO BOX 1796, HANFORD, CA, 93232","No_Match",NA,NA,NA,NA
975861,"PO BOX 1797","ALBRIGHTSVILLE","PA",18210,NA,NA,361,"PO BOX 1797, ALBRIGHTSVILLE, PA, 18210","No_Match",NA,NA,NA,NA
975862,"PO BOX 1797","MURPHYS","CA",95247,NA,NA,362,"PO BOX 1797, MURPHYS, CA, 95247","No_Match",NA,NA,NA,NA
975863,"PO BOX 1797","SONOMA","CA",95476,NA,NA,363,"PO BOX 1797, SONOMA, CA, 95476","No_Match",NA,NA,NA,NA
975864,"PO BOX 17975","CAROLINA","PR",984,NA,NA,364,"PO BOX 17975, CAROLINA, PR, 984","No_Match",NA,NA,NA,NA
975865,"PO BOX 1798","HILLTOP LAKES","TX",77871,NA,NA,365,"PO BOX 1798, HILLTOP LAKES, TX, 77871","No_Match",NA,NA,NA,NA
975866,"PO BOX 1798","JACKSON","CA",95642,NA,NA,366,"PO BOX 1798, JACKSON, CA, 95642","No_Match",NA,NA,NA,NA
975867,"PO BOX 1799","KAUNAKAKAI","HI",96748,NA,NA,367,"PO BOX 1799, KAUNAKAKAI, HI, 96748","No_Match",NA,NA,NA,NA
975868,"PO BOX 18-90403","KENYA","AA",0,NA,NA,368,"PO BOX 18-90403, KENYA, AA, 0","No_Match",NA,NA,NA,NA
975869,"PO BOX 18","BETHEL","AK",99559,NA,NA,369,"PO BOX 18, BETHEL, AK, 99559","No_Match",NA,NA,NA,NA
975870,"PO BOX 18","CHARLESTON","WV",25314,NA,NA,370,"PO BOX 18, CHARLESTON, WV, 25314","No_Match",NA,NA,NA,NA
975871,"PO BOX 18","DERBY LINE","VT",5830,NA,NA,371,"PO BOX 18, DERBY LINE, VT, 5830","No_Match",NA,NA,NA,NA
975872,"PO BOX 18","GUSTAVUS","AK",99826,NA,NA,372,"PO BOX 18, GUSTAVUS, AK, 99826","No_Match",NA,NA,NA,NA
975873,"PO BOX 18","NARANJITO","PR",719,NA,NA,373,"PO BOX 18, NARANJITO, PR, 719","No_Match",NA,NA,NA,NA
975874,"PO BOX 18","OXFORD","MI",48371,NA,NA,374,"PO BOX 18, OXFORD, MI, 48371","No_Match",NA,NA,NA,NA
975875,"PO BOX 18","STEEP FALLS","ME",4085,NA,NA,375,"PO BOX 18, STEEP FALLS, ME, 4085","No_Match",NA,NA,NA,NA
975876,"PO BOX 18","VALLEY","NE",68064,NA,NA,376,"PO BOX 18, VALLEY, NE, 68064","No_Match",NA,NA,NA,NA
975877,"PO BOX 18","VILLAS","NJ",8251,NA,NA,377,"PO BOX 18, VILLAS, NJ, 8251","No_Match",NA,NA,NA,NA
975878,"PO BOX 18","WETMORE","CO",81253,NA,NA,378,"PO BOX 18, WETMORE, CO, 81253","No_Match",NA,NA,NA,NA
975879,"PO BOX 18","YACHATS","OR",97498,NA,NA,379,"PO BOX 18, YACHATS, OR, 97498","No_Match",NA,NA,NA,NA
975880,"PO BOX 180 137 E STATE ST","PLEASANTVILLE","PA",16341,41.5915010690001,-79.579111053,380,"PO BOX 180 137 E STATE ST, PLEASANTVILLE, PA, 16341","Match","Exact","137 E STATE ST, PLEASANTVILLE, PA, 16341",70749851,"L"
975881,"PO BOX 180","ALPHARETTA","GA",30009,NA,NA,381,"PO BOX 180, ALPHARETTA, GA, 30009","No_Match",NA,NA,NA,NA
975882,"PO BOX 180","BATTIEST","OK",74722,NA,NA,382,"PO BOX 180, BATTIEST, OK, 74722","No_Match",NA,NA,NA,NA
975883,"PO BOX 180","BLANCHARD","PA",16826,NA,NA,383,"PO BOX 180, BLANCHARD, PA, 16826","No_Match",NA,NA,NA,NA
975884,"PO BOX 180","CHICAGO","IL",60690,NA,NA,384,"PO BOX 180, CHICAGO, IL, 60690","No_Match",NA,NA,NA,NA
975885,"PO BOX 180","DUTTON","VA",23050,NA,NA,385,"PO BOX 180, DUTTON, VA, 23050","No_Match",NA,NA,NA,NA
975886,"PO BOX 180","HAZEN","AR",72064,NA,NA,386,"PO BOX 180, HAZEN, AR, 72064","No_Match",NA,NA,NA,NA
975887,"PO BOX 180","PAUMA VALLEY","CA",92061,NA,NA,387,"PO BOX 180, PAUMA VALLEY, CA, 92061","No_Match",NA,NA,NA,NA
975888,"PO BOX 180","PIOCHE","NV",89043,NA,NA,388,"PO BOX 180, PIOCHE, NV, 89043","No_Match",NA,NA,NA,NA
975889,"PO BOX 180","RICHTON PARK","IL",60471,NA,NA,389,"PO BOX 180, RICHTON PARK, IL, 60471","No_Match",NA,NA,NA,NA
975890,"PO BOX 180","UMATILLA","FL",32784,NA,NA,390,"PO BOX 180, UMATILLA, FL, 32784","No_Match",NA,NA,NA,NA
975891,"PO BOX 1800","PINE LAKE","GA",30072,NA,NA,391,"PO BOX 1800, PINE LAKE, GA, 30072","No_Match",NA,NA,NA,NA
975892,"PO BOX 1800","STUART","FL",34995,NA,NA,392,"PO BOX 1800, STUART, FL, 34995","No_Match",NA,NA,NA,NA
975893,"PO BOX 1800","VISALIA","CA",93279,NA,NA,393,"PO BOX 1800, VISALIA, CA, 93279","No_Match",NA,NA,NA,NA
975894,"PO BOX 18004","DENVER","CO",80218,NA,NA,394,"PO BOX 18004, DENVER, CO, 80218","No_Match",NA,NA,NA,NA
975895,"PO BOX 1801","ALABASTER","AL",35007,NA,NA,395,"PO BOX 1801, ALABASTER, AL, 35007","No_Match",NA,NA,NA,NA
975896,"PO BOX 1801","EAGLE RIVER","WI",54521,NA,NA,396,"PO BOX 1801, EAGLE RIVER, WI, 54521","No_Match",NA,NA,NA,NA
975897,"PO BOX 1801","RANCHOS DE TAOS","NM",87557,NA,NA,397,"PO BOX 1801, RANCHOS DE TAOS, NM, 87557","No_Match",NA,NA,NA,NA
975898,"PO BOX 1801","SPOTSYLVANIA","VA",22553,NA,NA,398,"PO BOX 1801, SPOTSYLVANIA, VA, 22553","No_Match",NA,NA,NA,NA
975899,"PO BOX 180190","UTICA","MI",48318,NA,NA,399,"PO BOX 180190, UTICA, MI, 48318","No_Match",NA,NA,NA,NA
975900,"PO BOX 1802","CAIRO","GA",39828,NA,NA,400,"PO BOX 1802, CAIRO, GA, 39828","No_Match",NA,NA,NA,NA
975901,"PO BOX 1802","DUBOIS","WY",82513,NA,NA,401,"PO BOX 1802, DUBOIS, WY, 82513","No_Match",NA,NA,NA,NA
975902,"PO BOX 1802","WINNIE","TX",77665,NA,NA,402,"PO BOX 1802, WINNIE, TX, 77665","No_Match",NA,NA,NA,NA
975903,"PO BOX 180233","DALLAS","TX",75218,NA,NA,403,"PO BOX 180233, DALLAS, TX, 75218","No_Match",NA,NA,NA,NA
975904,"PO BOX 180262","DELAFIELD","WI",53018,NA,NA,404,"PO BOX 180262, DELAFIELD, WI, 53018","No_Match",NA,NA,NA,NA
975905,"PO BOX 1803","BROKEN ARROW","OK",74013,NA,NA,405,"PO BOX 1803, BROKEN ARROW, OK, 74013","No_Match",NA,NA,NA,NA
975906,"PO BOX 1803","BRYSON CITY","NC",28713,NA,NA,406,"PO BOX 1803, BRYSON CITY, NC, 28713","No_Match",NA,NA,NA,NA
975907,"PO BOX 1803","CRESTED BUTTE","CO",81224,NA,NA,407,"PO BOX 1803, CRESTED BUTTE, CO, 81224","No_Match",NA,NA,NA,NA
975908,"PO BOX 1803","MARTINSVILLE","IN",46151,NA,NA,408,"PO BOX 1803, MARTINSVILLE, IN, 46151","No_Match",NA,NA,NA,NA
975909,"PO BOX 1803","SAN CARLOS","AZ",85550,NA,NA,409,"PO BOX 1803, SAN CARLOS, AZ, 85550","No_Match",NA,NA,NA,NA
975910,"PO BOX 18031","SPOKANE","WA",99228,NA,NA,410,"PO BOX 18031, SPOKANE, WA, 99228","No_Match",NA,NA,NA,NA
975911,"PO BOX 180342","LOS ANGELES","CA",90018,NA,NA,411,"PO BOX 180342, LOS ANGELES, CA, 90018","No_Match",NA,NA,NA,NA
975912,"PO BOX 18035","SUGAR LAND","TX",77496,NA,NA,412,"PO BOX 18035, SUGAR LAND, TX, 77496","No_Match",NA,NA,NA,NA
975913,"PO BOX 180372","CASSELBERRY","FL",32718,NA,NA,413,"PO BOX 180372, CASSELBERRY, FL, 32718","No_Match",NA,NA,NA,NA
975914,"PO BOX 180391","MOBILE","AL",36618,NA,NA,414,"PO BOX 180391, MOBILE, AL, 36618","No_Match",NA,NA,NA,NA
975915,"PO BOX 1804","BUFFALO","MO",65622,NA,NA,415,"PO BOX 1804, BUFFALO, MO, 65622","No_Match",NA,NA,NA,NA
975916,"PO BOX 1804","FLAGLER BEACH","FL",32136,NA,NA,416,"PO BOX 1804, FLAGLER BEACH, FL, 32136","No_Match",NA,NA,NA,NA
975917,"PO BOX 1804","JACKSON","CA",95642,NA,NA,417,"PO BOX 1804, JACKSON, CA, 95642","No_Match",NA,NA,NA,NA
975918,"PO BOX 1804","LEADVILLE","CO",80461,NA,NA,418,"PO BOX 1804, LEADVILLE, CO, 80461","No_Match",NA,NA,NA,NA
975919,"PO BOX 18041","ROCHESTER","NY",14618,NA,NA,419,"PO BOX 18041, ROCHESTER, NY, 14618","No_Match",NA,NA,NA,NA
975920,"PO BOX 18042","KEARNS","UT",84118,NA,NA,420,"PO BOX 18042, KEARNS, UT, 84118","No_Match",NA,NA,NA,NA
975921,"PO BOX 180487","ARLINGTON","TX",76096,NA,NA,421,"PO BOX 180487, ARLINGTON, TX, 76096","No_Match",NA,NA,NA,NA
975922,"PO BOX 1805","BETHANY","OK",73008,NA,NA,422,"PO BOX 1805, BETHANY, OK, 73008","No_Match",NA,NA,NA,NA
975923,"PO BOX 1805","CLAREMORE","OK",74018,NA,NA,423,"PO BOX 1805, CLAREMORE, OK, 74018","No_Match",NA,NA,NA,NA
975924,"PO BOX 1805","IDAHO SPRINGS","CO",80452,NA,NA,424,"PO BOX 1805, IDAHO SPRINGS, CO, 80452","No_Match",NA,NA,NA,NA
975925,"PO BOX 1805","JOHNSON CITY","TX",78636,NA,NA,425,"PO BOX 1805, JOHNSON CITY, TX, 78636","No_Match",NA,NA,NA,NA
975926,"PO BOX 1805","MENDOCINO","CA",95460,NA,NA,426,"PO BOX 1805, MENDOCINO, CA, 95460","No_Match",NA,NA,NA,NA
975927,"PO BOX 1805","RUSSELLVILLE","AR",72811,NA,NA,427,"PO BOX 1805, RUSSELLVILLE, AR, 72811","No_Match",NA,NA,NA,NA
975928,"PO BOX 180502","CASSELBERRY","FL",32718,NA,NA,428,"PO BOX 180502, CASSELBERRY, FL, 32718","No_Match",NA,NA,NA,NA
975929,"PO BOX 1807","GYPSUM","CO",81631,NA,NA,429,"PO BOX 1807, GYPSUM, CO, 81631","No_Match",NA,NA,NA,NA
975930,"PO BOX 18076","GOLDEN","CO",80402,NA,NA,430,"PO BOX 18076, GOLDEN, CO, 80402","No_Match",NA,NA,NA,NA
975931,"PO BOX 1808","MCCALL","ID",83638,NA,NA,431,"PO BOX 1808, MCCALL, ID, 83638","No_Match",NA,NA,NA,NA
975932,"PO BOX 18081","FOUNTAIN HILLS","AZ",85269,NA,NA,432,"PO BOX 18081, FOUNTAIN HILLS, AZ, 85269","No_Match",NA,NA,NA,NA
975933,"PO BOX 180854","TALLAHASSEE","FL",32318,NA,NA,433,"PO BOX 180854, TALLAHASSEE, FL, 32318","No_Match",NA,NA,NA,NA
975934,"PO BOX 18086","DILLEY","TX",78017,NA,NA,434,"PO BOX 18086, DILLEY, TX, 78017","No_Match",NA,NA,NA,NA
975935,"PO BOX 1809","BIGFORK","MT",59911,NA,NA,435,"PO BOX 1809, BIGFORK, MT, 59911","No_Match",NA,NA,NA,NA
975936,"PO BOX 1809","BROKEN ARROW","OK",74013,NA,NA,436,"PO BOX 1809, BROKEN ARROW, OK, 74013","No_Match",NA,NA,NA,NA
975937,"PO BOX 18093","FOUNTAIN HILLS","AZ",85269,NA,NA,437,"PO BOX 18093, FOUNTAIN HILLS, AZ, 85269","No_Match",NA,NA,NA,NA
975938,"PO BOX 181 33 SANDS AVENUE","MILTON","NY",12547,41.656236752,-73.9553172559999,438,"PO BOX 181 33 SANDS AVENUE, MILTON, NY, 12547","Match","Exact","33 SANDS AVE, MILTON, NY, 12547",41881290,"L"
975939,"PO BOX 181","ALBION","NY",14411,NA,NA,439,"PO BOX 181, ALBION, NY, 14411","No_Match",NA,NA,NA,NA
975940,"PO BOX 181","ANITA","PA",15711,NA,NA,440,"PO BOX 181, ANITA, PA, 15711","No_Match",NA,NA,NA,NA
975941,"PO BOX 181","AQUILLA","TX",76622,NA,NA,441,"PO BOX 181, AQUILLA, TX, 76622","No_Match",NA,NA,NA,NA
975942,"PO BOX 181","BYRON CENTER","MI",49315,NA,NA,442,"PO BOX 181, BYRON CENTER, MI, 49315","No_Match",NA,NA,NA,NA
975943,"PO BOX 181","CERES","CA",95307,NA,NA,443,"PO BOX 181, CERES, CA, 95307","No_Match",NA,NA,NA,NA
975944,"PO BOX 181","COLLEGE PLACE","WA",99324,NA,NA,444,"PO BOX 181, COLLEGE PLACE, WA, 99324","No_Match",NA,NA,NA,NA
975945,"PO BOX 181","COLMAN","SD",57017,NA,NA,445,"PO BOX 181, COLMAN, SD, 57017","No_Match",NA,NA,NA,NA
975946,"PO BOX 181","DANIEL","WY",83115,NA,NA,446,"PO BOX 181, DANIEL, WY, 83115","No_Match",NA,NA,NA,NA
975947,"PO BOX 181","EAGLE BUTTE","SD",57625,NA,NA,447,"PO BOX 181, EAGLE BUTTE, SD, 57625","No_Match",NA,NA,NA,NA
975948,"PO BOX 181","EASLEY","SC",29641,NA,NA,448,"PO BOX 181, EASLEY, SC, 29641","No_Match",NA,NA,NA,NA
975949,"PO BOX 181","ELYSIAN","MN",56028,NA,NA,449,"PO BOX 181, ELYSIAN, MN, 56028","No_Match",NA,NA,NA,NA
975950,"PO BOX 181","EPHRATA","WA",98823,NA,NA,450,"PO BOX 181, EPHRATA, WA, 98823","No_Match",NA,NA,NA,NA
975951,"PO BOX 181","FELTON","CA",95018,NA,NA,451,"PO BOX 181, FELTON, CA, 95018","No_Match",NA,NA,NA,NA
975952,"PO BOX 181","FORT KENT","ME",4743,NA,NA,452,"PO BOX 181, FORT KENT, ME, 4743","No_Match",NA,NA,NA,NA
975953,"PO BOX 181","GAUTIER","MS",39553,NA,NA,453,"PO BOX 181, GAUTIER, MS, 39553","No_Match",NA,NA,NA,NA
975954,"PO BOX 181","HENDERSON","TN",38340,NA,NA,454,"PO BOX 181, HENDERSON, TN, 38340","No_Match",NA,NA,NA,NA
975955,"PO BOX 181","HUMPTULIPS","WA",98552,NA,NA,455,"PO BOX 181, HUMPTULIPS, WA, 98552","No_Match",NA,NA,NA,NA
975956,"PO BOX 181","LINCOLN","IL",62656,NA,NA,456,"PO BOX 181, LINCOLN, IL, 62656","No_Match",NA,NA,NA,NA
975957,"PO BOX 181","MARIETTA","OH",45750,NA,NA,457,"PO BOX 181, MARIETTA, OH, 45750","No_Match",NA,NA,NA,NA
975958,"PO BOX 181","MARYSVILLE","PA",17053,NA,NA,458,"PO BOX 181, MARYSVILLE, PA, 17053","No_Match",NA,NA,NA,NA
975959,"PO BOX 181","PASS CHRISTIAN","MS",39571,NA,NA,459,"PO BOX 181, PASS CHRISTIAN, MS, 39571","No_Match",NA,NA,NA,NA
975960,"PO BOX 181","ROCKY MOUNT","NC",27802,NA,NA,460,"PO BOX 181, ROCKY MOUNT, NC, 27802","No_Match",NA,NA,NA,NA
975961,"PO BOX 181","ST JOHN","WA",99171,NA,NA,461,"PO BOX 181, ST JOHN, WA, 99171","No_Match",NA,NA,NA,NA
975962,"PO BOX 181","THETFORD","VT",5074,NA,NA,462,"PO BOX 181, THETFORD, VT, 5074","No_Match",NA,NA,NA,NA
975963,"PO BOX 181","TROY","MO",63379,NA,NA,463,"PO BOX 181, TROY, MO, 63379","No_Match",NA,NA,NA,NA
975964,"PO BOX 181","WELLSBURG","IA",50680,NA,NA,464,"PO BOX 181, WELLSBURG, IA, 50680","No_Match",NA,NA,NA,NA
975965,"PO BOX 181","WISDOM","MT",59761,NA,NA,465,"PO BOX 181, WISDOM, MT, 59761","No_Match",NA,NA,NA,NA
975966,"PO BOX 181/124 RAYMOND AVE","POUGHKEEPSIE","NY",12604,41.6823113390001,-73.896457558,466,"PO BOX 181/124 RAYMOND AVE, POUGHKEEPSIE, NY, 12604","Match","Non_Exact","181 RAYMOND AVE, POUGHKEEPSIE, NY, 12601",4219300,"R"
975967,"PO BOX 1810","ANGIER","NC",27501,NA,NA,467,"PO BOX 1810, ANGIER, NC, 27501","No_Match",NA,NA,NA,NA
975968,"PO BOX 1810","NEWPORT","OR",97365,NA,NA,468,"PO BOX 1810, NEWPORT, OR, 97365","No_Match",NA,NA,NA,NA
975969,"PO BOX 18102","CHARLOTTE","NC",28218,NA,NA,469,"PO BOX 18102, CHARLOTTE, NC, 28218","No_Match",NA,NA,NA,NA
975970,"PO BOX 181033","FAIRFIELD","OH",45018,NA,NA,470,"PO BOX 181033, FAIRFIELD, OH, 45018","No_Match",NA,NA,NA,NA
975971,"PO BOX 181063","DALLAS","TX",75218,NA,NA,471,"PO BOX 181063, DALLAS, TX, 75218","No_Match",NA,NA,NA,NA
975972,"PO BOX 181072","CORONADO","CA",91278,NA,NA,472,"PO BOX 181072, CORONADO, CA, 91278","No_Match",NA,NA,NA,NA
975973,"PO BOX 181072","CORONADO","CA",92178,NA,NA,473,"PO BOX 181072, CORONADO, CA, 92178","No_Match",NA,NA,NA,NA
975974,"PO BOX 181085","TALLAHASSEE","FL",32318,NA,NA,474,"PO BOX 181085, TALLAHASSEE, FL, 32318","No_Match",NA,NA,NA,NA
975975,"PO BOX 1811","FAJARDO","PR",738,NA,NA,475,"PO BOX 1811, FAJARDO, PR, 738","No_Match",NA,NA,NA,NA
975976,"PO BOX 1811","FRASER","CO",80442,NA,NA,476,"PO BOX 1811, FRASER, CO, 80442","No_Match",NA,NA,NA,NA
975977,"PO BOX 1811","QUARTZSITE","AZ",85346,NA,NA,477,"PO BOX 1811, QUARTZSITE, AZ, 85346","No_Match",NA,NA,NA,NA
975978,"PO BOX 1811","SNOWFLAKE","AZ",85937,NA,NA,478,"PO BOX 1811, SNOWFLAKE, AZ, 85937","No_Match",NA,NA,NA,NA
975979,"PO BOX 1811","TAOS","NM",87571,NA,NA,479,"PO BOX 1811, TAOS, NM, 87571","No_Match",NA,NA,NA,NA
975980,"PO BOX 18117","ASHEVILLE","NC",28814,NA,NA,480,"PO BOX 18117, ASHEVILLE, NC, 28814","No_Match",NA,NA,NA,NA
975981,"PO BOX 1812","FRANKLIN","NC",28734,NA,NA,481,"PO BOX 1812, FRANKLIN, NC, 28734","No_Match",NA,NA,NA,NA
975982,"PO BOX 1812","IDAHO SPRINGS","CO",80452,NA,NA,482,"PO BOX 1812, IDAHO SPRINGS, CO, 80452","No_Match",NA,NA,NA,NA
975983,"PO BOX 1812","KANKAKEE","IL",60901,NA,NA,483,"PO BOX 1812, KANKAKEE, IL, 60901","No_Match",NA,NA,NA,NA
975984,"PO BOX 1812","TUCSON","AZ",85702,NA,NA,484,"PO BOX 1812, TUCSON, AZ, 85702","No_Match",NA,NA,NA,NA
975985,"PO BOX 18124","PENSACOLA","FL",32523,NA,NA,485,"PO BOX 18124, PENSACOLA, FL, 32523","No_Match",NA,NA,NA,NA
975986,"PO BOX 1813","ANNANDALE","VA",22003,NA,NA,486,"PO BOX 1813, ANNANDALE, VA, 22003","No_Match",NA,NA,NA,NA
975987,"PO BOX 1813","FINDLAY","OH",45839,NA,NA,487,"PO BOX 1813, FINDLAY, OH, 45839","No_Match",NA,NA,NA,NA
975988,"PO BOX 1813","RANCHOS DE TAOS","NM",87557,NA,NA,488,"PO BOX 1813, RANCHOS DE TAOS, NM, 87557","No_Match",NA,NA,NA,NA
975989,"PO BOX 1813","RED OAK","TX",75154,NA,NA,489,"PO BOX 1813, RED OAK, TX, 75154","No_Match",NA,NA,NA,NA
975990,"PO BOX 1813","ROSWELL","NM",88202,NA,NA,490,"PO BOX 1813, ROSWELL, NM, 88202","No_Match",NA,NA,NA,NA
975991,"PO BOX 1813","VILLA RICA","GA",30180,NA,NA,491,"PO BOX 1813, VILLA RICA, GA, 30180","No_Match",NA,NA,NA,NA
975992,"PO BOX 1814","FAYETTEVILLE","AR",72702,NA,NA,492,"PO BOX 1814, FAYETTEVILLE, AR, 72702","No_Match",NA,NA,NA,NA
975993,"PO BOX 1814","FREDERICKSBURG","TX",78624,NA,NA,493,"PO BOX 1814, FREDERICKSBURG, TX, 78624","No_Match",NA,NA,NA,NA
975994,"PO BOX 1814","RANCHO SANTA FE","CA",92067,NA,NA,494,"PO BOX 1814, RANCHO SANTA FE, CA, 92067","No_Match",NA,NA,NA,NA
975995,"PO BOX 1814","WOODSTOCK","GA",30188,NA,NA,495,"PO BOX 1814, WOODSTOCK, GA, 30188","No_Match",NA,NA,NA,NA
975996,"PO BOX 181583","CLEVELAND HEIGHTS","OH",44118,NA,NA,496,"PO BOX 181583, CLEVELAND HEIGHTS, OH, 44118","No_Match",NA,NA,NA,NA
975997,"PO BOX 181588","DALLAS","TX",75218,NA,NA,497,"PO BOX 181588, DALLAS, TX, 75218","No_Match",NA,NA,NA,NA
975998,"PO BOX 1816","BELTON","TX",76513,NA,NA,498,"PO BOX 1816, BELTON, TX, 76513","No_Match",NA,NA,NA,NA
975999,"PO BOX 181605","ARLINGTON","TX",76096,NA,NA,499,"PO BOX 181605, ARLINGTON, TX, 76096","No_Match",NA,NA,NA,NA
976000,"PO BOX 18161","ATLANTA","GA",30316,NA,NA,500,"PO BOX 18161, ATLANTA, GA, 30316","No_Match",NA,NA,NA,NA
