"ID","Address","City","State","Zip","lat","long","id","input_address","match_indicator","match_type","matched_address","tiger_line_id","tiger_side"
50501,"10845 ARVADA PLACE","FISHERS","IN",46038,39.9736354660001,-85.976724523,1,"10845 ARVADA PLACE, FISHERS, IN, 46038","Match","Exact","10845 ARVADA PL, FISHERS, IN, 46038",29346217,"L"
50502,"10845 E SYCAMORE AVE","CLAREMORE","OK",74019,36.277512405,-95.634675962,2,"10845 E SYCAMORE AVE, CLAREMORE, OK, 74019","Match","Exact","10845 E SYCAMORE AVE, CLAREMORE, OK, 74019",20682034,"L"
50503,"10845 GAMBRIL DR","MANASSAS","VA",20109,38.7795051750001,-77.5213117759999,3,"10845 GAMBRIL DR, MANASSAS, VA, 20109","Match","Exact","10845 GAMBRIL DR, MANASSAS, VA, 20109",207183242,"L"
50504,"10845 GRIFFITH PEAK DR - SUITE 550","LAS VEGAS","NV",89135,NA,NA,4,"10845 GRIFFITH PEAK DR - SUITE 550, LAS VEGAS, NV, 89135","No_Match",NA,NA,NA,NA
50505,"10845 HOLBERTS COVE RD","SALUDA","NC",28773,35.306921554,-82.2177212939999,5,"10845 HOLBERTS COVE RD, SALUDA, NC, 28773","Match","Non_Exact","10845 HOLBERT COVE RD, SALUDA, NC, 28773",44312836,"L"
50506,"10845 LA ALBERCA AVE","SAN DIEGO","CA",92127,33.012127499,-117.106274104,6,"10845 LA ALBERCA AVE, SAN DIEGO, CA, 92127","Match","Exact","10845 LA ALBERCA AVE, SAN DIEGO, CA, 92127",195675939,"L"
50507,"10845 N 1970 RD","ELK CITY","OK",73644,35.4436095680001,-99.470039806,7,"10845 N 1970 RD, ELK CITY, OK, 73644","Match","Non_Exact","10845 N 1970, ELK CITY, OK, 73644",151561675,"L"
50508,"10845 PECK RD","LUMBERTON","TX",77657,30.1945763860001,-94.155570532,8,"10845 PECK RD, LUMBERTON, TX, 77657","Match","Exact","10845 PECK RD, LUMBERTON, TX, 77657",648161466,"L"
50509,"10845 VERNON AVE","HUNTINGTON WOODS","MI",48070,42.481365162,-83.1724153169999,9,"10845 VERNON AVE, HUNTINGTON WOODS, MI, 48070","Match","Exact","10845 VERNON AVE, HUNTINGTON WOODS, MI, 48070",69741656,"L"
50510,"10845 VINEYARD COURT","CLERMONT","FL",34711,28.493566291,-81.775752729,10,"10845 VINEYARD COURT, CLERMONT, FL, 34711","Match","Exact","10845 VINEYARD CT, CLERMONT, FL, 34711",94169693,"L"
50511,"10846 170TH AVE NW","ELK RIVER","MN",55330,NA,NA,11,"10846 170TH AVE NW, ELK RIVER, MN, 55330","No_Match",NA,NA,NA,NA
50512,"10846 BALL RD","GRASS VALLEY","CA",95949,39.145311013,-121.060682109,12,"10846 BALL RD, GRASS VALLEY, CA, 95949","Match","Exact","10846 BALL RD, GRASS VALLEY, CA, 95949",106543303,"R"
50513,"10846 S YUTA STREET","PHOENIX","AZ",85044,33.347825232,-111.992877062,13,"10846 S YUTA STREET, PHOENIX, AZ, 85044","Match","Exact","10846 S YUTA ST, PHOENIX, AZ, 85044",647617415,"R"
50514,"10846 TIMBER LINE LN","ELLICOTT CITY","MD",21042,39.3043475860001,-76.884251007,14,"10846 TIMBER LINE LN, ELLICOTT CITY, MD, 21042","Match","Exact","10846 TIMBER LINE LN, ELLICOTT CITY, MD, 21042",649190916,"L"
50515,"10847 COUNTY RD Y","MARSHFIELD","WI",54449,NA,NA,15,"10847 COUNTY RD Y, MARSHFIELD, WI, 54449","No_Match",NA,NA,NA,NA
50516,"10847 COUNTY ROAD 1223","TYLER","TX",75709,32.3247254300001,-95.445376489,16,"10847 COUNTY ROAD 1223, TYLER, TX, 75709","Match","Exact","10847 CO RD 1223, TYLER, TX, 75709",141303887,"R"
50517,"10847 LA MIRADA BLVD","WHITTIER","CA",90604,33.9336526010001,-118.011830075,17,"10847 LA MIRADA BLVD, WHITTIER, CA, 90604","Match","Exact","10847 LA MIRADA BLVD, WHITTIER, CA, 90604",241147769,"R"
50518,"10847 SOLINA AVENUE","MESA","AZ",85212,33.3273432670001,-111.599373204,18,"10847 SOLINA AVENUE, MESA, AZ, 85212","Match","Non_Exact","10847 E SOLINA AVE, MESA, AZ, 85212",616712801,"R"
50519,"10847 SPENCER HOLLOW ROAD","FRENCH LICK","IN",47432,NA,NA,19,"10847 SPENCER HOLLOW ROAD, FRENCH LICK, IN, 47432","No_Match",NA,NA,NA,NA
50520,"10847 SUNRISE POINT","SHREVEPORT","LA",71106,32.346511779,-93.723786246,20,"10847 SUNRISE POINT, SHREVEPORT, LA, 71106","Match","Exact","10847 SUNRISE PT, SHREVEPORT, LA, 71106",57487322,"L"
50521,"10847 SW 75 TERRACE","MIAMI","FL",33173,25.6978217500001,-80.368877789,21,"10847 SW 75 TERRACE, MIAMI, FL, 33173","Match","Exact","10847 SW 75TH TER, MIAMI, FL, 33173",116074913,"L"
50522,"10847 WEST OLIVE AVE","PEORIA","AZ",85345,33.565595957,-112.292855643,22,"10847 WEST OLIVE AVE, PEORIA, AZ, 85345","Match","Exact","10847 W OLIVE AVE, PEORIA, AZ, 85345",128168969,"L"
50523,"10848 14 HALF AVENUE","LEMORE","CA",93245,NA,NA,23,"10848 14 HALF AVENUE, LEMORE, CA, 93245","No_Match",NA,NA,NA,NA
50524,"10848 8TH AVE SW","SEATTLE","WA",98146,47.5060435680001,-122.344591743,24,"10848 8TH AVE SW, SEATTLE, WA, 98146","Match","Exact","10848 8TH AVE SW, SEATTLE, WA, 98146",186623478,"L"
50525,"10848 EDGEWOOD DR","DEMOTTE","IN",46310,41.168588341,-87.268283067,25,"10848 EDGEWOOD DR, DEMOTTE, IN, 46310","Match","Exact","10848 EDGEWOOD DR, DEMOTTE, IN, 46310",15366310,"R"
50526,"10848 EDGEWOOD ROAD","HARRISON","OH",45030,39.2792906060001,-84.7642455129999,26,"10848 EDGEWOOD ROAD, HARRISON, OH, 45030","Match","Exact","10848 EDGEWOOD RD, HARRISON, OH, 45030",652017277,"R"
50527,"10848 FLATLANDS 9TH STREET 27A","BROOKLYN","NY",11236,40.640576545,-73.882280425,27,"10848 FLATLANDS 9TH STREET 27A, BROOKLYN, NY, 11236","Match","Exact","10848 FLATLANDS 9TH ST, BROOKLYN, NY, 11236",59087083,"R"
50528,"10848 HENDERSON ROAD","FAIRFAX STATION","VA",22039,38.750052613,-77.320697506,28,"10848 HENDERSON ROAD, FAIRFAX STATION, VA, 22039","Match","Exact","10848 HENDERSON RD, FAIRFAX STATION, VA, 22039",75967891,"R"
50529,"10848 LAKE FOREST DR","CONROE","TX",77384,30.2405703750001,-95.513527981,29,"10848 LAKE FOREST DR, CONROE, TX, 77384","Match","Exact","10848 LAKE FOREST DR, CONROE, TX, 77384",79329018,"L"
50530,"10848 MALLORY DR","ST LOUIS","MO",63123,38.530489247,-90.35677392,30,"10848 MALLORY DR, ST LOUIS, MO, 63123","Match","Exact","10848 MALLORY DR, SAINT LOUIS, MO, 63123",100142278,"L"
50531,"10848 MARTIS DR","TRUCKEE","CA",96161,39.3272527670001,-120.163720254,31,"10848 MARTIS DR, TRUCKEE, CA, 96161","Match","Exact","10848 MARTIS DR, TRUCKEE, CA, 96161",106525070,"R"
50532,"10848 NW 84 STREET","DORAL","FL",33178,25.849684188,-80.373772418,32,"10848 NW 84 STREET, DORAL, FL, 33178","Match","Exact","10848 NW 84TH ST, DORAL, FL, 33178",634363453,"R"
50533,"10848 PARKGATE LANE","KNOXVILLE","TN",37934,35.891683379,-84.138790973,33,"10848 PARKGATE LANE, KNOXVILLE, TN, 37934","Match","Exact","10848 PARKGATE LN, KNOXVILLE, TN, 37934",42634185,"R"
50534,"10848 PINE","TAYLOR","MI",48180,42.228749002,-83.264233244,34,"10848 PINE, TAYLOR, MI, 48180","Match","Non_Exact","10848 PINE ST, TAYLOR, MI, 48180",95709792,"R"
50535,"10848 RAVENS CRY STREET","LAS VEGAS","NV",89183,35.9929819070001,-115.157724812,35,"10848 RAVENS CRY STREET, LAS VEGAS, NV, 89183","Match","Non_Exact","10848 RAVENS CRY CT, LAS VEGAS, NV, 89183",635002825,"L"
50536,"10848 SOUTH CORAL DUNE DRIVE","SOUTH JORDAN","UT",84095,40.5571551780001,-111.98575978,36,"10848 SOUTH CORAL DUNE DRIVE, SOUTH JORDAN, UT, 84095","Match","Non_Exact","10848 S CORAL DUNE DR, SOUTH JORDAN, UT, 84009",618161862,"R"
50537,"10848 STACI LN","EL PASO","TX",79927,31.6421609510001,-106.276497283,37,"10848 STACI LN, EL PASO, TX, 79927","Match","Exact","10848 STACI LN, EL PASO, TX, 79927",189356492,"L"
50538,"10848 SW 247 ST","HOMESTEAD","FL",33032,25.538218703,-80.3665870839999,38,"10848 SW 247 ST, HOMESTEAD, FL, 33032","Match","Exact","10848 SW 247TH ST, HOMESTEAD, FL, 33032",624581835,"R"
50539,"10848 US 301S","HAMPTON","FL",32044,NA,NA,39,"10848 US 301S, HAMPTON, FL, 32044","No_Match",NA,NA,NA,NA
50540,"10848 WALLFLOWER AVENUE","LOS VEGAS","NV",89135,36.1292900540001,-115.329522841,40,"10848 WALLFLOWER AVENUE, LOS VEGAS, NV, 89135","Match","Exact","10848 WALLFLOWER AVE, LAS VEGAS, NV, 89135",201997270,"R"
50541,"10849 CHAPEL ROAD","CORDOVA","MD",21625,38.8462272740001,-75.984534791,41,"10849 CHAPEL ROAD, CORDOVA, MD, 21625","Match","Exact","10849 CHAPEL RD, CORDOVA, MD, 21625",68401430,"R"
50542,"10849 KURALEI DR","JACKSONVILLE","FL",32246,30.316280836,-81.519911828,42,"10849 KURALEI DR, JACKSONVILLE, FL, 32246","Match","Exact","10849 KURALEI DR, JACKSONVILLE, FL, 32246",83905565,"L"
50543,"10849 LONGVIEW DR","NEW PORT RICHEY","FL",34654,NA,NA,43,"10849 LONGVIEW DR, NEW PORT RICHEY, FL, 34654","No_Match",NA,NA,NA,NA
50544,"10849 MICHAEL","TAYLOR","MI",48180,42.2274721850001,-83.281611727,44,"10849 MICHAEL, TAYLOR, MI, 48180","Match","Non_Exact","10849 MICHAEL ST, TAYLOR, MI, 48180",95437581,"L"
50545,"10849 MT GLEASON AVE","SUNLAND","CA",91040,34.266361553,-118.302680689,45,"10849 MT GLEASON AVE, SUNLAND, CA, 91040","Match","Exact","10849 MOUNT GLEASON AVE, SUNLAND, CA, 91040",141587741,"L"
50546,"10849 SCOTSPRING","DALLAS","TX",75218,32.859087575,-96.698809625,46,"10849 SCOTSPRING, DALLAS, TX, 75218","Match","Non_Exact","10849 SCOTSPRING LN, DALLAS, TX, 75218",102922214,"L"
50547,"10849 SPARLING","MEMPHIS","MI",48041,42.963135677,-82.759894443,47,"10849 SPARLING, MEMPHIS, MI, 48041","Match","Non_Exact","10849 SPARLING RD, MEMPHIS, MI, 48041",110979593,"R"
50548,"10849 UNIT 2 COLOMA ROAD","RANCHO CORDOVA","CA",95670,NA,NA,48,"10849 UNIT 2 COLOMA ROAD, RANCHO CORDOVA, CA, 95670","No_Match",NA,NA,NA,NA
50549,"1085 18TH AVE","NEWARK","NJ",7106,40.740370216,-74.233364014,49,"1085 18TH AVE, NEWARK, NJ, 7106","Match","Exact","1085 18TH AVE, NEWARK, NJ, 07106",63463977,"L"
50550,"1085 60TH STREET","OAKLAND","CA",94608,37.843170306,-122.282931046,50,"1085 60TH STREET, OAKLAND, CA, 94608","Match","Exact","1085 60TH ST, OAKLAND, CA, 94608",124994480,"L"
50551,"1085 82ND TER N","ST PETERSBURG","FL",33702,27.8470132370001,-82.6489386539999,51,"1085 82ND TER N, ST PETERSBURG, FL, 33702","Match","Exact","1085 82ND TER N, SAINT PETERSBURG, FL, 33702",124703208,"R"
50552,"1085 ADAMS LANE","STARKVILLE","MS",39759,33.523095428,-88.726802527,52,"1085 ADAMS LANE, STARKVILLE, MS, 39759","Match","Exact","1085 ADAMS LN, STARKVILLE, MS, 39759",607229658,"R"
50553,"1085 ALCOVE LOOP","THE VILLAGES","FL",32162,28.869964381,-81.977635353,53,"1085 ALCOVE LOOP, THE VILLAGES, FL, 32162","Match","Exact","1085 ALCOVE LOOP, THE VILLAGES, FL, 32162",634059585,"L"
50554,"1085 ALTA MESA","BROWNSVILLE","TX",78526,25.976313482,-97.50150648,54,"1085 ALTA MESA, BROWNSVILLE, TX, 78526","Match","Non_Exact","1085 ALTA MESA BLVD, BROWNSVILLE, TX, 78526",89997316,"R"
50555,"1085 APARTMENT 3 CHEYENNE COURT","GREENVILLE","NC",27858,NA,NA,55,"1085 APARTMENT 3 CHEYENNE COURT, GREENVILLE, NC, 27858","No_Match",NA,NA,NA,NA
50556,"1085 APPLE TREE LANE","BROOKFIELD","WI",53005,43.020217394,-88.118750705,56,"1085 APPLE TREE LANE, BROOKFIELD, WI, 53005","Match","Exact","1085 APPLE TREE LN, BROOKFIELD, WI, 53005",53867426,"L"
50557,"1085 ASHLEY AVENUE","BEAUMONT","TX",77701,30.0919131900001,-94.105935888,57,"1085 ASHLEY AVENUE, BEAUMONT, TX, 77701","Match","Exact","1085 ASHLEY AVE, BEAUMONT, TX, 77701",73854200,"L"
50558,"1085 AVON AVE","SAN LEANDRO","CA",94579,37.6934092170001,-122.149646449,58,"1085 AVON AVE, SAN LEANDRO, CA, 94579","Match","Exact","1085 AVON AVE, SAN LEANDRO, CA, 94579",125012990,"R"
50559,"1085 BATON ROUGE ROAD","WILLIAMSTOWN","KY",41097,38.6589684100001,-84.595595045,59,"1085 BATON ROUGE ROAD, WILLIAMSTOWN, KY, 41097","Match","Exact","1085 BATON ROUGE RD, WILLIAMSTOWN, KY, 41097",648898585,"L"
50560,"1085 BLUE CASTLE LANE","VIRGINIA BEACH","VA",23454,36.865696803,-76.052656116,60,"1085 BLUE CASTLE LANE, VIRGINIA BEACH, VA, 23454","Match","Exact","1085 BLUE CASTLE LN, VIRGINIA BCH, VA, 23454",122261255,"L"
50561,"1085 BRIAR VISTA TERRACE","ATLANTA","GA",30324,33.80985292,-84.339734579,61,"1085 BRIAR VISTA TERRACE, ATLANTA, GA, 30324","Match","Non_Exact","1085 BRIAR VISTA TER NE, ATLANTA, GA, 30324",23358412,"R"
50562,"1085 BROADLAND LN","COLUMBUS","OH",43213,NA,NA,62,"1085 BROADLAND LN, COLUMBUS, OH, 43213","No_Match",NA,NA,NA,NA
50563,"1085 BROWN RD","JAMESVILLE","NC",27846,35.7932038180001,-76.8987069579999,63,"1085 BROWN RD, JAMESVILLE, NC, 27846","Match","Exact","1085 BROWN RD, JAMESVILLE, NC, 27846",635973761,"R"
50564,"1085 BURNING EMBERS LANE","CONCORD","NC",28025,35.348774559,-80.589909737,64,"1085 BURNING EMBERS LANE, CONCORD, NC, 28025","Match","Non_Exact","1085 BURNING EMBERS LN SW, CONCORD, NC, 28025",635646109,"L"
50565,"1085 COMPTON PLACE","FOREST","VA",24551,37.3789752800001,-79.263785114,65,"1085 COMPTON PLACE, FOREST, VA, 24551","Match","Exact","1085 COMPTON PL, FOREST, VA, 24551",62655975,"R"
50566,"1085 CORSE RD","WHITINGHAM","VT",5361,42.803128207,-72.862776868,66,"1085 CORSE RD, WHITINGHAM, VT, 5361","Match","Exact","1085 CORSE RD, WHITINGHAM, VT, 05361",171108138,"L"
50567,"1085 COUNTY LINE ROAD","EDGEWOOD","NM",87015,35.117354365,-106.246838346,67,"1085 COUNTY LINE ROAD, EDGEWOOD, NM, 87015","Match","Exact","1085 COUNTY LINE RD, EDGEWOOD, NM, 87015",636709220,"R"
50568,"1085 COUNTY ROAD 2222","CLEVELAND","TX",77327,30.345517328,-94.941761764,68,"1085 COUNTY ROAD 2222, CLEVELAND, TX, 77327","Match","Exact","1085 CO RD 2222, CLEVELAND, TX, 77327",24119545,"R"
50569,"1085 CRUSHED APPLE DRIVE","MARTINSBURG","WV",25403,39.5012555870001,-77.990415346,69,"1085 CRUSHED APPLE DRIVE, MARTINSBURG, WV, 25403","Match","Exact","1085 CRUSHED APPLE DR, MARTINSBURG, WV, 25403",618018583,"L"
50570,"1085 DECKNER AVE SW","ATLANTA","GA",30310,33.7139511330001,-84.423173078,70,"1085 DECKNER AVE SW, ATLANTA, GA, 30310","Match","Exact","1085 DECKNER AVE SW, ATLANTA, GA, 30310",17345576,"R"
50571,"1085 DOUBLE BRIDGES ROAD","WINTERVILLE","GA",30683,33.873271328,-83.262430614,71,"1085 DOUBLE BRIDGES ROAD, WINTERVILLE, GA, 30683","Match","Exact","1085 DOUBLE BRIDGES RD, WINTERVILLE, GA, 30683",618348098,"R"
50572,"1085 DUXBERRY DR","RAVENNA","OH",44266,41.1432691700001,-81.263107249,72,"1085 DUXBERRY DR, RAVENNA, OH, 44266","Match","Exact","1085 DUXBERRY DR, RAVENNA, OH, 44266",208687590,"L"
50573,"1085 E ALAMOSA DRIVE","TERRELL","TX",75160,32.6888063420001,-96.3937423469999,73,"1085 E ALAMOSA DRIVE, TERRELL, TX, 75160","Match","Exact","1085 E ALAMOSA DR, TERRELL, TX, 75160",123746832,"L"
50574,"1085 EAST 8600 SOUTH","SANDY","UT",84094,40.5950306500001,-111.859954081,74,"1085 EAST 8600 SOUTH, SANDY, UT, 84094","Match","Exact","1085 E 8600 S, SANDY, UT, 84094",176124507,"L"
50575,"1085 EAST MAIN","EAST PRAIRIE","MO",63845,36.788940874,-89.373884059,75,"1085 EAST MAIN, EAST PRAIRIE, MO, 63845","Match","Non_Exact","1085 E MAIN ST, EAST PRAIRIE, MO, 63845",27930905,"L"
50576,"1085 FIRST AVE","NAPA","CA",94558,38.2992051190001,-122.253489072,76,"1085 FIRST AVE, NAPA, CA, 94558","Match","Exact","1085 1ST AVE, NAPA, CA, 94558",634212345,"L"
50577,"1085 GREEN ACRES","BOSQUE FARMS","NM",87068,34.858306736,-106.702843257,77,"1085 GREEN ACRES, BOSQUE FARMS, NM, 87068","Match","Non_Exact","1085 GREEN ACRES LN, BOSQUE FARMS, NM, 87068",640408725,"L"
50578,"1085 HART ROAD","PISGAH FOREST","NC",28768,35.2394280450001,-82.6438596,78,"1085 HART ROAD, PISGAH FOREST, NC, 28768","Match","Exact","1085 HART RD, PISGAH FOREST, NC, 28768",133738554,"R"
50579,"1085 HEMLOCK CIR","ST GEORGE","UT",84770,37.059910943,-113.561446174,79,"1085 HEMLOCK CIR, ST GEORGE, UT, 84770","Match","Non_Exact","1085 HEMLOCK CIR, SAINT GEORGE, UT, 84790",166170882,"R"
50580,"1085 HIDDEN HILLS DR","DRIPPING SPRINGS","TX",78620,30.204568717,-98.026169657,80,"1085 HIDDEN HILLS DR, DRIPPING SPRINGS, TX, 78620","Match","Exact","1085 HIDDEN HILLS DR, DRIPPING SPRINGS, TX, 78620",63823828,"R"
50581,"1085 HIGHLAND AVE","WADLEY","AL",36276,NA,NA,81,"1085 HIGHLAND AVE, WADLEY, AL, 36276","No_Match",NA,NA,NA,NA
50582,"1085 JENNINGS AVE","SALEM","OH",44460,40.9113715840001,-80.863487517,82,"1085 JENNINGS AVE, SALEM, OH, 44460","Match","Exact","1085 JENNINGS AVE, SALEM, OH, 44460",605099501,"R"
50583,"1085 LAKE RD","CONNEAUT","OH",44030,41.954985648,-80.586503189,83,"1085 LAKE RD, CONNEAUT, OH, 44030","Match","Exact","1085 LAKE RD, CONNEAUT, OH, 44030",636617516,"R"
50584,"1085 LAKE RIDGE LANE","TALLADEGA","AL",35160,33.467113367,-86.2971587329999,84,"1085 LAKE RIDGE LANE, TALLADEGA, AL, 35160","Match","Exact","1085 LAKE RIDGE LN, TALLADEGA, AL, 35160",66914694,"L"
50585,"1085 LEIGHS BROOK WAY","DACULA","GA",30019,33.9614641260001,-83.891810885,85,"1085 LEIGHS BROOK WAY, DACULA, GA, 30019","Match","Exact","1085 LEIGHS BROOK WAY, DACULA, GA, 30019",88928294,"R"
50586,"1085 LIBERTY AVENUE","UNION","NJ",7083,40.7067106530001,-74.2931648969999,86,"1085 LIBERTY AVENUE, UNION, NJ, 7083","Match","Exact","1085 LIBERTY AVE, UNION, NJ, 07083",60569085,"R"
50587,"1085 LINKS DR","MIDWAY","UT",84049,40.531445196,-111.492836196,87,"1085 LINKS DR, MIDWAY, UT, 84049","Match","Exact","1085 LINKS DR, MIDWAY, UT, 84049",625176866,"L"
50588,"1085 LOCKEHAVEN ROAD","ENFIELD","NH",3748,43.6089274890001,-72.027332637,88,"1085 LOCKEHAVEN ROAD, ENFIELD, NH, 3748","Match","Exact","1085 LOCKEHAVEN RD, ENFIELD, NH, 03748",145663718,"L"
50589,"1085 LONG BRANCH PARKWAY","CALERA","AL",35040,33.1096872360001,-86.674817957,89,"1085 LONG BRANCH PARKWAY, CALERA, AL, 35040","Match","Exact","1085 LONG BRANCH PKWY, CALERA, AL, 35040",633476232,"L"
50590,"1085 LONGLEAF","VIDOR","TX",77662,30.1170596700001,-93.9962586089999,90,"1085 LONGLEAF, VIDOR, TX, 77662","Match","Non_Exact","1085 LONGLEAF ST, VIDOR, TX, 77662",74018846,"L"
50591,"1085 LULLWATER CIRCLE","MCDONOUGH","GA",30253,33.4841506240001,-84.146515141,91,"1085 LULLWATER CIRCLE, MCDONOUGH, GA, 30253","Match","Exact","1085 LULLWATER CIR, MCDONOUGH, GA, 30253",23212179,"R"
50592,"1085 MARGUERITE CT","LAFAYETTE","CA",94549,37.897537173,-122.146034543,92,"1085 MARGUERITE CT, LAFAYETTE, CA, 94549","Match","Exact","1085 MARGUERITE CT, LAFAYETTE, CA, 94549",192046418,"R"
50593,"1085 MARTHAS CT","KNOXVILLE","MD",21758,NA,NA,93,"1085 MARTHAS CT, KNOXVILLE, MD, 21758","Tie",NA,NA,NA,NA
50594,"1085 MCDOUGALL DR","LANDER","WY",82520,42.830391472,-108.748844609,94,"1085 MCDOUGALL DR, LANDER, WY, 82520","Match","Exact","1085 MCDOUGALL DR, LANDER, WY, 82520",148435935,"R"
50595,"1085 MICHIGAN AVE","PASADENA","CA",91104,34.1648284440001,-118.12561605,95,"1085 MICHIGAN AVE, PASADENA, CA, 91104","Match","Non_Exact","1085 N MICHIGAN AVE, PASADENA, CA, 91104",141628887,"L"
50596,"1085 MULFORD RD","GRANDVIEW HEIGHTS","OH",43212,39.9788447870001,-83.033352292,96,"1085 MULFORD RD, GRANDVIEW HEIGHTS, OH, 43212","Match","Exact","1085 MULFORD RD, GRANDVIEW HEIGHTS, OH, 43212",218681110,"L"
50597,"1085 N 1600 E","TERRETON","ID",83450,43.802842266,-112.376229602,97,"1085 N 1600 E, TERRETON, ID, 83450","Match","Exact","1085 N 1600 E, TERRETON, ID, 83450",119299887,"L"
50598,"1085 N VINE","BOISE","ID",83703,43.6365479350001,-116.232010311,98,"1085 N VINE, BOISE, ID, 83703","Match","Non_Exact","1085 VINE ST, BOISE, ID, 83703",117858783,"R"
50599,"1085 N WASHINGTON ST","POTTSTOWN","PA",19464,40.262121113,-75.62658205,99,"1085 N WASHINGTON ST, POTTSTOWN, PA, 19464","Match","Exact","1085 N WASHINGTON ST, POTTSTOWN, PA, 19464",135062297,"L"
50600,"1085 NICK DAVIS RD","HARVEST","AL",35749,34.8085173740001,-86.7517171059999,100,"1085 NICK DAVIS RD, HARVEST, AL, 35749","Match","Exact","1085 NICK DAVIS RD, HARVEST, AL, 35749",649150991,"L"
50601,"1085 NORTH MANCHESTER ST","ARLINGTON","VA",22205,38.880405196,-77.143696909,101,"1085 NORTH MANCHESTER ST, ARLINGTON, VA, 22205","Match","Exact","1085 N MANCHESTER ST, ARLINGTON, VA, 22205",76467405,"R"
50602,"1085 NORTH POINTE CIRCLE APT 7","AUBURN","AL",36832,32.6266064000001,-85.503031575,102,"1085 NORTH POINTE CIRCLE APT 7, AUBURN, AL, 36832","Match","Non_Exact","1085 NORTHPOINTE CIR, AUBURN, AL, 36832",614106034,"R"
50603,"1085 NORWOOD STREET","JOHNSTOWN","PA",15904,40.279818263,-78.867541648,103,"1085 NORWOOD STREET, JOHNSTOWN, PA, 15904","Match","Exact","1085 NORWOOD ST, JOHNSTOWN, PA, 15904",50234696,"L"
50604,"1085 OAK HILL ROAD","LAFAYETTE","CA",94549,37.897321639,-122.122487417,104,"1085 OAK HILL ROAD, LAFAYETTE, CA, 94549","Match","Exact","1085 OAK HILL RD, LAFAYETTE, CA, 94549",192046590,"L"
50605,"1085 OLD MAIL RD","CROSSVILLE","TN",38555,35.9288462920001,-85.02790199,105,"1085 OLD MAIL RD, CROSSVILLE, TN, 38555","Match","Exact","1085 OLD MAIL RD, CROSSVILLE, TN, 38555",26272028,"R"
50606,"1085 OLIVER ROAD APT 101","RALEIGH","NC",27614,NA,NA,106,"1085 OLIVER ROAD APT 101, RALEIGH, NC, 27614","No_Match",NA,NA,NA,NA
50607,"1085 OXFORD ST SE","SALEM","OR",97302,44.922033873,-123.033892317,107,"1085 OXFORD ST SE, SALEM, OR, 97302","Match","Exact","1085 OXFORD ST SE, SALEM, OR, 97302",156250583,"L"
50608,"1085 PERKINS WAY","SACRAMENTO","CA",95818,38.5521135000001,-121.505105173,108,"1085 PERKINS WAY, SACRAMENTO, CA, 95818","Match","Exact","1085 PERKINS WAY, SACRAMENTO, CA, 95818",133322497,"L"
50609,"1085 PIONEER TRAIL","CHASKA","MN",55318,44.8229302980001,-93.573300616,109,"1085 PIONEER TRAIL, CHASKA, MN, 55318","Match","Exact","1085 PIONEER TRL, CHASKA, MN, 55318",43499411,"R"
50610,"1085 PRESCOTT DR","LANSING","MI",48823,42.745248571,-84.497832058,110,"1085 PRESCOTT DR, LANSING, MI, 48823","Match","Non_Exact","1085 PRESCOTT DR, EAST LANSING, MI, 48823",17501588,"L"
50611,"1085 RALPH AVE","BROOKLYN","NY",11236,40.6490254120001,-73.920391135,111,"1085 RALPH AVE, BROOKLYN, NY, 11236","Match","Exact","1085 RALPH AVE, BROOKLYN, NY, 11236",59085870,"L"
50612,"1085 RAYMOND BLVD 14TH FLOOR","NEWARK","NJ",7102,40.7358755280001,-74.1654667449999,112,"1085 RAYMOND BLVD 14TH FLOOR, NEWARK, NJ, 7102","Match","Exact","1085 RAYMOND BLVD, NEWARK, NJ, 07102",63496168,"R"
50613,"1085 RIVIERA DR","VIRGINIA BEACH","VA",23464,36.8087603980001,-76.201810719,113,"1085 RIVIERA DR, VIRGINIA BEACH, VA, 23464","Match","Exact","1085 RIVIERA DR, VA BCH, VA, 23464",122294905,"R"
50614,"1085 ROAD 9","POWELL","WY",82435,44.7254635640001,-108.759864299,114,"1085 ROAD 9, POWELL, WY, 82435","Match","Exact","1085 RD 9, POWELL, WY, 82435",612522267,"R"
50615,"1085 ROLLING GREEN DRIVE","WAUKESHA","WI",53186,43.0209051030001,-88.174416276,115,"1085 ROLLING GREEN DRIVE, WAUKESHA, WI, 53186","Match","Non_Exact","1085 W ROLLING GREEN DR, WAUKESHA, WI, 53186",53813057,"R"
50616,"1085 SAN ADRIANO STREET","SAN LUIS OBISPO","CA",93405,35.2633785410001,-120.701129118,116,"1085 SAN ADRIANO STREET, SAN LUIS OBISPO, CA, 93405","Match","Exact","1085 SAN ADRIANO ST, SAN LUIS OBISPO, CA, 93405",109732677,"L"
50617,"1085 SAN JACINTO","BEAUMONT","TX",77701,30.0663410430001,-94.114554023,117,"1085 SAN JACINTO, BEAUMONT, TX, 77701","Match","Non_Exact","1085 SAN JACINTO ST, BEAUMONT, TX, 77701",73854648,"L"
50618,"1085 SAN MARCOS COVE","LAWRENCCEVILLE","GA",30043,33.972847716,-84.039248501,118,"1085 SAN MARCOS COVE, LAWRENCCEVILLE, GA, 30043","Match","Non_Exact","1085 SAN MARCOS COVE, LAWRENCEVILLE, GA, 30043",88940815,"R"
50619,"1085 SAN MARCOS COVE","LAWRENCEVILLE","GA",30043,33.972847716,-84.039248501,119,"1085 SAN MARCOS COVE, LAWRENCEVILLE, GA, 30043","Match","Exact","1085 SAN MARCOS COVE, LAWRENCEVILLE, GA, 30043",88940815,"R"
50620,"1085 SCOTT DRIVE","PRESCOTT","AZ",86301,34.561212132,-112.474638209,120,"1085 SCOTT DRIVE, PRESCOTT, AZ, 86301","Match","Exact","1085 SCOTT DR, PRESCOTT, AZ, 86301",639312325,"R"
50621,"1085 SEENA AVENUE","LOS ALTOS","CA",94024,37.3636305690001,-122.092028841,121,"1085 SEENA AVENUE, LOS ALTOS, CA, 94024","Match","Exact","1085 SEENA AVE, LOS ALTOS, CA, 94024",122934422,"L"
50622,"1085 SMITH TERRACE","MAYSVILLE","KY",41056,38.63387211,-83.779819683,122,"1085 SMITH TERRACE, MAYSVILLE, KY, 41056","Match","Exact","1085 SMITH TER, MAYSVILLE, KY, 41056",636009612,"L"
50623,"1085 SONORA AVE","MANTECA","CA",95337,37.7876155210001,-121.227254882,123,"1085 SONORA AVE, MANTECA, CA, 95337","Match","Exact","1085 SONORA AVE, MANTECA, CA, 95337",133909996,"R"
50624,"1085 SOUTH HIGHWAY 76","NEWCASTLE","OK",73065,35.2574229910001,-97.6532066139999,124,"1085 SOUTH HIGHWAY 76, NEWCASTLE, OK, 73065","Match","Non_Exact","1085 N HWY 76, NEWCASTLE, OK, 73065",58368769,"R"
50625,"1085 SOUTH LAKE SHORE DR","LAKE GENEVA","WI",53147,42.57805309,-88.433224405,125,"1085 SOUTH LAKE SHORE DR, LAKE GENEVA, WI, 53147","Match","Non_Exact","1085 LAKE SHORE DR, LAKE GENEVA, WI, 53147",53672076,"R"
50626,"1085 SOUTHVIEW CIRCLE","CHULA VISTA","CA",91910,32.633930994,-116.99967085,126,"1085 SOUTHVIEW CIRCLE, CHULA VISTA, CA, 91910","Match","Exact","1085 SOUTHVIEW CIR, CHULA VISTA, CA, 91910",195654779,"L"
50627,"1085 STONEY HILL RD","QUARRYVILLE","PA",17566,39.849001722,-76.181096263,127,"1085 STONEY HILL RD, QUARRYVILLE, PA, 17566","Match","Exact","1085 STONEY HILL RD, QUARRYVILLE, PA, 17566",179645428,"R"
50628,"1085 SUNSET POINTE","AUBREY","TX",76227,33.241601674,-97.012492134,128,"1085 SUNSET POINTE, AUBREY, TX, 76227","Match","Exact","1085 SUNSET POINTE, AUBREY, TX, 76227",625309174,"L"
50629,"1085 TASMAN DR SPC 412","SUNNYVALE","CA",94089,37.403314901,-122.003387487,129,"1085 TASMAN DR SPC 412, SUNNYVALE, CA, 94089","Match","Exact","1085 TASMAN DR, SUNNYVALE, CA, 94089",648951964,"L"
50630,"1085 TASMAN DR/ 553","SUNNYVALE","CA",94089,37.403314901,-122.003387487,130,"1085 TASMAN DR/ 553, SUNNYVALE, CA, 94089","Match","Non_Exact","1085 TASMAN DR, SUNNYVALE, CA, 94089",648951964,"L"
50631,"1085 TASMAN DRIVE SPACE 777","SUNNYVALE","CA",94089,37.403314901,-122.003387487,131,"1085 TASMAN DRIVE SPACE 777, SUNNYVALE, CA, 94089","Match","Exact","1085 TASMAN DR, SUNNYVALE, CA, 94089",648951964,"L"
50632,"1085 TASMAN DRIVE SPC 259","SUNNYVALE","CA",94089,37.403314901,-122.003387487,132,"1085 TASMAN DRIVE SPC 259, SUNNYVALE, CA, 94089","Match","Exact","1085 TASMAN DR, SUNNYVALE, CA, 94089",648951964,"L"
50633,"1085 TASMAN DRIVE SPC 777","SUNNYVALE","CA",94089,37.403314901,-122.003387487,133,"1085 TASMAN DRIVE SPC 777, SUNNYVALE, CA, 94089","Match","Exact","1085 TASMAN DR, SUNNYVALE, CA, 94089",648951964,"L"
50634,"1085 TERRELL CT","CANTON","MI",48187,42.314991347,-83.459080285,134,"1085 TERRELL CT, CANTON, MI, 48187","Match","Non_Exact","1085 TERREL CT, CANTON, MI, 48187",95409494,"L"
50635,"1085 TIMBERLINE TER","ASHLAND","OR",97520,NA,NA,135,"1085 TIMBERLINE TER, ASHLAND, OR, 97520","No_Match",NA,NA,NA,NA
50636,"1085 TRAILSIDE CIRCLE","CORONA","CA",92881,33.8441187290001,-117.550196746,136,"1085 TRAILSIDE CIRCLE, CORONA, CA, 92881","Match","Exact","1085 TRAILSIDE CIR, CORONA, CA, 92881",633952896,"R"
50637,"1085 VAN DYKE 403","DETROIT","MI",48214,42.353603331,-82.996484373,137,"1085 VAN DYKE 403, DETROIT, MI, 48214","Match","Non_Exact","1085 VAN DYKE ST, DETROIT, MI, 48214",95484089,"L"
50638,"1085 VISTA HERMOSA","JEMEZ SPRINGS","NM",87025,NA,NA,138,"1085 VISTA HERMOSA, JEMEZ SPRINGS, NM, 87025","No_Match",NA,NA,NA,NA
50639,"1085 W 17TH AVE","JUNCTION CITY","OR",97448,44.2281611430001,-123.212056093,139,"1085 W 17TH AVE, JUNCTION CITY, OR, 97448","Match","Exact","1085 W 17TH AVE, JUNCTION CITY, OR, 97448",640032724,"L"
50640,"1085 W NEW HAMPSHIRE AVE","SOUTHERN PINES","NC",28387,35.1852030250001,-79.400300852,140,"1085 W NEW HAMPSHIRE AVE, SOUTHERN PINES, NC, 28387","Match","Exact","1085 W NEW HAMPSHIRE AVE, SOUTHERN PINES, NC, 28387",20295943,"R"
50641,"1085 WALKING HORSE DRIVE","STEPHENVILLE","TX",76401,32.257864124,-98.2183725629999,141,"1085 WALKING HORSE DRIVE, STEPHENVILLE, TX, 76401","Match","Exact","1085 WALKING HORSE DR, STEPHENVILLE, TX, 76401",642820981,"L"
50642,"1085 WALLEN RD","MOSCOW","ID",83843,46.7411123590001,-116.90484685,142,"1085 WALLEN RD, MOSCOW, ID, 83843","Match","Exact","1085 WALLEN RD, MOSCOW, ID, 83843",193870874,"R"
50643,"1085 WARBURTON AVE","YONKERS","NY",10701,40.9731818490001,-73.887663505,143,"1085 WARBURTON AVE, YONKERS, NY, 10701","Match","Exact","1085 WARBURTON AVE, YONKERS, NY, 10701",650134344,"L"
50644,"1085 WARBURTON AVENUE APT 501","YONKERS","NY",10701,40.9731818490001,-73.887663505,144,"1085 WARBURTON AVENUE APT 501, YONKERS, NY, 10701","Match","Exact","1085 WARBURTON AVE, YONKERS, NY, 10701",650134344,"L"
50645,"1085 WARBURTON AVENUE","YONKERS","NY",10701,40.9731818490001,-73.887663505,145,"1085 WARBURTON AVENUE, YONKERS, NY, 10701","Match","Exact","1085 WARBURTON AVE, YONKERS, NY, 10701",650134344,"L"
50646,"1085 WATERVIEW CIRCLE","ANTIOCH","IL",60002,42.4582378280001,-88.0414913659999,146,"1085 WATERVIEW CIRCLE, ANTIOCH, IL, 60002","Match","Exact","1085 WATERVIEW CIR, ANTIOCH, IL, 60002",119759407,"R"
50647,"1085 WILBERT ROAD","LAKEWOOD","OH",44107,41.4939287650001,-81.7843268409999,147,"1085 WILBERT ROAD, LAKEWOOD, OH, 44107","Match","Exact","1085 WILBERT RD, LAKEWOOD, OH, 44107",61100398,"L"
50648,"1085 WILD LEAF COVE","MEMPHIS","TN",38116,35.04321165,-90.027550574,148,"1085 WILD LEAF COVE, MEMPHIS, TN, 38116","Match","Non_Exact","1085 WILDLEAF COVE, MEMPHIS, TN, 38116",607496532,"R"
50649,"1085 WILLMOHR STREET","BROOKLYN","NY",11212,40.656734645,-73.918207337,149,"1085 WILLMOHR STREET, BROOKLYN, NY, 11212","Match","Exact","1085 WILLMOHR ST, BROOKLYN, NY, 11212",59084006,"L"
50650,"1085 WILLOWBROOK DR","SPRINGFIELD","IL",62707,39.791096505,-89.731287561,150,"1085 WILLOWBROOK DR, SPRINGFIELD, IL, 62707","Match","Non_Exact","1085 WILLOWBROOK DR, SPRINGFIELD, IL, 62711",97365619,"L"
50651,"1085 WILSHIRE BOULVARD SUITE 520","LOS ANGELES","CA",90024,NA,NA,151,"1085 WILSHIRE BOULVARD SUITE 520, LOS ANGELES, CA, 90024","No_Match",NA,NA,NA,NA
50652,"1085 WINNEBAGO TRAIL","BATAVIA","IL",60510,41.86299525,-88.3245735689999,152,"1085 WINNEBAGO TRAIL, BATAVIA, IL, 60510","Match","Exact","1085 WINNEBAGO TRL, BATAVIA, IL, 60510",119542459,"R"
50653,"1085 WOODMERE ROAD","COLUMBUS","OH",43220,40.0414102710001,-83.047812014,153,"1085 WOODMERE ROAD, COLUMBUS, OH, 43220","Match","Exact","1085 WOODMERE RD, COLUMBUS, OH, 43220",218693390,"L"
50654,"1085 WORTHINGTON DRIVE","HOFFMAN ESTATES","IL",60169,42.0431677380001,-88.1063809569999,154,"1085 WORTHINGTON DRIVE, HOFFMAN ESTATES, IL, 60169","Match","Exact","1085 WORTHINGTON DR, HOFFMAN EST, IL, 60169",111693308,"R"
50655,"1085 YELLOW PINE AVE NE","LISBON","IA",52253,41.8499459590001,-91.3710454609999,155,"1085 YELLOW PINE AVE NE, LISBON, IA, 52253","Match","Exact","1085 YELLOW PINE AVE NE, LISBON, IA, 52253",84516021,"L"
50656,"1085","WARFIELD","VA",23889,NA,NA,156,"1085, WARFIELD, VA, 23889","No_Match",NA,NA,NA,NA
50657,"10850 6TH STREET NE","BLAINE","MN",55343,45.166961445,-93.262890915,157,"10850 6TH STREET NE, BLAINE, MN, 55343","Match","Non_Exact","10850 6TH ST NE, BLAINE, MN, 55434",97486052,"L"
50658,"10850 ANGLING ROAD","WOOSTER","OH",44691,40.7775069910001,-82.1182847599999,158,"10850 ANGLING ROAD, WOOSTER, OH, 44691","Match","Exact","10850 ANGLING RD, WOOSTER, OH, 44691",58729572,"L"
50659,"10850 BAROQUE LANE STE B","SAN DIEGO","CA",92124,32.819957862,-117.09867602,159,"10850 BAROQUE LANE STE B, SAN DIEGO, CA, 92124","Match","Exact","10850 BAROQUE LN, SAN DIEGO, CA, 92124",195321139,"L"
50660,"10850 E TRAVERSE HWY SUITE 2225","TRAVERSE CITY","MI",49684,NA,NA,160,"10850 E TRAVERSE HWY SUITE 2225, TRAVERSE CITY, MI, 49684","No_Match",NA,NA,NA,NA
50661,"10850 GIBBON RD","GIBBON","NE",68840,40.7799470790001,-98.855112053,161,"10850 GIBBON RD, GIBBON, NE, 68840","Match","Exact","10850 GIBBON RD, GIBBON, NE, 68840",137866828,"L"
50662,"10850 INDEPENDENCE WAY","CARMEL","IN",46032,39.945883795,-86.2277397,162,"10850 INDEPENDENCE WAY, CARMEL, IN, 46032","Match","Exact","10850 INDEPENDENCE WAY, CARMEL, IN, 46032",29316522,"R"
50663,"10850 LINCOLN TRAIL STE 16","FAIRVIEW HEIGHTS","IL",62208,38.5928192160001,-89.990086737,163,"10850 LINCOLN TRAIL STE 16, FAIRVIEW HEIGHTS, IL, 62208","Match","Exact","10850 LINCOLN TRL, FAIRVIEW HTS, IL, 62208",107903647,"R"
50664,"10850 N W 2ND ST  APT 208","PEMBROKE PINES","FL",33026,26.0091250290001,-80.290575815,164,"10850 N W 2ND ST  APT 208, PEMBROKE PINES, FL, 33026","Match","Non_Exact","10850 NW 2ND ST, PEMBROKE PINES, FL, 33026",114792407,"R"
50665,"10850 NW JACKSON QUARRY RD","HILLSBORO","OR",97124,45.5976430220001,-122.949768719,165,"10850 NW JACKSON QUARRY RD, HILLSBORO, OR, 97124","Match","Exact","10850 NW JACKSON QUARRY RD, HILLSBORO, OR, 97124",635627381,"L"
50666,"10850 S  WILCREST DRIVE STE 170A","HOUSTON","TX",77099,29.6643203530001,-95.5686874959999,166,"10850 S  WILCREST DRIVE STE 170A, HOUSTON, TX, 77099","Match","Exact","10850 WILCREST DR, HOUSTON, TX, 77099",96598052,"R"
50667,"10850 S AVENUE C","CHICAGO","IL",60617,41.6981196150001,-87.5270032509999,167,"10850 S AVENUE C, CHICAGO, IL, 60617","Match","Exact","10850 S AVE C, CHICAGO, IL, 60617",111782514,"R"
50668,"10850 S COLTRANE RD","EDMOND","OK",73034,35.767230973,-97.442874344,168,"10850 S COLTRANE RD, EDMOND, OK, 73034","Match","Exact","10850 S COLTRANE RD, EDMOND, OK, 73034",121960380,"R"
50669,"10850 SOUTH ROUTE 37","WEST FRANKFORT","IL",62896,NA,NA,169,"10850 SOUTH ROUTE 37, WEST FRANKFORT, IL, 62896","No_Match",NA,NA,NA,NA
50670,"10850 STONE HILLS LANE","MANASSAS","VA",20109,38.7828720100001,-77.5219746189999,170,"10850 STONE HILLS LANE, MANASSAS, VA, 20109","Match","Non_Exact","10850 STONE HILL LN, MANASSAS, VA, 20109",76531178,"L"
50671,"10850 SW 172 STREEET","MIAMI","FL",33157,NA,NA,171,"10850 SW 172 STREEET, MIAMI, FL, 33157","No_Match",NA,NA,NA,NA
50672,"10850 SW 88 STREET SUITE 109","MIAMI","FL",33176,25.6868922090001,-80.368832222,172,"10850 SW 88 STREET SUITE 109, MIAMI, FL, 33176","Match","Non_Exact","10850 SW 88TH ST, MIAMI, FL, 33176",647866970,"L"
50673,"10850 W ST RD 68","ELBERFELD","IN",47613,38.1944603040001,-87.444611416,173,"10850 W ST RD 68, ELBERFELD, IN, 47613","Match","Exact","10850 STATE RD 68, ELBERFELD, IN, 47613",32217815,"R"
50674,"10850 WILSHIRE BLVD 570","LOS ANGELES","CA",90024,34.0594076410001,-118.441492513,174,"10850 WILSHIRE BLVD 570, LOS ANGELES, CA, 90024","Match","Exact","10850 WILSHIRE BLVD, LOS ANGELES, CA, 90024",141567654,"L"
50675,"10850 WILSHIRE BOULVARD  SUITE 520","LOS ANGELES","CA",90024,34.0594076410001,-118.441492513,175,"10850 WILSHIRE BOULVARD  SUITE 520, LOS ANGELES, CA, 90024","Match","Non_Exact","10850 WILSHIRE BLVD, LOS ANGELES, CA, 90024",141567654,"L"
50676,"10850 WILSHIRE BOULVARD SUITE 520","LOS ANGELES","CA",90024,34.0594076410001,-118.441492513,176,"10850 WILSHIRE BOULVARD SUITE 520, LOS ANGELES, CA, 90024","Match","Non_Exact","10850 WILSHIRE BLVD, LOS ANGELES, CA, 90024",141567654,"L"
50677,"10850 WITCHER MOUNTAIN TRAIL","GUFFEY","CO",80820,38.759328548,-105.411100587,177,"10850 WITCHER MOUNTAIN TRAIL, GUFFEY, CO, 80820","Match","Exact","10850 WITCHER MOUNTAIN TRL, GUFFEY, CO, 80820",108479734,"R"
50678,"10851 BARCUS AVE NE","ALLIANCE","OH",44601,40.928457339,-81.160830198,178,"10851 BARCUS AVE NE, ALLIANCE, OH, 44601","Match","Exact","10851 BARCUS AVE NE, ALLIANCE, OH, 44601",64694926,"L"
50679,"10851 FM 1176","BANGS","TX",76823,31.600087267,-99.179960356,179,"10851 FM 1176, BANGS, TX, 76823","Match","Exact","10851 FM 1176, BANGS, TX, 76823",636439496,"R"
50680,"10851 MASTIN ST STE 200","OVERLAND PARK","KS",66210,38.931329202,-94.702337083,180,"10851 MASTIN ST STE 200, OVERLAND PARK, KS, 66210","Match","Exact","10851 MASTIN ST, OVERLAND PARK, KS, 66210",91276748,"R"
50681,"10851 MASTIN ST SUITE 120","OVERLAND PARK","KS",66210,38.931329202,-94.702337083,181,"10851 MASTIN ST SUITE 120, OVERLAND PARK, KS, 66210","Match","Exact","10851 MASTIN ST, OVERLAND PARK, KS, 66210",91276748,"R"
50682,"10851 N 43 AVE APT 266","PHOENIX","AZ",85029,33.5847872320001,-112.151480251,182,"10851 N 43 AVE APT 266, PHOENIX, AZ, 85029","Match","Non_Exact","10851 N 43RD AVE, PHOENIX, AZ, 85029",243917061,"R"
50683,"10851 NORTH BLACK CANYON HIGHWAY","PHOENIX","AZ",85029,33.5862498320001,-112.116555652,183,"10851 NORTH BLACK CANYON HIGHWAY, PHOENIX, AZ, 85029","Match","Exact","10851 N BLACK CANYON HWY, PHOENIX, AZ, 85029",128181268,"R"
50684,"10851 SANDPIPER DRIVE","HOUSTON","TX",77071,29.663562697,-95.5047631159999,184,"10851 SANDPIPER DRIVE, HOUSTON, TX, 77071","Match","Non_Exact","10851 SANDPIPER DR, HOUSTON, TX, 77096",96598773,"L"
50685,"10851 SECON AVE","HAYWARD","WI",54843,NA,NA,185,"10851 SECON AVE, HAYWARD, WI, 54843","No_Match",NA,NA,NA,NA
50686,"10851 ST MARYS LN","HOUSTON","TX",77079,29.7811573810001,-95.56816257,186,"10851 ST MARYS LN, HOUSTON, TX, 77079","Match","Exact","10851 SAINT MARYS LN, HOUSTON, TX, 77079",641936748,"R"
50687,"10851 THISTLE RDG","FISHERS","IN",46038,39.9483222920001,-86.024093615,187,"10851 THISTLE RDG, FISHERS, IN, 46038","Match","Exact","10851 THISTLE RIDGE, FISHERS, IN, 46038",29306138,"L"
50688,"10851 W MONTFAIR BLVD","THE WOODLANDS","TX",77354,NA,NA,188,"10851 W MONTFAIR BLVD, THE WOODLANDS, TX, 77354","No_Match",NA,NA,NA,NA
50689,"10852 170TH AVE","WILLIAMSTOWN","MO",63473,40.2438104920001,-91.8193272079999,189,"10852 170TH AVE, WILLIAMSTOWN, MO, 63473","Match","Exact","10852 170TH AVE, WILLIAMSTOWN, MO, 63473",607727818,"R"
50690,"10852 CEDAR BEND ROAD","MINNETONKA","MN",55305,44.95399925,-93.416228931,190,"10852 CEDAR BEND ROAD, MINNETONKA, MN, 55305","Match","Exact","10852 CEDAR BEND, MINNETONKA, MN, 55305",636804457,"L"
50691,"10852 INDIGO SKY WAY","SOUTH JORDAN","UT",84009,40.5480741910001,-111.992510704,191,"10852 INDIGO SKY WAY, SOUTH JORDAN, UT, 84009","Match","Exact","10852 INDIGO SKY WAY, SOUTH JORDAN, UT, 84009",604584620,"R"
50692,"10852 LANTERN VIEW DR APT 306","FISHERS","IN",46038,39.945652802,-86.019376662,192,"10852 LANTERN VIEW DR APT 306, FISHERS, IN, 46038","Match","Exact","10852 LANTERN VIEW DR, FISHERS, IN, 46038",29320747,"L"
50693,"10852 LEM TURNER ROAD","JACKSONVILLE","FL",32218,30.432741359,-81.695059122,193,"10852 LEM TURNER ROAD, JACKSONVILLE, FL, 32218","Match","Exact","10852 LEM TURNER RD, JACKSONVILLE, FL, 32218",83890201,"L"
50694,"10852 N 44 STREET","PHOENIX","AZ",85028,33.584921368,-111.986555275,194,"10852 N 44 STREET, PHOENIX, AZ, 85028","Match","Exact","10852 N 44TH ST, PHOENIX, AZ, 85028",653305244,"L"
50695,"10852 THORNIROFT WAY","GRASS VALLY","CA",95945,NA,NA,195,"10852 THORNIROFT WAY, GRASS VALLY, CA, 95945","No_Match",NA,NA,NA,NA
50696,"10852 TREE CACTUS LOOP","LAND O LAKES","FL",34638,28.3152212890001,-82.5579829819999,196,"10852 TREE CACTUS LOOP, LAND O LAKES, FL, 34638","Match","Exact","10852 TREE CACTUS LOOP, LAND O LAKES, FL, 34638",637644984,"L"
50697,"10852 WINGATE RD","JACKSONVILLE","FL",32218,30.432717945,-81.7095884079999,197,"10852 WINGATE RD, JACKSONVILLE, FL, 32218","Match","Exact","10852 WINGATE RD, JACKSONVILLE, FL, 32218",83948655,"L"
50698,"10853 ACADEMY RD","PHILADELPHIA","PA",19154,40.082489159,-74.992927548,198,"10853 ACADEMY RD, PHILADELPHIA, PA, 19154","Match","Exact","10853 ACADEMY RD, PHILADELPHIA, PA, 19154",131433970,"R"
50699,"10853 ARROWTREE BLVD","CLERMONT","FL",34715,28.646858143,-81.778321879,199,"10853 ARROWTREE BLVD, CLERMONT, FL, 34715","Match","Exact","10853 ARROWTREE BLVD, CLERMONT, FL, 34715",94213752,"L"
50700,"10853 HARVEST RD","LITTLE FALLS","MN",56345,45.920203455,-94.310471284,200,"10853 HARVEST RD, LITTLE FALLS, MN, 56345","Match","Exact","10853 HARVEST RD, LITTLE FALLS, MN, 56345",167394439,"L"
50701,"10853 LAKESIDE DR","ROGERS","AR",72756,36.375484387,-93.986492793,201,"10853 LAKESIDE DR, ROGERS, AR, 72756","Match","Exact","10853 LAKESIDE DR, ROGERS, AR, 72756",619911140,"L"
50702,"10853 N 112 PLACE","SCOTTSDALE","AZ",85259,33.5850673080001,-111.83804406,202,"10853 N 112 PLACE, SCOTTSDALE, AZ, 85259","Match","Exact","10853 N 112TH PL, SCOTTSDALE, AZ, 85259",128291708,"L"
50703,"10853 NW 53 LN","DORAL","FL",33178,25.8221501530001,-80.378810457,203,"10853 NW 53 LN, DORAL, FL, 33178","Match","Exact","10853 NW 53RD LN, DORAL, FL, 33178",116078843,"L"
50704,"10853 RED BADGE AVENUE","LAS VEGAS","NV",89166,36.2865160690001,-115.33300114,204,"10853 RED BADGE AVENUE, LAS VEGAS, NV, 89166","Match","Exact","10853 RED BADGE AVE, LAS VEGAS, NV, 89166",641119774,"L"
50705,"10853 W 58TH ST","LOS ANGELES","CA",90037,NA,NA,205,"10853 W 58TH ST, LOS ANGELES, CA, 90037","No_Match",NA,NA,NA,NA
50706,"10853E 700N","WILKINSON","IN",46186,NA,NA,206,"10853E 700N, WILKINSON, IN, 46186","No_Match",NA,NA,NA,NA
50707,"10854 HOFFNER EDGE","RIVERVIEW","FL",33578,NA,NA,207,"10854 HOFFNER EDGE, RIVERVIEW, FL, 33578","No_Match",NA,NA,NA,NA
50708,"10854 N 60TH AVE STE 2124","GLENDALE","AZ",85304,33.5847021110001,-112.187435196,208,"10854 N 60TH AVE STE 2124, GLENDALE, AZ, 85304","Match","Non_Exact","10854 N 60TH AVE, GLENDALE, AZ, 85304",128953876,"R"
50709,"10854 NATALIE DRIVE","JACKSONVILLE","FL",32218,30.4328711140001,-81.704642338,209,"10854 NATALIE DRIVE, JACKSONVILLE, FL, 32218","Match","Exact","10854 NATALIE DR, JACKSONVILLE, FL, 32218",83961184,"R"
50710,"10854 OLD PRESCOTT ROAD","HENRICO","VA",23238,37.618539807,-77.6132925699999,210,"10854 OLD PRESCOTT ROAD, HENRICO, VA, 23238","Match","Exact","10854 OLD PRESCOTT RD, HENRICO, VA, 23238",106667257,"R"
50711,"10855 141ST ST","JAMAICA","IA",50128,NA,NA,211,"10855 141ST ST, JAMAICA, IA, 50128","No_Match",NA,NA,NA,NA
50712,"10855 BACKCOUNTRY DR","HIGHLANDS RANCH","CO",80126,39.5191324100001,-104.985881423,212,"10855 BACKCOUNTRY DR, HIGHLANDS RANCH, CO, 80126","Match","Non_Exact","10855 BACKCOUNTRY LN, HIGHLANDS RANCH, CO, 80126",649665786,"R"
50713,"10855 CAIN ROAD","ROGERS","MN",55374,45.1522703570001,-93.563174252,213,"10855 CAIN ROAD, ROGERS, MN, 55374","Match","Exact","10855 CAIN RD, ROGERS, MN, 55374",43597813,"R"
50714,"10855 CHURCH ST APT 1308","RANCHO CUCAMONGA","CA",91730,34.110469709,-117.568584787,214,"10855 CHURCH ST APT 1308, RANCHO CUCAMONGA, CA, 91730","Match","Exact","10855 CHURCH ST, RANCHO CUCAMONGA, CA, 91730",144981215,"L"
50715,"10855 CHURCH ST APT 204","RANCHO CUCAMONGA","CA",91730,34.110469709,-117.568584787,215,"10855 CHURCH ST APT 204, RANCHO CUCAMONGA, CA, 91730","Match","Exact","10855 CHURCH ST, RANCHO CUCAMONGA, CA, 91730",144981215,"L"
50716,"10855 CYPRESS GLEN DR","CORAL SPRINGS","FL",33071,26.2314912620001,-80.2716512979999,216,"10855 CYPRESS GLEN DR, CORAL SPRINGS, FL, 33071","Match","Exact","10855 CYPRESS GLEN DR, CORAL SPRINGS, FL, 33071",624535948,"L"
50717,"10855 DEL NORTE APT 18","VENTURA","CA",93003,NA,NA,217,"10855 DEL NORTE APT 18, VENTURA, CA, 93003","No_Match",NA,NA,NA,NA
50718,"10855 E ANDREW JOHNSON HWY","LIMESTONE","TN",37681,36.2297644760001,-82.658389625,218,"10855 E ANDREW JOHNSON HWY, LIMESTONE, TN, 37681","Match","Exact","10855 E ANDREW JOHNSON HWY, LIMESTONE, TN, 37681",611352202,"L"
50719,"10855 E TOKAY COLONY ROAD","LODI","CA",95240,38.08349925,-121.181894409,219,"10855 E TOKAY COLONY ROAD, LODI, CA, 95240","Match","Exact","10855 E TOKAY COLONY RD, LODI, CA, 95240",133856471,"L"
50720,"10855 EAGLE DR APT 434","BAYTOWN","TX",77523,29.851962504,-94.861482397,220,"10855 EAGLE DR APT 434, BAYTOWN, TX, 77523","Match","Exact","10855 EAGLE DR, BAYTOWN, TX, 77523",95953159,"L"
50721,"10855 ELDERWOOD ROAD","SAN DIEGO","CA",92131,32.9198386100001,-117.072323311,221,"10855 ELDERWOOD ROAD, SAN DIEGO, CA, 92131","Match","Exact","10855 ELDERWOOD RD, SAN DIEGO, CA, 92131",195660662,"R"
50722,"10855 N GLEN ABBEY DR","ORO VALLEY","AZ",85737,32.402854647,-111.003304932,222,"10855 N GLEN ABBEY DR, ORO VALLEY, AZ, 85737","Match","Exact","10855 N GLEN ABBEY DR, ORO VALLEY, AZ, 85737",121224541,"R"
50723,"10855 NW 27TH STREET","MIAMI","FL",33172,25.7988373330001,-80.372370524,223,"10855 NW 27TH STREET, MIAMI, FL, 33172","Match","Exact","10855 NW 27TH ST, MIAMI, FL, 33172",115969510,"R"
50724,"10855 PICADILLY SQUARE DRIVE","CHESTERFIELD","MO",63017,NA,NA,224,"10855 PICADILLY SQUARE DRIVE, CHESTERFIELD, MO, 63017","No_Match",NA,NA,NA,NA
50725,"10855 QUAIL ROOST RD","BAHAMA","NC",27503,36.1918077500001,-78.900668175,225,"10855 QUAIL ROOST RD, BAHAMA, NC, 27503","Match","Exact","10855 QUAIL ROOST RD, BAHAMA, NC, 27503",71734157,"L"
50726,"10855 SW 247 ST","HOMESTEAD","FL",33032,25.5382288390001,-80.366649078,226,"10855 SW 247 ST, HOMESTEAD, FL, 33032","Match","Exact","10855 SW 247TH ST, HOMESTEAD, FL, 33032",624581835,"L"
50727,"10855 TERRA VISTA PKWY","RANCHO CUCAMONGA","CA",91730,34.1176385200001,-117.56809453,227,"10855 TERRA VISTA PKWY, RANCHO CUCAMONGA, CA, 91730","Match","Exact","10855 TERRA VISTA PKWY, RANCHO CUCAMONGA, CA, 91730",144981159,"L"
50728,"10855 US HW 69 N","TYLER","TX",75706,NA,NA,228,"10855 US HW 69 N, TYLER, TX, 75706","No_Match",NA,NA,NA,NA
50729,"10855 W SADDLEHORN RD","PEORIA","AZ",85383,33.714522237,-112.291053227,229,"10855 W SADDLEHORN RD, PEORIA, AZ, 85383","Match","Exact","10855 W SADDLEHORN RD, PEORIA, AZ, 85383",639823603,"L"
50730,"10856 20 1/2 ST SE","ROGERS","ND",58479,NA,NA,230,"10856 20 1/2 ST SE, ROGERS, ND, 58479","No_Match",NA,NA,NA,NA
50731,"10856 ALYSSA LN","WALDORF","MD",20603,38.6406351050001,-76.941453595,231,"10856 ALYSSA LN, WALDORF, MD, 20603","Match","Exact","10856 ALYSSA LN, WALDORF, MD, 20603",25384553,"L"
50732,"10856 BLUE MOUNTAIN AVE","BLUE MOUNDS","WI",53517,43.0160408190001,-89.821958964,232,"10856 BLUE MOUNTAIN AVE, BLUE MOUNDS, WI, 53517","Match","Exact","10856 BLUE MOUNTAIN AVE, BLUE MOUNDS, WI, 53517",49502053,"R"
50733,"10856 EMORY DRIVE","INDIANAPOLIS","IN",46231,39.7363193460001,-86.329638222,233,"10856 EMORY DRIVE, INDIANAPOLIS, IN, 46231","Match","Non_Exact","10856 EMERY DR, INDIANAPOLIS, IN, 46231",647442353,"L"
50734,"10856 JEWEL RD","WOODRUFF","WI",54568,45.9165886920001,-89.671333965,234,"10856 JEWEL RD, WOODRUFF, WI, 54568","Match","Exact","10856 JEWEL RD, WOODRUFF, WI, 54568",617963836,"L"
50735,"10856 LYDIA ESTATE DR E","JACKSONVILLE","FL",32218,30.432173601,-81.706641577,235,"10856 LYDIA ESTATE DR E, JACKSONVILLE, FL, 32218","Match","Non_Exact","10856 LYDIA ESTATES DR E, JACKSONVILLE, FL, 32218",83952568,"L"
50736,"10856 PARKER VISTA LN","PARKER","CO",80138,39.5193518360001,-104.746990827,236,"10856 PARKER VISTA LN, PARKER, CO, 80138","Match","Exact","10856 PARKER VISTA LN, PARKER, CO, 80138",130825620,"R"
50737,"10856 WOODBUSHE DRIVE SE","LOWELL","MI",49331,42.936163666,-85.39926158,237,"10856 WOODBUSHE DRIVE SE, LOWELL, MI, 49331","Match","Exact","10856 WOODBUSHE DR SE, LOWELL, MI, 49331",12440629,"L"
50738,"10857 AUBURN AVE S","SEATTLE","WA",98178,47.506019467,-122.241522347,238,"10857 AUBURN AVE S, SEATTLE, WA, 98178","Match","Exact","10857 AUBURN AVE S, SEATTLE, WA, 98178",186629770,"R"
50739,"10857 BERRYHILL RD","PENSACOLA","FL",32506,30.4040013270001,-87.3718151369999,239,"10857 BERRYHILL RD, PENSACOLA, FL, 32506","Match","Exact","10857 BERRYHILL RD, PENSACOLA, FL, 32506",93255632,"R"
50740,"10857 BIG BONE CHURCH ROAD","UNION","KY",41091,38.9248782880001,-84.7378096369999,240,"10857 BIG BONE CHURCH ROAD, UNION, KY, 41091","Match","Exact","10857 BIG BONE CHURCH RD, UNION, KY, 41091",647705641,"L"
50741,"10857 BRAEMOOR DRIVE","HASLET","TX",76052,32.9288197290001,-97.374201641,241,"10857 BRAEMOOR DRIVE, HASLET, TX, 76052","Match","Exact","10857 BRAEMOOR DR, HASLET, TX, 76052",637603692,"L"
50742,"10857 HIGHRIDGE RD","AURORA","IN",47001,39.0354292210001,-85.005466224,242,"10857 HIGHRIDGE RD, AURORA, IN, 47001","Match","Exact","10857 HIGHRIDGE RD, AURORA, IN, 47001",76877311,"L"
50743,"10857 KANE AVE","WHITTIER","CA",90604,33.9335250610001,-118.021241051,243,"10857 KANE AVE, WHITTIER, CA, 90604","Match","Exact","10857 KANE AVE, WHITTIER, CA, 90604",141749710,"R"
50744,"10857 MURRAY DOWNS COURT","RESTON","VA",20194,38.976188936,-77.3211345239999,244,"10857 MURRAY DOWNS COURT, RESTON, VA, 20194","Match","Exact","10857 MURRAY DOWNS CT, RESTON, VA, 20194",76038959,"L"
50745,"10857 MURRAY DOWNS CT","RESTON","VA",20194,38.976188936,-77.3211345239999,245,"10857 MURRAY DOWNS CT, RESTON, VA, 20194","Match","Exact","10857 MURRAY DOWNS CT, RESTON, VA, 20194",76038959,"L"
50746,"10857 N BUSINESS HWY 287","SAGINAW","TX",76179,NA,NA,246,"10857 N BUSINESS HWY 287, SAGINAW, TX, 76179","No_Match",NA,NA,NA,NA
50747,"10857 RUNNING DEER POINT","INVERNESS","FL",34452,28.703824738,-82.377083869,247,"10857 RUNNING DEER POINT, INVERNESS, FL, 34452","Match","Non_Exact","10857 S RUNNING DEER PT, INVERNESS, FL, 34452",86237160,"R"
50748,"10857 SHARONDALE RD  APT F101","CINCINNATI","OH",45241,39.263364209,-84.400300866,248,"10857 SHARONDALE RD  APT F101, CINCINNATI, OH, 45241","Match","Exact","10857 SHARONDALE RD, CINCINNATI, OH, 45241",103945152,"L"
50749,"10857 SHARONDALE RD APT F101","CINCINNATI","OH",45241,39.263364209,-84.400300866,249,"10857 SHARONDALE RD APT F101, CINCINNATI, OH, 45241","Match","Exact","10857 SHARONDALE RD, CINCINNATI, OH, 45241",103945152,"L"
50750,"10857 STATE HIGHWAY 154","MARSHALL","TX",75670,32.614928682,-94.500882594,250,"10857 STATE HIGHWAY 154, MARSHALL, TX, 75670","Match","Exact","10857 STATE HWY 154, MARSHALL, TX, 75670",649929987,"L"
50751,"10857 WASHINGTON BAY DRIVE","FISHERS","IN",46037,39.9457564580001,-86.002245855,251,"10857 WASHINGTON BAY DRIVE, FISHERS, IN, 46037","Match","Exact","10857 WASHINGTON BAY DR, FISHERS, IN, 46037",29306494,"L"
50752,"10857 WOODCHUCK LANE SE","PORT ORCHARD","WA",98367,47.452630266,-122.586294287,252,"10857 WOODCHUCK LANE SE, PORT ORCHARD, WA, 98367","Match","Exact","10857 WOODCHUCK LN SE, PORT ORCHARD, WA, 98367",633307733,"R"
50753,"10858 BUEHLER RD","BOLIVAR","OH",44612,40.6378258830001,-81.425229649,253,"10858 BUEHLER RD, BOLIVAR, OH, 44612","Match","Non_Exact","10858 BUEHLER RD NE, BOLIVAR, OH, 44612",612299290,"R"
50754,"10858 HOFFNER EDGE DRIVE","RIVERVIEW","FL",33579,27.7988220980001,-82.328268077,254,"10858 HOFFNER EDGE DRIVE, RIVERVIEW, FL, 33579","Match","Exact","10858 HOFFNER EDGE DR, RIVERVIEW, FL, 33579",104703045,"L"
50755,"10858 JANE LANE","BLOOMINGTON","IL",61705,40.442553972,-89.1075405459999,255,"10858 JANE LANE, BLOOMINGTON, IL, 61705","Match","Exact","10858 JANE LN, BLOOMINGTON, IL, 61705",20543464,"R"
50756,"10858 JANE LN","BLOOMINGTON","IL",61705,40.442553972,-89.1075405459999,256,"10858 JANE LN, BLOOMINGTON, IL, 61705","Match","Exact","10858 JANE LN, BLOOMINGTON, IL, 61705",20543464,"R"
50757,"10858 LOSTWOOD DRIVE","SANDY","UT",84092,NA,NA,257,"10858 LOSTWOOD DRIVE, SANDY, UT, 84092","Tie",NA,NA,NA,NA
50758,"10858 SUNSET RIDGE DRIVE","SAN DIEGO","CA",92131,32.9216077290001,-117.084370391,258,"10858 SUNSET RIDGE DRIVE, SAN DIEGO, CA, 92131","Match","Exact","10858 SUNSET RIDGE DR, SAN DIEGO, CA, 92131",195660687,"L"
50759,"10859 BIL BEE RD","HAMERSVILLE","OH",45130,38.9361347890001,-83.968028853,259,"10859 BIL BEE RD, HAMERSVILLE, OH, 45130","Match","Non_Exact","10859 BILBEE RD, HAMERSVILLE, OH, 45130",638708991,"L"
50760,"10859 DIAMOND CIR","BLUE MOUNDS","WI",53517,43.018714005,-89.821493512,260,"10859 DIAMOND CIR, BLUE MOUNDS, WI, 53517","Match","Exact","10859 DIAMOND CIR, BLUE MOUNDS, WI, 53517",634682718,"L"
50761,"10859 E ACOMA","SCOTTSDALE","AZ",85255,33.6196034600001,-111.846781663,261,"10859 E ACOMA, SCOTTSDALE, AZ, 85255","Match","Non_Exact","10859 E ACOMA DR, SCOTTSDALE, AZ, 85255",128599838,"R"
50762,"10859 SW 226 STREET","GOULDS","FL",33170,25.557004138,-80.367126221,262,"10859 SW 226 STREET, GOULDS, FL, 33170","Match","Exact","10859 SW 226TH ST, GOULDS, FL, 33170",647856322,"R"
50763,"1085B MECASLIN ST","ATLANTA","GA",30318,33.7847765990001,-84.3998349,263,"1085B MECASLIN ST, ATLANTA, GA, 30318","Match","Non_Exact","1085 MECASLIN ST NW, ATLANTA, GA, 30318",17343148,"R"
50764,"1086 1/2 CLAYLICK ROAD","WHITE BLUFF","TN",37187,36.145038926,-87.2338369829999,264,"1086 1/2 CLAYLICK ROAD, WHITE BLUFF, TN, 37187","Match","Exact","1086 CLAYLICK RD, WHITE BLUFF, TN, 37187",72764789,"R"
50765,"1086 17TH AVE WEST","HAVRE","MT",59501,48.543358304,-109.712147212,265,"1086 17TH AVE WEST, HAVRE, MT, 59501","Match","Exact","1086 17TH AVE W, HAVRE, MT, 59501",162161608,"L"
50766,"1086 ADDISON RD UPSTAIRS","CLEVELAND","OH",44103,41.5239923610001,-81.6441911049999,266,"1086 ADDISON RD UPSTAIRS, CLEVELAND, OH, 44103","Match","Exact","1086 ADDISON RD, CLEVELAND, OH, 44103",61111952,"R"
50767,"1086 AVENIDA SEVILLE","RIO RICO","AZ",85648,31.462932471,-110.99895359,267,"1086 AVENIDA SEVILLE, RIO RICO, AZ, 85648","Match","Exact","1086 AVE SEVILLE, RIO RICO, AZ, 85648",120898409,"R"
50768,"1086 BROADWAY ST","BUFFALO","NY",14212,42.8939607510001,-78.8347813669999,268,"1086 BROADWAY ST, BUFFALO, NY, 14212","Match","Exact","1086 BROADWAY ST, BUFFALO, NY, 14212",48300619,"L"
50769,"1086 BUCHHOLZ DRIVE","WOOSTER","OH",44691,40.8119650190001,-81.959566111,269,"1086 BUCHHOLZ DRIVE, WOOSTER, OH, 44691","Match","Exact","1086 BUCHHOLZ DR, WOOSTER, OH, 44691",58742456,"L"
50770,"1086 CASCADE LN","PROVIDENCE","NC",27311,36.5044143540001,-79.454909105,270,"1086 CASCADE LN, PROVIDENCE, NC, 27311","Match","Non_Exact","1086 CASCADE LN, PROVIDENCE, NC, 27315",606301137,"R"
50771,"1086 CHARTER ROW","JOHNSON CITY","TN",37604,36.319504669,-82.385540125,271,"1086 CHARTER ROW, JOHNSON CITY, TN, 37604","Match","Exact","1086 CHARTER ROW, JOHNSON CITY, TN, 37604",127934686,"L"
50772,"1086 CHELSEA CT","HATFIELD","PA",19440,40.283449929,-75.2671295759999,272,"1086 CHELSEA CT, HATFIELD, PA, 19440","Match","Exact","1086 CHELSEA CT, HATFIELD, PA, 19440",135101627,"R"
50773,"1086 CHERRY HILL LANE","WEBSTER","NY",14580,43.20184621,-77.507859254,273,"1086 CHERRY HILL LANE, WEBSTER, NY, 14580","Match","Exact","1086 CHERRY HILL LN, WEBSTER, NY, 14580",14545141,"L"
50774,"1086 COMO PLACE","SAINT PAUL","MN",55103,44.973830542,-93.1343850819999,274,"1086 COMO PLACE, SAINT PAUL, MN, 55103","Match","Exact","1086 COMO PL, SAINT PAUL, MN, 55103",97667403,"R"
50775,"1086 CR 4045","COOKVILLE","TX",75558,33.185004582,-94.858760831,275,"1086 CR 4045, COOKVILLE, TX, 75558","Match","Exact","1086 CO RD 4045, COOKVILLE, TX, 75558",83221256,"R"
50776,"1086 E 2ND STREET APT 1","JAMESTOWN","NY",14701,42.110203777,-79.219451389,276,"1086 E 2ND STREET APT 1, JAMESTOWN, NY, 14701","Match","Non_Exact","1086 E 2ND ST, JAMESTOWN, NY, 14701",120753602,"R"
50777,"1086 E 2ND STREET","JAMESTOWN","NY",14701,42.110203777,-79.219451389,277,"1086 E 2ND STREET, JAMESTOWN, NY, 14701","Match","Exact","1086 E 2ND ST, JAMESTOWN, NY, 14701",120753602,"R"
50778,"1086 E ABERDEEN DRIVE","CHANDLER","AZ",85298,33.260589338,-111.765878265,278,"1086 E ABERDEEN DRIVE, CHANDLER, AZ, 85298","Match","Non_Exact","1086 E ABERDEEN DR, GILBERT, AZ, 85298",641769456,"L"
50779,"1086 E CHICAGO BLVD 7","TECUMSEH","MI",49286,NA,NA,279,"1086 E CHICAGO BLVD 7, TECUMSEH, MI, 49286","Tie",NA,NA,NA,NA
50780,"1086 EDENBOWER LANE","REDWOOD CITY","CA",94601,37.451089795,-122.255995018,280,"1086 EDENBOWER LANE, REDWOOD CITY, CA, 94601","Match","Non_Exact","1086 EDEN BOWER LN, REDWOOD CITY, CA, 94061",192386220,"R"
50781,"1086 EDGEWOOD AVENUE","ROCHESTER","NY",14618,43.0985459500001,-77.567055915,281,"1086 EDGEWOOD AVENUE, ROCHESTER, NY, 14618","Match","Exact","1086 EDGEWOOD AVE, ROCHESTER, NY, 14618",14574459,"L"
50782,"1086 EMERSON ROAD","PARK HILLS","KY",41011,39.077040228,-84.533941883,282,"1086 EMERSON ROAD, PARK HILLS, KY, 41011","Match","Exact","1086 EMERSON RD, PARK HILLS, KY, 41011",636990216,"R"
50783,"1086 FALLBROOK WAY","SANDY","UT",84094,40.601030918,-111.859878747,283,"1086 FALLBROOK WAY, SANDY, UT, 84094","Match","Non_Exact","1086 E FALLBROOK WAY, SANDY, UT, 84094",621649010,"R"
50784,"1086 HAWKWOOD WAY","ALLEN","TX",75013,NA,NA,284,"1086 HAWKWOOD WAY, ALLEN, TX, 75013","No_Match",NA,NA,NA,NA
50785,"1086 HELLAM STREET","MONTEREY","CA",93940,36.603440145,-121.905993466,285,"1086 HELLAM STREET, MONTEREY, CA, 93940","Match","Exact","1086 HELLAM ST, MONTEREY, CA, 93940",196814678,"R"
50786,"1086 HIGHLAND AVE","LINCOLN PARK","MI",48146,42.2305746220001,-83.1782161309999,286,"1086 HIGHLAND AVE, LINCOLN PARK, MI, 48146","Match","Exact","1086 HIGHLAND AVE, LINCOLN PARK, MI, 48146",95702135,"R"
50787,"1086 HIGHVIEW RD","LANTANA","FL",33462,26.5597297350001,-80.059875537,287,"1086 HIGHVIEW RD, LANTANA, FL, 33462","Match","Exact","1086 HIGHVIEW RD, LANTANA, FL, 33462",115526809,"L"
50788,"1086 HUNTERS RIDGE","LEXINGTON","OH",44904,40.6842378590001,-82.55092338,288,"1086 HUNTERS RIDGE, LEXINGTON, OH, 44904","Match","Exact","1086 HUNTERS RIDGE, LEXINGTON, OH, 44904",645834976,"L"
50789,"1086 HWY C-4A","BAKER","FL",32531,NA,NA,289,"1086 HWY C-4A, BAKER, FL, 32531","No_Match",NA,NA,NA,NA
50790,"1086 INDRA CT","CINCINNATI","OH",45245,39.286083471,-84.51930893,290,"1086 INDRA CT, CINCINNATI, OH, 45245","Match","Non_Exact","1086 INDRA CT, CINCINNATI, OH, 45240",103943332,"R"
50791,"1086 JACKSON DITCH ROAD","HARRINGTON","DE",19952,38.931211246,-75.5459927049999,291,"1086 JACKSON DITCH ROAD, HARRINGTON, DE, 19952","Match","Exact","1086 JACKSON DITCH RD, HARRINGTON, DE, 19952",68107643,"L"
50792,"1086 JAYHAWK RD","MARYSVILLE","KS",66508,39.856476656,-96.622686769,292,"1086 JAYHAWK RD, MARYSVILLE, KS, 66508","Match","Exact","1086 JAYHAWK RD, MARYSVILLE, KS, 66508",600569889,"L"
50793,"1086 JEFFERSON RD","PENN HILLS","PA",15235,40.4487671310001,-79.808458555,293,"1086 JEFFERSON RD, PENN HILLS, PA, 15235","Match","Exact","1086 JEFFERSON RD, PENN HILLS, PA, 15235",607714683,"R"
50794,"1086 KNOX ROAD 300E","GALESBURG","IL",61401,40.8716855430001,-90.3854826209999,294,"1086 KNOX ROAD 300E, GALESBURG, IL, 61401","Match","Non_Exact","1086 KNOX ROAD 300 E, GALESBURG, IL, 61401",9050386,"L"
50795,"1086 LONGWOOD DRIVE","WOODSTOCK","GA",30189,34.1517778780001,-84.5599373439999,295,"1086 LONGWOOD DRIVE, WOODSTOCK, GA, 30189","Match","Exact","1086 LONGWOOD DR, WOODSTOCK, GA, 30189",68853956,"R"
50796,"1086 MAGEE ROAD","PATTON","PA",16668,40.630543167,-78.668665608,296,"1086 MAGEE ROAD, PATTON, PA, 16668","Match","Exact","1086 MAGEE RD, PATTON, PA, 16668",50245494,"L"
50797,"1086 MAIN STREET","SANFORD","ME",4073,43.4274647390001,-70.766796519,297,"1086 MAIN STREET, SANFORD, ME, 4073","Match","Exact","1086 MAIN ST, SANFORD, ME, 04073",92738270,"R"
50798,"1086 MISTY MEADOWS CROSSING","HAMPTON","GA",30228,33.461986779,-84.355657007,298,"1086 MISTY MEADOWS CROSSING, HAMPTON, GA, 30228","Match","Exact","1086 MISTY MEADOWS CROSSING, HAMPTON, GA, 30228",637663249,"L"
50799,"1086 MOKUHANO ST","HONOLULU","HI",96825,21.2980099850001,-157.675010567,299,"1086 MOKUHANO ST, HONOLULU, HI, 96825","Match","Exact","1086 MOKUHANO ST, HONOLULU, HI, 96825",203241338,"L"
50800,"1086 MONTCLAIR CIRCLE","WESTLAKE","OH",44145,41.470733309,-81.9182612339999,300,"1086 MONTCLAIR CIRCLE, WESTLAKE, OH, 44145","Match","Exact","1086 MONTCLAIR CIR, WESTLAKE, OH, 44145",61138980,"R"
50801,"1086 MOSSWOOD RD","CHOUDRANT","LA",71227,32.4526956500001,-92.5336764149999,301,"1086 MOSSWOOD RD, CHOUDRANT, LA, 71227","Match","Exact","1086 MOSSWOOD RD, CHOUDRANT, LA, 71227",161014282,"L"
50802,"1086 MOUNTAIN VIEW DR","TWIN FALLS","ID",83301,42.580916293,-114.444100559,302,"1086 MOUNTAIN VIEW DR, TWIN FALLS, ID, 83301","Match","Exact","1086 MOUNTAIN VIEW DR, TWIN FALLS, ID, 83301",118772073,"R"
50803,"1086 N CABRICK DR","KUNA","ID",83634,NA,NA,303,"1086 N CABRICK DR, KUNA, ID, 83634","No_Match",NA,NA,NA,NA
50804,"1086 N ROAD 11","WORLAND","WY",82401,44.0257098450001,-107.927674502,304,"1086 N ROAD 11, WORLAND, WY, 82401","Match","Exact","1086 N RD 11, WORLAND, WY, 82401",634787824,"L"
50805,"1086 N WIND WEAVER PLACE","EAGLE","ID",83616,43.7051676080001,-116.387467221,305,"1086 N WIND WEAVER PLACE, EAGLE, ID, 83616","Match","Non_Exact","1086 W WIND WEAVER PL, EAGLE, ID, 83616",117899945,"R"
50806,"1086 NE GREENWOOD CT","BLUE SPRINGS","MO",64014,39.0424652950001,-94.248482682,306,"1086 NE GREENWOOD CT, BLUE SPRINGS, MO, 64014","Match","Exact","1086 NE GREENWOOD CT, BLUE SPRINGS, MO, 64014",91497778,"L"
50807,"1086 NORTH SHADOW DRIVE","MT. PLEASANT","SC",29464,32.8073170800001,-79.8551055569999,307,"1086 NORTH SHADOW DRIVE, MT. PLEASANT, SC, 29464","Match","Exact","1086 N SHADOW DR, MOUNT PLEASANT, SC, 29464",108850437,"R"
50808,"1086 NORWAY ROAD","KENDALL","NY",14476,43.3645245060001,-78.0162779739999,308,"1086 NORWAY ROAD, KENDALL, NY, 14476","Match","Exact","1086 NORWAY RD, KENDALL, NY, 14476",48809428,"L"
50809,"1086 OAKLEIGH DRIVE","SUMMIT","MS",39666,NA,NA,309,"1086 OAKLEIGH DRIVE, SUMMIT, MS, 39666","No_Match",NA,NA,NA,NA
50810,"1086 OUTBACK ROAD","JASPER","GA",30143,34.5329817850001,-84.450306532,310,"1086 OUTBACK ROAD, JASPER, GA, 30143","Match","Exact","1086 OUTBACK RD, JASPER, GA, 30143",627660625,"L"
50811,"1086 PEMBROKE STREET","TEANECK","NJ",7666,40.8983373500001,-74.022667778,311,"1086 PEMBROKE STREET, TEANECK, NJ, 7666","Match","Exact","1086 PEMBROKE ST, TEANECK, NJ, 07666",64388562,"L"
50812,"1086 PENDERLEA HWY","BURGAW","NC",28425,34.5544194030001,-77.943186026,312,"1086 PENDERLEA HWY, BURGAW, NC, 28425","Match","Exact","1086 PENDERLEA HWY, BURGAW, NC, 28425",14130220,"R"
50813,"1086 POST STREET APT 313","SAN FRANCISCO","CA",94109,37.7868736680001,-122.419621391,313,"1086 POST STREET APT 313, SAN FRANCISCO, CA, 94109","Match","Exact","1086 POST ST, SAN FRANCISCO, CA, 94109",192280679,"R"
50814,"1086 RALEIGH RIDGE APT 301","FORT MILL","SC",29708,35.0620849060001,-80.997312688,314,"1086 RALEIGH RIDGE APT 301, FORT MILL, SC, 29708","Match","Exact","1086 RALEIGH RDG, FORT MILL, SC, 29708",651082577,"R"
50815,"1086 REDMOND ROAD","EUREKA","CA",95503,40.7917090280001,-124.069725597,315,"1086 REDMOND ROAD, EUREKA, CA, 95503","Match","Exact","1086 REDMOND RD, EUREKA, CA, 95503",645258824,"L"
50816,"1086 REDWOOD AVE APT 9","SAN DIEGO","CA",92020,32.7913166390001,-116.945091501,316,"1086 REDWOOD AVE APT 9, SAN DIEGO, CA, 92020","Match","Non_Exact","1086 REDWOOD AVE, EL CAJON, CA, 92020",195721164,"L"
50817,"1086 RIVER ROCK","NEW BRAUNFELS","TX",78130,29.6919211250001,-98.087735411,317,"1086 RIVER ROCK, NEW BRAUNFELS, TX, 78130","Match","Exact","1086 RIVER ROCK, NEW BRAUNFELS, TX, 78130",72253706,"L"
50818,"1086 S FOOTHILL DR","LAKEWOOD","CO",80228,39.696348363,-105.151115162,318,"1086 S FOOTHILL DR, LAKEWOOD, CO, 80228","Match","Exact","1086 S FOOTHILL DR, LAKEWOOD, CO, 80228",653309285,"L"
50819,"1086 S SYCAMORE AVE","LOS ANGELES","CA",90019,34.0548387790001,-118.345310761,319,"1086 S SYCAMORE AVE, LOS ANGELES, CA, 90019","Match","Exact","1086 S SYCAMORE AVE, LOS ANGELES, CA, 90019",141600186,"L"
50820,"1086 SAINT MATHEW AVE","O'FALLON","MO",63366,38.823213959,-90.690293819,320,"1086 SAINT MATHEW AVE, O'FALLON, MO, 63366","Match","Non_Exact","1086 SAINT MATTHEW AVE, O FALLON, MO, 63366",100032601,"R"
50821,"1086 ST JOHNS CHASE","GRAND LEDGE","MI",48837,42.7657560600001,-84.75690381,321,"1086 ST JOHNS CHASE, GRAND LEDGE, MI, 48837","Match","Non_Exact","1086 ST JOHNS CHASE DR, GRAND LEDGE, MI, 48837",12053101,"L"
50822,"1086 SUMMERVILLE DR","KAUFMAN","TX",75142,32.5919041020001,-96.273703375,322,"1086 SUMMERVILLE DR, KAUFMAN, TX, 75142","Match","Exact","1086 SUMMERVILLE DR, KAUFMAN, TX, 75142",123746904,"R"
50823,"1086 TANGLEWOOD ROAD","JONESBORO","GA",30236,33.5371677430001,-84.3554620909999,323,"1086 TANGLEWOOD ROAD, JONESBORO, GA, 30236","Match","Exact","1086 TANGLEWOOD RD, JONESBORO, GA, 30236",23316512,"L"
50824,"1086 TANGLEWOOD ROAD","JONESBORO","GA",30237,33.5371677430001,-84.3554620909999,324,"1086 TANGLEWOOD ROAD, JONESBORO, GA, 30237","Match","Non_Exact","1086 TANGLEWOOD RD, JONESBORO, GA, 30236",23316512,"L"
50825,"1086 THE LANE","LEXINGTON","KY",40504,38.0434272310001,-84.5467557759999,325,"1086 THE LANE, LEXINGTON, KY, 40504","Match","Exact","1086 THE LANE, LEXINGTON, KY, 40504",31955653,"L"
50826,"1086 W 4150 N","PLEASANT VIEW","UT",84414,41.333358128,-111.999997902,326,"1086 W 4150 N, PLEASANT VIEW, UT, 84414","Match","Exact","1086 W 4150 N, PLEASANT VIEW, UT, 84414",652075826,"L"
50827,"1086 W YALE","FLINT","MI",48505,43.0848947480001,-83.696812472,327,"1086 W YALE, FLINT, MI, 48505","Match","Non_Exact","1086 W YALE AVE, FLINT, MI, 48505",69565694,"R"
50828,"1086 WELCH HILL CIR","APOPKA","FL",32712,28.7007659920001,-81.523361829,328,"1086 WELCH HILL CIR, APOPKA, FL, 32712","Match","Exact","1086 WELCH HILL CIR, APOPKA, FL, 32712",94411145,"L"
50829,"1086 WELCH HILL CIRCLE","APOPKA","FL",32712,28.7007659920001,-81.523361829,329,"1086 WELCH HILL CIRCLE, APOPKA, FL, 32712","Match","Exact","1086 WELCH HILL CIR, APOPKA, FL, 32712",94411145,"L"
50830,"1086 WHITETAIL DRIVE","MANDEVILLE","LA",70448,30.383551143,-90.055400289,330,"1086 WHITETAIL DRIVE, MANDEVILLE, LA, 70448","Match","Exact","1086 WHITETAIL DR, MANDEVILLE, LA, 70448",611484050,"R"
50831,"1086 WILSON ST","WOODBURN","OR",97071,45.1348417660001,-122.850904118,331,"1086 WILSON ST, WOODBURN, OR, 97071","Match","Exact","1086 WILSON ST, WOODBURN, OR, 97071",632215511,"L"
50832,"1086 WOOD STREET","DUBUQUE","IA",52001,42.4995611320001,-90.6858237709999,332,"1086 WOOD STREET, DUBUQUE, IA, 52001","Match","Exact","1086 WOOD ST, DUBUQUE, IA, 52001",16908015,"R"
50833,"10860 35TH AVE SW","SEATTLE","CA",98146,NA,NA,333,"10860 35TH AVE SW, SEATTLE, CA, 98146","No_Match",NA,NA,NA,NA
50834,"10860 BAIRD ROAD","AMHERST","OH",44001,41.332910042,-82.317411202,334,"10860 BAIRD ROAD, AMHERST, OH, 44001","Match","Exact","10860 BAIRD RD, AMHERST, OH, 44001",55449367,"R"
50835,"10860 CARISSA TRL","ALPHARETTA","GA",30022,34.046450211,-84.254552071,335,"10860 CARISSA TRL, ALPHARETTA, GA, 30022","Match","Non_Exact","10860 CARRISSA TRL, ALPHARETTA, GA, 30022",634083580,"L"
50836,"10860 CARLOWAY HILLS DRIVE","WIMAUMA","FL",33598,27.7592025180001,-82.324799758,336,"10860 CARLOWAY HILLS DRIVE, WIMAUMA, FL, 33598","Match","Exact","10860 CARLOWAY HILLS DR, WIMAUMA, FL, 33598",628079817,"L"
50837,"10860 CARRISSA TRL","ALPHARETTA","GA",30022,34.046450211,-84.254552071,337,"10860 CARRISSA TRL, ALPHARETTA, GA, 30022","Match","Exact","10860 CARRISSA TRL, ALPHARETTA, GA, 30022",634083580,"L"
50838,"10860 COUNTY RD 3330","ST JAMES","MO",65559,37.9374733930001,-91.655241812,338,"10860 COUNTY RD 3330, ST JAMES, MO, 65559","Match","Exact","10860 CO RD 3330, SAINT JAMES, MO, 65559",45099487,"R"
50839,"10860 DOLORES DRIVE","GRASS VALLEY","CA",95945,39.22959409,-121.071031032,339,"10860 DOLORES DRIVE, GRASS VALLEY, CA, 95945","Match","Exact","10860 DOLORES DR, GRASS VALLEY, CA, 95945",106533533,"L"
50840,"10860 LILAC DR","JUNEAU","AK",99801,58.3960332450001,-134.613942724,340,"10860 LILAC DR, JUNEAU, AK, 99801","Match","Exact","10860 LILAC DR, JUNEAU, AK, 99801",646839648,"R"
50841,"10860 PINE CONE CT","WEST OLIVE","MI",49460,42.940427479,-86.054743563,341,"10860 PINE CONE CT, WEST OLIVE, MI, 49460","Match","Exact","10860 PINE CONE CT, WEST OLIVE, MI, 49460",627080275,"R"
50842,"10860 SUNFLOWER STREET","VENTURA","CA",93004,34.277903886,-119.150966492,342,"10860 SUNFLOWER STREET, VENTURA, CA, 93004","Match","Exact","10860 SUNFLOWER ST, VENTURA, CA, 93004",110029092,"R"
50843,"10860 SW 167 ST","MIAMI","FL",33157,25.6138276130001,-80.3688646109999,343,"10860 SW 167 ST, MIAMI, FL, 33157","Match","Exact","10860 SW 167TH ST, MIAMI, FL, 33157",115982532,"L"
50844,"10860 SW 167TH STREET","MIAMI","FL",33157,25.6138276130001,-80.3688646109999,344,"10860 SW 167TH STREET, MIAMI, FL, 33157","Match","Exact","10860 SW 167TH ST, MIAMI, FL, 33157",115982532,"L"
50845,"10861 EL NOPAL","SANTEE","CA",92071,32.8632259930001,-116.963021497,345,"10861 EL NOPAL, SANTEE, CA, 92071","Match","Exact","10861 EL NOPAL, SANTEE, CA, 92071",195327574,"R"
50846,"10861 NE 80TH ST","BONDURANT","IA",50035,41.7583495490001,-93.444981432,346,"10861 NE 80TH ST, BONDURANT, IA, 50035","Match","Exact","10861 NE 80TH ST, BONDURANT, IA, 50035",65770653,"R"
50847,"10861 NW 36TH STREET","SUNRISE","FL",33351,26.170619237,-80.2949477029999,347,"10861 NW 36TH STREET, SUNRISE, FL, 33351","Match","Exact","10861 NW 36TH ST, SUNRISE, FL, 33351",631759349,"R"
50848,"10861 PICKFORD WAY","CULVER CITY","CA",90230,34.003035706,-118.395115641,348,"10861 PICKFORD WAY, CULVER CITY, CA, 90230","Match","Exact","10861 PICKFORD WAY, CULVER CITY, CA, 90230",141575503,"R"
50849,"10861 STOREHOUSE COURT","DAVIDSON","NC",28036,35.4595582850001,-80.7643327919999,349,"10861 STOREHOUSE COURT, DAVIDSON, NC, 28036","Match","Non_Exact","10861 STORE HOUSE CT, DAVIDSON, NC, 28036",24931761,"R"
50850,"10861","SUNRISE","FL",33351,NA,NA,350,"10861, SUNRISE, FL, 33351","No_Match",NA,NA,NA,NA
50851,"10862 DE OFE AVENUE","PACOIMA","CA",91331,NA,NA,351,"10862 DE OFE AVENUE, PACOIMA, CA, 91331","No_Match",NA,NA,NA,NA
50852,"10862 DEPOT DR","BEALETON","VA",22712,38.578010948,-77.761049672,352,"10862 DEPOT DR, BEALETON, VA, 22712","Match","Exact","10862 DEPOT DR, BEALETON, VA, 22712",146307693,"L"
50853,"10862 FITE HAUCK RD","SARDINIA","OH",45171,38.9372429160001,-83.8138514619999,353,"10862 FITE HAUCK RD, SARDINIA, OH, 45171","Match","Non_Exact","10862 FITE-HAUCK RD, SARDINIA, OH, 45171",606309459,"R"
50854,"10862 HIJOS WAY","SAN DIEGO","CA",92124,32.829299188,-117.095611017,354,"10862 HIJOS WAY, SAN DIEGO, CA, 92124","Match","Exact","10862 HIJOS WAY, SAN DIEGO, CA, 92124",195322281,"L"
50855,"10862 MILLER ROAD","UTICA","NY",13502,43.1712383460001,-75.166110412,355,"10862 MILLER ROAD, UTICA, NY, 13502","Match","Exact","10862 MILLER RD, UTICA, NY, 13502",171581192,"R"
50856,"10862 SOUTH SANGAMON STREET","CHICAGO","IL",60643,41.69666213,-87.6461679,356,"10862 SOUTH SANGAMON STREET, CHICAGO, IL, 60643","Match","Exact","10862 S SANGAMON ST, CHICAGO, IL, 60643",111833262,"R"
50857,"10862 WINESAP AVE","CHERRY VALLEY","CA",92223,33.9633446240001,-116.95542401,357,"10862 WINESAP AVE, CHERRY VALLEY, CA, 92223","Match","Exact","10862 WINESAP AVE, CHERRY VALLEY, CA, 92223",194753600,"L"
50858,"10863 12TH AVE SW","SEATTLE","WA",98146,47.505771619,-122.349942357,358,"10863 12TH AVE SW, SEATTLE, WA, 98146","Match","Exact","10863 12TH AVE SW, SEATTLE, WA, 98146",640611199,"R"
50859,"10863 HURON DRIVE","HUNTSVILLE","OH",43324,40.501230277,-83.868836459,359,"10863 HURON DRIVE, HUNTSVILLE, OH, 43324","Match","Exact","10863 HURON DR, HUNTSVILLE, OH, 43324",52173044,"L"
50860,"10863 SAND RUN RD","HARRION","OH",45030,39.1880867630001,-84.811613589,360,"10863 SAND RUN RD, HARRION, OH, 45030","Match","Non_Exact","10863 SAND RUN RD, HARRISON, OH, 45030",103980714,"R"
50861,"10863 SOUTHSHORE COURT","HAMPTON","GA",30228,33.4583472840001,-84.3363485309999,361,"10863 SOUTHSHORE COURT, HAMPTON, GA, 30228","Match","Exact","10863 SOUTHSHORE CT, HAMPTON, GA, 30228",645816235,"R"
50862,"10863 STANDING STONE DRIVE","WIMAUMA","FL",33598,27.7620085240001,-82.3285703339999,362,"10863 STANDING STONE DRIVE, WIMAUMA, FL, 33598","Match","Exact","10863 STANDING STONE DR, WIMAUMA, FL, 33598",624637837,"L"
50863,"10864 4TH PLACE SW","SEATTLE","WA",98146,47.505957283,-122.339952425,363,"10864 4TH PLACE SW, SEATTLE, WA, 98146","Match","Exact","10864 4TH PL SW, SEATTLE, WA, 98146",186624008,"L"
50864,"10864 ANGELINA DRIVE","LITTLE FALLS","MN",56345,45.919093552,-94.316709652,364,"10864 ANGELINA DRIVE, LITTLE FALLS, MN, 56345","Match","Exact","10864 ANGELINA DR, LITTLE FALLS, MN, 56345",167409415,"R"
50865,"10864 LEHIGH AVE 81","PACOIMA","CA",91331,34.267494748,-118.4147602,365,"10864 LEHIGH AVE 81, PACOIMA, CA, 91331","Match","Exact","10864 LEHIGH AVE, PACOIMA, CA, 91331",142046513,"R"
50866,"10864 LEHIGH AVE","PACOIMA","CA",91331,34.267494748,-118.4147602,366,"10864 LEHIGH AVE, PACOIMA, CA, 91331","Match","Exact","10864 LEHIGH AVE, PACOIMA, CA, 91331",142046513,"R"
50867,"10864 LOMA DEL NORTE DR","EL PASO","TX",79934,NA,NA,367,"10864 LOMA DEL NORTE DR, EL PASO, TX, 79934","Tie",NA,NA,NA,NA
50868,"10864 M-43","RICHLAND","MI",49083,NA,NA,368,"10864 M-43, RICHLAND, MI, 49083","No_Match",NA,NA,NA,NA
50869,"10864 NEWBRIDGE DRIVE","RIVERVIEW","FL",33579,27.808439263,-82.327249507,369,"10864 NEWBRIDGE DRIVE, RIVERVIEW, FL, 33579","Match","Exact","10864 NEWBRIDGE DR, RIVERVIEW, FL, 33579",104673848,"L"
50870,"10864 ROGALLA DRIVE","CHARLOTTE","NC",28277,35.0547038450001,-80.85908137,370,"10864 ROGALLA DRIVE, CHARLOTTE, NC, 28277","Match","Exact","10864 ROGALLA DR, CHARLOTTE, NC, 28277",70561450,"L"
50871,"10864 STEEDING HORSE DRIVE","JACKSONVILLE","FL",32257,30.176886138,-81.5800117269999,371,"10864 STEEDING HORSE DRIVE, JACKSONVILLE, FL, 32257","Match","Exact","10864 STEEDING HORSE DR, JACKSONVILLE, FL, 32257",83934570,"L"
50872,"10864 VIA SALIDA","YUMA","AZ",85367,32.671060961,-114.429852,372,"10864 VIA SALIDA, YUMA, AZ, 85367","Match","Exact","10864 VIA SALIDA, YUMA, AZ, 85367",129632314,"L"
50873,"10865  GABLE STREET","BOCA RATON","FL",33428,26.3465348760001,-80.2170683429999,373,"10865  GABLE STREET, BOCA RATON, FL, 33428","Match","Exact","10865 GABLE ST, BOCA RATON, FL, 33428",115299758,"R"
50874,"10865 DARRACOTT","ABERDEEN","MS",39730,33.793501382,-88.5373015279999,374,"10865 DARRACOTT, ABERDEEN, MS, 39730","Match","Non_Exact","10865 DARRACOTT RD, ABERDEEN, MS, 39730",611759267,"L"
50875,"10865 DRYDEN DRIVE","RENO","NV",89511,39.435035181,-119.801837645,375,"10865 DRYDEN DRIVE, RENO, NV, 89511","Match","Exact","10865 DRYDEN DR, RENO, NV, 89511",107098945,"R"
50876,"10865 DUNNOTAR ROAD","JACKSONVILLE","FL",32221,30.2878065300001,-81.840578373,376,"10865 DUNNOTAR ROAD, JACKSONVILLE, FL, 32221","Match","Exact","10865 DUNNOTAR RD, JACKSONVILLE, FL, 32221",624809686,"L"
50877,"10865 EAST 98TH PLACE","COMMERCE CITY","CO",80022,NA,NA,377,"10865 EAST 98TH PLACE, COMMERCE CITY, CO, 80022","No_Match",NA,NA,NA,NA
50878,"10865 N TARTAN COURT","MEQUON","WI",53097,43.2158746650001,-88.0202023909999,378,"10865 N TARTAN COURT, MEQUON, WI, 53097","Match","Exact","10865 TARTAN CT, MEQUON, WI, 53097",652096756,"R"
50879,"10865 SERRATINA DR","RENO","NV",89521,39.4168008730001,-119.73036103,379,"10865 SERRATINA DR, RENO, NV, 89521","Match","Exact","10865 SERRATINA DR, RENO, NV, 89521",614098983,"L"
50880,"10865 TRAVELLERS TRAIL","JONESBORO","GA",30238,33.459294335,-84.37551672,380,"10865 TRAVELLERS TRAIL, JONESBORO, GA, 30238","Match","Exact","10865 TRAVELLERS TRL, JONESBORO, GA, 30238",636089143,"L"
50881,"10865 W WALLFLOWER AVE","LAS VEGAS","NV",89135,36.1292790890001,-115.329556332,381,"10865 W WALLFLOWER AVE, LAS VEGAS, NV, 89135","Match","Exact","10865 WALLFLOWER AVE, LAS VEGAS, NV, 89135",201997270,"L"
50882,"10866 210 ST","BLANCHARD","OK",73010,35.01504463,-97.6544764669999,382,"10866 210 ST, BLANCHARD, OK, 73010","Match","Exact","10866 210TH ST, BLANCHARD, OK, 73010",640630357,"L"
50883,"10866 210 ST","BLANHARD","OK",73010,35.01504463,-97.6544764669999,383,"10866 210 ST, BLANHARD, OK, 73010","Match","Non_Exact","10866 210TH ST, BLANCHARD, OK, 73010",640630357,"L"
50884,"10866 BEACH BLVD","STANTON","CA",90680,33.8045722270001,-117.993036607,384,"10866 BEACH BLVD, STANTON, CA, 90680","Match","Exact","10866 BEACH BLVD, STANTON, CA, 90680",144011271,"L"
50885,"10866 CAMPAIN CT","MANASSAS","VA",20109,NA,NA,385,"10866 CAMPAIN CT, MANASSAS, VA, 20109","No_Match",NA,NA,NA,NA
50886,"10866 HEATHER ROAD","TRUCKEE","CA",96161,39.3662650320001,-120.166021352,386,"10866 HEATHER ROAD, TRUCKEE, CA, 96161","Match","Exact","10866 HEATHER RD, TRUCKEE, CA, 96161",106524537,"L"
50887,"10866 ONONDAGA RD","ONONDAGA","MI",49264,42.3919866620001,-84.556917028,387,"10866 ONONDAGA RD, ONONDAGA, MI, 49264","Match","Exact","10866 ONONDAGA RD, ONONDAGA, MI, 49264",17647879,"R"
50888,"10866 WASHINGTON BLVD 1010","CULVER CITY","CA",90232,34.0142132510001,-118.408386298,388,"10866 WASHINGTON BLVD 1010, CULVER CITY, CA, 90232","Match","Exact","10866 WASHINGTON BLVD, CULVER CITY, CA, 90232",141574209,"L"
50889,"10866 WASHINGTON BLVD 1271","CULVER CITY","CA",90232,34.0142132510001,-118.408386298,389,"10866 WASHINGTON BLVD 1271, CULVER CITY, CA, 90232","Match","Exact","10866 WASHINGTON BLVD, CULVER CITY, CA, 90232",141574209,"L"
50890,"10866 WASHINGTON BLVD 888","CULVER CITY","CA",90232,34.0142132510001,-118.408386298,390,"10866 WASHINGTON BLVD 888, CULVER CITY, CA, 90232","Match","Exact","10866 WASHINGTON BLVD, CULVER CITY, CA, 90232",141574209,"L"
50891,"10866 WASHINGTON BLVD NUM 38","CULVER CITY","CA",90230,34.0142132510001,-118.408386298,391,"10866 WASHINGTON BLVD NUM 38, CULVER CITY, CA, 90230","Match","Non_Exact","10866 WASHINGTON BLVD, CULVER CITY, CA, 90232",141574209,"L"
50892,"10866 WASHINGTON BLVD STE 220","CULVER CITY","CA",90232,34.0142132510001,-118.408386298,392,"10866 WASHINGTON BLVD STE 220, CULVER CITY, CA, 90232","Match","Exact","10866 WASHINGTON BLVD, CULVER CITY, CA, 90232",141574209,"L"
50893,"10866 WASHINGTON BLVD","CULVER CITY","CA",90232,34.0142132510001,-118.408386298,393,"10866 WASHINGTON BLVD, CULVER CITY, CA, 90232","Match","Exact","10866 WASHINGTON BLVD, CULVER CITY, CA, 90232",141574209,"L"
50894,"10866 WILSHIRE BLVD SUITE 1500","LOS ANGELES","CA",90024,34.059276728,-118.441985685,394,"10866 WILSHIRE BLVD SUITE 1500, LOS ANGELES, CA, 90024","Match","Exact","10866 WILSHIRE BLVD, LOS ANGELES, CA, 90024",141567654,"L"
50895,"10867 LEMON LAKE BLVD","ORLANDO","FL",32836,28.39858121,-81.4946494769999,395,"10867 LEMON LAKE BLVD, ORLANDO, FL, 32836","Match","Exact","10867 LEMON LAKE BLVD, ORLANDO, FL, 32836",649105378,"L"
50896,"10867 MILLER ROAD","UTICA","NY",13502,43.171113903,-75.164536593,396,"10867 MILLER ROAD, UTICA, NY, 13502","Match","Exact","10867 MILLER RD, UTICA, NY, 13502",171581192,"L"
50897,"10868 E KALIL DR","SCOTTSDALE","AZ",85259,33.589163436,-111.846598612,397,"10868 E KALIL DR, SCOTTSDALE, AZ, 85259","Match","Exact","10868 E KALIL DR, SCOTTSDALE, AZ, 85259",128299445,"L"
50898,"10868 GROVEHAMPTON CT","RESTON","VA",20194,38.9770648250001,-77.3223787379999,398,"10868 GROVEHAMPTON CT, RESTON, VA, 20194","Match","Exact","10868 GROVEHAMPTON CT, RESTON, VA, 20194",76038936,"R"
50899,"10868 S SALT POINT RD","ECKERMAN","MI",49728,46.348059855,-84.969047398,399,"10868 S SALT POINT RD, ECKERMAN, MI, 49728","Match","Exact","10868 S SALT PT RD, ECKERMAN, MI, 49728",130550416,"L"
50900,"10868 SOUTH MILLBROOK LANE","OLATHE","KS",66061,38.9320460320001,-94.827701352,400,"10868 SOUTH MILLBROOK LANE, OLATHE, KS, 66061","Match","Exact","10868 S MILLBROOK LN, OLATHE, KS, 66061",641690899,"R"
50901,"10869 ASHLEY LN","WOODBURY","MN",55129,44.93629693,-92.88414518,401,"10869 ASHLEY LN, WOODBURY, MN, 55129","Match","Exact","10869 ASHLEY LN, WOODBURY, MN, 55129",615265792,"L"
50902,"10869 E 300 N","VAN BUREN","IN",46991,40.596185941,-85.4704607309999,402,"10869 E 300 N, VAN BUREN, IN, 46991","Match","Exact","10869 E 300 N, VAN BUREN, IN, 46991",95004068,"L"
50903,"10869 GAMBRIL DRIVE NO 21","MANASSAS","VA",20109,38.7790807530001,-77.521210401,403,"10869 GAMBRIL DRIVE NO 21, MANASSAS, VA, 20109","Match","Non_Exact","10869 GAMBRIL DR, MANASSAS, VA, 20109",207183242,"R"
50904,"10869 MERRIT DRIVE","STOCKTON","CA",95219,38.055932995,-121.388155657,404,"10869 MERRIT DRIVE, STOCKTON, CA, 95219","Match","Non_Exact","10869 MERRITT DR, STOCKTON, CA, 95219",133892845,"L"
50905,"10869 N SCOTTSDALE RD 103-148","SCOTTSDALE","AZ",85254,33.586141852,-111.925975859,405,"10869 N SCOTTSDALE RD 103-148, SCOTTSDALE, AZ, 85254","Match","Non_Exact","10869 N SCOTTSDALE RD, SCOTTSDALE, AZ, 85254",128602110,"R"
50906,"10869 N SCOTTSDALE RD 103-219","SCOTTSDALE","AZ",85254,33.586141852,-111.925975859,406,"10869 N SCOTTSDALE RD 103-219, SCOTTSDALE, AZ, 85254","Match","Non_Exact","10869 N SCOTTSDALE RD, SCOTTSDALE, AZ, 85254",128602110,"R"
50907,"10869 N SCOTTSDALE RD 103-262","SCOTTSDALE","AZ",85254,33.586141852,-111.925975859,407,"10869 N SCOTTSDALE RD 103-262, SCOTTSDALE, AZ, 85254","Match","Non_Exact","10869 N SCOTTSDALE RD, SCOTTSDALE, AZ, 85254",128602110,"R"
50908,"10869 N SCOTTSDALE RD STE 103-205","SCOTTSDALE","AZ",85254,33.586141852,-111.925975859,408,"10869 N SCOTTSDALE RD STE 103-205, SCOTTSDALE, AZ, 85254","Match","Non_Exact","10869 N SCOTTSDALE RD, SCOTTSDALE, AZ, 85254",128602110,"R"
50909,"10869 N SCOTTSDALE ROAD 103-222","SCOTTSDALE","AZ",85254,33.586141852,-111.925975859,409,"10869 N SCOTTSDALE ROAD 103-222, SCOTTSDALE, AZ, 85254","Match","Non_Exact","10869 N SCOTTSDALE RD, SCOTTSDALE, AZ, 85254",128602110,"R"
50910,"10869 W PARKER AVE","BOISE","ID",83709,43.532915164,-116.317149199,410,"10869 W PARKER AVE, BOISE, ID, 83709","Match","Exact","10869 PARKER AVE, BOISE, ID, 83709",117861607,"L"
50911,"1087 28TH STREET","DES MOINES","IA",50311,41.5976336680001,-93.654462768,411,"1087 28TH STREET, DES MOINES, IA, 50311","Match","Exact","1087 28TH ST, DES MOINES, IA, 50311",65780883,"R"
50912,"1087 ARAPAHO AVE","WORTHINGTON","OH",43085,40.1233401270001,-82.987402936,412,"1087 ARAPAHO AVE, WORTHINGTON, OH, 43085","Match","Exact","1087 ARAPAHO AVE, WORTHINGTON, OH, 43085",642842449,"L"
50913,"1087 ARDEN AVENUE","STATEN ISLAND","NY",10312,40.5428858330001,-74.173147393,413,"1087 ARDEN AVENUE, STATEN ISLAND, NY, 10312","Match","Exact","1087 ARDEN AVE, STATEN ISLAND, NY, 10312",636672525,"L"
50914,"1087 BARNSTABLE LANE","BRENTWOOD","TN",37027,NA,NA,414,"1087 BARNSTABLE LANE, BRENTWOOD, TN, 37027","No_Match",NA,NA,NA,NA
50915,"1087 BRADFORD CROSSING PL","GOODE","VA",24556,37.368064141,-79.396139207,415,"1087 BRADFORD CROSSING PL, GOODE, VA, 24556","Match","Exact","1087 BRADFORD CROSSING PL, GOODE, VA, 24556",650161304,"L"
50916,"1087 BROAD STREET","BRIDGEPORT","CT",6604,41.178003188,-73.1910006319999,416,"1087 BROAD STREET, BRIDGEPORT, CT, 6604","Match","Exact","1087 BROAD ST, BRIDGEPORT, CT, 06604",3224207,"L"
50917,"1087 BUFFALO MOUNTAIN ROAD","ARBOVALE","WV",24915,38.4370098800001,-79.8023274079999,417,"1087 BUFFALO MOUNTAIN ROAD, ARBOVALE, WV, 24915","Match","Exact","1087 BUFFALO MOUNTAIN RD, ARBOVALE, WV, 24915",646877287,"L"
50918,"1087 BUSHWICK AVENUE APT 3B","BROOKLYN","NY",11221,40.690279258,-73.919493259,418,"1087 BUSHWICK AVENUE APT 3B, BROOKLYN, NY, 11221","Match","Exact","1087 BUSHWICK AVE, BROOKLYN, NY, 11221",59082848,"L"
50919,"1087 CARROL STREET","BROOKLYN","NY",11225,40.667371641,-73.954094327,419,"1087 CARROL STREET, BROOKLYN, NY, 11225","Match","Non_Exact","1087 CARROLL ST, BROOKLYN, NY, 11225",59079392,"L"
50920,"1087 COPPERSTONE CT","ROCKVILLE","MD",20852,39.075388811,-77.1423352589999,420,"1087 COPPERSTONE CT, ROCKVILLE, MD, 20852","Match","Exact","1087 COPPERSTONE CT, ROCKVILLE, MD, 20852",639325106,"L"
50921,"1087 COUNTY RD 1383","CHICKASHA","OK",73018,35.009953195,-97.9186293819999,421,"1087 COUNTY RD 1383, CHICKASHA, OK, 73018","Match","Exact","1087 CO RD 1383, CHICKASHA, OK, 73018",15242099,"L"
50922,"1087 COUNTY ROAD 1383","CHICKASHA","OK",73018,35.009953195,-97.9186293819999,422,"1087 COUNTY ROAD 1383, CHICKASHA, OK, 73018","Match","Exact","1087 CO RD 1383, CHICKASHA, OK, 73018",15242099,"L"
50923,"1087 CR 2020","GLEN ROSE","TX",76043,32.224347359,-97.7792068269999,423,"1087 CR 2020, GLEN ROSE, TX, 76043","Match","Exact","1087 CO RD 2020, GLEN ROSE, TX, 76043",635378496,"R"
50924,"1087 DUNCAN COURT","SAN MARCOS","CA",92078,NA,NA,424,"1087 DUNCAN COURT, SAN MARCOS, CA, 92078","No_Match",NA,NA,NA,NA
50925,"1087 EAST 37TH STREET","BROOKLYN","NY",11210,40.6301859000001,-73.940575129,425,"1087 EAST 37TH STREET, BROOKLYN, NY, 11210","Match","Exact","1087 E 37TH ST, BROOKLYN, NY, 11210",653448239,"L"
50926,"1087 FARM ROAD 2216","SUMNER","TX",75486,33.725427202,-95.8530237639999,426,"1087 FARM ROAD 2216, SUMNER, TX, 75486","Match","Non_Exact","1087 FARM RD 2216, SUMNER, TX, 75486",63594853,"L"
50927,"1087 FLORIDA LN","ELD GROVE VILLAGE","IL",60007,41.9945106060001,-88.0503726919999,427,"1087 FLORIDA LN, ELD GROVE VILLAGE, IL, 60007","Match","Non_Exact","1087 FLORIDA LN, ELK GROVE VILLAGE, IL, 60007",111699230,"R"
50928,"1087 FLORIDA LN","ELK GROVE VILLAGE","IL",60007,41.9945106060001,-88.0503726919999,428,"1087 FLORIDA LN, ELK GROVE VILLAGE, IL, 60007","Match","Exact","1087 FLORIDA LN, ELK GROVE VILLAGE, IL, 60007",111699230,"R"
50929,"1087 FM 90","MABANK","TX",75147,32.5109125640001,-96.05103775,429,"1087 FM 90, MABANK, TX, 75147","Match","Exact","1087 FM 90, MABANK, TX, 75147",42945325,"R"
50930,"1087 FORT HILL STREET","MACON","GA",31217,32.855062543,-83.6125463989999,430,"1087 FORT HILL STREET, MACON, GA, 31217","Match","Exact","1087 FORT HILL ST, MACON, GA, 31217",81062577,"R"
50931,"1087 GOLF COURSE ROAD","SOUTH BOSTON","VA",24592,NA,NA,431,"1087 GOLF COURSE ROAD, SOUTH BOSTON, VA, 24592","No_Match",NA,NA,NA,NA
50932,"1087 GOODMAN","MEMPHIS","TN",38111,35.1019930580001,-89.9336720059999,432,"1087 GOODMAN, MEMPHIS, TN, 38111","Match","Non_Exact","1087 GOODMAN ST, MEMPHIS, TN, 38111",72919940,"R"
50933,"1087 GROBY ROAD","ST. LOUIS","MO",63130,38.6701172670001,-90.341286871,433,"1087 GROBY ROAD, ST. LOUIS, MO, 63130","Match","Exact","1087 GROBY RD, SAINT LOUIS, MO, 63130",100133828,"L"
50934,"1087 GROBY ROAD","UNIVERSITY CITY","MO",63130,38.6701172670001,-90.341286871,434,"1087 GROBY ROAD, UNIVERSITY CITY, MO, 63130","Match","Exact","1087 GROBY RD, UNIVERSITY CITY, MO, 63130",100133828,"L"
50935,"1087 HAIKU RD","HAIKU","HI",96733,20.91663242,-156.317631555,435,"1087 HAIKU RD, HAIKU, HI, 96733","Match","Non_Exact","1087 HAIKU RD, HAIKU, HI, 96708",85090434,"R"
50936,"1087 HWY 377","PILOT POINT","TX",76258,33.4240607620001,-96.935356272,436,"1087 HWY 377, PILOT POINT, TX, 76258","Match","Non_Exact","1087 N HWY 377, PILOT POINT, TX, 76258",636353891,"L"
50937,"1087 JENNINGS STREET","SAFFORD","AZ",85546,32.740077946,-109.694661945,437,"1087 JENNINGS STREET, SAFFORD, AZ, 85546","Match","Non_Exact","1087 E JENNINGS ST, SAFFORD, AZ, 85546",128034129,"R"
50938,"1087 KENSINGTON DR","ROSEVILLE","CA",95661,38.725953954,-121.274892787,438,"1087 KENSINGTON DR, ROSEVILLE, CA, 95661","Match","Exact","1087 KENSINGTON DR, ROSEVILLE, CA, 95661",106775945,"L"
50939,"1087 KENYON AVENUE","PLAINFIELD","NJ",7060,40.6028146290001,-74.413615104,439,"1087 KENYON AVENUE, PLAINFIELD, NJ, 7060","Match","Exact","1087 KENYON AVE, PLAINFIELD, NJ, 07060",60587473,"L"
50940,"1087 KILKORMIC ST","TOMS RIVER","NJ",8753,39.984277159,-74.141691532,440,"1087 KILKORMIC ST, TOMS RIVER, NJ, 8753","Match","Exact","1087 KILKORMIC ST, TOMS RIVER, NJ, 08753",203729064,"L"
50941,"1087 LAKE WASHINGTON BLVD N","RENTON","WA",98056,47.5156117700001,-122.206771501,441,"1087 LAKE WASHINGTON BLVD N, RENTON, WA, 98056","Match","Exact","1087 LAKE WASHINGTON BLVD N, RENTON, WA, 98056",629169453,"L"
50942,"1087 LAKESIDE DRIVE","NEW SHOREHAMSHOREHAM","RI",2807,NA,NA,442,"1087 LAKESIDE DRIVE, NEW SHOREHAMSHOREHAM, RI, 2807","No_Match",NA,NA,NA,NA
50943,"1087 LAWRENCE RD","CLOVER","SC",29710,35.089635017,-81.234319321,443,"1087 LAWRENCE RD, CLOVER, SC, 29710","Match","Exact","1087 LAWRENCE RD, CLOVER, SC, 29710",19800984,"R"
50944,"1087 LEWIS RIVER RD 214","WOODLAND","WA",98674,45.9068974890001,-122.740417308,444,"1087 LEWIS RIVER RD 214, WOODLAND, WA, 98674","Match","Exact","1087 LEWIS RIVER RD, WOODLAND, WA, 98674",184486729,"L"
50945,"1087 LILLYGATE LANE","BEL AIR","MD",21014,39.555954721,-76.358359919,445,"1087 LILLYGATE LANE, BEL AIR, MD, 21014","Match","Exact","1087 LILLYGATE LN, BEL AIR, MD, 21014",624415638,"R"
50946,"1087 LOVEJOY ROAD","GOSHEN","AL",36302,31.7847337790001,-86.096488526,446,"1087 LOVEJOY ROAD, GOSHEN, AL, 36302","Match","Non_Exact","1087 LOVEJOY RD, GOSHEN, AL, 36035",69222870,"L"
50947,"1087 MAGEE ROAD","SEWICKLEY","PA",15143,40.582531573,-80.117027397,447,"1087 MAGEE ROAD, SEWICKLEY, PA, 15143","Match","Exact","1087 MAGEE RD, SEWICKLEY, PA, 15143",51710323,"L"
50948,"1087 MCCONAUGHY CT","MCDONOUGH","GA",30253,33.4250529710001,-84.1549823459999,448,"1087 MCCONAUGHY CT, MCDONOUGH, GA, 30253","Match","Exact","1087 MCCONAUGHY CT, MCDONOUGH, GA, 30253",632511280,"R"
50949,"1087 METTEN AVE","PITTSBURG","CA",94565,37.993696034,-121.878401461,449,"1087 METTEN AVE, PITTSBURG, CA, 94565","Match","Exact","1087 METTEN AVE, PITTSBURG, CA, 94565",192061591,"L"
50950,"1087 MILLER AVE","COLUMBUS","OH",43206,39.9438333780001,-82.96211662,450,"1087 MILLER AVE, COLUMBUS, OH, 43206","Match","Exact","1087 MILLER AVE, COLUMBUS, OH, 43206",135581899,"R"
50951,"1087 MISSION STREET","SAN FRANCISCO","CA",94103,37.779416557,-122.410669395,451,"1087 MISSION STREET, SAN FRANCISCO, CA, 94103","Match","Exact","1087 MISSION ST, SAN FRANCISCO, CA, 94103",650099726,"L"
50952,"1087 MURRIETA BLVD","LIVERMORE","CA",94550,37.675916423,-121.780461254,452,"1087 MURRIETA BLVD, LIVERMORE, CA, 94550","Match","Exact","1087 MURRIETA BLVD, LIVERMORE, CA, 94550",633927969,"R"
50953,"1087 N FRUITDALE RD","MORGANTOWN","IN",46160,39.3234416120001,-86.2342370489999,453,"1087 N FRUITDALE RD, MORGANTOWN, IN, 46160","Match","Exact","1087 FRUITDALE RD, MORGANTOWN, IN, 46160",43523930,"R"
50954,"1087 NORTH HORSEPOUND ROAD","CARMEL","NY",10512,41.5019831640001,-73.6863190669999,454,"1087 NORTH HORSEPOUND ROAD, CARMEL, NY, 10512","Match","Exact","1087 N HORSEPOUND RD, CARMEL, NY, 10512",640422647,"L"
50955,"1087 NORTH LOMAX RD","ROARING RIVER","NC",28669,36.291721813,-80.998525666,455,"1087 NORTH LOMAX RD, ROARING RIVER, NC, 28669","Match","Exact","1087 N LOMAX RD, ROARING RIVER, NC, 28669",46122665,"L"
50956,"1087 OLD FARM ROAD","ROUND LAKE","IL",60073,42.355311498,-88.10919038,456,"1087 OLD FARM ROAD, ROUND LAKE, IL, 60073","Match","Exact","1087 OLD FARM RD, ROUND LAKE, IL, 60073",119690856,"R"
50957,"1087 ORANGE GROVE ROAD","CHARLESTON","SC",29407,32.8212396480001,-79.9879226039999,457,"1087 ORANGE GROVE ROAD, CHARLESTON, SC, 29407","Match","Exact","1087 ORANGE GROVE RD, CHARLESTON, SC, 29407",108802514,"L"
50958,"1087 PACIFIC CT","COLUMBUS","OH",43085,40.1202372830001,-82.987567278,458,"1087 PACIFIC CT, COLUMBUS, OH, 43085","Match","Exact","1087 PACIFIC CT, COLUMBUS, OH, 43085",218687635,"L"
50959,"1087 PALMS BLVD","LOS ANGELES","CA",90034,NA,NA,459,"1087 PALMS BLVD, LOS ANGELES, CA, 90034","No_Match",NA,NA,NA,NA
50960,"1087 PAMELA","CINCINNATI","OH",45255,39.0681266290001,-84.320653851,460,"1087 PAMELA, CINCINNATI, OH, 45255","Match","Non_Exact","1087 PAMELA RD, CINCINNATI, OH, 45255",103941179,"L"
50961,"1087 PINEWOOD AVE","CHUBBUCK","ID",83203,42.9146434580001,-112.489881728,461,"1087 PINEWOOD AVE, CHUBBUCK, ID, 83203","Match","Non_Exact","1087 PINEWOOD AVE, CHUBBUCK, ID, 83202",651046205,"L"
50962,"1087 POLARIS ROAD","HELENA","MT",59602,46.7219279660001,-112.025387635,462,"1087 POLARIS ROAD, HELENA, MT, 59602","Match","Exact","1087 POLARIS RD, HELENA, MT, 59602",647454413,"R"
50963,"1087 RAND WAY","SUPERIOR","CO",80027,39.9385291,-105.153713091,463,"1087 RAND WAY, SUPERIOR, CO, 80027","Match","Exact","1087 RAND WAY, SUPERIOR, CO, 80027",188183887,"R"
50964,"1087 S CLOVERDALE","LOS ANGELES","CA",90019,34.0551540660001,-118.34876666,464,"1087 S CLOVERDALE, LOS ANGELES, CA, 90019","Match","Non_Exact","1087 S CLOVERDALE AVE, LOS ANGELES, CA, 90019",652035445,"R"
50965,"1087 SATINLEAF STREET","HOLLYWOOD","FL",33019,26.020430741,-80.127966659,465,"1087 SATINLEAF STREET, HOLLYWOOD, FL, 33019","Match","Exact","1087 SATINLEAF ST, HOLLYWOOD, FL, 33019",114786910,"R"
50966,"1087 SEEGARS MILL RD","CAMDEN","SC",29020,34.176834871,-80.4970732199999,466,"1087 SEEGARS MILL RD, CAMDEN, SC, 29020","Match","Exact","1087 SEEGARS MILL RD, CAMDEN, SC, 29020",78484389,"L"
50967,"1087 SERENITY DR","BLUFFTON","SC",29909,NA,NA,467,"1087 SERENITY DR, BLUFFTON, SC, 29909","No_Match",NA,NA,NA,NA
50968,"1087 SIERRA VISTA WAY","LAFAYETTE","CA",94549,37.8975871050001,-122.117024629,468,"1087 SIERRA VISTA WAY, LAFAYETTE, CA, 94549","Match","Exact","1087 SIERRA VISTA WAY, LAFAYETTE, CA, 94549",192046642,"L"
50969,"1087 SMYRNA CHURCH RD","ROBBINS","NC",27325,35.4743532420001,-79.605776094,469,"1087 SMYRNA CHURCH RD, ROBBINS, NC, 27325","Match","Exact","1087 SMYRNA CHURCH RD, ROBBINS, NC, 27325",20285919,"R"
50970,"1087 SOUTH BOULEVARD","CHIPLEY","FL",32428,NA,NA,470,"1087 SOUTH BOULEVARD, CHIPLEY, FL, 32428","No_Match",NA,NA,NA,NA
50971,"1087 SOUTH KIHEI RD","KIHEI","HI",96753,20.7543401620001,-156.456534392,471,"1087 SOUTH KIHEI RD, KIHEI, HI, 96753","Match","Exact","1087 S KIHEI RD, KIHEI, HI, 96753",85100990,"L"
50972,"1087 SOUTH PARK AVENUE","TITUSVILLE","FL",32780,28.60310968,-80.818501398,472,"1087 SOUTH PARK AVENUE, TITUSVILLE, FL, 32780","Match","Exact","1087 S PARK AVE, TITUSVILLE, FL, 32780",93891355,"L"
50973,"1087 SOUTH SACRAMENTO PLACE","CHANDLER","AZ",85286,33.290533442,-111.835613746,473,"1087 SOUTH SACRAMENTO PLACE, CHANDLER, AZ, 85286","Match","Exact","1087 S SACRAMENTO PL, CHANDLER, AZ, 85286",623998608,"R"
50974,"1087 SUMMIT AVE APT 1A","BRONX","NY",10452,40.8354761640001,-73.9289283259999,474,"1087 SUMMIT AVE APT 1A, BRONX, NY, 10452","Match","Exact","1087 SUMMIT AVE, BRONX, NY, 10452",80299356,"L"
50975,"1087 SWEET AVE","SAN JOSE","CA",95129,37.3069629250001,-121.980654654,475,"1087 SWEET AVE, SAN JOSE, CA, 95129","Match","Exact","1087 SWEET AVE, SAN JOSE, CA, 95129",122900681,"R"
50976,"1087 TAZLINA CT","FAIRBANKS","AK",99701,64.840236012,-147.657556272,476,"1087 TAZLINA CT, FAIRBANKS, AK, 99701","Match","Exact","1087 TAZLINA CT, FAIRBANKS, AK, 99701",190907953,"R"
50977,"1087 THUNDERBIRD DR","EL PASO","TX",79912,31.8490588880001,-106.510261477,477,"1087 THUNDERBIRD DR, EL PASO, TX, 79912","Match","Exact","1087 THUNDERBIRD DR, EL PASO, TX, 79912",189335133,"L"
50978,"1087 UNION STREET APT B3","BROOKLYN","NY",11225,40.66960426,-73.9573954639999,478,"1087 UNION STREET APT B3, BROOKLYN, NY, 11225","Match","Exact","1087 UNION ST, BROOKLYN, NY, 11225",59078494,"L"
50979,"1087 W CORPORATE DRIVE","LEWISVILLE","TX",75067,33.020471098,-97.0181147759999,479,"1087 W CORPORATE DRIVE, LEWISVILLE, TX, 75067","Match","Exact","1087 W CORPORATE DR, LEWISVILLE, TX, 75067",103424880,"R"
50980,"1087 W RIVER ST STE 150","BOISE","ID",83702,43.612269063,-116.211657615,480,"1087 W RIVER ST STE 150, BOISE, ID, 83702","Match","Exact","1087 RIVER ST, BOISE, ID, 83702",117864654,"L"
50981,"1087 WEST WOODROW ST","MILAN","TN",38358,35.927916628,-88.763981042,481,"1087 WEST WOODROW ST, MILAN, TN, 38358","Match","Exact","1087 W WOODROW ST, MILAN, TN, 38358",40813664,"L"
50982,"1087 WESTSIDE DRIVE","ROCHESTER","NY",14624,43.1254628140001,-77.732909052,482,"1087 WESTSIDE DRIVE, ROCHESTER, NY, 14624","Match","Exact","1087 WESTSIDE DR, ROCHESTER, NY, 14624",637551071,"L"
50983,"1087 WOODLAND AVE SE 2","ATLANTA","GA",30316,33.7247390630001,-84.353591068,483,"1087 WOODLAND AVE SE 2, ATLANTA, GA, 30316","Match","Exact","1087 WOODLAND AVE SE, ATLANTA, GA, 30316",17358474,"R"
50984,"10870 ASHELY LANE","WOODBURY","MN",55129,44.9354676840001,-92.8841157369999,484,"10870 ASHELY LANE, WOODBURY, MN, 55129","Match","Non_Exact","10870 ASHLEY LN, WOODBURY, MN, 55129",615265792,"R"
50985,"10870 BREAKING ROCKS DR","TAMPA","FL",33647,28.1572858640001,-82.282706402,485,"10870 BREAKING ROCKS DR, TAMPA, FL, 33647","Match","Exact","10870 BREAKING ROCKS DR, TAMPA, FL, 33647",630011174,"L"
50986,"10870 BRODRICK DRIVE","RIVERSIDE","CA",92505,33.9161817890001,-117.482356321,486,"10870 BRODRICK DRIVE, RIVERSIDE, CA, 92505","Match","Non_Exact","10870 BRODERICK DR, RIVERSIDE, CA, 92505",194736895,"L"
50987,"10870 CANYON LAKE DRIVE","SAN DIEGO","CA",92131,32.905380022,-117.098673817,487,"10870 CANYON LAKE DRIVE, SAN DIEGO, CA, 92131","Match","Exact","10870 CANYON LAKE DR, SAN DIEGO, CA, 92131",195319423,"L"
50988,"10870 DOULGLAS AVE","URBANDALE","IA",50322,NA,NA,488,"10870 DOULGLAS AVE, URBANDALE, IA, 50322","No_Match",NA,NA,NA,NA
50989,"10870 EAST BUTHERUS DRIVE","SCOTTSDALE","AZ",85255,33.6220340730001,-111.846452813,489,"10870 EAST BUTHERUS DRIVE, SCOTTSDALE, AZ, 85255","Match","Exact","10870 E BUTHERUS DR, SCOTTSDALE, AZ, 85255",128591551,"L"
50990,"10870 FREER STREET","TEMPLE CITY","CA",91780,34.1000829760001,-118.031806422,490,"10870 FREER STREET, TEMPLE CITY, CA, 91780","Match","Exact","10870 FREER ST, TEMPLE CITY, CA, 91780",141645576,"R"
50991,"10870 MARCY RD","CANAL WINCHESTER","OH",43110,39.7502445470001,-82.806312917,491,"10870 MARCY RD, CANAL WINCHESTER, OH, 43110","Match","Exact","10870 MARCY RD, CANAL WINCHESTER, OH, 43110",37227971,"R"
50992,"10870 N CO RD 500 W","BRAZIL","IN",47834,NA,NA,492,"10870 N CO RD 500 W, BRAZIL, IN, 47834","No_Match",NA,NA,NA,NA
50993,"10870 NW 4TH DRIVE","CORAL SPRINGS","FL",33071,26.2372804620001,-80.270977123,493,"10870 NW 4TH DRIVE, CORAL SPRINGS, FL, 33071","Match","Non_Exact","10870 NW 4TH DR, CORAL SPRINGS, FL, 33071",114690854,"R"
50994,"10870 NW CORNELL ROAD","PORTLAND","OR",97229,45.5260792230001,-122.789007555,494,"10870 NW CORNELL ROAD, PORTLAND, OR, 97229","Match","Exact","10870 NW CORNELL RD, PORTLAND, OR, 97229",158184944,"L"
50995,"10870 SE STEVENS WAY","HAPPY VALLEY","OR",97086,45.4441257920001,-122.563731248,495,"10870 SE STEVENS WAY, HAPPY VALLEY, OR, 97086","Match","Exact","10870 SE STEVENS WAY, HAPPY VALLEY, OR, 97086",157920093,"L"
50996,"10870 ST ANDREWS","UNION","KY",41091,38.9304869430001,-84.656351673,496,"10870 ST ANDREWS, UNION, KY, 41091","Match","Non_Exact","10870 SAINT ANDREWS DR, UNION, KY, 41091",81959314,"L"
50997,"10870 W 53RD AVE D101","ARVADA","CO",80002,39.7918965850001,-105.12024434,497,"10870 W 53RD AVE D101, ARVADA, CO, 80002","Match","Non_Exact","10870 W 53RD AVE, ARVADA, CO, 80002",177799885,"R"
50998,"10871 BUSTLETON AVE UNIT 265","PHILADELPHIA","PA",19116,40.1110558830001,-75.024389893,498,"10871 BUSTLETON AVE UNIT 265, PHILADELPHIA, PA, 19116","Match","Exact","10871 BUSTLETON AVE, PHILADELPHIA, PA, 19116",131431005,"R"
50999,"10871 GREENLEFE DRIVE","ROLLA","MO",65401,37.9640003550001,-91.694052845,499,"10871 GREENLEFE DRIVE, ROLLA, MO, 65401","Match","Exact","10871 GREENLEFE DR, ROLLA, MO, 65401",45118573,"R"
51000,"10871 JILLIAN ROAD","ORLAND PARK","IL",60467,41.60811131,-87.885145366,500,"10871 JILLIAN ROAD, ORLAND PARK, IL, 60467","Match","Exact","10871 JILLIAN RD, ORLAND PARK, IL, 60467",605782026,"R"
