"ID","Address","City","State","Zip","lat","long","id","input_address","match_indicator","match_type","matched_address","tiger_line_id","tiger_side"
217001,"15701 WOODSHED PL","TAMPA","FL",33624,28.0926158460001,-82.538868389,1,"15701 WOODSHED PL, TAMPA, FL, 33624","Match","Exact","15701 WOODSHED PL, TAMPA, FL, 33624",104505763,"L"
217002,"15702 16TH AVE COURT EAST","TACOMA","WA",98445,47.114472553,-122.407217354,2,"15702 16TH AVE COURT EAST, TACOMA, WA, 98445","Match","Exact","15702 16TH AVENUE CT E, TACOMA, WA, 98445",184714249,"L"
217003,"15702 BACK ROAD","STRASBURG","VA",22657,39.0163796350001,-78.412500901,3,"15702 BACK ROAD, STRASBURG, VA, 22657","Match","Exact","15702 BACK RD, STRASBURG, VA, 22657",616959788,"R"
217004,"15702 CRANBERRY CT","DUMFRIES","VA",22015,38.6117111730001,-77.335291969,4,"15702 CRANBERRY CT, DUMFRIES, VA, 22015","Match","Non_Exact","15702 CRANBERRY CT, DUMFRIES, VA, 22025",76509331,"R"
217005,"15702 GLASTONBURY WAY","UPPER MARLBORO","MD",20774,38.8532838410001,-76.734194795,5,"15702 GLASTONBURY WAY, UPPER MARLBORO, MD, 20774","Match","Exact","15702 GLASTONBURY WAY, UPPER MARLBORO, MD, 20774",76417304,"R"
217006,"15702 LAKEDALE DR","HOUSTON","TX",77095,29.9001664680001,-95.643234531,6,"15702 LAKEDALE DR, HOUSTON, TX, 77095","Match","Exact","15702 LAKEDALE DR, HOUSTON, TX, 77095",96015321,"R"
217007,"15702 SCOTTS FACTORY ROAD","SMITHFIELD","VA",23340,36.948675531,-76.6562046879999,7,"15702 SCOTTS FACTORY ROAD, SMITHFIELD, VA, 23340","Match","Non_Exact","15702 SCOTTS FACTORY RD, SMITHFIELD, VA, 23430",198638641,"L"
217008,"15702 STABLE VIEW CT","CYPRESS","TX",77429,30.003206087,-95.660431687,8,"15702 STABLE VIEW CT, CYPRESS, TX, 77429","Match","Exact","15702 STABLE VIEW CT, CYPRESS, TX, 77429",627761822,"L"
217009,"15702 STARCREEK LN","HOUSTON","TX",77044,29.9209225070001,-95.176469945,9,"15702 STARCREEK LN, HOUSTON, TX, 77044","Match","Exact","15702 STARCREEK LN, HOUSTON, TX, 77044",627681545,"L"
217010,"15702 SWANSCOMBE LOOP","UPPER MARLBORO","MD",20774,38.847779153,-76.731181552,10,"15702 SWANSCOMBE LOOP, UPPER MARLBORO, MD, 20774","Match","Exact","15702 SWANSCOMBE LOOP, UPPER MARLBORO, MD, 20774",648122127,"R"
217011,"15703 93RD CIRCLE NE","OTSEGO","MN",55330,45.2855934200001,-93.566886529,11,"15703 93RD CIRCLE NE, OTSEGO, MN, 55330","Match","Exact","15703 93RD CIR NE, OTSEGO, MN, 55330",44002886,"L"
217012,"15703 CLOVERDALE ROAD","WOODBRIDGE","VA",22193,38.6262881420001,-77.31303206,12,"15703 CLOVERDALE ROAD, WOODBRIDGE, VA, 22193","Match","Exact","15703 CLOVERDALE RD, WOODBRIDGE, VA, 22193",207143814,"L"
217013,"15703 DARROW RD","VERMILION","OH",44089,41.3911577800001,-82.353097722,13,"15703 DARROW RD, VERMILION, OH, 44089","Match","Exact","15703 DARROW RD, VERMILION, OH, 44089",647382190,"R"
217014,"15703 ELK PARK LANE","HOUSTON","TX",77062,NA,NA,14,"15703 ELK PARK LANE, HOUSTON, TX, 77062","No_Match",NA,NA,NA,NA
217015,"15703 GILCHRIST","DETROIT","MI",48227,42.405022837,-83.21164175,15,"15703 GILCHRIST, DETROIT, MI, 48227","Match","Non_Exact","15703 GILCHRIST ST, DETROIT, MI, 48227",95423568,"L"
217016,"15703 KNOLLTRAIL","SAN ANTONIO","TX",78247,29.583890984,-98.4149630919999,16,"15703 KNOLLTRAIL, SAN ANTONIO, TX, 78247","Match","Exact","15703 KNOLLTRAIL, SAN ANTONIO, TX, 78247",101577680,"L"
217017,"15703 NW 37TH PLACE","MIAMI","FL",33054,NA,NA,17,"15703 NW 37TH PLACE, MIAMI, FL, 33054","No_Match",NA,NA,NA,NA
217018,"15703 S PAULINA","HARVEY","IL",60426,41.604290463,-87.658362296,18,"15703 S PAULINA, HARVEY, IL, 60426","Match","Non_Exact","15703 PAULINA ST, HARVEY, IL, 60426",111705705,"L"
217019,"15703 STILLER PARK DR","CYPRESS","TX",77429,29.9649635530001,-95.65984739,19,"15703 STILLER PARK DR, CYPRESS, TX, 77429","Match","Exact","15703 STILLER PARK DR, CYPRESS, TX, 77429",96559739,"R"
217020,"15703 STOUT ST","DETROIT","MI",48223,42.4043861220001,-83.241775216,20,"15703 STOUT ST, DETROIT, MI, 48223","Match","Exact","15703 STOUT ST, DETROIT, MI, 48223",95422172,"L"
217021,"15703 SW 16TH AVE RD","OCALA","FL",34473,28.994604823,-82.1530071939999,21,"15703 SW 16TH AVE RD, OCALA, FL, 34473","Match","Exact","15703 SW 16TH AVENUE RD, OCALA, FL, 34473",629934663,"L"
217022,"15703 SW BARRINGTON TER","TIGARD","OR",97224,45.406218638,-122.822079668,22,"15703 SW BARRINGTON TER, TIGARD, OR, 97224","Match","Exact","15703 SW BARRINGTON TER, TIGARD, OR, 97224",158212913,"L"
217023,"15703 SWANSCOMBE LOOP","UPPER MARLBORO","MD",20774,38.8477983830001,-76.731201213,23,"15703 SWANSCOMBE LOOP, UPPER MARLBORO, MD, 20774","Match","Exact","15703 SWANSCOMBE LOOP, UPPER MARLBORO, MD, 20774",648122127,"L"
217024,"15703 UPPER WOODINGHAM STREET","DETROIT","MI",48238,NA,NA,24,"15703 UPPER WOODINGHAM STREET, DETROIT, MI, 48238","No_Match",NA,NA,NA,NA
217025,"15703 W 80TH TER","LENEXA","KS",66219,38.9831080640001,-94.7643098349999,25,"15703 W 80TH TER, LENEXA, KS, 66219","Match","Exact","15703 W 80TH TER, LENEXA, KS, 66219",91269733,"L"
217026,"15704 223RD AVE NE","WOODINVILLE","WA",98077,47.741662508,-122.039889048,26,"15704 223RD AVE NE, WOODINVILLE, WA, 98077","Match","Exact","15704 223RD AVE NE, WOODINVILLE, WA, 98077",239777887,"R"
217027,"15704 BOVINE PLACE","TAMPA","FL",33624,28.0929140640001,-82.532833559,27,"15704 BOVINE PLACE, TAMPA, FL, 33624","Match","Exact","15704 BOVINE PL, TAMPA, FL, 33624",104661395,"R"
217028,"15704 BUTTONBUSH COURT","ROCKVILLE","MD",20853,39.1141864570001,-77.099423009,28,"15704 BUTTONBUSH COURT, ROCKVILLE, MD, 20853","Match","Exact","15704 BUTTONBUSH CT, ROCKVILLE, MD, 20853",62124196,"L"
217029,"15704 CHESTON COURT","TAMPA","FL",33647,28.0920446960001,-82.375883836,29,"15704 CHESTON COURT, TAMPA, FL, 33647","Match","Exact","15704 CHESTON CT, TAMPA, FL, 33647",104579896,"R"
217030,"15704 COUNTY RD 460","DEXTER","MO",63841,36.832835044,-89.992922483,30,"15704 COUNTY RD 460, DEXTER, MO, 63841","Match","Exact","15704 CO RD 460, DEXTER, MO, 63841",35400422,"R"
217031,"15704 DEBRIDGE WAY","FLORISSANT","MO",63034,38.8407781110001,-90.29076531,31,"15704 DEBRIDGE WAY, FLORISSANT, MO, 63034","Match","Exact","15704 DEBRIDGE WAY, FLORISSANT, MO, 63034",100198102,"L"
217032,"15704 PRAIRIE GRASS LANE","FORT WORTH","TX",76177,33.019600945,-97.309473961,32,"15704 PRAIRIE GRASS LANE, FORT WORTH, TX, 76177","Match","Exact","15704 PRAIRIE GRASS LN, FORT WORTH, TX, 76177",650920457,"R"
217033,"15704 SW 16TH STREET","DAVIE","FL",33326,26.099923228,-80.357594201,33,"15704 SW 16TH STREET, DAVIE, FL, 33326","Match","Exact","15704 SW 16TH ST, DAVIE, FL, 33326",114795498,"L"
217034,"15704 THROCKLEY","CLEVELAND","OH",44128,41.4558388620001,-81.5706635879999,34,"15704 THROCKLEY, CLEVELAND, OH, 44128","Match","Non_Exact","15704 THROCKLEY AVE, CLEVELAND, OH, 44128",61127433,"R"
217035,"15704 YORK LANE","SELMA","TX",78154,29.5821818650001,-98.2990327529999,35,"15704 YORK LANE, SELMA, TX, 78154","Match","Exact","15704 YORK LN, SELMA, TX, 78154",54823953,"R"
217036,"15705  UTTLEY RD","SNOHOMISH","WA",98290,48.003944828,-122.018479982,36,"15705  UTTLEY RD, SNOHOMISH, WA, 98290","Match","Non_Exact","15705 UTLEY RD, SNOHOMISH, WA, 98290",627394788,"R"
217037,"15705 BLACKBURN ST","ACCOKEEK","MD",20607,38.6739902480001,-76.988033687,37,"15705 BLACKBURN ST, ACCOKEEK, MD, 20607","Match","Exact","15705 BLACKBURN ST, ACCOKEEK, MD, 20607",76338585,"R"
217038,"15705 CLOVERDALE RD APT 8","DALE CITY","VA",22193,38.6262875830001,-77.3130163869999,38,"15705 CLOVERDALE RD APT 8, DALE CITY, VA, 22193","Match","Exact","15705 CLOVERDALE RD, DALE CITY, VA, 22193",207143814,"L"
217039,"15705 E PROGRESS CIR","CENTENNIAL","CO",80015,39.62216097,-104.805583701,39,"15705 E PROGRESS CIR, CENTENNIAL, CO, 80015","Match","Exact","15705 E PROGRESS CIR, CENTENNIAL, CO, 80015",177520883,"L"
217040,"15705 E PUMA DR","FOUNTAIN HILLS","AZ",85268,33.5849228020001,-111.741829074,40,"15705 E PUMA DR, FOUNTAIN HILLS, AZ, 85268","Match","Exact","15705 E PUMA DR, FOUNTAIN HILLS, AZ, 85268",128243892,"R"
217041,"15705 E WOODCREEK CT","WICHITA","KS",67230,37.6597599080001,-97.1556563889999,41,"15705 E WOODCREEK CT, WICHITA, KS, 67230","Match","Exact","15705 E WOODCREEK CT, WICHITA, KS, 67230",115687812,"R"
217042,"15705 GRANT RD","SHAWNEE","OK",74801,35.3359704490001,-97.040980737,42,"15705 GRANT RD, SHAWNEE, OK, 74801","Match","Exact","15705 GRANT RD, SHAWNEE, OK, 74801",652927215,"R"
217043,"15705 HORSE CREED ROAD","BOZEMAN","MT",59715,NA,NA,43,"15705 HORSE CREED ROAD, BOZEMAN, MT, 59715","No_Match",NA,NA,NA,NA
217044,"15705 MINERVA","DOLTON","IL",60419,41.609927514,-87.590498557,44,"15705 MINERVA, DOLTON, IL, 60419","Match","Non_Exact","15705 MINERVA AVE, DOLTON, IL, 60419",111780175,"L"
217045,"15705 PAGE AVE","HARVEY","IL",60426,41.6042564530001,-87.65956596,45,"15705 PAGE AVE, HARVEY, IL, 60426","Match","Exact","15705 PAGE AVE, HARVEY, IL, 60426",111705702,"L"
217046,"15705 SE HAROLD AVE","PORTLAND","OR",97267,45.4096746110001,-122.622262719,46,"15705 SE HAROLD AVE, PORTLAND, OR, 97267","Match","Exact","15705 SE HAROLD AVE, PORTLAND, OR, 97267",157916025,"R"
217047,"15705 TURKEY FARM RD","MINNEOLA","FL",34715,28.5741080870001,-81.723396361,47,"15705 TURKEY FARM RD, MINNEOLA, FL, 34715","Match","Exact","15705 TURKEY FARM RD, MINNEOLA, FL, 34715",94117641,"L"
217048,"15706 ALTO LINDA LANE","TAMPA","FL",33624,28.092065544,-82.520802475,48,"15706 ALTO LINDA LANE, TAMPA, FL, 33624","Match","Non_Exact","15706 ALTOLINDA LN, TAMPA, FL, 33624",648470239,"L"
217049,"15706 CLOS DU VAL AVE","BAKERSFIELD","CA",93314,35.3709222260001,-119.17697275,49,"15706 CLOS DU VAL AVE, BAKERSFIELD, CA, 93314","Match","Exact","15706 CLOS DU VAL AVE, BAKERSFIELD, CA, 93314",109530131,"R"
217050,"15706 EAST AVE Q-1","PALMDALE","CA",93591,34.585935046,-117.8496332,50,"15706 EAST AVE Q-1, PALMDALE, CA, 93591","Match","Exact","15706 E AVE Q-1, PALMDALE, CA, 93591",141706054,"R"
217051,"15706 NEW GALE DRIVE","MIDLOTHIAN","VA",23112,37.4464799520001,-77.702171978,51,"15706 NEW GALE DRIVE, MIDLOTHIAN, VA, 23112","Match","Exact","15706 NEW GALE DR, MIDLOTHIAN, VA, 23112",650542467,"R"
217052,"15706 PERKINS LANE","BOWIE","MD",20716,38.9142360600001,-76.733509918,52,"15706 PERKINS LANE, BOWIE, MD, 20716","Match","Exact","15706 PERKINS LN, BOWIE, MD, 20716",76328362,"L"
217053,"15706 ST CLAIR AVENUE","CLEVELAND","OH",44110,41.5574493230001,-81.57024955,53,"15706 ST CLAIR AVENUE, CLEVELAND, OH, 44110","Match","Exact","15706 SAINT CLAIR AVE, CLEVELAND, OH, 44110",61121326,"R"
217054,"15706 WOODCOCK PLACE","TAMPA","FL",33624,28.0931675640001,-82.527778502,54,"15706 WOODCOCK PLACE, TAMPA, FL, 33624","Match","Exact","15706 WOODCOCK PL, TAMPA, FL, 33624",104509840,"R"
217055,"15707 62ND PLACE NORTH","LOXAHATCHEE","FL",33470,26.7694200810001,-80.2901998249999,55,"15707 62ND PLACE NORTH, LOXAHATCHEE, FL, 33470","Match","Exact","15707 62ND PL N, LOXAHATCHEE, FL, 33470",115548108,"L"
217056,"15707 ATHENA DRIVE","FONTANA","CA",92336,34.128250468,-117.462331337,56,"15707 ATHENA DRIVE, FONTANA, CA, 92336","Match","Exact","15707 ATHENA DR, FONTANA, CA, 92336",614814125,"R"
217057,"15707 EAGLE CLIFF","SAN ANTONIO","TX",78232,29.5826393090001,-98.5120183829999,57,"15707 EAGLE CLIFF, SAN ANTONIO, TX, 78232","Match","Non_Exact","15707 EAGLE CLIFF ST, SAN ANTONIO, TX, 78232",101576697,"L"
217058,"15707 EASINWOLD LANE","UPPER MARLBORO","MD",20774,38.8537311870001,-76.733203267,58,"15707 EASINWOLD LANE, UPPER MARLBORO, MD, 20774","Match","Non_Exact","15707 EASINGWOLD LN, UPPER MARLBORO, MD, 20774",76417282,"R"
217059,"15707 ERWIN COURT","BOWIE","MD",20716,38.9477289800001,-76.729928802,59,"15707 ERWIN COURT, BOWIE, MD, 20716","Match","Exact","15707 ERWIN CT, BOWIE, MD, 20716",76350014,"R"
217060,"15707 FRY ST","PLYMOUTH","MI",48170,42.398788128,-83.4456440819999,60,"15707 FRY ST, PLYMOUTH, MI, 48170","Match","Exact","15707 FRY ST, PLYMOUTH, MI, 48170",629090567,"L"
217061,"15707 KNOLLPOINT","SAN ANTONIO","TX",78247,29.5841301720001,-98.413945375,61,"15707 KNOLLPOINT, SAN ANTONIO, TX, 78247","Match","Exact","15707 KNOLLPOINT, SAN ANTONIO, TX, 78247",101546394,"L"
217062,"15707 MISTY LEAF LANE","HOUSTON","TX",77044,29.9195095260001,-95.181622756,62,"15707 MISTY LEAF LANE, HOUSTON, TX, 77044","Match","Exact","15707 MISTY LEAF LN, HOUSTON, TX, 77044",645142846,"L"
217063,"15707 MONTESA DR","HOUSTON","TX",77083,29.6898137150001,-95.6615511859999,63,"15707 MONTESA DR, HOUSTON, TX, 77083","Match","Exact","15707 MONTESA DR, HOUSTON, TX, 77083",78265112,"R"
217064,"15707 PENESA RD","LEROY","MI",49655,NA,NA,64,"15707 PENESA RD, LEROY, MI, 49655","No_Match",NA,NA,NA,NA
217065,"15707 TANGERINE BLVD","LOXAHATCHEE","FL",33470,26.7734332690001,-80.290169916,65,"15707 TANGERINE BLVD, LOXAHATCHEE, FL, 33470","Match","Exact","15707 TANGERINE BLVD, LOXAHATCHEE, FL, 33470",115507138,"L"
217066,"15707 WISTERIA HILL ST","HOUSTON","TX",77073,30.0008909470001,-95.407246371,66,"15707 WISTERIA HILL ST, HOUSTON, TX, 77073","Match","Exact","15707 WISTERIA HILL ST, HOUSTON, TX, 77073",625185421,"L"
217067,"15707 WISTERIA HILL","HOUSTON","TX",77073,30.0008909470001,-95.407246371,67,"15707 WISTERIA HILL, HOUSTON, TX, 77073","Match","Non_Exact","15707 WISTERIA HILL ST, HOUSTON, TX, 77073",625185421,"L"
217068,"15707-1 BROWN ROAD","TOMBALL","TX",77377,30.095333426,-95.660364949,68,"15707-1 BROWN ROAD, TOMBALL, TX, 77377","Match","Exact","15707 BROWN RD, TOMBALL, TX, 77377",629579454,"R"
217069,"15707RD 22/12","MADERA","CA",93637,NA,NA,69,"15707RD 22/12, MADERA, CA, 93637","No_Match",NA,NA,NA,NA
217070,"15708 39TH PLACE","TUKWILA","WA",98118,NA,NA,70,"15708 39TH PLACE, TUKWILA, WA, 98118","No_Match",NA,NA,NA,NA
217071,"15708 50TH AVENUE N","PLYMOUTH","MN",55446,45.0456399660001,-93.479412827,71,"15708 50TH AVENUE N, PLYMOUTH, MN, 55446","Match","Non_Exact","15708 50TH PL N, PLYMOUTH, MN, 55446",641215371,"R"
217072,"15708 ALLMAND DR","HUDSON","FL",34667,28.3853026410001,-82.6952337929999,72,"15708 ALLMAND DR, HUDSON, FL, 34667","Match","Exact","15708 ALLMAND DR, HUDSON, FL, 34667",86331925,"R"
217073,"15708 DORSET ROAD SUITE 201","LAUREL","MD",20707,39.106050958,-76.877152549,73,"15708 DORSET ROAD SUITE 201, LAUREL, MD, 20707","Match","Exact","15708 DORSET RD, LAUREL, MD, 20707",76325367,"L"
217074,"15708 E CHICORY DRIVE","FOUNTAIN HILLS","AZ",85268,33.600901913,-111.74144634,74,"15708 E CHICORY DRIVE, FOUNTAIN HILLS, AZ, 85268","Match","Exact","15708 CHICORY DR, FOUNTAIN HILLS, AZ, 85268",128190632,"L"
217075,"15708 KANAWHA COURT","DERWOOD","MD",20855,39.1134594970001,-77.147689865,75,"15708 KANAWHA COURT, DERWOOD, MD, 20855","Match","Exact","15708 KANAWHA CT, DERWOOD, MD, 20855",62078790,"R"
217076,"15708 LARSON ROAD","ALTURA","MN",55910,44.1135251900001,-92.049826965,76,"15708 LARSON ROAD, ALTURA, MN, 55910","Match","Exact","15708 LARSON RD, ALTURA, MN, 55910",31670658,"R"
217077,"15708 M","BOWIE","MD",20716,NA,NA,77,"15708 M, BOWIE, MD, 20716","No_Match",NA,NA,NA,NA
217078,"15708 VAN NESS APT 2","GARDENA","CA",90249,33.887823457,-118.317807266,78,"15708 VAN NESS APT 2, GARDENA, CA, 90249","Match","Non_Exact","15708 VAN NESS AVE, GARDENA, CA, 90249",141666446,"L"
217079,"15708 VAN NESS AVE APT 2","GARDENA","CA",90249,33.887823457,-118.317807266,79,"15708 VAN NESS AVE APT 2, GARDENA, CA, 90249","Match","Exact","15708 VAN NESS AVE, GARDENA, CA, 90249",141666446,"L"
217080,"15708 WOODLAND TRAIL AVE","BATON ROUGE","LA",70817,30.398456869,-91.010161621,80,"15708 WOODLAND TRAIL AVE, BATON ROUGE, LA, 70817","Match","Exact","15708 WOODLAND TRL, BATON ROUGE, LA, 70817",635163706,"R"
217081,"15709 BALL AVENUE","GARDENA","CA",90248,33.889133846,-118.273473147,81,"15709 BALL AVENUE, GARDENA, CA, 90248","Match","Non_Exact","15709 S BALL AVE, GARDENA, CA, 90248",141667686,"R"
217082,"15709 BALLANTYNE COUNTRY CLUB DR","CHARLOTTE","NC",28277,35.045023907,-80.837839436,82,"15709 BALLANTYNE COUNTRY CLUB DR, CHARLOTTE, NC, 28277","Match","Exact","15709 BALLANTYNE COUNTRY CLUB DR, CHARLOTTE, NC, 28277",70528976,"L"
217083,"15709 BEACON COURT","DUMFRIES","VA",22025,38.6116691570001,-77.327773426,83,"15709 BEACON COURT, DUMFRIES, VA, 22025","Match","Exact","15709 BEACON CT, DUMFRIES, VA, 22025",207144227,"R"
217084,"15709 HALLDALE AVE APT B","GARDENA","CA",90247,33.8884902830001,-118.30204583,84,"15709 HALLDALE AVE APT B, GARDENA, CA, 90247","Match","Exact","15709 HALLDALE AVE, GARDENA, CA, 90247",142757541,"R"
217085,"15709 HONOLULU","JERSEY VILLAGE","TX",77040,29.895489996,-95.5588131819999,85,"15709 HONOLULU, JERSEY VILLAGE, TX, 77040","Match","Non_Exact","15709 HONOLULU ST, JERSEY VILLAGE, TX, 77040",96142535,"L"
217086,"15709 MORNING STAR AVE","MAPLE HEIGHTS","OH",44137,41.3964680510001,-81.5683854919999,86,"15709 MORNING STAR AVE, MAPLE HEIGHTS, OH, 44137","Match","Exact","15709 MORNING STAR AVE, MAPLE HEIGHTS, OH, 44137",61128614,"L"
217087,"15709 NE 93RD ST","VANCOUVER","WA",98682,45.689852117,-122.510928604,87,"15709 NE 93RD ST, VANCOUVER, WA, 98682","Match","Exact","15709 NE 93RD ST, VANCOUVER, WA, 98682",158357928,"R"
217088,"15709 OLIVE BRANCH DR","LA MIRADA","CA",90638,33.9129769530001,-117.996476731,88,"15709 OLIVE BRANCH DR, LA MIRADA, CA, 90638","Match","Exact","15709 OLIVE BRANCH DR, LA MIRADA, CA, 90638",649827842,"L"
217089,"15709 SOUTH BALL AVENUE","GARDENA","CA",90248,33.889133846,-118.273473147,89,"15709 SOUTH BALL AVENUE, GARDENA, CA, 90248","Match","Exact","15709 S BALL AVE, GARDENA, CA, 90248",141667686,"R"
217090,"15709 WHITE CREEKS","COLLEGE STATION","TX",77845,NA,NA,90,"15709 WHITE CREEKS, COLLEGE STATION, TX, 77845","No_Match",NA,NA,NA,NA
217091,"1571 16TH ST","LOS OSOS","CA",93402,35.3230765910001,-120.825508627,91,"1571 16TH ST, LOS OSOS, CA, 93402","Match","Exact","1571 16TH ST, LOS OSOS, CA, 93402",109897863,"L"
217092,"1571 210TH STREET","WINTERSET","IA",50273,41.3447072100001,-94.1303515119999,92,"1571 210TH STREET, WINTERSET, IA, 50273","Match","Exact","1571 210TH ST, WINTERSET, IA, 50273",635884663,"L"
217093,"1571 42ND STREET APT 4B","BROOKLYN","NY",11219,40.6353852840001,-73.982130947,93,"1571 42ND STREET APT 4B, BROOKLYN, NY, 11219","Match","Exact","1571 42ND ST, BROOKLYN, NY, 11219",59080663,"L"
217094,"1571 AMANDA STREET","HOLLYWOOD","FL",33020,26.0259957440001,-80.137627671,94,"1571 AMANDA STREET, HOLLYWOOD, FL, 33020","Match","Exact","1571 AMANDA ST, HOLLYWOOD, FL, 33020",114801126,"L"
217095,"1571 ANTIETAM DRIVE","COLUMBUS","GA",31903,32.424573179,-84.914776135,95,"1571 ANTIETAM DRIVE, COLUMBUS, GA, 31903","Match","Non_Exact","1571 ANTIETAM DR, COLUMBUS, GA, 31907",638166603,"R"
217096,"1571 BEVERLY BLVD","LOS ANGELES","CA",90026,34.063204485,-118.262577391,96,"1571 BEVERLY BLVD, LOS ANGELES, CA, 90026","Match","Exact","1571 BEVERLY BLVD, LOS ANGELES, CA, 90026",141616606,"R"
217097,"1571 BLOOMINGBURG NEW HOLLAND ROAD","BLOOMINGBURG","OH",43106,39.583950095,-83.42938581,97,"1571 BLOOMINGBURG NEW HOLLAND ROAD, BLOOMINGBURG, OH, 43106","Match","Non_Exact","1571 BLOOMINGBURG NEW HOLLAND RD NE, BLOOMINGBURG, OH, 43106",119059752,"L"
217098,"1571 BLUEGRASS DR","FAIRBANKS","AK",99709,64.7962586240001,-148.060494061,98,"1571 BLUEGRASS DR, FAIRBANKS, AK, 99709","Match","Exact","1571 BLUEGRASS DR, FAIRBANKS, AK, 99709",653127831,"R"
217099,"1571 CATHELL RD","PITTSBURGH","PA",15236,40.388269414,-79.944494541,99,"1571 CATHELL RD, PITTSBURGH, PA, 15236","Match","Exact","1571 CATHELL RD, PITTSBURGH, PA, 15236",634309644,"L"
217100,"1571 COUNTRY WALK DRIVE","FLEMING ISLAND","FL",32003,30.1113694220001,-81.734018189,100,"1571 COUNTRY WALK DRIVE, FLEMING ISLAND, FL, 32003","Match","Exact","1571 COUNTRY WALK DR, FLEMING ISLAND, FL, 32003",83829928,"R"
217101,"1571 E 30 N","ST GEORGE","UT",84790,37.1086121390001,-113.550231958,101,"1571 E 30 N, ST GEORGE, UT, 84790","Match","Non_Exact","1571 E 30 N, SAINT GEORGE, UT, 84790",166193520,"L"
217102,"1571 EAST DUVAL ST","LAKE CITY","FL",32055,30.189284607,-82.6257498369999,102,"1571 EAST DUVAL ST, LAKE CITY, FL, 32055","Match","Exact","1571 E DUVAL ST, LAKE CITY, FL, 32055",606850250,"R"
217103,"1571 FALLING STAR DR","CHULA VISTA","CA",91915,32.627149058,-116.95389028,103,"1571 FALLING STAR DR, CHULA VISTA, CA, 91915","Match","Exact","1571 FALLING STAR DR, CHULA VISTA, CA, 91915",195764365,"L"
217104,"1571 FETTERS LOOP","EUGENE","OR",97401,44.042940839,-123.13329704,104,"1571 FETTERS LOOP, EUGENE, OR, 97401","Match","Non_Exact","1571 FETTERS LOOP, EUGENE, OR, 97402",618378205,"L"
217105,"1571 FLANAGAN","POMONA","CA",91766,34.0426084420001,-117.746247154,105,"1571 FLANAGAN, POMONA, CA, 91766","Match","Non_Exact","1571 FLANAGAN ST, POMONA, CA, 91766",640417404,"R"
217106,"1571 FOREST GLEN DR","ROCK HILL","SC",29732,34.949028089,-81.052987824,106,"1571 FOREST GLEN DR, ROCK HILL, SC, 29732","Match","Exact","1571 FOREST GLEN DR, ROCK HILL, SC, 29732",19807056,"L"
217107,"1571 FULTON AVENUE APT 4A","BRONX","NY",10457,40.8382209590001,-73.89966083,107,"1571 FULTON AVENUE APT 4A, BRONX, NY, 10457","Match","Exact","1571 FULTON AVE, BRONX, NY, 10457",80301348,"L"
217108,"1571 FULTON AVENUE","BRONX","NY",10457,40.8382209590001,-73.89966083,108,"1571 FULTON AVENUE, BRONX, NY, 10457","Match","Exact","1571 FULTON AVE, BRONX, NY, 10457",80301348,"L"
217109,"1571 GERALDINE DR","JACKSONVILLE","FL",32205,30.2923016390001,-81.718621623,109,"1571 GERALDINE DR, JACKSONVILLE, FL, 32205","Match","Exact","1571 GERALDINE DR, JACKSONVILLE, FL, 32205",83911412,"L"
217110,"1571 GIRARD WAY 6","BOURBONNAIS","IL",60914,41.1689961700001,-87.839186976,110,"1571 GIRARD WAY 6, BOURBONNAIS, IL, 60914","Match","Exact","1571 GIRARD WAY, BOURBONNAIS, IL, 60914",98364681,"L"
217111,"1571 GREAT ROAD","SKILLMAN","NJ",8558,40.39723423,-74.701779099,111,"1571 GREAT ROAD, SKILLMAN, NJ, 8558","Match","Exact","1571 GREAT RD, SKILLMAN, NJ, 08558",59999407,"R"
217112,"1571 HAVANA","AURORA","CO",80012,NA,NA,112,"1571 HAVANA, AURORA, CO, 80012","No_Match",NA,NA,NA,NA
217113,"1571 HEART LAKE ROAD","JERMYN","PA",18433,NA,NA,113,"1571 HEART LAKE ROAD, JERMYN, PA, 18433","No_Match",NA,NA,NA,NA
217114,"1571 HIGHWAY 414 E","MOUNTAIN VIEW","WY",82939,NA,NA,114,"1571 HIGHWAY 414 E, MOUNTAIN VIEW, WY, 82939","No_Match",NA,NA,NA,NA
217115,"1571 HUNTER STREET","PITTSBURGH","PA",15221,40.4464090280001,-79.87582379,115,"1571 HUNTER STREET, PITTSBURGH, PA, 15221","Match","Exact","1571 HUNTER ST, PITTSBURGH, PA, 15221",51653834,"L"
217116,"1571 JACKSON RIDGE ROAD","GREENSBORO","GA",30642,33.41718207,-83.196326529,116,"1571 JACKSON RIDGE ROAD, GREENSBORO, GA, 30642","Match","Exact","1571 JACKSON RIDGE RD, GREENSBORO, GA, 30642",639624523,"R"
217117,"1571 JACKSON RIDGE","GREENSBORO","GA",30642,33.41718207,-83.196326529,117,"1571 JACKSON RIDGE, GREENSBORO, GA, 30642","Match","Non_Exact","1571 JACKSON RIDGE RD, GREENSBORO, GA, 30642",639624523,"R"
217118,"1571 JOSLYN ROAD","MUSKEGON","MI",49445,43.281268432,-86.2251570729999,118,"1571 JOSLYN ROAD, MUSKEGON, MI, 49445","Match","Exact","1571 JOSLYN RD, MUSKEGON, MI, 49445",77650233,"L"
217119,"1571 KENSINGTONDR","ALGONQUIN","IL",60102,NA,NA,119,"1571 KENSINGTONDR, ALGONQUIN, IL, 60102","No_Match",NA,NA,NA,NA
217120,"1571 MANN RD","LEBANON","TN",37087,36.288937063,-86.3311097769999,120,"1571 MANN RD, LEBANON, TN, 37087","Match","Exact","1571 MANN RD, LEBANON, TN, 37087",630051983,"R"
217121,"1571 MARSHALL ST","ORANGEBURG","SC",29118,33.5207510290001,-80.8642835859999,121,"1571 MARSHALL ST, ORANGEBURG, SC, 29118","Match","Exact","1571 MARSHALL ST, ORANGEBURG, SC, 29118",636991531,"R"
217122,"1571 MAX AVE","Chula Vista","CA",91911,32.6010271800001,-117.043418057,122,"1571 MAX AVE, Chula Vista, CA, 91911","Match","Exact","1571 MAX AVE, CHULA VISTA, CA, 91911",195364203,"L"
217123,"1571 NORTHVIEW DR","GREENVILLE","MS",38703,33.437429394,-91.03596642,123,"1571 NORTHVIEW DR, GREENVILLE, MS, 38703","Match","Exact","1571 NORTHVIEW DR, GREENVILLE, MS, 38703",1172233,"R"
217124,"1571 RAMILLO AVENUE","LONG BEACH","CA",90815,33.7871179970001,-118.12955711,124,"1571 RAMILLO AVENUE, LONG BEACH, CA, 90815","Match","Exact","1571 RAMILLO AVE, LONG BEACH, CA, 90815",141702388,"L"
217125,"1571 RED HILL ROAD","MOUNT OLIVE","NC",28365,35.1008386620001,-77.878039374,125,"1571 RED HILL ROAD, MOUNT OLIVE, NC, 28365","Match","Exact","1571 RED HILL RD, MOUNT OLIVE, NC, 28365",13449190,"L"
217126,"1571 RED SPRINGS RD","GURDON","AR",71743,33.909935067,-93.123742732,126,"1571 RED SPRINGS RD, GURDON, AR, 71743","Match","Exact","1571 RED SPRINGS RD, GURDON, AR, 71743",629783503,"L"
217127,"1571 ROYAL CRESCENT DR","HOLT","MI",48842,42.628264347,-84.556429409,127,"1571 ROYAL CRESCENT DR, HOLT, MI, 48842","Match","Exact","1571 ROYAL CRES, HOLT, MI, 48842",17517526,"L"
217128,"1571 SAILMAKER LANE","FLEMING ISLAND","FL",32003,30.11664312,-81.734247097,128,"1571 SAILMAKER LANE, FLEMING ISLAND, FL, 32003","Match","Exact","1571 SAILMAKER LN, FLEMING ISLAND, FL, 32003",83834598,"R"
217129,"1571 SE COPLY ST","PORT SAINT LUCIE","FL",34983,27.2938412140001,-80.32959421,129,"1571 SE COPLY ST, PORT SAINT LUCIE, FL, 34983","Match","Exact","1571 SE COPLY ST, PORT ST LUCIE, FL, 34983",120153751,"L"
217130,"1571 SHARON HOGUE","MASURY","OH",44438,41.2607978450001,-80.5292059619999,130,"1571 SHARON HOGUE, MASURY, OH, 44438","Match","Non_Exact","1571 SHARON HOGUE RD, MASURY, OH, 44438",117427880,"R"
217131,"1571 SHERIDAN AVENUE","BRONX","NY",10457,40.8420879820001,-73.9110641839999,131,"1571 SHERIDAN AVENUE, BRONX, NY, 10457","Match","Exact","1571 SHERIDAN AVE, BRONX, NY, 10457",640810278,"L"
217132,"1571 STANTON GROVE RD","SPARTA","GA",31087,NA,NA,132,"1571 STANTON GROVE RD, SPARTA, GA, 31087","No_Match",NA,NA,NA,NA
217133,"1571 STONEGATE LANE SE","ATLANTA","GA",30317,33.748379593,-84.334276694,133,"1571 STONEGATE LANE SE, ATLANTA, GA, 30317","Match","Non_Exact","1571 STONE GATE LN SE, ATLANTA, GA, 30317",624059401,"R"
217134,"1571 SUNSET DRIVE","LIVERMORE","CA",94551,37.6913480870001,-121.780873374,134,"1571 SUNSET DRIVE, LIVERMORE, CA, 94551","Match","Exact","1571 SUNSET DR, LIVERMORE, CA, 94551",125018490,"R"
217135,"1571 SUNSHINE ST","ST. CROIX FALLS","WI",54024,45.4301508630001,-92.6102397019999,135,"1571 SUNSHINE ST, ST. CROIX FALLS, WI, 54024","Match","Exact","1571 SUNSHINE ST, SAINT CROIX FALLS, WI, 54024",110846451,"L"
217136,"1571 SW 116TH AVE","PEMBROKE PINES","FL",33025,25.994683649,-80.303521917,136,"1571 SW 116TH AVE, PEMBROKE PINES, FL, 33025","Match","Exact","1571 SW 116TH AVE, PEMBROKE PINES, FL, 33025",114770234,"L"
217137,"1571 SW 87TH WAY","PEMBROKE PINES","FL",33025,25.994878854,-80.26101191,137,"1571 SW 87TH WAY, PEMBROKE PINES, FL, 33025","Match","Exact","1571 SW 87TH WAY, PEMBROKE PINES, FL, 33025",114770256,"L"
217138,"1571 TEXAS DRIVE","XENIA","OH",45385,39.673190418,-83.96536943,138,"1571 TEXAS DRIVE, XENIA, OH, 45385","Match","Exact","1571 TEXAS DR, XENIA, OH, 45385",143417605,"R"
217139,"1571 TURKEY TRAIL","CRESCENT","OK",73028,35.867668886,-97.659318661,139,"1571 TURKEY TRAIL, CRESCENT, OK, 73028","Match","Exact","1571 TURKEY TRL, CRESCENT, OK, 73028",638575363,"L"
217140,"1571 VARNUM AVE","LOWELL","MA",1854,42.654019362,-71.3803970659999,140,"1571 VARNUM AVE, LOWELL, MA, 1854","Match","Exact","1571 VARNUM AVE, LOWELL, MA, 01854",87120652,"R"
217141,"1571 VESTRIDGE CIRCLE","VESTAVIA HILLS","AL",35216,33.425941064,-86.7924546409999,141,"1571 VESTRIDGE CIRCLE, VESTAVIA HILLS, AL, 35216","Match","Exact","1571 VESTRIDGE CIR, VESTAVIA HILLS, AL, 35216",81583330,"L"
217142,"1571 W 20TH STREET","ARGONIA","KS",67004,37.256355005,-97.757891668,142,"1571 W 20TH STREET, ARGONIA, KS, 67004","Match","Non_Exact","1571 W 20TH ST S, ARGONIA, KS, 67004",115835467,"R"
217143,"1571 W DECATUR ST","DECATUR","IL",62522,39.8378626460001,-88.98372678,143,"1571 W DECATUR ST, DECATUR, IL, 62522","Match","Exact","1571 W DECATUR ST, DECATUR, IL, 62522",20745727,"L"
217144,"1571 WARBURTON AVE 4","SANTA CLARA","CA",95050,37.3561956790001,-121.956343282,144,"1571 WARBURTON AVE 4, SANTA CLARA, CA, 95050","Match","Exact","1571 WARBURTON AVE, SANTA CLARA, CA, 95050",123006767,"R"
217145,"1571","ONTARIO","CA",91764,NA,NA,145,"1571, ONTARIO, CA, 91764","No_Match",NA,NA,NA,NA
217146,"15710 124TH AVE NE","WOODINVILLE","WA",98072,47.7426828230001,-122.174991349,146,"15710 124TH AVE NE, WOODINVILLE, WA, 98072","Match","Exact","15710 124TH AVE NE, WOODINVILLE, WA, 98072",239757926,"R"
217147,"15710 242ND ST SE","Snohomish","WA",98296,47.77738766,-122.020938755,147,"15710 242ND ST SE, Snohomish, WA, 98296","Match","Exact","15710 242ND ST SE, SNOHOMISH, WA, 98296",187823110,"R"
217148,"15710 60TH AVENUE NORTH","PLYMOUTH","MN",55446,45.06284284,-93.479577222,148,"15710 60TH AVENUE NORTH, PLYMOUTH, MN, 55446","Match","Exact","15710 60TH AVE N, PLYMOUTH, MN, 55446",626304839,"R"
217149,"15710 CEDAR LANE","BASEHOR","KS",66007,39.1060581950001,-94.9451011,149,"15710 CEDAR LANE, BASEHOR, KS, 66007","Match","Exact","15710 CEDAR LN, BASEHOR, KS, 66007",91410254,"L"
217150,"15710 CRESTBROOK DR","HOUSTON","TX",77059,29.5928051670001,-95.118044735,150,"15710 CRESTBROOK DR, HOUSTON, TX, 77059","Match","Exact","15710 CRESTBROOK DR, HOUSTON, TX, 77059",96156619,"R"
217151,"15710 E BOWMAN RD","CHATTAROY","WA",99003,47.8898887720001,-117.192163007,151,"15710 E BOWMAN RD, CHATTAROY, WA, 99003","Match","Exact","15710 E BOWMAN RD, CHATTAROY, WA, 99003",189850750,"R"
217152,"15710 EL ESTADO APT 206","DALLAS","TX",75248,32.9626596790001,-96.7719258879999,152,"15710 EL ESTADO APT 206, DALLAS, TX, 75248","Match","Non_Exact","15710 EL ESTADO DR, DALLAS, TX, 75248",103211357,"R"
217153,"15710 MISSISSIPPI ST","LOWELL","IN",46356,41.3329303,-87.315995855,153,"15710 MISSISSIPPI ST, LOWELL, IN, 46356","Match","Exact","15710 MISSISSIPPI ST, LOWELL, IN, 46356",606272983,"L"
217154,"15710 NEDRA WAY","DALLAS","TX",75248,32.963386751,-96.7938931259999,154,"15710 NEDRA WAY, DALLAS, TX, 75248","Match","Exact","15710 NEDRA WAY, DALLAS, TX, 75248",102900302,"R"
217155,"15710 RAYNOR CT","HOUSTON","TX",77489,29.59913017,-95.485152227,155,"15710 RAYNOR CT, HOUSTON, TX, 77489","Match","Non_Exact","15710 RAYNOR CT, MISSOURI CITY, TX, 77489",78278258,"R"
217156,"15710 RIVERSIDE DRIVE WEST APT 16T","NEW YORK","NY",10032,40.835494075,-73.948777708,156,"15710 RIVERSIDE DRIVE WEST APT 16T, NEW YORK, NY, 10032","Match","Exact","15710 RIVERSIDE DR W, NEW YORK, NY, 10032",59655420,"R"
217157,"15710 RIVERSIDE DRIVE WEST APT 9W","NEW YORK","NY",10032,40.835494075,-73.948777708,157,"15710 RIVERSIDE DRIVE WEST APT 9W, NEW YORK, NY, 10032","Match","Exact","15710 RIVERSIDE DR W, NEW YORK, NY, 10032",59655420,"R"
217158,"15710 ROCKFORD RD UNIT 307","PLYMOUTH","MN",55446,45.027377163,-93.478685957,158,"15710 ROCKFORD RD UNIT 307, PLYMOUTH, MN, 55446","Match","Exact","15710 ROCKFORD RD, PLYMOUTH, MN, 55446",43606853,"L"
217159,"15710 SE ALDER STREET","PORTLAND","OR",97233,45.517328026,-122.501455925,159,"15710 SE ALDER STREET, PORTLAND, OR, 97233","Match","Exact","15710 SE ALDER ST, PORTLAND, OR, 97233",638570461,"R"
217160,"15710 SOUTHWEST BLVD","CLEARWATER","KS",67026,37.5907339180001,-97.522073437,160,"15710 SOUTHWEST BLVD, CLEARWATER, KS, 67026","Match","Non_Exact","15710 W SOUTHWEST BLVD, CLEARWATER, KS, 67026",115627328,"L"
217161,"15710 TALON LANE","SAINT ROBERT","MO",65584,37.805426251,-92.127822247,161,"15710 TALON LANE, SAINT ROBERT, MO, 65584","Match","Exact","15710 TALON LN, SAINT ROBERT, MO, 65584",26401236,"L"
217162,"15710 VIA MONTECRISTO DR","SAN DIEGO","CA",92127,33.021019064,-117.142698786,162,"15710 VIA MONTECRISTO DR, SAN DIEGO, CA, 92127","Match","Non_Exact","15710 VIA MONTECRISTO, SAN DIEGO, CA, 92127",635494338,"L"
217163,"15710 W 66TH PL","ARVADA","CO",80007,39.816556409,-105.17630157,163,"15710 W 66TH PL, ARVADA, CO, 80007","Match","Exact","15710 W 66TH PL, ARVADA, CO, 80007",177732820,"L"
217164,"15710 W WILSHIRE DR","GOODYEAR","AZ",85395,33.4741728120001,-112.398674623,164,"15710 W WILSHIRE DR, GOODYEAR, AZ, 85395","Match","Exact","15710 W WILSHIRE DR, GOODYEAR, AZ, 85395",618472920,"R"
217165,"15710 WHITEBARK DR","JACKSONVILLE","FL",32218,30.5229137910001,-81.6147180199999,165,"15710 WHITEBARK DR, JACKSONVILLE, FL, 32218","Match","Exact","15710 WHITEBARK DR, JACKSONVILLE, FL, 32218",650446592,"L"
217166,"15711 ALKALI RD","HEREFORD","SD",57785,44.3873318820001,-102.921822863,166,"15711 ALKALI RD, HEREFORD, SD, 57785","Match","Exact","15711 ALKALI RD, HEREFORD, SD, 57785",200931669,"L"
217167,"15711 AMADOR RIO","HELOTES","TX",78023,29.591118119,-98.656991042,167,"15711 AMADOR RIO, HELOTES, TX, 78023","Match","Exact","15711 AMADOR RIO, HELOTES, TX, 78023",619994432,"R"
217168,"15711 AUTUMNBROOK DR","HOUSTON","TX",77303,30.008684638,-95.494919346,168,"15711 AUTUMNBROOK DR, HOUSTON, TX, 77303","Match","Non_Exact","15711 AUTUMNBROOK DR, HOUSTON, TX, 77068",96007860,"L"
217169,"15711 BEAU RIDGE DRIVE","WOODBRIDGE","VA",22193,38.6122913020001,-77.316217778,169,"15711 BEAU RIDGE DRIVE, WOODBRIDGE, VA, 22193","Match","Exact","15711 BEAU RIDGE DR, WOODBRIDGE, VA, 22193",76521312,"L"
217170,"15711 CONTENDER LANE","FRIENDSWOOD","TX",77546,29.5458534300001,-95.1822305489999,170,"15711 CONTENDER LANE, FRIENDSWOOD, TX, 77546","Match","Exact","15711 CONTENDER LN, FRIENDSWOOD, TX, 77546",96114283,"R"
217171,"15711 DOVER ROAD","UPPERCO","MD",21155,39.556002436,-76.832211461,171,"15711 DOVER ROAD, UPPERCO, MD, 21155","Match","Exact","15711 DOVER RD, UPPERCO, MD, 21155",635887135,"R"
217172,"15711 E EVENING SHADE CT","BENTON","KS",67017,37.775390133,-97.15752702,172,"15711 E EVENING SHADE CT, BENTON, KS, 67017","Match","Exact","15711 E EVENING SHADE CT, BENTON, KS, 67017",632543609,"L"
217173,"15711 E NINE MILE 102","EASTPOINTE","MI",48021,NA,NA,173,"15711 E NINE MILE 102, EASTPOINTE, MI, 48021","No_Match",NA,NA,NA,NA
217174,"15711 E WELLESLEY AVE","SPOKANE","WA",99216,47.7004835320001,-117.193915964,174,"15711 E WELLESLEY AVE, SPOKANE, WA, 99216","Match","Exact","15711 E WELLESLEY AVE, SPOKANE, WA, 99216",189890016,"L"
217175,"15711 E WELLESLEY","SPOKANE","WA",99216,47.7004835320001,-117.193915964,175,"15711 E WELLESLEY, SPOKANE, WA, 99216","Match","Non_Exact","15711 E WELLESLEY AVE, SPOKANE, WA, 99216",189890016,"L"
217176,"15711 E YUCCA DR","FOUNTAIN HILLS","AZ",85268,33.6182024550001,-111.742004152,176,"15711 E YUCCA DR, FOUNTAIN HILLS, AZ, 85268","Match","Exact","15711 E YUCCA DR, FOUNTAIN HILLS, AZ, 85268",128594103,"R"
217177,"15711 ERWIN COURT","BOWIE","MD",20716,38.9477222040001,-76.7299007789999,177,"15711 ERWIN COURT, BOWIE, MD, 20716","Match","Exact","15711 ERWIN CT, BOWIE, MD, 20716",76350014,"R"
217178,"15711 KLOPFENSTEIN ROAD","GRABILL","IN",46741,41.2309497890001,-84.98384026,178,"15711 KLOPFENSTEIN ROAD, GRABILL, IN, 46741","Match","Exact","15711 KLOPFENSTEIN RD, GRABILL, IN, 46741",606501963,"R"
217179,"15711 NEDRA WAY","DALLAS","TX",75248,32.9634600890001,-96.793882884,179,"15711 NEDRA WAY, DALLAS, TX, 75248","Match","Exact","15711 NEDRA WAY, DALLAS, TX, 75248",102900302,"L"
217180,"15711 THOROUGHBRED LN","MONTEVERDE","FL",34756,28.5911043990001,-81.6955878159999,180,"15711 THOROUGHBRED LN, MONTEVERDE, FL, 34756","Match","Non_Exact","15711 THOROUGHBRED LN, MONTVERDE, FL, 34756",94146894,"R"
217181,"15712 39TH PL SOUTH APT E7","TUKWILA","WA",98188,47.461828923,-122.284448371,181,"15712 39TH PL SOUTH APT E7, TUKWILA, WA, 98188","Match","Exact","15712 39TH PL S, TUKWILA, WA, 98188",186708956,"R"
217182,"15712 BEEDON DRIVE","MIDLOTHIAN","VA",23112,37.4823075530001,-77.701910658,182,"15712 BEEDON DRIVE, MIDLOTHIAN, VA, 23112","Match","Exact","15712 BEEDON DR, MIDLOTHIAN, VA, 23112",628446551,"R"
217183,"15712 BOVINE PL","TAMPA","FL",33624,28.093539836,-82.532826187,183,"15712 BOVINE PL, TAMPA, FL, 33624","Match","Exact","15712 BOVINE PL, TAMPA, FL, 33624",104661394,"R"
217184,"15712 CHASTE STREET","FLORISSANT","MO",63034,38.8321221840001,-90.300330775,184,"15712 CHASTE STREET, FLORISSANT, MO, 63034","Match","Exact","15712 CHASTE ST, FLORISSANT, MO, 63034",100194959,"R"
217185,"15712 COPPER BEECH DRIVE","UPPER MARLBORO","MD",20774,38.8543571760001,-76.7323503269999,185,"15712 COPPER BEECH DRIVE, UPPER MARLBORO, MD, 20774","Match","Exact","15712 COPPER BEECH DR, UPPER MARLBORO, MD, 20774",76417283,"L"
217186,"15712 DUNBURY DRIVE","MAPLE HEIGHTS","OH",44137,41.3985072290001,-81.569213917,186,"15712 DUNBURY DRIVE, MAPLE HEIGHTS, OH, 44137","Match","Exact","15712 DUNBURY DR, MAPLE HEIGHTS, OH, 44137",61128568,"R"
217187,"15712 EDEN DRIVE","SAVANNAH","MO",64485,39.8989876320001,-94.840525954,187,"15712 EDEN DRIVE, SAVANNAH, MO, 64485","Match","Exact","15712 EDEN DR, SAVANNAH, MO, 64485",15941089,"L"
217188,"15712 FRESHMAN COURT","THOUSAND OAKS","CA",91360,NA,NA,188,"15712 FRESHMAN COURT, THOUSAND OAKS, CA, 91360","No_Match",NA,NA,NA,NA
217189,"15712 HEYWOOD WAY","APPLE VALLEY","MN",55124,44.7226550180001,-93.236590204,189,"15712 HEYWOOD WAY, APPLE VALLEY, MN, 55124","Match","Exact","15712 HEYWOOD WAY, APPLE VALLEY, MN, 55124",37906627,"R"
217190,"15712 HOWARD DRIVE","MACOMB","MI",48042,42.692893328,-82.971661211,190,"15712 HOWARD DRIVE, MACOMB, MI, 48042","Match","Exact","15712 HOWARD DR, MACOMB, MI, 48042",110711155,"L"
217191,"15712 LAVERGNE AVE","OAK FOREST","IL",60452,41.606501463,-87.741497225,191,"15712 LAVERGNE AVE, OAK FOREST, IL, 60452","Match","Exact","15712 LAVERGNE AVE, OAK FOREST, IL, 60452",111703486,"R"
217192,"15712 MESA VERDE DR","MORENO VALLEY","CA",92555,33.892736185,-117.197376817,192,"15712 MESA VERDE DR, MORENO VALLEY, CA, 92555","Match","Exact","15712 MESA VERDE DR, MORENO VALLEY, CA, 92555",633953957,"R"
217193,"15712 NE 28TH COURT","VANCOUVER","WA",98686,45.7354387030001,-122.642198425,193,"15712 NE 28TH COURT, VANCOUVER, WA, 98686","Match","Exact","15712 NE 28TH CT, VANCOUVER, WA, 98686",624769305,"L"
217194,"15712 NW 140TH STREET","ALACHUA","FL",32615,NA,NA,194,"15712 NW 140TH STREET, ALACHUA, FL, 32615","No_Match",NA,NA,NA,NA
217195,"15712 NW HITE CENTER RD","SEABECK","WA",98380,47.5969493310001,-122.859689439,195,"15712 NW HITE CENTER RD, SEABECK, WA, 98380","Match","Exact","15712 NW HITE CENTER RD, SEABECK, WA, 98380",633264427,"R"
217196,"15712 RHONE COURT","ACCOKEEK","MD",20607,NA,NA,196,"15712 RHONE COURT, ACCOKEEK, MD, 20607","No_Match",NA,NA,NA,NA
217197,"15712 WOODLAWN AVE","SOUTH HOLLAND","IL",60473,41.610121383,-87.58816251,197,"15712 WOODLAWN AVE, SOUTH HOLLAND, IL, 60473","Match","Exact","15712 WOODLAWN AVE, SOUTH HOLLAND, IL, 60473",111780368,"R"
217198,"15713 16TH AVE NW","MARYSVILLE","WA",98271,48.1385962090001,-122.25449691,198,"15713 16TH AVE NW, MARYSVILLE, WA, 98271","Match","Exact","15713 16TH AVE NW, MARYSVILLE, WA, 98271",608940821,"R"
217199,"15713 CLIFTON PARK","MARKHAM","IL",60428,41.6040699710001,-87.703132126,199,"15713 CLIFTON PARK, MARKHAM, IL, 60428","Match","Non_Exact","15713 CLIFTON PARK AVE, MARKHAM, IL, 60428",618052155,"L"
217200,"15713 MAYBERRY PLACE LANE","HUNTERSVILLE","NC",28078,35.421883334,-80.881716854,200,"15713 MAYBERRY PLACE LANE, HUNTERSVILLE, NC, 28078","Match","Exact","15713 MAYBERRY PLACE LN, HUNTERSVILLE, NC, 28078",70519832,"R"
217201,"15713 NW 3RD STREET","PEMBROKE PINES","FL",33028,26.0102286220001,-80.354631899,201,"15713 NW 3RD STREET, PEMBROKE PINES, FL, 33028","Match","Exact","15713 NW 3RD ST, PEMBROKE PINES, FL, 33028",114819391,"L"
217202,"15713 PAGE","HARVEY","IL",60426,41.6041321380001,-87.6595645789999,202,"15713 PAGE, HARVEY, IL, 60426","Match","Non_Exact","15713 PAGE AVE, HARVEY, IL, 60426",111705702,"L"
217203,"15713 SE ARISTA","MILWAUKIE","OR",97267,45.4089205830001,-122.63708586,203,"15713 SE ARISTA, MILWAUKIE, OR, 97267","Match","Non_Exact","15713 SE ARISTA DR, MILWAUKIE, OR, 97267",157953274,"R"
217204,"15714 CROOKED ARROW DR","HOUSTON","TX",77498,29.67460033,-95.663955737,204,"15714 CROOKED ARROW DR, HOUSTON, TX, 77498","Match","Non_Exact","15714 CROOKED ARROW DR, SUGAR LAND, TX, 77498",624718997,"L"
217205,"15714 LAUREL OAK CRESCENT","DAVIDSON","NC",28036,35.458155295,-80.81354163,205,"15714 LAUREL OAK CRESCENT, DAVIDSON, NC, 28036","Match","Non_Exact","15714 LAUREL OAK LN, DAVIDSON, NC, 28036",634132085,"L"
217206,"15714 OLD ORCHARD COURT 2N","ORLAND PARK","IL",60462,41.6049072000001,-87.820769255,206,"15714 OLD ORCHARD COURT 2N, ORLAND PARK, IL, 60462","Match","Non_Exact","15714 OLD ORCHARD CT, ORLAND PARK, IL, 60462",111871649,"R"
217207,"15714 PLYMOUTH ROAD","DETROIT","MI",47227,42.3725288570001,-83.20019895,207,"15714 PLYMOUTH ROAD, DETROIT, MI, 47227","Match","Non_Exact","15714 PLYMOUTH RD, DETROIT, MI, 48227",95439811,"R"
217208,"15714 PLYMOUTH ROAD","DETROIT","MI",48227,42.3725288570001,-83.20019895,208,"15714 PLYMOUTH ROAD, DETROIT, MI, 48227","Match","Exact","15714 PLYMOUTH RD, DETROIT, MI, 48227",95439811,"R"
217209,"15714 S PRINCE DRIVE","SOUTH HOLLAND","IL",60473,41.6093788530001,-87.583647254,209,"15714 S PRINCE DRIVE, SOUTH HOLLAND, IL, 60473","Match","Exact","15714 PRINCE DR, SOUTH HOLLAND, IL, 60473",111780429,"R"
217210,"15714 SW 80 LANE","MIAMI","FL",33193,25.691181638,-80.446834253,210,"15714 SW 80 LANE, MIAMI, FL, 33193","Match","Non_Exact","15714 SW 80TH LN, MIAMI, FL, 33193",116062358,"R"
217211,"15714 TAVISTON ST","HUNTERSVILLE","NC",28078,35.4257407530001,-80.857132834,211,"15714 TAVISTON ST, HUNTERSVILLE, NC, 28078","Match","Exact","15714 TAVISTON ST, HUNTERSVILLE, NC, 28078",612530008,"L"
217212,"15714 VICTORIA CREST PLACE","HAYMARKET","VA",20169,38.8505084080001,-77.6574429299999,212,"15714 VICTORIA CREST PLACE, HAYMARKET, VA, 20169","Match","Non_Exact","15714 VICTORIAS CREST PL, HAYMARKET, VA, 20169",619959923,"L"
217213,"15714 WHISPERING GREEN DR","CYPRESS","TX",77429,30.005058994,-95.676048716,213,"15714 WHISPERING GREEN DR, CYPRESS, TX, 77429","Match","Exact","15714 WHISPERING GREEN DR, CYPRESS, TX, 77429",644971995,"R"
217214,"15714","FONTANA","CA",92336,NA,NA,214,"15714, FONTANA, CA, 92336","No_Match",NA,NA,NA,NA
217215,"15715 2ND AVE NW","SHORELINE","WA",98177,47.743341673,-122.359855975,215,"15715 2ND AVE NW, SHORELINE, WA, 98177","Match","Exact","15715 2ND AVE NW, SHORELINE, WA, 98177",239760886,"L"
217216,"15715 57TH AVE N","PLYMOUTH","MN",55446,NA,NA,216,"15715 57TH AVE N, PLYMOUTH, MN, 55446","No_Match",NA,NA,NA,NA
217217,"15715 ADDISON ST","ENCINO","CA",91436,34.1616862440001,-118.475330102,217,"15715 ADDISON ST, ENCINO, CA, 91436","Match","Exact","15715 ADDISON ST, ENCINO, CA, 91436",141560454,"R"
217218,"15715 CANNION FALLS DR","TOMBALL","TX",77377,30.0015016610001,-95.60202766,218,"15715 CANNION FALLS DR, TOMBALL, TX, 77377","Match","Exact","15715 CANNION FALLS DR, TOMBALL, TX, 77377",96004248,"L"
217219,"15715 CHANOVE AVE","GREENWELL SPRINGS","LA",70739,30.5042409590001,-91.014295497,219,"15715 CHANOVE AVE, GREENWELL SPRINGS, LA, 70739","Match","Exact","15715 CHANOVE AVE, GREENWELL SPRINGS, LA, 70739",92194062,"L"
217220,"15715 LADINO RUN ST","CYPRESS","TX",77429,29.992194053,-95.662815231,220,"15715 LADINO RUN ST, CYPRESS, TX, 77429","Match","Exact","15715 LADINO RUN ST, CYPRESS, TX, 77429",96000874,"L"
217221,"15715 LONGVIEW AVE","MARSHALL","MO",65340,39.012334104,-93.1318578459999,221,"15715 LONGVIEW AVE, MARSHALL, MO, 65340","Match","Exact","15715 LONGVIEW AVE, MARSHALL, MO, 65340",653461380,"R"
217222,"15715 MAPLEVIEW CIRCLE","DALLAS","TX",75248,32.9640192210001,-96.779871049,222,"15715 MAPLEVIEW CIRCLE, DALLAS, TX, 75248","Match","Exact","15715 MAPLEVIEW CIR, DALLAS, TX, 75248",102900533,"L"
217223,"15715 MARKHAM DRIVE","CLERMONT","FL",34714,28.393002661,-81.6942211579999,223,"15715 MARKHAM DRIVE, CLERMONT, FL, 34714","Match","Exact","15715 MARKHAM DR, CLERMONT, FL, 34714",94215698,"R"
217224,"15715 RILL LN","HOUSTON","TX",77062,29.5634209290001,-95.136550035,224,"15715 RILL LN, HOUSTON, TX, 77062","Match","Exact","15715 RILL LN, HOUSTON, TX, 77062",96114747,"L"
217225,"15715 S ST","OMAHA","NE",68135,41.2021926680001,-96.1609250609999,225,"15715 S ST, OMAHA, NE, 68135","Match","Exact","15715 S ST, OMAHA, NE, 68135",117018900,"R"
217226,"15715 WILD OAK LANE","ROLAND","AR",72135,34.8942551910001,-92.5360820019999,226,"15715 WILD OAK LANE, ROLAND, AR, 72135","Match","Exact","15715 WILD OAK LN, ROLAND, AR, 72135",650976645,"L"
217227,"15715 WINTERS LN","RIVERSIDE","CA",92504,33.8582808620001,-117.382903611,227,"15715 WINTERS LN, RIVERSIDE, CA, 92504","Match","Exact","15715 WINTERS LN, RIVERSIDE, CA, 92504",194859642,"L"
217228,"15716 BOONES WAY","LAKE OSWEGO","OR",97035,45.4120940380001,-122.71495382,228,"15716 BOONES WAY, LAKE OSWEGO, OR, 97035","Match","Exact","15716 BOONES WAY, LAKE OSWEGO, OR, 97035",157926445,"L"
217229,"15716 JAMES THOMAS CT","EDMOND","OK",73013,35.6299280490001,-97.5756340089999,229,"15716 JAMES THOMAS CT, EDMOND, OK, 73013","Match","Exact","15716 JAMES THOMAS CT, EDMOND, OK, 73013",625584009,"L"
217230,"15716 L STREET","OMAHA","NE",68135,41.2129643270001,-96.160558227,230,"15716 L STREET, OMAHA, NE, 68135","Match","Exact","15716 L ST, OMAHA, NE, 68135",117006957,"L"
217231,"15716 NW 138TH TERR","ALACHUA","FL",32615,29.7988845740001,-82.4932548479999,231,"15716 NW 138TH TERR, ALACHUA, FL, 32615","Match","Exact","15716 NW 138TH TER, ALACHUA, FL, 32615",647862874,"L"
217232,"15716 PANTHER LAKE DRIVE","WINTER GARDEN","FL",34787,NA,NA,232,"15716 PANTHER LAKE DRIVE, WINTER GARDEN, FL, 34787","No_Match",NA,NA,NA,NA
217233,"15716 SATICOY STREET UNIT 40","VAN NUYS","CA",91406,34.208436218,-118.475404549,233,"15716 SATICOY STREET UNIT 40, VAN NUYS, CA, 91406","Match","Exact","15716 SATICOY ST, VAN NUYS, CA, 91406",141549236,"L"
217234,"15716 SUMMIT VIEW LANE","NORTH LITTLE ROCK","AR",72113,34.8996750920001,-92.442605755,234,"15716 SUMMIT VIEW LANE, NORTH LITTLE ROCK, AR, 72113","Match","Exact","15716 SUMMIT VIEW LN, N LITTLE ROCK, AR, 72113",642519518,"L"
217235,"15716 THRUSH GATE LANE","SAN ANTONIO","TX",78248,29.59632959,-98.525015853,235,"15716 THRUSH GATE LANE, SAN ANTONIO, TX, 78248","Match","Exact","15716 THRUSH GATE LN, SAN ANTONIO, TX, 78248",101567134,"R"
217236,"15717 98TH ST","HOWARD BEACH","NY",11414,NA,NA,236,"15717 98TH ST, HOWARD BEACH, NY, 11414","No_Match",NA,NA,NA,NA
217237,"15717 ACIA CT","CANYON COUNTRY","CA",91387,NA,NA,237,"15717 ACIA CT, CANYON COUNTRY, CA, 91387","No_Match",NA,NA,NA,NA
217238,"15717 LINDEN","OVERLAND PARK","KS",66224,38.8431169510001,-94.640424734,238,"15717 LINDEN, OVERLAND PARK, KS, 66224","Match","Non_Exact","15717 LINDEN ST, OVERLAND PARK, KS, 66224",91341940,"L"
217239,"15717 N HAZARD RD","SPOKANE","WA",99208,47.800655749,-117.435519597,239,"15717 N HAZARD RD, SPOKANE, WA, 99208","Match","Exact","15717 N HAZARD RD, SPOKANE, WA, 99208",627369181,"L"
217240,"15717 NE 41ST AVE","VANCOUVER","WA",98682,NA,NA,240,"15717 NE 41ST AVE, VANCOUVER, WA, 98682","No_Match",NA,NA,NA,NA
217241,"15717 SOUTHERN GARDEN LANE","CHARLOTTE","NC",28278,35.1054211480001,-81.005565541,241,"15717 SOUTHERN GARDEN LANE, CHARLOTTE, NC, 28278","Match","Exact","15717 SOUTHERN GARDEN LN, CHARLOTTE, NC, 28278",70552641,"R"
217242,"15717 TULLER","DETROIT","MI",48238,42.4064946250001,-83.147390537,242,"15717 TULLER, DETROIT, MI, 48238","Match","Non_Exact","15717 TULLER ST, DETROIT, MI, 48238",95461243,"L"
217243,"15717 VALE ST NW","ANDOVER","MN",55304,45.255463294,-93.294122758,243,"15717 VALE ST NW, ANDOVER, MN, 55304","Match","Exact","15717 VALE ST NW, ANDOVER, MN, 55304",97545899,"L"
217244,"15717 WILD CREEK DRIVE","EDMOND","OK",73013,35.6301146060001,-97.607391889,244,"15717 WILD CREEK DRIVE, EDMOND, OK, 73013","Match","Exact","15717 WILD CREEK DR, EDMOND, OK, 73013",626362807,"L"
217245,"15718 CO RD 21","BLAIR","NE",68008,41.6068512900001,-96.251661268,245,"15718 CO RD 21, BLAIR, NE, 68008","Match","Exact","15718 CO RD 21, BLAIR, NE, 68008",176774562,"R"
217246,"15718 LARKFIELD DRIVE","HOUSTON","TX",77059,29.5898241990001,-95.1172855189999,246,"15718 LARKFIELD DRIVE, HOUSTON, TX, 77059","Match","Exact","15718 LARKFIELD DR, HOUSTON, TX, 77059",96115554,"R"
217247,"15718 MORGAN ST APT B","CLEARWATER","FL",33760,27.915392599,-82.7164830839999,247,"15718 MORGAN ST APT B, CLEARWATER, FL, 33760","Match","Exact","15718 MORGAN ST, CLEARWATER, FL, 33760",124686411,"L"
217248,"15718 REGAL TRACE LANE","HOUSTON","TX",77073,30.0034596360001,-95.402267427,248,"15718 REGAL TRACE LANE, HOUSTON, TX, 77073","Match","Exact","15718 REGAL TRACE LN, HOUSTON, TX, 77073",625185010,"L"
217249,"15718 REGENCY PARK PLACE","CHILLICOTHE","IL",61523,40.879352856,-89.5266286139999,249,"15718 REGENCY PARK PLACE, CHILLICOTHE, IL, 61523","Match","Non_Exact","15718 N REGENCY PARK PL, CHILLICOTHE, IL, 61523",8704619,"R"
217250,"15718 SPYGLASS HILL LOOP","GAINESVILLE","VA",20155,38.77710161,-77.6532582519999,250,"15718 SPYGLASS HILL LOOP, GAINESVILLE, VA, 20155","Match","Exact","15718 SPYGLASS HILL LOOP, GAINESVILLE, VA, 20155",207144974,"R"
217251,"15718 WLLSHIRE VILLAGE CT","SUGAR LAND","TX",77498,29.648867183,-95.661812993,251,"15718 WLLSHIRE VILLAGE CT, SUGAR LAND, TX, 77498","Match","Non_Exact","15718 WELLSHIRE VILLAGE CT, SUGAR LAND, TX, 77498",78292156,"R"
217252,"15719 63RD ST CT E APT 1","SUMNER","WA",98390,NA,NA,252,"15719 63RD ST CT E APT 1, SUMNER, WA, 98390","No_Match",NA,NA,NA,NA
217253,"15719 AL-157","BATTLEGROUND","AL",35179,NA,NA,253,"15719 AL-157, BATTLEGROUND, AL, 35179","No_Match",NA,NA,NA,NA
217254,"15719 BALDSWELLE DRIVE","TOMBALL","TX",77377,30.0022415230001,-95.590310033,254,"15719 BALDSWELLE DRIVE, TOMBALL, TX, 77377","Match","Exact","15719 BALDSWELLE DR, TOMBALL, TX, 77377",96004291,"R"
217255,"15719 EUCALYPTUS AVE 19","BELLFLOWER","CA",90706,33.890821062,-118.122003124,255,"15719 EUCALYPTUS AVE 19, BELLFLOWER, CA, 90706","Match","Exact","15719 EUCALYPTUS AVE, BELLFLOWER, CA, 90706",142794697,"R"
217256,"15719 FM 1008","DAYTON","TX",77535,30.234232036,-94.956703148,256,"15719 FM 1008, DAYTON, TX, 77535","Match","Non_Exact","15719 FM 1008, DAYTON, TX, 77535",627268692,"L"
217257,"15719 KNOLLSTONE","SAN ANTONIO","TX",78247,29.5868940990001,-98.409095785,257,"15719 KNOLLSTONE, SAN ANTONIO, TX, 78247","Match","Exact","15719 KNOLLSTONE, SAN ANTONIO, TX, 78247",101567793,"L"
217258,"15719 NE 1ST ST","BELLEVUE","WA",98008,47.6113632710001,-122.1302939,258,"15719 NE 1ST ST, BELLEVUE, WA, 98008","Match","Exact","15719 NE 1ST ST, BELLEVUE, WA, 98008",629179769,"R"
217259,"15719 RATTLESNAKE RD","GRASS VALLEY","CA",95945,39.1582965370001,-121.032549538,259,"15719 RATTLESNAKE RD, GRASS VALLEY, CA, 95945","Match","Exact","15719 RATTLESNAKE RD, GRASS VALLEY, CA, 95945",106543403,"R"
217260,"15719 ROBIN VIEW","SAN ANTONIO","TX",78255,29.591246965,-98.6418864939999,260,"15719 ROBIN VIEW, SAN ANTONIO, TX, 78255","Match","Exact","15719 ROBIN VW, SAN ANTONIO, TX, 78255",619997019,"L"
217261,"15719 WHIPPLE AVE","MARKHAM","IL",60428,41.604003393,-87.691000031,261,"15719 WHIPPLE AVE, MARKHAM, IL, 60428","Match","Exact","15719 WHIPPLE AVE, MARKHAM, IL, 60428",641703159,"L"
217262,"1572 3RD STREET","LUTHCHER","LA",70071,30.0513504890001,-90.699684132,262,"1572 3RD STREET, LUTHCHER, LA, 70071","Match","Non_Exact","1572 3RD ST, LUTCHER, LA, 70071",93657777,"R"
217263,"1572 53RD STREET","LA PORTE CITY","IA",50651,42.2540295100001,-92.182868758,263,"1572 53RD STREET, LA PORTE CITY, IA, 50651","Match","Exact","1572 53RD ST, LA PORTE CITY, IA, 50651",94709682,"L"
217264,"1572 ARIEBILL","WYOMING","MI",49509,NA,NA,264,"1572 ARIEBILL, WYOMING, MI, 49509","No_Match",NA,NA,NA,NA
217265,"1572 BERKSHIRE FARM DR","SNELLVILLE","GA",30078,33.894727947,-84.005743358,265,"1572 BERKSHIRE FARM DR, SNELLVILLE, GA, 30078","Match","Non_Exact","1572 BERKSHIRE FARMS DR, SNELLVILLE, GA, 30078",88904477,"R"
217266,"1572 BRIDAL TRL","ROCK HILL","SC",29732,34.94881179,-81.056411028,266,"1572 BRIDAL TRL, ROCK HILL, SC, 29732","Match","Exact","1572 BRIDAL TRL, ROCK HILL, SC, 29732",19807093,"R"
217267,"1572 BUENA VISTA AVE APT 3","ALAMEDA CA","CA",94501,37.775771745,-122.257246143,267,"1572 BUENA VISTA AVE APT 3, ALAMEDA CA, CA, 94501","Match","Non_Exact","1572 BUENA VISTA AVE, ALAMEDA, CA, 94501",125005046,"R"
217268,"1572 BUTTERNUT RD","UNADILLA","NY",13849,42.4219237840001,-75.311735266,268,"1572 BUTTERNUT RD, UNADILLA, NY, 13849","Match","Exact","1572 BUTTERNUT RD, UNADILLA, NY, 13849",125947789,"R"
217269,"1572 CLINTON PLACE","HILLSIDE","NJ",7205,40.7051455480001,-74.221377312,269,"1572 CLINTON PLACE, HILLSIDE, NJ, 7205","Match","Exact","1572 CLINTON PL, HILLSIDE, NJ, 07205",60577285,"L"
217270,"1572 COURTNEY COURT","HELLERTOWN","PA",18055,40.549417346,-75.321356669,270,"1572 COURTNEY COURT, HELLERTOWN, PA, 18055","Match","Non_Exact","1572 CORTNEY CT, HELLERTOWN, PA, 18055",624770080,"L"
217271,"1572 CROFTON PARKWAY","CROFTON","MD",21114,39.012396999,-76.688236165,271,"1572 CROFTON PARKWAY, CROFTON, MD, 21114","Match","Exact","1572 CROFTON PKWY, CROFTON, MD, 21114",606937338,"R"
217272,"1572 DEER HOLLOW DRIVE","TOMS RIVER","NJ",8753,39.9565334500001,-74.15684418,272,"1572 DEER HOLLOW DRIVE, TOMS RIVER, NJ, 8753","Match","Exact","1572 DEER HOLLOW DR, TOMS RIVER, NJ, 08753",203729247,"L"
217273,"1572 EAST 1700 SOUTH","GOODING","ID",83330,42.95655943,-114.77704647,273,"1572 EAST 1700 SOUTH, GOODING, ID, 83330","Match","Exact","1572 E 1700 S, GOODING, ID, 83330",118517945,"L"
217274,"1572 EAST 7TH ST","BROOKLYN","NY",11230,40.6128615800001,-73.9669281239999,274,"1572 EAST 7TH ST, BROOKLYN, NY, 11230","Match","Exact","1572 E 7TH ST, BROOKLYN, NY, 11230",59089634,"R"
217275,"1572 EAST 9 STREET","BROOKLYN","NY",11230,40.61059471,-73.9644565359999,275,"1572 EAST 9 STREET, BROOKLYN, NY, 11230","Match","Exact","1572 E 9TH ST, BROOKLYN, NY, 11230",59089793,"R"
217276,"1572 EDGERTON STREET","SAINT PAUL","MN",55130,44.9886183420001,-93.0761681069999,276,"1572 EDGERTON STREET, SAINT PAUL, MN, 55130","Match","Exact","1572 EDGERTON ST, SAINT PAUL, MN, 55130",97650015,"R"
217277,"1572 ELIASON ROAD","THORNTON","WV",26440,39.3570098650001,-79.859621869,277,"1572 ELIASON ROAD, THORNTON, WV, 26440","Match","Exact","1572 ELIASON RD, THORNTON, WV, 26440",611581494,"R"
217278,"1572 ELIZABETH AVE UNIT 1","LAS VEGAS","NV",89119,36.10231085,-115.131457907,278,"1572 ELIZABETH AVE UNIT 1, LAS VEGAS, NV, 89119","Match","Exact","1572 ELIZABETH AVE, LAS VEGAS, NV, 89119",201871372,"L"
217279,"1572 FLYING JIB DR","AZLE","TX",76020,32.898822227,-97.520371805,279,"1572 FLYING JIB DR, AZLE, TX, 76020","Match","Exact","1572 FLYING JIB DR, AZLE, TX, 76020",102104364,"L"
217280,"1572 GARRICK DRIVE","INDIANAPOLIS","IN",46123,39.7867064600001,-86.353748498,280,"1572 GARRICK DRIVE, INDIANAPOLIS, IN, 46123","Match","Non_Exact","1572 GARRICK DR, AVON, IN, 46123",651360561,"L"
217281,"1572 GAYLOR CIR SE","SMYRNA","GA",30082,33.8428228230001,-84.5085623109999,281,"1572 GAYLOR CIR SE, SMYRNA, GA, 30082","Match","Exact","1572 GAYLOR CIR SE, SMYRNA, GA, 30082",17181621,"R"
217282,"1572 HIGHWAY 85 NORTH STE 322","FAYETTEVILLE","GA",30214,NA,NA,282,"1572 HIGHWAY 85 NORTH STE 322, FAYETTEVILLE, GA, 30214","No_Match",NA,NA,NA,NA
217283,"1572 HOWELL","CAPE GIRARDEAU","MO",63701,37.3272750530001,-89.5470287589999,283,"1572 HOWELL, CAPE GIRARDEAU, MO, 63701","Match","Non_Exact","1572 HOWELL ST, CAPE GIRARDEAU, MO, 63701",35181879,"R"
217284,"1572 HUNT CLUB DR","MILFORD","OH",45150,39.1909815500001,-84.2235910379999,284,"1572 HUNT CLUB DR, MILFORD, OH, 45150","Match","Exact","1572 HUNT CLUB DR, MILFORD, OH, 45150",118461013,"R"
217285,"1572 HWY 85 N STE 322","FAYETTEVILLE","GA",30214,NA,NA,285,"1572 HWY 85 N STE 322, FAYETTEVILLE, GA, 30214","No_Match",NA,NA,NA,NA
217286,"1572 MAG DUFFEY RD","HUMBOLDT","TN",38343,35.8519538240001,-88.907661897,286,"1572 MAG DUFFEY RD, HUMBOLDT, TN, 38343","Match","Non_Exact","1572 MAG DUFFY ST, HUMBOLDT, TN, 38343",40827378,"R"
217287,"1572 MAPLE AVE / APT 503","EVANSTON","IL",60201,42.046450463,-87.6850007799999,287,"1572 MAPLE AVE / APT 503, EVANSTON, IL, 60201","Match","Exact","1572 MAPLE AVE, EVANSTON, IL, 60201",635793381,"L"
217288,"1572 MCDANIELS AVENUE","HIGHLAND PARK","IL",60035,42.1811085300001,-87.806065675,288,"1572 MCDANIELS AVENUE, HIGHLAND PARK, IL, 60035","Match","Exact","1572 MCDANIELS AVE, HIGHLAND PARK, IL, 60035",119651612,"L"
217289,"1572 N 100 W 27","CONVERSE","IN",46919,NA,NA,289,"1572 N 100 W 27, CONVERSE, IN, 46919","No_Match",NA,NA,NA,NA
217290,"1572 NEWCASTLE WAY","PENSACOLA","FL",32534,30.528866291,-87.29971377,290,"1572 NEWCASTLE WAY, PENSACOLA, FL, 32534","Match","Exact","1572 NEWCASTLE WAY, PENSACOLA, FL, 32534",93261854,"R"
217291,"1572 NIGHTENGALE CIR","LINDENHURST","IL",60046,42.4171245090001,-88.0434857079999,291,"1572 NIGHTENGALE CIR, LINDENHURST, IL, 60046","Match","Non_Exact","1572 NIGHTENGALE CT, LINDENHURST, IL, 60046",119679281,"L"
217292,"1572 NIMBUS DR","NORTH PORT","FL",34287,27.0636112350001,-82.1917807569999,292,"1572 NIMBUS DR, NORTH PORT, FL, 34287","Match","Exact","1572 NIMBUS DR, NORTH PORT, FL, 34287",16339819,"R"
217293,"1572 NORTHWOOD DR","LOWELL","IN",46356,41.282121912,-87.40436171,293,"1572 NORTHWOOD DR, LOWELL, IN, 46356","Match","Exact","1572 NORTHWOOD DR, LOWELL, IN, 46356",98413444,"L"
217294,"1572 OAK PARK DRIVE","OWENSBORO","KY",42301,37.757771921,-87.1311548209999,294,"1572 OAK PARK DRIVE, OWENSBORO, KY, 42301","Match","Exact","1572 OAK PARK DR, OWENSBORO, KY, 42301",37558594,"R"
217295,"1572 PEARL HEIGHTS RD","VISTA","CA",92081,33.149582002,-117.240666403,295,"1572 PEARL HEIGHTS RD, VISTA, CA, 92081","Match","Exact","1572 PEARL HEIGHTS RD, VISTA, CA, 92081",195431193,"R"
217296,"1572 PORTLAND AVE","ST. PAUL","MN",55104,44.94289952,-93.1665768729999,296,"1572 PORTLAND AVE, ST. PAUL, MN, 55104","Match","Non_Exact","1572 W PORTLAND AVE, SAINT PAUL, MN, 55104",97645698,"L"
217297,"1572 PRIMA COURT","CAMARILLO","CA",93010,34.2293544940001,-119.050663125,297,"1572 PRIMA COURT, CAMARILLO, CA, 93010","Match","Exact","1572 PRIMA CT, CAMARILLO, CA, 93010",109960037,"R"
217298,"1572 PROVINCIAL LANE","SEVERN","MD",21144,39.134120624,-76.715577993,298,"1572 PROVINCIAL LANE, SEVERN, MD, 21144","Match","Exact","1572 PROVINCIAL LN, SEVERN, MD, 21144",68196554,"R"
217299,"1572 RABON FARMS LN","COLUMBIA","SC",29223,34.099790012,-80.926138544,299,"1572 RABON FARMS LN, COLUMBIA, SC, 29223","Match","Exact","1572 RABON FARMS LN, COLUMBIA, SC, 29223",641627677,"R"
217300,"1572 RANDOLPH RD","ALFRED STATION","NY",14803,42.23790347,-77.8117924919999,300,"1572 RANDOLPH RD, ALFRED STATION, NY, 14803","Match","Exact","1572 RANDOLPH RD, ALFRED STA, NY, 14803",82619255,"L"
217301,"1572 ROSEMARY CT","CASTLE ROCK","CO",80109,39.3880704860001,-104.879458075,301,"1572 ROSEMARY CT, CASTLE ROCK, CO, 80109","Match","Exact","1572 ROSEMARY CT, CASTLE ROCK, CO, 80109",130836651,"L"
217302,"1572 S NOVATO BOULEVARD","NOVATO","CA",94947,38.100428299,-122.571516135,302,"1572 S NOVATO BOULEVARD, NOVATO, CA, 94947","Match","Exact","1572 S NOVATO BLVD, NOVATO, CA, 94947",192757811,"R"
217303,"1572 SCOTLAND AVE","PUNXSUTAWNEY","PA",15767,NA,NA,303,"1572 SCOTLAND AVE, PUNXSUTAWNEY, PA, 15767","No_Match",NA,NA,NA,NA
217304,"1572 SOUTH BELVOIR BLVD","SOUTH EUCLID","OH",44121,41.5170660860001,-81.524947079,304,"1572 SOUTH BELVOIR BLVD, SOUTH EUCLID, OH, 44121","Match","Exact","1572 S BELVOIR BLVD, SOUTH EUCLID, OH, 44121",61125624,"R"
217305,"1572 UPLANDS DRIVE","SPRINGFIELD","OH",45506,39.904977123,-83.8734340139999,305,"1572 UPLANDS DRIVE, SPRINGFIELD, OH, 45506","Match","Exact","1572 UPLANDS DR, SPRINGFIELD, OH, 45506",135007959,"L"
217306,"1572 VINEWOOD WAY","TRACY","CA",95376,37.745980553,-121.447399246,306,"1572 VINEWOOD WAY, TRACY, CA, 95376","Match","Exact","1572 VINEWOOD WAY, TRACY, CA, 95376",133887695,"L"
217307,"1572 W LINCOLN BLVD","FREEPORT","IL",61032,42.2931486100001,-89.650483999,307,"1572 W LINCOLN BLVD, FREEPORT, IL, 61032","Match","Exact","1572 W LINCOLN BLVD, FREEPORT, IL, 61032",32693547,"L"
217308,"1572 WEST 1580 NORTH","ST GEORGE","UT",84770,37.135461225,-113.618130828,308,"1572 WEST 1580 NORTH, ST GEORGE, UT, 84770","Match","Exact","1572 W 1580 N, SAINT GEORGE, UT, 84770",166188220,"L"
217309,"15720 230TH ST SE","SNOHOMISH","WA",98296,47.78829734,-122.020202405,309,"15720 230TH ST SE, SNOHOMISH, WA, 98296","Match","Exact","15720 230TH ST SE, SNOHOMISH, WA, 98296",187795759,"R"
217310,"15720 AGNES BLVD","BROOK PARK","OH",44142,41.3966974260001,-81.8080039989999,310,"15720 AGNES BLVD, BROOK PARK, OH, 44142","Match","Exact","15720 AGNES BLVD, BROOK PARK, OH, 44142",61103741,"R"
217311,"15720 ARTIST WAY APT 3909","ADDISON","TX",75001,32.964214945,-96.828086941,311,"15720 ARTIST WAY APT 3909, ADDISON, TX, 75001","Match","Exact","15720 ARTIST WAY, ADDISON, TX, 75001",616165854,"R"
217312,"15720 BRIXHAM HILL AVENUE SUITE 300","CHARLOTTE","NC",28277,35.0589355970001,-80.853159966,312,"15720 BRIXHAM HILL AVENUE SUITE 300, CHARLOTTE, NC, 28277","Match","Non_Exact","15720 BRIXHAM HILL DR, CHARLOTTE, NC, 28277",70528898,"R"
217313,"15720 CHESTNUT DR","MONTGOMERY","TX",77356,30.47451833,-95.667647098,313,"15720 CHESTNUT DR, MONTGOMERY, TX, 77356","Match","Exact","15720 CHESTNUT DR, MONTGOMERY, TX, 77356",79266507,"R"
217314,"15720 COMUS ROAD","CLARKBURG","MD",20871,39.242387669,-77.326995726,314,"15720 COMUS ROAD, CLARKBURG, MD, 20871","Match","Non_Exact","15720 COMUS RD, CLARKSBURG, MD, 20871",641003723,"L"
217315,"15720 CUTLER ROAD","PORTLAND","MI",48875,42.8571714300001,-84.832291912,315,"15720 CUTLER ROAD, PORTLAND, MI, 48875","Match","Exact","15720 CUTLER RD, PORTLAND, MI, 48875",17298181,"L"
217316,"15720 GAULT STREET","LOS ANGELES","CA",91406,34.1993472520001,-118.475716513,316,"15720 GAULT STREET, LOS ANGELES, CA, 91406","Match","Non_Exact","15720 GAULT ST, LAKE BALBOA, CA, 91406",141559977,"L"
217317,"15720 MEADOW RD C3","LYNNWOOD","WA",98087,47.8552017380001,-122.250088349,317,"15720 MEADOW RD C3, LYNNWOOD, WA, 98087","Match","Exact","15720 MEADOW RD, LYNNWOOD, WA, 98087",625594805,"R"
217318,"15720 MICHAEL ST","TAYLOR","MI",48180,42.1908625990001,-83.2809144239999,318,"15720 MICHAEL ST, TAYLOR, MI, 48180","Match","Exact","15720 MICHAEL ST, TAYLOR, MI, 48180",95437898,"R"
217319,"15720 N 700TH ST","SHUMWAY","IL",62461,39.145464508,-88.670425477,319,"15720 N 700TH ST, SHUMWAY, IL, 62461","Match","Exact","15720 N 700TH ST, SHUMWAY, IL, 62461",94757362,"R"
217320,"15720 N 700TH STREET","SHUMWAY","IL",62461,39.145464508,-88.670425477,320,"15720 N 700TH STREET, SHUMWAY, IL, 62461","Match","Exact","15720 N 700TH ST, SHUMWAY, IL, 62461",94757362,"R"
217321,"15720 QUINCY","DETROIT","MI",48238,42.4067714600001,-83.1384140439999,321,"15720 QUINCY, DETROIT, MI, 48238","Match","Non_Exact","15720 QUINCY ST, DETROIT, MI, 48238",95461313,"R"
217322,"15720 S 91ST W AVE","SAPULPA","OK",74066,NA,NA,322,"15720 S 91ST W AVE, SAPULPA, OK, 74066","No_Match",NA,NA,NA,NA
217323,"15720 S ELK CREEK RD","PINE","CO",80470,39.4291803730001,-105.316581589,323,"15720 S ELK CREEK RD, PINE, CO, 80470","Match","Exact","15720 S ELK CREEK RD, PINE, CO, 80470",642117986,"L"
217324,"15720 SW 191 AVENUE","WILLISTON","FL",32696,29.479198388,-82.5199763539999,324,"15720 SW 191 AVENUE, WILLISTON, FL, 32696","Match","Exact","15720 SW 191ST AVE, WILLISTON, FL, 32696",633762751,"R"
217325,"15720","MASON CITY","IA",50401,NA,NA,325,"15720, MASON CITY, IA, 50401","No_Match",NA,NA,NA,NA
217326,"15721 26TH AVENUE WEST","LYNNWOOD","WA",98087,47.856230001,-122.268124493,326,"15721 26TH AVENUE WEST, LYNNWOOD, WA, 98087","Match","Exact","15721 26TH AVE W, LYNNWOOD, WA, 98087",636777162,"R"
217327,"15721 35TH DRIVE SE","BOTHEL","NY",98012,NA,NA,327,"15721 35TH DRIVE SE, BOTHEL, NY, 98012","No_Match",NA,NA,NA,NA
217328,"15721 BRASSIE COURT 2S","ORLAND PARK","IL",60462,41.605032803,-87.8145072029999,328,"15721 BRASSIE COURT 2S, ORLAND PARK, IL, 60462","Match","Exact","15721 BRASSIE CT, ORLAND PARK, IL, 60462",111701530,"R"
217329,"15721 FOREST PARK DRIVE","WOODBRIDGE","VA",22193,NA,NA,329,"15721 FOREST PARK DRIVE, WOODBRIDGE, VA, 22193","No_Match",NA,NA,NA,NA
217330,"15721 FRIEND AVENUE","MAPLE HEIGHTS","OH",44137,41.4185335870001,-81.571527402,330,"15721 FRIEND AVENUE, MAPLE HEIGHTS, OH, 44137","Match","Exact","15721 FRIEND AVE, MAPLE HEIGHTS, OH, 44137",61128486,"L"
217331,"15721 HILL LANE","SELMA","TX",78154,29.5836700130001,-98.294592151,331,"15721 HILL LANE, SELMA, TX, 78154","Match","Exact","15721 HILL LN, SELMA, TX, 78154",54823989,"R"
217332,"15721 NW 11TH STREET","PEMBROKE PINES","FL",33028,26.015856473,-80.3517397959999,332,"15721 NW 11TH STREET, PEMBROKE PINES, FL, 33028","Match","Non_Exact","15721 NW 11TH ST, PEMBROKE PINES, FL, 33028",114782028,"R"
217333,"15721 PONDEROSA LN","CHINO HILLS","CA",91709,33.968327012,-117.718557297,333,"15721 PONDEROSA LN, CHINO HILLS, CA, 91709","Match","Exact","15721 PONDEROSA LN, CHINO HILLS, CA, 91709",144677929,"L"
217334,"15721 ROSECRANS AVE","LA MIRADA","CA",90638,NA,NA,334,"15721 ROSECRANS AVE, LA MIRADA, CA, 90638","No_Match",NA,NA,NA,NA
217335,"15722 10TH ST SE","SNOHOMISH","WA",98290,47.9890068540001,-122.019640864,335,"15722 10TH ST SE, SNOHOMISH, WA, 98290","Match","Exact","15722 10TH ST SE, SNOHOMISH, WA, 98290",187807054,"R"
217336,"15722 BURT STREET","OMAHA","NE",68118,41.2696286720001,-96.160756624,336,"15722 BURT STREET, OMAHA, NE, 68118","Match","Exact","15722 BURT ST, OMAHA, NE, 68118",116992241,"R"
217337,"15722 DREXEL AVENUE","DOLTON","IL",60419,41.6089741710001,-87.595431517,337,"15722 DREXEL AVENUE, DOLTON, IL, 60419","Match","Exact","15722 DREXEL AVE, DOLTON, IL, 60419",111780157,"R"
217338,"15722 EAST 2430 NORTH RD","DANVILLE","IL",61834,40.222079926,-87.647476774,338,"15722 EAST 2430 NORTH RD, DANVILLE, IL, 61834","Match","Exact","15722 E 2430 N RD, DANVILLE, IL, 61834",612016369,"R"
217339,"15722 EAST ATTICA STREET","ROSSVILLE","IL",60963,40.3793474390001,-87.655870979,339,"15722 EAST ATTICA STREET, ROSSVILLE, IL, 60963","Match","Non_Exact","15722 E ATTICA RD, ROSSVILLE, IL, 60963",611988254,"R"
217340,"15722 ENSLEIGH LANE","BOWIE","MD",20716,38.949218527,-76.73401803,340,"15722 ENSLEIGH LANE, BOWIE, MD, 20716","Match","Exact","15722 ENSLEIGH LN, BOWIE, MD, 20716",647291952,"L"
217341,"15722 RYDER COURT","HAYMARKET","VA",20169,38.848158074,-77.6570207239999,341,"15722 RYDER COURT, HAYMARKET, VA, 20169","Match","Exact","15722 RYDER CT, HAYMARKET, VA, 20169",617541255,"L"
217342,"15722 STONEHAVEN DR","HOUSTON","TX",77059,29.5977552580001,-95.119208612,342,"15722 STONEHAVEN DR, HOUSTON, TX, 77059","Match","Exact","15722 STONEHAVEN DR, HOUSTON, TX, 77059",96115268,"R"
217343,"15722 WILDWOOD DRIVE","CLIVE","IA",50325,41.6100933280001,-93.834953231,343,"15722 WILDWOOD DRIVE, CLIVE, IA, 50325","Match","Exact","15722 WILDWOOD DR, CLIVE, IA, 50325",65639669,"L"
217344,"15722 WOODWICK AVE","BATON ROUGE","LA",70816,30.454062532,-91.012004331,344,"15722 WOODWICK AVE, BATON ROUGE, LA, 70816","Match","Exact","15722 WOODWICK AVE, BATON ROUGE, LA, 70816",92194521,"L"
217345,"15723 EAST CHOLLA DR","FOUNTAIN HILLS","AZ",85268,33.5996766060001,-111.740552455,345,"15723 EAST CHOLLA DR, FOUNTAIN HILLS, AZ, 85268","Match","Non_Exact","15723 CHOLLA DR, FOUNTAIN HILLS, AZ, 85268",128190677,"R"
217346,"15723 STABLE CREEK CIRCLE","CYPRESS","TX",77429,30.0024611050001,-95.661904063,346,"15723 STABLE CREEK CIRCLE, CYPRESS, TX, 77429","Match","Exact","15723 STABLE CREEK CIR, CYPRESS, TX, 77429",638594515,"L"
217347,"15723 TIMBERLINE DRIVE","S CHESTERFIELD","VA",23834,37.3071954540001,-77.411516661,347,"15723 TIMBERLINE DRIVE, S CHESTERFIELD, VA, 23834","Match","Exact","15723 TIMBERLINE DR, SOUTH CHESTERFIELD, VA, 23834",201552200,"L"
217348,"15724 CR 3480","ADA","OK",74820,34.7560663560001,-96.810058595,348,"15724 CR 3480, ADA, OK, 74820","Match","Exact","15724 CO RD 3480, ADA, OK, 74820",58516589,"R"
217349,"15724 EDGECLIFF","CLEVELAND","OH",44111,41.4641277480001,-81.807707529,349,"15724 EDGECLIFF, CLEVELAND, OH, 44111","Match","Non_Exact","15724 EDGECLIFF AVE, CLEVELAND, OH, 44111",61101949,"R"
217350,"15724 JAMES CO","GARFIELD","AR",72732,NA,NA,350,"15724 JAMES CO, GARFIELD, AR, 72732","No_Match",NA,NA,NA,NA
217351,"15724 N FAIRVIEW RD","MEAD","WA",99021,47.8005398550001,-117.33514398,351,"15724 N FAIRVIEW RD, MEAD, WA, 99021","Match","Exact","15724 N FAIRVIEW RD, MEAD, WA, 99021",189904016,"L"
217352,"15724 W GUERIN ROAD","LIBERTYVILLE","IL",60048,42.312951626,-87.937756893,352,"15724 W GUERIN ROAD, LIBERTYVILLE, IL, 60048","Match","Non_Exact","15724 GUERIN RD, LIBERTYVILLE, IL, 60048",119640252,"L"
217353,"15724","JONESVILLE","LA",71343,NA,NA,353,"15724, JONESVILLE, LA, 71343","No_Match",NA,NA,NA,NA
217354,"15725 79TH ST SE","WYNDMERE","ND",58081,46.2682772740001,-97.1141547939999,354,"15725 79TH ST SE, WYNDMERE, ND, 58081","Match","Exact","15725 79TH ST SE, WYNDMERE, ND, 58081",181269234,"L"
217355,"15725 CALIFORNIA ST","OMAHA","NE",68118,41.266073412,-96.1619236609999,355,"15725 CALIFORNIA ST, OMAHA, NE, 68118","Match","Exact","15725 CALIFORNIA ST, OMAHA, NE, 68118",116992234,"R"
217356,"15725 CARMEL VERDE LANE","MORENO VALLEY","CA",92551,33.8922072240001,-117.216650805,356,"15725 CARMEL VERDE LANE, MORENO VALLEY, CA, 92551","Match","Exact","15725 CARMEL VERDE LN, MORENO VALLEY, CA, 92551",194856678,"L"
217357,"15725 COUNTY ROAD 34","STERLING","CO",80751,40.667592299,-103.28285448,357,"15725 COUNTY ROAD 34, STERLING, CO, 80751","Match","Exact","15725 CO RD 34, STERLING, CO, 80751",136170066,"L"
217358,"15725 NW 19TH AVE","MIAMI","FL",33054,NA,NA,358,"15725 NW 19TH AVE, MIAMI, FL, 33054","No_Match",NA,NA,NA,NA
217359,"15725 POMERADO RD UNIT 203","POWAY","CA",92064,33.0033352560001,-117.058006751,359,"15725 POMERADO RD UNIT 203, POWAY, CA, 92064","Match","Exact","15725 POMERADO RD, POWAY, CA, 92064",195316500,"R"
217360,"15725 SW 188TH ST","MIAMI","FL",33187,25.591473566,-80.446917602,360,"15725 SW 188TH ST, MIAMI, FL, 33187","Match","Exact","15725 SW 188TH ST, MIAMI, FL, 33187",647874588,"R"
217361,"15726 CTY RD 160","COLD SPRING","MN",56320,45.5150475680001,-94.432088984,361,"15726 CTY RD 160, COLD SPRING, MN, 56320","Match","Exact","15726 CO RD 160, COLD SPRING, MN, 56320",611991997,"L"
217362,"15726 DOUBLE EAGLE DRIVE","MORRISON","CO",80465,39.6184734720001,-105.176722405,362,"15726 DOUBLE EAGLE DRIVE, MORRISON, CO, 80465","Match","Exact","15726 DOUBLE EAGLE DR, MORRISON, CO, 80465",177749322,"R"
217363,"15726 E ABERDEEN AVE","AUORORA","CO",80016,39.6075555740001,-104.805324449,363,"15726 E ABERDEEN AVE, AUORORA, CO, 80016","Match","Non_Exact","15726 E ABERDEEN AVE, AURORA, CO, 80016",177541186,"R"
217364,"15726 MAPLE ISLAND COURT","BURNSVILLE","MN",55306,44.718944982,-93.278753546,364,"15726 MAPLE ISLAND COURT, BURNSVILLE, MN, 55306","Match","Exact","15726 MAPLE ISLAND CT, BURNSVILLE, MN, 55306",37928481,"L"
217365,"15726 SE DANA AVE","MILWAIKIE","OR",97267,45.409205516,-122.648692028,365,"15726 SE DANA AVE, MILWAIKIE, OR, 97267","Match","Non_Exact","15726 SE DANA AVE, MILWAUKIE, OR, 97267",157913833,"L"
217366,"15726 WILLOW PINE LANE","MONTE VERDI","FL",34756,NA,NA,366,"15726 WILLOW PINE LANE, MONTE VERDI, FL, 34756","No_Match",NA,NA,NA,NA
217367,"15726","HUDSON","FL",34667,NA,NA,367,"15726, HUDSON, FL, 34667","No_Match",NA,NA,NA,NA
217368,"15727 ABERDEEN TRAILS DR","HOUSTON","TX",77095,29.9107598150001,-95.643117171,368,"15727 ABERDEEN TRAILS DR, HOUSTON, TX, 77095","Match","Exact","15727 ABERDEEN TRAILS DR, HOUSTON, TX, 77095",96299813,"L"
217369,"15727 BELLFOREST CT","HOUSTON","TX",77044,29.92042672,-95.177671935,369,"15727 BELLFOREST CT, HOUSTON, TX, 77044","Match","Exact","15727 BELLFOREST CT, HOUSTON, TX, 77044",627956522,"R"
217370,"15727 CHAROLAIS DRIVE","CYPRESS","TX",77429,29.990221208,-95.663933994,370,"15727 CHAROLAIS DRIVE, CYPRESS, TX, 77429","Match","Exact","15727 CHAROLAIS DR, CYPRESS, TX, 77429",96000879,"R"
217371,"15727 CUTTEN RD 929","HOUSTON","TX",77070,30.000156776,-95.565216291,371,"15727 CUTTEN RD 929, HOUSTON, TX, 77070","Match","Exact","15727 CUTTEN RD, HOUSTON, TX, 77070",642111351,"R"
217372,"15727 CUTTEN ROAD APT 612","HOUSTON","TX",77070,30.000156776,-95.565216291,372,"15727 CUTTEN ROAD APT 612, HOUSTON, TX, 77070","Match","Exact","15727 CUTTEN RD, HOUSTON, TX, 77070",642111351,"R"
217373,"15727 FOX MEADOW LANE","FRISCO","TX",75035,33.171458037,-96.736667945,373,"15727 FOX MEADOW LANE, FRISCO, TX, 75035","Match","Exact","15727 FOX MEADOW LN, FRISCO, TX, 75035",210527400,"R"
217374,"15727 HAYNES RD","LAUREL","MD",20707,39.106555525,-76.871269077,374,"15727 HAYNES RD, LAUREL, MD, 20707","Match","Exact","15727 HAYNES RD, LAUREL, MD, 20707",635446048,"R"
217375,"15727 LAUREL DR","DANVILLE","IL",61834,40.1827106320001,-87.646422104,375,"15727 LAUREL DR, DANVILLE, IL, 61834","Match","Exact","15727 LAUREL DR, DANVILLE, IL, 61834",611992338,"L"
217376,"15727 NORTH RIDGE DRIVE","CARROLTON","TX",75006,NA,NA,376,"15727 NORTH RIDGE DRIVE, CARROLTON, TX, 75006","No_Match",NA,NA,NA,NA
217377,"15727 OLD JAPANESE RD","LOS GATOS","CA",95033,37.127693165,-121.999757087,377,"15727 OLD JAPANESE RD, LOS GATOS, CA, 95033","Match","Non_Exact","15727 OLD JAPANESE RD W, LOS GATOS, CA, 95033",605984846,"L"
217378,"15727 SCHULTZ ST","CLINTON TWP","MI",NA,42.5954595900001,-82.9655135519999,378,"15727 SCHULTZ ST, CLINTON TWP, MI, ","Match","Exact","15727 SCHULTZ ST, CLINTON TOWNSHIP, MI, 48038",110674011,"R"
217379,"15727 SINGING VIEW","SAN ANTONIO","TX",78255,29.588055409,-98.649506138,379,"15727 SINGING VIEW, SAN ANTONIO, TX, 78255","Match","Exact","15727 SINGING VW, SAN ANTONIO, TX, 78255",619996480,"R"
217380,"15727 ST MARYS","DETROIT","MI",48227,42.405487421,-83.206452535,380,"15727 ST MARYS, DETROIT, MI, 48227","Match","Non_Exact","15727 ST MARYS ST, DETROIT, MI, 48227",95423603,"L"
217381,"15727 WANDERING TRAIL","FRIENDSWOOD","TX",77546,29.5376491980001,-95.189381929,381,"15727 WANDERING TRAIL, FRIENDSWOOD, TX, 77546","Match","Exact","15727 WANDERING TRL, FRIENDSWOOD, TX, 77546",96589053,"R"
217382,"15728 GARRISON LANE","SOUTHGATE","MI",48195,42.1951840090001,-83.214771145,382,"15728 GARRISON LANE, SOUTHGATE, MI, 48195","Match","Exact","15728 GARRISON LN, SOUTHGATE, MI, 48195",95448326,"R"
217383,"15729 NW 118TH PLACE","ALACHUA","FL",32616,29.764188485,-82.514975826,383,"15729 NW 118TH PLACE, ALACHUA, FL, 32616","Match","Non_Exact","15729 NW 118TH PL, ALACHUA, FL, 32615",647844639,"L"
217384,"15729 S HOYNE","HARVEY","IL",60426,41.603252974,-87.6676317179999,384,"15729 S HOYNE, HARVEY, IL, 60426","Match","Non_Exact","15729 HOYNE AVE, HARVEY, IL, 60426",111705437,"L"
217385,"1573 1198TH AVENUE","BOYCEVILLE","WI",54725,NA,NA,385,"1573 1198TH AVENUE, BOYCEVILLE, WI, 54725","No_Match",NA,NA,NA,NA
217386,"1573 BROWNLEE RD","CALHOUN","LA",71255,32.549228816,-92.3079225559999,386,"1573 BROWNLEE RD, CALHOUN, LA, 71255","Match","Non_Exact","1573 BROWNLEE RD, CALHOUN, LA, 71225",648289029,"L"
217387,"1573 BRUNSWICK ST","LITHIA SPRINGS","GA",30122,33.729003258,-84.603696016,387,"1573 BRUNSWICK ST, LITHIA SPRINGS, GA, 30122","Match","Exact","1573 BRUNSWICK ST, LITHIA SPGS, GA, 30122",633951548,"L"
217388,"1573 CORTE DE PEARSON","SAN JOSE","CA",95124,37.258352949,-121.901630453,388,"1573 CORTE DE PEARSON, SAN JOSE, CA, 95124","Match","Exact","1573 CORTE DE PEARSON, SAN JOSE, CA, 95124",123014251,"R"
217389,"1573 COUNTRYWOOD LANE","ESCALON","CA",95320,37.789950235,-120.990970183,389,"1573 COUNTRYWOOD LANE, ESCALON, CA, 95320","Match","Exact","1573 COUNTRYWOOD LN, ESCALON, CA, 95320",633900522,"L"
217390,"1573 COUNTY ROAD","MONTPELIER","VT",5602,44.29148006,-72.540188975,390,"1573 COUNTY ROAD, MONTPELIER, VT, 5602","Match","Exact","1573 COUNTY RD, MONTPELIER, VT, 05602",136676929,"L"
217391,"1573 CRESCENT POINTE LANE","VIRGINIA BEACH","VA",23453,36.7965296580001,-76.102480993,391,"1573 CRESCENT POINTE LANE, VIRGINIA BEACH, VA, 23453","Match","Exact","1573 CRESCENT POINTE LN, VIRGINIA BCH, VA, 23453",122286263,"R"
217392,"1573 DELSART ROAD","STURGEON BAY","WI",54235,44.746686428,-87.4625005509999,392,"1573 DELSART ROAD, STURGEON BAY, WI, 54235","Match","Exact","1573 DELSART RD, STURGEON BAY, WI, 54235",627096049,"L"
217393,"1573 E FULLER DRIVE","SALT LAKE CITY","UT",84124,40.6787292240001,-111.846227009,393,"1573 E FULLER DRIVE, SALT LAKE CITY, UT, 84124","Match","Exact","1573 E FULLER DR, SALT LAKE CITY, UT, 84124",176083513,"L"
217394,"1573 EAST 5TH STREET","BROOKLYN","NY",11230,40.612443764,-73.9696357729999,394,"1573 EAST 5TH STREET, BROOKLYN, NY, 11230","Match","Exact","1573 E 5TH ST, BROOKLYN, NY, 11230",59089770,"L"
217395,"1573 EAST 750 NORTH RD","CISSNA PARK","IL",60924,40.5959165260001,-87.829473208,395,"1573 EAST 750 NORTH RD, CISSNA PARK, IL, 60924","Match","Exact","1573 E 750 NORTH RD, CISSNA PARK, IL, 60924",90766858,"L"
217396,"1573 FAIRMOUNT AVE","ST LOUIS","MO",63139,38.624206137,-90.299861316,396,"1573 FAIRMOUNT AVE, ST LOUIS, MO, 63139","Match","Exact","1573 FAIRMOUNT AVE, SAINT LOUIS, MO, 63139",107593703,"R"
217397,"1573 FRIEDENS CHURCH ROAD","MOUNT CRAWFORD","VA",22841,38.3510850870001,-78.915348834,397,"1573 FRIEDENS CHURCH ROAD, MOUNT CRAWFORD, VA, 22841","Match","Exact","1573 FRIEDENS CHURCH RD, MOUNT CRAWFORD, VA, 22841",649981803,"R"
217398,"1573 GARFIELD PARK BLVD","LEBANON","OH",45036,39.4616568770001,-84.212758294,398,"1573 GARFIELD PARK BLVD, LEBANON, OH, 45036","Match","Exact","1573 GARFIELD PARK BLVD, LEBANON, OH, 45036",159031260,"L"
217399,"1573 GLENMONT RD","CLEVELAND","OH",44118,41.516636986,-81.5793194839999,399,"1573 GLENMONT RD, CLEVELAND, OH, 44118","Match","Exact","1573 GLENMONT RD, CLEVELAND, OH, 44118",61122994,"L"
217400,"1573 GRAND BAKER ST","AURORA","CO",80018,39.6881995420001,-104.702009751,400,"1573 GRAND BAKER ST, AURORA, CO, 80018","Match","Non_Exact","1573 S GRAND BAKER ST, AURORA, CO, 80018",177536564,"R"
217401,"1573 GROUSE LANE","MOUNTAINSIDE","NJ",7092,40.6725726920001,-74.3743128149999,401,"1573 GROUSE LANE, MOUNTAINSIDE, NJ, 7092","Match","Exact","1573 GROUSE LN, MOUNTAINSIDE, NJ, 07092",60603354,"L"
217402,"1573 HAYDEN ROAD","ATTICA","MI",48412,43.078163621,-83.208879066,402,"1573 HAYDEN ROAD, ATTICA, MI, 48412","Match","Exact","1573 HAYDEN RD, ATTICA, MI, 48412",110459162,"L"
217403,"1573 HILL RD","NEWPORT","TN",37821,36.058171896,-83.224912312,403,"1573 HILL RD, NEWPORT, TN, 37821","Match","Exact","1573 HILL RD, NEWPORT, TN, 37821",132777653,"L"
217404,"1573 LAKE CATO DRIVE","REEDSVILLE","WI",54230,44.1152574710001,-87.82879891,404,"1573 LAKE CATO DRIVE, REEDSVILLE, WI, 54230","Match","Exact","1573 LAKE CATO DR, REEDSVILLE, WI, 54230",652113297,"L"
217405,"1573 LAKETREE COURT","SAN JOSE","CA",95131,37.391928551,-121.878039438,405,"1573 LAKETREE COURT, SAN JOSE, CA, 95131","Match","Exact","1573 LAKETREE CT, SAN JOSE, CA, 95131",123003098,"R"
217406,"1573 LAMOTTE DR","LINO LAKES","MN",55038,45.1586233310001,-93.0634921179999,406,"1573 LAMOTTE DR, LINO LAKES, MN, 55038","Match","Exact","1573 LAMOTTE DR, LINO LAKES, MN, 55038",97511253,"R"
217407,"1573 LAND ROAD","COLUMBUS","MS",39705,33.6174874450001,-88.4401081,407,"1573 LAND ROAD, COLUMBUS, MS, 39705","Match","Exact","1573 LAND RD, COLUMBUS, MS, 39705",627303653,"R"
217408,"1573 LICKERT RD","ALEXANDRIA","KY",41001,38.925468489,-84.37147806,408,"1573 LICKERT RD, ALEXANDRIA, KY, 41001","Match","Exact","1573 LICKERT RD, ALEXANDRIA, KY, 41001",633805041,"R"
217409,"1573 MADISON AVENUE","NEW YORK","NY",10029,40.793730383,-73.949406767,409,"1573 MADISON AVENUE, NEW YORK, NY, 10029","Match","Exact","1573 MADISON AVE, NEW YORK, NY, 10029",59657778,"R"
217410,"1573 MAPLEDALE RD","WICKLIFFE","OH",44092,41.6190633320001,-81.45066331,410,"1573 MAPLEDALE RD, WICKLIFFE, OH, 44092","Match","Exact","1573 MAPLEDALE RD, WICKLIFFE, OH, 44092",137460819,"L"
217411,"1573 MAPLEWOOD DR","SLIDELL","LA",70458,30.2805866410001,-89.754970467,411,"1573 MAPLEWOOD DR, SLIDELL, LA, 70458","Match","Exact","1573 MAPLEWOOD DR, SLIDELL, LA, 70458",111248537,"L"
217412,"1573 N TANZANITE","POST FALLS","ID",83854,47.7229180160001,-116.907166708,412,"1573 N TANZANITE, POST FALLS, ID, 83854","Match","Non_Exact","1573 N TANZANITE ST, POST FALLS, ID, 83854",192953448,"L"
217413,"1573 RIDGEVIEW TERRACE","OSAGE BEACH","MO",33704,38.1248151230001,-92.7105486999999,413,"1573 RIDGEVIEW TERRACE, OSAGE BEACH, MO, 33704","Match","Non_Exact","1573 RIDGEVIEW TER, OSAGE BEACH, MO, 65065",635572822,"L"
217414,"1573 RIDGEVIEW TERRACE","OSAGE BEACH","MO",65065,38.1248151230001,-92.7105486999999,414,"1573 RIDGEVIEW TERRACE, OSAGE BEACH, MO, 65065","Match","Exact","1573 RIDGEVIEW TER, OSAGE BEACH, MO, 65065",635572822,"L"
217415,"1573 RIDGEVIEW TERRACE","RANCHEROS DE TAOS","MO",87557,NA,NA,415,"1573 RIDGEVIEW TERRACE, RANCHEROS DE TAOS, MO, 87557","No_Match",NA,NA,NA,NA
217416,"1573 S TALLGRASS DRIVE","FAYETTEVILLE","AR",72701,36.0456951210001,-94.0873427229999,416,"1573 S TALLGRASS DRIVE, FAYETTEVILLE, AR, 72701","Match","Exact","1573 S TALLGRASS DR, FAYETTEVILLE, AR, 72701",640551246,"L"
217417,"1573 S TRENTON COURT","DENVER","CO",80231,NA,NA,417,"1573 S TRENTON COURT, DENVER, CO, 80231","Tie",NA,NA,NA,NA
217418,"1573 SOUTH DEARBORN STREET","AURORA","CO",80012,39.6870832600001,-104.817651266,418,"1573 SOUTH DEARBORN STREET, AURORA, CO, 80012","Match","Exact","1573 S DEARBORN ST, AURORA, CO, 80012",177354793,"R"
217419,"1573 STACY DRIVE","CANTON","MI",48188,42.296438919,-83.4468331739999,419,"1573 STACY DRIVE, CANTON, MI, 48188","Match","Exact","1573 STACY DR, CANTON, MI, 48188",95712162,"L"
217420,"1573 SUGAR GROVE RD","TROY","MO",63379,38.9316039500001,-90.983795782,420,"1573 SUGAR GROVE RD, TROY, MO, 63379","Match","Exact","1573 SUGAR GROVE RD, TROY, MO, 63379",649144866,"L"
217421,"1573 SUGAR GROVE ROAD","TROY","MO",63379,38.9316039500001,-90.983795782,421,"1573 SUGAR GROVE ROAD, TROY, MO, 63379","Match","Exact","1573 SUGAR GROVE RD, TROY, MO, 63379",649144866,"L"
217422,"1573 SURREY DR","BOURBONNAIS","IL",60914,41.1667923970001,-87.823923137,422,"1573 SURREY DR, BOURBONNAIS, IL, 60914","Match","Exact","1573 SURREY DR, BOURBONNAIS, IL, 60914",98369754,"L"
217423,"1573 SW HERDER RD","PORT ST LUCIE","FL",34953,27.276192123,-80.3969028499999,423,"1573 SW HERDER RD, PORT ST LUCIE, FL, 34953","Match","Exact","1573 SW HERDER RD, PORT ST LUCIE, FL, 34953",120138127,"L"
217424,"1573 VIRGINIA STREET EAST","CHARLESTON","WV",25311,38.3393487280001,-81.6204168849999,424,"1573 VIRGINIA STREET EAST, CHARLESTON, WV, 25311","Match","Exact","1573 VIRGINIA ST E, CHARLESTON, WV, 25311",78647819,"R"
217425,"1573 WEST MAIN STREET","MERCED","CA",95340,37.3072176110001,-120.499104553,425,"1573 WEST MAIN STREET, MERCED, CA, 95340","Match","Exact","1573 W MAIN ST, MERCED, CA, 95340",125348119,"R"
217426,"1573 WINDING CREEK TRAIL","BROWNSBURG","IN",46112,39.86850737,-86.39354675,426,"1573 WINDING CREEK TRAIL, BROWNSBURG, IN, 46112","Match","Exact","1573 WINDING CREEK TRL, BROWNSBURG, IN, 46112",89209130,"L"
217427,"15730 BARBEE ST","FONTANA","CA",92336,34.108677598,-117.461808019,427,"15730 BARBEE ST, FONTANA, CA, 92336","Match","Exact","15730 BARBEE ST, FONTANA, CA, 92336",624156145,"L"
217428,"15730 BLACK OAK QUARRY ROAD","FAYETTEVILLE","AR",72701,35.9735081200001,-94.0874020749999,428,"15730 BLACK OAK QUARRY ROAD, FAYETTEVILLE, AR, 72701","Match","Exact","15730 BLACK OAK QUARRY RD, FAYETTEVILLE, AR, 72701",49076277,"L"
217429,"15730 CHEROKEE COURT","SKIATOOK","OK",74070,36.3819681270001,-96.100127194,429,"15730 CHEROKEE COURT, SKIATOOK, OK, 74070","Match","Exact","15730 CHEROKEE CT, SKIATOOK, OK, 74070",82358318,"R"
217430,"15730 ENGLEIGH LANE","BOWIE","MD",20716,38.9492243380001,-76.733936676,430,"15730 ENGLEIGH LANE, BOWIE, MD, 20716","Match","Non_Exact","15730 ENSLEIGH LN, BOWIE, MD, 20716",647291952,"L"
217431,"15730 GARDENIA WAY","LOS GATOS","CA",95032,37.2399515660001,-121.954262142,431,"15730 GARDENIA WAY, LOS GATOS, CA, 95032","Match","Exact","15730 GARDENIA WAY, LOS GATOS, CA, 95032",122945431,"L"
217432,"15730 NEW GALE DRIVE","MIDLOTHIAN","VA",23112,37.446162132,-77.702145904,432,"15730 NEW GALE DRIVE, MIDLOTHIAN, VA, 23112","Match","Exact","15730 NEW GALE DR, MIDLOTHIAN, VA, 23112",650542467,"R"
217433,"15730 RIDGE PARK DR","HOUSTON","TX",77095,29.8870241760001,-95.645771665,433,"15730 RIDGE PARK DR, HOUSTON, TX, 77095","Match","Exact","15730 RIDGE PARK DR, HOUSTON, TX, 77095",96015382,"L"
217434,"15730 SUNDOWNER","BEACH CITY","TX",77523,29.762535503,-94.8524088039999,434,"15730 SUNDOWNER, BEACH CITY, TX, 77523","Match","Non_Exact","15730 SUNDOWNER DR, BEACH CITY, TX, 77523",649084482,"L"
217435,"15730 SW BRIDLE HILLS DR","BEAVERTON","OR",97007,45.464125686,-122.838920382,435,"15730 SW BRIDLE HILLS DR, BEAVERTON, OR, 97007","Match","Exact","15730 SW BRIDLE HILLS DR, BEAVERTON, OR, 97007",158188549,"R"
217436,"15730 VINTAGE STREET","NORTH HILLS","CA",91343,34.2519234050001,-118.474711197,436,"15730 VINTAGE STREET, NORTH HILLS, CA, 91343","Match","Exact","15730 VINTAGE ST, NORTH HILLS, CA, 91343",141548817,"L"
217437,"15731 CRESCENT DRIVE","AURORA","IN",47001,39.100420021,-84.922108865,437,"15731 CRESCENT DRIVE, AURORA, IN, 47001","Match","Exact","15731 CRESCENT DR, AURORA, IN, 47001",76858893,"L"
217438,"15731 FREMONT WAY","APPLE VALLEY","MN",55124,44.722326265,-93.205730252,438,"15731 FREMONT WAY, APPLE VALLEY, MN, 55124","Match","Exact","15731 FREMONT WAY, APPLE VALLEY, MN, 55124",641641006,"L"
217439,"15731 GRIGGS","DETROIT","MI",48238,42.4063186220001,-83.1631090349999,439,"15731 GRIGGS, DETROIT, MI, 48238","Match","Non_Exact","15731 GRIGGS ST, DETROIT, MI, 48238",95425822,"L"
217440,"15731 HIGHLAND AVE NW","PRIOR LAKE","MN",55323,44.7217587060001,-93.440529256,440,"15731 HIGHLAND AVE NW, PRIOR LAKE, MN, 55323","Match","Non_Exact","15731 HIGHLAND AVE NW, PRIOR LAKE, MN, 55372",38141828,"R"
217441,"15731 JAMIE LEE DR","HOUSTON","TX",77095,29.90862572,-95.645541362,441,"15731 JAMIE LEE DR, HOUSTON, TX, 77095","Match","Exact","15731 JAMIE LEE DR, HOUSTON, TX, 77095",644511783,"L"
217442,"15731 LOMA VISTA AVENUE","LOS GATOS","CA",95032,37.240211646,-121.950203383,442,"15731 LOMA VISTA AVENUE, LOS GATOS, CA, 95032","Match","Exact","15731 LOMA VISTA AVE, LOS GATOS, CA, 95032",122945481,"R"
217443,"15731 LYONS VALLEY ROAD","JAMUL","CA",91935,32.7240330590001,-116.813178503,443,"15731 LYONS VALLEY ROAD, JAMUL, CA, 91935","Match","Exact","15731 LYONS VALLEY RD, JAMUL, CA, 91935",195434299,"R"
217444,"15731 NE 8TH ST UNIT 6323","BELLEVUE","WA",98008,NA,NA,444,"15731 NE 8TH ST UNIT 6323, BELLEVUE, WA, 98008","Tie",NA,NA,NA,NA
217445,"15732 BOLTON CIRCLE","WESTFIELD","IN",46074,40.0156855870001,-86.152542967,445,"15732 BOLTON CIRCLE, WESTFIELD, IN, 46074","Match","Exact","15732 BOLTON CIR, WESTFIELD, IN, 46074",617970695,"L"
217446,"15732 FAIRVIEW LAKE RD","PORT ORCHARD","WA",98367,47.4072329410001,-122.712915405,446,"15732 FAIRVIEW LAKE RD, PORT ORCHARD, WA, 98367","Match","Non_Exact","15732 FAIRVIEW LAKE RD SW, PORT ORCHARD, WA, 98367",642477428,"R"
217447,"15732 SMITH BOYD ROAD","CHARLOTTE","NC",28273,35.0838904440001,-80.979068076,447,"15732 SMITH BOYD ROAD, CHARLOTTE, NC, 28273","Match","Exact","15732 SMITH BOYD RD, CHARLOTTE, NC, 28273",70552992,"R"
217448,"15732 SWAN LANE","HUNTINGTON BEACH","CA",92649,33.733574391,-118.038615974,448,"15732 SWAN LANE, HUNTINGTON BEACH, CA, 92649","Match","Exact","15732 SWAN LN, HUNTINGTON BEACH, CA, 92649",144013959,"L"
217449,"15733 ELDERWOOD AVE","BATON ROUGE","LA",70816,30.4361188340001,-91.0114480409999,449,"15733 ELDERWOOD AVE, BATON ROUGE, LA, 70816","Match","Exact","15733 ELDERWOOD AVE, BATON ROUGE, LA, 70816",92194731,"L"
217450,"15733 GOLF VIEW DRIVE APT 237","FORT WORTH","TX",76177,NA,NA,450,"15733 GOLF VIEW DRIVE APT 237, FORT WORTH, TX, 76177","No_Match",NA,NA,NA,NA
217451,"15733 N 22ND E AVENUE","SKIATOOK","OK",75070,36.3821959040001,-95.9593324269999,451,"15733 N 22ND E AVENUE, SKIATOOK, OK, 75070","Match","Non_Exact","15733 N 22ND E AVE, SKIATOOK, OK, 74070",625363807,"R"
217452,"15733 PASSAGE AVE APT 2","PARAMOUNT","CA",90723,33.890541774,-118.148750535,452,"15733 PASSAGE AVE APT 2, PARAMOUNT, CA, 90723","Match","Exact","15733 PASSAGE AVE, PARAMOUNT, CA, 90723",639059096,"R"
217453,"15733","OMAHA","NE",68118,NA,NA,453,"15733, OMAHA, NE, 68118","No_Match",NA,NA,NA,NA
217454,"15734 ROAN ROAD","CHINO HILLS","CA",91709,33.966966391,-117.687149999,454,"15734 ROAN ROAD, CHINO HILLS, CA, 91709","Match","Exact","15734 ROAN RD, CHINO HILLS, CA, 91709",629825447,"R"
217455,"15734 SE SWIFT CT","CLACKAMAS","OR",97015,45.4263459160001,-122.500911002,455,"15734 SE SWIFT CT, CLACKAMAS, OR, 97015","Match","Exact","15734 SE SWIFT CT, CLACKAMAS, OR, 97015",633196180,"R"
217456,"15734 VIA CALANOVA","SAN DIEGO","CA",92128,33.0001230230001,-117.064991271,456,"15734 VIA CALANOVA, SAN DIEGO, CA, 92128","Match","Exact","15734 VIA CALANOVA, SAN DIEGO, CA, 92128",195706280,"L"
217457,"15735  PLAINVIEW  AVENUE","DETROIT","MI",48223,42.4049783240001,-83.236360378,457,"15735  PLAINVIEW  AVENUE, DETROIT, MI, 48223","Match","Exact","15735 PLAINVIEW AVE, DETROIT, MI, 48223",95422396,"L"
217458,"15735 112TH ST NW","SOUTH HAVEN","MN",55382,45.314442506,-94.213555666,458,"15735 112TH ST NW, SOUTH HAVEN, MN, 55382","Match","Exact","15735 112TH ST NW, SOUTH HAVEN, MN, 55382",44020756,"L"
217459,"15735 38TH AVE NE","LAKE FOREST PARK","WA",98155,47.743447781,-122.287814939,459,"15735 38TH AVE NE, LAKE FOREST PARK, WA, 98155","Match","Exact","15735 38TH AVE NE, LAKE FOREST PARK, WA, 98155",624999443,"L"
217460,"15735 51ST AVE N","PLYMOUTH","MN",55446,45.0464478390001,-93.479159764,460,"15735 51ST AVE N, PLYMOUTH, MN, 55446","Match","Exact","15735 51ST AVE N, PLYMOUTH, MN, 55446",43860541,"R"
217461,"15735 CAMINITO CERCADO","SAN DIEGO","CA",92128,NA,NA,461,"15735 CAMINITO CERCADO, SAN DIEGO, CA, 92128","No_Match",NA,NA,NA,NA
217462,"15735 NE 144TH PLACE","WOODINVILLE","WA",98072,47.731474269,-122.12868954,462,"15735 NE 144TH PLACE, WOODINVILLE, WA, 98072","Match","Exact","15735 NE 144TH PL, WOODINVILLE, WA, 98072",186926046,"R"
217463,"15735 NORDHOFF ST UNIT 11","NORTH HILLS","CA",91343,34.235583374,-118.47495084,463,"15735 NORDHOFF ST UNIT 11, NORTH HILLS, CA, 91343","Match","Exact","15735 NORDHOFF ST, NORTH HILLS, CA, 91343",141548905,"R"
217464,"15735 NORDHOFF ST","NORTH HILLS","CA",91343,34.235583374,-118.47495084,464,"15735 NORDHOFF ST, NORTH HILLS, CA, 91343","Match","Exact","15735 NORDHOFF ST, NORTH HILLS, CA, 91343",141548905,"R"
217465,"15735 QUORUM DRIVE APT 3323","ADDISON","TX",75001,32.9632279900001,-96.8259309539999,465,"15735 QUORUM DRIVE APT 3323, ADDISON, TX, 75001","Match","Exact","15735 QUORUM DR, ADDISON, TX, 75001",616165664,"L"
217466,"15735 RAVINIA AVENUE APT 2E","ORLAND PARK","IL",60462,41.6031372570001,-87.85938268,466,"15735 RAVINIA AVENUE APT 2E, ORLAND PARK, IL, 60462","Match","Non_Exact","15735 RAVINIA DR, ORLAND PARK, IL, 60462",112380769,"L"
217467,"15735 YOUPON VALLEY DR","HOUSTON","TX",77073,30.001587655,-95.406495594,467,"15735 YOUPON VALLEY DR, HOUSTON, TX, 77073","Match","Exact","15735 YOUPON VALLEY DR, HOUSTON, TX, 77073",625185437,"R"
217468,"15736 HARTSOOK ST","LA","CA",90049,NA,NA,468,"15736 HARTSOOK ST, LA, CA, 90049","No_Match",NA,NA,NA,NA
217469,"15736 TERRACE DR - SUITE O2","OAK FOREST","IL",60452,41.60550176,-87.765083992,469,"15736 TERRACE DR - SUITE O2, OAK FOREST, IL, 60452","Match","Exact","15736 TERRACE DR, OAK FOREST, IL, 60452",111702782,"R"
217470,"15736 W ALMERIA RD","GOODYEAR","AZ",85395,33.4655880330001,-112.397546851,470,"15736 W ALMERIA RD, GOODYEAR, AZ, 85395","Match","Exact","15736 W ALMERIA RD, GOODYEAR, AZ, 85395",618473876,"R"
217471,"15736 W HWY 70","MADILL","OK",73446,34.09998567,-96.806382953,471,"15736 W HWY 70, MADILL, OK, 73446","Match","Non_Exact","15736 US HWY 70, MADILL, OK, 73446",651620342,"L"
217472,"15737 GREENSTONE CIRCLE","PARKER","CO",80134,39.538077736,-104.807005974,472,"15737 GREENSTONE CIRCLE, PARKER, CO, 80134","Match","Exact","15737 GREENSTONE CIR, PARKER, CO, 80134",130824516,"R"
217473,"15737 LA SUBIDA DRIVE UNIT 1","HACIENDA HEIGHTS","CA",91745,33.9904144490001,-117.972212177,473,"15737 LA SUBIDA DRIVE UNIT 1, HACIENDA HEIGHTS, CA, 91745","Match","Non_Exact","15737 LA SUBIDA DR, HACIENDA HTS, CA, 91745",142799094,"L"
217474,"15738 SALEM-ALLIANCE RD","SALEM","OH",44460,NA,NA,474,"15738 SALEM-ALLIANCE RD, SALEM, OH, 44460","No_Match",NA,NA,NA,NA
217475,"15739 PADDOCK DRIVE","MONTVERDE","FL",34756,28.587493452,-81.6951632399999,475,"15739 PADDOCK DRIVE, MONTVERDE, FL, 34756","Match","Exact","15739 PADDOCK DR, MONTVERDE, FL, 34756",94146975,"L"
217476,"1574 6TH STREET","WEST PALM BEACH","FL",33401,26.7166669060001,-80.0757654019999,476,"1574 6TH STREET, WEST PALM BEACH, FL, 33401","Match","Exact","1574 6TH ST, WEST PALM BEACH, FL, 33401",115579879,"L"
217477,"1574 79TH AVE","OAKLAND","CA",94621,37.758495252,-122.17947123,477,"1574 79TH AVE, OAKLAND, CA, 94621","Match","Exact","1574 79TH AVE, OAKLAND, CA, 94621",125009177,"R"
217478,"1574 BAYTREE RD APT B11","VALDOSTA","GA",31602,30.8469663270001,-83.319245988,478,"1574 BAYTREE RD APT B11, VALDOSTA, GA, 31602","Match","Exact","1574 BAYTREE RD, VALDOSTA, GA, 31602",87757940,"R"
217479,"1574 BAYTREE ROAD","VALDOSTA","GA",31602,30.8469663270001,-83.319245988,479,"1574 BAYTREE ROAD, VALDOSTA, GA, 31602","Match","Exact","1574 BAYTREE RD, VALDOSTA, GA, 31602",87757940,"R"
217480,"1574 BEACH AVENUE APT 3L","BRONX","NY",10460,40.839536659,-73.8673656999999,480,"1574 BEACH AVENUE APT 3L, BRONX, NY, 10460","Match","Exact","1574 BEACH AVE, BRONX, NY, 10460",80304622,"R"
217481,"1574 BRANDYWINE LN","LITTLE ELM","TX",75068,33.173224491,-96.9114141539999,481,"1574 BRANDYWINE LN, LITTLE ELM, TX, 75068","Match","Exact","1574 BRANDYWINE LN, LITTLE ELM, TX, 75068",619799805,"R"
217482,"1574 BRONCO WAY","UPLAND","CA",91786,34.1207553020001,-117.672462549,482,"1574 BRONCO WAY, UPLAND, CA, 91786","Match","Exact","1574 BRONCO WAY, UPLAND, CA, 91786",144669669,"R"
217483,"1574 CAMELOT LN","HOFFMAN ESTATES","IL",60010,42.117278033,-88.118246439,483,"1574 CAMELOT LN, HOFFMAN ESTATES, IL, 60010","Match","Exact","1574 CAMELOT LN, HOFFMAN EST, IL, 60010",111689573,"L"
217484,"1574 CANADA HOLLOW ROAD","ANDES","NY",13731,42.1637899350001,-74.7207087529999,484,"1574 CANADA HOLLOW ROAD, ANDES, NY, 13731","Match","Exact","1574 CANADA HOLLOW RD, ANDES, NY, 13731",41618942,"R"
217485,"1574 CHANDLER ST","OAKLAND","CA",94603,37.737805055,-122.163865379,485,"1574 CHANDLER ST, OAKLAND, CA, 94603","Match","Exact","1574 CHANDLER ST, OAKLAND, CA, 94603",618139191,"R"
217486,"1574 CHAPARREL RUN","TYLER","TX",75703,32.222516156,-95.30348133,486,"1574 CHAPARREL RUN, TYLER, TX, 75703","Match","Exact","1574 CHAPARREL RUN, TYLER, TX, 75703",629618897,"R"
217487,"1574 CLUBVIEW DR","ALEXANDER CITY","AL",35010,32.9289719240001,-85.950301694,487,"1574 CLUBVIEW DR, ALEXANDER CITY, AL, 35010","Match","Exact","1574 CLUBVIEW DR, ALEX CITY, AL, 35010",1692809,"L"
217488,"1574 CRESCENT POINTE LANE","VIRGINIA BEACH","VA",23453,36.796508837,-76.102523081,488,"1574 CRESCENT POINTE LANE, VIRGINIA BEACH, VA, 23453","Match","Exact","1574 CRESCENT POINTE LN, VIRGINIA BCH, VA, 23453",122286263,"L"
217489,"1574 DUSTY CANYON ST","HENDERSON","NV",89052,35.9705545840001,-115.128211722,489,"1574 DUSTY CANYON ST, HENDERSON, NV, 89052","Match","Exact","1574 DUSTY CANYON ST, HENDERSON, NV, 89052",201991683,"R"
217490,"1574 E CASTLE CT","PALATINE","IL",60074,42.120508844,-88.006138585,490,"1574 E CASTLE CT, PALATINE, IL, 60074","Match","Exact","1574 E CASTLE CT, PALATINE, IL, 60074",112360267,"L"
217491,"1574 E SHELBY DRIVE","MEMPHIS","TN",38116,35.021066009,-90.012730507,491,"1574 E SHELBY DRIVE, MEMPHIS, TN, 38116","Match","Exact","1574 E SHELBY DR, MEMPHIS, TN, 38116",607504682,"L"
217492,"1574 FITCHBURG","LESLIE","MI",49251,42.447483678,-84.405583064,492,"1574 FITCHBURG, LESLIE, MI, 49251","Match","Non_Exact","1574 FITCHBURG RD, LESLIE, MI, 49251",17509890,"R"
217493,"1574 GLENMONT RD DOWN","CLEVELAND HEIGHTS","OH",44118,41.516592184,-81.579335509,493,"1574 GLENMONT RD DOWN, CLEVELAND HEIGHTS, OH, 44118","Match","Exact","1574 GLENMONT RD, CLEVELAND HEIGHTS, OH, 44118",61122994,"R"
217494,"1574 GLENMONT","CLEVELAND HEIGHT","OH",44118,41.516592184,-81.579335509,494,"1574 GLENMONT, CLEVELAND HEIGHT, OH, 44118","Match","Non_Exact","1574 GLENMONT RD, CLEVELAND, OH, 44118",61122994,"R"
217495,"1574 HOPSCOTCH DRIVE","CHULA VISTA","CA",91915,32.6266306700001,-116.955929403,495,"1574 HOPSCOTCH DRIVE, CHULA VISTA, CA, 91915","Match","Exact","1574 HOPSCOTCH DR, CHULA VISTA, CA, 91915",195764361,"L"
217496,"1574 LAYFIELD RD","PENNSBURG","PA",18073,40.384242726,-75.509007095,496,"1574 LAYFIELD RD, PENNSBURG, PA, 18073","Match","Exact","1574 LAYFIELD RD, PENNSBURG, PA, 18073",135060390,"L"
217497,"1574 MARS AVENUE","LAKEWOOD","OH",44107,41.480487415,-81.803705243,497,"1574 MARS AVENUE, LAKEWOOD, OH, 44107","Match","Exact","1574 MARS AVE, LAKEWOOD, OH, 44107",61100156,"R"
217498,"1574 MOUNTAIN SHADOW TRAIL","STONE MOUNTAIN","GA",30087,33.8282730760001,-84.174149848,498,"1574 MOUNTAIN SHADOW TRAIL, STONE MOUNTAIN, GA, 30087","Match","Exact","1574 MOUNTAIN SHADOW TRL, STONE MOUNTAIN, GA, 30087",23410091,"R"
217499,"1574 MURPHY AVENUE APT 3013","ATLANTA","GA",30310,33.713110231,-84.426013752,499,"1574 MURPHY AVENUE APT 3013, ATLANTA, GA, 30310","Match","Non_Exact","1574 MURPHY AVE SW, ATLANTA, GA, 30310",17345563,"L"
217500,"1574 N PECAN","REEDLEY","CA",93654,36.6103189070001,-119.436971237,500,"1574 N PECAN, REEDLEY, CA, 93654","Match","Non_Exact","1574 N PECAN AVE, REEDLEY, CA, 93654",197594096,"L"
