"ID","Address","City","State","Zip","lat","long","id","input_address","match_indicator","match_type","matched_address","tiger_line_id","tiger_side"
529501,"340 ACADIA PLACE","SAN ANTONIO","TX",78209,NA,NA,1,"340 ACADIA PLACE, SAN ANTONIO, TX, 78209","No_Match",NA,NA,NA,NA
529502,"340 ACORN TRAIL","HALLSVILLE","TX",75650,32.477681999,-94.541279646,2,"340 ACORN TRAIL, HALLSVILLE, TX, 75650","Match","Exact","340 ACORN TRL, HALLSVILLE, TX, 75650",141181743,"R"
529503,"340 ALDEBURGH CIR","SACRAMENTO","CA",95834,38.6511912570001,-121.539010231,3,"340 ALDEBURGH CIR, SACRAMENTO, CA, 95834","Match","Exact","340 ALDEBURGH CIR, SACRAMENTO, CA, 95834",133443906,"R"
529504,"340 ALEMEDA DRIVE","PALM SPRINGS","FL",33461,26.643596157,-80.098906185,4,"340 ALEMEDA DRIVE, PALM SPRINGS, FL, 33461","Match","Exact","340 ALEMEDA DR, PALM SPRINGS, FL, 33461",115273766,"R"
529505,"340 ALEXANDER ST","NEVADA CITY","CA",95959,39.2673724790001,-121.019096662,5,"340 ALEXANDER ST, NEVADA CITY, CA, 95959","Match","Exact","340 ALEXANDER ST, NEVADA CITY, CA, 95959",106561020,"R"
529506,"340 ALFRED ST","NORTH BABYLON","NY",11703,40.731931638,-73.337560835,6,"340 ALFRED ST, NORTH BABYLON, NY, 11703","Match","Exact","340 ALFRED ST, NORTH BABYLON, NY, 11703",113976271,"R"
529507,"340 ALLATOONA SHORES DRIVE","CANTON","GA",30114,34.21038128,-84.564045687,7,"340 ALLATOONA SHORES DRIVE, CANTON, GA, 30114","Match","Exact","340 ALLATOONA SHORES DR, CANTON, GA, 30114",68847791,"R"
529508,"340 ALLISON DRIVE","ATLANTA","GA",30342,33.8547422230001,-84.376783039,8,"340 ALLISON DRIVE, ATLANTA, GA, 30342","Match","Non_Exact","340 ALLISON DR NE, ATLANTA, GA, 30342",17334754,"L"
529509,"340 ANDERS PATH","MARIETTA","GA",30064,33.960324556,-84.577980515,9,"340 ANDERS PATH, MARIETTA, GA, 30064","Match","Non_Exact","340 ANDERS PATH NW, MARIETTA, GA, 30064",614184771,"R"
529510,"340 ANNS WAY","BLAIRSVILLE","GA",30512,34.8494368250001,-84.0315328889999,10,"340 ANNS WAY, BLAIRSVILLE, GA, 30512","Match","Exact","340 ANNS WAY, BLAIRSVILLE, GA, 30512",624364754,"R"
529511,"340 ARBOR DR APT 1163","RIDGELAND","MS",39157,32.4087263960001,-90.1258001259999,11,"340 ARBOR DR APT 1163, RIDGELAND, MS, 39157","Match","Exact","340 ARBOR DR, RIDGELAND, MS, 39157",649904140,"L"
529512,"340 ARBOR DRIVE - APT 2256","RIDGELAND","MS",39157,32.4087263960001,-90.1258001259999,12,"340 ARBOR DRIVE - APT 2256, RIDGELAND, MS, 39157","Match","Exact","340 ARBOR DR, RIDGELAND, MS, 39157",649904140,"L"
529513,"340 AREVA RD","ROOSEVELT","UT",84066,40.3042236540001,-110.012713987,13,"340 AREVA RD, ROOSEVELT, UT, 84066","Match","Exact","340 AREVA RD, ROOSEVELT, UT, 84066",608046065,"L"
529514,"340 ASHETILLA RD","SPRINGFIELD","SC",29146,33.494241554,-81.224181062,14,"340 ASHETILLA RD, SPRINGFIELD, SC, 29146","Match","Exact","340 ASHETILLA RD, SPRINGFIELD, SC, 29146",605670101,"L"
529515,"340 ASHLAND","CHICAGO HEIGHTS","IL",60411,41.525766833,-87.6550721419999,15,"340 ASHLAND, CHICAGO HEIGHTS, IL, 60411","Match","Non_Exact","340 ASHLAND AVE, CHICAGO HEIGHTS, IL, 60411",111710103,"R"
529516,"340 ATLANTIC AVENUE","BAY SHORE","NY",11706,40.7371847100001,-73.254066386,16,"340 ATLANTIC AVENUE, BAY SHORE, NY, 11706","Match","Exact","340 ATLANTIC AVE, BAY SHORE, NY, 11706",113995805,"R"
529517,"340 AURA RD","CLAYTON","NJ",8312,39.6619018600001,-75.100910569,17,"340 AURA RD, CLAYTON, NJ, 8312","Match","Exact","340 AURA RD, CLAYTON, NJ, 08312",134589798,"R"
529518,"340 AURORA HUDSON RD","AURORA","OH",44202,41.2991141090001,-81.357789049,18,"340 AURORA HUDSON RD, AURORA, OH, 44202","Match","Exact","340 AURORA HUDSON RD, AURORA, OH, 44202",137530858,"R"
529519,"340 AVANT","HAZELWOOD","MO",63042,38.7868911320001,-90.3456950089999,19,"340 AVANT, HAZELWOOD, MO, 63042","Match","Non_Exact","340 AVANT DR, HAZELWOOD, MO, 63042",604393546,"L"
529520,"340 AVON ROAD","DE QUEEN","AR",71832,34.093090875,-94.3375891329999,20,"340 AVON ROAD, DE QUEEN, AR, 71832","Match","Exact","340 AVON RD, DE QUEEN, AR, 71832",84823823,"R"
529521,"340 BARCLAY CT","LANGHOME","PA",19047,40.1814578230001,-74.91153281,21,"340 BARCLAY CT, LANGHOME, PA, 19047","Match","Non_Exact","340 BARCLAY CT, LANGHORNE, PA, 19047",134727351,"L"
529522,"340 BARDOLIER LANE","ALPHARETTA","GA",30022,34.0353116970001,-84.2291509,22,"340 BARDOLIER LANE, ALPHARETTA, GA, 30022","Match","Exact","340 BARDOLIER LN, ALPHARETTA, GA, 30022",17398957,"L"
529523,"340 BARNEYS JOY RD","DARTMOUTH","MA",2748,41.534236181,-71.001424571,23,"340 BARNEYS JOY RD, DARTMOUTH, MA, 2748","Match","Exact","340 BARNEYS JOY RD, DARTMOUTH, MA, 02748",46764454,"R"
529524,"340 BARNEYS JOY ROAD","DARTMOUTH","MA",2748,41.534236181,-71.001424571,24,"340 BARNEYS JOY ROAD, DARTMOUTH, MA, 2748","Match","Exact","340 BARNEYS JOY RD, DARTMOUTH, MA, 02748",46764454,"R"
529525,"340 BAY AVENUE","HUNTINGTON","NY",11743,40.9041279670001,-73.429969703,25,"340 BAY AVENUE, HUNTINGTON, NY, 11743","Match","Exact","340 BAY AVE, HUNTINGTON, NY, 11743",114249328,"R"
529526,"340 BEALE ST","QUINCY","MA",2170,42.2604661460001,-71.028522331,26,"340 BEALE ST, QUINCY, MA, 2170","Match","Exact","340 BEALE ST, QUINCY, MA, 02170",87249074,"L"
529527,"340 BEALE STREET","QUINCY","MA",2170,42.2604661460001,-71.028522331,27,"340 BEALE STREET, QUINCY, MA, 2170","Match","Exact","340 BEALE ST, QUINCY, MA, 02170",87249074,"L"
529528,"340 BEATON CREEK RD","BISMARCK","AR",71929,34.3002016880001,-93.2627010159999,28,"340 BEATON CREEK RD, BISMARCK, AR, 71929","Match","Exact","340 BEATON CREEK RD, BISMARCK, AR, 71929",23912581,"R"
529529,"340 BEAVER STREET","LANCASTER","PA",17603,40.0324259720001,-76.3057491229999,29,"340 BEAVER STREET, LANCASTER, PA, 17603","Match","Exact","340 BEAVER ST, LANCASTER, PA, 17603",179664607,"R"
529530,"340 BEDFORD SPRINGS ROAD","LYNCHBURG","VA",24502,37.2959623740001,-79.269750049,30,"340 BEDFORD SPRINGS ROAD, LYNCHBURG, VA, 24502","Match","Exact","340 BEDFORD SPRINGS RD, LYNCHBURG, VA, 24502",648433367,"L"
529531,"340 BELHAVEN ST","MEMPHIS","TN",38117,35.140318876,-89.921785332,31,"340 BELHAVEN ST, MEMPHIS, TN, 38117","Match","Exact","340 BELHAVEN ST, MEMPHIS, TN, 38117",72916588,"R"
529532,"340 BELLVUE COURT","FORT WORTH","TX",76134,32.641327361,-97.328513299,32,"340 BELLVUE COURT, FORT WORTH, TX, 76134","Match","Exact","340 BELLVUE CT, FORT WORTH, TX, 76134",101895249,"R"
529533,"340 BENVENUE AVE","LOS ALTOS","CA",94024,37.3755050010001,-122.105511696,33,"340 BENVENUE AVE, LOS ALTOS, CA, 94024","Match","Exact","340 BENVENUE AVE, LOS ALTOS, CA, 94024",122956060,"R"
529534,"340 BLAIRSFERRY CROSSING","HIAWATHA","IA",52233,42.0393717110001,-91.705654254,34,"340 BLAIRSFERRY CROSSING, HIAWATHA, IA, 52233","Match","Exact","340 BLAIRSFERRY CROSSING, HIAWATHA, IA, 52233",17041148,"L"
529535,"340 BLAKE RIDGE DRIVE","SCOTT DEPOT","WV",25560,38.473532103,-81.869809141,35,"340 BLAKE RIDGE DRIVE, SCOTT DEPOT, WV, 25560","Match","Exact","340 BLAKE RIDGE DR, SCOTT DEPOT, WV, 25560",630313235,"R"
529536,"340 BRAEWOOD DRIVE","CHILLICOTHE","OH",45601,39.321758023,-83.0083307909999,36,"340 BRAEWOOD DRIVE, CHILLICOTHE, OH, 45601","Match","Exact","340 BRAEWOOD DR, CHILLICOTHE, OH, 45601",37496366,"R"
529537,"340 BREEZEWAY DRIVE","LONGVIEW","WA",98632,46.1937398810001,-123.066729475,37,"340 BREEZEWAY DRIVE, LONGVIEW, WA, 98632","Match","Exact","340 BREEZEWAY DR, LONGVIEW, WA, 98632",624058220,"L"
529538,"340 BRIDGE STREET","NORTHAMPTON","MA",1060,42.3310174810001,-72.622930341,38,"340 BRIDGE STREET, NORTHAMPTON, MA, 1060","Match","Exact","340 BRIDGE ST, NORTHAMPTON, MA, 01060",638995022,"L"
529539,"340 BROAD ST","MENASHA","WI",54952,44.20204747,-88.4514742819999,39,"340 BROAD ST, MENASHA, WI, 54952","Match","Exact","340 BROAD ST, MENASHA, WI, 54952",74492096,"L"
529540,"340 BROADWAY","BARLOW","KY",42024,37.051876344,-89.0479326719999,40,"340 BROADWAY, BARLOW, KY, 42024","Match","Exact","340 BROADWAY, BARLOW, KY, 42024",640100775,"L"
529541,"340 BROOKSIDE DR","ANN ARBOR","MI",48105,42.3040392680001,-83.739944384,41,"340 BROOKSIDE DR, ANN ARBOR, MI, 48105","Match","Exact","340 BROOKSIDE DR, ANN ARBOR, MI, 48105",26013296,"R"
529542,"340 BROWN ROAD","SPENCER","NY",14883,42.3341466680001,-76.525192491,42,"340 BROWN ROAD, SPENCER, NY, 14883","Match","Exact","340 BROWN RD, SPENCER, NY, 14883",18883417,"L"
529543,"340 BROWN ST","BLUFF CITY","TN",37618,36.5117027470001,-82.212196066,43,"340 BROWN ST, BLUFF CITY, TN, 37618","Match","Exact","340 BROWN ST, BLUFF CITY, TN, 37618",127840419,"R"
529544,"340 BUFFINGTON DR","GILLSVILLE","GA",30543,34.244198231,-83.666539668,44,"340 BUFFINGTON DR, GILLSVILLE, GA, 30543","Match","Exact","340 BUFFINGTON DR, GILLSVILLE, GA, 30543",642629709,"L"
529545,"340 BURCHETT ST APT 313","GLENDALE","CA",91203,34.1574126090001,-118.259404454,45,"340 BURCHETT ST APT 313, GLENDALE, CA, 91203","Match","Exact","340 BURCHETT ST, GLENDALE, CA, 91203",241240349,"L"
529546,"340 BURCHETT ST UNIT 110","GLENDALE","CA",91203,34.1574126090001,-118.259404454,46,"340 BURCHETT ST UNIT 110, GLENDALE, CA, 91203","Match","Exact","340 BURCHETT ST, GLENDALE, CA, 91203",241240349,"L"
529547,"340 BURGESS ROAD","ATTALLA","AL",35954,33.987831704,-86.148599216,47,"340 BURGESS ROAD, ATTALLA, AL, 35954","Match","Exact","340 BURGESS RD, ATTALLA, AL, 35954",66768201,"R"
529548,"340 BUSINESS HWY 412","HUNTSVILLE","AR",72740,36.109559119,-93.7639826509999,48,"340 BUSINESS HWY 412, HUNTSVILLE, AR, 72740","Match","Non_Exact","340 BUS HWY 412, HUNTSVILLE, AR, 72740",644529848,"R"
529549,"340 BUTLER DRIVE","CHALFONT","PA",18914,NA,NA,49,"340 BUTLER DRIVE, CHALFONT, PA, 18914","No_Match",NA,NA,NA,NA
529550,"340 C STREET","WEST SACRAMENTO","CA",95605,38.588577398,-121.510559474,50,"340 C STREET, WEST SACRAMENTO, CA, 95605","Match","Exact","340 C ST, WEST SACRAMENTO, CA, 95605",67693561,"R"
529551,"340 CAPE MARCO DRIVE UNIT 2101","MARCO ISLAND","FL",34145,NA,NA,51,"340 CAPE MARCO DRIVE UNIT 2101, MARCO ISLAND, FL, 34145","No_Match",NA,NA,NA,NA
529552,"340 CARL STREET","SAN FRANCISCO","CA",94117,37.7651022250001,-122.455488956,52,"340 CARL STREET, SAN FRANCISCO, CA, 94117","Match","Exact","340 CARL ST, SAN FRANCISCO, CA, 94117",192282303,"R"
529553,"340 CARLTON DRIVE","CHESHIRE","CT",6410,41.5170697410001,-72.915586043,53,"340 CARLTON DRIVE, CHESHIRE, CT, 6410","Match","Exact","340 CARLTON DR, CHESHIRE, CT, 06410",3737261,"L"
529554,"340 CARRIAGE CHASE","FAYETTEVILLE","GA",30214,33.457915497,-84.443824962,54,"340 CARRIAGE CHASE, FAYETTEVILLE, GA, 30214","Match","Exact","340 CARRIAGE CHASE, FAYETTEVILLE, GA, 30214",75934659,"L"
529555,"340 CATHER ROAD","BERRYVILLE","VA",22611,39.191353559,-78.033783473,55,"340 CATHER ROAD, BERRYVILLE, VA, 22611","Match","Exact","340 CATHER RD, BERRYVILLE, VA, 22611",653463523,"L"
529556,"340 CHAFFIN RD","ROSWELL","GA",30075,34.061938522,-84.372070907,56,"340 CHAFFIN RD, ROSWELL, GA, 30075","Match","Exact","340 CHAFFIN RD, ROSWELL, GA, 30075",17351785,"L"
529557,"340 CHARLOTTE RD","RUTHERFORDTON","NC",28139,35.3645557030001,-81.9506817879999,57,"340 CHARLOTTE RD, RUTHERFORDTON, NC, 28139","Match","Exact","340 CHARLOTTE RD, RUTHERFORDTON, NC, 28139",615779808,"L"
529558,"340 CHASTAIN MANOR","NORCROSS","GA",30071,33.9485486740001,-84.2124230479999,58,"340 CHASTAIN MANOR, NORCROSS, GA, 30071","Match","Non_Exact","340 CHASTAIN MANOR DR, NORCROSS, GA, 30071",88914562,"R"
529559,"340 CHERRY STREET-APT 3F","NEW YORK","NY",10002,40.711606047,-73.986073814,59,"340 CHERRY STREET-APT 3F, NEW YORK, NY, 10002","Match","Non_Exact","340 CHERRY ST, NEW YORK, NY, 10002",59654342,"L"
529560,"340 CHERRY STREET","NEW YORK","NY",10002,40.711606047,-73.986073814,60,"340 CHERRY STREET, NEW YORK, NY, 10002","Match","Exact","340 CHERRY ST, NEW YORK, NY, 10002",59654342,"L"
529561,"340 CHESAPEAKE DRIVE","SALISBURY","NC",28147,35.683690283,-80.529757428,61,"340 CHESAPEAKE DRIVE, SALISBURY, NC, 28147","Match","Exact","340 CHESAPEAKE DR, SALISBURY, NC, 28147",25282877,"R"
529562,"340 CHESTNUT AVE","OAKLYN","NJ",8107,39.9153723790001,-75.096380272,62,"340 CHESTNUT AVE, OAKLYN, NJ, 8107","Match","Exact","340 CHESTNUT AVE, OAKLYN, NJ, 08107",134348232,"L"
529563,"340 CHEYENNE ROAD","LAFAYETTE","NJ",7848,41.0500784230001,-74.6987713899999,63,"340 CHEYENNE ROAD, LAFAYETTE, NJ, 7848","Match","Exact","340 CHEYENNE RD, LAFAYETTE, NJ, 07848",98036068,"L"
529564,"340 CHIMNEY OAK DRIVE","JOPPA","MD",21085,39.399650261,-76.3398145749999,64,"340 CHIMNEY OAK DRIVE, JOPPA, MD, 21085","Match","Exact","340 CHIMNEY OAK DR, JOPPA, MD, 21085",191644316,"L"
529565,"340 CLEMMER DRIVE","CHUCKEY","TN",37641,36.2088112660001,-82.6812017029999,65,"340 CLEMMER DRIVE, CHUCKEY, TN, 37641","Match","Exact","340 CLEMMER DR, CHUCKEY, TN, 37641",639348581,"R"
529566,"340 CLINTON STREET","BROOKLYN","NY",11231,40.6851996570001,-73.9967972969999,66,"340 CLINTON STREET, BROOKLYN, NY, 11231","Match","Exact","340 CLINTON ST, BROOKLYN, NY, 11231",59074838,"R"
529567,"340 CLUB MANOR DRIVE","SUN CITY CENTER","FL",33573,27.709340893,-82.347610741,67,"340 CLUB MANOR DRIVE, SUN CITY CENTER, FL, 33573","Match","Exact","340 CLUB MANOR DR, SUN CITY CENTER, FL, 33573",648425895,"L"
529568,"340 COLEMAN DRIVE","SAN RAFAEL","CA",94901,37.986401098,-122.530241401,68,"340 COLEMAN DRIVE, SAN RAFAEL, CA, 94901","Match","Exact","340 COLEMAN DR, SAN RAFAEL, CA, 94901",192786041,"R"
529569,"340 COLES NECK RD","WELLFLEET","MA",2667,41.94934894,-70.044709159,69,"340 COLES NECK RD, WELLFLEET, MA, 2667","Match","Exact","340 COLES NECK RD, WELLFLEET, MA, 02667",121604016,"L"
529570,"340 CONCH SHELL LN","CASSELBERRY","FL",32707,28.6639165780001,-81.337180508,70,"340 CONCH SHELL LN, CASSELBERRY, FL, 32707","Match","Exact","340 CONCH SHELL LN, CASSELBERRY, FL, 32707",93743605,"R"
529571,"340 COND PASEO DEL BOSQUE APT 2207","SAN JUAN","PR",926,NA,NA,71,"340 COND PASEO DEL BOSQUE APT 2207, SAN JUAN, PR, 926","No_Match",NA,NA,NA,NA
529572,"340 CONFIDENCE CT APT E","FAYETTEVILLE","NC",28301,35.044193846,-78.8691973049999,72,"340 CONFIDENCE CT APT E, FAYETTEVILLE, NC, 28301","Match","Exact","340 CONFIDENCE CT, FAYETTEVILLE, NC, 28301",647177210,"L"
529573,"340 CORONA AVE","DAYTON","OH",45419,39.71298412,-84.165423414,73,"340 CORONA AVE, DAYTON, OH, 45419","Match","Exact","340 CORONA AVE, DAYTON, OH, 45419",143581509,"R"
529574,"340 COUNTY HWY 169","BRILLIANT","AL",35548,34.107803899,-87.71532863,74,"340 COUNTY HWY 169, BRILLIANT, AL, 35548","Match","Non_Exact","340 CO RD 169, BRILLIANT, AL, 35548",130619457,"L"
529575,"340 COUNTY ROAD 1584","AVINGER","TX",75630,32.91674276,-94.5528378939999,75,"340 COUNTY ROAD 1584, AVINGER, TX, 75630","Match","Exact","340 CO RD 1584, AVINGER, TX, 75630",57056893,"R"
529576,"340 COUNTY ROAD 471","ALICE","TX",78332,27.66636277,-98.090152087,76,"340 COUNTY ROAD 471, ALICE, TX, 78332","Match","Exact","340 CO RD 471, ALICE, TX, 78332",21515995,"R"
529577,"340 CR 324","EL CAMPO","TX",77437,29.0563516010001,-96.264545573,77,"340 CR 324, EL CAMPO, TX, 77437","Match","Exact","340 CO RD 324, EL CAMPO, TX, 77437",42513818,"L"
529578,"340 CREEKSIDE DRIVE","ALPHARETTA","GA",30022,34.057934903,-84.2257121499999,78,"340 CREEKSIDE DRIVE, ALPHARETTA, GA, 30022","Match","Non_Exact","340 CREEKSIDE CT, ALPHARETTA, GA, 30022",642888708,"L"
529579,"340 CREEKWOOD DR","MT WASHINGTON","KY",40047,38.0357467200001,-85.5295540979999,79,"340 CREEKWOOD DR, MT WASHINGTON, KY, 40047","Match","Exact","340 CREEKWOOD DR, MOUNT WASHINGTON, KY, 40047",47735863,"L"
529580,"340 CRESTWOOD CIR","ROYAL PALM BEACH","FL",33411,26.68855015,-80.2458415249999,80,"340 CRESTWOOD CIR, ROYAL PALM BEACH, FL, 33411","Match","Exact","340 CRESTWOOD CIR, ROYAL PALM BEACH, FL, 33411",640944146,"R"
529581,"340 CUMBERLAND DR","HARROGATE","TN",37752,36.5832114880001,-83.628428624,81,"340 CUMBERLAND DR, HARROGATE, TN, 37752","Match","Exact","340 CUMBERLAND DR, HARROGATE, TN, 37752",42167574,"L"
529582,"340 DB WILLIAMSON RD","LOUISVILLE","MS",39339,33.0945360380001,-89.037432256,82,"340 DB WILLIAMSON RD, LOUISVILLE, MS, 39339","Match","Non_Exact","340 D B WILLIAMSON RD, LOUISVILLE, MS, 39339",608055853,"L"
529583,"340 DEEP WOODS CT","CARLISLE","OH",45005,39.581841873,-84.307087526,83,"340 DEEP WOODS CT, CARLISLE, OH, 45005","Match","Exact","340 DEEP WOODS CT, CARLISLE, OH, 45005",647133492,"L"
529584,"340 DEVONSHIRE DR","PROSPER","TX",75078,33.2497043770001,-96.804992108,84,"340 DEVONSHIRE DR, PROSPER, TX, 75078","Match","Exact","340 DEVONSHIRE DR, PROSPER, TX, 75078",624753069,"R"
529585,"340 DIANE LANE","SOLDOTNA","AK",99611,60.4965129940001,-151.101679896,85,"340 DIANE LANE, SOLDOTNA, AK, 99611","Match","Non_Exact","340 DIANE LN, SOLDOTNA, AK, 99669",191032915,"L"
529586,"340 DIXIE CLUB ROAD","WINSTON SALEM","NC",27107,35.99533294,-80.2258758849999,86,"340 DIXIE CLUB ROAD, WINSTON SALEM, NC, 27107","Match","Exact","340 DIXIE CLUB RD, WINSTON SALEM, NC, 27107",604817635,"R"
529587,"340 DOGWOOD TRAIL","MABELTON","GA",30067,33.9437087220001,-84.416463994,87,"340 DOGWOOD TRAIL, MABELTON, GA, 30067","Match","Non_Exact","340 DOGWOOD TRL, MARIETTA, GA, 30067",17267905,"L"
529588,"340 DON LANE","CINCINNATI","OH",45238,39.0918328720001,-84.604550807,88,"340 DON LANE, CINCINNATI, OH, 45238","Match","Exact","340 DON LN, CINCINNATI, OH, 45238",103918863,"R"
529589,"340 DRIVEWAY ST","FAIRBANKS","AK",99701,64.8471258870001,-147.724246551,89,"340 DRIVEWAY ST, FAIRBANKS, AK, 99701","Match","Exact","340 DRIVEWAY ST, FAIRBANKS, AK, 99701",190893596,"L"
529590,"340 DRY RIDGE RD","WEST ALEXANDER","PA",15376,40.132009328,-80.496297953,90,"340 DRY RIDGE RD, WEST ALEXANDER, PA, 15376","Match","Exact","340 DRY RIDGE RD, W ALEXANDER, PA, 15376",52836225,"R"
529591,"340 E 1ST ST 1649","TUSTIN","CA",92781,NA,NA,91,"340 E 1ST ST 1649, TUSTIN, CA, 92781","No_Match",NA,NA,NA,NA
529592,"340 E 20TH ST","MERCED","CA",95340,37.2996083300001,-120.468521138,92,"340 E 20TH ST, MERCED, CA, 95340","Match","Exact","340 E 20TH ST, MERCED, CA, 95340",125282428,"L"
529593,"340 E 23RD ST APT 8A","NEW YORK","NY",10010,40.737378929,-73.979800003,93,"340 E 23RD ST APT 8A, NEW YORK, NY, 10010","Match","Non_Exact","340 E 23RD ST, NEW YORK, NY, 10010",59654561,"R"
529594,"340 E 34TH ST 14M","NEW YORK","NY",10016,40.744251171,-73.974634222,94,"340 E 34TH ST 14M, NEW YORK, NY, 10016","Match","Non_Exact","340 E 34TH ST, NEW YORK, NY, 10016",59654497,"R"
529595,"340 E 450 S","IVINS","UT",84738,37.160287124,-113.671381734,95,"340 E 450 S, IVINS, UT, 84738","Match","Exact","340 E 450 S, IVINS, UT, 84738",166188819,"R"
529596,"340 E BROAD ST","NANTICOKE","PA",18634,41.204555392,-75.99731375,96,"340 E BROAD ST, NANTICOKE, PA, 18634","Match","Exact","340 E BROAD ST, NANTICOKE, PA, 18634",604529006,"L"
529597,"340 E CHURCH AVE","RIDGECREST","CA",93555,35.6189085130001,-117.665094575,97,"340 E CHURCH AVE, RIDGECREST, CA, 93555","Match","Exact","340 E CHURCH AVE, RIDGECREST, CA, 93555",109036437,"L"
529598,"340 E FOOTHILL BLVD BOX 705","CLAREMONT","CA",91711,NA,NA,98,"340 E FOOTHILL BLVD BOX 705, CLAREMONT, CA, 91711","Tie",NA,NA,NA,NA
529599,"340 E HARVARD AVE","FRESNO","CA",93704,36.7739774230001,-119.808049672,99,"340 E HARVARD AVE, FRESNO, CA, 93704","Match","Exact","340 E HARVARD AVE, FRESNO, CA, 93704",197574581,"R"
529600,"340 E HARVARD RD UNIT 217","BURBANK","CA",91502,34.186715598,-118.312667654,100,"340 E HARVARD RD UNIT 217, BURBANK, CA, 91502","Match","Non_Exact","340 E HARVARD RD, BURBANK, CA, 91502",241240058,"R"
529601,"340 E HARVARD RD UNIT 715","BURBANK","CA",91502,34.186715598,-118.312667654,101,"340 E HARVARD RD UNIT 715, BURBANK, CA, 91502","Match","Non_Exact","340 E HARVARD RD, BURBANK, CA, 91502",241240058,"R"
529602,"340 E HARVARD RD UNIT 802","BURBANK","CA",91502,34.186715598,-118.312667654,102,"340 E HARVARD RD UNIT 802, BURBANK, CA, 91502","Match","Non_Exact","340 E HARVARD RD, BURBANK, CA, 91502",241240058,"R"
529603,"340 E HENRY ST","WOOSTER","OH",44691,40.796392917,-81.9351856,103,"340 E HENRY ST, WOOSTER, OH, 44691","Match","Exact","340 E HENRY ST, WOOSTER, OH, 44691",58734984,"L"
529604,"340 E KELSO ST","INGLEWOOD","CA",90301,33.958665135,-118.350896694,104,"340 E KELSO ST, INGLEWOOD, CA, 90301","Match","Exact","340 E KELSO ST, INGLEWOOD, CA, 90301",142750152,"R"
529605,"340 E MAIN ST SUITE 201","AUBURN","WA",98002,47.282000221,-122.252823062,105,"340 E MAIN ST SUITE 201, AUBURN, WA, 98002","Match","Non_Exact","340 MAIN ST, AUBURN, WA, 98001",186655500,"R"
529606,"340 E MARKET STREET","STOCKTON","CA",95204,37.95224983,-121.286359042,106,"340 E MARKET STREET, STOCKTON, CA, 95204","Match","Non_Exact","340 E MARKET ST, STOCKTON, CA, 95202",133850502,"R"
529607,"340 E MOSHOLU PKWY S SUITE 2C","BRONX","NY",10458,40.870546034,-73.882028049,107,"340 E MOSHOLU PKWY S SUITE 2C, BRONX, NY, 10458","Match","Exact","340 MOSHOLU PKWY S, BRONX, NY, 10458",80298861,"R"
529608,"340 E NORTH WATER ST UNIT 4900","CHICAGO","IL",60611,NA,NA,108,"340 E NORTH WATER ST UNIT 4900, CHICAGO, IL, 60611","No_Match",NA,NA,NA,NA
529609,"340 E PALM LN APT 330","PHOENIX","AZ",85004,33.469366773,-112.066485385,109,"340 E PALM LN APT 330, PHOENIX, AZ, 85004","Match","Non_Exact","340 E PALM LN, PHOENIX, AZ, 85004",128213055,"L"
529610,"340 E PARK ST","OWATONNA","MN",55060,44.0705728340001,-93.2199630919999,110,"340 E PARK ST, OWATONNA, MN, 55060","Match","Non_Exact","340 PARK ST SE, OWATONNA, MN, 55060",38171831,"R"
529611,"340 E RANDOLPH APT 1803","CHICAGO","IL",60601,NA,NA,111,"340 E RANDOLPH APT 1803, CHICAGO, IL, 60601","No_Match",NA,NA,NA,NA
529612,"340 E RANDOLPH ST  UNIT 5803","CHICAGO","IL",60601,41.8845197910001,-87.620018584,112,"340 E RANDOLPH ST  UNIT 5803, CHICAGO, IL, 60601","Match","Non_Exact","340 E RANDOLPH ST, CHICAGO, IL, 60601",605015764,"L"
529613,"340 E RANDOLPH ST","CHICAGO","IL",60601,41.8845197910001,-87.620018584,113,"340 E RANDOLPH ST, CHICAGO, IL, 60601","Match","Exact","340 E RANDOLPH ST, CHICAGO, IL, 60601",605015764,"L"
529614,"340 E RENTFRO WAY","NEWBERG","OR",97132,45.3068948960001,-122.976330711,114,"340 E RENTFRO WAY, NEWBERG, OR, 97132","Match","Exact","340 RENTFRO WAY, NEWBERG, OR, 97132",649852454,"R"
529615,"340 E RIVERDALE AVENUE","ORANGE","CA",92865,33.844182205,-117.849233448,115,"340 E RIVERDALE AVENUE, ORANGE, CA, 92865","Match","Exact","340 E RIVERDALE AVE, ORANGE, CA, 92865",144029429,"R"
529616,"340 E WASHINGTON ST","IONIA","MI",48846,42.9842916420001,-85.055887399,116,"340 E WASHINGTON ST, IONIA, MI, 48846","Match","Exact","340 E WASHINGTON ST, IONIA, MI, 48846",12145322,"L"
529617,"340 EAST 23RD ST APT 12I","NEW YORK","NY",10010,40.737388627,-73.979821282,117,"340 EAST 23RD ST APT 12I, NEW YORK, NY, 10010","Match","Exact","340 E 23RD ST, NEW YORK, NY, 10010",59654561,"R"
529618,"340 EAST 36TH","EUGENE","OR",97405,44.0159408110001,-123.084245731,118,"340 EAST 36TH, EUGENE, OR, 97405","Match","Non_Exact","340 E 36TH AVE, EUGENE, OR, 97405",178175365,"R"
529619,"340 EAST 38TH STREET","CHICAGO","IL",60653,41.825647304,-87.6179946829999,119,"340 EAST 38TH STREET, CHICAGO, IL, 60653","Match","Exact","340 E 38TH ST, CHICAGO, IL, 60653",605538390,"L"
529620,"340 EAST 5TH STREET UNIT B2","NEW YORK","NY",10003,40.726367205,-73.9879879,120,"340 EAST 5TH STREET UNIT B2, NEW YORK, NY, 10003","Match","Exact","340 E 5TH ST, NEW YORK, NY, 10003",59654040,"R"
529621,"340 EAST 63RD STREET SUITE 2F","NEW YORK","NY",10065,40.762543298,-73.961176022,121,"340 EAST 63RD STREET SUITE 2F, NEW YORK, NY, 10065","Match","Exact","340 E 63RD ST, NEW YORK, NY, 10065",611798331,"R"
529622,"340 EAST 64TH STREET 9D","NEW YORK","NY",10065,40.7632965980001,-73.9610275169999,122,"340 EAST 64TH STREET 9D, NEW YORK, NY, 10065","Match","Exact","340 E 64TH ST, NEW YORK, NY, 10065",650086512,"R"
529623,"340 EAST 64TH STREET APT 2G","NEW UYORK","NY",10065,40.7632965980001,-73.9610275169999,123,"340 EAST 64TH STREET APT 2G, NEW UYORK, NY, 10065","Match","Non_Exact","340 E 64TH ST, NEW YORK, NY, 10065",650086512,"R"
529624,"340 EAST 64TH STREET APT 2G","NEW YORK","NY",10065,40.7632965980001,-73.9610275169999,124,"340 EAST 64TH STREET APT 2G, NEW YORK, NY, 10065","Match","Exact","340 E 64TH ST, NEW YORK, NY, 10065",650086512,"R"
529625,"340 EAST 64TH STREET","NEW YORK","NY",10065,40.7632965980001,-73.9610275169999,125,"340 EAST 64TH STREET, NEW YORK, NY, 10065","Match","Exact","340 E 64TH ST, NEW YORK, NY, 10065",650086512,"R"
529626,"340 EAST 66TH STREET APT 4F","NEW YORK","NY",10065,40.7645744980001,-73.960173002,126,"340 EAST 66TH STREET APT 4F, NEW YORK, NY, 10065","Match","Exact","340 E 66TH ST, NEW YORK, NY, 10065",59657564,"R"
529627,"340 EAST BELLEVUE AVE","BEVERLY SHORES","IN",46301,41.685713752,-86.97799379,127,"340 EAST BELLEVUE AVE, BEVERLY SHORES, IN, 46301","Match","Exact","340 E BELLEVUE AVE, BEVERLY SHORES, IN, 46301",631996787,"L"
529628,"340 EAST MAIN STREET","ROMNEY","WV",26757,NA,NA,128,"340 EAST MAIN STREET, ROMNEY, WV, 26757","Tie",NA,NA,NA,NA
529629,"340 EAST MAIN STREET","WASHINGTONVILLE","OH",44490,40.900631026,-80.762057856,129,"340 EAST MAIN STREET, WASHINGTONVILLE, OH, 44490","Match","Exact","340 E MAIN ST, WASHINGTONVILLE, OH, 44490",63644830,"L"
529630,"340 EAST RIDGEWOOD AVE","GALLOWAY","NJ",8205,39.456211807,-74.501873712,130,"340 EAST RIDGEWOOD AVE, GALLOWAY, NJ, 8205","Match","Exact","340 E RIDGEWOOD AVE, GALLOWAY, NJ, 08205",202535473,"L"
529631,"340 EGGERT RD","BUFFALO","NY",14215,42.9360590910001,-78.7990183539999,131,"340 EGGERT RD, BUFFALO, NY, 14215","Match","Exact","340 EGGERT RD, BUFFALO, NY, 14215",48297286,"L"
529632,"340 EISENHOWER DR BLDG 300B","SAVANNAH","GA",31406,32.0085318390001,-81.108555075,132,"340 EISENHOWER DR BLDG 300B, SAVANNAH, GA, 31406","Match","Exact","340 EISENHOWER DR, SAVANNAH, GA, 31406",6173505,"L"
529633,"340 EISENHOWER DR SUITE 1200","SAVANNAH","GA",31406,32.0085318390001,-81.108555075,133,"340 EISENHOWER DR SUITE 1200, SAVANNAH, GA, 31406","Match","Exact","340 EISENHOWER DR, SAVANNAH, GA, 31406",6173505,"L"
529634,"340 ELGIE","VIDOR","TX",77662,30.131843862,-94.019746722,134,"340 ELGIE, VIDOR, TX, 77662","Match","Non_Exact","340 ELGIE ST, VIDOR, TX, 77662",74003507,"L"
529635,"340 ELGIE","VIDOR","TX",77663,NA,NA,135,"340 ELGIE, VIDOR, TX, 77663","No_Match",NA,NA,NA,NA
529636,"340 ELM STREET","RAVENNA","OH",44266,41.161477663,-81.238439311,136,"340 ELM STREET, RAVENNA, OH, 44266","Match","Exact","340 ELM ST, RAVENNA, OH, 44266",137518990,"R"
529637,"340 ENTERPRISE DRIVE","BRADFORD","IL",61421,41.1785017190001,-89.6513492999999,137,"340 ENTERPRISE DRIVE, BRADFORD, IL, 61421","Match","Exact","340 ENTERPRISE DR, BRADFORD, IL, 61421",8974966,"R"
529638,"340 ESTATES DRIVE","ATHENS","OH",45701,39.2916305310001,-82.155643208,138,"340 ESTATES DRIVE, ATHENS, OH, 45701","Match","Exact","340 ESTATES DR, ATHENS, OH, 45701",37096809,"R"
529639,"340 FAIRVIEW RD","PLEASANT PLAINS","AR",72568,35.5766744200001,-91.677609675,139,"340 FAIRVIEW RD, PLEASANT PLAINS, AR, 72568","Match","Non_Exact","340 FAIRVIEW DR, PLEASANT PLAINS, AR, 72568",41655404,"R"
529640,"340 FAWCETT CHURCH ROAD","BRIDGEVILLE","PA",15017,NA,NA,140,"340 FAWCETT CHURCH ROAD, BRIDGEVILLE, PA, 15017","No_Match",NA,NA,NA,NA
529641,"340 FEDDISBURG RD","ALPINE","AL",35014,33.4180266610001,-86.261931335,141,"340 FEDDISBURG RD, ALPINE, AL, 35014","Match","Exact","340 FEDDISBURG RD, ALPINE, AL, 35014",66960631,"L"
529642,"340 FOXFORD DRIVE","BUFFALO GROVE","IL",60089,42.2001651680001,-87.965711915,142,"340 FOXFORD DRIVE, BUFFALO GROVE, IL, 60089","Match","Exact","340 FOXFORD DR, BUFFALO GROVE, IL, 60089",119719892,"R"
529643,"340 FREMONT ST APT 2806","SAN FRANCISCO","CA",94105,37.787500983,-122.392981049,143,"340 FREMONT ST APT 2806, SAN FRANCISCO, CA, 94105","Match","Exact","340 FREMONT ST, SAN FRANCISCO, CA, 94105",650099888,"R"
529644,"340 FREMONT ST","SAN FRANCISCO","CA",94105,37.787500983,-122.392981049,144,"340 FREMONT ST, SAN FRANCISCO, CA, 94105","Match","Exact","340 FREMONT ST, SAN FRANCISCO, CA, 94105",650099888,"R"
529645,"340 GAINES OAK WAY","SUWANEE","GA",30024,34.0867119860001,-84.084334424,145,"340 GAINES OAK WAY, SUWANEE, GA, 30024","Match","Exact","340 GAINES OAK WAY, SUWANEE, GA, 30024",628062498,"L"
529646,"340 GARRY ST","COLOMA","MI",49038,42.181521983,-86.313340691,146,"340 GARRY ST, COLOMA, MI, 49038","Match","Exact","340 GARRY ST, COLOMA, MI, 49038",119981876,"L"
529647,"340 GILLESPIE ROAD APT 139","MADISON","AL",35758,34.7287905360001,-86.752130059,147,"340 GILLESPIE ROAD APT 139, MADISON, AL, 35758","Match","Exact","340 GILLESPIE RD, MADISON, AL, 35758",58216055,"R"
529648,"340 GLEN LAKE DRIVE","ATLANTA","GA",30327,33.9129764640001,-84.3980194759999,148,"340 GLEN LAKE DRIVE, ATLANTA, GA, 30327","Match","Non_Exact","340 GLEN LAKE DR NW, ATLANTA, GA, 30327",17333256,"L"
529649,"340 GOLDSMITH ROAD","JEFFERSONVILLE","NY",12748,41.7340988890001,-74.9013708369999,149,"340 GOLDSMITH ROAD, JEFFERSONVILLE, NY, 12748","Match","Exact","340 GOLDSMITH RD, JEFFERSONVILLE, NY, 12748",653876567,"R"
529650,"340 GRAFTON POND ROAD","ENFIELD","NH",3748,43.5817384100001,-72.0520381919999,150,"340 GRAFTON POND ROAD, ENFIELD, NH, 3748","Match","Exact","340 GRAFTON POND RD, ENFIELD, NH, 03748",145685128,"R"
529651,"340 GRAND CANYON DRIVE","BOLINGBROOK","IL",60440,41.7071773710001,-88.069296843,151,"340 GRAND CANYON DRIVE, BOLINGBROOK, IL, 60440","Match","Exact","340 GRAND CANYON DR, BOLINGBROOK, IL, 60440",111615576,"R"
529652,"340 GRANDVIEW DRIVE","LAKE OZARK","MO",65049,38.2097955730001,-92.672574644,152,"340 GRANDVIEW DRIVE, LAKE OZARK, MO, 65049","Match","Exact","340 GRANDVIEW DR, LAKE OZARK, MO, 65049",610867914,"R"
529653,"340 GREATHOUSE VILLAGE","DECATUR","TX",76234,33.243060321,-97.590217746,153,"340 GREATHOUSE VILLAGE, DECATUR, TX, 76234","Match","Exact","340 GREATHOUSE VLG, DECATUR, TX, 76234",629757145,"R"
529654,"340 GREGORY AVE","WEST ORANGE","NJ",7052,40.7625597750001,-74.2600403549999,154,"340 GREGORY AVE, WEST ORANGE, NJ, 7052","Match","Exact","340 GREGORY AVE, WEST ORANGE, NJ, 07052",63460915,"L"
529655,"340 GREYGHOST AV","SAN JOSE","CA",95111,37.265841939,-121.806563449,155,"340 GREYGHOST AV, SAN JOSE, CA, 95111","Match","Non_Exact","340 GREY GHOST AVE, SAN JOSE, CA, 95111",122924986,"R"
529656,"340 GRIBBEL ROAD","WYNCOTE","PA",19095,40.091444445,-75.15537631,156,"340 GRIBBEL ROAD, WYNCOTE, PA, 19095","Match","Exact","340 GRIBBEL RD, WYNCOTE, PA, 19095",135092485,"R"
529657,"340 GROSVENOR AVENUE","LEXINGTON","KY",40508,38.039856151,-84.495712323,157,"340 GROSVENOR AVENUE, LEXINGTON, KY, 40508","Match","Exact","340 GROSVENOR AVE, LEXINGTON, KY, 40508",31932366,"R"
529658,"340 HACKBERRY BEND","PORT LAVACA","TX",77979,28.615084138,-96.682459841,158,"340 HACKBERRY BEND, PORT LAVACA, TX, 77979","Match","Exact","340 HACKBERRY BEND, PORT LAVACA, TX, 77979",647777269,"R"
529659,"340 HAMPSHIRE CT","DEARBORN","MI",48124,42.3146170860001,-83.244065678,159,"340 HAMPSHIRE CT, DEARBORN, MI, 48124","Match","Exact","340 HAMPSHIRE CT, DEARBORN, MI, 48124",95440750,"R"
529660,"340 HARTNELL AVENUE SUITE A","REDDING","CA",96002,40.565004994,-122.368055817,160,"340 HARTNELL AVENUE SUITE A, REDDING, CA, 96002","Match","Exact","340 HARTNELL AVE, REDDING, CA, 96002",126665279,"L"
529661,"340 HARVARD ST","CAMBRIDGE","MA",2139,42.370643069,-71.109076774,161,"340 HARVARD ST, CAMBRIDGE, MA, 2139","Match","Exact","340 HARVARD ST, CAMBRIDGE, MA, 02139",86868754,"L"
529662,"340 HAUSER BLVD APT 434","LOS ANGELES","CA",90036,34.0685323490001,-118.350258709,162,"340 HAUSER BLVD APT 434, LOS ANGELES, CA, 90036","Match","Exact","340 HAUSER BLVD, LOS ANGELES, CA, 90036",642870380,"L"
529663,"340 HAVEN AVE 5G","NEW YORK","NY",10033,40.850916521,-73.941536788,163,"340 HAVEN AVE 5G, NEW YORK, NY, 10033","Match","Exact","340 HAVEN AVE, NEW YORK, NY, 10033",59663846,"L"
529664,"340 HAVEN AVE APT 6N","NEW YORK","NY",10033,40.850916521,-73.941536788,164,"340 HAVEN AVE APT 6N, NEW YORK, NY, 10033","Match","Exact","340 HAVEN AVE, NEW YORK, NY, 10033",59663846,"L"
529665,"340 Haverford Road","Wynnewood","PA",19096,39.9892140760001,-75.278788243,165,"340 Haverford Road, Wynnewood, PA, 19096","Match","Exact","340 HAVERFORD RD, WYNNEWOOD, PA, 19096",135087657,"L"
529666,"340 HAVERFORD ROAD","Wynnewood","PA",19096,39.9892140760001,-75.278788243,166,"340 HAVERFORD ROAD, Wynnewood, PA, 19096","Match","Exact","340 HAVERFORD RD, WYNNEWOOD, PA, 19096",135087657,"L"
529667,"340 HEMPSTEAD 217","HOPE","AR",71801,33.725511258,-93.598410029,167,"340 HEMPSTEAD 217, HOPE, AR, 71801","Match","Exact","340 HEMPSTEAD 217, HOPE, AR, 71801",10871297,"L"
529668,"340 HERITAGE FOREST DR","BLYTHEWOOD","SC",29016,NA,NA,168,"340 HERITAGE FOREST DR, BLYTHEWOOD, SC, 29016","No_Match",NA,NA,NA,NA
529669,"340 HERITAGE FOREST DRIVE","BLYTHEWOOD","SC",29016,NA,NA,169,"340 HERITAGE FOREST DRIVE, BLYTHEWOOD, SC, 29016","No_Match",NA,NA,NA,NA
529670,"340 HERITAGE HILLS DRIVE","COLUMBIA","SC",29203,34.1429618980001,-80.998249121,170,"340 HERITAGE HILLS DRIVE, COLUMBIA, SC, 29203","Match","Exact","340 HERITAGE HILLS DR, COLUMBIA, SC, 29203",604752511,"R"
529671,"340 HICKS STREET","MONTEVALLO","AL",35115,33.091547555,-86.854014697,171,"340 HICKS STREET, MONTEVALLO, AL, 35115","Match","Exact","340 HICKS ST, MONTEVALLO, AL, 35115",642911302,"L"
529672,"340 HIDENWOOD DR APT A2","NEWPORT NEWS","VA",23606,37.075470367,-76.49686444,172,"340 HIDENWOOD DR APT A2, NEWPORT NEWS, VA, 23606","Match","Exact","340 HIDENWOOD DR, NEWPORT NEWS, VA, 23606",103822890,"L"
529673,"340 HIDENWOOD DR APT E3","NEWPORT NEWS","VA",23606,37.075470367,-76.49686444,173,"340 HIDENWOOD DR APT E3, NEWPORT NEWS, VA, 23606","Match","Exact","340 HIDENWOOD DR, NEWPORT NEWS, VA, 23606",103822890,"L"
529674,"340 HIGHLANDS COURT","ALPHARETTA","GA",30022,34.032036401,-84.2483066789999,174,"340 HIGHLANDS COURT, ALPHARETTA, GA, 30022","Match","Exact","340 HIGHLANDS CT, ALPHARETTA, GA, 30022",17398958,"L"
529675,"340 HITT TRACE","MCDONOUGH","GA",30252,33.5116467510001,-84.1269958949999,175,"340 HITT TRACE, MCDONOUGH, GA, 30252","Match","Exact","340 HITT TRCE, MCDONOUGH, GA, 30252",619916217,"R"
529676,"340 HOMESTEAD RD","HILLSBOROUGH","NJ",8844,40.489535753,-74.653557485,176,"340 HOMESTEAD RD, HILLSBOROUGH, NJ, 8844","Match","Exact","340 HOMESTEAD RD, HILLSBOROUGH, NJ, 08844",59954967,"L"
529677,"340 HONEYSUCKLE TERRACE","WOODSTOCK","GA",30188,34.152018211,-84.4929916149999,177,"340 HONEYSUCKLE TERRACE, WOODSTOCK, GA, 30188","Match","Exact","340 HONEYSUCKLE TER, WOODSTOCK, GA, 30188",68868895,"R"
529678,"340 HORSESHOE TRAIL","ANGLETON","TX",77515,29.136420838,-95.567040444,178,"340 HORSESHOE TRAIL, ANGLETON, TX, 77515","Match","Non_Exact","340 HORSE SHOE TRL, ANGLETON, TX, 77515",116593175,"R"
529679,"340 HUDSON WALK APT 5A","BROOKLYN","NY",11201,NA,NA,179,"340 HUDSON WALK APT 5A, BROOKLYN, NY, 11201","No_Match",NA,NA,NA,NA
529680,"340 HUNTERS RUN","JEFFERSON CITY","MO",65109,38.5858818730001,-92.281245333,180,"340 HUNTERS RUN, JEFFERSON CITY, MO, 65109","Match","Non_Exact","340 HUNTERS RUN RD, JEFFERSON CITY, MO, 65109",34418333,"R"
529681,"340 INDIAN HILLS DRIVE","RANTOUL","IL",61866,40.313879931,-88.168052614,181,"340 INDIAN HILLS DRIVE, RANTOUL, IL, 61866","Match","Exact","340 INDIAN HILLS DR, RANTOUL, IL, 61866",8805556,"L"
529682,"340 INDUSTRIAL PKWAY APT B-201","HAYWARD","CA",94544,37.629012506,-122.047877154,182,"340 INDUSTRIAL PKWAY APT B-201, HAYWARD, CA, 94544","Match","Non_Exact","340 INDUSTRIAL PKWY W, HAYWARD, CA, 94544",606842276,"R"
529683,"340 INYO ST","BAKERSFIELD","CA",93305,35.3721355430001,-118.999619889,183,"340 INYO ST, BAKERSFIELD, CA, 93305","Match","Exact","340 INYO ST, BAKERSFIELD, CA, 93305",640632773,"L"
529684,"340 ISTHMUS WAY - 56","OCEANSIDE","CA",92058,33.2051709020001,-117.367767446,184,"340 ISTHMUS WAY - 56, OCEANSIDE, CA, 92058","Match","Exact","340 ISTHMUS WAY, OCEANSIDE, CA, 92058",195447653,"L"
529685,"340 JACKSON AVENUE","SCOTCH PLAINS","NJ",7076,40.646958447,-74.4044852389999,185,"340 JACKSON AVENUE, SCOTCH PLAINS, NJ, 7076","Match","Exact","340 JACKSON AVE, SCOTCH PLAINS, NJ, 07076",60603661,"R"
529686,"340 JOHNSON STREET","GARY","IN",46402,41.60480212,-87.3557477799999,186,"340 JOHNSON STREET, GARY, IN, 46402","Match","Exact","340 JOHNSON ST, GARY, IN, 46402",98425595,"R"
529687,"340 JONES RD","VESTAL","NY",13850,42.064189249,-76.0459816809999,187,"340 JONES RD, VESTAL, NY, 13850","Match","Exact","340 JONES RD, VESTAL, NY, 13850",46373478,"R"
529688,"340 JORDAN STREET","OCEANSIDE","NY",11572,40.6303748620001,-73.629415738,188,"340 JORDAN STREET, OCEANSIDE, NY, 11572","Match","Exact","340 JORDAN ST, OCEANSIDE, NY, 11572",147681645,"R"
529689,"340 KAER AVENUE","RED BLUFF","CA",96080,40.193648034,-122.213934152,189,"340 KAER AVENUE, RED BLUFF, CA, 96080","Match","Exact","340 KAER AVE, RED BLUFF, CA, 96080",119367701,"L"
529690,"340 KERR ST","LEWISTON","NY",14092,43.1767843000001,-79.03961964,190,"340 KERR ST, LEWISTON, NY, 14092","Match","Exact","340 KERR ST, LEWISTON, NY, 14092",48684625,"R"
529691,"340 KEY BLVD","RICHMOND","CA",94805,37.932832224,-122.322334729,191,"340 KEY BLVD, RICHMOND, CA, 94805","Match","Exact","340 KEY BLVD, RICHMOND, CA, 94805",192041515,"R"
529692,"340 KING DIVE","TYLER","AL",36785,32.193768178,-86.8112947079999,192,"340 KING DIVE, TYLER, AL, 36785","Match","Non_Exact","340 KING DR, TYLER, AL, 36785",637678896,"R"
529693,"340 KINGS ROAD","MADISON HEIGHTS","VA",24572,37.451411426,-79.1422060799999,193,"340 KINGS ROAD, MADISON HEIGHTS, VA, 24572","Match","Exact","340 KINGS RD, MADISON HEIGHTS, VA, 24572",159122713,"R"
529694,"340 KINGS ROAD","MADISON HEIGHTS, VA","VA",24572,37.451411426,-79.1422060799999,194,"340 KINGS ROAD, MADISON HEIGHTS, VA, VA, 24572","Match","Non_Exact","340 KINGS RD, MADISON HEIGHTS, VA, 24572",159122713,"R"
529695,"340 KINGSTON CIR","RICHMOND HILL","GA",31324,31.8597413050001,-81.266907449,195,"340 KINGSTON CIR, RICHMOND HILL, GA, 31324","Match","Exact","340 KINGSTON CIR, RICHMOND HILL, GA, 31324",628033575,"R"
529696,"340 KNOEDLER RD","LANCASTER","PA",15236,40.3422068460001,-79.980258937,196,"340 KNOEDLER RD, LANCASTER, PA, 15236","Match","Non_Exact","340 KNOEDLER RD, PLEASANT HLS, PA, 15236",51658409,"R"
529697,"340 KRIWELL DRIVE","TWIN LAKES","WI",53181,42.5046193910001,-88.2630298889999,197,"340 KRIWELL DRIVE, TWIN LAKES, WI, 53181","Match","Non_Exact","340 KRIWIEL DR, TWIN LAKES, WI, 53181",79795979,"R"
529698,"340 LAKE INDIAN HILLS CIRCLE","CARBONDALE","IL",62902,NA,NA,198,"340 LAKE INDIAN HILLS CIRCLE, CARBONDALE, IL, 62902","No_Match",NA,NA,NA,NA
529699,"340 LAKE ST","DELAWARE","OH",43015,40.307953206,-83.056357565,199,"340 LAKE ST, DELAWARE, OH, 43015","Match","Exact","340 LAKE ST, DELAWARE, OH, 43015",640603189,"R"
529700,"340 LANTANA AVENUE","SARASOTA","FL",34243,27.413579305,-82.5697537839999,200,"340 LANTANA AVENUE, SARASOTA, FL, 34243","Match","Exact","340 LANTANA AVE, SARASOTA, FL, 34243",16240048,"L"
529701,"340 LARKDALE ROW","WAUCONDA","IL",60084,42.2638706010001,-88.156946438,201,"340 LARKDALE ROW, WAUCONDA, IL, 60084","Match","Exact","340 LARKDALE ROW, WAUCONDA, IL, 60084",119632633,"R"
529702,"340 LASSO CT","ROSEVILLE","CA",95747,38.803533085,-121.350012796,202,"340 LASSO CT, ROSEVILLE, CA, 95747","Match","Exact","340 LASSO CT, ROSEVILLE, CA, 95747",645089627,"L"
529703,"340 LEIGH LN","STONEWALL","LA",71078,32.2328152430001,-93.8378235659999,203,"340 LEIGH LN, STONEWALL, LA, 71078","Match","Exact","340 LEIGH LN, STONEWALL, LA, 71078",624490457,"R"
529704,"340 LIGHTHOUSE DRIVE APT 13","PERRYSBURG","OH",43551,41.5677568450001,-83.609006989,204,"340 LIGHTHOUSE DRIVE APT 13, PERRYSBURG, OH, 43551","Match","Exact","340 LIGHTHOUSE DR, PERRYSBURG, OH, 43551",625124565,"R"
529705,"340 LILAC LANE","TERRELL HILLS","TX",78209,29.475856003,-98.445551106,205,"340 LILAC LANE, TERRELL HILLS, TX, 78209","Match","Exact","340 LILAC LN, TERRELL HILLS, TX, 78209",101699263,"L"
529706,"340 LINDSEY CEMETERY RD","LEXINGTON","TN",38351,35.6975678270001,-88.335406145,206,"340 LINDSEY CEMETERY RD, LEXINGTON, TN, 38351","Match","Exact","340 LINDSEY CEMETERY RD, LEXINGTON, TN, 38351",21226194,"L"
529707,"340 LINEBERRY RD","VIRGINIA BEACH","VA",23452,36.829728883,-76.085515205,207,"340 LINEBERRY RD, VIRGINIA BEACH, VA, 23452","Match","Exact","340 LINEBERRY RD, VA BCH, VA, 23452",122267440,"L"
529708,"340 LITTLE EAST NECK ROAD SOUTH","BABYLON","NY",11704,40.680954281,-73.333704584,208,"340 LITTLE EAST NECK ROAD SOUTH, BABYLON, NY, 11704","Match","Non_Exact","340 LITTLE EAST NECK RD S, BABYLON, NY, 11702",113978440,"R"
529709,"340 LOREN BOYD RD","COMBINE","TX",75159,32.576210743,-96.51413082,209,"340 LOREN BOYD RD, COMBINE, TX, 75159","Match","Exact","340 LOREN BOYD RD, COMBINE, TX, 75159",123759095,"L"
529710,"340 LORTON AVENUE SUITE 206","BURLINGAME","CA",94010,37.5799814580001,-122.346939368,210,"340 LORTON AVENUE SUITE 206, BURLINGAME, CA, 94010","Match","Exact","340 LORTON AVE, BURLINGAME, CA, 94010",192376877,"R"
529711,"340 LORTON AVENUE SUITE 216","BURLINGAME","CA",94010,37.5799814580001,-122.346939368,211,"340 LORTON AVENUE SUITE 216, BURLINGAME, CA, 94010","Match","Exact","340 LORTON AVE, BURLINGAME, CA, 94010",192376877,"R"
529712,"340 LOUISIANA AVE N","GOLDEN VALLEY","MN",55427,44.9809355350001,-93.37024209,212,"340 LOUISIANA AVE N, GOLDEN VALLEY, MN, 55427","Match","Exact","340 LOUISIANA AVE N, GOLDEN VALLEY, MN, 55427",43831457,"L"
529713,"340 LUTHER WATTS ROAD","CLAYTON","GA",30525,34.8544209080001,-83.395869891,213,"340 LUTHER WATTS ROAD, CLAYTON, GA, 30525","Match","Exact","340 LUTHER WATTS RD, CLAYTON, GA, 30525",636196819,"L"
529714,"340 LYLES RD","CRANDALL","GA",30711,34.9179894580001,-84.7740015649999,214,"340 LYLES RD, CRANDALL, GA, 30711","Match","Exact","340 LYLES RD, CRANDALL, GA, 30711",57109741,"R"
529715,"340 MACASA TRAIL","LAURENS","SC",29360,34.4583971390001,-82.1165196159999,215,"340 MACASA TRAIL, LAURENS, SC, 29360","Match","Exact","340 MACASA TRL, LAURENS, SC, 29360",648344198,"L"
529716,"340 MACON AVE","ROMEOVILLE","IL",60446,41.6370437900001,-88.095784925,216,"340 MACON AVE, ROMEOVILLE, IL, 60446","Match","Exact","340 MACON AVE, ROMEOVILLE, IL, 60446",111535940,"L"
529717,"340 MAIN ST","VENICE","CA",90291,33.9947153310001,-118.476518255,217,"340 MAIN ST, VENICE, CA, 90291","Match","Exact","340 MAIN ST, VENICE, CA, 90291",142680293,"L"
529718,"340 MAIN STREET N","HADLEY","MN",56151,NA,NA,218,"340 MAIN STREET N, HADLEY, MN, 56151","No_Match",NA,NA,NA,NA
529719,"340 MAIN STREET SUITE 301","WORCESTER","MA",1608,42.2655371880001,-71.801313796,219,"340 MAIN STREET SUITE 301, WORCESTER, MA, 1608","Match","Exact","340 MAIN ST, WORCESTER, MA, 01608",40010367,"R"
529720,"340 MAIN STREET","HANOVER","CT",6350,NA,NA,220,"340 MAIN STREET, HANOVER, CT, 6350","No_Match",NA,NA,NA,NA
529721,"340 MAIN STREET","WORCESTER","MA",1608,42.2655371880001,-71.801313796,221,"340 MAIN STREET, WORCESTER, MA, 1608","Match","Exact","340 MAIN ST, WORCESTER, MA, 01608",40010367,"R"
529722,"340 MAJESTIC GARDENS DRIVE","WINTER HAVEN","FL",33880,27.966986263,-81.722883737,222,"340 MAJESTIC GARDENS DRIVE, WINTER HAVEN, FL, 33880","Match","Exact","340 MAJESTIC GARDENS DR, WINTER HAVEN, FL, 33880",618496773,"R"
529723,"340 MANOR RD","DOUGLASTON","NY",11363,40.7769088200001,-73.747755431,223,"340 MANOR RD, DOUGLASTON, NY, 11363","Match","Exact","340 MANOR RD, DOUGLASTON, NY, 11363",59703795,"R"
529724,"340 MAPLE ST 4C","BROOKLYN","NY",11225,40.6608982320001,-73.949419424,224,"340 MAPLE ST 4C, BROOKLYN, NY, 11225","Match","Exact","340 MAPLE ST, BROOKLYN, NY, 11225",59079585,"R"
529725,"340 MARKET STREET","BRIGHTON","MA",2135,42.351574305,-71.151941138,225,"340 MARKET STREET, BRIGHTON, MA, 2135","Match","Exact","340 MARKET ST, BRIGHTON, MA, 02135",85695060,"L"
529726,"340 MARLBORO","KEENE","NH",3431,42.9234771060001,-72.264347717,226,"340 MARLBORO, KEENE, NH, 3431","Match","Non_Exact","340 MARLBORO ST, KEENE, NH, 03431",124078591,"R"
529727,"340 MARSHALLS COVE","MILTON","GA",30004,34.140333717,-84.349604541,227,"340 MARSHALLS COVE, MILTON, GA, 30004","Match","Exact","340 MARSHALLS COVE, MILTON, GA, 30004",623711176,"R"
529728,"340 MASARIK AVENUE","STRATFORD","CO",6615,NA,NA,228,"340 MASARIK AVENUE, STRATFORD, CO, 6615","No_Match",NA,NA,NA,NA
529729,"340 MASARIK AVENUE","STRATFORD","CT",6615,41.173672691,-73.142099032,229,"340 MASARIK AVENUE, STRATFORD, CT, 6615","Match","Exact","340 MASARIK AVE, STRATFORD, CT, 06615",3227606,"L"
529730,"340 MASSENGILL FARM ROAD","BENSON","NC",27504,35.3606385850001,-78.543715284,230,"340 MASSENGILL FARM ROAD, BENSON, NC, 27504","Match","Exact","340 MASSENGILL FARM RD, BENSON, NC, 27504",26555125,"L"
529731,"340 MCCLAIN AVENUE","COSHOCTON","OH",43812,40.2692413510001,-81.852977611,231,"340 MCCLAIN AVENUE, COSHOCTON, OH, 43812","Match","Exact","340 MCCLAIN AVE, COSHOCTON, OH, 43812",52105295,"R"
529732,"340 MCCLAIN CIR","MANY","LA",71449,31.5682665310001,-93.4690588559999,232,"340 MCCLAIN CIR, MANY, LA, 71449","Match","Exact","340 MCCLAIN CIR, MANY, LA, 71449",67779208,"R"
529733,"340 MCCRAY","LIBERAL","KS",67901,37.0216778660001,-100.92638565,233,"340 MCCRAY, LIBERAL, KS, 67901","Match","Non_Exact","340 MCCRAY BLVD, LIBERAL, KS, 67901",633131824,"R"
529734,"340 MCGRUDER ROAD","SAWYERVILLE","AL",36776,32.8030809730001,-87.7784180529999,234,"340 MCGRUDER ROAD, SAWYERVILLE, AL, 36776","Match","Exact","340 MCGRUDER RD, SAWYERVILLE, AL, 36776",653331915,"L"
529735,"340 MCNATT ROAD","NEOSHO","MO",64843,36.736644568,-94.312821895,235,"340 MCNATT ROAD, NEOSHO, MO, 64843","Match","Non_Exact","340 MCNATT RD, NEOSHO, MO, 64850",49430357,"R"
529736,"340 MCNATT ROAD","NEOSHO","MO",64850,36.736644568,-94.312821895,236,"340 MCNATT ROAD, NEOSHO, MO, 64850","Match","Exact","340 MCNATT RD, NEOSHO, MO, 64850",49430357,"R"
529737,"340 MEADOW GROVE COURT","ST. PETERS","MO",63304,38.740561218,-90.596371483,237,"340 MEADOW GROVE COURT, ST. PETERS, MO, 63304","Match","Exact","340 MEADOW GROVE CT, SAINT PETERS, MO, 63304",100055581,"L"
529738,"340 MEADOW RIVER DRIVE","ROCKY MOUNT","VA",24151,36.9787140010001,-79.7834594889999,238,"340 MEADOW RIVER DRIVE, ROCKY MOUNT, VA, 24151","Match","Exact","340 MEADOW RIVER DR, ROCKY MOUNT, VA, 24151",648513489,"R"
529739,"340 MEADOWCREEK DR NORTH","CHAMBERSBURG","PA",17202,39.929738281,-77.735958134,239,"340 MEADOWCREEK DR NORTH, CHAMBERSBURG, PA, 17202","Match","Non_Exact","340 MEADOWCREEK DR, CHAMBERSBURG, PA, 17202",60099011,"R"
529740,"340 MENGE AVE","PASS CHRISTIAN","MS",39571,30.333660142,-89.218114461,240,"340 MENGE AVE, PASS CHRISTIAN, MS, 39571","Match","Exact","340 MENGE AVE, PASS CHRISTIAN, MS, 39571",111375122,"R"
529741,"340 MENGE AVENUE","PASS CHRISTIAN","MS",39571,30.333660142,-89.218114461,241,"340 MENGE AVENUE, PASS CHRISTIAN, MS, 39571","Match","Exact","340 MENGE AVE, PASS CHRISTIAN, MS, 39571",111375122,"R"
529742,"340 MENGE","PASS CHRISTIAN","MS",39571,30.333660142,-89.218114461,242,"340 MENGE, PASS CHRISTIAN, MS, 39571","Match","Non_Exact","340 MENGE AVE, PASS CHRISTIAN, MS, 39571",111375122,"R"
529743,"340 MIDDLEFIELD ST","MIDDLETOWN","CT",6457,41.5454076670001,-72.681509514,243,"340 MIDDLEFIELD ST, MIDDLETOWN, CT, 6457","Match","Exact","340 MIDDLEFIELD ST, MIDDLETOWN, CT, 06457",113888802,"L"
529744,"340 MILES AVE","ORCUTT","CA",93455,34.895048597,-120.432761762,244,"340 MILES AVE, ORCUTT, CA, 93455","Match","Exact","340 MILES AVE, ORCUTT, CA, 93455",108596631,"R"
529745,"340 MILL GIN ROAD","CAMPOBELLO","SC",29322,35.0455818570001,-82.202390828,245,"340 MILL GIN ROAD, CAMPOBELLO, SC, 29322","Match","Exact","340 MILL GIN RD, CAMPOBELLO, SC, 29322",19459270,"R"
529746,"340 MILLER ROAD","GETZVILLE","NY",14068,43.0331845010001,-78.7529851739999,246,"340 MILLER ROAD, GETZVILLE, NY, 14068","Match","Exact","340 MILLER RD, GETZVILLE, NY, 14068",639749173,"L"
529747,"340 MOON DRIVE","MCCALL","ID",83638,44.8614790680001,-116.134368535,247,"340 MOON DRIVE, MCCALL, ID, 83638","Match","Exact","340 MOON DR, MCCALL, ID, 83638",650005068,"L"
529748,"340 MOUNT WHITNEY DRIVE","WOODLAND","CA",95695,38.6907989040001,-121.798712697,248,"340 MOUNT WHITNEY DRIVE, WOODLAND, CA, 95695","Match","Exact","340 MT WHITNEY DR, WOODLAND, CA, 95695",639803975,"L"
529749,"340 MUSIC LANE","WILLIAMSON","GA",30292,33.1730417360001,-84.3826734259999,249,"340 MUSIC LANE, WILLIAMSON, GA, 30292","Match","Exact","340 MUSIC LN, WILLIAMSON, GA, 30292",83665048,"L"
529750,"340 N 12TH STREET SUITE 303","PHILADELPHIA","PA",19107,NA,NA,250,"340 N 12TH STREET SUITE 303, PHILADELPHIA, PA, 19107","Tie",NA,NA,NA,NA
529751,"340 N 850 W","BLACKFOOT","ID",83221,43.2473350600001,-112.464521832,251,"340 N 850 W, BLACKFOOT, ID, 83221","Match","Exact","340 N 850 W, BLACKFOOT, ID, 83221",130062794,"L"
529752,"340 N 8TH ST","ARLINGTON","NE",68002,41.4531994320001,-96.35791421,252,"340 N 8TH ST, ARLINGTON, NE, 68002","Match","Exact","340 N 8TH ST, ARLINGTON, NE, 68002",176771008,"R"
529753,"340 N AREVA RD","ROOSEVELT","UT",84066,40.3042236540001,-110.012713987,253,"340 N AREVA RD, ROOSEVELT, UT, 84066","Match","Exact","340 AREVA RD, ROOSEVELT, UT, 84066",608046065,"L"
529754,"340 N CIVIC DR  UNIT 408","WALNUT CREEK","CA",94596,37.911968636,-122.060054032,254,"340 N CIVIC DR  UNIT 408, WALNUT CREEK, CA, 94596","Match","Non_Exact","340 N CIVIC DR, WALNUT CREEK, CA, 94596",613806557,"R"
529755,"340 N COLLIER ST","COQUILLE","OR",97423,43.177273696,-124.185800387,255,"340 N COLLIER ST, COQUILLE, OR, 97423","Match","Exact","340 N COLLIER ST, COQUILLE, OR, 97423",136991075,"R"
529756,"340 N CROOKED LAKE LN","LINDENHURST","IL",60046,NA,NA,256,"340 N CROOKED LAKE LN, LINDENHURST, IL, 60046","Tie",NA,NA,NA,NA
529757,"340 N DEARBORN AVE SUITE 219","KANKAKEE","IL",60901,NA,NA,257,"340 N DEARBORN AVE SUITE 219, KANKAKEE, IL, 60901","Tie",NA,NA,NA,NA
529758,"340 N DEARBORN AVE","KANKAKEE","IL",60901,41.1233069460001,-87.8619047299999,258,"340 N DEARBORN AVE, KANKAKEE, IL, 60901","Match","Exact","340 N DEARBORN AVE, KANKAKEE, IL, 60901",98356488,"R"
529759,"340 N DEERFIELD AVENUE","DEERFIELD BEACH","FL",33441,26.321951735,-80.1017997599999,259,"340 N DEERFIELD AVENUE, DEERFIELD BEACH, FL, 33441","Match","Exact","340 N DEERFIELD AVE, DEERFIELD BEACH, FL, 33441",114788511,"R"
529760,"340 N MADISON AVE","LOS ANGELES","CA",90004,34.0769354120001,-118.289148314,260,"340 N MADISON AVE, LOS ANGELES, CA, 90004","Match","Exact","340 N MADISON AVE, LOS ANGELES, CA, 90004",141604401,"R"
529761,"340 N MCKENZIE ST","ADRIAN","MI",49221,NA,NA,261,"340 N MCKENZIE ST, ADRIAN, MI, 49221","Tie",NA,NA,NA,NA
529762,"340 N MILL ST","SAUKVILLE","WI",53080,43.385035917,-87.939013998,262,"340 N MILL ST, SAUKVILLE, WI, 53080","Match","Exact","340 N MILL ST, SAUKVILLE, WI, 53080",95901283,"L"
529763,"340 N PARK ST","DESHLER","OH",43516,41.2114855040001,-83.902101519,263,"340 N PARK ST, DESHLER, OH, 43516","Match","Exact","340 PARK ST, DESHLER, OH, 43516",33783849,"R"
529764,"340 N SAM HOUSTON PKWY E STE A235","HOUSTON","TX",77060,29.939491317,-95.399678518,264,"340 N SAM HOUSTON PKWY E STE A235, HOUSTON, TX, 77060","Match","Non_Exact","340 SAM HOUSTON PKWY, HOUSTON, TX, 77060",638180071,"R"
529765,"340 N SAM HOUSTON PKWY E SUITE A258","HOUSTON","TX",77040,NA,NA,265,"340 N SAM HOUSTON PKWY E SUITE A258, HOUSTON, TX, 77040","No_Match",NA,NA,NA,NA
529766,"340 N SAM HOUSTON PKWY E SUITE A258","HOUSTON","TX",77479,NA,NA,266,"340 N SAM HOUSTON PKWY E SUITE A258, HOUSTON, TX, 77479","No_Match",NA,NA,NA,NA
529767,"340 N SAM HOUSTON PKWY SUITE 110Y","HOUSTON,","TX",77073,NA,NA,267,"340 N SAM HOUSTON PKWY SUITE 110Y, HOUSTON,, TX, 77073","Tie",NA,NA,NA,NA
529768,"340 N VINE ST","DESHLER","OH",43516,41.2121701140001,-83.903627656,268,"340 N VINE ST, DESHLER, OH, 43516","Match","Exact","340 N VINE ST, DESHLER, OH, 43516",33784081,"R"
529769,"340 N VINE","DESHLER","OH",43516,41.2121701140001,-83.903627656,269,"340 N VINE, DESHLER, OH, 43516","Match","Non_Exact","340 N VINE ST, DESHLER, OH, 43516",33784081,"R"
529770,"340 N WESTLAKE BLVD SUITE 150","WESTLAKE VILLAGE","CA",91362,NA,NA,270,"340 N WESTLAKE BLVD SUITE 150, WESTLAKE VILLAGE, CA, 91362","No_Match",NA,NA,NA,NA
529771,"340 NE 54 ST","MIAMI","FL",33137,25.8254703920001,-80.1889422039999,271,"340 NE 54 ST, MIAMI, FL, 33137","Match","Exact","340 NE 54TH ST, MIAMI, FL, 33137",116007653,"R"
529772,"340 NEFF DRIVE","CANFIELD","OH",44406,41.0290865260001,-80.751404183,272,"340 NEFF DRIVE, CANFIELD, OH, 44406","Match","Exact","340 NEFF DR, CANFIELD, OH, 44406",64593101,"L"
529773,"340 NINTH STREET","EUREKA","MT",55917,NA,NA,273,"340 NINTH STREET, EUREKA, MT, 55917","No_Match",NA,NA,NA,NA
529774,"340 NINTH STREET","EUREKA","MT",59917,NA,NA,274,"340 NINTH STREET, EUREKA, MT, 59917","No_Match",NA,NA,NA,NA
529775,"340 NORTH CAUSEWAY SUITE A","NEW SMYRNA BEACH","FL",32169,NA,NA,275,"340 NORTH CAUSEWAY SUITE A, NEW SMYRNA BEACH, FL, 32169","No_Match",NA,NA,NA,NA
529776,"340 NORTH LANSDOWNE AVE","LANSDOWNE","PA",19050,39.950181555,-75.2807246149999,276,"340 NORTH LANSDOWNE AVE, LANSDOWNE, PA, 19050","Match","Exact","340 N LANSDOWNE AVE, LANSDOWNE, PA, 19050",652458000,"L"
529777,"340 NORTH LANSDOWNE AVENUE","LANSDOWNE","DE",19050,NA,NA,277,"340 NORTH LANSDOWNE AVENUE, LANSDOWNE, DE, 19050","No_Match",NA,NA,NA,NA
529778,"340 NORTH LANSDOWNE AVENUE","LANSDOWNE","PA",19050,39.950181555,-75.2807246149999,278,"340 NORTH LANSDOWNE AVENUE, LANSDOWNE, PA, 19050","Match","Exact","340 N LANSDOWNE AVE, LANSDOWNE, PA, 19050",652458000,"L"
529779,"340 NORTH MAIN ST 12","TEA","SD",57064,43.449315061,-96.836191648,279,"340 NORTH MAIN ST 12, TEA, SD, 57064","Match","Non_Exact","340 N MAIN AVE, TEA, SD, 57064",176319509,"L"
529780,"340 NORTH MAIN STREET","NATICK","MA",1760,42.314929803,-71.361844344,280,"340 NORTH MAIN STREET, NATICK, MA, 1760","Match","Exact","340 N MAIN ST, NATICK, MA, 01760",86851960,"L"
529781,"340 NORTH PROSECTORS ROAD","DIAMOND BAR","CA",91765,NA,NA,281,"340 NORTH PROSECTORS ROAD, DIAMOND BAR, CA, 91765","No_Match",NA,NA,NA,NA
529782,"340 NORTH PROSPECTORS ROAD","DIAMOND BAR","CA",91765,34.0259652610001,-117.81707917,282,"340 NORTH PROSPECTORS ROAD, DIAMOND BAR, CA, 91765","Match","Exact","340 N PROSPECTORS RD, DIAMOND BAR, CA, 91765",141728970,"R"
529783,"340 NORTH SAM HOUSTON PARKWAY E","HOUSTON","TX",77060,NA,NA,283,"340 NORTH SAM HOUSTON PARKWAY E, HOUSTON, TX, 77060","No_Match",NA,NA,NA,NA
529784,"340 NORWAY STREET","YORK","PA",17403,39.9638601030001,-76.708442007,284,"340 NORWAY STREET, YORK, PA, 17403","Match","Exact","340 NORWAY ST, YORK, PA, 17403",611419444,"R"
529785,"340 NUNNALLY DR","STOCKBRIDGE","GA",30281,33.547906879,-84.26052982,285,"340 NUNNALLY DR, STOCKBRIDGE, GA, 30281","Match","Exact","340 NUNNALLY DR, STOCKBRIDGE, GA, 30281",210422571,"R"
529786,"340 NW 205 TERRACE","MIAMI GARDENS","FL",33169,25.9640393810001,-80.208881291,286,"340 NW 205 TERRACE, MIAMI GARDENS, FL, 33169","Match","Exact","340 NW 205TH TER, MIAMI GARDENS, FL, 33169",116028912,"L"
529787,"340 NW 23RD PL","MIAMI","FL",33125,25.7762287800001,-80.234653139,287,"340 NW 23RD PL, MIAMI, FL, 33125","Match","Exact","340 NW 23RD PL, MIAMI, FL, 33125",640561559,"L"
529788,"340 NW 4TH COURT","DEERFIELD BEACH","FL",33441,26.3231987200001,-80.108715887,288,"340 NW 4TH COURT, DEERFIELD BEACH, FL, 33441","Match","Exact","340 NW 4TH CT, DEERFIELD BEACH, FL, 33441",114739807,"R"
529789,"340 NW 59 AVE","MIAMI SPRINGS","FL",33126,25.774741466,-80.2918376599999,289,"340 NW 59 AVE, MIAMI SPRINGS, FL, 33126","Match","Non_Exact","340 NW 59TH AVE, MIAMI, FL, 33126",115975740,"L"
529790,"340 OAK STREET","MADISONVILLE","KY",42431,37.320755606,-87.5061380449999,290,"340 OAK STREET, MADISONVILLE, KY, 42431","Match","Exact","340 OAK ST, MADISONVILLE, KY, 42431",11502416,"L"
529791,"340 OAKLEAF COURT","MARTINEZ","GA",30907,33.4926080020001,-82.150069706,291,"340 OAKLEAF COURT, MARTINEZ, GA, 30907","Match","Non_Exact","340 OAK LEAF CT, MARTINEZ, GA, 30907",55380732,"R"
529792,"340 OCEAN DR","JUNO BEACH","FL",33408,26.8724611540001,-80.052564106,292,"340 OCEAN DR, JUNO BEACH, FL, 33408","Match","Exact","340 OCEAN DR, JUNO BEACH, FL, 33408",115274763,"R"
529793,"340 OFFICE CT","FAIRVIEW HEIGHTS","IL",62208,38.6033443310001,-89.979844595,293,"340 OFFICE CT, FAIRVIEW HEIGHTS, IL, 62208","Match","Exact","340 OFFICE CT, FAIRVIEW HTS, IL, 62208",648045706,"R"
529794,"340 OLD BATTERY ROAD","BRIDGEPORT","CT",6605,41.1447112230001,-73.229846003,294,"340 OLD BATTERY ROAD, BRIDGEPORT, CT, 6605","Match","Exact","340 OLD BATTERY RD, BRIDGEPORT, CT, 06605",618524252,"R"
529795,"340 OLD OAKEN BUCKET ROAD","NORWELL","MA",2061,42.183296764,-70.781608551,295,"340 OLD OAKEN BUCKET ROAD, NORWELL, MA, 2061","Match","Exact","340 OLD OAKEN BUCKET RD, NORWELL, MA, 02061",87512512,"R"
529796,"340 OLD RIVER RD","EDGEWATER","NJ",7020,NA,NA,296,"340 OLD RIVER RD, EDGEWATER, NJ, 7020","Tie",NA,NA,NA,NA
529797,"340 ORANGE DRIVE","LAUREL","MS",39443,31.630995323,-89.062589691,297,"340 ORANGE DRIVE, LAUREL, MS, 39443","Match","Exact","340 ORANGE DR, LAUREL, MS, 39443",611076337,"R"
529798,"340 OSWEGO STREET","PARK FOREST","IL",60466,41.4717542860001,-87.682040542,298,"340 OSWEGO STREET, PARK FOREST, IL, 60466","Match","Exact","340 OSWEGO ST, PARK FOREST, IL, 60466",111711421,"R"
529799,"340 PALM BLVD","WESTON","FL",33326,26.1129766720001,-80.39525078,299,"340 PALM BLVD, WESTON, FL, 33326","Match","Exact","340 PALM BLVD, WESTON, FL, 33326",114819857,"L"
529800,"340 PATRIOT COURT","PAINESVILLE","OH",44077,41.706520342,-81.246964653,300,"340 PATRIOT COURT, PAINESVILLE, OH, 44077","Match","Exact","340 PATRIOT CT, PAINESVILLE, OH, 44077",624209915,"R"
529801,"340 PAXINOSA RD WEST","EASTON","PA",18040,40.7060083200001,-75.219304987,301,"340 PAXINOSA RD WEST, EASTON, PA, 18040","Match","Exact","340 PAXINOSA RD W, EASTON, PA, 18040",136897484,"R"
529802,"340 PEACHTREE LANE","PRINCETON","TX",75407,33.169250581,-96.500052344,302,"340 PEACHTREE LANE, PRINCETON, TX, 75407","Match","Exact","340 PEACHTREE LN, PRINCETON, TX, 75407",123528332,"R"
529803,"340 PERSHING AVENUE","HAMILTON","OH",45011,39.3936743780001,-84.562336946,303,"340 PERSHING AVENUE, HAMILTON, OH, 45011","Match","Exact","340 PERSHING AVE, HAMILTON, OH, 45011",113789632,"L"
529804,"340 PHILLIPS RD","POTTSVILLE","AR",72858,35.256469705,-93.025157698,304,"340 PHILLIPS RD, POTTSVILLE, AR, 72858","Match","Exact","340 PHILLIPS RD, POTTSVILLE, AR, 72858",606003809,"L"
529805,"340 PICTURESQUE DRIVE","ROCHESTER","NY",14616,43.2510895670001,-77.6639838259999,305,"340 PICTURESQUE DRIVE, ROCHESTER, NY, 14616","Match","Exact","340 PICTURESQUE DR, ROCHESTER, NY, 14616",14526589,"R"
529806,"340 PINE BLUFF","PARIS","TX",75460,33.664024886,-95.553262123,306,"340 PINE BLUFF, PARIS, TX, 75460","Match","Non_Exact","340 PINE BLUFF ST, PARIS, TX, 75460",63574352,"L"
529807,"340 PINE GROVE RD","GARDNERS","PA",17324,40.063855265,-77.225440022,307,"340 PINE GROVE RD, GARDNERS, PA, 17324","Match","Exact","340 PINE GROVE RD, GARDNERS, PA, 17324",647960892,"R"
529808,"340 PINE HILL LANE","BOONES MILL","VA",24065,37.098023315,-79.9856685189999,308,"340 PINE HILL LANE, BOONES MILL, VA, 24065","Match","Exact","340 PINE HILL LN, BOONES MILL, VA, 24065",647353524,"R"
529809,"340 PINE HILL ROAD","MILL VALLEY","CA",94941,37.8835134280001,-122.533519342,309,"340 PINE HILL ROAD, MILL VALLEY, CA, 94941","Match","Exact","340 PINE HILL RD, MILL VALLEY, CA, 94941",192769455,"R"
529810,"340 PLANTATION ROAD","AMHERST","VA",24521,37.4967945390001,-79.045164321,310,"340 PLANTATION ROAD, AMHERST, VA, 24521","Match","Exact","340 PLANTATION RD, AMHERST, VA, 24521",159129260,"L"
529811,"340 PLENMAR DRIVE","SHEPHERDSVILLE","KY",40165,37.9202864440001,-85.6753365169999,311,"340 PLENMAR DRIVE, SHEPHERDSVILLE, KY, 40165","Match","Exact","340 PLENMAR DR, SHEPHERDSVILLE, KY, 40165",47742024,"L"
529812,"340 POMANDER AVENUE","READING","PA",19606,40.2963659640001,-75.85503727,312,"340 POMANDER AVENUE, READING, PA, 19606","Match","Exact","340 POMANDER AVE, READING, PA, 19606",80405253,"L"
529813,"340 PORK LANE","WILMINGTON","DE",19804,39.716003018,-75.596914763,313,"340 PORK LANE, WILMINGTON, DE, 19804","Match","Non_Exact","340 PARK LN, WILMINGTON, DE, 19804",187283599,"L"
529814,"340 PORTION ROAD","RONKONKOMA","NY",11779,40.827999988,-73.100013437,314,"340 PORTION ROAD, RONKONKOMA, NY, 11779","Match","Exact","340 PORTION RD, RONKONKOMA, NY, 11779",114005350,"R"
529815,"340 PROCTOR DRIVE","SALISBURY","NC",28147,35.709351084,-80.514333187,315,"340 PROCTOR DRIVE, SALISBURY, NC, 28147","Match","Exact","340 PROCTOR DR, SALISBURY, NC, 28147",25283044,"L"
529816,"340 PROSPECT PL","ALPHARETTA","GA",30005,NA,NA,316,"340 PROSPECT PL, ALPHARETTA, GA, 30005","No_Match",NA,NA,NA,NA
529817,"340 PROSPECT ST","MIDLAND PARK","NJ",7432,41.0030046030001,-74.1380582469999,317,"340 PROSPECT ST, MIDLAND PARK, NJ, 7432","Match","Exact","340 PROSPECT ST, MIDLAND PARK, NJ, 07432",64403007,"R"
529818,"340 PUTNAM STREET","WATERVILLE","NY",13480,42.930744083,-75.3744670789999,318,"340 PUTNAM STREET, WATERVILLE, NY, 13480","Match","Exact","340 PUTNAM ST, WATERVILLE, NY, 13480",171519227,"L"
529819,"340 QUARRY LANE","LIBERTY HILL","TX",78642,30.665156466,-97.889994927,319,"340 QUARRY LANE, LIBERTY HILL, TX, 78642","Match","Exact","340 QUARRY LN, LIBERTY HILL, TX, 78642",620001384,"L"
529820,"340 QUARRY RD","FANCY GAP","VA",24328,36.6809792350001,-80.621591226,320,"340 QUARRY RD, FANCY GAP, VA, 24328","Match","Non_Exact","340 QUARREY RD, FANCY GAP, VA, 24328",653478777,"R"
529821,"340 RANDOLPH ST","BRISTOL","VA",24201,36.605740445,-82.198699915,321,"340 RANDOLPH ST, BRISTOL, VA, 24201","Match","Exact","340 RANDOLPH ST, BRISTOL, VA, 24201",154347357,"R"
529822,"340 RAPID CREEK ROAD","INKOM","ID",83245,42.798367011,-112.249900111,322,"340 RAPID CREEK ROAD, INKOM, ID, 83245","Match","Non_Exact","340 N RAPID CREEK RD, INKOM, ID, 83245",204377029,"L"
529823,"340 RAWLING DRIVE","HARRISON","OH",45030,39.25956596,-84.778489936,323,"340 RAWLING DRIVE, HARRISON, OH, 45030","Match","Exact","340 RAWLING DR, HARRISON, OH, 45030",103966309,"R"
529824,"340 READING ROAD","CINCINNATI","OH",45214,39.1085658980001,-84.5083168749999,324,"340 READING ROAD, CINCINNATI, OH, 45214","Match","Non_Exact","340 READING RD, CINCINNATI, OH, 45202",103936372,"L"
529825,"340 RED BARN ROAD","STANFORD","KY",40484,37.5574549730001,-84.682531162,325,"340 RED BARN ROAD, STANFORD, KY, 40484","Match","Exact","340 RED BARN RD, STANFORD, KY, 40484",634086102,"R"
529826,"340 REDROCK DR","ANTIOCH","CA",94509,37.9782966860001,-121.797219185,326,"340 REDROCK DR, ANTIOCH, CA, 94509","Match","Exact","340 REDROCK DR, ANTIOCH, CA, 94509",192090970,"R"
529827,"340 RESOR AVENUE","CINCINNATI","OH",45220,39.1475839390001,-84.520570203,327,"340 RESOR AVENUE, CINCINNATI, OH, 45220","Match","Exact","340 RESOR AVE, CINCINNATI, OH, 45220",103924327,"R"
529828,"340 REV S HOWARD WOODSON JR WAY","TRENTON","NJ",8618,NA,NA,328,"340 REV S HOWARD WOODSON JR WAY, TRENTON, NJ, 8618","No_Match",NA,NA,NA,NA
529829,"340 RIGGANS WAY","FRANKLINTON","NC",27525,36.1216659730001,-78.475118147,329,"340 RIGGANS WAY, FRANKLINTON, NC, 27525","Match","Exact","340 RIGGANS WAY, FRANKLINTON, NC, 27525",90235490,"R"
529830,"340 RIGSBY STREET","LA HABRA","CA",90631,33.934663291,-117.973636979,330,"340 RIGSBY STREET, LA HABRA, CA, 90631","Match","Exact","340 RIGSBY ST, LA HABRA, CA, 90631",143997704,"R"
529831,"340 ROBIN HOOD LANE","SANFORD","NC",27330,NA,NA,331,"340 ROBIN HOOD LANE, SANFORD, NC, 27330","No_Match",NA,NA,NA,NA
529832,"340 ROBINSON LANE","WILMINGTON","DE",19805,39.7325469420001,-75.577137125,332,"340 ROBINSON LANE, WILMINGTON, DE, 19805","Match","Exact","340 ROBINSON LN, WILMINGTON, DE, 19805",187255388,"R"
529833,"340 ROCK ROAD","GLEN ROCK","NJ",7452,40.962296333,-74.1252335249999,333,"340 ROCK ROAD, GLEN ROCK, NJ, 7452","Match","Exact","340 ROCK RD, GLEN ROCK, NJ, 07452",64412926,"R"
529834,"340 ROCKY MEADOW RD NW","NEW SALISBURY","IN",47161,38.290431052,-86.130552065,334,"340 ROCKY MEADOW RD NW, NEW SALISBURY, IN, 47161","Match","Exact","340 ROCKY MEADOW RD NW, NEW SALISBURY, IN, 47161",34806461,"R"
529835,"340 ROSEBOWER CHURCH RD","PADUCAH","KY",42003,36.991321111,-88.493088352,335,"340 ROSEBOWER CHURCH RD, PADUCAH, KY, 42003","Match","Exact","340 ROSEBOWER CHURCH RD, PADUCAH, KY, 42003",8400983,"R"
529836,"340 ROSEMONT DRIVE","STATE COLLEGE","PA",16801,40.739520064,-77.881894129,336,"340 ROSEMONT DRIVE, STATE COLLEGE, PA, 16801","Match","Exact","340 ROSEMONT DR, STATE COLLEGE, PA, 16801",50395693,"L"
529837,"340 ROSEWOOD AVENUE SUITE J","CAMARILLO","CA",93010,34.2206269760001,-119.06158298,337,"340 ROSEWOOD AVENUE SUITE J, CAMARILLO, CA, 93010","Match","Exact","340 ROSEWOOD AVE, CAMARILLO, CA, 93010",109960137,"R"
529838,"340 ROYAL POINCIANA WAY STE 317-127","PALM BEACH","FL",33480,26.7181460250001,-80.043330284,338,"340 ROYAL POINCIANA WAY STE 317-127, PALM BEACH, FL, 33480","Match","Exact","340 ROYAL POINCIANA WAY, PALM BEACH, FL, 33480",115279677,"L"
529839,"340 ROYAL POINCIANA WAY STE 317-191","PALM BEACH","FL",33480,26.7181460250001,-80.043330284,339,"340 ROYAL POINCIANA WAY STE 317-191, PALM BEACH, FL, 33480","Match","Exact","340 ROYAL POINCIANA WAY, PALM BEACH, FL, 33480",115279677,"L"
529840,"340 ROYAL POINCIANA WAY SUIT 317-19","PALM BEACH","FL",33480,26.7181460250001,-80.043330284,340,"340 ROYAL POINCIANA WAY SUIT 317-19, PALM BEACH, FL, 33480","Match","Exact","340 ROYAL POINCIANA WAY, PALM BEACH, FL, 33480",115279677,"L"
529841,"340 RUTHERFORD STREET","GOLETA","CA",93117,34.4344150410001,-119.825309574,341,"340 RUTHERFORD STREET, GOLETA, CA, 93117","Match","Exact","340 RUTHERFORD ST, GOLETA, CA, 93117",108640307,"L"
529842,"340 S 4TH STREET","AURORA","IL",60505,41.7495915200001,-88.3139106579999,342,"340 S 4TH STREET, AURORA, IL, 60505","Match","Exact","340 S 4TH ST, AURORA, IL, 60505",119516148,"L"
529843,"340 S ADAMS","BLACKFOOT","ID",83221,43.1827885920001,-112.341317864,343,"340 S ADAMS, BLACKFOOT, ID, 83221","Match","Non_Exact","340 S ADAMS AVE, BLACKFOOT, ID, 83221",130045557,"R"
529844,"340 S Beach St  Ste 140","Daytona Beach","FL",32114,29.207519984,-81.017129976,344,"340 S Beach St  Ste 140, Daytona Beach, FL, 32114","Match","Non_Exact","340 S BEACH ST, DAYTONA BEACH, FL, 32114",639870248,"R"
529845,"340 S BEACH ST  STE 140","Daytona Beach","FL",32114,29.207519984,-81.017129976,345,"340 S BEACH ST  STE 140, Daytona Beach, FL, 32114","Match","Non_Exact","340 S BEACH ST, DAYTONA BEACH, FL, 32114",639870248,"R"
529846,"340 S CLOVERDALE AVENUE APT 303","LOS ANGELES","CA",90036,34.068084588,-118.346157792,346,"340 S CLOVERDALE AVENUE APT 303, LOS ANGELES, CA, 90036","Match","Non_Exact","340 S CLOVERDALE AVE, LOS ANGELES, CA, 90036",141600036,"L"
529847,"340 S ELM DR APT 202","BEVERLY HILLS","CA",90212,34.060835388,-118.39488522,347,"340 S ELM DR APT 202, BEVERLY HILLS, CA, 90212","Match","Non_Exact","340 S ELM DR, BEVERLY HILLS, CA, 90212",142719035,"L"
529848,"340 S LAUREL STREET","RICHMOND","VA",23220,37.541251516,-77.4516675949999,348,"340 S LAUREL STREET, RICHMOND, VA, 23220","Match","Exact","340 S LAUREL ST, RICHMOND, VA, 23220",201539315,"R"
529849,"340 S LEAMINGTON","CHICAGO","IL",60644,41.8757413340001,-87.7533894279999,349,"340 S LEAMINGTON, CHICAGO, IL, 60644","Match","Non_Exact","340 S LEAMINGTON AVE, CHICAGO, IL, 60644",605077966,"R"
529850,"340 S LEMON AVE  UNIT 9317","WALNUT","CA",91789,34.0194121910001,-117.865390166,350,"340 S LEMON AVE  UNIT 9317, WALNUT, CA, 91789","Match","Exact","340 LEMON AVE, WALNUT, CA, 91789",241246087,"R"
529851,"340 S LEMON AVE - 7303","WALNUT","CA",91789,34.0194121910001,-117.865390166,351,"340 S LEMON AVE - 7303, WALNUT, CA, 91789","Match","Exact","340 LEMON AVE, WALNUT, CA, 91789",241246087,"R"
529852,"340 S LEMON AVE / 9159","WALNUT","CA",91789,34.0194121910001,-117.865390166,352,"340 S LEMON AVE / 9159, WALNUT, CA, 91789","Match","Exact","340 LEMON AVE, WALNUT, CA, 91789",241246087,"R"
529853,"340 S LEMON AVE 6333","WALNUT","CA",91789,34.0194121910001,-117.865390166,353,"340 S LEMON AVE 6333, WALNUT, CA, 91789","Match","Exact","340 LEMON AVE, WALNUT, CA, 91789",241246087,"R"
529854,"340 S LEMON AVE 7016","WALUNUT","CA",91789,34.0194121910001,-117.865390166,354,"340 S LEMON AVE 7016, WALUNUT, CA, 91789","Match","Non_Exact","340 LEMON AVE, WALNUT, CA, 91789",241246087,"R"
529855,"340 S LEMON AVE 9119","WALNUT","CA",91789,34.0194121910001,-117.865390166,355,"340 S LEMON AVE 9119, WALNUT, CA, 91789","Match","Exact","340 LEMON AVE, WALNUT, CA, 91789",241246087,"R"
529856,"340 S LEMON AVE 9511","WALNUT","CA",91789,34.0194121910001,-117.865390166,356,"340 S LEMON AVE 9511, WALNUT, CA, 91789","Match","Exact","340 LEMON AVE, WALNUT, CA, 91789",241246087,"R"
529857,"340 S LEMON AVE APT 2157","WALNUT","CA",91789,34.0194121910001,-117.865390166,357,"340 S LEMON AVE APT 2157, WALNUT, CA, 91789","Match","Exact","340 LEMON AVE, WALNUT, CA, 91789",241246087,"R"
529858,"340 S LEMON AVE NO 7442","WALNUT","CA",91789,34.0194121910001,-117.865390166,358,"340 S LEMON AVE NO 7442, WALNUT, CA, 91789","Match","Non_Exact","340 LEMON AVE, WALNUT, CA, 91789",241246087,"R"
529859,"340 S LEMON AVE NUM 3265","WALNUT","CA",91789,34.0194121910001,-117.865390166,359,"340 S LEMON AVE NUM 3265, WALNUT, CA, 91789","Match","Exact","340 LEMON AVE, WALNUT, CA, 91789",241246087,"R"
529860,"340 S LEMON AVE NUM 6071","WALNUT","CA",91789,34.0194121910001,-117.865390166,360,"340 S LEMON AVE NUM 6071, WALNUT, CA, 91789","Match","Exact","340 LEMON AVE, WALNUT, CA, 91789",241246087,"R"
529861,"340 S LEMON AVE NUM 7222","WALNUT","CA",91789,34.0194121910001,-117.865390166,361,"340 S LEMON AVE NUM 7222, WALNUT, CA, 91789","Match","Exact","340 LEMON AVE, WALNUT, CA, 91789",241246087,"R"
529862,"340 S LEMON AVE NUM 9334","WALNUT","CA",91789,34.0194121910001,-117.865390166,362,"340 S LEMON AVE NUM 9334, WALNUT, CA, 91789","Match","Exact","340 LEMON AVE, WALNUT, CA, 91789",241246087,"R"
529863,"340 S LEMON AVE NUMBER 1531","WALNUT","CA",91789,34.0194121910001,-117.865390166,363,"340 S LEMON AVE NUMBER 1531, WALNUT, CA, 91789","Match","Exact","340 LEMON AVE, WALNUT, CA, 91789",241246087,"R"
529864,"340 S LEMON AVE STE 1077","WALNUT","CA",91789,34.0194121910001,-117.865390166,364,"340 S LEMON AVE STE 1077, WALNUT, CA, 91789","Match","Exact","340 LEMON AVE, WALNUT, CA, 91789",241246087,"R"
529865,"340 S LEMON AVE STE 1514","WALNUT","CA",91789,34.0194121910001,-117.865390166,365,"340 S LEMON AVE STE 1514, WALNUT, CA, 91789","Match","Exact","340 LEMON AVE, WALNUT, CA, 91789",241246087,"R"
529866,"340 S LEMON AVE STE 6870","WALNUT","CA",91789,34.0194121910001,-117.865390166,366,"340 S LEMON AVE STE 6870, WALNUT, CA, 91789","Match","Exact","340 LEMON AVE, WALNUT, CA, 91789",241246087,"R"
529867,"340 S LEMON AVE STE 9330","WALNUT","CA",91789,34.0194121910001,-117.865390166,367,"340 S LEMON AVE STE 9330, WALNUT, CA, 91789","Match","Exact","340 LEMON AVE, WALNUT, CA, 91789",241246087,"R"
529868,"340 S LEMON AVE SUITE 2220","WALNUT","CA",91789,34.0194121910001,-117.865390166,368,"340 S LEMON AVE SUITE 2220, WALNUT, CA, 91789","Match","Exact","340 LEMON AVE, WALNUT, CA, 91789",241246087,"R"
529869,"340 S LEMON AVE UNIT 6869","WALNUT","CA",91789,34.0194121910001,-117.865390166,369,"340 S LEMON AVE UNIT 6869, WALNUT, CA, 91789","Match","Exact","340 LEMON AVE, WALNUT, CA, 91789",241246087,"R"
529870,"340 S LEMON AVE UNIT 7879","WALNUT","CA",91789,34.0194121910001,-117.865390166,370,"340 S LEMON AVE UNIT 7879, WALNUT, CA, 91789","Match","Exact","340 LEMON AVE, WALNUT, CA, 91789",241246087,"R"
529871,"340 S LEMON AVE UNIT 9678","WALNUT","CA",91789,34.0194121910001,-117.865390166,371,"340 S LEMON AVE UNIT 9678, WALNUT, CA, 91789","Match","Exact","340 LEMON AVE, WALNUT, CA, 91789",241246087,"R"
529872,"340 S LEMON AVE","WALNUT","CA",91789,34.0194244910001,-117.865396091,372,"340 S LEMON AVE, WALNUT, CA, 91789","Match","Exact","340 LEMON AVE, WALNUT, CA, 91789",241246087,"R"
529873,"340 S LEMON AVENUE - UNIT 2073","WALNUT","CA",91789,34.0194121910001,-117.865390166,373,"340 S LEMON AVENUE - UNIT 2073, WALNUT, CA, 91789","Match","Exact","340 LEMON AVE, WALNUT, CA, 91789",241246087,"R"
529874,"340 S LEMON AVENUE 2925","WALNUT","CA",91789,34.0194121910001,-117.865390166,374,"340 S LEMON AVENUE 2925, WALNUT, CA, 91789","Match","Exact","340 LEMON AVE, WALNUT, CA, 91789",241246087,"R"
529875,"340 S LEMON AVENUE 8332","WALNUT","CA",91789,34.0194121910001,-117.865390166,375,"340 S LEMON AVENUE 8332, WALNUT, CA, 91789","Match","Exact","340 LEMON AVE, WALNUT, CA, 91789",241246087,"R"
529876,"340 S MADISON ST  APT 315","WILMINGTON","DE",19801,NA,NA,376,"340 S MADISON ST  APT 315, WILMINGTON, DE, 19801","Tie",NA,NA,NA,NA
529877,"340 S MADISON ST","PILGER","NE",68768,42.0048450940001,-97.051221744,377,"340 S MADISON ST, PILGER, NE, 68768","Match","Exact","340 S MADISON ST, PILGER, NE, 68768",161848899,"R"
529878,"340 S MAIN ST","FREELAND","MI",48623,NA,NA,378,"340 S MAIN ST, FREELAND, MI, 48623","No_Match",NA,NA,NA,NA
529879,"340 S MESQUITE CT","MOSES LAKE","WA",98837,47.1069247990001,-119.273794728,379,"340 S MESQUITE CT, MOSES LAKE, WA, 98837","Match","Exact","340 MESQUITE CT, MOSES LAKE, WA, 98837",157104410,"R"
529880,"340 S OCEAN BLVD","DELRAY BEACH","FL",33483,26.4687356900001,-80.057136121,380,"340 S OCEAN BLVD, DELRAY BEACH, FL, 33483","Match","Non_Exact","340 N OCEAN BLVD, DELRAY BEACH, FL, 33483",614290966,"L"
529881,"340 S OSTRANDER RD","EAST AURORA","NY",14052,NA,NA,381,"340 S OSTRANDER RD, EAST AURORA, NY, 14052","No_Match",NA,NA,NA,NA
529882,"340 S STILL ST","AUTRYVILLE","NC",28318,34.995104011,-78.640186054,382,"340 S STILL ST, AUTRYVILLE, NC, 28318","Match","Exact","340 S STILL ST, AUTRYVILLE, NC, 28318",638265645,"R"
529883,"340 S STREET W","MISSOULA","MT",59801,46.8488291190001,-114.001624518,383,"340 S STREET W, MISSOULA, MT, 59801","Match","Non_Exact","340 SOUTH AVE W, MISSOULA, MT, 59801",205239155,"R"
529884,"340 S TROOPER RD","NORRISTOWN","PA",19403,40.1350875270001,-75.3970750619999,384,"340 S TROOPER RD, NORRISTOWN, PA, 19403","Match","Exact","340 S TROOPER RD, NORRISTOWN, PA, 19403",135070214,"L"
529885,"340 S WAGGONER RD","REYNOLDSBURG","OH",43068,39.984400787,-82.7912885,385,"340 S WAGGONER RD, REYNOLDSBURG, OH, 43068","Match","Exact","340 WAGGONER RD, REYNOLDSBURG, OH, 43068",135618915,"L"
529886,"340 S WILLIAMS ST","LEBANON","OR",97355,44.5423313260001,-122.902597422,386,"340 S WILLIAMS ST, LEBANON, OR, 97355","Match","Exact","340 S WILLIAMS ST, LEBANON, OR, 97355",156062287,"L"
529887,"340 SAMPLE FLATS ROAD","CORRY","PA",16407,41.9075305530001,-79.606357095,387,"340 SAMPLE FLATS ROAD, CORRY, PA, 16407","Match","Exact","340 SAMPLE FLATS RD, CORRY, PA, 16407",98672895,"L"
529888,"340 SAN MARCUS DR","VALLEJO","CA",94590,38.0890565440001,-122.236960643,388,"340 SAN MARCUS DR, VALLEJO, CA, 94590","Match","Exact","340 SAN MARCUS DR, VALLEJO, CA, 94590",192529514,"L"
529889,"340 SAPPHIRE BEND","RIVERDALE","GA",30296,33.5577893110001,-84.471961914,389,"340 SAPPHIRE BEND, RIVERDALE, GA, 30296","Match","Exact","340 SAPPHIRE BEND, RIVERDALE, GA, 30296",625040945,"R"
529890,"340 SAWGRASS VIEW","FAIRBURN","GA",30572,33.5543215770001,-84.6074101039999,390,"340 SAWGRASS VIEW, FAIRBURN, GA, 30572","Match","Non_Exact","340 SAWGRASS VW, FAIRBURN, GA, 30213",643369806,"L"
529891,"340 SE 148TH AVE APT 2B","PORTLAND","OR",97233,45.520071472,-122.510672896,391,"340 SE 148TH AVE APT 2B, PORTLAND, OR, 97233","Match","Non_Exact","340 SE 148TH AVE, PORTLAND, OR, 97233",157561443,"L"
529892,"340 SE 3RD STREET","MIAMI","FL",33131,25.771738962,-80.18843005,392,"340 SE 3RD STREET, MIAMI, FL, 33131","Match","Exact","340 SE 3RD ST, MIAMI, FL, 33131",650146947,"R"
529893,"340 SE HIGH STREET","MITCHELL","OR",97750,44.565374483,-120.147779998,393,"340 SE HIGH STREET, MITCHELL, OR, 97750","Match","Exact","340 SE HIGH ST, MITCHELL, OR, 97750",153314947,"R"
529894,"340 SENATOR ST","BROOKLYN","NY",11220,40.6367003280001,-74.024388979,394,"340 SENATOR ST, BROOKLYN, NY, 11220","Match","Exact","340 SENATOR ST, BROOKLYN, NY, 11220",59094214,"R"
529895,"340 SHERIFF MILL RD","EASLEY","SC",29642,34.7862276050001,-82.572443988,395,"340 SHERIFF MILL RD, EASLEY, SC, 29642","Match","Exact","340 SHERIFF MILL RD, EASLEY, SC, 29642",26208479,"L"
529896,"340 SILVERWOOD DRIVE","LITITZ","PA",17543,40.191124153,-76.360820787,396,"340 SILVERWOOD DRIVE, LITITZ, PA, 17543","Match","Exact","340 SILVERWOOD DR, LITITZ, PA, 17543",179690024,"R"
529897,"340 SKENES AVENUE","HENDERSON","NC",27536,36.3091219020001,-78.403741571,397,"340 SKENES AVENUE, HENDERSON, NC, 27536","Match","Exact","340 SKENES AVE, HENDERSON, NC, 27536",90271803,"L"
529898,"340 SOMERSET ST","STANFORD","KY",40484,37.523672049,-84.661568345,398,"340 SOMERSET ST, STANFORD, KY, 40484","Match","Exact","340 SOMERSET ST, STANFORD, KY, 40484",636732672,"R"
529899,"340 SOUTH 11TH AVENUE","POCATELLO","ID",83205,42.8685810800001,-112.435238101,399,"340 SOUTH 11TH AVENUE, POCATELLO, ID, 83205","Match","Non_Exact","340 S 11TH AVE, POCATELLO, ID, 83201",204352762,"L"
529900,"340 SOUTH 1300 EAST","SALT LAKE CITY","UT",84102,40.761916252,-111.85388989,400,"340 SOUTH 1300 EAST, SALT LAKE CITY, UT, 84102","Match","Exact","340 S 1300 E, SALT LAKE CITY, UT, 84102",176068309,"R"
529901,"340 SOUTH 3D STREET","BROOKLYN","NY",11211,NA,NA,401,"340 SOUTH 3D STREET, BROOKLYN, NY, 11211","No_Match",NA,NA,NA,NA
529902,"340 SOUTH 3RD STREET SUITE C5","BROOKLYN","NY",11211,40.7092687900001,-73.953642668,402,"340 SOUTH 3RD STREET SUITE C5, BROOKLYN, NY, 11211","Match","Exact","340 S 3RD ST, BROOKLYN, NY, 11211",59076748,"R"
529903,"340 SOUTH COYOTE LN","ANAHEIM","CA",92808,33.855901874,-117.760878197,403,"340 SOUTH COYOTE LN, ANAHEIM, CA, 92808","Match","Exact","340 S COYOTE LN, ANAHEIM, CA, 92808",645234823,"L"
529904,"340 SOUTH LEMON AVENUE UNIT 1494","WALNUT","CA",91789,34.0194244910001,-117.865396091,404,"340 SOUTH LEMON AVENUE UNIT 1494, WALNUT, CA, 91789","Match","Non_Exact","340 LEMON AVE, WALNUT, CA, 91789",241246087,"R"
529905,"340 SOUTH MESA STREET","SAN PEDRO","CA",90731,33.740908941,-118.28567822,405,"340 SOUTH MESA STREET, SAN PEDRO, CA, 90731","Match","Exact","340 S MESA ST, SAN PEDRO, CA, 90731",141689774,"L"
529906,"340 SOUTH PALM AVENUE","SARASOTA","FL",34236,27.333031448,-82.541333937,406,"340 SOUTH PALM AVENUE, SARASOTA, FL, 34236","Match","Exact","340 S PALM AVE, SARASOTA, FL, 34236",16427368,"R"
529907,"340 SOUTH REGENT STREET","PORT CHESTER","NY",10573,40.9960841720001,-73.674334581,407,"340 SOUTH REGENT STREET, PORT CHESTER, NY, 10573","Match","Exact","340 S REGENT ST, PORT CHESTER, NY, 10573",139757082,"R"
529908,"340 SOUTH STATE ROAD","BRIARCLIFF MANOR","NY",10510,41.1345012020001,-73.8194821879999,408,"340 SOUTH STATE ROAD, BRIARCLIFF MANOR, NY, 10510","Match","Exact","340 S STATE RD, BRIARCLIFF MANOR, NY, 10510",139840686,"L"
529909,"340 SPENCER LANE","BOSQUE FARMS","NM",87068,34.8475151970001,-106.68623344,409,"340 SPENCER LANE, BOSQUE FARMS, NM, 87068","Match","Exact","340 SPENCER LN, BOSQUE FARMS, NM, 87068",611874441,"R"
529910,"340 ST FRANCIS","ST JAMES","MO",65559,38.003487584,-91.6125355629999,410,"340 ST FRANCIS, ST JAMES, MO, 65559","Match","Non_Exact","340 SAINT FRANCIS AVE, SAINT JAMES, MO, 65559",45071972,"R"
529911,"340 STALLING ROAD NW","MILLEDGEVILLE","GA",31061,NA,NA,411,"340 STALLING ROAD NW, MILLEDGEVILLE, GA, 31061","No_Match",NA,NA,NA,NA
529912,"340 STANLEY PLAZA BLVD","NEWARK","DE",19713,39.67307184,-75.700677409,412,"340 STANLEY PLAZA BLVD, NEWARK, DE, 19713","Match","Exact","340 STANLEY PLAZA BLVD, NEWARK, DE, 19713",187282542,"R"
529913,"340 STEVENSON LANE","TOWSON","MD",21204,39.3834215910001,-76.6118391159999,413,"340 STEVENSON LANE, TOWSON, MD, 21204","Match","Exact","340 STEVENSON LN, TOWSON, MD, 21204",191539606,"L"
529914,"340 SUMMIT AVENUE","SAINT PAUL","MN",55102,44.9436298310001,-93.113851439,414,"340 SUMMIT AVENUE, SAINT PAUL, MN, 55102","Match","Exact","340 SUMMIT AVE, SAINT PAUL, MN, 55102",97647882,"L"
529915,"340 SUNKEE ROAD","LIVINGSTON","TX",10034,30.712778255,-94.6844474119999,415,"340 SUNKEE ROAD, LIVINGSTON, TX, 10034","Match","Non_Exact","340 SUNKEE RD, LIVINGSTON, TX, 77351",23223495,"R"
529916,"340 SYLVAN DR 340 SYLVAN DR","GOLETA","CA",93117,34.445291282,-119.823134296,416,"340 SYLVAN DR 340 SYLVAN DR, GOLETA, CA, 93117","Match","Exact","340 SYLVAN DR, GOLETA, CA, 93117",108601424,"R"
529917,"340 SYLVAN DR","GOLETA","CA",93117,34.445291282,-119.823134296,417,"340 SYLVAN DR, GOLETA, CA, 93117","Match","Exact","340 SYLVAN DR, GOLETA, CA, 93117",108601424,"R"
529918,"340 TAYLOR ST","TALENT","OR",97540,42.2353688810001,-122.773658802,418,"340 TAYLOR ST, TALENT, OR, 97540","Match","Exact","340 TAYLOR ST, TALENT, OR, 97540",155521232,"L"
529919,"340 TAYLOR STREET  NE","WASHINGTON","FL",20017,NA,NA,419,"340 TAYLOR STREET  NE, WASHINGTON, FL, 20017","No_Match",NA,NA,NA,NA
529920,"340 TELLURIDE RDG","BUTTE","MT",59701,NA,NA,420,"340 TELLURIDE RDG, BUTTE, MT, 59701","No_Match",NA,NA,NA,NA
529921,"340 TICK RIDGE ROAD","VINCENT","OH",45784,39.3442097760001,-81.71087231,421,"340 TICK RIDGE ROAD, VINCENT, OH, 45784","Match","Exact","340 TICK RIDGE RD, VINCENT, OH, 45784",642840737,"L"
529922,"340 TOM WEST ROAD","EASTMAN","GA",31023,32.198434766,-83.246012518,422,"340 TOM WEST ROAD, EASTMAN, GA, 31023","Match","Exact","340 TOM WEST RD, EASTMAN, GA, 31023",9525933,"R"
529923,"340 TOMAHAWK ROAD","JEFFERSON CITY","MO",65101,38.5538158250001,-92.112929887,423,"340 TOMAHAWK ROAD, JEFFERSON CITY, MO, 65101","Match","Exact","340 TOMAHAWK RD, JEFFERSON CITY, MO, 65101",34410450,"R"
529924,"340 TOP AVE","GREEN BROOK","NJ",8812,40.6108654490001,-74.482572852,424,"340 TOP AVE, GREEN BROOK, NJ, 8812","Match","Exact","340 TOP AVE, GREEN BROOK, NJ, 08812",59941017,"R"
529925,"340 TRANSYLVANIA PARK","LEXINGTON","KY",40508,38.0365703940001,-84.4955935849999,425,"340 TRANSYLVANIA PARK, LEXINGTON, KY, 40508","Match","Exact","340 TRANSYLVANIA PARK, LEXINGTON, KY, 40508",31952225,"R"
529926,"340 TURNBERRY PLACE SUITE I","ST PETERS","MO",63376,NA,NA,426,"340 TURNBERRY PLACE SUITE I, ST PETERS, MO, 63376","No_Match",NA,NA,NA,NA
529927,"340 TURNPIKE DRIVE","CAMDEN","ME",4843,44.2358019220001,-69.0857434929999,427,"340 TURNPIKE DRIVE, CAMDEN, ME, 4843","Match","Exact","340 TURNPIKE DR, CAMDEN, ME, 04843",75563447,"L"
529928,"340 TURTLE CREEK LANE","ST ROSE","LA",70087,29.94622947,-90.322112943,428,"340 TURTLE CREEK LANE, ST ROSE, LA, 70087","Match","Exact","340 TURTLE CREEK LN, SAINT ROSE, LA, 70087",93618574,"L"
529929,"340 U2 HAVEN DR","GREENVILLE","NC",23834,35.5696218840001,-77.389111409,429,"340 U2 HAVEN DR, GREENVILLE, NC, 23834","Match","Non_Exact","340 HAVEN DR, GREENVILLE, NC, 27834",638299674,"L"
529930,"340 UNITED WAY A 14","DOVER","DE",19904,39.1584465990001,-75.514992895,430,"340 UNITED WAY A 14, DOVER, DE, 19904","Match","Non_Exact","340 UNITED WAY, DOVER, DE, 19901",641075054,"R"
529931,"340 VALLEY SPRING ROAD","COLUMBIA","SC",29223,34.1156836690001,-80.894825063,431,"340 VALLEY SPRING ROAD, COLUMBIA, SC, 29223","Match","Exact","340 VALLEY SPRINGS RD, COLUMBIA, SC, 29223",71826796,"R"
529932,"340 VETERAN HILL ROAD","HORSEHEADS","NY",14845,42.2070603550001,-76.7843337909999,432,"340 VETERAN HILL ROAD, HORSEHEADS, NY, 14845","Match","Exact","340 VETERAN HILL RD, HORSEHEADS, NY, 14845",18554267,"L"
529933,"340 VIA LINDA VISTA","REDONDO BEACH","CA",90277,33.8118082940001,-118.378418896,433,"340 VIA LINDA VISTA, REDONDO BEACH, CA, 90277","Match","Exact","340 VIA LINDA VIS, REDONDO BEACH, CA, 90277",642193534,"L"
529934,"340 VICTORIA LN","STOCKBRIDGE","GA",30281,33.49743224,-84.250879456,434,"340 VICTORIA LN, STOCKBRIDGE, GA, 30281","Match","Exact","340 VICTORIA LN, STOCKBRIDGE, GA, 30281",23202560,"R"
529935,"340 VIEW CREST DR","GLENDALE","CA",91202,34.1744556,-118.261597927,435,"340 VIEW CREST DR, GLENDALE, CA, 91202","Match","Non_Exact","340 VIEW CREST RD, GLENDALE, CA, 91202",142729910,"L"
529936,"340 VILLA AVENUE","WHITE SULPHUR SPRING","WV",24986,37.7969678010001,-80.3088839819999,436,"340 VILLA AVENUE, WHITE SULPHUR SPRING, WV, 24986","Match","Non_Exact","340 VILLA AVE, WHT SULPHUR S, WV, 24986",74751459,"R"
529937,"340 W 23RD STREET UNIT 3","CHICAGO","IL",60616,41.8509268020001,-87.635870009,437,"340 W 23RD STREET UNIT 3, CHICAGO, IL, 60616","Match","Non_Exact","340 W 23RD ST, CHICAGO, IL, 60616",605506132,"R"
529938,"340 W 36TH STREET","LORAIN","OH",44052,41.437218774,-82.1672434979999,438,"340 W 36TH STREET, LORAIN, OH, 44052","Match","Exact","340 W 36TH ST, LORAIN, OH, 44052",55406127,"R"
529939,"340 W 7TH ST","AINSWORTH","NE",69210,42.553510498,-99.865994955,439,"340 W 7TH ST, AINSWORTH, NE, 69210","Match","Exact","340 W 7TH ST, AINSWORTH, NE, 69210",193692094,"R"
529940,"340 W 85TH ST","NEW YORK","NY",10024,40.7887640110001,-73.979702635,440,"340 W 85TH ST, NEW YORK, NY, 10024","Match","Exact","340 W 85TH ST, NEW YORK, NY, 10024",611170510,"L"
529941,"340 W 87TH BROADWAY APT 3","LOS ANGELES","CA",90003,NA,NA,441,"340 W 87TH BROADWAY APT 3, LOS ANGELES, CA, 90003","No_Match",NA,NA,NA,NA
529942,"340 W BUTTERFIELD ROAD SUITE 2A","ELMHURST","IL",60126,NA,NA,442,"340 W BUTTERFIELD ROAD SUITE 2A, ELMHURST, IL, 60126","Tie",NA,NA,NA,NA
529943,"340 W DIVERSEY PARKWAY- 1719","CHICAGO","IL",60657,NA,NA,443,"340 W DIVERSEY PARKWAY- 1719, CHICAGO, IL, 60657","No_Match",NA,NA,NA,NA
529944,"340 W FLAGLER ST APT 2402","MIAMI","FL",33130,25.774007338,-80.197947695,444,"340 W FLAGLER ST APT 2402, MIAMI, FL, 33130","Match","Non_Exact","340 W FLAGLER ST, MIAMI, FL, 33130",116018249,"L"
529945,"340 W HIGHLAND DR","LAKELAND","FL",33813,27.9857934610001,-81.959251719,445,"340 W HIGHLAND DR, LAKELAND, FL, 33813","Match","Exact","340 W HIGHLAND DR, LAKELAND, FL, 33813",104888842,"L"
529946,"340 W INDIANA AVENUE","ARGOS","IN",46051,41.23808295,-86.249976526,446,"340 W INDIANA AVENUE, ARGOS, IN, 46051","Match","Non_Exact","340 INDIANA AVE, ARGOS, IN, 46501",7650863,"R"
529947,"340 W LINCOLN","WHITE HALL","IL",62092,39.440813495,-90.409093452,447,"340 W LINCOLN, WHITE HALL, IL, 62092","Match","Non_Exact","340 W LINCOLN ST, WHITE HALL, IL, 62092",89167440,"L"
529948,"340 W MAIN ST","NEWCASTLE","WY",82701,43.8538373690001,-104.206760844,448,"340 W MAIN ST, NEWCASTLE, WY, 82701","Match","Exact","340 W MAIN ST, NEWCASTLE, WY, 82701",147492403,"R"
529949,"340 W OLIVER STREET","SAN PEDRO","CA",90731,33.746915313,-118.284420843,449,"340 W OLIVER STREET, SAN PEDRO, CA, 90731","Match","Exact","340 W OLIVER ST, SAN PEDRO, CA, 90731",141689756,"R"
529950,"340 W PALATINE RD","PALATINE","IL",60067,42.110372345,-88.0525750049999,450,"340 W PALATINE RD, PALATINE, IL, 60067","Match","Exact","340 W PALATINE RD, PALATINE, IL, 60067",111695943,"R"
529951,"340 W QUARRY STREET","DEERFIELD","WI",53531,43.0482154520001,-89.082548235,451,"340 W QUARRY STREET, DEERFIELD, WI, 53531","Match","Exact","340 W QUARRY ST, DEERFIELD, WI, 53531",49557813,"R"
529952,"340 W SACATON","ORO VALLEY","AZ",85755,NA,NA,452,"340 W SACATON, ORO VALLEY, AZ, 85755","No_Match",NA,NA,NA,NA
529953,"340 W WICKENBURG WAY STE A PMB 64","WICKENBURG","AZ",85390,NA,NA,453,"340 W WICKENBURG WAY STE A PMB 64, WICKENBURG, AZ, 85390","Tie",NA,NA,NA,NA
529954,"340 W WILSON AVE","MOORESVILLE","NC",28117,35.580159644,-80.820435625,454,"340 W WILSON AVE, MOORESVILLE, NC, 28117","Match","Non_Exact","340 W WILSON AVE, MOORESVILLE, NC, 28115",45991946,"L"
529955,"340 WAGNER AVENUE","BUTLER","PA",16001,40.864524213,-79.901373113,455,"340 WAGNER AVENUE, BUTLER, PA, 16001","Match","Non_Exact","340 N WAGNER AVE, BUTLER, PA, 16001",52656863,"L"
529956,"340 WALNUT ST","SALLEY","SC",29137,33.565341731,-81.308166458,456,"340 WALNUT ST, SALLEY, SC, 29137","Match","Exact","340 WALNUT ST, SALLEY, SC, 29137",64983601,"L"
529957,"340 WALNUT STREET","CLINTON","IN",47842,39.656044079,-87.400245135,457,"340 WALNUT STREET, CLINTON, IN, 47842","Match","Exact","340 WALNUT ST, CLINTON, IN, 47842",66502619,"L"
529958,"340 WALTON STREET","LEMOYNE","PA",17043,40.239482563,-76.887763509,458,"340 WALTON STREET, LEMOYNE, PA, 17043","Match","Exact","340 WALTON ST, LEMOYNE, PA, 17043",653375158,"L"
529959,"340 WAVERLY DRIVE","CORPUS CHRISTI","TX",78412,27.719953871,-97.3415263539999,459,"340 WAVERLY DRIVE, CORPUS CHRISTI, TX, 78412","Match","Exact","340 WAVERLY DR, CORPUS CHRISTI, TX, 78412",178522021,"R"
529960,"340 WENTWORTH AVE","BATTLE CREEK","MI",49015,42.3019928940001,-85.2043679399999,460,"340 WENTWORTH AVE, BATTLE CREEK, MI, 49015","Match","Exact","340 WENTWORTH AVE, BATTLE CREEK, MI, 49015",11712429,"R"
529961,"340 WEST 15TH ST","PORT ARTHUR","TX",77640,29.8738192970001,-93.950673992,461,"340 WEST 15TH ST, PORT ARTHUR, TX, 77640","Match","Exact","340 W 15TH ST, PORT ARTHUR, TX, 77640",73867523,"L"
529962,"340 WEST 28TH STREET APT 7J","NEW YORK","NY",10001,40.7493474400001,-73.99740135,462,"340 WEST 28TH STREET APT 7J, NEW YORK, NY, 10001","Match","Exact","340 W 28TH ST, NEW YORK, NY, 10001",610199410,"L"
529963,"340 WEST 45TH STREET","LOS ANGELES","CA",90037,34.002876499,-118.279243313,463,"340 WEST 45TH STREET, LOS ANGELES, CA, 90037","Match","Exact","340 W 45TH ST, LOS ANGELES, CA, 90037",141608252,"L"
529964,"340 WEST 4TH STREET","SAN BERNARDINO","CA",92404,34.1064480590001,-117.290624401,464,"340 WEST 4TH STREET, SAN BERNARDINO, CA, 92404","Match","Non_Exact","340 W 4TH ST, SAN BERNARDINO, CA, 92401",144655448,"R"
529965,"340 West 57th Street","New York","NY",10019,40.767308536,-73.9842887739999,465,"340 West 57th Street, New York, NY, 10019","Match","Exact","340 W 57TH ST, NEW YORK, NY, 10019",650078188,"L"
529966,"340 WEST 86TH STREET APT 3B","NEW YORK","NY",10024,40.789327008,-73.978915973,466,"340 WEST 86TH STREET APT 3B, NEW YORK, NY, 10024","Match","Exact","340 W 86TH ST, NEW YORK, NY, 10024",59656600,"L"
529967,"340 WEST 87TH STREET APT 5A","NEW YORK","NY",10025,40.790004917,-73.978424686,467,"340 WEST 87TH STREET APT 5A, NEW YORK, NY, 10025","Match","Non_Exact","340 W 87TH ST, NEW YORK, NY, 10024",650153294,"L"
529968,"340 WEST BUTTERFIELD ROAD SUITE 2A","ELMHURST","IL",60126,41.8657648940001,-87.9491366409999,468,"340 WEST BUTTERFIELD ROAD SUITE 2A, ELMHURST, IL, 60126","Match","Exact","340 W BUTTERFIELD RD, ELMHURST, IL, 60126",639231651,"R"
529969,"340 WEST GOODALE STREET APT 406","COLUMBUS","OH",43215,39.9739134590001,-83.0111458109999,469,"340 WEST GOODALE STREET APT 406, COLUMBUS, OH, 43215","Match","Exact","340 W GOODALE ST, COLUMBUS, OH, 43215",641083918,"R"
529970,"340 WEST LOMA VISTA STREET","GILBERT","AZ",85233,33.3154934510001,-111.796677831,470,"340 WEST LOMA VISTA STREET, GILBERT, AZ, 85233","Match","Exact","340 W LOMA VISTA ST, GILBERT, AZ, 85233",128796326,"R"
529971,"340 WEST PINES DRIVE","MONTGOMERY","TX",77356,30.4248374370001,-95.652516638,471,"340 WEST PINES DRIVE, MONTGOMERY, TX, 77356","Match","Exact","340 W PINES DR, MONTGOMERY, TX, 77356",625401762,"L"
529972,"340 WESTCHESTER PLACE","SLIDELL","LA",70458,30.2501871540001,-89.7885755309999,472,"340 WESTCHESTER PLACE, SLIDELL, LA, 70458","Match","Exact","340 WESTCHESTER PL, SLIDELL, LA, 70458",111265500,"L"
529973,"340 WILDWOOD LAKE CT","SUWANEE","GA",30024,34.0062821990001,-84.0302349249999,473,"340 WILDWOOD LAKE CT, SUWANEE, GA, 30024","Match","Exact","340 WILDWOOD LAKE CT, SUWANEE, GA, 30024",88918311,"L"
529974,"340 WILKINSON WAY","THE VILLAGES","FL",32162,28.9257911510001,-82.008046539,474,"340 WILKINSON WAY, THE VILLAGES, FL, 32162","Match","Exact","340 WILKINSON WAY, THE VILLAGES, FL, 32162",612349912,"L"
529975,"340 WILLARDS WAY","SELDOVIA","AK",99663,NA,NA,475,"340 WILLARDS WAY, SELDOVIA, AK, 99663","No_Match",NA,NA,NA,NA
529976,"340 WILLOW ST","ONAWAY","ID",83855,NA,NA,476,"340 WILLOW ST, ONAWAY, ID, 83855","No_Match",NA,NA,NA,NA
529977,"340 WILLOW STREET","BRIDEPORT","CT",6610,41.1910922480001,-73.159149366,477,"340 WILLOW STREET, BRIDEPORT, CT, 6610","Match","Non_Exact","340 WILLOW ST, BRIDGEPORT, CT, 06610",3226758,"R"
529978,"340 WINDSONG DR","LYNCH STATION","VA",24571,37.136932589,-79.31085475,478,"340 WINDSONG DR, LYNCH STATION, VA, 24571","Match","Exact","340 WINDSONG DR, LYNCH STATION, VA, 24571",62704291,"R"
529979,"340 WOODMERE CREEK LN","BIRMINGHAM","AL",35226,33.4316626950001,-86.8148385919999,479,"340 WOODMERE CREEK LN, BIRMINGHAM, AL, 35226","Match","Exact","340 WOODMERE CREEK LN, BIRMINGHAM, AL, 35226",624091722,"L"
529980,"340 WOODRUFF AVENUE","WAKEFIELD","RI",2879,41.4361921730001,-71.494680005,480,"340 WOODRUFF AVENUE, WAKEFIELD, RI, 2879","Match","Exact","340 WOODRUFF AVE, WAKEFIELD, RI, 02879",58903082,"R"
529981,"340 WOODSIDE RD","PITTSBURGH","PA",15221,40.432826146,-79.8601782549999,481,"340 WOODSIDE RD, PITTSBURGH, PA, 15221","Match","Exact","340 WOODSIDE RD, PITTSBURGH, PA, 15221",638532814,"R"
529982,"340-B WINDING RIVER DRIVE","SANDY SPRINGS","GA",30350,33.9977151680001,-84.346519689,482,"340-B WINDING RIVER DRIVE, SANDY SPRINGS, GA, 30350","Match","Non_Exact","340 WINDING RIVER DR NE, SANDY SPRINGS, GA, 30350",17402883,"L"
529983,"3400  WINFIELD DR","AUSTIN","TX",78704,30.2388376070001,-97.780511975,483,"3400  WINFIELD DR, AUSTIN, TX, 78704","Match","Exact","3400 WINFIELD DR, AUSTIN, TX, 78704",63943698,"R"
529984,"3400 104TH AVENUE","ZEELAND","MI",49464,42.832010548,-86.039096098,484,"3400 104TH AVENUE, ZEELAND, MI, 49464","Match","Exact","3400 104TH AVE, ZEELAND, MI, 49464",71100576,"R"
529985,"3400 13TH ST SE","MINOG","ND",58701,48.2280911350001,-101.274038766,485,"3400 13TH ST SE, MINOG, ND, 58701","Match","Non_Exact","3400 13TH ST SE, MINOT, ND, 58701",200521870,"L"
529986,"3400 13TH ST SE","MINOT","ND",58701,48.2280911350001,-101.274038766,486,"3400 13TH ST SE, MINOT, ND, 58701","Match","Exact","3400 13TH ST SE, MINOT, ND, 58701",200521870,"L"
529987,"3400 13TH STREET SE","WASHINGTON","DC",20032,38.8417740900001,-76.988494442,487,"3400 13TH STREET SE, WASHINGTON, DC, 20032","Match","Exact","3400 13TH ST SE, WASHINGTON, DC, 20032",76232506,"L"
529988,"3400 19TH STREET SE","WASHINGTON","DC",20020,38.84641793,-76.977017406,488,"3400 19TH STREET SE, WASHINGTON, DC, 20020","Match","Exact","3400 19TH ST SE, WASHINGTON, DC, 20020",76244490,"L"
529989,"3400 1ST ST NE","GREAT FALLS","MT",59404,47.536793636,-111.313341827,489,"3400 1ST ST NE, GREAT FALLS, MT, 59404","Match","Exact","3400 1ST ST NE, GREAT FALLS, MT, 59404",627260404,"R"
529990,"3400 1ST STREET N SUITE 404","ST CLOUD","MN",56303,45.5550157580001,-94.199680969,490,"3400 1ST STREET N SUITE 404, ST CLOUD, MN, 56303","Match","Exact","3400 1ST ST N, SAINT CLOUD, MN, 56303",107414409,"L"
529991,"3400 24TH AVE S","GRAND FORKS","ND",58201,47.8966339360001,-97.077558059,491,"3400 24TH AVE S, GRAND FORKS, ND, 58201","Match","Exact","3400 24TH AVE S, GRAND FORKS, ND, 58201",171288393,"L"
529992,"3400 25TH STREET S APT 27","ARLINGTON","VA",22206,38.847255331,-77.083977868,492,"3400 25TH STREET S APT 27, ARLINGTON, VA, 22206","Match","Exact","3400 25TH ST S, ARLINGTON, VA, 22206",76471818,"L"
529993,"3400 33RD PLACE NORTH","BIRMINGHAM","AL",35207,33.558985971,-86.799113056,493,"3400 33RD PLACE NORTH, BIRMINGHAM, AL, 35207","Match","Exact","3400 33RD PL N, BIRMINGHAM, AL, 35207",81728311,"L"
529994,"3400 3RD AVE S","MINNEAPOLIS","MN",55408,44.941218314,-93.272764819,494,"3400 3RD AVE S, MINNEAPOLIS, MN, 55408","Match","Exact","3400 3RD AVE S, MINNEAPOLIS, MN, 55408",43633799,"R"
529995,"3400 ALEXANDER AVE","ANCHORAGE","AK",99508,61.203213878,-149.817396973,495,"3400 ALEXANDER AVE, ANCHORAGE, AK, 99508","Match","Exact","3400 ALEXANDER AVE, ANCHORAGE, AK, 99508",190799598,"R"
529996,"3400 ANDRADE AVE","RICHMOND","CA",94804,37.9477923520001,-122.334437235,496,"3400 ANDRADE AVE, RICHMOND, CA, 94804","Match","Exact","3400 ANDRADE AVE, RICHMOND, CA, 94804",192039805,"R"
529997,"3400 ARROW DRIVE","KNOXVILLE","TN",37914,35.9867249100001,-83.868621804,497,"3400 ARROW DRIVE, KNOXVILLE, TN, 37914","Match","Exact","3400 ARROW DR, KNOXVILLE, TN, 37914",42629840,"L"
529998,"3400 AVENUE H 2ND FLOOR","ROSENBERG","TX",77471,29.558816812,-95.792016089,498,"3400 AVENUE H 2ND FLOOR, ROSENBERG, TX, 77471","Match","Exact","3400 AVE H, ROSENBERG, TX, 77471",78339893,"R"
529999,"3400 AVENUE OF THE ARTS B408","COSTA MESA","CA",92626,33.691329598,-117.880976931,499,"3400 AVENUE OF THE ARTS B408, COSTA MESA, CA, 92626","Match","Exact","3400 AVE OF THE ARTS, COSTA MESA, CA, 92626",609061865,"L"
530000,"3400 BANKS RD 103","MARGATE","FL",33063,26.270818009,-80.194540913,500,"3400 BANKS RD 103, MARGATE, FL, 33063","Match","Exact","3400 BANKS RD, MARGATE, FL, 33063",648154377,"L"
