"ID","Address","City","State","Zip","lat","long","id","input_address","match_indicator","match_type","matched_address","tiger_line_id","tiger_side"
719001,"5440 ST RD 110","ARGOS","IN",46501,41.1722453290001,-86.161469516,1,"5440 ST RD 110, ARGOS, IN, 46501","Match","Exact","5440 STATE RD 110, ARGOS, IN, 46501",7651047,"R"
719002,"5440 STATE HIGHWAY 103","BRONSON","TX",75930,31.4242973780001,-93.9648202979999,2,"5440 STATE HIGHWAY 103, BRONSON, TX, 75930","Match","Exact","5440 STATE HWY 103, BRONSON, TX, 75930",634679064,"L"
719003,"5440 SW WESTGATE DR  SUITE 175","PORTLAND","OR",97221,45.5106248120001,-122.73439203,3,"5440 SW WESTGATE DR  SUITE 175, PORTLAND, OR, 97221","Match","Non_Exact","5440 SW WESTGATE DR, PORTLAND, OR, 97221",157604435,"L"
719004,"5440 TEE DR","RIDGE MANOR","FL",33523,28.515147321,-82.17739457,4,"5440 TEE DR, RIDGE MANOR, FL, 33523","Match","Exact","5440 TEE DR, RIDGE MANOR, FL, 33523",85429479,"R"
719005,"5440 TRABUCO RD","IRVINE","CA",92620,NA,NA,5,"5440 TRABUCO RD, IRVINE, CA, 92620","No_Match",NA,NA,NA,NA
719006,"5440 TRABUCO ROAD","IRVINE","CA",92620,NA,NA,6,"5440 TRABUCO ROAD, IRVINE, CA, 92620","No_Match",NA,NA,NA,NA
719007,"5440 TREE TOP TRL","FORT PIERCE","FL",34951,27.532596717,-80.375831005,7,"5440 TREE TOP TRL, FORT PIERCE, FL, 34951","Match","Exact","5440 TREE TOP TRL, FORT PIERCE, FL, 34951",610756445,"R"
719008,"5440 TRUMPET VINE TRAIL","MABLETON","GA",30126,33.8165065050001,-84.526752011,8,"5440 TRUMPET VINE TRAIL, MABLETON, GA, 30126","Match","Non_Exact","5440 TRUMPET VINE TRL SE, MABLETON, GA, 30126",17241665,"L"
719009,"5440 TUJUNGA AVE APT 421","NORTH HOLLYWOOD","CA",91601,34.169691915,-118.378961193,9,"5440 TUJUNGA AVE APT 421, NORTH HOLLYWOOD, CA, 91601","Match","Exact","5440 TUJUNGA AVE, N HOLLYWOOD, CA, 91601",141564932,"R"
719010,"5440 TUJUNGA AVE APT 504","NORTH HOLLYWOOD","CA",91601,34.169691915,-118.378961193,10,"5440 TUJUNGA AVE APT 504, NORTH HOLLYWOOD, CA, 91601","Match","Exact","5440 TUJUNGA AVE, N HOLLYWOOD, CA, 91601",141564932,"R"
719011,"5440 TUXBURY POND DR","FORT WORT","TX",76179,32.847989274,-97.404245449,11,"5440 TUXBURY POND DR, FORT WORT, TX, 76179","Match","Non_Exact","5440 TUXBURY POND DR, FORT WORTH, TX, 76179",648715883,"R"
719012,"5440 TUXBURY POND DR","FORT WORTH","TX",76179,32.847989274,-97.404245449,12,"5440 TUXBURY POND DR, FORT WORTH, TX, 76179","Match","Exact","5440 TUXBURY POND DR, FORT WORTH, TX, 76179",648715883,"R"
719013,"5440 VALLEY CIRCLE B","WOODLAND HILLS","CA",91367,34.169747225,-118.643801978,13,"5440 VALLEY CIRCLE B, WOODLAND HILLS, CA, 91367","Match","Non_Exact","5440 VALLEY CIRCLE BLVD, WOODLAND HILLS, CA, 91367",640425402,"R"
719014,"5440 VALLEY CIRCLE BLVD","WOODLAND HILLS","CA",91367,34.169747225,-118.643801978,14,"5440 VALLEY CIRCLE BLVD, WOODLAND HILLS, CA, 91367","Match","Exact","5440 VALLEY CIRCLE BLVD, WOODLAND HILLS, CA, 91367",640425402,"R"
719015,"5440 VERNON AVE S APT 226","EDINA","MN",55436,44.90544484,-93.35969479,15,"5440 VERNON AVE S APT 226, EDINA, MN, 55436","Match","Exact","5440 VERNON AVE S, EDINA, MN, 55436",43837350,"R"
719016,"5440 VINE ROAD","ST. CLAIR","MI",48079,42.8383434140001,-82.534421749,16,"5440 VINE ROAD, ST. CLAIR, MI, 48079","Match","Non_Exact","5440 VINE ST, SAINT CLAIR, MI, 48079",110986393,"L"
719017,"5440 WEST JONES BRIDGE ROAD","NORCROSS","GA",30092,33.985063358,-84.230453847,17,"5440 WEST JONES BRIDGE ROAD, NORCROSS, GA, 30092","Match","Exact","5440 W JONES BRIDGE RD, NORCROSS, GA, 30092",88941262,"L"
719018,"5440 WEST STACK DRIVE","MILWAUKEE","WI",53219,42.991267872,-87.981966971,18,"5440 WEST STACK DRIVE, MILWAUKEE, WI, 53219","Match","Exact","5440 W STACK DR, MILWAUKEE, WI, 53219",77748518,"R"
719019,"5440 WOODRIDGE DR","ORANGE","TX",77632,30.205189282,-93.882455584,19,"5440 WOODRIDGE DR, ORANGE, TX, 77632","Match","Exact","5440 WOODRIDGE DR, ORANGE, TX, 77632",74013934,"L"
719020,"5440 WOODRIDGE DRIVE","ORANGE","TX",77632,30.205189282,-93.882455584,20,"5440 WOODRIDGE DRIVE, ORANGE, TX, 77632","Match","Exact","5440 WOODRIDGE DR, ORANGE, TX, 77632",74013934,"L"
719021,"5440 YORK LANE NORTH","COLUMBUS","OH",43232,39.950983013,-82.851437415,21,"5440 YORK LANE NORTH, COLUMBUS, OH, 43232","Match","Exact","5440 YORK LN N, COLUMBUS, OH, 43232",218649910,"L"
719022,"54409 NINE MILE ROAD","NORTHVILLE","MI",48167,42.4484845760001,-83.585631187,22,"54409 NINE MILE ROAD, NORTHVILLE, MI, 48167","Match","Exact","54409 9 MILE RD, NORTHVILLE, MI, 48167",641241393,"L"
719023,"5441 10TH AVENUE SOUTH","MINNEAPOLIS","MN",55417,44.904482193,-93.260103349,23,"5441 10TH AVENUE SOUTH, MINNEAPOLIS, MN, 55417","Match","Exact","5441 10TH AVE S, MINNEAPOLIS, MN, 55417",43635040,"L"
719024,"5441 19TH STREET","ZEPHYRHILLS,","FL",33542,28.236476241,-82.1724114639999,24,"5441 19TH STREET, ZEPHYRHILLS,, FL, 33542","Match","Exact","5441 19TH ST, ZEPHYRHILLS, FL, 33542",86354813,"L"
719025,"5441 AMANDA DRIVE","WHITEHALL","PA",18052,NA,NA,25,"5441 AMANDA DRIVE, WHITEHALL, PA, 18052","No_Match",NA,NA,NA,NA
719026,"5441 ASPHODEL DRIVE","BATON ROUGE","LA",70806,30.4527299920001,-91.1339034059999,26,"5441 ASPHODEL DRIVE, BATON ROUGE, LA, 70806","Match","Exact","5441 ASPHODEL DR, BATON ROUGE, LA, 70806",92189097,"L"
719027,"5441 BALLS BLUFF","WOODBRIDGE","VA",22193,38.6152861960001,-77.368671007,27,"5441 BALLS BLUFF, WOODBRIDGE, VA, 22193","Match","Non_Exact","5441 BALLS BLUFF CT, WOODBRIDGE, VA, 22193",614162406,"L"
719028,"5441 BAY SHORE DR","PRESQUE ISLE","MI",49777,45.3409405100001,-83.5024660029999,28,"5441 BAY SHORE DR, PRESQUE ISLE, MI, 49777","Match","Exact","5441 BAY SHORE DR, PRESQUE ISLE, MI, 49777",635241598,"R"
719029,"5441 BELLE VISTA AVE","BALTIMORE","MD",21206,39.3420677,-76.551135077,29,"5441 BELLE VISTA AVE, BALTIMORE, MD, 21206","Match","Exact","5441 BELLE VISTA AVE, BALTIMORE, MD, 21206",206411541,"R"
719030,"5441 DOUG ALLAN LANE","EL PASO","TX",79932,31.85663227,-106.589384481,30,"5441 DOUG ALLAN LANE, EL PASO, TX, 79932","Match","Exact","5441 DOUG ALLAN LN, EL PASO, TX, 79932",618949048,"L"
719031,"5441 E 131ST AVE","ANCHORAGE","AK",99516,61.1099394300001,-149.783911748,31,"5441 E 131ST AVE, ANCHORAGE, AK, 99516","Match","Exact","5441 E 131ST AVE, ANCHORAGE, AK, 99516",190804023,"L"
719032,"5441 E BARWICK DRIVE","CAVE CREEK","AZ",85331,33.756715447,-111.96315014,32,"5441 E BARWICK DRIVE, CAVE CREEK, AZ, 85331","Match","Exact","5441 E BARWICK DR, CAVE CREEK, AZ, 85331",646734612,"L"
719033,"5441 HARAS PL","FORT WASHINGTON","MD",20744,38.8124015830001,-76.9601341869999,33,"5441 HARAS PL, FORT WASHINGTON, MD, 20744","Match","Exact","5441 HARAS PL, FT WASHINGTON, MD, 20744",76389915,"R"
719034,"5441 KAIKI DRIVE","DIAMONDHEAD","MS",39525,30.380542255,-89.375077038,34,"5441 KAIKI DRIVE, DIAMONDHEAD, MS, 39525","Match","Exact","5441 KAIKI DR, DIAMONDHEAD, MS, 39525",111129010,"R"
719035,"5441 LARDEO DRIVE UNIT 52","LEXINGTON","KY",40517,NA,NA,35,"5441 LARDEO DRIVE UNIT 52, LEXINGTON, KY, 40517","No_Match",NA,NA,NA,NA
719036,"5441 LARKSPUR CIRCLE","ANCHORAGE","AK",99507,61.1717751250001,-149.852346716,36,"5441 LARKSPUR CIRCLE, ANCHORAGE, AK, 99507","Match","Exact","5441 LARKSPUR CIR, ANCHORAGE, AK, 99507",648442778,"R"
719037,"5441 LAWN AVENUE","WESTERN SPRINGS","IL",60558,41.7908425480001,-87.899425036,37,"5441 LAWN AVENUE, WESTERN SPRINGS, IL, 60558","Match","Exact","5441 LAWN AVE, WESTERN SPRINGS, IL, 60558",111789513,"L"
719038,"5441 MADISON AVE","HUDSONVILLE","MI",49426,42.8682660970001,-85.867680521,38,"5441 MADISON AVE, HUDSONVILLE, MI, 49426","Match","Exact","5441 MADISON AVE, HUDSONVILLE, MI, 49426",71082773,"L"
719039,"5441 MANATEE BAY LANE","FORT MEYERS","FL",33905,26.6652220490001,-81.798132487,39,"5441 MANATEE BAY LANE, FORT MEYERS, FL, 33905","Match","Non_Exact","5441 MANATEE BAY LN, FORT MYERS, FL, 33905",118116296,"R"
719040,"5441 MANATEE BAY LANE","FORT MYERS","FL",33905,26.6652220490001,-81.798132487,40,"5441 MANATEE BAY LANE, FORT MYERS, FL, 33905","Match","Exact","5441 MANATEE BAY LN, FORT MYERS, FL, 33905",118116296,"R"
719041,"5441 MANATEE POINT DRIVE","NEW PORT RICHEY","FL",34652,28.265641379,-82.723746609,41,"5441 MANATEE POINT DRIVE, NEW PORT RICHEY, FL, 34652","Match","Exact","5441 MANATEE POINT DR, NEW PORT RICHEY, FL, 34652",646885350,"R"
719042,"5441 MANOR ROAD","PRIOR LAKE","MN",55372,44.7251566580001,-93.4102400099999,42,"5441 MANOR ROAD, PRIOR LAKE, MN, 55372","Match","Non_Exact","5441 MANOR RD SE, PRIOR LAKE, MN, 55372",38142060,"R"
719043,"5441 MEADOW POINT DRIVE","SOUTHAVEN","MS",38671,NA,NA,43,"5441 MEADOW POINT DRIVE, SOUTHAVEN, MS, 38671","No_Match",NA,NA,NA,NA
719044,"5441 N 24TH ST","GLENDALE","WI",53209,43.116023086,-87.9413582669999,44,"5441 N 24TH ST, GLENDALE, WI, 53209","Match","Exact","5441 N 24TH ST, GLENDALE, WI, 53209",77735776,"L"
719045,"5441 N 73RD STREET","MILWAUKEE","WI",53218,43.115676222,-88.002127778,45,"5441 N 73RD STREET, MILWAUKEE, WI, 53218","Match","Exact","5441 N 73RD ST, MILWAUKEE, WI, 53218",77726176,"L"
719046,"5441 N ARMSTRONG AVENUE","BOISE","ID",83704,43.654612725,-116.309579586,46,"5441 N ARMSTRONG AVENUE, BOISE, ID, 83704","Match","Exact","5441 N ARMSTRONG AVE, BOISE, ID, 83704",117856241,"L"
719047,"5441 N UINTA STREET","DENVER","CO",80238,39.795343374,-104.893917487,47,"5441 N UINTA STREET, DENVER, CO, 80238","Match","Exact","5441 N UINTA ST, DENVER, CO, 80238",645173145,"L"
719048,"5441 NE 22ND AVE","FORT LAUDERDALE","FL",33308,26.193698962,-80.1149201979999,48,"5441 NE 22ND AVE, FORT LAUDERDALE, FL, 33308","Match","Exact","5441 NE 22ND AVE, FORT LAUDERDALE, FL, 33308",114724044,"L"
719049,"5441 NINTH AVENUE","SACRAMENTO","CA",95820,38.543538094,-121.442154672,49,"5441 NINTH AVENUE, SACRAMENTO, CA, 95820","Match","Exact","5441 9TH AVE, SACRAMENTO, CA, 95820",133336137,"L"
719050,"5441 NOOK DRIVE","HOUSTON","TX",77016,NA,NA,50,"5441 NOOK DRIVE, HOUSTON, TX, 77016","No_Match",NA,NA,NA,NA
719051,"5441 NW 39TH ST","TOPEKA","KS",66618,39.1163235710001,-95.7485980609999,51,"5441 NW 39TH ST, TOPEKA, KS, 66618","Match","Exact","5441 NW 39TH ST, TOPEKA, KS, 66618",17899100,"R"
719052,"5441 NW 89TH STREET","JOHNSTON","IA",50131,41.6598889890001,-93.741985615,52,"5441 NW 89TH STREET, JOHNSTON, IA, 50131","Match","Exact","5441 NW 89TH ST, JOHNSTON, IA, 50131",65856583,"R"
719053,"5441 PINE KNOLL BLVD","NOBLESVILLE","IN",46062,40.0883941920001,-86.077762875,53,"5441 PINE KNOLL BLVD, NOBLESVILLE, IN, 46062","Match","Exact","5441 PINE KNOLL BLVD, NOBLESVILLE, IN, 46062",29314428,"R"
719054,"5441 RICHENBACHER AVE","ALEXANDRIA","VA",22304,38.8233137460001,-77.1228607259999,54,"5441 RICHENBACHER AVE, ALEXANDRIA, VA, 22304","Match","Exact","5441 RICHENBACHER AVE, ALEXANDRIA, VA, 22304",75982712,"R"
719055,"5441 RISHLEY RUN WAY","MT DORA","FL",32757,28.780495719,-81.614489205,55,"5441 RISHLEY RUN WAY, MT DORA, FL, 32757","Match","Exact","5441 RISHLEY RUN WAY, MOUNT DORA, FL, 32757",634027561,"R"
719056,"5441 RIVERVAIL CT","COLUMBUS","OH",43221,40.06537322,-83.112975747,56,"5441 RIVERVAIL CT, COLUMBUS, OH, 43221","Match","Exact","5441 RIVERVAIL CT, COLUMBUS, OH, 43221",218684853,"R"
719057,"5441 ROLLING HILLS DR","KALAMAZOO","MI",49004,42.3380254140001,-85.6032448349999,57,"5441 ROLLING HILLS DR, KALAMAZOO, MI, 49004","Match","Exact","5441 ROLLING HILLS DR, KALAMAZOO, MI, 49004",12240411,"R"
719058,"5441 S KENWOOD AVE APT 2","CHICAGO","IL",60615,41.7967925020001,-87.593458595,58,"5441 S KENWOOD AVE APT 2, CHICAGO, IL, 60615","Match","Non_Exact","5441 S KENWOOD AVE, CHICAGO, IL, 60615",111771746,"L"
719059,"5441 SEASIDE CYPRESS TRAIL","SAN DIEGO","CA",92130,NA,NA,59,"5441 SEASIDE CYPRESS TRAIL, SAN DIEGO, CA, 92130","No_Match",NA,NA,NA,NA
719060,"5441 SHOT GUN LANE","CANAL WINCHESTER","OH",43110,39.8716793310001,-82.8091397699999,60,"5441 SHOT GUN LANE, CANAL WINCHESTER, OH, 43110","Match","Non_Exact","5441 SHOTGUN DR, CANAL WINCHESTER, OH, 43110",218674387,"R"
719061,"5441 SOUTH CHARITON AVENUE","LOS ANGELES","CA",90056,33.9923198120001,-118.369990965,61,"5441 SOUTH CHARITON AVENUE, LOS ANGELES, CA, 90056","Match","Non_Exact","5441 CHARITON AVE, LOS ANGELES, CA, 90056",141653469,"R"
719062,"5441 STRAWBERRY HILL DR APT C","CHARLOTTE","NC",28211,35.1591388480001,-80.7937728429999,62,"5441 STRAWBERRY HILL DR APT C, CHARLOTTE, NC, 28211","Match","Exact","5441 STRAWBERRY HILL DR, CHARLOTTE, NC, 28211",653476208,"L"
719063,"5441 SUNDALE COVE","MEMPHIS","TN",38135,35.2295222970001,-89.882112669,63,"5441 SUNDALE COVE, MEMPHIS, TN, 38135","Match","Exact","5441 SUNDALE COVE, MEMPHIS, TN, 38135",72964839,"R"
719064,"5441 VASON COURT","BOYNTON BEACH","FL",33437,NA,NA,64,"5441 VASON COURT, BOYNTON BEACH, FL, 33437","No_Match",NA,NA,NA,NA
719065,"5441 VILLA WAY","CYPRESS","CA",90630,33.828006138,-118.037174344,65,"5441 VILLA WAY, CYPRESS, CA, 90630","Match","Exact","5441 VILLA WAY, CYPRESS, CA, 90630",144256972,"R"
719066,"5441 W RIVER RD","SALEM","VA",24153,37.245242601,-80.1581045359999,66,"5441 W RIVER RD, SALEM, VA, 24153","Match","Exact","5441 W RIVER RD, SALEM, VA, 24153",62924990,"L"
719067,"5441 W THOMAS ST","CHICAGO","IL",60651,41.9003518430001,-87.762088575,67,"5441 W THOMAS ST, CHICAGO, IL, 60651","Match","Exact","5441 W THOMAS ST, CHICAGO, IL, 60651",111754060,"L"
719068,"5441 WOODCREST AVE","PHILADELPHIA","PA",19131,39.9905375430001,-75.23413704,68,"5441 WOODCREST AVE, PHILADELPHIA, PA, 19131","Match","Exact","5441 WOODCREST AVE, PHILADELPHIA, PA, 19131",131396672,"R"
719069,"54414 CTY RD F","CENTER","CO",81125,NA,NA,69,"54414 CTY RD F, CENTER, CO, 81125","No_Match",NA,NA,NA,NA
719070,"5442 2ND ST","ST. AUGUSTINE","FL",32080,29.793393516,-81.263947235,70,"5442 2ND ST, ST. AUGUSTINE, FL, 32080","Match","Exact","5442 2ND ST, SAINT AUGUSTINE, FL, 32080",92586406,"R"
719071,"5442 ANGORA TERRACE","PHILADELPHIA","PA",19143,39.946782688,-75.2324983839999,71,"5442 ANGORA TERRACE, PHILADELPHIA, PA, 19143","Match","Exact","5442 ANGORA TER, PHILADELPHIA, PA, 19143",131441947,"L"
719072,"5442 ANSELMO CT","CONCORD","CA",94521,37.9543710990001,-121.949082483,72,"5442 ANSELMO CT, CONCORD, CA, 94521","Match","Exact","5442 ANSELMO CT, CONCORD, CA, 94521",192061804,"R"
719073,"5442 BLINDING LIGHTS","NO LAS VEGAS","NV",89018,NA,NA,73,"5442 BLINDING LIGHTS, NO LAS VEGAS, NV, 89018","No_Match",NA,NA,NA,NA
719074,"5442 CROSS CHURCH ROAD","PINCKNEYVILLE","IL",62274,38.1417919690001,-89.345189868,74,"5442 CROSS CHURCH ROAD, PINCKNEYVILLE, IL, 62274","Match","Exact","5442 CROSS CHURCH RD, PINCKNEYVILLE, IL, 62274",93121273,"R"
719075,"5442 DANIELLI DR N","LAKE PARK","GA",31636,30.7009705890001,-83.196252333,75,"5442 DANIELLI DR N, LAKE PARK, GA, 31636","Match","Non_Exact","5442 DANIELI DR N, LAKE PARK, GA, 31636",87722333,"L"
719076,"5442 E LAURITE AVE","FRESNO","CA",93727,NA,NA,76,"5442 E LAURITE AVE, FRESNO, CA, 93727","No_Match",NA,NA,NA,NA
719077,"5442 EAGLE OWL COURT","WALDORF","MD",20601,38.562563858,-76.7746289419999,77,"5442 EAGLE OWL COURT, WALDORF, MD, 20601","Match","Exact","5442 EAGLE OWL CT, WALDORF, MD, 20601",636780922,"L"
719078,"5442 EDSALL RIDGE PLACE","ALEXANDRIA","VA",22312,38.804798702,-77.142530242,78,"5442 EDSALL RIDGE PLACE, ALEXANDRIA, VA, 22312","Match","Exact","5442 EDSALL RIDGE PL, ALEXANDRIA, VA, 22312",624678591,"R"
719079,"5442 LANTANA AVE","CHARLOTTE","NC",28212,35.1903996550001,-80.770778717,79,"5442 LANTANA AVE, CHARLOTTE, NC, 28212","Match","Exact","5442 LANTANA AVE, CHARLOTTE, NC, 28212",70491957,"R"
719080,"5442 LUCKPENNY PL","COLUMBIA","MD",21045,39.2250272360001,-76.8223044439999,80,"5442 LUCKPENNY PL, COLUMBIA, MD, 21045","Match","Exact","5442 LUCKPENNY PL, COLUMBIA, MD, 21045",158924161,"R"
719081,"5442 NW 113TH PL","DORAL","FL",33178,25.822867553,-80.381484223,81,"5442 NW 113TH PL, DORAL, FL, 33178","Match","Exact","5442 NW 113TH PL, DORAL, FL, 33178",116267585,"L"
719082,"5442 PARTRIDGE AVE","SAINT LOUIS","MO",63120,38.704035436,-90.251297312,82,"5442 PARTRIDGE AVE, SAINT LOUIS, MO, 63120","Match","Exact","5442 PARTRIDGE AVE, SAINT LOUIS, MO, 63120",107595016,"R"
719083,"5442 S CR 400 E","GREENSBURG","IN",47240,39.2596920840001,-85.401476674,83,"5442 S CR 400 E, GREENSBURG, IN, 47240","Match","Exact","5442 S CO RD 400 E, GREENSBURG, IN, 47240",31183166,"R"
719084,"5442 SEABIRD STREET","BAYTOWN","TX",77521,29.812575645,-94.97709231,84,"5442 SEABIRD STREET, BAYTOWN, TX, 77521","Match","Exact","5442 SEABIRD ST, BAYTOWN, TX, 77521",641942241,"R"
719085,"5442 TEAGUE RD","HOUSTON","TX",77041,29.845614369,-95.540588041,85,"5442 TEAGUE RD, HOUSTON, TX, 77041","Match","Exact","5442 TEAGUE RD, HOUSTON, TX, 77041",96019603,"R"
719086,"5442 VERNONBURG DR","COLUMBUS","GA",31907,32.500971626,-84.898097708,86,"5442 VERNONBURG DR, COLUMBUS, GA, 31907","Match","Exact","5442 VERNONBURG DR, COLUMBUS, GA, 31907",624870983,"R"
719087,"5442 W 750 S","JAMESTOWN","IN",46147,39.929916668,-86.570444435,87,"5442 W 750 S, JAMESTOWN, IN, 46147","Match","Exact","5442 W 750 S, JAMESTOWN, IN, 46147",610970486,"R"
719088,"5442 WHITEWOOD AVE","LAKEWOOD","CA",90712,33.8555278040001,-118.135552746,88,"5442 WHITEWOOD AVE, LAKEWOOD, CA, 90712","Match","Exact","5442 WHITEWOOD AVE, LAKEWOOD, CA, 90712",642863456,"R"
719089,"54421 IMPALA ROAD SOUTH","ATHENS","TX",75752,NA,NA,89,"54421 IMPALA ROAD SOUTH, ATHENS, TX, 75752","No_Match",NA,NA,NA,NA
719090,"5443 ALBA RD","HOUSTON","TX",77091,29.846409947,-95.420647413,90,"5443 ALBA RD, HOUSTON, TX, 77091","Match","Exact","5443 ALBA RD, HOUSTON, TX, 77091",96054118,"L"
719091,"5443 AMELIA PLANTATION DRIVE","KATY","TX",77449,29.8504808050001,-95.7091353119999,91,"5443 AMELIA PLANTATION DRIVE, KATY, TX, 77449","Match","Exact","5443 AMELIA PLANTATION DR, KATY, TX, 77449",646704278,"L"
719092,"5443 ARMOUR RD STE 205","COLUMBUS","GA",31909,32.5212892100001,-84.952802458,92,"5443 ARMOUR RD STE 205, COLUMBUS, GA, 31909","Match","Exact","5443 ARMOUR RD, COLUMBUS, GA, 31909",653465203,"R"
719093,"5443 ARMOUR RD","COLUMBUS","GA",31909,32.5212892100001,-84.952802458,93,"5443 ARMOUR RD, COLUMBUS, GA, 31909","Match","Exact","5443 ARMOUR RD, COLUMBUS, GA, 31909",653465203,"R"
719094,"5443 BROOKMEAD DRIVE","WHITTIER","CA",90601,33.9953140740001,-118.038827643,94,"5443 BROOKMEAD DRIVE, WHITTIER, CA, 90601","Match","Exact","5443 BROOKMEAD DR, WHITTIER, CA, 90601",636336519,"R"
719095,"5443 CAJON AVENUE","BUENA PARK","CA",90621,33.880906436,-117.993001814,95,"5443 CAJON AVENUE, BUENA PARK, CA, 90621","Match","Exact","5443 CAJON AVE, BUENA PARK, CA, 90621",612190668,"R"
719096,"5443 CHEROKEE","DEARBORN HEIGHTS","MI",48125,42.2720907820001,-83.281876467,96,"5443 CHEROKEE, DEARBORN HEIGHTS, MI, 48125","Match","Non_Exact","5443 CHEROKEE ST, DEARBORN HEIGHTS, MI, 48125",95503724,"L"
719097,"5443 FAIRLAWN SHORES TRAIL SE","PRIOR LAKE","MN",55372,44.732189885,-93.410207758,97,"5443 FAIRLAWN SHORES TRAIL SE, PRIOR LAKE, MN, 55372","Match","Exact","5443 FAIRLAWN SHORES TRL SE, PRIOR LAKE, MN, 55372",38145363,"R"
719098,"5443 GRANDIN RD EXT","ROANOKE","VA",24018,37.245501296,-80.04267172,98,"5443 GRANDIN RD EXT, ROANOKE, VA, 24018","Match","Non_Exact","5443 GRANDIN RD EXD, ROANOKE, VA, 24018",62907474,"L"
719099,"5443 HERTFORD DRIVE","TROY","MI",48085,42.597030761,-83.144823494,99,"5443 HERTFORD DRIVE, TROY, MI, 48085","Match","Exact","5443 HERTFORD DR, TROY, MI, 48085",69832870,"L"
719100,"5443 LINDSEY ROAD","ELM CITY","NC",27822,35.830555593,-77.8907260939999,100,"5443 LINDSEY ROAD, ELM CITY, NC, 27822","Match","Exact","5443 LINDSEY RD, ELM CITY, NC, 27822",26730826,"L"
719101,"5443 MERRYGOLF DR","PLAINFIELD","IN",46164,NA,NA,101,"5443 MERRYGOLF DR, PLAINFIELD, IN, 46164","No_Match",NA,NA,NA,NA
719102,"5443 NORTH PARAMOUNT BLVD APT 203","LONG BEACH","CA",90805,33.855493289,-118.159865797,102,"5443 NORTH PARAMOUNT BLVD APT 203, LONG BEACH, CA, 90805","Match","Exact","5443 N PARAMOUNT BLVD, LONG BEACH, CA, 90805",142774327,"L"
719103,"5443 PEARSONS CORNER RD","DOVER","DE",19904,39.185567566,-75.6283948829999,103,"5443 PEARSONS CORNER RD, DOVER, DE, 19904","Match","Exact","5443 PEARSONS CORNER RD, DOVER, DE, 19904",68102496,"L"
719104,"5443 PRIMROSE STREET","HOUSTON","TX",77017,29.6880438100001,-95.240463614,104,"5443 PRIMROSE STREET, HOUSTON, TX, 77017","Match","Exact","5443 PRIMROSE ST, HOUSTON, TX, 77017",96093529,"L"
719105,"5443 QUEENSHIP COURT","GREENACRES","FL",33463,26.598595554,-80.1317671369999,105,"5443 QUEENSHIP COURT, GREENACRES, FL, 33463","Match","Exact","5443 QUEENSHIP CT, GREENACRES, FL, 33463",648321371,"R"
719106,"5443 RIDGEWOOD DR","NEW KENT","VA",23124,37.537123046,-77.1191742409999,106,"5443 RIDGEWOOD DR, NEW KENT, VA, 23124","Match","Exact","5443 RIDGEWOOD DR, NEW KENT, VA, 23124",106731366,"L"
719107,"5443 S ROME STREET","AURORA","CO",80015,39.6175109610001,-104.730854173,107,"5443 S ROME STREET, AURORA, CO, 80015","Match","Exact","5443 S ROME ST, AURORA, CO, 80015",177537844,"L"
719108,"5443 SHANNON ROAD","HARTFORD","WI",53027,43.2584679450001,-88.309491679,108,"5443 SHANNON ROAD, HARTFORD, WI, 53027","Match","Exact","5443 SHANNON RD, HARTFORD, WI, 53027",652363559,"L"
719109,"5443 SOUTH MOUND RD","SHERRILL","IA",52073,42.6042736310001,-90.787869599,109,"5443 SOUTH MOUND RD, SHERRILL, IA, 52073","Match","Exact","5443 S MOUND RD, SHERRILL, IA, 52073",622946813,"L"
719110,"5443 THE BRIDDLE PATH","COLUMBIA","MD",21044,39.220461992,-76.883614371,110,"5443 THE BRIDDLE PATH, COLUMBIA, MD, 21044","Match","Non_Exact","5443 THE BRIDLE PATH, COLUMBIA, MD, 21044",158938780,"L"
719111,"5443 THREE CHOPT RD","LOUISA","VA",23093,37.871672098,-78.0315485949999,111,"5443 THREE CHOPT RD, LOUISA, VA, 23093","Match","Exact","5443 THREE CHOPT RD, LOUISA, VA, 23093",652317155,"L"
719112,"5443 TOPEKA DR","TARZANA","CA",91356,34.1699231490001,-118.546580666,112,"5443 TOPEKA DR, TARZANA, CA, 91356","Match","Exact","5443 TOPEKA DR, TARZANA, CA, 91356",141554756,"L"
719113,"5443 WADE PARK BLVD APT 1304","RALEIGH","NC",27607,35.808596929,-78.7315799039999,113,"5443 WADE PARK BLVD APT 1304, RALEIGH, NC, 27607","Match","Exact","5443 WADE PARK BLVD, RALEIGH, NC, 27607",646940132,"L"
719114,"5443","COLUMBIA","MD",21044,NA,NA,114,"5443, COLUMBIA, MD, 21044","No_Match",NA,NA,NA,NA
719115,"5444 18TH COURT","BRADENTON","FL",34207,27.444134171,-82.581053068,115,"5444 18TH COURT, BRADENTON, FL, 34207","Match","Non_Exact","5444 18TH CT W, BRADENTON, FL, 34207",16277003,"L"
719116,"5444 4TH AVENUE NORTH","ST. PETERSBURG","FL",33710,27.77547079,-82.707339232,116,"5444 4TH AVENUE NORTH, ST. PETERSBURG, FL, 33710","Match","Exact","5444 4TH AVE N, SAINT PETERSBURG, FL, 33710",124700221,"L"
719117,"5444 ARLINGTON AVENUE","BRONX","NY",10471,40.902527794,-73.907738401,117,"5444 ARLINGTON AVENUE, BRONX, NY, 10471","Match","Exact","5444 ARLINGTON AVE, BRONX, NY, 10471",80295821,"R"
719118,"5444 ARNETTE ROAD","HOPE MILLS","NC",28348,34.974070704,-78.936164274,118,"5444 ARNETTE ROAD, HOPE MILLS, NC, 28348","Match","Exact","5444 ARNETTE RD, HOPE MILLS, NC, 28348",64253070,"L"
719119,"5444 BENTLEY RD APT 201","WEST BLOOMFIELD","MI",48322,42.543150375,-83.387144759,119,"5444 BENTLEY RD APT 201, WEST BLOOMFIELD, MI, 48322","Match","Exact","5444 BENTLEY RD, W BLOOMFIELD, MI, 48322",69819920,"R"
719120,"5444 BLUESKY DR - APT 14","CINCINNATI","OH",45246,39.191111656,-84.654350079,120,"5444 BLUESKY DR - APT 14, CINCINNATI, OH, 45246","Match","Non_Exact","5444 BLUESKY DR, CINCINNATI, OH, 45247",103960619,"L"
719121,"5444 BOTANICAL","ST. LOUIS","MO",63110,38.6124511630001,-90.279411005,121,"5444 BOTANICAL, ST. LOUIS, MO, 63110","Match","Non_Exact","5444 BOTANICAL AVE, SAINT LOUIS, MO, 63110",107594703,"L"
719122,"5444 BUCK MOUNTAIN RD","PLACERVILLE","CA",95667,38.7057922660001,-120.893413211,122,"5444 BUCK MOUNTAIN RD, PLACERVILLE, CA, 95667","Match","Exact","5444 BUCK MTN RD, PLACERVILLE, CA, 95667",133058961,"L"
719123,"5444 BUCK MOUNTAIN ROAD","PLACERVILLE","CA",95667,38.7057922660001,-120.893413211,123,"5444 BUCK MOUNTAIN ROAD, PLACERVILLE, CA, 95667","Match","Exact","5444 BUCK MTN RD, PLACERVILLE, CA, 95667",133058961,"L"
719124,"5444 CAMDEN COURT","HAMILTON","OH",45011,39.417308968,-84.4572865439999,124,"5444 CAMDEN COURT, HAMILTON, OH, 45011","Match","Exact","5444 CAMDEN CT, HAMILTON, OH, 45011",627087036,"R"
719125,"5444 CAMEO ROAD","CARPINTERIA","CA",93013,34.3986209510001,-119.510721591,125,"5444 CAMEO ROAD, CARPINTERIA, CA, 93013","Match","Exact","5444 CAMEO RD, CARPINTERIA, CA, 93013",108608323,"L"
719126,"5444 CHAMPAGNE -77","SARASOTA","FL",34235,27.36579003,-82.460573009,126,"5444 CHAMPAGNE -77, SARASOTA, FL, 34235","Match","Non_Exact","5444 CHAMPAGNE AVE, SARASOTA, FL, 34235",16350803,"L"
719127,"5444 CLEMENS","ST. LOUIS","MO",63112,38.655655321,-90.277590101,127,"5444 CLEMENS, ST. LOUIS, MO, 63112","Match","Non_Exact","5444 CLEMENS AVE, SAINT LOUIS, MO, 63112",641138058,"L"
719128,"5444 COMMUNITY CIRCLE","JACKSONVILLE","FL",32207,30.2644572250001,-81.637625875,128,"5444 COMMUNITY CIRCLE, JACKSONVILLE, FL, 32207","Match","Exact","5444 COMMUNITY CIR, JACKSONVILLE, FL, 32207",83916429,"R"
719129,"5444 CRENSHAW BLVD","LOS ANGELES","CA",90043,33.992095358,-118.330579336,129,"5444 CRENSHAW BLVD, LOS ANGELES, CA, 90043","Match","Non_Exact","5444 S CRENSHAW BLVD, LOS ANGELES, CA, 90043",241169907,"L"
719130,"5444 DEER CREEK AVE","INDIANAPOLIS","IN",46254,39.850560441,-86.2459088369999,130,"5444 DEER CREEK AVE, INDIANAPOLIS, IN, 46254","Match","Exact","5444 DEER CREEK AVE, INDIANAPOLIS, IN, 46254",108034362,"L"
719131,"5444 E HARVEY AVE","FRESNO","CA",93702,NA,NA,131,"5444 E HARVEY AVE, FRESNO, CA, 93702","No_Match",NA,NA,NA,NA
719132,"5444 GOLDEN OAK LANE","ANN ARBOR","MI",48103,42.2800527270001,-83.837094615,132,"5444 GOLDEN OAK LANE, ANN ARBOR, MI, 48103","Match","Exact","5444 GOLDEN OAK LN, ANN ARBOR, MI, 48103",26028312,"L"
719133,"5444 HIGH PASTURE WAY","MELBOURNE","FL",32940,28.1990423620001,-80.676355776,133,"5444 HIGH PASTURE WAY, MELBOURNE, FL, 32940","Match","Exact","5444 HIGH PASTURE WAY, MELBOURNE, FL, 32940",93959193,"L"
719134,"5444 HIGHWAY 26","JENNINGS","LA",70546,30.1086727700001,-92.672158511,134,"5444 HIGHWAY 26, JENNINGS, LA, 70546","Match","Exact","5444 HWY 26, JENNINGS, LA, 70546",631824609,"R"
719135,"5444 LAKE POWELL DR","FORT WORTH","TX",76137,32.8821921030001,-97.270405642,135,"5444 LAKE POWELL DR, FORT WORTH, TX, 76137","Match","Exact","5444 LAKE POWELL DR, FORT WORTH, TX, 76137",102086099,"R"
719136,"5444 MANDARIN COVE","SAN DIEGO","CA",92115,32.752632353,-117.077867891,136,"5444 MANDARIN COVE, SAN DIEGO, CA, 92115","Match","Exact","5444 MANDARIN COVE, SAN DIEGO, CA, 92115",612897107,"L"
719137,"5444 MILGRAY COURT","CARMICHAEL","CA",95608,38.639902261,-121.337361973,137,"5444 MILGRAY COURT, CARMICHAEL, CA, 95608","Match","Exact","5444 MILGRAY CT, CARMICHAEL, CA, 95608",133364921,"L"
719138,"5444 N MAGUEY PL","TUCSON","AZ",85750,32.30621883,-110.820418373,138,"5444 N MAGUEY PL, TUCSON, AZ, 85750","Match","Exact","5444 N MAGUEY PL, TUCSON, AZ, 85750",121178944,"R"
719139,"5444 N ORIOLE AVE","CHICAGO","IL",60656,41.979019452,-87.8168810509999,139,"5444 N ORIOLE AVE, CHICAGO, IL, 60656","Match","Exact","5444 N ORIOLE AVE, CHICAGO, IL, 60656",111746803,"L"
719140,"5444 RESWEBER HIGHWAY","ST MARTINVILLE","LA",70582,30.202213321,-91.820178802,140,"5444 RESWEBER HIGHWAY, ST MARTINVILLE, LA, 70582","Match","Exact","5444 RESWEBER HWY, SAINT MARTINVILLE, LA, 70582",85821171,"L"
719141,"5444 RIVER ROCK ROAD","LAKELAND","FL",33809,28.113273179,-81.942869758,141,"5444 RIVER ROCK ROAD, LAKELAND, FL, 33809","Match","Exact","5444 RIVER ROCK RD, LAKELAND, FL, 33809",619886003,"R"
719142,"5444 SAINT ANDREWS DRIVE","STOCKTON","CA",95219,37.9685203020001,-121.368657554,142,"5444 SAINT ANDREWS DRIVE, STOCKTON, CA, 95219","Match","Exact","5444 SAINT ANDREWS DR, STOCKTON, CA, 95219",133930652,"R"
719143,"5444 SE MONROE ST","MILWAUKIE","OR",97222,45.4446934960001,-122.607171693,143,"5444 SE MONROE ST, MILWAUKIE, OR, 97222","Match","Exact","5444 SE MONROE ST, MILWAUKIE, OR, 97222",157961675,"R"
719144,"5444 SHANNON VALLEY RD","ACTON","CA",93510,34.5244566380001,-118.228127593,144,"5444 SHANNON VALLEY RD, ACTON, CA, 93510","Match","Exact","5444 SHANNON VALLEY RD, ACTON, CA, 93510",142829081,"R"
719145,"5444 STONE LANE","RICHMOND","VA",23227,37.6100692580001,-77.4384851789999,145,"5444 STONE LANE, RICHMOND, VA, 23227","Match","Exact","5444 STONE LN, RICHMOND, VA, 23227",106671908,"L"
719146,"5444 TOWN POINT ROAD PO BOX 412","CAMBRIDGE","MD",21613,38.5666877080001,-76.144441235,146,"5444 TOWN POINT ROAD PO BOX 412, CAMBRIDGE, MD, 21613","Match","Exact","5444 TOWN POINT RD, CAMBRIDGE, MD, 21613",643965026,"L"
719147,"54440 CO RD 47 EXT SO","PERDIDO","AL",36562,31.018550829,-87.699806041,147,"54440 CO RD 47 EXT SO, PERDIDO, AL, 36562","Match","Exact","54440 CO RD 47 EXTENSION S, PERDIDO, AL, 36562",648659873,"L"
719148,"54441 CSAH 28","GROVE CITY","MN",56243,NA,NA,148,"54441 CSAH 28, GROVE CITY, MN, 56243","No_Match",NA,NA,NA,NA
719149,"5445 137TH STREET","CRESTWOOD","IL",60445,41.6436585610001,-87.754500859,149,"5445 137TH STREET, CRESTWOOD, IL, 60445","Match","Non_Exact","5445 137TH ST, CRESTWOOD, IL, 60418",111824114,"L"
719150,"5445 36TH CT EAST APT 105","ELLENTON","FL",34222,27.545908739,-82.509301004,150,"5445 36TH CT EAST APT 105, ELLENTON, FL, 34222","Match","Exact","5445 36TH CT E, ELLENTON, FL, 34222",649931988,"L"
719151,"5445 46TH COURT WEST","BRADENTON","FL",34210,27.4446182,-82.607316697,151,"5445 46TH COURT WEST, BRADENTON, FL, 34210","Match","Exact","5445 46TH CT W, BRADENTON, FL, 34210",645937339,"R"
719152,"5445 85TH AVE APT 102","LANHAM","MD",20706,38.9554551790001,-76.868331244,152,"5445 85TH AVE APT 102, LANHAM, MD, 20706","Match","Exact","5445 85TH AVE, LANHAM, MD, 20706",644932672,"R"
719153,"5445 9TH AVENUE","LOS ANGELES","CA",90043,33.9926925250001,-118.326951509,153,"5445 9TH AVENUE, LOS ANGELES, CA, 90043","Match","Exact","5445 9TH AVE, LOS ANGELES, CA, 90043",141655039,"R"
719154,"5445 ALUM ROCK AVENUE","SAN JOSE","CA",95127,37.3812073350001,-121.817808443,154,"5445 ALUM ROCK AVENUE, SAN JOSE, CA, 95127","Match","Exact","5445 ALUM ROCK AVE, SAN JOSE, CA, 95127",122965243,"L"
719155,"5445 ANLANTIS  PLACE","MABLETON","GA",30126,NA,NA,155,"5445 ANLANTIS  PLACE, MABLETON, GA, 30126","No_Match",NA,NA,NA,NA
719156,"5445 BRIDGE MEADOW LANE","MEMPHIS","TN",38125,34.99936425,-89.826494867,156,"5445 BRIDGE MEADOW LANE, MEMPHIS, TN, 38125","Match","Exact","5445 BRIDGE MEADOW LN, MEMPHIS, TN, 38125",618712591,"R"
719157,"5445 BUFFINGTON ROAD","COLLEGE PARK","GA",30349,33.6081200460001,-84.499556865,157,"5445 BUFFINGTON ROAD, COLLEGE PARK, GA, 30349","Match","Exact","5445 BUFFINGTON RD, COLLEGE PARK, GA, 30349",642628771,"R"
719158,"5445 BUNGALOW CIRCLE","HIXSON","TN",37343,35.1413690360001,-85.204888121,158,"5445 BUNGALOW CIRCLE, HIXSON, TN, 37343","Match","Exact","5445 BUNGALOW CIR, HIXSON, TN, 37343",645727653,"R"
719159,"5445 COLLINS AVE  M14","MIAMI BEACH","FL",33140,25.8340357330001,-80.120932217,159,"5445 COLLINS AVE  M14, MIAMI BEACH, FL, 33140","Match","Exact","5445 COLLINS AVE, MIAMI BEACH, FL, 33140",629014051,"R"
719160,"5445 COLLINS AVENUE TS04","MIAMI BEACH","FL",33140,25.8340357330001,-80.120932217,160,"5445 COLLINS AVENUE TS04, MIAMI BEACH, FL, 33140","Match","Exact","5445 COLLINS AVE, MIAMI BEACH, FL, 33140",629014051,"R"
719161,"5445 COLUSA AVE","RICHMOND","CA",94804,37.9088418170001,-122.315209942,161,"5445 COLUSA AVE, RICHMOND, CA, 94804","Match","Exact","5445 COLUSA AVE, RICHMOND, CA, 94804",192043624,"L"
719162,"5445 CONWAY DRIVE","MARIETTA","GA",30068,33.9705498810001,-84.392286524,162,"5445 CONWAY DRIVE, MARIETTA, GA, 30068","Match","Exact","5445 CONWAY DR, MARIETTA, GA, 30068",17184262,"L"
719163,"5445 COUNTY RD 71","CENTRE","AL",35960,34.1144287170001,-85.716758673,163,"5445 COUNTY RD 71, CENTRE, AL, 35960","Match","Exact","5445 CO RD 71, CENTRE, AL, 35960",30252399,"R"
719164,"5445 DIAMOND DR","SEBRING","FL",33870,27.4503640620001,-81.4685230699999,164,"5445 DIAMOND DR, SEBRING, FL, 33870","Match","Non_Exact","5445 DIAMOND DR, SEBRING, FL, 33875",633567100,"L"
719165,"5445 DIAMOND DR","SEBRING","FL",33875,27.4503640620001,-81.4685230699999,165,"5445 DIAMOND DR, SEBRING, FL, 33875","Match","Exact","5445 DIAMOND DR, SEBRING, FL, 33875",633567100,"L"
719166,"5445 E BENTLEY","LAS VEGAS","NV",89120,NA,NA,166,"5445 E BENTLEY, LAS VEGAS, NV, 89120","No_Match",NA,NA,NA,NA
719167,"5445 E DANBURY ROAD","SCOTTSDALE","AZ",85254,33.641636996,-111.963369413,167,"5445 E DANBURY ROAD, SCOTTSDALE, AZ, 85254","Match","Exact","5445 E DANBURY RD, SCOTTSDALE, AZ, 85254",647605927,"R"
719168,"5445 E JACKSON RD","BRECKENRIDGE","MI",48615,43.3934918080001,-84.499249005,168,"5445 E JACKSON RD, BRECKENRIDGE, MI, 48615","Match","Exact","5445 E JACKSON RD, BRECKENRIDGE, MI, 48615",80162270,"R"
719169,"5445 ENDICOTT LANE","COLUMBIA","MD",21044,39.2247813340001,-76.8796715139999,169,"5445 ENDICOTT LANE, COLUMBIA, MD, 21044","Match","Exact","5445 ENDICOTT LN, COLUMBIA, MD, 21044",158922561,"L"
719170,"5445 EVERGREEN FARM LN","GREENBACK","TN",37742,35.6880096360001,-84.126902107,170,"5445 EVERGREEN FARM LN, GREENBACK, TN, 37742","Match","Non_Exact","5445 EVERGREEN FARMS LN, GREENBACK, TN, 37742",607465453,"R"
719171,"5445 FLOATING LEAF DRIVE","INDIANAPOLISIN","IN",46237,39.68921908,-86.046362755,171,"5445 FLOATING LEAF DRIVE, INDIANAPOLISIN, IN, 46237","Match","Non_Exact","5445 FLOATING LEAF DR, INDIANAPOLIS, IN, 46237",641064333,"R"
719172,"5445 GENEVIEVE CIRCLE","ZEPHYRHILLS","FL",33542,28.2356568050001,-82.198208617,172,"5445 GENEVIEVE CIRCLE, ZEPHYRHILLS, FL, 33542","Match","Exact","5445 GENEVIEVE CIR, ZEPHYRHILLS, FL, 33542",635535182,"L"
719173,"5445 HACKETT AVE","LAKEWOOD","CA",90713,33.856394557,-118.107747972,173,"5445 HACKETT AVE, LAKEWOOD, CA, 90713","Match","Exact","5445 HACKETT AVE, LAKEWOOD, CA, 90713",141743184,"L"
719174,"5445 HAPPY PINES DRIVE","FORESTHILL","CA",95631,38.9918489200001,-120.894057414,174,"5445 HAPPY PINES DRIVE, FORESTHILL, CA, 95631","Match","Exact","5445 HAPPY PINES DR, FORESTHILL, CA, 95631",106759869,"R"
719175,"5445 HENNEMAN DRIVE","NORFOLK","VA",23513,36.8778531400001,-76.217505494,175,"5445 HENNEMAN DRIVE, NORFOLK, VA, 23513","Match","Exact","5445 HENNEMAN DR, NORFOLK, VA, 23513",122126679,"R"
719176,"5445 HILL GATE CROSSING","ALPHARETTA","GA",30005,34.065562567,-84.200654771,176,"5445 HILL GATE CROSSING, ALPHARETTA, GA, 30005","Match","Non_Exact","5445 HILLGATE CROSSING, ALPHARETTA, GA, 30005",17376415,"R"
719177,"5445 HIPPS HOLLOW RD","EAU CLAIRE","MI",49111,41.9793121820001,-86.326278083,177,"5445 HIPPS HOLLOW RD, EAU CLAIRE, MI, 49111","Match","Exact","5445 HIPPS HOLLOW RD, EAU CLAIRE, MI, 49111",119976318,"R"
719178,"5445 HITCHER BEND","AUSTIN","TX",78749,30.2096052270001,-97.865484463,178,"5445 HITCHER BEND, AUSTIN, TX, 78749","Match","Exact","5445 HITCHER BEND, AUSTIN, TX, 78749",63997707,"R"
719179,"5445 HUDSON INDUSTRIAL PKWY","HUDSON","OH",44236,NA,NA,179,"5445 HUDSON INDUSTRIAL PKWY, HUDSON, OH, 44236","No_Match",NA,NA,NA,NA
719180,"5445 JIGGER DR","SOQUEL","CA",95073,36.9919202290001,-121.944975979,180,"5445 JIGGER DR, SOQUEL, CA, 95073","Match","Exact","5445 JIGGER DR, SOQUEL, CA, 95073",125509660,"L"
719181,"5445 JOYCE DR","FOREST PARK","GA",30297,33.605881217,-84.3689433609999,181,"5445 JOYCE DR, FOREST PARK, GA, 30297","Match","Exact","5445 JOYCE DR, FOREST PARK, GA, 30297",23314733,"R"
719182,"5445 KAAPUNI RD","KAPAA","HI",96746,22.087555503,-159.338364007,182,"5445 KAAPUNI RD, KAPAA, HI, 96746","Match","Exact","5445 KAAPUNI RD, KAPAA, HI, 96746",203413816,"L"
719183,"5445 KESTER AVENUE UNIT 106","SHERMAN OAKS","CA",91411,34.1696760470001,-118.457438626,183,"5445 KESTER AVENUE UNIT 106, SHERMAN OAKS, CA, 91411","Match","Exact","5445 KESTER AVE, SHERMAN OAKS, CA, 91411",141560727,"L"
719184,"5445 KETTERING SQUARE DR","KETTERING","OH",45440,39.6626396730001,-84.134758386,184,"5445 KETTERING SQUARE DR, KETTERING, OH, 45440","Match","Non_Exact","5445 KETTERING SQUARE DR N, KETTERING, OH, 45440",624493689,"L"
719185,"5445 KINCAID STREET","PITTSBURGH","PA",15235,40.4659856660001,-79.933218414,185,"5445 KINCAID STREET, PITTSBURGH, PA, 15235","Match","Non_Exact","5445 KINCAID ST, PITTSBURGH, PA, 15206",51932998,"L"
719186,"5445 KIOKEE RIDGE RD","EVANS","GA",30809,33.5517318720001,-82.222769995,186,"5445 KIOKEE RIDGE RD, EVANS, GA, 30809","Match","Exact","5445 KIOKEE RIDGE RD, EVANS, GA, 30809",55385541,"R"
719187,"5445 LA SIERRA DRIVE SUITE 410","DALLAS","TX",75231,32.8842086550001,-96.767685713,187,"5445 LA SIERRA DRIVE SUITE 410, DALLAS, TX, 75231","Match","Non_Exact","5445 LA SIERRA DR, DALLAS, TX, 75231",102914452,"L"
719188,"5445 MASTER STREET","PHILADELPHIA","PA",19131,39.9737825610001,-75.2305777449999,188,"5445 MASTER STREET, PHILADELPHIA, PA, 19131","Match","Exact","5445 MASTER ST, PHILADELPHIA, PA, 19131",131398365,"R"
719189,"5445 N DELAWARE ST","INDIANAPOLIS","IN",46220,39.8514677420001,-86.1535990799999,189,"5445 N DELAWARE ST, INDIANAPOLIS, IN, 46220","Match","Exact","5445 N DELAWARE ST, INDIANAPOLIS, IN, 46220",107984279,"R"
719190,"5445 N GEORGIA DRIVE","TUCSON","AZ",85704,32.3050253970001,-110.971524388,190,"5445 N GEORGIA DRIVE, TUCSON, AZ, 85704","Match","Exact","5445 N GEORGIA DR, TUCSON, AZ, 85704",121166771,"L"
719191,"5445 N MORGAN  ST 204","ALEXANDRIA","VA",22312,38.822090229,-77.130078425,191,"5445 N MORGAN  ST 204, ALEXANDRIA, VA, 22312","Match","Non_Exact","5445 N MORGAN ST, ALEXANDRIA, VA, 22312",650133973,"R"
719192,"5445 N SHERIDAN","CHICAGO","IL",60640,41.9807766120001,-87.655099392,192,"5445 N SHERIDAN, CHICAGO, IL, 60640","Match","Non_Exact","5445 N SHERIDAN RD, CHICAGO, IL, 60640",611171637,"R"
719193,"5445 NORTH SHERIDAN RD 3305","CHICAGO","IL",60640,41.9807766120001,-87.655099392,193,"5445 NORTH SHERIDAN RD 3305, CHICAGO, IL, 60640","Match","Exact","5445 N SHERIDAN RD, CHICAGO, IL, 60640",611171637,"R"
719194,"5445 NORTH","HOWE","IN",46746,NA,NA,194,"5445 NORTH, HOWE, IN, 46746","No_Match",NA,NA,NA,NA
719195,"5445 NUTMEG TRL","SAN ANTONIO","TX",78238,29.4844722070001,-98.612381817,195,"5445 NUTMEG TRL, SAN ANTONIO, TX, 78238","Match","Exact","5445 NUTMEG TRL, SAN ANTONIO, TX, 78238",638591860,"L"
719196,"5445 NW PINE TREE","PORT ST. LUCIE","FL",34994,NA,NA,196,"5445 NW PINE TREE, PORT ST. LUCIE, FL, 34994","No_Match",NA,NA,NA,NA
719197,"5445 NW RIDGEMOOR CT","PORTLAND","OR",97229,45.5587430530001,-122.882108094,197,"5445 NW RIDGEMOOR CT, PORTLAND, OR, 97229","Match","Exact","5445 NW RIDGEMOOR CT, PORTLAND, OR, 97229",158180377,"L"
719198,"5445 ORA ST","SAN JOSE","CA",95129,37.3048286150001,-121.998017918,198,"5445 ORA ST, SAN JOSE, CA, 95129","Match","Exact","5445 ORA ST, SAN JOSE, CA, 95129",122899742,"R"
719199,"5445 ORA STREET","SAN JOSE","CA",95129,37.3048286150001,-121.998017918,199,"5445 ORA STREET, SAN JOSE, CA, 95129","Match","Exact","5445 ORA ST, SAN JOSE, CA, 95129",122899742,"R"
719200,"5445 PAMEDLA WOOD WAY UNIT 160","SARASOTA","FL",34233,NA,NA,200,"5445 PAMEDLA WOOD WAY UNIT 160, SARASOTA, FL, 34233","No_Match",NA,NA,NA,NA
719201,"5445 POINT CLAIR ROAD S-8","CARVILLE","LA",70721,30.199196467,-91.12088123,201,"5445 POINT CLAIR ROAD S-8, CARVILLE, LA, 70721","Match","Non_Exact","5445 POINT CLAIR RD, CARVILLE, LA, 70721",640576672,"L"
719202,"5445 POINT CLAIR ROAD UNIT 148R","CARVILLE","LA",70721,30.199196467,-91.12088123,202,"5445 POINT CLAIR ROAD UNIT 148R, CARVILLE, LA, 70721","Match","Exact","5445 POINT CLAIR RD, CARVILLE, LA, 70721",640576672,"L"
719203,"5445 PROVINE PLACE  UNIT 1108","ALEXANDRIA","LA",71303,31.291951813,-92.500350048,203,"5445 PROVINE PLACE  UNIT 1108, ALEXANDRIA, LA, 71303","Match","Exact","5445 PROVINE PL, ALEXANDRIA, LA, 71303",11814139,"R"
719204,"5445 REALTREE LANE","Charlotte","NC",28214,35.2711784420001,-80.9238755329999,204,"5445 REALTREE LANE, Charlotte, NC, 28214","Match","Exact","5445 REALTREE LN, CHARLOTTE, NC, 28214",70581780,"R"
719205,"5445 ROLING RD","WORTHINGTON","IA",52078,42.372632067,-91.106774779,205,"5445 ROLING RD, WORTHINGTON, IA, 52078","Match","Exact","5445 ROLING RD, WORTHINGTON, IA, 52078",605006341,"L"
719206,"5445 S ALAMEDA  APT1C","CORPUS CHRISTI","TX",78412,NA,NA,206,"5445 S ALAMEDA  APT1C, CORPUS CHRISTI, TX, 78412","No_Match",NA,NA,NA,NA
719207,"5445 S ALAMEDA APT1C","CORPUS CHRISTI","TX",78412,NA,NA,207,"5445 S ALAMEDA APT1C, CORPUS CHRISTI, TX, 78412","No_Match",NA,NA,NA,NA
719208,"5445 S DANUBE WAY","CENTENNIAL","CO",80015,39.6178330230001,-104.763915754,208,"5445 S DANUBE WAY, CENTENNIAL, CO, 80015","Match","Exact","5445 S DANUBE WAY, CENTENNIAL, CO, 80015",177516452,"L"
719209,"5445 SMETANA DR APT 2021","MINNETONKA","MN",55343,44.9049772330001,-93.406389605,209,"5445 SMETANA DR APT 2021, MINNETONKA, MN, 55343","Match","Exact","5445 SMETANA DR, MINNETONKA, MN, 55343",640440220,"R"
719210,"5445 SOUTHERN WINDS DR","ARLINGTON","TN",38002,35.2750851050001,-89.652001484,210,"5445 SOUTHERN WINDS DR, ARLINGTON, TN, 38002","Match","Exact","5445 SOUTHERN WINDS DR, ARLINGTON, TN, 38002",613173547,"R"
719211,"5445 SPALDING BRIDGE CT","NORCORSS","GA",30092,33.969108351,-84.210561255,211,"5445 SPALDING BRIDGE CT, NORCORSS, GA, 30092","Match","Non_Exact","5445 SPALDING BRIDGE CT, NORCROSS, GA, 30092",623837054,"R"
719212,"5445 SPALDING BRIDGE CT","NORCROSS","GA",30092,33.969108351,-84.210561255,212,"5445 SPALDING BRIDGE CT, NORCROSS, GA, 30092","Match","Exact","5445 SPALDING BRIDGE CT, NORCROSS, GA, 30092",623837054,"R"
719213,"5445 STREAMBANK LANE","GREENBELT","MD",20770,39.0030197130001,-76.9141666639999,213,"5445 STREAMBANK LANE, GREENBELT, MD, 20770","Match","Non_Exact","5445 STREAM BANK LN, GREENBELT, MD, 20770",648102946,"L"
719214,"5445 TALLAPOOSA","TALLAHASSEE","FL",32303,30.5330882970001,-84.370997995,214,"5445 TALLAPOOSA, TALLAHASSEE, FL, 32303","Match","Non_Exact","5445 TALLAPOOSA RD, TALLAHASSEE, FL, 32303",82871171,"R"
719215,"5445 TIMBERLINE LANE","BEAUMONT","TX",77706,30.113865563,-94.162662971,215,"5445 TIMBERLINE LANE, BEAUMONT, TX, 77706","Match","Exact","5445 TIMBERLINE LN, BEAUMONT, TX, 77706",73875292,"L"
719216,"5445 W RENO AVE  UNIT 1707","LAS VEGAS","NV",89118,36.0968533130001,-115.214777594,216,"5445 W RENO AVE  UNIT 1707, LAS VEGAS, NV, 89118","Match","Non_Exact","5445 W RENO AVE, LAS VEGAS, NV, 89118",624623015,"L"
719217,"5445 XIMINES LN N","PLYMOUTH","MN",55442,45.052470371,-93.416687761,217,"5445 XIMINES LN N, PLYMOUTH, MN, 55442","Match","Exact","5445 XIMINES LN N, PLYMOUTH, MN, 55442",43823346,"R"
719218,"5445-10TH AVE SOUTH","MINNEAPOLIS","MN",55417,NA,NA,218,"5445-10TH AVE SOUTH, MINNEAPOLIS, MN, 55417","No_Match",NA,NA,NA,NA
719219,"54455 ROYAL TROON DR","SOUTH LYON","MI",48178,42.456897258,-83.585057658,219,"54455 ROYAL TROON DR, SOUTH LYON, MI, 48178","Match","Exact","54455 ROYAL TROON DR, SOUTH LYON, MI, 48178",69784785,"L"
719220,"5446  WHITBY  AVENUE","PHILADELPHIA","PA",19143,39.944607655,-75.23055556,220,"5446  WHITBY  AVENUE, PHILADELPHIA, PA, 19143","Match","Exact","5446 WHITBY AVE, PHILADELPHIA, PA, 19143",131399459,"L"
719221,"5446 AUTUMNASH LANE","MACHESNEY PARK","IL",61115,42.3836726930001,-89.010765057,221,"5446 AUTUMNASH LANE, MACHESNEY PARK, IL, 61115","Match","Exact","5446 AUTUMNASH LN, MACHESNEY PARK, IL, 61115",647232310,"R"
719222,"5446 BRISTOL PARKE DR","CLARKSTON","MI",48348,42.7402456720001,-83.367912668,222,"5446 BRISTOL PARKE DR, CLARKSTON, MI, 48348","Match","Exact","5446 BRISTOL PARKE DR, CLARKSTON, MI, 48348",69789586,"L"
719223,"5446 BROAD STREET","PITTSBURGH","PA",15206,40.4653438450001,-79.9338321719999,223,"5446 BROAD STREET, PITTSBURGH, PA, 15206","Match","Exact","5446 BROAD ST, PITTSBURGH, PA, 15206",51644724,"R"
719224,"5446 CHERRY HILL LANE","SALISBURY","MD",21801,38.3421162870001,-75.631911659,224,"5446 CHERRY HILL LANE, SALISBURY, MD, 21801","Match","Exact","5446 CHERRY HILL LN, SALISBURY, MD, 21801",114461924,"R"
719225,"5446 E BRANCHWOOD CT","BOISE","ID",83716,43.5712604720001,-116.116362366,225,"5446 E BRANCHWOOD CT, BOISE, ID, 83716","Match","Exact","5446 E BRANCHWOOD CT, BOISE, ID, 83716",117912933,"L"
719226,"5446 E DAKOTA AVE","FRESNO","CA",93727,36.7871152540001,-119.705322601,226,"5446 E DAKOTA AVE, FRESNO, CA, 93727","Match","Exact","5446 E DAKOTA AVE, FRESNO, CA, 93727",197585023,"R"
719227,"5446 E SAUZ STREET","RIO GRANDE CITY","TX",78582,26.3565737050001,-98.7708960739999,227,"5446 E SAUZ STREET, RIO GRANDE CITY, TX, 78582","Match","Exact","5446 E SAUZ ST, RIO GRANDE CITY, TX, 78582",72188783,"L"
719228,"5446 EAST MAIN STREET","BATAVIA","NY",14020,42.9875429040001,-78.121855007,228,"5446 EAST MAIN STREET, BATAVIA, NY, 14020","Match","Non_Exact","5446 E MAIN STREET RD, BATAVIA, NY, 14020",638547009,"L"
719229,"5446 EL CAMILE AVE","OAKLAND","CA",94619,37.7747763460001,-122.194682369,229,"5446 EL CAMILE AVE, OAKLAND, CA, 94619","Match","Exact","5446 EL CAMILE AVE, OAKLAND, CA, 94619",652210577,"L"
719230,"5446 HUDSON ROAD","FORT BELVOIR","NC",22060,NA,NA,230,"5446 HUDSON ROAD, FORT BELVOIR, NC, 22060","No_Match",NA,NA,NA,NA
719231,"5446 MT CORCORAN PLACE","BURKE","VA",22015,38.8040019850001,-77.25457407,231,"5446 MT CORCORAN PLACE, BURKE, VA, 22015","Match","Exact","5446 MOUNT CORCORAN PL, BURKE, VA, 22015",75975166,"L"
719232,"5446 N MESA STE E2","EL PASO","TX",79912,NA,NA,232,"5446 N MESA STE E2, EL PASO, TX, 79912","No_Match",NA,NA,NA,NA
719233,"5446 N TALL OAKS DR","LONG GROVE","IL",60047,42.201942151,-87.987818375,233,"5446 N TALL OAKS DR, LONG GROVE, IL, 60047","Match","Exact","5446 TALL OAKS DR, LONG GROVE, IL, 60047",119665753,"R"
719234,"5446 SANDPIPER LANE","NORFOLK","VA",23502,36.8478470370001,-76.2188337869999,234,"5446 SANDPIPER LANE, NORFOLK, VA, 23502","Match","Exact","5446 SANDPIPER LN, NORFOLK, VA, 23502",122129816,"L"
719235,"5446 SPRING DAY","SAN ANTONIO","TX",78247,29.5842288870001,-98.3826414119999,235,"5446 SPRING DAY, SAN ANTONIO, TX, 78247","Match","Exact","5446 SPRING DAY, SAN ANTONIO, TX, 78247",101741230,"R"
719236,"5446 W FERDINAND 3A","CHICAGO","IL",60644,NA,NA,236,"5446 W FERDINAND 3A, CHICAGO, IL, 60644","No_Match",NA,NA,NA,NA
719237,"5446 WAYNE AVE","PHILADELPHIA","PA",19144,40.0300373470001,-75.175952412,237,"5446 WAYNE AVE, PHILADELPHIA, PA, 19144","Match","Exact","5446 WAYNE AVE, PHILADELPHIA, PA, 19144",131401126,"L"
719238,"5446 WEST FLORISSANT","SAINT LOUIS","MO",63120,38.6981155440001,-90.24186407,238,"5446 WEST FLORISSANT, SAINT LOUIS, MO, 63120","Match","Non_Exact","5446 W FLORISSANT AVE, SAINT LOUIS, MO, 63120",107595098,"L"
719239,"5446 WEST ROOSEVELT ST STE A 101","PHOENIX","AZ",85043,33.4587411690001,-112.176016526,239,"5446 WEST ROOSEVELT ST STE A 101, PHOENIX, AZ, 85043","Match","Exact","5446 W ROOSEVELT ST, PHOENIX, AZ, 85043",243921348,"L"
719240,"5446 ZEIGLER BLVD","MOBILE","AL",36608,30.7114711890001,-88.1722854229999,240,"5446 ZEIGLER BLVD, MOBILE, AL, 36608","Match","Exact","5446 ZEIGLER BLVD, MOBILE, AL, 36608",61960092,"R"
719241,"5447 9TH PLACE SW","MUKILTEO","WA",98275,NA,NA,241,"5447 9TH PLACE SW, MUKILTEO, WA, 98275","No_Match",NA,NA,NA,NA
719242,"5447 ALPINE CT","EUREKA","CA",95503,40.756390277,-124.179696546,242,"5447 ALPINE CT, EUREKA, CA, 95503","Match","Exact","5447 ALPINE CT, EUREKA, CA, 95503",113059514,"L"
719243,"5447 B ARMISTEAD LN","DUBLIN","OH",43017,40.118459214,-83.137233293,243,"5447 B ARMISTEAD LN, DUBLIN, OH, 43017","Match","Exact","5447 ARMISTEAD LN, DUBLIN, OH, 43017",135633311,"L"
719244,"5447 CALHOUN AVENUE","ALEXANDRIA","VA",22311,38.8407833210001,-77.1224893359999,244,"5447 CALHOUN AVENUE, ALEXANDRIA, VA, 22311","Match","Exact","5447 CALHOUN AVE, ALEXANDRIA, VA, 22311",76064960,"R"
719245,"5447 COURTYARD DR","GONZALES","LA",70737,30.151917632,-90.9264159099999,245,"5447 COURTYARD DR, GONZALES, LA, 70737","Match","Exact","5447 COURTYARD DR, GONZALES, LA, 70737",651729215,"R"
719246,"5447 DIAMOND STREET","PHILADELPHIA","PA",19131,39.988026328,-75.233260263,246,"5447 DIAMOND STREET, PHILADELPHIA, PA, 19131","Match","Exact","5447 DIAMOND ST, PHILADELPHIA, PA, 19131",131396680,"R"
719247,"5447 HAINES RD STE 183","ST PETERSBURG","FL",33714,27.821650773,-82.6692672619999,247,"5447 HAINES RD STE 183, ST PETERSBURG, FL, 33714","Match","Exact","5447 HAINES RD, SAINT PETERSBURG, FL, 33714",124748369,"R"
719248,"5447 HAINES ROAD 125","ST. PETERSBURG","FL",33712,27.821650773,-82.6692672619999,248,"5447 HAINES ROAD 125, ST. PETERSBURG, FL, 33712","Match","Non_Exact","5447 HAINES RD, SAINT PETERSBURG, FL, 33714",124748369,"R"
719249,"5447 IRVING STREET","PHILADELPHIA","PA",19139,39.9558158350001,-75.230664604,249,"5447 IRVING STREET, PHILADELPHIA, PA, 19139","Match","Exact","5447 IRVING ST, PHILADELPHIA, PA, 19139",131399048,"R"
719250,"5447 KINGS HIGHWAY","KING GEORGE","VA",22485,38.263592083,-77.250562008,250,"5447 KINGS HIGHWAY, KING GEORGE, VA, 22485","Match","Exact","5447 KINGS HWY, KING GEORGE, VA, 22485",22053940,"L"
719251,"5447 LEADER AVE","SACRAMENTO","CA",95841,38.670789321,-121.337727971,251,"5447 LEADER AVE, SACRAMENTO, CA, 95841","Match","Exact","5447 LEADER AVE, SACRAMENTO, CA, 95841",133341089,"L"
719252,"5447 MAPLE CANYON AVE","COLUMBUS","OH",43229,40.079948588,-82.961850962,252,"5447 MAPLE CANYON AVE, COLUMBUS, OH, 43229","Match","Exact","5447 MAPLE CANYON AVE, COLUMBUS, OH, 43229",135571595,"L"
719253,"5447 RICHMOND PARK DR","MASON","OH",45040,39.3744417780001,-84.3178163319999,253,"5447 RICHMOND PARK DR, MASON, OH, 45040","Match","Exact","5447 RICHMOND PARK DR, MASON, OH, 45040",159049237,"L"
719254,"5447 RISING SUN AVE","PHILA","PA",19120,40.032409198,-75.1166090409999,254,"5447 RISING SUN AVE, PHILA, PA, 19120","Match","Exact","5447 RISING SUN AVE, PHILA, PA, 19120",131419997,"R"
719255,"5447 S HELENA ST","CENTENNIAL","CO",80015,39.6185926090001,-104.808099261,255,"5447 S HELENA ST, CENTENNIAL, CO, 80015","Match","Exact","5447 S HELENA ST, CENTENNIAL, CO, 80015",177520551,"R"
719256,"5447 SHOLTZ ST","NAPLES","FL",34113,26.093197891,-81.722667519,256,"5447 SHOLTZ ST, NAPLES, FL, 34113","Match","Exact","5447 SHOLTZ ST, NAPLES, FL, 34113",115140653,"L"
719257,"5447 VINELAND RD","ORLANDO","FL",32811,28.4829168270001,-81.450006794,257,"5447 VINELAND RD, ORLANDO, FL, 32811","Match","Exact","5447 VINELAND RD, ORLANDO, FL, 32811",606119802,"R"
719258,"5447 W WARWICK","CHICAGO","IL",60641,41.948796224,-87.763116865,258,"5447 W WARWICK, CHICAGO, IL, 60641","Match","Non_Exact","5447 W WARWICK AVE, CHICAGO, IL, 60641",111751801,"L"
719259,"5447","DUBLIN","OH",43017,NA,NA,259,"5447, DUBLIN, OH, 43017","No_Match",NA,NA,NA,NA
719260,"5447MIRE HWY","RAYNE","LA",70578,NA,NA,260,"5447MIRE HWY, RAYNE, LA, 70578","No_Match",NA,NA,NA,NA
719261,"5448 APEX PEAKWAY BOX 128","APEX","NC",27502,35.7381904310001,-78.866205387,261,"5448 APEX PEAKWAY BOX 128, APEX, NC, 27502","Match","Exact","5448 APEX PEAKWAY, APEX, NC, 27502",639850701,"R"
719262,"5448 APEX PEAKWAY NUM 134","APEX","NC",27502,35.7381904310001,-78.866205387,262,"5448 APEX PEAKWAY NUM 134, APEX, NC, 27502","Match","Exact","5448 APEX PEAKWAY, APEX, NC, 27502",639850701,"R"
719263,"5448 APEX PEAKWAY NUM 144","APEX","NC",27502,35.7381904310001,-78.866205387,263,"5448 APEX PEAKWAY NUM 144, APEX, NC, 27502","Match","Exact","5448 APEX PEAKWAY, APEX, NC, 27502",639850701,"R"
719264,"5448 APEX PEAKWAY SUITE 254","APEX","NC",27502,35.7381904310001,-78.866205387,264,"5448 APEX PEAKWAY SUITE 254, APEX, NC, 27502","Match","Exact","5448 APEX PEAKWAY, APEX, NC, 27502",639850701,"R"
719265,"5448 BALDWIN ST","BREWERTON","NY",13029,43.2381968120001,-76.1417346439999,265,"5448 BALDWIN ST, BREWERTON, NY, 13029","Match","Exact","5448 BALDWIN ST, BREWERTON, NY, 13029",46566273,"R"
719266,"5448 BROADWAY STREET","LANCASTER","NY",14086,42.900101668,-78.66896071,266,"5448 BROADWAY STREET, LANCASTER, NY, 14086","Match","Exact","5448 BROADWAY ST, LANCASTER, NY, 14086",48308422,"L"
719267,"5448 BROOK POINT RD","TOLEDO","OH",43611,41.7172893200001,-83.4994930729999,267,"5448 BROOK POINT RD, TOLEDO, OH, 43611","Match","Exact","5448 BROOK POINT RD, TOLEDO, OH, 43611",33949309,"L"
719268,"5448 BRYAN STATION RD","LEXINGTON","KY",40361,38.1341435950001,-84.334613232,268,"5448 BRYAN STATION RD, LEXINGTON, KY, 40361","Match","Non_Exact","5448 BRYAN STATION RD, PARIS, KY, 40361",31880247,"L"
719269,"5448 CANDY LANE","MILFORD","OH",45150,39.1582989510001,-84.2255072139999,269,"5448 CANDY LANE, MILFORD, OH, 45150","Match","Exact","5448 CANDY LN, MILFORD, OH, 45150",118445180,"L"
719270,"5448 CHESLEY AVENUE","LOS ANGELES","CA",90043,33.9926147900001,-118.334419431,270,"5448 CHESLEY AVENUE, LOS ANGELES, CA, 90043","Match","Exact","5448 CHESLEY AVE, LOS ANGELES, CA, 90043",141654955,"L"
719271,"5448 CLEMENS PLACE","ST. LOUIS","MO",63112,38.6556620740001,-90.27766108,271,"5448 CLEMENS PLACE, ST. LOUIS, MO, 63112","Match","Non_Exact","5448 CLEMENS AVE, SAINT LOUIS, MO, 63112",641138058,"L"
719272,"5448 ENGLECREST DRIVE","CANAL WINCHESTER","OH",43110,39.8697920820001,-82.8049618859999,272,"5448 ENGLECREST DRIVE, CANAL WINCHESTER, OH, 43110","Match","Exact","5448 ENGLECREST DR, CANAL WINCHESTER, OH, 43110",624569615,"L"
719273,"5448 GRANDVIEW AVE","EDINBORO","PA",16412,41.8928719830001,-80.147588496,273,"5448 GRANDVIEW AVE, EDINBORO, PA, 16412","Match","Exact","5448 GRANDVIEW AVE, EDINBORO, PA, 16412",117488897,"R"
719274,"5448 JACKSON","MERRILLVILLE","IN",46410,41.520072365,-87.34366825,274,"5448 JACKSON, MERRILLVILLE, IN, 46410","Match","Non_Exact","5448 JACKSON ST, MERRILLVILLE, IN, 46410",98434740,"R"
719275,"5448 LAKEVIEW DR","CLEAR LAKE","IA",50428,43.1131352190001,-93.4093360529999,275,"5448 LAKEVIEW DR, CLEAR LAKE, IA, 50428","Match","Exact","5448 LAKEVIEW DR, CLEAR LAKE, IA, 50428",7293923,"R"
719276,"5448 LILY CT SW","WYOMING","MI",49509,NA,NA,276,"5448 LILY CT SW, WYOMING, MI, 49509","No_Match",NA,NA,NA,NA
719277,"5448 LIVINGSTON TER","OXON HILL","MD",20745,38.8156431530001,-76.996071813,277,"5448 LIVINGSTON TER, OXON HILL, MD, 20745","Match","Exact","5448 LIVINGSTON TER, OXON HILL, MD, 20745",76312039,"L"
719278,"5448 MICKEY MANTLE AVE","EL PASO","TX",79934,31.928796242,-106.415600696,278,"5448 MICKEY MANTLE AVE, EL PASO, TX, 79934","Match","Exact","5448 MICKEY MANTLE AVE, EL PASO, TX, 79934",189375045,"R"
719279,"5448 N SUNNYSIDE RD","SCOTTSBURG","IN",47170,38.771696655,-85.702523675,279,"5448 N SUNNYSIDE RD, SCOTTSBURG, IN, 47170","Match","Exact","5448 N SUNNYSIDE RD, SCOTTSBURG, IN, 47170",31601774,"R"
719280,"5448 NW 56 CT","TAMARAC","FL",33319,26.1943466380001,-80.2220902569999,280,"5448 NW 56 CT, TAMARAC, FL, 33319","Match","Exact","5448 NW 56TH CT, TAMARAC, FL, 33319",114705455,"R"
719281,"5448 PAINTED ACRES DR","CEDAR HILL","MO",63016,38.374969058,-90.6680022,281,"5448 PAINTED ACRES DR, CEDAR HILL, MO, 63016","Match","Exact","5448 PAINTED ACRES DR, CEDAR HILL, MO, 63016",625577367,"L"
719282,"5448 SAM POWELL DAIRY ROAD","ROANOKE RAPIDS","NC",27870,36.408210809,-77.741416837,282,"5448 SAM POWELL DAIRY ROAD, ROANOKE RAPIDS, NC, 27870","Match","Exact","5448 SAM POWELL DAIRY RD, ROANOKE RAPIDS, NC, 27870",56713164,"L"
719283,"5448 SE 43RD AVE","PORTLAND","OR",97206,45.4833169350001,-122.618801173,283,"5448 SE 43RD AVE, PORTLAND, OR, 97206","Match","Exact","5448 SE 43RD AVE, PORTLAND, OR, 97206",623909321,"L"
719284,"5448 SPLIT RAIL DRIVE","BRIGHTON","MI",48116,NA,NA,284,"5448 SPLIT RAIL DRIVE, BRIGHTON, MI, 48116","No_Match",NA,NA,NA,NA
719285,"5448 VILLA TRACE","HOOVER","AL",35244,33.3467875440001,-86.8604607999999,285,"5448 VILLA TRACE, HOOVER, AL, 35244","Match","Exact","5448 VILLA TRCE, HOOVER, AL, 35244",641584983,"R"
719286,"5448 W OHIO STREET","CHICAGO","IL",60644,41.8911293030001,-87.7621198269999,286,"5448 W OHIO STREET, CHICAGO, IL, 60644","Match","Exact","5448 W OHIO ST, CHICAGO, IL, 60644",605072402,"R"
719287,"5448 WEST OHIO STREET","CHICAGO","IL",60644,41.891129344,-87.7621169,287,"5448 WEST OHIO STREET, CHICAGO, IL, 60644","Match","Exact","5448 W OHIO ST, CHICAGO, IL, 60644",605072402,"R"
719288,"54480 WEST KING ROAD","BLUE RIVER","OR",97413,44.164804856,-122.235530703,288,"54480 WEST KING ROAD, BLUE RIVER, OR, 97413","Match","Exact","54480 W KING RD, BLUE RIVER, OR, 97413",178135530,"R"
719289,"5449 83RD STREET 3F","ELMHURST","NY",11373,NA,NA,289,"5449 83RD STREET 3F, ELMHURST, NY, 11373","No_Match",NA,NA,NA,NA
719290,"5449 ALTA VISTA ROAD","BETHESDA","MD",20814,39.007657431,-77.1100914519999,290,"5449 ALTA VISTA ROAD, BETHESDA, MD, 20814","Match","Exact","5449 ALTA VISTA RD, BETHESDA, MD, 20814",62058352,"R"
719291,"5449 BELLEVIEW AVENUE","CINCINNATI","OH",45202,39.2220273130001,-84.374251492,291,"5449 BELLEVIEW AVENUE, CINCINNATI, OH, 45202","Match","Non_Exact","5449 BELLEVIEW AVE, CINCINNATI, OH, 45242",103927940,"R"
719292,"5449 BERKSHIRE ROAD","KENVIL","NJ",7438,NA,NA,292,"5449 BERKSHIRE ROAD, KENVIL, NJ, 7438","No_Match",NA,NA,NA,NA
719293,"5449 BIGFORK","MISSOULA","MT",59803,46.815896213,-114.077406738,293,"5449 BIGFORK, MISSOULA, MT, 59803","Match","Non_Exact","5449 BIG FORK RD, MISSOULA, MT, 59803",625230214,"L"
719294,"5449 DUDLEY COURT","PLEASANTON","CA",94566,NA,NA,294,"5449 DUDLEY COURT, PLEASANTON, CA, 94566","No_Match",NA,NA,NA,NA
719295,"5449 E BLOOMFIELD RD","SCOTTSDALE","AZ",85254,33.5998838690001,-111.963676948,295,"5449 E BLOOMFIELD RD, SCOTTSDALE, AZ, 85254","Match","Exact","5449 E BLOOMFIELD RD, SCOTTSDALE, AZ, 85254",128187980,"R"
719296,"5449 E HARTFORD AVENUE","SCOTTSDALE","AZ",85254,33.642526436,-111.963279618,296,"5449 E HARTFORD AVENUE, SCOTTSDALE, AZ, 85254","Match","Exact","5449 E HARTFORD AVE, SCOTTSDALE, AZ, 85254",642851223,"L"
719297,"5449 E LEVEE ROAD","SACRAMENTO","CA",95835,38.666527054,-121.477649425,297,"5449 E LEVEE ROAD, SACRAMENTO, CA, 95835","Match","Exact","5449 E LEVEE RD, SACRAMENTO, CA, 95835",133446900,"L"
719298,"5449 E MINERAL CIR","CENTENNIAL","CO",90133,39.571092692,-104.923874665,298,"5449 E MINERAL CIR, CENTENNIAL, CO, 90133","Match","Non_Exact","5449 E MINERAL CIR, CENTENNIAL, CO, 80122",177517418,"R"
719299,"5449 GRAYSONTOWN ROAD","RADFORD","VA",24141,37.039585307,-80.561322363,299,"5449 GRAYSONTOWN ROAD, RADFORD, VA, 24141","Match","Exact","5449 GRAYSONTOWN RD, RADFORD, VA, 24141",73621535,"L"
719300,"5449 HOLLY PINES DRIVE","CHESTERFIELD","VA",23832,37.43756103,-77.520322885,300,"5449 HOLLY PINES DRIVE, CHESTERFIELD, VA, 23832","Match","Exact","5449 HOLLY PINES DR, CHESTERFIELD, VA, 23832",201566297,"L"
719301,"5449 LANIUS LANE","CINCINNATI","OH",45224,39.1896563400001,-84.5436389,301,"5449 LANIUS LANE, CINCINNATI, OH, 45224","Match","Exact","5449 LANIUS LN, CINCINNATI, OH, 45224",103921399,"R"
719302,"5449 MIDDLEBOURNE LANE","CENTREVILLE","VA",20120,38.847011729,-77.42380923,302,"5449 MIDDLEBOURNE LANE, CENTREVILLE, VA, 20120","Match","Exact","5449 MIDDLEBOURNE LN, CENTREVILLE, VA, 20120",635445411,"L"
719303,"5449 N MOCCASIN TRAIL","TUCSON","AZ",85750,32.30601267,-110.835502937,303,"5449 N MOCCASIN TRAIL, TUCSON, AZ, 85750","Match","Exact","5449 N MOCCASIN TRL, TUCSON, AZ, 85750",121192299,"R"
719304,"5449 RIDGEWOOD RD EAST","SPRINGFIELD","OH",45503,40.0023615650001,-83.770198439,304,"5449 RIDGEWOOD RD EAST, SPRINGFIELD, OH, 45503","Match","Exact","5449 RIDGEWOOD RD E, SPRINGFIELD, OH, 45503",135027852,"L"
719305,"5449 ROCKY PINE DR","LITHONIA","GA",30038,33.6854970200001,-84.167278831,305,"5449 ROCKY PINE DR, LITHONIA, GA, 30038","Match","Exact","5449 ROCKY PINE DR, LITHONIA, GA, 30038",23376080,"R"
719306,"5449 SOUTH CRENSHAW UNIT 124","LOS ANGELES","CA",90043,33.992016241,-118.331021126,306,"5449 SOUTH CRENSHAW UNIT 124, LOS ANGELES, CA, 90043","Match","Non_Exact","5449 S CRENSHAW BLVD, LOS ANGELES, CA, 90043",241169909,"R"
719307,"5449 SW RAINTREE PARKWAY","LEE'S SUMMIT","MO",64082,NA,NA,307,"5449 SW RAINTREE PARKWAY, LEE'S SUMMIT, MO, 64082","No_Match",NA,NA,NA,NA
719308,"5449 TORRESDALE AVE","PHILADELPHIA","PA",19124,40.014441118,-75.065458996,308,"5449 TORRESDALE AVE, PHILADELPHIA, PA, 19124","Match","Exact","5449 TORRESDALE AVE, PHILADELPHIA, PA, 19124",131429031,"R"
719309,"5449 W KAMERLING","CHICAGO","IL",60651,41.904886386,-87.7624785639999,309,"5449 W KAMERLING, CHICAGO, IL, 60651","Match","Non_Exact","5449 W KAMERLING AVE, CHICAGO, IL, 60651",111754016,"L"
719310,"5449 WILES RD UNIT 6-310","COCONUT CREEK","FL",33073,26.285953738,-80.196528917,310,"5449 WILES RD UNIT 6-310, COCONUT CREEK, FL, 33073","Match","Exact","5449 WILES RD, COCONUT CREEK, FL, 33073",648260209,"R"
719311,"5449 WOODLAND AV","LOVES PARK","IL",61111,42.3392163,-88.9838477059999,311,"5449 WOODLAND AV, LOVES PARK, IL, 61111","Match","Non_Exact","5449 WOODLAND WAY, LOVES PARK, IL, 61111",49293780,"R"
719312,"5449 WOODMAN AVENUE","SHERMAN OAKS","CA",91401,34.1694319320001,-118.43124504,312,"5449 WOODMAN AVENUE, SHERMAN OAKS, CA, 91401","Match","Exact","5449 WOODMAN AVE, SHERMAN OAKS, CA, 91401",141561818,"L"
719313,"54490","SOUTH BEND","IN",46605,NA,NA,313,"54490, SOUTH BEND, IN, 46605","No_Match",NA,NA,NA,NA
719314,"54491 PRESTON PINE LANE","SHELBY TWP","MI",48316,NA,NA,314,"54491 PRESTON PINE LANE, SHELBY TWP, MI, 48316","No_Match",NA,NA,NA,NA
719315,"544D NORTH CENTER ST","LAGRANGE","OH",44050,NA,NA,315,"544D NORTH CENTER ST, LAGRANGE, OH, 44050","Tie",NA,NA,NA,NA
719316,"545 - 28TH STREET SW","GRAND RAPIDS","MI",49509,NA,NA,316,"545 - 28TH STREET SW, GRAND RAPIDS, MI, 49509","No_Match",NA,NA,NA,NA
719317,"545 1/2 E MAIN STREET","LANCASTER","OH",43130,NA,NA,317,"545 1/2 E MAIN STREET, LANCASTER, OH, 43130","Tie",NA,NA,NA,NA
719318,"545 1/2 N 4TH ST APT 1","ALLENTOWN","PA",18102,40.6115264000001,-75.469028548,318,"545 1/2 N 4TH ST APT 1, ALLENTOWN, PA, 18102","Match","Exact","545 N 4TH ST, ALLENTOWN, PA, 18102",80768903,"R"
719319,"545 1ST STREET","BRITT","IA",50423,NA,NA,319,"545 1ST STREET, BRITT, IA, 50423","Tie",NA,NA,NA,NA
719320,"545 2ND STREET NORTH","MINNEAPOLIS","MN",55411,NA,NA,320,"545 2ND STREET NORTH, MINNEAPOLIS, MN, 55411","No_Match",NA,NA,NA,NA
719321,"545 34TH STREET","WEST DES MOINES","IA",50265,41.5787631360001,-93.749439523,321,"545 34TH STREET, WEST DES MOINES, IA, 50265","Match","Exact","545 34TH ST, W DES MOINES, IA, 50265",65775307,"R"
719322,"545 3RD AVENUE WEST","KALISPELL","MT",59901,48.1927136950001,-114.316305343,322,"545 3RD AVENUE WEST, KALISPELL, MT, 59901","Match","Exact","545 3RD AVE W, KALISPELL, MT, 59901",204087443,"R"
719323,"545 4TH AVE SOUTH","ST PETERSBURG","FL",33701,27.767131643,-82.6408724729999,323,"545 4TH AVE SOUTH, ST PETERSBURG, FL, 33701","Match","Exact","545 4TH AVE S, SAINT PETERSBURG, FL, 33701",124708231,"R"
719324,"545 5TH AVENUE SUITE 1100","NEW YORK","NY",10017,40.755354616,-73.979510878,324,"545 5TH AVENUE SUITE 1100, NEW YORK, NY, 10017","Match","Exact","545 5TH AVE, NEW YORK, NY, 10017",59658644,"R"
719325,"545 67TH STREET","SPRINGFIELD","OR",97478,44.0500415500001,-122.907927414,325,"545 67TH STREET, SPRINGFIELD, OR, 97478","Match","Exact","545 67TH ST, SPRINGFIELD, OR, 97478",178174906,"R"
719326,"545 89TH ST SW","LINTON","ND",58552,NA,NA,326,"545 89TH ST SW, LINTON, ND, 58552","No_Match",NA,NA,NA,NA
719327,"545 ALDO AVE UNIT 24","SANTA CLARA","CA",95054,37.385251065,-121.945380805,327,"545 ALDO AVE UNIT 24, SANTA CLARA, CA, 95054","Match","Exact","545 ALDO AVE, SANTA CLARA, CA, 95054",122959516,"R"
719328,"545 AMISH AVE","RIVERDALE","GA",30296,33.5617305850001,-84.478962463,328,"545 AMISH AVE, RIVERDALE, GA, 30296","Match","Exact","545 AMISH AVE, RIVERDALE, GA, 30296",636289973,"L"
719329,"545 AMITY ROAD","BETHANY","CT",6524,NA,NA,329,"545 AMITY ROAD, BETHANY, CT, 6524","No_Match",NA,NA,NA,NA
719330,"545 ARBOR BROOK LANE","COPPELL","TX",75019,32.9569794760001,-96.9860183709999,330,"545 ARBOR BROOK LANE, COPPELL, TX, 75019","Match","Exact","545 ARBOR BROOK LN, COPPELL, TX, 75019",640539753,"L"
719331,"545 BARBARA WAY","LAS VEGAS","NV",89104,36.149893123,-115.148655464,331,"545 BARBARA WAY, LAS VEGAS, NV, 89104","Match","Exact","545 BARBARA WAY, LAS VEGAS, NV, 89104",201865883,"L"
719332,"545 BARNES DR","CLARKSVILLE","TN",37040,36.560631872,-87.3493912169999,332,"545 BARNES DR, CLARKSVILLE, TN, 37040","Match","Exact","545 BARNES DR, CLARKSVILLE, TN, 37040",31827174,"L"
719333,"545 BARNHILL DRIVE SUITE 232","INDIANAPOLIS","IN",46202,39.7753382240001,-86.178597823,333,"545 BARNHILL DRIVE SUITE 232, INDIANAPOLIS, IN, 46202","Match","Exact","545 BARNHILL DR, INDIANAPOLIS, IN, 46202",108021884,"L"
719334,"545 BEAVER LAND","SCANDIA","KS",66966,NA,NA,334,"545 BEAVER LAND, SCANDIA, KS, 66966","No_Match",NA,NA,NA,NA
719335,"545 BENSON ROAD","HYDE PARK","VT",5655,44.625969126,-72.5775516419999,335,"545 BENSON ROAD, HYDE PARK, VT, 5655","Match","Exact","545 BENSON RD, HYDE PARK, VT, 05655",136617351,"L"
719336,"545 BEVERLY HILL BLVD","BILLINGS","MT",59102,45.790918741,-108.529988444,336,"545 BEVERLY HILL BLVD, BILLINGS, MT, 59102","Match","Exact","545 BEVERLY HILL BLVD, BILLINGS, MT, 59102",181492807,"R"
719337,"545 BLACK RIVER RD","GEORGETOWN","SC",29440,33.3765253770001,-79.2842109269999,337,"545 BLACK RIVER RD, GEORGETOWN, SC, 29440","Match","Exact","545 BLACK RIVER RD, GEORGETOWN, SC, 29440",28961810,"L"
719338,"545 BRADLEY CT","FAIRBURN","GA",30213,33.5282976030001,-84.564657665,338,"545 BRADLEY CT, FAIRBURN, GA, 30213","Match","Exact","545 BRADLEY CT, FAIRBURN, GA, 30213",17375639,"R"
719339,"545 BRANDYWINE DRIVE","CRANBERRY TOWNSHIP","PA",16066,40.6860293,-80.1364075549999,339,"545 BRANDYWINE DRIVE, CRANBERRY TOWNSHIP, PA, 16066","Match","Exact","545 BRANDYWINE DR, CRANBERRY TOWNSHIP, PA, 16066",52678746,"R"
719340,"545 BROADWATER LN","BATESVILLE","AR",72501,35.7851083940001,-91.6691107789999,340,"545 BROADWATER LN, BATESVILLE, AR, 72501","Match","Exact","545 BROADWATER LN, BATESVILLE, AR, 72501",41660578,"L"
719341,"545 BUTLER STREET","PILOT MOUNTAIN","NC",27041,36.3823285780001,-80.474661343,341,"545 BUTLER STREET, PILOT MOUNTAIN, NC, 27041","Match","Exact","545 BUTLER ST, PILOT MOUNTAIN, NC, 27041",154172799,"L"
719342,"545 CALLEN AVENUE","MORGANTOWN","WV",26501,39.618271043,-79.9668242609999,342,"545 CALLEN AVENUE, MORGANTOWN, WV, 26501","Match","Exact","545 CALLEN AVE, MORGANTOWN, WV, 26501",636679141,"R"
719343,"545 CANYON ROAD","SANTA FE","NM",87501,35.682197365,-105.929995774,343,"545 CANYON ROAD, SANTA FE, NM, 87501","Match","Exact","545 CANYON RD, SANTA FE, NM, 87501",612403988,"L"
719344,"545 CEDAR RIDGE DRIVE","WILLIAMSTON","MI",48895,42.6927033600001,-84.2647699079999,344,"545 CEDAR RIDGE DRIVE, WILLIAMSTON, MI, 48895","Match","Exact","545 CEDAR RIDGE DR, WILLIAMSTON, MI, 48895",17529155,"R"
719345,"545 CENTER STREET","BRYSON CITY","NC",28713,35.435527633,-83.444014452,345,"545 CENTER STREET, BRYSON CITY, NC, 28713","Match","Exact","545 CENTER ST, BRYSON CITY, NC, 28713",36132522,"R"
719346,"545 CENTER STREET","LAGUNA BEACH","CA",92651,33.5307242010001,-117.767590822,346,"545 CENTER STREET, LAGUNA BEACH, CA, 92651","Match","Exact","545 CENTER ST, LAGUNA BEACH, CA, 92651",645548011,"R"
719347,"545 CHANTILLY TRL","BRADENTON","FL",34212,27.4962674540001,-82.419440247,347,"545 CHANTILLY TRL, BRADENTON, FL, 34212","Match","Exact","545 CHANTILLY TRL, BRADENTON, FL, 34212",647461966,"R"
719348,"545 CHESTNUT AVE","LONG BEACH","CA",90802,33.7736733730001,-118.196358972,348,"545 CHESTNUT AVE, LONG BEACH, CA, 90802","Match","Exact","545 CHESTNUT AVE, LONG BEACH, CA, 90802",141693250,"L"
719349,"545 CHESTNUT AVENUE","WAYNESBORO","VA",22980,38.063513646,-78.894155868,349,"545 CHESTNUT AVENUE, WAYNESBORO, VA, 22980","Match","Exact","545 CHESTNUT AVE, WAYNESBORO, VA, 22980",98807117,"L"
719350,"545 CLEARVIEW DRIVE","ASHEBORO","NC",27205,35.6632887320001,-79.8131536339999,350,"545 CLEARVIEW DRIVE, ASHEBORO, NC, 27205","Match","Exact","545 CLEARVIEW DR, ASHEBORO, NC, 27205",20408253,"L"
719351,"545 CLOVER AVE","PATTERSON","CA",95363,37.462234547,-121.136316921,351,"545 CLOVER AVE, PATTERSON, CA, 95363","Match","Exact","545 CLOVER AVE, PATTERSON, CA, 95363",102613103,"R"
719352,"545 COLEE ST APT 11","ST AUGUSTINE","FL",32084,29.9204063020001,-81.347911875,352,"545 COLEE ST APT 11, ST AUGUSTINE, FL, 32084","Match","Exact","545 COLEE ST, SAINT AUGUSTINE, FL, 32084",92615423,"L"
719353,"545 COLUMBIA DR","LAWRENCE","KS",66049,38.9720868650001,-95.27454612,353,"545 COLUMBIA DR, LAWRENCE, KS, 66049","Match","Exact","545 COLUMBIA DR, LAWRENCE, KS, 66049",17687039,"R"
719354,"545 CONGRESS STREET  PO BOX 251","BLOOMINGTON","WI",53804,42.8886507610001,-90.9238609399999,354,"545 CONGRESS STREET  PO BOX 251, BLOOMINGTON, WI, 53804","Match","Exact","545 CONGRESS ST, BLOOMINGTON, WI, 53804",32745398,"L"
719355,"545 COUNTY ROAD 176","DUTTON","AL",35744,34.633540786,-85.954921419,355,"545 COUNTY ROAD 176, DUTTON, AL, 35744","Match","Exact","545 CO RD 176, DUTTON, AL, 35744",58036984,"L"
719356,"545 CRAZY HORSE COURT","CAMERON PARK","CA",95682,38.6539285110001,-121.013939892,356,"545 CRAZY HORSE COURT, CAMERON PARK, CA, 95682","Match","Exact","545 CRAZY HORSE CT, CAMERON PARK, CA, 95682",607158233,"L"
719357,"545 CREEK ROAD","BATH","PA",18014,NA,NA,357,"545 CREEK ROAD, BATH, PA, 18014","No_Match",NA,NA,NA,NA
719358,"545 CRESSY","BEL AIR","MD",21014,39.5421819040001,-76.3563980019999,358,"545 CRESSY, BEL AIR, MD, 21014","Match","Non_Exact","545 CRESSY RD, BEL AIR, MD, 21014",191640980,"R"
719359,"545 CRESTHAVEN DR","PITTSBURGH","PA",15239,40.4620889970001,-79.773317832,359,"545 CRESTHAVEN DR, PITTSBURGH, PA, 15239","Match","Exact","545 CRESTHAVEN DR, PITTSBURGH, PA, 15239",636375619,"R"
719360,"545 DECORA AVE","ELLSWORTH","IA",50075,42.314120991,-93.579504162,360,"545 DECORA AVE, ELLSWORTH, IA, 50075","Match","Exact","545 DECORA AVE, ELLSWORTH, IA, 50075",65745130,"L"
719361,"545 DELANEY AVENUE BUILDING 1","ORLANDO","FL",32801,28.53529287,-81.3747384929999,361,"545 DELANEY AVENUE BUILDING 1, ORLANDO, FL, 32801","Match","Exact","545 DELANEY AVE, ORLANDO, FL, 32801",638653922,"L"
719362,"545 DESERT ROSE CT","IMPERIAL","CA",92251,32.8233208840001,-115.581852716,362,"545 DESERT ROSE CT, IMPERIAL, CA, 92251","Match","Exact","545 DESERT ROSE CT, IMPERIAL, CA, 92251",194541791,"L"
719363,"545 DORTHEA DRIVE","RALEIGH","NC",27601,35.7711193580001,-78.6471106449999,363,"545 DORTHEA DRIVE, RALEIGH, NC, 27601","Match","Non_Exact","545 DOROTHEA DR, RALEIGH, NC, 27601",208347425,"L"
719364,"545 DRUSE STREET","BARNES CITY","IA",50027,41.50580611,-92.469070938,364,"545 DRUSE STREET, BARNES CITY, IA, 50027","Match","Exact","545 DRUSE ST, BARNES CITY, IA, 50027",89382477,"R"
719365,"545 DUDLEYVILLE ROAD","GREENVILLE","IL",62246,38.8184448040001,-89.414581471,365,"545 DUDLEYVILLE ROAD, GREENVILLE, IL, 62246","Match","Exact","545 DUDLEYVILLE RD, GREENVILLE, IL, 62246",101034356,"L"
719366,"545 DUNLAP STREET","WINCHESTER","VA",22601,39.1869431480001,-78.14933612,366,"545 DUNLAP STREET, WINCHESTER, VA, 22601","Match","Exact","545 DUNLAP ST, WINCHESTER, VA, 22601",55586313,"L"
719367,"545 DUTCH VALLEY ROAD NE SUITE A","ATLANTA","GA",30324,33.7920686000001,-84.368826477,367,"545 DUTCH VALLEY ROAD NE SUITE A, ATLANTA, GA, 30324","Match","Exact","545 DUTCH VALLEY RD NE, ATLANTA, GA, 30324",618350590,"R"
719368,"545 DYNASTY DRIVE","FAIRFIELD","CA",94534,38.2186833760001,-122.154376888,368,"545 DYNASTY DRIVE, FAIRFIELD, CA, 94534","Match","Exact","545 DYNASTY DR, FAIRFIELD, CA, 94534",628986477,"L"
719369,"545 E ERIE ROAD","TEMPERANCE","MI",48182,41.794110394,-83.539114476,369,"545 E ERIE ROAD, TEMPERANCE, MI, 48182","Match","Exact","545 E ERIE RD, TEMPERANCE, MI, 48182",40484526,"R"
719370,"545 E HOPOCAN AVE","BARBERTON","OH",44203,41.0172136480001,-81.585840597,370,"545 E HOPOCAN AVE, BARBERTON, OH, 44203","Match","Exact","545 E HOPOCAN AVE, BARBERTON, OH, 44203",61342610,"L"
719371,"545 E JAMES STREET","ELY","MN",55731,47.897679646,-91.858865414,371,"545 E JAMES STREET, ELY, MN, 55731","Match","Exact","545 E JAMES ST, ELY, MN, 55731",163156961,"R"
719372,"545 E KINGS DEER POINT","MONUMENT","CO",80132,39.1116471880001,-104.811645628,372,"545 E KINGS DEER POINT, MONUMENT, CO, 80132","Match","Exact","545 E KINGS DEER PT, MONUMENT, CO, 80132",647962400,"L"
719373,"545 E MANNING ST","Azusa","CA",91702,34.119919639,-117.901113509,373,"545 E MANNING ST, Azusa, CA, 91702","Match","Exact","545 MANNING ST, AZUSA, CA, 91702",141709580,"L"
719374,"545 E MANNING ST","AZUSA","CA",91702,34.119919639,-117.901113509,374,"545 E MANNING ST, AZUSA, CA, 91702","Match","Exact","545 MANNING ST, AZUSA, CA, 91702",141709580,"L"
719375,"545 E MANNING ST","AZUSA","CA",NA,34.11991994,-117.901106112,375,"545 E MANNING ST, AZUSA, CA, ","Match","Exact","545 MANNING ST, AZUSA, CA, 91702",141709580,"L"
719376,"545 E PROSPECT","FAYETTEVILLE","AR",72701,36.073928951,-94.150090808,376,"545 E PROSPECT, FAYETTEVILLE, AR, 72701","Match","Non_Exact","545 E PROSPECT ST, FAYETTEVILLE, AR, 72701",49046532,"R"
719377,"545 E RIDGE RD","GARY","IN",46409,41.5504521240001,-87.3298977589999,377,"545 E RIDGE RD, GARY, IN, 46409","Match","Exact","545 E RIDGE RD, GARY, IN, 46409",98433513,"R"
719378,"545 E TOWN ST","COLUMBUS","OH",43215,39.96047745,-82.98546269,378,"545 E TOWN ST, COLUMBUS, OH, 43215","Match","Exact","545 E TOWN ST, COLUMBUS, OH, 43215",135579973,"R"
719379,"545 E WHITEFISH BAY APT 3","FAYETTEVILLE","AR",72701,NA,NA,379,"545 E WHITEFISH BAY APT 3, FAYETTEVILLE, AR, 72701","No_Match",NA,NA,NA,NA
719380,"545 EAST 4TH","BROOKLYN","NY",11218,40.638991263,-73.9756159189999,380,"545 EAST 4TH, BROOKLYN, NY, 11218","Match","Non_Exact","545 E 4TH ST, BROOKLYN, NY, 11218",59080620,"L"
719381,"545 EAST 84TH","SHREVEPORT","LA",71106,32.428309502,-93.7471349799999,381,"545 EAST 84TH, SHREVEPORT, LA, 71106","Match","Non_Exact","545 E 84TH ST, SHREVEPORT, LA, 71106",57440475,"R"
719382,"545 EAST GALLAGHER RD","WEST BRANCH","MI",48661,44.262987224,-84.102709949,382,"545 EAST GALLAGHER RD, WEST BRANCH, MI, 48661","Match","Exact","545 E GALLAGHER RD, WEST BRANCH, MI, 48661",161359537,"R"
719383,"545 EAST JIMMIE LEEDS ROAD","GALLOWAY","NJ",8205,39.4581942360001,-74.485639922,383,"545 EAST JIMMIE LEEDS ROAD, GALLOWAY, NJ, 8205","Match","Exact","545 E JIMMIE LEEDS RD, GALLOWAY, NJ, 08205",202538208,"R"
719384,"545 EAST PASS ROAD","GULFPORT","MS",39507,30.395017355,-89.0409296779999,384,"545 EAST PASS ROAD, GULFPORT, MS, 39507","Match","Exact","545 E PASS RD, GULFPORT, MS, 39507",641217928,"R"
719385,"545 EAST TOWN ST","COLUMBUS","OH",43215,39.9604756850001,-82.985477578,385,"545 EAST TOWN ST, COLUMBUS, OH, 43215","Match","Exact","545 E TOWN ST, COLUMBUS, OH, 43215",135579973,"R"
719386,"545 EAST TOWN STREET","COLUMBUS","OH",43215,39.9604756850001,-82.985477578,386,"545 EAST TOWN STREET, COLUMBUS, OH, 43215","Match","Exact","545 E TOWN ST, COLUMBUS, OH, 43215",135579973,"R"
719387,"545 EDGECOMBE AVE APT 3B","NEW YORK","NY",10032,40.8333290420001,-73.939105709,387,"545 EDGECOMBE AVE APT 3B, NEW YORK, NY, 10032","Match","Exact","545 EDGECOMBE AVE, NEW YORK, NY, 10032",59655841,"L"
719388,"545 EDGEMERE DRIVE","INDIANOPOLIS","IN",46260,39.880013315,-86.168380406,388,"545 EDGEMERE DRIVE, INDIANOPOLIS, IN, 46260","Match","Non_Exact","545 EDGEMERE DR, INDIANAPOLIS, IN, 46260",107983668,"L"
719389,"545 ELLIS AVENUE","JACKSON","MS",32905,32.311526858,-90.2277529579999,389,"545 ELLIS AVENUE, JACKSON, MS, 32905","Match","Non_Exact","545 ELLIS AVE, JACKSON, MS, 39209",65379459,"R"
719390,"545 EMERICK ST","WOOSTER","OH",44691,40.803524184,-81.945278679,390,"545 EMERICK ST, WOOSTER, OH, 44691","Match","Exact","545 EMERICK ST, WOOSTER, OH, 44691",58721763,"R"
719391,"545 ESTATE CLUB CIRCLE","ROSWELL","GA",30075,34.0726223670001,-84.3713528389999,391,"545 ESTATE CLUB CIRCLE, ROSWELL, GA, 30075","Match","Exact","545 ESTATE CLUB CIR, ROSWELL, GA, 30075",17420497,"L"
719392,"545 FALLING WATERS BLVD","FAIRHOPE","AL",36532,30.5547711240001,-87.861014175,392,"545 FALLING WATERS BLVD, FAIRHOPE, AL, 36532","Match","Non_Exact","545 FALLING WATER BLVD, FAIRHOPE, AL, 36532",618722287,"L"
719393,"545 FARLEY ST","MOUNTAIN VIEW","CA",94043,37.4043570420001,-122.089074452,393,"545 FARLEY ST, MOUNTAIN VIEW, CA, 94043","Match","Exact","545 FARLEY ST, MOUNTAIN VIEW, CA, 94043",122953973,"R"
719394,"545 FAWN RIDGE DR AP 104","DALLAS","TX",75224,32.7009548030001,-96.832142888,394,"545 FAWN RIDGE DR AP 104, DALLAS, TX, 75224","Match","Exact","545 FAWN RIDGE DR, DALLAS, TX, 75224",102948083,"R"
719395,"545 FAWN RIDGE DR APT 217","DALLAS","TX",75224,32.7009548030001,-96.832142888,395,"545 FAWN RIDGE DR APT 217, DALLAS, TX, 75224","Match","Exact","545 FAWN RIDGE DR, DALLAS, TX, 75224",102948083,"R"
719396,"545 FAWN RIDGE DR APT 219","DALLAS","TX",75224,32.7009548030001,-96.832142888,396,"545 FAWN RIDGE DR APT 219, DALLAS, TX, 75224","Match","Exact","545 FAWN RIDGE DR, DALLAS, TX, 75224",102948083,"R"
719397,"545 FAWN RIDGE DRIVE  APT 204","DALLAS","TX",75224,32.7009548030001,-96.832142888,397,"545 FAWN RIDGE DRIVE  APT 204, DALLAS, TX, 75224","Match","Exact","545 FAWN RIDGE DR, DALLAS, TX, 75224",102948083,"R"
719398,"545 FAWN RIDGE DRIVE APT 204","DALLAS","TX",75224,32.7009548030001,-96.832142888,398,"545 FAWN RIDGE DRIVE APT 204, DALLAS, TX, 75224","Match","Exact","545 FAWN RIDGE DR, DALLAS, TX, 75224",102948083,"R"
719399,"545 FAWN RIDGE DRIVE APT 219","DALLAS","TX",75224,32.7009548030001,-96.832142888,399,"545 FAWN RIDGE DRIVE APT 219, DALLAS, TX, 75224","Match","Exact","545 FAWN RIDGE DR, DALLAS, TX, 75224",102948083,"R"
719400,"545 FENIMORE AVE","COVINA","CA",91723,34.080016072,-117.893976867,400,"545 FENIMORE AVE, COVINA, CA, 91723","Match","Non_Exact","545 S FENIMORE AVE, COVINA, CA, 91723",142782245,"R"
719401,"545 FIFTH AVENUE","TROY","NY",12180,42.7731291700001,-73.674069346,401,"545 FIFTH AVENUE, TROY, NY, 12180","Match","Non_Exact","545 5TH AVE, TROY, NY, 12182",35730012,"L"
719402,"545 FISHER ST","MARQUETTE","MI",49855,46.5404125960001,-87.404270057,402,"545 FISHER ST, MARQUETTE, MI, 49855","Match","Exact","545 FISHER ST, MARQUETTE, MI, 49855",182034930,"L"
719403,"545 FM 1488 RD APT 1210","CONROE","TX",77384,NA,NA,403,"545 FM 1488 RD APT 1210, CONROE, TX, 77384","No_Match",NA,NA,NA,NA
719404,"545 FOREST HILL PATH","FOREST PARK","GA",30297,33.5915640650001,-84.3692223369999,404,"545 FOREST HILL PATH, FOREST PARK, GA, 30297","Match","Exact","545 FOREST HILL PATH, FOREST PARK, GA, 30297",625754812,"L"
719405,"545 FOREST VIEW ROAD","LINTHICUM","MD",21090,39.200572182,-76.664371741,405,"545 FOREST VIEW ROAD, LINTHICUM, MD, 21090","Match","Exact","545 FOREST VIEW RD, LINTHICUM, MD, 21090",636149736,"L"
719406,"545 FORTESUMPTER","MODESTO","CA",95340,NA,NA,406,"545 FORTESUMPTER, MODESTO, CA, 95340","No_Match",NA,NA,NA,NA
719407,"545 FOXWOOD LANE","LAPLACE","LA",70068,30.0919871510001,-90.5061243869999,407,"545 FOXWOOD LANE, LAPLACE, LA, 70068","Match","Non_Exact","545 FOXWOOD LN, LA PLACE, LA, 70068",650890399,"L"
719408,"545 FRIENDSHIP DRIVE","CHICKAMAUGA","GA",30707,34.8363458650001,-85.358682909,408,"545 FRIENDSHIP DRIVE, CHICKAMAUGA, GA, 30707","Match","Non_Exact","545 FRIENDSHIP RD, CHICKAMAUGA, GA, 30707",66725648,"R"
719409,"545 FRIENDSHIPRD","CHICKAMAUGA","GA",30707,NA,NA,409,"545 FRIENDSHIPRD, CHICKAMAUGA, GA, 30707","No_Match",NA,NA,NA,NA
719410,"545 FRISCO AVE","ELLWOOD CITY","PA",16117,NA,NA,410,"545 FRISCO AVE, ELLWOOD CITY, PA, 16117","No_Match",NA,NA,NA,NA
719411,"545 FRITZ ROAD","BELLEVILLE","WI",53508,42.884585386,-89.595129017,411,"545 FRITZ ROAD, BELLEVILLE, WI, 53508","Match","Exact","545 FRITZ RD, BELLEVILLE, WI, 53508",49476680,"R"
719412,"545 GARRETT ISLAND RD","PLYMOUTH","NC",27962,35.8505988410001,-76.7308400329999,412,"545 GARRETT ISLAND RD, PLYMOUTH, NC, 27962","Match","Exact","545 GARRETT ISLAND RD, PLYMOUTH, NC, 27962",18681625,"R"
719413,"545 GATEWOOD CIR","NEW BRAUNFELS","TX",78130,29.738985563,-98.079575411,413,"545 GATEWOOD CIR, NEW BRAUNFELS, TX, 78130","Match","Exact","545 GATEWOOD CIR, NEW BRAUNFELS, TX, 78130",72263454,"R"
719414,"545 GRAIN COURT","BRIGHTON","CO",80601,39.9973824640001,-104.760777606,414,"545 GRAIN COURT, BRIGHTON, CO, 80601","Match","Exact","545 GRAIN CT, BRIGHTON, CO, 80601",177458407,"L"
719415,"545 GRANTSDALE ROAD","HAMILTON","MT",59840,46.215494564,-114.144696792,415,"545 GRANTSDALE ROAD, HAMILTON, MT, 59840","Match","Exact","545 GRANTSDALE RD, HAMILTON, MT, 59840",614120925,"L"
719416,"545 GRAPHITE TRL","CHESAPEAKE","VA",23320,NA,NA,416,"545 GRAPHITE TRL, CHESAPEAKE, VA, 23320","No_Match",NA,NA,NA,NA
719417,"545 H ST","CHULA VISTA","CA",91910,32.631627134,-117.087003075,417,"545 H ST, CHULA VISTA, CA, 91910","Match","Exact","545 H ST, CHULA VISTA, CA, 91910",195356043,"R"
719418,"545 HAMMERSMITH DR","SUWANEE","GA",30024,34.122593921,-84.1295848029999,418,"545 HAMMERSMITH DR, SUWANEE, GA, 30024","Match","Exact","545 HAMMERSMITH DR, SUWANEE, GA, 30024",624609525,"R"
719419,"545 HAMMOND STREET","CHESTNUT HILL","MA",2467,42.3251360410001,-71.1651387539999,419,"545 HAMMOND STREET, CHESTNUT HILL, MA, 2467","Match","Exact","545 HAMMOND ST, CHESTNUT HILL, MA, 02467",87108281,"R"
719420,"545 HARVEYS NECK ROAD","HEATHSVILLE","VA",22473,37.801734551,-76.3115748709999,420,"545 HARVEYS NECK ROAD, HEATHSVILLE, VA, 22473","Match","Exact","545 HARVEYS NECK RD, HEATHSVILLE, VA, 22473",30956442,"R"
719421,"545 HEMBREE GROVE OVERLOOK","ROSWELL","GA",30076,34.0587454430001,-84.339476997,421,"545 HEMBREE GROVE OVERLOOK, ROSWELL, GA, 30076","Match","Exact","545 HEMBREE GROVE OVERLOOK, ROSWELL, GA, 30076",17419813,"R"
719422,"545 HEMPSTEAD TURNPIKE AVE","UNIONDALE","NY",11553,40.702986701,-73.5967255099999,422,"545 HEMPSTEAD TURNPIKE AVE, UNIONDALE, NY, 11553","Match","Non_Exact","545 HEMPSTEAD BLVD, UNIONDALE, NY, 11553",147630265,"L"
719423,"545 HENTCHEL PLACE","FERGUSON","MO",63135,NA,NA,423,"545 HENTCHEL PLACE, FERGUSON, MO, 63135","No_Match",NA,NA,NA,NA
719424,"545 HERON RUN COURT","ALPHARETTA","GA",30004,34.142250022,-84.263875002,424,"545 HERON RUN COURT, ALPHARETTA, GA, 30004","Match","Exact","545 HERON RUN CT, ALPHARETTA, GA, 30004",17402578,"R"
719425,"545 HILL STREET SE","ATLANTA","GA",30312,33.740681667,-84.378935696,425,"545 HILL STREET SE, ATLANTA, GA, 30312","Match","Exact","545 HILL ST SE, ATLANTA, GA, 30312",17344961,"R"
719426,"545 HILLSIDE DR","QUINCY","CA",95971,39.9417632330001,-120.867738163,426,"545 HILLSIDE DR, QUINCY, CA, 95971","Match","Exact","545 HILLSIDE DR, QUINCY, CA, 95971",127222674,"L"
719427,"545 HUNTERS LAKE WAY AP -1310","PONTE VEDRA","FL",32081,NA,NA,427,"545 HUNTERS LAKE WAY AP -1310, PONTE VEDRA, FL, 32081","No_Match",NA,NA,NA,NA
719428,"545 HUNTINGTON PLACE","ROSWELL","GA",30076,34.0390527810001,-84.3246607199999,428,"545 HUNTINGTON PLACE, ROSWELL, GA, 30076","Match","Exact","545 HUNTINGTON PL, ROSWELL, GA, 30076",17419298,"R"
719429,"545 ILLINOIS AVE","SEYMOUR","TN",37865,NA,NA,429,"545 ILLINOIS AVE, SEYMOUR, TN, 37865","No_Match",NA,NA,NA,NA
719430,"545 JOHNSTON DRIVE","WATCHUNG","NJ",7069,40.63768158,-74.433355869,430,"545 JOHNSTON DRIVE, WATCHUNG, NJ, 7069","Match","Exact","545 JOHNSTON DR, WATCHUNG, NJ, 07069",59948784,"L"
719431,"545 JORDAN STREET","NEVADA CITY","CA",95959,39.2587972270001,-121.026623957,431,"545 JORDAN STREET, NEVADA CITY, CA, 95959","Match","Exact","545 JORDAN ST, NEVADA CITY, CA, 95959",106529951,"R"
719432,"545 JULIA ST","WEST MEMPHIS","AR",72301,35.1513571840001,-90.16166771,432,"545 JULIA ST, WEST MEMPHIS, AR, 72301","Match","Exact","545 JULIA ST, WEST MEMPHIS, AR, 72301",69373216,"L"
719433,"545 JUMPING JACK LANE","LAKE CHARLES","LA",70615,30.2509527460001,-93.1469365739999,433,"545 JUMPING JACK LANE, LAKE CHARLES, LA, 70615","Match","Exact","545 JUMPING JACK LN, LAKE CHARLES, LA, 70615",624120208,"R"
719434,"545 JUNIPER SPRINGS DR","GROVELAND","FL",34736,28.5600914070001,-81.788340831,434,"545 JUNIPER SPRINGS DR, GROVELAND, FL, 34736","Match","Exact","545 JUNIPER SPRINGS DR, GROVELAND, FL, 34736",651157971,"R"
719435,"545 KELLY COVE RD","SOUTH PITTSBURG","TN",37380,35.080194297,-85.73106114,435,"545 KELLY COVE RD, SOUTH PITTSBURG, TN, 37380","Match","Exact","545 KELLY COVE RD, S PITTSBURG, TN, 37380",58400790,"R"
719436,"545 KILLARNEY PASS CIRCLE","MUNDELEIN","IL",60060,42.281407523,-88.00999747,436,"545 KILLARNEY PASS CIRCLE, MUNDELEIN, IL, 60060","Match","Exact","545 KILLARNEY PASS CIR, MUNDELEIN, IL, 60060",119755554,"L"
719437,"545 LAKE DRIVE","ALLEGAN","MI",49010,42.536879786,-85.866651142,437,"545 LAKE DRIVE, ALLEGAN, MI, 49010","Match","Exact","545 LAKE DR, ALLEGAN, MI, 49010",11418873,"L"
719438,"545 LAMPOST LANE","CAMP HILL","PA",17011,NA,NA,438,"545 LAMPOST LANE, CAMP HILL, PA, 17011","No_Match",NA,NA,NA,NA
719439,"545 LAUERS LANE","WYOMISSING","PA",19610,40.3204858290001,-75.976265411,439,"545 LAUERS LANE, WYOMISSING, PA, 19610","Match","Exact","545 LAUERS LN, WYOMISSING, PA, 19610",642032801,"L"
719440,"545 LAVINA DR","BOLINGBROOK","IL",60440,41.7251873930001,-88.092128068,440,"545 LAVINA DR, BOLINGBROOK, IL, 60440","Match","Exact","545 LAVINA DR, BOLINGBROOK, IL, 60440",111574435,"R"
719441,"545 LEXINGTON DRIVE","VALLEJO","CA",94591,38.104360123,-122.202054687,441,"545 LEXINGTON DRIVE, VALLEJO, CA, 94591","Match","Exact","545 LEXINGTON DR, VALLEJO, CA, 94591",624317046,"L"
719442,"545 LINCOLN AVE","ERIE","PA",16505,42.1162640910001,-80.123783825,442,"545 LINCOLN AVE, ERIE, PA, 16505","Match","Exact","545 LINCOLN AVE, ERIE, PA, 16505",117493136,"L"
719443,"545 LINVILLE ROAD","KERNERSVILLE","NC",27284,36.096496013,-80.1480695119999,443,"545 LINVILLE ROAD, KERNERSVILLE, NC, 27284","Match","Exact","545 LINVILLE RD, KERNERSVILLE, NC, 27284",632411839,"L"
719444,"545 LITTLE RANGER RD","MURPHY","NC",28906,35.0193657510001,-84.129636482,444,"545 LITTLE RANGER RD, MURPHY, NC, 28906","Match","Exact","545 LITTLE RANGER RD, MURPHY, NC, 28906",625160069,"L"
719445,"545 LIVELY RD","WACO","GA",30182,33.6686211000001,-85.225173367,445,"545 LIVELY RD, WACO, GA, 30182","Match","Exact","545 LIVELY RD, WACO, GA, 30182",17131555,"R"
719446,"545 LOSSON ROAD","CHEEKTOWAGA","NY",14227,42.8815538440001,-78.735135987,446,"545 LOSSON ROAD, CHEEKTOWAGA, NY, 14227","Match","Exact","545 LOSSON RD, CHEEKTOWAGA, NY, 14227",645418132,"R"
719447,"545 LYNNEDA","FORT MYERS","FL",33905,26.6692346200001,-81.819497459,447,"545 LYNNEDA, FORT MYERS, FL, 33905","Match","Non_Exact","545 LYNNEDA AVE, FORT MYERS, FL, 33905",118022501,"L"
719448,"545 MADISON POINT DR","LEXINGTON","KY",40514,37.966306268,-84.517063719,448,"545 MADISON POINT DR, LEXINGTON, KY, 40514","Match","Non_Exact","545 MADISON PT DR, LEXINGTON, KY, 40515",637542507,"L"
719449,"545 MADISON PT","LEXINGTON","KY",40517,NA,NA,449,"545 MADISON PT, LEXINGTON, KY, 40517","No_Match",NA,NA,NA,NA
719450,"545 MADRONE AVENUE","CHICO","CA",95926,39.7502796520001,-121.810293928,450,"545 MADRONE AVENUE, CHICO, CA, 95926","Match","Exact","545 MADRONE AVE, CHICO, CA, 95926",68473297,"L"
719451,"545 MAIN STREET","COLLEGE PARK","GA",30344,NA,NA,451,"545 MAIN STREET, COLLEGE PARK, GA, 30344","No_Match",NA,NA,NA,NA
719452,"545 MAIN STREET","READING","MA",1867,42.522751757,-71.1030819599999,452,"545 MAIN STREET, READING, MA, 1867","Match","Exact","545 MAIN ST, READING, MA, 01867",86902785,"R"
719453,"545 MAINSTREAM","NASHVILLE","TN",37228,36.194463672,-86.8175447689999,453,"545 MAINSTREAM, NASHVILLE, TN, 37228","Match","Non_Exact","545 MAINSTREAM DR, NASHVILLE, TN, 37228",97184554,"R"
719454,"545 MALLARD DRIVE","E ALTON","IL",62024,38.878914046,-90.056921411,454,"545 MALLARD DRIVE, E ALTON, IL, 62024","Match","Exact","545 MALLARD DR, EAST ALTON, IL, 62024",107687024,"R"
719455,"545 MANHATTAN PLACE APT 9","LOS ANGELES","CA",90020,34.064498702,-118.310347264,455,"545 MANHATTAN PLACE APT 9, LOS ANGELES, CA, 90020","Match","Non_Exact","545 S MANHATTAN PL, LOS ANGELES, CA, 90020",141603815,"R"
719456,"545 MAPLE DR","MAUSTON","WI",53948,43.7910746110001,-90.078434769,456,"545 MAPLE DR, MAUSTON, WI, 53948","Match","Exact","545 MAPLE DR, MAUSTON, WI, 53948",50951274,"L"
719457,"545 MARIN COURT","ALPHARETTA","GA",30022,34.0377672160001,-84.273733341,457,"545 MARIN COURT, ALPHARETTA, GA, 30022","Match","Exact","545 MARIN CT, ALPHARETTA, GA, 30022",17376703,"R"
719458,"545 MCCLURG","CHICAGO","IL",60611,NA,NA,458,"545 MCCLURG, CHICAGO, IL, 60611","No_Match",NA,NA,NA,NA
719459,"545 MCKOY STREET","DECATUR","GA",30030,33.758436262,-84.300231449,459,"545 MCKOY STREET, DECATUR, GA, 30030","Match","Exact","545 MCKOY ST, DECATUR, GA, 30030",642649063,"R"
719460,"545 MEADOW COURT","BROOKFIELD","WI",54045,43.0270792210001,-88.149869931,460,"545 MEADOW COURT, BROOKFIELD, WI, 54045","Match","Non_Exact","545 MEADOW CT, BROOKFIELD, WI, 53045",53815510,"R"
719461,"545 MERIDIAN AVE D26585","SAN JOSE","CA",95126,37.3170977790001,-121.914122055,461,"545 MERIDIAN AVE D26585, SAN JOSE, CA, 95126","Match","Exact","545 MERIDIAN AVE, SAN JOSE, CA, 95126",123180708,"R"
719462,"545 MERINO ROAD","GEYSER","MT",59447,47.2424966140001,-110.44104759,462,"545 MERINO ROAD, GEYSER, MT, 59447","Match","Exact","545 MERINO RD, GEYSER, MT, 59447",170730276,"L"
719463,"545 METRO PLACE SOUTH STE 100","DUBLIN","OH",43017,40.0934340210001,-83.129212352,463,"545 METRO PLACE SOUTH STE 100, DUBLIN, OH, 43017","Match","Exact","545 METRO PL S, DUBLIN, OH, 43017",218686643,"L"
719464,"545 MIDDLE STREET","BRISTOL","CT",6010,41.6563907460001,-72.914383119,464,"545 MIDDLE STREET, BRISTOL, CT, 6010","Match","Exact","545 MIDDLE ST, BRISTOL, CT, 06010",3506509,"L"
719465,"545 MILL RUN","PARAMUS","NJ",7652,40.963789553,-74.094188951,465,"545 MILL RUN, PARAMUS, NJ, 7652","Match","Exact","545 MILL RUN, PARAMUS, NJ, 07652",64440968,"L"
719466,"545 MILLBANK ROAD","UPPER DARBY","PA",19082,39.951507028,-75.2593988149999,466,"545 MILLBANK ROAD, UPPER DARBY, PA, 19082","Match","Exact","545 MILLBANK RD, UPPER DARBY, PA, 19082",134878329,"L"
719467,"545 MILLENIA LAKES BLVD","ORLANDO","FL",32839,NA,NA,467,"545 MILLENIA LAKES BLVD, ORLANDO, FL, 32839","No_Match",NA,NA,NA,NA
719468,"545 MOHICAN TRAIL","WILMINGTON","NC",28409,34.155289028,-77.885219529,468,"545 MOHICAN TRAIL, WILMINGTON, NC, 28409","Match","Exact","545 MOHICAN TRL, WILMINGTON, NC, 28409",650668830,"L"
719469,"545 MONROE ST","TRACY","MN",56175,44.2286278220001,-95.6317028079999,469,"545 MONROE ST, TRACY, MN, 56175","Match","Exact","545 MONROE ST, TRACY, MN, 56175",38521860,"R"
719470,"545 MOON PLACE ROAD","LAWRENCEVILLE","GA",30044,33.906123467,-84.042179302,470,"545 MOON PLACE ROAD, LAWRENCEVILLE, GA, 30044","Match","Exact","545 MOON PLACE RD, LAWRENCEVILLE, GA, 30044",88917348,"R"
719471,"545 MOSS STREAM LANE","CHARLOTTE","NC",28214,35.2887086910001,-80.9322438409999,471,"545 MOSS STREAM LANE, CHARLOTTE, NC, 28214","Match","Exact","545 MOSS STREAM LN, CHARLOTTE, NC, 28214",70555793,"R"
719472,"545 MOUNTAINGATE DR 12","SPRINGFIELD","OR",97478,44.040420983,-122.919835493,472,"545 MOUNTAINGATE DR 12, SPRINGFIELD, OR, 97478","Match","Exact","545 MOUNTAINGATE DR, SPRINGFIELD, OR, 97478",635875284,"L"
719473,"545 MT HOPE AVE","DOVER","NJ",7801,40.9125511840001,-74.547913297,473,"545 MT HOPE AVE, DOVER, NJ, 7801","Match","Exact","545 MOUNT HOPE AVE, DOVER, NJ, 07801",60483009,"L"
719474,"545 N 77TH CIRCLE","OMAHA","NE",68114,41.264347609,-96.032634022,474,"545 N 77TH CIRCLE, OMAHA, NE, 68114","Match","Exact","545 N 77TH CIR, OMAHA, NE, 68114",116980858,"R"
719475,"545 N BRAINARD AVE","LA GRANGE PARK","IL",60526,NA,NA,475,"545 N BRAINARD AVE, LA GRANGE PARK, IL, 60526","Tie",NA,NA,NA,NA
719476,"545 N BROADWAY","DEEPWATER","NJ",8023,NA,NA,476,"545 N BROADWAY, DEEPWATER, NJ, 8023","No_Match",NA,NA,NA,NA
719477,"545 N MCCLURG CT 3807","CHICAGO","IL",60611,41.892177469,-87.61769336,477,"545 N MCCLURG CT 3807, CHICAGO, IL, 60611","Match","Non_Exact","545 N MCCLURG CT, CHICAGO, IL, 60611",111769169,"R"
719478,"545 N MOUNTAIN AVE","UPLAND","CA",91786,34.1020926410001,-117.670186179,478,"545 N MOUNTAIN AVE, UPLAND, CA, 91786","Match","Exact","545 N MOUNTAIN AVE, UPLAND, CA, 91786",640050096,"L"
719479,"545 N RIDGEWAY DRIVE","CHICAGO","IL",60624,41.890724887,-87.7198317039999,479,"545 N RIDGEWAY DRIVE, CHICAGO, IL, 60624","Match","Non_Exact","545 N RIDGEWAY AVE, CHICAGO, IL, 60624",605083193,"R"
719480,"545 N RIMSDALE AVE 1716","COVINA","CA",91722,34.087565182,-117.9111804,480,"545 N RIMSDALE AVE 1716, COVINA, CA, 91722","Match","Non_Exact","545 N RIMSDALE AVE, COVINA, CA, 91722",142782076,"L"
719481,"545 N RIMSDALE AVE APT 1716","COVINA","CA",91722,34.087565182,-117.9111804,481,"545 N RIMSDALE AVE APT 1716, COVINA, CA, 91722","Match","Non_Exact","545 N RIMSDALE AVE, COVINA, CA, 91722",142782076,"L"
719482,"545 N SAGE AVE","RIALTO","CA",92376,34.1093958290001,-117.364277312,482,"545 N SAGE AVE, RIALTO, CA, 92376","Match","Exact","545 N SAGE AVE, RIALTO, CA, 92376",144644718,"R"
719483,"545 N SECOND ST","SHAMOKIN","PA",17872,40.789672941,-76.564151538,483,"545 N SECOND ST, SHAMOKIN, PA, 17872","Match","Exact","545 N 2ND ST, SHAMOKIN, PA, 17872",48060507,"R"
719484,"545 N STATE HIGHWAY 7","CAMDENTON","MO",65020,37.980879934,-92.68662777,484,"545 N STATE HIGHWAY 7, CAMDENTON, MO, 65020","Match","Exact","545 STATE HWY 7, CAMDENTON, MO, 65020",624699018,"R"
719485,"545 N TRADE STREET","WINSTON SALEM","NC",27101,36.1005262140001,-80.246093995,485,"545 N TRADE STREET, WINSTON SALEM, NC, 27101","Match","Exact","545 TRADE ST, WINSTON SALEM, NC, 27101",84609208,"R"
719486,"545 NE 601 RD","CALHOUN","MO",65323,38.4420315990001,-93.641795958,486,"545 NE 601 RD, CALHOUN, MO, 65323","Match","Non_Exact","545 NE 601 RD, CALHOUN, MO, 65323",44950826,"L"
719487,"545 NE 6th St","EARLHAM","IA",50072,41.4962772970001,-94.116675739,487,"545 NE 6th St, EARLHAM, IA, 50072","Match","Exact","545 NE 6TH ST, EARLHAM, IA, 50072",75195219,"L"
719488,"545 NE 6TH ST","EARLHAM","IA",50072,41.4962772970001,-94.116675739,488,"545 NE 6TH ST, EARLHAM, IA, 50072","Match","Exact","545 NE 6TH ST, EARLHAM, IA, 50072",75195219,"L"
719489,"545 NEPTUNE AVE APT 19B","BROOKLYN","NY",11224,40.579902256,-73.973311672,489,"545 NEPTUNE AVE APT 19B, BROOKLYN, NY, 11224","Match","Exact","545 NEPTUNE AVE, BROOKLYN, NY, 11224",650067446,"R"
719490,"545 NEPTUNE AVE SUITE 19B","BROOKLYN","NY",11224,40.579902256,-73.973311672,490,"545 NEPTUNE AVE SUITE 19B, BROOKLYN, NY, 11224","Match","Exact","545 NEPTUNE AVE, BROOKLYN, NY, 11224",650067446,"R"
719491,"545 NEPTUNE AVE","BROOKLYN","NY",11224,40.579902256,-73.973311672,491,"545 NEPTUNE AVE, BROOKLYN, NY, 11224","Match","Exact","545 NEPTUNE AVE, BROOKLYN, NY, 11224",650067446,"R"
719492,"545 NEPTUNE AVENUE 19B","BROOKLYN","NY",11224,40.579902256,-73.973311672,492,"545 NEPTUNE AVENUE 19B, BROOKLYN, NY, 11224","Match","Exact","545 NEPTUNE AVE, BROOKLYN, NY, 11224",650067446,"R"
719493,"545 NEWTON LAKE DR C824","COLLINGSWOOD","NJ",8107,39.90969363,-75.08026003,493,"545 NEWTON LAKE DR C824, COLLINGSWOOD, NJ, 8107","Match","Exact","545 NEWTON LAKE DR, COLLINGSWOOD, NJ, 08107",134350033,"R"
719494,"545 NEWVILLE DRIVE","LOS GATOS","CA",95032,37.263126798,-121.983563799,494,"545 NEWVILLE DRIVE, LOS GATOS, CA, 95032","Match","Exact","545 NEWVILLE DR, LOS GATOS, CA, 95032",122919722,"L"
719495,"545 NORTH 2400 WEST","VERNAL","UT",84078,40.463537909,-109.574337608,495,"545 NORTH 2400 WEST, VERNAL, UT, 84078","Match","Exact","545 N 2400 W, VERNAL, UT, 84078",606096011,"L"
719496,"545 NORTH CHERRY CREEK PARKWAY","RICHMOND","UT",84333,41.933991065,-111.804456618,496,"545 NORTH CHERRY CREEK PARKWAY, RICHMOND, UT, 84333","Match","Non_Exact","545 CHERRY CREEK PKWY, RICHMOND, UT, 84333",611294111,"R"
719497,"545 NORTH DEARBORN STREET UNIT 2501","CHICAGO","IL",60654,41.891880487,-87.629650004,497,"545 NORTH DEARBORN STREET UNIT 2501, CHICAGO, IL, 60654","Match","Exact","545 N DEARBORN ST, CHICAGO, IL, 60654",111768672,"R"
719498,"545 NORTH GARDEN PLAZA APT 280","POST FALLS","ID",83854,47.7140732410001,-116.91069338,498,"545 NORTH GARDEN PLAZA APT 280, POST FALLS, ID, 83854","Match","Non_Exact","545 N GARDEN PLAZA CT, POST FALLS, ID, 83854",617970646,"L"
719499,"545 NORTH GRANDVIEW AVENUE","MCKEESPORT","PA",15132,40.3514046270001,-79.837378143,499,"545 NORTH GRANDVIEW AVENUE, MCKEESPORT, PA, 15132","Match","Non_Exact","545 GRANDVIEW AVE, MCKEESPORT, PA, 15132",51816624,"L"
719500,"545 NORTH HARDING AVENUE","CHICAGO","IL",60625,41.890951096,-87.7247228479999,500,"545 NORTH HARDING AVENUE, CHICAGO, IL, 60625","Match","Non_Exact","545 N HARDING AVE, CHICAGO, IL, 60624",605083167,"R"
