"ID","Address","City","State","Zip","lat","long","id","input_address","match_indicator","match_type","matched_address","tiger_line_id","tiger_side"
763001,"610 MCKOWN DR","MANSFIELD","TX",76063,32.556584921,-97.128954643,1,"610 MCKOWN DR, MANSFIELD, TX, 76063","Match","Exact","610 MCKOWN DR, MANSFIELD, TX, 76063",101912600,"R"
763002,"610 MEADE STREET","DENVER","CO",80219,39.726175578,-105.036186778,2,"610 MEADE STREET, DENVER, CO, 80219","Match","Non_Exact","610 MEADE ST, DENVER, CO, 80204",177327248,"R"
763003,"610 MEADOWLARK ST","HAMILTON","TX",76531,31.6959075880001,-98.113228649,3,"610 MEADOWLARK ST, HAMILTON, TX, 76531","Match","Exact","610 MEADOWLARK ST, HAMILTON, TX, 76531",158762546,"R"
763004,"610 METROPOLIS ST","METROPOLIS","IL",62960,37.151429449,-88.729690111,4,"610 METROPOLIS ST, METROPOLIS, IL, 62960","Match","Exact","610 METROPOLIS ST, METROPOLIS, IL, 62960",5901456,"R"
763005,"610 MIAMI AVE","TERRACE PARK","OH",45174,39.160920119,-84.302276338,5,"610 MIAMI AVE, TERRACE PARK, OH, 45174","Match","Exact","610 MIAMI AVE, TERRACE PARK, OH, 45174",103940227,"R"
763006,"610 MICHAEL STIHL RD","MOUNTAIN VIEW","MO",65548,36.9884737790001,-91.691469274,6,"610 MICHAEL STIHL RD, MOUNTAIN VIEW, MO, 65548","Match","Exact","610 MICHAEL STIHL RD, MOUNTAIN VIEW, MO, 65548",33346088,"R"
763007,"610 MICHENER ST","WAKEFIELD","NE",68784,42.265190051,-96.869537583,7,"610 MICHENER ST, WAKEFIELD, NE, 68784","Match","Exact","610 MICHENER ST, WAKEFIELD, NE, 68784",178707904,"L"
763008,"610 MICHIGAN","ANITA","IA",50020,41.437535376,-94.7628651749999,8,"610 MICHIGAN, ANITA, IA, 50020","Match","Non_Exact","610 MICHIGAN AVE, ANITA, IA, 50020",61597200,"L"
763009,"610 MIGUEL AVENUE","SAN DIEGO","CA",92113,NA,NA,9,"610 MIGUEL AVENUE, SAN DIEGO, CA, 92113","No_Match",NA,NA,NA,NA
763010,"610 MILLSBEE LANE","ROSWELL","GA",30075,34.0704866830001,-84.3979892039999,10,"610 MILLSBEE LANE, ROSWELL, GA, 30075","Match","Exact","610 MILLSBEE LN, ROSWELL, GA, 30075",17386295,"R"
763011,"610 MIMOSA DR","ADAMSVILLE","AL",35005,33.593768079,-86.9234229039999,11,"610 MIMOSA DR, ADAMSVILLE, AL, 35005","Match","Exact","610 MIMOSA DR, ADAMSVILLE, AL, 35005",81665095,"L"
763012,"610 MINNIEFORD AVENUE","BRONX","NY",10464,40.855044788,-73.7901215639999,12,"610 MINNIEFORD AVENUE, BRONX, NY, 10464","Match","Exact","610 MINNIEFORD AVE, BRONX, NY, 10464",80307791,"R"
763013,"610 MISSION TERRACE","ANADARKO","OK",73005,35.063260599,-98.251673209,13,"610 MISSION TERRACE, ANADARKO, OK, 73005","Match","Exact","610 MISSION TER, ANADARKO, OK, 73005",92440377,"L"
763014,"610 MONROVIA","SHREVEPORT","LA",71106,32.4642301210001,-93.742222252,14,"610 MONROVIA, SHREVEPORT, LA, 71106","Match","Non_Exact","610 MONROVIA ST, SHREVEPORT, LA, 71106",57438252,"R"
763015,"610 MOONEY AVEUNUE","HAMMOND","LA",70403,30.495931684,-90.474201936,15,"610 MOONEY AVEUNUE, HAMMOND, LA, 70403","Match","Non_Exact","610 MOONEY AVE, HAMMOND, LA, 70403",75770036,"L"
763016,"610 MORNING DRIVE","ATLANTA","GA",30349,33.587897469,-84.479152493,16,"610 MORNING DRIVE, ATLANTA, GA, 30349","Match","Exact","610 MORNING DR, ATLANTA, GA, 30349",628082828,"R"
763017,"610 MOSS WAY","HAYWARD","CA",94541,37.6613619140001,-122.093554281,17,"610 MOSS WAY, HAYWARD, CA, 94541","Match","Exact","610 MOSS WAY, HAYWARD, CA, 94541",606195628,"L"
763018,"610 MULBERRY STREET","SELLERSBURG","IN",47172,38.406375278,-85.758056817,18,"610 MULBERRY STREET, SELLERSBURG, IN, 47172","Match","Exact","610 MULBERRY ST, SELLERSBURG, IN, 47172",64919599,"R"
763019,"610 MURRELL RD","DICKSON","TN",37055,36.031351769,-87.381933445,19,"610 MURRELL RD, DICKSON, TN, 37055","Match","Exact","610 MURRELL RD, DICKSON, TN, 37055",72756259,"R"
763020,"610 N 54TH ST","MUSKOGEE","OK",74401,NA,NA,20,"610 N 54TH ST, MUSKOGEE, OK, 74401","Tie",NA,NA,NA,NA
763021,"610 N ALSTON AVE","DURHAM","NC",27701,35.9906536060001,-78.886143046,21,"610 N ALSTON AVE, DURHAM, NC, 27701","Match","Exact","610 N ALSTON AVE, DURHAM, NC, 27701",71742808,"R"
763022,"610 N BRAGG AVENUE","LOOKOUT MOUNTAIN","TN",37350,35.003046485,-85.344969243,22,"610 N BRAGG AVENUE, LOOKOUT MOUNTAIN, TN, 37350","Match","Exact","610 N BRAGG AVE, LOOKOUT MOUNTAIN, TN, 37350",59311959,"L"
763023,"610 N BROADWAY","BLYTHE","CA",92225,33.6203002820001,-114.596989616,23,"610 N BROADWAY, BLYTHE, CA, 92225","Match","Exact","610 N BROADWAY, BLYTHE, CA, 92225",194682693,"R"
763024,"610 N COTTAGE DRIVE","LUVERNE","MN",56156,NA,NA,24,"610 N COTTAGE DRIVE, LUVERNE, MN, 56156","No_Match",NA,NA,NA,NA
763025,"610 N DAVIS","JEROME","ID",83338,42.7294646760001,-114.511797209,25,"610 N DAVIS, JEROME, ID, 83338","Match","Non_Exact","610 N DAVIS ST, JEROME, ID, 83338",105467932,"R"
763026,"610 N DIRKS STREET","BUHLER","KS",67522,38.1401761280001,-97.774275167,26,"610 N DIRKS STREET, BUHLER, KS, 67522","Match","Exact","610 N DIRKS ST, BUHLER, KS, 67522",142950641,"R"
763027,"610 N EAST ST--APT 101","INDIANAPOLIS","IN",46202,NA,NA,27,"610 N EAST ST--APT 101, INDIANAPOLIS, IN, 46202","No_Match",NA,NA,NA,NA
763028,"610 N FLAMINGO","SEABROOK","TX",77586,29.586068557,-94.999561864,28,"610 N FLAMINGO, SEABROOK, TX, 77586","Match","Non_Exact","610 N FLAMINGO DR, SEABROOK, TX, 77586",96117189,"L"
763029,"610 N GREEN STREET","MCHENRY","IL",60050,42.320258251,-88.26761385,29,"610 N GREEN STREET, MCHENRY, IL, 60050","Match","Exact","610 GREEN ST, MCHENRY, IL, 60050",614636387,"R"
763030,"610 N KEAGAN WAY","MERIDIAN","ID",83642,43.6104061300001,-116.42823919,30,"610 N KEAGAN WAY, MERIDIAN, ID, 83642","Match","Exact","610 N KEAGAN WAY, MERIDIAN, ID, 83642",647078499,"R"
763031,"610 N LOGAN STREET","MISHAWAKA","IN",46545,NA,NA,31,"610 N LOGAN STREET, MISHAWAKA, IN, 46545","No_Match",NA,NA,NA,NA
763032,"610 N MANTLE AVE","ELIZABETHTOWN","KY",42701,37.7087423790001,-85.858092164,32,"610 N MANTLE AVE, ELIZABETHTOWN, KY, 42701","Match","Exact","610 N MANTLE AVE, ELIZABETHTOWN, KY, 42701",34622142,"L"
763033,"610 N QUINCY ST","BROCKTON","MA",2302,42.1145327080001,-70.9993598569999,33,"610 N QUINCY ST, BROCKTON, MA, 2302","Match","Exact","610 N QUINCY ST, BROCKTON, MA, 02302",623573335,"L"
763034,"610 N STADIUM ROAD","OREGON","OH",43616,41.6645095850001,-83.4095990659999,34,"610 N STADIUM ROAD, OREGON, OH, 43616","Match","Exact","610 N STADIUM RD, OREGON, OH, 43616",633559535,"R"
763035,"610 N WILLSON AVE","BOZEMAN","MT",59715,45.685667806,-111.038711988,35,"610 N WILLSON AVE, BOZEMAN, MT, 59715","Match","Exact","610 N WILLSON AVE, BOZEMAN, MT, 59715",163497848,"R"
763036,"610 NE 11TH AVE","GRAND RAPIDS","MN",55744,47.2380738250001,-93.511476998,36,"610 NE 11TH AVE, GRAND RAPIDS, MN, 55744","Match","Exact","610 NE 11TH AVE, GRAND RAPIDS, MN, 55744",618278272,"L"
763037,"610 NE 181ST ST","MIAMI","FL",33162,25.9412198220001,-80.188286906,37,"610 NE 181ST ST, MIAMI, FL, 33162","Match","Non_Exact","610 NE 181ST ST, MIAMI, FL, 33162",116030855,"R"
763038,"610 NE 7TH STREET","MADISON","SD",57042,NA,NA,38,"610 NE 7TH STREET, MADISON, SD, 57042","Tie",NA,NA,NA,NA
763039,"610 NEBABISH AVE","BAY CITY","MI",48708,43.6037256380001,-83.861013056,39,"610 NEBABISH AVE, BAY CITY, MI, 48708","Match","Non_Exact","610 NEBOBISH AVE, BAY CITY, MI, 48708",81142677,"R"
763040,"610 NEW YORK BLVD","SEA GIRT","NJ",8750,40.135384286,-74.0413220029999,40,"610 NEW YORK BLVD, SEA GIRT, NJ, 8750","Match","Exact","610 NEW YORK BLVD, SEA GIRT, NJ, 08750",90467660,"L"
763041,"610 NEWARK STREET - APARTMENT 3C","HOBOKEN","NJ",7030,40.736555105,-74.041018715,41,"610 NEWARK STREET - APARTMENT 3C, HOBOKEN, NJ, 7030","Match","Exact","610 NEWARK ST, HOBOKEN, NJ, 07030",59616583,"R"
763042,"610 NEWPORT CENTER DR STE 700","NEWPORT BEACH","CA",92660,33.617559795,-117.872593699,42,"610 NEWPORT CENTER DR STE 700, NEWPORT BEACH, CA, 92660","Match","Exact","610 NEWPORT CENTER DR, NEWPORT BEACH, CA, 92660",609073147,"R"
763043,"610 NORTH BLACK HORSE PIKE","RUNNEMEDE","NJ",8078,NA,NA,43,"610 NORTH BLACK HORSE PIKE, RUNNEMEDE, NJ, 8078","No_Match",NA,NA,NA,NA
763044,"610 NORTH DAVIS","JEROME","ID",83338,42.7294646760001,-114.511797209,44,"610 NORTH DAVIS, JEROME, ID, 83338","Match","Non_Exact","610 N DAVIS ST, JEROME, ID, 83338",105467932,"R"
763045,"610 NORTH FOLEY AVENUE","NEW HAMPTON","IA",50659,43.065324779,-92.311193735,45,"610 NORTH FOLEY AVENUE, NEW HAMPTON, IA, 50659","Match","Exact","610 N FOLEY AVE, NEW HAMPTON, IA, 50659",9740451,"R"
763046,"610 NORTH FRANKLIN","MARSHALL","MO",65340,NA,NA,46,"610 NORTH FRANKLIN, MARSHALL, MO, 65340","No_Match",NA,NA,NA,NA
763047,"610 NORTH GORDON STREET","MARSHALL","MI",49068,42.27851057,-84.9520085199999,47,"610 NORTH GORDON STREET, MARSHALL, MI, 49068","Match","Exact","610 N GORDON ST, MARSHALL, MI, 49068",11705485,"R"
763048,"610 NORTH MAIN STREET","BUTLER","PA",16001,40.869893791,-79.8949911839999,48,"610 NORTH MAIN STREET, BUTLER, PA, 16001","Match","Exact","610 N MAIN ST, BUTLER, PA, 16001",607357335,"L"
763049,"610 NORTH OAK","PAULS VALLEY","OK",73075,34.7401175150001,-97.227674066,49,"610 NORTH OAK, PAULS VALLEY, OK, 73075","Match","Non_Exact","610 N OAK ST, PAULS VALLEY, OK, 73075",15143167,"R"
763050,"610 NORTH OKLAHOMA AVENUE","BROWNSVILLE","TX",78521,25.9234223190001,-97.381638601,50,"610 NORTH OKLAHOMA AVENUE, BROWNSVILLE, TX, 78521","Match","Exact","610 N OKLAHOMA AVE, BROWNSVILLE, TX, 78521",90016858,"L"
763051,"610 NORTH PALM AVE","BRAWLEY","CA",92227,32.9850581950001,-115.522025322,51,"610 NORTH PALM AVE, BRAWLEY, CA, 92227","Match","Exact","610 N PALM AVE, BRAWLEY, CA, 92227",194487966,"R"
763052,"610 NORTH PIERCE STREET","DELPHOS","OH",45833,40.8483670110001,-84.335827452,52,"610 NORTH PIERCE STREET, DELPHOS, OH, 45833","Match","Exact","610 N PIERCE ST, DELPHOS, OH, 45833",209553686,"R"
763053,"610 NORTHWOOD DRIVE","ASHFORD","AL",36376,31.192786079,-85.2364665429999,53,"610 NORTHWOOD DRIVE, ASHFORD, AL, 36376","Match","Non_Exact","610 NORTHWOOD DR, ASHFORD, AL, 36312",638954500,"L"
763054,"610 NOTTINGHAM AVE","HENDERSONVILLE","TN",37058,NA,NA,54,"610 NOTTINGHAM AVE, HENDERSONVILLE, TN, 37058","No_Match",NA,NA,NA,NA
763055,"610 NW 103RD AVE","PLANTATION","FL",33324,26.128863014,-80.288499616,55,"610 NW 103RD AVE, PLANTATION, FL, 33324","Match","Exact","610 NW 103RD AVE, PLANTATION, FL, 33324",114698327,"L"
763056,"610 NW 176TH CT","BEAVERTON","OR",97006,45.524747828,-122.8587797,56,"610 NW 176TH CT, BEAVERTON, OR, 97006","Match","Exact","610 NW 176TH CT, BEAVERTON, OR, 97006",158215757,"L"
763057,"610 NW 19TH AVENUE","OCALA","FL",34475,29.192410452,-82.156360781,57,"610 NW 19TH AVENUE, OCALA, FL, 34475","Match","Exact","610 NW 19TH AVE, OCALA, FL, 34475",116724519,"L"
763058,"610 NW 38TH AVENUE","LAUDERHILL","FL",33311,26.1280992860001,-80.198664117,58,"610 NW 38TH AVENUE, LAUDERHILL, FL, 33311","Match","Exact","610 NW 38TH AVE, LAUDERHILL, FL, 33311",114709655,"R"
763059,"610 NW LINCOLN STREET","WHITE SALMON","WA",98672,45.7317122860001,-121.498406097,59,"610 NW LINCOLN STREET, WHITE SALMON, WA, 98672","Match","Exact","610 NW LINCOLN ST, WHITE SALMON, WA, 98672",608008527,"R"
763060,"610 NW SHORTHORN DR","GRAIN VALLEY","MO",64029,39.0011048480001,-94.2137153419999,60,"610 NW SHORTHORN DR, GRAIN VALLEY, MO, 64029","Match","Exact","610 SHORTHORN DR, GRAIN VALLEY, MO, 64029",647946345,"L"
763061,"610 OACREST","NORTH AURORA","IL",60542,NA,NA,61,"610 OACREST, NORTH AURORA, IL, 60542","No_Match",NA,NA,NA,NA
763062,"610 OAK BRANCH RD","LOUISVILLE","KY",40245,38.248960031,-85.489445995,62,"610 OAK BRANCH RD, LOUISVILLE, KY, 40245","Match","Exact","610 OAK BRANCH RD, LOUISVILLE, KY, 40245",96877506,"L"
763063,"610 OAK BRIAR DR","KEMAH","TX",77565,29.53348458,-95.023466323,63,"610 OAK BRIAR DR, KEMAH, TX, 77565","Match","Exact","610 OAK BRIAR DR, KEMAH, TX, 77565",96711116,"L"
763064,"610 OAK RD WESTVIEW","SEAFORD","DE",19973,38.642949107,-75.635699426,64,"610 OAK RD WESTVIEW, SEAFORD, DE, 19973","Match","Exact","610 OAK RD, SEAFORD, DE, 19973",106082987,"L"
763065,"610 OAK ROAD","CINCINNATI","OH",45246,39.260604744,-84.442495489,65,"610 OAK ROAD, CINCINNATI, OH, 45246","Match","Exact","610 OAK RD, CINCINNATI, OH, 45246",650305222,"L"
763066,"610 OAK TERRACE","POINT PLEASANT","NJ",8742,40.083628934,-74.0858227479999,66,"610 OAK TERRACE, POINT PLEASANT, NJ, 8742","Match","Exact","610 OAK TER, PT PLEASANT, NJ, 08742",203733819,"R"
763067,"610 OAKCREST","NORTH AURORA","IL",60542,41.823822035,-88.307743707,67,"610 OAKCREST, NORTH AURORA, IL, 60542","Match","Non_Exact","610 OAK CREST DR, NORTH AURORA, IL, 60542",642921695,"R"
763068,"610 OAKFIELD DR","BRANDON","FL",33511,27.9341998360001,-82.29238599,68,"610 OAKFIELD DR, BRANDON, FL, 33511","Match","Exact","610 OAKFIELD DR, BRANDON, FL, 33511",104577076,"L"
763069,"610 OAKLAND AVENUE","IOWA CITY","IA",52240,41.6546451620001,-91.516552912,69,"610 OAKLAND AVENUE, IOWA CITY, IA, 52240","Match","Exact","610 OAKLAND AVE, IOWA CITY, IA, 52240",84496011,"L"
763070,"610 OAKLAND DR","ABERDEEN","MS",39730,33.8338666340001,-88.58142966,70,"610 OAKLAND DR, ABERDEEN, MS, 39730","Match","Exact","610 OAKLAND DR, ABERDEEN, MS, 39730",120071816,"R"
763071,"610 OAKWOOD TERR","MOUNT JULIET","TN",37122,36.2772828700001,-86.53710632,71,"610 OAKWOOD TERR, MOUNT JULIET, TN, 37122","Match","Exact","610 OAKWOOD TER, MOUNT JULIET, TN, 37122",89694351,"R"
763072,"610 OGLETHORPE AVENUE","ATHENS","GA",30606,33.9624992770001,-83.409404249,72,"610 OGLETHORPE AVENUE, ATHENS, GA, 30606","Match","Exact","610 OGLETHORPE AVE, ATHENS, GA, 30606",4801260,"R"
763073,"610 OLD BOERNE ROAD","BULVERDE","TX",78163,29.7933679130001,-98.4269092659999,73,"610 OLD BOERNE ROAD, BULVERDE, TX, 78163","Match","Exact","610 OLD BOERNE RD, BULVERDE, TX, 78163",72261225,"L"
763074,"610 OLD DOMINION RD","YORKTOWN","VA",23692,37.1875971750001,-76.502244387,74,"610 OLD DOMINION RD, YORKTOWN, VA, 23692","Match","Exact","610 OLD DOMINION RD, YORKTOWN, VA, 23692",103791067,"L"
763075,"610 OLD HIGHWAY 17","CRESCENT CITY","FL",32112,29.4589489520001,-81.5194674269999,75,"610 OLD HIGHWAY 17, CRESCENT CITY, FL, 32112","Match","Non_Exact","610 OLD US HWY 17, CRESCENT CITY, FL, 32112",624693078,"L"
763076,"610 OLD PELZER RD","PIEDMONT","SC",29673,34.722127313,-82.44438436,76,"610 OLD PELZER RD, PIEDMONT, SC, 29673","Match","Exact","610 OLD PELZER RD, PIEDMONT, SC, 29673",38304466,"L"
763077,"610 OLD SCOTLAND TOWNS RD","MCRAE","GA",31055,32.010832485,-82.7816115049999,77,"610 OLD SCOTLAND TOWNS RD, MCRAE, GA, 31055","Match","Non_Exact","610 OLD SCOTLAND TOWNS RD, MC RAE, GA, 31055",9473007,"L"
763078,"610 OPPERMAN DRIVE","EAGAN","MN",55123,44.8279469060001,-93.113560848,78,"610 OPPERMAN DRIVE, EAGAN, MN, 55123","Match","Exact","610 OPPERMAN DR, EAGAN, MN, 55123",37941603,"L"
763079,"610 OREGON TRAIL","MONROE","LA",71202,32.4892602630001,-92.074086329,79,"610 OREGON TRAIL, MONROE, LA, 71202","Match","Exact","610 OREGON TRL, MONROE, LA, 71202",161104292,"R"
763080,"610 OREGON","NEW PLYMOUTH","ID",83655,43.963152612,-116.818824996,80,"610 OREGON, NEW PLYMOUTH, ID, 83655","Match","Non_Exact","610 OREGON AVE, NEW PLYMOUTH, ID, 83655",644385713,"L"
763081,"610 ORRVILLE STREET NW","MASSILLON","OH",44647,40.814522545,-81.5332577089999,81,"610 ORRVILLE STREET NW, MASSILLON, OH, 44647","Match","Exact","610 ORRVILLE ST NW, MASSILLON, OH, 44647",64668400,"R"
763082,"610 PACIFIC AVE","NEW ORLEANS","LA",70114,29.949443337,-90.0460778509999,82,"610 PACIFIC AVE, NEW ORLEANS, LA, 70114","Match","Exact","610 PACIFIC AVE, NEW ORLEANS, LA, 70114",191718890,"L"
763083,"610 PANTHER DRIVE","DIXON","IL",61021,41.862075523,-89.511847388,83,"610 PANTHER DRIVE, DIXON, IL, 61021","Match","Exact","610 PANTHER DR, DIXON, IL, 61021",651058678,"L"
763084,"610 PARK AVE","NEW CUMBERLAND","PA",17070,40.226296328,-76.8812171989999,84,"610 PARK AVE, NEW CUMBERLAND, PA, 17070","Match","Exact","610 PARK AVE, NEW CUMBERLAND, PA, 17070",60945415,"L"
763085,"610 PARK AVENUE","AUBURN","ME",4210,44.1142123970001,-70.25052204,85,"610 PARK AVENUE, AUBURN, ME, 4210","Match","Exact","610 PARK AVE, AUBURN, ME, 04210",77967997,"L"
763086,"610 PARK DRIVE","KERENS","TX",75144,32.1131413430001,-96.2132215729999,86,"610 PARK DRIVE, KERENS, TX, 75144","Match","Exact","610 PARK DR, KERENS, TX, 75144",183905203,"R"
763087,"610 PARK ST","LEBANON","OR",97355,44.539846491,-122.905637999,87,"610 PARK ST, LEBANON, OR, 97355","Match","Exact","610 PARK ST, LEBANON, OR, 97355",156062363,"L"
763088,"610 PARK STREET","WAUPUN","WI",53963,43.6358186570001,-88.7243696259999,88,"610 PARK STREET, WAUPUN, WI, 53963","Match","Exact","610 PARK ST, WAUPUN, WI, 53963",74817925,"R"
763089,"610 PARKER SQUARE","FLOWER MOUND","TX",75028,NA,NA,89,"610 PARKER SQUARE, FLOWER MOUND, TX, 75028","No_Match",NA,NA,NA,NA
763090,"610 PEBBLE BLVD","COVINGTON","GA",30016,33.5845674170001,-83.9591320649999,90,"610 PEBBLE BLVD, COVINGTON, GA, 30016","Match","Exact","610 PEBBLE BLVD, COVINGTON, GA, 30016",23638378,"R"
763091,"610 PEBBLESTONE DRIVE","DURHAM","NC",27703,36.007550845,-78.8103517769999,91,"610 PEBBLESTONE DRIVE, DURHAM, NC, 27703","Match","Exact","610 PEBBLESTONE DR, DURHAM, NC, 27703",614673727,"L"
763092,"610 PHEASANT WOODS DR","CANTON","MI",48188,42.304996981,-83.4537182719999,92,"610 PHEASANT WOODS DR, CANTON, MI, 48188","Match","Exact","610 PHEASANT WOODS DR, CANTON, MI, 48188",95695954,"L"
763093,"610 PHILIP AVENUE","AKRON","OH",44305,41.081523255,-81.4966373779999,93,"610 PHILIP AVENUE, AKRON, OH, 44305","Match","Exact","610 PHILIP AVE, AKRON, OH, 44305",61350217,"R"
763094,"610 PINE HILL ROAD","ELIZABETHTON","TN",37643,36.337637386,-82.241628681,94,"610 PINE HILL ROAD, ELIZABETHTON, TN, 37643","Match","Exact","610 PINE HILL RD, ELIZABETHTON, TN, 37643",43049121,"R"
763095,"610 PINE ST","KULPMONT","PA",17834,40.7962818250001,-76.467470125,95,"610 PINE ST, KULPMONT, PA, 17834","Match","Exact","610 PINE ST, KULPMONT, PA, 17834",48063509,"L"
763096,"610 PINEHURST","HARLINGEN","TX",78552,26.19930965,-97.7612463949999,96,"610 PINEHURST, HARLINGEN, TX, 78552","Match","Non_Exact","610 PINEHURST DR, HARLINGEN, TX, 78552",89975280,"R"
763097,"610 PLYMOUTH MINE RD","WAKEFIELD","MI",49968,46.472028714,-89.980429139,97,"610 PLYMOUTH MINE RD, WAKEFIELD, MI, 49968","Match","Exact","610 PLYMOUTH MINE RD, WAKEFIELD, MI, 49968",646890234,"L"
763098,"610 POIA ROAD","SEWICKLEY","PA",15143,40.55377299,-80.1892618109999,98,"610 POIA ROAD, SEWICKLEY, PA, 15143","Match","Exact","610 POIA RD, SEWICKLEY, PA, 15143",51604296,"R"
763099,"610 POINSETTIA STREET","ST AUGUSTINE","FL",32080,29.8430018390001,-81.274903863,99,"610 POINSETTIA STREET, ST AUGUSTINE, FL, 32080","Match","Exact","610 POINSETTIA ST, SAINT AUGUSTINE, FL, 32080",92585861,"L"
763100,"610 PRESTON DR APT 106","BOLINGBROOK","IL",60440,41.717468162,-88.046095252,100,"610 PRESTON DR APT 106, BOLINGBROOK, IL, 60440","Match","Exact","610 PRESTON DR, BOLINGBROOK, IL, 60440",649378941,"R"
763101,"610 PRINCE ST","LITTLESTOWN","PA",17340,39.75247031,-77.094068186,101,"610 PRINCE ST, LITTLESTOWN, PA, 17340","Match","Exact","610 PRINCE ST, LITTLESTOWN, PA, 17340",60873066,"L"
763102,"610 PROSPECT AVENUE","LIMA","OH",45804,40.732367335,-84.0926934679999,102,"610 PROSPECT AVENUE, LIMA, OH, 45804","Match","Exact","610 PROSPECT AVE, LIMA, OH, 45804",209547357,"R"
763103,"610 PROSPECT LAKE DR","COLORADO SPRINGS","CO",80910,38.824870063,-104.801851132,103,"610 PROSPECT LAKE DR, COLORADO SPRINGS, CO, 80910","Match","Exact","610 PROSPECT LAKE DR, COLORADO SPRINGS, CO, 80910",105517044,"R"
763104,"610 PURDUE MALL SUITE 216","WEST LAFAYETTE","IN",47907,NA,NA,104,"610 PURDUE MALL SUITE 216, WEST LAFAYETTE, IN, 47907","No_Match",NA,NA,NA,NA
763105,"610 PURDUE MALL","WEST LAFAYETTE","IN",47907,NA,NA,105,"610 PURDUE MALL, WEST LAFAYETTE, IN, 47907","No_Match",NA,NA,NA,NA
763106,"610 QUAIL CIRCLE","HARRISBURG","SD",57032,43.425951463,-96.693999155,106,"610 QUAIL CIRCLE, HARRISBURG, SD, 57032","Match","Exact","610 QUAIL CIR, HARRISBURG, SD, 57032",176320981,"L"
763107,"610 RANGE LANE","CAHOKIA","IL",62206,38.564993977,-90.168588013,107,"610 RANGE LANE, CAHOKIA, IL, 62206","Match","Exact","610 RANGE LN, CAHOKIA, IL, 62206",107850932,"R"
763108,"610 RED OAK LANE","HINESVILLE","GA",31313,31.8346135420001,-81.573841153,108,"610 RED OAK LANE, HINESVILLE, GA, 31313","Match","Exact","610 RED OAK LN, HINESVILLE, GA, 31313",619384069,"R"
763109,"610 REDGATE AVE APT 3","NORFOLK","VA",23507,36.8621772910001,-76.29731541,109,"610 REDGATE AVE APT 3, NORFOLK, VA, 23507","Match","Exact","610 REDGATE AVE, NORFOLK, VA, 23507",122127122,"R"
763110,"610 REGENT PLACE NE","WASHINGTON","DC",20017,NA,NA,110,"610 REGENT PLACE NE, WASHINGTON, DC, 20017","No_Match",NA,NA,NA,NA
763111,"610 REGENT STREET NO 210","INGLEWOOD","CA",90028,NA,NA,111,"610 REGENT STREET NO 210, INGLEWOOD, CA, 90028","No_Match",NA,NA,NA,NA
763112,"610 RENAISSANCE BLVD","OAKBROOK TERRACE","IL",60181,41.848623097,-87.982449118,112,"610 RENAISSANCE BLVD, OAKBROOK TERRACE, IL, 60181","Match","Exact","610 RENAISSANCE BLVD, OAKBROOK TER, IL, 60181",112703739,"L"
763113,"610 RENO STREET","ROGERSVILLE","TN",37857,36.4139791490001,-83.0033787849999,113,"610 RENO STREET, ROGERSVILLE, TN, 37857","Match","Exact","610 RENO ST, ROGERSVILLE, TN, 37857",42412024,"R"
763114,"610 RENTON AVE S","RENTON","WA",98057,47.475396276,-122.200470817,114,"610 RENTON AVE S, RENTON, WA, 98057","Match","Exact","610 RENTON AVE S, RENTON, WA, 98057",186632085,"L"
763115,"610 REYNOLDS","SWINK","CO",81077,38.011773712,-103.631257165,115,"610 REYNOLDS, SWINK, CO, 81077","Match","Non_Exact","610 REYNOLDS AVE, SWINK, CO, 81077",112919363,"R"
763116,"610 RIMMON ST","MANCHESTER","NH",3102,42.9966190170001,-71.478828057,116,"610 RIMMON ST, MANCHESTER, NH, 3102","Match","Exact","610 RIMMON ST, MANCHESTER, NH, 03102",113529699,"L"
763117,"610 ROBERTA AVENUE","DOVER","DE",19901,39.1540326640001,-75.498069699,117,"610 ROBERTA AVENUE, DOVER, DE, 19901","Match","Exact","610 ROBERTA AVE, DOVER, DE, 19901",68099077,"L"
763118,"610 ROCHDALE CIRCLE","LOMBARD","IL",60148,41.856571753,-88.00124152,118,"610 ROCHDALE CIRCLE, LOMBARD, IL, 60148","Match","Exact","610 ROCHDALE CIR, LOMBARD, IL, 60148",112580207,"L"
763119,"610 ROCK RIVER AVE","WAUPUN","WI",53963,43.6348579040001,-88.7455639189999,119,"610 ROCK RIVER AVE, WAUPUN, WI, 53963","Match","Exact","610 ROCK RIVER AVE, WAUPUN, WI, 53963",74817947,"L"
763120,"610 ROLLINGWOOD LANE","NASHVILLE","TN",37217,36.0914247640001,-86.646243329,120,"610 ROLLINGWOOD LANE, NASHVILLE, TN, 37217","Match","Exact","610 ROLLINGWOOD LN, NASHVILLE, TN, 37217",97222502,"R"
763121,"610 ROUNDSTONE","WELDON SPRINGS","MO",63304,38.7160692250001,-90.620243016,121,"610 ROUNDSTONE, WELDON SPRINGS, MO, 63304","Match","Non_Exact","610 ROUNDSTONE DR, WELDON SPRING, MO, 63304",100088899,"L"
763122,"610 ROYAL EMPRESS DRIVE","RUSKIN","FL",33570,27.725430847,-82.426448582,122,"610 ROYAL EMPRESS DRIVE, RUSKIN, FL, 33570","Match","Exact","610 ROYAL EMPRESS DR, RUSKIN, FL, 33570",648425693,"L"
763123,"610 ROYAL EMPRESS DRIVE","RUSKIN","FM",33570,NA,NA,123,"610 ROYAL EMPRESS DRIVE, RUSKIN, FM, 33570","No_Match",NA,NA,NA,NA
763124,"610 RUE MARSEILLE","CHESAPEAKE","VA",23220,36.750182185,-76.268942495,124,"610 RUE MARSEILLE, CHESAPEAKE, VA, 23220","Match","Non_Exact","610 RUE MARSEILLE, CHESAPEAKE, VA, 23320",121785080,"L"
763125,"610 RUSSEFF FIELD COURT","ROSENBERG","TX",77469,29.5265266100001,-95.7197211179999,125,"610 RUSSEFF FIELD COURT, ROSENBERG, TX, 77469","Match","Exact","610 RUSSEFF FIELD CT, ROSENBERG, TX, 77469",616469108,"R"
763126,"610 RUTLAND STREET","CARLISLE","MA",1741,42.5543835170001,-71.325718636,126,"610 RUTLAND STREET, CARLISLE, MA, 1741","Match","Exact","610 RUTLAND ST, CARLISLE, MA, 01741",87118705,"R"
763127,"610 S 26TH ST","ESCANABA","MI",49829,45.7389605920001,-87.08491995,127,"610 S 26TH ST, ESCANABA, MI, 49829","Match","Non_Exact","610 26TH ST S, ESCANABA, MI, 49829",181963100,"R"
763128,"610 S 5TH","PONCA CITY","OK",74601,NA,NA,128,"610 S 5TH, PONCA CITY, OK, 74601","No_Match",NA,NA,NA,NA
763129,"610 S 8TH STREET","WILMINGTON","NC",28401,34.22803127,-77.938414837,129,"610 S 8TH STREET, WILMINGTON, NC, 28401","Match","Exact","610 S 8TH ST, WILMINGTON, NC, 28401",152742321,"R"
763130,"610 S ADELAIDE ST","FENTON","MI",48430,42.792284081,-83.706756588,130,"610 S ADELAIDE ST, FENTON, MI, 48430","Match","Exact","610 S ADELAIDE ST, FENTON, MI, 48430",69580133,"L"
763131,"610 S AVON COURT","OSWEGO","IL",60543,41.7121454050001,-88.3167014329999,131,"610 S AVON COURT, OSWEGO, IL, 60543","Match","Exact","610 S AVON CT, OSWEGO, IL, 60543",54496924,"R"
763132,"610 S BOONE STREET","ABERDEEN","WA",98520,46.9643001590001,-123.802387898,132,"610 S BOONE STREET, ABERDEEN, WA, 98520","Match","Exact","610 S BOONE ST, ABERDEEN, WA, 98520",180582601,"R"
763133,"610 S BOULEVARD","TAMPA","FL",33606,NA,NA,133,"610 S BOULEVARD, TAMPA, FL, 33606","No_Match",NA,NA,NA,NA
763134,"610 S CAROLINA ST","SAGINAW","MI",48602,43.4214705110001,-83.9796499839999,134,"610 S CAROLINA ST, SAGINAW, MI, 48602","Match","Exact","610 SOUTH CAROLINA ST, SAGINAW, MI, 48602",80209664,"L"
763135,"610 S CLYMAR AVE","COMPTON","CA",90220,33.8895725690001,-118.258267692,135,"610 S CLYMAR AVE, COMPTON, CA, 90220","Match","Exact","610 S CLYMAR AVE, COMPTON, CA, 90220",141680145,"L"
763136,"610 S ELM","ARROYO GRANDE","CA",93420,35.107972977,-120.600547841,136,"610 S ELM, ARROYO GRANDE, CA, 93420","Match","Non_Exact","610 S ELM ST, ARROYO GRANDE, CA, 93420",645354211,"R"
763137,"610 S ELMER AVENUE","SAYRE","PA",18840,41.9748617290001,-76.5182350599999,137,"610 S ELMER AVENUE, SAYRE, PA, 18840","Match","Exact","610 S ELMER AVE, SAYRE, PA, 18840",176982683,"L"
763138,"610 S EMERSON STREET","CHANDLER","AZ",85225,33.2960992500001,-111.858154312,138,"610 S EMERSON STREET, CHANDLER, AZ, 85225","Match","Exact","610 S EMERSON ST, CHANDLER, AZ, 85225",244001424,"L"
763139,"610 S FOX TROT COURT","HUNTINGBURG","IN",47542,NA,NA,139,"610 S FOX TROT COURT, HUNTINGBURG, IN, 47542","Tie",NA,NA,NA,NA
763140,"610 S HAWTHORNE AVE","EMMETT","ID",83617,43.8702157800001,-116.494265497,140,"610 S HAWTHORNE AVE, EMMETT, ID, 83617","Match","Exact","610 S HAWTHORNE AVE, EMMETT, ID, 83617",122886892,"L"
763141,"610 S HEALD STREET","WILMINGTON","DE",19801,39.72763689,-75.544952974,141,"610 S HEALD STREET, WILMINGTON, DE, 19801","Match","Exact","610 S HEALD ST, WILMINGTON, DE, 19801",187270317,"L"
763142,"610 S HICKORY CT","ENGLISH","IN",47118,38.3460408010001,-86.4414478529999,142,"610 S HICKORY CT, ENGLISH, IN, 47118","Match","Exact","610 S HICKORY CT, ENGLISH, IN, 47118",7823706,"R"
763143,"610 S JENNINGS AVE","FORT WORTH","TX",76104,32.738027962,-97.329971856,143,"610 S JENNINGS AVE, FORT WORTH, TX, 76104","Match","Exact","610 S JENNINGS AVE, FORT WORTH, TX, 76104",101889707,"R"
763144,"610 S KASPAR AV","ARLINGTON HEIGHTS","IL",60005,42.0733472970001,-87.993971591,144,"610 S KASPAR AV, ARLINGTON HEIGHTS, IL, 60005","Match","Exact","610 S KASPAR AVE, ARLINGTON HEIGHTS, IL, 60005",111715747,"R"
763145,"610 S LEE ST","HAMBURG","AR",71646,33.217958008,-91.793562638,145,"610 S LEE ST, HAMBURG, AR, 71646","Match","Exact","610 LEE ST, HAMBURG, AR, 71646",31447731,"R"
763146,"610 S MAIN ST","BIG SPRING","TX",79720,32.2494131380001,-101.475115809,146,"610 S MAIN ST, BIG SPRING, TX, 79720","Match","Exact","610 S MAIN ST, BIG SPRING, TX, 79720",182877324,"L"
763147,"610 S MAIN STREET APT 610","LOS ANGELES","CA",90014,34.0450472960001,-118.250156796,147,"610 S MAIN STREET APT 610, LOS ANGELES, CA, 90014","Match","Non_Exact","610 S MAIN ST, LOS ANGELES, CA, 90014",141619351,"L"
763148,"610 S MAIN STREET UNIT 735","LOS ANGELES","CA",90014,34.0450472960001,-118.250156796,148,"610 S MAIN STREET UNIT 735, LOS ANGELES, CA, 90014","Match","Non_Exact","610 S MAIN ST, LOS ANGELES, CA, 90014",141619351,"L"
763149,"610 S MAIN STREET","ROXBORO","NC",27573,36.385983346,-78.986658854,149,"610 S MAIN STREET, ROXBORO, NC, 27573","Match","Exact","610 S MAIN ST, ROXBORO, NC, 27573",77211261,"R"
763150,"610 S MIRICK","DENISON","TX",75020,33.7505284420001,-96.543296867,150,"610 S MIRICK, DENISON, TX, 75020","Match","Non_Exact","610 S MIRICK AVE, DENISON, TX, 75020",63357596,"L"
763151,"610 S PARK ROAD UNIT 1-11","HOLLYWOOD","FL",33021,NA,NA,151,"610 S PARK ROAD UNIT 1-11, HOLLYWOOD, FL, 33021","Tie",NA,NA,NA,NA
763152,"610 S PICKNEY ST","ELK POINT","SD",57025,NA,NA,152,"610 S PICKNEY ST, ELK POINT, SD, 57025","No_Match",NA,NA,NA,NA
763153,"610 S PINCKNEY ST","ELK POINT","SD",57025,42.679934727,-96.683429444,153,"610 S PINCKNEY ST, ELK POINT, SD, 57025","Match","Exact","610 PINCKNEY ST, ELK POINT, SD, 57025",176353506,"L"
763154,"610 S SUNSET CANYON DR","BURBANK","CA",91501,34.1887585430001,-118.291331676,154,"610 S SUNSET CANYON DR, BURBANK, CA, 91501","Match","Exact","610 S SUNSET CANYON DR, BURBANK, CA, 91501",141596002,"L"
763155,"610 S WATER STREET","SILVERTON","OR",97381,45.001288157,-122.779602754,155,"610 S WATER STREET, SILVERTON, OR, 97381","Match","Exact","610 S WATER ST, SILVERTON, OR, 97381",156243449,"L"
763156,"610 S WILLOWBROOK","PARIS","TN",38242,36.293867226,-88.299001757,156,"610 S WILLOWBROOK, PARIS, TN, 38242","Match","Non_Exact","610 WILLOWBROOK DR, PARIS, TN, 38242",19679931,"R"
763157,"610 SADDLERIDGE AVE","DURHAM","NC",27704,36.069086595,-78.898242983,157,"610 SADDLERIDGE AVE, DURHAM, NC, 27704","Match","Non_Exact","610 SADDLE RIDGE AVE, DURHAM, NC, 27704",71736024,"R"
763158,"610 SAINT NICHOLAS AVENUE APT 3B","NEW YORK","NY",10030,40.820890977,-73.946244023,158,"610 SAINT NICHOLAS AVENUE APT 3B, NEW YORK, NY, 10030","Match","Exact","610 ST NICHOLAS AVE, NEW YORK, NY, 10030",59655991,"R"
763159,"610 SAN CARLOS CIR","EDINBURG","TX",78542,NA,NA,159,"610 SAN CARLOS CIR, EDINBURG, TX, 78542","No_Match",NA,NA,NA,NA
763160,"610 SANTA MONICA BLVD SUITE 207","SANTA MONICA","CA",93532,34.018015458,-118.493149733,160,"610 SANTA MONICA BLVD SUITE 207, SANTA MONICA, CA, 93532","Match","Non_Exact","610 SANTA MONICA BLVD, SANTA MONICA, CA, 90401",142715933,"R"
763161,"610 SANTANNA DR APT 201","HARRISBURG","PA",17109,40.2871395540001,-76.821793666,161,"610 SANTANNA DR APT 201, HARRISBURG, PA, 17109","Match","Exact","610 SANTANNA DR, HARRISBURG, PA, 17109",70846158,"L"
763162,"610 SARAH CT","CRANBERRY TWP","PA",16066,40.686251493,-80.1178065509999,162,"610 SARAH CT, CRANBERRY TWP, PA, 16066","Match","Exact","610 SARAH CT, CRANBERRY TOWNSHIP, PA, 16066",52682379,"L"
763163,"610 SARAH CT","CRANBERRY TWP.","PA",16066,40.686251493,-80.1178065509999,163,"610 SARAH CT, CRANBERRY TWP., PA, 16066","Match","Exact","610 SARAH CT, CRANBERRY TOWNSHIP, PA, 16066",52682379,"L"
763164,"610 SAWMILL ROAD","TELLICO PLAINS","TN",37385,35.3802414400001,-84.3276650449999,164,"610 SAWMILL ROAD, TELLICO PLAINS, TN, 37385","Match","Exact","610 SAWMILL RD, TELLICO PLAINS, TN, 37385",633583637,"L"
763165,"610 SCHELTER ROAD","LINCOLNSHIRE","IL",60069,42.186919238,-87.940832389,165,"610 SCHELTER ROAD, LINCOLNSHIRE, IL, 60069","Match","Exact","610 SCHELTER RD, LINCOLNSHIRE, IL, 60069",119695098,"R"
763166,"610 SCOOTER WAY","STOCKTON","CA",95209,38.0533852570001,-121.320429755,166,"610 SCOOTER WAY, STOCKTON, CA, 95209","Match","Exact","610 SCOOTER WAY, STOCKTON, CA, 95209",630318769,"L"
763167,"610 SE 13TH STREET APT 101","DANIA BEACH","FL",33004,26.036094673,-80.13194605,167,"610 SE 13TH STREET APT 101, DANIA BEACH, FL, 33004","Match","Non_Exact","610 SE 13TH ST, DANIA BEACH, FL, 33004",114766112,"R"
763168,"610 SE 6TH AVENUE","WILLISTON","FL",32696,NA,NA,168,"610 SE 6TH AVENUE, WILLISTON, FL, 32696","No_Match",NA,NA,NA,NA
763169,"610 SE CLEAR E CHAVEZ BLVD APT 4","PORTLAND","OR",97214,NA,NA,169,"610 SE CLEAR E CHAVEZ BLVD APT 4, PORTLAND, OR, 97214","No_Match",NA,NA,NA,NA
763170,"610 SE RIVERSIDE DR","EVANSVILLE","IN",47713,37.964174911,-87.571315592,170,"610 SE RIVERSIDE DR, EVANSVILLE, IN, 47713","Match","Exact","610 SE RIVERSIDE DR, EVANSVILLE, IN, 47713",39783176,"L"
763171,"610 SEWALL AVE APT 9J","ASBURY PARK","NJ",7712,40.2190664780001,-74.0095481659999,171,"610 SEWALL AVE APT 9J, ASBURY PARK, NJ, 7712","Match","Exact","610 SEWALL AVE, ASBURY PARK, NJ, 07712",90463511,"L"
763172,"610 SHARPE","VERMILLION","SD",57069,42.773531416,-96.9140377319999,172,"610 SHARPE, VERMILLION, SD, 57069","Match","Non_Exact","610 SHARPE ST, VERMILLION, SD, 57069",172949866,"R"
763173,"610 SHAY DRIVE","MARIETTA","GA",30060,33.8849632000001,-84.5659719,173,"610 SHAY DRIVE, MARIETTA, GA, 30060","Match","Exact","610 SHAY DR, MARIETTA, GA, 30060",17212436,"R"
763174,"610 SHEPARD SCHOOL ROAD","ZEBULON","NC",27597,35.828053719,-78.3132749599999,174,"610 SHEPARD SCHOOL ROAD, ZEBULON, NC, 27597","Match","Exact","610 SHEPARD SCHOOL RD, ZEBULON, NC, 27597",636584992,"R"
763175,"610 SHERMAN STREET","MAUSTON","WI",53948,43.8035254330001,-90.0647857439999,175,"610 SHERMAN STREET, MAUSTON, WI, 53948","Match","Exact","610 SHERMAN ST, MAUSTON, WI, 53948",50963366,"L"
763176,"610 SHERWOOD ROAD","LA GRANGE PARK","IL",60526,41.82558562,-87.869116906,176,"610 SHERWOOD ROAD, LA GRANGE PARK, IL, 60526","Match","Exact","610 SHERWOOD RD, LA GRANGE PARK, IL, 60526",111790117,"L"
763177,"610 SHIRLEY AVENUE","NORFOLK","VA",23517,36.866416126,-76.294367103,177,"610 SHIRLEY AVENUE, NORFOLK, VA, 23517","Match","Exact","610 SHIRLEY AVE, NORFOLK, VA, 23517",122122797,"R"
763178,"610 SISKEN CT","EDMOND","OK",73003,35.6604232500001,-97.497138981,178,"610 SISKEN CT, EDMOND, OK, 73003","Match","Exact","610 SISKEN CT, EDMOND, OK, 73003",617260345,"R"
763179,"610 SOMBRERO LANE","HENDERSON","NC",27537,36.246469248,-78.343100968,179,"610 SOMBRERO LANE, HENDERSON, NC, 27537","Match","Exact","610 SOMBRERO LN, HENDERSON, NC, 27537",90281250,"L"
763180,"610 SON DR","GOOSE CREEK","SC",29445,32.992611249,-80.0157767279999,180,"610 SON DR, GOOSE CREEK, SC, 29445","Match","Exact","610 SON DR, GOOSE CREEK, SC, 29445",100772624,"R"
763181,"610 SONOMA BLVD","VALLEJO","CA",94590,38.0867031600001,-122.242436449,181,"610 SONOMA BLVD, VALLEJO, CA, 94590","Match","Exact","610 SONOMA BLVD, VALLEJO, CA, 94590",192529466,"R"
763182,"610 SORRELL CIRCLE","SMYRNA","DE",19977,39.2456924300001,-75.58273875,182,"610 SORRELL CIRCLE, SMYRNA, DE, 19977","Match","Exact","610 SORRELL CIR, SMYRNA, DE, 19977",617133019,"R"
763183,"610 SOUTH 3RD ST","MONROE","LA",71202,32.4936653070001,-92.1073824119999,183,"610 SOUTH 3RD ST, MONROE, LA, 71202","Match","Exact","610 S 3RD ST, MONROE, LA, 71202",161087288,"R"
763184,"610 SOUTH BLACK AVE","BOZEMAN","MT",59715,45.6727888240001,-111.035618697,184,"610 SOUTH BLACK AVE, BOZEMAN, MT, 59715","Match","Exact","610 S BLACK AVE, BOZEMAN, MT, 59715",163530186,"R"
763185,"610 SOUTH DENTON","GAINESVILLE","TX",76240,33.6197002760001,-97.1423988509999,185,"610 SOUTH DENTON, GAINESVILLE, TX, 76240","Match","Non_Exact","610 S DENTON ST, GAINESVILLE, TX, 76240",151322645,"R"
763186,"610 SOUTH DIXIE STREET","LONDON","KY",40741,37.121122654,-84.083106163,186,"610 SOUTH DIXIE STREET, LONDON, KY, 40741","Match","Exact","610 S DIXIE ST, LONDON, KY, 40741",98746832,"R"
763187,"610 SOUTH LOCUST CIRCLE","COMPTON","CA",90221,33.8912655030001,-118.200480585,187,"610 SOUTH LOCUST CIRCLE, COMPTON, CA, 90221","Match","Exact","610 S LOCUST CIR, COMPTON, CA, 90221",141682943,"L"
763188,"610 SOUTH MAIN STREET","ROXBORO","NC",27573,36.3860232110001,-78.9866499949999,188,"610 SOUTH MAIN STREET, ROXBORO, NC, 27573","Match","Exact","610 S MAIN ST, ROXBORO, NC, 27573",77211261,"R"
763189,"610 SOUTH OAKVIEW AVE","COLUMBUS","GA",31901,32.4579468970001,-84.973792964,189,"610 SOUTH OAKVIEW AVE, COLUMBUS, GA, 31901","Match","Non_Exact","610 OAKVIEW AVE, COLUMBUS, GA, 31901",98941688,"R"
763190,"610 SOUTHLAKE CIRCLE","YOUNGSVILLE","LA",70592,30.1061818220001,-92.028198377,190,"610 SOUTHLAKE CIRCLE, YOUNGSVILLE, LA, 70592","Match","Exact","610 SOUTHLAKE CIR, YOUNGSVILLE, LA, 70592",85641733,"R"
763191,"610 SPANIARD NECK RD","CENTREVILLE","MD",21617,39.0741530080001,-76.069315291,191,"610 SPANIARD NECK RD, CENTREVILLE, MD, 21617","Match","Exact","610 SPANIARD NECK RD, CENTREVILLE, MD, 21617",68053648,"R"
763192,"610 SPANIARD NECK ROAD","CENTREVILLE","MD",21617,39.0741530080001,-76.069315291,192,"610 SPANIARD NECK ROAD, CENTREVILLE, MD, 21617","Match","Exact","610 SPANIARD NECK RD, CENTREVILLE, MD, 21617",68053648,"R"
763193,"610 SPECTRUM FARM RD","FELTON","DE",19943,38.9963032220001,-75.728177337,193,"610 SPECTRUM FARM RD, FELTON, DE, 19943","Match","Non_Exact","610 SPECTRUM FARMS RD, FELTON, DE, 19943",641108214,"R"
763194,"610 SPRUCE ST","MANISTEE","MI",49660,44.240960844,-86.329176053,194,"610 SPRUCE ST, MANISTEE, MI, 49660","Match","Exact","610 SPRUCE ST, MANISTEE, MI, 49660",146023195,"L"
763195,"610 SPRUCE STREET","MADISON","WI",53715,43.0529497050001,-89.392601386,195,"610 SPRUCE STREET, MADISON, WI, 53715","Match","Exact","610 SPRUCE ST, MADISON, WI, 53715",49470183,"R"
763196,"610 SQUIRE COURT","ALLEN","TX",75002,33.1171999690001,-96.650979094,196,"610 SQUIRE COURT, ALLEN, TX, 75002","Match","Exact","610 SQUIRE CT, ALLEN, TX, 75002",123525260,"L"
763197,"610 STAMFORD ROAD","BALTIMORE","MD",21229,39.290155084,-76.7081611739999,197,"610 STAMFORD ROAD, BALTIMORE, MD, 21229","Match","Exact","610 STAMFORD RD, BALTIMORE, MD, 21229",206452965,"L"
763198,"610 STANDING SPRINGS RD","GREENVILLE","SC",29605,NA,NA,198,"610 STANDING SPRINGS RD, GREENVILLE, SC, 29605","Tie",NA,NA,NA,NA
763199,"610 STATE ST","YORKVILLE","IL",60560,41.639105661,-88.449951686,199,"610 STATE ST, YORKVILLE, IL, 60560","Match","Exact","610 STATE ST, YORKVILLE, IL, 60560",54483360,"R"
763200,"610 STONE CHURCH LANE","GENESEO","IL",61254,41.438951316,-90.163617455,200,"610 STONE CHURCH LANE, GENESEO, IL, 61254","Match","Exact","610 STONE CHURCH LN, GENESEO, IL, 61254",8923680,"L"
763201,"610 STONEBURY CIRCLE","COLUMBIA","SC",29016,34.1498995580001,-80.9830301929999,201,"610 STONEBURY CIRCLE, COLUMBIA, SC, 29016","Match","Non_Exact","610 STONEBURY CIR, BLYTHEWOOD, SC, 29016",627709547,"R"
763202,"610 STOVALL ROAD","PULASKI","TN",38478,35.1639460800001,-86.980429584,202,"610 STOVALL ROAD, PULASKI, TN, 38478","Match","Exact","610 STOVALL RD, PULASKI, TN, 38478",45307730,"R"
763203,"610 SUMMER STREET","UNION CITY","TN",38261,36.421204387,-89.051505048,203,"610 SUMMER STREET, UNION CITY, TN, 38261","Match","Exact","610 SUMMER ST, UNION CITY, TN, 38261",30894425,"R"
763204,"610 SUMMIT AVE W","ST PAUL","MN",55102,44.9413393290001,-93.125739757,204,"610 SUMMIT AVE W, ST PAUL, MN, 55102","Match","Non_Exact","610 SUMMIT AVE, SAINT PAUL, MN, 55102",97647554,"L"
763205,"610 SUN VALLEY DRIVE","WOODLAND PARK","CO",80863,38.97668301,-105.035358218,205,"610 SUN VALLEY DRIVE, WOODLAND PARK, CO, 80863","Match","Exact","610 SUN VALLEY DR, WOODLAND PARK, CO, 80863",647341836,"R"
763206,"610 SUN VALLEY","WOODLAND PARK","CO",80863,38.97668301,-105.035358218,206,"610 SUN VALLEY, WOODLAND PARK, CO, 80863","Match","Non_Exact","610 SUN VALLEY DR, WOODLAND PARK, CO, 80863",647341836,"R"
763207,"610 SUNSHINE DR","RICHMOND","MO",64085,39.271904014,-93.947485533,207,"610 SUNSHINE DR, RICHMOND, MO, 64085","Match","Exact","610 SUNSHINE DR, RICHMOND, MO, 64085",20989172,"L"
763208,"610 SUSQUEHANNA AVENUE","CURWENSVILLE","PA",16833,40.9659324030001,-78.522466003,208,"610 SUSQUEHANNA AVENUE, CURWENSVILLE, PA, 16833","Match","Exact","610 SUSQUEHANNA AVE, CURWENSVILLE, PA, 16833",50511634,"R"
763209,"610 SYCAMORE STREET","GLADE SPRING","VA",24340,36.7845893050001,-81.77686847,209,"610 SYCAMORE STREET, GLADE SPRING, VA, 24340","Match","Exact","610 SYCAMORE ST, GLADE SPRING, VA, 24340",154352201,"L"
763210,"610 SYLVAN HEIGHTS WAY APT 147","NASHVILLE","TN",37209,36.152242232,-86.834816006,210,"610 SYLVAN HEIGHTS WAY APT 147, NASHVILLE, TN, 37209","Match","Non_Exact","610 SYLVAN HIGHTS WAY, NASHVILLE, TN, 37209",651830725,"L"
763211,"610 SYLVAN HEIGHTS WAY APT 454","NASHVILLE","TN",37209,36.152242232,-86.834816006,211,"610 SYLVAN HEIGHTS WAY APT 454, NASHVILLE, TN, 37209","Match","Non_Exact","610 SYLVAN HIGHTS WAY, NASHVILLE, TN, 37209",651830725,"L"
763212,"610 TALLEY AVE","COVINGTON","TN",38019,35.553361791,-89.653483308,212,"610 TALLEY AVE, COVINGTON, TN, 38019","Match","Exact","610 TALLEY AVE, COVINGTON, TN, 38019",73163597,"R"
763213,"610 TARTAN WAY","ENTERPRISE","AL",36330,NA,NA,213,"610 TARTAN WAY, ENTERPRISE, AL, 36330","No_Match",NA,NA,NA,NA
763214,"610 TAWAS ST","ALPENA","MI",49707,45.0662936360001,-83.443702065,214,"610 TAWAS ST, ALPENA, MI, 49707","Match","Exact","610 TAWAS ST, ALPENA, MI, 49707",135790955,"L"
763215,"610 TAYLOR STREET","WILMINGTON","NC",28401,34.250137825,-77.943434095,215,"610 TAYLOR STREET, WILMINGTON, NC, 28401","Match","Exact","610 TAYLOR ST, WILMINGTON, NC, 28401",152730642,"R"
763216,"610 TELEGRAPH CANYON ROAD UNIT D","CHULA VISTA","CA",91910,32.627899158,-117.036330998,216,"610 TELEGRAPH CANYON ROAD UNIT D, CHULA VISTA, CA, 91910","Match","Exact","610 TELEGRAPH CANYON RD, CHULA VISTA, CA, 91910",629818810,"R"
763217,"610 TEN WOOD CT","ARLINGTON","TX",76018,NA,NA,217,"610 TEN WOOD CT, ARLINGTON, TX, 76018","No_Match",NA,NA,NA,NA
763218,"610 TERRACE DR","GRAND FORKS","ND",58201,47.886554753,-97.0341738829999,218,"610 TERRACE DR, GRAND FORKS, ND, 58201","Match","Exact","610 TERRACE DR, GRAND FORKS, ND, 58201",171277239,"R"
763219,"610 THIRD ST E","NORTHFIELD","MN",55057,44.4573842290001,-93.152054333,219,"610 THIRD ST E, NORTHFIELD, MN, 55057","Match","Exact","610 3RD ST E, NORTHFIELD, MN, 55057",37314598,"L"
763220,"610 THOUSAND OAKS DRIVE","MONTGOMERY","AL",36109,32.392002297,-86.2324979859999,220,"610 THOUSAND OAKS DRIVE, MONTGOMERY, AL, 36109","Match","Exact","610 THOUSAND OAKS DR, MONTGOMERY, AL, 36109",635641970,"R"
763221,"610 TIFFANY DRIVE","TRUSSVILLE","AL",35173,33.6240330750001,-86.6214048149999,221,"610 TIFFANY DRIVE, TRUSSVILLE, AL, 35173","Match","Exact","610 TIFFANY DR, TRUSSVILLE, AL, 35173",81638906,"R"
763222,"610 TIMBER RIDGE RD","HELENA","MT",59602,46.7305936220001,-112.097050909,222,"610 TIMBER RIDGE RD, HELENA, MT, 59602","Match","Exact","610 TIMBER RIDGE RD, HELENA, MT, 59602",202362864,"L"
763223,"610 TIMBERS CROSSING","LYNN HAVEN","FL",32405,30.2252514730001,-85.641716287,223,"610 TIMBERS CROSSING, LYNN HAVEN, FL, 32405","Match","Non_Exact","610 TIMBERS CROSSING, LYNN HAVEN, FL, 32444",7090780,"L"
763224,"610 TIPPERARY RD","HAMPTON","GA",30228,33.3652890330001,-84.351482168,224,"610 TIPPERARY RD, HAMPTON, GA, 30228","Match","Exact","610 TIPPERARY RD, HAMPTON, GA, 30228",619934647,"R"
763225,"610 TOBIN DR APT 206","INKSTER","MI",48141,42.306485379,-83.292703,225,"610 TOBIN DR APT 206, INKSTER, MI, 48141","Match","Exact","610 TOBIN DR, INKSTER, MI, 48141",95432520,"R"
763226,"610 TOWNSHIP LINE RD","FRANKLINVILLE","NJ",8322,39.660400017,-75.034251372,226,"610 TOWNSHIP LINE RD, FRANKLINVILLE, NJ, 8322","Match","Exact","610 TOWNSHIP LINE RD, FRANKLINVILLE, NJ, 08322",134590616,"L"
763227,"610 TRAMOR COURT","STOCKBRIDGE","GA",30281,NA,NA,227,"610 TRAMOR COURT, STOCKBRIDGE, GA, 30281","No_Match",NA,NA,NA,NA
763228,"610 TRAPELO RD","BELMONT","MA",2478,42.3893995870001,-71.194184095,228,"610 TRAPELO RD, BELMONT, MA, 2478","Match","Exact","610 TRAPELO RD, BELMONT, MA, 02478",87121945,"L"
763229,"610 TRINITY AVENUE APT 6G","BRONX","NY",10455,40.814633153,-73.9095800269999,229,"610 TRINITY AVENUE APT 6G, BRONX, NY, 10455","Match","Exact","610 TRINITY AVE, BRONX, NY, 10455",80300860,"R"
763230,"610 TRUMP AVENUE","CONNELLSVILLE","PA",15425,40.013208734,-79.586471032,230,"610 TRUMP AVENUE, CONNELLSVILLE, PA, 15425","Match","Exact","610 TRUMP AVE, CONNELLSVILLE, PA, 15425",639198341,"R"
763231,"610 TULE GOOSE DRIVE","SUISUN","CA",94585,38.2519869060001,-122.009280851,231,"610 TULE GOOSE DRIVE, SUISUN, CA, 94585","Match","Non_Exact","610 TULE GOOSE DR, SUISUN CITY, CA, 94585",192551309,"L"
763232,"610 TULIFINNY RD","YEMASSEE","SC",29945,32.672636192,-80.877800899,232,"610 TULIFINNY RD, YEMASSEE, SC, 29945","Match","Exact","610 TULIFINNY RD, YEMASSEE, SC, 29945",636717304,"L"
763233,"610 TUNNEL CUT LOOP","MOREHEAD","KY",40351,38.2543755240001,-83.318227512,233,"610 TUNNEL CUT LOOP, MOREHEAD, KY, 40351","Match","Non_Exact","610 TUNL CUT LP, MOREHEAD, KY, 40351",39628132,"L"
763234,"610 TURF LANE","CONSHOHOCKEN","PA",19428,40.093915323,-75.299121892,234,"610 TURF LANE, CONSHOHOCKEN, PA, 19428","Match","Exact","610 TURF LN, CONSHOHOCKEN, PA, 19428",135084957,"L"
763235,"610 TURTLEBACK CREEK DRIVE","ELLETTSVILLE","IN",47429,NA,NA,235,"610 TURTLEBACK CREEK DRIVE, ELLETTSVILLE, IN, 47429","No_Match",NA,NA,NA,NA
763236,"610 UNION STREET","NORTHFIELD","MN",55057,44.453794977,-93.157031812,236,"610 UNION STREET, NORTHFIELD, MN, 55057","Match","Exact","610 UNION ST, NORTHFIELD, MN, 55057",37314687,"L"
763237,"610 UNIVERSITY WALK APT 2","BATON ROUGE","LA",70802,30.453987361,-91.1846399359999,237,"610 UNIVERSITY WALK APT 2, BATON ROUGE, LA, 70802","Match","Exact","610 UNIVERSITY WALK, BATON ROUGE, LA, 70802",92181851,"R"
763238,"610 UPPER MERRIMAN","AKRON","OH",44303,41.107057997,-81.5376288209999,238,"610 UPPER MERRIMAN, AKRON, OH, 44303","Match","Non_Exact","610 UPPER MERRIMAN DR, AKRON, OH, 44303",61339666,"L"
763239,"610 UPTOWN BLVD STE 2000","CEDAR HILL","TX",75104,NA,NA,239,"610 UPTOWN BLVD STE 2000, CEDAR HILL, TX, 75104","No_Match",NA,NA,NA,NA
763240,"610 UPTOWN BLVD SUITE 2000","CEDAR HILL","TX",75104,NA,NA,240,"610 UPTOWN BLVD SUITE 2000, CEDAR HILL, TX, 75104","No_Match",NA,NA,NA,NA
763241,"610 UPTOWN BLVD-2ND FLOOR","CEDAR HILL","TX",75104,NA,NA,241,"610 UPTOWN BLVD-2ND FLOOR, CEDAR HILL, TX, 75104","No_Match",NA,NA,NA,NA
763242,"610 UPTOWN BOULEVARD 2ND FLOOR","CEDAR HILL","TX",75104,NA,NA,242,"610 UPTOWN BOULEVARD 2ND FLOOR, CEDAR HILL, TX, 75104","No_Match",NA,NA,NA,NA
763243,"610 US HIGHWAY 42","ASHLAND","OH",44805,40.8961543720001,-82.242741514,243,"610 US HIGHWAY 42, ASHLAND, OH, 44805","Match","Exact","610 US HWY 42, ASHLAND, OH, 44805",30176932,"L"
763244,"610 VALLEY ROAD","FAIRFIELD","AL",35064,33.4901207460001,-86.908066917,244,"610 VALLEY ROAD, FAIRFIELD, AL, 35064","Match","Exact","610 VALLEY RD, FAIRFIELD, AL, 35064",81552371,"L"
763245,"610 VENTURA ST","RICHMOND","CA",94805,37.938102724,-122.323104763,245,"610 VENTURA ST, RICHMOND, CA, 94805","Match","Exact","610 VENTURA ST, RICHMOND, CA, 94805",192103067,"R"
763246,"610 VICTORY BLVD APT 4J","STATEN ISLAND","NY",10301,40.628243615,-74.090359419,246,"610 VICTORY BLVD APT 4J, STATEN ISLAND, NY, 10301","Match","Exact","610 VICTORY BLVD, STATEN ISLAND, NY, 10301",59878736,"L"
763247,"610 VICTORY BLVD SUITE 4A","STATEN ISLAND","NY",10301,40.628243615,-74.090359419,247,"610 VICTORY BLVD SUITE 4A, STATEN ISLAND, NY, 10301","Match","Exact","610 VICTORY BLVD, STATEN ISLAND, NY, 10301",59878736,"L"
763248,"610 VININGS CREST SE","SMYRNA","GA",30080,33.870423337,-84.4939510889999,248,"610 VININGS CREST SE, SMYRNA, GA, 30080","Match","Non_Exact","610 VININGS PKWY SE, SMYRNA, GA, 30080",17251352,"L"
763249,"610 VIRGINIA DRIVE","MULLINS","SC",29574,34.1695921740001,-79.2344213,249,"610 VIRGINIA DRIVE, MULLINS, SC, 29574","Match","Exact","610 VIRGINIA DR, MULLINS, SC, 29574",28776952,"R"
763250,"610 W 139TH STREET APT 6C","NEW YORK","NY",10014,NA,NA,250,"610 W 139TH STREET APT 6C, NEW YORK, NY, 10014","No_Match",NA,NA,NA,NA
763251,"610 W 140TH STREET APT 3B","NEW YORK","NY",10031,40.8234061210001,-73.9531102669999,251,"610 W 140TH STREET APT 3B, NEW YORK, NY, 10031","Match","Non_Exact","610 W 140TH ST, NEW YORK, NY, 10031",59655859,"L"
763252,"610 W 142ND ST","NEW YORK","NY",10031,40.824642243,-73.952162179,252,"610 W 142ND ST, NEW YORK, NY, 10031","Match","Exact","610 W 142ND ST, NEW YORK, NY, 10031",59655879,"L"
763253,"610 W 163RD APT 12D","NEW YORK","NY",10032,NA,NA,253,"610 W 163RD APT 12D, NEW YORK, NY, 10032","No_Match",NA,NA,NA,NA
763254,"610 W 19TH AVE","GASTONIA","NC",28052,35.2417588760001,-81.196830254,254,"610 W 19TH AVE, GASTONIA, NC, 28052","Match","Exact","610 W 19TH AVE, GASTONIA, NC, 28052",70379477,"R"
763255,"610 W 30TH UNIT 228","AUSTIN","TX",78705,NA,NA,255,"610 W 30TH UNIT 228, AUSTIN, TX, 78705","No_Match",NA,NA,NA,NA
763256,"610 W 42ND ST APT 53F","NEW YORK","NY",10036,40.760960052,-73.99864895,256,"610 W 42ND ST APT 53F, NEW YORK, NY, 10036","Match","Non_Exact","610 W 42ND ST, NEW YORK, NY, 10036",650070700,"L"
763257,"610 W 42ND STREET APT N59C","NEW YORK","NY",10036,40.760960052,-73.99864895,257,"610 W 42ND STREET APT N59C, NEW YORK, NY, 10036","Match","Non_Exact","610 W 42ND ST, NEW YORK, NY, 10036",650070700,"L"
763258,"610 W 4TH STREET","STORM LAKE","IA",50588,42.6425212820001,-95.2080977849999,258,"610 W 4TH STREET, STORM LAKE, IA, 50588","Match","Exact","610 W 4TH ST, STORM LAKE, IA, 50588",77378663,"R"
763259,"610 W 84TH STREET","LOS ANGELES","CA",90044,33.962146784,-118.284411527,259,"610 W 84TH STREET, LOS ANGELES, CA, 90044","Match","Exact","610 W 84TH ST, LOS ANGELES, CA, 90044",141660195,"L"
763260,"610 W ASH STREET SUITE 1700","SAN DIEGO","CA",92101,32.7198996280001,-117.159138805,260,"610 W ASH STREET SUITE 1700, SAN DIEGO, CA, 92101","Match","Exact","610 ASH ST, SAN DIEGO, CA, 92101",195343695,"L"
763261,"610 W BEL AIR AVE UNIT 1268","ABERDEEN","MD",21001,39.514030108,-76.175911727,261,"610 W BEL AIR AVE UNIT 1268, ABERDEEN, MD, 21001","Match","Non_Exact","610 W BEL AIR AVE, ABERDEEN, MD, 21001",635643284,"L"
763262,"610 W BELLEVIEW","WINONA","MN",55987,44.047847968,-91.655968676,262,"610 W BELLEVIEW, WINONA, MN, 55987","Match","Non_Exact","610 W BELLEVIEW ST, WINONA, MN, 55987",31662883,"R"
763263,"610 W BROADWAY STE 201","JACKSON","WY",83001,NA,NA,263,"610 W BROADWAY STE 201, JACKSON, WY, 83001","No_Match",NA,NA,NA,NA
763264,"610 W BROADWAY SUITE 201","JACKSON","WY",83001,NA,NA,264,"610 W BROADWAY SUITE 201, JACKSON, WY, 83001","No_Match",NA,NA,NA,NA
763265,"610 W BURKE AVE-5","WILDWOOD","NJ",8260,NA,NA,265,"610 W BURKE AVE-5, WILDWOOD, NJ, 8260","No_Match",NA,NA,NA,NA
763266,"610 W CHESTNUT ST","COMPTON","IL",61318,41.694791293,-89.089905141,266,"610 W CHESTNUT ST, COMPTON, IL, 61318","Match","Exact","610 W CHESTNUT ST, COMPTON, IL, 61318",48750670,"R"
763267,"610 W CHURCH ST","GREENWOOD","LA",38930,NA,NA,267,"610 W CHURCH ST, GREENWOOD, LA, 38930","No_Match",NA,NA,NA,NA
763268,"610 W COLLEGE ST","FLORENCE","AL",35630,34.7959710260001,-87.683077428,268,"610 W COLLEGE ST, FLORENCE, AL, 35630","Match","Exact","610 W COLLEGE ST, FLORENCE, AL, 35630",640317228,"R"
763269,"610 W ELM","COLUMBUS","KS",66725,37.1690688830001,-94.850391343,269,"610 W ELM, COLUMBUS, KS, 66725","Match","Non_Exact","610 W ELM ST, COLUMBUS, KS, 66725",65894175,"L"
763270,"610 W FIG ST","FALBROOK","CA",92028,33.381202177,-117.257048616,270,"610 W FIG ST, FALBROOK, CA, 92028","Match","Non_Exact","610 W FIG ST, FALLBROOK, CA, 92028",195444783,"L"
763271,"610 W GROVE","LUFKIN","TX",75904,31.34240415,-94.7334815789999,271,"610 W GROVE, LUFKIN, TX, 75904","Match","Non_Exact","610 W GROVE AVE, LUFKIN, TX, 75904",23840381,"L"
763272,"610 W JACKSON ST","WOODSTOCK","IL",60098,42.3145905980001,-88.457927351,272,"610 W JACKSON ST, WOODSTOCK, IL, 60098","Match","Exact","610 W JACKSON ST, WOODSTOCK, IL, 60098",119816451,"L"
763273,"610 W LIBERTY","BELDING","MI",48809,43.0951206240001,-85.2351123609999,273,"610 W LIBERTY, BELDING, MI, 48809","Match","Non_Exact","610 W LIBERTY ST, BELDING, MI, 48809",12153522,"L"
763274,"610 W LINDEN ST","TOLONO","IL",61880,39.985720745,-88.270256775,274,"610 W LINDEN ST, TOLONO, IL, 61880","Match","Exact","610 W LINDEN ST, TOLONO, IL, 61880",8822628,"R"
763275,"610 W MILLER ROAD","LANSING","MI",48911,42.6693030820001,-84.559837364,275,"610 W MILLER ROAD, LANSING, MI, 48911","Match","Exact","610 W MILLER RD, LANSING, MI, 48911",17502626,"R"
763276,"610 W MORGAN ST APT 317","DURHAM","NC",27701,35.9992127620001,-78.905862983,276,"610 W MORGAN ST APT 317, DURHAM, NC, 27701","Match","Non_Exact","610 W MORGAN ST, DURHAM, NC, 27701",71739534,"R"
763277,"610 W NORTH ST","COLCHESTER","IL",62326,40.4245745060001,-90.799361811,277,"610 W NORTH ST, COLCHESTER, IL, 62326","Match","Exact","610 W NORTH ST, COLCHESTER, IL, 62326",5367779,"L"
763278,"610 W VICTORY DRIVE","SAVANNAH","GA",31405,32.0542768560001,-81.108585327,278,"610 W VICTORY DRIVE, SAVANNAH, GA, 31405","Match","Exact","610 W VICTORY DR, SAVANNAH, GA, 31405",6171290,"R"
763279,"610 W WEST AVENUE","FULLERTON","CA",92832,33.865441149,-117.935474413,279,"610 W WEST AVENUE, FULLERTON, CA, 92832","Match","Exact","610 WEST AVE, FULLERTON, CA, 92832",144022553,"L"
763280,"610 W178 STREET","NEW YORK","NY",10033,NA,NA,280,"610 W178 STREET, NEW YORK, NY, 10033","No_Match",NA,NA,NA,NA
763281,"610 WARREN AVE","CLYDE","TX",79510,32.398168089,-99.501162708,281,"610 WARREN AVE, CLYDE, TX, 79510","Match","Exact","610 WARREN AVE, CLYDE, TX, 79510",129546348,"L"
763282,"610 WATERFORD DR","LAKE ZURICH","IL",60047,42.1781407330001,-88.0828933179999,282,"610 WATERFORD DR, LAKE ZURICH, IL, 60047","Match","Exact","610 WATERFORD DR, LAKE ZURICH, IL, 60047",647181968,"L"
763283,"610 WATLINGTON DRIVE","REIDSVILLE","NC",27320,36.3349058690001,-79.6686003359999,283,"610 WATLINGTON DRIVE, REIDSVILLE, NC, 27320","Match","Exact","610 WATLINGTON DR, REIDSVILLE, NC, 27320",56218212,"R"
763284,"610 WELSH ROAD","WATERTOWN","WI",53098,43.2117477420001,-88.762032289,284,"610 WELSH ROAD, WATERTOWN, WI, 53098","Match","Exact","610 WELSH RD, WATERTOWN, WI, 53098",642069720,"L"
763285,"610 WENDOVER STREET","PHILADELPHIA","PA",19128,40.0294141160001,-75.205679042,285,"610 WENDOVER STREET, PHILADELPHIA, PA, 19128","Match","Exact","610 WENDOVER ST, PHILADELPHIA, PA, 19128",131400219,"L"
763286,"610 WEST 11TH STREET APT 1","NEW CASTLE","DE",19720,39.6629013150001,-75.575654737,286,"610 WEST 11TH STREET APT 1, NEW CASTLE, DE, 19720","Match","Exact","610 W 11TH ST, NEW CASTLE, DE, 19720",606264365,"R"
763287,"610 WEST 141 ST APT 5H","NEW YORK","NY",10031,40.8240263380001,-73.9526443189999,287,"610 WEST 141 ST APT 5H, NEW YORK, NY, 10031","Match","Non_Exact","610 W 141ST ST, NEW YORK, NY, 10031",59655877,"L"
763288,"610 WEST 142 STREET","NEW YORK","NY",10031,40.8246408140001,-73.9521589129999,288,"610 WEST 142 STREET, NEW YORK, NY, 10031","Match","Exact","610 W 142ND ST, NEW YORK, NY, 10031",59655879,"L"
763289,"610 WEST 31ST 1/2 ST UNIT B","AUSTIN","TX",78705,30.298403874,-97.741217986,289,"610 WEST 31ST 1/2 ST UNIT B, AUSTIN, TX, 78705","Match","Exact","610 W 31ST 1/2 ST, AUSTIN, TX, 78705",63942514,"R"
763290,"610 WEST 4TH ST","STORM LAKE","IA",50588,42.642520979,-95.2080644329999,290,"610 WEST 4TH ST, STORM LAKE, IA, 50588","Match","Exact","610 W 4TH ST, STORM LAKE, IA, 50588",77378663,"R"
763291,"610 WEST 5TH STREET","MORRIS","MN",56267,45.5820936000001,-95.922052472,291,"610 WEST 5TH STREET, MORRIS, MN, 56267","Match","Exact","610 W 5TH ST, MORRIS, MN, 56267",647650692,"L"
763292,"610 WEST 7TH STREET","CHEYENNE","WY",82007,41.123192755,-104.815705056,292,"610 WEST 7TH STREET, CHEYENNE, WY, 82007","Match","Exact","610 W 7TH ST, CHEYENNE, WY, 82007",160150048,"R"
763293,"610 WEST BECKWITH E","MISSOULA","MT",59801,46.8580443210001,-113.99983748,293,"610 WEST BECKWITH E, MISSOULA, MT, 59801","Match","Non_Exact","610 W BECKWITH ST E, MISSOULA, MT, 59801",205239106,"L"
763294,"610 WEST ELM AVE","MONROE","MI",48162,41.9204537630001,-83.403749846,294,"610 WEST ELM AVE, MONROE, MI, 48162","Match","Exact","610 W ELM AVE, MONROE, MI, 48162",639461894,"R"
763295,"610 WEST MAIN ST","WEST DUNDEE","IL",60118,42.0981119150001,-88.2841140369999,295,"610 WEST MAIN ST, WEST DUNDEE, IL, 60118","Match","Exact","610 W MAIN ST, WEST DUNDEE, IL, 60118",119500390,"R"
763296,"610 WEST MAIN STREET STE B","LIGONIER","PA",15658,40.2480207290001,-79.2454959189999,296,"610 WEST MAIN STREET STE B, LIGONIER, PA, 15658","Match","Exact","610 W MAIN ST, LIGONIER, PA, 15658",613064086,"R"
763297,"610 WEST MUIRFIELD DRIVE","GARLAND","TX",75044,32.9692078520001,-96.6355370649999,297,"610 WEST MUIRFIELD DRIVE, GARLAND, TX, 75044","Match","Non_Exact","610 W MUIRFIELD RD, GARLAND, TX, 75044",103164901,"L"
763298,"610 WEST PARK AVE","COLUMBIANA","OH",44408,40.887302172,-80.703071451,298,"610 WEST PARK AVE, COLUMBIANA, OH, 44408","Match","Exact","610 W PARK AVE, COLUMBIANA, OH, 44408",63645397,"L"
763299,"610 WEST PEELER STREET","SALISBURY","NC",28146,35.6091433280001,-80.4563753849999,299,"610 WEST PEELER STREET, SALISBURY, NC, 28146","Match","Exact","610 W PEELER ST, SALISBURY, NC, 28146",652849326,"L"
763300,"610 WEST RAVENWOOD","YOUNGSTOWN","OH",44511,41.0644348960001,-80.6732081769999,300,"610 WEST RAVENWOOD, YOUNGSTOWN, OH, 44511","Match","Non_Exact","610 W RAVENWOOD AVE, YOUNGSTOWN, OH, 44511",64595072,"R"
763301,"610 WEST REGENT UNIT 1","INGLEWOOD","CA",90301,33.964286155,-118.366447575,301,"610 WEST REGENT UNIT 1, INGLEWOOD, CA, 90301","Match","Non_Exact","610 W REGENT ST, INGLEWOOD, CA, 90301",241242490,"L"
763302,"610 WEST ROOT STREET","CHICAGO","IL",60609,41.8189941970001,-87.641198206,302,"610 WEST ROOT STREET, CHICAGO, IL, 60609","Match","Exact","610 W ROOT ST, CHICAGO, IL, 60609",605444652,"R"
763303,"610 WEST SOUTH ST","BOWLING GREEN","MO",63334,39.340397264,-91.1998646329999,303,"610 WEST SOUTH ST, BOWLING GREEN, MO, 63334","Match","Exact","610 W SOUTH ST, BOWLING GREEN, MO, 63334",44643237,"L"
763304,"610 WESTERN AVE","PLYMOUTH","WI",53073,43.7525571470001,-87.989114698,304,"610 WESTERN AVE, PLYMOUTH, WI, 53073","Match","Exact","610 WESTERN AVE, PLYMOUTH, WI, 53073",79491214,"L"
763305,"610 WESTERN AVENUE","PIERSON","FL",32180,29.2188386440001,-81.476904315,305,"610 WESTERN AVENUE, PIERSON, FL, 32180","Match","Exact","610 WESTERN AVE, PIERSON, FL, 32180",643548881,"L"
763306,"610 WHISPERING PINES DRIVE","GIBSONIA","PA",15044,40.630501135,-79.912859619,306,"610 WHISPERING PINES DRIVE, GIBSONIA, PA, 15044","Match","Exact","610 WHISPERING PINES DR, GIBSONIA, PA, 15044",627645915,"L"
763307,"610 WHITE OWL FOREST DRIVE","AUGUSTA","GA",30909,33.4872699200001,-82.045139696,307,"610 WHITE OWL FOREST DRIVE, AUGUSTA, GA, 30909","Match","Exact","610 WHITE OWL FOREST DR, AUGUSTA, GA, 30909",55634003,"R"
763308,"610 WHITMAN ST APT 303","BELVIDERE","IL",61008,42.26082354,-88.856215028,308,"610 WHITMAN ST APT 303, BELVIDERE, IL, 61008","Match","Exact","610 WHITMAN ST, BELVIDERE, IL, 61008",92163367,"R"
763309,"610 WHITNEY AVE","READING","PA",19605,40.389446983,-75.945286776,309,"610 WHITNEY AVE, READING, PA, 19605","Match","Exact","610 WHITNEY AVE, READING, PA, 19605",80430942,"R"
763310,"610 WICKHAM LAKES DRIVE","MELBOURNE","FL",32940,28.225777786,-80.7218548129999,310,"610 WICKHAM LAKES DRIVE, MELBOURNE, FL, 32940","Match","Exact","610 WICKHAM LAKES DR, MELBOURNE, FL, 32940",93945742,"L"
763311,"610 WILLIAMS STREET","BEATTIE","KS",66406,NA,NA,311,"610 WILLIAMS STREET, BEATTIE, KS, 66406","No_Match",NA,NA,NA,NA
763312,"610 WILLOW ST","TRINIDAD","CO",81082,37.1729379120001,-104.516246756,312,"610 WILLOW ST, TRINIDAD, CO, 81082","Match","Exact","610 WILLOW ST, TRINIDAD, CO, 81082",604514746,"R"
763313,"610 WILSON CT","DUNCANVILLE","TX",75241,32.6453030210001,-96.897609007,313,"610 WILSON CT, DUNCANVILLE, TX, 75241","Match","Non_Exact","610 WILSON CT, DUNCANVILLE, TX, 75137",102943330,"R"
763314,"610 WINDERMERE WAY","LAKE IN THE HILLS","IL",60156,42.182079931,-88.3910694469999,314,"610 WINDERMERE WAY, LAKE IN THE HILLS, IL, 60156","Match","Exact","610 WINDERMERE WAY, LAKE IN THE HILLS, IL, 60156",119845288,"L"
763315,"610 WINDOMERE AVE","RICHMOND","VA",23227,37.6047123500001,-77.439676747,315,"610 WINDOMERE AVE, RICHMOND, VA, 23227","Match","Exact","610 WINDOMERE AVE, RICHMOND, VA, 23227",648430090,"R"
763316,"610 WINESAP COURT","JOOPA","MD",21085,39.4192208100001,-76.3557767519999,316,"610 WINESAP COURT, JOOPA, MD, 21085","Match","Non_Exact","610 WINESAP CT, JOPPA, MD, 21085",191657703,"L"
763317,"610 WINNERS CIRCLE PLACE","THOMPSONS STATION","TN",37179,35.7807816850001,-86.902651178,317,"610 WINNERS CIRCLE PLACE, THOMPSONS STATION, TN, 37179","Match","Exact","610 WINNERS CIRCLE PL, THOMPSONS STATION, TN, 37179",73122886,"L"
763318,"610 WOODDUCK LANE","GEORGETOWN","KY",40324,38.3239158380001,-84.575304145,318,"610 WOODDUCK LANE, GEORGETOWN, KY, 40324","Match","Exact","610 WOODDUCK LN, GEORGETOWN, KY, 40324",41233666,"L"
763319,"610 WOODLAND DR","CLINTON","TN",37716,36.0881434030001,-84.1417302679999,319,"610 WOODLAND DR, CLINTON, TN, 37716","Match","Exact","610 WOODLAND DR, CLINTON, TN, 37716",90135360,"L"
763320,"610 WOODMERE ROAD","MILFORD","DE",19963,38.902489852,-75.459327566,320,"610 WOODMERE ROAD, MILFORD, DE, 19963","Match","Exact","610 WOODMERE RD, MILFORD, DE, 19963",647463693,"R"
763321,"610","BIG STONE GAP","VA",24219,NA,NA,321,"610, BIG STONE GAP, VA, 24219","No_Match",NA,NA,NA,NA
763322,"610","SAN RAFAEL","CA",94901,NA,NA,322,"610, SAN RAFAEL, CA, 94901","No_Match",NA,NA,NA,NA
763323,"6100 11TH AVE APT 1","LOS ANGELES","CA",90043,33.984514184,-118.329344082,323,"6100 11TH AVE APT 1, LOS ANGELES, CA, 90043","Match","Exact","6100 11TH AVE, LOS ANGELES, CA, 90043",141655054,"L"
763324,"6100 11TH AVE SE","MINOT","ND",58701,48.225589423,-101.202657768,324,"6100 11TH AVE SE, MINOT, ND, 58701","Match","Exact","6100 11TH AVE SE, MINOT, ND, 58701",646603274,"R"
763325,"6100 14TH STREET SUITE 303","WASHINGTON","DC",20011,38.9641298430001,-77.03342129,325,"6100 14TH STREET SUITE 303, WASHINGTON, DC, 20011","Match","Non_Exact","6100 14TH ST NW, WASHINGTON, DC, 20011",76221644,"L"
763326,"6100 14TH STREET","DETROIT","MI",48208,42.3594866280001,-83.092547623,326,"6100 14TH STREET, DETROIT, MI, 48208","Match","Exact","6100 14TH ST, DETROIT, MI, 48208",95475688,"R"
763327,"6100 14TH STREET","DETROIT","MI",49208,42.3594866280001,-83.092547623,327,"6100 14TH STREET, DETROIT, MI, 49208","Match","Non_Exact","6100 14TH ST, DETROIT, MI, 48208",95475688,"R"
763328,"6100 219TH ST SUITE 560","MOUNTLAKE TERRACE","WA",98043,47.8007957770001,-122.317522438,328,"6100 219TH ST SUITE 560, MOUNTLAKE TERRACE, WA, 98043","Match","Non_Exact","6100 219TH ST SW, MOUNTLAKE TERRACE, WA, 98043",187816873,"L"
763329,"6100 219TH STREET SW SUITE 560","MOUNTLAKE TERRACE","WA",98043,47.8007957770001,-122.317522438,329,"6100 219TH STREET SW SUITE 560, MOUNTLAKE TERRACE, WA, 98043","Match","Exact","6100 219TH ST SW, MOUNTLAKE TERRACE, WA, 98043",187816873,"L"
763330,"6100 24TH AVE NW  APT 11","SEATTLE","WA",98107,47.6731567850001,-122.387578961,330,"6100 24TH AVE NW  APT 11, SEATTLE, WA, 98107","Match","Exact","6100 24TH AVE NW, SEATTLE, WA, 98107",186658793,"R"
763331,"6100 ACADEMY LANE","HARRAH","OK",73045,35.5356823980001,-97.202282638,331,"6100 ACADEMY LANE, HARRAH, OK, 73045","Match","Exact","6100 ACADEMY LN, HARRAH, OK, 73045",606147704,"L"
763332,"6100 ADELAIDE AVE APT 5210","NORTH RICHLAND HILLS","TX",76180,32.852971956,-97.196214281,332,"6100 ADELAIDE AVE APT 5210, NORTH RICHLAND HILLS, TX, 76180","Match","Exact","6100 ADELAIDE AVE, NORTH RICHLAND HILLS, TX, 76180",650472257,"L"
763333,"6100 APPLE RD","SHOREWOOD","MN",55331,44.892176696,-93.558861032,333,"6100 APPLE RD, SHOREWOOD, MN, 55331","Match","Exact","6100 APPLE RD, SHOREWOOD, MN, 55331",651089099,"R"
763334,"6100 APPOLINE","DEARBORN","MI",48126,42.3342076760001,-83.167796629,334,"6100 APPOLINE, DEARBORN, MI, 48126","Match","Exact","6100 APPOLINE, DEARBORN, MI, 48126",95444506,"R"
763335,"6100 ARBUTIS AVE UNIT 3","HUNTINGTON PARK","CA",90255,33.985241242,-118.214812806,335,"6100 ARBUTIS AVE UNIT 3, HUNTINGTON PARK, CA, 90255","Match","Non_Exact","6100 ARBUTUS AVE, HUNTINGTON PARK, CA, 90255",142762919,"L"
763336,"6100 ARLINGTON EXPRESSWAY F201","JACKSONVILLE","FL",32211,30.327169123,-81.5967370279999,336,"6100 ARLINGTON EXPRESSWAY F201, JACKSONVILLE, FL, 32211","Match","Exact","6100 ARLINGTON EXPY, JACKSONVILLE, FL, 32211",83989277,"R"
763337,"6100 AVERY DR APT 1102","FORT WORTH","TX",76132,32.6730871670001,-97.418978786,337,"6100 AVERY DR APT 1102, FORT WORTH, TX, 76132","Match","Exact","6100 AVERY DR, FORT WORTH, TX, 76132",640622740,"R"
763338,"6100 AXIS DRIVE","SPARKS","NV",89436,39.6028665580001,-119.687484382,338,"6100 AXIS DRIVE, SPARKS, NV, 89436","Match","Exact","6100 AXIS DR, SPARKS, NV, 89436",107120354,"R"
763339,"6100 BACK FORTY DR NE","BELMONT","MI",49306,43.074342168,-85.487127619,339,"6100 BACK FORTY DR NE, BELMONT, MI, 49306","Match","Exact","6100 BACK FORTY DR NE, BELMONT, MI, 49306",633715301,"R"
763340,"6100 BAYSWATER LANE","HIXSON","TN",37343,35.1639157810001,-85.20383228,340,"6100 BAYSWATER LANE, HIXSON, TN, 37343","Match","Exact","6100 BAYSWATER LN, HIXSON, TN, 37343",59336485,"R"
763341,"6100 BLACK OAK COURT","FREDERICKSBURG","VA",22407,38.2098684760001,-77.538049598,341,"6100 BLACK OAK COURT, FREDERICKSBURG, VA, 22407","Match","Exact","6100 BLACK OAK CT, FREDERICKSBURG, VA, 22407",618666987,"L"
763342,"6100 BLUE LAGOON BLVD SUITE 305","MIAMI","FL",33126,25.7831248260001,-80.294193782,342,"6100 BLUE LAGOON BLVD SUITE 305, MIAMI, FL, 33126","Match","Non_Exact","6100 BLUE LAGOON DR, MIAMI, FL, 33126",650006963,"R"
763343,"6100 BRENTWOOD CHASE DRIVE","BRENTWOOD","TN",37027,36.0410811190001,-86.75679841,343,"6100 BRENTWOOD CHASE DRIVE, BRENTWOOD, TN, 37027","Match","Exact","6100 BRENTWOOD CHASE DR, BRENTWOOD, TN, 37027",606809035,"R"
763344,"6100 BRIDGEWOOD LANE","GLENDALE","WI",53209,43.128737023,-87.92927614,344,"6100 BRIDGEWOOD LANE, GLENDALE, WI, 53209","Match","Non_Exact","6100 N BRIDGEWOOD LN, GLENDALE, WI, 53209",643636867,"R"
763345,"6100 BROAD MEADOWS DRIVE","MILLINGTON","TN",38053,35.2905064600001,-89.859948887,345,"6100 BROAD MEADOWS DRIVE, MILLINGTON, TN, 38053","Match","Exact","6100 BROAD MEADOWS DR, MILLINGTON, TN, 38053",72900013,"L"
763346,"6100 BROOK SHADOW COURT","GREENSBORO, NC","NC",27401,NA,NA,346,"6100 BROOK SHADOW COURT, GREENSBORO, NC, NC, 27401","No_Match",NA,NA,NA,NA
763347,"6100 BROWNING DRIVE 12202","NORTH RICHLAND HILLS","TX",76108,32.848805799,-97.2488704639999,347,"6100 BROWNING DRIVE 12202, NORTH RICHLAND HILLS, TX, 76108","Match","Non_Exact","6100 BROWNING DR, NORTH RICHLAND HILLS, TX, 76180",617672214,"R"
763348,"6100 BROWNING DRIVE","NORTH RICHLAND HILLS","TX",76180,32.848805799,-97.2488704639999,348,"6100 BROWNING DRIVE, NORTH RICHLAND HILLS, TX, 76180","Match","Exact","6100 BROWNING DR, NORTH RICHLAND HILLS, TX, 76180",617672214,"R"
763349,"6100 CANTERBURY DRIVE APT 301","CULVER CITY","CA",90230,33.982744994,-118.383390668,349,"6100 CANTERBURY DRIVE APT 301, CULVER CITY, CA, 90230","Match","Exact","6100 CANTERBURY DR, CULVER CITY, CA, 90230",608988842,"L"
763350,"6100 CHANNINGWAY BLVD SUITE 200","COLUMBUS","OH",43232,39.9384902670001,-82.831132842,350,"6100 CHANNINGWAY BLVD SUITE 200, COLUMBUS, OH, 43232","Match","Exact","6100 CHANNINGWAY BLVD, COLUMBUS, OH, 43232",218514054,"L"
763351,"6100 CHARLEYCOTE DRIVE","RALIEGH","NC",27614,35.9478503820001,-78.6681151,351,"6100 CHARLEYCOTE DRIVE, RALIEGH, NC, 27614","Match","Non_Exact","6100 CHARLEYCOTE DR, RALEIGH, NC, 27614",645541141,"L"
763352,"6100 CITY AVENUE - APT 1204","PHILADELPHIA","PA",19131,39.9910861340001,-75.248041846,352,"6100 CITY AVENUE - APT 1204, PHILADELPHIA, PA, 19131","Match","Non_Exact","6100 W CITY AVE, PHILADELPHIA, PA, 19131",131395944,"L"
763353,"6100 CLARKWOOD CIRCLE","GREENSBORO","NC",27410,36.14348926,-79.926344376,353,"6100 CLARKWOOD CIRCLE, GREENSBORO, NC, 27410","Match","Exact","6100 CLARKWOOD CIR, GREENSBORO, NC, 27410",131073083,"R"
763354,"6100 CLUB ROAD","RICHMOND","VA",23228,37.6110897250001,-77.4654560979999,354,"6100 CLUB ROAD, RICHMOND, VA, 23228","Match","Exact","6100 CLUB RD, RICHMOND, VA, 23228",106647896,"L"
763355,"6100 CONGO ROAD","BENTON","AR",72019,34.6205524370001,-92.572049512,355,"6100 CONGO ROAD, BENTON, AR, 72019","Match","Exact","6100 CONGO RD, BENTON, AR, 72019",24201511,"R"
763356,"6100 CORTADERIA ST NE APT 3513","ALBUQUERQUE","NM",87111,35.1495714530001,-106.493468716,356,"6100 CORTADERIA ST NE APT 3513, ALBUQUERQUE, NM, 87111","Match","Exact","6100 CORTADERIA ST NE, ALBUQUERQUE, NM, 87111",636709416,"L"
763357,"6100 DAY HOLLOW RD","ENDICOTT","NY",13760,NA,NA,357,"6100 DAY HOLLOW RD, ENDICOTT, NY, 13760","Tie",NA,NA,NA,NA
763358,"6100 DE SOTO AVE APT126","WOODLAND HILLS","CA",91367,34.180975882,-118.590459525,358,"6100 DE SOTO AVE APT126, WOODLAND HILLS, CA, 91367","Match","Non_Exact","6100 DE SOTO AVE, WOODLAND HILLS, CA, 91367",141535391,"R"
763359,"6100 E ANTELOPE LN","PRESCOTT VALLEY","AZ",86314,34.59674312,-112.358272569,359,"6100 E ANTELOPE LN, PRESCOTT VALLEY, AZ, 86314","Match","Exact","6100 E ANTELOPE LN, PRESCOTT VALLEY, AZ, 86314",159536149,"L"
763360,"6100 E MARQUIS RD","READLYN","IA",50668,NA,NA,360,"6100 E MARQUIS RD, READLYN, IA, 50668","No_Match",NA,NA,NA,NA
763361,"6100 EDEN ROAD","AURORA","IN",47001,39.0374473680001,-84.932108098,361,"6100 EDEN ROAD, AURORA, IN, 47001","Match","Non_Exact","6100 EDEN DR, AURORA, IN, 47001",647732037,"R"
763362,"6100 EDINGER AVE APT 227","HUNTINGTON BEACH","CA",92647,33.729951499,-118.023369303,362,"6100 EDINGER AVE APT 227, HUNTINGTON BEACH, CA, 92647","Match","Exact","6100 EDINGER AVE, HUNTINGTON BEACH, CA, 92647",612195272,"R"
763363,"6100 EDLYNNE RD","BALTIMORE","MD",21239,39.367500094,-76.5943311349999,363,"6100 EDLYNNE RD, BALTIMORE, MD, 21239","Match","Exact","6100 EDLYNNE RD, BALTIMORE, MD, 21239",206439639,"L"
763364,"6100 EL CAPITAN","FORT WORTH","TX",76179,32.842706106,-97.40611122,364,"6100 EL CAPITAN, FORT WORTH, TX, 76179","Match","Non_Exact","6100 EL CAPITAN ST, FORT WORTH, TX, 76179",643231714,"R"
763365,"6100 ELTON AVENUE SUITE 1000","LAS VEGAS","NV",89107,36.1719610920001,-115.225175938,365,"6100 ELTON AVENUE SUITE 1000, LAS VEGAS, NV, 89107","Match","Exact","6100 ELTON AVE, LAS VEGAS, NV, 89107",201861020,"R"
763366,"6100 FAIR OAKS BLVD","CARMICHAEL","CA",95608,38.61162052,-121.328758644,366,"6100 FAIR OAKS BLVD, CARMICHAEL, CA, 95608","Match","Exact","6100 FAIR OAKS BLVD, CARMICHAEL, CA, 95608",133343348,"R"
763367,"6100 FAIR RIDGE ROAD","HILLSBORO","OH",45133,39.070130867,-83.661368209,367,"6100 FAIR RIDGE ROAD, HILLSBORO, OH, 45133","Match","Exact","6100 FAIR RIDGE RD, HILLSBORO, OH, 45133",101066284,"L"
763368,"6100 FLAGSTONE LANE APT 204","INDIAN TRAIL","NC",28079,35.072109358,-80.636189523,368,"6100 FLAGSTONE LANE APT 204, INDIAN TRAIL, NC, 28079","Match","Exact","6100 FLAGSTONE LN, INDIAN TRAIL, NC, 28079",628775873,"R"
763369,"6100 FM 1467","MAY","TX",76857,31.86869849,-98.890252792,369,"6100 FM 1467, MAY, TX, 76857","Match","Exact","6100 FM 1467, MAY, TX, 76857",639774602,"R"
763370,"6100 FOREST GROVE DR","BETTENDORF","IA",52722,NA,NA,370,"6100 FOREST GROVE DR, BETTENDORF, IA, 52722","No_Match",NA,NA,NA,NA
763371,"6100 FOREST WOOD ROAD","MIDLOTHIAN","VA",23112,37.4145848060001,-77.6845337839999,371,"6100 FOREST WOOD ROAD, MIDLOTHIAN, VA, 23112","Match","Exact","6100 FOREST WOOD RD, MIDLOTHIAN, VA, 23112",201563291,"L"
763372,"6100 FOUNTAIN RD","KNOXVILLE","TN",37918,36.041350488,-83.941587009,372,"6100 FOUNTAIN RD, KNOXVILLE, TN, 37918","Match","Exact","6100 FOUNTAIN RD, KNOXVILLE, TN, 37918",42654774,"R"
763373,"6100 GLEN CIR","JOHNSTON","IA",50131,41.682381992,-93.701744845,373,"6100 GLEN CIR, JOHNSTON, IA, 50131","Match","Exact","6100 GLEN CIR, JOHNSTON, IA, 50131",617120880,"L"
763374,"6100 Greta Pl","MONTGOMERY","AL",36117,32.353953806,-86.201661212,374,"6100 Greta Pl, MONTGOMERY, AL, 36117","Match","Exact","6100 GRETA PL, MONTGOMERY, AL, 36117",1543154,"R"
763375,"6100 GULF OF MEXICO DR","LONGBOAT KEY","FL",34228,27.4224368220001,-82.668944229,375,"6100 GULF OF MEXICO DR, LONGBOAT KEY, FL, 34228","Match","Exact","6100 GULF OF MEXICO DR, LONGBOAT KEY, FL, 34228",16238767,"R"
763376,"6100 GULFPORT BLVD S UNIT 210","GULFPORT","FL",33707,27.7528015180001,-82.717893676,376,"6100 GULFPORT BLVD S UNIT 210, GULFPORT, FL, 33707","Match","Exact","6100 GULFPORT BLVD S, GULFPORT, FL, 33707",124699248,"L"
763377,"6100 HADLEY AVE S","COTTAGE GROVE","MN",55016,44.860814841,-92.964183288,377,"6100 HADLEY AVE S, COTTAGE GROVE, MN, 55016","Match","Exact","6100 HADLEY AVE S, COTTAGE GROVE, MN, 55016",638915808,"L"
763378,"6100 HAYES ST","HOLLYWOOD","FL",33024,26.0194416950001,-80.209266493,378,"6100 HAYES ST, HOLLYWOOD, FL, 33024","Match","Exact","6100 HAYES ST, HOLLYWOOD, FL, 33024",114716524,"L"
763379,"6100 HENRY AVE APT 7-0","PHILADELPHIA","PA",19128,40.037579405,-75.2104906449999,379,"6100 HENRY AVE APT 7-0, PHILADELPHIA, PA, 19128","Match","Exact","6100 HENRY AVE, PHILADELPHIA, PA, 19128",131400134,"L"
763380,"6100 HENRY AVENUE APT 5B","PHILADELPHIA","PA",19128,40.037579405,-75.2104906449999,380,"6100 HENRY AVENUE APT 5B, PHILADELPHIA, PA, 19128","Match","Exact","6100 HENRY AVE, PHILADELPHIA, PA, 19128",131400134,"L"
763381,"6100 HICKORY FORREST DRIVE","CHARLOTTE","NC",28277,35.067096559,-80.825090588,381,"6100 HICKORY FORREST DRIVE, CHARLOTTE, NC, 28277","Match","Non_Exact","6100 HICKORY FOREST DR, CHARLOTTE, NC, 28277",70518935,"L"
763382,"6100 HWY 16","DE LEON","DE",76444,NA,NA,382,"6100 HWY 16, DE LEON, DE, 76444","No_Match",NA,NA,NA,NA
763383,"6100 JF DOUGLAS DR","OCEAN SPRINGS","MS",39564,30.4293904130001,-88.816266963,383,"6100 JF DOUGLAS DR, OCEAN SPRINGS, MS, 39564","Match","Non_Exact","6100 J F DOUGLAS DR, OCEAN SPRINGS, MS, 39564",89257875,"R"
763384,"6100 KELSTON GREEN DRIVE","GLEN ALLEN","VA",23059,37.7040400390001,-77.6120952369999,384,"6100 KELSTON GREEN DRIVE, GLEN ALLEN, VA, 23059","Match","Exact","6100 KELSTON GREEN DR, GLEN ALLEN, VA, 23059",106668696,"L"
763385,"6100 KIRBY ROAD","CLINTON","MD",20735,38.7856696760001,-76.902580722,385,"6100 KIRBY ROAD, CLINTON, MD, 20735","Match","Exact","6100 KIRBY RD, CLINTON, MD, 20735",76320388,"L"
763386,"6100 LABATH AVE","ROHNERT PARK","CA",94928,38.3503953970001,-122.721190885,386,"6100 LABATH AVE, ROHNERT PARK, CA, 94928","Match","Exact","6100 LABATH AVE, ROHNERT PARK, CA, 94928",605023909,"R"
763387,"6100 LABATH AVENUE","ROHNERT PARK","CA",94928,38.3503953970001,-122.721190885,387,"6100 LABATH AVENUE, ROHNERT PARK, CA, 94928","Match","Exact","6100 LABATH AVE, ROHNERT PARK, CA, 94928",605023909,"R"
763388,"6100 LEAVENWORTH RD APT 504","KANSAS CITY","KS",66104,39.143116177,-94.719958768,388,"6100 LEAVENWORTH RD APT 504, KANSAS CITY, KS, 66104","Match","Exact","6100 LEAVENWORTH RD, KANSAS CITY, KS, 66104",91133366,"R"
763389,"6100 LEAVENWORTH ROAD","KANSAS CITY","KS",66104,39.143116177,-94.719958768,389,"6100 LEAVENWORTH ROAD, KANSAS CITY, KS, 66104","Match","Exact","6100 LEAVENWORTH RD, KANSAS CITY, KS, 66104",91133366,"R"
763390,"6100 LINCOLNIA APT 703","ALEXANDRIA","VA",22312,38.817835711,-77.1370594759999,390,"6100 LINCOLNIA APT 703, ALEXANDRIA, VA, 22312","Match","Non_Exact","6100 LINCOLNIA RD, ALEXANDRIA, VA, 22312",76063998,"L"
763391,"6100 LOCH LOMOND CT","SOLON","OH",44139,41.39325833,-81.3979388399999,391,"6100 LOCH LOMOND CT, SOLON, OH, 44139","Match","Exact","6100 LOCH LOMOND CT, SOLON, OH, 44139",61153425,"L"
763392,"6100 MAIN ST - OEDK RM 105","HOUSTON","TX",77005,29.7204708250001,-95.393794221,392,"6100 MAIN ST - OEDK RM 105, HOUSTON, TX, 77005","Match","Exact","6100 MAIN ST, HOUSTON, TX, 77005",96615632,"R"
763393,"6100 MAIN ST MS-20","HOUSTON","TX",77005,29.7204708250001,-95.393794221,393,"6100 MAIN ST MS-20, HOUSTON, TX, 77005","Match","Exact","6100 MAIN ST, HOUSTON, TX, 77005",96615632,"R"
763394,"6100 MAIN ST MS-548","HOUSTON","TX",77005,29.7204708250001,-95.393794221,394,"6100 MAIN ST MS-548, HOUSTON, TX, 77005","Match","Exact","6100 MAIN ST, HOUSTON, TX, 77005",96615632,"R"
763395,"6100 MALPAIS PARK AVE NW","ALBUQUERQUE","NM",87109,35.2165541540001,-106.707208823,395,"6100 MALPAIS PARK AVE NW, ALBUQUERQUE, NM, 87109","Match","Non_Exact","6100 MALPAIS PARK AVE NW, ALBUQUERQUE, NM, 87114",627715855,"R"
763396,"6100 MARINETTE DR APT  1308B","HOUSTON","TX",77036,29.712934712,-95.518062419,396,"6100 MARINETTE DR APT  1308B, HOUSTON, TX, 77036","Match","Exact","6100 MARINETTE DR, HOUSTON, TX, 77036",96614112,"R"
763397,"6100 MASON MONTGOMERY RD","CINCINNATI","OH",45040,NA,NA,397,"6100 MASON MONTGOMERY RD, CINCINNATI, OH, 45040","No_Match",NA,NA,NA,NA
763398,"6100 MASON MONTGOMERY ROAD","MASON","OH",45040,39.350530227,-84.309908789,398,"6100 MASON MONTGOMERY ROAD, MASON, OH, 45040","Match","Non_Exact","6100 S MASON MONTGOMERY RD, MASON, OH, 45040",159042972,"L"
763399,"6100 MORNING SUN WAY","LAS CRUCES","NM",88012,32.386484302,-106.720213118,399,"6100 MORNING SUN WAY, LAS CRUCES, NM, 88012","Match","Exact","6100 MORNING SUN WAY, LAS CRUCES, NM, 88012",189561350,"L"
763400,"6100 N 14TH STREET","KALAMAZOO","MI",49009,42.3493152180001,-85.629572589,400,"6100 N 14TH STREET, KALAMAZOO, MI, 49009","Match","Exact","6100 N 14TH ST, KALAMAZOO, MI, 49009",12241246,"R"
763401,"6100 N BROOKLINE 7","OKLAHOMA CITY","OK",73112,NA,NA,401,"6100 N BROOKLINE 7, OKLAHOMA CITY, OK, 73112","No_Match",NA,NA,NA,NA
763402,"6100 N DEVONSHIRE DR","PEORIA","IL",61615,40.763032158,-89.64930191,402,"6100 N DEVONSHIRE DR, PEORIA, IL, 61615","Match","Exact","6100 N DEVONSHIRE DR, PEORIA, IL, 61615",8711773,"R"
763403,"6100 N IRISH RD","DAVISON","MI",48423,NA,NA,403,"6100 N IRISH RD, DAVISON, MI, 48423","Tie",NA,NA,NA,NA
763404,"6100 N MAIN ST","FALKLAND","NC",27827,NA,NA,404,"6100 N MAIN ST, FALKLAND, NC, 27827","No_Match",NA,NA,NA,NA
763405,"6100 N PLACITA SAN AUGUSTIN","TUCSON","AZ",85741,NA,NA,405,"6100 N PLACITA SAN AUGUSTIN, TUCSON, AZ, 85741","No_Match",NA,NA,NA,NA
763406,"6100 N VIA DEL TECACO","TUCSON","AZ",85718,32.3174097200001,-110.907867143,406,"6100 N VIA DEL TECACO, TUCSON, AZ, 85718","Match","Exact","6100 N VIA DEL TECACO, TUCSON, AZ, 85718",121383300,"L"
763407,"6100 N WINCHESTER AVE U1A","CHICAGO","IL",60660,41.9920081750001,-87.678470025,407,"6100 N WINCHESTER AVE U1A, CHICAGO, IL, 60660","Match","Non_Exact","6100 N WINCHESTER AVE, CHICAGO, IL, 60660",111745505,"L"
763408,"6100 NEIL RD STE 500","RENO","NV",89511,39.471772512,-119.779154102,408,"6100 NEIL RD STE 500, RENO, NV, 89511","Match","Non_Exact","6100 NEIL RD, RENO, NV, 89502",608620337,"L"
763409,"6100 NEW SAROTOGA ROAD","ANNA","IL",62906,37.496375942,-89.1281349339999,409,"6100 NEW SAROTOGA ROAD, ANNA, IL, 62906","Match","Non_Exact","6100 NEW SARATOGA RD, ANNA, IL, 62906",5970399,"L"
763410,"6100 NEWBURGH","WESTLAND","MI",48185,NA,NA,410,"6100 NEWBURGH, WESTLAND, MI, 48185","No_Match",NA,NA,NA,NA
763411,"6100 OHIO DR APT 2121","PLANO","TX",75024,33.056608081,-96.789287969,411,"6100 OHIO DR APT 2121, PLANO, TX, 75024","Match","Exact","6100 OHIO DR, PLANO, TX, 75024",210487939,"R"
763412,"6100 OLD HARFORD RD","BALTIMORE","MD",21214,NA,NA,412,"6100 OLD HARFORD RD, BALTIMORE, MD, 21214","Tie",NA,NA,NA,NA
763413,"6100 OLD LEEDS ROAD","IRONDALE","AL",35210,33.5350666780001,-86.673990684,413,"6100 OLD LEEDS ROAD, IRONDALE, AL, 35210","Match","Exact","6100 OLD LEEDS RD, IRONDALE, AL, 35210",81689884,"L"
763414,"6100 OLDE OAK VIEW","OCEAN SPRINGS","MS",39564,30.37923913,-88.7105489049999,414,"6100 OLDE OAK VIEW, OCEAN SPRINGS, MS, 39564","Match","Exact","6100 OLDE OAK VW, OCEAN SPRINGS, MS, 39564",89267628,"L"
763415,"6100 PHYLLIS ST","BAKERSFIELD","CA",93313,35.2982758420001,-119.036054616,415,"6100 PHYLLIS ST, BAKERSFIELD, CA, 93313","Match","Exact","6100 PHYLLIS ST, BAKERSFIELD, CA, 93313",109092629,"R"
763416,"6100 PIERCE LANE","GODFREY","IL",62035,38.9544546380001,-90.214859609,416,"6100 PIERCE LANE, GODFREY, IL, 62035","Match","Exact","6100 PIERCE LN, GODFREY, IL, 62035",107760917,"L"
763417,"6100 PIONEER TRAIL NE","GEORGETOWN","IN",47122,38.290273219,-86.03388032,417,"6100 PIONEER TRAIL NE, GEORGETOWN, IN, 47122","Match","Exact","6100 PIONEER TRL NE, GEORGETOWN, IN, 47122",34813906,"L"
763418,"6100 PRAISE AVENUE","SEBRING","FL",33876,27.4443577490001,-81.402269368,418,"6100 PRAISE AVENUE, SEBRING, FL, 33876","Match","Exact","6100 PRAISE AVE, SEBRING, FL, 33876",647632802,"R"
763419,"6100 QUAIL RUN","FARMINGTON","NM",87402,36.7863943360001,-108.135685023,419,"6100 QUAIL RUN, FARMINGTON, NM, 87402","Match","Exact","6100 QUAIL RUN, FARMINGTON, NM, 87402",127403527,"L"
763420,"6100 RICHMOND ROAD","OAKWOOD VILLAGE","OH",44146,41.3945483530001,-81.488906659,420,"6100 RICHMOND ROAD, OAKWOOD VILLAGE, OH, 44146","Match","Exact","6100 RICHMOND RD, OAKWOOD VILLAGE, OH, 44146",61135938,"R"
763421,"6100 ROCKSIDE WOODS BLVD STE 100","INDEPENDENCE","OH",44131,41.3994916820001,-81.6456322,421,"6100 ROCKSIDE WOODS BLVD STE 100, INDEPENDENCE, OH, 44131","Match","Non_Exact","6100 ROCKSIDE WOODS BLVD N, INDEPENDENCE, OH, 44131",61170877,"R"
763422,"6100 RUGBY 112","HUNTINGTON BEACH","CA",90255,33.985458013,-118.226514056,422,"6100 RUGBY 112, HUNTINGTON BEACH, CA, 90255","Match","Non_Exact","6100 RUGBY AVE, HUNTINGTON PK, CA, 90255",142760927,"L"
763423,"6100 S COUNTY ROAD 25 E","CLOVERDALE","IN",46120,39.5727115990001,-86.845832636,423,"6100 S COUNTY ROAD 25 E, CLOVERDALE, IN, 46120","Match","Exact","6100 S CO RD 25 E, CLOVERDALE, IN, 46120",50110170,"L"
763424,"6100 S FALLS CIRCLE DR APT 305","LAUDERHILL","FL",33319,NA,NA,424,"6100 S FALLS CIRCLE DR APT 305, LAUDERHILL, FL, 33319","Tie",NA,NA,NA,NA
763425,"6100 S FALLS CIRCLE DR APT 310","LAUDERHILL","FL",33319,NA,NA,425,"6100 S FALLS CIRCLE DR APT 310, LAUDERHILL, FL, 33319","Tie",NA,NA,NA,NA
763426,"6100 S MASON MONTGOMERY RD","MASON","OH",45040,39.350530227,-84.309908789,426,"6100 S MASON MONTGOMERY RD, MASON, OH, 45040","Match","Exact","6100 S MASON MONTGOMERY RD, MASON, OH, 45040",159042972,"L"
763427,"6100 S YALE AVE / SUITE 700","TULSA","OK",74136,36.075243829,-95.922144218,427,"6100 S YALE AVE / SUITE 700, TULSA, OK, 74136","Match","Non_Exact","6100 S YALE AVE, TULSA, OK, 74136",623788131,"R"
763428,"6100 S YALE AVE STE 1816","TULSA","OK",74136,36.075243829,-95.922144218,428,"6100 S YALE AVE STE 1816, TULSA, OK, 74136","Match","Non_Exact","6100 S YALE AVE, TULSA, OK, 74136",623788131,"R"
763429,"6100 SHADBURN FERRY RD","BUFORD","GA",30518,34.1561623600001,-84.00779541,429,"6100 SHADBURN FERRY RD, BUFORD, GA, 30518","Match","Exact","6100 SHADBURN FERRY RD, BUFORD, GA, 30518",98256891,"L"
763430,"6100 SOUNDVIEW DRIVE APT 1H","GIG HARBOR","WA",98335,47.3128989140001,-122.579073839,430,"6100 SOUNDVIEW DRIVE APT 1H, GIG HARBOR, WA, 98335","Match","Exact","6100 SOUNDVIEW DR, GIG HARBOR, WA, 98335",652334325,"L"
763431,"6100 SOUTH CREEKSIDE DRIVE UNIT 8","CUDAHY","WI",53110,42.933258283,-87.8685868859999,431,"6100 SOUTH CREEKSIDE DRIVE UNIT 8, CUDAHY, WI, 53110","Match","Exact","6100 S CREEKSIDE DR, CUDAHY, WI, 53110",77768196,"L"
763432,"6100 SOUTHPORT RD","PORTAGE","IN",46368,41.602459138,-87.180913635,432,"6100 SOUTHPORT RD, PORTAGE, IN, 46368","Match","Exact","6100 SOUTHPORT RD, PORTAGE, IN, 46368",638584453,"L"
763433,"6100 ST IGNATIUS DRIVE","FORT WASHINGTON","MD",20744,38.805483773,-76.966879702,433,"6100 ST IGNATIUS DRIVE, FORT WASHINGTON, MD, 20744","Match","Exact","6100 ST IGNATIUS DR, FT WASHINGTON, MD, 20744",76315509,"R"
763434,"6100 ST JOHNS AVE STE 6","PALATKA","FL",32177,NA,NA,434,"6100 ST JOHNS AVE STE 6, PALATKA, FL, 32177","No_Match",NA,NA,NA,NA
763435,"6100 SUMMIT DR N APT 311","BROOKLYN CENTER","MN",55430,45.065489406,-93.3044872089999,435,"6100 SUMMIT DR N APT 311, BROOKLYN CENTER, MN, 55430","Match","Exact","6100 SUMMIT DR N, BROOKLYN CENTER, MN, 55430",43855762,"R"
763436,"6100 SUNSTONE DRIVE","CHARLOTTE","NC",28269,35.298898987,-80.8440019619999,436,"6100 SUNSTONE DRIVE, CHARLOTTE, NC, 28269","Match","Exact","6100 SUNSTONE DR, CHARLOTTE, NC, 28269",70512709,"L"
763437,"6100 SW 135 STREET","MIRAMAR","FL",33023,NA,NA,437,"6100 SW 135 STREET, MIRAMAR, FL, 33023","No_Match",NA,NA,NA,NA
763438,"6100 SW 135 TER","MIAMI","FL",33156,25.6459487070001,-80.291723652,438,"6100 SW 135 TER, MIAMI, FL, 33156","Match","Exact","6100 SW 135TH TER, MIAMI, FL, 33156",116045143,"L"
763439,"6100 SW 38 STREET","MIAMI","FL",33155,25.7359716180001,-80.294037653,439,"6100 SW 38 STREET, MIAMI, FL, 33155","Match","Exact","6100 SW 38TH ST, MIAMI, FL, 33155",115978022,"L"
763440,"6100 SW 62 STREET","MIAMI","FL",33143,25.7135475690001,-80.292852261,440,"6100 SW 62 STREET, MIAMI, FL, 33143","Match","Exact","6100 SW 62ND ST, MIAMI, FL, 33143",115978818,"L"
763441,"6100 SW 62 STREET","MIAMI","FL",33413,25.7135475690001,-80.292852261,441,"6100 SW 62 STREET, MIAMI, FL, 33413","Match","Non_Exact","6100 SW 62ND ST, MIAMI, FL, 33143",115978818,"L"
763442,"6100 SWAINLAND","OAKLAND","CA",94111,NA,NA,442,"6100 SWAINLAND, OAKLAND, CA, 94111","No_Match",NA,NA,NA,NA
763443,"6100 TOSCANA DRIVE APT 2221","DAVIE","FL",33314,NA,NA,443,"6100 TOSCANA DRIVE APT 2221, DAVIE, FL, 33314","No_Match",NA,NA,NA,NA
763444,"6100 UPTOWN BLVD NE STE 400","ALBUQUERQUE","NM",87110,35.1053193320001,-106.576130541,444,"6100 UPTOWN BLVD NE STE 400, ALBUQUERQUE, NM, 87110","Match","Exact","6100 UPTOWN BLVD NE, ALBUQUERQUE, NM, 87110",206716092,"R"
763445,"6100 UPTOWN BLVD","ALBUQUERQUE","NM",87110,35.1053193320001,-106.576130541,445,"6100 UPTOWN BLVD, ALBUQUERQUE, NM, 87110","Match","Non_Exact","6100 UPTOWN BLVD NE, ALBUQUERQUE, NM, 87110",206716092,"R"
763446,"6100 VELONIA DR","WEST RICHLAND","WA",99353,46.26707831,-119.367225967,446,"6100 VELONIA DR, WEST RICHLAND, WA, 99353","Match","Exact","6100 VELONIA DR, WEST RICHLAND, WA, 99353",606997424,"L"
763447,"6100 VERANDAS CIRCLE APT 837","FORT WORTH","TX",76132,32.660186267,-97.419033857,447,"6100 VERANDAS CIRCLE APT 837, FORT WORTH, TX, 76132","Match","Exact","6100 VERANDAS CIR, FORT WORTH, TX, 76132",619866718,"R"
763448,"6100 W 97TH STREET NUMBER 3C","OAK LAWN","IL",60453,41.716023847,-87.772535062,448,"6100 W 97TH STREET NUMBER 3C, OAK LAWN, IL, 60453","Match","Exact","6100 97TH ST, OAK LAWN, IL, 60453",605442248,"R"
763449,"6100 W AVENUE K6","LANCASTER","CA",93536,34.6694971970001,-118.239097692,449,"6100 W AVENUE K6, LANCASTER, CA, 93536","Match","Exact","6100 W AVE K6, LANCASTER, CA, 93536",627280255,"L"
763450,"6100 W BUCKEYE DR","ROGERS","AR",72758,36.2721149760001,-94.201439421,450,"6100 W BUCKEYE DR, ROGERS, AR, 72758","Match","Exact","6100 W BUCKEYE DR, ROGERS, AR, 72758",650539651,"L"
763451,"6100 W GRANTLINE RD","TRACY","CA",95304,NA,NA,451,"6100 W GRANTLINE RD, TRACY, CA, 95304","No_Match",NA,NA,NA,NA
763452,"6100 WEST BLVD APT 2","LOS ANGELES","CA",90043,33.9840847520001,-118.335196177,452,"6100 WEST BLVD APT 2, LOS ANGELES, CA, 90043","Match","Exact","6100 WEST BLVD, LOS ANGELES, CA, 90043",141654995,"L"
763453,"6100 WESTCHESTER PARK DRIVE APT413","COLLEGE PARK","MD",20740,38.9915529030001,-76.899853559,453,"6100 WESTCHESTER PARK DRIVE APT413, COLLEGE PARK, MD, 20740","Match","Exact","6100 WESTCHESTER PARK DR, COLLEGE PARK, MD, 20740",76402382,"L"
763454,"6100 WESTCHESTER PARK DRIVE","COLLEGE PARK","MD",20740,38.9915529030001,-76.899853559,454,"6100 WESTCHESTER PARK DRIVE, COLLEGE PARK, MD, 20740","Match","Exact","6100 WESTCHESTER PARK DR, COLLEGE PARK, MD, 20740",76402382,"L"
763455,"6100 WESTERN PLACE SUITE 1000","FORT WORTH","TX",76107,32.734950097,-97.416449991,455,"6100 WESTERN PLACE SUITE 1000, FORT WORTH, TX, 76107","Match","Exact","6100 WESTERN PL, FORT WORTH, TX, 76107",102136180,"R"
763456,"6100 WESTWOOD PARKWAY 211","SAINT CLOUD","MN",56303,45.5737060920001,-94.2580306789999,456,"6100 WESTWOOD PARKWAY 211, SAINT CLOUD, MN, 56303","Match","Exact","6100 WESTWOOD PKWY, SAINT CLOUD, MN, 56303",649486884,"R"
763457,"6100 WESTWOOD PARKWAY APARTMENT 214","SAINT CLOUD","MN",56303,45.5737060920001,-94.2580306789999,457,"6100 WESTWOOD PARKWAY APARTMENT 214, SAINT CLOUD, MN, 56303","Match","Exact","6100 WESTWOOD PKWY, SAINT CLOUD, MN, 56303",649486884,"R"
763458,"6100 WESTWOOD PKWY APT 109","ST CLOUD","MN",56303,45.5737060920001,-94.2580306789999,458,"6100 WESTWOOD PKWY APT 109, ST CLOUD, MN, 56303","Match","Exact","6100 WESTWOOD PKWY, SAINT CLOUD, MN, 56303",649486884,"R"
763459,"6100 WHITE AVENUE","CLEVELAND","OH",44103,41.514003578,-81.648025148,459,"6100 WHITE AVENUE, CLEVELAND, OH, 44103","Match","Exact","6100 WHITE AVE, CLEVELAND, OH, 44103",61112864,"R"
763460,"6100 WINDCOM COURT SUITE 101","PLANO","TX",75093,33.0536249630001,-96.832020493,460,"6100 WINDCOM COURT SUITE 101, PLANO, TX, 75093","Match","Exact","6100 WINDCOM CT, PLANO, TX, 75093",123567683,"R"
763461,"6100 WOODBRIDGE ROAD","OKLAHOMA CITY","OK",73162,NA,NA,461,"6100 WOODBRIDGE ROAD, OKLAHOMA CITY, OK, 73162","No_Match",NA,NA,NA,NA
763462,"6100 WOODVIEW AVENUE","AUSTIN","TX",78757,30.337715831,-97.743197215,462,"6100 WOODVIEW AVENUE, AUSTIN, TX, 78757","Match","Exact","6100 WOODVIEW AVE, AUSTIN, TX, 78757",63929233,"L"
763463,"61009 EVERGREEN COURT","SOUTH LYON","MI",48178,42.472125207,-83.652414017,463,"61009 EVERGREEN COURT, SOUTH LYON, MI, 48178","Match","Exact","61009 EVERGREEN CT, SOUTH LYON, MI, 48178",69791073,"L"
763464,"6101 16TH ST NW","WASHINGTON","DC",20011,38.9648840040001,-77.036409217,464,"6101 16TH ST NW, WASHINGTON, DC, 20011","Match","Exact","6101 16TH ST NW, WASHINGTON, DC, 20011",76221637,"R"
763465,"6101 16TH STREET NW","WASHINGTON","DC",20011,38.9648840040001,-77.036409217,465,"6101 16TH STREET NW, WASHINGTON, DC, 20011","Match","Exact","6101 16TH ST NW, WASHINGTON, DC, 20011",76221637,"R"
763466,"6101 34TH STREET W -21D","BRADENTON","FL",34210,27.432589207,-82.595882137,466,"6101 34TH STREET W -21D, BRADENTON, FL, 34210","Match","Exact","6101 34TH ST W, BRADENTON, FL, 34210",649939710,"L"
763467,"6101 38TH AVE N","ST PETERSBURG","FL",33710,27.8063639220001,-82.718490995,467,"6101 38TH AVE N, ST PETERSBURG, FL, 33710","Match","Exact","6101 38TH AVE N, SAINT PETERSBURG, FL, 33710",124696340,"R"
763468,"6101 41ST STREET EAST","ARCADIA","FL",34203,27.43395701,-82.5109501749999,468,"6101 41ST STREET EAST, ARCADIA, FL, 34203","Match","Non_Exact","6101 41ST ST E, BRADEN RIVER, FL, 34203",624926901,"L"
763469,"6101 48TH ST NE","MARYSVILLE","WA",98270,48.039434543,-122.148998132,469,"6101 48TH ST NE, MARYSVILLE, WA, 98270","Match","Exact","6101 48TH ST NE, MARYSVILLE, WA, 98270",606939777,"L"
763470,"6101 82ND STR STE 2","LUBBOCK","TX",79424,33.519696858,-101.94647231,470,"6101 82ND STR STE 2, LUBBOCK, TX, 79424","Match","Exact","6101 82ND ST, LUBBOCK, TX, 79424",185273058,"L"
763471,"6101 ALCOTT STREET","LOS ANGELES","CA",90035,34.0520288860001,-118.374197791,471,"6101 ALCOTT STREET, LOS ANGELES, CA, 90035","Match","Exact","6101 ALCOTT ST, LOS ANGELES, CA, 90035",141573122,"R"
763472,"6101 ALTERSGATE LANE 5107","ARLINGTON","TX",76001,32.6472435320001,-97.131294993,472,"6101 ALTERSGATE LANE 5107, ARLINGTON, TX, 76001","Match","Exact","6101 ALTERSGATE LN, ARLINGTON, TX, 76001",638655584,"L"
763473,"6101 ANTOINE DR APT 6222","HOUSTON","TX",77091,29.854531508,-95.473309608,473,"6101 ANTOINE DR APT 6222, HOUSTON, TX, 77091","Match","Exact","6101 ANTOINE DR, HOUSTON, TX, 77091",96646940,"L"
763474,"6101 ANTOINE DR APT 6310","HOUSTON","TX",77091,29.854531508,-95.473309608,474,"6101 ANTOINE DR APT 6310, HOUSTON, TX, 77091","Match","Exact","6101 ANTOINE DR, HOUSTON, TX, 77091",96646940,"L"
763475,"6101 ANTOINE DRIVE APT 402","HOUSTON","TX",77091,29.854531508,-95.473309608,475,"6101 ANTOINE DRIVE APT 402, HOUSTON, TX, 77091","Match","Exact","6101 ANTOINE DR, HOUSTON, TX, 77091",96646940,"L"
763476,"6101 ARDREY KELL RD APT 1317","CHARLOTTE","NC",28277,35.0509424100001,-80.765362345,476,"6101 ARDREY KELL RD APT 1317, CHARLOTTE, NC, 28277","Match","Exact","6101 ARDREY KELL RD, CHARLOTTE, NC, 28277",648378010,"L"
763477,"6101 BARBOURSVILLE LANE","N CHESTERFIELD","VA",23234,37.420057478,-77.5044663149999,477,"6101 BARBOURSVILLE LANE, N CHESTERFIELD, VA, 23234","Match","Exact","6101 BARBOURSVILLE LN, NORTH CHESTERFIELD, VA, 23234",650166946,"R"
763478,"6101 BEARD AVE N APT 18","BROOKLYN CENTER","MN",55429,45.0653094850001,-93.324271289,478,"6101 BEARD AVE N APT 18, BROOKLYN CENTER, MN, 55429","Match","Exact","6101 BEARD AVE N, BROOKLYN CENTER, MN, 55429",43651776,"L"
763479,"6101 BERRY LN","INDIAN RIVER","MI",49749,45.3737146660001,-84.627046583,479,"6101 BERRY LN, INDIAN RIVER, MI, 49749","Match","Exact","6101 BERRY LN, INDIAN RIVER, MI, 49749",134546176,"R"
763480,"6101 BETTCHER AVE","INDIANAPOLIS","IN",46228,39.8667372530001,-86.1951247759999,480,"6101 BETTCHER AVE, INDIANAPOLIS, IN, 46228","Match","Exact","6101 BETTCHER AVE, INDIANAPOLIS, IN, 46228",107982319,"R"
763481,"6101 BIG TREE RD","LIVONIA","NY",14487,42.8280651210001,-77.690466465,481,"6101 BIG TREE RD, LIVONIA, NY, 14487","Match","Exact","6101 BIG TREE RD, LIVONIA, NY, 14487",635847671,"R"
763482,"6101 BILOXI AVE","MOBILE","AL",36608,30.705430468,-88.201058734,482,"6101 BILOXI AVE, MOBILE, AL, 36608","Match","Exact","6101 BILOXI AVE, MOBILE, AL, 36608",61853167,"L"
763483,"6101 BISHOP BLVD","DALLAS","TX",75205,32.8404382140001,-96.785109523,483,"6101 BISHOP BLVD, DALLAS, TX, 75205","Match","Exact","6101 BISHOP BLVD, DALLAS, TX, 75205",102907725,"L"
763484,"6101 BOX OAK COURT","LANHAM","MD",20706,38.9738529090001,-76.831150156,484,"6101 BOX OAK COURT, LANHAM, MD, 20706","Match","Exact","6101 BOX OAK CT, LANHAM, MD, 20706",76355237,"R"
763485,"6101 BRANIFF DR","OKLAHOMA CITY","OK",NA,35.534814657,-97.5092848049999,485,"6101 BRANIFF DR, OKLAHOMA CITY, OK, ","Match","Exact","6101 BRANIFF DR, OKLAHOMA CITY, OK, 73105",100395582,"L"
763486,"6101 BROOKTREE COURT","MILFORD","OH",45150,39.196318503,-84.254838126,486,"6101 BROOKTREE COURT, MILFORD, OH, 45150","Match","Exact","6101 BROOKTREE CT, MILFORD, OH, 45150",118469094,"R"
763487,"6101 CANE GAP RD","DRUFFIELD","VA",24244,NA,NA,487,"6101 CANE GAP RD, DRUFFIELD, VA, 24244","No_Match",NA,NA,NA,NA
763488,"6101 CARNEGIE BLVD STE 310","CHARLOTTE","NC",28209,35.155870312,-80.838095776,488,"6101 CARNEGIE BLVD STE 310, CHARLOTTE, NC, 28209","Match","Exact","6101 CARNEGIE BLVD, CHARLOTTE, NC, 28209",648572286,"R"
763489,"6101 CARNEGIE BLVD","CHARLOTTE","NC",28209,35.155870312,-80.838095776,489,"6101 CARNEGIE BLVD, CHARLOTTE, NC, 28209","Match","Exact","6101 CARNEGIE BLVD, CHARLOTTE, NC, 28209",648572286,"R"
763490,"6101 CHAMBLEE CT NE","ALBUQUERQUE","NM",87111,35.15138905,-106.502052854,490,"6101 CHAMBLEE CT NE, ALBUQUERQUE, NM, 87111","Match","Exact","6101 CHAMBLEE CT NE, ALBUQUERQUE, NM, 87111",206741385,"R"
763491,"6101 CHERRY AVE","FONTANA","CA",92336,34.14642179,-117.488301275,491,"6101 CHERRY AVE, FONTANA, CA, 92336","Match","Non_Exact","6101 CHERRY AVE, FONTANA, CA, 92335",616140916,"L"
763492,"6101 CREEK VIEW TRAIL","MINNETONKA","MN",55345,44.89337705,-93.5153547739999,492,"6101 CREEK VIEW TRAIL, MINNETONKA, MN, 55345","Match","Exact","6101 CREEK VIEW TRL, MINNETONKA, MN, 55345",43838193,"L"
763493,"6101 CRESCENT CHASE","JOHNSTON","IA",50131,41.6705812450001,-93.734743833,493,"6101 CRESCENT CHASE, JOHNSTON, IA, 50131","Match","Exact","6101 CRESCENT CHASE, JOHNSTON, IA, 50131",636229530,"R"
763494,"6101 CUMBERLAND","CORPUS CHRISTI","TX",78414,27.675161324,-97.378073711,494,"6101 CUMBERLAND, CORPUS CHRISTI, TX, 78414","Match","Non_Exact","6101 CUMBERLAND CIR, CORPUS CHRISTI, TX, 78414",178535935,"R"
763495,"6101 DELMAR BLVD STE A","ST LOUIS","MO",63112,38.655085484,-90.296143055,495,"6101 DELMAR BLVD STE A, ST LOUIS, MO, 63112","Match","Exact","6101 DELMAR BLVD, SAINT LOUIS, MO, 63112",605104868,"R"
763496,"6101 DELMAR BLVD","ST LOUIS","MO",63112,38.655085484,-90.296143055,496,"6101 DELMAR BLVD, ST LOUIS, MO, 63112","Match","Exact","6101 DELMAR BLVD, SAINT LOUIS, MO, 63112",605104868,"R"
763497,"6101 DIX STREET NE","WASHINGTON","DC",20019,38.8944591000001,-76.913551673,497,"6101 DIX STREET NE, WASHINGTON, DC, 20019","Match","Exact","6101 DIX ST NE, WASHINGTON, DC, 20019",76234202,"R"
763498,"6101 EAST N SHERMAN RD","CHICAGO","IL",60660,NA,NA,498,"6101 EAST N SHERMAN RD, CHICAGO, IL, 60660","No_Match",NA,NA,NA,NA
763499,"6101 EDSALL ROAD APT 1601","ALEXANDRIA","VA",22304,38.8077668610001,-77.138552191,499,"6101 EDSALL ROAD APT 1601, ALEXANDRIA, VA, 22304","Match","Exact","6101 EDSALL RD, ALEXANDRIA, VA, 22304",611508098,"R"
763500,"6101 EDSALL ROAD UNIT 1006","ALEXANDRIA","VA",22304,38.8077668610001,-77.138552191,500,"6101 EDSALL ROAD UNIT 1006, ALEXANDRIA, VA, 22304","Match","Exact","6101 EDSALL RD, ALEXANDRIA, VA, 22304",611508098,"R"
