"ID","Address","City","State","Zip","lat","long","id","input_address","match_indicator","match_type","matched_address","tiger_line_id","tiger_side"
369501,"2261 BROOKHOLLOW PLZ DR STE 210","ARLINGTON","TX",76006,NA,NA,1,"2261 BROOKHOLLOW PLZ DR STE 210, ARLINGTON, TX, 76006","No_Match",NA,NA,NA,NA
369502,"2261 BROOKHOLLW PLZ DR STE 210","ARLINGTON","TX",76006,NA,NA,2,"2261 BROOKHOLLW PLZ DR STE 210, ARLINGTON, TX, 76006","No_Match",NA,NA,NA,NA
369503,"2261 BROOKRIDGE TRAIL","SANFORD","FL",32773,28.7631455220001,-81.300049309,3,"2261 BROOKRIDGE TRAIL, SANFORD, FL, 32773","Match","Exact","2261 BROOKRIDGE TRL, SANFORD, FL, 32773",647554663,"L"
369504,"2261 CAMINITO CABALA","LA JOLLA","CA",92037,NA,NA,4,"2261 CAMINITO CABALA, LA JOLLA, CA, 92037","No_Match",NA,NA,NA,NA
369505,"2261 CANTERBURY LANE","MELBOURNE","FL",32935,28.174716592,-80.6592406629999,5,"2261 CANTERBURY LANE, MELBOURNE, FL, 32935","Match","Exact","2261 CANTERBURY LN, MELBOURNE, FL, 32935",93900315,"L"
369506,"2261 CANTERBURY LANE","PALM BAY","FL",32909,NA,NA,6,"2261 CANTERBURY LANE, PALM BAY, FL, 32909","No_Match",NA,NA,NA,NA
369507,"2261 CHESTNUT ST","DANVILLE","CA",94526,NA,NA,7,"2261 CHESTNUT ST, DANVILLE, CA, 94526","No_Match",NA,NA,NA,NA
369508,"2261 COLFAX AVE","COLUMBUS","OH",43227,40.0547703230001,-82.957953314,8,"2261 COLFAX AVE, COLUMBUS, OH, 43227","Match","Non_Exact","2261 COLFAX AVE, COLUMBUS, OH, 43224",218659216,"R"
369509,"2261 COSTARIDES ST","M","AL",36617,30.7000936530001,-88.0911693479999,9,"2261 COSTARIDES ST, M, AL, 36617","Match","Non_Exact","2261 COSTARIDES ST, MOBILE, AL, 36617",61859945,"L"
369510,"2261 CRANE","WATERFORD","MI",48329,42.6716173940001,-83.382551163,10,"2261 CRANE, WATERFORD, MI, 48329","Match","Non_Exact","2261 CRANE ST, WATERFORD, MI, 48329",69753960,"L"
369511,"2261 E CAMERON BRIDGE ROAD","BOZEMAN","MT",59718,45.7438658250001,-111.139365316,11,"2261 E CAMERON BRIDGE ROAD, BOZEMAN, MT, 59718","Match","Exact","2261 E CAMERON BRIDGE RD, BOZEMAN, MT, 59718",163552078,"L"
369512,"2261 ELDERS MILL","SENOIA","GA",30276,33.262379977,-84.634312944,12,"2261 ELDERS MILL, SENOIA, GA, 30276","Match","Non_Exact","2261 ELDERS MILL RD, SENOIA, GA, 30276",9337785,"L"
369513,"2261 ELLINGTON GAIT DRIVE","CLARKSVILLE","TN",37043,36.566685841,-87.2771412549999,13,"2261 ELLINGTON GAIT DRIVE, CLARKSVILLE, TN, 37043","Match","Exact","2261 ELLINGTON GAIT DR, CLARKSVILLE, TN, 37043",643561306,"L"
369514,"2261 FLORENCE STREET","CANON CITY","CO",81212,38.4500727860001,-105.214823833,14,"2261 FLORENCE STREET, CANON CITY, CO, 81212","Match","Exact","2261 FLORENCE ST, CANON CITY, CO, 81212",108288295,"R"
369515,"2261 HANNAH WAY SOUTH","DUNEDIN","FL",34698,28.042828915,-82.7444122109999,15,"2261 HANNAH WAY SOUTH, DUNEDIN, FL, 34698","Match","Exact","2261 HANNAH WAY S, DUNEDIN, FL, 34698",124829907,"R"
369516,"2261 HEDGEROW RD UNIT-E","COLUMBUS","OH",43220,40.0635756410001,-83.077727076,16,"2261 HEDGEROW RD UNIT-E, COLUMBUS, OH, 43220","Match","Exact","2261 HEDGEROW RD, COLUMBUS, OH, 43220",648724941,"L"
369517,"2261 HERMITAGE CT","INDIANAPOLIS","IN",46224,39.7979879420001,-86.257606959,17,"2261 HERMITAGE CT, INDIANAPOLIS, IN, 46224","Match","Exact","2261 HERMITAGE CT, INDIANAPOLIS, IN, 46224",635521345,"R"
369518,"2261 HUASNA ROAD","ARROYO GRANDE","CA",93420,35.1346875570001,-120.532200088,18,"2261 HUASNA ROAD, ARROYO GRANDE, CA, 93420","Match","Exact","2261 HUASNA RD, ARROYO GRANDE, CA, 93420",109738644,"L"
369519,"2261 HUGHES AVE SUITE 133","JBSA LACKLAND","TX",78236,NA,NA,19,"2261 HUGHES AVE SUITE 133, JBSA LACKLAND, TX, 78236","No_Match",NA,NA,NA,NA
369520,"2261 KAMM AVENUE","KINGSBURG","CA",93631,36.5323446950001,-119.542624426,20,"2261 KAMM AVENUE, KINGSBURG, CA, 93631","Match","Non_Exact","2261 E KAMM AVE, KINGSBURG, CA, 93631",649148489,"L"
369521,"2261 KENNEDY BLVD APT 3","BAYONNE","NJ",7002,NA,NA,21,"2261 KENNEDY BLVD APT 3, BAYONNE, NJ, 7002","No_Match",NA,NA,NA,NA
369522,"2261 L ROAD","GRAND JUNCTION","CO",81505,39.178648138,-108.630949006,22,"2261 L ROAD, GRAND JUNCTION, CO, 81505","Match","Exact","2261 L RD, GRAND JCT, CO, 81505",122462861,"R"
369523,"2261 LAKESIDE TERR","EUSTIS","FL",32726,28.8415507130001,-81.6605906999999,23,"2261 LAKESIDE TERR, EUSTIS, FL, 32726","Match","Exact","2261 LAKESIDE TER, EUSTIS, FL, 32726",94112673,"R"
369524,"2261 LAWRENCE RD","CLOVER","SC",29710,35.079665473,-81.2732542319999,24,"2261 LAWRENCE RD, CLOVER, SC, 29710","Match","Exact","2261 LAWRENCE RD, CLOVER, SC, 29710",19784777,"R"
369525,"2261 LOCKWOOD LAKE CIRCLE WEST","SARASOTA","FL",34234,NA,NA,25,"2261 LOCKWOOD LAKE CIRCLE WEST, SARASOTA, FL, 34234","No_Match",NA,NA,NA,NA
369526,"2261 MAIN STREET","FORT MYERS","FL",33901,26.643621383,-81.86891424,26,"2261 MAIN STREET, FORT MYERS, FL, 33901","Match","Exact","2261 MAIN ST, FORT MYERS, FL, 33901",118021310,"L"
369527,"2261 MARKET ST UNIT 455-A","SAN FRANCISCO","CA",94114,37.7647877570001,-122.432228991,27,"2261 MARKET ST UNIT 455-A, SAN FRANCISCO, CA, 94114","Match","Exact","2261 MARKET ST, SAN FRANCISCO, CA, 94114",192301138,"L"
369528,"2261 MARKET STREET - 170A","SAN FRANCISCO","CA",94114,37.7647877570001,-122.432228991,28,"2261 MARKET STREET - 170A, SAN FRANCISCO, CA, 94114","Match","Exact","2261 MARKET ST, SAN FRANCISCO, CA, 94114",192301138,"L"
369529,"2261 MARKET STREET 317","SAN FRANCISCO","CA",94114,37.7647877570001,-122.432228991,29,"2261 MARKET STREET 317, SAN FRANCISCO, CA, 94114","Match","Exact","2261 MARKET ST, SAN FRANCISCO, CA, 94114",192301138,"L"
369530,"2261 MARKET STREET NUMBER 404A","SAN FRANCISCO","CA",94114,37.7647877570001,-122.432228991,30,"2261 MARKET STREET NUMBER 404A, SAN FRANCISCO, CA, 94114","Match","Exact","2261 MARKET ST, SAN FRANCISCO, CA, 94114",192301138,"L"
369531,"2261 MARKET STREET SUITE 142","SAN FRANCISCO","CA",94114,37.7647877570001,-122.432228991,31,"2261 MARKET STREET SUITE 142, SAN FRANCISCO, CA, 94114","Match","Exact","2261 MARKET ST, SAN FRANCISCO, CA, 94114",192301138,"L"
369532,"2261 MUELLER DRIVE APT 302","WINSTON SALEM","NC",27106,36.1651312440001,-80.325852008,32,"2261 MUELLER DRIVE APT 302, WINSTON SALEM, NC, 27106","Match","Exact","2261 MUELLER DR, WINSTON SALEM, NC, 27106",624275160,"R"
369533,"2261 NE 38TH DRIVE","GRESHAM","OR",97030,45.5237345620001,-122.409357204,33,"2261 NE 38TH DRIVE, GRESHAM, OR, 97030","Match","Exact","2261 NE 38TH DR, GRESHAM, OR, 97030",157536866,"L"
369534,"2261 NICHOLS","TRENTON","MI",48183,42.1475340260001,-83.198778537,34,"2261 NICHOLS, TRENTON, MI, 48183","Match","Non_Exact","2261 NICHOLS ST, TRENTON, MI, 48183",95458346,"L"
369535,"2261 NORTH PARK DR SUITE 112","KINGWOOD","TX",77339,NA,NA,35,"2261 NORTH PARK DR SUITE 112, KINGWOOD, TX, 77339","No_Match",NA,NA,NA,NA
369536,"2261 NORTHPARK DRIVE  117","KINGWOOD","TX",77339,NA,NA,36,"2261 NORTHPARK DRIVE  117, KINGWOOD, TX, 77339","No_Match",NA,NA,NA,NA
369537,"2261 NORTHPARK DRIVE 117","KINGWOOD","TX",77339,NA,NA,37,"2261 NORTHPARK DRIVE 117, KINGWOOD, TX, 77339","No_Match",NA,NA,NA,NA
369538,"2261 NORTHPARK DRIVE 407","KINGWOOD","TX",77339,NA,NA,38,"2261 NORTHPARK DRIVE 407, KINGWOOD, TX, 77339","No_Match",NA,NA,NA,NA
369539,"2261 NORTHPARK DRIVE NO 113","KINGWOOD","TX",77339,NA,NA,39,"2261 NORTHPARK DRIVE NO 113, KINGWOOD, TX, 77339","No_Match",NA,NA,NA,NA
369540,"2261 NUTMEG AVENUE","WASHINGTON","IA",52353,41.329497422,-91.697366244,40,"2261 NUTMEG AVENUE, WASHINGTON, IA, 52353","Match","Exact","2261 NUTMEG AVE, WASHINGTON, IA, 52353",84182889,"L"
369541,"2261 NW 58TH STREET","MIAMI","FL",33142,25.8277944160001,-80.234066092,41,"2261 NW 58TH STREET, MIAMI, FL, 33142","Match","Exact","2261 NW 58TH ST, MIAMI, FL, 33142",116002283,"R"
369542,"2261 OLD GARDINER RD SUITE 110","SEQUIM","WA",98382,NA,NA,42,"2261 OLD GARDINER RD SUITE 110, SEQUIM, WA, 98382","No_Match",NA,NA,NA,NA
369543,"2261 OXON RUN DRIVE","TEMPLE HILLS","MD",20748,38.843160787,-76.967659676,43,"2261 OXON RUN DRIVE, TEMPLE HILLS, MD, 20748","Match","Exact","2261 OXON RUN DR, TEMPLE HILLS, MD, 20748",76369747,"R"
369544,"2261 POCOSIN CT","JACKSONVILLE","FL",32246,30.3114016820001,-81.4604157859999,44,"2261 POCOSIN CT, JACKSONVILLE, FL, 32246","Match","Exact","2261 POCOSIN CT, JACKSONVILLE, FL, 32246",83930831,"L"
369545,"2261 RITTER PLACE","ESCONDIDO","CA",92029,33.087404125,-117.090825853,45,"2261 RITTER PLACE, ESCONDIDO, CA, 92029","Match","Exact","2261 RITTER PL, ESCONDIDO, CA, 92029",195381542,"R"
369546,"2261 SE WILLOWDALE LANE","PRINEVILLE","OR",97754,44.2960762100001,-120.819407122,46,"2261 SE WILLOWDALE LANE, PRINEVILLE, OR, 97754","Match","Exact","2261 SE WILLOWDALE LN, PRINEVILLE, OR, 97754",152398177,"L"
369547,"2261 SHORESIDE DRIVE","BERTHOUD","CO",80513,40.331082307,-105.137612797,47,"2261 SHORESIDE DRIVE, BERTHOUD, CO, 80513","Match","Exact","2261 SHORESIDE DR, BERTHOUD, CO, 80513",188610673,"L"
369548,"2261 SILVER LEAF DRIVE APT 8","MEMPHIS","TN",38134,35.186984975,-89.8700122,48,"2261 SILVER LEAF DRIVE APT 8, MEMPHIS, TN, 38134","Match","Non_Exact","2261 SILVERLEAF DR, MEMPHIS, TN, 38134",72968397,"R"
369549,"2261 SOUTH REDWOOD ROAD","SALT LAKE CITY","UT",84119,40.7216790080001,-111.93895671,49,"2261 SOUTH REDWOOD ROAD, SALT LAKE CITY, UT, 84119","Match","Exact","2261 S REDWOOD RD, SALT LAKE CITY, UT, 84119",176114974,"L"
369550,"2261 TALMADGE RD STE 383","LOVEJOY","GA",30228,33.4329358090001,-84.318022462,50,"2261 TALMADGE RD STE 383, LOVEJOY, GA, 30228","Match","Non_Exact","2261 TALMADGE RD, HAMPTON, GA, 30228",638100708,"R"
369551,"2261 TALMADGE ROAD - POB 644","LOVEJOY","GA",30250,NA,NA,51,"2261 TALMADGE ROAD - POB 644, LOVEJOY, GA, 30250","No_Match",NA,NA,NA,NA
369552,"2261 TALMADGE ROAD UNIT 706","LOVEJOY","GA",30250,NA,NA,52,"2261 TALMADGE ROAD UNIT 706, LOVEJOY, GA, 30250","No_Match",NA,NA,NA,NA
369553,"2261 THOMAS JEFFERSON RD","FOREST","VA",24551,37.34838597,-79.2830148369999,53,"2261 THOMAS JEFFERSON RD, FOREST, VA, 24551","Match","Exact","2261 THOMAS JEFFERSON RD, FOREST, VA, 24551",228438020,"L"
369554,"2261 TIMBER COVE","GREENVILLE","MS",38701,33.3573135600001,-91.0510082439999,54,"2261 TIMBER COVE, GREENVILLE, MS, 38701","Match","Exact","2261 TIMBER COVE, GREENVILLE, MS, 38701",1156766,"L"
369555,"2261 VANESSA DR","BIRMINGHAM","AL",35242,33.4045448580001,-86.751628481,55,"2261 VANESSA DR, BIRMINGHAM, AL, 35242","Match","Exact","2261 VANESSA DR, BIRMINGHAM, AL, 35242",652628193,"L"
369556,"2261 VILLA VERDE RD","ESCONDIDO","CA",92029,33.0926990410001,-117.101522083,56,"2261 VILLA VERDE RD, ESCONDIDO, CA, 92029","Match","Exact","2261 VILLA VERDE RD, ESCONDIDO, CA, 92029",195421434,"L"
369557,"2261 W 115TH ST","CHICAGO","IL",60653,41.6843136030001,-87.678501629,57,"2261 W 115TH ST, CHICAGO, IL, 60653","Match","Non_Exact","2261 W 115TH ST, CHICAGO, IL, 60643",641735927,"L"
369558,"2261 W RAMSEY DR","DECATUR","IL",62526,NA,NA,58,"2261 W RAMSEY DR, DECATUR, IL, 62526","Tie",NA,NA,NA,NA
369559,"2261 W WOODBINE","DECATUR","IL",62526,39.8672054950001,-88.990209389,59,"2261 W WOODBINE, DECATUR, IL, 62526","Match","Non_Exact","2261 W WOODBINE DR, DECATUR, IL, 62526",20743276,"L"
369560,"2261 YELLOW PINE COURT","ORANGE PARK","FL",32073,30.1476021290001,-81.746419502,60,"2261 YELLOW PINE COURT, ORANGE PARK, FL, 32073","Match","Exact","2261 YELLOW PINE CT, ORANGE PARK, FL, 32073",83814774,"L"
369561,"2261-A STEPPING STONES WAY","COLORADO SPRINGS","CO",80904,NA,NA,61,"2261-A STEPPING STONES WAY, COLORADO SPRINGS, CO, 80904","No_Match",NA,NA,NA,NA
369562,"22610 CLAIRWOOD","ST CLAIR SHORES","MI",48080,42.464276779,-82.893584588,62,"22610 CLAIRWOOD, ST CLAIR SHORES, MI, 48080","Match","Non_Exact","22610 CLAIRWOOD ST, SAINT CLAIR SHORES, MI, 48080",110686338,"R"
369563,"22610 E ONTARIO DR UNIT 201","AURORA","CO",80016,39.5933588020001,-104.725216137,63,"22610 E ONTARIO DR UNIT 201, AURORA, CO, 80016","Match","Non_Exact","22610 E ONTARIO DR, AURORA, CO, 80016",177560519,"R"
369564,"22610 HWY 63","BLOOMFIELD","IA",52537,40.7178499870001,-92.5047604709999,64,"22610 HWY 63, BLOOMFIELD, IA, 52537","Match","Non_Exact","22610 US HWY 63, BLOOMFIELD, IA, 52537",54656029,"R"
369565,"22610 MAPLE COURT","HAZEL PARK","MI",48030,42.458597915,-83.092938466,65,"22610 MAPLE COURT, HAZEL PARK, MI, 48030","Match","Exact","22610 MAPLE CT, HAZEL PARK, MI, 48030",69811814,"R"
369566,"22610 TWO LAKES DR","TOMBALL","TX",77375,30.0760999560001,-95.563115323,66,"22610 TWO LAKES DR, TOMBALL, TX, 77375","Match","Exact","22610 TWO LAKES DR, TOMBALL, TX, 77375",642045598,"R"
369567,"22610 W 49TH TERR","SHAWNEE","KS",66226,39.038621317,-94.8476580829999,67,"22610 W 49TH TERR, SHAWNEE, KS, 66226","Match","Exact","22610 W 49TH TER, SHAWNEE, KS, 66226",91308183,"R"
369568,"22611 BRAESIDE CIR APT 105","FARMINGTON HILLS","MI",48335,42.4573288930001,-83.394280164,68,"22611 BRAESIDE CIR APT 105, FARMINGTON HILLS, MI, 48335","Match","Exact","22611 BRAESIDE CIR, FARMINGTON HILLS, MI, 48335",69775893,"R"
369569,"22611 NICHOLAS AVE","EUCLID","OH",44123,41.5933322220001,-81.524265096,69,"22611 NICHOLAS AVE, EUCLID, OH, 44123","Match","Exact","22611 NICHOLAS AVE, EUCLID, OH, 44123",61108687,"L"
369570,"22611 STRAWBERRY COURT APT 207","NOVI","MI",48375,42.455482052,-83.4388980699999,70,"22611 STRAWBERRY COURT APT 207, NOVI, MI, 48375","Match","Exact","22611 STRAWBERRY CT, NOVI, MI, 48375",69755158,"R"
369571,"22611 TINDAYA","MISSION VIEJO","CA",92692,33.6346921520001,-117.638682452,71,"22611 TINDAYA, MISSION VIEJO, CA, 92692","Match","Exact","22611 TINDAYA, MISSION VIEJO, CA, 92692",144389036,"L"
369572,"22612 COUNTY RD 455","HOWEY IN THE HILLS","FL",34737,28.6700543790001,-81.776348967,72,"22612 COUNTY RD 455, HOWEY IN THE HILLS, FL, 34737","Match","Exact","22612 CO RD 455, HOWEY IN THE HILLS, FL, 34737",635551830,"R"
369573,"22613 PLEASANT DRIVE UNIT 13","RICHTON PARK","IL",60471,41.478462902,-87.733080882,73,"22613 PLEASANT DRIVE UNIT 13, RICHTON PARK, IL, 60471","Match","Exact","22613 PLEASANT DR, RICHTON PARK, IL, 60471",111708099,"L"
369574,"22614 BROADWAY AVE","CLARKSBURG","MD",20871,39.223378348,-77.289033484,74,"22614 BROADWAY AVE, CLARKSBURG, MD, 20871","Match","Exact","22614 BROADWAY AVE, CLARKSBURG, MD, 20871",650604609,"R"
369575,"22614 PLUM CREEK DR","SAUK VILLAGE","IL",60411,41.480250019,-87.553718561,75,"22614 PLUM CREEK DR, SAUK VILLAGE, IL, 60411","Match","Exact","22614 PLUM CREEK DR, SAUK VILLAGE, IL, 60411",605774827,"R"
369576,"22614 SCATTERSVILLE GAP TERRACE","ASHBURN","VA",20148,38.9899698290001,-77.488514628,76,"22614 SCATTERSVILLE GAP TERRACE, ASHBURN, VA, 20148","Match","Exact","22614 SCATTERSVILLE GAP TER, ASHBURN, VA, 20148",62353221,"L"
369577,"22614 VALLEY BROOK CT","HAYWARD","CA",94541,37.6872994760001,-122.049025816,77,"22614 VALLEY BROOK CT, HAYWARD, CA, 94541","Match","Exact","22614 VALLEY BROOK CT, HAYWARD, CA, 94541",125016135,"R"
369578,"22615 FRANCIS STREET","ST CLAIR SHORES","MI",48082,42.5192407000001,-82.885386916,78,"22615 FRANCIS STREET, ST CLAIR SHORES, MI, 48082","Match","Exact","22615 FRANCIS ST, SAINT CLAIR SHORES, MI, 48082",110699776,"L"
369579,"22615 MARTIN ST","SALIDA","CO",81201,38.5523756760001,-106.291939338,79,"22615 MARTIN ST, SALIDA, CO, 81201","Match","Non_Exact","22615 MARTIN ST, SALIDA, CO, 81227",108260925,"L"
369580,"22615 THOMSON","CLINTON TOWNSHIP","MI",48035,42.5650094160001,-82.887853118,80,"22615 THOMSON, CLINTON TOWNSHIP, MI, 48035","Match","Non_Exact","22615 THOMSON ST, CLINTON TOWNSHIP, MI, 48035",110683025,"L"
369581,"22615 WINDBOURNE","TOMBALL","TX",77375,30.07697146,-95.563165614,81,"22615 WINDBOURNE, TOMBALL, TX, 77375","Match","Non_Exact","22615 WINDBOURNE DR, TOMBALL, TX, 77375",628032062,"R"
369582,"22615 WINDOURNE","TOMBALL","TX",77375,NA,NA,82,"22615 WINDOURNE, TOMBALL, TX, 77375","No_Match",NA,NA,NA,NA
369583,"22616 LILY PAD LANE","FRANKFORT","IL",60423,41.479676855,-87.796766785,83,"22616 LILY PAD LANE, FRANKFORT, IL, 60423","Match","Non_Exact","22616 LILLY PAD LN, FRANKFORT, IL, 60423",111638524,"R"
369584,"22616 MANOR","SAINT CLAIR SHORES","MI",48081,42.481868789,-82.885597949,84,"22616 MANOR, SAINT CLAIR SHORES, MI, 48081","Match","Non_Exact","22616 MANOR ST, SAINT CLAIR SHORES, MI, 48081",110686626,"R"
369585,"22616 SHALLOW SPRING COURT","KATY","TX",77494,29.716462544,-95.770876368,85,"22616 SHALLOW SPRING COURT, KATY, TX, 77494","Match","Exact","22616 SHALLOW SPRING CT, KATY, TX, 77494",78332491,"R"
369586,"22616 W ARLINGTON RD","ARLINGTON","KS",67514,37.897524778,-98.25712994,86,"22616 W ARLINGTON RD, ARLINGTON, KS, 67514","Match","Exact","22616 W ARLINGTON RD, ARLINGTON, KS, 67514",142941996,"R"
369587,"22616 ZALTANA ST","CHATSWORTH","CA",91311,34.278002122,-118.620578868,87,"22616 ZALTANA ST, CHATSWORTH, CA, 91311","Match","Exact","22616 ZALTANA ST, CHATSWORTH, CA, 91311",638619814,"L"
369588,"22616 ZALTANA STREET","CHATSWORTH","CA",91311,34.278002122,-118.620578868,88,"22616 ZALTANA STREET, CHATSWORTH, CA, 91311","Match","Exact","22616 ZALTANA ST, CHATSWORTH, CA, 91311",638619814,"L"
369589,"22617 AVENMAR DR","LEONARDTOWN","MD",20650,38.2885049700001,-76.669908618,89,"22617 AVENMAR DR, LEONARDTOWN, MD, 20650","Match","Exact","22617 AVENMAR DR, LEONARDTOWN, MD, 20650",36643686,"L"
369590,"22617 NE 209TH AVE","BATTLE GROUND","WA",98604,45.7869569870001,-122.45787729,90,"22617 NE 209TH AVE, BATTLE GROUND, WA, 98604","Match","Exact","22617 NE 209TH AVE, BATTLE GROUND, WA, 98604",158350645,"L"
369591,"22617 SUMMER LANE","NOVI","MI",48374,42.4529825560001,-83.512133983,91,"22617 SUMMER LANE, NOVI, MI, 48374","Match","Exact","22617 SUMMER LN, NOVI, MI, 48374",69782204,"R"
369592,"22618 BIRCH POINT DR","KATY","TX",77450,29.7605028830001,-95.76088888,92,"22618 BIRCH POINT DR, KATY, TX, 77450","Match","Exact","22618 BIRCH POINT DR, KATY, TX, 77450",96623249,"R"
369593,"22618 FIGUEROA ST APT 12","CARSON","CA",90745,33.820661016,-118.286034804,93,"22618 FIGUEROA ST APT 12, CARSON, CA, 90745","Match","Non_Exact","22618 S FIGUEROA ST, CARSON, CA, 90745",142759849,"L"
369594,"22618 MEADOWGATE DRIVE","SPRING","TX",77373,30.0420136650001,-95.345500871,94,"22618 MEADOWGATE DRIVE, SPRING, TX, 77373","Match","Exact","22618 MEADOWGATE DR, SPRING, TX, 77373",96043096,"R"
369595,"22619 PACIFIC COAST HIGHWAY STE 2A","MALIBU","CA",90265,34.039515882,-118.661753365,95,"22619 PACIFIC COAST HIGHWAY STE 2A, MALIBU, CA, 90265","Match","Exact","22619 PACIFIC COAST HWY, MALIBU, CA, 90265",640106708,"R"
369596,"22619 SUNSET GLEN LANE","SPRING","TX",77373,30.039060148,-95.410269109,96,"22619 SUNSET GLEN LANE, SPRING, TX, 77373","Match","Exact","22619 SUNSET GLEN LN, SPRING, TX, 77373",625721496,"R"
369597,"2262 250TH ST","GUTHRIE CENTER","IA",50115,41.6451169360001,-94.5022245499999,97,"2262 250TH ST, GUTHRIE CENTER, IA, 50115","Match","Exact","2262 250TH ST, GUTHRIE CENTER, IA, 50115",68681039,"L"
369598,"2262 AMERICANA DR","ROSEVILLE","CA",95747,38.7568889090001,-121.314993071,98,"2262 AMERICANA DR, ROSEVILLE, CA, 95747","Match","Exact","2262 AMERICANA DR, ROSEVILLE, CA, 95747",106782363,"L"
369599,"2262 BERRYHILL ST","HARRISBURG","PA",17104,40.263533529,-76.850150339,99,"2262 BERRYHILL ST, HARRISBURG, PA, 17104","Match","Exact","2262 BERRYHILL ST, HARRISBURG, PA, 17104",70821526,"L"
369600,"2262 BICKEL CHURCH ROAD NE","BALTIMORE","OH",43105,39.869417384,-82.541203066,100,"2262 BICKEL CHURCH ROAD NE, BALTIMORE, OH, 43105","Match","Exact","2262 BICKEL CHURCH RD NE, BALTIMORE, OH, 43105",37217995,"R"
369601,"2262 BOXSTER WAY","LAS CRUCES","NM",88001,32.341745959,-106.77115196,101,"2262 BOXSTER WAY, LAS CRUCES, NM, 88001","Match","Exact","2262 BOXSTER WAY, LAS CRUCES, NM, 88001",625339081,"L"
369602,"2262 BURCH CIR NE","BROOKHAVEN","GA",30319,33.8530945590001,-84.322739282,102,"2262 BURCH CIR NE, BROOKHAVEN, GA, 30319","Match","Exact","2262 BURCH CIR NE, BROOKHAVEN, GA, 30319",23358968,"L"
369603,"2262 CAMINO RAMON","SAN RAMON","CA",94583,NA,NA,103,"2262 CAMINO RAMON, SAN RAMON, CA, 94583","No_Match",NA,NA,NA,NA
369604,"2262 CUTLER STREET","SIMI VALLEY","CA",93065,34.260102196,-118.753873067,104,"2262 CUTLER STREET, SIMI VALLEY, CA, 93065","Match","Exact","2262 CUTLER ST, SIMI VALLEY, CA, 93065",109971141,"R"
369605,"2262 E STRAUSS ST","MERIDIAN","ID",83646,43.653666957,-116.365867243,105,"2262 E STRAUSS ST, MERIDIAN, ID, 83646","Match","Exact","2262 E STRAUSS ST, MERIDIAN, ID, 83646",117936679,"L"
369606,"2262 E TOMAHAWK DR","GILBERT","AZ",85298,33.2076037690001,-111.740763566,106,"2262 E TOMAHAWK DR, GILBERT, AZ, 85298","Match","Exact","2262 E TOMAHAWK DR, GILBERT, AZ, 85298",640933377,"L"
369607,"2262 EAST 7TH STREET","BROOKLYN","NY",11223,40.5952235670001,-73.963587886,107,"2262 EAST 7TH STREET, BROOKLYN, NY, 11223","Match","Exact","2262 E 7TH ST, BROOKLYN, NY, 11223",59090996,"R"
369608,"2262 FREEMANSBURG AVE","Easton","PA",18042,40.679399274,-75.242026784,108,"2262 FREEMANSBURG AVE, Easton, PA, 18042","Match","Exact","2262 FREEMANSBURG AVE, EASTON, PA, 18042",136912189,"L"
369609,"2262 GLENVIEW DR","FREEPORT","IL",61032,42.3343087370001,-89.63478302,109,"2262 GLENVIEW DR, FREEPORT, IL, 61032","Match","Exact","2262 GLENVIEW DR, FREEPORT, IL, 61032",32693146,"L"
369610,"2262 GREENS LN","SPANISH FORK","UT",84660,40.080426366,-111.600910502,110,"2262 GREENS LN, SPANISH FORK, UT, 84660","Match","Exact","2262 GREENS LN, SPANISH FORK, UT, 84660",134240919,"R"
369611,"2262 HWY 139","MONROE","LA",71203,32.585371954,-91.9866674949999,111,"2262 HWY 139, MONROE, LA, 71203","Match","Exact","2262 HWY 139, MONROE, LA, 71203",612358873,"R"
369612,"2262 JACKSON DR","ARNOLD","MO",63010,38.4487168160001,-90.359875792,112,"2262 JACKSON DR, ARNOLD, MO, 63010","Match","Exact","2262 JACKSON DR, ARNOLD, MO, 63010",62794089,"L"
369613,"2262 LOMBARDY","CORPUS CHRISTI","TX",78418,27.6507134570001,-97.295205364,113,"2262 LOMBARDY, CORPUS CHRISTI, TX, 78418","Match","Non_Exact","2262 LOMBARDY DR, CORPUS CHRISTI, TX, 78418",178523127,"R"
369614,"2262 LOW COUNTRY BLVD","LELAND","NC",28451,34.1932007570001,-78.040553313,114,"2262 LOW COUNTRY BLVD, LELAND, NC, 28451","Match","Exact","2262 LOW COUNTRY BLVD, LELAND, NC, 28451",651381938,"R"
369615,"2262 MIDDLETOWN DRIVE","CAMPBELL","CA",95008,37.280117445,-121.969469222,115,"2262 MIDDLETOWN DRIVE, CAMPBELL, CA, 95008","Match","Exact","2262 MIDDLETOWN DR, CAMPBELL, CA, 95008",122901837,"L"
369616,"2262 MORGAN DR","AUBURN","AL",36830,32.5706823690001,-85.440890745,116,"2262 MORGAN DR, AUBURN, AL, 36830","Match","Exact","2262 MORGAN DR, AUBURN, AL, 36830",646906554,"L"
369617,"2262 N MAPLE AVE","ASHVILLE","NY",14710,42.098038317,-79.376658477,117,"2262 N MAPLE AVE, ASHVILLE, NY, 14710","Match","Exact","2262 N MAPLE AVE, ASHVILLE, NY, 14710",120768362,"R"
369618,"2262 N OLD US HIGHWAY 31","46975","IN",46975,41.087882796,-86.215186782,118,"2262 N OLD US HIGHWAY 31, 46975, IN, 46975","Match","Non_Exact","2262 N OLD US HWY 31, ROCHESTER, IN, 46975",7849040,"L"
369619,"2262 NW 103 STREET","MIAMI","FL",33147,25.8682870370001,-80.23557356,119,"2262 NW 103 STREET, MIAMI, FL, 33147","Match","Exact","2262 NW 103RD ST, MIAMI, FL, 33147",115998807,"L"
369620,"2262 NW INDEPENDENCE HWY","ALBANY","OR",97321,44.6640987980001,-123.181204173,120,"2262 NW INDEPENDENCE HWY, ALBANY, OR, 97321","Match","Exact","2262 NW INDEPENDENCE HWY, ALBANY, OR, 97321",155842423,"L"
369621,"2262 PHILBECK CROSSROADS","SKIPWITH","VA",23968,36.772302079,-78.56067562,121,"2262 PHILBECK CROSSROADS, SKIPWITH, VA, 23968","Match","Exact","2262 PHILBECK CROSSROADS, SKIPWITH, VA, 23968",54320743,"L"
369622,"2262 PLAINFIELD PLACE","OXNARD","CA",93036,34.2284937760001,-119.197180921,122,"2262 PLAINFIELD PLACE, OXNARD, CA, 93036","Match","Exact","2262 PLAINFIELD PL, OXNARD, CA, 93036",110008674,"R"
369623,"2262 RIDGE ROAD","ATLANTA","GA",30317,NA,NA,123,"2262 RIDGE ROAD, ATLANTA, GA, 30317","No_Match",NA,NA,NA,NA
369624,"2262 RIDING CROP WAY","BALTIMORE","AL",21244,NA,NA,124,"2262 RIDING CROP WAY, BALTIMORE, AL, 21244","No_Match",NA,NA,NA,NA
369625,"2262 ROCK VIEW GLEN","ESCONDIDO","CA",92026,33.170627831,-117.132674383,125,"2262 ROCK VIEW GLEN, ESCONDIDO, CA, 92026","Match","Exact","2262 ROCK VIEW GLEN, ESCONDIDO, CA, 92026",195430313,"L"
369626,"2262 ROME DR UNIT A","INDIANAPOLIS","IN",46228,39.825724763,-86.200538608,126,"2262 ROME DR UNIT A, INDIANAPOLIS, IN, 46228","Match","Exact","2262 ROME DR, INDIANAPOLIS, IN, 46228",107985721,"R"
369627,"2262 S 1650 E","SAINT GEORGE","UT",84790,37.0692429810001,-113.548873279,127,"2262 S 1650 E, SAINT GEORGE, UT, 84790","Match","Exact","2262 S 1650 E, SAINT GEORGE, UT, 84790",166182356,"L"
369628,"2262 SARVIS FORK ROAD","SANDYVILLE","WV",25275,38.921979451,-81.608822979,128,"2262 SARVIS FORK ROAD, SANDYVILLE, WV, 25275","Match","Exact","2262 SARVIS FORK RD, SANDYVILLE, WV, 25275",130481574,"R"
369629,"2262 SE FLANDERS ROAD","PORT SAINT LUCIE","FL",34952,27.2742107930001,-80.292879004,129,"2262 SE FLANDERS ROAD, PORT SAINT LUCIE, FL, 34952","Match","Exact","2262 SE FLANDERS RD, PORT ST LUCIE, FL, 34952",120154707,"R"
369630,"2262 SILVER LACE PL","MANTECA","CA",95337,37.7689704490001,-121.199545212,130,"2262 SILVER LACE PL, MANTECA, CA, 95337","Match","Non_Exact","2262 SILVERLACE PL, MANTECA, CA, 95337",133931582,"L"
369631,"2262 SINGERLY RD","ELKTON","MD",21921,39.666317163,-75.855391717,131,"2262 SINGERLY RD, ELKTON, MD, 21921","Match","Exact","2262 SINGERLY RD, ELKTON, MD, 21921",640463857,"L"
369632,"2262 SOUTH TWP ROAD 159","TIFFIN","OH",44883,41.091141152,-83.112148877,132,"2262 SOUTH TWP ROAD 159, TIFFIN, OH, 44883","Match","Exact","2262 S TWP RD 159, TIFFIN, OH, 44883",12971921,"L"
369633,"2262 SOUTHERN WOODS DR","CORDOVA","TN",38016,35.1871563880001,-89.755918225,133,"2262 SOUTHERN WOODS DR, CORDOVA, TN, 38016","Match","Exact","2262 SOUTHERN WOODS DR, CORDOVA, TN, 38016",618372416,"R"
369634,"2262 SPRINGDALE CENTER RD","MOUNT HOREB","WI",53572,NA,NA,134,"2262 SPRINGDALE CENTER RD, MOUNT HOREB, WI, 53572","No_Match",NA,NA,NA,NA
369635,"2262 STONE WHEEL DR APRT F","RESTON","VA",20191,38.939287091,-77.3658896159999,135,"2262 STONE WHEEL DR APRT F, RESTON, VA, 20191","Match","Non_Exact","2262 STONEWHEEL DR, RESTON, VA, 20191",76043754,"L"
369636,"2262 SW 18TH STREET","MIAMI","FL",33145,25.7551551190001,-80.231521648,136,"2262 SW 18TH STREET, MIAMI, FL, 33145","Match","Exact","2262 SW 18TH ST, MIAMI, FL, 33145",116260655,"R"
369637,"2262 TARRAGON LANE","FORT COLLINS","CO",80521,40.59369804,-105.117813247,137,"2262 TARRAGON LANE, FORT COLLINS, CO, 80521","Match","Exact","2262 TARRAGON LN, FORT COLLINS, CO, 80521",639047325,"R"
369638,"2262 TRIESTE DR","HIGH RIDGE","MO",63049,38.477379586,-90.497210958,138,"2262 TRIESTE DR, HIGH RIDGE, MO, 63049","Match","Exact","2262 TRIESTE DR, HIGH RIDGE, MO, 63049",62779794,"L"
369639,"2262 W 300 S","TIPTON","IN",46072,NA,NA,139,"2262 W 300 S, TIPTON, IN, 46072","Tie",NA,NA,NA,NA
369640,"2262 W 750 N","HURRICANE","UT",84737,37.187168398,-113.33083632,140,"2262 W 750 N, HURRICANE, UT, 84737","Match","Exact","2262 W 750 N, HURRICANE, UT, 84737",166199210,"L"
369641,"2262 WAKEFIELD LANE","ALLEN","TX",75013,33.1338720910001,-96.67704922,141,"2262 WAKEFIELD LANE, ALLEN, TX, 75013","Match","Exact","2262 WAKEFIELD LN, ALLEN, TX, 75013",625673058,"L"
369642,"2262","LOMBARDY","TX",78418,NA,NA,142,"2262, LOMBARDY, TX, 78418","No_Match",NA,NA,NA,NA
369643,"22620 HWY 9 SE UNIT B","WOODINVILLE","WA",98072,47.791683951,-122.143499919,143,"22620 HWY 9 SE UNIT B, WOODINVILLE, WA, 98072","Match","Non_Exact","22620 STATE RTE 9 SE, WOODINVILLE, WA, 98072",629053998,"L"
369644,"22620 OCEAN AVENUE NO 15","TORRANCE","CA",90505,33.823138828,-118.35433539,144,"22620 OCEAN AVENUE NO 15, TORRANCE, CA, 90505","Match","Non_Exact","22620 OCEAN AVE, TORRANCE, CA, 90505",141665088,"L"
369645,"22620 OLD VAUGHAN ROAD","DINWIDDIE","VA",23841,37.0909404240001,-77.5141160909999,145,"22620 OLD VAUGHAN ROAD, DINWIDDIE, VA, 23841","Match","Exact","22620 OLD VAUGHAN RD, DINWIDDIE, VA, 23841",54161688,"L"
369646,"22621 FAST COURT","BAKERSFIELD","CA",93314,35.3859838430001,-119.253816998,146,"22621 FAST COURT, BAKERSFIELD, CA, 93314","Match","Exact","22621 FAST CT, BAKERSFIELD, CA, 93314",109136077,"R"
369647,"22621 FAST CT","BAKERSFIELD","CA",93314,35.3859838430001,-119.253816998,147,"22621 FAST CT, BAKERSFIELD, CA, 93314","Match","Exact","22621 FAST CT, BAKERSFIELD, CA, 93314",109136077,"R"
369648,"22621 GAYCREST AVE","TORRANCE","CA",90505,33.822722922,-118.368896612,148,"22621 GAYCREST AVE, TORRANCE, CA, 90505","Match","Exact","22621 GAYCREST AVE, TORRANCE, CA, 90505",141664802,"R"
369649,"22621 NE 114TH ST","REDMOND","WA",98053,47.7002994480001,-122.037446012,149,"22621 NE 114TH ST, REDMOND, WA, 98053","Match","Exact","22621 NE 114TH ST, REDMOND, WA, 98053",186617199,"R"
369650,"22621 RIDGEWAY AVENUE","RICHTON PARK","IL",60471,41.4783742560001,-87.706825378,150,"22621 RIDGEWAY AVENUE, RICHTON PARK, IL, 60471","Match","Exact","22621 RIDGEWAY AVE, RICHTON PARK, IL, 60471",111708671,"L"
369651,"22621 SOUTH MAIN STREET","ETTRICK","WI",54627,44.166497142,-91.268392288,151,"22621 SOUTH MAIN STREET, ETTRICK, WI, 54627","Match","Exact","22621 S MAIN ST, ETTRICK, WI, 54627",46227843,"L"
369652,"22621 YEAGER ROAD","MONROE","WA",98272,47.8695013720001,-121.925774255,152,"22621 YEAGER ROAD, MONROE, WA, 98272","Match","Exact","22621 YEAGER RD, MONROE, WA, 98272",187768197,"L"
369653,"22621","HOYLE CIRCLE","NC",28364,NA,NA,153,"22621, HOYLE CIRCLE, NC, 28364","No_Match",NA,NA,NA,NA
369654,"22622 SW 65TH AVENUE","BOCA RATON","FL",33428,26.340363515,-80.196976419,154,"22622 SW 65TH AVENUE, BOCA RATON, FL, 33428","Match","Exact","22622 SW 65TH AVE, BOCA RATON, FL, 33428",115336000,"L"
369655,"22623 37TH AVE SE","BOTHELL","WA",98021,47.792708114,-122.183942858,155,"22623 37TH AVE SE, BOTHELL, WA, 98021","Match","Exact","22623 37TH AVE SE, BOTHELL, WA, 98021",648228303,"L"
369656,"22623 44TH DRIVE SE","BOTHELL","WA",98021,47.792163461,-122.173695962,156,"22623 44TH DRIVE SE, BOTHELL, WA, 98021","Match","Exact","22623 44TH DR SE, BOTHELL, WA, 98021",606932500,"R"
369657,"22624 43RD DR DE","BOTHELL","WA",98021,47.7922567780001,-122.175200987,157,"22624 43RD DR DE, BOTHELL, WA, 98021","Match","Non_Exact","22624 43RD DR SE, BOTHELL, WA, 98021",606932475,"R"
369658,"22624 MISSION DR","RICHTON PARK","IL",60471,41.4807004850001,-87.7342038789999,158,"22624 MISSION DR, RICHTON PARK, IL, 60471","Match","Exact","22624 MISSION DR, RICHTON PARK, IL, 60471",111708097,"R"
369659,"22624 MISSION DRIVE","RICHTON PARK","IL",60471,41.4807004850001,-87.7342038789999,159,"22624 MISSION DRIVE, RICHTON PARK, IL, 60471","Match","Exact","22624 MISSION DR, RICHTON PARK, IL, 60471",111708097,"R"
369660,"22624 ZION PKWY NW","OAK GROVE","MN",55005,NA,NA,160,"22624 ZION PKWY NW, OAK GROVE, MN, 55005","No_Match",NA,NA,NA,NA
369661,"22625 BLUE BIRD LANE","POTEAU","OK",74953,NA,NA,161,"22625 BLUE BIRD LANE, POTEAU, OK, 74953","No_Match",NA,NA,NA,NA
369662,"22625 BUCK ALLEN DR","MARYSVILLE","OH",43040,40.2516640760001,-83.477232543,162,"22625 BUCK ALLEN DR, MARYSVILLE, OH, 43040","Match","Exact","22625 BUCK ALLEN DR, MARYSVILLE, OH, 43040",210637815,"L"
369663,"22625 CLAIRWOOD AVE","ST CLAIR SHORES","MI",48080,42.4642494340001,-82.893425094,163,"22625 CLAIRWOOD AVE, ST CLAIR SHORES, MI, 48080","Match","Non_Exact","22625 CLAIRWOOD ST, SAINT CLAIR SHORES, MI, 48080",110686338,"L"
369664,"22625 K STREET","SANTA MARGARITA","CA",93453,35.3858085040001,-120.608600693,164,"22625 K STREET, SANTA MARGARITA, CA, 93453","Match","Exact","22625 K ST, SANTA MARGARITA, CA, 93453",109726753,"L"
369665,"22625 NE 26TH COURT","SAMMAMISH","WA",98074,47.6332290140001,-122.03722175,165,"22625 NE 26TH COURT, SAMMAMISH, WA, 98074","Match","Exact","22625 NE 26TH CT, SAMMAMISH, WA, 98074",186617603,"R"
369666,"22625 VINEYARD CIRCLE","MATTAWAN","MI",49071,42.1940372760001,-85.768651112,166,"22625 VINEYARD CIRCLE, MATTAWAN, MI, 49071","Match","Exact","22625 VINEYARD CIR, MATTAWAN, MI, 49071",34762354,"R"
369667,"22625 WESTCHESTER ROAD","SHAKER HEIGHTS","OH",44122,41.4767028680001,-81.520473338,167,"22625 WESTCHESTER ROAD, SHAKER HEIGHTS, OH, 44122","Match","Exact","22625 WESTCHESTER RD, SHAKER HEIGHTS, OH, 44122",61126116,"L"
369668,"22626 38TH DR SE  BOTHELL","BOTHELL","WA",98021,47.7923603420001,-122.182431428,168,"22626 38TH DR SE  BOTHELL, BOTHELL, WA, 98021","Match","Exact","22626 38TH DR SE, BOTHELL, WA, 98021",648228316,"R"
369669,"22626 HUTCHINSON ROAD","LOS GATOS","CA",95033,37.1391265410001,-121.996946652,169,"22626 HUTCHINSON ROAD, LOS GATOS, CA, 95033","Match","Exact","22626 HUTCHINSON RD, LOS GATOS, CA, 95033",647472522,"R"
369670,"22626 MAXINE STREET","ST. CLAIR SHORES","MI",48080,42.457741625,-82.896537731,170,"22626 MAXINE STREET, ST. CLAIR SHORES, MI, 48080","Match","Exact","22626 MAXINE ST, SAINT CLAIR SHORES, MI, 48080",110686364,"R"
369671,"22627 CAPITOL LANDING","KATY","TX",77449,29.80790254,-95.763808291,171,"22627 CAPITOL LANDING, KATY, TX, 77449","Match","Non_Exact","22627 CAPITOL LANDING LN, KATY, TX, 77449",96012901,"R"
369672,"22627 CAROLINA","ST CLAIR SHORES","MI",48081,NA,NA,172,"22627 CAROLINA, ST CLAIR SHORES, MI, 48081","No_Match",NA,NA,NA,NA
369673,"22627 NE ALDER CREST DR UNIT 201","REDMOND","WA",98053,47.6911787080001,-122.038801579,173,"22627 NE ALDER CREST DR UNIT 201, REDMOND, WA, 98053","Match","Non_Exact","22627 NE ALDER CREST DR, REDMOND, WA, 98053",623843435,"R"
369674,"22627 NE ALDER CREST DRIVE UNIT 201","REDMOND","WA",98053,47.6911787080001,-122.038801579,174,"22627 NE ALDER CREST DRIVE UNIT 201, REDMOND, WA, 98053","Match","Non_Exact","22627 NE ALDER CREST DR, REDMOND, WA, 98053",623843435,"R"
369675,"22627 PEACH TREE LANE","ROCKY RIVER","OH",44116,41.473312074,-81.871330444,175,"22627 PEACH TREE LANE, ROCKY RIVER, OH, 44116","Match","Non_Exact","22627 PEACHTREE LN, ROCKY RIVER, OH, 44116",61097301,"L"
369676,"22627 PETRIZZI LN","KATY","TX",77449,NA,NA,176,"22627 PETRIZZI LN, KATY, TX, 77449","No_Match",NA,NA,NA,NA
369677,"22627 RADNOR LANE","MORENO VALLEY","CA",92557,33.9423139830001,-117.268278286,177,"22627 RADNOR LANE, MORENO VALLEY, CA, 92557","Match","Exact","22627 RADNOR LN, MORENO VALLEY, CA, 92557",194872524,"R"
369678,"22628 PARROTTS FERRY ROAD","COLUMBIA","CA",95310,38.0377104990001,-120.403314794,178,"22628 PARROTTS FERRY ROAD, COLUMBIA, CA, 95310","Match","Exact","22628 PARROTTS FERRY RD, COLUMBIA, CA, 95310",101383744,"L"
369679,"22628 PAUL REVERE DRIVE","CALABASAS","CA",91302,34.144843425,-118.619941989,179,"22628 PAUL REVERE DRIVE, CALABASAS, CA, 91302","Match","Exact","22628 PAUL REVERE DR, CALABASAS, CA, 91302",141535841,"R"
369680,"22629 W 143RD","PLAINFIELD","IL",60544,41.6218817500001,-88.243905527,180,"22629 W 143RD, PLAINFIELD, IL, 60544","Match","Non_Exact","22629 W 143RD ST, PLAINFIELD, IL, 60544",111642102,"R"
369681,"2263 36TH STREET","ALLEGAN","MI",49010,42.582888718,-85.898893969,181,"2263 36TH STREET, ALLEGAN, MI, 49010","Match","Exact","2263 36TH ST, ALLEGAN, MI, 49010",11417969,"R"
369682,"2263 ASHLAN AVE","CLOVIS","CA",93611,36.793896391,-119.671235196,182,"2263 ASHLAN AVE, CLOVIS, CA, 93611","Match","Exact","2263 ASHLAN AVE, CLOVIS, CA, 93611",650230854,"L"
369683,"2263 BAR HARBOR DR","FORT COLLINS","CO",80524,40.6188269080001,-105.033922402,183,"2263 BAR HARBOR DR, FORT COLLINS, CO, 80524","Match","Exact","2263 BAR HARBOR DR, FORT COLLINS, CO, 80524",617917183,"L"
369684,"2263 BELLWETHER LANE","FORT COLLINS","CO",80521,40.5943794660001,-105.117994716,184,"2263 BELLWETHER LANE, FORT COLLINS, CO, 80521","Match","Exact","2263 BELLWETHER LN, FORT COLLINS, CO, 80521",618645455,"R"
369685,"2263 BRISBANE CT","MEBANE","NC",27302,36.0357636910001,-79.31737863,185,"2263 BRISBANE CT, MEBANE, NC, 27302","Match","Exact","2263 BRISBANE CT, MEBANE, NC, 27302",71676764,"R"
369686,"2263 CAMP CREEK RD","LANCASTER","SC",29720,34.745556763,-80.7155633359999,186,"2263 CAMP CREEK RD, LANCASTER, SC, 29720","Match","Exact","2263 CAMP CREEK RD, LANCASTER, SC, 29720",40695768,"L"
369687,"2263 CASS RD","TRAVERSE CITY","MI",49684,44.719483235,-85.62586392,187,"2263 CASS RD, TRAVERSE CITY, MI, 49684","Match","Exact","2263 CASS RD, TRAVERSE CITY, MI, 49684",649451871,"L"
369688,"2263 CLARK STREET","WOODFORD","WI",53599,42.648629407,-89.861123272,188,"2263 CLARK STREET, WOODFORD, WI, 53599","Match","Exact","2263 CLARK ST, WOODFORD, WI, 53599",32882152,"R"
369689,"2263 CROHN DRIVE","SANTA ROSA","CA",95404,NA,NA,189,"2263 CROHN DRIVE, SANTA ROSA, CA, 95404","No_Match",NA,NA,NA,NA
369690,"2263 EARLY STREET","GREEN BAY","WI",54304,44.4843425,-88.04521608,190,"2263 EARLY STREET, GREEN BAY, WI, 54304","Match","Exact","2263 EARLY ST, GREEN BAY, WI, 54304",148101157,"L"
369691,"2263 FALCON CREST CT","KRONENWETTER","WI",54455,44.850301163,-89.588446575,191,"2263 FALCON CREST CT, KRONENWETTER, WI, 54455","Match","Exact","2263 FALCON CREST CT, KRONENWETTER, WI, 54455",117163545,"L"
369692,"2263 FLATIRON WAY","SAN DIEGO","CA",92078,NA,NA,192,"2263 FLATIRON WAY, SAN DIEGO, CA, 92078","No_Match",NA,NA,NA,NA
369693,"2263 LAS CANOAS ROAD","SANTA BARBARA","CA",93105,34.452795537,-119.705310623,193,"2263 LAS CANOAS ROAD, SANTA BARBARA, CA, 93105","Match","Exact","2263 LAS CANOAS RD, SANTA BARBARA, CA, 93105",108680081,"L"
369694,"2263 LAVISTA COURT NE","ATLANTA","GA",30324,33.8175113610001,-84.348979915,194,"2263 LAVISTA COURT NE, ATLANTA, GA, 30324","Match","Non_Exact","2263 LAVISTA RD NE, ATLANTA, GA, 30324",628060258,"R"
369695,"2263 LAVISTA CT NE","ATLANTA","GA",30324,33.8175113610001,-84.348979915,195,"2263 LAVISTA CT NE, ATLANTA, GA, 30324","Match","Non_Exact","2263 LAVISTA RD NE, ATLANTA, GA, 30324",628060258,"R"
369696,"2263 LOWER RIVER RD NW","CHARLESTON","TN",37310,35.308347951,-84.8504472289999,196,"2263 LOWER RIVER RD NW, CHARLESTON, TN, 37310","Match","Exact","2263 LOWER RIVER RD NW, CHARLESTON, TN, 37310",637499151,"R"
369697,"2263 MARION POND","WOODSTOCK","MD",21163,NA,NA,197,"2263 MARION POND, WOODSTOCK, MD, 21163","No_Match",NA,NA,NA,NA
369698,"2263 N HOBART BLVD","LOS ANGELES","CA",90027,34.112815416,-118.306075356,198,"2263 N HOBART BLVD, LOS ANGELES, CA, 90027","Match","Exact","2263 N HOBART BLVD, LOS ANGELES, CA, 90027",141597214,"L"
369699,"2263 N LINDEN AVE","TRINIDAD","CO",81082,37.1906133250001,-104.502865661,199,"2263 N LINDEN AVE, TRINIDAD, CO, 81082","Match","Exact","2263 N LINDEN AVE, TRINIDAD, CO, 81082",632644653,"L"
369700,"2263 N TREKELL RD LOT 174","CASA GRANDE","AZ",85122,32.916460725,-111.739829431,200,"2263 N TREKELL RD LOT 174, CASA GRANDE, AZ, 85122","Match","Non_Exact","2263 N TREKELL RD, CASA GRANDE, AZ, 85122",637847746,"L"
369701,"2263 NW BOCA RATON BLVD STE207","BOCA RATON","FL",33431,NA,NA,201,"2263 NW BOCA RATON BLVD STE207, BOCA RATON, FL, 33431","No_Match",NA,NA,NA,NA
369702,"2263 OLD DICEY ROAD","WEATHERFORD","TX",76085,32.7653305000001,-97.745257588,202,"2263 OLD DICEY ROAD, WEATHERFORD, TX, 76085","Match","Exact","2263 DICEY RD, WEATHERFORD, TX, 76085",635377590,"R"
369703,"2263 OREGON CT","ST LOUIS PARK","MN",55426,44.960898516,-93.375247486,203,"2263 OREGON CT, ST LOUIS PARK, MN, 55426","Match","Exact","2263 OREGON CT, SAINT LOUIS PARK, MN, 55426",641220588,"R"
369704,"2263 PIKEWOOD LANE","AUSTELL","GA",30106,33.8518921720001,-84.633960101,204,"2263 PIKEWOOD LANE, AUSTELL, GA, 30106","Match","Non_Exact","2263 PIKEWOOD LN SW, AUSTELL, GA, 30106",650709470,"R"
369705,"2263 PINEVIEW DRIVE","VALDOSTA","GA",31602,NA,NA,205,"2263 PINEVIEW DRIVE, VALDOSTA, GA, 31602","No_Match",NA,NA,NA,NA
369706,"2263 PRISCILLA STREET","SAINT PAUL","MN",55108,44.9747428570001,-93.188519452,206,"2263 PRISCILLA STREET, SAINT PAUL, MN, 55108","Match","Non_Exact","2263 W PRISCILLA ST, SAINT PAUL, MN, 55108",639714568,"R"
369707,"2263 RIDGE ROAD","COLUMBUS","MS",39705,33.5538182390001,-88.403276384,207,"2263 RIDGE ROAD, COLUMBUS, MS, 39705","Match","Exact","2263 RIDGE RD, COLUMBUS, MS, 39705",748213,"L"
369708,"2263 RIVERVIEW COURT","BULLHEAD CITY","AZ",86442,35.093151866,-114.607886037,208,"2263 RIVERVIEW COURT, BULLHEAD CITY, AZ, 86442","Match","Exact","2263 RIVERVIEW CT, BULLHEAD CITY, AZ, 86442",190318395,"R"
369709,"2263 SONORA DR","ARNOLD","MO",63010,38.4037972890001,-90.394535151,209,"2263 SONORA DR, ARNOLD, MO, 63010","Match","Exact","2263 SONORA DR, ARNOLD, MO, 63010",62811023,"R"
369710,"2263 STRAZA CT","DECATUR","IL",62526,39.8669688950001,-88.993996609,210,"2263 STRAZA CT, DECATUR, IL, 62526","Match","Exact","2263 STRAZA CT, DECATUR, IL, 62526",20743246,"L"
369711,"2263 SUN VALLEY RD","CHULA VISTA","CA",91915,32.634714149,-116.960060306,211,"2263 SUN VALLEY RD, CHULA VISTA, CA, 91915","Match","Exact","2263 SUN VALLEY RD, CHULA VISTA, CA, 91915",195668094,"R"
369712,"2263 SW 12 ST","MIAMI","FL",33135,25.761207041,-80.231805654,212,"2263 SW 12 ST, MIAMI, FL, 33135","Match","Exact","2263 SW 12TH ST, MIAMI, FL, 33135",116012506,"R"
369713,"2263 SW 37TH AVE APT 528","MIAMI","FL",33145,25.7488386740001,-80.25456059,213,"2263 SW 37TH AVE APT 528, MIAMI, FL, 33145","Match","Non_Exact","2263 SW 37TH AVE, MIAMI, FL, 33145",116014199,"L"
369714,"2263 SW 37TH AVE UNIT 418","MIAMI","FL",33145,25.7488386740001,-80.25456059,214,"2263 SW 37TH AVE UNIT 418, MIAMI, FL, 33145","Match","Non_Exact","2263 SW 37TH AVE, MIAMI, FL, 33145",116014199,"L"
369715,"2263 SW 37TH AVENUE NUMBER 5","MIAMI","FL",33145,25.7488386740001,-80.25456059,215,"2263 SW 37TH AVENUE NUMBER 5, MIAMI, FL, 33145","Match","Non_Exact","2263 SW 37TH AVE, MIAMI, FL, 33145",116014199,"L"
369716,"2263 SW DANFORTH CIRCLE","PALM CITY","FL",34990,27.154267061,-80.280945667,216,"2263 SW DANFORTH CIRCLE, PALM CITY, FL, 34990","Match","Exact","2263 SW DANFORTH CIR, PALM CITY, FL, 34990",120426078,"R"
369717,"2263 TIEBOUT AVENUE   APT 1A","BRONX","NY",10457,40.855946886,-73.897672234,217,"2263 TIEBOUT AVENUE   APT 1A, BRONX, NY, 10457","Match","Exact","2263 TIEBOUT AVE, BRONX, NY, 10457",80301104,"L"
369718,"2263 TOWNE PARK DRIVE","HUNTSVILLE","AL",35803,34.6167698100001,-86.5741213919999,218,"2263 TOWNE PARK DRIVE, HUNTSVILLE, AL, 35803","Match","Non_Exact","2263 TOWNE PARK DR SW, HUNTSVILLE, AL, 35803",648166933,"L"
369719,"2263 W 190TH STREET","TORRANCE","CA",90504,33.8583649240001,-118.31870856,219,"2263 W 190TH STREET, TORRANCE, CA, 90504","Match","Exact","2263 W 190TH ST, TORRANCE, CA, 90504",142756205,"R"
369720,"2263 W AUGUSTA DRIVE","DUNLAP","IL",61525,40.83667798,-89.62703305,220,"2263 W AUGUSTA DRIVE, DUNLAP, IL, 61525","Match","Exact","2263 W AUGUSTA DR, DUNLAP, IL, 61525",649004365,"L"
369721,"2263 W STATE ROAD 54","BLOOMFIELD","IN",47424,NA,NA,221,"2263 W STATE ROAD 54, BLOOMFIELD, IN, 47424","No_Match",NA,NA,NA,NA
369722,"2263 WALLER RD","VERONA","KY",41092,38.788867398,-84.668932618,222,"2263 WALLER RD, VERONA, KY, 41092","Match","Exact","2263 WALLER RD, VERONA, KY, 41092",81949428,"L"
369723,"2263 WEST NEW HAVEN AVENUE","WEST MELBOURNE","FL",32904,28.078751191,-80.658735841,223,"2263 WEST NEW HAVEN AVENUE, WEST MELBOURNE, FL, 32904","Match","Exact","2263 W NEW HAVEN AVE, W MELBOURNE, FL, 32904",638648907,"R"
369724,"2263 YORK DRIVE 149","WOODBRIDGE","VA",22191,38.654043829,-77.2754758949999,224,"2263 YORK DRIVE 149, WOODBRIDGE, VA, 22191","Match","Exact","2263 YORK DR, WOODBRIDGE, VA, 22191",619945351,"R"
369725,"22630 NE HIDDEN SPRINGS RD","DUNDEE","OR",97115,45.297593668,-123.006144598,225,"22630 NE HIDDEN SPRINGS RD, DUNDEE, OR, 97115","Match","Exact","22630 NE HIDDEN SPRINGS RD, DUNDEE, OR, 97115",156491071,"R"
369726,"22630 NOTTINGHAM LANE","SOUTHFIELD","MI",48033,42.463177591,-83.265731187,226,"22630 NOTTINGHAM LANE, SOUTHFIELD, MI, 48033","Match","Exact","22630 NOTTINGHAM LN, SOUTHFIELD, MI, 48033",633538740,"R"
369727,"22630 SOUTH HARRISON APT 3208","SPRING HILL","KS",66083,NA,NA,227,"22630 SOUTH HARRISON APT 3208, SPRING HILL, KS, 66083","No_Match",NA,NA,NA,NA
369728,"22630 SUNNYSIDE","ST. CLAIR SHORES","MI",48080,42.4529942840001,-82.8982660409999,228,"22630 SUNNYSIDE, ST. CLAIR SHORES, MI, 48080","Match","Non_Exact","22630 SUNNYSIDE ST, SAINT CLAIR SHORES, MI, 48080",110686407,"R"
369729,"22630 WESTBROOK CINCO LN","KATY","TX",77450,29.7285701700001,-95.7641035079999,229,"22630 WESTBROOK CINCO LN, KATY, TX, 77450","Match","Exact","22630 WESTBROOK CINCO LN, KATY, TX, 77450",78328775,"L"
369730,"22631 285TH AVE","STARBUCK","MN",56381,45.581280233,-95.510678685,230,"22631 285TH AVE, STARBUCK, MN, 56381","Match","Exact","22631 285TH AVE, STARBUCK, MN, 56381",165114300,"R"
369731,"22631 770TH AVE","ALBERT LEA","MN",56007,43.682330402,-93.329010877,231,"22631 770TH AVE, ALBERT LEA, MN, 56007","Match","Exact","22631 770TH AVE, ALBERT LEA, MN, 56007",640380061,"L"
369732,"22631 COLONIAL PARKWAY APT 3108","KATY","TX",77449,29.792940516,-95.763578998,232,"22631 COLONIAL PARKWAY APT 3108, KATY, TX, 77449","Match","Exact","22631 COLONIAL PKWY, KATY, TX, 77449",638127862,"R"
369733,"22631 CONFIDENCE RD","TWAIN HARTE","CA",95383,38.0321400130001,-120.204087277,233,"22631 CONFIDENCE RD, TWAIN HARTE, CA, 95383","Match","Exact","22631 CONFIDENCE RD, TWAIN HARTE, CA, 95383",651545300,"R"
369734,"22631 FM 2920","HOCKLEY","TX",77447,30.0702521320001,-95.77641483,234,"22631 FM 2920, HOCKLEY, TX, 77447","Match","Exact","22631 FM 2920, HOCKLEY, TX, 77447",646695298,"R"
369735,"22631 NORTH HIGHWAY 71","WINSLOW","AR",72959,35.7595731580001,-94.1153450209999,235,"22631 NORTH HIGHWAY 71, WINSLOW, AR, 72959","Match","Exact","22631 N HWY 71, WINSLOW, AR, 72959",53498126,"L"
369736,"22631 PACIFIC COAST HWY SUITE 900","MALIBU","CA",90265,34.0395569120001,-118.6622402,236,"22631 PACIFIC COAST HWY SUITE 900, MALIBU, CA, 90265","Match","Exact","22631 PACIFIC COAST HWY, MALIBU, CA, 90265",640106708,"R"
369737,"22631 ROBBINS ROAD","ASTATULA","FL",34705,28.67575573,-81.71217473,237,"22631 ROBBINS ROAD, ASTATULA, FL, 34705","Match","Exact","22631 ROBBINS RD, ASTATULA, FL, 34705",94195079,"R"
369738,"22632 BLUE FIN TRAIL","BOCA RATON","FL",33428,26.3403864860001,-80.242547719,238,"22632 BLUE FIN TRAIL, BOCA RATON, FL, 33428","Match","Exact","22632 BLUE FIN TRL, BOCA RATON, FL, 33428",637649410,"R"
369739,"22632 CANYON CLUB DR","CANYON LAKE","CA",92587,33.68444534,-117.26526259,239,"22632 CANYON CLUB DR, CANYON LAKE, CA, 92587","Match","Exact","22632 CANYON CLUB DR, CANYON LAKE, CA, 92587",194707224,"R"
369740,"22632 GOLDEN SPRINGS DR STE 340","DIAMOND BAR","CA",91765,NA,NA,240,"22632 GOLDEN SPRINGS DR STE 340, DIAMOND BAR, CA, 91765","No_Match",NA,NA,NA,NA
369741,"22632 GOLDEN SPRINGS DR STE 350","DIAMOND BAR","CA",91765,NA,NA,241,"22632 GOLDEN SPRINGS DR STE 350, DIAMOND BAR, CA, 91765","No_Match",NA,NA,NA,NA
369742,"22632 MARBELLA AVE","CARSON","CA",90745,33.820882795,-118.270532849,242,"22632 MARBELLA AVE, CARSON, CA, 90745","Match","Exact","22632 MARBELLA AVE, CARSON, CA, 90745",141681407,"L"
369743,"22632 NORTH HANCE BLVD","PHOENIX","AZ",85027,33.692102651,-112.133259429,243,"22632 NORTH HANCE BLVD, PHOENIX, AZ, 85027","Match","Exact","22632 N HANCE BLVD, PHOENIX, AZ, 85027",128843619,"L"
369744,"22632 PARKVIEW DRIVE","RICHTON PARK","IL",60471,41.476622245,-87.726819163,244,"22632 PARKVIEW DRIVE, RICHTON PARK, IL, 60471","Match","Exact","22632 PARKVIEW DR, RICHTON PARK, IL, 60471",649696021,"R"
369745,"22632 SE 14TH PL","SAMMAMISH,","WA",98075,47.596704351,-122.038061368,245,"22632 SE 14TH PL, SAMMAMISH,, WA, 98075","Match","Exact","22632 SE 14TH PL, SAMMAMISH, WA, 98075",187067267,"L"
369746,"22632 SW 109 AVE CT","MIAMI","FL",33170,25.5566219130001,-80.368448089,246,"22632 SW 109 AVE CT, MIAMI, FL, 33170","Match","Exact","22632 SW 109TH AVENUE CT, MIAMI, FL, 33170",632013778,"R"
369747,"22632 SWEET JEN TER","ASHBURN","VA",20148,38.9908373060001,-77.5352809189999,247,"22632 SWEET JEN TER, ASHBURN, VA, 20148","Match","Exact","22632 SWEET JEN TER, ASHBURN, VA, 20148",641119343,"R"
369748,"22633 POINT CREEK RD","KIEL","WI",53042,NA,NA,248,"22633 POINT CREEK RD, KIEL, WI, 53042","No_Match",NA,NA,NA,NA
369749,"22634 TIVOLI LANE","ASHBURN","VA",20148,38.9907177370001,-77.5124856469999,249,"22634 TIVOLI LANE, ASHBURN, VA, 20148","Match","Exact","22634 TIVOLI LN, ASHBURN, VA, 20148",628628824,"R"
369750,"22635 OAK CANYON RD","SALINAS","CA",93908,36.5935261270001,-121.64167693,250,"22635 OAK CANYON RD, SALINAS, CA, 93908","Match","Exact","22635 OAK CANYON RD, SALINAS, CA, 93908",196825113,"L"
369751,"22636 DAVIS DRIVE SUITE 175","STERLING","VA",20164,38.9911390250001,-77.416596774,251,"22636 DAVIS DRIVE SUITE 175, STERLING, VA, 20164","Match","Exact","22636 DAVIS DR, STERLING, VA, 20164",62341236,"L"
369752,"22636 FAIRWAY VIEW DRIVE","ZACHARY","LA",70791,30.6817931140001,-91.225805142,252,"22636 FAIRWAY VIEW DRIVE, ZACHARY, LA, 70791","Match","Exact","22636 FAIRWAY VIEW DR, ZACHARY, LA, 70791",627250586,"L"
369753,"22636 FOX TRAIL LN","PLAINFIELD","IL",60544,41.6311869410001,-88.1722413259999,253,"22636 FOX TRAIL LN, PLAINFIELD, IL, 60544","Match","Exact","22636 FOX TRAIL LN, PLAINFIELD, IL, 60544",111619720,"R"
369754,"22636 GLENN DR 106","STERLING","VA",20164,38.990422885,-77.424427571,254,"22636 GLENN DR 106, STERLING, VA, 20164","Match","Exact","22636 GLENN DR, STERLING, VA, 20164",62327217,"L"
369755,"22637 MAXINE ST","ST CLAIR SHORES","MI",48080,42.4577213320001,-82.896406628,255,"22637 MAXINE ST, ST CLAIR SHORES, MI, 48080","Match","Exact","22637 MAXINE ST, SAINT CLAIR SHORES, MI, 48080",110686364,"L"
369756,"22637 SE 271ST ST","MAPLE VALLEY","WA",98038,47.358889118,-122.039502944,256,"22637 SE 271ST ST, MAPLE VALLEY, WA, 98038","Match","Exact","22637 SE 271ST ST, MAPLE VALLEY, WA, 98038",633784438,"R"
369757,"22638 ALEXADRINE","DEARBORN","MI",48124,NA,NA,257,"22638 ALEXADRINE, DEARBORN, MI, 48124","No_Match",NA,NA,NA,NA
369758,"22638 BLUE BIRD LANE","POTEAU","OK",74953,35.1036511790001,-94.6576820989999,258,"22638 BLUE BIRD LANE, POTEAU, OK, 74953","Match","Exact","22638 BLUE BIRD LN, POTEAU, OK, 74953",79904896,"L"
369759,"22638 POINTE DRIVE","SAINT CLAIR SHORES","MI",48081,42.482829731,-82.8839656709999,259,"22638 POINTE DRIVE, SAINT CLAIR SHORES, MI, 48081","Match","Exact","22638 POINTE DR, SAINT CLAIR SHORES, MI, 48081",624066584,"L"
369760,"22639 DOUGLAS RD","SHAKER HEIGHTS","OH",44122,41.485356247,-81.5200563229999,260,"22639 DOUGLAS RD, SHAKER HEIGHTS, OH, 44122","Match","Exact","22639 DOUGLAS RD, SHAKER HEIGHTS, OH, 44122",61126051,"L"
369761,"22639 E 1130 RD","BESSIE","OK",73622,NA,NA,261,"22639 E 1130 RD, BESSIE, OK, 73622","No_Match",NA,NA,NA,NA
369762,"22639 EUCLID AVE","EUCLID","OH",44117,41.5734275120001,-81.523183332,262,"22639 EUCLID AVE, EUCLID, OH, 44117","Match","Exact","22639 EUCLID AVE, EUCLID, OH, 44117",61124491,"L"
369763,"22639 GUILLOTINE","VONORMY","TX",78073,29.1859406670001,-98.593408895,263,"22639 GUILLOTINE, VONORMY, TX, 78073","Match","Non_Exact","22639 GUILLOTINE, VON ORMY, TX, 78073",101696686,"R"
369764,"22639 NE ALDER CREST DR UNIT 203","REDMOND","WA",98053,47.6912498520001,-122.038472535,264,"22639 NE ALDER CREST DR UNIT 203, REDMOND, WA, 98053","Match","Non_Exact","22639 NE ALDER CREST DR, REDMOND, WA, 98053",623843435,"R"
369765,"2263A 1ST STREET","CULLODEN","WV",25510,38.4229081880001,-82.056539808,265,"2263A 1ST STREET, CULLODEN, WV, 25510","Match","Exact","2263 1ST ST, CULLODEN, WV, 25510",101313486,"R"
369766,"2264 74TH ST","BLAIRSTOWN","IA",52209,41.949184255,-92.056533429,266,"2264 74TH ST, BLAIRSTOWN, IA, 52209","Match","Exact","2264 74TH ST, BLAIRSTOWN, IA, 52209",94723335,"R"
369767,"2264 77TH AVE","BATON ROUGE","LA",70807,30.5177052980001,-91.169846255,267,"2264 77TH AVE, BATON ROUGE, LA, 70807","Match","Exact","2264 77TH AVE, BATON ROUGE, LA, 70807",92208293,"R"
369768,"2264 BAYHILL DRIVE","MELBOURNE","FL",32940,28.2602082450001,-80.721997514,268,"2264 BAYHILL DRIVE, MELBOURNE, FL, 32940","Match","Exact","2264 BAYHILL DR, MELBOURNE, FL, 32940",93937653,"L"
369769,"2264 BERRYHILL ST","HARRISBURG","PA",17104,40.2635410870001,-76.850123094,269,"2264 BERRYHILL ST, HARRISBURG, PA, 17104","Match","Exact","2264 BERRYHILL ST, HARRISBURG, PA, 17104",70821526,"L"
369770,"2264 BEVANS CIRCLE","REDWING","MN",55066,44.541123876,-92.538324626,270,"2264 BEVANS CIRCLE, REDWING, MN, 55066","Match","Non_Exact","2264 BEVANS CIR, RED WING, MN, 55066",31539461,"L"
369771,"2264 CEDAR CIR","BLAIR","NE",68008,41.5577445440001,-96.146504373,271,"2264 CEDAR CIR, BLAIR, NE, 68008","Match","Exact","2264 CEDAR CIR, BLAIR, NE, 68008",176765539,"R"
369772,"2264 COLLEEN COURT","DECATUR","GA",30032,33.722775622,-84.253567862,272,"2264 COLLEEN COURT, DECATUR, GA, 30032","Match","Exact","2264 COLLEEN CT, DECATUR, GA, 30032",23370679,"L"
369773,"2264 DOGWOOD LANE","KINSTON","NC",28504,35.293011343,-77.6662772609999,273,"2264 DOGWOOD LANE, KINSTON, NC, 28504","Match","Exact","2264 DOGWOOD LN, KINSTON, NC, 28504",13881908,"L"
369774,"2264 E 900 S","STAR CITY","IN",46985,40.925117674,-86.5594990499999,274,"2264 E 900 S, STAR CITY, IN, 46985","Match","Exact","2264 E 900 S, STAR CITY, IN, 46985",624257970,"R"
369775,"2264 E EDGEWOOD AVE","MESA","AZ",85204,33.4001161740001,-111.78222208,275,"2264 E EDGEWOOD AVE, MESA, AZ, 85204","Match","Exact","2264 E EDGEWOOD AVE, MESA, AZ, 85204",642851038,"L"
369776,"2264 E OLD SHAKOPEE RD","BLOOMINGTON","MN",55425,44.847114753,-93.2399288559999,276,"2264 E OLD SHAKOPEE RD, BLOOMINGTON, MN, 55425","Match","Exact","2264 E OLD SHAKOPEE RD, BLOOMINGTON, MN, 55425",43596778,"L"
369777,"2264 E76TH ST","CLEVELAND","OH",44103,NA,NA,277,"2264 E76TH ST, CLEVELAND, OH, 44103","No_Match",NA,NA,NA,NA
369778,"2264 EAST 85TH STREET","CLEVELAND","OH",44106,41.496659831,-81.627780937,278,"2264 EAST 85TH STREET, CLEVELAND, OH, 44106","Match","Exact","2264 E 85TH ST, CLEVELAND, OH, 44106",652726831,"R"
369779,"2264 EAST KELSO AVE","FRESNO","CA",93720,36.8647405040001,-119.742396182,279,"2264 EAST KELSO AVE, FRESNO, CA, 93720","Match","Exact","2264 E KELSO AVE, FRESNO, CA, 93720",197617729,"R"
369780,"2264 EDGEWOOD COVE","MEMPHIS","TN",38104,35.130711552,-89.985778863,280,"2264 EDGEWOOD COVE, MEMPHIS, TN, 38104","Match","Exact","2264 EDGEWOOD COVE, MEMPHIS, TN, 38104",72971864,"R"
369781,"2264 FELLOWS WAY","MONTROSE","CO",81401,38.458401569,-107.85231455,281,"2264 FELLOWS WAY, MONTROSE, CO, 81401","Match","Non_Exact","2264 FELLOWS DR, MONTROSE, CO, 81401",653310664,"L"
369782,"2264 FORESTGLADE DRIVE","STONE MOUNTAIN","GA",30087,33.844504283,-84.1846691659999,282,"2264 FORESTGLADE DRIVE, STONE MOUNTAIN, GA, 30087","Match","Exact","2264 FORESTGLADE DR, STONE MOUNTAIN, GA, 30087",23363815,"L"
369783,"2264 GENERAL COLLINS","NEW ORLEANS","LA",70114,29.930937569,-90.014863232,283,"2264 GENERAL COLLINS, NEW ORLEANS, LA, 70114","Match","Non_Exact","2264 GENERAL COLLINS AVE, NEW ORLEANS, LA, 70114",191719931,"L"
369784,"2264 GRAND AVE","BRONX","NY",10453,40.85881965,-73.905818422,284,"2264 GRAND AVE, BRONX, NY, 10453","Match","Exact","2264 GRAND AVE, BRONX, NY, 10453",80298639,"R"
369785,"2264 I YTURRALDE ST","CALEXICO","CA",92231,NA,NA,285,"2264 I YTURRALDE ST, CALEXICO, CA, 92231","No_Match",NA,NA,NA,NA
369786,"2264 JERICHO ROAD APT C4","MONTGOMERY","IL",60538,41.744549906,-88.3731521349999,286,"2264 JERICHO ROAD APT C4, MONTGOMERY, IL, 60538","Match","Exact","2264 JERICHO RD, MONTGOMERY, IL, 60538",119531769,"L"
369787,"2264 JUSTUS LANE APT 2309","FORT WORTH","TX",76177,NA,NA,287,"2264 JUSTUS LANE APT 2309, FORT WORTH, TX, 76177","No_Match",NA,NA,NA,NA
369788,"2264 KINGS MILL ROAD","OAKMAN","AL",35579,33.774124337,-87.3379648379999,288,"2264 KINGS MILL ROAD, OAKMAN, AL, 35579","Match","Exact","2264 KINGS MILL RD, OAKMAN, AL, 35579",120558719,"L"
369789,"2264 MAJESTIC DRIVE WEST","COLUMBUS","OH",43232,39.9313639630001,-82.862592175,289,"2264 MAJESTIC DRIVE WEST, COLUMBUS, OH, 43232","Match","Exact","2264 MAJESTIC DR W, COLUMBUS, OH, 43232",218645307,"L"
369790,"2264 MALLARD DR","WALNUT CREEK","CA",94597,37.922728884,-122.083368054,290,"2264 MALLARD DR, WALNUT CREEK, CA, 94597","Match","Exact","2264 MALLARD DR, WALNUT CREEK, CA, 94597",192049389,"R"
369791,"2264 MOHALA WAY","HONOLULU","HI",96822,21.3073159,-157.820014562,291,"2264 MOHALA WAY, HONOLULU, HI, 96822","Match","Exact","2264 MOHALA WAY, HONOLULU, HI, 96822",607823812,"L"
369792,"2264 N 51 STREET","PHILADELPHIA","PA",19131,39.9929875540001,-75.228160725,292,"2264 N 51 STREET, PHILADELPHIA, PA, 19131","Match","Exact","2264 N 51ST ST, PHILADELPHIA, PA, 19131",131396737,"L"
369793,"2264 N STALLMAN RD","SUTTONS BAY","MI",49682,NA,NA,293,"2264 N STALLMAN RD, SUTTONS BAY, MI, 49682","No_Match",NA,NA,NA,NA
369794,"2264 OIL RIDGE RD","SISTERSVILLE","WV",26175,39.5652148400001,-80.9567680919999,294,"2264 OIL RIDGE RD, SISTERSVILLE, WV, 26175","Match","Exact","2264 OIL RIDGE RD, SISTERSVILLE, WV, 26175",638667614,"R"
369795,"2264 S KANSAS AVE","LIBERAL","KS",67901,37.064182531,-100.922300321,295,"2264 S KANSAS AVE, LIBERAL, KS, 67901","Match","Non_Exact","2264 N KANSAS AVE, LIBERAL, KS, 67901",198159318,"L"
369796,"2264 SAN ANSELINE AVE 4","LONG BEACH","CA",90815,33.7974495340001,-118.121433111,296,"2264 SAN ANSELINE AVE 4, LONG BEACH, CA, 90815","Match","Exact","2264 SAN ANSELINE AVE, LONG BEACH, CA, 90815",141742526,"R"
369797,"2264 SE LYNCH RD","SHELTON","WA",98584,47.1558721150001,-123.052714658,297,"2264 SE LYNCH RD, SHELTON, WA, 98584","Match","Exact","2264 SE LYNCH RD, SHELTON, WA, 98584",180868098,"R"
369798,"2264 SEAHURST DR","LAS VEGAS","NV",89142,36.1472341190001,-115.050828951,298,"2264 SEAHURST DR, LAS VEGAS, NV, 89142","Match","Exact","2264 SEAHURST DR, LAS VEGAS, NV, 89142",201928918,"L"
369799,"2264 SPRINGFLOWER DRIVE","CLEARWATER","FL",33763,28.0033349,-82.761853386,299,"2264 SPRINGFLOWER DRIVE, CLEARWATER, FL, 33763","Match","Exact","2264 SPRINGFLOWER DR, CLEARWATER, FL, 33763",124719985,"R"
369800,"2264 SPRUCEWOOD CT","AUSTINTOWN","OH",44515,41.077175525,-80.73489604,300,"2264 SPRUCEWOOD CT, AUSTINTOWN, OH, 44515","Match","Exact","2264 SPRUCEWOOD CT, AUSTINTOWN, OH, 44515",64592046,"L"
369801,"2264 STIEBER ST","WESTLAND","MI",48186,42.2925316610001,-83.3800026599999,301,"2264 STIEBER ST, WESTLAND, MI, 48186","Match","Exact","2264 STIEBER ST, WESTLAND, MI, 48186",95501238,"R"
369802,"2264 TRISTRAM RD","CHATTANOOGA","TN",37421,35.032183688,-85.138206569,302,"2264 TRISTRAM RD, CHATTANOOGA, TN, 37421","Match","Exact","2264 TRISTRAM RD, CHATTANOOGA, TN, 37421",59317825,"R"
369803,"2264 UNIVERSITY AVE","SACRAMENTO","CA",95825,38.567653981,-121.404176694,303,"2264 UNIVERSITY AVE, SACRAMENTO, CA, 95825","Match","Exact","2264 UNIVERSITY AVE, SACRAMENTO, CA, 95825",133335870,"L"
369804,"2264 W 24TH STREET","LOS ANGELES","CA",90018,34.034882811,-118.316733393,304,"2264 W 24TH STREET, LOS ANGELES, CA, 90018","Match","Exact","2264 W 24TH ST, LOS ANGELES, CA, 90018",141605711,"L"
369805,"2264 YORK AVE","MEMPIHS","TN",38104,35.124676079,-89.986402912,305,"2264 YORK AVE, MEMPIHS, TN, 38104","Match","Non_Exact","2264 YORK AVE, MEMPHIS, TN, 38104",72912798,"L"
369806,"2264 ZANE GREY LANE","PENSACOLA","FL",32534,30.568129664,-87.273124594,306,"2264 ZANE GREY LANE, PENSACOLA, FL, 32534","Match","Exact","2264 ZANE GREY LN, PENSACOLA, FL, 32534",93210544,"L"
369807,"22640 BLUE TEAL DRIVE","CANYON LAKE","CA",92587,33.6826041080001,-117.263250518,307,"22640 BLUE TEAL DRIVE, CANYON LAKE, CA, 92587","Match","Exact","22640 BLUE TEAL DR, CANYON LAKE, CA, 92587",194707244,"L"
369808,"22640 S HICKEY COURT","ZACHARY","LA",70791,30.673414908,-91.251281294,308,"22640 S HICKEY COURT, ZACHARY, LA, 70791","Match","Exact","22640 S HICKEY CT, ZACHARY, LA, 70791",92207596,"L"
369809,"22640 SOUTH HICKEY COURT","ZACHARY","LA",70791,30.6733969700001,-91.2512978519999,309,"22640 SOUTH HICKEY COURT, ZACHARY, LA, 70791","Match","Exact","22640 S HICKEY CT, ZACHARY, LA, 70791",92207596,"L"
369810,"22640 TIMBER RIDGE DRIVE","DENHAM SPRINGS","LA",70726,30.4011427180001,-90.865870553,310,"22640 TIMBER RIDGE DRIVE, DENHAM SPRINGS, LA, 70726","Match","Exact","22640 TIMBER RIDGE DR, DENHAM SPRINGS, LA, 70726",639916249,"L"
369811,"22641 CALIFORNIA","SAINT CLAIR SHORES","MI",48080,42.4570175270001,-82.896535402,311,"22641 CALIFORNIA, SAINT CLAIR SHORES, MI, 48080","Match","Non_Exact","22641 CALIFORNIA ST, SAINT CLAIR SHORES, MI, 48080",110686416,"L"
369812,"22641 COPPER HILL DR NUMBER 81","SAUGUS","CA",91350,34.460325014,-118.531853048,312,"22641 COPPER HILL DR NUMBER 81, SAUGUS, CA, 91350","Match","Exact","22641 COPPER HILL DR, SAUGUS, CA, 91350",241114648,"L"
369813,"22642 AMY DRIVE","RICHTON PARK","IL",60471,41.478140915,-87.7385261059999,313,"22642 AMY DRIVE, RICHTON PARK, IL, 60471","Match","Exact","22642 AMY DR, RICHTON PARK, IL, 60471",111708077,"R"
369814,"22642 SE 59TH PLACE","HAWTHORNE","FL",32640,29.599384077,-82.081186687,314,"22642 SE 59TH PLACE, HAWTHORNE, FL, 32640","Match","Exact","22642 59TH PL, HAWTHORNE, FL, 32640",6816748,"L"
369815,"22643 128TH PLACE","KENT","WA",98031,47.3992412870001,-122.168383923,315,"22643 128TH PLACE, KENT, WA, 98031","Match","Non_Exact","22643 128TH PL SE, KENT, WA, 98031",640608798,"L"
369816,"22643 CR 70","EATON","CO",80615,40.4935408090001,-104.628159624,316,"22643 CR 70, EATON, CO, 80615","Match","Exact","22643 CO RD 70, EATON, CO, 80615",642601685,"L"
369817,"22643 SE 271ST ST","MAPLE VALLEY","WA",98038,47.3588889110001,-122.039394614,317,"22643 SE 271ST ST, MAPLE VALLEY, WA, 98038","Match","Exact","22643 SE 271ST ST, MAPLE VALLEY, WA, 98038",633784438,"R"
369818,"22644 BYRON STREET","HAYWARD","CA",94541,37.686416353,-122.051847043,318,"22644 BYRON STREET, HAYWARD, CA, 94541","Match","Exact","22644 BYRON ST, HAYWARD, CA, 94541",125016112,"L"
369819,"22644 HAZEL LN","RAPID CITY","SD",57702,44.1232729210001,-103.408985183,319,"22644 HAZEL LN, RAPID CITY, SD, 57702","Match","Exact","22644 HAZEL LN, RAPID CITY, SD, 57702",625492517,"R"
369820,"22645 ALEXANDRINE","DEARBORN","MI",48124,42.309449328,-83.255427539,320,"22645 ALEXANDRINE, DEARBORN, MI, 48124","Match","Non_Exact","22645 ALEXANDRINE ST, DEARBORN, MI, 48124",95433794,"L"
369821,"22645 HAZELTINE","MISSION VIEJO","CA",92692,33.634038495,-117.631965721,321,"22645 HAZELTINE, MISSION VIEJO, CA, 92692","Match","Exact","22645 HAZELTINE, MISSION VIEJO, CA, 92692",144110322,"R"
369822,"22645 HWY W","MILAN","MO",63556,NA,NA,322,"22645 HWY W, MILAN, MO, 63556","No_Match",NA,NA,NA,NA
369823,"22645 QUINN ROAD","CLINTOWN TOWNSHIP","MI",48035,42.547547438,-82.887214797,323,"22645 QUINN ROAD, CLINTOWN TOWNSHIP, MI, 48035","Match","Non_Exact","22645 QUINN RD, CLINTON TOWNSHIP, MI, 48035",647582855,"L"
369824,"22645 SWEET JEN TERRACE","ASHBURN","VA",20148,38.9907765410001,-77.535325916,324,"22645 SWEET JEN TERRACE, ASHBURN, VA, 20148","Match","Exact","22645 SWEET JEN TER, ASHBURN, VA, 20148",641119343,"L"
369825,"22645 W 30TH ST N","HASKELL","OK",74436,NA,NA,325,"22645 W 30TH ST N, HASKELL, OK, 74436","No_Match",NA,NA,NA,NA
369826,"22646 LEEWIN","DETROIT","MI",48219,42.437125076,-83.2657786459999,326,"22646 LEEWIN, DETROIT, MI, 48219","Match","Non_Exact","22646 LEEWIN ST, DETROIT, MI, 48219",95420491,"R"
369827,"22646 PLYMOUTH","REDFORD","MI",48239,42.3715446040001,-83.263868003,327,"22646 PLYMOUTH, REDFORD, MI, 48239","Match","Non_Exact","22646 PLYMOUTH RD, REDFORD, MI, 48239",95431215,"R"
369828,"22647 HAZEL LANE","RAPID CITY","SD",57702,44.1258771190001,-103.409849539,328,"22647 HAZEL LANE, RAPID CITY, SD, 57702","Match","Exact","22647 HAZEL LN, RAPID CITY, SD, 57702",625260876,"L"
369829,"22647 NORTH HIGHWAY 71","WINSLOW","AR",72959,35.759763697,-94.1154316289999,329,"22647 NORTH HIGHWAY 71, WINSLOW, AR, 72959","Match","Exact","22647 N HWY 71, WINSLOW, AR, 72959",53498126,"L"
369830,"22647 SPENCER AVE","SAUK VILLAGE","IL",60411,41.4793545210001,-87.550808576,330,"22647 SPENCER AVE, SAUK VILLAGE, IL, 60411","Match","Exact","22647 SPENCER AVE, SAUK VILLAGE, IL, 60411",111787195,"L"
369831,"22647 VENTURA BLVD 416","WOODLAND HILLS","CA",91364,34.167152727,-118.619774334,331,"22647 VENTURA BLVD 416, WOODLAND HILLS, CA, 91364","Match","Exact","22647 VENTURA BLVD, WOODLAND HILLS, CA, 91364",141534785,"R"
369832,"22647 VENTURA BLVD 531","WOODLAND HILLS","CA",91364,34.167152727,-118.619774334,332,"22647 VENTURA BLVD 531, WOODLAND HILLS, CA, 91364","Match","Exact","22647 VENTURA BLVD, WOODLAND HILLS, CA, 91364",141534785,"R"
369833,"22648 TANAGER","GRAND TERRACE","CA",92313,34.0215364320001,-117.310390961,333,"22648 TANAGER, GRAND TERRACE, CA, 92313","Match","Non_Exact","22648 TANAGER ST, GRAND TERRACE, CA, 92313",144732231,"L"
369834,"22649 BALTAR ST","WEST HILLS","CA",91304,34.216450778,-118.620615453,334,"22649 BALTAR ST, WEST HILLS, CA, 91304","Match","Exact","22649 BALTAR ST, WEST HILLS, CA, 91304",141532474,"R"
369835,"22649 BOYD RD","CARTHAGE","NY",13619,43.996941276,-75.618921074,335,"22649 BOYD RD, CARTHAGE, NY, 13619","Match","Exact","22649 BOYD RD, CARTHAGE, NY, 13619",651776696,"L"
369836,"22649 MARSH WREN DR","LAND O LAKES","FL",34639,28.219544672,-82.438409397,336,"22649 MARSH WREN DR, LAND O LAKES, FL, 34639","Match","Exact","22649 MARSH WREN DR, LAND O LAKES, FL, 34639",640194635,"R"
369837,"22649 MARSH WREN DRIVE","LAND  O LAKES","FL",34639,28.219544672,-82.438409397,337,"22649 MARSH WREN DRIVE, LAND  O LAKES, FL, 34639","Match","Exact","22649 MARSH WREN DR, LAND O LAKES, FL, 34639",640194635,"R"
369838,"22649 MARSH WREN DRIVE","LAND O LAKES","FL",34639,28.219544672,-82.438409397,338,"22649 MARSH WREN DRIVE, LAND O LAKES, FL, 34639","Match","Exact","22649 MARSH WREN DR, LAND O LAKES, FL, 34639",640194635,"R"
369839,"22649 PHILOMONT RIDGE COURT","ASHBURN","VA",20148,38.98970275,-77.501149791,339,"22649 PHILOMONT RIDGE COURT, ASHBURN, VA, 20148","Match","Exact","22649 PHILOMONT RIDGE CT, ASHBURN, VA, 20148",62353328,"L"
369840,"2264C SAND CANYON","CHEWELAH","WA",99109,48.2955993950001,-117.726920768,340,"2264C SAND CANYON, CHEWELAH, WA, 99109","Match","Non_Exact","2264 SAND CANYON RD, CHEWELAH, WA, 99109",174827341,"R"
369841,"2265 119TH PL","BLUE ISLAND","IL",60406,NA,NA,341,"2265 119TH PL, BLUE ISLAND, IL, 60406","Tie",NA,NA,NA,NA
369842,"2265 151ST LN NW","ANDOVER","MN",55304,45.246188181,-93.322332933,342,"2265 151ST LN NW, ANDOVER, MN, 55304","Match","Exact","2265 151ST LN NW, ANDOVER, MN, 55304",97536630,"L"
369843,"2265 5TH AVENUE","NEW YORK","NY",10037,40.8141901390001,-73.936569493,343,"2265 5TH AVENUE, NEW YORK, NY, 10037","Match","Exact","2265 5TH AVE, NEW YORK, NY, 10037",611226013,"R"
369844,"2265 ALLEY CORNER ROAD","CLAYTON","DE",19938,39.2796511290001,-75.6628392269999,344,"2265 ALLEY CORNER ROAD, CLAYTON, DE, 19938","Match","Exact","2265 ALLEY CORNER RD, CLAYTON, DE, 19938",636203580,"L"
369845,"2265 BACK BONE ROAD","SPARTA","TN",38583,36.003261911,-85.6917767689999,345,"2265 BACK BONE ROAD, SPARTA, TN, 38583","Match","Exact","2265 BACK BONE RD, SPARTA, TN, 38583",612239753,"L"
369846,"2265 BARRY CT","EASTON","PA",18040,40.721798962,-75.227856242,346,"2265 BARRY CT, EASTON, PA, 18040","Match","Exact","2265 BARRY CT, EASTON, PA, 18040",136894739,"L"
369847,"2265 BEVERLY CIRCLE","ORACLE","AZ",85623,32.62815778,-110.802852761,347,"2265 BEVERLY CIRCLE, ORACLE, AZ, 85623","Match","Non_Exact","2265 W BEVERLY CIR, ORACLE, AZ, 85623",129267192,"R"
369848,"2265 CHARLESTON DR","STATE COLLEGE","PA",16801,40.7656577550001,-77.887719163,348,"2265 CHARLESTON DR, STATE COLLEGE, PA, 16801","Match","Exact","2265 CHARLESTON DR, STATE COLLEGE, PA, 16801",50390439,"L"
369849,"2265 CHIMNEY WALK DR","SUWANEE","GA",30024,34.0159718350001,-84.02472854,349,"2265 CHIMNEY WALK DR, SUWANEE, GA, 30024","Match","Exact","2265 CHIMNEY WALK DR, SUWANEE, GA, 30024",88922852,"R"
369850,"2265 COLLINS ROAD","CRESCENT CITY","CA",95531,41.786391285,-124.185461159,350,"2265 COLLINS ROAD, CRESCENT CITY, CA, 95531","Match","Exact","2265 COLLINS RD, CRESCENT CITY, CA, 95531",113161224,"L"
369851,"2265 COUNTY ROAD 16","RAYLAND","OH",43943,40.20988456,-80.688363938,351,"2265 COUNTY ROAD 16, RAYLAND, OH, 43943","Match","Exact","2265 CO RD 16, RAYLAND, OH, 43943",605777455,"R"
369852,"2265 CREEL RD","ATLANTA","GA",30349,33.573716162,-84.46275538,352,"2265 CREEL RD, ATLANTA, GA, 30349","Match","Exact","2265 CREEL RD, ATLANTA, GA, 30349",628097356,"L"
369853,"2265 DEEP GAP ROAD","BRYSON CITY","NC",28713,35.343825931,-83.414749647,353,"2265 DEEP GAP ROAD, BRYSON CITY, NC, 28713","Match","Exact","2265 DEEP GAP RD, BRYSON CITY, NC, 28713",635521487,"R"
369854,"2265 DELVERTON RD","DUNWOODY","GA",30338,33.944143162,-84.294456308,354,"2265 DELVERTON RD, DUNWOODY, GA, 30338","Match","Non_Exact","2265 DELVERTON DR, DUNWOODY, GA, 30338",23357167,"R"
369855,"2265 DODSON ROAD","WINFIELD","AL",35594,33.875473549,-87.863388723,355,"2265 DODSON ROAD, WINFIELD, AL, 35594","Match","Exact","2265 DODSON RD, WINFIELD, AL, 35594",120518073,"L"
369856,"2265 E MEADOW DR","SPRINGFIELD","MO",65804,37.1583051200001,-93.253801629,356,"2265 E MEADOW DR, SPRINGFIELD, MO, 65804","Match","Non_Exact","2265 E MEADOW ST, SPRINGFIELD, MO, 65804",76681256,"L"
369857,"2265 E MURRAY HOLLADAY ROAD","HOLLADAY","UT",84117,40.667668357,-111.82617648,357,"2265 E MURRAY HOLLADAY ROAD, HOLLADAY, UT, 84117","Match","Exact","2265 MURRAY HOLLADAY RD, HOLLADAY, UT, 84117",176084111,"L"
369858,"2265 EAST 28TH STREET","BROOKLYN","NY",11229,40.596598226,-73.943117751,358,"2265 EAST 28TH STREET, BROOKLYN, NY, 11229","Match","Exact","2265 E 28TH ST, BROOKLYN, NY, 11229",59091959,"L"
369859,"2265 EAST 3900 SOUTH","SALT LAKE CITY","UT",84111,40.687094158,-111.825503469,359,"2265 EAST 3900 SOUTH, SALT LAKE CITY, UT, 84111","Match","Non_Exact","2265 E 3900 S, SLC, UT, 84124",176083778,"L"
369860,"2265 EMERALD ST","SAN DIEGO","CA",92109,32.804361359,-117.229157372,360,"2265 EMERALD ST, SAN DIEGO, CA, 92109","Match","Exact","2265 EMERALD ST, SAN DIEGO, CA, 92109",195303277,"R"
369861,"2265 FERNDALE TERRACE","FERNDALE","WA",98248,48.8523498700001,-122.604706754,361,"2265 FERNDALE TERRACE, FERNDALE, WA, 98248","Match","Exact","2265 FERNDALE TER, FERNDALE, WA, 98248",183764130,"R"
369862,"2265 FIFTH AVE","NEW YORK","NY",10037,40.8141901390001,-73.936569493,362,"2265 FIFTH AVE, NEW YORK, NY, 10037","Match","Exact","2265 5TH AVE, NEW YORK, NY, 10037",611226013,"R"
369863,"2265 GEORGES LANE","PHILADELPHIA","PA",19131,39.9908349300001,-75.232199437,363,"2265 GEORGES LANE, PHILADELPHIA, PA, 19131","Match","Exact","2265 GEORGES LN, PHILADELPHIA, PA, 19131",131396671,"R"
369864,"2265 GLEN EAGLES","RENO","NV",89523,39.537664244,-119.909685604,364,"2265 GLEN EAGLES, RENO, NV, 89523","Match","Non_Exact","2265 GLEN EAGLES DR, RENO, NV, 89523",614104202,"R"
369865,"2265 INDEPENDENCE","MILLINGTON","TN",38053,35.3188825010001,-89.985386927,365,"2265 INDEPENDENCE, MILLINGTON, TN, 38053","Match","Non_Exact","2265 INDEPENDENCE RD, MILLINGTON, TN, 38053",72977923,"R"
369866,"2265 KUMPULA DRIVE","DELTONA","FL",32738,28.934455515,-81.205865705,366,"2265 KUMPULA DRIVE, DELTONA, FL, 32738","Match","Exact","2265 KUMPULA DR, DELTONA, FL, 32738",94580677,"R"
369867,"2265 LAKE ROYALE DR","RIVERDALE","GA",30296,33.555838378,-84.4616141559999,367,"2265 LAKE ROYALE DR, RIVERDALE, GA, 30296","Match","Exact","2265 LAKE ROYALE DR, RIVERDALE, GA, 30296",628088965,"R"
369868,"2265 LEATHERWOOD FORD ROAD","JAMESTOWN","TN",38556,36.5045619410001,-84.8184134219999,368,"2265 LEATHERWOOD FORD ROAD, JAMESTOWN, TN, 38556","Match","Exact","2265 LEATHERWOOD FORD RD, JAMESTOWN, TN, 38556",25022990,"R"
369869,"2265 LEXINGTON LANE","CUMMING","GA",30040,34.167083378,-84.171366249,369,"2265 LEXINGTON LANE, CUMMING, GA, 30040","Match","Exact","2265 LEXINGTON LN, CUMMING, GA, 30040",637633559,"L"
369870,"2265 LIVERNOIS ROAD SUITE 350","TROY","MI",48083,42.5562540440001,-83.1473926049999,370,"2265 LIVERNOIS ROAD SUITE 350, TROY, MI, 48083","Match","Exact","2265 LIVERNOIS RD, TROY, MI, 48083",69742798,"L"
369871,"2265 LONGFELLOW","DETROIT","MI",48206,42.377383034,-83.1055524769999,371,"2265 LONGFELLOW, DETROIT, MI, 48206","Match","Non_Exact","2265 LONGFELLOW ST, DETROIT, MI, 48206",95471830,"L"
369872,"2265 LONGSPUR LOOP","LINCOLN","CA",95648,38.8504159600001,-121.259958406,372,"2265 LONGSPUR LOOP, LINCOLN, CA, 95648","Match","Exact","2265 LONGSPUR LOOP, LINCOLN, CA, 95648",636422350,"L"
369873,"2265 LUCADO WAY","KNOXVILLE","TN",37923,35.961683012,-84.047846331,373,"2265 LUCADO WAY, KNOXVILLE, TN, 37923","Match","Non_Exact","2265 LUCADO WAY, KNOXVILLE, TN, 37909",618084613,"L"
369874,"2265 LUCADO WAY","KNOXVVILLE","TN",37923,NA,NA,374,"2265 LUCADO WAY, KNOXVVILLE, TN, 37923","No_Match",NA,NA,NA,NA
369875,"2265 MARSHALLTOWN BLVD","MARSHALLTOWN","IA",50158,42.0285449410001,-92.993636868,375,"2265 MARSHALLTOWN BLVD, MARSHALLTOWN, IA, 50158","Match","Exact","2265 MARSHALLTOWN BLVD, MARSHALLTOWN, IA, 50158",90921356,"L"
369876,"2265 MCKINLEY ST","UBLY","MI",48475,43.7080789030001,-82.9295523769999,376,"2265 MCKINLEY ST, UBLY, MI, 48475","Match","Exact","2265 MCKINLEY ST, UBLY, MI, 48475",161236149,"L"
369877,"2265 N 100TH RD","WELLSVILLE","KS",66092,38.753237599,-95.081121087,377,"2265 N 100TH RD, WELLSVILLE, KS, 66092","Match","Exact","2265 N 100 RD, WELLSVILLE, KS, 66092",635538975,"R"
369878,"2265 N KENWOOD DR","INDIANAPOLIS","IN",46222,NA,NA,378,"2265 N KENWOOD DR, INDIANAPOLIS, IN, 46222","No_Match",NA,NA,NA,NA
369879,"2265 N KENWOOD DRIVE","INDIANAPOLIS","IN",46222,NA,NA,379,"2265 N KENWOOD DRIVE, INDIANAPOLIS, IN, 46222","No_Match",NA,NA,NA,NA
369880,"2265 OAK SHADOW CT","OVIEDO","FL",32766,28.6383642590001,-81.1537367299999,380,"2265 OAK SHADOW CT, OVIEDO, FL, 32766","Match","Exact","2265 OAK SHADOW CT, OVIEDO, FL, 32766",93801608,"R"
369881,"2265 OAKHILLS CIRCLE APT 168","PITTSBURG","CA",94565,38.012600993,-121.946934734,381,"2265 OAKHILLS CIRCLE APT 168, PITTSBURG, CA, 94565","Match","Non_Exact","2265 OAK HILLS DR, PITTSBURG, CA, 94565",192117498,"R"
369882,"2265 OLD SALEM ROAD SE","CONYERS","GA",30013,NA,NA,382,"2265 OLD SALEM ROAD SE, CONYERS, GA, 30013","Tie",NA,NA,NA,NA
369883,"2265 ORION LAKE DRIVE","NAVARRE","FL",32566,30.416585777,-86.81110076,383,"2265 ORION LAKE DRIVE, NAVARRE, FL, 32566","Match","Exact","2265 ORION LAKE DR, NAVARRE, FL, 32566",74604331,"L"
369884,"2265 PARKLAND LOOP N","LAKELAND","FL",33801,27.968763826,-81.9952228129999,384,"2265 PARKLAND LOOP N, LAKELAND, FL, 33801","Match","Non_Exact","2265 PARKLAND LOOP N, LAKELAND, FL, 33811",104845732,"R"
369885,"2265 PERRY BLVD NW","ATLANTA","GA",30318,33.8058724370001,-84.46412907,385,"2265 PERRY BLVD NW, ATLANTA, GA, 30318","Match","Exact","2265 PERRY BLVD NW, ATLANTA, GA, 30318",17415170,"R"
369886,"2265 PINE MEADOW AVE","MELBOURNE","FL",32904,28.073930041,-80.676825115,386,"2265 PINE MEADOW AVE, MELBOURNE, FL, 32904","Match","Exact","2265 PINE MEADOW AVE, MELBOURNE, FL, 32904",93919770,"R"
369887,"2265 RIDGEDALE ROAD NE","ATLANTA","GA",30317,33.7530160650001,-84.313315673,387,"2265 RIDGEDALE ROAD NE, ATLANTA, GA, 30317","Match","Exact","2265 RIDGEDALE RD NE, ATLANTA, GA, 30317",23366697,"R"
369888,"2265 RIPLING WAY N","INDIANAPOLIS","IN",46260,39.9146837800001,-86.20033829,388,"2265 RIPLING WAY N, INDIANAPOLIS, IN, 46260","Match","Non_Exact","2265 RIPPLING WAY N, INDIANAPOLIS, IN, 46260",108025121,"L"
369889,"2265 ROBIN DRIVE","NAPLES","FL",34117,26.187255619,-81.6603714,389,"2265 ROBIN DRIVE, NAPLES, FL, 34117","Match","Exact","2265 ROBIN DR, NAPLES, FL, 34117",115155806,"L"
369890,"2265 ROSWELL RD","MARIETTA","GA",30062,33.973515498,-84.485402328,390,"2265 ROSWELL RD, MARIETTA, GA, 30062","Match","Exact","2265 ROSWELL RD, MARIETTA, GA, 30062",17262715,"R"
369891,"2265 ROSWELL ROAD  SUITE 100","MARIETTA","GA",30062,33.973515498,-84.485402328,391,"2265 ROSWELL ROAD  SUITE 100, MARIETTA, GA, 30062","Match","Exact","2265 ROSWELL RD, MARIETTA, GA, 30062",17262715,"R"
369892,"2265 ROSWELL ROAD SUITE 100","MARIETTA","GA",30062,33.973515498,-84.485402328,392,"2265 ROSWELL ROAD SUITE 100, MARIETTA, GA, 30062","Match","Exact","2265 ROSWELL RD, MARIETTA, GA, 30062",17262715,"R"
369893,"2265 RYDER ST","BROOKLYN","NY",11234,40.606859952,-73.9243909429999,393,"2265 RYDER ST, BROOKLYN, NY, 11234","Match","Exact","2265 RYDER ST, BROOKLYN, NY, 11234",59101683,"L"
369894,"2265 S BASCOM AVE APT 52","SAN JOSE","CA",95008,NA,NA,394,"2265 S BASCOM AVE APT 52, SAN JOSE, CA, 95008","No_Match",NA,NA,NA,NA
369895,"2265 S BEVERLEY GLEN BLVD SUITE 204","LOS ANGELES","CA",90064,34.048995317,-118.41939366,395,"2265 S BEVERLEY GLEN BLVD SUITE 204, LOS ANGELES, CA, 90064","Match","Non_Exact","2265 S BEVERLY GLEN BLVD, LOS ANGELES, CA, 90064",141571447,"R"
369896,"2265 S LIVER IOS SUITE 710","TROY","MI",48083,NA,NA,396,"2265 S LIVER IOS SUITE 710, TROY, MI, 48083","No_Match",NA,NA,NA,NA
369897,"2265 SEDGWICK AVE A1","BRONX","NY",10469,40.8611215810001,-73.91021941,397,"2265 SEDGWICK AVE A1, BRONX, NY, 10469","Match","Non_Exact","2265 SEDGWICK AVE, BRONX, NY, 10468",642559281,"L"
369898,"2265 SHERIFF DRIVE","FORKS TOWNSHIP","PA",18040,40.7234328340001,-75.20735096,398,"2265 SHERIFF DRIVE, FORKS TOWNSHIP, PA, 18040","Match","Exact","2265 SHERIFF DR, FORKS TWP, PA, 18040",136907857,"L"
369899,"2265 SIERRA VERDE RD","IRVINE","CA",92603,NA,NA,399,"2265 SIERRA VERDE RD, IRVINE, CA, 92603","No_Match",NA,NA,NA,NA
369900,"2265 SQUAK MTN LOOP SW","ISSAQUAH","WA",98026,47.516431513,-122.054325974,400,"2265 SQUAK MTN LOOP SW, ISSAQUAH, WA, 98026","Match","Non_Exact","2265 SQUAK MOUNTAIN LOOP SW, ISSAQUAH, WA, 98027",186618774,"R"
369901,"2265 ST RT 105","GRAYLAND","WA",98547,46.791363102,-124.088506949,401,"2265 ST RT 105, GRAYLAND, WA, 98547","Match","Non_Exact","2265 STATE RTE 105, GRAYLAND, WA, 98547",653454457,"R"
369902,"2265 SUNLIT ANN LANE","SANTA ROSA","CA",95403,38.470986877,-122.761472629,402,"2265 SUNLIT ANN LANE, SANTA ROSA, CA, 95403","Match","Non_Exact","2265 SUNLIT ANN DR, SANTA ROSA, CA, 95403",67513514,"R"
369903,"2265 W PECAN RD","PHOENIX","AZ",85041,33.3950393220001,-112.106370283,403,"2265 W PECAN RD, PHOENIX, AZ, 85041","Match","Exact","2265 W PECAN RD, PHOENIX, AZ, 85041",128212296,"L"
369904,"2265 WEST BEACH BLVD","GULF SHORES","AL",36542,30.237908777,-87.760509822,404,"2265 WEST BEACH BLVD, GULF SHORES, AL, 36542","Match","Exact","2265 W BEACH BLVD, GULF SHORES, AL, 36542",609081847,"R"
369905,"2265 WICK ST","WARREN","OH",44484,NA,NA,405,"2265 WICK ST, WARREN, OH, 44484","No_Match",NA,NA,NA,NA
369906,"2265 WILDFLOWER CT","STAYTON","OR",97383,44.8120829160001,-122.789575848,406,"2265 WILDFLOWER CT, STAYTON, OR, 97383","Match","Exact","2265 WILDFLOWER CT, STAYTON, OR, 97383",156280373,"L"
369907,"2265 WILLOW POND BLVD","SYLVANIA","OH",43560,41.6606534370001,-83.753749742,407,"2265 WILLOW POND BLVD, SYLVANIA, OH, 43560","Match","Exact","2265 WILLOW POND BLVD, SYLVANIA, OH, 43560",33954229,"L"
369908,"22650 CHEROKEE DRIVE","BULLARD","TX",75757,NA,NA,408,"22650 CHEROKEE DRIVE, BULLARD, TX, 75757","No_Match",NA,NA,NA,NA
369909,"22650 CONSTANCE ST","DETROIT","MI",48239,42.3536808220001,-83.262837028,409,"22650 CONSTANCE ST, DETROIT, MI, 48239","Match","Exact","22650 CONSTANCE ST, DETROIT, MI, 48239",95431807,"R"
369910,"22651 MOSSY ROCK DR","HAYWARD","CA",94541,37.686604892,-122.049760184,410,"22651 MOSSY ROCK DR, HAYWARD, CA, 94541","Match","Exact","22651 MOSSY ROCK DR, HAYWARD, CA, 94541",125016136,"L"
369911,"22652 SW 65TH TERRACE","BOCA RATON","FL",33428,26.340486422,-80.198031605,411,"22652 SW 65TH TERRACE, BOCA RATON, FL, 33428","Match","Exact","22652 SW 65TH TER, BOCA RATON, FL, 33428",115485404,"R"
369912,"22654 IRONSTONE COVE","MCCALLA","AL",35212,33.24901269,-87.084924609,412,"22654 IRONSTONE COVE, MCCALLA, AL, 35212","Match","Non_Exact","22654 IRONSTONE COVE, MC CALLA, AL, 35111",82228289,"L"
369913,"22655 CHAGRIN BLVD STE 416","BEACHWOOD","OH",44122,41.464492401,-81.5191716699999,413,"22655 CHAGRIN BLVD STE 416, BEACHWOOD, OH, 44122","Match","Exact","22655 CHAGRIN BLVD, BEACHWOOD, OH, 44122",61129543,"L"
369914,"22655 SW SCHOLLS FERRY RD","HILLSBORO","OR",97123,45.4218281350001,-122.912691087,414,"22655 SW SCHOLLS FERRY RD, HILLSBORO, OR, 97123","Match","Exact","22655 SW SCHOLLS FERRY RD, HILLSBORO, OR, 97123",158181744,"L"
369915,"22655 WEST MAIN STREET","ARMADA","MI",48005,42.843187205,-82.890935583,415,"22655 WEST MAIN STREET, ARMADA, MI, 48005","Match","Exact","22655 W MAIN ST, ARMADA, MI, 48005",110661743,"L"
369916,"22656 SHORE CENTER DRIVE","EUCLID","OH",44123,41.6092445450001,-81.5229338629999,416,"22656 SHORE CENTER DRIVE, EUCLID, OH, 44123","Match","Exact","22656 SHORE CENTER DR, EUCLID, OH, 44123",61108409,"R"
369917,"22656 WILDWOOD ST","ST CLAIR SHORES","MI",48081,42.4868969990001,-82.886412025,417,"22656 WILDWOOD ST, ST CLAIR SHORES, MI, 48081","Match","Exact","22656 WILDWOOD ST, SAINT CLAIR SHORES, MI, 48081",110699942,"R"
369918,"22657 NE ALDER CREST DR APT 202","REDMOND","WA",98053,47.6915385830001,-122.037522978,418,"22657 NE ALDER CREST DR APT 202, REDMOND, WA, 98053","Match","Non_Exact","22657 NE ALDER CREST DR, REDMOND, WA, 98053",623843436,"R"
369919,"22657 NE ALDER CREST DRIVE APT 202","REDMOND","WA",98053,47.6915385830001,-122.037522978,419,"22657 NE ALDER CREST DRIVE APT 202, REDMOND, WA, 98053","Match","Non_Exact","22657 NE ALDER CREST DR, REDMOND, WA, 98053",623843436,"R"
369920,"22657 SW PINEHURST CT","SHERWOOD","OR",97140,45.3560260620001,-122.860008674,420,"22657 SW PINEHURST CT, SHERWOOD, OR, 97140","Match","Exact","22657 SW PINEHURST CT, SHERWOOD, OR, 97140",158222871,"L"
369921,"22658 VISTAWOOD WAY","BOCA RATON","FL",33428,26.3394495800001,-80.227299146,421,"22658 VISTAWOOD WAY, BOCA RATON, FL, 33428","Match","Exact","22658 VISTAWOOD WAY, BOCA RATON, FL, 33428",115310652,"R"
369922,"2266 5TH AVENUE","NEW YORK","NY",10037,40.814426553,-73.936409095,422,"2266 5TH AVENUE, NEW YORK, NY, 10037","Match","Exact","2266 5TH AVE, NEW YORK, NY, 10037",611226014,"L"
369923,"2266 5TH AVENUS","NEW YORK","NY",10037,40.814426553,-73.936409095,423,"2266 5TH AVENUS, NEW YORK, NY, 10037","Match","Non_Exact","2266 5TH AVE, NEW YORK, NY, 10037",611226014,"L"
369924,"2266 ALBATROSS STREET  UNIT A","SAN DIEGO","CA",92101,32.7289004,-117.165743172,424,"2266 ALBATROSS STREET  UNIT A, SAN DIEGO, CA, 92101","Match","Exact","2266 ALBATROSS ST, SAN DIEGO, CA, 92101",195343295,"L"
369925,"2266 BATH AVE UNIT 3008","BROOKLYN","NY",11214,40.597403146,-73.9956803979999,425,"2266 BATH AVE UNIT 3008, BROOKLYN, NY, 11214","Match","Exact","2266 BATH AVE, BROOKLYN, NY, 11214",59088815,"R"
369926,"2266 BELFAST RD","LINCOLNVILLE","ME",4849,44.307372763,-69.088700198,426,"2266 BELFAST RD, LINCOLNVILLE, ME, 4849","Match","Exact","2266 BELFAST RD, LINCOLNVILLE, ME, 04849",75632076,"L"
369927,"2266 CITRUS VALLEY CIRCLE","PALM HARBOR","FL",34683,28.091684205,-82.745189677,427,"2266 CITRUS VALLEY CIRCLE, PALM HARBOR, FL, 34683","Match","Exact","2266 CITRUS VALLEY CIR, PALM HARBOR, FL, 34683",124662569,"R"
369928,"2266 CONCORD COURT","SPRINGFIELD","IL",62704,39.755921411,-89.692423076,428,"2266 CONCORD COURT, SPRINGFIELD, IL, 62704","Match","Exact","2266 CONCORD CT, SPRINGFIELD, IL, 62704",97360108,"R"
369929,"2266 DANFORTH","HAMTRAMCK","MI",48212,42.387876029,-83.057648458,429,"2266 DANFORTH, HAMTRAMCK, MI, 48212","Match","Non_Exact","2266 DANFORTH ST, HAMTRAMCK, MI, 48212",95476970,"R"
369930,"2266 DORIS DRIVE","DECATUR","GA",30034,33.713226358,-84.298605278,430,"2266 DORIS DRIVE, DECATUR, GA, 30034","Match","Exact","2266 DORIS DR, DECATUR, GA, 30034",23368600,"L"
369931,"2266 EAST RD","MOBILE","AL",36693,30.643321691,-88.170472498,431,"2266 EAST RD, MOBILE, AL, 36693","Match","Exact","2266 EAST RD, MOBILE, AL, 36693",61854742,"R"
369932,"2266 FREDERICK DOUGLAS BLVD  APT 1A","NEW YORK","NY",10027,40.8080728950001,-73.9526961129999,432,"2266 FREDERICK DOUGLAS BLVD  APT 1A, NEW YORK, NY, 10027","Match","Non_Exact","2266 FREDERICK DOUGLASS BLVD, NEW YORK, NY, 10027",59656103,"R"
369933,"2266 GARDEN SQUARE PTH","SPRING","TX",77386,30.113709671,-95.4109253029999,433,"2266 GARDEN SQUARE PTH, SPRING, TX, 77386","Match","Exact","2266 GARDEN SQUARE PATH, SPRING, TX, 77386",652898195,"R"
369934,"2266 HAMPDEN PLACE","BRONX","NY",10468,40.8613383220001,-73.9111722279999,434,"2266 HAMPDEN PLACE, BRONX, NY, 10468","Match","Exact","2266 HAMPDEN PL, BRONX, NY, 10468",80298503,"R"
369935,"2266 HIGHTOWER ROAD","SIDNEY","AR",72577,NA,NA,435,"2266 HIGHTOWER ROAD, SIDNEY, AR, 72577","No_Match",NA,NA,NA,NA
369936,"2266 HIGHWAY 26 NO 3","LANSING","IA",52151,NA,NA,436,"2266 HIGHWAY 26 NO 3, LANSING, IA, 52151","No_Match",NA,NA,NA,NA
369937,"2266 LUSARDI","SAN JOSE","CA",95148,37.3151073860001,-121.789230899,437,"2266 LUSARDI, SAN JOSE, CA, 95148","Match","Non_Exact","2266 LUSARDI DR, SAN JOSE, CA, 95148",122918117,"R"
369938,"2266 MABELLE AVE","EUREKA","CA",95503,40.7179120420001,-124.203918258,438,"2266 MABELLE AVE, EUREKA, CA, 95503","Match","Exact","2266 MABELLE AVE, EUREKA, CA, 95503",112994258,"L"
369939,"2266 MIDWICK DR","ALTADENA","CA",91001,34.183637751,-118.104850655,439,"2266 MIDWICK DR, ALTADENA, CA, 91001","Match","Exact","2266 MIDWICK DR, ALTADENA, CA, 91001",141631748,"R"
369940,"2266 NORTH CR 25 EAST","PAOLI","IN",47454,38.5881597060001,-86.453150103,440,"2266 NORTH CR 25 EAST, PAOLI, IN, 47454","Match","Exact","2266 N CO RD 25 E, PAOLI, IN, 47454",32141922,"R"
369941,"2266 OKADA COURT","ORLANDO","FL",32818,28.57260238,-81.478960817,441,"2266 OKADA COURT, ORLANDO, FL, 32818","Match","Exact","2266 OKADA CT, ORLANDO, FL, 32818",94330783,"L"
369942,"2266 RED MAPLE LANE","AURORA","IL",60502,41.809591643,-88.2632674709999,442,"2266 RED MAPLE LANE, AURORA, IL, 60502","Match","Exact","2266 RED MAPLE LN, AURORA, IL, 60502",119558188,"R"
369943,"2266 ROCKEFELLER","GENEVA","IL",60134,41.897313309,-88.336788271,443,"2266 ROCKEFELLER, GENEVA, IL, 60134","Match","Non_Exact","2266 ROCKEFELLER DR, GENEVA, IL, 60134",119568946,"R"
369944,"2266 S SYENE ROAD","FITCHBURG","WI",53711,42.977983366,-89.3969852229999,444,"2266 S SYENE ROAD, FITCHBURG, WI, 53711","Match","Exact","2266 S SYENE RD, FITCHBURG, WI, 53711",49532321,"L"
369945,"2266 SAINT PAUL RD","SUMMERTON","SC",29148,NA,NA,445,"2266 SAINT PAUL RD, SUMMERTON, SC, 29148","No_Match",NA,NA,NA,NA
369946,"2266 SAND ROAD","MARSHALLTOWN","IA",50158,42.1031767380001,-92.978913883,446,"2266 SAND ROAD, MARSHALLTOWN, IA, 50158","Match","Exact","2266 SAND RD, MARSHALLTOWN, IA, 50158",90930276,"L"
369947,"2266 SW 8TH STREET","MIAMI","FL",33131,NA,NA,447,"2266 SW 8TH STREET, MIAMI, FL, 33131","No_Match",NA,NA,NA,NA
369948,"2266 SW 8TH STREET","MIAMI","FL",33135,25.7653777130001,-80.232002503,448,"2266 SW 8TH STREET, MIAMI, FL, 33135","Match","Exact","2266 SW 8TH ST, MIAMI, FL, 33135",116012479,"L"
369949,"2266 TROOST AVE","TULSA","OK",74114,36.130912311,-95.9682150249999,449,"2266 TROOST AVE, TULSA, OK, 74114","Match","Non_Exact","2266 S TROOST AVE, TULSA, OK, 74114",166442836,"R"
369950,"2266 W 10455 S","SOUTH JORDAN","UT",84095,40.561376653,-111.949839777,450,"2266 W 10455 S, SOUTH JORDAN, UT, 84095","Match","Exact","2266 W 10455 S, SOUTH JORDAN, UT, 84095",176126160,"L"
369951,"2266 WEST MANOR AVE","POLAND","OH",44514,41.0428190120001,-80.6096337279999,451,"2266 WEST MANOR AVE, POLAND, OH, 44514","Match","Exact","2266 W MANOR AVE, POLAND, OH, 44514",64600051,"L"
369952,"2266 WEST MANOR AVENUE","POLAND","OH",44514,41.0428190120001,-80.6096337279999,452,"2266 WEST MANOR AVENUE, POLAND, OH, 44514","Match","Exact","2266 W MANOR AVE, POLAND, OH, 44514",64600051,"L"
369953,"2266 WEST WALTON BLVD","WATERFORD","MI",48329,42.679096599,-83.332787829,453,"2266 WEST WALTON BLVD, WATERFORD, MI, 48329","Match","Exact","2266 W WALTON BLVD, WATERFORD, MI, 48329",640605837,"R"
369954,"22660 SE NAOMI DR","DAMASCUS","OR",97089,45.4113991180001,-122.429491541,454,"22660 SE NAOMI DR, DAMASCUS, OR, 97089","Match","Exact","22660 SE NAOMI DR, DAMASCUS, OR, 97089",157922958,"R"
369955,"22661 SILVER DOLLAR ST","CORONA","CA",92883,33.7903171080001,-117.498871316,455,"22661 SILVER DOLLAR ST, CORONA, CA, 92883","Match","Exact","22661 SILVER DOLLAR ST, CORONA, CA, 92883",194850846,"L"
369956,"22662 TAYLORSTOWN HUNT CT","ASHBURN","VA",20148,38.9900802710001,-77.4999822189999,456,"22662 TAYLORSTOWN HUNT CT, ASHBURN, VA, 20148","Match","Exact","22662 TAYLORSTOWN HUNT CT, ASHBURN, VA, 20148",62353325,"R"
369957,"22663 BLUFFVIEW DR","ATHENS","AL",35613,34.7722549530001,-86.920086982,457,"22663 BLUFFVIEW DR, ATHENS, AL, 35613","Match","Exact","22663 BLUFFVIEW DR, ATHENS, AL, 35613",650683919,"R"
369958,"22663 HOAGLAND RD","CANYON","TX",79015,34.9801303780001,-102.019859169,458,"22663 HOAGLAND RD, CANYON, TX, 79015","Match","Exact","22663 HOAGLAND RD, CANYON, TX, 79015",182647081,"R"
369959,"22665 OAK STREET","JEROME","MO",65529,37.9281440300001,-91.9784662229999,459,"22665 OAK STREET, JEROME, MO, 65529","Match","Exact","22665 OAK ST, JEROME, MO, 65529",45073425,"R"
369960,"22665 SUNBURY COURT EAST APT 2","COLUMBUS","OH",43219,NA,NA,460,"22665 SUNBURY COURT EAST APT 2, COLUMBUS, OH, 43219","No_Match",NA,NA,NA,NA
369961,"22666 HIRSTEIN ROAD","MORTON","IL",61550,40.6548694050001,-89.441407958,461,"22666 HIRSTEIN ROAD, MORTON, IL, 61550","Match","Exact","22666 HIRSTEIN RD, MORTON, IL, 61550",608207943,"R"
369962,"22667 MASON COURT","SAUGUS","CA",91350,34.4589063650001,-118.531692245,462,"22667 MASON COURT, SAUGUS, CA, 91350","Match","Exact","22667 MASON CT, SAUGUS, CA, 91350",141518521,"L"
369963,"22668 MAPLE GROVE ROAD","UNION CITY","PA",16438,41.794103901,-79.8636469049999,463,"22668 MAPLE GROVE ROAD, UNION CITY, PA, 16438","Match","Exact","22668 MAPLE GROVE RD, UNION CITY, PA, 16438",98588104,"R"
369964,"2267 129TH AVE NORTH WEST","COON RAPIDS","MN",55448,45.2048745340001,-93.32351419,464,"2267 129TH AVE NORTH WEST, COON RAPIDS, MN, 55448","Match","Non_Exact","2267 129TH AVE NW, COON RAPIDS, MN, 55448",97484145,"R"
369965,"2267 6TH AVE N","ST PETERSBURG","FL",33713,27.7783356210001,-82.664016385,465,"2267 6TH AVE N, ST PETERSBURG, FL, 33713","Match","Exact","2267 6TH AVE N, SAINT PETERSBURG, FL, 33713",124705275,"R"
369966,"2267 BENNINGTON DR","Vallejo","CA",94591,38.157224732,-122.175809686,466,"2267 BENNINGTON DR, Vallejo, CA, 94591","Match","Exact","2267 BENNINGTON DR, VALLEJO, CA, 94591",192561550,"L"
369967,"2267 BLACKBERRY LANE","CONWAY","AR",72034,35.0484340950001,-92.4585190189999,467,"2267 BLACKBERRY LANE, CONWAY, AR, 72034","Match","Exact","2267 BLACKBERRY LN, CONWAY, AR, 72034",141046739,"L"
369968,"2267 BURGUNDY TERRACE","ST PETERSBURG","FL",33714,NA,NA,468,"2267 BURGUNDY TERRACE, ST PETERSBURG, FL, 33714","No_Match",NA,NA,NA,NA
369969,"2267 CANDLEWOOD DRIVE","DAYTON","OH",45419,39.71567306,-84.156642066,469,"2267 CANDLEWOOD DRIVE, DAYTON, OH, 45419","Match","Exact","2267 CANDLEWOOD DR, DAYTON, OH, 45419",143581816,"R"
369970,"2267 CASHER COURT","DECATUR","GA",30034,33.71122315,-84.298187588,470,"2267 CASHER COURT, DECATUR, GA, 30034","Match","Exact","2267 CASHER CT, DECATUR, GA, 30034",23368605,"R"
369971,"2267 CLEARVIEW DR","EAST STROUDSBURG","PA",18302,NA,NA,471,"2267 CLEARVIEW DR, EAST STROUDSBURG, PA, 18302","No_Match",NA,NA,NA,NA
369972,"2267 E SHAWNEE DRIVE","N ST. PAUL","MN",55109,45.0249554800001,-93.0046309429999,472,"2267 E SHAWNEE DRIVE, N ST. PAUL, MN, 55109","Match","Exact","2267 E SHAWNEE DR, N SAINT PAUL, MN, 55109",97652266,"L"
369973,"2267 HANCE BRIDGE RD","VINELAND","NJ",8088,NA,NA,473,"2267 HANCE BRIDGE RD, VINELAND, NJ, 8088","No_Match",NA,NA,NA,NA
369974,"2267 HAVANA TRL","THE VILLAGES","FL",32162,28.8781892650001,-81.9587993169999,474,"2267 HAVANA TRL, THE VILLAGES, FL, 32162","Match","Exact","2267 HAVANA TRL, THE VILLAGES, FL, 32162",634059603,"R"
369975,"2267 HILLSIDE AVE","ST. PAUL","MN",NA,44.9781973930001,-93.196461439,475,"2267 HILLSIDE AVE, ST. PAUL, MN, ","Match","Non_Exact","2267 W HILLSIDE AVE, SAINT PAUL, MN, 55108",97638962,"R"
369976,"2267 KELMSCOTT CT","WESTLAKE VILLAGE","CA",91361,34.1411605420001,-118.836591658,476,"2267 KELMSCOTT CT, WESTLAKE VILLAGE, CA, 91361","Match","Exact","2267 KELMSCOTT CT, WESTLAKE VILLAGE, CA, 91361",110000019,"R"
369977,"2267 MOSS AVENUE","LOS ANGELES","CA",90065,34.1089337830001,-118.229807561,477,"2267 MOSS AVENUE, LOS ANGELES, CA, 90065","Match","Exact","2267 MOSS AVE, LOS ANGELES, CA, 90065",141612199,"R"
369978,"2267 NASH COURT","MAHWAH","NJ",7430,41.100184862,-74.1380359459999,478,"2267 NASH COURT, MAHWAH, NJ, 7430","Match","Exact","2267 NASH CT, MAHWAH, NJ, 07430",641098198,"R"
369979,"2267 NEW CLINTON RD","MACON","GA",31217,32.858992745,-83.587190816,479,"2267 NEW CLINTON RD, MACON, GA, 31217","Match","Exact","2267 NEW CLINTON RD, MACON, GA, 31217",81064642,"R"
369980,"2267 NORTH STAR RD","DULUTH","MN",55804,46.9273978210001,-91.9187412809999,480,"2267 NORTH STAR RD, DULUTH, MN, 55804","Match","Exact","2267 N STAR RD, DULUTH, MN, 55804",163215960,"L"
369981,"2267 OAKMAN","DETROIT","MI",48238,42.392364496,-83.134202849,481,"2267 OAKMAN, DETROIT, MI, 48238","Match","Non_Exact","2267 OAKMAN BLVD, DETROIT, MI, 48238",95470458,"L"
369982,"2267 RANBURN DR","GARY","IN",46408,41.5456651420001,-87.364733375,482,"2267 RANBURN DR, GARY, IN, 46408","Match","Exact","2267 RANBURN DR, GARY, IN, 46408",98430578,"L"
369983,"2267 RANBURN DR","HAMMOND","IN",46323,NA,NA,483,"2267 RANBURN DR, HAMMOND, IN, 46323","No_Match",NA,NA,NA,NA
369984,"2267 RHINEHILL DRIVE SE","ATLANTA","GA",30315,33.6940263930001,-84.379032514,484,"2267 RHINEHILL DRIVE SE, ATLANTA, GA, 30315","Match","Non_Exact","2267 RHINEHILL RD SE, ATLANTA, GA, 30315",17347069,"R"
369985,"2267 SPURR ROAD","LEXINGTON","KY",40511,38.104061088,-84.5099074299999,485,"2267 SPURR ROAD, LEXINGTON, KY, 40511","Match","Exact","2267 SPURR RD, LEXINGTON, KY, 40511",618014490,"R"
369986,"2267 STONEFISH DR","WINDSOR","CO",80550,40.4353739680001,-104.892302751,486,"2267 STONEFISH DR, WINDSOR, CO, 80550","Match","Exact","2267 STONEFISH DR, WINDSOR, CO, 80550",646919861,"R"
369987,"2267 WOODVIEW RD","ALPENA","MI",49707,45.0839040710001,-83.480670022,487,"2267 WOODVIEW RD, ALPENA, MI, 49707","Match","Non_Exact","2267 WOODVIEW DR, ALPENA, MI, 49707",135790560,"L"
369988,"2267 ZELMERE STREET","ZACHARY","LA",70791,30.658810859,-91.180140234,488,"2267 ZELMERE STREET, ZACHARY, LA, 70791","Match","Exact","2267 ZELMERE ST, ZACHARY, LA, 70791",639279848,"R"
369989,"22670 TIMBER RIDGE DR","DEHHAM SPRINGS","LA",70726,30.4013695090001,-90.866484562,489,"22670 TIMBER RIDGE DR, DEHHAM SPRINGS, LA, 70726","Match","Non_Exact","22670 TIMBER RIDGE DR, DENHAM SPRINGS, LA, 70726",639916249,"L"
369990,"22670 TIMBER RIGDE  DR","DENHAM SPRINGS","LA",70726,NA,NA,490,"22670 TIMBER RIGDE  DR, DENHAM SPRINGS, LA, 70726","No_Match",NA,NA,NA,NA
369991,"22670 TRILLIUM DR","NOVI","MI",48375,42.4540580080001,-83.4348848179999,491,"22670 TRILLIUM DR, NOVI, MI, 48375","Match","Exact","22670 TRILLIUM DR, NOVI, MI, 48375",638904010,"R"
369992,"22671 HORSESHOE RD","SHERRILL","IA",52073,NA,NA,492,"22671 HORSESHOE RD, SHERRILL, IA, 52073","No_Match",NA,NA,NA,NA
369993,"22671 OAK VIEW DR","TAYLOR","MI",48180,42.217752262,-83.256023576,493,"22671 OAK VIEW DR, TAYLOR, MI, 48180","Match","Exact","22671 OAK VIEW DR, TAYLOR, MI, 48180",95692238,"L"
369994,"22673 460TH AVENUE","SANBORN","MN",56083,44.156736505,-95.161350899,494,"22673 460TH AVENUE, SANBORN, MN, 56083","Match","Exact","22673 460TH AVE, SANBORN, MN, 56083",608381552,"L"
369995,"22674 MAPLE AVE","FARMINGTON","MI",48336,42.4577801070001,-83.368651913,495,"22674 MAPLE AVE, FARMINGTON, MI, 48336","Match","Non_Exact","22674 MAPLE ST, FARMINGTON, MI, 48336",69725407,"R"
369996,"22674 WEST PIMA ST","BUCKEYE","AZ",85326,33.4332815610001,-112.537915259,496,"22674 WEST PIMA ST, BUCKEYE, AZ, 85326","Match","Exact","22674 W PIMA ST, BUCKEYE, AZ, 85326",243946508,"L"
369997,"22675 NE ALDER CREST DR UNIT 203","REDMOND","WA",98053,47.691839766,-122.036874952,497,"22675 NE ALDER CREST DR UNIT 203, REDMOND, WA, 98053","Match","Non_Exact","22675 NE ALDER CREST DR, REDMOND, WA, 98053",623843436,"R"
369998,"22675 NE ALDER CREST DRIVE UNIT 204","REDMOND","WA",98053,47.691839766,-122.036874952,498,"22675 NE ALDER CREST DRIVE UNIT 204, REDMOND, WA, 98053","Match","Non_Exact","22675 NE ALDER CREST DR, REDMOND, WA, 98053",623843436,"R"
369999,"22677 BRETINGHAM","MACOMB","MI",48044,NA,NA,499,"22677 BRETINGHAM, MACOMB, MI, 48044","No_Match",NA,NA,NA,NA
370000,"22679 BELLBROOK","SOUTHFIELD","MI",48034,42.501119804,-83.27005636,500,"22679 BELLBROOK, SOUTHFIELD, MI, 48034","Match","Non_Exact","22679 BELL BROOK ST, SOUTHFIELD, MI, 48034",69730354,"R"
