"ID","Address","City","State","Zip","lat","long","id","input_address","match_indicator","match_type","matched_address","tiger_line_id","tiger_side"
112001,"122 ELISHA DRIVE","WILMINGTON","NC",28405,34.249698788,-77.844912178,1,"122 ELISHA DRIVE, WILMINGTON, NC, 28405","Match","Exact","122 ELISHA DR, WILMINGTON, NC, 28405",152734749,"R"
112002,"122 ELM SQ N","LAKELAND","FL",33813,27.952309654,-81.958502341,2,"122 ELM SQ N, LAKELAND, FL, 33813","Match","Exact","122 ELM SQ N, LAKELAND, FL, 33813",104813987,"L"
112003,"122 ELM ST","EAST LONGMEADOW","MA",1028,42.0712482370001,-72.510167326,3,"122 ELM ST, EAST LONGMEADOW, MA, 1028","Match","Exact","122 ELM ST, E LONGMEADOW, MA, 01028",4064101,"L"
112004,"122 ELM STREET","MILFORD","NH",3055,42.8367162010001,-71.662295463,4,"122 ELM STREET, MILFORD, NH, 3055","Match","Exact","122 ELM ST, MILFORD, NH, 03055",617270863,"L"
112005,"122 ELMWOOD DRIVE","GLENSHAW","PA",15116,40.5458153640001,-79.97988535,5,"122 ELMWOOD DRIVE, GLENSHAW, PA, 15116","Match","Exact","122 ELMWOOD DR, GLENSHAW, PA, 15116",51715302,"R"
112006,"122 ELY AVENUE","WEST SPRINGFIELD","MA",1089,42.108661736,-72.6569152179999,6,"122 ELY AVENUE, WEST SPRINGFIELD, MA, 1089","Match","Exact","122 ELY AVE, W SPRINGFIELD, MA, 01089",4032168,"R"
112007,"122 EMANUEL LOOK RD","BRUNSWICK","GA",31523,NA,NA,7,"122 EMANUEL LOOK RD, BRUNSWICK, GA, 31523","No_Match",NA,NA,NA,NA
112008,"122 EMILY DR","MUSCLE SHOALS","AL",35661,34.717754341,-87.628312194,8,"122 EMILY DR, MUSCLE SHOALS, AL, 35661","Match","Exact","122 EMILY DR, MUSCLE SHOALS, AL, 35661",40767331,"R"
112009,"122 EMLEN AVE","LAWNSIDE","NJ",8045,NA,NA,9,"122 EMLEN AVE, LAWNSIDE, NJ, 8045","Tie",NA,NA,NA,NA
112010,"122 EMMANUEL LOOK RD","BRUNSWICK","GA",31523,NA,NA,10,"122 EMMANUEL LOOK RD, BRUNSWICK, GA, 31523","No_Match",NA,NA,NA,NA
112011,"122 ESPERANZA GROVE RD","EAST PALATKA","FL",32131,29.6976337190001,-81.623792844,11,"122 ESPERANZA GROVE RD, EAST PALATKA, FL, 32131","Match","Exact","122 ESPERANZA GROVE RD, EAST PALATKA, FL, 32131",86088296,"R"
112012,"122 EVERETTS VIEW","BLAIRSVILLE","GA",30512,34.8428786490001,-83.89090656,12,"122 EVERETTS VIEW, BLAIRSVILLE, GA, 30512","Match","Exact","122 EVERETTS VW, BLAIRSVILLE, GA, 30512",627796326,"R"
112013,"122 FAIRFIELD ST","BREWSTER","NY",10509,41.457725441,-73.54414965,13,"122 FAIRFIELD ST, BREWSTER, NY, 10509","Match","Non_Exact","122 FAIRFIELD DR, BREWSTER, NY, 10509",139683093,"L"
112014,"122 FAIRMOUNT AVE","SANTA CRUZ","CA",95062,36.9878524430001,-122.010949922,14,"122 FAIRMOUNT AVE, SANTA CRUZ, CA, 95062","Match","Exact","122 FAIRMOUNT AVE, SANTA CRUZ, CA, 95062",125506390,"R"
112015,"122 FALCON PT","BAXTER","TN",38544,NA,NA,15,"122 FALCON PT, BAXTER, TN, 38544","No_Match",NA,NA,NA,NA
112016,"122 FARLEY AVE","FANWOOD","NJ",7023,40.639828493,-74.395426813,16,"122 FARLEY AVE, FANWOOD, NJ, 7023","Match","Exact","122 FARLEY AVE, FANWOOD, NJ, 07023",60567299,"R"
112017,"122 FARLEY AVENUE","FANWOOD","NJ",7023,40.639828493,-74.395426813,17,"122 FARLEY AVENUE, FANWOOD, NJ, 7023","Match","Exact","122 FARLEY AVE, FANWOOD, NJ, 07023",60567299,"R"
112018,"122 FARM STREET","WAKEFIELD","MA",1880,42.492131468,-71.050319362,18,"122 FARM STREET, WAKEFIELD, MA, 1880","Match","Exact","122 FARM ST, WAKEFIELD, MA, 01880",86871556,"L"
112019,"122 FARMINGTON LANE","SHELBY","NC",28150,35.3076799130001,-81.441147195,19,"122 FARMINGTON LANE, SHELBY, NC, 28150","Match","Non_Exact","122 FARMINGTON RD, SHELBY, NC, 28150",19336536,"R"
112020,"122 FARRAGUT AVE","VALLEJO","CA",94590,38.112303479,-122.264480769,20,"122 FARRAGUT AVE, VALLEJO, CA, 94590","Match","Exact","122 FARRAGUT AVE, VALLEJO, CA, 94590",192527220,"L"
112021,"122 FIELDVIEW DRIVE","PAINTED POST","NY",14870,42.1385585720001,-77.127190276,21,"122 FIELDVIEW DRIVE, PAINTED POST, NY, 14870","Match","Exact","122 FIELDVIEW DR, PAINTED POST, NY, 14870",14755663,"L"
112022,"122 FLAGSTAF WAY","BUFFALO","WY",82834,44.358279135,-106.673091853,22,"122 FLAGSTAF WAY, BUFFALO, WY, 82834","Match","Non_Exact","122 FLAGSTAFF WAY, BUFFALO, WY, 82834",619939437,"L"
112023,"122 FLANDERS DRIVE","CHICKASHA","OK",73018,35.012546968,-97.9596941999999,23,"122 FLANDERS DRIVE, CHICKASHA, OK, 73018","Match","Exact","122 FLANDERS DR, CHICKASHA, OK, 73018",15215047,"L"
112024,"122 FLORIDA STREET","VALLEJO","CA",94590,38.1051897840001,-122.264435407,24,"122 FLORIDA STREET, VALLEJO, CA, 94590","Match","Exact","122 FLORIDA ST, VALLEJO, CA, 94590",192527318,"L"
112025,"122 FLUTTER DRIVE","LEXINGTON","SC",29072,34.0250135310001,-81.173424664,25,"122 FLUTTER DRIVE, LEXINGTON, SC, 29072","Match","Exact","122 FLUTTER DR, LEXINGTON, SC, 29072",645528533,"R"
112026,"122 FOCH AVENUE","WESTFIELD","MA",1085,42.140846423,-72.753197233,26,"122 FOCH AVENUE, WESTFIELD, MA, 1085","Match","Exact","122 FOCH AVE, WESTFIELD, MA, 01085",4019667,"L"
112027,"122 FOGARTY","MICHIGAN CITY","IN",46360,41.724807302,-86.894030399,27,"122 FOGARTY, MICHIGAN CITY, IN, 46360","Match","Non_Exact","122 FOGARTY ST, MICHIGAN CITY, IN, 46360",15410937,"L"
112028,"122 FOREST HILLS CIRCLE","GUNTER","TX",75058,33.4738582800001,-96.697913193,28,"122 FOREST HILLS CIRCLE, GUNTER, TX, 75058","Match","Exact","122 FOREST HILLS CIR, GUNTER, TX, 75058",606394700,"R"
112029,"122 FORESTWOOD DRIVE","NORTH PROVIDENCE","RI",2904,41.863483396,-71.462150653,29,"122 FORESTWOOD DRIVE, NORTH PROVIDENCE, RI, 2904","Match","Exact","122 FORESTWOOD DR, N PROVIDENCE, RI, 02904",651145337,"L"
112030,"122 FORREST HILLS CIRCLE","GUNTER","TX",75058,33.4738582800001,-96.697913193,30,"122 FORREST HILLS CIRCLE, GUNTER, TX, 75058","Match","Non_Exact","122 FOREST HILLS CIR, GUNTER, TX, 75058",606394700,"R"
112031,"122 FOURSOME LN","CARL JUNCTION","MO",64834,37.1608930420001,-94.538931841,31,"122 FOURSOME LN, CARL JUNCTION, MO, 64834","Match","Exact","122 FOURSOME LN, CARL JUNCTION, MO, 64834",66145892,"R"
112032,"122 FOURTH STREET","GARDEN CITY","NY",11530,40.720267232,-73.635590458,32,"122 FOURTH STREET, GARDEN CITY, NY, 11530","Match","Exact","122 4TH ST, GARDEN CITY, NY, 11530",147673647,"R"
112033,"122 FRANKLIN PL","ROSELLE PARK","NJ",7204,40.6642129430001,-74.2688555889999,33,"122 FRANKLIN PL, ROSELLE PARK, NJ, 7204","Match","Exact","122 FRANKLIN PL, ROSELLE PARK, NJ, 07204",624259405,"L"
112034,"122 FREEMONT ST","HAVERHILL","MA",1832,42.7924239600001,-71.110183706,34,"122 FREEMONT ST, HAVERHILL, MA, 1832","Match","Exact","122 FREEMONT ST, HAVERHILL, MA, 01832",86616519,"L"
112035,"122 FROG HOLLOW ROAD","OXFORD","PA",19363,39.786453329,-75.949423796,35,"122 FROG HOLLOW ROAD, OXFORD, PA, 19363","Match","Exact","122 FROG HOLLOW RD, OXFORD, PA, 19363",179482691,"R"
112036,"122 FYCKE LANE","TEANECK","NJ",7666,40.878143177,-74.005324043,36,"122 FYCKE LANE, TEANECK, NJ, 7666","Match","Exact","122 FYCKE LN, TEANECK, NJ, 07666",64389677,"R"
112037,"122 GALLEON STREET","MARINA DEL REY","CA",90292,33.9760920860001,-118.462450908,37,"122 GALLEON STREET, MARINA DEL REY, CA, 90292","Match","Exact","122 GALLEON ST, MARINA DEL REY, CA, 90292",141576875,"R"
112038,"122 GAMBIER STREET","SAN FRANCISCO","CA",94134,37.7277276930001,-122.422217164,38,"122 GAMBIER STREET, SAN FRANCISCO, CA, 94134","Match","Exact","122 GAMBIER ST, SAN FRANCISCO, CA, 94134",192286919,"R"
112039,"122 GILBERT ROAD","SHIPPENSBURG","PA",17257,40.0445009310001,-77.459338014,39,"122 GILBERT ROAD, SHIPPENSBURG, PA, 17257","Match","Exact","122 GILBERT RD, SHIPPENSBURG, PA, 17257",647924731,"L"
112040,"122 GIRARD AVENUE","DOTHAN","AL",36303,31.2315117480001,-85.421774926,40,"122 GIRARD AVENUE, DOTHAN, AL, 36303","Match","Exact","122 GIRARD AVE, DOTHAN, AL, 36303",101212945,"R"
112041,"122 GLENWOOD AVE","JERSEY CITY","NJ",7306,40.7282065090001,-74.072532842,41,"122 GLENWOOD AVE, JERSEY CITY, NJ, 7306","Match","Exact","122 GLENWOOD AVE, JERSEY CITY, NJ, 07306",637781342,"R"
112042,"122 GLENWOOD AVENUE","JERSEY CITY","NJ",7306,40.7282065090001,-74.072532842,42,"122 GLENWOOD AVENUE, JERSEY CITY, NJ, 7306","Match","Exact","122 GLENWOOD AVE, JERSEY CITY, NJ, 07306",637781342,"R"
112043,"122 GLORY RIDGE PLACE","KEARNEYSVILLE","WV",25430,NA,NA,43,"122 GLORY RIDGE PLACE, KEARNEYSVILLE, WV, 25430","No_Match",NA,NA,NA,NA
112044,"122 GOLD CROWN CIRCLE","CRIPPLE CREEK","CO",80813,38.7959969820001,-105.199864186,44,"122 GOLD CROWN CIRCLE, CRIPPLE CREEK, CO, 80813","Match","Exact","122 GOLD CROWN CIR, CRIPPLE CREEK, CO, 80813",130943184,"R"
112045,"122 GOLF VIEW LANE","WASHINGTON","IA",52353,41.273899457,-91.692641678,45,"122 GOLF VIEW LANE, WASHINGTON, IA, 52353","Match","Exact","122 GOLF VIEW LN, WASHINGTON, IA, 52353",627805489,"R"
112046,"122 GRACE AVE","NEWARK","NY",14513,43.0382096210001,-77.0996366429999,46,"122 GRACE AVE, NEWARK, NY, 14513","Match","Exact","122 GRACE AVE, NEWARK, NY, 14513",14914625,"R"
112047,"122 GRACE LYNN DRIVE","STATESVILLE","NC",28677,35.7490907430001,-80.991839894,47,"122 GRACE LYNN DRIVE, STATESVILLE, NC, 28677","Match","Exact","122 GRACE LYNN DR, STATESVILLE, NC, 28677",46008293,"R"
112048,"122 GRAND AVENUE","QUEENSBURY","NY",12804,43.31132202,-73.665351468,48,"122 GRAND AVENUE, QUEENSBURY, NY, 12804","Match","Non_Exact","122 GRANT AVE, QUEENSBURY, NY, 12804",173897928,"L"
112049,"122 GRAND CHASE","NEDERLAND","TX",77627,29.9828486370001,-94.0113645009999,49,"122 GRAND CHASE, NEDERLAND, TX, 77627","Match","Non_Exact","122 GRANDCHASE DR, NEDERLAND, TX, 77627",73876374,"R"
112050,"122 GRANDVIEW AVE","WALLINGFORD","CT",6492,41.4411365080001,-72.826313792,50,"122 GRANDVIEW AVE, WALLINGFORD, CT, 6492","Match","Exact","122 GRANDVIEW AVE, WALLINGFORD, CT, 06492",3720892,"L"
112051,"122 GRANDVIEW DR","TUNKHANNOCK","PA",18657,41.529711519,-75.950352336,51,"122 GRANDVIEW DR, TUNKHANNOCK, PA, 18657","Match","Exact","122 GRANDVIEW DR, TUNKHANNOCK, PA, 18657",612270603,"L"
112052,"122 GRANDVIEW","BARNESVILLE","OH",43713,39.9813065490001,-81.182242091,52,"122 GRANDVIEW, BARNESVILLE, OH, 43713","Match","Non_Exact","122 GRANDVIEW ST, BARNESVILLE, OH, 43713",36206844,"L"
112053,"122 GRANT ST","ABERDEEN","MD",21001,39.520244403,-76.181948469,53,"122 GRANT ST, ABERDEEN, MD, 21001","Match","Exact","122 GRANT ST, ABERDEEN, MD, 21001",191646840,"L"
112054,"122 GRASSY KNOLL LANE","TAYLORSVILLE","NC",28681,35.8929291420001,-81.231019195,54,"122 GRASSY KNOLL LANE, TAYLORSVILLE, NC, 28681","Match","Exact","122 GRASSY KNOLL LN, TAYLORSVILLE, NC, 28681",45795820,"L"
112055,"122 GRAVES ROAD 153","CURLEW","WA",99118,48.9160350490001,-118.633100675,55,"122 GRAVES ROAD 153, CURLEW, WA, 99118","Match","Exact","122 GRAVES RD, CURLEW, WA, 99118",174586638,"L"
112056,"122 GREBE DRIVE","LAKE FREDERICK","VA",22630,39.0483513550001,-78.1670321839999,56,"122 GREBE DRIVE, LAKE FREDERICK, VA, 22630","Match","Exact","122 GREBE DR, LAKE FREDERICK, VA, 22630",617908163,"R"
112057,"122 GREEN ACRES","WHITE CITY","KS",66872,38.7960608440001,-96.7262656789999,57,"122 GREEN ACRES, WHITE CITY, KS, 66872","Match","Non_Exact","122 GREEN ACRES ST, WHITE CITY, KS, 66872",88171399,"L"
112058,"122 GREEN GARDEN DR","MADISON","NE",68748,41.84008241,-97.457251177,58,"122 GREEN GARDEN DR, MADISON, NE, 68748","Match","Exact","122 GREEN GARDEN DR, MADISON, NE, 68748",161561229,"R"
112059,"122 GREEN MEADOW LANE","STATESVILLE","NC",28625,35.83634865,-80.845830978,59,"122 GREEN MEADOW LANE, STATESVILLE, NC, 28625","Match","Exact","122 GREEN MEADOW LN, STATESVILLE, NC, 28625",46007872,"R"
112060,"122 GREEN STREET","VERGENNES","VT",5491,44.163463236,-73.2475041499999,60,"122 GREEN STREET, VERGENNES, VT, 5491","Match","Exact","122 GREEN ST, VERGENNES, VT, 05491",136457489,"L"
112061,"122 GREENBRIER","KALAMA","WA",98625,45.977036013,-122.801589738,61,"122 GREENBRIER, KALAMA, WA, 98625","Match","Non_Exact","122 GREENBRIER LN, KALAMA, WA, 98625",184517582,"R"
112062,"122 GREENFIELD ROAD","FRONT ROYAL","VA",22630,38.9034647020001,-78.12898117,62,"122 GREENFIELD ROAD, FRONT ROYAL, VA, 22630","Match","Exact","122 GREENFIELD RD, FRONT ROYAL, VA, 22630",159091821,"L"
112063,"122 GREENSWARD LANE","CHERRY HILL","NJ",8034,NA,NA,63,"122 GREENSWARD LANE, CHERRY HILL, NJ, 8034","No_Match",NA,NA,NA,NA
112064,"122 GREENVALLEY PLACE","LENOIR","NC",28645,35.9365088750001,-81.534645106,64,"122 GREENVALLEY PLACE, LENOIR, NC, 28645","Match","Non_Exact","122 GREENVALLEY PL NE, LENOIR, NC, 28645",639847272,"R"
112065,"122 GREENWICH AVENUE","NEW YORK","NY",10011,40.738817883,-74.0024265709999,65,"122 GREENWICH AVENUE, NEW YORK, NY, 10011","Match","Exact","122 GREENWICH AVE, NEW YORK, NY, 10011",59660882,"L"
112066,"122 GREGG PLACE","BELLEVUE","NE",68005,41.160968858,-95.910871156,66,"122 GREGG PLACE, BELLEVUE, NE, 68005","Match","Exact","122 GREGG PL, BELLEVUE, NE, 68005",28474440,"L"
112067,"122 GREY FOX COURT","STREAMWOOD","IL",60107,42.0232236100001,-88.2111999539999,67,"122 GREY FOX COURT, STREAMWOOD, IL, 60107","Match","Exact","122 GREY FOX CT, STREAMWOOD, IL, 60107",651174404,"R"
112068,"122 GROVE ST APT A","NORTHAMPTON","MA",1060,42.307911974,-72.648384098,68,"122 GROVE ST APT A, NORTHAMPTON, MA, 1060","Match","Exact","122 GROVE ST, NORTHAMPTON, MA, 01060",39867593,"L"
112069,"122 GROVE STREET","MONSEY","NY",10952,41.1101759640001,-74.078321433,69,"122 GROVE STREET, MONSEY, NY, 10952","Match","Exact","122 GROVE ST, MONSEY, NY, 10952",124593760,"R"
112070,"122 GUMBO LIMBO DRIVE","KEY LARGO","FL",33037,25.1191211890001,-80.4153475159999,70,"122 GUMBO LIMBO DRIVE, KEY LARGO, FL, 33037","Match","Exact","122 GUMBO LIMBO DR, KEY LARGO, FL, 33037",116465329,"L"
112071,"122 HADASSAH LANE","LAKEWOOD","NJ",8701,40.068155217,-74.219673303,71,"122 HADASSAH LANE, LAKEWOOD, NJ, 8701","Match","Exact","122 HADASSAH LN, LAKEWOOD, NJ, 08701",637464531,"L"
112072,"122 HAMILTON STREET","RADCLIFF","KY",40160,37.8046123240001,-85.909683805,72,"122 HAMILTON STREET, RADCLIFF, KY, 40160","Match","Exact","122 HAMILTON ST, RADCLIFF, KY, 40160",642588483,"R"
112073,"122 HAMPSHIRE DRIVE","PLAINSBORO","NJ",8536,40.328062721,-74.559330314,73,"122 HAMPSHIRE DRIVE, PLAINSBORO, NJ, 8536","Match","Exact","122 HAMPSHIRE DR, PLAINSBORO, NJ, 08536",647262176,"L"
112074,"122 HANCOCK STREET","CAMBRIDGE","MA",2139,42.3695834280001,-71.107393897,74,"122 HANCOCK STREET, CAMBRIDGE, MA, 2139","Match","Exact","122 HANCOCK ST, CAMBRIDGE, MA, 02139",86868888,"R"
112075,"122 HANKS HILL ROAD","STORRS","CT",6268,41.8049245510001,-72.231500102,75,"122 HANKS HILL ROAD, STORRS, CT, 6268","Match","Exact","122 HANKS HILL RD, STORRS, CT, 06268",56992772,"R"
112076,"122 HARMON DR","THOMASVILLE","NC",27360,35.882382539,-80.126389433,76,"122 HARMON DR, THOMASVILLE, NC, 27360","Match","Exact","122 HARMON DR, THOMASVILLE, NC, 27360",20216255,"R"
112077,"122 HARRIET DRIVE","LOWER BURRELL","PA",15068,40.6108296020001,-79.704772921,77,"122 HARRIET DRIVE, LOWER BURRELL, PA, 15068","Match","Exact","122 HARRIET DR, LOWER BURRELL, PA, 15068",613026582,"R"
112078,"122 HARTWELL TERRACE","MASON","MI",48854,42.5695855600001,-84.44754134,78,"122 HARTWELL TERRACE, MASON, MI, 48854","Match","Exact","122 HARTWELL TER, MASON, MI, 48854",17516494,"L"
112079,"122 HARVEST HILL TRAIL","LEXINGTON","SC",29072,33.96145976,-81.280817984,79,"122 HARVEST HILL TRAIL, LEXINGTON, SC, 29072","Match","Exact","122 HARVEST HILL TRL, LEXINGTON, SC, 29072",628061913,"L"
112080,"122 HASBROOK AVE","CHELTENHAM","PA",19012,40.061972692,-75.089046566,80,"122 HASBROOK AVE, CHELTENHAM, PA, 19012","Match","Exact","122 HASBROOK AVE, CHELTENHAM, PA, 19012",131415068,"L"
112081,"122 HEMLOCK CT","GREENWOOD","SC",29649,34.224858542,-82.1778600279999,81,"122 HEMLOCK CT, GREENWOOD, SC, 29649","Match","Exact","122 HEMLOCK CT, GREENWOOD, SC, 29649",50819331,"R"
112082,"122 HEMPHILL ROAD","WINLOCK","WA",98596,46.5080147310001,-122.921599614,82,"122 HEMPHILL ROAD, WINLOCK, WA, 98596","Match","Exact","122 HEMPHILL RD, WINLOCK, WA, 98596",180715745,"R"
112083,"122 HERON RD","EAST HARTFORD","CT",6118,41.7392652660001,-72.587205264,83,"122 HERON RD, EAST HARTFORD, CT, 6118","Match","Exact","122 HERON RD, EAST HARTFORD, CT, 06118",3497263,"R"
112084,"122 HERRICK STREET","ALBION","NY",14411,43.2442235440001,-78.189251108,84,"122 HERRICK STREET, ALBION, NY, 14411","Match","Exact","122 HERRICK ST, ALBION, NY, 14411",48805021,"L"
112085,"122 HICKOK AVE","SYRACUSE","NY",13206,43.0678232980001,-76.1140510979999,85,"122 HICKOK AVE, SYRACUSE, NY, 13206","Match","Exact","122 HICKOK AVE, SYRACUSE, NY, 13206",46572672,"R"
112086,"122 HICKORY CREEK BLVD","BRANDON","FL",33511,27.8748213010001,-82.282239423,86,"122 HICKORY CREEK BLVD, BRANDON, FL, 33511","Match","Exact","122 HICKORY CREEK BLVD, BRANDON, FL, 33511",104544249,"L"
112087,"122 HICKORY PLACE","CORBIN","KY",40701,36.9238504950001,-84.108549298,87,"122 HICKORY PLACE, CORBIN, KY, 40701","Match","Exact","122 HICKORY PL, CORBIN, KY, 40701",150150183,"R"
112088,"122 HIGH HILL RD","FARMERVILLE","LA",71241,32.793577547,-92.3286440159999,88,"122 HIGH HILL RD, FARMERVILLE, LA, 71241","Match","Exact","122 HIGH HILL RD, FARMERVILLE, LA, 71241",150052511,"R"
112089,"122 HIGH STREET","SHELTON","CT",6484,41.31294409,-73.095351673,89,"122 HIGH STREET, SHELTON, CT, 6484","Match","Exact","122 HIGH ST, SHELTON, CT, 06484",3264937,"L"
112090,"122 HIGHLAND AVENUE","JERSEY CITY","NJ",7306,40.7290109620001,-74.071796922,90,"122 HIGHLAND AVENUE, JERSEY CITY, NJ, 7306","Match","Exact","122 HIGHLAND AVE, JERSEY CITY, NJ, 07306",59603768,"R"
112091,"122 HILL BOULEVARD","PETALUMA","CA",94952,38.224669835,-122.647352407,91,"122 HILL BOULEVARD, PETALUMA, CA, 94952","Match","Exact","122 HILL BLVD, PETALUMA, CA, 94952",67477740,"L"
112092,"122 HILLBROOK DR","SPARTANBURG","SC",29307,34.9655608350001,-81.880753114,92,"122 HILLBROOK DR, SPARTANBURG, SC, 29307","Match","Exact","122 HILLBROOK DR, SPARTANBURG, SC, 29307",19471740,"R"
112093,"122 HILLBROOK DRIVE","SPARTANBURG","SC",29307,34.9655608350001,-81.880753114,93,"122 HILLBROOK DRIVE, SPARTANBURG, SC, 29307","Match","Exact","122 HILLBROOK DR, SPARTANBURG, SC, 29307",19471740,"R"
112094,"122 HILLCREST RD","RALEIGH","NC",27605,35.784363195,-78.657276351,94,"122 HILLCREST RD, RALEIGH, NC, 27605","Match","Exact","122 HILLCREST RD, RALEIGH, NC, 27605",639841369,"R"
112095,"122 HILLSIDE AVENUE","NUTLEY","NJ",7110,40.823208826,-74.1584243149999,95,"122 HILLSIDE AVENUE, NUTLEY, NJ, 7110","Match","Exact","122 HILLSIDE AVE, NUTLEY, NJ, 07110",63494696,"R"
112096,"122 HILLVIEW COURT","FRANKFORT","KY",40601,38.1927462310001,-84.82946765,96,"122 HILLVIEW COURT, FRANKFORT, KY, 40601","Match","Exact","122 HILLVIEW CT, FRANKFORT, KY, 40601",635027513,"R"
112097,"122 HILLWOOD LN","LAUREL","MS",39443,31.6456234610001,-89.12161744,97,"122 HILLWOOD LN, LAUREL, MS, 39443","Match","Exact","122 HILLWOOD LN, LAUREL, MS, 39443",429688,"R"
112098,"122 HOLLYWOOD BLVD","MARKSVILLE","LA",71351,31.228907701,-91.966343275,98,"122 HOLLYWOOD BLVD, MARKSVILLE, LA, 71351","Match","Exact","122 HOLLYWOOD BLVD, MARKSVILLE, LA, 71351",636248725,"L"
112099,"122 HOPE DR","SUMMERVILLE","SC",29485,32.9944206820001,-80.178215372,99,"122 HOPE DR, SUMMERVILLE, SC, 29485","Match","Exact","122 HOPE DR, SUMMERVILLE, SC, 29485",178464172,"R"
112100,"122 HOPE","SAN ANTONIO","TX",78228,29.468867195,-98.580219545,100,"122 HOPE, SAN ANTONIO, TX, 78228","Match","Non_Exact","122 HOPE DR, SAN ANTONIO, TX, 78228",101509809,"L"
112101,"122 HOTTS LANE","MADISON","AL",35757,34.8078227080001,-86.734947034,101,"122 HOTTS LANE, MADISON, AL, 35757","Match","Exact","122 HOTTS LN, MADISON, AL, 35757",58136154,"L"
112102,"122 HOWITZER CIRCLE","WEST COLUMBIA","SC",29170,33.8911890680001,-81.151747518,102,"122 HOWITZER CIRCLE, WEST COLUMBIA, SC, 29170","Match","Exact","122 HOWITZER CIR, WEST COLUMBIA, SC, 29170",70088755,"L"
112103,"122 HUB AVENUE","SAN ANTONIO","TX",78220,29.4161033340001,-98.439400687,103,"122 HUB AVENUE, SAN ANTONIO, TX, 78220","Match","Exact","122 HUB AVE, SAN ANTONIO, TX, 78220",101531194,"R"
112104,"122 HUDSON STREET","HACKENSACK","NJ",7601,40.8750116430001,-74.0427722009999,104,"122 HUDSON STREET, HACKENSACK, NJ, 7601","Match","Exact","122 HUDSON ST, HACKENSACK, NJ, 07601",64413204,"L"
112105,"122 HUMMINGBIRD CIRCLE","LIVINGSTON","TX",77351,30.6984287340001,-94.939852389,105,"122 HUMMINGBIRD CIRCLE, LIVINGSTON, TX, 77351","Match","Exact","122 HUMMINGBIRD CIR, LIVINGSTON, TX, 77351",23221708,"L"
112106,"122 HUNNS LAKE ROAD","STANFORDVILLE","NY",12581,41.87633372,-73.69026839,106,"122 HUNNS LAKE ROAD, STANFORDVILLE, NY, 12581","Match","Exact","122 HUNNS LAKE RD, STANFORDVILLE, NY, 12581",636533324,"R"
112107,"122 HUNTERCOMBE","WILLIAMSBURG","VA",23188,37.2949277590001,-76.793391083,107,"122 HUNTERCOMBE, WILLIAMSBURG, VA, 23188","Match","Exact","122 HUNTERCOMBE, WILLIAMSBURG, VA, 23188",103769762,"L"
112108,"122 HUNTWOOD DRIVE","RUTHERFORDTON","NC",28139,35.4100361440001,-82.0746511249999,108,"122 HUNTWOOD DRIVE, RUTHERFORDTON, NC, 28139","Match","Non_Exact","122 HUNTWOOD LN, RUTHERFORDTON, NC, 28139",19402323,"R"
112109,"122 INTERVALE STREET","BROCKTON","MA",2302,42.1055002190001,-71.018456336,109,"122 INTERVALE STREET, BROCKTON, MA, 2302","Match","Exact","122 INTERVALE ST, BROCKTON, MA, 02302",87442148,"L"
112110,"122 IOTA ST","BELLE CHASSE","LA",70037,29.825203548,-90.006618684,110,"122 IOTA ST, BELLE CHASSE, LA, 70037","Match","Exact","122 IOTA ST, BELLE CHASSE, LA, 70037",191939704,"L"
112111,"122 ISAAC FRYE HWY","WILTON","NH",3086,42.815559325,-71.7300888299999,111,"122 ISAAC FRYE HWY, WILTON, NH, 3086","Match","Exact","122 ISAAC FRYE HWY, WILTON, NH, 03086",641494626,"L"
112112,"122 J W LN","RAYNE","LA",70578,30.2427070250001,-92.229052031,112,"122 J W LN, RAYNE, LA, 70578","Match","Exact","122 J W LN, RAYNE, LA, 70578",88308409,"R"
112113,"122 JACK PINE ST","BOX ELDER","MT",59521,48.3016966430001,-109.995848627,113,"122 JACK PINE ST, BOX ELDER, MT, 59521","Match","Exact","122 JACK PINE ST, BOX ELDER, MT, 59521",628308988,"L"
112114,"122 JACKIES TERRACE","MADISON","AL",35758,34.7337641670001,-86.782206179,114,"122 JACKIES TERRACE, MADISON, AL, 35758","Match","Exact","122 JACKIES TER, MADISON, AL, 35758",58151370,"R"
112115,"122 JEFFERSON DRIVE","CLAIRTON","PA",15025,40.2888090070001,-79.893317407,115,"122 JEFFERSON DRIVE, CLAIRTON, PA, 15025","Match","Exact","122 JEFFERSON DR, CLAIRTON, PA, 15025",639692121,"L"
112116,"122 JENNIFER LN","FELTON","DE",19943,39.0316769820001,-75.529142287,116,"122 JENNIFER LN, FELTON, DE, 19943","Match","Exact","122 JENNIFER LN, FELTON, DE, 19943",68099340,"L"
112117,"122 JO JO RD","KANE","PA",16735,41.63744645,-78.8448459259999,117,"122 JO JO RD, KANE, PA, 16735","Match","Exact","122 JO JO RD, KANE, PA, 16735",122644269,"R"
112118,"122 JOHN STREET","HACKENSACK","NJ",7601,40.8792278550001,-74.050508978,118,"122 JOHN STREET, HACKENSACK, NJ, 7601","Match","Exact","122 JOHN ST, HACKENSACK, NJ, 07601",64386336,"R"
112119,"122 JOHN WILLIS ROAD","WIGGINS","MS",39577,30.8392265370001,-89.0628003209999,119,"122 JOHN WILLIS ROAD, WIGGINS, MS, 39577","Match","Exact","122 JOHN WILLIS RD, WIGGINS, MS, 39577",647437154,"L"
112120,"122 JOHNSTONE TRAIL","GEORGETOWN","KY",40324,38.2194809100001,-84.523539392,120,"122 JOHNSTONE TRAIL, GEORGETOWN, KY, 40324","Match","Exact","122 JOHNSTONE TRL, GEORGETOWN, KY, 40324",211986122,"R"
112121,"122 JORGENSEN RD","ONALASKA","WA",98570,46.57628341,-122.691671667,121,"122 JORGENSEN RD, ONALASKA, WA, 98570","Match","Exact","122 JORGENSEN RD, ONALASKA, WA, 98570",180733729,"L"
112122,"122 JOYCETON WAY","UPPER MARLBORO","MD",20774,38.893024285,-76.818148282,122,"122 JOYCETON WAY, UPPER MARLBORO, MD, 20774","Match","Exact","122 JOYCETON WAY, UPPER MARLBORO, MD, 20774",624430030,"R"
112123,"122 JULIA","BELLEVILLE","IL",62223,38.5768203060001,-90.060963255,123,"122 JULIA, BELLEVILLE, IL, 62223","Match","Non_Exact","122 JULIA AVE, BELLEVILLE, IL, 62223",107837933,"L"
112124,"122 KATE COURT","BARNESVILLE","GA",30204,33.0588118320001,-84.1642613019999,124,"122 KATE COURT, BARNESVILLE, GA, 30204","Match","Exact","122 KATE CT, BARNESVILLE, GA, 30204",66647621,"L"
112125,"122 KEMP LANE","STEVENSVILLE",NA,NA,39.0318863160001,-76.31144471,125,"122 KEMP LANE, STEVENSVILLE, , ","Match","Exact","122 KEMP LN, STEVENSVILLE, MD, 21666",68051146,"R"
112126,"122 KENT STREET","HARTFORD","CT",6112,41.7846184260001,-72.7002664469999,126,"122 KENT STREET, HARTFORD, CT, 6112","Match","Exact","122 KENT ST, HARTFORD, CT, 06112",3488904,"R"
112127,"122 KENTSHIRE LANE","BONAIRE","GA",31005,32.5697599050001,-83.6472023699999,127,"122 KENTSHIRE LANE, BONAIRE, GA, 31005","Match","Exact","122 KENTSHIRE LN, BONAIRE, GA, 31005",91257887,"R"
112128,"122 KENTUCKY AVE SE","WASHINGTON","DC",20003,38.8887872010001,-76.9893856309999,128,"122 KENTUCKY AVE SE, WASHINGTON, DC, 20003","Match","Exact","122 KENTUCKY AVE SE, WASHINGTON, DC, 20003",76230375,"L"
112129,"122 KERFOOT AVE","FRONT ROYAL","VA",22630,38.920865539,-78.2054001079999,129,"122 KERFOOT AVE, FRONT ROYAL, VA, 22630","Match","Exact","122 KERFOOT AVE, FRONT ROYAL, VA, 22630",159079514,"R"
112130,"122 KERFOOT AVENUE","FRONT ROYAL","VA",22630,38.920865539,-78.2054001079999,130,"122 KERFOOT AVENUE, FRONT ROYAL, VA, 22630","Match","Exact","122 KERFOOT AVE, FRONT ROYAL, VA, 22630",159079514,"R"
112131,"122 KINCAID AVE","LAKE ZURICH","IL",60047,42.199647414,-88.093251639,131,"122 KINCAID AVE, LAKE ZURICH, IL, 60047","Match","Non_Exact","122 KINCAID DR, LAKE ZURICH, IL, 60047",119634339,"L"
112132,"122 KINSMAN HILL ROAD","LISBON","CT",6351,41.6145216350001,-72.0305392659999,132,"122 KINSMAN HILL ROAD, LISBON, CT, 6351","Match","Exact","122 KINSMAN HILL RD, LISBON, CT, 06351",56845531,"R"
112133,"122 KIOWA LANE","MONROE","LA",71203,32.5321089830001,-91.976280903,133,"122 KIOWA LANE, MONROE, LA, 71203","Match","Exact","122 KIOWA LN, MONROE, LA, 71203",653314939,"L"
112134,"122 KIRKLAND DRIVE","STOW","MA",1775,42.4563974330001,-71.5357065699999,134,"122 KIRKLAND DRIVE, STOW, MA, 1775","Match","Exact","122 KIRKLAND DR, STOW, MA, 01775",86900607,"L"
112135,"122 KLONDIKE AVENUE","HAVERHILL","MA",1832,42.76429847,-71.132983254,135,"122 KLONDIKE AVENUE, HAVERHILL, MA, 1832","Match","Exact","122 KLONDIKE AVE, HAVERHILL, MA, 01832",86690772,"L"
112136,"122 KNOB CREEK","TUSTIN","CA",92602,33.752643934,-117.750561135,136,"122 KNOB CREEK, TUSTIN, CA, 92602","Match","Non_Exact","122 KNOB CREEK, IRVINE, CA, 92602",650685769,"R"
112137,"122 KREWSON TERRACE","WILLOW GROVE","PA",19090,40.14172596,-75.111136078,137,"122 KREWSON TERRACE, WILLOW GROVE, PA, 19090","Match","Exact","122 KREWSON TER, WILLOW GROVE, PA, 19090",135080284,"R"
112138,"122 KYLERS CORNER ROAD","KERSEY","PA",15846,41.316759076,-78.639464703,138,"122 KYLERS CORNER ROAD, KERSEY, PA, 15846","Match","Exact","122 KYLERS CORNER RD, KERSEY, PA, 15846",157852864,"L"
112139,"122 LAKE ROAD","BALLSTON LAKE","NY",12019,42.943847271,-73.852874573,139,"122 LAKE ROAD, BALLSTON LAKE, NY, 12019","Match","Exact","122 LAKE RD, BALLSTON LAKE, NY, 12019",617271879,"L"
112140,"122 LAKE SHORE DRIVE","BENSON","NC",27504,35.3943711520001,-78.5522586179999,140,"122 LAKE SHORE DRIVE, BENSON, NC, 27504","Match","Exact","122 LAKE SHORE DR, BENSON, NC, 27504",26555113,"R"
112141,"122 LAKESHORE DR STE 732","NORTH PALM BEACH","FL",33408,26.8315160610001,-80.056973893,141,"122 LAKESHORE DR STE 732, NORTH PALM BEACH, FL, 33408","Match","Exact","122 LAKESHORE DR, NORTH PALM BEACH, FL, 33408",653195203,"L"
112142,"122 LAKEVIEW DR","DENVER","IA",50622,42.6920547980001,-92.3916567749999,142,"122 LAKEVIEW DR, DENVER, IA, 50622","Match","Exact","122 LAKEVIEW DR, DENVER, IA, 50622",77362829,"R"
112143,"122 LAKEVIEW LANE","ANDERSONVILLE","TN",37705,36.2469227330001,-84.052957321,143,"122 LAKEVIEW LANE, ANDERSONVILLE, TN, 37705","Match","Exact","122 LAKEVIEW LN, ANDERSONVILLE, TN, 37705",90142641,"R"
112144,"122 LANDRUM DR","TOOMSUBA","MS",39364,NA,NA,144,"122 LANDRUM DR, TOOMSUBA, MS, 39364","No_Match",NA,NA,NA,NA
112145,"122 LARCH RD","CAMBRIDGE","MA",2138,42.3791557750001,-71.143104025,145,"122 LARCH RD, CAMBRIDGE, MA, 2138","Match","Exact","122 LARCH RD, CAMBRIDGE, MA, 02138",86892075,"L"
112146,"122 LATTER RAYNE DR","FLOWOOD","MS",39232,32.3476576790001,-90.02457355,146,"122 LATTER RAYNE DR, FLOWOOD, MS, 39232","Match","Exact","122 LATTER RAYNE DR, FLOWOOD, MS, 39232",612530353,"R"
112147,"122 LAUREL RIDGE LN","MURPHY","NC",28906,35.057099281,-83.983112723,147,"122 LAUREL RIDGE LN, MURPHY, NC, 28906","Match","Exact","122 LAUREL RIDGE, MURPHY, NC, 28906",35851021,"L"
112148,"122 LAUREN CIRCLE APT 3","BELLEVILLE","IL",62223,38.5413661640001,-90.05108043,148,"122 LAUREN CIRCLE APT 3, BELLEVILLE, IL, 62223","Match","Exact","122 LAUREN CIR, BELLEVILLE, IL, 62223",642921528,"R"
112149,"122 LAWDON STREET","NORTH SYRACUSE","NY",13212,43.130167369,-76.15540565,149,"122 LAWDON STREET, NORTH SYRACUSE, NY, 13212","Match","Exact","122 LAWDON ST, N SYRACUSE, NY, 13212",46567042,"R"
112150,"122 LEE PARKWAY DR 105","CHATTANOOGA","TN",37421,35.0747029360001,-85.2344919769999,150,"122 LEE PARKWAY DR 105, CHATTANOOGA, TN, 37421","Match","Non_Exact","122 PARKWAY DR, CHATTANOOGA, TN, 37406",59310097,"L"
112151,"122 LEE ST","NEW IBERIA","LA",70560,29.9993789810001,-91.807815682,151,"122 LEE ST, NEW IBERIA, LA, 70560","Match","Exact","122 LEE ST, NEW IBERIA, LA, 70560",85353776,"L"
112152,"122 LENA LOOP","DICKSON","TN",37055,36.031467417,-87.361903943,152,"122 LENA LOOP, DICKSON, TN, 37055","Match","Non_Exact","122 LENA RD, DICKSON, TN, 37055",72757003,"L"
112153,"122 LEONARD AVE","NEDROW","NY",13120,NA,NA,153,"122 LEONARD AVE, NEDROW, NY, 13120","No_Match",NA,NA,NA,NA
112154,"122 LEWIS RD","LINCOLN","ND",58504,46.7680879000001,-100.697327092,154,"122 LEWIS RD, LINCOLN, ND, 58504","Match","Exact","122 LEWIS RD, LINCOLN, ND, 58504",198883350,"L"
112155,"122 LEWIS ST 2","SAN ANTONIO","TX",78212,29.4386967560001,-98.4967052169999,155,"122 LEWIS ST 2, SAN ANTONIO, TX, 78212","Match","Exact","122 LEWIS ST, SAN ANTONIO, TX, 78212",101525563,"R"
112156,"122 LEXINGTON ROAD","DRACUT","MA",1826,42.669251156,-71.2799307509999,156,"122 LEXINGTON ROAD, DRACUT, MA, 1826","Match","Exact","122 LEXINGTON RD, DRACUT, MA, 01826",86878017,"L"
112157,"122 LILLY PAD","MILLBROOK","AL",36054,32.501980066,-86.365341481,157,"122 LILLY PAD, MILLBROOK, AL, 36054","Match","Non_Exact","122 LILLY PAD CIR, MILLBROOK, AL, 36054",1378176,"R"
112158,"122 LILY POND LANE","KATONAH","NY",10536,41.2460126510001,-73.705015192,158,"122 LILY POND LANE, KATONAH, NY, 10536","Match","Exact","122 LILY POND LN, KATONAH, NY, 10536",139768821,"L"
112159,"122 LINCOLN AVE","EATONVILLE","FL",32751,NA,NA,159,"122 LINCOLN AVE, EATONVILLE, FL, 32751","No_Match",NA,NA,NA,NA
112160,"122 LINCOLN ST","HOT SPRINGS","AR",71901,34.498196073,-93.044994378,160,"122 LINCOLN ST, HOT SPRINGS, AR, 71901","Match","Exact","122 LINCOLN ST, HOT SPRINGS, AR, 71901",22732699,"L"
112161,"122 LINDEN LANE","KANSASVILLE","WI",53139,NA,NA,161,"122 LINDEN LANE, KANSASVILLE, WI, 53139","No_Match",NA,NA,NA,NA
112162,"122 LINDEN ST","BRIDGEWATER","NJ",8807,40.564935543,-74.651823639,162,"122 LINDEN ST, BRIDGEWATER, NJ, 8807","Match","Exact","122 LINDEN ST, BRIDGEWATER, NJ, 08807",59944847,"L"
112163,"122 LITCHFIELD RD  STE 2  NO 312","HARWINTON","CT",6791,41.7694390870001,-73.071867579,163,"122 LITCHFIELD RD  STE 2  NO 312, HARWINTON, CT, 6791","Match","Exact","122 LITCHFIELD RD, HARWINTON, CT, 06791",3121138,"L"
112164,"122 LITEWOOD LANE","MOORESVILLE","NC",28117,35.593899164,-80.844249888,164,"122 LITEWOOD LANE, MOORESVILLE, NC, 28117","Match","Exact","122 LITEWOOD LN, MOORESVILLE, NC, 28117",46030854,"R"
112165,"122 LITLLE RANCH CIRCLE","OAKLEY","CA",94561,37.9748476950001,-121.704413403,165,"122 LITLLE RANCH CIRCLE, OAKLEY, CA, 94561","Match","Non_Exact","122 LITTLE RANCH CIR, OAKLEY, CA, 94561",629630186,"L"
112166,"122 LITTLEBROOK RD","JOSHUA","TX",76058,32.4659816130001,-97.370038307,166,"122 LITTLEBROOK RD, JOSHUA, TX, 76058","Match","Exact","122 LITTLEBROOK RD, JOSHUA, TX, 76058",103517098,"R"
112167,"122 LITTLEWING WAY","STEPHENS CITY","VA",22655,39.072456738,-78.206641223,167,"122 LITTLEWING WAY, STEPHENS CITY, VA, 22655","Match","Exact","122 LITTLEWING WAY, STEPHENS CITY, VA, 22655",648079390,"L"
112168,"122 LOCUST LANE","IRVINGTON","NY",10533,41.03282977,-73.862795939,168,"122 LOCUST LANE, IRVINGTON, NY, 10533","Match","Exact","122 LOCUST LN, IRVINGTON, NY, 10533",139840364,"L"
112169,"122 LOGAN STREET APT 304","ATLANTA","GA",30312,33.744650769,-84.3834160059999,169,"122 LOGAN STREET APT 304, ATLANTA, GA, 30312","Match","Non_Exact","122 LOGAN ST SE, ATLANTA, GA, 30312",628061956,"L"
112170,"122 LOGAN STREET","CHARLESTON","SC",29401,32.779191611,-79.936205633,170,"122 LOGAN STREET, CHARLESTON, SC, 29401","Match","Exact","122 LOGAN ST, CHARLESTON, SC, 29401",635788729,"R"
112171,"122 LONG COULEE RD","HOLMEN","WI",54636,43.9654220510001,-91.2566795989999,171,"122 LONG COULEE RD, HOLMEN, WI, 54636","Match","Exact","122 LONG COULEE RD, HOLMEN, WI, 54636",51009061,"R"
112172,"122 LORETTA PLACE","SAN ANTONIO","TX",78210,29.397487627,-98.484231843,172,"122 LORETTA PLACE, SAN ANTONIO, TX, 78210","Match","Exact","122 LORETTA PL, SAN ANTONIO, TX, 78210",101527444,"L"
112173,"122 LOWER RIVER ROAD","SANFORD","NC",27330,35.5397865040001,-79.03629965,173,"122 LOWER RIVER ROAD, SANFORD, NC, 27330","Match","Exact","122 LOWER RIVER RD, SANFORD, NC, 27330",72078203,"R"
112174,"122 LUCY LANE","DOTHAN","AL",36303,31.248263453,-85.4589564409999,174,"122 LUCY LANE, DOTHAN, AL, 36303","Match","Exact","122 LUCY LN, DOTHAN, AL, 36303",101222410,"R"
112175,"122 LUDLOW ST 1J","NEWARK","NJ",7114,40.689783828,-74.2052360609999,175,"122 LUDLOW ST 1J, NEWARK, NJ, 7114","Match","Exact","122 LUDLOW ST, NEWARK, NJ, 07114",63466728,"L"
112176,"122 LUKE CT","EKRON","KY",40117,NA,NA,176,"122 LUKE CT, EKRON, KY, 40117","No_Match",NA,NA,NA,NA
112177,"122 LURENE DRIVE","FREMONT","CA",94539,37.5250740910001,-121.918750781,177,"122 LURENE DRIVE, FREMONT, CA, 94539","Match","Exact","122 LURENE DR, FREMONT, CA, 94539",650339538,"L"
112178,"122 LUTZ LANE","WEST MIFFLIN","PA",15122,40.3616948980001,-79.9264189949999,178,"122 LUTZ LANE, WEST MIFFLIN, PA, 15122","Match","Exact","122 LUTZ LN, WEST MIFFLIN, PA, 15122",51652065,"R"
112179,"122 M UPPER ST","LEXINGTON","KY",40507,NA,NA,179,"122 M UPPER ST, LEXINGTON, KY, 40507","Tie",NA,NA,NA,NA
112180,"122 MACKAY DRIVE","BRUNSWICK","GA",31525,31.2709529700001,-81.431317688,180,"122 MACKAY DRIVE, BRUNSWICK, GA, 31525","Match","Exact","122 MACKAY DR, BRUNSWICK, GA, 31525",635620719,"L"
112181,"122 MACLAINE DR","CARNEGIE","PA",15106,40.415482415,-80.1219843439999,181,"122 MACLAINE DR, CARNEGIE, PA, 15106","Match","Exact","122 MACLAINE DR, CARNEGIE, PA, 15106",617245096,"L"
112182,"122 MADISON COURT","LEWES","DE",19958,NA,NA,182,"122 MADISON COURT, LEWES, DE, 19958","Tie",NA,NA,NA,NA
112183,"122 MADISON PLACE","ADAIRSVILLE","GA",30103,34.3802781680001,-84.931166482,183,"122 MADISON PLACE, ADAIRSVILLE, GA, 30103","Match","Exact","122 MADISON PL, ADAIRSVILLE, GA, 30103",627717055,"R"
112184,"122 MAGGIE WAY APT 201","LODI","NJ",7644,NA,NA,184,"122 MAGGIE WAY APT 201, LODI, NJ, 7644","No_Match",NA,NA,NA,NA
112185,"122 MAGNOLIA STREET","TRUSSVILLE","AL",35173,33.625600246,-86.6066378199999,185,"122 MAGNOLIA STREET, TRUSSVILLE, AL, 35173","Match","Exact","122 MAGNOLIA ST, TRUSSVILLE, AL, 35173",81570797,"L"
112186,"122 MAIN ST","ANDERSON","MO",64831,36.6510009020001,-94.4456928449999,186,"122 MAIN ST, ANDERSON, MO, 64831","Match","Exact","122 MAIN ST, ANDERSON, MO, 64831",605204266,"L"
112187,"122 MAIN ST","CONCORD","MA",1742,42.4592190640001,-71.353067016,187,"122 MAIN ST, CONCORD, MA, 1742","Match","Exact","122 MAIN ST, CONCORD, MA, 01742",613842519,"R"
112188,"122 MAIN ST","GAASTRA","MI",49927,46.0584129040001,-88.597914582,188,"122 MAIN ST, GAASTRA, MI, 49927","Match","Exact","122 MAIN ST, GAASTRA, MI, 49927",165182056,"L"
112189,"122 MALLARD LANE","TEN MILE","TN",37880,35.6960114240001,-84.6958640129999,189,"122 MALLARD LANE, TEN MILE, TN, 37880","Match","Exact","122 MALLARD LN, TEN MILE, TN, 37880",638844309,"R"
112190,"122 MANHATTAN AVENUE","NEW YORK","NY",10025,40.798040449,-73.961931793,190,"122 MANHATTAN AVENUE, NEW YORK, NY, 10025","Match","Exact","122 MANHATTAN AVE, NEW YORK, NY, 10025",59656907,"R"
112191,"122 MARIAHS WALK","HAMPTON","GA",30228,33.441029246,-84.262077618,191,"122 MARIAHS WALK, HAMPTON, GA, 30228","Match","Non_Exact","122 MORIAH'S WALK, HAMPTON, GA, 30228",619916807,"R"
112192,"122 MARIAN WAY","SEQUIM","WA",98382,48.098942342,-123.114603068,192,"122 MARIAN WAY, SEQUIM, WA, 98382","Match","Exact","122 MARIAN WAY, SEQUIM, WA, 98382",150873289,"R"
112193,"122 MARS HILL LANE APT 304","MARS HILL","NC",28754,NA,NA,193,"122 MARS HILL LANE APT 304, MARS HILL, NC, 28754","No_Match",NA,NA,NA,NA
112194,"122 MARSH ST","TAPPAHANNOCK","VA",22560,37.930994561,-76.858618591,194,"122 MARSH ST, TAPPAHANNOCK, VA, 22560","Match","Exact","122 MARSH ST, TAPPAHANNOCK, VA, 22560",21878841,"R"
112195,"122 MARY AVE","OLIVEHURST","CA",95961,NA,NA,195,"122 MARY AVE, OLIVEHURST, CA, 95961","No_Match",NA,NA,NA,NA
112196,"122 MARY LANE","SCOTTSBLUFF","NE",69361,41.8577016850001,-103.641628511,196,"122 MARY LANE, SCOTTSBLUFF, NE, 69361","Match","Exact","122 MARY LN, SCOTTSBLUFF, NE, 69361",160060373,"R"
112197,"122 MASONDALE AVE","DURHAM","NC",27707,35.9753470160001,-78.907468318,197,"122 MASONDALE AVE, DURHAM, NC, 27707","Match","Exact","122 MASONDALE AVE, DURHAM, NC, 27707",638806083,"R"
112198,"122 MATTERHORN DR","DOVER","DE",19943,39.1665883850001,-75.5480063919999,198,"122 MATTERHORN DR, DOVER, DE, 19943","Match","Non_Exact","122 MATTERHORN DR, DOVER, DE, 19904",618249202,"L"
112199,"122 MATTHEWS DRIVE","WENTZVILLE","MO",63385,38.7840777810001,-90.844285011,199,"122 MATTHEWS DRIVE, WENTZVILLE, MO, 63385","Match","Exact","122 MATTHEWS DR, WENTZVILLE, MO, 63385",100085147,"R"
112200,"122 MAYBROOK ROAD","HOLLAND","MA",1521,42.032023022,-72.15206778,200,"122 MAYBROOK ROAD, HOLLAND, MA, 1521","Match","Exact","122 MAYBROOK RD, HOLLAND, MA, 01521",4042304,"L"
112201,"122 MCKENZIE COURT","MURFREESBORO","TN",37129,35.9803082400001,-86.4042177169999,201,"122 MCKENZIE COURT, MURFREESBORO, TN, 37129","Match","Exact","122 MCKENZIE CT, MURFREESBORO, TN, 37129",606764527,"R"
112202,"122 MCKINLEY ST APT1","LAKE PLACID","NY",12946,44.280315957,-73.986506772,202,"122 MCKINLEY ST APT1, LAKE PLACID, NY, 12946","Match","Exact","122 MCKINLEY ST, LAKE PLACID, NY, 12946",136268211,"R"
112203,"122 MEADOW MILL DR","CONROE","TX",77384,30.2433228420001,-95.499984296,203,"122 MEADOW MILL DR, CONROE, TX, 77384","Match","Exact","122 MEADOW MILL DR, CONROE, TX, 77384",651122908,"R"
112204,"122 MEADOWBROOK DRIVE","MOUNT CARMEL","IL",62863,38.4379465170001,-87.772868118,204,"122 MEADOWBROOK DRIVE, MOUNT CARMEL, IL, 62863","Match","Non_Exact","122 MEADOWBROOK LN, MOUNT CARMEL, IL, 62863",30032742,"R"
112205,"122 MEADOWBROOK LN","BOWLING GREEN","KY",42101,36.9701308510001,-86.483882363,205,"122 MEADOWBROOK LN, BOWLING GREEN, KY, 42101","Match","Non_Exact","122 MEADOWBROOK CIR, BOWLING GREEN, KY, 42101",28016998,"L"
112206,"122 MELROSE AVE","SANTA CRUZ","CA",95062,36.9830989590001,-122.011659746,206,"122 MELROSE AVE, SANTA CRUZ, CA, 95062","Match","Exact","122 MELROSE AVE, SANTA CRUZ, CA, 95062",125506425,"R"
112207,"122 MESA DR","SALIDA","CO",81201,38.536003135,-106.011438027,207,"122 MESA DR, SALIDA, CO, 81201","Match","Exact","122 MESA DR, SALIDA, CO, 81201",108253905,"L"
112208,"122 MILEY BROOK COURT","CARY","NC",27519,35.7728426460001,-78.8695270489999,208,"122 MILEY BROOK COURT, CARY, NC, 27519","Match","Non_Exact","122 MILLEY BROOK CT, CARY, NC, 27519",72589543,"R"
112209,"122 MILLBURN AVENUE","ATHENS","GA",30605,33.947207522,-83.360844072,209,"122 MILLBURN AVENUE, ATHENS, GA, 30605","Match","Non_Exact","122 MILBURN AVE, ATHENS, GA, 30605",4802955,"L"
112210,"122 MILLS RUN DRIVE","SAVANNAH","GA",31405,32.036284015,-81.1519930219999,210,"122 MILLS RUN DRIVE, SAVANNAH, GA, 31405","Match","Exact","122 MILLS RUN DR, SAVANNAH, GA, 31405",636111568,"R"
112211,"122 MINDY DR","WAYNESBORO","TN",38485,35.3438912990001,-87.7268985059999,211,"122 MINDY DR, WAYNESBORO, TN, 38485","Match","Non_Exact","122 MINDY RD, WAYNESBORO, TN, 38485",22993642,"L"
112212,"122 MINNESOTA ST","OTTUMWA","IA",52501,41.0015216470001,-92.432467106,212,"122 MINNESOTA ST, OTTUMWA, IA, 52501","Match","Exact","122 MINNESOTA ST, OTTUMWA, IA, 52501",89615973,"R"
112213,"122 MINNESOTA","OTTUMWA","IA",52501,41.0015216470001,-92.432467106,213,"122 MINNESOTA, OTTUMWA, IA, 52501","Match","Non_Exact","122 MINNESOTA ST, OTTUMWA, IA, 52501",89615973,"R"
112214,"122 MINT MARIGOLD DRIVE","WYLIE","TX",75098,32.9840623790001,-96.541354703,214,"122 MINT MARIGOLD DRIVE, WYLIE, TX, 75098","Match","Exact","122 MINT MARIGOLD DR, WYLIE, TX, 75098",649102792,"L"
112215,"122 MONTVERDE DR","GREENVILLE","SC",29609,34.9196459450001,-82.384758259,215,"122 MONTVERDE DR, GREENVILLE, SC, 29609","Match","Exact","122 MONTVERDE DR, GREENVILLE, SC, 29609",38297437,"L"
112216,"122 MORRIS AVENUE","SUMMIT","NJ",7901,40.711867424,-74.3485349009999,216,"122 MORRIS AVENUE, SUMMIT, NJ, 7901","Match","Exact","122 MORRIS AVE, SUMMIT, NJ, 07901",60565526,"L"
112217,"122 MORRIS ST","BLOSSBURG","PA",16912,41.6764317230001,-77.0634572129999,217,"122 MORRIS ST, BLOSSBURG, PA, 16912","Match","Exact","122 MORRIS ST, BLOSSBURG, PA, 16912",189663806,"R"
112218,"122 MORRIS STREET","REVERE","MA",2151,42.4468748800001,-71.0226419099999,218,"122 MORRIS STREET, REVERE, MA, 2151","Match","Exact","122 MORRIS ST, REVERE, MA, 02151",85706262,"L"
112219,"122 MOUNT VIEW AVENUE","MCMINNVILLE","TN",37110,35.691887427,-85.755893667,219,"122 MOUNT VIEW AVENUE, MCMINNVILLE, TN, 37110","Match","Exact","122 MOUNT VIEW AVE, MCMINNVILLE, TN, 37110",81350794,"L"
112220,"122 MOURNING DOVE LANE","DOVER","DE",19901,39.1833307860001,-75.487502438,220,"122 MOURNING DOVE LANE, DOVER, DE, 19901","Match","Exact","122 MOURNING DOVE LN, DOVER, DE, 19901",68103164,"L"
112221,"122 MT JOY DRIVE","LEECHBURG","PA",15656,40.6490126750001,-79.571648834,221,"122 MT JOY DRIVE, LEECHBURG, PA, 15656","Match","Exact","122 MT JOY DR, LEECHBURG, PA, 15656",52483114,"R"
112222,"122 MURRAY ST","WATSONTOWN","PA",17777,41.0822940520001,-76.85692985,222,"122 MURRAY ST, WATSONTOWN, PA, 17777","Match","Exact","122 MURRAY ST, WATSONTOWN, PA, 17777",48052845,"L"
112223,"122 MUSSELMAN RD","FREDERICKSBURG","VA",22405,38.33393743,-77.495409653,223,"122 MUSSELMAN RD, FREDERICKSBURG, VA, 22405","Match","Exact","122 MUSSELMAN RD, FREDERICKSBURG, VA, 22405",641116385,"L"
112224,"122 MUTE SWAN PLACE","NEWARK","DE",19711,39.7318243460001,-75.725619552,224,"122 MUTE SWAN PLACE, NEWARK, DE, 19711","Match","Exact","122 MUTE SWAN PL, NEWARK, DE, 19711",187285250,"R"
112225,"122 MYRTLE STREET","CRANFORD","NJ",7016,40.650279563,-74.281959903,225,"122 MYRTLE STREET, CRANFORD, NJ, 7016","Match","Exact","122 MYRTLE ST, CRANFORD, NJ, 07016",60574934,"R"
112226,"122 N 102ND AVE","AVONDALE","AZ",85323,NA,NA,226,"122 N 102ND AVE, AVONDALE, AZ, 85323","No_Match",NA,NA,NA,NA
112227,"122 N 109TH AVE","AVONDALE","AZ",84323,33.44688239,-112.29403655,227,"122 N 109TH AVE, AVONDALE, AZ, 84323","Match","Non_Exact","122 N 109TH AVE, AVONDALE, AZ, 85323",244002204,"L"
112228,"122 N 3RD APT 3H","MOUNT VERNON,","NY",10550,NA,NA,228,"122 N 3RD APT 3H, MOUNT VERNON,, NY, 10550","No_Match",NA,NA,NA,NA
112229,"122 N 48TH AVE","GREELEY","CO",80634,NA,NA,229,"122 N 48TH AVE, GREELEY, CO, 80634","Tie",NA,NA,NA,NA
112230,"122 N 4TH STREET","SANTA PAULA","GA",93060,NA,NA,230,"122 N 4TH STREET, SANTA PAULA, GA, 93060","No_Match",NA,NA,NA,NA
112231,"122 N 5TH APT 3","MIDDLETOWN","IN",47356,39.8381557320001,-85.433185637,231,"122 N 5TH APT 3, MIDDLETOWN, IN, 47356","Match","Non_Exact","122 5TH ST, MIDDLETOWN, IN, 47356",29987934,"L"
112232,"122 N BEMISTON AVE","ST LOUIS","MO",63105,38.6522871660001,-90.336561922,232,"122 N BEMISTON AVE, ST LOUIS, MO, 63105","Match","Exact","122 N BEMISTON AVE, SAINT LOUIS, MO, 63105",100135487,"R"
112233,"122 N BEMISTON","CLAYTON","MO",63105,38.6522871660001,-90.336561922,233,"122 N BEMISTON, CLAYTON, MO, 63105","Match","Non_Exact","122 N BEMISTON AVE, CLAYTON, MO, 63105",100135487,"R"
112234,"122 N BERKELEY AVENUE","FULLERTON","CA",92831,33.87125252,-117.914129933,234,"122 N BERKELEY AVENUE, FULLERTON, CA, 92831","Match","Exact","122 N BERKELEY AVE, FULLERTON, CA, 92831",634259018,"R"
112235,"122 N BOSART AVE","INDIANAPOLIS","IN",46201,39.7708298920001,-86.090205864,235,"122 N BOSART AVE, INDIANAPOLIS, IN, 46201","Match","Exact","122 N BOSART AVE, INDIANAPOLIS, IN, 46201",108001150,"L"
112236,"122 N BRAGG STREET","PERRYVILLE","KY",40468,37.6520855160001,-84.949440158,236,"122 N BRAGG STREET, PERRYVILLE, KY, 40468","Match","Exact","122 N BRAGG ST, PERRYVILLE, KY, 40468",32478359,"R"
112237,"122 N BREARLY ST","MADISON","WI",53703,43.0845777800001,-89.372929509,237,"122 N BREARLY ST, MADISON, WI, 53703","Match","Exact","122 N BREARLY ST, MADISON, WI, 53703",49472182,"L"
112238,"122 N CHURCH STREET","MURFREESBORO","TN",37130,35.8464941560001,-86.391348475,238,"122 N CHURCH STREET, MURFREESBORO, TN, 37130","Match","Exact","122 N CHURCH ST, MURFREESBORO, TN, 37130",59013990,"R"
112239,"122 N CHURCH","BOZEMAN","MT",59715,45.6810955880001,-111.03029344,239,"122 N CHURCH, BOZEMAN, MT, 59715","Match","Non_Exact","122 N CHURCH AVE, BOZEMAN, MT, 59715",163550106,"R"
112240,"122 N CROCKETT ST","GRANBURY","TX",76048,32.44245525,-97.7864923339999,240,"122 N CROCKETT ST, GRANBURY, TX, 76048","Match","Exact","122 N CROCKETT ST, GRANBURY, TX, 76048",158789161,"R"
112241,"122 N CROFT AVE APT 5","LOS ANGELES","CA",90048,NA,NA,241,"122 N CROFT AVE APT 5, LOS ANGELES, CA, 90048","Tie",NA,NA,NA,NA
112242,"122 N DIXON DR","BATAVIA","IL",60510,41.8519933040001,-88.344916095,242,"122 N DIXON DR, BATAVIA, IL, 60510","Match","Exact","122 DIXON DR, BATAVIA, IL, 60510",119543105,"L"
112243,"122 N DREXEL AVE","INDIANAPOLIS","IN",46201,39.77078426,-86.091375031,243,"122 N DREXEL AVE, INDIANAPOLIS, IN, 46201","Match","Exact","122 N DREXEL AVE, INDIANAPOLIS, IN, 46201",108001147,"L"
112244,"122 N EDISON AVE","ROYAL OAK","MI",48067,42.4907611140001,-83.123289744,244,"122 N EDISON AVE, ROYAL OAK, MI, 48067","Match","Exact","122 N EDISON AVE, ROYAL OAK, MI, 48067",69837051,"R"
112245,"122 N ELROY","BARTLETT","IL",60103,41.9954575360001,-88.181484945,245,"122 N ELROY, BARTLETT, IL, 60103","Match","Non_Exact","122 N ELROY AVE, BARTLETT, IL, 60103",111689080,"L"
112246,"122 N FLAME AVE","PAHOKEE","FL",33476,26.824333301,-80.6591457599999,246,"122 N FLAME AVE, PAHOKEE, FL, 33476","Match","Exact","122 N FLAME AVE, PAHOKEE, FL, 33476",115240117,"R"
112247,"122 N GREEN ST","MELVIN","IL",60952,40.5688635170001,-88.2508522649999,247,"122 N GREEN ST, MELVIN, IL, 60952","Match","Exact","122 N GREEN ST, MELVIN, IL, 60952",22341501,"L"
112248,"122 N JOHNSON ST","PONTIAC","MI",48341,42.639388905,-83.308992396,248,"122 N JOHNSON ST, PONTIAC, MI, 48341","Match","Non_Exact","122 N JOHNSON AVE, PONTIAC, MI, 48341",640603678,"R"
112249,"122 N JULIA ST","MOBILE","AL",36604,30.690691185,-88.0678310169999,249,"122 N JULIA ST, MOBILE, AL, 36604","Match","Non_Exact","122 JULIA ST N, MOBILE, AL, 36604",61906590,"R"
112250,"122 N KILBOURN AVE","CHICAGO","IL",60624,41.8826156900001,-87.7380008379999,250,"122 N KILBOURN AVE, CHICAGO, IL, 60624","Match","Exact","122 N KILBOURN AVE, CHICAGO, IL, 60624",605078979,"L"
112251,"122 N LAKE POINTE DR","COLUMBIA","SC",29229,34.108184335,-80.879293533,251,"122 N LAKE POINTE DR, COLUMBIA, SC, 29229","Match","Exact","122 N LAKE POINTE DR, COLUMBIA, SC, 29229",71868462,"L"
112252,"122 N MAGNOLIA AVE APT 145","ANAHEIM","CA",92801,33.8327287390001,-117.975977168,252,"122 N MAGNOLIA AVE APT 145, ANAHEIM, CA, 92801","Match","Non_Exact","122 N MAGNOLIA AVE, ANAHEIM, CA, 92801",144254709,"R"
112253,"122 N MAIN STREET","WAYNESBURG","OH",44688,40.6685038310001,-81.2574554449999,253,"122 N MAIN STREET, WAYNESBURG, OH, 44688","Match","Exact","122 N MAIN ST, WAYNESBURG, OH, 44688",64710119,"R"
112254,"122 N MAIN","BOOKER","TX",79005,36.457201926,-100.538694733,254,"122 N MAIN, BOOKER, TX, 79005","Match","Non_Exact","122 N MAIN ST, BOOKER, TX, 79005",187977447,"R"
112255,"122 N O CONNELL AVE","SPRINGFIELD","MN",56087,44.2402450480001,-94.977628298,255,"122 N O CONNELL AVE, SPRINGFIELD, MN, 56087","Match","Non_Exact","122 N O'CONNELL AVE, SPRINGFIELD, MN, 56087",28570251,"L"
112256,"122 N PINE AVE","LIVINGSTON","TX",77351,30.708994395,-94.93958751,256,"122 N PINE AVE, LIVINGSTON, TX, 77351","Match","Exact","122 N PINE AVE, LIVINGSTON, TX, 77351",23220911,"R"
112257,"122 N VALE STREET STE C","JEFFERSON","TX",75657,NA,NA,257,"122 N VALE STREET STE C, JEFFERSON, TX, 75657","Tie",NA,NA,NA,NA
112258,"122 NAVAHO TRAIL","HUNTSVILLE","AL",35806,34.7766351970001,-86.692311424,258,"122 NAVAHO TRAIL, HUNTSVILLE, AL, 35806","Match","Exact","122 NAVAHO TRL, HUNTSVILLE, AL, 35806",58136609,"R"
112259,"122 NAVAHO TRL","HUNTSVILLE","AL",35806,34.7766351970001,-86.692311424,259,"122 NAVAHO TRL, HUNTSVILLE, AL, 35806","Match","Exact","122 NAVAHO TRL, HUNTSVILLE, AL, 35806",58136609,"R"
112260,"122 NE 136TH AVENUE","PORTLAND","OR",97230,45.523434281,-122.523488944,260,"122 NE 136TH AVENUE, PORTLAND, OR, 97230","Match","Exact","122 NE 136TH AVE, PORTLAND, OR, 97230",623933882,"R"
112261,"122 NE 201ST ST","CLINTON","MO",64735,38.3830069680001,-93.722871866,261,"122 NE 201ST ST, CLINTON, MO, 64735","Match","Non_Exact","122 NE 201ST RD, CLINTON, MO, 64735",44958031,"R"
112262,"122 NE 78 ST APT 1","MIAMI","FL",33138,25.8632148880001,-80.1206517099999,262,"122 NE 78 ST APT 1, MIAMI, FL, 33138","Match","Non_Exact","122 78TH ST, MIAMI, FL, 33141",116009278,"L"
112263,"122 NE MORRIS ROAD","LACEYS SPRING","AL",35754,34.552558048,-86.608725282,263,"122 NE MORRIS ROAD, LACEYS SPRING, AL, 35754","Match","Exact","122 MORRIS RD, LACEYS SPRING, AL, 35754",97111310,"L"
112264,"122 NEBRASKA ROAD","DYES AFB","TX",79607,32.420114004,-99.8151205409999,264,"122 NEBRASKA ROAD, DYES AFB, TX, 79607","Match","Non_Exact","122 NEBRASKA RD, DYESS AFB, TX, 79607",129971935,"R"
112265,"122 NEW ESTATE ROAD","LITTLETON","MA",1460,42.544504605,-71.51017927,265,"122 NEW ESTATE ROAD, LITTLETON, MA, 1460","Match","Exact","122 NEW ESTATE RD, LITTLETON, MA, 01460",636746907,"L"
112266,"122 NEW ST UNIT 5F","PHILADELPHIA","PA",19106,39.954982971,-75.14204456,266,"122 NEW ST UNIT 5F, PHILADELPHIA, PA, 19106","Match","Exact","122 NEW ST, PHILADELPHIA, PA, 19106",131456818,"L"
112267,"122 NEWTOWN ROAD","MECHANICVILLE","NY",12118,NA,NA,267,"122 NEWTOWN ROAD, MECHANICVILLE, NY, 12118","No_Match",NA,NA,NA,NA
112268,"122 NIPPON STREET","PHILADELPHIA","PA",19119,40.0586466620001,-75.1931262149999,268,"122 NIPPON STREET, PHILADELPHIA, PA, 19119","Match","Non_Exact","122 W NIPPON ST, PHILADELPHIA, PA, 19119",131394424,"L"
112269,"122 NORFOLK ST","REHOBOTH","DE",19971,38.710191643,-75.0788427529999,269,"122 NORFOLK ST, REHOBOTH, DE, 19971","Match","Non_Exact","122 NORFOLK ST, REHOBOTH BCH, DE, 19971",106131697,"R"
112270,"122 NORTH 6TH STREET","MADISON","WI",53704,43.099366896,-89.352487571,270,"122 NORTH 6TH STREET, MADISON, WI, 53704","Match","Exact","122 N 6TH ST, MADISON, WI, 53704",49472921,"L"
112271,"122 NORTH FRONTAGE ROAD","BURR RIDGE","IL",60527,NA,NA,271,"122 NORTH FRONTAGE ROAD, BURR RIDGE, IL, 60527","No_Match",NA,NA,NA,NA
112272,"122 NORTH LOCUST ST","VERSAILLES","KY",40383,38.053089291,-84.728726893,272,"122 NORTH LOCUST ST, VERSAILLES, KY, 40383","Match","Exact","122 N LOCUST ST, VERSAILLES, KY, 40383",38496205,"L"
112273,"122 NORTH MAIN STREET  SUITE B","EL DORADO SPRINGS","MO",64744,37.8770591210001,-94.0215705529999,273,"122 NORTH MAIN STREET  SUITE B, EL DORADO SPRINGS, MO, 64744","Match","Exact","122 N MAIN ST, EL DORADO SPRINGS, MO, 64744",44897801,"L"
112274,"122 NORTH ROAD","SAUNDERSTOWN","RI",2874,41.5278874680001,-71.419360701,274,"122 NORTH ROAD, SAUNDERSTOWN, RI, 2874","Match","Exact","122 NORTH RD, SAUNDERSTOWN, RI, 02874",640345658,"L"
112275,"122 NORTH WASHINGTON AVE","MEDFORD","WI",54451,45.1375676590001,-90.3509860899999,275,"122 NORTH WASHINGTON AVE, MEDFORD, WI, 54451","Match","Exact","122 N WASHINGTON AVE, MEDFORD, WI, 54451",117238386,"R"
112276,"122 NORTH WASHINGTON AVENUE","GREENVILLE","SC",29611,34.8385609630001,-82.4425736009999,276,"122 NORTH WASHINGTON AVENUE, GREENVILLE, SC, 29611","Match","Exact","122 N WASHINGTON AVE, GREENVILLE, SC, 29611",38296668,"R"
112277,"122 NORTHEAST DRIVE","WARNER ROBINS","GA",31093,NA,NA,277,"122 NORTHEAST DRIVE, WARNER ROBINS, GA, 31093","No_Match",NA,NA,NA,NA
112278,"122 NORTHHAMPTON CIR","VICTORIA","TX",77904,NA,NA,278,"122 NORTHHAMPTON CIR, VICTORIA, TX, 77904","No_Match",NA,NA,NA,NA
112279,"122 NORTHLAKE DRIVE","MADISON","MS",39232,32.5173722760001,-90.1700015709999,279,"122 NORTHLAKE DRIVE, MADISON, MS, 39232","Match","Non_Exact","122 NORTHLAKE DR, MADISON, MS, 39110",629304165,"R"
112280,"122 NORTHLAND DRIVE","MARQUETTE","MI",49855,46.5409864330001,-87.413940358,280,"122 NORTHLAND DRIVE, MARQUETTE, MI, 49855","Match","Exact","122 NORTHLAND DR, MARQUETTE, MI, 49855",182035757,"L"
112281,"122 NW 17TH PLACE","MIAMI","FL",33125,25.774838157,-80.224383672,281,"122 NW 17TH PLACE, MIAMI, FL, 33125","Match","Exact","122 NW 17TH PL, MIAMI, FL, 33125",116016343,"L"
112282,"122 OAK GROVE CHURCH RD","BENTLEY","LA",71407,31.520002096,-92.543198019,282,"122 OAK GROVE CHURCH RD, BENTLEY, LA, 71407","Match","Exact","122 OAK GROVE CHURCH RD, BENTLEY, LA, 71407",652863312,"R"
112283,"122 OAKHAVEN DR","WEXFORD","PA",15090,40.6357283070001,-80.04472645,283,"122 OAKHAVEN DR, WEXFORD, PA, 15090","Match","Exact","122 OAKHAVEN DR, WEXFORD, PA, 15090",51706151,"R"
112284,"122 OAKLAHOMOA AVE","OAK RIDGE","TN",37830,35.986260089,-84.334169136,284,"122 OAKLAHOMOA AVE, OAK RIDGE, TN, 37830","Match","Non_Exact","122 OKLAHOMA AVE, OAK RIDGE, TN, 37830",88593441,"L"
112285,"122 OCEANWALK DRIVE S","ATLANTIC BEACH","FL",32233,30.356169951,-81.400749253,285,"122 OCEANWALK DRIVE S, ATLANTIC BEACH, FL, 32233","Match","Exact","122 OCEANWALK DR S, ATLANTIC BCH, FL, 32233",83964990,"R"
112286,"122 OKLAHOMA AVENUE","GAHANNA","OH",43230,40.016851651,-82.877259406,286,"122 OKLAHOMA AVENUE, GAHANNA, OH, 43230","Match","Exact","122 OKLAHOMA AVE, GAHANNA, OH, 43230",218655695,"L"
112287,"122 OLD ESSEX AVENUE","MANCHESTER","MA",1944,42.589375492,-70.779969798,287,"122 OLD ESSEX AVENUE, MANCHESTER, MA, 1944","Match","Non_Exact","122 OLD ESSEX RD, MANCHESTER, MA, 01944",636792865,"R"
112288,"122 OLD FORGE RD","SCITUATE","MA",2066,42.189982677,-70.7693479439999,288,"122 OLD FORGE RD, SCITUATE, MA, 2066","Match","Exact","122 OLD FORGE RD, SCITUATE, MA, 02066",640124137,"L"
112289,"122 OLD LARGO RD","LARGO","MD",20708,38.8965738150001,-76.829862167,289,"122 OLD LARGO RD, LARGO, MD, 20708","Match","Non_Exact","122 OLD LARGO RD, LARGO, MD, 20774",76381544,"R"
112290,"122 OLINGER ST","MEYERSDALE","PA",15552,39.818028634,-79.0300685669999,290,"122 OLINGER ST, MEYERSDALE, PA, 15552","Match","Exact","122 OLINGER ST, MEYERSDALE, PA, 15552",70229375,"R"
112291,"122 ORCHARD HILL ROAD","ELMIRA","NY",14903,42.1351552960001,-76.843327217,291,"122 ORCHARD HILL ROAD, ELMIRA, NY, 14903","Match","Exact","122 ORCHARD HILL RD, ELMIRA, NY, 14903",18565835,"R"
112292,"122 OSAGE RIDGE DRIVE","SAND SPRINGS","OK",74063,36.1611819340001,-96.102771597,292,"122 OSAGE RIDGE DRIVE, SAND SPRINGS, OK, 74063","Match","Exact","122 OSAGE RIDGE DR, SAND SPRINGS, OK, 74063",82355810,"R"
112293,"122 OWEN AVE","LANSDOWNE","PA",19050,39.94242912,-75.2749227849999,293,"122 OWEN AVE, LANSDOWNE, PA, 19050","Match","Exact","122 OWEN AVE, LANSDOWNE, PA, 19050",134877894,"L"
112294,"122 PACES RUN","COLUMBIA","SC",29229,NA,NA,294,"122 PACES RUN, COLUMBIA, SC, 29229","No_Match",NA,NA,NA,NA
112295,"122 PARK STREET UNIT 2","MEDFORD","MA",2155,42.4187688700001,-71.0987307039999,295,"122 PARK STREET UNIT 2, MEDFORD, MA, 2155","Match","Exact","122 PARK ST, MEDFORD, MA, 02155",86859189,"L"
112296,"122 PARKWAY DRIVE","FAIRBURN","GA",30213,33.588090048,-84.598901145,296,"122 PARKWAY DRIVE, FAIRBURN, GA, 30213","Match","Exact","122 PARKWAY DR, FAIRBURN, GA, 30213",627548725,"L"
112297,"122 PATRIOTS WAY","HOYT LAKES","MN",55750,47.514080678,-92.162766918,297,"122 PATRIOTS WAY, HOYT LAKES, MN, 55750","Match","Exact","122 PATRIOTS WAY, HOYT LAKES, MN, 55750",624598760,"R"
112298,"122 PEE DEE CIRCLE","MARION","SC",29571,34.167954772,-79.4003566339999,298,"122 PEE DEE CIRCLE, MARION, SC, 29571","Match","Exact","122 PEE DEE CIR, MARION, SC, 29571",28781445,"R"
112299,"122 PENDERBROOK CT","STEPHENS CITY","VA",22655,39.102114413,-78.164763079,299,"122 PENDERBROOK CT, STEPHENS CITY, VA, 22655","Match","Exact","122 PENDERBROOK CT, STEPHENS CITY, VA, 22655",617909111,"R"
112300,"122 PENNYSTONE AVENUE","SAN ANTONIO","TX",78223,29.3758821280001,-98.455648831,300,"122 PENNYSTONE AVENUE, SAN ANTONIO, TX, 78223","Match","Exact","122 PENNYSTONE AVE, SAN ANTONIO, TX, 78223",101534850,"R"
112301,"122 PICASSO DR","OAKLEY","CA",94561,37.995658646,-121.692947463,301,"122 PICASSO DR, OAKLEY, CA, 94561","Match","Exact","122 PICASSO DR, OAKLEY, CA, 94561",624731583,"L"
112302,"122 PIER LANDING","SOUTH MILLS","NC",27976,36.4914147970001,-76.33995268,302,"122 PIER LANDING, SOUTH MILLS, NC, 27976","Match","Exact","122 PIER LNDG, SOUTH MILLS, NC, 27976",614117540,"L"
112303,"122 PINNELL STREET","RIPLEY","WV",25271,NA,NA,303,"122 PINNELL STREET, RIPLEY, WV, 25271","No_Match",NA,NA,NA,NA
112304,"122 PIPEMAKERS CIRCLE  SUITE 202","POOLER","GA",31322,32.129657787,-81.25285243,304,"122 PIPEMAKERS CIRCLE  SUITE 202, POOLER, GA, 31322","Match","Exact","122 PIPEMAKERS CIR, POOLER, GA, 31322",634593264,"R"
112305,"122 PIPEMAKERS CIRCLE SUITE 202","POOLER","GA",31322,32.129657787,-81.25285243,305,"122 PIPEMAKERS CIRCLE SUITE 202, POOLER, GA, 31322","Match","Exact","122 PIPEMAKERS CIR, POOLER, GA, 31322",634593264,"R"
112306,"122 PLANE ST  APT 4B","BOONTON","NJ",7005,40.90428289,-74.410187037,306,"122 PLANE ST  APT 4B, BOONTON, NJ, 7005","Match","Exact","122 PLANE ST, BOONTON, NJ, 07005",60494550,"L"
112307,"122 PLANE STREET  APT 4B","BOONTON","NJ",7005,40.90428289,-74.410187037,307,"122 PLANE STREET  APT 4B, BOONTON, NJ, 7005","Match","Exact","122 PLANE ST, BOONTON, NJ, 07005",60494550,"L"
112308,"122 POCONO RD","BOERNE","TX",78006,29.807420285,-98.717764625,308,"122 POCONO RD, BOERNE, TX, 78006","Match","Exact","122 POCONO RD, BOERNE, TX, 78006",644933982,"L"
112309,"122 POLK RD","ELLENBORO","NC",28040,35.3360742790001,-81.793289954,309,"122 POLK RD, ELLENBORO, NC, 28040","Match","Exact","122 POLK RD, ELLENBORO, NC, 28040",19401953,"R"
112310,"122 POPE ISLAND ROAD","MILFORD","CT",6461,41.2216638470001,-73.103811853,310,"122 POPE ISLAND ROAD, MILFORD, CT, 6461","Match","Non_Exact","122 POPES ISLAND RD, MILFORD, CT, 06461",3750890,"R"
112311,"122 PRATT HILL ROAD","HARTFORD","ME",4220,44.3566306550001,-70.300970164,311,"122 PRATT HILL ROAD, HARTFORD, ME, 4220","Match","Exact","122 PRATT HILL RD, HARTFORD, ME, 04220",92677811,"R"
112312,"122 PRINCETON ST","HEMPSTEAD","NY",11550,40.7157789340001,-73.617127524,312,"122 PRINCETON ST, HEMPSTEAD, NY, 11550","Match","Exact","122 PRINCETON ST, HEMPSTEAD, NY, 11550",147627323,"R"
112313,"122 PROSPECT STREET","ROSELLE","NJ",7203,40.66224206,-74.245170886,313,"122 PROSPECT STREET, ROSELLE, NJ, 7203","Match","Exact","122 PROSPECT ST, ROSELLE, NJ, 07203",60576791,"R"
112314,"122 PUBLIC SQUARE NORTH","SHELBVYILLE","TN",37160,35.483460101,-86.460192306,314,"122 PUBLIC SQUARE NORTH, SHELBVYILLE, TN, 37160","Match","Non_Exact","122 PUBLIC SQ N, SHELBYVILLE, TN, 37160",58850099,"L"
112315,"122 PUBLIC SQUARE NORTH","SHELBYVILLE","TN",37160,35.483460101,-86.460192306,315,"122 PUBLIC SQUARE NORTH, SHELBYVILLE, TN, 37160","Match","Exact","122 PUBLIC SQ N, SHELBYVILLE, TN, 37160",58850099,"L"
112316,"122 QUAIL HOLLOW","SAVANNAH","GA",31419,NA,NA,316,"122 QUAIL HOLLOW, SAVANNAH, GA, 31419","Tie",NA,NA,NA,NA
112317,"122 R NORTH DOUGLAS ST","APPLETON","WI",54914,44.2620106750001,-88.430812561,317,"122 R NORTH DOUGLAS ST, APPLETON, WI, 54914","Match","Exact","122 N DOUGLAS ST, APPLETON, WI, 54914",74884679,"R"
112318,"122 REELFOOT CT","MURFREESBORO","TN",37129,35.8996535570001,-86.500615478,318,"122 REELFOOT CT, MURFREESBORO, TN, 37129","Match","Exact","122 REELFOOT CT, MURFREESBORO, TN, 37129",606769027,"L"
112319,"122 REESE STREET","SHARON HILL","PA",19079,39.9114200980001,-75.2671496409999,319,"122 REESE STREET, SHARON HILL, PA, 19079","Match","Exact","122 REESE ST, SHARON HILL, PA, 19079",134899067,"R"
112320,"122 REGAL LANE","LIBERTY","TX",77575,30.0761155430001,-94.8006720939999,320,"122 REGAL LANE, LIBERTY, TX, 77575","Match","Exact","122 REGAL LN, LIBERTY, TX, 77575",636806326,"L"
112321,"122 REGENCY ROAD","MOORESVILLE","NC",28117,35.5741420030001,-80.886154161,321,"122 REGENCY ROAD, MOORESVILLE, NC, 28117","Match","Exact","122 REGENCY RD, MOORESVILLE, NC, 28117",45991146,"L"
112322,"122 REGENCY","MOORESVILLE","NC",28117,35.5741420030001,-80.886154161,322,"122 REGENCY, MOORESVILLE, NC, 28117","Match","Non_Exact","122 REGENCY RD, MOORESVILLE, NC, 28117",45991146,"L"
112323,"122 REGENT DRIVE","LOS GATOS","CA",95032,37.2346157970001,-121.926310138,323,"122 REGENT DRIVE, LOS GATOS, CA, 95032","Match","Exact","122 REGENT DR, LOS GATOS, CA, 95032",635858340,"R"
112324,"122 REGENT ST","SAINT ROBERT","MO",65584,37.8264997590001,-92.177975727,324,"122 REGENT ST, SAINT ROBERT, MO, 65584","Match","Exact","122 REGENT ST, SAINT ROBERT, MO, 65584",26393819,"R"
112325,"122 REMINGTON DRIVE","FOLSOM","CA",95630,38.676725784,-121.143664273,325,"122 REMINGTON DRIVE, FOLSOM, CA, 95630","Match","Exact","122 REMINGTON DR, FOLSOM, CA, 95630",133358454,"L"
112326,"122 REMINGTON RD","NEW ALEXANDRIA","PA",15670,40.4418952820001,-79.4918512249999,326,"122 REMINGTON RD, NEW ALEXANDRIA, PA, 15670","Match","Exact","122 REMINGTON RD, NEW ALEXANDRIA, PA, 15670",53014991,"R"
112327,"122 RENNER ST","PALESTINE","TX",75801,31.7266288170001,-95.602444471,327,"122 RENNER ST, PALESTINE, TX, 75801","Match","Non_Exact","122 RENNER RD, PALESTINE, TX, 75801",74656903,"R"
112328,"122 RICE GATE DRIVE","RICHMOND HILL","GA",31324,31.9173850220001,-81.313232208,328,"122 RICE GATE DRIVE, RICHMOND HILL, GA, 31324","Match","Exact","122 RICE GATE DR, RICHMOND HILL, GA, 31324",624854814,"L"
112329,"122 RIDGE ROAD","CHOCOWINITY","NC",27817,35.502250684,-77.048738073,329,"122 RIDGE ROAD, CHOCOWINITY, NC, 27817","Match","Exact","122 RIDGE RD, CHOCOWINITY, NC, 27817",67962026,"R"
112330,"122 RIDGE ROAD","CHOCOWINTY","NC",27817,35.502250684,-77.048738073,330,"122 RIDGE ROAD, CHOCOWINTY, NC, 27817","Match","Non_Exact","122 RIDGE RD, CHOCOWINITY, NC, 27817",67962026,"R"
112331,"122 RIPPAVILLA STREET","SALTILLO","MS",38866,34.3760311240001,-88.730823265,331,"122 RIPPAVILLA STREET, SALTILLO, MS, 38866","Match","Exact","122 RIPPAVILLA ST, SALTILLO, MS, 38866",634160141,"L"
112332,"122 RIVER BREEZE PLACE","WILLIAMSBURG","MD",23188,NA,NA,332,"122 RIVER BREEZE PLACE, WILLIAMSBURG, MD, 23188","No_Match",NA,NA,NA,NA
112333,"122 RIVER ROAD","WASHINGTON DEPOT","CT",6794,41.6252120120001,-73.323562801,333,"122 RIVER ROAD, WASHINGTON DEPOT, CT, 6794","Match","Exact","122 RIVER RD, WASHINGTON DEPOT, CT, 06794",638554215,"R"
112334,"122 RIVERFORD DIRVE","CENTRAL","SC",29630,34.724717533,-82.824907888,334,"122 RIVERFORD DIRVE, CENTRAL, SC, 29630","Match","Exact","122 RIVERFORD, CENTRAL, SC, 29630",646869709,"R"
112335,"122 RIVERFORD DRIVE","CENTRAL","SC",29630,34.7260976700001,-82.8280600749999,335,"122 RIVERFORD DRIVE, CENTRAL, SC, 29630","Match","Exact","122 RIVERFORD DR, CENTRAL, SC, 29630",26182814,"R"
112336,"122 RIVERPARK DR","MALVERN","AR",72104,34.42014794,-92.864028607,336,"122 RIVERPARK DR, MALVERN, AR, 72104","Match","Exact","122 RIVERPARK DR, MALVERN, AR, 72104",610644686,"L"
112337,"122 RIVERVIEW DR","EAST PALATKA","FL",32131,29.6996233140001,-81.62364199,337,"122 RIVERVIEW DR, EAST PALATKA, FL, 32131","Match","Exact","122 RIVERVIEW DR, EAST PALATKA, FL, 32131",86074604,"L"
112338,"122 RIVERVIEW DRIVE","WATERFORD","WI",53185,42.7572898400001,-88.218410556,338,"122 RIVERVIEW DRIVE, WATERFORD, WI, 53185","Match","Exact","122 RIVERVIEW DR, WATERFORD, WI, 53185",77921981,"R"
112339,"122 RIVERWALK CIR W","PLANTATION","FL",33325,26.1182072620001,-80.3216599579999,339,"122 RIVERWALK CIR W, PLANTATION, FL, 33325","Match","Non_Exact","122 RIVERWALK CIR E, PLANTATION, FL, 33325",648329545,"L"
112340,"122 ROBINWOOD DR","AIKEN","SC",29803,33.527102997,-81.7061383349999,340,"122 ROBINWOOD DR, AIKEN, SC, 29803","Match","Exact","122 ROBINWOOD DR, AIKEN, SC, 29803",64998520,"R"
112341,"122 ROCHELLE AVE","PHILADELPHIA","PA",19128,40.0172037140001,-75.206936003,341,"122 ROCHELLE AVE, PHILADELPHIA, PA, 19128","Match","Exact","122 ROCHELLE AVE, PHILADELPHIA, PA, 19128",131400365,"R"
112342,"122 ROCKPORT DR","MCDONOUGH","GA",30253,33.5140107010001,-84.181959348,342,"122 ROCKPORT DR, MCDONOUGH, GA, 30253","Match","Exact","122 ROCKPORT DR, MCDONOUGH, GA, 30253",23202983,"R"
112343,"122 RODNEY ST","GLEN ROCK","NJ",7452,40.958410498,-74.1312138879999,343,"122 RODNEY ST, GLEN ROCK, NJ, 7452","Match","Exact","122 RODNEY ST, GLEN ROCK, NJ, 07452",64405609,"R"
112344,"122 ROSSMOYNE DR","CRESTVIEW HILLS","KY",41017,39.029597864,-84.584706328,344,"122 ROSSMOYNE DR, CRESTVIEW HILLS, KY, 41017","Match","Non_Exact","122 ROSSMOYNE AVE, CRESTVIEW HLS, KY, 41017",103882480,"R"
112345,"122 ROUND PRAIRIE RD","HUNTSVILLE","TX",77320,30.8522640620001,-95.765235352,345,"122 ROUND PRAIRIE RD, HUNTSVILLE, TX, 77320","Match","Exact","122 ROUND PRAIRIE RD, HUNTSVILLE, TX, 77320",22211143,"L"
112346,"122 ROUTE 139  PO BOX 92","LINCOLNDALE","NY",10540,NA,NA,346,"122 ROUTE 139  PO BOX 92, LINCOLNDALE, NY, 10540","No_Match",NA,NA,NA,NA
112347,"122 ROY SMITH ST APT 3431","SAN ANTONIO","TX",78215,NA,NA,347,"122 ROY SMITH ST APT 3431, SAN ANTONIO, TX, 78215","No_Match",NA,NA,NA,NA
112348,"122 ROYAL PINES DRIVE","BEAUFORT","SC",29907,NA,NA,348,"122 ROYAL PINES DRIVE, BEAUFORT, SC, 29907","No_Match",NA,NA,NA,NA
112349,"122 RUSKIN AVE","TRENTON","NJ",8610,40.1867104350001,-74.7080410469999,349,"122 RUSKIN AVE, TRENTON, NJ, 8610","Match","Exact","122 RUSKIN AVE, TRENTON, NJ, 08610",60198430,"L"
112350,"122 RUSSELL DRIVE","ESKDALE","WV",25075,38.0641272010001,-81.441731207,350,"122 RUSSELL DRIVE, ESKDALE, WV, 25075","Match","Exact","122 RUSSELL DR, ESKDALE, WV, 25075",78687781,"R"
112351,"122 RUSSELL ST","BUFFALO","NY",14214,42.938311631,-78.846052323,351,"122 RUSSELL ST, BUFFALO, NY, 14214","Match","Exact","122 RUSSELL ST, BUFFALO, NY, 14214",48295956,"L"
112352,"122 RUSSELL ST","BUFFALO","NY",14215,42.938311631,-78.846052323,352,"122 RUSSELL ST, BUFFALO, NY, 14215","Match","Non_Exact","122 RUSSELL ST, BUFFALO, NY, 14214",48295956,"L"
112353,"122 RUTHERFORD BLVD","CLIFTON","NJ",7014,40.836132939,-74.1285188909999,353,"122 RUTHERFORD BLVD, CLIFTON, NJ, 7014","Match","Exact","122 RUTHERFORD BLVD, CLIFTON, NJ, 07014",65252617,"R"
112354,"122 RUTLAND STREET","WATERTOWN","MA",2472,42.370692761,-71.205624986,354,"122 RUTLAND STREET, WATERTOWN, MA, 2472","Match","Exact","122 RUTLAND ST, WATERTOWN, MA, 02472",653285516,"L"
112355,"122 S 22ND STREET","RICHMOND","IN",47374,39.8273127530001,-84.87276644,355,"122 S 22ND STREET, RICHMOND, IN, 47374","Match","Exact","122 S 22ND ST, RICHMOND, IN, 47374",31327272,"L"
112356,"122 S 3RD STREET APT  1","LAFAYETTE","IN",47901,NA,NA,356,"122 S 3RD STREET APT  1, LAFAYETTE, IN, 47901","Tie",NA,NA,NA,NA
112357,"122 S 9TH ST","OSBORNE","KS",67473,39.4374896370001,-98.710060813,357,"122 S 9TH ST, OSBORNE, KS, 67473","Match","Exact","122 S NINTH ST, OSBORNE, KS, 67473",149890191,"R"
112358,"122 S ADAMS","HINSDALE","IL",60521,41.801218594,-87.941693534,358,"122 S ADAMS, HINSDALE, IL, 60521","Match","Non_Exact","122 S ADAMS ST, HINSDALE, IL, 60521",112549690,"R"
112359,"122 S ALPINE ST","OAKLAND","ME",4963,44.5407683,-69.7170123769999,359,"122 S ALPINE ST, OAKLAND, ME, 4963","Match","Exact","122 S ALPINE ST, OAKLAND, ME, 04963",75464842,"R"
112360,"122 S BIRCH","VALLEY CENTER","KS",67147,37.831873499,-97.375851402,360,"122 S BIRCH, VALLEY CENTER, KS, 67147","Match","Non_Exact","122 S BIRCH AVE, VALLEY CENTER, KS, 67147",115631253,"L"
112361,"122 S CLAYTON","MARYVILLE","MO",64468,40.3455584660001,-94.884281717,361,"122 S CLAYTON, MARYVILLE, MO, 64468","Match","Non_Exact","122 S CLAYTON AVE, MARYVILLE, MO, 64468",38559628,"L"
112362,"122 S EAST AVE APT 1N","OAK PARK","IL",60302,41.8861486650001,-87.7895239539999,362,"122 S EAST AVE APT 1N, OAK PARK, IL, 60302","Match","Non_Exact","122 S EAST AVE, OAK PARK, IL, 60302",605117140,"L"
112363,"122 S EATON STREET","BALTIMORE","MD",21224,39.290721289,-76.5655586519999,363,"122 S EATON STREET, BALTIMORE, MD, 21224","Match","Exact","122 EATON ST, BALTIMORE, MD, 21224",206426129,"R"
112364,"122 S FIRST ST","AMITE","LA",70422,30.7262423540001,-90.5105717449999,364,"122 S FIRST ST, AMITE, LA, 70422","Match","Exact","122 S 1ST ST, AMITE, LA, 70422",75747076,"L"
112365,"122 S GRANT ST","WESTMONT","IL",60559,41.793121935,-87.9780570729999,365,"122 S GRANT ST, WESTMONT, IL, 60559","Match","Exact","122 S GRANT ST, WESTMONT, IL, 60559",112547870,"R"
112366,"122 S HARDY DR 52","TEMPE","AZ",85281,33.4281826530001,-111.952318983,366,"122 S HARDY DR 52, TEMPE, AZ, 85281","Match","Non_Exact","122 S HARDY DR, TEMPE, AZ, 85281",243919382,"R"
112367,"122 S HOPKINS ST","SAYRE","PA",18840,41.9818618640001,-76.5249332189999,367,"122 S HOPKINS ST, SAYRE, PA, 18840","Match","Exact","122 S HOPKINS ST, SAYRE, PA, 18840",176972667,"L"
112368,"122 S HYDRAULIC","WICHITA","KS",67211,37.6856735420001,-97.317237297,368,"122 S HYDRAULIC, WICHITA, KS, 67211","Match","Non_Exact","122 S HYDRAULIC AVE, WICHITA, KS, 67211",115637124,"L"
112369,"122 S KINGSHIGHWAY","PERRYVILLE","MO",63775,37.730901353,-89.860504044,369,"122 S KINGSHIGHWAY, PERRYVILLE, MO, 63775","Match","Non_Exact","122 S KINGSHIGHWAY ST, PERRYVILLE, MO, 63775",604709046,"R"
112370,"122 S MAIN ST","ENTERPRISE","AL",36330,31.3109347170001,-85.851092232,370,"122 S MAIN ST, ENTERPRISE, AL, 36330","Match","Exact","122 S MAIN ST, ENTERPRISE, AL, 36330",99549746,"R"
112371,"122 S MAIN STREET","BENTONVILLE","AR",72712,36.372068734,-94.208859984,371,"122 S MAIN STREET, BENTONVILLE, AR, 72712","Match","Exact","122 S MAIN ST, BENTONVILLE, AR, 72712",47832159,"R"
112372,"122 S MASON","CHICAGO","IL",60644,41.8784411080001,-87.772969027,372,"122 S MASON, CHICAGO, IL, 60644","Match","Non_Exact","122 S MASON AVE, CHICAGO, IL, 60644",605024671,"R"
112373,"122 S MICHIGAN AVE SUITE 1441","CHICAGO","IL",60603,41.8799279580001,-87.624437082,373,"122 S MICHIGAN AVE SUITE 1441, CHICAGO, IL, 60603","Match","Non_Exact","122 S MICHIGAN AVE, CHICAGO, IL, 60603",637917112,"R"
112374,"122 S MICHIGAN AVENUE SUITE 1070","CHICAGO","IL",60603,41.8799279580001,-87.624437082,374,"122 S MICHIGAN AVENUE SUITE 1070, CHICAGO, IL, 60603","Match","Non_Exact","122 S MICHIGAN AVE, CHICAGO, IL, 60603",637917112,"R"
112375,"122 S MICHIGAN SUITE 1311","CHICAGO","IL",60603,NA,NA,375,"122 S MICHIGAN SUITE 1311, CHICAGO, IL, 60603","No_Match",NA,NA,NA,NA
112376,"122 S MOUNT ST","BALTIMORE","MD",21223,39.2857230380001,-76.643657376,376,"122 S MOUNT ST, BALTIMORE, MD, 21223","Match","Exact","122 S MOUNT ST, BALTIMORE, MD, 21223",206417563,"R"
112377,"122 S OWEN DR","MADISON","WI",53705,43.0654465220001,-89.4474518329999,377,"122 S OWEN DR, MADISON, WI, 53705","Match","Exact","122 S OWEN DR, MADISON, WI, 53705",49467427,"R"
112378,"122 S PENNELL RAOD","MEDIA","PA",19063,NA,NA,378,"122 S PENNELL RAOD, MEDIA, PA, 19063","No_Match",NA,NA,NA,NA
112379,"122 S PENNELL ROAD","MEDIA","PA",19063,39.90470559,-75.440073954,379,"122 S PENNELL ROAD, MEDIA, PA, 19063","Match","Exact","122 S PENNELL RD, MEDIA, PA, 19063",651217712,"R"
112380,"122 S SUMMIT DR","MITCHELL","SD",57301,NA,NA,380,"122 S SUMMIT DR, MITCHELL, SD, 57301","No_Match",NA,NA,NA,NA
112381,"122 S TERRACE AVE","COLUMBUS","OH",43204,39.9525738730001,-83.066546479,381,"122 S TERRACE AVE, COLUMBUS, OH, 43204","Match","Exact","122 S TERRACE AVE, COLUMBUS, OH, 43204",135567132,"L"
112382,"122 S WALDRON LN","WYNANTSKILL","NY",12198,42.672511349,-73.679484572,382,"122 S WALDRON LN, WYNANTSKILL, NY, 12198","Match","Exact","122 S WALDRON LN, WYNANTSKILL, NY, 12198",35731594,"R"
112383,"122 S WILDWOOD CROSSINGS  APT 17","LUDINGTON","MI",49431,43.954644839,-86.393385521,383,"122 S WILDWOOD CROSSINGS  APT 17, LUDINGTON, MI, 49431","Match","Non_Exact","122 WILDWOOD MEADOWS, LUDINGTON, MI, 49431",624888105,"R"
112384,"122 SAINT DENIS LANE","LEESVILLE","LA",71446,31.1772652990001,-93.262111443,384,"122 SAINT DENIS LANE, LEESVILLE, LA, 71446","Match","Exact","122 SAINT DENIS LN, LEESVILLE, LA, 71446",13596875,"R"
112385,"122 SALLY LANE","BROWNSVILLE","TX",78526,25.975288462,-97.442801373,385,"122 SALLY LANE, BROWNSVILLE, TX, 78526","Match","Exact","122 SALLY LN, BROWNSVILLE, TX, 78526",89981888,"R"
112386,"122 SAN MARINO AVENUE","VENTURA","CA",93036,34.2749342920001,-119.249150875,386,"122 SAN MARINO AVENUE, VENTURA, CA, 93036","Match","Non_Exact","122 SAN MARINO AVE, VENTURA, CA, 93003",109952089,"R"
112387,"122 SAND ROAD","PETROLIA","PA",16050,41.0534318380001,-79.7738360659999,387,"122 SAND ROAD, PETROLIA, PA, 16050","Match","Exact","122 SAND RD, PETROLIA, PA, 16050",52662587,"L"
112388,"122 SARATOGA BLVD WEST","ROYAL PALM BEACH","FL",33411,26.7269400660001,-80.242263653,388,"122 SARATOGA BLVD WEST, ROYAL PALM BEACH, FL, 33411","Match","Exact","122 SARATOGA BLVD W, ROYAL PALM BEACH, FL, 33411",115349856,"R"
112389,"122 SAWGRASS BEND","VIRGINIA BEACH","VA",23451,36.8370942280001,-75.9932420969999,389,"122 SAWGRASS BEND, VIRGINIA BEACH, VA, 23451","Match","Non_Exact","122 SAW GRASS BEND, VA BCH, VA, 23451",122271263,"L"
112390,"122 SCRAPBOOK LANE","SUMMERVILLE","SC",29483,33.0246584880001,-80.265977931,390,"122 SCRAPBOOK LANE, SUMMERVILLE, SC, 29483","Match","Exact","122 SCRAPBOOK LN, SUMMERVILLE, SC, 29483",619965021,"L"
112391,"122 SEAN CIR","COVENTRY","CT",6238,NA,NA,391,"122 SEAN CIR, COVENTRY, CT, 6238","No_Match",NA,NA,NA,NA
112392,"122 SEAN CIRCLE","COVENTRY","CT",6238,NA,NA,392,"122 SEAN CIRCLE, COVENTRY, CT, 6238","No_Match",NA,NA,NA,NA
112393,"122 SEAWRIGHT CIRCLE","MCGAHEYSVILLE","VA",22840,38.4022009670001,-78.721287678,393,"122 SEAWRIGHT CIRCLE, MCGAHEYSVILLE, VA, 22840","Match","Non_Exact","122 SEAWRIGHT CT, MCGAHEYSVILLE, VA, 22840",55715544,"R"
112394,"122 SECOND STREET APT 3","BROOKLYN","NY",11231,40.6776236160001,-73.991525601,394,"122 SECOND STREET APT 3, BROOKLYN, NY, 11231","Match","Exact","122 2ND ST, BROOKLYN, NY, 11231",59075297,"R"
112395,"122 SEGOVIA WAY","JUPITER","FL",33458,26.8983734610001,-80.109675065,395,"122 SEGOVIA WAY, JUPITER, FL, 33458","Match","Exact","122 SEGOVIA WAY, JUPITER, FL, 33458",640829088,"L"
112396,"122 SEVENTH AVENUE SOUTH","COLUMBUS","MS",39701,NA,NA,396,"122 SEVENTH AVENUE SOUTH, COLUMBUS, MS, 39701","No_Match",NA,NA,NA,NA
112397,"122 SEWALL ROAD","BRIDGETON","NJ",8302,39.4555140030001,-75.2604478929999,397,"122 SEWALL ROAD, BRIDGETON, NJ, 8302","Match","Exact","122 SEWALL RD, BRIDGETON, NJ, 08302",174107376,"R"
112398,"122 SHADELAND AVE","VILLAS","NJ",8251,39.0063199080001,-74.946034089,398,"122 SHADELAND AVE, VILLAS, NJ, 8251","Match","Exact","122 SHADELAND AVE, VILLAS, NJ, 08251",174345970,"R"
112399,"122 SHALIMAR","CASTLE HILLS","TX",78213,29.510974194,-98.5166076099999,399,"122 SHALIMAR, CASTLE HILLS, TX, 78213","Match","Non_Exact","122 SHALIMAR DR, CASTLE HILLS, TX, 78213",101494392,"R"
112400,"122 SHERMAN AVENUE","SAVANNAH","GA",31405,NA,NA,400,"122 SHERMAN AVENUE, SAVANNAH, GA, 31405","No_Match",NA,NA,NA,NA
112401,"122 SHININGFIELD CT","BALTIMORE","MD",21220,39.35608768,-76.435744001,401,"122 SHININGFIELD CT, BALTIMORE, MD, 21220","Match","Exact","122 SHININGFIELD CT, BALTIMORE, MD, 21220",650514614,"R"
112402,"122 SHORE ACRES RD","LA CRESCENT","MN",55947,43.8230338400001,-91.276662161,402,"122 SHORE ACRES RD, LA CRESCENT, MN, 55947","Match","Exact","122 SHORE ACRES RD, LA CRESCENT, MN, 55947",55803898,"R"
112403,"122 SIDNEY DRIVE","MT STERLING","KY",40353,38.0646013690001,-83.939307055,403,"122 SIDNEY DRIVE, MT STERLING, KY, 40353","Match","Exact","122 SIDNEY DR, MT STERLING, KY, 40353",32034191,"R"
112404,"122 SILL HILL","YPSILANTI","MI",48197,NA,NA,404,"122 SILL HILL, YPSILANTI, MI, 48197","No_Match",NA,NA,NA,NA
112405,"122 SILVER FOX TRAIL","MCCALL","ID",83638,44.8252309320001,-116.012753332,405,"122 SILVER FOX TRAIL, MCCALL, ID, 83638","Match","Exact","122 SILVER FOX TRL, MCCALL, ID, 83638",647822147,"L"
112406,"122 SILVER SPRING DR","BENTON","AR",72015,34.5290748730001,-92.660158259,406,"122 SILVER SPRING DR, BENTON, AR, 72015","Match","Exact","122 SILVER SPRINGS DR, BENTON, AR, 72015",653151234,"R"
112407,"122 SILVER SPRINGS DRIVE","BENTON","AR",72015,34.5290748730001,-92.660158259,407,"122 SILVER SPRINGS DRIVE, BENTON, AR, 72015","Match","Exact","122 SILVER SPRINGS DR, BENTON, AR, 72015",653151234,"R"
112408,"122 SILVERWOOD DRIVE","TALLADEGA","AL",35160,33.4146440580001,-86.090253414,408,"122 SILVERWOOD DRIVE, TALLADEGA, AL, 35160","Match","Exact","122 SILVERWOOD DR, TALLADEGA, AL, 35160",635546245,"L"
112409,"122 SIXTH STREET PO BOX 60","CARROLLTON","KY",41008,38.6821876000001,-85.178243276,409,"122 SIXTH STREET PO BOX 60, CARROLLTON, KY, 41008","Match","Exact","122 6TH ST, CARROLLTON, KY, 41008",65120002,"L"
112410,"122 SKYVIEW LANE","FRANKLIN","NC",28734,35.1834049880001,-83.400093824,410,"122 SKYVIEW LANE, FRANKLIN, NC, 28734","Match","Exact","122 SKYVIEW LN, FRANKLIN, NC, 28734",616768624,"L"
112411,"122 SMITH HILL ROAD","NORTHFIELD","VT",5663,44.120452453,-72.6793263119999,411,"122 SMITH HILL ROAD, NORTHFIELD, VT, 5663","Match","Exact","122 SMITH HILL RD, NORTHFIELD, VT, 05663",136682231,"R"
112412,"122 SMOKEHOUSE DRIVE","GREENVILLE","FL",32331,30.5764394390001,-83.716285349,412,"122 SMOKEHOUSE DRIVE, GREENVILLE, FL, 32331","Match","Exact","122 SMOKEHOUSE DR, GREENVILLE, FL, 32331",633564008,"L"
112413,"122 SMOKEHOUSE FARMS DRIVE","GREENVILLE","FL",32331,30.5764394390001,-83.716285349,413,"122 SMOKEHOUSE FARMS DRIVE, GREENVILLE, FL, 32331","Match","Exact","122 SMOKEHOUSE FARMS DR, GREENVILLE, FL, 32331",633564008,"L"
112414,"122 SOBIESKI STREET","BUFFALO","NY",14212,42.8979072760001,-78.832688156,414,"122 SOBIESKI STREET, BUFFALO, NY, 14212","Match","Exact","122 SOBIESKI ST, BUFFALO, NY, 14212",48300592,"L"
112415,"122 SOSA CT LOT 5","TAMPA","FL",33612,28.064134348,-82.459003168,415,"122 SOSA CT LOT 5, TAMPA, FL, 33612","Match","Exact","122 SOSA CT, TAMPA, FL, 33612",650646282,"L"
112416,"122 SOUTH 200 WEST","WASHINGTON","UT",84780,37.1286123790001,-113.513192649,416,"122 SOUTH 200 WEST, WASHINGTON, UT, 84780","Match","Exact","122 S 200 W, WASHINGTON, UT, 84780",166163593,"L"
112417,"122 SOUTH 3RD STREET","DECATUR","IN",46733,40.829454221,-84.925152112,417,"122 SOUTH 3RD STREET, DECATUR, IN, 46733","Match","Exact","122 S 3RD ST, DECATUR, IN, 46733",6490229,"L"
112418,"122 SOUTH CALHOUN STREET","TALLAHASSEE","FL",32301,30.44155822,-84.27959113,418,"122 SOUTH CALHOUN STREET, TALLAHASSEE, FL, 32301","Match","Exact","122 S CALHOUN ST, TALLAHASSEE, FL, 32301",82850779,"R"
112419,"122 SOUTH CALHOUN STREET","TALLAHASSEE","FL",32304,30.44155822,-84.27959113,419,"122 SOUTH CALHOUN STREET, TALLAHASSEE, FL, 32304","Match","Non_Exact","122 S CALHOUN ST, TALLAHASSEE, FL, 32301",82850779,"R"
112420,"122 SOUTH CENTRAL AVENUE","EUREKA","MO",63025,38.5027023260001,-90.627974004,420,"122 SOUTH CENTRAL AVENUE, EUREKA, MO, 63025","Match","Exact","122 S CENTRAL AVE, EUREKA, MO, 63025",618222213,"L"
112421,"122 SOUTH DIVISION STREET","MANKATO","MN",56001,44.160720155,-93.989341925,421,"122 SOUTH DIVISION STREET, MANKATO, MN, 56001","Match","Exact","122 S DIVISION ST, MANKATO, MN, 56001",28126255,"L"
112422,"122 SOUTH FIRST STREET","PULASKI","TN",38478,35.1987284730001,-87.0311274169999,422,"122 SOUTH FIRST STREET, PULASKI, TN, 38478","Match","Exact","122 S 1ST ST, PULASKI, TN, 38478",45313500,"L"
112423,"122 SOUTH MAIN ST","ALBANY","NY",12208,42.659708188,-73.794083378,423,"122 SOUTH MAIN ST, ALBANY, NY, 12208","Match","Non_Exact","122 S MAIN AVE, ALBANY, NY, 12208",18308636,"L"
112424,"122 SOUTH MAIN ST","MERCERSBURG","PA",17236,39.826233659,-77.90371506,424,"122 SOUTH MAIN ST, MERCERSBURG, PA, 17236","Match","Exact","122 S MAIN ST, MERCERSBURG, PA, 17236",646856541,"L"
112425,"122 SOUTH MAIN STREET","PETAL","MS",39465,31.3459543110001,-89.2629200439999,425,"122 SOUTH MAIN STREET, PETAL, MS, 39465","Match","Exact","122 S MAIN ST, PETAL, MS, 39465",326123,"R"
112426,"122 SOUTH MAPLE   APT 1B","OAK PARK","IL",60302,41.8863663540001,-87.8040915939999,426,"122 SOUTH MAPLE   APT 1B, OAK PARK, IL, 60302","Match","Non_Exact","122 S MAPLE AVE, OAK PARK, IL, 60302",111752752,"L"
112427,"122 SOUTH MATLACK STREET","WEST CHESTER","PA",19382,39.959897975,-75.60071981,427,"122 SOUTH MATLACK STREET, WEST CHESTER, PA, 19382","Match","Exact","122 S MATLACK ST, WEST CHESTER, PA, 19382",179490854,"R"
112428,"122 SOUTH MIAMI AVE","MIAMI","FL",33130,25.773231933,-80.1935894549999,428,"122 SOUTH MIAMI AVE, MIAMI, FL, 33130","Match","Exact","122 S MIAMI AVE, MIAMI, FL, 33130",116018411,"R"
112429,"122 SOUTH OAKLAND STREET","GASTONIA","NC",28052,35.263384446,-81.180053937,429,"122 SOUTH OAKLAND STREET, GASTONIA, NC, 28052","Match","Exact","122 S OAKLAND ST, GASTONIA, NC, 28052",70379337,"L"
112430,"122 SOUTH ST","JOHNSON CREEK","WI",53038,43.075059524,-88.771883347,430,"122 SOUTH ST, JOHNSON CREEK, WI, 53038","Match","Exact","122 SOUTH ST, JOHNSON CREEK, WI, 53038",53213169,"L"
112431,"122 SOUTH SWAN ST","ALBANY","NY",12210,42.6512769140001,-73.762101134,431,"122 SOUTH SWAN ST, ALBANY, NY, 12210","Match","Exact","122 S SWAN ST, ALBANY, NY, 12210",18310403,"R"
112432,"122 SOUTHERNWOOD PLACE","SAVA","GA",31405,32.0695415010001,-81.241079656,432,"122 SOUTHERNWOOD PLACE, SAVA, GA, 31405","Match","Non_Exact","122 SOUTHERNWOOD PL, SAVANNAH, GA, 31405",619380560,"R"
112433,"122 SOUTHSIDE ROAD","ARLEY","AL",35541,NA,NA,433,"122 SOUTHSIDE ROAD, ARLEY, AL, 35541","No_Match",NA,NA,NA,NA
112434,"122 SOUTHWEST ST","CHARLESTOWN","NH",3603,43.2309221880001,-72.42586009,434,"122 SOUTHWEST ST, CHARLESTOWN, NH, 3603","Match","Exact","122 SOUTHWEST ST, CHARLESTOWN, NH, 03603",124343270,"L"
112435,"122 SOUTHWIND DRIVE","KATHLEEN","GA",31047,32.53003098,-83.654909872,435,"122 SOUTHWIND DRIVE, KATHLEEN, GA, 31047","Match","Exact","122 SOUTHWIND DR, KATHLEEN, GA, 31047",647588250,"R"
112436,"122 SOUTHWOOD DRIVE","CANTON","MS",39046,32.5197112340001,-90.043666759,436,"122 SOUTHWOOD DRIVE, CANTON, MS, 39046","Match","Exact","122 SOUTHWOOD DR, CANTON, MS, 39046",645715009,"L"
112437,"122 SPLIT RAIL","SAN MARCOS","TX",78666,29.9441567530001,-97.893676731,437,"122 SPLIT RAIL, SAN MARCOS, TX, 78666","Match","Non_Exact","122 SPLIT RAIL DR, SAN MARCOS, TX, 78666",629586231,"R"
112438,"122 SPOTSWOOD LANE","COLONIAL BEACH","VA",22443,38.2352082890001,-76.9590526279999,438,"122 SPOTSWOOD LANE, COLONIAL BEACH, VA, 22443","Match","Exact","122 SPOTSWOOD LN, COLONIAL BCH, VA, 22443",22163140,"L"
112439,"122 SPRING ST APT 2N","NEW YORK","NY",10012,40.7237159270001,-74.000210018,439,"122 SPRING ST APT 2N, NEW YORK, NY, 10012","Match","Exact","122 SPRING ST, NEW YORK, NY, 10012",59661998,"L"
112440,"122 SPRING WATER DR","MADISON","AL",35758,34.7175685560001,-86.721476114,440,"122 SPRING WATER DR, MADISON, AL, 35758","Match","Exact","122 SPRING WATER DR, MADISON, AL, 35758",58143322,"R"
112441,"122 SPRINGDALE ROAD","MCMURRAY","PA",15317,NA,NA,441,"122 SPRINGDALE ROAD, MCMURRAY, PA, 15317","No_Match",NA,NA,NA,NA
112442,"122 ST BOTOPLH STREET","BOSTON","MA",2115,NA,NA,442,"122 ST BOTOPLH STREET, BOSTON, MA, 2115","No_Match",NA,NA,NA,NA
112443,"122 STABLEWOOD CT","BOERNE","TX",78006,29.7542097640001,-98.7116341129999,443,"122 STABLEWOOD CT, BOERNE, TX, 78006","Match","Exact","122 STABLEWOOD CT, BOERNE, TX, 78006",651859173,"L"
112444,"122 STACY DRIVE","MOUNT STERLING","KY",40353,38.0677787710001,-83.9917283519999,444,"122 STACY DRIVE, MOUNT STERLING, KY, 40353","Match","Exact","122 STACY DR, MT STERLING, KY, 40353",32034091,"R"
112445,"122 STATE SCHOOL RD","WARWICK","NY",10990,41.2727338810001,-74.302778007,445,"122 STATE SCHOOL RD, WARWICK, NY, 10990","Match","Exact","122 STATE SCHOOL RD, WARWICK, NY, 10990",124462341,"R"
112446,"122 STEAMBOAT WAY","PISCATAWAY","NJ",8854,40.572996672,-74.4400264659999,446,"122 STEAMBOAT WAY, PISCATAWAY, NJ, 8854","Match","Exact","122 STEAMBOAT WAY, PISCATAWAY, NJ, 08854",641733663,"L"
112447,"122 STEWART AVE","BECKLEY","WV",25801,37.7833811960001,-81.200068814,447,"122 STEWART AVE, BECKLEY, WV, 25801","Match","Exact","122 STEWART AVE, BECKLEY, WV, 25801",78817363,"L"
112448,"122 STILSON HILL RD","NEW MILFORD","CT",6776,41.598556912,-73.471668081,448,"122 STILSON HILL RD, NEW MILFORD, CT, 6776","Match","Exact","122 STILSON HILL RD, NEW MILFORD, CT, 06776",627513506,"L"
112449,"122 STOCKDALE","FLINT","MI",48503,43.0318145530001,-83.7047627219999,449,"122 STOCKDALE, FLINT, MI, 48503","Match","Non_Exact","122 STOCKDALE ST, FLINT, MI, 48503",69567408,"R"
112450,"122 STONE BROOK EST","MORGANTOWN","WV",26508,39.660181876,-79.866742473,450,"122 STONE BROOK EST, MORGANTOWN, WV, 26508","Match","Exact","122 STONE BROOK EST, MORGANTOWN, WV, 26508",50775576,"R"
112451,"122 STONEY RIDGE AVENUE","SUFFOLK","VA",23435,36.8793277520001,-76.4179039319999,451,"122 STONEY RIDGE AVENUE, SUFFOLK, VA, 23435","Match","Exact","122 STONEY RIDGE AVE, SUFFOLK, VA, 23435",636669992,"R"
112452,"122 STRATHMOOR DRIVE","BERKELEY","CA",94705,37.862283103,-122.226168784,452,"122 STRATHMOOR DRIVE, BERKELEY, CA, 94705","Match","Exact","122 STRATHMOOR DR, BERKELEY, CA, 94705",124999878,"L"
112453,"122 STRONG RD","NEWNAN","GA",30263,NA,NA,453,"122 STRONG RD, NEWNAN, GA, 30263","No_Match",NA,NA,NA,NA
112454,"122 STUYVESANT AVE","NEW CASTLE","DE",19720,39.673505058,-75.5642870949999,454,"122 STUYVESANT AVE, NEW CASTLE, DE, 19720","Match","Exact","122 STUYVESANT AVE, NEW CASTLE, DE, 19720",187270558,"L"
112455,"122 SUFFOK AVENUE","PAWTUCKET","RI",2861,NA,NA,455,"122 SUFFOK AVENUE, PAWTUCKET, RI, 2861","No_Match",NA,NA,NA,NA
112456,"122 SUMAC DRIVE","ALEXANDRIA","MN",56308,45.8859950890001,-95.335004747,456,"122 SUMAC DRIVE, ALEXANDRIA, MN, 56308","Match","Exact","122 SUMAC DR, ALEXANDRIA, MN, 56308",204660671,"L"
112457,"122 SUMMER CT","WEATHERFORD","TX",76087,32.7220234750001,-97.812060581,457,"122 SUMMER CT, WEATHERFORD, TX, 76087","Match","Exact","122 SUMMER CT, WEATHERFORD, TX, 76087",651964561,"R"
112458,"122 SUMMERFIELD LN","ANDERSON","SC",29621,34.647298274,-82.600135934,458,"122 SUMMERFIELD LN, ANDERSON, SC, 29621","Match","Exact","122 SUMMERFIELD LN, ANDERSON, SC, 29621",25492435,"R"
112459,"122 SUMMIT AVENUE","SAINT LOUIS","MO",63119,38.593718462,-90.340934621,459,"122 SUMMIT AVENUE, SAINT LOUIS, MO, 63119","Match","Exact","122 SUMMIT AVE, SAINT LOUIS, MO, 63119",100141119,"R"
112460,"122 SUNNY KNOLLS LN","SCHOHARIE","NY",12157,42.675369028,-74.350309656,460,"122 SUNNY KNOLLS LN, SCHOHARIE, NY, 12157","Match","Exact","122 SUNNY KNOLLS LN, SCHOHARIE, NY, 12157",635642718,"R"
112461,"122 SUNRISE AVE","OCEAN SHORES","WA",98569,46.9848393550001,-124.141507302,461,"122 SUNRISE AVE, OCEAN SHORES, WA, 98569","Match","Non_Exact","122 SUNRISE AVE SE, OCEAN SHORES, WA, 98569",639134771,"L"
112462,"122 SUNSET DRIVE","WASHINGTON","PA",15301,NA,NA,462,"122 SUNSET DRIVE, WASHINGTON, PA, 15301","Tie",NA,NA,NA,NA
112463,"122 SURREY CIRCLE","TIFTON","GA",31793,31.4191764400001,-83.528542095,463,"122 SURREY CIRCLE, TIFTON, GA, 31793","Match","Exact","122 SURREY CIR, TIFTON, GA, 31793",641775582,"L"
112464,"122 SUZANNE DRIVE","SHREVEPORT","LA",71115,32.42327864,-93.700408234,464,"122 SUZANNE DRIVE, SHREVEPORT, LA, 71115","Match","Exact","122 SUZANNE DR, SHREVEPORT, LA, 71115",57442037,"R"
112465,"122 SW 4TH AVE","BOYNTON BEACH","FL",33435,26.523704928,-80.06436359,465,"122 SW 4TH AVE, BOYNTON BEACH, FL, 33435","Match","Exact","122 SW 4TH AVE, BOYNTON BEACH, FL, 33435",115296111,"L"
112466,"122 SW 7TH STREET","TOPEKA","KS",66603,39.050370039,-95.674283868,466,"122 SW 7TH STREET, TOPEKA, KS, 66603","Match","Exact","122 SW 7TH ST, TOPEKA, KS, 66603",17889259,"R"
112467,"122 SWEET ALYSSUM DR","LADON","SC",29456,32.9946233530001,-80.137066127,467,"122 SWEET ALYSSUM DR, LADON, SC, 29456","Match","Non_Exact","122 SWEET ALYSSUM DR, LADSON, SC, 29456",641132537,"R"
112468,"122 TALAVERA PLACE","PALM BEACH GARDENS","FL",33418,26.8492876070001,-80.152901216,468,"122 TALAVERA PLACE, PALM BEACH GARDENS, FL, 33418","Match","Exact","122 TALAVERA PL, PALM BEACH GARDENS, FL, 33418",115542637,"L"
112469,"122 TALBOT HILL ROAD","SWANZEY","NH",3446,42.8608462070001,-72.2896400079999,469,"122 TALBOT HILL ROAD, SWANZEY, NH, 3446","Match","Exact","122 TALBOT HILL RD, SWANZEY, NH, 03446",124087487,"L"
112470,"122 TALL TIMBER DRIVE","LIGONIER","PA",15658,40.2492431260001,-79.2182864439999,470,"122 TALL TIMBER DRIVE, LIGONIER, PA, 15658","Match","Exact","122 TALL TIMBER DR, LIGONIER, PA, 15658",52955342,"R"
112471,"122 TARGEE STREET","STATEN ISLAND","NY",10304,40.62413496,-74.0836697459999,471,"122 TARGEE STREET, STATEN ISLAND, NY, 10304","Match","Exact","122 TARGEE ST, STATEN ISLAND, NY, 10304",59869245,"R"
112472,"122 TEAL LANE","ROSEBURG","OR",97471,43.279573982,-123.412318849,472,"122 TEAL LANE, ROSEBURG, OR, 97471","Match","Exact","122 TEAL LN, ROSEBURG, OR, 97471",617841735,"L"
112473,"122 TEDFORD DR","WEST POINT","MS",39759,33.603636323,-88.670262254,473,"122 TEDFORD DR, WEST POINT, MS, 39759","Match","Non_Exact","122 TEDFORD DR, WEST POINT, MS, 39773",164181642,"L"
112474,"122 TEDFORD DRIVE","WEST POINT","MS",39773,33.603636323,-88.670262254,474,"122 TEDFORD DRIVE, WEST POINT, MS, 39773","Match","Exact","122 TEDFORD DR, WEST POINT, MS, 39773",164181642,"L"
112475,"122 TELLUS ST","LAKEWAY","TX",78734,30.3753775230001,-97.972966652,475,"122 TELLUS ST, LAKEWAY, TX, 78734","Match","Exact","122 TELLUS ST, LAKEWAY, TX, 78734",63922648,"L"
112476,"122 TENURE CIRCLE","DURHAM","NC",27713,35.8828801780001,-78.9544176219999,476,"122 TENURE CIRCLE, DURHAM, NC, 27713","Match","Exact","122 TENURE CIR, DURHAM, NC, 27713",71757977,"R"
112477,"122 TERRACE AVE","ELKIN","NC",28621,36.243394193,-80.854951393,477,"122 TERRACE AVE, ELKIN, NC, 28621","Match","Exact","122 TERRACE AVE, ELKIN, NC, 28621",154191835,"L"
112478,"122 TERRACINA DR","ST AUGUSTINE","FL",32092,29.951173225,-81.4957084979999,478,"122 TERRACINA DR, ST AUGUSTINE, FL, 32092","Match","Exact","122 TERRACINA DR, SAINT AUGUSTINE, FL, 32092",610491078,"R"
112479,"122 THOMPSON CIR","LORENA","TX",76655,31.3864994260001,-97.2103326449999,479,"122 THOMPSON CIR, LORENA, TX, 76655","Match","Exact","122 THOMPSON CIR, LORENA, TX, 76655",146760887,"L"
112480,"122 THRUSH LOOP","LAFAYETTE","LA",70508,30.156460479,-92.026974937,480,"122 THRUSH LOOP, LAFAYETTE, LA, 70508","Match","Exact","122 THRUSH LOOP, LAFAYETTE, LA, 70508",85628063,"L"
112481,"122 TIMBERLANE","SAN ANTONIO","TX",78209,29.4878197520001,-98.431685945,481,"122 TIMBERLANE, SAN ANTONIO, TX, 78209","Match","Non_Exact","122 TIMBERLANE DR, SAN ANTONIO, TX, 78209",101530195,"R"
112482,"122 TORREY ROAD","WAKEFIELD","RI",2879,41.466844543,-71.45809637,482,"122 TORREY ROAD, WAKEFIELD, RI, 2879","Match","Exact","122 TORREY RD, WAKEFIELD, RI, 02879",58906470,"R"
112483,"122 TOWER DR","VIRGINIA BEACH","VA",23462,36.835634779,-76.1691182659999,483,"122 TOWER DR, VIRGINIA BEACH, VA, 23462","Match","Exact","122 TOWER DR, VA BCH, VA, 23462",122262953,"L"
112484,"122 TOWNSHIP ROAD 1534","PROCTORVILLE","OH",45669,NA,NA,484,"122 TOWNSHIP ROAD 1534, PROCTORVILLE, OH, 45669","No_Match",NA,NA,NA,NA
112485,"122 TREEHAVEN STREET","GAITHERSBURG","MD",20878,39.120458935,-77.242670289,485,"122 TREEHAVEN STREET, GAITHERSBURG, MD, 20878","Match","Exact","122 TREEHAVEN ST, GAITHERSBURG, MD, 20878",62092787,"R"
112486,"122 TREETOP WAY","NEWPORT","TN",37821,35.9542516320001,-83.153069483,486,"122 TREETOP WAY, NEWPORT, TN, 37821","Match","Exact","122 TREETOP WAY, NEWPORT, TN, 37821",132781955,"L"
112487,"122 TUDOR STREET  UNIT C","BOSTON","MA",2127,42.335921856,-71.052530073,487,"122 TUDOR STREET  UNIT C, BOSTON, MA, 2127","Match","Exact","122 TUDOR ST, BOSTON, MA, 02127",85712275,"L"
112488,"122 TURPINTINE STILL TD","BRUNSON","SC",29911,32.934100846,-81.139254503,488,"122 TURPINTINE STILL TD, BRUNSON, SC, 29911","Match","Non_Exact","122 TURPENTINE STILL RD, BRUNSON, SC, 29911",33106263,"R"
112489,"122 TWISTED OAK DR","PICAYUNE","MS",39466,30.540551764,-89.691617778,489,"122 TWISTED OAK DR, PICAYUNE, MS, 39466","Match","Exact","122 TWISTED OAK DR, PICAYUNE, MS, 39466",111489719,"R"
112490,"122 TWO POND LOOP","LADSON","SC",29456,32.9757708430001,-80.138291701,490,"122 TWO POND LOOP, LADSON, SC, 29456","Match","Exact","122 TWO POND LOOP, LADSON, SC, 29456",178477431,"L"
112491,"122 U ST NW","WASHINGTON","DC",20001,38.9169945890001,-77.0128703409999,491,"122 U ST NW, WASHINGTON, DC, 20001","Match","Exact","122 U ST NW, WASHINGTON, DC, 20001",648557174,"L"
112492,"122 U STREET NW","WASHINGTON","DC",20001,38.9169945890001,-77.0128703409999,492,"122 U STREET NW, WASHINGTON, DC, 20001","Match","Exact","122 U ST NW, WASHINGTON, DC, 20001",648557174,"L"
112493,"122 UNION AVE","BELLMAWR","NJ",8031,39.8735080710001,-75.11047201,493,"122 UNION AVE, BELLMAWR, NJ, 8031","Match","Exact","122 UNION AVE, BELLMAWR, NJ, 08031",134418842,"R"
112494,"122 UNNEDA DRIVE","GREENVILLE","SC",29605,34.7835983140001,-82.392660398,494,"122 UNNEDA DRIVE, GREENVILLE, SC, 29605","Match","Non_Exact","122 UNEEDA DR, GREENVILLE, SC, 29605",38324318,"R"
112495,"122 UPOLA COURT","BASTROP","TX",78602,30.0835099550001,-97.32500621,495,"122 UPOLA COURT, BASTROP, TX, 78602","Match","Exact","122 UPOLA CT, BASTROP, TX, 78602",45493738,"R"
112496,"122 VESTA DR","GREENVILLE","SC",29611,34.811394674,-82.458977944,496,"122 VESTA DR, GREENVILLE, SC, 29611","Match","Exact","122 VESTA DR, GREENVILLE, SC, 29611",38357996,"L"
112497,"122 VILLA ROAD","NEWPORT NEWS","VA",23601,37.03677379,-76.4716252329999,497,"122 VILLA ROAD, NEWPORT NEWS, VA, 23601","Match","Exact","122 VILLA RD, NEWPORT NEWS, VA, 23601",103818826,"L"
112498,"122 VILLAGE TRACE","WOODSTOCK","GA",30188,34.0896560690001,-84.466547835,498,"122 VILLAGE TRACE, WOODSTOCK, GA, 30188","Match","Exact","122 VILLAGE TRCE, WOODSTOCK, GA, 30188",647621161,"R"
112499,"122 VISTA LANE","MANSFIELD","PA",16933,41.833558585,-77.0715480699999,499,"122 VISTA LANE, MANSFIELD, PA, 16933","Match","Exact","122 VISTA LN, MANSFIELD, PA, 16933",189668226,"R"
112500,"122 VITRA PLACE","SAN ANTONIO","TX",78210,29.4034652560001,-98.4840351889999,500,"122 VITRA PLACE, SAN ANTONIO, TX, 78210","Match","Exact","122 VITRA PL, SAN ANTONIO, TX, 78210",101527342,"L"
