"ID","Address","City","State","Zip","lat","long","id","input_address","match_indicator","match_type","matched_address","tiger_line_id","tiger_side"
720501,"5470 BRYSON COURT SUITE 103","NAPLES","FL",34109,NA,NA,1,"5470 BRYSON COURT SUITE 103, NAPLES, FL, 34109","No_Match",NA,NA,NA,NA
720502,"5470 BUSCH BLVD  SUITE 452","TEMPLE TERRACE","FL",33617,28.0326206020001,-82.396024357,2,"5470 BUSCH BLVD  SUITE 452, TEMPLE TERRACE, FL, 33617","Match","Non_Exact","5470 E BUSCH BLVD, TEMPLE TER, FL, 33617",104616447,"L"
720503,"5470 COLBRIGHT RD","LAKE WORTH","FL",33467,26.595690249,-80.160670145,3,"5470 COLBRIGHT RD, LAKE WORTH, FL, 33467","Match","Exact","5470 COLBRIGHT RD, LAKE WORTH, FL, 33467",648663459,"L"
720504,"5470 E 138TH AVE","THORNTON","CO",80602,39.9473555320001,-104.924036406,4,"5470 E 138TH AVE, THORNTON, CO, 80602","Match","Exact","5470 E 138TH AVE, THORNTON, CO, 80602",177422499,"R"
720505,"5470 E BUSCH BLVD   NUM 180","TEMPLE  TERRACE","FL",33617,28.032620652,-82.396005012,5,"5470 E BUSCH BLVD   NUM 180, TEMPLE  TERRACE, FL, 33617","Match","Non_Exact","5470 E BUSCH BLVD, TEMPLE TER, FL, 33617",104616447,"L"
720506,"5470 E BUSCH BLVD - 217","TEMPLE TERRACE","FL",33617,28.032620652,-82.396005012,6,"5470 E BUSCH BLVD - 217, TEMPLE TERRACE, FL, 33617","Match","Non_Exact","5470 E BUSCH BLVD, TEMPLE TER, FL, 33617",104616447,"L"
720507,"5470 E BUSCH BLVD 401","TAMPA","FL",33607,NA,NA,7,"5470 E BUSCH BLVD 401, TAMPA, FL, 33607","No_Match",NA,NA,NA,NA
720508,"5470 E BUSCH BLVD NUM 180","TEMPLE  TERRACE","FL",33617,28.032620652,-82.396005012,8,"5470 E BUSCH BLVD NUM 180, TEMPLE  TERRACE, FL, 33617","Match","Non_Exact","5470 E BUSCH BLVD, TEMPLE TER, FL, 33617",104616447,"L"
720509,"5470 E BUSCH BLVD SUITE 425","TEMPLE TERRACE","FL",33617,28.032620652,-82.396005012,9,"5470 E BUSCH BLVD SUITE 425, TEMPLE TERRACE, FL, 33617","Match","Non_Exact","5470 E BUSCH BLVD, TEMPLE TER, FL, 33617",104616447,"L"
720510,"5470 E LOS ANGELES AVE APT 34","SIMI VALLEY","CA",93063,34.2717293440001,-118.685462985,10,"5470 E LOS ANGELES AVE APT 34, SIMI VALLEY, CA, 93063","Match","Exact","5470 LOS ANGELES AVE, SIMI VALLEY, CA, 93063",651148062,"R"
720511,"5470 EAST BUSCH BLVD 160","TEMPLE TERRACE","FL",33617,28.0326206020001,-82.396024357,11,"5470 EAST BUSCH BLVD 160, TEMPLE TERRACE, FL, 33617","Match","Exact","5470 E BUSCH BLVD, TEMPLE TER, FL, 33617",104616447,"L"
720512,"5470 EAST BUSCH BLVD SUITE 192","TEMPLE TERRACE","FL",33617,28.0326206020001,-82.396024357,12,"5470 EAST BUSCH BLVD SUITE 192, TEMPLE TERRACE, FL, 33617","Match","Exact","5470 E BUSCH BLVD, TEMPLE TER, FL, 33617",104616447,"L"
720513,"5470 GREEN CREEK ROAD","SCHUYLER","VA",22969,37.8231330020001,-78.690633438,13,"5470 GREEN CREEK ROAD, SCHUYLER, VA, 22969","Match","Exact","5470 GREEN CREEK RD, SCHUYLER, VA, 22969",83392571,"L"
720514,"5470 HILLANDALE DR APT 210","LITHONIA","GA",30058,33.7059689170001,-84.167565184,14,"5470 HILLANDALE DR APT 210, LITHONIA, GA, 30058","Match","Exact","5470 HILLANDALE DR, LITHONIA, GA, 30058",642649045,"L"
720515,"5470 HOLLAND DR","ARVADA","CO",80002,39.7958424610001,-105.102740442,15,"5470 HOLLAND DR, ARVADA, CO, 80002","Match","Exact","5470 HOLLAND DR, ARVADA, CO, 80002",177287638,"R"
720516,"5470 HUNTINGTON MIST DRIVE","STONE MOUNTAIN","GA",30087,33.8283347570001,-84.123858212,16,"5470 HUNTINGTON MIST DRIVE, STONE MOUNTAIN, GA, 30087","Match","Exact","5470 HUNTINGTON MIST DR, STONE MOUNTAIN, GA, 30087",637665759,"R"
720517,"5470 JENNIFER LANE","COLORADO SPRINGS","CO",80917,38.8956712410001,-104.726463368,17,"5470 JENNIFER LANE, COLORADO SPRINGS, CO, 80917","Match","Exact","5470 JENNIFER LN, COLORADO SPRINGS, CO, 80917",105545290,"L"
720518,"5470 MOONLIGHT BAY COURT","WINDSOR","CO",80528,40.474573653,-104.973554045,18,"5470 MOONLIGHT BAY COURT, WINDSOR, CO, 80528","Match","Exact","5470 MOONLIGHT BAY CT, WINDSOR, CO, 80528",188585966,"L"
720519,"5470 N 36TH STREET","MILWAUKEE","WI",53209,43.1168620610001,-87.957554595,19,"5470 N 36TH STREET, MILWAUKEE, WI, 53209","Match","Exact","5470 N 36TH ST, MILWAUKEE, WI, 53209",77735486,"R"
720520,"5470 N MAIN STREET","DAYTON","OH",45415,39.8176401060001,-84.2323486669999,20,"5470 N MAIN STREET, DAYTON, OH, 45415","Match","Exact","5470 MAIN ST, DAYTON, OH, 45415",143565433,"R"
720521,"5470 NIGHTHAWK WAY","INDIANAPOLIS","IN",46254,39.8518026840001,-86.2352773709999,21,"5470 NIGHTHAWK WAY, INDIANAPOLIS, IN, 46254","Match","Exact","5470 NIGHTHAWK WAY, INDIANAPOLIS, IN, 46254",108046001,"L"
720522,"5470 NORWICH AVENUE","LOS ANGELES","CA",90032,34.0836641440001,-118.16306865,22,"5470 NORWICH AVENUE, LOS ANGELES, CA, 90032","Match","Exact","5470 NORWICH AVE, LOS ANGELES, CA, 90032",141635342,"R"
720523,"5470 NW 176TH STREET","MIAMI GARDENS","FL",33055,25.933079075,-80.291097048,23,"5470 NW 176TH STREET, MIAMI GARDENS, FL, 33055","Match","Exact","5470 NW 176TH ST, MIAMI GARDENS, FL, 33055",116023435,"L"
720524,"5470 QUEEN ANN LANE","SANTA BARBARA","CA",93111,34.4555305920001,-119.815282272,24,"5470 QUEEN ANN LANE, SANTA BARBARA, CA, 93111","Match","Exact","5470 QUEEN ANN LN, SANTA BARBARA, CA, 93111",108601630,"R"
720525,"5470 ROBLES AVE APT B","ATASCADERO","CA",93422,35.4853077290001,-120.659624996,25,"5470 ROBLES AVE APT B, ATASCADERO, CA, 93422","Match","Exact","5470 ROBLES AVE, ATASCADERO, CA, 93422",109724943,"L"
720526,"5470 S 45TH ST","GREENFIELD","WI",53220,42.945773714,-87.97216331,26,"5470 S 45TH ST, GREENFIELD, WI, 53220","Match","Exact","5470 S 45TH ST, GREENFIELD, WI, 53220",77761842,"L"
720527,"5470 S PLANTAIN POINT","LECANTO","FL",34461,28.7827805910001,-82.485442703,27,"5470 S PLANTAIN POINT, LECANTO, FL, 34461","Match","Exact","5470 S PLANTAIN PT, LECANTO, FL, 34461",651715673,"L"
720528,"5470 SOUTH CAPRI DRIVE","MURRAY","UT",84123,40.651245832,-111.906623568,28,"5470 SOUTH CAPRI DRIVE, MURRAY, UT, 84123","Match","Non_Exact","5470 CAPRI DR, MURRAY, UT, 84123",176084348,"R"
720529,"5470 SOUTH HARPER UNIT 1D","CHICAGO","IL",60615,41.7962788450001,-87.5890268589999,29,"5470 SOUTH HARPER UNIT 1D, CHICAGO, IL, 60615","Match","Non_Exact","5470 S HARPER AVE, CHICAGO, IL, 60615",111771938,"R"
720530,"5470 STAPLETON DRIVE","DUNWOODY","GA",30338,33.961150461,-84.310027448,30,"5470 STAPLETON DRIVE, DUNWOODY, GA, 30338","Match","Exact","5470 STAPLETON DR, DUNWOODY, GA, 30338",23356470,"L"
720531,"5470 TARES CIR","ELKGROVE","CA",95757,38.3931944450001,-121.439723966,31,"5470 TARES CIR, ELKGROVE, CA, 95757","Match","Non_Exact","5470 TARES CIR, ELK GROVE, CA, 95757",635414793,"R"
720532,"5470 THURSBY RD","NORTH CANTON","OH",44720,40.916113587,-81.477463169,32,"5470 THURSBY RD, NORTH CANTON, OH, 44720","Match","Exact","5470 THURSBY RD, NORTH CANTON, OH, 44720",61370549,"R"
720533,"5470 WALNUT HILLS DR","BRIGHTON","MI",48116,42.522211934,-83.8207924389999,33,"5470 WALNUT HILLS DR, BRIGHTON, MI, 48116","Match","Exact","5470 WALNUT HILLS DR, BRIGHTON, MI, 48116",23560083,"L"
720534,"5470 WEST LAKE ROAD","BURT","NY",14028,43.3290233170001,-78.741428255,34,"5470 WEST LAKE ROAD, BURT, NY, 14028","Match","Exact","5470 W LAKE RD, BURT, NY, 14028",642408567,"R"
720535,"5470 WHITWOOD RD","BALTIMORE","MD",21206,39.333822765,-76.534843025,35,"5470 WHITWOOD RD, BALTIMORE, MD, 21206","Match","Exact","5470 WHITWOOD RD, BALTIMORE, MD, 21206",206457332,"L"
720536,"5470 WHITWOOD RD","BALTIMORE","MD",21216,39.333822765,-76.534843025,36,"5470 WHITWOOD RD, BALTIMORE, MD, 21216","Match","Non_Exact","5470 WHITWOOD RD, BALTIMORE, MD, 21206",206457332,"L"
720537,"5470 WHITWOOD ROAD","BALTIMORE","MD",21206,39.333822765,-76.534843025,37,"5470 WHITWOOD ROAD, BALTIMORE, MD, 21206","Match","Exact","5470 WHITWOOD RD, BALTIMORE, MD, 21206",206457332,"L"
720538,"5470 WISHINGWELL DRIVE","TIMNATH","CO",80547,40.510909063,-104.949577883,38,"5470 WISHINGWELL DRIVE, TIMNATH, CO, 80547","Match","Non_Exact","5470 WISHING WELL LN, TIMNATH, CO, 80547",639375570,"R"
720539,"5470 YOUNGRIDGE DRIVE APT 5","PITTSBURGH","PA",15236,40.3391037600001,-79.9774555929999,39,"5470 YOUNGRIDGE DRIVE APT 5, PITTSBURGH, PA, 15236","Match","Exact","5470 YOUNGRIDGE DR, PITTSBURGH, PA, 15236",51658454,"L"
720540,"54702 270TH ST","AUSTIN","MN",55912,43.7466478470001,-92.9559373989999,40,"54702 270TH ST, AUSTIN, MN, 55912","Match","Exact","54702 270TH ST, AUSTIN, MN, 55912",610513534,"R"
720541,"54703 LEE VALLEY ROAD","COQUILLE","OR",97458,43.1086792580001,-124.160552587,41,"54703 LEE VALLEY ROAD, COQUILLE, OR, 97458","Match","Non_Exact","54703 LEE VALLEY RD, COQUILLE, OR, 97423",137036164,"R"
720542,"54706 BRYCE CANYON TRAIL","MACOMB TWP","MI",48076,NA,NA,42,"54706 BRYCE CANYON TRAIL, MACOMB TWP, MI, 48076","No_Match",NA,NA,NA,NA
720543,"5471 27TH AVE SW","NAPLES","FL",34116,26.177366394,-81.7156418609999,43,"5471 27TH AVE SW, NAPLES, FL, 34116","Match","Exact","5471 27TH AVE SW, NAPLES, FL, 34116",115140843,"L"
720544,"5471 AVONHURST CT","GALLOWAY","OH",43119,39.944929942,-83.143299745,44,"5471 AVONHURST CT, GALLOWAY, OH, 43119","Match","Exact","5471 AVONHURST CT, GALLOWAY, OH, 43119",135629630,"R"
720545,"5471 BANEBERRY AVENUE","COLUMBUS","OH",43235,40.067774383,-83.073609076,45,"5471 BANEBERRY AVENUE, COLUMBUS, OH, 43235","Match","Exact","5471 BANEBERRY AVE, COLUMBUS, OH, 43235",135668878,"R"
720546,"5471 BUTTERCUP LANE","INDIANAPOLIS","IN",46224,39.8100559800001,-86.2536017149999,46,"5471 BUTTERCUP LANE, INDIANAPOLIS, IN, 46224","Match","Exact","5471 BUTTERCUP LN, INDIANAPOLIS, IN, 46224",108017917,"L"
720547,"5471 CHATHAM WOODS CT","COLUMBUS","GA",31907,32.5049963650001,-84.896366859,47,"5471 CHATHAM WOODS CT, COLUMBUS, GA, 31907","Match","Exact","5471 CHATHAM WOODS CT, COLUMBUS, GA, 31907",98951219,"L"
720548,"5471 COLLISTER","BOISE","ID",83703,43.670225185,-116.245703724,48,"5471 COLLISTER, BOISE, ID, 83703","Match","Non_Exact","5471 COLLISTER DR, BOISE, ID, 83703",643227604,"L"
720549,"5471 COLONIAL OAKS DRIVE","SARASOTA","FL",34232,27.3119752210001,-82.460132073,49,"5471 COLONIAL OAKS DRIVE, SARASOTA, FL, 34232","Match","Non_Exact","5471 COLONIAL OAKS BLVD, SARASOTA, FL, 34232",16411428,"R"
720550,"5471 COLUMBIA ROAD","COLUMBIA","MD",21044,39.2322569150001,-76.847178023,50,"5471 COLUMBIA ROAD, COLUMBIA, MD, 21044","Match","Exact","5471 COLUMBIA RD, COLUMBIA, MD, 21044",158941270,"L"
720551,"5471 COUNTY RTE 64","HORNELL","NY",14843,42.2653476180001,-77.654873895,51,"5471 COUNTY RTE 64, HORNELL, NY, 14843","Match","Exact","5471 CO RTE 64, HORNELL, NY, 14843",14709736,"L"
720552,"5471 E EL JARDIN ST","LONG BEACH","CA",90815,33.78263773,-118.12655419,52,"5471 E EL JARDIN ST, LONG BEACH, CA, 90815","Match","Exact","5471 E EL JARDIN ST, LONG BEACH, CA, 90815",141818900,"L"
720553,"5471 GILBERT ROAD","CENTERBURG","OH",43011,40.332877405,-82.658165477,53,"5471 GILBERT ROAD, CENTERBURG, OH, 43011","Match","Exact","5471 GILBERT RD, CENTERBURG, OH, 43011",24666644,"R"
720554,"5471 LAUTNER RD","WILLIAMSBURG","MI",49690,44.7653318330001,-85.475486217,54,"5471 LAUTNER RD, WILLIAMSBURG, MI, 49690","Match","Exact","5471 LAUTNER RD, WILLIAMSBURG, MI, 49690",145516617,"L"
720555,"5471 LOUISIANA DR","CONCORD","CA",94521,37.9436228640001,-121.963652253,55,"5471 LOUISIANA DR, CONCORD, CA, 94521","Match","Exact","5471 LOUISIANA DR, CONCORD, CA, 94521",192059285,"L"
720556,"5471 MOORES RUN DRIVE","BALTIMORE","MD",21206,39.332676281,-76.535347843,56,"5471 MOORES RUN DRIVE, BALTIMORE, MD, 21206","Match","Exact","5471 MOORES RUN DR, BALTIMORE, MD, 21206",206457378,"R"
720557,"5471 NORTH 35TH STREET","MILWAUKEE","WI",53209,43.116835344,-87.9563167159999,57,"5471 NORTH 35TH STREET, MILWAUKEE, WI, 53209","Match","Exact","5471 N 35TH ST, MILWAUKEE, WI, 53209",77735489,"L"
720558,"5471 NW 86TH ST","CHIEFLAND","FL",32626,29.4547272900001,-82.862975439,58,"5471 NW 86TH ST, CHIEFLAND, FL, 32626","Match","Exact","5471 NW 86TH ST, CHIEFLAND, FL, 32626",612311291,"L"
720559,"5471 PASEO DEL LAGO EAST","LAGUNA WOODS","CA",92637,33.612488189,-117.740357266,59,"5471 PASEO DEL LAGO EAST, LAGUNA WOODS, CA, 92637","Match","Non_Exact","5471 PSO DEL LAGO E, LAGUNA WOODS, CA, 92637",648715243,"L"
720560,"5471 RT 116","ST. GEORGE","VT",5495,NA,NA,60,"5471 RT 116, ST. GEORGE, VT, 5495","No_Match",NA,NA,NA,NA
720561,"5471 S VIVIAN ST","LITTLETON","CO",80127,39.6178413650001,-105.137721416,61,"5471 S VIVIAN ST, LITTLETON, CO, 80127","Match","Exact","5471 S VIVIAN ST, LITTLETON, CO, 80127",177322337,"L"
720562,"5471 SOUTH 210TH ROAD","PLEASANT HOPE","MO",65725,37.451622523,-93.255323727,62,"5471 SOUTH 210TH ROAD, PLEASANT HOPE, MO, 65725","Match","Exact","5471 S 210TH RD, PLEASANT HOPE, MO, 65725",23039978,"L"
720563,"5471 STATE ROUTE 353","LITTLE VALLEY","NY",14755,42.2425918760001,-78.781885678,63,"5471 STATE ROUTE 353, LITTLE VALLEY, NY, 14755","Match","Exact","5471 STATE RTE 353, LITTLE VALLEY, NY, 14755",638547870,"L"
720564,"5471 TAMARAC STREET","DENVER","CO",80238,39.7955771790001,-104.895508218,64,"5471 TAMARAC STREET, DENVER, CO, 80238","Match","Non_Exact","5471 N TAMARAC ST, DENVER, CO, 80238",645173272,"L"
720565,"5471 THOMAS ARNOLD RD","SALADO","TX",76571,30.9570183770001,-97.557585277,65,"5471 THOMAS ARNOLD RD, SALADO, TX, 76571","Match","Exact","5471 THOMAS ARNOLD RD, SALADO, TX, 76571",650024483,"L"
720566,"5471 UPPER DENTON ROAD","WEATHERFORD","TX",76085,32.8709049720001,-97.702932743,66,"5471 UPPER DENTON ROAD, WEATHERFORD, TX, 76085","Match","Exact","5471 UPPER DENTON RD, WEATHERFORD, TX, 76085",636821387,"L"
720567,"5471 W RED LODGE DR","KEARNS","UT",84118,40.651763735,-112.006801484,67,"5471 W RED LODGE DR, KEARNS, UT, 84118","Match","Exact","5471 RED LODGE DR, KEARNS, UT, 84118",176104437,"L"
720568,"54718 BIRD HAVEN RD","CENTERTOWN","MO",65023,38.6820180600001,-92.4507469489999,68,"54718 BIRD HAVEN RD, CENTERTOWN, MO, 65023","Match","Exact","54718 BIRD HAVEN RD, CENTERTOWN, MO, 65023",34476858,"R"
720569,"54718 BIRD HAVEN ROAD","CENTERTOWN","MO",65023,38.6820180600001,-92.4507469489999,69,"54718 BIRD HAVEN ROAD, CENTERTOWN, MO, 65023","Match","Exact","54718 BIRD HAVEN RD, CENTERTOWN, MO, 65023",34476858,"R"
720570,"5472 BEAUFAIN BLVD","VIRGINIA BEACH","VA",23321,36.7816935810001,-76.184427264,70,"5472 BEAUFAIN BLVD, VIRGINIA BEACH, VA, 23321","Match","Non_Exact","5472 BEAUFAIN BLVD, VA BCH, VA, 23464",122307556,"R"
720571,"5472 BRACKEN COURT","WINTER PARK","FL",32792,28.6203538070001,-81.2817753749999,71,"5472 BRACKEN COURT, WINTER PARK, FL, 32792","Match","Exact","5472 BRACKEN CT, WINTER PARK, FL, 32792",93746248,"L"
720572,"5472 CATOWBA LANE","IRVINE","CA",92603,33.636532559,-117.822176005,72,"5472 CATOWBA LANE, IRVINE, CA, 92603","Match","Exact","5472 CATOWBA LN, IRVINE, CA, 92603",144059590,"L"
720573,"5472 CLUB DRIVE","SAN JOSE","CA",95127,37.385132974,-121.819581362,73,"5472 CLUB DRIVE, SAN JOSE, CA, 95127","Match","Exact","5472 CLUB DR, SAN JOSE, CA, 95127",122965144,"R"
720574,"5472 CRENSHAW BLVD UNIT 43473","LOS ANGELES","CA",90043,33.9915550850001,-118.33058223,74,"5472 CRENSHAW BLVD UNIT 43473, LOS ANGELES, CA, 90043","Match","Non_Exact","5472 S CRENSHAW BLVD, LOS ANGELES, CA, 90043",241169907,"L"
720575,"5472 DILLON ST","DENVER","CO",80239,39.79168938,-104.820226799,75,"5472 DILLON ST, DENVER, CO, 80239","Match","Exact","5472 DILLON ST, DENVER, CO, 80239",177350169,"R"
720576,"5472 LAMBETH DR","ROCKFORD","IL",61107,42.2959807720001,-89.010411393,76,"5472 LAMBETH DR, ROCKFORD, IL, 61107","Match","Exact","5472 LAMBETH DR, ROCKFORD, IL, 61107",49288545,"L"
720577,"5472 LAWRENCE 2100","STOTTS CITY","MO",65756,37.1329063490001,-93.96012487,77,"5472 LAWRENCE 2100, STOTTS CITY, MO, 65756","Match","Exact","5472 LAWRENCE 2100, STOTTS CITY, MO, 65756",99878306,"R"
720578,"5472 MONICA DRIVE","FAIRFIELD","OH",45014,39.3280258390001,-84.534614027,78,"5472 MONICA DRIVE, FAIRFIELD, OH, 45014","Match","Exact","5472 MONICA DR, FAIRFIELD, OH, 45014",113817617,"L"
720579,"5472 N VALLEY ROAD","LEHI","UT",84043,NA,NA,79,"5472 N VALLEY ROAD, LEHI, UT, 84043","No_Match",NA,NA,NA,NA
720580,"5472 RABBITTOWN ROAD","MUNCY","PA",17756,41.313073629,-76.761873367,80,"5472 RABBITTOWN ROAD, MUNCY, PA, 17756","Match","Exact","5472 RABBITTOWN RD, MUNCY, PA, 17756",59462880,"L"
720581,"5472 S EVERETT AVENUE 2","CHICAGO","IL",60615,41.795897665,-87.582559969,81,"5472 S EVERETT AVENUE 2, CHICAGO, IL, 60615","Match","Non_Exact","5472 S EVERETT AVE, CHICAGO, IL, 60615",112047915,"R"
720582,"5472 VILLAGE CREEK PARKWAY N","BROOKLYN PARK","MN",55443,45.0904821890001,-93.353334452,82,"5472 VILLAGE CREEK PARKWAY N, BROOKLYN PARK, MN, 55443","Match","Non_Exact","5472 VILLAGE CREEK PKWY, BROOKLYN PARK, MN, 55443",628701636,"R"
720583,"5472-A PASEO DEL LAGO EAST","LAGUNA WOODS","CA",92637,NA,NA,83,"5472-A PASEO DEL LAGO EAST, LAGUNA WOODS, CA, 92637","Tie",NA,NA,NA,NA
720584,"54720 NEW CASTLE ROAD","BEALLSVILLE","OH",43716,NA,NA,84,"54720 NEW CASTLE ROAD, BEALLSVILLE, OH, 43716","No_Match",NA,NA,NA,NA
720585,"54721 BURDETTE STREET APT 1209","SOUTH BEND","IN",46637,41.699389952,-86.2237257199999,85,"54721 BURDETTE STREET APT 1209, SOUTH BEND, IN, 46637","Match","Exact","54721 BURDETTE ST, SOUTH BEND, IN, 46637",627830229,"R"
720586,"54724 OLD BEDFORD TRL","MISHAWAKA","IN",46545,41.700348725,-86.16495938,86,"54724 OLD BEDFORD TRL, MISHAWAKA, IN, 46545","Match","Exact","54724 OLD BEDFORD TRL, MISHAWAKA, IN, 46545",8069656,"L"
720587,"5473 BURNS LINE ROAD","CROSWELL","MI",48422,43.223600789,-82.5992736649999,87,"5473 BURNS LINE ROAD, CROSWELL, MI, 48422","Match","Exact","5473 BURNS LINE RD, CROSWELL, MI, 48422",111071902,"L"
720588,"5473 DERRON AVENUE","MEMPHIS","TN",38115,35.063385236,-89.881195207,88,"5473 DERRON AVENUE, MEMPHIS, TN, 38115","Match","Exact","5473 DERRON AVE, MEMPHIS, TN, 38115",72928161,"R"
720589,"5473 E 104TH PL","THORNTON","CO",80602,NA,NA,89,"5473 E 104TH PL, THORNTON, CO, 80602","No_Match",NA,NA,NA,NA
720590,"5473 HARTWELL RD","SARANAC","MI",48881,42.908144027,-85.1537126269999,90,"5473 HARTWELL RD, SARANAC, MI, 48881","Match","Exact","5473 HARTWELL RD, SARANAC, MI, 48881",12155759,"R"
720591,"5473 HENLEY ST","BOKEELIA","FL",33922,26.6188099020001,-82.1167949489999,91,"5473 HENLEY ST, BOKEELIA, FL, 33922","Match","Exact","5473 HENLEY ST, BOKEELIA, FL, 33922",117999524,"R"
720592,"5473 HIGHTOR LANE","MEMPHIS","TN",38125,34.9991219500001,-89.823113832,92,"5473 HIGHTOR LANE, MEMPHIS, TN, 38125","Match","Exact","5473 HIGHTOR LN, MEMPHIS, TN, 38125",618712813,"L"
720593,"5473 LOCHDALE DRIVE","ORLANDO","FL",32818,28.6113216420001,-81.4851588399999,93,"5473 LOCHDALE DRIVE, ORLANDO, FL, 32818","Match","Exact","5473 LOCHDALE DR, ORLANDO, FL, 32818",631810640,"R"
720594,"5473 N SALINAS  UNIT 146","FRESNO","CA",93722,NA,NA,94,"5473 N SALINAS  UNIT 146, FRESNO, CA, 93722","No_Match",NA,NA,NA,NA
720595,"5473 PINE LANE DRIVE","JACKSON","MS",39211,32.377525624,-90.144928282,95,"5473 PINE LANE DRIVE, JACKSON, MS, 39211","Match","Exact","5473 PINE LANE DR, JACKSON, MS, 39211",65360843,"L"
720596,"5473 RUBY LN","IRON STATON","NC",28080,35.4933505340001,-81.101515853,96,"5473 RUBY LN, IRON STATON, NC, 28080","Match","Non_Exact","5473 RUBY LN, IRON STATION, NC, 28080",643983953,"R"
720597,"5473 S  EVERETT AVENUE 1N","CHICAGO","IL",60615,41.79589786,-87.582545264,97,"5473 S  EVERETT AVENUE 1N, CHICAGO, IL, 60615","Match","Non_Exact","5473 S EVERETT AVE, CHICAGO, IL, 60615",112047915,"L"
720598,"5473 S EVERETT AVENUE 1N","CHICAGO","IL",60615,41.79589786,-87.582545264,98,"5473 S EVERETT AVENUE 1N, CHICAGO, IL, 60615","Match","Non_Exact","5473 S EVERETT AVE, CHICAGO, IL, 60615",112047915,"L"
720599,"5473 S INGLESIDE AVE APT 3E","CHICAGO","IL",60615,41.7959196420001,-87.6027376979999,99,"5473 S INGLESIDE AVE APT 3E, CHICAGO, IL, 60615","Match","Non_Exact","5473 S INGLESIDE AVE, CHICAGO, IL, 60615",111771657,"L"
720600,"5473 SANTA MONICA BLVD 301","LOS ANGELES","CA",90029,34.09077919,-118.308821879,100,"5473 SANTA MONICA BLVD 301, LOS ANGELES, CA, 90029","Match","Exact","5473 SANTA MONICA BLVD, LOS ANGELES, CA, 90029",141603180,"R"
720601,"5473 SOMERS POINT ROAD","MAYS LANDING","NJ",8330,39.4478005170001,-74.718285442,101,"5473 SOMERS POINT ROAD, MAYS LANDING, NJ, 8330","Match","Exact","5473 SOMERS POINT RD, MAYS LANDING, NJ, 08330",636219210,"L"
720602,"5473 TIMBERLEAF APT 1008","ORLANDO","FL",32811,28.5287750630001,-81.452353424,102,"5473 TIMBERLEAF APT 1008, ORLANDO, FL, 32811","Match","Non_Exact","5473 TIMBERLEAF BLVD, ORLANDO, FL, 32811",94341563,"R"
720603,"5473 TIMBERLEAF BLVD UNIT 1012","ORLANDO","FL",32811,28.5287750630001,-81.452353424,103,"5473 TIMBERLEAF BLVD UNIT 1012, ORLANDO, FL, 32811","Match","Exact","5473 TIMBERLEAF BLVD, ORLANDO, FL, 32811",94341563,"R"
720604,"5473 WHITTEN DRIVE","NAPLES","FL",34104,26.144072861,-81.738123941,104,"5473 WHITTEN DRIVE, NAPLES, FL, 34104","Match","Exact","5473 WHITTEN DR, NAPLES, FL, 34104",115164452,"L"
720605,"54731 BIRD HAVEN","CENTERTOWN","MO",65023,38.6854690820001,-92.456683476,105,"54731 BIRD HAVEN, CENTERTOWN, MO, 65023","Match","Non_Exact","54731 BIRD HAVEN RD, CENTERTOWN, MO, 65023",34476858,"L"
720606,"5474 BERRYHILL DRIVE","YORBA LINDA","CA",92886,33.8811271270001,-117.819563041,106,"5474 BERRYHILL DRIVE, YORBA LINDA, CA, 92886","Match","Exact","5474 BERRYHILL DR, YORBA LINDA, CA, 92886",143996098,"L"
720607,"5474 BRADDOCK RIDGE DR","CENTREVILLE","VA",20120,38.857925553,-77.4510833369999,107,"5474 BRADDOCK RIDGE DR, CENTREVILLE, VA, 20120","Match","Exact","5474 BRADDOCK RIDGE DR, CENTREVILLE, VA, 20120",76061597,"R"
720608,"5474 COBBLESTONE RD","WARRENS","WI",54666,44.100110086,-90.515500296,108,"5474 COBBLESTONE RD, WARRENS, WI, 54666","Match","Exact","5474 COBBLESTONE RD, WARRENS, WI, 54666",51065627,"R"
720609,"5474 EAST 135TH ST","GARFIELD HTS","OH",44125,41.413295503,-81.5891108179999,109,"5474 EAST 135TH ST, GARFIELD HTS, OH, 44125","Match","Exact","5474 E 135TH ST, GARFIELD HEIGHTS, OH, 44125",61128141,"R"
720610,"5474 GATE LAKE ROAD","TAMARAC","FL",33319,26.197741009,-80.2223352789999,110,"5474 GATE LAKE ROAD, TAMARAC, FL, 33319","Match","Exact","5474 GATE LAKE RD, TAMARAC, FL, 33319",114751821,"L"
720611,"5474 JACKSONVILLE ROAD","BUCHANAN","GA",30113,33.8102683120001,-85.2289272099999,111,"5474 JACKSONVILLE ROAD, BUCHANAN, GA, 30113","Match","Exact","5474 JACKSONVILLE RD, BUCHANAN, GA, 30113",610521258,"L"
720612,"5474 MALIBU DRIVE","COLUMBUS","OH",43213,39.9803607440001,-82.858493405,112,"5474 MALIBU DRIVE, COLUMBUS, OH, 43213","Match","Exact","5474 MALIBU DR, COLUMBUS, OH, 43213",218651701,"L"
720613,"5474 OAKLEY IND BLVD APT 716","FAIRBURN","GA",30213,33.5427458300001,-84.567088052,113,"5474 OAKLEY IND BLVD APT 716, FAIRBURN, GA, 30213","Match","Exact","5474 OAKLEY INDUSTRIAL BLVD, FAIRBURN, GA, 30213",643339261,"R"
720614,"5474 OAKLEY INDUSTRIAL BLVD APT 236","FAIRBURN","GA",30213,33.5427458300001,-84.567088052,114,"5474 OAKLEY INDUSTRIAL BLVD APT 236, FAIRBURN, GA, 30213","Match","Exact","5474 OAKLEY INDUSTRIAL BLVD, FAIRBURN, GA, 30213",643339261,"R"
720615,"5474 S PITKIN ST","CENTENNIAL","CO",80015,39.6170075970001,-104.789931625,115,"5474 S PITKIN ST, CENTENNIAL, CO, 80015","Match","Exact","5474 S PITKIN ST, CENTENNIAL, CO, 80015",177359557,"R"
720616,"5474 SNOW CREEK CT","PRINCE GEORGE","VA",23875,37.256537463,-77.305604112,116,"5474 SNOW CREEK CT, PRINCE GEORGE, VA, 23875","Match","Exact","5474 SNOW CREEK CT, PRINCE GEORGE, VA, 23875",54190967,"R"
720617,"5474 SUMAC LOOP E","COLUMBUS","OH",43229,40.0809145440001,-82.959559235,117,"5474 SUMAC LOOP E, COLUMBUS, OH, 43229","Match","Exact","5474 SUMAC LOOP E, COLUMBUS, OH, 43229",135571608,"R"
720618,"5474 WALKER ROAD","CHEYENNE","WY",82007,41.168771108,-104.836382803,118,"5474 WALKER ROAD, CHEYENNE, WY, 82007","Match","Non_Exact","5474 WALKER RD, CHEYENNE, WY, 82009",636255790,"L"
720619,"5475 AIRLINE ROAD","ARLINGTON","TN",38002,35.2753938210001,-89.666712063,119,"5475 AIRLINE ROAD, ARLINGTON, TN, 38002","Match","Exact","5475 AIRLINE RD, ARLINGTON, TN, 38002",72945120,"L"
720620,"5475 CABANNE APT 603","ST LOUIS","MO",64112,NA,NA,120,"5475 CABANNE APT 603, ST LOUIS, MO, 64112","No_Match",NA,NA,NA,NA
720621,"5475 CANYON CREET DRIVE APT 80","RIVERSIDE","CA",92507,33.9527994040001,-117.329205529,121,"5475 CANYON CREET DRIVE APT 80, RIVERSIDE, CA, 92507","Match","Non_Exact","5475 CANYON CREST DR, RIVERSIDE, CA, 92507",194746428,"L"
720622,"5475 CHERRY VALLEY ROAD","SAYLORSBURG","PA",18353,40.9081629030001,-75.29076315,122,"5475 CHERRY VALLEY ROAD, SAYLORSBURG, PA, 18353","Match","Exact","5475 CHERRY VALLEY RD, SAYLORSBURG, PA, 18353",136776370,"L"
720623,"5475 CLARCONA KEY BLVD APT 1016","ORLANDO","FL",32810,28.614216653,-81.4528444699999,123,"5475 CLARCONA KEY BLVD APT 1016, ORLANDO, FL, 32810","Match","Exact","5475 CLARCONA KEY BLVD, ORLANDO, FL, 32810",630013944,"R"
720624,"5475 COLUMBIA RD","COLUMBIA","MD",21044,39.232121847,-76.847282701,124,"5475 COLUMBIA RD, COLUMBIA, MD, 21044","Match","Exact","5475 COLUMBIA RD, COLUMBIA, MD, 21044",158941270,"L"
720625,"5475 CR 12 PO BOX 834","ALFRED","NY",14802,NA,NA,125,"5475 CR 12 PO BOX 834, ALFRED, NY, 14802","No_Match",NA,NA,NA,NA
720626,"5475 EAST 135TH ST","GARFIELD HEIGHTS","OH",44125,41.4132184850001,-81.5890961969999,126,"5475 EAST 135TH ST, GARFIELD HEIGHTS, OH, 44125","Match","Exact","5475 E 135TH ST, GARFIELD HEIGHTS, OH, 44125",61128141,"L"
720627,"5475 FM 457","BAY CITY","TX",77414,28.9619219250001,-95.8474019189999,127,"5475 FM 457, BAY CITY, TX, 77414","Match","Exact","5475 FM 457, BAY CITY, TX, 77414",83297831,"R"
720628,"5475 HIGHWAY 280","BIRMINGHAM","AL",35242,33.412154668,-86.664792919,128,"5475 HIGHWAY 280, BIRMINGHAM, AL, 35242","Match","Non_Exact","5475 US HWY 280, BIRMINGHAM, AL, 35242",647513329,"R"
720629,"5475 JACOBY CREEK RD","BAYSIDE","CA",95524,NA,NA,129,"5475 JACOBY CREEK RD, BAYSIDE, CA, 95524","No_Match",NA,NA,NA,NA
720630,"5475 JASPER RD","MACUNGIE","PA",18062,40.5227469500001,-75.54135425,130,"5475 JASPER RD, MACUNGIE, PA, 18062","Match","Exact","5475 JASPER RD, MACUNGIE, PA, 18062",80786282,"L"
720631,"5475 JEFFERSON ROAD","COMMERCE","GA",30529,34.1668347630001,-83.501847509,131,"5475 JEFFERSON ROAD, COMMERCE, GA, 30529","Match","Exact","5475 JEFFERSON RD, COMMERCE, GA, 30529",619879115,"L"
720632,"5475 JOYCE STREET","MAPLE PLAIN","MN",55359,45.0043971520001,-93.6629205899999,132,"5475 JOYCE STREET, MAPLE PLAIN, MN, 55359","Match","Exact","5475 JOYCE ST, MAPLE PLAIN, MN, 55359",43817194,"L"
720633,"5475 MACY PLACE DR","WAMEGO","KS",66547,39.2287979020001,-96.353441923,133,"5475 MACY PLACE DR, WAMEGO, KS, 66547","Match","Exact","5475 MACY PLACE DR, WAMEGO, KS, 66547",22325883,"L"
720634,"5475 MORGAN ROAD","BATTLE CREEK","MI",49037,42.355361929,-85.192734043,134,"5475 MORGAN ROAD, BATTLE CREEK, MI, 49037","Match","Non_Exact","5475 MORGAN RD E, BATTLE CREEK, MI, 49037",11713343,"L"
720635,"5475 NORTH 35TH STREET","MILWAUKEE","WI",53209,43.116898055,-87.956315108,135,"5475 NORTH 35TH STREET, MILWAUKEE, WI, 53209","Match","Exact","5475 N 35TH ST, MILWAUKEE, WI, 53209",77735489,"L"
720636,"5475 NORTH PICCADILLY","WEST BLOOMFIELD","MI",48322,42.555430174,-83.3903972539999,136,"5475 NORTH PICCADILLY, WEST BLOOMFIELD, MI, 48322","Match","Non_Exact","5475 N PICCADILLY CIR, W BLOOMFIELD, MI, 48322",69775305,"R"
720637,"5475 NW SAINT JAMES DRIVE   STE 361","PORT SAINT LUCIE","FL",34983,NA,NA,137,"5475 NW SAINT JAMES DRIVE   STE 361, PORT SAINT LUCIE, FL, 34983","No_Match",NA,NA,NA,NA
720638,"5475 OMEGA AVE","BEDFORD HEIGHT","OH",44146,41.412086437,-81.505828251,138,"5475 OMEGA AVE, BEDFORD HEIGHT, OH, 44146","Match","Non_Exact","5475 OMEGA AVE, BEDFORD, OH, 44146",61135772,"L"
720639,"5475 PEBBLE CREEK","PROSPER","TX",75078,33.264875229,-96.749751782,139,"5475 PEBBLE CREEK, PROSPER, TX, 75078","Match","Non_Exact","5475 PEBBLE CREEK DR, PROSPER, TX, 75078",625208746,"L"
720640,"5475 PORTER DR SP 13","LAS CRUCES","NM",88012,NA,NA,140,"5475 PORTER DR SP 13, LAS CRUCES, NM, 88012","No_Match",NA,NA,NA,NA
720641,"5475 REPECHO DR K204","SAN DIEGO","CA",92124,32.831912776,-117.112039746,141,"5475 REPECHO DR K204, SAN DIEGO, CA, 92124","Match","Exact","5475 REPECHO DR, SAN DIEGO, CA, 92124",195402496,"R"
720642,"5475 RIVER BLUFF COURT","OREANA","IL",62554,39.91739576,-88.8460287359999,142,"5475 RIVER BLUFF COURT, OREANA, IL, 62554","Match","Exact","5475 RIVER BLUFF CT, OREANA, IL, 62554",20762905,"L"
720643,"5475 SHIREWICK LANE","LITHONIA","GA",30058,33.711385186,-84.157039384,143,"5475 SHIREWICK LANE, LITHONIA, GA, 30058","Match","Exact","5475 SHIREWICK LN, LITHONIA, GA, 30058",23395652,"R"
720644,"5475 SHOREWOOD DRIVE","INDIANAPOLIS","IN",46220,39.8532000320001,-86.1145705179999,144,"5475 SHOREWOOD DRIVE, INDIANAPOLIS, IN, 46220","Match","Exact","5475 SHOREWOOD DR, INDIANAPOLIS, IN, 46220",107995458,"R"
720645,"5475 SOUTH SECTION LINE RD","DELAWARE","OH",43015,40.231985369,-83.1319108289999,145,"5475 SOUTH SECTION LINE RD, DELAWARE, OH, 43015","Match","Exact","5475 S SECTION LINE RD, DELAWARE, OH, 43015",633548934,"L"
720646,"5475 VALLEY RIDGE AVENUE","LOS ANGELES","CA",90043,33.99143357,-118.344694873,146,"5475 VALLEY RIDGE AVENUE, LOS ANGELES, CA, 90043","Match","Exact","5475 VALLEY RIDGE AVE, LOS ANGELES, CA, 90043",141654653,"R"
720647,"5475 W CHINO DR","GOLDEN VALLEY","AZ",86413,35.228905555,-114.217290505,147,"5475 W CHINO DR, GOLDEN VALLEY, AZ, 86413","Match","Exact","5475 CHINO DR, GOLDEN VALLEY, AZ, 86413",190311486,"R"
720648,"5475 WADE GREEN RD","ACWORTH","GA",30102,34.085738458,-84.588443238,148,"5475 WADE GREEN RD, ACWORTH, GA, 30102","Match","Exact","5475 WADE GREEN RD, ACWORTH, GA, 30102",68863137,"L"
720649,"5475 WADE GREEN RD","ACWORTH, GA","GA",30102,34.085738458,-84.588443238,149,"5475 WADE GREEN RD, ACWORTH, GA, GA, 30102","Match","Non_Exact","5475 WADE GREEN RD, ACWORTH, GA, 30102",68863137,"L"
720650,"5475 WARREN STREET","CHINCOTEAGUE","VA",23336,37.9528488890001,-75.344525018,150,"5475 WARREN STREET, CHINCOTEAGUE, VA, 23336","Match","Exact","5475 WARREN ST, CHINCOTEAGUE, VA, 23336",114594845,"R"
720651,"5475 WHITE OAK LANE","SAN DIEGO","CA",92130,32.9516750240001,-117.201127005,151,"5475 WHITE OAK LANE, SAN DIEGO, CA, 92130","Match","Exact","5475 WHITE OAK LN, SAN DIEGO, CA, 92130",612882740,"R"
720652,"5475 WILIMINGTON CIRCLE APT 305","LAKELAND","FL",33813,27.9646262730001,-81.967096479,152,"5475 WILIMINGTON CIRCLE APT 305, LAKELAND, FL, 33813","Match","Non_Exact","5475 WILMINGTON CIR, LAKELAND, FL, 33813",618500266,"L"
720653,"5475 WINTERHAZEL DR","INDIANAPOLIS","IN",46254,39.8501301000001,-86.292102631,153,"5475 WINTERHAZEL DR, INDIANAPOLIS, IN, 46254","Match","Exact","5475 WINTERHAZEL DR, INDIANAPOLIS, IN, 46254",108034762,"R"
720654,"5475","COLUMBIA","MD",21044,NA,NA,154,"5475, COLUMBIA, MD, 21044","No_Match",NA,NA,NA,NA
720655,"5476 AGOSTINO WAY","AVE MARIA","FL",34142,26.3275598020001,-81.44565317,155,"5476 AGOSTINO WAY, AVE MARIA, FL, 34142","Match","Exact","5476 AGOSTINO WAY, AVE MARIA, FL, 34142",652047429,"L"
720656,"5476 AMITY COVE","POWDER SPRINGS","GA",30127,33.918081617,-84.712626856,156,"5476 AMITY COVE, POWDER SPRINGS, GA, 30127","Match","Exact","5476 AMITY COVE, POWDER SPGS, GA, 30127",17228726,"R"
720657,"5476 ASPEN CIR","GRAND BLANC","MI",48439,42.9713015670001,-83.595258998,157,"5476 ASPEN CIR, GRAND BLANC, MI, 48439","Match","Exact","5476 ASPEN CIR, GRAND BLANC, MI, 48439",627084100,"R"
720658,"5476 BELFAST OWENSVILLE RD","BATAVIA","OH",45103,39.1501809150001,-84.13069825,158,"5476 BELFAST OWENSVILLE RD, BATAVIA, OH, 45103","Match","Exact","5476 BELFAST OWENSVILLE RD, BATAVIA, OH, 45103",634214679,"R"
720659,"5476 DENNY DRIVE","ATLANTA","GA",30349,33.6026232680001,-84.457577698,159,"5476 DENNY DRIVE, ATLANTA, GA, 30349","Match","Exact","5476 DENNY DR, ATLANTA, GA, 30349",624711562,"L"
720660,"5476 E 600 S","CUTLER","IN",46920,NA,NA,160,"5476 E 600 S, CUTLER, IN, 46920","No_Match",NA,NA,NA,NA
720661,"5476 GALLUP WAY","WAHIAWA","HI",96786,NA,NA,161,"5476 GALLUP WAY, WAHIAWA, HI, 96786","No_Match",NA,NA,NA,NA
720662,"5476 GREEN DORY LANE","COLUMBIA","MD",21044,39.219318743,-76.8848539909999,162,"5476 GREEN DORY LANE, COLUMBIA, MD, 21044","Match","Exact","5476 GREEN DORY LN, COLUMBIA, MD, 21044",158922519,"R"
720663,"5476 HWY 71 S","COVE","AR",71937,NA,NA,163,"5476 HWY 71 S, COVE, AR, 71937","No_Match",NA,NA,NA,NA
720664,"5476 KALES AVENUE","OAKLAND","CA",94618,37.84156212,-122.249830921,164,"5476 KALES AVENUE, OAKLAND, CA, 94618","Match","Exact","5476 KALES AVE, OAKLAND, CA, 94618",606127470,"L"
720665,"5476 KATHERINE VILLAGE DRIVE","ELLENWOOD","GA",30294,33.6055258310001,-84.273265951,165,"5476 KATHERINE VILLAGE DRIVE, ELLENWOOD, GA, 30294","Match","Exact","5476 KATHERINE VILLAGE DR, ELLENWOOD, GA, 30294",653477033,"L"
720666,"5476 MUDMILL ROAD","CAMDEN-WYOMING","DE",19934,39.0697308630001,-75.6509023249999,166,"5476 MUDMILL ROAD, CAMDEN-WYOMING, DE, 19934","Match","Non_Exact","5476 MUD MILL RD, CAMDEN WYOMING, DE, 19934",68099306,"R"
720667,"5476 MYRTLE AVE","EUREKA","CA",95503,40.783586551,-124.095590656,167,"5476 MYRTLE AVE, EUREKA, CA, 95503","Match","Exact","5476 MYRTLE AVE, EUREKA, CA, 95503",645258774,"L"
720668,"5476 RENO CORPORATE DR","RENO","NV",89511,39.466994578,-119.765491136,168,"5476 RENO CORPORATE DR, RENO, NV, 89511","Match","Exact","5476 RENO CORPORATE DR, RENO, NV, 89511",640764201,"L"
720669,"5476 STONEHAVE DR","STONEMOUNTAIN","GA",30087,NA,NA,169,"5476 STONEHAVE DR, STONEMOUNTAIN, GA, 30087","No_Match",NA,NA,NA,NA
720670,"5476 W RICHERT AVE","FRESNO","CA",93722,NA,NA,170,"5476 W RICHERT AVE, FRESNO, CA, 93722","No_Match",NA,NA,NA,NA
720671,"5476 WETLANDS DRIVE","FREDERICK","CO",80504,40.138265566,-104.953678609,171,"5476 WETLANDS DRIVE, FREDERICK, CO, 80504","Match","Exact","5476 WETLANDS DR, FREDERICK, CO, 80504",188752784,"R"
720672,"5477 FAIRVIEW","STEVENSVILLE","MI",49127,NA,NA,172,"5477 FAIRVIEW, STEVENSVILLE, MI, 49127","Tie",NA,NA,NA,NA
720673,"5477 HARRIS FARM LANE","CLARKSVILLE","MD",21029,39.224366268,-76.982814166,173,"5477 HARRIS FARM LANE, CLARKSVILLE, MD, 21029","Match","Exact","5477 HARRIS FARM LN, CLARKSVILLE, MD, 21029",158957289,"L"
720674,"5477 LEAN AVE","SAN JOSE","CA",95123,37.254401848,-121.817618505,174,"5477 LEAN AVE, SAN JOSE, CA, 95123","Match","Exact","5477 LEAN AVE, SAN JOSE, CA, 95123",122925027,"R"
720675,"5477 N 40TH STREET","MILWAUKEE","WI",53209,43.1169713470001,-87.962367235,175,"5477 N 40TH STREET, MILWAUKEE, WI, 53209","Match","Exact","5477 N 40TH ST, MILWAUKEE, WI, 53209",77726991,"L"
720676,"5477 OAKWOOD DRIVE","STONE MOUNTAIN","GA",30087,33.848638846,-84.164517329,176,"5477 OAKWOOD DRIVE, STONE MOUNTAIN, GA, 30087","Match","Exact","5477 OAKWOOD DR, STONE MOUNTAIN, GA, 30087",23384568,"R"
720677,"5477 PAINTED GORGE DR","LAS VEGAS","NV",89149,36.26085134,-115.272110928,177,"5477 PAINTED GORGE DR, LAS VEGAS, NV, 89149","Match","Exact","5477 PAINTED GORGE DR, LAS VEGAS, NV, 89149",201907033,"L"
720678,"5477 QUEENS","SAINT LOUIS","MO",63115,38.6922035790001,-90.237594031,178,"5477 QUEENS, SAINT LOUIS, MO, 63115","Match","Non_Exact","5477 QUEENS AVE, SAINT LOUIS, MO, 63115",606634165,"L"
720679,"5477 S 1600 WEST","FRANCESVILLE","IN",47946,40.9777019480001,-86.911080842,179,"5477 S 1600 WEST, FRANCESVILLE, IN, 47946","Match","Exact","5477 S 1600 W, FRANCESVILLE, IN, 47946",15487446,"L"
720680,"5477 S VALDAI ST","AURORA","CO",80015,39.619066424,-104.721910453,180,"5477 S VALDAI ST, AURORA, CO, 80015","Match","Exact","5477 S VALDAI ST, AURORA, CO, 80015",177532335,"R"
720681,"5477 SOMBRA DEL LAGO","TALLAHASSEE","FL",32301,NA,NA,181,"5477 SOMBRA DEL LAGO, TALLAHASSEE, FL, 32301","No_Match",NA,NA,NA,NA
720682,"5477 SOUTH EVERETT AVENUE APT 2W","CHICAGO","IL",60615,41.7958785120001,-87.582544803,182,"5477 SOUTH EVERETT AVENUE APT 2W, CHICAGO, IL, 60615","Match","Exact","5477 S EVERETT AVE, CHICAGO, IL, 60615",112047915,"L"
720683,"5477 SWEETWATER LANE","BARTLETT","TN",38135,35.221105736,-89.880651724,183,"5477 SWEETWATER LANE, BARTLETT, TN, 38135","Match","Exact","5477 SWEETWATER LN, BARTLETT, TN, 38135",607546321,"L"
720684,"5477 TIMBERLEAF BLVD APT 1104","ORLANDO","FL",32811,28.5286373010001,-81.452356572,184,"5477 TIMBERLEAF BLVD APT 1104, ORLANDO, FL, 32811","Match","Exact","5477 TIMBERLEAF BLVD, ORLANDO, FL, 32811",94341563,"R"
720685,"5477 VALLEY RIDGE","COLUMBUS","OH",43228,39.967370783,-83.1530554559999,185,"5477 VALLEY RIDGE, COLUMBUS, OH, 43228","Match","Exact","5477 VALLEY RIDGE, COLUMBUS, OH, 43228",218648229,"R"
720686,"5477 VILLAGE POND COURT","JACKSONVILLE","FL",32222,30.245931243,-81.80446075,186,"5477 VILLAGE POND COURT, JACKSONVILLE, FL, 32222","Match","Exact","5477 VILLAGE POND CT, JACKSONVILLE, FL, 32222",624152666,"R"
720687,"5478 ALABAMA STREET","MILTON","FL",32570,30.632931554,-87.0397471049999,187,"5478 ALABAMA STREET, MILTON, FL, 32570","Match","Exact","5478 ALABAMA ST, MILTON, FL, 32570",74556589,"R"
720688,"5478 BOWMAN DR","WINTER GARDEN","FL",34787,28.468310918,-81.626928603,188,"5478 BOWMAN DR, WINTER GARDEN, FL, 34787","Match","Exact","5478 BOWMAN DR, WINTER GARDEN, FL, 34787",645098817,"L"
720689,"5478 BRIARWOOD AVENUE","AURORA","IN",47001,39.10576251,-84.920031997,189,"5478 BRIARWOOD AVENUE, AURORA, IN, 47001","Match","Non_Exact","5478 BRIARWOOD DR, AURORA, IN, 47001",76872471,"L"
720690,"5478 CEDAR LN APT A2","COLUMBIA","MD",21044,39.2204049970001,-76.888347153,190,"5478 CEDAR LN APT A2, COLUMBIA, MD, 21044","Match","Exact","5478 CEDAR LN, COLUMBIA, MD, 21044",158947661,"R"
720691,"5478 CR 48","BELMONT","NY",14813,42.2372078170001,-78.039882163,191,"5478 CR 48, BELMONT, NY, 14813","Match","Exact","5478 CO RD 48, BELMONT, NY, 14813",82614985,"R"
720692,"5478 CYPRESS POINT","SCHERTZ","TX",78108,29.637528585,-98.203038711,192,"5478 CYPRESS POINT, SCHERTZ, TX, 78108","Match","Exact","5478 CYPRESS PT, SCHERTZ, TX, 78108",649126562,"R"
720693,"5478 HUNTERS COVE","LITHONIA","GA",30038,33.6794636240001,-84.165497533,193,"5478 HUNTERS COVE, LITHONIA, GA, 30038","Match","Exact","5478 HUNTERS COVE, LITHONIA, GA, 30038",23378700,"R"
720694,"5478 MIRASOL MANOR WAY","EUREKA","MO",63025,NA,NA,194,"5478 MIRASOL MANOR WAY, EUREKA, MO, 63025","No_Match",NA,NA,NA,NA
720695,"5478 N FERGER AVE","FRESNO","CA",93704,36.816993918,-119.80724137,195,"5478 N FERGER AVE, FRESNO, CA, 93704","Match","Exact","5478 N FERGER AVE, FRESNO, CA, 93704",197612144,"R"
720696,"5478 PARK RIDGE DRIVE","FRISCO","TX",75034,33.124462803,-96.867031163,196,"5478 PARK RIDGE DRIVE, FRISCO, TX, 75034","Match","Exact","5478 PARK RIDGE DR, FRISCO, TX, 75034",103418862,"L"
720697,"5478 PEDRICK CROSSING RD","TALLAHASSEE","FL",32317,30.474299753,-84.185224779,197,"5478 PEDRICK CROSSING RD, TALLAHASSEE, FL, 32317","Match","Non_Exact","5478 PEDRICK CROSSING DR, TALLAHASSEE, FL, 32317",82867256,"R"
720698,"5478 PINETREE DRIVE","MIAMI BEACH","FL",33140,25.8327187730001,-80.12421667,198,"5478 PINETREE DRIVE, MIAMI BEACH, FL, 33140","Match","Non_Exact","5478 PINE TREE DR, MIAMI BEACH, FL, 33140",116009421,"L"
720699,"5478 ROSE WILLOW CIRCLE","HERRIMAN","UT",84096,40.485081376,-112.021510435,199,"5478 ROSE WILLOW CIRCLE, HERRIMAN, UT, 84096","Match","Non_Exact","5478 W ROSE WILLOW CIR, HERRIMAN, UT, 84096",638533034,"R"
720700,"5478 W ISLAND PARK DR","WEST JORDAN","UT",84081,NA,NA,200,"5478 W ISLAND PARK DR, WEST JORDAN, UT, 84081","Tie",NA,NA,NA,NA
720701,"5478 WILSHIRE BLVD","LOS ANGELES","CA",90036,34.062242645,-118.347810054,201,"5478 WILSHIRE BLVD, LOS ANGELES, CA, 90036","Match","Exact","5478 WILSHIRE BLVD, LOS ANGELES, CA, 90036",650222322,"L"
720702,"5479 BLIMEY COVE","MEMPHIS","TN",38116,34.9984236440001,-89.993684576,202,"5479 BLIMEY COVE, MEMPHIS, TN, 38116","Match","Exact","5479 BLIMEY COVE, MEMPHIS, TN, 38116",72923152,"R"
720703,"5479 CRITTENDEN ST","OAKLAND","CA",94601,37.7688378240001,-122.202303869,203,"5479 CRITTENDEN ST, OAKLAND, CA, 94601","Match","Exact","5479 CRITTENDEN ST, OAKLAND, CA, 94601",125007651,"R"
720704,"5479 HARVEST OAK LANDING DR","SPRING","TX",77386,30.0969493870001,-95.3454566349999,204,"5479 HARVEST OAK LANDING DR, SPRING, TX, 77386","Match","Exact","5479 HARVEST OAK LANDING DR, SPRING, TX, 77386",629616100,"L"
720705,"5479 HOUND HILL CT","COLUMIBIA","MD",21045,39.2193434100001,-76.834278602,205,"5479 HOUND HILL CT, COLUMIBIA, MD, 21045","Match","Non_Exact","5479 HOUND HILL CT, COLUMBIA, MD, 21045",158923928,"L"
720706,"5479 HOUNDHILL COURT","COLUMBIA","MD",21045,39.2193434100001,-76.834278602,206,"5479 HOUNDHILL COURT, COLUMBIA, MD, 21045","Match","Non_Exact","5479 HOUND HILL CT, COLUMBIA, MD, 21045",158923928,"L"
720707,"5479 LAKEWOOD TERRACE","IMPERIAL","MO",63052,38.3919215270001,-90.3846628269999,207,"5479 LAKEWOOD TERRACE, IMPERIAL, MO, 63052","Match","Non_Exact","5479 LAKEWOOD LNDG, IMPERIAL, MO, 63052",607846177,"R"
720708,"5479 MIRASOL MANOR WAY","EUREKA","MO",63025,38.4739831140001,-90.6322438569999,208,"5479 MIRASOL MANOR WAY, EUREKA, MO, 63025","Match","Exact","5479 MIRASOL MANOR WAY, EUREKA, MO, 63025",630009124,"R"
720709,"5479 NW CARLA COURT","PORT SAINT LUCIE","FL",34986,27.365212129,-80.396680912,209,"5479 NW CARLA COURT, PORT SAINT LUCIE, FL, 34986","Match","Exact","5479 NW CARLA CT, PORT ST LUCIE, FL, 34986",120137630,"L"
720710,"5479 OAKWOOD LANE","SCHNECKSVILLE","PA",18078,40.687913865,-75.613790862,210,"5479 OAKWOOD LANE, SCHNECKSVILLE, PA, 18078","Match","Exact","5479 OAKWOOD LN, SCHNECKSVILLE, PA, 18078",80755495,"L"
720711,"5479 PIPING ROCK DRIVE","BOYNTON BEACH","FL",33437,NA,NA,211,"5479 PIPING ROCK DRIVE, BOYNTON BEACH, FL, 33437","No_Match",NA,NA,NA,NA
720712,"5479 REDWOOD AVENUE","PORTAGE","IN",46368,41.560082848,-87.203205431,212,"5479 REDWOOD AVENUE, PORTAGE, IN, 46368","Match","Exact","5479 REDWOOD AVE, PORTAGE, IN, 46368",119920507,"R"
720713,"5479 RIVER RIDGE DRIVE","BRIGHTON","MI",48116,42.522144091,-83.806579786,213,"5479 RIVER RIDGE DRIVE, BRIGHTON, MI, 48116","Match","Exact","5479 RIVER RIDGE DR, BRIGHTON, MI, 48116",23571146,"R"
720714,"5479 SONOMA DR","PLEASANTON","CA",94566,37.6498669330001,-121.87770612,214,"5479 SONOMA DR, PLEASANTON, CA, 94566","Match","Exact","5479 SONOMA DR, PLEASANTON, CA, 94566",125032755,"R"
720715,"5479 TAOS ROAD","INDIAN HILLS","CO",80454,39.6186276180001,-105.241888417,215,"5479 TAOS ROAD, INDIAN HILLS, CO, 80454","Match","Exact","5479 TAOS RD, INDIAN HILLS, CO, 80454",177800746,"R"
720716,"5479 US HIGHWAY 277 SOUTH","ABILENE","TX",79606,32.4173435000001,-99.7946271119999,216,"5479 US HIGHWAY 277 SOUTH, ABILENE, TX, 79606","Match","Exact","5479 US HWY 277 S, ABILENE, TX, 79606",129984652,"L"
720717,"5479 WEST DARTMOOR","MONROE","MI",48161,41.88761292,-83.416932613,217,"5479 WEST DARTMOOR, MONROE, MI, 48161","Match","Non_Exact","5479 W DARTMOOR DR, MONROE, MI, 48161",40497304,"R"
720718,"547A WELLINGTON RD","CRISFIELD","MD",21817,37.9880337760001,-75.8573467319999,218,"547A WELLINGTON RD, CRISFIELD, MD, 21817","Match","Exact","547 WELLINGTON RD, CRISFIELD, MD, 21817",104143894,"L"
720719,"547B COUNTY ROAD 309","TYE","TX",79563,32.4335801070001,-99.8853300709999,219,"547B COUNTY ROAD 309, TYE, TX, 79563","Match","Exact","547 CO RD 309, TYE, TX, 79563",129967421,"R"
720720,"548 20TH CT NE","BIRMINGHAM","AL",35215,33.6410170090001,-86.668043046,220,"548 20TH CT NE, BIRMINGHAM, AL, 35215","Match","Exact","548 20TH CT NE, BIRMINGHAM, AL, 35215",647665535,"L"
720721,"548 2ND ST","FAIRBANKS","AK",99701,64.844712519,-147.697806829,221,"548 2ND ST, FAIRBANKS, AK, 99701","Match","Exact","548 2ND ST, FAIRBANKS, AK, 99701",190923532,"L"
720722,"548 A L ROAD","CHAPMAN","NE",68827,41.0896135770001,-98.2010991069999,222,"548 A L ROAD, CHAPMAN, NE, 68827","Match","Exact","548 L RD, CHAPMAN, NE, 68827",167830622,"R"
720723,"548 ASHFORD DRIVE","MT.WASHINGTON","KY",40047,38.0452671850001,-85.52755094,223,"548 ASHFORD DRIVE, MT.WASHINGTON, KY, 40047","Match","Exact","548 ASHFORD DR, MOUNT WASHINGTON, KY, 40047",47740181,"L"
720724,"548 AUBURN PLACE NW UNIT D","ELK RIVER","MN",55330,45.307540402,-93.5530595389999,224,"548 AUBURN PLACE NW UNIT D, ELK RIVER, MN, 55330","Match","Exact","548 AUBURN PL NW, ELK RIVER, MN, 55330",97756396,"R"
720725,"548 BARBARA HILL DRIVE","RAGLEY","LA",70657,30.452274679,-93.225246979,225,"548 BARBARA HILL DRIVE, RAGLEY, LA, 70657","Match","Exact","548 BARBARA HILL DR, RAGLEY, LA, 70657",650974416,"R"
720726,"548 BARRY TURN","MANTENO","IL",60950,41.2413765430001,-87.846533839,226,"548 BARRY TURN, MANTENO, IL, 60950","Match","Exact","548 BARRY TURN, MANTENO, IL, 60950",98367699,"L"
720727,"548 BEARDS HILL ROAD","ABERDEEN","MD",21001,39.524801177,-76.1646686139999,227,"548 BEARDS HILL ROAD, ABERDEEN, MD, 21001","Match","Exact","548 BEARDS HILL RD, ABERDEEN, MD, 21001",624381216,"R"
720728,"548 BLAIR AVENUE","ST PAUL","MN",55103,44.9611462600001,-93.123237649,228,"548 BLAIR AVENUE, ST PAUL, MN, 55103","Match","Non_Exact","548 W BLAIR AVE, SAINT PAUL, MN, 55103",97643907,"L"
720729,"548 BOXERWOOD DR","LAS VEGAS","NV",89110,36.1693841370001,-115.056386506,229,"548 BOXERWOOD DR, LAS VEGAS, NV, 89110","Match","Exact","548 BOXERWOOD DR, LAS VEGAS, NV, 89110",201968666,"L"
720730,"548 BRIDGER FROMBERG RD","FROMBERG","MT",59029,45.379625613,-108.882203144,230,"548 BRIDGER FROMBERG RD, FROMBERG, MT, 59029","Match","Exact","548 BRIDGER FROMBERG RD, FROMBERG, MT, 59029",625394800,"R"
720731,"548 BRIDGESIDE DR","AVON LAKE","OH",44012,41.4908322800001,-81.978532462,231,"548 BRIDGESIDE DR, AVON LAKE, OH, 44012","Match","Exact","548 BRIDGESIDE DR, AVON LAKE, OH, 44012",55450431,"R"
720732,"548 BRIDGESIDE DRIVE","AVON LAKE","OH",44012,41.4908322800001,-81.978532462,232,"548 BRIDGESIDE DRIVE, AVON LAKE, OH, 44012","Match","Exact","548 BRIDGESIDE DR, AVON LAKE, OH, 44012",55450431,"R"
720733,"548 BROOKHILL RANCH RD","HOT SPRINGS","AR",71909,34.6458423060001,-93.018484386,233,"548 BROOKHILL RANCH RD, HOT SPRINGS, AR, 71909","Match","Non_Exact","548 BROOKHILL RANCH TRL, HOT SPRINGS, AR, 71909",22739938,"R"
720734,"548 BUCKSKIN PLACE","VALLEJO","CA",94591,38.123741314,-122.22190418,234,"548 BUCKSKIN PLACE, VALLEJO, CA, 94591","Match","Exact","548 BUCKSKIN PL, VALLEJO, CA, 94591",192546386,"R"
720735,"548 BUMPUS MILLS ROAD","DOVER","TN",37058,36.5290009880001,-87.830447099,235,"548 BUMPUS MILLS ROAD, DOVER, TN, 37058","Match","Exact","548 BUMPUS MILLS RD, DOVER, TN, 37058",19942393,"R"
720736,"548 CASTLE DR","EDGARD","LA",70049,30.032617757,-90.5825026809999,236,"548 CASTLE DR, EDGARD, LA, 70049","Match","Exact","548 CASTLE DR, EDGARD, LA, 70049",93695923,"L"
720737,"548 CEDARMONT DRIVE","ANTIOCH","TN",37013,36.035696478,-86.7063847649999,237,"548 CEDARMONT DRIVE, ANTIOCH, TN, 37013","Match","Exact","548 CEDARMONT DR, ANTIOCH, TN, 37013",97215955,"L"
720738,"548 CHERRY HILL DR","ABINGDON","VA",24210,36.7113158670001,-82.0056123479999,238,"548 CHERRY HILL DR, ABINGDON, VA, 24210","Match","Exact","548 CHERRY HILL DR, ABINGDON, VA, 24210",154374432,"R"
720739,"548 CHEYENNE DR","SUNNYVALE","CA",94087,37.3466456950001,-122.035890064,239,"548 CHEYENNE DR, SUNNYVALE, CA, 94087","Match","Exact","548 CHEYENNE DR, SUNNYVALE, CA, 94087",122937982,"L"
720740,"548 CHICAGO AVE","EVANSTON","IL",60123,42.0267772830001,-87.678107612,240,"548 CHICAGO AVE, EVANSTON, IL, 60123","Match","Non_Exact","548 CHICAGO AVE, EVANSTON, IL, 60202",112368050,"L"
720741,"548 CHRISTMAS AVE","BETHLEHEM","GA",30620,33.949089041,-83.71952257,241,"548 CHRISTMAS AVE, BETHLEHEM, GA, 30620","Match","Exact","548 CHRISTMAS AVE, BETHLEHEM, GA, 30620",600561861,"R"
720742,"548 CHRISTOPHER LANE","CHESTER","SC",29706,34.719636785,-81.223328018,242,"548 CHRISTOPHER LANE, CHESTER, SC, 29706","Match","Exact","548 CHRISTOPHER LN, CHESTER, SC, 29706",40563409,"R"
720743,"548 CLEARVIEW DRIVE","NEWTON","NJ",7860,41.1188547880001,-74.7666995989999,243,"548 CLEARVIEW DRIVE, NEWTON, NJ, 7860","Match","Exact","548 CLEARVIEW DR, NEWTON, NJ, 07860",97998914,"R"
720744,"548 COLGATE AVE","PERTH AMBOY","NJ",8861,40.523007142,-74.287322644,244,"548 COLGATE AVE, PERTH AMBOY, NJ, 8861","Match","Exact","548 COLGATE AVE, PERTH AMBOY, NJ, 08861",60280644,"R"
720745,"548 COLLEGE ST","BELLAIRE","TX",77401,29.6996041150001,-95.46463954,245,"548 COLLEGE ST, BELLAIRE, TX, 77401","Match","Exact","548 COLLEGE ST, BELLAIRE, TX, 77401",96033730,"R"
720746,"548 COMFORT ROAD","RICHLANDS","NC",28574,34.9277841000001,-77.51514199,246,"548 COMFORT ROAD, RICHLANDS, NC, 28574","Match","Exact","548 COMFORT RD, RICHLANDS, NC, 28574",651527609,"R"
720747,"548 COMMON ROAD","UNION","ME",4862,44.2126057310001,-69.26652245,247,"548 COMMON ROAD, UNION, ME, 4862","Match","Exact","548 COMMON RD, UNION, ME, 04862",75546140,"L"
720748,"548 COUNTY ROAD 2731","LONDON","AR",72847,35.4080002630001,-93.3228415739999,248,"548 COUNTY ROAD 2731, LONDON, AR, 72847","Match","Exact","548 CO RD 2731, LONDON, AR, 72847",73520903,"L"
720749,"548 COUNTY STREET 1410","CHICKASHA","OK",73018,NA,NA,249,"548 COUNTY STREET 1410, CHICKASHA, OK, 73018","No_Match",NA,NA,NA,NA
720750,"548 CRICKET RUN RD","LEWIS CENTER","OH",43035,40.1392567350001,-83.002621026,250,"548 CRICKET RUN RD, LEWIS CENTER, OH, 43035","Match","Exact","548 CRICKET RUN RD, LEWIS CENTER, OH, 43035",213001406,"L"
720751,"548 DACIAN RD","RALEIGH","NC",27610,35.7643453310001,-78.601940957,251,"548 DACIAN RD, RALEIGH, NC, 27610","Match","Exact","548 DACIAN RD, RALEIGH, NC, 27610",72564887,"R"
720752,"548 DEER PARK RD","GATHERSBERG","MD",20877,39.127506457,-77.198185407,252,"548 DEER PARK RD, GATHERSBERG, MD, 20877","Match","Non_Exact","548 W DEER PARK RD, GAITHERSBURG, MD, 20877",636221551,"R"
720753,"548 DEL MONTE AVENUE","SOUTH SAN FRANCISCO","CA",94080,37.659275688,-122.44883908,253,"548 DEL MONTE AVENUE, SOUTH SAN FRANCISCO, CA, 94080","Match","Exact","548 DEL MONTE AVE, S SAN FRAN, CA, 94080",192371213,"R"
720754,"548 DEPOT STREET","BARBOURSVILLE","WV",25504,38.4095739680001,-82.288854643,254,"548 DEPOT STREET, BARBOURSVILLE, WV, 25504","Match","Exact","548 DEPOT ST, BARBOURSVILLE, WV, 25504",101321621,"R"
720755,"548 DORSEY CIRCLE SW","LILBURN","GA",30047,33.8778678740001,-84.105030921,255,"548 DORSEY CIRCLE SW, LILBURN, GA, 30047","Match","Exact","548 DORSEY CIR SW, LILBURN, GA, 30047",88887304,"L"
720756,"548 DURANT AVE","RUSSELLVILLE","AR",72801,35.274318044,-93.15965248,256,"548 DURANT AVE, RUSSELLVILLE, AR, 72801","Match","Non_Exact","548 S DURANT AVE, RUSSELLVILLE, AR, 72801",636166731,"L"
720757,"548 E 162ND ST","SOUTH HOLLAND","IL",60473,41.6008280290001,-87.6031949429999,257,"548 E 162ND ST, SOUTH HOLLAND, IL, 60473","Match","Exact","548 E 162ND ST, SOUTH HOLLAND, IL, 60473",111780111,"L"
720758,"548 E PROVIDENCIA UNIT 201","BURBANK","CA",91501,NA,NA,258,"548 E PROVIDENCIA UNIT 201, BURBANK, CA, 91501","No_Match",NA,NA,NA,NA
720759,"548 EAST 93RD STREET","BROOKLYN","NY",11236,40.653376273,-73.9168313169999,259,"548 EAST 93RD STREET, BROOKLYN, NY, 11236","Match","Exact","548 E 93RD ST, BROOKLYN, NY, 11236",640860044,"R"
720760,"548 EAST LANE","JEWELL","IA",50130,42.305961134,-93.638910988,260,"548 EAST LANE, JEWELL, IA, 50130","Match","Non_Exact","548 EAST LN, JEWELL, IA, 50130",65744694,"R"
720761,"548 EDELWEISS DR","SAN JOSE","CA",95136,37.2678319070001,-121.855670889,261,"548 EDELWEISS DR, SAN JOSE, CA, 95136","Match","Exact","548 EDELWEISS DR, SAN JOSE, CA, 95136",122923369,"L"
720762,"548 ELYRIA AVENUE","AMHERST","OH",44001,41.3919300260001,-82.22227057,262,"548 ELYRIA AVENUE, AMHERST, OH, 44001","Match","Non_Exact","548 ELYRIA RD, AMHERST, OH, 44001",55429646,"R"
720763,"548 FALCON CREST","MT WASHINGTON","KY",40047,38.0086626670001,-85.585793753,263,"548 FALCON CREST, MT WASHINGTON, KY, 40047","Match","Exact","548 FALCON CRST, MOUNT WASHINGTON, KY, 40047",47744643,"L"
720764,"548 FLOWER CITY PARK","ROCHESTER","NY",14615,43.1927427250001,-77.640075628,264,"548 FLOWER CITY PARK, ROCHESTER, NY, 14615","Match","Exact","548 FLOWER CITY PARK, ROCHESTER, NY, 14615",14531792,"R"
720765,"548 FOREST VIEW ROAD","LINTHICUM","MD",21090,39.2005881790001,-76.665217985,265,"548 FOREST VIEW ROAD, LINTHICUM, MD, 21090","Match","Exact","548 FOREST VIEW RD, LINTHICUM, MD, 21090",636149736,"R"
720766,"548 GALLEY HILL RD","CUDDEBACKVILLE","NY",12729,41.4729590640001,-74.568208091,266,"548 GALLEY HILL RD, CUDDEBACKVILLE, NY, 12729","Match","Exact","548 GALLEY HILL RD, CUDDEBACKVILLE, NY, 12729",124387269,"R"
720767,"548 GARFIELD AVENUE","JERMYN","PA",18433,41.5326718680001,-75.550703931,267,"548 GARFIELD AVENUE, JERMYN, PA, 18433","Match","Exact","548 GARFIELD AVE, JERMYN, PA, 18433",139331677,"R"
720768,"548 GOLDEN ST","LITITZ","PA",17543,40.146559089,-76.3141204999999,268,"548 GOLDEN ST, LITITZ, PA, 17543","Match","Exact","548 GOLDEN ST, LITITZ, PA, 17543",636372534,"L"
720769,"548 GOLDWOOD DR","BALLWIN","MO",63021,38.578719398,-90.5521334379999,269,"548 GOLDWOOD DR, BALLWIN, MO, 63021","Match","Exact","548 GOLDWOOD DR, BALLWIN, MO, 63021",100113193,"L"
720770,"548 GREENING RD","WESTVILLE","IN",46391,NA,NA,270,"548 GREENING RD, WESTVILLE, IN, 46391","No_Match",NA,NA,NA,NA
720771,"548 GRIER AVENUE 1 FLOOR","ELIZABETH","NJ",7202,40.6511719530001,-74.21772936,271,"548 GRIER AVENUE 1 FLOOR, ELIZABETH, NJ, 7202","Match","Exact","548 GRIER AVE, ELIZABETH, NJ, 07202",60605021,"L"
720772,"548 HAL JONES RD","NEWNAN","GA",30263,33.432803925,-84.772666671,272,"548 HAL JONES RD, NEWNAN, GA, 30263","Match","Exact","548 HAL JONES RD, NEWNAN, GA, 30263",646142474,"L"
720773,"548 HAMPTON AVENUE","ORLANDO","FL",32805,NA,NA,273,"548 HAMPTON AVENUE, ORLANDO, FL, 32805","No_Match",NA,NA,NA,NA
720774,"548 HAO STREET","HONOLULU","HI",96821,21.2872035400001,-157.757438254,274,"548 HAO STREET, HONOLULU, HI, 96821","Match","Exact","548 HAO ST, HONOLULU, HI, 96821",203263538,"L"
720775,"548 HCR 1314","WHITNEY","TX",76692,NA,NA,275,"548 HCR 1314, WHITNEY, TX, 76692","No_Match",NA,NA,NA,NA
720776,"548 HEMLOCK DRIVE","CEDARHURST","NY",11516,40.635002596,-73.730547508,276,"548 HEMLOCK DRIVE, CEDARHURST, NY, 11516","Match","Exact","548 HEMLOCK DR, CEDARHURST, NY, 11516",147656881,"L"
720777,"548 HENRY ST APT 2","BROOKLYN","NY",11231,40.682332026,-74.000281737,277,"548 HENRY ST APT 2, BROOKLYN, NY, 11231","Match","Exact","548 HENRY ST, BROOKLYN, NY, 11231",59093781,"R"
720778,"548 HICKORY STREET","PEMBERVILLE","OH",43450,41.4131392560001,-83.464131029,278,"548 HICKORY STREET, PEMBERVILLE, OH, 43450","Match","Exact","548 HICKORY ST, PEMBERVILLE, OH, 43450",38717763,"R"
720779,"548 HIGHWAY 90 APARTMENT 405","WAVELAND","MS",39576,30.30166259,-89.391471241,279,"548 HIGHWAY 90 APARTMENT 405, WAVELAND, MS, 39576","Match","Exact","548 HWY 90, WAVELAND, MS, 39576",634566163,"R"
720780,"548 HILL COUNTY ROAD 4149","GRANDVIEW","TX",76050,NA,NA,280,"548 HILL COUNTY ROAD 4149, GRANDVIEW, TX, 76050","No_Match",NA,NA,NA,NA
720781,"548 HILL STREET","INGLEWOOD","CA",90302,33.97447693,-118.368234812,281,"548 HILL STREET, INGLEWOOD, CA, 90302","Match","Exact","548 HILL ST, INGLEWOOD, CA, 90302",141653659,"L"
720782,"548 HINGHAM ST","ROCKLAND","MA",2370,42.1515823780001,-70.903866244,282,"548 HINGHAM ST, ROCKLAND, MA, 2370","Match","Exact","548 HINGHAM ST, ROCKLAND, MA, 02370",631975999,"R"
720783,"548 INTERNATIONAL BLVD","OAKLAND","CA",94606,37.795400225,-122.253401677,283,"548 INTERNATIONAL BLVD, OAKLAND, CA, 94606","Match","Exact","548 INTERNATIONAL BLVD, OAKLAND, CA, 94606",606158574,"L"
720784,"548 IRISH SETTLEMENT RD","UNDERHILL","VT",5489,44.5797827430001,-72.8811555349999,284,"548 IRISH SETTLEMENT RD, UNDERHILL, VT, 5489","Match","Exact","548 IRISH SETTLEMENT RD, UNDERHILL, VT, 05489",650008584,"R"
720785,"548 IRISH SETTLEMENT ROAD","UNDERHILL","VT",5489,44.5797827430001,-72.8811555349999,285,"548 IRISH SETTLEMENT ROAD, UNDERHILL, VT, 5489","Match","Exact","548 IRISH SETTLEMENT RD, UNDERHILL, VT, 05489",650008584,"R"
720786,"548 KENYON AVE - 53","ATTLEBORO","MA",2703,NA,NA,286,"548 KENYON AVE - 53, ATTLEBORO, MA, 2703","No_Match",NA,NA,NA,NA
720787,"548 KENYON AVE - 53","PAWTUCKET","RI",2861,41.896364067,-71.3563771349999,287,"548 KENYON AVE - 53, PAWTUCKET, RI, 2861","Match","Exact","548 KENYON AVE, PAWTUCKET, RI, 02861",645816180,"L"
720788,"548 KINGSLAND AVE","LYNDHURST","NJ",7071,40.8033339350001,-74.123878448,288,"548 KINGSLAND AVE, LYNDHURST, NJ, 7071","Match","Exact","548 KINGSLAND AVE, LYNDHURST, NJ, 07071",64395895,"R"
720789,"548 KNOLL ST","DEKALB","IL",60115,NA,NA,289,"548 KNOLL ST, DEKALB, IL, 60115","No_Match",NA,NA,NA,NA
720790,"548 LAPLA RD","KINGSTON","NY",12401,41.9185420630001,-74.136291716,290,"548 LAPLA RD, KINGSTON, NY, 12401","Match","Exact","548 LAPLA RD, KINGSTON, NY, 12401",41932391,"R"
720791,"548 LEWIS STREET","MINERSVILLE","PA",17954,40.6929697800001,-76.2671100599999,291,"548 LEWIS STREET, MINERSVILLE, PA, 17954","Match","Exact","548 LEWIS ST, MINERSVILLE, PA, 17954",70942718,"R"
720792,"548 LOUISIANA AVENUE","BROOKYLN","NY",11239,40.6487007160001,-73.887117207,292,"548 LOUISIANA AVENUE, BROOKYLN, NY, 11239","Match","Non_Exact","548 LOUISIANA AVE, BROOKLYN, NY, 11239",650065077,"R"
720793,"548 MADISION AVE NUM 4","ALBANY","NY",12208,42.65466717,-73.771621163,293,"548 MADISION AVE NUM 4, ALBANY, NY, 12208","Match","Non_Exact","548 MADISON AVE, ALBANY, NY, 12208",18310164,"L"
720794,"548 MAIN STREET","SPOTSWOOD","NJ",8884,40.3915085560001,-74.390825477,294,"548 MAIN STREET, SPOTSWOOD, NJ, 8884","Match","Exact","548 MAIN ST, SPOTSWOOD, NJ, 08884",651262319,"R"
720795,"548 MARKET ST 27905","SAN FRANCISCO","CA",94104,37.790218528,-122.40025508,295,"548 MARKET ST 27905, SAN FRANCISCO, CA, 94104","Match","Exact","548 MARKET ST, SAN FRANCISCO, CA, 94104",192281536,"R"
720796,"548 MARKET ST NUM 41193","SAN FRANCISCO","CA",94104,37.790218528,-122.40025508,296,"548 MARKET ST NUM 41193, SAN FRANCISCO, CA, 94104","Match","Exact","548 MARKET ST, SAN FRANCISCO, CA, 94104",192281536,"R"
720797,"548 MARKET ST STE 81334","SAN FRANCISCO","CA",94114,37.790218528,-122.40025508,297,"548 MARKET ST STE 81334, SAN FRANCISCO, CA, 94114","Match","Non_Exact","548 MARKET ST, SAN FRANCISCO, CA, 94104",192281536,"R"
720798,"548 MARKET STREET / 11200","SAN FRANCISCO","CA",94104,37.790218528,-122.40025508,298,"548 MARKET STREET / 11200, SAN FRANCISCO, CA, 94104","Match","Exact","548 MARKET ST, SAN FRANCISCO, CA, 94104",192281536,"R"
720799,"548 MARKET STREET PMB 98385","SAN FRANCISCO","CA",94104,37.790218528,-122.40025508,299,"548 MARKET STREET PMB 98385, SAN FRANCISCO, CA, 94104","Match","Exact","548 MARKET ST, SAN FRANCISCO, CA, 94104",192281536,"R"
720800,"548 MARKET STREET","SAN FRANCISCO","CA",94104,37.790218528,-122.40025508,300,"548 MARKET STREET, SAN FRANCISCO, CA, 94104","Match","Exact","548 MARKET ST, SAN FRANCISCO, CA, 94104",192281536,"R"
720801,"548 MARY  ESTHER CUT OFF STE 18","FORT WALTON BEACH","FL",32548,30.421541217,-86.65217222,301,"548 MARY  ESTHER CUT OFF STE 18, FORT WALTON BEACH, FL, 32548","Match","Non_Exact","548 MARY ESTHER CUTOFF NW, FORT WALTON BEACH, FL, 32548",74428547,"L"
720802,"548 MARY ESTHER CUT OFF STE 18","FORT WALTON BEACH","FL",32548,30.421541217,-86.65217222,302,"548 MARY ESTHER CUT OFF STE 18, FORT WALTON BEACH, FL, 32548","Match","Non_Exact","548 MARY ESTHER CUTOFF NW, FORT WALTON BEACH, FL, 32548",74428547,"L"
720803,"548 MARY ESTHER CUTOFF","FORT WALTON BEACH","FL",32548,30.421541217,-86.65217222,303,"548 MARY ESTHER CUTOFF, FORT WALTON BEACH, FL, 32548","Match","Non_Exact","548 MARY ESTHER CUTOFF NW, FORT WALTON BEACH, FL, 32548",74428547,"L"
720804,"548 MARY KNOLL LANE","WATERTOWN","WI",53098,43.202992615,-88.7463431629999,304,"548 MARY KNOLL LANE, WATERTOWN, WI, 53098","Match","Exact","548 MARY KNOLL LN, WATERTOWN, WI, 53098",53552938,"R"
720805,"548 MCGUKIN RD","BREMEN","GA",30110,33.686834076,-85.08087211,305,"548 MCGUKIN RD, BREMEN, GA, 30110","Match","Exact","548 MCGUKIN RD, BREMEN, GA, 30110",17110885,"R"
720806,"548 MCNAMARA COURT","CARMEL","IN",46032,40.010060455,-86.148050881,306,"548 MCNAMARA COURT, CARMEL, IN, 46032","Match","Exact","548 MCNAMARA CT, CARMEL, IN, 46032",646574426,"R"
720807,"548 MILL STATION DR","NASHVILLE","TN",37207,36.228779167,-86.8002082799999,307,"548 MILL STATION DR, NASHVILLE, TN, 37207","Match","Exact","548 MILL STATION DR, NASHVILLE, TN, 37207",97204856,"L"
720808,"548 MILL STREET","FEEDING HILLS","MA",1030,42.0709960340001,-72.651191828,308,"548 MILL STREET, FEEDING HILLS, MA, 1030","Match","Exact","548 MILL ST, FEEDING HILLS, MA, 01030",624585413,"R"
720809,"548 MONROE STREET","CARLSTADT","NJ",7072,40.841711859,-74.0929891549999,309,"548 MONROE STREET, CARLSTADT, NJ, 7072","Match","Exact","548 MONROE ST, CARLSTADT, NJ, 07072",64395293,"L"
720810,"548 MOUNTAIN AVENUE","NORTH CALDWELL","NJ",7006,40.869117293,-74.247728087,310,"548 MOUNTAIN AVENUE, NORTH CALDWELL, NJ, 7006","Match","Exact","548 MOUNTAIN AVE, N CALDWELL, NJ, 07006",63446738,"R"
720811,"548 MOUNTAIN LAKE DRIVE","RALEIGH","NC",27610,35.7841650410001,-78.551954987,311,"548 MOUNTAIN LAKE DRIVE, RALEIGH, NC, 27610","Match","Exact","548 MOUNTAIN LAKE DR, RALEIGH, NC, 27610",208360035,"R"
720812,"548 N  TERRACE AVE","MT. VERNON","NY",10552,40.921993446,-73.8407109569999,312,"548 N  TERRACE AVE, MT. VERNON, NY, 10552","Match","Exact","548 N TERRACE AVE, MOUNT VERNON, NY, 10552",139746804,"L"
720813,"548 N CENTER STREET","HICKORY","NC",28601,35.739449845,-81.3376883339999,313,"548 N CENTER STREET, HICKORY, NC, 28601","Match","Exact","548 N CENTER ST, HICKORY, NC, 28601",45904381,"R"
720814,"548 N HWY 77","ROCKDALE","TX",76567,30.670652482,-96.981147069,314,"548 N HWY 77, ROCKDALE, TX, 76567","Match","Non_Exact","548 N US HWY 77, ROCKDALE, TX, 76567",25205144,"R"
720815,"548 N LEWIS RD","LIMERICK","PA",19468,40.2137972990001,-75.545258138,315,"548 N LEWIS RD, LIMERICK, PA, 19468","Match","Exact","548 N LEWIS RD, LIMERICK, PA, 19468",135104576,"R"
720816,"548 N MARION AVE","LAKE CITY","FL",32055,30.193066866,-82.6371949799999,316,"548 N MARION AVE, LAKE CITY, FL, 32055","Match","Non_Exact","548 N MARION ST, LAKE CITY, FL, 32055",5136007,"L"
720817,"548 NEW YORK AVENUE","BROOKLYN","NY",11436,40.6613536030001,-73.947794829,317,"548 NEW YORK AVENUE, BROOKLYN, NY, 11436","Match","Non_Exact","548 NEW YORK AVE, BROOKLYN, NY, 11225",59079584,"R"
720818,"548 NORTH PARK","LAS CRUCES","NM",88005,32.281327226,-106.78200459,318,"548 NORTH PARK, LAS CRUCES, NM, 88005","Match","Non_Exact","548 N PARK DR, LAS CRUCES, NM, 88005",647333621,"L"
720819,"548 NORWOOD RD","MOUNT LAUREL","NJ",8054,39.9280449070001,-74.9367722489999,319,"548 NORWOOD RD, MOUNT LAUREL, NJ, 8054","Match","Exact","548 NORWOOD RD, MOUNT LAUREL, NJ, 08054",134058605,"L"
720820,"548 OAK STREET","WESTWOOD","MA",2090,42.187917564,-71.234235207,320,"548 OAK STREET, WESTWOOD, MA, 2090","Match","Exact","548 OAK ST, WESTWOOD, MA, 02090",87242290,"L"
720821,"548 OVERHILL ROAD","PELHAM","AL",35124,33.3084711340001,-86.813262865,321,"548 OVERHILL ROAD, PELHAM, AL, 35124","Match","Exact","548 OVERHILL RD, PELHAM, AL, 35124",82064848,"L"
720822,"548 PACIFIC ST APT 2","BROOKLYN","NY",11217,40.683941501,-73.979222076,322,"548 PACIFIC ST APT 2, BROOKLYN, NY, 11217","Match","Exact","548 PACIFIC ST, BROOKLYN, NY, 11217",59077604,"R"
720823,"548 PALM DRIVE S","AIKEN","SC",29803,33.5307161590001,-81.7146406429999,323,"548 PALM DRIVE S, AIKEN, SC, 29803","Match","Exact","548 PALM DR S, AIKEN, SC, 29803",632930042,"L"
720824,"548 PARK RIDGE DRIVE","MUNROE FALLS","OH",44262,41.1404559480001,-81.419307563,324,"548 PARK RIDGE DRIVE, MUNROE FALLS, OH, 44262","Match","Exact","548 PARK RIDGE DR, MUNROE FALLS, OH, 44262",61351963,"R"
720825,"548 PHILLIPS ROAD","BOONEVILLE","AR",72927,35.1747016090001,-94.0194527629999,325,"548 PHILLIPS ROAD, BOONEVILLE, AR, 72927","Match","Exact","548 PHILLIPS RD, BOONEVILLE, AR, 72927",639769988,"R"
720826,"548 PINNEY ROAD","HUNTINGDON VALLEY","PA",19006,40.141417727,-75.042179005,326,"548 PINNEY ROAD, HUNTINGDON VALLEY, PA, 19006","Match","Exact","548 PINNEY RD, HUNTINGDON VALLEY, PA, 19006",636461646,"L"
720827,"548 PRECITA AVENUE","SAN FRANCISCO","CA",94110,37.747276173,-122.410155531,327,"548 PRECITA AVENUE, SAN FRANCISCO, CA, 94110","Match","Exact","548 PRECITA AVE, SAN FRANCISCO, CA, 94110",192288522,"R"
720828,"548 PRINCEON DR","BOLINGBOOK","IL",60440,NA,NA,328,"548 PRINCEON DR, BOLINGBOOK, IL, 60440","No_Match",NA,NA,NA,NA
720829,"548 PRINCETON DR","BOLINGBROOK","IL",60440,41.69389812,-88.09078454,329,"548 PRINCETON DR, BOLINGBROOK, IL, 60440","Match","Exact","548 PRINCETON DR, BOLINGBROOK, IL, 60440",111534870,"R"
720830,"548 PURDUE DR","VACAVILLE","CA",95687,38.3502730440001,-121.948906301,330,"548 PURDUE DR, VACAVILLE, CA, 95687","Match","Exact","548 PURDUE DR, VACAVILLE, CA, 95687",192552488,"L"
720831,"548 QUAIL LOOP","NEWPORT","WA",99156,48.1861267410001,-117.054086582,331,"548 QUAIL LOOP, NEWPORT, WA, 99156","Match","Exact","548 QUAIL LOOP, NEWPORT, WA, 99156",169932400,"R"
720832,"548 QUAIL RIDGE LANE","STROUDSBURG",NA,NA,40.952895346,-75.329785477,332,"548 QUAIL RIDGE LANE, STROUDSBURG, , ","Match","Non_Exact","548 QUAIL RIDGE RD, STROUDSBURG, PA, 18360",136786908,"R"
720833,"548 REDWOOD AVE","UKIAH","CA",95482,39.135479918,-123.215078755,333,"548 REDWOOD AVE, UKIAH, CA, 95482","Match","Exact","548 REDWOOD AVE, UKIAH, CA, 95482",67288974,"R"
720834,"548 RIDGE ROAD","WETHERSFIELD","CT",6109,41.7069065470001,-72.6889140819999,334,"548 RIDGE ROAD, WETHERSFIELD, CT, 6109","Match","Exact","548 RIDGE RD, WETHERSFIELD, CT, 06109",3516549,"L"
720835,"548 RUTHERFORD CIR","BIRMINGHAM","AL",35206,33.5748445620001,-86.700712954,335,"548 RUTHERFORD CIR, BIRMINGHAM, AL, 35206","Match","Exact","548 RUTHERFORD CIR, BIRMINGHAM, AL, 35206",640552472,"R"
720836,"548 S GLENMOOR DRIVE","MOSES LAKE","WA",98837,NA,NA,336,"548 S GLENMOOR DRIVE, MOSES LAKE, WA, 98837","No_Match",NA,NA,NA,NA
720837,"548 S SPRING ST","LOS ANGELES","CA",90013,34.04667205,-118.250288,337,"548 S SPRING ST, LOS ANGELES, CA, 90013","Match","Exact","548 S SPRING ST, LOS ANGELES, CA, 90013",141619345,"L"
720838,"548 SAINT LAWRENCE BLVD","EASTLAKE","OH",44095,41.6735747270001,-81.409886564,338,"548 SAINT LAWRENCE BLVD, EASTLAKE, OH, 44095","Match","Exact","548 SAINT LAWRENCE BLVD, EASTLAKE, OH, 44095",137471799,"R"
720839,"548 SANTA FLORITA AVE","MILLBRAE","CA",94030,37.6104749240001,-122.411562551,339,"548 SANTA FLORITA AVE, MILLBRAE, CA, 94030","Match","Exact","548 SANTA FLORITA AVE, MILLBRAE, CA, 94030",192374222,"R"
720840,"548 SHERFIELD ROAD","SPENCER","IN",47460,39.221401073,-86.7541297829999,340,"548 SHERFIELD ROAD, SPENCER, IN, 47460","Match","Exact","548 SHERFIELD RD, SPENCER, IN, 47460",646564121,"L"
720841,"548 SILVERTON COURT","COLORADO SPRINGS","CO",80919,38.924161326,-104.83729551,341,"548 SILVERTON COURT, COLORADO SPRINGS, CO, 80919","Match","Exact","548 SILVERTON CT, COLORADO SPRINGS, CO, 80919",105509251,"R"
720842,"548 SKYWAY RD","LINCOLN","NE",68505,40.818035127,-96.61474571,342,"548 SKYWAY RD, LINCOLN, NE, 68505","Match","Exact","548 SKYWAY RD, LINCOLN, NE, 68505",28261792,"R"
720843,"548 SOLANA CIR","DAVENPORT","FL",33897,28.285582435,-81.6613849779999,343,"548 SOLANA CIR, DAVENPORT, FL, 33897","Match","Exact","548 SOLANA CIR, DAVENPORT, FL, 33897",616659791,"R"
720844,"548 SOUTH DOWNEY STREET","WALCOTT","IA",52773,41.581570211,-90.772808364,344,"548 SOUTH DOWNEY STREET, WALCOTT, IA, 52773","Match","Exact","548 S DOWNEY ST, WALCOTT, IA, 52773",122701678,"R"
720845,"548 SOUTH SPRING STREET UNIT 1001","LOS ANGELES","CA",90013,34.0466843510001,-118.250276526,345,"548 SOUTH SPRING STREET UNIT 1001, LOS ANGELES, CA, 90013","Match","Exact","548 S SPRING ST, LOS ANGELES, CA, 90013",141619345,"L"
720846,"548 SOUTH YEWDALL ST","PHILADELPHIA","PA",19143,39.951789524,-75.231115259,346,"548 SOUTH YEWDALL ST, PHILADELPHIA, PA, 19143","Match","Exact","548 S YEWDALL ST, PHILADELPHIA, PA, 19143",131399236,"R"
720847,"548 SPRING RUN DR","APPLE CREEK","OH",44606,40.7448780880001,-81.824736674,347,"548 SPRING RUN DR, APPLE CREEK, OH, 44606","Match","Exact","548 SPRING RUN DR, APPLE CREEK, OH, 44606",625828798,"L"
720848,"548 STONEWALL DR","GALLOWAY","NJ",8205,39.492054211,-74.4711946479999,348,"548 STONEWALL DR, GALLOWAY, NJ, 8205","Match","Exact","548 STONEWALL DR, GALLOWAY, NJ, 08205",202533348,"R"
720849,"548 SUNSET DRIVE","DAYTON","TN",37321,35.4480346500001,-85.005008392,349,"548 SUNSET DRIVE, DAYTON, TN, 37321","Match","Exact","548 SUNSET DR, DAYTON, TN, 37321",59540597,"L"
720850,"548 SW ST LUCIE CRESCENT","STUART","FL",34994,27.195638606,-80.258618176,350,"548 SW ST LUCIE CRESCENT, STUART, FL, 34994","Match","Exact","548 SW SAINT LUCIE CRES, STUART, FL, 34994",120425825,"L"
720851,"548 SWEETWATER DR","PALMYRA","PA",17078,40.2901642040001,-76.5892580839999,351,"548 SWEETWATER DR, PALMYRA, PA, 17078","Match","Exact","548 SWEETWATER DR, PALMYRA, PA, 17078",636338730,"L"
720852,"548 TAYLOR DR","LOGANSVILLE","GA",30052,33.7613141590001,-83.8695627559999,352,"548 TAYLOR DR, LOGANSVILLE, GA, 30052","Match","Non_Exact","548 TAYLOR DR, LOGANVILLE, GA, 30052",618463644,"L"
720853,"548 TIMBER VILLAGE ROAD","GROVELAND","FL",34736,28.5642611650001,-81.830939526,353,"548 TIMBER VILLAGE ROAD, GROVELAND, FL, 34736","Match","Exact","548 TIMBER VILLAGE RD, GROVELAND, FL, 34736",94188846,"R"
720854,"548 VALLEY FORGE WAY","CAMPBELL","CA",95008,37.297438254,-121.960364554,354,"548 VALLEY FORGE WAY, CAMPBELL, CA, 95008","Match","Exact","548 VALLEY FORGE WAY, CAMPBELL, CA, 95008",122901732,"L"
720855,"548 VIA PACHECO","SAN LORENZO","CA",94580,37.682841228,-122.130862972,355,"548 VIA PACHECO, SAN LORENZO, CA, 94580","Match","Exact","548 VIA PACHECO, SAN LORENZO, CA, 94580",125019266,"L"
720856,"548 W EUGENIE ST","CHICAGO","IL",60614,41.9128255410001,-87.64292237,356,"548 W EUGENIE ST, CHICAGO, IL, 60614","Match","Exact","548 W EUGENIE ST, CHICAGO, IL, 60614",605071420,"R"
720857,"548 W MELINDA AVE","PORTERVILLE","CA",93257,36.0433694500001,-119.028357987,357,"548 W MELINDA AVE, PORTERVILLE, CA, 93257","Match","Exact","548 MELINDA AVE, PORTERVILLE, CA, 93257",643010048,"L"
720858,"548 W WEBSTER AVE","CHICAGO","IL",60614,41.921911967,-87.642605369,358,"548 W WEBSTER AVE, CHICAGO, IL, 60614","Match","Exact","548 W WEBSTER AVE, CHICAGO, IL, 60614",605267835,"R"
720859,"548 WELLHOUSE DRIVE","JACKSONVILLE","FL",32220,30.3254703480001,-81.831055336,359,"548 WELLHOUSE DRIVE, JACKSONVILLE, FL, 32220","Match","Exact","548 WELLHOUSE DR, JACKSONVILLE, FL, 32220",83961387,"R"
720860,"548 WEST 84TH ST","SHREVEPORT","LA",71106,32.427520509,-93.766146715,360,"548 WEST 84TH ST, SHREVEPORT, LA, 71106","Match","Exact","548 W 84TH ST, SHREVEPORT, LA, 71106",57481362,"R"
720861,"548 WEST JAMESTOWN AVENUE","TIFFIN","OH",44883,41.092975691,-83.184161579,361,"548 WEST JAMESTOWN AVENUE, TIFFIN, OH, 44883","Match","Exact","548 W JAMESTOWN AVE, TIFFIN, OH, 44883",12973500,"R"
720862,"548 WILCOX ST","WAUPUN","WI",53963,43.6299814070001,-88.726175869,362,"548 WILCOX ST, WAUPUN, WI, 53963","Match","Exact","548 WILCOX ST, WAUPUN, WI, 53963",53537106,"L"
720863,"5480 AGUILAR RD","ROCKLIN","CA",95677,38.785351099,-121.219635824,363,"5480 AGUILAR RD, ROCKLIN, CA, 95677","Match","Exact","5480 AGUILAR RD, ROCKLIN, CA, 95677",106817093,"R"
720864,"5480 ALTAMAHA DRIVE","N. CHARLESTON","SC",29420,32.919956062,-80.1268400549999,364,"5480 ALTAMAHA DRIVE, N. CHARLESTON, SC, 29420","Match","Exact","5480 ALTAMAHA DR, N CHARLESTON, SC, 29420",178466646,"R"
720865,"5480 BARNWOOD DRIVE","GURNEE","IL",60031,42.388696387,-87.937862418,365,"5480 BARNWOOD DRIVE, GURNEE, IL, 60031","Match","Non_Exact","5480 BARNWOOD CT, GURNEE, IL, 60031",119676184,"R"
720866,"5480 BRANCHVIEW DR","OLIVE BRANCH","MS",38654,34.96692325,-89.892833863,366,"5480 BRANCHVIEW DR, OLIVE BRANCH, MS, 38654","Match","Exact","5480 BRANCHVIEW DR, OLIVE BRANCH, MS, 38654",612946377,"R"
720867,"5480 BRECKENRIDGE AVE","BANNING","CA",92220,33.906763676,-116.942719517,367,"5480 BRECKENRIDGE AVE, BANNING, CA, 92220","Match","Exact","5480 BRECKENRIDGE AVE, BANNING, CA, 92220",647486117,"L"
720868,"5480 BROADWAY","BRONX","NY",10463,40.876234276,-73.907477754,368,"5480 BROADWAY, BRONX, NY, 10463","Match","Exact","5480 BROADWAY, BRONX, NY, 10463",611719070,"R"
720869,"5480 BROKEN BOW RD","SUN PRAIRIE","WI",53590,43.146351451,-89.2502566799999,369,"5480 BROKEN BOW RD, SUN PRAIRIE, WI, 53590","Match","Exact","5480 BROKEN BOW RD, SUN PRAIRIE, WI, 53590",49489325,"R"
720870,"5480 BROMELY DR","OAK PARK","CA",91377,34.1922430290001,-118.77368476,370,"5480 BROMELY DR, OAK PARK, CA, 91377","Match","Exact","5480 BROMELY DR, OAK PARK, CA, 91377",110019449,"R"
720871,"5480 CAMDEN AVE UNIT 11","SAN JOSE","CA",95124,37.2381092210001,-121.903516963,371,"5480 CAMDEN AVE UNIT 11, SAN JOSE, CA, 95124","Match","Exact","5480 CAMDEN AVE, SAN JOSE, CA, 95124",122946830,"L"
720872,"5480 CARLTON RD","MEDINA","OH",44256,41.124285146,-81.930260113,372,"5480 CARLTON RD, MEDINA, OH, 44256","Match","Exact","5480 CARLTON RD, MEDINA, OH, 44256",58678106,"R"
720873,"5480 CLAYSHIRE","MILTON","WI",53563,NA,NA,373,"5480 CLAYSHIRE, MILTON, WI, 53563","No_Match",NA,NA,NA,NA
720874,"5480 CLUB HOUSE DRIVE","LAS VEGAS","NV",89142,36.14389197,-115.055026182,374,"5480 CLUB HOUSE DRIVE, LAS VEGAS, NV, 89142","Match","Exact","5480 CLUB HOUSE DR, LAS VEGAS, NV, 89142",201878499,"L"
720875,"5480 COX GAP ROAD","BOAZ","AL",35956,34.145855544,-86.0848002069999,375,"5480 COX GAP ROAD, BOAZ, AL, 35956","Match","Exact","5480 COX GAP RD, BOAZ, AL, 35956",66761762,"R"
720876,"5480 DEER CREEK DRIVE","ORLANDO","FL",32821,28.392309648,-81.445324195,376,"5480 DEER CREEK DRIVE, ORLANDO, FL, 32821","Match","Exact","5480 DEER CREEK DR, ORLANDO, FL, 32821",94320061,"R"
720877,"5480 DUNBAR RD","CROSSVILLE","TN",38572,35.835902488,-85.0461680069999,377,"5480 DUNBAR RD, CROSSVILLE, TN, 38572","Match","Exact","5480 DUNBAR RD, CROSSVILLE, TN, 38572",26239670,"L"
720878,"5480 GREEN ASH DRIVE","BOWLING GREEN","KY",42101,NA,NA,378,"5480 GREEN ASH DRIVE, BOWLING GREEN, KY, 42101","No_Match",NA,NA,NA,NA
720879,"5480 HEDGE BROOK POINT NW","ACWORTH","GA",30101,NA,NA,379,"5480 HEDGE BROOK POINT NW, ACWORTH, GA, 30101","No_Match",NA,NA,NA,NA
720880,"5480 INDIANWOOD DR","REDDING","CA",96001,40.539387408,-122.363604063,380,"5480 INDIANWOOD DR, REDDING, CA, 96001","Match","Exact","5480 INDIANWOOD DR, REDDING, CA, 96001",126659994,"L"
720881,"5480 KIRKWOOD PL","HONOLULU","HI",96821,21.280207435,-157.746013056,381,"5480 KIRKWOOD PL, HONOLULU, HI, 96821","Match","Exact","5480 KIRKWOOD PL, HONOLULU, HI, 96821",203243841,"L"
720882,"5480 LONGVIEW COURT","JOHNSTON","IA",50131,41.660381396,-93.747722744,382,"5480 LONGVIEW COURT, JOHNSTON, IA, 50131","Match","Exact","5480 LONGVIEW CT, JOHNSTON, IA, 50131",65841729,"R"
720883,"5480 OLD SABINETOWN ROAD","HEMPHILL","TX",75948,NA,NA,383,"5480 OLD SABINETOWN ROAD, HEMPHILL, TX, 75948","No_Match",NA,NA,NA,NA
720884,"5480 PANOLA DOWNS RD","LITHONIA","GA",30038,33.731045986,-84.1653800999999,384,"5480 PANOLA DOWNS RD, LITHONIA, GA, 30038","Match","Non_Exact","5480 PANOLA DOWNS RD, LITHONIA, GA, 30058",23383113,"R"
720885,"5480 POPLAR AV STE 1","MEMPHIS","TN",38119,35.1062532450001,-89.879298983,385,"5480 POPLAR AV STE 1, MEMPHIS, TN, 38119","Match","Exact","5480 POPLAR AVE, MEMPHIS, TN, 38119",633326452,"L"
720886,"5480 PREAKNESS LANE 237","DALLAS","TX",75211,32.740469395,-96.9144089179999,386,"5480 PREAKNESS LANE 237, DALLAS, TX, 75211","Match","Exact","5480 PREAKNESS LN, DALLAS, TX, 75211",102939737,"L"
720887,"5480 PREAKNESS LANE APT 122","DALLAS","TX",75211,32.740469395,-96.9144089179999,387,"5480 PREAKNESS LANE APT 122, DALLAS, TX, 75211","Match","Exact","5480 PREAKNESS LN, DALLAS, TX, 75211",102939737,"L"
720888,"5480 PREAKNESS LANE APT 831","DALLAS","TX",75211,32.740469395,-96.9144089179999,388,"5480 PREAKNESS LANE APT 831, DALLAS, TX, 75211","Match","Exact","5480 PREAKNESS LN, DALLAS, TX, 75211",102939737,"L"
720889,"5480 RIVERFRONT DR  APT A","BRADENTON","FL",34208,27.50689987,-82.519178341,389,"5480 RIVERFRONT DR  APT A, BRADENTON, FL, 34208","Match","Exact","5480 RIVERFRONT DR, BRADENTON, FL, 34208",16244484,"R"
720890,"5480 ROCKTON WOOD WAY SW","ATLANTA","GA",30331,33.710918114,-84.572144368,390,"5480 ROCKTON WOOD WAY SW, ATLANTA, GA, 30331","Match","Non_Exact","5480 ROCKTON WOOD WAY, ATLANTA, GA, 30331",627634890,"L"
720891,"5480 S ELLIS AVE","CHICAGO","IL",60615,41.795694939,-87.601224741,391,"5480 S ELLIS AVE, CHICAGO, IL, 60615","Match","Exact","5480 S ELLIS AVE, CHICAGO, IL, 60615",605501169,"R"
720892,"5480 S ELLIS AVENUE","CHICAGO","IL",60615,41.795694939,-87.601224741,392,"5480 S ELLIS AVENUE, CHICAGO, IL, 60615","Match","Exact","5480 S ELLIS AVE, CHICAGO, IL, 60615",605501169,"R"
720893,"5480 S QUINTERO CIR","AURORA","CO",80015,39.6161521180001,-104.7877176,393,"5480 S QUINTERO CIR, AURORA, CO, 80015","Match","Non_Exact","5480 S QUINTERO WAY, AURORA, CO, 80015",177359641,"L"
720894,"5480 SUNSTONE LANE","CASTLE ROCK","CO",80108,39.414719227,-104.850369654,394,"5480 SUNSTONE LANE, CASTLE ROCK, CO, 80108","Match","Exact","5480 SUNSTONE LN, CASTLE ROCK, CO, 80108",130821764,"L"
720895,"5480 SW 161 PLACE","MIAMI","FL",33185,25.7142610930001,-80.454753911,395,"5480 SW 161 PLACE, MIAMI, FL, 33185","Match","Exact","5480 SW 161ST PL, MIAMI, FL, 33185",116089779,"R"
720896,"5480 SW 65 RD","MIAMI","FL",33155,25.719899002,-80.300388159,396,"5480 SW 65 RD, MIAMI, FL, 33155","Match","Exact","5480 SW 65TH RD, MIAMI, FL, 33155",116055846,"R"
720897,"54801 MOUNT VICTORY ROAD","POWHATAN POINT","OH",43942,39.875702835,-80.8225079589999,397,"54801 MOUNT VICTORY ROAD, POWHATAN POINT, OH, 43942","Match","Exact","54801 MOUNT VICTORY RD, POWHATAN POINT, OH, 43942",36233220,"L"
720898,"54802 BRENTWOOD DR","SOUTH LYON","MI",48178,42.463575905,-83.590713922,398,"54802 BRENTWOOD DR, SOUTH LYON, MI, 48178","Match","Exact","54802 BRENTWOOD DR, SOUTH LYON, MI, 48178",638855019,"R"
720899,"5481 BROCKWAY RD","SAGINAW","MI",48638,43.433204833,-84.0241121669999,399,"5481 BROCKWAY RD, SAGINAW, MI, 48638","Match","Exact","5481 BROCKWAY RD, SAGINAW, MI, 48638",80208207,"L"
720900,"5481 CAROLINE DR","HORN LAKE","MS",38637,34.941077669,-90.0863014179999,400,"5481 CAROLINE DR, HORN LAKE, MS, 38637","Match","Exact","5481 CAROLINE DR, HORN LAKE, MS, 38637",91845087,"R"
720901,"5481 COUNTRY HEARTH LANE","GRAND BLANC","MI",48439,42.950268787,-83.5970022,401,"5481 COUNTRY HEARTH LANE, GRAND BLANC, MI, 48439","Match","Exact","5481 COUNTRY HEARTH LN, GRAND BLANC, MI, 48439",635838139,"R"
720902,"5481 EL GRECO DRIVE","STOCKTON","CA",95212,38.0519081530001,-121.24523645,402,"5481 EL GRECO DRIVE, STOCKTON, CA, 95212","Match","Exact","5481 EL GRECO DR, STOCKTON, CA, 95212",133878425,"L"
720903,"5481 EXETER DR","PROSPER","TX",75078,33.2236268070001,-96.891582075,403,"5481 EXETER DR, PROSPER, TX, 75078","Match","Exact","5481 EXETER DR, PROSPER, TX, 75078",618759482,"L"
720904,"5481 GRAND PRIX CT","FONTANA","CA",92336,34.1548465860001,-117.478948914,404,"5481 GRAND PRIX CT, FONTANA, CA, 92336","Match","Exact","5481 GRAND PRIX CT, FONTANA, CA, 92336",145219347,"R"
720905,"5481 HIGHWAY 126","BLOUNTVILLE","TN",37617,NA,NA,405,"5481 HIGHWAY 126, BLOUNTVILLE, TN, 37617","No_Match",NA,NA,NA,NA
720906,"5481 ISAAC RD","CANAL WINCHESTER","OH",43110,39.8675009940001,-82.816789435,406,"5481 ISAAC RD, CANAL WINCHESTER, OH, 43110","Match","Exact","5481 ISAAC RD, CANAL WINCHESTER, OH, 43110",218498362,"L"
720907,"5481 LAGO VISTA LN","FRISCO","TX",75034,33.12239842,-96.840090296,407,"5481 LAGO VISTA LN, FRISCO, TX, 75034","Match","Exact","5481 LAGO VISTA LN, FRISCO, TX, 75034",210524854,"L"
720908,"5481 LAGO VISTA","FRISCO","TX",75034,33.12239842,-96.840090296,408,"5481 LAGO VISTA, FRISCO, TX, 75034","Match","Non_Exact","5481 LAGO VISTA LN, FRISCO, TX, 75034",210524854,"L"
720909,"5481 MOURNING DOVE DRIVE","PROSPER","TX",75078,NA,NA,409,"5481 MOURNING DOVE DRIVE, PROSPER, TX, 75078","No_Match",NA,NA,NA,NA
720910,"5481 SHAGBARK COURT","NORTH PORT","FL",34287,27.05510013,-82.232282652,410,"5481 SHAGBARK COURT, NORTH PORT, FL, 34287","Match","Exact","5481 SHAGBARK CT, NORTH PORT, FL, 34287",638631345,"L"
720911,"5481 SW 34TH PL","PORTLAND","OR",97239,45.48354555,-122.712037839,411,"5481 SW 34TH PL, PORTLAND, OR, 97239","Match","Exact","5481 SW 34TH PL, PORTLAND, OR, 97239",157499949,"R"
720912,"5481 SW 60TH ST STE 201","OCALA","FL",34474,NA,NA,412,"5481 SW 60TH ST STE 201, OCALA, FL, 34474","No_Match",NA,NA,NA,NA
720913,"5481 VISTA LANE","SILVER BAY","MN",55614,47.369907186,-91.221041374,413,"5481 VISTA LANE, SILVER BAY, MN, 55614","Match","Exact","5481 VISTA LN, SILVER BAY, MN, 55614",194230590,"L"
720914,"5481 WELLBRN CIRCLE DR","LITHONIA","GA",30058,NA,NA,414,"5481 WELLBRN CIRCLE DR, LITHONIA, GA, 30058","No_Match",NA,NA,NA,NA
720915,"54817 BENECIA TRAIL","YUCCA VALLEY","CA",92284,34.1186845980001,-116.468298089,415,"54817 BENECIA TRAIL, YUCCA VALLEY, CA, 92284","Match","Exact","54817 BENECIA TRL, YUCCA VALLEY, CA, 92284",144628862,"R"
720916,"54819 WALNUT DR","NEW HUDSON","MI",48165,42.5160093280001,-83.587362114,416,"54819 WALNUT DR, NEW HUDSON, MI, 48165","Match","Exact","54819 WALNUT DR, NEW HUDSON, MI, 48165",69800610,"R"
720917,"5481D MILLWOOD LANE","WILLOUGHBY","OH",44094,41.6157946800001,-81.4441616779999,417,"5481D MILLWOOD LANE, WILLOUGHBY, OH, 44094","Match","Exact","5481 MILLWOOD LN, WILLOUGHBY, OH, 44094",645537852,"R"
720918,"5482 190TH STREET","WALDO","KS",67673,39.055743744,-98.7611352339999,418,"5482 190TH STREET, WALDO, KS, 67673","Match","Exact","5482 190TH ST, WALDO, KS, 67673",133213152,"L"
720919,"5482 BELFAST OWENSVILLE RD","BATAVIA","OH",45103,39.150473221,-84.130288244,419,"5482 BELFAST OWENSVILLE RD, BATAVIA, OH, 45103","Match","Exact","5482 BELFAST OWENSVILLE RD, BATAVIA, OH, 45103",634214679,"R"
720920,"5482 BENGAL CT","SAN DIEGO","CA",92124,32.829989885,-117.099951878,420,"5482 BENGAL CT, SAN DIEGO, CA, 92124","Match","Exact","5482 BENGAL CT, SAN DIEGO, CA, 92124",195321107,"L"
720921,"5482 ELIMSPORT ROAD","MONTGOMERY","PA",17752,41.148974067,-77.004173056,421,"5482 ELIMSPORT ROAD, MONTGOMERY, PA, 17752","Match","Exact","5482 ELIMSPORT RD, MONTGOMERY, PA, 17752",59474011,"L"
720922,"5482 LANDVIEW PL","HOPE MILLS","NC",28348,34.953427393,-78.952517528,422,"5482 LANDVIEW PL, HOPE MILLS, NC, 28348","Match","Exact","5482 LANDVIEW PL, HOPE MILLS, NC, 28348",64234324,"L"
720923,"5482 PEACHTREE LANDING DR","ELLENWOOD","GA",30294,33.6050828910001,-84.287542786,423,"5482 PEACHTREE LANDING DR, ELLENWOOD, GA, 30294","Match","Exact","5482 PEACHTREE LANDING DR, ELLENWOOD, GA, 30294",627670672,"L"
720924,"5482 PEACHTREE LNDG DR","ELLENWOOD","GA",30294,NA,NA,424,"5482 PEACHTREE LNDG DR, ELLENWOOD, GA, 30294","No_Match",NA,NA,NA,NA
720925,"5482 RIVERVAIL DRIVE","COLUMBUS","OH",43221,40.0655402020001,-83.11557772,425,"5482 RIVERVAIL DRIVE, COLUMBUS, OH, 43221","Match","Exact","5482 RIVERVAIL DR, COLUMBUS, OH, 43221",135622412,"R"
720926,"5482 S WOODLAWN AVE UNIT 2","CHICAGO","CA",60615,NA,NA,426,"5482 S WOODLAWN AVE UNIT 2, CHICAGO, CA, 60615","No_Match",NA,NA,NA,NA
720927,"5482 SEAN CIR APT 19","SAN JOSE","CA",95123,37.253859511,-121.828819006,427,"5482 SEAN CIR APT 19, SAN JOSE, CA, 95123","Match","Exact","5482 SEAN CIR, SAN JOSE, CA, 95123",636424198,"R"
720928,"5482 W FRANCES ROAD","CLIO","MI",48420,43.1338350840001,-83.790275132,428,"5482 W FRANCES ROAD, CLIO, MI, 48420","Match","Exact","5482 W FRANCES RD, CLIO, MI, 48420",69608225,"R"
720929,"5482 W PULLEY LN","HERRIMAN","UT",84096,40.4780926270001,-112.021780502,429,"5482 W PULLEY LN, HERRIMAN, UT, 84096","Match","Exact","5482 W PULLEY LN, HERRIMAN, UT, 84096",619746263,"R"
720930,"5482 WILSHIRE BLVD PMB 396","LOS ANGELES","CA",90036,34.062244333,-118.347884623,430,"5482 WILSHIRE BLVD PMB 396, LOS ANGELES, CA, 90036","Match","Exact","5482 WILSHIRE BLVD, LOS ANGELES, CA, 90036",650222322,"L"
720931,"5482 WILSHIRE BLVD SUITE 1573","LOS ANGELES","CA",90036,34.062244333,-118.347884623,431,"5482 WILSHIRE BLVD SUITE 1573, LOS ANGELES, CA, 90036","Match","Exact","5482 WILSHIRE BLVD, LOS ANGELES, CA, 90036",650222322,"L"
720932,"5482 WILSHIRE BLVD SUITE 184","LOS ANGELES","CA",90036,34.062244333,-118.347884623,432,"5482 WILSHIRE BLVD SUITE 184, LOS ANGELES, CA, 90036","Match","Exact","5482 WILSHIRE BLVD, LOS ANGELES, CA, 90036",650222322,"L"
720933,"5482 WILSHIRE BLVD UNIT 270","LOS ANGELES","CA",90036,34.062244333,-118.347884623,433,"5482 WILSHIRE BLVD UNIT 270, LOS ANGELES, CA, 90036","Match","Exact","5482 WILSHIRE BLVD, LOS ANGELES, CA, 90036",650222322,"L"
720934,"5482 WILSHIRE BLVD","LOS ANGELES","CA",90036,34.062244333,-118.347884623,434,"5482 WILSHIRE BLVD, LOS ANGELES, CA, 90036","Match","Exact","5482 WILSHIRE BLVD, LOS ANGELES, CA, 90036",650222322,"L"
720935,"54829 875 ROAD","WAUSA","NE",68786,42.510960272,-97.5572630029999,435,"54829 875 ROAD, WAUSA, NE, 68786","Match","Exact","54829 875 RD, WAUSA, NE, 68786",167191600,"L"
720936,"5483 AZALEA TRCE","TRUSSVILLE","AL",35173,33.594777401,-86.62271536,436,"5483 AZALEA TRCE, TRUSSVILLE, AL, 35173","Match","Exact","5483 AZALEA TRCE, TRUSSVILLE, AL, 35173",646711046,"R"
720937,"5483 BARKWOOD DRIVE","SHEFFIELD VILLAGE","OH",44054,41.459906145,-82.069750265,437,"5483 BARKWOOD DRIVE, SHEFFIELD VILLAGE, OH, 44054","Match","Exact","5483 BARKWOOD DR, SHEFFIELD VILLAGE, OH, 44054",618563907,"L"
720938,"5483 BRIDGECREEK AVE NW","CANTON","OH",44718,40.860509671,-81.4659033519999,438,"5483 BRIDGECREEK AVE NW, CANTON, OH, 44718","Match","Exact","5483 BRIDGECREEK AVE NW, CANTON, OH, 44718",64706416,"L"
720939,"5483 CATHERS CREEK DR","POWDER SPGS","GA",30127,33.919311372,-84.7158457899999,439,"5483 CATHERS CREEK DR, POWDER SPGS, GA, 30127","Match","Exact","5483 CATHERS CREEK DR, POWDER SPGS, GA, 30127",634051438,"R"
720940,"5483 HIGHLAND PRESERVE DRIVE","MABLETON","GA",30126,33.8192698390001,-84.523604093,440,"5483 HIGHLAND PRESERVE DRIVE, MABLETON, GA, 30126","Match","Exact","5483 HIGHLAND PRESERVE DR, MABLETON, GA, 30126",648232897,"R"
720941,"5483 HOLLAND STREET","OAKLAND","CA",94601,37.7681629050001,-122.203018941,441,"5483 HOLLAND STREET, OAKLAND, CA, 94601","Match","Exact","5483 HOLLAND ST, OAKLAND, CA, 94601",125007649,"R"
720942,"5483 LEXINGTON ST","JACKSON","MO",63755,37.3415926970001,-89.6033019549999,442,"5483 LEXINGTON ST, JACKSON, MO, 63755","Match","Exact","5483 LEXINGTON ST, JACKSON, MO, 63755",35201977,"L"
720943,"5483 NOON ROAD","BELLINGHAM","WA",98226,48.8393964470001,-122.398622045,443,"5483 NOON ROAD, BELLINGHAM, WA, 98226","Match","Exact","5483 NOON RD, BELLINGHAM, WA, 98226",183809023,"L"
720944,"5483 PARK ELWOOD RD","RICHMOND","IN",47374,39.90676662,-84.850354065,444,"5483 PARK ELWOOD RD, RICHMOND, IN, 47374","Match","Exact","5483 PARK ELWOOD RD, RICHMOND, IN, 47374",31343245,"R"
720945,"5483 PARKLAKE ROAD","EAST LANSING","MI",48824,42.740528892,-84.4474292,445,"5483 PARKLAKE ROAD, EAST LANSING, MI, 48824","Match","Non_Exact","5483 PARK LAKE RD, EAST LANSING, MI, 48823",645865715,"L"
720946,"5483 POND BLUFF COURT","W. BLOOMFIELD","MI",48323,42.5582408320001,-83.382862955,446,"5483 POND BLUFF COURT, W. BLOOMFIELD, MI, 48323","Match","Exact","5483 POND BLUFF CT, W BLOOMFIELD, MI, 48323",69721783,"R"
720947,"5483 ROCKWOOD CT","COLUMBUS","OH",43229,40.0783100830001,-82.986704188,447,"5483 ROCKWOOD CT, COLUMBUS, OH, 43229","Match","Exact","5483 ROCKWOOD CT, COLUMBUS, OH, 43229",218660605,"L"
720948,"5483 W STONY LAKE ROAD","NEW ERA","MI",49446,43.5588371440001,-86.415009241,448,"5483 W STONY LAKE ROAD, NEW ERA, MI, 49446","Match","Exact","5483 W STONY LAKE RD, NEW ERA, MI, 49446",163707230,"L"
720949,"5483-C PASEO DEL LAGO","LAGUNA WOODS","CA",92637,33.6100986710001,-117.743714353,449,"5483-C PASEO DEL LAGO, LAGUNA WOODS, CA, 92637","Match","Non_Exact","5483 PSO DEL LAGO, LAGUNA WOODS, CA, 92637",144062087,"L"
720950,"5483A MILLWOOD LANE","WILLOUGHBY","OH",44094,41.615794545,-81.444197075,450,"5483A MILLWOOD LANE, WILLOUGHBY, OH, 44094","Match","Exact","5483 MILLWOOD LN, WILLOUGHBY, OH, 44094",645537852,"R"
720951,"5484 DIAMOND LANE","MT. IRON","MN",55768,47.515088382,-92.5922967829999,451,"5484 DIAMOND LANE, MT. IRON, MN, 55768","Match","Exact","5484 DIAMOND LN, MOUNTAIN IRON, MN, 55768",163252166,"L"
720952,"5484 E ROBERTS RD","AVON PARK","DE",33825,NA,NA,452,"5484 E ROBERTS RD, AVON PARK, DE, 33825","No_Match",NA,NA,NA,NA
720953,"5484 FLEETWOOD AVE NW","CANTON","OH",44718,40.86035085,-81.464066725,453,"5484 FLEETWOOD AVE NW, CANTON, OH, 44718","Match","Exact","5484 FLEETWOOD AVE NW, CANTON, OH, 44718",64672682,"R"
720954,"5484 LA FLEUR TRL","LITHONIA","GA",30038,33.6856084280001,-84.164519481,454,"5484 LA FLEUR TRL, LITHONIA, GA, 30038","Match","Exact","5484 LA FLEUR TRL, LITHONIA, GA, 30038",23382601,"R"
720955,"5484 LINDA LN","BRYAN","TX",77807,30.6270481060001,-96.4235965779999,455,"5484 LINDA LN, BRYAN, TX, 77807","Match","Exact","5484 LINDA LN, BRYAN, TX, 77807",21837783,"L"
720956,"5484 MADISON RD","CLINTON","IL",61727,40.1383079920001,-88.959692898,456,"5484 MADISON RD, CLINTON, IL, 61727","Match","Exact","5484 MADISON RD, CLINTON, IL, 61727",20504646,"R"
720957,"5484 MONTE LUZ ST","LAS CRUCES","NM",88012,32.380748329,-106.737159333,457,"5484 MONTE LUZ ST, LAS CRUCES, NM, 88012","Match","Exact","5484 MONTE LUZ ST, LAS CRUCES, NM, 88012",623844050,"L"
720958,"5484 MYSTIC OAKS","ARNOLD","MO",63052,NA,NA,458,"5484 MYSTIC OAKS, ARNOLD, MO, 63052","Tie",NA,NA,NA,NA
720959,"5484 MYSTICAL LANE","GLOUCESTER","VA",49058,37.3563074570001,-76.578852889,459,"5484 MYSTICAL LANE, GLOUCESTER, VA, 49058","Match","Non_Exact","5484 MYSTICAL LN, GLOUCESTER, VA, 23061",168223577,"R"
720960,"5484 NIAGARA STREET EXTENSION","LOCKPORT","NY",14094,43.17854486,-78.725137967,460,"5484 NIAGARA STREET EXTENSION, LOCKPORT, NY, 14094","Match","Non_Exact","5484 NIAGARA ST, LOCKPORT, NY, 14094",634574851,"R"
720961,"5484 SANTA BARBARA","MEMPHIS","TN",38116,34.998710246,-90.0036253659999,461,"5484 SANTA BARBARA, MEMPHIS, TN, 38116","Match","Non_Exact","5484 SANTA BARBARA ST, MEMPHIS, TN, 38116",72922976,"L"
720962,"5484 STARCREST DRIVE","SAN JOSE","CA",95123,37.253146314,-121.855162111,462,"5484 STARCREST DRIVE, SAN JOSE, CA, 95123","Match","Exact","5484 STARCREST DR, SAN JOSE, CA, 95123",122999525,"L"
720963,"5484 STONE COVE DR","ATLANTA","GA",30331,33.714662963,-84.568198522,463,"5484 STONE COVE DR, ATLANTA, GA, 30331","Match","Exact","5484 STONE COVE DR, ATLANTA, GA, 30331",629835159,"R"
720964,"54845 RED FOX LANE","BEND","OR",97707,43.789380609,-121.50506858,464,"54845 RED FOX LANE, BEND, OR, 97707","Match","Exact","54845 RED FOX LN, BEND, OR, 97707",152583932,"R"
720965,"54846 836 ROAD","BATTLE CREEK","NE",68715,41.945455345,-97.550792149,465,"54846 836 ROAD, BATTLE CREEK, NE, 68715","Match","Exact","54846 836TH RD, BATTLE CREEK, NE, 68715",161576794,"L"
720966,"54849 FRANKLIN DR","SHELBY TWP","MI",48316,42.696838073,-83.060137859,466,"54849 FRANKLIN DR, SHELBY TWP, MI, 48316","Match","Exact","54849 FRANKLIN DR, SHELBY TOWNSHIP, MI, 48316",110656619,"L"
720967,"5485 ABBEY ROAD","ROCHESTER","MI",48306,42.719943861,-83.1746590769999,467,"5485 ABBEY ROAD, ROCHESTER, MI, 48306","Match","Non_Exact","5485 ABBEY, ROCHESTER, MI, 48306",69787577,"L"
720968,"5485 ACADEMY ROAD","COOKEVILLE","TN",38501,NA,NA,468,"5485 ACADEMY ROAD, COOKEVILLE, TN, 38501","No_Match",NA,NA,NA,NA
720969,"5485 ADAMS ROAD","NEW PLYMOUTH","ID",83655,43.952281338,-116.833322344,469,"5485 ADAMS ROAD, NEW PLYMOUTH, ID, 83655","Match","Exact","5485 ADAMS RD, NEW PLYMOUTH, ID, 83655",141426196,"L"
720970,"5485 BAYOU PAUL ROAD","ST. GABRIEL","LA",70776,30.301052477,-91.112427596,470,"5485 BAYOU PAUL ROAD, ST. GABRIEL, LA, 70776","Match","Exact","5485 BAYOU PAUL RD, SAINT GABRIEL, LA, 70776",639778211,"L"
720971,"5485 BETHELVIEW RD STE 360 PMB 194","CUMMING","GA",30041,34.172367852,-84.185993579,471,"5485 BETHELVIEW RD STE 360 PMB 194, CUMMING, GA, 30041","Match","Non_Exact","5485 BETHELVIEW RD, CUMMING, GA, 30040",635638470,"R"
720972,"5485 CAMBRIA DRIVE","EAST VALE","CA",91752,33.988554853,-117.556394473,472,"5485 CAMBRIA DRIVE, EAST VALE, CA, 91752","Match","Non_Exact","5485 CAMBRIA DR, EASTVALE, CA, 91752",629317367,"L"
720973,"5485 GEORGIA HIGHWAY 400","CUMMING","GA",30028,NA,NA,473,"5485 GEORGIA HIGHWAY 400, CUMMING, GA, 30028","No_Match",NA,NA,NA,NA
720974,"5485 KILARNEY COVE","MEMPHIS","TN",38116,34.9984011240001,-89.99492371,474,"5485 KILARNEY COVE, MEMPHIS, TN, 38116","Match","Exact","5485 KILARNEY COVE, MEMPHIS, TN, 38116",72923149,"R"
720975,"5485 LAHRING RD","HOLLY","MI",48442,42.8432554190001,-83.597546532,475,"5485 LAHRING RD, HOLLY, MI, 48442","Match","Exact","5485 LAHRING RD, HOLLY, MI, 48442",69818509,"L"
720976,"5485 MOHAWK RD","LITTLETON","CO",80123,39.617320095,-105.036944571,476,"5485 MOHAWK RD, LITTLETON, CO, 80123","Match","Non_Exact","5485 S MOHAWK RD, LITTLETON, CO, 80123",177335252,"R"
720977,"5485 MYRTLE AVENUE","LONG BEACH","CA",90805,33.8560461450001,-118.18198254,477,"5485 MYRTLE AVENUE, LONG BEACH, CA, 90805","Match","Exact","5485 MYRTLE AVE, LONG BEACH, CA, 90805",141684558,"L"
720978,"5485 N HOPKINS ST APT 106","MILWAUKEE","WI",53209,43.117592481,-87.9656082239999,478,"5485 N HOPKINS ST APT 106, MILWAUKEE, WI, 53209","Match","Non_Exact","5485 N HOPKINS ST, MILWAUKEE, WI, 53209",77726970,"L"
720979,"5485 NE 17TH ST","DES MOINES","IA",50313,41.6653595130001,-93.592701924,479,"5485 NE 17TH ST, DES MOINES, IA, 50313","Match","Exact","5485 NE 17TH ST, DES MOINES, IA, 50313",65787931,"R"
720980,"5485 OAKWOOD RD","HUNTSVILLE","AL",35806,34.757073178,-86.664648835,480,"5485 OAKWOOD RD, HUNTSVILLE, AL, 35806","Match","Non_Exact","5485 OAKWOOD RD NW, HUNTSVILLE, AL, 35806",58207457,"R"
720981,"5485 PLEASANT HILL RD","ATHENS","OH",45701,39.276645214,-82.090414454,481,"5485 PLEASANT HILL RD, ATHENS, OH, 45701","Match","Exact","5485 PLEASANT HILL RD, ATHENS, OH, 45701",636786482,"L"
720982,"5485 PLEASANT HILL ROAD","ATHENS","OH",45701,39.276645214,-82.090414454,482,"5485 PLEASANT HILL ROAD, ATHENS, OH, 45701","Match","Exact","5485 PLEASANT HILL RD, ATHENS, OH, 45701",636786482,"L"
720983,"5485 REPECHO DR 208","SAN DIEGO","CA",92124,32.8320073780001,-117.111996763,483,"5485 REPECHO DR 208, SAN DIEGO, CA, 92124","Match","Exact","5485 REPECHO DR, SAN DIEGO, CA, 92124",195402496,"R"
720984,"5485 S LAKEVIEW ST","LITTLETON","CO",80120,39.617134015,-104.995830165,484,"5485 S LAKEVIEW ST, LITTLETON, CO, 80120","Match","Exact","5485 S LAKEVIEW ST, LITTLETON, CO, 80120",177336390,"R"
720985,"5485 SADDLE CLUB DR","KALAMAZOO","MI",49009,42.2031082980001,-85.657217476,485,"5485 SADDLE CLUB DR, KALAMAZOO, MI, 49009","Match","Exact","5485 SADDLE CLUB DR, KALAMAZOO, MI, 49009",12240668,"R"
720986,"5485 SANDHURST CIR S","LAKE WORTH","FL",33464,26.5977112800001,-80.146664492,486,"5485 SANDHURST CIR S, LAKE WORTH, FL, 33464","Match","Non_Exact","5485 SANDHURST CIR S, LAKE WORTH, FL, 33463",115578202,"R"
720987,"5485 TIMBERLEAF BLVD APT 1301","ORLANDO","FL",32811,28.528362418,-81.452354728,487,"5485 TIMBERLEAF BLVD APT 1301, ORLANDO, FL, 32811","Match","Exact","5485 TIMBERLEAF BLVD, ORLANDO, FL, 32811",94341563,"R"
720988,"5485 TOPA TOPA DRIVE","VENTURA","CA",93003,34.2910245910001,-119.222735155,488,"5485 TOPA TOPA DRIVE, VENTURA, CA, 93003","Match","Exact","5485 TOPA TOPA DR, VENTURA, CA, 93003",109952487,"L"
720989,"5485 W DEERMEADOW CIRCLE","WEST VALLEY","UT",84102,NA,NA,489,"5485 W DEERMEADOW CIRCLE, WEST VALLEY, UT, 84102","No_Match",NA,NA,NA,NA
720990,"5485 WEST 227TH STREET","FAIRVIEW PARK","OH",44126,41.4278575810001,-81.871802595,490,"5485 WEST 227TH STREET, FAIRVIEW PARK, OH, 44126","Match","Exact","5485 W 227TH ST, FAIRVIEW PARK, OH, 44126",61098052,"L"
720991,"5485 WILES ROAD UNIT 404","COCONUT CREEK","FL",33073,26.2859555680001,-80.1972609859999,491,"5485 WILES ROAD UNIT 404, COCONUT CREEK, FL, 33073","Match","Exact","5485 WILES RD, COCONUT CREEK, FL, 33073",648260209,"R"
720992,"54851 MOCCASIN TRAIL","PRAGUE","OK",74864,NA,NA,492,"54851 MOCCASIN TRAIL, PRAGUE, OK, 74864","No_Match",NA,NA,NA,NA
720993,"54852 STATE HWY 34","OSAGE","MN",56570,46.920410636,-95.251294606,493,"54852 STATE HWY 34, OSAGE, MN, 56570","Match","Exact","54852 STATE HWY 34, OSAGE, MN, 56570",167951799,"R"
720994,"5486 E 650 S","ST ANTHONY","IN",47575,38.285155441,-86.810289272,494,"5486 E 650 S, ST ANTHONY, IN, 47575","Match","Exact","5486 E 650 S, SAINT ANTHONY, IN, 47575",7886281,"R"
720995,"5486 FM 134","WASKOM","TX",75692,32.5359942480001,-94.137119449,495,"5486 FM 134, WASKOM, TX, 75692","Match","Exact","5486 FM 134, WASKOM, TX, 75692",141187947,"R"
720996,"5486 HUGHES PL","FREMONT","CA",94538,37.5275114300001,-121.993019022,496,"5486 HUGHES PL, FREMONT, CA, 94538","Match","Exact","5486 HUGHES PL, FREMONT, CA, 94538",606241276,"L"
720997,"5486 KETTERING SQ DR","KETTERING","OH",45440,NA,NA,497,"5486 KETTERING SQ DR, KETTERING, OH, 45440","No_Match",NA,NA,NA,NA
720998,"5486 MIRASOL DR","LAS CRUCES","NM",88007,32.383389863,-106.807654707,498,"5486 MIRASOL DR, LAS CRUCES, NM, 88007","Match","Exact","5486 MIRASOL DR, LAS CRUCES, NM, 88007",189550025,"L"
720999,"5486 RIDGE RD","MARSHALL","WI",53559,43.147604986,-89.1279463239999,499,"5486 RIDGE RD, MARSHALL, WI, 53559","Match","Exact","5486 RIDGE RD, MARSHALL, WI, 53559",49559909,"R"
721000,"5486 VILLA LUCIA CT","LAS VEGAS","NV",89146,35.992653343,-115.216929772,500,"5486 VILLA LUCIA CT, LAS VEGAS, NV, 89146","Match","Non_Exact","5486 VILLA LUCIA CT, LAS VEGAS, NV, 89141",201998198,"R"
