"ID","Address","City","State","Zip","lat","long","id","input_address","match_indicator","match_type","matched_address","tiger_line_id","tiger_side"
182501,"14380 FM 2853 SUITE A","PALACIOS","TX",77465,28.742868403,-96.2079158779999,1,"14380 FM 2853 SUITE A, PALACIOS, TX, 77465","Match","Non_Exact","14380 FM 2853, PALACIOS, TX, 77465",83326981,"R"
182502,"14380 GHOST RIDER DR","RENO","NV",89511,39.3948315380001,-119.770568974,2,"14380 GHOST RIDER DR, RENO, NV, 89511","Match","Exact","14380 GHOST RIDER DR, RENO, NV, 89511",107107536,"L"
182503,"14380 RIVA DEL LAGO DR 702","FT MYERS","FL",33907,26.534478704,-81.874155348,3,"14380 RIVA DEL LAGO DR 702, FT MYERS, FL, 33907","Match","Exact","14380 RIVA DEL LAGO DR, FORT MYERS, FL, 33907",648415011,"R"
182504,"14380 SAINT MICHAELS LANE","CHINO","CA",97010,NA,NA,4,"14380 SAINT MICHAELS LANE, CHINO, CA, 97010","No_Match",NA,NA,NA,NA
182505,"14380 STATE HWY 148","SESSER","IL",62884,NA,NA,5,"14380 STATE HWY 148, SESSER, IL, 62884","No_Match",NA,NA,NA,NA
182506,"14380 US HIGHWAY 29","FORT DAVIS","AL",36031,32.2387790390001,-85.7093361139999,6,"14380 US HIGHWAY 29, FORT DAVIS, AL, 36031","Match","Exact","14380 US HWY 29, FORT DAVIS, AL, 36031",69132327,"L"
182507,"14381 AUSTIN CIRCLE","GIBSON","NC",28343,34.7672076470001,-79.5725287829999,7,"14381 AUSTIN CIRCLE, GIBSON, NC, 28343","Match","Exact","14381 AUSTIN CIR, GIBSON, NC, 28343",25795314,"L"
182508,"14381 VALEDA DRIVE","LA MIRADA","CA",90638,33.911464928,-118.025257198,8,"14381 VALEDA DRIVE, LA MIRADA, CA, 90638","Match","Exact","14381 VALEDA DR, LA MIRADA, CA, 90638",141750174,"L"
182509,"14382 EDGEWATER DR","GREGORY","MI",48137,42.4163673670001,-84.0130410039999,9,"14382 EDGEWATER DR, GREGORY, MI, 48137","Match","Exact","14382 EDGEWATER DR, GREGORY, MI, 48137",26008089,"R"
182510,"14382 GILBERT ROAD","ALLENTON","MI",48002,42.917108139,-82.9011845759999,10,"14382 GILBERT ROAD, ALLENTON, MI, 48002","Match","Exact","14382 GILBERT RD, ALLENTON, MI, 48002",110969672,"R"
182511,"14382 HIBISCUS CT","WESTMINSTER","CA",92683,NA,NA,11,"14382 HIBISCUS CT, WESTMINSTER, CA, 92683","No_Match",NA,NA,NA,NA
182512,"14382 REDHILL AVENUE - 38","TUSTIN","CA",92780,33.7293242210001,-117.819615205,12,"14382 REDHILL AVENUE - 38, TUSTIN, CA, 92780","Match","Non_Exact","14382 RED HILL AVE, TUSTIN, CA, 92780",649766817,"L"
182513,"14382 ROUTE 20 SOUTH ROAD","ROCK CAVE","WV",26234,NA,NA,13,"14382 ROUTE 20 SOUTH ROAD, ROCK CAVE, WV, 26234","No_Match",NA,NA,NA,NA
182514,"14383 CHALFONT DRIVE","HAYMARKET","VA",20169,38.825176066,-77.616524666,14,"14383 CHALFONT DRIVE, HAYMARKET, VA, 20169","Match","Exact","14383 CHALFONT DR, HAYMARKET, VA, 20169",207142274,"R"
182515,"14383 NEWBROOK DR SUITE 116","CHANTILLY","VA",20151,38.8783584550001,-77.4448908109999,15,"14383 NEWBROOK DR SUITE 116, CHANTILLY, VA, 20151","Match","Exact","14383 NEWBROOK DR, CHANTILLY, VA, 20151",641081204,"R"
182516,"14384 S ROYAL COVE CIRCLE","DAVIE","FL",33325,26.1156191040001,-80.341284984,16,"14384 S ROYAL COVE CIRCLE, DAVIE, FL, 33325","Match","Exact","14384 S ROYAL COVE CIR, DAVIE, FL, 33325",114814076,"L"
182517,"14384 SAWGRASS CIR","VALLEY CENTER","CA",92082,33.206149317,-117.018143158,17,"14384 SAWGRASS CIR, VALLEY CENTER, CA, 92082","Match","Exact","14384 SAWGRASS CIR, VALLEY CENTER, CA, 92082",619809266,"L"
182518,"14384 SAYRE STREET","SYLMAR","CA",91342,34.298660807,-118.446387139,18,"14384 SAYRE STREET, SYLMAR, CA, 91342","Match","Exact","14384 SAYRE ST, SYLMAR, CA, 91342",141547509,"L"
182519,"14384 WHISPERING RIDGE RD","SAN DIEGO","CA",92131,32.9260790060001,-117.030878138,19,"14384 WHISPERING RIDGE RD, SAN DIEGO, CA, 92131","Match","Exact","14384 WHISPERING RIDGE RD, SAN DIEGO, CA, 92131",612878005,"L"
182520,"14385 DULCE REAL AVENUE","FORT PIERCE","FL",34951,NA,NA,20,"14385 DULCE REAL AVENUE, FORT PIERCE, FL, 34951","No_Match",NA,NA,NA,NA
182521,"14385 FM 2186","AMARILLO","TX",79119,35.1173024600001,-102.005175385,21,"14385 FM 2186, AMARILLO, TX, 79119","Match","Exact","14385 FM 2186, AMARILLO, TX, 79119",182667263,"L"
182522,"14385 MCNAUGHT RD","CABLE","WI",54821,46.197661886,-91.270241112,22,"14385 MCNAUGHT RD, CABLE, WI, 54821","Match","Non_Exact","14385 MC NAUGHT RD, CABLE, WI, 54821",194310332,"L"
182523,"14385 NORMAN DAVIS DRIVE","ALEXANDER","AR",72002,34.67293855,-92.553096398,23,"14385 NORMAN DAVIS DRIVE, ALEXANDER, AR, 72002","Match","Exact","14385 NORMAN DAVIS DR, ALEXANDER, AR, 72002",24205895,"R"
182524,"14385 SE TERRITORY DR","CLACKAMAS","OR",97015,45.4208726690001,-122.515800506,24,"14385 SE TERRITORY DR, CLACKAMAS, OR, 97015","Match","Exact","14385 SE TERRITORY DR, CLACKAMAS, OR, 97015",157957678,"R"
182525,"14385 SE TERRITORY DR","CLACKAMUS","OR",97015,45.4208726690001,-122.515800506,25,"14385 SE TERRITORY DR, CLACKAMUS, OR, 97015","Match","Non_Exact","14385 SE TERRITORY DR, CLACKAMAS, OR, 97015",157957678,"R"
182526,"14386 ATTLEBORO DRIVE","HERRIMAN","UT",84096,40.489885739,-112.002591285,26,"14386 ATTLEBORO DRIVE, HERRIMAN, UT, 84096","Match","Non_Exact","14386 S ATTLEBORO DR, HERRIMAN, UT, 84096",647292202,"L"
182527,"14386 DEVILS THREE JUMP RD","MILFORD","VA",22514,38.0072082300001,-77.396006729,27,"14386 DEVILS THREE JUMP RD, MILFORD, VA, 22514","Match","Exact","14386 DEVILS THREE JUMP RD, MILFORD, VA, 22514",21962020,"R"
182528,"14386 FAUST","DETROIT","MI",48223,42.3924532830001,-83.2225594719999,28,"14386 FAUST, DETROIT, MI, 48223","Match","Non_Exact","14386 FAUST AVE, DETROIT, MI, 48223",95423415,"R"
182529,"14386 SEABRIDGE LN","SAN DIEGO","CA",92128,32.976858156,-117.079135417,29,"14386 SEABRIDGE LN, SAN DIEGO, CA, 92128","Match","Exact","14386 SEABRIDGE LN, SAN DIEGO, CA, 92128",195660190,"L"
182530,"14387 BAXTER RD","CONROE","TX",77306,30.2789712050001,-95.351478465,30,"14387 BAXTER RD, CONROE, TX, 77306","Match","Exact","14387 BAXTER RD, CONROE, TX, 77306",79309386,"R"
182531,"14387 BEULAH LAKE","COTTONDALE","AL",35453,NA,NA,31,"14387 BEULAH LAKE, COTTONDALE, AL, 35453","Tie",NA,NA,NA,NA
182532,"14387 EAST CAVE AVE","EL PASO","TX",79938,31.773086345,-106.217896854,32,"14387 EAST CAVE AVE, EL PASO, TX, 79938","Match","Exact","14387 E CAVE AVE, EL PASO, TX, 79938",642024909,"L"
182533,"14387 N PRESIDIO LOOP","NAMPA","ID",83651,43.5817604760001,-116.61389959,33,"14387 N PRESIDIO LOOP, NAMPA, ID, 83651","Match","Exact","14387 N PRESIDIO LOOP, NAMPA, ID, 83651",647488621,"R"
182534,"14388 DEER CROSSING LN","MISHAWAKA","IN",46545,41.700910643,-86.145612217,34,"14388 DEER CROSSING LN, MISHAWAKA, IN, 46545","Match","Exact","14388 DEER CROSSING LN, MISHAWAKA, IN, 46545",8072090,"R"
182535,"14388 MEADOW TRACE 13","TICKFAW","LA",70466,NA,NA,35,"14388 MEADOW TRACE 13, TICKFAW, LA, 70466","No_Match",NA,NA,NA,NA
182536,"14388 NEWBORN LOOP","GAINESVILLE","VA",20155,38.81131401,-77.617588026,36,"14388 NEWBORN LOOP, GAINESVILLE, VA, 20155","Match","Non_Exact","14388 NEWBERN LOOP, GAINESVILLE, VA, 20155",207163787,"R"
182537,"14388 NORTH 79TH AVENUE","PEORIA","AZ",85381,33.6155356740001,-112.228772597,37,"14388 NORTH 79TH AVENUE, PEORIA, AZ, 85381","Match","Exact","14388 N 79TH AVE, PEORIA, AZ, 85381",618491994,"L"
182538,"14389 BRAMELL","DETROIT","MI",48223,42.3914994890001,-83.2645201409999,38,"14389 BRAMELL, DETROIT, MI, 48223","Match","Exact","14389 BRAMELL, DETROIT, MI, 48223",95503040,"L"
182539,"14389 EAST COUNTY LINE ROAD","LONGMONT","CO",80504,40.23201572,-105.055089428,39,"14389 EAST COUNTY LINE ROAD, LONGMONT, CO, 80504","Match","Exact","14389 E COUNTY LINE RD, LONGMONT, CO, 80504",651758773,"R"
182540,"14389 EMERALD POOL DRIVE","CENTREVILLE","VA",20120,38.859170729,-77.4401610469999,40,"14389 EMERALD POOL DRIVE, CENTREVILLE, VA, 20120","Match","Non_Exact","14389 EMERALD POOL CT, CENTREVILLE, VA, 20120",76010844,"R"
182541,"14389 STATE ROUTE 56 WEST","MOUNT STERLING","OH",43143,NA,NA,41,"14389 STATE ROUTE 56 WEST, MOUNT STERLING, OH, 43143","Tie",NA,NA,NA,NA
182542,"1438N 1725W","LYTON","UT",84041,NA,NA,42,"1438N 1725W, LYTON, UT, 84041","No_Match",NA,NA,NA,NA
182543,"1439 5TH AVENUE","BAY SHORE","NY",11706,40.7447079080001,-73.263979247,43,"1439 5TH AVENUE, BAY SHORE, NY, 11706","Match","Exact","1439 5TH AVE, BAY SHORE, NY, 11706",113995564,"L"
182544,"1439 5TH STREET NE","WADENA","MN",56482,46.451464141,-95.117313738,44,"1439 5TH STREET NE, WADENA, MN, 56482","Match","Exact","1439 5TH ST NE, WADENA, MN, 56482",651632173,"R"
182545,"1439 9TH STREET SUITE B","SANTA MONICA","CA",90401,34.019391582,-118.489416028,45,"1439 9TH STREET SUITE B, SANTA MONICA, CA, 90401","Match","Exact","1439 9TH ST, SANTA MONICA, CA, 90401",142716006,"L"
182546,"1439 A STREET SE","WASHINGTON","DC",20003,38.888666443,-76.984753296,46,"1439 A STREET SE, WASHINGTON, DC, 20003","Match","Exact","1439 A ST SE, WASHINGTON, DC, 20003",76230404,"R"
182547,"1439 ALBANY AVENUE","BROOKLYN","NY",11203,40.6381532300001,-73.9376330539999,47,"1439 ALBANY AVENUE, BROOKLYN, NY, 11203","Match","Exact","1439 ALBANY AVE, BROOKLYN, NY, 11203",59082068,"L"
182548,"1439 ANACOSTIA AVE","WASHINGTON","DC",20019,38.908992918,-76.942008372,48,"1439 ANACOSTIA AVE, WASHINGTON, DC, 20019","Match","Non_Exact","1439 ANACOSTIA AVE NE, WASHINGTON, DC, 20019",641520500,"R"
182549,"1439 ARSENALE AVENUE","UNION","NJ",7083,NA,NA,49,"1439 ARSENALE AVENUE, UNION, NJ, 7083","No_Match",NA,NA,NA,NA
182550,"1439 ARSENALE TERRACE","UNION","NJ",7083,NA,NA,50,"1439 ARSENALE TERRACE, UNION, NJ, 7083","No_Match",NA,NA,NA,NA
182551,"1439 AUSTIN ST","SPRINGDALE","AR",72762,36.173176471,-94.171927069,51,"1439 AUSTIN ST, SPRINGDALE, AR, 72762","Match","Exact","1439 AUSTIN ST, SPRINGDALE, AR, 72762",49061761,"L"
182552,"1439 AVENIDA DES LES AMERICA","SANTA FE","NM",87507,35.6473265760001,-106.002791849,52,"1439 AVENIDA DES LES AMERICA, SANTA FE, NM, 87507","Match","Non_Exact","1439 AVE DE LAS AMERICA, SANTA FE, NM, 87507",638143692,"L"
182553,"1439 BIG BEND DR","PLANO","TX",75023,33.048302409,-96.71922433,53,"1439 BIG BEND DR, PLANO, TX, 75023","Match","Exact","1439 BIG BEND DR, PLANO, TX, 75023",123487668,"R"
182554,"1439 BOXWOOD DRIVE","BLACKWOOD","NJ",8012,39.8228256670001,-75.064026322,54,"1439 BOXWOOD DRIVE, BLACKWOOD, NJ, 8012","Match","Exact","1439 BOXWOOD DR, BLACKWOOD, NJ, 08012",134352895,"R"
182555,"1439 BRIDLE ROAD","WEBSTER GROVES","MO",63119,38.568784377,-90.368028747,55,"1439 BRIDLE ROAD, WEBSTER GROVES, MO, 63119","Match","Exact","1439 BRIDLE RD, WEBSTER GROVES, MO, 63119",100140582,"R"
182556,"1439 BRIGADE CIRCLE","INDIANAPOLIS","IN",46234,39.7849937,-86.3306709129999,56,"1439 BRIGADE CIRCLE, INDIANAPOLIS, IN, 46234","Match","Exact","1439 BRIGADE CIR, INDIANAPOLIS, IN, 46234",89236469,"L"
182557,"1439 BUFFALO ROAD","ROCHESTER","NY",14624,43.149893037,-77.6894097109999,57,"1439 BUFFALO ROAD, ROCHESTER, NY, 14624","Match","Exact","1439 BUFFALO RD, ROCHESTER, NY, 14624",14530688,"L"
182558,"1439 CALAVERITAS ROAD","SAN  ANDREAS","CA",95249,38.186040545,-120.659241693,58,"1439 CALAVERITAS ROAD, SAN  ANDREAS, CA, 95249","Match","Exact","1439 CALAVERITAS RD, SAN ANDREAS, CA, 95249",624062561,"R"
182559,"1439 CAPUCHINO AVENUE","BRULINGAME","CA",94010,37.5882488840001,-122.37133675,59,"1439 CAPUCHINO AVENUE, BRULINGAME, CA, 94010","Match","Non_Exact","1439 CAPUCHINO AVE, BURLINGAME, CA, 94010",192375338,"L"
182560,"1439 CERRITOS AVENUE","LONG BEACH","CA",90813,33.7857770190001,-118.177990762,60,"1439 CERRITOS AVENUE, LONG BEACH, CA, 90813","Match","Exact","1439 CERRITOS AVE, LONG BEACH, CA, 90813",141694559,"L"
182561,"1439 CHARBONETT ST","NEW ORLEANS","LA",70115,29.9641726610001,-90.012808079,61,"1439 CHARBONETT ST, NEW ORLEANS, LA, 70115","Match","Non_Exact","1439 CHARBONNET ST, NEW ORLEANS, LA, 70117",191718523,"R"
182562,"1439 CHINOOK COURT UNIT B","SAN FRANCISCO","CA",94130,37.8239300270001,-122.374382277,62,"1439 CHINOOK COURT UNIT B, SAN FRANCISCO, CA, 94130","Match","Exact","1439 CHINOOK CT, SAN FRANCISCO, CA, 94130",638563295,"L"
182563,"1439 CHINOOK COURT UNIT E","SAN FRANCISCO","CA",94130,37.8239300270001,-122.374382277,63,"1439 CHINOOK COURT UNIT E, SAN FRANCISCO, CA, 94130","Match","Exact","1439 CHINOOK CT, SAN FRANCISCO, CA, 94130",638563295,"L"
182564,"1439 CLENDENIN","RIVERWOODS","IL",60015,42.1794496910001,-87.8906021769999,64,"1439 CLENDENIN, RIVERWOODS, IL, 60015","Match","Non_Exact","1439 CLENDENIN LN, RIVERWOODS, IL, 60015",119732586,"R"
182565,"1439 COLONIAL RD","HARRISBURG","PA",17112,40.3202668230001,-76.823603847,65,"1439 COLONIAL RD, HARRISBURG, PA, 17112","Match","Exact","1439 COLONIAL RD, HARRISBURG, PA, 17112",608438075,"R"
182566,"1439 COLONIAL RD","HARRISUBRG","PA",17112,40.3202668230001,-76.823603847,66,"1439 COLONIAL RD, HARRISUBRG, PA, 17112","Match","Non_Exact","1439 COLONIAL RD, HARRISBURG, PA, 17112",608438075,"R"
182567,"1439 COUNTY ROAD 318","CLEVELAND","TX",77327,30.3198959220001,-95.063909909,67,"1439 COUNTY ROAD 318, CLEVELAND, TX, 77327","Match","Exact","1439 CO RD 318, CLEVELAND, TX, 77327",635407501,"L"
182568,"1439 CR 24","CHILDRESS","TX",79201,34.4997395720001,-100.53349336,68,"1439 CR 24, CHILDRESS, TX, 79201","Match","Exact","1439 CO RD 24, CHILDRESS, TX, 79201",164764455,"L"
182569,"1439 DURAND COURT SOUTHEAST","ROCHESTER","MN",55904,44.0173716050001,-92.443413812,69,"1439 DURAND COURT SOUTHEAST, ROCHESTER, MN, 55904","Match","Exact","1439 DURAND CT SE, ROCHESTER, MN, 55904",30553922,"L"
182570,"1439 E 3RD AVE","MONMOUTH","IL",61462,NA,NA,70,"1439 E 3RD AVE, MONMOUTH, IL, 61462","Tie",NA,NA,NA,NA
182571,"1439 E 71ST ST","TULSA","OK",74136,36.0607152590001,-95.970754201,71,"1439 E 71ST ST, TULSA, OK, 74136","Match","Exact","1439 E 71ST ST, TULSA, OK, 74136",166467155,"L"
182572,"1439 E HOLLYWOOD AVE","SALT LAKE CITY","UT",84105,40.727491876,-111.849680485,72,"1439 E HOLLYWOOD AVE, SALT LAKE CITY, UT, 84105","Match","Exact","1439 HOLLYWOOD AVE, SALT LAKE CITY, UT, 84105",176081205,"L"
182573,"1439 E PLYMOUTH RD","GREENWICH","OH",44837,NA,NA,73,"1439 E PLYMOUTH RD, GREENWICH, OH, 44837","No_Match",NA,NA,NA,NA
182574,"1439 E RIVERSIDE DR","ONTARIO","CA",91761,34.019547812,-117.622163315,74,"1439 E RIVERSIDE DR, ONTARIO, CA, 91761","Match","Exact","1439 E RIVERSIDE DR, ONTARIO, CA, 91761",144637117,"L"
182575,"1439 EAST 7TH ST APT 10","ST PAUL","MN",55106,44.9667149210001,-93.039780084,75,"1439 EAST 7TH ST APT 10, ST PAUL, MN, 55106","Match","Exact","1439 E 7TH ST, SAINT PAUL, MN, 55106",97660400,"L"
182576,"1439 EASTWOOD ST","BISMARCK","ND",58504,46.7887842700001,-100.795443579,76,"1439 EASTWOOD ST, BISMARCK, ND, 58504","Match","Exact","1439 EASTWOOD ST, BISMARCK, ND, 58504",198865965,"L"
182577,"1439 EDMUNDTON DR","GROSSE POINTE WOODS","MI",48236,42.44954847,-82.895749709,77,"1439 EDMUNDTON DR, GROSSE POINTE WOODS, MI, 48236","Match","Exact","1439 EDMUNDTON DR, GROSSE POINTE WOODS, MI, 48236",95486471,"L"
182578,"1439 EDMUNDTON DRIVE","GROSSE POINTE WOODS","MI",48236,42.44954847,-82.895749709,78,"1439 EDMUNDTON DRIVE, GROSSE POINTE WOODS, MI, 48236","Match","Exact","1439 EDMUNDTON DR, GROSSE POINTE WOODS, MI, 48236",95486471,"L"
182579,"1439 ENGLAND DR","ALEXANDRIA","LA",71303,NA,NA,79,"1439 ENGLAND DR, ALEXANDRIA, LA, 71303","No_Match",NA,NA,NA,NA
182580,"1439 ENGLISH DR","MECHANICSBURG","PA",17055,40.187581725,-76.989143687,80,"1439 ENGLISH DR, MECHANICSBURG, PA, 17055","Match","Exact","1439 ENGLISH DR, MECHANICSBURG, PA, 17055",635733638,"L"
182581,"1439 FAIRBANKS ST SW","ATLANTA","GA",30310,33.715601033,-84.415088235,81,"1439 FAIRBANKS ST SW, ATLANTA, GA, 30310","Match","Exact","1439 FAIRBANKS ST SW, ATLANTA, GA, 30310",17345432,"R"
182582,"1439 FIELD CREEK TERRACE","LAWRENCEVILLE","GA",30043,33.9774225040001,-84.031908771,82,"1439 FIELD CREEK TERRACE, LAWRENCEVILLE, GA, 30043","Match","Exact","1439 FIELD CREEK TER, LAWRENCEVILLE, GA, 30043",88905812,"L"
182583,"1439 GARY ST","KLAMATH FALLS","OR",97603,42.2163136360001,-121.733981991,83,"1439 GARY ST, KLAMATH FALLS, OR, 97603","Match","Exact","1439 GARY ST, KLAMATH FALLS, OR, 97603",156659754,"R"
182584,"1439 GIPSON STREET","FAR ROCKAWAY","NY",11691,NA,NA,84,"1439 GIPSON STREET, FAR ROCKAWAY, NY, 11691","No_Match",NA,NA,NA,NA
182585,"1439 GREENLEAF LN","WOODRUFF","WI",54568,NA,NA,85,"1439 GREENLEAF LN, WOODRUFF, WI, 54568","No_Match",NA,NA,NA,NA
182586,"1439 HIAWATHA AVENUE","HILLSIDE","NJ",7205,40.7031281050001,-74.2298271889999,86,"1439 HIAWATHA AVENUE, HILLSIDE, NJ, 7205","Match","Exact","1439 HIAWATHA AVE, HILLSIDE, NJ, 07205",60577393,"R"
182587,"1439 HIAWATHA","HILLSIDE","NJ",7205,40.7031281050001,-74.2298271889999,87,"1439 HIAWATHA, HILLSIDE, NJ, 7205","Match","Non_Exact","1439 HIAWATHA AVE, HILLSIDE, NJ, 07205",60577393,"R"
182588,"1439 HWY 133","OMAHA","NE",68142,41.398971918,-96.0984370739999,88,"1439 HWY 133, OMAHA, NE, 68142","Match","Non_Exact","1439 STATE HWY 133, OMAHA, NE, 68142",649976355,"L"
182589,"1439 IVY AVENUE EAST","SAINT PAUL","MN",55106,NA,NA,89,"1439 IVY AVENUE EAST, SAINT PAUL, MN, 55106","No_Match",NA,NA,NA,NA
182590,"1439 KENTFIELD AVENUE APT 11","REDWOOD CITY","CA",94061,37.466881114,-122.230823157,90,"1439 KENTFIELD AVENUE APT 11, REDWOOD CITY, CA, 94061","Match","Exact","1439 KENTFIELD AVE, REDWOOD CITY, CA, 94061",192389299,"L"
182591,"1439 KINGS MANOR DR","MITCHELLVILLE","MD",20721,38.9087606200001,-76.787852164,91,"1439 KINGS MANOR DR, MITCHELLVILLE, MD, 20721","Match","Exact","1439 KINGS MANOR DR, MITCHELLVILLE, MD, 20721",76342086,"R"
182592,"1439 KYNLYN DR","WILMINGTON","DE",19809,39.762923868,-75.4896661449999,92,"1439 KYNLYN DR, WILMINGTON, DE, 19809","Match","Exact","1439 KYNLYN DR, WILMINGTON, DE, 19809",187262071,"L"
182593,"1439 MAIN STREET","RUDOLPH","WI",54475,44.4960434860001,-89.795065657,93,"1439 MAIN STREET, RUDOLPH, WI, 54475","Match","Exact","1439 MAIN ST, RUDOLPH, WI, 54475",625294616,"R"
182594,"1439 METROPOLITAN AVENUE","BRONX","NY",10462,40.8362086430001,-73.8609942699999,94,"1439 METROPOLITAN AVENUE, BRONX, NY, 10462","Match","Exact","1439 METROPOLITAN AVE, BRONX, NY, 10462",80304755,"L"
182595,"1439 N CELESTINE ROAD N","CELESTINE","IN",47521,NA,NA,95,"1439 N CELESTINE ROAD N, CELESTINE, IN, 47521","No_Match",NA,NA,NA,NA
182596,"1439 N HIGHLAND AVE 263","HOLLYWOOD","CA",90028,34.097196463,-118.338653883,96,"1439 N HIGHLAND AVE 263, HOLLYWOOD, CA, 90028","Match","Non_Exact","1439 N HIGHLAND AVE, HOLLYWOOD, CA, 90028",141599470,"L"
182597,"1439 N HIGHLAND AVE SUITE 1014","LOS ANGELES","CA",90028,34.097196463,-118.338653883,97,"1439 N HIGHLAND AVE SUITE 1014, LOS ANGELES, CA, 90028","Match","Non_Exact","1439 N HIGHLAND AVE, LOS ANGELES, CA, 90028",141599470,"L"
182598,"1439 N HIGHLAND AVE SUITE 1014","LOS ANGELES","OH",90028,NA,NA,98,"1439 N HIGHLAND AVE SUITE 1014, LOS ANGELES, OH, 90028","No_Match",NA,NA,NA,NA
182599,"1439 N MENARD AVE","CHICAGO","IL",60651,41.9064418780001,-87.770646567,99,"1439 N MENARD AVE, CHICAGO, IL, 60651","Match","Exact","1439 N MENARD AVE, CHICAGO, IL, 60651",111753383,"R"
182600,"1439 N MENARD","CHICAGO","IL",60651,41.9064418780001,-87.770646567,100,"1439 N MENARD, CHICAGO, IL, 60651","Match","Non_Exact","1439 N MENARD AVE, CHICAGO, IL, 60651",111753383,"R"
182601,"1439 N POINSETTIA PL PH 4","LOS ANGELES","CA",90046,34.0968012430001,-118.348342796,101,"1439 N POINSETTIA PL PH 4, LOS ANGELES, CA, 90046","Match","Non_Exact","1439 N POINSETTIA PL, LOS ANGELES, CA, 90046",642864230,"L"
182602,"1439 NELMS","CENTRALIA","IL",62801,38.51160852,-89.1247671309999,102,"1439 NELMS, CENTRALIA, IL, 62801","Match","Non_Exact","1439 NELMS AVE, CENTRALIA, IL, 62801",93048808,"R"
182603,"1439 NEW ENGLAND DRIVE","ROSEVILLE","CA",95661,38.7203616210001,-121.268663344,103,"1439 NEW ENGLAND DRIVE, ROSEVILLE, CA, 95661","Match","Exact","1439 NEW ENGLAND DR, ROSEVILLE, CA, 95661",608089087,"L"
182604,"1439 NIGHTINGLE RD APT 2","LOUISVILLE","KY",40213,38.2066200530001,-85.718320548,104,"1439 NIGHTINGLE RD APT 2, LOUISVILLE, KY, 40213","Match","Non_Exact","1439 NIGHTINGALE RD, LOUISVILLE, KY, 40213",640117902,"L"
182605,"1439 NW 58TH TER","MIAMI","FL",33142,25.8289328700001,-80.2214844119999,105,"1439 NW 58TH TER, MIAMI, FL, 33142","Match","Exact","1439 NW 58TH TER, MIAMI, FL, 33142",116004979,"R"
182606,"1439 PACIFIC ST","BROOKLYN","NY",11216,40.67733845,-73.943859464,106,"1439 PACIFIC ST, BROOKLYN, NY, 11216","Match","Exact","1439 PACIFIC ST, BROOKLYN, NY, 11216",642653855,"L"
182607,"1439 PARK STREET","ORANGEBURG","SC",29115,33.498809393,-80.868111308,107,"1439 PARK STREET, ORANGEBURG, SC, 29115","Match","Exact","1439 PARK ST, ORANGEBURG, SC, 29115",19218971,"L"
182608,"1439 PEACH FESTIVAL ROAD","GILBERT","SC",29054,33.95884268,-81.401086757,108,"1439 PEACH FESTIVAL ROAD, GILBERT, SC, 29054","Match","Exact","1439 PEACH FESTIVAL RD, GILBERT, SC, 29054",632191017,"L"
182609,"1439 PUMPHOUSE ROAD","NEW FLORENCE","PA",15944,40.4152452390001,-79.0512465799999,109,"1439 PUMPHOUSE ROAD, NEW FLORENCE, PA, 15944","Match","Exact","1439 PUMPHOUSE RD, NEW FLORENCE, PA, 15944",66297566,"L"
182610,"1439 ROSELY ROAD","ST MARYS","PA",15857,41.427946476,-78.5094420679999,110,"1439 ROSELY ROAD, ST MARYS, PA, 15857","Match","Exact","1439 ROSELY RD, SAINT MARYS, PA, 15857",640411523,"R"
182611,"1439 ROUTE 212","SAUGERTIES","NY",12477,42.061679027,-74.056587131,111,"1439 ROUTE 212, SAUGERTIES, NY, 12477","Match","Non_Exact","1439 STATE RTE 212, SAUGERTIES, NY, 12477",640423572,"R"
182612,"1439 SAGRAVES DR","VANDALIA","OH",45377,39.8712954760001,-84.183981929,112,"1439 SAGRAVES DR, VANDALIA, OH, 45377","Match","Exact","1439 SAGRAVES DR, VANDALIA, OH, 45377",143628241,"L"
182613,"1439 SAINT NICHOLAS AVE","CHRISTMAS","FL",32709,28.5266484210001,-80.987244269,113,"1439 SAINT NICHOLAS AVE, CHRISTMAS, FL, 32709","Match","Exact","1439 SAINT NICHOLAS AVE, CHRISTMAS, FL, 32709",645600385,"L"
182614,"1439 SEDONA DRIVE","CORDOVA","TN",38016,35.164632216,-89.7301942719999,114,"1439 SEDONA DRIVE, CORDOVA, TN, 38016","Match","Exact","1439 SEDONA DR, CORDOVA, TN, 38016",611803870,"R"
182615,"1439 SEXTON RIDGE DRIVE","FUQUAY VARINA","NC",27526,35.6051402420001,-78.753917112,115,"1439 SEXTON RIDGE DRIVE, FUQUAY VARINA, NC, 27526","Match","Exact","1439 SEXTON RIDGE DR, FUQUAY VARINA, NC, 27526",612819252,"L"
182616,"1439 SHAWNEE WAY","SALINAS","CA",93906,36.7074952770001,-121.664075544,116,"1439 SHAWNEE WAY, SALINAS, CA, 93906","Match","Exact","1439 SHAWNEE WAY, SALINAS, CA, 93906",196819129,"L"
182617,"1439 SLATER DR","SOUTH BEND","IN",46614,41.604015249,-86.270143777,117,"1439 SLATER DR, SOUTH BEND, IN, 46614","Match","Non_Exact","1439 W SLATER DR, SOUTH BEND, IN, 46614",633858291,"R"
182618,"1439 SOUTH 13TH STREET","PHILADELPHIA","PA",19147,39.9317750610001,-75.165886415,118,"1439 SOUTH 13TH STREET, PHILADELPHIA, PA, 19147","Match","Exact","1439 S 13TH ST, PHILADELPHIA, PA, 19147",131411912,"L"
182619,"1439 SOUTH BROOK STREET","LOUISVILLE","KY",40208,38.2270677930001,-85.754968933,119,"1439 SOUTH BROOK STREET, LOUISVILLE, KY, 40208","Match","Exact","1439 S BROOK ST, LOUISVILLE, KY, 40208",640119146,"L"
182620,"1439 ST GOTTHARD","ANCHORAGE","AK",99508,61.1848471810001,-149.855420912,120,"1439 ST GOTTHARD, ANCHORAGE, AK, 99508","Match","Non_Exact","1439 SAINT GOTTHARD AVE, ANCHORAGE, AK, 99508",190799069,"L"
182621,"1439 STARLING COURT","HAMPTON","GA",30228,33.4677694700001,-84.34416794,121,"1439 STARLING COURT, HAMPTON, GA, 30228","Match","Exact","1439 STARLING CT, HAMPTON, GA, 30228",23329022,"R"
182622,"1439 T STREET NW APT 204","WASHINGTON","DC",20009,38.9155784930001,-77.033382861,122,"1439 T STREET NW APT 204, WASHINGTON, DC, 20009","Match","Exact","1439 T ST NW, WASHINGTON, DC, 20009",640263813,"R"
182623,"1439 TROUT BROOK STREET","YORKTOWN HEIGHTS","NY",10598,41.255860612,-73.782147058,123,"1439 TROUT BROOK STREET, YORKTOWN HEIGHTS, NY, 10598","Match","Non_Exact","1439 TROUT BROOK DR, YORKTOWN HEIGHTS, NY, 10598",139728837,"R"
182624,"1439 TWIN RIVERS BLVD","OVIEDO","FL",32766,28.645729465,-81.1574836029999,124,"1439 TWIN RIVERS BLVD, OVIEDO, FL, 32766","Match","Exact","1439 TWIN RIVERS BLVD, OVIEDO, FL, 32766",93765699,"R"
182625,"1439 VICTORIA ISLE DRIVE","WESTON","FL",33327,26.1122449710001,-80.4043663689999,125,"1439 VICTORIA ISLE DRIVE, WESTON, FL, 33327","Match","Exact","1439 VICTORIA ISLE DR, WESTON, FL, 33327",114814439,"L"
182626,"1439 W 14TH ST","JACKSONVILLE","FL",32209,30.352066306,-81.678512381,126,"1439 W 14TH ST, JACKSONVILLE, FL, 32209","Match","Exact","1439 W 14TH ST, JACKSONVILLE, FL, 32209",83895307,"R"
182627,"1439 W 83RD ST","LOS ANGELES","CA",90047,33.963666543,-118.301337178,127,"1439 W 83RD ST, LOS ANGELES, CA, 90047","Match","Exact","1439 W 83RD ST, LOS ANGELES, CA, 90047",652037527,"R"
182628,"1439 W BELMONT AVE","CHICAGO","IL",60657,41.9397459190001,-87.664691654,128,"1439 W BELMONT AVE, CHICAGO, IL, 60657","Match","Exact","1439 W BELMONT AVE, CHICAGO, IL, 60657",605238995,"L"
182629,"1439 W CHAPMAN AVE APT 229","ORANGE","CA",92868,33.7878870000001,-117.866696632,129,"1439 W CHAPMAN AVE APT 229, ORANGE, CA, 92868","Match","Non_Exact","1439 W CHAPMAN AVE, ORANGE, CA, 92868",144041274,"R"
182630,"1439 W CHAPMAN AVENUE","ORANGE","CA",92868,33.7878870000001,-117.866696632,130,"1439 W CHAPMAN AVENUE, ORANGE, CA, 92868","Match","Exact","1439 W CHAPMAN AVE, ORANGE, CA, 92868",144041274,"R"
182631,"1439 W NORTH SHORE AVE","CHICAGO","IL",60626,42.0035989470001,-87.6670173269999,131,"1439 W NORTH SHORE AVE, CHICAGO, IL, 60626","Match","Exact","1439 W NORTH SHORE AVE, CHICAGO, IL, 60626",605171087,"L"
182632,"1439 W WELLINGTON AVE","CHICAGO","IL",60657,41.9360913620001,-87.6652585579999,132,"1439 W WELLINGTON AVE, CHICAGO, IL, 60657","Match","Exact","1439 W WELLINGTON AVE, CHICAGO, IL, 60657",605234294,"L"
182633,"1439 WEST 105TH STREET","CHICAGO","IL",60643,41.703115101,-87.658528857,133,"1439 WEST 105TH STREET, CHICAGO, IL, 60643","Match","Exact","1439 W 105TH ST, CHICAGO, IL, 60643",604992598,"L"
182634,"1439 WEST ESTATE DRIVE","BLOOMINGTON","IN",47403,39.119180182,-86.547983625,134,"1439 WEST ESTATE DRIVE, BLOOMINGTON, IN, 47403","Match","Exact","1439 W ESTATE DR, BLOOMINGTON, IN, 47403",645556496,"L"
182635,"1439 WESTERN AVENUE","ALBANY","NY",12203,42.6799819920001,-73.834143734,135,"1439 WESTERN AVENUE, ALBANY, NY, 12203","Match","Exact","1439 WESTERN AVE, ALBANY, NY, 12203",18304333,"R"
182636,"1439 WOLF COURT","SALINAS","CA",93905,36.689754679,-121.597621256,136,"1439 WOLF COURT, SALINAS, CA, 93905","Match","Exact","1439 WOLF CT, SALINAS, CA, 93905",196851759,"L"
182637,"1439 WOOD ROAD APT 8E","BRONX","NY",10462,40.8364846200001,-73.8623192169999,137,"1439 WOOD ROAD APT 8E, BRONX, NY, 10462","Match","Exact","1439 WOOD RD, BRONX, NY, 10462",612224019,"R"
182638,"14390 EMERALD POOL DRIVE","CENTREVILLE","VA",20120,38.859182882,-77.440155679,138,"14390 EMERALD POOL DRIVE, CENTREVILLE, VA, 20120","Match","Non_Exact","14390 EMERALD POOL CT, CENTREVILLE, VA, 20120",76010844,"L"
182639,"14390 N BOWMAN RD","TUCSON","AZ",85739,32.4669017300001,-110.910190516,139,"14390 N BOWMAN RD, TUCSON, AZ, 85739","Match","Exact","14390 N BOWMAN RD, TUCSON, AZ, 85739",121163814,"R"
182640,"14390 SURRYDALE DR","WOODBRIDGE","VA",22193,38.641026434,-77.3700212369999,140,"14390 SURRYDALE DR, WOODBRIDGE, VA, 22193","Match","Exact","14390 SURRYDALE DR, WOODBRIDGE, VA, 22193",76508184,"L"
182641,"14390 W 30TH AVE","GOLDEN","CO",80401,39.759447933,-105.160768476,141,"14390 W 30TH AVE, GOLDEN, CO, 80401","Match","Exact","14390 W 30TH AVE, GOLDEN, CO, 80401",177285421,"L"
182642,"14390SURRYDALE DR","WOODBRIDGE","VA",22193,NA,NA,142,"14390SURRYDALE DR, WOODBRIDGE, VA, 22193","No_Match",NA,NA,NA,NA
182643,"14391 GIBRALTAR AVE","IRVINE","CA",92606,33.7105015770001,-117.79262602,143,"14391 GIBRALTAR AVE, IRVINE, CA, 92606","Match","Exact","14391 GIBRALTAR AVE, IRVINE, CA, 92606",144057193,"R"
182644,"14391 LOGGING CREEK ROAD","GRANTSBURG","WI",54840,45.6756172070001,-92.724192725,144,"14391 LOGGING CREEK ROAD, GRANTSBURG, WI, 54840","Match","Exact","14391 LOGGING CREEK RD, GRANTSBURG, WI, 54840",167463992,"L"
182645,"14391 SPRING HILL DR STE 417","SPRING HILL","FL",34609,28.4776503570001,-82.488065305,145,"14391 SPRING HILL DR STE 417, SPRING HILL, FL, 34609","Match","Exact","14391 SPRING HILL DR, SPRING HILL, FL, 34609",85447295,"R"
182646,"14391 SPRING HILL DRIVE 422","SPRING HILL","FL",34609,28.4776503570001,-82.488065305,146,"14391 SPRING HILL DRIVE 422, SPRING HILL, FL, 34609","Match","Exact","14391 SPRING HILL DR, SPRING HILL, FL, 34609",85447295,"R"
182647,"14391 SPRING HILL DRIVE STE 440","SPRING HILL","FL",34609,28.4776503570001,-82.488065305,147,"14391 SPRING HILL DRIVE STE 440, SPRING HILL, FL, 34609","Match","Exact","14391 SPRING HILL DR, SPRING HILL, FL, 34609",85447295,"R"
182648,"14391 WARWICK","DETROIT","MI",48223,42.392359588,-83.2286309739999,148,"14391 WARWICK, DETROIT, MI, 48223","Match","Non_Exact","14391 WARWICK ST, DETROIT, MI, 48223",95422507,"L"
182649,"14392 CLUB CIR","MILTON","GA",30004,34.138445527,-84.269451625,149,"14392 CLUB CIR, MILTON, GA, 30004","Match","Exact","14392 CLUB CIR, MILTON, GA, 30004",17394477,"R"
182650,"14392 ROLLING ROCK PL","WELLINGTON","FL",33414,26.6487854550001,-80.277752098,150,"14392 ROLLING ROCK PL, WELLINGTON, FL, 33414","Match","Non_Exact","14392 ROLLING ROCK TRL, WELLINGTON, FL, 33414",115252742,"L"
182651,"14392 THOMPSON BLVD","BROOK PARK","OH",44142,41.4030513330001,-81.794769015,151,"14392 THOMPSON BLVD, BROOK PARK, OH, 44142","Match","Exact","14392 THOMPSON BLVD, BROOK PARK, OH, 44142",61103857,"R"
182652,"14393 JARED COURT","BROOMFIELD","CO",80023,39.957365592,-105.026599322,152,"14393 JARED COURT, BROOMFIELD, CO, 80023","Match","Exact","14393 JARED CT, BROOMFIELD, CO, 80023",210039050,"R"
182653,"14393 NW GREENWOOD DR","PORTLAND","OR",97229,45.5611849690001,-122.82489908,153,"14393 NW GREENWOOD DR, PORTLAND, OR, 97229","Match","Exact","14393 NW GREENWOOD DR, PORTLAND, OR, 97229",158225879,"L"
182654,"14393 WAYFIELD LN","STANFIELD","NC",28163,35.234623739,-80.387581035,154,"14393 WAYFIELD LN, STANFIELD, NC, 28163","Match","Non_Exact","14393 WAYFIELD DR, STANFIELD, NC, 28163",14093133,"R"
182655,"14394 EAST CARROLL BLVD","UNIVERSITY HEIGHTS","OH",44118,41.4920942260001,-81.5216088449999,155,"14394 EAST CARROLL BLVD, UNIVERSITY HEIGHTS, OH, 44118","Match","Exact","14394 E CARROLL BLVD, UNIVERSITY HEIGHTS, OH, 44118",61126012,"R"
182656,"14394 FAUST AVENUE","DETROIT","MI",48223,42.392535416,-83.222561792,156,"14394 FAUST AVENUE, DETROIT, MI, 48223","Match","Exact","14394 FAUST AVE, DETROIT, MI, 48223",95423415,"R"
182657,"14394 HORNBROOK RD","HORNBROOK","CA",96044,NA,NA,157,"14394 HORNBROOK RD, HORNBROOK, CA, 96044","No_Match",NA,NA,NA,NA
182658,"14394 MARSALA WAY","NAPLES","FL",34109,26.2474929140001,-81.746561968,158,"14394 MARSALA WAY, NAPLES, FL, 34109","Match","Exact","14394 MARSALA WAY, NAPLES, FL, 34109",619142455,"L"
182659,"14394 SW 37TH STREET","MIAMI","FL",33175,25.733119689,-80.427075111,159,"14394 SW 37TH STREET, MIAMI, FL, 33175","Match","Exact","14394 SW 37TH ST, MIAMI, FL, 33175",116068384,"L"
182660,"14394 TEMPLE LANE","CULPEPER","VA",22701,38.5257277960001,-77.9804219439999,160,"14394 TEMPLE LANE, CULPEPER, VA, 22701","Match","Exact","14394 TEMPLE LN, CULPEPER, VA, 22701",225079094,"L"
182661,"14395 AMBROSE ST","LAKE ELSINORE","CA",92531,NA,NA,161,"14395 AMBROSE ST, LAKE ELSINORE, CA, 92531","No_Match",NA,NA,NA,NA
182662,"14395 BERRY RD","GOLDEN","CO",80401,39.7573548060001,-105.160415825,162,"14395 BERRY RD, GOLDEN, CO, 80401","Match","Exact","14395 BERRY RD, GOLDEN, CO, 80401",177285426,"R"
182663,"14395 BERRY ROAD","GOLDEN","CO",80401,39.7573548060001,-105.160415825,163,"14395 BERRY ROAD, GOLDEN, CO, 80401","Match","Exact","14395 BERRY RD, GOLDEN, CO, 80401",177285426,"R"
182664,"14395 FERN DELL LANE","LAPINE","OR",97739,NA,NA,164,"14395 FERN DELL LANE, LAPINE, OR, 97739","No_Match",NA,NA,NA,NA
182665,"14395 SLATEMORE COURT","HAYMARKET","VA",20169,38.816835401,-77.6264864249999,165,"14395 SLATEMORE COURT, HAYMARKET, VA, 20169","Match","Exact","14395 SLATEMORE CT, HAYMARKET, VA, 20169",616804327,"R"
182666,"14395 TAWNEY RIDGE LN","VICTORVILLE","CA",92394,34.535762515,-117.350289076,166,"14395 TAWNEY RIDGE LN, VICTORVILLE, CA, 92394","Match","Exact","14395 TAWNEY RIDGE LN, VICTORVILLE, CA, 92394",614863582,"L"
182667,"14395 W CORONADO RD","GOODYEAR","AZ",85395,33.467020432,-112.36797127,167,"14395 W CORONADO RD, GOODYEAR, AZ, 85395","Match","Exact","14395 W CORONADO RD, GOODYEAR, AZ, 85395",638560826,"L"
182668,"14396 BISHOP WOODS RD","GONZALES","LA",70737,30.281814045,-90.958091742,168,"14396 BISHOP WOODS RD, GONZALES, LA, 70737","Match","Exact","14396 BISHOP WOODS RD, GONZALES, LA, 70737",115023279,"R"
182669,"14397 AVIAN WAY","CARMEL","IN",46033,39.992270236,-86.0728628909999,169,"14397 AVIAN WAY, CARMEL, IN, 46033","Match","Exact","14397 AVIAN WAY, CARMEL, IN, 46033",29313567,"R"
182670,"14397 MANGROVE STREET","MOORPARK","CA",93021,34.2706351940001,-118.86051899,170,"14397 MANGROVE STREET, MOORPARK, CA, 93021","Match","Exact","14397 MANGROVE ST, MOORPARK, CA, 93021",110034798,"L"
182671,"14397 SE FRONTIER AVE","CLACKAMAS","OR",97015,45.4185175160001,-122.511817403,171,"14397 SE FRONTIER AVE, CLACKAMAS, OR, 97015","Match","Exact","14397 SE FRONTIER AVE, CLACKAMAS, OR, 97015",157949579,"R"
182672,"14397 W REDWICK DRIVE","BOISE","ID",83713,43.649574919,-116.361899429,172,"14397 W REDWICK DRIVE, BOISE, ID, 83713","Match","Exact","14397 W REDWICK DR, BOISE, ID, 83713",117935240,"L"
182673,"14398 500TH ST","LAKE MILLS","IA",50450,43.487717364,-93.707923691,173,"14398 500TH ST, LAKE MILLS, IA, 50450","Match","Exact","14398 500TH ST, LAKE MILLS, IA, 50450",39492045,"R"
182674,"14398 MARSALA WAY","NAPLES","FL",34109,26.247493164,-81.746583229,174,"14398 MARSALA WAY, NAPLES, FL, 34109","Match","Exact","14398 MARSALA WAY, NAPLES, FL, 34109",619142455,"L"
182675,"14398 NE 110TH AVE RD","FT MCCOY","FL",32134,29.3610061200001,-81.976130889,175,"14398 NE 110TH AVE RD, FT MCCOY, FL, 32134","Match","Non_Exact","14398 NE 110TH AVENUE RD, FORT MC COY, FL, 32134",116700343,"L"
182676,"14398 STATE ROUTE CC","SALEM","MO",65560,37.3503423430001,-91.391919662,176,"14398 STATE ROUTE CC, SALEM, MO, 65560","Match","Exact","14398 STATE RTE CC, SALEM, MO, 65560",651338246,"L"
182677,"14398 STATE ROUTE CC","SALEM","MT",65560,NA,NA,177,"14398 STATE ROUTE CC, SALEM, MT, 65560","No_Match",NA,NA,NA,NA
182678,"14399 CLEVELAND RD SW","PATASKALA","OH",43062,39.998742674,-82.757076298,178,"14399 CLEVELAND RD SW, PATASKALA, OH, 43062","Match","Exact","14399 CLEVELAND RD SW, PATASKALA, OH, 43062",61541638,"R"
182679,"14399 FM 957","SCHULENBURG","TX",78956,29.6258222070001,-96.9668936049999,179,"14399 FM 957, SCHULENBURG, TX, 78956","Match","Exact","14399 FM 957, SCHULENBURG, TX, 78956",649162976,"R"
182680,"1439A 5TH AVENUE","FORT KNOX","KY",40121,37.8992483490001,-85.94845379,180,"1439A 5TH AVENUE, FORT KNOX, KY, 40121","Match","Exact","1439 5TH AVE, FORT KNOX, KY, 40121",34614407,"L"
182681,"143W CENTRAL AVENUE","BERGENFIELD","NJ",7621,40.933242056,-74.001437417,181,"143W CENTRAL AVENUE, BERGENFIELD, NJ, 7621","Match","Non_Exact","143 W CENTRAL AVE, BERGENFIELD, NJ, 07621",64388232,"R"
182682,"144  CROSSMYRD DR","BEAVER FALLS","PA",15010,NA,NA,182,"144  CROSSMYRD DR, BEAVER FALLS, PA, 15010","No_Match",NA,NA,NA,NA
182683,"144 1/2 SPRING STREET APT 2","CAMBRIDGE","MA",2141,42.3695434100001,-71.084861788,183,"144 1/2 SPRING STREET APT 2, CAMBRIDGE, MA, 2141","Match","Exact","144 SPRING ST, CAMBRIDGE, MA, 02141",642578260,"L"
182684,"144 15TH AVE WEST","BIRMINGHAM","AL",35204,33.527124562,-86.838173774,184,"144 15TH AVE WEST, BIRMINGHAM, AL, 35204","Match","Exact","144 15TH AVE W, BIRMINGHAM, AL, 35204",81555121,"R"
182685,"144 17TH STREET APT 5","BROOKLYN","NY",11215,40.6654377260001,-73.994164632,185,"144 17TH STREET APT 5, BROOKLYN, NY, 11215","Match","Exact","144 17TH ST, BROOKLYN, NY, 11215",59075613,"R"
182686,"144 21ST STREET SW","CEDAR RAPIDS","IA",52404,41.96970423,-91.701541924,186,"144 21ST STREET SW, CEDAR RAPIDS, IA, 52404","Match","Exact","144 21ST ST SW, CEDAR RAPIDS, IA, 52404",17024483,"R"
182687,"144 34TH ST","LINDENHURST","NY",11757,40.6896983520001,-73.3840746019999,187,"144 34TH ST, LINDENHURST, NY, 11757","Match","Exact","144 34TH ST, LINDENHURST, NY, 11757",113973732,"R"
182688,"144 3RD STREET SOUTH","NAPLES","FL",34108,26.144780971,-81.803679442,188,"144 3RD STREET SOUTH, NAPLES, FL, 34108","Match","Non_Exact","144 3RD ST S, NAPLES, FL, 34102",115138523,"R"
182689,"144 9TH AVENUE","SAN FRANCISCO","CA",94118,37.7856830320001,-122.467827328,189,"144 9TH AVENUE, SAN FRANCISCO, CA, 94118","Match","Exact","144 9TH AVE, SAN FRANCISCO, CA, 94118",192278955,"L"
182690,"144 ALDRICH ST","ROSLINDALE","LA",2131,NA,NA,190,"144 ALDRICH ST, ROSLINDALE, LA, 2131","No_Match",NA,NA,NA,NA
182691,"144 ALDRICH STREET","ROSLINDALE","MA",2131,42.2822361200001,-71.143800254,191,"144 ALDRICH STREET, ROSLINDALE, MA, 2131","Match","Exact","144 ALDRICH ST, ROSLINDALE, MA, 02131",85702948,"L"
182692,"144 ALLEN RD APT 211","SANDY SPRINGS","GA",30328,33.9135061590001,-84.382291193,192,"144 ALLEN RD APT 211, SANDY SPRINGS, GA, 30328","Match","Non_Exact","144 ALLEN RD NE, SANDY SPRINGS, GA, 30328",17333331,"L"
182693,"144 ANAWAN ROAD","NORH ATTLEBOROUGH","MA",2760,41.9706495470001,-71.343601663,193,"144 ANAWAN ROAD, NORH ATTLEBOROUGH, MA, 2760","Match","Non_Exact","144 ANAWAN RD, NORTH ATTLEBORO, MA, 02760",647359182,"R"
182694,"144 ANDERSON CEMETARY LN","GAINESBORO","TN",38562,36.3127164970001,-85.7124493869999,194,"144 ANDERSON CEMETARY LN, GAINESBORO, TN, 38562","Match","Non_Exact","144 ANDERSON CEMETERY LN, GAINESBORO, TN, 38562",25106812,"L"
182695,"144 ARENA TERRACE","CONCORD","MA",1742,42.4437696300001,-71.352861596,195,"144 ARENA TERRACE, CONCORD, MA, 1742","Match","Exact","144 ARENA TER, CONCORD, MA, 01742",86913563,"R"
182696,"144 ARTHUR AVENUE","SOUTH FLORAL PARK","NY",11001,40.712387463,-73.6986032899999,196,"144 ARTHUR AVENUE, SOUTH FLORAL PARK, NY, 11001","Match","Exact","144 ARTHUR AVE, SOUTH FLORAL PARK, NY, 11001",147666669,"L"
182697,"144 ASH STREET","FLORAL PARK","NY",11001,40.7151994180001,-73.693642344,197,"144 ASH STREET, FLORAL PARK, NY, 11001","Match","Exact","144 ASH ST, FLORAL PARK, NY, 11001",147666736,"R"
182698,"144 ASHAWAY ROAD","BRADFORD","RI",2808,41.411109116,-71.762964433,198,"144 ASHAWAY ROAD, BRADFORD, RI, 2808","Match","Exact","144 ASHAWAY RD, BRADFORD, RI, 02808",58894264,"R"
182699,"144 ASHFORD AVE","JUPITER","FL",33458,26.9088540650001,-80.109470183,199,"144 ASHFORD AVE, JUPITER, FL, 33458","Match","Exact","144 ASHFORD AVE, JUPITER, FL, 33458",625412053,"R"
182700,"144 ASHTON LOOP","LAREDO","TX",78045,27.5826608240001,-99.5232601019999,200,"144 ASHTON LOOP, LAREDO, TX, 78045","Match","Exact","144 ASHTON LOOP, LAREDO, TX, 78045",21678874,"L"
182701,"144 ATLANTA ST","BARNESVILLE","GA",30204,33.0557853940001,-84.157227963,201,"144 ATLANTA ST, BARNESVILLE, GA, 30204","Match","Exact","144 ATLANTA ST, BARNESVILLE, GA, 30204",66647105,"L"
182702,"144 AUGUSTA DR","HONEY BROOK","PA",19344,40.0832573870001,-75.895903443,202,"144 AUGUSTA DR, HONEY BROOK, PA, 19344","Match","Exact","144 AUGUSTA DR, HONEY BROOK, PA, 19344",612876603,"R"
182703,"144 AUGUSTA DRIVE","MEDFORD","NY",11763,40.8439296870001,-72.9651049719999,203,"144 AUGUSTA DRIVE, MEDFORD, NY, 11763","Match","Exact","144 AUGUSTA DR, MEDFORD, NY, 11763",643092163,"L"
182704,"144 AUGUSTINE ISLAND WAY","SAINT AUGUSTINE","FL",32095,30.0306377520001,-81.3848451169999,204,"144 AUGUSTINE ISLAND WAY, SAINT AUGUSTINE, FL, 32095","Match","Non_Exact","144 AUGUSTINE ISLAND DR, SAINT AUGUSTINE, FL, 32095",625035660,"R"
182705,"144 AUTHORS AVENUE","HENRIETTA","NY",14467,43.0518910580001,-77.6269405099999,205,"144 AUTHORS AVENUE, HENRIETTA, NY, 14467","Match","Exact","144 AUTHORS AVE, HENRIETTA, NY, 14467",14535405,"L"
182706,"144 AUTUMN WOODS DRIVE","LACOMBE","LA",70445,30.3327915310001,-89.975937011,206,"144 AUTUMN WOODS DRIVE, LACOMBE, LA, 70445","Match","Exact","144 AUTUMN WOODS DR, LACOMBE, LA, 70445",611482179,"R"
182707,"144 AZALEA LN","MCKINNEY","TX",75069,33.205409661,-96.635579241,207,"144 AZALEA LN, MCKINNEY, TX, 75069","Match","Exact","144 AZALEA LN, MCKINNEY, TX, 75069",123491432,"L"
182708,"144 BARTON ROAD","WHITE SULPHUR SPRING","WV",24986,37.791515777,-80.295096523,208,"144 BARTON ROAD, WHITE SULPHUR SPRING, WV, 24986","Match","Non_Exact","144 BARTON RD, WHT SULPHUR S, WV, 24986",652000767,"R"
182709,"144 BAYMAR","FORT MYERS BEACH","FL",33931,26.4418960410001,-81.926810189,209,"144 BAYMAR, FORT MYERS BEACH, FL, 33931","Match","Non_Exact","144 BAY MAR DR, FORT MYERS BEACH, FL, 33931",118017746,"R"
182710,"144 BEECHWOOD CIRCLE","WINSTON SALEM","NC",27105,36.166389457,-80.2739572089999,210,"144 BEECHWOOD CIRCLE, WINSTON SALEM, NC, 27105","Match","Exact","144 BEECHWOOD CIR, WINSTON SALEM, NC, 27105",84606317,"R"
182711,"144 BELMONT AVENUE","BROCKTON","MA",2301,42.0836807740001,-71.033384973,211,"144 BELMONT AVENUE, BROCKTON, MA, 2301","Match","Exact","144 BELMONT AVE, BROCKTON, MA, 02301",620127594,"L"
182712,"144 BILLY JOYCE LANE","KEARNEYSVILLE","WV",25430,39.3402696530001,-77.9209166759999,212,"144 BILLY JOYCE LANE, KEARNEYSVILLE, WV, 25430","Match","Exact","144 BILLY JOYCE LN, KEARNEYSVILLE, WV, 25430",619759059,"L"
182713,"144 BISHOP ROAD","FITCHBURG","MA",1420,42.582164543,-71.825919856,213,"144 BISHOP ROAD, FITCHBURG, MA, 1420","Match","Exact","144 BISHOP RD, FITCHBURG, MA, 01420",40070362,"L"
182714,"144 BLACKSTONE STRE","MENDON","MA",1756,42.0785243880001,-71.5571279019999,214,"144 BLACKSTONE STRE, MENDON, MA, 1756","Match","Non_Exact","144 BLACKSTONE ST, MENDON, MA, 01756",40100115,"L"
182715,"144 BLACKSTONE STREET","MENDON","MA",1756,42.0785243880001,-71.5571279019999,215,"144 BLACKSTONE STREET, MENDON, MA, 1756","Match","Exact","144 BLACKSTONE ST, MENDON, MA, 01756",40100115,"L"
182716,"144 BOB WELLS RD","LEICESTER","NC",28748,NA,NA,216,"144 BOB WELLS RD, LEICESTER, NC, 28748","No_Match",NA,NA,NA,NA
182717,"144 BOBTAIL RD","SANDPOINT","ID",83864,NA,NA,217,"144 BOBTAIL RD, SANDPOINT, ID, 83864","No_Match",NA,NA,NA,NA
182718,"144 BOGERT STREET","TEANECK","NJ",7666,40.8989583220001,-74.005138256,218,"144 BOGERT STREET, TEANECK, NJ, 7666","Match","Exact","144 BOGERT ST, TEANECK, NJ, 07666",64415047,"L"
182719,"144 BRAIG RD","COLUMBIA FALLS","MT",59912,48.385312636,-114.243557608,219,"144 BRAIG RD, COLUMBIA FALLS, MT, 59912","Match","Exact","144 BRAIG RD, COLUMBIA FALLS, MT, 59912",204079039,"L"
182720,"144 BREWERS OAK LN","WEST COLUMBIA","SC",29169,NA,NA,220,"144 BREWERS OAK LN, WEST COLUMBIA, SC, 29169","No_Match",NA,NA,NA,NA
182721,"144 BRIAN CIRCLE","ANTIOCH","TN",37013,36.0360418450001,-86.675336694,221,"144 BRIAN CIRCLE, ANTIOCH, TN, 37013","Match","Exact","144 BRIAN CIR, ANTIOCH, TN, 37013",97207999,"R"
182722,"144 BRIARVISTA WAY","ATLANTA","GA",30329,33.814268784,-84.331814483,222,"144 BRIARVISTA WAY, ATLANTA, GA, 30329","Match","Exact","144 BRIARVISTA WAY, ATLANTA, GA, 30329",645264880,"R"
182723,"144 BRIGHTON DR","AKRON","OH",44301,41.0473913820001,-81.522633011,223,"144 BRIGHTON DR, AKRON, OH, 44301","Match","Exact","144 BRIGHTON DR, AKRON, OH, 44301",61345133,"R"
182724,"144 BRINDLEY","MAYPEARL","TX",76064,32.2887231030001,-97.009439345,224,"144 BRINDLEY, MAYPEARL, TX, 76064","Match","Non_Exact","144 BRINDLEY RD, MAYPEARL, TX, 76064",648644451,"L"
182725,"144 BROOKFIELD ESTATES DRIVE","WEXFORD","PA",15090,NA,NA,225,"144 BROOKFIELD ESTATES DRIVE, WEXFORD, PA, 15090","No_Match",NA,NA,NA,NA
182726,"144 BROOKSTONE DR","MT HOLL","NC",28120,35.3135223720001,-81.018259438,226,"144 BROOKSTONE DR, MT HOLL, NC, 28120","Match","Non_Exact","144 BROOKSTONE DR, MOUNT HOLLY, NC, 28120",70418478,"R"
182727,"144 BROWN BEAR","CHAPEL HILL","NC",27517,35.7698916460001,-79.061088718,227,"144 BROWN BEAR, CHAPEL HILL, NC, 27517","Match","Exact","144 BROWN BEAR, CHAPEL HILL, NC, 27517",634073581,"R"
182728,"144 BROWNS MILL RD","RUSTBURG","VA",24588,37.2504071170001,-79.1201974909999,228,"144 BROWNS MILL RD, RUSTBURG, VA, 24588","Match","Exact","144 BROWNS MILL RD, RUSTBURG, VA, 24588",647614482,"L"
182729,"144 BRUCEVILLE ROAD","HIGH FALLS","NY",12440,41.8324854640001,-74.1202617329999,229,"144 BRUCEVILLE ROAD, HIGH FALLS, NY, 12440","Match","Exact","144 BRUCEVILLE RD, HIGH FALLS, NY, 12440",41898647,"R"
182730,"144 BRUCNER BLVD 5C","BRONX","NY",10454,NA,NA,230,"144 BRUCNER BLVD 5C, BRONX, NY, 10454","No_Match",NA,NA,NA,NA
182731,"144 BRUMLEY AVE NE","CONCORD","NC",28025,35.41448072,-80.577729345,231,"144 BRUMLEY AVE NE, CONCORD, NC, 28025","Match","Exact","144 BRUMLEY AVE NE, CONCORD, NC, 28025",24900048,"R"
182732,"144 BUCKINGHAM ROAD","TENAFLY","NJ",7670,40.906704297,-73.947906788,232,"144 BUCKINGHAM ROAD, TENAFLY, NJ, 7670","Match","Exact","144 BUCKINGHAM RD, TENAFLY, NJ, 07670",64375662,"R"
182733,"144 BUNKER HILL ST","CHARLESTOWN","MA",2129,42.3781821490001,-71.0602890609999,233,"144 BUNKER HILL ST, CHARLESTOWN, MA, 2129","Match","Exact","144 BUNKER HILL ST, CHARLESTOWN, MA, 02129",85709122,"L"
182734,"144 BURBANK AVENUE","OXNARD","CA",93035,34.1515448920001,-119.216802608,234,"144 BURBANK AVENUE, OXNARD, CA, 93035","Match","Exact","144 BURBANK AVE, OXNARD, CA, 93035",110115788,"R"
182735,"144 BUSINESS PARK DR","VIRGINIA BEACH","VA",23462,36.8436219700001,-76.17590467,235,"144 BUSINESS PARK DR, VIRGINIA BEACH, VA, 23462","Match","Non_Exact","144 BUS PARK DR, VA BCH, VA, 23462",122300957,"R"
182736,"144 CALLAN PARK LANE","CARY","NC",27511,35.786133353,-78.777138265,236,"144 CALLAN PARK LANE, CARY, NC, 27511","Match","Exact","144 CALLAN PARK LN, CARY, NC, 27511",208365520,"L"
182737,"144 CANTERBURY RUN","NEWPORT NEWS","VA",23602,37.1201634820001,-76.540951895,237,"144 CANTERBURY RUN, NEWPORT NEWS, VA, 23602","Match","Exact","144 CANTERBURY RUN, NEWPORT NEWS, VA, 23602",103813444,"R"
182738,"144 CARR LANE","CADIZ","KY",42211,36.8350283890001,-87.825240921,238,"144 CARR LANE, CADIZ, KY, 42211","Match","Exact","144 CARR LN, CADIZ, KY, 42211",11937195,"R"
182739,"144 CARTER AVENUE","ATLANTA","GA",30317,33.7486278640001,-84.305182684,239,"144 CARTER AVENUE, ATLANTA, GA, 30317","Match","Non_Exact","144 CARTER AVE SE, ATLANTA, GA, 30317",23366922,"L"
182740,"144 CARTERET AVENUE","CARTERET","NJ",7708,NA,NA,240,"144 CARTERET AVENUE, CARTERET, NJ, 7708","No_Match",NA,NA,NA,NA
182741,"144 CARVER RD","DOUGLAS","GA",31535,NA,NA,241,"144 CARVER RD, DOUGLAS, GA, 31535","No_Match",NA,NA,NA,NA
182742,"144 CASITAS AVENUE","SAN FRANCISCO","CA",94127,37.7377458340001,-122.459200929,242,"144 CASITAS AVENUE, SAN FRANCISCO, CA, 94127","Match","Exact","144 CASITAS AVE, SAN FRANCISCO, CA, 94127",192283062,"R"
182743,"144 CEDAR GROVE PKWY","MAYLENE","AL",35114,33.239311474,-86.8519191459999,243,"144 CEDAR GROVE PKWY, MAYLENE, AL, 35114","Match","Exact","144 CEDAR GROVE PKWY, MAYLENE, AL, 35114",221551542,"R"
182744,"144 CEDAR STREET","CORNING","NY",14830,42.1414147030001,-77.052976166,244,"144 CEDAR STREET, CORNING, NY, 14830","Match","Exact","144 CEDAR ST, CORNING, NY, 14830",14717583,"R"
182745,"144 CENTRE STREET","HIGHTSTOWN","NJ",8520,40.26910897,-74.529747162,245,"144 CENTRE STREET, HIGHTSTOWN, NJ, 8520","Match","Exact","144 CENTER ST, HIGHTSTOWN, NJ, 08520",60173754,"R"
182746,"144 CENTURY ROAD EAST","LEESBURG","GA",31763,31.6780063730001,-84.1766263229999,246,"144 CENTURY ROAD EAST, LEESBURG, GA, 31763","Match","Non_Exact","144 CENTURY RD W, LEESBURG, GA, 31763",637379881,"L"
182747,"144 CHESTNUT STREET","ROCHELLE PARK","NJ",7662,40.909234171,-74.081738966,247,"144 CHESTNUT STREET, ROCHELLE PARK, NJ, 7662","Match","Exact","144 CHESTNUT ST, ROCHELLE PARK, NJ, 07662",64383263,"R"
182748,"144 CHESTNUT STREET","WILLIMANTIC","CT",6226,41.719016885,-72.212253473,248,"144 CHESTNUT STREET, WILLIMANTIC, CT, 6226","Match","Exact","144 CHESTNUT ST, WILLIMANTIC, CT, 06226",634210427,"L"
182749,"144 CHIEF RED EYES TRAIL","RICHWOOD","WV",26261,NA,NA,249,"144 CHIEF RED EYES TRAIL, RICHWOOD, WV, 26261","No_Match",NA,NA,NA,NA
182750,"144 CHRISTIAN DRIVE","CLEVELAND","TN",37312,35.258839773,-84.8279888119999,250,"144 CHRISTIAN DRIVE, CLEVELAND, TN, 37312","Match","Exact","144 CHRISTIAN DR, CLEVELAND, TN, 37312",57584650,"R"
182751,"144 CHRISTOPHER AVE","PRINCETON","NC",27569,35.43779234,-78.2011246069999,251,"144 CHRISTOPHER AVE, PRINCETON, NC, 27569","Match","Exact","144 CHRISTOPHER AVE, PRINCETON, NC, 27569",26558192,"R"
182752,"144 CINEBAR ROAD","MOORESVILLE","NC",28115,35.612276749,-80.823381795,252,"144 CINEBAR ROAD, MOORESVILLE, NC, 28115","Match","Exact","144 CINEBAR RD, MOORESVILLE, NC, 28115",46015122,"R"
182753,"144 CINNAMON OAKS","JASPER","TX",79912,NA,NA,253,"144 CINNAMON OAKS, JASPER, TX, 79912","No_Match",NA,NA,NA,NA
182754,"144 CLARKE LANE","HOPKINTON","NH",3229,43.187790346,-71.626124478,254,"144 CLARKE LANE, HOPKINTON, NH, 3229","Match","Exact","144 CLARKE LN, HOPKINTON, NH, 03229",117733450,"R"
182755,"144 CLARKEN DR","WEST ORANGE","NJ",7052,40.798581756,-74.2571447349999,255,"144 CLARKEN DR, WEST ORANGE, NJ, 7052","Match","Exact","144 CLARKEN DR, WEST ORANGE, NJ, 07052",646935970,"L"
182756,"144 CLEVELAND DRIVE","BUFFALO","NY",14223,42.9883206440001,-78.8647068719999,256,"144 CLEVELAND DRIVE, BUFFALO, NY, 14223","Match","Exact","144 CLEVELAND DR, BUFFALO, NY, 14223",48287669,"L"
182757,"144 CLYDE AVE UNIT2W","EVANSTON","IL",60202,42.0206806080001,-87.6780027729999,257,"144 CLYDE AVE UNIT2W, EVANSTON, IL, 60202","Match","Exact","144 CLYDE AVE, EVANSTON, IL, 60202",605253296,"L"
182758,"144 COACHMAN DR N","FREEHOLD","NJ",7728,40.2235075240001,-74.274357993,258,"144 COACHMAN DR N, FREEHOLD, NJ, 7728","Match","Exact","144 COACHMAN DR N, FREEHOLD, NJ, 07728",649847063,"L"
182759,"144 COBBLESTONE DRIVE","GOODLETTSVILLE","TN",37072,NA,NA,259,"144 COBBLESTONE DRIVE, GOODLETTSVILLE, TN, 37072","No_Match",NA,NA,NA,NA
182760,"144 COCHRAN RD","RINEYVILLE","KY",40162,37.774129439,-86.110895928,260,"144 COCHRAN RD, RINEYVILLE, KY, 40162","Match","Non_Exact","144 COCHRAN LN, RINEYVILLE, KY, 40162",34641600,"R"
182761,"144 CODFISH HILL ROAD","CANAAN","NH",3741,43.6869517920001,-72.0656948019999,261,"144 CODFISH HILL ROAD, CANAAN, NH, 3741","Match","Exact","144 CODFISH HILL RD, CANAAN, NH, 03741",145710140,"R"
182762,"144 COLBURN ROAD","MILFORD","NH",3055,42.7989030160001,-71.643385048,262,"144 COLBURN ROAD, MILFORD, NH, 3055","Match","Exact","144 COLBURN RD, MILFORD, NH, 03055",113543532,"L"
182763,"144 COLEMAN AVE","ASHEVILLE","NC",28801,35.6129457960001,-82.557757652,263,"144 COLEMAN AVE, ASHEVILLE, NC, 28801","Match","Exact","144 COLEMAN AVE, ASHEVILLE, NC, 28801",645527192,"R"
182764,"144 COLONY COURT","SNYDER","NY",14226,42.973556225,-78.7879433699999,264,"144 COLONY COURT, SNYDER, NY, 14226","Match","Exact","144 COLONY CT, SNYDER, NY, 14226",48327655,"L"
182765,"144 COLWICK DR","SOMERS POINT","NJ",8244,39.3240971820001,-74.6141523159999,265,"144 COLWICK DR, SOMERS POINT, NJ, 8244","Match","Exact","144 COLWICK DR, SOMERS POINT, NJ, 08244",202482079,"L"
182766,"144 COMMUNITY COLLEGE ROAD","AHOSKIE","NC",27910,36.3247928860001,-77.020005043,266,"144 COMMUNITY COLLEGE ROAD, AHOSKIE, NC, 27910","Match","Exact","144 COMMUNITY COLLEGE RD, AHOSKIE, NC, 27910",56780486,"R"
182767,"144 CONDITT HOLLOW RD","ELMWOOD","TN",38560,36.234745666,-85.867794223,267,"144 CONDITT HOLLOW RD, ELMWOOD, TN, 38560","Match","Exact","144 CONDITT HOLLOW RD, ELMWOOD, TN, 38560",644708249,"L"
182768,"144 CONDITT HOLLOW RD","ELMWOOD","TN",38650,36.234745666,-85.867794223,268,"144 CONDITT HOLLOW RD, ELMWOOD, TN, 38650","Match","Non_Exact","144 CONDITT HOLLOW RD, ELMWOOD, TN, 38560",644708249,"L"
182769,"144 CONSTITUTION DR","PRINCETON","NJ",8540,40.3415907090001,-74.675459529,269,"144 CONSTITUTION DR, PRINCETON, NJ, 8540","Match","Exact","144 CONSTITUTION DR, PRINCETON, NJ, 08540",60172297,"L"
182770,"144 COOPER DR SE","CALHOUN","GA",30701,34.469930597,-84.880189034,270,"144 COOPER DR SE, CALHOUN, GA, 30701","Match","Exact","144 COOPER DR SE, CALHOUN, GA, 30701",57331285,"L"
182771,"144 COPPERTREE COURT","EDISON","NJ",8820,40.562076941,-74.389179897,271,"144 COPPERTREE COURT, EDISON, NJ, 8820","Match","Exact","144 COPPERTREE CT, EDISON, NJ, 08820",60298862,"R"
182772,"144 COUNTRY KNOLL DR","KYLE","TX",78640,29.9686963130001,-97.853408899,272,"144 COUNTRY KNOLL DR, KYLE, TX, 78640","Match","Exact","144 COUNTRY KNOLL DR, KYLE, TX, 78640",63847067,"R"
182773,"144 COUNTY ROAD 42","HOUSTON","MS",38851,33.926910777,-89.0879367489999,273,"144 COUNTY ROAD 42, HOUSTON, MS, 38851","Match","Exact","144 CO RD 42, HOUSTON, MS, 38851",607202817,"R"
182774,"144 COUNTY ROAD 433","ENGLEWOOD","TN",37329,35.4316790120001,-84.520144325,274,"144 COUNTY ROAD 433, ENGLEWOOD, TN, 37329","Match","Exact","144 CO RD 433, ENGLEWOOD, TN, 37329",605353348,"L"
182775,"144 CR 734","WYNNE","AR",72396,35.2118205510001,-90.764549256,275,"144 CR 734, WYNNE, AR, 72396","Match","Exact","144 CO RD 734, WYNNE, AR, 72396",607581423,"R"
182776,"144 CR NE 2220","TALCO","TX",75487,NA,NA,276,"144 CR NE 2220, TALCO, TX, 75487","No_Match",NA,NA,NA,NA
182777,"144 CRANBROOK DR","DOVER","PA",17315,40.002840104,-76.8426602919999,277,"144 CRANBROOK DR, DOVER, PA, 17315","Match","Exact","144 CRANBROOK DR, DOVER, PA, 17315",88754487,"L"
182778,"144 CRANBROOK DRIVE","DOVER","PA",17315,40.002840104,-76.8426602919999,278,"144 CRANBROOK DRIVE, DOVER, PA, 17315","Match","Exact","144 CRANBROOK DR, DOVER, PA, 17315",88754487,"L"
182779,"144 CREEKWOOD ROAD","SANFORD","NC",27330,35.4610968800001,-79.268102019,279,"144 CREEKWOOD ROAD, SANFORD, NC, 27330","Match","Exact","144 CREEKWOOD RD, SANFORD, NC, 27330",636619861,"R"
182780,"144 CRESTMONT DR","LOCK HAVEN","PA",17745,41.175751658,-77.372495928,280,"144 CRESTMONT DR, LOCK HAVEN, PA, 17745","Match","Exact","144 CRESTMONT DR, LOCK HAVEN, PA, 17745",77151747,"R"
182781,"144 CROSS CREEK DR","MADISON","MS",39110,32.4761110740001,-90.098752707,281,"144 CROSS CREEK DR, MADISON, MS, 39110","Match","Exact","144 CROSS CREEK DR, MADISON, MS, 39110",152501511,"R"
182782,"144 CROSS CREEK ROAD","KINGSTON","TN",37763,35.832070345,-84.453244135,282,"144 CROSS CREEK ROAD, KINGSTON, TN, 37763","Match","Non_Exact","144 CROSS CREEK LN, KINGSTON, TN, 37763",635423413,"R"
182783,"144 DAHLIA DRIVE","ALAMEDA","CA",94502,37.733732402,-122.239303561,283,"144 DAHLIA DRIVE, ALAMEDA, CA, 94502","Match","Exact","144 DAHLIA DR, ALAMEDA, CA, 94502",125007186,"L"
182784,"144 DANA POINTE","NICEVILLE","FL",32578,30.488978102,-86.46686555,284,"144 DANA POINTE, NICEVILLE, FL, 32578","Match","Exact","144 DANA POINTE, NICEVILLE, FL, 32578",74403929,"R"
182785,"144 DARWIN LN","NEW BRUNSWICK","NJ",7902,NA,NA,285,"144 DARWIN LN, NEW BRUNSWICK, NJ, 7902","No_Match",NA,NA,NA,NA
182786,"144 DAVID LANE SE","SMITHDALE","MS",39664,31.372755564,-90.725430541,286,"144 DAVID LANE SE, SMITHDALE, MS, 39664","Match","Exact","144 DAVID LN SE, SMITHDALE, MS, 39664",75837186,"L"
182787,"144 DAVIDSON AVE","OCEANSIDE","NY",11572,NA,NA,287,"144 DAVIDSON AVE, OCEANSIDE, NY, 11572","No_Match",NA,NA,NA,NA
182788,"144 DEERWOOD DR","MILLEDGEVILLE","GA",31061,33.038842464,-83.242995843,288,"144 DEERWOOD DR, MILLEDGEVILLE, GA, 31061","Match","Non_Exact","144 DEERWOOD DR SW, MILLEDGEVILLE, GA, 31061",16593554,"R"
182789,"144 DIABLO RANCH COURT","Danville","CA",94506,37.837595316,-121.946955157,289,"144 DIABLO RANCH COURT, Danville, CA, 94506","Match","Exact","144 DIABLO RANCH CT, DANVILLE, CA, 94506",192108975,"R"
182790,"144 DIABLO RANCH COURT","DANVILLE","CA",94506,37.837595316,-121.946955157,290,"144 DIABLO RANCH COURT, DANVILLE, CA, 94506","Match","Exact","144 DIABLO RANCH CT, DANVILLE, CA, 94506",192108975,"R"
182791,"144 DICKINSON STREET","FALL RIVER","MA",2721,41.6691055260001,-71.151561058,291,"144 DICKINSON STREET, FALL RIVER, MA, 2721","Match","Exact","144 DICKINSON ST, FALL RIVER, MA, 02721",46772198,"L"
182792,"144 DOE RUN LANE","STATESVILLE","NC",28625,35.8585742920001,-80.874609499,292,"144 DOE RUN LANE, STATESVILLE, NC, 28625","Match","Exact","144 DOE RUN LN, STATESVILLE, NC, 28625",46008410,"L"
182793,"144 DOWNS ROAD","BETHANY","CT",6524,41.4045027500001,-72.962322499,293,"144 DOWNS ROAD, BETHANY, CT, 6524","Match","Exact","144 DOWNS RD, BETHANY, CT, 06524",636500618,"R"
182794,"144 DRIFTWOOD LANE","GUILFORD","CT",6437,41.3209666720001,-72.7040834859999,294,"144 DRIFTWOOD LANE, GUILFORD, CT, 6437","Match","Exact","144 DRIFTWOOD LN, GUILFORD, CT, 06437",624672528,"L"
182795,"144 DUBOIS ST","LIVINGSTON MANOR","NY",12758,41.89169013,-74.821770793,295,"144 DUBOIS ST, LIVINGSTON MANOR, NY, 12758","Match","Exact","144 DUBOIS ST, LIVINGSTON MANOR, NY, 12758",129021386,"L"
182796,"144 E 18TH STREET","PATERSON","NJ",7524,40.9351118370001,-74.1505775649999,296,"144 E 18TH STREET, PATERSON, NJ, 7524","Match","Exact","144 E 18TH ST, PATERSON, NJ, 07524",65263855,"R"
182797,"144 E FARISTON DR","PHILADELPHIA","PA",19120,40.0484048870001,-75.115425032,297,"144 E FARISTON DR, PHILADELPHIA, PA, 19120","Match","Exact","144 E FARISTON DR, PHILADELPHIA, PA, 19120",131440994,"R"
182798,"144 E FORT ST","FARMINGTON","IL",61531,40.6981785340001,-90.003700628,298,"144 E FORT ST, FARMINGTON, IL, 61531","Match","Exact","144 E FORT ST, FARMINGTON, IL, 61531",15551639,"L"
182799,"144 E KING ST","SAN BERNARDINO","CA",92408,34.1017955510001,-117.283656019,299,"144 E KING ST, SAN BERNARDINO, CA, 92408","Match","Exact","144 E KING ST, SAN BERNARDINO, CA, 92408",144655651,"L"
182800,"144 E KING STREET UNIT 1086","HILLSBOROUGH","NC",27278,NA,NA,300,"144 E KING STREET UNIT 1086, HILLSBOROUGH, NC, 27278","Tie",NA,NA,NA,NA
182801,"144 E MATTERN AVE","DES MOINES","IA",50316,NA,NA,301,"144 E MATTERN AVE, DES MOINES, IA, 50316","No_Match",NA,NA,NA,NA
182802,"144 E PITTSFIELD ST","PENNSVILLE","NJ",8070,39.6508857360001,-75.51041256,302,"144 E PITTSFIELD ST, PENNSVILLE, NJ, 8070","Match","Exact","144 E PITTSFIELD ST, PENNSVILLE, NJ, 08070",174412141,"L"
182803,"144 E STREET RD","FEASTERVILLE","PA",19053,NA,NA,303,"144 E STREET RD, FEASTERVILLE, PA, 19053","No_Match",NA,NA,NA,NA
182804,"144 EAGLE CIRCLE","ELK CITY","OK",73644,35.3668903610001,-99.401732795,304,"144 EAGLE CIRCLE, ELK CITY, OK, 73644","Match","Exact","144 EAGLE CIR, ELK CITY, OK, 73644",625116513,"L"
182805,"144 EAGLE VAIL","SAN ANTONIO","TX",78258,29.6591329660001,-98.495200718,305,"144 EAGLE VAIL, SAN ANTONIO, TX, 78258","Match","Exact","144 EAGLE VAIL, SAN ANTONIO, TX, 78258",647518367,"R"
182806,"144 EAST 84TH ST 15A","NEW YORK","NY",10028,40.7781246640001,-73.9564189439999,306,"144 EAST 84TH ST 15A, NEW YORK, NY, 10028","Match","Exact","144 E 84TH ST, NEW YORK, NY, 10028",59658259,"R"
182807,"144 EAST 84TH STREET APT 6G","NEW YORK","NY",10028,40.7781246640001,-73.9564189439999,307,"144 EAST 84TH STREET APT 6G, NEW YORK, NY, 10028","Match","Exact","144 E 84TH ST, NEW YORK, NY, 10028",59658259,"R"
182808,"144 EAST COLONIAL COURT","INDIAN HARBOUR BEACH","FL",32937,28.1475461850001,-80.584788535,308,"144 EAST COLONIAL COURT, INDIAN HARBOUR BEACH, FL, 32937","Match","Exact","144 E COLONIAL CT, INDIAN HARBOUR BEACH, FL, 32937",93920026,"R"
182809,"144 EAST COVE AVENUE APT I","WHEELING","WV",26003,40.036229355,-80.665774427,309,"144 EAST COVE AVENUE APT I, WHEELING, WV, 26003","Match","Exact","144 E COVE AVE, WHEELING, WV, 26003",38101911,"R"
182810,"144 EAST GALENA AVE","CRESTONE","CO",81131,37.9952328640001,-105.698546353,310,"144 EAST GALENA AVE, CRESTONE, CO, 81131","Match","Exact","144 E GALENA AVE, CRESTONE, CO, 81131",104382882,"R"
182811,"144 EAST PIKE ROAD","INDIANA","PA",15701,40.622098769,-79.1358447759999,311,"144 EAST PIKE ROAD, INDIANA, PA, 15701","Match","Exact","144 E PIKE RD, INDIANA, PA, 15701",66289904,"L"
182812,"144 EAST SPRUCE ST","EMMAUS","PA",18049,40.547790073,-75.494003961,312,"144 EAST SPRUCE ST, EMMAUS, PA, 18049","Match","Exact","144 E SPRUCE ST, EMMAUS, PA, 18049",80777241,"R"
182813,"144 EAST STRICKLAND RD","INTERLACHEN","FL",32148,29.606037956,-81.890621188,313,"144 EAST STRICKLAND RD, INTERLACHEN, FL, 32148","Match","Exact","144 E STRICKLAND RD, INTERLACHEN, FL, 32148",633737504,"L"
182814,"144 EATON DRIVE","WAYNE","PA",19087,40.0359991500001,-75.408565669,314,"144 EATON DRIVE, WAYNE, PA, 19087","Match","Exact","144 EATON DR, WAYNE, PA, 19087",134866696,"R"
182815,"144 EDEN AVENUE","SOUTHINGTON","CT",6489,41.597872281,-72.8826622719999,315,"144 EDEN AVENUE, SOUTHINGTON, CT, 6489","Match","Exact","144 EDEN AVE, SOUTHINGTON, CT, 06489",3508766,"L"
182816,"144 EDGEWOOD DRIVE","BEAVER","PA",15009,40.708183654,-80.40629418,316,"144 EDGEWOOD DRIVE, BEAVER, PA, 15009","Match","Exact","144 EDGEWOOD DR, BEAVER, PA, 15009",52575290,"L"
182817,"144 EDGEWOOD DRIVE","STANFORD","KY",40484,37.5505687310001,-84.659379875,317,"144 EDGEWOOD DRIVE, STANFORD, KY, 40484","Match","Exact","144 EDGEWOOD DR, STANFORD, KY, 40484",32554104,"R"
182818,"144 EL CAMINO REEL","MONTICELLO","IA",52310,42.2334577250001,-91.177271425,318,"144 EL CAMINO REEL, MONTICELLO, IA, 52310","Match","Non_Exact","144 EL CAMINO REAL, MONTICELLO, IA, 52310",16517169,"R"
182819,"144 ELDER AVE","IMPERIAL BEACH","CA",91932,32.578843426,-117.130732015,319,"144 ELDER AVE, IMPERIAL BEACH, CA, 91932","Match","Exact","144 ELDER AVE, IMPERIAL BEACH, CA, 91932",195687892,"L"
182820,"144 ELK PLACE APT 1511","NEW ORLEANS","LA",70112,NA,NA,320,"144 ELK PLACE APT 1511, NEW ORLEANS, LA, 70112","No_Match",NA,NA,NA,NA
182821,"144 ELKINS CIRCLE","FOLSOM","CA",95630,38.6523690070001,-121.174335417,321,"144 ELKINS CIRCLE, FOLSOM, CA, 95630","Match","Exact","144 ELKINS CIR, FOLSOM, CA, 95630",133403509,"R"
182822,"144 ELLSWORTH STREET","WINTERSVILLE","OH",43952,40.3785821070001,-80.707435333,322,"144 ELLSWORTH STREET, WINTERSVILLE, OH, 43952","Match","Non_Exact","144 ELLSWORTH ST, WINTERSVILLE, OH, 43953",605761674,"R"
182823,"144 ELM STREET APT 1","ORANGE","NJ",7050,40.772645008,-74.22315846,323,"144 ELM STREET APT 1, ORANGE, NJ, 7050","Match","Exact","144 ELM ST, ORANGE, NJ, 07050",642746578,"L"
182824,"144 ENGLAND DR","ELLENBORO","NC",28040,35.34016017,-81.786708893,324,"144 ENGLAND DR, ELLENBORO, NC, 28040","Match","Exact","144 ENGLAND DR, ELLENBORO, NC, 28040",19413843,"R"
182825,"144 ENGLISH HILLS DRIVE","MOORESVILLE","NC",28115,35.5396857760001,-80.829360875,325,"144 ENGLISH HILLS DRIVE, MOORESVILLE, NC, 28115","Match","Exact","144 ENGLISH HILLS DR, MOORESVILLE, NC, 28115",46020907,"R"
182826,"144 FACULTY CIRCLE DRIVE","SEWANEE","TN",37375,35.206268601,-85.910467075,326,"144 FACULTY CIRCLE DRIVE, SEWANEE, TN, 37375","Match","Exact","144 FACULTY CIR, SEWANEE, TN, 37375",57966476,"L"
182827,"144 FERRY ROAD","HERNDON","PA",17830,40.6959024490001,-76.853295074,327,"144 FERRY ROAD, HERNDON, PA, 17830","Match","Exact","144 FERRY RD, HERNDON, PA, 17830",48065459,"L"
182828,"144 FIRST CHURCH STREET","DENDRON","VA",23839,37.047181263,-76.93297017,328,"144 FIRST CHURCH STREET, DENDRON, VA, 23839","Match","Exact","144 FIRST CHURCH ST, DENDRON, VA, 23839",168450770,"R"
182829,"144 FISH HALL LANE","BRUNSWICK","GA",31523,31.1695378320001,-81.5842979889999,329,"144 FISH HALL LANE, BRUNSWICK, GA, 31523","Match","Exact","144 FISH HALL LN, BRUNSWICK, GA, 31523",9165297,"R"
182830,"144 FOREST DR NORTH","SHORT HILLS","NJ",7078,40.734087152,-74.324332802,330,"144 FOREST DR NORTH, SHORT HILLS, NJ, 7078","Match","Non_Exact","144 FOREST DR, SHORT HILLS, NJ, 07078",63461352,"R"
182831,"144 FORT FLORIDA RD","DEBARY","FL",32713,28.8882877450001,-81.3523149119999,331,"144 FORT FLORIDA RD, DEBARY, FL, 32713","Match","Exact","144 FORT FLORIDA RD, DEBARY, FL, 32713",94516987,"R"
182832,"144 FOSTER STREET","NEW HAVEN","CT",6511,41.3206077340001,-72.9097051589999,332,"144 FOSTER STREET, NEW HAVEN, CT, 6511","Match","Exact","144 FOSTER ST, NEW HAVEN, CT, 06511",3700072,"L"
182833,"144 FOX DRIVE","WINCHESTER","VA",22601,39.19186204,-78.185107344,333,"144 FOX DRIVE, WINCHESTER, VA, 22601","Match","Exact","144 FOX DR, WINCHESTER, VA, 22601",55610177,"R"
182834,"144 FOX DRIVE","WINCHESTER","VT",22601,NA,NA,334,"144 FOX DRIVE, WINCHESTER, VT, 22601","No_Match",NA,NA,NA,NA
182835,"144 FOX GROVE CIR","COLUMBIA","SC",29229,34.162705353,-80.874354308,335,"144 FOX GROVE CIR, COLUMBIA, SC, 29229","Match","Exact","144 FOX GROVE CIR, COLUMBIA, SC, 29229",604753825,"L"
182836,"144 FOXFIRE PLACE","ROCKTON","IL",61072,42.443580422,-89.073656112,336,"144 FOXFIRE PLACE, ROCKTON, IL, 61072","Match","Exact","144 FOXFIRE PL, ROCKTON, IL, 61072",49279371,"L"
182837,"144 FOXRIDGE RUN","LEXINGTON","SC",29072,33.9918961980001,-81.219744835,337,"144 FOXRIDGE RUN, LEXINGTON, SC, 29072","Match","Exact","144 FOXRIDGE RUN, LEXINGTON, SC, 29072",70064256,"L"
182838,"144 FRIENDSHIP ROAD","ELKTON","ND",21921,NA,NA,338,"144 FRIENDSHIP ROAD, ELKTON, ND, 21921","No_Match",NA,NA,NA,NA
182839,"144 FUQUA AVE","OZARK","AL",36360,31.3871896860001,-85.6904689369999,339,"144 FUQUA AVE, OZARK, AL, 36360","Match","Exact","144 FUQUA AVE, OZARK, AL, 36360",99598385,"R"
182840,"144 GAIL AVE NE","MASSILLON","OH",44646,40.814628257,-81.52486521,340,"144 GAIL AVE NE, MASSILLON, OH, 44646","Match","Exact","144 GAIL AVE NE, MASSILLON, OH, 44646",64668477,"L"
182841,"144 GARDEN DRIVE","SOUTH PLAINFIELD","NJ",7080,40.587761641,-74.421363685,341,"144 GARDEN DRIVE, SOUTH PLAINFIELD, NJ, 7080","Match","Exact","144 GARDEN DR, S PLAINFIELD, NJ, 07080",60360579,"R"
182842,"144 GARDEN SPRINGS ROAD","COLUMBIA","SC",29209,33.979847803,-80.9470108149999,342,"144 GARDEN SPRINGS ROAD, COLUMBIA, SC, 29209","Match","Exact","144 GARDEN SPRINGS RD, COLUMBIA, SC, 29209",650772739,"R"
182843,"144 GARRET STREET","ROCKINGHAM","NC",29379,34.9428437220001,-79.7854936639999,343,"144 GARRET STREET, ROCKINGHAM, NC, 29379","Match","Non_Exact","144 GARRETT ST, ROCKINGHAM, NC, 28379",13934960,"R"
182844,"144 GENESEE STREET SUITE 102-259","AUBURN","NY",13021,NA,NA,344,"144 GENESEE STREET SUITE 102-259, AUBURN, NY, 13021","No_Match",NA,NA,NA,NA
182845,"144 GIBSON LANE","VALLEY VIEW","TX",76272,33.4895716250001,-97.1606500779999,345,"144 GIBSON LANE, VALLEY VIEW, TX, 76272","Match","Exact","144 GIBSON LN, VALLEY VIEW, TX, 76272",151314294,"R"
182846,"144 GILES ST","ITHACA","NY",14850,42.437855991,-76.491403501,346,"144 GILES ST, ITHACA, NY, 14850","Match","Exact","144 GILES ST, ITHACA, NY, 14850",647471166,"L"
182847,"144 GINGERBREAD ROAD","EASTON","NH",3580,44.1304383140001,-71.796187166,347,"144 GINGERBREAD ROAD, EASTON, NH, 3580","Match","Exact","144 GINGERBREAD RD, EASTON, NH, 03580",145674261,"R"
182848,"144 GLEN ALDEN CIRCLE","OXFORD","MS",38655,34.333076889,-89.522085707,348,"144 GLEN ALDEN CIRCLE, OXFORD, MS, 38655","Match","Exact","144 GLEN ALDEN CIR, OXFORD, MS, 38655",651268971,"L"
182849,"144 GLEN BRIER DRIVE","SPRING CREEK","NV",89815,40.741926322,-115.607523536,349,"144 GLEN BRIER DRIVE, SPRING CREEK, NV, 89815","Match","Exact","144 GLEN BRIER DR, SPRING CREEK, NV, 89815",638540139,"L"
182850,"144 GLENCULLEN CIRCLE","JUPITER","FL",33469,26.9090057060001,-80.1041382079999,350,"144 GLENCULLEN CIRCLE, JUPITER, FL, 33469","Match","Non_Exact","144 GLENCULLEN CIR, JUPITER, FL, 33458",625412561,"R"
182851,"144 GLENWOOD DRIVE","ASHLAND","OH",44805,40.8672658260001,-82.333890658,351,"144 GLENWOOD DRIVE, ASHLAND, OH, 44805","Match","Exact","144 GLENWOOD DR, ASHLAND, OH, 44805",30148096,"L"
182852,"144 GOOSE POND ROAD","LYME","NH",3768,43.7656852790001,-72.1792031799999,352,"144 GOOSE POND ROAD, LYME, NH, 3768","Match","Exact","144 GOOSE POND RD, LYME, NH, 03768",653288333,"L"
182853,"144 GRAND AVE","LAFAYETTE","LA",70503,30.182194888,-92.060579274,353,"144 GRAND AVE, LAFAYETTE, LA, 70503","Match","Exact","144 GRAND AVE, LAFAYETTE, LA, 70503",85612624,"R"
182854,"144 GRAND VIS","CIBOLO","TX",78108,29.587829979,-98.207885303,354,"144 GRAND VIS, CIBOLO, TX, 78108","Match","Exact","144 GRAND VIS, CIBOLO, TX, 78108",641488278,"L"
182855,"144 GRAPEVINE ROAD","HIGGANUM","CT",6441,41.4889191090001,-72.5927250779999,355,"144 GRAPEVINE ROAD, HIGGANUM, CT, 6441","Match","Exact","144 GRAPEVINE RD, HIGGANUM, CT, 06441",113903415,"R"
182856,"144 GRAYROCK DR","CROZET","VA",22932,38.07111955,-78.719023606,356,"144 GRAYROCK DR, CROZET, VA, 22932","Match","Exact","144 GRAYROCK DR, CROZET, VA, 22932",636707800,"R"
182857,"144 GREEN FOREST DRIVE","CLINTON","MS",39056,32.3538520160001,-90.279386051,357,"144 GREEN FOREST DRIVE, CLINTON, MS, 39056","Match","Exact","144 GREEN FOREST DR, CLINTON, MS, 39056",617074156,"L"
182858,"144 GREENWAY AVENUE","UNION","SC",29739,NA,NA,358,"144 GREENWAY AVENUE, UNION, SC, 29739","No_Match",NA,NA,NA,NA
182859,"144 HARLAN DAVIS ROAD","LUMBERTON","MS",39455,30.842941201,-89.275856709,359,"144 HARLAN DAVIS ROAD, LUMBERTON, MS, 39455","Match","Exact","144 HARLAN DAVIS RD, LUMBERTON, MS, 39455",606464385,"R"
182860,"144 HARRISVILLE MAIN ST","HARRISVILLE","RI",2830,41.965498869,-71.67686794,360,"144 HARRISVILLE MAIN ST, HARRISVILLE, RI, 2830","Match","Exact","144 HARRISVILLE MAIN ST, HARRISVILLE, RI, 02830",47443490,"R"
182861,"144 HASKELL ROAD","N YARMOUTH","ME",4097,43.848249229,-70.286893216,361,"144 HASKELL ROAD, N YARMOUTH, ME, 4097","Match","Exact","144 HASKELL RD, NORTH YARMOUTH, ME, 04097",78049099,"L"
182862,"144 HAWTHORNEN LANE","POLLOCKSVILLE","NC",28573,NA,NA,362,"144 HAWTHORNEN LANE, POLLOCKSVILLE, NC, 28573","No_Match",NA,NA,NA,NA
182863,"144 HEARTHSTONE DR","BATON ROUGE","LA",70806,30.4476378900001,-91.156787155,363,"144 HEARTHSTONE DR, BATON ROUGE, LA, 70806","Match","Exact","144 HEARTHSTONE DR, BATON ROUGE, LA, 70806",92183989,"R"
182864,"144 HEDGEROW","PITTSBORO","NC",27312,35.8031365040001,-79.087207733,364,"144 HEDGEROW, PITTSBORO, NC, 27312","Match","Exact","144 HEDGEROW, PITTSBORO, NC, 27312",71351178,"L"
182865,"144 HESTER ST APT 1","NEW YORK","NY",10013,40.717467222,-73.9959731399999,365,"144 HESTER ST APT 1, NEW YORK, NY, 10013","Match","Exact","144 HESTER ST, NEW YORK, NY, 10013",59653979,"L"
182866,"144 HICKORY DRIVE","GALLITZIN","PA",16641,40.4823774130001,-78.5596337699999,366,"144 HICKORY DRIVE, GALLITZIN, PA, 16641","Match","Exact","144 HICKORY DR, GALLITZIN, PA, 16641",50260198,"R"
182867,"144 HICKORY TRACE","GOOSE CREEK","SC",29445,32.9999915510001,-80.061514774,367,"144 HICKORY TRACE, GOOSE CREEK, SC, 29445","Match","Non_Exact","144 HICKORY TRACE DR, GOOSE CREEK, SC, 29445",100757371,"R"
182868,"144 HIDEAWAY DRIVE","MISSION HILL","SD",57046,42.9566922280001,-97.334002049,368,"144 HIDEAWAY DRIVE, MISSION HILL, SD, 57046","Match","Non_Exact","144 HIDEAWAY RD, MISSION HILL, SD, 57046",172847931,"R"
182869,"144 HIDEAWAY LANE","MOORESVILLE","NC",28117,35.6214378070001,-80.891710742,369,"144 HIDEAWAY LANE, MOORESVILLE, NC, 28117","Match","Exact","144 HIDEAWAY LN, MOORESVILLE, NC, 28117",46007271,"R"
182870,"144 HIGH MEADOWS ROAD","ADVANCE","NC",27006,35.965877882,-80.431436057,370,"144 HIGH MEADOWS ROAD, ADVANCE, NC, 27006","Match","Exact","144 HIGH MEADOWS RD, ADVANCE, NC, 27006",640643553,"R"
182871,"144 HIGHFIELD AVENUE","ABERDEEN","NJ",7747,40.4227855080001,-74.2219382009999,371,"144 HIGHFIELD AVENUE, ABERDEEN, NJ, 7747","Match","Exact","144 HIGHFIELD AVE, ABERDEEN, NJ, 07747",90473151,"L"
182872,"144 HIKORY TRACE DRIVE","GOOSE CREEK","SC",29445,32.9999915510001,-80.061514774,372,"144 HIKORY TRACE DRIVE, GOOSE CREEK, SC, 29445","Match","Non_Exact","144 HICKORY TRACE DR, GOOSE CREEK, SC, 29445",100757371,"R"
182873,"144 HILLCREST DR","BLUFFTON","OH",45817,40.901883888,-83.897955107,373,"144 HILLCREST DR, BLUFFTON, OH, 45817","Match","Exact","144 HILLCREST DR, BLUFFTON, OH, 45817",35562397,"R"
182874,"144 HILLCREST RD","EAST AURORA","NY",14052,42.777302327,-78.625881245,374,"144 HILLCREST RD, EAST AURORA, NY, 14052","Match","Exact","144 HILLCREST RD, EAST AURORA, NY, 14052",48314216,"L"
182875,"144 HIO RIDGE ROAD","DENMARK","ME",4022,44.0001084670001,-70.780920333,375,"144 HIO RIDGE ROAD, DENMARK, ME, 4022","Match","Exact","144 HIO RIDGE RD, DENMARK, ME, 04022",92672149,"L"
182876,"144 HOGAN CIRCLE","INMAN","SC",29349,35.0565067470001,-82.127727615,376,"144 HOGAN CIRCLE, INMAN, SC, 29349","Match","Exact","144 HOGAN CIR, INMAN, SC, 29349",19502776,"L"
182877,"144 HOLLY DRIVE","FAIRVIEW","PA",16415,42.075681634,-80.234002205,377,"144 HOLLY DRIVE, FAIRVIEW, PA, 16415","Match","Exact","144 HOLLY DR, FAIRVIEW, PA, 16415",117511902,"R"
182878,"144 HOLMES STREET","BARNESVILLE","GA",30204,33.051328047,-84.155272108,378,"144 HOLMES STREET, BARNESVILLE, GA, 30204","Match","Exact","144 HOLMES ST, BARNESVILLE, GA, 30204",66647200,"R"
182879,"144 HORNE BRANCH","STAFFORDSVILLE","KY",41256,37.804667668,-82.860600789,379,"144 HORNE BRANCH, STAFFORDSVILLE, KY, 41256","Match","Non_Exact","144 HORNE BRANCH RD, STAFFORDSVILLE, KY, 41256",632853369,"R"
182880,"144 HORSESHOE DRIVE","WILLISTON","VT",5495,44.4686239320001,-73.118633215,380,"144 HORSESHOE DRIVE, WILLISTON, VT, 5495","Match","Exact","144 HORSESHOE DR, WILLISTON, VT, 05495",135844575,"R"
182881,"144 HORSESHOE TRACE","WAYNESVILLE","NC",28785,35.5751280710001,-83.0387109979999,381,"144 HORSESHOE TRACE, WAYNESVILLE, NC, 28785","Match","Exact","144 HORSESHOE TRCE, WAYNESVILLE, NC, 28785",151823896,"R"
182882,"144 HUDSON AVE","PEEKSKILL","NY",10566,41.2855637270001,-73.927631849,382,"144 HUDSON AVE, PEEKSKILL, NY, 10566","Match","Exact","144 HUDSON AVE, PEEKSKILL, NY, 10566",139724001,"L"
182883,"144 HUGO ST APT 2","SAN FRANCISCO","CA",94110,37.765289787,-122.45936934,383,"144 HUGO ST APT 2, SAN FRANCISCO, CA, 94110","Match","Non_Exact","144 HUGO ST, SAN FRANCISCO, CA, 94122",192282051,"R"
182884,"144 HURD DRIVE","WESTOVER","PA",16692,40.758383064,-78.687910054,384,"144 HURD DRIVE, WESTOVER, PA, 16692","Match","Exact","144 HURD DR, WESTOVER, PA, 16692",50462717,"R"
182885,"144 HUTCHINS ROAD","SUMMERVILLE","GA",30747,34.5078689800001,-85.419289857,385,"144 HUTCHINS ROAD, SUMMERVILLE, GA, 30747","Match","Exact","144 HUTCHINS RD, SUMMERVILLE, GA, 30747",82023089,"R"
182886,"144 IDLEWILDE RD","SEVERNA PARK","MD",21146,39.0918203620001,-76.578188615,386,"144 IDLEWILDE RD, SEVERNA PARK, MD, 21146","Match","Non_Exact","144 IDLEWILD RD, SEVERNA PARK, MD, 21146",68209900,"L"
182887,"144 JACKSON VIEW DR","CHEHALIS","WA",98532,46.612093778,-122.878531806,387,"144 JACKSON VIEW DR, CHEHALIS, WA, 98532","Match","Exact","144 JACKSON VIEW DR, CHEHALIS, WA, 98532",180757755,"L"
182888,"144 JACOB COURT NW","CEDAR RAPIDS","IA",52405,41.9717697560001,-91.7111448479999,388,"144 JACOB COURT NW, CEDAR RAPIDS, IA, 52405","Match","Exact","144 JACOB CT NW, CEDAR RAPIDS, IA, 52405",17039601,"L"
182889,"144 JACOB CT NW","CEDAR RAPIDS","IA",52405,41.9717697560001,-91.7111448479999,389,"144 JACOB CT NW, CEDAR RAPIDS, IA, 52405","Match","Exact","144 JACOB CT NW, CEDAR RAPIDS, IA, 52405",17039601,"L"
182890,"144 JACOBS WAY","SAINT PETERS","MO",63376,38.7684321520001,-90.682529072,390,"144 JACOBS WAY, SAINT PETERS, MO, 63376","Match","Exact","144 JACOBS WAY, SAINT PETERS, MO, 63376",647288084,"L"
182891,"144 JENKS CIRCLE","PANAMA CITY","FL",32405,30.2021558760001,-85.660823239,391,"144 JENKS CIRCLE, PANAMA CITY, FL, 32405","Match","Exact","144 JENKS CIR, PANAMA CITY, FL, 32405",653591765,"R"
182892,"144 JESSIE JOHNSON ROAD","GLENMORA","LA",71433,31.0021835270001,-92.721354406,392,"144 JESSIE JOHNSON ROAD, GLENMORA, LA, 71433","Match","Exact","144 JESSIE JOHNSON RD, GLENMORA, LA, 71433",11787907,"L"
182893,"144 JOHNS ROAD BOX 91","ADRIAN","PA",16210,40.902572062,-79.499593981,393,"144 JOHNS ROAD BOX 91, ADRIAN, PA, 16210","Match","Exact","144 JOHNS RD, ADRIAN, PA, 16210",52460005,"R"
182894,"144 JORDAN RIVER BLVD","DELMAR","NY",12054,42.6066443380001,-73.82940335,394,"144 JORDAN RIVER BLVD, DELMAR, NY, 12054","Match","Non_Exact","144 JORDAN BLVD, DELMAR, NY, 12054",18309186,"L"
182895,"144 KEDRON","SPRING HILL","TN",37174,35.747823694,-86.936405139,395,"144 KEDRON, SPRING HILL, TN, 37174","Match","Non_Exact","144 KEDRON PKWY, SPRING HILL, TN, 37174",605846293,"L"
182896,"144 KEELER AVENUE","BRIDGEPORT","CT",6606,41.206863243,-73.209561203,396,"144 KEELER AVENUE, BRIDGEPORT, CT, 6606","Match","Exact","144 KEELER AVE, BRIDGEPORT, CT, 06606",3223060,"R"
182897,"144 KIMBERLY LANE","MARIETTA","GA",30064,33.946869372,-84.578389691,397,"144 KIMBERLY LANE, MARIETTA, GA, 30064","Match","Non_Exact","144 KIMBERLY WAY, MARIETTA, GA, 30064",17249109,"R"
182898,"144 KINGSWOOD DRIVE","HUNTSVILLE","AL",35806,34.780762984,-86.6986573839999,398,"144 KINGSWOOD DRIVE, HUNTSVILLE, AL, 35806","Match","Exact","144 KINGSWOOD DR, HUNTSVILLE, AL, 35806",58136562,"R"
182899,"144 KIOWA DR NORTH","JESUP","GA",31546,31.6855478420001,-81.8737450529999,399,"144 KIOWA DR NORTH, JESUP, GA, 31546","Match","Non_Exact","144 KIOWA DR N, JESUP, GA, 31545",625652824,"R"
182900,"144 KUVER LN","COMBINE","TX",75159,32.5816156010001,-96.516822324,400,"144 KUVER LN, COMBINE, TX, 75159","Match","Exact","144 KUVER LN, COMBINE, TX, 75159",123734428,"R"
182901,"144 LA MIRADA DRIVE","HENDERSON","NV",89015,36.043093727,-114.950537837,401,"144 LA MIRADA DRIVE, HENDERSON, NV, 89015","Match","Exact","144 LA MIRADA DR, HENDERSON, NV, 89015",201966598,"R"
182902,"144 LABELLE ST","DAYTON","OH",45403,NA,NA,402,"144 LABELLE ST, DAYTON, OH, 45403","No_Match",NA,NA,NA,NA
182903,"144 LAKES DRIVE SOUTH","OXFORD","MS",38655,34.31195504,-89.4266651729999,403,"144 LAKES DRIVE SOUTH, OXFORD, MS, 38655","Match","Exact","144 LAKES DR S, OXFORD, MS, 38655",624478997,"R"
182904,"144 LAKESHORE DRIVE W","LAKE QUIVIRA","KS",66217,39.0425213340001,-94.776695161,404,"144 LAKESHORE DRIVE W, LAKE QUIVIRA, KS, 66217","Match","Exact","144 LAKESHORE DR W, LAKE QUIVIRA, KS, 66217",91268314,"R"
182905,"144 LAKESIDE CIRCLE","NORTH FORT MYERS","FL",33903,26.699875584,-81.9087670659999,405,"144 LAKESIDE CIRCLE, NORTH FORT MYERS, FL, 33903","Match","Exact","144 LAKESIDE CIR, N FORT MYERS, FL, 33903",639176027,"R"
182906,"144 LAKESTONE COURT","MARIETTA","GA",30066,33.996401092,-84.5489714399999,406,"144 LAKESTONE COURT, MARIETTA, GA, 30066","Match","Non_Exact","144 LAKESTONE CT NW, MARIETTA, GA, 30066",17220360,"L"
182907,"144 LANDS DRIVE","MILLEDGEVILLE","GA",31061,33.1699821760001,-83.1855221979999,407,"144 LANDS DRIVE, MILLEDGEVILLE, GA, 31061","Match","Exact","144 LANDS DR, MILLEDGEVILLE, GA, 31061",16587208,"L"
182908,"144 LANGE ROAD","CRYSTAL FALLS","MI",49920,46.2141371010001,-88.4817124429999,408,"144 LANGE ROAD, CRYSTAL FALLS, MI, 49920","Match","Exact","144 LANGE RD, CRYSTAL FALLS, MI, 49920",165189246,"R"
182909,"144 LARIMAR DRIVE","WILLOWICK","OH",44095,41.6377337910001,-81.476659645,409,"144 LARIMAR DRIVE, WILLOWICK, OH, 44095","Match","Exact","144 LARIMAR DR, WILLOWICK, OH, 44095",649014691,"R"
182910,"144 LAUREL AVENUE","HAMMONTON","NJ",8037,39.649956563,-74.839394382,410,"144 LAUREL AVENUE, HAMMONTON, NJ, 8037","Match","Exact","144 LAUREL AVE, HAMMONTON, NJ, 08037",134367375,"L"
182911,"144 LAURIE COURT","GRAYSLAKE","IL",60030,NA,NA,411,"144 LAURIE COURT, GRAYSLAKE, IL, 60030","No_Match",NA,NA,NA,NA
182912,"144 LEEWAY CIRCLE","WILLISTON","VT",5495,44.367637469,-73.123165217,412,"144 LEEWAY CIRCLE, WILLISTON, VT, 5495","Match","Exact","144 LEEWAY CIR, WILLISTON, VT, 05495",135835882,"L"
182913,"144 LEFT STREET","FALLING WATERS","WV",25419,39.582328225,-77.851069447,413,"144 LEFT STREET, FALLING WATERS, WV, 25419","Match","Exact","144 LEFT ST, FALLING WATERS, WV, 25419",123390021,"R"
182914,"144 LEGACY POINTE DR","PINEVILLE","LA",71360,31.3519666710001,-92.371150969,414,"144 LEGACY POINTE DR, PINEVILLE, LA, 71360","Match","Exact","144 LEGACY POINTE DR, PINEVILLE, LA, 71360",612137617,"L"
182915,"144 LEVEE PLACE","COPPELL","TX",75019,32.984195856,-96.995962268,415,"144 LEVEE PLACE, COPPELL, TX, 75019","Match","Exact","144 LEVEE PL, COPPELL, TX, 75019",102999045,"R"
182916,"144 LEXINGTON AVE","PATERSON","NJ",7502,40.915968084,-74.19757657,416,"144 LEXINGTON AVE, PATERSON, NJ, 7502","Match","Exact","144 LEXINGTON AVE, PATERSON, NJ, 07502",65260627,"R"
182917,"144 LIBERTY DRIVE","MADISON","AL",35758,34.7211482060001,-86.7539817859999,417,"144 LIBERTY DRIVE, MADISON, AL, 35758","Match","Exact","144 LIBERTY DR, MADISON, AL, 35758",236740998,"L"
182918,"144 LIBERTY ST","PATERSON","NJ",7522,40.916119495,-74.1865201809999,418,"144 LIBERTY ST, PATERSON, NJ, 7522","Match","Exact","144 LIBERTY ST, PATERSON, NJ, 07522",65262789,"R"
182919,"144 LIBERTY STREET SUITE 154","COLUMBUS","MS",39710,NA,NA,419,"144 LIBERTY STREET SUITE 154, COLUMBUS, MS, 39710","No_Match",NA,NA,NA,NA
182920,"144 LILLY LN   PO BOX 475","TOQUERVILLE","UT",84774,NA,NA,420,"144 LILLY LN   PO BOX 475, TOQUERVILLE, UT, 84774","No_Match",NA,NA,NA,NA
182921,"144 LINCOLN STREET","MONTCLAIR","NJ",7042,40.8024190790001,-74.2165130659999,421,"144 LINCOLN STREET, MONTCLAIR, NJ, 7042","Match","Exact","144 LINCOLN ST, MONTCLAIR, NJ, 07042",63449697,"L"
182922,"144 LINDEN","PENN YAN","NY",14527,42.668101629,-77.05701548,422,"144 LINDEN, PENN YAN, NY, 14527","Match","Non_Exact","144 LINDEN ST, PENN YAN, NY, 14527",15112094,"L"
182923,"144 LINN ST","WESTSIDE","IA",51467,42.07406982,-95.1021454949999,423,"144 LINN ST, WESTSIDE, IA, 51467","Match","Exact","144 LINN ST, WESTSIDE, IA, 51467",82263623,"L"
182924,"144 LOCUST AVENUE","WINCHESTER","VA",22601,39.2016483240001,-78.158532275,424,"144 LOCUST AVENUE, WINCHESTER, VA, 22601","Match","Exact","144 LOCUST AVE, WINCHESTER, VA, 22601",55578048,"R"
182925,"144 LOFLIN WAY","VIRGINIA BEACH","VA",23462,36.8394300900001,-76.173698488,425,"144 LOFLIN WAY, VIRGINIA BEACH, VA, 23462","Match","Exact","144 LOFLIN WAY, VA BCH, VA, 23462",122262644,"R"
182926,"144 LONGFEATHER LANE","ALABASTER","AL",35007,33.2575883160001,-86.829255788,426,"144 LONGFEATHER LANE, ALABASTER, AL, 35007","Match","Exact","144 LONGFEATHER LN, ALABASTER, AL, 35007",82080568,"R"
182927,"144 LONGVIEW CIRCLE","MEDIA","PA",19063,39.9588271010001,-75.394391809,427,"144 LONGVIEW CIRCLE, MEDIA, PA, 19063","Match","Exact","144 LONGVIEW CIR, MEDIA, PA, 19063",605238198,"R"
182928,"144 LORENZO RD","SANTA FE","NM",87501,35.6836274130001,-105.915859717,428,"144 LORENZO RD, SANTA FE, NM, 87501","Match","Exact","144 LORENZO RD, SANTA FE, NM, 87501",636575848,"R"
182929,"144 LORI LEE DRIVE","GALLATIN","TN",37066,36.337034197,-86.5101847729999,429,"144 LORI LEE DRIVE, GALLATIN, TN, 37066","Match","Exact","144 LORI LEE DR, GALLATIN, TN, 37066",29777833,"R"
182930,"144 LOWE ROAD","VALLEY VIEW","TX",76272,33.476973222,-97.1312313029999,430,"144 LOWE ROAD, VALLEY VIEW, TX, 76272","Match","Exact","144 LOWE RD, VALLEY VIEW, TX, 76272",151330885,"L"
182931,"144 LUCA LANE","KISSIMMEE","FL",34743,28.3218132380001,-81.359180942,431,"144 LUCA LANE, KISSIMMEE, FL, 34743","Match","Exact","144 LUCA LN, KISSIMMEE, FL, 34743",176701662,"R"
182932,"144 LYNNWOOD AVENUE","EAST PITTSBURGH","PA",15112,40.4078764390001,-79.838265096,432,"144 LYNNWOOD AVENUE, EAST PITTSBURGH, PA, 15112","Match","Exact","144 LYNNWOOD AVE, E PITTSBURGH, PA, 15112",51670846,"R"
182933,"144 MAGIC HILL ROAD","HINESBURG","VT",5461,44.2935364690001,-73.149088837,433,"144 MAGIC HILL ROAD, HINESBURG, VT, 5461","Match","Exact","144 MAGIC HILL RD, HINESBURG, VT, 05461",135851172,"R"
182934,"144 MAIKAILOA STREET","PUKALANI","HI",96768,20.838010378,-156.333059344,434,"144 MAIKAILOA STREET, PUKALANI, HI, 96768","Match","Non_Exact","144 MAIKAILOA ST, MAKAWAO, HI, 96768",619775680,"R"
182935,"144 MAIN ST","OLD TOWN","ME",4468,44.9401081030001,-68.6505767209999,435,"144 MAIN ST, OLD TOWN, ME, 4468","Match","Exact","144 MAIN ST, OLD TOWN, ME, 04468",123627444,"R"
182936,"144 MAIN STREET","DALLAS","PA",18612,41.3336281530001,-75.9596491899999,436,"144 MAIN STREET, DALLAS, PA, 18612","Match","Exact","144 MAIN ST, DALLAS, PA, 18612",80909463,"L"
182937,"144 MANDYS MEADOWS","INEZ","KY",41224,NA,NA,437,"144 MANDYS MEADOWS, INEZ, KY, 41224","No_Match",NA,NA,NA,NA
182938,"144 MANRESA RD","ST AUGUSTINE","FL",32084,29.9147791670001,-81.2952797519999,438,"144 MANRESA RD, ST AUGUSTINE, FL, 32084","Match","Exact","144 MANRESA RD, SAINT AUGUSTINE, FL, 32084",92583589,"L"
182939,"144 MAPLE STREET","STOCKBRIDGE","MI",49285,42.453029611,-84.173793066,439,"144 MAPLE STREET, STOCKBRIDGE, MI, 49285","Match","Non_Exact","144 MAPLE AVE, STOCKBRIDGE, MI, 49285",17513655,"L"
182940,"144 MARTENESE STREET NO 1","BROOKLYN","NY",11226,40.6514583680001,-73.95417527,440,"144 MARTENESE STREET NO 1, BROOKLYN, NY, 11226","Match","Non_Exact","144 MARTENSE ST, BROOKLYN, NY, 11226",59081375,"R"
182941,"144 MARTIN LANE","ALEXANDRIA","VA",22304,38.810604207,-77.1201762169999,441,"144 MARTIN LANE, ALEXANDRIA, VA, 22304","Match","Exact","144 MARTIN LN, ALEXANDRIA, VA, 22304",76064431,"R"
182942,"144 MARY WOOD LANE","CRYSTAL FALLS","MI",49920,46.062300469,-88.225484152,442,"144 MARY WOOD LANE, CRYSTAL FALLS, MI, 49920","Match","Exact","144 MARY WOOD LN, CRYSTAL FALLS, MI, 49920",165189926,"R"
182943,"144 MAYSON AVENUE","ATLANTA","GA",30307,33.7575193870001,-84.3385800579999,443,"144 MAYSON AVENUE, ATLANTA, GA, 30307","Match","Non_Exact","144 MAYSON AVE NE, ATLANTA, GA, 30307",23365415,"L"
182944,"144 MCCONNELL DR","LAWRENCEVILLE","GA",30046,33.964286343,-84.005466896,444,"144 MCCONNELL DR, LAWRENCEVILLE, GA, 30046","Match","Exact","144 MCCONNELL DR, LAWRENCEVILLE, GA, 30046",640547636,"R"
182945,"144 MCIVER ST","CHERAW","SC",29520,NA,NA,445,"144 MCIVER ST, CHERAW, SC, 29520","No_Match",NA,NA,NA,NA
182946,"144 MCKINLEY AVE","KENMORE","NY",14217,42.9647371180001,-78.863333827,446,"144 MCKINLEY AVE, KENMORE, NY, 14217","Match","Exact","144 MCKINLEY AVE, KENMORE, NY, 14217",635793371,"L"
182947,"144 MCKINLEY DRIVE","BURLESON","TX",76028,32.5205480180001,-97.3232920789999,447,"144 MCKINLEY DRIVE, BURLESON, TX, 76028","Match","Exact","144 MCKINLEY DR, BURLESON, TX, 76028",614116499,"L"
182948,"144 MEADOWVIEW LN","WILLIAMSVILLE","NY",14221,42.9855064860001,-78.7363333499999,448,"144 MEADOWVIEW LN, WILLIAMSVILLE, NY, 14221","Match","Exact","144 MEADOWVIEW LN, WILLIAMSVILLE, NY, 14221",48305160,"L"
182949,"144 MELVILLE ST","ROCHESTER","NY",14609,43.166512675,-77.5735485289999,449,"144 MELVILLE ST, ROCHESTER, NY, 14609","Match","Exact","144 MELVILLE ST, ROCHESTER, NY, 14609",14539594,"L"
182950,"144 MENENDEZ ROAD","SAINT AUGSTINE","FL",32080,29.8828716850001,-81.294170247,450,"144 MENENDEZ ROAD, SAINT AUGSTINE, FL, 32080","Match","Non_Exact","144 MENENDEZ RD, SAINT AUGUSTINE, FL, 32080",92582757,"R"
182951,"144 MENENDEZ ROAD","SAINT AUGUSTINE","PA",32080,NA,NA,451,"144 MENENDEZ ROAD, SAINT AUGUSTINE, PA, 32080","No_Match",NA,NA,NA,NA
182952,"144 MERGENSCROER DR","LUCEDALE","MS",39452,30.979400135,-88.600335596,452,"144 MERGENSCROER DR, LUCEDALE, MS, 39452","Match","Non_Exact","144 MERGENSCHROER DR, LUCEDALE, MS, 39452",606130825,"L"
182953,"144 MILNER AVE","ALBANY","NY",12208,42.66278722,-73.812438124,453,"144 MILNER AVE, ALBANY, NY, 12208","Match","Exact","144 MILNER AVE, ALBANY, NY, 12208",653440551,"R"
182954,"144 MINNESOTA CIR","JACKSONVILLE","AR",72076,34.894305617,-92.15426328,454,"144 MINNESOTA CIR, JACKSONVILLE, AR, 72076","Match","Exact","144 MINNESOTA CIR, JACKSONVILLE, AR, 72076",83518539,"R"
182955,"144 MONTANA AVE","OAK RIDGE","TN",37830,36.000053345,-84.318939351,455,"144 MONTANA AVE, OAK RIDGE, TN, 37830","Match","Exact","144 MONTANA AVE, OAK RIDGE, TN, 37830",90129756,"R"
182956,"144 MONTEREY BLVD APT A","HERMOSA BEACH","CA",90254,33.854506809,-118.396018943,456,"144 MONTEREY BLVD APT A, HERMOSA BEACH, CA, 90254","Match","Exact","144 MONTEREY BLVD, HERMOSA BEACH, CA, 90254",141583443,"R"
182957,"144 MORELAND AVE NE","ATLANTA","GA",30307,33.7567760760001,-84.349149648,457,"144 MORELAND AVE NE, ATLANTA, GA, 30307","Match","Exact","144 MORELAND AVE NE, ATLANTA, GA, 30307",17358000,"L"
182958,"144 MOUNT OLIVE CIRCLE","TALLADEGA","AL",35160,33.423557778,-86.069382908,458,"144 MOUNT OLIVE CIRCLE, TALLADEGA, AL, 35160","Match","Exact","144 MOUNT OLIVE CIR, TALLADEGA, AL, 35160",66936829,"L"
182959,"144 MOUNT PLEASANT ROAD","LEVANT","ME",4456,44.8684655550001,-69.028527969,459,"144 MOUNT PLEASANT ROAD, LEVANT, ME, 4456","Match","Exact","144 MT PLEASANT RD, LEVANT, ME, 04456",123645809,"L"
182960,"144 MOUNTAINSIDE DRIVE","POMPTON LAKES","NJ",7442,41.011333511,-74.289444768,460,"144 MOUNTAINSIDE DRIVE, POMPTON LAKES, NJ, 7442","Match","Exact","144 MOUNTAINSIDE DR, POMPTON LAKES, NJ, 07442",651751145,"R"
182961,"144 MUSTANG STREET","SULPHUR","LA",70663,30.2208829320001,-93.3750505419999,461,"144 MUSTANG STREET, SULPHUR, LA, 70663","Match","Exact","144 MUSTANG ST, SULPHUR, LA, 70663",88455368,"L"
182962,"144 MYRTLEWOOD DR","MOUNT GILEAD","NC",27306,35.2114746980001,-79.988040353,462,"144 MYRTLEWOOD DR, MOUNT GILEAD, NC, 27306","Match","Exact","144 MYRTLEWOOD DR, MOUNT GILEAD, NC, 27306",640622002,"L"
182963,"144 N 5TH STREET","RIO VISTA","CA",94571,38.1593235820001,-121.692836962,463,"144 N 5TH STREET, RIO VISTA, CA, 94571","Match","Exact","144 N 5TH ST, RIO VISTA, CA, 94571",192525913,"L"
182964,"144 N 9TH STREET APT 3R","BROOKLYN","NY",11249,40.672039215,-73.992226707,464,"144 N 9TH STREET APT 3R, BROOKLYN, NY, 11249","Match","Non_Exact","144 9TH ST, BROOKLYN, NY, 11215",59075567,"R"
182965,"144 N BELL","CHICAGO","IL",60612,41.8842431210001,-87.682763215,465,"144 N BELL, CHICAGO, IL, 60612","Match","Non_Exact","144 N BELL AVE, CHICAGO, IL, 60612",618344250,"L"
182966,"144 N CANYON BLVD","JOHN DAY","OR",97845,44.4169114320001,-118.9526783,466,"144 N CANYON BLVD, JOHN DAY, OR, 97845","Match","Exact","144 N CANYON BLVD, JOHN DAY, OR, 97845",645500894,"L"
182967,"144 N CREST RD","CHATTANOOGA","TN",37404,35.0387858650001,-85.2536409959999,467,"144 N CREST RD, CHATTANOOGA, TN, 37404","Match","Exact","144 N CREST RD, CHATTANOOGA, TN, 37404",645435254,"R"
182968,"144 N DITHRIDGE ST APT 202","PITTSBURGH","PA",15213,NA,NA,468,"144 N DITHRIDGE ST APT 202, PITTSBURGH, PA, 15213","Tie",NA,NA,NA,NA
182969,"144 N GLENDORA AVE","COVINA","CA",91724,34.086748668,-117.863712138,469,"144 N GLENDORA AVE, COVINA, CA, 91724","Match","Exact","144 N GLENDORA AVE, COVINA, CA, 91724",142787501,"R"
182970,"144 N HARRISON ST","FORT BRAGG","CA",95437,39.442283106,-123.802067997,470,"144 N HARRISON ST, FORT BRAGG, CA, 95437","Match","Exact","144 N HARRISON ST, FORT BRAGG, CA, 95437",67256532,"R"
182971,"144 N LOS ROBLES AVE 2","PASADENA","CA",91101,NA,NA,471,"144 N LOS ROBLES AVE 2, PASADENA, CA, 91101","Tie",NA,NA,NA,NA
182972,"144 N MAIN STREET","PATERSON","NJ",7522,40.9274493980001,-74.16922779,472,"144 N MAIN STREET, PATERSON, NJ, 7522","Match","Exact","144 N MAIN ST, PATERSON, NJ, 07522",65263138,"R"
182973,"144 N OLD MILL DRIVE PO BOX 301","FORT ASHBY","WV",26719,NA,NA,473,"144 N OLD MILL DRIVE PO BOX 301, FORT ASHBY, WV, 26719","No_Match",NA,NA,NA,NA
182974,"144 NASH RD","MOORE","SC",29369,34.8921243780001,-81.986925013,474,"144 NASH RD, MOORE, SC, 29369","Match","Exact","144 NASH RD, MOORE, SC, 29369",19469335,"R"
182975,"144 NE 15TH AVE","BOYNTON BEACH","FL",33435,26.5422593320001,-80.06505321,475,"144 NE 15TH AVE, BOYNTON BEACH, FL, 33435","Match","Exact","144 NE 15TH AVE, BOYNTON BEACH, FL, 33435",115577510,"R"
182976,"144 NESTLE RD","FORT PLAIN","NY",13339,42.908588336,-74.648855914,476,"144 NESTLE RD, FORT PLAIN, NY, 13339","Match","Exact","144 NESTLE RD, FORT PLAIN, NY, 13339",642832169,"L"
182977,"144 NEW BRITAIN AVENUE","PLAINVILLE","CT",6062,41.676863027,-72.8502653369999,477,"144 NEW BRITAIN AVENUE, PLAINVILLE, CT, 6062","Match","Exact","144 NEW BRITAIN AVE, PLAINVILLE, CT, 06062",617510823,"R"
182978,"144 NOBEL CT","HOLLY HILL","SC",29059,33.3770962420001,-80.446300832,478,"144 NOBEL CT, HOLLY HILL, SC, 29059","Match","Exact","144 NOBEL CT, HOLLY HILL, SC, 29059",605532687,"R"
182979,"144 NORTH AVE","ROCHESTER","MA",2770,41.781271684,-70.903044108,479,"144 NORTH AVE, ROCHESTER, MA, 2770","Match","Exact","144 NORTH AVE, ROCHESTER, MA, 02770",623844814,"R"
182980,"144 NORTH BALDWIN AVE UNIT 4","SIERRA MADRE","CA",91024,34.164413977,-118.052517807,480,"144 NORTH BALDWIN AVE UNIT 4, SIERRA MADRE, CA, 91024","Match","Exact","144 N BALDWIN AVE, SIERRA MADRE, CA, 91024",141643515,"R"
182981,"144 NORTH DIXIE","LAYTON","UT",84041,NA,NA,481,"144 NORTH DIXIE, LAYTON, UT, 84041","No_Match",NA,NA,NA,NA
182982,"144 NORTH MAIN ST","TERRYVILLE","CT",6786,41.686325588,-73.0047759889999,482,"144 NORTH MAIN ST, TERRYVILLE, CT, 6786","Match","Exact","144 N MAIN ST, TERRYVILLE, CT, 06786",3133248,"R"
182983,"144 NORTH OATES STREET","DOTHAN","AL",36303,31.224597804,-85.3934891,483,"144 NORTH OATES STREET, DOTHAN, AL, 36303","Match","Exact","144 N OATES ST, DOTHAN, AL, 36303",638093875,"R"
182984,"144 NORTH ORCHARD AVE","DAYTON","OH",45417,39.7559935090001,-84.229271485,484,"144 NORTH ORCHARD AVE, DAYTON, OH, 45417","Match","Exact","144 N ORCHARD AVE, DAYTON, OH, 45417",143567799,"R"
182985,"144 NORTH SHIELDS LANE APT P2","NATCHEZ","MS",39120,31.547161535,-91.3750062139999,485,"144 NORTH SHIELDS LANE APT P2, NATCHEZ, MS, 39120","Match","Exact","144 N SHIELDS LN, NATCHEZ, MS, 39120",79852583,"L"
182986,"144 NORTH STANWORTH DRIVE","PRINCETON","NJ",8540,40.3549032120001,-74.6673360519999,486,"144 NORTH STANWORTH DRIVE, PRINCETON, NJ, 8540","Match","Exact","144 N STANWORTH DR, PRINCETON, NJ, 08540",60170589,"R"
182987,"144 NORTH VALLEY RD","PELHAM","MA",1002,42.386508291,-72.447709791,487,"144 NORTH VALLEY RD, PELHAM, MA, 1002","Match","Exact","144 N VALLEY RD, PELHAM, MA, 01002",39845436,"L"
182988,"144 NORTHBROOK DR","WILMINGTON","NC",28405,34.277164079,-77.8729541559999,488,"144 NORTHBROOK DR, WILMINGTON, NC, 28405","Match","Exact","144 NORTHBROOK DR, WILMINGTON, NC, 28405",633243092,"R"
182989,"144 NORTHBROOK DRIVE","WILMINGTON","NC",28405,34.277164079,-77.8729541559999,489,"144 NORTHBROOK DRIVE, WILMINGTON, NC, 28405","Match","Exact","144 NORTHBROOK DR, WILMINGTON, NC, 28405",633243092,"R"
182990,"144 NORTHERN AVE APT 2","AUGUSTA","ME",4330,44.327786534,-69.777228872,490,"144 NORTHERN AVE APT 2, AUGUSTA, ME, 4330","Match","Exact","144 NORTHERN AVE, AUGUSTA, ME, 04330",607798286,"L"
182991,"144 NORTHVIEW DR","LAWRENCEVILLE","VA",23868,36.746061631,-77.866756749,491,"144 NORTHVIEW DR, LAWRENCEVILLE, VA, 23868","Match","Exact","144 NORTHVIEW DR, LAWRENCEVILLE, VA, 23868",54039361,"R"
182992,"144 NORWAY LOOP RD","FAIRMONT","WV",26554,39.4638323930001,-80.184198387,492,"144 NORWAY LOOP RD, FAIRMONT, WV, 26554","Match","Exact","144 NORWAY LOOP RD, FAIRMONT, WV, 26554",652445276,"R"
182993,"144 NW 2ND ST","HOMESTEAD","FL",33030,25.47163384,-80.4803452469999,493,"144 NW 2ND ST, HOMESTEAD, FL, 33030","Match","Exact","144 NW 2ND ST, HOMESTEAD, FL, 33030",115991994,"L"
182994,"144 OAK BLVD","WAVELAND","MS",39576,30.2744139770001,-89.3783459699999,494,"144 OAK BLVD, WAVELAND, MS, 39576","Match","Exact","144 OAK BLVD, WAVELAND, MS, 39576",111131933,"R"
182995,"144 OAK RIDGE CIRCLE","OAK CREEK","CO",80467,40.270575077,-106.957527157,495,"144 OAK RIDGE CIRCLE, OAK CREEK, CO, 80467","Match","Exact","144 OAK RIDGE CIR, OAK CREEK, CO, 80467",608264895,"R"
182996,"144 OAKWOOD CIRCLE NE","CLEVELAND","TN",37312,35.219469885,-84.811302623,496,"144 OAKWOOD CIRCLE NE, CLEVELAND, TN, 37312","Match","Exact","144 OAKWOOD CIR NE, CLEVELAND, TN, 37312",57573616,"R"
182997,"144 OLD CHAPIN ROAD 6A","LEXINGTON","SC",29072,33.9899807190001,-81.2475189799999,497,"144 OLD CHAPIN ROAD 6A, LEXINGTON, SC, 29072","Match","Non_Exact","144 OLD CHAPIN RD, LEXINGTON, SC, 29072",600565720,"R"
182998,"144 ORCHARD DRIVE","BELLEVILLE","IL",62221,38.5213032620001,-89.952064523,498,"144 ORCHARD DRIVE, BELLEVILLE, IL, 62221","Match","Exact","144 ORCHARD DR, BELLEVILLE, IL, 62221",107932156,"R"
182999,"144 PAIGE LANE DRIVE","LUDOWICI","GA",31316,NA,NA,499,"144 PAIGE LANE DRIVE, LUDOWICI, GA, 31316","No_Match",NA,NA,NA,NA
183000,"144 PAMLICO DR","HOLLY RIDGE","NC",28445,34.526367909,-77.498200083,500,"144 PAMLICO DR, HOLLY RIDGE, NC, 28445","Match","Exact","144 PAMLICO DR, HOLLY RIDGE, NC, 28445",642449593,"R"
