"ID","Address","City","State","Zip","lat","long","id","input_address","match_indicator","match_type","matched_address","tiger_line_id","tiger_side"
162001,"1375 VAUXHALL RD","UNION","NJ",7083,40.6912530160001,-74.242341531,1,"1375 VAUXHALL RD, UNION, NJ, 7083","Match","Exact","1375 VAUXHALL RD, UNION, NJ, 07083",60576486,"R"
162002,"1375 W 3150 S","HURRICANE","UT",84737,NA,NA,2,"1375 W 3150 S, HURRICANE, UT, 84737","No_Match",NA,NA,NA,NA
162003,"1375 W SAN BERNARDINO","COVINA","CA",91722,NA,NA,3,"1375 W SAN BERNARDINO, COVINA, CA, 91722","No_Match",NA,NA,NA,NA
162004,"1375 WALTON CREEK ROAD UNIT B11","STEAMBOAT SPRINGS","CO",80487,40.4509795970001,-106.81118859,4,"1375 WALTON CREEK ROAD UNIT B11, STEAMBOAT SPRINGS, CO, 80487","Match","Exact","1375 WALTON CREEK RD, STEAMBOAT SPRINGS, CO, 80487",105996161,"R"
162005,"1375 WAYNE WAY","SAN MATEO","CA",94403,37.5462647300001,-122.290685594,5,"1375 WAYNE WAY, SAN MATEO, CA, 94403","Match","Exact","1375 WAYNE WAY, SAN MATEO, CA, 94403",192404969,"L"
162006,"1375 WILLOW BRANCH ROAD","JACKSONVILLE, IL 626","IL",62650,39.7310760460001,-90.343461469,6,"1375 WILLOW BRANCH ROAD, JACKSONVILLE, IL 626, IL, 62650","Match","Non_Exact","1375 WILLOW BRANCH RD, JACKSONVILLE, IL, 62650",81431054,"L"
162007,"1375 WILLOW POINT TERRACE","MARIETTA","GA",30068,33.9821412480001,-84.3918051699999,7,"1375 WILLOW POINT TERRACE, MARIETTA, GA, 30068","Match","Exact","1375 WILLOW POINT TER, MARIETTA, GA, 30068",17184187,"R"
162008,"1375 WRIGHTON ROAD","LOTHIAN","MD",20711,38.792789188,-76.6997132829999,8,"1375 WRIGHTON ROAD, LOTHIAN, MD, 20711","Match","Exact","1375 WRIGHTON RD, LOTHIAN, MD, 20711",68181354,"L"
162009,"1375 ZURICH TERRACE","SUNNYVALE","CA",94087,37.349740943,-122.032610182,9,"1375 ZURICH TERRACE, SUNNYVALE, CA, 94087","Match","Exact","1375 ZURICH TER, SUNNYVALE, CA, 94087",122938361,"R"
162010,"13750 ARNOLD DRIVE","GLEN ELLEN","CA",95443,38.361519276,-122.5258422,10,"13750 ARNOLD DRIVE, GLEN ELLEN, CA, 95443","Match","Non_Exact","13750 ARNOLD DR, GLEN ELLEN, CA, 95442",67475747,"R"
162011,"13750 CAMP SHERMAN RD","CAMP SHERMAN","OR",97730,44.4392594930001,-121.654562196,11,"13750 CAMP SHERMAN RD, CAMP SHERMAN, OR, 97730","Match","Non_Exact","13750 SW CAMP SHERMAN RD, CAMP SHERMAN, OR, 97730",153253228,"L"
162012,"13750 FORSMAN ROAD","OLALLA","WA",98359,47.4228032240001,-122.567797266,12,"13750 FORSMAN ROAD, OLALLA, WA, 98359","Match","Non_Exact","13750 FORSMAN RD SE, OLALLA, WA, 98359",617960901,"L"
162013,"13750 MILLARD AVE SUITE 201","OMAHA","NE",68137,41.2072619890001,-96.127989975,13,"13750 MILLARD AVE SUITE 201, OMAHA, NE, 68137","Match","Exact","13750 MILLARD AVE, OMAHA, NE, 68137",117018232,"R"
162014,"13750 MORNINGBLUFF DRIVE","SAN ANTONIO","TX",78216,29.5680272430001,-98.491369922,14,"13750 MORNINGBLUFF DRIVE, SAN ANTONIO, TX, 78216","Match","Exact","13750 MORNINGBLUFF DR, SAN ANTONIO, TX, 78216",101566846,"L"
162015,"13750 NORTH LEGACY HILLS DRIVE","MEQUON","WI",53097,43.2682595890001,-88.007249905,15,"13750 NORTH LEGACY HILLS DRIVE, MEQUON, WI, 53097","Match","Non_Exact","13750 LEGACY HILLS DR, MEQUON, WI, 53097",612753034,"R"
162016,"13750 SAN PEDRO AVENUE","SAN ANTONIO","TX",78232,29.564779915,-98.481676081,16,"13750 SAN PEDRO AVENUE, SAN ANTONIO, TX, 78232","Match","Exact","13750 SAN PEDRO AVE, SAN ANTONIO, TX, 78232",101496309,"R"
162017,"13750 SPRUCEWOOD","DALLAS","TX",75240,NA,NA,17,"13750 SPRUCEWOOD, DALLAS, TX, 75240","Tie",NA,NA,NA,NA
162018,"13750 TIVERTON ROAD","SAN DIEGO","CA",92130,NA,NA,18,"13750 TIVERTON ROAD, SAN DIEGO, CA, 92130","No_Match",NA,NA,NA,NA
162019,"13750 VENTURA BLVD STE 205","SHERMAN OAKS","CA",91423,34.148268283,-118.432743716,19,"13750 VENTURA BLVD STE 205, SHERMAN OAKS, CA, 91423","Match","Exact","13750 VENTURA BLVD, SHERMAN OAKS, CA, 91423",141562543,"L"
162020,"13750 VIOLET MEADOWS AVE","PICKERINGTON","OH",43147,39.933241503,-82.7201346149999,20,"13750 VIOLET MEADOWS AVE, PICKERINGTON, OH, 43147","Match","Non_Exact","13750 VIOLET MEADOWS BLVD, PICKERINGTON, OH, 43147",37247732,"R"
162021,"13750 W COLONIAL DR STE 350 30","WINTER GARDEN","FL",34787,28.5510196160001,-81.5900507599999,21,"13750 W COLONIAL DR STE 350 30, WINTER GARDEN, FL, 34787","Match","Non_Exact","13750 W COLONIAL DR, WINTER GARDEN, FL, 34787",94354451,"L"
162022,"13750 W COLONIAL DR STE 350 364","WINTER GARDEN","FL",34787,28.5510196160001,-81.5900507599999,22,"13750 W COLONIAL DR STE 350 364, WINTER GARDEN, FL, 34787","Match","Non_Exact","13750 W COLONIAL DR, WINTER GARDEN, FL, 34787",94354451,"L"
162023,"13750 W COLONIAL DR STE 350-364","WINTER GARDEN","FL",34687,NA,NA,23,"13750 W COLONIAL DR STE 350-364, WINTER GARDEN, FL, 34687","No_Match",NA,NA,NA,NA
162024,"13750 WEST COLONIAL DR STE 350-138","WINTER GARDEN","FL",34787,28.5510196160001,-81.590045187,24,"13750 WEST COLONIAL DR STE 350-138, WINTER GARDEN, FL, 34787","Match","Exact","13750 W COLONIAL DR, WINTER GARDEN, FL, 34787",94354451,"L"
162025,"13750 WEST COLONIAL DRIVE 350-121","WINTER GARDEN","FL",34787,28.5510196160001,-81.590045187,25,"13750 WEST COLONIAL DRIVE 350-121, WINTER GARDEN, FL, 34787","Match","Exact","13750 W COLONIAL DR, WINTER GARDEN, FL, 34787",94354451,"L"
162026,"13750 WEST COLONIAL DRIVE STE 350-1","WINTER GARDEN","FL",34787,28.5510196160001,-81.590045187,26,"13750 WEST COLONIAL DRIVE STE 350-1, WINTER GARDEN, FL, 34787","Match","Exact","13750 W COLONIAL DR, WINTER GARDEN, FL, 34787",94354451,"L"
162027,"13751 BEACH ST","CERRITOS","CA",90703,33.876611315,-118.038690058,27,"13751 BEACH ST, CERRITOS, CA, 90703","Match","Exact","13751 BEACH ST, CERRITOS, CA, 90703",141754249,"L"
162028,"13751 CHRISTENSEN ROAD","GALT","CA",95632,38.2568068750001,-121.337298204,28,"13751 CHRISTENSEN ROAD, GALT, CA, 95632","Match","Exact","13751 CHRISTENSEN RD, GALT, CA, 95632",133414492,"L"
162029,"13751 EDWARDS ST APT 28D","WESTMINSTER","CA",92683,33.761825469,-118.015954466,29,"13751 EDWARDS ST APT 28D, WESTMINSTER, CA, 92683","Match","Exact","13751 EDWARDS ST, WESTMINSTER, CA, 92683",609055755,"R"
162030,"13751 JAMUL DR","JAMUL","CA",91935,32.7327839430001,-116.879271491,30,"13751 JAMUL DR, JAMUL, CA, 91935","Match","Exact","13751 JAMUL DR, JAMUL, CA, 91935",195727768,"R"
162031,"13751 JUNCTION DRIVE","MANASSAS","VA",20112,38.658153283,-77.451452906,31,"13751 JUNCTION DRIVE, MANASSAS, VA, 20112","Match","Exact","13751 JUNCTION DR, MANASSAS, VA, 20112",76507256,"L"
162032,"13751 LEMOLI AVENUE 104","HAWTHORNE","CA",90250,33.906629681,-118.330824214,32,"13751 LEMOLI AVENUE 104, HAWTHORNE, CA, 90250","Match","Exact","13751 LEMOLI AVE, HAWTHORNE, CA, 90250",142752845,"R"
162033,"13751 NW HOGAN ST","PORTLAND","OR",97229,45.5489284400001,-122.818621964,33,"13751 NW HOGAN ST, PORTLAND, OR, 97229","Match","Exact","13751 NW HOGAN ST, PORTLAND, OR, 97229",605214719,"R"
162034,"13751 ST ANDREWS DR STE 35A","SEAL BEACH","CA",90740,33.763023558,-118.081105022,34,"13751 ST ANDREWS DR STE 35A, SEAL BEACH, CA, 90740","Match","Exact","13751 ST ANDREWS DR, SEAL BEACH, CA, 90740",144002969,"L"
162035,"13751 SW 152ND ST","MIAMI","FL",33177,NA,NA,35,"13751 SW 152ND ST, MIAMI, FL, 33177","No_Match",NA,NA,NA,NA
162036,"13751 SW 152ND STREET","MIAMI","FL",33177,NA,NA,36,"13751 SW 152ND STREET, MIAMI, FL, 33177","No_Match",NA,NA,NA,NA
162037,"13751 TRAIL STONE LANE","HASLET","TX",76052,32.981076188,-97.387255467,37,"13751 TRAIL STONE LANE, HASLET, TX, 76052","Match","Exact","13751 TRAIL STONE LN, HASLET, TX, 76052",619872866,"L"
162038,"13752 36TH AVENUE NE","SEATTLE","WA",98125,47.728688268,-122.289609471,38,"13752 36TH AVENUE NE, SEATTLE, WA, 98125","Match","Exact","13752 36TH AVE NE, SEATTLE, WA, 98125",186577089,"R"
162039,"13752 ASPEN LEAF LN","EASTVALE","CA",92880,33.9531240370001,-117.582869258,39,"13752 ASPEN LEAF LN, EASTVALE, CA, 92880","Match","Exact","13752 ASPEN LEAF LN, EASTVALE, CA, 92880",608987951,"L"
162040,"13752 BASIN","BATON ROUGE","LA",70810,30.3688776230001,-91.064272858,40,"13752 BASIN, BATON ROUGE, LA, 70810","Match","Non_Exact","13752 BASIN CT, BATON ROUGE, LA, 70810",92193511,"R"
162041,"13752 PINE ST 5","WESTMINSTER","CA",92683,33.76226633,-118.006216248,41,"13752 PINE ST 5, WESTMINSTER, CA, 92683","Match","Exact","13752 PINE ST, WESTMINSTER, CA, 92683",609055734,"L"
162042,"13752 ZARTHAN AVE SOUTH","SAVAGE","MN",55378,44.7547301760001,-93.354588447,42,"13752 ZARTHAN AVE SOUTH, SAVAGE, MN, 55378","Match","Exact","13752 ZARTHAN AVE S, SAVAGE, MN, 55378",38145297,"R"
162043,"13753 STONE DR","CARMEL","IN",46032,39.989360418,-86.170301045,43,"13753 STONE DR, CARMEL, IN, 46032","Match","Exact","13753 STONE DR, CARMEL, IN, 46032",29313311,"L"
162044,"13754 72ND CT N","WEST PALM BEACH","FL",33412,26.783009361,-80.2581171859999,44,"13754 72ND CT N, WEST PALM BEACH, FL, 33412","Match","Exact","13754 72ND CT N, WEST PALM BEACH, FL, 33412",115347289,"R"
162045,"13754 CABRILLO CT","FONTANA","CA",92336,34.1134050090001,-117.502085228,45,"13754 CABRILLO CT, FONTANA, CA, 92336","Match","Exact","13754 CABRILLO CT, FONTANA, CA, 92336",144708312,"L"
162046,"13754 GARFIELD STREET","THORNTON","CO",80602,39.945353244,-104.94505729,46,"13754 GARFIELD STREET, THORNTON, CO, 80602","Match","Exact","13754 GARFIELD ST, THORNTON, CO, 80602",177422135,"L"
162047,"13754 GROVE AVE","BONNER SPRINGS","KS",66012,39.0643408880001,-94.9000566719999,47,"13754 GROVE AVE, BONNER SPRINGS, KS, 66012","Match","Exact","13754 GROVE AVE, BONNER SPRINGS, KS, 66012",619583977,"L"
162048,"13754 NW 11TH ST","PEMBROKE PINES","FL",33028,26.0156997830001,-80.331232095,48,"13754 NW 11TH ST, PEMBROKE PINES, FL, 33028","Match","Exact","13754 NW 11TH ST, PEMBROKE PINES, FL, 33028",114782103,"R"
162049,"13754 POLK STREET","SYLMAR","CA",91342,34.3225086750001,-118.432951597,49,"13754 POLK STREET, SYLMAR, CA, 91342","Match","Exact","13754 POLK ST, SYLMAR, CA, 91342",142039598,"L"
162050,"13754 SABLERIDGE DR","HOUSTON","TX",77014,29.977574524,-95.481915015,50,"13754 SABLERIDGE DR, HOUSTON, TX, 77014","Match","Exact","13754 SABLERIDGE DR, HOUSTON, TX, 77014",96011095,"L"
162051,"13754 SW 175TH AVE","SHERWOOD","OR",97140,45.420140014,-122.856434811,51,"13754 SW 175TH AVE, SHERWOOD, OR, 97140","Match","Exact","13754 SW 175TH AVE, SHERWOOD, OR, 97140",649032268,"L"
162052,"13755 CADEN GLEN DV","HUDSON","FL",34669,28.3438397370001,-82.587285319,52,"13755 CADEN GLEN DV, HUDSON, FL, 34669","Match","Non_Exact","13755 CADEN GLEN DR, HUDSON, FL, 34669",634075411,"L"
162053,"13755 COUNTY ROAD K","DARLINGTON","WI",53530,NA,NA,53,"13755 COUNTY ROAD K, DARLINGTON, WI, 53530","No_Match",NA,NA,NA,NA
162054,"13755 DUNBAR TERRACE","GAITHERSBURG","MD",20874,39.155935254,-77.28571892,54,"13755 DUNBAR TERRACE, GAITHERSBURG, MD, 20874","Match","Non_Exact","13755 DUNBAR TER, DARNESTOWN, MD, 20874",641008591,"R"
162055,"13755 JUBILEE DR","PEKIN","IL",61554,40.4844042560001,-89.666912074,55,"13755 JUBILEE DR, PEKIN, IL, 61554","Match","Exact","13755 JUBILEE DR, PEKIN, IL, 61554",650258623,"L"
162056,"13755 S MOLALLA FOREST RD","MOLALLA","OR",97038,45.138120214,-122.583446598,56,"13755 S MOLALLA FOREST RD, MOLALLA, OR, 97038","Match","Exact","13755 S MOLALLA FOREST RD, MOLALLA, OR, 97038",157902083,"L"
162057,"13755 SOUTHGATE STREET","SPRINGFIELD GARDENS","NY",11413,NA,NA,57,"13755 SOUTHGATE STREET, SPRINGFIELD GARDENS, NY, 11413","No_Match",NA,NA,NA,NA
162058,"13755 SOUTHGATE STREET","SPRNGFIELD GARDEN","CT",11413,NA,NA,58,"13755 SOUTHGATE STREET, SPRNGFIELD GARDEN, CT, 11413","No_Match",NA,NA,NA,NA
162059,"13755 SW 90TH AVE  S103","MIAMI","FL",33186,NA,NA,59,"13755 SW 90TH AVE  S103, MIAMI, FL, 33186","No_Match",NA,NA,NA,NA
162060,"13755","MOLALLA","OR",97038,NA,NA,60,"13755, MOLALLA, OR, 97038","No_Match",NA,NA,NA,NA
162061,"13756 SHIRLEY DRIVE","BURNSVILLE","MN",55337,44.7545579150001,-93.304782546,61,"13756 SHIRLEY DRIVE, BURNSVILLE, MN, 55337","Match","Exact","13756 SHIRLEY DR, BURNSVILLE, MN, 55337",37927730,"R"
162062,"13756 SHORELINE","EARTH CITY","MO",63045,38.7685510420001,-90.4661030299999,62,"13756 SHORELINE, EARTH CITY, MO, 63045","Match","Non_Exact","13756 SHORE LINE CT, EARTH CITY, MO, 63045",100193280,"L"
162063,"13757 NE 3RD COURT APT A204","NORTH MIAMI","FL",33161,25.901375693,-80.192001046,63,"13757 NE 3RD COURT APT A204, NORTH MIAMI, FL, 33161","Match","Non_Exact","13757 NE 3RD CT, NORTH MIAMI, FL, 33161",116255622,"R"
162064,"13758 CENTER STREET","CARMEL VALLEY","CA",93924,36.4790635680001,-121.731846229,64,"13758 CENTER STREET, CARMEL VALLEY, CA, 93924","Match","Exact","13758 CENTER ST, CARMEL VALLEY, CA, 93924",196851055,"R"
162065,"13758 MCKENZIE AVENUE","POWAY","CA",92064,32.9638546480001,-117.039536674,65,"13758 MCKENZIE AVENUE, POWAY, CA, 92064","Match","Exact","13758 MCKENZIE AVE, POWAY, CA, 92064",195323925,"L"
162066,"13759 ATTALA RD 4202","JACKSON","MS",39212,NA,NA,66,"13759 ATTALA RD 4202, JACKSON, MS, 39212","No_Match",NA,NA,NA,NA
162067,"13759 FLEET ST","WOODBRIDGE","VA",22191,38.6543062910001,-77.236011135,67,"13759 FLEET ST, WOODBRIDGE, VA, 22191","Match","Exact","13759 FLEET ST, WOODBRIDGE, VA, 22191",207144172,"L"
162068,"13759 FRANCISCO DR","LA MIRADA","CA",90638,33.9066988220001,-117.978266555,68,"13759 FRANCISCO DR, LA MIRADA, CA, 90638","Match","Exact","13759 FRANCISCO DR, LA MIRADA, CA, 90638",142676696,"L"
162069,"13759 NW HENNINGER LN","PORTLAND","OR",97229,45.5501113110001,-122.818719147,69,"13759 NW HENNINGER LN, PORTLAND, OR, 97229","Match","Exact","13759 NW HENNINGER LN, PORTLAND, OR, 97229",605204294,"R"
162070,"13759 ROUTE 235","BEAVER SPRINGS","PA",17812,40.7398598460001,-77.224254977,70,"13759 ROUTE 235, BEAVER SPRINGS, PA, 17812","Match","Non_Exact","13759 STATE RTE 235, BEAVER SPRINGS, PA, 17812",47793192,"R"
162071,"13759 ZAREMBA DRIVE","BROOK PARK","OH",44142,41.389930184,-81.790198786,71,"13759 ZAREMBA DRIVE, BROOK PARK, OH, 44142","Match","Exact","13759 ZAREMBA DR, BROOK PARK, OH, 44142",61104016,"L"
162072,"1376 AKRON OAKS DR","JACKSONVILLE","FL",32065,30.16994887,-81.8200438539999,72,"1376 AKRON OAKS DR, JACKSONVILLE, FL, 32065","Match","Non_Exact","1376 AKRON OAKS DR, ORANGE PARK, FL, 32065",606223894,"R"
162073,"1376 ALTICE ROAD","MONETA","VA",24121,37.220655435,-79.657594994,73,"1376 ALTICE ROAD, MONETA, VA, 24121","Match","Exact","1376 ALTICE RD, MONETA, VA, 24121",639274451,"L"
162074,"1376 BERMUDA GRASS DRIVE","MYRTLE BEACH","SC",29579,33.755143203,-78.9355231879999,74,"1376 BERMUDA GRASS DRIVE, MYRTLE BEACH, SC, 29579","Match","Exact","1376 BERMUDA GRASS DR, MYRTLE BEACH, SC, 29579",630408401,"R"
162075,"1376 BOTTLE BRUSH LANE","HARRISBURG","NC",28075,35.3244520580001,-80.598510332,75,"1376 BOTTLE BRUSH LANE, HARRISBURG, NC, 28075","Match","Exact","1376 BOTTLE BRUSH LN, HARRISBURG, NC, 28075",619898728,"L"
162076,"1376 CAL YOUNG ROAD","EUGENE","OR",97401,44.077639166,-123.093265198,76,"1376 CAL YOUNG ROAD, EUGENE, OR, 97401","Match","Exact","1376 CAL YOUNG RD, EUGENE, OR, 97401",178216518,"R"
162077,"1376 CAMINO FAJA","RIO RICO","AZ",85648,NA,NA,77,"1376 CAMINO FAJA, RIO RICO, AZ, 85648","No_Match",NA,NA,NA,NA
162078,"1376 CARROL ST","BROOKLYN","NY",11213,40.6667653420001,-73.943211155,78,"1376 CARROL ST, BROOKLYN, NY, 11213","Match","Non_Exact","1376 CARROLL ST, BROOKLYN, NY, 11213",59079696,"R"
162079,"1376 CASSINS STREET","CARLSBAD","CA",92011,33.0959936730001,-117.292326281,79,"1376 CASSINS STREET, CARLSBAD, CA, 92011","Match","Exact","1376 CASSINS ST, CARLSBAD, CA, 92011",195419186,"R"
162080,"1376 CENAN LN","BLUE BELL","PA",19422,NA,NA,80,"1376 CENAN LN, BLUE BELL, PA, 19422","No_Match",NA,NA,NA,NA
162081,"1376 CHATTAHOOCHEE AVENUE","ATLANTA","GA",30318,33.803528629,-84.432548394,81,"1376 CHATTAHOOCHEE AVENUE, ATLANTA, GA, 30318","Match","Non_Exact","1376 CHATTAHOOCHEE AVE NW, ATLANTA, GA, 30318",17334168,"L"
162082,"1376 CHATTAHOOCHEE AVENUE","ATLANTA","TX",30318,NA,NA,82,"1376 CHATTAHOOCHEE AVENUE, ATLANTA, TX, 30318","No_Match",NA,NA,NA,NA
162083,"1376 CLEMENT ST","MENDOTA HEIGHTS","MN",55118,44.904061471,-93.120319115,83,"1376 CLEMENT ST, MENDOTA HEIGHTS, MN, 55118","Match","Exact","1376 CLEMENT ST, MENDOTA HEIGHTS, MN, 55118",37915460,"L"
162084,"1376 CLEMENTS KRETLOW ROAD","SPARKS","GA",31647,31.2078919630001,-83.432859104,84,"1376 CLEMENTS KRETLOW ROAD, SPARKS, GA, 31647","Match","Exact","1376 CLEMENTS KRETLOW RD, SPARKS, GA, 31647",87694500,"R"
162085,"1376 DEATSVILLE ROAD","SHEPHERDSVILLE","KY",40165,37.958719837,-85.610834982,85,"1376 DEATSVILLE ROAD, SHEPHERDSVILLE, KY, 40165","Match","Exact","1376 DEATSVILLE RD, SHEPHERDSVILLE, KY, 40165",642848508,"R"
162086,"1376 E 105 STREET","BROOKLYN","NY",11236,40.639666214,-73.88592519,86,"1376 E 105 STREET, BROOKLYN, NY, 11236","Match","Exact","1376 E 105TH ST, BROOKLYN, NY, 11236",59087154,"R"
162087,"1376 E ACACIA AVE APT 1","GLENDALE","CA",91205,34.135918111,-118.234407053,87,"1376 E ACACIA AVE APT 1, GLENDALE, CA, 91205","Match","Non_Exact","1376 E ACACIA AVE, GLENDALE, CA, 91205",141611527,"R"
162088,"1376 E ST NE","WASHINGTON","DC",20002,38.8961222390001,-76.986256939,88,"1376 E ST NE, WASHINGTON, DC, 20002","Match","Exact","1376 E ST NE, WASHINGTON, DC, 20002",76230332,"L"
162089,"1376 EAST 86 STREET","CLEVELAND","OH",44106,41.5182874430001,-81.6275001509999,89,"1376 EAST 86 STREET, CLEVELAND, OH, 44106","Match","Exact","1376 E 86TH ST, CLEVELAND, OH, 44106",61113936,"R"
162090,"1376 FRUITVALE RD","NEWPORT","OR",97365,44.651057748,-123.985758175,90,"1376 FRUITVALE RD, NEWPORT, OR, 97365","Match","Exact","1376 FRUITVALE RD, NEWPORT, OR, 97365",155939535,"R"
162091,"1376 GOFFE","SAINT CLAIR","MI",48079,42.8145061050001,-82.488661968,91,"1376 GOFFE, SAINT CLAIR, MI, 48079","Match","Non_Exact","1376 GOFFE ST, SAINT CLAIR, MI, 48079",110961210,"L"
162092,"1376 GREEN RIDGE AVE","LITHONIA","GA",30058,33.7523125340001,-84.152800718,92,"1376 GREEN RIDGE AVE, LITHONIA, GA, 30058","Match","Non_Exact","1376 GREENRIDGE AVE, LITHONIA, GA, 30058",23397554,"R"
162093,"1376 GREENBAY AVE","CALUMET CITY","IL",60409,41.5948484140001,-87.5406932779999,93,"1376 GREENBAY AVE, CALUMET CITY, IL, 60409","Match","Exact","1376 GREENBAY AVE, CALUMET CITY, IL, 60409",605714569,"R"
162094,"1376 HEYDT AVENUE","ST LOUIS","MO",63135,38.7522109010001,-90.28243302,94,"1376 HEYDT AVENUE, ST LOUIS, MO, 63135","Match","Exact","1376 HEYDT AVE, SAINT LOUIS, MO, 63135",100146879,"R"
162095,"1376 INDIAN CREEK DRIVE","TEMPERANCE","MI",48182,41.759648736,-83.579548283,95,"1376 INDIAN CREEK DRIVE, TEMPERANCE, MI, 48182","Match","Exact","1376 INDIAN CREEK DR, TEMPERANCE, MI, 48182",40499208,"L"
162096,"1376 KERSEY LANE","GREENCASTLE","IN",46135,39.66831985,-86.874682246,96,"1376 KERSEY LANE, GREENCASTLE, IN, 46135","Match","Non_Exact","1376 KERSEY RD, GREENCASTLE, IN, 46135",633932358,"R"
162097,"1376 KEYPORT HILLS DR","POULSBO","WA",98370,47.6890536610001,-122.6314548,97,"1376 KEYPORT HILLS DR, POULSBO, WA, 98370","Match","Non_Exact","1376 NE KEYPORT HILLS DR, POULSBO, WA, 98370",642412982,"R"
162098,"1376 KEYS LAKE DRIVE NE","ATLANTA","GA",30319,33.8378380790001,-84.338588434,98,"1376 KEYS LAKE DRIVE NE, ATLANTA, GA, 30319","Match","Exact","1376 KEYS LAKE DR NE, ATLANTA, GA, 30319",23381220,"R"
162099,"1376 LEAD HILL BLVD SUITE 190","ROSEVILLE","CA",95661,38.749241978,-121.259382683,99,"1376 LEAD HILL BLVD SUITE 190, ROSEVILLE, CA, 95661","Match","Exact","1376 LEAD HILL BLVD, ROSEVILLE, CA, 95661",648314161,"R"
162100,"1376 LIBERTY PKWY","ATLANTA","GA",30318,33.817405729,-84.439947594,100,"1376 LIBERTY PKWY, ATLANTA, GA, 30318","Match","Non_Exact","1376 LIBERTY PKWY NW, ATLANTA, GA, 30318",650725025,"R"
162101,"1376 MALY BLVD","WAHOO","NE",68066,41.192594441,-96.621213058,101,"1376 MALY BLVD, WAHOO, NE, 68066","Match","Exact","1376 MALY BLVD, WAHOO, NE, 68066",28530327,"L"
162102,"1376 MARK DR","WEST CHESTER","PA",19380,39.977213949,-75.5526762489999,102,"1376 MARK DR, WEST CHESTER, PA, 19380","Match","Exact","1376 MARK DR, WEST CHESTER, PA, 19380",636456985,"L"
162103,"1376 N 125TH","HULL","IL",62343,39.776323292,-91.246590364,103,"1376 N 125TH, HULL, IL, 62343","Match","Non_Exact","1376 N 125TH AVE, HULL, IL, 62343",35070167,"R"
162104,"1376 N 750 ST","VANDALIA","IL",62471,NA,NA,104,"1376 N 750 ST, VANDALIA, IL, 62471","No_Match",NA,NA,NA,NA
162105,"1376 N SAN GORGONIO AVE","BANNING","CA",22000,33.937853793,-116.876773527,105,"1376 N SAN GORGONIO AVE, BANNING, CA, 22000","Match","Non_Exact","1376 N SAN GORGONIO AVE, BANNING, CA, 92220",195074938,"R"
162106,"1376 OGDEN AVENUE 5A","BRONX","NY",10452,40.841935375,-73.924517688,106,"1376 OGDEN AVENUE 5A, BRONX, NY, 10452","Match","Exact","1376 OGDEN AVE, BRONX, NY, 10452",80299406,"R"
162107,"1376 RIVER ST NO 5","HAVERHILL","MA",1832,42.7682166370001,-71.132144432,107,"1376 RIVER ST NO 5, HAVERHILL, MA, 1832","Match","Non_Exact","1376 RIVER ST, HAVERHILL, MA, 01832",86630687,"L"
162108,"1376 S DOKOS","SALT CITY","UT",84104,40.7393199270001,-111.936886535,108,"1376 S DOKOS, SALT CITY, UT, 84104","Match","Non_Exact","1376 DOKOS LN, SALT LAKE CITY, UT, 84104",625030491,"L"
162109,"1376 SHADOW MOUNTAIN PLACE","LAS VEGAS","NV",89108,36.186105277,-115.216736742,109,"1376 SHADOW MOUNTAIN PLACE, LAS VEGAS, NV, 89108","Match","Exact","1376 SHADOW MOUNTAIN PL, LAS VEGAS, NV, 89108",642012224,"R"
162110,"1376 SURFTIDE LN","SAN DIEGO","CA",92154,32.5728584500001,-117.026050084,110,"1376 SURFTIDE LN, SAN DIEGO, CA, 92154","Match","Exact","1376 SURFTIDE LN, SAN DIEGO, CA, 92154",195704681,"R"
162111,"1376 TAYLOR FORK","TURKEY CREEK","KY",41514,37.6616400520001,-82.325979666,111,"1376 TAYLOR FORK, TURKEY CREEK, KY, 41514","Match","Exact","1376 TAYLOR FORK, TURKEY CREEK, KY, 41514",617195670,"R"
162112,"1376 VERONICA TRL","HEMET","CA",92545,33.7240238640001,-117.005894966,112,"1376 VERONICA TRL, HEMET, CA, 92545","Match","Exact","1376 VERONICA TRL, HEMET, CA, 92545",618340465,"L"
162113,"1376 W HAMPTON PLACE","PALATINE","IL",60067,42.107046182,-88.0770118,113,"1376 W HAMPTON PLACE, PALATINE, IL, 60067","Match","Exact","1376 W HAMPTON PL, PALATINE, IL, 60067",111690621,"R"
162114,"1376 W SEFRIDGE BOULEVARD","CLAWSON","MI",48017,NA,NA,114,"1376 W SEFRIDGE BOULEVARD, CLAWSON, MI, 48017","No_Match",NA,NA,NA,NA
162115,"1376 W STREET NE","WASHINGTON","DC",20018,38.919180312,-76.984097273,115,"1376 W STREET NE, WASHINGTON, DC, 20018","Match","Exact","1376 W ST NE, WASHINGTON, DC, 20018",76228983,"L"
162116,"1376 WINDSOR LN","GRAYSLAKE","IL",60030,42.3676606170001,-88.05973706,116,"1376 WINDSOR LN, GRAYSLAKE, IL, 60030","Match","Exact","1376 WINDSOR LN, GRAYSLAKE, IL, 60030",119702302,"R"
162117,"1376 WYNFORD GATE","MARIETTA","GA",30064,NA,NA,117,"1376 WYNFORD GATE, MARIETTA, GA, 30064","Tie",NA,NA,NA,NA
162118,"13760 ANDREW COURT","ROGERS","AR",72756,36.370643317,-94.075064674,118,"13760 ANDREW COURT, ROGERS, AR, 72756","Match","Exact","13760 ANDREW CT, ROGERS, AR, 72756",47878900,"L"
162119,"13760 APPOMATTOX CIRCLE","LAURINGBURG","NC",28352,34.7570140600001,-79.511913588,119,"13760 APPOMATTOX CIRCLE, LAURINGBURG, NC, 28352","Match","Non_Exact","13760 APPOMATTOX CIR, LAURINBURG, NC, 28352",25802171,"R"
162120,"13760 BECKWITH DRIVE NE","LOWELL","OH",49331,NA,NA,120,"13760 BECKWITH DRIVE NE, LOWELL, OH, 49331","No_Match",NA,NA,NA,NA
162121,"13760 CORONADO COURT","MANASSAS","VA",20112,38.655652966,-77.413981387,121,"13760 CORONADO COURT, MANASSAS, VA, 20112","Match","Exact","13760 CORONADO CT, MANASSAS, VA, 20112",207151996,"R"
162122,"13760 HIGHWAY 15","BOOKER","TX",79005,36.4559908860001,-100.611190095,122,"13760 HIGHWAY 15, BOOKER, TX, 79005","Match","Non_Exact","13760 STATE HWY 15, BOOKER, TX, 79005",188003995,"L"
162123,"13760 NORTH 5400 WEST","GARLAND","UT",84312,41.7588707420001,-112.148477296,123,"13760 NORTH 5400 WEST, GARLAND, UT, 84312","Match","Exact","13760 N 5400 W, GARLAND, UT, 84312",611166568,"R"
162124,"13760 VICTORY BLVD","VAN NUYS","CA",91401,34.186664508,-118.432910366,124,"13760 VICTORY BLVD, VAN NUYS, CA, 91401","Match","Exact","13760 VICTORY BLVD, VAN NUYS, CA, 91401",141561327,"L"
162125,"13761 E 51ST STREET","YUMA","AZ",85367,32.636267694,-114.395619196,125,"13761 E 51ST STREET, YUMA, AZ, 85367","Match","Exact","13761 E 51ST ST, YUMA, AZ, 85367",129658807,"R"
162126,"13761 ELIZABETH ST","THORNTON","CO",80221,39.9449769770001,-104.956188142,126,"13761 ELIZABETH ST, THORNTON, CO, 80221","Match","Non_Exact","13761 ELIZABETH ST, THORNTON, CO, 80602",177422415,"L"
162127,"13761 GOLDENWEST ST 876","WESTMINSTER","CA",92684,33.762403057,-118.007211773,127,"13761 GOLDENWEST ST 876, WESTMINSTER, CA, 92684","Match","Non_Exact","13761 GOLDENWEST ST, WESTMINSTER, CA, 92683",609055732,"R"
162128,"13761 JOHN LEE ROAD","BILOXI","MS",39532,30.484300626,-89.013956671,128,"13761 JOHN LEE ROAD, BILOXI, MS, 39532","Match","Exact","13761 JOHN LEE RD, BILOXI, MS, 39532",642545790,"L"
162129,"13761 NE 65TH STREET","JONES","OK",73049,35.5391735000001,-97.287120185,129,"13761 NE 65TH STREET, JONES, OK, 73049","Match","Exact","13761 NE 65TH ST, JONES, OK, 73049",636716942,"R"
162130,"13761 OLD OAKS DRIVE","BURLESON","TX",76028,32.5578649120001,-97.298563299,130,"13761 OLD OAKS DRIVE, BURLESON, TX, 76028","Match","Exact","13761 OLD OAKS DR, BURLESON, TX, 76028",619875315,"L"
162131,"13761 RIO LANE","TRINIDAD","CO",81082,37.181574546,-104.548857238,131,"13761 RIO LANE, TRINIDAD, CO, 81082","Match","Exact","13761 RIO LN, TRINIDAD, CO, 81082",112772394,"L"
162132,"13761 S ARCHER AVE","LEMONT","IL",60439,41.6372644640001,-88.0085706529999,132,"13761 S ARCHER AVE, LEMONT, IL, 60439","Match","Exact","13761 ARCHER AVE, LEMONT, IL, 60439",652589820,"R"
162133,"13762 APPLE LANE","ROGERS","AR",72756,36.337816311,-94.077148052,133,"13762 APPLE LANE, ROGERS, AR, 72756","Match","Exact","13762 APPLE LN, ROGERS, AR, 72756",47894374,"L"
162134,"13762 CHERRY ST SUITE 4","WESTMINSTER","CA",92683,33.7622178440001,-118.00334295,134,"13762 CHERRY ST SUITE 4, WESTMINSTER, CA, 92683","Match","Exact","13762 CHERRY ST, WESTMINSTER, CA, 92683",144004685,"L"
162135,"13762 SOUTH LEYDEN AVE","CHICAGO","IL",60827,41.6455745490001,-87.615703201,135,"13762 SOUTH LEYDEN AVE, CHICAGO, IL, 60827","Match","Exact","13762 S LEYDEN AVE, CHICAGO, IL, 60827",111778027,"R"
162136,"13762 W STATE ROAD 84","DAVIE","FL",33325,NA,NA,136,"13762 W STATE ROAD 84, DAVIE, FL, 33325","No_Match",NA,NA,NA,NA
162137,"13763 COLLINE RD","BENTONVILLE","AR",72712,36.4331387920001,-94.1959610169999,137,"13763 COLLINE RD, BENTONVILLE, AR, 72712","Match","Exact","13763 COLLINE RD, BENTONVILLE, AR, 72712",627615593,"L"
162138,"13763 GIBRALTAR LANE","FRISCO","TX",75035,33.191404076,-96.791432178,138,"13763 GIBRALTAR LANE, FRISCO, TX, 75035","Match","Exact","13763 GIBRALTAR LN, FRISCO, TX, 75035",646678984,"L"
162139,"13763 HARVEST LN","BATH","MI",48808,42.8177583620001,-84.456714872,139,"13763 HARVEST LN, BATH, MI, 48808","Match","Exact","13763 HARVEST LN, BATH, MI, 48808",639707900,"L"
162140,"13763 JOHN KLINE ROAD","SMITHSBURG","MD",21783,39.6112881190001,-77.542444141,140,"13763 JOHN KLINE ROAD, SMITHSBURG, MD, 21783","Match","Exact","13763 JOHN KLINE RD, SMITHSBURG, MD, 21783",60683450,"R"
162141,"13763 LIGHTHOUSE COURT","FONTANA","CA",92336,34.112001041,-117.501645656,141,"13763 LIGHTHOUSE COURT, FONTANA, CA, 92336","Match","Exact","13763 LIGHTHOUSE CT, FONTANA, CA, 92336",144708318,"R"
162142,"13763 PRINCETON COURT","SAVAGE","MN",55378,44.7549534730001,-93.343079473,142,"13763 PRINCETON COURT, SAVAGE, MN, 55378","Match","Exact","13763 PRINCETON CT, SAVAGE, MN, 55378",38145669,"L"
162143,"13763 STATE ROUTE 92","SOUTH GIBSON","PA",18842,41.79098652,-75.587540503,143,"13763 STATE ROUTE 92, SOUTH GIBSON, PA, 18842","Match","Exact","13763 STATE RTE 92, SOUTH GIBSON, PA, 18842",612254097,"L"
162144,"13764 NE 12THE ST","BELLEVUE","WA",98005,47.620845966,-122.156287745,144,"13764 NE 12THE ST, BELLEVUE, WA, 98005","Match","Non_Exact","13764 NE 12TH ST, BELLEVUE, WA, 98005",639170476,"L"
162145,"13764 RIVER DOWNS","CORONA","CA",92880,33.9781397960001,-117.583407629,145,"13764 RIVER DOWNS, CORONA, CA, 92880","Match","Non_Exact","13764 RIVER DOWNS ST, CORONA, CA, 92880",626551803,"R"
162146,"13764 ST HWY 87 N","BURKEVILLE","TX",75932,NA,NA,146,"13764 ST HWY 87 N, BURKEVILLE, TX, 75932","No_Match",NA,NA,NA,NA
162147,"13764 US HWY 50","MANZANOLA","CO",81058,38.0955022540001,-103.825462877,147,"13764 US HWY 50, MANZANOLA, CO, 81058","Match","Exact","13764 US HWY 50, MANZANOLA, CO, 81058",112943382,"L"
162148,"13765 CHAGALL CT","MORENO VALLEY","CA",92553,33.9207194680001,-117.258075056,148,"13765 CHAGALL CT, MORENO VALLEY, CA, 92553","Match","Exact","13765 CHAGALL CT, MORENO VALLEY, CA, 92553",194790424,"R"
162149,"13765 EQUESTRIAN DRIVE","BURTON","OH",44021,41.495105966,-81.153779309,149,"13765 EQUESTRIAN DRIVE, BURTON, OH, 44021","Match","Exact","13765 EQUESTRIAN DR, BURTON, OH, 44021",137442093,"L"
162150,"13765 FM 707","HAWLEY","TX",79525,32.588183288,-99.9101423279999,150,"13765 FM 707, HAWLEY, TX, 79525","Match","Exact","13765 FM 707, HAWLEY, TX, 79525",185572849,"L"
162151,"13765 S GALLAGHER RD","TRAVERSE CITY","MI",49684,44.781641881,-85.7243402,151,"13765 S GALLAGHER RD, TRAVERSE CITY, MI, 49684","Match","Exact","13765 S GALLAGHER RD, TRAVERSE CITY, MI, 49684",145989033,"L"
162152,"13767 EUREKA","SOUTHGATE","MI",48195,42.19927949,-83.192007841,152,"13767 EUREKA, SOUTHGATE, MI, 48195","Match","Non_Exact","13767 EUREKA RD, SOUTHGATE, MI, 48195",95451789,"L"
162153,"13767 LAMBERTINA PL","ROCKVILLE","MD",20850,39.084264955,-77.207943625,153,"13767 LAMBERTINA PL, ROCKVILLE, MD, 20850","Match","Exact","13767 LAMBERTINA PL, ROCKVILLE, MD, 20850",62095770,"L"
162154,"13767 SW 11 CIRCLE","MIAMI","FL",33184,25.7570501340001,-80.417821277,154,"13767 SW 11 CIRCLE, MIAMI, FL, 33184","Match","Non_Exact","13767 SW 11TH ST, MIAMI, FL, 33184",116063648,"R"
162155,"13767 SW 11 LANE CIRCLE","MIAMI","FL",33184,NA,NA,155,"13767 SW 11 LANE CIRCLE, MIAMI, FL, 33184","No_Match",NA,NA,NA,NA
162156,"13767 W 67TH WAY","ARVADA","CO",80004,39.820899409,-105.154046193,156,"13767 W 67TH WAY, ARVADA, CO, 80004","Match","Exact","13767 W 67TH WAY, ARVADA, CO, 80004",177283901,"L"
162157,"13769 CEDAR ROAD 104","SOUTH EUCLID","OH",44118,41.5013684580001,-81.544275609,157,"13769 CEDAR ROAD 104, SOUTH EUCLID, OH, 44118","Match","Exact","13769 CEDAR RD, SOUTH EUCLID, OH, 44118",638981088,"L"
162158,"13769 PASEO CENTRAL AVE","EL PASO","TX",79928,31.70595073,-106.211554275,158,"13769 PASEO CENTRAL AVE, EL PASO, TX, 79928","Match","Exact","13769 PASEO CENTRAL AVE, EL PASO, TX, 79928",647835374,"L"
162159,"1377 12TH ST","SARASOTA","FL",34236,27.348716584,-82.5431596399999,159,"1377 12TH ST, SARASOTA, FL, 34236","Match","Exact","1377 12TH ST, SARASOTA, FL, 34236",16347248,"L"
162160,"1377 17 ROAD","FRUITA","CO",81521,39.2044321650001,-108.738346788,160,"1377 17 ROAD, FRUITA, CO, 81521","Match","Exact","1377 17 RD, FRUITA, CO, 81521",122426075,"R"
162161,"1377 91ST STREET","WEST DES MOINES","IA",50266,41.5991332070001,-93.831730916,161,"1377 91ST STREET, WEST DES MOINES, IA, 50266","Match","Exact","1377 91ST ST, WEST DES MOINES, IA, 50266",617497067,"R"
162162,"1377 ATKINS TRIMM BLVD","HOOVER","AL",35226,33.3729990470001,-86.834704082,162,"1377 ATKINS TRIMM BLVD, HOOVER, AL, 35226","Match","Exact","1377 ATKINS TRIMM BLVD, HOOVER, AL, 35226",81562753,"R"
162163,"1377 AVONDALE HASLET RD","HASLET","TX",76052,32.9689788200001,-97.388984471,163,"1377 AVONDALE HASLET RD, HASLET, TX, 76052","Match","Exact","1377 AVONDALE HASLET RD, HASLET, TX, 76052",642149958,"L"
162164,"1377 BAY STREET","FLORENCE","OR",97498,43.9666122570001,-124.105776819,164,"1377 BAY STREET, FLORENCE, OR, 97498","Match","Non_Exact","1377 BAY ST, FLORENCE, OR, 97439",178139506,"L"
162165,"1377 CEDAR CREEK","METAMORA","IL",61548,40.7896969610001,-89.434854544,165,"1377 CEDAR CREEK, METAMORA, IL, 61548","Match","Non_Exact","1377 CEDAR CREEK DR, METAMORA, IL, 61548",605070429,"R"
162166,"1377 DEER PATH COURT","ESTES PARK","CO",80517,40.3845995980001,-105.500601354,166,"1377 DEER PATH COURT, ESTES PARK, CO, 80517","Match","Exact","1377 DEER PATH CT, ESTES PARK, CO, 80517",188550322,"L"
162167,"1377 DRESDEN AVENUE","BROOKHAVEN","GA",30319,NA,NA,167,"1377 DRESDEN AVENUE, BROOKHAVEN, GA, 30319","No_Match",NA,NA,NA,NA
162168,"1377 E 250 N","BOUNTIFUL","UT",84010,40.8918474930001,-111.850601903,168,"1377 E 250 N, BOUNTIFUL, UT, 84010","Match","Non_Exact","1377 E 250 N, BOUNTIFUL, UT, 84010",642015923,"L"
162169,"1377 E 8850 S","SANDY","UT",84093,40.590461771,-111.850847898,169,"1377 E 8850 S, SANDY, UT, 84093","Match","Non_Exact","1377 E 8850 SOUTH ST, SANDY, UT, 84093",176089233,"L"
162170,"1377 E DEER LANE","MT. VERNON","MO",65712,37.1128308040001,-93.797931685,170,"1377 E DEER LANE, MT. VERNON, MO, 65712","Match","Exact","1377 E DEER LN, MOUNT VERNON, MO, 65712",99863375,"R"
162171,"1377 E FLORENCE BLVD STE 151-S91","CASA GRANDE","AZ",85122,32.8795534880001,-111.728094617,171,"1377 E FLORENCE BLVD STE 151-S91, CASA GRANDE, AZ, 85122","Match","Non_Exact","1377 E FLORENCE BLVD, CASA GRANDE, AZ, 85122",129281839,"L"
162172,"1377 E LARK ST","GILBERT","AZ",85297,33.267159495,-111.759727204,172,"1377 E LARK ST, GILBERT, AZ, 85297","Match","Non_Exact","1377 LARK DR, GILBERT, AZ, 85297",128873902,"L"
162173,"1377 E THACKER ST","SCHAUMBURG","IL",60173,NA,NA,173,"1377 E THACKER ST, SCHAUMBURG, IL, 60173","Tie",NA,NA,NA,NA
162174,"1377 E US HIGHWAY 10","SCOTTVILLE","MI",49454,43.9554023970001,-86.313527817,174,"1377 E US HIGHWAY 10, SCOTTVILLE, MI, 49454","Match","Exact","1377 US HWY 10, SCOTTVILLE, MI, 49454",148054475,"L"
162175,"1377 E WINDSOR RD 321","GLENDALE","CA",91205,34.1379277780001,-118.234535051,175,"1377 E WINDSOR RD 321, GLENDALE, CA, 91205","Match","Non_Exact","1377 E WINDSOR RD, GLENDALE, CA, 91205",141611366,"L"
162176,"1377 EAST 17TH STREET","BROOKLYN","NY",11230,40.61656021,-73.9578231899999,176,"1377 EAST 17TH STREET, BROOKLYN, NY, 11230","Match","Exact","1377 E 17TH ST, BROOKLYN, NY, 11230",59089754,"L"
162177,"1377 EDGEWOOD ROAD","LAKE FOREST","IL",60045,42.2645129970001,-87.8384210139999,177,"1377 EDGEWOOD ROAD, LAKE FOREST, IL, 60045","Match","Exact","1377 EDGEWOOD RD, LAKE FOREST, IL, 60045",119647111,"R"
162178,"1377 EDGEWOOD","LAKE FOREST","IL",60045,42.2645129970001,-87.8384210139999,178,"1377 EDGEWOOD, LAKE FOREST, IL, 60045","Match","Non_Exact","1377 EDGEWOOD RD, LAKE FOREST, IL, 60045",119647111,"R"
162179,"1377 EL CAMINO REAL","MENLO PARK","CA",94025,NA,NA,179,"1377 EL CAMINO REAL, MENLO PARK, CA, 94025","No_Match",NA,NA,NA,NA
162180,"1377 ENISWOOD PKWY","PALM HARBOR","FL",34683,28.095816879,-82.761836764,180,"1377 ENISWOOD PKWY, PALM HARBOR, FL, 34683","Match","Exact","1377 ENISWOOD PKWY, PALM HARBOR, FL, 34683",639251393,"R"
162181,"1377 HALL AVENUE","SHARON","PA",16146,41.251677016,-80.497919673,181,"1377 HALL AVENUE, SHARON, PA, 16146","Match","Exact","1377 HALL AVE, SHARON, PA, 16146",70652854,"L"
162182,"1377 HICKORY AVENUE","CORNING","IA",50841,41.1076494610001,-94.790658675,182,"1377 HICKORY AVENUE, CORNING, IA, 50841","Match","Exact","1377 HICKORY AVE, CORNING, IA, 50841",61706910,"L"
162183,"1377 HOPEWELL ROAD","FOUNTAIN CITY","IN",47341,39.9980624340001,-84.919800446,183,"1377 HOPEWELL ROAD, FOUNTAIN CITY, IN, 47341","Match","Exact","1377 HOPEWELL RD, FOUNTAIN CITY, IN, 47341",647354022,"L"
162184,"1377 KEPPEN BLVD","LINCOLN PARK","MI",48146,42.2559225890001,-83.17611112,184,"1377 KEPPEN BLVD, LINCOLN PARK, MI, 48146","Match","Exact","1377 KEPPEN BLVD, LINCOLN PARK, MI, 48146",95449626,"L"
162185,"1377 LOS ANGELES AVE","SIMI VALLEY","CA",93065,34.271732269,-118.766203455,185,"1377 LOS ANGELES AVE, SIMI VALLEY, CA, 93065","Match","Non_Exact","1377 E LOS ANGELES AVE, SIMI VALLEY, CA, 93065",109970683,"L"
162186,"1377 MIDDLETON CIRCLE","ASHEBORO","NC",27205,35.7211369240001,-79.8449070089999,186,"1377 MIDDLETON CIRCLE, ASHEBORO, NC, 27205","Match","Exact","1377 MIDDLETON CIR, ASHEBORO, NC, 27205",632116257,"L"
162187,"1377 MOTOR PKWY","ISLANDIA","NY",11749,NA,NA,187,"1377 MOTOR PKWY, ISLANDIA, NY, 11749","No_Match",NA,NA,NA,NA
162188,"1377 N 175 EAST","WARSAW","IN",46582,41.255372014,-85.809413637,188,"1377 N 175 EAST, WARSAW, IN, 46582","Match","Exact","1377 N 175 E, WARSAW, IN, 46582",7958475,"L"
162189,"1377 N 35TH ST","EAST ST LOUIS","IL",62204,38.627447854,-90.1125189969999,189,"1377 N 35TH ST, EAST ST LOUIS, IL, 62204","Match","Exact","1377 N 35TH ST, E SAINT LOUIS, IL, 62204",107831100,"L"
162190,"1377 N D ST","SAN BERNARDINO","CA",92405,34.1252566740001,-117.291941559,190,"1377 N D ST, SAN BERNARDINO, CA, 92405","Match","Exact","1377 N D ST, SAN BERNARDINO, CA, 92405",144654934,"R"
162191,"1377 NORTH DRIVE","FLORENCE","SC",29505,NA,NA,191,"1377 NORTH DRIVE, FLORENCE, SC, 29505","No_Match",NA,NA,NA,NA
162192,"1377 OCEAN SHORES BLVD UNIT 506","OCEAN SHORES","WA",98569,46.9284897960001,-124.172826122,192,"1377 OCEAN SHORES BLVD UNIT 506, OCEAN SHORES, WA, 98569","Match","Exact","1377 OCEAN SHORES BLVD, OCEAN SHORES, WA, 98569",180594529,"L"
162193,"1377 OLD PLEASANT VALLEY ROAD","TALKING ROCK","GA",30175,NA,NA,193,"1377 OLD PLEASANT VALLEY ROAD, TALKING ROCK, GA, 30175","Tie",NA,NA,NA,NA
162194,"1377 PARKSIDE CLUB DRIVE","LAWRENCEVILLE","GA",30044,33.9527460320001,-84.078702753,194,"1377 PARKSIDE CLUB DRIVE, LAWRENCEVILLE, GA, 30044","Match","Non_Exact","1377 PARKSIDE CLUB DR NW, LAWRENCEVILLE, GA, 30044",88916545,"R"
162195,"1377 PAYNE ROAD","RENTZ","GA",31075,32.428579459,-82.9544247859999,195,"1377 PAYNE ROAD, RENTZ, GA, 31075","Match","Exact","1377 PAYNE RD, RENTZ, GA, 31075",100668728,"L"
162196,"1377 PERALTA BLVD","FREMONT","CA",94536,37.5639596030001,-121.981697652,196,"1377 PERALTA BLVD, FREMONT, CA, 94536","Match","Exact","1377 PERALTA BLVD, FREMONT, CA, 94536",635928645,"R"
162197,"1377 PLANTATION POINT DRIVE","FERNANDINA BEACH","FL",32034,30.571729432,-81.455118216,197,"1377 PLANTATION POINT DRIVE, FERNANDINA BEACH, FL, 32034","Match","Exact","1377 PLANTATION POINT DR, FERNANDINA BCH, FL, 32034",84114391,"L"
162198,"1377 PRESERVE COURT","GREENWOOD","IN",46143,39.584549741,-86.069776347,198,"1377 PRESERVE COURT, GREENWOOD, IN, 46143","Match","Exact","1377 PRESERVE CT, GREENWOOD, IN, 46143",645407256,"L"
162199,"1377 PROVIDENT RD","SOUTHAMPTON","PA",18966,40.1634766070001,-75.030968351,199,"1377 PROVIDENT RD, SOUTHAMPTON, PA, 18966","Match","Exact","1377 PROVIDENT RD, SOUTHAMPTON, PA, 18966",134708486,"L"
162200,"1377 REGENT STREET","NISKAYUNA","NY",12309,42.8128673350001,-73.898240915,200,"1377 REGENT STREET, NISKAYUNA, NY, 12309","Match","Exact","1377 REGENT ST, NISKAYUNA, NY, 12309",18029670,"L"
162201,"1377 S 400 W","SALT LAKE CITY","UT",84104,40.739989639,-111.902508014,201,"1377 S 400 W, SALT LAKE CITY, UT, 84104","Match","Non_Exact","1377 S 400 W, SALT LAKE CITY, UT, 84115",635857221,"L"
162202,"1377 SANDEN FERRY","DECATUR","GA",30033,33.82063463,-84.253393827,202,"1377 SANDEN FERRY, DECATUR, GA, 30033","Match","Non_Exact","1377 SANDEN FERRY DR, DECATUR, GA, 30033",23362283,"R"
162203,"1377 SETTLERS ROW","GREEN BAY","WI",54313,44.579319974,-88.100978356,203,"1377 SETTLERS ROW, GREEN BAY, WI, 54313","Match","Exact","1377 SETTLERS ROW, GREEN BAY, WI, 54313",148111623,"R"
162204,"1377 SHADOW OAK DRIVE","EVANS","GA",30809,33.581622387,-82.1579391349999,204,"1377 SHADOW OAK DRIVE, EVANS, GA, 30809","Match","Exact","1377 SHADOW OAK DR, EVANS, GA, 30809",55385240,"R"
162205,"1377 SOUTH 1500 EAST","SALT LAKE CITY","UT",84105,40.739868641,-111.847942063,205,"1377 SOUTH 1500 EAST, SALT LAKE CITY, UT, 84105","Match","Exact","1377 S 1500 E, SALT LAKE CITY, UT, 84105",176080776,"L"
162206,"1377 SOUTH GENEVA WAY SUITE 104","AURORA","CO",80012,39.692418644,-104.868600887,206,"1377 SOUTH GENEVA WAY SUITE 104, AURORA, CO, 80012","Match","Non_Exact","1377 S GENEVA WAY, AURORA, CO, 80247",177523696,"L"
162207,"1377 STATE ROUTE 38B","NEWARK VALLEY","NY",13811,42.2080205080001,-76.167315742,207,"1377 STATE ROUTE 38B, NEWARK VALLEY, NY, 13811","Match","Exact","1377 STATE RTE 38B, NEWARK VALLEY, NY, 13811",636407518,"R"
162208,"1377 STEPHEN WAY","SAN JOSE","CA",95129,37.2980518320001,-122.006275945,208,"1377 STEPHEN WAY, SAN JOSE, CA, 95129","Match","Exact","1377 STEPHEN WAY, SAN JOSE, CA, 95129",122942194,"R"
162209,"1377 TOM JOYE ROAD","CLOVER","SC",29710,35.087508643,-81.2162866469999,209,"1377 TOM JOYE ROAD, CLOVER, SC, 29710","Match","Exact","1377 TOM JOYE RD, CLOVER, SC, 29710",19786758,"L"
162210,"1377 TRAVERS CREEK TRAIL","CONYERS","GA",30012,33.6906359500001,-84.03169051,210,"1377 TRAVERS CREEK TRAIL, CONYERS, GA, 30012","Match","Exact","1377 TRAVERS CRK TRL, CONYERS, GA, 30012",614156149,"L"
162211,"1377 UNION STREET","SAN FRANCISCO","CA",94109,37.798814615,-122.421891584,211,"1377 UNION STREET, SAN FRANCISCO, CA, 94109","Match","Exact","1377 UNION ST, SAN FRANCISCO, CA, 94109",192279929,"L"
162212,"1377 URBAN DRIVE","DARIEN","IL",60561,41.7404087190001,-87.97867669,212,"1377 URBAN DRIVE, DARIEN, IL, 60561","Match","Exact","1377 URBAN DR, DARIEN, IL, 60561",112666652,"R"
162213,"1377 W TAPER STREET","LONG BEACH","CA",90810,33.8196517170001,-118.210715353,213,"1377 W TAPER STREET, LONG BEACH, CA, 90810","Match","Exact","1377 TAPER ST, LONG BEACH, CA, 90810",141685041,"R"
162214,"1377 WALKER AVENUE","BALTIMORE","MD",21239,39.3706503080001,-76.586650925,214,"1377 WALKER AVENUE, BALTIMORE, MD, 21239","Match","Exact","1377 WALKER AVE, BALTIMORE, MD, 21239",206409454,"R"
162215,"1377 WARES BRIDGE RD","CHURCH VIEW","VA",23032,37.679705448,-76.702251772,215,"1377 WARES BRIDGE RD, CHURCH VIEW, VA, 23032","Match","Exact","1377 WARES BRIDGE RD, CHURCH VIEW, VA, 23032",22085764,"L"
162216,"1377 WENTWORTH DR","LEWISVILLE","TX",75067,33.01394286,-97.031565809,216,"1377 WENTWORTH DR, LEWISVILLE, TX, 75067","Match","Exact","1377 WENTWORTH DR, LEWISVILLE, TX, 75067",651397185,"R"
162217,"1377 WEST FIRST AVENUE","COLUMBUS","OH",43212,39.9816995100001,-83.0417035469999,217,"1377 WEST FIRST AVENUE, COLUMBUS, OH, 43212","Match","Exact","1377 W 1ST AVE, COLUMBUS, OH, 43212",218681071,"L"
162218,"1377 WILLIAMSBURG LANE","Norcross","GA",30093,33.901717923,-84.176409657,218,"1377 WILLIAMSBURG LANE, Norcross, GA, 30093","Match","Exact","1377 WILLIAMSBURG LN, NORCROSS, GA, 30093",88910493,"L"
162219,"1377 WILLIAMSBURG LANE","NORCROSS","GA",30093,33.901717923,-84.176409657,219,"1377 WILLIAMSBURG LANE, NORCROSS, GA, 30093","Match","Exact","1377 WILLIAMSBURG LN, NORCROSS, GA, 30093",88910493,"L"
162220,"1377 WINESAP AVE","MANSON","WA",98831,47.8812026940001,-120.097842093,220,"1377 WINESAP AVE, MANSON, WA, 98831","Match","Exact","1377 WINESAP AVE, MANSON, WA, 98831",156982504,"L"
162221,"1377 WOODSIDE DRIVE","SAN LUIS OBISPO","CA",93401,35.2644403190001,-120.63916479,221,"1377 WOODSIDE DRIVE, SAN LUIS OBISPO, CA, 93401","Match","Exact","1377 WOODSIDE DR, SAN LUIS OBISPO, CA, 93401",109732670,"R"
162222,"1377","SHELIA DR.","TX",75023,NA,NA,222,"1377, SHELIA DR., TX, 75023","No_Match",NA,NA,NA,NA
162223,"13770 102ND STREET","COLOGNE","MN",55322,44.820210602,-93.873889296,223,"13770 102ND STREET, COLOGNE, MN, 55322","Match","Exact","13770 102ND ST, COLOGNE, MN, 55322",43511618,"L"
162224,"13770 CHRISTANNA HWY","LAWRENCEVILLE","VA",23868,36.710364165,-77.851763896,224,"13770 CHRISTANNA HWY, LAWRENCEVILLE, VA, 23868","Match","Exact","13770 CHRISTANNA HWY, LAWRENCEVILLE, VA, 23868",54039377,"R"
162225,"13770 HAWTHORNE BLVD","HAWTHORNE","CA",90250,33.906713831,-118.35236652,225,"13770 HAWTHORNE BLVD, HAWTHORNE, CA, 90250","Match","Exact","13770 HAWTHORNE BLVD, HAWTHORNE, CA, 90250",647569908,"L"
162226,"13770 OLD CUTLER ROAD","MIAMI","FL",33158,25.6436542450001,-80.304582077,226,"13770 OLD CUTLER ROAD, MIAMI, FL, 33158","Match","Non_Exact","13770 W OLD CUTLER RD, MIAMI, FL, 33158",115987310,"R"
162227,"13770 PLANTATION ROAD SUITE 1","FORT MYERS","FL",33912,26.5430544180001,-81.846915173,227,"13770 PLANTATION ROAD SUITE 1, FORT MYERS, FL, 33912","Match","Exact","13770 PLANTATION RD, FORT MYERS, FL, 33912",637794593,"L"
162228,"13770 SAYRE ST","SYLMAR","CA",91342,34.3106493110001,-118.433192777,228,"13770 SAYRE ST, SYLMAR, CA, 91342","Match","Exact","13770 SAYRE ST, SYLMAR, CA, 91342",642861753,"L"
162229,"13770 STONE JUG RD","BATTLE CREEK","MI",49015,42.2714415950001,-85.257650913,229,"13770 STONE JUG RD, BATTLE CREEK, MI, 49015","Match","Exact","13770 STONE JUG RD, BATTLE CREEK, MI, 49015",11719655,"R"
162230,"13770 SW 256TH STREET 314","HOMESTEAD","FL",NA,25.5291461630001,-80.413753894,230,"13770 SW 256TH STREET 314, HOMESTEAD, FL, ","Match","Non_Exact","13770 SW 256TH ST, HOMESTEAD, FL, 33032",116296766,"L"
162231,"13770 SW 272 STREET UNIT 211","HOMESTEAD","FL",33032,25.5143700200001,-80.413681885,231,"13770 SW 272 STREET UNIT 211, HOMESTEAD, FL, 33032","Match","Non_Exact","13770 SW 272ND ST, HOMESTEAD, FL, 33032",612456241,"R"
162232,"13770 W VAN BUREN ST","GOODYEAR","AZ",85338,33.449830121,-112.35690124,232,"13770 W VAN BUREN ST, GOODYEAR, AZ, 85338","Match","Exact","13770 W VAN BUREN ST, GOODYEAR, AZ, 85338",128167906,"R"
162233,"13770 WINDWOOD DR","GULFPORT","MS",39503,30.47523864,-89.1273544969999,233,"13770 WINDWOOD DR, GULFPORT, MS, 39503","Match","Exact","13770 WINDWOOD DR, GULFPORT, MS, 39503",632737076,"R"
162234,"13770 WINDWOOD DRIVE","GULFPORT","MS",39503,30.47523864,-89.1273544969999,234,"13770 WINDWOOD DRIVE, GULFPORT, MS, 39503","Match","Exact","13770 WINDWOOD DR, GULFPORT, MS, 39503",632737076,"R"
162235,"13771 GRAYHAWK BLVD","FRISCO","TX",75033,33.192786434,-96.877171506,235,"13771 GRAYHAWK BLVD, FRISCO, TX, 75033","Match","Exact","13771 GRAYHAWK BLVD, FRISCO, TX, 75033",615044780,"L"
162236,"13771 N FOUNTAIN HILLS BLVD 114-156","FOUNTAIN HILLS","AZ",85268,33.6108010410001,-111.729170694,236,"13771 N FOUNTAIN HILLS BLVD 114-156, FOUNTAIN HILLS, AZ, 85268","Match","Non_Exact","13771 N FOUNTAIN HILLS BLVD, FOUNTAIN HILLS, AZ, 85268",128959395,"R"
162237,"13771 SAN VINCENTE CT","RANCHO CUCAMONGA","CA",91739,34.148349592,-117.50219519,237,"13771 SAN VINCENTE CT, RANCHO CUCAMONGA, CA, 91739","Match","Exact","13771 SAN VINCENTE CT, ETIWANDA, CA, 91739",627014172,"L"
162238,"13772 BADGER CREEK DR","FRISCO","TX",75033,33.192740128,-96.873932719,238,"13772 BADGER CREEK DR, FRISCO, TX, 75033","Match","Exact","13772 BADGER CREEK DR, FRISCO, TX, 75033",615046782,"R"
162239,"13772 BORDEN AVE","SYLMAR","CA",91342,34.3221522640001,-118.462759858,239,"13772 BORDEN AVE, SYLMAR, CA, 91342","Match","Exact","13772 BORDEN AVE, SYLMAR, CA, 91342",141545491,"R"
162240,"13772 CARLTON ST","BURTON","OH",44021,41.4670321340001,-81.148301718,240,"13772 CARLTON ST, BURTON, OH, 44021","Match","Exact","13772 CARLTON ST, BURTON, OH, 44021",137442602,"L"
162241,"13772 MARGENE CIRCLE","IRVINE","CA",92260,33.710468791,-117.776733206,241,"13772 MARGENE CIRCLE, IRVINE, CA, 92260","Match","Non_Exact","13772 MARGENE CIR, IRVINE, CA, 92620",144057794,"L"
162242,"13772 NW 22ND PLACE","SUNRISE","FL",33323,26.1521915450001,-80.333214288,242,"13772 NW 22ND PLACE, SUNRISE, FL, 33323","Match","Exact","13772 NW 22ND PL, SUNRISE, FL, 33323",114784318,"L"
162243,"13773 ANDOVER DR","MAGALIA","CA",95954,39.808738293,-121.592997133,243,"13773 ANDOVER DR, MAGALIA, CA, 95954","Match","Exact","13773 ANDOVER DR, MAGALIA, CA, 95954",68413611,"L"
162244,"13773 ASPEN GROVE LN","BURNSVILLE","MN",55337,44.752517901,-93.3158492749999,244,"13773 ASPEN GROVE LN, BURNSVILLE, MN, 55337","Match","Exact","13773 ASPEN GROVE LN, BURNSVILLE, MN, 55337",37977442,"L"
162245,"13773 ATRIUM LANE","ROSEMOUNT","MN",55068,44.750241418,-93.097132271,245,"13773 ATRIUM LANE, ROSEMOUNT, MN, 55068","Match","Non_Exact","13773 ATRIUM AVE, ROSEMOUNT, MN, 55068",630161520,"L"
162246,"13773 ESSEX CT","APPLE VALLEY","MN",55124,44.7501077220001,-93.175919177,246,"13773 ESSEX CT, APPLE VALLEY, MN, 55124","Match","Exact","13773 ESSEX CT, APPLE VALLEY, MN, 55124",37937454,"L"
162247,"13773 FERNANDO ROAD","FRISCO","TX",75035,33.191943403,-96.785238307,247,"13773 FERNANDO ROAD, FRISCO, TX, 75035","Match","Exact","13773 FERNANDO RD, FRISCO, TX, 75035",650655931,"R"
162248,"13774  VIA  RIMINI","SAN DIEGO","CA",92129,32.965790681,-117.09861066,248,"13774  VIA  RIMINI, SAN DIEGO, CA, 92129","Match","Exact","13774 VIA RIMINI, SAN DIEGO, CA, 92129",195674124,"L"
162249,"13774  VIA RIMINI","SAN DIEGO","CA",92129,32.965790681,-117.09861066,249,"13774  VIA RIMINI, SAN DIEGO, CA, 92129","Match","Exact","13774 VIA RIMINI, SAN DIEGO, CA, 92129",195674124,"L"
162250,"13774 CELESTIAL ROAD","POWAY","CA",92064,32.963014586,-117.056437654,250,"13774 CELESTIAL ROAD, POWAY, CA, 92064","Match","Exact","13774 CELESTIAL RD, POWAY, CA, 92064",612877747,"L"
162251,"13774 DEVAN LEE DRIVE EAST","JACKSONVILLE","FL",32226,NA,NA,251,"13774 DEVAN LEE DRIVE EAST, JACKSONVILLE, FL, 32226","No_Match",NA,NA,NA,NA
162252,"13774 HWY 35 N","KOSCIUSKO","MS",39090,NA,NA,252,"13774 HWY 35 N, KOSCIUSKO, MS, 39090","No_Match",NA,NA,NA,NA
162253,"13774 VIA RIMINI","SAN DIEGO","CA",92129,32.965790681,-117.09861066,253,"13774 VIA RIMINI, SAN DIEGO, CA, 92129","Match","Exact","13774 VIA RIMINI, SAN DIEGO, CA, 92129",195674124,"L"
162254,"13775 BALLSTON ROAD","AMITY","OR",97101,45.066958829,-123.312747577,254,"13775 BALLSTON ROAD, AMITY, OR, 97101","Match","Exact","13775 BALLSTON RD, AMITY, OR, 97101",155768011,"L"
162255,"13775 INTERURBAN AVE S","TUKWILA","WA",98168,47.4799039750001,-122.264431179,255,"13775 INTERURBAN AVE S, TUKWILA, WA, 98168","Match","Exact","13775 INTERURBAN AVE S, TUKWILA, WA, 98168",647909077,"R"
162256,"13775 INTERURBAN AVE SOUTH  D204","TUKWILA","WA",98168,47.4799039750001,-122.264431179,256,"13775 INTERURBAN AVE SOUTH  D204, TUKWILA, WA, 98168","Match","Exact","13775 INTERURBAN AVE S, TUKWILA, WA, 98168",647909077,"R"
162257,"13775 LINCOLNSHIRE LANE","FRISCO","TX",75035,33.175942987,-96.756684939,257,"13775 LINCOLNSHIRE LANE, FRISCO, TX, 75035","Match","Exact","13775 LINCOLNSHIRE LN, FRISCO, TX, 75035",614142100,"L"
162258,"13775 LOUISIANA LN","FRISCO","TX",75035,33.133856011,-96.757937264,258,"13775 LOUISIANA LN, FRISCO, TX, 75035","Match","Exact","13775 LOUISIANA LN, FRISCO, TX, 75035",641654531,"R"
162259,"13775 MONMOUTH HWY","MONMOUTH","OR",97361,44.8444350890001,-123.301724491,259,"13775 MONMOUTH HWY, MONMOUTH, OR, 97361","Match","Exact","13775 MONMOUTH HWY, MONMOUTH, OR, 97361",155783113,"L"
162260,"13775 MURPHY ROAD","ELBERT","CO",80106,39.042455273,-104.57462179,260,"13775 MURPHY ROAD, ELBERT, CO, 80106","Match","Exact","13775 MURPHY RD, ELBERT, CO, 80106",647971167,"R"
162261,"13775 NISULA ROAD","MCCALL","ID",83638,44.798867644,-116.129190083,261,"13775 NISULA ROAD, MCCALL, ID, 83638","Match","Exact","13775 NISULA RD, MCCALL, ID, 83638",650008774,"L"
162262,"13775 NORTHWEST MEADOWLAKE ROAD","CARLTON","OR",97111,45.292176957,-123.256436715,262,"13775 NORTHWEST MEADOWLAKE ROAD, CARLTON, OR, 97111","Match","Exact","13775 NW MEADOWLAKE RD, CARLTON, OR, 97111",627420755,"L"
162263,"13775 OFFUTT DRIVE","CARMEL","IN",46032,39.990228228,-86.137141276,263,"13775 OFFUTT DRIVE, CARMEL, IN, 46032","Match","Exact","13775 OFFUTT DR, CARMEL, IN, 46032",29300411,"L"
162264,"13775 SW 48 CT","OCALA","FL",34473,29.022733628,-82.2021541779999,264,"13775 SW 48 CT, OCALA, FL, 34473","Match","Exact","13775 SW 48TH CT, OCALA, FL, 34473",116735084,"R"
162265,"13775 W 133RD ST","OLATHE","KS",66062,38.887092792,-94.74888457,265,"13775 W 133RD ST, OLATHE, KS, 66062","Match","Exact","13775 W 133RD ST, OLATHE, KS, 66062",91318848,"L"
162266,"13776 HWY 21","OZONE","AR",72854,35.633771138,-93.442964793,266,"13776 HWY 21, OZONE, AR, 72854","Match","Non_Exact","13776 STATE HWY 21, OZONE, AR, 72854",73512233,"L"
162267,"13776 YOSEMITE AVE S","SAVAGE","MN",55378,44.754391936,-93.353419645,267,"13776 YOSEMITE AVE S, SAVAGE, MN, 55378","Match","Exact","13776 YOSEMITE AVE S, SAVAGE, MN, 55378",38145300,"R"
162268,"13777 ARNOLD RD","DALTON","OH",44618,40.7836060590001,-81.7304004,268,"13777 ARNOLD RD, DALTON, OH, 44618","Match","Exact","13777 ARNOLD RD, DALTON, OH, 44618",58760010,"L"
162269,"13777 BADGER CREEK DR","FRISCO","TX",75033,33.1927160060001,-96.873939767,269,"13777 BADGER CREEK DR, FRISCO, TX, 75033","Match","Exact","13777 BADGER CREEK DR, FRISCO, TX, 75033",615046782,"L"
162270,"13777 BADGER CREEK","FRISCO","TX",75033,33.1927160060001,-96.873939767,270,"13777 BADGER CREEK, FRISCO, TX, 75033","Match","Non_Exact","13777 BADGER CREEK DR, FRISCO, TX, 75033",615046782,"L"
162271,"13777 BALLANTYNE CORP PL ST 300","CHARLOTTE","NC",28277,NA,NA,271,"13777 BALLANTYNE CORP PL ST 300, CHARLOTTE, NC, 28277","No_Match",NA,NA,NA,NA
162272,"13778 75TH ROAD","FLSUHING","NY",11367,NA,NA,272,"13778 75TH ROAD, FLSUHING, NY, 11367","No_Match",NA,NA,NA,NA
162273,"13778 BISHOPS CAP","BLACK BUTTE","OR",97759,44.371523611,-121.646363179,273,"13778 BISHOPS CAP, BLACK BUTTE, OR, 97759","Match","Non_Exact","13778 BISHOPS CAP, SISTERS, OR, 97759",635875679,"L"
162274,"13778 BLYTHEDALE DRIVE","MOUNT AIRY","MD",21771,39.390387194,-77.184778904,274,"13778 BLYTHEDALE DRIVE, MOUNT AIRY, MD, 21771","Match","Exact","13778 BLYTHEDALE DR, MOUNT AIRY, MD, 21771",60688629,"L"
162275,"13778 FLOWING BROOK CT NUM 31C","CHANTILLY","VA",20151,38.888988843,-77.423123553,275,"13778 FLOWING BROOK CT NUM 31C, CHANTILLY, VA, 20151","Match","Exact","13778 FLOWING BROOK CT, CHANTILLY, VA, 20151",75955248,"L"
162276,"13778 Hawthorne Blvd","Hawthorne","CA",90250,33.906636102,-118.352368054,276,"13778 Hawthorne Blvd, Hawthorne, CA, 90250","Match","Exact","13778 HAWTHORNE BLVD, HAWTHORNE, CA, 90250",647569908,"L"
162277,"13778 HAWTHORNE BLVD","Hawthorne","CA",90250,33.906636102,-118.352368054,277,"13778 HAWTHORNE BLVD, Hawthorne, CA, 90250","Match","Exact","13778 HAWTHORNE BLVD, HAWTHORNE, CA, 90250",647569908,"L"
162278,"13778 HAWTHORNE BLVD","HAWTHORNE","CA",90250,33.906636102,-118.352368054,278,"13778 HAWTHORNE BLVD, HAWTHORNE, CA, 90250","Match","Exact","13778 HAWTHORNE BLVD, HAWTHORNE, CA, 90250",647569908,"L"
162279,"13778 SE WILSON CT","HAPPY VALLEY","OR",97086,45.4415626040001,-122.52146161,279,"13778 SE WILSON CT, HAPPY VALLEY, OR, 97086","Match","Exact","13778 SE WILSON CT, HAPPY VALLEY, OR, 97086",157993482,"L"
162280,"13778 TREELAND DR","SHELBY TOWNSHIP","MI",48315,42.632898294,-82.990780862,280,"13778 TREELAND DR, SHELBY TOWNSHIP, MI, 48315","Match","Exact","13778 TREELAND DR, SHELBY TOWNSHIP, MI, 48315",110708959,"L"
162281,"13779 US 12 E","UNION","MI",49130,NA,NA,281,"13779 US 12 E, UNION, MI, 49130","No_Match",NA,NA,NA,NA
162282,"1378 7TH ST","OGDEN","UT",84404,41.2522929290001,-111.942751039,282,"1378 7TH ST, OGDEN, UT, 84404","Match","Exact","1378 7TH ST, OGDEN, UT, 84404",155697566,"L"
162283,"1378 BANKSTON RD","TUNICA","MS",38676,34.6786653240001,-90.3700752729999,283,"1378 BANKSTON RD, TUNICA, MS, 38676","Match","Non_Exact","1378 BANKSTON DR, TUNICA, MS, 38676",623711609,"R"
162284,"1378 BEECHFERN CIRCLE","ELGIN","SC",29045,34.1254955160001,-80.836853778,284,"1378 BEECHFERN CIRCLE, ELGIN, SC, 29045","Match","Exact","1378 BEECHFERN CIR, ELGIN, SC, 29045",650702583,"R"
162285,"1378 BESSEMER SUPER HWY","BESSEMER","AL",35022,NA,NA,285,"1378 BESSEMER SUPER HWY, BESSEMER, AL, 35022","No_Match",NA,NA,NA,NA
162286,"1378 BRUMFIELD LN","NICHOLASVILLE","KY",40356,37.7887488100001,-84.557130055,286,"1378 BRUMFIELD LN, NICHOLASVILLE, KY, 40356","Match","Exact","1378 BRUMFIELD LN, NICHOLASVILLE, KY, 40356",38466173,"R"
162287,"1378 CADILLAC BLVD","DETROIT","MI",48214,42.3620861910001,-82.982542178,287,"1378 CADILLAC BLVD, DETROIT, MI, 48214","Match","Exact","1378 CADILLAC BLVD, DETROIT, MI, 48214",95485267,"R"
162288,"1378 CAMBERLY DRIVE   APT 1","CINCINNATI","OH",45215,39.241411514,-84.486899319,288,"1378 CAMBERLY DRIVE   APT 1, CINCINNATI, OH, 45215","Match","Exact","1378 CAMBERLY DR, CINCINNATI, OH, 45215",103960792,"L"
162289,"1378 CAMINO CARMELO","CHULA VISTA","CA",91913,NA,NA,289,"1378 CAMINO CARMELO, CHULA VISTA, CA, 91913","No_Match",NA,NA,NA,NA
162290,"1378 CLEARWATER DR","MEDFORD","OR",97501,42.3102865330001,-122.887983338,290,"1378 CLEARWATER DR, MEDFORD, OR, 97501","Match","Exact","1378 CLEARWATER DR, MEDFORD, OR, 97501",155592275,"L"
162291,"1378 COUNTY ROUTE 15","RENSSELAER FALLS","NY",13680,44.59832263,-75.348663572,291,"1378 COUNTY ROUTE 15, RENSSELAER FALLS, NY, 13680","Match","Non_Exact","1378 CO RD 15, RENSSELAER FALLS, NY, 13680",155198505,"R"
162292,"1378 CR 2125 E","ST JOSEPH","IL",61873,40.08047149,-88.061923318,292,"1378 CR 2125 E, ST JOSEPH, IL, 61873","Match","Exact","1378 CO RD 2125 E, SAINT JOSEPH, IL, 61873",8815519,"L"
162293,"1378 CRANDALL AVENUE","SALT LAKE CITY","UT",84106,40.7086744600001,-111.851154435,293,"1378 CRANDALL AVENUE, SALT LAKE CITY, UT, 84106","Match","Non_Exact","1378 E CRANDALL AVE, SALT LAKE CITY, UT, 84106",176081385,"R"
162294,"1378 E 5 STREET","BROOKLYN","NY",11230,40.6174280180001,-73.970595378,294,"1378 E 5 STREET, BROOKLYN, NY, 11230","Match","Exact","1378 E 5TH ST, BROOKLYN, NY, 11230",59089370,"R"
162295,"1378 E 5800 S","OGDEN","UT",84403,41.1572136610001,-111.94404932,295,"1378 E 5800 S, OGDEN, UT, 84403","Match","Non_Exact","1378 E 5800 S, OGDEN, UT, 84405",155701787,"L"
162296,"1378 E 5800 S","OGDEN","UT",84405,41.1572136610001,-111.94404932,296,"1378 E 5800 S, OGDEN, UT, 84405","Match","Exact","1378 E 5800 S, OGDEN, UT, 84405",155701787,"L"
162297,"1378 EAST 23RD AVENUE","COLUMBUS","OH",43211,40.005410205,-82.971288204,297,"1378 EAST 23RD AVENUE, COLUMBUS, OH, 43211","Match","Exact","1378 E 23RD AVE, COLUMBUS, OH, 43211",135577867,"L"
162298,"1378 EAST 86 STREET","CLEVELAND","OH",44106,41.518235949,-81.627499869,298,"1378 EAST 86 STREET, CLEVELAND, OH, 44106","Match","Exact","1378 E 86TH ST, CLEVELAND, OH, 44106",61113936,"R"
162299,"1378 EAST THORNTON AVE","SALT LAKE CITY","UT",84105,40.746634256,-111.851610144,299,"1378 EAST THORNTON AVE, SALT LAKE CITY, UT, 84105","Match","Non_Exact","1378 THORNTON AVE, SALT LAKE CITY, UT, 84105",176080641,"R"
162300,"1378 GRANDIFLORA DR","LELAND","NC",28451,34.228440736,-78.03982877,300,"1378 GRANDIFLORA DR, LELAND, NC, 28451","Match","Exact","1378 GRANDIFLORA DR, LELAND, NC, 28451",153170992,"R"
162301,"1378 KING AVE   APT 208","COLUMBUS","OH",43212,39.991563527,-83.043629505,301,"1378 KING AVE   APT 208, COLUMBUS, OH, 43212","Match","Exact","1378 KING AVE, COLUMBUS, OH, 43212",135572650,"R"
162302,"1378 KING AVENUE UNIT 208","COLUMBUS","OH",43212,39.991563527,-83.043629505,302,"1378 KING AVENUE UNIT 208, COLUMBUS, OH, 43212","Match","Exact","1378 KING AVE, COLUMBUS, OH, 43212",135572650,"R"
162303,"1378 KINGFISHER WAY APT 4","SUNNYVALE","CA",94087,37.3491470480001,-122.016871395,303,"1378 KINGFISHER WAY APT 4, SUNNYVALE, CA, 94087","Match","Exact","1378 KINGFISHER WAY, SUNNYVALE, CA, 94087",614038760,"L"
162304,"1378 LAKE AVENUE","WELLS","NV",89835,NA,NA,304,"1378 LAKE AVENUE, WELLS, NV, 89835","No_Match",NA,NA,NA,NA
162305,"1378 LYNNBURY WOODS RD","DOVER","DE",19904,39.2285778500001,-75.601353284,305,"1378 LYNNBURY WOODS RD, DOVER, DE, 19904","Match","Exact","1378 LYNNBURY WOODS RD, DOVER, DE, 19904",647370734,"R"
162306,"1378 MEADOW CREST DRIVE","SOUTH LAKE TAHOE","CA",96150,38.9184335190001,-119.971214456,306,"1378 MEADOW CREST DRIVE, SOUTH LAKE TAHOE, CA, 96150","Match","Exact","1378 MEADOW CREST DR, SOUTH LAKE TAHOE, CA, 96150",133036805,"L"
162307,"1378 NE 51ST LOOP","OCALA","FL",34479,29.240220906,-82.120791261,307,"1378 NE 51ST LOOP, OCALA, FL, 34479","Match","Exact","1378 NE 51ST LOOP, OCALA, FL, 34479",608598837,"R"
162308,"1378 NORTH OXFORD AVENUE","PASADENA","CA",91104,34.169917872,-118.11641429,308,"1378 NORTH OXFORD AVENUE, PASADENA, CA, 91104","Match","Exact","1378 N OXFORD AVE, PASADENA, CA, 91104",141781219,"R"
162309,"1378 NW 13TH COURT","BOCA RATON","FL",33486,26.362032866,-80.1140830109999,309,"1378 NW 13TH COURT, BOCA RATON, FL, 33486","Match","Exact","1378 NW 13TH CT, BOCA RATON, FL, 33486",115302291,"L"
162310,"1378 OLD STATE RD","BOYNE CITY","MI",49712,45.2275703290001,-84.96269732,310,"1378 OLD STATE RD, BOYNE CITY, MI, 49712","Match","Exact","1378 OLD STATE RD, BOYNE CITY, MI, 49712",649927774,"R"
162311,"1378 PASEO VERDE PARKWAY STE 200","HENDERSON","NV",89012,36.0263583780001,-115.046708368,311,"1378 PASEO VERDE PARKWAY STE 200, HENDERSON, NV, 89012","Match","Exact","1378 PASEO VERDE PKWY, HENDERSON, NV, 89012",612985871,"R"
162312,"1378 PEARL WAY","BRENTWOOD","CA",94513,37.9058669230001,-121.719057956,312,"1378 PEARL WAY, BRENTWOOD, CA, 94513","Match","Exact","1378 PEARL WAY, BRENTWOOD, CA, 94513",653161101,"L"
162313,"1378 PINHOOK RD","BUTLER","AL",36904,32.03187818,-88.347529014,313,"1378 PINHOOK RD, BUTLER, AL, 36904","Match","Exact","1378 PINHOOK RD, BUTLER, AL, 36904",111264,"R"
162314,"1378 POW CAMP RD","CROSSVILLE","TN",38572,35.936715931,-85.113302956,314,"1378 POW CAMP RD, CROSSVILLE, TN, 38572","Match","Exact","1378 POW CAMP RD, CROSSVILLE, TN, 38572",652869983,"L"
162315,"1378 RABBIT HILL ROAD","WELLSBURG","WV",26070,40.2928960630001,-80.5900524039999,315,"1378 RABBIT HILL ROAD, WELLSBURG, WV, 26070","Match","Exact","1378 RABBIT HILL RD, WELLSBURG, WV, 26070",634418504,"R"
162316,"1378 ROBIN HOOD DR","WEST CARROLLTON","OH",45449,39.650461159,-84.2486926719999,316,"1378 ROBIN HOOD DR, WEST CARROLLTON, OH, 45449","Match","Non_Exact","1378 ROBINHOOD DR, WEST CARROLLTON, OH, 45449",143578985,"L"
162317,"1378 ROBINHOOD DRIVE","WEST CARROLLTON","OH",45449,39.650461159,-84.2486926719999,317,"1378 ROBINHOOD DRIVE, WEST CARROLLTON, OH, 45449","Match","Exact","1378 ROBINHOOD DR, WEST CARROLLTON, OH, 45449",143578985,"L"
162318,"1378 ROCK CHAPEL ROAD","HERNDON","VA",20170,39.0050260990001,-77.378219648,318,"1378 ROCK CHAPEL ROAD, HERNDON, VA, 20170","Match","Exact","1378 ROCK CHAPEL RD, HERNDON, VA, 20170",75956574,"R"
162319,"1378 ROLLING RIVER VIEW","SPRING BRANCH","TX",78070,29.8543359980001,-98.453545208,319,"1378 ROLLING RIVER VIEW, SPRING BRANCH, TX, 78070","Match","Exact","1378 ROLLING RIVER VW, SPRING BRANCH, TX, 78070",72255593,"L"
162320,"1378 ROUTE 47","WOODBINE","NJ",8270,39.1966588830001,-74.8457779139999,320,"1378 ROUTE 47, WOODBINE, NJ, 8270","Match","Non_Exact","1378 STATE RTE 47, WOODBINE, NJ, 08270",174335258,"R"
162321,"1378 S 9TH STREET","DE PERE","WI",54115,44.433470314,-88.09742031,321,"1378 S 9TH STREET, DE PERE, WI, 54115","Match","Exact","1378 S 9TH ST, DE PERE, WI, 54115",642076617,"R"
162322,"1378 SCHWERNER COURT","PITTSBURGH","PA",15206,40.471614484,-79.899207138,322,"1378 SCHWERNER COURT, PITTSBURGH, PA, 15206","Match","Exact","1378 SCHWERNER CT, PITTSBURGH, PA, 15206",51814055,"R"
162323,"1378 SLAYTON DR","MAPLE GLEN","PA",19002,40.1642109800001,-75.169824822,323,"1378 SLAYTON DR, MAPLE GLEN, PA, 19002","Match","Exact","1378 SLAYTON DR, MAPLE GLEN, PA, 19002",135105278,"L"
162324,"1378 TIPPERARY DRIVE","MELBOURNE","FL",32940,28.2576162,-80.704293224,324,"1378 TIPPERARY DRIVE, MELBOURNE, FL, 32940","Match","Exact","1378 TIPPERARY DR, MELBOURNE, FL, 32940",649429280,"R"
162325,"1378 TURNBRIDGE DR","JUPITER","FL",33458,26.906538885,-80.1191077939999,325,"1378 TURNBRIDGE DR, JUPITER, FL, 33458","Match","Exact","1378 TURNBRIDGE DR, JUPITER, FL, 33458",643119707,"L"
162326,"1378 WASHINGTON STREET","STOUGHTON","MA",2072,42.1076999060001,-71.09948136,326,"1378 WASHINGTON STREET, STOUGHTON, MA, 2072","Match","Exact","1378 WASHINGTON ST, STOUGHTON, MA, 02072",87304080,"L"
162327,"1378 WEST BLUE SPRING AVE","ORANGE CITY","FL",32763,28.943280224,-81.319437794,327,"1378 WEST BLUE SPRING AVE, ORANGE CITY, FL, 32763","Match","Exact","1378 W BLUE SPRINGS AVE, ORANGE CITY, FL, 32763",94516728,"R"
162328,"1378","LANCASTER","TX",75134,NA,NA,328,"1378, LANCASTER, TX, 75134","No_Match",NA,NA,NA,NA
162329,"13780 195TH DR SE","MONROE","WA",98272,47.871802996,-121.969863747,329,"13780 195TH DR SE, MONROE, WA, 98272","Match","Exact","13780 195TH DR SE, MONROE, WA, 98272",187823984,"L"
162330,"13780 BELGIAN CT","RAPID CITY","SD",57702,43.932843394,-103.299861706,330,"13780 BELGIAN CT, RAPID CITY, SD, 57702","Match","Exact","13780 BELGIAN CT, RAPID CITY, SD, 57702",645906911,"R"
162331,"13780 DEL CORSO WAY  1325","BROOMFIELD","CO",80020,39.9454512250001,-105.121963111,331,"13780 DEL CORSO WAY  1325, BROOMFIELD, CO, 80020","Match","Non_Exact","13780 DEL CORSO WAY, BROOMFIELD, CO, 80020",641287521,"L"
162332,"13780 DEL CORSO WAY NUM 1628","BROOMFIELD","CO",80020,39.9454512250001,-105.121963111,332,"13780 DEL CORSO WAY NUM 1628, BROOMFIELD, CO, 80020","Match","Non_Exact","13780 DEL CORSO WAY, BROOMFIELD, CO, 80020",641287521,"L"
162333,"13780 HOPEWELL ROAD","ALPHARETTA","GA",30004,34.1169320550001,-84.294877753,333,"13780 HOPEWELL ROAD, ALPHARETTA, GA, 30004","Match","Exact","13780 HOPEWELL RD, ALPHARETTA, GA, 30004",17390637,"L"
162334,"13780 INTERNATIONAL DR","ORLANDO","FL",32821,28.361781568,-81.487123578,334,"13780 INTERNATIONAL DR, ORLANDO, FL, 32821","Match","Exact","13780 INTERNATIONAL DR, ORLANDO, FL, 32821",611237223,"R"
162335,"13780 LAKESIDE BLVD 320","SHELBY TOWNSHIP","MI",48315,42.6308500370001,-82.992114086,335,"13780 LAKESIDE BLVD 320, SHELBY TOWNSHIP, MI, 48315","Match","Non_Exact","13780 LAKESIDE BLVD N, SHELBY TOWNSHIP, MI, 48315",110708982,"R"
162336,"13780 LAUREL ROCK DRIVE","CLIFTON","VA",20124,38.8075130550001,-77.424584674,336,"13780 LAUREL ROCK DRIVE, CLIFTON, VA, 20124","Match","Exact","13780 LAUREL ROCK DR, CLIFTON, VA, 20124",649772507,"R"
162337,"13780 LOWE ST","CHANTILLY","VA",20151,NA,NA,337,"13780 LOWE ST, CHANTILLY, VA, 20151","No_Match",NA,NA,NA,NA
162338,"13780 N BROADWAY","NEAPOLIS","OH",43547,41.4927122460001,-83.874319457,338,"13780 N BROADWAY, NEAPOLIS, OH, 43547","Match","Non_Exact","13780 N BROADWAY AVE, NEAPOLIS, OH, 43547",33952242,"R"
162339,"13780 NE 11 AVENUE","NO MIAMI","FL",33161,25.9024233100001,-80.1769417469999,339,"13780 NE 11 AVENUE, NO MIAMI, FL, 33161","Match","Exact","13780 NE 11TH AVE, NORTH MIAMI, FL, 33161",640560453,"L"
162340,"13780 NE 3RD COURT","NORTH MIAMI","FL",33161,25.9015475460001,-80.192021,340,"13780 NE 3RD COURT, NORTH MIAMI, FL, 33161","Match","Exact","13780 NE 3RD CT, NORTH MIAMI, FL, 33161",116255622,"L"
162341,"13780 OLIVER LN","CARMEL","IN",46074,39.9870872480001,-86.2139813209999,341,"13780 OLIVER LN, CARMEL, IN, 46074","Match","Exact","13780 OLIVER LN, CARMEL, IN, 46074",618464992,"L"
162342,"13780 SW 143 STREET","MIAMI","FL",33186,25.634993391,-80.41663124,342,"13780 SW 143 STREET, MIAMI, FL, 33186","Match","Exact","13780 SW 143RD ST, MIAMI, FL, 33186",641707391,"L"
162343,"13780 SW 272 STREET APT 102","HOMESTEAD","FL",33032,25.514370709,-80.4138290129999,343,"13780 SW 272 STREET APT 102, HOMESTEAD, FL, 33032","Match","Non_Exact","13780 SW 272ND ST, HOMESTEAD, FL, 33032",612456241,"R"
162344,"13780 SW 272 STREET APT 102","HOMESTED","FL",33032,25.514370709,-80.4138290129999,344,"13780 SW 272 STREET APT 102, HOMESTED, FL, 33032","Match","Non_Exact","13780 SW 272ND ST, HOMESTEAD, FL, 33032",612456241,"R"
162345,"13781 FINDLAY AVE","APPLE VALLEY","MN",55124,44.749411416,-93.196354276,345,"13781 FINDLAY AVE, APPLE VALLEY, MN, 55124","Match","Exact","13781 FINDLAY AVE, APPLE VALLEY, MN, 55124",37940776,"R"
162346,"13781 FINDLAY","APPLE VALLEY","MN",55124,44.749411416,-93.196354276,346,"13781 FINDLAY, APPLE VALLEY, MN, 55124","Match","Non_Exact","13781 FINDLAY AVE, APPLE VALLEY, MN, 55124",37940776,"R"
162347,"13781 GENTILLY CT","BATON ROUGE","LA",70810,30.3698078900001,-91.062945551,347,"13781 GENTILLY CT, BATON ROUGE, LA, 70810","Match","Exact","13781 GENTILLY CT, BATON ROUGE, LA, 70810",92202818,"R"
162348,"13781 JORDAN MEADOWS LANE","NOKESVILLE","VA",20181,38.6563403750001,-77.520466461,348,"13781 JORDAN MEADOWS LANE, NOKESVILLE, VA, 20181","Match","Exact","13781 JORDAN MEADOWS LN, NOKESVILLE, VA, 20181",635834569,"L"
162349,"13782 GLENHURST AVENUE","SAVAGE","MN",55378,44.7542775040001,-93.329206415,349,"13782 GLENHURST AVENUE, SAVAGE, MN, 55378","Match","Exact","13782 GLENHURST AVE, SAVAGE, MN, 55378",38145750,"R"
162350,"13783 A BAY RD E","FOLEY","AL",36535,30.370130433,-87.792482085,350,"13783 A BAY RD E, FOLEY, AL, 36535","Match","Exact","13783 BAY RD E, FOLEY, AL, 36535",131640460,"R"
162351,"13783 FALCON RD","SPARTA","WI",54656,43.975328458,-90.891640267,351,"13783 FALCON RD, SPARTA, WI, 54656","Match","Exact","13783 FALCON RD, SPARTA, WI, 54656",51067107,"L"
162352,"13783A BAY ROAD EAST","FOLEY","AL",36535,30.370130433,-87.792482085,352,"13783A BAY ROAD EAST, FOLEY, AL, 36535","Match","Exact","13783 BAY RD E, FOLEY, AL, 36535",131640460,"R"
162353,"13784 CAMINO RICO","SARATOGA","CA",95070,NA,NA,353,"13784 CAMINO RICO, SARATOGA, CA, 95070","No_Match",NA,NA,NA,NA
162354,"13784 KENO WORDEN ROAD","KLAMATH FALLS","OR",97603,42.100334537,-121.912407312,354,"13784 KENO WORDEN ROAD, KLAMATH FALLS, OR, 97603","Match","Exact","13784 KENO WORDEN RD, KLAMATH FALLS, OR, 97603",156711135,"L"
162355,"13784 MIDLAND RD","POWAY","CA",92064,32.9643917270001,-117.036120994,355,"13784 MIDLAND RD, POWAY, CA, 92064","Match","Exact","13784 MIDLAND RD, POWAY, CA, 92064",195323984,"L"
162356,"13784 SYCAMORE TREE LANE","POWAY","CA",92064,32.963501111,-117.040864141,356,"13784 SYCAMORE TREE LANE, POWAY, CA, 92064","Match","Exact","13784 SYCAMORE TREE LN, POWAY, CA, 92064",195323926,"R"
162357,"13785 EXOTICA LANE","WELLINGTON","FL",33414,26.6723255700001,-80.264883686,357,"13785 EXOTICA LANE, WELLINGTON, FL, 33414","Match","Exact","13785 EXOTICA LN, WELLINGTON, FL, 33414",115579537,"L"
162358,"13785 LAUREL ROCK DRIVE","CLIFTON","VA",20124,38.807609042,-77.424808393,358,"13785 LAUREL ROCK DRIVE, CLIFTON, VA, 20124","Match","Exact","13785 LAUREL ROCK DR, CLIFTON, VA, 20124",649772507,"L"
162359,"13785 N 1500TH ROAD","MACOMB","IL",61455,40.4990196360001,-90.6416220579999,359,"13785 N 1500TH ROAD, MACOMB, IL, 61455","Match","Exact","13785 N 1500TH RD, MACOMB, IL, 61455",5368661,"L"
162360,"13785 NE 67TH","JONES","OK",73049,35.54075099,-97.286794729,360,"13785 NE 67TH, JONES, OK, 73049","Match","Non_Exact","13785 NE 67TH ST, JONES, OK, 73049",650184641,"L"
162361,"13785 STATE RTE 90","LOCKE","NY",13092,42.64055367,-76.332619407,361,"13785 STATE RTE 90, LOCKE, NY, 13092","Match","Non_Exact","13785 STATE RTE 90 N, LOCKE, NY, 13092",33503568,"R"
162362,"13785 W WILDFLOWER LANE","NEW BERLIN","WI",53151,42.9564740050001,-88.087103864,362,"13785 W WILDFLOWER LANE, NEW BERLIN, WI, 53151","Match","Non_Exact","13785 WILDFLOWER CIR, NEW BERLIN, WI, 53151",53859421,"L"
162363,"13786 FORSMAN RD SE","OLALLA","WA",98359,47.4225629530001,-122.567801009,363,"13786 FORSMAN RD SE, OLALLA, WA, 98359","Match","Exact","13786 FORSMAN RD SE, OLALLA, WA, 98359",617960901,"L"
162364,"13786 MAR SCENIC DR","DEL MAR","CA",92014,32.9487399830001,-117.25426615,364,"13786 MAR SCENIC DR, DEL MAR, CA, 92014","Match","Exact","13786 MAR SCENIC DR, DEL MAR, CA, 92014",195298026,"L"
162365,"13786 OMEGA CIRCLE","LONE TREE","CO",80124,39.5588137980001,-104.901706251,365,"13786 OMEGA CIRCLE, LONE TREE, CO, 80124","Match","Exact","13786 OMEGA CIR, LONE TREE, CO, 80124",130823009,"R"
162366,"13786 W VERNON AVE","GOODYEAR","AZ",85395,33.473070034,-112.356176714,366,"13786 W VERNON AVE, GOODYEAR, AZ, 85395","Match","Exact","13786 W VERNON AVE, GOODYEAR, AZ, 85395",128384902,"L"
162367,"13787 170TH ST","BONNER SPRINGS","KS",66012,NA,NA,367,"13787 170TH ST, BONNER SPRINGS, KS, 66012","No_Match",NA,NA,NA,NA
162368,"13787 BELCHER RD S SUITE 340","LARGO","FL",33771,27.897345467,-82.7457901989999,368,"13787 BELCHER RD S SUITE 340, LARGO, FL, 33771","Match","Exact","13787 BELCHER RD S, LARGO, FL, 33771",653185283,"L"
162369,"13787 SW 66 ST APT D145","MIAMI","FL",33183,25.7076190990001,-80.424922903,369,"13787 SW 66 ST APT D145, MIAMI, FL, 33183","Match","Non_Exact","13787 SW 66TH ST, MIAMI, FL, 33183",116089476,"R"
162370,"13788 COMPTON RIDGE DRIVE","TRINIDAD","CO",81082,37.1845479880001,-104.555580341,370,"13788 COMPTON RIDGE DRIVE, TRINIDAD, CO, 81082","Match","Exact","13788 COMPTON RIDGE DR, TRINIDAD, CO, 81082",604513992,"L"
162371,"13788 CONWAY RD","ST LOUIS","MO",63141,38.6490941650001,-90.508874966,371,"13788 CONWAY RD, ST LOUIS, MO, 63141","Match","Exact","13788 CONWAY RD, SAINT LOUIS, MO, 63141",649761935,"L"
162372,"13788 DUNSTER COURT","WELLINGTON","FL",33414,26.6475126650001,-80.26816636,372,"13788 DUNSTER COURT, WELLINGTON, FL, 33414","Match","Exact","13788 DUNSTER CT, WELLINGTON, FL, 33414",115486363,"R"
162373,"13788 MURPHY LANE","OAK RUN","CA",96069,40.6967976220001,-122.030997438,373,"13788 MURPHY LANE, OAK RUN, CA, 96069","Match","Exact","13788 MURPHY LN, OAK RUN, CA, 96069",126657512,"L"
162374,"13788 TIMBER TRAIL","BROOKWOOD","AL",35444,33.3457183780001,-87.3960252429999,374,"13788 TIMBER TRAIL, BROOKWOOD, AL, 35444","Match","Exact","13788 TIMBER TRL, BROOKWOOD, AL, 35444",648204220,"R"
162375,"13789 FRANKLIN ST","BRIGHTON","CO",80602,39.9462625090001,-104.96891055,375,"13789 FRANKLIN ST, BRIGHTON, CO, 80602","Match","Exact","13789 FRANKLIN ST, BRIGHTON, CO, 80602",177291564,"L"
162376,"13789 HEMLOCK DRIVE","PENN VALEY","CA",95946,39.2423141620001,-121.194261731,376,"13789 HEMLOCK DRIVE, PENN VALEY, CA, 95946","Match","Non_Exact","13789 HEMLOCK DR, PENN VALLEY, CA, 95946",106531431,"R"
162377,"13789 LEGEND TRL UNIT 104","BROOMFIELD","CO",80023,39.948713248,-105.033673706,377,"13789 LEGEND TRL UNIT 104, BROOMFIELD, CO, 80023","Match","Exact","13789 LEGEND TRL, BROOMFIELD, CO, 80023",210035015,"R"
162378,"13789 LOWE ST","CHANTILLY","VA",20151,NA,NA,378,"13789 LOWE ST, CHANTILLY, VA, 20151","No_Match",NA,NA,NA,NA
162379,"13789 STONEHENGE CIRCLE","PICKERINGTON","OH",43147,NA,NA,379,"13789 STONEHENGE CIRCLE, PICKERINGTON, OH, 43147","No_Match",NA,NA,NA,NA
162380,"13789 SW 66TH ST APT 176","MIAMI","FL",33183,25.707581696,-80.424959787,380,"13789 SW 66TH ST APT 176, MIAMI, FL, 33183","Match","Non_Exact","13789 SW 66TH ST, MIAMI, FL, 33183",116089476,"R"
162381,"13789 W DAKOTA PL","LAKEWOOD","CO",80228,39.7087983820001,-105.154183612,381,"13789 W DAKOTA PL, LAKEWOOD, CO, 80228","Match","Exact","13789 WEST DAKOTA PL, LAKEWOOD, CO, 80228",177316584,"R"
162382,"13789 W DAKOTA PLACE","LAKEWOOD","CO",80228,39.7087983820001,-105.154183612,382,"13789 W DAKOTA PLACE, LAKEWOOD, CO, 80228","Match","Exact","13789 WEST DAKOTA PL, LAKEWOOD, CO, 80228",177316584,"R"
162383,"1379 3RD ST","LA VERNE","CA",91750,34.1040044310001,-117.783575777,383,"1379 3RD ST, LA VERNE, CA, 91750","Match","Exact","1379 3RD ST, LA VERNE, CA, 91750",141775947,"L"
162384,"1379 AIRLINE ROAD","ALEXANDER","ME",4694,45.0927432410001,-67.474925607,384,"1379 AIRLINE ROAD, ALEXANDER, ME, 4694","Match","Exact","1379 AIRLINE RD, ALEXANDER, ME, 04694",124251706,"L"
162385,"1379 AQUETUCK ROAD","RAVENA","NY",12143,42.4547517560001,-73.831755898,385,"1379 AQUETUCK ROAD, RAVENA, NY, 12143","Match","Exact","1379 AQUETUCK RD, RAVENA, NY, 12143",642134936,"L"
162386,"1379 ASHLEY DR","TWIN FALLS","ID",83301,42.5858777820001,-114.495688058,386,"1379 ASHLEY DR, TWIN FALLS, ID, 83301","Match","Exact","1379 ASHLEY DR, TWIN FALLS, ID, 83301",118777014,"L"
162387,"1379 BELLSMITH DRIVE","ROSWELL","GA",30076,34.0686632810001,-84.319865363,387,"1379 BELLSMITH DRIVE, ROSWELL, GA, 30076","Match","Exact","1379 BELLSMITH DR, ROSWELL, GA, 30076",618449118,"L"
162388,"1379 BELLVIEW AVE","PLAINFIELD","NJ",7060,40.6025771710001,-74.3994188249999,388,"1379 BELLVIEW AVE, PLAINFIELD, NJ, 7060","Match","Non_Exact","1379 BELLEVIEW AVE, PLAINFIELD, NJ, 07060",60583405,"L"
162389,"1379 BIRD OF PARADISE COURT","BEAUMONT","CA",92223,NA,NA,389,"1379 BIRD OF PARADISE COURT, BEAUMONT, CA, 92223","No_Match",NA,NA,NA,NA
162390,"1379 BRENTHAVEN PL","COLUMBUS","OH",43228,39.979403227,-83.166329689,390,"1379 BRENTHAVEN PL, COLUMBUS, OH, 43228","Match","Exact","1379 BRENTHAVEN PL, COLUMBUS, OH, 43228",218680685,"L"
162391,"1379 BRENTHAVEN PLACE","COLUMBUS","OH",43228,39.979403227,-83.166329689,391,"1379 BRENTHAVEN PLACE, COLUMBUS, OH, 43228","Match","Exact","1379 BRENTHAVEN PL, COLUMBUS, OH, 43228",218680685,"L"
162392,"1379 BRISTOL ROAD","SOUTHAMPTON","PA",18966,40.180660532,-75.0143225099999,392,"1379 BRISTOL ROAD, SOUTHAMPTON, PA, 18966","Match","Exact","1379 BRISTOL RD, SOUTHAMPTON, PA, 18966",134777945,"L"
162393,"1379 BROOKFALL AVE","UNION","NJ",7083,40.6919521390001,-74.241717353,393,"1379 BROOKFALL AVE, UNION, NJ, 7083","Match","Exact","1379 BROOKFALL AVE, UNION, NJ, 07083",60576490,"R"
162394,"1379 CANTERBURY ROAD","WINTER PARK","FL",32789,28.5849552190001,-81.370153463,394,"1379 CANTERBURY ROAD, WINTER PARK, FL, 32789","Match","Exact","1379 CANTERBURY RD, WINTER PARK, FL, 32789",94277252,"R"
162395,"1379 COLWICK LN","ROCK HILL","SC",29732,34.9374414230001,-81.0695341799999,395,"1379 COLWICK LN, ROCK HILL, SC, 29732","Match","Exact","1379 COLWICK LN, ROCK HILL, SC, 29732",19825005,"R"
162396,"1379 CR 473","KILLEN","AL",35645,34.850647947,-87.499399306,396,"1379 CR 473, KILLEN, AL, 35645","Match","Exact","1379 CO RD 473, KILLEN, AL, 35645",41343787,"R"
162397,"1379 CUMULUS CT","1379 CUMULUS CT","NV",89014,36.0507352000001,-115.0447142,397,"1379 CUMULUS CT, 1379 CUMULUS CT, NV, 89014","Match","Non_Exact","1379 CUMULUS CT, HENDERSON, NV, 89014",201966199,"L"
162398,"1379 DENMARK DR","LILBURN","GA",30047,33.840550364,-84.1235328389999,398,"1379 DENMARK DR, LILBURN, GA, 30047","Match","Non_Exact","1379 DENMARK DR SW, LILBURN, GA, 30047",88887129,"R"
162399,"1379 DILWORTHTOWN XING UNIT 146","WEST CHESTER","PA",19382,NA,NA,399,"1379 DILWORTHTOWN XING UNIT 146, WEST CHESTER, PA, 19382","No_Match",NA,NA,NA,NA
162400,"1379 E HAWK WAY","EAGLE MOUNTAIN","UT",84005,40.3143744670001,-112.017057926,400,"1379 E HAWK WAY, EAGLE MOUNTAIN, UT, 84005","Match","Exact","1379 HAWK WAY, EAGLE MOUNTAIN, UT, 84005",134255983,"L"
162401,"1379 E MAIN ST","DOUGLASSVILLE","PA",19518,40.259062134,-75.778296932,401,"1379 E MAIN ST, DOUGLASSVILLE, PA, 19518","Match","Exact","1379 E MAIN ST, DOUGLASSVILLE, PA, 19518",80387221,"R"
162402,"1379 EAST HILL ROAD","WOLCOTT","VT",5680,44.5566894450001,-72.4392490289999,402,"1379 EAST HILL ROAD, WOLCOTT, VT, 5680","Match","Exact","1379 E HILL RD, WOLCOTT, VT, 05680",136624394,"L"
162403,"1379 FLUSHING ROAD","FLUSHING","MI",48433,43.0622310910001,-83.827073204,403,"1379 FLUSHING ROAD, FLUSHING, MI, 48433","Match","Exact","1379 FLUSHING RD, FLUSHING, MI, 48433",69561313,"L"
162404,"1379 FM 2301","TULIA","TX",79088,34.505033666,-101.57536094,404,"1379 FM 2301, TULIA, TX, 79088","Match","Exact","1379 FM 2301, TULIA, TX, 79088",182709855,"L"
162405,"1379 HIGHPOINT AVE","ATLANTA","GA",30315,NA,NA,405,"1379 HIGHPOINT AVE, ATLANTA, GA, 30315","No_Match",NA,NA,NA,NA
162406,"1379 HULL LANE","MARTINEZ","CA",94553,37.9931328210001,-122.106371102,406,"1379 HULL LANE, MARTINEZ, CA, 94553","Match","Exact","1379 HULL LN, MARTINEZ, CA, 94553",624325479,"R"
162407,"1379 HWY 304","VEGUITA","NM",87062,34.521016177,-106.765274029,407,"1379 HWY 304, VEGUITA, NM, 87062","Match","Non_Exact","1379 STATE HWY 304, VEGUITA, NM, 87062",193225607,"L"
162408,"1379 LEAFWOOD COURT","FAIRFIELD","CA",94534,38.177085269,-122.136184751,408,"1379 LEAFWOOD COURT, FAIRFIELD, CA, 94534","Match","Exact","1379 LEAFWOOD CT, FAIRFIELD, CA, 94534",192554039,"L"
162409,"1379 MINNOW RD","COPPELL","TX",75019,NA,NA,409,"1379 MINNOW RD, COPPELL, TX, 75019","No_Match",NA,NA,NA,NA
162410,"1379 MORRISON ROAD","ROSE CITY","MI",48654,44.3739466310001,-84.1059857559999,410,"1379 MORRISON ROAD, ROSE CITY, MI, 48654","Match","Non_Exact","1379 N MORRISON RD, ROSE CITY, MI, 48654",161346816,"L"
162411,"1379 NE GLADYS DR","HERMISTON","OR",97838,45.8418558210001,-119.262607062,411,"1379 NE GLADYS DR, HERMISTON, OR, 97838","Match","Exact","1379 NE GLADYS DR, HERMISTON, OR, 97838",633406238,"L"
162412,"1379 ORANGE BLOSSOM TERRACE","ATLANTA","GA",30316,33.722997235,-84.3331733269999,412,"1379 ORANGE BLOSSOM TERRACE, ATLANTA, GA, 30316","Match","Non_Exact","1379 ORANGE BLOSSOM TER SE, ATLANTA, GA, 30316",23365975,"R"
162413,"1379 PADFIELD PLACE","ERIE","CO",80516,40.0640477540001,-105.058375988,413,"1379 PADFIELD PLACE, ERIE, CO, 80516","Match","Exact","1379 PADFIELD PL, ERIE, CO, 80516",188239554,"R"
162414,"1379 PARK WESTERN DRIVE  NUM 336","SAN PEDRO","CA",90732,NA,NA,414,"1379 PARK WESTERN DRIVE  NUM 336, SAN PEDRO, CA, 90732","Tie",NA,NA,NA,NA
162415,"1379 PARK WESTERN DRIVE NUM 336","SAN PEDRO","CA",90732,NA,NA,415,"1379 PARK WESTERN DRIVE NUM 336, SAN PEDRO, CA, 90732","Tie",NA,NA,NA,NA
162416,"1379 PARK WESTERN DRIVE","SIMI VALLEY","CA",93063,NA,NA,416,"1379 PARK WESTERN DRIVE, SIMI VALLEY, CA, 93063","No_Match",NA,NA,NA,NA
162417,"1379 PECKS RD","BEDFORD","VA",24523,37.2350031240001,-79.461379933,417,"1379 PECKS RD, BEDFORD, VA, 24523","Match","Exact","1379 PECKS RD, BEDFORD, VA, 24523",649986074,"L"
162418,"1379 PERSIMMON COURT","LITHONIA","GA",30058,33.754812513,-84.099503715,418,"1379 PERSIMMON COURT, LITHONIA, GA, 30058","Match","Exact","1379 PERSIMMON CT, LITHONIA, GA, 30058",619378268,"R"
162419,"1379 PETERSON DR","JEFFERSON HILLS","PA",15025,40.291901813,-79.90245842,419,"1379 PETERSON DR, JEFFERSON HILLS, PA, 15025","Match","Exact","1379 PETERSON DR, JEFFERSON HILLS, PA, 15025",51660887,"L"
162420,"1379 PONDEROSA DRIVE","ASHLAND","OR",97520,42.177833976,-122.692232853,420,"1379 PONDEROSA DRIVE, ASHLAND, OR, 97520","Match","Exact","1379 PONDEROSA DR, ASHLAND, OR, 97520",155550440,"R"
162421,"1379 ROLAND ROAD","CLOQUET","MN",55720,46.6864658120001,-92.451427721,421,"1379 ROLAND ROAD, CLOQUET, MN, 55720","Match","Exact","1379 ROLAND RD, CLOQUET, MN, 55720",162673235,"R"
162422,"1379 S PARKSIDE CIRCLE","SARATOGA SPRINGS","UT",84043,40.3371616840001,-111.920897338,422,"1379 S PARKSIDE CIRCLE, SARATOGA SPRINGS, UT, 84043","Match","Non_Exact","1379 PARKSIDE CIR, SARATOGA SPRINGS, UT, 84045",601213330,"R"
162423,"1379 S PLEASANT VALLEY ROAD","WESTMINSTER","MD",21158,39.63332561,-77.045846308,423,"1379 S PLEASANT VALLEY ROAD, WESTMINSTER, MD, 21158","Match","Exact","1379 PLEASANT VALLEY RD, WESTMINSTER, MD, 21158",61750497,"L"
162424,"1379 SCHULTE HILL DRIVE","MARYLAND HEIGHTS","MO",63043,38.705601508,-90.455624621,424,"1379 SCHULTE HILL DRIVE, MARYLAND HEIGHTS, MO, 63043","Match","Exact","1379 SCHULTE HILL DR, MARYLAND HEIGHTS, MO, 63043",100124141,"L"
162425,"1379 SOUTHERN BLVD","WARREN","OH",44485,41.247763655,-80.8558657249999,425,"1379 SOUTHERN BLVD, WARREN, OH, 44485","Match","Non_Exact","1379 SOUTHERN BLVD NW, WARREN, OH, 44485",117403901,"L"
162426,"1379 STANLEY BLVD","CALUMET CITY","IL",60409,41.594513867,-87.533530064,426,"1379 STANLEY BLVD, CALUMET CITY, IL, 60409","Match","Exact","1379 STANLEY BLVD, CALUMET CITY, IL, 60409",112211430,"R"
162427,"1379 TROY AVENUE","BROOKLYN","NY",11203,40.6387529150001,-73.934803651,427,"1379 TROY AVENUE, BROOKLYN, NY, 11203","Match","Exact","1379 TROY AVE, BROOKLYN, NY, 11203",59082086,"L"
162428,"1379 VALMONT STREET","MANDEVILLE","LA",70448,30.360238048,-90.049733924,428,"1379 VALMONT STREET, MANDEVILLE, LA, 70448","Match","Exact","1379 VALMONT ST, MANDEVILLE, LA, 70448",111279886,"R"
162429,"1379 W GREENLEAF AVE","CHICAGO","IL",60626,42.0103477490001,-87.665347492,429,"1379 W GREENLEAF AVE, CHICAGO, IL, 60626","Match","Exact","1379 W GREENLEAF AVE, CHICAGO, IL, 60626",611132209,"L"
162430,"1379 WATERSON DRIVE","EVANS","GA",30809,NA,NA,430,"1379 WATERSON DRIVE, EVANS, GA, 30809","No_Match",NA,NA,NA,NA
162431,"1379 WEST ENFIELD WAY","CHANDLER","AZ",93720,33.281097204,-111.865418355,431,"1379 WEST ENFIELD WAY, CHANDLER, AZ, 93720","Match","Non_Exact","1379 W ENFIELD WAY, CHANDLER, AZ, 85286",128794252,"R"
162432,"1379 WICHITA DRIVE","ATLANTA","GA",30311,33.7182897550001,-84.442118915,432,"1379 WICHITA DRIVE, ATLANTA, GA, 30311","Match","Non_Exact","1379 WICHITA DR SW, ATLANTA, GA, 30311",17341197,"R"
162433,"1379 WINDFALL HILL ROAD","ATHENS","WI",54411,NA,NA,433,"1379 WINDFALL HILL ROAD, ATHENS, WI, 54411","No_Match",NA,NA,NA,NA
162434,"13790 BIRMINGHAM HIGHWAY","MILTON","GA",30004,34.116971924,-84.340043819,434,"13790 BIRMINGHAM HIGHWAY, MILTON, GA, 30004","Match","Exact","13790 BIRMINGHAM HWY, MILTON, GA, 30004",625119693,"L"
162435,"13790 BIRMINGHAM HWY","MILTON","GA",30004,34.116971924,-84.340043819,435,"13790 BIRMINGHAM HWY, MILTON, GA, 30004","Match","Exact","13790 BIRMINGHAM HWY, MILTON, GA, 30004",625119693,"L"
162436,"13790 NOB AVENUE","DEL MAR","CA",92014,32.94832281,-117.25967001,436,"13790 NOB AVENUE, DEL MAR, CA, 92014","Match","Exact","13790 NOB AVE, DEL MAR, CA, 92014",612855190,"L"
162437,"13790 SE HAMPSHIRE CT","HAPPY VALLEY","OR",97086,45.427469171,-122.521613936,437,"13790 SE HAMPSHIRE CT, HAPPY VALLEY, OR, 97086","Match","Exact","13790 SE HAMPSHIRE CT, HAPPY VALLEY, OR, 97086",157993083,"L"
162438,"13790 SEVILLE AVE","FONTANA","CA",92337,34.1014475750001,-117.505427925,438,"13790 SEVILLE AVE, FONTANA, CA, 92337","Match","Non_Exact","13790 SEVILLE AVE, FONTANA, CA, 92335",145219496,"L"
162439,"13790 TREELINE AVE","FORT MYERS","FL",33913,NA,NA,439,"13790 TREELINE AVE, FORT MYERS, FL, 33913","No_Match",NA,NA,NA,NA
162440,"13791 BARNEY CIR","GARDEN GROVE","CA",92843,33.762650836,-117.94277468,440,"13791 BARNEY CIR, GARDEN GROVE, CA, 92843","Match","Exact","13791 BARNEY CIR, GARDEN GROVE, CA, 92843",144035955,"R"
162441,"13791 EAST RICE PLACE SUITE 103","AURORA","CO",80015,39.6362786180001,-104.827752537,441,"13791 EAST RICE PLACE SUITE 103, AURORA, CO, 80015","Match","Exact","13791 E RICE PL, AURORA, CO, 80015",636746932,"L"
162442,"13791 ROSWELL AVENUE SUITE C","CHINO","CA",91709,34.002596897,-117.721759138,442,"13791 ROSWELL AVENUE SUITE C, CHINO, CA, 91709","Match","Non_Exact","13791 ROSWELL AVE, CHINO, CA, 91710",144983079,"L"
162443,"13792 REIMER DRIVE N","MAPLE GROVE","MN",55311,45.098558661,-93.455457683,443,"13792 REIMER DRIVE N, MAPLE GROVE, MN, 55311","Match","Exact","13792 REIMER DR N, MAPLE GROVE, MN, 55311",43815393,"L"
162444,"13792 SW 104TH ST","DUNNELLON","FL",34432,29.071696285,-82.349559832,444,"13792 SW 104TH ST, DUNNELLON, FL, 34432","Match","Exact","13792 SW 104TH ST, DUNNELLON, FL, 34432",116717032,"L"
162445,"13793 89TH PLACE N","MAPLE GROVE","MN",55369,45.118030634,-93.453435338,445,"13793 89TH PLACE N, MAPLE GROVE, MN, 55369","Match","Exact","13793 89TH PL N, MAPLE GROVE, MN, 55369",43815099,"L"
162446,"13793 ST RT 38","MARYSVILLE","OH",43040,40.198912798,-83.378319257,446,"13793 ST RT 38, MARYSVILLE, OH, 43040","Match","Non_Exact","13793 STATE RTE 38, MARYSVILLE, OH, 43040",652484809,"L"
162447,"13794 ARROW BLVD","FONTANA","CA",92335,34.099183924,-117.504148793,447,"13794 ARROW BLVD, FONTANA, CA, 92335","Match","Exact","13794 ARROW BLVD, FONTANA, CA, 92335",144640569,"L"
162448,"13794 AVENUE 352","VISALIA","CA",93292,36.4285912240001,-119.263602595,448,"13794 AVENUE 352, VISALIA, CA, 93292","Match","Exact","13794 AVE 352, VISALIA, CA, 93292",202760104,"L"
162449,"13794 COUNTY RD 109 D-3","LADY LAKE","FL",32159,NA,NA,449,"13794 COUNTY RD 109 D-3, LADY LAKE, FL, 32159","No_Match",NA,NA,NA,NA
162450,"13795 HUNTERWOOD ROAD","JACKSONVILLE","FL",32225,30.3641125500001,-81.4821803,450,"13795 HUNTERWOOD ROAD, JACKSONVILLE, FL, 32225","Match","Exact","13795 HUNTERWOOD RD, JACKSONVILLE, FL, 32225",83906096,"L"
162451,"13795 TULARE CT","FONTANA","CA",92336,34.1102263500001,-117.500971509,451,"13795 TULARE CT, FONTANA, CA, 92336","Match","Exact","13795 TULARE CT, FONTANA, CA, 92336",144708569,"R"
162452,"13795 TULARE","FONTANA","CA",92336,34.1102263500001,-117.500971509,452,"13795 TULARE, FONTANA, CA, 92336","Match","Non_Exact","13795 TULARE CT, FONTANA, CA, 92336",144708569,"R"
162453,"13795 W WILBLUR DR","NEW BERLIN","WI",53151,NA,NA,453,"13795 W WILBLUR DR, NEW BERLIN, WI, 53151","No_Match",NA,NA,NA,NA
162454,"13795 WEST STRATFORD DRIVE","NEW BERLIN","WI",53151,42.967996477,-88.0860737629999,454,"13795 WEST STRATFORD DRIVE, NEW BERLIN, WI, 53151","Match","Exact","13795 W STRATFORD DR, NEW BERLIN, WI, 53151",53846073,"L"
162455,"13796 BRIDGEWATER CROSSINGSBLVD 208","WINDERMERE","FL",34786,NA,NA,455,"13796 BRIDGEWATER CROSSINGSBLVD 208, WINDERMERE, FL, 34786","No_Match",NA,NA,NA,NA
162456,"13796 HOLLY ST NW","ANDOVER","MN",55304,45.222200575,-93.2755778229999,456,"13796 HOLLY ST NW, ANDOVER, MN, 55304","Match","Non_Exact","13796 HOLLY ST, ANDOVER, MN, 55304",97503241,"L"
162457,"13796 LOWE STREET","CHANTILLY","VA",20151,NA,NA,457,"13796 LOWE STREET, CHANTILLY, VA, 20151","No_Match",NA,NA,NA,NA
162458,"13796 MARCHANT AVENUE","LOS ANGELES","CA",91342,34.322430018,-118.411468311,458,"13796 MARCHANT AVENUE, LOS ANGELES, CA, 91342","Match","Non_Exact","13796 MARCHANT AVE, KAGEL CANYON, CA, 91342",141546493,"R"
162459,"13796 SAND CRANE DR","PALM BEACH GARDENS","FL",33418,26.879980937,-80.138810797,459,"13796 SAND CRANE DR, PALM BEACH GARDENS, FL, 33418","Match","Exact","13796 SAND CRANE DR, PALM BEACH GARDENS, FL, 33418",115580514,"R"
162460,"13797 CEDA ROAD","SOUTH EUCLID","OH",44118,NA,NA,460,"13797 CEDA ROAD, SOUTH EUCLID, OH, 44118","No_Match",NA,NA,NA,NA
162461,"13798 LAZY CREEK ROAD","COLORADO SPRINGS","CO",80921,39.0308452730001,-104.787582283,461,"13798 LAZY CREEK ROAD, COLORADO SPRINGS, CO, 80921","Match","Exact","13798 LAZY CREEK RD, COLORADO SPRINGS, CO, 80921",610683603,"L"
162462,"13799 150TH STREET","PARK RAPIDS","MN",56470,46.877784983,-95.082524485,462,"13799 150TH STREET, PARK RAPIDS, MN, 56470","Match","Exact","13799 150TH ST, PARK RAPIDS, MN, 56470",635769548,"R"
162463,"13799 PARK BLVD UNIT 232","SEMINOLE","FL",33776,27.8437978320001,-82.830082362,463,"13799 PARK BLVD UNIT 232, SEMINOLE, FL, 33776","Match","Exact","13799 PARK BLVD, SEMINOLE, FL, 33776",124689972,"R"
162464,"13799 SABLESPRINGS LANE","HOUSTON","TX",77014,29.978055302,-95.482647313,464,"13799 SABLESPRINGS LANE, HOUSTON, TX, 77014","Match","Exact","13799 SABLESPRINGS LN, HOUSTON, TX, 77014",96226129,"L"
162465,"137A BATES ST NW","WASHINGTON","DC",20001,38.910388819,-77.0128675619999,465,"137A BATES ST NW, WASHINGTON, DC, 20001","Match","Exact","137 BATES ST NW, WASHINGTON, DC, 20001",76226496,"R"
162466,"137A HIGH ST","MONTCLAIR","NJ",7042,NA,NA,466,"137A HIGH ST, MONTCLAIR, NJ, 7042","No_Match",NA,NA,NA,NA
162467,"137A HOPKINS ST","BROOKLYN","NY",11206,40.6995104100001,-73.945975214,467,"137A HOPKINS ST, BROOKLYN, NY, 11206","Match","Exact","137 HOPKINS ST, BROOKLYN, NY, 11206",647354487,"L"
162468,"137A KAIOLENA DRIVE","KAILUA","HI",96734,21.390754228,-157.716134558,468,"137A KAIOLENA DRIVE, KAILUA, HI, 96734","Match","Exact","137 KAIOLENA DR, KAILUA, HI, 96734",203240652,"L"
162469,"137B TWIN HILL ROAD","AUSTELL","GA",30168,33.7720727670001,-84.560676121,469,"137B TWIN HILL ROAD, AUSTELL, GA, 30168","Match","Exact","137 TWIN HILL RD, AUSTELL, GA, 30168",17185025,"L"
162470,"137E 4800 S","MURRAY","UT",84107,NA,NA,470,"137E 4800 S, MURRAY, UT, 84107","Tie",NA,NA,NA,NA
162471,"137W 128TH STREET APT 2B","NEW YORK","NY",10027,40.810168913,-73.945204046,471,"137W 128TH STREET APT 2B, NEW YORK, NY, 10027","Match","Non_Exact","137 W 128TH ST, NEW YORK, NY, 10027",59656187,"R"
162472,"138 1/2 W 1ST ST","SALIDA","CO",81201,38.5365578620001,-105.992207058,472,"138 1/2 W 1ST ST, SALIDA, CO, 81201","Match","Exact","138 W 1ST ST, SALIDA, CO, 81201",108244503,"R"
162473,"138 16TH STREET","DEER PARK","NY",11729,40.7529342030001,-73.341328792,473,"138 16TH STREET, DEER PARK, NY, 11729","Match","Non_Exact","138 W 16TH ST, DEER PARK, NY, 11729",113976021,"R"
162474,"138 26TH ST SE","MASSILLON","OH",44646,40.79626775,-81.486021734,474,"138 26TH ST SE, MASSILLON, OH, 44646","Match","Exact","138 26TH ST SE, MASSILLON, OH, 44646",64673289,"L"
162475,"138 2ND AVENUE","HASTINGS","PA",16646,40.6643717090001,-78.7161225039999,475,"138 2ND AVENUE, HASTINGS, PA, 16646","Match","Exact","138 2ND AVE, HASTINGS, PA, 16646",50257354,"R"
162476,"138 38 STREET SOUTH","SAINT PETERSBURG","FL",33711,27.7693373340001,-82.685089015,476,"138 38 STREET SOUTH, SAINT PETERSBURG, FL, 33711","Match","Exact","138 38TH ST S, SAINT PETERSBURG, FL, 33711",124705372,"L"
162477,"138 4TH STREET","MONROE","GA",30655,33.7825053400001,-83.711358966,477,"138 4TH STREET, MONROE, GA, 30655","Match","Exact","138 4TH ST, MONROE, GA, 30655",77628772,"R"
162478,"138 5TH","DAVID CITY","NE",68632,NA,NA,478,"138 5TH, DAVID CITY, NE, 68632","No_Match",NA,NA,NA,NA
162479,"138 79TH STREET","NIAGARA FALLS","NY",14304,43.074928082,-78.9735873879999,479,"138 79TH STREET, NIAGARA FALLS, NY, 14304","Match","Exact","138 79TH ST, NIAGARA FALLS, NY, 14304",48687692,"L"
162480,"138 7TH AVENUE NORTH","FORT DODGE","IA",50501,42.5109973570001,-94.1999118209999,480,"138 7TH AVENUE NORTH, FORT DODGE, IA, 50501","Match","Exact","138 7TH AVE N, FORT DODGE, IA, 50501",66085621,"L"
162481,"138 ADRIAN AVENUE","SOUTH SAN FRANCISCO","CA",94080,37.662087808,-122.4597456,481,"138 ADRIAN AVENUE, SOUTH SAN FRANCISCO, CA, 94080","Match","Exact","138 ADRIAN AVE, S SAN FRAN, CA, 94080",192371140,"R"
162482,"138 AHRENS","BRENHAM","TX",77833,30.153685737,-96.378262798,482,"138 AHRENS, BRENHAM, TX, 77833","Match","Non_Exact","138 AHRENS AVE, BRENHAM, TX, 77833",631666967,"R"
162483,"138 ALMYRA ROAD","EL CAJON","CA",92019,32.8210886750001,-116.830041495,483,"138 ALMYRA ROAD, EL CAJON, CA, 92019","Match","Exact","138 ALMYRA RD, EL CAJON, CA, 92019",195335140,"L"
162484,"138 AMELIE AVE","NEPTUNE CITY","NJ",7753,NA,NA,484,"138 AMELIE AVE, NEPTUNE CITY, NJ, 7753","No_Match",NA,NA,NA,NA
162485,"138 ANN MARY BROWN DR","WARWICK","RI",2888,41.74882538,-71.392615585,485,"138 ANN MARY BROWN DR, WARWICK, RI, 2888","Match","Exact","138 ANN MARY BROWN DR, WARWICK, RI, 02888",159155827,"L"
162486,"138 APOLLO CIRCLE","ARCHDALE","NC",27263,35.916384372,-79.953725979,486,"138 APOLLO CIRCLE, ARCHDALE, NC, 27263","Match","Exact","138 APOLLO CIR, ARCHDALE, NC, 27263",20426755,"R"
162487,"138 APPLE LANE","SPRINGDALE","UT",84767,37.1781732530001,-113.008533294,487,"138 APPLE LANE, SPRINGDALE, UT, 84767","Match","Exact","138 APPLE LN, SPRINGDALE, UT, 84767",627748573,"R"
162488,"138 ASHEWICKE DRIVE","COLUMBIA","SC",29229,34.1743077020001,-80.8990288479999,488,"138 ASHEWICKE DRIVE, COLUMBIA, SC, 29229","Match","Exact","138 ASHEWICKE DR, COLUMBIA, SC, 29229",641027109,"L"
162489,"138 AUTUMN LEAF DRIVE","ALBANY","GA",31763,31.6307051540001,-84.109600422,489,"138 AUTUMN LEAF DRIVE, ALBANY, GA, 31763","Match","Non_Exact","138 AUTUMN LEAF DR, ALBANY, GA, 31701",630325073,"R"
162490,"138 AVENIDA ARAGON","SAN CLEMENTE","CA",92672,33.4305112590001,-117.623129532,490,"138 AVENIDA ARAGON, SAN CLEMENTE, CA, 92672","Match","Exact","138 AVE ARAGON, SAN CLEMENTE, CA, 92672",144075897,"R"
162491,"138 BACK ST","MILLERTON","PA",16936,41.9860022020001,-76.937457389,491,"138 BACK ST, MILLERTON, PA, 16936","Match","Exact","138 BACK ST, MILLERTON, PA, 16936",189666056,"R"
162492,"138 BALDOVINO SKYWAY","LAKEWAY","TX",78738,NA,NA,492,"138 BALDOVINO SKYWAY, LAKEWAY, TX, 78738","No_Match",NA,NA,NA,NA
162493,"138 BALDWIN ST","Johnson City","NY",13790,42.111271421,-75.957645944,493,"138 BALDWIN ST, Johnson City, NY, 13790","Match","Exact","138 BALDWIN ST, JOHNSON CITY, NY, 13790",46340181,"R"
162494,"138 BALLARD DRIVE","MCMINNVILLE","TN",37110,35.660171102,-85.682915715,494,"138 BALLARD DRIVE, MCMINNVILLE, TN, 37110","Match","Exact","138 BALLARD DR, MCMINNVILLE, TN, 37110",81353251,"R"
162495,"138 BAR HARBOR RD","PASADENA","MD",21122,39.1547383000001,-76.510858782,495,"138 BAR HARBOR RD, PASADENA, MD, 21122","Match","Exact","138 BAR HARBOR RD, PASADENA, MD, 21122",68166005,"R"
162496,"138 BARWOOD CIRCLE","GREENVILLE","SC",29611,34.8056950000001,-82.446342591,496,"138 BARWOOD CIRCLE, GREENVILLE, SC, 29611","Match","Exact","138 BARWOOD CIR, GREENVILLE, SC, 29611",38304128,"R"
162497,"138 BATEMAN AVE","CRANSTON","RI",2920,41.7331307150001,-71.4719327569999,497,"138 BATEMAN AVE, CRANSTON, RI, 2920","Match","Exact","138 BATEMAN AVE, CRANSTON, RI, 02920",651142488,"L"
162498,"138 BEACH 133RD STREET","BELLE HARBOR","NY",11694,40.5734653800001,-73.850495559,498,"138 BEACH 133RD STREET, BELLE HARBOR, NY, 11694","Match","Exact","138 BEACH 133RD ST, BELLE HARBOR, NY, 11694",59709561,"R"
162499,"138 BEACH STREET","BLANCHARD","PA",16826,41.066661636,-77.5969691069999,499,"138 BEACH STREET, BLANCHARD, PA, 16826","Match","Exact","138 BEACH ST, BLANCHARD, PA, 16826",50368626,"R"
162500,"138 BEADLE LAKE DRIVE","BATTLE CREEK","MI",49014,42.2817524770001,-85.149417789,500,"138 BEADLE LAKE DRIVE, BATTLE CREEK, MI, 49014","Match","Exact","138 BEADLE LAKE DR, BATTLE CREEK, MI, 49014",11716431,"R"
