"ID","Address","City","State","Zip","lat","long","id","input_address","match_indicator","match_type","matched_address","tiger_line_id","tiger_side"
982001,"PO BOX 29","HUMANSVILLE","MO",65674,NA,NA,1,"PO BOX 29, HUMANSVILLE, MO, 65674","No_Match",NA,NA,NA,NA
982002,"PO BOX 29","INDIANOLA","MS",38751,NA,NA,2,"PO BOX 29, INDIANOLA, MS, 38751","No_Match",NA,NA,NA,NA
982003,"PO BOX 29","ITTA BENA","MS",38941,NA,NA,3,"PO BOX 29, ITTA BENA, MS, 38941","No_Match",NA,NA,NA,NA
982004,"PO BOX 29","JUSTICE","WV",24851,NA,NA,4,"PO BOX 29, JUSTICE, WV, 24851","No_Match",NA,NA,NA,NA
982005,"PO BOX 29","LA CONNER","WA",98257,NA,NA,5,"PO BOX 29, LA CONNER, WA, 98257","No_Match",NA,NA,NA,NA
982006,"PO BOX 29","LOREAUVILLE","LA",70552,NA,NA,6,"PO BOX 29, LOREAUVILLE, LA, 70552","No_Match",NA,NA,NA,NA
982007,"PO BOX 29","LOUISE","TX",77455,NA,NA,7,"PO BOX 29, LOUISE, TX, 77455","No_Match",NA,NA,NA,NA
982008,"PO BOX 29","MCCAMEY","TX",79752,NA,NA,8,"PO BOX 29, MCCAMEY, TX, 79752","No_Match",NA,NA,NA,NA
982009,"PO BOX 29","PEACHAM","VT",5862,NA,NA,9,"PO BOX 29, PEACHAM, VT, 5862","No_Match",NA,NA,NA,NA
982010,"PO BOX 29","WEST JEFFERSON","NC",28694,NA,NA,10,"PO BOX 29, WEST JEFFERSON, NC, 28694","No_Match",NA,NA,NA,NA
982011,"PO BOX 290-315","BROOKLYN","NY",11229,NA,NA,11,"PO BOX 290-315, BROOKLYN, NY, 11229","No_Match",NA,NA,NA,NA
982012,"PO BOX 290","CLARION","PA",16214,NA,NA,12,"PO BOX 290, CLARION, PA, 16214","No_Match",NA,NA,NA,NA
982013,"PO BOX 290","DAYTON","OR",97114,NA,NA,13,"PO BOX 290, DAYTON, OR, 97114","No_Match",NA,NA,NA,NA
982014,"PO BOX 290","FAWNSKIN","CA",92333,NA,NA,14,"PO BOX 290, FAWNSKIN, CA, 92333","No_Match",NA,NA,NA,NA
982015,"PO BOX 290","MARION","LA",71260,NA,NA,15,"PO BOX 290, MARION, LA, 71260","No_Match",NA,NA,NA,NA
982016,"PO BOX 290","SILOAM SPRINGS","AR",72761,NA,NA,16,"PO BOX 290, SILOAM SPRINGS, AR, 72761","No_Match",NA,NA,NA,NA
982017,"PO BOX 290","THACKERVILLE","OK",73459,NA,NA,17,"PO BOX 290, THACKERVILLE, OK, 73459","No_Match",NA,NA,NA,NA
982018,"PO BOX 290","THOMASTON","GA",30286,NA,NA,18,"PO BOX 290, THOMASTON, GA, 30286","No_Match",NA,NA,NA,NA
982019,"PO BOX 2900","TAOS","NM",87571,NA,NA,19,"PO BOX 2900, TAOS, NM, 87571","No_Match",NA,NA,NA,NA
982020,"PO BOX 290082","KERRVILLE","TX",78029,NA,NA,20,"PO BOX 290082, KERRVILLE, TX, 78029","No_Match",NA,NA,NA,NA
982021,"PO BOX 290084","PHELAN","CA",92329,NA,NA,21,"PO BOX 290084, PHELAN, CA, 92329","No_Match",NA,NA,NA,NA
982022,"PO BOX 290193","DAVIE","FL",33329,NA,NA,22,"PO BOX 290193, DAVIE, FL, 33329","No_Match",NA,NA,NA,NA
982023,"PO BOX 2902","ATHENS","TX",75751,NA,NA,23,"PO BOX 2902, ATHENS, TX, 75751","No_Match",NA,NA,NA,NA
982024,"PO BOX 2902","ORANGEBURG","SC",29116,NA,NA,24,"PO BOX 2902, ORANGEBURG, SC, 29116","No_Match",NA,NA,NA,NA
982025,"PO BOX 29021","DALLAS","TX",75229,NA,NA,25,"PO BOX 29021, DALLAS, TX, 75229","No_Match",NA,NA,NA,NA
982026,"PO BOX 2903","HARKER HEIGHTS","TX",76548,NA,NA,26,"PO BOX 2903, HARKER HEIGHTS, TX, 76548","No_Match",NA,NA,NA,NA
982027,"PO BOX 2903","THOMASVILLE","GA",31792,NA,NA,27,"PO BOX 2903, THOMASVILLE, GA, 31792","No_Match",NA,NA,NA,NA
982028,"PO BOX 29033","SAINT LOUIS","MO",63112,NA,NA,28,"PO BOX 29033, SAINT LOUIS, MO, 63112","No_Match",NA,NA,NA,NA
982029,"PO BOX 290357","COLUMBIA","SC",29229,NA,NA,29,"PO BOX 290357, COLUMBIA, SC, 29229","No_Match",NA,NA,NA,NA
982030,"PO BOX 2904","GUERNEVILLE","CA",95462,NA,NA,30,"PO BOX 2904, GUERNEVILLE, CA, 95462","No_Match",NA,NA,NA,NA
982031,"PO BOX 2904","JOLIET","IL",60434,NA,NA,31,"PO BOX 2904, JOLIET, IL, 60434","No_Match",NA,NA,NA,NA
982032,"PO BOX 290430","KERRVILLE","TX",78029,NA,NA,32,"PO BOX 290430, KERRVILLE, TX, 78029","No_Match",NA,NA,NA,NA
982033,"PO BOX 290432","NASHVILLE","TN",37229,NA,NA,33,"PO BOX 290432, NASHVILLE, TN, 37229","No_Match",NA,NA,NA,NA
982034,"PO BOX 29046","WASHINGTON","DC",20017,NA,NA,34,"PO BOX 29046, WASHINGTON, DC, 20017","No_Match",NA,NA,NA,NA
982035,"PO BOX 29048 MSC 250","PHOENIX","AZ",85038,NA,NA,35,"PO BOX 29048 MSC 250, PHOENIX, AZ, 85038","No_Match",NA,NA,NA,NA
982036,"PO BOX 290490","CHARLESTOWN","MA",2129,NA,NA,36,"PO BOX 290490, CHARLESTOWN, MA, 2129","No_Match",NA,NA,NA,NA
982037,"PO BOX 2905","FRISCO","CO",80443,NA,NA,37,"PO BOX 2905, FRISCO, CO, 80443","No_Match",NA,NA,NA,NA
982038,"PO BOX 290525","CHARLESTOWN","MA",2129,NA,NA,38,"PO BOX 290525, CHARLESTOWN, MA, 2129","No_Match",NA,NA,NA,NA
982039,"PO BOX 2906","OLYMPIC VALLEY","CA",96146,NA,NA,39,"PO BOX 2906, OLYMPIC VALLEY, CA, 96146","No_Match",NA,NA,NA,NA
982040,"PO BOX 290688","KERRVILLE","TX",78029,NA,NA,40,"PO BOX 290688, KERRVILLE, TX, 78029","No_Match",NA,NA,NA,NA
982041,"PO BOX 29075","HENRICO","VA",23242,NA,NA,41,"PO BOX 29075, HENRICO, VA, 23242","No_Match",NA,NA,NA,NA
982042,"PO BOX 2908","BRUNSWICK","GA",31521,NA,NA,42,"PO BOX 2908, BRUNSWICK, GA, 31521","No_Match",NA,NA,NA,NA
982043,"PO BOX 290805","PHELAN","CA",92371,NA,NA,43,"PO BOX 290805, PHELAN, CA, 92371","No_Match",NA,NA,NA,NA
982044,"PO BOX 290896","PHELAN","CA",92329,NA,NA,44,"PO BOX 290896, PHELAN, CA, 92329","No_Match",NA,NA,NA,NA
982045,"PO BOX 291","BIG HORN","WY",82833,NA,NA,45,"PO BOX 291, BIG HORN, WY, 82833","No_Match",NA,NA,NA,NA
982046,"PO BOX 291","BYRON","MN",55920,NA,NA,46,"PO BOX 291, BYRON, MN, 55920","No_Match",NA,NA,NA,NA
982047,"PO BOX 291","CASHIERS","NC",28717,NA,NA,47,"PO BOX 291, CASHIERS, NC, 28717","No_Match",NA,NA,NA,NA
982048,"PO BOX 291","CELINA","TN",38551,NA,NA,48,"PO BOX 291, CELINA, TN, 38551","No_Match",NA,NA,NA,NA
982049,"PO BOX 291","CLEWISTON","FL",33440,NA,NA,49,"PO BOX 291, CLEWISTON, FL, 33440","No_Match",NA,NA,NA,NA
982050,"PO BOX 291","FLORENCE","MS",39073,NA,NA,50,"PO BOX 291, FLORENCE, MS, 39073","No_Match",NA,NA,NA,NA
982051,"PO BOX 291","GILMANTON","NH",3237,NA,NA,51,"PO BOX 291, GILMANTON, NH, 3237","No_Match",NA,NA,NA,NA
982052,"PO BOX 291","GREENLAND","NH",3840,NA,NA,52,"PO BOX 291, GREENLAND, NH, 3840","No_Match",NA,NA,NA,NA
982053,"PO BOX 291","LA POINTE","WI",54850,NA,NA,53,"PO BOX 291, LA POINTE, WI, 54850","No_Match",NA,NA,NA,NA
982054,"PO BOX 291","MALTA","IL",60150,NA,NA,54,"PO BOX 291, MALTA, IL, 60150","No_Match",NA,NA,NA,NA
982055,"PO BOX 291","NEW CANEY","TX",77357,NA,NA,55,"PO BOX 291, NEW CANEY, TX, 77357","No_Match",NA,NA,NA,NA
982056,"PO BOX 291","NEWCOMB","NY",12852,NA,NA,56,"PO BOX 291, NEWCOMB, NY, 12852","No_Match",NA,NA,NA,NA
982057,"PO BOX 291","NORTHFORK","WV",24868,NA,NA,57,"PO BOX 291, NORTHFORK, WV, 24868","No_Match",NA,NA,NA,NA
982058,"PO BOX 291","ORLEANS","IN",47452,NA,NA,58,"PO BOX 291, ORLEANS, IN, 47452","No_Match",NA,NA,NA,NA
982059,"PO BOX 291","PHILIPSBURG","MT",59858,NA,NA,59,"PO BOX 291, PHILIPSBURG, MT, 59858","No_Match",NA,NA,NA,NA
982060,"PO BOX 291","PROCTORVILLE","NC",28375,NA,NA,60,"PO BOX 291, PROCTORVILLE, NC, 28375","No_Match",NA,NA,NA,NA
982061,"PO BOX 291","REEDSVILLE","WV",26547,NA,NA,61,"PO BOX 291, REEDSVILLE, WV, 26547","No_Match",NA,NA,NA,NA
982062,"PO BOX 291","RUSSIAVILLE","IN",46979,NA,NA,62,"PO BOX 291, RUSSIAVILLE, IN, 46979","No_Match",NA,NA,NA,NA
982063,"PO BOX 291","WAKARUSA","IN",NA,NA,NA,63,"PO BOX 291, WAKARUSA, IN, ","No_Match",NA,NA,NA,NA
982064,"PO BOX 291","WOODY CREEK","CO",81656,NA,NA,64,"PO BOX 291, WOODY CREEK, CO, 81656","No_Match",NA,NA,NA,NA
982065,"PO BOX 291","YAMPA","CO",80483,NA,NA,65,"PO BOX 291, YAMPA, CO, 80483","No_Match",NA,NA,NA,NA
982066,"PO BOX 29105","DALLAS","TX",75229,NA,NA,66,"PO BOX 29105, DALLAS, TX, 75229","No_Match",NA,NA,NA,NA
982067,"PO BOX 2911","CINNAMINSON","NJ",8077,NA,NA,67,"PO BOX 2911, CINNAMINSON, NJ, 8077","No_Match",NA,NA,NA,NA
982068,"PO BOX 2911","NORCROSS","GA",30091,NA,NA,68,"PO BOX 2911, NORCROSS, GA, 30091","No_Match",NA,NA,NA,NA
982069,"PO BOX 2911","RENTON","WA",98056,NA,NA,69,"PO BOX 2911, RENTON, WA, 98056","No_Match",NA,NA,NA,NA
982070,"PO BOX 2911","WATFORD CITY","ND",58854,NA,NA,70,"PO BOX 2911, WATFORD CITY, ND, 58854","No_Match",NA,NA,NA,NA
982071,"PO BOX 291117","COLUMBIA","SC",29229,NA,NA,71,"PO BOX 291117, COLUMBIA, SC, 29229","No_Match",NA,NA,NA,NA
982072,"PO BOX 2912","BREMERTON","WA",98310,NA,NA,72,"PO BOX 2912, BREMERTON, WA, 98310","No_Match",NA,NA,NA,NA
982073,"PO BOX 2912","PALM SPRINGS","CA",92263,NA,NA,73,"PO BOX 2912, PALM SPRINGS, CA, 92263","No_Match",NA,NA,NA,NA
982074,"PO BOX 291243","COLUMBIA","SC",29229,NA,NA,74,"PO BOX 291243, COLUMBIA, SC, 29229","No_Match",NA,NA,NA,NA
982075,"PO BOX 2913","LONGVIEW","WA",98632,NA,NA,75,"PO BOX 2913, LONGVIEW, WA, 98632","No_Match",NA,NA,NA,NA
982076,"PO BOX 2914","CLARKSVILLE","TN",37042,NA,NA,76,"PO BOX 2914, CLARKSVILLE, TN, 37042","No_Match",NA,NA,NA,NA
982077,"PO BOX 291483","LOS ANGELES","CA",90029,NA,NA,77,"PO BOX 291483, LOS ANGELES, CA, 90029","No_Match",NA,NA,NA,NA
982078,"PO BOX 29151","INDIANAPOLIS","IN",46229,NA,NA,78,"PO BOX 29151, INDIANAPOLIS, IN, 46229","No_Match",NA,NA,NA,NA
982079,"PO BOX 29155","PARKVILLE","MO",64152,NA,NA,79,"PO BOX 29155, PARKVILLE, MO, 64152","No_Match",NA,NA,NA,NA
982080,"PO BOX 291552","PHELAN","CA",92329,NA,NA,80,"PO BOX 291552, PHELAN, CA, 92329","No_Match",NA,NA,NA,NA
982081,"PO BOX 29160","COLUMBUS","OH",43229,NA,NA,81,"PO BOX 29160, COLUMBUS, OH, 43229","No_Match",NA,NA,NA,NA
982082,"PO BOX 291724","PHELAN","CA",92329,NA,NA,82,"PO BOX 291724, PHELAN, CA, 92329","No_Match",NA,NA,NA,NA
982083,"PO BOX 2918","GILCHRIST","TX",77617,NA,NA,83,"PO BOX 2918, GILCHRIST, TX, 77617","No_Match",NA,NA,NA,NA
982084,"PO BOX 2918","MIDLAND","TX",79702,NA,NA,84,"PO BOX 2918, MIDLAND, TX, 79702","No_Match",NA,NA,NA,NA
982085,"PO BOX 291802","COLUMBIA","SC",29229,NA,NA,85,"PO BOX 291802, COLUMBIA, SC, 29229","No_Match",NA,NA,NA,NA
982086,"PO BOX 291823","KETTERING","OH",45429,NA,NA,86,"PO BOX 291823, KETTERING, OH, 45429","No_Match",NA,NA,NA,NA
982087,"PO BOX 291861","DAVIE","FL",33329,NA,NA,87,"PO BOX 291861, DAVIE, FL, 33329","No_Match",NA,NA,NA,NA
982088,"PO BOX 29188","INDIANAPOLIS","IN",46229,NA,NA,88,"PO BOX 29188, INDIANAPOLIS, IN, 46229","No_Match",NA,NA,NA,NA
982089,"PO BOX 291901","DAYTON","OH",45429,NA,NA,89,"PO BOX 291901, DAYTON, OH, 45429","No_Match",NA,NA,NA,NA
982090,"PO BOX 291916","COLUMBIA","SC",29229,NA,NA,90,"PO BOX 291916, COLUMBIA, SC, 29229","No_Match",NA,NA,NA,NA
982091,"PO BOX 291948","KERRVILLE","TX",78029,NA,NA,91,"PO BOX 291948, KERRVILLE, TX, 78029","No_Match",NA,NA,NA,NA
982092,"PO BOX 292","ASHFORD","WA",98304,NA,NA,92,"PO BOX 292, ASHFORD, WA, 98304","No_Match",NA,NA,NA,NA
982093,"PO BOX 292","AUBREY","TX",76227,NA,NA,93,"PO BOX 292, AUBREY, TX, 76227","No_Match",NA,NA,NA,NA
982094,"PO BOX 292","BUCKLEY","MI",49620,NA,NA,94,"PO BOX 292, BUCKLEY, MI, 49620","No_Match",NA,NA,NA,NA
982095,"PO BOX 292","BUENA","WA",98921,NA,NA,95,"PO BOX 292, BUENA, WA, 98921","No_Match",NA,NA,NA,NA
982096,"PO BOX 292","CALPELLA","CA",95418,NA,NA,96,"PO BOX 292, CALPELLA, CA, 95418","No_Match",NA,NA,NA,NA
982097,"PO BOX 292","DODD CITY","TX",75438,NA,NA,97,"PO BOX 292, DODD CITY, TX, 75438","No_Match",NA,NA,NA,NA
982098,"PO BOX 292","DUNCAN","AZ",85534,NA,NA,98,"PO BOX 292, DUNCAN, AZ, 85534","No_Match",NA,NA,NA,NA
982099,"PO BOX 292","FAIRFIELD","IA",52556,NA,NA,99,"PO BOX 292, FAIRFIELD, IA, 52556","No_Match",NA,NA,NA,NA
982100,"PO BOX 292","FARMINGTON HILLS","MI",48332,NA,NA,100,"PO BOX 292, FARMINGTON HILLS, MI, 48332","No_Match",NA,NA,NA,NA
982101,"PO BOX 292","GERMANTOWN","OH",45327,NA,NA,101,"PO BOX 292, GERMANTOWN, OH, 45327","No_Match",NA,NA,NA,NA
982102,"PO BOX 292","GOLDTHWAITE","TX",76844,NA,NA,102,"PO BOX 292, GOLDTHWAITE, TX, 76844","No_Match",NA,NA,NA,NA
982103,"PO BOX 292","HALSEY","OR",97348,NA,NA,103,"PO BOX 292, HALSEY, OR, 97348","No_Match",NA,NA,NA,NA
982104,"PO BOX 292","HANNIBAL","NY",13074,NA,NA,104,"PO BOX 292, HANNIBAL, NY, 13074","No_Match",NA,NA,NA,NA
982105,"PO BOX 292","ISLAND","KY",42350,NA,NA,105,"PO BOX 292, ISLAND, KY, 42350","No_Match",NA,NA,NA,NA
982106,"PO BOX 292","JACKSON","OH",45640,NA,NA,106,"PO BOX 292, JACKSON, OH, 45640","No_Match",NA,NA,NA,NA
982107,"PO BOX 292","JAL","NM",88252,NA,NA,107,"PO BOX 292, JAL, NM, 88252","No_Match",NA,NA,NA,NA
982108,"PO BOX 292","JEFFERSONVILLE","NY",12748,NA,NA,108,"PO BOX 292, JEFFERSONVILLE, NY, 12748","No_Match",NA,NA,NA,NA
982109,"PO BOX 292","LOVEJOY","GA",30250,NA,NA,109,"PO BOX 292, LOVEJOY, GA, 30250","No_Match",NA,NA,NA,NA
982110,"PO BOX 292","MAPLE FALLS","WA",98266,NA,NA,110,"PO BOX 292, MAPLE FALLS, WA, 98266","No_Match",NA,NA,NA,NA
982111,"PO BOX 292","MOUNTAIN CITY","GA",30562,NA,NA,111,"PO BOX 292, MOUNTAIN CITY, GA, 30562","No_Match",NA,NA,NA,NA
982112,"PO BOX 292","NATCHEZ","LA",71456,NA,NA,112,"PO BOX 292, NATCHEZ, LA, 71456","No_Match",NA,NA,NA,NA
982113,"PO BOX 292","NEW CONCORD","KY",42076,NA,NA,113,"PO BOX 292, NEW CONCORD, KY, 42076","No_Match",NA,NA,NA,NA
982114,"PO BOX 292","NOVATO","CA",94948,NA,NA,114,"PO BOX 292, NOVATO, CA, 94948","No_Match",NA,NA,NA,NA
982115,"PO BOX 292","RADIUM SPRINGS","NM",88054,NA,NA,115,"PO BOX 292, RADIUM SPRINGS, NM, 88054","No_Match",NA,NA,NA,NA
982116,"PO BOX 292","ROSE","OK",74364,NA,NA,116,"PO BOX 292, ROSE, OK, 74364","No_Match",NA,NA,NA,NA
982117,"PO BOX 292","SANGER","TX",76266,NA,NA,117,"PO BOX 292, SANGER, TX, 76266","No_Match",NA,NA,NA,NA
982118,"PO BOX 292","TERRY","MS",39170,NA,NA,118,"PO BOX 292, TERRY, MS, 39170","No_Match",NA,NA,NA,NA
982119,"PO BOX 292","TETONIA","ID",83452,NA,NA,119,"PO BOX 292, TETONIA, ID, 83452","No_Match",NA,NA,NA,NA
982120,"PO BOX 292","WILTON","AR",71865,NA,NA,120,"PO BOX 292, WILTON, AR, 71865","No_Match",NA,NA,NA,NA
982121,"PO BOX 2921","MORIARTY","NM",87035,NA,NA,121,"PO BOX 2921, MORIARTY, NM, 87035","No_Match",NA,NA,NA,NA
982122,"PO BOX 2921","WINTER PARK","CO",80482,NA,NA,122,"PO BOX 2921, WINTER PARK, CO, 80482","No_Match",NA,NA,NA,NA
982123,"PO BOX 29213","ATLANTA","GA",30359,NA,NA,123,"PO BOX 29213, ATLANTA, GA, 30359","No_Match",NA,NA,NA,NA
982124,"PO BOX 29213","HONOLULU","HI",96820,NA,NA,124,"PO BOX 29213, HONOLULU, HI, 96820","No_Match",NA,NA,NA,NA
982125,"PO BOX 292131","SACRAMENTO","CA",95829,NA,NA,125,"PO BOX 292131, SACRAMENTO, CA, 95829","No_Match",NA,NA,NA,NA
982126,"PO BOX 29224","INDIANAPOLIS","IN",46229,NA,NA,126,"PO BOX 29224, INDIANAPOLIS, IN, 46229","No_Match",NA,NA,NA,NA
982127,"PO BOX 292244","INDIANAPOLIS","IN",46229,NA,NA,127,"PO BOX 292244, INDIANAPOLIS, IN, 46229","No_Match",NA,NA,NA,NA
982128,"PO BOX 292246","DAVIE","FL",33328,NA,NA,128,"PO BOX 292246, DAVIE, FL, 33328","No_Match",NA,NA,NA,NA
982129,"PO BOX 292260","LOS ANGELES","CA",90029,NA,NA,129,"PO BOX 292260, LOS ANGELES, CA, 90029","No_Match",NA,NA,NA,NA
982130,"PO BOX 292282","LEWISVILLE","TX",75029,NA,NA,130,"PO BOX 292282, LEWISVILLE, TX, 75029","No_Match",NA,NA,NA,NA
982131,"PO BOX 2923","CAMARILLO","CA",93011,NA,NA,131,"PO BOX 2923, CAMARILLO, CA, 93011","No_Match",NA,NA,NA,NA
982132,"PO BOX 292314","LOS ANGELES","CA",90029,NA,NA,132,"PO BOX 292314, LOS ANGELES, CA, 90029","No_Match",NA,NA,NA,NA
982133,"PO BOX 2924","CEDAR CITY","UT",84721,NA,NA,133,"PO BOX 2924, CEDAR CITY, UT, 84721","No_Match",NA,NA,NA,NA
982134,"PO BOX 29253","HENRICO","VA",23242,NA,NA,134,"PO BOX 29253, HENRICO, VA, 23242","No_Match",NA,NA,NA,NA
982135,"PO BOX 29255","KANSAS CITY","MO",64152,NA,NA,135,"PO BOX 29255, KANSAS CITY, MO, 64152","No_Match",NA,NA,NA,NA
982136,"PO BOX 2926","BOONE","NC",28607,NA,NA,136,"PO BOX 2926, BOONE, NC, 28607","No_Match",NA,NA,NA,NA
982137,"PO BOX 292603","KETTERING","OH",45429,NA,NA,137,"PO BOX 292603, KETTERING, OH, 45429","No_Match",NA,NA,NA,NA
982138,"PO BOX 292645","PHELAN","CA",92329,NA,NA,138,"PO BOX 292645, PHELAN, CA, 92329","No_Match",NA,NA,NA,NA
982139,"PO BOX 292685","PHELAN","CA",92329,NA,NA,139,"PO BOX 292685, PHELAN, CA, 92329","No_Match",NA,NA,NA,NA
982140,"PO BOX 2927","AUGUSTA","GA",30904,NA,NA,140,"PO BOX 2927, AUGUSTA, GA, 30904","No_Match",NA,NA,NA,NA
982141,"PO BOX 2927","GLEN ROSE","TX",76043,NA,NA,141,"PO BOX 2927, GLEN ROSE, TX, 76043","No_Match",NA,NA,NA,NA
982142,"PO BOX 2927","HARLINGEN","TX",78551,NA,NA,142,"PO BOX 2927, HARLINGEN, TX, 78551","No_Match",NA,NA,NA,NA
982143,"PO BOX 292715","PHELAN","CA",92329,NA,NA,143,"PO BOX 292715, PHELAN, CA, 92329","No_Match",NA,NA,NA,NA
982144,"PO BOX 292722","TAMPA","FL",33687,NA,NA,144,"PO BOX 292722, TAMPA, FL, 33687","No_Match",NA,NA,NA,NA
982145,"PO BOX 29274","SHREVEPORT","LA",71149,NA,NA,145,"PO BOX 29274, SHREVEPORT, LA, 71149","No_Match",NA,NA,NA,NA
982146,"PO BOX 2928","EDWARDS","CO",81632,NA,NA,146,"PO BOX 2928, EDWARDS, CO, 81632","No_Match",NA,NA,NA,NA
982147,"PO BOX 292800","EL PASO","TX",79929,NA,NA,147,"PO BOX 292800, EL PASO, TX, 79929","No_Match",NA,NA,NA,NA
982148,"PO BOX 292800","EL PASO","TX",79936,NA,NA,148,"PO BOX 292800, EL PASO, TX, 79936","No_Match",NA,NA,NA,NA
982149,"PO BOX 292815","PHELAN","CA",92329,NA,NA,149,"PO BOX 292815, PHELAN, CA, 92329","No_Match",NA,NA,NA,NA
982150,"PO BOX 2929","GILCHRIST","TX",77617,NA,NA,150,"PO BOX 2929, GILCHRIST, TX, 77617","No_Match",NA,NA,NA,NA
982151,"PO BOX 293","BOUND BROOK","NJ",8805,NA,NA,151,"PO BOX 293, BOUND BROOK, NJ, 8805","No_Match",NA,NA,NA,NA
982152,"PO BOX 293","CHRISTMAS","FL",34787,NA,NA,152,"PO BOX 293, CHRISTMAS, FL, 34787","No_Match",NA,NA,NA,NA
982153,"PO BOX 293","COLTON","NY",13625,NA,NA,153,"PO BOX 293, COLTON, NY, 13625","No_Match",NA,NA,NA,NA
982154,"PO BOX 293","COSBY","TN",37722,NA,NA,154,"PO BOX 293, COSBY, TN, 37722","No_Match",NA,NA,NA,NA
982155,"PO BOX 293","DAYTON","WY",82836,NA,NA,155,"PO BOX 293, DAYTON, WY, 82836","No_Match",NA,NA,NA,NA
982156,"PO BOX 293","EUREKA","UT",84628,NA,NA,156,"PO BOX 293, EUREKA, UT, 84628","No_Match",NA,NA,NA,NA
982157,"PO BOX 293","HAWAII NATIONAL PARK","HI",96718,NA,NA,157,"PO BOX 293, HAWAII NATIONAL PARK, HI, 96718","No_Match",NA,NA,NA,NA
982158,"PO BOX 293","JAFFREY","NH",3452,NA,NA,158,"PO BOX 293, JAFFREY, NH, 3452","No_Match",NA,NA,NA,NA
982159,"PO BOX 293","KENO","OR",97627,NA,NA,159,"PO BOX 293, KENO, OR, 97627","No_Match",NA,NA,NA,NA
982160,"PO BOX 293","LAKEVIEW","OR",97630,NA,NA,160,"PO BOX 293, LAKEVIEW, OR, 97630","No_Match",NA,NA,NA,NA
982161,"PO BOX 293","LEWIS CENTER","OH",43035,NA,NA,161,"PO BOX 293, LEWIS CENTER, OH, 43035","No_Match",NA,NA,NA,NA
982162,"PO BOX 293","LIBERTY","ME",4949,NA,NA,162,"PO BOX 293, LIBERTY, ME, 4949","No_Match",NA,NA,NA,NA
982163,"PO BOX 293","MARBLE CITY","OK",74945,NA,NA,163,"PO BOX 293, MARBLE CITY, OK, 74945","No_Match",NA,NA,NA,NA
982164,"PO BOX 293","MIDVALE","OH",44653,NA,NA,164,"PO BOX 293, MIDVALE, OH, 44653","No_Match",NA,NA,NA,NA
982165,"PO BOX 293","MILLWOOD","VA",22646,NA,NA,165,"PO BOX 293, MILLWOOD, VA, 22646","No_Match",NA,NA,NA,NA
982166,"PO BOX 293","MOUNT VERNON","MO",65712,NA,NA,166,"PO BOX 293, MOUNT VERNON, MO, 65712","No_Match",NA,NA,NA,NA
982167,"PO BOX 293","NAPAVINE","WA",98565,NA,NA,167,"PO BOX 293, NAPAVINE, WA, 98565","No_Match",NA,NA,NA,NA
982168,"PO BOX 293","NUEVO","CA",92567,NA,NA,168,"PO BOX 293, NUEVO, CA, 92567","No_Match",NA,NA,NA,NA
982169,"PO BOX 293","OAKLEY","UT",84055,NA,NA,169,"PO BOX 293, OAKLEY, UT, 84055","No_Match",NA,NA,NA,NA
982170,"PO BOX 293","OURAY","CO",81427,NA,NA,170,"PO BOX 293, OURAY, CO, 81427","No_Match",NA,NA,NA,NA
982171,"PO BOX 293","PORT LEYDEN","NY",13433,NA,NA,171,"PO BOX 293, PORT LEYDEN, NY, 13433","No_Match",NA,NA,NA,NA
982172,"PO BOX 293","RAPID CITY","MI",49676,NA,NA,172,"PO BOX 293, RAPID CITY, MI, 49676","No_Match",NA,NA,NA,NA
982173,"PO BOX 293","RATON","NM",87740,NA,NA,173,"PO BOX 293, RATON, NM, 87740","No_Match",NA,NA,NA,NA
982174,"PO BOX 293","RAVENA","NY",12143,NA,NA,174,"PO BOX 293, RAVENA, NY, 12143","No_Match",NA,NA,NA,NA
982175,"PO BOX 293","RUSSELL SPRINGS","KY",42642,NA,NA,175,"PO BOX 293, RUSSELL SPRINGS, KY, 42642","No_Match",NA,NA,NA,NA
982176,"PO BOX 293","SAND LAKE","NY",12153,NA,NA,176,"PO BOX 293, SAND LAKE, NY, 12153","No_Match",NA,NA,NA,NA
982177,"PO BOX 293","SOCORRO","NM",87801,NA,NA,177,"PO BOX 293, SOCORRO, NM, 87801","No_Match",NA,NA,NA,NA
982178,"PO BOX 293","SUNDANCE","WY",82729,NA,NA,178,"PO BOX 293, SUNDANCE, WY, 82729","No_Match",NA,NA,NA,NA
982179,"PO BOX 293","VESTAL","NY",13851,NA,NA,179,"PO BOX 293, VESTAL, NY, 13851","No_Match",NA,NA,NA,NA
982180,"PO BOX 293022","NASHVILLE","TN",37229,NA,NA,180,"PO BOX 293022, NASHVILLE, TN, 37229","No_Match",NA,NA,NA,NA
982181,"PO BOX 293084",NA,"CA",95758,NA,NA,181,"PO BOX 293084, , CA, 95758","No_Match",NA,NA,NA,NA
982182,"PO BOX 293084","SACRAMENTO","CA",95829,NA,NA,182,"PO BOX 293084, SACRAMENTO, CA, 95829","No_Match",NA,NA,NA,NA
982183,"PO BOX 2931","LOUISVILLE","KY",40201,NA,NA,183,"PO BOX 2931, LOUISVILLE, KY, 40201","No_Match",NA,NA,NA,NA
982184,"PO BOX 2931","SOMERTON","AZ",85350,NA,NA,184,"PO BOX 2931, SOMERTON, AZ, 85350","No_Match",NA,NA,NA,NA
982185,"PO BOX 2931","WAILUKU","HI",96793,NA,NA,185,"PO BOX 2931, WAILUKU, HI, 96793","No_Match",NA,NA,NA,NA
982186,"PO BOX 293161","NASHVILLE","TN",37229,NA,NA,186,"PO BOX 293161, NASHVILLE, TN, 37229","No_Match",NA,NA,NA,NA
982187,"PO BOX 293263","LEWISVILLE","TX",75029,NA,NA,187,"PO BOX 293263, LEWISVILLE, TX, 75029","No_Match",NA,NA,NA,NA
982188,"PO BOX 2934","CHESTER","VA",23831,NA,NA,188,"PO BOX 2934, CHESTER, VA, 23831","No_Match",NA,NA,NA,NA
982189,"PO BOX 293406","PHELAN","CA",92329,NA,NA,189,"PO BOX 293406, PHELAN, CA, 92329","No_Match",NA,NA,NA,NA
982190,"PO BOX 29343","COLUMBUS","OH",43229,NA,NA,190,"PO BOX 29343, COLUMBUS, OH, 43229","No_Match",NA,NA,NA,NA
982191,"PO BOX 29351","HENRICO","VA",23242,NA,NA,191,"PO BOX 29351, HENRICO, VA, 23242","No_Match",NA,NA,NA,NA
982192,"PO BOX 29351","LAUGHLIN","NV",89028,NA,NA,192,"PO BOX 29351, LAUGHLIN, NV, 89028","No_Match",NA,NA,NA,NA
982193,"PO BOX 2936","BENTONVILLE","AR",72712,NA,NA,193,"PO BOX 2936, BENTONVILLE, AR, 72712","No_Match",NA,NA,NA,NA
982194,"PO BOX 2936","CARMICHAEL","CA",95609,NA,NA,194,"PO BOX 2936, CARMICHAEL, CA, 95609","No_Match",NA,NA,NA,NA
982195,"PO BOX 293674","SACRAMENTO","CA",95828,NA,NA,195,"PO BOX 293674, SACRAMENTO, CA, 95828","No_Match",NA,NA,NA,NA
982196,"PO BOX 293707","PHELAN","CA",92329,NA,NA,196,"PO BOX 293707, PHELAN, CA, 92329","No_Match",NA,NA,NA,NA
982197,"PO BOX 2938","DENVER","CO",80201,NA,NA,197,"PO BOX 2938, DENVER, CO, 80201","No_Match",NA,NA,NA,NA
982198,"PO BOX 294         22671 S LOOKAWAY","YARNELL","AZ",85362,NA,NA,198,"PO BOX 294         22671 S LOOKAWAY, YARNELL, AZ, 85362","No_Match",NA,NA,NA,NA
982199,"PO BOX 294","ADIN","CA",96006,NA,NA,199,"PO BOX 294, ADIN, CA, 96006","No_Match",NA,NA,NA,NA
982200,"PO BOX 294","BARABOO","WI",53913,NA,NA,200,"PO BOX 294, BARABOO, WI, 53913","No_Match",NA,NA,NA,NA
982201,"PO BOX 294","CARMICHAELS","PA",15320,NA,NA,201,"PO BOX 294, CARMICHAELS, PA, 15320","No_Match",NA,NA,NA,NA
982202,"PO BOX 294","CENTRAL BRIDGE","NY",12035,NA,NA,202,"PO BOX 294, CENTRAL BRIDGE, NY, 12035","No_Match",NA,NA,NA,NA
982203,"PO BOX 294","CLEARWATER","NE",68726,NA,NA,203,"PO BOX 294, CLEARWATER, NE, 68726","No_Match",NA,NA,NA,NA
982204,"PO BOX 294","COOLIDGE","AZ",85128,NA,NA,204,"PO BOX 294, COOLIDGE, AZ, 85128","No_Match",NA,NA,NA,NA
982205,"PO BOX 294","FAIR HAVEN","VT",5743,NA,NA,205,"PO BOX 294, FAIR HAVEN, VT, 5743","No_Match",NA,NA,NA,NA
982206,"PO BOX 294","FAIRLAND","OK",74343,NA,NA,206,"PO BOX 294, FAIRLAND, OK, 74343","No_Match",NA,NA,NA,NA
982207,"PO BOX 294","FLORENCE","MT",59833,NA,NA,207,"PO BOX 294, FLORENCE, MT, 59833","No_Match",NA,NA,NA,NA
982208,"PO BOX 294","FRANKLIN SQUARE","NY",11010,NA,NA,208,"PO BOX 294, FRANKLIN SQUARE, NY, 11010","No_Match",NA,NA,NA,NA
982209,"PO BOX 294","GAITHERSBURG","MD",20884,NA,NA,209,"PO BOX 294, GAITHERSBURG, MD, 20884","No_Match",NA,NA,NA,NA
982210,"PO BOX 294","HARDWICK","GA",31034,NA,NA,210,"PO BOX 294, HARDWICK, GA, 31034","No_Match",NA,NA,NA,NA
982211,"PO BOX 294","KAHUKU","HI",96731,NA,NA,211,"PO BOX 294, KAHUKU, HI, 96731","No_Match",NA,NA,NA,NA
982212,"PO BOX 294","KNIFE RIVER","MN",55609,NA,NA,212,"PO BOX 294, KNIFE RIVER, MN, 55609","No_Match",NA,NA,NA,NA
982213,"PO BOX 294","LIBERTY LAKE","WA",99019,NA,NA,213,"PO BOX 294, LIBERTY LAKE, WA, 99019","No_Match",NA,NA,NA,NA
982214,"PO BOX 294","MARION","IN",46952,NA,NA,214,"PO BOX 294, MARION, IN, 46952","No_Match",NA,NA,NA,NA
982215,"PO BOX 294","MARSHALL","TX",75671,NA,NA,215,"PO BOX 294, MARSHALL, TX, 75671","No_Match",NA,NA,NA,NA
982216,"PO BOX 294","MCCALL","ID",83638,NA,NA,216,"PO BOX 294, MCCALL, ID, 83638","No_Match",NA,NA,NA,NA
982217,"PO BOX 294","MCGREGOR","TX",76657,NA,NA,217,"PO BOX 294, MCGREGOR, TX, 76657","No_Match",NA,NA,NA,NA
982218,"PO BOX 294","MERRILL","OR",97633,NA,NA,218,"PO BOX 294, MERRILL, OR, 97633","No_Match",NA,NA,NA,NA
982219,"PO BOX 294","NAALEHU","HI",96772,NA,NA,219,"PO BOX 294, NAALEHU, HI, 96772","No_Match",NA,NA,NA,NA
982220,"PO BOX 294","OZARK","AR",72949,NA,NA,220,"PO BOX 294, OZARK, AR, 72949","No_Match",NA,NA,NA,NA
982221,"PO BOX 294","PEPPERELL","MA",1463,NA,NA,221,"PO BOX 294, PEPPERELL, MA, 1463","No_Match",NA,NA,NA,NA
982222,"PO BOX 294","PORCUPINE","SD",57772,NA,NA,222,"PO BOX 294, PORCUPINE, SD, 57772","No_Match",NA,NA,NA,NA
982223,"PO BOX 294","RICE","TX",75155,NA,NA,223,"PO BOX 294, RICE, TX, 75155","No_Match",NA,NA,NA,NA
982224,"PO BOX 294","RODEO","NM",88056,NA,NA,224,"PO BOX 294, RODEO, NM, 88056","No_Match",NA,NA,NA,NA
982225,"PO BOX 294","SOMERVILLE","TX",77879,NA,NA,225,"PO BOX 294, SOMERVILLE, TX, 77879","No_Match",NA,NA,NA,NA
982226,"PO BOX 294","STAPLES","MN",56479,NA,NA,226,"PO BOX 294, STAPLES, MN, 56479","No_Match",NA,NA,NA,NA
982227,"PO BOX 294","SWANVILLE","MN",56382,NA,NA,227,"PO BOX 294, SWANVILLE, MN, 56382","No_Match",NA,NA,NA,NA
982228,"PO BOX 294","TOM BEAN","TX",75489,NA,NA,228,"PO BOX 294, TOM BEAN, TX, 75489","No_Match",NA,NA,NA,NA
982229,"PO BOX 294","URBANA","OH",43078,NA,NA,229,"PO BOX 294, URBANA, OH, 43078","No_Match",NA,NA,NA,NA
982230,"PO BOX 294","WILLMAR","MN",56201,NA,NA,230,"PO BOX 294, WILLMAR, MN, 56201","No_Match",NA,NA,NA,NA
982231,"PO BOX 294","WINSTED","CT",6098,NA,NA,231,"PO BOX 294, WINSTED, CT, 6098","No_Match",NA,NA,NA,NA
982232,"PO BOX 294","WOODBURN","OR",97071,NA,NA,232,"PO BOX 294, WOODBURN, OR, 97071","No_Match",NA,NA,NA,NA
982233,"PO BOX 2940","TAOS","NM",87571,NA,NA,233,"PO BOX 2940, TAOS, NM, 87571","No_Match",NA,NA,NA,NA
982234,"PO BOX 294076","SACRAMENTO","CA",95829,NA,NA,234,"PO BOX 294076, SACRAMENTO, CA, 95829","No_Match",NA,NA,NA,NA
982235,"PO BOX 294076","SACRAMENTO","CA",96829,NA,NA,235,"PO BOX 294076, SACRAMENTO, CA, 96829","No_Match",NA,NA,NA,NA
982236,"PO BOX 2941","ATASCADERO","CA",93423,NA,NA,236,"PO BOX 2941, ATASCADERO, CA, 93423","No_Match",NA,NA,NA,NA
982237,"PO BOX 2941","TRUCKEE","CA",96160,NA,NA,237,"PO BOX 2941, TRUCKEE, CA, 96160","No_Match",NA,NA,NA,NA
982238,"PO BOX 2942","IDAHO FALLS","ID",83403,NA,NA,238,"PO BOX 2942, IDAHO FALLS, ID, 83403","No_Match",NA,NA,NA,NA
982239,"PO BOX 2942","VICTORVILLE","CA",92393,NA,NA,239,"PO BOX 2942, VICTORVILLE, CA, 92393","No_Match",NA,NA,NA,NA
982240,"PO BOX 294314","KERRVILLE","TX",78029,NA,NA,240,"PO BOX 294314, KERRVILLE, TX, 78029","No_Match",NA,NA,NA,NA
982241,"PO BOX 29439","INDIANAPOLIS","IN",46229,NA,NA,241,"PO BOX 29439, INDIANAPOLIS, IN, 46229","No_Match",NA,NA,NA,NA
982242,"PO BOX 2944","LAPLACE","LA",70069,NA,NA,242,"PO BOX 2944, LAPLACE, LA, 70069","No_Match",NA,NA,NA,NA
982243,"PO BOX 2944","WINTER PARK","FL",32790,NA,NA,243,"PO BOX 2944, WINTER PARK, FL, 32790","No_Match",NA,NA,NA,NA
982244,"PO BOX 294402","PHELAN","CA",92329,NA,NA,244,"PO BOX 294402, PHELAN, CA, 92329","No_Match",NA,NA,NA,NA
982245,"PO BOX 29441","AUSTIN","TX",78755,NA,NA,245,"PO BOX 29441, AUSTIN, TX, 78755","No_Match",NA,NA,NA,NA
982246,"PO BOX 294640","PHELAN","CA",92329,NA,NA,246,"PO BOX 294640, PHELAN, CA, 92329","No_Match",NA,NA,NA,NA
982247,"PO BOX 2949","CLEARWATER","FL",33757,NA,NA,247,"PO BOX 2949, CLEARWATER, FL, 33757","No_Match",NA,NA,NA,NA
982248,"PO BOX 295","ADNA","WA",98522,NA,NA,248,"PO BOX 295, ADNA, WA, 98522","No_Match",NA,NA,NA,NA
982249,"PO BOX 295","AGOURA HILLS","CA",91376,NA,NA,249,"PO BOX 295, AGOURA HILLS, CA, 91376","No_Match",NA,NA,NA,NA
982250,"PO BOX 295","BATESVILLE","MS",38606,NA,NA,250,"PO BOX 295, BATESVILLE, MS, 38606","No_Match",NA,NA,NA,NA
982251,"PO BOX 295","BLUFF DALE","TX",76433,NA,NA,251,"PO BOX 295, BLUFF DALE, TX, 76433","No_Match",NA,NA,NA,NA
982252,"PO BOX 295","BUFFALO GAP","SD",57722,NA,NA,252,"PO BOX 295, BUFFALO GAP, SD, 57722","No_Match",NA,NA,NA,NA
982253,"PO BOX 295","DIXON","NM",87527,NA,NA,253,"PO BOX 295, DIXON, NM, 87527","No_Match",NA,NA,NA,NA
982254,"PO BOX 295","ELMORE CITY","OK",73433,NA,NA,254,"PO BOX 295, ELMORE CITY, OK, 73433","No_Match",NA,NA,NA,NA
982255,"PO BOX 295","ELYSBURG","PA",17824,NA,NA,255,"PO BOX 295, ELYSBURG, PA, 17824","No_Match",NA,NA,NA,NA
982256,"PO BOX 295","EMPIRE","CO",80438,NA,NA,256,"PO BOX 295, EMPIRE, CO, 80438","No_Match",NA,NA,NA,NA
982257,"PO BOX 295","FAIRVIEW","PA",16415,NA,NA,257,"PO BOX 295, FAIRVIEW, PA, 16415","No_Match",NA,NA,NA,NA
982258,"PO BOX 295","FARMINGTON","MI",48332,NA,NA,258,"PO BOX 295, FARMINGTON, MI, 48332","No_Match",NA,NA,NA,NA
982259,"PO BOX 295","HOPEDALE","OH",43976,NA,NA,259,"PO BOX 295, HOPEDALE, OH, 43976","No_Match",NA,NA,NA,NA
982260,"PO BOX 295","HOWE","TX",75459,NA,NA,260,"PO BOX 295, HOWE, TX, 75459","No_Match",NA,NA,NA,NA
982261,"PO BOX 295","KIMBALL","MN",55353,NA,NA,261,"PO BOX 295, KIMBALL, MN, 55353","No_Match",NA,NA,NA,NA
982262,"PO BOX 295","MACON","MS",39341,NA,NA,262,"PO BOX 295, MACON, MS, 39341","No_Match",NA,NA,NA,NA
982263,"PO BOX 295","MAPLE VALLEY","WA",98038,NA,NA,263,"PO BOX 295, MAPLE VALLEY, WA, 98038","No_Match",NA,NA,NA,NA
982264,"PO BOX 295","NEW BOSTON","TX",75570,NA,NA,264,"PO BOX 295, NEW BOSTON, TX, 75570","No_Match",NA,NA,NA,NA
982265,"PO BOX 295","NEW HOLLAND","OH",43145,NA,NA,265,"PO BOX 295, NEW HOLLAND, OH, 43145","No_Match",NA,NA,NA,NA
982266,"PO BOX 295","NEW STRAITSVILLE","OH",43766,NA,NA,266,"PO BOX 295, NEW STRAITSVILLE, OH, 43766","No_Match",NA,NA,NA,NA
982267,"PO BOX 295","PINEVILLE","NC",28134,NA,NA,267,"PO BOX 295, PINEVILLE, NC, 28134","No_Match",NA,NA,NA,NA
982268,"PO BOX 295","SAUSALITO","CA",94966,NA,NA,268,"PO BOX 295, SAUSALITO, CA, 94966","No_Match",NA,NA,NA,NA
982269,"PO BOX 295","SKAGWAY","AK",99840,NA,NA,269,"PO BOX 295, SKAGWAY, AK, 99840","No_Match",NA,NA,NA,NA
982270,"PO BOX 295","ST CLOUD","MN",56302,NA,NA,270,"PO BOX 295, ST CLOUD, MN, 56302","No_Match",NA,NA,NA,NA
982271,"PO BOX 295","TALOGA","OK",73667,NA,NA,271,"PO BOX 295, TALOGA, OK, 73667","No_Match",NA,NA,NA,NA
982272,"PO BOX 295","TOANO","VA",23168,NA,NA,272,"PO BOX 295, TOANO, VA, 23168","No_Match",NA,NA,NA,NA
982273,"PO BOX 29502","BROOKLYN 'CENTER","MN",55429,NA,NA,273,"PO BOX 29502, BROOKLYN 'CENTER, MN, 55429","No_Match",NA,NA,NA,NA
982274,"PO BOX 29502","BROOKLYN CENTER","MN",55429,NA,NA,274,"PO BOX 29502, BROOKLYN CENTER, MN, 55429","No_Match",NA,NA,NA,NA
982275,"PO BOX 295076","SACRAMENTO","CA",95829,NA,NA,275,"PO BOX 295076, SACRAMENTO, CA, 95829","No_Match",NA,NA,NA,NA
982276,"PO BOX 2952","GULF SHORES","AL",36547,NA,NA,276,"PO BOX 2952, GULF SHORES, AL, 36547","No_Match",NA,NA,NA,NA
982277,"PO BOX 295214","KERRVILLE","TX",78029,NA,NA,277,"PO BOX 295214, KERRVILLE, TX, 78029","No_Match",NA,NA,NA,NA
982278,"PO BOX 29523","OAKLAND","CA",94604,NA,NA,278,"PO BOX 29523, OAKLAND, CA, 94604","No_Match",NA,NA,NA,NA
982279,"PO BOX 2953","SPRING","TX",77383,NA,NA,279,"PO BOX 2953, SPRING, TX, 77383","No_Match",NA,NA,NA,NA
982280,"PO BOX 295381","LEWISVILLE","TX",75029,NA,NA,280,"PO BOX 295381, LEWISVILLE, TX, 75029","No_Match",NA,NA,NA,NA
982281,"PO BOX 295381","LEWISVILLE","TX",75209,NA,NA,281,"PO BOX 295381, LEWISVILLE, TX, 75209","No_Match",NA,NA,NA,NA
982282,"PO BOX 2954","FULLERTON","CA",92837,NA,NA,282,"PO BOX 2954, FULLERTON, CA, 92837","No_Match",NA,NA,NA,NA
982283,"PO BOX 2955","STOCKBRIDGE","GA",30281,NA,NA,283,"PO BOX 2955, STOCKBRIDGE, GA, 30281","No_Match",NA,NA,NA,NA
982284,"PO BOX 2955","STOCLBRIDGE","GA",30218,NA,NA,284,"PO BOX 2955, STOCLBRIDGE, GA, 30218","No_Match",NA,NA,NA,NA
982285,"PO BOX 2958","CENTENNIAL","CO",80161,NA,NA,285,"PO BOX 2958, CENTENNIAL, CO, 80161","No_Match",NA,NA,NA,NA
982286,"PO BOX 2959","ROSWELL","NM",88202,NA,NA,286,"PO BOX 2959, ROSWELL, NM, 88202","No_Match",NA,NA,NA,NA
982287,"PO BOX 2959","WOODINVILLE","WA",98072,NA,NA,287,"PO BOX 2959, WOODINVILLE, WA, 98072","No_Match",NA,NA,NA,NA
982288,"PO BOX 29596","HONOLULU","HI",96820,NA,NA,288,"PO BOX 29596, HONOLULU, HI, 96820","No_Match",NA,NA,NA,NA
982289,"PO BOX 296 / 500 HITCHCOCK RD","SAXTONS RIVER","VT",5154,43.131512555,-72.542646179,289,"PO BOX 296 / 500 HITCHCOCK RD, SAXTONS RIVER, VT, 5154","Match","Exact","500 HITCHCOCK RD, SAXTONS RIVER, VT, 05154",171099255,"L"
982290,"PO BOX 296","BOZEMAN","MT",59771,NA,NA,290,"PO BOX 296, BOZEMAN, MT, 59771","No_Match",NA,NA,NA,NA
982291,"PO BOX 296","BUCK HILL FALLS","PA",18323,NA,NA,291,"PO BOX 296, BUCK HILL FALLS, PA, 18323","No_Match",NA,NA,NA,NA
982292,"PO BOX 296","CHESTER","MT",59522,NA,NA,292,"PO BOX 296, CHESTER, MT, 59522","No_Match",NA,NA,NA,NA
982293,"PO BOX 296","DELL","AR",72426,NA,NA,293,"PO BOX 296, DELL, AR, 72426","No_Match",NA,NA,NA,NA
982294,"PO BOX 296","EASTPORT","MI",49627,NA,NA,294,"PO BOX 296, EASTPORT, MI, 49627","No_Match",NA,NA,NA,NA
982295,"PO BOX 296","FREMONT","NC",27830,NA,NA,295,"PO BOX 296, FREMONT, NC, 27830","No_Match",NA,NA,NA,NA
982296,"PO BOX 296","HOBSON","MT",59452,NA,NA,296,"PO BOX 296, HOBSON, MT, 59452","No_Match",NA,NA,NA,NA
982297,"PO BOX 296","HUDGINS","VA",23076,NA,NA,297,"PO BOX 296, HUDGINS, VA, 23076","No_Match",NA,NA,NA,NA
982298,"PO BOX 296","HUNGRY HORSE","MT",59919,NA,NA,298,"PO BOX 296, HUNGRY HORSE, MT, 59919","No_Match",NA,NA,NA,NA
982299,"PO Box 296","JESUP","GA",31598,NA,NA,299,"PO Box 296, JESUP, GA, 31598","No_Match",NA,NA,NA,NA
982300,"PO BOX 296","KEKAHA","HI",96752,NA,NA,300,"PO BOX 296, KEKAHA, HI, 96752","No_Match",NA,NA,NA,NA
982301,"PO BOX 296","LAKESIDE","CA",92040,NA,NA,301,"PO BOX 296, LAKESIDE, CA, 92040","No_Match",NA,NA,NA,NA
982302,"PO BOX 296","MADISON","GA",30650,NA,NA,302,"PO BOX 296, MADISON, GA, 30650","No_Match",NA,NA,NA,NA
982303,"PO BOX 296","MADISON","KS",66860,NA,NA,303,"PO BOX 296, MADISON, KS, 66860","No_Match",NA,NA,NA,NA
982304,"PO BOX 296","MONITOR","WA",98836,NA,NA,304,"PO BOX 296, MONITOR, WA, 98836","No_Match",NA,NA,NA,NA
982305,"PO BOX 296","MORGAN MILL","TX",76465,NA,NA,305,"PO BOX 296, MORGAN MILL, TX, 76465","No_Match",NA,NA,NA,NA
982306,"PO BOX 296","PINE RIVER","WI",54965,NA,NA,306,"PO BOX 296, PINE RIVER, WI, 54965","No_Match",NA,NA,NA,NA
982307,"PO BOX 296","ROXBURY","NY",42474,NA,NA,307,"PO BOX 296, ROXBURY, NY, 42474","No_Match",NA,NA,NA,NA
982308,"PO BOX 296","WESTFORD","MA",1886,NA,NA,308,"PO BOX 296, WESTFORD, MA, 1886","No_Match",NA,NA,NA,NA
982309,"PO BOX 296","WILMOT","SD",57279,NA,NA,309,"PO BOX 296, WILMOT, SD, 57279","No_Match",NA,NA,NA,NA
982310,"PO BOX 2961","BIRMINGHAM","AL",35202,NA,NA,310,"PO BOX 2961, BIRMINGHAM, AL, 35202","No_Match",NA,NA,NA,NA
982311,"PO BOX 2961","CALERA","AL",35040,NA,NA,311,"PO BOX 2961, CALERA, AL, 35040","No_Match",NA,NA,NA,NA
982312,"PO BOX 2961","TUPELO","MS",38801,NA,NA,312,"PO BOX 2961, TUPELO, MS, 38801","No_Match",NA,NA,NA,NA
982313,"PO BOX 2962","BELLAIRE","TX",77402,NA,NA,313,"PO BOX 2962, BELLAIRE, TX, 77402","No_Match",NA,NA,NA,NA
982314,"PO BOX 2962","CASHIERS","NC",28717,NA,NA,314,"PO BOX 2962, CASHIERS, NC, 28717","No_Match",NA,NA,NA,NA
982315,"PO BOX 2962","SLC","UT",84110,NA,NA,315,"PO BOX 2962, SLC, UT, 84110","No_Match",NA,NA,NA,NA
982316,"PO BOX 29624","WASHINGTON","DC",20017,NA,NA,316,"PO BOX 29624, WASHINGTON, DC, 20017","No_Match",NA,NA,NA,NA
982317,"PO BOX 2964","JACKSON","WY",83001,NA,NA,317,"PO BOX 2964, JACKSON, WY, 83001","No_Match",NA,NA,NA,NA
982318,"PO BOX 2964","SALT LAKE CITY","UT",84110,NA,NA,318,"PO BOX 2964, SALT LAKE CITY, UT, 84110","No_Match",NA,NA,NA,NA
982319,"PO BOX 2965","JACKSON","WY",83001,NA,NA,319,"PO BOX 2965, JACKSON, WY, 83001","No_Match",NA,NA,NA,NA
982320,"PO BOX 2965","KALISPELL","MT",59937,NA,NA,320,"PO BOX 2965, KALISPELL, MT, 59937","No_Match",NA,NA,NA,NA
982321,"PO BOX 2965","LEESBURG","VA",20177,NA,NA,321,"PO BOX 2965, LEESBURG, VA, 20177","No_Match",NA,NA,NA,NA
982322,"PO BOX 2966","ELKINS","WV",26241,NA,NA,322,"PO BOX 2966, ELKINS, WV, 26241","No_Match",NA,NA,NA,NA
982323,"PO BOX 2966","SUMMERVILLE","SC",29484,NA,NA,323,"PO BOX 2966, SUMMERVILLE, SC, 29484","No_Match",NA,NA,NA,NA
982324,"PO BOX 2967","Bethel","AK",99559,NA,NA,324,"PO BOX 2967, Bethel, AK, 99559","No_Match",NA,NA,NA,NA
982325,"PO BOX 2967","BETHEL","AK",99559,NA,NA,325,"PO BOX 2967, BETHEL, AK, 99559","No_Match",NA,NA,NA,NA
982326,"PO BOX 2967","WAILUKU","HI",96793,NA,NA,326,"PO BOX 2967, WAILUKU, HI, 96793","No_Match",NA,NA,NA,NA
982327,"PO BOX 2967","WINTER PARK","CO",80482,NA,NA,327,"PO BOX 2967, WINTER PARK, CO, 80482","No_Match",NA,NA,NA,NA
982328,"PO BOX 2968","ARIZONA CITY","AZ",85123,NA,NA,328,"PO BOX 2968, ARIZONA CITY, AZ, 85123","No_Match",NA,NA,NA,NA
982329,"PO BOX 29681","SHREVEPORT","LA",71149,NA,NA,329,"PO BOX 29681, SHREVEPORT, LA, 71149","No_Match",NA,NA,NA,NA
982330,"PO BOX 29682","AUSTIN","TX",78755,NA,NA,330,"PO BOX 29682, AUSTIN, TX, 78755","No_Match",NA,NA,NA,NA
982331,"PO BOX 297","BOLINGBROKE","GA",31004,NA,NA,331,"PO BOX 297, BOLINGBROKE, GA, 31004","No_Match",NA,NA,NA,NA
982332,"PO BOX 297","GATLINBURG","TN",37738,NA,NA,332,"PO BOX 297, GATLINBURG, TN, 37738","No_Match",NA,NA,NA,NA
982333,"PO BOX 297","HOLLAND","NY",14080,NA,NA,333,"PO BOX 297, HOLLAND, NY, 14080","No_Match",NA,NA,NA,NA
982334,"PO BOX 297","LA CENTER","WA",98629,NA,NA,334,"PO BOX 297, LA CENTER, WA, 98629","No_Match",NA,NA,NA,NA
982335,"PO BOX 297","LANCASTER","SC",29721,NA,NA,335,"PO BOX 297, LANCASTER, SC, 29721","No_Match",NA,NA,NA,NA
982336,"PO BOX 297","LESTER","IA",51242,NA,NA,336,"PO BOX 297, LESTER, IA, 51242","No_Match",NA,NA,NA,NA
982337,"PO BOX 297","LIBBY","MT",59923,NA,NA,337,"PO BOX 297, LIBBY, MT, 59923","No_Match",NA,NA,NA,NA
982338,"PO BOX 297","MCKENNA","WA",98558,NA,NA,338,"PO BOX 297, MCKENNA, WA, 98558","No_Match",NA,NA,NA,NA
982339,"PO BOX 297","MORENO VALLEY","CA",92556,NA,NA,339,"PO BOX 297, MORENO VALLEY, CA, 92556","No_Match",NA,NA,NA,NA
982340,"PO BOX 297","MOULTON","TX",77975,NA,NA,340,"PO BOX 297, MOULTON, TX, 77975","No_Match",NA,NA,NA,NA
982341,"PO BOX 297","OYSTER BAY","NY",11771,NA,NA,341,"PO BOX 297, OYSTER BAY, NY, 11771","No_Match",NA,NA,NA,NA
982342,"PO BOX 297","PUTNAM VALLEY","NY",10579,NA,NA,342,"PO BOX 297, PUTNAM VALLEY, NY, 10579","No_Match",NA,NA,NA,NA
982343,"PO BOX 297","RED LAKE FALLS","MN",56750,NA,NA,343,"PO BOX 297, RED LAKE FALLS, MN, 56750","No_Match",NA,NA,NA,NA
982344,"PO BOX 297","SHAWNEE","OH",43782,NA,NA,344,"PO BOX 297, SHAWNEE, OH, 43782","No_Match",NA,NA,NA,NA
982345,"PO BOX 297","TOLAR","TX",76476,NA,NA,345,"PO BOX 297, TOLAR, TX, 76476","No_Match",NA,NA,NA,NA
982346,"PO BOX 297","WAILUKU","HI",96793,NA,NA,346,"PO BOX 297, WAILUKU, HI, 96793","No_Match",NA,NA,NA,NA
982347,"PO BOX 297","WILLIAMSTON","SC",29697,NA,NA,347,"PO BOX 297, WILLIAMSTON, SC, 29697","No_Match",NA,NA,NA,NA
982348,"PO BOX 297070","BROOKLYN","NY",11229,NA,NA,348,"PO BOX 297070, BROOKLYN, NY, 11229","No_Match",NA,NA,NA,NA
982349,"PO BOX 2971","WILMINGTON","DE",19805,NA,NA,349,"PO BOX 2971, WILMINGTON, DE, 19805","No_Match",NA,NA,NA,NA
982350,"PO BOX 2972","LAKE ARROWHEAD","CA",92352,NA,NA,350,"PO BOX 2972, LAKE ARROWHEAD, CA, 92352","No_Match",NA,NA,NA,NA
982351,"PO BOX 29739","CHARLOTTE","NC",28229,NA,NA,351,"PO BOX 29739, CHARLOTTE, NC, 28229","No_Match",NA,NA,NA,NA
982352,"PO BOX 2974","BIGFORK","MT",59911,NA,NA,352,"PO BOX 2974, BIGFORK, MT, 59911","No_Match",NA,NA,NA,NA
982353,"PO BOX 2974","EVERGREEN","CO",80437,NA,NA,353,"PO BOX 2974, EVERGREEN, CO, 80437","No_Match",NA,NA,NA,NA
982354,"PO BOX 297403","PEMBROKE PINES","FL",33029,NA,NA,354,"PO BOX 297403, PEMBROKE PINES, FL, 33029","No_Match",NA,NA,NA,NA
982355,"PO BOX 297403","PEMBROKE PINES","FL",33039,NA,NA,355,"PO BOX 297403, PEMBROKE PINES, FL, 33039","No_Match",NA,NA,NA,NA
982356,"PO BOX 29755","CHARLOTTE","NC",28229,NA,NA,356,"PO BOX 29755, CHARLOTTE, NC, 28229","No_Match",NA,NA,NA,NA
982357,"PO BOX 2977","MILWAUKEE","WI",53201,NA,NA,357,"PO BOX 2977, MILWAUKEE, WI, 53201","No_Match",NA,NA,NA,NA
982358,"PO BOX 29775","CHARLOTTE","NC",28229,NA,NA,358,"PO BOX 29775, CHARLOTTE, NC, 28229","No_Match",NA,NA,NA,NA
982359,"PO BOX 29776","RICHMOND","VA",23238,NA,NA,359,"PO BOX 29776, RICHMOND, VA, 23238","No_Match",NA,NA,NA,NA
982360,"PO BOX 297852","COLUMBUS","OH",43229,NA,NA,360,"PO BOX 297852, COLUMBUS, OH, 43229","No_Match",NA,NA,NA,NA
982361,"PO BOX 298-80 FLETCHERS MILL RD","SPERRYVILLE","VA",22747,NA,NA,361,"PO BOX 298-80 FLETCHERS MILL RD, SPERRYVILLE, VA, 22747","No_Match",NA,NA,NA,NA
982362,"PO BOX 298","ABSAROKEE","MT",59001,NA,NA,362,"PO BOX 298, ABSAROKEE, MT, 59001","No_Match",NA,NA,NA,NA
982363,"PO BOX 298","ACCOKEEK","MD",20607,NA,NA,363,"PO BOX 298, ACCOKEEK, MD, 20607","No_Match",NA,NA,NA,NA
982364,"PO BOX 298","BENNINGOTN","NE",68007,NA,NA,364,"PO BOX 298, BENNINGOTN, NE, 68007","No_Match",NA,NA,NA,NA
982365,"PO BOX 298","BENNINGTON","NE",68007,NA,NA,365,"PO BOX 298, BENNINGTON, NE, 68007","No_Match",NA,NA,NA,NA
982366,"PO BOX 298","BRIDGEPORT","AL",35740,NA,NA,366,"PO BOX 298, BRIDGEPORT, AL, 35740","No_Match",NA,NA,NA,NA
982367,"PO BOX 298","DEPEW","OK",74028,NA,NA,367,"PO BOX 298, DEPEW, OK, 74028","No_Match",NA,NA,NA,NA
982368,"PO BOX 298","DOVE CREEK","CO",81324,NA,NA,368,"PO BOX 298, DOVE CREEK, CO, 81324","No_Match",NA,NA,NA,NA
982369,"PO BOX 298","HAYTI","SD",57241,NA,NA,369,"PO BOX 298, HAYTI, SD, 57241","No_Match",NA,NA,NA,NA
982370,"PO BOX 298","LOCKHART","TX",78644,NA,NA,370,"PO BOX 298, LOCKHART, TX, 78644","No_Match",NA,NA,NA,NA
982371,"PO BOX 298","MAKAWAO","HI",96768,NA,NA,371,"PO BOX 298, MAKAWAO, HI, 96768","No_Match",NA,NA,NA,NA
982372,"PO BOX 298","MONROE CITY","IN",47557,NA,NA,372,"PO BOX 298, MONROE CITY, IN, 47557","No_Match",NA,NA,NA,NA
982373,"PO BOX 298","NORTON","VA",24273,NA,NA,373,"PO BOX 298, NORTON, VA, 24273","No_Match",NA,NA,NA,NA
982374,"PO BOX 298","PRAIRIE LEA","TX",78661,NA,NA,374,"PO BOX 298, PRAIRIE LEA, TX, 78661","No_Match",NA,NA,NA,NA
982375,"PO BOX 298","SEARSPORT","ME",4974,NA,NA,375,"PO BOX 298, SEARSPORT, ME, 4974","No_Match",NA,NA,NA,NA
982376,"PO BOX 298","SOUTH PARIS","ME",NA,NA,NA,376,"PO BOX 298, SOUTH PARIS, ME, ","No_Match",NA,NA,NA,NA
982377,"PO BOX 298","ST DAVID","AZ",85630,NA,NA,377,"PO BOX 298, ST DAVID, AZ, 85630","No_Match",NA,NA,NA,NA
982378,"PO BOX 298","SUNRAY","TX",79086,NA,NA,378,"PO BOX 298, SUNRAY, TX, 79086","No_Match",NA,NA,NA,NA
982379,"PO BOX 298","THREE RIVERS","TX",78071,NA,NA,379,"PO BOX 298, THREE RIVERS, TX, 78071","No_Match",NA,NA,NA,NA
982380,"PO BOX 298","WHITFIELD","MS",39193,NA,NA,380,"PO BOX 298, WHITFIELD, MS, 39193","No_Match",NA,NA,NA,NA
982381,"PO BOX 2982","ALVIN","TX",77512,NA,NA,381,"PO BOX 2982, ALVIN, TX, 77512","No_Match",NA,NA,NA,NA
982382,"PO BOX 2982","GREENEVILLE","TN",37744,NA,NA,382,"PO BOX 2982, GREENEVILLE, TN, 37744","No_Match",NA,NA,NA,NA
982383,"PO BOX 2982","HONOLULU","HI",96806,NA,NA,383,"PO BOX 2982, HONOLULU, HI, 96806","No_Match",NA,NA,NA,NA
982384,"PO BOX 298204","COLUMBUS","OH",43229,NA,NA,384,"PO BOX 298204, COLUMBUS, OH, 43229","No_Match",NA,NA,NA,NA
982385,"PO BOX 29823","OAKLAND","CA",94604,NA,NA,385,"PO BOX 29823, OAKLAND, CA, 94604","No_Match",NA,NA,NA,NA
982386,"PO BOX 2983","CLACKAMAS","OR",97015,NA,NA,386,"PO BOX 2983, CLACKAMAS, OR, 97015","No_Match",NA,NA,NA,NA
982387,"PO BOX 2985","BERKELEY","CA",94702,NA,NA,387,"PO BOX 2985, BERKELEY, CA, 94702","No_Match",NA,NA,NA,NA
982388,"PO BOX 29850","HALEIWA","HI",96712,NA,NA,388,"PO BOX 29850, HALEIWA, HI, 96712","No_Match",NA,NA,NA,NA
982389,"PO BOX 299","BAMBERG","SC",29003,NA,NA,389,"PO BOX 299, BAMBERG, SC, 29003","No_Match",NA,NA,NA,NA
982390,"PO BOX 299","JAMISON","PA",18929,NA,NA,390,"PO BOX 299, JAMISON, PA, 18929","No_Match",NA,NA,NA,NA
982391,"PO BOX 299","MAYAGUEZ","PR",681,NA,NA,391,"PO BOX 299, MAYAGUEZ, PR, 681","No_Match",NA,NA,NA,NA
982392,"PO BOX 299","MOUNTAIN HORNE","NC",28758,NA,NA,392,"PO BOX 299, MOUNTAIN HORNE, NC, 28758","No_Match",NA,NA,NA,NA
982393,"PO BOX 299","OAK LAWN","IL",60805,NA,NA,393,"PO BOX 299, OAK LAWN, IL, 60805","No_Match",NA,NA,NA,NA
982394,"PO BOX 299","SEAHURST","WA",98062,NA,NA,394,"PO BOX 299, SEAHURST, WA, 98062","No_Match",NA,NA,NA,NA
982395,"PO BOX 299","SOUTH CASCO","ME",4077,NA,NA,395,"PO BOX 299, SOUTH CASCO, ME, 4077","No_Match",NA,NA,NA,NA
982396,"PO BOX 299","TERLTON","OK",74081,NA,NA,396,"PO BOX 299, TERLTON, OK, 74081","No_Match",NA,NA,NA,NA
982397,"PO BOX 299","WESTCLIFFE","CO",81252,NA,NA,397,"PO BOX 299, WESTCLIFFE, CO, 81252","No_Match",NA,NA,NA,NA
982398,"PO BOX 2990","RUNNING SPRINGS","CA",92382,NA,NA,398,"PO BOX 2990, RUNNING SPRINGS, CA, 92382","No_Match",NA,NA,NA,NA
982399,"PO BOX 2991","CRESTED BUTTE","CO",81224,NA,NA,399,"PO BOX 2991, CRESTED BUTTE, CO, 81224","No_Match",NA,NA,NA,NA
982400,"PO BOX 2993","ABILENE","TX",79604,NA,NA,400,"PO BOX 2993, ABILENE, TX, 79604","No_Match",NA,NA,NA,NA
982401,"PO BOX 2993","GLENWOOD SPRINGS","CO",81602,NA,NA,401,"PO BOX 2993, GLENWOOD SPRINGS, CO, 81602","No_Match",NA,NA,NA,NA
982402,"PO BOX 2993","LAKE PLACID","FL",33862,NA,NA,402,"PO BOX 2993, LAKE PLACID, FL, 33862","No_Match",NA,NA,NA,NA
982403,"PO BOX 2994","FAIRFIELD","CA",94533,NA,NA,403,"PO BOX 2994, FAIRFIELD, CA, 94533","No_Match",NA,NA,NA,NA
982404,"PO BOX 2994","POUGHKEEPSIE","NY",12603,NA,NA,404,"PO BOX 2994, POUGHKEEPSIE, NY, 12603","No_Match",NA,NA,NA,NA
982405,"PO BOX 2994","PRAIRIE VIEW","TX",77446,NA,NA,405,"PO BOX 2994, PRAIRIE VIEW, TX, 77446","No_Match",NA,NA,NA,NA
982406,"PO BOX 2995","PORT ANGELES","WA",98362,NA,NA,406,"PO BOX 2995, PORT ANGELES, WA, 98362","No_Match",NA,NA,NA,NA
982407,"PO BOX 2996","HOLLAND","MI",49422,NA,NA,407,"PO BOX 2996, HOLLAND, MI, 49422","No_Match",NA,NA,NA,NA
982408,"PO BOX 2996","SILVER CITY","NM",88062,NA,NA,408,"PO BOX 2996, SILVER CITY, NM, 88062","No_Match",NA,NA,NA,NA
982409,"PO BOX 2998 MARINA STATION","CABO ROJO","PR",681,NA,NA,409,"PO BOX 2998 MARINA STATION, CABO ROJO, PR, 681","No_Match",NA,NA,NA,NA
982410,"PO BOX 29994","SENEGAL","AA",0,NA,NA,410,"PO BOX 29994, SENEGAL, AA, 0","No_Match",NA,NA,NA,NA
982411,"PO BOX 3","ALMENA","KS",67622,NA,NA,411,"PO BOX 3, ALMENA, KS, 67622","No_Match",NA,NA,NA,NA
982412,"PO BOX 3","BRIDGE CITY","TX",77611,NA,NA,412,"PO BOX 3, BRIDGE CITY, TX, 77611","No_Match",NA,NA,NA,NA
982413,"PO BOX 3","CLEAR LAKE OAKS","CA",95423,NA,NA,413,"PO BOX 3, CLEAR LAKE OAKS, CA, 95423","No_Match",NA,NA,NA,NA
982414,"PO BOX 3","COLUMBIA","CA",95310,NA,NA,414,"PO BOX 3, COLUMBIA, CA, 95310","No_Match",NA,NA,NA,NA
982415,"PO BOX 3","COLVILLE","WA",99114,NA,NA,415,"PO BOX 3, COLVILLE, WA, 99114","No_Match",NA,NA,NA,NA
982416,"PO BOX 3","CROSBY","MN",56441,NA,NA,416,"PO BOX 3, CROSBY, MN, 56441","No_Match",NA,NA,NA,NA
982417,"PO BOX 3","DEVILS LAKE","ND",58301,NA,NA,417,"PO BOX 3, DEVILS LAKE, ND, 58301","No_Match",NA,NA,NA,NA
982418,"PO BOX 3","DINGESS","WV",25671,NA,NA,418,"PO BOX 3, DINGESS, WV, 25671","No_Match",NA,NA,NA,NA
982419,"PO BOX 3","EDEN","NY",14057,NA,NA,419,"PO BOX 3, EDEN, NY, 14057","No_Match",NA,NA,NA,NA
982420,"PO BOX 3","EDMESTON","NY",13335,NA,NA,420,"PO BOX 3, EDMESTON, NY, 13335","No_Match",NA,NA,NA,NA
982421,"PO BOX 3","GASTON","OR",97119,NA,NA,421,"PO BOX 3, GASTON, OR, 97119","No_Match",NA,NA,NA,NA
982422,"PO BOX 3","HALL","MT",59837,NA,NA,422,"PO BOX 3, HALL, MT, 59837","No_Match",NA,NA,NA,NA
982423,"PO BOX 3","HANCOCK","NH",3449,NA,NA,423,"PO BOX 3, HANCOCK, NH, 3449","No_Match",NA,NA,NA,NA
982424,"PO BOX 3","HIGLEY","AZ",85236,NA,NA,424,"PO BOX 3, HIGLEY, AZ, 85236","No_Match",NA,NA,NA,NA
982425,"PO BOX 3","INDEPENDENCE","OR",97351,NA,NA,425,"PO BOX 3, INDEPENDENCE, OR, 97351","No_Match",NA,NA,NA,NA
982426,"PO BOX 3","INDIANOLA","MS",38751,NA,NA,426,"PO BOX 3, INDIANOLA, MS, 38751","No_Match",NA,NA,NA,NA
982427,"PO BOX 3","KIMBERLY","WI",54136,NA,NA,427,"PO BOX 3, KIMBERLY, WI, 54136","No_Match",NA,NA,NA,NA
982428,"PO BOX 3","KOLOA","HI",96756,NA,NA,428,"PO BOX 3, KOLOA, HI, 96756","No_Match",NA,NA,NA,NA
982429,"PO BOX 3","LAFARGEVILLE","NY",13656,NA,NA,429,"PO BOX 3, LAFARGEVILLE, NY, 13656","No_Match",NA,NA,NA,NA
982430,"PO BOX 3","LANSING","IL",60438,NA,NA,430,"PO BOX 3, LANSING, IL, 60438","No_Match",NA,NA,NA,NA
982431,"PO BOX 3","LAWN","TX",79530,NA,NA,431,"PO BOX 3, LAWN, TX, 79530","No_Match",NA,NA,NA,NA
982432,"PO BOX 3","LONGVIEW","TX",75606,NA,NA,432,"PO BOX 3, LONGVIEW, TX, 75606","No_Match",NA,NA,NA,NA
982433,"PO BOX 3","LOWELL","FL",32663,NA,NA,433,"PO BOX 3, LOWELL, FL, 32663","No_Match",NA,NA,NA,NA
982434,"PO BOX 3","LOWER WATERFORD","VT",5848,NA,NA,434,"PO BOX 3, LOWER WATERFORD, VT, 5848","No_Match",NA,NA,NA,NA
982435,"PO BOX 3","MEYERSVILLE","TX",77974,NA,NA,435,"PO BOX 3, MEYERSVILLE, TX, 77974","No_Match",NA,NA,NA,NA
982436,"PO BOX 3","MURCHISON","TX",75778,NA,NA,436,"PO BOX 3, MURCHISON, TX, 75778","No_Match",NA,NA,NA,NA
982437,"PO BOX 3","OKLAHOMA CITY","OK",73101,NA,NA,437,"PO BOX 3, OKLAHOMA CITY, OK, 73101","No_Match",NA,NA,NA,NA
982438,"PO BOX 3","PEAKS ISLAND","ME",4108,NA,NA,438,"PO BOX 3, PEAKS ISLAND, ME, 4108","No_Match",NA,NA,NA,NA
982439,"PO BOX 3","RICHLAND","PA",17087,NA,NA,439,"PO BOX 3, RICHLAND, PA, 17087","No_Match",NA,NA,NA,NA
982440,"PO BOX 3","RYDERWOOD","WA",98581,NA,NA,440,"PO BOX 3, RYDERWOOD, WA, 98581","No_Match",NA,NA,NA,NA
982441,"PO BOX 3","SHANKSVILLE","PA",15560,NA,NA,441,"PO BOX 3, SHANKSVILLE, PA, 15560","No_Match",NA,NA,NA,NA
982442,"PO BOX 3","SPENCER","SD",57374,NA,NA,442,"PO BOX 3, SPENCER, SD, 57374","No_Match",NA,NA,NA,NA
982443,"PO BOX 3","SUSANVILLE","CA",96130,NA,NA,443,"PO BOX 3, SUSANVILLE, CA, 96130","No_Match",NA,NA,NA,NA
982444,"PO BOX 3","TYLER HILL","PA",18469,NA,NA,444,"PO BOX 3, TYLER HILL, PA, 18469","No_Match",NA,NA,NA,NA
982445,"PO BOX 3","VALIER","MT",59486,NA,NA,445,"PO BOX 3, VALIER, MT, 59486","No_Match",NA,NA,NA,NA
982446,"PO BOX 3","W JEFFERSON","NC",28694,NA,NA,446,"PO BOX 3, W JEFFERSON, NC, 28694","No_Match",NA,NA,NA,NA
982447,"PO BOX 3","WILLARD","MO",65781,NA,NA,447,"PO BOX 3, WILLARD, MO, 65781","No_Match",NA,NA,NA,NA
982448,"PO BOX 30","29 PALMS","CA",92277,NA,NA,448,"PO BOX 30, 29 PALMS, CA, 92277","No_Match",NA,NA,NA,NA
982449,"PO BOX 30","ALPINE","TX",79830,NA,NA,449,"PO BOX 30, ALPINE, TX, 79830","No_Match",NA,NA,NA,NA
982450,"PO BOX 30","COMSTOCK","MI",49041,NA,NA,450,"PO BOX 30, COMSTOCK, MI, 49041","No_Match",NA,NA,NA,NA
982451,"PO BOX 30","GORDONVILLE","MO",63752,NA,NA,451,"PO BOX 30, GORDONVILLE, MO, 63752","No_Match",NA,NA,NA,NA
982452,"PO BOX 30","INWOOD","WV",25428,NA,NA,452,"PO BOX 30, INWOOD, WV, 25428","No_Match",NA,NA,NA,NA
982453,"PO BOX 30","JACKSON","MT",59736,NA,NA,453,"PO BOX 30, JACKSON, MT, 59736","No_Match",NA,NA,NA,NA
982454,"PO BOX 30","LINDSAY","TX",76250,NA,NA,454,"PO BOX 30, LINDSAY, TX, 76250","No_Match",NA,NA,NA,NA
982455,"PO BOX 30","MIDDLEBURGH","NY",12122,NA,NA,455,"PO BOX 30, MIDDLEBURGH, NY, 12122","No_Match",NA,NA,NA,NA
982456,"PO BOX 30","MINNEOLA","FL",34755,NA,NA,456,"PO BOX 30, MINNEOLA, FL, 34755","No_Match",NA,NA,NA,NA
982457,"PO BOX 30","PAONIA","CO",81428,NA,NA,457,"PO BOX 30, PAONIA, CO, 81428","No_Match",NA,NA,NA,NA
982458,"PO BOX 30","SILSBEE","TX",77656,NA,NA,458,"PO BOX 30, SILSBEE, TX, 77656","No_Match",NA,NA,NA,NA
982459,"PO BOX 30","SKULL VALLEY","AZ",86338,NA,NA,459,"PO BOX 30, SKULL VALLEY, AZ, 86338","No_Match",NA,NA,NA,NA
982460,"PO BOX 30","TRINADAD","CA",95570,NA,NA,460,"PO BOX 30, TRINADAD, CA, 95570","No_Match",NA,NA,NA,NA
982461,"PO BOX 300","APPLETON","MN",56208,NA,NA,461,"PO BOX 300, APPLETON, MN, 56208","No_Match",NA,NA,NA,NA
982462,"PO BOX 300","BRYCEVILLE","FL",32009,NA,NA,462,"PO BOX 300, BRYCEVILLE, FL, 32009","No_Match",NA,NA,NA,NA
982463,"PO BOX 300","CAMBRIDGE","VT",5444,NA,NA,463,"PO BOX 300, CAMBRIDGE, VT, 5444","No_Match",NA,NA,NA,NA
982464,"PO BOX 300","CHADWICK","MO",65629,NA,NA,464,"PO BOX 300, CHADWICK, MO, 65629","No_Match",NA,NA,NA,NA
982465,"PO BOX 300","FRANCONIA","NH",3580,NA,NA,465,"PO BOX 300, FRANCONIA, NH, 3580","No_Match",NA,NA,NA,NA
982466,"PO BOX 300","MATEWAN","WV",25678,NA,NA,466,"PO BOX 300, MATEWAN, WV, 25678","No_Match",NA,NA,NA,NA
982467,"PO BOX 300","THOMSON","GA",30824,NA,NA,467,"PO BOX 300, THOMSON, GA, 30824","No_Match",NA,NA,NA,NA
982468,"PO BOX 300","WARRIOR","AL",35180,NA,NA,468,"PO BOX 300, WARRIOR, AL, 35180","No_Match",NA,NA,NA,NA
982469,"PO BOX 3000","INDIANAPOLIS","IN",46206,NA,NA,469,"PO BOX 3000, INDIANAPOLIS, IN, 46206","No_Match",NA,NA,NA,NA
982470,"PO BOX 30000","PHILADELPHIA","PA",19103,NA,NA,470,"PO BOX 30000, PHILADELPHIA, PA, 19103","No_Match",NA,NA,NA,NA
982471,"PO BOX 30005","ALBUQUERQUE","NM",87190,NA,NA,471,"PO BOX 30005, ALBUQUERQUE, NM, 87190","No_Match",NA,NA,NA,NA
982472,"PO BOX 300053","HOUSTON","TX",77230,NA,NA,472,"PO BOX 300053, HOUSTON, TX, 77230","No_Match",NA,NA,NA,NA
982473,"PO BOX 300055","KANSAS CITY","MO",64130,NA,NA,473,"PO BOX 300055, KANSAS CITY, MO, 64130","No_Match",NA,NA,NA,NA
982474,"PO BOX 3001","COTTONWOOD","AZ",86326,NA,NA,474,"PO BOX 3001, COTTONWOOD, AZ, 86326","No_Match",NA,NA,NA,NA
982475,"PO BOX 3001","FLORENCE","OR",97439,NA,NA,475,"PO BOX 3001, FLORENCE, OR, 97439","No_Match",NA,NA,NA,NA
982476,"PO BOX 30012","HOUSTON","TX",77230,NA,NA,476,"PO BOX 30012, HOUSTON, TX, 77230","No_Match",NA,NA,NA,NA
982477,"PO BOX 300124","ARLINGTON","TX",76007,NA,NA,477,"PO BOX 300124, ARLINGTON, TX, 76007","No_Match",NA,NA,NA,NA
982478,"PO BOX 300158","UNIVERSITY CITY","MO",63130,NA,NA,478,"PO BOX 300158, UNIVERSITY CITY, MO, 63130","No_Match",NA,NA,NA,NA
982479,"PO BOX 30016 1252 TAMU","COLLEGE STATION","TX",77842,NA,NA,479,"PO BOX 30016 1252 TAMU, COLLEGE STATION, TX, 77842","No_Match",NA,NA,NA,NA
982480,"PO BOX 30016","COLLEGE STATION","TX",77842,NA,NA,480,"PO BOX 30016, COLLEGE STATION, TX, 77842","No_Match",NA,NA,NA,NA
982481,"PO BOX 3002","NAMPA","ID",83653,NA,NA,481,"PO BOX 3002, NAMPA, ID, 83653","No_Match",NA,NA,NA,NA
982482,"PO BOX 3002","OKLAHOMA CITY","OK",73101,NA,NA,482,"PO BOX 3002, OKLAHOMA CITY, OK, 73101","No_Match",NA,NA,NA,NA
982483,"PO BOX 3002","RAMONA","CA",92065,NA,NA,483,"PO BOX 3002, RAMONA, CA, 92065","No_Match",NA,NA,NA,NA
982484,"PO BOX 30020","CROMBERG","CA",96103,NA,NA,484,"PO BOX 30020, CROMBERG, CA, 96103","No_Match",NA,NA,NA,NA
982485,"PO BOX 300265","MIDWEST CITY","OK",73140,NA,NA,485,"PO BOX 300265, MIDWEST CITY, OK, 73140","No_Match",NA,NA,NA,NA
982486,"PO BOX 300266","HOUSTON","TX",77230,NA,NA,486,"PO BOX 300266, HOUSTON, TX, 77230","No_Match",NA,NA,NA,NA
982487,"PO BOX 3003","PALMER","AK",99654,NA,NA,487,"PO BOX 3003, PALMER, AK, 99654","No_Match",NA,NA,NA,NA
982488,"PO BOX 3003","TERRE HAUTE","IN",47803,NA,NA,488,"PO BOX 3003, TERRE HAUTE, IN, 47803","No_Match",NA,NA,NA,NA
982489,"PO BOX 300310","UNIVERSITY CITY","MO",63130,NA,NA,489,"PO BOX 300310, UNIVERSITY CITY, MO, 63130","No_Match",NA,NA,NA,NA
982490,"PO BOX 300406","ST.LOUIS","MO",63130,NA,NA,490,"PO BOX 300406, ST.LOUIS, MO, 63130","No_Match",NA,NA,NA,NA
982491,"PO BOX 30042","GAHANNA","OH",43230,NA,NA,491,"PO BOX 30042, GAHANNA, OH, 43230","No_Match",NA,NA,NA,NA
982492,"PO BOX 300451","ESCONDIDO","CA",92030,NA,NA,492,"PO BOX 300451, ESCONDIDO, CA, 92030","No_Match",NA,NA,NA,NA
982493,"PO BOX 300473","ESCONDIDO","CA",92030,NA,NA,493,"PO BOX 300473, ESCONDIDO, CA, 92030","No_Match",NA,NA,NA,NA
982494,"PO BOX 300491","AUSTIN","TX",78703,NA,NA,494,"PO BOX 300491, AUSTIN, TX, 78703","No_Match",NA,NA,NA,NA
982495,"PO BOX 3005","GREENWOOD VILLAGE","CO",80155,NA,NA,495,"PO BOX 3005, GREENWOOD VILLAGE, CO, 80155","No_Match",NA,NA,NA,NA
982496,"PO BOX 3005","MCKEESPORT","PA",15134,NA,NA,496,"PO BOX 3005, MCKEESPORT, PA, 15134","No_Match",NA,NA,NA,NA
982497,"PO BOX 30051","WILMINGTON","DE",19805,NA,NA,497,"PO BOX 30051, WILMINGTON, DE, 19805","No_Match",NA,NA,NA,NA
982498,"PO BOX 30053","MESA","AZ",85275,NA,NA,498,"PO BOX 30053, MESA, AZ, 85275","No_Match",NA,NA,NA,NA
982499,"PO BOX 30054","SAVANNAH","GA",31410,NA,NA,499,"PO BOX 30054, SAVANNAH, GA, 31410","No_Match",NA,NA,NA,NA
982500,"PO BOX 30057","DES MOINES","IA",50310,NA,NA,500,"PO BOX 30057, DES MOINES, IA, 50310","No_Match",NA,NA,NA,NA
