"ID","Address","City","State","Zip","lat","long","id","input_address","match_indicator","match_type","matched_address","tiger_line_id","tiger_side"
27001,"103 DRURY LANE","MAULDIN","SC",29662,34.7774341050001,-82.302691156,1,"103 DRURY LANE, MAULDIN, SC, 29662","Match","Exact","103 DRURY LN, MAULDIN, SC, 29662",38311754,"L"
27002,"103 DUBLIN CT","SLIDELL","LA",70461,30.292926231,-89.7326973849999,2,"103 DUBLIN CT, SLIDELL, LA, 70461","Match","Exact","103 DUBLIN CT, SLIDELL, LA, 70461",111270581,"R"
27003,"103 DUKE STREET","HARRISONBURG","LA",71340,31.7683585350001,-91.8201942439999,3,"103 DUKE STREET, HARRISONBURG, LA, 71340","Match","Exact","103 DUKE ST, HARRISONBURG, LA, 71340",118965069,"R"
27004,"103 DUMONT COURT","FAIRVIEW","NC",28730,35.522515766,-82.426125978,4,"103 DUMONT COURT, FAIRVIEW, NC, 28730","Match","Exact","103 DUMONT CT, FAIRVIEW, NC, 28730",36886499,"R"
27005,"103 DUNCAN TRAIL","LONGWOOD","FL",32779,28.697034778,-81.452132917,5,"103 DUNCAN TRAIL, LONGWOOD, FL, 32779","Match","Exact","103 DUNCAN TRL, LONGWOOD, FL, 32779",93734350,"L"
27006,"103 DUNN STREET","SCIENCE HILL","KY",42553,37.171303494,-84.6379090189999,6,"103 DUNN STREET, SCIENCE HILL, KY, 42553","Match","Exact","103 DUNN ST, SCIENCE HILL, KY, 42553",39074130,"L"
27007,"103 DURANGO RD","DESTIN","FL",32541,30.3867073160001,-86.499584198,7,"103 DURANGO RD, DESTIN, FL, 32541","Match","Exact","103 DURANGO RD, DESTIN, FL, 32541",74417881,"R"
27008,"103 DUSTY LANE","LINN","MO",65051,38.444605122,-91.8305092849999,8,"103 DUSTY LANE, LINN, MO, 65051","Match","Exact","103 DUSTY LN, LINN, MO, 65051",604889160,"L"
27009,"103 DUTCHER ST","HOPEDALE","MA",1747,42.137115072,-71.54507911,9,"103 DUTCHER ST, HOPEDALE, MA, 1747","Match","Exact","103 DUTCHER ST, HOPEDALE, MA, 01747",40038350,"L"
27010,"103 DUVAL DRIVE","OPP","AL",36467,31.276153987,-86.241824261,10,"103 DUVAL DRIVE, OPP, AL, 36467","Match","Exact","103 DUVAL DR, OPP, AL, 36467",1855992,"R"
27011,"103 E 10TH ST","OGALLALA","NE",69153,41.132815905,-101.720609391,11,"103 E 10TH ST, OGALLALA, NE, 69153","Match","Exact","103 E 10TH ST, OGALLALA, NE, 69153",150951747,"L"
27012,"103 E 10TH","SMACKOVER","AR",71762,33.361624159,-92.72573815,12,"103 E 10TH, SMACKOVER, AR, 71762","Match","Non_Exact","103 E 10TH ST, SMACKOVER, AR, 71762",28154400,"L"
27013,"103 E 127TH ST APT 5A","NEW YORK","NY",10027,40.8091949700001,-73.9448087599999,13,"103 E 127TH ST APT 5A, NEW YORK, NY, 10027","Match","Non_Exact","103 W 127TH ST, NEW YORK, NY, 10027",59656189,"R"
27014,"103 E 17TH ST","GEORGETOWN","TX",78626,30.629196403,-97.676822757,14,"103 E 17TH ST, GEORGETOWN, TX, 78626","Match","Exact","103 E 17TH ST, GEORGETOWN, TX, 78626",126416751,"L"
27015,"103 E 30TH ST BLDG 2B","AUSTIN","TX",78705,NA,NA,15,"103 E 30TH ST BLDG 2B, AUSTIN, TX, 78705","Tie",NA,NA,NA,NA
27016,"103 E 30TH ST","AUSTIN","TX",78705,30.294198045,-97.73737834,16,"103 E 30TH ST, AUSTIN, TX, 78705","Match","Exact","103 E 30TH ST, AUSTIN, TX, 78705",63945683,"R"
27017,"103 E 3RD ST 201","ARLINGTON","WA",98223,48.1948922390001,-122.127375088,17,"103 E 3RD ST 201, ARLINGTON, WA, 98223","Match","Non_Exact","103 E 3RD ST, ARLINGTON, WA, 98223",647657920,"L"
27018,"103 E 89TH ST","CHICAGO","IL",60619,41.732748218,-87.620354054,18,"103 E 89TH ST, CHICAGO, IL, 60619","Match","Exact","103 E 89TH ST, CHICAGO, IL, 60619",605519521,"R"
27019,"103 E ASH","DEMING","NM",88030,32.262543685,-107.757584986,19,"103 E ASH, DEMING, NM, 88030","Match","Non_Exact","103 E ASH ST, DEMING, NM, 88030",201340372,"L"
27020,"103 E BEACON DR","SARATOGA SPRINGS","UT",84045,40.2916367080001,-111.876007161,20,"103 E BEACON DR, SARATOGA SPRINGS, UT, 84045","Match","Exact","103 E BEACON DR, SARATOGA SPRINGS, UT, 84045",629679398,"L"
27021,"103 E BEECH AVE","FERGUS FALLS","MN",56537,46.2930418600001,-96.074247132,21,"103 E BEECH AVE, FERGUS FALLS, MN, 56537","Match","Exact","103 E BEECH AVE, FERGUS FALLS, MN, 56537",168288542,"R"
27022,"103 E BROADWAY ST APT A","BUTTE","MT",59701,NA,NA,22,"103 E BROADWAY ST APT A, BUTTE, MT, 59701","Tie",NA,NA,NA,NA
27023,"103 E BROOKWOOD DR","CLEMSON","SC",29631,NA,NA,23,"103 E BROOKWOOD DR, CLEMSON, SC, 29631","Tie",NA,NA,NA,NA
27024,"103 E CALDERWOOD DRIVE SUITE 100","MERIDIAN","ID",83642,NA,NA,24,"103 E CALDERWOOD DRIVE SUITE 100, MERIDIAN, ID, 83642","No_Match",NA,NA,NA,NA
27025,"103 E CEDAR ST","ANAMOSA","IA",52205,42.1101644230001,-91.285379383,25,"103 E CEDAR ST, ANAMOSA, IA, 52205","Match","Exact","103 E CEDAR ST, ANAMOSA, IA, 52205",16524296,"L"
27026,"103 E CHURCH ST","LEXINGTON","GA",30648,33.870656819,-83.110117883,26,"103 E CHURCH ST, LEXINGTON, GA, 30648","Match","Exact","103 CHURCH ST, LEXINGTON, GA, 30648",5054889,"L"
27027,"103 E COMMERCE ST","MEXIA","TX",76667,31.6810497650001,-96.4847183689999,27,"103 E COMMERCE ST, MEXIA, TX, 76667","Match","Exact","103 E COMMERCE ST, MEXIA, TX, 76667",25049268,"L"
27028,"103 E COMMERCE","MEXIA","TX",76667,31.6810497650001,-96.4847183689999,28,"103 E COMMERCE, MEXIA, TX, 76667","Match","Non_Exact","103 E COMMERCE ST, MEXIA, TX, 76667",25049268,"L"
27029,"103 E CONKLIN AVE","NEDROW","NY",13120,42.971930232,-76.140411968,29,"103 E CONKLIN AVE, NEDROW, NY, 13120","Match","Exact","103 E CONKLIN AVE, NEDROW, NY, 13120",46577649,"L"
27030,"103 E DOZIER ST","MARION","SC",29571,34.1793631890001,-79.4000332689999,30,"103 E DOZIER ST, MARION, SC, 29571","Match","Exact","103 E DOZIER ST, MARION, SC, 29571",28773197,"R"
27031,"103 E EDGEWOOD BLVD APT C","LANSING","MI",48911,42.6622405360001,-84.5505570239999,31,"103 E EDGEWOOD BLVD APT C, LANSING, MI, 48911","Match","Exact","103 EDGEWOOD BLVD, LANSING, MI, 48911",17529357,"R"
27032,"103 E ELMIRA PLACE","BROKEN ARROW","OK",74012,36.0785623990001,-95.7876162219999,32,"103 E ELMIRA PLACE, BROKEN ARROW, OK, 74012","Match","Exact","103 E ELMIRA PL, BROKEN ARROW, OK, 74012",617314700,"R"
27033,"103 E GREEN STREET","WESTMINSTER","MD",21157,39.5720741490001,-76.9949062489999,33,"103 E GREEN STREET, WESTMINSTER, MD, 21157","Match","Exact","103 E GREEN ST, WESTMINSTER, MD, 21157",61752878,"L"
27034,"103 E GREENE STREET","WESTMINSTER","MD",21157,39.5720741490001,-76.9949062489999,34,"103 E GREENE STREET, WESTMINSTER, MD, 21157","Match","Non_Exact","103 E GREEN ST, WESTMINSTER, MD, 21157",61752878,"L"
27035,"103 E HAMILTON ST","SHERIDAN","MT",59749,45.4555929380001,-112.196955765,35,"103 E HAMILTON ST, SHERIDAN, MT, 59749","Match","Exact","103 E HAMILTON ST, SHERIDAN, MT, 59749",163613071,"L"
27036,"103 E HART","SAN ANTONIO","TX",78214,29.3783556010001,-98.499850507,36,"103 E HART, SAN ANTONIO, TX, 78214","Match","Non_Exact","103 E HART AVE, SAN ANTONIO, TX, 78214",101532727,"L"
27037,"103 E HOMESTEAD STREET","BASALT","CO",81621,NA,NA,37,"103 E HOMESTEAD STREET, BASALT, CO, 81621","Tie",NA,NA,NA,NA
27038,"103 E JONATHAN AVE","TONASKET","WA",98855,NA,NA,38,"103 E JONATHAN AVE, TONASKET, WA, 98855","No_Match",NA,NA,NA,NA
27039,"103 E LAUREL OAK DR","EUSTIS","FL",32726,28.863862344,-81.684656795,39,"103 E LAUREL OAK DR, EUSTIS, FL, 32726","Match","Exact","103 E LAUREL OAK DR, EUSTIS, FL, 32726",645463476,"L"
27040,"103 E LINCOLN ST","MOUNT HOREB","WI",53572,43.0069356450001,-89.739609044,40,"103 E LINCOLN ST, MOUNT HOREB, WI, 53572","Match","Exact","103 E LINCOLN ST, MOUNT HOREB, WI, 53572",49528755,"R"
27041,"103 E MAIN ST","DENMARK","WI",54208,44.3476926760001,-87.829876874,41,"103 E MAIN ST, DENMARK, WI, 54208","Match","Exact","103 MAIN ST, DENMARK, WI, 54208",640616872,"R"
27042,"103 E MAIN ST","ODON","IN",47562,38.842653526,-86.991092028,42,"103 E MAIN ST, ODON, IN, 47562","Match","Exact","103 E MAIN ST, ODON, IN, 47562",32065044,"L"
27043,"103 E MAIN ST","WAVERLY","TN",37185,36.0831766490001,-87.79386084,43,"103 E MAIN ST, WAVERLY, TN, 37185","Match","Exact","103 E MAIN ST, WAVERLY, TN, 37185",19872843,"R"
27044,"103 E MAIN STREET","NEW IBERIA","LA",70560,30.005872697,-91.818254547,44,"103 E MAIN STREET, NEW IBERIA, LA, 70560","Match","Exact","103 E MAIN ST, NEW IBERIA, LA, 70560",85361662,"R"
27045,"103 E MAIN","IDABEL","OK",74745,33.8955310860001,-94.8265842179999,45,"103 E MAIN, IDABEL, OK, 74745","Match","Non_Exact","103 E MAIN ST, IDABEL, OK, 74745",68709957,"L"
27046,"103 E MAPLE ST","EDGEWOOD","IA",52042,42.639860502,-91.401028777,46,"103 E MAPLE ST, EDGEWOOD, IA, 52042","Match","Exact","103 E MAPLE ST, EDGEWOOD, IA, 52042",16857239,"L"
27047,"103 E MARQUIS AVENUE","MOSES LAKE","WA",98837,47.1116531060001,-119.276823942,47,"103 E MARQUIS AVENUE, MOSES LAKE, WA, 98837","Match","Exact","103 E MARQUIS AVE, MOSES LAKE, WA, 98837",157096672,"L"
27048,"103 E MCKINLEY ST","STOUGHTON","WI",53589,42.921488724,-89.220697903,48,"103 E MCKINLEY ST, STOUGHTON, WI, 53589","Match","Exact","103 E MCKINLEY ST, STOUGHTON, WI, 53589",49481691,"L"
27049,"103 E MICHIGAN AVE","MARSHALL","MI",49068,42.272050861,-84.958598341,49,"103 E MICHIGAN AVE, MARSHALL, MI, 49068","Match","Exact","103 E MICHIGAN AVE, MARSHALL, MI, 49068",11705613,"R"
27050,"103 E NORTH ST","STAUNTON","IL",62088,39.0131523540001,-89.787173589,50,"103 E NORTH ST, STAUNTON, IL, 62088","Match","Exact","103 E NORTH ST, STAUNTON, IL, 62088",97921062,"L"
27051,"103 E PARKWAY","CLEVELAND","MS",38732,33.7459438610001,-90.703824965,51,"103 E PARKWAY, CLEVELAND, MS, 38732","Match","Non_Exact","103 PARKWAY AVE, CLEVELAND, MS, 38732",843053,"R"
27052,"103 E SAN JOAQUIN ST","FRESNO","CA",93706,36.7328319210001,-119.811352976,52,"103 E SAN JOAQUIN ST, FRESNO, CA, 93706","Match","Exact","103 E SAN JOAQUIN ST, FRESNO, CA, 93706",197570935,"L"
27053,"103 E SOUTH ST","OREANA","IL",62555,39.937457696,-88.865120565,53,"103 E SOUTH ST, OREANA, IL, 62555","Match","Non_Exact","103 E SOUTH ST, OREANA, IL, 62554",20750634,"R"
27054,"103 E SPOKANE FALLS BLVD","SPOKANE","WA",99202,NA,NA,54,"103 E SPOKANE FALLS BLVD, SPOKANE, WA, 99202","No_Match",NA,NA,NA,NA
27055,"103 E STATE STE 800","MASON CITY","IA",50401,NA,NA,55,"103 E STATE STE 800, MASON CITY, IA, 50401","No_Match",NA,NA,NA,NA
27056,"103 E THIRD ST","LELAND","MS",38756,33.4057223120001,-90.8987712429999,56,"103 E THIRD ST, LELAND, MS, 38756","Match","Exact","103 E 3RD ST, LELAND, MS, 38756",1159395,"R"
27057,"103 E VIRGINIA STREET SUITE 202","MCKINNEY","TX",75069,NA,NA,57,"103 E VIRGINIA STREET SUITE 202, MCKINNEY, TX, 75069","Tie",NA,NA,NA,NA
27058,"103 E WARD AVE","EUSTIS","FL",32726,28.849233864,-81.6844700349999,58,"103 E WARD AVE, EUSTIS, FL, 32726","Match","Exact","103 E WARD AVE, EUSTIS, FL, 32726",94111181,"R"
27059,"103 E WATER STREET SUITE 203","SYRACUSE","NY",13202,NA,NA,59,"103 E WATER STREET SUITE 203, SYRACUSE, NY, 13202","Tie",NA,NA,NA,NA
27060,"103 EADS STREET","PITTSBURGH","PA",15210,40.4124421660001,-79.968385755,60,"103 EADS STREET, PITTSBURGH, PA, 15210","Match","Exact","103 EADS ST, PITTSBURGH, PA, 15210",51649605,"L"
27061,"103 EADS STREET","PITTSBURGH","PA",28677,40.4124421660001,-79.968385755,61,"103 EADS STREET, PITTSBURGH, PA, 28677","Match","Non_Exact","103 EADS ST, PITTSBURGH, PA, 15210",51649605,"L"
27062,"103 EAGLE COURT","JAMISON","PA",18929,40.2697353830001,-75.0843167529999,62,"103 EAGLE COURT, JAMISON, PA, 18929","Match","Exact","103 EAGLE CT, JAMISON, PA, 18929",134759049,"L"
27063,"103 EAGLE DRIVE","FAYETTEVILLE","TN",37334,35.1683850200001,-86.555695978,63,"103 EAGLE DRIVE, FAYETTEVILLE, TN, 37334","Match","Exact","103 EAGLE DR, FAYETTEVILLE, TN, 37334",631803520,"R"
27064,"103 EAST 18 STREET","SAN JUAN","TX",78589,26.1742053130001,-98.157266372,64,"103 EAST 18 STREET, SAN JUAN, TX, 78589","Match","Non_Exact","103 18TH ST, SAN JUAN, TX, 78589",71552829,"R"
27065,"103 EAST 18TH STREET","SAN JUAN","TX",78589,26.1742053130001,-98.157266372,65,"103 EAST 18TH STREET, SAN JUAN, TX, 78589","Match","Non_Exact","103 18TH ST, SAN JUAN, TX, 78589",71552829,"R"
27066,"103 EAST 3RD","SWEETWATER","TX",79556,32.4710375000001,-100.408904078,66,"103 EAST 3RD, SWEETWATER, TX, 79556","Match","Non_Exact","103 E 3RD ST, SWEETWATER, TX, 79556",186308170,"L"
27067,"103 EAST 4TH STREET","TILTON","IL",61833,40.1025498330001,-87.6492312249999,67,"103 EAST 4TH STREET, TILTON, IL, 61833","Match","Exact","103 E 4TH ST, TILTON, IL, 61833",65999147,"L"
27068,"103 EAST 7TH AVENUE","SOUTH HUTCHINSON","KS",67505,38.036390026,-97.938513067,68,"103 EAST 7TH AVENUE, SOUTH HUTCHINSON, KS, 67505","Match","Exact","103 E 7TH AVE, S HUTCHINSON, KS, 67505",142935294,"L"
27069,"103 EAST ARCH STREET APT 4","MARQUETTE","MI",49855,46.5461696410001,-87.3920535679999,69,"103 EAST ARCH STREET APT 4, MARQUETTE, MI, 49855","Match","Exact","103 E ARCH ST, MARQUETTE, MI, 49855",182034818,"R"
27070,"103 EAST BLUE MEADOW","PANGUITCH","UT",84759,NA,NA,70,"103 EAST BLUE MEADOW, PANGUITCH, UT, 84759","No_Match",NA,NA,NA,NA
27071,"103 EAST BRANDON ROAD","COLUMBIA","MO",65203,38.938908256,-92.3377399669999,71,"103 EAST BRANDON ROAD, COLUMBIA, MO, 65203","Match","Exact","103 E BRANDON RD, COLUMBIA, MO, 65203",23481089,"L"
27072,"103 EAST COLLEGE","RAPID CITY","SD",57701,44.0948366850001,-103.211461124,72,"103 EAST COLLEGE, RAPID CITY, SD, 57701","Match","Non_Exact","103 E COLLEGE AVE, RAPID CITY, SD, 57701",205509330,"R"
27073,"103 EAST COLONIAL STREET","PHILADELPHIA","PA",19120,40.046976124,-75.1187567919999,73,"103 EAST COLONIAL STREET, PHILADELPHIA, PA, 19120","Match","Exact","103 E COLONIAL ST, PHILADELPHIA, PA, 19120",131414486,"L"
27074,"103 EAST DOZIER STREET","MARION","SC",29571,34.179366972,-79.400109872,74,"103 EAST DOZIER STREET, MARION, SC, 29571","Match","Exact","103 E DOZIER ST, MARION, SC, 29571",28773197,"R"
27075,"103 EAST GAY STREET","CHARLESTON","MS",38921,34.008169916,-90.056813564,75,"103 EAST GAY STREET, CHARLESTON, MS, 38921","Match","Exact","103 E GAY ST, CHARLESTON, MS, 38921",1105527,"L"
27076,"103 EAST HAMILTON AVENUE","STATE COLLEGE","PA",16801,40.790124615,-77.85404735,76,"103 EAST HAMILTON AVENUE, STATE COLLEGE, PA, 16801","Match","Exact","103 E HAMILTON AVE, STATE COLLEGE, PA, 16801",50398632,"L"
27077,"103 EAST HAZELDELL AVE","NEW CASTLE","DE",19720,39.7081442410001,-75.564576904,77,"103 EAST HAZELDELL AVE, NEW CASTLE, DE, 19720","Match","Exact","103 E HAZELDELL AVE, NEW CASTLE, DE, 19720",187269646,"L"
27078,"103 EAST HIGH STREET","CALEDONIA","MN",55921,43.6380251850001,-91.4968595,78,"103 EAST HIGH STREET, CALEDONIA, MN, 55921","Match","Exact","103 E HIGH ST, CALEDONIA, MN, 55921",55795100,"L"
27079,"103 EAST HILLS TERRACE","DICKSON","TN",37055,36.0726056230001,-87.3677033659999,79,"103 EAST HILLS TERRACE, DICKSON, TN, 37055","Match","Exact","103 E HILLS TER, DICKSON, TN, 37055",72756719,"R"
27080,"103 EAST IOWA","BERTHOUD","CO",80513,NA,NA,80,"103 EAST IOWA, BERTHOUD, CO, 80513","No_Match",NA,NA,NA,NA
27081,"103 EAST MERMAID LANE","PHILADELPHIA","PA",19118,40.0692203140001,-75.195762837,81,"103 EAST MERMAID LANE, PHILADELPHIA, PA, 19118","Match","Exact","103 E MERMAID LN, PHILADELPHIA, PA, 19118",636466489,"L"
27082,"103 EAST OAK STREET","ROACHDALE","IN",46172,39.842557082,-86.799579729,82,"103 EAST OAK STREET, ROACHDALE, IN, 46172","Match","Non_Exact","103 OAK ST, ROACHDALE, IN, 46172",50109978,"R"
27083,"103 EAST PLEASANT AVE","COVINGTON","TN",38019,35.5637586510001,-89.646048321,83,"103 EAST PLEASANT AVE, COVINGTON, TN, 38019","Match","Exact","103 E PLEASANT AVE, COVINGTON, TN, 38019",73162573,"L"
27084,"103 EAST RACE","MECHANICSBURG","OH",43044,40.0743916220001,-83.555937006,84,"103 EAST RACE, MECHANICSBURG, OH, 43044","Match","Non_Exact","103 E RACE ST, MECHANICSBURG, OH, 43044",606307547,"R"
27085,"103 EAST SUTTON PLACE UNIT D","WAUKESKA","WI",53188,NA,NA,85,"103 EAST SUTTON PLACE UNIT D, WAUKESKA, WI, 53188","No_Match",NA,NA,NA,NA
27086,"103 EAST TAYLOR STREET","PETERSBURG","IL",62675,40.013894061,-89.849606255,86,"103 EAST TAYLOR STREET, PETERSBURG, IL, 62675","Match","Exact","103 E TAYLOR ST, PETERSBURG, IL, 62675",53274311,"L"
27087,"103 EAST WATER STREET","CHARLOTTESVILLE","VA",22902,NA,NA,87,"103 EAST WATER STREET, CHARLOTTESVILLE, VA, 22902","No_Match",NA,NA,NA,NA
27088,"103 EAST WELLS STREET","BALTIMORE","MD",21230,39.2685936450001,-76.60935324,88,"103 EAST WELLS STREET, BALTIMORE, MD, 21230","Match","Exact","103 E WELLS ST, BALTIMORE, MD, 21230",206422714,"R"
27089,"103 EASTCHASE COURT","MORRISVILLE","NC",27560,35.8106062480001,-78.831285512,89,"103 EASTCHASE COURT, MORRISVILLE, NC, 27560","Match","Exact","103 EASTCHASE CT, MORRISVILLE, NC, 27560",72564691,"L"
27090,"103 EASTMAN ESTATES","ROCHESTER","NY",14622,43.215917028,-77.574409986,90,"103 EASTMAN ESTATES, ROCHESTER, NY, 14622","Match","Exact","103 EASTMAN ESTS, ROCHESTER, NY, 14622",14555481,"L"
27091,"103 EDELEN AVE","LOS CATOS","CA",95030,37.2235868590001,-121.980713793,91,"103 EDELEN AVE, LOS CATOS, CA, 95030","Match","Non_Exact","103 EDELEN AVE, LOS GATOS, CA, 95030",122944066,"L"
27092,"103 EDGEWATER","DEXTER","NM",88230,33.197330836,-104.358064936,92,"103 EDGEWATER, DEXTER, NM, 88230","Match","Non_Exact","103 EDGEWATER CIR, DEXTER, NM, 88230",131780337,"L"
27093,"103 EDGEWOOD DRIVE","GREENEVILLE","TN",37743,36.1580371740001,-82.806395761,93,"103 EDGEWOOD DRIVE, GREENEVILLE, TN, 37743","Match","Exact","103 EDGEWOOD DR, GREENEVILLE, TN, 37743",127754010,"R"
27094,"103 EDGEWOOD RD","WILMINGTON","DE",19803,39.771286376,-75.5472693519999,94,"103 EDGEWOOD RD, WILMINGTON, DE, 19803","Match","Exact","103 EDGEWOOD RD, WILMINGTON, DE, 19803",187256783,"R"
27095,"103 EDWARDS ST","SUMTER","SC",29150,33.9172152040001,-80.353053358,95,"103 EDWARDS ST, SUMTER, SC, 29150","Match","Exact","103 EDWARDS ST, SUMTER, SC, 29150",202669653,"R"
27096,"103 EDWARDS STREET","JOLIET","IL",60436,NA,NA,96,"103 EDWARDS STREET, JOLIET, IL, 60436","No_Match",NA,NA,NA,NA
27097,"103 EL TORNEO COURT","MONTEREY","CA",93940,36.5753925450001,-121.773519385,97,"103 EL TORNEO COURT, MONTEREY, CA, 93940","Match","Exact","103 EL TORNEO CT, MONTEREY, CA, 93940",196862274,"L"
27098,"103 ELBRIDGE ROAD","NEW BRITAIN","CT",6052,41.656318764,-72.802496795,98,"103 ELBRIDGE ROAD, NEW BRITAIN, CT, 6052","Match","Exact","103 ELBRIDGE RD, NEW BRITAIN, CT, 06052",3510552,"R"
27099,"103 ELBRISDGE ROAD","NEW BRITAIN","CT",6052,NA,NA,99,"103 ELBRISDGE ROAD, NEW BRITAIN, CT, 6052","No_Match",NA,NA,NA,NA
27100,"103 ELITE DRIVE","TIJERAS","NM",87059,35.1217317640001,-106.29883956,100,"103 ELITE DRIVE, TIJERAS, NM, 87059","Match","Exact","103 ELITE DR, TIJERAS, NM, 87059",206751006,"R"
27101,"103 ELIZABETH AVE","ISELIN","NJ",8830,40.5698424330001,-74.3128915039999,101,"103 ELIZABETH AVE, ISELIN, NJ, 8830","Match","Exact","103 ELIZABETH AVE, ISELIN, NJ, 08830",60274127,"R"
27102,"103 ELIZABETH DRIVE","TIPTON","IA",52772,41.7808098630001,-91.125337472,102,"103 ELIZABETH DRIVE, TIPTON, IA, 52772","Match","Exact","103 ELIZABETH DR, TIPTON, IA, 52772",16709967,"L"
27103,"103 ELM STREET","SAUGERTIES","NY",12477,42.0825072430001,-73.956218835,103,"103 ELM STREET, SAUGERTIES, NY, 12477","Match","Exact","103 ELM ST, SAUGERTIES, NY, 12477",41878703,"L"
27104,"103 ELMER CORNER ROAD","WAYNESBURG","KY",40489,NA,NA,104,"103 ELMER CORNER ROAD, WAYNESBURG, KY, 40489","No_Match",NA,NA,NA,NA
27105,"103 ELMWAY","LOYALL","KY",40854,NA,NA,105,"103 ELMWAY, LOYALL, KY, 40854","No_Match",NA,NA,NA,NA
27106,"103 EMERALD RIDGE DR","BEAR","DE",19701,39.5982716930001,-75.666459318,106,"103 EMERALD RIDGE DR, BEAR, DE, 19701","Match","Exact","103 EMERALD RIDGE DR, BEAR, DE, 19701",187297078,"R"
27107,"103 EMERALD RIDGE DRIVE","BEAR","DE",19701,39.5982716930001,-75.666459318,107,"103 EMERALD RIDGE DRIVE, BEAR, DE, 19701","Match","Exact","103 EMERALD RIDGE DR, BEAR, DE, 19701",187297078,"R"
27108,"103 ENCLAVE CIR -  UNIT A","BOWLINGBROOK","IL",60440,41.701432927,-88.065650929,108,"103 ENCLAVE CIR -  UNIT A, BOWLINGBROOK, IL, 60440","Match","Non_Exact","103 ENCLAVE CIR, BOLINGBROOK, IL, 60440",111624006,"L"
27109,"103 ENNIS AVE","BEDFORD","OH",44146,41.397734315,-81.532829265,109,"103 ENNIS AVE, BEDFORD, OH, 44146","Match","Exact","103 ENNIS AVE, BEDFORD, OH, 44146",61130256,"L"
27110,"103 ENTERPRISE BLVD","LAKE CHARLES","LA",70601,30.2386571540001,-93.204296198,110,"103 ENTERPRISE BLVD, LAKE CHARLES, LA, 70601","Match","Non_Exact","103 N ENTERPRISE BLVD, LAKE CHARLES, LA, 70601",88435740,"L"
27111,"103 ESCANYO DRIVE","SOUTH SAN FRANCISCO","CA",94080,37.650104551,-122.446386701,111,"103 ESCANYO DRIVE, SOUTH SAN FRANCISCO, CA, 94080","Match","Exact","103 ESCANYO DR, S SAN FRAN, CA, 94080",192371551,"L"
27112,"103 ESSEX STREET","BANGOR","ME",4401,44.805100811,-68.765951898,112,"103 ESSEX STREET, BANGOR, ME, 4401","Match","Exact","103 ESSEX ST, BANGOR, ME, 04401",123628595,"R"
27113,"103 ESTATES DRIVE","SANTA CRUZ","CA",95060,36.977988931,-122.038660651,113,"103 ESTATES DRIVE, SANTA CRUZ, CA, 95060","Match","Exact","103 ESTATES DR, SANTA CRUZ, CA, 95060",125505445,"L"
27114,"103 ESTUARY TRAIL","ALPHARETTA","GA",30005,34.10844996,-84.2267698859999,114,"103 ESTUARY TRAIL, ALPHARETTA, GA, 30005","Match","Exact","103 ESTUARY TRL, ALPHARETTA, GA, 30005",646213403,"R"
27115,"103 EUDORA WELTY DR  APT I-7","STARKVILLE","MS",39759,33.4574050740001,-88.8489891579999,115,"103 EUDORA WELTY DR  APT I-7, STARKVILLE, MS, 39759","Match","Exact","103 EUDORA WELTY DR, STARKVILLE, MS, 39759",607235320,"R"
27116,"103 EVERGREEN AVE","WOODLYNNE","NJ",8107,39.920437534,-75.092995813,116,"103 EVERGREEN AVE, WOODLYNNE, NJ, 8107","Match","Exact","103 EVERGREEN AVE, WOODLYNNE, NJ, 08107",134348206,"R"
27117,"103 EVERGREEN ROAD","CROMWELL","CT",6416,41.611155142,-72.673746783,117,"103 EVERGREEN ROAD, CROMWELL, CT, 6416","Match","Exact","103 EVERGREEN RD, CROMWELL, CT, 06416",113892325,"R"
27118,"103 F RIVERSTONE CT","EASLEY","SC",29640,34.8460730040001,-82.606268348,118,"103 F RIVERSTONE CT, EASLEY, SC, 29640","Match","Exact","103 RIVERSTONE CT, EASLEY, SC, 29640",26195493,"L"
27119,"103 FAIRFAX DRIVE","PENSACOLA","FL",32503,30.451633422,-87.2137824179999,119,"103 FAIRFAX DRIVE, PENSACOLA, FL, 32503","Match","Exact","103 FAIRFAX DR, PENSACOLA, FL, 32503",93220422,"L"
27120,"103 FAIRLANE AVENUE","FAIRMONT","WV",26554,39.4712702960001,-80.181873282,120,"103 FAIRLANE AVENUE, FAIRMONT, WV, 26554","Match","Exact","103 FAIRLANE AVE, FAIRMONT, WV, 26554",51434811,"R"
27121,"103 FAIRLANE DRIVE","BUTLER","PA",16001,40.8400184390001,-79.895654233,121,"103 FAIRLANE DRIVE, BUTLER, PA, 16001","Match","Exact","103 FAIRLANE DR, BUTLER, PA, 16001",52656508,"L"
27122,"103 FAIRVIEW STREET","HAZELHURST","MS",39083,31.8651168820001,-90.4008754,122,"103 FAIRVIEW STREET, HAZELHURST, MS, 39083","Match","Non_Exact","103 FAIRVIEW ST, HAZLEHURST, MS, 39083",64321051,"L"
27123,"103 FAIRWAY DR","PERKINS","OK",74059,35.987146378,-97.0336408919999,123,"103 FAIRWAY DR, PERKINS, OK, 74059","Match","Non_Exact","103 FAIRWAY CT, PERKINS, OK, 74059",166384882,"L"
27124,"103 FAIRWAY LANE","PITTSBURGH","PA",15238,40.5204792930001,-79.88178647,124,"103 FAIRWAY LANE, PITTSBURGH, PA, 15238","Match","Exact","103 FAIRWAY LN, PITTSBURGH, PA, 15238",51645761,"R"
27125,"103 FAIRWAYS BLVD","TULLAHOMA","TN",37388,NA,NA,125,"103 FAIRWAYS BLVD, TULLAHOMA, TN, 37388","Tie",NA,NA,NA,NA
27126,"103 FAIRWOOD DRIVE","SYRACUSE","NY",13219,43.0409933500001,-76.243628085,126,"103 FAIRWOOD DRIVE, SYRACUSE, NY, 13219","Match","Exact","103 FAIRWOOD DR, SYRACUSE, NY, 13219",46563953,"L"
27127,"103 FALKIRK DRIVE","COPPELL","TX",75019,32.9922792790001,-96.993581304,127,"103 FALKIRK DRIVE, COPPELL, TX, 75019","Match","Non_Exact","103 FALLKIRK DR, COPPELL, TX, 75019",103423551,"L"
27128,"103 FARMBROOK TRAIL","STOCKBRIDGE","GA",30281,33.605440796,-84.1954503169999,128,"103 FARMBROOK TRAIL, STOCKBRIDGE, GA, 30281","Match","Exact","103 FARMBROOK TRL, STOCKBRIDGE, GA, 30281",210411239,"L"
27129,"103 FAYETTE AVE","FAYETTEVILLE","WV",25840,NA,NA,129,"103 FAYETTE AVE, FAYETTEVILLE, WV, 25840","No_Match",NA,NA,NA,NA
27130,"103 FEATHER CATCHER","SANTA FE","NM",87506,35.869850264,-106.013195919,130,"103 FEATHER CATCHER, SANTA FE, NM, 87506","Match","Exact","103 FEATHER CATCHER, SANTA FE, NM, 87506",640067141,"R"
27131,"103 FELDSPAR LN","GREER","SC",29650,34.8931971640001,-82.2403440369999,131,"103 FELDSPAR LN, GREER, SC, 29650","Match","Exact","103 FELDSPAR LN, GREER, SC, 29650",624787600,"R"
27132,"103 FENSVIEW DRIVE","WESTWOOD","MA",2090,42.197759938,-71.235076385,132,"103 FENSVIEW DRIVE, WESTWOOD, MA, 2090","Match","Exact","103 FENSVIEW DR, WESTWOOD, MA, 02090",639002144,"R"
27133,"103 FERNWOOD CRESCENT","ROYAL PALM BEACH","FL",33411,26.687194537,-80.236430136,133,"103 FERNWOOD CRESCENT, ROYAL PALM BEACH, FL, 33411","Match","Exact","103 FERNWOOD CRES, ROYAL PALM BEACH, FL, 33411",115581367,"R"
27134,"103 FIELD POINT DRIVE","FAIRFIELD","CT",6824,41.12810375,-73.2661051489999,134,"103 FIELD POINT DRIVE, FAIRFIELD, CT, 6824","Match","Exact","103 FIELD POINT DR, FAIRFIELD, CT, 06824",635574335,"R"
27135,"103 FIELDCREST DR","RIDGEFIELD","CT",6877,41.2438176650001,-73.488614393,135,"103 FIELDCREST DR, RIDGEFIELD, CT, 6877","Match","Exact","103 FIELDCREST DR, RIDGEFIELD, CT, 06877",601764166,"R"
27136,"103 FIELDS COURT","LANDENBERG","PA",19350,39.77799308,-75.762084078,136,"103 FIELDS COURT, LANDENBERG, PA, 19350","Match","Exact","103 FIELDS CT, LANDENBERG, PA, 19350",179557806,"L"
27137,"103 FINCH LANE","SEAFORD","VA",23969,37.199885329,-76.437176242,137,"103 FINCH LANE, SEAFORD, VA, 23969","Match","Non_Exact","103 FINCH LN, SEAFORD, VA, 23696",103786855,"L"
27138,"103 FIRST STREET","MILLTOWN","NJ",8850,40.446095584,-74.436159988,138,"103 FIRST STREET, MILLTOWN, NJ, 8850","Match","Exact","103 1ST ST, MILLTOWN, NJ, 08850",60361179,"L"
27139,"103 FITZ COURT","REISTERSTOWN","MD",21136,39.4477768850001,-76.8088440669999,139,"103 FITZ COURT, REISTERSTOWN, MD, 21136","Match","Exact","103 FITZ CT, REISTERSTOWN, MD, 21136",191462654,"L"
27140,"103 FLORIDA AVENUE","GULF BREEZE","FL",32561,30.360793625,-87.179860219,140,"103 FLORIDA AVENUE, GULF BREEZE, FL, 32561","Match","Exact","103 FLORIDA AVE, GULF BREEZE, FL, 32561",74569137,"L"
27141,"103 FORD AVE","HATTIESBURG","MS",39402,31.3175528190001,-89.357217512,141,"103 FORD AVE, HATTIESBURG, MS, 39402","Match","Exact","103 FORD AVE, HATTIESBURG, MS, 39402",504300,"R"
27142,"103 FOREST EDGE DRIVE","PALOS PARK","IL",60464,41.667164331,-87.894496177,142,"103 FOREST EDGE DRIVE, PALOS PARK, IL, 60464","Match","Exact","103 FOREST EDGE DR, PALOS PARK, IL, 60464",616795360,"R"
27143,"103 FOREST GROVE S","PRINCETON","TX",75407,33.1871953470001,-96.533724122,143,"103 FOREST GROVE S, PRINCETON, TX, 75407","Match","Exact","103 FOREST GROVE S, PRINCETON, TX, 75407",210516147,"R"
27144,"103 FOREST PARK LN","RED OAK","TX",75154,32.5216157900001,-96.802371733,144,"103 FOREST PARK LN, RED OAK, TX, 75154","Match","Exact","103 FOREST PARK LN, RED OAK, TX, 75154",616590082,"L"
27145,"103 FOREST PLACE","MOORHEAD","MS",38761,33.448501766,-90.507208002,145,"103 FOREST PLACE, MOORHEAD, MS, 38761","Match","Exact","103 FOREST PL, MOORHEAD, MS, 38761",2722283,"L"
27146,"103 FORESTVIEW ROAD","LAKE DALLAS","TX",75065,33.125598611,-97.041068851,146,"103 FORESTVIEW ROAD, LAKE DALLAS, TX, 75065","Match","Exact","103 FORESTVIEW RD, LAKE DALLAS, TX, 75065",103404158,"L"
27147,"103 FORSYTHIA DRIVE N","LEVITTOWN","PA",19056,40.1608927560001,-74.884247171,147,"103 FORSYTHIA DRIVE N, LEVITTOWN, PA, 19056","Match","Exact","103 FORSYTHIA DR N, LEVITTOWN, PA, 19056",134713336,"L"
27148,"103 FOUNTAIN AVENUE","CRANSTON","RI",2920,41.7944841120001,-71.453805645,148,"103 FOUNTAIN AVENUE, CRANSTON, RI, 2920","Match","Exact","103 FOUNTAIN AVE, CRANSTON, RI, 02920",47492613,"R"
27149,"103 FOUNTAIN VALLEY CT","LONGVIEW","TX",75605,32.526890703,-94.758789324,149,"103 FOUNTAIN VALLEY CT, LONGVIEW, TX, 75605","Match","Exact","103 FOUNTAIN VALLEY CT, LONGVIEW, TX, 75605",141116651,"L"
27150,"103 FOUNTAINVIEW DRIVE","SAINT CHARLES","MO",63303,38.780921429,-90.56706371,150,"103 FOUNTAINVIEW DRIVE, SAINT CHARLES, MO, 63303","Match","Exact","103 FOUNTAINVIEW DR, SAINT CHARLES, MO, 63303",650074615,"L"
27151,"103 FOX HOLLOW BEND","BRANDON","MS",39047,32.3938355330001,-89.976267174,151,"103 FOX HOLLOW BEND, BRANDON, MS, 39047","Match","Exact","103 FOX HOLLOW BEND, BRANDON, MS, 39047",116915338,"L"
27152,"103 FOX HOLLOW","EARLY","TX",76801,NA,NA,152,"103 FOX HOLLOW, EARLY, TX, 76801","No_Match",NA,NA,NA,NA
27153,"103 FOX ROAD","RIO GRANDE CITY","TX",78582,26.3102405180001,-98.62791244,153,"103 FOX ROAD, RIO GRANDE CITY, TX, 78582","Match","Exact","103 FOX RD, RIO GRANDE CITY, TX, 78582",652065400,"L"
27154,"103 FOXTAIL DRIVE","SANTA MONICA","CA",90402,34.036696593,-118.507181164,154,"103 FOXTAIL DRIVE, SANTA MONICA, CA, 90402","Match","Exact","103 FOXTAIL DR, SANTA MONICA, CA, 90402",142697312,"L"
27155,"103 FRANKLIN STREET APT 2","NEW YORK","NY",10013,40.718355608,-74.005508177,155,"103 FRANKLIN STREET APT 2, NEW YORK, NY, 10013","Match","Exact","103 FRANKLIN ST, NEW YORK, NY, 10013",59660189,"L"
27156,"103 FRANKLIN STREET","FREDERICA","DE",19946,39.0067635090001,-75.468679429,156,"103 FRANKLIN STREET, FREDERICA, DE, 19946","Match","Exact","103 FRANKLIN ST, FREDERICA, DE, 19946",68109113,"L"
27157,"103 FREEDOM BLVD","WESTHAMPTON","NJ",8060,40.0233443020001,-74.852701145,157,"103 FREEDOM BLVD, WESTHAMPTON, NJ, 8060","Match","Non_Exact","103 FREEDOM BLVD, WESTAMPTON, NJ, 08060",649299092,"R"
27158,"103 FREEMONT STREET","ROYAL","NE",68773,NA,NA,158,"103 FREEMONT STREET, ROYAL, NE, 68773","No_Match",NA,NA,NA,NA
27159,"103 FROST HILL ROAD","PORTLAND","ME",4103,43.7168209330001,-70.2877514419999,159,"103 FROST HILL ROAD, PORTLAND, ME, 4103","Match","Exact","103 FROST HILL RD, PORTLAND, ME, 04103",78044527,"R"
27160,"103 FULL MOON LANE","FAIRFIELD","IA",52556,41.02780656,-91.960308565,160,"103 FULL MOON LANE, FAIRFIELD, IA, 52556","Match","Exact","103 FULL MOON LN, FAIRFIELD, IA, 52556",84427329,"L"
27161,"103 FURY","GWINN","MI",49841,46.320032069,-87.3652657659999,161,"103 FURY, GWINN, MI, 49841","Match","Exact","103 FURY, GWINN, MI, 49841",182044286,"L"
27162,"103 G STREET SW UNIT B709","WASHINGTON","DC",20024,38.8812928740001,-77.012763256,162,"103 G STREET SW UNIT B709, WASHINGTON, DC, 20024","Match","Exact","103 G ST SW, WASHINGTON, DC, 20024",648823426,"R"
27163,"103 G STREET SW","WASHINGTON","DC",20024,38.8812928740001,-77.012763256,163,"103 G STREET SW, WASHINGTON, DC, 20024","Match","Exact","103 G ST SW, WASHINGTON, DC, 20024",648823426,"R"
27164,"103 GANDY 4TH STREET","STAPLETON","NE",69163,NA,NA,164,"103 GANDY 4TH STREET, STAPLETON, NE, 69163","No_Match",NA,NA,NA,NA
27165,"103 GAP ROAD","FRONT ROYAL","VA",22630,38.9196901510001,-78.12148232,165,"103 GAP ROAD, FRONT ROYAL, VA, 22630","Match","Exact","103 GAP RD, FRONT ROYAL, VA, 22630",159092746,"R"
27166,"103 GARDEN WOOD DRIVE","ATLANTA","GA",30349,33.596459945,-84.4259193029999,166,"103 GARDEN WOOD DRIVE, ATLANTA, GA, 30349","Match","Exact","103 GARDEN WOOD DR, ATLANTA, GA, 30349",646202170,"L"
27167,"103 GARDENDALE LANE","HARVEST","AL",35749,34.826287075,-86.7482789379999,167,"103 GARDENDALE LANE, HARVEST, AL, 35749","Match","Exact","103 GARDENDALE LN, HARVEST, AL, 35749",633492626,"L"
27168,"103 GARDNER ST APT 1","ROCKWOOD","TN",37854,35.8622472010001,-84.703850543,168,"103 GARDNER ST APT 1, ROCKWOOD, TN, 37854","Match","Exact","103 GARDNER ST, ROCKWOOD, TN, 37854",88595074,"L"
27169,"103 GASHOUS RD","ROSALIA","WA",99170,47.245327741,-117.422474701,169,"103 GASHOUS RD, ROSALIA, WA, 99170","Match","Exact","103 GASHOUS RD, ROSALIA, WA, 99170",173315589,"R"
27170,"103 GATEWAY PARKWAY","MARBLE FALLS","TX",78654,30.565031978,-98.271733991,170,"103 GATEWAY PARKWAY, MARBLE FALLS, TX, 78654","Match","Exact","103 GATEWAY PKWY, MARBLE FALLS, TX, 78654",146501859,"L"
27171,"103 GAY STREET","TAMAQUA","PA",18252,40.798003421,-75.976704699,171,"103 GAY STREET, TAMAQUA, PA, 18252","Match","Exact","103 GAY ST, TAMAQUA, PA, 18252",70956072,"R"
27172,"103 GEARRLAND LANE","CARY","NC",27518,35.721650213,-78.776449713,172,"103 GEARRLAND LANE, CARY, NC, 27518","Match","Exact","103 GEARRLAND LN, CARY, NC, 27518",72590688,"L"
27173,"103 GENTLEMENS WAY","LANCASTER","PA",17603,40.0129916600001,-76.333271969,173,"103 GENTLEMENS WAY, LANCASTER, PA, 17603","Match","Non_Exact","103 GENTLEMEN'S WAY, LANCASTER, PA, 17603",641533757,"L"
27174,"103 GEORGIA AVENUE","HATTIESBURG","MS",39401,31.333985587,-89.3431446449999,174,"103 GEORGIA AVENUE, HATTIESBURG, MS, 39401","Match","Exact","103 GEORGIA AVE, HATTIESBURG, MS, 39401",323092,"R"
27175,"103 GIBRALTAR STREET","ROYAL PALM BEACH","FL",33411,26.7289957740001,-80.222207686,175,"103 GIBRALTAR STREET, ROYAL PALM BEACH, FL, 33411","Match","Exact","103 GIBRALTAR ST, ROYAL PALM BEACH, FL, 33411",115581655,"R"
27176,"103 GILDERVIEW DRIVE","SIMPSONVILLE","SC",29681,34.793829031,-82.2473167209999,176,"103 GILDERVIEW DRIVE, SIMPSONVILLE, SC, 29681","Match","Exact","103 GILDERVIEW DR, SIMPSONVILLE, SC, 29681",38327017,"L"
27177,"103 GIRARD BLVD","JOLIET","IL",60433,41.492126179,-88.077381126,177,"103 GIRARD BLVD, JOLIET, IL, 60433","Match","Exact","103 GIRARD BLVD, JOLIET, IL, 60433",111543352,"L"
27178,"103 GLACIER CT","STOCKTON","CA",95205,37.95916585,-121.252165186,178,"103 GLACIER CT, STOCKTON, CA, 95205","Match","Exact","103 GLACIER CT, STOCKTON, CA, 95205",133852112,"R"
27179,"103 GLEN ROSE TRAIL","WHITE OAK","TX",75693,32.5570616960001,-94.858174187,179,"103 GLEN ROSE TRAIL, WHITE OAK, TX, 75693","Match","Exact","103 GLEN ROSE TRL, WHITE OAK, TX, 75693",635102482,"R"
27180,"103 GLENHAVEN CIRCLE","HARVEST","AL",35749,34.846623967,-86.725781331,180,"103 GLENHAVEN CIRCLE, HARVEST, AL, 35749","Match","Exact","103 GLENHAVEN CIR, HARVEST, AL, 35749",58135090,"L"
27181,"103 GLENHIGH COURT","CARY","NC",27511,35.753902736,-78.812861778,181,"103 GLENHIGH COURT, CARY, NC, 27511","Match","Exact","103 GLENHIGH CT, CARY, NC, 27511",72558752,"L"
27182,"103 GLENN ST","DALLAS","GA",30132,33.9176261540001,-84.833932917,182,"103 GLENN ST, DALLAS, GA, 30132","Match","Exact","103 GLENN ST, DALLAS, GA, 30132",636631292,"L"
27183,"103 GLENVIEW AVE","GREENSBURG","PA",15601,40.318049998,-79.54190641,183,"103 GLENVIEW AVE, GREENSBURG, PA, 15601","Match","Exact","103 GLENVIEW AVE, GREENSBURG, PA, 15601",52975041,"R"
27184,"103 GLYNNWOOD AVE","LAFAYETTE","LA",70506,30.205462391,-92.047314232,184,"103 GLYNNWOOD AVE, LAFAYETTE, LA, 70506","Match","Exact","103 GLYNNWOOD AVE, LAFAYETTE, LA, 70506",85617887,"L"
27185,"103 GOLF LANE","FOUNTAIN INN","SC",29644,NA,NA,185,"103 GOLF LANE, FOUNTAIN INN, SC, 29644","No_Match",NA,NA,NA,NA
27186,"103 GOVERNOR DR","ALLISON PARK","PA",15101,40.553586286,-79.9665501969999,186,"103 GOVERNOR DR, ALLISON PARK, PA, 15101","Match","Exact","103 GOVERNOR DR, ALLISON PARK, PA, 15101",51608769,"L"
27187,"103 GRAHAM STREET","WAXAHACHIE","TX",75165,32.378352196,-96.830521478,187,"103 GRAHAM STREET, WAXAHACHIE, TX, 75165","Match","Exact","103 GRAHAM ST, WAXAHACHIE, TX, 75165",103481555,"L"
27188,"103 GRANDVIEW DR","SAINT CHARLES","MO",63301,38.8175662410001,-90.509639276,188,"103 GRANDVIEW DR, SAINT CHARLES, MO, 63301","Match","Exact","103 GRANDVIEW DR, SAINT CHARLES, MO, 63301",645657837,"R"
27189,"103 GRAPEFRUIT AVE NW","LAKE PLACID","FL",33852,27.2773768650001,-81.40690137,189,"103 GRAPEFRUIT AVE NW, LAKE PLACID, FL, 33852","Match","Exact","103 GRAPEFRUIT AVE NW, LAKE PLACID, FL, 33852",4637328,"L"
27190,"103 GRAY PLUM","PEACHTREE CITY","GA",30269,33.3789186880001,-84.5461703829999,190,"103 GRAY PLUM, PEACHTREE CITY, GA, 30269","Match","Exact","103 GRAY PLUM, PEACHTREE CITY, GA, 30269",75927984,"L"
27191,"103 GREEN AVE","HOGANSVILLE","GA",30230,33.1800251290001,-84.9107918839999,191,"103 GREEN AVE, HOGANSVILLE, GA, 30230","Match","Exact","103 GREEN AVE, HOGANSVILLE, GA, 30230",1773056,"R"
27192,"103 GREEN AVE","HOGASVILLE","GA",30230,33.1800251290001,-84.9107918839999,192,"103 GREEN AVE, HOGASVILLE, GA, 30230","Match","Non_Exact","103 GREEN AVE, HOGANSVILLE, GA, 30230",1773056,"R"
27193,"103 GREEN BRIAR CT","SAVANNAH","GA",31419,31.9636319160001,-81.136249108,193,"103 GREEN BRIAR CT, SAVANNAH, GA, 31419","Match","Non_Exact","103 GREENBRIAR CT, SAVANNAH, GA, 31419",6190798,"L"
27194,"103 GREEN BRIAR RD","ANDERSON","SC",29621,34.5512570390001,-82.626942605,194,"103 GREEN BRIAR RD, ANDERSON, SC, 29621","Match","Non_Exact","103 GREENBRIAR RD, ANDERSON, SC, 29621",640545536,"R"
27195,"103 GREENBACK COURT","JONESBOROUGH","TN",37659,36.2846049610001,-82.489596154,195,"103 GREENBACK COURT, JONESBOROUGH, TN, 37659","Match","Exact","103 GREENBACK CT, JONESBOROUGH, TN, 37659",127918984,"L"
27196,"103 GREENWOOD COURT","ERLANGER","KY",41018,38.9757775300001,-84.578632576,196,"103 GREENWOOD COURT, ERLANGER, KY, 41018","Match","Exact","103 GREENWOOD CT, ERLANGER, KY, 41018",103883352,"R"
27197,"103 GREGG AVENUE","AIKEN","OK",29801,NA,NA,197,"103 GREGG AVENUE, AIKEN, OK, 29801","No_Match",NA,NA,NA,NA
27198,"103 GREGG AVENUE","AIKEN","SC",29801,33.5681541700001,-81.7573002889999,198,"103 GREGG AVENUE, AIKEN, SC, 29801","Match","Exact","103 GREGG AVE, AIKEN, SC, 29801",647682852,"L"
27199,"103 GREYSTONE ROAD","POOLER","GA",31322,32.0907552,-81.260273522,199,"103 GREYSTONE ROAD, POOLER, GA, 31322","Match","Exact","103 GREYSTONE RD, POOLER, GA, 31322",625827915,"L"
27200,"103 GROSS DRIVE","ALIQUIPPA","PA",15001,40.630623875,-80.3124154819999,200,"103 GROSS DRIVE, ALIQUIPPA, PA, 15001","Match","Exact","103 GROSS DR, ALIQUIPPA, PA, 15001",636460679,"L"
27201,"103 GROVE ST","WELLESLEY","MA",2482,42.291948888,-71.290285286,201,"103 GROVE ST, WELLESLEY, MA, 2482","Match","Exact","103 GROVE ST, WELLESLEY, MA, 02482",87278019,"R"
27202,"103 GUYS LANE","WEARE","NH",3281,43.06164455,-71.66236986,202,"103 GUYS LANE, WEARE, NH, 3281","Match","Exact","103 GUYS LN, WEARE, NH, 03281",113573872,"L"
27203,"103 HADDON RD","BROWNS MILL","NJ",8015,39.9467759240001,-74.533757309,203,"103 HADDON RD, BROWNS MILL, NJ, 8015","Match","Non_Exact","103 HADDON RD, BROWNS MILLS, NJ, 08015",134048945,"L"
27204,"103 HALE STREET","PRINCETON","WV",24740,37.375010214,-81.071556082,204,"103 HALE STREET, PRINCETON, WV, 24740","Match","Non_Exact","103 HILL ST, PRINCETON, WV, 24740",47706142,"L"
27205,"103 HALF MOON CIRCLE","HYPOLUXO","FL",33462,26.571991944,-80.053479328,205,"103 HALF MOON CIRCLE, HYPOLUXO, FL, 33462","Match","Exact","103 HALF MOON CIR, HYPOLUXO, FL, 33462",115558604,"L"
27206,"103 HAMMON STREET","LOGANSPORT","IN",46947,40.7447932680001,-86.383687445,206,"103 HAMMON STREET, LOGANSPORT, IN, 46947","Match","Exact","103 HAMMON ST, LOGANSPORT, IN, 46947",27196831,"L"
27207,"103 HARDING AVE","LIBERTYVILLE","IL",60048,42.280281609,-87.9751916989999,207,"103 HARDING AVE, LIBERTYVILLE, IL, 60048","Match","Exact","103 HARDING AVE, LIBERTYVILLE, IL, 60048",119638721,"R"
27208,"103 HARNDEN AVE","WATERTOWN","MA",2472,42.378978616,-71.185329027,208,"103 HARNDEN AVE, WATERTOWN, MA, 2472","Match","Exact","103 HARNDEN AVE, WATERTOWN, MA, 02472",86891292,"R"
27209,"103 HARRINGTON CT","FLORENCE","AL",35630,34.8516771170001,-87.6552263899999,209,"103 HARRINGTON CT, FLORENCE, AL, 35630","Match","Exact","103 HARRINGTON CT, FLORENCE, AL, 35630",41333690,"L"
27210,"103 HARRIOTT AVENUE","OIL CITY","PA",16301,41.43264279,-79.70302925,210,"103 HARRIOTT AVENUE, OIL CITY, PA, 16301","Match","Exact","103 HARRIOTT AVE, OIL CITY, PA, 16301",70740256,"L"
27211,"103 HARRIS LANE","MADISON","MS",39110,32.4581517440001,-90.1214045299999,211,"103 HARRIS LANE, MADISON, MS, 39110","Match","Exact","103 HARRIS LN, MADISON, MS, 39110",636595291,"R"
27212,"103 HARRISONBROOK DRIVE","BASKING RIDGE","NJ",7920,40.6711323000001,-74.570391012,212,"103 HARRISONBROOK DRIVE, BASKING RIDGE, NJ, 7920","Match","Non_Exact","103 HARRISON BROOK DR, BASKING RIDGE, NJ, 07920",59985303,"R"
27213,"103 HARTFORD AVE","BELLINGHAM","MA",2019,42.111245927,-71.4841773649999,213,"103 HARTFORD AVE, BELLINGHAM, MA, 2019","Match","Exact","103 HARTFORD AVE, BELLINGHAM, MA, 02019",87258642,"R"
27214,"103 HARVEST GLEN DRIVE","HARLEYSVILLE","PA",19438,40.2888763120001,-75.379591729,214,"103 HARVEST GLEN DRIVE, HARLEYSVILLE, PA, 19438","Match","Non_Exact","103 HARVEST GLENN DR, HARLEYSVILLE, PA, 19438",605681278,"R"
27215,"103 HARVEST POINTE DRIVE","STATESVILLE","NC",28677,35.7358974530001,-80.886239052,215,"103 HARVEST POINTE DRIVE, STATESVILLE, NC, 28677","Match","Exact","103 HARVEST POINTE DR, STATESVILLE, NC, 28677",649191909,"L"
27216,"103 HARVESTERS SQ","TUPELO","MS",38801,34.2621465870001,-88.79835757,216,"103 HARVESTERS SQ, TUPELO, MS, 38801","Match","Non_Exact","103 HARVESTER'S SQ, TUPELO, MS, 38801",617733374,"R"
27217,"103 HARWOOD STREET","PITTSBURGH","PA",15211,40.423012332,-80.0038183409999,217,"103 HARWOOD STREET, PITTSBURGH, PA, 15211","Match","Exact","103 HARWOOD ST, PITTSBURGH, PA, 15211",638192166,"L"
27218,"103 HAYBARN COURT","APEX","NC",27502,35.7278050040001,-78.827413145,218,"103 HAYBARN COURT, APEX, NC, 27502","Match","Exact","103 HAYBARN CT, APEX, NC, 27502",618487592,"L"
27219,"103 HAYES STREET","GARDEN CITY","NY",11530,40.725165401,-73.672548819,219,"103 HAYES STREET, GARDEN CITY, NY, 11530","Match","Exact","103 HAYES ST, GARDEN CITY, NY, 11530",147655383,"R"
27220,"103 HAZELWOOD AVE","NEW ULM","MN",56073,44.305378633,-94.478201349,220,"103 HAZELWOOD AVE, NEW ULM, MN, 56073","Match","Exact","103 HAZELWOOD AVE, NEW ULM, MN, 56073",28569042,"L"
27221,"103 HCR 3131","HILLSBORO","TX",76645,31.99897917,-97.06680739,221,"103 HCR 3131, HILLSBORO, TX, 76645","Match","Exact","103 HCR 3131, HILLSBORO, TX, 76645",624360186,"L"
27222,"103 HEMLOCK LANE","GEORGETOWN","KY",40324,38.185405254,-84.6527021859999,222,"103 HEMLOCK LANE, GEORGETOWN, KY, 40324","Match","Exact","103 HEMLOCK LN, GEORGETOWN, KY, 40324",211984877,"L"
27223,"103 HEMP ROAD","FREDERICKSBURG","VA",22406,38.3966537540001,-77.550107077,223,"103 HEMP ROAD, FREDERICKSBURG, VA, 22406","Match","Exact","103 HEMP RD, FREDERICKSBURG, VA, 22406",25568854,"L"
27224,"103 HENDERSON OAKS CT","SAVANNAH","GA",31419,32.011958841,-81.2594440839999,224,"103 HENDERSON OAKS CT, SAVANNAH, GA, 31419","Match","Exact","103 HENDERSON OAKS CT, SAVANNAH, GA, 31419",6200102,"R"
27225,"103 HICKORY STREET","EDISON","NJ",8817,40.5064294850001,-74.400648384,225,"103 HICKORY STREET, EDISON, NJ, 8817","Match","Exact","103 HICKORY ST, EDISON, NJ, 08817",60266370,"R"
27226,"103 HIDDEN PADDOCK","GEORGETOWN","KY",40324,38.23101848,-84.548601719,226,"103 HIDDEN PADDOCK, GEORGETOWN, KY, 40324","Match","Non_Exact","103 HIDDEN PADDOCK LN, GEORGETOWN, KY, 40324",211986214,"R"
27227,"103 HIGH COUNTRY DRIVE","CARY","NV",27513,NA,NA,227,"103 HIGH COUNTRY DRIVE, CARY, NV, 27513","No_Match",NA,NA,NA,NA
27228,"103 HIGH POINTE DRIVE","RINCON","GA",31326,32.278196026,-81.188833433,228,"103 HIGH POINTE DRIVE, RINCON, GA, 31326","Match","Non_Exact","103 HIGH POINT DR, RINCON, GA, 31326",6277701,"R"
27229,"103 HIGH STREET","CAMBRIDGE","MD",21613,38.574413845,-76.073336948,229,"103 HIGH STREET, CAMBRIDGE, MD, 21613","Match","Exact","103 HIGH ST, CAMBRIDGE, MD, 21613",99673819,"L"
27230,"103 HIGH STREET","PLAINVILLE","MA",2762,41.9994274640001,-71.37243043,230,"103 HIGH STREET, PLAINVILLE, MA, 2762","Match","Exact","103 HIGH ST, PLAINVILLE, MA, 02762",648468850,"L"
27231,"103 HIGH STREET","WALTHAM","MA",2453,42.3670818800001,-71.232438838,231,"103 HIGH STREET, WALTHAM, MA, 2453","Match","Exact","103 HIGH ST, WALTHAM, MA, 02453",86862085,"R"
27232,"103 HIGHGATE ROAD","ITHACA","NY",14850,42.470929509,-76.4908928469999,232,"103 HIGHGATE ROAD, ITHACA, NY, 14850","Match","Exact","103 HIGHGATE RD, ITHACA, NY, 14850",18857085,"R"
27233,"103 HILL STREET","TONAWANDA","NY",14150,43.0136641500001,-78.883293469,233,"103 HILL STREET, TONAWANDA, NY, 14150","Match","Exact","103 HILL ST, TONAWANDA, NY, 14150",48284209,"L"
27234,"103 HILLCEST CIRCLE","MONTICELLO","MN",55362,NA,NA,234,"103 HILLCEST CIRCLE, MONTICELLO, MN, 55362","No_Match",NA,NA,NA,NA
27235,"103 HILLCREST DR","MURPHY","TX",75094,33.027195556,-96.6132697529999,235,"103 HILLCREST DR, MURPHY, TX, 75094","Match","Exact","103 HILLCREST DR, MURPHY, TX, 75094",123565193,"R"
27236,"103 HILLRIDGE WAY","COLUMBIA","SC",29229,34.1475371390001,-80.8694779529999,236,"103 HILLRIDGE WAY, COLUMBIA, SC, 29229","Match","Exact","103 HILLRIDGE WAY, COLUMBIA, SC, 29229",637575284,"L"
27237,"103 HILLSIDE DR","COUNCIL GROVE","KS",66846,38.665505137,-96.502266128,237,"103 HILLSIDE DR, COUNCIL GROVE, KS, 66846","Match","Exact","103 HILLSIDE DR, COUNCIL GROVE, KS, 66846",88180311,"R"
27238,"103 HILLSIDE DRIVE","HARMONY","PA",16037,40.878985931,-80.14256082,238,"103 HILLSIDE DRIVE, HARMONY, PA, 16037","Match","Exact","103 HILLSIDE DR, HARMONY, PA, 16037",52665100,"R"
27239,"103 HOFFMAN AVE","RHINELAND","MO",65069,38.7199011640001,-91.5194278709999,239,"103 HOFFMAN AVE, RHINELAND, MO, 65069","Match","Exact","103 HOFFMAN AVE, RHINELAND, MO, 65069",40286963,"R"
27240,"103 HOLTON ST","CENTREVILLE","MD",21617,39.040102846,-76.068121672,240,"103 HOLTON ST, CENTREVILLE, MD, 21617","Match","Exact","103 HOLTON ST, CENTREVILLE, MD, 21617",68050016,"R"
27241,"103 HOMESTEAD PLACE","YORKTOWN","VA",23693,37.1197795210001,-76.435741755,241,"103 HOMESTEAD PLACE, YORKTOWN, VA, 23693","Match","Exact","103 HOMESTEAD PL, YORKTOWN, VA, 23693",103787956,"L"
27242,"103 HONEY CREEK LANE","NASHVILLE","TN",37211,36.0383133500001,-86.744113275,242,"103 HONEY CREEK LANE, NASHVILLE, TN, 37211","Match","Exact","103 HONEY CREEK LN, NASHVILLE, TN, 37211",642364329,"R"
27243,"103 HONEYSUCKLE TRAIL","COLUMBIA","SC",29229,34.1638903410001,-80.866651562,243,"103 HONEYSUCKLE TRAIL, COLUMBIA, SC, 29229","Match","Exact","103 HONEYSUCKLE TRL, COLUMBIA, SC, 29229",71863932,"R"
27244,"103 HOPKINS COURT","MAHWAH","NJ",7430,41.0820495080001,-74.165043998,244,"103 HOPKINS COURT, MAHWAH, NJ, 7430","Match","Exact","103 HOPKINS CT, MAHWAH, NJ, 07430",64419073,"R"
27245,"103 HORSESHOE DR","SENECA","SC",29678,34.671270463,-82.9751515309999,245,"103 HORSESHOE DR, SENECA, SC, 29678","Match","Exact","103 HORSESHOE DR, SENECA, SC, 29678",25645854,"R"
27246,"103 HORSESHOE DRIVE","SENECA","SC",29678,34.671270463,-82.9751515309999,246,"103 HORSESHOE DRIVE, SENECA, SC, 29678","Match","Exact","103 HORSESHOE DR, SENECA, SC, 29678",25645854,"R"
27247,"103 HOWARD DRIVE","WILLIAMSBURG","VA",23185,37.229482745,-76.626299549,247,"103 HOWARD DRIVE, WILLIAMSBURG, VA, 23185","Match","Exact","103 HOWARD DR, WILLIAMSBURG, VA, 23185",103778042,"R"
27248,"103 HULTON LANE","SUMMERVILLE","SC",29483,32.981041249,-80.204720677,248,"103 HULTON LANE, SUMMERVILLE, SC, 29483","Match","Non_Exact","103 HULTON LN, SUMMERVILLE, SC, 29485",178467367,"R"
27249,"103 HUNTERS CT","TULLAHOMA","TN",37388,35.4152199050001,-86.23020129,249,"103 HUNTERS CT, TULLAHOMA, TN, 37388","Match","Exact","103 HUNTERS CT, TULLAHOMA, TN, 37388",58239904,"L"
27250,"103 HUNTERS LAKE COURT","EUREKA","MO",63025,38.5085302910001,-90.649854314,250,"103 HUNTERS LAKE COURT, EUREKA, MO, 63025","Match","Exact","103 HUNTERS LAKE CT, EUREKA, MO, 63025",100185304,"L"
27251,"103 HUNTINGWOOD LANE","MATTESON","IL",60443,41.523833602,-87.758177269,251,"103 HUNTINGWOOD LANE, MATTESON, IL, 60443","Match","Non_Exact","103 HUNTINGWOOD RD, MATTESON, IL, 60443",111706770,"L"
27252,"103 I STREET","ANDERSON","SC",29621,34.503613226,-82.664015913,252,"103 I STREET, ANDERSON, SC, 29621","Match","Non_Exact","103 I ST, ANDERSON, SC, 29625",25452093,"L"
27253,"103 IDYLWOOD DR","WINCHESTER","VA",22602,39.1741161410001,-78.133962111,253,"103 IDYLWOOD DR, WINCHESTER, VA, 22602","Match","Exact","103 IDYLWOOD DR, WINCHESTER, VA, 22602",55580034,"L"
27254,"103 INDEPENDENCE","PELLA","IA",50219,41.4027714310001,-92.906342447,254,"103 INDEPENDENCE, PELLA, IA, 50219","Match","Non_Exact","103 INDEPENDENCE ST, PELLA, IA, 50219",89487050,"L"
27255,"103 INDIGO COURT","WEST COLUMBIA","SC",29172,NA,NA,255,"103 INDIGO COURT, WEST COLUMBIA, SC, 29172","No_Match",NA,NA,NA,NA
27256,"103 INDUSTRIAL LOOP SUITE 1000","FREDERICKSBURG","TX",78624,30.250474921,-98.848760972,256,"103 INDUSTRIAL LOOP SUITE 1000, FREDERICKSBURG, TX, 78624","Match","Exact","103 INDUSTRIAL LOOP, FREDERICKSBURG, TX, 78624",176874097,"R"
27257,"103 INGERSOLL STREET","FORT BENNING","GA",31905,32.3533190650001,-84.9576643409999,257,"103 INGERSOLL STREET, FORT BENNING, GA, 31905","Match","Exact","103 INGERSOLL ST, FORT BENNING, GA, 31905",76776120,"L"
27258,"103 INLET SHORES DR","NEW SMYRNA BEACH","FL",32168,29.0586429300001,-80.9344661119999,258,"103 INLET SHORES DR, NEW SMYRNA BEACH, FL, 32168","Match","Exact","103 INLET SHORES DR, NEW SMYRNA BEACH, FL, 32168",94531323,"R"
27259,"103 IOWA AVENUE","EGG HARBOR TOWNSHIP","NJ",8234,39.361686585,-74.624882988,259,"103 IOWA AVENUE, EGG HARBOR TOWNSHIP, NJ, 8234","Match","Exact","103 IOWA AVE, EGG HARBOR TOWNSHIP, NJ, 08234",202481798,"R"
27260,"103 IRELAND ROAD","STARKSBORO","VT",5487,44.1898076250001,-73.053467169,260,"103 IRELAND ROAD, STARKSBORO, VT, 5487","Match","Exact","103 IRELAND RD, STARKSBORO, VT, 05487",136462417,"R"
27261,"103 IRIS LANE","CARMI","IL",62821,38.078882316,-88.157757164,261,"103 IRIS LANE, CARMI, IL, 62821","Match","Exact","103 IRIS LN, CARMI, IL, 62821",38205259,"L"
27262,"103 IRON MINE WAY","WASHINGTON","NC",27889,35.5894424910001,-77.093936712,262,"103 IRON MINE WAY, WASHINGTON, NC, 27889","Match","Non_Exact","103 IRON MINE DR, WASHINGTON, NC, 27889",627148121,"L"
27263,"103 IVY LANE","SAN ANTONIO","TX",78209,29.4796438540001,-98.4551398309999,263,"103 IVY LANE, SAN ANTONIO, TX, 78209","Match","Exact","103 IVY LN, SAN ANTONIO, TX, 78209",101529698,"L"
27264,"103 IVYWOOD RD","HUNTSVILLE","AL",35806,34.8003774100001,-86.703207971,264,"103 IVYWOOD RD, HUNTSVILLE, AL, 35806","Match","Exact","103 IVYWOOD RD, HUNTSVILLE, AL, 35806",58136210,"L"
27265,"103 IVYWOOD ROAD","HUNTSVILLE","AL",35806,34.8003774100001,-86.703207971,265,"103 IVYWOOD ROAD, HUNTSVILLE, AL, 35806","Match","Exact","103 IVYWOOD RD, HUNTSVILLE, AL, 35806",58136210,"L"
27266,"103 JACKSON AVENUE","NORTH TONAWANDA","NY",14120,43.053027854,-78.884174483,266,"103 JACKSON AVENUE, NORTH TONAWANDA, NY, 14120","Match","Exact","103 JACKSON AVE, N TONAWANDA, NY, 14120",48688826,"R"
27267,"103 JACKSON STREET","GORDONVILLE","VA",22942,38.1312167090001,-78.190435384,267,"103 JACKSON STREET, GORDONVILLE, VA, 22942","Match","Non_Exact","103 JACKSON ST, GORDONSVILLE, VA, 22942",29883324,"R"
27268,"103 JACOB DRIVE","PRINCETON","KY",42445,37.1038365810001,-87.891258441,268,"103 JACOB DRIVE, PRINCETON, KY, 42445","Match","Exact","103 JACOB DR, PRINCETON, KY, 42445",10647151,"R"
27269,"103 JAMES AVE","MANKATO","MN",56001,44.1533186520001,-94.007470771,269,"103 JAMES AVE, MANKATO, MN, 56001","Match","Exact","103 JAMES AVE, MANKATO, MN, 56001",636254737,"L"
27270,"103 JAMES STREET","WALES","WI",53183,43.005433607,-88.3788422919999,270,"103 JAMES STREET, WALES, WI, 53183","Match","Exact","103 JAMES ST, WALES, WI, 53183",53842310,"R"
27271,"103 JAMESFORD STREET","GOOSE CREEK","SC",29445,32.9962494390001,-80.081572203,271,"103 JAMESFORD STREET, GOOSE CREEK, SC, 29445","Match","Exact","103 JAMESFORD ST, GOOSE CREEK, SC, 29445",100784096,"L"
27272,"103 JAMESTOWN","WALNUT RIDGE","AR",72476,36.0831693600001,-90.959631024,272,"103 JAMESTOWN, WALNUT RIDGE, AR, 72476","Match","Non_Exact","103 JAMESTOWN RD, WALNUT RIDGE, AR, 72476",610317881,"L"
27273,"103 JAMIE COURT","WEST COLUMBIA","SC",NA,34.005520238,-81.141873306,273,"103 JAMIE COURT, WEST COLUMBIA, SC, ","Match","Exact","103 JAMIE CT, WEST COLUMBIA, SC, 29169",70050325,"L"
27274,"103 JAMIE LYNN CIRCLE","PICKERINGTON","OH",43147,39.8927551410001,-82.756690576,274,"103 JAMIE LYNN CIRCLE, PICKERINGTON, OH, 43147","Match","Exact","103 JAMIE LYNN CIR, PICKERINGTON, OH, 43147",633910233,"L"
27275,"103 JAY AVENUE","PHOENIXVILLE","PA",19460,40.135213955,-75.568723169,275,"103 JAY AVENUE, PHOENIXVILLE, PA, 19460","Match","Exact","103 JAY AVE, PHOENIXVILLE, PA, 19460",179487803,"R"
27276,"103 JAY LANE","HAMPTON","GA",30228,33.3919342390001,-84.29632938,276,"103 JAY LANE, HAMPTON, GA, 30228","Match","Exact","103 JAY LN, HAMPTON, GA, 30228",23195069,"R"
27277,"103 JAY ROAD","MERRIMACK","NH",3054,42.81595035,-71.542857294,277,"103 JAY ROAD, MERRIMACK, NH, 3054","Match","Exact","103 JAY RD, MERRIMACK, NH, 03054",113543112,"R"
27278,"103 JEAN ROAD","WEST ISLIP","NY",11795,40.7120973470001,-73.299778509,278,"103 JEAN ROAD, WEST ISLIP, NY, 11795","Match","Exact","103 JEAN RD, WEST ISLIP, NY, 11795",113993903,"L"
27279,"103 JEFFERSON PARK RD","JAMESTOWN","NC",27282,35.9927554000001,-79.919990721,279,"103 JEFFERSON PARK RD, JAMESTOWN, NC, 27282","Match","Exact","103 JEFFERSON PARK RD, JAMESTOWN, NC, 27282",131111774,"L"
27280,"103 JEFFERSON STREET NO 55","NORWALK","OH",44857,41.240968077,-82.630035144,280,"103 JEFFERSON STREET NO 55, NORWALK, OH, 44857","Match","Non_Exact","103 JEFFERSON ST, NORWALK, OH, 44857",12610946,"R"
27281,"103 JENSEN ROAD","GUSTINE","CA",95322,37.2589890690001,-121.012555563,281,"103 JENSEN ROAD, GUSTINE, CA, 95322","Match","Exact","103 JENSEN RD, GUSTINE, CA, 95322",125318779,"R"
27282,"103 JERSEY STREET","MARBLEHEAD","MA",1945,42.5066957450001,-70.8651521309999,282,"103 JERSEY STREET, MARBLEHEAD, MA, 1945","Match","Exact","103 JERSEY ST, MARBLEHEAD, MA, 01945",86695059,"R"
27283,"103 JESSAMINE STREET","KNOXVILLE","TN",37919,35.975074777,-83.910921958,283,"103 JESSAMINE STREET, KNOXVILLE, TN, 37919","Match","Non_Exact","103 JESSAMINE ST, KNOXVILLE, TN, 37917",42622286,"L"
27284,"103 JETTSVILLE RD","FENWICK","WV",26202,38.2180138090001,-80.610242184,284,"103 JETTSVILLE RD, FENWICK, WV, 26202","Match","Exact","103 JETTSVILLE RD, FENWICK, WV, 26202",50058445,"R"
27285,"103 JODHPUR RD","CARY","NC",27513,35.766424925,-78.829897804,285,"103 JODHPUR RD, CARY, NC, 27513","Match","Non_Exact","103 JODHPUR DR, CARY, NC, 27513",72555952,"L"
27286,"103 JOE FRAZIER DRIVE","NATCHEZ","MS",39120,31.5089180640001,-91.328403892,286,"103 JOE FRAZIER DRIVE, NATCHEZ, MS, 39120","Match","Exact","103 JOE FRAZIER DR, NATCHEZ, MS, 39120",79848221,"L"
27287,"103 JOHNSON ST","ARNEGARD","ND",58835,47.808809167,-103.43732512,287,"103 JOHNSON ST, ARNEGARD, ND, 58835","Match","Exact","103 JOHNSON ST, ARNEGARD, ND, 58835",167684659,"L"
27288,"103 JONELLA AVE","LAURENS","SC",29360,34.4968365070001,-81.9983238029999,288,"103 JONELLA AVE, LAURENS, SC, 29360","Match","Non_Exact","103 JONELLA ST, LAURENS, SC, 29360",44433013,"R"
27289,"103 JONES STREET APARTMENT 4","BELMONT","NC",28012,35.269289632,-81.0295266099999,289,"103 JONES STREET APARTMENT 4, BELMONT, NC, 28012","Match","Exact","103 JONES ST, BELMONT, NC, 28012",70421468,"L"
27290,"103 JUAREZ AVE APT 1","FOREST KNOLLS","CA",94933,38.014505306,-122.685907299,290,"103 JUAREZ AVE APT 1, FOREST KNOLLS, CA, 94933","Match","Exact","103 JUAREZ AVE, FOREST KNOLLS, CA, 94933",647375228,"L"
27291,"103 JUBILEE PLACE","NEW BERN","NC",28560,34.963562482,-76.9272623849999,291,"103 JUBILEE PLACE, NEW BERN, NC, 28560","Match","Exact","103 JUBILEE PL, NEW BERN, NC, 28560",625085917,"L"
27292,"103 JUDITH CIR","YORKTOWN","VA",23693,37.100654697,-76.443089056,292,"103 JUDITH CIR, YORKTOWN, VA, 23693","Match","Exact","103 JUDITH CIR, YORKTOWN, VA, 23693",103788818,"R"
27293,"103 JULIE DRIVE","NORTHFIELD","NJ",8225,39.372787859,-74.572645356,293,"103 JULIE DRIVE, NORTHFIELD, NJ, 8225","Match","Exact","103 JULIE DR, NORTHFIELD, NJ, 08225",627243434,"R"
27294,"103 KAHIWA STREET","KAUNAKAKAI","HI",96748,21.0928868720001,-157.016188643,294,"103 KAHIWA STREET, KAUNAKAKAI, HI, 96748","Match","Non_Exact","103 KAIWI ST, KAUNAKAKAI, HI, 96748",85077246,"L"
27295,"103 KALADAR CT","CARY","NC",27513,35.774996607,-78.824521682,295,"103 KALADAR CT, CARY, NC, 27513","Match","Exact","103 KALADAR CT, CARY, NC, 27513",72543629,"L"
27296,"103 KANSAS","SABETHA","KS",66534,39.8852045560001,-95.791744097,296,"103 KANSAS, SABETHA, KS, 66534","Match","Non_Exact","103 KANSAS RD, SABETHA, KS, 66534",10194411,"L"
27297,"103 KARADAN DR","MAHOMET","IL",61853,40.195489019,-88.3797700599999,297,"103 KARADAN DR, MAHOMET, IL, 61853","Match","Exact","103 KARADAN DR, MAHOMET, IL, 61853",8836289,"L"
27298,"103 KARLSTAD LANE","MOORESVILLLE","NC",28115,35.5339095420001,-80.782015816,298,"103 KARLSTAD LANE, MOORESVILLLE, NC, 28115","Match","Non_Exact","103 KARLSTAD LN, MOORESVILLE, NC, 28115",635099863,"L"
27299,"103 KATY","LONE OAK","TX",75453,32.9967761680001,-95.939911726,299,"103 KATY, LONE OAK, TX, 75453","Match","Non_Exact","103 KATY ST, LONE OAK, TX, 75453",636703036,"R"
27300,"103 KAY DRIVE","VALLEJO","CA",94590,38.0727228690001,-122.234318511,300,"103 KAY DRIVE, VALLEJO, CA, 94590","Match","Exact","103 KAY DR, VALLEJO, CA, 94590",192529783,"R"
27301,"103 KAYLEE CIRCLE","GREENSBORO","MO",27401,NA,NA,301,"103 KAYLEE CIRCLE, GREENSBORO, MO, 27401","No_Match",NA,NA,NA,NA
27302,"103 KEITH COURT","RADCLIFF","KY",40160,37.818297697,-85.9360331459999,302,"103 KEITH COURT, RADCLIFF, KY, 40160","Match","Exact","103 KEITH CT, RADCLIFF, KY, 40160",34640196,"R"
27303,"103 KELSOR DRIVE","POQUOSON","VA",23662,37.1353546760001,-76.395602034,303,"103 KELSOR DRIVE, POQUOSON, VA, 23662","Match","Exact","103 KELSOR DR, POQUOSON, VA, 23662",103761420,"L"
27304,"103 KEMP COURT","FOLSOM","CA",95630,38.6619240630001,-121.144226897,304,"103 KEMP COURT, FOLSOM, CA, 95630","Match","Exact","103 KEMP CT, FOLSOM, CA, 95630",133383932,"L"
27305,"103 KEMPER COURT","DANVILLE","VA",24541,36.563809844,-79.4218846699999,305,"103 KEMPER COURT, DANVILLE, VA, 24541","Match","Exact","103 KEMPER CT, DANVILLE, VA, 24541",56588597,"L"
27306,"103 KENDRICK PINES BLVD","THE WOODLANDS","TX",77389,30.1437937810001,-95.545841637,306,"103 KENDRICK PINES BLVD, THE WOODLANDS, TX, 77389","Match","Exact","103 KENDRICK PINES BLVD, THE WOODLANDS, TX, 77389",642142151,"L"
27307,"103 KENNEDY STREET","CLOVER","SC",29710,35.116809296,-81.232075827,307,"103 KENNEDY STREET, CLOVER, SC, 29710","Match","Exact","103 KENNEDY ST, CLOVER, SC, 29710",19812087,"L"
27308,"103 KENNETH COURT","SPRINGFIELD","GA",31329,32.3589289120001,-81.335120952,308,"103 KENNETH COURT, SPRINGFIELD, GA, 31329","Match","Exact","103 KENNETH CT, SPRINGFIELD, GA, 31329",619924811,"L"
27309,"103 KENNETT RD","OLD HICKORY","TN",37138,36.2428365980001,-86.61826194,309,"103 KENNETT RD, OLD HICKORY, TN, 37138","Match","Exact","103 KENNETT RD, OLD HICKORY, TN, 37138",97198983,"L"
27310,"103 KERN COURT","SAINT MARY'S","GA",31558,30.7757576870001,-81.577940126,310,"103 KERN COURT, SAINT MARY'S, GA, 31558","Match","Non_Exact","103 KERN RD, SAINT MARYS, GA, 31558",125711949,"L"
27311,"103 KILKENNY ROAD","TYRONE","GA",30290,33.453878983,-84.6216878399999,311,"103 KILKENNY ROAD, TYRONE, GA, 30290","Match","Exact","103 KILKENNY RD, TYRONE, GA, 30290",630158237,"L"
27312,"103 KILLARNEY COURT","PINEHURST","NC",28374,35.1914864990001,-79.4406791329999,312,"103 KILLARNEY COURT, PINEHURST, NC, 28374","Match","Exact","103 KILLARNEY CT, PINEHURST, NC, 28374",20328444,"L"
27313,"103 KILLARNEY PLACE","BONAIRE","GA",31005,32.5478634150001,-83.646532986,313,"103 KILLARNEY PLACE, BONAIRE, GA, 31005","Match","Exact","103 KILLARNEY PL, BONAIRE, GA, 31005",91240552,"L"
27314,"103 KIM LANE","ROCHESTER","NY",14626,43.229234309,-77.70251131,314,"103 KIM LANE, ROCHESTER, NY, 14626","Match","Exact","103 KIM LN, ROCHESTER, NY, 14626",14561304,"L"
27315,"103 KIME ST","WILLARD","MO",65781,37.3067188140001,-93.427263312,315,"103 KIME ST, WILLARD, MO, 65781","Match","Exact","103 KIME ST, WILLARD, MO, 65781",76668355,"L"
27316,"103 KING STREET","DORCHESTER","MA",2122,42.293614258,-71.0549942819999,316,"103 KING STREET, DORCHESTER, MA, 2122","Match","Exact","103 KING ST, DORCHESTER, MA, 02122",85713644,"R"
27317,"103 KINGSDALE CT","SIMPSONIVLLE","SC",29680,34.692896983,-82.28068589,317,"103 KINGSDALE CT, SIMPSONIVLLE, SC, 29680","Match","Non_Exact","103 KINGSDALE CT, SIMPSONVILLE, SC, 29680",628067711,"L"
27318,"103 KINGSDALE CT","SIMPSONVILLE","SC",29680,34.692896983,-82.28068589,318,"103 KINGSDALE CT, SIMPSONVILLE, SC, 29680","Match","Exact","103 KINGSDALE CT, SIMPSONVILLE, SC, 29680",628067711,"L"
27319,"103 KINGSTEN TERRACE DRIVE APT B","PRINCETON","NJ",8540,40.378162601,-74.6059586979999,319,"103 KINGSTEN TERRACE DRIVE APT B, PRINCETON, NJ, 8540","Match","Non_Exact","103 KINGSTON TER, PRINCETON, NJ, 08540",60290005,"L"
27320,"103 KINGWOOD DR","VENETIA","PA",15367,40.268792444,-80.0388886539999,320,"103 KINGWOOD DR, VENETIA, PA, 15367","Match","Exact","103 KINGWOOD DR, VENETIA, PA, 15367",618058365,"L"
27321,"103 KIRBY ST","MANASSAS PARK","VA",20111,38.7776699660001,-77.463602639,321,"103 KIRBY ST, MANASSAS PARK, VA, 20111","Match","Exact","103 KIRBY ST, MANASSAS PARK, VA, 20111",76505722,"L"
27322,"103 KLESCO LANE","SPARTA","GA",31087,33.152028058,-83.115924889,322,"103 KLESCO LANE, SPARTA, GA, 31087","Match","Exact","103 KLESCO LN, SPARTA, GA, 31087",16594741,"R"
27323,"103 KNIGHTS CV B6","WHITEVILLE","NC",28472,34.335081872,-78.6856124769999,323,"103 KNIGHTS CV B6, WHITEVILLE, NC, 28472","Match","Exact","103 KNIGHTS COVE, WHITEVILLE, NC, 28472",64142483,"L"
27324,"103 KOONCE LN","NEWPORT","NC",28570,34.701154821,-76.996277934,324,"103 KOONCE LN, NEWPORT, NC, 28570","Match","Exact","103 KOONCE LN, NEWPORT, NC, 28570",624359579,"L"
27325,"103 KUTZ ROAD","FLEETWOOD","PA",19522,40.452843994,-75.780912262,325,"103 KUTZ ROAD, FLEETWOOD, PA, 19522","Match","Exact","103 KUTZ RD, FLEETWOOD, PA, 19522",648544463,"R"
27326,"103 LA ESPIRAL","ORINDA","CA",94563,37.8964452020001,-122.179721808,326,"103 LA ESPIRAL, ORINDA, CA, 94563","Match","Non_Exact","103 LA ESPIRAL RD, ORINDA, CA, 94563",192045110,"L"
27327,"103 LA MESA COURT","EGG HARBOR TWP","NJ",8234,NA,NA,327,"103 LA MESA COURT, EGG HARBOR TWP, NJ, 8234","No_Match",NA,NA,NA,NA
27328,"103 LA RUE 22","DRY PRONG","LA",71423,NA,NA,328,"103 LA RUE 22, DRY PRONG, LA, 71423","No_Match",NA,NA,NA,NA
27329,"103 LABURNAM CRESCENT APT 1","ROCHESTER","NY",14610,43.1403742900001,-77.586058876,329,"103 LABURNAM CRESCENT APT 1, ROCHESTER, NY, 14610","Match","Non_Exact","103 LABURNAM CRES, ROCHESTER, NY, 14620",14541031,"R"
27330,"103 LAC BARRE COURT","LULING","LA",70070,29.9215769800001,-90.3854441139999,330,"103 LAC BARRE COURT, LULING, LA, 70070","Match","Exact","103 LAC BARRE CT, LULING, LA, 70070",625333602,"R"
27331,"103 LAGO TRACE DR","HUFFMAN","TX",77336,30.0910370550001,-95.140939997,331,"103 LAGO TRACE DR, HUFFMAN, TX, 77336","Match","Exact","103 LAGO TRACE DR, HUFFMAN, TX, 77336",96560333,"R"
27332,"103 LAKE MANOR ROAD","CHAPEL HILL","NC",27516,35.946691093,-79.097092829,332,"103 LAKE MANOR ROAD, CHAPEL HILL, NC, 27516","Match","Exact","103 LAKE MANOR RD, CHAPEL HILL, NC, 27516",647222756,"L"
27333,"103 LAKE RD","CONWAY","NC",27820,36.441279303,-77.2289118909999,333,"103 LAKE RD, CONWAY, NC, 27820","Match","Exact","103 LAKE RD, CONWAY, NC, 27820",54072163,"L"
27334,"103 LAKE ROAD","CONWAY","NC",27820,36.441279303,-77.2289118909999,334,"103 LAKE ROAD, CONWAY, NC, 27820","Match","Exact","103 LAKE RD, CONWAY, NC, 27820",54072163,"L"
27335,"103 LAKE ST","BUCHANAN","MI",49107,41.827503134,-86.364950802,335,"103 LAKE ST, BUCHANAN, MI, 49107","Match","Exact","103 LAKE ST, BUCHANAN, MI, 49107",119977808,"R"
27336,"103 LAKE VILLAGE BLVD","DEARBORN","MI",48126,42.3018096640001,-83.184990823,336,"103 LAKE VILLAGE BLVD, DEARBORN, MI, 48126","Match","Non_Exact","103 LAKE VILLAGE BLVD, DEARBORN, MI, 48120",647871136,"R"
27337,"103 LAKESIDE AVE","SEATTLE","WA",98122,47.6018453560001,-122.2852759,337,"103 LAKESIDE AVE, SEATTLE, WA, 98122","Match","Exact","103 LAKESIDE AVE, SEATTLE, WA, 98122",186594656,"L"
27338,"103 LAKESIDE CIR","JUPITER","FL",33458,26.9243488710001,-80.133399813,338,"103 LAKESIDE CIR, JUPITER, FL, 33458","Match","Exact","103 LAKESIDE CIR, JUPITER, FL, 33458",115581859,"L"
27339,"103 LAKEWOOK DRIVE","MATHIS","TX",78368,NA,NA,339,"103 LAKEWOOK DRIVE, MATHIS, TX, 78368","No_Match",NA,NA,NA,NA
27340,"103 LAMONT ST","WATERBURY","CT",6705,NA,NA,340,"103 LAMONT ST, WATERBURY, CT, 6705","No_Match",NA,NA,NA,NA
27341,"103 LAMPHERE RD","MYSTIC","CT",6355,41.3804487730001,-71.982430107,341,"103 LAMPHERE RD, MYSTIC, CT, 6355","Match","Exact","103 LAMPHERE RD, MYSTIC, CT, 06355",56849268,"R"
27342,"103 LANCASTER DR","CHAPEL HILL","NC",27517,35.9200596680001,-79.007496531,342,"103 LANCASTER DR, CHAPEL HILL, NC, 27517","Match","Exact","103 LANCASTER DR, CHAPEL HILL, NC, 27517",72388941,"R"
27343,"103 LANING AVENUE","PENNINGTON","NJ",8534,40.323480869,-74.792602825,343,"103 LANING AVENUE, PENNINGTON, NJ, 8534","Match","Exact","103 LANING AVE, PENNINGTON, NJ, 08534",60176007,"R"
27344,"103 LAUREL AVE","HAMBURG","PA",19526,40.558101584,-76.010144125,344,"103 LAUREL AVE, HAMBURG, PA, 19526","Match","Exact","103 LAUREL AVE, HAMBURG, PA, 19526",80400011,"R"
27345,"103 LAUREL LAKE DR","HUDSON","OH",44236,41.245190651,-81.466954302,345,"103 LAUREL LAKE DR, HUDSON, OH, 44236","Match","Exact","103 LAUREL LAKE DR, HUDSON, OH, 44236",61377362,"R"
27346,"103 LAUREL STREET","CANTON","GA",30114,34.2208187100001,-84.525865156,346,"103 LAUREL STREET, CANTON, GA, 30114","Match","Exact","103 LAUREL ST, CANTON, GA, 30114",625410642,"L"
27347,"103 LAWNWOOD COURT","CARY","NC",27519,35.7991244310001,-78.8497208429999,347,"103 LAWNWOOD COURT, CARY, NC, 27519","Match","Exact","103 LAWNWOOD CT, CARY, NC, 27519",612819468,"L"
27348,"103 LAWNWOOD CT","CARY","NC",27519,35.7991244310001,-78.8497208429999,348,"103 LAWNWOOD CT, CARY, NC, 27519","Match","Exact","103 LAWNWOOD CT, CARY, NC, 27519",612819468,"L"
27349,"103 LAWSHEE CIRCLE","GARNER","NC",27529,35.6837391830001,-78.626561291,349,"103 LAWSHEE CIRCLE, GARNER, NC, 27529","Match","Non_Exact","103 LAWSHE CIR, GARNER, NC, 27529",72563675,"L"
27350,"103 LEATHERMAN COURT","ANDERSON","SC",29621,34.5446805600001,-82.6147853539999,350,"103 LEATHERMAN COURT, ANDERSON, SC, 29621","Match","Exact","103 LEATHERMAN CT, ANDERSON, SC, 29621",25496456,"L"
27351,"103 LEE STREET","GASSAWAY","WV",26624,38.6760879390001,-80.7693974909999,351,"103 LEE STREET, GASSAWAY, WV, 26624","Match","Exact","103 LEE ST, GASSAWAY, WV, 26624",639730191,"L"
27352,"103 LEFLEUR DR","SLIDELL","LA",70460,30.2783998690001,-89.859797659,352,"103 LEFLEUR DR, SLIDELL, LA, 70460","Match","Exact","103 LEFLEUR DR, SLIDELL, LA, 70460",111248626,"R"
27353,"103 LEHMAN LN","MILL VALLEY","CA",94941,37.8946190820001,-122.537467819,353,"103 LEHMAN LN, MILL VALLEY, CA, 94941","Match","Exact","103 LEHMAN LN, MILL VALLEY, CA, 94941",192766602,"L"
27354,"103 LEISURE DR","MONROE","LA",71203,32.5572486200001,-92.03021975,354,"103 LEISURE DR, MONROE, LA, 71203","Match","Exact","103 LEISURE DR, MONROE, LA, 71203",161089573,"L"
27355,"103 LEONARD AVE","WARSAW","KY",41095,NA,NA,355,"103 LEONARD AVE, WARSAW, KY, 41095","No_Match",NA,NA,NA,NA
27356,"103 LESLIE","GROESBECK","TX",76642,31.508189514,-96.5216601829999,356,"103 LESLIE, GROESBECK, TX, 76642","Match","Non_Exact","103 LESLIE ST, GROESBECK, TX, 76642",25057412,"R"
27357,"103 LEWIS COURT","FRANKLINVILLE","NJ",8322,39.5901782010001,-75.009348535,357,"103 LEWIS COURT, FRANKLINVILLE, NJ, 8322","Match","Exact","103 LEWIS CT, FRANKLINVILLE, NJ, 08322",643907925,"L"
27358,"103 LEWIS DRIVE","UPPER NYACK","NY",10960,41.1160137410001,-73.915403668,358,"103 LEWIS DRIVE, UPPER NYACK, NY, 10960","Match","Non_Exact","103 LEWIS DR, NYACK, NY, 10960",124604833,"L"
27359,"103 LEXINGTON STREET","BURLINGTON","MA",1803,42.4905287930001,-71.208961372,359,"103 LEXINGTON STREET, BURLINGTON, MA, 1803","Match","Exact","103 LEXINGTON ST, BURLINGTON, MA, 01803",86882843,"L"
27360,"103 LICK CREEK ROAD","HAMILTON","MT",59840,46.094159538,-114.185260777,360,"103 LICK CREEK ROAD, HAMILTON, MT, 59840","Match","Exact","103 LICK CREEK RD, HAMILTON, MT, 59840",153520084,"R"
27361,"103 LIGHTHOUSE DRIVE","CAROLINA BEACH","NC",28428,34.04435849,-77.893719473,361,"103 LIGHTHOUSE DRIVE, CAROLINA BEACH, NC, 28428","Match","Exact","103 LIGHTHOUSE DR, CAROLINA BCH, NC, 28428",152746858,"L"
27362,"103 LIGHTHOUSE DUNES PARK","ST. JOSEPH","MI",49085,42.115908371,-86.485298155,362,"103 LIGHTHOUSE DUNES PARK, ST. JOSEPH, MI, 49085","Match","Non_Exact","103 LIGHTHOUSE DUNES PATH, SAINT JOSEPH, MI, 49085",615605230,"L"
27363,"103 LIGHTHOUSE LANE","KEMP","TX",75143,32.3923240980001,-96.157076229,363,"103 LIGHTHOUSE LANE, KEMP, TX, 75143","Match","Exact","103 LIGHTHOUSE LN, KEMP, TX, 75143",640261705,"L"
27364,"103 LINCOLN AVE","JERSEYVILLE","IL",62052,39.1162152360001,-90.338015449,364,"103 LINCOLN AVE, JERSEYVILLE, IL, 62052","Match","Exact","103 LINCOLN AVE, JERSEYVILLE, IL, 62052",97876915,"R"
27365,"103 LINCOLN AVE","NILES","OH",44446,41.1842816020001,-80.748380756,365,"103 LINCOLN AVE, NILES, OH, 44446","Match","Exact","103 LINCOLN AVE, NILES, OH, 44446",117409381,"R"
27366,"103 LINCOLN PLACE DRIVE","DES MOINES","IA",50312,41.5764990340001,-93.660096688,366,"103 LINCOLN PLACE DRIVE, DES MOINES, IA, 50312","Match","Exact","103 LINCOLN PLACE DR, DES MOINES, IA, 50312",65780867,"R"
27367,"103 LINCOLN STREET","GREENVILLE","SC",29601,34.8351248120001,-82.4147457239999,367,"103 LINCOLN STREET, GREENVILLE, SC, 29601","Match","Exact","103 LINCOLN ST, GREENVILLE, SC, 29601",38300443,"R"
27368,"103 LINCOLN STREET","MONTCLAIR","NJ",7042,40.8005125560001,-74.2134107589999,368,"103 LINCOLN STREET, MONTCLAIR, NJ, 7042","Match","Exact","103 LINCOLN ST, MONTCLAIR, NJ, 07042",63450652,"R"
27369,"103 LINDENHILL LANE","SAVANNAH","GA",31405,32.054221581,-81.244255656,369,"103 LINDENHILL LANE, SAVANNAH, GA, 31405","Match","Non_Exact","103 LINDENHILL LN, SAVANNAH, GA, 31419",627397507,"L"
27370,"103 LINDSEY LANE","DOTHAN","AL",36305,31.2115791680001,-85.4773226619999,370,"103 LINDSEY LANE, DOTHAN, AL, 36305","Match","Exact","103 LINDSEY LN, DOTHAN, AL, 36305",101222091,"L"
27371,"103 LITTLE CURRENT","CORBIN","KY",40701,36.9185401030001,-84.167280149,371,"103 LITTLE CURRENT, CORBIN, KY, 40701","Match","Non_Exact","103 LITTLE CURRENT TRL, CORBIN, KY, 40701",150155025,"L"
27372,"103 LOCKE ROAD","RYE","NH",3870,42.9975040210001,-70.758466114,372,"103 LOCKE ROAD, RYE, NH, 3870","Match","Exact","103 LOCKE RD, RYE, NH, 03870",113689854,"R"
27373,"103 LOGAN ST","STERLING","CO",80751,40.640467087,-103.20259651,373,"103 LOGAN ST, STERLING, CO, 80751","Match","Non_Exact","103 W LOGAN ST, STERLING, CO, 80751",136170561,"L"
27374,"103 LONG LN","BLOOMINGBURG","NY",12721,41.548674632,-74.387002033,374,"103 LONG LN, BLOOMINGBURG, NY, 12721","Match","Exact","103 LONG LN, BLOOMINGBURG, NY, 12721",124455059,"L"
27375,"103 LONGBRIDGE DRIVE","CARY","NC",27518,35.742956383,-78.746110749,375,"103 LONGBRIDGE DRIVE, CARY, NC, 27518","Match","Exact","103 LONGBRIDGE DR, CARY, NC, 27518",72590932,"L"
27376,"103 LOOP ROAD","NEWPORT","VI",5855,NA,NA,376,"103 LOOP ROAD, NEWPORT, VI, 5855","No_Match",NA,NA,NA,NA
27377,"103 LOS PADRES DR","THOUSAND OAKS","CA",91361,34.1715944150001,-118.875222092,377,"103 LOS PADRES DR, THOUSAND OAKS, CA, 91361","Match","Exact","103 LOS PADRES DR, THOUSAND OAKS, CA, 91361",639035324,"R"
27378,"103 LOUISE STREET","SAYRE","PA",18840,41.9824243460001,-76.5292648349999,378,"103 LOUISE STREET, SAYRE, PA, 18840","Match","Exact","103 LOUISE ST, SAYRE, PA, 18840",176957949,"R"
27379,"103 LOWE STREET","ASHLAND CITY","TN",37015,36.2700990010001,-87.0599514039999,379,"103 LOWE STREET, ASHLAND CITY, TN, 37015","Match","Exact","103 LOWE ST, ASHLAND CITY, TN, 37015",72874601,"L"
27380,"103 LUPINE LANE","CHARLOTTESVILLE","VA",22911,38.134428669,-78.4455129529999,380,"103 LUPINE LANE, CHARLOTTESVILLE, VA, 22911","Match","Exact","103 LUPINE LN, CHARLOTTESVILLE, VA, 22911",83363406,"L"
27381,"103 LUZELLE DRIVE","WINSTON SALEM","NC",27103,36.046210547,-80.302872173,381,"103 LUZELLE DRIVE, WINSTON SALEM, NC, 27103","Match","Exact","103 LUZELLE DR, WINSTON SALEM, NC, 27103",84648483,"L"
27382,"103 MACDONOUGH STREET","BROOKLYN","NY",11216,40.6811947420001,-73.9422127779999,382,"103 MACDONOUGH STREET, BROOKLYN, NY, 11216","Match","Exact","103 MACDONOUGH ST, BROOKLYN, NY, 11216",59079228,"L"
27383,"103 MACDOUGAL STREET","NEW YORK","NY",10012,40.7296136000001,-74.000822251,383,"103 MACDOUGAL STREET, NEW YORK, NY, 10012","Match","Exact","103 MACDOUGAL ST, NEW YORK, NY, 10012",59660038,"L"
27384,"103 MADISON AVE","ASHEVILLE","NC",28801,35.606205077,-82.548921617,384,"103 MADISON AVE, ASHEVILLE, NC, 28801","Match","Exact","103 MADISON AVE, ASHEVILLE, NC, 28801",36845426,"L"
27385,"103 MADISON COURT","MILFORD","PA",18337,41.30403105,-74.969830687,385,"103 MADISON COURT, MILFORD, PA, 18337","Match","Exact","103 MADISON CT, MILFORD, PA, 18337",191435008,"L"
27386,"103 MADISON ST SOUTH","HAZLETON","IA",50641,42.6170635760001,-91.902848674,386,"103 MADISON ST SOUTH, HAZLETON, IA, 50641","Match","Exact","103 MADISON ST S, HAZLETON, IA, 50641",101133386,"R"
27387,"103 MAGNOLIA COURT","LULING","LA",70070,29.8881131420001,-90.342153958,387,"103 MAGNOLIA COURT, LULING, LA, 70070","Match","Exact","103 MAGNOLIA CT, LULING, LA, 70070",93619188,"R"
27388,"103 MAGNOLIA DR","GREENEVILLE","TN",37743,36.146776093,-82.8420439349999,388,"103 MAGNOLIA DR, GREENEVILLE, TN, 37743","Match","Exact","103 MAGNOLIA DR, GREENEVILLE, TN, 37743",127767670,"L"
27389,"103 MAGNOLIA STREET","MINDEN","LA",71055,32.6072027020001,-93.3092643909999,389,"103 MAGNOLIA STREET, MINDEN, LA, 71055","Match","Exact","103 MAGNOLIA ST, MINDEN, LA, 71055",73394076,"R"
27390,"103 MAHER DRIVE","MOREHEAD","KY",40351,38.197800188,-83.408754847,390,"103 MAHER DRIVE, MOREHEAD, KY, 40351","Match","Non_Exact","103 MAHER ST, MOREHEAD, KY, 40351",39630214,"L"
27391,"103 MAIN STREET","ALTON","NH",3809,43.4551716170001,-71.219933407,391,"103 MAIN STREET, ALTON, NH, 3809","Match","Exact","103 MAIN ST, ALTON, NH, 03809",145499418,"L"
27392,"103 MAIN","DOON","IA",51235,43.2793411170001,-96.235768959,392,"103 MAIN, DOON, IA, 51235","Match","Non_Exact","103 MAIN ST, DOON, IA, 51235",30201154,"R"
27393,"103 MALCOLM X BLVD","BROOKLYN","NY",11221,40.69009105,-73.93047114,393,"103 MALCOLM X BLVD, BROOKLYN, NY, 11221","Match","Exact","103 MALCOLM X BLVD, BROOKLYN, NY, 11221",59082733,"L"
27394,"103 MALLARD WAY","PEEKSKILL","NY",10566,41.2958873590001,-73.8994057479999,394,"103 MALLARD WAY, PEEKSKILL, NY, 10566","Match","Exact","103 MALLARD WAY, PEEKSKILL, NY, 10566",139845527,"R"
27395,"103 MALTESE LANE","OAK RIDGE","TN",37830,35.995402611,-84.317850713,395,"103 MALTESE LANE, OAK RIDGE, TN, 37830","Match","Exact","103 MALTESE LN, OAK RIDGE, TN, 37830",90134829,"L"
27396,"103 MANNING RD","GREENWOOD","SC",29646,34.218804069,-82.143325928,396,"103 MANNING RD, GREENWOOD, SC, 29646","Match","Non_Exact","103 MANNING RD, GREENWOOD, SC, 29649",50806380,"R"
27397,"103 MANOR AVE","HARRISION","NJ",7029,40.7467723300001,-74.149038936,397,"103 MANOR AVE, HARRISION, NJ, 7029","Match","Non_Exact","103 MANOR AVE, HARRISON, NJ, 07029",59601537,"R"
27398,"103 MANOR AVE","HARRISON","NJ",7029,40.7467723300001,-74.149038936,398,"103 MANOR AVE, HARRISON, NJ, 7029","Match","Exact","103 MANOR AVE, HARRISON, NJ, 07029",59601537,"R"
27399,"103 MAPLE ST","JONESVILLE","NC",28642,36.2313588420001,-80.83263218,399,"103 MAPLE ST, JONESVILLE, NC, 28642","Match","Exact","103 MAPLE ST, JONESVILLE, NC, 28642",84738362,"L"
27400,"103 MAPLE STREET","BELLA VISTA","AR",72714,36.4331300920001,-94.227019718,400,"103 MAPLE STREET, BELLA VISTA, AR, 72714","Match","Exact","103 MAPLE ST, BELLA VISTA, AR, 72714",47831528,"L"
27401,"103 MAPLEWOOD AVENUE","CARMICHAELS","PA",15320,39.8895250400001,-79.979232403,401,"103 MAPLEWOOD AVENUE, CARMICHAELS, PA, 15320","Match","Exact","103 MAPLEWOOD AVE, CARMICHAELS, PA, 15320",51373698,"L"
27402,"103 MARANGALE ROAD","MANLIUS","NY",13104,43.012876868,-75.992015097,402,"103 MARANGALE ROAD, MANLIUS, NY, 13104","Match","Exact","103 MARANGALE RD, MANLIUS, NY, 13104",46576790,"L"
27403,"103 MARBLE HILL COURT","SCHAUMBURG","IL",60193,42.0260332400001,-88.071261212,403,"103 MARBLE HILL COURT, SCHAUMBURG, IL, 60193","Match","Exact","103 MARBLE HILL CT, SCHAUMBURG, IL, 60193",111695069,"L"
27404,"103 MARBURY CT 2B","CARY","NC",27513,35.811138326,-78.789122388,404,"103 MARBURY CT 2B, CARY, NC, 27513","Match","Exact","103 MARBURY CT, CARY, NC, 27513",72589129,"R"
27405,"103 MARIA COURT","KENDALL PARK","NJ",8824,40.431988575,-74.5422283999999,405,"103 MARIA COURT, KENDALL PARK, NJ, 8824","Match","Exact","103 MARIA CT, KENDALL PARK, NJ, 08824",60318594,"R"
27406,"103 MARRON RD","FAYETTEVILLE","GA",30215,33.4160987870001,-84.423704258,406,"103 MARRON RD, FAYETTEVILLE, GA, 30215","Match","Exact","103 MARRON RD, FAYETTEVILLE, GA, 30215",75928647,"L"
27407,"103 MARVIN AVE","IVA","SC",29655,34.3041306690001,-82.652732294,407,"103 MARVIN AVE, IVA, SC, 29655","Match","Exact","103 MARVIN AVE, IVA, SC, 29655",25510034,"L"
27408,"103 MARY STREET","HAMILTON","NJ",8610,40.1981124170001,-74.726389841,408,"103 MARY STREET, HAMILTON, NJ, 8610","Match","Exact","103 MARY ST, HAMILTON, NJ, 08610",60182694,"L"
27409,"103 MARYLAND AVE","PALMYRA","NJ",8065,40.0089851970001,-75.027174707,409,"103 MARYLAND AVE, PALMYRA, NJ, 8065","Match","Exact","103 MARYLAND AVE, PALMYRA, NJ, 08065",134095617,"L"
27410,"103 MASTERS STREET","RADCLIFF","KY",40160,37.7974988880001,-85.926029816,410,"103 MASTERS STREET, RADCLIFF, KY, 40160","Match","Exact","103 MASTERS ST, RADCLIFF, KY, 40160",634614574,"L"
27411,"103 MATTERHORN","BLUFFTON","OH",45817,40.8999789100001,-83.8790731669999,411,"103 MATTERHORN, BLUFFTON, OH, 45817","Match","Non_Exact","103 MATTERHORN DR, BLUFFTON, OH, 45817",36477314,"L"
27412,"103 MATTHEWS RIDGE","ST MARYS","GA",31558,30.779273776,-81.581648996,412,"103 MATTHEWS RIDGE, ST MARYS, GA, 31558","Match","Exact","103 MATTHEWS RIDGE, SAINT MARYS, GA, 31558",125709539,"L"
27413,"103 MAYFIELD DRIVE","COATESVILLE","PA",19320,39.9857960690001,-75.838063791,413,"103 MAYFIELD DRIVE, COATESVILLE, PA, 19320","Match","Exact","103 MAYFIELD DR, COATESVILLE, PA, 19320",179558123,"R"
27414,"103 MCCONNELL AVENUE","BAYPORT","NY",11705,40.7390162940001,-73.0657480789999,414,"103 MCCONNELL AVENUE, BAYPORT, NY, 11705","Match","Exact","103 MCCONNELL AVE, BAYPORT, NY, 11705",114015557,"L"
27415,"103 MCDOWELL STREET","PORTLAND","TN",37148,36.5735600680001,-86.5069942659999,415,"103 MCDOWELL STREET, PORTLAND, TN, 37148","Match","Exact","103 MCDOWELL ST, PORTLAND, TN, 37148",611948558,"L"
27416,"103 MCGRAW PLACE","ITHACA","NY",14850,42.450327789,-76.488470262,416,"103 MCGRAW PLACE, ITHACA, NY, 14850","Match","Exact","103 MCGRAW PL, ITHACA, NY, 14850",18857423,"L"
27417,"103 MCKNIGHT CIRCLE","ROSS TOWNSHIP","PA",15367,NA,NA,417,"103 MCKNIGHT CIRCLE, ROSS TOWNSHIP, PA, 15367","No_Match",NA,NA,NA,NA
27418,"103 MEADOWLAKE DRIVE","GALLATIN","TN",37066,36.347471565,-86.482757484,418,"103 MEADOWLAKE DRIVE, GALLATIN, TN, 37066","Match","Exact","103 MEADOWLAKE DR, GALLATIN, TN, 37066",29790154,"L"
27419,"103 MEETINGHOUSE ROAD","MASHPEE","MA",2649,41.6410583730001,-70.479663766,419,"103 MEETINGHOUSE ROAD, MASHPEE, MA, 2649","Match","Exact","103 MEETINGHOUSE RD, MASHPEE, MA, 02649",121642721,"L"
27420,"103 MERCER AVE","SPRING LAKE","NJ",7762,40.1486948400001,-74.025550916,420,"103 MERCER AVE, SPRING LAKE, NJ, 7762","Match","Exact","103 MERCER AVE, SPRING LAKE, NJ, 07762",90466146,"L"
27421,"103 MEREDITH DRIVE","IRVING","TX",75063,32.9416258300001,-96.944495019,421,"103 MEREDITH DRIVE, IRVING, TX, 75063","Match","Exact","103 MEREDITH DR, IRVING, TX, 75063",102998450,"R"
27422,"103 MESA","MANITOU SPRINGS","CO",80829,38.8608910190001,-104.92321054,422,"103 MESA, MANITOU SPRINGS, CO, 80829","Match","Non_Exact","103 MESA AVE, MANITOU SPRINGS, CO, 80829",105505708,"L"
27423,"103 METZGER ST","PORTAL","ND",58772,NA,NA,423,"103 METZGER ST, PORTAL, ND, 58772","No_Match",NA,NA,NA,NA
27424,"103 MICHELLE COURT","PANAMA CITY BEACH","FL",32407,30.1964130430001,-85.762050922,424,"103 MICHELLE COURT, PANAMA CITY BEACH, FL, 32407","Match","Exact","103 MICHELLE CT, PANAMA CITY BEACH, FL, 32407",7059300,"L"
27425,"103 MICHELLE DRIVE","SANTA FE","NM",87501,35.696692521,-105.959203226,425,"103 MICHELLE DRIVE, SANTA FE, NM, 87501","Match","Exact","103 MICHELLE DR, SANTA FE, NM, 87501",169377081,"L"
27426,"103 MIDDLEBURY CT","DURHAM","NC",27713,35.894586336,-78.9220262969999,426,"103 MIDDLEBURY CT, DURHAM, NC, 27713","Match","Exact","103 MIDDLEBURY CT, DURHAM, NC, 27713",71760152,"L"
27427,"103 MIDLAND AVE","HIGH POINT","NC",27260,35.962303563,-79.940981445,427,"103 MIDLAND AVE, HIGH POINT, NC, 27260","Match","Exact","103 MIDLAND AVE, HIGH POINT, NC, 27260",131092169,"L"
27428,"103 MIDVALE CROSSING","STAUNTON","VA",24401,38.175049517,-79.0959359559999,428,"103 MIDVALE CROSSING, STAUNTON, VA, 24401","Match","Exact","103 MIDVALE CROSSING, STAUNTON, VA, 24401",641426123,"R"
27429,"103 MIDWEST CLUB PARKWAY","OAK BROOK","IL",60523,41.830202931,-87.980971456,429,"103 MIDWEST CLUB PARKWAY, OAK BROOK, IL, 60523","Match","Exact","103 MIDWEST CLUB PKWY, OAK BROOK, IL, 60523",112546807,"R"
27430,"103 MILAN AVENUE","AMHERST","OH",44001,41.398519906,-82.2270129249999,430,"103 MILAN AVENUE, AMHERST, OH, 44001","Match","Exact","103 MILAN AVE, AMHERST, OH, 44001",55429439,"R"
27431,"103 MILE CREEK RD","OLD LYME","CT",6371,41.3047777200001,-72.3047930559999,431,"103 MILE CREEK RD, OLD LYME, CT, 6371","Match","Exact","103 MILE CREEK RD, OLD LYME, CT, 06371",56842484,"L"
27432,"103 MILITA ST","VALLEJO","CA",94590,38.1138066600001,-122.240466516,432,"103 MILITA ST, VALLEJO, CA, 94590","Match","Exact","103 MILITA ST, VALLEJO, CA, 94590",192527921,"L"
27433,"103 MILL POND LANE","ROYAL PALM BEACH","FL",33411,26.682732136,-80.2362122979999,433,"103 MILL POND LANE, ROYAL PALM BEACH, FL, 33411","Match","Exact","103 MILL POND LN, ROYAL PALM BEACH, FL, 33411",115259539,"L"
27434,"103 MILLINGTON TRAIL","MANSFIELD","TX",76063,32.6089919720001,-97.138779421,434,"103 MILLINGTON TRAIL, MANSFIELD, TX, 76063","Match","Exact","103 MILLINGTON TRL, MANSFIELD, TX, 76063",102118569,"L"
27435,"103 MIRA SOL DRIVE","LAS VEGAS","NM",87701,35.546368828,-105.257585647,435,"103 MIRA SOL DRIVE, LAS VEGAS, NM, 87701","Match","Exact","103 MIRA SOL DR, LAS VEGAS, NM, 87701",612767470,"R"
27436,"103 MITCHELL STREET","HOT SPRINGS","AR",71913,34.484698956,-93.077139163,436,"103 MITCHELL STREET, HOT SPRINGS, AR, 71913","Match","Exact","103 MITCHELL ST, HOT SPRINGS, AR, 71913",22733430,"L"
27437,"103 MITCHELL STREET","LEWISTON WOODVILLE","NC",27849,36.123648739,-77.175468926,437,"103 MITCHELL STREET, LEWISTON WOODVILLE, NC, 27849","Match","Exact","103 MITCHELL ST, LEWISTON WOODVILLE, NC, 27849",56518838,"L"
27438,"103 MOCKINGBIRD COURT","LOGAN","NJ",8085,39.7478007770001,-75.370940119,438,"103 MOCKINGBIRD COURT, LOGAN, NJ, 8085","Match","Non_Exact","103 MOCKINGBIRD CT, LOGAN TOWNSHIP, NJ, 08085",134599235,"L"
27439,"103 MOCKINGBIRD LN","CARLISLE","KY",40311,38.317303038,-84.019565792,439,"103 MOCKINGBIRD LN, CARLISLE, KY, 40311","Match","Exact","103 MOCKINGBIRD LN, CARLISLE, KY, 40311",642850075,"R"
27440,"103 MOHAWK PATH","HOLLISTON","MA",1746,42.225973864,-71.418930093,440,"103 MOHAWK PATH, HOLLISTON, MA, 1746","Match","Exact","103 MOHAWK PATH, HOLLISTON, MA, 01746",87090425,"R"
27441,"103 MOLLIE B CT","HOT SPRINGS","AR",71913,34.47875873,-93.136503374,441,"103 MOLLIE B CT, HOT SPRINGS, AR, 71913","Match","Exact","103 MOLLIE B CT, HOT SPRINGS, AR, 71913",22761901,"L"
27442,"103 MONACO DR","AHOSKIE","NC",27910,36.293280166,-76.967792719,442,"103 MONACO DR, AHOSKIE, NC, 27910","Match","Exact","103 MONACO DR, AHOSKIE, NC, 27910",56781989,"L"
27443,"103 MONET TERRACE","WINCHESTER","VA",22601,39.166251871,-78.1028784549999,443,"103 MONET TERRACE, WINCHESTER, VA, 22601","Match","Non_Exact","103 MONET TER, WINCHESTER, VA, 22602",55596620,"R"
27444,"103 MONTANA AVENUE","MOTT","ND",58646,46.3713168840001,-102.315917313,444,"103 MONTANA AVENUE, MOTT, ND, 58646","Match","Exact","103 MONTANA AVE, MOTT, ND, 58646",197189117,"L"
27445,"103 MONTE CARLO CIRCLE","CLEMSON","SC",29631,34.694619828,-82.799062253,445,"103 MONTE CARLO CIRCLE, CLEMSON, SC, 29631","Match","Exact","103 MONTE CARLO CIR, CLEMSON, SC, 29631",26165313,"L"
27446,"103 MONTEBELLO DRIVE","SUFFERN","NY",10901,41.124736242,-74.1322311929999,446,"103 MONTEBELLO DRIVE, SUFFERN, NY, 10901","Match","Non_Exact","103 MONTEBELLO RD, SUFFERN, NY, 10901",647913828,"R"
27447,"103 MONTROSE LANE","WAYNESVILLE","NC",28785,35.5490836980001,-82.9768420619999,447,"103 MONTROSE LANE, WAYNESVILLE, NC, 28785","Match","Exact","103 MONTROSE LN, WAYNESVILLE, NC, 28785",648410839,"L"
27448,"103 MOORE STREET","SWANSBORO","NC",28584,NA,NA,448,"103 MOORE STREET, SWANSBORO, NC, 28584","No_Match",NA,NA,NA,NA
27449,"103 MOORE STREET","SWANSONBORO","NC",28584,NA,NA,449,"103 MOORE STREET, SWANSONBORO, NC, 28584","No_Match",NA,NA,NA,NA
27450,"103 MORGAN PLACE","SUMMERVILLE","SC",29464,32.965210223,-80.1609915939999,450,"103 MORGAN PLACE, SUMMERVILLE, SC, 29464","Match","Non_Exact","103 MORGAN PL, SUMMERVILLE, SC, 29485",178467497,"L"
27451,"103 MORRIS STREET STE O","SEBASTOPOL","CA",95472,38.405497273,-122.819676561,451,"103 MORRIS STREET STE O, SEBASTOPOL, CA, 95472","Match","Exact","103 MORRIS ST, SEBASTOPOL, CA, 95472",67520128,"R"
27452,"103 MOSELLE DRIVE","CLINTON","MS",39056,32.3199256340001,-90.346329635,452,"103 MOSELLE DRIVE, CLINTON, MS, 39056","Match","Exact","103 MOSELLE DR, CLINTON, MS, 39056",65383309,"L"
27453,"103 MOSS CREEK COURT","GREENVILLE","SC",29609,34.92510422,-82.349545146,453,"103 MOSS CREEK COURT, GREENVILLE, SC, 29609","Match","Exact","103 MOSS CREEK CT, GREENVILLE, SC, 29609",38340046,"L"
27454,"103 MOSS CREEK DRIVE APT 202","FOREST","VA",24551,37.3332557590001,-79.264611939,454,"103 MOSS CREEK DRIVE APT 202, FOREST, VA, 24551","Match","Exact","103 MOSS CREEK DR, FOREST, VA, 24551",644910324,"L"
27455,"103 MOSSY ROCK CV","HUTTO","TX",78634,30.5291699220001,-97.543753897,455,"103 MOSSY ROCK CV, HUTTO, TX, 78634","Match","Exact","103 MOSSY ROCK COVE, HUTTO, TX, 78634",619963338,"L"
27456,"103 MOUNTAIN VIEW DR","BLACKSBURG","VA",24060,37.225275465,-80.4094067349999,456,"103 MOUNTAIN VIEW DR, BLACKSBURG, VA, 24060","Match","Non_Exact","103 MOUNTAIN VIEW DR SE, BLACKSBURG, VA, 24060",73616371,"L"
27457,"103 MOUNTAIN VIEW DRIVE APT 23","JOHNSON CITY","TN",37601,36.3009076910001,-82.318905461,457,"103 MOUNTAIN VIEW DRIVE APT 23, JOHNSON CITY, TN, 37601","Match","Exact","103 MOUNTAIN VIEW DR, JOHNSON CITY, TN, 37601",649192669,"L"
27458,"103 MT SALUS RD","CLINTON","MS",39056,32.331447988,-90.316778287,458,"103 MT SALUS RD, CLINTON, MS, 39056","Match","Exact","103 MT SALUS RD, CLINTON, MS, 39056",611234888,"L"
27459,"103 MULBERRY STREET","CARRBORO","NC",27510,35.9165628480001,-79.07102051,459,"103 MULBERRY STREET, CARRBORO, NC, 27510","Match","Exact","103 MULBERRY ST, CARRBORO, NC, 27510",72378646,"L"
27460,"103 MULBERY CIRCLE","STATEN ISLAND","NY",10314,40.598958646,-74.1662858399999,460,"103 MULBERY CIRCLE, STATEN ISLAND, NY, 10314","Match","Non_Exact","103 MULBERRY CIR, STATEN ISLAND, NY, 10314",59871783,"L"
27461,"103 MUNROE STREET","ROXBURY","MA",2119,42.3189627460001,-71.0892431249999,461,"103 MUNROE STREET, ROXBURY, MA, 2119","Match","Exact","103 MUNROE ST, ROXBURY, MA, 02119",85700445,"R"
27462,"103 MYLES LN","BONNAIRE","GA",31005,32.573710486,-83.644572426,462,"103 MYLES LN, BONNAIRE, GA, 31005","Match","Non_Exact","103 MYLES LN, BONAIRE, GA, 31005",639591593,"R"
27463,"103 N 10TH STREET  5C","BROOKLYN","NY",11249,40.671899819,-73.993642522,463,"103 N 10TH STREET  5C, BROOKLYN, NY, 11249","Match","Exact","103 10TH ST, BROOKLYN, NY, 11249",59075603,"L"
27464,"103 N 5TH AVE","SULLY","IA",50251,NA,NA,464,"103 N 5TH AVE, SULLY, IA, 50251","Tie",NA,NA,NA,NA
27465,"103 N 8TH STREET APT 1","BROOKLYN","NY",11211,40.672481071,-73.9913509089999,465,"103 N 8TH STREET APT 1, BROOKLYN, NY, 11211","Match","Non_Exact","103 8TH ST, BROOKLYN, NY, 11215",59075588,"L"
27466,"103 N 9th Street","SALINA","KS",67401,38.8417406450001,-97.612429762,466,"103 N 9th Street, SALINA, KS, 67401","Match","Exact","103 N 9TH ST, SALINA, KS, 67401",196684866,"L"
27467,"103 N 9TH STREET","SALINA","KS",67401,38.8417406450001,-97.612429762,467,"103 N 9TH STREET, SALINA, KS, 67401","Match","Exact","103 N 9TH ST, SALINA, KS, 67401",196684866,"L"
27468,"103 N ALLUVIAL AVE","FRESNO","CA",93650,36.8444451880001,-119.79217549,468,"103 N ALLUVIAL AVE, FRESNO, CA, 93650","Match","Non_Exact","103 W ALLUVIAL AVE, FRESNO, CA, 93650",197572132,"L"
27469,"103 N BEVERLY DR","AMARILLO","TX",79106,35.2164095030001,-101.892178675,469,"103 N BEVERLY DR, AMARILLO, TX, 79106","Match","Non_Exact","103 N BEVERLY ST, AMARILLO, TX, 79106",182468607,"L"
27470,"103 N CHURCH ST","SNOW HILL","MD",21863,38.17423906,-75.394468514,470,"103 N CHURCH ST, SNOW HILL, MD, 21863","Match","Exact","103 N CHURCH ST, SNOW HILL, MD, 21863",647302549,"R"
27471,"103 N COTTAGE GROVE","PRINCEVILLE","IL",61559,40.930283837,-89.759700638,471,"103 N COTTAGE GROVE, PRINCEVILLE, IL, 61559","Match","Non_Exact","103 N COTTAGE GROVE AVE, PRINCEVILLE, IL, 61559",8703352,"L"
27472,"103 N CROMWELL DRIVE","MOORESVILLE","NC",28115,35.5777315500001,-80.7901603779999,472,"103 N CROMWELL DRIVE, MOORESVILLE, NC, 28115","Match","Exact","103 N CROMWELL DR, MOORESVILLE, NC, 28115",635007077,"L"
27473,"103 N DORCHESTER CT","WAUKEGAN","IL",60085,42.361029914,-87.851999773,473,"103 N DORCHESTER CT, WAUKEGAN, IL, 60085","Match","Exact","103 DORCHESTER CT, WAUKEGAN, IL, 60085",119719071,"R"
27474,"103 N GJERE AVE APT 1","CALEDONIA","MN",55921,43.6343674080001,-91.5084685309999,474,"103 N GJERE AVE APT 1, CALEDONIA, MN, 55921","Match","Non_Exact","103 N GJERE AVE, CALEDONIA, MN, 55921",55802430,"L"
27475,"103 N GREENWOOD AVE","TULSA","OK",74120,36.159886945,-95.986108777,475,"103 N GREENWOOD AVE, TULSA, OK, 74120","Match","Exact","103 N GREENWOOD AVE, TULSA, OK, 74120",166437774,"R"
27476,"103 N HOBACK ST","HELENA","MT",59601,46.585321149,-112.025654563,476,"103 N HOBACK ST, HELENA, MT, 59601","Match","Exact","103 N HOBACK ST, HELENA, MT, 59601",202349899,"R"
27477,"103 N KENT STREET - 1","LAKE BENTON","MN",56149,NA,NA,477,"103 N KENT STREET - 1, LAKE BENTON, MN, 56149","Tie",NA,NA,NA,NA
27478,"103 N LABURNUM AVE APT 3","RICHOMOND","UM",23223,NA,NA,478,"103 N LABURNUM AVE APT 3, RICHOMOND, UM, 23223","No_Match",NA,NA,NA,NA
27479,"103 N LAWN AVE","BLUFFTON","OH",45817,40.894963116,-83.8939404819999,479,"103 N LAWN AVE, BLUFFTON, OH, 45817","Match","Exact","103 N LAWN AVE, BLUFFTON, OH, 45817",35562037,"L"
27480,"103 N LOUDOUN STREET","WINCHESTER","VA",22601,39.1854171800001,-78.165129985,480,"103 N LOUDOUN STREET, WINCHESTER, VA, 22601","Match","Exact","103 N LOUDOUN ST, WINCHESTER, VA, 22601",55578382,"L"
27481,"103 N MADISON ST","STOUGHTON","WI",53589,42.9187903000001,-89.2259254109999,481,"103 N MADISON ST, STOUGHTON, WI, 53589","Match","Exact","103 N MADISON ST, STOUGHTON, WI, 53589",49481640,"R"
27482,"103 N MAIN ROAD","CLARENCE","IL",60960,40.464135942,-87.971418921,482,"103 N MAIN ROAD, CLARENCE, IL, 60960","Match","Exact","103 N MAIN RD, CLARENCE, IL, 60960",22342484,"L"
27483,"103 N MAIN ST","WAUPACA","WI",54981,44.3580271070001,-89.0849158949999,483,"103 N MAIN ST, WAUPACA, WI, 54981","Match","Exact","103 N MAIN ST, WAUPACA, WI, 54981",74957026,"L"
27484,"103 N MAIN STREET","PORTAGE","WI",53901,43.5407808900001,-89.4587013619999,484,"103 N MAIN STREET, PORTAGE, WI, 53901","Match","Exact","103 MAIN ST, PORTAGE, WI, 53901",73329643,"R"
27485,"103 N MICHOT COURT","LAFAYETTE","LA",70508,30.154127509,-92.017566043,485,"103 N MICHOT COURT, LAFAYETTE, LA, 70508","Match","Non_Exact","103 N MICHOT RD, LAFAYETTE, LA, 70508",85619471,"L"
27486,"103 N PARK ST","WALL WALLA","WA",99362,46.0727762940001,-118.333989355,486,"103 N PARK ST, WALL WALLA, WA, 99362","Match","Non_Exact","103 N PARK ST, WALLA WALLA, WA, 99362",174673332,"L"
27487,"103 N PETERS AVE APT 15","FOND DU LAC","WI",54935,NA,NA,487,"103 N PETERS AVE APT 15, FOND DU LAC, WI, 54935","Tie",NA,NA,NA,NA
27488,"103 N PIERCE ST","GWINN","MI",49841,46.278925514,-87.428895375,488,"103 N PIERCE ST, GWINN, MI, 49841","Match","Non_Exact","103 N PEARCE ST, GWINN, MI, 49841",182070298,"L"
27489,"103 N PINE ST","ELLENSBURG","WA",98926,46.9924799340001,-120.545767496,489,"103 N PINE ST, ELLENSBURG, WA, 98926","Match","Exact","103 N PINE ST, ELLENSBURG, WA, 98926",157210991,"L"
27490,"103 N SEWARD ST","YORK","PA",17404,39.9549301650001,-76.763199437,490,"103 N SEWARD ST, YORK, PA, 17404","Match","Exact","103 N SEWARD ST, YORK, PA, 17404",88729320,"R"
27491,"103 N STADIUM BLVD","COLUMBIA","MO",65203,38.9560113630001,-92.3713707109999,491,"103 N STADIUM BLVD, COLUMBIA, MO, 65203","Match","Exact","103 N STADIUM BLVD, COLUMBIA, MO, 65203",639708931,"L"
27492,"103 N TENNESSEE","HAZLETON","IN",47640,38.488717121,-87.536079662,492,"103 N TENNESSEE, HAZLETON, IN, 47640","Match","Non_Exact","103 N TENNESSEE ST, HAZLETON, IN, 47640",36368894,"R"
27493,"103 N WALNUT ST APT 302","EAST ORANGE","NJ",7017,40.7659609940001,-74.2106506329999,493,"103 N WALNUT ST APT 302, EAST ORANGE, NJ, 7017","Match","Non_Exact","103 N WALNUT ST, EAST ORANGE, NJ, 07017",63451580,"L"
27494,"103 N WASHINGTON","FAYETTEVILLE","TX",78940,29.9036965990001,-96.6759119339999,494,"103 N WASHINGTON, FAYETTEVILLE, TX, 78940","Match","Non_Exact","103 N WASHINGTON ST, FAYETTEVILLE, TX, 78940",41999014,"L"
27495,"103 NALLS COURT","STERLING","VA",20164,39.0306292770001,-77.379213111,495,"103 NALLS COURT, STERLING, VA, 20164","Match","Exact","103 NALLS CT, STERLING, VA, 20164",62327788,"L"
27496,"103 NAPLES CT","RADCLIFF","KY",40160,37.830731375,-85.94194075,496,"103 NAPLES CT, RADCLIFF, KY, 40160","Match","Exact","103 NAPLES CT, RADCLIFF, KY, 40160",619895022,"L"
27497,"103 NATIONAL ROAD","WEIRTON","WV",26062,40.4218395070001,-80.538934614,497,"103 NATIONAL ROAD, WEIRTON, WV, 26062","Match","Exact","103 NATIONAL RD, WEIRTON, WV, 26062",65501396,"L"
27498,"103 NATIVE DANCER DR","MADISON","AL",35756,34.7201175660001,-86.7994526099999,498,"103 NATIVE DANCER DR, MADISON, AL, 35756","Match","Exact","103 NATIVE DANCER DR, MADISON, AL, 35756",650163246,"R"
27499,"103 NATURES HILL DR SW","HUNTSVILLE","AL",35824,34.661402434,-86.7300599709999,499,"103 NATURES HILL DR SW, HUNTSVILLE, AL, 35824","Match","Exact","103 NATURES HILL DR SW, HUNTSVILLE, AL, 35824",625072272,"R"
27500,"103 NAVAJO CIRCLE","GALLUP","NM",87301,35.5200801460001,-108.738206252,500,"103 NAVAJO CIRCLE, GALLUP, NM, 87301","Match","Exact","103 NAVAJO CIR, GALLUP, NM, 87301",178850600,"R"
