"ID","Address","City","State","Zip","lat","long","id","input_address","match_indicator","match_type","matched_address","tiger_line_id","tiger_side"
184501,"14444 GRANDMONT","DETROIT","MI",48227,42.393287247,-83.210878346,1,"14444 GRANDMONT, DETROIT, MI, 48227","Match","Non_Exact","14444 GRANDMONT AVE, DETROIT, MI, 48227",95423745,"R"
184502,"14444 HOMBURG WAY","NEVADA CITY","CA",95959,39.2918059350001,-121.013530443,2,"14444 HOMBURG WAY, NEVADA CITY, CA, 95959","Match","Exact","14444 HOMBURG WAY, NEVADA CITY, CA, 95959",106530853,"L"
184503,"14444 JACINTO RAMOS","EL PASO","TX",79938,31.8164372200001,-106.238842502,3,"14444 JACINTO RAMOS, EL PASO, TX, 79938","Match","Non_Exact","14444 JACINTO RAMOS AVE, EL PASO, TX, 79938",640768497,"R"
184504,"14444 MAGNOLIA BLVD NUM 1021","SHERMAN OAKS","CA",91423,34.164852599,-118.447796155,4,"14444 MAGNOLIA BLVD NUM 1021, SHERMAN OAKS, CA, 91423","Match","Exact","14444 MAGNOLIA BLVD, SHERMAN OAKS, CA, 91423",141561507,"L"
184505,"14444 MAGNOLIA BLVD SUITE 130","SHERMAN OAKS","CA",91423,34.164852599,-118.447796155,5,"14444 MAGNOLIA BLVD SUITE 130, SHERMAN OAKS, CA, 91423","Match","Exact","14444 MAGNOLIA BLVD, SHERMAN OAKS, CA, 91423",141561507,"L"
184506,"14444 MERRIAM RD SP 1","DOBBINS","CA",95935,39.380330594,-121.207148457,6,"14444 MERRIAM RD SP 1, DOBBINS, CA, 95935","Match","Exact","14444 MERRIAM RD, DOBBINS, CA, 95935",611582335,"L"
184507,"14444 MERRIAM RD SP1","DOBBINS","CA",95935,39.380330594,-121.207148457,7,"14444 MERRIAM RD SP1, DOBBINS, CA, 95935","Match","Exact","14444 MERRIAM RD, DOBBINS, CA, 95935",611582335,"L"
184508,"14444 ORANGE GROVE AVE","HACIENDA HEIGHTS","CA",91745,34.010840794,-117.996714609,8,"14444 ORANGE GROVE AVE, HACIENDA HEIGHTS, CA, 91745","Match","Exact","14444 ORANGE GROVE AVE, HACIENDA HTS, CA, 91745",142748775,"R"
184509,"14444 WOODFIELD CIRCLE N","JACKSONVILLE","FL",32258,30.142542706,-81.531030857,9,"14444 WOODFIELD CIRCLE N, JACKSONVILLE, FL, 32258","Match","Exact","14444 WOODFIELD CIR N, JACKSONVILLE, FL, 32258",83957998,"L"
184510,"14444","JACKSONVILLE","FL",32258,NA,NA,10,"14444, JACKSONVILLE, FL, 32258","No_Match",NA,NA,NA,NA
184511,"14445 34 MILE ROAD","BRUCE TOWNSHIP","MI",48065,42.8333928050001,-82.9905539169999,11,"14445 34 MILE ROAD, BRUCE TOWNSHIP, MI, 48065","Match","Exact","14445 34 MILE RD, BRUCE TOWNSHIP, MI, 48065",110727381,"R"
184512,"14445 87TH","SEMINOLE","FL",33776,27.8519659410001,-82.837870192,12,"14445 87TH, SEMINOLE, FL, 33776","Match","Non_Exact","14445 87TH AVE, SEMINOLE, FL, 33776",124750845,"R"
184513,"14445 CARTER CENTER","HARVEY","IL",60406,NA,NA,13,"14445 CARTER CENTER, HARVEY, IL, 60406","No_Match",NA,NA,NA,NA
184514,"14445 QUAIL LANE","PAINTER","VA",23420,37.6208286310001,-75.825887253,14,"14445 QUAIL LANE, PAINTER, VA, 23420","Match","Exact","14445 QUAIL LN, PAINTER, VA, 23420",114603623,"R"
184515,"14445 RIVER OAKS DRIVE","COLORADO SPRINGS","CO",80921,39.041626438,-104.827196912,15,"14445 RIVER OAKS DRIVE, COLORADO SPRINGS, CO, 80921","Match","Exact","14445 RIVER OAKS DR, COLORADO SPRINGS, CO, 80921",105508452,"L"
184516,"14445 ROCK POINT ROAD","NEWBURG","MD",20664,38.327040557,-76.907042395,16,"14445 ROCK POINT ROAD, NEWBURG, MD, 20664","Match","Exact","14445 ROCK POINT RD, NEWBURG, MD, 20664",25395674,"L"
184517,"14445 TURIN LANE","CENTREVILLE","VA",20121,38.8358120180001,-77.445606977,17,"14445 TURIN LANE, CENTREVILLE, VA, 20121","Match","Exact","14445 TURIN LN, CENTREVILLE, VA, 20121",636672770,"L"
184518,"14445 TURRIN LANE","CENTREVILLE","VA",20121,38.8358120180001,-77.445606977,18,"14445 TURRIN LANE, CENTREVILLE, VA, 20121","Match","Non_Exact","14445 TURIN LN, CENTREVILLE, VA, 20121",636672770,"L"
184519,"14445 WALLISVILLE ROAD APT 203","HOUSTON","TX",77049,29.8060732060001,-95.1914478419999,19,"14445 WALLISVILLE ROAD APT 203, HOUSTON, TX, 77049","Match","Exact","14445 WALLISVILLE RD, HOUSTON, TX, 77049",96637117,"L"
184520,"14446 110TH STREET","OSKALOOSA","KS",66066,39.2432485150001,-95.319254122,20,"14446 110TH STREET, OSKALOOSA, KS, 66066","Match","Exact","14446 110TH ST, OSKALOOSA, KS, 66066",22262194,"L"
184521,"14446 KINGSTON COVE LN","HOUSTON","TX",77077,29.7508222390001,-95.642325839,21,"14446 KINGSTON COVE LN, HOUSTON, TX, 77077","Match","Exact","14446 KINGSTON COVE LN, HOUSTON, TX, 77077",627680165,"R"
184522,"14446 N 100TH PLACE","SCOTTSDALE","AZ",85260,33.61721922,-111.864903727,22,"14446 N 100TH PLACE, SCOTTSDALE, AZ, 85260","Match","Exact","14446 N 100TH PL, SCOTTSDALE, AZ, 85260",128363219,"L"
184523,"14446 N 184TH AVE","SURPRISE","AZ",85388,33.615956629,-112.453986059,23,"14446 N 184TH AVE, SURPRISE, AZ, 85388","Match","Exact","14446 N 184TH AVE, SURPRISE, AZ, 85388",128160925,"L"
184524,"14447 BENTLEY WAY","ROSEMOUNT","MN",55068,44.7401958,-93.1101466869999,24,"14447 BENTLEY WAY, ROSEMOUNT, MN, 55068","Match","Exact","14447 BENTLEY WAY, ROSEMOUNT, MN, 55068",37936147,"R"
184525,"14447 COURTLAND RD","WAKEFIELD","VI",23888,NA,NA,25,"14447 COURTLAND RD, WAKEFIELD, VI, 23888","No_Match",NA,NA,NA,NA
184526,"14447 KIMBARK AVE","CHICAGO","IL",60419,41.63266752,-87.5857229279999,26,"14447 KIMBARK AVE, CHICAGO, IL, 60419","Match","Non_Exact","14447 KIMBARK AVE, DOLTON, IL, 60419",111779354,"L"
184527,"14447 PEPPERPINE DR","TAMPA","FL",33626,28.076282254,-82.634141345,27,"14447 PEPPERPINE DR, TAMPA, FL, 33626","Match","Exact","14447 PEPPERPINE DR, TAMPA, FL, 33626",104614196,"R"
184528,"14447 W VENTURA STREET","SUPRISE","AZ",85379,33.6117023400001,-112.371044798,28,"14447 W VENTURA STREET, SUPRISE, AZ, 85379","Match","Non_Exact","14447 W VENTURA ST, SURPRISE, AZ, 85379",244002151,"R"
184529,"14448 GREENE STREET NE","PALMYRA","IN",47164,38.411619151,-86.1099533079999,29,"14448 GREENE STREET NE, PALMYRA, IN, 47164","Match","Exact","14448 GREENE ST NE, PALMYRA, IN, 47164",34813542,"R"
184530,"14448 N W 16 DRIVE","MIAMI","GA",33167,NA,NA,30,"14448 N W 16 DRIVE, MIAMI, GA, 33167","No_Match",NA,NA,NA,NA
184531,"14448 S MARQUETT","BURNHAM","IL",60633,NA,NA,31,"14448 S MARQUETT, BURNHAM, IL, 60633","No_Match",NA,NA,NA,NA
184532,"14448 STATE ROUTE 116","ST MARYS","OH",45885,40.560376616,-84.400927789,32,"14448 STATE ROUTE 116, ST MARYS, OH, 45885","Match","Exact","14448 STATE RTE 116, SAINT MARYS, OH, 45885",209203327,"R"
184533,"14448 US HIGHWAY 231","LOOGOOTEE","IN",47553,38.7070474020001,-86.918717153,33,"14448 US HIGHWAY 231, LOOGOOTEE, IN, 47553","Match","Exact","14448 US HWY 231, LOOGOOTEE, IN, 47553",32114691,"R"
184534,"14449 BOYD PLAZA 302","OMAHA","NE",68116,41.297947988,-96.140068279,34,"14449 BOYD PLAZA 302, OMAHA, NE, 68116","Match","Exact","14449 BOYD PLZ, OMAHA, NE, 68116",632506777,"L"
184535,"14449 CANTERBURY ST","OVERLAND PARK","KS",66224,38.86734297,-94.6228589949999,35,"14449 CANTERBURY ST, OVERLAND PARK, KS, 66224","Match","Exact","14449 CANTERBURY ST, OVERLAND PARK, KS, 66224",91329271,"L"
184536,"14449 EAST CARROLL BLVD","UNIVERSITY HEIGHTS","OH",44118,41.4921079530001,-81.519602844,36,"14449 EAST CARROLL BLVD, UNIVERSITY HEIGHTS, OH, 44118","Match","Exact","14449 E CARROLL BLVD, UNIVERSITY HEIGHTS, OH, 44118",61126024,"L"
184537,"14449 WINDWARD DRIVE","GRANGER","IN",46530,41.7465833970001,-86.149440775,37,"14449 WINDWARD DRIVE, GRANGER, IN, 46530","Match","Non_Exact","14449 WINDWARD CT, GRANGER, IN, 46530",8078592,"L"
184538,"1444NE RIVER ROAD","LAKE MILTON","OH",44429,NA,NA,38,"1444NE RIVER ROAD, LAKE MILTON, OH, 44429","Tie",NA,NA,NA,NA
184539,"1445 10TH ST N","FARGO","ND",58102,46.8962725860001,-96.7936556229999,39,"1445 10TH ST N, FARGO, ND, 58102","Match","Exact","1445 10TH ST N, FARGO, ND, 58102",151447903,"R"
184540,"1445 11TH ST N","NEW ULM","MN",56073,NA,NA,40,"1445 11TH ST N, NEW ULM, MN, 56073","No_Match",NA,NA,NA,NA
184541,"1445 16 1/2 ST S","FARGO","ND",58103,46.8586852120001,-96.807561951,41,"1445 16 1/2 ST S, FARGO, ND, 58103","Match","Exact","1445 16 1/2 ST S, FARGO, ND, 58103",151447616,"R"
184542,"1445 18 STREET SO","FARGO","ND",58103,46.8592554430001,-96.810354677,42,"1445 18 STREET SO, FARGO, ND, 58103","Match","Exact","1445 18TH ST S, FARGO, ND, 58103",151447608,"R"
184543,"1445 23RDAVENUE","OAKLAND","CA",94606,NA,NA,43,"1445 23RDAVENUE, OAKLAND, CA, 94606","No_Match",NA,NA,NA,NA
184544,"1445 295TH AVENUE","FORT ATKINSON","IA",52144,43.147369536,-91.982746452,44,"1445 295TH AVENUE, FORT ATKINSON, IA, 52144","Match","Exact","1445 295TH AVE, FORT ATKINSON, IA, 52144",27522147,"L"
184545,"1445 2ND AVE","COLUMBUS","GA",31901,32.4733025800001,-84.99029856,45,"1445 2ND AVE, COLUMBUS, GA, 31901","Match","Exact","1445 2ND AVE, COLUMBUS, GA, 31901",98937669,"L"
184546,"1445 2ND AVENUE","COLUMBUS","GA",31091,32.4733025800001,-84.99029856,46,"1445 2ND AVENUE, COLUMBUS, GA, 31091","Match","Non_Exact","1445 2ND AVE, COLUMBUS, GA, 31901",98937669,"L"
184547,"1445 300 ST","SHERRARD","IL",61281,41.2782377930001,-90.511861295,47,"1445 300 ST, SHERRARD, IL, 61281","Match","Exact","1445 300TH ST, SHERRARD, IL, 61281",5466614,"R"
184548,"1445 6TH STREET APARTMENT 402","SANTA MONICA","CA",90401,34.017347511,-118.492505789,48,"1445 6TH STREET APARTMENT 402, SANTA MONICA, CA, 90401","Match","Exact","1445 6TH ST, SANTA MONICA, CA, 90401",141559499,"L"
184549,"1445 6TH STREET APT 409","SANTA MONICA","IL",90401,NA,NA,49,"1445 6TH STREET APT 409, SANTA MONICA, IL, 90401","No_Match",NA,NA,NA,NA
184550,"1445 ADAMS ST NE","ALBUQUERQU","NM",87110,35.100558263,-106.594291726,50,"1445 ADAMS ST NE, ALBUQUERQU, NM, 87110","Match","Non_Exact","1445 ADAMS ST NE, ALBUQUERQUE, NM, 87110",206715733,"L"
184551,"1445 ADAMS ST NE","ALBUQUERQUE","NM",87120,35.100558263,-106.594291726,51,"1445 ADAMS ST NE, ALBUQUERQUE, NM, 87120","Match","Non_Exact","1445 ADAMS ST NE, ALBUQUERQUE, NM, 87110",206715733,"L"
184552,"1445 ASHLAND AVE 2","ST PAUL","MN",55104,44.943938766,-93.161172836,52,"1445 ASHLAND AVE 2, ST PAUL, MN, 55104","Match","Exact","1445 ASHLAND AVE, SAINT PAUL, MN, 55104",97645768,"R"
184553,"1445 BAGGETT ROAD","RINGGOLD","GA",30736,34.9041275010001,-85.167112149,53,"1445 BAGGETT ROAD, RINGGOLD, GA, 30736","Match","Exact","1445 BAGGETT RD, RINGGOLD, GA, 30736",624732107,"L"
184554,"1445 BERANEX RD","CAYUTA","NY",14824,NA,NA,54,"1445 BERANEX RD, CAYUTA, NY, 14824","No_Match",NA,NA,NA,NA
184555,"1445 BETHAN DR","SUMMERFIELD","NC",27358,36.231220476,-79.827468929,55,"1445 BETHAN DR, SUMMERFIELD, NC, 27358","Match","Exact","1445 BETHAN DR, SUMMERFIELD, NC, 27358",617536372,"L"
184556,"1445 BLUEMONT CT","HERNDON","VA",20170,38.9832560610001,-77.400152174,56,"1445 BLUEMONT CT, HERNDON, VA, 20170","Match","Exact","1445 BLUEMONT CT, HERNDON, VA, 20170",618137026,"R"
184557,"1445 BROCKMAN AVE","MARION","IA",52302,42.042214062,-91.594399228,57,"1445 BROCKMAN AVE, MARION, IA, 52302","Match","Exact","1445 BROCKMAN AVE, MARION, IA, 52302",641124385,"R"
184558,"1445 BRYAN AVE","SAN JOSE","CA",95118,NA,NA,58,"1445 BRYAN AVE, SAN JOSE, CA, 95118","No_Match",NA,NA,NA,NA
184559,"1445 CALLE ESPERANZA","SIERRA VISTA","AZ",85635,31.5702363780001,-110.251935029,59,"1445 CALLE ESPERANZA, SIERRA VISTA, AZ, 85635","Match","Non_Exact","1445 CLL ESPERANZA, SIERRA VISTA, AZ, 85635",120989294,"L"
184560,"1445 CAMDEN ROAD","CHARLOTTE","NC",28203,35.2156866080001,-80.856249007,60,"1445 CAMDEN ROAD, CHARLOTTE, NC, 28203","Match","Exact","1445 CAMDEN RD, CHARLOTTE, NC, 28203",70485512,"L"
184561,"1445 CAPITOL AVENUE","BRIDGEPORT","CT",6604,41.1897563520001,-73.214879861,61,"1445 CAPITOL AVENUE, BRIDGEPORT, CT, 6604","Match","Exact","1445 CAPITOL AVE, BRIDGEPORT, CT, 06604",3223614,"L"
184562,"1445 CARIGNAC WAY","ESCALON","CA",95320,NA,NA,62,"1445 CARIGNAC WAY, ESCALON, CA, 95320","No_Match",NA,NA,NA,NA
184563,"1445 CARRINGTON CIR","SAN JOSE","CA",95125,37.274951059,-121.894881775,63,"1445 CARRINGTON CIR, SAN JOSE, CA, 95125","Match","Exact","1445 CARRINGTON CIR, SAN JOSE, CA, 95125",639676934,"R"
184564,"1445 CATON FARM ROAD","LOCKPORT","IL",60441,41.5663794230001,-88.118221075,64,"1445 CATON FARM ROAD, LOCKPORT, IL, 60441","Match","Exact","1445 CATON FARM RD, LOCKPORT, IL, 60441",649445565,"L"
184565,"1445 CHESHIRE PLACE","MURFREEBORO","TN",37129,35.87480642,-86.408994756,65,"1445 CHESHIRE PLACE, MURFREEBORO, TN, 37129","Match","Non_Exact","1445 CHESHIRE PL, MURFREESBORO, TN, 37129",632076889,"R"
184566,"1445 CHURCH ST NW APT 13","WASHINGTON","DC",20005,38.9103928390001,-77.0331409789999,66,"1445 CHURCH ST NW APT 13, WASHINGTON, DC, 20005","Match","Exact","1445 CHURCH ST NW, WASHINGTON, DC, 20005",635190554,"R"
184567,"1445 CORONA ST","DENVER","CO",80218,39.7391533800001,-104.974143187,67,"1445 CORONA ST, DENVER, CO, 80218","Match","Exact","1445 CORONA ST, DENVER, CO, 80218",177305838,"L"
184568,"1445 COUNTY ROAD 2190","HUNTSVILLE","MO",65259,39.395768079,-92.551465755,68,"1445 COUNTY ROAD 2190, HUNTSVILLE, MO, 65259","Match","Exact","1445 CO RD 2190, HUNTSVILLE, MO, 65259",607784557,"L"
184569,"1445 COUNTY ROAD 3413","CHANDLER","TX",75758,32.230997045,-95.551457431,69,"1445 COUNTY ROAD 3413, CHANDLER, TX, 75758","Match","Exact","1445 CO RD 3413, CHANDLER, TX, 75758",125829820,"L"
184570,"1445 CR 428","STEPHENVILLE","TX",76401,32.2919429500001,-98.3008951309999,70,"1445 CR 428, STEPHENVILLE, TX, 76401","Match","Exact","1445 CO RD 428, STEPHENVILLE, TX, 76401",158529012,"L"
184571,"1445 DALLAS STREET UNIT 104","AURORA","CO",80010,39.739500804,-104.876415739,71,"1445 DALLAS STREET UNIT 104, AURORA, CO, 80010","Match","Exact","1445 DALLAS ST, AURORA, CO, 80010",177314032,"L"
184572,"1445 DAYSTAR LN","DELTONA","FL",32725,28.908420387,-81.234508247,72,"1445 DAYSTAR LN, DELTONA, FL, 32725","Match","Exact","1445 DAYSTAR LN, DELTONA, FL, 32725",627298325,"L"
184573,"1445 DAYTON ST","AURORA","CO",80010,39.739169625,-104.875239233,73,"1445 DAYTON ST, AURORA, CO, 80010","Match","Exact","1445 DAYTON ST, AURORA, CO, 80010",177314038,"L"
184574,"1445 DAYTON STREET","AURORA","CO",80010,39.739169625,-104.875239233,74,"1445 DAYTON STREET, AURORA, CO, 80010","Match","Exact","1445 DAYTON ST, AURORA, CO, 80010",177314038,"L"
184575,"1445 DEVEREAUX AVENUE","PHILADELPHIA","PA",19149,40.0363852680001,-75.0788780839999,75,"1445 DEVEREAUX AVENUE, PHILADELPHIA, PA, 19149","Match","Exact","1445 DEVEREAUX AVE, PHILADELPHIA, PA, 19149",131428074,"L"
184576,"1445 DOUGLAS RD","BREMEN","IN",46506,41.4577539380001,-86.1281082949999,76,"1445 DOUGLAS RD, BREMEN, IN, 46506","Match","Exact","1445 DOUGLAS RD, BREMEN, IN, 46506",7639843,"L"
184577,"1445 E 168TH STREET","SOUTH HOLLAND","IL",60473,41.590335214,-87.582273336,77,"1445 E 168TH STREET, SOUTH HOLLAND, IL, 60473","Match","Exact","1445 E 168TH ST, SOUTH HOLLAND, IL, 60473",111780826,"R"
184578,"1445 E BROAD ST 203B","COLUMBUS","OH",43205,39.966659776,-82.962051386,78,"1445 E BROAD ST 203B, COLUMBUS, OH, 43205","Match","Non_Exact","1445 E BROAD ST, COLUMBUS, OH, 43205",135581364,"R"
184579,"1445 E BROAD SY 203B","COLUMBUS","OH",43205,NA,NA,79,"1445 E BROAD SY 203B, COLUMBUS, OH, 43205","No_Match",NA,NA,NA,NA
184580,"1445 E FORKS RD","BAYSHORE","NY",11706,40.746156091,-73.250300513,80,"1445 E FORKS RD, BAYSHORE, NY, 11706","Match","Non_Exact","1445 E FORKS RD, BAY SHORE, NY, 11706",114038080,"L"
184581,"1445 EAST 2100 SOUTH","SALT LAKE CITY","UT",84105,40.725856779,-111.849436613,81,"1445 EAST 2100 SOUTH, SALT LAKE CITY, UT, 84105","Match","Exact","1445 E 2100 S, SALT LAKE CITY, UT, 84105",637522619,"L"
184582,"1445 EAST CRESTWOOD DRIVE","MEMPHIS","TN",38119,35.09245903,-89.875886495,82,"1445 EAST CRESTWOOD DRIVE, MEMPHIS, TN, 38119","Match","Exact","1445 E CRESTWOOD DR, MEMPHIS, TN, 38119",72927445,"R"
184583,"1445 EAST LAFAYETTE","DETROIT","MI",48207,NA,NA,83,"1445 EAST LAFAYETTE, DETROIT, MI, 48207","No_Match",NA,NA,NA,NA
184584,"1445 EAST LEWIS STREET","FORT WAYNE","IN",46803,41.075138356,-85.119050266,84,"1445 EAST LEWIS STREET, FORT WAYNE, IN, 46803","Match","Exact","1445 E LEWIS ST, FORT WAYNE, IN, 46803",6380513,"L"
184585,"1445 EAST MAIN ST","REKLAW","TX",75784,31.864986974,-94.9618027,85,"1445 EAST MAIN ST, REKLAW, TX, 75784","Match","Exact","1445 E MAIN ST, REKLAW, TX, 75784",79650772,"L"
184586,"1445 EAST MCINTOSH RD","GRIFFIN","GA",30223,33.2818854240001,-84.234378253,86,"1445 EAST MCINTOSH RD, GRIFFIN, GA, 30223","Match","Exact","1445 E MCINTOSH RD, GRIFFIN, GA, 30223",23769444,"R"
184587,"1445 EASTRIDGE DR","POCATELLO","ID",83201,42.8867556320001,-112.433697579,87,"1445 EASTRIDGE DR, POCATELLO, ID, 83201","Match","Exact","1445 EASTRIDGE DR, POCATELLO, ID, 83201",628660947,"R"
184588,"1445 EDUCATION WAY","PORT CHARLOTTE","FL",33948,27.005276974,-82.1445803839999,88,"1445 EDUCATION WAY, PORT CHARLOTTE, FL, 33948","Match","Exact","1445 EDUCATION WAY, PORT CHARLOTTE, FL, 33948",4320485,"L"
184589,"1445 EUDORA DRIVE","CARO","MI",48723,43.4694409730001,-83.384373604,89,"1445 EUDORA DRIVE, CARO, MI, 48723","Match","Exact","1445 EUDORA DR, CARO, MI, 48723",81245102,"R"
184590,"1445 FALCON LANE","HOFFMAN ESTATES","IL",60192,42.052198171,-88.217907794,90,"1445 FALCON LANE, HOFFMAN ESTATES, IL, 60192","Match","Exact","1445 FALCON LN, HOFFMAN EST, IL, 60192",112359231,"L"
184591,"1445 FINDLAY WAY","BOULDER","CO",80305,39.9736376380001,-105.254421923,91,"1445 FINDLAY WAY, BOULDER, CO, 80305","Match","Exact","1445 FINDLAY WAY, BOULDER, CO, 80305",188209512,"L"
184592,"1445 FREMONT DRIVE","HANOVER PARK","IL",60133,41.984728854,-88.141449703,92,"1445 FREMONT DRIVE, HANOVER PARK, IL, 60133","Match","Exact","1445 FREMONT DR, HANOVER PARK, IL, 60133",112514740,"L"
184593,"1445 GARDNER LN SUITE 1000","CORYDON","IN",47112,38.2231573490001,-86.142108767,93,"1445 GARDNER LN SUITE 1000, CORYDON, IN, 47112","Match","Non_Exact","1445 GARDINER LN, CORYDON, IN, 47112",638429052,"R"
184594,"1445 GOLDEN GATE ST","POCATELLO","ID",83201,42.9083662730001,-112.433387704,94,"1445 GOLDEN GATE ST, POCATELLO, ID, 83201","Match","Exact","1445 GOLDEN GATE ST, POCATELLO, ID, 83201",204358742,"R"
184595,"1445 GOLF COURSE ROAD","HAMILTON","MT",59840,46.19436498,-114.092980643,95,"1445 GOLF COURSE ROAD, HAMILTON, MT, 59840","Match","Exact","1445 GOLF COURSE RD, HAMILTON, MT, 59840",635509295,"L"
184596,"1445 HABERDAM TRACE","CUMMING","GA",30041,34.1253229180001,-84.161568319,96,"1445 HABERDAM TRACE, CUMMING, GA, 30041","Match","Exact","1445 HABERDAM TRCE, CUMMING, GA, 30041",637665056,"L"
184597,"1445 HAWTHORNE ST","SCHENECTADY","NY",12303,42.795964079,-73.935476735,97,"1445 HAWTHORNE ST, SCHENECTADY, NY, 12303","Match","Exact","1445 HAWTHORNE ST, SCHENECTADY, NY, 12303",18028021,"L"
184598,"1445 HERRING CROSS RD","RUSSELLVILLE","AL",35654,34.4603637810001,-87.731679443,98,"1445 HERRING CROSS RD, RUSSELLVILLE, AL, 35654","Match","Exact","1445 HERRING CROSS RD, RUSSELLVILLE, AL, 35654",653333188,"R"
184599,"1445 HIGHLAND","BERWYN","IL",60402,41.8608722640001,-87.781365079,99,"1445 HIGHLAND, BERWYN, IL, 60402","Match","Non_Exact","1445 HIGHLAND AVE, BERWYN, IL, 60402",111794960,"L"
184600,"1445 HILLCREST DRIVE","KING GEORGE","VA",22485,NA,NA,100,"1445 HILLCREST DRIVE, KING GEORGE, VA, 22485","No_Match",NA,NA,NA,NA
184601,"1445 HOLLY ST","DENVER","CO",80220,39.7391427380001,-104.922327964,101,"1445 HOLLY ST, DENVER, CO, 80220","Match","Exact","1445 HOLLY ST, DENVER, CO, 80220",177312220,"L"
184602,"1445 HUBER STREET","PORT VUE","PA",15133,40.338019741,-79.867274041,102,"1445 HUBER STREET, PORT VUE, PA, 15133","Match","Non_Exact","1445 HUBER ST, MCKEESPORT, PA, 15133",51677565,"L"
184603,"1445 HWY 416 E","HENDERSON","KY",42420,NA,NA,103,"1445 HWY 416 E, HENDERSON, KY, 42420","No_Match",NA,NA,NA,NA
184604,"1445 JAYHAWK BLVD","LAWRENCE","KS",66045,38.958121722,-95.248261891,104,"1445 JAYHAWK BLVD, LAWRENCE, KS, 66045","Match","Exact","1445 JAYHAWK BLVD, LAWRENCE, KS, 66045",17704648,"L"
184605,"1445 JONES RD","WINDER","GA",30680,34.033365557,-83.584782488,105,"1445 JONES RD, WINDER, GA, 30680","Match","Exact","1445 JONES RD, WINDER, GA, 30680",77577343,"R"
184606,"1445 KENDALL DR","JACKSONVILLE","FL",32211,30.3322680050001,-81.555476332,106,"1445 KENDALL DR, JACKSONVILLE, FL, 32211","Match","Exact","1445 KENDALL DR, JACKSONVILLE, FL, 32211",650491388,"R"
184607,"1445 KENILWORTH DR","CALUMET CITY","IL",60409,41.5920928580001,-87.528569816,107,"1445 KENILWORTH DR, CALUMET CITY, IL, 60409","Match","Exact","1445 KENILWORTH DR, CALUMET CITY, IL, 60409",605714484,"L"
184608,"1445 KRISTA DR","BURLESON","TX",76028,32.5313648320001,-97.360201411,108,"1445 KRISTA DR, BURLESON, TX, 76028","Match","Exact","1445 KRISTA DR, BURLESON, TX, 76028",614346033,"R"
184609,"1445 KRISTA DRIVE","BURLESON","TX",76028,32.5313648320001,-97.360201411,109,"1445 KRISTA DRIVE, BURLESON, TX, 76028","Match","Exact","1445 KRISTA DR, BURLESON, TX, 76028",614346033,"R"
184610,"1445 LA LOMA DRIVE","SAN MARCOS","CA",92078,33.1206567290001,-117.204845513,110,"1445 LA LOMA DRIVE, SAN MARCOS, CA, 92078","Match","Exact","1445 LA LOMA DR, SAN MARCOS, CA, 92078",195295631,"L"
184611,"1445 LAGONI CIRCLE","DAYTONA BEACH","FL",32117,29.239750271,-81.0749134339999,111,"1445 LAGONI CIRCLE, DAYTONA BEACH, FL, 32117","Match","Exact","1445 LAGONI CIR, DAYTONA BEACH, FL, 32117",624854643,"L"
184612,"1445 LAKESIDE DRIVE APT 209","OAKLAND","CA",94612,37.80239612,-122.262098469,112,"1445 LAKESIDE DRIVE APT 209, OAKLAND, CA, 94612","Match","Exact","1445 LAKESIDE DR, OAKLAND, CA, 94612",125000959,"L"
184613,"1445 LAKESIDE ESTATES DR 3203","HOUSTON","TX",77042,NA,NA,113,"1445 LAKESIDE ESTATES DR 3203, HOUSTON, TX, 77042","No_Match",NA,NA,NA,NA
184614,"1445 LAUREL PARK COURT","CINCINNATI","OH",45250,NA,NA,114,"1445 LAUREL PARK COURT, CINCINNATI, OH, 45250","No_Match",NA,NA,NA,NA
184615,"1445 LAUREL PARK DR","CINCINNATI","OH",45214,39.110667891,-84.525593365,115,"1445 LAUREL PARK DR, CINCINNATI, OH, 45214","Match","Exact","1445 LAUREL PARK DR, CINCINNATI, OH, 45214",103974955,"L"
184616,"1445 LEXINGTON AVE","FORD HEIGHTS","IL",60411,41.505072162,-87.588469128,116,"1445 LEXINGTON AVE, FORD HEIGHTS, IL, 60411","Match","Exact","1445 LEXINGTON AVE, FORD HEIGHTS, IL, 60411",605715457,"L"
184617,"1445 LUCILE AVENUE SW NUMBER THREE","ATLANTA","GA",30310,33.7425357180001,-84.435018719,117,"1445 LUCILE AVENUE SW NUMBER THREE, ATLANTA, GA, 30310","Match","Exact","1445 LUCILE AVE SW, ATLANTA, GA, 30310",17340625,"R"
184618,"1445 LYNCHBURG PLACE","MARIETTA","GA",30062,33.9877019400001,-84.50449166,118,"1445 LYNCHBURG PLACE, MARIETTA, GA, 30062","Match","Exact","1445 LYNCHBURG PL, MARIETTA, GA, 30062",643357401,"R"
184619,"1445 LYNRIDGE DRIVE","LITHONIA","GA",30058,33.7537383490001,-84.108616474,119,"1445 LYNRIDGE DRIVE, LITHONIA, GA, 30058","Match","Exact","1445 LYNRIDGE DR, LITHONIA, GA, 30058",23400640,"L"
184620,"1445 MADISON CREEK ROAD","GOODLETTSVILLE","TN",37072,36.372810816,-86.6815025929999,120,"1445 MADISON CREEK ROAD, GOODLETTSVILLE, TN, 37072","Match","Exact","1445 MADISON CREEK RD, GOODLETTSVILLE, TN, 37072",29774066,"R"
184621,"1445 MANSION DR UNIT 1","MONROE","WI",53566,42.6119851920001,-89.63868524,121,"1445 MANSION DR UNIT 1, MONROE, WI, 53566","Match","Exact","1445 MANSION DR, MONROE, WI, 53566",48540705,"L"
184622,"1445 MANSION DRIVE UNIT 1","MONROE","WI",53566,42.6119851920001,-89.63868524,122,"1445 MANSION DRIVE UNIT 1, MONROE, WI, 53566","Match","Exact","1445 MANSION DR, MONROE, WI, 53566",48540705,"L"
184623,"1445 MCCLELLAN CT","LAKE VILLA","IL",60046,42.43641784,-88.047893534,123,"1445 MCCLELLAN CT, LAKE VILLA, IL, 60046","Match","Non_Exact","1445 MCCLLELLAN CT, LAKE VILLA, IL, 60046",631507147,"L"
184624,"1445 MCCREA PLACE","PLAINFIELD","NJ",7062,40.6397522570001,-74.4028645289999,124,"1445 MCCREA PLACE, PLAINFIELD, NJ, 7062","Match","Exact","1445 MCCREA PL, PLAINFIELD, NJ, 07062",60567228,"L"
184625,"1445 MEADOW DAWN DRIVE","FOREST","VA",24551,37.3401946280001,-79.293748679,125,"1445 MEADOW DAWN DRIVE, FOREST, VA, 24551","Match","Non_Exact","1445 MEADOW DOWN DR, FOREST, VA, 24551",62666480,"R"
184626,"1445 MISSY YVETTE","EL PASO","TX",79936,31.7331954850001,-106.278044173,126,"1445 MISSY YVETTE, EL PASO, TX, 79936","Match","Non_Exact","1445 MISSY YVETTE DR, EL PASO, TX, 79936",189396138,"L"
184627,"1445 MONROE DR NE APT F28","ATLANTA","GA",30324,33.794459094,-84.367304646,127,"1445 MONROE DR NE APT F28, ATLANTA, GA, 30324","Match","Exact","1445 MONROE DR NE, ATLANTA, GA, 30324",17356269,"R"
184628,"1445 MONROE DRIVE NE / APT- B4","ATLANTA","GA",30324,33.794459094,-84.367304646,128,"1445 MONROE DRIVE NE / APT- B4, ATLANTA, GA, 30324","Match","Exact","1445 MONROE DR NE, ATLANTA, GA, 30324",17356269,"R"
184629,"1445 MONROE DRIVE NE UNIT F14","ATLANTA","GA",30324,33.794459094,-84.367304646,129,"1445 MONROE DRIVE NE UNIT F14, ATLANTA, GA, 30324","Match","Exact","1445 MONROE DR NE, ATLANTA, GA, 30324",17356269,"R"
184630,"1445 MONROE STREET","YORK","PA",17404,39.95209893,-76.759846092,130,"1445 MONROE STREET, YORK, PA, 17404","Match","Exact","1445 MONROE ST, YORK, PA, 17404",639615062,"R"
184631,"1445 MONTPELIER ST","BALTIMORE","MD",21218,39.3223361720001,-76.599243786,131,"1445 MONTPELIER ST, BALTIMORE, MD, 21218","Match","Exact","1445 MONTPELIER ST, BALTIMORE, MD, 21218",206409430,"R"
184632,"1445 MONTPELIER STREET","BALTIMORE","MD",21218,39.3223361720001,-76.599243786,132,"1445 MONTPELIER STREET, BALTIMORE, MD, 21218","Match","Exact","1445 MONTPELIER ST, BALTIMORE, MD, 21218",206409430,"R"
184633,"1445 N 24TH ST","MILWAUKEE","WI",53205,43.049274779,-87.9428092539999,133,"1445 N 24TH ST, MILWAUKEE, WI, 53205","Match","Exact","1445 N 24TH ST, MILWAUKEE, WI, 53205",77740176,"L"
184634,"1445 N 8TH PL","SAPULPA","OK",74066,36.0156166560001,-96.110504889,134,"1445 N 8TH PL, SAPULPA, OK, 74066","Match","Exact","1445 N 8TH PL, SAPULPA, OK, 74066",165864431,"L"
184635,"1445 N CAREY STREET","BALTIMORE","MD",21217,39.30645873,-76.63984612,135,"1445 N CAREY STREET, BALTIMORE, MD, 21217","Match","Exact","1445 N CAREY ST, BALTIMORE, MD, 21217",206416347,"R"
184636,"1445 N CENTRAL AVE","CHICAGO","ID",60651,NA,NA,136,"1445 N CENTRAL AVE, CHICAGO, ID, 60651","No_Match",NA,NA,NA,NA
184637,"1445 N CENTRAL AVE","CHICAGO","IL",60651,41.9066016420001,-87.765803465,137,"1445 N CENTRAL AVE, CHICAGO, IL, 60651","Match","Exact","1445 N CENTRAL AVE, CHICAGO, IL, 60651",111753585,"R"
184638,"1445 N COLLEGE AVE","FRESNO","CA",93728,36.7621602410001,-119.797865697,138,"1445 N COLLEGE AVE, FRESNO, CA, 93728","Match","Exact","1445 N COLLEGE AVE, FRESNO, CA, 93728",197574746,"L"
184639,"1445 N EMERSON","SELMA","CA",93662,36.5653116990001,-119.619485164,139,"1445 N EMERSON, SELMA, CA, 93662","Match","Non_Exact","1445 NORTH ST, SELMA, CA, 93662",197588688,"L"
184640,"1445 N LEILA ST","VISALIA","CA",93291,36.3427900230001,-119.328023282,140,"1445 N LEILA ST, VISALIA, CA, 93291","Match","Exact","1445 LEILA ST, VISALIA, CA, 93291",617656481,"L"
184641,"1445 N ST","VISALIA","CA",93291,NA,NA,141,"1445 N ST, VISALIA, CA, 93291","No_Match",NA,NA,NA,NA
184642,"1445 N STATE PKW  APT 2302","CHICAGO","IL",60610,41.908583637,-87.628794113,142,"1445 N STATE PKW  APT 2302, CHICAGO, IL, 60610","Match","Non_Exact","1445 N STATE PKWY, CHICAGO, IL, 60610",642836801,"R"
184643,"1445 NALDO AVENUE","JACKSONVILLE","FL",32207,30.311248345,-81.6558155719999,143,"1445 NALDO AVENUE, JACKSONVILLE, FL, 32207","Match","Exact","1445 NALDO AVE, JACKSONVILLE, FL, 32207",83900076,"L"
184644,"1445 NORTH FORK ROAD","DAMASCUS","AR",72039,35.393931298,-92.3187069479999,144,"1445 NORTH FORK ROAD, DAMASCUS, AR, 72039","Match","Exact","1445 N FORK RD, DAMASCUS, AR, 72039",43402720,"L"
184645,"1445 NORTH MANGONIA DRIVE","WEST PALM BEACH","FL",33401,26.72913464,-80.07440901,145,"1445 NORTH MANGONIA DRIVE, WEST PALM BEACH, FL, 33401","Match","Exact","1445 N MANGONIA DR, WEST PALM BEACH, FL, 33401",115579883,"R"
184646,"1445 NW 70TH LN","MARGATE","FL",33063,26.246925049,-80.220081463,146,"1445 NW 70TH LN, MARGATE, FL, 33063","Match","Exact","1445 NW 70TH LN, MARGATE, FL, 33063",114692105,"R"
184647,"1445 OAK RIDGE ROAD","CORBIN","KY",40701,36.9715369100001,-84.071934223,147,"1445 OAK RIDGE ROAD, CORBIN, KY, 40701","Match","Exact","1445 OAK RIDGE RD, CORBIN, KY, 40701",624230993,"L"
184648,"1445 OAK ST UNIT B1","WASHINGTON","DC",20010,38.9342448520001,-77.034220739,148,"1445 OAK ST UNIT B1, WASHINGTON, DC, 20010","Match","Non_Exact","1445 OAK ST NW, WASHINGTON, DC, 20010",76222944,"R"
184649,"1445 OAKLEA","MUSKEGON","MI",49442,43.226045067,-86.1856725819999,149,"1445 OAKLEA, MUSKEGON, MI, 49442","Match","Non_Exact","1445 OAKLEA ST, MUSKEGON, MI, 49442",77655673,"R"
184650,"1445 ONYX CIRCLE","LONGMONT","CO",80504,40.132797243,-105.116284313,150,"1445 ONYX CIRCLE, LONGMONT, CO, 80504","Match","Exact","1445 ONYX CIR, LONGMONT, CO, 80504",188203370,"R"
184651,"1445 PALAY DRIVE","GROVE CITY","OH",43123,39.8682789160001,-83.041977742,151,"1445 PALAY DRIVE, GROVE CITY, OH, 43123","Match","Exact","1445 PALAY DR, GROVE CITY, OH, 43123",627325765,"L"
184652,"1445 PARK AVE APT A","SAINT LOUIS","MO",63104,38.6155987390001,-90.206825038,152,"1445 PARK AVE APT A, SAINT LOUIS, MO, 63104","Match","Exact","1445 PARK AVE, SAINT LOUIS, MO, 63104",639789452,"R"
184653,"1445 PARK AVENUE APARTMENT A","SAINT LOUIS CITY","MO",63112,NA,NA,153,"1445 PARK AVENUE APARTMENT A, SAINT LOUIS CITY, MO, 63112","No_Match",NA,NA,NA,NA
184654,"1445 PEARL ST SUITE 209","BOULDER","CO",80302,40.0185721240001,-105.276769413,154,"1445 PEARL ST SUITE 209, BOULDER, CO, 80302","Match","Exact","1445 PEARL ST, BOULDER, CO, 80302",188159744,"L"
184655,"1445 PINE TREE DRIVE","BIRMINGHAM","AL",35235,33.618342914,-86.660389758,155,"1445 PINE TREE DRIVE, BIRMINGHAM, AL, 35235","Match","Exact","1445 PINE TREE DR, BIRMINGHAM, AL, 35235",81569480,"R"
184656,"1445 POLK STREET","HUNTINGTON","IN",46750,40.8888164790001,-85.5098596029999,156,"1445 POLK STREET, HUNTINGTON, IN, 46750","Match","Exact","1445 POLK ST, HUNTINGTON, IN, 46750",6552337,"R"
184657,"1445 PULASKI ROAD","BUFFALO","MN",55313,45.191252967,-93.8473509469999,157,"1445 PULASKI ROAD, BUFFALO, MN, 55313","Match","Exact","1445 PULASKI RD, BUFFALO, MN, 55313",44016561,"L"
184658,"1445 PURPLE SAGE CT","FORT COLLINS","CO",80526,40.5348834970001,-105.102652713,158,"1445 PURPLE SAGE CT, FORT COLLINS, CO, 80526","Match","Non_Exact","1445 PURPLE SAGE, FORT COLLINS, CO, 80526",636176371,"L"
184659,"1445 RAYMOND AVE","LA GRANGE PARK","IL",60526,41.8392456280001,-87.855661205,159,"1445 RAYMOND AVE, LA GRANGE PARK, IL, 60526","Match","Exact","1445 RAYMOND AVE, LA GRANGE PARK, IL, 60526",111791483,"R"
184660,"1445 RED SUNSET LANE","BLYTHEWOOD","SC",29016,34.23445552,-81.003360087,160,"1445 RED SUNSET LANE, BLYTHEWOOD, SC, 29016","Match","Exact","1445 RED SUNSET LN, BLYTHEWOOD, SC, 29016",642079082,"R"
184661,"1445 REDWING DR","ANTIOCH","IL",60002,42.464269082,-88.111586625,161,"1445 REDWING DR, ANTIOCH, IL, 60002","Match","Exact","1445 REDWING DR, ANTIOCH, IL, 60002",119693004,"R"
184662,"1445 RINGROSE DR","BATON ROUGE","LA",70806,30.4365010010001,-91.0889660719999,162,"1445 RINGROSE DR, BATON ROUGE, LA, 70806","Match","Exact","1445 RINGROSE DR, BATON ROUGE, LA, 70806",92190000,"L"
184663,"1445 RIVERSIDE AVE","STUART","IA",50250,41.436420019,-94.3758539149999,163,"1445 RIVERSIDE AVE, STUART, IA, 50250","Match","Exact","1445 RIVERSIDE AVE, STUART, IA, 50250",61675785,"L"
184664,"1445 ROCK QUARRY RD 207","STOCKBRIDGE","GA",30281,33.511896042,-84.229808863,164,"1445 ROCK QUARRY RD 207, STOCKBRIDGE, GA, 30281","Match","Exact","1445 ROCK QUARRY RD, STOCKBRIDGE, GA, 30281",638775598,"L"
184665,"1445 ROSS AVENUE SUITE 3700","DALLAS","TX",75202,32.7843823170001,-96.802289372,165,"1445 ROSS AVENUE SUITE 3700, DALLAS, TX, 75202","Match","Exact","1445 ROSS AVE, DALLAS, TX, 75202",102909831,"L"
184666,"1445 ROUTE 300","NEWBURGH","NY",12550,41.5306114420001,-74.0661646199999,166,"1445 ROUTE 300, NEWBURGH, NY, 12550","Match","Non_Exact","1445 STATE RTE 300, NEWBURGH, NY, 12550",124411383,"L"
184667,"1445 ROYAL LAKE DR","INDIANAPOLIS","IN",46228,39.864206541,-86.184195673,167,"1445 ROYAL LAKE DR, INDIANAPOLIS, IN, 46228","Match","Exact","1445 ROYAL LAKE DR, INDIANAPOLIS, IN, 46228",108043011,"L"
184668,"1445 S 20TH ST","LINCOLN","NE",68502,40.798503485,-96.691896765,168,"1445 S 20TH ST, LINCOLN, NE, 68502","Match","Exact","1445 S 20TH ST, LINCOLN, NE, 68502",28290657,"R"
184669,"1445 S 20TH ST","LINCON","NE",68502,40.7985112060001,-96.6918966599999,169,"1445 S 20TH ST, LINCON, NE, 68502","Match","Non_Exact","1445 S 20TH ST, LINCOLN, NE, 68502",28290657,"R"
184670,"1445 S HALEYVILLE CT","AURORA","CO",80018,NA,NA,170,"1445 S HALEYVILLE CT, AURORA, CO, 80018","Tie",NA,NA,NA,NA
184671,"1445 S JERSEY WAY","DENVER","CO",80224,39.690137388,-104.919456728,171,"1445 S JERSEY WAY, DENVER, CO, 80224","Match","Exact","1445 S JERSEY WAY, DENVER, CO, 80224",177340394,"R"
184672,"1445 SCOTTS CREEK CIRCLE","MT PLEASANT","SC",29464,32.7997421170001,-79.843459369,172,"1445 SCOTTS CREEK CIRCLE, MT PLEASANT, SC, 29464","Match","Exact","1445 SCOTTS CREEK CIR, MOUNT PLEASANT, SC, 29464",647987181,"R"
184673,"1445 SOUTH AVE","TOLEDO","OH",43609,41.630755315,-83.576183441,173,"1445 SOUTH AVE, TOLEDO, OH, 43609","Match","Exact","1445 SOUTH AVE, TOLEDO, OH, 43609",33938914,"L"
184674,"1445 STARBUCK ST","FULLERTON","CA",92833,33.8868733040001,-117.962252801,174,"1445 STARBUCK ST, FULLERTON, CA, 92833","Match","Exact","1445 STARBUCK ST, FULLERTON, CA, 92833",144413956,"L"
184675,"1445 STONELAKE COVE AVE APT 11305","HENDERSON","NV",89074,36.036846919,-115.048375101,175,"1445 STONELAKE COVE AVE APT 11305, HENDERSON, NV, 89074","Match","Exact","1445 STONELAKE COVE AVE, HENDERSON, NV, 89074",650199111,"L"
184676,"1445 STONELEIGH HILL ROAD","LITHONIA","GA",30058,33.749581253,-84.1564253879999,176,"1445 STONELEIGH HILL ROAD, LITHONIA, GA, 30058","Match","Exact","1445 STONELEIGH HILL RD, LITHONIA, GA, 30058",23374761,"R"
184677,"1445 STONEMOOR DR","COLLETTSVILLE","NC",28611,35.9192870210001,-81.6865831169999,177,"1445 STONEMOOR DR, COLLETTSVILLE, NC, 28611","Match","Exact","1445 STONEMOOR DR, COLLETTSVILLE, NC, 28611",627409223,"L"
184678,"1445 SUMMERDALE ROAD","CORVALLIS","MT",59828,46.3378061650001,-114.06144592,178,"1445 SUMMERDALE ROAD, CORVALLIS, MT, 59828","Match","Exact","1445 SUMMERDALE RD, CORVALLIS, MT, 59828",636310127,"L"
184679,"1445 SUMMIT ST","MUSKOGEE","OK",74403,35.760479424,-95.349320695,179,"1445 SUMMIT ST, MUSKOGEE, OK, 74403","Match","Exact","1445 SUMMIT ST, MUSKOGEE, OK, 74403",652890819,"L"
184680,"1445 SW 13TH ST","MIAMI","FL",33145,25.760944732,-80.218819074,180,"1445 SW 13TH ST, MIAMI, FL, 33145","Match","Exact","1445 SW 13TH ST, MIAMI, FL, 33145",116266612,"R"
184681,"1445 SW 91 AVE","MIAMI","FL",33174,25.7562174330001,-80.343194379,181,"1445 SW 91 AVE, MIAMI, FL, 33174","Match","Exact","1445 SW 91ST AVE, MIAMI, FL, 33174",115971163,"L"
184682,"1445 SWANN ST NW","WASHINGTON","DC",20009,38.9148388340001,-77.033131753,182,"1445 SWANN ST NW, WASHINGTON, DC, 20009","Match","Exact","1445 SWANN ST NW, WASHINGTON, DC, 20009",76223208,"R"
184683,"1445 TIMBER RIDGE DR","HUNTINGBURG","IN",47542,38.272376584,-86.9492747099999,183,"1445 TIMBER RIDGE DR, HUNTINGBURG, IN, 47542","Match","Exact","1445 TIMBER RIDGE DR, HUNTINGBURG, IN, 47542",7883625,"L"
184684,"1445 TOLEDO AVE N","GOLDEN VALLEY","MN",55422,44.994036124,-93.345878998,184,"1445 TOLEDO AVE N, GOLDEN VALLEY, MN, 55422","Match","Exact","1445 TOLEDO AVE N, GOLDEN VALLEY, MN, 55422",43831914,"L"
184685,"1445 TOLEDO AVE NORTH","GOLDEN VALLEY","MN",55422,44.994036124,-93.345878998,185,"1445 TOLEDO AVE NORTH, GOLDEN VALLEY, MN, 55422","Match","Exact","1445 TOLEDO AVE N, GOLDEN VALLEY, MN, 55422",43831914,"L"
184686,"1445 TRIMINGHAM DR","PLEASANTON","CA",94566,37.6769505400001,-121.872404688,186,"1445 TRIMINGHAM DR, PLEASANTON, CA, 94566","Match","Exact","1445 TRIMINGHAM DR, PLEASANTON, CA, 94566",125042792,"L"
184687,"1445 TUNBRIDGE RD","LYNCHBURG","VA",24501,37.414030487,-79.224092324,187,"1445 TUNBRIDGE RD, LYNCHBURG, VA, 24501","Match","Exact","1445 TUNBRIDGE RD, LYNCHBURG, VA, 24501",62622951,"L"
184688,"1445 TURNING BEND DRIVE","CLAREMONT","CA",91711,34.112045133,-117.745931272,188,"1445 TURNING BEND DRIVE, CLAREMONT, CA, 91711","Match","Non_Exact","1445 TURNINGBEND DR, CLAREMONT, CA, 91711",141731732,"L"
184689,"1445 UPPER 55TH STREET APT 307","INVER GROVE HTS","MN",55077,44.8691227570001,-93.0773172409999,189,"1445 UPPER 55TH STREET APT 307, INVER GROVE HTS, MN, 55077","Match","Non_Exact","1445 UPPER 55TH ST E, INVER GROVE HEIGHTS, MN, 55077",37908188,"L"
184690,"1445 VALLEY GREEN DRIVE","TALLAHASSEE","FL",32303,30.464088573,-84.331567046,190,"1445 VALLEY GREEN DRIVE, TALLAHASSEE, FL, 32303","Match","Exact","1445 VALLEY GREEN DR, TALLAHASSEE, FL, 32303",82887341,"L"
184691,"1445 VALLEYHIGH DR NW STE 7502","ROCHESTER","MN",55901,44.037042339,-92.4911273119999,191,"1445 VALLEYHIGH DR NW STE 7502, ROCHESTER, MN, 55901","Match","Exact","1445 VALLEYHIGH DR NW, ROCHESTER, MN, 55901",30550904,"R"
184692,"1445 VETERANS MEMORIAL CIRCLE","Y","CA",95993,39.1458374540001,-121.637382085,192,"1445 VETERANS MEMORIAL CIRCLE, Y, CA, 95993","Match","Non_Exact","1445 VETERANS MEMORIAL CIR, YUBA CITY, CA, 95993",68585017,"R"
184693,"1445 VICTOR AVE SUITE B","REDDING","CA",96003,40.586702857,-122.338903385,193,"1445 VICTOR AVE SUITE B, REDDING, CA, 96003","Match","Exact","1445 VICTOR AVE, REDDING, CA, 96003",126685582,"L"
184694,"1445 VINE STREET","PASO ROBLES","CA",93446,35.6290791590001,-120.694148499,194,"1445 VINE STREET, PASO ROBLES, CA, 93446","Match","Exact","1445 VINE ST, PASO ROBLES, CA, 93446",109713742,"L"
184695,"1445 VISTA SIERRA","EL CAJON","CA",92019,32.772354792,-116.896829513,195,"1445 VISTA SIERRA, EL CAJON, CA, 92019","Match","Non_Exact","1445 VISTA SIERRA DR, EL CAJON, CA, 92019",195656447,"L"
184696,"1445 W 125TH PL","BROOMFIELD","CO",80020,NA,NA,196,"1445 W 125TH PL, BROOMFIELD, CO, 80020","No_Match",NA,NA,NA,NA
184697,"1445 W 71ST PL","CHICAGO","IL",60636,41.7640414040001,-87.660732318,197,"1445 W 71ST PL, CHICAGO, IL, 60636","Match","Exact","1445 W 71ST PL, CHICAGO, IL, 60636",111820906,"L"
184698,"1445 W 8TH STREET","NEVADA","IA",50201,NA,NA,198,"1445 W 8TH STREET, NEVADA, IA, 50201","Tie",NA,NA,NA,NA
184699,"1445 W GREENLEAF AVE APT 3N","CHICAGO","IL",60626,42.0103229310001,-87.667045865,199,"1445 W GREENLEAF AVE APT 3N, CHICAGO, IL, 60626","Match","Non_Exact","1445 W GREENLEAF AVE, CHICAGO, IL, 60626",111745259,"L"
184700,"1445 W KEARNEY BLVD","FRESNO","CA",93706,36.728516373,-119.828334707,200,"1445 W KEARNEY BLVD, FRESNO, CA, 93706","Match","Exact","1445 W KEARNEY BLVD, FRESNO, CA, 93706",197612092,"L"
184701,"1445 W RUNNING BROOK RD","NASHVILLE","TN",37209,36.119811817,-86.9326419399999,201,"1445 W RUNNING BROOK RD, NASHVILLE, TN, 37209","Match","Exact","1445 W RUNNING BROOK RD, NASHVILLE, TN, 37209",631774154,"L"
184702,"1445 W SAN  CARLOS ST","SAN JOSE","CA",95126,37.3234876220001,-121.915355754,202,"1445 W SAN  CARLOS ST, SAN JOSE, CA, 95126","Match","Exact","1445 W SAN CARLOS ST, SAN JOSE, CA, 95126",122905727,"R"
184703,"1445 W SAN CARLOS ST","SAN JOSE","CA",95126,37.3234876220001,-121.915355754,203,"1445 W SAN CARLOS ST, SAN JOSE, CA, 95126","Match","Exact","1445 W SAN CARLOS ST, SAN JOSE, CA, 95126",122905727,"R"
184704,"1445 W VALENCIA ST","RIALTO","CA",92376,34.1156036260001,-117.399543289,204,"1445 W VALENCIA ST, RIALTO, CA, 92376","Match","Exact","1445 W VALENCIA ST, RIALTO, CA, 92376",144643708,"R"
184705,"1445 WALLISVILLE RD","HOUSTON","TX",77049,NA,NA,205,"1445 WALLISVILLE RD, HOUSTON, TX, 77049","No_Match",NA,NA,NA,NA
184706,"1445 WEST BLVD","NEWFIELD","NJ",8344,NA,NA,206,"1445 WEST BLVD, NEWFIELD, NJ, 8344","No_Match",NA,NA,NA,NA
184707,"1445 WEST BOULEVARD","NEWFIELD","NJ",8344,NA,NA,207,"1445 WEST BOULEVARD, NEWFIELD, NJ, 8344","No_Match",NA,NA,NA,NA
184708,"1445 WILLOWBROOK DR","FLORISSANT","MO",63033,38.7971185440001,-90.3141674349999,208,"1445 WILLOWBROOK DR, FLORISSANT, MO, 63033","Match","Exact","1445 WILLOWBROOK DR, FLORISSANT, MO, 63033",100173078,"L"
184709,"1445 WOODMONT LANE NW STE 408","ATLANTA","GA",30318,33.8035894500001,-84.43514991,209,"1445 WOODMONT LANE NW STE 408, ATLANTA, GA, 30318","Match","Exact","1445 WOODMONT LN NW, ATLANTA, GA, 30318",17334155,"R"
184710,"1445 WOODMONT LANE NW SUITE 2307","ATLANTA","GA",30318,33.8035894500001,-84.43514991,210,"1445 WOODMONT LANE NW SUITE 2307, ATLANTA, GA, 30318","Match","Exact","1445 WOODMONT LN NW, ATLANTA, GA, 30318",17334155,"R"
184711,"1445 WOODMONT LANE SUITE 1654","ATLANTA","GA",30318,33.8035894500001,-84.43514991,211,"1445 WOODMONT LANE SUITE 1654, ATLANTA, GA, 30318","Match","Non_Exact","1445 WOODMONT LN NW, ATLANTA, GA, 30318",17334155,"R"
184712,"1445 WOODMONT LN NW SUITE 3373","ATLANTA","GA",30318,33.8035894500001,-84.43514991,212,"1445 WOODMONT LN NW SUITE 3373, ATLANTA, GA, 30318","Match","Exact","1445 WOODMONT LN NW, ATLANTA, GA, 30318",17334155,"R"
184713,"1445 WOODMONT LN SUITE 1261 NW","ATLANTA","GA",30318,33.8035894500001,-84.43514991,213,"1445 WOODMONT LN SUITE 1261 NW, ATLANTA, GA, 30318","Match","Non_Exact","1445 WOODMONT LN NW, ATLANTA, GA, 30318",17334155,"R"
184714,"14450 COUNTY ROAD 3200","ROLLA","MO",65401,37.9254434540001,-91.663545153,214,"14450 COUNTY ROAD 3200, ROLLA, MO, 65401","Match","Exact","14450 CO RD 3200, ROLLA, MO, 65401",45107554,"L"
184715,"14450 HALLSFERRY RD","FLORISSANT","MO",63033,38.8134901490001,-90.301683729,215,"14450 HALLSFERRY RD, FLORISSANT, MO, 63033","Match","Non_Exact","14450 NEW HALLS FERRY RD, FLORISSANT, MO, 63033",100143768,"R"
184716,"14450 HAYES ROAD","APPLE VALLEY","MN",55124,44.742100427,-93.2330270849999,216,"14450 HAYES ROAD, APPLE VALLEY, MN, 55124","Match","Exact","14450 HAYES RD, APPLE VALLEY, MN, 55124",37907073,"R"
184717,"14450 HENRY DAY ROAD","DRAPER","UT",84020,40.4890336070001,-111.879282561,217,"14450 HENRY DAY ROAD, DRAPER, UT, 84020","Match","Exact","14450 HENRY DAY RD, DRAPER, UT, 84020",176131982,"L"
184718,"14450 HIGHWAY 690","CUSTER","KY",40115,NA,NA,218,"14450 HIGHWAY 690, CUSTER, KY, 40115","No_Match",NA,NA,NA,NA
184719,"14450 LANCASTER FARMS DRIVE","DISPUTANTA","VA",23842,37.1999245960001,-77.1486561419999,219,"14450 LANCASTER FARMS DRIVE, DISPUTANTA, VA, 23842","Match","Exact","14450 LANCASTER FARMS DR, DISPUTANTA, VA, 23842",617124571,"L"
184720,"14450 NW 67TH CIRCLE","KANSAS CITY","MO",64152,NA,NA,220,"14450 NW 67TH CIRCLE, KANSAS CITY, MO, 64152","Tie",NA,NA,NA,NA
184721,"14450 NW PARSON RD","FOREST GROVE","OR",97116,45.6248962330001,-123.235438405,221,"14450 NW PARSON RD, FOREST GROVE, OR, 97116","Match","Exact","14450 NW PARSON RD, FOREST GROVE, OR, 97116",158205306,"R"
184722,"14450 OAKSHIRE BLVD","ORLANDO","FL",32824,28.3537283790001,-81.378583476,222,"14450 OAKSHIRE BLVD, ORLANDO, FL, 32824","Match","Exact","14450 OAKSHIRE BLVD, ORLANDO, FL, 32824",94406358,"L"
184723,"14450 RHINESTONE ST NW APT 401","RAMSEY","MN",55303,45.233602789,-93.455260191,223,"14450 RHINESTONE ST NW APT 401, RAMSEY, MN, 55303","Match","Exact","14450 RHINESTONE ST NW, RAMSEY, MN, 55303",642706071,"R"
184724,"14450 RHINESTONE ST NW","RAMSEY","MN",55303,45.233602789,-93.455260191,224,"14450 RHINESTONE ST NW, RAMSEY, MN, 55303","Match","Exact","14450 RHINESTONE ST NW, RAMSEY, MN, 55303",642706071,"R"
184725,"14450 S MANISTEE AVENUE","BURNHAM","IL",60633,NA,NA,225,"14450 S MANISTEE AVENUE, BURNHAM, IL, 60633","No_Match",NA,NA,NA,NA
184726,"14450 SE CREEKSIDE DR","MILWAUKIE","OR",97267,45.417342401,-122.59845569,226,"14450 SE CREEKSIDE DR, MILWAUKIE, OR, 97267","Match","Exact","14450 SE CREEKSIDE DR, MILWAUKIE, OR, 97267",157944943,"L"
184727,"14450 STAHELIN","DETROIT","MI",48223,42.3930311020001,-83.226216167,227,"14450 STAHELIN, DETROIT, MI, 48223","Match","Non_Exact","14450 STAHELIN RD, DETROIT, MI, 48223",95422514,"R"
184728,"14450 TOWNSHIP ROAD 190","VANLUE","OH",45890,NA,NA,228,"14450 TOWNSHIP ROAD 190, VANLUE, OH, 45890","No_Match",NA,NA,NA,NA
184729,"14450 TRIADELPHIA MILL RD","DAYTON","MD",21036,39.229012674,-77.0139209449999,229,"14450 TRIADELPHIA MILL RD, DAYTON, MD, 21036","Match","Exact","14450 TRIADELPHIA MILL RD, DAYTON, MD, 21036",646643738,"R"
184730,"14451 CORNERSTONE VILLAGE DR","HOUSTON","TX",77014,29.9903271750001,-95.48535629,230,"14451 CORNERSTONE VILLAGE DR, HOUSTON, TX, 77014","Match","Exact","14451 CORNERSTONE VILLAGE DR, HOUSTON, TX, 77014",643351322,"L"
184731,"14451 FILARETE STREET","WOODBRIDGE","VA",22193,38.6400559950001,-77.335321799,231,"14451 FILARETE STREET, WOODBRIDGE, VA, 22193","Match","Exact","14451 FILARETE ST, WOODBRIDGE, VA, 22193",76521102,"R"
184732,"14451 HOMESTEAD AVE N","HUGO","MN",55038,45.159123032,-92.9480741519999,232,"14451 HOMESTEAD AVE N, HUGO, MN, 55038","Match","Exact","14451 HOMESTEAD AVE N, HUGO, MN, 55038",97817785,"R"
184733,"14451 MARKET ST SUITE 230","MOULTON","AL",35650,34.480211764,-87.292472873,233,"14451 MARKET ST SUITE 230, MOULTON, AL, 35650","Match","Exact","14451 MARKET ST, MOULTON, AL, 35650",41397142,"L"
184734,"14451 WYOMING ST","BENNINGTON","NE",68007,41.32674587,-96.140816652,234,"14451 WYOMING ST, BENNINGTON, NE, 68007","Match","Exact","14451 WYOMING ST, BENNINGTON, NE, 68007",649059860,"R"
184735,"14452 37TH AVE","FLUSHING","NY",11354,NA,NA,235,"14452 37TH AVE, FLUSHING, NY, 11354","No_Match",NA,NA,NA,NA
184736,"14452 91ST PLACE N","MAPLE GROVE","MN",55369,45.1208372450001,-93.464151567,236,"14452 91ST PLACE N, MAPLE GROVE, MN, 55369","Match","Exact","14452 91ST PL N, MAPLE GROVE, MN, 55369",43815010,"L"
184737,"14452 ELM ST","LITTLE FALLS","MN",56345,46.0014158490001,-94.3558304649999,237,"14452 ELM ST, LITTLE FALLS, MN, 56345","Match","Exact","14452 ELM ST, LITTLE FALLS, MN, 56345",642173164,"L"
184738,"14452 IPAVA DRIVE","POWAY","CA",92064,32.9699062720001,-117.019550404,238,"14452 IPAVA DRIVE, POWAY, CA, 92064","Match","Exact","14452 IPAVA DR, POWAY, CA, 92064",195324091,"L"
184739,"14452 MILTON RD","FISHERS","IN",46037,39.9740804040001,-85.906169042,239,"14452 MILTON RD, FISHERS, IN, 46037","Match","Exact","14452 MILTON RD, FISHERS, IN, 46037",640740549,"L"
184740,"14452 PERE STREET","LIVONIA","MI",48154,42.3878595670001,-83.427334139,240,"14452 PERE STREET, LIVONIA, MI, 48154","Match","Exact","14452 PERE ST, LIVONIA, MI, 48154",95411113,"R"
184741,"14452 S OLD STATE RD","ELLENDALE","DE",19941,38.7774404140001,-75.432741318,241,"14452 S OLD STATE RD, ELLENDALE, DE, 19941","Match","Exact","14452 S OLD STATE RD, ELLENDALE, DE, 19941",106121943,"L"
184742,"14452 STATELY OAKS CIRCLE","HOMER GLEN","IL",60491,41.623771161,-88.001109962,242,"14452 STATELY OAKS CIRCLE, HOMER GLEN, IL, 60491","Match","Exact","14452 STATELY OAKS CIR, HOMER GLEN, IL, 60491",111545577,"R"
184743,"14452 SW 164TH PLACE","MIAMI","FL",33176,NA,NA,243,"14452 SW 164TH PLACE, MIAMI, FL, 33176","No_Match",NA,NA,NA,NA
184744,"14452 SW 92 TER","MIAMI","FL",33186,25.6810698210001,-80.428281456,244,"14452 SW 92 TER, MIAMI, FL, 33186","Match","Exact","14452 SW 92ND TER, MIAMI, FL, 33186",116045750,"L"
184745,"14453 E STATE RD 114","AKRON","IN",46910,41.023167341,-85.974536041,245,"14453 E STATE RD 114, AKRON, IN, 46910","Match","Exact","14453 STATE RD 114, AKRON, IN, 46910",7848318,"L"
184746,"14453 QUERRY CREEK CT","EASTVALE","CA",92880,33.9640604850001,-117.598667821,246,"14453 QUERRY CREEK CT, EASTVALE, CA, 92880","Match","Non_Exact","14453 QUARRY CREEK CT, EASTVALE, CA, 92880",629795490,"R"
184747,"14453 ROUND MOUNTAIN RD","BAKERSFIELD","CA",93308,35.450227023,-118.881250836,247,"14453 ROUND MOUNTAIN RD, BAKERSFIELD, CA, 93308","Match","Exact","14453 ROUND MOUNTAIN RD, BAKERSFIELD, CA, 93308",651098726,"R"
184748,"14453 W WINDSOR AVE","GOODYEAR","AZ",85395,33.4756928310001,-112.369460497,248,"14453 W WINDSOR AVE, GOODYEAR, AZ, 85395","Match","Exact","14453 W WINDSOR AVE, GOODYEAR, AZ, 85395",244015435,"R"
184749,"14454 BASILHAM LANE","JACKSONVILLE","FL",32258,30.144732678,-81.530092655,249,"14454 BASILHAM LANE, JACKSONVILLE, FL, 32258","Match","Exact","14454 BASILHAM LN, JACKSONVILLE, FL, 32258",83962210,"L"
184750,"14454 SW 137TH CT","MIAMI","FL",33186,25.632960912,-80.4152947859999,250,"14454 SW 137TH CT, MIAMI, FL, 33186","Match","Exact","14454 SW 137TH CT, MIAMI, FL, 33186",116069745,"L"
184751,"14454 WOODLEIGH DR","CHESTER","VA",23831,37.320141796,-77.453991289,251,"14454 WOODLEIGH DR, CHESTER, VA, 23831","Match","Exact","14454 WOODLEIGH DR, CHESTER, VA, 23831",201593034,"R"
184752,"14455 102ND STREET","COLOGNE","MN",55322,44.819053528,-93.890116512,252,"14455 102ND STREET, COLOGNE, MN, 55322","Match","Exact","14455 102ND ST, COLOGNE, MN, 55322",43490859,"R"
184753,"14455 ACUNA LANE","HOUSTON","TX",70045,29.617191281,-95.4222842779999,253,"14455 ACUNA LANE, HOUSTON, TX, 70045","Match","Non_Exact","14455 ACUNA LN, HOUSTON, TX, 77045",638496694,"L"
184754,"14455 E WOYOMING PL","DENVER","CO",80012,39.691845287,-104.819914346,254,"14455 E WOYOMING PL, DENVER, CO, 80012","Match","Non_Exact","14455 E WYOMING PL, DENVER, CO, 80012",177371986,"R"
184755,"14455 LASSO DRIVE","RENO","NV",89511,39.393138557,-119.768563145,255,"14455 LASSO DRIVE, RENO, NV, 89511","Match","Exact","14455 LASSO DR, RENO, NV, 89511",107075628,"L"
184756,"14455 LAWRENCE 2145","MOUNT VERNON","MO",65712,37.066698769,-93.79329835,256,"14455 LAWRENCE 2145, MOUNT VERNON, MO, 65712","Match","Exact","14455 LAWRENCE 2145, MOUNT VERNON, MO, 65712",634453419,"L"
184757,"14455 MELBOURNE AVENUE","FLUSHING","NY",11367,NA,NA,257,"14455 MELBOURNE AVENUE, FLUSHING, NY, 11367","No_Match",NA,NA,NA,NA
184758,"14455 PLACID COVE","STRONGSVILLE","OH",43136,41.310875821,-81.825243416,258,"14455 PLACID COVE, STRONGSVILLE, OH, 43136","Match","Non_Exact","14455 PLACID COVE, STRONGSVILLE, OH, 44136",61150253,"R"
184759,"14455 PLACID COVE","STRONGSVILLE","OH",44136,41.310875821,-81.825243416,259,"14455 PLACID COVE, STRONGSVILLE, OH, 44136","Match","Exact","14455 PLACID COVE, STRONGSVILLE, OH, 44136",61150253,"R"
184760,"14455 SOUTH GREENWOOD","OLATHE","KS",66062,38.8672418080001,-94.755016395,260,"14455 SOUTH GREENWOOD, OLATHE, KS, 66062","Match","Non_Exact","14455 S GREENWOOD ST, OLATHE, KS, 66062",91322771,"L"
184761,"14455 SW 44TH AVENUE","OCALA","FL",34473,29.0118209980001,-82.194799928,261,"14455 SW 44TH AVENUE, OCALA, FL, 34473","Match","Exact","14455 SW 44TH AVE, OCALA, FL, 34473",116718305,"R"
184762,"14455 WEST BAY RD","STERLING","NY",13156,43.314451831,-76.7201946019999,262,"14455 WEST BAY RD, STERLING, NY, 13156","Match","Exact","14455 W BAY RD, STERLING, NY, 13156",635593104,"L"
184763,"14455 WOODTOWN ROAD","SUNBURY","OH",43074,40.186031944,-82.8019567329999,263,"14455 WOODTOWN ROAD, SUNBURY, OH, 43074","Match","Exact","14455 WOODTOWN RD, SUNBURY, OH, 43074",652704835,"R"
184764,"14456 121ST DRIVE","LIVE OAK","FL",32060,30.186008429,-82.998621164,264,"14456 121ST DRIVE, LIVE OAK, FL, 32060","Match","Exact","14456 121ST DR, LIVE OAK, FL, 32060",610554351,"L"
184765,"14456 BANNISTER DRIVE","NOBLESVILLE","IN",46060,39.9990231460001,-85.9489411929999,265,"14456 BANNISTER DRIVE, NOBLESVILLE, IN, 46060","Match","Non_Exact","14456 BANISTER DR, NOBLESVILLE, IN, 46060",231603504,"L"
184766,"14456 FOOTHILL BLVD UNIT 3","SYLMAR","CA",91342,34.3218468470001,-118.448912944,266,"14456 FOOTHILL BLVD UNIT 3, SYLMAR, CA, 91342","Match","Exact","14456 FOOTHILL BLVD, SYLMAR, CA, 91342",647593369,"L"
184767,"14456 KENTFIELD PL","POWAY","CA",92064,32.9766778310001,-117.03820606,267,"14456 KENTFIELD PL, POWAY, CA, 92064","Match","Exact","14456 KENTFIELD PL, POWAY, CA, 92064",195696380,"R"
184768,"14456 SW 44TH ST","MIAMI","FL",33175,25.72711129,-80.4286876849999,268,"14456 SW 44TH ST, MIAMI, FL, 33175","Match","Exact","14456 SW 44TH ST, MIAMI, FL, 33175",116044678,"L"
184769,"14457 PINEY RIDGE ROAD","HESSTON","PA",16647,40.405491752,-78.112508657,269,"14457 PINEY RIDGE ROAD, HESSTON, PA, 16647","Match","Exact","14457 PINEY RIDGE RD, HESSTON, PA, 16647",50620461,"R"
184770,"14457 RIALTO AVE","BROOKSVILLE","FL",34613,28.5573218390001,-82.49239399,270,"14457 RIALTO AVE, BROOKSVILLE, FL, 34613","Match","Exact","14457 RIALTO AVE, BROOKSVILLE, FL, 34613",85449339,"L"
184771,"14458 58TH ST S","TUKWILA","WA",98168,47.4733497550001,-122.260768798,271,"14458 58TH ST S, TUKWILA, WA, 98168","Match","Non_Exact","14458 58TH AVE S, TUKWILA, WA, 98168",239776124,"L"
184772,"14458 83RD ST SE","MILNOR","ND",58060,46.209778176,-97.371687607,272,"14458 83RD ST SE, MILNOR, ND, 58060","Match","Exact","14458 83RD ST SE, MILNOR, ND, 58060",199554483,"R"
184773,"14458 BENEFIT STREET NO 4","SHERMAN OAKS","CA",91423,34.1488752710001,-118.447939554,273,"14458 BENEFIT STREET NO 4, SHERMAN OAKS, CA, 91423","Match","Non_Exact","14458 BENEFIT ST, SHERMAN OAKS, CA, 91423",642864525,"L"
184774,"14458 FLAX WAY","APPLE VALLEY","MN",55123,44.7398930580001,-93.198583881,274,"14458 FLAX WAY, APPLE VALLEY, MN, 55123","Match","Non_Exact","14458 FLAX WAY, APPLE VALLEY, MN, 55124",37937471,"L"
184775,"14458 POINT VIRGO ROAD","ROGERS","AR",72756,36.359892861,-94.061801728,275,"14458 POINT VIRGO ROAD, ROGERS, AR, 72756","Match","Exact","14458 POINT VIRGO RD, ROGERS, AR, 72756",47865777,"R"
184776,"14458 S KOLIN","MIDLOTHIAN","IL",60445,41.629815653,-87.726457354,276,"14458 S KOLIN, MIDLOTHIAN, IL, 60445","Match","Non_Exact","14458 KOLIN AVE, MIDLOTHIAN, IL, 60445",111824903,"R"
184777,"14458 WARWICK ST","DETROIT","MI",48223,42.3930568230001,-83.2286393259999,277,"14458 WARWICK ST, DETROIT, MI, 48223","Match","Exact","14458 WARWICK ST, DETROIT, MI, 48223",95422507,"R"
184778,"14458","WARWICK","MI",48223,NA,NA,278,"14458, WARWICK, MI, 48223","No_Match",NA,NA,NA,NA
184779,"14459 BENEFIT ST APT 7","SHERMAN OAKS","CA",91423,34.1488859990001,-118.447936819,279,"14459 BENEFIT ST APT 7, SHERMAN OAKS, CA, 91423","Match","Exact","14459 BENEFIT ST, SHERMAN OAKS, CA, 91423",642864525,"R"
184780,"1446  DOGWOOD COURT","BANDON","OR",97411,43.1105271070001,-124.430513306,280,"1446  DOGWOOD COURT, BANDON, OR, 97411","Match","Exact","1446 DOGWOOD CT, BANDON, OR, 97411",601288637,"L"
184781,"1446 12TH ST N","FARGO","ND",58102,46.896320605,-96.7966037579999,281,"1446 12TH ST N, FARGO, ND, 58102","Match","Exact","1446 12TH ST N, FARGO, ND, 58102",151447188,"L"
184782,"1446 19TH PL","VERO BEACH","FL",32960,27.637606265,-80.4001840449999,282,"1446 19TH PL, VERO BEACH, FL, 32960","Match","Exact","1446 19TH PL, VERO BEACH, FL, 32960",610940206,"R"
184783,"1446 30TH STREET","CEYLON","MN",56121,43.5288722110001,-94.583119235,283,"1446 30TH STREET, CEYLON, MN, 56121","Match","Exact","1446 30TH ST, CEYLON, MN, 56121",9983997,"R"
184784,"1446 44TH STREET","BROOKLYN","NY",11219,40.6358634790001,-73.985957759,284,"1446 44TH STREET, BROOKLYN, NY, 11219","Match","Exact","1446 44TH ST, BROOKLYN, NY, 11219",59080298,"R"
184785,"1446 49 ST","BROOKLYN","NY",11219,40.6330616180001,-73.988872177,285,"1446 49 ST, BROOKLYN, NY, 11219","Match","Exact","1446 49TH ST, BROOKLYN, NY, 11219",59080318,"R"
184786,"1446 6TH ST APT C","BERKLEY","CA",94710,37.8760712060001,-122.300363643,286,"1446 6TH ST APT C, BERKLEY, CA, 94710","Match","Non_Exact","1446 6TH ST, BERKELEY, CA, 94710",124992806,"R"
184787,"1446 ALVIN BROOKS ROAD","BUFFALO","KY",42716,37.5078713730001,-85.666274328,287,"1446 ALVIN BROOKS ROAD, BUFFALO, KY, 42716","Match","Exact","1446 ALVIN BROOKS RD, BUFFALO, KY, 42716",653254831,"R"
184788,"1446 AVALON WAY","CORDOVA","TN",38016,35.1648595280001,-89.7309989949999,288,"1446 AVALON WAY, CORDOVA, TN, 38016","Match","Exact","1446 AVALON WAY, CORDOVA, TN, 38016",611803898,"R"
184789,"1446 BAHIA DRIVE","NAVARRE","FL",32566,30.3808242980001,-86.868320199,289,"1446 BAHIA DRIVE, NAVARRE, FL, 32566","Match","Exact","1446 BAHIA DR, NAVARRE, FL, 32566",74593284,"R"
184790,"1446 BEARSDEN DRIVE","AVON","IN",46123,39.784706613,-86.3724735919999,290,"1446 BEARSDEN DRIVE, AVON, IN, 46123","Match","Exact","1446 BEARSDEN DR, AVON, IN, 46123",89227199,"L"
184791,"1446 BIG REDWOOD DRIVE","OAKLEY","CA",94561,37.9854032910001,-121.638525496,291,"1446 BIG REDWOOD DRIVE, OAKLEY, CA, 94561","Match","Exact","1446 BIG REDWOOD DR, OAKLEY, CA, 94561",627013844,"R"
184792,"1446 BOULDERCREST RD SE APT C4","ATLANTA","GA",30316,33.716746657,-84.3298529309999,292,"1446 BOULDERCREST RD SE APT C4, ATLANTA, GA, 30316","Match","Exact","1446 BOULDERCREST RD SE, ATLANTA, GA, 30316",645265010,"L"
184793,"1446 BOULDERCREST ROAD APT D1","ATLANTA","GA",30316,33.716746657,-84.3298529309999,293,"1446 BOULDERCREST ROAD APT D1, ATLANTA, GA, 30316","Match","Non_Exact","1446 BOULDERCREST RD SE, ATLANTA, GA, 30316",645265010,"L"
184794,"1446 BROADWAY","BLUE ISLAND","IL",60406,41.653129748,-87.657950103,294,"1446 BROADWAY, BLUE ISLAND, IL, 60406","Match","Exact","1446 BROADWAY, BLUE ISLAND, IL, 60406",631588000,"R"
184795,"1446 CARDIGAN LANE","LANCASTER","TX",75134,32.6090184460001,-96.794598918,295,"1446 CARDIGAN LANE, LANCASTER, TX, 75134","Match","Exact","1446 CARDIGAN LN, LANCASTER, TX, 75134",102979004,"L"
184796,"1446 CHURCH STREET SUITE C","NORFOLK","VA",23504,36.860856577,-76.2782019319999,296,"1446 CHURCH STREET SUITE C, NORFOLK, VA, 23504","Match","Exact","1446 CHURCH ST, NORFOLK, VA, 23504",122127655,"R"
184797,"1446 CLERMONT RD","DURHAM","NC",27713,35.8909300720001,-78.909505428,297,"1446 CLERMONT RD, DURHAM, NC, 27713","Match","Exact","1446 CLERMONT RD, DURHAM, NC, 27713",71744289,"R"
184798,"1446 COUGAR DRIVE","BOZEMAN","MT",59718,45.580119945,-111.087846651,298,"1446 COUGAR DRIVE, BOZEMAN, MT, 59718","Match","Exact","1446 COUGAR DR, BOZEMAN, MT, 59718",163511999,"L"
184799,"1446 CRANMER DR","WALNUT","CA",91789,34.047455089,-117.851198201,299,"1446 CRANMER DR, WALNUT, CA, 91789","Match","Exact","1446 CRANMER DR, WALNUT, CA, 91789",141728343,"R"
184800,"1446 CRESCENT MOON WAY","BEAUMONT","CA",92223,33.9466431330001,-116.953995529,300,"1446 CRESCENT MOON WAY, BEAUMONT, CA, 92223","Match","Exact","1446 CRESCENT MOON WAY, BEAUMONT, CA, 92223",608989659,"R"
184801,"1446 CUMBERLAND COURT","FORT MYERS","FL",33919,26.5794028560001,-81.889971825,301,"1446 CUMBERLAND COURT, FORT MYERS, FL, 33919","Match","Exact","1446 CUMBERLAND CT, FORT MYERS, FL, 33919",118103222,"R"
184802,"1446 DOUGLAS DR","ELLERSLIE","GA",31807,32.63865674,-84.7915025,302,"1446 DOUGLAS DR, ELLERSLIE, GA, 31807","Match","Exact","1446 DOUGLAS DR, ELLERSLIE, GA, 31807",647387447,"L"
184803,"1446 E 35TH ST","ERIE","PA",16504,42.1165241100001,-80.035713035,303,"1446 E 35TH ST, ERIE, PA, 16504","Match","Exact","1446 E 35TH ST, ERIE, PA, 16504",117498589,"L"
184804,"1446 E GROVERS AVE 16","PHOENIX","AZ",85022,33.6476406030001,-112.051582082,304,"1446 E GROVERS AVE 16, PHOENIX, AZ, 85022","Match","Non_Exact","1446 E GROVERS AVE, PHOENIX, AZ, 85022",128591385,"R"
184805,"1446 E MOWRY DR","MIAMI","FL",33033,25.470054749,-80.460223732,305,"1446 E MOWRY DR, MIAMI, FL, 33033","Match","Non_Exact","1446 E MOWRY DR, HOMESTEAD, FL, 33033",116277333,"L"
184806,"1446 EMPRESS LN","BRENTWOOD","CA",94513,37.951685142,-121.721140933,306,"1446 EMPRESS LN, BRENTWOOD, CA, 94513","Match","Exact","1446 EMPRESS LN, BRENTWOOD, CA, 94513",192108321,"L"
184807,"1446 FERNWOOD AVE","DALLAS","TX",75216,32.7304859980001,-96.809089822,307,"1446 FERNWOOD AVE, DALLAS, TX, 75216","Match","Exact","1446 FERNWOOD AVE, DALLAS, TX, 75216",102949476,"L"
184808,"1446 FOXWOOD LN","ROCKWALL","TX",75032,32.8996744020001,-96.439295977,308,"1446 FOXWOOD LN, ROCKWALL, TX, 75032","Match","Exact","1446 FOXWOOD LN, ROCKWALL, TX, 75032",647387131,"L"
184809,"1446 FRANKLIN STREET","HILLSIDE","NJ",7205,40.7028667060001,-74.228972572,309,"1446 FRANKLIN STREET, HILLSIDE, NJ, 7205","Match","Exact","1446 FRANKLIN ST, HILLSIDE, NJ, 07205",60577395,"L"
184810,"1446 FROG POND","SHERMAN","TX",75092,33.6604290940001,-96.7852435889999,310,"1446 FROG POND, SHERMAN, TX, 75092","Match","Non_Exact","1446 FROG POND RD, SHERMAN, TX, 75092",63377015,"L"
184811,"1446 GROSS DAM ROAD","GOLDEN","CO",80403,39.9211325150001,-105.345978443,311,"1446 GROSS DAM ROAD, GOLDEN, CO, 80403","Match","Exact","1446 GROSS DAM RD, GOLDEN, CO, 80403",188205757,"L"
184812,"1446 GUNNELL LANE","MANITOWOC","WI",54220,44.1129422340001,-87.678780159,312,"1446 GUNNELL LANE, MANITOWOC, WI, 54220","Match","Exact","1446 GUNNELL LN, MANITOWOC, WI, 54220",147949375,"L"
184813,"1446 IOWA AVE","ST PAUL","MN",55108,44.9890922370001,-93.161032603,313,"1446 IOWA AVE, ST PAUL, MN, 55108","Match","Non_Exact","1446 W IOWA AVE, SAINT PAUL, MN, 55108",97641064,"L"
184814,"1446 ISABELLA STREET","WAYCROSS","GA",31501,31.2119360070001,-82.376277295,314,"1446 ISABELLA STREET, WAYCROSS, GA, 31501","Match","Non_Exact","1446 ISABELLA ST, WAYCROSS, GA, 31503",5246382,"R"
184815,"1446 IVERSON ROAD","MT PLEASANT","SC",29464,32.8016918330001,-79.834816055,315,"1446 IVERSON ROAD, MT PLEASANT, SC, 29464","Match","Exact","1446 IVERSON RD, MOUNT PLEASANT, SC, 29464",605528547,"L"
184816,"1446 JACKSON STREET","HOLLYWOOD","FL",33020,26.008942839,-80.1359047989999,316,"1446 JACKSON STREET, HOLLYWOOD, FL, 33020","Match","Exact","1446 JACKSON ST, HOLLYWOOD, FL, 33020",114732668,"L"
184817,"1446 JAMES RD","TURBEVILLE","SC",29162,33.8644236420001,-79.9913721459999,317,"1446 JAMES RD, TURBEVILLE, SC, 29162","Match","Exact","1446 JAMES RD, TURBEVILLE, SC, 29162",71438018,"R"
184818,"1446 KIRK AVENUE","CORONA","CA",92883,NA,NA,318,"1446 KIRK AVENUE, CORONA, CA, 92883","No_Match",NA,NA,NA,NA
184819,"1446 LAFFER AVENUE","AKRON","OH",44305,41.073733931,-81.4705756979999,319,"1446 LAFFER AVENUE, AKRON, OH, 44305","Match","Exact","1446 LAFFER AVE, AKRON, OH, 44305",61351241,"R"
184820,"1446 LAKME AVE","WILMINGTON","CA",90744,33.792797874,-118.260633371,320,"1446 LAKME AVE, WILMINGTON, CA, 90744","Match","Exact","1446 LAKME AVE, WILMINGTON, CA, 90744",141682038,"R"
184821,"1446 LIMEWOOD COURT","FAIRFIELD","CA",94534,38.1778395810001,-122.133789598,321,"1446 LIMEWOOD COURT, FAIRFIELD, CA, 94534","Match","Exact","1446 LIMEWOOD CT, FAIRFIELD, CA, 94534",192554045,"R"
184822,"1446 LOOKOUT PLACE","DERBY","KS",67037,37.5679709200001,-97.2520027039999,322,"1446 LOOKOUT PLACE, DERBY, KS, 67037","Match","Exact","1446 LOOKOUT PL, DERBY, KS, 67037",115705926,"L"
184823,"1446 METEDECONK AVE","BRICK","NJ",8724,40.0857600260001,-74.14823341,323,"1446 METEDECONK AVE, BRICK, NJ, 8724","Match","Exact","1446 METEDECONK AVE, BRICK, NJ, 08724",203725104,"R"
184824,"1446 NORTH SHERWOOD DRIVE","CHARLESTON","SC",29407,32.790315637,-80.006236019,324,"1446 NORTH SHERWOOD DRIVE, CHARLESTON, SC, 29407","Match","Exact","1446 N SHERWOOD DR, CHARLESTON, SC, 29407",108803361,"R"
184825,"1446 OXBOW DRIVE","CEDAR HILL","TX",75104,32.617279298,-96.9121597979999,325,"1446 OXBOW DRIVE, CEDAR HILL, TX, 75104","Match","Exact","1446 OXBOW DR, CEDAR HILL, TX, 75104",616744857,"L"
184826,"1446 PAULTON STREET","JOHNSTOWN","PA",15905,40.3188486290001,-78.952392264,326,"1446 PAULTON STREET, JOHNSTOWN, PA, 15905","Match","Exact","1446 PAULTON ST, JOHNSTOWN, PA, 15905",50228733,"L"
184827,"1446 PITNEY LANE","UPPER LAKE","CA",95485,39.180995426,-122.884904063,327,"1446 PITNEY LANE, UPPER LAKE, CA, 95485","Match","Exact","1446 PITNEY LN, UPPER LAKE, CA, 95485",67027031,"R"
184828,"1446 REATA PASS","MEMPHIS","TN",38109,35.0310755360001,-90.1122046789999,328,"1446 REATA PASS, MEMPHIS, TN, 38109","Match","Exact","1446 REATA PASS, MEMPHIS, TN, 38109",72935091,"R"
184829,"1446 RIDGE ROAD","DICKSON","TN",37055,36.147342635,-87.397256344,329,"1446 RIDGE ROAD, DICKSON, TN, 37055","Match","Exact","1446 RIDGE RD, DICKSON, TN, 37055",72752585,"L"
184830,"1446 S 750 W","DELPHI","IN",46923,40.5260039560001,-86.66730383,330,"1446 S 750 W, DELPHI, IN, 46923","Match","Exact","1446 S 750 W, DELPHI, IN, 46923",27048260,"L"
184831,"1446 S KOSTNER","CHICAGO","IL",60623,41.861502881,-87.734826251,331,"1446 S KOSTNER, CHICAGO, IL, 60623","Match","Non_Exact","1446 S KOSTNER AVE, CHICAGO, IL, 60623",111797917,"R"
184832,"1446 SENIOR DR","PITTSBURGH","PA",15227,40.3595348370001,-79.9639523549999,332,"1446 SENIOR DR, PITTSBURGH, PA, 15227","Match","Exact","1446 SENIOR DR, PITTSBURGH, PA, 15227",51651418,"R"
184833,"1446 SENIOR DRIVE","PITTSBURGH","PA",15227,40.3595348370001,-79.9639523549999,333,"1446 SENIOR DRIVE, PITTSBURGH, PA, 15227","Match","Exact","1446 SENIOR DR, PITTSBURGH, PA, 15227",51651418,"R"
184834,"1446 SHARPS COVE RD","GURLEY","AL",35748,34.8185135590001,-86.367289921,334,"1446 SHARPS COVE RD, GURLEY, AL, 35748","Match","Exact","1446 SHARPS COVE RD, GURLEY, AL, 35748",58197777,"R"
184835,"1446 SPOTSWOOD DR","LOCUST GROVE","VA",22508,38.382970711,-77.776060832,335,"1446 SPOTSWOOD DR, LOCUST GROVE, VA, 22508","Match","Exact","1446 SPOTSWOOD DR, LOCUST GROVE, VA, 22508",29892449,"L"
184836,"1446 SPRING STREET SUITE 205","PASO ROBLES","CA",93446,35.6292304360001,-120.691537598,336,"1446 SPRING STREET SUITE 205, PASO ROBLES, CA, 93446","Match","Exact","1446 SPRING ST, PASO ROBLES, CA, 93446",109713732,"R"
184837,"1446 ST ANDREW WAY","MEDFORD","OR",97504,42.350145108,-122.866892047,337,"1446 ST ANDREW WAY, MEDFORD, OR, 97504","Match","Exact","1446 SAINT ANDREW WAY, MEDFORD, OR, 97504",155513756,"R"
184838,"1446 STEAM ENGINE WAY","CONYERS","GA",30013,33.636676122,-83.9677391179999,338,"1446 STEAM ENGINE WAY, CONYERS, GA, 30013","Match","Non_Exact","1446 STEAM ENGINE WAY NE, CONYERS, GA, 30013",634099121,"R"
184839,"1446 STEAM ENGINE","CONYERS","GA",30013,NA,NA,339,"1446 STEAM ENGINE, CONYERS, GA, 30013","No_Match",NA,NA,NA,NA
184840,"1446 STUBBS MILL RD","LEBANON","OH",45036,39.411449299,-84.181013631,340,"1446 STUBBS MILL RD, LEBANON, OH, 45036","Match","Exact","1446 STUBBS MILL RD, LEBANON, OH, 45036",159014493,"L"
184841,"1446 TAMARIND AVE APT 410","HOLLYWOOD","CA",90028,34.0969499440001,-118.319041152,341,"1446 TAMARIND AVE APT 410, HOLLYWOOD, CA, 90028","Match","Exact","1446 TAMARIND AVE, HOLLYWOOD, CA, 90028",141602858,"R"
184842,"1446 TRADER DR","STREETSBORO","OH",44241,41.2361600580001,-81.342283002,342,"1446 TRADER DR, STREETSBORO, OH, 44241","Match","Exact","1446 TRADER DR, STREETSBORO, OH, 44241",137529442,"R"
184843,"1446 UNIT B JAMES RD","TURBEVILLE","SC",29162,NA,NA,343,"1446 UNIT B JAMES RD, TURBEVILLE, SC, 29162","No_Match",NA,NA,NA,NA
184844,"1446 UTOPIA PARKWAY","WHITESTONE","NY",11357,NA,NA,344,"1446 UTOPIA PARKWAY, WHITESTONE, NY, 11357","No_Match",NA,NA,NA,NA
184845,"1446 VAN KIRK ST","PHILADELPHIA","PA",19149,40.0314223880001,-75.080128023,345,"1446 VAN KIRK ST, PHILADELPHIA, PA, 19149","Match","Exact","1446 VAN KIRK ST, PHILADELPHIA, PA, 19149",131428135,"R"
184846,"1446 VENTURA DR","PITTSBURG","CA",94565,37.9999698880001,-121.869431223,346,"1446 VENTURA DR, PITTSBURG, CA, 94565","Match","Exact","1446 VENTURA DR, PITTSBURG, CA, 94565",192088238,"R"
184847,"1446 W BARNES RD","LESLIE","MI",49251,42.523890545,-84.400932617,347,"1446 W BARNES RD, LESLIE, MI, 49251","Match","Exact","1446 W BARNES RD, LESLIE, MI, 49251",652795345,"R"
184848,"1446 W IDAHO BLVD","EMMETT","ID",83617,43.8936370380001,-116.52130768,348,"1446 W IDAHO BLVD, EMMETT, ID, 83617","Match","Exact","1446 W IDAHO BLVD, EMMETT, ID, 83617",122880618,"R"
184849,"1446 WEST JADE DRIVE","SAINT GEORGE","UT",84770,37.2527735150001,-113.615872587,349,"1446 WEST JADE DRIVE, SAINT GEORGE, UT, 84770","Match","Exact","1446 W JADE DR, SAINT GEORGE, UT, 84770",166187802,"R"
184850,"1446 WEST QUEEN ST STE 209","HAMPTON","VA",23669,37.025649614,-76.3816863599999,350,"1446 WEST QUEEN ST STE 209, HAMPTON, VA, 23669","Match","Exact","1446 W QUEEN ST, HAMPTON, VA, 23669",103807614,"R"
184851,"1446 WOODSON ROAD","UNIVERSITY CITY","MO",63132,38.678944696,-90.35702152,351,"1446 WOODSON ROAD, UNIVERSITY CITY, MO, 63132","Match","Non_Exact","1446 WOODSON RD, OLIVETTE, MO, 63132",100132829,"R"
184852,"1446 YOSEMITE","BIRMINGHAM","MI",48009,42.546049872,-83.202285309,352,"1446 YOSEMITE, BIRMINGHAM, MI, 48009","Match","Non_Exact","1446 YOSEMITE BLVD, BIRMINGHAM, MI, 48009",69735647,"R"
184853,"14460 CITRUS GROVE BLVD","LOXAHATCHEE","FL",33470,26.8021434710001,-80.2684309329999,353,"14460 CITRUS GROVE BLVD, LOXAHATCHEE, FL, 33470","Match","Exact","14460 CITRUS GROVE BLVD, LOXAHATCHEE, FL, 33470",115347111,"R"
184854,"14460 COUNTY ROAD 16","FORT MORGAN","CO",80710,40.205817301,-103.849350812,354,"14460 COUNTY ROAD 16, FORT MORGAN, CO, 80710","Match","Non_Exact","14460 CO RD 16, FORT MORGAN, CO, 80701",190137428,"R"
184855,"14460 E 50TH AVE","DENVER","CO",80239,39.784454989,-104.822280075,355,"14460 E 50TH AVE, DENVER, CO, 80239","Match","Exact","14460 E 50TH AVE, DENVER, CO, 80239",640071913,"L"
184856,"14460 GRAVETT ROAD APT 2D","FLUSHING","NY",11367,NA,NA,356,"14460 GRAVETT ROAD APT 2D, FLUSHING, NY, 11367","No_Match",NA,NA,NA,NA
184857,"14460 GROUSE LANE","ROGERS","MN",55374,45.215557855,-93.535493864,357,"14460 GROUSE LANE, ROGERS, MN, 55374","Match","Exact","14460 GROUSE LN, ROGERS, MN, 55374",43850016,"L"
184858,"14460 HOBBS","CONROE","TX",77306,30.2833779960001,-95.351282334,358,"14460 HOBBS, CONROE, TX, 77306","Match","Exact","14460 HOBBS, CONROE, TX, 77306",79309469,"L"
184859,"14460 RANEYS LN","ORLAND PARK","IL",60462,41.626947316,-87.869093537,359,"14460 RANEYS LN, ORLAND PARK, IL, 60462","Match","Exact","14460 RANEYS LN, ORLAND PARK, IL, 60462",111871256,"R"
184860,"14460 VILLAGE HIGH STREET","GAINESVILLE","VA",20155,38.803460714,-77.622832746,360,"14460 VILLAGE HIGH STREET, GAINESVILLE, VA, 20155","Match","Exact","14460 VILLAGE HIGH ST, GAINESVILLE, VA, 20155",619959500,"R"
184861,"14460 W COLLEGE AVENUE","NEW BERLIN","WI",53151,42.92987685,-88.0952536619999,361,"14460 W COLLEGE AVENUE, NEW BERLIN, WI, 53151","Match","Exact","14460 COLLEGE AVE, NEW BERLIN, WI, 53151",635629835,"R"
184862,"14460 WEST 121ST TERRACE","OLATHE","KS",66062,38.9087502090001,-94.753162789,362,"14460 WEST 121ST TERRACE, OLATHE, KS, 66062","Match","Exact","14460 W 121ST TER, OLATHE, KS, 66062",91301695,"L"
184863,"14461 AVENUE OF THE RUSHES","WINTER GARDEN","FL",34748,28.457903281,-81.5972815709999,363,"14461 AVENUE OF THE RUSHES, WINTER GARDEN, FL, 34748","Match","Non_Exact","14461 AVE OF THE RUSHES, WINTER GARDEN, FL, 34787",631235098,"R"
184864,"14461 FOUR CHIMNEY DR","CENTREVILLE","VA",20120,38.8459251080001,-77.4463185019999,364,"14461 FOUR CHIMNEY DR, CENTREVILLE, VA, 20120","Match","Exact","14461 FOUR CHIMNEY DR, CENTREVILLE, VA, 20120",635444752,"L"
184865,"14461 FOUR CHIMNEY DRIVE","CENTREVILLE","VA",20123,38.8459251080001,-77.4463185019999,365,"14461 FOUR CHIMNEY DRIVE, CENTREVILLE, VA, 20123","Match","Non_Exact","14461 FOUR CHIMNEY DR, CENTREVILLE, VA, 20120",635444752,"L"
184866,"14461 MARINE RD","MONTROSE","CO",81401,38.483205189,-107.899596023,366,"14461 MARINE RD, MONTROSE, CO, 81401","Match","Non_Exact","14461 MARINE RD, MONTROSE, CO, 81403",122565251,"L"
184867,"14461 PIEDMONT","DETROIT","MI",48223,42.393045757,-83.229913929,367,"14461 PIEDMONT, DETROIT, MI, 48223","Match","Exact","14461 PIEDMONT, DETROIT, MI, 48223",95422497,"L"
184868,"14461 SW 22ND TER","MIAMI","FL",33175,25.7460508780001,-80.429519697,368,"14461 SW 22ND TER, MIAMI, FL, 33175","Match","Exact","14461 SW 22ND TER, MIAMI, FL, 33175",625401716,"L"
184869,"14461 W ARCHER AVENUE","GOLDEN","CO",80401,39.7161881970001,-105.161591972,369,"14461 W ARCHER AVENUE, GOLDEN, CO, 80401","Match","Exact","14461 W ARCHER AVE, GOLDEN, CO, 80401",177316525,"R"
184870,"14462 LAWTON ROAD","COTTONDALE","AL",35453,33.1951962900001,-87.371291634,370,"14462 LAWTON ROAD, COTTONDALE, AL, 35453","Match","Exact","14462 LAWTON RD, COTTONDALE, AL, 35453",82172284,"L"
184871,"14462 NORTHRIDGE DRIVE","CHARLOTTE","NC",28269,35.3944167500001,-80.757093544,371,"14462 NORTHRIDGE DRIVE, CHARLOTTE, NC, 28269","Match","Exact","14462 NORTHRIDGE DR, CHARLOTTE, NC, 28269",639260610,"R"
184872,"14462 PLATZER DRIVE","HOUSTON","TX",77045,29.6170365720001,-95.4233045719999,372,"14462 PLATZER DRIVE, HOUSTON, TX, 77045","Match","Exact","14462 PLATZER DR, HOUSTON, TX, 77045",638496698,"R"
184873,"14462 SW 113TH TERRACE","MIAMI","FL",33186,25.66188436,-80.428304285,373,"14462 SW 113TH TERRACE, MIAMI, FL, 33186","Match","Exact","14462 SW 113TH TER, MIAMI, FL, 33186",116261770,"L"
184874,"14463 ENCLAVE COURT","PRIOR LAKE","MN",55372,44.7403738420001,-93.4410341669999,374,"14463 ENCLAVE COURT, PRIOR LAKE, MN, 55372","Match","Non_Exact","14463 ENCLAVE CT NW, PRIOR LAKE, MN, 55372",624261053,"L"
184875,"14463 MARSALA WAY","NAPLES","FL",34109,26.2471834830001,-81.748036196,375,"14463 MARSALA WAY, NAPLES, FL, 34109","Match","Exact","14463 MARSALA WAY, NAPLES, FL, 34109",619142454,"R"
184876,"14463 MONTEREY AVE S","SAVAGE","MN",55378,44.7429892700001,-93.33813773,376,"14463 MONTEREY AVE S, SAVAGE, MN, 55378","Match","Exact","14463 MONTEREY AVE S, SAVAGE, MN, 55378",38156010,"R"
184877,"14463 MURPHY ROAD","WINNEBAGO","IL",61088,42.2170813490001,-89.317922717,377,"14463 MURPHY ROAD, WINNEBAGO, IL, 61088","Match","Exact","14463 MURPHY RD, WINNEBAGO, IL, 61088",49249442,"L"
184878,"14463 NW 16TH CT","PEMBROKE PINES","FL",33028,26.0212335050001,-80.342313366,378,"14463 NW 16TH CT, PEMBROKE PINES, FL, 33028","Match","Exact","14463 NW 16TH CT, PEMBROKE PINES, FL, 33028",114801326,"L"
184879,"14464 COOL OAK LANE","CENTERVILLE","VA",20121,38.8351172170001,-77.4461385549999,379,"14464 COOL OAK LANE, CENTERVILLE, VA, 20121","Match","Non_Exact","14464 COOL OAK LN, CENTREVILLE, VA, 20121",76034606,"R"
184880,"14464 E COLORADO DRIVE 203","AURORA","CO",80012,39.684596098,-104.819761434,380,"14464 E COLORADO DRIVE 203, AURORA, CO, 80012","Match","Non_Exact","14464 E COLORADO DR, AURORA, CO, 80012",177354816,"R"
184881,"14464 E FRANTZ","PARLIER","CA",93648,NA,NA,381,"14464 E FRANTZ, PARLIER, CA, 93648","No_Match",NA,NA,NA,NA
184882,"14464 FRANKTON AVE","HACIENDA HEIGHTS","CA",91745,34.0159052240001,-117.993505494,382,"14464 FRANKTON AVE, HACIENDA HEIGHTS, CA, 91745","Match","Exact","14464 FRANKTON AVE, HACIENDA HTS, CA, 91745",141652591,"R"
184883,"14464 LEEMAN STREET","BENNINGTON","NE",68007,NA,NA,383,"14464 LEEMAN STREET, BENNINGTON, NE, 68007","No_Match",NA,NA,NA,NA
184884,"14464 LONG CHANNEL CIR","GERMANTOWN","MD",20874,39.1884063190001,-77.2997869719999,384,"14464 LONG CHANNEL CIR, GERMANTOWN, MD, 20874","Match","Exact","14464 LONG CHANNEL CIR, GERMANTOWN, MD, 20874",637463207,"L"
184885,"14464 SW MISTLETOE DRIVE","PORTLAND","OR",97223,45.420030974,-122.825449258,385,"14464 SW MISTLETOE DRIVE, PORTLAND, OR, 97223","Match","Exact","14464 SW MISTLETOE DR, PORTLAND, OR, 97223",650759360,"L"
184886,"14464 SW MISTLETOE DRIVE","TIGARD","OR",97223,45.420030974,-122.825449258,386,"14464 SW MISTLETOE DRIVE, TIGARD, OR, 97223","Match","Exact","14464 SW MISTLETOE DR, TIGARD, OR, 97223",650759360,"L"
184887,"14465 RH JOHNSON BLVD","SUN CITY WEST","AZ",85375,33.67162603,-112.373879803,387,"14465 RH JOHNSON BLVD, SUN CITY WEST, AZ, 85375","Match","Non_Exact","14465 W R H JOHNSON BLVD, SUN CITY WEST, AZ, 85375",647597324,"R"
184888,"14465 TAFT HWY","BAKERSFIELD","CA",93311,35.2671520970001,-119.169920158,388,"14465 TAFT HWY, BAKERSFIELD, CA, 93311","Match","Exact","14465 TAFT HWY, BAKERSFIELD, CA, 93311",109151461,"R"
184889,"14465 WEBB CHAPEL RD STE 206","FARMERS BRANCH","TX",75234,32.94517281,-96.872627425,389,"14465 WEBB CHAPEL RD STE 206, FARMERS BRANCH, TX, 75234","Match","Exact","14465 WEBB CHAPEL RD, FARMERS BRANCH, TX, 75234",103272921,"L"
184890,"14466 GRANT ST","OMAHA","NE",68116,41.280042274,-96.1411824159999,390,"14466 GRANT ST, OMAHA, NE, 68116","Match","Exact","14466 GRANT ST, OMAHA, NE, 68116",116992150,"L"
184891,"14466 LACOTA POINT","EL PASO","TX",79938,31.789171314,-106.217511622,391,"14466 LACOTA POINT, EL PASO, TX, 79938","Match","Non_Exact","14466 LACOTA POINT DR, EL PASO, TX, 79938",640780992,"R"
184892,"14466 S LONG RIDGE DR","HERRIMAN","UT",84096,40.48832917,-112.053823932,392,"14466 S LONG RIDGE DR, HERRIMAN, UT, 84096","Match","Exact","14466 S LONG RIDGE DR, HERRIMAN, UT, 84096",604582173,"R"
184893,"14467 SW 158 COURT","MIAMI","FL",33196,25.6321170960001,-80.4497130139999,393,"14467 SW 158 COURT, MIAMI, FL, 33196","Match","Exact","14467 SW 158TH CT, MIAMI, FL, 33196",642614698,"R"
184894,"14468 PATRICK AVENUE","OMAHA","NE",68116,41.2782140200001,-96.140767108,394,"14468 PATRICK AVENUE, OMAHA, NE, 68116","Match","Exact","14468 PATRICK AVE, OMAHA, NE, 68116",116992144,"L"
184895,"14468 REUTER STRASSE CIR APT 508","TAMPA","FL",33613,28.0784250180001,-82.412448879,395,"14468 REUTER STRASSE CIR APT 508, TAMPA, FL, 33613","Match","Exact","14468 REUTER STRASSE CIR, TAMPA, FL, 33613",639493890,"L"
184896,"14468 S ELM ST","GLENPOOL","OK",74033,35.955897006,-96.0037129359999,396,"14468 S ELM ST, GLENPOOL, OK, 74033","Match","Exact","14468 S ELM ST, GLENPOOL, OK, 74033",166459693,"L"
184897,"14469 AUTUMN CHASE","GULFPORT","MS",39503,30.4758272940001,-89.0830529409999,397,"14469 AUTUMN CHASE, GULFPORT, MS, 39503","Match","Exact","14469 AUTUMN CHASE, GULFPORT, MS, 39503",628681174,"R"
184898,"14469 ST ANDREWS LN","ASHLAND","VA",23005,37.801593156,-77.5403847379999,398,"14469 ST ANDREWS LN, ASHLAND, VA, 23005","Match","Exact","14469 ST ANDREWS LN, ASHLAND, VA, 23005",84974039,"L"
184899,"14469 W US HWY 54","MACK'S CREEK","MO",65786,NA,NA,399,"14469 W US HWY 54, MACK'S CREEK, MO, 65786","No_Match",NA,NA,NA,NA
184900,"1447  14  ROAD","LOMA","CO",81524,39.2144341580001,-108.794250413,400,"1447  14  ROAD, LOMA, CO, 81524","Match","Exact","1447 14 RD, LOMA, CO, 81524",634619048,"L"
184901,"1447  17TH ST APT 8","SANTA MONICA","CA",90404,34.0257589980001,-118.482093601,401,"1447  17TH ST APT 8, SANTA MONICA, CA, 90404","Match","Exact","1447 17TH ST, SANTA MONICA, CA, 90404",647539517,"L"
184902,"1447 20TH AVE  APT A","SAN FRANCISCO","CA",94122,37.7607694610001,-122.47800683,402,"1447 20TH AVE  APT A, SAN FRANCISCO, CA, 94122","Match","Exact","1447 20TH AVE, SAN FRANCISCO, CA, 94122",192277663,"R"
184903,"1447 250TH STREET","LYTTON","IA",50561,42.4283084780001,-94.8343517759999,403,"1447 250TH STREET, LYTTON, IA, 50561","Match","Exact","1447 250TH ST, LYTTON, IA, 50561",77323822,"R"
184904,"1447 42ND STREET","WEST PALM BEACH","FL",33407,26.7494528560001,-80.0728294309999,404,"1447 42ND STREET, WEST PALM BEACH, FL, 33407","Match","Exact","1447 42ND ST, WEST PALM BEACH, FL, 33407",115277141,"R"
184905,"1447 44TH AVE","SAN FRANCISCO","CA",94122,37.759635835,-122.503726275,405,"1447 44TH AVE, SAN FRANCISCO, CA, 94122","Match","Exact","1447 44TH AVE, SAN FRANCISCO, CA, 94122",192276841,"R"
184906,"1447 ALA LELEU STREET","HONOLULU","HI",96818,21.3551081100001,-157.899796239,406,"1447 ALA LELEU STREET, HONOLULU, HI, 96818","Match","Exact","1447 ALA LELEU ST, HONOLULU, HI, 96818",203232014,"R"
184907,"1447 ANDOVER BOULEVARD","HOWELL","MI",48843,42.6222051570001,-83.759314273,407,"1447 ANDOVER BOULEVARD, HOWELL, MI, 48843","Match","Exact","1447 ANDOVER BLVD, HOWELL, MI, 48843",614119515,"L"
184908,"1447 ARBITUS CIRCLE","OVIEDO","FL",32765,28.6408807710001,-81.268284561,408,"1447 ARBITUS CIRCLE, OVIEDO, FL, 32765","Match","Exact","1447 ARBITUS CIR, OVIEDO, FL, 32765",635890647,"R"
184909,"1447 AVELLINO CIRCLE","MURFREESBORO","TN",37130,35.8800524970001,-86.361969496,409,"1447 AVELLINO CIRCLE, MURFREESBORO, TN, 37130","Match","Exact","1447 AVELLINO CIR, MURFREESBORO, TN, 37130",606767262,"L"
184910,"1447 AVENIDA DE CORTEZ","PACIFIC PALISADES","CA",90272,34.0737569730001,-118.56326369,410,"1447 AVENIDA DE CORTEZ, PACIFIC PALISADES, CA, 90272","Match","Exact","1447 AVE DE CORTEZ, PACIFIC PALISADES, CA, 90272",141557195,"L"
184911,"1447 BARCELONA WAY","WESTON","FL",33327,26.133537227,-80.403165122,411,"1447 BARCELONA WAY, WESTON, FL, 33327","Match","Exact","1447 BARCELONA WAY, WESTON, FL, 33327",114784143,"L"
184912,"1447 BICENTENNIAL PKY","ANN ARBOR","MI",48108,42.19906566,-83.743224778,412,"1447 BICENTENNIAL PKY, ANN ARBOR, MI, 48108","Match","Exact","1447 BICENTENNIAL PKWY, ANN ARBOR, MI, 48108",26042218,"R"
184913,"1447 BLAIR LOOP RD","DANVILLE","VA",24541,36.591868714,-79.448501591,413,"1447 BLAIR LOOP RD, DANVILLE, VA, 24541","Match","Exact","1447 BLAIR LOOP RD, DANVILLE, VA, 24541",56665706,"L"
184914,"1447 BLUE HILL AVE STE 9","MATTAPAN","MA",2126,42.2747566480001,-71.093667481,414,"1447 BLUE HILL AVE STE 9, MATTAPAN, MA, 2126","Match","Exact","1447 BLUE HILL AVE, MATTAPAN, MA, 02126",85705266,"R"
184915,"1447 BRASSIE AVE","FLOSSMOOR","IL",60422,41.536188775,-87.676384978,415,"1447 BRASSIE AVE, FLOSSMOOR, IL, 60422","Match","Exact","1447 BRASSIE AVE, FLOSSMOOR, IL, 60422",111709865,"L"
184916,"1447 CELESTE DR","DALLAS","TX",75217,32.737517676,-96.69907812,416,"1447 CELESTE DR, DALLAS, TX, 75217","Match","Exact","1447 CELESTE DR, DALLAS, TX, 75217",102957767,"L"
184917,"1447 CENTER AVENUE","SAINT MARIES","ID",83861,47.317190558,-116.574896973,417,"1447 CENTER AVENUE, SAINT MARIES, ID, 83861","Match","Exact","1447 CENTER AVE, SAINT MARIES, ID, 83861",192869413,"R"
184918,"1447 CHAPIN STREET NW","WASHINGTON","DC",20009,38.9215548010001,-77.0337020119999,418,"1447 CHAPIN STREET NW, WASHINGTON, DC, 20009","Match","Exact","1447 CHAPIN ST NW, WASHINGTON, DC, 20009",611113335,"R"
184919,"1447 CHATHAM AVE NE","NORTH CANTON","OH",44720,40.891430853,-81.4009802419999,419,"1447 CHATHAM AVE NE, NORTH CANTON, OH, 44720","Match","Exact","1447 CHATHAM AVE NE, NORTH CANTON, OH, 44720",64693466,"L"
184920,"1447 DIOKNO CT","PITTSBURG","CA",94565,38.006269327,-121.866114133,420,"1447 DIOKNO CT, PITTSBURG, CA, 94565","Match","Exact","1447 DIOKNO CT, PITTSBURG, CA, 94565",192031837,"R"
184921,"1447 DRAIN RD","WEIR","MS",39772,NA,NA,421,"1447 DRAIN RD, WEIR, MS, 39772","No_Match",NA,NA,NA,NA
184922,"1447 DZF RD","CLINTON","MO",64735,38.386327984,-93.750726524,422,"1447 DZF RD, CLINTON, MO, 64735","Match","Exact","1447 DZF RD, CLINTON, MO, 64735",44944070,"L"
184923,"1447 E MARKS COURT","SPRINGFIELD","MO",65803,37.270042147,-93.26807187,423,"1447 E MARKS COURT, SPRINGFIELD, MO, 65803","Match","Exact","1447 E MARKS CT, SPRINGFIELD, MO, 65803",76690893,"L"
184924,"1447 EAST MAPLE STREET","CUSHING","OK",74023,35.983045948,-96.748751579,424,"1447 EAST MAPLE STREET, CUSHING, OK, 74023","Match","Exact","1447 E MAPLE ST, CUSHING, OK, 74023",166363811,"L"
184925,"1447 EBENEZER RD","RINCON","GA",31326,32.351769699,-81.218624779,425,"1447 EBENEZER RD, RINCON, GA, 31326","Match","Exact","1447 EBENEZER RD, RINCON, GA, 31326",6278469,"L"
184926,"1447 EMPRESS LANE","BRENTWOOD","CA",94513,37.951696106,-121.721140986,426,"1447 EMPRESS LANE, BRENTWOOD, CA, 94513","Match","Exact","1447 EMPRESS LN, BRENTWOOD, CA, 94513",192108321,"R"
184927,"1447 FOX LANE","HINSDALE","IL",60521,41.8252898480001,-87.919591845,427,"1447 FOX LANE, HINSDALE, IL, 60521","Match","Exact","1447 FOX LN, HINSDALE, IL, 60521",112716590,"L"
184928,"1447 FRIENDLY PATH","NEW BRAUNFELS","TX",78132,29.7014151160001,-98.203894364,428,"1447 FRIENDLY PATH, NEW BRAUNFELS, TX, 78132","Match","Exact","1447 FRIENDLY PATH, NEW BRAUNFELS, TX, 78132",72254819,"R"
184929,"1447 FRONT NINE WAY","FARMINGTON","UT",84025,41.0043635330001,-111.911441896,429,"1447 FRONT NINE WAY, FARMINGTON, UT, 84025","Match","Exact","1447 FRONT NINE WAY, FARMINGTON, UT, 84025",155362487,"L"
184930,"1447 GREENBROOK DRIVE","ROCKWALL","TX",75032,32.9003267090001,-96.439874303,430,"1447 GREENBROOK DRIVE, ROCKWALL, TX, 75032","Match","Exact","1447 GREENBROOK DR, ROCKWALL, TX, 75032",213566223,"R"
184931,"1447 HI POINT STREET","LOS ANGELES","CA",90035,34.050552533,-118.368996423,431,"1447 HI POINT STREET, LOS ANGELES, CA, 90035","Match","Exact","1447 HI POINT ST, LOS ANGELES, CA, 90035",648169096,"R"
184932,"1447 HIDDEN VALLEY DR APT 2","KENTWOOD","MI",49508,NA,NA,432,"1447 HIDDEN VALLEY DR APT 2, KENTWOOD, MI, 49508","No_Match",NA,NA,NA,NA
184933,"1447 HIGHWAY 69","OSCEOLA","IA",50213,41.103515858,-93.7153112399999,433,"1447 HIGHWAY 69, OSCEOLA, IA, 50213","Match","Non_Exact","1447 US HWY 69, OSCEOLA, IA, 50213",635891757,"R"
184934,"1447 HOLLY STREET","WEST LINN","OR",97068,45.3653745460001,-122.607786236,434,"1447 HOLLY STREET, WEST LINN, OR, 97068","Match","Exact","1447 HOLLY ST, WEST LINN, OR, 97068",157916612,"R"
184935,"1447 IRONGATE CT","PLEASANTON","CA",94588,37.680152256,-121.862907716,435,"1447 IRONGATE CT, PLEASANTON, CA, 94588","Match","Exact","1447 IRONGATE CT, PLEASANTON, CA, 94588",606300248,"R"
184936,"1447 JASMINE COURT","LAREDO","TN",78041,NA,NA,436,"1447 JASMINE COURT, LAREDO, TN, 78041","No_Match",NA,NA,NA,NA
184937,"1447 JEFF ST SUITE 1","YPSILANTI","MI",48198,42.225904337,-83.568276851,437,"1447 JEFF ST SUITE 1, YPSILANTI, MI, 48198","Match","Exact","1447 JEFF ST, YPSILANTI, MI, 48198",26027657,"L"
184938,"1447 KANE STREET","LA CROSSE","WI",54603,43.843857513,-91.2411036679999,438,"1447 KANE STREET, LA CROSSE, WI, 54603","Match","Exact","1447 KANE ST, LA CROSSE, WI, 54603",51010099,"L"
184939,"1447 LANCELOT STREET","STREETSBORO","OH",44241,41.2630569620001,-81.341651354,439,"1447 LANCELOT STREET, STREETSBORO, OH, 44241","Match","Exact","1447 LANCELOT ST, STREETSBORO, OH, 44241",137522051,"R"
184940,"1447 LAYTON RD","SCOTT TWNSHP","PA",18411,41.4977716490001,-75.645531224,440,"1447 LAYTON RD, SCOTT TWNSHP, PA, 18411","Match","Non_Exact","1447 LAYTON RD, SCOTT TOWNSHIP, PA, 18411",139351277,"L"
184941,"1447 LIHOLIHO ST 6D","HONOLULU","HI",96822,21.30402545,-157.840565742,441,"1447 LIHOLIHO ST 6D, HONOLULU, HI, 96822","Match","Exact","1447 LIHOLIHO ST, HONOLULU, HI, 96822",649806650,"R"
184942,"1447 LITTLE ROCK RD","CHARLOTTE","NC",28214,35.2588219960001,-80.93973855,442,"1447 LITTLE ROCK RD, CHARLOTTE, NC, 28214","Match","Exact","1447 LITTLE ROCK RD, CHARLOTTE, NC, 28214",70474912,"L"
184943,"1447 LITTLE ROCK ROAD","CHARLOTTE","NC",28214,35.2588219960001,-80.93973855,443,"1447 LITTLE ROCK ROAD, CHARLOTTE, NC, 28214","Match","Exact","1447 LITTLE ROCK RD, CHARLOTTE, NC, 28214",70474912,"L"
184944,"1447 LOMITA BLVD UNIT 4","HARBOR CITY","CA",90710,33.797816332,-118.302942081,444,"1447 LOMITA BLVD UNIT 4, HARBOR CITY, CA, 90710","Match","Exact","1447 LOMITA BLVD, HARBOR CITY, CA, 90710",141669253,"R"
184945,"1447 MANSFIELD","TRACY","CA",95376,37.713361148,-121.442718429,445,"1447 MANSFIELD, TRACY, CA, 95376","Match","Non_Exact","1447 MANSFIELD ST, TRACY, CA, 95376",133879599,"L"
184946,"1447 MCGAVOCK PIKE","NASHVILLE","TN",37216,36.2067424310001,-86.7198626379999,446,"1447 MCGAVOCK PIKE, NASHVILLE, TN, 37216","Match","Exact","1447 MCGAVOCK PIKE, NASHVILLE, TN, 37216",97203472,"L"
184947,"1447 MEADOWCREEK COURT","PEWAUKEE","WI",53072,43.080343987,-88.2294358089999,447,"1447 MEADOWCREEK COURT, PEWAUKEE, WI, 53072","Match","Exact","1447 MEADOWCREEK CT, PEWAUKEE, WI, 53072",53843287,"L"
184948,"1447 MELINDA LANE","ELSMERE","KY",41018,39.000906652,-84.5960211299999,448,"1447 MELINDA LANE, ELSMERE, KY, 41018","Match","Exact","1447 MELINDA LN, ELSMERE, KY, 41018",103885690,"R"
184949,"1447 N NORTH PARK AVE","CHICAGO","IL",60610,41.9085789320001,-87.6365779,449,"1447 N NORTH PARK AVE, CHICAGO, IL, 60610","Match","Exact","1447 N NORTH PARK AVE, CHICAGO, IL, 60610",605266952,"R"
184950,"1447 NEVIN DR","KNOXVILLE","IA",50138,41.301227312,-93.069572036,450,"1447 NEVIN DR, KNOXVILLE, IA, 50138","Match","Exact","1447 NEVIN DR, KNOXVILLE, IA, 50138",641421598,"L"
184951,"1447 NICHOLASVILLE RD","LEXINGTON","KY",40503,38.025253478,-84.5117570639999,451,"1447 NICHOLASVILLE RD, LEXINGTON, KY, 40503","Match","Exact","1447 NICHOLASVILLE RD, LEXINGTON, KY, 40503",639367044,"R"
184952,"1447 OZARK RIDGE","CORALVILLE","IA",52241,41.6954055840001,-91.588836669,452,"1447 OZARK RIDGE, CORALVILLE, IA, 52241","Match","Exact","1447 OZARK RIDGE, CORALVILLE, IA, 52241",84519609,"R"
184953,"1447 PEACHTREE STREET SUITE 470","ATLANTA","GA",30309,33.793600671,-84.386969199,453,"1447 PEACHTREE STREET SUITE 470, ATLANTA, GA, 30309","Match","Exact","1447 PEACHTREE ST, ATLANTA, GA, 30309",17408516,"R"
184954,"1447 PIN OAK DR","BELLVILLE","TX",77418,29.928100595,-96.247577144,454,"1447 PIN OAK DR, BELLVILLE, TX, 77418","Match","Exact","1447 PIN OAK DR, BELLVILLE, TX, 77418",41811741,"R"
184955,"1447 REDDING ROAD","WEST SACRAMENTO","CA",95691,38.551524214,-121.521720657,455,"1447 REDDING ROAD, WEST SACRAMENTO, CA, 95691","Match","Exact","1447 REDDING RD, WEST SACRAMENTO, CA, 95691",67706768,"R"
184956,"1447 ROYAL LAKE CIRCLE","INDIANAPOLIS","IN",46228,39.864192915,-86.1862107169999,456,"1447 ROYAL LAKE CIRCLE, INDIANAPOLIS, IN, 46228","Match","Exact","1447 ROYAL LAKE CIR, INDIANAPOLIS, IN, 46228",108045976,"R"
184957,"1447 RUGBY AVENUE","CHARLOTTESVILLE","VA",22903,38.0449752760001,-78.480126199,457,"1447 RUGBY AVENUE, CHARLOTTESVILLE, VA, 22903","Match","Exact","1447 RUGBY AVE, CHARLOTTESVILLE, VA, 22903",83407304,"L"
184958,"1447 S 56TH ST","WEST ALLIS","WI",53214,43.015997719,-87.982639392,458,"1447 S 56TH ST, WEST ALLIS, WI, 53214","Match","Exact","1447 S 56TH ST, WEST ALLIS, WI, 53214",77734437,"R"
184959,"1447 S CLAYTON ST","SALT LAKE CITY","UT",84104,40.737761386,-111.927696628,459,"1447 S CLAYTON ST, SALT LAKE CITY, UT, 84104","Match","Exact","1447 CLAYTON ST, SALT LAKE CITY, UT, 84104",176071603,"L"
184960,"1447 S GOVERNORS AVE","DOVER","DE",19904,39.1314345800001,-75.530351088,460,"1447 S GOVERNORS AVE, DOVER, DE, 19904","Match","Exact","1447 S GOVERNORS AVE, DOVER, DE, 19904",68108917,"R"
184961,"1447 S SUMMIT AVE","VILLA PARK","IL",60181,NA,NA,461,"1447 S SUMMIT AVE, VILLA PARK, IL, 60181","Tie",NA,NA,NA,NA
184962,"1447 SAWYER HOLLOW RD","WEST FULTON","NY",12194,NA,NA,462,"1447 SAWYER HOLLOW RD, WEST FULTON, NY, 12194","No_Match",NA,NA,NA,NA
184963,"1447 SLEEPY HOLLOW DR","JACKSON","MS",39212,32.2473301540001,-90.271540358,463,"1447 SLEEPY HOLLOW DR, JACKSON, MS, 39212","Match","Exact","1447 SLEEPY HOLLOW DR, JACKSON, MS, 39212",65368069,"R"
184964,"1447 SOUTH AVE","YOUNGSTOWN","OH",44502,41.08412866,-80.646292417,464,"1447 SOUTH AVE, YOUNGSTOWN, OH, 44502","Match","Exact","1447 SOUTH AVE, YOUNGSTOWN, OH, 44502",64596233,"L"
184965,"1447 SOUTH JONES BLVD UNIT E105","TUSCON","AZ",85713,32.2044632160001,-110.920225177,465,"1447 SOUTH JONES BLVD UNIT E105, TUSCON, AZ, 85713","Match","Non_Exact","1447 S JONES BLVD, TUCSON, AZ, 85713",121176493,"L"
184966,"1447 SOUTHERN AVENUE APT201","OXON HILL","MD",20745,38.835952294,-76.982394781,466,"1447 SOUTHERN AVENUE APT201, OXON HILL, MD, 20745","Match","Exact","1447 SOUTHERN AVE, OXON HILL, MD, 20745",641485205,"R"
184967,"1447 STATE ROUTE 924","FULTON","KY",42041,NA,NA,467,"1447 STATE ROUTE 924, FULTON, KY, 42041","No_Match",NA,NA,NA,NA
184968,"1447 STRADA D ORO","VENICE","FL",34292,27.1223271800001,-82.412327676,468,"1447 STRADA D ORO, VENICE, FL, 34292","Match","Exact","1447 STRADA D ORO, VENICE, FL, 34292",16361484,"R"
184969,"1447 SUNSET","ANN ARBOR","MI",48103,42.2974587640001,-83.7651255769999,469,"1447 SUNSET, ANN ARBOR, MI, 48103","Match","Non_Exact","1447 SUNSET RD, ANN ARBOR, MI, 48103",26011723,"L"
184970,"1447 SW 45TH WAY","DEERFIELD BEACH","FL",33442,26.297031917,-80.1662414209999,470,"1447 SW 45TH WAY, DEERFIELD BEACH, FL, 33442","Match","Exact","1447 SW 45TH WAY, DEERFIELD BEACH, FL, 33442",114778674,"L"
184971,"1447 TREMONT AVENUE","MORGANTOWN","WV",26505,NA,NA,471,"1447 TREMONT AVENUE, MORGANTOWN, WV, 26505","No_Match",NA,NA,NA,NA
184972,"1447 US HIGHWAY 19 APT 7-D","LEESBURG","GA",31763,31.638077444,-84.175822594,472,"1447 US HIGHWAY 19 APT 7-D, LEESBURG, GA, 31763","Match","Non_Exact","1447 US HWY 19, LEESBURG, GA, 31763",615688633,"R"
184973,"1447 VALLEY COURT","YUBA CITY","CA",95993,39.165414492,-121.640607616,473,"1447 VALLEY COURT, YUBA CITY, CA, 95993","Match","Exact","1447 VALLEY CT, YUBA CITY, CA, 95993",606976694,"R"
184974,"1447 VAN DYKE AVE","SAN FRANCISCO","CA",94124,37.7275420440001,-122.389565284,474,"1447 VAN DYKE AVE, SAN FRANCISCO, CA, 94124","Match","Exact","1447 VAN DYKE AVE, SAN FRANCISCO, CA, 94124",192290997,"L"
184975,"1447 VANKIRK ST","PHILADELPHIA","PA",19149,40.0313927720001,-75.080049747,475,"1447 VANKIRK ST, PHILADELPHIA, PA, 19149","Match","Non_Exact","1447 VAN KIRK ST, PHILADELPHIA, PA, 19149",131428135,"L"
184976,"1447 W 15TH AVE","APACHE JUNCTION","AZ",85120,33.4018436120001,-111.56077908,476,"1447 W 15TH AVE, APACHE JUNCTION, AZ, 85120","Match","Exact","1447 W 15TH AVE, APACHE JUNCTION, AZ, 85120",129312563,"L"
184977,"1447 W 600 N","PLEASANT GROVE","UT",84062,40.3705496760001,-111.760931294,477,"1447 W 600 N, PLEASANT GROVE, UT, 84062","Match","Exact","1447 W 600 N, PLEASANT GROVE, UT, 84062",134245928,"R"
184978,"1447 W STILLWATER DRIVE","HEBER CITY","UT",84032,40.628922806,-111.437761728,478,"1447 W STILLWATER DRIVE, HEBER CITY, UT, 84032","Match","Exact","1447 W STILLWATER DR, HEBER CITY, UT, 84032",611495262,"L"
184979,"1447 W VALLEY DR","WILLIAMS","AZ",86046,NA,NA,479,"1447 W VALLEY DR, WILLIAMS, AZ, 86046","No_Match",NA,NA,NA,NA
184980,"1447 W WARNER AVE GW","CHICAGO","IL",60613,41.9570753090001,-87.665533855,480,"1447 W WARNER AVE GW, CHICAGO, IL, 60613","Match","Non_Exact","1447 W WARNER AVE, CHICAGO, IL, 60613",605175224,"L"
184981,"1447 WAYNE AV","GLENDALE HEIGHTS","IL",60139,41.9140422080001,-88.0544946049999,481,"1447 WAYNE AV, GLENDALE HEIGHTS, IL, 60139","Match","Exact","1447 WAYNE AVE, GLENDALE HEIGHTS, IL, 60139",112522905,"R"
184982,"1447 WELSON RD","ORLANDO","FL",32837,28.388094944,-81.396141503,482,"1447 WELSON RD, ORLANDO, FL, 32837","Match","Exact","1447 WELSON RD, ORLANDO, FL, 32837",94324587,"L"
184983,"1447 WEST JARVIS","CHICAGO","IL",60626,42.0160596370001,-87.66745387,483,"1447 WEST JARVIS, CHICAGO, IL, 60626","Match","Non_Exact","1447 W JARVIS AVE, CHICAGO, IL, 60626",605265099,"L"
184984,"14470 156TH AVE NE","WOODINVILLE","WA",98072,47.7339010960001,-122.131045384,484,"14470 156TH AVE NE, WOODINVILLE, WA, 98072","Match","Exact","14470 156TH AVE NE, WOODINVILLE, WA, 98072",186926049,"R"
184985,"14470 BALDWIN LANE","CARMEL","IN",46032,39.9958936580001,-86.182747803,485,"14470 BALDWIN LANE, CARMEL, IN, 46032","Match","Exact","14470 BALDWIN LN, CARMEL, IN, 46032",29343616,"R"
184986,"14470 E 3TH AVE LOT F37","AURORA","CO",80011,NA,NA,486,"14470 E 3TH AVE LOT F37, AURORA, CO, 80011","No_Match",NA,NA,NA,NA
184987,"14470 FM 1602","HICO","CA",76457,NA,NA,487,"14470 FM 1602, HICO, CA, 76457","No_Match",NA,NA,NA,NA
184988,"14470 FM 1602","HICO","TX",76457,31.786300168,-97.9766508609999,488,"14470 FM 1602, HICO, TX, 76457","Match","Exact","14470 FM 1602, HICO, TX, 76457",158764298,"R"
184989,"14470 HERRON STREET","SYLMAR","CA",91342,34.2958510330001,-118.448300274,489,"14470 HERRON STREET, SYLMAR, CA, 91342","Match","Exact","14470 HERRON ST, SYLMAR, CA, 91342",141547478,"L"
184990,"14470 LELAND ROAD","OREGON CITY","OR",97045,45.291631296,-122.569569479,490,"14470 LELAND ROAD, OREGON CITY, OR, 97045","Match","Non_Exact","14470 S LELAND RD, OREGON CITY, OR, 97045",157921834,"L"
184991,"14470 SW 297 AVENUE","HOMESTEAD","FL",33033,NA,NA,491,"14470 SW 297 AVENUE, HOMESTEAD, FL, 33033","Tie",NA,NA,NA,NA
184992,"14470 VILLAGE ROAD APT 76A","JAMAICA","NY",11435,NA,NA,492,"14470 VILLAGE ROAD APT 76A, JAMAICA, NY, 11435","No_Match",NA,NA,NA,NA
184993,"14471 MOUNTAIN RD","GLEN ALLEN","VA",23059,37.74342869,-77.5907720819999,493,"14471 MOUNTAIN RD, GLEN ALLEN, VA, 23059","Match","Exact","14471 MOUNTAIN RD, GLEN ALLEN, VA, 23059",84986188,"R"
184994,"14471 S GARY CT","BIXBY","OK",74008,35.954380664,-95.940906592,494,"14471 S GARY CT, BIXBY, OK, 74008","Match","Exact","14471 GARY CT, BIXBY, OK, 74008",624933181,"R"
184995,"14471 S ROCK CREEK RD","HAINES","OR",97833,44.905065929,-118.009931149,495,"14471 S ROCK CREEK RD, HAINES, OR, 97833","Match","Non_Exact","14471 S ROCK CR LN, HAINES, OR, 97833",137629154,"R"
184996,"14471 WEST LAKE ROAD","HAMMONDSPORT","NY",14840,42.523301401,-77.1540048209999,496,"14471 WEST LAKE ROAD, HAMMONDSPORT, NY, 14840","Match","Exact","14471 W LAKE RD, HAMMONDSPORT, NY, 14840",640448871,"L"
184997,"14472 CHESTNUT","WESTMINSTER","CA",92683,33.7524284840001,-118.002711141,497,"14472 CHESTNUT, WESTMINSTER, CA, 92683","Match","Non_Exact","14472 CHESTNUT ST, WESTMINSTER, CA, 92683",144004716,"L"
184998,"14472 LINCOLN AVE","DOLTON","IL",60419,41.6318010950001,-87.5970661109999,498,"14472 LINCOLN AVE, DOLTON, IL, 60419","Match","Exact","14472 LINCOLN AVE, DOLTON, IL, 60419",111779186,"R"
184999,"14472 WEST ARCHER AVENUE","GOLDEN","CO",80401,39.716154857,-105.161711758,499,"14472 WEST ARCHER AVENUE, GOLDEN, CO, 80401","Match","Exact","14472 W ARCHER AVE, GOLDEN, CO, 80401",177316525,"L"
185000,"14473 150TH STREET","ROCKWELL","IA",50469,42.9801607110001,-93.232795008,500,"14473 150TH STREET, ROCKWELL, IA, 50469","Match","Exact","14473 150TH ST, ROCKWELL, IA, 50469",636210422,"R"
