"ID","Address","City","State","Zip","lat","long","id","input_address","match_indicator","match_type","matched_address","tiger_line_id","tiger_side"
666001,"484 BLACKJACK ROAD","TUPELO","MS",38801,34.269922745,-88.84884066,1,"484 BLACKJACK ROAD, TUPELO, MS, 38801","Match","Exact","484 BLACKJACK RD, TUPELO, MS, 38801",610240418,"R"
666002,"484 BLODGETT COURT","NAPERVILLE","IL",60565,41.7174600170001,-88.151823786,2,"484 BLODGETT COURT, NAPERVILLE, IL, 60565","Match","Exact","484 BLODGETT CT, NAPERVILLE, IL, 60565",111563794,"R"
666003,"484 BRINKLEY ROAD","DUNN","NC",28334,35.3554316760001,-78.605193027,3,"484 BRINKLEY ROAD, DUNN, NC, 28334","Match","Exact","484 BRINKLEY RD, DUNN, NC, 28334",71989312,"R"
666004,"484 BROWNS LANE","PITTSBURGH","PA",15237,40.549468904,-80.022779551,4,"484 BROWNS LANE, PITTSBURGH, PA, 15237","Match","Exact","484 BROWNS LN, PITTSBURGH, PA, 15237",51623997,"R"
666005,"484 CAREDEAN DRIVE","COLLEGEVILLE","PA",19426,40.2052542660001,-75.437258263,5,"484 CAREDEAN DRIVE, COLLEGEVILLE, PA, 19426","Match","Exact","484 CAREDEAN DR, COLLEGEVILLE, PA, 19426",135068030,"L"
666006,"484 CASTLEWOOD LANE","DEERFIELD","IL",60015,42.161666675,-87.871540876,6,"484 CASTLEWOOD LANE, DEERFIELD, IL, 60015","Match","Exact","484 CASTLEWOOD LN, DEERFIELD, IL, 60015",119650447,"L"
666007,"484 CHARLESTON PARK","CONROE","TX",77302,30.2579270730001,-95.4471983619999,7,"484 CHARLESTON PARK, CONROE, TX, 77302","Match","Exact","484 CHARLESTON PARK, CONROE, TX, 77302",79293944,"R"
666008,"484 CHATHAM","OFALLON","MO",63366,38.8410875270001,-90.697492637,8,"484 CHATHAM, OFALLON, MO, 63366","Match","Non_Exact","484 CHATHAM DR, O FALLON, MO, 63366",633463890,"R"
666009,"484 CHEROKEE TRAIL","KELLER","TX",76248,32.9304732780001,-97.2443389489999,9,"484 CHEROKEE TRAIL, KELLER, TX, 76248","Match","Exact","484 CHEROKEE TRL, KELLER, TX, 76248",101859961,"L"
666010,"484 COBBLESTONE RD","AVON","IN",46123,39.7552323790001,-86.43504122,10,"484 COBBLESTONE RD, AVON, IN, 46123","Match","Exact","484 COBBLESTONE RD, AVON, IN, 46123",89197897,"L"
666011,"484 COLUMBIA STREET APT 3B","BROOKLYN","NY",11231,40.6751840970001,-74.007449037,11,"484 COLUMBIA STREET APT 3B, BROOKLYN, NY, 11231","Match","Exact","484 COLUMBIA ST, BROOKLYN, NY, 11231",59093825,"R"
666012,"484 CRESCENT AVENUE","OAKLAND","CA",94610,37.8145015710001,-122.249201309,12,"484 CRESCENT AVENUE, OAKLAND, CA, 94610","Match","Non_Exact","484 CRESCENT ST, OAKLAND, CA, 94610",125000747,"L"
666013,"484 DOVER RD","BARNEVELD","NY",13304,43.2803722300001,-75.138840344,13,"484 DOVER RD, BARNEVELD, NY, 13304","Match","Exact","484 DOVER RD, BARNEVELD, NY, 13304",153740977,"R"
666014,"484 DREXEL AVENUE","COLLUMBUS","OH",43209,NA,NA,14,"484 DREXEL AVENUE, COLLUMBUS, OH, 43209","Tie",NA,NA,NA,NA
666015,"484 E 24TH STREET","BROOKLYN","NY",11210,40.63702605,-73.954643365,15,"484 E 24TH STREET, BROOKLYN, NY, 11210","Match","Exact","484 E 24TH ST, BROOKLYN, NY, 11210",59081615,"R"
666016,"484 E BEAR SPRINGS RD PMB 63080","PIPE CREEK","TX",78063,29.7268724960001,-98.928877603,16,"484 E BEAR SPRINGS RD PMB 63080, PIPE CREEK, TX, 78063","Match","Exact","484 BEAR SPRINGS RD, PIPE CREEK, TX, 78063",647801354,"R"
666017,"484 E CARMEL DR 379","CARMEL","IN",46032,NA,NA,17,"484 E CARMEL DR 379, CARMEL, IN, 46032","Tie",NA,NA,NA,NA
666018,"484 E DISON AVENUE","MEMPHIS","TN",38106,35.1007954240001,-90.046373132,18,"484 E DISON AVENUE, MEMPHIS, TN, 38106","Match","Exact","484 E DISON AVE, MEMPHIS, TN, 38106",607443429,"L"
666019,"484 E FOOTHILL BLVD STE 5","UPLAND","CA",91786,NA,NA,19,"484 E FOOTHILL BLVD STE 5, UPLAND, CA, 91786","Tie",NA,NA,NA,NA
666020,"484 EAST 134TH STREET","BRONX","NY",10454,40.805566329,-73.9223781539999,20,"484 EAST 134TH STREET, BRONX, NY, 10454","Match","Exact","484 E 134TH ST, BRONX, NY, 10454",80314352,"R"
666021,"484 EAST 200 NORTH","OREM","UT",84097,40.3008006100001,-111.683934493,21,"484 EAST 200 NORTH, OREM, UT, 84097","Match","Exact","484 E 200 N, OREM, UT, 84097",134205541,"R"
666022,"484 EAST CARMEL DRIVE STE 376","CARMEL","IN",46032,39.962031548,-86.1183628429999,22,"484 EAST CARMEL DRIVE STE 376, CARMEL, IN, 46032","Match","Exact","484 E CARMEL DR, CARMEL, IN, 46032",639693891,"L"
666023,"484 EAST COUNTY ROAD 600","NEOGA","IL",61938,NA,NA,23,"484 EAST COUNTY ROAD 600, NEOGA, IL, 61938","No_Match",NA,NA,NA,NA
666024,"484 FENDER MOUNTAIN ROAD","SPARTA","NC",28675,36.484961485,-81.174033698,24,"484 FENDER MOUNTAIN ROAD, SPARTA, NC, 28675","Match","Exact","484 FENDER MTN RD, SPARTA, NC, 28675",650552829,"R"
666025,"484 FIELD HILL RD","CLAYVILLE","RI",2815,41.7740544100001,-71.672556981,25,"484 FIELD HILL RD, CLAYVILLE, RI, 2815","Match","Exact","484 FIELD HILL RD, CLAYVILLE, RI, 02815",47445369,"L"
666026,"484 GLASGOW DRIVE","PACIFICA","CA",94044,37.64911908,-122.474837845,26,"484 GLASGOW DRIVE, PACIFICA, CA, 94044","Match","Exact","484 GLASGOW DR, PACIFICA, CA, 94044",192369408,"R"
666027,"484 GLEASONDALE RD","STOW","MA",1775,42.405730491,-71.525958682,27,"484 GLEASONDALE RD, STOW, MA, 1775","Match","Exact","484 GLEASONDALE RD, STOW, MA, 01775",87153428,"L"
666028,"484 GROVE ST","TAHOE CITY","CA",96145,39.1744454920001,-120.142747823,28,"484 GROVE ST, TAHOE CITY, CA, 96145","Match","Exact","484 GROVE ST, TAHOE CITY, CA, 96145",106752186,"R"
666029,"484 GRUNDEL DRIVE","SEBASTOPOL","CA",95472,38.3931711540001,-122.837618832,29,"484 GRUNDEL DRIVE, SEBASTOPOL, CA, 95472","Match","Exact","484 GRUNDEL DR, SEBASTOPOL, CA, 95472",67465499,"R"
666030,"484 HAWTHORNE DRIVE","LEWISBURG","PA",17837,40.9367885890001,-76.8829677539999,30,"484 HAWTHORNE DRIVE, LEWISBURG, PA, 17837","Match","Exact","484 HAWTHORNE DR, LEWISBURG, PA, 17837",48194284,"L"
666031,"484 HIGHTIDE DRIVE","ST AUGUSTINE","FL",32080,29.848867334,-81.2822181779999,31,"484 HIGHTIDE DRIVE, ST AUGUSTINE, FL, 32080","Match","Non_Exact","484 HIGH TIDE DR, SAINT AUGUSTINE, FL, 32080",639477038,"R"
666032,"484 HONEYSUCKLE AVE","ALTUS","OK",73521,34.6638233630001,-99.296332197,32,"484 HONEYSUCKLE AVE, ALTUS, OK, 73521","Match","Exact","484 HONEYSUCKLE AVE, ALTUS, OK, 73521",171806583,"R"
666033,"484 HOPKINS MILL ROAD","QUARRYVILLE","PA",17566,39.8688698070001,-76.209214483,33,"484 HOPKINS MILL ROAD, QUARRYVILLE, PA, 17566","Match","Exact","484 HOPKINS MILL RD, QUARRYVILLE, PA, 17566",179707406,"L"
666034,"484 IRON CITY RD","IRON CITY","TN",38463,35.023641578,-87.583073127,34,"484 IRON CITY RD, IRON CITY, TN, 38463","Match","Exact","484 IRON CITY RD, IRON CITY, TN, 38463",26835363,"R"
666035,"484 KING ARNOLD","HAPEVILLE","GA",30354,33.657882278,-84.404425929,35,"484 KING ARNOLD, HAPEVILLE, GA, 30354","Match","Non_Exact","484 KING ARNOLD ST, HAPEVILLE, GA, 30354",653846085,"L"
666036,"484 KING GEORGE AVE","SAN JOSE","CA",95136,37.282231982,-121.857182877,36,"484 KING GEORGE AVE, SAN JOSE, CA, 95136","Match","Exact","484 KING GEORGE AVE, SAN JOSE, CA, 95136",123017794,"L"
666037,"484 KING GEROGE AVE","SAN JOSE","CA",95136,37.282231982,-121.857182877,37,"484 KING GEROGE AVE, SAN JOSE, CA, 95136","Match","Non_Exact","484 KING GEORGE AVE, SAN JOSE, CA, 95136",123017794,"L"
666038,"484 KINGSGATE RIDGE","STONE MOUNTAIN","GA",30088,33.779512939,-84.174088811,38,"484 KINGSGATE RIDGE, STONE MOUNTAIN, GA, 30088","Match","Exact","484 KINGSGATE RIDGE, STONE MOUNTAIN, GA, 30088",23389371,"L"
666039,"484 LAKE AVE","ST. LOUIS","MO",63108,38.649719121,-90.270079449,39,"484 LAKE AVE, ST. LOUIS, MO, 63108","Match","Exact","484 LAKE AVE, SAINT LOUIS, MO, 63108",618275665,"R"
666040,"484 LAKE PARK AVE 213","OAKLAND","CA",94610,37.810550758,-122.247268063,40,"484 LAKE PARK AVE 213, OAKLAND, CA, 94610","Match","Exact","484 LAKE PARK AVE, OAKLAND, CA, 94610",125000771,"L"
666041,"484 LAKE PARK AVE 31A","OAKLAND","CA",94610,37.810550758,-122.247268063,41,"484 LAKE PARK AVE 31A, OAKLAND, CA, 94610","Match","Exact","484 LAKE PARK AVE, OAKLAND, CA, 94610",125000771,"L"
666042,"484 LAKE PARK AVE 393","OAKLAND","CA",94610,37.810550758,-122.247268063,42,"484 LAKE PARK AVE 393, OAKLAND, CA, 94610","Match","Exact","484 LAKE PARK AVE, OAKLAND, CA, 94610",125000771,"L"
666043,"484 LAKE PARK AVE SUITE 635","OAKLAND","CA",94610,37.810550758,-122.247268063,43,"484 LAKE PARK AVE SUITE 635, OAKLAND, CA, 94610","Match","Exact","484 LAKE PARK AVE, OAKLAND, CA, 94610",125000771,"L"
666044,"484 LAKE PARK AVE SUITE 635","WILLIAMS","CA",94610,37.810550758,-122.247268063,44,"484 LAKE PARK AVE SUITE 635, WILLIAMS, CA, 94610","Match","Non_Exact","484 LAKE PARK AVE, OAKLAND, CA, 94610",125000771,"L"
666045,"484 LAKE PARK AVENUE - 320","OAKLAND","CA",94610,37.810550758,-122.247268063,45,"484 LAKE PARK AVENUE - 320, OAKLAND, CA, 94610","Match","Exact","484 LAKE PARK AVE, OAKLAND, CA, 94610",125000771,"L"
666046,"484 LAKE PARK AVENUE SUITE 132","OAKLAND","CA",94610,37.810550758,-122.247268063,46,"484 LAKE PARK AVENUE SUITE 132, OAKLAND, CA, 94610","Match","Exact","484 LAKE PARK AVE, OAKLAND, CA, 94610",125000771,"L"
666047,"484 LAKE PARK AVENUE SUITE 635","OAKLAND","CA",94610,37.810550758,-122.247268063,47,"484 LAKE PARK AVENUE SUITE 635, OAKLAND, CA, 94610","Match","Exact","484 LAKE PARK AVE, OAKLAND, CA, 94610",125000771,"L"
666048,"484 LAKEPARK AVE PMB 3","OAKLAND","CA",94610,37.810550758,-122.247268063,48,"484 LAKEPARK AVE PMB 3, OAKLAND, CA, 94610","Match","Non_Exact","484 LAKE PARK AVE, OAKLAND, CA, 94610",125000771,"L"
666049,"484 LAKEPARK AVE PMB3","OAKLAND","CA",94610,37.810550758,-122.247268063,49,"484 LAKEPARK AVE PMB3, OAKLAND, CA, 94610","Match","Non_Exact","484 LAKE PARK AVE, OAKLAND, CA, 94610",125000771,"L"
666050,"484 LAKEWATER ESTATES DR","STONE MOUNTAIN","GA",30087,33.7845149560001,-84.137109874,50,"484 LAKEWATER ESTATES DR, STONE MOUNTAIN, GA, 30087","Match","Exact","484 LAKEWATER ESTATES DR, STONE MOUNTAIN, GA, 30087",627355514,"L"
666051,"484 LANCER DR","COLUMBIA","PA",17512,40.0478230150001,-76.448644798,51,"484 LANCER DR, COLUMBIA, PA, 17512","Match","Exact","484 LANCER DR, COLUMBIA, PA, 17512",179691737,"R"
666052,"484 LAWN VIEW DR","CHULA VISTA","CA",91910,32.6418950620001,-117.043310719,52,"484 LAWN VIEW DR, CHULA VISTA, CA, 91910","Match","Exact","484 LAWN VIEW DR, CHULA VISTA, CA, 91910",195356859,"L"
666053,"484 LIBERTY STREET","PAINESVILLE","OH",44077,41.7154720570001,-81.241039282,53,"484 LIBERTY STREET, PAINESVILLE, OH, 44077","Match","Exact","484 LIBERTY ST, PAINESVILLE, OH, 44077",137466152,"R"
666054,"484 LINWOOD DRIVE","ALLIANCE","OH",44601,40.8921702580001,-81.113366142,54,"484 LINWOOD DRIVE, ALLIANCE, OH, 44601","Match","Exact","484 LINWOOD DR, ALLIANCE, OH, 44601",64696323,"L"
666055,"484 LOOMIS-OROVILLE HWY","TONASKET","WA",98855,48.81246057,-119.505459639,55,"484 LOOMIS-OROVILLE HWY, TONASKET, WA, 98855","Match","Exact","484 LOOMIS-OROVILLE HWY, TONASKET, WA, 98855",157333904,"L"
666056,"484 MADISON","GLENCOE","IL",60022,42.1254945380001,-87.757978543,56,"484 MADISON, GLENCOE, IL, 60022","Match","Non_Exact","484 MADISON AVE, GLENCOE, IL, 60022",111840492,"L"
666057,"484 MAGNOLIA ST","BRAWLEY","CA",92227,NA,NA,57,"484 MAGNOLIA ST, BRAWLEY, CA, 92227","Tie",NA,NA,NA,NA
666058,"484 MASSENGILL FARM ROAD","BENSON","NC",27504,35.358148898,-78.5439485209999,58,"484 MASSENGILL FARM ROAD, BENSON, NC, 27504","Match","Exact","484 MASSENGILL FARM RD, BENSON, NC, 27504",647185914,"L"
666059,"484 MORRIS ROAD","FT. WRIGHT","KY",41011,39.0666441060001,-84.551668518,59,"484 MORRIS ROAD, FT. WRIGHT, KY, 41011","Match","Exact","484 MORRIS RD, FT WRIGHT, KY, 41011",103883749,"R"
666060,"484 MOUNTAIN AIR DR","BURNSVILLE","NC",28714,35.8912160140001,-82.351758005,60,"484 MOUNTAIN AIR DR, BURNSVILLE, NC, 28714","Match","Exact","484 MOUNTAIN AIR DR, BURNSVILLE, NC, 28714",37429732,"R"
666061,"484 N 17TH","SAN JOSE","CA",95112,37.352098547,-121.880515001,61,"484 N 17TH, SAN JOSE, CA, 95112","Match","Non_Exact","484 N 17TH ST, SAN JOSE, CA, 95112",122908171,"R"
666062,"484 N BROADWAY","BURNS","OR",97720,43.5896990900001,-119.05442098,62,"484 N BROADWAY, BURNS, OR, 97720","Match","Non_Exact","484 N BROADWAY AVE, BURNS, OR, 97720",152799526,"L"
666063,"484 N LYDELL AVENUE APT 426","MILWAUKEE","WI",53210,NA,NA,63,"484 N LYDELL AVENUE APT 426, MILWAUKEE, WI, 53210","No_Match",NA,NA,NA,NA
666064,"484 NE BOVARD RD","DALLAS","OR",97338,NA,NA,64,"484 NE BOVARD RD, DALLAS, OR, 97338","No_Match",NA,NA,NA,NA
666065,"484 NORTH TEMPERANCE","SAINT PAUL","MN",55101,44.951221393,-93.091044493,65,"484 NORTH TEMPERANCE, SAINT PAUL, MN, 55101","Match","Non_Exact","484 N TEMPERANCE ST, SAINT PAUL, MN, 55101",97648610,"R"
666066,"484 OAK AVENUE","CEDARHURST","NY",11516,40.623940012,-73.726340683,66,"484 OAK AVENUE, CEDARHURST, NY, 11516","Match","Exact","484 OAK AVE, CEDARHURST, NY, 11516",639085154,"L"
666067,"484 OAKWOOD CIRCLE","COAL VALLEY","IL",61240,41.439037345,-90.423533501,67,"484 OAKWOOD CIRCLE, COAL VALLEY, IL, 61240","Match","Exact","484 OAKWOOD CIR, COAL VALLEY, IL, 61240",644025928,"R"
666068,"484 OLD ALLENDALE HIGHWAY","BARNWELL","SC",29812,33.2240755620001,-81.349723425,68,"484 OLD ALLENDALE HIGHWAY, BARNWELL, SC, 29812","Match","Exact","484 OLD ALLENDALE HWY, BARNWELL, SC, 29812",19077808,"L"
666069,"484 OLD ARLEY ROAD","HOUSTON","AL",35572,34.1208913030001,-87.248328941,69,"484 OLD ARLEY ROAD, HOUSTON, AL, 35572","Match","Exact","484 OLD ARLEY RD, HOUSTON, AL, 35572",141374780,"L"
666070,"484 OLD HWY 90","MONTICELLO","KY",42633,36.890300241,-84.798206235,70,"484 OLD HWY 90, MONTICELLO, KY, 42633","Match","Exact","484 OLD HWY 90, MONTICELLO, KY, 42633",635906941,"R"
666071,"484 PINE CIRCLE EXT","HORSEHEADS","NY",14845,42.173875654,-76.8662790129999,71,"484 PINE CIRCLE EXT, HORSEHEADS, NY, 14845","Match","Non_Exact","484 PINE CIR EXD, HORSEHEADS, NY, 14845",18564726,"R"
666072,"484 REBECCA LANE","BOLINGBROOK","IL",60440,41.684335682,-88.087833145,72,"484 REBECCA LANE, BOLINGBROOK, IL, 60440","Match","Exact","484 REBECCA LN, BOLINGBROOK, IL, 60440",111600587,"R"
666073,"484 RED LION RD","VINCENTOWN","NJ",8088,39.935700206,-74.754039226,73,"484 RED LION RD, VINCENTOWN, NJ, 8088","Match","Exact","484 RED LION RD, VINCENTOWN, NJ, 08088",134036120,"R"
666074,"484 RIDGEBURY RD","RIDGEFIELD","CT",6877,41.3535846930001,-73.52622976,74,"484 RIDGEBURY RD, RIDGEFIELD, CT, 6877","Match","Exact","484 RIDGEBURY RD, RIDGEFIELD, CT, 06877",3254662,"L"
666075,"484 RIVERWALK DR","MASON","MI",48854,42.5933784800001,-84.4439561299999,75,"484 RIVERWALK DR, MASON, MI, 48854","Match","Exact","484 RIVERWALK DR, MASON, MI, 48854",17529666,"L"
666076,"484 ROCK CREEK ROAD","SYLVAN SPRINGS","AL",35118,33.495667618,-87.023568257,76,"484 ROCK CREEK ROAD, SYLVAN SPRINGS, AL, 35118","Match","Exact","484 ROCK CREEK RD, SYLVAN SPRINGS, AL, 35118",653029055,"L"
666077,"484 ROSEWOOD","MEMPHIS","TN",38106,35.0953708530001,-90.046750693,77,"484 ROSEWOOD, MEMPHIS, TN, 38106","Match","Non_Exact","484 ROSEWOOD AVE, MEMPHIS, TN, 38106",607545931,"L"
666078,"484 ROUND TOP ROAD","HARRISVILLE","RI",2830,41.9818902100001,-71.695944858,78,"484 ROUND TOP ROAD, HARRISVILLE, RI, 2830","Match","Exact","484 ROUND TOP RD, HARRISVILLE, RI, 02830",47509782,"L"
666079,"484 ROYAL ROAD","N YARMOUTH","ME",4097,43.8520580420001,-70.1834323149999,79,"484 ROYAL ROAD, N YARMOUTH, ME, 4097","Match","Exact","484 ROYAL RD, NORTH YARMOUTH, ME, 04097",624059000,"R"
666080,"484 S JOHNSBURG ROAD","WARRENSBURG","NY",12885,43.5440154560001,-73.926465086,80,"484 S JOHNSBURG ROAD, WARRENSBURG, NY, 12885","Match","Exact","484 S JOHNSBURG RD, WARRENSBURG, NY, 12885",173894381,"R"
666081,"484 S NORTHWEST HIGHWAY","PARK RIDGE","IL",60512,42.0067234360001,-87.822392723,81,"484 S NORTHWEST HIGHWAY, PARK RIDGE, IL, 60512","Match","Non_Exact","484 S NORTHWEST HWY, PARK RIDGE, IL, 60068",111733451,"R"
666082,"484 SEATONS LANE","WEST POINT","VA",23181,37.5939227810001,-76.8840683,82,"484 SEATONS LANE, WEST POINT, VA, 23181","Match","Exact","484 SEATONS LN, WEST POINT, VA, 23181",106717995,"R"
666083,"484 ST ANN STREET","RACELAND","LA",70394,29.715124212,-90.602654577,83,"484 ST ANN STREET, RACELAND, LA, 70394","Match","Exact","484 ST ANN ST, RACELAND, LA, 70394",92332787,"L"
666084,"484 STATE ROUTE 79","RICHFORD","NY",13835,42.363461365,-76.2405523899999,84,"484 STATE ROUTE 79, RICHFORD, NY, 13835","Match","Exact","484 STATE RTE 79, RICHFORD, NY, 13835",636407068,"L"
666085,"484 STETLER","AKRON","OH",44312,41.0473321690001,-81.4347142729999,85,"484 STETLER, AKRON, OH, 44312","Match","Non_Exact","484 STETLER AVE, AKRON, OH, 44312",61355195,"R"
666086,"484 STRICKLAND COURT","LAWRENCEVILLE","GA",30046,33.921046049,-83.9768401919999,86,"484 STRICKLAND COURT, LAWRENCEVILLE, GA, 30046","Match","Exact","484 STRICKLAND CT, LAWRENCEVILLE, GA, 30046",88889601,"L"
666087,"484 STRICKLANDCOURT","LAWRENCEVILLE","GA",30046,NA,NA,87,"484 STRICKLANDCOURT, LAWRENCEVILLE, GA, 30046","No_Match",NA,NA,NA,NA
666088,"484 SW WASHINGTON STREET","DALLAS","OR",97338,44.919438244,-123.322829434,88,"484 SW WASHINGTON STREET, DALLAS, OR, 97338","Match","Exact","484 SW WASHINGTON ST, DALLAS, OR, 97338",155770824,"R"
666089,"484 TEMPERANCE STREET 115","SAINT PAUL","MN",55101,44.9524122760001,-93.0921062309999,89,"484 TEMPERANCE STREET 115, SAINT PAUL, MN, 55101","Match","Exact","484 TEMPERANCE ST, SAINT PAUL, MN, 55101",625999819,"R"
666090,"484 TEMPLE ST","DUXBURY","MA",2332,42.0715091020001,-70.720475718,90,"484 TEMPLE ST, DUXBURY, MA, 2332","Match","Exact","484 TEMPLE ST, DUXBURY, MA, 02332",87435439,"R"
666091,"484 TRACY LANE","HAMILTON","OH",45013,39.4283613010001,-84.562509397,91,"484 TRACY LANE, HAMILTON, OH, 45013","Match","Exact","484 TRACY LN, HAMILTON, OH, 45013",113803943,"L"
666092,"484 VIKING DRIVE SUITE 151","VIRGINIA BEACH","VA",23452,36.829308058,-76.068555601,92,"484 VIKING DRIVE SUITE 151, VIRGINIA BEACH, VA, 23452","Match","Exact","484 VIKING DR, VA BCH, VA, 23452",122297379,"R"
666093,"484 W 43RD ST APT 13H","NEW YORK","NY",10036,40.7601797720001,-73.994704827,93,"484 W 43RD ST APT 13H, NEW YORK, NY, 10036","Match","Non_Exact","484 W 43RD ST, NEW YORK, NY, 10036",650069145,"L"
666094,"484 W 43RD ST APT 42E","NEW YORK","NY",10036,40.7601797720001,-73.994704827,94,"484 W 43RD ST APT 42E, NEW YORK, NY, 10036","Match","Non_Exact","484 W 43RD ST, NEW YORK, NY, 10036",650069145,"L"
666095,"484 W 43RD ST STE 16K","NEW YORK","NY",10036,40.7601797720001,-73.994704827,95,"484 W 43RD ST STE 16K, NEW YORK, NY, 10036","Match","Non_Exact","484 W 43RD ST, NEW YORK, NY, 10036",650069145,"L"
666096,"484 W 43RD STREET  18B","NEW YORK","NY",10036,40.7601797720001,-73.994704827,96,"484 W 43RD STREET  18B, NEW YORK, NY, 10036","Match","Non_Exact","484 W 43RD ST, NEW YORK, NY, 10036",650069145,"L"
666097,"484 W 43RD STREET","NEW YORK","NY",10036,40.7601797720001,-73.994704827,97,"484 W 43RD STREET, NEW YORK, NY, 10036","Match","Exact","484 W 43RD ST, NEW YORK, NY, 10036",650069145,"L"
666098,"484 W BAINBRIDGE ST","ELIZABETHTOWN","PA",17022,40.1430302210001,-76.6108497239999,98,"484 W BAINBRIDGE ST, ELIZABETHTOWN, PA, 17022","Match","Exact","484 W BAINBRIDGE ST, ELIZABETHTOWN, PA, 17022",641518680,"L"
666099,"484 WASHINGTON AVENUE","BROOKLYN","NY",11238,40.684427129,-73.9650643419999,99,"484 WASHINGTON AVENUE, BROOKLYN, NY, 11238","Match","Exact","484 WASHINGTON AVE, BROOKLYN, NY, 11238",59077995,"R"
666100,"484 WASHINGTON ST B141","MONTEREY","CA",93940,36.598123904,-121.892839112,100,"484 WASHINGTON ST B141, MONTEREY, CA, 93940","Match","Exact","484 WASHINGTON ST, MONTEREY, CA, 93940",649929529,"L"
666101,"484 WATERSLIDE ROAD","SALEM","WV",26426,NA,NA,101,"484 WATERSLIDE ROAD, SALEM, WV, 26426","No_Match",NA,NA,NA,NA
666102,"484 WATERVILLE STREET 1ST FL","WATERBURY","CT",6704,NA,NA,102,"484 WATERVILLE STREET 1ST FL, WATERBURY, CT, 6704","No_Match",NA,NA,NA,NA
666103,"484 WEST 43RD ST NUM 31P","NEW YORK","NY",10036,40.7601697540001,-73.9946811899999,103,"484 WEST 43RD ST NUM 31P, NEW YORK, NY, 10036","Match","Exact","484 W 43RD ST, NEW YORK, NY, 10036",650069145,"L"
666104,"484 WEST 43RD ST UNIT 44M","NEW YORK","NY",10036,40.7601697540001,-73.9946811899999,104,"484 WEST 43RD ST UNIT 44M, NEW YORK, NY, 10036","Match","Exact","484 W 43RD ST, NEW YORK, NY, 10036",650069145,"L"
666105,"484 WEST 43RD STREET 41P","NEW YORK","NY",10036,40.7601697540001,-73.9946811899999,105,"484 WEST 43RD STREET 41P, NEW YORK, NY, 10036","Match","Exact","484 W 43RD ST, NEW YORK, NY, 10036",650069145,"L"
666106,"484 WEST 43RD STREET 5N","NEW YORK","NY",10036,40.7601697540001,-73.9946811899999,106,"484 WEST 43RD STREET 5N, NEW YORK, NY, 10036","Match","Exact","484 W 43RD ST, NEW YORK, NY, 10036",650069145,"L"
666107,"484 WEST 43RD STREET APT 30C","NEW YORK","NY",10036,40.7601697540001,-73.9946811899999,107,"484 WEST 43RD STREET APT 30C, NEW YORK, NY, 10036","Match","Exact","484 W 43RD ST, NEW YORK, NY, 10036",650069145,"L"
666108,"484 WEST 43RD STREET APT 46Q","NEW YORK","NY",10036,40.7601697540001,-73.9946811899999,108,"484 WEST 43RD STREET APT 46Q, NEW YORK, NY, 10036","Match","Exact","484 W 43RD ST, NEW YORK, NY, 10036",650069145,"L"
666109,"484 WEST 43RD STREET SUITE 12E","NEW YORK","NY",10036,40.7601697540001,-73.9946811899999,109,"484 WEST 43RD STREET SUITE 12E, NEW YORK, NY, 10036","Match","Exact","484 W 43RD ST, NEW YORK, NY, 10036",650069145,"L"
666110,"484 WEST KEMPER ROAD","CINCINNATI","OH",45246,39.287774572,-84.489924797,110,"484 WEST KEMPER ROAD, CINCINNATI, OH, 45246","Match","Exact","484 W KEMPER RD, CINCINNATI, OH, 45246",103958497,"R"
666111,"484 WEST NORTH AVE","EAST PALESTINE","OH",44413,40.8382824820001,-80.548560602,111,"484 WEST NORTH AVE, EAST PALESTINE, OH, 44413","Match","Exact","484 W NORTH AVE, E PALESTINE, OH, 44413",63631164,"R"
666112,"484 WHITBY DR","DOUGLASVILLE","GA",30132,33.7946376730001,-84.7938175799999,112,"484 WHITBY DR, DOUGLASVILLE, GA, 30132","Match","Non_Exact","484 WHITBY DR, DOUGLASVILLE, GA, 30134",207993591,"R"
666113,"484 WHITE STAR AVENUE","WEST HEMPSTEAD","NY",11552,40.6800371800001,-73.655702826,113,"484 WHITE STAR AVENUE, WEST HEMPSTEAD, NY, 11552","Match","Non_Exact","484 WHITESTAR AVE, W HEMPSTEAD, NY, 11552",147674733,"R"
666114,"4840 14TH AVE E","BRADENTON","FL",34208,27.4870264790001,-82.502999933,114,"4840 14TH AVE E, BRADENTON, FL, 34208","Match","Exact","4840 14TH AVE E, BRADENTON, FL, 34208",650108437,"R"
666115,"4840 26TH COURT SOUTH","ST PETERSBURG","FL",33712,27.7245321360001,-82.669626954,115,"4840 26TH COURT SOUTH, ST PETERSBURG, FL, 33712","Match","Exact","4840 26TH CT S, SAINT PETERSBURG, FL, 33712",124823676,"L"
666116,"4840 7TH STREET SOUTH","ARLINGTON","VA",22204,38.8602270920001,-77.111115196,116,"4840 7TH STREET SOUTH, ARLINGTON, VA, 22204","Match","Exact","4840 7TH ST S, ARLINGTON, VA, 22204",76469198,"L"
666117,"4840 ALTON PLACE NW","WASHINGTON","DC",20016,38.9470978310001,-77.095365473,117,"4840 ALTON PLACE NW, WASHINGTON, DC, 20016","Match","Exact","4840 ALTON PL NW, WASHINGTON, DC, 20016",76219512,"L"
666118,"4840 AMOS STREET","JACKSONVILLE","FL",32209,30.365614124,-81.703244422,118,"4840 AMOS STREET, JACKSONVILLE, FL, 32209","Match","Exact","4840 AMOS ST, JACKSONVILLE, FL, 32209",83892009,"L"
666119,"4840 AUTUMN WOODS DR","JACKSON","MS",39206,32.3632475480001,-90.156954819,119,"4840 AUTUMN WOODS DR, JACKSON, MS, 39206","Match","Exact","4840 AUTUMN WOODS DR, JACKSON, MS, 39206",65387328,"R"
666120,"4840 BELLFLOWER WAY","FORT WORTH","TX",76123,32.625516582,-97.3976313269999,120,"4840 BELLFLOWER WAY, FORT WORTH, TX, 76123","Match","Exact","4840 BELLFLOWER WAY, FORT WORTH, TX, 76123",102119913,"R"
666121,"4840 BROOKWOOD ST","EUGENE","OR",97405,44.003083272,-123.086568192,121,"4840 BROOKWOOD ST, EUGENE, OR, 97405","Match","Exact","4840 BROOKWOOD ST, EUGENE, OR, 97405",178169291,"R"
666122,"4840 CANGRO STREET","COCOA","FL",32926,28.430703555,-80.823706449,122,"4840 CANGRO STREET, COCOA, FL, 32926","Match","Exact","4840 CANGRO ST, COCOA, FL, 32926",93913940,"R"
666123,"4840 CHEROKEE DRIVE","ENGLEWOOD","MD",80110,NA,NA,123,"4840 CHEROKEE DRIVE, ENGLEWOOD, MD, 80110","No_Match",NA,NA,NA,NA
666124,"4840 CHICKASAW","MEMPHIS","TN",38117,35.1388337320001,-89.900446329,124,"4840 CHICKASAW, MEMPHIS, TN, 38117","Match","Non_Exact","4840 CHICKASAW RD, MEMPHIS, TN, 38117",72924989,"L"
666125,"4840 COACHMAN LANDING COURT","GLEN ALLEN","VA",23059,37.659074553,-77.6078584159999,125,"4840 COACHMAN LANDING COURT, GLEN ALLEN, VA, 23059","Match","Non_Exact","4840 COACHMANS LANDING CT, GLEN ALLEN, VA, 23059",106695010,"R"
666126,"4840 COOLIDGE","BEAUMONT","TX",77706,30.113033108,-94.156174847,126,"4840 COOLIDGE, BEAUMONT, TX, 77706","Match","Non_Exact","4840 COOLIDGE ST, BEAUMONT, TX, 77706",73871779,"L"
666127,"4840 CORDELL AVENUE","BETHESDA","MD",20814,38.9902396000001,-77.097240927,127,"4840 CORDELL AVENUE, BETHESDA, MD, 20814","Match","Exact","4840 CORDELL AVE, BETHESDA, MD, 20814",62065530,"L"
666128,"4840 COUNTRY RD 105","FULTON","MO",65251,38.88410838,-91.9226627359999,128,"4840 COUNTRY RD 105, FULTON, MO, 65251","Match","Non_Exact","4840 CO RD 105, FULTON, MO, 65251",34379514,"R"
666129,"4840 DOVER LANE 403","SACRAMENTO","CA",95842,38.6996185240001,-121.350882447,129,"4840 DOVER LANE 403, SACRAMENTO, CA, 95842","Match","Exact","4840 DOVER LN, SACRAMENTO, CA, 95842",623814389,"R"
666130,"4840 E STATE ROUTE 202","BELFAIR","WA",98529,NA,NA,130,"4840 E STATE ROUTE 202, BELFAIR, WA, 98529","No_Match",NA,NA,NA,NA
666131,"4840 E STATE ROUTE 302","BELFAIR","WA",98529,47.3689513690001,-122.811750688,131,"4840 E STATE ROUTE 302, BELFAIR, WA, 98529","Match","Non_Exact","4840 STATE RTE 302, BELFAIR, WA, 98528",627316456,"L"
666132,"4840 E WESTERN STAR BLVD","PHOENIX","AZ",85044,33.3516837510001,-111.978183525,132,"4840 E WESTERN STAR BLVD, PHOENIX, AZ, 85044","Match","Exact","4840 E WESTERN STAR BLVD, PHOENIX, AZ, 85044",128236297,"R"
666133,"4840 EAGLES NEST DRIVE","LORAIN","OH",44053,41.428181325,-82.2495220329999,133,"4840 EAGLES NEST DRIVE, LORAIN, OH, 44053","Match","Exact","4840 EAGLES NEST DR, LORAIN, OH, 44053",624958445,"R"
666134,"4840 EMERSON AVENUE SOUTH","MINNEAPOLIS","MN",55419,44.91518304,-93.2946626629999,134,"4840 EMERSON AVENUE SOUTH, MINNEAPOLIS, MN, 55419","Match","Exact","4840 EMERSON AVE S, MINNEAPOLIS, MN, 55419",43629033,"R"
666135,"4840 ENGLEWOOD AVE","LAS VEGAS","NV",89139,36.044452855,-115.206556317,135,"4840 ENGLEWOOD AVE, LAS VEGAS, NV, 89139","Match","Exact","4840 ENGLEWOOD AVE, LAS VEGAS, NV, 89139",202002817,"R"
666136,"4840 GABLES CROSSING","LEWIS CENTER","OH",43035,40.211469046,-82.989138391,136,"4840 GABLES CROSSING, LEWIS CENTER, OH, 43035","Match","Exact","4840 GABLES CROSSING, LEWIS CENTER, OH, 43035",213001721,"R"
666137,"4840 HACKBERRY RD","SAN BENITO","TX",78586,26.1064067040001,-97.753859184,137,"4840 HACKBERRY RD, SAN BENITO, TX, 78586","Match","Exact","4840 HACKBERRY RD, SAN BENITO, TX, 78586",90018715,"R"
666138,"4840 HARTLE DRIVE","LYNDHURST","OH",44124,NA,NA,138,"4840 HARTLE DRIVE, LYNDHURST, OH, 44124","No_Match",NA,NA,NA,NA
666139,"4840 HIGHWAY 22","MANDEVILLE","LA",70170,NA,NA,139,"4840 HIGHWAY 22, MANDEVILLE, LA, 70170","No_Match",NA,NA,NA,NA
666140,"4840 HODGDON CORNERS COVE","LITHONIA","GA",30038,33.665741768,-84.190973824,140,"4840 HODGDON CORNERS COVE, LITHONIA, GA, 30038","Match","Exact","4840 HODGDON CORNERS COVE, LITHONIA, GA, 30038",619386952,"L"
666141,"4840 IRVINE BLVD STE 205","IRVINE","CA",92620,NA,NA,141,"4840 IRVINE BLVD STE 205, IRVINE, CA, 92620","No_Match",NA,NA,NA,NA
666142,"4840 JOYFUL WAY APT B","ELLICOTT CITY","MD",21042,39.236448571,-76.818167848,142,"4840 JOYFUL WAY APT B, ELLICOTT CITY, MD, 21042","Match","Non_Exact","4840 JOYFUL WAY, ELLICOTT CITY, MD, 21043",614149478,"R"
666143,"4840 KEY MADEIRA DRIVE","TITUSVILLE","FL",32780,28.553650061,-80.809139046,143,"4840 KEY MADEIRA DRIVE, TITUSVILLE, FL, 32780","Match","Exact","4840 KEY MADEIRA DR, TITUSVILLE, FL, 32780",93961803,"R"
666144,"4840 MACARTHUR BLVD NW -606","WASHINGTON","DC",20007,38.9171974270001,-77.096408576,144,"4840 MACARTHUR BLVD NW -606, WASHINGTON, DC, 20007","Match","Exact","4840 MACARTHUR BLVD NW, WASHINGTON, DC, 20007",76220046,"L"
666145,"4840 MAPLE HILL DRIVE","NESBIT","MS",38651,34.900382661,-89.903078652,145,"4840 MAPLE HILL DRIVE, NESBIT, MS, 38651","Match","Exact","4840 MAPLE HILL DR, NESBIT, MS, 38651",91839857,"R"
666146,"4840 MATLOCK RD STE 260","ARLINGTON","TX",76018,32.668694622,-97.115061807,146,"4840 MATLOCK RD STE 260, ARLINGTON, TX, 76018","Match","Exact","4840 MATLOCK RD, ARLINGTON, TX, 76018",102132016,"R"
666147,"4840 MAYHEW AVE","SIOUX CITY","IA",51106,42.451372013,-96.342579776,147,"4840 MAYHEW AVE, SIOUX CITY, IA, 51106","Match","Exact","4840 MAYHEW AVE, SIOUX CITY, IA, 51106",93440846,"R"
666148,"4840 MOTOR AVENUE","DETROIT","MI",48201,NA,NA,148,"4840 MOTOR AVENUE, DETROIT, MI, 48201","No_Match",NA,NA,NA,NA
666149,"4840 N 110TH LN","PHOENIX","AZ",85037,33.505920469,-112.297894611,149,"4840 N 110TH LN, PHOENIX, AZ, 85037","Match","Exact","4840 N 110TH LN, PHOENIX, AZ, 85037",614557876,"L"
666150,"4840 N HONEYTOWN RD","SMITHVILLE","OH",44677,40.8586523760001,-81.878037493,150,"4840 N HONEYTOWN RD, SMITHVILLE, OH, 44677","Match","Exact","4840 HONEYTOWN RD, SMITHVILLE, OH, 44677",58720768,"L"
666151,"4840 OHIA PL","LIHUE","HI",96766,21.9968634910001,-159.36376359,151,"4840 OHIA PL, LIHUE, HI, 96766","Match","Exact","4840 OHIA PL, LIHUE, HI, 96766",203405657,"R"
666152,"4840 OHIA PLACE","LIHUE","HI",96766,21.9968634910001,-159.36376359,152,"4840 OHIA PLACE, LIHUE, HI, 96766","Match","Exact","4840 OHIA PL, LIHUE, HI, 96766",203405657,"R"
666153,"4840 PINE FOREST","MEMPHIS","TN",38125,35.0165234880001,-89.800474126,153,"4840 PINE FOREST, MEMPHIS, TN, 38125","Match","Non_Exact","4840 PINE FOREST DR, MEMPHIS, TN, 38125",618746721,"R"
666154,"4840 QUARRYMAN ROAD","RALEIGH","NC",27610,35.7319018790001,-78.567486865,154,"4840 QUARRYMAN ROAD, RALEIGH, NC, 27610","Match","Exact","4840 QUARRYMAN RD, RALEIGH, NC, 27610",647296114,"R"
666155,"4840 S 199TH STREET","GREENFIELD","WI",53228,NA,NA,155,"4840 S 199TH STREET, GREENFIELD, WI, 53228","No_Match",NA,NA,NA,NA
666156,"4840 S SHERMAN ST","ENGLEWOOD","CO",80113,39.6287437610001,-104.985539102,156,"4840 S SHERMAN ST, ENGLEWOOD, CO, 80113","Match","Exact","4840 S SHERMAN ST, ENGLEWOOD, CO, 80113",177334488,"L"
666157,"4840 S TRIPP AVE","CHICAGO","IL",60632,41.8051819120001,-87.729633236,157,"4840 S TRIPP AVE, CHICAGO, IL, 60632","Match","Exact","4840 S TRIPP AVE, CHICAGO, IL, 60632",111800550,"R"
666158,"4840 SAN MARCOS PLACE","LOS ANGELES","CA",90042,34.110516277,-118.207850478,158,"4840 SAN MARCOS PLACE, LOS ANGELES, CA, 90042","Match","Exact","4840 SAN MARCOS PL, LOS ANGELES, CA, 90042",141614099,"R"
666159,"4840 SCHUYLER","LA MESA","CA",91941,32.767713584,-117.013840707,159,"4840 SCHUYLER, LA MESA, CA, 91941","Match","Non_Exact","4840 SCHUYLER AVE, LA MESA, CA, 91941",652041155,"L"
666160,"4840 SHERMAN RD","KENT","OH",44240,41.12135284,-81.339641253,160,"4840 SHERMAN RD, KENT, OH, 44240","Match","Exact","4840 SHERMAN RD, KENT, OH, 44240",137537143,"R"
666161,"4840 STELLA CT APT 72","ONEIDA","WI",54155,44.5661508750001,-88.150991803,161,"4840 STELLA CT APT 72, ONEIDA, WI, 54155","Match","Exact","4840 STELLA CT, ONEIDA, WI, 54155",642534094,"R"
666162,"4840 SUNNYSIDE DR","HILLSIDE","IL",60162,41.8834006800001,-87.9047205859999,162,"4840 SUNNYSIDE DR, HILLSIDE, IL, 60162","Match","Exact","4840 SUNNYSIDE DR, HILLSIDE, IL, 60162",111726472,"L"
666163,"4840 SW 80TH AVE","OCALA","FL",34481,29.1374825930001,-82.251826982,163,"4840 SW 80TH AVE, OCALA, FL, 34481","Match","Exact","4840 SW 80TH AVE, OCALA, FL, 34481",116833143,"L"
666164,"4840 SW WESTERN AVE SUITE 600","BEAVERTON","OR",97005,45.484904428,-122.78271423,164,"4840 SW WESTERN AVE SUITE 600, BEAVERTON, OR, 97005","Match","Non_Exact","4840 SW WESTERN AVE, BEAVERTON, OR, 97005",158186967,"L"
666165,"4840 TROUT RIVER CROSSING","ELLENTON","FL",34222,27.557366911,-82.495773,165,"4840 TROUT RIVER CROSSING, ELLENTON, FL, 34222","Match","Exact","4840 TROUT RIVER CROSSING, ELLENTON, FL, 34222",628030001,"R"
666166,"4840 UPJOHN RD B202","NORTH CHARLESTON","SC",29405,32.882432044,-79.996161418,166,"4840 UPJOHN RD B202, NORTH CHARLESTON, SC, 29405","Match","Exact","4840 UPJOHN RD, N CHARLESTON, SC, 29405",108799321,"R"
666167,"4840 VALLEY RIDGE AVE","VIEW PARK","CA",90043,33.999718939,-118.349288718,167,"4840 VALLEY RIDGE AVE, VIEW PARK, CA, 90043","Match","Exact","4840 VALLEY RIDGE AVE, VIEW PARK, CA, 90043",141602410,"L"
666168,"4840 W AVENUE L-12","QUARTZ HILL","CA",93536,NA,NA,168,"4840 W AVENUE L-12, QUARTZ HILL, CA, 93536","No_Match",NA,NA,NA,NA
666169,"4840 W UNIVERSITY AVE SUITE A2","LAS VEGAS","NV",89103,36.109975536,-115.207075404,169,"4840 W UNIVERSITY AVE SUITE A2, LAS VEGAS, NV, 89103","Match","Non_Exact","4840 W UNIVERSITY AVE, LAS VEGAS, NV, 89103",201863365,"R"
666170,"4840 WEST 38TH STREET","ERIE","PA",16506,42.0616122280001,-80.180107021,170,"4840 WEST 38TH STREET, ERIE, PA, 16506","Match","Exact","4840 W 38TH ST, ERIE, PA, 16506",117515360,"R"
666171,"48402 435TH AVE","NORTH MANKATO","MN",56003,44.2503739910001,-94.140056768,171,"48402 435TH AVE, NORTH MANKATO, MN, 56003","Match","Exact","48402 435TH AVE, NORTH MANKATO, MN, 56003",610534597,"L"
666172,"4841 20TH AVE S","SALEM","OR",97302,44.8870582270001,-123.072117392,172,"4841 20TH AVE S, SALEM, OR, 97302","Match","Exact","4841 20TH AVE S, SALEM, OR, 97302",156248878,"R"
666173,"4841 88TH PLACE SE","MERCER ISLAND","WA",98040,47.5595428390001,-122.222556545,173,"4841 88TH PLACE SE, MERCER ISLAND, WA, 98040","Match","Exact","4841 88TH PL SE, MERCER ISLAND, WA, 98040",186606922,"R"
666174,"4841 CHANTILLY DR","NEW ORLEANS","LA",70126,30.0185102630001,-90.006148352,174,"4841 CHANTILLY DR, NEW ORLEANS, LA, 70126","Match","Exact","4841 CHANTILLY DR, NEW ORLEANS, LA, 70126",191743876,"R"
666175,"4841 CHRISTENSEN DRIVE","LITTLETON","CO",80123,39.5993505750001,-105.049462334,175,"4841 CHRISTENSEN DRIVE, LITTLETON, CO, 80123","Match","Exact","4841 CHRISTENSEN DR, LITTLETON, CO, 80123",177519770,"R"
666176,"4841 CITRINE AVE UNIT 203","VIRGINIA BEACH","VA",23462,36.833944553,-76.144015305,176,"4841 CITRINE AVE UNIT 203, VIRGINIA BEACH, VA, 23462","Match","Exact","4841 CITRINE AVE, VA BCH, VA, 23462",646583855,"L"
666177,"4841 COUNTY ROAD 8","PIEDMONT","AL",36272,33.985025863,-85.5351572389999,177,"4841 COUNTY ROAD 8, PIEDMONT, AL, 36272","Match","Exact","4841 CO RD 8, PIEDMONT, AL, 36272",30254703,"L"
666178,"4841 COVINGTON DR","CONCORD","NC",28027,35.3775213120001,-80.6682928019999,178,"4841 COVINGTON DR, CONCORD, NC, 28027","Match","Exact","4841 COVINGTON DR, CONCORD, NC, 28027",24915263,"L"
666179,"4841 DANBURY CIRCLE","EL DORADO HILLS","CA",95762,38.720168093,-121.078868977,179,"4841 DANBURY CIRCLE, EL DORADO HILLS, CA, 95762","Match","Exact","4841 DANBURY CIR, EL DORADO HILLS, CA, 95762",133072218,"R"
666180,"4841 E 3RD ST","TUCSON","AZ",85711,32.231960208,-110.88964701,180,"4841 E 3RD ST, TUCSON, AZ, 85711","Match","Exact","4841 E 3RD ST, TUCSON, AZ, 85711",121179668,"L"
666181,"4841 E MERRIAM DR","FLAGSTAFF","AZ",86004,35.229114318,-111.574180278,181,"4841 E MERRIAM DR, FLAGSTAFF, AZ, 86004","Match","Exact","4841 E MERRIAM DR, FLAGSTAFF, AZ, 86004",188980914,"R"
666182,"4841 ELMONT PLACE","GROVEPORT","OH",43125,39.8650161830001,-82.879312434,182,"4841 ELMONT PLACE, GROVEPORT, OH, 43125","Match","Exact","4841 ELMONT PL, GROVEPORT, OH, 43125",218640723,"R"
666183,"4841 FILLIPO STREET","SAN DIEGO","CA",92115,32.7653880730001,-117.058243807,183,"4841 FILLIPO STREET, SAN DIEGO, CA, 92115","Match","Non_Exact","4841 FILIPO ST, SAN DIEGO, CA, 92115",612877313,"R"
666184,"4841 GRAVELLY BEACH LP NW","OLYMPIA","WA",98502,47.105121544,-122.963589549,184,"4841 GRAVELLY BEACH LP NW, OLYMPIA, WA, 98502","Match","Exact","4841 GRAVELLY BEACH LOOP NW, OLYMPIA, WA, 98502",642491953,"L"
666185,"4841 HIDDEN BRANCHES DRIVE","DUNWOODY","GA",30338,33.9399988280001,-84.3463642299999,185,"4841 HIDDEN BRANCHES DRIVE, DUNWOODY, GA, 30338","Match","Exact","4841 HIDDEN BRANCHES DR, DUNWOODY, GA, 30338",619387111,"R"
666186,"4841 HONEYSUCKLE BLVD","COLUMBUS","OH",43230,40.071508921,-82.9162657539999,186,"4841 HONEYSUCKLE BLVD, COLUMBUS, OH, 43230","Match","Exact","4841 HONEYSUCKLE BLVD, COLUMBUS, OH, 43230",218660981,"R"
666187,"4841 HUNTERS TRL","SIX LAKES","MI",48886,43.3743882030001,-85.1807053489999,187,"4841 HUNTERS TRL, SIX LAKES, MI, 48886","Match","Exact","4841 HUNTERS TRL, SIX LAKES, MI, 48886",110560762,"L"
666188,"4841 INDIAN LN","COLLEGE PARK","MD",20740,39.0081520460001,-76.9259866,188,"4841 INDIAN LN, COLLEGE PARK, MD, 20740","Match","Exact","4841 INDIAN LN, COLLEGE PARK, MD, 20740",76324781,"R"
666189,"4841 JONESBORO RD","FOREST PARK","GA",30297,33.6214185870001,-84.3527748879999,189,"4841 JONESBORO RD, FOREST PARK, GA, 30297","Match","Exact","4841 JONESBORO RD, FOREST PARK, GA, 30297",23331825,"R"
666190,"4841 MYRA DRIVE","HERMITAGE","TN",37076,36.180789336,-86.585518035,190,"4841 MYRA DRIVE, HERMITAGE, TN, 37076","Match","Exact","4841 MYRA DR, HERMITAGE, TN, 37076",97220157,"L"
666191,"4841 N PERSHING AVE APT407","STOCKTON","CA",95207,37.9901988400001,-121.322416598,191,"4841 N PERSHING AVE APT407, STOCKTON, CA, 95207","Match","Non_Exact","4841 N PERSHING AVE, STOCKTON, CA, 95207",133844882,"L"
666192,"4841 NW 50TH TERRACE","GAINESVILLE","FL",32606,29.69998216,-82.396363655,192,"4841 NW 50TH TERRACE, GAINESVILLE, FL, 32606","Match","Exact","4841 NW 50 TER, GAINESVILLE, FL, 32606",627659337,"L"
666193,"4841 OHIO ROAD","WELLSVILLE","KS",66092,38.734984555,-95.186362441,193,"4841 OHIO ROAD, WELLSVILLE, KS, 66092","Match","Exact","4841 OHIO RD, WELLSVILLE, KS, 66092",10622773,"L"
666194,"4841 OLSON ROAD","PEQUOT LAKES","MN",56472,46.5643074010001,-94.301649843,194,"4841 OLSON ROAD, PEQUOT LAKES, MN, 56472","Match","Exact","4841 OLSON RD, PEQUOT LAKES, MN, 56472",635618905,"R"
666195,"4841 PHILADELPHIA ST","CHINO","CA",91710,34.0335191550001,-117.699405672,195,"4841 PHILADELPHIA ST, CHINO, CA, 91710","Match","Exact","4841 PHILADELPHIA ST, CHINO, CA, 91710",144672790,"R"
666196,"4841 S JACKSON","EDINBURG","TX",78539,NA,NA,196,"4841 S JACKSON, EDINBURG, TX, 78539","No_Match",NA,NA,NA,NA
666197,"4841 S QUINTERO CIRCLE","AURORA","CO",80015,39.628175094,-104.787382871,197,"4841 S QUINTERO CIRCLE, AURORA, CO, 80015","Match","Exact","4841 S QUINTERO CIR, AURORA, CO, 80015",177358263,"R"
666198,"4841 SHOP STREET","CHESTER","VA",23831,37.34995365,-77.4546040929999,198,"4841 SHOP STREET, CHESTER, VA, 23831","Match","Exact","4841 SHOP ST, CHESTER, VA, 23831",201550761,"L"
666199,"4841 SILVER OAK DRIVE","DAYTON","OH",45424,39.820433828,-84.1161475709999,199,"4841 SILVER OAK DRIVE, DAYTON, OH, 45424","Match","Non_Exact","4841 SILVER OAK ST, DAYTON, OH, 45424",143587336,"R"
666200,"4841 STATE HWY 52","WABENO","WI",54566,45.4417942470001,-88.6762517449999,200,"4841 STATE HWY 52, WABENO, WI, 54566","Match","Exact","4841 STATE HWY 52, WABENO, WI, 54566",170278886,"L"
666201,"4841 TREMONT STREET APT 6","DALLAS","TX",75246,32.7977758270001,-96.7668183649999,201,"4841 TREMONT STREET APT 6, DALLAS, TX, 75246","Match","Exact","4841 TREMONT ST, DALLAS, TX, 75246",102919806,"L"
666202,"4841 VITRINA LN","PALMDALE","CA",93551,34.6206842570001,-118.21667402,202,"4841 VITRINA LN, PALMDALE, CA, 93551","Match","Exact","4841 VITRINA LN, PALMDALE, CA, 93551",141782285,"R"
666203,"4841 W 136TH ST","HAWTHORNE","CA",90250,33.9086411280001,-118.36277289,203,"4841 W 136TH ST, HAWTHORNE, CA, 90250","Match","Exact","4841 W 136TH ST, HAWTHORNE, CA, 90250",647611109,"R"
666204,"4841 W BRADDOCK ROAD NO 3","ALEXANDRIA","VA",22311,NA,NA,204,"4841 W BRADDOCK ROAD NO 3, ALEXANDRIA, VA, 22311","No_Match",NA,NA,NA,NA
666205,"4841 W DOOLIN","BLACKWELL","OK",74631,NA,NA,205,"4841 W DOOLIN, BLACKWELL, OK, 74631","No_Match",NA,NA,NA,NA
666206,"4841 WEST 111TH PLACE","INGLEWOOD","CA",90304,33.9336798420001,-118.362237317,206,"4841 WEST 111TH PLACE, INGLEWOOD, CA, 90304","Match","Exact","4841 W 111TH PL, INGLEWOOD, CA, 90304",142750942,"R"
666207,"4841 WINDRIFT WAY","CARMEL","IN",46033,39.9598599170001,-86.0883935639999,207,"4841 WINDRIFT WAY, CARMEL, IN, 46033","Match","Exact","4841 WINDRIFT WAY, CARMEL, IN, 46033",29327186,"R"
666208,"48410 IGLOO ST","SOLDOTNA","AK",99669,60.500403152,-151.186237162,208,"48410 IGLOO ST, SOLDOTNA, AK, 99669","Match","Non_Exact","48410 IGLOO AVE, SOLDOTNA, AK, 99669",191037413,"R"
666209,"4842 AUTUMN OAK DRIVE","CHARLOTTE","NC",28269,35.3315820880001,-80.82911953,209,"4842 AUTUMN OAK DRIVE, CHARLOTTE, NC, 28269","Match","Exact","4842 AUTUMN OAK DR, CHARLOTTE, NC, 28269",618150275,"L"
666210,"4842 BISCAYNE DR","LAKE WORTH","FL",33463,26.6260279430001,-80.120145451,210,"4842 BISCAYNE DR, LAKE WORTH, FL, 33463","Match","Exact","4842 BISCAYNE DR, LAKE WORTH, FL, 33463",115491007,"L"
666211,"4842 CAREY DRIVE","FAYETTEVILLE","NY",13104,43.0074040700001,-75.991419546,211,"4842 CAREY DRIVE, FAYETTEVILLE, NY, 13104","Match","Non_Exact","4842 CAREY DR, MANLIUS, NY, 13104",46576797,"R"
666212,"4842 E MILER RD","MARENGO","IN",47140,38.369683664,-86.369977059,212,"4842 E MILER RD, MARENGO, IN, 47140","Match","Non_Exact","4842 E MILLER RD, MARENGO, IN, 47140",606471975,"L"
666213,"4842 GARVIS DRIVE","CHARLOTTE","NC",28269,35.2851740930001,-80.812859132,213,"4842 GARVIS DRIVE, CHARLOTTE, NC, 28269","Match","Exact","4842 GARVIS DR, CHARLOTTE, NC, 28269",70478490,"L"
666214,"4842 GREENLEAF UNIT 2B","SKOKIE","IL",60077,42.0371518310001,-87.7488448669999,214,"4842 GREENLEAF UNIT 2B, SKOKIE, IL, 60077","Match","Non_Exact","4842 GREENLEAF ST, SKOKIE, IL, 60077",605248642,"R"
666215,"4842 KEMPSVILLE GREENS PKWY","VIRGINIA BEACH","VA",23402,36.8211411620001,-76.14617793,215,"4842 KEMPSVILLE GREENS PKWY, VIRGINIA BEACH, VA, 23402","Match","Non_Exact","4842 KEMPSVILLE GREENS PKWY, VA BCH, VA, 23462",122279888,"L"
666216,"4842 LAFAYETTE CIRCLE","NIAGARA FALLS","NY",14305,43.131042848,-79.0449019499999,216,"4842 LAFAYETTE CIRCLE, NIAGARA FALLS, NY, 14305","Match","Exact","4842 LAFAYETTE CIR, NIAGARA FALLS, NY, 14305",48685083,"L"
666217,"4842 LEAFBURROW DRIVE","DAYTON","OH",45424,39.822689591,-84.114889084,217,"4842 LEAFBURROW DRIVE, DAYTON, OH, 45424","Match","Exact","4842 LEAFBURROW DR, DAYTON, OH, 45424",143587303,"R"
666218,"4842 LIBERTY RD S APT 80","SALEM","OR",97306,44.8875064440001,-123.060917535,218,"4842 LIBERTY RD S APT 80, SALEM, OR, 97306","Match","Exact","4842 LIBERTY RD S, SALEM, OR, 97306",653430362,"L"
666219,"4842 N HWY 16","DENVER","NC",28037,35.5501434830001,-81.057502775,219,"4842 N HWY 16, DENVER, NC, 28037","Match","Non_Exact","4842 STATE RD 16, DENVER, NC, 28037",642240228,"R"
666220,"4842 N SEELEY AVE","CHICAGO","IL",60625,41.9695547380001,-87.680441069,220,"4842 N SEELEY AVE, CHICAGO, IL, 60625","Match","Exact","4842 N SEELEY AVE, CHICAGO, IL, 60625",111760474,"L"
666221,"4842 NARA VISTA WAY UNIT 101","LAS VEGAS","NV",89103,36.101157331,-115.241692055,221,"4842 NARA VISTA WAY UNIT 101, LAS VEGAS, NV, 89103","Match","Exact","4842 NARA VISTA WAY, LAS VEGAS, NV, 89103",635962455,"L"
666222,"4842 NEOLA PLACE","LOS ANGELES","CA",90041,34.134820178,-118.194570361,222,"4842 NEOLA PLACE, LOS ANGELES, CA, 90041","Match","Exact","4842 NEOLA PL, LOS ANGELES, CA, 90041",141614428,"R"
666223,"4842 PREMIER","LONG BEACH","CA",90808,33.846037295,-118.130732984,223,"4842 PREMIER, LONG BEACH, CA, 90808","Match","Non_Exact","4842 PREMIERE AVE, LONG BEACH, CA, 90808",141699879,"R"
666224,"4842 SAPPHIRE LIGHT STREET","NO. LAS VEGAS","NV",89081,36.248370165,-115.126403428,224,"4842 SAPPHIRE LIGHT STREET, NO. LAS VEGAS, NV, 89081","Match","Exact","4842 SAPPHIRE LIGHT ST, N LAS VEGAS, NV, 89081",201981313,"R"
666225,"4842 SEDALIA STREET","DALLAS","TX",75216,32.6994945650001,-96.767626046,225,"4842 SEDALIA STREET, DALLAS, TX, 75216","Match","Exact","4842 SEDALIA ST, DALLAS, TX, 75216",102956711,"L"
666226,"4842 SISKIYOU AVE","DUNSMUIR","CA",96025,41.224483863,-122.274788332,226,"4842 SISKIYOU AVE, DUNSMUIR, CA, 96025","Match","Exact","4842 SISKIYOU AVE, DUNSMUIR, CA, 96025",113273620,"R"
666227,"4842 SNOWDEN AVE","LAKEWOOD","CA",90713,33.8456773780001,-118.111341048,227,"4842 SNOWDEN AVE, LAKEWOOD, CA, 90713","Match","Exact","4842 SNOWDEN AVE, LAKEWOOD, CA, 90713",142693215,"R"
666228,"4842 ST RT 734","JEFFERSONVILLE","OH",43128,39.651384308,-83.613944358,228,"4842 ST RT 734, JEFFERSONVILLE, OH, 43128","Match","Non_Exact","4842 STATE RTE 734, JEFFERSONVILLE, OH, 43128",119057972,"R"
666229,"4842 SUMMERDALE AVENUE","PHILADELPHIA","PA",19124,40.027815085,-75.0960320999999,229,"4842 SUMMERDALE AVENUE, PHILADELPHIA, PA, 19124","Match","Exact","4842 SUMMERDALE AVE, PHILADELPHIA, PA, 19124",131426673,"L"
666230,"4842 SUMMERHILL DRIVE","COUNTRY CLUB HILLS","IL",60478,41.56029454,-87.735988408,230,"4842 SUMMERHILL DRIVE, COUNTRY CLUB HILLS, IL, 60478","Match","Exact","4842 SUMMERHILL DR, COUNTRY CLUB HILLS, IL, 60478",624427116,"R"
666231,"4842 TURNER HALL ROAD","BELLEVILLE","IL",62220,38.4106017510001,-90.034337861,231,"4842 TURNER HALL ROAD, BELLEVILLE, IL, 62220","Match","Exact","4842 TURNER HALL RD, BELLEVILLE, IL, 62220",107933324,"R"
666232,"4842 W MYSTIC COVE WAY","GARDEN CITY","ID",83703,43.6435865980001,-116.256441862,232,"4842 W MYSTIC COVE WAY, GARDEN CITY, ID, 83703","Match","Non_Exact","4842 W MYSTIC COVE WAY, GARDEN CITY, ID, 83714",117935315,"R"
666233,"4842 W WRIGHT TERRACE","SKOKIE","ID",60077,NA,NA,233,"4842 W WRIGHT TERRACE, SKOKIE, ID, 60077","No_Match",NA,NA,NA,NA
666234,"4842 W WRIGHT TERRACE","SKOKIE","IL",60077,42.036242449,-87.7485079639999,234,"4842 W WRIGHT TERRACE, SKOKIE, IL, 60077","Match","Exact","4842 WRIGHT TER, SKOKIE, IL, 60077",605248667,"R"
666235,"4842 WILLIAM PENN HWY","MIFFLINTOWN","OR",17059,NA,NA,235,"4842 WILLIAM PENN HWY, MIFFLINTOWN, OR, 17059","No_Match",NA,NA,NA,NA
666236,"4842 WYNDHURST RD","LEXINGTON","KY",40515,37.9568192180001,-84.476593698,236,"4842 WYNDHURST RD, LEXINGTON, KY, 40515","Match","Exact","4842 WYNDHURST RD, LEXINGTON, KY, 40515",31934368,"L"
666237,"48421 SURFSIDE DRIVE","LEXINGTON PARK","MD",20653,38.259614566,-76.400854873,237,"48421 SURFSIDE DRIVE, LEXINGTON PARK, MD, 20653","Match","Exact","48421 SURFSIDE DR, LEXINGTON PARK, MD, 20653",628527801,"R"
666238,"48423 826TH ROAD","ERICSON","NE",68637,NA,NA,238,"48423 826TH ROAD, ERICSON, NE, 68637","No_Match",NA,NA,NA,NA
666239,"484278 SWEABURG ROAD","BEACHVILLE ON","OH",0,NA,NA,239,"484278 SWEABURG ROAD, BEACHVILLE ON, OH, 0","No_Match",NA,NA,NA,NA
666240,"48428 SW 17TH PL 5B","CAPE CORAL","FL",33914,NA,NA,240,"48428 SW 17TH PL 5B, CAPE CORAL, FL, 33914","No_Match",NA,NA,NA,NA
666241,"4842A PENROSE","SAINT LOUIS","MO",63115,38.6798050880001,-90.243474427,241,"4842A PENROSE, SAINT LOUIS, MO, 63115","Match","Non_Exact","4842 PENROSE ST, SAINT LOUIS, MO, 63115",605098101,"L"
666242,"4842A PENROSE","ST. LOUIS","MO",63115,38.6798050880001,-90.243474427,242,"4842A PENROSE, ST. LOUIS, MO, 63115","Match","Non_Exact","4842 PENROSE ST, SAINT LOUIS, MO, 63115",605098101,"L"
666243,"4843 57TH ST SW","WAVERLY","MN",55390,45.0693437400001,-93.987541501,243,"4843 57TH ST SW, WAVERLY, MN, 55390","Match","Exact","4843 57TH ST SW, WAVERLY, MN, 55390",44009940,"R"
666244,"4843 65TH STREET","WOODSIDE","NY",11377,NA,NA,244,"4843 65TH STREET, WOODSIDE, NY, 11377","No_Match",NA,NA,NA,NA
666245,"4843 BIG OAKS LANE","ORLANDO","FL",32806,28.493853775,-81.353962742,245,"4843 BIG OAKS LANE, ORLANDO, FL, 32806","Match","Exact","4843 BIG OAKS LN, ORLANDO, FL, 32806",94287406,"L"
666246,"4843 BLUFF DRIVE NE","MOSES LAKE","WA",98837,47.157685047,-119.242396236,246,"4843 BLUFF DRIVE NE, MOSES LAKE, WA, 98837","Match","Exact","4843 BLUFF DR NE, MOSES LAKE, WA, 98837",157105657,"L"
666247,"4843 BRANCH GROVE COURT","INDIANAPOLIS","IN",46234,39.8411237380001,-86.3232138389999,247,"4843 BRANCH GROVE COURT, INDIANAPOLIS, IN, 46234","Match","Exact","4843 BRANCH GROVE CT, INDIANAPOLIS, IN, 46234",646993129,"R"
666248,"4843 COUNTY ROAD 74","SELMA","AL",36703,32.3460224470001,-86.9055816429999,248,"4843 COUNTY ROAD 74, SELMA, AL, 36703","Match","Exact","4843 CO RD 74, SELMA, AL, 36703",1307752,"R"
666249,"4843 DORI PARK DR","HILLIARD","OH",43026,39.9963074550001,-83.1400534209999,249,"4843 DORI PARK DR, HILLIARD, OH, 43026","Match","Exact","4843 DORI PARK DR, HILLIARD, OH, 43026",135631100,"L"
666250,"4843 E GREENWICH PL","HIGHLANDS RANCH","CO",80130,39.553014209,-104.931574015,250,"4843 E GREENWICH PL, HIGHLANDS RANCH, CO, 80130","Match","Exact","4843 E GREENWICH PL, HIGHLANDS RANCH, CO, 80130",130818879,"R"
666251,"4843 E VIA AZUFRE","TUCSON","AZ",85712,NA,NA,251,"4843 E VIA AZUFRE, TUCSON, AZ, 85712","No_Match",NA,NA,NA,NA
666252,"4843 FAIRMOUNTAVE","PHILADELPHIA","PA",19104,NA,NA,252,"4843 FAIRMOUNTAVE, PHILADELPHIA, PA, 19104","No_Match",NA,NA,NA,NA
666253,"4843 GREENBURG DR","SAINT PETERS","MO",63304,38.724983939,-90.628314244,253,"4843 GREENBURG DR, SAINT PETERS, MO, 63304","Match","Exact","4843 GREENBURG DR, SAINT PETERS, MO, 63304",605596200,"R"
666254,"4843 INDIAN AVENUE","ORANGE CITY","IA",51041,42.9472569320001,-96.095782408,254,"4843 INDIAN AVENUE, ORANGE CITY, IA, 51041","Match","Exact","4843 INDIAN AVE, ORANGE CITY, IA, 51041",93368050,"L"
666255,"4843 KENSINGTON AVE","DETROIT","MI",48224,42.402839692,-82.934421769,255,"4843 KENSINGTON AVE, DETROIT, MI, 48224","Match","Non_Exact","4843 KENSINGTON, DETROIT, MI, 48224",95487265,"L"
666256,"4843 LEDGE AVENUE","NORTH HOLLYWOOD","CA",91601,34.15846243,-118.357148224,256,"4843 LEDGE AVENUE, NORTH HOLLYWOOD, CA, 91601","Match","Exact","4843 LEDGE AVE, N HOLLYWOOD, CA, 91601",141592143,"L"
666257,"4843 N WINTHROP AVE 3N","CHICAGO","IL",60640,41.9701671930001,-87.6576368789999,257,"4843 N WINTHROP AVE 3N, CHICAGO, IL, 60640","Match","Non_Exact","4843 N WINTHROP AVE, CHICAGO, IL, 60640",111761533,"R"
666258,"4843 NAAMAN FOREST BLVD","GARLAND","TX",75040,32.95916392,-96.6374693339999,258,"4843 NAAMAN FOREST BLVD, GARLAND, TX, 75040","Match","Exact","4843 NAAMAN FOREST BLVD, GARLAND, TX, 75040",103163720,"R"
666259,"4843 NORTH WINTHROP UNIT GN","CHICAGO","IL",60640,41.970148561,-87.657636327,259,"4843 NORTH WINTHROP UNIT GN, CHICAGO, IL, 60640","Match","Non_Exact","4843 N WINTHROP AVE, CHICAGO, IL, 60640",111761533,"R"
666260,"4843 NOTTINGHAM PL","SHOREVIEW","MN",55126,45.0871887330001,-93.1406849049999,260,"4843 NOTTINGHAM PL, SHOREVIEW, MN, 55126","Match","Exact","4843 NOTTINGHAM PL, SHOREVIEW, MN, 55126",97635078,"L"
666261,"4843 PACHUCA CT","DALLAS","TX",75236,32.681848008,-96.904568569,261,"4843 PACHUCA CT, DALLAS, TX, 75236","Match","Exact","4843 PACHUCA CT, DALLAS, TX, 75236",619137486,"R"
666262,"4843 PRESERVER CREEK CT","SPRING","TX",77389,NA,NA,262,"4843 PRESERVER CREEK CT, SPRING, TX, 77389","No_Match",NA,NA,NA,NA
666263,"4843 S DARLINGTON AVE APT 8E","TULSA","OK",74135,36.0930910450001,-95.917785712,263,"4843 S DARLINGTON AVE APT 8E, TULSA, OK, 74135","Match","Non_Exact","4843 S DARLINGTON AVE, TULSA, OK, 74135",611254378,"L"
666264,"4843 STAFFORD NW","ALBUQUERQUE","NM",87120,35.1382118290001,-106.701431463,264,"4843 STAFFORD NW, ALBUQUERQUE, NM, 87120","Match","Non_Exact","4843 STAFFORD PL NW, ALBUQUERQUE, NM, 87120",627952343,"R"
666265,"4843 SW COUNTRY LN","EL DORADO","KS",67042,37.7536288490001,-96.947096341,265,"4843 SW COUNTRY LN, EL DORADO, KS, 67042","Match","Exact","4843 SW COUNTRY LN, EL DORADO, KS, 67042",32276596,"L"
666266,"4843 TUTTLES BROOKE DR","DUBLIN","OH",43016,40.066739827,-83.14453556,266,"4843 TUTTLES BROOKE DR, DUBLIN, OH, 43016","Match","Exact","4843 TUTTLES BROOKE DR, DUBLIN, OH, 43016",218684777,"L"
666267,"4843 VICKY ROAD","NOTTINGHAM","MD",21236,39.3978483990001,-76.4542050709999,267,"4843 VICKY ROAD, NOTTINGHAM, MD, 21236","Match","Exact","4843 VICKY RD, NOTTINGHAM, MD, 21236",191479905,"R"
666268,"4843 W BALMORAL AVE","CHICAGO","IL",60630,41.9789647040001,-87.749386995,268,"4843 W BALMORAL AVE, CHICAGO, IL, 60630","Match","Exact","4843 W BALMORAL AVE, CHICAGO, IL, 60630",605175474,"L"
666269,"4843 W BRYCE LN","GLENDALE","AZ",85301,33.550207803,-112.163624739,269,"4843 W BRYCE LN, GLENDALE, AZ, 85301","Match","Non_Exact","4843 W BRYCE AVE, GLENDALE, AZ, 85301",128196211,"L"
666270,"4843 W KAMERING","CHICAGO","IL",60651,NA,NA,270,"4843 W KAMERING, CHICAGO, IL, 60651","No_Match",NA,NA,NA,NA
666271,"4843 W WELLINGTON AVE","CHICAGO","IL",60641,41.935159437,-87.748204694,271,"4843 W WELLINGTON AVE, CHICAGO, IL, 60641","Match","Exact","4843 W WELLINGTON AVE, CHICAGO, IL, 60641",605161902,"L"
666272,"4843 WATER OAK DR","PASADENA","TX",77505,29.6378751930001,-95.144349206,272,"4843 WATER OAK DR, PASADENA, TX, 77505","Match","Exact","4843 WATER OAK DR, PASADENA, TX, 77505",96556424,"L"
666273,"4843 WEXFORD TRAIL","COLLEGE PARK","GA",30349,33.605589229,-84.5471596209999,273,"4843 WEXFORD TRAIL, COLLEGE PARK, GA, 30349","Match","Exact","4843 WEXFORD TRL, COLLEGE PARK, GA, 30349",624042260,"L"
666274,"4843 WICKVIEW LANE","HOUSTON","TX",77051,29.5991833750001,-95.4516938629999,274,"4843 WICKVIEW LANE, HOUSTON, TX, 77051","Match","Non_Exact","4843 WICKVIEW LN, HOUSTON, TX, 77053",96041124,"L"
666275,"4843 WICKVIEW LANE","HOUSTON","TX",77088,29.5991833750001,-95.4516938629999,275,"4843 WICKVIEW LANE, HOUSTON, TX, 77088","Match","Non_Exact","4843 WICKVIEW LN, HOUSTON, TX, 77053",96041124,"L"
666276,"4843 WICKVIEW LN","HOUSTON","TX",77053,29.5991833750001,-95.4516938629999,276,"4843 WICKVIEW LN, HOUSTON, TX, 77053","Match","Exact","4843 WICKVIEW LN, HOUSTON, TX, 77053",96041124,"L"
666277,"4843 WOLFCREEK","COLLEGE PARK","GA",30349,33.632683279,-84.5508301579999,277,"4843 WOLFCREEK, COLLEGE PARK, GA, 30349","Match","Non_Exact","4843 WOLFCREEK VW, COLLEGE PARK, GA, 30349",627597164,"L"
666278,"4844 ALDRICH AVE S","MINNEAPOLIS","MN",55419,44.9151112270001,-93.289569947,278,"4844 ALDRICH AVE S, MINNEAPOLIS, MN, 55419","Match","Exact","4844 ALDRICH AVE S, MINNEAPOLIS, MN, 55419",43629097,"R"
666279,"4844 BANNER ELK DRIVE","STONE MOUNTAIN","GA",30083,33.774511967,-84.1986661999999,279,"4844 BANNER ELK DRIVE, STONE MOUNTAIN, GA, 30083","Match","Exact","4844 BANNER ELK DR, STONE MOUNTAIN, GA, 30083",23371769,"L"
666280,"4844 CASON COVE DR","ORLANDO","FL",32811,28.499432402,-81.443094915,280,"4844 CASON COVE DR, ORLANDO, FL, 32811","Match","Exact","4844 CASON COVE DR, ORLANDO, FL, 32811",606117653,"L"
666281,"4844 COOPER ROAD","LOWELLVILLE","OH",44436,41.0785002910001,-80.55141553,281,"4844 COOPER ROAD, LOWELLVILLE, OH, 44436","Match","Exact","4844 COOPER RD, LOWELLVILLE, OH, 44436",648559919,"L"
666282,"4844 DEER FOOT COVE","PINSON","AL",35126,33.697083068,-86.641804049,282,"4844 DEER FOOT COVE, PINSON, AL, 35126","Match","Non_Exact","4844 DEERFOOT COVE, PINSON, AL, 35126",646688026,"R"
666283,"4844 GRANDVIEW CT NE","COLUMBIA HEIGHTS","MN",55421,45.0558275610001,-93.2441528429999,283,"4844 GRANDVIEW CT NE, COLUMBIA HEIGHTS, MN, 55421","Match","Exact","4844 GRANDVIEW CT NE, COLUMBIA HEIGHTS, MN, 55421",642889218,"L"
666284,"4844 HILAND DRIVE","BLAIR","NE",68008,41.4485657860001,-96.121512518,284,"4844 HILAND DRIVE, BLAIR, NE, 68008","Match","Exact","4844 HILAND DR, BLAIR, NE, 68008",176758537,"R"
666285,"4844 HILLSIDE AVE","FORT WORTH","TX",76119,32.6913158460001,-97.259105259,285,"4844 HILLSIDE AVE, FORT WORTH, TX, 76119","Match","Exact","4844 HILLSIDE AVE, FORT WORTH, TX, 76119",101898888,"R"
666286,"4844 HWY T","POPLAR BLUFF","MO",63901,NA,NA,286,"4844 HWY T, POPLAR BLUFF, MO, 63901","No_Match",NA,NA,NA,NA
666287,"4844 LAMPASAS RD","ACTON","CA",93510,34.53178232,-118.218845284,287,"4844 LAMPASAS RD, ACTON, CA, 93510","Match","Exact","4844 LAMPASAS RD, ACTON, CA, 93510",641534329,"L"
666288,"4844 MANCHESTER ROAD","MOUND","MN",55364,44.924761871,-93.644218619,288,"4844 MANCHESTER ROAD, MOUND, MN, 55364","Match","Exact","4844 MANCHESTER RD, MOUND, MN, 55364",43677985,"R"
666289,"4844 N 300 W STE 300","PROVO","UT",84604,NA,NA,289,"4844 N 300 W STE 300, PROVO, UT, 84604","No_Match",NA,NA,NA,NA
666290,"4844 NORTH OAKS DRIVE","WARREN","MI",48902,NA,NA,290,"4844 NORTH OAKS DRIVE, WARREN, MI, 48902","No_Match",NA,NA,NA,NA
666291,"4844 PEREGRINE POINT CIRCLE NORTH","SARASOTA","FL",34231,27.2835412860001,-82.5356590489999,291,"4844 PEREGRINE POINT CIRCLE NORTH, SARASOTA, FL, 34231","Match","Exact","4844 PEREGRINE POINT CIR N, SARASOTA, FL, 34231",16405693,"L"
666292,"4844 REDCASTLE RIDGE","NASHVILLE","TN",37211,36.018657741,-86.733441238,292,"4844 REDCASTLE RIDGE, NASHVILLE, TN, 37211","Match","Exact","4844 REDCASTLE RIDGE, NASHVILLE, TN, 37211",97227889,"R"
666293,"4844 S 15TH PLACE","MILWAUKEE","WI",53221,42.9567140600001,-87.933203608,293,"4844 S 15TH PLACE, MILWAUKEE, WI, 53221","Match","Exact","4844 S 15TH PL, MILWAUKEE, WI, 53221",77752148,"L"
666294,"4844 S BROADWAY","SAINT LOUIS","MO",63111,38.568425549,-90.2373119219999,294,"4844 S BROADWAY, SAINT LOUIS, MO, 63111","Match","Exact","4844 S BROADWAY, SAINT LOUIS, MO, 63111",605138510,"L"
666295,"4844 S COBBLESTONE DR","ZIONSVILLE","IN",46077,39.969659742,-86.2964041449999,295,"4844 S COBBLESTONE DR, ZIONSVILLE, IN, 46077","Match","Exact","4844 S COBBLESTONE DR, ZIONSVILLE, IN, 46077",617326266,"R"
666296,"4844 SOUTH MAIN STREET","AKRON","OH",44319,40.9583040430001,-81.529671047,296,"4844 SOUTH MAIN STREET, AKRON, OH, 44319","Match","Exact","4844 S MAIN ST, AKRON, OH, 44319",61359459,"R"
666297,"4844 SPARTA ROAD","BELTON","TX",76513,31.094439277,-97.507178099,297,"4844 SPARTA ROAD, BELTON, TX, 76513","Match","Exact","4844 SPARTA RD, BELTON, TX, 76513",146180857,"L"
666298,"4844 SUNRISE HIGHWAY","SAYVILLE","NY",11782,NA,NA,298,"4844 SUNRISE HIGHWAY, SAYVILLE, NY, 11782","No_Match",NA,NA,NA,NA
666299,"4844 W CORTEZ","CHICAGO","IL",60651,41.899589658,-87.747371815,299,"4844 W CORTEZ, CHICAGO, IL, 60651","Match","Non_Exact","4844 W CORTEZ ST, CHICAGO, IL, 60651",605048215,"R"
666300,"4844 WATERSIDE DR","LEXINGTON","KY",40513,37.988748081,-84.595447448,300,"4844 WATERSIDE DR, LEXINGTON, KY, 40513","Match","Exact","4844 WATERSIDE DR, LEXINGTON, KY, 40513",31955640,"L"
666301,"48441 HWY 105","JEFFERSON","SD",57038,NA,NA,301,"48441 HWY 105, JEFFERSON, SD, 57038","No_Match",NA,NA,NA,NA
666302,"48441 TORNADO RD","RACINE","OH",45771,38.97211651,-81.8907641019999,302,"48441 TORNADO RD, RACINE, OH, 45771","Match","Exact","48441 TORNADO RD, RACINE, OH, 45771",101266868,"R"
666303,"48441 TORNADO ROAD","RACINE","OH",45771,38.97211651,-81.8907641019999,303,"48441 TORNADO ROAD, RACINE, OH, 45771","Match","Exact","48441 TORNADO RD, RACINE, OH, 45771",101266868,"R"
666304,"48449 STONE ACRE","MACOMB","MI",48042,42.653600274,-82.906537685,304,"48449 STONE ACRE, MACOMB, MI, 48042","Match","Non_Exact","48449 STONE ACRE, MACOMB, MI, 48044",110732249,"L"
666305,"4845 200TH TRLN","LOXAHATCHEE","FL",33470,NA,NA,305,"4845 200TH TRLN, LOXAHATCHEE, FL, 33470","No_Match",NA,NA,NA,NA
666306,"4845 50TH ST","SAN DIEGO","CA",92115,32.765442894,-117.086461159,306,"4845 50TH ST, SAN DIEGO, CA, 92115","Match","Exact","4845 50TH ST, SAN DIEGO, CA, 92115",195349965,"R"
666307,"4845 ASHLEY PARK LN APT 204","CHARLOTTE","NC",28210,35.1469808800001,-80.829741021,307,"4845 ASHLEY PARK LN APT 204, CHARLOTTE, NC, 28210","Match","Exact","4845 ASHLEY PARK LN, CHARLOTTE, NC, 28210",644783353,"L"
666308,"4845 ASHLEY PARK LN APT 306","CHARLOTTE","NC",28210,35.1469808800001,-80.829741021,308,"4845 ASHLEY PARK LN APT 306, CHARLOTTE, NC, 28210","Match","Exact","4845 ASHLEY PARK LN, CHARLOTTE, NC, 28210",644783353,"L"
666309,"4845 ASHLEY PARK ROAD APT 332","CHARLOTTE","NC",28210,35.1469808800001,-80.829741021,309,"4845 ASHLEY PARK ROAD APT 332, CHARLOTTE, NC, 28210","Match","Non_Exact","4845 ASHLEY PARK LN, CHARLOTTE, NC, 28210",644783353,"L"
666310,"4845 BRAYTON AVE","LONG BEACH","CA",90807,33.845627087,-118.176012774,310,"4845 BRAYTON AVE, LONG BEACH, CA, 90807","Match","Exact","4845 BRAYTON AVE, LONG BEACH, CA, 90807",141684800,"L"
666311,"4845 BUTTERYFLY DR","PRESCOTT","AZ",86301,34.550801983,-112.392901037,311,"4845 BUTTERYFLY DR, PRESCOTT, AZ, 86301","Match","Non_Exact","4845 BUTTERFLY DR, PRESCOTT, AZ, 86301",159456817,"R"
666312,"4845 CEDAR SPRINGS RD","DALLAS","TX",75219,32.8193551470001,-96.82113336,312,"4845 CEDAR SPRINGS RD, DALLAS, TX, 75219","Match","Exact","4845 CEDAR SPRINGS RD, DALLAS, TX, 75219",652301680,"L"
666313,"4845 CLASSIC LANE","WEST PALM BEACH","FL",33417,26.734259396,-80.1154327,313,"4845 CLASSIC LANE, WEST PALM BEACH, FL, 33417","Match","Exact","4845 CLASSIC LN, WEST PALM BEACH, FL, 33417",115338538,"L"
666314,"4845 CLOVER ST","HOUSTON","TX",77033,29.660752643,-95.3521806959999,314,"4845 CLOVER ST, HOUSTON, TX, 77033","Match","Exact","4845 CLOVER ST, HOUSTON, TX, 77033",96089809,"L"
666315,"4845 COLLEEN ST","WICHITA FALLS","TX",76302,33.855187933,-98.480112671,315,"4845 COLLEEN ST, WICHITA FALLS, TX, 76302","Match","Non_Exact","4845 COLLEEN DR, WICHITA FALLS, TX, 76302",169846485,"L"
666316,"4845 COLLEGE ACRES DRIVE","WILMINGTON","NC",28403,34.2301078940001,-77.8684979939999,316,"4845 COLLEGE ACRES DRIVE, WILMINGTON, NC, 28403","Match","Exact","4845 COLLEGE ACRES DR, WILMINGTON, NC, 28403",152741536,"L"
666317,"4845 DALLAS HIGHWAY","POWDER SPRINGS","GA",30127,33.943944263,-84.693094112,317,"4845 DALLAS HIGHWAY, POWDER SPRINGS, GA, 30127","Match","Exact","4845 DALLAS HWY, POWDER SPGS, GA, 30127",17254080,"L"
666318,"4845 DARTMOOR LANE","SUWANEE","GA",30024,34.0872637580001,-84.13588515,318,"4845 DARTMOOR LANE, SUWANEE, GA, 30024","Match","Exact","4845 DARTMOOR LN, SUWANEE, GA, 30024",70188185,"L"
666319,"4845 E CALLE BARRIL","TUCSON","AZ",85718,32.294338082,-110.889447235,319,"4845 E CALLE BARRIL, TUCSON, AZ, 85718","Match","Non_Exact","4845 E CLL BARRIL, TUCSON, AZ, 85718",121177454,"L"
666320,"4845 EAST 135TH STREET","GARFIELD HEIGHTS","OH",44125,41.4285517210001,-81.5886298889999,320,"4845 EAST 135TH STREET, GARFIELD HEIGHTS, OH, 44125","Match","Exact","4845 E 135TH ST, GARFIELD HEIGHTS, OH, 44125",61127071,"L"
666321,"4845 EAST BRILL STREET","PHOENIX","AZ",85008,33.464221073,-111.977409276,321,"4845 EAST BRILL STREET, PHOENIX, AZ, 85008","Match","Exact","4845 E BRILL ST, PHOENIX, AZ, 85008",128223973,"R"
666322,"4845 ELISE FAYE HEGGINS APT 1405","DALLAS","TX",75210,32.7735017580001,-96.738120613,322,"4845 ELISE FAYE HEGGINS APT 1405, DALLAS, TX, 75210","Match","Non_Exact","4845 ELSIE FAYE HEGGINS ST, DALLAS, TX, 75210",103229434,"L"
666323,"4845 ELSIE FAYE HEGGINS 105","DALLAS","TX",75210,32.7735017580001,-96.738120613,323,"4845 ELSIE FAYE HEGGINS 105, DALLAS, TX, 75210","Match","Non_Exact","4845 ELSIE FAYE HEGGINS ST, DALLAS, TX, 75210",103229434,"L"
666324,"4845 ELSIE FAYE HEGGINS","DALLAS","TX",75210,32.7735017580001,-96.738120613,324,"4845 ELSIE FAYE HEGGINS, DALLAS, TX, 75210","Match","Non_Exact","4845 ELSIE FAYE HEGGINS ST, DALLAS, TX, 75210",103229434,"L"
666325,"4845 FARBER ROW","COLUMBUS","OH",43221,40.0535991520001,-83.117690129,325,"4845 FARBER ROW, COLUMBUS, OH, 43221","Match","Exact","4845 FARBER ROW, COLUMBUS, OH, 43221",218568251,"R"
666326,"4845 FENNER RD","TROY","OH",45373,40.0234763780001,-84.293086494,326,"4845 FENNER RD, TROY, OH, 45373","Match","Exact","4845 FENNER RD, TROY, OH, 45373",207645589,"L"
666327,"4845 FRANKLIN POND","ATLANTA","GA",30342,33.8865097030001,-84.373553633,327,"4845 FRANKLIN POND, ATLANTA, GA, 30342","Match","Non_Exact","4845 FRANKLIN POND RD, ATLANTA, GA, 30342",17368258,"R"
666328,"4845 GRAMERCY OAKS DR APT 146","DALLAS","TX",75287,33.010962939,-96.82440013,328,"4845 GRAMERCY OAKS DR APT 146, DALLAS, TX, 75287","Match","Exact","4845 GRAMERCY OAKS DR, DALLAS, TX, 75287",642947494,"L"
666329,"4845 GRAMERCY OAKS DR","DALLAS","TX",75287,33.010962939,-96.82440013,329,"4845 GRAMERCY OAKS DR, DALLAS, TX, 75287","Match","Exact","4845 GRAMERCY OAKS DR, DALLAS, TX, 75287",642947494,"L"
666330,"4845 GREEN RD","WARRENSVILLE HTS","OH",44128,41.4283771710001,-81.5170263699999,330,"4845 GREEN RD, WARRENSVILLE HTS, OH, 44128","Match","Exact","4845 GREEN RD, WARRENSVILLE HEIGHTS, OH, 44128",61152058,"L"
666331,"4845 HAMILTON ROAD","MINNETONKA","MN",55345,44.913996264,-93.481433943,331,"4845 HAMILTON ROAD, MINNETONKA, MN, 55345","Match","Exact","4845 HAMILTON RD, MINNETONKA, MN, 55345",43825434,"L"
666332,"4845 JONES RD","FAIRBURN","GA",30213,33.627297044,-84.6124740499999,332,"4845 JONES RD, FAIRBURN, GA, 30213","Match","Exact","4845 JONES RD, FAIRBURN, GA, 30213",647365336,"R"
666333,"4845 KONOCTI RD","KELSEYVILLE","CA",95451,NA,NA,333,"4845 KONOCTI RD, KELSEYVILLE, CA, 95451","No_Match",NA,NA,NA,NA
666334,"4845 LAKE STREET STE 342","LAKE CHARLES","LA",70605,30.1707314180001,-93.232324212,334,"4845 LAKE STREET STE 342, LAKE CHARLES, LA, 70605","Match","Exact","4845 LAKE ST, LAKE CHARLES, LA, 70605",88438243,"L"
666335,"4845 LEGACY OAKS DR","ORLANDO","FL",32839,28.492332166,-81.384970427,335,"4845 LEGACY OAKS DR, ORLANDO, FL, 32839","Match","Exact","4845 LEGACY OAKS DR, ORLANDO, FL, 32839",627994832,"R"
666336,"4845 MILLER RIDGE ROAD","DUBLIN","VA",24084,37.125316873,-80.7205832239999,336,"4845 MILLER RIDGE ROAD, DUBLIN, VA, 24084","Match","Exact","4845 MILLER RIDGE RD, DUBLIN, VA, 24084",47016342,"L"
666337,"4845 N CLAREMONT","CHICAGO","IL",60625,41.9696777180001,-87.6877164749999,337,"4845 N CLAREMONT, CHICAGO, IL, 60625","Match","Non_Exact","4845 N CLAREMONT AVE, CHICAGO, IL, 60625",605184514,"R"
666338,"4845 N HARDING UNIT 2","CHICAGO","IL",60625,NA,NA,338,"4845 N HARDING UNIT 2, CHICAGO, IL, 60625","No_Match",NA,NA,NA,NA
666339,"4845 NEWTON TOAD","HAMBURG","NY",14075,42.719275673,-78.8029783979999,339,"4845 NEWTON TOAD, HAMBURG, NY, 14075","Match","Non_Exact","4845 NEWTON RD, HAMBURG, NY, 14075",48343350,"R"
666340,"4845 PHIPPS DR","MEMPHIS","TN",38125,35.016083607,-89.806085556,340,"4845 PHIPPS DR, MEMPHIS, TN, 38125","Match","Exact","4845 PHIPPS DR, MEMPHIS, TN, 38125",72967121,"R"
666341,"4845 PINE GROVE CIRCLE","ALLENTOWN","PA",18106,40.5606084020001,-75.548569958,341,"4845 PINE GROVE CIRCLE, ALLENTOWN, PA, 18106","Match","Exact","4845 PINE GROVE CIR, ALLENTOWN, PA, 18106",80759363,"L"
666342,"4845 PLYMOUTH ROCK PLACE","FAYETTEVILLE","AR",72704,36.0884688300001,-94.2295742269999,342,"4845 PLYMOUTH ROCK PLACE, FAYETTEVILLE, AR, 72704","Match","Exact","4845 PLYMOUTH ROCK PL, FAYETTEVILLE, AR, 72704",49092814,"R"
666343,"4845 RANCHVIEW DRIVE","PLYMOUTH","MN",55446,NA,NA,343,"4845 RANCHVIEW DRIVE, PLYMOUTH, MN, 55446","No_Match",NA,NA,NA,NA
666344,"4845 RENFREW DRIVE","CONCORD","NC",28027,35.349212213,-80.6262332379999,344,"4845 RENFREW DRIVE, CONCORD, NC, 28027","Match","Exact","4845 RENFREW DR, CONCORD, NC, 28027",24916879,"R"
666345,"4845 RUSSELL AVE","MINNEAPOLIS","MN",55410,44.915282259,-93.3112669,345,"4845 RUSSELL AVE, MINNEAPOLIS, MN, 55410","Match","Non_Exact","4845 RUSSELL AVE S, MINNEAPOLIS, MN, 55410",43835159,"L"
666346,"4845 S ELLIS AVE","CHICAGO","IL",60615,41.806924877,-87.601636808,346,"4845 S ELLIS AVE, CHICAGO, IL, 60615","Match","Exact","4845 S ELLIS AVE, CHICAGO, IL, 60615",111771521,"L"
666347,"4845 SAPPHIRE WAY","CYPRESS","CA",90630,33.8320424130001,-118.048640063,347,"4845 SAPPHIRE WAY, CYPRESS, CA, 90630","Match","Exact","4845 SAPPHIRE WAY, CYPRESS, CA, 90630",623689658,"R"
666348,"4845 SOUTH ELLIS AVENUE","CHICAGO","IL",60615,41.806939217,-87.601637071,348,"4845 SOUTH ELLIS AVENUE, CHICAGO, IL, 60615","Match","Exact","4845 S ELLIS AVE, CHICAGO, IL, 60615",111771521,"L"
666349,"4845 SOUTHEASTERN AVENUE","INDIANAPOLIS","IN",46203,39.746626318,-86.08645569,349,"4845 SOUTHEASTERN AVENUE, INDIANAPOLIS, IN, 46203","Match","Exact","4845 SOUTHEASTERN AVE, INDIANAPOLIS, IN, 46203",108001744,"R"
666350,"4845 TRANSIT RD APT D1","DEPEW","NY",14043,42.8738989940001,-78.696920135,350,"4845 TRANSIT RD APT D1, DEPEW, NY, 14043","Match","Exact","4845 TRANSIT RD, DEPEW, NY, 14043",624415670,"R"
666351,"4845 TRANSIT RD APT P6","DEPEW","NY",14043,42.8738989940001,-78.696920135,351,"4845 TRANSIT RD APT P6, DEPEW, NY, 14043","Match","Exact","4845 TRANSIT RD, DEPEW, NY, 14043",624415670,"R"
666352,"4845 TRANSIT ROAD APT S2","DEPEW","NY",14043,42.8738989940001,-78.696920135,352,"4845 TRANSIT ROAD APT S2, DEPEW, NY, 14043","Match","Exact","4845 TRANSIT RD, DEPEW, NY, 14043",624415670,"R"
666353,"4845 TURKEY TRACK ROAD","MARTINSVILLE","IN",46151,39.3543037640001,-86.498562372,353,"4845 TURKEY TRACK ROAD, MARTINSVILLE, IN, 46151","Match","Exact","4845 TURKEY TRACK RD, MARTINSVILLE, IN, 46151",43556064,"R"
666354,"4845 VENEDY RD","MARISSA","IL",62257,38.392819418,-89.708595557,354,"4845 VENEDY RD, MARISSA, IL, 62257","Match","Exact","4845 VENEDY RD, MARISSA, IL, 62257",647688428,"R"
666355,"4845 W 123RD ST UNIT 204","SAVAGE","MN",55378,44.778398581,-93.3408754279999,355,"4845 W 123RD ST UNIT 204, SAVAGE, MN, 55378","Match","Non_Exact","4845 123RD ST W, SAVAGE, MN, 55378",38143785,"R"
666356,"4845 W CYPRESS AVE","VISALIA","CA",93277,36.323594766,-119.345628323,356,"4845 W CYPRESS AVE, VISALIA, CA, 93277","Match","Exact","4845 W CYPRESS AVE, VISALIA, CA, 93277",202805932,"R"
666357,"4845 W PLATTNER ROAD","COLUMBIA CITY","IN",46725,41.185412635,-85.583455715,357,"4845 W PLATTNER ROAD, COLUMBIA CITY, IN, 46725","Match","Exact","4845 W PLATTNER RD, COLUMBIA CITY, IN, 46725",6642999,"L"
666358,"4845 WEST 215TH STREET","BUCYRUS","KS",66013,38.73813842,-94.6423666269999,358,"4845 WEST 215TH STREET, BUCYRUS, KS, 66013","Match","Exact","4845 W 215TH ST, BUCYRUS, KS, 66013",635487761,"R"
666359,"4845 WINDSONG CV","OLIVE BRANCH","MS",38654,34.9665208160001,-89.904577757,359,"4845 WINDSONG CV, OLIVE BRANCH, MS, 38654","Match","Exact","4845 WINDSONG COVE, OLIVE BRANCH, MS, 38654",91840475,"L"
666360,"4845 WRIGHT TERRACE 2ND FLOOR","SKOKIE","IL",60077,42.036234332,-87.7488621799999,360,"4845 WRIGHT TERRACE 2ND FLOOR, SKOKIE, IL, 60077","Match","Exact","4845 WRIGHT TER, SKOKIE, IL, 60077",605248667,"L"
666361,"48455 GYDE ROAD","CANTON","MI",48187,42.3428818310001,-83.5181383189999,361,"48455 GYDE ROAD, CANTON, MI, 48187","Match","Exact","48455 GYDE RD, CANTON, MI, 48187",645805941,"R"
666362,"4846  N UNIVERSITY DR UNIT 367","LAUDERHILL","FL",33351,26.1856167440001,-80.251777831,362,"4846  N UNIVERSITY DR UNIT 367, LAUDERHILL, FL, 33351","Match","Non_Exact","4846 N UNIVERSITY DR, LAUDERHILL, FL, 33351",114702882,"R"
666363,"4846 107TH AVENUE CIRCLE EAST","PARRISH","FL",34219,27.559829263,-82.453823604,363,"4846 107TH AVENUE CIRCLE EAST, PARRISH, FL, 34219","Match","Exact","4846 107TH AVENUE CIR E, PARRISH, FL, 34219",651155714,"L"
666364,"4846 35TH AVENUE N","REILES ACRES","ND",58102,46.9245028760001,-96.8685770929999,364,"4846 35TH AVENUE N, REILES ACRES, ND, 58102","Match","Exact","4846 35TH AVE N, REILES ACRES, ND, 58102",624418380,"R"
666365,"4846 47TH ST","WOODSIDE","NY",11377,NA,NA,365,"4846 47TH ST, WOODSIDE, NY, 11377","No_Match",NA,NA,NA,NA
666366,"4846 BELLE TERRE PKWY UNIT C-40","PALM COAST","FL",32164,29.560187286,-81.23858224,366,"4846 BELLE TERRE PKWY UNIT C-40, PALM COAST, FL, 32164","Match","Exact","4846 BELLE TERRE PKWY, PALM COAST, FL, 32164",647831983,"R"
666367,"4846 BELLEVIEW AVE","KANSAS CITY","MO",64112,39.0401754530001,-94.598646633,367,"4846 BELLEVIEW AVE, KANSAS CITY, MO, 64112","Match","Exact","4846 BELLEVIEW AVE, KANSAS CITY, MO, 64112",91526993,"R"
666368,"4846 BLUE SPRUCE DRIVE","SAN ANTONIO","TX",78219,29.4567905800001,-98.397279485,368,"4846 BLUE SPRUCE DRIVE, SAN ANTONIO, TX, 78219","Match","Exact","4846 BLUE SPRUCE DR, SAN ANTONIO, TX, 78219",632659480,"R"
666369,"4846 BRANDON CREEK DRIVE","BOULDER","CO",80302,40.0633785680001,-105.194793084,369,"4846 BRANDON CREEK DRIVE, BOULDER, CO, 80302","Match","Non_Exact","4846 BRANDON CREEK DR, BOULDER, CO, 80301",643508101,"R"
666370,"4846 BROADWAY","NEW YORK","NY",10034,40.866725865,-73.923910838,370,"4846 BROADWAY, NEW YORK, NY, 10034","Match","Exact","4846 BROADWAY, NEW YORK, NY, 10034",59658847,"R"
666371,"4846 CAINS WREN TR","SANFORD","FL",32771,28.830988217,-81.358966558,371,"4846 CAINS WREN TR, SANFORD, FL, 32771","Match","Exact","4846 CAINS WREN TRL, SANFORD, FL, 32771",633978185,"L"
666372,"4846 CAINS WREN TRIL","SANFORD","FL",32771,28.830988217,-81.358966558,372,"4846 CAINS WREN TRIL, SANFORD, FL, 32771","Match","Non_Exact","4846 CAINS WREN TRL, SANFORD, FL, 32771",633978185,"L"
666373,"4846 CAINS WREN TRL","SANFORD","FL",32771,28.830988217,-81.358966558,373,"4846 CAINS WREN TRL, SANFORD, FL, 32771","Match","Exact","4846 CAINS WREN TRL, SANFORD, FL, 32771",633978185,"L"
666374,"4846 COLFAX AVE N","MINNEAPOLIS","MN",55430,45.0429623690001,-93.292717456,374,"4846 COLFAX AVE N, MINNEAPOLIS, MN, 55430","Match","Exact","4846 COLFAX AVE N, MINNEAPOLIS, MN, 55430",43621781,"R"
666375,"4846 E HERITAGE CIRCLE","MUNCIE","IN",47303,40.195271405,-85.330774139,375,"4846 E HERITAGE CIRCLE, MUNCIE, IN, 47303","Match","Exact","4846 E HERITAGE CIR, MUNCIE, IN, 47303",651768724,"R"
666376,"4846 GLENWOOD AVE","LA CRESCENTA","CA",91214,34.232050316,-118.242044779,376,"4846 GLENWOOD AVE, LA CRESCENTA, CA, 91214","Match","Exact","4846 GLENWOOD AVE, LA CRESCENTA, CA, 91214",141589582,"R"
666377,"4846 HART DR","SAN DIEGO","CA",92116,32.7669853470001,-117.101642638,377,"4846 HART DR, SAN DIEGO, CA, 92116","Match","Exact","4846 HART DR, SAN DIEGO, CA, 92116",195346843,"L"
666378,"4846 HART DRIVE","SAN DIEGO","CA",92116,32.7669853470001,-117.101642638,378,"4846 HART DRIVE, SAN DIEGO, CA, 92116","Match","Exact","4846 HART DR, SAN DIEGO, CA, 92116",195346843,"L"
666379,"4846 HARVEST LANE","ZIONSVILLE","PA",18092,40.4819349100001,-75.509648509,379,"4846 HARVEST LANE, ZIONSVILLE, PA, 18092","Match","Exact","4846 HARVEST LN, ZIONSVILLE, PA, 18092",80793762,"R"
666380,"4846 JERICHO COURT","DENVER","CO",80249,39.7821010750001,-104.746661364,380,"4846 JERICHO COURT, DENVER, CO, 80249","Match","Non_Exact","4846 N JERICHO CT, DENVER, CO, 80249",606064679,"R"
666381,"4846 KITTY HAWK ST","FAIR OAKS","CA",95628,38.6546369260001,-121.223148599,381,"4846 KITTY HAWK ST, FAIR OAKS, CA, 95628","Match","Exact","4846 KITTY HAWK ST, FAIR OAKS, CA, 95628",133356626,"R"
666382,"4846 KNICKERBOCKER STREET","HOUSTON","TX",77035,29.6681502770001,-95.459557603,382,"4846 KNICKERBOCKER STREET, HOUSTON, TX, 77035","Match","Exact","4846 KNICKERBOCKER ST, HOUSTON, TX, 77035",96040195,"R"
666383,"4846 LOGAN AVE","SAN DIEGO","CA",92113,32.696809618,-117.090436783,383,"4846 LOGAN AVE, SAN DIEGO, CA, 92113","Match","Exact","4846 LOGAN AVE, SAN DIEGO, CA, 92113",195654243,"L"
666384,"4846 N  UNIVERSITY DRIVE  SUITE 200","LAUDERHILL","FL",33351,26.1856167440001,-80.251777831,384,"4846 N  UNIVERSITY DRIVE  SUITE 200, LAUDERHILL, FL, 33351","Match","Non_Exact","4846 N UNIVERSITY DR, LAUDERHILL, FL, 33351",114702882,"R"
666385,"4846 N UNIVERSITY DR STE 270","LAUDERHILL","FL",33319,NA,NA,385,"4846 N UNIVERSITY DR STE 270, LAUDERHILL, FL, 33319","No_Match",NA,NA,NA,NA
666386,"4846 N UNIVERSITY DRIVE   SUITE 200","LAUDERHILL","FL",33351,26.1856167440001,-80.251777831,386,"4846 N UNIVERSITY DRIVE   SUITE 200, LAUDERHILL, FL, 33351","Match","Non_Exact","4846 N UNIVERSITY DR, LAUDERHILL, FL, 33351",114702882,"R"
666387,"4846 N UNIVERSITY DRIVE  SUITE 200","LAUDERHILL","FL",33351,26.1856167440001,-80.251777831,387,"4846 N UNIVERSITY DRIVE  SUITE 200, LAUDERHILL, FL, 33351","Match","Non_Exact","4846 N UNIVERSITY DR, LAUDERHILL, FL, 33351",114702882,"R"
666388,"4846 N UNIVERSITY DRIVE STE 168","LAUDERHILL","FL",33351,26.1856167440001,-80.251777831,388,"4846 N UNIVERSITY DRIVE STE 168, LAUDERHILL, FL, 33351","Match","Non_Exact","4846 N UNIVERSITY DR, LAUDERHILL, FL, 33351",114702882,"R"
666389,"4846 N UNIVERSITY DRIVE SUITE 200","LAUDERHILL","FL",33351,26.1856167440001,-80.251777831,389,"4846 N UNIVERSITY DRIVE SUITE 200, LAUDERHILL, FL, 33351","Match","Non_Exact","4846 N UNIVERSITY DR, LAUDERHILL, FL, 33351",114702882,"R"
666390,"4846 NW 167 ST","MIAMI","FL",33014,25.925015789,-80.2805090529999,390,"4846 NW 167 ST, MIAMI, FL, 33014","Match","Non_Exact","4846 NW 167TH ST, MIAMI LAKES, FL, 33014",116027146,"L"
666391,"4846 NW LAKE JEFFERY ROAD","LAKE CITY","FL",32055,30.2308708470001,-82.703773014,391,"4846 NW LAKE JEFFERY ROAD, LAKE CITY, FL, 32055","Match","Exact","4846 NW LAKE JEFFERY RD, LAKE CITY, FL, 32055",606854714,"L"
666392,"4846 OAK GATE DR","CHANDLER","TX",75758,32.180982021,-95.507530612,392,"4846 OAK GATE DR, CHANDLER, TX, 75758","Match","Exact","4846 OAK GATE DR, CHANDLER, TX, 75758",125806291,"L"
666393,"4846 OASKIS WAY NE","ST MICHAEL","MN",55376,45.2239221890001,-93.586589477,393,"4846 OASKIS WAY NE, ST MICHAEL, MN, 55376","Match","Non_Exact","4846 OSAKIS WAY NE, SAINT MICHAEL, MN, 55376",651297218,"R"
666394,"4846 SADDLEHORN COVE","MEMPHIS","TN",38125,35.0162115410001,-89.7972615909999,394,"4846 SADDLEHORN COVE, MEMPHIS, TN, 38125","Match","Exact","4846 SADDLEHORN COVE, MEMPHIS, TN, 38125",618713746,"L"
666395,"4846 SOUTH FRASIER STREET","GEORGETOWN","SC",29440,33.311384812,-79.330960991,395,"4846 SOUTH FRASIER STREET, GEORGETOWN, SC, 29440","Match","Non_Exact","4846 S FRASER ST, GEORGETOWN, SC, 29440",640449042,"L"
666396,"4846 SOUTHRIDGE DR","TAYLORSVILLE","UT",84129,40.664233084,-111.984546164,396,"4846 SOUTHRIDGE DR, TAYLORSVILLE, UT, 84129","Match","Exact","4846 SOUTHRIDGE DR, TAYLORSVILLE, UT, 84129",176131063,"R"
666397,"4846 SULLIVAN RD","LAPEER","MI",48446,42.983830997,-83.412838356,397,"4846 SULLIVAN RD, LAPEER, MI, 48446","Match","Exact","4846 SULLIVAN RD, LAPEER, MI, 48446",110474585,"R"
666398,"4846 SUMMERHILL DR","COUNTRY CLUB HILLS","IL",60478,41.56029454,-87.736100476,398,"4846 SUMMERHILL DR, COUNTRY CLUB HILLS, IL, 60478","Match","Exact","4846 SUMMERHILL DR, COUNTRY CLUB HILLS, IL, 60478",624427116,"R"
666399,"4846 SW HARRISON ST","MILWAUKIE","OR",97222,45.4465862530001,-122.613139001,399,"4846 SW HARRISON ST, MILWAUKIE, OR, 97222","Match","Non_Exact","4846 SE HARRISON ST, MILWAUKIE, OR, 97222",157914843,"R"
666400,"4846 TIBBS BRIDGE RD SE","DALTON","GA",30721,34.748505025,-84.866522188,400,"4846 TIBBS BRIDGE RD SE, DALTON, GA, 30721","Match","Exact","4846 TIBBS BRIDGE RD SE, DALTON, GA, 30721",606876995,"L"
666401,"4846 W 118TH PL APT 3E","LOS ANGELES","CA",90250,NA,NA,401,"4846 W 118TH PL APT 3E, LOS ANGELES, CA, 90250","No_Match",NA,NA,NA,NA
666402,"4847 BROWNS MILL FERRY ROAD","LITHONIA","GA",30038,33.6328198090001,-84.1143272959999,402,"4847 BROWNS MILL FERRY ROAD, LITHONIA, GA, 30038","Match","Exact","4847 BROWNS MILL FERRY RD, LITHONIA, GA, 30038",627760168,"R"
666403,"4847 BUCHLI LANE","LITHONIA","GA",30038,33.6348375960001,-84.1334753739999,403,"4847 BUCHLI LANE, LITHONIA, GA, 30038","Match","Exact","4847 BUCHLI LN, LITHONIA, GA, 30038",637254390,"R"
666404,"4847 COTTRELL RD","VASSAR","MI",48768,43.370246363,-83.6047307809999,404,"4847 COTTRELL RD, VASSAR, MI, 48768","Match","Non_Exact","4847 COTTRELL DR, VASSAR, MI, 48768",81247704,"R"
666405,"4847 DAYWALT ROAD","SEBASTOPOL","CA",95472,38.352343015,-122.766908768,405,"4847 DAYWALT ROAD, SEBASTOPOL, CA, 95472","Match","Exact","4847 DAYWALT RD, SEBASTOPOL, CA, 95472",67471127,"L"
666406,"4847 DEL MONTES ROAD","LA CANADA","CA",91011,NA,NA,406,"4847 DEL MONTES ROAD, LA CANADA, CA, 91011","No_Match",NA,NA,NA,NA
666407,"4847 EAGLE LANE","WEST BEND","WI",53095,NA,NA,407,"4847 EAGLE LANE, WEST BEND, WI, 53095","No_Match",NA,NA,NA,NA
666408,"4847 HELGA WAY","WOODSTOCK","GA",30188,34.0703373790001,-84.5306242729999,408,"4847 HELGA WAY, WOODSTOCK, GA, 30188","Match","Non_Exact","4847 HELGA WAY NE, WOODSTOCK, GA, 30188",17268220,"L"
666409,"4847 HOPYARD RD STE 4-314","PLEASANTON","CA",94588,37.6923075120001,-121.903526335,409,"4847 HOPYARD RD STE 4-314, PLEASANTON, CA, 94588","Match","Exact","4847 HOPYARD RD, PLEASANTON, CA, 94588",635727214,"R"
666410,"4847 HOPYARD RD STE 4207","PLEASANTON","CA",94588,37.6923075120001,-121.903526335,410,"4847 HOPYARD RD STE 4207, PLEASANTON, CA, 94588","Match","Exact","4847 HOPYARD RD, PLEASANTON, CA, 94588",635727214,"R"
666411,"4847 LAKERIDGE TERRACE WEST","RENO","NV",89509,NA,NA,411,"4847 LAKERIDGE TERRACE WEST, RENO, NV, 89509","No_Match",NA,NA,NA,NA
666412,"4847 LOMINA AVENUE","LAKEWOOD","CA",90713,33.8457632810001,-118.119079618,412,"4847 LOMINA AVENUE, LAKEWOOD, CA, 90713","Match","Exact","4847 LOMINA AVE, LAKEWOOD, CA, 90713",642869795,"L"
666413,"4847 LONETREE WAY SUITE A","ANTIOCH","CA",94531,37.9643780650001,-121.774630977,413,"4847 LONETREE WAY SUITE A, ANTIOCH, CA, 94531","Match","Non_Exact","4847 LONE TREE WAY, ANTIOCH, CA, 94509",636423576,"L"
666414,"4847 N BOUVIER ST","PHILADELPHIA","PA",19141,40.02779545,-75.153032684,414,"4847 N BOUVIER ST, PHILADELPHIA, PA, 19141","Match","Exact","4847 N BOUVIER ST, PHILADELPHIA, PA, 19141",131416750,"R"
666415,"4847 N HERMITAGE AVENUE","CHICAGO","IL",60640,41.970275773,-87.6726274279999,415,"4847 N HERMITAGE AVENUE, CHICAGO, IL, 60640","Match","Exact","4847 N HERMITAGE AVE, CHICAGO, IL, 60640",111761235,"R"
666416,"4847 N WINTHROP AVE APT 1","CHICAGO","IL",60640,41.970254143,-87.657639457,416,"4847 N WINTHROP AVE APT 1, CHICAGO, IL, 60640","Match","Non_Exact","4847 N WINTHROP AVE, CHICAGO, IL, 60640",111761533,"R"
666417,"4847 ROSE CIRCLE","JOHNSTON","IA",50131,41.6771105600001,-93.683974538,417,"4847 ROSE CIRCLE, JOHNSTON, IA, 50131","Match","Exact","4847 ROSE CIR, JOHNSTON, IA, 50131",617120591,"L"
666418,"4847 S DOUBLE OR NOTHING ROAD","SCOTTSBURG","IN",47170,38.6226385050001,-85.747058931,418,"4847 S DOUBLE OR NOTHING ROAD, SCOTTSBURG, IN, 47170","Match","Exact","4847 S DOUBLE OR NOTHING RD, SCOTTSBURG, IN, 47170",31605414,"R"
666419,"4847 TOCOBAGA LN","JACKSONVILLE","FL",32225,30.3854786970001,-81.517007784,419,"4847 TOCOBAGA LN, JACKSONVILLE, FL, 32225","Match","Exact","4847 TOCOBAGA LN, JACKSONVILLE, FL, 32225",83941286,"R"
666420,"4847 VIA PALM LAKE","WEST PALM BEACH","FL",33417,26.723601553,-80.11806648,420,"4847 VIA PALM LAKE, WEST PALM BEACH, FL, 33417","Match","Non_Exact","4847 VIA PALM LAKES, WEST PALM BEACH, FL, 33417",115569486,"R"
666421,"4847 VICKY RD","NOTTINGHAM","MD",21236,39.3979489810001,-76.4541225359999,421,"4847 VICKY RD, NOTTINGHAM, MD, 21236","Match","Exact","4847 VICKY RD, NOTTINGHAM, MD, 21236",191479905,"R"
666422,"4847 VT ROUTE 7A","SHAFTSBURY","VT",5262,43.000815915,-73.198641153,422,"4847 VT ROUTE 7A, SHAFTSBURY, VT, 5262","Match","Non_Exact","4847 STATE RTE 7A, SHAFTSBURY, VT, 05262",139209862,"L"
666423,"4847 W CYPRESS AVE","VISALIA","CA",93277,36.3235989980001,-119.345669936,423,"4847 W CYPRESS AVE, VISALIA, CA, 93277","Match","Exact","4847 W CYPRESS AVE, VISALIA, CA, 93277",202805932,"R"
666424,"4847 W SCHUBERT","CHICAGO","IL",60639,41.9296995600001,-87.748051757,424,"4847 W SCHUBERT, CHICAGO, IL, 60639","Match","Non_Exact","4847 W SCHUBERT AVE, CHICAGO, IL, 60639",605164110,"L"
666425,"48470 SCOUT CAMP ROAD","LONG BOTTOM","OH",45743,39.063807819,-81.8829765139999,425,"48470 SCOUT CAMP ROAD, LONG BOTTOM, OH, 45743","Match","Exact","48470 SCOUT CAMP RD, LONG BOTTOM, OH, 45743",101269476,"R"
666426,"48472 ARKANSAS PL","FREMONT","CA",94539,37.469664478,-121.916080164,426,"48472 ARKANSAS PL, FREMONT, CA, 94539","Match","Exact","48472 ARKANSAS PL, FREMONT, CA, 94539",124990355,"R"
666427,"48475 228TH STREET","FLANDREAU","SD",57028,44.080459492,-96.510048609,427,"48475 228TH STREET, FLANDREAU, SD, 57028","Match","Exact","48475 228TH ST, FLANDREAU, SD, 57028",193666566,"L"
666428,"4848 BRAID LANE","MASON","OH",45040,39.3690217130001,-84.3269156329999,428,"4848 BRAID LANE, MASON, OH, 45040","Match","Exact","4848 BRAID LN, MASON, OH, 45040",617113816,"R"
666429,"4848 BROOKSTONE CR","RIVERSIDE","CA",92505,33.9168115350001,-117.492070506,429,"4848 BROOKSTONE CR, RIVERSIDE, CA, 92505","Match","Non_Exact","4848 BROOKSTONE CT, RIVERSIDE, CA, 92505",608986182,"R"
666430,"4848 BROOKSVIEW CIRCLE","NEW ALBANY","OH",43054,40.0809482290001,-82.8312931999999,430,"4848 BROOKSVIEW CIRCLE, NEW ALBANY, OH, 43054","Match","Exact","4848 BROOKSVIEW CIR, NEW ALBANY, OH, 43054",218702898,"L"
666431,"4848 C WOODSTONE DR","CHARLOTTE","NC",28269,35.280068122,-80.811358957,431,"4848 C WOODSTONE DR, CHARLOTTE, NC, 28269","Match","Exact","4848 WOODSTONE DR, CHARLOTTE, NC, 28269",70478493,"R"
666432,"4848 E CACTUS RD 505817","SCOTTSDALE","AZ",85254,33.5975857180001,-111.976980239,432,"4848 E CACTUS RD 505817, SCOTTSDALE, AZ, 85254","Match","Non_Exact","4848 E CACTUS RD, SCOTTSDALE, AZ, 85254",128187019,"L"
666433,"4848 E CACTUS RD STE 200","SCOTTSDALE","AZ",85254,33.5975857180001,-111.976980239,433,"4848 E CACTUS RD STE 200, SCOTTSDALE, AZ, 85254","Match","Non_Exact","4848 E CACTUS RD, SCOTTSDALE, AZ, 85254",128187019,"L"
666434,"4848 E CACTUS RD STE 505 PMB 1076","SCOTTSDALE","AZ",85254,33.5975857180001,-111.976980239,434,"4848 E CACTUS RD STE 505 PMB 1076, SCOTTSDALE, AZ, 85254","Match","Non_Exact","4848 E CACTUS RD, SCOTTSDALE, AZ, 85254",128187019,"L"
666435,"4848 E COUNTRY CLUB RD","SALINA","KS",67401,38.8417181780001,-97.515037702,435,"4848 E COUNTRY CLUB RD, SALINA, KS, 67401","Match","Exact","4848 COUNTRY CLUB RD, SALINA, KS, 67401",647468666,"L"
666436,"4848 E TEAGUE AVE","CLOVIS","CA",93619,36.859291689,-119.695275847,436,"4848 E TEAGUE AVE, CLOVIS, CA, 93619","Match","Exact","4848 E TEAGUE AVE, CLOVIS, CA, 93619",635818884,"L"
666437,"4848 E TEAGUE","CLOVIS","CA",93619,36.859291689,-119.695275847,437,"4848 E TEAGUE, CLOVIS, CA, 93619","Match","Non_Exact","4848 E TEAGUE AVE, CLOVIS, CA, 93619",635818884,"L"
666438,"4848 EAST CACTUS ROAD STE 505 999","SCOTTSDALE","AZ",85255,33.5975909910001,-111.976999485,438,"4848 EAST CACTUS ROAD STE 505 999, SCOTTSDALE, AZ, 85255","Match","Non_Exact","4848 E CACTUS RD, SCOTTSDALE, AZ, 85254",128187019,"L"
666439,"4848 EAST KENTUCKY AVENUE UNIT B","GLENDALE","CO",80246,39.70021738,-104.93069759,439,"4848 EAST KENTUCKY AVENUE UNIT B, GLENDALE, CO, 80246","Match","Exact","4848 E KENTUCKY AVE, GLENDALE, CO, 80246",648196082,"R"
666440,"4848 EDEN VIEW COURT","LOCKHART","FL",32810,28.6295300210001,-81.43625508,440,"4848 EDEN VIEW COURT, LOCKHART, FL, 32810","Match","Exact","4848 EDEN VIEW CT, LOCKHART, FL, 32810",94310960,"R"
666441,"4848 FOREST HIGHLAND DR","RALEIGH","NC",27604,35.8114262870001,-78.55252312,441,"4848 FOREST HIGHLAND DR, RALEIGH, NC, 27604","Match","Exact","4848 FOREST HIGHLAND DR, RALEIGH, NC, 27604",72655575,"R"
666442,"4848 GREENSPIRE DRIVE","CARMEL","IN",46032,39.9536257720001,-86.0872590769999,442,"4848 GREENSPIRE DRIVE, CARMEL, IN, 46032","Match","Non_Exact","4848 GREENSPIRE DR, CARMEL, IN, 46033",29329919,"L"
666443,"4848 LAURA CHAPEL ROAD","BLACKSHEAR","GA",31516,NA,NA,443,"4848 LAURA CHAPEL ROAD, BLACKSHEAR, GA, 31516","No_Match",NA,NA,NA,NA
666444,"4848 LEMMON AVE 617","DALLAS","TX",75219,32.822526741,-96.817851911,444,"4848 LEMMON AVE 617, DALLAS, TX, 75219","Match","Exact","4848 LEMMON AVE, DALLAS, TX, 75219",649820315,"R"
666445,"4848 LEMMON AVE SUITE 132","DALLAS","TX",75219,32.822526741,-96.817851911,445,"4848 LEMMON AVE SUITE 132, DALLAS, TX, 75219","Match","Exact","4848 LEMMON AVE, DALLAS, TX, 75219",649820315,"R"
666446,"4848 MIDDLE ROAD","ALLISON PARK","PA",15101,40.600907282,-79.9299978239999,446,"4848 MIDDLE ROAD, ALLISON PARK, PA, 15101","Match","Exact","4848 MIDDLE RD, ALLISON PARK, PA, 15101",642114565,"R"
666447,"4848 N CLARK UNIT 3E","CHICAGO","IL",60640,NA,NA,447,"4848 N CLARK UNIT 3E, CHICAGO, IL, 60640","No_Match",NA,NA,NA,NA
666448,"4848 N DAMEN AVE","CHICAGO","IL",60625,41.969905426,-87.679223317,448,"4848 N DAMEN AVE, CHICAGO, IL, 60625","Match","Exact","4848 N DAMEN AVE, CHICAGO, IL, 60625",605184937,"L"
666449,"4848 N FRONT ST","PHILADELPHIA","PA",19120,40.0242447160001,-75.123773001,449,"4848 N FRONT ST, PHILADELPHIA, PA, 19120","Match","Exact","4848 N FRONT ST, PHILADELPHIA, PA, 19120",131419825,"L"
666450,"4848 N GOLDWATER BLVD UNIT 1082","PHOENIX","AZ",85251,NA,NA,450,"4848 N GOLDWATER BLVD UNIT 1082, PHOENIX, AZ, 85251","Tie",NA,NA,NA,NA
666451,"4848 N ILLINOIS ST","INDIANAPOLIS","IN",46208,39.842241712,-86.159370622,451,"4848 N ILLINOIS ST, INDIANAPOLIS, IN, 46208","Match","Exact","4848 N ILLINOIS ST, INDIANAPOLIS, IN, 46208",108028539,"L"
666452,"4848 N KIMBALL AVE","CHICAGO","IL",60625,41.9695396020001,-87.7134011589999,452,"4848 N KIMBALL AVE, CHICAGO, IL, 60625","Match","Exact","4848 N KIMBALL AVE, CHICAGO, IL, 60625",605174472,"L"
666453,"4848 N LYDELL AVE APT 307","MILWAUKEE","WI",53217,43.105097507,-87.9120086409999,453,"4848 N LYDELL AVE APT 307, MILWAUKEE, WI, 53217","Match","Non_Exact","4848 N LYDELL AVE, MILWAUKEE, WI, 53217",647206261,"R"
666454,"4848 N LYDELL AVE","GLENDALE","WI",53217,43.105097507,-87.9120086409999,454,"4848 N LYDELL AVE, GLENDALE, WI, 53217","Match","Exact","4848 N LYDELL AVE, GLENDALE, WI, 53217",647206261,"R"
666455,"4848 N WINCHESTER","CHICAGO","IL",60640,41.9698289570001,-87.677733224,455,"4848 N WINCHESTER, CHICAGO, IL, 60640","Match","Non_Exact","4848 N WINCHESTER AVE, CHICAGO, IL, 60640",605184914,"L"
666456,"4848 N WINTHROP AVE","CHICAGO","IL",60640,41.9702973760001,-87.65765549,456,"4848 N WINTHROP AVE, CHICAGO, IL, 60640","Match","Exact","4848 N WINTHROP AVE, CHICAGO, IL, 60640",111761533,"L"
666457,"4848 NE 23RD AVENUE 5C","FORT LAUDERDALE","FL",33308,26.1860895250001,-80.1147997309999,457,"4848 NE 23RD AVENUE 5C, FORT LAUDERDALE, FL, 33308","Match","Non_Exact","4848 NE 23RD AVE, FORT LAUDERDALE, FL, 33308",114724584,"R"
666458,"4848 NEWPORT DRIVE","DEL CITY","OK",73115,35.4308705010001,-97.425697051,458,"4848 NEWPORT DRIVE, DEL CITY, OK, 73115","Match","Exact","4848 NEWPORT DR, DEL CITY, OK, 73115",100414128,"R"
666459,"4848 NORTH SHERIDAN RD","CHICAGO","IL",60640,41.970893075,-87.654871089,459,"4848 NORTH SHERIDAN RD, CHICAGO, IL, 60640","Match","Exact","4848 N SHERIDAN RD, CHICAGO, IL, 60640",111761551,"L"
666460,"4848 NW 24TH COURT 428","LAUDERDALE LAKES","FL",33313,26.15700903,-80.215020614,460,"4848 NW 24TH COURT 428, LAUDERDALE LAKES, FL, 33313","Match","Non_Exact","4848 NW 24TH CT, LAUDERDALE LAKES, FL, 33313",114707938,"R"
666461,"4848 NW 24TH CT UNIT 428","LAUDERDALE LAKES","FL",33313,26.15700903,-80.215020614,461,"4848 NW 24TH CT UNIT 428, LAUDERDALE LAKES, FL, 33313","Match","Non_Exact","4848 NW 24TH CT, LAUDERDALE LAKES, FL, 33313",114707938,"R"
666462,"4848 NW 95TH AVE","SUNRISE","FL",33351,26.1846766310001,-80.277812544,462,"4848 NW 95TH AVE, SUNRISE, FL, 33351","Match","Exact","4848 NW 95TH AVE, SUNRISE, FL, 33351",114752171,"L"
666463,"4848 OAKWOOD LANE","WEST DES MOINES","IA",50265,41.5496526810001,-93.76926202,463,"4848 OAKWOOD LANE, WEST DES MOINES, IA, 50265","Match","Exact","4848 OAKWOOD LN, W DES MOINES, IA, 50265",65851719,"R"
666464,"4848 OAKWOOOD LANE","WEST DES MOINES","IA",50265,41.5496526810001,-93.76926202,464,"4848 OAKWOOOD LANE, WEST DES MOINES, IA, 50265","Match","Non_Exact","4848 OAKWOOD LN, W DES MOINES, IA, 50265",65851719,"R"
666465,"4848 OXFORD STREET","SHOREVIEW","MN",55126,45.0884227830001,-93.14353017,465,"4848 OXFORD STREET, SHOREVIEW, MN, 55126","Match","Exact","4848 OXFORD ST, SHOREVIEW, MN, 55126",97635070,"R"
666466,"4848 PIN OAK PARK APT 529","HOUSTON","TX",77081,NA,NA,466,"4848 PIN OAK PARK APT 529, HOUSTON, TX, 77081","No_Match",NA,NA,NA,NA
666467,"4848 PIN OAK PARK DR APT 1420","HOUSTON","TX",77081,NA,NA,467,"4848 PIN OAK PARK DR APT 1420, HOUSTON, TX, 77081","No_Match",NA,NA,NA,NA
666468,"4848 PINEWOOD CIRCLE","LANGLEY","WA",98260,48.035357434,-122.431910707,468,"4848 PINEWOOD CIRCLE, LANGLEY, WA, 98260","Match","Exact","4848 PINEWOOD CIR, LANGLEY, WA, 98260",187611581,"R"
666469,"4848 REDCASTLE RIDGDE","NASHVILLE","TN",37211,36.0186884140001,-86.7334766069999,469,"4848 REDCASTLE RIDGDE, NASHVILLE, TN, 37211","Match","Non_Exact","4848 REDCASTLE RIDGE, NASHVILLE, TN, 37211",97227889,"R"
666470,"4848 REDCASTLE RIDGE","NASHVILLE","TN",37211,36.0186884140001,-86.7334766069999,470,"4848 REDCASTLE RIDGE, NASHVILLE, TN, 37211","Match","Exact","4848 REDCASTLE RIDGE, NASHVILLE, TN, 37211",97227889,"R"
666471,"4848 S 228TH PLAZA","ELKHORN","NE",68022,41.207455339,-96.2727907079999,471,"4848 S 228TH PLAZA, ELKHORN, NE, 68022","Match","Exact","4848 S 228TH PLZ, ELKHORN, NE, 68022",117039921,"R"
666472,"4848 S MCCANN AVE","SPRINGFIELD","MO",65804,37.125034246,-93.2780601379999,472,"4848 S MCCANN AVE, SPRINGFIELD, MO, 65804","Match","Exact","4848 S MCCANN AVE, SPRINGFIELD, MO, 65804",76681005,"L"
666473,"4848 S MEAD PL","TUCSON","AZ",85730,32.163878283,-110.822086376,473,"4848 S MEAD PL, TUCSON, AZ, 85730","Match","Exact","4848 MEAD PL, TUCSON, AZ, 85730",121185181,"R"
666474,"4848 SE 100TH AVE","PORTLAND","OR",97266,45.487103394,-122.560856918,474,"4848 SE 100TH AVE, PORTLAND, OR, 97266","Match","Exact","4848 SE 100TH AVE, PORTLAND, OR, 97266",157520928,"L"
666475,"4848 SE GRANT ST","PORTLAND","OR",97215,45.5073621270001,-122.612467371,475,"4848 SE GRANT ST, PORTLAND, OR, 97215","Match","Exact","4848 SE GRANT ST, PORTLAND, OR, 97215",157514721,"R"
666476,"4848 SOMERS ROAD","HAMPTONVILLE","NC",27020,36.0953179630001,-80.9069956,476,"4848 SOMERS ROAD, HAMPTONVILLE, NC, 27020","Match","Exact","4848 SOMERS RD, HAMPTONVILLE, NC, 27020",46124885,"L"
666477,"4848 SUNSET RIDGE COURT","CHARLOTTE","NC",28269,35.3374750470001,-80.80975542,477,"4848 SUNSET RIDGE COURT, CHARLOTTE, NC, 28269","Match","Exact","4848 SUNSET RIDGE CT, CHARLOTTE, NC, 28269",70553613,"R"
666478,"4848 SWAN LAKE ROAD","BOSSIER CITY","LA",71111,32.6078038110001,-93.6716138789999,478,"4848 SWAN LAKE ROAD, BOSSIER CITY, LA, 71111","Match","Exact","4848 SWAN LAKE RD, BOSSIER CITY, LA, 71111",618230003,"R"
666479,"4848 THOMPSON PARKWAY STE 340","JOHNSTOWN","CO",80534,40.4060733430001,-104.97654292,479,"4848 THOMPSON PARKWAY STE 340, JOHNSTOWN, CO, 80534","Match","Exact","4848 THOMPSON PKWY, JOHNSTOWN, CO, 80534",639465618,"L"
666480,"4848 THOMPSON PARKWAY SUITE 410","JOHNSTOWN","CO",80534,40.4060733430001,-104.97654292,480,"4848 THOMPSON PARKWAY SUITE 410, JOHNSTOWN, CO, 80534","Match","Exact","4848 THOMPSON PKWY, JOHNSTOWN, CO, 80534",639465618,"L"
666481,"4848 TOCALOMA LANE","LA CANADA FLINTRIDGE","CA",91011,34.2179057020001,-118.213731759,481,"4848 TOCALOMA LANE, LA CANADA FLINTRIDGE, CA, 91011","Match","Exact","4848 TOCALOMA LN, LA CANADA, CA, 91011",141590615,"R"
666482,"4848 US-HWY 50","BAINBRIDGE","OH",45612,NA,NA,482,"4848 US-HWY 50, BAINBRIDGE, OH, 45612","No_Match",NA,NA,NA,NA
666483,"4848 VILLAGE GREEN WAY","SAN BERNARDINO","CA",92407,34.1725683130001,-117.314111697,483,"4848 VILLAGE GREEN WAY, SAN BERNARDINO, CA, 92407","Match","Exact","4848 VILLAGE GREEN WAY, SAN BERNARDINO, CA, 92407",144687803,"L"
666484,"4848 W 134TH STREET","HAWTHORNE","CA",90250,33.9112097670001,-118.362707375,484,"4848 W 134TH STREET, HAWTHORNE, CA, 90250","Match","Exact","4848 W 134TH ST, HAWTHORNE, CA, 90250",141656381,"L"
666485,"4848 W 29TH LANE","YUMA","AZ",85364,32.6738286250001,-114.683228549,485,"4848 W 29TH LANE, YUMA, AZ, 85364","Match","Exact","4848 W 29TH LN, YUMA, AZ, 85364",635912912,"L"
666486,"4848 W ERIE","CHICAGO","IL",60644,41.892266449,-87.747060538,486,"4848 W ERIE, CHICAGO, IL, 60644","Match","Non_Exact","4848 W ERIE ST, CHICAGO, IL, 60644",605071876,"R"
666487,"4848 WESTBOURNE ROAD","LYNHURST","OH",44124,41.524182807,-81.505063099,487,"4848 WESTBOURNE ROAD, LYNHURST, OH, 44124","Match","Non_Exact","4848 WESTBOURNE RD, LYNDHURST, OH, 44124",61133611,"R"
666488,"4848 WINDSOR VILLAGE DR UNIT 34","BATON ROUGE","LA",70817,30.4089561820001,-91.022196675,488,"4848 WINDSOR VILLAGE DR UNIT 34, BATON ROUGE, LA, 70817","Match","Exact","4848 WINDSOR VILLAGE DR, BATON ROUGE, LA, 70817",651721364,"R"
666489,"4848 XERXES AVE S","MINNEAPOLIS","MN",55410,44.91519004,-93.318873273,489,"4848 XERXES AVE S, MINNEAPOLIS, MN, 55410","Match","Exact","4848 XERXES AVE S, MINNEAPOLIS, MN, 55410",43628180,"R"
666490,"4849 9TH AVENUE","SACRAMENTO","CA",95820,38.543642005,-121.449859598,490,"4849 9TH AVENUE, SACRAMENTO, CA, 95820","Match","Exact","4849 9TH AVE, SACRAMENTO, CA, 95820",133419231,"L"
666491,"4849 ALLESANDRO STREET","CHINO","CA",91710,34.0166926220001,-117.698866415,491,"4849 ALLESANDRO STREET, CHINO, CA, 91710","Match","Exact","4849 ALLESANDRO ST, CHINO, CA, 91710",144673110,"R"
666492,"4849 BALLYGAR DRIVE","TALLAHASSEE","FL",32309,30.5305399960001,-84.186834,492,"4849 BALLYGAR DRIVE, TALLAHASSEE, FL, 32309","Match","Exact","4849 BALLYGAR DR, TALLAHASSEE, FL, 32309",82846986,"R"
666493,"4849 CLARA KEY COURT","TALLAHASSEE","FL",32303,30.5193763770001,-84.346370768,493,"4849 CLARA KEY COURT, TALLAHASSEE, FL, 32303","Match","Non_Exact","4849 CLARA KEE CT, TALLAHASSEE, FL, 32303",82845108,"L"
666494,"4849 CLIFFS CITY ROAD","CHESTERTOWN","MD",21620,39.1107362980001,-76.1461874669999,494,"4849 CLIFFS CITY ROAD, CHESTERTOWN, MD, 21620","Match","Exact","4849 CLIFFS CITY RD, CHESTERTOWN, MD, 21620",647800871,"R"
666495,"4849 CONNECTICUT AVE NW APT 431","WASHINGTON","DC",20008,38.9526965320001,-77.068460505,495,"4849 CONNECTICUT AVE NW APT 431, WASHINGTON, DC, 20008","Match","Exact","4849 CONNECTICUT AVE NW, WASHINGTON, DC, 20008",76220416,"R"
666496,"4849 CONNECTICUT AVE NW APT 711","WASHINGTON","DC",20008,38.9526965320001,-77.068460505,496,"4849 CONNECTICUT AVE NW APT 711, WASHINGTON, DC, 20008","Match","Exact","4849 CONNECTICUT AVE NW, WASHINGTON, DC, 20008",76220416,"R"
666497,"4849 CONNECTICUT AVE NW","WASHINGTON","DC",20008,38.9526965320001,-77.068460505,497,"4849 CONNECTICUT AVE NW, WASHINGTON, DC, 20008","Match","Exact","4849 CONNECTICUT AVE NW, WASHINGTON, DC, 20008",76220416,"R"
666498,"4849 CONNECTICUT AVENUE NW 415","WASHINGTON","DC",20008,38.9526965320001,-77.068460505,498,"4849 CONNECTICUT AVENUE NW 415, WASHINGTON, DC, 20008","Match","Exact","4849 CONNECTICUT AVE NW, WASHINGTON, DC, 20008",76220416,"R"
666499,"4849 DESERT VARNISH DR","COLORADO SPRINGS","CO",80922,38.9027107530001,-104.689385315,499,"4849 DESERT VARNISH DR, COLORADO SPRINGS, CO, 80922","Match","Exact","4849 DESERT VARNISH DR, COLORADO SPRINGS, CO, 80922",610706109,"R"
666500,"4849 EL CEMONTE AVE","DAVIS","CA",95618,38.549943705,-121.690027938,500,"4849 EL CEMONTE AVE, DAVIS, CA, 95618","Match","Exact","4849 EL CEMONTE AVE, DAVIS, CA, 95618",67691997,"R"
