"ID","Address","City","State","Zip","lat","long","id","input_address","match_indicator","match_type","matched_address","tiger_line_id","tiger_side"
879501,"8124 CLEARWATER DRIVE","PARKVILLE","MO",64152,39.2075810760001,-94.668398955,1,"8124 CLEARWATER DRIVE, PARKVILLE, MO, 64152","Match","Exact","8124 CLEARWATER DR, PARKVILLE, MO, 64152",628899988,"R"
879502,"8124 CORNELL CT","SAINT LOUIS","MO",63130,38.662161773,-90.347576642,2,"8124 CORNELL CT, SAINT LOUIS, MO, 63130","Match","Exact","8124 CORNELL CT, SAINT LOUIS, MO, 63130",100133284,"L"
879503,"8124 CRAIG STREET","PHILA","PA",19139,40.043587077,-75.025623996,3,"8124 CRAIG STREET, PHILA, PA, 19139","Match","Non_Exact","8124 CRAIG ST, PHILA, PA, 19136",131432860,"L"
879504,"8124 CREEK BEND","YP","MI",48197,NA,NA,4,"8124 CREEK BEND, YP, MI, 48197","No_Match",NA,NA,NA,NA
879505,"8124 CYPRESS LAKE DR","BATON ROUGE","LA",70809,30.423371649,-91.102275504,5,"8124 CYPRESS LAKE DR, BATON ROUGE, LA, 70809","Match","Exact","8124 CYPRESS LAKE DR, BATON ROUGE, LA, 70809",92204097,"R"
879506,"8124 DRY CREEK CIRCLE","NIWOT","CO",80503,40.104472957,-105.16391289,6,"8124 DRY CREEK CIRCLE, NIWOT, CO, 80503","Match","Exact","8124 DRY CREEK CIR, NIWOT, CO, 80503",220752615,"R"
879507,"8124 EAST 34TH AVENUE","DENVER","CO",80238,39.7641025790001,-104.893927335,7,"8124 EAST 34TH AVENUE, DENVER, CO, 80238","Match","Exact","8124 E 34TH AVE, DENVER, CO, 80238",640737129,"R"
879508,"8124 GOLDEN VALLEY ROAD","GOLDEN VALLEY","MN",55427,44.9866868890001,-93.383947893,8,"8124 GOLDEN VALLEY ROAD, GOLDEN VALLEY, MN, 55427","Match","Exact","8124 GOLDEN VALLEY RD, GOLDEN VALLEY, MN, 55427",43839803,"L"
879509,"8124 HOOPER AVENUE","LOS ANGELES","CA",90001,33.9650636640001,-118.252109207,9,"8124 HOOPER AVENUE, LOS ANGELES, CA, 90001","Match","Exact","8124 HOOPER AVE, LOS ANGELES, CA, 90001",141671232,"L"
879510,"8124 HWY 6","CLIFTON","TX",76634,31.87915723,-97.642793642,10,"8124 HWY 6, CLIFTON, TX, 76634","Match","Non_Exact","8124 STATE HWY 6, CLIFTON, TX, 76634",158600312,"R"
879511,"8124 MAGNOLIA AVE NO 23","RIVERSIDE","CA",92504,33.9349814770001,-117.420777209,11,"8124 MAGNOLIA AVE NO 23, RIVERSIDE, CA, 92504","Match","Non_Exact","8124 MAGNOLIA AVE, RIVERSIDE, CA, 92504",608985905,"L"
879512,"8124 MODESTO DRIVE","ARLINGTON","TX",76001,32.613689955,-97.123800504,12,"8124 MODESTO DRIVE, ARLINGTON, TX, 76001","Match","Exact","8124 MODESTO DR, ARLINGTON, TX, 76001",101958214,"R"
879513,"8124 N 13TH PLACE","PHOENIX","AZ",85020,33.55530636,-112.053727059,13,"8124 N 13TH PLACE, PHOENIX, AZ, 85020","Match","Exact","8124 N 13TH PL, PHOENIX, AZ, 85020",128266416,"L"
879514,"8124 NORTH SENECA ROAD","MILWAUKEE","WI",53217,43.1646679420001,-87.908014344,14,"8124 NORTH SENECA ROAD, MILWAUKEE, WI, 53217","Match","Exact","8124 N SENECA RD, MILWAUKEE, WI, 53217",77736627,"R"
879515,"8124 POCKET HOLLOW","INDIANAPOLIS","IN",46256,39.903129655,-86.032255963,15,"8124 POCKET HOLLOW, INDIANAPOLIS, IN, 46256","Match","Non_Exact","8124 POCKET HOLLOW CT, INDIANAPOLIS, IN, 46256",107996859,"L"
879516,"8124 RIDGE DR","CENTRAL LAKE","MI",49622,45.0777951260001,-85.2671837789999,16,"8124 RIDGE DR, CENTRAL LAKE, MI, 49622","Match","Exact","8124 RIDGE DR, CENTRAL LAKE, MI, 49622",145809423,"R"
879517,"8124 S CHANNEL DRIVE","GREENBELT","MD",20770,39.0009674840001,-76.916405647,17,"8124 S CHANNEL DRIVE, GREENBELT, MD, 20770","Match","Exact","8124 S CHANNEL DR, GREENBELT, MD, 20770",644931649,"L"
879518,"8124 S ESSEX","CHICAGO","IL",60617,41.747779361,-87.56374899,18,"8124 S ESSEX, CHICAGO, IL, 60617","Match","Non_Exact","8124 S ESSEX AVE, CHICAGO, IL, 60617",605559041,"R"
879519,"8124 SAN CARLOS CIRCLE","TAMARAC","FL",33321,26.2278982820001,-80.2952426259999,19,"8124 SAN CARLOS CIRCLE, TAMARAC, FL, 33321","Match","Exact","8124 SAN CARLOS CIR, TAMARAC, FL, 33321",114793091,"R"
879520,"8124 SHOSHONI DRIVE","ARLINGTON","TX",76002,32.6123129100001,-97.115024982,20,"8124 SHOSHONI DRIVE, ARLINGTON, TX, 76002","Match","Exact","8124 SHOSHONI DR, ARLINGTON, TX, 76002",102119623,"R"
879521,"8124 SPRINGFIELD VILLAGE DR","SPRINGFIELD","VA",22152,38.7645899720001,-77.2255031239999,21,"8124 SPRINGFIELD VILLAGE DR, SPRINGFIELD, VA, 22152","Match","Exact","8124 SPRINGFIELD VILLAGE DR, SPRINGFIELD, VA, 22152",75976505,"R"
879522,"8124 W 2ND CT N","WICHITA","KS",67212,37.687440135,-97.436434923,22,"8124 W 2ND CT N, WICHITA, KS, 67212","Match","Non_Exact","8124 W 2ND ST N, WICHITA, KS, 67212",115655497,"L"
879523,"8124 WATERFALL DR","ROANOKE","VA",24019,NA,NA,23,"8124 WATERFALL DR, ROANOKE, VA, 24019","No_Match",NA,NA,NA,NA
879524,"8125 ARGENT ROAD","PASCO","WA",99301,NA,NA,24,"8125 ARGENT ROAD, PASCO, WA, 99301","No_Match",NA,NA,NA,NA
879525,"8125 BAYBERRY CIR","VICTORIA","MN",55386,44.8574121890001,-93.673923467,25,"8125 BAYBERRY CIR, VICTORIA, MN, 55386","Match","Non_Exact","8125 BAYBERRY CT, VICTORIA, MN, 55386",43509895,"R"
879526,"8125 BAYOU BEND BLVD","LAUREL","MD",20724,39.1122719890001,-76.803913478,26,"8125 BAYOU BEND BLVD, LAUREL, MD, 20724","Match","Exact","8125 BAYOU BEND BLVD, LAUREL, MD, 20724",606917484,"R"
879527,"8125 CASTENADA LANE","ATASCADERO","CA",93422,35.45749728,-120.683416118,27,"8125 CASTENADA LANE, ATASCADERO, CA, 93422","Match","Exact","8125 CASTENADA LN, ATASCADERO, CA, 93422",109725809,"R"
879528,"8125 CHAMPION CIR","CHAMPION GATES","FL",33896,NA,NA,28,"8125 CHAMPION CIR, CHAMPION GATES, FL, 33896","No_Match",NA,NA,NA,NA
879529,"8125 FALLEN MAPLE DRIVE","CHATTANOOGA","TN",37421,35.0420634010001,-85.111459972,29,"8125 FALLEN MAPLE DRIVE, CHATTANOOGA, TN, 37421","Match","Exact","8125 FALLEN MAPLE DR, CHATTANOOGA, TN, 37421",59329969,"R"
879530,"8125 FLETCHER GREEN","BUENA PARK","CA",90621,33.888230735,-117.992104867,30,"8125 FLETCHER GREEN, BUENA PARK, CA, 90621","Match","Exact","8125 FLETCHER GREEN, BUENA PARK, CA, 90621",144126463,"L"
879531,"8125 HEMEL LN","RICHLAND","MI",49083,42.372985541,-85.472135663,31,"8125 HEMEL LN, RICHLAND, MI, 49083","Match","Exact","8125 HEMEL LN, RICHLAND, MI, 49083",648993483,"L"
879532,"8125 HWY 70","NEWPORT","NC",28570,34.825939723,-76.876339149,32,"8125 HWY 70, NEWPORT, NC, 28570","Match","Non_Exact","8125 US HWY 70, NEWPORT, NC, 28570",640638923,"L"
879533,"8125 LAKE WORTH RD","LAKE WORTH","FL",33467,26.617422241,-80.174291408,33,"8125 LAKE WORTH RD, LAKE WORTH, FL, 33467","Match","Exact","8125 LAKE WORTH RD, LAKE WORTH, FL, 33467",640923372,"L"
879534,"8125 LEAD CIR UNIT 537","FORT WORTH","TX",76137,NA,NA,34,"8125 LEAD CIR UNIT 537, FORT WORTH, TX, 76137","No_Match",NA,NA,NA,NA
879535,"8125 LOVING CT","SPRINGFIELD","VA",22153,NA,NA,35,"8125 LOVING CT, SPRINGFIELD, VA, 22153","No_Match",NA,NA,NA,NA
879536,"8125 MADISON LAKES CIRCLE SOUTH","DAVIE","FL",33328,26.0563383200001,-80.254540261,36,"8125 MADISON LAKES CIRCLE SOUTH, DAVIE, FL, 33328","Match","Exact","8125 MADISON LAKES CIR S, DAVIE, FL, 33328",606184521,"R"
879537,"8125 MORLEY ROAD","SODUS POINT","NY",14555,43.254643752,-76.998023997,37,"8125 MORLEY ROAD, SODUS POINT, NY, 14555","Match","Exact","8125 MORLEY RD, SODUS POINT, NY, 14555",14928058,"L"
879538,"8125 N 107 STREET","MILWAUKEE","WI",53224,43.165689673,-88.044410808,38,"8125 N 107 STREET, MILWAUKEE, WI, 53224","Match","Exact","8125 N 107TH ST, MILWAUKEE, WI, 53224",650137187,"L"
879539,"8125 N 23RD AVENUE SUITE 110","PHOENIX","AZ",85021,33.5554369050001,-112.108007007,39,"8125 N 23RD AVENUE SUITE 110, PHOENIX, AZ, 85021","Match","Non_Exact","8125 N 23RD AVE, PHOENIX, AZ, 85021",128203048,"R"
879540,"8125 NACHES EHIGHTS RD","COWISHE","WA",98923,NA,NA,40,"8125 NACHES EHIGHTS RD, COWISHE, WA, 98923","No_Match",NA,NA,NA,NA
879541,"8125 NORTH YELLOW PINE CIRCLE","GLEN ST MARY","FL",32040,30.335641686,-82.1599070239999,41,"8125 NORTH YELLOW PINE CIRCLE, GLEN ST MARY, FL, 32040","Match","Non_Exact","8125 N-YELLOW PINE CIR, GLEN SAINT MARY, FL, 32040",5115018,"R"
879542,"8125 NW 21ST STREET","FORT LAUDERDALE","FL",33322,26.1511859720001,-80.252993815,42,"8125 NW 21ST STREET, FORT LAUDERDALE, FL, 33322","Match","Exact","8125 NW 21ST ST, FORT LAUDERDALE, FL, 33322",114704165,"R"
879543,"8125 PELHAM DR","PARMA","OH",44129,41.39551435,-81.7410856559999,43,"8125 PELHAM DR, PARMA, OH, 44129","Match","Exact","8125 PELHAM DR, PARMA, OH, 44129",61106732,"L"
879544,"8125 POPLARWOOD LANE","NASHVILLE","TN",37221,36.0551171910001,-86.973257256,44,"8125 POPLARWOOD LANE, NASHVILLE, TN, 37221","Match","Non_Exact","8125 POPLAR WOOD LN, NASHVILLE, TN, 37221",97217204,"L"
879545,"8125 QUIVIRA ROAD APPT 11213","LENEXA","KS",66215,38.9814492880001,-94.723628144,45,"8125 QUIVIRA ROAD APPT 11213, LENEXA, KS, 66215","Match","Exact","8125 QUIVIRA RD, LENEXA, KS, 66215",91270846,"L"
879546,"8125 SE 79TH STREET","MERCER ISLAND","WA",98040,47.53171946,-122.231539091,46,"8125 SE 79TH STREET, MERCER ISLAND, WA, 98040","Match","Exact","8125 SE 79TH ST, MERCER ISLAND, WA, 98040",186671858,"R"
879547,"8125 SEWARD AVENUE UNIT 289","MOUNT HEALTHY","OH",45231,39.2406446300001,-84.539189759,47,"8125 SEWARD AVENUE UNIT 289, MOUNT HEALTHY, OH, 45231","Match","Exact","8125 SEWARD AVE, MOUNT HEALTHY, OH, 45231",103965393,"L"
879548,"8125 SEWARD AVENUE","MOUNT HEALTHY","OH",45231,39.2406446300001,-84.539189759,48,"8125 SEWARD AVENUE, MOUNT HEALTHY, OH, 45231","Match","Exact","8125 SEWARD AVE, MOUNT HEALTHY, OH, 45231",103965393,"L"
879549,"8125 SOUTH WINCHESTER","CHICAGO","IL",60620,41.746086662,-87.671809417,49,"8125 SOUTH WINCHESTER, CHICAGO, IL, 60620","Match","Non_Exact","8125 S WINCHESTER AVE, CHICAGO, IL, 60620",111821113,"L"
879550,"8125 SOUTHEAST 79TH STREET","MERCER ISLAND","WA",98040,47.53171946,-122.231539091,50,"8125 SOUTHEAST 79TH STREET, MERCER ISLAND, WA, 98040","Match","Exact","8125 SE 79TH ST, MERCER ISLAND, WA, 98040",186671858,"R"
879551,"8125 STEELHEAD AVE BOX 1177","KINGS BEACH","CA",96143,NA,NA,51,"8125 STEELHEAD AVE BOX 1177, KINGS BEACH, CA, 96143","No_Match",NA,NA,NA,NA
879552,"8125 SUMMERFIELD ROAD","LAMBERTVILLE","MI",48144,41.7615979970001,-83.628042154,52,"8125 SUMMERFIELD ROAD, LAMBERTVILLE, MI, 48144","Match","Exact","8125 SUMMERFIELD RD, LAMBERTVILLE, MI, 48144",640415743,"R"
879553,"8125 SUMMERFIELD","LAMBERTVILLE","MI",48144,41.7615979970001,-83.628042154,53,"8125 SUMMERFIELD, LAMBERTVILLE, MI, 48144","Match","Non_Exact","8125 SUMMERFIELD RD, LAMBERTVILLE, MI, 48144",640415743,"R"
879554,"8125 SUZETTE LANE","FLAGSTAFF","AZ",86001,35.25603082,-111.738255925,54,"8125 SUZETTE LANE, FLAGSTAFF, AZ, 86001","Match","Non_Exact","8125 W SUZETTE LN, FLAGSTAFF, AZ, 86001",188996163,"L"
879555,"8125 SW 15TH ST","OKLAHOMA CITY","OK",73128,35.449763245,-97.656677811,55,"8125 SW 15TH ST, OKLAHOMA CITY, OK, 73128","Match","Exact","8125 SW 15TH ST, OKLAHOMA CITY, OK, 73128",641649064,"R"
879556,"8125 SW 165 CT","MIAMI","FL",33193,25.689825736,-80.4604968799999,56,"8125 SW 165 CT, MIAMI, FL, 33193","Match","Exact","8125 SW 165TH CT, MIAMI, FL, 33193",625215160,"R"
879557,"8125 SW 206 TERR","CUTLER BAY","FL",33189,25.57565536,-80.3226039209999,57,"8125 SW 206 TERR, CUTLER BAY, FL, 33189","Match","Exact","8125 SW 206TH TER, CUTLER BAY, FL, 33189",115996806,"R"
879558,"8125 W HIGHWAY 42","GOSHEN","KY",40026,38.433126058,-85.5094592409999,58,"8125 W HIGHWAY 42, GOSHEN, KY, 40026","Match","Exact","8125 W HWY 42, GOSHEN, KY, 40026",637394055,"L"
879559,"8125 WEST WALL STREET","SAXON","WI",54559,46.522002392,-90.3423622239999,59,"8125 WEST WALL STREET, SAXON, WI, 54559","Match","Exact","8125 W WALL ST, SAXON, WI, 54559",165504056,"L"
879560,"8126 APEX VIEW","SAN ANTONIO","TX",78244,NA,NA,60,"8126 APEX VIEW, SAN ANTONIO, TX, 78244","No_Match",NA,NA,NA,NA
879561,"8126 BERKELEY CT","BAYTOWN","TX",77521,29.8169906000001,-94.984551261,61,"8126 BERKELEY CT, BAYTOWN, TX, 77521","Match","Non_Exact","8126 BERKELY CT, BAYTOWN, TX, 77521",96428622,"L"
879562,"8126 BRYSON ROAD","INDIAN LAND","SC",29707,35.0644566060001,-80.901372146,62,"8126 BRYSON ROAD, INDIAN LAND, SC, 29707","Match","Exact","8126 BRYSON RD, INDIAN LAND, SC, 29707",641684319,"R"
879563,"8126 CAMBRIDGE DRIVE","FREDERICK","MD",21704,39.4022904780001,-77.3821320609999,63,"8126 CAMBRIDGE DRIVE, FREDERICK, MD, 21704","Match","Exact","8126 CAMBRIDGE DR, FREDERICK, MD, 21704",60672006,"R"
879564,"8126 CREEK ST STE 200","JONESBORO","GA",30236,33.532107975,-84.3190085859999,64,"8126 CREEK ST STE 200, JONESBORO, GA, 30236","Match","Exact","8126 CREEK ST, JONESBORO, GA, 30236",23318088,"L"
879565,"8126 E TOPEKA PLACE","YUMA","AZ",85365,32.682883416,-114.489661205,65,"8126 E TOPEKA PLACE, YUMA, AZ, 85365","Match","Exact","8126 E TOPEKA PL, YUMA, AZ, 85365",635912260,"R"
879566,"8126 EAST 53RD DRIVE","DENVER","CO",80238,39.794562704,-104.894385355,66,"8126 EAST 53RD DRIVE, DENVER, CO, 80238","Match","Exact","8126 E 53RD DR, DENVER, CO, 80238",645173122,"R"
879567,"8126 FAIRFIELD MANOR WAY","RICHMOND","TX",77407,29.689244435,-95.712878818,67,"8126 FAIRFIELD MANOR WAY, RICHMOND, TX, 77407","Match","Exact","8126 FAIRFIELD MANOR WAY, RICHMOND, TX, 77407",648704963,"R"
879568,"8126 GLAMORGAN LANE","MATTHEWS","NC",28104,35.136213442,-80.633735653,68,"8126 GLAMORGAN LANE, MATTHEWS, NC, 28104","Match","Exact","8126 GLAMORGAN LN, MATTHEWS, NC, 28104",14218868,"R"
879569,"8126 GREENHOLLOW LN","DALLAS","TX",75240,32.938080192,-96.766079632,69,"8126 GREENHOLLOW LN, DALLAS, TX, 75240","Match","Exact","8126 GREENHOLLOW LN, DALLAS, TX, 75240",102913133,"R"
879570,"8126 HOLM OAK WAY","CITRUS HEIGHTS","CA",95610,38.7170863790001,-121.260973317,70,"8126 HOLM OAK WAY, CITRUS HEIGHTS, CA, 95610","Match","Exact","8126 HOLM OAK WAY, CITRUS HEIGHTS, CA, 95610",133328917,"R"
879571,"8126 HUNTINGTON DR","JONESBORO","GA",30238,33.532394454,-84.380951856,71,"8126 HUNTINGTON DR, JONESBORO, GA, 30238","Match","Exact","8126 HUNTINGTON DR, JONESBORO, GA, 30238",23333968,"L"
879572,"8126 JORDAN CLUB CT","CLEVES","OH",45002,39.179051933,-84.707357084,72,"8126 JORDAN CLUB CT, CLEVES, OH, 45002","Match","Exact","8126 JORDAN CLUB CT, CLEVES, OH, 45002",103978439,"R"
879573,"8126 KINGS CROSS DRIVE","EVANSVILLE","IN",47711,38.053029683,-87.561286347,73,"8126 KINGS CROSS DRIVE, EVANSVILLE, IN, 47711","Match","Exact","8126 KINGS CROSS DR, EVANSVILLE, IN, 47711",632520161,"L"
879574,"8126 LAKEVIEW PKWY ST 104","ROWLETT","TX",75088,32.91438909,-96.523747879,74,"8126 LAKEVIEW PKWY ST 104, ROWLETT, TX, 75088","Match","Exact","8126 LAKEVIEW PKWY, ROWLETT, TX, 75088",636338253,"R"
879575,"8126 MARGARET PLACE","GLENDALE","NY",11385,NA,NA,75,"8126 MARGARET PLACE, GLENDALE, NY, 11385","No_Match",NA,NA,NA,NA
879576,"8126 MARILYN CT","SAINT LOUIS","MO",63134,38.759967239,-90.32243664,76,"8126 MARILYN CT, SAINT LOUIS, MO, 63134","Match","Exact","8126 MARILYN CT, SAINT LOUIS, MO, 63134",100120279,"L"
879577,"8126 NEW LAGRNGE RD","LOUISVILLE","KY",40222,38.2621872870001,-85.606341263,77,"8126 NEW LAGRNGE RD, LOUISVILLE, KY, 40222","Match","Non_Exact","8126 LAGRANGE RD, LOUISVILLE, KY, 40222",96863263,"R"
879578,"8126 NEW LAGRNGE RD","LOUISVILLE","KY",40223,38.2621872870001,-85.606341263,78,"8126 NEW LAGRNGE RD, LOUISVILLE, KY, 40223","Match","Non_Exact","8126 LAGRANGE RD, LOUISVILLE, KY, 40222",96863263,"R"
879579,"8126 QUINN TERRACE","VIENNA","VA",22180,38.8778596120001,-77.226754409,79,"8126 QUINN TERRACE, VIENNA, VA, 22180","Match","Exact","8126 QUINN TER, VIENNA, VA, 22180",635444945,"L"
879580,"8126 RAMWOOD WAY","ORANGEVALE","CA",95662,38.6910325430001,-121.260853438,80,"8126 RAMWOOD WAY, ORANGEVALE, CA, 95662","Match","Exact","8126 RAMWOOD WAY, ORANGEVALE, CA, 95662",133345088,"R"
879581,"8126 S DORCHESTER","CHICAGO","IL",60619,41.7472313750001,-87.5905283069999,81,"8126 S DORCHESTER, CHICAGO, IL, 60619","Match","Non_Exact","8126 S DORCHESTER AVE, CHICAGO, IL, 60619",111774950,"R"
879582,"8126 S GLENCOE COURT","CENTENNIAL","CO",80122,39.569078414,-104.926368992,82,"8126 S GLENCOE COURT, CENTENNIAL, CO, 80122","Match","Exact","8126 S GLENCOE CT, CENTENNIAL, CO, 80122",177517409,"R"
879583,"8126 SNIPE COURT","JUNEAU","AK",99801,58.3963523520001,-134.571257092,83,"8126 SNIPE COURT, JUNEAU, AK, 99801","Match","Exact","8126 SNIPE CT, JUNEAU, AK, 99801",190962825,"R"
879584,"8126 SOUTH SAGINAW","CHICAGO","IL",60617,41.7472986940001,-87.5600978049999,84,"8126 SOUTH SAGINAW, CHICAGO, IL, 60617","Match","Non_Exact","8126 S SAGINAW AVE, CHICAGO, IL, 60617",112046855,"R"
879585,"8126 TALKENHORN","CONVERSE","TX",78109,29.5027447210001,-98.32081011,85,"8126 TALKENHORN, CONVERSE, TX, 78109","Match","Exact","8126 TALKENHORN, CONVERSE, TX, 78109",101726733,"L"
879586,"8126 TOWSON BLVD","MIAMISBURG","OH",45342,39.629410337,-84.2330307349999,86,"8126 TOWSON BLVD, MIAMISBURG, OH, 45342","Match","Exact","8126 TOWSON BLVD, MIAMISBURG, OH, 45342",637594179,"R"
879587,"8127 BAY COURT","TEMPERANCE","MI",48182,41.763358972,-83.570074823,87,"8127 BAY COURT, TEMPERANCE, MI, 48182","Match","Exact","8127 BAY CT, TEMPERANCE, MI, 48182",625294456,"R"
879588,"8127 BLUE JAY STREET","BAYTOWN","TX",77523,29.8098679130001,-94.8986515409999,88,"8127 BLUE JAY STREET, BAYTOWN, TX, 77523","Match","Exact","8127 BLUE JAY ST, BAYTOWN, TX, 77523",95965698,"R"
879589,"8127 CAMINITO SONOMA","LA JOLLA","CA",92037,NA,NA,89,"8127 CAMINITO SONOMA, LA JOLLA, CA, 92037","No_Match",NA,NA,NA,NA
879590,"8127 DEER SPRING CIR","ANTELOPE","CA",95843,38.7172339700001,-121.36508758,90,"8127 DEER SPRING CIR, ANTELOPE, CA, 95843","Match","Exact","8127 DEER SPRING CIR, ANTELOPE, CA, 95843",133390334,"R"
879591,"8127 FAIRVIEW RIDGE ROAD","NEW MARTINSVILLE","WV",26155,39.6928677880001,-80.6205258959999,91,"8127 FAIRVIEW RIDGE ROAD, NEW MARTINSVILLE, WV, 26155","Match","Exact","8127 FAIRVIEW RIDGE, NEW MARTINSVILLE, WV, 26155",649517314,"L"
879592,"8127 GEORGIA AVE","SILVER SPRING","MD",20910,38.9910206710001,-77.0265991529999,92,"8127 GEORGIA AVE, SILVER SPRING, MD, 20910","Match","Exact","8127 GEORGIA AVE, SILVER SPRING, MD, 20910",618600495,"R"
879593,"8127 GLENCLIFFE LN","HOUSTON","TX",77040,29.976504096,-95.557071934,93,"8127 GLENCLIFFE LN, HOUSTON, TX, 77040","Match","Non_Exact","8127 GLENCLIFFE LN, HOUSTON, TX, 77070",96005871,"R"
879594,"8127 HALLS CROSSING RD","BOLIVAR","NY",14715,42.035329743,-78.1978265499999,94,"8127 HALLS CROSSING RD, BOLIVAR, NY, 14715","Match","Non_Exact","8127 HALLS CROSSROADS, BOLIVAR, NY, 14715",636403070,"L"
879595,"8127 KOSTNER AVENUE","SKOKIE","IL",60076,42.0286121720001,-87.737769596,95,"8127 KOSTNER AVENUE, SKOKIE, IL, 60076","Match","Exact","8127 KOSTNER AVE, SKOKIE, IL, 60076",111740916,"R"
879596,"8127 LANTZ","DETROIT","MH",48234,NA,NA,96,"8127 LANTZ, DETROIT, MH, 48234","No_Match",NA,NA,NA,NA
879597,"8127 LEON STREET","PHILADELPHIA","PA",19136,40.0442244130001,-75.02752656,97,"8127 LEON STREET, PHILADELPHIA, PA, 19136","Match","Exact","8127 LEON ST, PHILADELPHIA, PA, 19136",131432852,"R"
879598,"8127 MESA DR STE B206 176","AUSTIN","TX",78759,30.372123603,-97.75694218,98,"8127 MESA DR STE B206 176, AUSTIN, TX, 78759","Match","Exact","8127 MESA DR, AUSTIN, TX, 78759",63927877,"R"
879599,"8127 MESA DRIVE STE B206- 333","AUSTIN","TX",78759,30.372123603,-97.75694218,99,"8127 MESA DRIVE STE B206- 333, AUSTIN, TX, 78759","Match","Exact","8127 MESA DR, AUSTIN, TX, 78759",63927877,"R"
879600,"8127 MORNING ROSE LN","HOUSTON","TX",77095,29.8961850270001,-95.681199595,100,"8127 MORNING ROSE LN, HOUSTON, TX, 77095","Match","Exact","8127 MORNING ROSE LN, HOUSTON, TX, 77095",96562676,"R"
879601,"8127 MORNING ROSE","HOUSTON","TX",77095,29.8961850270001,-95.681199595,101,"8127 MORNING ROSE, HOUSTON, TX, 77095","Match","Non_Exact","8127 MORNING ROSE LN, HOUSTON, TX, 77095",96562676,"R"
879602,"8127 MOSIAC SUNRISE LANE","LAS VEGAS","NV",89166,36.308732349,-115.298791641,102,"8127 MOSIAC SUNRISE LANE, LAS VEGAS, NV, 89166","Match","Non_Exact","8127 MOSAIC SUNRISE LN, LAS VEGAS, NV, 89166",641520714,"L"
879603,"8127 NW 112 BLVD","ALACHUA","CA",32615,NA,NA,103,"8127 NW 112 BLVD, ALACHUA, CA, 32615","No_Match",NA,NA,NA,NA
879604,"8127 OXBOW MANOR LANE","CYPRESS","TX",77433,29.8957727120001,-95.7301280039999,104,"8127 OXBOW MANOR LANE, CYPRESS, TX, 77433","Match","Exact","8127 OXBOW MANOR LN, CYPRESS, TX, 77433",652850007,"L"
879605,"8127 PHEASANT LANE","RIVERDALE","GA",30274,33.5328483380001,-84.3939828269999,105,"8127 PHEASANT LANE, RIVERDALE, GA, 30274","Match","Exact","8127 PHEASANT LN, RIVERDALE, GA, 30274",637336557,"R"
879606,"8127 S 48TH LN","LAVEEN","AZ",86315,33.3722884520001,-112.16402938,106,"8127 S 48TH LN, LAVEEN, AZ, 86315","Match","Non_Exact","8127 S 48TH LN, LAVEEN, AZ, 85339",639827193,"R"
879607,"8127 S CRANDON","CHICAGO","IL",60617,41.7475046100001,-87.5685912869999,107,"8127 S CRANDON, CHICAGO, IL, 60617","Match","Non_Exact","8127 S CRANDON AVE, CHICAGO, IL, 60617",111776001,"L"
879608,"8127 S SHORE DR","BRIGHTON","MI",48114,42.5680860030001,-83.788125205,108,"8127 S SHORE DR, BRIGHTON, MI, 48114","Match","Exact","8127 S SHORE DR, BRIGHTON, MI, 48114",23560443,"R"
879609,"8127 S THROOP ST","CHICAGO","IL",60620,41.746264029,-87.656041811,109,"8127 S THROOP ST, CHICAGO, IL, 60620","Match","Exact","8127 S THROOP ST, CHICAGO, IL, 60620",111821422,"L"
879610,"8127 S UNIVERSITY PARKS DR","WACO","TX",76706,31.4671757520001,-97.072942699,110,"8127 S UNIVERSITY PARKS DR, WACO, TX, 76706","Match","Exact","8127 S UNIVERSITY PARKS DR, WACO, TX, 76706",146773253,"R"
879611,"8127 S WHIPPLE","CHICAGO","IL",60652,41.745651793,-87.6986083849999,111,"8127 S WHIPPLE, CHICAGO, IL, 60652","Match","Non_Exact","8127 S WHIPPLE ST, CHICAGO, IL, 60652",111819993,"L"
879612,"8127 STONELICK DR","AVON","IN",46123,39.741405146,-86.378767019,112,"8127 STONELICK DR, AVON, IN, 46123","Match","Exact","8127 STONELICK DR, AVON, IN, 46123",625553336,"R"
879613,"8127 WEST ORCHARD DRIVE","FRANKFURT","IL",60423,41.5224355980001,-87.817160028,113,"8127 WEST ORCHARD DRIVE, FRANKFURT, IL, 60423","Match","Non_Exact","8127 W ORCHARD DR, FRANKFORT, IL, 60423",639234157,"R"
879614,"8127 WISTERIA PLACE","NORFOLK","VA",23518,36.9217357590001,-76.191088991,114,"8127 WISTERIA PLACE, NORFOLK, VA, 23518","Match","Exact","8127 WISTERIA PL, NORFOLK, VA, 23518",122125668,"L"
879615,"8127W DAWSON ROAD","MANISTIQUE","MI",49854,46.012176159,-86.2882855249999,115,"8127W DAWSON ROAD, MANISTIQUE, MI, 49854","Match","Exact","8127 DAWSON RD, MANISTIQUE, MI, 49854",171907418,"R"
879616,"8128 174TH ST CT E","PUYALLUP","WA",98375,47.098008796,-122.321199164,116,"8128 174TH ST CT E, PUYALLUP, WA, 98375","Match","Exact","8128 174TH STREET CT E, PUYALLUP, WA, 98375",645878507,"L"
879617,"8128 18TH AVE SW","SEATTLE","WA",98106,47.5297900750001,-122.357744979,117,"8128 18TH AVE SW, SEATTLE, WA, 98106","Match","Exact","8128 18TH AVE SW, SEATTLE, WA, 98106",186591179,"L"
879618,"8128 8TH AVE SW","SEATTLE","WA",98106,47.529824557,-122.345481767,118,"8128 8TH AVE SW, SEATTLE, WA, 98106","Match","Exact","8128 8TH AVE SW, SEATTLE, WA, 98106",186591467,"L"
879619,"8128 BLACKBURN AVENUE","LOS ANGELES","CA",90048,34.0713081000001,-118.366398672,119,"8128 BLACKBURN AVENUE, LOS ANGELES, CA, 90048","Match","Exact","8128 BLACKBURN AVE, LOS ANGELES, CA, 90048",141598753,"L"
879620,"8128 BODEGA AVENUE","SEBASTOPOL","CA",95472,38.3981153930001,-122.8412874,120,"8128 BODEGA AVENUE, SEBASTOPOL, CA, 95472","Match","Exact","8128 BODEGA AVE, SEBASTOPOL, CA, 95472",67465481,"R"
879621,"8128 BROWN RD","RICHMOND","VA",23235,37.5155194810001,-77.5467853439999,121,"8128 BROWN RD, RICHMOND, VA, 23235","Match","Exact","8128 BROWN RD, RICHMOND, VA, 23235",223165097,"R"
879622,"8128 CHERRY HILL DRIVE","WAAREN","OH",44484,41.2530983290001,-80.744509151,122,"8128 CHERRY HILL DRIVE, WAAREN, OH, 44484","Match","Non_Exact","8128 CHERRY HILL DR NE, WARREN, OH, 44484",117407916,"L"
879623,"8128 CHICASHA LN","MERIDEN","KS",66512,NA,NA,123,"8128 CHICASHA LN, MERIDEN, KS, 66512","No_Match",NA,NA,NA,NA
879624,"8128 FAIRMOUNT AVE","DOWNERS GROCE","IL",60516,41.739559168,-88.000514956,124,"8128 FAIRMOUNT AVE, DOWNERS GROCE, IL, 60516","Match","Non_Exact","8128 FAIRMOUNT AVE, DOWNERS GROVE, IL, 60516",112540575,"R"
879625,"8128 FAIRMOUNT AVE","DOWNERS GROVE","IL",60516,41.739559168,-88.000514956,125,"8128 FAIRMOUNT AVE, DOWNERS GROVE, IL, 60516","Match","Exact","8128 FAIRMOUNT AVE, DOWNERS GROVE, IL, 60516",112540575,"R"
879626,"8128 GOLF VISTA GRIVE","GREENCASTLE","PA",17225,39.811734098,-77.7574385739999,126,"8128 GOLF VISTA GRIVE, GREENCASTLE, PA, 17225","Match","Non_Exact","8128 GOLF VISTA DR, GREENCASTLE, PA, 17225",60102206,"L"
879627,"8128 HAYDEN DR","KNOXVILLE","TN",37919,35.9205655380001,-84.0466260109999,127,"8128 HAYDEN DR, KNOXVILLE, TN, 37919","Match","Exact","8128 HAYDEN DR, KNOXVILLE, TN, 37919",636700730,"L"
879628,"8128 HUNTERS MEADOW LN","ARLINGTON","TN",38002,35.25333248,-89.791971503,128,"8128 HUNTERS MEADOW LN, ARLINGTON, TN, 38002","Match","Exact","8128 HUNTERS MEADOW LN, ARLINGTON, TN, 38002",601177792,"L"
879629,"8128 MANITOBA ST","PLAYA DEL REY","CA",90293,33.955520167,-118.437088274,129,"8128 MANITOBA ST, PLAYA DEL REY, CA, 90293","Match","Exact","8128 MANITOBA ST, PLAYA DEL REY, CA, 90293",650084805,"L"
879630,"8128 NATURES WAY UNIT 13","LAKEWOOD RANCH","FL",34202,27.3928427880001,-82.441569583,130,"8128 NATURES WAY UNIT 13, LAKEWOOD RANCH, FL, 34202","Match","Exact","8128 NATURES WAY, LAKEWOOD RCH, FL, 34202",16283716,"R"
879631,"8128 PELASANT PLAINS ROAD","TOWSON","MD",21286,39.3890745410001,-76.575602626,131,"8128 PELASANT PLAINS ROAD, TOWSON, MD, 21286","Match","Non_Exact","8128 PLEASANT PLAINS RD, TOWSON, MD, 21286",191475599,"L"
879632,"8128 PISMO AVE","HESPERIA","CA",92345,34.3991896850001,-117.265746178,132,"8128 PISMO AVE, HESPERIA, CA, 92345","Match","Exact","8128 PISMO AVE, HESPERIA, CA, 92345",144590342,"L"
879633,"8128 PLEASANT PLAINS ROAD","TOWSON","MD",21286,39.3890745410001,-76.575602626,133,"8128 PLEASANT PLAINS ROAD, TOWSON, MD, 21286","Match","Exact","8128 PLEASANT PLAINS RD, TOWSON, MD, 21286",191475599,"L"
879634,"8128 PLUM CREEK TRAIL","BURLESON","TX",76028,32.5464878430001,-97.218447193,134,"8128 PLUM CREEK TRAIL, BURLESON, TX, 76028","Match","Exact","8128 PLUM CREEK TRL, BURLESON, TX, 76028",641688454,"R"
879635,"8128 RIDGELY LOOP","SEVERN","MD",21144,39.1205461010001,-76.643723073,135,"8128 RIDGELY LOOP, SEVERN, MD, 21144","Match","Exact","8128 RIDGELY LOOP, SEVERN, MD, 21144",643090466,"R"
879636,"8128 RUGBY STREET","PHILADELPHIA","PA",19150,40.0721826710001,-75.173253748,136,"8128 RUGBY STREET, PHILADELPHIA, PA, 19150","Match","Exact","8128 RUGBY ST, PHILADELPHIA, PA, 19150",131394943,"L"
879637,"8128 S CHANNEL DRIVE","GREENBELT","MD",20770,39.0009862970001,-76.916393748,137,"8128 S CHANNEL DRIVE, GREENBELT, MD, 20770","Match","Exact","8128 S CHANNEL DR, GREENBELT, MD, 20770",644931649,"L"
879638,"8128 S COLES","CHICAGO","IL",60617,41.7477354100001,-87.54918781,138,"8128 S COLES, CHICAGO, IL, 60617","Match","Non_Exact","8128 S COLES AVE, CHICAGO, IL, 60617",111781565,"R"
879639,"8128 S HARRISON WAY","CENTENNIAL","CO",80122,39.5690938650001,-104.942355482,139,"8128 S HARRISON WAY, CENTENNIAL, CO, 80122","Match","Exact","8128 S HARRISON WAY, CENTENNIAL, CO, 80122",653313197,"L"
879640,"8128 S INDIANA APT BF","CHICAGO","IL",60619,NA,NA,140,"8128 S INDIANA APT BF, CHICAGO, IL, 60619","No_Match",NA,NA,NA,NA
879641,"8128 S LAKEWOOD PLACE APT 7","TULSA","OK",74137,36.0442447080001,-95.905498302,141,"8128 S LAKEWOOD PLACE APT 7, TULSA, OK, 74137","Match","Non_Exact","8128 S LAKEWOOD PL, TULSA, OK, 74137",166475668,"L"
879642,"8128 SAINT MARTINS LANE","PHILADELPHIA","PA",19118,40.066394868,-75.2078869919999,142,"8128 SAINT MARTINS LANE, PHILADELPHIA, PA, 19118","Match","Exact","8128 SAINT MARTINS LN, PHILADELPHIA, PA, 19118",131393936,"L"
879643,"8128 SHERRIFF ROAD","HYATTSVILLE","MD",20785,38.913808901,-76.866339212,143,"8128 SHERRIFF ROAD, HYATTSVILLE, MD, 20785","Match","Non_Exact","8128 SHERIFF RD, HYATTSVILLE, MD, 20785",76358357,"L"
879644,"8128 ST MARTINS LANE","PHILADELPHIA","PA",19118,40.066394868,-75.2078869919999,144,"8128 ST MARTINS LANE, PHILADELPHIA, PA, 19118","Match","Exact","8128 SAINT MARTINS LN, PHILADELPHIA, PA, 19118",131393936,"L"
879645,"8128 TIERRA DEL SOL","ARLINGTON","TX",76002,32.608917063,-97.099176791,145,"8128 TIERRA DEL SOL, ARLINGTON, TX, 76002","Match","Non_Exact","8128 TIERRA DEL SOL RD, ARLINGTON, TX, 76002",624926361,"L"
879646,"8128 TOCKINGTON WAY","AUSTIN","TX",78748,30.184504385,-97.798543341,146,"8128 TOCKINGTON WAY, AUSTIN, TX, 78748","Match","Exact","8128 TOCKINGTON WAY, AUSTIN, TX, 78748",63979288,"R"
879647,"8128 UNIVERSITY DRIVE","CLAYTON","MO",63105,38.6539867340001,-90.341486117,147,"8128 UNIVERSITY DRIVE, CLAYTON, MO, 63105","Match","Exact","8128 UNIVERSITY DR, CLAYTON, MO, 63105",100134649,"L"
879648,"8128 WOODBINE AVENUE","CINCINNATI","OH",45216,39.207296136,-84.4703674469999,148,"8128 WOODBINE AVENUE, CINCINNATI, OH, 45216","Match","Exact","8128 WOODBINE AVE, CINCINNATI, OH, 45216",103928047,"R"
879649,"8128 ZANE AVE N APT 206","BROOKLYN PARK","MN",55443,45.1007026980001,-93.3564734239999,149,"8128 ZANE AVE N APT 206, BROOKLYN PARK, MN, 55443","Match","Exact","8128 ZANE AVE N, BROOKLYN PARK, MN, 55443",43614528,"R"
879650,"81280 IRIS CT","INDIO","CA",92201,33.690826939,-116.245537319,150,"81280 IRIS CT, INDIO, CA, 92201","Match","Exact","81280 IRIS CT, INDIO, CA, 92201",195057502,"R"
879651,"8129 BOXBERRY AVE","LAS VEGAS","NV",89131,36.28966158,-115.272772591,151,"8129 BOXBERRY AVE, LAS VEGAS, NV, 89131","Match","Exact","8129 BOXBERRY AVE, LAS VEGAS, NV, 89131",201947005,"L"
879652,"8129 CAMELLIA RD","NORFOLK","VA",23518,36.922536188,-76.2011564279999,152,"8129 CAMELLIA RD, NORFOLK, VA, 23518","Match","Exact","8129 CAMELLIA RD, NORFOLK, VA, 23518",122125511,"L"
879653,"8129 CENTENNIAL ROAD","JACKSONVILLE","AR",72076,34.9440080620001,-92.1453829179999,153,"8129 CENTENNIAL ROAD, JACKSONVILLE, AR, 72076","Match","Exact","8129 CENTENNIAL RD, JACKSONVILLE, AR, 72076",642519768,"R"
879654,"8129 CONRAD ST","DOWNEY","CA",90242,33.9276275450001,-118.146494482,154,"8129 CONRAD ST, DOWNEY, CA, 90242","Match","Exact","8129 CONRAD ST, DOWNEY, CA, 90242",624803237,"L"
879655,"8129 CRAWFORD CURRIN ROAD","OXFORD","NC",27565,36.456570147,-78.60304443,155,"8129 CRAWFORD CURRIN ROAD, OXFORD, NC, 27565","Match","Exact","8129 CRAWFORD CURRIN RD, OXFORD, NC, 27565",77100602,"L"
879656,"8129 CRISPIN STREET","PHILADELPHIA","PA",19136,40.0453636610001,-75.0277792219999,156,"8129 CRISPIN STREET, PHILADELPHIA, PA, 19136","Match","Exact","8129 CRISPIN ST, PHILADELPHIA, PA, 19136",131432832,"R"
879657,"8129 CROWN COLONY PARKWAY","MECHANICSVILLE","VA",23116,37.6637776520001,-77.3759493009999,157,"8129 CROWN COLONY PARKWAY, MECHANICSVILLE, VA, 23116","Match","Exact","8129 CROWN COLONY PKWY, MECHANICSVILLE, VA, 23116",84981980,"R"
879658,"8129 EL EXTENSO COURT","SAN DIEGO","CA",92119,32.8149927580001,-117.048784117,158,"8129 EL EXTENSO COURT, SAN DIEGO, CA, 92119","Match","Exact","8129 EL EXTENSO CT, SAN DIEGO, CA, 92119",195323258,"R"
879659,"8129 HAWTHORNE ST","JACKSONVILLE","FL",32208,30.390482294,-81.645565854,159,"8129 HAWTHORNE ST, JACKSONVILLE, FL, 32208","Match","Exact","8129 HAWTHORNE ST, JACKSONVILLE, FL, 32208",83897528,"R"
879660,"8129 HORNCASTLE AVENUE","ROSEVILLE","CA",95747,38.7837464350001,-121.331047758,160,"8129 HORNCASTLE AVENUE, ROSEVILLE, CA, 95747","Match","Exact","8129 HORNCASTLE AVE, ROSEVILLE, CA, 95747",106811896,"L"
879661,"8129 HUNT FIELD DRIVE","FULTON","MD",20759,39.1466190630001,-76.925272365,161,"8129 HUNT FIELD DRIVE, FULTON, MD, 20759","Match","Non_Exact","8129 HUNTFIELD DR, FULTON, MD, 20759",614141935,"R"
879662,"8129 MARSEILLE DR","CORPUS CHRISTI","TX",78414,27.6507023390001,-97.390183209,162,"8129 MARSEILLE DR, CORPUS CHRISTI, TX, 78414","Match","Exact","8129 MARSEILLE DR, CORPUS CHRISTI, TX, 78414",178536021,"R"
879663,"8129 N IVORY ROSE DR","TUCSON","AZ",85741,32.3540949330001,-111.062008034,163,"8129 N IVORY ROSE DR, TUCSON, AZ, 85741","Match","Exact","8129 N IVORY ROSE DR, TUCSON, AZ, 85741",121391903,"R"
879664,"8129 NEW BRUNSWICK COVE","SOUTHAVEN","MS",38671,34.979303101,-89.938610168,164,"8129 NEW BRUNSWICK COVE, SOUTHAVEN, MS, 38671","Match","Non_Exact","8129 NEW BRUNSWICK COVE, SOUTHAVEN, MS, 38672",91842549,"R"
879665,"8129 OTTER RD","CLEVELAND","OH",44104,41.480431438,-81.630708538,165,"8129 OTTER RD, CLEVELAND, OH, 44104","Match","Non_Exact","8129 OTTER AVE, CLEVELAND, OH, 44104",61114751,"L"
879666,"8129 PELICAN HARBOUR DR","LAKE WORTH","FL",33467,26.5817556980001,-80.177851806,166,"8129 PELICAN HARBOUR DR, LAKE WORTH, FL, 33467","Match","Exact","8129 PELICAN HARBOUR DR, LAKE WORTH, FL, 33467",115510778,"R"
879667,"8129 POPLARWOOD LANE","NASHVILLE","TN",37221,36.055177013,-86.973285646,167,"8129 POPLARWOOD LANE, NASHVILLE, TN, 37221","Match","Non_Exact","8129 POPLAR WOOD LN, NASHVILLE, TN, 37221",97217204,"L"
879668,"8129 RHIANNON RD","RALEIGH","NC",27613,35.8845974990001,-78.735791419,168,"8129 RHIANNON RD, RALEIGH, NC, 27613","Match","Exact","8129 RHIANNON RD, RALEIGH, NC, 27613",612815022,"L"
879669,"8129 RIVER POINT CT","ST AUGUSTINE","FL",32092,NA,NA,169,"8129 RIVER POINT CT, ST AUGUSTINE, FL, 32092","No_Match",NA,NA,NA,NA
879670,"8129 ROANOKE ST","CHESTNUT HILL","PA",19118,40.0711151690001,-75.203336618,170,"8129 ROANOKE ST, CHESTNUT HILL, PA, 19118","Match","Non_Exact","8129 ROANOKE ST, PHILADELPHIA, PA, 19118",131393951,"R"
879671,"8129 S GREEN","CHICAGO","IL",60621,NA,NA,171,"8129 S GREEN, CHICAGO, IL, 60621","No_Match",NA,NA,NA,NA
879672,"8129 S KOLAMR","CHICAGO","IL",60652,NA,NA,172,"8129 S KOLAMR, CHICAGO, IL, 60652","No_Match",NA,NA,NA,NA
879673,"8129 S PAXTON AVE","CHICAGO","IL",60617,41.747443423,-87.571030101,173,"8129 S PAXTON AVE, CHICAGO, IL, 60617","Match","Exact","8129 S PAXTON AVE, CHICAGO, IL, 60617",111775995,"L"
879674,"8129 S WASHTENAW AVE","CHICAGO","IL",60652,41.74575786,-87.690073377,174,"8129 S WASHTENAW AVE, CHICAGO, IL, 60652","Match","Exact","8129 S WASHTENAW AVE, CHICAGO, IL, 60652",111820184,"L"
879675,"8129 SAPHHIRE SEA STREET","NORTH LAS VEGAS","NV",89085,36.308623719,-115.205366017,175,"8129 SAPHHIRE SEA STREET, NORTH LAS VEGAS, NV, 89085","Match","Non_Exact","8129 SAPPHIRE SEA ST, N LAS VEGAS, NV, 89085",641508928,"R"
879676,"8129 SIGNAL HILL RD","MECHANICSVILLE","VA",23111,37.6052561450001,-77.378944389,176,"8129 SIGNAL HILL RD, MECHANICSVILLE, VA, 23111","Match","Exact","8129 SIGNAL HILL RD, MECHANICSVILLE, VA, 23111",84968918,"R"
879677,"8129 STAHLEY ROAD","EAST AMHERST","NY",14051,43.0342718040001,-78.691569874,177,"8129 STAHLEY ROAD, EAST AMHERST, NY, 14051","Match","Exact","8129 STAHLEY RD, EAST AMHERST, NY, 14051",48285629,"R"
879678,"8129 SUNSET LANE","SYLVANIA","OH",43560,41.713831213,-83.7403593719999,178,"8129 SUNSET LANE, SYLVANIA, OH, 43560","Match","Exact","8129 SUNSET LN, SYLVANIA, OH, 43560",623784239,"R"
879679,"812A S COLLEGE AVE","NEWARK","DE",19713,39.6553375240001,-75.751368359,179,"812A S COLLEGE AVE, NEWARK, DE, 19713","Match","Exact","812 S COLLEGE AVE, NEWARK, DE, 19713",187299394,"R"
879680,"812WATERELM CT","CHESAPEAKE","VA",23320,NA,NA,180,"812WATERELM CT, CHESAPEAKE, VA, 23320","No_Match",NA,NA,NA,NA
879681,"813 1/2 W OSBORNE STREET","SANDUSKY","OH",44870,41.4424431780001,-82.7126724669999,181,"813 1/2 W OSBORNE STREET, SANDUSKY, OH, 44870","Match","Exact","813 W OSBORNE ST, SANDUSKY, OH, 44870",55324860,"R"
879682,"813 10TH ST","DAVIS","CA",95616,38.553516318,-121.74163959,182,"813 10TH ST, DAVIS, CA, 95616","Match","Exact","813 10TH ST, DAVIS, CA, 95616",67691184,"L"
879683,"813 11TH AVE SW","AUSTIN","MN",55912,43.656593791,-92.98364685,183,"813 11TH AVE SW, AUSTIN, MN, 55912","Match","Exact","813 11TH AVE SW, AUSTIN, MN, 55912",27623124,"L"
879684,"813 12TH STREET","LAWRENCEVILLE","IL",62439,38.7293196420001,-87.683188321,184,"813 12TH STREET, LAWRENCEVILLE, IL, 62439","Match","Exact","813 12TH ST, LAWRENCEVILLE, IL, 62439",29661471,"L"
879685,"813 145TH ST E","BURNSVILLE","MN",55337,NA,NA,185,"813 145TH ST E, BURNSVILLE, MN, 55337","No_Match",NA,NA,NA,NA
879686,"813 16TH AVENUE","ALMENA","WI",54805,45.438363747,-91.989409467,186,"813 16TH AVENUE, ALMENA, WI, 54805","Match","Exact","813 16TH AVE, ALMENA, WI, 54805",126281540,"R"
879687,"813 20TH ST NE","WASHINGTON","DC",20002,38.900595986,-76.975175007,187,"813 20TH ST NE, WASHINGTON, DC, 20002","Match","Exact","813 20TH ST NE, WASHINGTON, DC, 20002",76231281,"R"
879688,"813 3RD STREET SW","WASHINGTON, DC","DC",20024,38.880172547,-77.0151902659999,188,"813 3RD STREET SW, WASHINGTON, DC, DC, 20024","Match","Exact","813 3RD ST SW, WASHINGTON, DC, 20024",76227053,"R"
879689,"813 42ND STREET NORTH","BIRMINGHAM","AL",35212,33.5383414720001,-86.775682121,189,"813 42ND STREET NORTH, BIRMINGHAM, AL, 35212","Match","Exact","813 42ND ST N, BIRMINGHAM, AL, 35212",81577826,"R"
879690,"813 47TH PLACE SOUTH","BIRMINGHAM","AL",35222,33.5211533740001,-86.760286611,190,"813 47TH PLACE SOUTH, BIRMINGHAM, AL, 35222","Match","Exact","813 47TH PL S, BIRMINGHAM, AL, 35222",81579748,"L"
879691,"813 54TH ST SE","AUBURN","WA",98092,47.2604733050001,-122.219004357,191,"813 54TH ST SE, AUBURN, WA, 98092","Match","Exact","813 54TH ST SE, AUBURN, WA, 98092",186656308,"R"
879692,"813 70TH STREET EAST","WILLISTON","MN",58801,NA,NA,192,"813 70TH STREET EAST, WILLISTON, MN, 58801","No_Match",NA,NA,NA,NA
879693,"813 7TH ST SE","OELWEIN","IA",50662,42.6696969010001,-91.902328755,193,"813 7TH ST SE, OELWEIN, IA, 50662","Match","Exact","813 7TH ST SE, OELWEIN, IA, 50662",108200929,"L"
879694,"813 9TH AVE W","ASHLAND","WI",54806,46.5819204200001,-90.888209473,194,"813 9TH AVE W, ASHLAND, WI, 54806","Match","Exact","813 9TH AVE W, ASHLAND, WI, 54806",165352314,"L"
879695,"813 ALEXANDA CIR","WEST HILLS","CA",91377,NA,NA,195,"813 ALEXANDA CIR, WEST HILLS, CA, 91377","No_Match",NA,NA,NA,NA
879696,"813 ALEXANDARA CIR","OAK PARK","CA",91377,34.188404819,-118.762544715,196,"813 ALEXANDARA CIR, OAK PARK, CA, 91377","Match","Non_Exact","813 ALEXANDRA CT, OAK PARK, CA, 91377",110038031,"R"
879697,"813 ALICE STREET","MONTEREY","CA",93940,36.609407644,-121.915962823,197,"813 ALICE STREET, MONTEREY, CA, 93940","Match","Exact","813 ALICE ST, MONTEREY, CA, 93940",196812868,"L"
879698,"813 ANGEL WING DRIVE","SANIBEL","FL",33957,26.4464457450001,-82.036734923,198,"813 ANGEL WING DRIVE, SANIBEL, FL, 33957","Match","Exact","813 ANGEL WING DR, SANIBEL, FL, 33957",118011259,"L"
879699,"813 ANNA ST","DENTON","TX",76201,33.2216099440001,-97.136408436,199,"813 ANNA ST, DENTON, TX, 76201","Match","Exact","813 ANNA ST, DENTON, TX, 76201",103435218,"L"
879700,"813 APPLEBY ST","HUNTSVILLE","AL",35816,34.729956971,-86.604037647,200,"813 APPLEBY ST, HUNTSVILLE, AL, 35816","Match","Non_Exact","813 APPLEBY ST NW, HUNTSVILLE, AL, 35816",58171062,"L"
879701,"813 ARNOLD SPENCE ROAD","BALL GROUND","GA",30107,34.341857885,-84.434059828,201,"813 ARNOLD SPENCE ROAD, BALL GROUND, GA, 30107","Match","Exact","813 ARNOLD SPENCE RD, BALL GROUND, GA, 30107",641970332,"L"
879702,"813 ASBURY BLVD","SOUTH ELGIN","IL",60177,41.965343966,-88.346453857,202,"813 ASBURY BLVD, SOUTH ELGIN, IL, 60177","Match","Exact","813 ASBURY BLVD, SOUTH ELGIN, IL, 60177",649343581,"R"
879703,"813 BANGOR ROAD","NAZARETH","PA",18064,40.784681892,-75.266074109,203,"813 BANGOR ROAD, NAZARETH, PA, 18064","Match","Exact","813 BANGOR RD, NAZARETH, PA, 18064",136868594,"L"
879704,"813 BARCELONA AVENUE","DAVIS","CA",95616,38.5649917630001,-121.760118158,204,"813 BARCELONA AVENUE, DAVIS, CA, 95616","Match","Exact","813 BARCELONA AVE, DAVIS, CA, 95616",67695728,"R"
879705,"813 BERKSHIRE TERRACE","HAMPTON","NC",23666,NA,NA,205,"813 BERKSHIRE TERRACE, HAMPTON, NC, 23666","No_Match",NA,NA,NA,NA
879706,"813 BISON COURT","LUSBY","MD",20657,38.3632406040001,-76.407595182,206,"813 BISON COURT, LUSBY, MD, 20657","Match","Exact","813 BISON CT, LUSBY, MD, 20657",78175629,"R"
879707,"813 BLAZING STAR DRIVE","GARLAND","TX",75043,32.8562715040001,-96.5933149259999,207,"813 BLAZING STAR DRIVE, GARLAND, TX, 75043","Match","Exact","813 BLAZING STAR DR, GARLAND, TX, 75043",650155519,"L"
879708,"813 BLEAK HILL PL","UPPER MARLBORO","MD",20774,38.877709801,-76.761801378,208,"813 BLEAK HILL PL, UPPER MARLBORO, MD, 20774","Match","Exact","813 BLEAK HILL PL, UPPER MARLBORO, MD, 20774",624854095,"R"
879709,"813 BLOODWORTH LN 713","PENSACOLA","FL",32504,30.4996648870001,-87.221063337,209,"813 BLOODWORTH LN 713, PENSACOLA, FL, 32504","Match","Exact","813 BLOODWORTH LN, PENSACOLA, FL, 32504",93218316,"R"
879710,"813 BLUE FISH ROAD","NORMAN","OK",73069,35.2525640320001,-97.453106694,210,"813 BLUE FISH ROAD, NORMAN, OK, 73069","Match","Exact","813 BLUE FISH RD, NORMAN, OK, 73069",648402010,"R"
879711,"813 BLUEGRASS DR","PRATTVILLE","AP",36067,NA,NA,211,"813 BLUEGRASS DR, PRATTVILLE, AP, 36067","No_Match",NA,NA,NA,NA
879712,"813 BOBBY RD","CATONSVILLE","MD",21228,39.2777146120001,-76.7376956969999,212,"813 BOBBY RD, CATONSVILLE, MD, 21228","Match","Exact","813 BOBBY RD, CATONSVILLE, MD, 21228",191484137,"L"
879713,"813 BOULDER ROAD","INDIANAPOLIS","IN",46217,39.6686299140001,-86.1735675799999,213,"813 BOULDER ROAD, INDIANAPOLIS, IN, 46217","Match","Exact","813 BOULDER RD, INDIANAPOLIS, IN, 46217",108006015,"L"
879714,"813 BRADDOCK AVENUE APARTMENT","PITTSBURGH","PA",15221,NA,NA,214,"813 BRADDOCK AVENUE APARTMENT, PITTSBURGH, PA, 15221","Tie",NA,NA,NA,NA
879715,"813 BRANCHWOOD DRIVE","KERNERSVILLE","NC",27284,36.127038149,-80.08562122,215,"813 BRANCHWOOD DRIVE, KERNERSVILLE, NC, 27284","Match","Exact","813 BRANCHWOOD DR, KERNERSVILLE, NC, 27284",84617826,"R"
879716,"813 BRAY AVENUE","ROLLA","MO",65401,37.9486383060001,-91.788558698,216,"813 BRAY AVENUE, ROLLA, MO, 65401","Match","Exact","813 BRAY AVE, ROLLA, MO, 65401",45076747,"L"
879717,"813 BREES","DESOTO","TX",75115,32.577103778,-96.865460013,217,"813 BREES, DESOTO, TX, 75115","Match","Non_Exact","813 BREES DR, DESOTO, TX, 75115",102972727,"L"
879718,"813 BRICK LANE","SOUTH LYON","MI",48178,42.471261977,-83.6389835959999,218,"813 BRICK LANE, SOUTH LYON, MI, 48178","Match","Exact","813 BRICK LN, SOUTH LYON, MI, 48178",69783884,"L"
879719,"813 BROAD STREET","MURRAY","KY",42071,36.5966660390001,-88.306643761,219,"813 BROAD STREET, MURRAY, KY, 42071","Match","Exact","813 BROAD ST, MURRAY, KY, 42071",31709306,"R"
879720,"813 BUFFALO TRAIL","GRANBURY","TX",76048,32.405952031,-97.778067693,220,"813 BUFFALO TRAIL, GRANBURY, TX, 76048","Match","Exact","813 BUFFALO TRL, GRANBURY, TX, 76048",158789757,"R"
879721,"813 CANNON STREET","GREENVILLE","MS",38701,33.396311353,-91.042036415,221,"813 CANNON STREET, GREENVILLE, MS, 38701","Match","Exact","813 CANNON ST, GREENVILLE, MS, 38701",1154322,"L"
879722,"813 CANTERBURY","ALTUS","OK",73521,34.6465586140001,-99.3136743169999,222,"813 CANTERBURY, ALTUS, OK, 73521","Match","Non_Exact","813 CANTERBURY BLVD, ALTUS, OK, 73521",171807064,"L"
879723,"813 CASCADE DR","GLENN HEIGHTS","TX",75154,32.5668163330001,-96.8386772709999,223,"813 CASCADE DR, GLENN HEIGHTS, TX, 75154","Match","Exact","813 CASCADE DR, GLENN HEIGHTS, TX, 75154",103278085,"L"
879724,"813 CASKEY ST","MARTINEZ","CA",94553,NA,NA,224,"813 CASKEY ST, MARTINEZ, CA, 94553","No_Match",NA,NA,NA,NA
879725,"813 CATHERINE STREET","BIRMINGHAM","AL",35215,33.600250843,-86.694085555,225,"813 CATHERINE STREET, BIRMINGHAM, AL, 35215","Match","Exact","813 CATHERINE ST, BIRMINGHAM, AL, 35215",81568164,"R"
879726,"813 CATTELL ST","EASTON","PA",18042,40.7056425500001,-75.208350147,226,"813 CATTELL ST, EASTON, PA, 18042","Match","Exact","813 CATTELL ST, EASTON, PA, 18042",136883718,"R"
879727,"813 CAWTHON STREET","PRICHARD","AL",36610,30.7327516140001,-88.068579792,227,"813 CAWTHON STREET, PRICHARD, AL, 36610","Match","Exact","813 CAWTHON ST, PRICHARD, AL, 36610",61852197,"L"
879728,"813 CEDARHILL DR","CINICINNATI","OH",45240,39.3010330600001,-84.506420175,228,"813 CEDARHILL DR, CINICINNATI, OH, 45240","Match","Non_Exact","813 CEDARHILL DR, CINCINNATI, OH, 45240",103943547,"L"
879729,"813 CENTER STREET","UNION BEACH","NJ",7735,40.449772749,-74.173606004,229,"813 CENTER STREET, UNION BEACH, NJ, 7735","Match","Exact","813 CENTER ST, UNION BEACH, NJ, 07735",90472724,"L"
879730,"813 CENTRAL AVE W","ST PAUL","MN",55104,NA,NA,230,"813 CENTRAL AVE W, ST PAUL, MN, 55104","No_Match",NA,NA,NA,NA
879731,"813 CENTRAL AVENUE","HOPKINSVILLE","TN",42240,NA,NA,231,"813 CENTRAL AVENUE, HOPKINSVILLE, TN, 42240","No_Match",NA,NA,NA,NA
879732,"813 CENTRAL AVENUE","UNION CITY","NJ",7087,40.7587761290001,-74.0414744989999,232,"813 CENTRAL AVENUE, UNION CITY, NJ, 7087","Match","Exact","813 CENTRAL AVE, UNION CITY, NJ, 07087",59597869,"L"
879733,"813 CHERVIL CT","CHULA VISTA","CA",91910,32.6258961670001,-117.023057252,233,"813 CHERVIL CT, CHULA VISTA, CA, 91910","Match","Exact","813 CHERVIL CT, CHULA VISTA, CA, 91910",195363943,"L"
879734,"813 CHURCH ST","GRASS LAKE","MI",49240,42.2511829910001,-84.200987664,234,"813 CHURCH ST, GRASS LAKE, MI, 49240","Match","Exact","813 CHURCH ST, GRASS LAKE, MI, 49240",17612514,"R"
879735,"813 CHURCHILL DRIVE","LARCHWOOD","IA",51241,43.4512088210001,-96.426201013,235,"813 CHURCHILL DRIVE, LARCHWOOD, IA, 51241","Match","Exact","813 CHURCHILL DR, LARCHWOOD, IA, 51241",30202778,"R"
879736,"813 COLEMAN DRIVE","ANNISTON","AL",36207,33.6550685190001,-85.8090185299999,236,"813 COLEMAN DRIVE, ANNISTON, AL, 36207","Match","Exact","813 COLEMAN DR, ANNISTON, AL, 36207",66583011,"R"
879737,"813 COLONY CIRCLE","LANCASTER","PA",17601,40.05958108,-76.376962081,237,"813 COLONY CIRCLE, LANCASTER, PA, 17601","Match","Exact","813 COLONY CIR, LANCASTER, PA, 17601",179660621,"R"
879738,"813 CONODOGUINET DR","CAMP HILL","PA",17011,40.258274799,-76.934306533,238,"813 CONODOGUINET DR, CAMP HILL, PA, 17011","Match","Exact","813 CONODOGUINET DR, CAMP HILL, PA, 17011",60990166,"R"
879739,"813 CORAL BERRY","MCKINNEY","TX",75071,NA,NA,239,"813 CORAL BERRY, MCKINNEY, TX, 75071","No_Match",NA,NA,NA,NA
879740,"813 COUNTRY CLUB CIRCLE","RIPON","CA",95366,37.7455547380001,-121.11377054,240,"813 COUNTRY CLUB CIRCLE, RIPON, CA, 95366","Match","Exact","813 COUNTRY CLUB CIR, RIPON, CA, 95366",133876808,"L"
879741,"813 CR 1350 E","TOLEDO","IL",62438,39.2889109380001,-88.223022343,241,"813 CR 1350 E, TOLEDO, IL, 62438","Match","Non_Exact","813 CO RD 1350 E, TOLEDO, IL, 62468",5711886,"L"
879742,"813 CR 4708","SULPHUR SPRINGS","TX",75482,33.18817725,-95.643719033,242,"813 CR 4708, SULPHUR SPRINGS, TX, 75482","Match","Exact","813 CO RD 4708, SULPHUR SPRINGS, TX, 75482",42784446,"R"
879743,"813 CRAIN STREET","EVANSTON","IL",60202,42.0393967740001,-87.682214436,243,"813 CRAIN STREET, EVANSTON, IL, 60202","Match","Exact","813 CRAIN ST, EVANSTON, IL, 60202",605252001,"R"
879744,"813 CREEKSIDE DRIVE","MESQUITE","TX",75181,32.736695722,-96.586368543,244,"813 CREEKSIDE DRIVE, MESQUITE, TX, 75181","Match","Exact","813 CREEKSIDE DR, MESQUITE, TX, 75181",103166094,"L"
879745,"813 CRESTVIEW CT","SAN MARCOS","CA",92078,33.1275417430001,-117.188202752,245,"813 CRESTVIEW CT, SAN MARCOS, CA, 92078","Match","Exact","813 CRESTVIEW CT, SAN MARCOS, CA, 92078",195421166,"L"
879746,"813 CRISTICH LN","CAMPBELL","CA",95008,37.275580104,-121.945160498,246,"813 CRISTICH LN, CAMPBELL, CA, 95008","Match","Exact","813 CRISTICH LN, CAMPBELL, CA, 95008",646854638,"L"
879747,"813 CRITTENDEN STREET NW","WASHINGTON","DC",20011,38.9472736060001,-77.0239164129999,247,"813 CRITTENDEN STREET NW, WASHINGTON, DC, 20011","Match","Exact","813 CRITTENDEN ST NW, WASHINGTON, DC, 20011",76223488,"R"
879748,"813 DEER PATH TRAIL","NEWPORT NEWS","VA",23608,37.1688453580001,-76.522899799,248,"813 DEER PATH TRAIL, NEWPORT NEWS, VA, 23608","Match","Exact","813 DEER PATH TRL, NEWPORT NEWS, VA, 23608",103814799,"L"
879749,"813 DEERFIELD RD","LOUISA","VA",23093,37.938559793,-78.173047874,249,"813 DEERFIELD RD, LOUISA, VA, 23093","Match","Exact","813 DEERFIELD RD, LOUISA, VA, 23093",73792653,"R"
879750,"813 DELGADO DR","BATON ROUGE","LA",70808,30.4056337120001,-91.163355523,250,"813 DELGADO DR, BATON ROUGE, LA, 70808","Match","Exact","813 DELGADO DR, BATON ROUGE, LA, 70808",92185294,"L"
879751,"813 DESOTO DR","DESOTO","TX",75115,32.577097488,-96.86360756,251,"813 DESOTO DR, DESOTO, TX, 75115","Match","Exact","813 DESOTO DR, DESOTO, TX, 75115",102972700,"R"
879752,"813 DONAU CT","LINCOLN","CA",95648,38.8449797980001,-121.267677131,252,"813 DONAU CT, LINCOLN, CA, 95648","Match","Exact","813 DONAU CT, LINCOLN, CA, 95648",634291707,"L"
879753,"813 DOVE MEADOW COVE","GEORGETOWN","TX",78626,30.6334462240001,-97.6325677139999,253,"813 DOVE MEADOW COVE, GEORGETOWN, TX, 78626","Match","Exact","813 DOVE MEADOW COVE, GEORGETOWN, TX, 78626",126529377,"L"
879754,"813 DOVE STREET","GLENDIVE","MT",59330,47.0957876470001,-104.707601077,254,"813 DOVE STREET, GLENDIVE, MT, 59330","Match","Exact","813 DOVE ST, GLENDIVE, MT, 59330",161614738,"L"
879755,"813 E 109TH AVE","TAMPA","FL",33612,28.047294843,-82.452683575,255,"813 E 109TH AVE, TAMPA, FL, 33612","Match","Exact","813 E 109TH AVE, TAMPA, FL, 33612",104611637,"R"
879756,"813 E 15TH STREET","STERLING","IL",61081,41.799997568,-89.6859803729999,256,"813 E 15TH STREET, STERLING, IL, 61081","Match","Exact","813 E 15TH ST, STERLING, IL, 61081",48967378,"L"
879757,"813 E 2ND STREET","CLEELUM","WA",98922,47.1939345660001,-120.923020202,257,"813 E 2ND STREET, CLEELUM, WA, 98922","Match","Non_Exact","813 E 2ND ST, CLE ELUM, WA, 98922",157197907,"R"
879758,"813 E HAINES STREETQ","PHILADELPHIA","PA",19138,NA,NA,258,"813 E HAINES STREETQ, PHILADELPHIA, PA, 19138","No_Match",NA,NA,NA,NA
879759,"813 E LEMON AVE","EUSTIS","FL",32726,28.850176106,-81.677104583,259,"813 E LEMON AVE, EUSTIS, FL, 32726","Match","Exact","813 E LEMON AVE, EUSTIS, FL, 32726",94111332,"R"
879760,"813 E TIMBER BRANCH DR","ALEXANDRIA","VA",22302,38.822647282,-77.076115434,260,"813 E TIMBER BRANCH DR, ALEXANDRIA, VA, 22302","Match","Non_Exact","813 E TIMBER BRANCH PKWY, ALEXANDRIA, VA, 22302",76021715,"R"
879761,"813 EAST CHASE STREET","BALTIMORE","MD",21213,39.302785209,-76.6060342819999,261,"813 EAST CHASE STREET, BALTIMORE, MD, 21213","Match","Non_Exact","813 E CHASE ST, BALTIMORE, MD, 21202",206420007,"R"
879762,"813 EDELLA ROAD","CLARKS SUMMIT","PA",18411,41.5043291740001,-75.67668629,262,"813 EDELLA ROAD, CLARKS SUMMIT, PA, 18411","Match","Exact","813 EDELLA RD, CLARKS SUMMIT, PA, 18411",606779115,"R"
879763,"813 EDGEWOOD DRIVE","PONCA CITY","OK",74604,36.7126816210001,-97.060248998,263,"813 EDGEWOOD DRIVE, PONCA CITY, OK, 74604","Match","Exact","813 EDGEWOOD DR, PONCA CITY, OK, 74604",115892872,"R"
879764,"813 EL GATO ROAD","ALAMO","TX",78516,26.1570689870001,-98.121762309,264,"813 EL GATO ROAD, ALAMO, TX, 78516","Match","Exact","813 EL GATO RD, ALAMO, TX, 78516",635736732,"L"
879765,"813 ELKHART DRIVE","RALEIGH","NC",27610,35.747676122,-78.6238024259999,265,"813 ELKHART DRIVE, RALEIGH, NC, 27610","Match","Exact","813 ELKHART DR, RALEIGH, NC, 27610",72521907,"L"
879766,"813 EMILY ST","MENASHA","WI",54952,44.2136502430001,-88.4545979499999,266,"813 EMILY ST, MENASHA, WI, 54952","Match","Exact","813 EMILY ST, MENASHA, WI, 54952",74491817,"R"
879767,"813 ETOWAH RIDGE","STOCKBRIDGE","GA",30281,33.5839284750001,-84.240517424,267,"813 ETOWAH RIDGE, STOCKBRIDGE, GA, 30281","Match","Exact","813 ETOWAH RIDGE, STOCKBRIDGE, GA, 30281",624960465,"R"
879768,"813 FAIRFIELD AVE","INDIANAPOLIS","IN",46205,39.8201701260001,-86.1433316229999,268,"813 FAIRFIELD AVE, INDIANAPOLIS, IN, 46205","Match","Exact","813 FAIRFIELD AVE, INDIANAPOLIS, IN, 46205",107990079,"R"
879769,"813 FAIRLAWN ST","ALLEN","TX",75002,33.0853984170001,-96.663188512,269,"813 FAIRLAWN ST, ALLEN, TX, 75002","Match","Exact","813 FAIRLAWN ST, ALLEN, TX, 75002",210474069,"L"
879770,"813 FALL RIVER TRAIL","VACAVILLE","CA",95687,38.321317289,-121.965647423,270,"813 FALL RIVER TRAIL, VACAVILLE, CA, 95687","Match","Exact","813 FALL RIVER TRL, VACAVILLE, CA, 95687",192545681,"L"
879771,"813 FARRAGUT ST NW","WASHINGTON","DC",20011,38.9508937460001,-77.024361287,271,"813 FARRAGUT ST NW, WASHINGTON, DC, 20011","Match","Exact","813 FARRAGUT ST NW, WASHINGTON, DC, 20011",76223475,"R"
879772,"813 FLINT RIDGE RD","VERSAILLES","KY",40383,38.031660807,-84.742720338,272,"813 FLINT RIDGE RD, VERSAILLES, KY, 40383","Match","Exact","813 FLINT RIDGE, VERSAILLES, KY, 40383",600401469,"R"
879773,"813 FOREST HOLLOW DRIVE","HURST","TX",76053,32.810215554,-97.1545022669999,273,"813 FOREST HOLLOW DRIVE, HURST, TX, 76053","Match","Exact","813 FOREST HOLLOW DR, HURST, TX, 76053",647904117,"L"
879774,"813 FORREST DR F","NEWPORT NEWS","VA",23606,37.07712717,-76.4700956899999,274,"813 FORREST DR F, NEWPORT NEWS, VA, 23606","Match","Exact","813 FORREST DR, NEWPORT NEWS, VA, 23606",103812961,"R"
879775,"813 FORREST DRIVE  BLDG 6","NEWPORT NEWS","VA",23606,37.07712717,-76.4700956899999,275,"813 FORREST DRIVE  BLDG 6, NEWPORT NEWS, VA, 23606","Match","Exact","813 FORREST DR, NEWPORT NEWS, VA, 23606",103812961,"R"
879776,"813 FORREST DRIVE - SUITE B","NEWPORT NEWS","VA",23606,37.07712717,-76.4700956899999,276,"813 FORREST DRIVE - SUITE B, NEWPORT NEWS, VA, 23606","Match","Exact","813 FORREST DR, NEWPORT NEWS, VA, 23606",103812961,"R"
879777,"813 FORREST DRIVE SUITE 1","NEWPORT NEWS","VI",23608,NA,NA,277,"813 FORREST DRIVE SUITE 1, NEWPORT NEWS, VI, 23608","No_Match",NA,NA,NA,NA
879778,"813 FORREST DRIVE SUITE B","NEWPORT NEWS","VA",23606,37.07712717,-76.4700956899999,278,"813 FORREST DRIVE SUITE B, NEWPORT NEWS, VA, 23606","Match","Exact","813 FORREST DR, NEWPORT NEWS, VA, 23606",103812961,"R"
879779,"813 FOSSIL CREEK PARKWAY","FORT COLLINS","CO",80525,40.501434283,-105.064341628,279,"813 FOSSIL CREEK PARKWAY, FORT COLLINS, CO, 80525","Match","Exact","813 FOSSIL CREEK PKWY, FORT COLLINS, CO, 80525",188549420,"R"
879780,"813 GLACIER AVENUE","CAPITAL HEIGHTS","MD",20743,38.878301632,-76.92103464,280,"813 GLACIER AVENUE, CAPITAL HEIGHTS, MD, 20743","Match","Non_Exact","813 GLACIER AVE, CAPITOL HGTS, MD, 20743",76313578,"R"
879781,"813 GLADSTONE WAY","LAFAYETTE","CO",80026,40.0017870020001,-105.080891916,281,"813 GLADSTONE WAY, LAFAYETTE, CO, 80026","Match","Non_Exact","813 E GLADSTONE WAY, LAFAYETTE, CO, 80026",646562518,"L"
879782,"813 GOLFVIEW DRIVE","YOUNGSTOWN","OH",44512,41.037988311,-80.685716675,282,"813 GOLFVIEW DRIVE, YOUNGSTOWN, OH, 44512","Match","Non_Exact","813 GOLFVIEW RD, YOUNGSTOWN, OH, 44512",640445427,"L"
879783,"813 GRAND AVE NW","FORT PAYNE","AL",35967,34.4478916300001,-85.717552293,283,"813 GRAND AVE NW, FORT PAYNE, AL, 35967","Match","Non_Exact","813 GRAND AVE N, FORT PAYNE, AL, 35967",99145958,"R"
879784,"813 GRANDVIEW AVE APT 2B","PITTSBURGH","PA",15212,40.435956246,-80.0147961759999,284,"813 GRANDVIEW AVE APT 2B, PITTSBURGH, PA, 15212","Match","Non_Exact","813 GRANDVIEW AVE, PITTSBURGH, PA, 15211",51633376,"L"
879785,"813 GRANT ST","DE PERE","WI",54115,44.4451101830001,-88.0811906019999,285,"813 GRANT ST, DE PERE, WI, 54115","Match","Exact","813 GRANT ST, DE PERE, WI, 54115",148112337,"L"
879786,"813 GRAVEL HILL RD","PALMYRA","PA",17078,40.3434371600001,-76.6164271,286,"813 GRAVEL HILL RD, PALMYRA, PA, 17078","Match","Exact","813 GRAVEL HILL RD, PALMYRA, PA, 17078",80694240,"L"
879787,"813 GREENWOOD CT","COLUMBIA","MO",65203,38.942462812,-92.349934011,287,"813 GREENWOOD CT, COLUMBIA, MO, 65203","Match","Exact","813 GREENWOOD CT, COLUMBIA, MO, 65203",23480588,"L"
879788,"813 HAMPTON DT","DEL CITY","OK",73115,35.456044337,-97.451326567,288,"813 HAMPTON DT, DEL CITY, OK, 73115","Match","Non_Exact","813 HAMPTON DR, DEL CITY, OK, 73115",100429528,"R"
879789,"813 HARBOR BLVD STE 178","WEST SACRAMENTO","CA",95691,38.57794986,-121.548650021,289,"813 HARBOR BLVD STE 178, WEST SACRAMENTO, CA, 95691","Match","Exact","813 HARBOR BLVD, WEST SACRAMENTO, CA, 95691",67692708,"L"
879790,"813 HARBOR BLVD SUITE 143","W SACRAMENTO","CA",95691,38.57794986,-121.548650021,290,"813 HARBOR BLVD SUITE 143, W SACRAMENTO, CA, 95691","Match","Exact","813 HARBOR BLVD, WEST SACRAMENTO, CA, 95691",67692708,"L"
879791,"813 HARVEST GLEN DRIVE","PLANO","TX",75023,33.051281703,-96.7058326109999,291,"813 HARVEST GLEN DRIVE, PLANO, TX, 75023","Match","Exact","813 HARVEST GLEN DR, PLANO, TX, 75023",210470491,"R"
879792,"813 HICKORY HILL CIRCLE","PAPILLION","NE",68046,41.1675495790001,-96.025559154,292,"813 HICKORY HILL CIRCLE, PAPILLION, NE, 68046","Match","Exact","813 HICKORY HILL CIR, PAPILLION, NE, 68046",28474644,"L"
879793,"813 HIGGINS RD","PITTSFIELD","ME",4967,44.791857389,-69.472030226,293,"813 HIGGINS RD, PITTSFIELD, ME, 4967","Match","Exact","813 HIGGINS RD, PITTSFIELD, ME, 04967",624053827,"R"
879794,"813 HIGH STREET","KEOKUK","IA",52632,40.4001922640001,-91.3827719619999,294,"813 HIGH STREET, KEOKUK, IA, 52632","Match","Exact","813 HIGH ST, KEOKUK, IA, 52632",5598210,"R"
879795,"813 HIGH","KEOKUK","IA",52632,40.4001922640001,-91.3827719619999,295,"813 HIGH, KEOKUK, IA, 52632","Match","Non_Exact","813 HIGH ST, KEOKUK, IA, 52632",5598210,"R"
879796,"813 HIGHWAY 218","MONROE","NC",28110,35.1402876440001,-80.517912429,296,"813 HIGHWAY 218, MONROE, NC, 28110","Match","Non_Exact","813 STATE HWY 218, MONROE, NC, 28110",14187482,"L"
879797,"813 HILLCREST RD","CHEYENNE","WY",82001,41.1319052590001,-104.769266107,297,"813 HILLCREST RD, CHEYENNE, WY, 82001","Match","Exact","813 HILLCREST RD, CHEYENNE, WY, 82001",160152149,"R"
879798,"813 HOSPITAL DRIVE","ANDREWS","TX",79714,32.337927897,-102.547207316,298,"813 HOSPITAL DRIVE, ANDREWS, TX, 79714","Match","Exact","813 HOSPITAL DR, ANDREWS, TX, 79714",639681889,"L"
879799,"813 HULET LANE","NEWBERG","OR",97132,45.305664483,-122.957914446,299,"813 HULET LANE, NEWBERG, OR, 97132","Match","Exact","813 HULET LN, NEWBERG, OR, 97132",156510861,"L"
879800,"813 HUNT AVENUE","ALAMOSA","CO",81101,37.4643380470001,-105.863823576,300,"813 HUNT AVENUE, ALAMOSA, CO, 81101","Match","Exact","813 HUNT AVE, ALAMOSA, CO, 81101",104176043,"L"
879801,"813 IBERIA STREET","FRANKLIN","LA",70538,29.796319193,-91.5093196459999,301,"813 IBERIA STREET, FRANKLIN, LA, 70538","Match","Exact","813 IBERIA ST, FRANKLIN, LA, 70538",85881034,"L"
879802,"813 IDLEWILD WAY","SARASOTA","FL",34242,27.275578293,-82.5524354149999,302,"813 IDLEWILD WAY, SARASOTA, FL, 34242","Match","Exact","813 IDLEWILD WAY, SARASOTA, FL, 34242",16348861,"L"
879803,"813 JOHN MCCAIN ROAD","COLLEYVILLE","TX",76034,32.9114477030001,-97.15807618,303,"813 JOHN MCCAIN ROAD, COLLEYVILLE, TX, 76034","Match","Exact","813 JOHN MCCAIN RD, COLLEYVILLE, TX, 76034",102113990,"R"
879804,"813 JOY RANCH ROAD","WOODLAWN","VA",24381,36.7268296980001,-80.7921396359999,304,"813 JOY RANCH ROAD, WOODLAWN, VA, 24381","Match","Exact","813 JOY RANCH RD, WOODLAWN, VA, 24381",153823897,"R"
879805,"813 KATIE ST","Fayetteville","NC",28306,35.016726229,-78.9129997859999,305,"813 KATIE ST, Fayetteville, NC, 28306","Match","Exact","813 KATIE ST, FAYETTEVILLE, NC, 28306",637181074,"L"
879806,"813 KELLOGG AVE NW","ROANOKE","VA",24012,37.2889047370001,-79.94797045,306,"813 KELLOGG AVE NW, ROANOKE, VA, 24012","Match","Exact","813 KELLOGG AVE NW, ROANOKE, VA, 24012",62904546,"R"
879807,"813 KENNETH AVENUE","CAROLINA BEACH","NC",28428,34.0463531440001,-77.901846123,307,"813 KENNETH AVENUE, CAROLINA BEACH, NC, 28428","Match","Exact","813 KENNETH AVE, CAROLINA BCH, NC, 28428",152746830,"L"
879808,"813 KENT DRIVE","MECHANICSBURG","PA",17050,40.265133656,-76.954288707,308,"813 KENT DRIVE, MECHANICSBURG, PA, 17050","Match","Exact","813 KENT DR, MECHANICSBURG, PA, 17050",636326117,"L"
879809,"813 KEYSTONE","MIDLAND","TX",79705,32.061128377,-102.103691032,309,"813 KEYSTONE, MIDLAND, TX, 79705","Match","Non_Exact","813 KEYSTONE CT, MIDLAND, TX, 79705",618364573,"L"
879810,"813 KINGSWAY DRIVE","GRETNA","LA",70056,NA,NA,310,"813 KINGSWAY DRIVE, GRETNA, LA, 70056","Tie",NA,NA,NA,NA
879811,"813 KINGSWOOD PLACE","BRANDON","FL",33511,27.9105872430001,-82.296480898,311,"813 KINGSWOOD PLACE, BRANDON, FL, 33511","Match","Exact","813 KINGSWOOD PL, BRANDON, FL, 33511",104594492,"L"
879812,"813 KOSCIUSZKO DRIVE","SOUTH BEND","IN",46628,NA,NA,312,"813 KOSCIUSZKO DRIVE, SOUTH BEND, IN, 46628","No_Match",NA,NA,NA,NA
879813,"813 KOSCIUSZKO STREET","SOUTH BEND","IN",46615,41.6660757660001,-86.274083132,313,"813 KOSCIUSZKO STREET, SOUTH BEND, IN, 46615","Match","Non_Exact","813 KOSCIUSZKO ST, SOUTH BEND, IN, 46619",8055691,"R"
879814,"813 LENOXPLACE CIRCLE","RALEIGH","NC",27603,35.722560448,-78.660970132,314,"813 LENOXPLACE CIRCLE, RALEIGH, NC, 27603","Match","Exact","813 LENOXPLACE CIR, RALEIGH, NC, 27603",648795547,"L"
879815,"813 LEWIS STREET","BROWNSVILLE","PA",15417,40.0116236050001,-79.898235047,315,"813 LEWIS STREET, BROWNSVILLE, PA, 15417","Match","Exact","813 LEWIS ST, BROWNSVILLE, PA, 15417",51156886,"L"
879816,"813 LILLY LANE","JEFFERSONVILLE","IN",47130,38.3000199370001,-85.711413604,316,"813 LILLY LANE, JEFFERSONVILLE, IN, 47130","Match","Exact","813 LILLY LN, JEFFERSONVILLE, IN, 47130",64879089,"L"
879817,"813 LISSICASEY LOOP","MIDDLETOWN","DE",19709,39.5222594620001,-75.663131913,317,"813 LISSICASEY LOOP, MIDDLETOWN, DE, 19709","Match","Exact","813 LISSICASEY LOOP, MIDDLETOWN, DE, 19709",648751952,"L"
879818,"813 LOCUST POINTE PLACE","LOUISVILLE","KY",40245,38.226455678,-85.484378595,318,"813 LOCUST POINTE PLACE, LOUISVILLE, KY, 40245","Match","Exact","813 LOCUST POINTE PL, LOUISVILLE, KY, 40245",96877775,"L"
879819,"813 LONDONDERRY RD","SCHENECTADY","NY",12309,42.798773329,-73.904559534,319,"813 LONDONDERRY RD, SCHENECTADY, NY, 12309","Match","Exact","813 LONDONDERRY RD, SCHENECTADY, NY, 12309",18030590,"L"
879820,"813 MAGNOLIA TRAIL","DESOTO","TX",75115,32.577212736,-96.887469636,320,"813 MAGNOLIA TRAIL, DESOTO, TX, 75115","Match","Exact","813 MAGNOLIA TRL, DESOTO, TX, 75115",653213002,"R"
879821,"813 MAIN ST","DAYTONA BEACH","FL",32118,29.226412565,-81.008990216,321,"813 MAIN ST, DAYTONA BEACH, FL, 32118","Match","Exact","813 MAIN ST, DAYTONA BEACH, FL, 32118",94525279,"L"
879822,"813 MALINDA STREET","MOUND BAYOU","MS",38762,33.870623037,-90.732173172,322,"813 MALINDA STREET, MOUND BAYOU, MS, 38762","Match","Non_Exact","813 MALINDA AVE, MOUND BAYOU, MS, 38762",637682360,"L"
879823,"813 MAPLEGROVE DRIVE","RICHMOND","VA",23223,37.5549977330001,-77.382550019,323,"813 MAPLEGROVE DRIVE, RICHMOND, VA, 23223","Match","Exact","813 MAPLEGROVE DR, RICHMOND, VA, 23223",106666441,"R"
879824,"813 MARCUS LANE","HAMPTON","GA",30228,33.4040454940001,-84.3025698989999,324,"813 MARCUS LANE, HAMPTON, GA, 30228","Match","Exact","813 MARCUS LN, HAMPTON, GA, 30228",619932856,"L"
879825,"813 MARY ST","POPLAR  BLUFF","MO",63901,36.7673569180001,-90.398828817,325,"813 MARY ST, POPLAR  BLUFF, MO, 63901","Match","Exact","813 MARY ST, POPLAR BLUFF, MO, 63901",47385629,"R"
879826,"813 MATTHEW DRIVE","STEVENS","PA",17578,40.2364309450001,-76.257595113,326,"813 MATTHEW DRIVE, STEVENS, PA, 17578","Match","Exact","813 MATTHEW DR, STEVENS, PA, 17578",179678661,"R"
879827,"813 MCCORMICK PLACE","COLUMBUS","GA",31907,32.460962201,-84.904032246,327,"813 MCCORMICK PLACE, COLUMBUS, GA, 31907","Match","Exact","813 MCCORMICK PL, COLUMBUS, GA, 31907",98941373,"L"
879828,"813 MCKEAN DR","SMYRNA","TN",37167,36.020301514,-86.485794738,328,"813 MCKEAN DR, SMYRNA, TN, 37167","Match","Exact","813 MCKEAN DR, SMYRNA, TN, 37167",606778154,"L"
879829,"813 MERWIN ROAD","RALEIGH","NC",27606,35.7714650820001,-78.7018935039999,329,"813 MERWIN ROAD, RALEIGH, NC, 27606","Match","Exact","813 MERWIN RD, RALEIGH, NC, 27606",72501107,"L"
879830,"813 MESA CREEK DRIVE","MONUMENT","CO",80132,39.0646508310001,-104.839982318,330,"813 MESA CREEK DRIVE, MONUMENT, CO, 80132","Match","Exact","813 MESA CREEK DR, MONUMENT, CO, 80132",105572374,"L"
879831,"813 MESA CREEK","COLORADO SPRINGS","CO",80132,NA,NA,331,"813 MESA CREEK, COLORADO SPRINGS, CO, 80132","No_Match",NA,NA,NA,NA
879832,"813 MOCKERNUT ROAD","HOOVER","AL",35244,33.352372303,-86.8047526679999,332,"813 MOCKERNUT ROAD, HOOVER, AL, 35244","Match","Exact","813 MOCKERNUT RD, HOOVER, AL, 35244",82072809,"R"
879833,"813 MORISENI AVENUE","SHELBYVILLE","IN",46176,39.516350479,-85.787969249,333,"813 MORISENI AVENUE, SHELBYVILLE, IN, 46176","Match","Exact","813 MORISENI AVE, SHELBYVILLE, IN, 46176",33228828,"L"
879834,"813 N 11TH STREET","PHILADELPHIA","PA",19123,39.9671692740001,-75.1549283099999,334,"813 N 11TH STREET, PHILADELPHIA, PA, 19123","Match","Exact","813 N 11TH ST, PHILADELPHIA, PA, 19123",131422189,"R"
879835,"813 N 1375 W","LINTON","IN",47441,39.034905102,-87.1992063339999,335,"813 N 1375 W, LINTON, IN, 47441","Match","Non_Exact","813 CO RD 1375 W, LINTON, IN, 47441",39305749,"L"
879836,"813 N 26TH ST","PHILADELPHIA","PA",19130,39.971029679,-75.179474517,336,"813 N 26TH ST, PHILADELPHIA, PA, 19130","Match","Exact","813 N 26TH ST, PHILADELPHIA, PA, 19130",131405407,"R"
879837,"813 N ALFRED STREET","ALEXANDRIA","VA",22314,38.8135103990001,-77.047436218,337,"813 N ALFRED STREET, ALEXANDRIA, VA, 22314","Match","Exact","813 N ALFRED ST, ALEXANDRIA, VA, 22314",75988471,"R"
879838,"813 N BROAD ST","NEW ORLEANS","LA",70119,29.971537487,-90.08228488,338,"813 N BROAD ST, NEW ORLEANS, LA, 70119","Match","Exact","813 N BROAD ST, NEW ORLEANS, LA, 70119",191753711,"L"
879839,"813 N COLLETT","DANVILLE","IL",61832,40.136985054,-87.6165114089999,339,"813 N COLLETT, DANVILLE, IL, 61832","Match","Non_Exact","813 N COLLETT ST, DANVILLE, IL, 61832",65999625,"R"
879840,"813 N KOTTLE CIRCLE","DAYTONA BCH","FL",32114,29.1997415070001,-81.029887097,340,"813 N KOTTLE CIRCLE, DAYTONA BCH, FL, 32114","Match","Exact","813 N KOTTLE CIR, DAYTONA BEACH, FL, 32114",94524876,"L"
879841,"813 N LINDEN LN","DERBY","KS",67037,37.5515975430001,-97.2391347829999,341,"813 N LINDEN LN, DERBY, KS, 67037","Match","Exact","813 N LINDEN LN, DERBY, KS, 67037",115694507,"L"
879842,"813 N PINE HILLS RD","ORLANDO","FL",32808,28.554934368,-81.4475530129999,342,"813 N PINE HILLS RD, ORLANDO, FL, 32808","Match","Exact","813 N PINE HILLS RD, ORLANDO, FL, 32808",94272576,"R"
879843,"813 NEW CHARLESTON DRIVE","FUQUAY VARINA","NC",27526,35.5711084480001,-78.798656948,343,"813 NEW CHARLESTON DRIVE, FUQUAY VARINA, NC, 27526","Match","Exact","813 NEW CHARLESTON DR, FUQUAY VARINA, NC, 27526",627866879,"R"
879844,"813 NIGHTSHADE LN","SHOREWOOD","IL",60404,41.5364672800001,-88.220451017,344,"813 NIGHTSHADE LN, SHOREWOOD, IL, 60404","Match","Exact","813 NIGHTSHADE LN, SHOREWOOD, IL, 60404",111632118,"L"
879845,"813 NOBLE ROAD","HOP BOTTOM","PA",18824,41.7101036280001,-75.8387727309999,345,"813 NOBLE ROAD, HOP BOTTOM, PA, 18824","Match","Exact","813 NOBLE RD, HOP BOTTOM, PA, 18824",612259223,"L"
879846,"813 NORD AVE","CHICO","CA",95928,39.7299240150001,-121.856781287,346,"813 NORD AVE, CHICO, CA, 95928","Match","Non_Exact","813 NORD AVE, CHICO, CA, 95926",648059495,"L"
879847,"813 NORTH 8TH STREET","CAMDEN","NJ",8102,39.952248502,-75.114002163,347,"813 NORTH 8TH STREET, CAMDEN, NJ, 8102","Match","Exact","813 N 8TH ST, CAMDEN, NJ, 08102",134341066,"L"
879848,"813 NORTH EUCLID AVENUE","PRINCETON","IL",61356,41.3826089820001,-89.460181021,348,"813 NORTH EUCLID AVENUE, PRINCETON, IL, 61356","Match","Exact","813 N EUCLID AVE, PRINCETON, IL, 61356",8477051,"R"
879849,"813 NORTH JOSEPHINE","ROYSE CITY","TX",75189,NA,NA,349,"813 NORTH JOSEPHINE, ROYSE CITY, TX, 75189","No_Match",NA,NA,NA,NA
879850,"813 NORTH MICHIGAN AVENUE","ATLANTIC CITY","NJ",8401,39.3671798400001,-74.441046892,350,"813 NORTH MICHIGAN AVENUE, ATLANTIC CITY, NJ, 8401","Match","Exact","813 N MICHIGAN AVE, ATLANTIC CITY, NJ, 08401",202490302,"R"
879851,"813 NORTHWOOD STREET","COLUMBIA","SC",29201,34.021634598,-81.052530995,351,"813 NORTHWOOD STREET, COLUMBIA, SC, 29201","Match","Exact","813 NORTHWOOD ST, COLUMBIA, SC, 29201",71818399,"L"
879852,"813 NOTTINGHAM DRIVE","MANTECA","CA",95336,37.825990577,-121.228797244,352,"813 NOTTINGHAM DRIVE, MANTECA, CA, 95336","Match","Exact","813 NOTTINGHAM DR, MANTECA, CA, 95336",133857804,"R"
879853,"813 NW 28TH STREET","CORVALLIS","OR",97330,44.5757168160001,-123.282193197,353,"813 NW 28TH STREET, CORVALLIS, OR, 97330","Match","Exact","813 NW 28TH ST, CORVALLIS, OR, 97330",155846767,"R"
879854,"813 OHIO STREET","ASHLAND","OH",44805,40.8760250780001,-82.327800488,354,"813 OHIO STREET, ASHLAND, OH, 44805","Match","Exact","813 OHIO ST, ASHLAND, OH, 44805",30144221,"L"
879855,"813 OLD WORLD DRIVE","HARKER HEIGHTS","TX",76548,31.0427179650001,-97.663572766,355,"813 OLD WORLD DRIVE, HARKER HEIGHTS, TX, 76548","Match","Exact","813 OLD WORLD DR, HARKER HEIGHTS, TX, 76548",642059864,"R"
879856,"813 ORCHID DRIVE","PLANTATION","FL",33317,26.132823193,-80.233055565,356,"813 ORCHID DRIVE, PLANTATION, FL, 33317","Match","Exact","813 ORCHID DR, PLANTATION, FL, 33317",114705114,"L"
879857,"813 ORCHID PL","JACKSON","MI",49203,NA,NA,357,"813 ORCHID PL, JACKSON, MI, 49203","No_Match",NA,NA,NA,NA
879858,"813 ORIOLE ST","CORPUS CHRISTI","TX",78418,27.6820344550001,-97.297409322,358,"813 ORIOLE ST, CORPUS CHRISTI, TX, 78418","Match","Exact","813 ORIOLE ST, CORPUS CHRISTI, TX, 78418",178522892,"L"
879859,"813 PARKER HEIGHTS RD","WAPATO","WA",98951,NA,NA,359,"813 PARKER HEIGHTS RD, WAPATO, WA, 98951","Tie",NA,NA,NA,NA
879860,"813 PARKSIDE AVE","TRENTON","NJ",8068,NA,NA,360,"813 PARKSIDE AVE, TRENTON, NJ, 8068","No_Match",NA,NA,NA,NA
879861,"813 PEACH FESTIVAL ROAD","GILBERT","SC",29054,33.939012959,-81.395202421,361,"813 PEACH FESTIVAL ROAD, GILBERT, SC, 29054","Match","Exact","813 PEACH FESTIVAL RD, GILBERT, SC, 29054",640858874,"L"
879862,"813 POLLOCK STREET","NEW BERN","NC",28562,35.1069138600001,-77.046681558,362,"813 POLLOCK STREET, NEW BERN, NC, 28562","Match","Exact","813 POLLOCK ST, NEW BERN, NC, 28562",34112575,"R"
879863,"813 PORTAGE AVE","PORTER","IN",46304,41.602818239,-87.082293336,363,"813 PORTAGE AVE, PORTER, IN, 46304","Match","Exact","813 PORTAGE AVE, PORTER, IN, 46304",119909738,"L"
879864,"813 PROSPECT ST","TRENTON","NJ",8618,40.2341059080001,-74.772453893,364,"813 PROSPECT ST, TRENTON, NJ, 8618","Match","Exact","813 PROSPECT ST, TRENTON, NJ, 08618",635774651,"L"
879865,"813 PROSPECT ST","TRENTON","NJ",80618,40.2341059080001,-74.772453893,365,"813 PROSPECT ST, TRENTON, NJ, 80618","Match","Non_Exact","813 PROSPECT ST, TRENTON, NJ, 08618",635774651,"L"
879866,"813 QUINCY STREET","PARKERSBURG","WV",26101,39.2651669030001,-81.554034208,366,"813 QUINCY STREET, PARKERSBURG, WV, 26101","Match","Exact","813 QUINCY ST, PARKERSBURG, WV, 26101",90871457,"L"
879867,"813 REDBUD DRIVE","ALLEN","TX",75002,33.0836676440001,-96.620788697,367,"813 REDBUD DRIVE, ALLEN, TX, 75002","Match","Exact","813 REDBUD DR, ALLEN, TX, 75002",123560143,"L"
879868,"813 RESERVOIR CRES","NORFOLK","VA",23504,36.849452033,-76.270619473,368,"813 RESERVOIR CRES, NORFOLK, VA, 23504","Match","Non_Exact","813 RESERVOIR AVE, NORFOLK, VA, 23504",122142711,"L"
879869,"813 RIDGE RD","DECORAH","IA",52101,43.3161278000001,-91.793324562,369,"813 RIDGE RD, DECORAH, IA, 52101","Match","Exact","813 RIDGE RD, DECORAH, IA, 52101",638449821,"L"
879870,"813 RIO GRANDE DRIVE","VACAVILLE","CA",95687,38.355935747,-121.93469831,370,"813 RIO GRANDE DRIVE, VACAVILLE, CA, 95687","Match","Exact","813 RIO GRANDE DR, VACAVILLE, CA, 95687",192614799,"L"
879871,"813 RIPLEY STREET","PHILADELPHIA","PA",19111,40.0729659620001,-75.078022744,371,"813 RIPLEY STREET, PHILADELPHIA, PA, 19111","Match","Exact","813 RIPLEY ST, PHILADELPHIA, PA, 19111",131415468,"L"
879872,"813 ROCK LANCE","MCDONOUGH","GA",30253,33.51686096,-84.187005195,372,"813 ROCK LANCE, MCDONOUGH, GA, 30253","Match","Non_Exact","813 ROCK LN, MCDONOUGH, GA, 30253",638822036,"L"
879873,"813 RUTHERVALE AVENUE","SAN CARLOS","CA",94070,37.4974380780001,-122.266733886,373,"813 RUTHERVALE AVENUE, SAN CARLOS, CA, 94070","Match","Non_Exact","813 RUTHERDALE AVE, SAN CARLOS, CA, 94070",192385283,"L"
879874,"813 S 14TH STREET","TACOMA","WA",98405,47.2493434510001,-122.446949156,374,"813 S 14TH STREET, TACOMA, WA, 98405","Match","Exact","813 S 14TH ST, TACOMA, WA, 98405",184624548,"R"
879875,"813 S 2ND ST","ATWOOD","KS",67730,39.8003141240001,-101.04454569,375,"813 S 2ND ST, ATWOOD, KS, 67730","Match","Exact","813 S 2ND ST, ATWOOD, KS, 67730",161510845,"R"
879876,"813 S 32ND AVE","SHELBY","MI",49455,NA,NA,376,"813 S 32ND AVE, SHELBY, MI, 49455","No_Match",NA,NA,NA,NA
879877,"813 S ALDEN STREET","PHILADELPHIA","PA",19143,39.9484872410001,-75.2382437099999,377,"813 S ALDEN STREET, PHILADELPHIA, PA, 19143","Match","Exact","813 S ALDEN ST, PHILADELPHIA, PA, 19143",131397929,"L"
879878,"813 S BELNORD AVENUE","BALTIMORE","MD",21224,39.2829911220001,-76.5777357539999,378,"813 S BELNORD AVENUE, BALTIMORE, MD, 21224","Match","Exact","813 S BELNORD AVE, BALTIMORE, MD, 21224",206425370,"L"
879879,"813 S CIRCLE DR 204 A","COLORADO SPRINGS","CO",80910,38.82041358,-104.780518014,379,"813 S CIRCLE DR 204 A, COLORADO SPRINGS, CO, 80910","Match","Non_Exact","813 S CIRCLE DR, COLORADO SPRINGS, CO, 80910",610734897,"L"
879880,"813 S COTTAGE AVE","BLOOMINGTON","IL",61761,NA,NA,380,"813 S COTTAGE AVE, BLOOMINGTON, IL, 61761","No_Match",NA,NA,NA,NA
879881,"813 S COTTON MEADOW LN","WASHINGTON","UT",84790,37.1193624370001,-113.505571929,381,"813 S COTTON MEADOW LN, WASHINGTON, UT, 84790","Match","Non_Exact","813 COTTON MEADOW LN, WASHINGTON, UT, 84780",636695296,"L"
879882,"813 S CR 25 W","ROCKPORT","IN",47635,NA,NA,382,"813 S CR 25 W, ROCKPORT, IN, 47635","Tie",NA,NA,NA,NA
879883,"813 S DEER MEADOW LOOP","TUCSON","AZ",85745,32.211594158,-111.042467558,383,"813 S DEER MEADOW LOOP, TUCSON, AZ, 85745","Match","Exact","813 S DEER MEADOW LOOP, TUCSON, AZ, 85745",121227320,"R"
879884,"813 S HAMILTON STREET","GARY","IN",46403,41.598449799,-87.268029661,384,"813 S HAMILTON STREET, GARY, IN, 46403","Match","Exact","813 S HAMILTON ST, GARY, IN, 46403",98428123,"L"
879885,"813 S HONEY LOCUST AVE","SIOUX FALLS","SD",57110,43.539911449,-96.6170980159999,385,"813 S HONEY LOCUST AVE, SIOUX FALLS, SD, 57110","Match","Exact","813 S HONEY LOCUST AVE, SIOUX FALLS, SD, 57110",618471531,"R"
879886,"813 S LINCOLN PL  NO 3","SPOKANE","WA",99204,NA,NA,386,"813 S LINCOLN PL  NO 3, SPOKANE, WA, 99204","No_Match",NA,NA,NA,NA
879887,"813 S SUMMIT AVE","SIOUX FALLS","SD",57107,43.5387426880001,-96.7355737459999,387,"813 S SUMMIT AVE, SIOUX FALLS, SD, 57107","Match","Non_Exact","813 S SUMMIT AVE, SIOUX FALLS, SD, 57104",34972555,"R"
879888,"813 SAINT JOSEPH STREET","LANCASTER","PA",17603,40.0297885030001,-76.316820482,388,"813 SAINT JOSEPH STREET, LANCASTER, PA, 17603","Match","Exact","813 ST JOSEPH ST, LANCASTER, PA, 17603",179664328,"R"
879889,"813 SAINT PAUL ST APT 2A","BALTIMORE","MD",21202,39.298864472,-76.614166891,389,"813 SAINT PAUL ST APT 2A, BALTIMORE, MD, 21202","Match","Exact","813 SAINT PAUL ST, BALTIMORE, MD, 21202",206419376,"R"
879890,"813 SANDLIN","SPRINGTOWN","TX",76082,32.9257845160001,-97.686768016,390,"813 SANDLIN, SPRINGTOWN, TX, 76082","Match","Non_Exact","813 SANDLIN LN, SPRINGTOWN, TX, 76082",103599251,"R"
879891,"813 SAWYERS LANE","KEY WEST","FL",33040,24.5600469550001,-81.800543825,391,"813 SAWYERS LANE, KEY WEST, FL, 33040","Match","Exact","813 SAWYERS LN, KEY WEST, FL, 33040",116489345,"L"
879892,"813 SCHRADE TRAIL","MESQUITE","TX",75181,32.7576152680001,-96.56001255,392,"813 SCHRADE TRAIL, MESQUITE, TX, 75181","Match","Exact","813 SCHRADE TRL, MESQUITE, TX, 75181",103166359,"L"
879893,"813 SE 174 TH AV","PORTLAND","OR",97233,45.5167050750001,-122.4845665,393,"813 SE 174 TH AV, PORTLAND, OR, 97233","Match","Non_Exact","813 SE 174TH AVE, PORTLAND, OR, 97233",157575278,"R"
879894,"813 SHERMAN ST","ALLENTOWN","PA",18109,40.6227333620001,-75.427524273,394,"813 SHERMAN ST, ALLENTOWN, PA, 18109","Match","Non_Exact","813 N SHERMAN ST, ALLENTOWN, PA, 18109",80772879,"R"
879895,"813 SIERRA MADRE WAY","DAVIS","CA",95618,38.5453732880001,-121.697885648,395,"813 SIERRA MADRE WAY, DAVIS, CA, 95618","Match","Exact","813 SIERRA MADRE WAY, DAVIS, CA, 95618",67691927,"R"
879896,"813 SIROCCO DR B","AUSTIN","TX",78745,30.203269011,-97.788626499,396,"813 SIROCCO DR B, AUSTIN, TX, 78745","Match","Exact","813 SIROCCO DR, AUSTIN, TX, 78745",63998484,"L"
879897,"813 SKY PINE WAY  G-2","GREENACRES","FL",33415,NA,NA,397,"813 SKY PINE WAY  G-2, GREENACRES, FL, 33415","No_Match",NA,NA,NA,NA
879898,"813 SMITH AVENUE","TRINIDAD","CO",81082,37.1672085430001,-104.518679599,398,"813 SMITH AVENUE, TRINIDAD, CO, 81082","Match","Exact","813 SMITH AVE, TRINIDAD, CO, 81082",112753235,"L"
879899,"813 SNAPDRAGON COVE","FORT WAYNE","IN",46816,NA,NA,399,"813 SNAPDRAGON COVE, FORT WAYNE, IN, 46816","No_Match",NA,NA,NA,NA
879900,"813 SNAPDRAGON LANE","PLANO","TX",75075,33.039789969,-96.7110438,400,"813 SNAPDRAGON LANE, PLANO, TX, 75075","Match","Exact","813 SNAPDRAGON LN, PLANO, TX, 75075",123532853,"L"
879901,"813 SOMERVILLE DR","PITTSBURGH","PA",15241,40.362156601,-80.071482126,401,"813 SOMERVILLE DR, PITTSBURGH, PA, 15241","Match","Non_Exact","813 SOMERVILLE DR, PITTSBURGH, PA, 15243",635643228,"L"
879902,"813 SOUTH 1ST ST","ATWOOD","KS",67730,39.8003912560001,-101.045787378,402,"813 SOUTH 1ST ST, ATWOOD, KS, 67730","Match","Non_Exact","813 1ST ST, ATWOOD, KS, 67730",161510843,"R"
879903,"813 SOUTH CAMAS PLACE","MOSES LAKE","WA",98837,47.0937712200001,-119.334204921,403,"813 SOUTH CAMAS PLACE, MOSES LAKE, WA, 98837","Match","Non_Exact","813 CAMAS PL, MOSES LAKE, WA, 98837",643526945,"R"
879904,"813 SOUTH ST 222","GREEN LAKE","WI",54941,43.8440196280001,-88.937523815,404,"813 SOUTH ST 222, GREEN LAKE, WI, 54941","Match","Exact","813 SOUTH ST, GREEN LAKE, WI, 54941",73455081,"L"
879905,"813 SOUTHEAST FLEMING WAY","STUART","FL",34997,27.143611293,-80.2404136439999,405,"813 SOUTHEAST FLEMING WAY, STUART, FL, 34997","Match","Exact","813 SE FLEMING WAY, STUART, FL, 34997",614127100,"L"
879906,"813 STATE STREET","TABLE ROCK","NE",68447,40.1808088170001,-96.101547513,406,"813 STATE STREET, TABLE ROCK, NE, 68447","Match","Exact","813 STATE ST, TABLE ROCK, NE, 68447",34452791,"R"
879907,"813 STRAWFLOOR DR","JONESBORO","AR",72401,35.835415262,-90.741346564,407,"813 STRAWFLOOR DR, JONESBORO, AR, 72401","Match","Exact","813 STRAWFLOOR DR, JONESBORO, AR, 72401",46909599,"L"
879908,"813 SUMMER LN","MCKINNEY","TX",75071,33.249148355,-96.603006019,408,"813 SUMMER LN, MCKINNEY, TX, 75071","Match","Exact","813 SUMMER LN, MCKINNEY, TX, 75071",650326785,"L"
879909,"813 SW 11TH TERRACE","DELRAY BEACH","FL",33444,26.448796949,-80.085061619,409,"813 SW 11TH TERRACE, DELRAY BEACH, FL, 33444","Match","Exact","813 SW 11TH TER, DELRAY BEACH, FL, 33444",115291123,"L"
879910,"813 SW 143 AVE","PEMBROKE PINES","FL",33027,26.001862911,-80.334003723,410,"813 SW 143 AVE, PEMBROKE PINES, FL, 33027","Match","Exact","813 SW 143RD AVE, PEMBROKE PINES, FL, 33027",640878020,"L"
879911,"813 SW ELIZABETH","BLUE SPRINGS","MO",64015,39.0115549920001,-94.322480088,411,"813 SW ELIZABETH, BLUE SPRINGS, MO, 64015","Match","Non_Exact","813 SW ELIZABETH ST, BLUE SPRINGS, MO, 64015",618448185,"R"
879912,"813 SW IMPERIAL LANE","LEES SUMMIT","MO",64064,38.951855682,-94.276884802,412,"813 SW IMPERIAL LANE, LEES SUMMIT, MO, 64064","Match","Exact","813 SW IMPERIAL LN, LEES SUMMIT, MO, 64064",618449058,"R"
879913,"813 SW NELSON CT","GRAIN VALLEY","MO",64029,38.9980987640001,-94.20820299,413,"813 SW NELSON CT, GRAIN VALLEY, MO, 64029","Match","Exact","813 NELSON CT, GRAIN VALLEY, MO, 64029",91500643,"L"
879914,"813 TABLEROCK WAY","LEWISVILLE","TX",75077,33.051645061,-97.013355491,414,"813 TABLEROCK WAY, LEWISVILLE, TX, 75077","Match","Exact","813 TABLEROCK WAY, LEWISVILLE, TX, 75077",103371567,"R"
879915,"813 TAMPICO DRIVE","WALNUT CREEK","CA",94598,37.909524807,-122.0426634,415,"813 TAMPICO DRIVE, WALNUT CREEK, CA, 94598","Match","Non_Exact","813 TAMPICO, WALNUT CREEK, CA, 94598",192075519,"R"
879916,"813 TEQUESTA DRIVE","FRANKLIN LAKES","NJ",7417,40.995840179,-74.213540477,416,"813 TEQUESTA DRIVE, FRANKLIN LAKES, NJ, 7417","Match","Exact","813 TEQUESTA DR, FRANKLIN LAKES, NJ, 07417",64451752,"L"
879917,"813 TRAFALGAR ST","CHARLESTON","SC",29412,32.7325220970001,-79.92361239,417,"813 TRAFALGAR ST, CHARLESTON, SC, 29412","Match","Exact","813 TRAFALGAR ST, CHARLESTON, SC, 29412",108813114,"L"
879918,"813 TRAVIS ST UNIT 309","MISSION","TX",78572,26.197610126,-98.30676227,418,"813 TRAVIS ST UNIT 309, MISSION, TX, 78572","Match","Exact","813 TRAVIS ST, MISSION, TX, 78572",625662310,"L"
879919,"813 TREMONT DRIVE","DOWNINGTOWN","PA",19335,40.0354388710001,-75.702155268,419,"813 TREMONT DRIVE, DOWNINGTOWN, PA, 19335","Match","Exact","813 TREMONT DR, DOWNINGTOWN, PA, 19335",179514485,"L"
879920,"813 VAN DUZER STREET","STATEN ISLAND","NY",10304,40.6195305850001,-74.085938907,420,"813 VAN DUZER STREET, STATEN ISLAND, NY, 10304","Match","Exact","813 VAN DUZER ST, STATEN ISLAND, NY, 10304",59869271,"L"
879921,"813 VAN DUZER STREET","STATEN ISLAND","NY",10305,40.6195305850001,-74.085938907,421,"813 VAN DUZER STREET, STATEN ISLAND, NY, 10305","Match","Non_Exact","813 VAN DUZER ST, STATEN ISLAND, NY, 10304",59869271,"L"
879922,"813 VICKSBURG COURT","CONROE","TX",77302,NA,NA,422,"813 VICKSBURG COURT, CONROE, TX, 77302","No_Match",NA,NA,NA,NA
879923,"813 VICTORIA CT","GAINESVILLE","FL",32607,29.6438501120001,-82.4139378199999,423,"813 VICTORIA CT, GAINESVILLE, FL, 32607","Match","Exact","813 VICTORIA CT, GAINESVILLE, FL, 32607",6848229,"R"
879924,"813 VOSHOLL AVENUE","WARRENTON","MO",63383,38.80723047,-91.138135013,424,"813 VOSHOLL AVENUE, WARRENTON, MO, 63383","Match","Non_Exact","813 VOSHOLL, WARRENTON, MO, 63383",90115147,"R"
879925,"813 VROOMAN","LEWISTOWN","MT",59457,47.0767732530001,-109.451931812,425,"813 VROOMAN, LEWISTOWN, MT, 59457","Match","Non_Exact","813 VROOMAN ST, LEWISTOWN, MT, 59457",170591491,"R"
879926,"813 W 28TH ST","SAN PEDRO","CA",90731,33.7191556280001,-118.295129447,426,"813 W 28TH ST, SAN PEDRO, CA, 90731","Match","Exact","813 W 28TH ST, SAN PEDRO, CA, 90731",141690749,"L"
879927,"813 W 37TH PLACE","CHICAGO","IL",60609,41.8265865220001,-87.646567935,427,"813 W 37TH PLACE, CHICAGO, IL, 60609","Match","Exact","813 W 37TH PL, CHICAGO, IL, 60609",605494202,"L"
879928,"813 W 4TH STREET","DEQUINCY","LA",70633,30.4517957360001,-93.445234693,428,"813 W 4TH STREET, DEQUINCY, LA, 70633","Match","Exact","813 W 4TH ST, DEQUINCY, LA, 70633",88422854,"R"
879929,"813 W ARROW HWY","GLENDORA","CA",91740,34.105560725,-117.877630616,429,"813 W ARROW HWY, GLENDORA, CA, 91740","Match","Exact","813 W ARROW HWY, GLENDORA, CA, 91740",624329817,"L"
879930,"813 W DIAMOND DRIVE","TEMPE","AZ",85283,33.3568279350001,-111.952696619,430,"813 W DIAMOND DRIVE, TEMPE, AZ, 85283","Match","Exact","813 W DIAMOND DR, TEMPE, AZ, 85283",637417392,"R"
879931,"813 W GLENEAGLES DRIVE","PHOENIX","AZ",85023,33.6216410600001,-112.085125749,431,"813 W GLENEAGLES DRIVE, PHOENIX, AZ, 85023","Match","Exact","813 W GLENEAGLES DR, PHOENIX, AZ, 85023",128181734,"L"
879932,"813 W HAMPTON ROAD","ESSEXVILLE","MI",48732,43.615776827,-83.810789739,432,"813 W HAMPTON ROAD, ESSEXVILLE, MI, 48732","Match","Exact","813 W HAMPTON RD, ESSEXVILLE, MI, 48732",81150454,"L"
879933,"813 W HANSSLER PLACE","PEORIA","IL",61604,40.720497863,-89.60567531,433,"813 W HANSSLER PLACE, PEORIA, IL, 61604","Match","Exact","813 W HANSSLER PL, PEORIA, IL, 61604",8715534,"R"
879934,"813 W MAIN ST","MOUNT JOY","PA",17552,40.1146609150001,-76.522549893,434,"813 W MAIN ST, MOUNT JOY, PA, 17552","Match","Exact","813 W MAIN ST, MOUNT JOY, PA, 17552",179652103,"L"
879935,"813 W NEELY AVE","MUNCIE","IN",47303,40.2040006780001,-85.394662839,435,"813 W NEELY AVE, MUNCIE, IN, 47303","Match","Exact","813 W NEELY AVE, MUNCIE, IN, 47303",30836122,"L"
879936,"813 W UNIVERSITY AVE APT 313","FLAGSTAFF","AZ",86001,35.184214518,-111.665063035,436,"813 W UNIVERSITY AVE APT 313, FLAGSTAFF, AZ, 86001","Match","Non_Exact","813 W UNIVERSITY AVE, FLAGSTAFF, AZ, 86001",189061187,"L"
879937,"813 WALDEN WAY","HERMITAGE","TN",37076,36.195448889,-86.5895244499999,437,"813 WALDEN WAY, HERMITAGE, TN, 37076","Match","Exact","813 WALDEN WAY, HERMITAGE, TN, 37076",97229581,"L"
879938,"813 WALNUT ST","FRANKLIN","KY",42134,36.7093210740001,-86.587133893,438,"813 WALNUT ST, FRANKLIN, KY, 42134","Match","Exact","813 WALNUT ST, FRANKLIN, KY, 42134",29600426,"L"
879939,"813 WAYLAND DRIVE","O FALLON","MO",63366,38.8351273550001,-90.707935447,439,"813 WAYLAND DRIVE, O FALLON, MO, 63366","Match","Exact","813 WAYLAND DR, O FALLON, MO, 63366",605525836,"R"
879940,"813 WEST 50TH STREET","ASHTABULA","OH",44004,41.8627035220001,-80.791635508,440,"813 WEST 50TH STREET, ASHTABULA, OH, 44004","Match","Exact","813 W 50TH ST, ASHTABULA, OH, 44004",117313442,"R"
879941,"813 WEST 6TH STREET","IDALOU","TX",79411,33.6611992360001,-101.691628648,441,"813 WEST 6TH STREET, IDALOU, TX, 79411","Match","Non_Exact","813 W 6TH ST, IDALOU, TX, 79329",185321008,"R"
879942,"813 WEST GILE","DE PERE","WI",54115,44.4488494060001,-88.034504849,442,"813 WEST GILE, DE PERE, WI, 54115","Match","Non_Exact","813 W GILE CIR, DE PERE, WI, 54115",148113669,"R"
879943,"813 WEST IDLEWILD AVE","TAMPA","FL",33604,28.001597868,-82.46898872,443,"813 WEST IDLEWILD AVE, TAMPA, FL, 33604","Match","Exact","813 W IDLEWILD AVE, TAMPA, FL, 33604",104520581,"R"
879944,"813 WEST MAIN","CARBONDALE","IL",62901,37.7264919620001,-89.225848968,444,"813 WEST MAIN, CARBONDALE, IL, 62901","Match","Non_Exact","813 W MAIN ST, CARBONDALE, IL, 62901",95068178,"R"
879945,"813 WEST OAK STREET","MITCHELL","IN",47446,38.7351337330001,-86.475932546,445,"813 WEST OAK STREET, MITCHELL, IN, 47446","Match","Exact","813 W OAK ST, MITCHELL, IN, 47446",42076585,"L"
879946,"813 WEST RIMES CIRCLE","MONROE","LA",71201,32.529691927,-92.085379416,446,"813 WEST RIMES CIRCLE, MONROE, LA, 71201","Match","Exact","813 W RIMES CIR, MONROE, LA, 71201",161086131,"L"
879947,"813 WEST STREET","ROCK SPRINGS","WY",82901,41.5833145820001,-109.226701664,447,"813 WEST STREET, ROCK SPRINGS, WY, 82901","Match","Exact","813 WEST ST, ROCK SPRINGS, WY, 82901",149502690,"R"
879948,"813 WESTBOURNE DR","WEST HOLLYWOOD","CA",90069,NA,NA,448,"813 WESTBOURNE DR, WEST HOLLYWOOD, CA, 90069","No_Match",NA,NA,NA,NA
879949,"813 WESTBROOKE","SAINT LOUIS","MO",63021,NA,NA,449,"813 WESTBROOKE, SAINT LOUIS, MO, 63021","No_Match",NA,NA,NA,NA
879950,"813 WHITE JENKINS RD","BESSEMER CITY","NC",28016,35.310828273,-81.2321578249999,450,"813 WHITE JENKINS RD, BESSEMER CITY, NC, 28016","Match","Exact","813 WHITE JENKINS RD, BESSEMER CITY, NC, 28016",70455635,"L"
879951,"813 WHITLEY WAY","WENDELL","NC",27591,35.7880704180001,-78.349017197,451,"813 WHITLEY WAY, WENDELL, NC, 27591","Match","Exact","813 WHITLEY WAY, WENDELL, NC, 27591",634963562,"R"
879952,"813 WHITTIER AVE","NEW HYDE PARK","NY",11040,40.7370237640001,-73.6888363699999,452,"813 WHITTIER AVE, NEW HYDE PARK, NY, 11040","Match","Exact","813 WHITTIER AVE, NEW HYDE PARK, NY, 11040",147666064,"L"
879953,"813 WINDY MEADOW DRIVE","DESOTO","TX",75115,32.581212635,-96.838456401,453,"813 WINDY MEADOW DRIVE, DESOTO, TX, 75115","Match","Exact","813 WINDY MEADOW DR, DESOTO, TX, 75115",102972656,"L"
879954,"813 WINSTON DRIVE","ANDERSON","SC",29624,34.47979345,-82.6357562159999,454,"813 WINSTON DRIVE, ANDERSON, SC, 29624","Match","Exact","813 WINSTON DR, ANDERSON, SC, 29624",25454825,"L"
879955,"813 WOODBERRY PLACE","DECATUR","GA",30034,33.681135258,-84.233129102,455,"813 WOODBERRY PLACE, DECATUR, GA, 30034","Match","Non_Exact","813 WOODBERRY PKWY, DECATUR, GA, 30034",645263640,"R"
879956,"813 WOODS RUN AVE","PITTSBURGH","PA",15212,40.481510551,-80.0256043959999,456,"813 WOODS RUN AVE, PITTSBURGH, PA, 15212","Match","Exact","813 WOODS RUN AVE, PITTSBURGH, PA, 15212",607666082,"L"
879957,"813 YAQIMA WAY","MURFREEBORO","TN",37130,NA,NA,457,"813 YAQIMA WAY, MURFREEBORO, TN, 37130","No_Match",NA,NA,NA,NA
879958,"813-2 FOREST AVENUE","EVANSTON","IL",60202,42.032423436,-87.674080953,458,"813-2 FOREST AVENUE, EVANSTON, IL, 60202","Match","Exact","813 FOREST AVE, EVANSTON, IL, 60202",111745012,"R"
879959,"8130 8TH ST","VERO BEACH","FL",32968,27.6171551780001,-80.492645135,459,"8130 8TH ST, VERO BEACH, FL, 32968","Match","Exact","8130 8TH ST, VERO BEACH, FL, 32968",610933592,"R"
879960,"8130 ANGELO PLACE","PHILADELPHIA","PA",19153,39.901993114,-75.251797795,460,"8130 ANGELO PLACE, PHILADELPHIA, PA, 19153","Match","Exact","8130 ANGELO PL, PHILADELPHIA, PA, 19153",131447831,"L"
879961,"8130 BAY RUN AVENUE","BAYTOWN","TX",77521,29.8148315170001,-94.991630926,461,"8130 BAY RUN AVENUE, BAYTOWN, TX, 77521","Match","Exact","8130 BAY RUN AVE, BAYTOWN, TX, 77521",641941655,"L"
879962,"8130 BELL AVENUE","LENEXA","KS",66219,38.9805510570001,-94.774540057,462,"8130 BELL AVENUE, LENEXA, KS, 66219","Match","Non_Exact","8130 BELL RD, LENEXA, KS, 66219",636654650,"L"
879963,"8130 BELMONT STABLES DR","CHARLOTTE","NC",28216,35.3395822350001,-80.8783189179999,463,"8130 BELMONT STABLES DR, CHARLOTTE, NC, 28216","Match","Exact","8130 BELMONT STABLES DR, CHARLOTTE, NC, 28216",70561769,"L"
879964,"8130 BLUE DAZE COURT","LEHIGH ACRES","FL",33924,26.6259786640001,-81.6538735629999,464,"8130 BLUE DAZE COURT, LEHIGH ACRES, FL, 33924","Match","Non_Exact","8130 BLUE DAZE CT, LEHIGH ACRES, FL, 33972",619062472,"L"
879965,"8130 BOONE BLVD SUITE 250","VIENNA","VA",22182,38.91345133,-77.226357465,465,"8130 BOONE BLVD SUITE 250, VIENNA, VA, 22182","Match","Exact","8130 BOONE BLVD, VIENNA, VA, 22182",75962208,"R"
879966,"8130 CEDAR POINT ROAD","JACKSONVILLE","FL",32226,30.459853718,-81.473087691,466,"8130 CEDAR POINT ROAD, JACKSONVILLE, FL, 32226","Match","Exact","8130 CEDAR POINT RD, JACKSONVILLE, FL, 32226",83989288,"L"
879967,"8130 CRIMSON CIRCLE","CLAY","NY",13041,43.1641172170001,-76.1418389789999,467,"8130 CRIMSON CIRCLE, CLAY, NY, 13041","Match","Exact","8130 CRIMSON CIR, CLAY, NY, 13041",46566499,"R"
879968,"8130 DONIPHAN UNIT C","VINTON","TX",79821,31.966962756,-106.604119503,468,"8130 DONIPHAN UNIT C, VINTON, TX, 79821","Match","Non_Exact","8130 DONIPHAN DR, VINTON, TX, 79821",642351567,"R"
879969,"8130 E 12 ST 2B","TULSA","OK",74112,36.1461577580001,-95.886182923,469,"8130 E 12 ST 2B, TULSA, OK, 74112","Match","Non_Exact","8130 E 12TH ST, TULSA, OK, 74112",166453034,"R"
879970,"8130 E DUST DEVIL","PRESCOTT VALLEY","AZ",86314,34.6244503410001,-112.322181423,470,"8130 E DUST DEVIL, PRESCOTT VALLEY, AZ, 86314","Match","Non_Exact","8130 E DUST DEVIL DR, PRESCOTT VALLEY, AZ, 86314",159461315,"L"
879971,"8130 E HERMOSA VISTA DR","MESA","AZ",85207,33.4586830870001,-111.655857448,471,"8130 E HERMOSA VISTA DR, MESA, AZ, 85207","Match","Exact","8130 E HERMOSA VISTA DR, MESA, AZ, 85207",637536547,"L"
879972,"8130 EVERGREEN DRIVE","CORFU","NY",14011,43.0218274900001,-78.372888611,472,"8130 EVERGREEN DRIVE, CORFU, NY, 14011","Match","Non_Exact","8130 EVERGREEN DR, CORFU, NY, 14036",48148620,"R"
879973,"8130 EVERGREEN DRIVE","CORFU","NY",14036,43.0218274900001,-78.372888611,473,"8130 EVERGREEN DRIVE, CORFU, NY, 14036","Match","Exact","8130 EVERGREEN DR, CORFU, NY, 14036",48148620,"R"
879974,"8130 FREDA ST","DETROIT","MI",48204,42.353179981,-83.1598539519999,474,"8130 FREDA ST, DETROIT, MI, 48204","Match","Exact","8130 FREDA ST, DETROIT, MI, 48204",95443476,"R"
879975,"8130 FREDA STREET","DETROIT","MI",48204,42.353179981,-83.1598539519999,475,"8130 FREDA STREET, DETROIT, MI, 48204","Match","Exact","8130 FREDA ST, DETROIT, MI, 48204",95443476,"R"
879976,"8130 HARDY ELM ST","SPRING","TX",77379,30.081709211,-95.543397364,476,"8130 HARDY ELM ST, SPRING, TX, 77379","Match","Exact","8130 HARDY ELM ST, SPRING, TX, 77379",627641846,"L"
879977,"8130 HARDY ELM","SPRING","TX",77379,30.081709211,-95.543397364,477,"8130 HARDY ELM, SPRING, TX, 77379","Match","Non_Exact","8130 HARDY ELM ST, SPRING, TX, 77379",627641846,"L"
879978,"8130 HOLMAN AVENUE","PENNSAUKEN","NJ",8110,39.980821651,-75.051444268,478,"8130 HOLMAN AVENUE, PENNSAUKEN, NJ, 8110","Match","Exact","8130 HOLMAN AVE, PENNSAUKEN, NJ, 08110",134343779,"R"
879979,"8130 KNOX CT","WESTMINSTER","CO",80031,39.8440227670001,-105.031919047,479,"8130 KNOX CT, WESTMINSTER, CO, 80031","Match","Exact","8130 KNOX CT, WESTMINSTER, CO, 80031",177294398,"R"
879980,"8130 MAX DRIVE","DALLAS","TX",75248,32.658584918,-96.9669094449999,480,"8130 MAX DRIVE, DALLAS, TX, 75248","Match","Non_Exact","8130 MAX DR, DALLAS, TX, 75249",619139974,"L"
879981,"8130 MIDDLEBURY","HOUSTON","TX",77070,29.979058363,-95.557164964,481,"8130 MIDDLEBURY, HOUSTON, TX, 77070","Match","Non_Exact","8130 MIDDLEBURY LN, HOUSTON, TX, 77070",96005723,"L"
879982,"8130 MORGAN AVE N","STILLWATER","MN",55082,45.0664787100001,-92.849097733,482,"8130 MORGAN AVE N, STILLWATER, MN, 55082","Match","Non_Exact","8130 MORGAN AVE, STILLWATER, MN, 55082",649728530,"R"
879983,"8130 MORROW CIRCLE","DETROIT","MI",48204,42.3531558620001,-83.161011679,483,"8130 MORROW CIRCLE, DETROIT, MI, 48204","Match","Non_Exact","8130 E MORROW CIR, DETROIT, MI, 48204",95443474,"R"
879984,"8130 OSWEGO ROAD","LIVERPOOL","NY",13090,NA,NA,484,"8130 OSWEGO ROAD, LIVERPOOL, NY, 13090","No_Match",NA,NA,NA,NA
879985,"8130 PAVONA RIDGE LANE","HOUSTON","TX",77040,29.896089487,-95.5160562789999,485,"8130 PAVONA RIDGE LANE, HOUSTON, TX, 77040","Match","Exact","8130 PAVONA RIDGE LN, HOUSTON, TX, 77040",629616518,"L"
879986,"8130 PINE RANCH DR","BRIGHTON","MI",48114,42.560466385,-83.791959699,486,"8130 PINE RANCH DR, BRIGHTON, MI, 48114","Match","Exact","8130 PINE RANCH DR, BRIGHTON, MI, 48114",23556207,"R"
879987,"8130 PLYMOUTH STREET","OAKLAND","CA",94621,37.757978096,-122.17608538,487,"8130 PLYMOUTH STREET, OAKLAND, CA, 94621","Match","Exact","8130 PLYMOUTH ST, OAKLAND, CA, 94621",125009427,"L"
879988,"8130 REVENNA RD","PAINESVILLE","OH",44077,NA,NA,488,"8130 REVENNA RD, PAINESVILLE, OH, 44077","No_Match",NA,NA,NA,NA
879989,"8130 RUSHING STREAM COURT","TOMBALL","TX",77375,30.0958860650001,-95.541992369,489,"8130 RUSHING STREAM COURT, TOMBALL, TX, 77375","Match","Exact","8130 RUSHING STREAM CT, TOMBALL, TX, 77375",627641464,"R"
879990,"8130 S INDIANA AVE","CHICAGO","IL",60619,41.7467574510001,-87.6196577429999,490,"8130 S INDIANA AVE, CHICAGO, IL, 60619","Match","Exact","8130 S INDIANA AVE, CHICAGO, IL, 60619",111772732,"R"
879991,"8130 S INDIANA","CHICAGO","IL",60619,41.7467574510001,-87.6196577429999,491,"8130 S INDIANA, CHICAGO, IL, 60619","Match","Non_Exact","8130 S INDIANA AVE, CHICAGO, IL, 60619",111772732,"R"
879992,"8130 S KOSTNER AVE","CHICAGO","IL",60652,41.744949503,-87.7312180339999,492,"8130 S KOSTNER AVE, CHICAGO, IL, 60652","Match","Exact","8130 S KOSTNER AVE, CHICAGO, IL, 60652",111816333,"R"
879993,"8130 SEEMSVILLE ROAD","NORTHAMPTON","PA",18067,40.723027475,-75.4581784769999,493,"8130 SEEMSVILLE ROAD, NORTHAMPTON, PA, 18067","Match","Exact","8130 SEEMSVILLE RD, NORTHAMPTON, PA, 18067",136874798,"R"
879994,"8130 SOUTH CHAMPLAIN AVE","CHICAGO","IL",60619,41.746952182,-87.608756187,494,"8130 SOUTH CHAMPLAIN AVE, CHICAGO, IL, 60619","Match","Exact","8130 S CHAMPLAIN AVE, CHICAGO, IL, 60619",111772962,"R"
879995,"8130 STONEYWAY DRIVE","HOUSTON","TX",77040,29.8898119140001,-95.542734514,495,"8130 STONEYWAY DRIVE, HOUSTON, TX, 77040","Match","Exact","8130 STONEYWAY DR, HOUSTON, TX, 77040",96574607,"L"
879996,"8130 SW 11TH AVE","PORTLAND","WA",97219,NA,NA,496,"8130 SW 11TH AVE, PORTLAND, WA, 97219","No_Match",NA,NA,NA,NA
879997,"8130 SW 147TH TER","BEAVERTON","OR",97007,45.461310499,-122.828025365,497,"8130 SW 147TH TER, BEAVERTON, OR, 97007","Match","Exact","8130 SW 147TH TER, BEAVERTON, OR, 97007",158206360,"R"
879998,"8130 SW 205TH ST","MIAMI","FL",33189,25.577097307,-80.322503,498,"8130 SW 205TH ST, MIAMI, FL, 33189","Match","Exact","8130 SW 205TH ST, MIAMI, FL, 33189",115996803,"L"
879999,"8130 W BRUNEAU AVENUE","KENNEWICK","WA",99336,46.2112200230001,-119.231569637,499,"8130 W BRUNEAU AVENUE, KENNEWICK, WA, 99336","Match","Exact","8130 W BRUNEAU AVE, KENNEWICK, WA, 99336",645516034,"R"
880000,"8130 WAKE FOREST DR SE","OLYMPIA","WA",98503,NA,NA,500,"8130 WAKE FOREST DR SE, OLYMPIA, WA, 98503","No_Match",NA,NA,NA,NA
