"ID","Address","City","State","Zip","lat","long","id","input_address","match_indicator","match_type","matched_address","tiger_line_id","tiger_side"
918501,"901 INVERNESS CT","LUCAS","TX",75002,33.071449251,-96.592955103,1,"901 INVERNESS CT, LUCAS, TX, 75002","Match","Non_Exact","901 INVERNESS LN, LUCAS, TX, 75002",648361934,"R"
918502,"901 IRVING ROAD","BIRMINGHAM","AL",35209,33.4758789640001,-86.811594589,2,"901 IRVING ROAD, BIRMINGHAM, AL, 35209","Match","Exact","901 IRVING RD, BIRMINGHAM, AL, 35209",81717225,"R"
918503,"901 JACKSON AVE","FRIONA","TX",79035,34.6396739900001,-102.7134574,3,"901 JACKSON AVE, FRIONA, TX, 79035","Match","Non_Exact","901 S JACKSON AVE, FRIONA, TX, 79035",164049205,"L"
918504,"901 JAMES AVE","SAINT PAUL","MN",55102,44.9277210130001,-93.138424844,4,"901 JAMES AVE, SAINT PAUL, MN, 55102","Match","Non_Exact","901 W JAMES AVE, SAINT PAUL, MN, 55102",97647205,"R"
918505,"901 JAMES STREET","GENEVA","IL",60134,41.8878727160001,-88.316233677,5,"901 JAMES STREET, GENEVA, IL, 60134","Match","Exact","901 JAMES ST, GENEVA, IL, 60134",119507768,"R"
918506,"901 JANA DRIVE","SMYRNA","TN",37167,35.959985363,-86.5272268319999,6,"901 JANA DRIVE, SMYRNA, TN, 37167","Match","Exact","901 JANA DR, SMYRNA, TN, 37167",59027604,"L"
918507,"901 JANA LN APT 4","MADISON","WI",53407,43.1110678950001,-89.299316635,7,"901 JANA LN APT 4, MADISON, WI, 53407","Match","Non_Exact","901 JANA LN, MADISON, WI, 53704",49543861,"L"
918508,"901 JAQUELINE CIRCLE","MACCLENY","FL",32063,NA,NA,8,"901 JAQUELINE CIRCLE, MACCLENY, FL, 32063","No_Match",NA,NA,NA,NA
918509,"901 JASPER ST","VIDOR","TX",77662,30.217425587,-94.011551739,9,"901 JASPER ST, VIDOR, TX, 77662","Match","Exact","901 JASPER ST, VIDOR, TX, 77662",649845289,"R"
918510,"901 JAY ARE CT","VIRGINIA BEACH","VA",23462,36.871078756,-76.1784546439999,10,"901 JAY ARE CT, VIRGINIA BEACH, VA, 23462","Match","Exact","901 JAY ARE CT, VA BCH, VA, 23462",122258732,"L"
918511,"901 JEFFERSON STREET UNIT 6","LYNCHBURG","VA",24504,37.4157938270001,-79.140406861,11,"901 JEFFERSON STREET UNIT 6, LYNCHBURG, VA, 24504","Match","Exact","901 JEFFERSON ST, LYNCHBURG, VA, 24504",62736209,"R"
918512,"901 JOEL CHEEK BLVD","FRANKLIN","TN",37064,35.937001417,-86.872948793,12,"901 JOEL CHEEK BLVD, FRANKLIN, TN, 37064","Match","Exact","901 JOEL CHEEK BLVD, FRANKLIN, TN, 37064",73124534,"R"
918513,"901 JONATHAN CT","WEATHERFORD","TX",76086,32.7367736840001,-97.782233139,13,"901 JONATHAN CT, WEATHERFORD, TX, 76086","Match","Exact","901 JONATHAN CT, WEATHERFORD, TX, 76086",103596170,"R"
918514,"901 JOY ROAD LOT 294","COLUMBUS","GA",31907,32.4361890590001,-84.933908866,14,"901 JOY ROAD LOT 294, COLUMBUS, GA, 31907","Match","Non_Exact","901 JOY RD, COLUMBUS, GA, 31906",98950224,"L"
918515,"901 K ST NW SUITE 900","WASHINGTON","DC",20001,38.902529939,-77.024494247,15,"901 K ST NW SUITE 900, WASHINGTON, DC, 20001","Match","Exact","901 K ST NW, WASHINGTON, DC, 20001",640479316,"R"
918516,"901 K STREET NW 600","WASHINGTON DC","DC",20001,38.902529939,-77.024494247,16,"901 K STREET NW 600, WASHINGTON DC, DC, 20001","Match","Exact","901 K ST NW, WASHINGTON, DC, 20001",640479316,"R"
918517,"901 KANDIYOHI AVE","PRINSBURG","MN",56281,44.9349291880001,-95.183302763,17,"901 KANDIYOHI AVE, PRINSBURG, MN, 56281","Match","Exact","901 KANDIYOHI AVE, PRINSBURG, MN, 56281",36719723,"R"
918518,"901 KATHRYN DRIVE","LEWISVILLE","TX",75067,33.036041304,-97.03228791,18,"901 KATHRYN DRIVE, LEWISVILLE, TX, 75067","Match","Exact","901 KATHRYN DR, LEWISVILLE, TX, 75067",103388262,"R"
918519,"901 KEELE DRIVE","RENO","NV",89509,39.510735889,-119.846365124,19,"901 KEELE DRIVE, RENO, NV, 89509","Match","Exact","901 KEELE DR, RENO, NV, 89509",107044252,"R"
918520,"901 KENSINGTON BLVD","MARYVILLE","TN",37803,35.7094408400001,-83.99336687,20,"901 KENSINGTON BLVD, MARYVILLE, TN, 37803","Match","Exact","901 KENSINGTON BLVD, MARYVILLE, TN, 37803",607469881,"R"
918521,"901 KENSINGTON BLVD","MARYVILLE","TN",37804,35.7094408400001,-83.99336687,21,"901 KENSINGTON BLVD, MARYVILLE, TN, 37804","Match","Non_Exact","901 KENSINGTON BLVD, MARYVILLE, TN, 37803",607469881,"R"
918522,"901 KENTUCKY DRIVE","ASHLAND","MO",65010,38.76310226,-92.2584946059999,22,"901 KENTUCKY DRIVE, ASHLAND, MO, 65010","Match","Exact","901 KENTUCKY DR, ASHLAND, MO, 65010",605003932,"L"
918523,"901 KILDAIRE FARM ROAD  A2","CARY","NC",27511,35.7749249930001,-78.7816532529999,23,"901 KILDAIRE FARM ROAD  A2, CARY, NC, 27511","Match","Non_Exact","901 KILDAIRE FARM RD, CARY, NC, 27511",72498598,"R"
918524,"901 KILDAIRE FARM ROAD / C1-C","CARY","NC",27511,35.7749249930001,-78.7816532529999,24,"901 KILDAIRE FARM ROAD / C1-C, CARY, NC, 27511","Match","Non_Exact","901 KILDAIRE FARM RD, CARY, NC, 27511",72498598,"R"
918525,"901 KINGS MILL ROAD","CHAPEL HILL","NC",27517,35.89548409,-79.037058391,25,"901 KINGS MILL ROAD, CHAPEL HILL, NC, 27517","Match","Exact","901 KINGS MILL RD, CHAPEL HILL, NC, 27517",72408657,"R"
918526,"901 KINGSLAND RD","RICHMOND","VA",23231,37.4003128790001,-77.375823313,26,"901 KINGSLAND RD, RICHMOND, VA, 23231","Match","Exact","901 KINGSLAND RD, RICHMOND, VA, 23231",106682545,"R"
918527,"901 KNOX LN","MANHATTAN","KS",66502,39.204136605,-96.5390279979999,27,"901 KNOX LN, MANHATTAN, KS, 66502","Match","Exact","901 KNOX LN, MANHATTAN, KS, 66502",653871471,"L"
918528,"901 KORALLA WAY","GALT","CA",95632,38.281505586,-121.295877445,28,"901 KORALLA WAY, GALT, CA, 95632","Match","Exact","901 KORALLA WAY, GALT, CA, 95632",133385939,"L"
918529,"901 LAIRDS WOO CIRCLE","NORMAN","OK",73026,NA,NA,29,"901 LAIRDS WOO CIRCLE, NORMAN, OK, 73026","No_Match",NA,NA,NA,NA
918530,"901 LAKE ST UNIT 3326","OAK PARK","IL",60303,41.8886833350001,-87.798528456,30,"901 LAKE ST UNIT 3326, OAK PARK, IL, 60303","Match","Non_Exact","901 LAKE ST, OAK PARK, IL, 60301",611730363,"L"
918531,"901 LAKE ST UNIT 757","OAK PARK","IL",60303,41.8886833350001,-87.798528456,31,"901 LAKE ST UNIT 757, OAK PARK, IL, 60303","Match","Non_Exact","901 LAKE ST, OAK PARK, IL, 60301",611730363,"L"
918532,"901 LAKE ST UNIT 757","OAK PARK","IL",60603,41.8886833350001,-87.798528456,32,"901 LAKE ST UNIT 757, OAK PARK, IL, 60603","Match","Non_Exact","901 LAKE ST, OAK PARK, IL, 60301",611730363,"L"
918533,"901 LAKE STREET UNIT 2324","OAK PARK","IL",60301,41.8886833350001,-87.798528456,33,"901 LAKE STREET UNIT 2324, OAK PARK, IL, 60301","Match","Exact","901 LAKE ST, OAK PARK, IL, 60301",611730363,"L"
918534,"901 LAKE STREET UNIT 662","OAK PARK","IL",60301,41.8886833350001,-87.798528456,34,"901 LAKE STREET UNIT 662, OAK PARK, IL, 60301","Match","Exact","901 LAKE ST, OAK PARK, IL, 60301",611730363,"L"
918535,"901 LAKEVIEW DRIVE","SCOTTSBURG","IN",47170,38.6925558200001,-85.7812961239999,35,"901 LAKEVIEW DRIVE, SCOTTSBURG, IN, 47170","Match","Exact","901 LAKEVIEW DR, SCOTTSBURG, IN, 47170",31606539,"R"
918536,"901 LANCASHIRE LN","PROSPER","TX",76227,33.2271659720001,-96.89290744,36,"901 LANCASHIRE LN, PROSPER, TX, 76227","Match","Non_Exact","901 LANCASHIRE LN, PROSPER, TX, 75078",618759649,"L"
918537,"901 LAUDERDALE STREET","SELMA","AL",36701,32.4144386840001,-87.025072097,37,"901 LAUDERDALE STREET, SELMA, AL, 36701","Match","Exact","901 LAUDERDALE ST, SELMA, AL, 36701",1283825,"L"
918538,"901 LAUREL DRIVE","MANNINGTON","WV",26582,39.520136818,-80.3306331049999,38,"901 LAUREL DRIVE, MANNINGTON, WV, 26582","Match","Exact","901 LAUREL DR, MANNINGTON, WV, 26582",51448112,"L"
918539,"901 LEAFY HOLLOW CIRCLE","MOUNT AIRY","MD",21771,39.3737223460001,-77.168414764,39,"901 LEAFY HOLLOW CIRCLE, MOUNT AIRY, MD, 21771","Match","Exact","901 LEAFY HOLLOW CIR, MOUNT AIRY, MD, 21771",60699532,"L"
918540,"901 LEE ST","ELK GROVE VILLAGE","IL",60007,42.032537077,-87.974610376,40,"901 LEE ST, ELK GROVE VILLAGE, IL, 60007","Match","Exact","901 LEE ST, ELK GROVE VILLAGE, IL, 60007",605599183,"R"
918541,"901 LEHNERTZ AVE","AURORA","IL",60505,41.7729931000001,-88.29482833,41,"901 LEHNERTZ AVE, AURORA, IL, 60505","Match","Exact","901 LEHNERTZ AVE, AURORA, IL, 60505",119516715,"R"
918542,"901 LENTON AVENUE","BAL","MD",21212,39.3638695290001,-76.601412613,42,"901 LENTON AVENUE, BAL, MD, 21212","Match","Non_Exact","901 LENTON AVE, BALTIMORE, MD, 21212",206408326,"R"
918543,"901 LESLIE TRACE NW","WASHINGTON C.H.","OH",43160,39.571617986,-83.472178238,43,"901 LESLIE TRACE NW, WASHINGTON C.H., OH, 43160","Match","Non_Exact","901 LESLIE TRCE NW, WASHINGTON COURT HOUSE, OH, 43160",119061146,"R"
918544,"901 LINDALE AVE","DREXEL HILL","PA",19026,39.9540676120001,-75.307646916,44,"901 LINDALE AVE, DREXEL HILL, PA, 19026","Match","Exact","901 LINDALE AVE, DREXEL HILL, PA, 19026",134876039,"R"
918545,"901 LIVE OAK DRIVE","DESOTO","TX",75115,32.6117972770001,-96.837157313,45,"901 LIVE OAK DRIVE, DESOTO, TX, 75115","Match","Exact","901 LIVE OAK DR, DESOTO, TX, 75115",102954124,"L"
918546,"901 LOCUST ST","HERNDON","VA",20170,38.9685123470001,-77.3916000999999,46,"901 LOCUST ST, HERNDON, VA, 20170","Match","Exact","901 LOCUST ST, HERNDON, VA, 20170",642592804,"L"
918547,"901 LOCUST STREET","HERNDON","VA",20170,38.9685123470001,-77.3916000999999,47,"901 LOCUST STREET, HERNDON, VA, 20170","Match","Exact","901 LOCUST ST, HERNDON, VA, 20170",642592804,"L"
918548,"901 LOMA VISTA ST","EL SEGUNDO","CA",90245,33.928963353,-118.422244815,48,"901 LOMA VISTA ST, EL SEGUNDO, CA, 90245","Match","Exact","901 LOMA VISTA ST, EL SEGUNDO, CA, 90245",141579777,"L"
918549,"901 LONG MEADOE RD","DESOTO","TX",75115,NA,NA,49,"901 LONG MEADOE RD, DESOTO, TX, 75115","No_Match",NA,NA,NA,NA
918550,"901 LONG ROAD","WAITSFIELD","VT",5673,44.18646783,-72.7766498509999,50,"901 LONG ROAD, WAITSFIELD, VT, 5673","Match","Exact","901 LONG RD, WAITSFIELD, VT, 05673",136680901,"R"
918551,"901 LONGMIRE RD 20","CONROE","TX",77304,30.3265023650001,-95.485569138,51,"901 LONGMIRE RD 20, CONROE, TX, 77304","Match","Exact","901 LONGMIRE RD, CONROE, TX, 77304",79335706,"L"
918552,"901 LONGMIRE RD STE 54","CONROE","TX",77304,30.3265023650001,-95.485569138,52,"901 LONGMIRE RD STE 54, CONROE, TX, 77304","Match","Exact","901 LONGMIRE RD, CONROE, TX, 77304",79335706,"L"
918553,"901 MACARTHUR DRIVE","BEAVER DAM","WI",53916,43.4741399010001,-88.8363947299999,53,"901 MACARTHUR DRIVE, BEAVER DAM, WI, 53916","Match","Exact","901 MACARTHUR DR, BEAVER DAM, WI, 53916",53528895,"L"
918554,"901 MAGNOLIA STREET","DONALDSONVILLE","LA",70346,30.104609834,-91.000193471,54,"901 MAGNOLIA STREET, DONALDSONVILLE, LA, 70346","Match","Exact","901 MAGNOLIA ST, DONALDSONVILLE, LA, 70346",115030699,"R"
918555,"901 MAGNOLIA","LAKE JACKSON","TX",77566,29.027253629,-95.4339886,55,"901 MAGNOLIA, LAKE JACKSON, TX, 77566","Match","Non_Exact","901 MAGNOLIA ST, LAKE JACKSON, TX, 77566",116580192,"L"
918556,"901 MAHONEY RD","CABOT","AR",72023,34.9019728820001,-91.9857107,56,"901 MAHONEY RD, CABOT, AR, 72023","Match","Exact","901 MAHONEY RD, CABOT, AR, 72023",79715112,"R"
918557,"901 MAIN STREET 10TH FLOOR","DALLAS","TX",75202,32.7795881850001,-96.804178382,57,"901 MAIN STREET 10TH FLOOR, DALLAS, TX, 75202","Match","Exact","901 MAIN ST, DALLAS, TX, 75202",102910076,"L"
918558,"901 MAIN STREET SUITE 3700","DALLAS","TX",75207,32.7795881850001,-96.804178382,58,"901 MAIN STREET SUITE 3700, DALLAS, TX, 75207","Match","Non_Exact","901 MAIN ST, DALLAS, TX, 75202",102910076,"L"
918559,"901 MAIN STREET","W","PA",17777,41.088702604,-76.867882793,59,"901 MAIN STREET, W, PA, 17777","Match","Non_Exact","901 MAIN ST, WATSONTOWN, PA, 17777",48050951,"L"
918560,"901 MANOR DR","KINGS MOUNTAIN","NC",28086,35.2524223400001,-81.31841432,60,"901 MANOR DR, KINGS MOUNTAIN, NC, 28086","Match","Exact","901 MANOR DR, KINGS MOUNTAIN, NC, 28086",70417819,"L"
918561,"901 MAPLE AVE","LINWOOD","NJ",8221,39.3503890260001,-74.570016315,61,"901 MAPLE AVE, LINWOOD, NJ, 8221","Match","Exact","901 MAPLE AVE, LINWOOD, NJ, 08221",202483909,"R"
918562,"901 MAPLE ST","UVALDE","TX",78801,29.218479829,-99.772757626,62,"901 MAPLE ST, UVALDE, TX, 78801","Match","Exact","901 MAPLE ST, UVALDE, TX, 78801",183444758,"R"
918563,"901 MAPLEHURST AVENUE","JACKSON","NJ",8527,40.0768741140001,-74.2555457409999,63,"901 MAPLEHURST AVENUE, JACKSON, NJ, 8527","Match","Exact","901 MAPLEHURST AVE, JACKSON, NJ, 08527",203844777,"L"
918564,"901 MARION AVE","FAIRMONT","WV",26554,39.4713999840001,-80.164054662,64,"901 MARION AVE, FAIRMONT, WV, 26554","Match","Exact","901 MARION AVE, FAIRMONT, WV, 26554",51436827,"L"
918565,"901 MARLIN DRIVE","MESQUITE","TX",75149,32.7574870980001,-96.6001730469999,65,"901 MARLIN DRIVE, MESQUITE, TX, 75149","Match","Exact","901 MARLIN DR, MESQUITE, TX, 75149",102963630,"L"
918566,"901 MARQUETTE AVENUE SUITE 1675","MINNEAPOLIS","MN",55402,44.9742546620001,-93.2725886439999,66,"901 MARQUETTE AVENUE SUITE 1675, MINNEAPOLIS, MN, 55402","Match","Non_Exact","901 MARQUETTE AVE S, MINNEAPOLIS, MN, 55402",43632335,"L"
918567,"901 MARTHA BECKER","LINDALE","TX",75771,NA,NA,67,"901 MARTHA BECKER, LINDALE, TX, 75771","Tie",NA,NA,NA,NA
918568,"901 MASON TOWN ROAD","NEWPORT","NC",28570,34.799310819,-76.8962351069999,68,"901 MASON TOWN ROAD, NEWPORT, NC, 28570","Match","Exact","901 MASON TOWN RD, NEWPORT, NC, 28570",223879030,"R"
918569,"901 MAUPIN","NEW HAVEN","MO",63068,38.6106465840001,-91.217904657,69,"901 MAUPIN, NEW HAVEN, MO, 63068","Match","Non_Exact","901 MAUPIN ST, NEW HAVEN, MO, 63068",99716339,"L"
918570,"901 MAYWOOD AVE","PERRYVILLE","MD",21903,39.5643153090001,-76.068275773,70,"901 MAYWOOD AVE, PERRYVILLE, MD, 21903","Match","Exact","901 MAYWOOD AVE, PERRYVILLE, MD, 21903",187386657,"L"
918571,"901 MCALAN DRIVE","MARION","IN",46952,40.5723654350001,-85.668917144,71,"901 MCALAN DRIVE, MARION, IN, 46952","Match","Non_Exact","901 W MACALAN DR, MARION, IN, 46952",95007919,"L"
918572,"901 MCCLINTOCK","BURR RIDGE","IL",60527,NA,NA,72,"901 MCCLINTOCK, BURR RIDGE, IL, 60527","No_Match",NA,NA,NA,NA
918573,"901 MCDONOUGH STREET","RICHMOND","VA",23224,37.525852478,-77.445142496,73,"901 MCDONOUGH STREET, RICHMOND, VA, 23224","Match","Exact","901 MCDONOUGH ST, RICHMOND, VA, 23224",201541862,"R"
918574,"901 MCKENZIE AVE","COUNCIL BLUFFS","IA",51503,41.286966385,-95.822810356,74,"901 MCKENZIE AVE, COUNCIL BLUFFS, IA, 51503","Match","Exact","901 MCKENZIE AVE, COUNCIL BLUFFS, IA, 51503",43903584,"R"
918575,"901 MCLAWHORN DR","GREENVILLE","NC",27834,35.576080119,-77.403509446,75,"901 MCLAWHORN DR, GREENVILLE, NC, 27834","Match","Exact","901 MCLAWHORN DR, GREENVILLE, NC, 27834",80016844,"L"
918576,"901 MCMEEN CIRCLE  APT 901","COLUMBIA","TN",38401,35.6501455970001,-87.025871407,76,"901 MCMEEN CIRCLE  APT 901, COLUMBIA, TN, 38401","Match","Exact","901 MCMEEN CIR, COLUMBIA, TN, 38401",645290497,"R"
918577,"901 MEADOW BROOK DRIVE","FREEBURG","IL",62243,38.4384111620001,-89.912959695,77,"901 MEADOW BROOK DRIVE, FREEBURG, IL, 62243","Match","Exact","901 MEADOW BROOK DR, FREEBURG, IL, 62243",107932482,"L"
918578,"901 MEDSKER ROAD","SEQUIM","WA",98382,48.105020876,-123.087424258,78,"901 MEDSKER ROAD, SEQUIM, WA, 98382","Match","Exact","901 MEDSKER RD, SEQUIM, WA, 98382",150873326,"L"
918579,"901 MELBOURNE","DETROIT","MI",48211,42.379821937,-83.068317689,79,"901 MELBOURNE, DETROIT, MI, 48211","Match","Non_Exact","901 MELBOURNE ST, DETROIT, MI, 48211",95476754,"L"
918580,"901 MELISSA CT","NEW CASTLE","DE",19720,39.561791747,-75.6576195,80,"901 MELISSA CT, NEW CASTLE, DE, 19720","Match","Exact","901 MELISSA CT, NEW CASTLE, DE, 19720",648677702,"L"
918581,"901 MERRILL MTN RD","LANDAFF","NH",3585,44.1720288440001,-71.860406395,81,"901 MERRILL MTN RD, LANDAFF, NH, 3585","Match","Exact","901 MERRILL MOUNTAIN RD, LANDAFF, NH, 03585",145684317,"L"
918582,"901 MERRYWEATHER DRIVE","MARIETTA","GA",30168,NA,NA,82,"901 MERRYWEATHER DRIVE, MARIETTA, GA, 30168","No_Match",NA,NA,NA,NA
918583,"901 MIAMI AVE","TERRACE PARK","OH",45174,39.1550387390001,-84.302994158,83,"901 MIAMI AVE, TERRACE PARK, OH, 45174","Match","Exact","901 MIAMI AVE, TERRACE PARK, OH, 45174",103960283,"L"
918584,"901 MILLARD ROAD","STONE MOUNTAIN","GA",30088,33.767665462,-84.181143037,84,"901 MILLARD ROAD, STONE MOUNTAIN, GA, 30088","Match","Exact","901 MILLARD RD, STONE MOUNTAIN, GA, 30088",23389602,"L"
918585,"901 MINERVA AVE","LOUISVILLE","KY",40223,38.271373951,-85.5654206149999,85,"901 MINERVA AVE, LOUISVILLE, KY, 40223","Match","Exact","901 MINERVA AVE, LOUISVILLE, KY, 40223",96879058,"R"
918586,"901 MINGLEWOOD LANE","JOPPA","MD",21085,39.415843941,-76.3478437479999,86,"901 MINGLEWOOD LANE, JOPPA, MD, 21085","Match","Exact","901 MINGLEWOOD LN, JOPPA, MD, 21085",191658397,"L"
918587,"901 MOHAWK APT 5","BAKERSFIELD","CA",93309,35.36218562,-119.062462477,87,"901 MOHAWK APT 5, BAKERSFIELD, CA, 93309","Match","Non_Exact","901 MOHAWK ST, BAKERSFIELD, CA, 93309",109085471,"L"
918588,"901 MOHAWK ST 66","BAKERSFIELD","CA",93309,35.36218562,-119.062462477,88,"901 MOHAWK ST 66, BAKERSFIELD, CA, 93309","Match","Exact","901 MOHAWK ST, BAKERSFIELD, CA, 93309",109085471,"L"
918589,"901 MOHAWK ST APT 5","BAKERSFIELD","CA",93309,35.36218562,-119.062462477,89,"901 MOHAWK ST APT 5, BAKERSFIELD, CA, 93309","Match","Exact","901 MOHAWK ST, BAKERSFIELD, CA, 93309",109085471,"L"
918590,"901 MOHAWK STREET - APT 66","BAKERSFIELD","CA",93309,35.36218562,-119.062462477,90,"901 MOHAWK STREET - APT 66, BAKERSFIELD, CA, 93309","Match","Exact","901 MOHAWK ST, BAKERSFIELD, CA, 93309",109085471,"L"
918591,"901 MONTGOMERY AVE APT 204","BRYN MAWR","PA",19010,40.0247893760001,-75.319012468,91,"901 MONTGOMERY AVE APT 204, BRYN MAWR, PA, 19010","Match","Exact","901 MONTGOMERY AVE, BRYN MAWR, PA, 19010",135133435,"R"
918592,"901 MONTROSE AVE","MORGANTOWN","WV",26505,39.630118887,-79.938157928,92,"901 MONTROSE AVE, MORGANTOWN, WV, 26505","Match","Exact","901 MONTROSE AVE, MORGANTOWN, WV, 26505",50744941,"L"
918593,"901 MORNINGDALE DRIVE","WILMINGTON","DE",19810,39.825830189,-75.494631565,93,"901 MORNINGDALE DRIVE, WILMINGTON, DE, 19810","Match","Exact","901 MORNINGDALE DR, WILMINGTON, DE, 19810",187291395,"L"
918594,"901 MT VERNON RD","VIDALIA","GA",30474,NA,NA,94,"901 MT VERNON RD, VIDALIA, GA, 30474","No_Match",NA,NA,NA,NA
918595,"901 MULBERRY BUSH CT","ORLANDO","FL",32828,28.542232009,-81.1766533859999,95,"901 MULBERRY BUSH CT, ORLANDO, FL, 32828","Match","Exact","901 MULBERRY BUSH CT, ORLANDO, FL, 32828",94397304,"L"
918596,"901 N 111TH DR","AVONDALE","AZ",85353,NA,NA,96,"901 N 111TH DR, AVONDALE, AZ, 85353","No_Match",NA,NA,NA,NA
918597,"901 N 111TH DRIVE","AVONDALE","AZ",85323,NA,NA,97,"901 N 111TH DRIVE, AVONDALE, AZ, 85323","No_Match",NA,NA,NA,NA
918598,"901 N 13TH AVE STE 105","TUCSON","AZ",85705,32.2329506460001,-110.979280641,98,"901 N 13TH AVE STE 105, TUCSON, AZ, 85705","Match","Non_Exact","901 N 13TH AVE, TUCSON, AZ, 85705",121169422,"L"
918599,"901 N 13TH STREET","TUCSON","AZ",85705,32.2329506460001,-110.979280641,99,"901 N 13TH STREET, TUCSON, AZ, 85705","Match","Non_Exact","901 N 13TH AVE, TUCSON, AZ, 85705",121169422,"L"
918600,"901 N 15TH","OZARK","MO",65721,NA,NA,100,"901 N 15TH, OZARK, MO, 65721","No_Match",NA,NA,NA,NA
918601,"901 N 16TH ST","BOISE","ID",83702,43.626713615,-116.207054055,101,"901 N 16TH ST, BOISE, ID, 83702","Match","Exact","901 N 16TH ST, BOISE, ID, 83702",117859938,"L"
918602,"901 N 17TH STREET","LINCOLN","NE",68588,40.821063425,-96.696507961,102,"901 N 17TH STREET, LINCOLN, NE, 68588","Match","Exact","901 N 17TH ST, LINCOLN, NE, 68588",645239413,"L"
918603,"901 N 17TH","LINCOLN","NE",68588,NA,NA,103,"901 N 17TH, LINCOLN, NE, 68588","No_Match",NA,NA,NA,NA
918604,"901 N 1ST STREET APT 7","TUCSON","AZ",85719,32.2343142490001,-110.957867267,104,"901 N 1ST STREET APT 7, TUCSON, AZ, 85719","Match","Non_Exact","901 E 1ST ST, TUCSON, AZ, 85719",121170622,"L"
918605,"901 N 3RD ST- STE 100","MINNEAPOLIS","MN",55401,NA,NA,105,"901 N 3RD ST- STE 100, MINNEAPOLIS, MN, 55401","No_Match",NA,NA,NA,NA
918606,"901 N 5TH ST","CARLISLE","IA",50047,41.5066537910001,-93.4909302889999,106,"901 N 5TH ST, CARLISLE, IA, 50047","Match","Exact","901 N 5TH ST, CARLISLE, IA, 50047",83759497,"R"
918607,"901 N 5TH ST","GUTHRIE CENTER","IA",50115,41.6845749940001,-94.502395656,107,"901 N 5TH ST, GUTHRIE CENTER, IA, 50115","Match","Exact","901 N 5TH ST, GUTHRIE CENTER, IA, 50115",68681474,"L"
918608,"901 N 8TH ST","LANTANA","FL",33462,26.5919209240001,-80.0580956639999,108,"901 N 8TH ST, LANTANA, FL, 33462","Match","Exact","901 N 8TH ST, LANTANA, FL, 33462",115578320,"L"
918609,"901 N 93RD ST","SEATTLE","WA",98103,47.6963558730001,-122.347068587,109,"901 N 93RD ST, SEATTLE, WA, 98103","Match","Exact","901 N 93RD ST, SEATTLE, WA, 98103",239761421,"R"
918610,"901 N BITTERCREEK TERRACE","MUSTANG","OK",73064,35.399591243,-97.696855123,110,"901 N BITTERCREEK TERRACE, MUSTANG, OK, 73064","Match","Exact","901 N BITTERCREEK TER, MUSTANG, OK, 73064",637576403,"R"
918611,"901 N CANYON DR","OLATHE","KS",66061,38.8942672100001,-94.8575041839999,111,"901 N CANYON DR, OLATHE, KS, 66061","Match","Exact","901 N CANYON DR, OLATHE, KS, 66061",91301278,"L"
918612,"901 N COUNTY LN RD","MONROE CITY","MO",63456,NA,NA,112,"901 N COUNTY LN RD, MONROE CITY, MO, 63456","No_Match",NA,NA,NA,NA
918613,"901 N FELICIDAD ST","ANAHEIM","CA",92801,33.843706411,-117.977097926,113,"901 N FELICIDAD ST, ANAHEIM, CA, 92801","Match","Exact","901 N FELICIDAD ST, ANAHEIM, CA, 92801",609068218,"L"
918614,"901 N GALENA AVE","WYOMING","IL",61491,41.0726591850001,-89.771681132,114,"901 N GALENA AVE, WYOMING, IL, 61491","Match","Exact","901 N GALENA AVE, WYOMING, IL, 61491",8976100,"R"
918615,"901 N GARDEN RIDGE APT 3320","LEWISVILLE","TX",75077,NA,NA,115,"901 N GARDEN RIDGE APT 3320, LEWISVILLE, TX, 75077","No_Match",NA,NA,NA,NA
918616,"901 N GARRISON UNIT 7627","SAINT LOUIS","MO",63106,NA,NA,116,"901 N GARRISON UNIT 7627, SAINT LOUIS, MO, 63106","No_Match",NA,NA,NA,NA
918617,"901 N GOVERNMENT WAY","COEUR D ALENE","ID",83814,47.681955277,-116.786291096,117,"901 N GOVERNMENT WAY, COEUR D ALENE, ID, 83814","Match","Exact","901 N GOVERNMENT WAY, COEUR D ALENE, ID, 83814",192904101,"L"
918618,"901 N GRANT ST","EL PASO","IL",61738,40.747345361,-89.0102206449999,118,"901 N GRANT ST, EL PASO, IL, 61738","Match","Non_Exact","901 GRANT, EL PASO, IL, 61738",9006624,"R"
918619,"901 N HIGH ST","UVALDE","TX",78801,29.220678413,-99.792998602,119,"901 N HIGH ST, UVALDE, TX, 78801","Match","Exact","901 N HIGH ST, UVALDE, TX, 78801",183444719,"L"
918620,"901 N MADISON AVE","DALLAS","TX",75208,32.7538490000001,-96.826585484,120,"901 N MADISON AVE, DALLAS, TX, 75208","Match","Exact","901 N MADISON AVE, DALLAS, TX, 75208",102946203,"L"
918621,"901 N MAIN ST","LOUISBURG","NC",27549,36.1096166180001,-78.296596624,121,"901 N MAIN ST, LOUISBURG, NC, 27549","Match","Exact","901 N MAIN ST, LOUISBURG, NC, 27549",90227927,"L"
918622,"901 N MAPLE ST","SEARCY","AR",72143,35.255532997,-91.7451602529999,122,"901 N MAPLE ST, SEARCY, AR, 72143","Match","Exact","901 N MAPLE ST, SEARCY, AR, 72143",82942283,"L"
918623,"901 N MCDONALD ST STE 5C","MCKINNEY","TX",75069,NA,NA,123,"901 N MCDONALD ST STE 5C, MCKINNEY, TX, 75069","Tie",NA,NA,NA,NA
918624,"901 N MILL ROAD","KENNETT SQUARE","PA",19348,39.894382552,-75.742542618,124,"901 N MILL ROAD, KENNETT SQUARE, PA, 19348","Match","Exact","901 N MILL RD, KENNETT SQUARE, PA, 19348",179547729,"R"
918625,"901 N MLK HWY","MEXIA","TX",76667,NA,NA,125,"901 N MLK HWY, MEXIA, TX, 76667","No_Match",NA,NA,NA,NA
918626,"901 N NELSON ST APT 401","ARLINGTON","VA",22203,38.8823051460001,-77.103736842,126,"901 N NELSON ST APT 401, ARLINGTON, VA, 22203","Match","Non_Exact","901 N NELSON ST, ARLINGTON, VA, 22203",638189026,"R"
918627,"901 N PACIFIC COAST HWY STE 106","REDONDO BEACH","CA",90277,33.827670664,-118.385663511,127,"901 N PACIFIC COAST HWY STE 106, REDONDO BEACH, CA, 90277","Match","Non_Exact","901 S PACIFIC COAST HWY, REDONDO BEACH, CA, 90277",141584207,"R"
918628,"901 N PARKVIEW","EFFINGHAM","IL",62401,39.1288358100001,-88.529195204,128,"901 N PARKVIEW, EFFINGHAM, IL, 62401","Match","Non_Exact","901 N PARKVIEW ST, EFFINGHAM, IL, 62401",94758053,"L"
918629,"901 N PENN ST REEF TOWER F1704","PHILADELPHIA","PA",19123,39.9615352650001,-75.13628842,129,"901 N PENN ST REEF TOWER F1704, PHILADELPHIA, PA, 19123","Match","Exact","901 PENN ST, PHILADELPHIA, PA, 19123",651198430,"R"
918630,"901 N PENN ST","PHILA","PA",19123,39.9615325780001,-75.13629151,130,"901 N PENN ST, PHILA, PA, 19123","Match","Exact","901 PENN ST, PHILA, PA, 19123",651198430,"R"
918631,"901 N PENN STREET F405","PHILADELPHIA","PA",19123,39.9615352650001,-75.13628842,131,"901 N PENN STREET F405, PHILADELPHIA, PA, 19123","Match","Exact","901 PENN ST, PHILADELPHIA, PA, 19123",651198430,"R"
918632,"901 N PENN STREET P601","PHILADELPHIA,","PA",19123,39.9615352650001,-75.13628842,132,"901 N PENN STREET P601, PHILADELPHIA,, PA, 19123","Match","Exact","901 PENN ST, PHILADELPHIA, PA, 19123",651198430,"R"
918633,"901 N PINE","BELOIT","KS",67420,39.467257369,-98.105018781,133,"901 N PINE, BELOIT, KS, 67420","Match","Non_Exact","901 N PINE ST, BELOIT, KS, 67420",148303578,"L"
918634,"901 N POINSETTIA AVE","MANHATTAN BEACH","CA",90266,33.884786682,-118.400341088,134,"901 N POINSETTIA AVE, MANHATTAN BEACH, CA, 90266","Match","Exact","901 N POINSETTIA AVE, MANHATTAN BEACH, CA, 90266",141582377,"L"
918635,"901 N POLK ST","DESOTO","TX",75115,32.604796956,-96.840768844,135,"901 N POLK ST, DESOTO, TX, 75115","Match","Exact","901 N POLK ST, DESOTO, TX, 75115",103264602,"L"
918636,"901 N POPLAR","PEABODY","KS",66866,38.173685424,-97.1136833959999,136,"901 N POPLAR, PEABODY, KS, 66866","Match","Non_Exact","901 N POPLAR ST, PEABODY, KS, 66866",120690786,"L"
918637,"901 N PORTER AVENUE","NORMAN","OK",73071,35.229700069,-97.441082465,137,"901 N PORTER AVENUE, NORMAN, OK, 73071","Match","Exact","901 N PORTER AVE, NORMAN, OK, 73071",99908909,"R"
918638,"901 N RUBY","MACON","MO",63552,39.7461161590001,-92.4711960769999,138,"901 N RUBY, MACON, MO, 63552","Match","Non_Exact","901 N RUBEY ST, MACON, MO, 63552",24957537,"L"
918639,"901 N TOWER DR SUITE 100","TROY","MI",48098,42.5960319980001,-83.167403958,139,"901 N TOWER DR SUITE 100, TROY, MI, 48098","Match","Exact","901 TOWER DR, TROY, MI, 48098",630313858,"R"
918640,"901 N WATER EDGE WAY","PRESCOTT","AZ",86303,34.556323911,-112.3732396,140,"901 N WATER EDGE WAY, PRESCOTT, AZ, 86303","Match","Non_Exact","901 WATERS EDGE WAY, PRESCOTT, AZ, 86303",159540829,"R"
918641,"901 N ZANG BLVD SUITE 216","DALLAS","TX",75208,NA,NA,141,"901 N ZANG BLVD SUITE 216, DALLAS, TX, 75208","Tie",NA,NA,NA,NA
918642,"901 NE 173 ST","MIAMI","FL",33162,25.9343968160001,-80.1822522749999,142,"901 NE 173 ST, MIAMI, FL, 33162","Match","Exact","901 NE 173RD ST, MIAMI, FL, 33162",116030952,"L"
918643,"901 NE 3RD ST SUITE 102","FORT LAUDERDALE","FL",33301,26.1253421160001,-80.1342435559999,143,"901 NE 3RD ST SUITE 102, FORT LAUDERDALE, FL, 33301","Match","Non_Exact","901 NE 3RD ST, FORT LAUDERDALE, FL, 33301",114723227,"L"
918644,"901 NE JONES RD","BEND","OR",97701,44.0693119040001,-121.291949221,144,"901 NE JONES RD, BEND, OR, 97701","Match","Exact","901 NE JONES RD, BEND, OR, 97701",152553294,"L"
918645,"901 NEW JERSEY AVE NW","WASHINGTON","DC",20001,38.90134743,-77.013243059,145,"901 NEW JERSEY AVE NW, WASHINGTON, DC, 20001","Match","Exact","901 NEW JERSEY AVE NW, WASHINGTON, DC, 20001",638282312,"R"
918646,"901 NEW MEISTER LANE APT 1727","PFLUGERVILLE","TX",78660,30.4809766340001,-97.626408082,146,"901 NEW MEISTER LANE APT 1727, PFLUGERVILLE, TX, 78660","Match","Non_Exact","901 NEW MEISTER LN, PFLUGERVILLE, TX, 78660",633598196,"R"
918647,"901 NEW MEISTER LANE APT 1727","PFUGERVILLE","TX",78660,30.4809766340001,-97.626408082,147,"901 NEW MEISTER LANE APT 1727, PFUGERVILLE, TX, 78660","Match","Non_Exact","901 NEW MEISTER LN, PFLUGERVILLE, TX, 78660",633598196,"R"
918648,"901 NEW MEISTER LANE APT 915","PFLUGERVILLE","TX",78660,30.4809766340001,-97.626408082,148,"901 NEW MEISTER LANE APT 915, PFLUGERVILLE, TX, 78660","Match","Non_Exact","901 NEW MEISTER LN, PFLUGERVILLE, TX, 78660",633598196,"R"
918649,"901 NEW MEISTER LN 1225","PFLUGERVILLE","TX",78660,30.4809766340001,-97.626408082,149,"901 NEW MEISTER LN 1225, PFLUGERVILLE, TX, 78660","Match","Non_Exact","901 NEW MEISTER LN, PFLUGERVILLE, TX, 78660",633598196,"R"
918650,"901 NORTH 13TH AVE","TUCSON","AZ",85705,32.2329506460001,-110.979280641,150,"901 NORTH 13TH AVE, TUCSON, AZ, 85705","Match","Exact","901 N 13TH AVE, TUCSON, AZ, 85705",121169422,"L"
918651,"901 NORTH 13TH AVENUE","TUCSON","AZ",85705,32.2329506460001,-110.979280641,151,"901 NORTH 13TH AVENUE, TUCSON, AZ, 85705","Match","Exact","901 N 13TH AVE, TUCSON, AZ, 85705",121169422,"L"
918652,"901 NORTH 3RD STREET","BREESE","IL",62230,38.609682729,-89.523001694,152,"901 NORTH 3RD STREET, BREESE, IL, 62230","Match","Exact","901 N 3RD ST, BREESE, IL, 62230",94808379,"R"
918653,"901 NORTH 47TH STREET","ROGERS","AR",72756,36.342411735,-94.17925832,153,"901 NORTH 47TH STREET, ROGERS, AR, 72756","Match","Exact","901 N 47TH ST, ROGERS, AR, 72756",47903245,"L"
918654,"901 NORTH 64TH STREET","PHILADELPHIA","PA",19151,39.977175334,-75.2481756619999,154,"901 NORTH 64TH STREET, PHILADELPHIA, PA, 19151","Match","Exact","901 N 64TH ST, PHILADELPHIA, PA, 19151",131397132,"R"
918655,"901 NORTH A STREET","PENSACOLA","FL",32501,30.421043351,-87.225522387,155,"901 NORTH A STREET, PENSACOLA, FL, 32501","Match","Exact","901 N A ST, PENSACOLA, FL, 32501",93220252,"L"
918656,"901 NORTH DELAWARE AVE","PHILADELPHIA","PA",19123,39.962513636,-75.13618901,156,"901 NORTH DELAWARE AVE, PHILADELPHIA, PA, 19123","Match","Exact","901 N DELAWARE AVE, PHILADELPHIA, PA, 19123",131423203,"R"
918657,"901 NORTH FEDERAL HIGHWAY","BOCA RATON","FL",33432,26.358717267,-80.084750984,157,"901 NORTH FEDERAL HIGHWAY, BOCA RATON, FL, 33432","Match","Exact","901 N FEDERAL HWY, BOCA RATON, FL, 33432",640587911,"L"
918658,"901 NORTH LAKEMONT AVENUE","ORLANDO","FL",32792,28.608019912,-81.328168733,158,"901 NORTH LAKEMONT AVENUE, ORLANDO, FL, 32792","Match","Non_Exact","901 N LAKEMONT AVE, ALOMA, FL, 32792",94279384,"L"
918659,"901 NORTH LIPPAZON LANE","DEWEY","AZ",86327,NA,NA,159,"901 NORTH LIPPAZON LANE, DEWEY, AZ, 86327","No_Match",NA,NA,NA,NA
918660,"901 NORTH MILTON AVENUE","Baltimore","MD",21205,39.3010531680001,-76.582464219,160,"901 NORTH MILTON AVENUE, Baltimore, MD, 21205","Match","Exact","901 N MILTON AVE, BALTIMORE, MD, 21205",206423971,"R"
918661,"901 NORTH MISSOURI","CAPE GIRARDEAU","MO",63701,37.3171156120001,-89.537415688,161,"901 NORTH MISSOURI, CAPE GIRARDEAU, MO, 63701","Match","Non_Exact","901 N MISSOURI AVE, CAPE GIRARDEAU, MO, 63701",35182288,"L"
918662,"901 NORTH MONROE 1508","ARLINGTON","NY",22201,NA,NA,162,"901 NORTH MONROE 1508, ARLINGTON, NY, 22201","No_Match",NA,NA,NA,NA
918663,"901 NORTH OLIVE AVENUE","WEST PALM BEACH","FL",33401,26.720710114,-80.051725271,163,"901 NORTH OLIVE AVENUE, WEST PALM BEACH, FL, 33401","Match","Exact","901 N OLIVE AVE, WEST PALM BEACH, FL, 33401",115278461,"L"
918664,"901 NORTH PEERLESS RD","EVANSVILLE","IN",47712,NA,NA,164,"901 NORTH PEERLESS RD, EVANSVILLE, IN, 47712","No_Match",NA,NA,NA,NA
918665,"901 NORTH PENN STREET APT F1209","PHILADELPHIA","PA",19123,39.9615325780001,-75.13629151,165,"901 NORTH PENN STREET APT F1209, PHILADELPHIA, PA, 19123","Match","Non_Exact","901 PENN ST, PHILADELPHIA, PA, 19123",651198430,"R"
918666,"901 NORTH PORTER AVENUE","NORMAN","OK",73071,35.229700069,-97.441082465,166,"901 NORTH PORTER AVENUE, NORMAN, OK, 73071","Match","Exact","901 N PORTER AVE, NORMAN, OK, 73071",99908909,"R"
918667,"901 NORTH STREET","CALDWELL","OH",43724,39.7478392190001,-81.522808046,167,"901 NORTH STREET, CALDWELL, OH, 43724","Match","Exact","901 NORTH ST, CALDWELL, OH, 43724",38019706,"R"
918668,"901 NORTH TRYON STREET","CHARLOTTE","NC",28206,35.2333265070001,-80.834447558,168,"901 NORTH TRYON STREET, CHARLOTTE, NC, 28206","Match","Exact","901 N TRYON ST, CHARLOTTE, NC, 28206",70556925,"L"
918669,"901 NORTH WASHINGTON 901 NORTH WASH","LANSING","MI",48906,42.743607292,-84.552139869,169,"901 NORTH WASHINGTON 901 NORTH WASH, LANSING, MI, 48906","Match","Non_Exact","901 N WASHINGTON AVE, LANSING, MI, 48906",17499083,"L"
918670,"901 NORTHWOOD DR APT 1","BELOIT","KS",67420,39.4666355410001,-98.1130817059999,170,"901 NORTHWOOD DR APT 1, BELOIT, KS, 67420","Match","Exact","901 NORTHWOOD DR, BELOIT, KS, 67420",148303601,"L"
918671,"901 NW 11TH AVE","FORT LAUDERDALE","FL",33311,26.134824791,-80.1566412729999,171,"901 NW 11TH AVE, FORT LAUDERDALE, FL, 33311","Match","Non_Exact","901 NW 11TH AVE, FORT LAUDERDALE, FL, 33311",114721197,"L"
918672,"901 NW 13TH ST","ANDREWS","TX",79714,32.3237467700001,-102.565395745,172,"901 NW 13TH ST, ANDREWS, TX, 79714","Match","Exact","901 NW 13TH ST, ANDREWS, TX, 79714",139076473,"L"
918673,"901 NW 141 ST","MIAMI","FL",33168,25.9039565410001,-80.2145640379999,173,"901 NW 141 ST, MIAMI, FL, 33168","Match","Non_Exact","901 NW 141ST ST, MIAMI, FL, 33168",116033237,"R"
918674,"901 NW 179TH AVENUE","PEMBROKE PINES","FL",33029,26.012139006,-80.386096427,174,"901 NW 179TH AVENUE, PEMBROKE PINES, FL, 33029","Match","Exact","901 NW 179TH AVE, PEMBROKE PINES, FL, 33029",114771197,"L"
918675,"901 NW 24TH STREET","WINTER HAVEN","FL",33881,28.0320676650001,-81.7571603329999,175,"901 NW 24TH STREET, WINTER HAVEN, FL, 33881","Match","Non_Exact","901 24TH ST NW, WINTER HAVEN, FL, 33881",104822808,"L"
918676,"901 NW 35 ST","BOCA RATON","FL",33431,26.3822264230001,-80.098019563,176,"901 NW 35 ST, BOCA RATON, FL, 33431","Match","Exact","901 NW 35TH ST, BOCA RATON, FL, 33431",648315857,"R"
918677,"901 NW 35 ST","BOCA RATON","FL",33487,26.3822264230001,-80.098019563,177,"901 NW 35 ST, BOCA RATON, FL, 33487","Match","Non_Exact","901 NW 35TH ST, BOCA RATON, FL, 33431",648315857,"R"
918678,"901 NW 84 TERR","MIAMI","FL",33150,25.852728176,-80.2119752309999,178,"901 NW 84 TERR, MIAMI, FL, 33150","Match","Exact","901 NW 84TH TER, MIAMI, FL, 33150",116004492,"R"
918679,"901 NW 85TH TERRACE 1415","PLANTATION","FL",33324,26.1338096960001,-80.263331212,179,"901 NW 85TH TERRACE 1415, PLANTATION, FL, 33324","Match","Non_Exact","901 NW 85TH TER, PLANTATION, FL, 33324",608970220,"L"
918680,"901 NW 8TH AVENUE STE C-18","GAINESVILLE","FL",32601,NA,NA,180,"901 NW 8TH AVENUE STE C-18, GAINESVILLE, FL, 32601","Tie",NA,NA,NA,NA
918681,"901 NW OXFORD GATE","BENTONVILLE","AR",72712,NA,NA,181,"901 NW OXFORD GATE, BENTONVILLE, AR, 72712","No_Match",NA,NA,NA,NA
918682,"901 OAK DRIVE","ATLANTA","GA",30354,NA,NA,182,"901 OAK DRIVE, ATLANTA, GA, 30354","No_Match",NA,NA,NA,NA
918683,"901 OAK STREET","JOURDANTON","TX",78026,28.919760098,-98.5440932989999,183,"901 OAK STREET, JOURDANTON, TX, 78026","Match","Exact","901 OAK ST, JOURDANTON, TX, 78026",607091443,"L"
918684,"901 OAKLEIGH BEACH ROAD","DUNDALK","MD",21222,39.2606947510001,-76.469214471,184,"901 OAKLEIGH BEACH ROAD, DUNDALK, MD, 21222","Match","Exact","901 OAKLEIGH BEACH RD, DUNDALK, MD, 21222",191490479,"R"
918685,"901 OAKWOOD","WILMETTE","IL",60091,42.0719609600001,-87.701514758,185,"901 OAKWOOD, WILMETTE, IL, 60091","Match","Non_Exact","901 OAKWOOD AVE, WILMETTE, IL, 60091",111742756,"L"
918686,"901 OCEAN BLVD UNIT 21","ATLANTIC BEACH","FL",32233,30.334144469,-81.397692837,186,"901 OCEAN BLVD UNIT 21, ATLANTIC BEACH, FL, 32233","Match","Exact","901 OCEAN BLVD, ATLANTIC BCH, FL, 32233",83953578,"R"
918687,"901 OGDEN","SAN ANTONIO","TX",78212,29.4471258450001,-98.493053681,187,"901 OGDEN, SAN ANTONIO, TX, 78212","Match","Non_Exact","901 OGDEN ST, SAN ANTONIO, TX, 78212",101524035,"L"
918688,"901 OLD HIGHWAY 66","MILAN","NM",87021,NA,NA,188,"901 OLD HIGHWAY 66, MILAN, NM, 87021","No_Match",NA,NA,NA,NA
918689,"901 OLD STAGE COACH TRAIL","GREENSBORO","NC",27410,36.094247425,-79.915746731,189,"901 OLD STAGE COACH TRAIL, GREENSBORO, NC, 27410","Match","Exact","901 STAGE COACH TRL, GREENSBORO, NC, 27410",131091465,"L"
918690,"901 OLIVE DRIVE","BAKERSFIELD","CA",93308,35.412272204,-119.039092198,190,"901 OLIVE DRIVE, BAKERSFIELD, CA, 93308","Match","Exact","901 OLIVE DR, BAKERSFIELD, CA, 93308",109086546,"L"
918691,"901 ONTARIO ST","OAK PARK","IL",60302,41.8901675910001,-87.797702495,191,"901 ONTARIO ST, OAK PARK, IL, 60302","Match","Exact","901 ONTARIO ST, OAK PARK, IL, 60302",652589965,"L"
918692,"901 ORANGE AVE","CRESCENT CITY","FL",32112,NA,NA,192,"901 ORANGE AVE, CRESCENT CITY, FL, 32112","No_Match",NA,NA,NA,NA
918693,"901 OSCEOLA","JACKSONVILLE BEACH","FL",32250,30.267384516,-81.394837265,193,"901 OSCEOLA, JACKSONVILLE BEACH, FL, 32250","Match","Non_Exact","901 OSCEOLA AVE, JACKSONVILLE BEACH, FL, 32250",83924038,"L"
918694,"901 PAGE AVE","FT WORTH","TX",76110,32.716579966,-97.333402377,194,"901 PAGE AVE, FT WORTH, TX, 76110","Match","Exact","901 PAGE AVE, FORT WORTH, TX, 76110",101887503,"L"
918695,"901 PALMER AVE","GLENWOOD SPRINGS","CO",81601,39.5452099390001,-107.320655586,195,"901 PALMER AVE, GLENWOOD SPRINGS, CO, 81601","Match","Exact","901 PALMER AVE, GLENWOOD SPGS, CO, 81601",105788089,"L"
918696,"901 PAMELA ST","MORAVIA","IA",52571,40.891505882,-92.828574295,196,"901 PAMELA ST, MORAVIA, IA, 52571","Match","Non_Exact","901 W PAMELA ST, MORAVIA, IA, 52571",54614175,"R"
918697,"901 PANNA","PARMA","OH",44109,NA,NA,197,"901 PANNA, PARMA, OH, 44109","No_Match",NA,NA,NA,NA
918698,"901 PARADISE CIRCLE","MISSION","TX",78572,26.233446417,-98.359975645,198,"901 PARADISE CIRCLE, MISSION, TX, 78572","Match","Exact","901 PARADISE CIR, MISSION, TX, 78572",71558805,"L"
918699,"901 PARK LANE","MEXIA","TX",76667,31.672136671,-96.471619254,199,"901 PARK LANE, MEXIA, TX, 76667","Match","Exact","901 PARK LN, MEXIA, TX, 76667",25049556,"L"
918700,"901 PARKRIDGE RD APT B7","DURHAM","NC",27713,35.9181877880001,-78.947947423,200,"901 PARKRIDGE RD APT B7, DURHAM, NC, 27713","Match","Non_Exact","901 PARK RIDGE RD, DURHAM, NC, 27713",71768364,"R"
918701,"901 PARKWOOD DRIVE","HARRISONBURG","VA",22802,38.471490573,-78.876564565,201,"901 PARKWOOD DRIVE, HARRISONBURG, VA, 22802","Match","Exact","901 PARKWOOD DR, HARRISONBURG, VA, 22802",649340511,"R"
918702,"901 PATRIOTS POINT DR","OCOEE","FL",34761,28.5413401160001,-81.5527228129999,202,"901 PATRIOTS POINT DR, OCOEE, FL, 34761","Match","Exact","901 PATRIOTS POINT DR, OCOEE, FL, 34761",94403801,"R"
918703,"901 PAVERSTONE DRIVE  SUITE 9","RALEIGH","NC",27615,35.8871966240001,-78.659154762,203,"901 PAVERSTONE DRIVE  SUITE 9, RALEIGH, NC, 27615","Match","Exact","901 PAVERSTONE DR, RALEIGH, NC, 27615",72532904,"R"
918704,"901 PEARSON DRIVE","JOLIET","IL",60431,41.538711366,-88.1370376089999,204,"901 PEARSON DRIVE, JOLIET, IL, 60431","Match","Non_Exact","901 PEARSON DR, JOLIET, IL, 60435",111539444,"L"
918705,"901 PEBBLE CREEK DR","LOUISVILLE","KY",40241,NA,NA,205,"901 PEBBLE CREEK DR, LOUISVILLE, KY, 40241","No_Match",NA,NA,NA,NA
918706,"901 PENNINGTON","NASHVILLE","TN",37206,36.1937938290001,-86.730584667,206,"901 PENNINGTON, NASHVILLE, TN, 37206","Match","Non_Exact","901 PENNINGTON AVE, NASHVILLE, TN, 37206",648642860,"R"
918707,"901 PENNSYLVANIA AVE    STE3-81","MIAMI BEACH","FL",33139,25.7795456480001,-80.133938563,207,"901 PENNSYLVANIA AVE    STE3-81, MIAMI BEACH, FL, 33139","Match","Exact","901 PENNSYLVANIA AVE, MIAMI BEACH, FL, 33139",116020599,"R"
918708,"901 PENNSYLVANIA AVE","WASHINGTON","DC",20007,NA,NA,208,"901 PENNSYLVANIA AVE, WASHINGTON, DC, 20007","No_Match",NA,NA,NA,NA
918709,"901 PERSON ST","FAYETTEVILLE","NC",28301,35.0476534380001,-78.8623663019999,209,"901 PERSON ST, FAYETTEVILLE, NC, 28301","Match","Exact","901 PERSON ST, FAYETTEVILLE, NC, 28301",64202511,"L"
918710,"901 PIER VIEW DR STE 201","IDAHO FALLS","ID",83402,NA,NA,210,"901 PIER VIEW DR STE 201, IDAHO FALLS, ID, 83402","No_Match",NA,NA,NA,NA
918711,"901 PLAZA DEL GADO","SIERRA VISTA","AZ",85635,31.5464348100001,-110.250469228,211,"901 PLAZA DEL GADO, SIERRA VISTA, AZ, 85635","Match","Non_Exact","901 PLZ DEL GADO, SIERRA VISTA, AZ, 85635",120929411,"L"
918712,"901 POND RIDGE BAY","DRAPER","UT",84020,40.5309394080001,-111.866384424,212,"901 POND RIDGE BAY, DRAPER, UT, 84020","Match","Exact","901 POND RIDGE BAY, DRAPER, UT, 84020",176123871,"R"
918713,"901 POPLAR GLEN ROAD","CHARLOTTESVILLE","VA",22903,NA,NA,213,"901 POPLAR GLEN ROAD, CHARLOTTESVILLE, VA, 22903","No_Match",NA,NA,NA,NA
918714,"901 PRESTON AVE","BLACKSBURG","VA",24060,37.2215412640001,-80.408986678,214,"901 PRESTON AVE, BLACKSBURG, VA, 24060","Match","Exact","901 PRESTON AVE, BLACKSBURG, VA, 24060",73616492,"R"
918715,"901 PROFESSIONAL DR","NAPA","CA",94558,38.3203131000001,-122.292267839,215,"901 PROFESSIONAL DR, NAPA, CA, 94558","Match","Exact","901 PROFESSIONAL DR, NAPA, CA, 94558",67437211,"R"
918716,"901 QUAIL RIDGE CIRCLE","PAPILLION","NE",68046,41.1681840850001,-96.055776061,216,"901 QUAIL RIDGE CIRCLE, PAPILLION, NE, 68046","Match","Exact","901 QUAIL RIDGE CIR, PAPILLION, NE, 68046",28480616,"L"
918717,"901 RACE ST","DENVER","CO",80206,39.730531049,-104.963674227,217,"901 RACE ST, DENVER, CO, 80206","Match","Exact","901 RACE ST, DENVER, CO, 80206",177331863,"L"
918718,"901 RALEIGH PATH","DENTON","TX",76208,33.2249638550001,-97.087236452,218,"901 RALEIGH PATH, DENTON, TX, 76208","Match","Non_Exact","901 RALEIGH PATH RD, DENTON, TX, 76208",614166964,"L"
918719,"901 REYNOLDS ST","PEEKSKILL","NY",10566,41.2989817500001,-73.92291469,219,"901 REYNOLDS ST, PEEKSKILL, NY, 10566","Match","Exact","901 REYNOLDS ST, PEEKSKILL, NY, 10566",139723752,"R"
918720,"901 RICHWOOD TERRACE","DAVIE","FL",33325,26.108837679,-80.336643819,220,"901 RICHWOOD TERRACE, DAVIE, FL, 33325","Match","Exact","901 RICHWOOD TER, DAVIE, FL, 33325",114766199,"L"
918721,"901 RIDGE RD","HEWITT","TX",76643,31.435573876,-97.203339735,221,"901 RIDGE RD, HEWITT, TX, 76643","Match","Non_Exact","901 RIDGE DR, HEWITT, TX, 76643",625120694,"L"
918722,"901 RIGGINS ROAD 1032","TALLAHASSEE","FL",32308,30.452647552,-84.236121655,222,"901 RIGGINS ROAD 1032, TALLAHASSEE, FL, 32308","Match","Exact","901 RIGGINS RD, TALLAHASSEE, FL, 32308",82854635,"L"
918723,"901 RIGGINS ROAD APARTMENT 512","TALLAHASSEE","FL",32308,30.452647552,-84.236121655,223,"901 RIGGINS ROAD APARTMENT 512, TALLAHASSEE, FL, 32308","Match","Exact","901 RIGGINS RD, TALLAHASSEE, FL, 32308",82854635,"L"
918724,"901 RIMINI DR","SAINT CLOUD","FL",34771,28.2992235830001,-81.237157252,224,"901 RIMINI DR, SAINT CLOUD, FL, 34771","Match","Exact","901 RIMINI DR, SAINT CLOUD, FL, 34771",650164558,"R"
918725,"901 RIVER BEND DRIVE","MARS HILL","NC",28754,35.7882467310001,-82.559975666,225,"901 RIVER BEND DRIVE, MARS HILL, NC, 28754","Match","Exact","901 RIVER BEND DR, MARS HILL, NC, 28754",637654399,"L"
918726,"901 RIVERSIDE ROAD","STEINHATCHEE","FL",32359,29.6694799640001,-83.3797133589999,226,"901 RIVERSIDE ROAD, STEINHATCHEE, FL, 32359","Match","Non_Exact","901 RIVERSIDE DR, STEINHATCHEE, FL, 32359",53959587,"R"
918727,"901 RIVERVIEW DR","NORA SPRINGS","IA",50458,43.1465335340001,-93.01650509,227,"901 RIVERVIEW DR, NORA SPRINGS, IA, 50458","Match","Exact","901 RIVERVIEW DR, NORA SPRINGS, IA, 50458",636246150,"L"
918728,"901 ROCKY HILLS DRIVE","AUBURN","AL",36830,32.565871562,-85.437598876,228,"901 ROCKY HILLS DRIVE, AUBURN, AL, 36830","Match","Exact","901 ROCKY HILLS DR, AUBURN, AL, 36830",647782913,"R"
918729,"901 ROCKY ROAD","HAGERMAN","ID",83332,NA,NA,229,"901 ROCKY ROAD, HAGERMAN, ID, 83332","No_Match",NA,NA,NA,NA
918730,"901 ROLLINS AVENUE","CAPITOL HEIGHTS","MD",20743,38.87750478,-76.901688301,230,"901 ROLLINS AVENUE, CAPITOL HEIGHTS, MD, 20743","Match","Exact","901 ROLLINS AVE, CAPITOL HEIGHTS, MD, 20743",644931658,"R"
918731,"901 ROSANNE DR","KINSTON","NC",28504,35.2896983890001,-77.593290011,231,"901 ROSANNE DR, KINSTON, NC, 28504","Match","Exact","901 ROSANNE DR, KINSTON, NC, 28504",13875214,"R"
918732,"901 RS GASS BLVD","NASHVILLE","TN",37216,NA,NA,232,"901 RS GASS BLVD, NASHVILLE, TN, 37216","No_Match",NA,NA,NA,NA
918733,"901 RS GASS BOULEVARD","NASHVILLE","TN",37216,NA,NA,233,"901 RS GASS BOULEVARD, NASHVILLE, TN, 37216","No_Match",NA,NA,NA,NA
918734,"901 RUE AVENUE","POINT PLEASANT","NJ",8742,40.0877625680001,-74.058889651,234,"901 RUE AVENUE, POINT PLEASANT, NJ, 8742","Match","Exact","901 RUE AVE, PT PLEASANT, NJ, 08742",203735558,"L"
918735,"901 RUMSEY AVENUE","CODY","WY",82414,44.5271522990001,-109.069575053,235,"901 RUMSEY AVENUE, CODY, WY, 82414","Match","Exact","901 RUMSEY AVE, CODY, WY, 82414",149204058,"R"
918736,"901 S  WASHINGTON ST E","ROCHESTER","NY",14445,43.1108424490001,-77.4965606979999,236,"901 S  WASHINGTON ST E, ROCHESTER, NY, 14445","Match","Non_Exact","901 S WASHINGTON ST, E ROCHESTER, NY, 14445",14546786,"R"
918737,"901 S 13TH STREET","PALATKA","FL",32177,29.6398834350001,-81.643291254,237,"901 S 13TH STREET, PALATKA, FL, 32177","Match","Exact","901 S 13TH ST, PALATKA, FL, 32177",86073114,"R"
918738,"901 S 14TH AVENUE W","NEWTON","IA",50126,41.6869853060001,-93.0639431659999,238,"901 S 14TH AVENUE W, NEWTON, IA, 50126","Match","Non_Exact","901 S 14TH AVE W, NEWTON, IA, 50208",89432295,"L"
918739,"901 S 2ND ST STE 201","SPRINGFIELD","IL",60548,NA,NA,239,"901 S 2ND ST STE 201, SPRINGFIELD, IL, 60548","No_Match",NA,NA,NA,NA
918740,"901 S 72ND AVE APT 166","YAKIMA","WA",98908,46.589033408,-120.604315529,240,"901 S 72ND AVE APT 166, YAKIMA, WA, 98908","Match","Non_Exact","901 S 72ND AVE, YAKIMA, WA, 98908",635863787,"L"
918741,"901 S ABE ST","SAN ANGELO","TX",76903,31.452467171,-100.442146026,241,"901 S ABE ST, SAN ANGELO, TX, 76903","Match","Exact","901 S ABE ST, SAN ANGELO, TX, 76903",190682666,"R"
918742,"901 S BENTSEN RD","MCALLEN","TX",78501,26.1998771040001,-98.270921963,242,"901 S BENTSEN RD, MCALLEN, TX, 78501","Match","Exact","901 S BENTSEN RD, MCALLEN, TX, 78501",637603360,"L"
918743,"901 S BRYAN APT G-711","NORTH PLATTE","NE",69101,NA,NA,243,"901 S BRYAN APT G-711, NORTH PLATTE, NE, 69101","No_Match",NA,NA,NA,NA
918744,"901 S CEARLOCK","CHEYENNE","OK",73628,35.6058252880001,-99.673302565,244,"901 S CEARLOCK, CHEYENNE, OK, 73628","Match","Non_Exact","901 CEARLOCK AVE, CHEYENNE, OK, 73628",151952320,"L"
918745,"901 S COATS ROAD","OXFORD","MI",48371,42.8106632380001,-83.316449205,245,"901 S COATS ROAD, OXFORD, MI, 48371","Match","Exact","901 S COATS RD, OXFORD, MI, 48371",69770011,"L"
918746,"901 S COUNTRY CLUB DR APT 3138","MESA","AZ",85210,NA,NA,246,"901 S COUNTRY CLUB DR APT 3138, MESA, AZ, 85210","No_Match",NA,NA,NA,NA
918747,"901 S COUNTY ROAD 31","BERTHOUD","CO",80513,40.2858420740001,-105.221178552,247,"901 S COUNTY ROAD 31, BERTHOUD, CO, 80513","Match","Exact","901 S CO RD 31, BERTHOUD, CO, 80513",188576831,"L"
918748,"901 S DOBSON RD","MESA","AZ",85202,33.398251696,-111.874578827,248,"901 S DOBSON RD, MESA, AZ, 85202","Match","Exact","901 S DOBSON RD, MESA, AZ, 85202",128792048,"L"
918749,"901 S EGRET ST","SEBRING","FL",33870,27.486010708,-81.497656607,249,"901 S EGRET ST, SEBRING, FL, 33870","Match","Exact","901 S EGRET ST, SEBRING, FL, 33870",4706578,"R"
918750,"901 S GRAND","EL DORADO SPG","MO",64744,37.86862274,-94.019326413,250,"901 S GRAND, EL DORADO SPG, MO, 64744","Match","Non_Exact","901 S GRAND AVE, EL DORADO SPG, MO, 64744",44898125,"R"
918751,"901 S GRANT AVE C","LIBERAL","KS",67901,NA,NA,251,"901 S GRANT AVE C, LIBERAL, KS, 67901","Tie",NA,NA,NA,NA
918752,"901 S HIGHLAND STREET","ARLINGTON","VA",22204,38.8633373230001,-77.0892998579999,252,"901 S HIGHLAND STREET, ARLINGTON, VA, 22204","Match","Exact","901 S HIGHLAND ST, ARLINGTON, VA, 22204",76470570,"L"
918753,"901 S IDAHO STREET SUITE 10","LA HABRA","CA",90631,33.9216380130001,-117.95917759,253,"901 S IDAHO STREET SUITE 10, LA HABRA, CA, 90631","Match","Exact","901 IDAHO ST, LA HABRA, CA, 90631",144127693,"R"
918754,"901 S LA BREA AVE 4","LOS ANGELES","CA",90036,NA,NA,254,"901 S LA BREA AVE 4, LOS ANGELES, CA, 90036","No_Match",NA,NA,NA,NA
918755,"901 S LA BREA AVE STE 4","CULVER CITY","CA",90232,NA,NA,255,"901 S LA BREA AVE STE 4, CULVER CITY, CA, 90232","No_Match",NA,NA,NA,NA
918756,"901 S LA BREA AVE STE 4","Los Angeles","CA",90036,NA,NA,256,"901 S LA BREA AVE STE 4, Los Angeles, CA, 90036","No_Match",NA,NA,NA,NA
918757,"901 S LA BREA AVE STE 4","LOS ANGELES","CA",90036,NA,NA,257,"901 S LA BREA AVE STE 4, LOS ANGELES, CA, 90036","No_Match",NA,NA,NA,NA
918758,"901 S LA BREA AVE SUITE 4","LOS ANGELES","CA",90036,NA,NA,258,"901 S LA BREA AVE SUITE 4, LOS ANGELES, CA, 90036","No_Match",NA,NA,NA,NA
918759,"901 S LAGRANGE ROAD UNIT D","LA GRANGE","IL",60525,41.797633811,-87.868948723,259,"901 S LAGRANGE ROAD UNIT D, LA GRANGE, IL, 60525","Match","Non_Exact","901 S LA GRANGE RD, LA GRANGE, IL, 60525",111790682,"L"
918760,"901 S LOYOLA","PERRYTON","TX",79070,36.3909568670001,-100.817614076,260,"901 S LOYOLA, PERRYTON, TX, 79070","Match","Non_Exact","901 S LOYOLA ST, PERRYTON, TX, 79070",188002584,"R"
918761,"901 S MERIDIAN ST","WASHINGTON","IN",47501,38.648206122,-87.175525095,261,"901 S MERIDIAN ST, WASHINGTON, IN, 47501","Match","Exact","901 S MERIDIAN ST, WASHINGTON, IN, 47501",32069509,"L"
918762,"901 S MONTREAL","DALLAS","TX",75208,32.736953773,-96.8542368669999,262,"901 S MONTREAL, DALLAS, TX, 75208","Match","Non_Exact","901 S MONTREAL AVE, DALLAS, TX, 75208",102945334,"R"
918763,"901 S MOPAC BLDG 2 SUITE 505","AUSTIN","TX",78746,NA,NA,263,"901 S MOPAC BLDG 2 SUITE 505, AUSTIN, TX, 78746","No_Match",NA,NA,NA,NA
918764,"901 S MOPAC BUILDING 1 STE 200","AUSTIN","TX",78746,NA,NA,264,"901 S MOPAC BUILDING 1 STE 200, AUSTIN, TX, 78746","No_Match",NA,NA,NA,NA
918765,"901 S MOPAC EXPY 1-300","AUSTIN","TX",78746,NA,NA,265,"901 S MOPAC EXPY 1-300, AUSTIN, TX, 78746","No_Match",NA,NA,NA,NA
918766,"901 S NATIONAL AV STRONG HALL 322","SPRINGFIELD","MO",65897,37.198776176,-93.276137703,266,"901 S NATIONAL AV STRONG HALL 322, SPRINGFIELD, MO, 65897","Match","Non_Exact","901 S NATIONAL AVE, SPRINGFIELD, MO, 65897",647745927,"R"
918767,"901 S NATIONAL AVE","Springfield","MO",65897,37.198776176,-93.276137703,267,"901 S NATIONAL AVE, Springfield, MO, 65897","Match","Exact","901 S NATIONAL AVE, SPRINGFIELD, MO, 65897",647745927,"R"
918768,"901 S NATIONAL AVE","SPRINGFIELD","MO",65897,37.198776176,-93.276137703,268,"901 S NATIONAL AVE, SPRINGFIELD, MO, 65897","Match","Exact","901 S NATIONAL AVE, SPRINGFIELD, MO, 65897",647745927,"R"
918769,"901 S NATIONAL AVE/ PSU 101","SPRINGFIELD","MO",65897,NA,NA,269,"901 S NATIONAL AVE/ PSU 101, SPRINGFIELD, MO, 65897","No_Match",NA,NA,NA,NA
918770,"901 S NATIONAL","SPRINGFIELD","MO",65897,37.198776176,-93.276137703,270,"901 S NATIONAL, SPRINGFIELD, MO, 65897","Match","Non_Exact","901 S NATIONAL AVE, SPRINGFIELD, MO, 65897",647745927,"R"
918771,"901 S NORTHERN BLVD","INDEPENDENCE","MO",64053,39.0983110810001,-94.451777175,271,"901 S NORTHERN BLVD, INDEPENDENCE, MO, 64053","Match","Exact","901 S NORTHERN BLVD, INDEPENDENCE, MO, 64053",91461224,"L"
918772,"901 S PERSIMMON AVENUE","SANFORD","FL",32771,28.80463379,-81.288873576,272,"901 S PERSIMMON AVENUE, SANFORD, FL, 32771","Match","Exact","901 S PERSIMMON AVE, SANFORD, FL, 32771",93756968,"L"
918773,"901 S PERSIMMON","SANFORD","FL",32771,28.80463379,-81.288873576,273,"901 S PERSIMMON, SANFORD, FL, 32771","Match","Non_Exact","901 S PERSIMMON AVE, SANFORD, FL, 32771",93756968,"L"
918774,"901 S PICKWICK AVENUE","SPRINGFIELD","MO",65804,37.198187181,-93.269768616,274,"901 S PICKWICK AVENUE, SPRINGFIELD, MO, 65804","Match","Exact","901 S PICKWICK AVE, SPRINGFIELD, MO, 65804",76678626,"R"
918775,"901 S PICKWICK","SPRINGFIELD","MO",65804,37.198187181,-93.269768616,275,"901 S PICKWICK, SPRINGFIELD, MO, 65804","Match","Non_Exact","901 S PICKWICK AVE, SPRINGFIELD, MO, 65804",76678626,"R"
918776,"901 S STATE STREET SUITE 200","HEMET","CA",92543,33.760742233,-116.971790743,276,"901 S STATE STREET SUITE 200, HEMET, CA, 92543","Match","Exact","901 STATE ST, HEMET, CA, 92543",195085874,"R"
918777,"901 S WESTOVER BLVD","ALBANY","GA",31721,31.541021168,-84.2234817899999,277,"901 S WESTOVER BLVD, ALBANY, GA, 31721","Match","Exact","901 S WESTOVER BLVD, ALBANY, GA, 31721",84329045,"R"
918778,"901 S WHITNEY WAY","MADISON","WI",53711,43.0452421320001,-89.473465881,278,"901 S WHITNEY WAY, MADISON, WI, 53711","Match","Exact","901 S WHITNEY WAY, MADISON, WI, 53711",49537465,"L"
918779,"901 SAC BLVD STE 1F22","OFFUTT AFB","NE",68113,41.1225346370001,-95.920762789,279,"901 SAC BLVD STE 1F22, OFFUTT AFB, NE, 68113","Match","Exact","901 SAC BLVD, OFFUTT AFB, NE, 68113",28489071,"R"
918780,"901 SAC BLVD STE 2C12","OFFUTT AFB","NE",68113,41.1225346370001,-95.920762789,280,"901 SAC BLVD STE 2C12, OFFUTT AFB, NE, 68113","Match","Exact","901 SAC BLVD, OFFUTT AFB, NE, 68113",28489071,"R"
918781,"901 SAC BLVD STE 3D16","OFFUTT AFB","NE",68113,41.1225346370001,-95.920762789,281,"901 SAC BLVD STE 3D16, OFFUTT AFB, NE, 68113","Match","Exact","901 SAC BLVD, OFFUTT AFB, NE, 68113",28489071,"R"
918782,"901 SAC BLVD SUITE 3D15","OFFUT AFB","NE",68113,41.1225346370001,-95.920762789,282,"901 SAC BLVD SUITE 3D15, OFFUT AFB, NE, 68113","Match","Non_Exact","901 SAC BLVD, OFFUTT AFB, NE, 68113",28489071,"R"
918783,"901 SAC BLVD","OFFUTT AFB","NE",68113,41.1225346370001,-95.920762789,283,"901 SAC BLVD, OFFUTT AFB, NE, 68113","Match","Exact","901 SAC BLVD, OFFUTT AFB, NE, 68113",28489071,"R"
918784,"901 SAGE SPARROW CIR","HIGHLANDS RANCH","CO",80129,39.5326411550001,-104.998843711,284,"901 SAGE SPARROW CIR, HIGHLANDS RANCH, CO, 80129","Match","Non_Exact","901 W SAGE SPARROW CIR, HIGHLANDS RANCH, CO, 80129",130816726,"L"
918785,"901 SANDY BAY RD","KINGSTREE","SC",29556,33.678507256,-79.8324928659999,285,"901 SANDY BAY RD, KINGSTREE, SC, 29556","Match","Exact","901 SANDY BAY RD, KINGSTREE, SC, 29556",29199127,"L"
918786,"901 SAPPHIRE CT","NAMPA","ID",83686,43.5518060740001,-116.561760362,286,"901 SAPPHIRE CT, NAMPA, ID, 83686","Match","Exact","901 SAPPHIRE CT, NAMPA, ID, 83686",122798989,"R"
918787,"901 SAVANNAH ROAD","LEWES","DE",19958,38.767457452,-75.1464138649999,287,"901 SAVANNAH ROAD, LEWES, DE, 19958","Match","Exact","901 SAVANNAH RD, LEWES, DE, 19958",106081732,"R"
918788,"901 SCHWARZ ROAD","LAWRENCE","KS",66049,38.9678448130001,-95.269676047,288,"901 SCHWARZ ROAD, LAWRENCE, KS, 66049","Match","Exact","901 SCHWARZ RD, LAWRENCE, KS, 66049",17683419,"R"
918789,"901 SHENANDOAN LN","BRENTWOOD","TN",37027,NA,NA,289,"901 SHENANDOAN LN, BRENTWOOD, TN, 37027","No_Match",NA,NA,NA,NA
918790,"901 SHOAL RIVER DRIVE","CRESTVIEW","FL",32539,30.7057949790001,-86.552651651,290,"901 SHOAL RIVER DRIVE, CRESTVIEW, FL, 32539","Match","Exact","901 SHOAL RIVER DR, CRESTVIEW, FL, 32539",74408627,"L"
918791,"901 SHOLAR COURT","CHATTANOOGA","TN",37406,35.0490755220001,-85.27242516,291,"901 SHOLAR COURT, CHATTANOOGA, TN, 37406","Match","Exact","901 SHOLAR CT, CHATTANOOGA, TN, 37406",59308604,"R"
918792,"901 SIMMONS AVE","CINCINNATI","OH",45215,39.238791609,-84.459260346,292,"901 SIMMONS AVE, CINCINNATI, OH, 45215","Match","Exact","901 SIMMONS AVE, CINCINNATI, OH, 45215",103926810,"R"
918793,"901 SIXTH STREET SW","WASHINGTON","DC",20024,38.8792157030001,-77.019897554,293,"901 SIXTH STREET SW, WASHINGTON, DC, 20024","Match","Exact","901 6TH ST SW, WASHINGTON, DC, 20024",76226996,"R"
918794,"901 SKYLINE DR","DOUGLAS","WY",82633,42.769931269,-105.3776566,294,"901 SKYLINE DR, DOUGLAS, WY, 82633","Match","Exact","901 SKYLINE DR, DOUGLAS, WY, 82633",146996683,"R"
918795,"901 SLEEPY HOLLOW DR","CEDAR HILL","TX",75104,32.604692814,-96.958179624,295,"901 SLEEPY HOLLOW DR, CEDAR HILL, TX, 75104","Match","Exact","901 SLEEPY HOLLOW DR, CEDAR HILL, TX, 75104",103186834,"L"
918796,"901 SNIPES ST","THE DALLES","OR",97058,45.6164185310001,-121.217590065,296,"901 SNIPES ST, THE DALLES, OR, 97058","Match","Exact","901 SNIPES ST, THE DALLES, OR, 97058",634208606,"L"
918797,"901 SOUTH 3RD","AUGUSTA","AR",72006,NA,NA,297,"901 SOUTH 3RD, AUGUSTA, AR, 72006","Tie",NA,NA,NA,NA
918798,"901 SOUTH BRADDOCK AVENUE","PITTSBURGH","PA",15221,40.435761966,-79.895933859,298,"901 SOUTH BRADDOCK AVENUE, PITTSBURGH, PA, 15221","Match","Exact","901 S BRADDOCK AVE, PITTSBURGH, PA, 15221",623198809,"L"
918799,"901 SOUTH BROADWAY","SANTA MARIA","CA",93454,34.9430102160001,-120.436088342,299,"901 SOUTH BROADWAY, SANTA MARIA, CA, 93454","Match","Exact","901 S BROADWAY, SANTA MARIA, CA, 93454",108668510,"L"
918800,"901 SOUTH CASCADE ST","NEW CASTLE","PA",16101,40.9858619670001,-80.319628549,300,"901 SOUTH CASCADE ST, NEW CASTLE, PA, 16101","Match","Exact","901 S CASCADE ST, NEW CASTLE, PA, 16101",65171895,"R"
918801,"901 SOUTH COLUMBIA AVENUE","CAMPBELLSVILLE","KY",42718,37.329948883,-85.3500519579999,301,"901 SOUTH COLUMBIA AVENUE, CAMPBELLSVILLE, KY, 42718","Match","Exact","901 S COLUMBIA AVE, CAMPBELLSVILLE, KY, 42718",634613117,"R"
918802,"901 SOUTH FLAGLER DRIVE","WEST PALM BEACH","FL",33401,26.705333915,-80.0491375289999,302,"901 SOUTH FLAGLER DRIVE, WEST PALM BEACH, FL, 33401","Match","Exact","901 S FLAGLER DR, WEST PALM BEACH, FL, 33401",638497534,"R"
918803,"901 SOUTH KIRKMAN ROAD APT 288","ORLANDO","FL",32811,28.5305399120001,-81.459179424,303,"901 SOUTH KIRKMAN ROAD APT 288, ORLANDO, FL, 32811","Match","Exact","901 S KIRKMAN RD, ORLANDO, FL, 32811",638650406,"R"
918804,"901 SOUTH NATIONAL AVE","SPRINGFIELD","MO",65897,37.198776176,-93.276137703,304,"901 SOUTH NATIONAL AVE, SPRINGFIELD, MO, 65897","Match","Exact","901 S NATIONAL AVE, SPRINGFIELD, MO, 65897",647745927,"R"
918805,"901 SOUTH NATIONAL AVENUE","SPRINGFIELD","MO",65897,37.198776176,-93.276137703,305,"901 SOUTH NATIONAL AVENUE, SPRINGFIELD, MO, 65897","Match","Exact","901 S NATIONAL AVE, SPRINGFIELD, MO, 65897",647745927,"R"
918806,"901 SOUTH PLYMOUTH CT APT 1206","CHICAGO","IL",60605,41.870487676,-87.6285829399999,306,"901 SOUTH PLYMOUTH CT APT 1206, CHICAGO, IL, 60605","Match","Exact","901 S PLYMOUTH CT, CHICAGO, IL, 60605",111828862,"R"
918807,"901 SOUTH PLYMOUTH STREET APT 1206","CHICAGO","IL",60605,41.870487676,-87.6285829399999,307,"901 SOUTH PLYMOUTH STREET APT 1206, CHICAGO, IL, 60605","Match","Non_Exact","901 S PLYMOUTH CT, CHICAGO, IL, 60605",111828862,"R"
918808,"901 SOUTH SECOND STREET UNIT 803","MINNEAPOLIS","MN",55415,44.977360688,-93.254655363,308,"901 SOUTH SECOND STREET UNIT 803, MINNEAPOLIS, MN, 55415","Match","Exact","901 S 2ND ST, MINNEAPOLIS, MN, 55415",642734287,"R"
918809,"901 SOUTH STREET","PEEKSKILL","NY",10566,41.28971081,-73.921602192,309,"901 SOUTH STREET, PEEKSKILL, NY, 10566","Match","Exact","901 SOUTH ST, PEEKSKILL, NY, 10566",139724050,"L"
918810,"901 SPRING AVE","SALISBURY","MD",21801,38.3513902930001,-75.59142615,310,"901 SPRING AVE, SALISBURY, MD, 21801","Match","Non_Exact","901 SPRING AVE, SALISBURY, MD, 21804",114452976,"R"
918811,"901 ST ANNES CT","TARPON SPRINGS","FL",34688,28.1591607390001,-82.697612269,311,"901 ST ANNES CT, TARPON SPRINGS, FL, 34688","Match","Exact","901 ST ANNES CT, TARPON SPNGS, FL, 34688",124679173,"R"
918812,"901 ST PAUL","LUDINGTON","MI",49431,NA,NA,312,"901 ST PAUL, LUDINGTON, MI, 49431","No_Match",NA,NA,NA,NA
918813,"901 STAGECOACH ROAD","CHAPEL HILL","NC",27514,35.9125918280001,-79.030190196,313,"901 STAGECOACH ROAD, CHAPEL HILL, NC, 27514","Match","Exact","901 STAGECOACH RD, CHAPEL HILL, NC, 27514",72380528,"R"
918814,"901 STATE LINE ROAD","CHATTANOOGA","TN",37412,34.984500219,-85.300569617,314,"901 STATE LINE ROAD, CHATTANOOGA, TN, 37412","Match","Exact","901 STATE LINE RD, CHATTANOOGA, TN, 37412",59312908,"R"
918815,"901 STATEBURY TRL","RIVERDALE","GA",30296,NA,NA,315,"901 STATEBURY TRL, RIVERDALE, GA, 30296","No_Match",NA,NA,NA,NA
918816,"901 STH NATIONAL","SPRINGFIELD","MO",65897,NA,NA,316,"901 STH NATIONAL, SPRINGFIELD, MO, 65897","No_Match",NA,NA,NA,NA
918817,"901 STONEGATE DR","HIGHLAND PARK","IL",60035,42.1554995120001,-87.785752595,317,"901 STONEGATE DR, HIGHLAND PARK, IL, 60035","Match","Exact","901 STONEGATE DR, HIGHLAND PARK, IL, 60035",119652105,"R"
918818,"901 STUART DRIVE","SOUTH EUCLID","OH",44121,41.5356489710001,-81.516275924,318,"901 STUART DRIVE, SOUTH EUCLID, OH, 44121","Match","Exact","901 STUART DR, SOUTH EUCLID, OH, 44121",61124791,"L"
918819,"901 SUE BARNETT DRIVE","HOUSTON","TX",77018,29.822669449,-95.412819022,319,"901 SUE BARNETT DRIVE, HOUSTON, TX, 77018","Match","Exact","901 SUE BARNETT DR, HOUSTON, TX, 77018",96639794,"L"
918820,"901 SUMMERLAKE DR","FORT MILL","SC",29715,35.0595720210001,-80.910476756,320,"901 SUMMERLAKE DR, FORT MILL, SC, 29715","Match","Exact","901 SUMMERLAKE DR, FORT MILL, SC, 29715",645273463,"L"
918821,"901 SUNNY SLOPE TRACE","LEXINGTON","KY",40514,37.970977023,-84.5466985899999,321,"901 SUNNY SLOPE TRACE, LEXINGTON, KY, 40514","Match","Exact","901 SUNNY SLOPE TRCE, LEXINGTON, KY, 40514",618014760,"R"
918822,"901 SUNNYSIDE AVENUE","MISSOURI VALLEY","IA",51555,41.5580211990001,-95.882968571,322,"901 SUNNYSIDE AVENUE, MISSOURI VALLEY, IA, 51555","Match","Exact","901 SUNNYSIDE AVE, MO VALLEY, IA, 51555",130984904,"L"
918823,"901 SUPERIOR DR","NORTHFIELD","MN",55057,44.436281179,-93.147709132,323,"901 SUPERIOR DR, NORTHFIELD, MN, 55057","Match","Exact","901 SUPERIOR DR, NORTHFIELD, MN, 55057",37332755,"L"
918824,"901 SW 10TH ST","ALEDO","IL",61231,41.1936140760001,-90.7587112689999,324,"901 SW 10TH ST, ALEDO, IL, 61231","Match","Exact","901 SW 10TH ST, ALEDO, IL, 61231",5473676,"R"
918825,"901 SW 128 AVE   E 309","PEMBROKE PINES","FL",33027,NA,NA,325,"901 SW 128 AVE   E 309, PEMBROKE PINES, FL, 33027","No_Match",NA,NA,NA,NA
918826,"901 SW 128TH TER UNIT 404A","PEMBROKE PINES","FL",33027,26.0014353030001,-80.3218682519999,326,"901 SW 128TH TER UNIT 404A, PEMBROKE PINES, FL, 33027","Match","Non_Exact","901 SW 128TH TER, PEMBROKE PINES, FL, 33027",614555204,"L"
918827,"901 SW 35TH ST","LEE'S SUMMIT","MO",64082,38.856421127,-94.3956646779999,327,"901 SW 35TH ST, LEE'S SUMMIT, MO, 64082","Match","Non_Exact","901 SW 35TH ST, LEES SUMMIT, MO, 64082",601261333,"L"
918828,"901 SW 99TH AVENUE","PEMBROKE PINES","FL",33025,26.000546281,-80.2766596549999,328,"901 SW 99TH AVENUE, PEMBROKE PINES, FL, 33025","Match","Exact","901 SW 99TH AVE, PEMBROKE PINES, FL, 33025",114754026,"L"
918829,"901 SW B AVE","LAWTON","OK",73501,34.60633933,-98.401712671,329,"901 SW B AVE, LAWTON, OK, 73501","Match","Exact","901 SW B AVE, LAWTON, OK, 73501",14995370,"R"
918830,"901 SW BUCHANAN","TOPEKA","KS",66606,39.051363484,-95.69090076,330,"901 SW BUCHANAN, TOPEKA, KS, 66606","Match","Non_Exact","901 SW BUCHANAN ST, TOPEKA, KS, 66606",17888943,"R"
918831,"901 SW PRESCOTT LN","GRIMES","IA",50111,41.681541834,-93.805499415,331,"901 SW PRESCOTT LN, GRIMES, IA, 50111","Match","Exact","901 SW PRESCOTT LN, GRIMES, IA, 50111",652077399,"R"
918832,"901 SW PRESCOTT N","GRIMES","IA",50111,NA,NA,332,"901 SW PRESCOTT N, GRIMES, IA, 50111","No_Match",NA,NA,NA,NA
918833,"901 SW SIMPSON AVE","BEND","OR",97702,44.0478345510001,-121.324188892,333,"901 SW SIMPSON AVE, BEND, OR, 97702","Match","Exact","901 SW SIMPSON AVE, BEND, OR, 97702",633404306,"R"
918834,"901 SW VERSAILLES AVE","PORT SAINT LUCIE","FL",34953,27.2515301240001,-80.3782660809999,334,"901 SW VERSAILLES AVE, PORT SAINT LUCIE, FL, 34953","Match","Exact","901 SW VERSAILLES AVE, PORT ST LUCIE, FL, 34953",120166821,"R"
918835,"901 TALBOTT DRIVE","ROCKY MOUNT","NC",27804,35.9408411320001,-77.808737428,335,"901 TALBOTT DRIVE, ROCKY MOUNT, NC, 27804","Match","Non_Exact","901 TALBOT DR, ROCKY MOUNT, NC, 27803",90384814,"R"
918836,"901 TAMI AVE","WAGONEER","OK",74467,NA,NA,336,"901 TAMI AVE, WAGONEER, OK, 74467","No_Match",NA,NA,NA,NA
918837,"901 TANGLEWOOD DRIVE","SICKLERVILLE","NJ",18081,39.762125236,-75.041555827,337,"901 TANGLEWOOD DRIVE, SICKLERVILLE, NJ, 18081","Match","Non_Exact","901 TANGLEWOOD DR, SICKLERVILLE, NJ, 08081",134381731,"L"
918838,"901 TARPON DRIVE","WILMINGTON","NC",28409,34.0684062300001,-77.894048739,338,"901 TARPON DRIVE, WILMINGTON, NC, 28409","Match","Exact","901 TARPON DR, WILMINGTON, NC, 28409",152751730,"L"
918839,"901 TEABERRY LANE","HOOVER","AL",35244,33.3358788090001,-86.815259482,339,"901 TEABERRY LANE, HOOVER, AL, 35244","Match","Exact","901 TEABERRY LN, HOOVER, AL, 35244",82069175,"L"
918840,"901 TEAS TRAIL 2060","PURDY","MO",65734,NA,NA,340,"901 TEAS TRAIL 2060, PURDY, MO, 65734","No_Match",NA,NA,NA,NA
918841,"901 TESORO AVE","RANCHO VIEJO","TX",78575,26.0411546460001,-97.56213983,341,"901 TESORO AVE, RANCHO VIEJO, TX, 78575","Match","Exact","901 TESORO AVE, RANCHO VIEJO, TX, 78575",643785781,"R"
918842,"901 THAMES CT","COLUMBIA","MO",65202,38.9784332290001,-92.3502810799999,342,"901 THAMES CT, COLUMBIA, MO, 65202","Match","Exact","901 THAMES CT, COLUMBIA, MO, 65202",23492879,"L"
918843,"901 THROOP ST","DUNMORE","PA",18512,41.4195859500001,-75.613220295,343,"901 THROOP ST, DUNMORE, PA, 18512","Match","Exact","901 THROOP ST, DUNMORE, PA, 18512",139330565,"L"
918844,"901 TIMBERLINE DR","BAY CITY","TX",77414,29.0026621760001,-95.9963817719999,344,"901 TIMBERLINE DR, BAY CITY, TX, 77414","Match","Exact","901 TIMBERLINE DR, BAY CITY, TX, 77414",83295261,"L"
918845,"901 TOLAR HWY","TOLAR","TX",76476,NA,NA,345,"901 TOLAR HWY, TOLAR, TX, 76476","No_Match",NA,NA,NA,NA
918846,"901 TOPSAIL DR","BROWNS SUMMIT","NC",27214,36.1563993070001,-79.774093149,346,"901 TOPSAIL DR, BROWNS SUMMIT, NC, 27214","Match","Non_Exact","901 TOPSAIL CT, BROWNS SUMMIT, NC, 27214",627544929,"R"
918847,"901 TOWN SIDE DR","APEX","NE",27502,NA,NA,347,"901 TOWN SIDE DR, APEX, NE, 27502","No_Match",NA,NA,NA,NA
918848,"901 TRAIL STREAM WAY","KNIGHTDALE","NC",27545,35.7823634980001,-78.515583389,348,"901 TRAIL STREAM WAY, KNIGHTDALE, NC, 27545","Match","Exact","901 TRAIL STREAM WAY, KNIGHTDALE, NC, 27545",208359492,"R"
918849,"901 TRAIL VIEW LANE SE","PINE ISLAND","MN",55963,44.1945029720001,-92.635947833,349,"901 TRAIL VIEW LANE SE, PINE ISLAND, MN, 55963","Match","Exact","901 TRAIL VIEW LN SE, PINE ISLAND, MN, 55963",30570801,"R"
918850,"901 TWELVE OAKS COURT","POLK CITY","IA",50226,41.7589533140001,-93.7058176529999,350,"901 TWELVE OAKS COURT, POLK CITY, IA, 50226","Match","Exact","901 TWELVE OAKS CT, POLK CITY, IA, 50226",649005236,"L"
918851,"901 UNION STREET","MANCHESTER","NH",3104,43.006791074,-71.4599641359999,351,"901 UNION STREET, MANCHESTER, NH, 3104","Match","Exact","901 UNION ST, MANCHESTER, NH, 03104",113546750,"R"
918852,"901 VALATTA LANE","SPRING VALLEY","CA",91977,32.712481224,-116.98141336,352,"901 VALATTA LANE, SPRING VALLEY, CA, 91977","Match","Non_Exact","901 VALLATA LN, SPRING VALLEY, CA, 91977",195374485,"L"
918853,"901 VALLEYWAY DRIVE","APOPKA","FL",32712,28.722269263,-81.528955953,353,"901 VALLEYWAY DRIVE, APOPKA, FL, 32712","Match","Exact","901 VALLEYWAY DR, APOPKA, FL, 32712",640256960,"R"
918854,"901 VANBUREN NW","GRAND RAPIDS","MI",49504,42.9797041570001,-85.6994840839999,354,"901 VANBUREN NW, GRAND RAPIDS, MI, 49504","Match","Non_Exact","901 VAN BUREN AVE NW, GRAND RAPIDS, MI, 49504",12455775,"L"
918855,"901 VERGINIA AVE","BADEN","PA",15005,40.646484527,-80.227371955,355,"901 VERGINIA AVE, BADEN, PA, 15005","Match","Non_Exact","901 VIRGINIA AVE, BADEN, PA, 15005",52568459,"L"
918856,"901 VIA ZAPATE UNIT O","RIVERSIDE","CA",92508,NA,NA,356,"901 VIA ZAPATE UNIT O, RIVERSIDE, CA, 92508","No_Match",NA,NA,NA,NA
918857,"901 VICTORIA ST STE A","LAREDO","TX",78040,27.507846789,-99.5046835539999,357,"901 VICTORIA ST STE A, LAREDO, TX, 78040","Match","Exact","901 VICTORIA ST, LAREDO, TX, 78040",21671670,"L"
918858,"901 VILLAGE BROOK WAY","COLUMBUS","OH",43235,40.0698398530001,-83.0432146049999,358,"901 VILLAGE BROOK WAY, COLUMBUS, OH, 43235","Match","Exact","901 VILLAGE BROOK WAY, COLUMBUS, OH, 43235",636559715,"R"
918859,"901 VIRGINIA STREET","ASHLAND","VA",23005,37.7523936310001,-77.481218799,359,"901 VIRGINIA STREET, ASHLAND, VA, 23005","Match","Exact","901 VIRGINIA ST, ASHLAND, VA, 23005",84957322,"R"
918860,"901 W 29TH AVENUE","BELLEVUE","NE",68005,41.1282415200001,-95.904324392,360,"901 W 29TH AVENUE, BELLEVUE, NE, 68005","Match","Exact","901 W 29TH AVE, BELLEVUE, NE, 68005",28496390,"L"
918861,"901 W 2ND AVENUE","ALBANY","GA",31701,31.589162598,-84.171004867,361,"901 W 2ND AVENUE, ALBANY, GA, 31701","Match","Exact","901 2ND AVE, ALBANY, GA, 31701",84314590,"R"
918862,"901 W 2ND ST","FLORENCE","CO",81226,38.3949879510001,-105.128228412,362,"901 W 2ND ST, FLORENCE, CO, 81226","Match","Exact","901 W 2ND ST, FLORENCE, CO, 81226",108289101,"L"
918863,"901 W BARDIN RD STE 100","ARLINGTON","TX",76017,32.6705015360001,-97.129276394,363,"901 W BARDIN RD STE 100, ARLINGTON, TX, 76017","Match","Non_Exact","901 W BARDIN RD, ARLINGTON, TX, 76017",102133287,"R"
918864,"901 W BARDIN RD SUITE 100","ARLINGTON","TX",76017,32.6705015360001,-97.129276394,364,"901 W BARDIN RD SUITE 100, ARLINGTON, TX, 76017","Match","Non_Exact","901 W BARDIN RD, ARLINGTON, TX, 76017",102133287,"R"
918865,"901 W BARDIN RD SUITE 101","ARLINGTON","TX",76017,32.6705015360001,-97.129276394,365,"901 W BARDIN RD SUITE 101, ARLINGTON, TX, 76017","Match","Non_Exact","901 W BARDIN RD, ARLINGTON, TX, 76017",102133287,"R"
918866,"901 W BARDIN RD SUITE 103","ARLINGTON","TX",76017,32.6705015360001,-97.129276394,366,"901 W BARDIN RD SUITE 103, ARLINGTON, TX, 76017","Match","Non_Exact","901 W BARDIN RD, ARLINGTON, TX, 76017",102133287,"R"
918867,"901 W CHESTNUT ST","SAVANNAH","MO",64485,39.943787462,-94.8351825399999,367,"901 W CHESTNUT ST, SAVANNAH, MO, 64485","Match","Exact","901 W CHESTNUT ST, SAVANNAH, MO, 64485",15922735,"R"
918868,"901 W CHUKAR CIR","SARATOGA SPRINGS","UT",84045,40.3774618100001,-111.937522079,368,"901 W CHUKAR CIR, SARATOGA SPRINGS, UT, 84045","Match","Exact","901 CHUKAR CIR, SARATOGA SPRINGS, UT, 84045",629753392,"L"
918869,"901 W FLETCHER STREET APT 4","CHICAGO","IL",60657,41.938968462,-87.652384731,369,"901 W FLETCHER STREET APT 4, CHICAGO, IL, 60657","Match","Non_Exact","901 W FLETCHER ST, CHICAGO, IL, 60657",605215223,"L"
918870,"901 W HENDRICKSON AVE","MARION","IL",62959,37.722324267,-88.934749059,370,"901 W HENDRICKSON AVE, MARION, IL, 62959","Match","Non_Exact","901 W HENDRICKSON ST, MARION, IL, 62959",6012425,"L"
918871,"901 W KENNEDY BLVD","TAMPA","FL",33602,27.9446352370001,-82.4686004499999,371,"901 W KENNEDY BLVD, TAMPA, FL, 33602","Match","Non_Exact","901 W KENNEDY BLVD, TAMPA, FL, 33606",104529958,"R"
918872,"901 W KUHNS LANE","LECANTO","FL",34461,28.859543081,-82.448632474,372,"901 W KUHNS LANE, LECANTO, FL, 34461","Match","Exact","901 W KUHNS LN, LECANTO, FL, 34461",610746138,"R"
918873,"901 W LAKE DR","WEATHERFORD","TX",76087,32.7862118800001,-97.695712659,373,"901 W LAKE DR, WEATHERFORD, TX, 76087","Match","Exact","901 W LAKE DR, WEATHERFORD, TX, 76087",642751996,"L"
918874,"901 W MADISON ST","CHICAGO","IL",60607,NA,NA,374,"901 W MADISON ST, CHICAGO, IL, 60607","Tie",NA,NA,NA,NA
918875,"901 W MADISON UNIT 1004","CHICAGO","IL",60607,41.881696382,-87.649798711,375,"901 W MADISON UNIT 1004, CHICAGO, IL, 60607","Match","Non_Exact","901 MADISON ST, CHICAGO, IL, 60607",605014642,"R"
918876,"901 W REGISTER ST","GENEVA","AL",36340,31.043044271,-85.886037088,376,"901 W REGISTER ST, GENEVA, AL, 36340","Match","Non_Exact","901 W REGISTER AVE, GENEVA, AL, 36340",32931232,"L"
918877,"901 W STATE STREET","WEST LAFAYETTE","IN",47907,40.4241621140001,-86.918008798,377,"901 W STATE STREET, WEST LAFAYETTE, IN, 47907","Match","Exact","901 W STATE ST, W LAFAYETTE, IN, 47907",27305136,"L"
918878,"901 W THERESA LANE","MILWAUKEE","WI",53209,43.1231579440001,-87.9204931909999,378,"901 W THERESA LANE, MILWAUKEE, WI, 53209","Match","Exact","901 W THERESA LN, MILWAUKEE, WI, 53209",77736268,"L"
918879,"901 W WAGNER","GILBERT","AZ",85233,33.3293615850001,-111.809816193,379,"901 W WAGNER, GILBERT, AZ, 85233","Match","Non_Exact","901 W WAGNER DR, GILBERT, AZ, 85233",128966170,"R"
918880,"901 W WALNUT","COLEMAN","TX",76834,31.827218374,-99.43198366,380,"901 W WALNUT, COLEMAN, TX, 76834","Match","Non_Exact","901 W WALNUT ST, COLEMAN, TX, 76834",129079023,"L"
918881,"901 W WINNEBAGO ST","MILWAUKEE","WI",53205,43.047014432,-87.9227487749999,381,"901 W WINNEBAGO ST, MILWAUKEE, WI, 53205","Match","Exact","901 W WINNEBAGO ST, MILWAUKEE, WI, 53205",77741197,"L"
918882,"901 W WINNEBAGO STREET APT 209","MILWAUKEE","WI",53205,43.047014432,-87.9227487749999,382,"901 W WINNEBAGO STREET APT 209, MILWAUKEE, WI, 53205","Match","Non_Exact","901 W WINNEBAGO ST, MILWAUKEE, WI, 53205",77741197,"L"
918883,"901 W WINNEBAGO STREET","MILWAUKEE","WI",53205,43.047014432,-87.9227487749999,383,"901 W WINNEBAGO STREET, MILWAUKEE, WI, 53205","Match","Exact","901 W WINNEBAGO ST, MILWAUKEE, WI, 53205",77741197,"L"
918884,"901 WADE LANE","DUNCANSVILLE","PA",16635,40.4181920950001,-78.4148781439999,384,"901 WADE LANE, DUNCANSVILLE, PA, 16635","Match","Exact","901 WADE LN, DUNCANSVILLE, PA, 16635",606099986,"L"
918885,"901 WALNUT STREET","PHILADELPHIA","PA",19107,39.9483034880001,-75.15588172,385,"901 WALNUT STREET, PHILADELPHIA, PA, 19107","Match","Exact","901 WALNUT ST, PHILADELPHIA, PA, 19107",640225357,"R"
918886,"901 WASHINGTON ST","OAKLAND","CA",94607,NA,NA,386,"901 WASHINGTON ST, OAKLAND, CA, 94607","No_Match",NA,NA,NA,NA
918887,"901 WATT CIRCLE","DELTONA","FL",32738,28.8883482790001,-81.186378497,387,"901 WATT CIRCLE, DELTONA, FL, 32738","Match","Exact","901 WATT CIR, DELTONA, FL, 32738",94503466,"R"
918888,"901 WATTERMAN","MINDEN","LA",71055,32.6029805520001,-93.2986655509999,388,"901 WATTERMAN, MINDEN, LA, 71055","Match","Non_Exact","901 WATTERMAN ST, MINDEN, LA, 71055",73394195,"R"
918889,"901 WEATHERLY HILLS BLVD","KNOXVILLE","TN",37934,35.890415181,-84.190333219,389,"901 WEATHERLY HILLS BLVD, KNOXVILLE, TN, 37934","Match","Exact","901 WEATHERLY HILLS BLVD, KNOXVILLE, TN, 37934",42639690,"L"
918890,"901 WEMPLE ROAD","BOSSIER CITY","LA",71111,32.600356601,-93.693958814,390,"901 WEMPLE ROAD, BOSSIER CITY, LA, 71111","Match","Exact","901 WEMPLE RD, BOSSIER CITY, LA, 71111",618239851,"L"
918891,"901 WEST CARMEN AVENUE","CHICAGO","IL",60640,41.974329696,-87.652681321,391,"901 WEST CARMEN AVENUE, CHICAGO, IL, 60640","Match","Exact","901 W CARMEN AVE, CHICAGO, IL, 60640",605155489,"L"
918892,"901 WEST CHESTNUT ST","SAVANNAH","MO",64485,39.9437873750001,-94.835171594,392,"901 WEST CHESTNUT ST, SAVANNAH, MO, 64485","Match","Exact","901 W CHESTNUT ST, SAVANNAH, MO, 64485",15922735,"R"
918893,"901 WEST COLUMBUS APT136","BAKERSFIELD","CA",93301,35.398142858,-119.01199055,393,"901 WEST COLUMBUS APT136, BAKERSFIELD, CA, 93301","Match","Non_Exact","901 W COLUMBUS ST, BAKERSFIELD, CA, 93301",109087704,"L"
918894,"901 WEST HURST BLVD UNIT 1112","HURST","TX",76053,32.8090668,-97.190268186,394,"901 WEST HURST BLVD UNIT 1112, HURST, TX, 76053","Match","Exact","901 W HURST BLVD, HURST, TX, 76053",102140608,"L"
918895,"901 WEST LINCOLN ST","QUITMAN","GA",31643,30.773750282,-83.569127953,395,"901 WEST LINCOLN ST, QUITMAN, GA, 31643","Match","Non_Exact","901 LINCOLN ST, QUITMAN, GA, 31643",83070783,"R"
918896,"901 WEST MAIN ST","NEWARK","OH",43055,40.0501768940001,-82.436081654,396,"901 WEST MAIN ST, NEWARK, OH, 43055","Match","Exact","901 W MAIN ST, NEWARK, OH, 43055",61505889,"L"
918897,"901 WEST MARTHA","CHAFFEE","MO",63740,37.1734126220001,-89.662317574,397,"901 WEST MARTHA, CHAFFEE, MO, 63740","Match","Non_Exact","901 W MARTHA DR, CHAFFEE, MO, 63740",38950122,"R"
918898,"901 WEST MURRILL","BAYTOWN","TX",77520,29.7374647500001,-94.9761112579999,398,"901 WEST MURRILL, BAYTOWN, TX, 77520","Match","Non_Exact","901 W MURRILL AVE, BAYTOWN, TX, 77520",96109386,"R"
918899,"901 WEST PINE HILL DR","SCHENECTADY","NY",12303,42.7283784520001,-73.9341732999999,399,"901 WEST PINE HILL DR, SCHENECTADY, NY, 12303","Match","Exact","901 W PINE HILL DR, SCHENECTADY, NY, 12303",18329395,"L"
918900,"901 WEST POINT PARKWAY","OPELIKA","AL",36801,32.66760234,-85.355458583,400,"901 WEST POINT PARKWAY, OPELIKA, AL, 36801","Match","Exact","901 W POINT PKWY, OPELIKA, AL, 36801",1571277,"R"
918901,"901 WEST TABOR ROAD","PHILADELPHIA","PA",19141,40.036585415,-75.137274626,401,"901 WEST TABOR ROAD, PHILADELPHIA, PA, 19141","Match","Exact","901 W TABOR RD, PHILADELPHIA, PA, 19141",131417345,"R"
918902,"901 WEST WOODLAWN AVENUE","NORTH AUGUSTA","SC",29841,33.5111147860001,-81.983616392,402,"901 WEST WOODLAWN AVENUE, NORTH AUGUSTA, SC, 29841","Match","Exact","901 W WOODLAWN AVE, NORTH AUGUSTA, SC, 29841",64983984,"R"
918903,"901 WESTERN AVE","PITTSBURGH","PA",15233,40.4519237000001,-80.01671113,403,"901 WESTERN AVE, PITTSBURGH, PA, 15233","Match","Exact","901 WESTERN AVE, PITTSBURGH, PA, 15233",51626211,"L"
918904,"901 WESTON DRIVE","RALEIGH","NC",27610,35.766203954,-78.592694479,404,"901 WESTON DRIVE, RALEIGH, NC, 27610","Match","Non_Exact","901 WESTON ST, RALEIGH, NC, 27610",72509824,"L"
918905,"901 WESTVIEW DRIVE","ALBANY","GA",31705,31.4760419560001,-84.142764802,405,"901 WESTVIEW DRIVE, ALBANY, GA, 31705","Match","Exact","901 WESTVIEW DR, ALBANY, GA, 31705",84323225,"R"
918906,"901 WESTVIEW DRIVE","DELL RAPIDS","SD",57022,43.829569867,-96.727172664,406,"901 WESTVIEW DRIVE, DELL RAPIDS, SD, 57022","Match","Exact","901 WESTVIEW DR, DELL RAPIDS, SD, 57022",34981114,"R"
918907,"901 WHETSTONE PLACE","ROCKLEDGE","FL",32955,28.30367275,-80.7235073909999,407,"901 WHETSTONE PLACE, ROCKLEDGE, FL, 32955","Match","Exact","901 WHETSTONE PL, ROCKLEDGE, FL, 32955",627201852,"L"
918908,"901 WHITE STREET - 3","KEY WEST","FL",33040,24.5570166150001,-81.791828303,408,"901 WHITE STREET - 3, KEY WEST, FL, 33040","Match","Exact","901 WHITE ST, KEY WEST, FL, 33040",116482892,"L"
918909,"901 WHITE STREET - UNIT 5","KEY WEST","FL",33040,24.5570166150001,-81.791828303,409,"901 WHITE STREET - UNIT 5, KEY WEST, FL, 33040","Match","Exact","901 WHITE ST, KEY WEST, FL, 33040",116482892,"L"
918910,"901 WHITNEY CT","PLANO","TX",75023,33.0491997330001,-96.7114188749999,410,"901 WHITNEY CT, PLANO, TX, 75023","Match","Exact","901 WHITNEY CT, PLANO, TX, 75023",123513326,"L"
918911,"901 WILLOW AVE APT 4","HOBOKEN","NJ",7030,40.7480244270001,-74.031480384,411,"901 WILLOW AVE APT 4, HOBOKEN, NJ, 7030","Match","Exact","901 WILLOW AVE, HOBOKEN, NJ, 07030",59606834,"R"
918912,"901 WILLOW COURT","SILOAM SPRINGS","AR",72761,36.1924174070001,-94.53941353,412,"901 WILLOW COURT, SILOAM SPRINGS, AR, 72761","Match","Exact","901 WILLOW CT, SILOAM SPRINGS, AR, 72761",47848472,"R"
918913,"901 WILLOW STREET","AUSTIN","TX",78702,30.2600358710001,-97.736073569,413,"901 WILLOW STREET, AUSTIN, TX, 78702","Match","Exact","901 WILLOW ST, AUSTIN, TX, 78702",63946620,"R"
918914,"901 WILSON CREEK BLVD","MCKINNEY","TX",75069,33.1912146490001,-96.636875941,414,"901 WILSON CREEK BLVD, MCKINNEY, TX, 75069","Match","Non_Exact","901 WILSON CREEK PKWY, MCKINNEY, TX, 75069",210482086,"L"
918915,"901 WILSON ROAD","HUMBLE","TX",77338,29.9868686040001,-95.25001738,415,"901 WILSON ROAD, HUMBLE, TX, 77338","Match","Exact","901 WILSON RD, HUMBLE, TX, 77338",641822581,"L"
918916,"901 WIND BROOK","PROSPER","TX",75708,NA,NA,416,"901 WIND BROOK, PROSPER, TX, 75708","No_Match",NA,NA,NA,NA
918917,"901 WINTERHAM WAY","SACRAMENTO","CA",95823,NA,NA,417,"901 WINTERHAM WAY, SACRAMENTO, CA, 95823","No_Match",NA,NA,NA,NA
918918,"901 WOOD CHAPEL LANE","DURHAM","NC",27703,35.9402521540001,-78.831306018,418,"901 WOOD CHAPEL LANE, DURHAM, NC, 27703","Match","Exact","901 WOOD CHAPEL LN, DURHAM, NC, 27703",634019371,"L"
918919,"901 WOODBROOK ROAD","BIRMINGHAM","AL",35215,33.63463849,-86.711207515,419,"901 WOODBROOK ROAD, BIRMINGHAM, AL, 35215","Match","Exact","901 WOODBROOK RD, BIRMINGHAM, AL, 35215",81700063,"R"
918920,"901 WOODBROOK STREET","ARLINGTON","TX",76011,32.7531170730001,-97.097010038,420,"901 WOODBROOK STREET, ARLINGTON, TX, 76011","Match","Exact","901 WOODBROOK ST, ARLINGTON, TX, 76011",101908403,"L"
918921,"901 WOODINGTON RD","BALTIMORE","MD",21229,39.2978021440001,-76.686187761,421,"901 WOODINGTON RD, BALTIMORE, MD, 21229","Match","Non_Exact","901 N WOODINGTON RD, BALTIMORE, MD, 21229",206413037,"R"
918922,"901 WOODLAND","RICEVILLE","IA",50466,43.3562491530001,-92.554201669,422,"901 WOODLAND, RICEVILLE, IA, 50466","Match","Non_Exact","901 WOODLAND AVE, RICEVILLE, IA, 50466",7471740,"L"
918923,"901 WOODLEIGH COVE","ST. LOUIS","MO",63122,38.5773476300001,-90.385345323,423,"901 WOODLEIGH COVE, ST. LOUIS, MO, 63122","Match","Non_Exact","901 WOODLEIGH CT, SAINT LOUIS, MO, 63122",100138504,"L"
918924,"901 WOODMONT COURT","BOWIE","MD",20721,38.902801621,-76.813075,424,"901 WOODMONT COURT, BOWIE, MD, 20721","Match","Exact","901 WOODMONT CT, BOWIE, MD, 20721",76408292,"R"
918925,"901 WYDEN DR","VIRGINIA BEACH","VA",23462,36.804444426,-76.1335509099999,425,"901 WYDEN DR, VIRGINIA BEACH, VA, 23462","Match","Exact","901 WYDEN DR, VA BCH, VA, 23462",122288240,"R"
918926,"901 XENIA AVE S APT 618","GOLDEN VALLEY","MN",55416,44.972547315,-93.351956246,426,"901 XENIA AVE S APT 618, GOLDEN VALLEY, MN, 55416","Match","Exact","901 XENIA AVE S, GOLDEN VALLEY, MN, 55416",43850657,"L"
918927,"901 YORK WARWICK DRIVE","YORKTOWN","VA",23692,37.1960390560001,-76.506033939,427,"901 YORK WARWICK DRIVE, YORKTOWN, VA, 23692","Match","Exact","901 YORK WARWICK DR, YORKTOWN, VA, 23692",103749900,"R"
918928,"901-A  CORAL ROAD","NASHVILLE","TN",37204,36.093621785,-86.787092563,428,"901-A  CORAL ROAD, NASHVILLE, TN, 37204","Match","Exact","901 CORAL RD, NASHVILLE, TN, 37204",97191487,"L"
918929,"901-B MOSES COURT","RALEIGH","NC",27604,35.793199327,-78.635171135,429,"901-B MOSES COURT, RALEIGH, NC, 27604","Match","Exact","901 MOSES CT, RALEIGH, NC, 27604",612816146,"L"
918930,"901-C CLINT MOORE ROAD","BOCA RATON","FL",33487,26.4082558380001,-80.102803904,430,"901-C CLINT MOORE ROAD, BOCA RATON, FL, 33487","Match","Exact","901 CLINT MOORE RD, BOCA RATON, FL, 33487",115335601,"L"
918931,"901","SAVANNAH","GA",31419,NA,NA,431,"901, SAVANNAH, GA, 31419","No_Match",NA,NA,NA,NA
918932,"9010 2ND AVE S","SEATTLE","WA",98108,47.522706687,-122.331739376,432,"9010 2ND AVE S, SEATTLE, WA, 98108","Match","Exact","9010 2ND AVE S, SEATTLE, WA, 98108",239780436,"L"
918933,"9010 ANTLER COURT","LOUISVILLE","KY",40242,38.276925938,-85.586907863,433,"9010 ANTLER COURT, LOUISVILLE, KY, 40242","Match","Exact","9010 ANTLER CT, LOUISVILLE, KY, 40242",96889552,"R"
918934,"9010 ASHWORTH AVE N","SEATTLE","WA",98103,47.6935560370001,-122.339161183,434,"9010 ASHWORTH AVE N, SEATTLE, WA, 98103","Match","Exact","9010 ASHWORTH AVE N, SEATTLE, WA, 98103",186579847,"R"
918935,"9010 CAMBRIDGE CIR","VALLEJO","CA",94591,NA,NA,435,"9010 CAMBRIDGE CIR, VALLEJO, CA, 94591","No_Match",NA,NA,NA,NA
918936,"9010 CRITCHFIELD ROAD","SHREVE","OH",44676,40.688327798,-82.043228741,436,"9010 CRITCHFIELD ROAD, SHREVE, OH, 44676","Match","Exact","9010 CRITCHFIELD RD, SHREVE, OH, 44676",58741989,"R"
918937,"9010 DAMASCUS HILL LANE","DAMASCUS","MD",20872,39.28190334,-77.185065537,437,"9010 DAMASCUS HILL LANE, DAMASCUS, MD, 20872","Match","Non_Exact","9010 DAMASCUS HILLS LN, DAMASCUS, MD, 20872",653267164,"L"
918938,"9010 DAMASCUS HILL LANE","DAMSCUS","MD",20872,NA,NA,438,"9010 DAMASCUS HILL LANE, DAMSCUS, MD, 20872","No_Match",NA,NA,NA,NA
918939,"9010 E PRIEST APT 1051","TEMPE","AZ",85284,NA,NA,439,"9010 E PRIEST APT 1051, TEMPE, AZ, 85284","No_Match",NA,NA,NA,NA
918940,"9010 EQUUS CR","BOYNTON BEACH","FL",33472,NA,NA,440,"9010 EQUUS CR, BOYNTON BEACH, FL, 33472","No_Match",NA,NA,NA,NA
918941,"9010 GAYLE AVE S","LAKEWOOD","WA",98499,47.1757105940001,-122.473247058,441,"9010 GAYLE AVE S, LAKEWOOD, WA, 98499","Match","Exact","9010 GAYLE AVE S, LAKEWOOD, WA, 98499",184623721,"R"
918942,"9010 GLENARDEN PARKWAY","GLENARDEN","MD",20706,38.9307728420001,-76.852504032,442,"9010 GLENARDEN PARKWAY, GLENARDEN, MD, 20706","Match","Exact","9010 GLENARDEN PKWY, GLENARDEN, MD, 20706",76310116,"L"
918943,"9010 HARMON BLUFF ROAD","SAVANNAH","GA",31406,31.991137101,-81.114990158,443,"9010 HARMON BLUFF ROAD, SAVANNAH, GA, 31406","Match","Exact","9010 HARMON BLUFF RD, SAVANNAH, GA, 31406",6201207,"L"
918944,"9010 HWY 190","OPELOUSAS","LA",70802,NA,NA,444,"9010 HWY 190, OPELOUSAS, LA, 70802","No_Match",NA,NA,NA,NA
918945,"9010 HWY 59","LAVONIA","GA",30553,NA,NA,445,"9010 HWY 59, LAVONIA, GA, 30553","No_Match",NA,NA,NA,NA
918946,"9010 KEMPTON AVENUE","CLEVELAND","OH",44108,41.530749825,-81.6252088379999,446,"9010 KEMPTON AVENUE, CLEVELAND, OH, 44108","Match","Exact","9010 KEMPTON AVE, CLEVELAND, OH, 44108",61112170,"R"
918947,"9010 LAKE WASHINGTON BLVD NE","BELLEVUE","WA",98004,47.61624077,-122.219466348,447,"9010 LAKE WASHINGTON BLVD NE, BELLEVUE, WA, 98004","Match","Exact","9010 LAKE WASHINGTON BLVD NE, BELLEVUE, WA, 98004",649690956,"L"
918948,"9010 LANTERN LITE PKWY","LOUISVILLE","KY",40220,38.205755627,-85.592157766,448,"9010 LANTERN LITE PKWY, LOUISVILLE, KY, 40220","Match","Exact","9010 LANTERN LITE PKWY, LOUISVILLE, KY, 40220",96864276,"R"
918949,"9010 LEVELLE DRIVE","CHEVY CHASE","MD",20815,39.005097456,-77.0649345049999,449,"9010 LEVELLE DRIVE, CHEVY CHASE, MD, 20815","Match","Exact","9010 LEVELLE DR, CHEVY CHASE, MD, 20815",62089357,"L"
918950,"9010 LONGFORD WAY","EL DORADO HILLS","CA",95762,38.668744609,-121.045991854,450,"9010 LONGFORD WAY, EL DORADO HILLS, CA, 95762","Match","Exact","9010 LONGFORD WAY, EL DORADO HILLS, CA, 95762",607154995,"R"
918951,"9010 MARKVILLE DR APT 124","DALLAS","TX",75243,32.914252757,-96.749114123,451,"9010 MARKVILLE DR APT 124, DALLAS, TX, 75243","Match","Exact","9010 MARKVILLE DR, DALLAS, TX, 75243",648835069,"R"
918952,"9010 N 9TH STREET APT 3","PHOENIX","AZ",85020,33.5680717060001,-112.061553225,452,"9010 N 9TH STREET APT 3, PHOENIX, AZ, 85020","Match","Non_Exact","9010 N 9TH ST, PHOENIX, AZ, 85020",128206762,"L"
918953,"9010 NEWFIELD STREET","CHARLOTTE","NC",28216,35.33855049,-80.862117341,453,"9010 NEWFIELD STREET, CHARLOTTE, NC, 28216","Match","Exact","9010 NEWFIELD ST, CHARLOTTE, NC, 28216",618149576,"L"
918954,"9010 NW 11 STREET","PEMBROKE PINES","FL",33024,26.01732551,-80.267060799,454,"9010 NW 11 STREET, PEMBROKE PINES, FL, 33024","Match","Non_Exact","9010 NW 11TH ST, PEMBROKE PINES, FL, 33024",114712359,"L"
918955,"9010 PARKLAND DRIVE","SAN ANTONIO","TX",78230,29.526935703,-98.5413689009999,455,"9010 PARKLAND DRIVE, SAN ANTONIO, TX, 78230","Match","Exact","9010 PARKLAND DR, SAN ANTONIO, TX, 78230",101569648,"L"
918956,"9010 PLANK ROAD","MAYBEE","MI",48159,42.00429467,-83.613683062,456,"9010 PLANK ROAD, MAYBEE, MI, 48159","Match","Exact","9010 PLANK RD, MAYBEE, MI, 48159",40495190,"R"
918957,"9010 ROSEWOOD AVE","CLEVELAND","OH",44105,41.4360638630001,-81.6226786999999,457,"9010 ROSEWOOD AVE, CLEVELAND, OH, 44105","Match","Exact","9010 ROSEWOOD AVE, CLEVELAND, OH, 44105",61119393,"R"
918958,"9010 S 150 E","SANDY","UT",84070,40.5876469250001,-111.886131219,458,"9010 S 150 E, SANDY, UT, 84070","Match","Exact","9010 S 150 E, SANDY, UT, 84070",176086312,"R"
918959,"9010 S 751 RD","STOCKTON","MO",65785,37.765597988,-93.935162562,459,"9010 S 751 RD, STOCKTON, MO, 65785","Match","Exact","9010 S 751 RD, STOCKTON, MO, 65785",44893050,"R"
918960,"9010 S EUCLID AVE","CHICAGO","IL",60617,41.731263305,-87.576795363,460,"9010 S EUCLID AVE, CHICAGO, IL, 60617","Match","Exact","9010 S EUCLID AVE, CHICAGO, IL, 60617",111776094,"R"
918961,"9010 S JUSTINE ST","CHICAGO","IL",60620,41.730049261,-87.6616866749999,461,"9010 S JUSTINE ST, CHICAGO, IL, 60620","Match","Exact","9010 S JUSTINE ST, CHICAGO, IL, 60620",111821537,"R"
918962,"9010 S PRIEST DR APT 2078","TEMPE","AZ",85284,33.3330462430001,-111.963096134,462,"9010 S PRIEST DR APT 2078, TEMPE, AZ, 85284","Match","Non_Exact","9010 S PRIEST DR, TEMPE, AZ, 85284",128784553,"L"
918963,"9010 S PRIEST DR APT 2151","TEMPE","AR",85284,NA,NA,463,"9010 S PRIEST DR APT 2151, TEMPE, AR, 85284","No_Match",NA,NA,NA,NA
918964,"9010 SNOWY EGRET COURT","SPOTSYLVANIA","VA",22553,38.261566085,-77.61394381,464,"9010 SNOWY EGRET COURT, SPOTSYLVANIA, VA, 22553","Match","Exact","9010 SNOWY EGRET CT, SPOTSYLVANIA, VA, 22553",228787802,"L"
918965,"9010 SORBONNE WAY","BUENA PARK","CA",90620,33.8310528750001,-118.015663257,465,"9010 SORBONNE WAY, BUENA PARK, CA, 90620","Match","Exact","9010 SORBONNE WAY, BUENA PARK, CA, 90620",144254301,"R"
918966,"9010 SOUTH 150 EAST","SANDY","UT",84070,40.5876485480001,-111.886131113,466,"9010 SOUTH 150 EAST, SANDY, UT, 84070","Match","Exact","9010 S 150 E, SANDY, UT, 84070",176086312,"R"
918967,"9010 TOBIAS AVENUE APT 133","PANORAMA CITY","CA",91402,34.2335216160001,-118.451636731,467,"9010 TOBIAS AVENUE APT 133, PANORAMA CITY, CA, 91402","Match","Exact","9010 TOBIAS AVE, PANORAMA CITY, CA, 91402",648859644,"R"
918968,"9010 TWIN LAKE DRIVE","KUNKLETOWN","PA",18058,NA,NA,468,"9010 TWIN LAKE DRIVE, KUNKLETOWN, PA, 18058","No_Match",NA,NA,NA,NA
918969,"9010 W 121ST STREET","PALOS PARK","IL",60464,41.6707530050001,-87.841297434,469,"9010 W 121ST STREET, PALOS PARK, IL, 60464","Match","Exact","9010 121ST ST, PALOS PARK, IL, 60464",111813676,"R"
918970,"9010 WEATHERLY WAY","LORTON","VA",22079,38.712241045,-77.259186848,470,"9010 WEATHERLY WAY, LORTON, VA, 22079","Match","Exact","9010 WEATHERLY WAY, LORTON, VA, 22079",76018259,"L"
918971,"9010 WEST OUTER DRIVE","DETROIT","MI",48219,42.4149915740001,-83.2319950419999,471,"9010 WEST OUTER DRIVE, DETROIT, MI, 48219","Match","Exact","9010 W OUTER DR, DETROIT, MI, 48219",95422273,"R"
918972,"9010 WEST PORTAGE","MILWAUKEE","WI",53224,43.1553617210001,-88.024245653,472,"9010 WEST PORTAGE, MILWAUKEE, WI, 53224","Match","Non_Exact","9010 W PORTAGE ST, MILWAUKEE, WI, 53224",77724683,"R"
918973,"90105 PINEVIEW DR","FOLEY","AL",36535,NA,NA,473,"90105 PINEVIEW DR, FOLEY, AL, 36535","No_Match",NA,NA,NA,NA
918974,"90105 POND MILL COURT","GLEN ALLEN","VA",23060,NA,NA,474,"90105 POND MILL COURT, GLEN ALLEN, VA, 23060","No_Match",NA,NA,NA,NA
918975,"9011 135TH DRIVE SE","SNOHOMISH","WA",98290,47.914395948,-122.048824489,475,"9011 135TH DRIVE SE, SNOHOMISH, WA, 98290","Match","Exact","9011 135TH DR SE, SNOHOMISH, WA, 98290",187777114,"R"
918976,"9011 158TH PL NE","REDMOND","WA",98052,47.6827164810001,-122.129461207,476,"9011 158TH PL NE, REDMOND, WA, 98052","Match","Exact","9011 158TH PL NE, REDMOND, WA, 98052",186933041,"L"
918977,"9011 160TH STREET APT 402B","JAMAICA","NY",11432,NA,NA,477,"9011 160TH STREET APT 402B, JAMAICA, NY, 11432","No_Match",NA,NA,NA,NA
918978,"9011 185TH PLACE SW","EDMONDS","WA",98026,47.8309571830001,-122.355335817,478,"9011 185TH PLACE SW, EDMONDS, WA, 98026","Match","Exact","9011 185TH PL SW, EDMONDS, WA, 98026",652989557,"L"
918979,"9011 AMBERHILL LOOP","NORTH CHESTERFIELD","VA",23236,NA,NA,479,"9011 AMBERHILL LOOP, NORTH CHESTERFIELD, VA, 23236","No_Match",NA,NA,NA,NA
918980,"9011 BEAR MOUNTAIN DR","HIGHLANDS RANCH","CO",80216,NA,NA,480,"9011 BEAR MOUNTAIN DR, HIGHLANDS RANCH, CO, 80216","No_Match",NA,NA,NA,NA
918981,"9011 BENTLEY GREEN","VERONA","WI",53593,43.0415163280001,-89.54210625,481,"9011 BENTLEY GREEN, VERONA, WI, 53593","Match","Exact","9011 BENTLEY GREEN, VERONA, WI, 53593",626296802,"L"
918982,"9011 BERCLAIR RD","HUNTSVILLE","AL",35802,34.6514117,-86.576509715,482,"9011 BERCLAIR RD, HUNTSVILLE, AL, 35802","Match","Non_Exact","9011 BERCLAIR RD SW, HUNTSVILLE, AL, 35802",58132782,"L"
918983,"9011 BREWER LANE","SALADO","TX",76571,30.9941815220001,-97.56186968,483,"9011 BREWER LANE, SALADO, TX, 76571","Match","Exact","9011 BREWER LN, SALADO, TX, 76571",648765440,"R"
918984,"9011 CATHERINE STREET","PICO RIVERA","CA",90660,33.9974241840001,-118.084313194,484,"9011 CATHERINE STREET, PICO RIVERA, CA, 90660","Match","Exact","9011 CATHERINE ST, PICO RIVERA, CA, 90660",142792179,"L"
918985,"9011 CHEVROLET DR STE 18","ELLICOTT CITY","MD",21042,39.27528484,-76.8229652269999,485,"9011 CHEVROLET DR STE 18, ELLICOTT CITY, MD, 21042","Match","Exact","9011 CHEVROLET DR, ELLICOTT CITY, MD, 21042",158923294,"L"
918986,"9011 CINDER LANE","HUNTERSVILLE","NC",28078,35.3808244300001,-80.913661088,486,"9011 CINDER LANE, HUNTERSVILLE, NC, 28078","Match","Exact","9011 CINDER LN, HUNTERSVILLE, NC, 28078",70560158,"R"
918987,"9011 DESERT AVE","ODESSA","TX",79765,NA,NA,487,"9011 DESERT AVE, ODESSA, TX, 79765","No_Match",NA,NA,NA,NA
918988,"9011 E SWAN RD","BROWN DEER","WI",53224,NA,NA,488,"9011 E SWAN RD, BROWN DEER, WI, 53224","No_Match",NA,NA,NA,NA
918989,"9011 GABLES LANE","ATLANTA","GA",30350,33.9590441770001,-84.35330492,489,"9011 GABLES LANE, ATLANTA, GA, 30350","Match","Exact","9011 GABLES LN, ATLANTA, GA, 30350",642712502,"R"
918990,"9011 GUILFORD ROAD","SEVILLE","OH",44273,41.0274798510001,-81.832488736,490,"9011 GUILFORD ROAD, SEVILLE, OH, 44273","Match","Exact","9011 GUILFORD RD, SEVILLE, OH, 44273",58677120,"L"
918991,"9011 IMAGE CIRCLE","FORT WORTH","TX",76116,32.726020492,-97.4749071859999,491,"9011 IMAGE CIRCLE, FORT WORTH, TX, 76116","Match","Exact","9011 IMAGE CIR, FORT WORTH, TX, 76116",101877258,"R"
918992,"9011 LLOYD LN","STOCKTON","CA",95212,38.0336905070001,-121.253151242,492,"9011 LLOYD LN, STOCKTON, CA, 95212","Match","Non_Exact","9011 N LLOYD LN, STOCKTON, CA, 95212",133846695,"L"
918993,"9011 LONE OAK DRIVE","VALLEY SPRINGS","CA",95252,38.127523307,-120.923614837,493,"9011 LONE OAK DRIVE, VALLEY SPRINGS, CA, 95252","Match","Exact","9011 LONE OAK DR, VALLEY SPRINGS, CA, 95252",102272133,"R"
918994,"9011 MIRA MESA BLVD NO 132","SAN DIEGO","CA",92126,32.9153134050001,-117.130952011,494,"9011 MIRA MESA BLVD NO 132, SAN DIEGO, CA, 92126","Match","Non_Exact","9011 MIRA MESA BLVD, SAN DIEGO, CA, 92126",195318965,"R"
918995,"9011 MONTGOMERY AVENUE","CHEVY CHASE","MD",20815,39.003841643,-77.072925281,495,"9011 MONTGOMERY AVENUE, CHEVY CHASE, MD, 20815","Match","Exact","9011 MONTGOMERY AVE, CHEVY CHASE, MD, 20815",62066420,"R"
918996,"9011 NE 89TH CIR","VANCOUVER","WA",98662,45.6866110720001,-122.579649237,496,"9011 NE 89TH CIR, VANCOUVER, WA, 98662","Match","Exact","9011 NE 89TH CIR, VANCOUVER, WA, 98662",158362643,"L"
918997,"9011 NEWBURGH DR","HOUSTON","TX",77095,29.9130645000001,-95.648319414,497,"9011 NEWBURGH DR, HOUSTON, TX, 77095","Match","Exact","9011 NEWBURGH DR, HOUSTON, TX, 77095",96291502,"L"
918998,"9011 NORWICK ROAD","RICHMOND","VA",23229,37.5750756950001,-77.594951032,498,"9011 NORWICK ROAD, RICHMOND, VA, 23229","Match","Exact","9011 NORWICK RD, RICHMOND, VA, 23229",106645665,"R"
918999,"9011 OAK STREET NE","ST PETERSBURG","FL",33702,27.8544533630001,-82.633701329,499,"9011 OAK STREET NE, ST PETERSBURG, FL, 33702","Match","Exact","9011 OAK ST NE, SAINT PETERSBURG, FL, 33702",124689626,"R"
919000,"9011 OLD HWY 46","LYLES","TN",37098,35.9320794710001,-87.313788076,500,"9011 OLD HWY 46, LYLES, TN, 37098","Match","Non_Exact","9011 OLD STATE HWY 46, LYLES, TN, 37098",639527086,"L"
