"ID","Address","City","State","Zip","lat","long","id","input_address","match_indicator","match_type","matched_address","tiger_line_id","tiger_side"
568001,"380 RENOIR LN","CHAPIN","SC",29036,34.1714475840001,-81.277513864,1,"380 RENOIR LN, CHAPIN, SC, 29036","Match","Exact","380 RENOIR LN, CHAPIN, SC, 29036",650188530,"L"
568002,"380 RIDGEWAY STREET","ST JOSEPH","MI",49085,42.11940087,-86.479959884,2,"380 RIDGEWAY STREET, ST JOSEPH, MI, 49085","Match","Exact","380 RIDGEWAY ST, SAINT JOSEPH, MI, 49085",119972140,"L"
568003,"380 RINGLAND RIDGE ROAD","AMITY","PA",15311,40.0217492,-80.213989456,3,"380 RINGLAND RIDGE ROAD, AMITY, PA, 15311","Match","Exact","380 RINGLAND RIDGE RD, AMITY, PA, 15311",52796904,"L"
568004,"380 RIVERSIDE DRIVE APT 1H","NEW YORK","NY",10025,40.8047308600001,-73.9679793879999,4,"380 RIVERSIDE DRIVE APT 1H, NEW YORK, NY, 10025","Match","Exact","380 RIVERSIDE DR, NEW YORK, NY, 10025",59656774,"R"
568005,"380 ROBBINS ROAD","CORNWALL","VT",5753,43.9735740620001,-73.198254928,5,"380 ROBBINS ROAD, CORNWALL, VT, 5753","Match","Exact","380 ROBBINS RD, CORNWALL, VT, 05753",210115103,"L"
568006,"380 ROSE GARDEN LANE","ALPHARETTA","GA",30009,34.077783202,-84.2971544929999,6,"380 ROSE GARDEN LANE, ALPHARETTA, GA, 30009","Match","Exact","380 ROSE GARDEN LN, ALPHARETTA, GA, 30009",642753259,"L"
568007,"380 ROSEDALE BLVD","EGGERTSVILLE","NY",14226,42.974334931,-78.811523273,7,"380 ROSEDALE BLVD, EGGERTSVILLE, NY, 14226","Match","Exact","380 ROSEDALE BLVD, EGGERTSVILLE, NY, 14226",48295509,"L"
568008,"380 S 22ND ST","TERRE HAUTE","IN",47803,39.463351862,-87.383577198,8,"380 S 22ND ST, TERRE HAUTE, IN, 47803","Match","Exact","380 S 22ND ST, TERRE HAUTE, IN, 47803",606512561,"L"
568009,"380 S 5TH STREET APT 311","COLUMBUS","OH",43215,NA,NA,9,"380 S 5TH STREET APT 311, COLUMBUS, OH, 43215","Tie",NA,NA,NA,NA
568010,"380 S ASPEN DR","AURORA","CO",80011,NA,NA,10,"380 S ASPEN DR, AURORA, CO, 80011","No_Match",NA,NA,NA,NA
568011,"380 S HECKLE BLVD   D","ROCK HILL","SC",29730,34.910671988,-81.040960921,11,"380 S HECKLE BLVD   D, ROCK HILL, SC, 29730","Match","Exact","380 HECKLE BLVD, ROCK HILL, SC, 29730",645788785,"R"
568012,"380 S HECKLE BLVD APT D","ROCK HILL","SC",29730,34.910671988,-81.040960921,12,"380 S HECKLE BLVD APT D, ROCK HILL, SC, 29730","Match","Exact","380 HECKLE BLVD, ROCK HILL, SC, 29730",645788785,"R"
568013,"380 S SEXTON RD","CALERA","OK",74730,NA,NA,13,"380 S SEXTON RD, CALERA, OK, 74730","Tie",NA,NA,NA,NA
568014,"380 S STEPHENS ROAD","CUSTER","MI",49405,43.947406169,-86.198615656,14,"380 S STEPHENS ROAD, CUSTER, MI, 49405","Match","Non_Exact","380 N STEPHENS RD, CUSTER, MI, 49405",148055164,"R"
568015,"380 SANDBURR DRIVE","GAHANNA","OH",43230,40.045395039,-82.889563505,15,"380 SANDBURR DRIVE, GAHANNA, OH, 43230","Match","Exact","380 SANDBURR DR, GAHANNA, OH, 43230",218694044,"L"
568016,"380 SARSEN DR","LITITZ","PA",17543,40.115661308,-76.330332066,16,"380 SARSEN DR, LITITZ, PA, 17543","Match","Exact","380 SARSEN DR, LITITZ, PA, 17543",179688935,"R"
568017,"380 SAW MILL RIVER ROAD","MILLWOOD","NV",10546,NA,NA,17,"380 SAW MILL RIVER ROAD, MILLWOOD, NV, 10546","No_Match",NA,NA,NA,NA
568018,"380 SCRIPPS","LAKE ORION","MI",48360,NA,NA,18,"380 SCRIPPS, LAKE ORION, MI, 48360","No_Match",NA,NA,NA,NA
568019,"380 SE DELAWARE AVENUE","ANKENY","IA",50021,41.7292654730001,-93.581126872,19,"380 SE DELAWARE AVENUE, ANKENY, IA, 50021","Match","Exact","380 SE DELAWARE AVE, ANKENY, IA, 50021",65834877,"R"
568020,"380 SECOND STREET","LEECHBURG","PA",15656,40.6307639570001,-79.6035795669999,20,"380 SECOND STREET, LEECHBURG, PA, 15656","Match","Exact","380 2ND ST, LEECHBURG, PA, 15656",617640236,"L"
568021,"380 SHELTON WOODS COURT","STONE MOUNTAIN","GA",30088,33.7875704160001,-84.183225694,21,"380 SHELTON WOODS COURT, STONE MOUNTAIN, GA, 30088","Match","Exact","380 SHELTON WOODS CT, STONE MOUNTAIN, GA, 30088",23372171,"L"
568022,"380 SKY PARK DRIVE","CORYDON","IN",47112,38.244719064,-86.119883288,22,"380 SKY PARK DRIVE, CORYDON, IN, 47112","Match","Non_Exact","380 SKY PARK DR NE, CORYDON, IN, 47112",619830859,"R"
568023,"380 SOUTH 4TH STREET SUITE 102","BOISE","ID",83702,43.6110116070001,-116.200903608,23,"380 SOUTH 4TH STREET SUITE 102, BOISE, ID, 83702","Match","Exact","380 S 4TH ST, BOISE, ID, 83702",117864820,"L"
568024,"380 SOUTH 800 EAST","PAYSON","UT",84660,40.10468832,-111.640720408,24,"380 SOUTH 800 EAST, PAYSON, UT, 84660","Match","Non_Exact","380 S 800 E, BENJAMIN, UT, 84660",134199178,"L"
568025,"380 SOUTH D STREET","HAMILTON","OH",45011,39.3999605440001,-84.573547568,25,"380 SOUTH D STREET, HAMILTON, OH, 45011","Match","Non_Exact","380 S D ST, HAMILTON, OH, 45013",113789093,"L"
568026,"380 SOUTH SEVEN OAKS DRIVE","KNOXVILLE","TN",37922,35.8983755450001,-84.098515564,26,"380 SOUTH SEVEN OAKS DRIVE, KNOXVILLE, TN, 37922","Match","Exact","380 S SEVEN OAKS DR, KNOXVILLE, TN, 37922",42648199,"L"
568027,"380 SOUTH WASHINGTON STREET","ELMHURST","IL",60126,41.8886716120001,-87.941390161,27,"380 SOUTH WASHINGTON STREET, ELMHURST, IL, 60126","Match","Non_Exact","380 WASHINGTON ST, ELMHURST, IL, 60126",112545183,"R"
568028,"380 SPRUCE ST","KINDRED","ND",58051,46.649625343,-97.016813197,28,"380 SPRUCE ST, KINDRED, ND, 58051","Match","Exact","380 SPRUCE ST, KINDRED, ND, 58051",151437797,"L"
568029,"380 STATE ROUTE 23","GREAT BARRINGTON","MA",1230,42.1859405770001,-73.317138278,29,"380 STATE ROUTE 23, GREAT BARRINGTON, MA, 1230","Match","Non_Exact","380 STATE RD, GREAT BARRINGTON, MA, 01230",648784970,"L"
568030,"380 STEAMBOAT BLVD","STEAMBOAT SPRINGS","CO",80487,40.4757230160001,-106.804134007,30,"380 STEAMBOAT BLVD, STEAMBOAT SPRINGS, CO, 80487","Match","Exact","380 STEAMBOAT BLVD, STEAMBOAT SPRINGS, CO, 80487",641117244,"L"
568031,"380 STEPHAN WAY","QUINCY","CA",95971,39.9322349990001,-120.945453545,31,"380 STEPHAN WAY, QUINCY, CA, 95971","Match","Exact","380 STEPHAN WAY, QUINCY, CA, 95971",127203616,"L"
568032,"380 STEWARTS CORNERS RD","PENNEVILLE","NY",13132,43.2745994380001,-76.245192348,32,"380 STEWARTS CORNERS RD, PENNEVILLE, NY, 13132","Match","Non_Exact","380 STEWARTS CORNERS RD, PENNELLVILLE, NY, 13132",57825936,"R"
568033,"380 STONEWALL RD","YORK","PA",17402,NA,NA,33,"380 STONEWALL RD, YORK, PA, 17402","No_Match",NA,NA,NA,NA
568034,"380 SUGARWOOD DR","KINGSPORT","TN",37663,36.4651387480001,-82.467419059,34,"380 SUGARWOOD DR, KINGSPORT, TN, 37663","Match","Exact","380 SUGARWOOD DR, KINGSPORT, TN, 37663",127832189,"R"
568035,"380 SUMMIT ROAD","EXETER","RI",2822,41.5573640260001,-71.702052447,35,"380 SUMMIT ROAD, EXETER, RI, 2822","Match","Exact","380 SUMMIT RD, EXETER, RI, 02822",636489123,"R"
568036,"380 SUNCHASE DR","HARLINGEN","TX",78552,NA,NA,36,"380 SUNCHASE DR, HARLINGEN, TX, 78552","No_Match",NA,NA,NA,NA
568037,"380 SUWANEE TRAIL STREET","BOWLING GREEN","KY",42101,NA,NA,37,"380 SUWANEE TRAIL STREET, BOWLING GREEN, KY, 42101","No_Match",NA,NA,NA,NA
568038,"380 SUWANNEE TRAIL STREET","BOWLING GREEN","KY",42103,NA,NA,38,"380 SUWANNEE TRAIL STREET, BOWLING GREEN, KY, 42103","No_Match",NA,NA,NA,NA
568039,"380 SW 81 TER","NORTH LAUDERDALE","FL",33068,26.2263388850001,-80.237375707,39,"380 SW 81 TER, NORTH LAUDERDALE, FL, 33068","Match","Exact","380 SW 81ST TER, N LAUDERDALE, FL, 33068",114691920,"L"
568040,"380 SW 8TH STREET","BELLE GLADE","FL",33430,26.6830547270001,-80.6759303439999,40,"380 SW 8TH STREET, BELLE GLADE, FL, 33430","Match","Exact","380 SW 8TH ST, BELLE GLADE, FL, 33430",115246714,"L"
568041,"380 TALBOT AVE - 202","BOSTON","MA",2124,42.290059366,-71.070157928,41,"380 TALBOT AVE - 202, BOSTON, MA, 2124","Match","Exact","380 TALBOT AVE, BOSTON, MA, 02124",85729476,"L"
568042,"380 TAYLOR AVE  APT 1","MOSCOW","ID",83843,46.722753266,-117.006523759,42,"380 TAYLOR AVE  APT 1, MOSCOW, ID, 83843","Match","Exact","380 TAYLOR AVE, MOSCOW, ID, 83843",193873893,"L"
568043,"380 TAYLOR AVE APT 1","MOSCOW","ID",83843,46.722753266,-117.006523759,43,"380 TAYLOR AVE APT 1, MOSCOW, ID, 83843","Match","Exact","380 TAYLOR AVE, MOSCOW, ID, 83843",193873893,"L"
568044,"380 TESORO GLEN APT 125","ESCONDIDO","CA",92025,33.089914037,-117.071184862,44,"380 TESORO GLEN APT 125, ESCONDIDO, CA, 92025","Match","Exact","380 TESORO GLEN, ESCONDIDO, CA, 92025",637383876,"L"
568045,"380 TOURNAMENT PLAYERS DR","MILTON","GA",30004,34.1256829280001,-84.350704417,45,"380 TOURNAMENT PLAYERS DR, MILTON, GA, 30004","Match","Exact","380 TOURNAMENT PLAYERS DR, MILTON, GA, 30004",17421548,"R"
568046,"380 TREMONT STREET","DIGHTON","MA",2764,41.8543161090001,-71.1229024089999,46,"380 TREMONT STREET, DIGHTON, MA, 2764","Match","Non_Exact","380 TREMONT ST, NORTH DIGHTON, MA, 02764",46756912,"L"
568047,"380 TURKEY HILL","ITHACA","CA",14850,NA,NA,47,"380 TURKEY HILL, ITHACA, CA, 14850","No_Match",NA,NA,NA,NA
568048,"380 TWIN OAKS ROAD","CLEMMONS","NC",27012,NA,NA,48,"380 TWIN OAKS ROAD, CLEMMONS, NC, 27012","No_Match",NA,NA,NA,NA
568049,"380 ULTIMO AVENUE","LONG BEACH","CA",90814,33.770952046,-118.124144585,49,"380 ULTIMO AVENUE, LONG BEACH, CA, 90814","Match","Exact","380 ULTIMO AVE, LONG BEACH, CA, 90814",141755005,"R"
568050,"380 VERNON STREET","OAKLAND","CA",94610,37.8159449930001,-122.254932154,50,"380 VERNON STREET, OAKLAND, CA, 94610","Match","Exact","380 VERNON ST, OAKLAND, CA, 94610",638567705,"R"
568051,"380 VIRGINIA AVENUE","FAYETTEVILLE","GA",30215,33.444486645,-84.43520884,51,"380 VIRGINIA AVENUE, FAYETTEVILLE, GA, 30215","Match","Non_Exact","380 VIRGINA PARK, FAYETTEVILLE, GA, 30215",642496034,"R"
568052,"380 VISTACOURT DRIVE APT 5130","PLANO","TX",75074,33.0011002580001,-96.670149054,52,"380 VISTACOURT DRIVE APT 5130, PLANO, TX, 75074","Match","Non_Exact","380 VISTA COURT DR, PLANO, TX, 75074",646827397,"R"
568053,"380 W 19TH ST","RIVIERA BEACH","FL",33404,26.7778437710001,-80.06247462,53,"380 W 19TH ST, RIVIERA BEACH, FL, 33404","Match","Exact","380 W 19TH ST, RIVIERA BEACH, FL, 33404",115276210,"R"
568054,"380 W 400 N","RICHFIELD","UT",84701,38.7736906530001,-112.091509598,54,"380 W 400 N, RICHFIELD, UT, 84701","Match","Exact","380 W 400 N, RICHFIELD, UT, 84701",175331856,"L"
568055,"380 W 6TH STREET","YAZOO CITY","MS",39194,32.858562744,-90.41451612,55,"380 W 6TH STREET, YAZOO CITY, MS, 39194","Match","Exact","380 W 6TH ST, YAZOO CITY, MS, 39194",152203840,"L"
568056,"380 W CROSIER ST","AKRON","OH",44311,41.0595032080001,-81.5412152279999,56,"380 W CROSIER ST, AKRON, OH, 44311","Match","Exact","380 W CROSIER ST, AKRON, OH, 44311",61344145,"L"
568057,"380 W MAIN STREET 1345","WYTHEVILLE","VA",24382,NA,NA,57,"380 W MAIN STREET 1345, WYTHEVILLE, VA, 24382","Tie",NA,NA,NA,NA
568058,"380 W SENECA RD","LUMBERTON","MS",39455,31.039472432,-89.442492704,58,"380 W SENECA RD, LUMBERTON, MS, 39455","Match","Exact","380 W SENECA RD, LUMBERTON, MS, 39455",503044,"R"
568059,"380 W WILSON ST C106","COSTA MESA","CA",92627,33.656227217,-117.915445673,59,"380 W WILSON ST C106, COSTA MESA, CA, 92627","Match","Non_Exact","380 W WILSON ST, COSTA MESA, CA, 92627",648726471,"R"
568060,"380 W WILSON STREET APT C106","COSTA MESA","CA",92627,33.656227217,-117.915445673,60,"380 W WILSON STREET APT C106, COSTA MESA, CA, 92627","Match","Non_Exact","380 W WILSON ST, COSTA MESA, CA, 92627",648726471,"R"
568061,"380 WALNUT ST W","SALLEY","SC",29137,33.5652955050001,-81.3088143969999,61,"380 WALNUT ST W, SALLEY, SC, 29137","Match","Non_Exact","380 WALNUT ST, SALLEY, SC, 29137",64983601,"L"
568062,"380 WATCHUNG AVE","N. PLAINFIELD","NJ",7060,40.6186287690001,-74.419114828,62,"380 WATCHUNG AVE, N. PLAINFIELD, NJ, 7060","Match","Exact","380 WATCHUNG AVE, N PLAINFIELD, NJ, 07060",60602304,"R"
568063,"380 WATCHUNG AVE","NORTH PLAINFIELD","NJ",7060,40.6186287690001,-74.419114828,63,"380 WATCHUNG AVE, NORTH PLAINFIELD, NJ, 7060","Match","Exact","380 WATCHUNG AVE, N PLAINFIELD, NJ, 07060",60602304,"R"
568064,"380 WELLINGTON DE","UNION GROVE","WI",53182,42.6942678020001,-88.0380041669999,64,"380 WELLINGTON DE, UNION GROVE, WI, 53182","Match","Non_Exact","380 WELLINGTON DR, UNION GROVE, WI, 53182",77927545,"L"
568065,"380 WEST 30TH STREET","RIVIERA BEACH","FL",33404,26.7866665,-80.0604722859999,65,"380 WEST 30TH STREET, RIVIERA BEACH, FL, 33404","Match","Exact","380 W 30TH ST, RIVIERA BEACH, FL, 33404",115580115,"R"
568066,"380 WEST BERWICK ST","EASTON","PA",18042,40.6789419410001,-75.214766818,66,"380 WEST BERWICK ST, EASTON, PA, 18042","Match","Exact","380 W BERWICK ST, EASTON, PA, 18042",636699060,"L"
568067,"380 WEST BRUCETON ROAD","PLEASANT HILLS","PA",15326,40.323373776,-79.9685958649999,67,"380 WEST BRUCETON ROAD, PLEASANT HILLS, PA, 15326","Match","Non_Exact","380 W BRUCETON RD, PLEASANT HLS, PA, 15236",51659087,"R"
568068,"380 WEST MAIN ST","TILTON","NH",3276,43.4422088420001,-71.597443482,68,"380 WEST MAIN ST, TILTON, NH, 3276","Match","Exact","380 W MAIN ST, TILTON, NH, 03276",145473143,"R"
568069,"380 WEST PORTAL AVE  STE F","SAN FRANCISCO","CA",94127,37.7371103950001,-122.470134963,69,"380 WEST PORTAL AVE  STE F, SAN FRANCISCO, CA, 94127","Match","Exact","380 W PORTAL AVE, SAN FRANCISCO, CA, 94127",192282675,"R"
568070,"380 WEST PORTAL AVE STE F","SAN FRANCISCO","CA",94127,37.7371103950001,-122.470134963,70,"380 WEST PORTAL AVE STE F, SAN FRANCISCO, CA, 94127","Match","Exact","380 W PORTAL AVE, SAN FRANCISCO, CA, 94127",192282675,"R"
568071,"380 WEST SHORE DRIVE","WYCKOFF","NJ",7481,40.998297076,-74.167970568,71,"380 WEST SHORE DRIVE, WYCKOFF, NJ, 7481","Match","Exact","380 W SHORE DR, WYCKOFF, NJ, 07481",64404234,"R"
568072,"380 WEST SHORE TRAIL","SPARTA","NJ",7871,41.0205333210001,-74.658549157,72,"380 WEST SHORE TRAIL, SPARTA, NJ, 7871","Match","Exact","380 W SHORE TRL, SPARTA, NJ, 07871",613192950,"R"
568073,"380 WHEELOCK PKWY E","ST PAUL","MN",55130,NA,NA,73,"380 WHEELOCK PKWY E, ST PAUL, MN, 55130","No_Match",NA,NA,NA,NA
568074,"380 WHISPERING WATERS","JASPER","GA",30143,34.4883814670001,-84.491470106,74,"380 WHISPERING WATERS, JASPER, GA, 30143","Match","Non_Exact","380 WHISPERING WATERS DR, JASPER, GA, 30143",627203627,"R"
568075,"380 WILLIAMS HOLLOW RD","MC EWEN","TN",37101,36.1495804050001,-87.768925768,75,"380 WILLIAMS HOLLOW RD, MC EWEN, TN, 37101","Match","Exact","380 WILLIAMS HOLLOW RD, MC EWEN, TN, 37101",639428534,"R"
568076,"380 WILSON DR","MAGNOLIA","MS",39652,31.1402386080001,-90.475938039,76,"380 WILSON DR, MAGNOLIA, MS, 39652","Match","Exact","380 WILSON DR, MAGNOLIA, MS, 39652",75859944,"L"
568077,"380 WINDING RIVER CIRCLE 104","MEMPHIS","TN",38120,35.1363404640001,-89.865110229,77,"380 WINDING RIVER CIRCLE 104, MEMPHIS, TN, 38120","Match","Exact","380 WINDING RIVER CIR, MEMPHIS, TN, 38120",619965440,"R"
568078,"380 WINDOM LANE","NICHOLASVILLE","KY",40356,37.952630695,-84.5630890469999,78,"380 WINDOM LANE, NICHOLASVILLE, KY, 40356","Match","Exact","380 WINDOM LN, NICHOLASVILLE, KY, 40356",638658324,"R"
568079,"380 WINEMILLER LN","LUMBERPORT","WV",26386,39.4020185470001,-80.394974388,79,"380 WINEMILLER LN, LUMBERPORT, WV, 26386","Match","Exact","380 WINEMILLER LN, LUMBERPORT, WV, 26386",53297038,"R"
568080,"380","EASTON","PA",18042,NA,NA,80,"380, EASTON, PA, 18042","No_Match",NA,NA,NA,NA
568081,"3800 178TH PLACE","COUNTRY CLUB HILLS","IL",60478,41.564834644,-87.7093109259999,81,"3800 178TH PLACE, COUNTRY CLUB HILLS, IL, 60478","Match","Exact","3800 178TH PL, COUNTRY CLUB HILLS, IL, 60478",111707496,"R"
568082,"3800 178THBPLACE","COUNTRY CLUB HILL","IL",60478,NA,NA,82,"3800 178THBPLACE, COUNTRY CLUB HILL, IL, 60478","No_Match",NA,NA,NA,NA
568083,"3800 27TH STREET","CHESAPEAKE BEACH","MD",20732,38.696118352,-76.5364892329999,83,"3800 27TH STREET, CHESAPEAKE BEACH, MD, 20732","Match","Exact","3800 27TH ST, CHESAPEAKE BEACH, MD, 20732",78159894,"R"
568084,"3800 46TH AVENUE SOUTH","ST. PETERSBURG","FL",33711,27.7264807450001,-82.683440134,84,"3800 46TH AVENUE SOUTH, ST. PETERSBURG, FL, 33711","Match","Exact","3800 46TH AVE S, SAINT PETERSBURG, FL, 33711",124709952,"L"
568085,"3800 4TH STREET","DES MOINES","IA",50313,41.6296686060001,-93.622302256,85,"3800 4TH STREET, DES MOINES, IA, 50313","Match","Exact","3800 4TH ST, DES MOINES, IA, 50313",65855211,"L"
568086,"3800 5TH AVE N","ST PETERSBURG","FL",33713,27.777279096,-82.685562593,86,"3800 5TH AVE N, ST PETERSBURG, FL, 33713","Match","Exact","3800 5TH AVE N, SAINT PETERSBURG, FL, 33713",124704763,"L"
568087,"3800 A SOUTH CARAWAY RD SUITE 11","JONESBORO","AR",72404,35.798005819,-90.678450638,87,"3800 A SOUTH CARAWAY RD SUITE 11, JONESBORO, AR, 72404","Match","Exact","3800 S CARAWAY RD, JONESBORO, AR, 72404",46925203,"R"
568088,"3800 ALAZAN CIRCLE","AUSTIN","TX",78734,30.3992351270001,-97.93051911,88,"3800 ALAZAN CIRCLE, AUSTIN, TX, 78734","Match","Exact","3800 ALAZAN CIR, AUSTIN, TX, 78734",64025950,"L"
568089,"3800 ALPINE AVE","COMSTOCK PARK","MI",49321,43.0332028720001,-85.689568132,89,"3800 ALPINE AVE, COMSTOCK PARK, MI, 49321","Match","Non_Exact","3800 ALPINE AVE NW, COMSTOCK PARK, MI, 49321",615653384,"L"
568090,"3800 AMERICAN BLVD W SUITE 1500","BLOOMINGTON","MN",55431,44.8558120170001,-93.326951674,90,"3800 AMERICAN BLVD W SUITE 1500, BLOOMINGTON, MN, 55431","Match","Exact","3800 AMERICAN BLVD W, BLOOMINGTON, MN, 55431",640673187,"R"
568091,"3800 AMERICAN BLVD WEST SUITE 1500","EDINA","MN",55431,44.8558120170001,-93.326951674,91,"3800 AMERICAN BLVD WEST SUITE 1500, EDINA, MN, 55431","Match","Non_Exact","3800 AMERICAN BLVD W, MINNEAPOLIS, MN, 55431",640673187,"R"
568092,"3800 ARGONNE STREET","MEMPHIS","TN",38127,35.2293843730001,-90.000839632,92,"3800 ARGONNE STREET, MEMPHIS, TN, 38127","Match","Exact","3800 ARGONNE ST, MEMPHIS, TN, 38127",72897890,"R"
568093,"3800 ARROYO SECO","SCHERTZ","TX",78154,29.5878332390001,-98.265265722,93,"3800 ARROYO SECO, SCHERTZ, TX, 78154","Match","Exact","3800 ARROYO SECO, SCHERTZ, TX, 78154",54838881,"L"
568094,"3800 ASHLEY LANE","FORT WORTH","TX",76123,32.6264287060001,-97.37517737,94,"3800 ASHLEY LANE, FORT WORTH, TX, 76123","Match","Exact","3800 ASHLEY LN, FORT WORTH, TX, 76123",101929108,"R"
568095,"3800 BLACK BUTTE","DENTON","TX",76210,33.1522786580001,-97.093462164,95,"3800 BLACK BUTTE, DENTON, TX, 76210","Match","Non_Exact","3800 BLACK BUTTE DR, DENTON, TX, 76210",635001040,"L"
568096,"3800 BOOTH CALLOWAY ROAD 106","RICHLAND HILLS","TX",76118,32.8214561790001,-97.212215994,96,"3800 BOOTH CALLOWAY ROAD 106, RICHLAND HILLS, TX, 76118","Match","Exact","3800 BOOTH CALLOWAY RD, RICHLAND HILLS, TX, 76118",101918874,"R"
568097,"3800 BRIDGEPORT WAY WEST STE A504","UNIVERSITY PLACE","WA",98466,47.2233695190001,-122.537087068,97,"3800 BRIDGEPORT WAY WEST STE A504, UNIVERSITY PLACE, WA, 98466","Match","Exact","3800 BRIDGEPORT WAY W, UNIVERSITY PLACE, WA, 98466",184701660,"R"
568098,"3800 BRIDGEPORT WAY WEST","UNIVERSITY PLACE","WA",98466,47.2233695190001,-122.537087068,98,"3800 BRIDGEPORT WAY WEST, UNIVERSITY PLACE, WA, 98466","Match","Exact","3800 BRIDGEPORT WAY W, UNIVERSITY PLACE, WA, 98466",184701660,"R"
568099,"3800 BRIDGEWAY LAKES DRIVE","WEST SACRAMENTO","CA",95691,38.5288381410001,-121.581049375,99,"3800 BRIDGEWAY LAKES DRIVE, WEST SACRAMENTO, CA, 95691","Match","Exact","3800 BRIDGEWAY LAKES DR, WEST SACRAMENTO, CA, 95691",633879247,"R"
568100,"3800 BROADLANDS LANE","BROOMFIELD","CO",80023,39.946261861,-105.036981504,100,"3800 BROADLANDS LANE, BROOMFIELD, CO, 80023","Match","Exact","3800 BROADLANDS LN, BROOMFIELD, CO, 80023",177418302,"L"
568101,"3800 BROMLEY","FORT COLLINS","CO",80525,40.5342268320001,-105.02497676,101,"3800 BROMLEY, FORT COLLINS, CO, 80525","Match","Non_Exact","3800 BROMLEY DR, FORT COLLINS, CO, 80525",636176459,"L"
568102,"3800 BROOKDALE CIRCLE","LEXINGTON","KY",40514,37.973432728,-84.550576527,102,"3800 BROOKDALE CIRCLE, LEXINGTON, KY, 40514","Match","Exact","3800 BROOKDALE CIR, LEXINGTON, KY, 40514",31938298,"R"
568103,"3800 BROWNSTONE COVE","ROUND ROCK","TX",78681,30.558485143,-97.745106762,103,"3800 BROWNSTONE COVE, ROUND ROCK, TX, 78681","Match","Exact","3800 BROWNSTONE COVE, ROUND ROCK, TX, 78681",126476510,"R"
568104,"3800 BRYANT AVENUE SOUTH","MINNEAPOLIS","MN",55409,44.9339312610001,-93.290786795,104,"3800 BRYANT AVENUE SOUTH, MINNEAPOLIS, MN, 55409","Match","Exact","3800 BRYANT AVE S, MINNEAPOLIS, MN, 55409",43628767,"R"
568105,"3800 BUCHTEL BLVD APT102885","DENVER","CO",80250,39.6804084450001,-104.943919865,105,"3800 BUCHTEL BLVD APT102885, DENVER, CO, 80250","Match","Non_Exact","3800 BUCHTEL BLVD, DENVER, CO, 80210",612875799,"R"
568106,"3800 BYRD RD","AUGUSTA","GA",30906,33.3594195380001,-82.033194559,106,"3800 BYRD RD, AUGUSTA, GA, 30906","Match","Exact","3800 BYRD RD, AUGUSTA, GA, 30906",55657433,"L"
568107,"3800 BYRD ROAD","AUGUSTA","GA",30906,33.3594195380001,-82.033194559,107,"3800 BYRD ROAD, AUGUSTA, GA, 30906","Match","Exact","3800 BYRD RD, AUGUSTA, GA, 30906",55657433,"L"
568108,"3800 CAMP CREEK PKWY","ATLANTA","GA",30331,NA,NA,108,"3800 CAMP CREEK PKWY, ATLANTA, GA, 30331","No_Match",NA,NA,NA,NA
568109,"3800 CAMP CRK PKY SW 1400-1600 1072","ATLANTA","GA",30331,33.675463156,-84.512586794,109,"3800 CAMP CRK PKY SW 1400-1600 1072, ATLANTA, GA, 30331","Match","Non_Exact","3800 N CAMP CREEK PKWY SW, ATLANTA, GA, 30331",17361539,"L"
568110,"3800 CARLTON DR","AMARILLO","TX",79109,35.1724481900001,-101.908125401,110,"3800 CARLTON DR, AMARILLO, TX, 79109","Match","Exact","3800 CARLTON DR, AMARILLO, TX, 79109",182652842,"R"
568111,"3800 CARRIAGE HILL DRIVE","FREDERICK","MD",21704,39.3362154690001,-77.335641208,111,"3800 CARRIAGE HILL DRIVE, FREDERICK, MD, 21704","Match","Exact","3800 CARRIAGE HILL DR, FREDERICK, MD, 21704",633864452,"L"
568112,"3800 CARRICK BEND DRIVE","KISSIMMEE","FL",34746,28.1802655870001,-81.4170501999999,112,"3800 CARRICK BEND DRIVE, KISSIMMEE, FL, 34746","Match","Exact","3800 CARRICK BEND DR, KISSIMMEE, FL, 34746",650164459,"R"
568113,"3800 CASCADIA AVENUE S","SEATTLE","WA",98118,47.5696126780001,-122.282862128,113,"3800 CASCADIA AVENUE S, SEATTLE, WA, 98118","Match","Exact","3800 CASCADIA AVE S, SEATTLE, WA, 98118",186666444,"L"
568114,"3800 CATHEDRAL AV","WASHINGTON","VA",20016,NA,NA,114,"3800 CATHEDRAL AV, WASHINGTON, VA, 20016","No_Match",NA,NA,NA,NA
568115,"3800 CLOVER LANE","NEW ORLEANS","LA",70058,29.8438843260001,-90.06917412,115,"3800 CLOVER LANE, NEW ORLEANS, LA, 70058","Match","Non_Exact","3800 CLOVER LN, HARVEY, LA, 70058",93520559,"L"
568116,"3800 CLOVER WAY","RENO","NV",89509,39.4892175420001,-119.810221166,116,"3800 CLOVER WAY, RENO, NV, 89509","Match","Exact","3800 CLOVER WAY, RENO, NV, 89509",107103039,"L"
568117,"3800 COGBILL ROAD","N CHESTERFIELD","VA",23234,37.4445689790001,-77.466093552,117,"3800 COGBILL ROAD, N CHESTERFIELD, VA, 23234","Match","Exact","3800 COGBILL RD, NORTH CHESTERFIELD, VA, 23234",201546814,"R"
568118,"3800 COMMERCE ST 213","DALLAS","TX",75226,32.784513114,-96.771897327,118,"3800 COMMERCE ST 213, DALLAS, TX, 75226","Match","Exact","3800 COMMERCE ST, DALLAS, TX, 75226",102912298,"R"
568119,"3800 COMMERCE ST STE 314","DALLAS","TX",75226,32.784513114,-96.771897327,119,"3800 COMMERCE ST STE 314, DALLAS, TX, 75226","Match","Exact","3800 COMMERCE ST, DALLAS, TX, 75226",102912298,"R"
568120,"3800 CORDELL AVENUE","WOODBRIDGE","VA",22193,NA,NA,120,"3800 CORDELL AVENUE, WOODBRIDGE, VA, 22193","No_Match",NA,NA,NA,NA
568121,"3800 COUNTRY CLUB DRIVE UNIT 6","LOS ANGELES","CA",90019,34.0513648040001,-118.320675872,121,"3800 COUNTRY CLUB DRIVE UNIT 6, LOS ANGELES, CA, 90019","Match","Exact","3800 COUNTRY CLUB DR, LOS ANGELES, CA, 90019",141603683,"L"
568122,"3800 COUNTY RD 94 23104","MANVEL","TX",77578,29.5327183860001,-95.383650163,122,"3800 COUNTY RD 94 23104, MANVEL, TX, 77578","Match","Exact","3800 CO RD 94, MANVEL, TX, 77578",644218984,"L"
568123,"3800 COUNTY RD 94 APT 18208","MANVEL","TX",77578,29.5327183860001,-95.383650163,123,"3800 COUNTY RD 94 APT 18208, MANVEL, TX, 77578","Match","Exact","3800 CO RD 94, MANVEL, TX, 77578",644218984,"L"
568124,"3800 COUNTY ROAD 69","MOUNTAIN HOME","AR",72653,36.2471641180001,-92.314361458,124,"3800 COUNTY ROAD 69, MOUNTAIN HOME, AR, 72653","Match","Exact","3800 CO RD 69, MOUNTAIN HOME, AR, 72653",617164860,"R"
568125,"3800 COUNTY ROAD 94/2302","MANVEL","TX",77578,NA,NA,125,"3800 COUNTY ROAD 94/2302, MANVEL, TX, 77578","No_Match",NA,NA,NA,NA
568126,"3800 CR APT 21206","MANVEL","TX",77578,NA,NA,126,"3800 CR APT 21206, MANVEL, TX, 77578","No_Match",NA,NA,NA,NA
568127,"3800 CR-94 1206","MANVEL","TX",77578,29.5327183860001,-95.383650163,127,"3800 CR-94 1206, MANVEL, TX, 77578","Match","Exact","3800 CO RD 94, MANVEL, TX, 77578",644218984,"L"
568128,"3800 DALECREST UNIT 1023","LAS VEGAS","NV",89129,36.2289962940001,-115.24915311,128,"3800 DALECREST UNIT 1023, LAS VEGAS, NV, 89129","Match","Non_Exact","3800 DALECREST DR, LAS VEGAS, NV, 89129",201916211,"R"
568129,"3800 DENMEADE DRIVE","CHARLOTTE","NC",28269,35.339024561,-80.78412023,129,"3800 DENMEADE DRIVE, CHARLOTTE, NC, 28269","Match","Exact","3800 DENMEADE DR, CHARLOTTE, NC, 28269",70520564,"L"
568130,"3800 DESIRE PARKWAY","NEW ORLEANS","LA",70126,29.9976036030001,-90.032537989,130,"3800 DESIRE PARKWAY, NEW ORLEANS, LA, 70126","Match","Exact","3800 DESIRE PKWY, NEW ORLEANS, LA, 70126",191750664,"L"
568131,"3800 DEVONSHIRE DR","SALISBURY","MD",21804,38.29675186,-75.584890343,131,"3800 DEVONSHIRE DR, SALISBURY, MD, 21804","Match","Exact","3800 DEVONSHIRE DR, SALISBURY, MD, 21804",114472314,"L"
568132,"3800 DON FELIPE DRIVE","LOS ANGELES","CA",90008,34.007417972,-118.341373305,132,"3800 DON FELIPE DRIVE, LOS ANGELES, CA, 90008","Match","Exact","3800 DON FELIPE DR, LOS ANGELES, CA, 90008",141602431,"L"
568133,"3800 DULANEY DR","HARVEY","LA",70058,29.848537085,-90.070799304,133,"3800 DULANEY DR, HARVEY, LA, 70058","Match","Non_Exact","3800 DULANEY LN, HARVEY, LA, 70058",93510136,"R"
568134,"3800 E EDISON AVE","FORT MYERS","FL",33916,26.633991618,-81.835905603,134,"3800 E EDISON AVE, FORT MYERS, FL, 33916","Match","Exact","3800 EDISON AVE, FORT MYERS, FL, 33916",118102642,"R"
568135,"3800 E KINGSGATE DR","NAMPA","ID",83687,43.573243195,-116.523324463,135,"3800 E KINGSGATE DR, NAMPA, ID, 83687","Match","Non_Exact","3800 E KINGS GATE DR, NAMPA, ID, 83687",639991069,"R"
568136,"3800 E LOHMAN AVE","LAS CRUCES","NM",88011,32.318538119,-106.735811656,136,"3800 E LOHMAN AVE, LAS CRUCES, NM, 88011","Match","Exact","3800 E LOHMAN AVE, LAS CRUCES, NM, 88011",612750207,"R"
568137,"3800 E MAIN ST STE A202","ST CHARLES","IL",60174,41.9213348800001,-88.274644306,137,"3800 E MAIN ST STE A202, ST CHARLES, IL, 60174","Match","Non_Exact","3800 E MAIN ST, SAINT CHARLES, IL, 60174",119508231,"L"
568138,"3800 EAST OAKWOOD ROAD","OAK CREEK","WI",53154,42.8569350920001,-87.858782431,138,"3800 EAST OAKWOOD ROAD, OAK CREEK, WI, 53154","Match","Exact","3800 E OAKWOOD RD, OAK CREEK, WI, 53154",612346011,"L"
568139,"3800 EAST RIVER ROAD","GRAND ISLAND","NY",14072,43.0423938380001,-78.902983197,139,"3800 EAST RIVER ROAD, GRAND ISLAND, NY, 14072","Match","Exact","3800 E RIVER RD, GRAND ISLAND, NY, 14072",642136049,"L"
568140,"3800 EMBASSY DR","WEST PALM BEACH","FL",33401,26.7484014410001,-80.0878420459999,140,"3800 EMBASSY DR, WEST PALM BEACH, FL, 33401","Match","Exact","3800 EMBASSY DR, WEST PALM BEACH, FL, 33401",115348247,"R"
568141,"3800 EMBASSY PARKWAY STE 300","AKRON","OH",44333,41.139367721,-81.651550643,141,"3800 EMBASSY PARKWAY STE 300, AKRON, OH, 44333","Match","Exact","3800 EMBASSY PKWY, AKRON, OH, 44333",649977213,"L"
568142,"3800 EMBASSY PARKWAY SUITE 300","AKRON","OH",44333,41.139367721,-81.651550643,142,"3800 EMBASSY PARKWAY SUITE 300, AKRON, OH, 44333","Match","Exact","3800 EMBASSY PKWY, AKRON, OH, 44333",649977213,"L"
568143,"3800 ENFIELD CHASE CT","BOWIE","MD",20716,38.941320605,-76.738409851,143,"3800 ENFIELD CHASE CT, BOWIE, MD, 20716","Match","Exact","3800 ENFIELD CHASE CT, BOWIE, MD, 20716",76363672,"L"
568144,"3800 ESSEX CENTER RD","ST JOHN","MN",48879,NA,NA,144,"3800 ESSEX CENTER RD, ST JOHN, MN, 48879","No_Match",NA,NA,NA,NA
568145,"3800 FAIRFAX DRIVE UNIT 709","ARLINGTON","VA",22203,38.882638378,-77.1049298409999,145,"3800 FAIRFAX DRIVE UNIT 709, ARLINGTON, VA, 22203","Match","Exact","3800 FAIRFAX DR, ARLINGTON, VA, 22203",638186008,"R"
568146,"3800 FARM FIELD DRIVE","CHESTER","VA",23831,37.382570333,-77.448169792,146,"3800 FARM FIELD DRIVE, CHESTER, VA, 23831","Match","Exact","3800 FARM FIELD DR, CHESTER, VA, 23831",201540669,"L"
568147,"3800 FIVE NOTCH ROAD","MARSHALL","TX",75672,32.510584862,-94.346799641,147,"3800 FIVE NOTCH ROAD, MARSHALL, TX, 75672","Match","Exact","3800 FIVE NOTCH RD, MARSHALL, TX, 75672",141180161,"R"
568148,"3800 FLAT SHOALS PKWY UNIT 7K","DECATUR","GA",30034,33.697088278,-84.264425837,148,"3800 FLAT SHOALS PKWY UNIT 7K, DECATUR, GA, 30034","Match","Exact","3800 FLAT SHOALS PKWY, DECATUR, GA, 30034",23403715,"L"
568149,"3800 FLYING GULCH DR APT 2","HOLT","MI",48842,42.644375473,-84.50051912,149,"3800 FLYING GULCH DR APT 2, HOLT, MI, 48842","Match","Exact","3800 FLYING GULCH DR, HOLT, MI, 48842",651217012,"R"
568150,"3800 FOX RUN ROAD","CORBIN","KY",40701,36.9357255620001,-84.158787734,150,"3800 FOX RUN ROAD, CORBIN, KY, 40701","Match","Exact","3800 FOX RUN RD, CORBIN, KY, 40701",150158485,"R"
568151,"3800 FULTON AVE","KETTERING","OH",45439,39.6989779030001,-84.208946198,151,"3800 FULTON AVE, KETTERING, OH, 45439","Match","Exact","3800 FULTON AVE, KETTERING, OH, 45439",143611542,"L"
568152,"3800 GALA LOOP","BELLINGHAM","WA",98226,48.7792388510001,-122.405541962,152,"3800 GALA LOOP, BELLINGHAM, WA, 98226","Match","Exact","3800 GALA LOOP, BELLINGHAM, WA, 98226",183773371,"R"
568153,"3800 GARRIGUS ROAD","LOUISVILLE","MS",39339,33.067555343,-88.9842874839999,153,"3800 GARRIGUS ROAD, LOUISVILLE, MS, 39339","Match","Non_Exact","3800 GARRIGUES RD, LOUISVILLE, MS, 39339",649628287,"L"
568154,"3800 GATESVILLE AVENUE","MODESTO","CA",95357,37.646035397,-120.924116971,154,"3800 GATESVILLE AVENUE, MODESTO, CA, 95357","Match","Exact","3800 GATESVILLE AVE, MODESTO, CA, 95357",102612216,"R"
568155,"3800 GOLD CITY RD","FRANKLIN","KY",42134,36.7402552390001,-86.482006642,155,"3800 GOLD CITY RD, FRANKLIN, KY, 42134","Match","Exact","3800 GOLD CITY RD, FRANKLIN, KY, 42134",29602183,"R"
568156,"3800 GRAND LANE APT 107","TITUSVILLE,","FL",32780,28.5691837540001,-80.817388647,156,"3800 GRAND LANE APT 107, TITUSVILLE,, FL, 32780","Match","Exact","3800 GRAND LN, TITUSVILLE, FL, 32780",650864932,"L"
568157,"3800 GRANDLAKE BLVD APT A305","KENNER","LA",70065,30.0324326640001,-90.277294029,157,"3800 GRANDLAKE BLVD APT A305, KENNER, LA, 70065","Match","Exact","3800 GRANDLAKE BLVD, KENNER, LA, 70065",93536796,"R"
568158,"3800 HIGH GREEN PT","MARIETTA","GA",30068,NA,NA,158,"3800 HIGH GREEN PT, MARIETTA, GA, 30068","Tie",NA,NA,NA,NA
568159,"3800 HILLCREST DRIVE","HOLLYWOOD","FL",33021,26.000167543,-80.187399989,159,"3800 HILLCREST DRIVE, HOLLYWOOD, FL, 33021","Match","Exact","3800 HILLCREST DR, HOLLYWOOD, FL, 33021",650098170,"L"
568160,"3800 HILLSBOROUGH STREET","RALEIGH","NC",27607,35.7943919470001,-78.688975856,160,"3800 HILLSBOROUGH STREET, RALEIGH, NC, 27607","Match","Exact","3800 HILLSBOROUGH ST, RALEIGH, NC, 27607",72623120,"R"
568161,"3800 HILLSBOROUGH STREET","RALEIGH","ND",27607,NA,NA,161,"3800 HILLSBOROUGH STREET, RALEIGH, ND, 27607","No_Match",NA,NA,NA,NA
568162,"3800 HILLSBOROUGH","RALEIGH","NC",27607,35.7943919470001,-78.688975856,162,"3800 HILLSBOROUGH, RALEIGH, NC, 27607","Match","Non_Exact","3800 HILLSBOROUGH ST, RALEIGH, NC, 27607",72623120,"R"
568163,"3800 HOUSTON VALLEY ROAD","GREENEVILLE","TN",37743,35.9885718630001,-82.858035684,163,"3800 HOUSTON VALLEY ROAD, GREENEVILLE, TN, 37743","Match","Exact","3800 HOUSTON VALLEY RD, GREENEVILLE, TN, 37743",639352232,"L"
568164,"3800 HOWARD HUGHES PKWY STE 1200","LAS VEGAS","NV",89169,36.119266026,-115.157265243,164,"3800 HOWARD HUGHES PKWY STE 1200, LAS VEGAS, NV, 89169","Match","Exact","3800 HOWARD HUGHES PKWY, LAS VEGAS, NV, 89169",201888247,"L"
568165,"3800 HOWARD HUGHES PKWY STE 1200","LAS VEGS","NV",89169,36.119266026,-115.157265243,165,"3800 HOWARD HUGHES PKWY STE 1200, LAS VEGS, NV, 89169","Match","Non_Exact","3800 HOWARD HUGHES PKWY, LAS VEGAS, NV, 89169",201888247,"L"
568166,"3800 HUCKABY BRIDGE RD","FALKVILLE","AL",35622,34.3895071590001,-86.95158673,166,"3800 HUCKABY BRIDGE RD, FALKVILLE, AL, 35622","Match","Exact","3800 HUCKABY BRIDGE RD, FALKVILLE, AL, 35622",97142635,"R"
568167,"3800 HWY 225","PASADENA","TX",77503,NA,NA,167,"3800 HWY 225, PASADENA, TX, 77503","No_Match",NA,NA,NA,NA
568168,"3800 INDEPENDENCE AVENUE 2L","BRONX","NY",10469,40.889063267,-73.912996144,168,"3800 INDEPENDENCE AVENUE 2L, BRONX, NY, 10469","Match","Non_Exact","3800 INDEPENDENCE AVE, BRONX, NY, 10463",80295940,"R"
568169,"3800 INVERARRY BLVD SUITE 400R","LAUDERHILL","FL",33319,26.171462256,-80.2369090569999,169,"3800 INVERARRY BLVD SUITE 400R, LAUDERHILL, FL, 33319","Match","Non_Exact","3800 INVERRARY BLVD, LAUDERHILL, FL, 33319",645589730,"R"
568170,"3800 INVERARRY BLVD","LAUDERHILL","FL",33319,26.171462256,-80.2369090569999,170,"3800 INVERARRY BLVD, LAUDERHILL, FL, 33319","Match","Non_Exact","3800 INVERRARY BLVD, LAUDERHILL, FL, 33319",645589730,"R"
568171,"3800 INVERRARY BLVD 201","LAUDERHILL","FL",33319,26.171462256,-80.2369090569999,171,"3800 INVERRARY BLVD 201, LAUDERHILL, FL, 33319","Match","Exact","3800 INVERRARY BLVD, LAUDERHILL, FL, 33319",645589730,"R"
568172,"3800 INVERRARY BLVD 400R","FT LAUDERDALE","FL",33319,26.171462256,-80.2369090569999,172,"3800 INVERRARY BLVD 400R, FT LAUDERDALE, FL, 33319","Match","Exact","3800 INVERRARY BLVD, FORT LAUDERDALE, FL, 33319",645589730,"R"
568173,"3800 INVERRARY BLVD","FT LAUDERDALE","FL",33319,26.171462256,-80.2369090569999,173,"3800 INVERRARY BLVD, FT LAUDERDALE, FL, 33319","Match","Exact","3800 INVERRARY BLVD, FORT LAUDERDALE, FL, 33319",645589730,"R"
568174,"3800 IOLA CT","VIRGINIA BEACH","VA",23456,36.772416009,-76.113253124,174,"3800 IOLA CT, VIRGINIA BEACH, VA, 23456","Match","Exact","3800 IOLA CT, VA BCH, VA, 23456",122268217,"R"
568175,"3800 IVY COURT","LAND O LAKES","FL",34639,NA,NA,175,"3800 IVY COURT, LAND O LAKES, FL, 34639","No_Match",NA,NA,NA,NA
568176,"3800 JAMILIA COURT","PLANO","TX",75093,33.0485389680001,-96.771320908,176,"3800 JAMILIA COURT, PLANO, TX, 75093","Match","Exact","3800 JAMILIA CT, PLANO, TX, 75093",123484010,"R"
568177,"3800 KARCHNER ROAD","SHERIDAN","CA",95681,39.001322934,-121.340094113,177,"3800 KARCHNER ROAD, SHERIDAN, CA, 95681","Match","Exact","3800 KARCHNER RD, SHERIDAN, CA, 95681",638563940,"L"
568178,"3800 KARRINGTON PL","MONROE","NC",28110,35.0380791580001,-80.5900523139999,178,"3800 KARRINGTON PL, MONROE, NC, 28110","Match","Exact","3800 KARRINGTON PL, MONROE, NC, 28110",14190417,"L"
568179,"3800 KAWAEAH STREET","WEST SACRAMENTO","CA",95691,38.5279754420001,-121.569893067,179,"3800 KAWAEAH STREET, WEST SACRAMENTO, CA, 95691","Match","Non_Exact","3800 KAWEAH ST, WEST SACRAMENTO, CA, 95691",606340307,"L"
568180,"3800 KENMORE","BERKLEY","MI",48072,42.5065635070001,-83.185140095,180,"3800 KENMORE, BERKLEY, MI, 48072","Match","Non_Exact","3800 KENMORE RD, BERKLEY, MI, 48072",69737810,"R"
568181,"3800 LA CRESCENTA AVE SUITE 205","LA CRESCENTA","CA",92675,NA,NA,181,"3800 LA CRESCENTA AVE SUITE 205, LA CRESCENTA, CA, 92675","No_Match",NA,NA,NA,NA
568182,"3800 LAKE ELSIE DRIVE","TAVARES","FL",32778,NA,NA,182,"3800 LAKE ELSIE DRIVE, TAVARES, FL, 32778","No_Match",NA,NA,NA,NA
568183,"3800 LAKEVIEW DRIVE","CARSON CITY","NV",89703,39.1975592840001,-119.808623398,183,"3800 LAKEVIEW DRIVE, CARSON CITY, NV, 89703","Match","Non_Exact","3800 LAKEVIEW RD, CARSON CITY, NV, 89703",199524407,"L"
568184,"3800 LAKEWOOD LP","NORTH POLE","AK",99705,64.7713128330001,-147.252073515,184,"3800 LAKEWOOD LP, NORTH POLE, AK, 99705","Match","Exact","3800 LAKEWOOD LOOP, NORTH POLE, AK, 99705",190913882,"R"
568185,"3800 LAURENT LIBS CT","FLOYDS KNOBS","IN",47119,38.3305743290001,-85.868205697,185,"3800 LAURENT LIBS CT, FLOYDS KNOBS, IN, 47119","Match","Exact","3800 LAURENT LIBS CT, FLOYDS KNOBS, IN, 47119",646005751,"R"
568186,"3800 LILAC AVENUE","KNOXVILLE","TN",37914,35.995830433,-83.870940268,186,"3800 LILAC AVENUE, KNOXVILLE, TN, 37914","Match","Exact","3800 LILAC AVE, KNOXVILLE, TN, 37914",42622024,"R"
568187,"3800 LUMO ROAD","RANDALLSTOWN","MD",21133,39.373969307,-76.7897975769999,187,"3800 LUMO ROAD, RANDALLSTOWN, MD, 21133","Match","Exact","3800 LUMO RD, RANDALLSTOWN, MD, 21133",191466216,"L"
568188,"3800 MARKET STREET","CAMP HILL","PA",17011,40.23881813,-76.946874405,188,"3800 MARKET STREET, CAMP HILL, PA, 17011","Match","Exact","3800 MARKET ST, CAMP HILL, PA, 17011",60943789,"R"
568189,"3800 MASSILLON ROAD","UNIONTOWN","OH",44685,40.9581098140001,-81.465482266,189,"3800 MASSILLON ROAD, UNIONTOWN, OH, 44685","Match","Exact","3800 MASSILLON RD, UNIONTOWN, OH, 44685",650289220,"R"
568190,"3800 MATTIE RD","SANTA YNEZ","CA",93460,34.647725467,-120.073104383,190,"3800 MATTIE RD, SANTA YNEZ, CA, 93460","Match","Non_Exact","3800 MATTEI RD, SANTA YNEZ, CA, 93460",108625256,"R"
568191,"3800 MAYBELLE AVE APT 11","OAKLAND","CA",94619,37.790320588,-122.193151978,191,"3800 MAYBELLE AVE APT 11, OAKLAND, CA, 94619","Match","Exact","3800 MAYBELLE AVE, OAKLAND, CA, 94619",624464075,"R"
568192,"3800 MCGINNIS DRIVE","JUNEAU","AK",99801,58.3891053830001,-134.576292892,192,"3800 MCGINNIS DRIVE, JUNEAU, AK, 99801","Match","Exact","3800 MCGINNIS DR, JUNEAU, AK, 99801",190971131,"R"
568193,"3800 MEADOW GREEN COURT","NORCROSS","GA",30092,33.9568920310001,-84.2581859639999,193,"3800 MEADOW GREEN COURT, NORCROSS, GA, 30092","Match","Exact","3800 MEADOW GREEN CT, NORCROSS, GA, 30092",88915745,"L"
568194,"3800 MEDFORD RD","FORT WORTH","TX",76103,32.7469603650001,-97.2673265619999,194,"3800 MEDFORD RD, FORT WORTH, TX, 76103","Match","Exact","3800 MEDFORD RD, FORT WORTH, TX, 76103",101919871,"R"
568195,"3800 MILLBRAE DRIVE","HUNTSVILLE","AL",35810,34.797635789,-86.613524221,195,"3800 MILLBRAE DRIVE, HUNTSVILLE, AL, 35810","Match","Exact","3800 MILLBRAE DR, HUNTSVILLE, AL, 35810",58115259,"L"
568196,"3800 MONROE AVENUE APT 16","PITTSFORD","NY",14534,43.09430917,-77.524158588,196,"3800 MONROE AVENUE APT 16, PITTSFORD, NY, 14534","Match","Exact","3800 MONROE AVE, PITTSFORD, NY, 14534",648586551,"L"
568197,"3800 MONTROSE BLVD","HOUSTON","TX",77006,29.738704451,-95.3911790179999,197,"3800 MONTROSE BLVD, HOUSTON, TX, 77006","Match","Exact","3800 MONTROSE BLVD, HOUSTON, TX, 77006",96064645,"R"
568198,"3800 MONTROSE BOULEVARD","HOUSTON","TX",77006,29.738704451,-95.3911790179999,198,"3800 MONTROSE BOULEVARD, HOUSTON, TX, 77006","Match","Exact","3800 MONTROSE BLVD, HOUSTON, TX, 77006",96064645,"R"
568199,"3800 MOUNTAIN BLVD","OAKLAND","CA",94619,37.7992900520001,-122.185222608,199,"3800 MOUNTAIN BLVD, OAKLAND, CA, 94619","Match","Exact","3800 MOUNTAIN BLVD, OAKLAND, CA, 94619",635914049,"R"
568200,"3800 N CLASSEN BLVD","OKLAHOMA CITY","OK",73118,35.5090596430001,-97.5342211399999,200,"3800 N CLASSEN BLVD, OKLAHOMA CITY, OK, 73118","Match","Exact","3800 N CLASSEN BLVD, OKLAHOMA CITY, OK, 73118",100399848,"R"
568201,"3800 N DICKERSON ST","ARLINGTON","VA",22207,38.9182165940001,-77.140414789,201,"3800 N DICKERSON ST, ARLINGTON, VA, 22207","Match","Exact","3800 DICKERSON ST, ARLINGTON, VA, 22207",76037835,"L"
568202,"3800 N HWY 107","GLENVILLE","NC",28736,35.1546926010001,-83.122455724,202,"3800 N HWY 107, GLENVILLE, NC, 28736","Match","Exact","3800 HWY 107, GLENVILLE, NC, 28736",636577417,"R"
568203,"3800 N LAKE SHORE DRIVE 2J","CHICAGO","IL",60613,NA,NA,203,"3800 N LAKE SHORE DRIVE 2J, CHICAGO, IL, 60613","No_Match",NA,NA,NA,NA
568204,"3800 N LAMESA RD","MDILAND","TX",79705,32.0371193550001,-102.077016264,204,"3800 N LAMESA RD, MDILAND, TX, 79705","Match","Non_Exact","3800 N LAMESA RD, MIDLAND, TX, 79705",637961070,"R"
568205,"3800 N LAMESA RD","MIDLAND","TX",79705,32.0371193550001,-102.077016264,205,"3800 N LAMESA RD, MIDLAND, TX, 79705","Match","Exact","3800 N LAMESA RD, MIDLAND, TX, 79705",637961070,"R"
568206,"3800 N MESA STE A-2 BOX 510","EL PASO","TX",79902,NA,NA,206,"3800 N MESA STE A-2 BOX 510, EL PASO, TX, 79902","No_Match",NA,NA,NA,NA
568207,"3800 N NEW ENGLAND","CHICAGO","IL",60634,41.9492103110001,-87.798567342,207,"3800 N NEW ENGLAND, CHICAGO, IL, 60634","Match","Non_Exact","3800 N NEW ENGLAND AVE, CHICAGO, IL, 60634",111750380,"L"
568208,"3800 N PONTIAC AVE","CHICAGO","IL",60634,41.9485748380001,-87.835357394,208,"3800 N PONTIAC AVE, CHICAGO, IL, 60634","Match","Exact","3800 N PONTIAC AVE, CHICAGO, IL, 60634",111746383,"L"
568209,"3800 NEW HAMPSHIRE AVE NW 501","WASHINGTON","DC",20011,38.93767016,-77.023381909,209,"3800 NEW HAMPSHIRE AVE NW 501, WASHINGTON, DC, 20011","Match","Non_Exact","3800 NEW HAMPSHIRE AVE NW, WASHINGTON, DC, 20011",76223649,"L"
568210,"3800 NICHOLASVILLE ROAD","LEXINGTON","KY",40503,37.984030111,-84.526883271,210,"3800 NICHOLASVILLE ROAD, LEXINGTON, KY, 40503","Match","Exact","3800 NICHOLASVILLE RD, LEXINGTON, KY, 40503",609543346,"R"
568211,"3800 NORTH 76TH STREET UNIT 3","MILWAUKEE","WI",53222,43.0863927780001,-88.007266839,211,"3800 NORTH 76TH STREET UNIT 3, MILWAUKEE, WI, 53222","Match","Exact","3800 N 76TH ST, MILWAUKEE, WI, 53222",653038182,"R"
568212,"3800 NORTH ULM FRONTAGE RD","GREAT FALLS","MT",59401,NA,NA,212,"3800 NORTH ULM FRONTAGE RD, GREAT FALLS, MT, 59401","No_Match",NA,NA,NA,NA
568213,"3800 NORTHEAST SHADY LANE","GLADSTONE","MO",64119,39.206400552,-94.534961443,213,"3800 NORTHEAST SHADY LANE, GLADSTONE, MO, 64119","Match","Non_Exact","3800 NE SHADY LANE DR, GLADSTONE, MO, 64119",89758159,"L"
568214,"3800 NW 183 STREET APT/ 211","MIAMI GARDENS","FL",33055,25.9402647060001,-80.2628630519999,214,"3800 NW 183 STREET APT/ 211, MIAMI GARDENS, FL, 33055","Match","Non_Exact","3800 NW 183RD ST, MIAMI GARDENS, FL, 33055",116026963,"L"
568215,"3800 NW 64TH STREET","OKLAHOMA CITY","OK",73116,35.5381425950001,-97.585996747,215,"3800 NW 64TH STREET, OKLAHOMA CITY, OK, 73116","Match","Exact","3800 NW 64TH ST, OKLAHOMA CITY, OK, 73116",100393158,"L"
568216,"3800 OAK RIDGE RD","SUMMERFIELD","NC",27358,36.2072940140001,-79.9152721149999,216,"3800 OAK RIDGE RD, SUMMERFIELD, NC, 27358","Match","Exact","3800 OAK RIDGE RD, SUMMERFIELD, NC, 27358",615240218,"L"
568217,"3800 OAKBURN CT","LOUISVILLE","KY",40258,38.142318032,-85.829009336,217,"3800 OAKBURN CT, LOUISVILLE, KY, 40258","Match","Exact","3800 OAKBURN CT, LOUISVILLE, KY, 40258",96920382,"R"
568218,"3800 OAKS CLUBHOUSE DRIVE 407","POMPANO BEACH","FL",33069,NA,NA,218,"3800 OAKS CLUBHOUSE DRIVE 407, POMPANO BEACH, FL, 33069","No_Match",NA,NA,NA,NA
568219,"3800 PACKARD SUITE 260","ANN ARBOR","MI",48108,42.2453735990001,-83.686161355,219,"3800 PACKARD SUITE 260, ANN ARBOR, MI, 48108","Match","Non_Exact","3800 PACKARD ST, ANN ARBOR, MI, 48108",26032969,"R"
568220,"3800 PARADISE ROAD","MEDINA","OH",44256,41.078054051,-81.824829307,220,"3800 PARADISE ROAD, MEDINA, OH, 44256","Match","Exact","3800 PARADISE RD, MEDINA, OH, 44256",58688170,"R"
568221,"3800 PARKERS MILL ROAD","LEXINGTON","KY",40513,38.025917642,-84.595749623,221,"3800 PARKERS MILL ROAD, LEXINGTON, KY, 40513","Match","Exact","3800 PARKERS MILL RD, LEXINGTON, KY, 40513",653248700,"R"
568222,"3800 PARKVIEW LANE APT 32D","IRVINE","CA",92612,33.6687182790001,-117.827658472,222,"3800 PARKVIEW LANE APT 32D, IRVINE, CA, 92612","Match","Exact","3800 PARKVIEW LN, IRVINE, CA, 92612",144058484,"R"
568223,"3800 PASADENA AVE","FLORENCE","AL",35630,34.8598779380001,-87.696803066,223,"3800 PASADENA AVE, FLORENCE, AL, 35630","Match","Non_Exact","3800 PASADENA AVE, FLORENCE, AL, 35633",41333278,"R"
568224,"3800 PEBBLE CREEK COURT APT 216","PLANO","TX",75023,NA,NA,224,"3800 PEBBLE CREEK COURT APT 216, PLANO, TX, 75023","No_Match",NA,NA,NA,NA
568225,"3800 PEBBLE CREEK COURT APT 713","PLANO","TX",75023,NA,NA,225,"3800 PEBBLE CREEK COURT APT 713, PLANO, TX, 75023","No_Match",NA,NA,NA,NA
568226,"3800 PERRIN CENTRAL BLVD APT1015","SAN ANTONIO","TX",78217,29.5372488190001,-98.41781674,226,"3800 PERRIN CENTRAL BLVD APT1015, SAN ANTONIO, TX, 78217","Match","Exact","3800 PERRIN CENTRAL BLVD, SAN ANTONIO, TX, 78217",638590810,"R"
568227,"3800 PERRIN CENTRAL","SAN ANTONIO","FL",78217,NA,NA,227,"3800 PERRIN CENTRAL, SAN ANTONIO, FL, 78217","No_Match",NA,NA,NA,NA
568228,"3800 PICKFAIR STREET","MONTGOMERY","AL",36116,32.305614501,-86.2545909419999,228,"3800 PICKFAIR STREET, MONTGOMERY, AL, 36116","Match","Exact","3800 PICKFAIR ST, MONTGOMERY, AL, 36116",1477343,"R"
568229,"3800 PIEDMONT AVE","OAKLAND","CA",94611,37.823941817,-122.255623996,229,"3800 PIEDMONT AVE, OAKLAND, CA, 94611","Match","Non_Exact","3800 PIEDMONT, OAKLAND, CA, 94611",605993347,"R"
568230,"3800 PIKE ROAD 12-103","LONGMONT","CO",80503,40.1372767340001,-105.150773678,230,"3800 PIKE ROAD 12-103, LONGMONT, CO, 80503","Match","Exact","3800 PIKE RD, LONGMONT, CO, 80503",188222848,"L"
568231,"3800 PIKE ROAD","LONGMONT","CO",80503,40.1372767340001,-105.150773678,231,"3800 PIKE ROAD, LONGMONT, CO, 80503","Match","Exact","3800 PIKE RD, LONGMONT, CO, 80503",188222848,"L"
568232,"3800 PILOT DRIVE","PLANO","TX",75025,33.0900032640001,-96.766737775,232,"3800 PILOT DRIVE, PLANO, TX, 75025","Match","Exact","3800 PILOT DR, PLANO, TX, 75025",123537959,"R"
568233,"3800 PLEASANT VALLEY RD","WEST BEND","WI",53095,43.353257134,-88.227348755,233,"3800 PLEASANT VALLEY RD, WEST BEND, WI, 53095","Match","Exact","3800 PLEASANT VALLEY RD, WEST BEND, WI, 53095",605346420,"L"
568234,"3800 PLEASANT VALLEY RD","WEST BEND","WI",53295,43.353257134,-88.227348755,234,"3800 PLEASANT VALLEY RD, WEST BEND, WI, 53295","Match","Non_Exact","3800 PLEASANT VALLEY RD, WEST BEND, WI, 53095",605346420,"L"
568235,"3800 PLUM CREEK DR","ST CLOUD","MN",56301,45.5110422670001,-94.169914927,235,"3800 PLUM CREEK DR, ST CLOUD, MN, 56301","Match","Exact","3800 PLUM CREEK DR, SAINT CLOUD, MN, 56301",107449199,"R"
568236,"3800 PORTSMOUTH ST","DURHAM","NC",27704,36.0513072850001,-78.9135896399999,236,"3800 PORTSMOUTH ST, DURHAM, NC, 27704","Match","Exact","3800 PORTSMOUTH ST, DURHAM, NC, 27704",71735701,"R"
568237,"3800 POWELL LANE 320","FALLS CHURCH","VA",22041,38.8421229800001,-77.141583552,237,"3800 POWELL LANE 320, FALLS CHURCH, VA, 22041","Match","Exact","3800 POWELL LN, FALLS CHURCH, VA, 22041",650126957,"R"
568238,"3800 POWELL LANE","FALLS CHURCH","VA",22041,38.8421229800001,-77.141583552,238,"3800 POWELL LANE, FALLS CHURCH, VA, 22041","Match","Exact","3800 POWELL LN, FALLS CHURCH, VA, 22041",650126957,"R"
568239,"3800 POWELL LN APT 1228","FALLS CHURCH","VA",22041,38.8421229800001,-77.141583552,239,"3800 POWELL LN APT 1228, FALLS CHURCH, VA, 22041","Match","Exact","3800 POWELL LN, FALLS CHURCH, VA, 22041",650126957,"R"
568240,"3800 POWELL LN STE 822","FALLS CHURCH","VA",22041,38.8421229800001,-77.141583552,240,"3800 POWELL LN STE 822, FALLS CHURCH, VA, 22041","Match","Exact","3800 POWELL LN, FALLS CHURCH, VA, 22041",650126957,"R"
568241,"3800 RIDGEMONT DR","RUSTON","LA",71270,32.5705564680001,-92.6569021129999,241,"3800 RIDGEMONT DR, RUSTON, LA, 71270","Match","Non_Exact","3800 RIDGEMONT ST, RUSTON, LA, 71270",164098609,"R"
568242,"3800 RIVER MILL DR","N DINWIDDIE","VA",23803,37.2220832790001,-77.484172445,242,"3800 RIVER MILL DR, N DINWIDDIE, VA, 23803","Match","Exact","3800 RIVER MILL DR, NORTH DINWIDDIE, VA, 23803",54159876,"R"
568243,"3800 RIVERCREST PL","CHESAPEAKE","VA",23325,NA,NA,243,"3800 RIVERCREST PL, CHESAPEAKE, VA, 23325","No_Match",NA,NA,NA,NA
568244,"3800 RIVERLAKES DRIVE","BAKERSFIELD","CA",93312,35.394203298,-119.093068051,244,"3800 RIVERLAKES DRIVE, BAKERSFIELD, CA, 93312","Match","Exact","3800 RIVERLAKES DR, BAKERSFIELD, CA, 93312",645289675,"R"
568245,"3800 ROTTINO DR","MCKINNEY","TX",75070,33.166065083,-96.7246526769999,245,"3800 ROTTINO DR, MCKINNEY, TX, 75070","Match","Exact","3800 ROTTINO DR, MCKINNEY, TX, 75070",619913274,"R"
568246,"3800 S 48TH STREET","LINCOLN","NE",68506,40.773919307,-96.654042824,246,"3800 S 48TH STREET, LINCOLN, NE, 68506","Match","Exact","3800 S 48TH ST, LINCOLN, NE, 68506",28260666,"L"
568247,"3800 S BRONSON AVE","LOS ANGELES","CA",90008,34.017087614,-118.333934031,247,"3800 S BRONSON AVE, LOS ANGELES, CA, 90008","Match","Exact","3800 S BRONSON AVE, LOS ANGELES, CA, 90008",652033776,"L"
568248,"3800 S CALUMET AVE","CHICAGO","IL",60653,41.8255212990001,-87.618251901,248,"3800 S CALUMET AVE, CHICAGO, IL, 60653","Match","Exact","3800 S CALUMET AVE, CHICAGO, IL, 60653",605538387,"R"
568249,"3800 S CRENSHAW BLVD","LOS ANGELES","CA",90008,34.0171256130001,-118.3348751,249,"3800 S CRENSHAW BLVD, LOS ANGELES, CA, 90008","Match","Exact","3800 CRENSHAW BLVD, LOS ANGELES, CA, 90008",652033773,"L"
568250,"3800 S HONORE STREET","CHICAGO","IL",60609,41.824846554,-87.671463637,250,"3800 S HONORE STREET, CHICAGO, IL, 60609","Match","Exact","3800 S HONORE ST, CHICAGO, IL, 60609",604981074,"R"
568251,"3800 S WABASH","CHICAGO","IL",60653,41.8254423160001,-87.624847199,251,"3800 S WABASH, CHICAGO, IL, 60653","Match","Non_Exact","3800 S WABASH AVE, CHICAGO, IL, 60653",605538632,"R"
568252,"3800 SALMON LN","HARRISON","AR",72601,NA,NA,252,"3800 SALMON LN, HARRISON, AR, 72601","No_Match",NA,NA,NA,NA
568253,"3800 SCANDIA WAY","LOS ANGELES","CA",90065,34.117512898,-118.229466344,253,"3800 SCANDIA WAY, LOS ANGELES, CA, 90065","Match","Exact","3800 SCANDIA WAY, LOS ANGELES, CA, 90065",141612095,"R"
568254,"3800 SCENIC DRIVE","MOBILE","AL",36605,30.593522041,-88.110105808,254,"3800 SCENIC DRIVE, MOBILE, AL, 36605","Match","Exact","3800 SCENIC DR, MOBILE, AL, 36605",61965179,"R"
568255,"3800 SDORT HWY","FLINT","MI",48507,NA,NA,255,"3800 SDORT HWY, FLINT, MI, 48507","No_Match",NA,NA,NA,NA
568256,"3800 SE VALLEY FORGE","BLUE SPRINGS","MO",64014,38.981819172,-94.2629286869999,256,"3800 SE VALLEY FORGE, BLUE SPRINGS, MO, 64014","Match","Non_Exact","3800 SE VALLEY FORGE DR, BLUE SPRINGS, MO, 64014",91475734,"L"
568257,"3800 SENECA","DETROIT","MI",48214,42.3697147680001,-83.0017795059999,257,"3800 SENECA, DETROIT, MI, 48214","Match","Non_Exact","3800 SENECA ST, DETROIT, MI, 48214",95483586,"R"
568258,"3800 SMOOTH ROCK CT","CHARLOTTE","NC",28210,35.1301947260001,-80.8518814999999,258,"3800 SMOOTH ROCK CT, CHARLOTTE, NC, 28210","Match","Exact","3800 SMOOTH ROCK CT, CHARLOTTE, NC, 28210",70487382,"R"
568259,"3800 SONATA DR","UNION","KY",41091,38.9504209780001,-84.6679576,259,"3800 SONATA DR, UNION, KY, 41091","Match","Exact","3800 SONATA DR, UNION, KY, 41091",627655650,"R"
568260,"3800 SOUTH FAIRVIEW ST","SANTA ANA","CA",92704,NA,NA,260,"3800 SOUTH FAIRVIEW ST, SANTA ANA, CA, 92704","No_Match",NA,NA,NA,NA
568261,"3800 SOUTH LECANTO HWY","INVERNESS","FL",34461,28.8116555290001,-82.4876883699999,261,"3800 SOUTH LECANTO HWY, INVERNESS, FL, 34461","Match","Non_Exact","3800 S LECANTO HWY, LECANTO, FL, 34461",610738620,"L"
568262,"3800 SOUTH PIERCE STREET","DENVER","CO",80235,39.648305237,-105.07196212,262,"3800 SOUTH PIERCE STREET, DENVER, CO, 80235","Match","Exact","3800 S PIERCE ST, DENVER, CO, 80235",623645808,"L"
568263,"3800 SPRUCE STREET","PHILADELPHIA","PA",19104,39.9512714780001,-75.199331964,263,"3800 SPRUCE STREET, PHILADELPHIA, PA, 19104","Match","Exact","3800 SPRUCE ST, PHILADELPHIA, PA, 19104",131404021,"L"
568264,"3800 ST ELMO AVE STE 306","CHATTANOOGA","TN",37409,NA,NA,264,"3800 ST ELMO AVE STE 306, CHATTANOOGA, TN, 37409","No_Match",NA,NA,NA,NA
568265,"3800 STATE ROUTE 3","SARANAC","NY",12981,44.6362406710001,-73.759642038,265,"3800 STATE ROUTE 3, SARANAC, NY, 12981","Match","Exact","3800 STATE RTE 3, SARANAC, NY, 12981",638549011,"L"
568266,"3800 STILLMAN PARKWAY SUITE 201","RICHMOND","VA",23233,37.6398564690001,-77.566349035,266,"3800 STILLMAN PARKWAY SUITE 201, RICHMOND, VA, 23233","Match","Exact","3800 STILLMAN PKWY, RICHMOND, VA, 23233",106683061,"R"
568267,"3800 STONEHILL WAY","KINGMAN","AZ",86401,35.1713326550001,-113.983926365,267,"3800 STONEHILL WAY, KINGMAN, AZ, 86401","Match","Exact","3800 STONEHILL WAY, KINGMAN, AZ, 86401",618643942,"R"
568268,"3800 SUTTLES DR","ATLANTA","GA",30331,33.716382394,-84.506843765,268,"3800 SUTTLES DR, ATLANTA, GA, 30331","Match","Non_Exact","3800 SUTTLES DR SW, ATLANTA, GA, 30331",636180784,"R"
568269,"3800 SW SANDSTONE DRIVE","LEE'S SUMMIT","MO",64082,38.850850569,-94.4053274359999,269,"3800 SW SANDSTONE DRIVE, LEE'S SUMMIT, MO, 64082","Match","Non_Exact","3800 SW SANDSTONE DR, LEES SUMMIT, MO, 64082",91520101,"L"
568270,"3800 SW SANDSTONE DRIVE","LEES SUMMIT","MO",64082,38.850850569,-94.4053274359999,270,"3800 SW SANDSTONE DRIVE, LEES SUMMIT, MO, 64082","Match","Exact","3800 SW SANDSTONE DR, LEES SUMMIT, MO, 64082",91520101,"L"
568271,"3800 TIDEWATER DRIVE","NORFOLK","VA",23503,36.8871869550001,-76.2598874669999,271,"3800 TIDEWATER DRIVE, NORFOLK, VA, 23503","Match","Non_Exact","3800 TIDEWATER DR, NORFOLK, VA, 23509",122145285,"R"
568272,"3800 TRESTLE GLEN CT","CAMERON PARK","CA",95608,38.674197953,-120.992246506,272,"3800 TRESTLE GLEN CT, CAMERON PARK, CA, 95608","Match","Non_Exact","3800 TRESTLE GLEN CT, CAMERON PARK, CA, 95682",133063083,"L"
568273,"3800 TYFORD COURT","MYRTLE BEACH","SC",29579,33.7414613220001,-78.920118508,273,"3800 TYFORD COURT, MYRTLE BEACH, SC, 29579","Match","Exact","3800 TYFORD CT, MYRTLE BEACH, SC, 29579",648911296,"R"
568274,"3800 ULM NORTH FRONTAGE ROAD","GREAT FALLS","MT",59404,NA,NA,274,"3800 ULM NORTH FRONTAGE ROAD, GREAT FALLS, MT, 59404","No_Match",NA,NA,NA,NA
568275,"3800 UNIVERSITY","NATCHITOCHES","LA",71457,NA,NA,275,"3800 UNIVERSITY, NATCHITOCHES, LA, 71457","No_Match",NA,NA,NA,NA
568276,"3800 VANCOUVER DR","RENO","NV",89511,39.3872801000001,-119.78413506,276,"3800 VANCOUVER DR, RENO, NV, 89511","Match","Exact","3800 VANCOUVER DR, RENO, NV, 89511",107086828,"L"
568277,"3800 VETERANS MEMORIAL DRIVE","HILLIARD","OH",43026,40.0308312120001,-83.168809465,277,"3800 VETERANS MEMORIAL DRIVE, HILLIARD, OH, 43026","Match","Exact","3800 VETERANS MEMORIAL DR, HILLIARD, OH, 43026",218487944,"L"
568278,"3800 VIA PALO VERDE LAGO","ALPINE","CA",91901,32.814447273,-116.729337324,278,"3800 VIA PALO VERDE LAGO, ALPINE, CA, 91901","Match","Exact","3800 VIA PALO VERDE LAGO, ALPINE, CA, 91901",612881676,"L"
568279,"3800 VICTORY PARKWAY","CINCINNATI","OH",45207,39.1499999430001,-84.475554787,279,"3800 VICTORY PARKWAY, CINCINNATI, OH, 45207","Match","Exact","3800 VICTORY PKWY, CINCINNATI, OH, 45207",638858259,"R"
568280,"3800 W 38TH","CLEVELAND","OH",44109,41.451556296,-81.709998233,280,"3800 W 38TH, CLEVELAND, OH, 44109","Match","Non_Exact","3800 W 38TH ST, CLEVELAND, OH, 44109",61115519,"R"
568281,"3800 W ALTGELD ST APT 104","CHICAGO","IL",60647,41.9263824430001,-87.7219796109999,281,"3800 W ALTGELD ST APT 104, CHICAGO, IL, 60647","Match","Non_Exact","3800 W ALTGELD ST, CHICAGO, IL, 60647",605209601,"R"
568282,"3800 W PERUGIA ST R105","MERIDIAN","ID",83642,43.606075171,-116.43966149,282,"3800 W PERUGIA ST R105, MERIDIAN, ID, 83642","Match","Non_Exact","3800 W PERUGIA ST, MERIDIAN, ID, 83642",648001165,"R"
568283,"3800 W STRATHMORE AVENUE","BALTIMORE","MD",21215,39.3567846290001,-76.6957873549999,283,"3800 W STRATHMORE AVENUE, BALTIMORE, MD, 21215","Match","Exact","3800 W STRATHMORE AVE, BALTIMORE, MD, 21215",647416746,"R"
568284,"3800 W TECHNOLOGY CIRCLE SUITE 201","SIOUX FALLS","SD",57106,43.50518765,-96.772529101,284,"3800 W TECHNOLOGY CIRCLE SUITE 201, SIOUX FALLS, SD, 57106","Match","Non_Exact","3800 W TECHNOLOGY CIR, SIOUX FALLS, SD, 57106",34982353,"L"
568285,"3800 W WILSON STREET SPC 154","BANNING","CA",92220,NA,NA,285,"3800 W WILSON STREET SPC 154, BANNING, CA, 92220","No_Match",NA,NA,NA,NA
568286,"3800 WARHILL GREEN","WILLIAMSBURG","VA",23188,37.314386717,-76.7906113889999,286,"3800 WARHILL GREEN, WILLIAMSBURG, VA, 23188","Match","Non_Exact","3800 WAR HILL GREEN, WILLIAMSBURG, VA, 23188",618667409,"R"
568287,"3800 WEST 80TH STREET","SIOUX FALLS","SD",57108,43.4806251150001,-96.772294718,287,"3800 WEST 80TH STREET, SIOUX FALLS, SD, 57108","Match","Exact","3800 W 80TH ST, SIOUX FALLS, SD, 57108",625121667,"R"
568288,"3800 WEST MICHIGAN STREET  APT 1211","INDIANAPOLIS","IN",46222,39.7737670270001,-86.225280284,288,"3800 WEST MICHIGAN STREET  APT 1211, INDIANAPOLIS, IN, 46222","Match","Exact","3800 W MICHIGAN ST, INDIANAPOLIS, IN, 46222",610153339,"R"
568289,"3800 WEST PETERSON AVE","CHICAGO","IL",60659,41.9902011460001,-87.723989261,289,"3800 WEST PETERSON AVE, CHICAGO, IL, 60659","Match","Exact","3800 W PETERSON AVE, CHICAGO, IL, 60659",642123246,"R"
568290,"3800 WESTCLIFF RD S","FORT WORTH","TX",76109,32.700642268,-97.374837004,290,"3800 WESTCLIFF RD S, FORT WORTH, TX, 76109","Match","Exact","3800 WESTCLIFF RD S, FORT WORTH, TX, 76109",101886140,"R"
568291,"3800 WESTSIDE AVE","LOS ANGELES","CA",90008,34.0170953840001,-118.327068479,291,"3800 WESTSIDE AVE, LOS ANGELES, CA, 90008","Match","Exact","3800 WESTSIDE AVE, LOS ANGELES, CA, 90008",652033802,"L"
568292,"3800 WHEATGRAIN LN","FAIRFAX","VA",22033,38.888237116,-77.390343715,292,"3800 WHEATGRAIN LN, FAIRFAX, VA, 22033","Match","Exact","3800 WHEATGRAIN LN, FAIRFAX, VA, 22033",215918823,"L"
568293,"3800 WILDOR AVENUE","BALTIMORE","MD",21244,39.3591961880001,-76.753487589,293,"3800 WILDOR AVENUE, BALTIMORE, MD, 21244","Match","Exact","3800 WILDOR AVE, BALTIMORE, MD, 21244",191503358,"L"
568294,"3800 WINDING HOLLOW DRIVE","FREDERICKSBURG","VA",22408,38.2458680490001,-77.4672126789999,294,"3800 WINDING HOLLOW DRIVE, FREDERICKSBURG, VA, 22408","Match","Non_Exact","3800 WINDING HOLLOW WAY, FREDERICKSBURG, VA, 22408",85019656,"R"
568295,"3800 WINERY RD","PAHRUMP","NV",89048,36.19044023,-115.945431997,295,"3800 WINERY RD, PAHRUMP, NV, 89048","Match","Exact","3800 WINERY RD, PAHRUMP, NV, 89048",140667173,"R"
568296,"3800 WOODBRIAR WAY","MCKEAN","PA",16426,41.947092824,-80.127305986,296,"3800 WOODBRIAR WAY, MCKEAN, PA, 16426","Match","Exact","3800 WOODBRIAR WAY, MCKEAN, PA, 16426",117488820,"L"
568297,"3800 WOODBURY DRIVE","COLUMBIA","SC",29209,33.984002332,-80.8860240719999,297,"3800 WOODBURY DRIVE, COLUMBIA, SC, 29209","Match","Exact","3800 WOODBURY DR, COLUMBIA, SC, 29209",71831283,"R"
568298,"3800 YORKLAND DR NW APT 7","COMSTOCK PARK","MI",49321,43.0329883100001,-85.6829194009999,298,"3800 YORKLAND DR NW APT 7, COMSTOCK PARK, MI, 49321","Match","Non_Exact","3800 YORKLAND DR, COMSTOCK PARK, MI, 49321",650134061,"L"
568299,"38000 UTICA RD","STERLING HEIGHTS","MI",48312,42.574190274,-82.9823149599999,299,"38000 UTICA RD, STERLING HEIGHTS, MI, 48312","Match","Exact","38000 UTICA RD, STERLING HEIGHTS, MI, 48312",642576064,"R"
568300,"38002 INEZ AVENUE","FREMONT","CA",94536,37.5605849310001,-121.9860976,300,"38002 INEZ AVENUE, FREMONT, CA, 94536","Match","Exact","38002 INEZ AVE, FREMONT, CA, 94536",125030005,"L"
568301,"38002 POPLAR DRIVE","WILLOUGHBY","OH",44094,41.668084895,-81.4095848969999,301,"38002 POPLAR DRIVE, WILLOUGHBY, OH, 44094","Match","Exact","38002 POPLAR DR, WILLOUGHBY, OH, 44094",641744022,"R"
568302,"38003 86TH AVE E","EDGEWOOD","WA",98371,NA,NA,302,"38003 86TH AVE E, EDGEWOOD, WA, 98371","No_Match",NA,NA,NA,NA
568303,"38004 CORNERVIEW RD","GEISMAR","LA",70734,30.2400433930001,-90.973832591,303,"38004 CORNERVIEW RD, GEISMAR, LA, 70734","Match","Exact","38004 CORNERVIEW RD, GEISMAR, LA, 70734",115040456,"L"
568304,"38008 LIVE OAK AVENUE","DADE CITY","FL",33523,28.3651681640001,-82.1881234379999,304,"38008 LIVE OAK AVENUE, DADE CITY, FL, 33523","Match","Exact","38008 LIVE OAK AVE, DADE CITY, FL, 33523",86344928,"L"
568305,"3801 14TH STREET APT 1306","PLANO","TX",75075,33.014301684,-96.66129023,305,"3801 14TH STREET APT 1306, PLANO, TX, 75075","Match","Non_Exact","3801 14TH ST, PLANO, TX, 75074",210492157,"L"
568306,"3801 18TH AVE APT 2-E","BROOKLYN","NY",11218,40.634152842,-73.969942218,306,"3801 18TH AVE APT 2-E, BROOKLYN, NY, 11218","Match","Exact","3801 18TH AVE, BROOKLYN, NY, 11218",59081057,"L"
568307,"3801 20TH STREET SW","LEHIGH ACRES","FL",33976,26.594065775,-81.697567454,307,"3801 20TH STREET SW, LEHIGH ACRES, FL, 33976","Match","Exact","3801 20TH ST SW, LEHIGH ACRES, FL, 33976",118030979,"R"
568308,"3801 20TH SW","LEHIGH ACRES","FL",33976,26.594065775,-81.697567454,308,"3801 20TH SW, LEHIGH ACRES, FL, 33976","Match","Non_Exact","3801 20TH ST SW, LEHIGH ACRES, FL, 33976",118030979,"R"
568309,"3801 24TH STREET","TEMPLE HILLS","MD",20748,38.837446872,-76.959409337,309,"3801 24TH STREET, TEMPLE HILLS, MD, 20748","Match","Non_Exact","3801 24TH AVE, TEMPLE HILLS, MD, 20748",76312377,"R"
568310,"3801 3RD STREET SUITE 610","SAN FRANCISCO","CA",94124,37.741816183,-122.38815293,310,"3801 3RD STREET SUITE 610, SAN FRANCISCO, CA, 94124","Match","Exact","3801 3RD ST, SAN FRANCISCO, CA, 94124",192300867,"L"
568311,"3801 47TH AVENUE SOUTH","MINNEAPOLIS","MN",55406,44.9342441220001,-93.206395421,311,"3801 47TH AVENUE SOUTH, MINNEAPOLIS, MN, 55406","Match","Exact","3801 47TH AVE S, MINNEAPOLIS, MN, 55406",43640997,"L"
568312,"3801 68TH AVE NE","NORMAN","OK",73026,35.264029029,-97.3408878339999,312,"3801 68TH AVE NE, NORMAN, OK, 73026","Match","Exact","3801 68TH AVE NE, NORMAN, OK, 73026",240936590,"L"
568313,"3801 6TH AVENUE","LOS ANGELES","CA",90008,34.017240084,-118.324146868,313,"3801 6TH AVENUE, LOS ANGELES, CA, 90008","Match","Exact","3801 6TH AVE, LOS ANGELES, CA, 90008",652033814,"R"
568314,"3801 ABEYTA COURT","BOULDER","CO",80301,40.043953747,-105.253339623,314,"3801 ABEYTA COURT, BOULDER, CO, 80301","Match","Exact","3801 ABEYTA CT, BOULDER, CO, 80301",188203955,"L"
568315,"3801 AQUA VISTA CT","HAYWARD","CA",94542,37.6502956850001,-122.018157076,315,"3801 AQUA VISTA CT, HAYWARD, CA, 94542","Match","Exact","3801 AQUA VISTA CT, HAYWARD, CA, 94542",606844594,"R"
568316,"3801 ARDEN ROAD APT 9","SAN ANGELO","TX",76901,31.448155091,-100.48901258,316,"3801 ARDEN ROAD APT 9, SAN ANGELO, TX, 76901","Match","Exact","3801 ARDEN RD, SAN ANGELO, TX, 76901",607994042,"L"
568317,"3801 ASHE ROAD APT 2","BAKERSFIELD","CA",93309,35.3207380760001,-119.074457968,317,"3801 ASHE ROAD APT 2, BAKERSFIELD, CA, 93309","Match","Exact","3801 ASHE RD, BAKERSFIELD, CA, 93309",109111698,"R"
568318,"3801 ASHE ROAD","BAKERSFIELD","CA",93309,35.3207380760001,-119.074457968,318,"3801 ASHE ROAD, BAKERSFIELD, CA, 93309","Match","Exact","3801 ASHE RD, BAKERSFIELD, CA, 93309",109111698,"R"
568319,"3801 ASHLAND AVENUE","SAINT  LOUIS","MO",63107,38.660685137,-90.2220402199999,319,"3801 ASHLAND AVENUE, SAINT  LOUIS, MO, 63107","Match","Exact","3801 ASHLAND AVE, SAINT LOUIS, MO, 63107",107596436,"R"
568320,"3801 ASHLAND AVENUE","SAINT LOUIS","MO",63107,38.660685137,-90.2220402199999,320,"3801 ASHLAND AVENUE, SAINT LOUIS, MO, 63107","Match","Exact","3801 ASHLAND AVE, SAINT LOUIS, MO, 63107",107596436,"R"
568321,"3801 AUGUSTA AVE","RICHMOND","VA",23230,37.569546308,-77.480252929,321,"3801 AUGUSTA AVE, RICHMOND, VA, 23230","Match","Exact","3801 AUGUSTA AVE, RICHMOND, VA, 23230",201535135,"L"
568322,"3801 BASELINE RD APT 20","LITTLE ROCK","AR",72209,34.6680256060001,-92.3199936359999,322,"3801 BASELINE RD APT 20, LITTLE ROCK, AR, 72209","Match","Exact","3801 BASELINE RD, LITTLE ROCK, AR, 72209",83513007,"L"
568323,"3801 BENDEMEER ROAD","CLEVELAND HEIGHTS","OH",44118,41.510799628,-81.543656797,323,"3801 BENDEMEER ROAD, CLEVELAND HEIGHTS, OH, 44118","Match","Exact","3801 BENDEMEER RD, CLEVELAND HEIGHTS, OH, 44118",61125096,"L"
568324,"3801 BILLTOWN RD UNIT 99602","LOUISVILLE","KY",40269,38.192137723,-85.5682854949999,324,"3801 BILLTOWN RD UNIT 99602, LOUISVILLE, KY, 40269","Match","Non_Exact","3801 BILLTOWN RD, LOUISVILLE, KY, 40299",96891780,"L"
568325,"3801 BLACK CANYON RD","FORT WORTH","TX",76109,32.694390325,-97.39678618,325,"3801 BLACK CANYON RD, FORT WORTH, TX, 76109","Match","Exact","3801 BLACK CANYON RD, FORT WORTH, TX, 76109",101941595,"L"
568326,"3801 BLACKFORD AVE 8","SAN JOSE","CA",95117,37.3143948050001,-121.967599828,326,"3801 BLACKFORD AVE 8, SAN JOSE, CA, 95117","Match","Exact","3801 BLACKFORD AVE, SAN JOSE, CA, 95117",122974242,"R"
568327,"3801 BLUE PARKWAY","KANSAS CITY","MO",64130,39.0359736980001,-94.540380447,327,"3801 BLUE PARKWAY, KANSAS CITY, MO, 64130","Match","Exact","3801 BLUE PKWY, KANSAS CITY, MO, 64130",641529501,"R"
568328,"3801 BONNERCREST LANE","NORTH CHARLESTON","SC",29420,NA,NA,328,"3801 BONNERCREST LANE, NORTH CHARLESTON, SC, 29420","No_Match",NA,NA,NA,NA
568329,"3801 BRANCIFORTE DR","SANTA CRUZ","CA",95065,NA,NA,329,"3801 BRANCIFORTE DR, SANTA CRUZ, CA, 95065","No_Match",NA,NA,NA,NA
568330,"3801 BRANDYWINE DR APT 232","BEDFORD","TX",76021,32.8510147980001,-97.103259583,330,"3801 BRANDYWINE DR APT 232, BEDFORD, TX, 76021","Match","Exact","3801 BRANDYWINE DR, BEDFORD, TX, 76021",101919128,"L"
568331,"3801 BRASSEUR LN","CARMEL","IN",46033,40.0034673920001,-86.1020635739999,331,"3801 BRASSEUR LN, CARMEL, IN, 46033","Match","Exact","3801 BRASSEUR LN, CARMEL, IN, 46033",29333224,"R"
568332,"3801 BRIARWOOD CIR ESTATE","ST CLOUD","FL",34772,NA,NA,332,"3801 BRIARWOOD CIR ESTATE, ST CLOUD, FL, 34772","No_Match",NA,NA,NA,NA
568333,"3801 BRILEY STREET","HOUSTON","TX",77004,29.7262399300001,-95.360743981,333,"3801 BRILEY STREET, HOUSTON, TX, 77004","Match","Exact","3801 BRILEY ST, HOUSTON, TX, 77004",645505523,"L"
568334,"3801 BROWNS POINT BLVD NE","TACOMA","WA",98422,47.2980632210001,-122.409052232,334,"3801 BROWNS POINT BLVD NE, TACOMA, WA, 98422","Match","Non_Exact","3801 BROWNS POINT BLVD, TACOMA, WA, 98422",184674429,"L"
568335,"3801 CAMPUS DR","WACO","TX",76705,31.6371650610001,-97.084315772,335,"3801 CAMPUS DR, WACO, TX, 76705","Match","Exact","3801 CAMPUS DR, WACO, TX, 76705",146737183,"R"
568336,"3801 CAMPUS DRIVE","WACO","TX",76705,31.6371650610001,-97.084315772,336,"3801 CAMPUS DRIVE, WACO, TX, 76705","Match","Exact","3801 CAMPUS DR, WACO, TX, 76705",146737183,"R"
568337,"3801 CANAL ST STE 205","NEW ORLEANS","LA",70119,29.972637908,-90.0976221779999,337,"3801 CANAL ST STE 205, NEW ORLEANS, LA, 70119","Match","Exact","3801 CANAL ST, NEW ORLEANS, LA, 70119",191707513,"R"
568338,"3801 CANTERBURY RD STE 718","BALTIMORE","MD",21218,39.334326172,-76.620365167,338,"3801 CANTERBURY RD STE 718, BALTIMORE, MD, 21218","Match","Exact","3801 CANTERBURY RD, BALTIMORE, MD, 21218",206408629,"R"
568339,"3801 CANTERBURY RD UNIT 711","BALTIMORE","MD",21218,39.334326172,-76.620365167,339,"3801 CANTERBURY RD UNIT 711, BALTIMORE, MD, 21218","Match","Exact","3801 CANTERBURY RD, BALTIMORE, MD, 21218",206408629,"R"
568340,"3801 CARAWAY","NORTH LITTLE ROCK","AR",72116,34.7911613840001,-92.236903313,340,"3801 CARAWAY, NORTH LITTLE ROCK, AR, 72116","Match","Non_Exact","3801 CARAWAY CT, N LITTLE ROCK, AR, 72116",83514329,"L"
568341,"3801 CEDAR AVENUE","MONTGOMERY","AL",36109,32.3976016,-86.244867696,341,"3801 CEDAR AVENUE, MONTGOMERY, AL, 36109","Match","Exact","3801 CEDAR AVE, MONTGOMERY, AL, 36109",1505520,"L"
568342,"3801 CENTRAL AVE","CHEYENNE","WY",82001,41.1505965110001,-104.822471727,342,"3801 CENTRAL AVE, CHEYENNE, WY, 82001","Match","Exact","3801 CENTRAL AVE, CHEYENNE, WY, 82001",160149153,"R"
568343,"3801 CLIFFSIDE DR","DENTON","TX",76208,33.172660998,-97.0802049659999,343,"3801 CLIFFSIDE DR, DENTON, TX, 76208","Match","Exact","3801 CLIFFSIDE DR, DENTON, TX, 76208",614140444,"L"
568344,"3801 CLINTON PKWY C3","LAWRENCE","KS",66047,NA,NA,344,"3801 CLINTON PKWY C3, LAWRENCE, KS, 66047","No_Match",NA,NA,NA,NA
568345,"3801 CONNECTICUT AVE 906","WASHINGTON","DC",20008,38.938753288,-77.0603563029999,345,"3801 CONNECTICUT AVE 906, WASHINGTON, DC, 20008","Match","Non_Exact","3801 CONNECTICUT AVE NW, WASHINGTON, DC, 20008",640378402,"R"
568346,"3801 CONNECTICUT AVE NW","WASHINGTON","DC",NA,38.938753288,-77.0603563029999,346,"3801 CONNECTICUT AVE NW, WASHINGTON, DC, ","Match","Exact","3801 CONNECTICUT AVE NW, WASHINGTON, DC, 20008",640378402,"R"
568347,"3801 CONNECTICUT AVE","WASHINGTON","DC",20008,38.938753288,-77.0603563029999,347,"3801 CONNECTICUT AVE, WASHINGTON, DC, 20008","Match","Non_Exact","3801 CONNECTICUT AVE NW, WASHINGTON, DC, 20008",640378402,"R"
568348,"3801 CONNECTICUT AVENUE NW","WASHINGTON","DC",20008,38.938753288,-77.0603563029999,348,"3801 CONNECTICUT AVENUE NW, WASHINGTON, DC, 20008","Match","Exact","3801 CONNECTICUT AVE NW, WASHINGTON, DC, 20008",640378402,"R"
568349,"3801 CR 200","LIBERTYHILL","TX",78642,30.7274441870001,-97.933476594,349,"3801 CR 200, LIBERTYHILL, TX, 78642","Match","Non_Exact","3801 CO RD 200, LIBERTY HILL, TX, 78642",650018920,"L"
568350,"3801 CRESWELL AVE","SHREVEPORT","LA",71106,32.4713974700001,-93.741666696,350,"3801 CRESWELL AVE, SHREVEPORT, LA, 71106","Match","Exact","3801 CRESWELL AVE, SHREVEPORT, LA, 71106",57485294,"L"
568351,"3801 CROSS WINDS RD","YUKON","OK",73099,35.5093937830001,-97.8160168379999,351,"3801 CROSS WINDS RD, YUKON, OK, 73099","Match","Exact","3801 CROSS WINDS RD, YUKON, OK, 73099",649711937,"L"
568352,"3801 CROWN POINT RD UNIT 3081","JACKSONVILLE","FL",32257,30.194611175,-81.615866577,352,"3801 CROWN POINT RD UNIT 3081, JACKSONVILLE, FL, 32257","Match","Exact","3801 CROWN POINT RD, JACKSONVILLE, FL, 32257",635334061,"L"
568353,"3801 CROWN POINT RD","JACKSONVILLE","FL",32257,30.194611175,-81.615866577,353,"3801 CROWN POINT RD, JACKSONVILLE, FL, 32257","Match","Exact","3801 CROWN POINT RD, JACKSONVILLE, FL, 32257",635334061,"L"
568354,"3801 CROWN POINT ROAD  UNIT 3081","JACKSONVILLE","FL",32257,30.194611175,-81.615866577,354,"3801 CROWN POINT ROAD  UNIT 3081, JACKSONVILLE, FL, 32257","Match","Exact","3801 CROWN POINT RD, JACKSONVILLE, FL, 32257",635334061,"L"
568355,"3801 DAIQUIRI CT","VIRGINIA BEACH","VA",23456,36.777787335,-76.1116099499999,355,"3801 DAIQUIRI CT, VIRGINIA BEACH, VA, 23456","Match","Exact","3801 DAIQUIRI CT, VA BCH, VA, 23456",122268127,"R"
568356,"3801 DEWEY AVENUE","RICHTON PARK","IL",60471,41.472044914,-87.708081648,356,"3801 DEWEY AVENUE, RICHTON PARK, IL, 60471","Match","Exact","3801 DEWEY AVE, RICHTON PARK, IL, 60471",112221729,"L"
568357,"3801 DIVIDEND DR","GARLAND","TX",75042,32.898815476,-96.688557905,357,"3801 DIVIDEND DR, GARLAND, TX, 75042","Match","Exact","3801 DIVIDEND DR, GARLAND, TX, 75042",102917771,"R"
568358,"3801 DUPONT AVENUE NORTH","MINNEAPOLIS","MN",56412,45.0241093870001,-93.2930915539999,358,"3801 DUPONT AVENUE NORTH, MINNEAPOLIS, MN, 56412","Match","Non_Exact","3801 DUPONT AVE N, MINNEAPOLIS, MN, 55412",43622286,"L"
568359,"3801 E CHINOOK","CANNON BEACH","OR",97110,45.8684018100001,-123.955283994,359,"3801 E CHINOOK, CANNON BEACH, OR, 97110","Match","Non_Exact","3801 E CHINOOK AVE, CANNON BEACH, OR, 97110",159234684,"L"
568360,"3801 E FLORIDA AVE","DENVER","CO",80210,39.68932641,-104.942935574,360,"3801 E FLORIDA AVE, DENVER, CO, 80210","Match","Exact","3801 E FLORIDA AVE, DENVER, CO, 80210",652265039,"L"
568361,"3801 EAST 36TH STREET","INDIANAPOLIS","IN",46218,39.821860459,-86.102591261,361,"3801 EAST 36TH STREET, INDIANAPOLIS, IN, 46218","Match","Non_Exact","3801 36TH ST, INDIANAPOLIS, IN, 46218",107998471,"R"
568362,"3801 EDWARDS AVE","LAKE WORTH","FL",33461,26.6204030330001,-80.104301675,362,"3801 EDWARDS AVE, LAKE WORTH, FL, 33461","Match","Exact","3801 EDWARDS AVE, LAKE WORTH, FL, 33461",653879016,"R"
568363,"3801 EUCALYPTUS ST","CORPUS CHRISTI","TX",78414,27.6555084600001,-97.358588644,363,"3801 EUCALYPTUS ST, CORPUS CHRISTI, TX, 78414","Match","Exact","3801 EUCALYPTUS ST, CORPUS CHRISTI, TX, 78414",648531386,"R"
568364,"3801 FM 150 WEST","KYLE","TX",78640,NA,NA,364,"3801 FM 150 WEST, KYLE, TX, 78640","No_Match",NA,NA,NA,NA
568365,"3801 FM 2280","CLEBURNE","TX",76031,32.4360110860001,-97.311101557,365,"3801 FM 2280, CLEBURNE, TX, 76031","Match","Exact","3801 FM 2280, CLEBURNE, TX, 76031",649948450,"L"
568366,"3801 FOX TRAIL APT 726","BENBROOK","TX",76109,32.6949897760001,-97.416591501,366,"3801 FOX TRAIL APT 726, BENBROOK, TX, 76109","Match","Exact","3801 FOX TRL, BENBROOK, TX, 76109",101881697,"R"
568367,"3801 FRITCHA AVENUE","FORT WAYNE","IN",46806,41.052633911,-85.042222066,367,"3801 FRITCHA AVENUE, FORT WAYNE, IN, 46806","Match","Exact","3801 FRITCHA AVE, FORT WAYNE, IN, 46806",6387296,"L"
568368,"3801 GEORGIA AV NW AP","WASHINGTON","CA",20011,NA,NA,368,"3801 GEORGIA AV NW AP, WASHINGTON, CA, 20011","No_Match",NA,NA,NA,NA
568369,"3801 GLENCOE DRIVE","MOUNTAIN BROOK","AL",35213,33.4990591060001,-86.743665826,369,"3801 GLENCOE DRIVE, MOUNTAIN BROOK, AL, 35213","Match","Exact","3801 GLENCOE DR, MOUNTAIN BRK, AL, 35213",635556884,"R"
568370,"3801 GREENBRIAR LN","HARVEY","LA",70058,29.855501556,-90.073220798,370,"3801 GREENBRIAR LN, HARVEY, LA, 70058","Match","Non_Exact","3801 GREENBRIAR DR, HARVEY, LA, 70058",93509829,"L"
568371,"3801 HARDING PLACE","NASHVILLE","TN",37215,36.092746693,-86.839712891,371,"3801 HARDING PLACE, NASHVILLE, TN, 37215","Match","Exact","3801 HARDING PL, NASHVILLE, TN, 37215",627348488,"R"
568372,"3801 HAWK RIDGE ROAD","CHAPEL HILL","NC",27516,35.945809475,-79.1797070329999,372,"3801 HAWK RIDGE ROAD, CHAPEL HILL, NC, 27516","Match","Exact","3801 HAWK RIDGE RD, CHAPEL HILL, NC, 27516",72388544,"L"
568373,"3801 HEMPSTED WAY","ATLANTA","GA",30331,33.680598993,-84.5110547089999,373,"3801 HEMPSTED WAY, ATLANTA, GA, 30331","Match","Non_Exact","3801 HEMPSTEAD WAY SW, ATLANTA, GA, 30331",636760096,"R"
568374,"3801 HIDE-A-WAY LANE","FLOWER MOUND","TX",75022,33.0163283250001,-97.0885853779999,374,"3801 HIDE-A-WAY LANE, FLOWER MOUND, TX, 75022","Match","Exact","3801 HIDE-A-WAY LN, FLOWER MOUND, TX, 75022",103377880,"L"
568375,"3801 HIGHWOOD RD NW","ROANOKE","VA",24012,37.303497502,-79.950768963,375,"3801 HIGHWOOD RD NW, ROANOKE, VA, 24012","Match","Exact","3801 HIGHWOOD RD NW, ROANOKE, VA, 24012",62904087,"R"
568376,"3801 HILLSHIRE DR","ANTIOCH","TN",37013,36.0824698060001,-86.596615951,376,"3801 HILLSHIRE DR, ANTIOCH, TN, 37013","Match","Exact","3801 HILLSHIRE DR, ANTIOCH, TN, 37013",97207462,"L"
568377,"3801 INKSTER RD","INKSTER","MI",48141,42.2815515790001,-83.309515087,377,"3801 INKSTER RD, INKSTER, MI, 48141","Match","Exact","3801 INKSTER RD, INKSTER, MI, 48141",95434788,"L"
568378,"3801 KEITH CIRCLE","LINCOLN","NE",68521,40.849803389,-96.709316482,378,"3801 KEITH CIRCLE, LINCOLN, NE, 68521","Match","Exact","3801 KEITH CIR, LINCOLN, NE, 68521",28252403,"L"
568379,"3801 KENNETT PIKE - BLDG C-201","GREEVVILLE","DE",19807,NA,NA,379,"3801 KENNETT PIKE - BLDG C-201, GREEVVILLE, DE, 19807","No_Match",NA,NA,NA,NA
568380,"3801 KIRBY DR","GREENSBORO","NC",37403,36.0809939530001,-79.844198465,380,"3801 KIRBY DR, GREENSBORO, NC, 37403","Match","Non_Exact","3801 KIRBY DR, GREENSBORO, NC, 27403",131028675,"L"
568381,"3801 LAKESIDE DRIVE SUITE A112","RICHMOND","CA",94806,37.9834641890001,-122.331255924,381,"3801 LAKESIDE DRIVE SUITE A112, RICHMOND, CA, 94806","Match","Exact","3801 LAKESIDE DR, RICHMOND, CA, 94806",192099679,"R"
568382,"3801 LAKEVIEW DR","GALENA","OH",43021,40.1989336520001,-82.893976451,382,"3801 LAKEVIEW DR, GALENA, OH, 43021","Match","Exact","3801 LAKEVIEW DR, GALENA, OH, 43021",24587422,"L"
568383,"3801 LANDMARK DRIVE","MCKINNEY","TX",75070,33.18136057,-96.671275662,383,"3801 LANDMARK DRIVE, MCKINNEY, TX, 75070","Match","Non_Exact","3801 LANDMARK DR, MCKINNEY, TX, 75072",614185924,"R"
568384,"3801 LIONEL ST","MONROE","LA",71203,32.5194556280001,-92.0739795169999,384,"3801 LIONEL ST, MONROE, LA, 71203","Match","Exact","3801 LIONEL ST, MONROE, LA, 71203",161086835,"L"
568385,"3801 LOCKLAND DR","LOS ANGELES","CA",90008,34.009143211,-118.34025241,385,"3801 LOCKLAND DR, LOS ANGELES, CA, 90008","Match","Exact","3801 LOCKLAND DR, LOS ANGELES, CA, 90008",141602433,"R"
568386,"3801 LOUISE STREET UNIT A","LYNWOOD","CA",90262,33.9202753120001,-118.202734941,386,"3801 LOUISE STREET UNIT A, LYNWOOD, CA, 90262","Match","Exact","3801 LOUISE ST, LYNWOOD, CA, 90262",142764705,"L"
568387,"3801 LYNN","FLINT","MI",48503,43.0055931000001,-83.6369065329999,387,"3801 LYNN, FLINT, MI, 48503","Match","Non_Exact","3801 LYNN CT, FLINT, MI, 48503",69577060,"L"
568388,"3801 MAGEE AVE","OAKLAND","CA",94619,37.794585736,-122.197442068,388,"3801 MAGEE AVE, OAKLAND, CA, 94619","Match","Exact","3801 MAGEE AVE, OAKLAND, CA, 94619",125004421,"L"
568389,"3801 MANORWOOD RD","AUSTIN","TX",78723,30.288214286,-97.704496343,389,"3801 MANORWOOD RD, AUSTIN, TX, 78723","Match","Exact","3801 MANORWOOD RD, AUSTIN, TX, 78723",63947499,"R"
568390,"3801 MANTON DRIVE","LYNCHBURG","VA",24503,37.431561835,-79.198165686,390,"3801 MANTON DRIVE, LYNCHBURG, VA, 24503","Match","Non_Exact","3801 MANTON LN, LYNCHBURG, VA, 24503",62623382,"R"
568391,"3801 MAPLE FOREST CT","CHARLOTTE","NC",28270,35.072456688,-80.733610149,391,"3801 MAPLE FOREST CT, CHARLOTTE, NC, 28270","Match","Exact","3801 MAPLE FOREST CT, CHARLOTTE, NC, 28270",70546240,"R"
568392,"3801 MARDELA SPRING DR","RALEIGH","NC",27616,35.857418583,-78.567284534,392,"3801 MARDELA SPRING DR, RALEIGH, NC, 27616","Match","Exact","3801 MARDELA SPRING DR, RALEIGH, NC, 27616",72623981,"R"
568393,"3801 MARKET ST SUITE 208","PHILADELPHIA","PA",19104,39.9566773060001,-75.198133318,393,"3801 MARKET ST SUITE 208, PHILADELPHIA, PA, 19104","Match","Exact","3801 MARKET ST, PHILADELPHIA, PA, 19104",131404251,"R"
568394,"3801 MARLIN TRAIL","ROWLETT","TX",75088,32.895528482,-96.530761984,394,"3801 MARLIN TRAIL, ROWLETT, TX, 75088","Match","Exact","3801 MARLIN TRL, ROWLETT, TX, 75088",102934717,"R"
568395,"3801 MARQUETTE PL APT 3V","SAN DIEGO","CA",92106,32.7512858360001,-117.219857626,395,"3801 MARQUETTE PL APT 3V, SAN DIEGO, CA, 92106","Match","Exact","3801 MARQUETTE PL, SAN DIEGO, CA, 92106",195340602,"R"
568396,"3801 MCDERMOTT","PLANO","TX",75025,33.1011847950001,-96.766667548,396,"3801 MCDERMOTT, PLANO, TX, 75025","Match","Non_Exact","3801 MCDERMOTT RD, PLANO, TX, 75025",642831334,"L"
568397,"3801 MEADOW RIDGE DR SW","ROCHESTER","MN",55902,44.0098794450001,-92.519551673,397,"3801 MEADOW RIDGE DR SW, ROCHESTER, MN, 55902","Match","Exact","3801 MEADOW RIDGE DR SW, ROCHESTER, MN, 55902",612125497,"R"
568398,"3801 MENCHACA ROAD APARTMENT 2","AUSTIN","TX",78704,NA,NA,398,"3801 MENCHACA ROAD APARTMENT 2, AUSTIN, TX, 78704","No_Match",NA,NA,NA,NA
568399,"3801 MILL MEADOWS DRIVE","MIDLOTHIAN","VA",23112,37.4387696920001,-77.6401750859999,399,"3801 MILL MEADOWS DRIVE, MIDLOTHIAN, VA, 23112","Match","Non_Exact","3801 MILL MEADOW DR, MIDLOTHIAN, VA, 23112",223171177,"R"
568400,"3801 MILLCREEK DR","ANNADALE","VA",22003,38.8417431140001,-77.226850907,400,"3801 MILLCREEK DR, ANNADALE, VA, 22003","Match","Non_Exact","3801 MILLCREEK DR, ANNANDALE, VA, 22003",75972998,"L"
568401,"3801 MISSION TRACE BLVD","TALLAHASSEE","FL",32312,30.487382274,-84.346127123,401,"3801 MISSION TRACE BLVD, TALLAHASSEE, FL, 32312","Match","Non_Exact","3801 MISSION TRACE BLVD, TALLAHASSEE, FL, 32303",82870691,"R"
568402,"3801 MORTON DRIVE","RICHMOND","VA",23223,37.57249885,-77.372125485,402,"3801 MORTON DRIVE, RICHMOND, VA, 23223","Match","Exact","3801 MORTON DR, RICHMOND, VA, 23223",638657267,"R"
568403,"3801 MYRTLE","DALLAS","TX",75215,32.7618289280001,-96.761415558,403,"3801 MYRTLE, DALLAS, TX, 75215","Match","Non_Exact","3801 MYRTLE ST, DALLAS, TX, 75215",102955472,"R"
568404,"3801 N GREG DR","PRESCOTT VALLEY","AZ",86314,34.5970731140001,-112.315593736,404,"3801 N GREG DR, PRESCOTT VALLEY, AZ, 86314","Match","Exact","3801 N GREG DR, PRESCOTT VALLEY, AZ, 86314",159460747,"R"
568405,"3801 N MACGREGOR WAY STE M","HOUSTON","TX",77004,NA,NA,405,"3801 N MACGREGOR WAY STE M, HOUSTON, TX, 77004","No_Match",NA,NA,NA,NA
568406,"3801 N MCCOLL RD APT126","MCALLEN","TX",78501,26.232722955,-98.207529805,406,"3801 N MCCOLL RD APT126, MCALLEN, TX, 78501","Match","Non_Exact","3801 N MCCOLL RD, MCALLEN, TX, 78501",607645615,"L"
568407,"3801 N SHADYBROOK DR","MIDWEST CITY","OK",73110,35.478687499,-97.398097666,407,"3801 N SHADYBROOK DR, MIDWEST CITY, OK, 73110","Match","Exact","3801 SHADYBROOK DR, MIDWEST CITY, OK, 73110",100414310,"L"
568408,"3801 NANDENA DRIVE","CHATTANOOGA","TN",37411,35.044175497,-85.2319857639999,408,"3801 NANDENA DRIVE, CHATTANOOGA, TN, 37411","Match","Exact","3801 NANDENA DR, CHATTANOOGA, TN, 37411",59311072,"L"
568409,"3801 NAVASOTA DRIVE","AMARILLO","TX",79109,35.1705571570001,-101.91737605,409,"3801 NAVASOTA DRIVE, AMARILLO, TX, 79109","Match","Exact","3801 NAVASOTA DR, AMARILLO, TX, 79109",182652682,"L"
568410,"3801 NE OAKBROOKE","BENTONVILLE","AR",72712,36.389165458,-94.1665441229999,410,"3801 NE OAKBROOKE, BENTONVILLE, AR, 72712","Match","Non_Exact","3801 NE OAKBROOKE AVE, BENTONVILLE, AR, 72712",619903169,"R"
568411,"3801 NORBROOK DR","COLUMBUS","OH",43220,40.0315646450001,-83.084786863,411,"3801 NORBROOK DR, COLUMBUS, OH, 43220","Match","Exact","3801 NORBROOK DR, COLUMBUS, OH, 43220",218693063,"L"
568412,"3801 NORTH GREG DR","PRESCOTT VALLEY","AZ",86314,34.5970640940001,-112.31559711,412,"3801 NORTH GREG DR, PRESCOTT VALLEY, AZ, 86314","Match","Exact","3801 N GREG DR, PRESCOTT VALLEY, AZ, 86314",159460747,"R"
568413,"3801 NW 13TH ST","OKLAHOMA CITY","OK",73112,NA,NA,413,"3801 NW 13TH ST, OKLAHOMA CITY, OK, 73112","No_Match",NA,NA,NA,NA
568414,"3801 NW 176TH TER","MIAMI GARDENS","FL",33055,25.93442708,-80.2637603809999,414,"3801 NW 176TH TER, MIAMI GARDENS, FL, 33055","Match","Exact","3801 NW 176TH TER, MIAMI GARDENS, FL, 33055",116026993,"R"
568415,"3801 NW 191 ST","MIAMI GARDENS","FL",33055,NA,NA,415,"3801 NW 191 ST, MIAMI GARDENS, FL, 33055","No_Match",NA,NA,NA,NA
568416,"3801 NW 21ST APT 303","LAUDERDALE LAKES","FL",33311,NA,NA,416,"3801 NW 21ST APT 303, LAUDERDALE LAKES, FL, 33311","No_Match",NA,NA,NA,NA
568417,"3801 NW 21ST STREET","LAUDERDALE LAKES","FL",33311,NA,NA,417,"3801 NW 21ST STREET, LAUDERDALE LAKES, FL, 33311","No_Match",NA,NA,NA,NA
568418,"3801 NW 97TH AVENUE STE 100","DORAL","FL",33178,NA,NA,418,"3801 NW 97TH AVENUE STE 100, DORAL, FL, 33178","No_Match",NA,NA,NA,NA
568419,"3801 NW 97TH AVENUE SUITE 100","DORAL","FL",33178,NA,NA,419,"3801 NW 97TH AVENUE SUITE 100, DORAL, FL, 33178","No_Match",NA,NA,NA,NA
568420,"3801 NW 97TH STE 100","DORAL","FL",33178,NA,NA,420,"3801 NW 97TH STE 100, DORAL, FL, 33178","No_Match",NA,NA,NA,NA
568421,"3801 OCTAVIA STREET","NEW ORLEANS","LA",70115,29.9499828840001,-90.1083729489999,421,"3801 OCTAVIA STREET, NEW ORLEANS, LA, 70115","Match","Non_Exact","3801 OCTAVIA ST, NEW ORLEANS, LA, 70125",191711117,"R"
568422,"3801 OLD ANSON RD","ABILENE","TX",79601,32.4968706810001,-99.75179239,422,"3801 OLD ANSON RD, ABILENE, TX, 79601","Match","Exact","3801 OLD ANSON RD, ABILENE, TX, 79601",129966499,"R"
568423,"3801 PARKDALE RD","CLEVELAND HEIGHTS","OH",44121,41.524226152,-81.543471853,423,"3801 PARKDALE RD, CLEVELAND HEIGHTS, OH, 44121","Match","Exact","3801 PARKDALE RD, CLEVELAND HEIGHTS, OH, 44121",61124366,"L"
568424,"3801 PAYSON AVE","VISALIA","CA",93291,36.3569172700001,-119.333319948,424,"3801 PAYSON AVE, VISALIA, CA, 93291","Match","Non_Exact","3801 W PAYSON AVE, VISALIA, CA, 93291",617653860,"L"
568425,"3801 PEARL STREET APT 6","HATTIESBURG","MS",39401,31.3268324200001,-89.345659032,425,"3801 PEARL STREET APT 6, HATTIESBURG, MS, 39401","Match","Exact","3801 PEARL ST, HATTIESBURG, MS, 39401",323767,"R"
568426,"3801 PEBBLE BEACH DR","JONESBORO","AR",72404,35.8124901030001,-90.779886031,426,"3801 PEBBLE BEACH DR, JONESBORO, AR, 72404","Match","Exact","3801 PEBBLE BEACH DR, JONESBORO, AR, 72404",46924469,"R"
568427,"3801 PGA BLVD SUTIE 604","PALM BEACH GARDENS","FL",33410,NA,NA,427,"3801 PGA BLVD SUTIE 604, PALM BEACH GARDENS, FL, 33410","No_Match",NA,NA,NA,NA
568428,"3801 POPLAR STREET","PHILADELPHIA","PA",19104,39.9732230180001,-75.199419147,428,"3801 POPLAR STREET, PHILADELPHIA, PA, 19104","Match","Exact","3801 POPLAR ST, PHILADELPHIA, PA, 19104",131403548,"R"
568429,"3801 PORT HOPE POINT","TRIANGLE","VA",22172,38.559331205,-77.325171993,429,"3801 PORT HOPE POINT, TRIANGLE, VA, 22172","Match","Exact","3801 PORT HOPE PT, TRIANGLE, VA, 22172",76509811,"R"
568430,"3801 PURCHASE STREET","PURCHASE","NY",10577,41.0485179900001,-73.718004916,430,"3801 PURCHASE STREET, PURCHASE, NY, 10577","Match","Exact","3801 PURCHASE ST, PURCHASE, NY, 10577",641639448,"R"
568431,"3801 QUAIL AVENUE NORTH","ROBBINSDALE","MN",55422,45.024258069,-93.342838661,431,"3801 QUAIL AVENUE NORTH, ROBBINSDALE, MN, 55422","Match","Exact","3801 QUAIL AVE N, ROBBINSDALE, MN, 55422",43618706,"L"
568432,"3801 RIBOT COURT","MODESTO","CA",95356,37.6935371700001,-121.009611306,432,"3801 RIBOT COURT, MODESTO, CA, 95356","Match","Exact","3801 RIBOT CT, MODESTO, CA, 95356",102599932,"L"
568433,"3801 ROUND HILL ROAD","GREENSBORO","NC",27408,36.122026239,-79.8060526689999,433,"3801 ROUND HILL ROAD, GREENSBORO, NC, 27408","Match","Exact","3801 ROUND HILL RD, GREENSBORO, NC, 27408",131030282,"L"
568434,"3801 S  GALLOWAY DR","MEMPHIS","TN",38111,35.1273586140001,-89.935363648,434,"3801 S  GALLOWAY DR, MEMPHIS, TN, 38111","Match","Exact","3801 S GALLOWAY DR, MEMPHIS, TN, 38111",72915983,"R"
568435,"3801 S 31ST ST","TACOMA","WA",98409,47.2322031570001,-122.486167082,435,"3801 S 31ST ST, TACOMA, WA, 98409","Match","Exact","3801 S 31ST ST, TACOMA, WA, 98409",184620122,"R"
568436,"3801 S BANNOCK ST","ENGLEWOOD","CO",80110,39.6474557880001,-104.990106907,436,"3801 S BANNOCK ST, ENGLEWOOD, CO, 80110","Match","Exact","3801 S BANNOCK ST, ENGLEWOOD, CO, 80110",177333532,"R"
568437,"3801 S CLAY ST","GREEN BAY","WI",54301,44.4560846580001,-88.039853764,437,"3801 S CLAY ST, GREEN BAY, WI, 54301","Match","Exact","3801 S CLAY ST, GREEN BAY, WI, 54301",148101494,"L"
568438,"3801 S CONGRESS APT 412","AUSTIN","TX",78704,NA,NA,438,"3801 S CONGRESS APT 412, AUSTIN, TX, 78704","No_Match",NA,NA,NA,NA
568439,"3801 S GREEN CT","SHERIDAN","CO",80110,39.6467973060001,-105.026240066,439,"3801 S GREEN CT, SHERIDAN, CO, 80110","Match","Exact","3801 S GREEN CT, SHERIDAN, CO, 80110",177329900,"R"
568440,"3801 S WABASH AVE","CHICAGO","IL",60653,41.8254425850001,-87.62483249,440,"3801 S WABASH AVE, CHICAGO, IL, 60653","Match","Exact","3801 S WABASH AVE, CHICAGO, IL, 60653",605538632,"L"
568441,"3801 SAINT BARNABAS APT T2","TEMPLE HILLS","MD",20746,NA,NA,441,"3801 SAINT BARNABAS APT T2, TEMPLE HILLS, MD, 20746","No_Match",NA,NA,NA,NA
568442,"3801 SALTERS LANE","SACRAMENTO","CA",95835,38.6624045940001,-121.54761725,442,"3801 SALTERS LANE, SACRAMENTO, CA, 95835","Match","Exact","3801 SALTERS LN, SACRAMENTO, CA, 95835",133408437,"L"
568443,"3801 SAN ANGELO","LAS VEGAS","NV",89102,36.1419497740001,-115.191552508,443,"3801 SAN ANGELO, LAS VEGAS, NV, 89102","Match","Non_Exact","3801 SAN ANGELO AVE, LAS VEGAS, NV, 89102",201869288,"L"
568444,"3801 SANDTRAP CIR","MASON","OH",45040,39.3441756930001,-84.289503295,444,"3801 SANDTRAP CIR, MASON, OH, 45040","Match","Exact","3801 SANDTRAP CIR, MASON, OH, 45040",159037108,"L"
568445,"3801 SANDTRAP CIRCLE","MASON","OH",45040,39.3441756930001,-84.289503295,445,"3801 SANDTRAP CIRCLE, MASON, OH, 45040","Match","Exact","3801 SANDTRAP CIR, MASON, OH, 45040",159037108,"L"
568446,"3801 SENTINEL DRIVE","MOSS POINT","MS",39562,30.4769665000001,-88.547656939,446,"3801 SENTINEL DRIVE, MOSS POINT, MS, 39562","Match","Exact","3801 SENTINEL DR, MOSS POINT, MS, 39562",640015257,"L"
568447,"3801 SHANNON DR","HARVEY","LA",70058,29.85184149,-90.071982844,447,"3801 SHANNON DR, HARVEY, LA, 70058","Match","Exact","3801 SHANNON DR, HARVEY, LA, 70058",93509911,"R"
568448,"3801 SHANNON DRIVE","HARVEY","LA",70058,29.85184149,-90.071982844,448,"3801 SHANNON DRIVE, HARVEY, LA, 70058","Match","Exact","3801 SHANNON DR, HARVEY, LA, 70058",93509911,"R"
568449,"3801 SIOUX TRAIL","JACKSONVILLE","AR",72076,34.898360073,-92.085769109,449,"3801 SIOUX TRAIL, JACKSONVILLE, AR, 72076","Match","Exact","3801 SIOUX TRL, JACKSONVILLE, AR, 72076",83519614,"L"
568450,"3801 SKIPPER BRIDGE RD","VALDOSTA","GA",31605,30.936260347,-83.2648415909999,450,"3801 SKIPPER BRIDGE RD, VALDOSTA, GA, 31605","Match","Exact","3801 SKIPPER BRIDGE RD, VALDOSTA, GA, 31605",87735553,"L"
568451,"3801 SOUTH 11TH STREET A","GRAND FORKS","ND",58203,NA,NA,451,"3801 SOUTH 11TH STREET A, GRAND FORKS, ND, 58203","No_Match",NA,NA,NA,NA
568452,"3801 SOUTH ACACIA COURT","CHANDLER","AZ",85248,33.250003357,-111.882493486,452,"3801 SOUTH ACACIA COURT, CHANDLER, AZ, 85248","Match","Exact","3801 S ACACIA CT, CHANDLER, AZ, 85248",128797363,"L"
568453,"3801 SOUTH JAMES ST SUITE 100","GRIMES","IA",50111,NA,NA,453,"3801 SOUTH JAMES ST SUITE 100, GRIMES, IA, 50111","No_Match",NA,NA,NA,NA
568454,"3801 SOUTHERN PKWY","BRADENTON","FL",34205,27.4705671940001,-82.598586477,454,"3801 SOUTHERN PKWY, BRADENTON, FL, 34205","Match","Non_Exact","3801 SOUTHERN PKWY W, BRADENTON, FL, 34205",16286011,"L"
568455,"3801 SPARROW COURT","LEXINGTON","KY",40514,37.9751030780001,-84.5596597479999,455,"3801 SPARROW COURT, LEXINGTON, KY, 40514","Match","Exact","3801 SPARROW CT, LEXINGTON, KY, 40514",31930630,"R"
568456,"3801 SPLITRAIL ROAD","RICHMOND","VA",23223,37.5541309120001,-77.378247952,456,"3801 SPLITRAIL ROAD, RICHMOND, VA, 23223","Match","Non_Exact","3801 SPLIT RAIL RD, RICHMOND, VA, 23223",106669398,"L"
568457,"3801 SPRING GARDEN STREET - APT 110","PHILADELPHIA","PA",19104,39.9622731690001,-75.197373327,457,"3801 SPRING GARDEN STREET - APT 110, PHILADELPHIA, PA, 19104","Match","Exact","3801 SPRING GARDEN ST, PHILADELPHIA, PA, 19104",131403606,"R"
568458,"3801 SPRING GROVE RD","BETHEL","OH",45106,38.959874939,-84.035433176,458,"3801 SPRING GROVE RD, BETHEL, OH, 45106","Match","Exact","3801 SPRING GROVE RD, BETHEL, OH, 45106",637579538,"L"
568459,"3801 SPRING RD","N PRINCE GEORGE","VA",23860,37.2638524320001,-77.309872615,459,"3801 SPRING RD, N PRINCE GEORGE, VA, 23860","Match","Exact","3801 SPRING RD, NORTH PRINCE GEORGE, VA, 23860",54154081,"R"
568460,"3801 ST ANDREWS CT","MIDLAND","TX",79707,32.0228044410001,-102.135514842,460,"3801 ST ANDREWS CT, MIDLAND, TX, 79707","Match","Exact","3801 ST ANDREWS CT, MIDLAND, TX, 79707",139578584,"R"
568461,"3801 STARLIGHT LANE","LANSING","MI",48911,42.698706805,-84.60178417,461,"3801 STARLIGHT LANE, LANSING, MI, 48911","Match","Exact","3801 STARLIGHT LN, LANSING, MI, 48911",17496819,"L"
568462,"3801 STARRS CENTRE DR","CANFIELD","OH",44406,41.025426688,-80.717515678,462,"3801 STARRS CENTRE DR, CANFIELD, OH, 44406","Match","Non_Exact","3801 STARR CENTRE DR, CANFIELD, OH, 44406",64608651,"L"
568463,"3801 STONE WAY N APT 105","SEATTLE","WA",98103,47.6528150880001,-122.342578769,463,"3801 STONE WAY N APT 105, SEATTLE, WA, 98103","Match","Exact","3801 STONE WAY N, SEATTLE, WA, 98103",186583014,"L"
568464,"3801 SUNCHASE CIRCLE","HARLINGEN","TX",78550,NA,NA,464,"3801 SUNCHASE CIRCLE, HARLINGEN, TX, 78550","No_Match",NA,NA,NA,NA
568465,"3801 SW 160TH AVE APT 102","MIRAMAR","FL",33027,25.973326377,-80.358902966,465,"3801 SW 160TH AVE APT 102, MIRAMAR, FL, 33027","Match","Non_Exact","3801 SW 160TH AVE, MIRAMAR, FL, 33027",617658433,"L"
568466,"3801 TAMARA TRAIL","WILDWOOD","MO",63069,38.547940559,-90.695405673,466,"3801 TAMARA TRAIL, WILDWOOD, MO, 63069","Match","Exact","3801 TAMARA TRL, WILDWOOD, MO, 63069",627118814,"R"
568467,"3801 TIGHE COURT","RICHMOND","VA",23223,37.560235004,-77.367775148,467,"3801 TIGHE COURT, RICHMOND, VA, 23223","Match","Exact","3801 TIGHE CT, RICHMOND, VA, 23223",106659383,"R"
568468,"3801 TOPPING AVENUE","KANSAS CITY","MO",64129,39.056056116,-94.516617933,468,"3801 TOPPING AVENUE, KANSAS CITY, MO, 64129","Match","Exact","3801 TOPPING AVE, KANSAS CITY, MO, 64129",91453178,"L"
568469,"3801 VANCE RD","RICHLAND HILLS","TX",76118,32.8185324070001,-97.2297361079999,469,"3801 VANCE RD, RICHLAND HILLS, TX, 76118","Match","Exact","3801 VANCE RD, RICHLAND HILLS, TX, 76118",101863282,"L"
568470,"3801 W 52ND PL","TULSA","OK",74107,36.0867667200001,-96.0357789339999,470,"3801 W 52ND PL, TULSA, OK, 74107","Match","Exact","3801 W 52ND PL, TULSA, OK, 74107",166441006,"R"
568471,"3801 W BAY TO BAY BLVD","TAMPA","FL",33629,27.9197741630001,-82.506118172,471,"3801 W BAY TO BAY BLVD, TAMPA, FL, 33629","Match","Exact","3801 W BAY TO BAY BLVD, TAMPA, FL, 33629",104526947,"R"
568472,"3801 W DORIAN STREET","BOISE","ID",83705,43.588520793,-116.228801096,472,"3801 W DORIAN STREET, BOISE, ID, 83705","Match","Exact","3801 DORIAN ST, BOISE, ID, 83705",117889902,"L"
568473,"3801 W FERGUSON RD","FORT WAYNE","IN",46809,40.989070928,-85.186054443,473,"3801 W FERGUSON RD, FORT WAYNE, IN, 46809","Match","Exact","3801 W FERGUSON RD, FORT WAYNE, IN, 46809",6382000,"L"
568474,"3801 W STATE ROAD 84 UNIT 202","DAVIE","FL",33312,NA,NA,474,"3801 W STATE ROAD 84 UNIT 202, DAVIE, FL, 33312","No_Match",NA,NA,NA,NA
568475,"3801 W TEMPLE AVE BLDG 164","POMONA","CA",91768,34.0498030380001,-117.815586147,475,"3801 W TEMPLE AVE BLDG 164, POMONA, CA, 91768","Match","Non_Exact","3801 W TEMPLE AVE, POMONA, CA, 91768",642863410,"L"
568476,"3801 WEST 24TH STREET","LAWRENCE","KS",66047,38.940626566,-95.287017459,476,"3801 WEST 24TH STREET, LAWRENCE, KS, 66047","Match","Exact","3801 W 24TH ST, LAWRENCE, KS, 66047",17683026,"L"
568477,"3801 WEST JOHN STREET APT A","MCHENRY","IL",60050,42.3421632060001,-88.272164601,477,"3801 WEST JOHN STREET APT A, MCHENRY, IL, 60050","Match","Exact","3801 W JOHN ST, MCHENRY, IL, 60050",119819197,"R"
568478,"3801 WEST TEMPLE AVENUE","POMONA","CA",91768,34.0498005520001,-117.815579833,478,"3801 WEST TEMPLE AVENUE, POMONA, CA, 91768","Match","Exact","3801 W TEMPLE AVE, POMONA, CA, 91768",642863410,"L"
568479,"3801 WEST VILLARD AVENUE","MILWAUKEE","WI",53209,43.1119279330001,-87.9601546329999,479,"3801 WEST VILLARD AVENUE, MILWAUKEE, WI, 53209","Match","Exact","3801 W VILLARD AVE, MILWAUKEE, WI, 53209",77735503,"L"
568480,"3801 WILLOW LAKE DRIVE 213","KALAMAZOO","MI",49008,42.2563560040001,-85.628681544,480,"3801 WILLOW LAKE DRIVE 213, KALAMAZOO, MI, 49008","Match","Exact","3801 WILLOW LAKE DR, KALAMAZOO, MI, 49008",653386282,"L"
568481,"3801-1 PADDEWHEEL DRIVE","JACKSONVILLE","FL",32257,30.1975315970001,-81.615416667,481,"3801-1 PADDEWHEEL DRIVE, JACKSONVILLE, FL, 32257","Match","Non_Exact","3801 PADDLEWHEEL DR, JACKSONVILLE, FL, 32257",83966266,"L"
568482,"38010 N GROVE RD","DEER PARK","WA",99006,48.001107979,-117.50178662,482,"38010 N GROVE RD, DEER PARK, WA, 99006","Match","Exact","38010 N GROVE RD, DEER PARK, WA, 99006",189900722,"R"
568483,"38010 TAPIOLA","CHASSELL","MI",49916,46.9673575630001,-88.625659828,483,"38010 TAPIOLA, CHASSELL, MI, 49916","Match","Non_Exact","38010 TAPIOLA RD, CHASSELL, MI, 49916",633637932,"R"
568484,"38013 TRINITY CIRCLE","NEW LONDON","NC",28127,35.421975151,-80.1942647659999,484,"38013 TRINITY CIRCLE, NEW LONDON, NC, 28127","Match","Exact","38013 TRINITY CIR, NEW LONDON, NC, 28127",14099618,"L"
568485,"38014 STONEY LAKE DR","NORTH RIDGEVILLE","OH",44039,41.408992341,-82.049002054,485,"38014 STONEY LAKE DR, NORTH RIDGEVILLE, OH, 44039","Match","Exact","38014 STONEY LAKE DR, N RIDGEVILLE, OH, 44039",625454323,"L"
568486,"38015 SR 30","LISBON","OH",44432,40.77175421,-80.7860305519999,486,"38015 SR 30, LISBON, OH, 44432","Match","Non_Exact","38015 US HWY 30, LISBON, OH, 44432",639908194,"R"
568487,"38016 AIDEA STREET","PALMDALE","CA",93552,34.573121884,-118.005521666,487,"38016 AIDEA STREET, PALMDALE, CA, 93552","Match","Exact","38016 AIDEA ST, PALMDALE, CA, 93552",625725531,"R"
568488,"3802 14TH ST NW 610","WASHINGTON","DC",20010,38.9379788520001,-77.0327330599999,488,"3802 14TH ST NW 610, WASHINGTON, DC, 20010","Match","Non_Exact","3802 14TH ST NW, WASHINGTON, DC, 20011",76222492,"L"
568489,"3802 223RD AVE SE","SAMMAMISH","WA",98075,47.5754697500001,-122.042386177,489,"3802 223RD AVE SE, SAMMAMISH, WA, 98075","Match","Exact","3802 223RD AVE SE, SAMMAMISH, WA, 98075",651315059,"L"
568490,"3802 232ND STREET COURT EAST","SPANAWAY","WA",98387,47.0455506230001,-122.378940528,490,"3802 232ND STREET COURT EAST, SPANAWAY, WA, 98387","Match","Exact","3802 232ND STREET CT E, SPANAWAY, WA, 98387",629136148,"R"
568491,"3802 ARROW DRIVE","AUSTIN","TX",78749,30.202485203,-97.8429646659999,491,"3802 ARROW DRIVE, AUSTIN, TX, 78749","Match","Exact","3802 ARROW DR, AUSTIN, TX, 78749",63974325,"R"
568492,"3802 ARROWHEAD COURT","EL DORADO HILLS","CA",95762,38.6580001230001,-121.076131476,492,"3802 ARROWHEAD COURT, EL DORADO HILLS, CA, 95762","Match","Exact","3802 ARROWHEAD CT, EL DORADO HILLS, CA, 95762",133038748,"L"
568493,"3802 ASH STREET","KALAMAZOO","MI",49001,42.2540628830001,-85.5824814389999,493,"3802 ASH STREET, KALAMAZOO, MI, 49001","Match","Exact","3802 ASH ST, KALAMAZOO, MI, 49001",12229582,"R"
568494,"3802 ASTOR AVE","COLUMBUS","OH",43227,39.9501427700001,-82.895561738,494,"3802 ASTOR AVE, COLUMBUS, OH, 43227","Match","Exact","3802 ASTOR AVE, COLUMBUS, OH, 43227",218649763,"L"
568495,"3802 AYNOR DR","BOWIE","MD",20721,38.9435330790001,-76.8163439849999,495,"3802 AYNOR DR, BOWIE, MD, 20721","Match","Exact","3802 AYNOR DR, BOWIE, MD, 20721",76353640,"R"
568496,"3802 BARRINGTON ROAD","BALTIMORE","MD",21215,39.330867471,-76.6794897679999,496,"3802 BARRINGTON ROAD, BALTIMORE, MD, 21215","Match","Exact","3802 BARRINGTON RD, BALTIMORE, MD, 21215",206405572,"R"
568497,"3802 BAYLOR ST","GREENSBORO","NC",27405,36.1260762840001,-79.799888466,497,"3802 BAYLOR ST, GREENSBORO, NC, 27405","Match","Exact","3802 BAYLOR ST, GREENSBORO, NC, 27405",131030307,"R"
568498,"3802 BENNETT AVE","FLINT","MI",48506,43.03635775,-83.6391614039999,498,"3802 BENNETT AVE, FLINT, MI, 48506","Match","Exact","3802 BENNETT AVE, FLINT, MI, 48506",69570485,"R"
568499,"3802 BERKSHIRE WAY","GROVETOWN","GA",30813,33.4953003590001,-82.219549929,499,"3802 BERKSHIRE WAY, GROVETOWN, GA, 30813","Match","Exact","3802 BERKSHIRE WAY, GROVETOWN, GA, 30813",641032029,"L"
568500,"3802 BLUE SPRING TRACE","EVANS","GA",30809,33.523993193,-82.22260209,500,"3802 BLUE SPRING TRACE, EVANS, GA, 30809","Match","Exact","3802 BLUE SPRINGS TRCE, EVANS, GA, 30809",641585869,"L"
