"ID","Address","City","State","Zip","lat","long","id","input_address","match_indicator","match_type","matched_address","tiger_line_id","tiger_side"
430501,"267 HOBSON STREET","NEWARK","NJ",7112,40.7113419140001,-74.221529774,1,"267 HOBSON STREET, NEWARK, NJ, 7112","Match","Exact","267 HOBSON ST, NEWARK, NJ, 07112",63465172,"R"
430502,"267 HONEYSUCKLE DR","CHESHIRE","OH",45620,38.890407629,-82.14657085,2,"267 HONEYSUCKLE DR, CHESHIRE, OH, 45620","Match","Exact","267 HONEYSUCKLE DR, CHESHIRE, OH, 45620",647055002,"L"
430503,"267 HOUSTON STREET","MOBILE","AL",36606,30.6760468100001,-88.0814544099999,3,"267 HOUSTON STREET, MOBILE, AL, 36606","Match","Exact","267 HOUSTON ST, MOBILE, AL, 36606",61932684,"L"
430504,"267 HUNTER ROAD","LONGVIEW","TX",75605,32.618600047,-94.7296146039999,4,"267 HUNTER ROAD, LONGVIEW, TX, 75605","Match","Exact","267 HUNTER RD, LONGVIEW, TX, 75605",141124642,"L"
430505,"267 HUNTERS ROAD","LONGVIEW","TX",75605,32.597806726,-94.732299586,5,"267 HUNTERS ROAD, LONGVIEW, TX, 75605","Match","Non_Exact","267 HUNTERS CIR, LONGVIEW, TX, 75605",141122470,"L"
430506,"267 HUNTINGTON AVE","VENTURA","CA",93004,34.277884821,-119.190549716,6,"267 HUNTINGTON AVE, VENTURA, CA, 93004","Match","Exact","267 HUNTINGTON AVE, VENTURA, CA, 93004",109956551,"R"
430507,"267 HWY 395 SOUTH","COLVILLE","WA",99114,48.506708141,-117.901982741,7,"267 HWY 395 SOUTH, COLVILLE, WA, 99114","Match","Exact","267 HWY 395 S, COLVILLE, WA, 99114",629080110,"R"
430508,"267 JAMES RD","POINT ROBERTS","WA",98281,48.993255559,-123.060885325,8,"267 JAMES RD, POINT ROBERTS, WA, 98281","Match","Exact","267 JAMES RD, POINT ROBERTS, WA, 98281",625027813,"L"
430509,"267 JESSE DRIVE","SMITHFIELD","NC",27577,35.53464761,-78.486874555,9,"267 JESSE DRIVE, SMITHFIELD, NC, 27577","Match","Exact","267 JESSE DR, SMITHFIELD, NC, 27577",26559888,"R"
430510,"267 JETER STREET","CLIFFWOOD","NJ",7721,40.4364447740001,-74.237082151,10,"267 JETER STREET, CLIFFWOOD, NJ, 7721","Match","Exact","267 JETER ST, CLIFFWOOD, NJ, 07721",90508013,"L"
430511,"267 JOB CORP RD","ROYAL","AR",71968,NA,NA,11,"267 JOB CORP RD, ROYAL, AR, 71968","No_Match",NA,NA,NA,NA
430512,"267 JOSHUA LN","WYCKOFF","NJ",7481,41.0186289120001,-74.165956556,12,"267 JOSHUA LN, WYCKOFF, NJ, 7481","Match","Exact","267 JOSHUA LN, WYCKOFF, NJ, 07481",64412401,"L"
430513,"267 KALIPONI STREET","WAHIAWA","HI",96786,21.496623518,-158.036918996,13,"267 KALIPONI STREET, WAHIAWA, HI, 96786","Match","Exact","267 KALIPONI ST, WAHIAWA, HI, 96786",203224436,"R"
430514,"267 KAMALEI","KAHULUI","HI",96732,20.874582059,-156.492124368,14,"267 KAMALEI, KAHULUI, HI, 96732","Match","Non_Exact","267 KAMALEI CIR, KAHULUI, HI, 96732",85102319,"R"
430515,"267 KEITH AVENUE","AKRON","OH",44313,41.1243331960001,-81.586256803,15,"267 KEITH AVENUE, AKRON, OH, 44313","Match","Exact","267 KEITH AVE, AKRON, OH, 44313",61337420,"R"
430516,"267 KENTLANDS BLVD STE 18406","GAITHERSBURG","MD",20878,39.1234424940001,-77.239228727,16,"267 KENTLANDS BLVD STE 18406, GAITHERSBURG, MD, 20878","Match","Exact","267 KENTLANDS BLVD, GAITHERSBURG, MD, 20878",62127036,"R"
430517,"267 KIMBERLEA ROAD","MADISON HEIGHTS","VA",24572,37.522140651,-79.1749124039999,17,"267 KIMBERLEA ROAD, MADISON HEIGHTS, VA, 24572","Match","Exact","267 KIMBERLEA RD, MADISON HEIGHTS, VA, 24572",159121489,"R"
430518,"267 KING ROAD","TIVERTON","RI",2878,41.602426307,-71.153696608,18,"267 KING ROAD, TIVERTON, RI, 2878","Match","Exact","267 KING RD, TIVERTON, RI, 02878",47359495,"L"
430519,"267 LAKE ST","ARLINGTON","MA",2474,42.402896292,-71.158590669,19,"267 LAKE ST, ARLINGTON, MA, 2474","Match","Exact","267 LAKE ST, ARLINGTON, MA, 02474",86888483,"R"
430520,"267 LAWSON ST","HEMPSTEAD","NY",11550,40.6941623390001,-73.611098235,20,"267 LAWSON ST, HEMPSTEAD, NY, 11550","Match","Exact","267 LAWSON ST, HEMPSTEAD, NY, 11550",147629189,"L"
430521,"267 LINCOLN AVENUE","BARRINGTON","RI",2806,41.74616165,-71.31768627,21,"267 LINCOLN AVENUE, BARRINGTON, RI, 2806","Match","Exact","267 LINCOLN AVE, BARRINGTON, RI, 02806",46479528,"R"
430522,"267 LITTLE RIVER 107","FOREMAN","AR",71836,NA,NA,22,"267 LITTLE RIVER 107, FOREMAN, AR, 71836","No_Match",NA,NA,NA,NA
430523,"267 LITTLE RIVER 107","FOREMAN","CA",71836,NA,NA,23,"267 LITTLE RIVER 107, FOREMAN, CA, 71836","No_Match",NA,NA,NA,NA
430524,"267 MAITLAND AVENUE","TEANECK","NJ",7666,40.904581007,-74.008279343,24,"267 MAITLAND AVENUE, TEANECK, NJ, 7666","Match","Exact","267 MAITLAND AVE, TEANECK, NJ, 07666",64388877,"R"
430525,"267 MILLIS ROAD","NEWPORT","NC",28570,34.7693926420001,-76.937718844,25,"267 MILLIS ROAD, NEWPORT, NC, 28570","Match","Exact","267 MILLIS RD, NEWPORT, NC, 28570",33856351,"R"
430526,"267 MOSSY WAY NW","KENNESAW","GA",30152,33.955722306,-84.689284371,26,"267 MOSSY WAY NW, KENNESAW, GA, 30152","Match","Exact","267 MOSSY WAY NW, KENNESAW, GA, 30152",17223932,"R"
430527,"267 MOUNT VERNON RIDGE RD","WAYNE","WV",25570,38.274733118,-82.45985784,27,"267 MOUNT VERNON RIDGE RD, WAYNE, WV, 25570","Match","Exact","267 MOUNT VERNON RIDGE RD, WAYNE, WV, 25570",57195581,"L"
430528,"267 MULBERRY LANE","LINDALE","GA",30147,34.0925760980001,-85.197207491,28,"267 MULBERRY LANE, LINDALE, GA, 30147","Match","Exact","267 MULBERRY LN, LINDALE, GA, 30147",625333254,"L"
430529,"267 N GARFIELD STREET","LOMBARD","IL",60148,41.8935533580001,-88.0147219469999,29,"267 N GARFIELD STREET, LOMBARD, IL, 60148","Match","Exact","267 N GARFIELD ST, LOMBARD, IL, 60148",112523746,"R"
430530,"267 N HANCOCK ST","GARY","IN",46403,41.609894458,-87.2678121499999,30,"267 N HANCOCK ST, GARY, IN, 46403","Match","Exact","267 N HANCOCK ST, GARY, IN, 46403",98427909,"R"
430531,"267 N STURBRIDGE RD","CHARLTON","MA",1507,NA,NA,31,"267 N STURBRIDGE RD, CHARLTON, MA, 1507","Tie",NA,NA,NA,NA
430532,"267 NE 160 TERRACE","NORTH MIAMI BEACH","FL",33122,25.9224655830001,-80.194763962,32,"267 NE 160 TERRACE, NORTH MIAMI BEACH, FL, 33122","Match","Non_Exact","267 NE 160TH TER, N MIAMI BEACH, FL, 33162",116031163,"L"
430533,"267 NELLE AVE APT A","PANAMA CITY","FL",32404,30.151949852,-85.561811619,33,"267 NELLE AVE APT A, PANAMA CITY, FL, 32404","Match","Non_Exact","267 NELLE ST, PANAMA CITY, FL, 32404",625218352,"R"
430534,"267 NELSON ROAD","LISBON","NY",13658,44.7667766860001,-75.339454178,34,"267 NELSON ROAD, LISBON, NY, 13658","Match","Exact","267 NELSON RD, LISBON, NY, 13658",652648435,"L"
430535,"267 NORTH GATE ROAD","MANCHESTER","NH",3104,43.0277536130001,-71.456197921,35,"267 NORTH GATE ROAD, MANCHESTER, NH, 3104","Match","Exact","267 N GATE RD, MANCHESTER, NH, 03104",113546112,"R"
430536,"267 NORTH MYRTLE AVENUE","ELMHURST","IL",60126,41.905234383,-87.948843787,36,"267 NORTH MYRTLE AVENUE, ELMHURST, IL, 60126","Match","Exact","267 N MYRTLE AVE, ELMHURST, IL, 60126",112544762,"R"
430537,"267 NORTH PENNY LANE","ROANOKE RAPIDS","NC",27870,36.4531370660001,-77.698501473,37,"267 NORTH PENNY LANE, ROANOKE RAPIDS, NC, 27870","Match","Non_Exact","267 N PENNY ST, ROANOKE RAPIDS, NC, 27870",56739053,"R"
430538,"267 OAK MEADOWS LANE","OAKVILLE","WA",98568,46.8391775640001,-123.274936562,38,"267 OAK MEADOWS LANE, OAKVILLE, WA, 98568","Match","Exact","267 OAK MEADOWS LN, OAKVILLE, WA, 98568",180607512,"L"
430539,"267 OAK MEADOWS LN","OAKVILLE","WA",98568,46.8391775640001,-123.274936562,39,"267 OAK MEADOWS LN, OAKVILLE, WA, 98568","Match","Exact","267 OAK MEADOWS LN, OAKVILLE, WA, 98568",180607512,"L"
430540,"267 OAKWOOD DRIVE","LANCASTER","TX",75146,32.58830863,-96.796000034,40,"267 OAKWOOD DRIVE, LANCASTER, TX, 75146","Match","Exact","267 OAKWOOD DR, LANCASTER, TX, 75146",102990515,"L"
430541,"267 OLD FARM ROAD","SEWANEE","TN",37375,35.2137745150001,-85.9253692839999,41,"267 OLD FARM ROAD, SEWANEE, TN, 37375","Match","Exact","267 OLD FARM RD, SEWANEE, TN, 37375",57978003,"L"
430542,"267 OLD STATE RD","BAILEY","CO",80421,39.426410638,-105.469706971,42,"267 OLD STATE RD, BAILEY, CO, 80421","Match","Exact","267 OLD STATE RD, BAILEY, CO, 80421",635476831,"R"
430543,"267 OSBORN STREET","BROOKLYN","NY",11212,40.665347341,-73.907763957,43,"267 OSBORN STREET, BROOKLYN, NY, 11212","Match","Exact","267 OSBORN ST, BROOKLYN, NY, 11212",59098864,"L"
430544,"267 OXFORD ST  APT 707","ROCHESTER","NY",14607,43.1503120260001,-77.586091676,44,"267 OXFORD ST  APT 707, ROCHESTER, NY, 14607","Match","Exact","267 OXFORD ST, ROCHESTER, NY, 14607",14540877,"R"
430545,"267 OXMOOR PL","BIRMINGHAM","AL",35211,33.4272116080001,-86.8542325719999,45,"267 OXMOOR PL, BIRMINGHAM, AL, 35211","Match","Exact","267 OXMOOR PL, BIRMINGHAM, AL, 35211",618695061,"L"
430546,"267 PALM AVE","ASHLAND","OR",97520,42.189610707,-122.697644715,46,"267 PALM AVE, ASHLAND, OR, 97520","Match","Exact","267 PALM AVE, ASHLAND, OR, 97520",627896464,"L"
430547,"267 PAYNE RIDGE RD","CHURCH HILL","TN",37642,36.5593156460001,-82.749748397,47,"267 PAYNE RIDGE RD, CHURCH HILL, TN, 37642","Match","Exact","267 PAYNE RIDGE RD, CHURCH HILL, TN, 37642",42409166,"L"
430548,"267 PEARL HARBOR ST","BRIDGEPORT","CT",6610,41.1998773500001,-73.161242277,48,"267 PEARL HARBOR ST, BRIDGEPORT, CT, 6610","Match","Exact","267 PEARL HARBOR ST, BRIDGEPORT, CT, 06610",3283680,"L"
430549,"267 PETERS STREET SW UNIT 208","ATLANTA","GA",30313,33.7473032940001,-84.401875,49,"267 PETERS STREET SW UNIT 208, ATLANTA, GA, 30313","Match","Exact","267 PETERS ST SW, ATLANTA, GA, 30313",642631508,"R"
430550,"267 PINE OAK DRIVE","SOUTHINGTON","CT",6489,41.586774238,-72.852344182,50,"267 PINE OAK DRIVE, SOUTHINGTON, CT, 6489","Match","Exact","267 PINE OAK DR, SOUTHINGTON, CT, 06489",3537345,"L"
430551,"267 RED LANE","THERMOPOLIS","WY",82443,43.6761576430001,-108.205711875,51,"267 RED LANE, THERMOPOLIS, WY, 82443","Match","Exact","267 RED LN, THERMOPOLIS, WY, 82443",148933596,"L"
430552,"267 REED AVE","OVIEDO","FL",33765,28.673563922,-81.190617886,52,"267 REED AVE, OVIEDO, FL, 33765","Match","Non_Exact","267 REED AVE, OVIEDO, FL, 32765",93740906,"L"
430553,"267 REED AVENUE","OVIEDO","FL",32765,28.673563922,-81.190617886,53,"267 REED AVENUE, OVIEDO, FL, 32765","Match","Exact","267 REED AVE, OVIEDO, FL, 32765",93740906,"L"
430554,"267 RESERVATION CR ROAD","FORSYTH","MT",59327,46.2460208630001,-106.942694027,54,"267 RESERVATION CR ROAD, FORSYTH, MT, 59327","Match","Exact","267 RESERVATION CREEK RD, FORSYTH, MT, 59327",151113723,"R"
430555,"267 RICHARDS AVE APT 1","PORTSMOUTH","NH",3801,43.069587207,-70.759006712,55,"267 RICHARDS AVE APT 1, PORTSMOUTH, NH, 3801","Match","Exact","267 RICHARDS AVE, PORTSMOUTH, NH, 03801",113666852,"L"
430556,"267 ROBERTS STREET","POMONA","CA",91767,34.084188204,-117.747635461,56,"267 ROBERTS STREET, POMONA, CA, 91767","Match","Exact","267 ROBERTS ST, POMONA, CA, 91767",141733419,"L"
430557,"267 ROBINSON ROAD","MARS HILL","NC",28754,35.868549597,-82.434908702,57,"267 ROBINSON ROAD, MARS HILL, NC, 28754","Match","Exact","267 ROBINSON RD, MARS HILL, NC, 28754",40934702,"R"
430558,"267 S 425 W","BOUNTIFUL","UT",84010,40.8864192130001,-111.890726656,58,"267 S 425 W, BOUNTIFUL, UT, 84010","Match","Exact","267 S 425 W, BOUNTIFUL, UT, 84010",155350764,"L"
430559,"267 S 50 W","KAYSVILLE","UT",84037,41.030780495,-111.939266664,59,"267 S 50 W, KAYSVILLE, UT, 84037","Match","Exact","267 S 50 W, KAYSVILLE, UT, 84037",625040194,"L"
430560,"267 S 930 W","PLEASANT GROVE","UT",84062,NA,NA,60,"267 S 930 W, PLEASANT GROVE, UT, 84062","No_Match",NA,NA,NA,NA
430561,"267 S HARRINGTON RD","PARMA","MI",49269,42.236584824,-84.571064015,61,"267 S HARRINGTON RD, PARMA, MI, 49269","Match","Exact","267 S HARRINGTON RD, PARMA, MI, 49269",17614117,"L"
430562,"267 S SAN PEDRO ST NUM 604","LOS ANGELES","CA",90012,34.0476504060001,-118.242391486,62,"267 S SAN PEDRO ST NUM 604, LOS ANGELES, CA, 90012","Match","Non_Exact","267 S SAN PEDRO ST, LOS ANGELES, CA, 90012",652036500,"R"
430563,"267 SANTIAGO AVE","RUTHERFORD","NJ",7070,40.832662021,-74.11648546,63,"267 SANTIAGO AVE, RUTHERFORD, NJ, 7070","Match","Exact","267 SANTIAGO AVE, RUTHERFORD, NJ, 07070",64394235,"L"
430564,"267 SARATOGA STREET S","SAINT PAUL","MN",55105,NA,NA,64,"267 SARATOGA STREET S, SAINT PAUL, MN, 55105","No_Match",NA,NA,NA,NA
430565,"267 SECOND AVENUE","SALT LAKE CITY","UT",84103,40.7717092190001,-111.88150764,65,"267 SECOND AVENUE, SALT LAKE CITY, UT, 84103","Match","Exact","267 2ND AVE, SALT LAKE CITY, UT, 84103",176101648,"L"
430566,"267 SHEFF RD","SOUTH NEW BERLIN","NY",13843,42.5593436440001,-75.431794936,66,"267 SHEFF RD, SOUTH NEW BERLIN, NY, 13843","Match","Exact","267 SHEFF RD, S NEW BERLIN, NY, 13843",46437368,"L"
430567,"267 SINGLE PETAL ST","HENDERSON","NV",89074,36.0481855720001,-115.036244533,67,"267 SINGLE PETAL ST, HENDERSON, NV, 89074","Match","Exact","267 SINGLE PETAL ST, HENDERSON, NV, 89074",201953814,"R"
430568,"267 SOUTH 425 WEST","BOUNTIFUL","UT",84010,40.886428837,-111.89072701,68,"267 SOUTH 425 WEST, BOUNTIFUL, UT, 84010","Match","Exact","267 S 425 W, BOUNTIFUL, UT, 84010",155350764,"L"
430569,"267 SOUTH MILL BRANCH","CLEARFIELD","KY",40313,38.1583874900001,-83.435755146,69,"267 SOUTH MILL BRANCH, CLEARFIELD, KY, 40313","Match","Non_Exact","267 S MILL BRANCH RD, CLEARFIELD, KY, 40313",39625269,"L"
430570,"267 SOUTH ST","NEW PROVIDENCE","NJ",7974,40.697786815,-74.401674626,70,"267 SOUTH ST, NEW PROVIDENCE, NJ, 7974","Match","Exact","267 SOUTH ST, NEW PROVIDENCE, NJ, 07974",60564375,"R"
430571,"267 SOUTH SUN-N-LAKE BLVD","LAKE PLACID","FL",33852,NA,NA,71,"267 SOUTH SUN-N-LAKE BLVD, LAKE PLACID, FL, 33852","No_Match",NA,NA,NA,NA
430572,"267 ST JAMES PL","BROOKLYN","NY",10010,40.6817006750001,-73.963434472,72,"267 ST JAMES PL, BROOKLYN, NY, 10010","Match","Non_Exact","267 ST JAMES PL, BROOKLYN, NY, 11238",59078050,"L"
430573,"267 STANDART WOODS","AUBURN","NY",13021,NA,NA,73,"267 STANDART WOODS, AUBURN, NY, 13021","No_Match",NA,NA,NA,NA
430574,"267 STATE HIGHWAY 37 C","MASSENA","NY",13662,NA,NA,74,"267 STATE HIGHWAY 37 C, MASSENA, NY, 13662","No_Match",NA,NA,NA,NA
430575,"267 STATE ROUTE 711","JONES MILLS","PA",15646,40.086207309,-79.34986606,75,"267 STATE ROUTE 711, JONES MILLS, PA, 15646","Match","Exact","267 STATE RTE 711, JONES MILLS, PA, 15646",638159828,"L"
430576,"267 SUGAR PINE DRIVE","MIDDLETOWN","DE",19709,39.520020188,-75.6345911079999,76,"267 SUGAR PINE DRIVE, MIDDLETOWN, DE, 19709","Match","Exact","267 SUGAR PINE DR, MIDDLETOWN, DE, 19709",187276856,"R"
430577,"267 SUNSET BLVD","HAYWARD","CA",94541,37.6724385090001,-122.101766603,77,"267 SUNSET BLVD, HAYWARD, CA, 94541","Match","Exact","267 SUNSET BLVD, HAYWARD, CA, 94541",606342590,"R"
430578,"267 SUNSET DR","STANDARDSVILLE","VA",22973,38.2801853560001,-78.4377940859999,78,"267 SUNSET DR, STANDARDSVILLE, VA, 22973","Match","Non_Exact","267 SUNSET DR, STANARDSVILLE, VA, 22973",29865130,"R"
430579,"267 SW JIM WITT ROAD","LAKE CITY","FL",32025,30.0802095170001,-82.6038715299999,79,"267 SW JIM WITT ROAD, LAKE CITY, FL, 32025","Match","Exact","267 JIM WITT RD, LAKE CITY, FL, 32025",633725043,"L"
430580,"267 SW LUCERO DRIVE","PORT SAINT LUCIE","FL",34983,27.3140551990001,-80.35378156,80,"267 SW LUCERO DRIVE, PORT SAINT LUCIE, FL, 34983","Match","Exact","267 SW LUCERO DR, PORT ST LUCIE, FL, 34983",120151708,"R"
430581,"267 TYLER DRIVE","TROY","IL",62294,38.666260693,-89.8978217659999,81,"267 TYLER DRIVE, TROY, IL, 62294","Match","Exact","267 TYLER DR, TROY, IL, 62294",648314177,"R"
430582,"267 VIA MONTE","SAINT HELENA","CA",94574,38.526251809,-122.476486317,82,"267 VIA MONTE, SAINT HELENA, CA, 94574","Match","Exact","267 VIA MONTE, SAINT HELENA, CA, 94574",67412541,"L"
430583,"267 W 100 N","VALPARAISO","IN",46385,41.449108476,-87.118552154,83,"267 W 100 N, VALPARAISO, IN, 46385","Match","Exact","267 W 100 N, VALPARAISO, IN, 46385",119931163,"L"
430584,"267 W 100 N","VALPARASIO","IN",46385,41.449108476,-87.118536875,84,"267 W 100 N, VALPARASIO, IN, 46385","Match","Non_Exact","267 W 100 N, VALPARAISO, IN, 46385",119931163,"L"
430585,"267 W GARWOOD DR","TALLMADGE","OH",44278,41.1109217050001,-81.450617202,85,"267 W GARWOOD DR, TALLMADGE, OH, 44278","Match","Exact","267 W GARWOOD DR, TALLMADGE, OH, 44278",61376742,"R"
430586,"267 W SHOWALTER","GEORGETOWN","KY",40324,NA,NA,86,"267 W SHOWALTER, GEORGETOWN, KY, 40324","Tie",NA,NA,NA,NA
430587,"267 W WOOD OWL DR","KUNA","ID",83634,43.5071494160001,-116.415685086,87,"267 W WOOD OWL DR, KUNA, ID, 83634","Match","Exact","267 W WOOD OWL DR, KUNA, ID, 83634",647663852,"L"
430588,"267 WATCH HILL ROAD","EXTON","PA",19341,40.037907449,-75.6430906149999,88,"267 WATCH HILL ROAD, EXTON, PA, 19341","Match","Exact","267 WATCH HILL RD, EXTON, PA, 19341",640454435,"L"
430589,"267 WEST 152ND STREET","NEW YORK","NY",10039,40.827085551,-73.938291517,89,"267 WEST 152ND STREET, NEW YORK, NY, 10039","Match","Exact","267 W 152ND ST, NEW YORK, NY, 10039",59656262,"R"
430590,"267 WEST 89TH STREET  4C","NEW YORK","NY",10024,40.7904357360001,-73.975531594,90,"267 WEST 89TH STREET  4C, NEW YORK, NY, 10024","Match","Exact","267 W 89TH ST, NEW YORK, NY, 10024",59656690,"R"
430591,"267 WEST CEDAR STREET","NORWALK","CT",6854,41.1028406250001,-73.442434373,91,"267 WEST CEDAR STREET, NORWALK, CT, 6854","Match","Exact","267 W CEDAR ST, NORWALK, CT, 06854",602786545,"L"
430592,"267 WEST VINELAND","AUGUSTA","GA",30904,33.4950155660001,-82.016332711,92,"267 WEST VINELAND, AUGUSTA, GA, 30904","Match","Non_Exact","267 W VINELAND RD, AUGUSTA, GA, 30904",55649284,"R"
430593,"267 WILLOW BEND WAY","SENOIA","GA",30276,33.252104715,-84.579635314,93,"267 WILLOW BEND WAY, SENOIA, GA, 30276","Match","Exact","267 WILLOW BEND WAY, SENOIA, GA, 30276",617841292,"R"
430594,"267 WINSTEAD ROAD","WEST UNION","SC",29696,34.7862999990001,-83.031627143,94,"267 WINSTEAD ROAD, WEST UNION, SC, 29696","Match","Exact","267 WINSTEAD RD, WEST UNION, SC, 29696",25651650,"R"
430595,"267 WOOD STREET","MIDDLEBORO","MA",2346,41.89358717,-70.8783722269999,95,"267 WOOD STREET, MIDDLEBORO, MA, 2346","Match","Exact","267 WOOD ST, MIDDLEBORO, MA, 02346",87491912,"R"
430596,"267 WOODVIEW CT","FUQUAY-VARINA","NC",27526,35.4478278020001,-78.8243967229999,96,"267 WOODVIEW CT, FUQUAY-VARINA, NC, 27526","Match","Exact","267 WOODVIEW CT, FUQUAY VARINA, NC, 27526",71981894,"L"
430597,"267 YATES ROAD","WURTLAND","KY",41144,38.5356099750001,-82.785132961,97,"267 YATES ROAD, WURTLAND, KY, 41144","Match","Exact","267 YATES RD, WURTLAND, KY, 41144",635477918,"L"
430598,"267-20 83 AVENUE","FLORAL PARK","NY",NA,40.7405657190001,-73.7023495729999,98,"267-20 83 AVENUE, FLORAL PARK, NY, ","Match","Exact","267-20 83RD AVE, FLORAL PARK, NY, 11004",59724942,"R"
430599,"267-243-0381","PHILADELPHIA","PA",19138,NA,NA,99,"267-243-0381, PHILADELPHIA, PA, 19138","No_Match",NA,NA,NA,NA
430600,"267-C 38TH AVE NORTH","NASHVILLE","TN",37209,36.1464326830001,-86.8310799179999,100,"267-C 38TH AVE NORTH, NASHVILLE, TN, 37209","Match","Exact","267 38TH AVE N, NASHVILLE, TN, 37209",606828343,"L"
430601,"267","HEMET","CA",92583,NA,NA,101,"267, HEMET, CA, 92583","No_Match",NA,NA,NA,NA
430602,"2670 36TH STREET","SAN FRANCISCO","CA",94112,NA,NA,102,"2670 36TH STREET, SAN FRANCISCO, CA, 94112","No_Match",NA,NA,NA,NA
430603,"2670 AIRPORT PULLING ROAD SOUTH","NAPLES","FL",34112,26.132107515,-81.7664736359999,103,"2670 AIRPORT PULLING ROAD SOUTH, NAPLES, FL, 34112","Match","Exact","2670 AIRPORT PULLING RD S, NAPLES, FL, 34112",115162050,"R"
430604,"2670 APPLE BLOSSOM LN","CONWAY","AR",72034,35.0553789080001,-92.4670065299999,104,"2670 APPLE BLOSSOM LN, CONWAY, AR, 72034","Match","Non_Exact","2670 APPLE BLOSSOM, CONWAY, AR, 72034",141071860,"R"
430605,"2670 AVENIR PL","VIENNA","VA",22180,38.8815172880001,-77.2300477489999,105,"2670 AVENIR PL, VIENNA, VA, 22180","Match","Exact","2670 AVENIR PL, VIENNA, VA, 22180",648189385,"L"
430606,"2670 BLUE CYPRESS LAKE CT","CAPE CORAL","FL",33909,26.7100070830001,-81.955590715,106,"2670 BLUE CYPRESS LAKE CT, CAPE CORAL, FL, 33909","Match","Exact","2670 BLUE CYPRESS LAKE CT, CAPE CORAL, FL, 33909",616712370,"L"
430607,"2670 BURR CT","RENO","NV",89509,39.4853279220001,-119.831724928,107,"2670 BURR CT, RENO, NV, 89509","Match","Exact","2670 BURR CT, RENO, NV, 89509",107045616,"L"
430608,"2670 CARLETON AVENUE","LOS ANGELES","CA",90065,34.091518153,-118.225240456,108,"2670 CARLETON AVENUE, LOS ANGELES, CA, 90065","Match","Exact","2670 CARLETON AVE, LOS ANGELES, CA, 90065",141617648,"R"
430609,"2670 CARNEGIE ROAD","YORK","PA",17402,39.97053192,-76.673161807,109,"2670 CARNEGIE ROAD, YORK, PA, 17402","Match","Exact","2670 CARNEGIE RD, YORK, PA, 17402",88733417,"R"
430610,"2670 CHAPEL DR","PHILOMATH","OR",97370,NA,NA,110,"2670 CHAPEL DR, PHILOMATH, OR, 97370","No_Match",NA,NA,NA,NA
430611,"2670 COOKS ROAD","MOUNT JULIET","TN",37122,36.271284146,-86.4544959899999,111,"2670 COOKS ROAD, MOUNT JULIET, TN, 37122","Match","Exact","2670 COOKS RD, MOUNT JULIET, TN, 37122",642238799,"R"
430612,"2670 CRAIN HWY SUITE 206","WALDORF","MD",20601,38.6369764890001,-76.899677163,112,"2670 CRAIN HWY SUITE 206, WALDORF, MD, 20601","Match","Exact","2670 CRAIN HWY, WALDORF, MD, 20601",25406769,"R"
430613,"2670 CRAIN HWY","WALDORF","MD",20601,38.6369764890001,-76.899677163,113,"2670 CRAIN HWY, WALDORF, MD, 20601","Match","Exact","2670 CRAIN HWY, WALDORF, MD, 20601",25406769,"R"
430614,"2670 DAL DR","NORTON","OH",44203,41.0616944870001,-81.6859689519999,114,"2670 DAL DR, NORTON, OH, 44203","Match","Exact","2670 DAL DR, NORTON, OH, 44203",61374354,"L"
430615,"2670 DALE DR","SIX LAKES","MI",48886,43.434348807,-85.1369766299999,115,"2670 DALE DR, SIX LAKES, MI, 48886","Match","Exact","2670 DALE DR, SIX LAKES, MI, 48886",110573654,"R"
430616,"2670 DAVIDSON DR","LITHONIA","GA",30058,33.7065187740001,-84.111989921,116,"2670 DAVIDSON DR, LITHONIA, GA, 30058","Match","Exact","2670 DAVIDSON DR, LITHONIA, GA, 30058",23386899,"L"
430617,"2670 DERBYSHIRE ROAD","MAITLAND","FL",32751,28.640029177,-81.330117464,117,"2670 DERBYSHIRE ROAD, MAITLAND, FL, 32751","Match","Exact","2670 DERBYSHIRE RD, MAITLAND, FL, 32751",93744507,"R"
430618,"2670 DORSET MEADOWS DR","POWHATAN","VA",21319,37.5009395860001,-77.824876079,118,"2670 DORSET MEADOWS DR, POWHATAN, VA, 21319","Match","Non_Exact","2670 DORSET MEADOWS DR, POWHATAN, VA, 23139",624312839,"R"
430619,"2670 DORSET MEADOWS DR","POWHATAN","VA",23139,37.5009395860001,-77.824876079,119,"2670 DORSET MEADOWS DR, POWHATAN, VA, 23139","Match","Exact","2670 DORSET MEADOWS DR, POWHATAN, VA, 23139",624312839,"R"
430620,"2670 DRY POCKET RD  APT 528","GREER","SC",29650,34.8623308430001,-82.2551223679999,120,"2670 DRY POCKET RD  APT 528, GREER, SC, 29650","Match","Exact","2670 DRY POCKET RD, GREER, SC, 29650",38327832,"R"
430621,"2670 EDGEWOOD LANE","OSHKOSH","WI",54904,44.071185696,-88.600715268,121,"2670 EDGEWOOD LANE, OSHKOSH, WI, 54904","Match","Exact","2670 EDGEWOOD LN, OSHKOSH, WI, 54904",74531541,"R"
430622,"2670 EMERSON AVENUE SOUTH","SAINT PETERSBURG","FL",33713,27.765581867,-82.669317828,122,"2670 EMERSON AVENUE SOUTH, SAINT PETERSBURG, FL, 33713","Match","Non_Exact","2670 EMERSON AVE S, SAINT PETERSBURG, FL, 33712",124831380,"L"
430623,"2670 FORSYTHIA ST","PUEBLO","CO",81005,38.2235264230001,-104.650822412,123,"2670 FORSYTHIA ST, PUEBLO, CO, 81005","Match","Exact","2670 FORSYTHIA ST, PUEBLO, CO, 81005",105026640,"L"
430624,"2670 HILLTOP COURT","ARCATA","CA",95521,40.881464179,-124.073736829,124,"2670 HILLTOP COURT, ARCATA, CA, 95521","Match","Exact","2670 HILLTOP CT, ARCATA, CA, 95521",113015814,"R"
430625,"2670 HOLLAND LAKE RD","SIDNEY","MI",48885,43.231813887,-85.124846625,125,"2670 HOLLAND LAKE RD, SIDNEY, MI, 48885","Match","Non_Exact","2670 W HOLLAND LAKE RD, SIDNEY, MI, 48885",110574964,"L"
430626,"2670 HOLLAND WAY","WOODLAND","CA",95776,38.6514580360001,-121.731944511,126,"2670 HOLLAND WAY, WOODLAND, CA, 95776","Match","Exact","2670 HOLLAND WAY, WOODLAND, CA, 95776",629203878,"R"
430627,"2670 HORSESHOE DRIVE N UNIT 203","NAPLES","FL",34104,26.1639491400001,-81.77387971,127,"2670 HORSESHOE DRIVE N UNIT 203, NAPLES, FL, 34104","Match","Exact","2670 HORSESHOE DR N, NAPLES, FL, 34104",115156086,"R"
430628,"2670 HWY 326","KOUNTZE","TX",77625,30.3477019060001,-94.341958913,128,"2670 HWY 326, KOUNTZE, TX, 77625","Match","Non_Exact","2670 STATE HWY 326, KOUNTZE, TX, 77625",23969679,"L"
430629,"2670 KINGS CORNER RD E","LEXINGTON","OH",44904,40.6445660750001,-82.608485373,129,"2670 KINGS CORNER RD E, LEXINGTON, OH, 44904","Match","Non_Exact","2670 KINGS CORNERS RD E, LEXINGTON, OH, 44904",12832515,"L"
430630,"2670 LONNBLADH ROAD","TALLAHASSEE","FL",32308,30.4877697950001,-84.2324215679999,130,"2670 LONNBLADH ROAD, TALLAHASSEE, FL, 32308","Match","Exact","2670 LONNBLADH RD, TALLAHASSEE, FL, 32308",82874089,"L"
430631,"2670 LOWELL CIRCLE","MELBOURNE","FL",32935,28.1534961850001,-80.665914786,131,"2670 LOWELL CIRCLE, MELBOURNE, FL, 32935","Match","Exact","2670 LOWELL CIR, MELBOURNE, FL, 32935",93933142,"R"
430632,"2670 MARILEE LANE APT B 13","HOUSTON","TX",77057,29.7382923960001,-95.498344113,132,"2670 MARILEE LANE APT B 13, HOUSTON, TX, 77057","Match","Exact","2670 MARILEE LN, HOUSTON, TX, 77057",96620059,"R"
430633,"2670 MARY C ROAD","ST. PAULS","NC",28384,34.7787971550001,-79.0603945249999,133,"2670 MARY C ROAD, ST. PAULS, NC, 28384","Match","Exact","2670 MARY C RD, SAINT PAULS, NC, 28384",608085606,"L"
430634,"2670 NETHERTON DR","ST LOUIS","MO",63136,38.775170433,-90.261980877,134,"2670 NETHERTON DR, ST LOUIS, MO, 63136","Match","Exact","2670 NETHERTON DR, SAINT LOUIS, MO, 63136",100148069,"L"
430635,"2670 NETHERTON","ST LOUIS","MO",63136,38.775170433,-90.261980877,135,"2670 NETHERTON, ST LOUIS, MO, 63136","Match","Non_Exact","2670 NETHERTON DR, SAINT LOUIS, MO, 63136",100148069,"L"
430636,"2670 NORTH BERKELEY LAKE SUITE 3","DULUTH","GA",30096,33.9735671220001,-84.1622172949999,136,"2670 NORTH BERKELEY LAKE SUITE 3, DULUTH, GA, 30096","Match","Non_Exact","2670 N BERKELEY LAKE RD, DULUTH, GA, 30096",88942576,"L"
430637,"2670 OIL WELL RD","NAPLES","FL",34120,NA,NA,137,"2670 OIL WELL RD, NAPLES, FL, 34120","No_Match",NA,NA,NA,NA
430638,"2670 OPAL DR","MIDDLETOWN","OH",45044,39.485554801,-84.4170074359999,138,"2670 OPAL DR, MIDDLETOWN, OH, 45044","Match","Exact","2670 OPAL DR, MIDDLETOWN, OH, 45044",113814845,"L"
430639,"2670 OXFORD ST NORTH","ROSEVILLE","MN",55113,45.0214633950001,-93.1421627889999,139,"2670 OXFORD ST NORTH, ROSEVILLE, MN, 55113","Match","Exact","2670 OXFORD ST N, ROSEVILLE, MN, 55113",97640674,"R"
430640,"2670 RAINY SPRING CT","ODENTON","MD",21113,39.105821314,-76.701177548,140,"2670 RAINY SPRING CT, ODENTON, MD, 21113","Match","Exact","2670 RAINY SPRING CT, ODENTON, MD, 21113",653276776,"R"
430641,"2670 RAINY SPRINT CT","ODENTON","MD",21113,NA,NA,141,"2670 RAINY SPRINT CT, ODENTON, MD, 21113","No_Match",NA,NA,NA,NA
430642,"2670 REGENCY DR W","TUCKER","GA",30084,NA,NA,142,"2670 REGENCY DR W, TUCKER, GA, 30084","No_Match",NA,NA,NA,NA
430643,"2670 S LAKE PLEASANT RD","METAMORA","MI",48455,42.984100905,-83.163395828,143,"2670 S LAKE PLEASANT RD, METAMORA, MI, 48455","Match","Exact","2670 S LAKE PLEASANT RD, METAMORA, MI, 48455",110462791,"R"
430644,"2670 S RAINEY RD","EAST JORDAN","MI",49727,45.164515378,-85.184176457,144,"2670 S RAINEY RD, EAST JORDAN, MI, 49727","Match","Non_Exact","2670 S RANNEY RD, EAST JORDAN, MI, 49727",635590537,"R"
430645,"2670 SOUTH 2000 EAST","SALT LAKE CITY","UT",84109,40.713553376,-111.83407988,145,"2670 SOUTH 2000 EAST, SALT LAKE CITY, UT, 84109","Match","Exact","2670 S 2000 E, SALT LAKE CITY, UT, 84109",176082252,"R"
430646,"2670 SOUTH","2000 EAST","UT",84109,NA,NA,146,"2670 SOUTH, 2000 EAST, UT, 84109","No_Match",NA,NA,NA,NA
430647,"2670 STEWART DR","RITTMAN","OH",44270,40.994732938,-81.784213643,147,"2670 STEWART DR, RITTMAN, OH, 44270","Match","Exact","2670 STEWART DR, RITTMAN, OH, 44270",58671164,"L"
430648,"2670 STRAWBERRY CITY RD","POTEET","TX",78065,29.0448176460001,-98.525662932,148,"2670 STRAWBERRY CITY RD, POTEET, TX, 78065","Match","Exact","2670 STRAWBERRY CITY RD, POTEET, TX, 78065",24468640,"L"
430649,"2670 TUCKERMAN CT","COLORADO SPRINGS","CO",80918,38.9239932470001,-104.779036553,149,"2670 TUCKERMAN CT, COLORADO SPRINGS, CO, 80918","Match","Exact","2670 TUCKERMAN CT, COLORADO SPRINGS, CO, 80918",105510482,"L"
430650,"2670 UNION AVE EXTENDED SUITE 915","MEMPHIS","TN",38112,NA,NA,150,"2670 UNION AVE EXTENDED SUITE 915, MEMPHIS, TN, 38112","No_Match",NA,NA,NA,NA
430651,"2670 US HWY 280","CLAXTON","GA",30417,32.150040634,-81.968946355,151,"2670 US HWY 280, CLAXTON, GA, 30417","Match","Exact","2670 US HWY 280, CLAXTON, GA, 30417",636520590,"R"
430652,"2670 WEST 33RD STREET","BROOKLYN","NY",11224,40.580349132,-74.0005877729999,152,"2670 WEST 33RD STREET, BROOKLYN, NY, 11224","Match","Exact","2670 W 33RD ST, BROOKLYN, NY, 11224",612290162,"R"
430653,"2670 WEST CROFT CIRCLE","SPARTANBURG","SC",29302,34.912453328,-81.867216206,153,"2670 WEST CROFT CIRCLE, SPARTANBURG, SC, 29302","Match","Exact","2670 W CROFT CIR, SPARTANBURG, SC, 29302",19473319,"R"
430654,"2670 WEST F AVE","KALAMAZOO","MI",49009,42.347440158,-85.622216037,154,"2670 WEST F AVE, KALAMAZOO, MI, 49009","Match","Exact","2670 W F AVE, KALAMAZOO, MI, 49009",12223309,"R"
430655,"2670 WOODSBORO CT","CANTON","MI",48188,42.2875359280001,-83.4486590069999,155,"2670 WOODSBORO CT, CANTON, MI, 48188","Match","Exact","2670 WOODSBORO CT, CANTON, MI, 48188",95688691,"R"
430656,"26700 OSBORN ROAD","BAY VILLAGE","OH",44140,41.4813993230001,-81.9151534499999,156,"26700 OSBORN ROAD, BAY VILLAGE, OH, 44140","Match","Exact","26700 OSBORN RD, BAY VILLAGE, OH, 44140",61138742,"R"
430657,"26700 S 670 RD","GROVE","OK",74344,36.6298018250001,-94.67934859,157,"26700 S 670 RD, GROVE, OK, 74344","Match","Exact","26700 S 670 RD, GROVE, OK, 74344",613662596,"R"
430658,"26701 BRANDON","MISSION VIEJO","CA",92692,33.575091243,-117.649436235,158,"26701 BRANDON, MISSION VIEJO, CA, 92692","Match","Exact","26701 BRANDON, MISSION VIEJO, CA, 92692",144383021,"L"
430659,"26702 KINGSBROOK SKY LN","KATY","TX",77494,29.721725442,-95.831282933,159,"26702 KINGSBROOK SKY LN, KATY, TX, 77494","Match","Exact","26702 KINGSBROOK SKY LN, KATY, TX, 77494",649811742,"L"
430660,"26703 EAGLE PARK LANE","KATY","TX",77494,29.729519999,-95.831292038,160,"26703 EAGLE PARK LANE, KATY, TX, 77494","Match","Exact","26703 EAGLE PARK LN, KATY, TX, 77494",627550499,"L"
430661,"26703 VALLEYSIDE DR","KATY","TX",77494,29.711051335,-95.839003357,161,"26703 VALLEYSIDE DR, KATY, TX, 77494","Match","Exact","26703 VALLEYSIDE DR, KATY, TX, 77494",641060285,"L"
430662,"26704 WATER AVE","PERRIS","CA",92571,33.8193250910001,-117.19920714,162,"26704 WATER AVE, PERRIS, CA, 92571","Match","Exact","26704 WATER AVE, PERRIS, CA, 92571",194847820,"R"
430663,"26705 S OVERLAND DRIVE","CHANNAHON","IL",60410,41.396903885,-88.249098354,163,"26705 S OVERLAND DRIVE, CHANNAHON, IL, 60410","Match","Exact","26705 OVERLAND DR, CHANNAHON, IL, 60410",111594106,"R"
430664,"26705 W CARNEGIE PARK DRIVE","SOUTHFIELD","MI",48034,42.486538943,-83.3061795579999,164,"26705 W CARNEGIE PARK DRIVE, SOUTHFIELD, MI, 48034","Match","Exact","26705 CARNEGIE PARK, SOUTHFIELD, MI, 48034",633685855,"L"
430665,"26706 GOLDHILL","WRIGHTWOOD","CA",92397,34.3624702610001,-117.652793226,165,"26706 GOLDHILL, WRIGHTWOOD, CA, 92397","Match","Non_Exact","26706 GOLDHILL DR, WRIGHTWOOD, CA, 92397",627149496,"R"
430666,"26707 BRYNN BRANCH LANE","KATY","TX",77494,29.7268831710001,-95.8316021539999,166,"26707 BRYNN BRANCH LANE, KATY, TX, 77494","Match","Exact","26707 BRYNN BRANCH LN, KATY, TX, 77494",641052023,"R"
430667,"26707 OUTFITTER POINT","KATY","TX",77493,29.837544042,-95.833094918,167,"26707 OUTFITTER POINT, KATY, TX, 77493","Match","Exact","26707 OUTFITTER PT, KATY, TX, 77493",627737102,"L"
430668,"26707 WOLFS HILL LANE","KATY","TX",77494,29.7303220630001,-95.831394696,168,"26707 WOLFS HILL LANE, KATY, TX, 77494","Match","Exact","26707 WOLFS HILL LN, KATY, TX, 77494",641271840,"L"
430669,"26708 N 90TH DR","PEORIA","AZ",85383,33.7245051580001,-112.252760775,169,"26708 N 90TH DR, PEORIA, AZ, 85383","Match","Exact","26708 90TH DR, PEORIA, AZ, 85383",128882370,"R"
430670,"26709 SE OLD BLACK NUGGET ROAD","ISSAQUAH","WA",98029,47.558731622,-121.993440107,170,"26709 SE OLD BLACK NUGGET ROAD, ISSAQUAH, WA, 98029","Match","Exact","26709 SE OLD BLACK NUGGET RD, ISSAQUAH, WA, 98029",642838335,"R"
430671,"2671 120TH AVE","ALLEGAN","MI",49010,42.565981908,-85.806898753,171,"2671 120TH AVE, ALLEGAN, MI, 49010","Match","Exact","2671 120TH AVE, ALLEGAN, MI, 49010",11419568,"R"
430672,"2671 3RD STREET","CUYAHOGA FALLS","OH",44221,41.146108573,-81.476772576,172,"2671 3RD STREET, CUYAHOGA FALLS, OH, 44221","Match","Exact","2671 3RD ST, CUYAHOGA FALLS, OH, 44221",61348613,"R"
430673,"2671 ABBAPOOLA ROAD","JOHNS ISLAND","SC",29455,32.666370154,-80.051340883,173,"2671 ABBAPOOLA ROAD, JOHNS ISLAND, SC, 29455","Match","Exact","2671 ABBAPOOLA RD, JOHNS ISLAND, SC, 29455",108811310,"R"
430674,"2671 ASHWOOD CT","GRAND PRAIRIE","TX",75052,32.6837781250001,-97.0474935139999,174,"2671 ASHWOOD CT, GRAND PRAIRIE, TX, 75052","Match","Exact","2671 ASHWOOD CT, GRAND PRAIRIE, TX, 75052",101930838,"R"
430675,"2671 BALD CYPRESS DR","BRASELTON","GA",30517,NA,NA,175,"2671 BALD CYPRESS DR, BRASELTON, GA, 30517","No_Match",NA,NA,NA,NA
430676,"2671 BROOKHILLS DR","GREEN BAY","WI",54313,44.613224899,-88.1027720499999,176,"2671 BROOKHILLS DR, GREEN BAY, WI, 54313","Match","Non_Exact","2671 BROOK HILLS DR, GREEN BAY, WI, 54313",148107334,"R"
430677,"2671 BROWN ST","COLLINS","NY",14034,42.515229887,-78.90064238,177,"2671 BROWN ST, COLLINS, NY, 14034","Match","Exact","2671 BROWN ST, COLLINS, NY, 14034",48279084,"L"
430678,"2671 CANDLER DR SW","MARIETTA","GA",30065,NA,NA,178,"2671 CANDLER DR SW, MARIETTA, GA, 30065","No_Match",NA,NA,NA,NA
430679,"2671 CHAMBLISS RD","PLEASANT VIEW","TN",37146,36.433594597,-87.0517163279999,179,"2671 CHAMBLISS RD, PLEASANT VIEW, TN, 37146","Match","Exact","2671 CHAMBLISS RD, PLEASANT VIEW, TN, 37146",605280658,"R"
430680,"2671 E 136TH PLACE","THORNTON","CO",80602,39.9433996240001,-104.955439577,180,"2671 E 136TH PLACE, THORNTON, CO, 80602","Match","Exact","2671 E 136TH PL, THORNTON, CO, 80602",177422160,"L"
430681,"2671 E JOHNSON AVE","PENSACOLA","FL",32514,30.51721251,-87.206807838,181,"2671 E JOHNSON AVE, PENSACOLA, FL, 32514","Match","Exact","2671 E JOHNSON AVE, PENSACOLA, FL, 32514",93306506,"R"
430682,"2671 E SARATOGA DRIVE","COOPER CITY","FL",33026,26.031554495,-80.288935721,182,"2671 E SARATOGA DRIVE, COOPER CITY, FL, 33026","Match","Non_Exact","2671 E SARATOGA DR, HOLLYWOOD, FL, 33026",114760684,"L"
430683,"2671 EAGLE CLIFF DRIVE","KISSIMMEE","FL",34746,28.2237221550001,-81.429044604,183,"2671 EAGLE CLIFF DRIVE, KISSIMMEE, FL, 34746","Match","Exact","2671 EAGLE CLIFF DR, KISSIMMEE, FL, 34746",628025289,"L"
430684,"2671 EAST MANOR DR","COTTONWOOD HEIGHTS","UT",84121,40.6198901330001,-111.816096025,184,"2671 EAST MANOR DR, COTTONWOOD HEIGHTS, UT, 84121","Match","Non_Exact","2671 S EASTMANOR DR, COTTONWOOD HEIGHTS, UT, 84121",176095505,"L"
430685,"2671 EDGEMONT STREET","PHILADELPHIA","PA",19125,39.9776758670001,-75.114924469,185,"2671 EDGEMONT STREET, PHILADELPHIA, PA, 19125","Match","Exact","2671 EDGEMONT ST, PHILADELPHIA, PA, 19125",131426252,"R"
430686,"2671 EL SEGUNDO DR","RANCHO CORDOVA","CA",95670,38.589919939,-121.310506522,186,"2671 EL SEGUNDO DR, RANCHO CORDOVA, CA, 95670","Match","Exact","2671 EL SEGUNDO DR, RANCHO CORDOVA, CA, 95670",133347936,"L"
430687,"2671 GRAND CANAL BLVD","STOCKTON","CA",95207,37.9826064210001,-121.340983528,187,"2671 GRAND CANAL BLVD, STOCKTON, CA, 95207","Match","Exact","2671 GRAND CANAL BLVD, STOCKTON, CA, 95207",133846931,"L"
430688,"2671 KENNDY BLVD APT 36","JERSEY CITY","NJ",7306,NA,NA,188,"2671 KENNDY BLVD APT 36, JERSEY CITY, NJ, 7306","No_Match",NA,NA,NA,NA
430689,"2671 LEAFDALE CIRCLE","CASTLE ROCK","CO",80109,39.395085658,-104.888135367,189,"2671 LEAFDALE CIRCLE, CASTLE ROCK, CO, 80109","Match","Exact","2671 LEAFDALE CIR, CASTLE ROCK, CO, 80109",649103349,"L"
430690,"2671 MAIN ST APT 2","LOCKPORT","NY",14094,NA,NA,190,"2671 MAIN ST APT 2, LOCKPORT, NY, 14094","No_Match",NA,NA,NA,NA
430691,"2671 MERRYOAK LANE","UPPER ST CLAIR","PA",15241,40.3097088750001,-80.1004301299999,191,"2671 MERRYOAK LANE, UPPER ST CLAIR, PA, 15241","Match","Exact","2671 MERRYOAK LN, UPPER SAINT CLAIR, PA, 15241",51694943,"R"
430692,"2671 N COLUMBIA STREET APT 310","MILLEDGEVILLE","GA",31061,33.1359083940001,-83.2694246299999,192,"2671 N COLUMBIA STREET APT 310, MILLEDGEVILLE, GA, 31061","Match","Non_Exact","2671 N COLUMBIA ST, MILLEDGEVILLE, GA, 31061",633735721,"L"
430693,"2671 N COLUMBIA STREET APT 605","MILLEDGEVILLE","GA",31061,33.1359083940001,-83.2694246299999,193,"2671 N COLUMBIA STREET APT 605, MILLEDGEVILLE, GA, 31061","Match","Non_Exact","2671 N COLUMBIA ST, MILLEDGEVILLE, GA, 31061",633735721,"L"
430694,"2671 N COLUMBIA STREET APT 608","MILLEDGEVILLE","GA",31061,33.1359083940001,-83.2694246299999,194,"2671 N COLUMBIA STREET APT 608, MILLEDGEVILLE, GA, 31061","Match","Non_Exact","2671 N COLUMBIA ST, MILLEDGEVILLE, GA, 31061",633735721,"L"
430695,"2671 NOBLE RD APT 4","CLEVELAND HEIGHTS","OH",44121,41.52926776,-81.541140819,195,"2671 NOBLE RD APT 4, CLEVELAND HEIGHTS, OH, 44121","Match","Exact","2671 NOBLE RD, CLEVELAND HEIGHTS, OH, 44121",61124335,"L"
430696,"2671 NW 41ST ST","BOCA RATON","FL",33434,26.387677985,-80.1429099969999,196,"2671 NW 41ST ST, BOCA RATON, FL, 33434","Match","Exact","2671 NW 41ST ST, BOCA RATON, FL, 33434",115491898,"L"
430697,"2671 RAINBOW CREEK DRIVE","DECATUR","GA",30034,33.7090700360001,-84.233523646,197,"2671 RAINBOW CREEK DRIVE, DECATUR, GA, 30034","Match","Exact","2671 RAINBOW CREEK DR, DECATUR, GA, 30034",23395497,"L"
430698,"2671 RIVERS ROAD","ATLANTA","GA",30305,33.8269083280001,-84.390066437,198,"2671 RIVERS ROAD, ATLANTA, GA, 30305","Match","Non_Exact","2671 RIVERS RD NW, ATLANTA, GA, 30305",17415815,"R"
430699,"2671 RIVERSIDE DR UNIT 3","CORAL SPRINGS","FL",33065,26.2626080860001,-80.23534231,199,"2671 RIVERSIDE DR UNIT 3, CORAL SPRINGS, FL, 33065","Match","Exact","2671 RIVERSIDE DR, CORAL SPRINGS, FL, 33065",114763194,"L"
430700,"2671 RODEO WAY","NESBIT","MI",38651,NA,NA,200,"2671 RODEO WAY, NESBIT, MI, 38651","No_Match",NA,NA,NA,NA
430701,"2671 SHADOW LANE SE","ALEXANDRIA","MN",56308,45.862634988,-95.337447051,201,"2671 SHADOW LANE SE, ALEXANDRIA, MN, 56308","Match","Exact","2671 SHADOW LN SE, ALEXANDRIA, MN, 56308",606995534,"L"
430702,"2671 SOCKUM RIDGE ROAD","WASHINGTON","IA",52353,41.2158656780001,-91.62487996,202,"2671 SOCKUM RIDGE ROAD, WASHINGTON, IA, 52353","Match","Exact","2671 SOCKUM RIDGE RD, WASHINGTON, IA, 52353",84185514,"R"
430703,"2671 SOUTH 168TH","GOODYEAR","AZ",85338,NA,NA,203,"2671 SOUTH 168TH, GOODYEAR, AZ, 85338","No_Match",NA,NA,NA,NA
430704,"2671 SYLVAN HEIGHTS DRIVE","SEATTLE","WA",98106,47.5397567410001,-122.367165824,204,"2671 SYLVAN HEIGHTS DRIVE, SEATTLE, WA, 98106","Match","Exact","2671 SYLVAN HEIGHTS DR, SEATTLE, WA, 98106",624447741,"R"
430705,"2671 W FORECAST ST","MERIDIAN","ID",83642,43.6152793590001,-116.426829249,205,"2671 W FORECAST ST, MERIDIAN, ID, 83642","Match","Exact","2671 W FORECAST ST, MERIDIAN, ID, 83642",117890859,"L"
430706,"2671 W VILLAGE","TOLEDO","OH",43614,41.5929144400001,-83.6612817019999,206,"2671 W VILLAGE, TOLEDO, OH, 43614","Match","Non_Exact","2671 W VILLAGE DR, TOLEDO, OH, 43614",33935983,"L"
430707,"2671 WARWICK DR","OKLAHOMA CITY","OK",73116,35.545320346,-97.5599783769999,207,"2671 WARWICK DR, OKLAHOMA CITY, OK, 73116","Match","Exact","2671 WARWICK DR, OKLAHOMA CITY, OK, 73116",100393426,"R"
430708,"2671 WESTVIEW DR","CANYON LAKE","TX",78133,29.8660772540001,-98.263764685,208,"2671 WESTVIEW DR, CANYON LAKE, TX, 78133","Match","Exact","2671 WESTVIEW DR, CANYON LAKE, TX, 78133",72240624,"L"
430709,"26710 186TH AVE SE","COVINGTON","WA",98042,47.3623609810001,-122.094141154,209,"26710 186TH AVE SE, COVINGTON, WA, 98042","Match","Exact","26710 186TH AVE SE, COVINGTON, WA, 98042",186638799,"R"
430710,"26711 465TH AVE","HARTFORD","SD",57033,43.5131460330001,-96.9102403809999,210,"26711 465TH AVE, HARTFORD, SD, 57033","Match","Exact","26711 465TH AVE, HARTFORD, SD, 57033",624822665,"L"
430711,"26711 465TH AVENUE","HARTFORD","SD",57033,43.5131460330001,-96.9102403809999,211,"26711 465TH AVENUE, HARTFORD, SD, 57033","Match","Exact","26711 465TH AVE, HARTFORD, SD, 57033",624822665,"L"
430712,"26711 ALISO CREEK RD 200A","ALISO VIEJO","CA",92656,33.5743939110001,-117.723439178,212,"26711 ALISO CREEK RD 200A, ALISO VIEJO, CA, 92656","Match","Exact","26711 ALISO CREEK RD, ALISO VIEJO, CA, 92656",609044943,"R"
430713,"26711 BUCKEYE TER","MORENO VALLEY","CA",92555,33.936245625,-117.19576619,213,"26711 BUCKEYE TER, MORENO VALLEY, CA, 92555","Match","Exact","26711 BUCKEYE TER, MORENO VALLEY, CA, 92555",618341246,"R"
430714,"26711 BUCKEYE TERRACE","MORENO VALLEY","CA",92555,33.936245625,-117.19576619,214,"26711 BUCKEYE TERRACE, MORENO VALLEY, CA, 92555","Match","Exact","26711 BUCKEYE TER, MORENO VALLEY, CA, 92555",618341246,"R"
430715,"26711 CHIPMUNK DR","EVERGREEN","CO",80439,39.562463413,-105.304305294,215,"26711 CHIPMUNK DR, EVERGREEN, CO, 80439","Match","Exact","26711 CHIPMUNK DR, EVERGREEN, CO, 80439",177276864,"L"
430716,"26711 E ARBOR DR","AURORA","CO",80016,39.602847803,-104.673922948,216,"26711 E ARBOR DR, AURORA, CO, 80016","Match","Exact","26711 E ARBOR DR, AURORA, CO, 80016",617955487,"L"
430717,"26714 PENROSE RD","STERLING","IL",61081,41.887621907,-89.731997505,217,"26714 PENROSE RD, STERLING, IL, 61081","Match","Exact","26714 PENROSE RD, STERLING, IL, 61081",611664886,"R"
430718,"26714 WEDGEWOOD PARK","CYPRESS","TX",77433,29.9639137200001,-95.708557134,218,"26714 WEDGEWOOD PARK, CYPRESS, TX, 77433","Match","Exact","26714 WEDGEWOOD PARK, CYPRESS, TX, 77433",604590488,"R"
430719,"26715 GLADESTONE RIDGE CT","KATY","TX",77494,29.7351446920001,-95.830988584,219,"26715 GLADESTONE RIDGE CT, KATY, TX, 77494","Match","Non_Exact","26715 GLADSTONE RIDGE CT, KATY, TX, 77494",642948858,"L"
430720,"26715 HENSON FALLS DR","KATY","TX",77494,29.6997043330001,-95.840190365,220,"26715 HENSON FALLS DR, KATY, TX, 77494","Match","Exact","26715 HENSON FALLS DR, KATY, TX, 77494",627556764,"R"
430721,"26715 HUMBER","HUNTINGTON WOORS","MI",48070,42.4878948480001,-83.162194284,221,"26715 HUMBER, HUNTINGTON WOORS, MI, 48070","Match","Non_Exact","26715 HUMBER ST, HUNTINGTON WOODS, MI, 48070",644959179,"L"
430722,"26715 N 75TH DR","PEORIA","AZ",85383,33.726608481,-112.221357488,222,"26715 N 75TH DR, PEORIA, AZ, 85383","Match","Exact","26715 N 75TH DR, PEORIA, AZ, 85383",619130761,"R"
430723,"26716 MADIGAN DRIVE","CANYON COUNTRY","CA",91351,34.4108957230001,-118.479240038,223,"26716 MADIGAN DRIVE, CANYON COUNTRY, CA, 91351","Match","Exact","26716 MADIGAN DR, CANYON COUNTRY, CA, 91351",141801123,"L"
430724,"26716 SOUTH STATE ROUTE C","FREEMAN","MO",64746,NA,NA,224,"26716 SOUTH STATE ROUTE C, FREEMAN, MO, 64746","No_Match",NA,NA,NA,NA
430725,"26717 TIMBERLINE DR","SAN ANTONIO","TX",78260,29.696831205,-98.489157717,225,"26717 TIMBERLINE DR, SAN ANTONIO, TX, 78260","Match","Exact","26717 TIMBERLINE DR, SAN ANTONIO, TX, 78260",101494650,"L"
430726,"26718 5 MILE RD","REDFORD","MI",48239,42.3990237420001,-83.307025344,226,"26718 5 MILE RD, REDFORD, MI, 48239","Match","Exact","26718 5 MILE RD, REDFORD, MI, 48239",95419355,"R"
430727,"26719 CEDARDALE PINES DR","KATY","TX",77494,29.7121032050001,-95.8391265,227,"26719 CEDARDALE PINES DR, KATY, TX, 77494","Match","Exact","26719 CEDARDALE PINES DR, KATY, TX, 77494",642952501,"L"
430728,"26719 HAMPDEN","MADISON HEIGHTS","MI",48071,42.4889912730001,-83.1134150189999,228,"26719 HAMPDEN, MADISON HEIGHTS, MI, 48071","Match","Non_Exact","26719 HAMPDEN ST, MADISON HEIGHTS, MI, 48071",69746955,"L"
430729,"26719 WESTWOOD DR","SPRING","TX",77386,30.1524461770001,-95.446017293,229,"26719 WESTWOOD DR, SPRING, TX, 77386","Match","Exact","26719 WESTWOOD DR, SPRING, TX, 77386",79302944,"L"
430730,"2672 260TH STREET","WASHINGTON","IA",52353,41.2800250710001,-91.6288942159999,230,"2672 260TH STREET, WASHINGTON, IA, 52353","Match","Exact","2672 260TH ST, WASHINGTON, IA, 52353",84186235,"R"
430731,"2672 ATOAH RD","ROBBINSVILLE","NC",28771,35.2801658770001,-83.8467522619999,231,"2672 ATOAH RD, ROBBINSVILLE, NC, 28771","Match","Exact","2672 ATOAH RD, ROBBINSVILLE, NC, 28771",35958458,"L"
430732,"2672 BARCOO BEND","NEW LENOX","IL",60451,41.472986491,-87.9844862209999,232,"2672 BARCOO BEND, NEW LENOX, IL, 60451","Match","Exact","2672 BARCOO BEND, NEW LENOX, IL, 60451",111632546,"L"
430733,"2672 BLUEBIRD LANE","COTTAGE GROVE","WI",53527,43.101894493,-89.211928326,233,"2672 BLUEBIRD LANE, COTTAGE GROVE, WI, 53527","Match","Exact","2672 BLUEBIRD LN, COTTAGE GROVE, WI, 53527",49480214,"L"
430734,"2672 E GOLDEN TRAIL","CASA GRANDE","AZ",85194,32.866584947,-111.672318125,234,"2672 E GOLDEN TRAIL, CASA GRANDE, AZ, 85194","Match","Exact","2672 E GOLDEN TRL, CASA GRANDE, AZ, 85194",625036515,"R"
430735,"2672 EAST 37TH STREET","TULSA","OK",74105,36.1098160280001,-95.9518838559999,235,"2672 EAST 37TH STREET, TULSA, OK, 74105","Match","Exact","2672 E 37TH ST, TULSA, OK, 74105",166443595,"R"
430736,"2672 EAST RIDGEWOOD LANE","GILBERT","AZ",85298,33.2310653810001,-111.733048687,236,"2672 EAST RIDGEWOOD LANE, GILBERT, AZ, 85298","Match","Exact","2672 E RIDGEWOOD LN, GILBERT, AZ, 85298",128810915,"L"
430737,"2672 FANIEUL HALL COURT","OAK HILL","VA",20171,38.929745618,-77.3899014259999,237,"2672 FANIEUL HALL COURT, OAK HILL, VA, 20171","Match","Exact","2672 FANIEUL HALL CT, OAK HILL, VA, 20171",75957309,"R"
430738,"2672 HONEYSUCKLE DR","COLUMBUS","GA",31907,32.487640248,-84.8853091779999,238,"2672 HONEYSUCKLE DR, COLUMBUS, GA, 31907","Match","Exact","2672 HONEYSUCKLE DR, COLUMBUS, GA, 31907",624997016,"R"
430739,"2672 JAMES DRIVE NW","WESSON","MS",39191,31.64031837,-90.515410833,239,"2672 JAMES DRIVE NW, WESSON, MS, 39191","Match","Exact","2672 JAMES DR NW, WESSON, MS, 39191",652221408,"R"
430740,"2672 JF KENNEDY BLVD","JERSEY CITY","NJ",7306,40.7276775920001,-74.0705782379999,240,"2672 JF KENNEDY BLVD, JERSEY CITY, NJ, 7306","Match","Exact","2672 JOHN F KENNEDY BLVD, JERSEY CITY, NJ, 07306",59616557,"R"
430741,"2672 LANTZ DR","BEAVERCREEK","OH",45434,39.7371068910001,-84.03366994,241,"2672 LANTZ DR, BEAVERCREEK, OH, 45434","Match","Non_Exact","2672 LANTZ RD, BEAVERCREEK, OH, 45434",143417025,"R"
430742,"2672 MEMORIAL DRIVE","CASTLEWOOD","VA",24224,36.870521475,-82.265636203,242,"2672 MEMORIAL DRIVE, CASTLEWOOD, VA, 24224","Match","Exact","2672 MEMORIAL DR, CASTLEWOOD, VA, 24224",74147017,"L"
430743,"2672 N EIGHT MILE RD","SANFORD","MI",48657,NA,NA,243,"2672 N EIGHT MILE RD, SANFORD, MI, 48657","Tie",NA,NA,NA,NA
430744,"2672 N VISTA CREST ROAD","ORANGE","CA",92867,33.8334797890001,-117.826291982,244,"2672 N VISTA CREST ROAD, ORANGE, CA, 92867","Match","Exact","2672 N VISTA CREST RD, ORANGE, CA, 92867",144031283,"L"
430745,"2672 NE 8TH CT","GRESHAM","OR",97030,45.503200732,-122.40571739,245,"2672 NE 8TH CT, GRESHAM, OR, 97030","Match","Exact","2672 NE 8TH CT, GRESHAM, OR, 97030",157530525,"R"
430746,"2672 NORTH HOLTON STREET","MILWAUKEE","WI",53212,43.066935546,-87.905297831,246,"2672 NORTH HOLTON STREET, MILWAUKEE, WI, 53212","Match","Exact","2672 N HOLTON ST, MILWAUKEE, WI, 53212",77743509,"R"
430747,"2672 NW HAILE DEAN RD","ARCADIA","FL",34266,27.229984534,-81.932572597,247,"2672 NW HAILE DEAN RD, ARCADIA, FL, 34266","Match","Exact","2672 HAILE DEAN RD, ARCADIA, FL, 34266",635831729,"R"
430748,"2672 PARK AVE","BALDWIN","NY",11510,40.644661339,-73.610409287,248,"2672 PARK AVE, BALDWIN, NY, 11510","Match","Exact","2672 PARK AVE, BALDWIN, NY, 11510",147637805,"R"
430749,"2672 RED BUD LANE","YUBA CITY","CA",95993,39.1288206470001,-121.665209846,249,"2672 RED BUD LANE, YUBA CITY, CA, 95993","Match","Exact","2672 RED BUD LN, YUBA CITY, CA, 95993",68567454,"R"
430750,"2672 RIKKARD DRIVE","THOUSAND OAKS","CA",91362,34.214967775,-118.841453477,250,"2672 RIKKARD DRIVE, THOUSAND OAKS, CA, 91362","Match","Exact","2672 RIKKARD DR, THOUSAND OAKS, CA, 91362",110013388,"L"
430751,"2672 RIVANNA WAY","EDMOND","OK",73034,35.731741158,-97.392924707,251,"2672 RIVANNA WAY, EDMOND, OK, 73034","Match","Exact","2672 RIVANNA WAY, EDMOND, OK, 73034",641688024,"L"
430752,"2672 SE WINDERMERE DR","TREMONT","IL",61568,40.524607254,-89.426027054,252,"2672 SE WINDERMERE DR, TREMONT, IL, 61568","Match","Exact","2672 SE WINDERMERE DR, TREMONT, IL, 61568",608227716,"L"
430753,"2672 SOUTH CR 7","TIFFIN","OH",44883,41.0843245720001,-83.285784296,253,"2672 SOUTH CR 7, TIFFIN, OH, 44883","Match","Exact","2672 S CO RD 7, TIFFIN, OH, 44883",12975939,"L"
430754,"2672 ST HWY 2","BEDFORD","IA",50833,40.676285749,-94.610153355,254,"2672 ST HWY 2, BEDFORD, IA, 50833","Match","Non_Exact","2672 STATE HWY 2, BEDFORD, IA, 50833",38632405,"L"
430755,"2672 TWO RIDGE AVE","LANCASTER","OH",43130,39.752106865,-82.640958648,255,"2672 TWO RIDGE AVE, LANCASTER, OH, 43130","Match","Non_Exact","2672 TWO RIDGE WAY, LANCASTER, OH, 43130",37239186,"L"
430756,"2672 W COLEMAN RD","FARWELL","MI",48622,43.7557556100001,-84.901999938,256,"2672 W COLEMAN RD, FARWELL, MI, 48622","Match","Exact","2672 W COLEMAN RD, FARWELL, MI, 48622",110214452,"R"
430757,"2672 W COLEMAN ROAD","FARWELL","MI",48622,43.7557556100001,-84.901999938,257,"2672 W COLEMAN ROAD, FARWELL, MI, 48622","Match","Exact","2672 W COLEMAN RD, FARWELL, MI, 48622",110214452,"R"
430758,"2672 W IMPERIAL HWY UNIT 5113","INGLEWOOD","CA",90310,NA,NA,258,"2672 W IMPERIAL HWY UNIT 5113, INGLEWOOD, CA, 90310","No_Match",NA,NA,NA,NA
430759,"2672 W VILLAGE TERRACE","SPRINGFIELD","MO",65810,37.1324580570001,-93.332207701,259,"2672 W VILLAGE TERRACE, SPRINGFIELD, MO, 65810","Match","Exact","2672 W VILLAGE TER, SPRINGFIELD, MO, 65810",76686979,"R"
430760,"2672 WYDAHAM PLACE","APOKA","FL",32703,NA,NA,260,"2672 WYDAHAM PLACE, APOKA, FL, 32703","No_Match",NA,NA,NA,NA
430761,"26720 ORIOLE DR","WILLITS","CA",95490,39.4556035850001,-123.390431364,261,"26720 ORIOLE DR, WILLITS, CA, 95490","Match","Exact","26720 ORIOLE DR, WILLITS, CA, 95490",67259112,"L"
430762,"26721 CALLE SALIDA","CAPISTRANO BEACH","CA",92624,33.4612894310001,-117.664642176,262,"26721 CALLE SALIDA, CAPISTRANO BEACH, CA, 92624","Match","Non_Exact","26721 CLL SALIDA, CAPISTRANO BEACH, CA, 92624",144074020,"L"
430763,"26721 SANDY HILL LANE","RICHMOND HEIGHTS","OH",44143,41.58432,-81.492943585,263,"26721 SANDY HILL LANE, RICHMOND HEIGHTS, OH, 44143","Match","Non_Exact","26721 SANDY HILL DR, RICHMOND HEIGHTS, OH, 44143",61133374,"R"
430764,"26723 BUCKEYE TERRACE","MORENO VALLEY","CA",92555,33.936245625,-117.195695827,264,"26723 BUCKEYE TERRACE, MORENO VALLEY, CA, 92555","Match","Exact","26723 BUCKEYE TER, MORENO VALLEY, CA, 92555",618341246,"R"
430765,"26723 ISABELLA PKWY 38-203","SANTA CLARITA","CA",91351,34.4180848890001,-118.492918106,265,"26723 ISABELLA PKWY 38-203, SANTA CLARITA, CA, 91351","Match","Exact","26723 ISABELLA PKWY, SANTA CLARITA, CA, 91351",142810651,"R"
430766,"26723 WEST CARNEGIE PARK DRIVE","SOUTHFIELD","MI",48034,42.4868317660001,-83.3059141369999,266,"26723 WEST CARNEGIE PARK DRIVE, SOUTHFIELD, MI, 48034","Match","Non_Exact","26723 CARNEGIE PARK, SOUTHFIELD, MI, 48034",633685855,"L"
430767,"26724 199TH PL SE","COVINGTON","WA",98042,47.3617401180001,-122.075800363,267,"26724 199TH PL SE, COVINGTON, WA, 98042","Match","Exact","26724 199TH PL SE, COVINGTON, WA, 98042",239766959,"R"
430768,"26725 SW 134 AVE","MIAMI","FL",33032,25.5188431220001,-80.4084588159999,268,"26725 SW 134 AVE, MIAMI, FL, 33032","Match","Non_Exact","26725 SW 134TH AVE, NARANJA, FL, 33032",115991090,"L"
430769,"26727 N 97TH LANE","PEORIA","AZ",85383,33.726406189,-112.270220061,269,"26727 N 97TH LANE, PEORIA, AZ, 85383","Match","Exact","26727 N 97TH LN, PEORIA, AZ, 85383",128881828,"L"
430770,"26727 WAX ORCHARDS RD SW","VASHON","WA",98070,47.3642750130001,-122.503539251,270,"26727 WAX ORCHARDS RD SW, VASHON, WA, 98070","Match","Non_Exact","26727 WAX ORCHARD RD SW, VASHON, WA, 98070",186712191,"L"
430771,"26727 WOLFS HILL LN","KATY","TX",77494,29.730314892,-95.8317288549999,271,"26727 WOLFS HILL LN, KATY, TX, 77494","Match","Exact","26727 WOLFS HILL LN, KATY, TX, 77494",641271840,"L"
430772,"26728 N CHEVY CHASE RD","MUNDELEIN","IL",60060,42.2525547710001,-88.055094045,272,"26728 N CHEVY CHASE RD, MUNDELEIN, IL, 60060","Match","Exact","26728 N CHEVY CHASE RD, MUNDELEIN, IL, 60060",119730814,"L"
430773,"26729 WYATT LANE","STEVENSON RANCH","CA",91381,34.389217671,-118.60204747,273,"26729 WYATT LANE, STEVENSON RANCH, CA, 91381","Match","Exact","26729 WYATT LN, STEVENSON RANCH, CA, 91381",141862879,"L"
430774,"2673 150TH STREET","MOVILLE","IA",51039,42.4930747820001,-96.0807108659999,274,"2673 150TH STREET, MOVILLE, IA, 51039","Match","Exact","2673 150TH ST, MOVILLE, IA, 51039",651868985,"R"
430775,"2673 22ND ST","SAN FRANCISCO","CA",94110,37.756081248,-122.408016589,275,"2673 22ND ST, SAN FRANCISCO, CA, 94110","Match","Exact","2673 22ND ST, SAN FRANCISCO, CA, 94110",192288462,"L"
430776,"2673 BLUESTONE DR","ATLANTA","GA",30331,33.6836289550001,-84.5904119579999,276,"2673 BLUESTONE DR, ATLANTA, GA, 30331","Match","Non_Exact","2673 BLUESTONE DR SW, ATLANTA, GA, 30331",643445959,"L"
430777,"2673 COBBLESTONE FOREST DR","JACKSONVILLE","FL",32225,30.3624378690001,-81.497997547,277,"2673 COBBLESTONE FOREST DR, JACKSONVILLE, FL, 32225","Match","Exact","2673 COBBLESTONE FOREST DR, JACKSONVILLE, FL, 32225",83978525,"R"
430778,"2673 EATON RD","GREEN BAY","WI",54311,44.4651217530001,-87.949008417,278,"2673 EATON RD, GREEN BAY, WI, 54311","Match","Exact","2673 EATON RD, GREEN BAY, WI, 54311",148130338,"R"
430779,"2673 GRANDE VISTA AVE","Oakland","CA",94601,37.79264299,-122.225800995,279,"2673 GRANDE VISTA AVE, Oakland, CA, 94601","Match","Exact","2673 GRANDE VISTA AVE, OAKLAND, CA, 94601",125002988,"L"
430780,"2673 HWY 70 EAST","GLENWOOD","AR",71943,NA,NA,280,"2673 HWY 70 EAST, GLENWOOD, AR, 71943","No_Match",NA,NA,NA,NA
430781,"2673 JAFFA CT","ESCONDIDO","CA",92027,33.153823404,-117.048698752,281,"2673 JAFFA CT, ESCONDIDO, CA, 92027","Match","Exact","2673 JAFFA CT, ESCONDIDO, CA, 92027",619625245,"L"
430782,"2673 MOSELY FERRY RD","ASHLAND CITY","TN",37015,36.375811578,-87.1895890009999,282,"2673 MOSELY FERRY RD, ASHLAND CITY, TN, 37015","Match","Non_Exact","2673 MOSLEY FERRY RD, ASHLAND CITY, TN, 37015",647860836,"L"
430783,"2673 N COLE ST","LIMA","OH",45801,40.775685756,-84.127973522,283,"2673 N COLE ST, LIMA, OH, 45801","Match","Exact","2673 N COLE ST, LIMA, OH, 45801",209534780,"L"
430784,"2673 NW 159TH STREET","CLIVE","IA",50325,41.6202359220001,-93.836979849,284,"2673 NW 159TH STREET, CLIVE, IA, 50325","Match","Exact","2673 NW 159TH ST, CLIVE, IA, 50325",65646786,"L"
430785,"2673 PAMELA DR","MADERA","CA",93637,36.9690766800001,-120.094273919,285,"2673 PAMELA DR, MADERA, CA, 93637","Match","Exact","2673 PAMELA DR, MADERA, CA, 93637",650863777,"L"
430786,"2673 POLARIS WAY","LAVERNE","CA",91750,34.114849513,-117.755753441,286,"2673 POLARIS WAY, LAVERNE, CA, 91750","Match","Non_Exact","2673 POLARIS WAY, LA VERNE, CA, 91750",141731395,"L"
430787,"2673 POTTER ST","EUGENE","OR",97405,44.0292636140001,-123.076434518,287,"2673 POTTER ST, EUGENE, OR, 97405","Match","Exact","2673 POTTER ST, EUGENE, OR, 97405",178175296,"L"
430788,"2673 RANGELEY CT","ORLANDO","FL",32835,28.514371338,-81.4905181939999,288,"2673 RANGELEY CT, ORLANDO, FL, 32835","Match","Exact","2673 RANGELEY CT, ORLANDO, FL, 32835",94379746,"R"
430789,"2673 RIVEROAKS DRIVE","COLUMBUS","OH",43228,40.0023422670001,-83.0922411179999,289,"2673 RIVEROAKS DRIVE, COLUMBUS, OH, 43228","Match","Non_Exact","2673 RIVER OAKS DR, COLUMBUS, OH, 43228",218681623,"L"
430790,"2673 S IRIS ST","LAKEWOOD","CO",80227,39.6663853630001,-105.106756427,290,"2673 S IRIS ST, LAKEWOOD, CO, 80227","Match","Exact","2673 S IRIS ST, LAKEWOOD, CO, 80227",177761772,"R"
430791,"2673 SC HIGHWAY 81","MOUNT CARMEL","SC",29840,33.9746882060001,-82.482108506,291,"2673 SC HIGHWAY 81, MOUNT CARMEL, SC, 29840","Match","Non_Exact","2673 STATE HWY 81, MOUNT CARMEL, SC, 29840",50917472,"L"
430792,"2673 TOWNSHIP RD 1087","PERRYSVILLE","OH",44864,NA,NA,292,"2673 TOWNSHIP RD 1087, PERRYSVILLE, OH, 44864","No_Match",NA,NA,NA,NA
430793,"2673 TWINBROOKE LANE","LEXINGTON","KY",40517,37.9970061550001,-84.4617747469999,293,"2673 TWINBROOKE LANE, LEXINGTON, KY, 40517","Match","Exact","2673 TWINBROOKE LN, LEXINGTON, KY, 40517",31927476,"L"
430794,"2673 VERDEHILLE DRIVE","EUGENE","OR",97403,44.035129779,-123.052315788,294,"2673 VERDEHILLE DRIVE, EUGENE, OR, 97403","Match","Non_Exact","2673 VERDEHILL DR, EUGENE, OR, 97403",605393737,"L"
430795,"2673 W CARIBOU TRL","WEST BRANCH","MI",48661,44.256151501,-84.05702648,295,"2673 W CARIBOU TRL, WEST BRANCH, MI, 48661","Match","Exact","2673 W CARIBOU TRL, WEST BRANCH, MI, 48661",161346711,"L"
430796,"2673 WALTER TODD ROAD","CLARENDON","NC",28439,34.154453,-78.745419238,296,"2673 WALTER TODD ROAD, CLARENDON, NC, 28439","Match","Non_Exact","2673 WALTER TODD RD, CLARENDON, NC, 28432",64145656,"R"
430797,"26730 EAGLE PARK LANE","KATY","TX",77494,29.729526139,-95.831741778,297,"26730 EAGLE PARK LANE, KATY, TX, 77494","Match","Exact","26730 EAGLE PARK LN, KATY, TX, 77494",627550499,"R"
430798,"26730 HASS","DEARBORN HEIGHTS","MI",48127,42.3335452360001,-83.303617601,298,"26730 HASS, DEARBORN HEIGHTS, MI, 48127","Match","Non_Exact","26730 HASS ST, DEARBORN HEIGHTS, MI, 48127",95429367,"R"
430799,"26730 WESTON CT","ELKO-NEW MARKET","MN",55020,44.560283901,-93.3362883139999,299,"26730 WESTON CT, ELKO-NEW MARKET, MN, 55020","Match","Exact","26730 WESTON CT, ELKO NEW MARKET, MN, 55020",606957597,"R"
430800,"26731  DUBLIN WOODS CIRCLE STE 2","BONITA SPRINGS","FL",34135,NA,NA,300,"26731  DUBLIN WOODS CIRCLE STE 2, BONITA SPRINGS, FL, 34135","No_Match",NA,NA,NA,NA
430801,"26731 ANADALE DR","LAGUNA HILLS","CA",92653,33.5741930040001,-117.678759741,301,"26731 ANADALE DR, LAGUNA HILLS, CA, 92653","Match","Exact","26731 ANADALE DR, LAGUNA HILLS, CA, 92653",629320067,"L"
430802,"26731 LAREDO LANE","LAKE FOREST","CA",92630,33.6435495000001,-117.664492105,302,"26731 LAREDO LANE, LAKE FOREST, CA, 92630","Match","Exact","26731 LAREDO LN, LAKE FOREST, CA, 92630",639052517,"L"
430803,"26732 VIA COLINA","VALENCIA","CA",91381,34.406169403,-118.583094861,303,"26732 VIA COLINA, VALENCIA, CA, 91381","Match","Exact","26732 VIA COLINA, VALENCIA, CA, 91381",624619515,"R"
430804,"26733 CAMPBELL LANE","CONDON","OR",97823,45.0693096310001,-119.854844826,304,"26733 CAMPBELL LANE, CONDON, OR, 97823","Match","Exact","26733 CAMPBELL LN, CONDON, OR, 97823",175393582,"R"
430805,"26733 LAZY CREEK RD","SUN CITY","CA",92586,33.688887487,-117.193426257,305,"26733 LAZY CREEK RD, SUN CITY, CA, 92586","Match","Exact","26733 LAZY CREEK RD, SUN CITY, CA, 92586",608995154,"L"
430806,"26735 ARD ROAD","ROBERTSDALE","AL",36567,30.6138647970001,-87.6575880999999,306,"26735 ARD ROAD, ROBERTSDALE, AL, 36567","Match","Exact","26735 ARD RD, ROBERTSDALE, AL, 36567",131667439,"L"
430807,"26735 ST FRANCIS ROAD","LOS ALTOS HILLS","CA",94022,37.3870930960001,-122.14394604,307,"26735 ST FRANCIS ROAD, LOS ALTOS HILLS, CA, 94022","Match","Exact","26735 ST FRANCIS RD, LOS ALTOS HILLS, CA, 94022",614032390,"R"
430808,"26736 ISABELLA PARKWAY 201","SANTA CLARITA","CA",91351,34.4180925430001,-118.492908589,308,"26736 ISABELLA PARKWAY 201, SANTA CLARITA, CA, 91351","Match","Exact","26736 ISABELLA PKWY, SANTA CLARITA, CA, 91351",142810651,"L"
430809,"26738 141 ROAD","STOCKPORT","IA",52651,40.8341602360001,-91.854250141,309,"26738 141 ROAD, STOCKPORT, IA, 52651","Match","Exact","26738 141ST RD, STOCKPORT, IA, 52651",12928827,"L"
430810,"26739 SHADOW PASS","SAN ANTONIO","TX",78260,29.6961107450001,-98.499899081,310,"26739 SHADOW PASS, SAN ANTONIO, TX, 78260","Match","Exact","26739 SHADOW PASS, SAN ANTONIO, TX, 78260",101583131,"L"
430811,"2674 CAPSTONE DR","MONTGOMERY","AL",36106,32.338312273,-86.244868324,311,"2674 CAPSTONE DR, MONTGOMERY, AL, 36106","Match","Exact","2674 CAPSTONE DR, MONTGOMERY, AL, 36106",1488912,"R"
430812,"2674 CONIFER CT SW","BYRON CENTER","MI",49315,42.8034332890001,-85.7290422569999,312,"2674 CONIFER CT SW, BYRON CENTER, MI, 49315","Match","Exact","2674 CONIFER CT SW, BYRON CENTER, MI, 49315",12492701,"L"
430813,"2674 E18TH ST","BROOKLYN","NY",11235,NA,NA,313,"2674 E18TH ST, BROOKLYN, NY, 11235","No_Match",NA,NA,NA,NA
430814,"2674 EAST MAIN STREET SUITE E-441","VENTURA","CA",93003,34.2738551750001,-119.260138264,314,"2674 EAST MAIN STREET SUITE E-441, VENTURA, CA, 93003","Match","Non_Exact","2674 E MAIN ST, VENTURA, CA, 93001",109951810,"R"
430815,"2674 KISER AVE","LITHIA SPRINGS","GA",30122,33.79158148,-84.663699568,315,"2674 KISER AVE, LITHIA SPRINGS, GA, 30122","Match","Exact","2674 KISER AVE, LITHIA SPGS, GA, 30122",16653767,"L"
430816,"2674 LANDING POINTE DRIVE","LAKE WYLIE","SC",29710,35.1231235180001,-81.078362015,316,"2674 LANDING POINTE DRIVE, LAKE WYLIE, SC, 29710","Match","Exact","2674 LANDING POINTE DR, LAKE WYLIE, SC, 29710",19808220,"R"
430817,"2674 N FEDERAL HWY","BOYNTON BEACH","FL",33435,26.553619924,-80.055252412,317,"2674 N FEDERAL HWY, BOYNTON BEACH, FL, 33435","Match","Exact","2674 N FEDERAL HWY, BOYNTON BEACH, FL, 33435",115557930,"R"
430818,"2674 NAMOZINE RD","CREWE","VA",23930,37.2327710600001,-78.0562898009999,318,"2674 NAMOZINE RD, CREWE, VA, 23930","Match","Exact","2674 NAMOZINE RD, CREWE, VA, 23930",54371553,"R"
430819,"2674 POPLIN AVE","NORTH CHARLESTON","SC",29405,32.8564165550001,-79.993331709,319,"2674 POPLIN AVE, NORTH CHARLESTON, SC, 29405","Match","Exact","2674 POPLIN AVE, N CHARLESTON, SC, 29405",108801930,"R"
430820,"2674 PORTLAND AVENUE","CLOVIS","CA",93619,36.8556722880001,-119.663938622,320,"2674 PORTLAND AVENUE, CLOVIS, CA, 93619","Match","Non_Exact","2674 PORTLAND, CLOVIS, CA, 93619",617785024,"L"
430821,"2674 QUEEN BEE LANE","SAINT LOUIS","MO",63129,38.4310502340001,-90.3172981229999,321,"2674 QUEEN BEE LANE, SAINT LOUIS, MO, 63129","Match","Exact","2674 QUEEN BEE LN, SAINT LOUIS, MO, 63129",100157816,"L"
430822,"2674 RUSS ST","DERRIDDER","CA",70634,NA,NA,322,"2674 RUSS ST, DERRIDDER, CA, 70634","No_Match",NA,NA,NA,NA
430823,"2674 S FENTON CT","LAKEWOOD","CO",80227,39.668427722,-105.059934804,323,"2674 S FENTON CT, LAKEWOOD, CO, 80227","Match","Exact","2674 S FENTON CT, LAKEWOOD, CO, 80227",177801208,"L"
430824,"2674 S FIVE MILE RD","MIDLAND","MI",48640,43.5355553040001,-84.3505020439999,324,"2674 S FIVE MILE RD, MIDLAND, MI, 48640","Match","Exact","2674 S 5 MILE RD, MIDLAND, MI, 48640",652797356,"L"
430825,"2674 SILVER HILLS DRIVE","ORLANDO","FL",32818,28.5799030270001,-81.4835299709999,325,"2674 SILVER HILLS DRIVE, ORLANDO, FL, 32818","Match","Exact","2674 SILVER HILLS DR, ORLANDO, FL, 32818",634029060,"R"
430826,"2674 SONOMA WAY","PINOLE","CA",94564,37.987443419,-122.269044017,326,"2674 SONOMA WAY, PINOLE, CA, 94564","Match","Exact","2674 SONOMA WAY, PINOLE, CA, 94564",192042701,"R"
430827,"2674 SOUTHGATE DRIVE","VESTAVIA HILLS","AL",35243,33.4382384080001,-86.7673001639999,327,"2674 SOUTHGATE DRIVE, VESTAVIA HILLS, AL, 35243","Match","Non_Exact","2674 SOUTHGATE DR, VESTAVIA, AL, 35243",81614656,"L"
430828,"2674 VIA CABALLERO DEL NORTE","SANTA FE","NM",87505,35.634859083,-105.980969574,328,"2674 VIA CABALLERO DEL NORTE, SANTA FE, NM, 87505","Match","Exact","2674 VIA CABALLERO DEL NORTE, SANTA FE, NM, 87505",169397666,"L"
430829,"2674 W 750 S","HUNTINGBURG","IN",47542,38.2694850980001,-86.9587850199999,329,"2674 W 750 S, HUNTINGBURG, IN, 47542","Match","Exact","2674 W 750 S, HUNTINGBURG, IN, 47542",7873013,"L"
430830,"2674 WINDFALL DR","SHERMAN","IL",62684,39.9127679750001,-89.603435138,330,"2674 WINDFALL DR, SHERMAN, IL, 62684","Match","Exact","2674 WINDFALL DR, SHERMAN, IL, 62684",97356253,"L"
430831,"26741 NORMANDY ROAD","BAY VILLAGE","OH",44140,41.48300404,-81.915564414,331,"26741 NORMANDY ROAD, BAY VILLAGE, OH, 44140","Match","Exact","26741 NORMANDY RD, BAY VILLAGE, OH, 44140",61138738,"L"
430832,"26741 PORTOLA PKWY STE 1E NUM 481","FOOTHILL RANCH","CA",92610,NA,NA,332,"26741 PORTOLA PKWY STE 1E NUM 481, FOOTHILL RANCH, CA, 92610","No_Match",NA,NA,NA,NA
430833,"26741 PORTOLA PKWY STE 1E-650","FOOTHILL RANCH","CA",92610,NA,NA,333,"26741 PORTOLA PKWY STE 1E-650, FOOTHILL RANCH, CA, 92610","No_Match",NA,NA,NA,NA
430834,"26742 ESTANCIERO DRIVE","MISSION VIEJO","CA",92691,33.5918926780001,-117.663312693,334,"26742 ESTANCIERO DRIVE, MISSION VIEJO, CA, 92691","Match","Exact","26742 ESTANCIERO DR, MISSION VIEJO, CA, 92691",144065653,"R"
430835,"26743 105TH STREET","NORTH ENGLISH","IA",52316,41.5039497750001,-92.0878999399999,335,"26743 105TH STREET, NORTH ENGLISH, IA, 52316","Match","Non_Exact","26743 105TH, NORTH ENGLISH, IA, 52316",84545279,"R"
430836,"26743 SLASH PINE CIR","RUTHER GLEN","VA",22546,37.901554769,-77.4430041699999,336,"26743 SLASH PINE CIR, RUTHER GLEN, VA, 22546","Match","Exact","26743 SLASH PINE CIR, RUTHER GLEN, VA, 22546",21948358,"R"
430837,"26745 B WHISPERING LEAVES","NEWHALL","CA",91321,NA,NA,337,"26745 B WHISPERING LEAVES, NEWHALL, CA, 91321","No_Match",NA,NA,NA,NA
430838,"26745 CALLE MARIA","CAPISTRANO BEACH","CA",92624,33.457266847,-117.663033483,338,"26745 CALLE MARIA, CAPISTRANO BEACH, CA, 92624","Match","Non_Exact","26745 CLL MARIA, CAPISTRANO BEACH, CA, 92624",144074096,"L"
430839,"26746 169TH AVE","LONG GROVE","IA",52756,41.6953271960001,-90.569945133,339,"26746 169TH AVE, LONG GROVE, IA, 52756","Match","Exact","26746 169TH AVE, LONG GROVE, IA, 52756",122734344,"L"
430840,"26746 CLAUDETTE ST UNIT 464","SANTA CLARITA","CA",91351,34.4180484190001,-118.491576478,340,"26746 CLAUDETTE ST UNIT 464, SANTA CLARITA, CA, 91351","Match","Exact","26746 CLAUDETTE ST, SANTA CLARITA, CA, 91351",142810677,"L"
430841,"26749 BANKER STREET","STURGIS","MI",49091,41.8725928540001,-85.4338396909999,341,"26749 BANKER STREET, STURGIS, MI, 49091","Match","Exact","26749 BANKER ST, STURGIS, MI, 49091",15319261,"R"
430842,"2675 22ND AVE S","ST PETERSBURG","FL",33712,27.748385716,-82.670350379,342,"2675 22ND AVE S, ST PETERSBURG, FL, 33712","Match","Exact","2675 22ND AVE S, SAINT PETERSBURG, FL, 33712",124710021,"R"
430843,"2675 ADVENTIST CIRCLE","MORGANTON","NC",28655,35.8167151580001,-81.858439319,343,"2675 ADVENTIST CIRCLE, MORGANTON, NC, 28655","Match","Exact","2675 ADVENTIST CIR, MORGANTON, NC, 28655",635825575,"L"
430844,"2675 ALBION ST","DENVER","CO",80207,39.7553831660001,-104.939435161,344,"2675 ALBION ST, DENVER, CO, 80207","Match","Exact","2675 ALBION ST, DENVER, CO, 80207",177311132,"L"
430845,"2675 ALDEN ROAD","BRYN ATHYN","PA",19009,40.130093383,-75.065884166,345,"2675 ALDEN ROAD, BRYN ATHYN, PA, 19009","Match","Exact","2675 ALDEN RD, BRYN ATHYN, PA, 19009",135132391,"R"
430846,"2675 ATLANTIC AVE MAIN FLOOR","BROOKLYN","NY",11207,40.675855395,-73.895541905,346,"2675 ATLANTIC AVE MAIN FLOOR, BROOKLYN, NY, 11207","Match","Exact","2675 ATLANTIC AVE, BROOKLYN, NY, 11207",59084671,"L"
430847,"2675 BAINBRIDGE AVE","BRONX","NY",10458,40.8653198000001,-73.8915254899999,347,"2675 BAINBRIDGE AVE, BRONX, NY, 10458","Match","Exact","2675 BAINBRIDGE AVE, BRONX, NY, 10458",80298904,"L"
430848,"2675 BEELER ST","DENVER","CO",80238,39.7550785870001,-104.880842994,348,"2675 BEELER ST, DENVER, CO, 80238","Match","Non_Exact","2675 N BEELER ST, DENVER, CO, 80238",606059371,"L"
430849,"2675 BINGHAMPTON LANE","LAWRENCEVILLE","GA",30044,33.9423994260001,-84.0801855999999,349,"2675 BINGHAMPTON LANE, LAWRENCEVILLE, GA, 30044","Match","Exact","2675 BINGHAMPTON LN, LAWRENCEVILLE, GA, 30044",88951030,"R"
430850,"2675 BRADFORD DR","COPPERAS COVE","TX",76522,31.1428202660001,-97.929364826,350,"2675 BRADFORD DR, COPPERAS COVE, TX, 76522","Match","Exact","2675 BRADFORD DR, COPPERAS COVE, TX, 76522",146570760,"R"
430851,"2675 BROAD STREET","BEAUFORT","SC",29906,32.398160278,-80.697200666,351,"2675 BROAD STREET, BEAUFORT, SC, 29906","Match","Non_Exact","2675 BROAD ST, BEAUFORT, SC, 29902",612414016,"R"
430852,"2675 DODSON DRIVE","ATLANTA","GA",30344,33.68275149,-84.476205728,352,"2675 DODSON DRIVE, ATLANTA, GA, 30344","Match","Exact","2675 DODSON DR, ATLANTA, GA, 30344",17347091,"R"
430853,"2675 DOVER GLEN CIRCLE","ORLANDO","FL",32828,28.5166716680001,-81.161697063,353,"2675 DOVER GLEN CIRCLE, ORLANDO, FL, 32828","Match","Exact","2675 DOVER GLEN CIR, ORLANDO, FL, 32828",647518301,"L"
430854,"2675 E 2700 N","LAYTON","UT",84040,41.098433603,-111.914821603,354,"2675 E 2700 N, LAYTON, UT, 84040","Match","Exact","2675 E 2700 N, LAYTON, UT, 84040",229352131,"L"
430855,"2675 E EMERALD","FRESNO","CA",93720,36.8788883180001,-119.735045078,355,"2675 E EMERALD, FRESNO, CA, 93720","Match","Exact","2675 E EMERALD, FRESNO, CA, 93720",617780363,"R"
430856,"2675 E OLD 160","SALEM","IN",47167,38.59882041,-86.0597407449999,356,"2675 E OLD 160, SALEM, IN, 47167","Match","Exact","2675 E OLD 160, SALEM, IN, 47167",77554074,"L"
430857,"2675 EAST 74TH STREET","CHICAGO","IL",60649,41.762005151,-87.5595180729999,357,"2675 EAST 74TH STREET, CHICAGO, IL, 60649","Match","Exact","2675 E 74TH ST, CHICAGO, IL, 60649",111775789,"R"
430858,"2675 ELLISSAGARY DRIVE","TRACY","CA",95304,37.711734511,-121.403811786,358,"2675 ELLISSAGARY DRIVE, TRACY, CA, 95304","Match","Non_Exact","2675 ELISSAGARAY DR, TRACY, CA, 95304",133915932,"L"
430859,"2675 FALCON LANE","MIMS","FL",32754,28.6725970530001,-80.870001857,359,"2675 FALCON LANE, MIMS, FL, 32754","Match","Exact","2675 FALCON LN, MIMS, FL, 32754",651797600,"R"
430860,"2675 FAYETTE DR APT 301","MOUNTAIN VIEW","CA",94040,37.404860102,-122.114562996,360,"2675 FAYETTE DR APT 301, MOUNTAIN VIEW, CA, 94040","Match","Exact","2675 FAYETTE DR, MOUNTAIN VIEW, CA, 94040",614029893,"L"
430861,"2675 FRANKLIN STREET","STEVENSVILLE","MI",49127,41.988276962,-86.51957268,361,"2675 FRANKLIN STREET, STEVENSVILLE, MI, 49127","Match","Exact","2675 FRANKLIN ST, STEVENSVILLE, MI, 49127",633560097,"R"
430862,"2675 GRAY STREET","WHEAT RIDGE","CO",80214,39.755896959,-105.061467401,362,"2675 GRAY STREET, WHEAT RIDGE, CO, 80214","Match","Exact","2675 GRAY ST, WHEAT RIDGE, CO, 80214",177801653,"L"
430863,"2675 HENRY HUDSON PARKWAY 7B","NY","NY",10463,NA,NA,363,"2675 HENRY HUDSON PARKWAY 7B, NY, NY, 10463","No_Match",NA,NA,NA,NA
430864,"2675 HENRY HUDSON","BRONX","NY",10463,NA,NA,364,"2675 HENRY HUDSON, BRONX, NY, 10463","No_Match",NA,NA,NA,NA
430865,"2675 HERNANDO RD","HOLLY SPRINGS","MS",38635,34.7872763990001,-89.5233153199999,365,"2675 HERNANDO RD, HOLLY SPRINGS, MS, 38635","Match","Exact","2675 HERNANDO RD, HOLLY SPRINGS, MS, 38635",72829394,"L"
430866,"2675 HOMESTEAD LANE","IDAHO FALLS","ID",83404,43.473922486,-112.028290545,366,"2675 HOMESTEAD LANE, IDAHO FALLS, ID, 83404","Match","Exact","2675 HOMESTEAD LN, IDAHO FALLS, ID, 83404",119138219,"L"
430867,"2675 KELLY LANE","HIAWASSEE","GA",30546,34.9100499730001,-83.70858136,367,"2675 KELLY LANE, HIAWASSEE, GA, 30546","Match","Non_Exact","2675 KELLEY LN, HIAWASSEE, GA, 30546",651093739,"L"
430868,"2675 KNOB HILL DRIVE","RENO","NV",89506,39.6175472,-119.836312597,368,"2675 KNOB HILL DRIVE, RENO, NV, 89506","Match","Exact","2675 KNOB HILL DR, RENO, NV, 89506",107041210,"L"
430869,"2675 MALL OF GEORGIA BLVD BLDG 200","BUFORD","GA",30519,34.065513536,-83.975512398,369,"2675 MALL OF GEORGIA BLVD BLDG 200, BUFORD, GA, 30519","Match","Exact","2675 MALL OF GEORGIA BLVD, BUFORD, GA, 30519",630039502,"L"
430870,"2675 MASON RD","HOWELL","MI",48843,42.599974198,-83.967072466,370,"2675 MASON RD, HOWELL, MI, 48843","Match","Exact","2675 MASON RD, HOWELL, MI, 48843",23543356,"R"
430871,"2675 MORRIS AVE APT 3G","BRONX","NY",10468,40.8674080330001,-73.896027939,371,"2675 MORRIS AVE APT 3G, BRONX, NY, 10468","Match","Exact","2675 MORRIS AVE, BRONX, NY, 10468",80298707,"L"
430872,"2675 N 2200E RD","MARTINTON","IL",60951,40.901007474,-87.711716665,372,"2675 N 2200E RD, MARTINTON, IL, 60951","Match","Non_Exact","2675 N 2200 E RD, MARTINTON, IL, 60951",90751796,"L"
430873,"2675 NW 4TH ST","NEWCASTLE","OK",73065,35.2505019050001,-97.6418097,373,"2675 NW 4TH ST, NEWCASTLE, OK, 73065","Match","Non_Exact","2675 NW 4TH, NEWCASTLE, OK, 73065",617910010,"L"
430874,"2675 NW FLORIDA AVE","STUART","FL",34994,27.23928813,-80.2858418229999,374,"2675 NW FLORIDA AVE, STUART, FL, 34994","Match","Exact","2675 FLORIDA AVE, STUART, FL, 34994",638825734,"R"
430875,"2675 PINE POINT ROAD","VILLE PLATTE","LA",70586,30.6412491130001,-92.380790578,375,"2675 PINE POINT ROAD, VILLE PLATTE, LA, 70586","Match","Exact","2675 PINE POINT RD, VILLE PLATTE, LA, 70586",617539312,"L"
430876,"2675 RIVERVIEW WAY","MARION","IA",52302,NA,NA,376,"2675 RIVERVIEW WAY, MARION, IA, 52302","No_Match",NA,NA,NA,NA
430877,"2675 S KRISTINA LN","COTTONWOOD","AZ",86326,34.6904431400001,-112.017149581,377,"2675 S KRISTINA LN, COTTONWOOD, AZ, 86326","Match","Exact","2675 KRISTINA LN, COTTONWOOD, AZ, 86326",608173527,"R"
430878,"2675 S NELLIS BLVD UNIT 2102","LAS VEGAS","NV",89121,36.1412071340001,-115.065541251,378,"2675 S NELLIS BLVD UNIT 2102, LAS VEGAS, NV, 89121","Match","Non_Exact","2675 S NELLIS BLVD, LAS VEGAS, NV, 89121",624722401,"R"
430879,"2675 S SPRING BAR WAY","MERIDIAN","ID",83642,43.5802283950001,-116.378027439,379,"2675 S SPRING BAR WAY, MERIDIAN, ID, 83642","Match","Exact","2675 S SPRING BAR WAY, MERIDIAN, ID, 83642",117893039,"L"
430880,"2675 SANFORD ROAD","NOLENSVILLE","TN",37135,35.928772834,-86.647385517,380,"2675 SANFORD ROAD, NOLENSVILLE, TN, 37135","Match","Exact","2675 SANFORD RD, NOLENSVILLE, TN, 37135",643210901,"L"
430881,"2675 SE 162ND AVE APPT 75","PORTLAND","OR",97236,45.503071252,-122.496786814,381,"2675 SE 162ND AVE APPT 75, PORTLAND, OR, 97236","Match","Non_Exact","2675 SE 162ND AVE, PORTLAND, OR, 97236",157523921,"R"
430882,"2675 SE 162ND AVENUE APT 75","PORTLAND","OR",97236,45.503071252,-122.496786814,382,"2675 SE 162ND AVENUE APT 75, PORTLAND, OR, 97236","Match","Non_Exact","2675 SE 162ND AVE, PORTLAND, OR, 97236",157523921,"R"
430883,"2675 SOUTHAMPTON DRIVE","MARTINSVILLE","IN",46151,39.467596568,-86.3886608349999,383,"2675 SOUTHAMPTON DRIVE, MARTINSVILLE, IN, 46151","Match","Exact","2675 SOUTHAMPTON DR, MARTINSVILLE, IN, 46151",43556458,"L"
430884,"2675 SR 89A PMB 1241","SEDONA","AZ",86340,NA,NA,384,"2675 SR 89A PMB 1241, SEDONA, AZ, 86340","No_Match",NA,NA,NA,NA
430885,"2675 STANISLUAS CIRCLE","MACON","GA",31204,32.8432630390001,-83.664697285,385,"2675 STANISLUAS CIRCLE, MACON, GA, 31204","Match","Non_Exact","2675 STANISLAUS CIR, MACON, GA, 31204",81093617,"R"
430886,"2675 VALLEYVIEW DRIVE","COLUMBUS","OH",43204,39.963302244,-83.072944191,386,"2675 VALLEYVIEW DRIVE, COLUMBUS, OH, 43204","Match","Exact","2675 VALLEYVIEW DR, COLUMBUS, OH, 43204",218679677,"L"
430887,"2675 W OLYMPIC BLVD STE 202","LOS ANGELES","CA",90006,34.0524072150001,-118.290637709,387,"2675 W OLYMPIC BLVD STE 202, LOS ANGELES, CA, 90006","Match","Non_Exact","2675 W OLYMPIC BLVD, LOS ANGELES, CA, 90006",141605151,"R"
430888,"2675 W SR 89A  PMB 1241","SEDONA","AZ",86336,NA,NA,388,"2675 W SR 89A  PMB 1241, SEDONA, AZ, 86336","No_Match",NA,NA,NA,NA
430889,"2675 W SR 89A 1025","SEDONA","AZ",86336,NA,NA,389,"2675 W SR 89A 1025, SEDONA, AZ, 86336","No_Match",NA,NA,NA,NA
430890,"2675 W WHITELEY ST","APACHE JUNCTION","AZ",85120,33.4531647800001,-111.575078754,390,"2675 W WHITELEY ST, APACHE JUNCTION, AZ, 85120","Match","Exact","2675 W WHITELEY ST, APACHE JUNCTION, AZ, 85120",647339518,"R"
430891,"2675 WALNUT BOTTOM ROAD","CARLISLE","PA",17015,NA,NA,391,"2675 WALNUT BOTTOM ROAD, CARLISLE, PA, 17015","No_Match",NA,NA,NA,NA
430892,"2675 WARRENSVILLE CENTER RD","SHAKER HEIGHTS","OH",44122,41.4841177800001,-81.5362294449999,392,"2675 WARRENSVILLE CENTER RD, SHAKER HEIGHTS, OH, 44122","Match","Exact","2675 WARRENSVILLE CENTER RD, SHAKER HEIGHTS, OH, 44122",61125497,"L"
430893,"2675 WEST STATE ROUTE 89A NUM 1325","SEDONA","AZ",86336,34.8626757500001,-111.806289666,393,"2675 WEST STATE ROUTE 89A NUM 1325, SEDONA, AZ, 86336","Match","Non_Exact","2675 STATE RTE 89A, SEDONA, AZ, 86336",159501863,"R"
430894,"2675 WEST STATE RT 89A UNIT 1019","SEDONA","AZ",86336,34.8626757500001,-111.806289666,394,"2675 WEST STATE RT 89A UNIT 1019, SEDONA, AZ, 86336","Match","Non_Exact","2675 STATE RTE 89A, SEDONA, AZ, 86336",159501863,"R"
430895,"2675 WINDMILL PARKWAY NO 523","HENDERSON","NV",89074,36.0423599320001,-115.103260907,395,"2675 WINDMILL PARKWAY NO 523, HENDERSON, NV, 89074","Match","Non_Exact","2675 WINDMILL PKWY, HENDERSON, NV, 89074",201929898,"L"
430896,"26750 E UNIVERSITY","AUBREY","TX",76227,NA,NA,396,"26750 E UNIVERSITY, AUBREY, TX, 76227","No_Match",NA,NA,NA,NA
430897,"26750 MEADOWVIEW LN","DELHI","IA",52223,42.3994559180001,-91.360570298,397,"26750 MEADOWVIEW LN, DELHI, IA, 52223","Match","Exact","26750 MEADOWVIEW LN, DELHI, IA, 52223",642156931,"L"
430898,"26750 VILLAGE LANE","OLMSTEAD FALLS","OH",44138,41.360404203,-81.923043876,398,"26750 VILLAGE LANE, OLMSTEAD FALLS, OH, 44138","Match","Non_Exact","26750 VILLAGE LN, OLMSTED FALLS, OH, 44138",633982682,"R"
430899,"26751 ADAMS ROAD","LOS GATOS","CA",95033,37.102324825,-121.906669503,399,"26751 ADAMS ROAD, LOS GATOS, CA, 95033","Match","Exact","26751 ADAMS RD, LOS GATOS, CA, 95033",653158719,"L"
430900,"26751 BRIDLEWOOD DRIVE","LAGUNA HILLS","CA",92653,33.5744613210001,-117.677580254,400,"26751 BRIDLEWOOD DRIVE, LAGUNA HILLS, CA, 92653","Match","Exact","26751 BRIDLEWOOD DR, LAGUNA HILLS, CA, 92653",144110443,"R"
430901,"26751 COUNTY RD 13","ROSEAU","MN",56751,48.7804110770001,-95.548812207,401,"26751 COUNTY RD 13, ROSEAU, MN, 56751","Match","Exact","26751 CO RD 13, ROSEAU, MN, 56751",176611484,"R"
430902,"26751 KINGSWOOD DR","DEARBORN HEIGHTS","MI",48127,42.3206504680001,-83.304557847,402,"26751 KINGSWOOD DR, DEARBORN HEIGHTS, MI, 48127","Match","Exact","26751 KINGSWOOD DR, DEARBORN HEIGHTS, MI, 48127",95502826,"L"
430903,"26752 TOWNSHIP ROAD 194","FRESNO","OH",44654,NA,NA,403,"26752 TOWNSHIP ROAD 194, FRESNO, OH, 44654","No_Match",NA,NA,NA,NA
430904,"26753 ELK RUN E","NEW HUDSON","MI",48165,42.4824688080001,-83.616090899,404,"26753 ELK RUN E, NEW HUDSON, MI, 48165","Match","Exact","26753 ELK RUN E, NEW HUDSON, MI, 48165",625733648,"L"
430905,"26755 145TH STREET NW","ZIMMERMAN","MN",55398,45.4559721950001,-93.6292348709999,405,"26755 145TH STREET NW, ZIMMERMAN, MN, 55398","Match","Exact","26755 145TH ST NW, ZIMMERMAN, MN, 55398",642251016,"L"
430906,"26756 ADAMS ROAD","LOS GATOS","CA",95033,37.10202014,-121.906319027,406,"26756 ADAMS ROAD, LOS GATOS, CA, 95033","Match","Exact","26756 ADAMS RD, LOS GATOS, CA, 95033",653158719,"R"
430907,"26758 COUNTY ROAD 1","HANCOCK","MN",56244,45.5218169980001,-95.786225757,407,"26758 COUNTY ROAD 1, HANCOCK, MN, 56244","Match","Non_Exact","26758 CO HWY 1, HANCOCK, MN, 56244",165149047,"R"
430908,"2676 12TH AVENUE","VERO BEACH","FL",32961,27.64680817,-80.397240918,408,"2676 12TH AVENUE, VERO BEACH, FL, 32961","Match","Non_Exact","2676 12TH AVE, VERO BEACH, FL, 32960",610948937,"R"
430909,"2676 37TH AVE SW","SEATTLE","WA",98126,47.5795432090001,-122.378069025,409,"2676 37TH AVE SW, SEATTLE, WA, 98126","Match","Exact","2676 37TH AVE SW, SEATTLE, WA, 98126",186661116,"L"
430910,"2676 AMHERST ST","LA VERNE","CA",91750,34.116216523,-117.756083909,410,"2676 AMHERST ST, LA VERNE, CA, 91750","Match","Exact","2676 AMHERST ST, LA VERNE, CA, 91750",640125228,"R"
430911,"2676 BERLIN POND RD","NORTHFIELD","TN",5663,NA,NA,411,"2676 BERLIN POND RD, NORTHFIELD, TN, 5663","No_Match",NA,NA,NA,NA
430912,"2676 COLGAN COURT SE","ATLANTA","GA",30317,33.747982854,-84.299762462,412,"2676 COLGAN COURT SE, ATLANTA, GA, 30317","Match","Non_Exact","2676 COLGAN CT, ATLANTA, GA, 30317",618352701,"L"
430913,"2676 COUNTRY CLUB ROAD","ROANOKE","AL",36274,33.1215175410001,-85.4012529239999,413,"2676 COUNTRY CLUB ROAD, ROANOKE, AL, 36274","Match","Exact","2676 COUNTRY CLUB RD, ROANOKE, AL, 36274",1634050,"L"
430914,"2676 CRIMSON AVE","FRUITLAND","IA",52749,NA,NA,414,"2676 CRIMSON AVE, FRUITLAND, IA, 52749","No_Match",NA,NA,NA,NA
430915,"2676 E  MCKINNON DRIVE","DECATUR","GA",30030,NA,NA,415,"2676 E  MCKINNON DRIVE, DECATUR, GA, 30030","Tie",NA,NA,NA,NA
430916,"2676 E LAKE CARLOS LANE","CARLOS","MN",56319,45.9790771230001,-95.332705775,416,"2676 E LAKE CARLOS LANE, CARLOS, MN, 56319","Match","Non_Exact","2676 E LAKE CARLOS LN NE, CARLOS, MN, 56319",204651494,"L"
430917,"2676 FAIRVIEW PLACE","CUYAHOGA FALLS","OH",44221,41.1463596930001,-81.489105407,417,"2676 FAIRVIEW PLACE, CUYAHOGA FALLS, OH, 44221","Match","Exact","2676 FAIRVIEW PL, CUYAHOGA FALLS, OH, 44221",61347786,"L"
430918,"2676 FALCONBRIDGE DRIVE","CINCINNATI","OH",45238,39.1371802090001,-84.630573334,418,"2676 FALCONBRIDGE DRIVE, CINCINNATI, OH, 45238","Match","Exact","2676 FALCONBRIDGE DR, CINCINNATI, OH, 45238",103917125,"R"
430919,"2676 GRANT AVE","BALDWIN","NY",11510,40.6443735460001,-73.612715448,419,"2676 GRANT AVE, BALDWIN, NY, 11510","Match","Non_Exact","2676 GRAND AVE, BALDWIN, NY, 11510",147637577,"R"
430920,"2676 GUARD HILL RD","FRONT ROYAL","VA",22630,38.968956436,-78.216135593,420,"2676 GUARD HILL RD, FRONT ROYAL, VA, 22630","Match","Exact","2676 GUARD HILL RD, FRONT ROYAL, VA, 22630",159091849,"L"
430921,"2676 HARRISON STREET","GARY","IN",46407,41.5703632140001,-87.346403524,421,"2676 HARRISON STREET, GARY, IN, 46407","Match","Exact","2676 HARRISON ST, GARY, IN, 46407",98433228,"R"
430922,"2676 HUCK FINN DR","MUSCATINE","IA",52761,41.4621356640001,-91.0461533119999,422,"2676 HUCK FINN DR, MUSCATINE, IA, 52761","Match","Exact","2676 HUCK FINN DR, MUSCATINE, IA, 52761",98995142,"R"
430923,"2676 KINSLEY AVENUE NW","CONCORD","NC",28027,35.4056620580001,-80.647172262,423,"2676 KINSLEY AVENUE NW, CONCORD, NC, 28027","Match","Exact","2676 KINSLEY AVE NW, CONCORD, NC, 28027",612683388,"L"
430924,"2676 MOON CABIN DRIVE","POWDER SPGS","GA",30127,33.89020264,-84.696678172,424,"2676 MOON CABIN DRIVE, POWDER SPGS, GA, 30127","Match","Exact","2676 MOON CABIN DR, POWDER SPGS, GA, 30127",17200913,"R"
430925,"2676 N 70TH ST APT 2","WAUWATOSA","WI",53213,43.0675696000001,-87.999631979,425,"2676 N 70TH ST APT 2, WAUWATOSA, WI, 53213","Match","Non_Exact","2676 N 70TH ST, WAUWATOSA, WI, 53213",77730996,"R"
430926,"2676 NW 83RD WAY","COOPER CITY","FL",33024,26.032322091,-80.255860281,426,"2676 NW 83RD WAY, COOPER CITY, FL, 33024","Match","Non_Exact","2676 NW 83 WAY, HOLLYWOOD, FL, 33024",618368193,"R"
430927,"2676 PIONEER DAYS LANE","TAMPA","FL",33610,28.005588146,-82.430645797,427,"2676 PIONEER DAYS LANE, TAMPA, FL, 33610","Match","Exact","2676 PIONEER DAYS LN, TAMPA, FL, 33610",624970519,"R"
430928,"2676 S GRAND AVE","SANTA ANA","CA",92705,33.710458116,-117.850881035,428,"2676 S GRAND AVE, SANTA ANA, CA, 92705","Match","Exact","2676 S GRAND AVE, SANTA ANA, CA, 92705",653173323,"R"
430929,"2676 SOUTHOVER DRIVE NE","PALM BAY","FL",32905,28.047728363,-80.592913772,429,"2676 SOUTHOVER DRIVE NE, PALM BAY, FL, 32905","Match","Exact","2676 SOUTHOVER DR NE, PALM BAY, FL, 32905",640572042,"R"
430930,"2676 SUNSET COVE LN","PHELPS","WI",54554,NA,NA,430,"2676 SUNSET COVE LN, PHELPS, WI, 54554","No_Match",NA,NA,NA,NA
430931,"2676 TAYLOR DR","WOOSTER","OH",44691,40.8319875780001,-81.9373268319999,431,"2676 TAYLOR DR, WOOSTER, OH, 44691","Match","Non_Exact","2676 TAYLOR ST, WOOSTER, OH, 44691",58721472,"L"
430932,"2676 TECHNOLOGY DR","O FALLON","MO",63368,NA,NA,432,"2676 TECHNOLOGY DR, O FALLON, MO, 63368","No_Match",NA,NA,NA,NA
430933,"2676 W 6050 S","ROY","UT",84067,41.1536205030001,-112.04471975,433,"2676 W 6050 S, ROY, UT, 84067","Match","Exact","2676 W 6050 S, ROY, UT, 84067",155693009,"L"
430934,"2676 W SCARSDALE CT","TAYLORSVILLE","UT",84129,40.660028708,-111.957317764,434,"2676 W SCARSDALE CT, TAYLORSVILLE, UT, 84129","Match","Exact","2676 SCARSDALE CT, TAYLORSVILLE, UT, 84129",176121973,"R"
430935,"2676 WHISPERING TRL","LITTLE ELM","TX",75068,33.175070921,-96.8911919189999,435,"2676 WHISPERING TRL, LITTLE ELM, TX, 75068","Match","Exact","2676 WHISPERING TRL, LITTLE ELM, TX, 75068",619800594,"R"
430936,"2676 WOODROSE PLACE","HIGHLANDS RANCH","CO",80129,39.529495576,-105.020343117,436,"2676 WOODROSE PLACE, HIGHLANDS RANCH, CO, 80129","Match","Non_Exact","2676 W WOODROSE PL, HIGHLANDS RANCH, CO, 80129",130815759,"L"
430937,"26760 ADAMS ROAD","LOS GATOS","CA",95033,37.102008088,-121.90631526,437,"26760 ADAMS ROAD, LOS GATOS, CA, 95033","Match","Exact","26760 ADAMS RD, LOS GATOS, CA, 95033",653158719,"R"
430938,"26761 CLARKFORD ST","HAYWARD","CA",94544,37.64007589,-122.078584765,438,"26761 CLARKFORD ST, HAYWARD, CA, 94544","Match","Exact","26761 CLARKFORD ST, HAYWARD, CA, 94544",125021824,"R"
430939,"26761 RD 91","IDALIA","CO",80735,NA,NA,439,"26761 RD 91, IDALIA, CO, 80735","No_Match",NA,NA,NA,NA
430940,"26762 CLAUDETTE ST - APT 418","SANTA CLARITA","CA",91351,34.4181174920001,-118.491583086,440,"26762 CLAUDETTE ST - APT 418, SANTA CLARITA, CA, 91351","Match","Exact","26762 CLAUDETTE ST, SANTA CLARITA, CA, 91351",142810677,"L"
430941,"26762 FOSTORIA RD","GENOA","OH",43430,41.5349682620001,-83.414857726,441,"26762 FOSTORIA RD, GENOA, OH, 43430","Match","Exact","26762 FOSTORIA RD, GENOA, OH, 43430",642836867,"L"
430942,"26762 N 97TH LN","PEORIA","AZ",85383,33.726225964,-112.270324977,442,"26762 N 97TH LN, PEORIA, AZ, 85383","Match","Exact","26762 N 97TH LN, PEORIA, AZ, 85383",128881828,"R"
430943,"26765 CARRONADE DRIVE APT 3208","PERRYSBURG","OH",43551,41.545540342,-83.59996076,443,"26765 CARRONADE DRIVE APT 3208, PERRYSBURG, OH, 43551","Match","Exact","26765 CARRONADE DR, PERRYSBURG, OH, 43551",38746990,"L"
430944,"26765 CARRONADE DRIVE APT 5204","PERRYSBURG","OH",43551,41.545540342,-83.59996076,444,"26765 CARRONADE DRIVE APT 5204, PERRYSBURG, OH, 43551","Match","Exact","26765 CARRONADE DR, PERRYSBURG, OH, 43551",38746990,"L"
430945,"26768 CTY HWY X","BLUE RIVER","IA",53518,NA,NA,445,"26768 CTY HWY X, BLUE RIVER, IA, 53518","No_Match",NA,NA,NA,NA
430946,"26769 BEAN RIDGE RD","THEBES","IL",62990,37.2256970810001,-89.4292079109999,446,"26769 BEAN RIDGE RD, THEBES, IL, 62990","Match","Exact","26769 BEAN RIDGE RD, THEBES, IL, 62990",66122854,"R"
430947,"2677 AMARILLO STREET","BATON ROUGE","LA",70805,30.5002754610001,-91.163938768,447,"2677 AMARILLO STREET, BATON ROUGE, LA, 70805","Match","Exact","2677 AMARILLO ST, BATON ROUGE, LA, 70805",92180011,"L"
430948,"2677 ASTER DR","RICHARDSON","TX",75082,32.990273598,-96.67089114,448,"2677 ASTER DR, RICHARDSON, TX, 75082","Match","Exact","2677 ASTER DR, RICHARDSON, TX, 75082",123508696,"L"
430949,"2677 AVALON COURT","ALEXANDRIA","VA",22314,38.803505129,-77.078744749,449,"2677 AVALON COURT, ALEXANDRIA, VA, 22314","Match","Exact","2677 AVALON CT, ALEXANDRIA, VA, 22314",76064560,"L"
430950,"2677 AVENIR PL APT 3112","VIENNA","VA",22180,38.8814544630001,-77.230223342,450,"2677 AVENIR PL APT 3112, VIENNA, VA, 22180","Match","Exact","2677 AVENIR PL, VIENNA, VA, 22180",648189385,"R"
430951,"2677 BARTON CHAPEL RD","AUGUSTA","GA",30906,33.4200183770001,-82.0811506109999,451,"2677 BARTON CHAPEL RD, AUGUSTA, GA, 30906","Match","Exact","2677 BARTON CHAPEL RD, AUGUSTA, GA, 30906",55635008,"R"
430952,"2677 BRONSONS WAY","TWINSBURG","OH",44087,41.329166478,-81.427389504,452,"2677 BRONSONS WAY, TWINSBURG, OH, 44087","Match","Non_Exact","2677 BRONSON'S WAY, TWINSBURG, OH, 44087",61394524,"L"
430953,"2677 COUNTY ROAD 112","CALDWELL","TX",77836,30.4982869900001,-96.787077828,453,"2677 COUNTY ROAD 112, CALDWELL, TX, 77836","Match","Exact","2677 CO RD 112, CALDWELL, TX, 77836",24815733,"L"
430954,"2677 DOUGLAS RD","STANTON","TN",38069,35.4401862890001,-89.359059906,454,"2677 DOUGLAS RD, STANTON, TN, 38069","Match","Exact","2677 DOUGLAS RD, STANTON, TN, 38069",63739300,"L"
430955,"2677 DULA HOLLOW LANE","LENOIR","NC",28645,35.869222285,-81.5778936629999,455,"2677 DULA HOLLOW LANE, LENOIR, NC, 28645","Match","Exact","2677 DULA HOLLOW LN, LENOIR, NC, 28645",652482514,"R"
430956,"2677 E SPRING HILL CT","GODDARD","KS",67052,37.677930969,-97.5450534939999,456,"2677 E SPRING HILL CT, GODDARD, KS, 67052","Match","Exact","2677 SPRING HILL CT, GODDARD, KS, 67052",624767872,"L"
430957,"2677 FARMSTEAD RD","SMYRNA","GA",30080,33.8862688940001,-84.484537054,457,"2677 FARMSTEAD RD, SMYRNA, GA, 30080","Match","Exact","2677 FARMSTEAD RD, SMYRNA, GA, 30080",643023759,"R"
430958,"2677 FOREST GLEN CT","ROCHESTER","MI",48306,42.73539407,-83.189463314,458,"2677 FOREST GLEN CT, ROCHESTER, MI, 48306","Match","Non_Exact","2677 FORESTGLEN CT, ROCHESTER, MI, 48306",69824626,"L"
430959,"2677 GLENWOOD AVE APT 109","PHILADELPHIA","PA",19121,39.9856289200001,-75.17827542,459,"2677 GLENWOOD AVE APT 109, PHILADELPHIA, PA, 19121","Match","Non_Exact","2677 W GLENWOOD AVE, PHILADELPHIA, PA, 19121",131440798,"R"
430960,"2677 HOLLY DR","UPLAND","CA",91784,34.1628051870001,-117.661386575,460,"2677 HOLLY DR, UPLAND, CA, 91784","Match","Exact","2677 HOLLY DR, UPLAND, CA, 91784",144749434,"L"
430961,"2677 JOHNSON ROAD","LOGANVILLE","GA",30052,33.7969327280001,-83.927425866,461,"2677 JOHNSON ROAD, LOGANVILLE, GA, 30052","Match","Exact","2677 JOHNSON RD, LOGANVILLE, GA, 30052",77636618,"L"
430962,"2677 LANCASTER","EAST POINT","GA",30344,33.6826025830001,-84.459019634,462,"2677 LANCASTER, EAST POINT, GA, 30344","Match","Non_Exact","2677 LANCASTER DR, EAST POINT, GA, 30344",17347268,"R"
430963,"2677 LARKIN ST APT 403","SAN FRANCISCO","CA",94109,37.8024483250001,-122.421403468,463,"2677 LARKIN ST APT 403, SAN FRANCISCO, CA, 94109","Match","Exact","2677 LARKIN ST, SAN FRANCISCO, CA, 94109",192279914,"L"
430964,"2677 MEADOW GLEN DRIVE","SAN RAMON","CA",94583,37.770625459,-121.977890039,464,"2677 MEADOW GLEN DRIVE, SAN RAMON, CA, 94583","Match","Exact","2677 MEADOW GLEN DR, SAN RAMON, CA, 94583",192074372,"R"
430965,"2677 MICHELLI DRIVE","BATON ROUGE","LA",70805,30.4729141120001,-91.127054194,465,"2677 MICHELLI DRIVE, BATON ROUGE, LA, 70805","Match","Exact","2677 MICHELLI DR, BATON ROUGE, LA, 70805",92188662,"L"
430966,"2677 MONTANA AVE UNIT 21","CINCINNATI","OH",45211,39.1526284510001,-84.58508919,466,"2677 MONTANA AVE UNIT 21, CINCINNATI, OH, 45211","Match","Exact","2677 MONTANA AVE, CINCINNATI, OH, 45211",103917749,"L"
430967,"2677 MULBERRY LANE","GREENVILLE","NC",27858,35.576860203,-77.3649401489999,467,"2677 MULBERRY LANE, GREENVILLE, NC, 27858","Match","Exact","2677 MULBERRY LN, GREENVILLE, NC, 27858",638300729,"R"
430968,"2677 N 750 EAST","LEHI","UT",84043,40.421908489,-111.837025681,468,"2677 N 750 EAST, LEHI, UT, 84043","Match","Exact","2677 N 750 E, LEHI, UT, 84043",134261573,"R"
430969,"2677 N WESTLAWN","FRESNO","CA",93723,36.7741696360001,-119.951939193,469,"2677 N WESTLAWN, FRESNO, CA, 93723","Match","Non_Exact","2677 N WESTLAWN AVE, FRESNO, CA, 93723",197564989,"L"
430970,"2677 OLD BAINBRIDGE RD 314","TALLAHASSEE","FL",32303,30.48077656,-84.317932387,470,"2677 OLD BAINBRIDGE RD 314, TALLAHASSEE, FL, 32303","Match","Non_Exact","2677 OLD BAINBRIDGE RD, TALLAHASSEE, FL, 32303",618804758,"R"
430971,"2677 OLD BAINBRIDGE RD APT 112","TALLAHASSEE","FL",32303,30.48077656,-84.317932387,471,"2677 OLD BAINBRIDGE RD APT 112, TALLAHASSEE, FL, 32303","Match","Non_Exact","2677 OLD BAINBRIDGE RD, TALLAHASSEE, FL, 32303",618804758,"R"
430972,"2677 OLD BAINBRIDGE ROAD APT 1035","TALLAHASSEE","FL",32307,NA,NA,472,"2677 OLD BAINBRIDGE ROAD APT 1035, TALLAHASSEE, FL, 32307","No_Match",NA,NA,NA,NA
430973,"2677 OLD BAINBRIDGE ROAD UNIT 1737","TALLAHASSEE","FL",32303,30.48077656,-84.317932387,473,"2677 OLD BAINBRIDGE ROAD UNIT 1737, TALLAHASSEE, FL, 32303","Match","Non_Exact","2677 OLD BAINBRIDGE RD, TALLAHASSEE, FL, 32303",618804758,"R"
430974,"2677 ONYX ST","EUGENE","OR",97403,44.029780999,-123.072279172,474,"2677 ONYX ST, EUGENE, OR, 97403","Match","Exact","2677 ONYX ST, EUGENE, OR, 97403",178193899,"L"
430975,"2677 ORBUT DR","LAKE ORION","MI",48360,42.7397020720001,-83.291058917,475,"2677 ORBUT DR, LAKE ORION, MI, 48360","Match","Non_Exact","2677 ORBIT DR, LAKE ORION, MI, 48360",69701112,"L"
430976,"2677 PROPERITY AVE 200","FAIRFAX","VA",22031,NA,NA,476,"2677 PROPERITY AVE 200, FAIRFAX, VA, 22031","No_Match",NA,NA,NA,NA
430977,"2677 ROUNDHILL CIRCLE","PLACERVILLE","CA",95667,38.7369427740001,-120.921198069,477,"2677 ROUNDHILL CIRCLE, PLACERVILLE, CA, 95667","Match","Exact","2677 ROUNDHILL CIR, PLACERVILLE, CA, 95667",133060115,"L"
430978,"2677 S OCEAN BLVD APT 2C","BOCA RATON","FL",33432,26.325559535,-80.0753363379999,478,"2677 S OCEAN BLVD APT 2C, BOCA RATON, FL, 33432","Match","Exact","2677 OCEAN BLVD, BOCA RATON, FL, 33432",611291938,"R"
430979,"2677 SAN MARCUS CIRCLE","ST GEORGE","UT",84770,37.106502961,-113.639725599,479,"2677 SAN MARCUS CIRCLE, ST GEORGE, UT, 84770","Match","Exact","2677 SAN MARCUS CIR, SAINT GEORGE, UT, 84770",166197506,"L"
430980,"2677 SHILOH COURT","DENHAM SPRINGS","LA",70726,NA,NA,480,"2677 SHILOH COURT, DENHAM SPRINGS, LA, 70726","No_Match",NA,NA,NA,NA
430981,"2677 W WRENWOOD AVE","FRESNO","CA",93711,36.817312029,-119.841557374,481,"2677 W WRENWOOD AVE, FRESNO, CA, 93711","Match","Exact","2677 W WRENWOOD AVE, FRESNO, CA, 93711",197566842,"L"
430982,"2677 WOOD SORRELL ST","LAS VEGAS","NV",89135,36.1426649200001,-115.317022393,482,"2677 WOOD SORRELL ST, LAS VEGAS, NV, 89135","Match","Non_Exact","2677 WOOD SORREL ST, LAS VEGAS, NV, 89135",201957729,"R"
430983,"2677 WOODY NOLL DR","PORTAGE","MI",49002,42.1614511540001,-85.558083535,483,"2677 WOODY NOLL DR, PORTAGE, MI, 49002","Match","Exact","2677 WOODY NOLL DR, PORTAGE, MI, 49002",12258898,"L"
430984,"2677","240TH AV","WI",54024,NA,NA,484,"2677, 240TH AV, WI, 54024","No_Match",NA,NA,NA,NA
430985,"26771 MORENA DR","MISSION VIEJO","CA",92691,33.571018442,-117.663060488,485,"26771 MORENA DR, MISSION VIEJO, CA, 92691","Match","Exact","26771 MORENA DR, MISSION VIEJO, CA, 92691",144071162,"L"
430986,"26773 GREENVILLE DRIVE","PERRYSBURG","OH",43551,41.5427812130001,-83.666021811,486,"26773 GREENVILLE DRIVE, PERRYSBURG, OH, 43551","Match","Exact","26773 GREENVILLE DR, PERRYSBURG, OH, 43551",38742232,"L"
430987,"26775 STANFORD","INKSTER","MI",48141,42.2783567860001,-83.301614058,487,"26775 STANFORD, INKSTER, MI, 48141","Match","Non_Exact","26775 STANFORD AVE, INKSTER, MI, 48141",95435712,"L"
430988,"26775 VILLAGE LANE","OLMSTED FALLS","OH",44138,41.360331671,-81.923623382,488,"26775 VILLAGE LANE, OLMSTED FALLS, OH, 44138","Match","Exact","26775 VILLAGE LN, OLMSTED FALLS, OH, 44138",633982682,"L"
430989,"26777 DEARPATH COURT","EDWARDSBURG","MI",49112,NA,NA,489,"26777 DEARPATH COURT, EDWARDSBURG, MI, 49112","No_Match",NA,NA,NA,NA
430990,"26779 AMYGDALOID ST","CALUMET","MI",49913,47.2590806950001,-88.4304467429999,490,"26779 AMYGDALOID ST, CALUMET, MI, 49913","Match","Exact","26779 AMYGDALOID ST, CALUMET, MI, 49913",635603114,"L"
430991,"26779 MARQUETTE AVE","BRUNSWICK","MO",65236,39.452858125,-93.074267004,491,"26779 MARQUETTE AVE, BRUNSWICK, MO, 65236","Match","Exact","26779 MARQUETTE AVE, BRUNSWICK, MO, 65236",20871873,"L"
430992,"2678 8TH STREET","BROOKLYN","NY",11223,NA,NA,492,"2678 8TH STREET, BROOKLYN, NY, 11223","No_Match",NA,NA,NA,NA
430993,"2678 BLACK BEAR","NEW BRAUNFELS","TX",78132,29.8014033970001,-98.067472376,493,"2678 BLACK BEAR, NEW BRAUNFELS, TX, 78132","Match","Non_Exact","2678 BLACK BEAR DR, NEW BRAUNFELS, TX, 78132",634121391,"R"
430994,"2678 BONAIRE TERRACE","MARIETTA","GA",30066,34.03823585,-84.473035813,494,"2678 BONAIRE TERRACE, MARIETTA, GA, 30066","Match","Exact","2678 BONAIRE TER, MARIETTA, GA, 30066",17230852,"L"
430995,"2678 COLD SPRING MANOR DR","INDIANAPOLIS","IN",46222,39.804233159,-86.205282084,495,"2678 COLD SPRING MANOR DR, INDIANAPOLIS, IN, 46222","Match","Exact","2678 COLD SPRING MANOR DR, INDIANAPOLIS, IN, 46222",107986018,"R"
430996,"2678 CYPRESS LN","WESTON","FL",33332,26.0867817120001,-80.3961967449999,496,"2678 CYPRESS LN, WESTON, FL, 33332","Match","Exact","2678 CYPRESS LN, WESTON, FL, 33332",114766567,"L"
430997,"2678 E JEFFERSON","DETROIT","MI",48207,42.338612572,-83.021766428,497,"2678 E JEFFERSON, DETROIT, MI, 48207","Match","Non_Exact","2678 E JEFFERSON AVE, DETROIT, MI, 48207",95484620,"R"
430998,"2678 FARLEY STREET","EAST POINT","GA",30344,33.6826354230001,-84.4601672429999,498,"2678 FARLEY STREET, EAST POINT, GA, 30344","Match","Exact","2678 FARLEY ST, EAST POINT, GA, 30344",17347237,"L"
430999,"2678 FLUSHING COVEY DRIVE","HARTSVILLE","SC",29550,34.3583608270001,-80.146973149,499,"2678 FLUSHING COVEY DRIVE, HARTSVILLE, SC, 29550","Match","Exact","2678 FLUSHING COVEY DR, HARTSVILLE, SC, 29550",78416663,"L"
431000,"2678 GEORGETOWNE DR NW","ROCHESTER","MN",55901,44.0785769890001,-92.501991834,500,"2678 GEORGETOWNE DR NW, ROCHESTER, MN, 55901","Match","Exact","2678 GEORGETOWNE DR NW, ROCHESTER, MN, 55901",30574678,"R"
