"ID","Address","City","State","Zip","lat","long","id","input_address","match_indicator","match_type","matched_address","tiger_line_id","tiger_side"
321501,"2040 SOUTH STAGE RD","MEDFORD","OR",97501,42.295758176,-122.898278733,1,"2040 SOUTH STAGE RD, MEDFORD, OR, 97501","Match","Exact","2040 S STAGE RD, MEDFORD, OR, 97501",155565256,"R"
321502,"2040 SPICE CIR","NAPERVILLE","IL",60565,41.7463409000001,-88.094659522,2,"2040 SPICE CIR, NAPERVILLE, IL, 60565","Match","Exact","2040 SPICE CIR, NAPERVILLE, IL, 60565",112679198,"L"
321503,"2040 ST CHRISTOPHER  DR","LEXINGTON","KY",40502,38.0250365690001,-84.459682049,3,"2040 ST CHRISTOPHER  DR, LEXINGTON, KY, 40502","Match","Exact","2040 ST CHRISTOPHER DR, LEXINGTON, KY, 40502",31927157,"R"
321504,"2040 STANTON RD    B6","EAST POINT","GA",30344,33.6998705010001,-84.4484188499999,4,"2040 STANTON RD    B6, EAST POINT, GA, 30344","Match","Non_Exact","2040 STANTON ST, EAST POINT, GA, 30344",625274791,"L"
321505,"2040 STANTON RD","ATLANTA","GA",30344,33.6998705010001,-84.4484188499999,5,"2040 STANTON RD, ATLANTA, GA, 30344","Match","Non_Exact","2040 STANTON ST, ATLANTA, GA, 30344",625274791,"L"
321506,"2040 STANTUM B8","ATLANTA","GA",30310,NA,NA,6,"2040 STANTUM B8, ATLANTA, GA, 30310","No_Match",NA,NA,NA,NA
321507,"2040 SUFFOLK LANE","INDIANAPOLIS","IN",46260,39.8945014610001,-86.1960470669999,7,"2040 SUFFOLK LANE, INDIANAPOLIS, IN, 46260","Match","Exact","2040 SUFFOLK LN, INDIANAPOLIS, IN, 46260",108025034,"R"
321508,"2040 SUNNYSIDE AVE","BURLINGTON","IA",52601,40.831681105,-91.118343051,8,"2040 SUNNYSIDE AVE, BURLINGTON, IA, 52601","Match","Exact","2040 SUNNYSIDE AVE, BURLINGTON, IA, 52601",5541616,"R"
321509,"2040 TAYLOR RD BLDG A-APT 1A","EAST CLEVELAND","OH",44112,41.535271735,-81.568085326,9,"2040 TAYLOR RD BLDG A-APT 1A, EAST CLEVELAND, OH, 44112","Match","Non_Exact","2040 N TAYLOR RD, EAST CLEVELAND, OH, 44112",61121828,"R"
321510,"2040 TERRY STREET","LONGMONT","CO",80501,40.194628799,-105.104721008,10,"2040 TERRY STREET, LONGMONT, CO, 80501","Match","Exact","2040 TERRY ST, LONGMONT, CO, 80501",220754068,"R"
321511,"2040 VIEW LANE","CORVALLIS","MT",59828,46.379860582,-114.082778585,11,"2040 VIEW LANE, CORVALLIS, MT, 59828","Match","Exact","2040 VIEW LN, CORVALLIS, MT, 59828",153516489,"R"
321512,"2040 VILLAGE DRIVE","FAIRBORN","OH",45324,39.788919435,-84.065865491,12,"2040 VILLAGE DRIVE, FAIRBORN, OH, 45324","Match","Exact","2040 VILLAGE DR, FAIRBORN, OH, 45324",641734152,"R"
321513,"2040 W 138TH TERRACE APT 100","LEAWOOD","KS",66224,38.877519492,-94.6092344639999,13,"2040 W 138TH TERRACE APT 100, LEAWOOD, KS, 66224","Match","Non_Exact","2040 W 138TH TER, LEAWOOD, KS, 66224",91308739,"R"
321514,"2040 W 138TH TERRACE","LEAWOOD","KS",64117,38.877519492,-94.6092344639999,14,"2040 W 138TH TERRACE, LEAWOOD, KS, 64117","Match","Non_Exact","2040 W 138TH TER, LEAWOOD, KS, 66224",91308739,"R"
321515,"2040 W 83RD ST","CHICAGO","IL",60620,41.7429299840001,-87.674430043,15,"2040 W 83RD ST, CHICAGO, IL, 60620","Match","Exact","2040 W 83RD ST, CHICAGO, IL, 60620",111821068,"R"
321516,"2040 W CHARLESTON BLVD STE 601","LAS VEGAS","NV",89102,36.158940923,-115.168721205,16,"2040 W CHARLESTON BLVD STE 601, LAS VEGAS, NV, 89102","Match","Non_Exact","2040 W CHARLESTON BLVD, LAS VEGAS, NV, 89102",639325539,"R"
321517,"2040 W SYCAMORE","SAN BERNADINO","CA",92407,34.1841117020001,-117.336637268,17,"2040 W SYCAMORE, SAN BERNADINO, CA, 92407","Match","Non_Exact","2040 SYCAMORE ST, SAN BERNARDINO, CA, 92407",614808082,"L"
321518,"2040 WALLACE ST","PHILADELPHIA","PA",19130,39.9664406220001,-75.1711696149999,18,"2040 WALLACE ST, PHILADELPHIA, PA, 19130","Match","Exact","2040 WALLACE ST, PHILADELPHIA, PA, 19130",131406091,"L"
321519,"2040 WALSH ST","LOUISVILLE","OH",44641,40.8551460850001,-81.27935615,19,"2040 WALSH ST, LOUISVILLE, OH, 44641","Match","Exact","2040 WALSH ST, LOUISVILLE, OH, 44641",64704652,"R"
321520,"2040 WAPPOO DR","CHARLESTON","SC",29412,32.7621771390001,-79.9907155929999,20,"2040 WAPPOO DR, CHARLESTON, SC, 29412","Match","Exact","2040 WAPPOO DR, CHARLESTON, SC, 29412",108811493,"R"
321521,"2040 WEST 39TH STREET","CASPER","WY",82604,42.811947908,-106.348985073,21,"2040 WEST 39TH STREET, CASPER, WY, 82604","Match","Non_Exact","2040 W 39TH AVE, CASPER, WY, 82604",647303288,"R"
321522,"2040 WEST AVE J13  APT 4","LANCASTER","CA",93536,34.677682572,-118.167631608,22,"2040 WEST AVE J13  APT 4, LANCASTER, CA, 93536","Match","Exact","2040 W AVE J13, LANCASTER, CA, 93536",142706255,"R"
321523,"2040 WEST LAGOON ROAD","PLEASANTON","CA",94566,37.653636679,-121.899998757,23,"2040 WEST LAGOON ROAD, PLEASANTON, CA, 94566","Match","Exact","2040 W LAGOON RD, PLEASANTON, CA, 94566",125085130,"R"
321524,"2040 WEST MAIN STREET","RAPID CITY","SD",57702,44.081107504,-103.25292913,24,"2040 WEST MAIN STREET, RAPID CITY, SD, 57702","Match","Exact","2040 W MAIN ST, RAPID CITY, SD, 57702",205507980,"R"
321525,"2040 WEST MCNICHOLS ROAD","DETROIT","MI",48203,42.417495903,-83.121525522,25,"2040 WEST MCNICHOLS ROAD, DETROIT, MI, 48203","Match","Exact","2040 W MCNICHOLS RD, DETROIT, MI, 48203",95462133,"R"
321526,"2040 WILDWOOD DR","WILMINGTON","DE",19808,39.7505160100001,-75.6188219859999,26,"2040 WILDWOOD DR, WILMINGTON, DE, 19808","Match","Non_Exact","2040 WILDWOOD DR, WILMINGTON, DE, 19805",187254025,"L"
321527,"2040 WILLOWOOD DR N","ONTARIO","OH",44903,40.7760421930001,-82.587106556,27,"2040 WILLOWOOD DR N, ONTARIO, OH, 44903","Match","Non_Exact","2040 WILLOWOOD DR N, ONTARIO, OH, 44906",207223036,"R"
321528,"2040 WOODSON RD STE 201","ST LOUIS","MO",63114,38.692685026,-90.362991173,28,"2040 WOODSON RD STE 201, ST LOUIS, MO, 63114","Match","Exact","2040 WOODSON RD, SAINT LOUIS, MO, 63114",100132414,"R"
321529,"2040 YORKSHIRE AVE APT 103","SAINT PAUL","MN",55116,44.9114357,-93.1849970979999,29,"2040 YORKSHIRE AVE APT 103, SAINT PAUL, MN, 55116","Match","Exact","2040 YORKSHIRE AVE, SAINT PAUL, MN, 55116",97639683,"L"
321530,"20400 APPLE HARVEST CIR APT O","GERMANTOWN","MD",20876,39.1908556560001,-77.244410261,30,"20400 APPLE HARVEST CIR APT O, GERMANTOWN, MD, 20876","Match","Exact","20400 APPLE HARVEST CIR, GERMANTOWN, MD, 20876",648216359,"L"
321531,"20400 CHALET LANE","SARATOGA","CA",95070,37.2690085790001,-122.031064222,31,"20400 CHALET LANE, SARATOGA, CA, 95070","Match","Exact","20400 CHALET LN, SARATOGA, CA, 95070",122942674,"L"
321532,"20400 HIGHVIEW COURT","HAGESTOWN","MD",21740,39.58502551,-77.6603802669999,32,"20400 HIGHVIEW COURT, HAGESTOWN, MD, 21740","Match","Non_Exact","20400 HIGHVIEW CT, HAGERSTOWN, MD, 21740",60799663,"R"
321533,"20400 N HIGHWAY 133","CROCKER","MO",65452,37.987313187,-92.210576322,33,"20400 N HIGHWAY 133, CROCKER, MO, 65452","Match","Non_Exact","20400 N STATE HWY 133, CROCKER, MO, 65452",26391831,"L"
321534,"20400 RENFREW RD","DEROIT","MI",48221,42.4439491950001,-83.135369708,34,"20400 RENFREW RD, DEROIT, MI, 48221","Match","Non_Exact","20400 RENFREW RD, DETROIT, MI, 48221",95460678,"R"
321535,"20400 RENFREW RD","DETROIT","MI",48221,42.4439491950001,-83.135369708,35,"20400 RENFREW RD, DETROIT, MI, 48221","Match","Exact","20400 RENFREW RD, DETROIT, MI, 48221",95460678,"R"
321536,"20400 RENFREW","DETROIT","MI",48221,42.4439491950001,-83.135369708,36,"20400 RENFREW, DETROIT, MI, 48221","Match","Non_Exact","20400 RENFREW RD, DETROIT, MI, 48221",95460678,"R"
321537,"20400 STANFORD AVE","RIVERSIDE","CA",92507,33.9528929000001,-117.306988191,37,"20400 STANFORD AVE, RIVERSIDE, CA, 92507","Match","Exact","20400 STANFORD AVE, RIVERSIDE, CA, 92507",194746758,"R"
321538,"20400 WATKINS MEADOWS DR","GERMANTOWN","MD",20876,39.1919955910001,-77.221179193,38,"20400 WATKINS MEADOWS DR, GERMANTOWN, MD, 20876","Match","Non_Exact","20400 WATKINS MEADOW DR, GERMANTOWN, MD, 20876",62088508,"L"
321539,"20401 E 8 MILE R APT 26","SAINT CLAIR SHORES","MI",48021,NA,NA,39,"20401 E 8 MILE R APT 26, SAINT CLAIR SHORES, MI, 48021","No_Match",NA,NA,NA,NA
321540,"20401 HELLENIC DRIVE","OLYMPIA FIELDS","IL",60461,41.518664223,-87.695972118,40,"20401 HELLENIC DRIVE, OLYMPIA FIELDS, IL, 60461","Match","Exact","20401 HELLENIC DR, OLYMPIA FIELDS, IL, 60461",111710209,"L"
321541,"20401 MELROSE ST","SOUTHFIELD","MI",48075,42.4487979470001,-83.243160288,41,"20401 MELROSE ST, SOUTHFIELD, MI, 48075","Match","Exact","20401 MELROSE ST, SOUTHFIELD, MI, 48075",69739469,"L"
321542,"20401 NE30TH AVE","AVENTURA","FL",33180,NA,NA,42,"20401 NE30TH AVE, AVENTURA, FL, 33180","No_Match",NA,NA,NA,NA
321543,"20401 SOLEDAD CANYON","CANYON COUNTRY","CA",91351,NA,NA,43,"20401 SOLEDAD CANYON, CANYON COUNTRY, CA, 91351","Tie",NA,NA,NA,NA
321544,"20401 SW 118TH AVE","MIAMI","FL",33177,25.5769209420001,-80.382466017,44,"20401 SW 118TH AVE, MIAMI, FL, 33177","Match","Exact","20401 SW 118TH AVE, MIAMI, FL, 33177",115994442,"L"
321545,"20401 SW 83RD AVE","CUTLER BAY","FL",33189,25.577845262,-80.326002714,45,"20401 SW 83RD AVE, CUTLER BAY, FL, 33189","Match","Exact","20401 SW 83RD AVE, CUTLER BAY, FL, 33189",115996792,"L"
321546,"20401 SW BIRCH ST SUITE 300","NEWPORT BEACH","CA",92660,33.6568716680001,-117.877613624,46,"20401 SW BIRCH ST SUITE 300, NEWPORT BEACH, CA, 92660","Match","Non_Exact","20401 SW BIRCH ST, NEWPORT BEACH, CA, 92660",144404117,"R"
321547,"20401 TRADEWIND STREET","CANYON","TX",79015,35.012409194,-101.829905496,47,"20401 TRADEWIND STREET, CANYON, TX, 79015","Match","Exact","20401 TRADEWIND ST, CANYON, TX, 79015",182663977,"R"
321548,"20402 106TH AVENUE SE APT CC103","KENT","WA",98144,47.4183873000001,-122.199556567,48,"20402 106TH AVENUE SE APT CC103, KENT, WA, 98144","Match","Non_Exact","20402 106TH AVE SE, KENT, WA, 98031",187041439,"L"
321549,"20402 ALDERLEAF TERRACE","GERMANTOWN","MD",20874,39.190513475,-77.2696823169999,49,"20402 ALDERLEAF TERRACE, GERMANTOWN, MD, 20874","Match","Exact","20402 ALDERLEAF TER, GERMANTOWN, MD, 20874",62088415,"R"
321550,"20402 FRIESIAN TRAIL","HUMBLE","TX",77338,30.0148460670001,-95.311232186,50,"20402 FRIESIAN TRAIL, HUMBLE, TX, 77338","Match","Exact","20402 FRIESIAN TRL, HUMBLE, TX, 77338",624798632,"L"
321551,"20402 HAYNES ST","WINNETKA","CA",91306,34.1926783440001,-118.577975578,51,"20402 HAYNES ST, WINNETKA, CA, 91306","Match","Exact","20402 HAYNES ST, WINNETKA, CA, 91306",141553436,"L"
321552,"20402 NATIONAL DRIVE","LAGO VISTA","TX",78645,30.437131783,-97.994981261,52,"20402 NATIONAL DRIVE, LAGO VISTA, TX, 78645","Match","Exact","20402 NATIONAL DR, LAGO VISTA, TX, 78645",63921465,"L"
321553,"20402 PARADISE LANE","TOPANGO","CA",90290,34.1175387210001,-118.5801138,53,"20402 PARADISE LANE, TOPANGO, CA, 90290","Match","Non_Exact","20402 PARADISE LN, TOPANGA, CA, 90290",141555222,"L"
321554,"20403 APACHE LAKE DR","KATY","TX",77449,29.814424031,-95.728972956,54,"20403 APACHE LAKE DR, KATY, TX, 77449","Match","Exact","20403 APACHE LAKE DR, KATY, TX, 77449",96566459,"R"
321555,"20403 APPLE HARVEST CIRCLE C","GERMANTOWN","MD",20876,39.1916963,-77.242895526,55,"20403 APPLE HARVEST CIRCLE C, GERMANTOWN, MD, 20876","Match","Exact","20403 APPLE HARVEST CIR, GERMANTOWN, MD, 20876",648216358,"R"
321556,"20403 CANTON TRACE","HUMBLE","TX",77338,30.0146438240001,-95.304334355,56,"20403 CANTON TRACE, HUMBLE, TX, 77338","Match","Exact","20403 CANTON TRCE, HUMBLE, TX, 77338",641733853,"L"
321557,"20403 CODMAN DR","ASHBUM","VA",20147,39.0513554450001,-77.459776596,57,"20403 CODMAN DR, ASHBUM, VA, 20147","Match","Non_Exact","20403 CODMAN DR, ASHBURN, VA, 20147",645683336,"R"
321558,"20403 E 40TH PL","DENVER","CO",80249,39.7714567290001,-104.75042744,58,"20403 E 40TH PL, DENVER, CO, 80249","Match","Exact","20403 E 40TH PL, DENVER, CO, 80249",624626839,"L"
321559,"20403 KLINGER STREET","DETROIT","MI",48234,42.445297538,-83.0699678139999,59,"20403 KLINGER STREET, DETROIT, MI, 48234","Match","Exact","20403 KLINGER ST, DETROIT, MI, 48234",95462850,"L"
321560,"20403 LAKE SPRING CT","CYPRESS","TX",77433,30.0037858000001,-95.738732693,60,"20403 LAKE SPRING CT, CYPRESS, TX, 77433","Match","Exact","20403 LAKE SPRING CT, CYPRESS, TX, 77433",96167754,"R"
321561,"20404 130TH ST","NEW RICHLAND","MN",56072,43.8541136440001,-93.507037172,61,"20404 130TH ST, NEW RICHLAND, MN, 56072","Match","Exact","20404 130TH ST, NEW RICHLAND, MN, 56072",28720324,"R"
321562,"20404 2ND AVE SW","NORMANDY PARK","WA",98166,47.4191435110001,-122.337677788,62,"20404 2ND AVE SW, NORMANDY PARK, WA, 98166","Match","Exact","20404 2ND AVE SW, NORMANDY PARK, WA, 98166",629178941,"L"
321563,"20404 98TH PLACE S","KENT","WA",98031,47.41892791,-122.209469224,63,"20404 98TH PLACE S, KENT, WA, 98031","Match","Exact","20404 98TH PL S, KENT, WA, 98031",239766478,"L"
321564,"20404 CAMINO DEL AVION STE A 109","MONARCH BEACH","CA",92629,NA,NA,64,"20404 CAMINO DEL AVION STE A 109, MONARCH BEACH, CA, 92629","No_Match",NA,NA,NA,NA
321565,"20404 LAKESHORE BLVD APT 1","EUCLID","OH",44123,41.602624878,-81.537985958,65,"20404 LAKESHORE BLVD APT 1, EUCLID, OH, 44123","Match","Exact","20404 LAKESHORE BLVD, EUCLID, OH, 44123",61107808,"R"
321566,"20404 SHADOW OAK CT","MONTGOMERY VILLAGE","MD",20886,39.191087318,-77.200766844,66,"20404 SHADOW OAK CT, MONTGOMERY VILLAGE, MD, 20886","Match","Exact","20404 SHADOW OAK CT, MONTGOMERY VILLAGE, MD, 20886",62108332,"L"
321567,"20404 W 92ND ST","LENEXA","KS",66220,38.9618734380001,-94.822023884,67,"20404 W 92ND ST, LENEXA, KS, 66220","Match","Exact","20404 W 92ND ST, LENEXA, KS, 66220",637380113,"R"
321568,"20405 180TH STREET PO BOX 175","MCGRATH","MN",56350,46.2744079890001,-93.271205473,68,"20405 180TH STREET PO BOX 175, MCGRATH, MN, 56350","Match","Non_Exact","20405 180TH ST, MC GRATH, MN, 56350",162617318,"L"
321569,"20405 APPLE HARVE","GERMANTOWN","MD",20876,NA,NA,69,"20405 APPLE HARVE, GERMANTOWN, MD, 20876","No_Match",NA,NA,NA,NA
321570,"20405 GORDON AVE","LAKEWOOD","CA",90715,33.8453519340001,-118.095802302,70,"20405 GORDON AVE, LAKEWOOD, CA, 90715","Match","Exact","20405 GORDON AVE, LAKEWOOD, CA, 90715",631992590,"R"
321571,"20405 SPLENDOR VIEW TERRACE","HAGERSTOWN","MD",21740,39.588717139,-77.66023318,71,"20405 SPLENDOR VIEW TERRACE, HAGERSTOWN, MD, 21740","Match","Exact","20405 SPLENDOR VIEW TER, HAGERSTOWN, MD, 21740",60806943,"L"
321572,"20405 WILLIAMSBURG DRIVE","EAGLE RIVER","AK",99577,61.3158624260001,-149.501638839,72,"20405 WILLIAMSBURG DRIVE, EAGLE RIVER, AK, 99577","Match","Exact","20405 WILLIAMSBURG DR, EAGLE RIVER, AK, 99577",190818906,"L"
321573,"20406 APPLE HARVEST CIR STE A","GERMANTOWN","MD",20876,39.1911082870001,-77.244445113,73,"20406 APPLE HARVEST CIR STE A, GERMANTOWN, MD, 20876","Match","Exact","20406 APPLE HARVEST CIR, GERMANTOWN, MD, 20876",648216359,"L"
321574,"20406 BRIAN WAY","TEHACHAPI","CA",93561,35.1251569630001,-118.492190063,74,"20406 BRIAN WAY, TEHACHAPI, CA, 93561","Match","Exact","20406 BRIAN WAY, TEHACHAPI, CA, 93561",639051222,"R"
321575,"20406 BRIGHTONWOOD LN","SPRING","TX",77379,30.0610742150001,-95.520380512,75,"20406 BRIGHTONWOOD LN, SPRING, TX, 77379","Match","Exact","20406 BRIGHTONWOOD LN, SPRING, TX, 77379",627639361,"L"
321576,"20406 EVERHART KEY LN","HUMBLE","TX",77338,30.014711262,-95.3034497799999,76,"20406 EVERHART KEY LN, HUMBLE, TX, 77338","Match","Exact","20406 EVERHART KEY LN, HUMBLE, TX, 77338",636795683,"L"
321577,"20406 LITTLE BEAR CREEK ROAD 126","WOODINVILLE","WA",98072,47.81158838,-122.160966131,77,"20406 LITTLE BEAR CREEK ROAD 126, WOODINVILLE, WA, 98072","Match","Exact","20406 LITTLE BEAR CREEK RD, WOODINVILLE, WA, 98072",187764627,"L"
321578,"20406 N 2890 RD","KINGFISHER","OK",73750,35.880911514,-97.851883022,78,"20406 N 2890 RD, KINGFISHER, OK, 73750","Match","Non_Exact","20406 N2890 RD, KINGFISHER, OK, 73750",121910367,"L"
321579,"20406 RUPERT ISLAND PI","STERLING","VA",20165,39.0503136790001,-77.350603607,79,"20406 RUPERT ISLAND PI, STERLING, VA, 20165","Match","Non_Exact","20406 RUPERT ISLAND PL, STERLING, VA, 20165",62334637,"R"
321580,"20407 PERCHERON TRAIL","HUMBLE","TX",77338,30.0148854660001,-95.310390748,80,"20407 PERCHERON TRAIL, HUMBLE, TX, 77338","Match","Exact","20407 PERCHERON TRL, HUMBLE, TX, 77338",624798206,"R"
321581,"20408 14TH DR SE","BOTHELL","WA",98012,47.811594476,-122.213441304,81,"20408 14TH DR SE, BOTHELL, WA, 98012","Match","Exact","20408 14TH DR SE, BOTHELL, WA, 98012",632632230,"R"
321582,"20408 E 43RD PL SOUTH","BROKEN ARROW","OK",74014,36.100744186,-95.749407661,82,"20408 E 43RD PL SOUTH, BROKEN ARROW, OK, 74014","Match","Exact","20408 E 43RD PL S, BROKEN ARROW, OK, 74014",83177734,"R"
321583,"20408 LONDELIUS ST","NORTHRIDGE","CA",91324,NA,NA,83,"20408 LONDELIUS ST, NORTHRIDGE, CA, 91324","No_Match",NA,NA,NA,NA
321584,"20408 LONDELIUS ST","NORTRIDGE","CA",91324,NA,NA,84,"20408 LONDELIUS ST, NORTRIDGE, CA, 91324","No_Match",NA,NA,NA,NA
321585,"20408 N THOR ROAD","COLBERT","WA",99005,47.842983722,-117.358821101,85,"20408 N THOR ROAD, COLBERT, WA, 99005","Match","Exact","20408 N THOR RD, COLBERT, WA, 99005",189853378,"R"
321586,"20408 NOBLE LANE","WEST LINN","OR",97068,45.3663713290001,-122.647125224,86,"20408 NOBLE LANE, WEST LINN, OR, 97068","Match","Exact","20408 NOBLE LN, WEST LINN, OR, 97068",157962550,"R"
321587,"20408 S NOBLE LANE","WEST LINN","OR",97068,45.3663670510001,-122.647128595,87,"20408 S NOBLE LANE, WEST LINN, OR, 97068","Match","Exact","20408 NOBLE LN, WEST LINN, OR, 97068",157962550,"R"
321588,"20408 WINFIELD PLACE","STERLING","VA",20165,39.0505402320001,-77.372270751,88,"20408 WINFIELD PLACE, STERLING, VA, 20165","Match","Exact","20408 WINFIELD PL, STERLING, VA, 20165",62334359,"L"
321589,"20408-63RD PL WEST","LYNNWOOD","WA",98036,NA,NA,89,"20408-63RD PL WEST, LYNNWOOD, WA, 98036","No_Match",NA,NA,NA,NA
321590,"20409 55TH PLACE NE","LAKE FOREST PARK","WA",98155,47.776316971,-122.271281138,90,"20409 55TH PLACE NE, LAKE FOREST PARK, WA, 98155","Match","Exact","20409 55TH PL NE, LAKE FOREST PARK, WA, 98155",186575666,"L"
321591,"20409 CASTLE RIDGE ROAD","MCCALLA","AL",35111,33.2663034940001,-87.158694858,91,"20409 CASTLE RIDGE ROAD, MCCALLA, AL, 35111","Match","Non_Exact","20409 CASTLE RIDGE RD, MC CALLA, AL, 35111",619851081,"R"
321592,"20409 N 59TH DR","GLENDALE","AZ",85308,33.672130322,-112.187402098,92,"20409 N 59TH DR, GLENDALE, AZ, 85308","Match","Exact","20409 N 59TH DR, GLENDALE, AZ, 85308",128361602,"R"
321593,"20409 YORBA LINDA BLVD STE 104","YORBA LINDA","CA",92886,33.8897043960001,-117.783413896,93,"20409 YORBA LINDA BLVD STE 104, YORBA LINDA, CA, 92886","Match","Exact","20409 YORBA LINDA BLVD, YORBA LINDA, CA, 92886",653857683,"L"
321594,"2041  PORT BRISTOL CIRCLE","NEWPORT BEACH","CA",92660,33.6250834300001,-117.850876982,94,"2041  PORT BRISTOL CIRCLE, NEWPORT BEACH, CA, 92660","Match","Exact","2041 PORT BRISTOL CIR, NEWPORT BEACH, CA, 92660",144059177,"R"
321595,"2041 120TH ST","MILLTOWN","WI",54858,45.503929257,-92.406752809,95,"2041 120TH ST, MILLTOWN, WI, 54858","Match","Exact","2041 120TH ST, MILLTOWN, WI, 54858",110872053,"L"
321596,"2041 5TH AVE APT 5G","NY","NY",10035,40.8071961570001,-73.9416852319999,96,"2041 5TH AVE APT 5G, NY, NY, 10035","Match","Exact","2041 5TH AVE, NEW YORK, NY, 10035",59656454,"R"
321597,"2041 79TH AVENUE SE","TUMWATER","WA",98501,46.9739267050001,-122.872605678,97,"2041 79TH AVENUE SE, TUMWATER, WA, 98501","Match","Exact","2041 79TH AVE SE, TUMWATER, WA, 98501",648498980,"R"
321598,"2041 ALLGOOD RD","MARIETTA","GA",30062,33.986898162,-84.4925197699999,98,"2041 ALLGOOD RD, MARIETTA, GA, 30062","Match","Exact","2041 ALLGOOD RD, MARIETTA, GA, 30062",17209664,"L"
321599,"2041 ANDERSON RD","FLEMING","OH",45729,39.4219280360001,-81.611912105,99,"2041 ANDERSON RD, FLEMING, OH, 45729","Match","Exact","2041 ANDERSON RD, FLEMING, OH, 45729",45712741,"L"
321600,"2041 APPLE TREE ROAD","GILMER","TX",75644,32.705073155,-94.9721608949999,100,"2041 APPLE TREE ROAD, GILMER, TX, 75644","Match","Exact","2041 APPLE TREE RD, GILMER, TX, 75644",243117206,"R"
321601,"2041 ARASH DR","CORPUS CHRISTI","TX",78413,27.657116984,-97.429179124,101,"2041 ARASH DR, CORPUS CHRISTI, TX, 78413","Match","Exact","2041 ARASH DR, CORPUS CHRISTI, TX, 78413",650696080,"L"
321602,"2041 AUTUMN MEADOW TRAIL","DALLAS","TX",75232,32.6588537980001,-96.852766932,102,"2041 AUTUMN MEADOW TRAIL, DALLAS, TX, 75232","Match","Exact","2041 AUTUMN MEADOW TRL, DALLAS, TX, 75232",103002542,"R"
321603,"2041 AVONDALE LANE","HAYDEN LAKE","ID",83835,47.7726109820001,-116.759418712,103,"2041 AVONDALE LANE, HAYDEN LAKE, ID, 83835","Match","Non_Exact","2041 E AVONDALE LN, HAYDEN LAKE, ID, 83835",192897557,"L"
321604,"2041 BLUE CRANE LN  APT 306","MEMPHIS","TN",38114,35.0902418150001,-89.9685112669999,104,"2041 BLUE CRANE LN  APT 306, MEMPHIS, TN, 38114","Match","Exact","2041 BLUE CRANE LN, MEMPHIS, TN, 38114",643459222,"L"
321605,"2041 BONISIE DR","WEST PALM BEACH","FL",33418,NA,NA,105,"2041 BONISIE DR, WEST PALM BEACH, FL, 33418","No_Match",NA,NA,NA,NA
321606,"2041 BRIAR GATE DRIVE","MONTGOMERY","AE",36116,NA,NA,106,"2041 BRIAR GATE DRIVE, MONTGOMERY, AE, 36116","No_Match",NA,NA,NA,NA
321607,"2041 BROOME RD","HEPHZIBAH","GA",30815,33.249092531,-81.983392587,107,"2041 BROOME RD, HEPHZIBAH, GA, 30815","Match","Exact","2041 BROOME RD, HEPHZIBAH, GA, 30815",55653367,"R"
321608,"2041 BUTLER STREET","EASTON","PA",18042,40.684064703,-75.241673616,108,"2041 BUTLER STREET, EASTON, PA, 18042","Match","Exact","2041 BUTLER ST, EASTON, PA, 18042",136881779,"R"
321609,"2041 CANOPY DR","BYRON CENTER","MI",49315,42.7985450510001,-85.714706499,109,"2041 CANOPY DR, BYRON CENTER, MI, 49315","Match","Exact","2041 CANOPY DR, BYRON CENTER, MI, 49315",646775398,"R"
321610,"2041 CHESTNUT LOG DRIVE","LITHIA SPRINGS","GA",30122,33.7478843590001,-84.652111383,110,"2041 CHESTNUT LOG DRIVE, LITHIA SPRINGS, GA, 30122","Match","Non_Exact","2041 CHESTNUT LOG CIR, LITHIA SPGS, GA, 30122",16649504,"L"
321611,"2041 COLUMBUS WAY","VISTA","CA",92081,33.1641853260001,-117.23557127,111,"2041 COLUMBUS WAY, VISTA, CA, 92081","Match","Exact","2041 COLUMBUS WAY, VISTA, CA, 92081",195294587,"R"
321612,"2041 COTTON TRAIL DR","CULPEPER","VA",22701,NA,NA,112,"2041 COTTON TRAIL DR, CULPEPER, VA, 22701","No_Match",NA,NA,NA,NA
321613,"2041 CRESTHAVEN WALK","WOODSTOCK","GA",30189,34.114451161,-84.574675726,113,"2041 CRESTHAVEN WALK, WOODSTOCK, GA, 30189","Match","Exact","2041 CRESTHAVEN WALK, WOODSTOCK, GA, 30189",68843143,"L"
321614,"2041 CROWLEY CIR W","LONGWOOD","FL",32779,NA,NA,114,"2041 CROWLEY CIR W, LONGWOOD, FL, 32779","No_Match",NA,NA,NA,NA
321615,"2041 CRYSTAL LAK CT SOUTH T378","SHELBY TOWNSHIP","MI",48316,NA,NA,115,"2041 CRYSTAL LAK CT SOUTH T378, SHELBY TOWNSHIP, MI, 48316","No_Match",NA,NA,NA,NA
321616,"2041 CRYSTAL LAKE CT SOUTH APT T378","SHELBY TOWNSHIP","MI",48316,42.6739862110001,-83.091172488,116,"2041 CRYSTAL LAKE CT SOUTH APT T378, SHELBY TOWNSHIP, MI, 48316","Match","Exact","2041 CRYSTAL LAKE CT S, SHELBY TOWNSHIP, MI, 48316",110689627,"R"
321617,"2041 DAMUTH ST UNIT 4","OAKLAND","CA",94602,37.802684406,-122.214648344,117,"2041 DAMUTH ST UNIT 4, OAKLAND, CA, 94602","Match","Exact","2041 DAMUTH ST, OAKLAND, CA, 94602",125067029,"R"
321618,"2041 DEER TRL","CLAYTON","NC",27527,35.649202222,-78.444991347,118,"2041 DEER TRL, CLAYTON, NC, 27527","Match","Exact","2041 DEER TRL, CLAYTON, NC, 27527",26541538,"L"
321619,"2041 DEMOCRACY DR","BUFORD","GA",30519,34.1173018900001,-83.881849554,119,"2041 DEMOCRACY DR, BUFORD, GA, 30519","Match","Exact","2041 DEMOCRACY DR, BUFORD, GA, 30519",618455360,"L"
321620,"2041 DOWNING ST","VILLAGE","OK",73120,35.5639770760001,-97.556668653,120,"2041 DOWNING ST, VILLAGE, OK, 73120","Match","Exact","2041 DOWNING ST, VILLAGE, OK, 73120",100393619,"R"
321621,"2041 E 83RD PL","DENVER","CO",80229,39.84857242,-104.962725954,121,"2041 E 83RD PL, DENVER, CO, 80229","Match","Exact","2041 E 83RD PL, DENVER, CO, 80229",177307885,"L"
321622,"2041 EAST 60TH STREET","BROOKLYN","NY",11234,40.615405583,-73.916423955,122,"2041 EAST 60TH STREET, BROOKLYN, NY, 11234","Match","Exact","2041 E 60TH ST, BROOKLYN, NY, 11234",59092622,"L"
321623,"2041 ENGLISH LN","COLLEGE PARK","GA",30337,NA,NA,123,"2041 ENGLISH LN, COLLEGE PARK, GA, 30337","No_Match",NA,NA,NA,NA
321624,"2041 EXCHANGE DRIVE","SAINT CHARLES","MO",63303,38.7583765370001,-90.5295044659999,124,"2041 EXCHANGE DRIVE, SAINT CHARLES, MO, 63303","Match","Exact","2041 EXCHANGE DR, SAINT CHARLES, MO, 63303",605586068,"R"
321625,"2041 FM 193","CROSBYTON","TX",79322,NA,NA,125,"2041 FM 193, CROSBYTON, TX, 79322","No_Match",NA,NA,NA,NA
321626,"2041 GARFIELD","NORTH BEND","OR",97459,43.4066431840001,-124.2530441,126,"2041 GARFIELD, NORTH BEND, OR, 97459","Match","Non_Exact","2041 GARFIELD ST, NORTH BEND, OR, 97459",136983047,"L"
321627,"2041 GEORGIA AVENUE NW STE 3100","WASHINGTON","DC",20060,38.917900059,-77.021889389,127,"2041 GEORGIA AVENUE NW STE 3100, WASHINGTON, DC, 20060","Match","Non_Exact","2041 GEORGIA AVE NW, WASHINGTON, DC, 20001",76224378,"R"
321628,"2041 GOOSE LAKE DRIVE","SAUGET","IL",62206,38.5634897320001,-90.134117445,128,"2041 GOOSE LAKE DRIVE, SAUGET, IL, 62206","Match","Non_Exact","2041 GOOSE LAKE RD, SAUGET, IL, 62206",107912348,"R"
321629,"2041 HALSEY DRIVE","KEY WEST","FL",33040,NA,NA,129,"2041 HALSEY DRIVE, KEY WEST, FL, 33040","No_Match",NA,NA,NA,NA
321630,"2041 HAPPY HILL ROAD","LEXINGTON","NC",27295,35.849177452,-80.305531516,130,"2041 HAPPY HILL ROAD, LEXINGTON, NC, 27295","Match","Exact","2041 HAPPY HILL RD, LEXINGTON, NC, 27295",20206269,"L"
321631,"2041 HARBOR VIEW AVE","SAN JOSE","CA",95122,37.328160817,-121.82416285,131,"2041 HARBOR VIEW AVE, SAN JOSE, CA, 95122","Match","Exact","2041 HARBOR VIEW AVE, SAN JOSE, CA, 95122",122913833,"L"
321632,"2041 HERMANY AVENUE","BRONX","NY",10473,40.824092815,-73.854189414,132,"2041 HERMANY AVENUE, BRONX, NY, 10473","Match","Exact","2041 HERMANY AVE, BRONX, NY, 10473",80306052,"L"
321633,"2041 HILL STREET","NORTHBRIDGE","MA",1534,42.1636617940001,-71.682360806,133,"2041 HILL STREET, NORTHBRIDGE, MA, 1534","Match","Exact","2041 HILL ST, NORTHBRIDGE, MA, 01534",40021694,"L"
321634,"2041 I STREET","BELLEVILLE","KS",66935,39.820488835,-97.635059798,134,"2041 I STREET, BELLEVILLE, KS, 66935","Match","Exact","2041 I ST, BELLEVILLE, KS, 66935",148385471,"R"
321635,"2041 KALAE HWY","KUALAPUU","HI",96757,21.160746842,-157.007418725,135,"2041 KALAE HWY, KUALAPUU, HI, 96757","Match","Exact","2041 KALAE HWY, KUALAPUU, HI, 96757",637575863,"L"
321636,"2041 KARI BROOK DR","MONROE","GA",30655,33.769220724,-83.7772150709999,136,"2041 KARI BROOK DR, MONROE, GA, 30655","Match","Exact","2041 KARI BROOK DR, MONROE, GA, 30655",77625296,"L"
321637,"2041 KNIGHTS CT","ALLEN","TX",75013,33.0924871870001,-96.731755993,137,"2041 KNIGHTS CT, ALLEN, TX, 75013","Match","Exact","2041 KNIGHTS CT, ALLEN, TX, 75013",123537881,"R"
321638,"2041 LAKEMOOR DRIVE","HOOVER","AL",35244,33.337221206,-86.8281480919999,138,"2041 LAKEMOOR DRIVE, HOOVER, AL, 35244","Match","Exact","2041 LAKEMOOR DR, HOOVER, AL, 35244",221520051,"R"
321639,"2041 LEMUEL COURT","FORESTDALE","AL",35214,33.5793104260001,-86.903556092,139,"2041 LEMUEL COURT, FORESTDALE, AL, 35214","Match","Exact","2041 LEMUEL CT, FORESTDALE, AL, 35214",81550415,"R"
321640,"2041 LEXINGTON DRIVE","PERRYSBURG","OH",43551,41.5391600470001,-83.658252666,140,"2041 LEXINGTON DRIVE, PERRYSBURG, OH, 43551","Match","Exact","2041 LEXINGTON DR, PERRYSBURG, OH, 43551",38742342,"L"
321641,"2041 MARTIN LUTHER KING JR AVE SE","WASHINGTON","DC",20020,NA,NA,141,"2041 MARTIN LUTHER KING JR AVE SE, WASHINGTON, DC, 20020","No_Match",NA,NA,NA,NA
321642,"2041 MCCLELLAN","PHILADELPHIA","PA",19145,39.928953316,-75.17934826,142,"2041 MCCLELLAN, PHILADELPHIA, PA, 19145","Match","Non_Exact","2041 MCCLELLAN ST, PHILADELPHIA, PA, 19145",131411143,"R"
321643,"2041 MCGARVEY ST","FULLERTON","CA",92833,33.8848515330001,-117.95872009,143,"2041 MCGARVEY ST, FULLERTON, CA, 92833","Match","Exact","2041 MCGARVEY ST, FULLERTON, CA, 92833",144413992,"R"
321644,"2041 MILLINGTON RD","SILVERWOOD","MI",48760,43.280378064,-83.274262473,144,"2041 MILLINGTON RD, SILVERWOOD, MI, 48760","Match","Exact","2041 MILLINGTON RD, SILVERWOOD, MI, 48760",110453409,"L"
321645,"2041 N 63RD ST","PHILADELPHIA","PA",19151,39.986722296,-75.2482950839999,145,"2041 N 63RD ST, PHILADELPHIA, PA, 19151","Match","Exact","2041 N 63RD ST, PHILADELPHIA, PA, 19151",131397079,"R"
321646,"2041 N 67TH STREET","KANSAS CITY","KS",66104,39.129214528,-94.733910438,146,"2041 N 67TH STREET, KANSAS CITY, KS, 66104","Match","Exact","2041 N 67TH ST, KANSAS CITY, KS, 66104",91133472,"R"
321647,"2041 N ALVARADO ST","LOS ANGELES","CA",90039,34.090674183,-118.255498381,147,"2041 N ALVARADO ST, LOS ANGELES, CA, 90039","Match","Exact","2041 N ALVARADO ST, LOS ANGELES, CA, 90039",141616075,"L"
321648,"2041 N ALVARDO ST","LOS ANGELES","CA",90039,34.090674183,-118.255498381,148,"2041 N ALVARDO ST, LOS ANGELES, CA, 90039","Match","Non_Exact","2041 N ALVARADO ST, LOS ANGELES, CA, 90039",141616075,"L"
321649,"2041 N HIDDEN CREEK DRIVE","LEHI","UT",84043,NA,NA,149,"2041 N HIDDEN CREEK DRIVE, LEHI, UT, 84043","Tie",NA,NA,NA,NA
321650,"2041 N LA ARBOLETA ST","GILBERT","AZ",85234,NA,NA,150,"2041 N LA ARBOLETA ST, GILBERT, AZ, 85234","No_Match",NA,NA,NA,NA
321651,"2041 N PARKER","INDIANAPOLIS","IN",46218,39.7948676670001,-86.11305408,151,"2041 N PARKER, INDIANAPOLIS, IN, 46218","Match","Non_Exact","2041 N PARKER AVE, INDIANAPOLIS, IN, 46218",108067488,"R"
321652,"2041 N PASS AVE","BURBANK","CA",91505,34.1857815920001,-118.354509007,152,"2041 N PASS AVE, BURBANK, CA, 91505","Match","Exact","2041 N PASS AVE, BURBANK, CA, 91505",142725278,"L"
321653,"2041 N TALBOTT STREET","INDIANAPOLIS","IN",46202,39.795043379,-86.154969486,153,"2041 N TALBOTT STREET, INDIANAPOLIS, IN, 46202","Match","Exact","2041 N TALBOTT ST, INDIANAPOLIS, IN, 46202",107989703,"R"
321654,"2041 NORTH BRIDGEPORT DRIVE","FAYETTEVILLE","AR",72704,36.0905475480001,-94.224576548,154,"2041 NORTH BRIDGEPORT DRIVE, FAYETTEVILLE, AR, 72704","Match","Exact","2041 N BRIDGEPORT DR, FAYETTEVILLE, AR, 72704",629775080,"R"
321655,"2041 NORTH HIAWASSEE ROAD","APOPKA","FL",32703,28.6463187630001,-81.4732357999999,155,"2041 NORTH HIAWASSEE ROAD, APOPKA, FL, 32703","Match","Non_Exact","2041 HIAWASSEE RD, APOPKA, FL, 32703",640918316,"L"
321656,"2041 NW 1ST PLACE","MIAMI","FL",33127,25.7959875600001,-80.198476134,156,"2041 NW 1ST PLACE, MIAMI, FL, 33127","Match","Exact","2041 NW 1ST PL, MIAMI, FL, 33127",116017332,"R"
321657,"2041 NW 43RD TERRACE APT 118","LAUDERHILL","FL",33313,26.1525418250001,-80.207883502,157,"2041 NW 43RD TERRACE APT 118, LAUDERHILL, FL, 33313","Match","Non_Exact","2041 NW 43RD TER, LAUDERHILL, FL, 33313",114815790,"R"
321658,"2041 NW 52ND ST","BOCA RATON","FL",33496,26.394769148,-80.124198275,158,"2041 NW 52ND ST, BOCA RATON, FL, 33496","Match","Exact","2041 NW 52ND ST, BOCA RATON, FL, 33496",115491077,"R"
321659,"2041 OAKSIDE ROAD","TOLEDO","OH",43615,41.6597001330001,-83.684918311,159,"2041 OAKSIDE ROAD, TOLEDO, OH, 43615","Match","Exact","2041 OAKSIDE RD, TOLEDO, OH, 43615",640778470,"R"
321660,"2041 OCEAN VIEW","SEABROOK","TX",77586,29.564073896,-95.031967257,160,"2041 OCEAN VIEW, SEABROOK, TX, 77586","Match","Non_Exact","2041 OCEANVIEW DR, SEABROOK, TX, 77586",96116717,"L"
321661,"2041 PALMA VISTA AVENUE","LAS VEGAS","NV",89169,36.136284016,-115.123967206,161,"2041 PALMA VISTA AVENUE, LAS VEGAS, NV, 89169","Match","Exact","2041 PALMA VISTA AVE, LAS VEGAS, NV, 89169",201871468,"R"
321662,"2041 PARK DRIVE","LOS ANGELES","CA",90026,34.086934624,-118.247116817,162,"2041 PARK DRIVE, LOS ANGELES, CA, 90026","Match","Exact","2041 PARK DR, LOS ANGELES, CA, 90026",141617367,"L"
321663,"2041 PIPERS GAP ROAD","MOUNT AIRY","NC",27030,36.538159261,-80.6829119229999,163,"2041 PIPERS GAP ROAD, MOUNT AIRY, NC, 27030","Match","Exact","2041 PIPERS GAP RD, MOUNT AIRY, NC, 27030",618747277,"L"
321664,"2041 PLATEAU","PRESCOTT","AZ",86305,34.5576732370001,-112.513939567,164,"2041 PLATEAU, PRESCOTT, AZ, 86305","Match","Exact","2041 PLATEAU, PRESCOTT, AZ, 86305",159526844,"R"
321665,"2041 PONY FARM RD APT 3","JACKSONVILLE","NC",28540,NA,NA,165,"2041 PONY FARM RD APT 3, JACKSONVILLE, NC, 28540","No_Match",NA,NA,NA,NA
321666,"2041 PORT BRISTOL  CIRCLE","NEWPORT BEACH","CA",92660,33.6250834300001,-117.850876982,166,"2041 PORT BRISTOL  CIRCLE, NEWPORT BEACH, CA, 92660","Match","Exact","2041 PORT BRISTOL CIR, NEWPORT BEACH, CA, 92660",144059177,"R"
321667,"2041 PORT BRISTOL CIRCLE","NEWPORT BEACH","CA",92660,33.6250834300001,-117.850876982,167,"2041 PORT BRISTOL CIRCLE, NEWPORT BEACH, CA, 92660","Match","Exact","2041 PORT BRISTOL CIR, NEWPORT BEACH, CA, 92660",144059177,"R"
321668,"2041 RIVER ROAD","LOUISVILLE","KY",40206,38.2692353950001,-85.7137342729999,168,"2041 RIVER ROAD, LOUISVILLE, KY, 40206","Match","Exact","2041 RIVER RD, LOUISVILLE, KY, 40206",620616599,"L"
321669,"2041 RIVIERA DRIVE","VISTA","CA",92084,33.23100793,-117.233671109,169,"2041 RIVIERA DRIVE, VISTA, CA, 92084","Match","Exact","2041 RIVIERA DR, VISTA, CA, 92084",651729223,"R"
321670,"2041 S 7-1/2 RD","HARRIETTA","MI",49638,44.3075208490001,-85.750903979,170,"2041 S 7-1/2 RD, HARRIETTA, MI, 49638","Match","Non_Exact","2041 S 7 1/2 RD, HARRIETTA, MI, 49638",146093371,"R"
321671,"2041 S COMO ROAD","PORTLAND","IN",47371,40.407687738,-85.0980686239999,171,"2041 S COMO ROAD, PORTLAND, IN, 47371","Match","Exact","2041 S COMO RD, PORTLAND, IN, 47371",45043017,"R"
321672,"2041 S PARKWOOD CIR","SPOKANE","WA",99223,47.6365081800001,-117.367486042,172,"2041 S PARKWOOD CIR, SPOKANE, WA, 99223","Match","Exact","2041 S PARKWOOD CIR, SPOKANE, WA, 99223",189909670,"L"
321673,"2041 SANTA ANA","CLOVIS","CA",93611,36.8052829380001,-119.676443409,173,"2041 SANTA ANA, CLOVIS, CA, 93611","Match","Non_Exact","2041 SANTA ANA AVE, CLOVIS, CA, 93611",197585686,"R"
321674,"2041 SERENITY DR","MEDFORD","OR",97504,42.3487805770001,-122.863087565,174,"2041 SERENITY DR, MEDFORD, OR, 97504","Match","Exact","2041 SERENITY DR, MEDFORD, OR, 97504",155513762,"L"
321675,"2041 SHENANDOAH ROAD","TOLEDO","OH",43607,41.660983543,-83.589562326,175,"2041 SHENANDOAH ROAD, TOLEDO, OH, 43607","Match","Exact","2041 SHENANDOAH RD, TOLEDO, OH, 43607",33961041,"L"
321676,"2041 SKYLINE DRIVE","GOODLETTSVILLE","TN",37072,36.4116314680001,-86.698024576,176,"2041 SKYLINE DRIVE, GOODLETTSVILLE, TN, 37072","Match","Exact","2041 SKYLINE DR, GOODLETTSVILLE, TN, 37072",97449805,"R"
321677,"2041 SOUTH EMMERSON","MESA","AZ",85210,33.377462264,-111.85604017,177,"2041 SOUTH EMMERSON, MESA, AZ, 85210","Match","Non_Exact","2041 S EMERSON, MESA, AZ, 85210",128241422,"L"
321678,"2041 SOUTH OPAL STREET","PHILADELPHIA","PA",19145,39.926231527,-75.178516185,178,"2041 SOUTH OPAL STREET, PHILADELPHIA, PA, 19145","Match","Exact","2041 S OPAL ST, PHILADELPHIA, PA, 19145",131411182,"L"
321679,"2041 SPARTAN DRIVE","MANDEVILLE","LA",70448,30.3745473060001,-90.0559311869999,179,"2041 SPARTAN DRIVE, MANDEVILLE, LA, 70448","Match","Exact","2041 SPARTAN DR, MANDEVILLE, LA, 70448",111310814,"R"
321680,"2041 SPAULDING","LONG BEACH","CA",90804,NA,NA,180,"2041 SPAULDING, LONG BEACH, CA, 90804","No_Match",NA,NA,NA,NA
321681,"2041 SPRUCE ST","NORTH COLLINS","NY",14111,42.59425373,-78.9394943629999,181,"2041 SPRUCE ST, NORTH COLLINS, NY, 14111","Match","Exact","2041 SPRUCE ST, NORTH COLLINS, NY, 14111",48312256,"R"
321682,"2041 STILLWATER ROAD","ELDERSBURG","MD",21784,39.403568281,-76.9231371119999,182,"2041 STILLWATER ROAD, ELDERSBURG, MD, 21784","Match","Exact","2041 STILLWATER RD, ELDERSBURG, MD, 21784",61759530,"R"
321683,"2041 SWAMP ROAD","RICHMOND","MA",1254,42.3690763820001,-73.347684311,183,"2041 SWAMP ROAD, RICHMOND, MA, 1254","Match","Exact","2041 SWAMP RD, RICHMOND, MA, 01254",3926226,"R"
321684,"2041 TALLADEGA ROAD","JACKSONVILLE","FL",32209,30.372445129,-81.69449356,184,"2041 TALLADEGA ROAD, JACKSONVILLE, FL, 32209","Match","Exact","2041 TALLADEGA RD, JACKSONVILLE, FL, 32209",83892222,"R"
321685,"2041 TIMBERLAND DR","GREENSBURG","PA",15601,NA,NA,185,"2041 TIMBERLAND DR, GREENSBURG, PA, 15601","No_Match",NA,NA,NA,NA
321686,"2041 TRINITY AVENUE","LIBERTY","TX",77575,30.0598661240001,-94.795341217,186,"2041 TRINITY AVENUE, LIBERTY, TX, 77575","Match","Non_Exact","2041 TRINITY ST, LIBERTY, TX, 77575",24115614,"L"
321687,"2041 VARDON LANE","FLOSSMOOR","IL",60422,41.546512202,-87.666944321,187,"2041 VARDON LANE, FLOSSMOOR, IL, 60422","Match","Exact","2041 VARDON LN, FLOSSMOOR, IL, 60422",111709951,"R"
321688,"2041 VIA COMO COURT - 103","CORONA","CA",92881,33.852771552,-117.542366382,188,"2041 VIA COMO COURT - 103, CORONA, CA, 92881","Match","Exact","2041 VIA COMO CT, CORONA, CA, 92881",194795219,"L"
321689,"2041 W 109TH ST","LOS ANGELES","CA",90047,33.937339668,-118.314307554,189,"2041 W 109TH ST, LOS ANGELES, CA, 90047","Match","Exact","2041 W 109TH ST, LOS ANGELES, CA, 90047",141660590,"R"
321690,"2041 W 81ST STREET","LOS ANGELES","CA",90047,33.9654909390001,-118.314311614,190,"2041 W 81ST STREET, LOS ANGELES, CA, 90047","Match","Exact","2041 W 81ST ST, LOS ANGELES, CA, 90047",141658605,"R"
321691,"2041 W BERWYN AVE UNIT 3","CHICAGO","IL",60625,41.9778277730001,-87.680716809,191,"2041 W BERWYN AVE UNIT 3, CHICAGO, IL, 60625","Match","Non_Exact","2041 W BERWYN AVE, CHICAGO, IL, 60625",605166890,"L"
321692,"2041 W ELM STREET","WRIGHTSVILLE","GA",31096,32.727622592,-82.7363305219999,192,"2041 W ELM STREET, WRIGHTSVILLE, GA, 31096","Match","Exact","2041 W ELM ST, WRIGHTSVILLE, GA, 31096",618557760,"L"
321693,"2041 W GRAND AVE","WISC RAPIDS","WI",54495,44.396580725,-89.8489060319999,193,"2041 W GRAND AVE, WISC RAPIDS, WI, 54495","Match","Exact","2041 W GRAND AVE, WISCONSIN RAPIDS, WI, 54495",629008653,"L"
321694,"2041 W HEBRONPARKWAY APT 3337","CARROLLTON","TX",75010,NA,NA,194,"2041 W HEBRONPARKWAY APT 3337, CARROLLTON, TX, 75010","No_Match",NA,NA,NA,NA
321695,"2041 W MOFFAT ST","CHICAGO","IL",60647,41.915446898,-87.678699358,195,"2041 W MOFFAT ST, CHICAGO, IL, 60647","Match","Exact","2041 W MOFFAT ST, CHICAGO, IL, 60647",605026705,"L"
321696,"2041 W SNEAD STREET","LA HABRA","CA",90631,33.9093617140001,-117.97011099,196,"2041 W SNEAD STREET, LA HABRA, CA, 90631","Match","Exact","2041 W SNEAD ST, LA HABRA, CA, 90631",144133600,"R"
321697,"2041 WASHINGTON AVE APT 4","BRONX","NY",10457,40.8504192170001,-73.89616462,197,"2041 WASHINGTON AVE APT 4, BRONX, NY, 10457","Match","Exact","2041 WASHINGTON AVE, BRONX, NY, 10457",80301133,"L"
321698,"2041 WESLEY  AVE","ATL","GA",30314,NA,NA,198,"2041 WESLEY  AVE, ATL, GA, 30314","No_Match",NA,NA,NA,NA
321699,"2041 WESTOVER ROAD","NORTH AURORA","IL",60542,41.8174242800001,-88.373540234,199,"2041 WESTOVER ROAD, NORTH AURORA, IL, 60542","Match","Exact","2041 WESTOVER RD, NORTH AURORA, IL, 60542",119568176,"R"
321700,"2041 WHITE MYRTLE DRIVE","MADISONVILLE","LA",70447,30.4409568250001,-90.1731959809999,200,"2041 WHITE MYRTLE DRIVE, MADISONVILLE, LA, 70447","Match","Exact","2041 WHITE MYRTLE DR, MADISONVILLE, LA, 70447",111287804,"R"
321701,"2041 WILLIAMSTOWN RD","FRANKLINVILLE","NJ",8322,39.628720286,-75.0542641659999,201,"2041 WILLIAMSTOWN RD, FRANKLINVILLE, NJ, 8322","Match","Exact","2041 WILLIAMSTOWN RD, FRANKLINVILLE, NJ, 08322",134601398,"L"
321702,"2041 WILT DR","DUNCANSVILLE","PA",16635,40.425951276,-78.484676306,202,"2041 WILT DR, DUNCANSVILLE, PA, 16635","Match","Exact","2041 WILT DR, DUNCANSVILLE, PA, 16635",49737576,"L"
321703,"2041 WOOD VIEW DRIVE","LEHI","UT",84043,40.439366254,-111.882441602,203,"2041 WOOD VIEW DRIVE, LEHI, UT, 84043","Match","Non_Exact","2041 WOODVIEW DR, LEHI, UT, 84043",134265593,"R"
321704,"2041 YEW STEET ROAD D","BELLINGHAM","WA",98226,NA,NA,204,"2041 YEW STEET ROAD D, BELLINGHAM, WA, 98226","No_Match",NA,NA,NA,NA
321705,"20410 DAWN DRIVE","LAGO VISTA","TX",78645,30.453275304,-97.984175597,205,"20410 DAWN DRIVE, LAGO VISTA, TX, 78645","Match","Exact","20410 DAWN DR, LAGO VISTA, TX, 78645",641847550,"L"
321706,"20410 NW 2ND CT","MIAMI GARDENS","FL",33169,25.963113761,-80.206987499,206,"20410 NW 2ND CT, MIAMI GARDENS, FL, 33169","Match","Exact","20410 NW 2ND CT, MIAMI GARDENS, FL, 33169",116028925,"L"
321707,"20410 NW 55TH COURT","MIAMI","FL",33055,25.9606680730001,-80.292957974,207,"20410 NW 55TH COURT, MIAMI, FL, 33055","Match","Non_Exact","20410 NW 55TH CT, MIAMI GARDENS, FL, 33055",116292242,"L"
321708,"20410 WHISPERING WATER WAY","CYPRESS","TX",77433,30.0053506100001,-95.740134493,208,"20410 WHISPERING WATER WAY, CYPRESS, TX, 77433","Match","Exact","20410 WHISPERING WATER WAY, CYPRESS, TX, 77433",96167759,"R"
321709,"20411 APPLE HARVEST CIRCLE APT H","GERMANTOWN","MD",20876,39.189794969,-77.2426105179999,209,"20411 APPLE HARVEST CIRCLE APT H, GERMANTOWN, MD, 20876","Match","Non_Exact","20411 APPLE HARVEST CIR, GERMANTOWN, MD, 20874",648216356,"L"
321710,"20411 CR 146","TYLER","TX",75703,32.182508291,-95.316723624,210,"20411 CR 146, TYLER, TX, 75703","Match","Exact","20411 CO RD 146, TYLER, TX, 75703",623588091,"R"
321711,"20411 FENTON","DETROIT","MI",48219,42.4398682620001,-83.282788083,211,"20411 FENTON, DETROIT, MI, 48219","Match","Non_Exact","20411 FENTON ST, DETROIT, MI, 48219",95419700,"L"
321712,"20411 HORIZON WAY SE","MONROE","WA",98272,47.8676590430001,-121.957626974,212,"20411 HORIZON WAY SE, MONROE, WA, 98272","Match","Exact","20411 HORIZON WAY SE, MONROE, WA, 98272",653060459,"L"
321713,"20411 MOON WALK DR","HUMBLE","TX",77338,30.01718213,-95.291189323,213,"20411 MOON WALK DR, HUMBLE, TX, 77338","Match","Exact","20411 MOON WALK DR, HUMBLE, TX, 77338",651838714,"R"
321714,"20411 N 17TH PLACE","PHOENIX","AZ",85024,33.671392172,-112.043964429,214,"20411 N 17TH PLACE, PHOENIX, AZ, 85024","Match","Exact","20411 N 17TH PL, PHOENIX, AZ, 85024",128947529,"L"
321715,"20411 OLD WINDMILL TRAIL","HOCKLEY","TX",77447,30.0786694130001,-95.806850025,215,"20411 OLD WINDMILL TRAIL, HOCKLEY, TX, 77447","Match","Exact","20411 OLD WINDMILL TRL, HOCKLEY, TX, 77447",627323612,"L"
321716,"20411 TRENT PART COURT","KATY","TX",77449,29.8587183270001,-95.7301410809999,216,"20411 TRENT PART COURT, KATY, TX, 77449","Match","Non_Exact","20411 TRENT PARK, KATY, TX, 77449",635246377,"L"
321717,"20413 123RD AVE NE","BOTHELL","WA",98011,47.7756177160001,-122.176530256,217,"20413 123RD AVE NE, BOTHELL, WA, 98011","Match","Exact","20413 123RD AVE NE, BOTHELL, WA, 98011",624766253,"L"
321718,"20413 24TH AVENUE W","LYNNWOOD","WA",98036,47.813407532,-122.265635783,218,"20413 24TH AVENUE W, LYNNWOOD, WA, 98036","Match","Exact","20413 24TH AVE W, LYNNWOOD, WA, 98036",187816049,"L"
321719,"20413 STATE HIGHWAY 156","EWING","MO",63440,39.998518511,-91.7670030359999,219,"20413 STATE HIGHWAY 156, EWING, MO, 63440","Match","Exact","20413 STATE HWY 156, EWING, MO, 63440",607746655,"R"
321720,"20414 BLOOMINGVILLE CT","GERMANTOWN","MD",20874,39.1905288840001,-77.2324283039999,220,"20414 BLOOMINGVILLE CT, GERMANTOWN, MD, 20874","Match","Non_Exact","20414 BLOOMINGVILLE CT, GERMANTOWN, MD, 20876",62090335,"L"
321721,"20414 COX RD","SUTHERLAND","VA",23885,37.1949372230001,-77.5521982939999,221,"20414 COX RD, SUTHERLAND, VA, 23885","Match","Exact","20414 COX RD, SUTHERLAND, VA, 23885",54170094,"R"
321722,"20414 COX ROAD","SUTHERLAND","VA",23885,37.1949372230001,-77.5521982939999,222,"20414 COX ROAD, SUTHERLAND, VA, 23885","Match","Exact","20414 COX RD, SUTHERLAND, VA, 23885",54170094,"R"
321723,"20414 SE 52ND ST","NEWALLA","OK",73045,35.412628044,-97.170245616,223,"20414 SE 52ND ST, NEWALLA, OK, 73045","Match","Non_Exact","20414 SE 52ND ST, NEWALLA, OK, 74857",606070373,"R"
321724,"20414 WINDROSE BEND DR","SPRING","TX",77379,30.060851475,-95.532260352,224,"20414 WINDROSE BEND DR, SPRING, TX, 77379","Match","Exact","20414 WINDROSE BEND DR, SPRING, TX, 77379",624928995,"L"
321725,"20414 WINDROSE BEND DRIVE","SPRING","TX",77379,30.060851475,-95.532260352,225,"20414 WINDROSE BEND DRIVE, SPRING, TX, 77379","Match","Exact","20414 WINDROSE BEND DR, SPRING, TX, 77379",624928995,"L"
321726,"20415 11TH AVE W","LYNNWOOD","WA",98036,47.812641512,-122.248306364,226,"20415 11TH AVE W, LYNNWOOD, WA, 98036","Match","Exact","20415 11TH AVE W, LYNNWOOD, WA, 98036",606933364,"L"
321727,"20415 36TH PLACE","MERIDIAN","MS",39307,NA,NA,227,"20415 36TH PLACE, MERIDIAN, MS, 39307","No_Match",NA,NA,NA,NA
321728,"20415 ARMINTA ST","WINNETKA","CA",91306,34.2131648870001,-118.578205753,228,"20415 ARMINTA ST, WINNETKA, CA, 91306","Match","Exact","20415 ARMINTA ST, WINNETKA, CA, 91306",141540403,"R"
321729,"20415 HARVEST OAK CT","TAMPA","FL",33647,28.163875675,-82.35076703,229,"20415 HARVEST OAK CT, TAMPA, FL, 33647","Match","Exact","20415 HARVEST OAK CT, TAMPA, FL, 33647",624648296,"R"
321730,"20415 JERICHO ROAD","GLENMONT","OH",44628,40.52178959,-82.2212101229999,230,"20415 JERICHO ROAD, GLENMONT, OH, 44628","Match","Exact","20415 JERICHO RD, GLENMONT, OH, 44628",648992536,"L"
321731,"20415 POST OAK HILL DRIVE","SPRING","TX",77388,30.0558619540001,-95.454303424,231,"20415 POST OAK HILL DRIVE, SPRING, TX, 77388","Match","Exact","20415 POST OAK HILL DR, SPRING, TX, 77388",96170259,"L"
321732,"20415 RENFREW","DETROIT","MI",48221,42.444032722,-83.135387427,232,"20415 RENFREW, DETROIT, MI, 48221","Match","Non_Exact","20415 RENFREW RD, DETROIT, MI, 48221",95460678,"L"
321733,"20415","PORT CHARLOTTE","FL",33954,NA,NA,233,"20415, PORT CHARLOTTE, FL, 33954","No_Match",NA,NA,NA,NA
321734,"20416 COULSON ST","WOODLAND HILLS","CA",91367,34.1717255300001,-118.577751599,234,"20416 COULSON ST, WOODLAND HILLS, CA, 91367","Match","Exact","20416 COULSON ST, WOODLAND HILLS, CA, 91367",141816946,"L"
321735,"20416 COUNT FLEET AVE","GULFPORT","MS",39503,30.4944765330001,-89.182444699,235,"20416 COUNT FLEET AVE, GULFPORT, MS, 39503","Match","Exact","20416 COUNT FLEET AVE, GULFPORT, MS, 39503",648135377,"R"
321736,"20416 SUMNER","REDFORD","MI",48239,NA,NA,236,"20416 SUMNER, REDFORD, MI, 48239","No_Match",NA,NA,NA,NA
321737,"20417 BUCK FAWN DR","EDINBURG","TX",78542,26.521066863,-98.107497033,237,"20417 BUCK FAWN DR, EDINBURG, TX, 78542","Match","Exact","20417 BUCK FAWN DR, EDINBURG, TX, 78542",634547222,"R"
321738,"20417 ILLAHEE DR","BEND","OR",97702,44.0232829990001,-121.302831937,238,"20417 ILLAHEE DR, BEND, OR, 97702","Match","Exact","20417 ILLAHEE DR, BEND, OR, 97702",152576850,"L"
321739,"20418 177TH ST","AUDUBON","MN",56511,46.82977507,-95.977662419,239,"20418 177TH ST, AUDUBON, MN, 56511","Match","Exact","20418 177TH ST, AUDUBON, MN, 56511",167952850,"R"
321740,"20418 TRENT PARK CIR","KATY","TX",77449,29.858710779,-95.730205283,240,"20418 TRENT PARK CIR, KATY, TX, 77449","Match","Exact","20418 TRENT PARK, KATY, TX, 77449",635246377,"R"
321741,"20419 ALDERLEAF TERRACE","ASHBURN","VA",20147,39.0510027670001,-77.502633311,241,"20419 ALDERLEAF TERRACE, ASHBURN, VA, 20147","Match","Exact","20419 ALDERLEAF TER, ASHBURN, VA, 20147",218946348,"L"
321742,"20419 EDMUNTON STREET","ST CLAIR SHORES","MI",48080,42.45459743,-82.9162214579999,242,"20419 EDMUNTON STREET, ST CLAIR SHORES, MI, 48080","Match","Exact","20419 EDMUNTON ST, SAINT CLAIR SHORES, MI, 48080",110699910,"L"
321743,"20419 N 31ST AVE","PHOENIX","AZ",85027,33.672303126,-112.12596758,243,"20419 N 31ST AVE, PHOENIX, AZ, 85027","Match","Exact","20419 N 31ST AVE, PHOENIX, AZ, 85027",647677536,"L"
321744,"2042 20TH ST","ROBINSON","KS",66532,NA,NA,244,"2042 20TH ST, ROBINSON, KS, 66532","Tie",NA,NA,NA,NA
321745,"2042 250TH STREET","ROBINSON","KS",66532,39.8707173970001,-95.428886539,245,"2042 250TH STREET, ROBINSON, KS, 66532","Match","Exact","2042 250TH ST, ROBINSON, KS, 66532",9769729,"L"
321746,"2042 3RD AVE N","ST PETERSBURG","FL",33713,27.774732579,-82.6609162999999,246,"2042 3RD AVE N, ST PETERSBURG, FL, 33713","Match","Exact","2042 3RD AVE N, SAINT PETERSBURG, FL, 33713",124707333,"L"
321747,"2042 42ND AVENUE","OAKLAND","CA",94601,37.777089039,-122.210958013,247,"2042 42ND AVENUE, OAKLAND, CA, 94601","Match","Exact","2042 42ND AVE, OAKLAND, CA, 94601",125007372,"R"
321748,"2042 5TH ST","LA VERNE","CA",91750,34.1027295640001,-117.770441008,248,"2042 5TH ST, LA VERNE, CA, 91750","Match","Exact","2042 5TH ST, LA VERNE, CA, 91750",141727236,"R"
321749,"2042 79TH STREET","BROOKLYN","NY",11214,40.6079766710001,-73.993172123,249,"2042 79TH STREET, BROOKLYN, NY, 11214","Match","Exact","2042 79TH ST, BROOKLYN, NY, 11214",59088447,"R"
321750,"2042 ALPHA AVE","SOUTH PASADENA","CA",91030,34.0994475270001,-118.160256279,250,"2042 ALPHA AVE, SOUTH PASADENA, CA, 91030","Match","Non_Exact","2042 ALPHA ST, SOUTH PASADENA, CA, 91030",241108987,"L"
321751,"2042 ALPINE DR","BOULDER","CO",80304,40.025919415,-105.270188482,251,"2042 ALPINE DR, BOULDER, CO, 80304","Match","Non_Exact","2042 ALPINE AVE, BOULDER, CO, 80304",220750614,"R"
321752,"2042 ARLINGTON CIR NW","ATLANTA","GA",30318,33.771016092,-84.454329203,252,"2042 ARLINGTON CIR NW, ATLANTA, GA, 30318","Match","Exact","2042 ARLINGTON CIR NW, ATLANTA, GA, 30318",17339684,"L"
321753,"2042 BARNES MOUNTAIN RD","MANSFIELD","GA",30055,33.3869983650001,-83.780325745,253,"2042 BARNES MOUNTAIN RD, MANSFIELD, GA, 30055","Match","Exact","2042 BARNES MT RD, MANSFIELD, GA, 30055",66624772,"L"
321754,"2042 BIG SPRINGS ROAD","MARYVILLE","TN",37801,35.7503063730001,-84.029165211,254,"2042 BIG SPRINGS ROAD, MARYVILLE, TN, 37801","Match","Exact","2042 BIG SPRINGS RD, MARYVILLE, TN, 37801",622257075,"L"
321755,"2042 BONAFFON STREET","PHILADELPHIA","PA",19142,39.9246427470001,-75.239282214,255,"2042 BONAFFON STREET, PHILADELPHIA, PA, 19142","Match","Exact","2042 BONAFFON ST, PHILADELPHIA, PA, 19142",131408424,"R"
321756,"2042 BRIANS LN","SUFFOLK","VA",23434,36.721028098,-76.630208452,256,"2042 BRIANS LN, SUFFOLK, VA, 23434","Match","Non_Exact","2042 BRIAN'S LN, SUFFOLK, VA, 23434",638679899,"L"
321757,"2042 BURNT MILL RD","TUSTIN","CA",92782,33.735041418,-117.801417594,257,"2042 BURNT MILL RD, TUSTIN, CA, 92782","Match","Exact","2042 BURNT MILL RD, TUSTIN, CA, 92782",649782611,"R"
321758,"2042 CACTUS CT","BULLHEAD CITY","AZ",86442,35.046802842,-114.578926519,258,"2042 CACTUS CT, BULLHEAD CITY, AZ, 86442","Match","Exact","2042 CACTUS CT, BULLHEAD CITY, AZ, 86442",190343375,"L"
321759,"2042 CARMEL DR","JAMISON","PA",18929,40.2613744970001,-75.104453979,259,"2042 CARMEL DR, JAMISON, PA, 18929","Match","Exact","2042 CARMEL DR, JAMISON, PA, 18929",134759113,"R"
321760,"2042 CARMEL DRIVE","JAMISON","PA",18929,40.2613744970001,-75.104453979,260,"2042 CARMEL DRIVE, JAMISON, PA, 18929","Match","Exact","2042 CARMEL DR, JAMISON, PA, 18929",134759113,"R"
321761,"2042 CARTIER STREET","FLINT","MI",48504,43.0142357030001,-83.717782378,261,"2042 CARTIER STREET, FLINT, MI, 48504","Match","Exact","2042 CARTIER ST, FLINT, MI, 48504",69565386,"R"
321762,"2042 CONNECTICUT AVENUE","CINCINNATI","OH",45224,39.201419162,-84.560607921,262,"2042 CONNECTICUT AVENUE, CINCINNATI, OH, 45224","Match","Exact","2042 CONNECTICUT AVE, CINCINNATI, OH, 45224",103920758,"R"
321763,"2042 DRAGON TRAIL","NEW BRAUNFELS","TX",78130,29.6729705180001,-98.110187207,263,"2042 DRAGON TRAIL, NEW BRAUNFELS, TX, 78130","Match","Exact","2042 DRAGON TRL, NEW BRAUNFELS, TX, 78130",650963091,"L"
321764,"2042 E BUCK MOUNTAIN DRIVE","WILLIAMS","AZ",86046,NA,NA,264,"2042 E BUCK MOUNTAIN DRIVE, WILLIAMS, AZ, 86046","No_Match",NA,NA,NA,NA
321765,"2042 E MOUNT HOPE RD","MANHEIM","PA",17545,40.2163050950001,-76.4216307469999,265,"2042 E MOUNT HOPE RD, MANHEIM, PA, 17545","Match","Exact","2042 E MOUNT HOPE RD, MANHEIM, PA, 17545",179744913,"R"
321766,"2042 ENSENADA ST","LEMON GROVE","CA",91945,32.7266610630001,-117.031389345,266,"2042 ENSENADA ST, LEMON GROVE, CA, 91945","Match","Exact","2042 ENSENADA ST, LEMON GROVE, CA, 91945",195374502,"L"
321767,"2042 FIELDCREST DRIVE","OWENSBORO","KY",42303,37.752870715,-87.134127918,267,"2042 FIELDCREST DRIVE, OWENSBORO, KY, 42303","Match","Non_Exact","2042 FIELDCREST DR, OWENSBORO, KY, 42301",37558610,"L"
321768,"2042 FIGARO LANE","JACKSONVILLE","FL",32210,30.280064988,-81.753234839,268,"2042 FIGARO LANE, JACKSONVILLE, FL, 32210","Match","Exact","2042 FIGARO LN, JACKSONVILLE, FL, 32210",83910449,"R"
321769,"2042 FOXTROT LOOP 1","CHULA VISTA","CA",91915,32.6180115600001,-116.961938937,269,"2042 FOXTROT LOOP 1, CHULA VISTA, CA, 91915","Match","Exact","2042 FOXTROT LOOP, CHULA VISTA, CA, 91915",651683216,"L"
321770,"2042 GAFFNEY RD","SHELBY","NC",28152,35.218776072,-81.664929323,270,"2042 GAFFNEY RD, SHELBY, NC, 28152","Match","Exact","2042 GAFFNEY RD, SHELBY, NC, 28152",19344885,"L"
321771,"2042 GENERAL ALEXANDER DR","MALVERN","PA",19355,40.0842414410001,-75.469583303,271,"2042 GENERAL ALEXANDER DR, MALVERN, PA, 19355","Match","Exact","2042 GENERAL ALEXANDER DR, MALVERN, PA, 19355",179509840,"L"
321772,"2042 GOLF STREAM DRIVE","INDIANAPOLIS","IN",46229,39.796255724,-85.975397954,272,"2042 GOLF STREAM DRIVE, INDIANAPOLIS, IN, 46229","Match","Exact","2042 GOLF STREAM DR, INDIANAPOLIS, IN, 46229",108030551,"L"
321773,"2042 HICKORY TRAIL DRIVE","ROCHESTER HILLS","MI",48309,42.6489503380001,-83.198946016,273,"2042 HICKORY TRAIL DRIVE, ROCHESTER HILLS, MI, 48309","Match","Exact","2042 HICKORY TRAIL DR, ROCHESTER HILLS, MI, 48309",69787358,"R"
321774,"2042 HIGH RIDGE DRIVE","CLEARWATER","FL",33763,28.009508936,-82.753943588,274,"2042 HIGH RIDGE DRIVE, CLEARWATER, FL, 33763","Match","Exact","2042 HIGH RIDGE DR, CLEARWATER, FL, 33763",124666708,"L"
321775,"2042 HIGHWAY 5 AND 240","GLASGOW","MO",65254,NA,NA,275,"2042 HIGHWAY 5 AND 240, GLASGOW, MO, 65254","No_Match",NA,NA,NA,NA
321776,"2042 HILLSIDE AVE","SPRINGFIELD","OH",45503,39.9287682620001,-83.777822038,276,"2042 HILLSIDE AVE, SPRINGFIELD, OH, 45503","Match","Exact","2042 HILLSIDE AVE, SPRINGFIELD, OH, 45503",135023369,"L"
321777,"2042 HWY 1870","RUSSELL SPRINGS","KY",42642,37.051444981,-85.1269908309999,277,"2042 HWY 1870, RUSSELL SPRINGS, KY, 42642","Match","Non_Exact","2042 STATE HWY 1870, RUSSELL SPRINGS, KY, 42642",38438460,"L"
321778,"2042 KENNEDY DRIVE","NEWBERG","OR",97132,45.2945550960001,-122.958615135,278,"2042 KENNEDY DRIVE, NEWBERG, OR, 97132","Match","Exact","2042 KENNEDY DR, NEWBERG, OR, 97132",650143831,"L"
321779,"2042 KIRKTON","TROY","MI",48083,42.5538476720001,-83.139678045,279,"2042 KIRKTON, TROY, MI, 48083","Match","Non_Exact","2042 KIRKTON DR, TROY, MI, 48083",636251847,"L"
321780,"2042 KNOTTY PINE DRIVE","ABINGDON","MD",21009,39.481177985,-76.2874306589999,280,"2042 KNOTTY PINE DRIVE, ABINGDON, MD, 21009","Match","Exact","2042 KNOTTY PINE DR, ABINGDON, MD, 21009",191654483,"R"
321781,"2042 MARIAVILLE RD","MARIAVILLE","ME",4605,44.7208171450001,-68.411213231,281,"2042 MARIAVILLE RD, MARIAVILLE, ME, 4605","Match","Exact","2042 MARIAVILLE RD, MARIAVILLE, ME, 04605",110267210,"L"
321782,"2042 MCINGVALE ROAD SUITE A","HERNANDO","MS",38632,34.8311822060001,-89.972112382,282,"2042 MCINGVALE ROAD SUITE A, HERNANDO, MS, 38632","Match","Exact","2042 MCINGVALE RD, HERNANDO, MS, 38632",91843881,"R"
321783,"2042 MCINGVALE ROAD","HERNANDO","MS",38632,34.8311822060001,-89.972112382,283,"2042 MCINGVALE ROAD, HERNANDO, MS, 38632","Match","Exact","2042 MCINGVALE RD, HERNANDO, MS, 38632",91843881,"R"
321784,"2042 MIRAMAR BLVD","SOUTH EUCLID","OH",44121,41.5041121740001,-81.531852336,284,"2042 MIRAMAR BLVD, SOUTH EUCLID, OH, 44121","Match","Exact","2042 MIRAMAR BLVD, SOUTH EUCLID, OH, 44121",61125656,"R"
321785,"2042 N 10 OCLOCK RD","ROCKVILLE","IN",47872,39.798374703,-87.2786017129999,285,"2042 N 10 OCLOCK RD, ROCKVILLE, IN, 47872","Match","Non_Exact","2042 10 O'CLOCK RD, ROCKVILLE, IN, 47872",66405511,"L"
321786,"2042 N 52ND STREET","MILWAUKEE","WI",53208,43.056533389,-87.978772012,286,"2042 N 52ND STREET, MILWAUKEE, WI, 53208","Match","Exact","2042 N 52ND ST, MILWAUKEE, WI, 53208",77733818,"R"
321787,"2042 N BEACHWOOD DRIVE APT 10","LOS ANGELES","CA",90068,34.1072129900001,-118.321641164,287,"2042 N BEACHWOOD DRIVE APT 10, LOS ANGELES, CA, 90068","Match","Non_Exact","2042 N BEACHWOOD DR, LOS ANGELES, CA, 90068",652035269,"R"
321788,"2042 N CLEVELAND AVE","CHICAGO","IL",60614,41.91910291,-87.6412788869999,288,"2042 N CLEVELAND AVE, CHICAGO, IL, 60614","Match","Exact","2042 N CLEVELAND AVE, CHICAGO, IL, 60614",111767329,"L"
321789,"2042 N WINCHESTER AVE 2E","CHICAGO","IL",60614,41.918644532,-87.6764367219999,289,"2042 N WINCHESTER AVE 2E, CHICAGO, IL, 60614","Match","Non_Exact","2042 N WINCHESTER AVE, CHICAGO, IL, 60614",605228778,"L"
321790,"2042 NE 120TH RD","NORTH MIAMI","FL",33181,25.886327153,-80.1575532479999,290,"2042 NE 120TH RD, NORTH MIAMI, FL, 33181","Match","Exact","2042 NE 120TH RD, NORTH MIAMI, FL, 33181",116037838,"R"
321791,"2042 PARKVIEW AVE","NORFOLK","VA",23503,36.9346003850001,-76.2187376959999,291,"2042 PARKVIEW AVE, NORFOLK, VA, 23503","Match","Exact","2042 PARKVIEW AVE, NORFOLK, VA, 23503",122125129,"L"
321792,"2042 REDMAN COURT","SIMI VALLEY","CA",93063,34.272607302,-118.685344939,292,"2042 REDMAN COURT, SIMI VALLEY, CA, 93063","Match","Exact","2042 REDMAN CT, SIMI VALLEY, CA, 93063",109980005,"R"
321793,"2042 ROBINWOOD","TOLEDO","OH",43620,41.6618145090001,-83.560534323,293,"2042 ROBINWOOD, TOLEDO, OH, 43620","Match","Non_Exact","2042 ROBINWOOD AVE, TOLEDO, OH, 43620",33938582,"R"
321794,"2042 S STATE RTE 231","TIFFIN","OH",44883,41.094344833,-83.174800563,294,"2042 S STATE RTE 231, TIFFIN, OH, 44883","Match","Exact","2042 STATE RTE 231, TIFFIN, OH, 44883",12966983,"L"
321795,"2042 SW 132ND WAY","DAVIE","FL",33325,NA,NA,295,"2042 SW 132ND WAY, DAVIE, FL, 33325","No_Match",NA,NA,NA,NA
321796,"2042 SW 2ND ST","OCALA","FL",34471,29.1847114440001,-82.15929421,296,"2042 SW 2ND ST, OCALA, FL, 34471","Match","Exact","2042 SW 2ND ST, OCALA, FL, 34471",116724468,"L"
321797,"2042 W 83RD STREET","LOS ANGELES","CA",90047,33.963641157,-118.314351697,297,"2042 W 83RD STREET, LOS ANGELES, CA, 90047","Match","Exact","2042 W 83RD ST, LOS ANGELES, CA, 90047",141658654,"L"
321798,"2042 W CULLERTON ST APT 1","CHICAGO","IL",60608,41.8549158530001,-87.677013761,298,"2042 W CULLERTON ST APT 1, CHICAGO, IL, 60608","Match","Non_Exact","2042 W CULLERTON ST, CHICAGO, IL, 60608",111803051,"R"
321799,"2042 W SHAKESPEARE AVE","CHICAGO","IL",60647,41.920787273,-87.678886325,299,"2042 W SHAKESPEARE AVE, CHICAGO, IL, 60647","Match","Exact","2042 W SHAKESPEARE AVE, CHICAGO, IL, 60647",616789392,"R"
321800,"2042 W TANGO CREEK DRIVE","MERIDIAN","ID",83646,43.6598623610001,-116.419763084,300,"2042 W TANGO CREEK DRIVE, MERIDIAN, ID, 83646","Match","Exact","2042 W TANGO CREEK DR, MERIDIAN, ID, 83646",617927306,"R"
321801,"2042 WEST BLVD","CLEVELAND","OH",44102,41.4758465210001,-81.755555025,301,"2042 WEST BLVD, CLEVELAND, OH, 44102","Match","Exact","2042 WEST BLVD, CLEVELAND, OH, 44102",61100858,"R"
321802,"2042 WEST BOULEVARD","CLEVELAND","OH",44102,NA,NA,302,"2042 WEST BOULEVARD, CLEVELAND, OH, 44102","No_Match",NA,NA,NA,NA
321803,"2042 WETS RESERVE CIRCLE","AVON","OH",44011,NA,NA,303,"2042 WETS RESERVE CIRCLE, AVON, OH, 44011","No_Match",NA,NA,NA,NA
321804,"2042 WINCH RD","LAKEWOOD","NY",14750,42.0877732930001,-79.329944891,304,"2042 WINCH RD, LAKEWOOD, NY, 14750","Match","Exact","2042 WINCH RD, LAKEWOOD, NY, 14750",120777672,"R"
321805,"2042-48 ARCH STREET","PHILADELPHIA","PA",19103,39.955707026,-75.173595238,305,"2042-48 ARCH STREET, PHILADELPHIA, PA, 19103","Match","Exact","2042 ARCH ST, PHILADELPHIA, PA, 19103",131459774,"L"
321806,"2042-48 ARCH STREET","PHILEADELPHIA","PA",19103,39.955707026,-75.173595238,306,"2042-48 ARCH STREET, PHILEADELPHIA, PA, 19103","Match","Non_Exact","2042 ARCH ST, PHILADELPHIA, PA, 19103",131459774,"L"
321807,"20420 A ST","EAGLE","NE",68347,40.79843343,-96.44220811,307,"20420 A ST, EAGLE, NE, 68347","Match","Exact","20420 A ST, EAGLE, NE, 68347",10364180,"L"
321808,"20420 GRANDVIEW","DETROIT","MI",48219,42.4399923510001,-83.285248149,308,"20420 GRANDVIEW, DETROIT, MI, 48219","Match","Non_Exact","20420 GRANDVIEW ST, DETROIT, MI, 48219",95419656,"R"
321809,"20420 NELSON RD","RIO HONDO","TX",78583,26.2625426000001,-97.551984895,309,"20420 NELSON RD, RIO HONDO, TX, 78583","Match","Exact","20420 NELSON RD, RIO HONDO, TX, 78583",90005616,"L"
321810,"20420 RICHMOND BEACH DRIVE","SHORELINE","WA",98177,47.778529716,-122.393235161,310,"20420 RICHMOND BEACH DRIVE, SHORELINE, WA, 98177","Match","Exact","20420 RICHMOND BEACH DR, SHORELINE, WA, 98177",645410159,"R"
321811,"20420 SAMUAL DR","SAUGUS","CA",91350,34.449035581,-118.49146424,311,"20420 SAMUAL DR, SAUGUS, CA, 91350","Match","Exact","20420 SAMUAL DR, SAUGUS, CA, 91350",647524617,"R"
321812,"20420 SW 92ND PL","CUTLER BAY","FL",33189,25.577301978,-80.342243417,312,"20420 SW 92ND PL, CUTLER BAY, FL, 33189","Match","Exact","20420 SW 92ND PL, CUTLER BAY, FL, 33189",115995801,"L"
321813,"20420 VIA MEDICI","PORTER RANCH","CA",91326,34.2950892750001,-118.579336789,313,"20420 VIA MEDICI, PORTER RANCH, CA, 91326","Match","Exact","20420 VIA MEDICI, PORTER RANCH, CA, 91326",142681802,"R"
321814,"20421 - 75 AVENUE","CADOTT","WI",54727,NA,NA,314,"20421 - 75 AVENUE, CADOTT, WI, 54727","No_Match",NA,NA,NA,NA
321815,"20421 87TH AVE SW","VASHON","WA",98070,47.4214649260001,-122.444508873,315,"20421 87TH AVE SW, VASHON, WA, 98070","Match","Exact","20421 87TH AVE SW, VASHON, WA, 98070",187061115,"L"
321816,"20421 INDIANA AVE","BROWNSTOWN","MI",48183,42.1014814550001,-83.2317841889999,316,"20421 INDIANA AVE, BROWNSTOWN, MI, 48183","Match","Exact","20421 INDIANA AVE, BROWNSTOWN, MI, 48183",95457399,"L"
321817,"20421 SW 207 AVENUE","MIAMI","FL",33187,25.575480295,-80.527056946,317,"20421 SW 207 AVENUE, MIAMI, FL, 33187","Match","Exact","20421 SW 207TH AVE, MIAMI, FL, 33187",116073134,"L"
321818,"20422 30TH STREET","LAKEBAY","WA",98349,47.22935383,-122.809201029,318,"20422 30TH STREET, LAKEBAY, WA, 98349","Match","Non_Exact","20422 30TH ST SW, LAKEBAY, WA, 98349",184685855,"L"
321819,"20422 88TH AVE W","EDMONDS","WA",98026,47.813578175,-122.352098386,319,"20422 88TH AVE W, EDMONDS, WA, 98026","Match","Exact","20422 88TH AVE W, EDMONDS, WA, 98026",606933254,"L"
321820,"20422 BEAVERCREEK ROAD","OREGON CITY","OR",97045,45.3102144650001,-122.547661124,320,"20422 BEAVERCREEK ROAD, OREGON CITY, OR, 97045","Match","Non_Exact","20422 S BEAVERCREEK RD, OREGON CITY, OR, 97045",157961557,"L"
321821,"20422 DEVLIN AVENUE","LAKEWOOD","CA",90715,33.844411699,-118.07744657,321,"20422 DEVLIN AVENUE, LAKEWOOD, CA, 90715","Match","Exact","20422 DEVLIN AVE, LAKEWOOD, CA, 90715",642865015,"L"
321822,"20422 FAIRFIELD PARK WAY","CYPRESS","TX",77433,30.008906863,-95.742501901,322,"20422 FAIRFIELD PARK WAY, CYPRESS, TX, 77433","Match","Exact","20422 FAIRFIELD PARK WAY, CYPRESS, TX, 77433",641891933,"L"
321823,"20422 HORSETAIL FALLS DR","TOMBALL","TX",77375,30.059245171,-95.6001636299999,323,"20422 HORSETAIL FALLS DR, TOMBALL, TX, 77375","Match","Exact","20422 HORSETAIL FALLS DR, TOMBALL, TX, 77375",630370348,"R"
321824,"20422 HORSETAIL FALLS","TOMBALL","TX",77375,30.059245171,-95.6001636299999,324,"20422 HORSETAIL FALLS, TOMBALL, TX, 77375","Match","Non_Exact","20422 HORSETAIL FALLS DR, TOMBALL, TX, 77375",630370348,"R"
321825,"20422","OLYMPIA FIELDS","IL",60461,NA,NA,325,"20422, OLYMPIA FIELDS, IL, 60461","No_Match",NA,NA,NA,NA
321826,"20423 NE 31ST","SAMMAMISH","WA",98074,47.636802055,-122.066918316,326,"20423 NE 31ST, SAMMAMISH, WA, 98074","Match","Non_Exact","20423 NE 31ST ST, SAMMAMISH, WA, 98074",186940487,"L"
321827,"20423 SR 7 STE F6 255","BOCA RATON","FL",33498,26.373619208,-80.2035186159999,327,"20423 SR 7 STE F6 255, BOCA RATON, FL, 33498","Match","Non_Exact","20423 STATE RD 7, BOCA RATON, FL, 33498",614297320,"R"
321828,"20423 STATE RD 7  STE F6  324","BOCA RATON","FL",33498,26.373619208,-80.2035186159999,328,"20423 STATE RD 7  STE F6  324, BOCA RATON, FL, 33498","Match","Exact","20423 STATE RD 7, BOCA RATON, FL, 33498",614297320,"R"
321829,"20423 STATE ROAD 7 SUITE 410","BOCA RATON","FL",33498,26.373619208,-80.2035186159999,329,"20423 STATE ROAD 7 SUITE 410, BOCA RATON, FL, 33498","Match","Exact","20423 STATE RD 7, BOCA RATON, FL, 33498",614297320,"R"
321830,"20423 WINDSOR TRACE LANE","RICHMOND","TX",77407,29.7012018180001,-95.737887981,330,"20423 WINDSOR TRACE LANE, RICHMOND, TX, 77407","Match","Exact","20423 WINDSOR TRACE LN, RICHMOND, TX, 77407",633680126,"L"
321831,"20424 39TH AVENUE","BAYSIDE","NY",11361,NA,NA,331,"20424 39TH AVENUE, BAYSIDE, NY, 11361","No_Match",NA,NA,NA,NA
321832,"20424 HELENA OAKS LANE","REDDING","CA",96003,40.6668025810001,-122.300831768,332,"20424 HELENA OAKS LANE, REDDING, CA, 96003","Match","Exact","20424 HELENA OAKS LN, REDDING, CA, 96003",126655384,"L"
321833,"20424 MARILLA ST","CHATSWORTH","CA",91311,34.247296469,-118.577802145,333,"20424 MARILLA ST, CHATSWORTH, CA, 91311","Match","Exact","20424 MARILLA ST, CHATSWORTH, CA, 91311",141539821,"L"
321834,"20424 MARILLA ST","CHATSWORTH","CO",91311,NA,NA,334,"20424 MARILLA ST, CHATSWORTH, CO, 91311","No_Match",NA,NA,NA,NA
321835,"20424 SUGAR GUM RD","RIVERSIDE","CA",92508,33.8947085770001,-117.306292455,335,"20424 SUGAR GUM RD, RIVERSIDE, CA, 92508","Match","Exact","20424 SUGAR GUM RD, RIVERSIDE, CA, 92508",194852783,"R"
321836,"20425 FALCON BROOK CT","NEW PARIS","IN",46553,41.4998446320001,-85.854878701,336,"20425 FALCON BROOK CT, NEW PARIS, IN, 46553","Match","Exact","20425 FALCON BROOK CT, NEW PARIS, IN, 46553",604691179,"L"
321837,"20425 NW 25 CT","MIAMI GARDENS","FL",33056,25.9622778880001,-80.244343844,337,"20425 NW 25 CT, MIAMI GARDENS, FL, 33056","Match","Exact","20425 NW 25TH CT, MIAMI GARDENS, FL, 33056",116026203,"R"
321838,"20425 SUNNYDALE","ST CLAIR SHORES","MI",48081,42.4889362420001,-82.910914893,338,"20425 SUNNYDALE, ST CLAIR SHORES, MI, 48081","Match","Non_Exact","20425 SUNNYDALE ST, SAINT CLAIR SHORES, MI, 48081",110685680,"L"
321839,"20425 SW 319 STREET","HOMESTEAD","FL",33030,25.4705191210001,-80.522496511,339,"20425 SW 319 STREET, HOMESTEAD, FL, 33030","Match","Exact","20425 SW 319TH ST, HOMESTEAD, FL, 33030",641924811,"R"
321840,"20425 SW 319 STREET","OMESTEAD","FL",33030,25.4705191210001,-80.522496511,340,"20425 SW 319 STREET, OMESTEAD, FL, 33030","Match","Non_Exact","20425 SW 319TH ST, HOMESTEAD, FL, 33030",641924811,"R"
321841,"20426 E MOCKINGBIRD DR","QUEEN CREEK","AZ",85142,33.2687392290001,-111.642676137,341,"20426 E MOCKINGBIRD DR, QUEEN CREEK, AZ, 85142","Match","Exact","20426 E MOCKINGBIRD DR, QUEEN CREEK, AZ, 85142",641867196,"L"
321842,"20426 GATES LANE","HUMBLE","TX",77338,NA,NA,342,"20426 GATES LANE, HUMBLE, TX, 77338","No_Match",NA,NA,NA,NA
321843,"20426 LANCASTER","HARPER WOODS","MI",48225,42.4427456940001,-82.9236182769999,343,"20426 LANCASTER, HARPER WOODS, MI, 48225","Match","Non_Exact","20426 LANCASTER ST, HARPER WOODS, MI, 48225",95486748,"R"
321844,"20426 LICHFIELD RD","DETROIT","MI",48221,42.4444936880001,-83.133164039,344,"20426 LICHFIELD RD, DETROIT, MI, 48221","Match","Exact","20426 LICHFIELD RD, DETROIT, MI, 48221",652796150,"R"
321845,"20426 LYNN DRIVE","PRIOR LAKE","MN",55372,44.6553083360001,-93.33663777,345,"20426 LYNN DRIVE, PRIOR LAKE, MN, 55372","Match","Exact","20426 LYNN DR, PRIOR LAKE, MN, 55372",38148528,"L"
321846,"20426 WILLOW TRACE DRIVE","CYPRESS","TX",77433,30.000410661,-95.737160059,346,"20426 WILLOW TRACE DRIVE, CYPRESS, TX, 77433","Match","Exact","20426 WILLOW TRACE DR, CYPRESS, TX, 77433",96161689,"R"
321847,"20427 APACHE LAKE DR","KATY","TX",77449,29.814435041,-95.729192871,347,"20427 APACHE LAKE DR, KATY, TX, 77449","Match","Exact","20427 APACHE LAKE DR, KATY, TX, 77449",96566459,"R"
321848,"20427 MARSHALL ST APT 20","CASTRO VALLEY","CA",94546,37.6960261090001,-122.066053978,348,"20427 MARSHALL ST APT 20, CASTRO VALLEY, CA, 94546","Match","Exact","20427 MARSHALL ST, CASTRO VALLEY, CA, 94546",125015641,"R"
321849,"20427 NE 64TH PL","REDMOND","WA",98053,47.6638081500001,-122.0698032,349,"20427 NE 64TH PL, REDMOND, WA, 98053","Match","Exact","20427 NE 64TH PL, REDMOND, WA, 98053",186934533,"R"
321850,"20427 SPRING ST","RIVERSIDE","CA",92507,34.0119721940001,-117.306160119,350,"20427 SPRING ST, RIVERSIDE, CA, 92507","Match","Exact","20427 SPRING ST, RIVERSIDE, CA, 92507",646298661,"R"
321851,"20427 SWEET LOUETTA LANE","HOUSTON","TX",77388,NA,NA,351,"20427 SWEET LOUETTA LANE, HOUSTON, TX, 77388","No_Match",NA,NA,NA,NA
321852,"20428 GLEN BRAE DRIVE","SARATOGA","CA",95070,37.272750242,-122.030410955,352,"20428 GLEN BRAE DRIVE, SARATOGA, CA, 95070","Match","Exact","20428 GLEN BRAE DR, SARATOGA, CA, 95070",122942664,"L"
321853,"20428 SOUTH 187TH STREET","QUEEN CREEK","AZ",85142,33.264713536,-111.679418325,353,"20428 SOUTH 187TH STREET, QUEEN CREEK, AZ, 85142","Match","Exact","20428 S 187TH ST, QUEEN CREEK, AZ, 85142",244003959,"L"
321854,"20429 100AVE SE","KENT","WA",90031,NA,NA,354,"20429 100AVE SE, KENT, WA, 90031","No_Match",NA,NA,NA,NA
321855,"2043 130TH STREET","HUMBOLDT","IA",50548,42.601608841,-94.239910231,355,"2043 130TH STREET, HUMBOLDT, IA, 50548","Match","Exact","2043 130TH ST, HUMBOLDT, IA, 50548",648446938,"R"
321856,"2043 28TH STREET SOUTH","SAINT PETERSBURG","FL",33712,27.749857288,-82.6713731629999,356,"2043 28TH STREET SOUTH, SAINT PETERSBURG, FL, 33712","Match","Exact","2043 28TH ST S, SAINT PETERSBURG, FL, 33712",124706187,"R"
321857,"2043 ALFRED AVENUE","ST. LOUIS","MO",63110,38.6140052480001,-90.261287986,357,"2043 ALFRED AVENUE, ST. LOUIS, MO, 63110","Match","Exact","2043 ALFRED AVE, SAINT LOUIS, MO, 63110",107597173,"R"
321858,"2043 ASTON MILLS PLACE","CHARLOTTE","NC",28273,35.1601212260001,-80.9252044,358,"2043 ASTON MILLS PLACE, CHARLOTTE, NC, 28273","Match","Non_Exact","2043 ASTON MILL PL, CHARLOTTE, NC, 28273",635657659,"L"
321859,"2043 BEACH DR","AKRON","OH",44312,41.026896256,-81.453343473,359,"2043 BEACH DR, AKRON, OH, 44312","Match","Exact","2043 BEACH DR, AKRON, OH, 44312",61355262,"L"
321860,"2043 BRANDON RD","GLENVIEW","IL",60025,42.092648313,-87.785575595,360,"2043 BRANDON RD, GLENVIEW, IL, 60025","Match","Exact","2043 BRANDON RD, GLENVIEW, IL, 60025",624417402,"R"
321861,"2043 BRECKENRIDGE STREET","OWENSBORO","KY",42303,37.7563732840001,-87.097578389,361,"2043 BRECKENRIDGE STREET, OWENSBORO, KY, 42303","Match","Exact","2043 BRECKENRIDGE ST, OWENSBORO, KY, 42303",37560021,"L"
321862,"2043 CALLE CHICO","SIERRA VISTA","AZ",85635,31.5319865760001,-110.248167962,362,"2043 CALLE CHICO, SIERRA VISTA, AZ, 85635","Match","Non_Exact","2043 S CLL CHICO, SIERRA VISTA, AZ, 85635",120961051,"R"
321863,"2043 CEDAR LANE","KINGSTON","TN",37763,35.8632648540001,-84.48875135,363,"2043 CEDAR LANE, KINGSTON, TN, 37763","Match","Exact","2043 CEDAR LN, KINGSTON, TN, 37763",618100038,"L"
321864,"2043 CEDAR LANE","KINGTON","TN",37763,35.8632648540001,-84.48875135,364,"2043 CEDAR LANE, KINGTON, TN, 37763","Match","Non_Exact","2043 CEDAR LN, KINGSTON, TN, 37763",618100038,"L"
321865,"2043 COLLEGE WAY","FOREST GROVE","OR",97116,45.52188649,-123.110989304,365,"2043 COLLEGE WAY, FOREST GROVE, OR, 97116","Match","Exact","2043 COLLEGE WAY, FOREST GROVE, OR, 97116",158175858,"R"
321866,"2043 DOUGLASS BLVD APT 1","LOUISVILLE","KY",40205,38.225324979,-85.692505727,366,"2043 DOUGLASS BLVD APT 1, LOUISVILLE, KY, 40205","Match","Exact","2043 DOUGLASS BLVD, LOUISVILLE, KY, 40205",96852950,"L"
321867,"2043 DOUGLASS BLVD APT 15","LOUISVILLE","KY",40205,38.225324979,-85.692505727,367,"2043 DOUGLASS BLVD APT 15, LOUISVILLE, KY, 40205","Match","Exact","2043 DOUGLASS BLVD, LOUISVILLE, KY, 40205",96852950,"L"
321868,"2043 DYREHAVEN CT","TALLAHASSEE","FL",32317,30.4797734690001,-84.1357552059999,368,"2043 DYREHAVEN CT, TALLAHASSEE, FL, 32317","Match","Exact","2043 DYREHAVEN CT, TALLAHASSEE, FL, 32317",82867069,"L"
321869,"2043 E SOUTHERN AVE STE D","TEMPE","AZ",85282,NA,NA,369,"2043 E SOUTHERN AVE STE D, TEMPE, AZ, 85282","Tie",NA,NA,NA,NA
321870,"2043 E SOUTHERN AVE UNIT D","TEMPE","AZ",85282,NA,NA,370,"2043 E SOUTHERN AVE UNIT D, TEMPE, AZ, 85282","Tie",NA,NA,NA,NA
321871,"2043 E XYLER ST","TULSA","OK",74110,36.187562341,-95.962322591,371,"2043 E XYLER ST, TULSA, OK, 74110","Match","Exact","2043 E XYLER ST, TULSA, OK, 74110",166438688,"L"
321872,"2043 EAST ST NO 607","CONCORD","CA",94522,NA,NA,372,"2043 EAST ST NO 607, CONCORD, CA, 94522","No_Match",NA,NA,NA,NA
321873,"2043 EASTBURN AVE","PHILADELPHIA","PA",19138,40.056732948,-75.1544203779999,373,"2043 EASTBURN AVE, PHILADELPHIA, PA, 19138","Match","Exact","2043 EASTBURN AVE, PHILADELPHIA, PA, 19138",131413293,"R"
321874,"2043 GATE DR","ANNAPOLIS","MD",21401,38.992978061,-76.537749745,374,"2043 GATE DR, ANNAPOLIS, MD, 21401","Match","Exact","2043 GATE DR, ANNAPOLIS, MD, 21401",615381313,"L"
321875,"2043 GRANDE AVE SE","CEDAR RAPIDS","IA",52403,41.9875389870001,-91.63864338,375,"2043 GRANDE AVE SE, CEDAR RAPIDS, IA, 52403","Match","Exact","2043 GRANDE AVE SE, CEDAR RAPIDS, IA, 52403",17050914,"R"
321876,"2043 GREENWICH STREET","SOUTH PLAINFIELD","NJ",7080,40.589532852,-74.426873063,376,"2043 GREENWICH STREET, SOUTH PLAINFIELD, NJ, 7080","Match","Exact","2043 GREENWICH ST, S PLAINFIELD, NJ, 07080",60260649,"L"
321877,"2043 IVYLOG DRIVE","BLAIRSVILLE","GA",30512,34.9535231740001,-83.999686964,377,"2043 IVYLOG DRIVE, BLAIRSVILLE, GA, 30512","Match","Exact","2043 IVYLOG DR, BLAIRSVILLE, GA, 30512",651251524,"L"
321878,"2043 JEFFERSON ST SE","ALBANY","OR",97322,44.622532795,-123.095550788,378,"2043 JEFFERSON ST SE, ALBANY, OR, 97322","Match","Exact","2043 JEFFERSON ST SE, ALBANY, OR, 97322",156073443,"R"
321879,"2043 K ST SW","MIAMI","OK",74354,36.843704958,-94.888607373,379,"2043 K ST SW, MIAMI, OK, 74354","Match","Exact","2043 K ST SW, MIAMI, OK, 74354",56283393,"R"
321880,"2043 KETTLE CT","LANSING","IL",60438,41.5602490030001,-87.567024983,380,"2043 KETTLE CT, LANSING, IL, 60438","Match","Exact","2043 KETTLE CT, LANSING, IL, 60438",111785153,"R"
321881,"2043 LOCKE-CUBA ROAD","MILLINGTON","TN",38017,35.334774413,-89.996398246,381,"2043 LOCKE-CUBA ROAD, MILLINGTON, TN, 38017","Match","Non_Exact","2043 LOCKE CUBA RD, MILLINGTON, TN, 38053",72897467,"R"
321882,"2043 Madison St","COMER","GA",30629,34.0644247920001,-83.123773077,382,"2043 Madison St, COMER, GA, 30629","Match","Exact","2043 MADISON ST, COMER, GA, 30629",5017633,"L"
321883,"2043 MADISON ST","Comer","GA",30629,34.0644247920001,-83.123773077,383,"2043 MADISON ST, Comer, GA, 30629","Match","Exact","2043 MADISON ST, COMER, GA, 30629",5017633,"L"
321884,"2043 MONTECITO DRIVE","MONTROSE","CA",91020,NA,NA,384,"2043 MONTECITO DRIVE, MONTROSE, CA, 91020","No_Match",NA,NA,NA,NA
321885,"2043 MOUNTAIN WIND LOOP","BRYAN","TX",77807,30.623354314,-96.3960268439999,385,"2043 MOUNTAIN WIND LOOP, BRYAN, TX, 77807","Match","Exact","2043 MOUNTAIN WIND LOOP, BRYAN, TX, 77807",633244945,"L"
321886,"2043 N 33RD TER","KANSAS CITY","KS",66104,39.129488741,-94.668239904,386,"2043 N 33RD TER, KANSAS CITY, KS, 66104","Match","Exact","2043 N 33RD TER, KANSAS CITY, KS, 66104",91144611,"R"
321887,"2043 N 78TH AVE","ELMWOOD PARK","IL",60707,41.9167614070001,-87.8206479739999,387,"2043 N 78TH AVE, ELMWOOD PARK, IL, 60707","Match","Exact","2043 N 78TH AVE, ELMWOOD PARK, IL, 60707",111749131,"R"
321888,"2043 N NORDICA AVE","CHICAGO","IL",60707,41.9171722820001,-87.802360736,388,"2043 N NORDICA AVE, CHICAGO, IL, 60707","Match","Exact","2043 N NORDICA AVE, CHICAGO, IL, 60707",605167436,"R"
321889,"2043 NEVADA STREET","TOLEDO","OH",43605,41.6401261250001,-83.501229493,389,"2043 NEVADA STREET, TOLEDO, OH, 43605","Match","Exact","2043 NEVADA ST, TOLEDO, OH, 43605",33946396,"L"
321890,"2043 NEW YORK AVE","WHITING","IN",46394,41.676008494,-87.49297317,390,"2043 NEW YORK AVE, WHITING, IN, 46394","Match","Exact","2043 NEW YORK AVE, WHITING, IN, 46394",606313605,"L"
321891,"2043 NORTHSIDE DRIVE","ATLANTA","GA",30305,NA,NA,391,"2043 NORTHSIDE DRIVE, ATLANTA, GA, 30305","No_Match",NA,NA,NA,NA
321892,"2043 PIN OAK CIRCLE","VAN VLECK","TX",77482,29.037817465,-95.886873297,392,"2043 PIN OAK CIRCLE, VAN VLECK, TX, 77482","Match","Exact","2043 PIN OAK CIR, VAN VLECK, TX, 77482",83300026,"R"
321893,"2043 RANDON RD","CLEVELAND","OH",44106,41.5074739350001,-81.599245469,393,"2043 RANDON RD, CLEVELAND, OH, 44106","Match","Non_Exact","2043 RANDOM RD, CLEVELAND, OH, 44106",61122377,"L"
321894,"2043 SEATTLE AVENUE","SILVER SPRING","MD",20905,39.095137772,-76.970870979,394,"2043 SEATTLE AVENUE, SILVER SPRING, MD, 20905","Match","Exact","2043 SEATTLE AVE, SILVER SPRING, MD, 20905",62072857,"R"
321895,"2043 SECRETARIAT LANE","SAINT JOHN","MI",48879,42.976353213,-84.563598156,395,"2043 SECRETARIAT LANE, SAINT JOHN, MI, 48879","Match","Non_Exact","2043 SECRETARIAT LN, SAINT JOHNS, MI, 48879",627742712,"L"
321896,"2043 SECRETARIAT LANE","SAINT JOHNS","MI",48879,42.976353213,-84.563598156,396,"2043 SECRETARIAT LANE, SAINT JOHNS, MI, 48879","Match","Exact","2043 SECRETARIAT LN, SAINT JOHNS, MI, 48879",627742712,"L"
321897,"2043 SILVERSMITH LN","STONE MOUNTAIN","GA",30087,33.842480611,-84.149151379,397,"2043 SILVERSMITH LN, STONE MOUNTAIN, GA, 30087","Match","Exact","2043 SILVERSMITH LN, STONE MOUNTAIN, GA, 30087",23373968,"L"
321898,"2043 SUMMER GARDEN LANE","KATY","TX",77493,29.802581392,-95.82880589,398,"2043 SUMMER GARDEN LANE, KATY, TX, 77493","Match","Non_Exact","2043 SUMMER GARDENS LN, KATY, TX, 77493",642048749,"L"
321899,"2043 SW SIMS AVE","TOPEKA","KS",66604,39.030096008,-95.738221767,399,"2043 SW SIMS AVE, TOPEKA, KS, 66604","Match","Exact","2043 SW SIMS AVE, TOPEKA, KS, 66604",17886244,"R"
321900,"2043 TRAILRIDGE SQUARE","BIRMINGHAM","AL",35214,33.5825866000001,-86.89393835,400,"2043 TRAILRIDGE SQUARE, BIRMINGHAM, AL, 35214","Match","Exact","2043 TRAILRIDGE SQ, BIRMINGHAM, AL, 35214",81730040,"R"
321901,"2043 UNION STREET","ST PETERSBURG","FL",32712,NA,NA,401,"2043 UNION STREET, ST PETERSBURG, FL, 32712","No_Match",NA,NA,NA,NA
321902,"2043 UNIVERSITY DR","NAPERVILLE","IL",60565,41.7284250370001,-88.1056072759999,402,"2043 UNIVERSITY DR, NAPERVILLE, IL, 60565","Match","Exact","2043 UNIVERSITY DR, NAPERVILLE, IL, 60565",112556347,"L"
321903,"2043 W 22ND PLACE APT 2F","CHICAGO","IL",60608,41.851249124,-87.6769108839999,403,"2043 W 22ND PLACE APT 2F, CHICAGO, IL, 60608","Match","Non_Exact","2043 W 22ND PL, CHICAGO, IL, 60608",111803077,"L"
321904,"2043 WEST MOFFAT ST APT 1","CHICAGO","IL",60647,41.9154465760001,-87.6787135069999,404,"2043 WEST MOFFAT ST APT 1, CHICAGO, IL, 60647","Match","Exact","2043 W MOFFAT ST, CHICAGO, IL, 60647",605026705,"L"
321905,"2043 WESTFIELD AVE","RENO","NV",89509,39.5147630660001,-119.833541779,405,"2043 WESTFIELD AVE, RENO, NV, 89509","Match","Exact","2043 WESTFIELD AVE, RENO, NV, 89509",107044690,"R"
321906,"2043 WILSON BLVD SUITE 17064","ARLINGTON","VA",22216,38.8918823220001,-77.083590779,406,"2043 WILSON BLVD SUITE 17064, ARLINGTON, VA, 22216","Match","Non_Exact","2043 WILSON BLVD, ARLINGTON, VA, 22201",76469851,"R"
321907,"2043 WINDSOR AVE SW","ROANOKE","VA",24015,37.2625787100001,-79.9799177799999,407,"2043 WINDSOR AVE SW, ROANOKE, VA, 24015","Match","Exact","2043 WINDSOR AVE SW, ROANOKE, VA, 24015",62937689,"L"
321908,"2043 WINDSOR AVE SW","ROANOKE","VA",NA,37.2625787100001,-79.9799177799999,408,"2043 WINDSOR AVE SW, ROANOKE, VA, ","Match","Exact","2043 WINDSOR AVE SW, ROANOKE, VA, 24015",62937689,"L"
321909,"2043 YUKON COURT","ALLEN","TX",75013,33.1288643840001,-96.677249333,409,"2043 YUKON COURT, ALLEN, TX, 75013","Match","Exact","2043 YUKON CT, ALLEN, TX, 75013",210527827,"L"
321910,"2043","NAPLES","DE",34116,NA,NA,410,"2043, NAPLES, DE, 34116","No_Match",NA,NA,NA,NA
321911,"20430 70TH ST SE","SNOHOMISH","WA",98290,47.932858175,-121.957924651,411,"20430 70TH ST SE, SNOHOMISH, WA, 98290","Match","Exact","20430 70TH ST SE, SNOHOMISH, WA, 98290",608937245,"R"
321912,"20430 CORONA STREET","CORONA","CA",92881,33.824859277,-117.526904026,412,"20430 CORONA STREET, CORONA, CA, 92881","Match","Exact","20430 CORONA ST, CORONA, CA, 92881",624683487,"R"
321913,"20430 DELTA WOOD TRAIL","HUMBLE","TX",77346,30.0151015920001,-95.173173941,413,"20430 DELTA WOOD TRAIL, HUMBLE, TX, 77346","Match","Exact","20430 DELTA WOOD TRL, HUMBLE, TX, 77346",96558425,"L"
321914,"20430 EVERHART KEY LANE","HUMBLE","TX",77338,30.0151550740001,-95.303456481,414,"20430 EVERHART KEY LANE, HUMBLE, TX, 77338","Match","Exact","20430 EVERHART KEY LN, HUMBLE, TX, 77338",636795679,"L"
321915,"20430 KENMORE AVE","HARPERWOODS","MI",48225,42.439394602,-82.924105696,415,"20430 KENMORE AVE, HARPERWOODS, MI, 48225","Match","Non_Exact","20430 KENMORE AVE, HARPER WOODS, MI, 48225",95486734,"R"
321916,"20430 LOCUST ST","WESTON","OH",43569,41.344280213,-83.794562951,416,"20430 LOCUST ST, WESTON, OH, 43569","Match","Exact","20430 LOCUST ST, WESTON, OH, 43569",38718622,"L"
321917,"20430 MANASTASH RD","ELLENSBURG","WA",98926,NA,NA,417,"20430 MANASTASH RD, ELLENSBURG, WA, 98926","No_Match",NA,NA,NA,NA
321918,"20430 RUSTON RD","WOODLAND HILLS","CA",91364,34.1530820420001,-118.578341549,418,"20430 RUSTON RD, WOODLAND HILLS, CA, 91364","Match","Exact","20430 RUSTON RD, WOODLAND HILLS, CA, 91364",141553964,"L"
321919,"20430 SCHAEFER","DETROIT","MI",48235,42.443616542,-83.18094529,419,"20430 SCHAEFER, DETROIT, MI, 48235","Match","Non_Exact","20430 SCHAEFER HWY, DETROIT, MI, 48235",95741776,"R"
321920,"20430 ST HWY O","ADVANCE","MO",63730,NA,NA,420,"20430 ST HWY O, ADVANCE, MO, 63730","No_Match",NA,NA,NA,NA
321921,"20430 WESTLAND DRIVE","SOUTHFIELD","MI",48075,42.447558262,-83.2433833759999,421,"20430 WESTLAND DRIVE, SOUTHFIELD, MI, 48075","Match","Exact","20430 WESTLAND DR, SOUTHFIELD, MI, 48075",69739473,"R"
321922,"20432 GREENFIELD ROAD","GERMANTOWN","MD",20876,39.191595035,-77.2529948389999,422,"20432 GREENFIELD ROAD, GERMANTOWN, MD, 20876","Match","Exact","20432 GREENFIELD RD, GERMANTOWN, MD, 20876",62046456,"R"
321923,"20432 SILVERADO AVE SUITE 212","CUPERTINO","CA",95014,37.315221679,-122.031110288,423,"20432 SILVERADO AVE SUITE 212, CUPERTINO, CA, 95014","Match","Exact","20432 SILVERADO AVE, CUPERTINO, CA, 95014",122940350,"L"
321924,"20432 SILVERADO SUITE 5","CUPERTINO","CA",95014,37.315221679,-122.031110288,424,"20432 SILVERADO SUITE 5, CUPERTINO, CA, 95014","Match","Non_Exact","20432 SILVERADO AVE, CUPERTINO, CA, 95014",122940350,"L"
321925,"20433 CHERRY GROVE","PEYTON","CO",80831,NA,NA,425,"20433 CHERRY GROVE, PEYTON, CO, 80831","No_Match",NA,NA,NA,NA
321926,"20433 E 49TH ST S","BROKEN ARROW","OK",74014,NA,NA,426,"20433 E 49TH ST S, BROKEN ARROW, OK, 74014","No_Match",NA,NA,NA,NA
321927,"20433 GARDENDALE","DETROIT","MI",48221,42.4441556780001,-83.138819214,427,"20433 GARDENDALE, DETROIT, MI, 48221","Match","Non_Exact","20433 GARDENDALE ST, DETROIT, MI, 48221",642902587,"L"
321928,"20433 NW 8TH AVE","MIAMI","FL",33169,25.9622718750001,-80.215598175,428,"20433 NW 8TH AVE, MIAMI, FL, 33169","Match","Non_Exact","20433 NW 8TH AVE, MIAMI, FL, 33169",116313796,"R"
321929,"20434 60TH AVE","MARION","MI",49665,44.1087158660001,-85.2061543309999,429,"20434 60TH AVE, MARION, MI, 49665","Match","Exact","20434 60TH AVE, MARION, MI, 49665",635519542,"R"
321930,"20434 BLOOMINGVILLE COURT","GERMANTOWN","MD",20876,39.190732091,-77.232442576,430,"20434 BLOOMINGVILLE COURT, GERMANTOWN, MD, 20876","Match","Exact","20434 BLOOMINGVILLE CT, GERMANTOWN, MD, 20876",62090335,"L"
321931,"20434 DRAKEWOOD DR","KATY","TX",77449,29.8264293140001,-95.7263359409999,431,"20434 DRAKEWOOD DR, KATY, TX, 77449","Match","Exact","20434 DRAKEWOOD DR, KATY, TX, 77449",96293269,"L"
321932,"20434 DRAKEWOOD DRIVE","KATY","TX",77449,29.8264293140001,-95.7263359409999,432,"20434 DRAKEWOOD DRIVE, KATY, TX, 77449","Match","Exact","20434 DRAKEWOOD DR, KATY, TX, 77449",96293269,"L"
321933,"20434 FOXDEN RD","WILDOMAR","CA",92595,33.6071108620001,-117.301733741,433,"20434 FOXDEN RD, WILDOMAR, CA, 92595","Match","Non_Exact","20434 FOX DEN RD, WILDOMAR, CA, 92595",627716520,"L"
321934,"20434 KESWICK STREET","WINNETKA","CA",91306,34.2096802680001,-118.577522359,434,"20434 KESWICK STREET, WINNETKA, CA, 91306","Match","Exact","20434 KESWICK ST, WINNETKA, CA, 91306",141540430,"L"
321935,"20434 NE 87TH AVE","BATTLE GROUND","WA",98604,45.7697407570001,-122.584158104,435,"20434 NE 87TH AVE, BATTLE GROUND, WA, 98604","Match","Exact","20434 NE 87TH AVE, BATTLE GROUND, WA, 98604",639699995,"L"
321936,"20435 OSAGE AVE","TORRANCE","CA",90503,33.8460054980001,-118.346597086,436,"20435 OSAGE AVE, TORRANCE, CA, 90503","Match","Exact","20435 OSAGE AVE, TORRANCE, CA, 90503",141664426,"R"
321937,"20435 ROCA CHICA DRIVE","MALIBU","CA",90265,34.0392200200001,-118.615535827,437,"20435 ROCA CHICA DRIVE, MALIBU, CA, 90265","Match","Exact","20435 ROCA CHICA DR, MALIBU, CA, 90265",142710909,"L"
321938,"20435 SCOTCH PINE WAY","STRONGSVILLE","OH",44149,41.3335034240001,-81.8505388999999,438,"20435 SCOTCH PINE WAY, STRONGSVILLE, OH, 44149","Match","Exact","20435 SCOTCH PINE WAY, STRONGSVILLE, OH, 44149",629251812,"R"
321939,"20435 SORRENTO LANE APT 312","PORTER RANCH","CA",91326,34.2804706490001,-118.587221395,439,"20435 SORRENTO LANE APT 312, PORTER RANCH, CA, 91326","Match","Exact","20435 SORRENTO LN, PORTER RANCH, CA, 91326",638619900,"L"
321940,"20435 SW 20TH ST","PRATT","KS",67124,37.615885443,-98.784288487,440,"20435 SW 20TH ST, PRATT, KS, 67124","Match","Exact","20435 SW 20TH ST, PRATT, KS, 67124",161044384,"R"
321941,"20436 297TH ST","ELBOW LAKE","MN",56531,46.046760819,-95.993340938,441,"20436 297TH ST, ELBOW LAKE, MN, 56531","Match","Exact","20436 297TH ST, ELBOW LAKE, MN, 56531",605853647,"R"
321942,"20436 E 48TH STREET S","BROKEN ARROW","OK",74014,36.0962127270001,-95.749606107,442,"20436 E 48TH STREET S, BROKEN ARROW, OK, 74014","Match","Exact","20436 E 48TH ST S, BROKEN ARROW, OK, 74014",617313652,"R"
321943,"20436 TOBIRA LN","RIVERSDIE","CA",92508,33.8925129740001,-117.30525664,443,"20436 TOBIRA LN, RIVERSDIE, CA, 92508","Match","Non_Exact","20436 TOBIRA LN, RIVERSIDE, CA, 92508",194837469,"L"
321944,"20437 CHEYENNE ST","DETROIT","MI",48235,42.4439270340001,-83.176791645,444,"20437 CHEYENNE ST, DETROIT, MI, 48235","Match","Exact","20437 CHEYENNE ST, DETROIT, MI, 48235",642902686,"L"
321945,"20437 OATLANDS CHASE PL","LEESBURG","VA",20175,39.051328848,-77.592279698,445,"20437 OATLANDS CHASE PL, LEESBURG, VA, 20175","Match","Exact","20437 OATLANDS CHASE PL, LEESBURG, VA, 20175",62339425,"L"
321946,"20438 POWERLINE RD","DADE CITY","FL",33526,28.452370074,-82.2036793199999,446,"20438 POWERLINE RD, DADE CITY, FL, 33526","Match","Non_Exact","20438 POWERLINE RD, DADE CITY, FL, 33523",649963048,"R"
321947,"20438 SETON HILL DR","WALNUT","CA",91789,34.0528700670001,-117.856786809,447,"20438 SETON HILL DR, WALNUT, CA, 91789","Match","Exact","20438 SETON HILL DR, WALNUT, CA, 91789",141727833,"R"
321948,"20438 WHITE POPLAR DR","KATY","TX",77449,29.802959495,-95.737646975,448,"20438 WHITE POPLAR DR, KATY, TX, 77449","Match","Exact","20438 WHITE POPLAR DR, KATY, TX, 77449",96292677,"L"
321949,"20439 ANITA AVE","CASTRO VALLEY","CA",94546,37.696561687,-122.083175091,449,"20439 ANITA AVE, CASTRO VALLEY, CA, 94546","Match","Exact","20439 ANITA AVE, CASTRO VALLEY, CA, 94546",606167951,"R"
321950,"20439 N FLETCHER WAY","PEORIA","AZ",85382,33.66903633,-112.243080381,450,"20439 N FLETCHER WAY, PEORIA, AZ, 85382","Match","Exact","20439 FLETCHER WAY, PEORIA, AZ, 85382",128882598,"L"
321951,"20439 N FLETCHER WAY","PEORIS","AZ",85382,33.66903633,-112.243080381,451,"20439 N FLETCHER WAY, PEORIS, AZ, 85382","Match","Non_Exact","20439 FLETCHER WAY, PEORIA, AZ, 85382",128882598,"L"
321952,"2044  CRESCENT DRIVE","SIGNAL HILL","CA",90755,33.7949360810001,-118.158414251,452,"2044  CRESCENT DRIVE, SIGNAL HILL, CA, 90755","Match","Exact","2044 CRESCENT DR, SIGNAL HILL, CA, 90755",142651248,"R"
321953,"2044 1/2 ARGYLE AVE","LOS ANGELES","CA",90068,34.106952924,-118.32521389,453,"2044 1/2 ARGYLE AVE, LOS ANGELES, CA, 90068","Match","Exact","2044 ARGYLE AVE, LOS ANGELES, CA, 90068",142665304,"R"
321954,"2044 10TH STREET PLACE NW","HICKORY","NC",28601,35.7646541760001,-81.366065756,454,"2044 10TH STREET PLACE NW, HICKORY, NC, 28601","Match","Exact","2044 10TH STREET PL NW, HICKORY, NC, 28601",642238381,"R"
321955,"2044 AMOORA DR","FAYETTVILEE","NC",28034,35.02045952,-78.966358264,455,"2044 AMOORA DR, FAYETTVILEE, NC, 28034","Match","Non_Exact","2044 AMOORA DR, FAYETTEVILLE, NC, 28304",64203203,"R"
321956,"2044 AUTUMN VIEW DR","ORLANDO","FL",32825,28.5136351620001,-81.221983553,456,"2044 AUTUMN VIEW DR, ORLANDO, FL, 32825","Match","Exact","2044 AUTUMN VIEW DR, ORLANDO, FL, 32825",94407865,"R"
321957,"2044 BAYOU RD","CHENEYVILLE","LA",71325,31.0026356560001,-92.2238941159999,457,"2044 BAYOU RD, CHENEYVILLE, LA, 71325","Match","Exact","2044 BAYOU RD, CHENEYVILLE, LA, 71325",624475805,"L"
321958,"2044 BAYOU ROAD","CHENEYVILLE","LA",71325,31.0026356560001,-92.2238941159999,458,"2044 BAYOU ROAD, CHENEYVILLE, LA, 71325","Match","Exact","2044 BAYOU RD, CHENEYVILLE, LA, 71325",624475805,"L"
321959,"2044 BENITA DRIVE UNIT 2","RANCHO CORDOVA","CA",95670,38.615799833,-121.286362915,459,"2044 BENITA DRIVE UNIT 2, RANCHO CORDOVA, CA, 95670","Match","Exact","2044 BENITA DR, RANCHO CORDOVA, CA, 95670",133346303,"R"
321960,"2044 BOYER AVE EAST","SEATTLE","WA",98112,47.63772534,-122.30685183,460,"2044 BOYER AVE EAST, SEATTLE, WA, 98112","Match","Exact","2044 BOYER AVE E, SEATTLE, WA, 98112",186587415,"R"
321961,"2044 BROOKWOOD VALLEY CIRCLE NE","ATLANTA","GA",30309,33.810922465,-84.388771472,461,"2044 BROOKWOOD VALLEY CIRCLE NE, ATLANTA, GA, 30309","Match","Exact","2044 BROOKWOOD VALLEY CIR NE, ATLANTA, GA, 30309",651712732,"L"
321962,"2044 CEDAR GROVE COVE","ROUND ROCK","TX",78681,30.5309764030001,-97.7134542219999,462,"2044 CEDAR GROVE COVE, ROUND ROCK, TX, 78681","Match","Exact","2044 CEDAR GROVE COVE, ROUND ROCK, TX, 78681",126453808,"R"
321963,"2044 CHANTICLEER AVE","SANTA CRUZ","CA",95062,36.9798146960001,-121.979539681,463,"2044 CHANTICLEER AVE, SANTA CRUZ, CA, 95062","Match","Exact","2044 CHANTICLEER AVE, SANTA CRUZ, CA, 95062",605971776,"R"
321964,"2044 COAL CITY ROAD","COAL CITY","WA",25823,NA,NA,464,"2044 COAL CITY ROAD, COAL CITY, WA, 25823","No_Match",NA,NA,NA,NA
321965,"2044 COLEMAN CRIDER ROAD","PRINCETON","KY",42445,37.1796416330001,-87.941778654,465,"2044 COLEMAN CRIDER ROAD, PRINCETON, KY, 42445","Match","Exact","2044 COLEMAN CRIDER RD, PRINCETON, KY, 42445",10645406,"R"
321966,"2044 COLUMBUS WAY","VISTA","CA",92081,33.1641891960001,-117.2354963,466,"2044 COLUMBUS WAY, VISTA, CA, 92081","Match","Exact","2044 COLUMBUS WAY, VISTA, CA, 92081",195294587,"L"
321967,"2044 COMAL SPRINGS","CANYON LAKE","TX",78133,29.831380779,-98.337351478,467,"2044 COMAL SPRINGS, CANYON LAKE, TX, 78133","Match","Exact","2044 COMAL SPRINGS, CANYON LAKE, TX, 78133",72278463,"R"
321968,"2044 COUNTRY LAKE COURT","CHARLESTON","SC",29466,32.830304015,-80.060761562,468,"2044 COUNTRY LAKE COURT, CHARLESTON, SC, 29466","Match","Non_Exact","2044 COUNTRY LAKE CT, CHARLESTON, SC, 29414",108852387,"R"
321969,"2044 COUNTY RD 22","ANDOVER","NY",14806,42.088028056,-77.781482302,469,"2044 COUNTY RD 22, ANDOVER, NY, 14806","Match","Exact","2044 CO RD 22, ANDOVER, NY, 14806",82607738,"R"
321970,"2044 CROPSEY AVENUE SUITE 4B","BROOKLYN","NY",11214,40.599466508,-74.001768426,470,"2044 CROPSEY AVENUE SUITE 4B, BROOKLYN, NY, 11214","Match","Exact","2044 CROPSEY AVE, BROOKLYN, NY, 11214",59088673,"R"
321971,"2044 DELLA LANE","GREENVILLE","NC",27858,35.5622485100001,-77.314522024,471,"2044 DELLA LANE, GREENVILLE, NC, 27858","Match","Exact","2044 DELLA LN, GREENVILLE, NC, 27858",650311931,"R"
321972,"2044 E HEDGEWOOD COURT","HOLLADAY","UT",84121,40.6463003530001,-111.832967498,472,"2044 E HEDGEWOOD COURT, HOLLADAY, UT, 84121","Match","Exact","2044 HEDGEWOOD CT, HOLLADAY, UT, 84121",624156113,"L"
321973,"2044 E YOUNG ST","TULSA","OK",74110,36.1885274970001,-95.962295344,473,"2044 E YOUNG ST, TULSA, OK, 74110","Match","Exact","2044 E YOUNG ST, TULSA, OK, 74110",166438685,"R"
321974,"2044 EWING ESTATES DRIVE","DACULA","GA",30019,33.9533618020001,-83.888966553,474,"2044 EWING ESTATES DRIVE, DACULA, GA, 30019","Match","Exact","2044 EWING ESTATES DR, DACULA, GA, 30019",636103395,"L"
321975,"2044 FM 1125","BOWIE","TX",76230,33.523030417,-97.845109803,475,"2044 FM 1125, BOWIE, TX, 76230","Match","Exact","2044 FM 1125, BOWIE, TX, 76230",152115698,"L"
321976,"2044 HAWKS LANDING DRIVE","LAKE ST LOUIS","MO",63367,38.7756055300001,-90.8044093079999,476,"2044 HAWKS LANDING DRIVE, LAKE ST LOUIS, MO, 63367","Match","Exact","2044 HAWKS LANDING DR, LAKE SAINT LOUIS, MO, 63367",605572402,"R"
321977,"2044 HIBISCUS CT","SANFORD","FL",32771,28.7929307740001,-81.263521224,477,"2044 HIBISCUS CT, SANFORD, FL, 32771","Match","Exact","2044 HIBISCUS CT, SANFORD, FL, 32771",93750610,"R"
321978,"2044 HURRICANE CREEK RD","WOODBURY","TN",37190,35.899129643,-86.060468952,478,"2044 HURRICANE CREEK RD, WOODBURY, TN, 37190","Match","Exact","2044 HURRICANE CREEK RD, WOODBURY, TN, 37190",644714235,"R"
321979,"2044 HWY 299 LOT 25","WILDWOOD","GA",30757,34.97772945,-85.439170577,479,"2044 HWY 299 LOT 25, WILDWOOD, GA, 30757","Match","Non_Exact","2044 STATE RTE 299, WILDWOOD, GA, 30757",79400427,"L"
321980,"2044 KILDARE AVENUE","INDIANAPOLIS","IN",46218,39.795215424,-86.086897936,480,"2044 KILDARE AVENUE, INDIANAPOLIS, IN, 46218","Match","Exact","2044 KILDARE AVE, INDIANAPOLIS, IN, 46218",107999763,"L"
321981,"2044 KINGS FOREST DR","HEARTLAND","TX",75126,32.689114015,-96.453275075,481,"2044 KINGS FOREST DR, HEARTLAND, TX, 75126","Match","Exact","2044 KINGS FOREST DR, HEARTLAND, TX, 75126",627562454,"R"
321982,"2044 KINGSFORD DRIVE","ST LOUIS","MO",63031,38.825967701,-90.343455711,482,"2044 KINGSFORD DRIVE, ST LOUIS, MO, 63031","Match","Non_Exact","2044 KINGSFORD DR, FLORISSANT, MO, 63031",100115926,"L"
321983,"2044 KUMAR LANE","SPRINGFIELD","TN",37172,NA,NA,483,"2044 KUMAR LANE, SPRINGFIELD, TN, 37172","No_Match",NA,NA,NA,NA
321984,"2044 LARCHMONT RD","AKRON","OH",44313,41.122965375,-81.583579045,484,"2044 LARCHMONT RD, AKRON, OH, 44313","Match","Exact","2044 LARCHMONT RD, AKRON, OH, 44313",61337446,"L"
321985,"2044 LAUREL CANYON BLVD","LOSA ANGELES","CA",90046,34.108673138,-118.368694553,485,"2044 LAUREL CANYON BLVD, LOSA ANGELES, CA, 90046","Match","Non_Exact","2044 LAUREL CANYON BLVD, LOS ANGELES, CA, 90046",141593730,"R"
321986,"2044 MANCHESTER DRIVE","MEDFORD","OR",97501,42.341516912,-122.906520679,486,"2044 MANCHESTER DRIVE, MEDFORD, OR, 97501","Match","Exact","2044 MANCHESTER DR, MEDFORD, OR, 97501",155594042,"R"
321987,"2044 MARTIN AVE APT A","CHESAPEAKE","VA",23324,36.806048316,-76.262703745,487,"2044 MARTIN AVE APT A, CHESAPEAKE, VA, 23324","Match","Exact","2044 MARTIN AVE, CHESAPEAKE, VA, 23324",121799423,"L"
321988,"2044 MISTY SUNRISE TRAIL","SARASOTA","FL",34240,NA,NA,488,"2044 MISTY SUNRISE TRAIL, SARASOTA, FL, 34240","Tie",NA,NA,NA,NA
321989,"2044 N FORT AVE","SPRINGFIELD","MO",65803,37.234713598,-93.306806624,489,"2044 N FORT AVE, SPRINGFIELD, MO, 65803","Match","Exact","2044 N FORT AVE, SPRINGFIELD, MO, 65803",76673309,"R"
321990,"2044 N RYKERS RIDGE RD","MADISON","IN",47250,38.7682269330001,-85.3397648119999,490,"2044 N RYKERS RIDGE RD, MADISON, IN, 47250","Match","Exact","2044 N RYKERS RIDGE RD, MADISON, IN, 47250",31392613,"R"
321991,"2044 NE 16TH AVE","PAYETTE","ID",83661,44.0857083430001,-116.909116565,491,"2044 NE 16TH AVE, PAYETTE, ID, 83661","Match","Exact","2044 NE 16TH AVE, PAYETTE, ID, 83661",635872918,"L"
321992,"2044 NE CONCORD ST","LEES SUMMIT","MO",64086,38.9230818570001,-94.332649313,492,"2044 NE CONCORD ST, LEES SUMMIT, MO, 64086","Match","Exact","2044 NE CONCORD ST, LEES SUMMIT, MO, 64086",91509167,"L"
321993,"2044 NEW STONE RIDGE ROAD","RIPLEY","WV",25271,38.799927918,-81.739806916,493,"2044 NEW STONE RIDGE ROAD, RIPLEY, WV, 25271","Match","Exact","2044 NEW STONE RIDGE RD, RIPLEY, WV, 25271",627648441,"L"
321994,"2044 NEWPORT WAY","ISSAQUAH","WA",98027,47.5471902680001,-122.07061777,494,"2044 NEWPORT WAY, ISSAQUAH, WA, 98027","Match","Non_Exact","2044 NEWPORT WAY NW, ISSAQUAH, WA, 98027",186927075,"L"
321995,"2044 NEWTON AVE","CODY","WY",82414,44.5229378020001,-109.049499754,495,"2044 NEWTON AVE, CODY, WY, 82414","Match","Exact","2044 NEWTON AVE, CODY, WY, 82414",612519287,"R"
321996,"2044 NORTH BRIDGE ST","ELKIN","NC",28621,36.2853611950001,-80.852611194,496,"2044 NORTH BRIDGE ST, ELKIN, NC, 28621","Match","Exact","2044 N BRIDGE ST, ELKIN, NC, 28621",154191691,"R"
321997,"2044 NORTHEAST CONCORD","LEES SUMMIT","MO",64086,38.9230818570001,-94.332649313,497,"2044 NORTHEAST CONCORD, LEES SUMMIT, MO, 64086","Match","Non_Exact","2044 NE CONCORD ST, LEES SUMMIT, MO, 64086",91509167,"L"
321998,"2044 NW TALUS DR","ISSAQUAH","WA",98027,47.533039692,-122.069089046,498,"2044 NW TALUS DR, ISSAQUAH, WA, 98027","Match","Exact","2044 NW TALUS DR, ISSAQUAH, WA, 98027",187033402,"R"
321999,"2044 OAKDALE AVE N STE 312","WEST SAINT PAUL","MN",55118,44.884981241,-93.0703983449999,499,"2044 OAKDALE AVE N STE 312, WEST SAINT PAUL, MN, 55118","Match","Non_Exact","2044 OAKDALE AVE, W SAINT PAUL, MN, 55118",611641433,"L"
322000,"2044 PINE HURST LANE","COMPTON","CA",90250,33.917595432,-118.315265698,500,"2044 PINE HURST LANE, COMPTON, CA, 90250","Match","Non_Exact","2044 PINE HURST LN, HOLLY PARK, CA, 90250",142452304,"R"
