"ID","Address","City","State","Zip","lat","long","id","input_address","match_indicator","match_type","matched_address","tiger_line_id","tiger_side"
975001,"PO BOX 167","TRABUCO CANYON","CA",92678,NA,NA,1,"PO BOX 167, TRABUCO CANYON, CA, 92678","No_Match",NA,NA,NA,NA
975002,"PO BOX 1670","BEAVER","UT",84713,NA,NA,2,"PO BOX 1670, BEAVER, UT, 84713","No_Match",NA,NA,NA,NA
975003,"PO BOX 1671","BARCELONETA","PR",617,NA,NA,3,"PO BOX 1671, BARCELONETA, PR, 617","No_Match",NA,NA,NA,NA
975004,"PO BOX 1671","BELMONT","NC",28012,NA,NA,4,"PO BOX 1671, BELMONT, NC, 28012","No_Match",NA,NA,NA,NA
975005,"PO BOX 1671","CAMP VERDE","AZ",86322,NA,NA,5,"PO BOX 1671, CAMP VERDE, AZ, 86322","No_Match",NA,NA,NA,NA
975006,"PO BOX 1671","EVERGREEN","CO",80437,NA,NA,6,"PO BOX 1671, EVERGREEN, CO, 80437","No_Match",NA,NA,NA,NA
975007,"PO BOX 1671","HONOLULU","HI",96806,NA,NA,7,"PO BOX 1671, HONOLULU, HI, 96806","No_Match",NA,NA,NA,NA
975008,"PO BOX 1671","KEALAKEKUA","HI",96750,NA,NA,8,"PO BOX 1671, KEALAKEKUA, HI, 96750","No_Match",NA,NA,NA,NA
975009,"PO BOX 1671","SIOUX FALLS","SD",57101,NA,NA,9,"PO BOX 1671, SIOUX FALLS, SD, 57101","No_Match",NA,NA,NA,NA
975010,"PO BOX 16711","JONESBORO","AR",72403,NA,NA,10,"PO BOX 16711, JONESBORO, AR, 72403","No_Match",NA,NA,NA,NA
975011,"PO BOX 16714","SAN JUAN","PR",908,NA,NA,11,"PO BOX 16714, SAN JUAN, PR, 908","No_Match",NA,NA,NA,NA
975012,"PO BOX 1672","HOO","OR",97031,NA,NA,12,"PO BOX 1672, HOO, OR, 97031","No_Match",NA,NA,NA,NA
975013,"PO BOX 1672","KILDARE","TX",75562,NA,NA,13,"PO BOX 1672, KILDARE, TX, 75562","No_Match",NA,NA,NA,NA
975014,"PO BOX 1672","MONROEVILLE","AL",36461,NA,NA,14,"PO BOX 1672, MONROEVILLE, AL, 36461","No_Match",NA,NA,NA,NA
975015,"PO BOX 1672","OZARK","MO",65721,NA,NA,15,"PO BOX 1672, OZARK, MO, 65721","No_Match",NA,NA,NA,NA
975016,"PO BOX 1672","SKOKIE","IL",60076,NA,NA,16,"PO BOX 1672, SKOKIE, IL, 60076","No_Match",NA,NA,NA,NA
975017,"PO BOX 16722","MINNEAPOLIS","MN",55416,NA,NA,17,"PO BOX 16722, MINNEAPOLIS, MN, 55416","No_Match",NA,NA,NA,NA
975018,"PO BOX 1673","DRIPPING SPRINGS","TX",78620,NA,NA,18,"PO BOX 1673, DRIPPING SPRINGS, TX, 78620","No_Match",NA,NA,NA,NA
975019,"PO BOX 1673","HOBOKEN","NJ",7030,NA,NA,19,"PO BOX 1673, HOBOKEN, NJ, 7030","No_Match",NA,NA,NA,NA
975020,"PO BOX 1673","LIBERAL","KS",67901,NA,NA,20,"PO BOX 1673, LIBERAL, KS, 67901","No_Match",NA,NA,NA,NA
975021,"PO BOX 1673","TALLULAH","LA",71284,NA,NA,21,"PO BOX 1673, TALLULAH, LA, 71284","No_Match",NA,NA,NA,NA
975022,"PO BOX 16732","MINNEAPOLIS","MN",55416,NA,NA,22,"PO BOX 16732, MINNEAPOLIS, MN, 55416","No_Match",NA,NA,NA,NA
975023,"PO BOX 1674","GAINESVILLE","GA",30501,NA,NA,23,"PO BOX 1674, GAINESVILLE, GA, 30501","No_Match",NA,NA,NA,NA
975024,"PO BOX 1674","RIVERSIDE","CA",92502,NA,NA,24,"PO BOX 1674, RIVERSIDE, CA, 92502","No_Match",NA,NA,NA,NA
975025,"PO BOX 1674","STOCKBRIDGE","GA",30281,NA,NA,25,"PO BOX 1674, STOCKBRIDGE, GA, 30281","No_Match",NA,NA,NA,NA
975026,"PO BOX 1674","WAUCHULA","FL",33873,NA,NA,26,"PO BOX 1674, WAUCHULA, FL, 33873","No_Match",NA,NA,NA,NA
975027,"PO BOX 16741","ST LOUIS","MO",63105,NA,NA,27,"PO BOX 16741, ST LOUIS, MO, 63105","No_Match",NA,NA,NA,NA
975028,"PO BOX 16746","SAINT LOUIS","MO",63105,NA,NA,28,"PO BOX 16746, SAINT LOUIS, MO, 63105","No_Match",NA,NA,NA,NA
975029,"PO BOX 1675","BRUSH PRAIRIE","WA",98606,NA,NA,29,"PO BOX 1675, BRUSH PRAIRIE, WA, 98606","No_Match",NA,NA,NA,NA
975030,"PO BOX 1675","CORDOVA","AK",99574,NA,NA,30,"PO BOX 1675, CORDOVA, AK, 99574","No_Match",NA,NA,NA,NA
975031,"PO BOX 1675","CRESCENT CITY","CA",95531,NA,NA,31,"PO BOX 1675, CRESCENT CITY, CA, 95531","No_Match",NA,NA,NA,NA
975032,"PO BOX 1675","TEMPLE CITY","CA",91780,NA,NA,32,"PO BOX 1675, TEMPLE CITY, CA, 91780","No_Match",NA,NA,NA,NA
975033,"PO BOX 16756","PORTLAND","OR",97126,NA,NA,33,"PO BOX 16756, PORTLAND, OR, 97126","No_Match",NA,NA,NA,NA
975034,"PO BOX 1677","BELTON","TX",76513,NA,NA,34,"PO BOX 1677, BELTON, TX, 76513","No_Match",NA,NA,NA,NA
975035,"PO BOX 1677","FREEDOM","CA",95019,NA,NA,35,"PO BOX 1677, FREEDOM, CA, 95019","No_Match",NA,NA,NA,NA
975036,"PO BOX 16771","FORT WORTH","TX",76162,NA,NA,36,"PO BOX 16771, FORT WORTH, TX, 76162","No_Match",NA,NA,NA,NA
975037,"PO BOX 1678","PEMBROKE","NC",28372,NA,NA,37,"PO BOX 1678, PEMBROKE, NC, 28372","No_Match",NA,NA,NA,NA
975038,"PO BOX 16781","PORTLAND","OR",NA,NA,NA,38,"PO BOX 16781, PORTLAND, OR, ","No_Match",NA,NA,NA,NA
975039,"PO BOX 167853","OREGON","OH",43616,NA,NA,39,"PO BOX 167853, OREGON, OH, 43616","No_Match",NA,NA,NA,NA
975040,"PO BOX 1679","GROVES","TX",77619,NA,NA,40,"PO BOX 1679, GROVES, TX, 77619","No_Match",NA,NA,NA,NA
975041,"PO BOX 1679","SACRAMENTO","CA",95812,NA,NA,41,"PO BOX 1679, SACRAMENTO, CA, 95812","No_Match",NA,NA,NA,NA
975042,"PO BOX 168 257 LAWRENCE ST NE","MARIETTA","GA",30060,33.9531862920001,-84.545150297,42,"PO BOX 168 257 LAWRENCE ST NE, MARIETTA, GA, 30060","Match","Exact","257 LAWRENCE ST NE, MARIETTA, GA, 30060",17176032,"L"
975043,"PO BOX 168","ARIVACA","AZ",85601,NA,NA,43,"PO BOX 168, ARIVACA, AZ, 85601","No_Match",NA,NA,NA,NA
975044,"PO BOX 168","BUCKLIN","MO",64631,NA,NA,44,"PO BOX 168, BUCKLIN, MO, 64631","No_Match",NA,NA,NA,NA
975045,"PO BOX 168","BUHL","ID",83316,NA,NA,45,"PO BOX 168, BUHL, ID, 83316","No_Match",NA,NA,NA,NA
975046,"PO BOX 168","CHEWELAH","WA",99109,NA,NA,46,"PO BOX 168, CHEWELAH, WA, 99109","No_Match",NA,NA,NA,NA
975047,"PO BOX 168","CONCAN","TX",78838,NA,NA,47,"PO BOX 168, CONCAN, TX, 78838","No_Match",NA,NA,NA,NA
975048,"PO BOX 168","COOKSBURG","PA",16217,NA,NA,48,"PO BOX 168, COOKSBURG, PA, 16217","No_Match",NA,NA,NA,NA
975049,"PO BOX 168","DEER PARK","WA",99006,NA,NA,49,"PO BOX 168, DEER PARK, WA, 99006","No_Match",NA,NA,NA,NA
975050,"PO BOX 168","ELTON","PA",15934,NA,NA,50,"PO BOX 168, ELTON, PA, 15934","No_Match",NA,NA,NA,NA
975051,"PO BOX 168","LOVETTSVILLE","VA",20180,NA,NA,51,"PO BOX 168, LOVETTSVILLE, VA, 20180","No_Match",NA,NA,NA,NA
975052,"PO BOX 168","MOUNT VERNON","SD",57363,NA,NA,52,"PO BOX 168, MOUNT VERNON, SD, 57363","No_Match",NA,NA,NA,NA
975053,"PO BOX 168","NORTH STREET","MI",48049,NA,NA,53,"PO BOX 168, NORTH STREET, MI, 48049","No_Match",NA,NA,NA,NA
975054,"PO BOX 168","NORTHWOOD","ND",58267,NA,NA,54,"PO BOX 168, NORTHWOOD, ND, 58267","No_Match",NA,NA,NA,NA
975055,"PO BOX 168","POTLATCH","ID",83843,NA,NA,55,"PO BOX 168, POTLATCH, ID, 83843","No_Match",NA,NA,NA,NA
975056,"PO BOX 168","PROCTOR","AR",72376,NA,NA,56,"PO BOX 168, PROCTOR, AR, 72376","No_Match",NA,NA,NA,NA
975057,"PO BOX 168","PUNGOTEAGUE","VA",23422,NA,NA,57,"PO BOX 168, PUNGOTEAGUE, VA, 23422","No_Match",NA,NA,NA,NA
975058,"PO BOX 168","SUNSET BEACH","CA",90742,NA,NA,58,"PO BOX 168, SUNSET BEACH, CA, 90742","No_Match",NA,NA,NA,NA
975059,"PO BOX 1680","FAIRACRES","NM",88033,NA,NA,59,"PO BOX 1680, FAIRACRES, NM, 88033","No_Match",NA,NA,NA,NA
975060,"PO BOX 16804","CHARLOTTE","NC",28297,NA,NA,60,"PO BOX 16804, CHARLOTTE, NC, 28297","No_Match",NA,NA,NA,NA
975061,"PO BOX 16807","JACKSONVILLE","FL",32245,NA,NA,61,"PO BOX 16807, JACKSONVILLE, FL, 32245","No_Match",NA,NA,NA,NA
975062,"PO BOX 1681","EL MIRAGE","AZ",85335,NA,NA,62,"PO BOX 1681, EL MIRAGE, AZ, 85335","No_Match",NA,NA,NA,NA
975063,"PO BOX 1681","WILSON","WY",83014,NA,NA,63,"PO BOX 1681, WILSON, WY, 83014","No_Match",NA,NA,NA,NA
975064,"PO BOX 16815","SAVANNAH","GA",31416,NA,NA,64,"PO BOX 16815, SAVANNAH, GA, 31416","No_Match",NA,NA,NA,NA
975065,"PO BOX 1682","FREER","TX",78357,NA,NA,65,"PO BOX 1682, FREER, TX, 78357","No_Match",NA,NA,NA,NA
975066,"PO BOX 1682","GARDEN GROVE","CA",92842,NA,NA,66,"PO BOX 1682, GARDEN GROVE, CA, 92842","No_Match",NA,NA,NA,NA
975067,"PO BOX 1682","KAPAA","HI",96746,NA,NA,67,"PO BOX 1682, KAPAA, HI, 96746","No_Match",NA,NA,NA,NA
975068,"PO BOX 1682","NORCROSS","GA",30091,NA,NA,68,"PO BOX 1682, NORCROSS, GA, 30091","No_Match",NA,NA,NA,NA
975069,"PO BOX 1682","STONE MOUNTAIN","GA",30086,NA,NA,69,"PO BOX 1682, STONE MOUNTAIN, GA, 30086","No_Match",NA,NA,NA,NA
975070,"PO BOX 16821","JONESBORO","AR",72403,NA,NA,70,"PO BOX 16821, JONESBORO, AR, 72403","No_Match",NA,NA,NA,NA
975071,"PO BOX 16823","LUBBOCK","TX",79490,NA,NA,71,"PO BOX 16823, LUBBOCK, TX, 79490","No_Match",NA,NA,NA,NA
975072,"PO BOX 16824","MILWAUKEE","WI",53216,NA,NA,72,"PO BOX 16824, MILWAUKEE, WI, 53216","No_Match",NA,NA,NA,NA
975073,"PO BOX 1683","BENTON","AR",72018,NA,NA,73,"PO BOX 1683, BENTON, AR, 72018","No_Match",NA,NA,NA,NA
975074,"PO BOX 1683","BRENHAM","TX",77834,NA,NA,74,"PO BOX 1683, BRENHAM, TX, 77834","No_Match",NA,NA,NA,NA
975075,"PO BOX 1683","BRENHAN","TX",77834,NA,NA,75,"PO BOX 1683, BRENHAN, TX, 77834","No_Match",NA,NA,NA,NA
975076,"PO BOX 1684","BRAZORIA","TX",77422,NA,NA,76,"PO BOX 1684, BRAZORIA, TX, 77422","No_Match",NA,NA,NA,NA
975077,"PO BOX 1684","DOVER","DE",19903,NA,NA,77,"PO BOX 1684, DOVER, DE, 19903","No_Match",NA,NA,NA,NA
975078,"PO BOX 1684","LEONE","AS",96799,NA,NA,78,"PO BOX 1684, LEONE, AS, 96799","No_Match",NA,NA,NA,NA
975079,"PO BOX 1684","MARYSVILLE","WA",98270,NA,NA,79,"PO BOX 1684, MARYSVILLE, WA, 98270","No_Match",NA,NA,NA,NA
975080,"PO BOX 1684","RICHMOND","CA",94802,NA,NA,80,"PO BOX 1684, RICHMOND, CA, 94802","No_Match",NA,NA,NA,NA
975081,"PO BOX 1685","BOULDER","CO",80306,NA,NA,81,"PO BOX 1685, BOULDER, CO, 80306","No_Match",NA,NA,NA,NA
975082,"PO BOX 1685","HAYDEN","CO",81639,NA,NA,82,"PO BOX 1685, HAYDEN, CO, 81639","No_Match",NA,NA,NA,NA
975083,"PO BOX 1686","COAMO","PR",769,NA,NA,83,"PO BOX 1686, COAMO, PR, 769","No_Match",NA,NA,NA,NA
975084,"PO BOX 1686","EL GRANADA","CA",94018,NA,NA,84,"PO BOX 1686, EL GRANADA, CA, 94018","No_Match",NA,NA,NA,NA
975085,"PO BOX 1686","GYPSUM","CO",81637,NA,NA,85,"PO BOX 1686, GYPSUM, CO, 81637","No_Match",NA,NA,NA,NA
975086,"PO BOX 1686","PINEVILLE","WV",24874,NA,NA,86,"PO BOX 1686, PINEVILLE, WV, 24874","No_Match",NA,NA,NA,NA
975087,"PO BOX 1686","SOUTHAVEN","MS",38671,NA,NA,87,"PO BOX 1686, SOUTHAVEN, MS, 38671","No_Match",NA,NA,NA,NA
975088,"PO BOX 16868","MISSOULA","MT",59808,NA,NA,88,"PO BOX 16868, MISSOULA, MT, 59808","No_Match",NA,NA,NA,NA
975089,"PO BOX 1687","BOZEMAN","MT",59771,NA,NA,89,"PO BOX 1687, BOZEMAN, MT, 59771","No_Match",NA,NA,NA,NA
975090,"PO BOX 1687","FOREST PARK","GA",30298,NA,NA,90,"PO BOX 1687, FOREST PARK, GA, 30298","No_Match",NA,NA,NA,NA
975091,"PO BOX 1687","JACKSON","WY",83001,NA,NA,91,"PO BOX 1687, JACKSON, WY, 83001","No_Match",NA,NA,NA,NA
975092,"PO BOX 1687","KAUNAKAKAI","HI",96748,NA,NA,92,"PO BOX 1687, KAUNAKAKAI, HI, 96748","No_Match",NA,NA,NA,NA
975093,"PO BOX 1687","RIVERHEAD","NY",11901,NA,NA,93,"PO BOX 1687, RIVERHEAD, NY, 11901","No_Match",NA,NA,NA,NA
975094,"PO BOX 1688","CRAWFORDVILLE","FL",32326,NA,NA,94,"PO BOX 1688, CRAWFORDVILLE, FL, 32326","No_Match",NA,NA,NA,NA
975095,"PO BOX 1689","APEX","NC",27502,NA,NA,95,"PO BOX 1689, APEX, NC, 27502","No_Match",NA,NA,NA,NA
975096,"PO BOX 1689","SANTA YNEZ","CA",93460,NA,NA,96,"PO BOX 1689, SANTA YNEZ, CA, 93460","No_Match",NA,NA,NA,NA
975097,"PO BOX 1689","VIDOR","TX",77670,NA,NA,97,"PO BOX 1689, VIDOR, TX, 77670","No_Match",NA,NA,NA,NA
975098,"PO BOX 169","AGUILAR","CO",81020,NA,NA,98,"PO BOX 169, AGUILAR, CO, 81020","No_Match",NA,NA,NA,NA
975099,"PO BOX 169","DAY","FL",32013,NA,NA,99,"PO BOX 169, DAY, FL, 32013","No_Match",NA,NA,NA,NA
975100,"PO BOX 169","GLASGOW","MT",59230,NA,NA,100,"PO BOX 169, GLASGOW, MT, 59230","No_Match",NA,NA,NA,NA
975101,"PO BOX 169","MINOTOLA","NJ",8341,NA,NA,101,"PO BOX 169, MINOTOLA, NJ, 8341","No_Match",NA,NA,NA,NA
975102,"PO BOX 169","NAPLES","ID",83847,NA,NA,102,"PO BOX 169, NAPLES, ID, 83847","No_Match",NA,NA,NA,NA
975103,"PO BOX 169","NEW MILFORD","NJ",7646,NA,NA,103,"PO BOX 169, NEW MILFORD, NJ, 7646","No_Match",NA,NA,NA,NA
975104,"PO BOX 169","PORT WASHINGTON","NY",11050,NA,NA,104,"PO BOX 169, PORT WASHINGTON, NY, 11050","No_Match",NA,NA,NA,NA
975105,"PO BOX 169","SKANEATELES","NY",13152,NA,NA,105,"PO BOX 169, SKANEATELES, NY, 13152","No_Match",NA,NA,NA,NA
975106,"PO BOX 169","STOTTVILLE","NY",12172,NA,NA,106,"PO BOX 169, STOTTVILLE, NY, 12172","No_Match",NA,NA,NA,NA
975107,"PO BOX 169","WAKEFIELD","RI",2880,NA,NA,107,"PO BOX 169, WAKEFIELD, RI, 2880","No_Match",NA,NA,NA,NA
975108,"PO BOX 169","WASHOUGAL","WA",98671,NA,NA,108,"PO BOX 169, WASHOUGAL, WA, 98671","No_Match",NA,NA,NA,NA
975109,"PO BOX 1690","EVANSVILLE","WY",82636,NA,NA,109,"PO BOX 1690, EVANSVILLE, WY, 82636","No_Match",NA,NA,NA,NA
975110,"PO BOX 1690","FOLLY BEACH","SC",29439,NA,NA,110,"PO BOX 1690, FOLLY BEACH, SC, 29439","No_Match",NA,NA,NA,NA
975111,"PO BOX 1690","SMYRNA","GA",30081,NA,NA,111,"PO BOX 1690, SMYRNA, GA, 30081","No_Match",NA,NA,NA,NA
975112,"PO BOX 1691","AIEA","HI",96701,NA,NA,112,"PO BOX 1691, AIEA, HI, 96701","No_Match",NA,NA,NA,NA
975113,"PO BOX 1691","ALTO","NM",88312,NA,NA,113,"PO BOX 1691, ALTO, NM, 88312","No_Match",NA,NA,NA,NA
975114,"PO BOX 1691","BENICIA","CA",94510,NA,NA,114,"PO BOX 1691, BENICIA, CA, 94510","No_Match",NA,NA,NA,NA
975115,"PO BOX 1691","CEIBA","PR",735,NA,NA,115,"PO BOX 1691, CEIBA, PR, 735","No_Match",NA,NA,NA,NA
975116,"PO BOX 1691","LEXINGTON","KY",40588,NA,NA,116,"PO BOX 1691, LEXINGTON, KY, 40588","No_Match",NA,NA,NA,NA
975117,"PO BOX 1691","NIPOMO","CA",93444,NA,NA,117,"PO BOX 1691, NIPOMO, CA, 93444","No_Match",NA,NA,NA,NA
975118,"PO BOX 1691","SAN JACINTO","CA",92581,NA,NA,118,"PO BOX 1691, SAN JACINTO, CA, 92581","No_Match",NA,NA,NA,NA
975119,"PO BOX 1691","VALLEJO","CA",94591,NA,NA,119,"PO BOX 1691, VALLEJO, CA, 94591","No_Match",NA,NA,NA,NA
975120,"PO BOX 16915","MISSOULA","MT",59808,NA,NA,120,"PO BOX 16915, MISSOULA, MT, 59808","No_Match",NA,NA,NA,NA
975121,"PO BOX 1692","FOLLY BEACH","SC",29439,NA,NA,121,"PO BOX 1692, FOLLY BEACH, SC, 29439","No_Match",NA,NA,NA,NA
975122,"PO BOX 1692","GREENBELT","MD",20768,NA,NA,122,"PO BOX 1692, GREENBELT, MD, 20768","No_Match",NA,NA,NA,NA
975123,"PO BOX 1692","HOUSTON","TX",77251,NA,NA,123,"PO BOX 1692, HOUSTON, TX, 77251","No_Match",NA,NA,NA,NA
975124,"PO BOX 1692","IDABEL","OK",74745,NA,NA,124,"PO BOX 1692, IDABEL, OK, 74745","No_Match",NA,NA,NA,NA
975125,"PO BOX 1692","SHEPHERD","TX",77371,NA,NA,125,"PO BOX 1692, SHEPHERD, TX, 77371","No_Match",NA,NA,NA,NA
975126,"PO BOX 1693","BRIDGEPORT","CT",6601,NA,NA,126,"PO BOX 1693, BRIDGEPORT, CT, 6601","No_Match",NA,NA,NA,NA
975127,"PO BOX 1693","LEWISTON","ID",83501,NA,NA,127,"PO BOX 1693, LEWISTON, ID, 83501","No_Match",NA,NA,NA,NA
975128,"PO BOX 16937","CHICAGO","IL",60616,NA,NA,128,"PO BOX 16937, CHICAGO, IL, 60616","No_Match",NA,NA,NA,NA
975129,"PO BOX 1694","DARLINGTON","SC",29540,NA,NA,129,"PO BOX 1694, DARLINGTON, SC, 29540","No_Match",NA,NA,NA,NA
975130,"PO BOX 1694","FRIDAY HARBOR","WA",98250,NA,NA,130,"PO BOX 1694, FRIDAY HARBOR, WA, 98250","No_Match",NA,NA,NA,NA
975131,"PO BOX 1694","GALAX","VA",24333,NA,NA,131,"PO BOX 1694, GALAX, VA, 24333","No_Match",NA,NA,NA,NA
975132,"PO BOX 1694","KLAMATH FALLS","OR",97601,NA,NA,132,"PO BOX 1694, KLAMATH FALLS, OR, 97601","No_Match",NA,NA,NA,NA
975133,"PO BOX 1694","NAMPA","ID",83653,NA,NA,133,"PO BOX 1694, NAMPA, ID, 83653","No_Match",NA,NA,NA,NA
975134,"PO BOX 1694","STOCKTON","CA",95201,NA,NA,134,"PO BOX 1694, STOCKTON, CA, 95201","No_Match",NA,NA,NA,NA
975135,"PO BOX 1695","BREVARD","NC",28712,NA,NA,135,"PO BOX 1695, BREVARD, NC, 28712","No_Match",NA,NA,NA,NA
975136,"PO BOX 1695","CALHOUN","GA",30703,NA,NA,136,"PO BOX 1695, CALHOUN, GA, 30703","No_Match",NA,NA,NA,NA
975137,"PO BOX 1695","CRAIGSVILLE","WV",26205,NA,NA,137,"PO BOX 1695, CRAIGSVILLE, WV, 26205","No_Match",NA,NA,NA,NA
975138,"PO BOX 1695","FORT COLLINS","CO",80522,NA,NA,138,"PO BOX 1695, FORT COLLINS, CO, 80522","No_Match",NA,NA,NA,NA
975139,"PO BOX 1695","UVALDE","TX",78802,NA,NA,139,"PO BOX 1695, UVALDE, TX, 78802","No_Match",NA,NA,NA,NA
975140,"PO BOX 16956","FERNANDINA BEACH","FL",32035,NA,NA,140,"PO BOX 16956, FERNANDINA BEACH, FL, 32035","No_Match",NA,NA,NA,NA
975141,"PO BOX 16967","ENCINO","CA",91416,NA,NA,141,"PO BOX 16967, ENCINO, CA, 91416","No_Match",NA,NA,NA,NA
975142,"PO BOX 1697","HOUSTON","TX",77251,NA,NA,142,"PO BOX 1697, HOUSTON, TX, 77251","No_Match",NA,NA,NA,NA
975143,"PO BOX 16971","JONESBORO","AR",72403,NA,NA,143,"PO BOX 16971, JONESBORO, AR, 72403","No_Match",NA,NA,NA,NA
975144,"PO BOX 1698","BETHLEHEM","PA",18016,NA,NA,144,"PO BOX 1698, BETHLEHEM, PA, 18016","No_Match",NA,NA,NA,NA
975145,"PO BOX 1698","MT VERNON","KY",40456,NA,NA,145,"PO BOX 1698, MT VERNON, KY, 40456","No_Match",NA,NA,NA,NA
975146,"PO BOX 16985","PHILADELPHIA","PA",19142,NA,NA,146,"PO BOX 16985, PHILADELPHIA, PA, 19142","No_Match",NA,NA,NA,NA
975147,"PO BOX 1699","WINTER HAVEN","FL",33882,NA,NA,147,"PO BOX 1699, WINTER HAVEN, FL, 33882","No_Match",NA,NA,NA,NA
975148,"PO BOX 16993 / 531 LASUEN MALL","STANFORD","CA",94309,37.425875122,-122.169050975,148,"PO BOX 16993 / 531 LASUEN MALL, STANFORD, CA, 94309","Match","Non_Exact","531 LASUEN MALL, STANFORD, CA, 94305",614022294,"R"
975149,"PO BOX 16993","ATLANTA","GA",30321,NA,NA,149,"PO BOX 16993, ATLANTA, GA, 30321","No_Match",NA,NA,NA,NA
975150,"PO BOX 16994","FORT LAUDERDALE","FL",33318,NA,NA,150,"PO BOX 16994, FORT LAUDERDALE, FL, 33318","No_Match",NA,NA,NA,NA
975151,"PO BOX 17   107 BUNKIN HILL LANE","ROCKBRIDGE BATHS","VA",24483,37.894379041,-79.396483858,151,"PO BOX 17   107 BUNKIN HILL LANE, ROCKBRIDGE BATHS, VA, 24483","Match","Non_Exact","107 BUNKIN HILL LN, ROCKBRIDGE BATHS, VA, 24473",215049965,"L"
975152,"PO BOX 17","ALBERSON","NY",11507,NA,NA,152,"PO BOX 17, ALBERSON, NY, 11507","No_Match",NA,NA,NA,NA
975153,"PO BOX 17","ALBERTSON","NY",11507,NA,NA,153,"PO BOX 17, ALBERTSON, NY, 11507","No_Match",NA,NA,NA,NA
975154,"PO BOX 17","BROOKSHIRE","TX",77423,NA,NA,154,"PO BOX 17, BROOKSHIRE, TX, 77423","No_Match",NA,NA,NA,NA
975155,"PO BOX 17","CLIFTON","TX",76634,NA,NA,155,"PO BOX 17, CLIFTON, TX, 76634","No_Match",NA,NA,NA,NA
975156,"PO BOX 17","DONALDS","SC",29638,NA,NA,156,"PO BOX 17, DONALDS, SC, 29638","No_Match",NA,NA,NA,NA
975157,"PO BOX 17","EPHRAIM","WI",54211,NA,NA,157,"PO BOX 17, EPHRAIM, WI, 54211","No_Match",NA,NA,NA,NA
975158,"PO BOX 17","EUREKA","CA",95502,NA,NA,158,"PO BOX 17, EUREKA, CA, 95502","No_Match",NA,NA,NA,NA
975159,"PO BOX 17","FRESNO","CA",93717,NA,NA,159,"PO BOX 17, FRESNO, CA, 93717","No_Match",NA,NA,NA,NA
975160,"PO BOX 17","FRYEBURG","ME",4037,NA,NA,160,"PO BOX 17, FRYEBURG, ME, 4037","No_Match",NA,NA,NA,NA
975161,"PO BOX 17","GILSUM","NH",3448,NA,NA,161,"PO BOX 17, GILSUM, NH, 3448","No_Match",NA,NA,NA,NA
975162,"PO BOX 17","GRANDY","NC",27939,NA,NA,162,"PO BOX 17, GRANDY, NC, 27939","No_Match",NA,NA,NA,NA
975163,"PO BOX 17","HANSEN","ID",83334,NA,NA,163,"PO BOX 17, HANSEN, ID, 83334","No_Match",NA,NA,NA,NA
975164,"PO BOX 17","JOHNSON","VT",5656,NA,NA,164,"PO BOX 17, JOHNSON, VT, 5656","No_Match",NA,NA,NA,NA
975165,"PO BOX 17","MANCHESTER","KY",40962,NA,NA,165,"PO BOX 17, MANCHESTER, KY, 40962","No_Match",NA,NA,NA,NA
975166,"PO BOX 17","MANCHESTER","ME",4351,NA,NA,166,"PO BOX 17, MANCHESTER, ME, 4351","No_Match",NA,NA,NA,NA
975167,"PO BOX 17","MAVISDALE","VA",24627,NA,NA,167,"PO BOX 17, MAVISDALE, VA, 24627","No_Match",NA,NA,NA,NA
975168,"PO BOX 17","PENRYN","CA",95663,NA,NA,168,"PO BOX 17, PENRYN, CA, 95663","No_Match",NA,NA,NA,NA
975169,"PO BOX 17","PETOSKEY","MI",49770,NA,NA,169,"PO BOX 17, PETOSKEY, MI, 49770","No_Match",NA,NA,NA,NA
975170,"PO BOX 17","PRINCETON","WI",54968,NA,NA,170,"PO BOX 17, PRINCETON, WI, 54968","No_Match",NA,NA,NA,NA
975171,"PO BOX 17","SHEDD","OR",97377,NA,NA,171,"PO BOX 17, SHEDD, OR, 97377","No_Match",NA,NA,NA,NA
975172,"PO BOX 17","THORP","WA",98946,NA,NA,172,"PO BOX 17, THORP, WA, 98946","No_Match",NA,NA,NA,NA
975173,"PO BOX 17","WEST COLUMBIA","TX",77486,NA,NA,173,"PO BOX 17, WEST COLUMBIA, TX, 77486","No_Match",NA,NA,NA,NA
975174,"PO BOX 17","YALE","IA",50277,NA,NA,174,"PO BOX 17, YALE, IA, 50277","No_Match",NA,NA,NA,NA
975175,"PO BOX 170","BURNET","TX",78611,NA,NA,175,"PO BOX 170, BURNET, TX, 78611","No_Match",NA,NA,NA,NA
975176,"PO BOX 170","CAMP SHERMAN","OR",97730,NA,NA,176,"PO BOX 170, CAMP SHERMAN, OR, 97730","No_Match",NA,NA,NA,NA
975177,"PO BOX 170","CHECOTAH","OK",74426,NA,NA,177,"PO BOX 170, CHECOTAH, OK, 74426","No_Match",NA,NA,NA,NA
975178,"PO BOX 170","CLEVELAND","GA",30528,NA,NA,178,"PO BOX 170, CLEVELAND, GA, 30528","No_Match",NA,NA,NA,NA
975179,"PO BOX 170","DEER HARBOR","WA",98243,NA,NA,179,"PO BOX 170, DEER HARBOR, WA, 98243","No_Match",NA,NA,NA,NA
975180,"PO BOX 170","HEMPHILL","TX",75948,NA,NA,180,"PO BOX 170, HEMPHILL, TX, 75948","No_Match",NA,NA,NA,NA
975181,"PO BOX 170","NEW HOLLAND","IL",62671,NA,NA,181,"PO BOX 170, NEW HOLLAND, IL, 62671","No_Match",NA,NA,NA,NA
975182,"PO BOX 170","OMAR","WV",25638,NA,NA,182,"PO BOX 170, OMAR, WV, 25638","No_Match",NA,NA,NA,NA
975183,"PO BOX 170","PALM CITY","FL",34991,NA,NA,183,"PO BOX 170, PALM CITY, FL, 34991","No_Match",NA,NA,NA,NA
975184,"PO BOX 170","SOLANA BEACH","CA",92075,NA,NA,184,"PO BOX 170, SOLANA BEACH, CA, 92075","No_Match",NA,NA,NA,NA
975185,"PO BOX 1700","BURGAW","NC",28425,NA,NA,185,"PO BOX 1700, BURGAW, NC, 28425","No_Match",NA,NA,NA,NA
975186,"PO BOX 1700","CRESTED BUTTE","CO",81224,NA,NA,186,"PO BOX 1700, CRESTED BUTTE, CO, 81224","No_Match",NA,NA,NA,NA
975187,"PO BOX 1700","SPRINGERVILLE","AZ",85938,NA,NA,187,"PO BOX 1700, SPRINGERVILLE, AZ, 85938","No_Match",NA,NA,NA,NA
975188,"PO BOX 1700","THE DALLES","OR",97058,NA,NA,188,"PO BOX 1700, THE DALLES, OR, 97058","No_Match",NA,NA,NA,NA
975189,"PO BOX 170010","ATLANTA","GA",30317,NA,NA,189,"PO BOX 170010, ATLANTA, GA, 30317","No_Match",NA,NA,NA,NA
975190,"PO BOX 170025","DALLAS","TX",75217,NA,NA,190,"PO BOX 170025, DALLAS, TX, 75217","No_Match",NA,NA,NA,NA
975191,"PO BOX 170033","MILWAUKEE","WI",53217,NA,NA,191,"PO BOX 170033, MILWAUKEE, WI, 53217","No_Match",NA,NA,NA,NA
975192,"PO BOX 170045","BOSTON","MA",2117,NA,NA,192,"PO BOX 170045, BOSTON, MA, 2117","No_Match",NA,NA,NA,NA
975193,"PO BOX 17005","ROCKFORD","IL",61110,NA,NA,193,"PO BOX 17005, ROCKFORD, IL, 61110","No_Match",NA,NA,NA,NA
975194,"PO BOX 170055 554 CLAYTON ST","SAN FRANCISCO","CA",94117,37.7702278040001,-122.448656677,194,"PO BOX 170055 554 CLAYTON ST, SAN FRANCISCO, CA, 94117","Match","Exact","554 CLAYTON ST, SAN FRANCISCO, CA, 94117",192282354,"L"
975195,"PO BOX 170056","BROOKLYN","NY",11217,NA,NA,195,"PO BOX 170056, BROOKLYN, NY, 11217","No_Match",NA,NA,NA,NA
975196,"PO BOX 170066","CHICAGO","IL",60617,NA,NA,196,"PO BOX 170066, CHICAGO, IL, 60617","No_Match",NA,NA,NA,NA
975197,"PO BOX 170093","ARLINGTON","TX",76003,NA,NA,197,"PO BOX 170093, ARLINGTON, TX, 76003","No_Match",NA,NA,NA,NA
975198,"PO BOX 170096","BOISE","ID",83717,NA,NA,198,"PO BOX 170096, BOISE, ID, 83717","No_Match",NA,NA,NA,NA
975199,"PO BOX 1701","Bristol","TN",37620,NA,NA,199,"PO BOX 1701, Bristol, TN, 37620","No_Match",NA,NA,NA,NA
975200,"PO BOX 1701","Bristol","TN",37621,NA,NA,200,"PO BOX 1701, Bristol, TN, 37621","No_Match",NA,NA,NA,NA
975201,"PO BOX 1701","FORTSON","GA",31808,NA,NA,201,"PO BOX 1701, FORTSON, GA, 31808","No_Match",NA,NA,NA,NA
975202,"PO BOX 1701","LOCKEFORD","CA",95237,NA,NA,202,"PO BOX 1701, LOCKEFORD, CA, 95237","No_Match",NA,NA,NA,NA
975203,"PO BOX 170183","ARLINGTON","TX",76003,NA,NA,203,"PO BOX 170183, ARLINGTON, TX, 76003","No_Match",NA,NA,NA,NA
975204,"PO BOX 1702","KENNESAW","GA",30156,NA,NA,204,"PO BOX 1702, KENNESAW, GA, 30156","No_Match",NA,NA,NA,NA
975205,"PO BOX 1702","LYONS","CO",80540,NA,NA,205,"PO BOX 1702, LYONS, CO, 80540","No_Match",NA,NA,NA,NA
975206,"PO BOX 1702","PETERSBURG","AK",99833,NA,NA,206,"PO BOX 1702, PETERSBURG, AK, 99833","No_Match",NA,NA,NA,NA
975207,"PO BOX 1702","VAN","TX",75790,NA,NA,207,"PO BOX 1702, VAN, TX, 75790","No_Match",NA,NA,NA,NA
975208,"PO BOX 1702","WHITE SALMON","WA",98672,NA,NA,208,"PO BOX 1702, WHITE SALMON, WA, 98672","No_Match",NA,NA,NA,NA
975209,"PO BOX 170208","BROOKLYN","NY",11217,NA,NA,209,"PO BOX 170208, BROOKLYN, NY, 11217","No_Match",NA,NA,NA,NA
975210,"PO BOX 170285","AUSTIN","TX",78717,NA,NA,210,"PO BOX 170285, AUSTIN, TX, 78717","No_Match",NA,NA,NA,NA
975211,"PO BOX 170294","IRVING","TX",75017,NA,NA,211,"PO BOX 170294, IRVING, TX, 75017","No_Match",NA,NA,NA,NA
975212,"PO BOX 1703","ABERDEEN","SD",57402,NA,NA,212,"PO BOX 1703, ABERDEEN, SD, 57402","No_Match",NA,NA,NA,NA
975213,"PO BOX 1703","ALBUQUERQUE","NM",87103,NA,NA,213,"PO BOX 1703, ALBUQUERQUE, NM, 87103","No_Match",NA,NA,NA,NA
975214,"PO BOX 1703","CRANFORD","NJ",7016,NA,NA,214,"PO BOX 1703, CRANFORD, NJ, 7016","No_Match",NA,NA,NA,NA
975215,"PO BOX 1703","OWENSBORO","KY",42302,NA,NA,215,"PO BOX 1703, OWENSBORO, KY, 42302","No_Match",NA,NA,NA,NA
975216,"PO BOX 1703","PALO ALTO","CA",94302,NA,NA,216,"PO BOX 1703, PALO ALTO, CA, 94302","No_Match",NA,NA,NA,NA
975217,"PO BOX 1703","RIDGELAND","SC",29936,NA,NA,217,"PO BOX 1703, RIDGELAND, SC, 29936","No_Match",NA,NA,NA,NA
975218,"PO BOX 1703","SALOME","AZ",85348,NA,NA,218,"PO BOX 1703, SALOME, AZ, 85348","No_Match",NA,NA,NA,NA
975219,"PO BOX 1703","SCOTT","LA",70583,NA,NA,219,"PO BOX 1703, SCOTT, LA, 70583","No_Match",NA,NA,NA,NA
975220,"PO BOX 1703","TROY","MI",48099,NA,NA,220,"PO BOX 1703, TROY, MI, 48099","No_Match",NA,NA,NA,NA
975221,"PO BOX 1703","WALTERBORO","SC",29488,NA,NA,221,"PO BOX 1703, WALTERBORO, SC, 29488","No_Match",NA,NA,NA,NA
975222,"PO BOX 170327","BROOKLYN","NY",11217,NA,NA,222,"PO BOX 170327, BROOKLYN, NY, 11217","No_Match",NA,NA,NA,NA
975223,"PO BOX 17034","BOULDER","CO",80308,NA,NA,223,"PO BOX 17034, BOULDER, CO, 80308","No_Match",NA,NA,NA,NA
975224,"PO BOX 1704","BEAVER FALLS","PA",15010,NA,NA,224,"PO BOX 1704, BEAVER FALLS, PA, 15010","No_Match",NA,NA,NA,NA
975225,"PO BOX 1704","BLOWING ROCK","NC",28605,NA,NA,225,"PO BOX 1704, BLOWING ROCK, NC, 28605","No_Match",NA,NA,NA,NA
975226,"PO BOX 1704","EAGLE","CO",81631,NA,NA,226,"PO BOX 1704, EAGLE, CO, 81631","No_Match",NA,NA,NA,NA
975227,"PO BOX 1704","KERNERSVILLE","NC",27285,NA,NA,227,"PO BOX 1704, KERNERSVILLE, NC, 27285","No_Match",NA,NA,NA,NA
975228,"PO BOX 1704","LEAGUE CITY","TX",77574,NA,NA,228,"PO BOX 1704, LEAGUE CITY, TX, 77574","No_Match",NA,NA,NA,NA
975229,"PO BOX 1704","LEXINGTON","KY",40588,NA,NA,229,"PO BOX 1704, LEXINGTON, KY, 40588","No_Match",NA,NA,NA,NA
975230,"PO BOX 1704","MALTA","MT",59538,NA,NA,230,"PO BOX 1704, MALTA, MT, 59538","No_Match",NA,NA,NA,NA
975231,"PO BOX 1704","RED LODGE","MT",59068,NA,NA,231,"PO BOX 1704, RED LODGE, MT, 59068","No_Match",NA,NA,NA,NA
975232,"PO BOX 1704","SUNSET BEACH","CA",90742,NA,NA,232,"PO BOX 1704, SUNSET BEACH, CA, 90742","No_Match",NA,NA,NA,NA
975233,"PO BOX 1704","TUALATIN","OR",97062,NA,NA,233,"PO BOX 1704, TUALATIN, OR, 97062","No_Match",NA,NA,NA,NA
975234,"PO BOX 1704","TWENTYNINE PALMS","CA",92277,NA,NA,234,"PO BOX 1704, TWENTYNINE PALMS, CA, 92277","No_Match",NA,NA,NA,NA
975235,"PO BOX 1705","BLOCK ISLAND","RI",2807,NA,NA,235,"PO BOX 1705, BLOCK ISLAND, RI, 2807","No_Match",NA,NA,NA,NA
975236,"PO BOX 1705","HAYDEN","CO",81639,NA,NA,236,"PO BOX 1705, HAYDEN, CO, 81639","No_Match",NA,NA,NA,NA
975237,"PO BOX 1705","LENOIR","NC",28645,NA,NA,237,"PO BOX 1705, LENOIR, NC, 28645","No_Match",NA,NA,NA,NA
975238,"PO BOX 170520","BOZEMAN","MT",59717,NA,NA,238,"PO BOX 170520, BOZEMAN, MT, 59717","No_Match",NA,NA,NA,NA
975239,"PO BOX 170531","MILWAUKEE","WI",53217,NA,NA,239,"PO BOX 170531, MILWAUKEE, WI, 53217","No_Match",NA,NA,NA,NA
975240,"PO BOX 17055","SOUTH LAKE TAHOE","CA",96151,NA,NA,240,"PO BOX 17055, SOUTH LAKE TAHOE, CA, 96151","No_Match",NA,NA,NA,NA
975241,"PO BOX 1706","HINDMAN","KY",41822,NA,NA,241,"PO BOX 1706, HINDMAN, KY, 41822","No_Match",NA,NA,NA,NA
975242,"PO BOX 1706","ROCKVILLE","MD",20849,NA,NA,242,"PO BOX 1706, ROCKVILLE, MD, 20849","No_Match",NA,NA,NA,NA
975243,"PO BOX 170607","ARLINGTON","TX",76003,NA,NA,243,"PO BOX 170607, ARLINGTON, TX, 76003","No_Match",NA,NA,NA,NA
975244,"PO BOX 170614","AUSTIN","TX",78717,NA,NA,244,"PO BOX 170614, AUSTIN, TX, 78717","No_Match",NA,NA,NA,NA
975245,"PO BOX 170663","AUSTIN","TX",78717,NA,NA,245,"PO BOX 170663, AUSTIN, TX, 78717","No_Match",NA,NA,NA,NA
975246,"PO BOX 1707","ASH FORK","AZ",86320,NA,NA,246,"PO BOX 1707, ASH FORK, AZ, 86320","No_Match",NA,NA,NA,NA
975247,"PO BOX 1707","GRANBURY","TX",76048,NA,NA,247,"PO BOX 1707, GRANBURY, TX, 76048","No_Match",NA,NA,NA,NA
975248,"PO BOX 1707","PALO ALTO","CA",94302,NA,NA,248,"PO BOX 1707, PALO ALTO, CA, 94302","No_Match",NA,NA,NA,NA
975249,"PO BOX 1707","TUSTIN","CA",92781,NA,NA,249,"PO BOX 1707, TUSTIN, CA, 92781","No_Match",NA,NA,NA,NA
975250,"PO BOX 1707","TUSTIN","CA",92871,NA,NA,250,"PO BOX 1707, TUSTIN, CA, 92871","No_Match",NA,NA,NA,NA
975251,"PO BOX 1707","ZILLAH","WA",98953,NA,NA,251,"PO BOX 1707, ZILLAH, WA, 98953","No_Match",NA,NA,NA,NA
975252,"PO BOX 170741","AUSTIN","TX",78717,NA,NA,252,"PO BOX 170741, AUSTIN, TX, 78717","No_Match",NA,NA,NA,NA
975253,"PO BOX 1708","CAGUAS","PR",726,NA,NA,253,"PO BOX 1708, CAGUAS, PR, 726","No_Match",NA,NA,NA,NA
975254,"PO BOX 1708","NORFOLK","WV",23501,NA,NA,254,"PO BOX 1708, NORFOLK, WV, 23501","No_Match",NA,NA,NA,NA
975255,"PO BOX 17081","ASHEVILLE","NC",28816,NA,NA,255,"PO BOX 17081, ASHEVILLE, NC, 28816","No_Match",NA,NA,NA,NA
975256,"PO BOX 170844","AUSTIN","TX",78717,NA,NA,256,"PO BOX 170844, AUSTIN, TX, 78717","No_Match",NA,NA,NA,NA
975257,"PO BOX 17087","NASHVILLE","TN",37217,NA,NA,257,"PO BOX 17087, NASHVILLE, TN, 37217","No_Match",NA,NA,NA,NA
975258,"PO BOX 170871","BOSTON","MA",2117,NA,NA,258,"PO BOX 170871, BOSTON, MA, 2117","No_Match",NA,NA,NA,NA
975259,"PO BOX 1709","CHILHOWIE","VA",24319,NA,NA,259,"PO BOX 1709, CHILHOWIE, VA, 24319","No_Match",NA,NA,NA,NA
975260,"PO BOX 170942","DALLAS","TX",75217,NA,NA,260,"PO BOX 170942, DALLAS, TX, 75217","No_Match",NA,NA,NA,NA
975261,"PO BOX 171","ABSAROKEE","MT",59001,NA,NA,261,"PO BOX 171, ABSAROKEE, MT, 59001","No_Match",NA,NA,NA,NA
975262,"PO BOX 171","ANAHOLA","HI",96703,NA,NA,262,"PO BOX 171, ANAHOLA, HI, 96703","No_Match",NA,NA,NA,NA
975263,"PO BOX 171","ATKINSON","NC",28421,NA,NA,263,"PO BOX 171, ATKINSON, NC, 28421","No_Match",NA,NA,NA,NA
975264,"PO BOX 171","AUSTIN","TX",78767,NA,NA,264,"PO BOX 171, AUSTIN, TX, 78767","No_Match",NA,NA,NA,NA
975265,"PO BOX 171","BUENA","NJ",8310,NA,NA,265,"PO BOX 171, BUENA, NJ, 8310","No_Match",NA,NA,NA,NA
975266,"PO BOX 171","CANOVANAS","PR",729,NA,NA,266,"PO BOX 171, CANOVANAS, PR, 729","No_Match",NA,NA,NA,NA
975267,"PO BOX 171","CAYUCOS","CA",93430,NA,NA,267,"PO BOX 171, CAYUCOS, CA, 93430","No_Match",NA,NA,NA,NA
975268,"PO BOX 171","CEDAR HILL","TX",75106,NA,NA,268,"PO BOX 171, CEDAR HILL, TX, 75106","No_Match",NA,NA,NA,NA
975269,"PO BOX 171","CONNEAUT LAKE","PA",16316,NA,NA,269,"PO BOX 171, CONNEAUT LAKE, PA, 16316","No_Match",NA,NA,NA,NA
975270,"PO BOX 171","HOWARD","OH",43028,NA,NA,270,"PO BOX 171, HOWARD, OH, 43028","No_Match",NA,NA,NA,NA
975271,"PO BOX 171","JACKSON","NC",27845,NA,NA,271,"PO BOX 171, JACKSON, NC, 27845","No_Match",NA,NA,NA,NA
975272,"PO BOX 171","JASPER","IN",47546,NA,NA,272,"PO BOX 171, JASPER, IN, 47546","No_Match",NA,NA,NA,NA
975273,"PO BOX 171","KENT","OH",44240,NA,NA,273,"PO BOX 171, KENT, OH, 44240","No_Match",NA,NA,NA,NA
975274,"PO BOX 171","KEWASKUM","WI",53040,NA,NA,274,"PO BOX 171, KEWASKUM, WI, 53040","No_Match",NA,NA,NA,NA
975275,"PO BOX 171","LAWLER","IA",52154,NA,NA,275,"PO BOX 171, LAWLER, IA, 52154","No_Match",NA,NA,NA,NA
975276,"PO BOX 171","LAWRENCE","NY",11559,NA,NA,276,"PO BOX 171, LAWRENCE, NY, 11559","No_Match",NA,NA,NA,NA
975277,"PO BOX 171","LUDINGTON","MI",49431,NA,NA,277,"PO BOX 171, LUDINGTON, MI, 49431","No_Match",NA,NA,NA,NA
975278,"PO BOX 171","MALIN","OR",97632,NA,NA,278,"PO BOX 171, MALIN, OR, 97632","No_Match",NA,NA,NA,NA
975279,"PO BOX 171","MARQUETTE","MI",49855,NA,NA,279,"PO BOX 171, MARQUETTE, MI, 49855","No_Match",NA,NA,NA,NA
975280,"PO BOX 171","MELISSA","TX",75454,NA,NA,280,"PO BOX 171, MELISSA, TX, 75454","No_Match",NA,NA,NA,NA
975281,"PO BOX 171","MOUNTAIN VIEW","AR",72560,NA,NA,281,"PO BOX 171, MOUNTAIN VIEW, AR, 72560","No_Match",NA,NA,NA,NA
975282,"PO BOX 171","NEBO","NC",28761,NA,NA,282,"PO BOX 171, NEBO, NC, 28761","No_Match",NA,NA,NA,NA
975283,"PO BOX 171","NIPOMO","CA",93444,NA,NA,283,"PO BOX 171, NIPOMO, CA, 93444","No_Match",NA,NA,NA,NA
975284,"PO BOX 171","RATTAN","OK",74562,NA,NA,284,"PO BOX 171, RATTAN, OK, 74562","No_Match",NA,NA,NA,NA
975285,"PO BOX 171","ROCKWALL","TX",75087,NA,NA,285,"PO BOX 171, ROCKWALL, TX, 75087","No_Match",NA,NA,NA,NA
975286,"PO BOX 171","SHAWSVILLE","VA",24162,NA,NA,286,"PO BOX 171, SHAWSVILLE, VA, 24162","No_Match",NA,NA,NA,NA
975287,"PO BOX 171","SOLON SPRINGS","WI",54873,NA,NA,287,"PO BOX 171, SOLON SPRINGS, WI, 54873","No_Match",NA,NA,NA,NA
975288,"PO BOX 171","TIERRA AMARILLA","NM",87575,NA,NA,288,"PO BOX 171, TIERRA AMARILLA, NM, 87575","No_Match",NA,NA,NA,NA
975289,"PO BOX 171","TROY","AL",36081,NA,NA,289,"PO BOX 171, TROY, AL, 36081","No_Match",NA,NA,NA,NA
975290,"PO BOX 171","VEGA","TX",79092,NA,NA,290,"PO BOX 171, VEGA, TX, 79092","No_Match",NA,NA,NA,NA
975291,"PO BOX 171005","AUSTIN","TX",78717,NA,NA,291,"PO BOX 171005, AUSTIN, TX, 78717","No_Match",NA,NA,NA,NA
975292,"PO BOX 17102","DENVER","CO",80217,NA,NA,292,"PO BOX 17102, DENVER, CO, 80217","No_Match",NA,NA,NA,NA
975293,"PO BOX 171041","AUSTIN","TX",78717,NA,NA,293,"PO BOX 171041, AUSTIN, TX, 78717","No_Match",NA,NA,NA,NA
975294,"PO BOX 1711","LOCKPORT","NY",14094,NA,NA,294,"PO BOX 1711, LOCKPORT, NY, 14094","No_Match",NA,NA,NA,NA
975295,"PO BOX 171139","SALT LAKE CITY","UT",84117,NA,NA,295,"PO BOX 171139, SALT LAKE CITY, UT, 84117","No_Match",NA,NA,NA,NA
975296,"PO BOX 171149","AUSTIN","TX",78717,NA,NA,296,"PO BOX 171149, AUSTIN, TX, 78717","No_Match",NA,NA,NA,NA
975297,"PO BOX 17118","HOLLADAY","UT",84117,NA,NA,297,"PO BOX 17118, HOLLADAY, UT, 84117","No_Match",NA,NA,NA,NA
975298,"PO BOX 171190","BOSTON","MA",2117,NA,NA,298,"PO BOX 171190, BOSTON, MA, 2117","No_Match",NA,NA,NA,NA
975299,"PO BOX 1712","BOZEMAN",NA,NA,NA,NA,299,"PO BOX 1712, BOZEMAN, , ","No_Match",NA,NA,NA,NA
975300,"PO BOX 1712","GOLD BEACH","OR",97444,NA,NA,300,"PO BOX 1712, GOLD BEACH, OR, 97444","No_Match",NA,NA,NA,NA
975301,"PO BOX 1712","POULSBO","WA",98370,NA,NA,301,"PO BOX 1712, POULSBO, WA, 98370","No_Match",NA,NA,NA,NA
975302,"PO BOX 1712","SANDPOINT","ID",83864,NA,NA,302,"PO BOX 1712, SANDPOINT, ID, 83864","No_Match",NA,NA,NA,NA
975303,"PO BOX 1712","WIMBERLEY","TX",78676,NA,NA,303,"PO BOX 1712, WIMBERLEY, TX, 78676","No_Match",NA,NA,NA,NA
975304,"PO BOX 17126","WINSTON-SALEM","NC",27116,NA,NA,304,"PO BOX 17126, WINSTON-SALEM, NC, 27116","No_Match",NA,NA,NA,NA
975305,"PO BOX 1713","BIG SPRING","TX",79721,NA,NA,305,"PO BOX 1713, BIG SPRING, TX, 79721","No_Match",NA,NA,NA,NA
975306,"PO BOX 1713","BUELLTON","CA",93427,NA,NA,306,"PO BOX 1713, BUELLTON, CA, 93427","No_Match",NA,NA,NA,NA
975307,"PO BOX 1713","KILL DEVIL HILLS","NC",27948,NA,NA,307,"PO BOX 1713, KILL DEVIL HILLS, NC, 27948","No_Match",NA,NA,NA,NA
975308,"PO BOX 1713","PENDLETON","OR",97801,NA,NA,308,"PO BOX 1713, PENDLETON, OR, 97801","No_Match",NA,NA,NA,NA
975309,"PO BOX 1713","SARATOGA","WY",82331,NA,NA,309,"PO BOX 1713, SARATOGA, WY, 82331","No_Match",NA,NA,NA,NA
975310,"PO BOX 1713","SHELTER ISLAND","NY",11964,NA,NA,310,"PO BOX 1713, SHELTER ISLAND, NY, 11964","No_Match",NA,NA,NA,NA
975311,"PO BOX 171333","SAN ANTONIO","TX",78217,NA,NA,311,"PO BOX 171333, SAN ANTONIO, TX, 78217","No_Match",NA,NA,NA,NA
975312,"PO BOX 171393","SAN ANTONIO","TX",78217,NA,NA,312,"PO BOX 171393, SAN ANTONIO, TX, 78217","No_Match",NA,NA,NA,NA
975313,"PO BOX 1714","BLUE RIDGE","GA",30513,NA,NA,313,"PO BOX 1714, BLUE RIDGE, GA, 30513","No_Match",NA,NA,NA,NA
975314,"PO BOX 1714","CLAREMONT","CA",91711,NA,NA,314,"PO BOX 1714, CLAREMONT, CA, 91711","No_Match",NA,NA,NA,NA
975315,"PO BOX 1714","NOBLE","OK",73068,NA,NA,315,"PO BOX 1714, NOBLE, OK, 73068","No_Match",NA,NA,NA,NA
975316,"PO BOX 17141","SOUTH LAKE TAHOE","CA",96151,NA,NA,316,"PO BOX 17141, SOUTH LAKE TAHOE, CA, 96151","No_Match",NA,NA,NA,NA
975317,"PO BOX 1715 119 CCC CAMP RD","NORRIS","TN",37828,36.1938334380001,-84.082843356,317,"PO BOX 1715 119 CCC CAMP RD, NORRIS, TN, 37828","Match","Exact","119 CCC CAMP RD, NORRIS, TN, 37828",90142611,"R"
975318,"PO BOX 171513","IRVING","TX",75017,NA,NA,318,"PO BOX 171513, IRVING, TX, 75017","No_Match",NA,NA,NA,NA
975319,"PO BOX 171562","ARLINGTON","TX",76003,NA,NA,319,"PO BOX 171562, ARLINGTON, TX, 76003","No_Match",NA,NA,NA,NA
975320,"PO BOX 1716","COLUMBUS","OH",43216,NA,NA,320,"PO BOX 1716, COLUMBUS, OH, 43216","No_Match",NA,NA,NA,NA
975321,"PO BOX 1716","MUSKEGON","MI",49443,NA,NA,321,"PO BOX 1716, MUSKEGON, MI, 49443","No_Match",NA,NA,NA,NA
975322,"PO BOX 1716","WAILUKU","HI",96793,NA,NA,322,"PO BOX 1716, WAILUKU, HI, 96793","No_Match",NA,NA,NA,NA
975323,"PO BOX 171628","IRVING","TX",75017,NA,NA,323,"PO BOX 171628, IRVING, TX, 75017","No_Match",NA,NA,NA,NA
975324,"PO BOX 1717","LITCHFIELD PARK","AZ",85340,NA,NA,324,"PO BOX 1717, LITCHFIELD PARK, AZ, 85340","No_Match",NA,NA,NA,NA
975325,"PO BOX 1717","MARFA","TX",79843,NA,NA,325,"PO BOX 1717, MARFA, TX, 79843","No_Match",NA,NA,NA,NA
975326,"PO BOX 1717","NEW TOWN","ND",58763,NA,NA,326,"PO BOX 1717, NEW TOWN, ND, 58763","No_Match",NA,NA,NA,NA
975327,"PO BOX 1718","AIRWAY HEIGHTS","WA",99001,NA,NA,327,"PO BOX 1718, AIRWAY HEIGHTS, WA, 99001","No_Match",NA,NA,NA,NA
975328,"PO BOX 1718","ALAMOGORDO","NM",88311,NA,NA,328,"PO BOX 1718, ALAMOGORDO, NM, 88311","No_Match",NA,NA,NA,NA
975329,"PO BOX 1718","QUINCY","CA",95971,NA,NA,329,"PO BOX 1718, QUINCY, CA, 95971","No_Match",NA,NA,NA,NA
975330,"PO BOX 1719","FAIRVIEW","OR",97024,NA,NA,330,"PO BOX 1719, FAIRVIEW, OR, 97024","No_Match",NA,NA,NA,NA
975331,"PO BOX 1719","PORT WASHINGTON","NY",11050,NA,NA,331,"PO BOX 1719, PORT WASHINGTON, NY, 11050","No_Match",NA,NA,NA,NA
975332,"PO BOX 17196","PLANTATION","FL",33318,NA,NA,332,"PO BOX 17196, PLANTATION, FL, 33318","No_Match",NA,NA,NA,NA
975333,"PO BOX 172","BLAINE","TN",37709,NA,NA,333,"PO BOX 172, BLAINE, TN, 37709","No_Match",NA,NA,NA,NA
975334,"PO BOX 172","CANTWELL","AK",99729,NA,NA,334,"PO BOX 172, CANTWELL, AK, 99729","No_Match",NA,NA,NA,NA
975335,"PO BOX 172","COLLINS","NY",14034,NA,NA,335,"PO BOX 172, COLLINS, NY, 14034","No_Match",NA,NA,NA,NA
975336,"PO BOX 172","DEEP RIVER","CT",6417,NA,NA,336,"PO BOX 172, DEEP RIVER, CT, 6417","No_Match",NA,NA,NA,NA
975337,"PO BOX 172","DISNEY","OK",74340,NA,NA,337,"PO BOX 172, DISNEY, OK, 74340","No_Match",NA,NA,NA,NA
975338,"PO BOX 172","DORSET","VT",5251,NA,NA,338,"PO BOX 172, DORSET, VT, 5251","No_Match",NA,NA,NA,NA
975339,"PO BOX 172","DUTCH FLAT","CA",95714,NA,NA,339,"PO BOX 172, DUTCH FLAT, CA, 95714","No_Match",NA,NA,NA,NA
975340,"PO BOX 172","FRANKLIN","AR",72536,NA,NA,340,"PO BOX 172, FRANKLIN, AR, 72536","No_Match",NA,NA,NA,NA
975341,"PO BOX 172","GLASCO","NY",12432,NA,NA,341,"PO BOX 172, GLASCO, NY, 12432","No_Match",NA,NA,NA,NA
975342,"PO BOX 172","GLENVIEW","IL",60025,NA,NA,342,"PO BOX 172, GLENVIEW, IL, 60025","No_Match",NA,NA,NA,NA
975343,"PO BOX 172","GREENVILLE","SC",29602,NA,NA,343,"PO BOX 172, GREENVILLE, SC, 29602","No_Match",NA,NA,NA,NA
975344,"PO BOX 172","HAMILTON","AL",35570,NA,NA,344,"PO BOX 172, HAMILTON, AL, 35570","No_Match",NA,NA,NA,NA
975345,"PO BOX 172","HARRISONVILLE","NJ",8039,NA,NA,345,"PO BOX 172, HARRISONVILLE, NJ, 8039","No_Match",NA,NA,NA,NA
975346,"PO BOX 172","HOMOSASSA","FL",34448,NA,NA,346,"PO BOX 172, HOMOSASSA, FL, 34448","No_Match",NA,NA,NA,NA
975347,"PO BOX 172","HOMOSASSA","FL",34487,NA,NA,347,"PO BOX 172, HOMOSASSA, FL, 34487","No_Match",NA,NA,NA,NA
975348,"PO BOX 172","HOQUIAM","WA",98550,NA,NA,348,"PO BOX 172, HOQUIAM, WA, 98550","No_Match",NA,NA,NA,NA
975349,"PO BOX 172","KEENE","CA",93531,NA,NA,349,"PO BOX 172, KEENE, CA, 93531","No_Match",NA,NA,NA,NA
975350,"PO BOX 172","NEENAH","WI",54957,NA,NA,350,"PO BOX 172, NEENAH, WI, 54957","No_Match",NA,NA,NA,NA
975351,"PO BOX 172","POLKTON","NC",28135,NA,NA,351,"PO BOX 172, POLKTON, NC, 28135","No_Match",NA,NA,NA,NA
975352,"PO BOX 172","PORT AUSTIN","MI",48467,NA,NA,352,"PO BOX 172, PORT AUSTIN, MI, 48467","No_Match",NA,NA,NA,NA
975353,"PO BOX 172","REYNOLDSBURG","OH",43068,NA,NA,353,"PO BOX 172, REYNOLDSBURG, OH, 43068","No_Match",NA,NA,NA,NA
975354,"PO BOX 172","RIDGELAND","SC",29936,NA,NA,354,"PO BOX 172, RIDGELAND, SC, 29936","No_Match",NA,NA,NA,NA
975355,"PO BOX 172","SAN MARCOS","TX",78667,NA,NA,355,"PO BOX 172, SAN MARCOS, TX, 78667","No_Match",NA,NA,NA,NA
975356,"PO BOX 172","SANTA","ID",83866,NA,NA,356,"PO BOX 172, SANTA, ID, 83866","No_Match",NA,NA,NA,NA
975357,"PO BOX 172","SHORTSVILLE","NY",14548,NA,NA,357,"PO BOX 172, SHORTSVILLE, NY, 14548","No_Match",NA,NA,NA,NA
975358,"PO BOX 172","SNOOK","TX",77878,NA,NA,358,"PO BOX 172, SNOOK, TX, 77878","No_Match",NA,NA,NA,NA
975359,"PO BOX 172","SNOQUALMIE PASS","WA",98068,NA,NA,359,"PO BOX 172, SNOQUALMIE PASS, WA, 98068","No_Match",NA,NA,NA,NA
975360,"PO BOX 172","ST. MICHAEL","MN",55376,NA,NA,360,"PO BOX 172, ST. MICHAEL, MN, 55376","No_Match",NA,NA,NA,NA
975361,"PO BOX 172","TRAVERSE CITY","MI",49685,NA,NA,361,"PO BOX 172, TRAVERSE CITY, MI, 49685","No_Match",NA,NA,NA,NA
975362,"PO BOX 172","WARRENTON","GA",30828,NA,NA,362,"PO BOX 172, WARRENTON, GA, 30828","No_Match",NA,NA,NA,NA
975363,"PO BOX 172","WENDELL","ID",83355,NA,NA,363,"PO BOX 172, WENDELL, ID, 83355","No_Match",NA,NA,NA,NA
975364,"PO BOX 172","WINCHESTER","ID",83555,NA,NA,364,"PO BOX 172, WINCHESTER, ID, 83555","No_Match",NA,NA,NA,NA
975365,"PO BOX 1720","GAINESVILLE","GA",30503,NA,NA,365,"PO BOX 1720, GAINESVILLE, GA, 30503","No_Match",NA,NA,NA,NA
975366,"PO BOX 1720","MALVERN","AR",72104,NA,NA,366,"PO BOX 1720, MALVERN, AR, 72104","No_Match",NA,NA,NA,NA
975367,"PO BOX 1720","QUINLAN","TX",75474,NA,NA,367,"PO BOX 1720, QUINLAN, TX, 75474","No_Match",NA,NA,NA,NA
975368,"PO BOX 1721","BISBEE","AZ",85603,NA,NA,368,"PO BOX 1721, BISBEE, AZ, 85603","No_Match",NA,NA,NA,NA
975369,"PO BOX 1721","DUBUQUE","IA",52001,NA,NA,369,"PO BOX 1721, DUBUQUE, IA, 52001","No_Match",NA,NA,NA,NA
975370,"PO BOX 1721","MENA","AR",71953,NA,NA,370,"PO BOX 1721, MENA, AR, 71953","No_Match",NA,NA,NA,NA
975371,"PO BOX 1721","MOSES LAKE","WA",98837,NA,NA,371,"PO BOX 1721, MOSES LAKE, WA, 98837","No_Match",NA,NA,NA,NA
975372,"PO BOX 1721","PINE BLUFF","AR",71613,NA,NA,372,"PO BOX 1721, PINE BLUFF, AR, 71613","No_Match",NA,NA,NA,NA
975373,"PO BOX 1721","WAILUKU","HI",96793,NA,NA,373,"PO BOX 1721, WAILUKU, HI, 96793","No_Match",NA,NA,NA,NA
975374,"PO BOX 172114","HIALEAH","FL",33017,NA,NA,374,"PO BOX 172114, HIALEAH, FL, 33017","No_Match",NA,NA,NA,NA
975375,"PO BOX 172196","KANSAS CITY","KS",66112,NA,NA,375,"PO BOX 172196, KANSAS CITY, KS, 66112","No_Match",NA,NA,NA,NA
975376,"PO BOX 1722","ALBANY","OR",97321,NA,NA,376,"PO BOX 1722, ALBANY, OR, 97321","No_Match",NA,NA,NA,NA
975377,"PO BOX 1722","EASTLAKE","CO",80614,NA,NA,377,"PO BOX 1722, EASTLAKE, CO, 80614","No_Match",NA,NA,NA,NA
975378,"PO BOX 1722","FRASER","CO",80442,NA,NA,378,"PO BOX 1722, FRASER, CO, 80442","No_Match",NA,NA,NA,NA
975379,"PO BOX 1722","NORTH CONWAY","NH",3860,NA,NA,379,"PO BOX 1722, NORTH CONWAY, NH, 3860","No_Match",NA,NA,NA,NA
975380,"PO BOX 1722","ORTING","WA",98360,NA,NA,380,"PO BOX 1722, ORTING, WA, 98360","No_Match",NA,NA,NA,NA
975381,"PO BOX 1722","PLEASANT VALLEY","NY",12569,NA,NA,381,"PO BOX 1722, PLEASANT VALLEY, NY, 12569","No_Match",NA,NA,NA,NA
975382,"PO BOX 172205","TAMPA","FL",33672,NA,NA,382,"PO BOX 172205, TAMPA, FL, 33672","No_Match",NA,NA,NA,NA
975383,"PO BOX 172221","DENVER","CO",80239,NA,NA,383,"PO BOX 172221, DENVER, CO, 80239","No_Match",NA,NA,NA,NA
975384,"PO BOX 172234","MEMPHIS","TN",38187,NA,NA,384,"PO BOX 172234, MEMPHIS, TN, 38187","No_Match",NA,NA,NA,NA
975385,"PO BOX 172240","BOZEMAN","MT",59717,NA,NA,385,"PO BOX 172240, BOZEMAN, MT, 59717","No_Match",NA,NA,NA,NA
975386,"PO BOX 17225","CLEARWATER","FL",33762,NA,NA,386,"PO BOX 17225, CLEARWATER, FL, 33762","No_Match",NA,NA,NA,NA
975387,"PO BOX 1723","DOUGLASVILLE","GA",30133,NA,NA,387,"PO BOX 1723, DOUGLASVILLE, GA, 30133","No_Match",NA,NA,NA,NA
975388,"PO BOX 1723","JAMESTOWN","NC",27282,NA,NA,388,"PO BOX 1723, JAMESTOWN, NC, 27282","No_Match",NA,NA,NA,NA
975389,"PO BOX 1723","MOSES LAKE","WA",98837,NA,NA,389,"PO BOX 1723, MOSES LAKE, WA, 98837","No_Match",NA,NA,NA,NA
975390,"PO BOX 1723","YAZOO CITY","MS",39194,NA,NA,390,"PO BOX 1723, YAZOO CITY, MS, 39194","No_Match",NA,NA,NA,NA
975391,"PO BOX 17234","MINNEAPOLIS","MN",55417,NA,NA,391,"PO BOX 17234, MINNEAPOLIS, MN, 55417","No_Match",NA,NA,NA,NA
975392,"PO BOX 172340","BOZEMAN","MT",59717,NA,NA,392,"PO BOX 172340, BOZEMAN, MT, 59717","No_Match",NA,NA,NA,NA
975393,"PO BOX 1724","FOLLY BEACH","SC",29439,NA,NA,393,"PO BOX 1724, FOLLY BEACH, SC, 29439","No_Match",NA,NA,NA,NA
975394,"PO BOX 1724","FORKS","WA",98331,NA,NA,394,"PO BOX 1724, FORKS, WA, 98331","No_Match",NA,NA,NA,NA
975395,"PO BOX 1724","HELOTES","TX",78023,NA,NA,395,"PO BOX 1724, HELOTES, TX, 78023","No_Match",NA,NA,NA,NA
975396,"PO BOX 1724","JACKSONVILLE","NC",28541,NA,NA,396,"PO BOX 1724, JACKSONVILLE, NC, 28541","No_Match",NA,NA,NA,NA
975397,"PO BOX 1724","MENA","AR",71953,NA,NA,397,"PO BOX 1724, MENA, AR, 71953","No_Match",NA,NA,NA,NA
975398,"PO BOX 17242","CLEARWATER","FL",33762,NA,NA,398,"PO BOX 17242, CLEARWATER, FL, 33762","No_Match",NA,NA,NA,NA
975399,"PO BOX 17243","WINSTON-SALEM","NC",27116,NA,NA,399,"PO BOX 17243, WINSTON-SALEM, NC, 27116","No_Match",NA,NA,NA,NA
975400,"PO BOX 17248","WEST PALM BEACH","FL",33416,NA,NA,400,"PO BOX 17248, WEST PALM BEACH, FL, 33416","No_Match",NA,NA,NA,NA
975401,"PO BOX 17248","WEST PALM BEACHQ","FL",33416,NA,NA,401,"PO BOX 17248, WEST PALM BEACHQ, FL, 33416","No_Match",NA,NA,NA,NA
975402,"PO BOX 1725","KAMUELA","HI",96743,NA,NA,402,"PO BOX 1725, KAMUELA, HI, 96743","No_Match",NA,NA,NA,NA
975403,"PO BOX 172504","TAMPA","FL",33672,NA,NA,403,"PO BOX 172504, TAMPA, FL, 33672","No_Match",NA,NA,NA,NA
975404,"PO BOX 172532","ARLINGTON","TX",76003,NA,NA,404,"PO BOX 172532, ARLINGTON, TX, 76003","No_Match",NA,NA,NA,NA
975405,"PO BOX 1727","DECATUR","AL",35602,NA,NA,405,"PO BOX 1727, DECATUR, AL, 35602","No_Match",NA,NA,NA,NA
975406,"PO BOX 1727","RANCHO SANTA FE","CA",92067,NA,NA,406,"PO BOX 1727, RANCHO SANTA FE, CA, 92067","No_Match",NA,NA,NA,NA
975407,"PO BOX 17271","TUCSON","AZ",85731,NA,NA,407,"PO BOX 17271, TUCSON, AZ, 85731","No_Match",NA,NA,NA,NA
975408,"PO BOX 17277","INDIANAPOLIS","IN",46217,NA,NA,408,"PO BOX 17277, INDIANAPOLIS, IN, 46217","No_Match",NA,NA,NA,NA
975409,"PO BOX 1728","ELK CITY","OK",73648,NA,NA,409,"PO BOX 1728, ELK CITY, OK, 73648","No_Match",NA,NA,NA,NA
975410,"PO BOX 1728","FORKS","WA",98331,NA,NA,410,"PO BOX 1728, FORKS, WA, 98331","No_Match",NA,NA,NA,NA
975411,"PO BOX 1728","HEMPHILL","TX",75948,NA,NA,411,"PO BOX 1728, HEMPHILL, TX, 75948","No_Match",NA,NA,NA,NA
975412,"PO BOX 1728","ISSAQUAH","WA",98027,NA,NA,412,"PO BOX 1728, ISSAQUAH, WA, 98027","No_Match",NA,NA,NA,NA
975413,"PO BOX 172844","ARLINGTON","TX",76003,NA,NA,413,"PO BOX 172844, ARLINGTON, TX, 76003","No_Match",NA,NA,NA,NA
975414,"PO BOX 1729","MOSES LAKE","WA",98837,NA,NA,414,"PO BOX 1729, MOSES LAKE, WA, 98837","No_Match",NA,NA,NA,NA
975415,"PO BOX 173 RT 56HWY EAST","BRUSH VALLEY","PA",15720,NA,NA,415,"PO BOX 173 RT 56HWY EAST, BRUSH VALLEY, PA, 15720","No_Match",NA,NA,NA,NA
975416,"PO BOX 173","ARNOT","PA",16911,NA,NA,416,"PO BOX 173, ARNOT, PA, 16911","No_Match",NA,NA,NA,NA
975417,"PO BOX 173","CENTER VALLEY","PA",18034,NA,NA,417,"PO BOX 173, CENTER VALLEY, PA, 18034","No_Match",NA,NA,NA,NA
975418,"PO BOX 173","CHATHAM","NJ",7928,NA,NA,418,"PO BOX 173, CHATHAM, NJ, 7928","No_Match",NA,NA,NA,NA
975419,"PO BOX 173","EDGEWATER","NJ",7020,NA,NA,419,"PO BOX 173, EDGEWATER, NJ, 7020","No_Match",NA,NA,NA,NA
975420,"PO BOX 173","ELKTON","FL",32033,NA,NA,420,"PO BOX 173, ELKTON, FL, 32033","No_Match",NA,NA,NA,NA
975421,"PO BOX 173","ERSKINE","MN",56535,NA,NA,421,"PO BOX 173, ERSKINE, MN, 56535","No_Match",NA,NA,NA,NA
975422,"PO BOX 173","GAASTRA","MI",49927,NA,NA,422,"PO BOX 173, GAASTRA, MI, 49927","No_Match",NA,NA,NA,NA
975423,"PO BOX 173","GRANTSVILLE","WV",26147,NA,NA,423,"PO BOX 173, GRANTSVILLE, WV, 26147","No_Match",NA,NA,NA,NA
975424,"PO BOX 173","GREENTOWN","PA",18426,NA,NA,424,"PO BOX 173, GREENTOWN, PA, 18426","No_Match",NA,NA,NA,NA
975425,"PO BOX 173","KIEL","WI",53042,NA,NA,425,"PO BOX 173, KIEL, WI, 53042","No_Match",NA,NA,NA,NA
975426,"PO BOX 173","KUALAPUU","HI",96757,NA,NA,426,"PO BOX 173, KUALAPUU, HI, 96757","No_Match",NA,NA,NA,NA
975427,"PO BOX 173","LAKE TOXAWAY","NC",28747,NA,NA,427,"PO BOX 173, LAKE TOXAWAY, NC, 28747","No_Match",NA,NA,NA,NA
975428,"PO BOX 173","LAKEMONT","GA",30552,NA,NA,428,"PO BOX 173, LAKEMONT, GA, 30552","No_Match",NA,NA,NA,NA
975429,"PO BOX 173","LAREDO","TX",78344,NA,NA,429,"PO BOX 173, LAREDO, TX, 78344","No_Match",NA,NA,NA,NA
975430,"PO BOX 173","LONG LAKE","WI",54542,NA,NA,430,"PO BOX 173, LONG LAKE, WI, 54542","No_Match",NA,NA,NA,NA
975431,"PO BOX 173","MINERAL WELLS","WV",26150,NA,NA,431,"PO BOX 173, MINERAL WELLS, WV, 26150","No_Match",NA,NA,NA,NA
975432,"PO BOX 173","NEW HAMPTON","MO",64471,NA,NA,432,"PO BOX 173, NEW HAMPTON, MO, 64471","No_Match",NA,NA,NA,NA
975433,"PO BOX 173","NOBLE","LA",71462,NA,NA,433,"PO BOX 173, NOBLE, LA, 71462","No_Match",NA,NA,NA,NA
975434,"PO BOX 173","OLDWICK","NJ",8858,NA,NA,434,"PO BOX 173, OLDWICK, NJ, 8858","No_Match",NA,NA,NA,NA
975435,"PO BOX 173","OTTSVILLE","PA",18942,NA,NA,435,"PO BOX 173, OTTSVILLE, PA, 18942","No_Match",NA,NA,NA,NA
975436,"PO BOX 173","STOUGHTON","WI",53589,NA,NA,436,"PO BOX 173, STOUGHTON, WI, 53589","No_Match",NA,NA,NA,NA
975437,"PO BOX 173","SUNSET","LA",70584,NA,NA,437,"PO BOX 173, SUNSET, LA, 70584","No_Match",NA,NA,NA,NA
975438,"PO BOX 173","WAGON MOUND","NM",87752,NA,NA,438,"PO BOX 173, WAGON MOUND, NM, 87752","No_Match",NA,NA,NA,NA
975439,"PO BOX 173","WIMAUMA","FL",33598,NA,NA,439,"PO BOX 173, WIMAUMA, FL, 33598","No_Match",NA,NA,NA,NA
975440,"PO BOX 173","YANTIS","TX",75497,NA,NA,440,"PO BOX 173, YANTIS, TX, 75497","No_Match",NA,NA,NA,NA
975441,"PO BOX 1730","KAMUELA","HI",96743,NA,NA,441,"PO BOX 1730, KAMUELA, HI, 96743","No_Match",NA,NA,NA,NA
975442,"PO BOX 1730","MONUMENT","CO",80132,NA,NA,442,"PO BOX 1730, MONUMENT, CO, 80132","No_Match",NA,NA,NA,NA
975443,"PO BOX 1730","PEARL CITY","HI",96782,NA,NA,443,"PO BOX 1730, PEARL CITY, HI, 96782","No_Match",NA,NA,NA,NA
975444,"PO BOX 17304","MEMPHIS","TN",17304,NA,NA,444,"PO BOX 17304, MEMPHIS, TN, 17304","No_Match",NA,NA,NA,NA
975445,"PO BOX 173044","TAMPA","FL",33672,NA,NA,445,"PO BOX 173044, TAMPA, FL, 33672","No_Match",NA,NA,NA,NA
975446,"PO BOX 17307","STAMFORD","CT",6907,NA,NA,446,"PO BOX 17307, STAMFORD, CT, 6907","No_Match",NA,NA,NA,NA
975447,"PO BOX 1731 OLIVE BRANCH","OLIVE","MS",38654,NA,NA,447,"PO BOX 1731 OLIVE BRANCH, OLIVE, MS, 38654","No_Match",NA,NA,NA,NA
975448,"PO BOX 1731","BLOCK ISLAND","RI",2807,NA,NA,448,"PO BOX 1731, BLOCK ISLAND, RI, 2807","No_Match",NA,NA,NA,NA
975449,"PO BOX 1732","CROSS CITY","FL",32628,NA,NA,449,"PO BOX 1732, CROSS CITY, FL, 32628","No_Match",NA,NA,NA,NA
975450,"PO BOX 1732","KINGSTON","OK",73439,NA,NA,450,"PO BOX 1732, KINGSTON, OK, 73439","No_Match",NA,NA,NA,NA
975451,"PO BOX 1733","HAMILTON","MT",59840,NA,NA,451,"PO BOX 1733, HAMILTON, MT, 59840","No_Match",NA,NA,NA,NA
975452,"PO BOX 1733","KIHEI","HI",96753,NA,NA,452,"PO BOX 1733, KIHEI, HI, 96753","No_Match",NA,NA,NA,NA
975453,"PO BOX 1733","LINCOLNTON","NC",28093,NA,NA,453,"PO BOX 1733, LINCOLNTON, NC, 28093","No_Match",NA,NA,NA,NA
975454,"PO BOX 1733","LIVINGSTON","AL",35470,NA,NA,454,"PO BOX 1733, LIVINGSTON, AL, 35470","No_Match",NA,NA,NA,NA
975455,"PO BOX 1733","NATCHEZ","MS",39121,NA,NA,455,"PO BOX 1733, NATCHEZ, MS, 39121","No_Match",NA,NA,NA,NA
975456,"PO BOX 1733","STOW","OH",44224,NA,NA,456,"PO BOX 1733, STOW, OH, 44224","No_Match",NA,NA,NA,NA
975457,"PO BOX 1733","TAOS","NM",87571,NA,NA,457,"PO BOX 1733, TAOS, NM, 87571","No_Match",NA,NA,NA,NA
975458,"PO BOX 17332","SUGAR LAND","TX",77496,NA,NA,458,"PO BOX 17332, SUGAR LAND, TX, 77496","No_Match",NA,NA,NA,NA
975459,"PO BOX 173362","DENVER","CO",80217,NA,NA,459,"PO BOX 173362, DENVER, CO, 80217","No_Match",NA,NA,NA,NA
975460,"PO BOX 173372","TAMPA","FL",33672,NA,NA,460,"PO BOX 173372, TAMPA, FL, 33672","No_Match",NA,NA,NA,NA
975461,"PO BOX 1734","ABERDEEN","WA",98520,NA,NA,461,"PO BOX 1734, ABERDEEN, WA, 98520","No_Match",NA,NA,NA,NA
975462,"PO BOX 1734","ARANSAS PASS","TX",78335,NA,NA,462,"PO BOX 1734, ARANSAS PASS, TX, 78335","No_Match",NA,NA,NA,NA
975463,"PO BOX 1734","BRACKETTVILLE","TX",78832,NA,NA,463,"PO BOX 1734, BRACKETTVILLE, TX, 78832","No_Match",NA,NA,NA,NA
975464,"PO BOX 1734","CLINTON","NC",28329,NA,NA,464,"PO BOX 1734, CLINTON, NC, 28329","No_Match",NA,NA,NA,NA
975465,"PO BOX 1734","ESTES PARK","CO",80517,NA,NA,465,"PO BOX 1734, ESTES PARK, CO, 80517","No_Match",NA,NA,NA,NA
975466,"PO BOX 1734","FAIRPLAY","CO",80440,NA,NA,466,"PO BOX 1734, FAIRPLAY, CO, 80440","No_Match",NA,NA,NA,NA
975467,"PO BOX 1734","LARAMIE","WY",82073,NA,NA,467,"PO BOX 1734, LARAMIE, WY, 82073","No_Match",NA,NA,NA,NA
975468,"PO BOX 1734","MIDLOTHIAN","TX",76065,NA,NA,468,"PO BOX 1734, MIDLOTHIAN, TX, 76065","No_Match",NA,NA,NA,NA
975469,"PO BOX 1734","MOUNT VERNON","WA",98273,NA,NA,469,"PO BOX 1734, MOUNT VERNON, WA, 98273","No_Match",NA,NA,NA,NA
975470,"PO BOX 1734","PORTER","TX",77365,NA,NA,470,"PO BOX 1734, PORTER, TX, 77365","No_Match",NA,NA,NA,NA
975471,"PO BOX 1734","WASHINGTON","DC",20013,NA,NA,471,"PO BOX 1734, WASHINGTON, DC, 20013","No_Match",NA,NA,NA,NA
975472,"PO BOX 17342","FOUNTAIN HILLS","AZ",85269,NA,NA,472,"PO BOX 17342, FOUNTAIN HILLS, AZ, 85269","No_Match",NA,NA,NA,NA
975473,"PO BOX 1735 120 MAIN ST","TONOPAH","NV",89049,38.0682057120001,-117.230983785,473,"PO BOX 1735 120 MAIN ST, TONOPAH, NV, 89049","Match","Exact","120 MAIN ST, TONOPAH, NV, 89049",140555466,"R"
975474,"PO BOX 1735","BETHEL","AK",99559,NA,NA,474,"PO BOX 1735, BETHEL, AK, 99559","No_Match",NA,NA,NA,NA
975475,"PO BOX 1735","CONWAY","AR",72033,NA,NA,475,"PO BOX 1735, CONWAY, AR, 72033","No_Match",NA,NA,NA,NA
975476,"PO BOX 1735","EAGLE BUTTE","SD",57625,NA,NA,476,"PO BOX 1735, EAGLE BUTTE, SD, 57625","No_Match",NA,NA,NA,NA
975477,"PO BOX 1735","ESTES PARK","CO",80517,NA,NA,477,"PO BOX 1735, ESTES PARK, CO, 80517","No_Match",NA,NA,NA,NA
975478,"PO BOX 1735","LOGANDALE","NV",89021,NA,NA,478,"PO BOX 1735, LOGANDALE, NV, 89021","No_Match",NA,NA,NA,NA
975479,"PO BOX 1735","MARTINSVILLE","IN",46151,NA,NA,479,"PO BOX 1735, MARTINSVILLE, IN, 46151","No_Match",NA,NA,NA,NA
975480,"PO BOX 1735","THOMASVILLE","GA",31799,NA,NA,480,"PO BOX 1735, THOMASVILLE, GA, 31799","No_Match",NA,NA,NA,NA
975481,"PO BOX 173562","MIAMI","FL",33017,NA,NA,481,"PO BOX 173562, MIAMI, FL, 33017","No_Match",NA,NA,NA,NA
975482,"PO BOX 173591","TAMPA","FL",33672,NA,NA,482,"PO BOX 173591, TAMPA, FL, 33672","No_Match",NA,NA,NA,NA
975483,"PO BOX 1736","PETERSBURG","AK",99833,NA,NA,483,"PO BOX 1736, PETERSBURG, AK, 99833","No_Match",NA,NA,NA,NA
975484,"PO BOX 17365","NASHVILLE","TN",37217,NA,NA,484,"PO BOX 17365, NASHVILLE, TN, 37217","No_Match",NA,NA,NA,NA
975485,"PO BOX 1737","BLOCK ISLAND","RI",2807,NA,NA,485,"PO BOX 1737, BLOCK ISLAND, RI, 2807","No_Match",NA,NA,NA,NA
975486,"PO BOX 1737","OXFORD","NC",27565,NA,NA,486,"PO BOX 1737, OXFORD, NC, 27565","No_Match",NA,NA,NA,NA
975487,"PO BOX 1737","SAN BENITO","TX",78586,NA,NA,487,"PO BOX 1737, SAN BENITO, TX, 78586","No_Match",NA,NA,NA,NA
975488,"PO BOX 17370  LOT 2743","SAINT PAUL","MN",55117,NA,NA,488,"PO BOX 17370  LOT 2743, SAINT PAUL, MN, 55117","No_Match",NA,NA,NA,NA
975489,"PO BOX 17370 LOT 121","SAINT PAUL","MN",55117,NA,NA,489,"PO BOX 17370 LOT 121, SAINT PAUL, MN, 55117","No_Match",NA,NA,NA,NA
975490,"PO BOX 17370 LOT 1410","SAINT PAUL","MN",55117,NA,NA,490,"PO BOX 17370 LOT 1410, SAINT PAUL, MN, 55117","No_Match",NA,NA,NA,NA
975491,"PO BOX 17373 LOT 723","SAINT PAUL","MN",55117,NA,NA,491,"PO BOX 17373 LOT 723, SAINT PAUL, MN, 55117","No_Match",NA,NA,NA,NA
975492,"PO BOX 1738","BLUE JAY","CA",92317,NA,NA,492,"PO BOX 1738, BLUE JAY, CA, 92317","No_Match",NA,NA,NA,NA
975493,"PO BOX 173831","ARLINGTON","TX",76003,NA,NA,493,"PO BOX 173831, ARLINGTON, TX, 76003","No_Match",NA,NA,NA,NA
975494,"PO BOX 173836","DENVER","CO",80217,NA,NA,494,"PO BOX 173836, DENVER, CO, 80217","No_Match",NA,NA,NA,NA
975495,"PO BOX 17393","HOLLADAY","UT",84117,NA,NA,495,"PO BOX 17393, HOLLADAY, UT, 84117","No_Match",NA,NA,NA,NA
975496,"PO BOX 17399","MEMPHIS","TN",38187,NA,NA,496,"PO BOX 17399, MEMPHIS, TN, 38187","No_Match",NA,NA,NA,NA
975497,"PO BOX 174 2029B AIRPORT BLVD","MOBILE","AL",36606,NA,NA,497,"PO BOX 174 2029B AIRPORT BLVD, MOBILE, AL, 36606","No_Match",NA,NA,NA,NA
975498,"PO BOX 174","ABILENE","TX",79604,NA,NA,498,"PO BOX 174, ABILENE, TX, 79604","No_Match",NA,NA,NA,NA
975499,"PO BOX 174","AMERICUS","KS",66835,NA,NA,499,"PO BOX 174, AMERICUS, KS, 66835","No_Match",NA,NA,NA,NA
975500,"PO BOX 174","ANDOVER","MN",55304,NA,NA,500,"PO BOX 174, ANDOVER, MN, 55304","No_Match",NA,NA,NA,NA
