"ID","Address","City","State","Zip","lat","long","id","input_address","match_indicator","match_type","matched_address","tiger_line_id","tiger_side"
773501,"622 OLD LOUISVILLE RD","GUYTON","GA",31312,32.3235960850001,-81.423280048,1,"622 OLD LOUISVILLE RD, GUYTON, GA, 31312","Match","Exact","622 OLD LOUISVILLE RD, GUYTON, GA, 31312",642625118,"R"
773502,"622 OMAR CIRCLE","YELLOW SPRINGS","OH",45387,39.801002872,-83.9031298039999,2,"622 OMAR CIRCLE, YELLOW SPRINGS, OH, 45387","Match","Exact","622 OMAR CIR, YELLOW SPGS, OH, 45387",143385928,"R"
773503,"622 PAJARO COURT","ATWATER","CA",95301,37.3412176640001,-120.589583186,3,"622 PAJARO COURT, ATWATER, CA, 95301","Match","Exact","622 PAJARO CT, ATWATER, CA, 95301",125314444,"R"
773504,"622 PALM DESERT","GARLAND","TX",75044,32.9603930600001,-96.627825872,4,"622 PALM DESERT, GARLAND, TX, 75044","Match","Non_Exact","622 PALM DESERT DR, GARLAND, TX, 75044",103164924,"L"
773505,"622 PARK AVENUE APT 5A","HOBOKEN","NJ",7030,40.7442687070001,-74.031638797,5,"622 PARK AVENUE APT 5A, HOBOKEN, NJ, 7030","Match","Exact","622 PARK AVE, HOBOKEN, NJ, 07030",59606898,"L"
773506,"622 PARKER AVE","DECATUR","GA",30032,33.7348139100001,-84.3005926979999,6,"622 PARKER AVE, DECATUR, GA, 30032","Match","Non_Exact","622 PARKER AVE SE, DECATUR, GA, 30032",23368220,"L"
773507,"622 PARKFAIR PL","COLUMBUS","OH",43213,39.9672151390001,-82.8342190499999,7,"622 PARKFAIR PL, COLUMBUS, OH, 43213","Match","Exact","622 PARKFAIR PL, COLUMBUS, OH, 43213",135607699,"R"
773508,"622 PARTHENON PL","NEW CANEY","TX",77357,30.179805362,-95.156078024,8,"622 PARTHENON PL, NEW CANEY, TX, 77357","Match","Exact","622 PARTHENON PL, NEW CANEY, TX, 77357",79292808,"L"
773509,"622 PELZER DRIVE","MOUNT PLESANT","SC",29464,32.7985511160001,-79.877063493,9,"622 PELZER DRIVE, MOUNT PLESANT, SC, 29464","Match","Non_Exact","622 PELZER DR, MOUNT PLEASANT, SC, 29464",108808481,"L"
773510,"622 PINE STREET","NEW ORLEANS","LA",70118,29.9380626510001,-90.1273356249999,10,"622 PINE STREET, NEW ORLEANS, LA, 70118","Match","Exact","622 PINE ST, NEW ORLEANS, LA, 70118",191701748,"L"
773511,"622 PINE VALLEY","RICHARDSON","TX",75081,32.935100166,-96.7162020649999,11,"622 PINE VALLEY, RICHARDSON, TX, 75081","Match","Exact","622 PINE VALLEY, RICHARDSON, TX, 75081",103251791,"L"
773512,"622 PORTLAND BLVD","PORTLAND","TN",37148,36.5939481450001,-86.503408491,12,"622 PORTLAND BLVD, PORTLAND, TN, 37148","Match","Exact","622 PORTLAND BLVD, PORTLAND, TN, 37148",637318880,"L"
773513,"622 PROSPECT WALK","CLIFTON FORGE","VA",24422,37.818589274,-79.8217702709999,13,"622 PROSPECT WALK, CLIFTON FORGE, VA, 24422","Match","Exact","622 PROSPECT WALK, CLIFTON FORGE, VA, 24422",62550406,"R"
773514,"622 QUALLA ROAD","HAYESVILLE","NC",28904,35.0545675440001,-83.8262236749999,14,"622 QUALLA ROAD, HAYESVILLE, NC, 28904","Match","Exact","622 QUALLA RD, HAYESVILLE, NC, 28904",608050281,"L"
773515,"622 QUEENS HARBOR DR","JACKSONVILLE","FL",32225,30.3313181400001,-81.453873175,15,"622 QUEENS HARBOR DR, JACKSONVILLE, FL, 32225","Match","Non_Exact","622 QUEENS HARBOR BLVD, JACKSONVILLE, FL, 32225",650635275,"R"
773516,"622 RED OAK LN","HINESVILLE","GA",31313,31.8344700110001,-81.5737086629999,16,"622 RED OAK LN, HINESVILLE, GA, 31313","Match","Exact","622 RED OAK LN, HINESVILLE, GA, 31313",619384069,"R"
773517,"622 RIPPLING STREAM ROAD","DURHAM","NC",27704,36.0731982180001,-78.9011963849999,17,"622 RIPPLING STREAM ROAD, DURHAM, NC, 27704","Match","Exact","622 RIPPLING STREAM RD, DURHAM, NC, 27704",71735596,"R"
773518,"622 RIVER LANDING DRIVE","SODDY DAISY","TN",37379,35.2795509970001,-85.147647238,18,"622 RIVER LANDING DRIVE, SODDY DAISY, TN, 37379","Match","Exact","622 RIVER LANDING DR, SODDY DAISY, TN, 37379",59329777,"L"
773519,"622 ROCK CREEK ROAD","HOT SPRINGS","AR",71913,34.4673802450001,-93.159872655,19,"622 ROCK CREEK ROAD, HOT SPRINGS, AR, 71913","Match","Exact","622 ROCK CREEK RD, HOT SPRINGS, AR, 71913",645716168,"R"
773520,"622 ROOD AVE UNIT C","GRAND JUNCTION","CO",81501,39.068310544,-108.562280981,20,"622 ROOD AVE UNIT C, GRAND JUNCTION, CO, 81501","Match","Exact","622 ROOD AVE, GRAND JCT, CO, 81501",122432452,"L"
773521,"622 ROUNDSTONE DRIVE","WELDON SPRING","MO",63304,38.7160046180001,-90.620756472,21,"622 ROUNDSTONE DRIVE, WELDON SPRING, MO, 63304","Match","Exact","622 ROUNDSTONE DR, WELDON SPRING, MO, 63304",100088899,"L"
773522,"622 ROY SNEAD ROAD","NIANTIC","IL",62551,39.8618599320001,-89.158681381,22,"622 ROY SNEAD ROAD, NIANTIC, IL, 62551","Match","Exact","622 SNEAD RD, NIANTIC, IL, 62551",20761754,"R"
773523,"622 ROYAL ST APT A","LAKE CHARLES","LA",70607,30.170097771,-93.2134353709999,23,"622 ROYAL ST APT A, LAKE CHARLES, LA, 70607","Match","Exact","622 ROYAL ST, LAKE CHARLES, LA, 70607",88438514,"R"
773524,"622 RUTH WAY","LIVERMORE","CA",94550,37.6769437990001,-121.793158382,24,"622 RUTH WAY, LIVERMORE, CA, 94550","Match","Exact","622 RUTH WAY, LIVERMORE, CA, 94550",125035117,"L"
773525,"622 S 17TH ST","LOUISVILLE","KY",40203,38.2503346510001,-85.779569635,25,"622 S 17TH ST, LOUISVILLE, KY, 40203","Match","Exact","622 S 17TH ST, LOUISVILLE, KY, 40203",96842173,"R"
773526,"622 S BLUFF STREET","MONTICELLO","IN",47960,40.737131877,-86.760328368,26,"622 S BLUFF STREET, MONTICELLO, IN, 47960","Match","Exact","622 S BLUFF ST, MONTICELLO, IN, 47960",27366024,"L"
773527,"622 S BOWIE RD","GOLDEN VALLEY","AZ",86413,NA,NA,27,"622 S BOWIE RD, GOLDEN VALLEY, AZ, 86413","Tie",NA,NA,NA,NA
773528,"622 S MANGONIA CIR","WEST PALM BEACH","FL",33401,26.718446187,-80.076412277,28,"622 S MANGONIA CIR, WEST PALM BEACH, FL, 33401","Match","Exact","622 S MANGONIA CIR, WEST PALM BEACH, FL, 33401",115579874,"R"
773529,"622 S STUDIO LANE","EDINBURG","TX",78542,26.2893889110001,-98.105276342,29,"622 S STUDIO LANE, EDINBURG, TX, 78542","Match","Exact","622 STUDIO LN, EDINBURG, TX, 78542",625296369,"R"
773530,"622 S US HWY 281","GREAT BEND","KS",67530,38.2731196840001,-98.7560529949999,30,"622 S US HWY 281, GREAT BEND, KS, 67530","Match","Exact","622 US HWY 281, GREAT BEND, KS, 67530",132560493,"R"
773531,"622 SALVIA LANE","SCHENECTADY","NY",12303,42.7391763910001,-73.9336181469999,31,"622 SALVIA LANE, SCHENECTADY, NY, 12303","Match","Exact","622 SALVIA LN, SCHENECTADY, NY, 12303",18325468,"R"
773532,"622 SANFORD ST APT 4","COVINGTON","KY",41011,39.0849478710001,-84.506258837,32,"622 SANFORD ST APT 4, COVINGTON, KY, 41011","Match","Exact","622 SANFORD ST, COVINGTON, KY, 41011",103876160,"L"
773533,"622 SANTOS CT","MILPITAS","CA",95035,37.4448135210001,-121.884476699,33,"622 SANTOS CT, MILPITAS, CA, 95035","Match","Exact","622 SANTOS CT, MILPITAS, CA, 95035",123179175,"R"
773534,"622 SARATOGA DRIVE","CHICAGO HEIGHTS","IL",60411,41.5200203840001,-87.668037525,34,"622 SARATOGA DRIVE, CHICAGO HEIGHTS, IL, 60411","Match","Exact","622 SARATOGA DR, CHICAGO HEIGHTS, IL, 60411",111711040,"L"
773535,"622 SCAGGS","FALMOUTH","KY",41040,38.6465614890001,-84.396887443,35,"622 SCAGGS, FALMOUTH, KY, 41040","Match","Non_Exact","622 SCAGGS DR, FALMOUTH, KY, 41040",104485891,"L"
773536,"622 SCOOTER WAY","STOCKTON","CA",95209,38.053359684,-121.320520682,36,"622 SCOOTER WAY, STOCKTON, CA, 95209","Match","Exact","622 SCOOTER WAY, STOCKTON, CA, 95209",630318769,"L"
773537,"622 SCOTTS STORE ROAD","GRANTSBORO","NC",28529,35.113802519,-76.849161051,37,"622 SCOTTS STORE ROAD, GRANTSBORO, NC, 28529","Match","Exact","622 SCOTTS STORE RD, GRANTSBORO, NC, 28529",67926223,"L"
773538,"622 SE 21ST ST","CAPE CORAL","FL",33990,26.6136509880001,-81.960984718,38,"622 SE 21ST ST, CAPE CORAL, FL, 33990","Match","Exact","622 SE 21ST ST, CAPE CORAL, FL, 33990",118088953,"R"
773539,"622 SECOND ST","BRIDGEWATER","NJ",8807,40.5616461820001,-74.577437822,39,"622 SECOND ST, BRIDGEWATER, NJ, 8807","Match","Exact","622 SECOND ST, BRIDGEWATER, NJ, 08807",59938830,"R"
773540,"622 SENECA AVENUE","NORWOOD","PA",19074,39.8839984750001,-75.2986879169999,40,"622 SENECA AVENUE, NORWOOD, PA, 19074","Match","Exact","622 SENECA AVE, NORWOOD, PA, 19074",134885854,"L"
773541,"622 SHADOWCLIFF COURT","LEAGUE CITY","TX",77573,29.51432541,-95.043655964,41,"622 SHADOWCLIFF COURT, LEAGUE CITY, TX, 77573","Match","Exact","622 SHADOWCLIFF CT, LEAGUE CITY, TX, 77573",96742573,"R"
773542,"622 SILVERBOW AVE","BELGRADE","MT",59714,45.7697241500001,-111.174667658,42,"622 SILVERBOW AVE, BELGRADE, MT, 59714","Match","Exact","622 SILVERBOW AVE, BELGRADE, MT, 59714",163494349,"L"
773543,"622 SILVERLEAF ROAD","FLOYD","VA",24091,36.944784708,-80.180669908,43,"622 SILVERLEAF ROAD, FLOYD, VA, 24091","Match","Non_Exact","622 SILVERLEAF RD SE, FLOYD, VA, 24091",79769665,"R"
773544,"622 SILVERWOOD ST","OCEANSIDE","CA",92058,33.235220349,-117.332476969,44,"622 SILVERWOOD ST, OCEANSIDE, CA, 92058","Match","Exact","622 SILVERWOOD ST, OCEANSIDE, CA, 92058",195283665,"R"
773545,"622 SKYLINE DRIVE","NORTH LITTLE ROCK","AR",72116,34.781243422,-92.2538947,45,"622 SKYLINE DRIVE, NORTH LITTLE ROCK, AR, 72116","Match","Exact","622 SKYLINE DR, N LITTLE ROCK, AR, 72116",83514437,"R"
773546,"622 SKYWAY DR","SAN JOSE","CA",95111,37.2729857350001,-121.810749464,46,"622 SKYWAY DR, SAN JOSE, CA, 95111","Match","Exact","622 SKYWAY DR, SAN JOSE, CA, 95111",122974301,"R"
773547,"622 SNAKE HILL ROAD","MORGANTOWN","WV",26508,39.629608132,-79.844814183,47,"622 SNAKE HILL ROAD, MORGANTOWN, WV, 26508","Match","Exact","622 SNAKE HILL RD, MORGANTOWN, WV, 26508",50761906,"L"
773548,"622 SOMERSET BLVD","BESSEMER","AL",35020,33.386060639,-86.975203418,48,"622 SOMERSET BLVD, BESSEMER, AL, 35020","Match","Exact","622 SOMERSET BLVD, BESSEMER, AL, 35020",81628824,"L"
773549,"622 South 6th Avenue","Mount Vernon","NY",10550,40.8963207460001,-73.8333019519999,49,"622 South 6th Avenue, Mount Vernon, NY, 10550","Match","Exact","622 S 6TH AVE, MOUNT VERNON, NY, 10550",139747576,"R"
773550,"622 SOUTH GABBERT","MONTICELLO","AR",71655,33.6197530060001,-91.787415353,50,"622 SOUTH GABBERT, MONTICELLO, AR, 71655","Match","Non_Exact","622 S GABBERT ST, MONTICELLO, AR, 71655",2439787,"L"
773551,"622 SOUTH MCNIGHT ROAD","MAPLEWOOD","MN",55119,NA,NA,51,"622 SOUTH MCNIGHT ROAD, MAPLEWOOD, MN, 55119","No_Match",NA,NA,NA,NA
773552,"622 SOUTH RANDOLPH ROAD","RANDOLPH CENTER","VT",5061,43.932628171,-72.597397561,52,"622 SOUTH RANDOLPH ROAD, RANDOLPH CENTER, VT, 5061","Match","Exact","622 S RANDOLPH RD, RANDOLPH CENTER, VT, 05061",637482345,"L"
773553,"622 SOUTH STREET","EASTON","MD",21601,38.7723756820001,-76.065857159,53,"622 SOUTH STREET, EASTON, MD, 21601","Match","Exact","622 SOUTH ST, EASTON, MD, 21601",68370256,"L"
773554,"622 SPRINGHILL ROAD","VADNAIS HEIGHTS","MN",55127,45.0743453270001,-93.0745992619999,54,"622 SPRINGHILL ROAD, VADNAIS HEIGHTS, MN, 55127","Match","Exact","622 SPRINGHILL RD, VADNAIS HEIGHTS, MN, 55127",97636250,"R"
773555,"622 STONERIDGE DR","ADRIAN","MI",49221,41.910644157,-84.063725924,55,"622 STONERIDGE DR, ADRIAN, MI, 49221","Match","Exact","622 STONERIDGE DR, ADRIAN, MI, 49221",25955249,"L"
773556,"622 STONEYKIRK CIRCLE","BRANSON","MO",65737,36.687432943,-93.31632963,56,"622 STONEYKIRK CIRCLE, BRANSON, MO, 65737","Match","Non_Exact","622 STONEYKIRK CIR, BRANSON WEST, MO, 65737",635560374,"R"
773557,"622 SUNSET STREET","MANCHESTER","MI",48158,42.147986018,-84.0284409719999,57,"622 SUNSET STREET, MANCHESTER, MI, 48158","Match","Non_Exact","622 SUNSET DR, MANCHESTER, MI, 48158",26009614,"L"
773558,"622 SUSSEX ST","LYNCHBURG","VA",24501,37.391613756,-79.1809761009999,58,"622 SUSSEX ST, LYNCHBURG, VA, 24501","Match","Exact","622 SUSSEX ST, LYNCHBURG, VA, 24501",652321799,"R"
773559,"622 SW 147 TERRACE","PEMBROKE PINES","FL",33027,26.0028075550001,-80.3437849969999,59,"622 SW 147 TERRACE, PEMBROKE PINES, FL, 33027","Match","Exact","622 SW 147TH TER, PEMBROKE PINES, FL, 33027",640887908,"R"
773560,"622 SW GRAND COURT","TOPEKA","KS",66606,39.0577054390001,-95.7406018029999,60,"622 SW GRAND COURT, TOPEKA, KS, 66606","Match","Exact","622 SW GRAND CT, TOPEKA, KS, 66606",17885890,"L"
773561,"622 TURKEY POND LOOP","MORRILTON","AR",72110,35.228979945,-92.7495595359999,61,"622 TURKEY POND LOOP, MORRILTON, AR, 72110","Match","Exact","622 TURKEY POND LOOP, MORRILTON, AR, 72110",118917188,"R"
773562,"622 VAN BUREN ST","PUEBLO","CO",81004,38.2571945080001,-104.631733662,62,"622 VAN BUREN ST, PUEBLO, CO, 81004","Match","Exact","622 VAN BUREN ST, PUEBLO, CO, 81004",105024929,"L"
773563,"622 VAN DUZER STREET","STATEN ISLAND","NY",10304,40.6244259920001,-74.084998028,63,"622 VAN DUZER STREET, STATEN ISLAND, NY, 10304","Match","Exact","622 VAN DUZER ST, STATEN ISLAND, NY, 10304",59888896,"R"
773564,"622 VARNEDOE STREET","HINESVILLE","GA",31313,31.8224216580001,-81.612624969,64,"622 VARNEDOE STREET, HINESVILLE, GA, 31313","Match","Exact","622 VARNEDOE ST, HINESVILLE, GA, 31313",6346883,"R"
773565,"622 VIA COCOSPERA","RIO RICO","AZ",85648,31.500949378,-111.027533594,65,"622 VIA COCOSPERA, RIO RICO, AZ, 85648","Match","Exact","622 VIA COCOSPERA, RIO RICO, AZ, 85648",120874997,"L"
773566,"622 W 550 S","TRAFALGAR","IN",46181,39.3943877250001,-86.1155865649999,66,"622 W 550 S, TRAFALGAR, IN, 46181","Match","Non_Exact","622 W 550 S, TRAFALGAR, IN, 46181",606954736,"L"
773567,"622 W AZURE AVE","NORTH LAS VEGAS","NV",89031,36.272848815,-115.150098091,67,"622 W AZURE AVE, NORTH LAS VEGAS, NV, 89031","Match","Exact","622 W AZURE AVE, N LAS VEGAS, NV, 89031",201943776,"R"
773568,"622 W BELMONT STREET","PENSACOLA","FL",32501,30.416140387,-87.224749296,68,"622 W BELMONT STREET, PENSACOLA, FL, 32501","Match","Exact","622 W BELMONT ST, PENSACOLA, FL, 32501",93220311,"R"
773569,"622 W GETTYSBURG ST","BOISE","ID",83706,43.5804705420001,-116.18957876,69,"622 W GETTYSBURG ST, BOISE, ID, 83706","Match","Exact","622 W GETTYSBURG ST, BOISE, ID, 83706",117866559,"R"
773570,"622 W GUMP RD","FORT WAYNE","IN",46845,41.2249290830001,-85.150201657,70,"622 W GUMP RD, FORT WAYNE, IN, 46845","Match","Exact","622 W GUMP RD, FORT WAYNE, IN, 46845",646266930,"R"
773571,"622 W JEFFERSON ST","SULLIVAN","IL",61951,39.5985527920001,-88.613268416,71,"622 W JEFFERSON ST, SULLIVAN, IL, 61951","Match","Exact","622 W JEFFERSON ST, SULLIVAN, IL, 61951",5818455,"L"
773572,"622 W JEFFERSON","SULLIVAN","IL",61951,39.5985527920001,-88.613268416,72,"622 W JEFFERSON, SULLIVAN, IL, 61951","Match","Non_Exact","622 W JEFFERSON ST, SULLIVAN, IL, 61951",5818455,"L"
773573,"622 W LIGHT ST","FELICITY","OH",45120,38.841584674,-84.0978340629999,73,"622 W LIGHT ST, FELICITY, OH, 45120","Match","Exact","622 LIGHT ST, FELICITY, OH, 45120",118442881,"R"
773574,"622 W PATTERSON","CHICAGO","IL",60103,NA,NA,74,"622 W PATTERSON, CHICAGO, IL, 60103","No_Match",NA,NA,NA,NA
773575,"622 W PATTERSON","CHICAGO","IL",60613,41.9487376490001,-87.6466009809999,75,"622 W PATTERSON, CHICAGO, IL, 60613","Match","Non_Exact","622 W PATTERSON AVE, CHICAGO, IL, 60613",111766661,"R"
773576,"622 W PRINCETON AVE","YOUNGSTOWN","OH",44511,41.0733777360001,-80.673515486,76,"622 W PRINCETON AVE, YOUNGSTOWN, OH, 44511","Match","Exact","622 W PRINCETON AVE, YOUNGSTOWN, OH, 44511",64595024,"R"
773577,"622 W RAPSODY SUITE A","SAN ANTONIO","TX",78216,NA,NA,77,"622 W RAPSODY SUITE A, SAN ANTONIO, TX, 78216","No_Match",NA,NA,NA,NA
773578,"622 W STATE RD 16","LUCERNE","IN",46950,NA,NA,78,"622 W STATE RD 16, LUCERNE, IN, 46950","No_Match",NA,NA,NA,NA
773579,"622 W STONE STREET","DESOTO","MO",63020,38.1346340750001,-90.561715133,79,"622 W STONE STREET, DESOTO, MO, 63020","Match","Non_Exact","622 W STONE ST, DE SOTO, MO, 63020",607887094,"R"
773580,"622 WAINAKU STREET","HILO","HI",96720,19.7410444020001,-155.09203163,80,"622 WAINAKU STREET, HILO, HI, 96720","Match","Exact","622 WAINAKU ST, HILO, HI, 96720",635536320,"R"
773581,"622 WELLINGTON DR","KAYSVILLE","UT",84037,41.0245882340001,-111.972894359,81,"622 WELLINGTON DR, KAYSVILLE, UT, 84037","Match","Non_Exact","622 S WELLINGTON DR, KAYSVILLE, UT, 84037",619894187,"L"
773582,"622 WEST 136TH STREET","NEW YORK","NY",10031,40.8210118550001,-73.955169015,82,"622 WEST 136TH STREET, NEW YORK, NY, 10031","Match","Exact","622 W 136TH ST, NEW YORK, NY, 10031",59655869,"L"
773583,"622 WEST 168TH STREET","NEW YORK","NY",10032,40.8415585500001,-73.940897548,83,"622 WEST 168TH STREET, NEW YORK, NY, 10032","Match","Exact","622 W 168TH ST, NEW YORK, NY, 10032",59655674,"L"
773584,"622 WEST AVE","RED WING","MN",55066,44.560896642,-92.53391544,84,"622 WEST AVE, RED WING, MN, 55066","Match","Exact","622 WEST AVE, RED WING, MN, 55066",31539146,"L"
773585,"622 WEST COURT AVENUE","WINTERSET","IA",50273,41.334446304,-94.0209247069999,85,"622 WEST COURT AVENUE, WINTERSET, IA, 50273","Match","Exact","622 W COURT AVE, WINTERSET, IA, 50273",75196795,"L"
773586,"622 WEST ELM ST","RIVER FALLS","WI",54022,44.8588251800001,-92.632513885,86,"622 WEST ELM ST, RIVER FALLS, WI, 54022","Match","Exact","622 W ELM ST, RIVER FALLS, WI, 54022",95855915,"L"
773587,"622 WEST ST PAUL STREET","LITCHFIELD","MN",55355,45.1212891910001,-94.5370841119999,87,"622 WEST ST PAUL STREET, LITCHFIELD, MN, 55355","Match","Exact","622 W SAINT PAUL ST, LITCHFIELD, MN, 55355",36973399,"R"
773588,"622 WESTBROOKE DRIVE","ELIZABETHTOWN","PA",17022,40.1374503120001,-76.563852782,88,"622 WESTBROOKE DRIVE, ELIZABETHTOWN, PA, 17022","Match","Exact","622 WESTBROOKE DR, ELIZABETHTOWN, PA, 17022",179717614,"L"
773589,"622 WESTVIEW AVE","BEDFORD","VA",24523,37.3443839120001,-79.520434468,89,"622 WESTVIEW AVE, BEDFORD, VA, 24523","Match","Exact","622 WESTVIEW AVE, BEDFORD, VA, 24523",62633066,"R"
773590,"622 WILLOWWOOD CT","ALTAMONTE SPRINGS","FL",32714,28.675067347,-81.4114725159999,90,"622 WILLOWWOOD CT, ALTAMONTE SPRINGS, FL, 32714","Match","Non_Exact","622 WILLOWWOOD AVE, ALTAMONTE SPRINGS, FL, 32714",93735370,"L"
773591,"622 WILSON BLVD","MISHAWAKA","IN",46545,41.664986147,-86.190592851,91,"622 WILSON BLVD, MISHAWAKA, IN, 46545","Match","Exact","622 WILSON BLVD, MISHAWAKA, IN, 46545",8085573,"R"
773592,"622 WINCHESTER STREET","DAYTONA BEACH","FL",32114,29.222083723,-81.035232663,92,"622 WINCHESTER STREET, DAYTONA BEACH, FL, 32114","Match","Exact","622 WINCHESTER ST, DAYTONA BEACH, FL, 32114",94524340,"R"
773593,"622 WINCHESTER STREET","DAYTONA","FL",32114,29.222083723,-81.035232663,93,"622 WINCHESTER STREET, DAYTONA, FL, 32114","Match","Non_Exact","622 WINCHESTER ST, DAYTONA BEACH, FL, 32114",94524340,"R"
773594,"622 WIND RIVER CT","WINDSOR","CO",80550,40.488520441,-104.8859765,94,"622 WIND RIVER CT, WINDSOR, CO, 80550","Match","Exact","622 WIND RIVER CT, WINDSOR, CO, 80550",614122947,"L"
773595,"622 WINSTON ST","FRANKLINTON","NC",27525,36.1172983760001,-78.4528177129999,95,"622 WINSTON ST, FRANKLINTON, NC, 27525","Match","Exact","622 WINSTON ST, FRANKLINTON, NC, 27525",90236029,"R"
773596,"622 YORKSHIRE DR","DEKALB","IL",60115,41.926363227,-88.766968934,96,"622 YORKSHIRE DR, DEKALB, IL, 60115","Match","Exact","622 YORKSHIRE DR, DEKALB, IL, 60115",52278576,"R"
773597,"6220 ALDER DR APT  3616","HOUSTON","TX",77081,NA,NA,97,"6220 ALDER DR APT  3616, HOUSTON, TX, 77081","No_Match",NA,NA,NA,NA
773598,"6220 ALDER ST 3801","HOUSTON","TX",77081,29.714228586,-95.4805862969999,98,"6220 ALDER ST 3801, HOUSTON, TX, 77081","Match","Non_Exact","6220 ALDER DR, HOUSTON, TX, 77081",96614958,"R"
773599,"6220 BUENA VISTA","LEXINGTON","MI",48450,43.24722582,-82.533770104,99,"6220 BUENA VISTA, LEXINGTON, MI, 48450","Match","Non_Exact","6220 BUENA VISTA RD, LEXINGTON, MI, 48450",111058560,"L"
773600,"6220 BUSHNELL RD","CONNEAUT","OH",44030,41.862883792,-80.5616836789999,100,"6220 BUSHNELL RD, CONNEAUT, OH, 44030","Match","Exact","6220 BUSHNELL RD, CONNEAUT, OH, 44030",117316573,"R"
773601,"6220 CALAMARI PLACE","RIVERVIEW","FL",33578,27.88556601,-82.335741167,101,"6220 CALAMARI PLACE, RIVERVIEW, FL, 33578","Match","Exact","6220 CALAMARI PL, RIVERVIEW, FL, 33578",104641188,"R"
773602,"6220 CASS HOLT RD","HOLLY SPRINGS","NC",27540,35.61255355,-78.8679163479999,102,"6220 CASS HOLT RD, HOLLY SPRINGS, NC, 27540","Match","Exact","6220 CASS HOLT RD, HOLLY SPRINGS, NC, 27540",72665102,"L"
773603,"6220 CHAVEL LANE","CHARLOTTE","NC",28269,35.3769365540001,-80.778825345,103,"6220 CHAVEL LANE, CHARLOTTE, NC, 28269","Match","Exact","6220 CHAVEL LN, CHARLOTTE, NC, 28269",70531536,"R"
773604,"6220 Covington Way","GOLETA","CA",93117,34.4449143690001,-119.840338215,104,"6220 Covington Way, GOLETA, CA, 93117","Match","Exact","6220 COVINGTON WAY, GOLETA, CA, 93117",108659040,"R"
773605,"6220 CREST GREEN ROAD APT 108","BIRMINGHAM","AL",35212,33.5339773420001,-86.734987721,105,"6220 CREST GREEN ROAD APT 108, BIRMINGHAM, AL, 35212","Match","Non_Exact","6220 CREST GREEN RD S, BIRMINGHAM, AL, 35212",640553107,"L"
773606,"6220 DE LONGPRE AVE UNIT 4","LOS ANGELES","CA",90028,34.0961888800001,-118.324448225,106,"6220 DE LONGPRE AVE UNIT 4, LOS ANGELES, CA, 90028","Match","Non_Exact","6220 DE LONGPRE AVE, LOS ANGELES, CA, 90028",141599828,"L"
773607,"6220 DIVISION RD","HUNINGTON","WV",25705,38.41830881,-82.305370728,107,"6220 DIVISION RD, HUNINGTON, WV, 25705","Match","Non_Exact","6220 DIVISION RD, HUNTINGTON, WV, 25705",101321208,"R"
773608,"6220 E 8TH ST","WICHITA","KS",67208,37.6992765190001,-97.264202401,108,"6220 E 8TH ST, WICHITA, KS, 67208","Match","Non_Exact","6220 E 8TH ST N, WICHITA, KS, 67208",115639799,"L"
773609,"6220 E EXTER BLVD","SCOTTSDALE","AZ",85254,33.498339607,-111.946645941,109,"6220 E EXTER BLVD, SCOTTSDALE, AZ, 85254","Match","Non_Exact","6220 E EXETER BLVD, SCOTTSDALE, AZ, 85251",128222350,"L"
773610,"6220 EAST TEXAS ST","BOSSIER CITY","LA",71111,32.53998462,-93.651749253,110,"6220 EAST TEXAS ST, BOSSIER CITY, LA, 71111","Match","Exact","6220 E TEXAS ST, BOSSIER CITY, LA, 71111",618239999,"R"
773611,"6220 EAST TEXAS STREET","BOSSIER CITY","LA",71101,32.53998462,-93.651749253,111,"6220 EAST TEXAS STREET, BOSSIER CITY, LA, 71101","Match","Non_Exact","6220 E TEXAS ST, BOSSIER CITY, LA, 71111",618239999,"R"
773612,"6220 FENWOOD CT","SACRAMENTO","CA",95831,38.5153944190001,-121.521102139,112,"6220 FENWOOD CT, SACRAMENTO, CA, 95831","Match","Non_Exact","6220 FENNWOOD CT, SACRAMENTO, CA, 95831",133322832,"L"
773613,"6220 HARTZELL RD","GREENVILLE","OH",45331,40.098258232,-84.555551538,113,"6220 HARTZELL RD, GREENVILLE, OH, 45331","Match","Exact","6220 HARTZELL RD, GREENVILLE, OH, 45331",54549890,"L"
773614,"6220 HICKORY TRAIL","ATLANTA","GA",30349,33.587758369,-84.4898017639999,114,"6220 HICKORY TRAIL, ATLANTA, GA, 30349","Match","Exact","6220 HICKORY TRL, ATLANTA, GA, 30349",623855952,"L"
773615,"6220 HILBERT RIDGE DR","HOLLY SPRINGS","NC",27540,35.605868328,-78.8603093949999,115,"6220 HILBERT RIDGE DR, HOLLY SPRINGS, NC, 27540","Match","Exact","6220 HILBERT RIDGE DR, HOLLY SPRINGS, NC, 27540",72597343,"L"
773616,"6220 IVEY SPRINGS CHASE","CUMMING","GA",30040,34.1960586970001,-84.238147538,116,"6220 IVEY SPRINGS CHASE, CUMMING, GA, 30040","Match","Exact","6220 IVEY SPRINGS CHASE, CUMMING, GA, 30040",634101187,"L"
773617,"6220 JACKSON ST","GROVES","TX",77619,29.952594145,-93.926570292,117,"6220 JACKSON ST, GROVES, TX, 77619","Match","Non_Exact","6220 JACKSON BLVD, GROVES, TX, 77619",73862491,"R"
773618,"6220 KELLER DRIVE","PORT RICHEY","FL",34668,28.3002791430001,-82.7115076599999,118,"6220 KELLER DRIVE, PORT RICHEY, FL, 34668","Match","Exact","6220 KELLER DR, PORT RICHEY, FL, 34668",86340447,"L"
773619,"6220 LAKE COVE DRIVE","TUSCALOOSA","AL",35406,33.273731593,-87.499593986,119,"6220 LAKE COVE DRIVE, TUSCALOOSA, AL, 35406","Match","Exact","6220 LAKE COVE DR, TUSCALOOSA, AL, 35406",82194355,"R"
773620,"6220 LEON ROAD","DEMING","NM",88030,NA,NA,120,"6220 LEON ROAD, DEMING, NM, 88030","No_Match",NA,NA,NA,NA
773621,"6220 LYNNCHESTER DRIVE","LOUISVILLE","KY",40219,38.152147675,-85.646222952,121,"6220 LYNNCHESTER DRIVE, LOUISVILLE, KY, 40219","Match","Exact","6220 LYNNCHESTER DR, LOUISVILLE, KY, 40219",96883026,"R"
773622,"6220 MAGNOLIA STREET","PHILADELPHIA","PA",19144,40.0465522900001,-75.175620066,122,"6220 MAGNOLIA STREET, PHILADELPHIA, PA, 19144","Match","Exact","6220 MAGNOLIA ST, PHILADELPHIA, PA, 19144",131395495,"L"
773623,"6220 MAIN BRANCH ROAD","SAN RAMON","CA",94582,37.7655320060001,-121.913657269,123,"6220 MAIN BRANCH ROAD, SAN RAMON, CA, 94582","Match","Exact","6220 MAIN BRANCH RD, SAN RAMON, CA, 94582",639862131,"L"
773624,"6220 MCCOY","AMARILLO","TX",79109,35.1634905340001,-101.906099598,124,"6220 MCCOY, AMARILLO, TX, 79109","Match","Non_Exact","6220 MCCOY DR, AMARILLO, TX, 79109",182652905,"R"
773625,"6220 MELINDA DR","WATAUGA","TX",76148,32.856838408,-97.247889583,125,"6220 MELINDA DR, WATAUGA, TX, 76148","Match","Exact","6220 MELINDA DR, WATAUGA, TX, 76148",101862623,"L"
773626,"6220 MORGAN DRIVE","OLIVE BRANCH","MS",38654,34.9509529640001,-89.915709626,126,"6220 MORGAN DRIVE, OLIVE BRANCH, MS, 38654","Match","Exact","6220 MORGAN DR, OLIVE BRANCH, MS, 38654",91834846,"R"
773627,"6220 N CYPRESS AVE","KANSAS CITY","MO",64119,39.212189929,-94.526264339,127,"6220 N CYPRESS AVE, KANSAS CITY, MO, 64119","Match","Exact","6220 N CYPRESS AVE, KANSAS CITY, MO, 64119",89774800,"L"
773628,"6220 N FARMINGTON","WESTLAND","MI",48185,42.330477844,-83.3698516809999,128,"6220 N FARMINGTON, WESTLAND, MI, 48185","Match","Non_Exact","6220 N FARMINGTON RD, WESTLAND, MI, 48185",95414455,"R"
773629,"6220 NORTH HOWARD STREET","PHILADELPHIA","PA",19120,40.044855942,-75.120727657,129,"6220 NORTH HOWARD STREET, PHILADELPHIA, PA, 19120","Match","Exact","6220 N HOWARD ST, PHILADELPHIA, PA, 19120",131414462,"L"
773630,"6220 NW 2ND CIRCLE  APT 318","LINCOLN","NE",68521,40.8710156590001,-96.7241801009999,130,"6220 NW 2ND CIRCLE  APT 318, LINCOLN, NE, 68521","Match","Non_Exact","6220 NW 2ND CIR, LINCOLN, NE, 68521",609056539,"R"
773631,"6220 NW 97TH","JOHNSTON","IA",50131,41.673870665,-93.751881444,131,"6220 NW 97TH, JOHNSTON, IA, 50131","Match","Non_Exact","6220 NW 97TH ST, JOHNSTON, IA, 50131",65857003,"L"
773632,"6220 OLD DAVIS RD","SIMS","NC",27880,35.7407801700001,-78.046166122,132,"6220 OLD DAVIS RD, SIMS, NC, 27880","Match","Exact","6220 OLD DAVIS RD, SIMS, NC, 27880",26730375,"R"
773633,"6220 PACIFIC AVE 303","PLAYA DEL REY","CA",NA,33.9621426150001,-118.452849638,133,"6220 PACIFIC AVE 303, PLAYA DEL REY, CA, ","Match","Exact","6220 PACIFIC AVE, PLAYA DEL REY, CA, 90293",141577031,"L"
773634,"6220 PERRY AVE N","BROOKLYN CENTER","MN",55429,45.0681335,-93.342422748,134,"6220 PERRY AVE N, BROOKLYN CENTER, MN, 55429","Match","Exact","6220 PERRY AVE N, BROOKLYN CENTER, MN, 55429",43615084,"R"
773635,"6220 PINE BLUFF DR","CUMMINGS","GA",30040,34.195312716,-84.227766372,135,"6220 PINE BLUFF DR, CUMMINGS, GA, 30040","Match","Non_Exact","6220 PINE BLUFF DR, CUMMING, GA, 30040",646160249,"R"
773636,"6220 PINE SISTER GLEN","LAKEWOOD RANCH","FL",34202,NA,NA,136,"6220 PINE SISTER GLEN, LAKEWOOD RANCH, FL, 34202","No_Match",NA,NA,NA,NA
773637,"6220 RACE STREET","PHILADELPHIA","PA",19139,39.9656581690001,-75.245014418,137,"6220 RACE STREET, PHILADELPHIA, PA, 19139","Match","Exact","6220 RACE ST, PHILADELPHIA, PA, 19139",131439146,"L"
773638,"6220 RASSLER AVE","LAS VEGAS","NV",89107,36.1780333300001,-115.227330879,138,"6220 RASSLER AVE, LAS VEGAS, NV, 89107","Match","Exact","6220 RASSLER AVE, LAS VEGAS, NV, 89107",201859948,"R"
773639,"6220 RIVERSIDE DR 554","METAIRIE","LA",70003,30.0090867260001,-90.213406736,139,"6220 RIVERSIDE DR 554, METAIRIE, LA, 70003","Match","Exact","6220 RIVERSIDE DR, METAIRIE, LA, 70003",93494231,"L"
773640,"6220 S 51ST ST APT 2","GREENDALE","WI",53219,NA,NA,140,"6220 S 51ST ST APT 2, GREENDALE, WI, 53219","No_Match",NA,NA,NA,NA
773641,"6220 S BEN BURR RD","SPOKANE","WA",99223,47.597213653,-117.34956782,141,"6220 S BEN BURR RD, SPOKANE, WA, 99223","Match","Exact","6220 S BEN BURR RD, SPOKANE, WA, 99223",189887827,"R"
773642,"6220 SE 92ND AVE","PORTLAND","OR",97266,45.4779271100001,-122.568608802,142,"6220 SE 92ND AVE, PORTLAND, OR, 97266","Match","Exact","6220 SE 92ND AVE, PORTLAND, OR, 97266",157520652,"L"
773643,"6220 SHALLOFORD RDW","CHATTANNOOGA","TN",37421,NA,NA,143,"6220 SHALLOFORD RDW, CHATTANNOOGA, TN, 37421","No_Match",NA,NA,NA,NA
773644,"6220 SHALLOWFORD RD APT 40","CHATTANOOGA","TN",37421,35.0514061310001,-85.177050666,144,"6220 SHALLOWFORD RD APT 40, CHATTANOOGA, TN, 37421","Match","Exact","6220 SHALLOWFORD RD, CHATTANOOGA, TN, 37421",649779078,"R"
773645,"6220 SHALLOWFORD RD","CHATTANNOOGA","TN",37421,35.0514061310001,-85.177050666,145,"6220 SHALLOWFORD RD, CHATTANNOOGA, TN, 37421","Match","Non_Exact","6220 SHALLOWFORD RD, CHATTANOOGA, TN, 37421",649779078,"R"
773646,"6220 SIXTH AVE N","ST PETERSBURG","FL",33710,27.7780765460001,-82.720614944,146,"6220 SIXTH AVE N, ST PETERSBURG, FL, 33710","Match","Exact","6220 6TH AVE N, SAINT PETERSBURG, FL, 33710",124698477,"L"
773647,"6220 SMITH","CRYSTAL LAKE","IL",60014,42.2388183800001,-88.276945176,147,"6220 SMITH, CRYSTAL LAKE, IL, 60014","Match","Non_Exact","6220 SMITH RD, CRYSTAL LAKE, IL, 60014",119832296,"L"
773648,"6220 SOUTH MARTIN DRIVE","DURAND","MI",48429,42.908151079,-83.969632486,148,"6220 SOUTH MARTIN DRIVE, DURAND, MI, 48429","Match","Non_Exact","6220 MARTIN DR, DURAND, MI, 48429",23653014,"R"
773649,"6220 STATE ROAD FL 2","PARMA","OH",44134,41.3945897030001,-81.710402877,149,"6220 STATE ROAD FL 2, PARMA, OH, 44134","Match","Exact","6220 STATE RD, PARMA, OH, 44134",61117233,"R"
773650,"6220 THOMAS DRIVE","PANAMA CITY BEACH","FL",32408,30.1505835720001,-85.7643363289999,150,"6220 THOMAS DRIVE, PANAMA CITY BEACH, FL, 32408","Match","Exact","6220 THOMAS DR, PANAMA CITY BEACH, FL, 32408",7079801,"L"
773651,"6220 W BUENA VISTA CT","VISALIA","CA",93291,36.345992091,-119.359750906,151,"6220 W BUENA VISTA CT, VISALIA, CA, 93291","Match","Exact","6220 W BUENA VISTA CT, VISALIA, CA, 93291",617656350,"R"
773652,"6220 WALSH","SAINT LOUIS","MO",63139,NA,NA,152,"6220 WALSH, SAINT LOUIS, MO, 63139","No_Match",NA,NA,NA,NA
773653,"6220 WALSH","ST LOUIS","MO",63109,38.583726545,-90.296777123,153,"6220 WALSH, ST LOUIS, MO, 63109","Match","Non_Exact","6220 WALSH ST, SAINT LOUIS, MO, 63109",605145381,"L"
773654,"6220 WHITBY LN","NORTH LITTLE ROCK","AR",72118,34.81094983,-92.268977733,154,"6220 WHITBY LN, NORTH LITTLE ROCK, AR, 72118","Match","Exact","6220 WHITBY LN, N LITTLE ROCK, AR, 72118",83507519,"R"
773655,"6220 WINDING WAY","CARMICHAEL","CA",95608,38.649032918,-121.318734807,155,"6220 WINDING WAY, CARMICHAEL, CA, 95608","Match","Exact","6220 WINDING WAY, CARMICHAEL, CA, 95608",133343463,"R"
773656,"6220 WOODLAND AVE N","SEATTLE","WA",98103,47.6741747,-122.347670495,156,"6220 WOODLAND AVE N, SEATTLE, WA, 98103","Match","Non_Exact","6220 WOODLAND PL N, SEATTLE, WA, 98103",186579630,"R"
773657,"6220 WOODWARD AVENUE","BELL","CA",90201,33.980524997,-118.185460521,157,"6220 WOODWARD AVENUE, BELL, CA, 90201","Match","Exact","6220 WOODWARD AVE, BELL, CA, 90201",142851336,"L"
773658,"6220 YOAQUIN HILLS COURT","LAS VEGAS","NV",89030,NA,NA,158,"6220 YOAQUIN HILLS COURT, LAS VEGAS, NV, 89030","No_Match",NA,NA,NA,NA
773659,"6220","SCOTTSDALE","AZ",85254,NA,NA,159,"6220, SCOTTSDALE, AZ, 85254","No_Match",NA,NA,NA,NA
773660,"62200 DEER TRAIL ROAD","BEND","OR",97701,44.058961777,-121.200905807,160,"62200 DEER TRAIL ROAD, BEND, OR, 97701","Match","Exact","62200 DEER TRAIL RD, BEND, OR, 97701",152575284,"L"
773661,"62205 OLEANDER CIRCLE","MONTROSE","CO",81403,38.450632103,-107.921788516,161,"62205 OLEANDER CIRCLE, MONTROSE, CO, 81403","Match","Exact","62205 OLEANDER CIR, MONTROSE, CO, 81403",639683262,"R"
773662,"6221 14TH STREET","SACRAMENTO","CA",95831,38.51252135,-121.507791602,162,"6221 14TH STREET, SACRAMENTO, CA, 95831","Match","Exact","6221 14TH ST, SACRAMENTO, CA, 95831",653168380,"L"
773663,"6221 37TH AVENUE NE","SEATTLE","WA",98115,47.6742210400001,-122.288041777,163,"6221 37TH AVENUE NE, SEATTLE, WA, 98115","Match","Exact","6221 37TH AVE NE, SEATTLE, WA, 98115",186586426,"L"
773664,"6221 AZELIA DR","STEDMAN","NC",28391,35.0050496920001,-78.705593675,164,"6221 AZELIA DR, STEDMAN, NC, 28391","Match","Exact","6221 AZELIA DR, STEDMAN, NC, 28391",635550432,"L"
773665,"6221 BEARD CT","GLOUSTER","OH",45732,39.5158695470001,-81.985458178,165,"6221 BEARD CT, GLOUSTER, OH, 45732","Match","Exact","6221 BEARD CT, GLOUSTER, OH, 45732",45421973,"L"
773666,"6221 BRADLEY DR","CORPUS CHRISTI","TX",78414,27.682461613,-97.368505714,166,"6221 BRADLEY DR, CORPUS CHRISTI, TX, 78414","Match","Exact","6221 BRADLEY DR, CORPUS CHRISTI, TX, 78414",178522301,"R"
773667,"6221 BRAMLEY DR","RAVENNA","OH",44266,41.1602083070001,-81.2663401459999,167,"6221 BRAMLEY DR, RAVENNA, OH, 44266","Match","Exact","6221 BRAMLEY DR, RAVENNA, OH, 44266",137524061,"L"
773668,"6221 BROPOJLAKE ROAD","BROOKS","OR",97305,NA,NA,168,"6221 BROPOJLAKE ROAD, BROOKS, OR, 97305","No_Match",NA,NA,NA,NA
773669,"6221 BRUSH ST APT 105","DETROIT","MI",48202,42.368436355,-83.066325926,169,"6221 BRUSH ST APT 105, DETROIT, MI, 48202","Match","Exact","6221 BRUSH ST, DETROIT, MI, 48202",95476822,"L"
773670,"6221 BRUSH ST","DETROIT","MI",48202,42.368436355,-83.066325926,170,"6221 BRUSH ST, DETROIT, MI, 48202","Match","Exact","6221 BRUSH ST, DETROIT, MI, 48202",95476822,"L"
773671,"6221 COPPEDGE DR","CORPUS CHRISTI","TX",78414,27.684313548,-97.3673221289999,171,"6221 COPPEDGE DR, CORPUS CHRISTI, TX, 78414","Match","Exact","6221 COPPEDGE DR, CORPUS CHRISTI, TX, 78414",178522297,"R"
773672,"6221 DANIA STREET","JUPITER","FL",33458,26.8985689790001,-80.131531619,172,"6221 DANIA STREET, JUPITER, FL, 33458","Match","Exact","6221 DANIA ST, JUPITER, FL, 33458",636396680,"R"
773673,"6221 DICKSON AVENUE","TEXAS CITY","TX",77591,29.382831493,-94.9815807689999,173,"6221 DICKSON AVENUE, TEXAS CITY, TX, 77591","Match","Exact","6221 DICKSON AVE, TEXAS CITY, TX, 77591",96687763,"L"
773674,"6221 E EASTLAND ST","TUCSON","AZ",85711,32.2109718070001,-110.860069521,174,"6221 E EASTLAND ST, TUCSON, AZ, 85711","Match","Exact","6221 E EASTLAND ST, TUCSON, AZ, 85711",121180976,"L"
773675,"6221 EASTERN AVENUE UNIT 25752","BALTIMORE","MD",21224,NA,NA,175,"6221 EASTERN AVENUE UNIT 25752, BALTIMORE, MD, 21224","No_Match",NA,NA,NA,NA
773676,"6221 EASTOVER DR","NEW ORLEANS","LA",70029,30.0450886780001,-89.9534406339999,176,"6221 EASTOVER DR, NEW ORLEANS, LA, 70029","Match","Non_Exact","6221 EASTOVER DR, NEW ORLEANS, LA, 70128",191748534,"L"
773677,"6221 EASTWOOD GLEN PL","MONTGOMERY","AL",36117,32.348821478,-86.194444694,177,"6221 EASTWOOD GLEN PL, MONTGOMERY, AL, 36117","Match","Exact","6221 EASTWOOD GLEN PL, MONTGOMERY, AL, 36117",1486449,"R"
773678,"6221 ESTATE NAZARETH","ST THOMAS","VI",802,NA,NA,178,"6221 ESTATE NAZARETH, ST THOMAS, VI, 802","No_Match",NA,NA,NA,NA
773679,"6221 FAIR OAKS AVE","BALTIMORE","MD",21214,39.3609126480001,-76.564901522,179,"6221 FAIR OAKS AVE, BALTIMORE, MD, 21214","Match","Exact","6221 FAIR OAKS AVE, BALTIMORE, MD, 21214",206410564,"R"
773680,"6221 FAIRLANE DR","OAKLAND","CA",94611,37.846499905,-122.218799092,180,"6221 FAIRLANE DR, OAKLAND, CA, 94611","Match","Exact","6221 FAIRLANE DR, OAKLAND, CA, 94611",125000027,"L"
773681,"6221 FAIRWAY BAY BLVD S","GULFPORT","FL",33707,27.7505323660001,-82.7184904549999,181,"6221 FAIRWAY BAY BLVD S, GULFPORT, FL, 33707","Match","Exact","6221 FAIRWAY BAY BLVD S, GULFPORT, FL, 33707",124745855,"R"
773682,"6221 FALLBROOK DRIVE","GARLAND","TX",75043,32.8393570590001,-96.592006892,182,"6221 FALLBROOK DRIVE, GARLAND, TX, 75043","Match","Exact","6221 FALLBROOK DR, GARLAND, TX, 75043",103202658,"R"
773683,"6221 FENWAY ST","DALLAS","TX",75217,32.729018276,-96.714383877,183,"6221 FENWAY ST, DALLAS, TX, 75217","Match","Exact","6221 FENWAY ST, DALLAS, TX, 75217",636339201,"L"
773684,"6221 FENWAY STREET","DALLAS","TX",75217,32.729018276,-96.714383877,184,"6221 FENWAY STREET, DALLAS, TX, 75217","Match","Exact","6221 FENWAY ST, DALLAS, TX, 75217",636339201,"L"
773685,"6221 FRIENDSHIP LANE","PRINCE GEORGE","VA",23875,37.2272506510001,-77.205963362,185,"6221 FRIENDSHIP LANE, PRINCE GEORGE, VA, 23875","Match","Exact","6221 FRIENDSHIP LN, PRINCE GEORGE, VA, 23875",54180174,"L"
773686,"6221 GINDA TERRACE","GLEN ALLEN","VA",23059,37.6944533970001,-77.60249121,186,"6221 GINDA TERRACE, GLEN ALLEN, VA, 23059","Match","Exact","6221 GINDA TER, GLEN ALLEN, VA, 23059",106668864,"L"
773687,"6221 GREENLEIGH AVE APT 280","BALTIMORE","MD",21220,39.3605833060001,-76.404308779,187,"6221 GREENLEIGH AVE APT 280, BALTIMORE, MD, 21220","Match","Exact","6221 GREENLEIGH AVE, BALTIMORE, MD, 21220",650936803,"R"
773688,"6221 GUNTER WAY","SAN JOSE","CA",95123,37.232725497,-121.837864403,188,"6221 GUNTER WAY, SAN JOSE, CA, 95123","Match","Exact","6221 GUNTER WAY, SAN JOSE, CA, 95123",122924325,"R"
773689,"6221 HUNGERFORD ST","LAKEWOOD","CA",90713,33.863782041,-118.110980908,189,"6221 HUNGERFORD ST, LAKEWOOD, CA, 90713","Match","Exact","6221 HUNGERFORD ST, LAKEWOOD, CA, 90713",642866890,"L"
773690,"6221 IRON ROCK ST","HOUSTON","TX",77087,29.687681162,-95.318967433,190,"6221 IRON ROCK ST, HOUSTON, TX, 77087","Match","Exact","6221 IRON ROCK ST, HOUSTON, TX, 77087",96091092,"L"
773691,"6221 LAUREL LANE","EASTMAN","GA",31023,32.1951205030001,-83.201702578,191,"6221 LAUREL LANE, EASTMAN, GA, 31023","Match","Exact","6221 LAUREL LN, EASTMAN, GA, 31023",9520117,"R"
773692,"6221 LIMEKLIN PIKE","PHILADELPHIA","PA",19141,40.0490349030001,-75.152034887,192,"6221 LIMEKLIN PIKE, PHILADELPHIA, PA, 19141","Match","Non_Exact","6221 LIMEKILN PIKE, PHILADELPHIA, PA, 19141",131440419,"R"
773693,"6221 LOMITAS DRIVE","LOS ANGELES","CA",90042,34.1075436410001,-118.178842132,193,"6221 LOMITAS DRIVE, LOS ANGELES, CA, 90042","Match","Exact","6221 LOMITAS DR, LOS ANGELES, CA, 90042",142697210,"L"
773694,"6221 MANCHESTER LANE","DAVIE","FL",33331,26.0416135830001,-80.351606878,194,"6221 MANCHESTER LANE, DAVIE, FL, 33331","Match","Exact","6221 MANCHESTER LN, DAVIE, FL, 33331",114776687,"R"
773695,"6221 MARQUETTE","ST LOUIS","MO",63139,38.5996368950001,-90.295722244,195,"6221 MARQUETTE, ST LOUIS, MO, 63139","Match","Non_Exact","6221 MARQUETTE AVE, SAINT LOUIS, MO, 63139",107599222,"R"
773696,"6221 MENIFEE DRIVE","HUNTSVILLE","AL",35810,34.801973633,-86.595641638,196,"6221 MENIFEE DRIVE, HUNTSVILLE, AL, 35810","Match","Non_Exact","6221 MENIFEE DR NW, HUNTSVILLE, AL, 35810",58115709,"L"
773697,"6221 MOONSTONE AVENUE","ALTA LOMA","CA",91701,34.1410814130001,-117.614097583,197,"6221 MOONSTONE AVENUE, ALTA LOMA, CA, 91701","Match","Exact","6221 MOONSTONE AVE, RANCHO CUCAMONGA, CA, 91701",144633986,"L"
773698,"6221 MORI STREET","MCLEAN","VA",22101,38.9277210220001,-77.152217589,198,"6221 MORI STREET, MCLEAN, VA, 22101","Match","Exact","6221 MORI ST, MCLEAN, VA, 22101",75964111,"L"
773699,"6221 NORTH HERMITAGE","CHICAGO","IL",60660,41.994994827,-87.673410598,199,"6221 NORTH HERMITAGE, CHICAGO, IL, 60660","Match","Non_Exact","6221 N HERMITAGE AVE, CHICAGO, IL, 60660",605169679,"R"
773700,"6221 NORTH LAKEWOOD AVENUE","CHICAGO","IL",60660,41.995334391,-87.662926456,200,"6221 NORTH LAKEWOOD AVENUE, CHICAGO, IL, 60660","Match","Exact","6221 N LAKEWOOD AVE, CHICAGO, IL, 60660",605179809,"R"
773701,"6221 NORTHWOOD DRIVE","BALTIMORE","MD",21212,39.3705084200001,-76.5988017889999,201,"6221 NORTHWOOD DRIVE, BALTIMORE, MD, 21212","Match","Exact","6221 NORTHWOOD DR, BALTIMORE, MD, 21212",206408342,"R"
773702,"6221 PACIFIC AVE","PLAYA DEL REY","CA",90293,33.9621373570001,-118.452861239,202,"6221 PACIFIC AVE, PLAYA DEL REY, CA, 90293","Match","Exact","6221 PACIFIC AVE, PLAYA DEL REY, CA, 90293",141577031,"R"
773703,"6221 PALM RIVER RD","TAMPA","FL",33619,27.941137552,-82.3838151209999,203,"6221 PALM RIVER RD, TAMPA, FL, 33619","Match","Exact","6221 PALM RIVER RD, TAMPA, FL, 33619",104538058,"R"
773704,"6221 QUIET COUNTRY LANE","JACKSONVILLE","FL",32218,30.448851598,-81.74934157,204,"6221 QUIET COUNTRY LANE, JACKSONVILLE, FL, 32218","Match","Exact","6221 QUIET COUNTRY LN, JACKSONVILLE, FL, 32218",83939401,"R"
773705,"6221 RIVERSIDE BLVD-APARTMENT 2","SACRAMENTO","CA",95816,NA,NA,205,"6221 RIVERSIDE BLVD-APARTMENT 2, SACRAMENTO, CA, 95816","No_Match",NA,NA,NA,NA
773706,"6221 RYAN CREEK RD","FORT WORTH","TX",76179,32.847494442,-97.424105686,206,"6221 RYAN CREEK RD, FORT WORTH, TX, 76179","Match","Exact","6221 RYAN CREEK RD, FORT WORTH, TX, 76179",648525463,"L"
773707,"6221 SALT CEDAR ROAD NE","RIO RANCH","NM",87144,35.2773264370001,-106.608841616,207,"6221 SALT CEDAR ROAD NE, RIO RANCH, NM, 87144","Match","Exact","6221 SALT CEDAR RD NE, RIO RANCHO, NM, 87144",194010123,"R"
773708,"6221 SHENFIELD LN","UNION CITY","GA",30291,33.586116541,-84.520069152,208,"6221 SHENFIELD LN, UNION CITY, GA, 30291","Match","Exact","6221 SHENFIELD LN, UNION CITY, GA, 30291",628099966,"L"
773709,"6221 SHINGLE CREEK CROSSING APT 206","BROOKLYN CENTER","MN",55430,45.0670270300001,-93.309022871,209,"6221 SHINGLE CREEK CROSSING APT 206, BROOKLYN CENTER, MN, 55430","Match","Non_Exact","6221 SHINGLE CREEK PKWY, BROOKLYN CENTER, MN, 55430",43830345,"L"
773710,"6221 SHINGLE CREEK PKWY APT 702","BROOKLYN CENTER","MN",55430,45.0670270300001,-93.309022871,210,"6221 SHINGLE CREEK PKWY APT 702, BROOKLYN CENTER, MN, 55430","Match","Exact","6221 SHINGLE CREEK PKWY, BROOKLYN CENTER, MN, 55430",43830345,"L"
773711,"6221 SHOO FLY RD","KELSEY","CA",95667,38.806087909,-120.806081037,211,"6221 SHOO FLY RD, KELSEY, CA, 95667","Match","Exact","6221 SHOO FLY RD, KELSEY, CA, 95667",636426743,"L"
773712,"6221 SO 53RD STREET APT 7","LINCOLN","NE",68516,40.749454497,-96.64688986,212,"6221 SO 53RD STREET APT 7, LINCOLN, NE, 68516","Match","Non_Exact","6221 S 53RD ST, LINCOLN, NE, 68516",609080246,"R"
773713,"6221 SONGBIRD CIRCLE","BOULDER","CO",80303,40.0086360720001,-105.209127091,213,"6221 SONGBIRD CIRCLE, BOULDER, CO, 80303","Match","Exact","6221 SONGBIRD CIR, BOULDER, CO, 80303",188170891,"L"
773714,"6221 SOUTH 2275 EAST","HOLLADAY","UT",84121,40.638383629,-111.825468883,214,"6221 SOUTH 2275 EAST, HOLLADAY, UT, 84121","Match","Exact","6221 S 2275 E, HOLLADAY, UT, 84121",176088292,"L"
773715,"6221 STAWBERRY WAY","SALISBURY","MD",21801,38.3643879530001,-75.636679401,215,"6221 STAWBERRY WAY, SALISBURY, MD, 21801","Match","Non_Exact","6221 STRAWBERRY WAY, SALISBURY, MD, 21801",114462262,"R"
773716,"6221 STONEYBROOK DRIVE","CHAMPAIGN","IL",61822,NA,NA,216,"6221 STONEYBROOK DRIVE, CHAMPAIGN, IL, 61822","No_Match",NA,NA,NA,NA
773717,"6221 STOWERS PLACE","MONTGOMERY","AL",36117,32.3551649090001,-86.199557301,217,"6221 STOWERS PLACE, MONTGOMERY, AL, 36117","Match","Exact","6221 STOWERS PL, MONTGOMERY, AL, 36117",1545716,"R"
773718,"6221 STRAWBERRY WAY","SALISBURY","MD",21801,38.3643879530001,-75.636679401,218,"6221 STRAWBERRY WAY, SALISBURY, MD, 21801","Match","Exact","6221 STRAWBERRY WAY, SALISBURY, MD, 21801",114462262,"R"
773719,"6221 THOMAS AVE SOUTH","RICHFIELD","MN",55423,44.8900168870001,-93.313739082,219,"6221 THOMAS AVE SOUTH, RICHFIELD, MN, 55423","Match","Exact","6221 THOMAS AVE S, RICHFIELD, MN, 55423",43629600,"L"
773720,"6221 W NORTH ST 137","STILESVILLE","IN",46180,39.638996761,-86.635903161,220,"6221 W NORTH ST 137, STILESVILLE, IN, 46180","Match","Exact","6221 NORTH ST, STILESVILLE, IN, 46180",89199088,"R"
773721,"6221 W ROOSEVELT RD","BERWYN","IL",60402,41.8653742130001,-87.780170798,221,"6221 W ROOSEVELT RD, BERWYN, IL, 60402","Match","Exact","6221 W ROOSEVELT RD, BERWYN, IL, 60402",111794937,"L"
773722,"6221 W ROOSEVELT ROAD","BERWYN","IL",60402,41.8653742130001,-87.780170798,222,"6221 W ROOSEVELT ROAD, BERWYN, IL, 60402","Match","Exact","6221 W ROOSEVELT RD, BERWYN, IL, 60402",111794937,"L"
773723,"6221 YALE DRIVE","HIGHLANDS RANCH","CO",80130,39.546367677,-104.915312033,223,"6221 YALE DRIVE, HIGHLANDS RANCH, CO, 80130","Match","Non_Exact","6221 E YALE DR, HIGHLANDS RANCH, CO, 80130",130819198,"R"
773724,"6221 YELLOWSTONE DRIVE","ALEXANDRIA","VA",22312,38.836232137,-77.144483495,224,"6221 YELLOWSTONE DRIVE, ALEXANDRIA, VA, 22312","Match","Exact","6221 YELLOWSTONE DR, ALEXANDRIA, VA, 22312",75981864,"L"
773725,"6222 113TH PL SE","BELLEVUE","WA",98006,47.5468034290001,-122.18892533,225,"6222 113TH PL SE, BELLEVUE, WA, 98006","Match","Exact","6222 113TH PL SE, BELLEVUE, WA, 98006",239769733,"R"
773726,"6222 BARLOW STREET","WEST LINN","OR",97068,45.371748661,-122.627883394,226,"6222 BARLOW STREET, WEST LINN, OR, 97068","Match","Exact","6222 BARLOW ST, WEST LINN, OR, 97068",157914399,"L"
773727,"6222 BRIDGEPORT DR","CAMERON PARK","CA",95682,38.6851009750001,-120.979393263,227,"6222 BRIDGEPORT DR, CAMERON PARK, CA, 95682","Match","Exact","6222 BRIDGEPORT DR, CAMERON PARK, CA, 95682",633889630,"R"
773728,"6222 BUNKER HILL DRIVE","WILLIAMSBURG","MI",49690,44.748687337,-85.451461647,228,"6222 BUNKER HILL DRIVE, WILLIAMSBURG, MI, 49690","Match","Non_Exact","6222 BUNKER HILL RD, WILLIAMSBURG, MI, 49690",145521366,"L"
773729,"6222 CARAVAL CT","BAKER","LA",70714,NA,NA,229,"6222 CARAVAL CT, BAKER, LA, 70714","No_Match",NA,NA,NA,NA
773730,"6222 CHIMNEY ROCK TRAIL","MORRISON","CO",80465,39.6047922750001,-105.1785172,230,"6222 CHIMNEY ROCK TRAIL, MORRISON, CO, 80465","Match","Exact","6222 CHIMNEY ROCK TRL, MORRISON, CO, 80465",177732003,"L"
773731,"6222 Edgewater Dr","Falls Church","VA",22041,38.852354243,-77.151306388,231,"6222 Edgewater Dr, Falls Church, VA, 22041","Match","Exact","6222 EDGEWATER DR, FALLS CHURCH, VA, 22041",76043391,"L"
773732,"6222 FOSTER STREET UNIT B","HOUSTON","TX",77021,29.6972926990001,-95.352083692,232,"6222 FOSTER STREET UNIT B, HOUSTON, TX, 77021","Match","Exact","6222 FOSTER ST, HOUSTON, TX, 77021",96074202,"R"
773733,"6222 GA HIGHWAY 37","LEARY","GA",39862,31.5111287560001,-84.529003055,233,"6222 GA HIGHWAY 37, LEARY, GA, 39862","Match","Non_Exact","6222 STATE RTE 37, LEARY, GA, 39862",93848305,"R"
773734,"6222 GOTHIC LANE","BOWIE","MD",20720,38.974098004,-76.769032812,234,"6222 GOTHIC LANE, BOWIE, MD, 20720","Match","Exact","6222 GOTHIC LN, BOWIE, MD, 20720",76398410,"L"
773735,"6222 HAZELTINE AVE NO 21","SHERMAN OAKS","CA",91401,34.183221863,-118.439971022,235,"6222 HAZELTINE AVE NO 21, SHERMAN OAKS, CA, 91401","Match","Non_Exact","6222 HAZELTINE AVE, SHERMAN OAKS, CA, 91401",141561155,"R"
773736,"6222 LEROY PLACE","CINCINNATI","OH",45230,NA,NA,236,"6222 LEROY PLACE, CINCINNATI, OH, 45230","No_Match",NA,NA,NA,NA
773737,"6222 N 181ST AVE","WADDELL","AZ",85355,33.5282722380001,-112.448487742,237,"6222 N 181ST AVE, WADDELL, AZ, 85355","Match","Exact","6222 N 181ST AVE, WADDELL, AZ, 85355",128328346,"R"
773738,"6222 N 23RD STREET TERRACE","COUNTRY CLUB","MO",64505,NA,NA,238,"6222 N 23RD STREET TERRACE, COUNTRY CLUB, MO, 64505","No_Match",NA,NA,NA,NA
773739,"6222 N OXFORD DR","SPOKANE","WA",99208,47.714646788,-117.483442447,239,"6222 N OXFORD DR, SPOKANE, WA, 99208","Match","Exact","6222 N OXFORD DR, SPOKANE, WA, 99208",189870348,"R"
773740,"6222 NORTH PINON ROAD","FLAGSTAFF","AZ",86004,35.2277988010001,-111.489108385,240,"6222 NORTH PINON ROAD, FLAGSTAFF, AZ, 86004","Match","Exact","6222 N PINON RD, FLAGSTAFF, AZ, 86004",189056234,"L"
773741,"6222 PINNACLE POON","HOUSTON","TX",77085,29.63026846,-95.476497422,241,"6222 PINNACLE POON, HOUSTON, TX, 77085","Match","Non_Exact","6222 PINACLE PT, HOUSTON, TX, 77085",96573660,"R"
773742,"6222 RICHARD BRADLEY DR","WILMINGTON","NC",28409,34.2091411800001,-77.835054049,242,"6222 RICHARD BRADLEY DR, WILMINGTON, NC, 28409","Match","Exact","6222 RICHARD BRADLEY DR, WILMINGTON, NC, 28409",152734986,"L"
773743,"6222 SEAL PLACE","WALDORF","MD",20603,38.6213139230001,-76.9511845219999,243,"6222 SEAL PLACE, WALDORF, MD, 20603","Match","Exact","6222 SEAL PL, WALDORF, MD, 20603",25384594,"R"
773744,"6222 SPENCERS GLEN WAY","SUGAR LAND","TX",77479,29.6045562470001,-95.666614511,244,"6222 SPENCERS GLEN WAY, SUGAR LAND, TX, 77479","Match","Exact","6222 SPENCERS GLEN WAY, SUGAR LAND, TX, 77479",78289356,"R"
773745,"6222 STARR ROAD","WEBSTER","WI",54893,45.8144084080001,-92.3053861069999,245,"6222 STARR ROAD, WEBSTER, WI, 54893","Match","Exact","6222 STARR RD, WEBSTER, WI, 54893",167466907,"L"
773746,"6222 UTSA BLVD","SAN ANTONIO","TX",78249,29.5791882890001,-98.609967125,246,"6222 UTSA BLVD, SAN ANTONIO, TX, 78249","Match","Exact","6222 UTSA BLVD, SAN ANTONIO, TX, 78249",101713846,"R"
773747,"6222 W NORTH AVE","WAUWATOSA","WI",53213,43.060713955,-87.990102844,247,"6222 W NORTH AVE, WAUWATOSA, WI, 53213","Match","Exact","6222 W NORTH AVE, WAUWATOSA, WI, 53213",77731142,"R"
773748,"6222 WARWOOD RD","LAKEWOOD","CA",90713,33.8352649330001,-118.11106132,248,"6222 WARWOOD RD, LAKEWOOD, CA, 90713","Match","Exact","6222 WARWOOD RD, LAKEWOOD, CA, 90713",642861121,"R"
773749,"6222 WHITE BIRCH LANE","MATTESON","ID",60443,NA,NA,249,"6222 WHITE BIRCH LANE, MATTESON, ID, 60443","No_Match",NA,NA,NA,NA
773750,"6223 18TH AVE APT 3","BROOKLYN","NY",11204,40.6207179720001,-73.9885657459999,250,"6223 18TH AVE APT 3, BROOKLYN, NY, 11204","Match","Exact","6223 18TH AVE, BROOKLYN, NY, 11204",59088384,"L"
773751,"6223 37TH STREET NW","PLAZA","ND",58771,47.9489407190001,-101.924030956,251,"6223 37TH STREET NW, PLAZA, ND, 58771","Match","Exact","6223 37TH ST NW, PLAZA, ND, 58771",200602803,"L"
773752,"6223 7TH COURT","MERIDAN","MS",39307,32.3638188580001,-88.7419961589999,252,"6223 7TH COURT, MERIDAN, MS, 39307","Match","Non_Exact","6223 7TH CT, MERIDIAN, MS, 39307",197790,"R"
773753,"6223 CANTERBURY ROAD","PINSON","AL",35216,33.6827340200001,-86.6209728759999,253,"6223 CANTERBURY ROAD, PINSON, AL, 35216","Match","Non_Exact","6223 CANTERBURY RD, PINSON, AL, 35126",81658893,"R"
773754,"6223 CATINA ST","NEW ORLEANS","LA",70124,30.0042085110001,-90.113665279,254,"6223 CATINA ST, NEW ORLEANS, LA, 70124","Match","Exact","6223 CATINA ST, NEW ORLEANS, LA, 70124",191733512,"R"
773755,"6223 CHURCHILL WAY","DALLAS","TX",75230,32.917010132,-96.798206484,255,"6223 CHURCHILL WAY, DALLAS, TX, 75230","Match","Exact","6223 CHURCHILL WAY, DALLAS, TX, 75230",102901354,"L"
773756,"6223 CIELO GRANDE DR NE","RIO RANCHO","NM",87144,35.345252143,-106.613427409,256,"6223 CIELO GRANDE DR NE, RIO RANCHO, NM, 87144","Match","Exact","6223 CIELO GRANDE DR NE, RIO RANCHO, NM, 87144",611357301,"L"
773757,"6223 CORAL GABLES DRIVE","HOUSTON","TX",77069,29.9774380210001,-95.522975532,257,"6223 CORAL GABLES DRIVE, HOUSTON, TX, 77069","Match","Exact","6223 CORAL GABLES DR, HOUSTON, TX, 77069",96130270,"R"
773758,"6223 CREEKSIDE PARK DRIVE","FULSHEAR","TX",77441,29.699888097,-95.864240948,258,"6223 CREEKSIDE PARK DRIVE, FULSHEAR, TX, 77441","Match","Exact","6223 CREEKSIDE PARK DR, FULSHEAR, TX, 77441",629608774,"L"
773759,"6223 EXETER CT","SOUTH BEND","IN",46614,41.609257223,-86.2319765839999,259,"6223 EXETER CT, SOUTH BEND, IN, 46614","Match","Exact","6223 EXETER CT, SOUTH BEND, IN, 46614",8058389,"R"
773760,"6223 GLEN WOOD LOOP","MANASSAS","VA",20112,38.6759397610001,-77.3910105319999,260,"6223 GLEN WOOD LOOP, MANASSAS, VA, 20112","Match","Exact","6223 GLEN WOOD LOOP, MANASSAS, VA, 20112",640863482,"L"
773761,"6223 HICKORY FOREST DR","CHARLOTTE","NC",28277,35.067665344,-80.8273354,261,"6223 HICKORY FOREST DR, CHARLOTTE, NC, 28277","Match","Exact","6223 HICKORY FOREST DR, CHARLOTTE, NC, 28277",647242949,"R"
773762,"6223 HIGHWAY 903","BRACEY","VA",23919,36.576137407,-78.116798146,262,"6223 HIGHWAY 903, BRACEY, VA, 23919","Match","Exact","6223 HWY 903, BRACEY, VA, 23919",54308748,"R"
773763,"6223 HOGAN DR","WEED","CA",96094,41.504007071,-122.36485157,263,"6223 HOGAN DR, WEED, CA, 96094","Match","Exact","6223 HOGAN DR, WEED, CA, 96094",635872352,"R"
773764,"6223 HOMER ST","PHILIDELPHIA","PA",19144,40.047079286,-75.175117937,264,"6223 HOMER ST, PHILIDELPHIA, PA, 19144","Match","Non_Exact","6223 HOMER ST, PHILADELPHIA, PA, 19144",131395497,"R"
773765,"6223 HOUGH RD","ALMONT","MI",48003,42.9034738500001,-83.093035399,265,"6223 HOUGH RD, ALMONT, MI, 48003","Match","Exact","6223 HOUGH RD, ALMONT, MI, 48003",110469747,"L"
773766,"6223 HWY 141 N","JONESBORO","AR",72401,NA,NA,266,"6223 HWY 141 N, JONESBORO, AR, 72401","No_Match",NA,NA,NA,NA
773767,"6223 INTERBAY AVENUE","TAMPA","FL",33611,27.8777623990001,-82.500775394,267,"6223 INTERBAY AVENUE, TAMPA, FL, 33611","Match","Exact","6223 INTERBAY AVE, TAMPA, FL, 33611",104529303,"R"
773768,"6223 JUBILEE LN","LAKELAND","FL",33813,27.9525534630001,-81.88503207,268,"6223 JUBILEE LN, LAKELAND, FL, 33813","Match","Exact","6223 JUBILEE LN, LAKELAND, FL, 33813",104862415,"R"
773769,"6223 KANSAS AVENUE","WASHINGTON","DC",20011,38.9657972910001,-77.0081424429999,269,"6223 KANSAS AVENUE, WASHINGTON, DC, 20011","Match","Non_Exact","6223 KANSAS AVE NE, WASHINGTON, DC, 20011",76222122,"R"
773770,"6223 KAREN LEE DRIVE","LANSING","MI",48917,42.745168306,-84.639178642,270,"6223 KAREN LEE DRIVE, LANSING, MI, 48917","Match","Exact","6223 KAREN LEE DR, LANSING, MI, 48917",12034641,"L"
773771,"6223 KILMER LOOP UNIT 103","ARVADA","CO",80403,39.806568596,-105.172611963,271,"6223 KILMER LOOP UNIT 103, ARVADA, CO, 80403","Match","Exact","6223 KILMER LOOP, ARVADA, CO, 80403",639954794,"R"
773772,"6223 MISTY TERRACE CT","KATY","TX",77494,29.7066568070001,-95.7632656339999,272,"6223 MISTY TERRACE CT, KATY, TX, 77494","Match","Exact","6223 MISTY TERRACE CT, KATY, TX, 77494",640246307,"R"
773773,"6223 MONTICELLO DRIVE","CONCORD","NC",28027,35.388604464,-80.679327857,273,"6223 MONTICELLO DRIVE, CONCORD, NC, 28027","Match","Non_Exact","6223 MONTICELLO DR NW, CONCORD, NC, 28027",24893366,"L"
773774,"6223 N 21ST DRIVE","PHOENIX","AZ",85015,33.5282883150001,-112.104387698,274,"6223 N 21ST DRIVE, PHOENIX, AZ, 85015","Match","Exact","6223 N 21ST DR, PHOENIX, AZ, 85015",128603348,"R"
773775,"6223 N AVONDALE AVE SUITE 125","CHICAGO","IL",60631,41.994275341,-87.8040960129999,275,"6223 N AVONDALE AVE SUITE 125, CHICAGO, IL, 60631","Match","Non_Exact","6223 N AVONDALE AVE, CHICAGO, IL, 60631",111736113,"R"
773776,"6223 NE 137TH ST","KIRKLAND","WA",98034,47.723655251,-122.258745171,276,"6223 NE 137TH ST, KIRKLAND, WA, 98034","Match","Exact","6223 NE 137TH ST, KIRKLAND, WA, 98034",186671316,"R"
773777,"6223 PLEASANT VALLEY ROAD","MAMMOTH SPRING","AR",72554,36.4766439960001,-91.7359525429999,277,"6223 PLEASANT VALLEY ROAD, MAMMOTH SPRING, AR, 72554","Match","Exact","6223 PLEASANT VALLEY RD, MAMMOTH SPRING, AR, 72554",610408446,"L"
773778,"6223 RIVINGTON DRIVE","INDIANAPOLIS","IN",46236,39.8704025170001,-85.992187961,278,"6223 RIVINGTON DRIVE, INDIANAPOLIS, IN, 46236","Match","Exact","6223 RIVINGTON DR, INDIANAPOLIS, IN, 46236",108033008,"L"
773779,"6223 S JUTINE STREET","CHICAGO","IL",60636,NA,NA,279,"6223 S JUTINE STREET, CHICAGO, IL, 60636","No_Match",NA,NA,NA,NA
773780,"6223 S LAFLIN","CHICAGO","IL",60636,NA,NA,280,"6223 S LAFLIN, CHICAGO, IL, 60636","No_Match",NA,NA,NA,NA
773781,"6223 S MORGAN STREET","CHICAGO","IL",60621,41.7811253030001,-87.6496711729999,281,"6223 S MORGAN STREET, CHICAGO, IL, 60621","Match","Exact","6223 S MORGAN ST, CHICAGO, IL, 60621",605567751,"L"
773782,"6223 SE 30TH WAY","GRESHAM","OR",97080,45.475359531,-122.370111921,282,"6223 SE 30TH WAY, GRESHAM, OR, 97080","Match","Exact","6223 SE 30TH WAY, GRESHAM, OR, 97080",157555662,"R"
773783,"6223 SE DUNBAR DR","PORTLAND","OR",97236,45.4768765850001,-122.486642756,283,"6223 SE DUNBAR DR, PORTLAND, OR, 97236","Match","Exact","6223 SE DUNBAR DR, PORTLAND, OR, 97236",633774422,"L"
773784,"6223 SIMPKINS ROAD","CAPE CHARLES","VA",23310,37.3200197560001,-75.930445455,284,"6223 SIMPKINS ROAD, CAPE CHARLES, VA, 23310","Match","Non_Exact","6223 SIMPKINS DR, CAPE CHARLES, VA, 23310",199478964,"L"
773785,"6223 TAHOE PL","WOODBURY","MN",55125,44.9094718710001,-92.980567187,285,"6223 TAHOE PL, WOODBURY, MN, 55125","Match","Exact","6223 TAHOE PL, WOODBURY, MN, 55125",97805518,"R"
773786,"6223 W BEHREND 260","GLENDALE","AZ",84020,NA,NA,286,"6223 W BEHREND 260, GLENDALE, AZ, 84020","No_Match",NA,NA,NA,NA
773787,"6223 WOODLAND DRIVE","DALLAS","TX",75225,32.8721917440001,-96.79927667,287,"6223 WOODLAND DRIVE, DALLAS, TX, 75225","Match","Exact","6223 WOODLAND DR, DALLAS, TX, 75225",103205433,"L"
773788,"6223 YELLOWTOP DR","BRADENTON","FL",34202,27.4305072080001,-82.421599922,288,"6223 YELLOWTOP DR, BRADENTON, FL, 34202","Match","Exact","6223 YELLOWTOP DR, BRADENTON, FL, 34202",635512820,"R"
773789,"6224 22ND STREET N","ARLINGTON","VA",22205,38.8892857050001,-77.1507434769999,289,"6224 22ND STREET N, ARLINGTON, VA, 22205","Match","Exact","6224 22ND ST N, ARLINGTON, VA, 22205",76478528,"L"
773790,"6224 32ND ST","MERIDIAN","MS",39307,32.390790329,-88.741933138,290,"6224 32ND ST, MERIDIAN, MS, 39307","Match","Exact","6224 32ND ST, MERIDIAN, MS, 39307",191394,"L"
773791,"6224 5TH AVENUE NORTH","ST PETERSBURG","FL",33710,27.7771614390001,-82.7208626199999,291,"6224 5TH AVENUE NORTH, ST PETERSBURG, FL, 33710","Match","Exact","6224 5TH AVE N, SAINT PETERSBURG, FL, 33710",124698482,"L"
773792,"6224 ATLANTIC AVENUE","NEW SYMRNA BEACH","FL",32169,28.960706572,-80.846070364,292,"6224 ATLANTIC AVENUE, NEW SYMRNA BEACH, FL, 32169","Match","Non_Exact","6224 S ATLANTIC AVE, NEW SMYRNA BEACH, FL, 32169",94586832,"R"
773793,"6224 BEEMAN AVE","NORTH HOLLYWOOD","CA",91606,34.183675174,-118.407357676,293,"6224 BEEMAN AVE, NORTH HOLLYWOOD, CA, 91606","Match","Exact","6224 BEEMAN AVE, N HOLLYWOOD, CA, 91606",142687707,"R"
773794,"6224 C DURHAM DRIVE","LAKE WORTH",NA,NA,26.583269408,-80.146835751,294,"6224 C DURHAM DRIVE, LAKE WORTH, , ","Match","Exact","6224 C DURHAM DR, LAKE WORTH, FL, 33467",115558308,"R"
773795,"6224 CARNEGIE","ROMULUS","MI",48174,42.262025108,-83.3746762929999,295,"6224 CARNEGIE, ROMULUS, MI, 48174","Match","Non_Exact","6224 CARNEGIE ST, ROMULUS, MI, 48174",95417386,"R"
773796,"6224 COACHLIGHT ROAD","ELM CITY","NC",27822,35.8284062450001,-77.834309388,296,"6224 COACHLIGHT ROAD, ELM CITY, NC, 27822","Match","Exact","6224 COACHLIGHT RD, ELM CITY, NC, 27822",26720528,"R"
773797,"6224 COSTA LAKE POINT","FLOWERY BRANCH","GA",30542,34.2222241370001,-83.945926857,297,"6224 COSTA LAKE POINT, FLOWERY BRANCH, GA, 30542","Match","Exact","6224 COSTA LAKE PT, FLOWERY BR, GA, 30542",98260992,"R"
773798,"6224 ESTATE NAZARETH","ST THOMAS","VI",802,NA,NA,298,"6224 ESTATE NAZARETH, ST THOMAS, VI, 802","No_Match",NA,NA,NA,NA
773799,"6224 FRANCE AVE N","BROOKLYN CENTER","MN",55429,45.0682107040001,-93.329473233,299,"6224 FRANCE AVE N, BROOKLYN CENTER, MN, 55429","Match","Exact","6224 FRANCE AVE N, BROOKLYN CENTER, MN, 55429",43615756,"R"
773800,"6224 GILLESPIE STREET","PHILADELPHIA","PA",19135,40.022452098,-75.0573063849999,300,"6224 GILLESPIE STREET, PHILADELPHIA, PA, 19135","Match","Exact","6224 GILLESPIE ST, PHILADELPHIA, PA, 19135",131435077,"L"
773801,"6224 HAUSER SCHOOL ROAD","YORK","PA",17406,40.031990326,-76.5701468089999,301,"6224 HAUSER SCHOOL ROAD, YORK, PA, 17406","Match","Exact","6224 HAUSER SCHOOL RD, YORK, PA, 17406",88721983,"L"
773802,"6224 JOHN STREET","LOVES PARK","IL",61111,42.3209062230001,-89.047186127,302,"6224 JOHN STREET, LOVES PARK, IL, 61111","Match","Exact","6224 JOHN ST, LOVES PARK, IL, 61111",49256572,"L"
773803,"6224 JOHNS STREET","LOVES PARK","IL",61111,NA,NA,303,"6224 JOHNS STREET, LOVES PARK, IL, 61111","No_Match",NA,NA,NA,NA
773804,"6224 LAKE FREEMAN DRIVE","INDIANAPOLIS","IN",46254,39.8491365720001,-86.268520672,304,"6224 LAKE FREEMAN DRIVE, INDIANAPOLIS, IN, 46254","Match","Exact","6224 LAKE FREEMAN DR, INDIANAPOLIS, IN, 46254",108043556,"R"
773805,"6224 LES HARRISON DRIVE","SAN ANTONIO","TX",78250,29.5013419200001,-98.689750897,305,"6224 LES HARRISON DRIVE, SAN ANTONIO, TX, 78250","Match","Exact","6224 LES HARRISON DR, SAN ANTONIO, TX, 78250",101571444,"R"
773806,"6224 MEADOWLANDS DR","KRUM","TX",76249,33.2777759030001,-97.2326668379999,306,"6224 MEADOWLANDS DR, KRUM, TX, 76249","Match","Exact","6224 MEADOWLANDS DR, KRUM, TX, 76249",634668399,"R"
773807,"6224 MESSENGER COURT","LAS VEGAS","NV",89018,NA,NA,307,"6224 MESSENGER COURT, LAS VEGAS, NV, 89018","No_Match",NA,NA,NA,NA
773808,"6224 N WASHTENAW AVE APT 3","CHICAGO","IL",60659,41.994531744,-87.697102042,308,"6224 N WASHTENAW AVE APT 3, CHICAGO, IL, 60659","Match","Non_Exact","6224 N WASHTENAW AVE, CHICAGO, IL, 60659",111744698,"L"
773809,"6224 NAPOLI COURT","LONG BEACH","CA",90803,33.7634027010001,-118.118115036,309,"6224 NAPOLI COURT, LONG BEACH, CA, 90803","Match","Exact","6224 NAPOLI CT, LONG BEACH, CA, 90803",647464023,"R"
773810,"6224 NORTH DEPAU ST","PORTLAND","OR",97203,NA,NA,310,"6224 NORTH DEPAU ST, PORTLAND, OR, 97203","No_Match",NA,NA,NA,NA
773811,"6224 NORTHWOOD DRIVE","BALTIMORE","MD",21212,39.371211348,-76.598324519,311,"6224 NORTHWOOD DRIVE, BALTIMORE, MD, 21212","Match","Exact","6224 NORTHWOOD DR, BALTIMORE, MD, 21212",206408342,"L"
773812,"6224 PARKSTONE WAY","DALLAS","TX",75249,32.646446675,-96.9659725339999,312,"6224 PARKSTONE WAY, DALLAS, TX, 75249","Match","Exact","6224 PARKSTONE WAY, DALLAS, TX, 75249",102978843,"L"
773813,"6224 POTOMAC HIGHLANDS TRAIL","GREEN BANK","WV",24944,38.426481573,-79.820352116,313,"6224 POTOMAC HIGHLANDS TRAIL, GREEN BANK, WV, 24944","Match","Exact","6224 POTOMAC HIGHLANDS TRL, GREEN BANK, WV, 24944",648092545,"R"
773814,"6224 RAYMUR STREET","NORTH PORT","FL",34286,27.115155391,-82.161601132,314,"6224 RAYMUR STREET, NORTH PORT, FL, 34286","Match","Exact","6224 RAYMUR ST, NORTH PORT, FL, 34286",16383556,"R"
773815,"6224 ROBE MENZEL RD","FRANITE FALLS","WA",98252,48.0527616150001,-121.960858105,315,"6224 ROBE MENZEL RD, FRANITE FALLS, WA, 98252","Match","Non_Exact","6224 ROBE MENZEL RD, GRANITE FALLS, WA, 98252",187733688,"L"
773816,"6224 RUDDER LN","AWENDAW","SC",29429,32.9556424260001,-79.649480032,316,"6224 RUDDER LN, AWENDAW, SC, 29429","Match","Exact","6224 RUDDER LN, AWENDAW, SC, 29429",605864684,"R"
773817,"6224 SANDPIPER LANE","NORTH OLMSTED","OH",44070,41.4009305050001,-81.9140656659999,317,"6224 SANDPIPER LANE, NORTH OLMSTED, OH, 44070","Match","Exact","6224 SANDPIPER LN, NORTH OLMSTED, OH, 44070",61147192,"R"
773818,"6224 STATE HIGHWAY 146 S","LIVINGSTON","TX",77351,NA,NA,318,"6224 STATE HIGHWAY 146 S, LIVINGSTON, TX, 77351","No_Match",NA,NA,NA,NA
773819,"6224 SW 80TH STREET","OCALA","FL",34476,29.106553117,-82.22317357,319,"6224 SW 80TH STREET, OCALA, FL, 34476","Match","Exact","6224 SW 80TH ST, OCALA, FL, 34476",116843008,"L"
773820,"6224 TRAIL LAKE DR","FORT WORTH","TX",76113,32.657341262,-97.397474157,320,"6224 TRAIL LAKE DR, FORT WORTH, TX, 76113","Match","Non_Exact","6224 TRAIL LAKE DR, FT WORTH, TX, 76133",101882814,"R"
773821,"6224 WARREN AVE","NEW PORT RICHEY","FL",34653,28.2379477110001,-82.7114788599999,321,"6224 WARREN AVE, NEW PORT RICHEY, FL, 34653","Match","Exact","6224 WARREN AVE, NEW PORT RICHEY, FL, 34653",86379473,"L"
773822,"6224 WATERVILLE MONCLOVA","WATERVILLE","OH",43566,41.527516803,-83.732952693,322,"6224 WATERVILLE MONCLOVA, WATERVILLE, OH, 43566","Match","Non_Exact","6224 WATERVILLE MONCLOVA RD, WATERVILLE, OH, 43566",640768141,"R"
773823,"6224 WHITESBURG DRIVE","HUNTSVILLE","AL",35802,34.681466399,-86.56815528,323,"6224 WHITESBURG DRIVE, HUNTSVILLE, AL, 35802","Match","Non_Exact","6224 WHITESBURG DR S, HUNTSVILLE, AL, 35802",58188477,"R"
773824,"6224 WINTHROPE DR","SUFFOLK","VA",23435,36.889320544,-76.418158462,324,"6224 WINTHROPE DR, SUFFOLK, VA, 23435","Match","Exact","6224 WINTHROPE DR, SUFFOLK, VA, 23435",122232566,"R"
773825,"6225 ALDERGLEN DR NE","OLYMPIA","WA",98513,47.0003497490001,-122.799927981,325,"6225 ALDERGLEN DR NE, OLYMPIA, WA, 98513","Match","Non_Exact","6225 ALDER GLEN DR SE, OLYMPIA, WA, 98513",180979083,"R"
773826,"6225 APPLE DEW AVENUE","LAS VEGAS","NV",89131,36.2928818250001,-115.229618152,326,"6225 APPLE DEW AVENUE, LAS VEGAS, NV, 89131","Match","Exact","6225 APPLE DEW AVE, LAS VEGAS, NV, 89131",636276751,"L"
773827,"6225 ARBOR BLVD","NAPLES","FL",34119,26.226449266,-81.719739878,327,"6225 ARBOR BLVD, NAPLES, FL, 34119","Match","Non_Exact","6225 ARBOR BLVD W, NAPLES, FL, 34119",648751412,"L"
773828,"6225 ARBORBLVD","NAPLES","FL",34119,NA,NA,328,"6225 ARBORBLVD, NAPLES, FL, 34119","No_Match",NA,NA,NA,NA
773829,"6225 BAKER STREET","OAKLAND","CA",94608,37.8460912900001,-122.279263451,329,"6225 BAKER STREET, OAKLAND, CA, 94608","Match","Exact","6225 BAKER ST, OAKLAND, CA, 94608",124994500,"L"
773830,"6225 BEAR CV","OLIVE BRANCH","MS",38654,NA,NA,330,"6225 BEAR CV, OLIVE BRANCH, MS, 38654","Tie",NA,NA,NA,NA
773831,"6225 BEARD AVENUE","BROOKLYN CENTER","MN",55429,45.0685059800001,-93.32451546,331,"6225 BEARD AVENUE, BROOKLYN CENTER, MN, 55429","Match","Non_Exact","6225 BEARD AVE N, BROOKLYN CENTER, MN, 55429",43615787,"L"
773832,"6225 BELLMEADOW DR","COLUMBUS","OH",43229,40.0946467250001,-82.972450221,332,"6225 BELLMEADOW DR, COLUMBUS, OH, 43229","Match","Exact","6225 BELLMEADOW DR, COLUMBUS, OH, 43229",135570181,"L"
773833,"6225 BENNETT STREET","WILLIAMSON","NY",14589,43.2255822170001,-77.189518579,333,"6225 BENNETT STREET, WILLIAMSON, NY, 14589","Match","Exact","6225 BENNETT ST, WILLIAMSON, NY, 14589",14910313,"L"
773834,"6225 BUSH BUCK RUN","FORT WORTH","TX",76179,32.876952101,-97.418214067,334,"6225 BUSH BUCK RUN, FORT WORTH, TX, 76179","Match","Exact","6225 BUSH BUCK RUN, FORT WORTH, TX, 76179",619874041,"L"
773835,"6225 CANVASBACK LANE","ORLANDO","FL",32810,28.623764394,-81.474723427,335,"6225 CANVASBACK LANE, ORLANDO, FL, 32810","Match","Exact","6225 CANVASBACK LN, ORLANDO, FL, 32810",94311373,"R"
773836,"6225 CASTLEGATE DRIVE W APT 1736","CASTLE ROCK","CO",80108,39.422092933,-104.883047178,336,"6225 CASTLEGATE DRIVE W APT 1736, CASTLE ROCK, CO, 80108","Match","Exact","6225 CASTLEGATE DR W, CASTLE ROCK, CO, 80108",627944961,"R"
773837,"6225 CEDAR SAGE TRAIL","ARGYLE","TX",76226,33.072652041,-97.213125911,337,"6225 CEDAR SAGE TRAIL, ARGYLE, TX, 76226","Match","Exact","6225 CEDAR SAGE TRL, ARGYLE, TX, 76226",646875225,"R"
773838,"6225 COLT ROAD","BROCTON","NY",14716,42.3585724750001,-79.4582292059999,338,"6225 COLT ROAD, BROCTON, NY, 14716","Match","Exact","6225 COLT RD, BROCTON, NY, 14716",120762093,"L"
773839,"6225 CRYSTAL LAKE DR","FORT WORTH","TX",76179,32.846796254,-97.402282481,339,"6225 CRYSTAL LAKE DR, FORT WORTH, TX, 76179","Match","Exact","6225 CRYSTAL LAKE DR, FORT WORTH, TX, 76179",648716509,"L"
773840,"6225 DEER SEASON RUN","COLUMBIA","MD",21045,39.200007822,-76.8037953429999,340,"6225 DEER SEASON RUN, COLUMBIA, MD, 21045","Match","Exact","6225 DEER SEASON RUN, COLUMBIA, MD, 21045",158934702,"L"
773841,"6225 DONNA 311","NORTH LAS VEGAS","NV",89081,36.2731458970001,-115.130390435,341,"6225 DONNA 311, NORTH LAS VEGAS, NV, 89081","Match","Non_Exact","6225 DONNA ST, N LAS VEGAS, NV, 89081",632840186,"L"
773842,"6225 EVEREST WAY","SACRAMENTO","CA",95842,38.6790495450001,-121.345420283,342,"6225 EVEREST WAY, SACRAMENTO, CA, 95842","Match","Exact","6225 EVEREST WAY, SACRAMENTO, CA, 95842",133332696,"L"
773843,"6225 FAIRFAX WAY","FARIBAULT","MN",55021,44.371657699,-93.387553327,343,"6225 FAIRFAX WAY, FARIBAULT, MN, 55021","Match","Exact","6225 FAIRFAX WAY, FARIBAULT, MN, 55021",37316483,"R"
773844,"6225 FM 437","HOLLAND","TX",76534,30.855976985,-97.2545762079999,344,"6225 FM 437, HOLLAND, TX, 76534","Match","Exact","6225 FM 437, HOLLAND, TX, 76534",25211335,"L"
773845,"6225 HEMPPERLY ROAD","ATLANTA","GA",30349,33.5860047150001,-84.47886099,345,"6225 HEMPPERLY ROAD, ATLANTA, GA, 30349","Match","Non_Exact","6225 HEMPERLY RD, ATLANTA, GA, 30349",17410807,"R"
773846,"6225 HIGHWAY S74 SOUTH","NEWTON","IA",50208,NA,NA,346,"6225 HIGHWAY S74 SOUTH, NEWTON, IA, 50208","No_Match",NA,NA,NA,NA
773847,"6225 HOTT SPRINGS DRIVE","ARLINGTON","TX",76001,32.644579251,-97.1749465359999,347,"6225 HOTT SPRINGS DRIVE, ARLINGTON, TX, 76001","Match","Exact","6225 HOTT SPRINGS DR, ARLINGTON, TX, 76001",101910615,"L"
773848,"6225 HWY 39N APT 3","MERIDIAN","MS",39301,NA,NA,348,"6225 HWY 39N APT 3, MERIDIAN, MS, 39301","No_Match",NA,NA,NA,NA
773849,"6225 IMPACT WAY SUITE 1","PFLUGERVILLE","TX",78660,NA,NA,349,"6225 IMPACT WAY SUITE 1, PFLUGERVILLE, TX, 78660","No_Match",NA,NA,NA,NA
773850,"6225 KENLAREN CIRCLE","NORTH SYRACUSE","NY",13212,43.140009696,-76.0917257849999,350,"6225 KENLAREN CIRCLE, NORTH SYRACUSE, NY, 13212","Match","Exact","6225 KENLAREN CIR, N SYRACUSE, NY, 13212",46593853,"L"
773851,"6225 KENTUCKY DR","CENTRAL POINT","OR",97502,42.407988824,-123.04573992,351,"6225 KENTUCKY DR, CENTRAL POINT, OR, 97502","Match","Exact","6225 KENTUCKY DR, CENTRAL POINT, OR, 97502",155539660,"R"
773852,"6225 LAKE WASHINGTON BLVD N E  31","KIRKLAND","WA",98033,47.662403087,-122.206880257,352,"6225 LAKE WASHINGTON BLVD N E  31, KIRKLAND, WA, 98033","Match","Non_Exact","6225 LAKE WASHINGTON BLVD NE, KIRKLAND, WA, 98033",186604447,"L"
773853,"6225 LAKE WASHINGTON BLVD N E 31","KIRKLAND","WA",98033,47.662403087,-122.206880257,353,"6225 LAKE WASHINGTON BLVD N E 31, KIRKLAND, WA, 98033","Match","Non_Exact","6225 LAKE WASHINGTON BLVD NE, KIRKLAND, WA, 98033",186604447,"L"
773854,"6225 LAKEWOOD POINTE DRIVE","COLOMA","MI",49038,42.2241894220001,-86.3599924279999,354,"6225 LAKEWOOD POINTE DRIVE, COLOMA, MI, 49038","Match","Exact","6225 LAKEWOOD POINTE DR, COLOMA, MI, 49038",119999680,"L"
773855,"6225 LERNER WAY","LANSING","MI",48911,42.6673157810001,-84.528929583,355,"6225 LERNER WAY, LANSING, MI, 48911","Match","Exact","6225 LERNER WAY, LANSING, MI, 48911",17503768,"L"
773856,"6225 LIBBY ROAD NE","OLYMPIA","WA",98506,47.122582718,-122.865096548,356,"6225 LIBBY ROAD NE, OLYMPIA, WA, 98506","Match","Exact","6225 LIBBY RD NE, OLYMPIA, WA, 98506",629067886,"R"
773857,"6225 LONE OAK DRIVE","BETHESDA","MD",20817,39.020200082,-77.1251811239999,357,"6225 LONE OAK DRIVE, BETHESDA, MD, 20817","Match","Exact","6225 LONE OAK DR, BETHESDA, MD, 20817",62056611,"R"
773858,"6225 MELVIN","TARZANA","CA",91335,34.184158827,-118.559280607,358,"6225 MELVIN, TARZANA, CA, 91335","Match","Non_Exact","6225 MELVIN AVE, TARZANA, CA, 91335",141553806,"L"
773859,"6225 N 24TH STREET 150","PHOENIX","AZ",85016,33.5248064190001,-112.029967763,359,"6225 N 24TH STREET 150, PHOENIX, AZ, 85016","Match","Non_Exact","6225 N 24TH ST, PHOENIX, AZ, 85016",128919087,"R"
773860,"6225 N CENTRAL AVE","PHOENIX","AZ",85012,33.5281626140001,-112.073696742,360,"6225 N CENTRAL AVE, PHOENIX, AZ, 85012","Match","Exact","6225 N CENTRAL AVE, PHOENIX, AZ, 85012",128208177,"R"
773861,"6225 N HERMITAGE AVE B","CHICAGO","IL",60660,41.9950239300001,-87.673411422,361,"6225 N HERMITAGE AVE B, CHICAGO, IL, 60660","Match","Non_Exact","6225 N HERMITAGE AVE, CHICAGO, IL, 60660",605169679,"R"
773862,"6225 N TALMAN AVE","CHICAGO","IL",60659,41.994545288,-87.6958691729999,362,"6225 N TALMAN AVE, CHICAGO, IL, 60659","Match","Exact","6225 N TALMAN AVE, CHICAGO, IL, 60659",111744700,"R"
773863,"6225 N WASHTENAW AVE APT 2","CHICAGO","IL",60659,41.994532017,-87.697087293,363,"6225 N WASHTENAW AVE APT 2, CHICAGO, IL, 60659","Match","Non_Exact","6225 N WASHTENAW AVE, CHICAGO, IL, 60659",111744698,"R"
773864,"6225 OLYMPIC COURT","MIDLAND","TX",79706,31.9861876900001,-102.165188225,364,"6225 OLYMPIC COURT, MIDLAND, TX, 79706","Match","Exact","6225 OLYMPIC CT, MIDLAND, TX, 79706",642976481,"R"
773865,"6225 OSCAR COURT","WOODBRIDGE","VA",22193,38.669285001,-77.3932796349999,365,"6225 OSCAR COURT, WOODBRIDGE, VA, 22193","Match","Exact","6225 OSCAR CT, WOODBRIDGE, VA, 22193",76523120,"R"
773866,"6225 PARKVIEW COURT","ELKRIDGE","MD",21075,39.213312112,-76.763027506,366,"6225 PARKVIEW COURT, ELKRIDGE, MD, 21075","Match","Exact","6225 PARKVIEW CT, ELKRIDGE, MD, 21075",614143758,"L"
773867,"6225 PIN OAK LANE","ALPHARETTA","GA",30005,34.0818815600001,-84.240692117,367,"6225 PIN OAK LANE, ALPHARETTA, GA, 30005","Match","Exact","6225 PIN OAK LN, ALPHARETTA, GA, 30005",17376765,"R"
773868,"6225 PRICE DR","NORTH RICHLAND HILLS","TX",76180,32.8590228050001,-97.2139471679999,368,"6225 PRICE DR, NORTH RICHLAND HILLS, TX, 76180","Match","Exact","6225 PRICE DR, NORTH RICHLAND HILLS, TX, 76180",101864677,"L"
773869,"6225 PROVIDENCE CT","CARPENTERSVILLE","IL",60110,42.1223017360001,-88.321291936,369,"6225 PROVIDENCE CT, CARPENTERSVILLE, IL, 60110","Match","Exact","6225 PROVIDENCE CT, CARPENTERSVILLE, IL, 60110",119542739,"R"
773870,"6225 RUNNING DEER RD","CHARLOTTE","NC",28214,35.2649950430001,-80.9483834059999,370,"6225 RUNNING DEER RD, CHARLOTTE, NC, 28214","Match","Exact","6225 RUNNING DEER RD, CHARLOTTE, NC, 28214",70474180,"L"
773871,"6225 S MCKEMY STREET","TEMPE","AZ",85283,33.3655959380001,-111.950736474,371,"6225 S MCKEMY STREET, TEMPE, AZ, 85283","Match","Exact","6225 S MCKEMY ST, TEMPE, AZ, 85283",128237045,"R"
773872,"6225 SONHAVEN DRIVE","SHREVEPORT","LA",71119,32.472395786,-93.867349027,372,"6225 SONHAVEN DRIVE, SHREVEPORT, LA, 71119","Match","Exact","6225 SONHAVEN DR, SHREVEPORT, LA, 71119",57430050,"L"
773873,"6225 STRATUS","WINNEMUCCA","NV",89445,40.921575417,-117.785130623,373,"6225 STRATUS, WINNEMUCCA, NV, 89445","Match","Non_Exact","6225 STRATUS ST, WINNEMUCCA, NV, 89445",170951624,"L"
773874,"6225 SW 152ND AVE","BEAVERTON","OR",97007,45.47481507,-122.833959328,374,"6225 SW 152ND AVE, BEAVERTON, OR, 97007","Match","Exact","6225 SW 152ND AVE, BEAVERTON, OR, 97007",158184242,"R"
773875,"6225 SW 34TH TERRACE","TOPEKA","KS",66614,39.0057366300001,-95.7672425979999,375,"6225 SW 34TH TERRACE, TOPEKA, KS, 66614","Match","Exact","6225 SW 34TH TER, TOPEKA, KS, 66614",17897618,"L"
773876,"6225 TEAK ST","POST FALLS","ID",83854,47.7020861930001,-116.865226698,376,"6225 TEAK ST, POST FALLS, ID, 83854","Match","Non_Exact","6225 E TEAK ST, POST FALLS, ID, 83854",617970706,"L"
773877,"6225 W HWY 146","CRESTWOOD","KY",40014,NA,NA,377,"6225 W HWY 146, CRESTWOOD, KY, 40014","No_Match",NA,NA,NA,NA
773878,"6225 W ILLINI STREET","PHOENIX","AZ",85043,33.4133176610001,-112.193179347,378,"6225 W ILLINI STREET, PHOENIX, AZ, 85043","Match","Exact","6225 W ILLINI ST, PHOENIX, AZ, 85043",128865001,"L"
773879,"6225 W KAUL AVENUE","MILWAUKEE","WI",53218,43.1280529210001,-87.988546147,379,"6225 W KAUL AVENUE, MILWAUKEE, WI, 53218","Match","Exact","6225 W KAUL AVE, MILWAUKEE, WI, 53218",77726247,"L"
773880,"6225 W OVERLAND RD","BOISE","ID",83709,43.5899632300001,-116.259403422,380,"6225 W OVERLAND RD, BOISE, ID, 83709","Match","Exact","6225 OVERLAND RD, BOISE, ID, 83709",641557285,"L"
773881,"6225 WEATHERFORD HWY","GRANBURY","TX",76048,32.554143911,-97.764125663,381,"6225 WEATHERFORD HWY, GRANBURY, TX, 76048","Match","Non_Exact","6225 WEATHERFORD HWY, GRANBURY, TX, 76049",635739033,"R"
773882,"6225 WOODSTOCK ST","PHILADELPHIA","PA",19138,40.049785032,-75.15396651,382,"6225 WOODSTOCK ST, PHILADELPHIA, PA, 19138","Match","Non_Exact","6225 N WOODSTOCK ST, PHILADELPHIA, PA, 19138",131413517,"R"
773883,"62257 LAGOON DRIVE","CASSOPOLIS","MI",49031,41.8941863910001,-85.9976842839999,383,"62257 LAGOON DRIVE, CASSOPOLIS, MI, 49031","Match","Exact","62257 LAGOON DR, CASSOPOLIS, MI, 49031",624339065,"R"
773884,"6226 14TH AVE","KENOSHA","WI",53143,42.578325357,-87.82709706,384,"6226 14TH AVE, KENOSHA, WI, 53143","Match","Exact","6226 14TH AVE, KENOSHA, WI, 53143",79800728,"R"
773885,"6226 36TH PLACE  NE","MARYSVILLE","WA",98270,48.0292956050001,-122.147290484,385,"6226 36TH PLACE  NE, MARYSVILLE, WA, 98270","Match","Exact","6226 36TH PL NE, MARYSVILLE, WA, 98270",636772199,"L"
773886,"6226 80TH PL APT 101","KENOSHA","WI",53142,42.5588536860001,-87.88176444,386,"6226 80TH PL APT 101, KENOSHA, WI, 53142","Match","Exact","6226 80TH PL, KENOSHA, WI, 53142",639195763,"R"
773887,"6226 BROOKE DRIVE","HALLSVILLE","MO",65255,39.1268462410001,-92.2374897129999,387,"6226 BROOKE DRIVE, HALLSVILLE, MO, 65255","Match","Exact","6226 BROOKE DR, HALLSVILLE, MO, 65255",614548216,"R"
773888,"6226 CHAMAR CIRCLE","KAMNAPOLIS","NC",28081,35.4626979770001,-80.68221676,388,"6226 CHAMAR CIRCLE, KAMNAPOLIS, NC, 28081","Match","Non_Exact","6226 CHAMAR CIR, KANNAPOLIS, NC, 28081",24923065,"L"
773889,"6226 CHANCELLORSVILLE DRIVE","GAINESVILLE","VA",20155,38.8257849240001,-77.605999282,389,"6226 CHANCELLORSVILLE DRIVE, GAINESVILLE, VA, 20155","Match","Exact","6226 CHANCELLORSVILLE DR, GAINESVILLE, VA, 20155",650734252,"R"
773890,"6226 CHARLESTOWN RD","MERCERSBURG","PA",17236,39.827579099,-77.940742431,390,"6226 CHARLESTOWN RD, MERCERSBURG, PA, 17236","Match","Exact","6226 CHARLESTOWN RD, MERCERSBURG, PA, 17236",605518088,"R"
773891,"6226 CRESTWOOD DR","ALEXANDRIA","VA",22312,38.832939616,-77.1419276619999,391,"6226 CRESTWOOD DR, ALEXANDRIA, VA, 22312","Match","Exact","6226 CRESTWOOD DR, ALEXANDRIA, VA, 22312",75982111,"R"
773892,"6226 CROWN","OAKLAND","CA",94611,37.8411189,-122.213015336,392,"6226 CROWN, OAKLAND, CA, 94611","Match","Non_Exact","6226 CROWN AVE, OAKLAND, CA, 94611",125080593,"R"
773893,"6226 DENTON ROAD","THOMASVILLE","NC",27360,35.7855614860001,-80.096165565,393,"6226 DENTON ROAD, THOMASVILLE, NC, 27360","Match","Exact","6226 DENTON RD, THOMASVILLE, NC, 27360",604824949,"L"
773894,"6226 EAST LIBERTY BLVD","PITTSBURG","PA",15206,40.464910552,-79.919476285,394,"6226 EAST LIBERTY BLVD, PITTSBURG, PA, 15206","Match","Non_Exact","6226 E LIBERTY BLVD, PITTSBURGH, PA, 15206",629102446,"R"
773895,"6226 EAST SHELBY DRIVE","MEMPHIS","TN",38141,35.020372126,-89.855828423,395,"6226 EAST SHELBY DRIVE, MEMPHIS, TN, 38141","Match","Exact","6226 E SHELBY DR, MEMPHIS, TN, 38141",72933185,"L"
773896,"6226 GABLES WAY","JOHNSTON","IA",50131,NA,NA,396,"6226 GABLES WAY, JOHNSTON, IA, 50131","No_Match",NA,NA,NA,NA
773897,"6226 HUNTINGTON RIDGE RD","MABLETON","GA",30126,33.801602813,-84.550984667,397,"6226 HUNTINGTON RIDGE RD, MABLETON, GA, 30126","Match","Non_Exact","6226 HUNTINGTON RIDGE RD SE, MABLETON, GA, 30126",614185682,"R"
773898,"6226 LANGLEY ST","CHICAGO","IL",60637,NA,NA,398,"6226 LANGLEY ST, CHICAGO, IL, 60637","No_Match",NA,NA,NA,NA
773899,"6226 LEE AVENUE","MURFREESBORO","TN",37129,35.928384226,-86.4962568079999,399,"6226 LEE AVENUE, MURFREESBORO, TN, 37129","Match","Exact","6226 LEE AVE, MURFREESBORO, TN, 37129",59011071,"R"
773900,"6226 MADISON AVE","HAMMOND","IN",46324,41.6006257970001,-87.511356244,400,"6226 MADISON AVE, HAMMOND, IN, 46324","Match","Exact","6226 MADISON AVE, HAMMOND, IN, 46324",98417137,"R"
773901,"6226 MARBUT RD","LITHONIA","GA",30058,33.7270128660001,-84.133721185,401,"6226 MARBUT RD, LITHONIA, GA, 30058","Match","Exact","6226 MARBUT RD, LITHONIA, GA, 30058",23379757,"L"
773902,"6226 MARGANTA WAY","FREDENCK","MD",21703,NA,NA,402,"6226 MARGANTA WAY, FREDENCK, MD, 21703","No_Match",NA,NA,NA,NA
773903,"6226 MILLBRIDGE AVE","CASTLE ROCK","CO",80104,39.3617177,-104.797006938,403,"6226 MILLBRIDGE AVE, CASTLE ROCK, CO, 80104","Match","Exact","6226 MILLBRIDGE AVE, CASTLE ROCK, CO, 80104",130844661,"R"
773904,"6226 MIRAMONTE BLVD","LOS ANGELES","CA",90001,33.983531461,-118.245302424,404,"6226 MIRAMONTE BLVD, LOS ANGELES, CA, 90001","Match","Non_Exact","6226 S MIRAMONTE BLVD, LOS ANGELES, CA, 90001",641280942,"L"
773905,"6226 MYRTLE HILL ROAD","VALLEY CITY","OH",44280,41.2493314700001,-81.9117297619999,405,"6226 MYRTLE HILL ROAD, VALLEY CITY, OH, 44280","Match","Exact","6226 MYRTLE HILL RD, VALLEY CITY, OH, 44280",58683644,"R"
773906,"6226 NW 3RD AVE","MIAMI","FL",33150,25.8327151,-80.202090211,406,"6226 NW 3RD AVE, MIAMI, FL, 33150","Match","Exact","6226 NW 3RD AVE, MIAMI, FL, 33150",116255735,"L"
773907,"6226 NW 84TH TERRACE","PARKLAND","FL",33067,26.307422628,-80.238926697,407,"6226 NW 84TH TERRACE, PARKLAND, FL, 33067","Match","Exact","6226 NW 84TH TER, PARKLAND, FL, 33067",114768336,"R"
773908,"6226 OAK BLUFF WAY","LAKE WORTH","FL",33467,26.584645933,-80.16074021,408,"6226 OAK BLUFF WAY, LAKE WORTH, FL, 33467","Match","Exact","6226 OAK BLUFF WAY, LAKE WORTH, FL, 33467",115510391,"L"
773909,"6226 PRESIDIO DRIVE","HOUSTON","TX",77053,29.5905629530001,-95.4780010329999,409,"6226 PRESIDIO DRIVE, HOUSTON, TX, 77053","Match","Exact","6226 PRESIDIO DR, HOUSTON, TX, 77053",78295581,"L"
773910,"6226 S COUNTY RD 250 E","PAOLI","IN",47454,NA,NA,410,"6226 S COUNTY RD 250 E, PAOLI, IN, 47454","No_Match",NA,NA,NA,NA
773911,"6226 SILVER THISTLE LN","FULSHEAR","TX",77441,29.699384433,-95.862781398,411,"6226 SILVER THISTLE LN, FULSHEAR, TX, 77441","Match","Exact","6226 SILVER THISTLE LN, FULSHEAR, TX, 77441",642957930,"R"
773912,"6226 SKYWARD COURT","BRADENTON","FL",34203,27.4301864780001,-82.469123466,412,"6226 SKYWARD COURT, BRADENTON, FL, 34203","Match","Exact","6226 SKYWARD CT, BRADENTON, FL, 34203",16288341,"R"
773913,"6226 TALARIA DR","WINDERMERE","FL",34746,28.476381073,-81.581033027,413,"6226 TALARIA DR, WINDERMERE, FL, 34746","Match","Non_Exact","6226 TALARIA DR, WINDERMERE, FL, 34786",94408376,"R"
773914,"6226 TERRAPIN HOLLOW ROAD","LYLES","TN",37098,35.8757076590001,-87.353867791,414,"6226 TERRAPIN HOLLOW ROAD, LYLES, TN, 37098","Match","Exact","6226 TERRAPIN HOLLOW RD, LYLES, TN, 37098",607073705,"L"
773915,"6226 TOPIARY ST","CARLSBAD","CA",92009,33.1259524500001,-117.258763385,415,"6226 TOPIARY ST, CARLSBAD, CA, 92009","Match","Exact","6226 TOPIARY ST, CARLSBAD, CA, 92009",195766985,"L"
773916,"6226 TRINITY DRIVE 2B","LISLE","IL",60532,41.772377363,-88.094735213,416,"6226 TRINITY DRIVE 2B, LISLE, IL, 60532","Match","Exact","6226 TRINITY DR, LISLE, IL, 60532",636319201,"L"
773917,"6226 TWILIGHT TRAIL","MORROW","GA",30260,33.5851218780001,-84.329670887,417,"6226 TWILIGHT TRAIL, MORROW, GA, 30260","Match","Exact","6226 TWILIGHT TRL, MORROW, GA, 30260",23320845,"L"
773918,"6226 UNIVERSITY DRIVE BLD 1 ST 3500","RADFORD","VA",24141,NA,NA,418,"6226 UNIVERSITY DRIVE BLD 1 ST 3500, RADFORD, VA, 24141","No_Match",NA,NA,NA,NA
773919,"6226 UNIVERSITY PARK DRIVE STE 3301","RADFORD","VA",24141,NA,NA,419,"6226 UNIVERSITY PARK DRIVE STE 3301, RADFORD, VA, 24141","No_Match",NA,NA,NA,NA
773920,"6226 W COLUMBINE","GLENDALE","AZ",85306,NA,NA,420,"6226 W COLUMBINE, GLENDALE, AZ, 85306","No_Match",NA,NA,NA,NA
773921,"6226 WEBSTER RD","BROCTON","NY",14716,NA,NA,421,"6226 WEBSTER RD, BROCTON, NY, 14716","No_Match",NA,NA,NA,NA
773922,"6226 WEBSTER RD","PORTLAND","NY",14769,42.3735668840001,-79.462160711,422,"6226 WEBSTER RD, PORTLAND, NY, 14769","Match","Exact","6226 WEBSTER RD, PORTLAND, NY, 14769",120761748,"L"
773923,"6226 WELLINGTON DRIVE","DAYTON","OH",45424,39.825216304,-84.109297038,423,"6226 WELLINGTON DRIVE, DAYTON, OH, 45424","Match","Non_Exact","6226 WELLINGTON PL, DAYTON, OH, 45424",143601014,"R"
773924,"6226TH AVE W APT 602","SEATTLE","WA",98119,NA,NA,424,"6226TH AVE W APT 602, SEATTLE, WA, 98119","No_Match",NA,NA,NA,NA
773925,"6227 ANVIL ROAD","JACKSONVILLE","FL",32277,30.3558027300001,-81.5926296929999,425,"6227 ANVIL ROAD, JACKSONVILLE, FL, 32277","Match","Exact","6227 ANVIL RD, JACKSONVILLE, FL, 32277",83902866,"L"
773926,"6227 BAGUETTE AVENUE","BAKERSFIELD","CA",93313,35.291794602,-119.071473856,426,"6227 BAGUETTE AVENUE, BAKERSFIELD, CA, 93313","Match","Exact","6227 BAGUETTE AVE, BAKERSFIELD, CA, 93313",632971815,"L"
773927,"6227 FLEUR DE LIS","NEW ORLEANS","LA",70124,30.0043177580001,-90.118658389,427,"6227 FLEUR DE LIS, NEW ORLEANS, LA, 70124","Match","Non_Exact","6227 FLEUR DE LIS DR, NEW ORLEANS, LA, 70124",191699737,"R"
773928,"6227 GOLF VILLAS DRIVE","BOYNTON BEACH","FL",33437,26.4941925360001,-80.144424995,428,"6227 GOLF VILLAS DRIVE, BOYNTON BEACH, FL, 33437","Match","Exact","6227 GOLF VILLAS DR, BOYNTON BEACH, FL, 33437",115576758,"L"
773929,"6227 GROVE WALK CT","NOBLESVILLE","IN",46062,40.0655176920001,-86.063306762,429,"6227 GROVE WALK CT, NOBLESVILLE, IN, 46062","Match","Exact","6227 GROVE WALK CT, NOBLESVILLE, IN, 46062",29331768,"R"
773930,"6227 KOOLAU ROAD","ANAHOLA","HI",96703,NA,NA,430,"6227 KOOLAU ROAD, ANAHOLA, HI, 96703","No_Match",NA,NA,NA,NA
773931,"6227 LAKEVIEW DRIVE","FALLS CHURCH","VA",22041,38.8444592870001,-77.148347046,431,"6227 LAKEVIEW DRIVE, FALLS CHURCH, VA, 22041","Match","Exact","6227 LAKEVIEW DR, FALLS CHURCH, VA, 22041",75981687,"L"
773932,"6227 LANDOVER CIRCLE","MORROW","GA",30260,33.584892547,-84.307908216,432,"6227 LANDOVER CIRCLE, MORROW, GA, 30260","Match","Exact","6227 LANDOVER CIR, MORROW, GA, 30260",23317580,"R"
773933,"6227 MERRIMAN ROAD","BYRON","NY",14422,43.1123307730001,-78.0964069779999,433,"6227 MERRIMAN ROAD, BYRON, NY, 14422","Match","Exact","6227 MERRIMAN RD, BYRON, NY, 14422",48156658,"R"
773934,"6227 MORNING ROSES DR","NORTH LAS VEGAS","NV",89031,36.273494643,-115.191555187,434,"6227 MORNING ROSES DR, NORTH LAS VEGAS, NV, 89031","Match","Exact","6227 MORNING ROSES DR, N LAS VEGAS, NV, 89031",201999088,"L"
773935,"6227 N CENTRAL PK","CHICAGO","IL",60659,41.994293516,-87.718967097,435,"6227 N CENTRAL PK, CHICAGO, IL, 60659","Match","Non_Exact","6227 N CENTRAL PARK AVE, CHICAGO, IL, 60659",111742364,"R"
773936,"6227 N HICKORY COURT","KANSAS CITY","MO",64118,39.207296415,-94.597028181,436,"6227 N HICKORY COURT, KANSAS CITY, MO, 64118","Match","Exact","6227 N HICKORY CT, KANSAS CITY, MO, 64118",89772080,"L"
773937,"6227 NORTH NEW HOPE ROAD","HERMITAGE","TN",37076,36.1826347200001,-86.5818166289999,437,"6227 NORTH NEW HOPE ROAD, HERMITAGE, TN, 37076","Match","Exact","6227 N NEW HOPE RD, HERMITAGE, TN, 37076",652882616,"L"
773938,"6227 PEACH CRREK DR","HOUSTON","TX",77049,NA,NA,438,"6227 PEACH CRREK DR, HOUSTON, TX, 77049","No_Match",NA,NA,NA,NA
773939,"6227 ROSECOMMON DRIVE","PEACTHTREE CORNERS","GA",30092,33.9688663490001,-84.252420434,439,"6227 ROSECOMMON DRIVE, PEACTHTREE CORNERS, GA, 30092","Match","Non_Exact","6227 ROSECOMMON DR NW, PEACHTREE CORNERS, GA, 30092",88919658,"L"
773940,"6227 S 117TH","SEATTLE","WA",98178,NA,NA,440,"6227 S 117TH, SEATTLE, WA, 98178","Tie",NA,NA,NA,NA
773941,"6227 SOUTH WOODSIDE CIRCLE","OZARK","MO",65721,37.099500059,-93.2269560839999,441,"6227 SOUTH WOODSIDE CIRCLE, OZARK, MO, 65721","Match","Exact","6227 S WOODSIDE CIR, OZARK, MO, 65721",76697672,"R"
773942,"6227 SOUTHWOOD 2N","CLAYTON","MO",63105,38.636343401,-90.304839205,442,"6227 SOUTHWOOD 2N, CLAYTON, MO, 63105","Match","Non_Exact","6227 SOUTHWOOD AVE, CLAYTON, MO, 63105",641129836,"R"
773943,"6227 STATE RT 370E","SEBREE","KY",42455,NA,NA,443,"6227 STATE RT 370E, SEBREE, KY, 42455","No_Match",NA,NA,NA,NA
773944,"6227 SW 57 ST","SOUTH MIAMI","FL",33143,25.7177565690001,-80.2946518639999,444,"6227 SW 57 ST, SOUTH MIAMI, FL, 33143","Match","Exact","6227 SW 57TH ST, SOUTH MIAMI, FL, 33143",115978668,"R"
773945,"6227 TANGLEWOOD DRIVE","JACKSON","MS",39213,32.3924881630001,-90.2068648219999,445,"6227 TANGLEWOOD DRIVE, JACKSON, MS, 39213","Match","Exact","6227 TANGLEWOOD DR, JACKSON, MS, 39213",653252130,"L"
773946,"6227 TUPELO TRAIL","BRADENTON","FL",34202,27.429736238,-82.414657085,446,"6227 TUPELO TRAIL, BRADENTON, FL, 34202","Match","Exact","6227 TUPELO TRL, BRADENTON, FL, 34202",16262480,"L"
773947,"6227 ULLMAN LN","ALHAMBRA","IL",62001,38.884183754,-89.7867936809999,447,"6227 ULLMAN LN, ALHAMBRA, IL, 62001","Match","Exact","6227 ULLMAN LN, ALHAMBRA, IL, 62001",107719375,"R"
773948,"6227 VINCENT AVENUE SOUTH","RICHFIELD","MN",55423,44.8899125930001,-93.316288446,448,"6227 VINCENT AVENUE SOUTH, RICHFIELD, MN, 55423","Match","Exact","6227 VINCENT AVE S, RICHFIELD, MN, 55423",43629581,"L"
773949,"6227 W MICHIGAN AVE","ANN ARBOR","MI",48108,42.1970337560001,-83.7047106429999,449,"6227 W MICHIGAN AVE, ANN ARBOR, MI, 48108","Match","Exact","6227 MICHIGAN AVE, ANN ARBOR, MI, 48108",26031591,"L"
773950,"6227","MORROW","GA",30260,NA,NA,450,"6227, MORROW, GA, 30260","No_Match",NA,NA,NA,NA
773951,"62275 VINEYARD ROAD","PRAIRIE DU CHIEN","WI",53821,43.026083923,-91.108039133,451,"62275 VINEYARD ROAD, PRAIRIE DU CHIEN, WI, 53821","Match","Exact","62275 VINEYARD RD, PRAIRIE DU CHIEN, WI, 53821",47976315,"L"
773952,"6228 18TH RD N","ARLINGTON","VA",22205,38.8860660550001,-77.149426976,452,"6228 18TH RD N, ARLINGTON, VA, 22205","Match","Exact","6228 18TH RD N, ARLINGTON, VA, 22205",76467281,"L"
773953,"6228 228TH STREET SE","WOODINVILLE","WA",98072,47.79048133,-122.150041449,453,"6228 228TH STREET SE, WOODINVILLE, WA, 98072","Match","Exact","6228 228TH ST SE, WOODINVILLE, WA, 98072",624571185,"R"
773954,"6228 23RD AVE NE","SEATTLE","WA",98115,47.6742756630001,-122.302743904,454,"6228 23RD AVE NE, SEATTLE, WA, 98115","Match","Exact","6228 23RD AVE NE, SEATTLE, WA, 98115",186585629,"R"
773955,"6228 ALBRIGHT DRIVE","COLUMBUS","GA",31907,32.4772418960001,-84.8838902909999,455,"6228 ALBRIGHT DRIVE, COLUMBUS, GA, 31907","Match","Exact","6228 ALBRIGHT DR, COLUMBUS, GA, 31907",98944601,"R"
773956,"6228 BEAR RUN ROAD","THE COLONY","TX",75056,33.08328678,-96.874044719,456,"6228 BEAR RUN ROAD, THE COLONY, TX, 75056","Match","Exact","6228 BEAR RUN RD, THE COLONY, TX, 75056",103429191,"L"
773957,"6228 BROOKLINE COURT","EAST LANSING","MI",48823,42.7607597900001,-84.4621606649999,457,"6228 BROOKLINE COURT, EAST LANSING, MI, 48823","Match","Exact","6228 BROOKLINE CT, EAST LANSING, MI, 48823",17504668,"R"
773958,"6228 CAMBRIDGE DR","SUFFOLK","VA",23435,36.882178911,-76.415855041,458,"6228 CAMBRIDGE DR, SUFFOLK, VA, 23435","Match","Exact","6228 CAMBRIDGE DR, SUFFOLK, VA, 23435",122231491,"R"
773959,"6228 CAPE COD DRIVE","COLUMBUS","GA",31904,32.5337970890001,-84.983878171,459,"6228 CAPE COD DRIVE, COLUMBUS, GA, 31904","Match","Exact","6228 CAPE COD DR, COLUMBUS, GA, 31904",98936044,"R"
773960,"6228 CHINQUAPIN PARKWAY","BALTIMORE","MD",21239,39.370098661,-76.597779534,460,"6228 CHINQUAPIN PARKWAY, BALTIMORE, MD, 21239","Match","Exact","6228 CHINQUAPIN PKWY, BALTIMORE, MD, 21239",206408368,"L"
773961,"6228 COMISKEY DR","PASCO","WA",99301,46.2769269070001,-119.171848042,461,"6228 COMISKEY DR, PASCO, WA, 99301","Match","Exact","6228 COMISKEY DR, PASCO, WA, 99301",175256803,"R"
773962,"6228 DARK FOREST DR","MCKINNEY","TX",75070,33.171268007,-96.695909419,462,"6228 DARK FOREST DR, MCKINNEY, TX, 75070","Match","Exact","6228 DARK FOREST DR, MCKINNEY, TX, 75070",210506209,"R"
773963,"6228 DARTINGTON HALL STREET","HENDERSON","NV",89011,36.075881103,-115.027429966,463,"6228 DARTINGTON HALL STREET, HENDERSON, NV, 89011","Match","Non_Exact","6228 S DARTINGTON HALL ST, HENDERSON, NV, 89011",624983804,"L"
773964,"6228 E 123RD DRIVE","BRIGHTON","CO",80602,39.920896477,-104.914534683,464,"6228 E 123RD DRIVE, BRIGHTON, CO, 80602","Match","Exact","6228 E 123RD DR, BRIGHTON, CO, 80602",177412109,"R"
773965,"6228 E 129TH STREET","GRANDVIEW","MO",64030,38.8914889910001,-94.520812988,465,"6228 E 129TH STREET, GRANDVIEW, MO, 64030","Match","Exact","6228 E 129TH ST, GRANDVIEW, MO, 64030",91488267,"L"
773966,"6228 EAGLE PEAK DRIVE","CHARLOTTE","NC",28214,35.2661471540001,-80.946087946,466,"6228 EAGLE PEAK DRIVE, CHARLOTTE, NC, 28214","Match","Exact","6228 EAGLE PEAK DR, CHARLOTTE, NC, 28214",70474840,"R"
773967,"6228 EAGLEBROOK AVENUE","TAMPA","FL",33625,28.0880741140001,-82.561430678,467,"6228 EAGLEBROOK AVENUE, TAMPA, FL, 33625","Match","Exact","6228 EAGLEBROOK AVE, TAMPA, FL, 33625",104660405,"L"
773968,"6228 GARDENIA STREET","PHILADELPHIA","PA",19144,40.0461348590001,-75.176214793,468,"6228 GARDENIA STREET, PHILADELPHIA, PA, 19144","Match","Exact","6228 GARDENIA ST, PHILADELPHIA, PA, 19144",131395492,"L"
773969,"6228 HARRISON AVENUE","HAMMOND","IN",46324,41.6006231550001,-87.516093046,469,"6228 HARRISON AVENUE, HAMMOND, IN, 46324","Match","Exact","6228 HARRISON AVE, HAMMOND, IN, 46324",98416933,"R"
773970,"6228 JOSEPHINE ROAD","NORTOM","VA",24273,36.9278215150001,-82.668245084,470,"6228 JOSEPHINE ROAD, NORTOM, VA, 24273","Match","Non_Exact","6228 JOSEPHINE RD, NORTON, VA, 24273",83464147,"R"
773971,"6228 JOSEPHINE ROAD","NORTON","VA",24273,36.9278215150001,-82.668245084,471,"6228 JOSEPHINE ROAD, NORTON, VA, 24273","Match","Exact","6228 JOSEPHINE RD, NORTON, VA, 24273",83464147,"R"
773972,"6228 LAKE TRAIL DR","FAYETTEVILLE","NC",28314,35.014088885,-78.9969992279999,472,"6228 LAKE TRAIL DR, FAYETTEVILLE, NC, 28314","Match","Non_Exact","6228 LAKE TRAIL DR, FAYETTEVILLE, NC, 28304",64202864,"L"
773973,"6228 LOBELIA DRIVE","MABLETON","GA",30126,NA,NA,473,"6228 LOBELIA DRIVE, MABLETON, GA, 30126","No_Match",NA,NA,NA,NA
773974,"6228 LUCENA WAY","MASON","OH",45040,39.3850515080001,-84.341539529,474,"6228 LUCENA WAY, MASON, OH, 45040","Match","Exact","6228 LUCENA WAY, MASON, OH, 45040",641130593,"L"
773975,"6228 N DAKOTA AVE NW STE 109","WASHINGTON","DC",20011,38.965330668,-77.0150174619999,475,"6228 N DAKOTA AVE NW STE 109, WASHINGTON, DC, 20011","Match","Non_Exact","6228 NORTH DAKOTA AVE NW, WASHINGTON, DC, 20011",76222068,"L"
773976,"6228 NO 103 AVENUE","OMAHA","NE",68134,41.315164845,-96.074925255,476,"6228 NO 103 AVENUE, OMAHA, NE, 68134","Match","Exact","6228 N 103RD AVE, OMAHA, NE, 68134",117000703,"L"
773977,"6228 NORTH DAKOTA AVE NW APT 202","WASHINGTON","DC",20011,38.965324594,-77.015009124,477,"6228 NORTH DAKOTA AVE NW APT 202, WASHINGTON, DC, 20011","Match","Exact","6228 NORTH DAKOTA AVE NW, WASHINGTON, DC, 20011",76222068,"L"
773978,"6228 NORTH DAKOTA AVENW202","WASHINGTON","DC",20011,NA,NA,478,"6228 NORTH DAKOTA AVENW202, WASHINGTON, DC, 20011","No_Match",NA,NA,NA,NA
773979,"6228 PINE GLEN TRAIL","DURHAM","NC",27713,35.9074292550001,-78.920779904,479,"6228 PINE GLEN TRAIL, DURHAM, NC, 27713","Match","Exact","6228 PINE GLEN TRL, DURHAM, NC, 27713",71772077,"L"
773980,"6228 PINEBROOK DRIVE","MONTGOMERY","AL",36116,32.3893283140001,-86.192174926,480,"6228 PINEBROOK DRIVE, MONTGOMERY, AL, 36116","Match","Non_Exact","6228 PINEBROOK DR, MONTGOMERY, AL, 36117",1544135,"L"
773981,"6228 RED CANYON DR - UNIT A","HIGHLANDS RANCH","CO",80130,39.5561715960001,-104.91336759,481,"6228 RED CANYON DR - UNIT A, HIGHLANDS RANCH, CO, 80130","Match","Exact","6228 RED CANYON DR, HIGHLANDS RANCH, CO, 80130",130852031,"L"
773982,"6228 RIDEGMONT DRIVE","OAKLAND","CA",94619,37.7845511460001,-122.167084774,482,"6228 RIDEGMONT DRIVE, OAKLAND, CA, 94619","Match","Non_Exact","6228 RIDGEMONT DR, OAKLAND, CA, 94619",125080733,"R"
773983,"6228 RIDGEMONT DRIVE","OAKLAND","CA",94619,37.7845511460001,-122.167084774,483,"6228 RIDGEMONT DRIVE, OAKLAND, CA, 94619","Match","Exact","6228 RIDGEMONT DR, OAKLAND, CA, 94619",125080733,"R"
773984,"6228 RIPTIDE DRIVE","WILMINGTON","NC",28403,34.2173019200001,-77.8346858359999,484,"6228 RIPTIDE DRIVE, WILMINGTON, NC, 28403","Match","Exact","6228 RIPTIDE DR, WILMINGTON, NC, 28403",152738170,"L"
773985,"6228 S 233RD ST","KENT","WA",98032,47.393143045,-122.256170976,485,"6228 S 233RD ST, KENT, WA, 98032","Match","Exact","6228 S 233RD ST, KENT, WA, 98032",187088732,"L"
773986,"6228 SILVERLEAF","LEAGUE CITY","TX",77573,29.4907836260001,-95.164140588,486,"6228 SILVERLEAF, LEAGUE CITY, TX, 77573","Match","Non_Exact","6228 SILVERLEAF DR, LEAGUE CITY, TX, 77573",96701935,"L"
773987,"6228 STATE RT 21","WILLIAMSON","NY",14519,NA,NA,487,"6228 STATE RT 21, WILLIAMSON, NY, 14519","No_Match",NA,NA,NA,NA
773988,"6228 STORNOWAY DRIVE SOUTH","COLUMBUS","OH",43213,39.9773478220001,-82.833613606,488,"6228 STORNOWAY DRIVE SOUTH, COLUMBUS, OH, 43213","Match","Exact","6228 STORNOWAY DR S, COLUMBUS, OH, 43213",218689601,"L"
773989,"6228 SW 194 AVENUE","FORT LAUDERDALE","FL",33332,26.040257581,-80.4081316689999,489,"6228 SW 194 AVENUE, FORT LAUDERDALE, FL, 33332","Match","Exact","6228 SW 194TH AVE, FORT LAUDERDALE, FL, 33332",114818739,"L"
773990,"6228 WALSH STREET","SAINT LOUIS","MO",63109,38.583746924,-90.2969527,490,"6228 WALSH STREET, SAINT LOUIS, MO, 63109","Match","Exact","6228 WALSH ST, SAINT LOUIS, MO, 63109",605145381,"L"
773991,"6228 WASHINGTON PIKE","KNOXVILLE","TN",37918,36.0613122140001,-83.861071554,491,"6228 WASHINGTON PIKE, KNOXVILLE, TN, 37918","Match","Exact","6228 WASHINGTON PIKE, KNOXVILLE, TN, 37918",42608482,"R"
773992,"6228 WHILEAWAY DR","LOVELAND","OH",45140,39.234962556,-84.280107281,492,"6228 WHILEAWAY DR, LOVELAND, OH, 45140","Match","Exact","6228 WHILEAWAY DR, LOVELAND, OH, 45140",118458594,"L"
773993,"6228 WINDEMERE PL","FORT WORTH","TX",76112,32.754455901,-97.2250842079999,493,"6228 WINDEMERE PL, FORT WORTH, TX, 76112","Match","Non_Exact","6228 WINDERMERE PL, FORT WORTH, TX, 76112",101900123,"R"
773994,"62281 714 RD","TABLE ROCK","NE",68447,40.1749583590001,-96.1461302229999,494,"62281 714 RD, TABLE ROCK, NE, 68447","Match","Exact","62281 714TH RD, TABLE ROCK, NE, 68447",34449835,"R"
773995,"62285 BAYOU ROAD","PLAQUEMINE","LA",70764,30.2475183820001,-91.285070543,495,"62285 BAYOU ROAD, PLAQUEMINE, LA, 70764","Match","Exact","62285 BAYOU RD, PLAQUEMINE, LA, 70764",614462248,"L"
773996,"6229 32ND PLACE N W","WASHINGTON","DC",20015,38.9717741870001,-77.0651012229999,496,"6229 32ND PLACE N W, WASHINGTON, DC, 20015","Match","Exact","6229 32ND PL NW, WASHINGTON, DC, 20015",76219290,"R"
773997,"6229 CALDWELL DR","NEW ORLEANS","LA",70122,30.0231914880001,-90.0737088509999,497,"6229 CALDWELL DR, NEW ORLEANS, LA, 70122","Match","Exact","6229 CALDWELL DR, NEW ORLEANS, LA, 70122",191703482,"R"
773998,"6229 CALDWELL DRIVE","NEW ORLEANS","LA",70122,30.0231914880001,-90.0737088509999,498,"6229 CALDWELL DRIVE, NEW ORLEANS, LA, 70122","Match","Exact","6229 CALDWELL DR, NEW ORLEANS, LA, 70122",191703482,"R"
773999,"6229 CAMINO ALEGRE","EL PASO","TX",79912,31.8535403160001,-106.530591557,499,"6229 CAMINO ALEGRE, EL PASO, TX, 79912","Match","Non_Exact","6229 CAMINO ALEGRE DR, EL PASO, TX, 79912",189395368,"L"
774000,"6229 CLIMAX RD","CHATHAM","VA",24531,36.916014153,-79.469161243,500,"6229 CLIMAX RD, CHATHAM, VA, 24531","Match","Exact","6229 CLIMAX RD, CHATHAM, VA, 24531",56593845,"L"
