"ID","Address","City","State","Zip","lat","long","id","input_address","match_indicator","match_type","matched_address","tiger_line_id","tiger_side"
906501,"8720 MCKEE ROAD","UPATOI","GA",31829,32.5768698210001,-84.733388119,1,"8720 MCKEE ROAD, UPATOI, GA, 31829","Match","Exact","8720 MCKEE RD, UPATOI, GA, 31829",629825739,"R"
906502,"8720 N ASPEN AVE","TUCSON","AZ",85704,32.364600803,-110.997486329,2,"8720 N ASPEN AVE, TUCSON, AZ, 85704","Match","Exact","8720 N ASPEN AVE, TUCSON, AZ, 85704",121164121,"R"
906503,"8720 NILES CENTER RD","SKOKIE","IL",60077,42.0394403540001,-87.748794298,3,"8720 NILES CENTER RD, SKOKIE, IL, 60077","Match","Exact","8720 NILES CENTER RD, SKOKIE, IL, 60077",605216499,"L"
906504,"8720 NOTTINGHAM","YPSILANTI","MI",48198,42.2622765720001,-83.591458568,4,"8720 NOTTINGHAM, YPSILANTI, MI, 48198","Match","Non_Exact","8720 NOTTINGHAM DR, YPSILANTI, MI, 48198",26021352,"R"
906505,"8720 PALM LAKE DRIVE","ORLANDO","FL",32819,28.477262201,-81.5026018729999,5,"8720 PALM LAKE DRIVE, ORLANDO, FL, 32819","Match","Exact","8720 PALM LAKE DR, ORLANDO, FL, 32819",94369938,"R"
906506,"8720 RED OAK BLVD STE 102","CHARLOTTE","NC",28217,NA,NA,6,"8720 RED OAK BLVD STE 102, CHARLOTTE, NC, 28217","No_Match",NA,NA,NA,NA
906507,"8720 RED OAK BLVD","CHARLOTTE","NC",28217,35.1425625090001,-80.905252617,7,"8720 RED OAK BLVD, CHARLOTTE, NC, 28217","Match","Exact","8720 RED OAK BLVD, CHARLOTTE, NC, 28217",70539486,"R"
906508,"8720 ROSEWOOD DR","PRAIRIE VILLAGE","KS",66207,38.970640454,-94.645009827,8,"8720 ROSEWOOD DR, PRAIRIE VILLAGE, KS, 66207","Match","Exact","8720 ROSEWOOD DR, PRAIRIE VLG, KS, 66207",91278653,"R"
906509,"8720 SE ELLIS ST","PORTLAND","OR",97266,45.4822464700001,-122.573038496,9,"8720 SE ELLIS ST, PORTLAND, OR, 97266","Match","Exact","8720 SE ELLIS ST, PORTLAND, OR, 97266",157538961,"R"
906510,"8720 SHOUP ROAD","COLORADO SPRINGS","CO",80908,39.013042738,-104.665222608,10,"8720 SHOUP ROAD, COLORADO SPRINGS, CO, 80908","Match","Exact","8720 SHOUP RD, COLORADO SPRINGS, CO, 80908",647971876,"R"
906511,"8720 SILVERHILL LN","AUSTIN","TX",78759,30.3808283830001,-97.7483748069999,11,"8720 SILVERHILL LN, AUSTIN, TX, 78759","Match","Exact","8720 SILVERHILL LN, AUSTIN, TX, 78759",63998566,"L"
906512,"8720 SOUTH 114TH ST SUITE 90","LA VISTA","NE",68128,NA,NA,12,"8720 SOUTH 114TH ST SUITE 90, LA VISTA, NE, 68128","No_Match",NA,NA,NA,NA
906513,"8720 SW MARSEILLES DR","BEAVERTON","OR",97007,45.456615781,-122.861261059,13,"8720 SW MARSEILLES DR, BEAVERTON, OR, 97007","Match","Exact","8720 SW MARSEILLES DR, BEAVERTON, OR, 97007",617830586,"L"
906514,"8720 SW TUALATIN 206","TUALATIN","OR",97062,NA,NA,14,"8720 SW TUALATIN 206, TUALATIN, OR, 97062","No_Match",NA,NA,NA,NA
906515,"8720 TAMARRON DRIVE","CHARLOTTE","NC",28277,35.0300789180001,-80.81800136,15,"8720 TAMARRON DRIVE, CHARLOTTE, NC, 28277","Match","Exact","8720 TAMARRON DR, CHARLOTTE, NC, 28277",70613898,"R"
906516,"8720 W 780 RD","HULBERT","OK",74441,35.8854369000001,-95.1496167769999,16,"8720 W 780 RD, HULBERT, OK, 74441","Match","Exact","8720 W 780 RD, HULBERT, OK, 74441",53646885,"R"
906517,"8720 W PUETZ RD","FRANKLIN","WI",53132,42.887093457,-88.023192979,17,"8720 W PUETZ RD, FRANKLIN, WI, 53132","Match","Exact","8720 W PUETZ RD, FRANKLIN, WI, 53132",77766546,"R"
906518,"8720 W TOWNLEY AVE","PEORIA","AZ",85345,33.564906466,-112.247124149,18,"8720 W TOWNLEY AVE, PEORIA, AZ, 85345","Match","Exact","8720 W TOWNLEY AVE, PEORIA, AZ, 85345",128284747,"L"
906519,"8720 WINDSOR LAKE BLVD APT 921","COLUMBIA","SC",29223,34.0670614210001,-80.930689625,19,"8720 WINDSOR LAKE BLVD APT 921, COLUMBIA, SC, 29223","Match","Exact","8720 WINDSOR LAKE BLVD, COLUMBIA, SC, 29223",604763614,"L"
906520,"8720 WINDSOR LAKE BLVD NUMBER 1116","COLUMBIA","SC",29223,34.0670614210001,-80.930689625,20,"8720 WINDSOR LAKE BLVD NUMBER 1116, COLUMBIA, SC, 29223","Match","Exact","8720 WINDSOR LAKE BLVD, COLUMBIA, SC, 29223",604763614,"L"
906521,"8720 WINDSOR LAKE BLVD","COLUMBIA","SC",29223,34.0670614210001,-80.930689625,21,"8720 WINDSOR LAKE BLVD, COLUMBIA, SC, 29223","Match","Exact","8720 WINDSOR LAKE BLVD, COLUMBIA, SC, 29223",604763614,"L"
906522,"8721  SUNNYBROOK FARM ROAD","SPOTSYLVANIA","VA",22551,NA,NA,22,"8721  SUNNYBROOK FARM ROAD, SPOTSYLVANIA, VA, 22551","No_Match",NA,NA,NA,NA
906523,"8721 36TH AVENUE","COLLEGE PARK","MD",20740,38.999095514,-76.9479360239999,23,"8721 36TH AVENUE, COLLEGE PARK, MD, 20740","Match","Exact","8721 36TH AVE, COLLEGE PARK, MD, 20740",634744976,"L"
906524,"8721 BAY PARKWAY APT 2C","BROOKLYN","NY",11214,NA,NA,24,"8721 BAY PARKWAY APT 2C, BROOKLYN, NY, 11214","No_Match",NA,NA,NA,NA
906525,"8721 BAYARD STREET","PHILADELPHIA","PA",19150,NA,NA,25,"8721 BAYARD STREET, PHILADELPHIA, PA, 19150","No_Match",NA,NA,NA,NA
906526,"8721 BELLECHASE ROAD","GRANBURY","TX",76049,32.3620559290001,-97.6837842469999,26,"8721 BELLECHASE ROAD, GRANBURY, TX, 76049","Match","Exact","8721 BELLECHASE RD, GRANBURY, TX, 76049",158801640,"R"
906527,"8721 CARMEL MOUNTAIN WAY","BOYNTON BEACH","FL",33473,26.493208436,-80.182397291,27,"8721 CARMEL MOUNTAIN WAY, BOYNTON BEACH, FL, 33473","Match","Exact","8721 CARMEL MOUNTAIN WAY, BOYNTON BEACH, FL, 33473",645904416,"L"
906528,"8721 CORRINGTON AVE","KANSAS CITY","MO",64100,38.9653153940001,-94.505638753,28,"8721 CORRINGTON AVE, KANSAS CITY, MO, 64100","Match","Non_Exact","8721 CORRINGTON AVE, KANSAS CITY, MO, 64138",91464736,"L"
906529,"8721 CR 1129","GODLEY","TX",76044,32.463010227,-97.559956986,29,"8721 CR 1129, GODLEY, TX, 76044","Match","Exact","8721 CO RD 1129, GODLEY, TX, 76044",103547629,"L"
906530,"8721 DOGWOOD RD","WINDSOR MILL","MD",21244,39.3302278140001,-76.812561538,30,"8721 DOGWOOD RD, WINDSOR MILL, MD, 21244","Match","Exact","8721 DOGWOOD RD, WINDSOR MILL, MD, 21244",191551024,"L"
906531,"8721 ELLINGTON WAY","CHATTANOOGA","TN",37421,35.0117009510001,-85.125667456,31,"8721 ELLINGTON WAY, CHATTANOOGA, TN, 37421","Match","Exact","8721 ELLINGTON WAY, CHATTANOOGA, TN, 37421",59337986,"L"
906532,"8721 END SLEIGH AVENUE UNIT A","INGLEWOOD","CA",90305,33.959698351,-118.339667611,32,"8721 END SLEIGH AVENUE UNIT A, INGLEWOOD, CA, 90305","Match","Non_Exact","8721 ENDSLEIGH AVE, INGLEWOOD, CA, 90305",141775249,"R"
906533,"8721 EVERGLADE DR","N RICHLAND HILLS","TX",76182,32.8807740550001,-97.1953372849999,33,"8721 EVERGLADE DR, N RICHLAND HILLS, TX, 76182","Match","Exact","8721 EVERGLADE DR, NORTH RICHLAND HILLS, TX, 76182",648483832,"R"
906534,"8721 FONTANA LN","ROSEDALE","MD",21237,39.3405229300001,-76.489985335,34,"8721 FONTANA LN, ROSEDALE, MD, 21237","Match","Exact","8721 FONTANA LN, ROSEDALE, MD, 21237",191528665,"R"
906535,"8721 FORT SMALLWOOD ROAD","PASADENA","MD",21122,39.1432405840001,-76.525580369,35,"8721 FORT SMALLWOOD ROAD, PASADENA, MD, 21122","Match","Exact","8721 FORT SMALLWOOD RD, PASADENA, MD, 21122",639945901,"L"
906536,"8721 FRANK BALDWIN ROAD BLDG 9121","COLORADO SPRINGS","CO",80913,NA,NA,36,"8721 FRANK BALDWIN ROAD BLDG 9121, COLORADO SPRINGS, CO, 80913","No_Match",NA,NA,NA,NA
906537,"8721 FREDRICK DR","FRISCO","TX",75033,33.169856415,-96.8064122979999,37,"8721 FREDRICK DR, FRISCO, TX, 75033","Match","Exact","8721 FREDRICK DR, FRISCO, TX, 75033",620026708,"R"
906538,"8721 GOSWELL DRIVE","JONESBORO","GA",30238,33.5193101130001,-84.385188754,38,"8721 GOSWELL DRIVE, JONESBORO, GA, 30238","Match","Exact","8721 GOSWELL DR, JONESBORO, GA, 30238",632430963,"R"
906539,"8721 GREENBACK LANE","ORANGEVALE","CA",95662,38.6785528180001,-121.234300695,39,"8721 GREENBACK LANE, ORANGEVALE, CA, 95662","Match","Exact","8721 GREENBACK LN, ORANGEVALE, CA, 95662",133356313,"L"
906540,"8721 HEARTHSTONE DRIVE","EAST AMHERST","NY",14051,43.040393631,-78.6679915829999,40,"8721 HEARTHSTONE DRIVE, EAST AMHERST, NY, 14051","Match","Exact","8721 HEARTHSTONE DR, EAST AMHERST, NY, 14051",613728713,"L"
906541,"8721 HIGHLAND ST","PORT NORRIS","NJ",8349,39.289887327,-75.019706904,41,"8721 HIGHLAND ST, PORT NORRIS, NJ, 8349","Match","Exact","8721 HIGHLAND ST, PORT NORRIS, NJ, 08349",174114582,"R"
906542,"8721 HIGHLANDER AVE","SCOTTSDALE","AZ",85251,NA,NA,42,"8721 HIGHLANDER AVE, SCOTTSDALE, AZ, 85251","No_Match",NA,NA,NA,NA
906543,"8721 HIGHWOOD WAY","APPLE VALLEY","MN",55124,44.7615726450001,-93.238988206,43,"8721 HIGHWOOD WAY, APPLE VALLEY, MN, 55124","Match","Exact","8721 HIGHWOOD WAY, APPLE VALLEY, MN, 55124",37904651,"L"
906544,"8721 JUPITER DRIVE","ANCHORAGE","AK",99507,61.141930087,-149.796620944,44,"8721 JUPITER DRIVE, ANCHORAGE, AK, 99507","Match","Exact","8721 JUPITER DR, ANCHORAGE, AK, 99507",190802638,"L"
906545,"8721 L MARINE RD","ST JACOB","IL",62281,NA,NA,45,"8721 L MARINE RD, ST JACOB, IL, 62281","No_Match",NA,NA,NA,NA
906546,"8721 LINKWOOD DR","DENHAM SPRINGS","LA",70706,30.5518564180001,-90.945069372,46,"8721 LINKWOOD DR, DENHAM SPRINGS, LA, 70706","Match","Exact","8721 LINKWOOD DR, DENHAM SPRINGS, LA, 70706",612903130,"R"
906547,"8721 MAN ST","SAN JOAQUIN","CA",93660,36.6076844350001,-120.186325422,47,"8721 MAN ST, SAN JOAQUIN, CA, 93660","Match","Non_Exact","8721 S MAIN ST, SAN JOAQUIN, CA, 93660",197560099,"L"
906548,"8721 MASSEY CIRCLE","COLORADO SPRINGS","CO",80920,38.9539816990001,-104.730224369,48,"8721 MASSEY CIRCLE, COLORADO SPRINGS, CO, 80920","Match","Exact","8721 MASSEY CIR, CO SPGS, CO, 80920",647972205,"R"
906549,"8721 N LATHROP DR","KANSAS CITY","MO",64155,39.252789783,-94.564665436,49,"8721 N LATHROP DR, KANSAS CITY, MO, 64155","Match","Exact","8721 N LATHROP DR, KANSAS CITY, MO, 64155",89775241,"R"
906550,"8721 PALMGREN AVE NE","OTSEGO","MN",55330,45.2769038230001,-93.574560275,50,"8721 PALMGREN AVE NE, OTSEGO, MN, 55330","Match","Exact","8721 PALMGREN AVE NE, OTSEGO, MN, 55330",44019930,"L"
906551,"8721 PINEBOUGH AVE","MOBILE","AL",36695,NA,NA,51,"8721 PINEBOUGH AVE, MOBILE, AL, 36695","No_Match",NA,NA,NA,NA
906552,"8721 RAMONA AVENUE","BELLFLOWER","CA",90706,33.8729319460001,-118.146208137,52,"8721 RAMONA AVENUE, BELLFLOWER, CA, 90706","Match","Non_Exact","8721 RAMONA ST, BELLFLOWER, CA, 90706",142774775,"L"
906553,"8721 S 121ST ST","SEATTLE","WA",98178,47.494301084,-122.222608751,53,"8721 S 121ST ST, SEATTLE, WA, 98178","Match","Exact","8721 S 121ST ST, SEATTLE, WA, 98178",186630619,"R"
906554,"8721 S 5TH AVE","INGLEWOOD","CA",90305,33.9586212520001,-118.322068903,54,"8721 S 5TH AVE, INGLEWOOD, CA, 90305","Match","Exact","8721 S 5TH AVE, INGLEWOOD, CA, 90305",142753206,"R"
906555,"8721 S SOUTHFORK BLVD","SPOKANE","WA",99223,47.577690854,-117.363583809,55,"8721 S SOUTHFORK BLVD, SPOKANE, WA, 99223","Match","Non_Exact","8721 S SOUTHFORK LN, SPOKANE, WA, 99223",189883536,"L"
906556,"8721 SALT GRASS DRIVE","PENSACOLA","FL",32526,30.534036401,-87.348828451,56,"8721 SALT GRASS DRIVE, PENSACOLA, FL, 32526","Match","Exact","8721 SALT GRASS DR, PENSACOLA, FL, 32526",617455970,"L"
906557,"8721 SANTA MONICA BLVD APT 630","WEST HOLLYWOOD","CA",90069,34.08735469,-118.380780641,57,"8721 SANTA MONICA BLVD APT 630, WEST HOLLYWOOD, CA, 90069","Match","Exact","8721 SANTA MONICA BLVD, W HOLLYWOOD, CA, 90069",141572181,"R"
906558,"8721 SIDNEY CIRCLE","CHARLOTTE","NC",28269,35.3392629780001,-80.845863095,58,"8721 SIDNEY CIRCLE, CHARLOTTE, NC, 28269","Match","Exact","8721 SIDNEY CIR, CHARLOTTE, NC, 28269",70471738,"L"
906559,"8721 SOUTH EUCLID","CHICAGO","IL",60617,41.736394009,-87.576909987,59,"8721 SOUTH EUCLID, CHICAGO, IL, 60617","Match","Non_Exact","8721 S EUCLID AVE, CHICAGO, IL, 60617",605549956,"L"
906560,"8721 SPURGEON CREEK SE","OLYMOIA","WA",98513,46.960342025,-122.763917886,60,"8721 SPURGEON CREEK SE, OLYMOIA, WA, 98513","Match","Non_Exact","8721 SPURGEON CREEK RD SE, OLYMPIA, WA, 98513",648514935,"L"
906561,"8721 SR 28 WEST","WEST POINT","IN",47992,NA,NA,61,"8721 SR 28 WEST, WEST POINT, IN, 47992","No_Match",NA,NA,NA,NA
906562,"8721 TRINITY VISTA TRL","HURST","TX",76053,32.803211118,-97.189637816,62,"8721 TRINITY VISTA TRL, HURST, TX, 76053","Match","Exact","8721 TRINITY VISTA TRL, HURST, TX, 76053",102140616,"L"
906563,"8721 W BLACKTHORE","FRANKFORT","IL",60423,NA,NA,63,"8721 W BLACKTHORE, FRANKFORT, IL, 60423","No_Match",NA,NA,NA,NA
906564,"8721 W GILMORE","LAS VEGAS","NV",89129,NA,NA,64,"8721 W GILMORE, LAS VEGAS, NV, 89129","Tie",NA,NA,NA,NA
906565,"8721 WATERFOWL FLYWAY","CHESTERFIELD","VA",23838,37.3628934070001,-77.5418007869999,65,"8721 WATERFOWL FLYWAY, CHESTERFIELD, VA, 23838","Match","Exact","8721 WATERFOWL FLYWAY, CHESTERFIELD, VA, 23838",223174548,"R"
906566,"8721 WILDERNESS CIRCLE","FREELAND","MI",48623,43.5342977550001,-84.1602955979999,66,"8721 WILDERNESS CIRCLE, FREELAND, MI, 48623","Match","Non_Exact","8721 WILDERNESS, FREELAND, MI, 48623",80222730,"L"
906567,"8721B CR 701","RIPLEY","MS",38663,34.6948168810001,-88.930872075,67,"8721B CR 701, RIPLEY, MS, 38663","Match","Exact","8721 CO RD 701, RIPLEY, MS, 38663",604543137,"R"
906568,"8722 BURTON WAY","LOS ANGELES","CA",90048,34.0721218370001,-118.38224379,68,"8722 BURTON WAY, LOS ANGELES, CA, 90048","Match","Exact","8722 BURTON WAY, LOS ANGELES, CA, 90048",141572818,"L"
906569,"8722 CINNAMON CREEK DR APT 1129","SAN ANTONIO","TX",78240,29.523246686,-98.579945255,69,"8722 CINNAMON CREEK DR APT 1129, SAN ANTONIO, TX, 78240","Match","Exact","8722 CINNAMON CREEK DR, SAN ANTONIO, TX, 78240",641655695,"R"
906570,"8722 E 74TH PLACE","TULSA","OK",74133,36.055763826,-95.878922497,70,"8722 E 74TH PLACE, TULSA, OK, 74133","Match","Exact","8722 E 74TH PL, TULSA, OK, 74133",166455247,"R"
906571,"8722 E PLENTYWOOD","BENTONVILLE","AR",72712,36.425706733,-94.1880292229999,71,"8722 E PLENTYWOOD, BENTONVILLE, AR, 72712","Match","Non_Exact","8722 E PLENTYWOOD RD, BENTONVILLE, AR, 72712",640550735,"L"
906572,"8722 FISH LAKE ROAD","TAMPA","FL",33619,27.9334927210001,-82.357921118,72,"8722 FISH LAKE ROAD, TAMPA, FL, 33619","Match","Exact","8722 FISH LAKE RD, TAMPA, FL, 33619",104579260,"L"
906573,"8722 LA SALA DEL SUR NE","ALBUQUERQUE","NM",87111,35.120993943,-106.545688576,73,"8722 LA SALA DEL SUR NE, ALBUQUERQUE, NM, 87111","Match","Exact","8722 LA SALA DEL SUR NE, ALBUQUERQUE, NM, 87111",206719015,"R"
906574,"8722 N PENINSULAR AVE","PORTLAND","OR",97217,45.585446287,-122.697207394,74,"8722 N PENINSULAR AVE, PORTLAND, OR, 97217","Match","Exact","8722 N PENINSULAR AVE, PORTLAND, OR, 97217",157495210,"R"
906575,"8722 QUAILBUSH DR","RIVERSIDE","CA",92508,33.8934972010001,-117.30975912,75,"8722 QUAILBUSH DR, RIVERSIDE, CA, 92508","Match","Exact","8722 QUAILBUSH DR, RIVERSIDE, CA, 92508",194837363,"R"
906576,"8722 REDBUD WOODS","SAN ANTONIO","TX",78250,29.5159465680001,-98.655686912,76,"8722 REDBUD WOODS, SAN ANTONIO, TX, 78250","Match","Exact","8722 REDBUD WOODS, SAN ANTONIO, TX, 78250",619992867,"R"
906577,"8722 REDWOOD LAKE BLV","ZACHARY","LA",70791,30.6581196340001,-91.1147908619999,77,"8722 REDWOOD LAKE BLV, ZACHARY, LA, 70791","Match","Exact","8722 REDWOOD LAKE BLVD, ZACHARY, LA, 70791",650682404,"L"
906578,"8722 S BLACKSTONE AVE","CHICAGO","IL",60619,41.736053009,-87.5881164739999,78,"8722 S BLACKSTONE AVE, CHICAGO, IL, 60619","Match","Exact","8722 S BLACKSTONE AVE, CHICAGO, IL, 60619",605550124,"R"
906579,"8722 S PARNELL AVE","CHICAGO","IL",60620,41.7351182510001,-87.637513386,79,"8722 S PARNELL AVE, CHICAGO, IL, 60620","Match","Exact","8722 S PARNELL AVE, CHICAGO, IL, 60620",605583414,"L"
906580,"8722 SAILPORT DRIVE","HUNTINGTON BEACH","CA",92646,33.67995268,-117.975740238,80,"8722 SAILPORT DRIVE, HUNTINGTON BEACH, CA, 92646","Match","Exact","8722 SAILPORT DR, HUNTINGTON BEACH, CA, 92646",144020616,"R"
906581,"8722 SPOONBILL ST","HARLINGEN","TX",78552,26.212710348,-97.771237646,81,"8722 SPOONBILL ST, HARLINGEN, TX, 78552","Match","Exact","8722 SPOONBILL ST, HARLINGEN, TX, 78552",632092951,"L"
906582,"8722 TESORO HILLS","SAN ANTONIO","TX",78242,29.3413916320001,-98.599701919,82,"8722 TESORO HILLS, SAN ANTONIO, TX, 78242","Match","Exact","8722 TESORO HILLS, SAN ANTONIO, TX, 78242",634131073,"R"
906583,"8722 WARRENFORD DRIVE","HOUSTON","TX",77083,29.6847124600001,-95.6546395729999,83,"8722 WARRENFORD DRIVE, HOUSTON, TX, 77083","Match","Exact","8722 WARRENFORD DR, HOUSTON, TX, 77083",78277918,"R"
906584,"8722 WOODARD ROAD","MARSHALL","VA",20115,NA,NA,84,"8722 WOODARD ROAD, MARSHALL, VA, 20115","No_Match",NA,NA,NA,NA
906585,"8723 57TH DR NE UNIT B","MARYSVILLE","WA",98270,48.074409738,-122.152718102,85,"8723 57TH DR NE UNIT B, MARYSVILLE, WA, 98270","Match","Exact","8723 57TH DR NE, MARYSVILLE, WA, 98270",187805599,"L"
906586,"8723 ALIZARIAN AVE","CICERO","NY",13039,43.1923285680001,-76.0740307679999,86,"8723 ALIZARIAN AVE, CICERO, NY, 13039","Match","Non_Exact","8723 ALIZARIN AVE, CICERO, NY, 13039",46616532,"R"
906587,"8723 ASH BOURNE DR","FT WAYNE","IN",46785,41.077045406,-85.256790933,87,"8723 ASH BOURNE DR, FT WAYNE, IN, 46785","Match","Non_Exact","8723 ASH BOURNE DR, FORT WAYNE, IN, 46804",6401394,"R"
906588,"8723 BELL TOWER DRIVE","GAITHERSBURG","MD",20879,39.1662151150001,-77.180590555,88,"8723 BELL TOWER DRIVE, GAITHERSBURG, MD, 20879","Match","Exact","8723 BELL TOWER DR, GAITHERSBURG, MD, 20879",62092072,"L"
906589,"8723 BIRCH SPRINGS DR","HOUSTON","TX",77095,29.908045902,-95.664778086,89,"8723 BIRCH SPRINGS DR, HOUSTON, TX, 77095","Match","Exact","8723 BIRCH SPRINGS DR, HOUSTON, TX, 77095",631458021,"L"
906590,"8723 BROOKRIDGE DR","ANCHORAGE","AK",99504,61.1935202270001,-149.720670635,90,"8723 BROOKRIDGE DR, ANCHORAGE, AK, 99504","Match","Exact","8723 BROOKRIDGE DR, ANCHORAGE, AK, 99504",643777780,"L"
906591,"8723 CAYUCOS WAY","SAN DIEGO","CA",92129,32.9703227090001,-117.139244957,91,"8723 CAYUCOS WAY, SAN DIEGO, CA, 92129","Match","Exact","8723 CAYUCOS WAY, SAN DIEGO, CA, 92129",195383996,"L"
906592,"8723 CRESCENT VALLEY DR NW","GIG HARBOR","WA",98332,47.3383163450001,-122.578466351,92,"8723 CRESCENT VALLEY DR NW, GIG HARBOR, WA, 98332","Match","Exact","8723 CRESCENT VALLEY DR NW, GIG HARBOR, WA, 98332",184661560,"R"
906593,"8723 DEL REY COURT 12F","TAMPA","FL",33617,28.0288062720001,-82.40019208,93,"8723 DEL REY COURT 12F, TAMPA, FL, 33617","Match","Non_Exact","8723 DEL REY CT, TAMPA, FL, 33617",631754182,"R"
906594,"8723 JARRETT DR","HEBRON","MD",21830,38.4336046380001,-75.687787143,94,"8723 JARRETT DR, HEBRON, MD, 21830","Match","Exact","8723 JARRETT DR, HEBRON, MD, 21830",114481004,"R"
906595,"8723 PLANTATION COURT","NORTH CHARLESTON","SC",29406,32.964080817,-80.057716424,95,"8723 PLANTATION COURT, NORTH CHARLESTON, SC, 29406","Match","Non_Exact","8723 PLANTATION COURT DR, N CHARLESTON, SC, 29406",108820398,"L"
906596,"8723 S  JUSTINE ST","CHICAGO","IL",60620,41.7349312740001,-87.661813547,96,"8723 S  JUSTINE ST, CHICAGO, IL, 60620","Match","Exact","8723 S JUSTINE ST, CHICAGO, IL, 60620",604994914,"L"
906597,"8723 S FOREST DR","HIGHLANDS RANCH","CO",80126,39.5589095300001,-104.947324134,97,"8723 S FOREST DR, HIGHLANDS RANCH, CO, 80126","Match","Non_Exact","8723 S FORREST DR, HIGHLANDS RANCH, CO, 80126",130818517,"R"
906598,"8723 SE 40TH AVE","MILWAUKIE","OR",97222,45.4602365440001,-122.622027177,98,"8723 SE 40TH AVE, MILWAUKIE, OR, 97222","Match","Exact","8723 SE 40TH AVE, MILWAUKIE, OR, 97222",639111333,"R"
906599,"8723 SENDERA DRIVE","MAGNOLIA","TX",77354,30.2275843830001,-95.595609824,99,"8723 SENDERA DRIVE, MAGNOLIA, TX, 77354","Match","Exact","8723 SENDERA DR, MAGNOLIA, TX, 77354",79310078,"R"
906600,"8723 SOUTH LUELLA","CHICAGO","IL",60617,41.73632281,-87.569631623,100,"8723 SOUTH LUELLA, CHICAGO, IL, 60617","Match","Non_Exact","8723 S LUELLA AVE, CHICAGO, IL, 60617",605532847,"L"
906601,"8723 SOUTHWESTERN BL 1316","DALLAS","TX",75206,32.8582740790001,-96.758143766,101,"8723 SOUTHWESTERN BL 1316, DALLAS, TX, 75206","Match","Exact","8723 SOUTHWESTERN BLVD, DALLAS, TX, 75206",648834762,"L"
906602,"8723 TANGELWOOD","TEMPERANCE","MI",48182,41.774908081,-83.574018866,102,"8723 TANGELWOOD, TEMPERANCE, MI, 48182","Match","Non_Exact","8723 TANGLEWOOD, TEMPERANCE, MI, 48182",653387939,"R"
906603,"8723 TIMBERWOOD COURT","RANCHO CUCAMONGA","CA",91730,34.1041855390001,-117.614888713,103,"8723 TIMBERWOOD COURT, RANCHO CUCAMONGA, CA, 91730","Match","Exact","8723 TIMBERWOOD CT, RANCHO CUCAMONGA, CA, 91730",614810830,"R"
906604,"8723 WINTERGREEN STREET","LANSING","MI",48917,42.724521732,-84.6801265349999,104,"8723 WINTERGREEN STREET, LANSING, MI, 48917","Match","Exact","8723 WINTERGREEN ST, LANSING, MI, 48917",12034512,"L"
906605,"8724 ANGLERS POINTE DRIVE","TEMPLE TERRACE","FL",33637,28.057829607,-82.3636308,105,"8724 ANGLERS POINTE DRIVE, TEMPLE TERRACE, FL, 33637","Match","Exact","8724 ANGLERS POINTE DR, TEMPLE TER, FL, 33637",104699767,"L"
906606,"8724 BARRINGTON DRIVE","SUPERIOR TWP","MI",48198,42.2749774330001,-83.5888390059999,106,"8724 BARRINGTON DRIVE, SUPERIOR TWP, MI, 48198","Match","Exact","8724 BARRINGTON DR, SUPERIOR TOWNSHIP, MI, 48198",634673923,"R"
906607,"8724 BAY VIEW DR","FOLEY","AL",36535,30.3509774930001,-87.606511686,107,"8724 BAY VIEW DR, FOLEY, AL, 36535","Match","Exact","8724 BAY VIEW DR, FOLEY, AL, 36535",131668614,"R"
906608,"8724 BIRKENHEAD","LAUREL","MD",20743,NA,NA,108,"8724 BIRKENHEAD, LAUREL, MD, 20743","No_Match",NA,NA,NA,NA
906609,"8724 BLAIRWOOD ROAD - APT T1","BALTIMORE","MD",21236,39.393571238,-76.490543261,109,"8724 BLAIRWOOD ROAD - APT T1, BALTIMORE, MD, 21236","Match","Exact","8724 BLAIRWOOD RD, BALTIMORE, MD, 21236",191498909,"L"
906610,"8724 CAMFIELD ST","CHARLOTTE","NC",28277,35.05230549,-80.815669269,110,"8724 CAMFIELD ST, CHARLOTTE, NC, 28277","Match","Exact","8724 CAMFIELD ST, CHARLOTTE, NC, 28277",70528811,"R"
906611,"8724 CARRIDGE HILL ROAD","SAVAGE","MN",55378,NA,NA,111,"8724 CARRIDGE HILL ROAD, SAVAGE, MN, 55378","No_Match",NA,NA,NA,NA
906612,"8724 CATALINA DRIVE","INDIANAPOLIS","IN",46226,39.827487439,-86.0144157509999,112,"8724 CATALINA DRIVE, INDIANAPOLIS, IN, 46226","Match","Exact","8724 CATALINA DR, INDIANAPOLIS, IN, 46226",108016630,"L"
906613,"8724 CAVELL LN","HOUSTON","TX",77055,29.7859536720001,-95.503462373,113,"8724 CAVELL LN, HOUSTON, TX, 77055","Match","Exact","8724 CAVELL LN, HOUSTON, TX, 77055",96030159,"R"
906614,"8724 COBBLESTONE DRIVE","TAMPA","FL",33615,27.984342414,-82.579555023,114,"8724 COBBLESTONE DRIVE, TAMPA, FL, 33615","Match","Exact","8724 COBBLESTONE DR, TAMPA, FL, 33615",104508448,"L"
906615,"8724 CORD AVE","OKLAHOMA CITY","OK",73132,35.5593093260001,-97.666474853,115,"8724 CORD AVE, OKLAHOMA CITY, OK, 73132","Match","Exact","8724 CORD AVE, OKLAHOMA CITY, OK, 73132",100386857,"R"
906616,"8724 DRIFTWOOD DR","TEMPERANCE","MI",48182,41.7740496530001,-83.576578566,116,"8724 DRIFTWOOD DR, TEMPERANCE, MI, 48182","Match","Non_Exact","8724 DRIFTWOOD AVE, TEMPERANCE, MI, 48182",40484139,"L"
906617,"8724 E 24TH AVENUE","DENVER","CO",80238,39.75156509,-104.886920695,117,"8724 E 24TH AVENUE, DENVER, CO, 80238","Match","Exact","8724 E 24TH AVE, DENVER, CO, 80238",606061967,"R"
906618,"8724 FOSTER CIR","FORT MEADE","MD",20755,39.123204721,-76.756345724,118,"8724 FOSTER CIR, FORT MEADE, MD, 20755","Match","Exact","8724 FOSTER CIR, FORT MEADE, MD, 20755",647398819,"R"
906619,"8724 HOMEWOOD CT","RIVERDALE","GA",30274,33.517208376,-84.396760505,119,"8724 HOMEWOOD CT, RIVERDALE, GA, 30274","Match","Exact","8724 HOMEWOOD CT, RIVERDALE, GA, 30274",23313727,"L"
906620,"8724 HURRICANE MANOR TRAIL","CHATTANOOGA","TN",37421,34.991434101,-85.133705657,120,"8724 HURRICANE MANOR TRAIL, CHATTANOOGA, TN, 37421","Match","Exact","8724 HURRICANE MANOR TRL, CHATTANOOGA, TN, 37421",59319767,"L"
906621,"8724 LINICK DRIVE","REYNOLDSBURG","OH",43068,39.964737373,-82.765935471,121,"8724 LINICK DRIVE, REYNOLDSBURG, OH, 43068","Match","Exact","8724 LINICK DR, REYNOLDSBURG, OH, 43068",61517961,"L"
906622,"8724 LITTLE LAURA DR","AUSTIN","TX",78757,30.3718581100001,-97.733146361,122,"8724 LITTLE LAURA DR, AUSTIN, TX, 78757","Match","Exact","8724 LITTLE LAURA DR, AUSTIN, TX, 78757",63993034,"L"
906623,"8724 MEREDITH DR APT 2201","URBANDALE","IA",50322,41.643851172,-93.738235037,123,"8724 MEREDITH DR APT 2201, URBANDALE, IA, 50322","Match","Exact","8724 MEREDITH DR, URBANDALE, IA, 50322",65801162,"L"
906624,"8724 N ARCOLA COURT","KANSAS CITY","MO",64153,39.252391677,-94.704176968,124,"8724 N ARCOLA COURT, KANSAS CITY, MO, 64153","Match","Exact","8724 N ARCOLA CT, KANSAS CITY, MO, 64153",39715910,"L"
906625,"8724 RAWSONVILLE","BELLEVILLE","MI",48111,42.162784334,-83.541712885,125,"8724 RAWSONVILLE, BELLEVILLE, MI, 48111","Match","Non_Exact","8724 RAWSONVILLE RD, BELLEVILLE, MI, 48111",26056559,"R"
906626,"8724 SE 40TH AVE","PORTLAND","OR",97222,45.4597041800001,-122.62200582,126,"8724 SE 40TH AVE, PORTLAND, OR, 97222","Match","Exact","8724 SE 40TH AVE, PORTLAND, OR, 97222",639111333,"L"
906627,"8724 STRAFFORD CROSSING","BROOKLYN PARK","MN",55443,NA,NA,127,"8724 STRAFFORD CROSSING, BROOKLYN PARK, MN, 55443","No_Match",NA,NA,NA,NA
906628,"8724 SUNSET DR","MIAMI","FL",33173,NA,NA,128,"8724 SUNSET DR, MIAMI, FL, 33173","No_Match",NA,NA,NA,NA
906629,"8724 SW 72 STREET 200","MIAMI","FL",33173,25.702239218,-80.335957257,129,"8724 SW 72 STREET 200, MIAMI, FL, 33173","Match","Non_Exact","8724 SW 72ND ST, MIAMI, FL, 33173",115980782,"R"
906630,"8724 TRACY WAY","PANAMA CITY","FL",32404,30.307127677,-85.455050834,130,"8724 TRACY WAY, PANAMA CITY, FL, 32404","Match","Exact","8724 TRACY WAY, PANAMA CITY, FL, 32404",7019610,"L"
906631,"8724 TREASURE MOUNTAIN DRIVE","SANDY","UT",84093,40.5928523630001,-111.825225516,131,"8724 TREASURE MOUNTAIN DRIVE, SANDY, UT, 84093","Match","Non_Exact","8724 S TREASURE MOUNTAIN DR, SANDY, UT, 84093",176090288,"L"
906632,"8724 W HOLLY RD","MEQUON","WI",53097,43.2268535150001,-88.019239165,132,"8724 W HOLLY RD, MEQUON, WI, 53097","Match","Exact","8724 W HOLLY RD, MEQUON, WI, 53097",95899904,"R"
906633,"8724 W HOLLY ROAD","MEQUON","WI",53097,43.2268535150001,-88.019239165,133,"8724 W HOLLY ROAD, MEQUON, WI, 53097","Match","Exact","8724 W HOLLY RD, MEQUON, WI, 53097",95899904,"R"
906634,"8724 W JOHN CABOT RD","PEORIA","AZ",85382,33.6494456670001,-112.24738369,134,"8724 W JOHN CABOT RD, PEORIA, AZ, 85382","Match","Exact","8724 W JOHN CABOT RD, PEORIA, AZ, 85382",128307383,"L"
906635,"8724 W UNIVERSITY ST APT A","WICHITA","KS",67209,37.677491409,-97.443578359,135,"8724 W UNIVERSITY ST APT A, WICHITA, KS, 67209","Match","Non_Exact","8724 W UNIVERSITY ST, WICHITA, KS, 67209",115641906,"R"
906636,"8724 WATT AVE","ANTELOPE","CA",95843,38.727471554,-121.392457677,136,"8724 WATT AVE, ANTELOPE, CA, 95843","Match","Exact","8724 WATT AVE, ANTELOPE, CA, 95843",133448254,"R"
906637,"8725 312TH AVE","BURLINGTON","WI",53105,42.5497968240001,-88.1878352259999,137,"8725 312TH AVE, BURLINGTON, WI, 53105","Match","Exact","8725 312TH AVE, BURLINGTON, WI, 53105",79807331,"L"
906638,"8725 APPLEWOOD CT","MENTOR","OH",44060,41.7005314260001,-81.3270822819999,138,"8725 APPLEWOOD CT, MENTOR, OH, 44060","Match","Exact","8725 APPLEWOOD CT, MENTOR, OH, 44060",137462650,"L"
906639,"8725 BROOK DR","MCLEAN","VA",22102,38.9512866170001,-77.246214567,139,"8725 BROOK DR, MCLEAN, VA, 22102","Match","Non_Exact","8725 BROOK RD, MCLEAN, VA, 22102",75961586,"L"
906640,"8725 E 32ND ST N","WICHITA","KS",67226,37.7429060900001,-97.238836717,140,"8725 E 32ND ST N, WICHITA, KS, 67226","Match","Exact","8725 E 32ND ST N, WICHITA, KS, 67226",115678603,"R"
906641,"8725 EAST 110TH COURT","TULSA","OK",74133,36.0034072820001,-95.8798357699999,141,"8725 EAST 110TH COURT, TULSA, OK, 74133","Match","Exact","8725 E 110TH CT, TULSA, OK, 74133",166510148,"L"
906642,"8725 ELBE TRAIL","FORT WORTH","TX",76118,32.7989297170001,-97.190225137,142,"8725 ELBE TRAIL, FORT WORTH, TX, 76118","Match","Exact","8725 ELBE TRL, FORT WORTH, TX, 76118",101918951,"L"
906643,"8725 FOX LAKE RD","STERLING","OH",44276,40.8885425510001,-81.8171923629999,143,"8725 FOX LAKE RD, STERLING, OH, 44276","Match","Exact","8725 FOX LAKE RD, STERLING, OH, 44276",58755433,"R"
906644,"8725 GAINES DR","FORT WORTH","TX",76244,32.9001283650001,-97.3034269139999,144,"8725 GAINES DR, FORT WORTH, TX, 76244","Match","Exact","8725 GAINES DR, FORT WORTH, TX, 76244",639925576,"L"
906645,"8725 GALLOWAY TRAIL","NOVELTY","OH",44072,41.467727897,-81.33046904,145,"8725 GALLOWAY TRAIL, NOVELTY, OH, 44072","Match","Exact","8725 GALLOWAY TRL, NOVELTY, OH, 44072",137433789,"R"
906646,"8725 HONEYCUT DR","NORTH RIDGEVILLE","OH",44039,41.365834889,-82.003388488,146,"8725 HONEYCUT DR, NORTH RIDGEVILLE, OH, 44039","Match","Exact","8725 HONEYCUT DR, N RIDGEVILLE, OH, 44039",55425520,"R"
906647,"8725 KATHERINE CT","PARKER","CO",80134,39.5586467050001,-104.796830192,147,"8725 KATHERINE CT, PARKER, CO, 80134","Match","Exact","8725 KATHERINE CT, PARKER, CO, 80134",130824046,"R"
906648,"8725 N STARR LOOP","HADYEN","ID",83835,47.7488169850001,-116.788035915,148,"8725 N STARR LOOP, HADYEN, ID, 83835","Match","Non_Exact","8725 N STARR LOOP, HAYDEN, ID, 83835",192956969,"R"
906649,"8725 NORTHCOTE AVE","MUNSTER","IN",46321,41.555226437,-87.4862822869999,149,"8725 NORTHCOTE AVE, MUNSTER, IN, 46321","Match","Exact","8725 NORTHCOTE AVE, MUNSTER, IN, 46321",98421388,"L"
906650,"8725 ROSWELL ROAD SUITE 0-113","ATLANTA","GA",30350,33.992910459,-84.351492708,150,"8725 ROSWELL ROAD SUITE 0-113, ATLANTA, GA, 30350","Match","Exact","8725 ROSWELL RD, ATLANTA, GA, 30350",17418187,"R"
906651,"8725 S 212TH ST","KENT","WA",98031,47.4120792800001,-122.222945782,151,"8725 S 212TH ST, KENT, WA, 98031","Match","Exact","8725 S 212TH ST, KENT, WA, 98031",187007446,"R"
906652,"8725 S BENNETT AVE","CHICAGO","IL",60617,41.736315888,-87.578123342,152,"8725 S BENNETT AVE, CHICAGO, IL, 60617","Match","Exact","8725 S BENNETT AVE, CHICAGO, IL, 60617",605549943,"L"
906653,"8725 S HERMITAGE","CHICAGO","IL",60620,41.734863191,-87.666676189,153,"8725 S HERMITAGE, CHICAGO, IL, 60620","Match","Non_Exact","8725 S HERMITAGE AVE, CHICAGO, IL, 60620",604995027,"L"
906654,"8725 S VICTORIA AVE","ROCKAWAY BEACH","OR",97136,45.59805786,-123.939179069,154,"8725 S VICTORIA AVE, ROCKAWAY BEACH, OR, 97136","Match","Exact","8725 S VICTORIA AVE, ROCKAWAY BEACH, OR, 97136",647716275,"L"
906655,"8725 SAINT GEORGE WAY","MIDWEST CITY","OK",73110,35.465573889,-97.3756754949999,155,"8725 SAINT GEORGE WAY, MIDWEST CITY, OK, 73110","Match","Exact","8725 SAINT GEORGE WAY, MIDWEST CITY, OK, 73110",100416393,"R"
906656,"8725 SOUTH 275 WEST","MOROCCO","IN",47963,40.870722039,-87.444634423,156,"8725 SOUTH 275 WEST, MOROCCO, IN, 47963","Match","Exact","8725 S 275 W, MOROCCO, IN, 47963",98325133,"R"
906657,"8725 SPYGLASS LOOP","CLERMONT","FL",34711,28.5598356250001,-81.8079449959999,157,"8725 SPYGLASS LOOP, CLERMONT, FL, 34711","Match","Exact","8725 SPYGLASS LOOP, CLERMONT, FL, 34711",94142165,"R"
906658,"8725 STANWOOD DRIVE","DALLAS","TX",75228,32.8138837220001,-96.701792547,158,"8725 STANWOOD DRIVE, DALLAS, TX, 75228","Match","Exact","8725 STANWOOD DR, DALLAS, TX, 75228",102923900,"L"
906659,"8725 SW 137 AVE","MIAMI","FL",33182,25.686050618,-80.416559139,159,"8725 SW 137 AVE, MIAMI, FL, 33182","Match","Non_Exact","8725 SW 137TH AVE, MIAMI, FL, 33183",115966822,"L"
906660,"8725 SW 54TH TERRACE","MIAMI","FL",33165,25.7178440320001,-80.336082913,160,"8725 SW 54TH TERRACE, MIAMI, FL, 33165","Match","Non_Exact","8725 SW 54TH TER, MIAMI, FL, 33165",116065092,"R"
906661,"8725 VICTORIA AVE","ROCKAWAY BEACH","OR",97136,45.5980579480001,-123.939186136,161,"8725 VICTORIA AVE, ROCKAWAY BEACH, OR, 97136","Match","Non_Exact","8725 S VICTORIA AVE, ROCKAWAY BEACH, OR, 97136",647716275,"L"
906662,"8725 VILLA CREST","SAINT LOUIS","MO",63126,38.5539989420001,-90.3832691169999,162,"8725 VILLA CREST, SAINT LOUIS, MO, 63126","Match","Non_Exact","8725 VILLA CREST DR, SAINT LOUIS, MO, 63126",100138662,"R"
906663,"8725 WEST FLAMINGO RD APT 118","LAS VEGAS","NV",89147,36.11490639,-115.283167068,163,"8725 WEST FLAMINGO RD APT 118, LAS VEGAS, NV, 89147","Match","Exact","8725 W FLAMINGO RD, LAS VEGAS, NV, 89147",201957148,"L"
906664,"8725 WICK ROAD","GRATIOT","WI",53541,NA,NA,164,"8725 WICK ROAD, GRATIOT, WI, 53541","No_Match",NA,NA,NA,NA
906665,"8726 AVEBURY DRIVE APARTMENT C","CHARLOTTE","NC",28213,35.289330959,-80.727853483,165,"8726 AVEBURY DRIVE APARTMENT C, CHARLOTTE, NC, 28213","Match","Exact","8726 AVEBURY DR, CHARLOTTE, NC, 28213",642242719,"L"
906666,"8726 BEXAR DFR","HOUSTON","TX",77064,29.8993102810001,-95.557672258,166,"8726 BEXAR DFR, HOUSTON, TX, 77064","Match","Non_Exact","8726 BEXAR DR, HOUSTON, TX, 77064",96553281,"R"
906667,"8726 BUCSH OAKS","TAMPA","FL",33617,28.0304080070001,-82.4042997239999,167,"8726 BUCSH OAKS, TAMPA, FL, 33617","Match","Non_Exact","8726 BUSCH OAKS ST, TAMPA, FL, 33617",104578846,"R"
906668,"8726 CASTLEROCK COURT","LAUREL","MD",20723,39.1214180110001,-76.85706419,168,"8726 CASTLEROCK COURT, LAUREL, MD, 20723","Match","Exact","8726 CASTLEROCK CT, LAUREL, MD, 20723",158932993,"R"
906669,"8726 CHURCH CIRCLE","CLEAR LAKE","MN",55319,45.4430135690001,-93.996188116,169,"8726 CHURCH CIRCLE, CLEAR LAKE, MN, 55319","Match","Exact","8726 CHURCH CIR, CLEAR LAKE, MN, 55319",97759763,"L"
906670,"8726 CORE LN","HOUSTON","TX",77095,NA,NA,170,"8726 CORE LN, HOUSTON, TX, 77095","No_Match",NA,NA,NA,NA
906671,"8726 CREEKTAIL LN APT319","CORLINEUS","NC",28031,NA,NA,171,"8726 CREEKTAIL LN APT319, CORLINEUS, NC, 28031","No_Match",NA,NA,NA,NA
906672,"8726 EDGEWATER DRIVE","AMHERST JCT","WI",54407,44.4685065630001,-89.340701229,172,"8726 EDGEWATER DRIVE, AMHERST JCT, WI, 54407","Match","Exact","8726 EDGEWATER DR, AMHERST JUNCTION, WI, 54407",126800931,"R"
906673,"8726 HOLLOW BANKS LN","HOUSTON","TX",77095,29.904120317,-95.6801360709999,173,"8726 HOLLOW BANKS LN, HOUSTON, TX, 77095","Match","Exact","8726 HOLLOW BANKS LN, HOUSTON, TX, 77095",641765282,"R"
906674,"8726 HWY 2","OAK GROVE","LA",71263,32.8603041580001,-91.3536177079999,174,"8726 HWY 2, OAK GROVE, LA, 71263","Match","Non_Exact","8726 STATE RTE 2, OAK GROVE, LA, 71263",647225062,"R"
906675,"8726 INDIAN RIVER RUN","BOYNTON BEACH","FL",33472,26.5458986370001,-80.135457324,175,"8726 INDIAN RIVER RUN, BOYNTON BEACH, FL, 33472","Match","Exact","8726 INDIAN RIVER RUN, BOYNTON BEACH, FL, 33472",115489255,"L"
906676,"8726 MOUNTAIN TOP","SAN ANTONIO","TX",78255,29.688381818,-98.659806595,176,"8726 MOUNTAIN TOP, SAN ANTONIO, TX, 78255","Match","Exact","8726 MOUNTAIN TOP, SAN ANTONIO, TX, 78255",101697848,"R"
906677,"8726 NORWAY STREET NW","COON RAPIDS","MN",55433,45.1291195900001,-93.28490175,177,"8726 NORWAY STREET NW, COON RAPIDS, MN, 55433","Match","Exact","8726 NORWAY ST NW, COON RAPIDS, MN, 55433",97531308,"R"
906678,"8726 PARKER ST","OMAHA","NE",68114,41.2769070160001,-96.050135256,178,"8726 PARKER ST, OMAHA, NE, 68114","Match","Exact","8726 PARKER ST, OMAHA, NE, 68114",636724558,"R"
906679,"8726 PEMBERTON CIRCLE A","INDIANAPOLIS","IN",46260,39.9135519340001,-86.1926551619999,179,"8726 PEMBERTON CIRCLE A, INDIANAPOLIS, IN, 46260","Match","Exact","8726 PEMBERTON CIR, INDIANAPOLIS, IN, 46260",108067355,"L"
906680,"8726 RIDGEBURY CIRCLE","HOUSTON","TX",77095,29.90778705,-95.6658719339999,180,"8726 RIDGEBURY CIRCLE, HOUSTON, TX, 77095","Match","Exact","8726 RIDGEBURY CIR, HOUSTON, TX, 77095",631458019,"R"
906681,"8726 RUPPERT CT","ELLICOTT CITY","MD",21043,39.2676707530001,-76.816513894,181,"8726 RUPPERT CT, ELLICOTT CITY, MD, 21043","Match","Exact","8726 RUPPERT CT, ELLICOTT CITY, MD, 21043",158961796,"R"
906682,"8726 S ALBANY","EVERGREEN PARK","IL",60805,NA,NA,182,"8726 S ALBANY, EVERGREEN PARK, IL, 60805","Tie",NA,NA,NA,NA
906683,"8726 S SEPULVEDA BLVD A22","LOS ANGELES","CA",90045,33.9582142780001,-118.396119764,183,"8726 S SEPULVEDA BLVD A22, LOS ANGELES, CA, 90045","Match","Non_Exact","8726 S SEPULVEDA BLVD, LOS ANGELES, CA, 90045",141579359,"L"
906684,"8726 S SEPULVEDA BLVD D-A13","LOS ANGELES","CA",90045,33.9582142780001,-118.396119764,184,"8726 S SEPULVEDA BLVD D-A13, LOS ANGELES, CA, 90045","Match","Non_Exact","8726 S SEPULVEDA BLVD, LOS ANGELES, CA, 90045",141579359,"L"
906685,"8726 S SEPULVEDA BLVD STE C71","WESTCHESTER","CA",90045,33.9582142780001,-118.396119764,185,"8726 S SEPULVEDA BLVD STE C71, WESTCHESTER, CA, 90045","Match","Non_Exact","8726 S SEPULVEDA BLVD, WESTCHESTER, CA, 90045",141579359,"L"
906686,"8726 S SEPULVEDA BLVD STE D931","LOS ANGELES","CA",90045,33.9582142780001,-118.396119764,186,"8726 S SEPULVEDA BLVD STE D931, LOS ANGELES, CA, 90045","Match","Non_Exact","8726 S SEPULVEDA BLVD, LOS ANGELES, CA, 90045",141579359,"L"
906687,"8726 S SEPULVEDA BLVD","LOS ANGELES","CA",90045,33.9582142780001,-118.396119764,187,"8726 S SEPULVEDA BLVD, LOS ANGELES, CA, 90045","Match","Exact","8726 S SEPULVEDA BLVD, LOS ANGELES, CA, 90045",141579359,"L"
906688,"8726 S SEPULVEDA BLVD","WESTCHESTER","CA",90045,33.9582142780001,-118.396119764,188,"8726 S SEPULVEDA BLVD, WESTCHESTER, CA, 90045","Match","Exact","8726 S SEPULVEDA BLVD, WESTCHESTER, CA, 90045",141579359,"L"
906689,"8726 SOUTH SEPULVEDA BLVD  C-181","LOS ANGELES","CA",90045,33.958228278,-118.396119788,189,"8726 SOUTH SEPULVEDA BLVD  C-181, LOS ANGELES, CA, 90045","Match","Exact","8726 S SEPULVEDA BLVD, LOS ANGELES, CA, 90045",141579359,"L"
906690,"8726 ST ALBANS PL","DUBLIN","OH",43017,40.144383384,-83.1424711189999,190,"8726 ST ALBANS PL, DUBLIN, OH, 43017","Match","Exact","8726 ST ALBANS PL, DUBLIN, OH, 43017",213001443,"R"
906691,"8726 TERRACE FALLS DRIVE","SODDY DAISY","TN",37379,35.237550694,-85.219408618,191,"8726 TERRACE FALLS DRIVE, SODDY DAISY, TN, 37379","Match","Exact","8726 TERRACE FALLS DR, SODDY DAISY, TN, 37379",59345049,"L"
906692,"8726 WADEBROOK TERR","SPRINGFIELD","VA",22153,38.721196408,-77.2108720149999,192,"8726 WADEBROOK TERR, SPRINGFIELD, VA, 22153","Match","Exact","8726 WADEBROOK TER, SPRINGFIELD, VA, 22153",76025927,"R"
906693,"8726 WIND SIDE DR","HOUSTON","TX",77040,29.881782129,-95.529627848,193,"8726 WIND SIDE DR, HOUSTON, TX, 77040","Match","Exact","8726 WIND SIDE DR, HOUSTON, TX, 77040",96024444,"L"
906694,"8727 53ST CT W","UNIVERSITY PLACE","WA",98467,NA,NA,194,"8727 53ST CT W, UNIVERSITY PLACE, WA, 98467","No_Match",NA,NA,NA,NA
906695,"8727 BUGGY LANE","CONVERS","TX",78109,29.5356106200001,-98.316475402,195,"8727 BUGGY LANE, CONVERS, TX, 78109","Match","Non_Exact","8727 BUGGY LN, CONVERSE, TX, 78109",648141469,"R"
906696,"8727 CASHEL LANE","TINLEY PARK","IL",60487,41.5374707980001,-87.829236499,196,"8727 CASHEL LANE, TINLEY PARK, IL, 60487","Match","Exact","8727 CASHEL LN, TINLEY PARK, IL, 60487",111612240,"L"
906697,"8727 CEDAR THICKET DR","DALLAS","TX",75249,32.6517049190001,-96.950820885,197,"8727 CEDAR THICKET DR, DALLAS, TX, 75249","Match","Exact","8727 CEDAR THICKET DR, DALLAS, TX, 75249",619147837,"R"
906698,"8727 CONTEE RD","LAUREL","MD",20708,39.0735033930001,-76.85510068,198,"8727 CONTEE RD, LAUREL, MD, 20708","Match","Exact","8727 CONTEE RD, LAUREL, MD, 20708",76325888,"R"
906699,"8727 HAZELCROFT LN","Charlotte","NC",28269,35.3162555150001,-80.824425836,199,"8727 HAZELCROFT LN, Charlotte, NC, 28269","Match","Exact","8727 HAZELCROFT LN, CHARLOTTE, NC, 28269",70583007,"R"
906700,"8727 HAZELCROFT LN","CHARLOTTE","NC",28269,35.3162555150001,-80.824425836,200,"8727 HAZELCROFT LN, CHARLOTTE, NC, 28269","Match","Exact","8727 HAZELCROFT LN, CHARLOTTE, NC, 28269",70583007,"R"
906701,"8727 JARWOOD ROAD","ROSEDALE","MD",21237,39.3442161630001,-76.48969755,201,"8727 JARWOOD ROAD, ROSEDALE, MD, 21237","Match","Exact","8727 JARWOOD RD, ROSEDALE, MD, 21237",191514189,"L"
906702,"8727 MADEIRA DRIVE","SAINT LOUIS","MO",63126,38.558249103,-90.3723128729999,202,"8727 MADEIRA DRIVE, SAINT LOUIS, MO, 63126","Match","Exact","8727 MADEIRA DR, SAINT LOUIS, MO, 63126",100138908,"R"
906703,"8727 ORANGE ST","ALTA LOMA","CA",91701,34.1385705750001,-117.615250791,203,"8727 ORANGE ST, ALTA LOMA, CA, 91701","Match","Exact","8727 ORANGE ST, RANCHO CUCAMONGA, CA, 91701",144633997,"R"
906704,"8727 ROBIN DRIVE","ERIE","PA",16509,42.020918975,-80.097320041,204,"8727 ROBIN DRIVE, ERIE, PA, 16509","Match","Exact","8727 ROBIN DR, ERIE, PA, 16509",117538183,"R"
906705,"8727 RUGBY DRIVE","IRVING","TX",75063,32.925215338,-96.964725258,205,"8727 RUGBY DRIVE, IRVING, TX, 75063","Match","Non_Exact","8727 RUGBY RD, IRVING, TX, 75063",617054508,"L"
906706,"8727 SHRADER  ROAD","HENRICO","VA",23228,37.6358557360001,-77.5296925119999,206,"8727 SHRADER  ROAD, HENRICO, VA, 23228","Match","Exact","8727 SHRADER RD, HENRICO, VA, 23228",106659110,"R"
906707,"8727 SHRADER RD","HENRICO","VA",23228,37.6358557360001,-77.5296925119999,207,"8727 SHRADER RD, HENRICO, VA, 23228","Match","Exact","8727 SHRADER RD, HENRICO, VA, 23228",106659110,"R"
906708,"8727 SNYDER FARM LANE","RICHMOND","TX",77469,29.532242625,-95.7272088409999,208,"8727 SNYDER FARM LANE, RICHMOND, TX, 77469","Match","Exact","8727 SNYDER FARM LN, RICHMOND, TX, 77469",648705446,"L"
906709,"8727 SOUTH 133RD PLACE","SEATTLE","WA",98178,47.482454654,-122.224887153,209,"8727 SOUTH 133RD PLACE, SEATTLE, WA, 98178","Match","Exact","8727 S 133RD PL, SEATTLE, WA, 98178",624629475,"L"
906710,"8727 SOUTH133RD PLACE","SEATTLE","WA",98178,NA,NA,210,"8727 SOUTH133RD PLACE, SEATTLE, WA, 98178","No_Match",NA,NA,NA,NA
906711,"8727","TULALIP","WA",98271,NA,NA,211,"8727, TULALIP, WA, 98271","No_Match",NA,NA,NA,NA
906712,"8728 8TH AVE W","EVERETT","WA",98204,47.919268388,-122.244497433,212,"8728 8TH AVE W, EVERETT, WA, 98204","Match","Exact","8728 8TH AVE W, EVERETT, WA, 98204",187757875,"R"
906713,"8728 AUTUMN RIDGE COURT","ODENTON","MD",21113,39.0673548600001,-76.711016478,213,"8728 AUTUMN RIDGE COURT, ODENTON, MD, 21113","Match","Exact","8728 AUTUMN RIDGE CT, ODENTON, MD, 21113",68211063,"R"
906714,"8728 BIRKENHEAD CT","LAUREL","MD",20723,39.1326361820001,-76.844159341,214,"8728 BIRKENHEAD CT, LAUREL, MD, 20723","Match","Exact","8728 BIRKENHEAD CT, LAUREL, MD, 20723",158931360,"R"
906715,"8728 CENTRAL PARK AVE","SKOKIE","IL",60076,42.0394526220001,-87.718171215,215,"8728 CENTRAL PARK AVE, SKOKIE, IL, 60076","Match","Exact","8728 CENTRAL PARK AVE, SKOKIE, IL, 60076",605256037,"L"
906716,"8728 FM 23 WEST","RUSK","TX",75785,31.7030147950001,-95.195952558,216,"8728 FM 23 WEST, RUSK, TX, 75785","Match","Exact","8728 FM 23 W, RUSK, TX, 75785",72325685,"L"
906717,"8728 FOXHILL COURT","RANCHO CUCAMONGA","CA",91730,34.103088821,-117.614849263,217,"8728 FOXHILL COURT, RANCHO CUCAMONGA, CA, 91730","Match","Exact","8728 FOXHILL CT, RANCHO CUCAMONGA, CA, 91730",614821470,"L"
906718,"8728 HAMIL CT","DOUGLASVILLE","GA",30135,33.7420731820001,-84.716486962,218,"8728 HAMIL CT, DOUGLASVILLE, GA, 30135","Match","Exact","8728 HAMIL CT, DOUGLASVILLE, GA, 30135",618470160,"L"
906719,"8728 HAZELCROFT LANE","CHARLOTTE","NC",28269,35.3162754150001,-80.824394942,219,"8728 HAZELCROFT LANE, CHARLOTTE, NC, 28269","Match","Exact","8728 HAZELCROFT LN, CHARLOTTE, NC, 28269",70583007,"L"
906720,"8728 HEATHWOOD BEND","KNOXVILLE","TN",37923,35.9099653120001,-84.070368743,220,"8728 HEATHWOOD BEND, KNOXVILLE, TN, 37923","Match","Exact","8728 HEATHWOOD BEND, KNOXVILLE, TN, 37923",42630821,"L"
906721,"8728 KANTURK CT","SACRAMENTO","CA",95828,38.456599699,-121.380623557,221,"8728 KANTURK CT, SACRAMENTO, CA, 95828","Match","Exact","8728 KANTURK CT, SACRAMENTO, CA, 95828",133365227,"L"
906722,"8728 N PAWNEE AVE","TAMPA","FL",33617,28.03010836,-82.406330466,222,"8728 N PAWNEE AVE, TAMPA, FL, 33617","Match","Exact","8728 PAWNEE AVE, TAMPA, FL, 33617",104532259,"L"
906723,"8728 N WISNER","NILES","IL",60714,NA,NA,223,"8728 N WISNER, NILES, IL, 60714","Tie",NA,NA,NA,NA
906724,"8728 OAK MANOR ROAD","LENEXA","KS",66227,38.970203112,-94.902338926,224,"8728 OAK MANOR ROAD, LENEXA, KS, 66227","Match","Exact","8728 OAK MANOR RD, LENEXA, KS, 66227",91336464,"R"
906725,"8728 OTTAWA RIVER CIRCLE","FOUNTAIN VALLEY","CA",92708,33.700784744,-117.976354895,225,"8728 OTTAWA RIVER CIRCLE, FOUNTAIN VALLEY, CA, 92708","Match","Exact","8728 OTTAWA RIVER CIR, FOUNTAIN VALLEY, CA, 92708",144019062,"R"
906726,"8728 PHIPPS FARM WAY","MANASSAS","VA",20109,38.764500135,-77.5500327729999,226,"8728 PHIPPS FARM WAY, MANASSAS, VA, 20109","Match","Exact","8728 PHIPPS FARM WAY, MANASSAS, VA, 20109",207143013,"L"
906727,"8728 S VINCENNES","CHICAGO","IL",60620,41.735567894,-87.645362816,227,"8728 S VINCENNES, CHICAGO, IL, 60620","Match","Non_Exact","8728 S VINCENNES AVE, CHICAGO, IL, 60620",111831699,"R"
906728,"8728 SANTA  BELLA","HAZELWOOD","MO",63042,38.7725921950001,-90.335939944,228,"8728 SANTA  BELLA, HAZELWOOD, MO, 63042","Match","Non_Exact","8728 SANTA BELLA DR, HAZELWOOD, MO, 63042",635628457,"L"
906729,"8728 W 3000 N RD","BONFILED","IL",60913,41.1614683380001,-88.043758248,229,"8728 W 3000 N RD, BONFILED, IL, 60913","Match","Non_Exact","8728 W 3000N RD, BONFIELD, IL, 60913",98352464,"R"
906730,"8728 W ATHENS ST","PEORIA","AZ",85382,33.64576449,-112.247019655,230,"8728 W ATHENS ST, PEORIA, AZ, 85382","Match","Exact","8728 W ATHENS ST, PEORIA, AZ, 85382",128933556,"L"
906731,"8728 W LOCKLAND COURT","PEORIA","AZ",85382,33.6302392750001,-112.246382615,231,"8728 W LOCKLAND COURT, PEORIA, AZ, 85382","Match","Exact","8728 W LOCKLAND CT, PEORIA, AZ, 85382",128391490,"R"
906732,"8728 WILD PRAIRIE ROSE WAY","LORTON","VA",22079,38.7192668270001,-77.2306436109999,232,"8728 WILD PRAIRIE ROSE WAY, LORTON, VA, 22079","Match","Exact","8728 WILD PRAIRIE ROSE WAY, LORTON, VA, 22079",614150210,"L"
906733,"8729 44TH STREET","LYONS","IL",60534,41.8111397100001,-87.838054794,233,"8729 44TH STREET, LYONS, IL, 60534","Match","Exact","8729 44TH ST, LYONS, IL, 60534",111792889,"L"
906734,"8729 BAMARCIA DRIVE","ELK GROVE","CA",95624,38.440845176,-121.360971113,234,"8729 BAMARCIA DRIVE, ELK GROVE, CA, 95624","Match","Exact","8729 BAMARCIA DR, ELK GROVE, CA, 95624",133354919,"R"
906735,"8729 BURTON STREET","BELLFLOWER","CA",90706,33.8883527180001,-118.1462968,235,"8729 BURTON STREET, BELLFLOWER, CA, 90706","Match","Exact","8729 BURTON ST, BELLFLOWER, CA, 90706",141698602,"L"
906736,"8729 COUNTY ROAD 1129","GODLEY","TX",76044,32.4630127080001,-97.5604288979999,236,"8729 COUNTY ROAD 1129, GODLEY, TX, 76044","Match","Exact","8729 CO RD 1129, GODLEY, TX, 76044",103547629,"L"
906737,"8729 DOVE LAND DRIVE APT B","PAHOKEE","FL",33476,26.8097572880001,-80.651952498,237,"8729 DOVE LAND DRIVE APT B, PAHOKEE, FL, 33476","Match","Non_Exact","8729 DOVELAND DR, PAHOKEE, FL, 33476",115569919,"R"
906738,"8729 DREW LANE","CHAPEL HILL","NC",27516,35.94563701,-79.099427624,238,"8729 DREW LANE, CHAPEL HILL, NC, 27516","Match","Exact","8729 DREW LN, CHAPEL HILL, NC, 27516",72406396,"L"
906739,"8729 FERNWOOD ST NE","OLYMPIA","WA",98516,47.1572513350001,-122.825710539,239,"8729 FERNWOOD ST NE, OLYMPIA, WA, 98516","Match","Exact","8729 FERNWOOD ST NE, OLYMPIA, WA, 98516",180949513,"L"
906740,"8729 LAGRANGE ST","LORTON","TX",22079,NA,NA,240,"8729 LAGRANGE ST, LORTON, TX, 22079","No_Match",NA,NA,NA,NA
906741,"8729 LAUREL GROVE LANE","NORTH CHARLESTON","SC",29420,32.916144495,-80.1336809969999,241,"8729 LAUREL GROVE LANE, NORTH CHARLESTON, SC, 29420","Match","Exact","8729 LAUREL GROVE LN, N CHARLESTON, SC, 29420",178486253,"L"
906742,"8729 MAPLE DRIVE","OZAWKIE","KS",66070,39.209967992,-95.452463872,242,"8729 MAPLE DRIVE, OZAWKIE, KS, 66070","Match","Exact","8729 MAPLE DR, OZAWKIE, KS, 66070",22248706,"L"
906743,"8729 MESA BROOK WY","ELK GROVE","CA",95624,38.4403883360001,-121.385029854,243,"8729 MESA BROOK WY, ELK GROVE, CA, 95624","Match","Exact","8729 MESA BROOK WAY, ELK GROVE, CA, 95624",133387258,"R"
906744,"8729 N CHASE AVE ROOM 2","PORTLAND","OR",97217,45.585607688,-122.704915068,244,"8729 N CHASE AVE ROOM 2, PORTLAND, OR, 97217","Match","Non_Exact","8729 N CHASE AVE, PORTLAND, OR, 97217",157494801,"L"
906745,"8729 S CARPENTER","CHICAGO","IL",60620,41.7348906140001,-87.64966857,245,"8729 S CARPENTER, CHICAGO, IL, 60620","Match","Non_Exact","8729 S CARPENTER ST, CHICAGO, IL, 60620",605521981,"L"
906746,"8729 S MORGAN ST","CHICAGO","IL",60620,41.735203647,-87.648466485,246,"8729 S MORGAN ST, CHICAGO, IL, 60620","Match","Exact","8729 S MORGAN ST, CHICAGO, IL, 60620",604995727,"L"
906747,"8729 S MORGAN","CHICAGO","IL",60620,41.735203647,-87.648466485,247,"8729 S MORGAN, CHICAGO, IL, 60620","Match","Non_Exact","8729 S MORGAN ST, CHICAGO, IL, 60620",604995727,"L"
906748,"8729 SAN RIO DRIVE","BUENA PARK","CA",90620,33.8359646970001,-118.023602998,248,"8729 SAN RIO DRIVE, BUENA PARK, CA, 90620","Match","Exact","8729 SAN RIO DR, BUENA PARK, CA, 90620",143999831,"R"
906749,"8729 STAGHORN ROAD","INDIANAPOLIS","IN",46260,39.9142678920001,-86.1908485279999,249,"8729 STAGHORN ROAD, INDIANAPOLIS, IN, 46260","Match","Exact","8729 STAGHORN RD, INDIANAPOLIS, IN, 46260",108050649,"R"
906750,"8729 SVL BOX","VICTORVILLE","CA",92395,NA,NA,250,"8729 SVL BOX, VICTORVILLE, CA, 92395","No_Match",NA,NA,NA,NA
906751,"8729 W LAWRENCE AVE","MILWAUKEE","WI",53225,43.0979537310001,-88.0214554039999,251,"8729 W LAWRENCE AVE, MILWAUKEE, WI, 53225","Match","Exact","8729 W LAWRENCE AVE, MILWAUKEE, WI, 53225",77727876,"L"
906752,"87295 TERRITORIAL HWY","VENETA","OR",97487,44.027595639,-123.352837877,252,"87295 TERRITORIAL HWY, VENETA, OR, 97487","Match","Exact","87295 TERRITORIAL HWY, VENETA, OR, 97487",638575715,"R"
906753,"873 45TH ST APT 303","BROOKLYN","NY",11220,40.6429962400001,-73.9992540809999,253,"873 45TH ST APT 303, BROOKLYN, NY, 11220","Match","Exact","873 45TH ST, BROOKLYN, NY, 11220",59098019,"L"
906754,"873 AMSTERDAM AVE","ATLANTA","GA",30306,33.7875979090001,-84.358482548,254,"873 AMSTERDAM AVE, ATLANTA, GA, 30306","Match","Non_Exact","873 AMSTERDAM AVE NE, ATLANTA, GA, 30306",629463021,"R"
906755,"873 ANCHORAGE PLACE","CHULA VISTA","CA",91914,32.6549410390001,-116.957492064,255,"873 ANCHORAGE PLACE, CHULA VISTA, CA, 91914","Match","Exact","873 ANCHORAGE PL, CHULA VISTA, CA, 91914",612887013,"L"
906756,"873 ASPENWOOD CIR","KISSIMMEE","FL",34743,28.3373793420001,-81.376599144,256,"873 ASPENWOOD CIR, KISSIMMEE, FL, 34743","Match","Exact","873 ASPENWOOD CIR, KISSIMMEE, FL, 34743",176657200,"R"
906757,"873 BATEMAN ST","GALESBURG","IL",61401,40.9577381290001,-90.3628726809999,257,"873 BATEMAN ST, GALESBURG, IL, 61401","Match","Exact","873 BATEMAN ST, GALESBURG, IL, 61401",9039559,"R"
906758,"873 BELLERIVE MANOR DRIVE","SAINT LOUIS","MO",63141,38.676033644,-90.484159561,258,"873 BELLERIVE MANOR DRIVE, SAINT LOUIS, MO, 63141","Match","Exact","873 BELLERIVE MANOR DR, SAINT LOUIS, MO, 63141",100195761,"L"
906759,"873 BELMONT AVE 2ND FL FRONT","PHILA","PA",19104,39.969375391,-75.2114501679999,259,"873 BELMONT AVE 2ND FL FRONT, PHILA, PA, 19104","Match","Exact","873 BELMONT AVE, PHILA, PA, 19104",131403040,"R"
906760,"873 BROADWAY APT 412","NEW YORK","NY",10003,40.7378563400001,-73.9901147959999,260,"873 BROADWAY APT 412, NEW YORK, NY, 10003","Match","Exact","873 BROADWAY, NEW YORK, NY, 10003",59653529,"L"
906761,"873 CAIRN CREEK DRIVE","CORDOVA","TN",38018,35.1488147000001,-89.779635261,261,"873 CAIRN CREEK DRIVE, CORDOVA, TN, 38018","Match","Exact","873 CAIRN CREEK DR, CORDOVA, TN, 38018",72947916,"R"
906762,"873 CAIRN CREEK DRIVE","MEMPHIS","TN",38018,35.1488147000001,-89.779635261,262,"873 CAIRN CREEK DRIVE, MEMPHIS, TN, 38018","Match","Non_Exact","873 CAIRN CREEK DR, CORDOVA, TN, 38018",72947916,"R"
906763,"873 CAMBRIDGE DRIVE","ELK GROVE VILLAGE","IL",60007,42.0132818820001,-87.95804394,263,"873 CAMBRIDGE DRIVE, ELK GROVE VILLAGE, IL, 60007","Match","Exact","873 CAMBRIDGE DR, ELK GROVE VILLAGE, IL, 60007",112361427,"R"
906764,"873 CARRIAGE HILL DR","FENTON","MI",48430,42.803807072,-83.691558916,264,"873 CARRIAGE HILL DR, FENTON, MI, 48430","Match","Exact","873 CARRIAGE HILL DR, FENTON, MI, 48430",69616770,"R"
906765,"873 CASTLE BLVD","AKRON","OH",44313,41.1271217410001,-81.558383863,265,"873 CASTLE BLVD, AKRON, OH, 44313","Match","Exact","873 CASTLE BLVD, AKRON, OH, 44313",61338865,"R"
906766,"873 CEMETERY ROAD","WINDSOR","NH",5089,NA,NA,266,"873 CEMETERY ROAD, WINDSOR, NH, 5089","No_Match",NA,NA,NA,NA
906767,"873 CHERRY LANE","VALLEY STREAM","NY",11581,40.6490974060001,-73.722164762,267,"873 CHERRY LANE, VALLEY STREAM, NY, 11581","Match","Exact","873 CHERRY LN, VALLEY STREAM, NY, 11581",147677059,"R"
906768,"873 CLAY PLACE","SPRING HILL","TN",37174,35.7279423420001,-86.9371514709999,268,"873 CLAY PLACE, SPRING HILL, TN, 37174","Match","Exact","873 CLAY PL, SPRING HILL, TN, 37174",651599223,"L"
906769,"873 CONCORD STREET","FRAMINGHAM","MA",1701,42.301530101,-71.406161558,269,"873 CONCORD STREET, FRAMINGHAM, MA, 1701","Match","Exact","873 CONCORD ST, FRAMINGHAM, MA, 01701",87102171,"R"
906770,"873 DANMEAD","AKRON","OH",44305,41.0878271180001,-81.477595046,270,"873 DANMEAD, AKRON, OH, 44305","Match","Non_Exact","873 DANMEAD AVE, AKRON, OH, 44305",61381841,"R"
906771,"873 DAYTON CIRCLE","FORT LAUDERDALE","FL",33312,NA,NA,271,"873 DAYTON CIRCLE, FORT LAUDERDALE, FL, 33312","Tie",NA,NA,NA,NA
906772,"873 EAST IRON ORE WAY APT 101","SANDY","UT",84094,40.5900295000001,-111.865926296,272,"873 EAST IRON ORE WAY APT 101, SANDY, UT, 84094","Match","Exact","873 E IRON ORE WAY, SANDY, UT, 84094",645876458,"R"
906773,"873 ELMWOOD ROAD","ROCKY RIVER","OH",44116,41.477971315,-81.8559314729999,273,"873 ELMWOOD ROAD, ROCKY RIVER, OH, 44116","Match","Exact","873 ELMWOOD RD, ROCKY RIVER, OH, 44116",61097368,"L"
906774,"873 ERICKSON AVE","COLUMBUS","OH",43213,39.9564582100001,-82.884267903,274,"873 ERICKSON AVE, COLUMBUS, OH, 43213","Match","Exact","873 ERICKSON AVE, COLUMBUS, OH, 43213",135593141,"R"
906775,"873 FRONEK DR","STREETSBORO","OH",44241,41.2573039910001,-81.358692155,275,"873 FRONEK DR, STREETSBORO, OH, 44241","Match","Exact","873 FRONEK DR, STREETSBORO, OH, 44241",642177350,"R"
906776,"873 GEMINI PLACE","CHANDLER","AZ",85249,33.220376721,-111.826883686,276,"873 GEMINI PLACE, CHANDLER, AZ, 85249","Match","Non_Exact","873 E GEMINI PL, CHANDLER, AZ, 85249",128854605,"R"
906777,"873 GREENSHIRE COURT","ST. LOUIS","MO",63130,38.665070638,-90.343937554,277,"873 GREENSHIRE COURT, ST. LOUIS, MO, 63130","Match","Exact","873 GREENSHIRE CT, SAINT LOUIS, MO, 63130",100133274,"L"
906778,"873 HALSTON ROAD","WEST SUNBURY","PA",16061,41.008658826,-79.89989652,278,"873 HALSTON ROAD, WEST SUNBURY, PA, 16061","Match","Non_Exact","873 HALLSTON RD, WEST SUNBURY, PA, 16061",607349555,"R"
906779,"873 HANCOCK STREET","BROOKLYN","NY",11233,40.685968362,-73.920218991,279,"873 HANCOCK STREET, BROOKLYN, NY, 11233","Match","Exact","873 HANCOCK ST, BROOKLYN, NY, 11233",642654188,"L"
906780,"873 HOLLY BUSH ROAD","BRANDON","MS",39047,32.3985962530001,-89.9336361639999,280,"873 HOLLY BUSH ROAD, BRANDON, MS, 39047","Match","Exact","873 HOLLY BUSH RD, BRANDON, MS, 39047",649605011,"R"
906781,"873 HORIZON RD SE","PALM BAY","FL",32909,27.9720022490001,-80.64719473,281,"873 HORIZON RD SE, PALM BAY, FL, 32909","Match","Exact","873 HORIZON RD SE, PALM BAY, FL, 32909",93909150,"L"
906782,"873 HORNADAY PL","BRONX","NY",10460,40.846464327,-73.882093272,282,"873 HORNADAY PL, BRONX, NY, 10460","Match","Exact","873 HORNADAY PL, BRONX, NY, 10460",80301679,"L"
906783,"873 KINGS CROSS","WADSWORTH","OH",44281,41.003826066,-81.7154655429999,283,"873 KINGS CROSS, WADSWORTH, OH, 44281","Match","Non_Exact","873 KINGS CROSS DR, WADSWORTH, OH, 44281",613803462,"L"
906784,"873 LENOX ROAD","BROOKLYN","NY",11203,40.6555686610001,-73.9271107229999,284,"873 LENOX ROAD, BROOKLYN, NY, 11203","Match","Exact","873 LENOX RD, BROOKLYN, NY, 11203",59083587,"L"
906785,"873 LIBRA CT","LOVELAND","CO",80537,40.400657982,-105.050260717,285,"873 LIBRA CT, LOVELAND, CO, 80537","Match","Exact","873 LIBRA CT, LOVELAND, CO, 80537",636186662,"R"
906786,"873 LONG POINT ROAD","MOUNT PLEASANT","SC",29464,32.8428563750001,-79.841933924,286,"873 LONG POINT ROAD, MOUNT PLEASANT, SC, 29464","Match","Exact","873 LONG POINT RD, MOUNT PLEASANT, SC, 29464",108900780,"L"
906787,"873 MEIGS STREET","ROCHESTER","NY",14620,43.137559331,-77.6006832589999,287,"873 MEIGS STREET, ROCHESTER, NY, 14620","Match","Exact","873 MEIGS ST, ROCHESTER, NY, 14620",14540493,"R"
906788,"873 MERCURY DR","ATLANTA","GA",30331,33.777905638,-84.508966489,288,"873 MERCURY DR, ATLANTA, GA, 30331","Match","Non_Exact","873 MERCURY DR NW, ATLANTA, GA, 30331",17336437,"R"
906789,"873 MERCURY DRIVE NW","ATLANTA","GA",30331,33.777905638,-84.508966489,289,"873 MERCURY DRIVE NW, ATLANTA, GA, 30331","Match","Exact","873 MERCURY DR NW, ATLANTA, GA, 30331",17336437,"R"
906790,"873 MEYER ROAD","KIMBELL","MI",48027,NA,NA,290,"873 MEYER ROAD, KIMBELL, MI, 48027","No_Match",NA,NA,NA,NA
906791,"873 MIDVALE MINE RD SE","DENNISON","OH",44621,40.459293481,-81.3206436739999,291,"873 MIDVALE MINE RD SE, DENNISON, OH, 44621","Match","Exact","873 MIDVALE MINE RD SE, DENNISON, OH, 44621",44250627,"R"
906792,"873 MILBURN COURT","BALDWIN","NY",11510,40.6576225060001,-73.6051013329999,292,"873 MILBURN COURT, BALDWIN, NY, 11510","Match","Exact","873 MILBURN CT, BALDWIN, NY, 11510",147630226,"L"
906793,"873 MORNING SUN DR","TWIN FALLS","ID",83301,42.5767427960001,-114.427372329,293,"873 MORNING SUN DR, TWIN FALLS, ID, 83301","Match","Exact","873 MORNING SUN DR, TWIN FALLS, ID, 83301",118821611,"R"
906794,"873 MORRISON AVENUE","MEDFORD","OR",97504,42.3125941270001,-122.827727885,294,"873 MORRISON AVENUE, MEDFORD, OR, 97504","Match","Exact","873 MORRISON AVE, MEDFORD, OR, 97504",155540906,"L"
906795,"873 MT WASHINGTON DR","LOS ANGELES","CA",90065,NA,NA,295,"873 MT WASHINGTON DR, LOS ANGELES, CA, 90065","No_Match",NA,NA,NA,NA
906796,"873 N LARRABEE ST APT 501","CHICAGO","IL",60610,41.898444969,-87.643001323,296,"873 N LARRABEE ST APT 501, CHICAGO, IL, 60610","Match","Non_Exact","873 N LARRABEE ST, CHICAGO, IL, 60610",111767760,"R"
906797,"873 N RICHMOND ST APT1","CHICAGO","IL",60622,41.897546952,-87.7004128629999,297,"873 N RICHMOND ST APT1, CHICAGO, IL, 60622","Match","Non_Exact","873 N RICHMOND ST, CHICAGO, IL, 60622",605064818,"R"
906798,"873 N TENMILE LK","LAKESIDE","OR",97449,NA,NA,298,"873 N TENMILE LK, LAKESIDE, OR, 97449","No_Match",NA,NA,NA,NA
906799,"873 NW 114 ST","OKLAHOMA CITY","OK",73162,NA,NA,299,"873 NW 114 ST, OKLAHOMA CITY, OK, 73162","No_Match",NA,NA,NA,NA
906800,"873 OLD HWY 11 W","MOORESBURG","TN",37811,36.346208453,-83.230928255,300,"873 OLD HWY 11 W, MOORESBURG, TN, 37811","Match","Exact","873 OLD HWY 11 W, MOORESBURG, TN, 37811",638971900,"R"
906801,"873 RAVENWOOD DR","GREENWOOD","IN",46142,39.6296304730001,-86.134123678,301,"873 RAVENWOOD DR, GREENWOOD, IN, 46142","Match","Exact","873 RAVENWOOD DR, GREENWOOD, IN, 46142",607000130,"R"
906802,"873 REDLEAFE CIRCLE","CHESAPEAKE","VA",23320,36.732506227,-76.2089362569999,302,"873 REDLEAFE CIRCLE, CHESAPEAKE, VA, 23320","Match","Exact","873 REDLEAFE CIR, CHESAPEAKE, VA, 23320",626832793,"R"
906803,"873 ROBBINS LANE","NASHVILLE","NC",27856,NA,NA,303,"873 ROBBINS LANE, NASHVILLE, NC, 27856","No_Match",NA,NA,NA,NA
906804,"873 S BLACK CHERRY DRIVE","SAINT JOHNS","FL",32259,30.098679202,-81.481578149,304,"873 S BLACK CHERRY DRIVE, SAINT JOHNS, FL, 32259","Match","Exact","873 BLACK CHERRY DR, SAINT JOHNS, FL, 32259",650342783,"L"
906805,"873 SAND CREEK CIRCLE","WESTON","FL",33327,26.126770573,-80.404165754,305,"873 SAND CREEK CIRCLE, WESTON, FL, 33327","Match","Exact","873 SAND CREEK CIR, WESTON, FL, 33327",114784035,"L"
906806,"873 SANDCASTLE DRIVE","CORONA DEL MAR","CA",92625,33.5995908520001,-117.863965953,306,"873 SANDCASTLE DRIVE, CORONA DEL MAR, CA, 92625","Match","Exact","873 SANDCASTLE DR, CORONA DEL MAR, CA, 92625",638574513,"L"
906807,"873 SARANAC LAKE DR UNIT 203","VENICE","FL",34292,27.0853029130001,-82.3909633279999,307,"873 SARANAC LAKE DR UNIT 203, VENICE, FL, 34292","Match","Exact","873 SARANAC LAKE DR, VENICE, FL, 34292",16457875,"R"
906808,"873 STATE RD 20","INTERLACHEN","FL",32148,NA,NA,308,"873 STATE RD 20, INTERLACHEN, FL, 32148","No_Match",NA,NA,NA,NA
906809,"873 STILL CREEK LANE","GAITHERSBURY","MD",20878,39.109161509,-77.234746765,309,"873 STILL CREEK LANE, GAITHERSBURY, MD, 20878","Match","Non_Exact","873 STILL CREEK LN, GAITHERSBURG, MD, 20878",62145514,"L"
906810,"873 STONE GATE","DESOTO","MO",63020,38.153921129,-90.588846366,310,"873 STONE GATE, DESOTO, MO, 63020","Match","Non_Exact","873 STONE GATE DR, DE SOTO, MO, 63020",62770924,"L"
906811,"873 TALLAPOOSA ST","NOTASULGA","AL",36866,32.5660982420001,-85.682962063,311,"873 TALLAPOOSA ST, NOTASULGA, AL, 36866","Match","Exact","873 TALLAPOOSA ST, NOTASULGA, AL, 36866",69137440,"L"
906812,"873 TANAGER RD","POCATELLO","ID",83201,42.9007806870001,-112.468284287,312,"873 TANAGER RD, POCATELLO, ID, 83201","Match","Non_Exact","873 TANAGER DR, POCATELLO, ID, 83201",204350539,"L"
906813,"873 TREE RIDGE CT","HARTLAND","WI",53029,43.0890269970001,-88.34737029,313,"873 TREE RIDGE CT, HARTLAND, WI, 53029","Match","Exact","873 TREE RIDGE CT, HARTLAND, WI, 53029",53854081,"L"
906814,"873 TRILLUM LANE","WINSTON SALEM","NC",27127,36.038511461,-80.253073333,314,"873 TRILLUM LANE, WINSTON SALEM, NC, 27127","Match","Non_Exact","873 TRILLIUM LN, WINSTON SALEM, NC, 27127",624379543,"L"
906815,"873 TROPICANA DR EAST","CORDOVA","TN",38018,35.1482085050001,-89.7728480709999,315,"873 TROPICANA DR EAST, CORDOVA, TN, 38018","Match","Exact","873 TROPICANA DR E, CORDOVA, TN, 38018",72966276,"R"
906816,"873 TURNPIKE STREET","NORTH ANDOVER","MA",1845,42.657914217,-71.104935965,316,"873 TURNPIKE STREET, NORTH ANDOVER, MA, 1845","Match","Exact","873 TURNPIKE ST, NORTH ANDOVER, MA, 01845",86713276,"R"
906817,"873 TUSCARORA AVE","ST PAUL","MN",55102,44.923282079,-93.1370798629999,317,"873 TUSCARORA AVE, ST PAUL, MN, 55102","Match","Non_Exact","873 W TUSCARORA AVE, SAINT PAUL, MN, 55102",97647227,"R"
906818,"873 W TIMBERLAND TRL","ALTAMONTE SPRINGS","FL",32714,28.6453005270001,-81.432218564,318,"873 W TIMBERLAND TRL, ALTAMONTE SPRINGS, FL, 32714","Match","Exact","873 TIMBERLAND TRL, ALTAMONTE SPRINGS, FL, 32714",93753954,"L"
906819,"873 WELK CT","COROLLA","NC",27927,36.3366789560001,-75.820756447,319,"873 WELK CT, COROLLA, NC, 27927","Match","Exact","873 WELK CT, COROLLA, NC, 27927",81386335,"L"
906820,"873 WELLS ST RD","DUQUOIN","IL",62832,NA,NA,320,"873 WELLS ST RD, DUQUOIN, IL, 62832","No_Match",NA,NA,NA,NA
906821,"873 WESLEY ROAD","ASHALND","OH",44805,40.9449999,-82.356653895,321,"873 WESLEY ROAD, ASHALND, OH, 44805","Match","Non_Exact","873 WESLEY RD, ASHLAND, OH, 44805",635648589,"R"
906822,"873 WHITE BEAR ROAD","BIRDSBORO","PA",19508,40.247176526,-75.870034066,322,"873 WHITE BEAR ROAD, BIRDSBORO, PA, 19508","Match","Exact","873 WHITE BEAR RD, BIRDSBORO, PA, 19508",80411306,"R"
906823,"873 WHITEWATER ROAD","SUMMERSVILLE","WV",26651,38.2792346840001,-80.9372257909999,323,"873 WHITEWATER ROAD, SUMMERSVILLE, WV, 26651","Match","Exact","873 WHITEWATER RD, SUMMERSVILLE, WV, 26651",50057563,"R"
906824,"873 WILLAMETTE","EUGENE","OR",97401,NA,NA,324,"873 WILLAMETTE, EUGENE, OR, 97401","Tie",NA,NA,NA,NA
906825,"873 WILLIAMS ST","BREA","CA",92821,33.9331738590001,-117.907213178,325,"873 WILLIAMS ST, BREA, CA, 92821","Match","Exact","873 WILLIAMS ST, BREA, CA, 92821",144422643,"L"
906826,"873 WOODHILL DRIVE","CAROL STREAM","IL",60188,41.9339300500001,-88.151866196,326,"873 WOODHILL DRIVE, CAROL STREAM, IL, 60188","Match","Exact","873 WOODHILL DR, CAROL STREAM, IL, 60188",112517238,"L"
906827,"8730 46TH ST","PINELLAS PARK","FL",33782,27.8511103610001,-82.6960861869999,327,"8730 46TH ST, PINELLAS PARK, FL, 33782","Match","Non_Exact","8730 46TH ST N, PINELLAS PARK, FL, 33782",124696797,"L"
906828,"8730 ASTRO DR","JENISON","MI",49428,42.927040402,-85.811887558,328,"8730 ASTRO DR, JENISON, MI, 49428","Match","Exact","8730 ASTRO DR, JENISON, MI, 49428",71095156,"R"
906829,"8730 BECKENHAM LANE UNIT G","INGLEWOOD","CA",90305,33.9581505890001,-118.339030001,329,"8730 BECKENHAM LANE UNIT G, INGLEWOOD, CA, 90305","Match","Exact","8730 BECKENHAM LN, INGLEWOOD, CA, 90305",141775251,"L"
906830,"8730 BECKENHAM LANE UNIT J","INGLEWOOD","CA",90305,33.9581505890001,-118.339030001,330,"8730 BECKENHAM LANE UNIT J, INGLEWOOD, CA, 90305","Match","Exact","8730 BECKENHAM LN, INGLEWOOD, CA, 90305",141775251,"L"
906831,"8730 BOARDWALK TRAIL DRIVE","TEMPLE TERRACE","FL",33637,28.052588918,-82.360718974,331,"8730 BOARDWALK TRAIL DRIVE, TEMPLE TERRACE, FL, 33637","Match","Exact","8730 BOARDWALK TRAIL DR, TEMPLE TER, FL, 33637",639490999,"L"
906832,"8730 BOBCAT LANE","LAKELAND","FL",33810,28.1566026610001,-82.0192727899999,332,"8730 BOBCAT LANE, LAKELAND, FL, 33810","Match","Exact","8730 BOBCAT LN, LAKELAND, FL, 33810",104806510,"L"
906833,"8730 CARSON RANCH RD","CROWLEY","TX",76036,NA,NA,333,"8730 CARSON RANCH RD, CROWLEY, TX, 76036","No_Match",NA,NA,NA,NA
906834,"8730 E 60TH PLACE","TULSA","OK",74145,36.076137735,-95.878504167,334,"8730 E 60TH PLACE, TULSA, OK, 74145","Match","Exact","8730 E 60TH PL, TULSA, OK, 74145",166468229,"R"
906835,"8730 E APPALOOSA TRAIL","SCOTTSDALE","AZ",85258,33.581466124,-111.892784423,335,"8730 E APPALOOSA TRAIL, SCOTTSDALE, AZ, 85258","Match","Exact","8730 E APPALOOSA TRL, SCOTTSDALE, AZ, 85258",128922082,"L"
906836,"8730 EAST SKELLY DR","TULSA","OK",74129,36.1254312620001,-95.8792613429999,336,"8730 EAST SKELLY DR, TULSA, OK, 74129","Match","Exact","8730 E SKELLY DR, TULSA, OK, 74129",166453200,"R"
906837,"8730 FM 314","BEN WHEELER","TX",75754,32.386801808,-95.598900774,337,"8730 FM 314, BEN WHEELER, TX, 75754","Match","Exact","8730 FM 314, BEN WHEELER, TX, 75754",42948739,"L"
906838,"8730 GEORGIA AVENUE SUITE 610","SILVER SPRING","MD",20910,38.9980918320001,-77.03052826,338,"8730 GEORGIA AVENUE SUITE 610, SILVER SPRING, MD, 20910","Match","Exact","8730 GEORGIA AVE, SILVER SPRING, MD, 20910",637462943,"R"
906839,"8730 JUSTICE AVENUE 5G","ELMHURST","NY",11373,NA,NA,339,"8730 JUSTICE AVENUE 5G, ELMHURST, NY, 11373","No_Match",NA,NA,NA,NA
906840,"8730 JUSTICE AVENUE APT 5J","ELMHURST","NY",11373,NA,NA,340,"8730 JUSTICE AVENUE APT 5J, ELMHURST, NY, 11373","No_Match",NA,NA,NA,NA
906841,"8730 LAKE JORDAN LN","NORTH DINWIDDIE","VA",23803,37.153331032,-77.527451661,341,"8730 LAKE JORDAN LN, NORTH DINWIDDIE, VA, 23803","Match","Exact","8730 LAKE JORDAN LN, NORTH DINWIDDIE, VA, 23803",626753836,"R"
906842,"8730 MANHATTAN AVENUE","PLANO","TX",75024,33.096898218,-96.784407033,342,"8730 MANHATTAN AVENUE, PLANO, TX, 75024","Match","Exact","8730 MANHATTAN AVE, PLANO, TX, 75024",600641817,"L"
906843,"8730 MYSTIC CIRCLE","NORTH PORT","FL",34286,27.034864575,-82.2522181529999,343,"8730 MYSTIC CIRCLE, NORTH PORT, FL, 34286","Match","Non_Exact","8730 MYSTIC CIR, NORTH PORT, FL, 34287",16392571,"L"
906844,"8730 NORTH HIMES APT 805","TAMPA","FL",33614,28.0307675500001,-82.5007478109999,344,"8730 NORTH HIMES APT 805, TAMPA, FL, 33614","Match","Non_Exact","8730 N HIMES AVE, TAMPA, FL, 33614",611506070,"L"
906845,"8730 NORTHPARK BLVD SUITE 1-D","CHARLESTON","SC",29410,32.96749844,-80.043050654,345,"8730 NORTHPARK BLVD SUITE 1-D, CHARLESTON, SC, 29410","Match","Non_Exact","8730 NORTHPARK BLVD, CHARLESTON, SC, 29406",108837444,"L"
906846,"8730 RIVER WIND DR","SUGAR LAND","TX",77479,29.558681167,-95.6665379629999,346,"8730 RIVER WIND DR, SUGAR LAND, TX, 77479","Match","Exact","8730 RIVER WIND DR, SUGAR LAND, TX, 77479",78322716,"L"
906847,"8730 S JELLISON CT","LITTLETON","CO",80128,39.557391742,-105.109077418,347,"8730 S JELLISON CT, LITTLETON, CO, 80128","Match","Exact","8730 S JELLISON CT, LITTLETON, CO, 80128",177747202,"R"
906848,"8730 S MEADOWVIEW CIR","TAMPA","FL",33625,28.053189692,-82.580514856,348,"8730 S MEADOWVIEW CIR, TAMPA, FL, 33625","Match","Exact","8730 S MEADOWVIEW CIR, TAMPA, FL, 33625",104507034,"L"
906849,"8730 SARAH BEND DRIVE","CINCINNATI","OH",45251,39.2291905490001,-84.581672553,349,"8730 SARAH BEND DRIVE, CINCINNATI, OH, 45251","Match","Non_Exact","8730 SARAHS BEND DR, CINCINNATI, OH, 45251",103957837,"R"
906850,"8730 SERENADE LN","HOUSTON","TX",77040,29.886970886,-95.527265205,350,"8730 SERENADE LN, HOUSTON, TX, 77040","Match","Exact","8730 SERENADE LN, HOUSTON, TX, 77040",96225528,"R"
906851,"8730 SILVER SPUR","FLAGSTAFF","AZ",86004,35.265551675,-111.540526445,351,"8730 SILVER SPUR, FLAGSTAFF, AZ, 86004","Match","Non_Exact","8730 SILVER SPUR RD, FLAGSTAFF, AZ, 86004",189056147,"R"
906852,"8730 SW 133 AVE RD 10-210","MIAMI","FL",33183,NA,NA,352,"8730 SW 133 AVE RD 10-210, MIAMI, FL, 33183","Tie",NA,NA,NA,NA
906853,"8730 SW IRONSTONE PL","BEAVERTON","OR",97007,45.45667561,-122.839770199,353,"8730 SW IRONSTONE PL, BEAVERTON, OR, 97007","Match","Exact","8730 SW IRONSTONE PL, BEAVERTON, OR, 97007",158210925,"R"
906854,"8730 TAYLOR CT NE","BLAINE","MN",55434,45.128500091,-93.244143386,354,"8730 TAYLOR CT NE, BLAINE, MN, 55434","Match","Exact","8730 TAYLOR CT NE, BLAINE, MN, 55434",97489928,"L"
906855,"8730 TWIN LAKE DRIVE","BOCA RATON","FL",33496,26.40714153,-80.1803533739999,355,"8730 TWIN LAKE DRIVE, BOCA RATON, FL, 33496","Match","Exact","8730 TWIN LAKE DR, BOCA RATON, FL, 33496",115291855,"R"
906856,"8730 W 220TH ST","BELLE PLAINE","MN",56011,44.6304078630001,-93.6955639239999,356,"8730 W 220TH ST, BELLE PLAINE, MN, 56011","Match","Exact","8730 W 220TH ST, BELLE PLAINE, MN, 56011",653756471,"L"
906857,"8730 W BOBBY LOPEZ","TOLLESON","AZ",85353,33.452496866,-112.248261739,357,"8730 W BOBBY LOPEZ, TOLLESON, AZ, 85353","Match","Non_Exact","8730 W BOBBY LOPEZ DR, TOLLESON, AZ, 85353",128390904,"R"
906858,"8730 W KINGSBURY AVE","ST. LOUIS","MO",63123,38.658440655,-90.362776428,358,"8730 W KINGSBURY AVE, ST. LOUIS, MO, 63123","Match","Non_Exact","8730 W KINGSBURY AVE, SAINT LOUIS, MO, 63124",100133013,"L"
906859,"8730 WILSHIRE BLVD 412","BEVERLY HILLS","CA",90211,34.066729991,-118.382436491,359,"8730 WILSHIRE BLVD 412, BEVERLY HILLS, CA, 90211","Match","Exact","8730 WILSHIRE BLVD, BEVERLY HILLS, CA, 90211",141572869,"L"
906860,"87308","HOUSTON","TX",77287,NA,NA,360,"87308, HOUSTON, TX, 77287","No_Match",NA,NA,NA,NA
906861,"8731 45TH AVENUE","KENOSHA","WI",53142,42.5470717750001,-87.861844302,361,"8731 45TH AVENUE, KENOSHA, WI, 53142","Match","Exact","8731 45TH AVE, KENOSHA, WI, 53142",79799070,"L"
906862,"8731 CUSTER SCHOOL RD","C","WA",98240,48.957988292,-122.637952962,362,"8731 CUSTER SCHOOL RD, C, WA, 98240","Match","Non_Exact","8731 CUSTER SCHOOL RD, CUSTER, WA, 98240",183791704,"L"
906863,"8731 CUSTER SCHOOL RD","CUSTER","WA",98240,48.957988292,-122.637952962,363,"8731 CUSTER SCHOOL RD, CUSTER, WA, 98240","Match","Exact","8731 CUSTER SCHOOL RD, CUSTER, WA, 98240",183791704,"L"
906864,"8731 E FREMONT CIR","CENTENNIAL","CO",80112,39.5859334570001,-104.887685412,364,"8731 E FREMONT CIR, CENTENNIAL, CO, 80112","Match","Exact","8731 E FREMONT CIR, CENTENNIAL, CO, 80112",177346984,"L"
906865,"8731 E KLATT ROAD","ANCHORAGE","AK",99507,61.115836512,-149.719303897,365,"8731 E KLATT ROAD, ANCHORAGE, AK, 99507","Match","Exact","8731 E KLATT RD, ANCHORAGE, AK, 99507",190804809,"R"
906866,"8731 E ROWEL DR","PRESCOTT VALLEY","AZ",86314,34.621128066,-112.310783632,366,"8731 E ROWEL DR, PRESCOTT VALLEY, AZ, 86314","Match","Exact","8731 E ROWEL DR, PRESCOTT VALLEY, AZ, 86314",159461659,"L"
906867,"8731 EXECUTIVE WOODS DR APT 12","LINCOLN","NE",68512,40.7253007140001,-96.6957253149999,367,"8731 EXECUTIVE WOODS DR APT 12, LINCOLN, NE, 68512","Match","Exact","8731 EXECUTIVE WOODS DR, LINCOLN, NE, 68512",28298358,"R"
906868,"8731 FORT SHEA AVE","ORALNDO","FL",32822,28.481969108,-81.27256908,368,"8731 FORT SHEA AVE, ORALNDO, FL, 32822","Match","Non_Exact","8731 FORT SHEA AVE, ORLANDO, FL, 32822",94392959,"R"
906869,"8731 FORT SHEA AVE","ORLANDO","FL",32822,28.481969108,-81.27256908,369,"8731 FORT SHEA AVE, ORLANDO, FL, 32822","Match","Exact","8731 FORT SHEA AVE, ORLANDO, FL, 32822",94392959,"R"
906870,"8731 LAKESHORE DRIVE","PLEASANT PRAIRIE","WI",53158,42.546562282,-87.813859985,370,"8731 LAKESHORE DRIVE, PLEASANT PRAIRIE, WI, 53158","Match","Exact","8731 LAKESHORE DR, PLEASANT PRAIRIE, WI, 53158",79801374,"L"
906871,"8731 LINDENWOOD LANE","IRVING","TX",75063,32.9239388460001,-96.971255242,371,"8731 LINDENWOOD LANE, IRVING, TX, 75063","Match","Exact","8731 LINDENWOOD LN, IRVING, TX, 75063",639639120,"L"
906872,"8731 LITHIA-PINECREST ROAD","LITHIA","FL",33547,27.8505973690001,-82.1319568279999,372,"8731 LITHIA-PINECREST ROAD, LITHIA, FL, 33547","Match","Non_Exact","8731 LITHIA PINECREST RD, LITHIA, FL, 33547",104640799,"L"
906873,"8731 N HIGHWAY 77","LEXINGTON","TX",78947,30.4127457710001,-97.0031975749999,373,"8731 N HIGHWAY 77, LEXINGTON, TX, 78947","Match","Exact","8731 N HWY 77, LEXINGTON, TX, 78947",39146498,"L"
906874,"8731 NW 6TH CT","CORAL SPRINGS","FL",33071,26.2391112500001,-80.2416472799999,374,"8731 NW 6TH CT, CORAL SPRINGS, FL, 33071","Match","Exact","8731 NW 6TH CT, CORAL SPRINGS, FL, 33071",114800024,"L"
906875,"8731 S 259TH STREET B-203","KENT","WA",98030,47.3696630910001,-122.222938236,375,"8731 S 259TH STREET B-203, KENT, WA, 98030","Match","Non_Exact","8731 S 259TH ST, KENT, WA, 98030",187041069,"R"
906876,"8731 S BENNETT","CHICAGO","IL",60617,41.736231882,-87.5781213179999,376,"8731 S BENNETT, CHICAGO, IL, 60617","Match","Non_Exact","8731 S BENNETT AVE, CHICAGO, IL, 60617",605549943,"L"
906877,"8731 SHADOW LAWN COURT","ANNANDALE","VA",22003,38.8366925730001,-77.245873495,377,"8731 SHADOW LAWN COURT, ANNANDALE, VA, 22003","Match","Exact","8731 SHADOW LAWN CT, ANNANDALE, VA, 22003",645573116,"L"
906878,"8731 SULTANA DR","ANCHORAGE","AK",99516,61.1096016660001,-149.719430143,378,"8731 SULTANA DR, ANCHORAGE, AK, 99516","Match","Exact","8731 SULTANA DR, ANCHORAGE, AK, 99516",190804830,"L"
906879,"8731 SUMMIT CIRCLE","SLATINGTON","PA",18080,40.776031167,-75.6143910499999,379,"8731 SUMMIT CIRCLE, SLATINGTON, PA, 18080","Match","Exact","8731 SUMMIT CIR, SLATINGTON, PA, 18080",80785736,"R"
906880,"8731 VINE VALLEY DR","SUN VALLEY","CA",91352,34.228243342,-118.359535593,380,"8731 VINE VALLEY DR, SUN VALLEY, CA, 91352","Match","Exact","8731 VINE VALLEY DR, SUN VALLEY, CA, 91352",141586595,"L"
906881,"8731 W 9 MILE RD","OAK PARK","MI",48237,42.46018171,-83.1600338499999,381,"8731 W 9 MILE RD, OAK PARK, MI, 48237","Match","Exact","8731 W 9 MILE RD, OAK PARK, MI, 48237",69742296,"L"
906882,"8731 WHITE SWANN DRIVE UNIT 104","TAMPA","FL",33614,28.034573344,-82.4946679,382,"8731 WHITE SWANN DRIVE UNIT 104, TAMPA, FL, 33614","Match","Non_Exact","8731 WHITE SWAN DR, TAMPA, FL, 33614",648494594,"R"
906883,"8731 WINDING LANE","FORT WORTH","TX",76120,32.765161984,-97.1635156039999,383,"8731 WINDING LANE, FORT WORTH, TX, 76120","Match","Exact","8731 WINDING LN, FORT WORTH, TX, 76120",101904440,"R"
906884,"8732 86TH STREET","WOODHAVEN","NY",11421,NA,NA,384,"8732 86TH STREET, WOODHAVEN, NY, 11421","No_Match",NA,NA,NA,NA
906885,"8732 ABERDEEN DRIVE","LEAWOOD","KS",66206,38.970107096,-94.620279105,385,"8732 ABERDEEN DRIVE, LEAWOOD, KS, 66206","Match","Exact","8732 ABERDEEN DR, LEAWOOD, KS, 66206",91279510,"R"
906886,"8732 E BANNISTER TERRACE","KANSAS CITY","MO",64134,38.9509853320001,-94.486618743,386,"8732 E BANNISTER TERRACE, KANSAS CITY, MO, 64134","Match","Exact","8732 BANNISTER TER, KANSAS CITY, MO, 64134",91466386,"L"
906887,"8732 EDMONTON","INGLEWOOD","CA",90305,33.9579379910001,-118.337697227,387,"8732 EDMONTON, INGLEWOOD, CA, 90305","Match","Non_Exact","8732 EDMONTON PL, INGLEWOOD, CA, 90305",141775270,"L"
906888,"8732 FAIR OAKS BLVD APT 9","CARMICHAEL","CA",95608,38.636336059,-121.299088723,388,"8732 FAIR OAKS BLVD APT 9, CARMICHAEL, CA, 95608","Match","Exact","8732 FAIR OAKS BLVD, CARMICHAEL, CA, 95608",133343829,"R"
906889,"8732 GRAY WILLOW RD","CHARLOTTE","NC",28227,35.2182109660001,-80.6562831049999,389,"8732 GRAY WILLOW RD, CHARLOTTE, NC, 28227","Match","Exact","8732 GRAY WILLOW RD, CHARLOTTE, NC, 28227",618148553,"R"
906890,"8732 LAKE SPRINGS TRL","HURST","TX",76053,32.804687535,-97.188980965,390,"8732 LAKE SPRINGS TRL, HURST, TX, 76053","Match","Exact","8732 LAKE SPRINGS TRL, HURST, TX, 76053",102113927,"R"
906891,"8732 LAS VEGAS COURT 1714","FORT WORTH","TX",76116,32.7322125640001,-97.468202643,391,"8732 LAS VEGAS COURT 1714, FORT WORTH, TX, 76116","Match","Exact","8732 LAS VEGAS CT, FORT WORTH, TX, 76116",101920144,"R"
906892,"8732 LAUREL GROVE LANE","CHARLESTON","SC",29420,32.9161816340001,-80.133653317,392,"8732 LAUREL GROVE LANE, CHARLESTON, SC, 29420","Match","Exact","8732 LAUREL GROVE LN, CHARLESTON, SC, 29420",178486253,"R"
906893,"8732 LISA LANE","RANDALLSTOWN","MD",21133,39.3821976470001,-76.779986735,393,"8732 LISA LANE, RANDALLSTOWN, MD, 21133","Match","Exact","8732 LISA LN, RANDALLSTOWN, MD, 21133",191500067,"L"
906894,"8732 PIKES PEAK RD","YUKON","OK",73099,35.559490257,-97.6779136759999,394,"8732 PIKES PEAK RD, YUKON, OK, 73099","Match","Exact","8732 PIKES PEAK RD, YUKON, OK, 73099",624925469,"L"
906895,"8732 PINE RIDGE LN","DITTMER","MO",63023,38.272294404,-90.7205923989999,395,"8732 PINE RIDGE LN, DITTMER, MO, 63023","Match","Non_Exact","8732 PINE RIDGE RD, DITTMER, MO, 63023",607869970,"L"
906896,"8732 PORTAFINO PL","WHITTIER","CA",90603,33.962199238,-117.986154128,396,"8732 PORTAFINO PL, WHITTIER, CA, 90603","Match","Exact","8732 PORTAFINO PL, WHITTIER, CA, 90603",141751180,"L"
906897,"8732 S JEFFERY BLVD","CHICAGO","IL",60617,41.7361254630001,-87.5757027079999,397,"8732 S JEFFERY BLVD, CHICAGO, IL, 60617","Match","Exact","8732 S JEFFERY BLVD, CHICAGO, IL, 60617",616793449,"R"
906898,"8732 S WOODS","CHICAGO","IL",60620,NA,NA,398,"8732 S WOODS, CHICAGO, IL, 60620","No_Match",NA,NA,NA,NA
906899,"8732 WOODLIEF RD","WAKE FOREST","NC",27587,36.02568741,-78.6171717569999,399,"8732 WOODLIEF RD, WAKE FOREST, NC, 27587","Match","Exact","8732 WOODLIEF RD, WAKE FOREST, NC, 27587",72603064,"R"
906900,"8733 ALSOP TOWN ROAD","SPOTSYLVANIA","VA",22551,38.1726069210001,-77.6369799519999,400,"8733 ALSOP TOWN ROAD, SPOTSYLVANIA, VA, 22551","Match","Exact","8733 ALSOP TOWN RD, SPOTSYLVANIA, VA, 22551",85035213,"L"
906901,"8733 ARGENTINE WAY","PLANO","TX",75024,33.098577769,-96.791503952,401,"8733 ARGENTINE WAY, PLANO, TX, 75024","Match","Exact","8733 ARGENTINE WAY, PLANO, TX, 75024",627668268,"L"
906902,"8733 CARRIAGE HOUSE WAY","KNOXVILLE","TN",37923,35.9061886630001,-84.0727475479999,402,"8733 CARRIAGE HOUSE WAY, KNOXVILLE, TN, 37923","Match","Exact","8733 CARRIAGE HOUSE WAY, KNOXVILLE, TN, 37923",604669086,"R"
906903,"8733 CORRINGTON AVE","KANSAS CITY","MO",64138,38.965202102,-94.505642474,403,"8733 CORRINGTON AVE, KANSAS CITY, MO, 64138","Match","Exact","8733 CORRINGTON AVE, KANSAS CITY, MO, 64138",91464736,"L"
906904,"8733 EAST 25TH STREET","DENVER","CO",80238,NA,NA,404,"8733 EAST 25TH STREET, DENVER, CO, 80238","Tie",NA,NA,NA,NA
906905,"8733 FINCHWOOD LANE","KNOXVILLE","TN",37924,36.0194574110001,-83.729792216,405,"8733 FINCHWOOD LANE, KNOXVILLE, TN, 37924","Match","Exact","8733 FINCHWOOD LN, KNOXVILLE, TN, 37924",42669698,"L"
906906,"8733 GLADDEN HILL LANE","FORT MILL","SC",29715,35.0821987250001,-80.912802689,406,"8733 GLADDEN HILL LANE, FORT MILL, SC, 29715","Match","Exact","8733 GLADDEN HILL LN, FORT MILL, SC, 29715",648241237,"R"
906907,"8733 GOODFELLOW","ST LOUIS","MO",63147,38.7188996240001,-90.250284316,407,"8733 GOODFELLOW, ST LOUIS, MO, 63147","Match","Non_Exact","8733 GOODFELLOW BLVD, SAINT LOUIS, MO, 63147",107591910,"L"
906908,"8733 MOUNT SHASTA DRIVE","EL PASO","TX",79904,31.861690713,-106.417735146,408,"8733 MOUNT SHASTA DRIVE, EL PASO, TX, 79904","Match","Exact","8733 MOUNT SHASTA DR, EL PASO, TX, 79904",189339975,"L"
906909,"8733 NORTH MAGNOLIA AVENUE","SANTEE","CA",92071,32.8341068830001,-116.964842063,409,"8733 NORTH MAGNOLIA AVENUE, SANTEE, CA, 92071","Match","Non_Exact","8733 N MAGNOLIA AVE N, SANTEE, CA, 92071",647082746,"R"
906910,"8733 OLD DUMFRIES ROAD","CATLETT","VA",20119,38.6776183710001,-77.664261172,410,"8733 OLD DUMFRIES ROAD, CATLETT, VA, 20119","Match","Exact","8733 OLD DUMFRIES RD, CATLETT, VA, 20119",146287653,"R"
906911,"8733 PARKCLIFF STREET","DOWNEY","CA",90242,33.9055090620001,-118.148538883,411,"8733 PARKCLIFF STREET, DOWNEY, CA, 90242","Match","Exact","8733 PARKCLIFF ST, DOWNEY, CA, 90242",141697425,"L"
906912,"8733 PENRIDGE PLACE","INGLEWOOD","CA",90305,33.9577246810001,-118.336170746,412,"8733 PENRIDGE PLACE, INGLEWOOD, CA, 90305","Match","Exact","8733 PENRIDGE PL, INGLEWOOD, CA, 90305",141775241,"R"
906913,"8733 RAVENA DR N","SALEM","OR",97303,45.0459918120001,-123.027692891,413,"8733 RAVENA DR N, SALEM, OR, 97303","Match","Exact","8733 RAVENA DR N, SALEM, OR, 97303",156260180,"L"
906914,"8733 SHADOWRIDGE DR","NEWBURGH","IN",47630,37.9933410520001,-87.41025981,414,"8733 SHADOWRIDGE DR, NEWBURGH, IN, 47630","Match","Non_Exact","8733 SHADOW RIDGE DR, NEWBURGH, IN, 47630",32215939,"R"
906915,"8733 SOUTHWESTERN BLVD APT 1717","DALLAS","TX",75206,32.8581975920001,-96.758014589,415,"8733 SOUTHWESTERN BLVD APT 1717, DALLAS, TX, 75206","Match","Exact","8733 SOUTHWESTERN BLVD, DALLAS, TX, 75206",648834762,"L"
906916,"8733 SPRUCE RIDGE WAY","ANTELOPE","CA",95843,38.727852963,-121.391071063,416,"8733 SPRUCE RIDGE WAY, ANTELOPE, CA, 95843","Match","Exact","8733 SPRUCE RIDGE WAY, ANTELOPE, CA, 95843",133388597,"L"
906917,"8734 245TH AVE","SALEM","WI",53168,42.5495076920001,-88.105022149,417,"8734 245TH AVE, SALEM, WI, 53168","Match","Non_Exact","8734 245TH ST, SALEM, WI, 53168",79819062,"R"
906918,"8734 AMBONAY DR","BRENTWOOD","TN",37027,NA,NA,418,"8734 AMBONAY DR, BRENTWOOD, TN, 37027","No_Match",NA,NA,NA,NA
906919,"8734 AVALON STREET","ALTA LOMA","CA",91701,34.1285278020001,-117.615480589,419,"8734 AVALON STREET, ALTA LOMA, CA, 91701","Match","Exact","8734 AVALON ST, RANCHO CUCAMONGA, CA, 91701",144634122,"L"
906920,"8734 BERGESON DRIVE","INDIANAPOLIS","IN",46278,39.91268245,-86.272734267,420,"8734 BERGESON DRIVE, INDIANAPOLIS, IN, 46278","Match","Exact","8734 BERGESON DR, INDIANAPOLIS, IN, 46278",108032338,"L"
906921,"8734 CHADWICK LANE","KALAMAZOO","MI",49009,42.2530268790001,-85.720395313,421,"8734 CHADWICK LANE, KALAMAZOO, MI, 49009","Match","Exact","8734 CHADWICK LN, KALAMAZOO, MI, 49009",12241882,"L"
906922,"8734 E JASMINE ST","MESA","AZ",85207,33.4482954330001,-111.642948207,422,"8734 E JASMINE ST, MESA, AZ, 85207","Match","Exact","8734 E JASMINE ST, MESA, AZ, 85207",641071827,"R"
906923,"8734 E THORNWOOD DRIVE","SCOTTSDALE","AZ",85251,33.50709914,-111.893052173,423,"8734 E THORNWOOD DRIVE, SCOTTSDALE, AZ, 85251","Match","Exact","8734 E THORNWOOD DR, SCOTTSDALE, AZ, 85251",128889312,"L"
906924,"8734 FIRESIDE DRIVE","DALLAS","TX",75217,32.6978805570001,-96.6694719,424,"8734 FIRESIDE DRIVE, DALLAS, TX, 75217","Match","Exact","8734 FIRESIDE DR, DALLAS, TX, 75217",635762080,"R"
906925,"8734 HUNTERS BLUFF","SAN ANTONIO","TX",78250,29.5007088580001,-98.65857059,425,"8734 HUNTERS BLUFF, SAN ANTONIO, TX, 78250","Match","Exact","8734 HUNTERS BLUFF, SAN ANTONIO, TX, 78250",101589293,"L"
906926,"8734 KELSO TERRACE","GAITHERSBURG","MD",20877,39.155581813,-77.17745468,426,"8734 KELSO TERRACE, GAITHERSBURG, MD, 20877","Match","Exact","8734 KELSO TER, GAITHERSBURG, MD, 20877",62127811,"L"
906927,"8734 MARBURG MANOR DR","TIMONIUM","MD",21093,39.4326255390001,-76.649380804,427,"8734 MARBURG MANOR DR, TIMONIUM, MD, 21093","Match","Exact","8734 MARBURG MANOR DR, TIMONIUM, MD, 21093",191500518,"L"
906928,"8734 MILL CREEK CHURCH ROAD","PORT REPUBLIC","VA",24471,38.3354779490001,-78.820579284,428,"8734 MILL CREEK CHURCH ROAD, PORT REPUBLIC, VA, 24471","Match","Exact","8734 MILL CREEK CHURCH RD, PORT REPUBLIC, VA, 24471",55745230,"R"
906929,"8734 POLISHED PEBBLE WAY","LAUREL","MD",20723,39.138525676,-76.8445865269999,429,"8734 POLISHED PEBBLE WAY, LAUREL, MD, 20723","Match","Exact","8734 POLISHED PEBBLE WAY, LAUREL, MD, 20723",618347508,"R"
906930,"8734 RIVERSIDE HOUSE PATH","BREWERTON","NY",13029,43.227182032,-76.121407506,430,"8734 RIVERSIDE HOUSE PATH, BREWERTON, NY, 13029","Match","Exact","8734 RIVERSIDE HOUSE PATH, BREWERTON, NY, 13029",645566513,"R"
906931,"8734 ROARING POINT DR","HOUSTON","TX",77088,29.8800220460001,-95.462668719,431,"8734 ROARING POINT DR, HOUSTON, TX, 77088","Match","Exact","8734 ROARING POINT DR, HOUSTON, TX, 77088",96228684,"L"
906932,"8734 SERENE RIDGE DR","SAN ANTONIO","TX",78239,29.517732815,-98.339819771,432,"8734 SERENE RIDGE DR, SAN ANTONIO, TX, 78239","Match","Exact","8734 SERENE RIDGE DR, SAN ANTONIO, TX, 78239",651835806,"L"
906933,"8734 TARIN PT","CONVERSE","TX",78109,29.495665581,-98.316811629,433,"8734 TARIN PT, CONVERSE, TX, 78109","Match","Exact","8734 TARIN PT, CONVERSE, TX, 78109",101589399,"L"
906934,"8734 W GREENWOOD TERRACE","MILWAUKEE","WI",53224,43.154553724,-88.0206542829999,434,"8734 W GREENWOOD TERRACE, MILWAUKEE, WI, 53224","Match","Exact","8734 W GREENWOOD TER, MILWAUKEE, WI, 53224",77724702,"R"
906935,"8734 WAKEFIELD","BATON ROUGE","LA",70809,NA,NA,435,"8734 WAKEFIELD, BATON ROUGE, LA, 70809","No_Match",NA,NA,NA,NA
906936,"8734 WESCOTT AVENUE","SAINT LOUIS","MO",63136,38.7207521080001,-90.252006369,436,"8734 WESCOTT AVENUE, SAINT LOUIS, MO, 63136","Match","Exact","8734 WESCOTT AVE, SAINT LOUIS, MO, 63136",618224288,"R"
906937,"8734C CUMBRIA COURT","FT. WASHINGTON","MD",20744,38.770652033,-76.988235526,437,"8734C CUMBRIA COURT, FT. WASHINGTON, MD, 20744","Match","Exact","8734 CUMBRIA CT, FT WASHINGTON, MD, 20744",76391833,"R"
906938,"8735 ARDMORE AVE","BRIGHTON","MI",48116,42.474583169,-83.80212649,438,"8735 ARDMORE AVE, BRIGHTON, MI, 48116","Match","Exact","8735 ARDMORE AVE, BRIGHTON, MI, 48116",23575153,"R"
906939,"8735 BAY PARKWAY APT A63","BROOKLYN","NY",11214,NA,NA,439,"8735 BAY PARKWAY APT A63, BROOKLYN, NY, 11214","No_Match",NA,NA,NA,NA
906940,"8735 COUNTY ROAD 339","NEW BLOOMFIELD","MO",65063,NA,NA,440,"8735 COUNTY ROAD 339, NEW BLOOMFIELD, MO, 65063","No_Match",NA,NA,NA,NA
906941,"8735 DELMAR BLVD 1E","SAINT LOUIS","MO",63124,38.6608539900001,-90.363530394,441,"8735 DELMAR BLVD 1E, SAINT LOUIS, MO, 63124","Match","Exact","8735 DELMAR BLVD, SAINT LOUIS, MO, 63124",650035561,"R"
906942,"8735 DORIS AVE","PENSACOLA","FL",32534,30.524785783,-87.278413971,442,"8735 DORIS AVE, PENSACOLA, FL, 32534","Match","Exact","8735 DORIS AVE, PENSACOLA, FL, 32534",93267830,"L"
906943,"8735 F M 1960 WEST 304","HOUSTON","TX",77070,NA,NA,443,"8735 F M 1960 WEST 304, HOUSTON, TX, 77070","No_Match",NA,NA,NA,NA
906944,"8735 GRANADA PL","ST LOUIS","MO",63136,38.7207708110001,-90.2536274449999,444,"8735 GRANADA PL, ST LOUIS, MO, 63136","Match","Exact","8735 GRANADA PL, SAINT LOUIS, MO, 63136",618224290,"L"
906945,"8735 HILL SPRING DR","LA PLATA","MD",20646,38.52930343,-77.008778142,445,"8735 HILL SPRING DR, LA PLATA, MD, 20646","Match","Exact","8735 HILL SPRING DR, LA PLATA, MD, 20646",627468413,"R"
906946,"8735 HOLME DRIVE","PHILADELPHIA","PA",19136,40.0561707890001,-75.0169795319999,446,"8735 HOLME DRIVE, PHILADELPHIA, PA, 19136","Match","Exact","8735 HOLME DR, PHILADELPHIA, PA, 19136",131444136,"R"
906947,"8735 INDIAN VILLAGE DRIVE","WELLINGTON","CO",80549,40.7124537240001,-105.018224468,447,"8735 INDIAN VILLAGE DRIVE, WELLINGTON, CO, 80549","Match","Exact","8735 INDIAN VILLAGE DR, WELLINGTON, CO, 80549",634327287,"R"
906948,"8735 LAKE IN THE WOODS DR","CHAGRIN FALLS","OH",44023,41.4215393970001,-81.3301577829999,448,"8735 LAKE IN THE WOODS DR, CHAGRIN FALLS, OH, 44023","Match","Non_Exact","8735 LAKE IN THE WOODS TRL, CHAGRIN FALLS, OH, 44023",137439572,"L"
906949,"8735 MEADOWGROVE LN","GAINESVILLE","GA",30506,34.2778530260001,-83.997076965,449,"8735 MEADOWGROVE LN, GAINESVILLE, GA, 30506","Match","Exact","8735 MEADOWGROVE LN, GAINESVILLE, GA, 30506",618445754,"L"
906950,"8735 MULBERRY ROAD","CHESTERLAND","OH",44026,41.555799795,-81.33034838,450,"8735 MULBERRY ROAD, CHESTERLAND, OH, 44026","Match","Exact","8735 MULBERRY RD, CHESTERLAND, OH, 44026",137433035,"R"
906951,"8735 NORTH COVE DRIVE","PARK CITY","UT",84098,40.7591499980001,-111.597554084,451,"8735 NORTH COVE DRIVE, PARK CITY, UT, 84098","Match","Exact","8735 N COVE DR, PARK CITY, UT, 84098",607606436,"L"
906952,"8735 PALATINE AVE N","SEATTLE","WA",98103,47.6927381180001,-122.35667009,452,"8735 PALATINE AVE N, SEATTLE, WA, 98103","Match","Exact","8735 PALATINE AVE N, SEATTLE, WA, 98103",186578581,"L"
906953,"8735 PALOMINO TRAIL","KIRTLAND","OH",44094,41.571473053,-81.332782379,453,"8735 PALOMINO TRAIL, KIRTLAND, OH, 44094","Match","Exact","8735 PALOMINO TRL, KIRTLAND, OH, 44094",604782826,"L"
906954,"8735 PLACITAS ROCA RD NW","ALBUQUERQUE","NM",87120,35.16118506,-106.737526118,454,"8735 PLACITAS ROCA RD NW, ALBUQUERQUE, NM, 87120","Match","Exact","8735 PLACITAS ROCA RD NW, ALBUQUERQUE, NM, 87120",644999746,"R"
906955,"8735 PORTLAND AVE","BLOOMINGOTN","MN",55420,44.8455943160001,-93.268264086,455,"8735 PORTLAND AVE, BLOOMINGOTN, MN, 55420","Match","Non_Exact","8735 PORTLAND AVE S, BLOOMINGTON, MN, 55420",635871824,"L"
906956,"8735 PORTLAND","MINNEAPOLIS","MN",55420,NA,NA,456,"8735 PORTLAND, MINNEAPOLIS, MN, 55420","No_Match",NA,NA,NA,NA
906957,"8735 Q PLAZA","OMAHA","NE",68127,41.205088017,-96.0486769729999,457,"8735 Q PLAZA, OMAHA, NE, 68127","Match","Exact","8735 Q PLZ, OMAHA, NE, 68127",116982209,"L"
906958,"8735 STONE VIEW CT","GAINESVILLE","GA",30506,34.2809168860001,-84.003092059,458,"8735 STONE VIEW CT, GAINESVILLE, GA, 30506","Match","Non_Exact","8735 STONEVIEW CT, GAINESVILLE, GA, 30506",618445717,"L"
906959,"8735 SW 49TH AVENUE","PORTLAND","OR",97219,45.4623075000001,-122.726903139,459,"8735 SW 49TH AVENUE, PORTLAND, OR, 97219","Match","Exact","8735 SW 49TH AVE, PORTLAND, OR, 97219",647824998,"R"
906960,"8735 W 1400 N","ELWOOD","IN",46036,40.3058700300001,-85.836956419,460,"8735 W 1400 N, ELWOOD, IN, 46036","Match","Non_Exact","8735 CO RD 1400 N, ELWOOD, IN, 46036",31129981,"R"
906961,"8735 W 525 N","BOGGSTOWN","IN",46110,39.6006252920001,-85.946612702,461,"8735 W 525 N, BOGGSTOWN, IN, 46110","Match","Exact","8735 W 525 N, BOGGSTOWN, IN, 46110",33230495,"L"
906962,"8735 W PATRICK LANE","PEORIA","AZ",85383,33.692577892,-112.247354489,462,"8735 W PATRICK LANE, PEORIA, AZ, 85383","Match","Exact","8735 W PATRICK LN, PEORIA, AZ, 85383",642046148,"L"
906963,"8735 W PROSPECT RD","HILLSBORO","OH",45133,39.134119469,-83.568376217,463,"8735 W PROSPECT RD, HILLSBORO, OH, 45133","Match","Exact","8735 W PROSPECT RD, HILLSBORO, OH, 45133",638126860,"L"
906964,"8735 WEST PINE LAKE RD","SALEM","OH",44460,40.929754959,-80.815916159,464,"8735 WEST PINE LAKE RD, SALEM, OH, 44460","Match","Exact","8735 W PINE LAKE RD, SALEM, OH, 44460",64602336,"R"
906965,"8735 YEARLING DR APT 4E","N. CHARLESTON","SC",29406,32.966009001,-80.057207649,465,"8735 YEARLING DR APT 4E, N. CHARLESTON, SC, 29406","Match","Exact","8735 YEARLING DR, N CHARLESTON, SC, 29406",108898880,"L"
906966,"8735","DETROIT","MI",48228,NA,NA,466,"8735, DETROIT, MI, 48228","No_Match",NA,NA,NA,NA
906967,"8735A GERST AVENUE","PERRY HALL","MD",21128,39.3883696300001,-76.462404864,467,"8735A GERST AVENUE, PERRY HALL, MD, 21128","Match","Exact","8735 GERST AVE, PERRY HALL, MD, 21128",640098244,"R"
906968,"8736 CHAMPIONS DR","CASTLETON","IN",46256,39.9152208520001,-86.022636956,468,"8736 CHAMPIONS DR, CASTLETON, IN, 46256","Match","Exact","8736 CHAMPIONS DR, CASTLETON, IN, 46256",108017691,"R"
906969,"8736 E 375 S","LAFAYETTE","IN",47905,NA,NA,469,"8736 E 375 S, LAFAYETTE, IN, 47905","No_Match",NA,NA,NA,NA
906970,"8736 E D AVE","RICHLAND","MI",49083,42.376219759,-85.45991839,470,"8736 E D AVE, RICHLAND, MI, 49083","Match","Exact","8736 E D AVE, RICHLAND, MI, 49083",12232390,"R"
906971,"8736 EAGLE FEATHER DR","MANHATTAN","KS",66502,39.2049569050001,-96.512330648,471,"8736 EAGLE FEATHER DR, MANHATTAN, KS, 66502","Match","Exact","8736 EAGLE FEATHER DR, MANHATTAN, KS, 66502",22301183,"L"
906972,"8736 HAZELCROFT LANE","CHARLOTTE","NC",28269,35.3163780960001,-80.8243170699999,472,"8736 HAZELCROFT LANE, CHARLOTTE, NC, 28269","Match","Exact","8736 HAZELCROFT LN, CHARLOTTE, NC, 28269",70583007,"L"
906973,"8736 HOLLOWAY DR APT B","WEST HOLLYWOOD","CA",90069,34.09057506,-118.381673675,473,"8736 HOLLOWAY DR APT B, WEST HOLLYWOOD, CA, 90069","Match","Non_Exact","8736 W HOLLOWAY DR, W HOLLYWOOD, CA, 90069",141572118,"L"
906974,"8736 LAUREL CANYON DRIVE","UNIVERSAL CITY","TX",78148,29.5595334430001,-98.316553915,474,"8736 LAUREL CANYON DRIVE, UNIVERSAL CITY, TX, 78148","Match","Exact","8736 LAUREL CANYON DR, UNIVERSAL CITY, TX, 78148",101706130,"L"
906975,"8736 N 200 W","FORTVILLE","IN",46040,39.9113334680001,-85.843332554,475,"8736 N 200 W, FORTVILLE, IN, 46040","Match","Exact","8736 N 200 W, FORTVILLE, IN, 46040",649508228,"R"
906976,"8736 RAMONA STREET","BELLFLOWER","CA",90706,33.8729283800001,-118.145698097,476,"8736 RAMONA STREET, BELLFLOWER, CA, 90706","Match","Exact","8736 RAMONA ST, BELLFLOWER, CA, 90706",142774777,"R"
906977,"8736 ROUTE 90 PO BOX 296","KING FERRY","NY",13081,NA,NA,477,"8736 ROUTE 90 PO BOX 296, KING FERRY, NY, 13081","No_Match",NA,NA,NA,NA
906978,"8736 S RICHMOND AVE","EVERGREEN PARK","IL",60805,41.7343687970001,-87.6960409069999,478,"8736 S RICHMOND AVE, EVERGREEN PARK, IL, 60805","Match","Non_Exact","8736 S RICHMOND ST, EVERGREEN PARK, IL, 60805",112225059,"R"
906979,"8736 SAINT MARYS STREET","ODESSA","TX",79765,31.9371924810001,-102.395588581,479,"8736 SAINT MARYS STREET, ODESSA, TX, 79765","Match","Exact","8736 ST MARYS ST, ODESSA, TX, 79765",139427133,"R"
906980,"8736 SOUTH WINCHESTER AVE","CHICAGO","IL",60620,41.7348245800001,-87.670606091,480,"8736 SOUTH WINCHESTER AVE, CHICAGO, IL, 60620","Match","Exact","8736 S WINCHESTER AVE, CHICAGO, IL, 60620",616786112,"R"
906981,"8736 STONEHENGE DR","PICKERINGTON","OH",43147,39.931987792,-82.750374125,481,"8736 STONEHENGE DR, PICKERINGTON, OH, 43147","Match","Non_Exact","8736 STONEHENGE DR NW, PICKERINGTON, OH, 43147",37232134,"R"
906982,"8736 SW 6TH ST","MIAMI","FL",33174,25.763234991,-80.3371150739999,482,"8736 SW 6TH ST, MIAMI, FL, 33174","Match","Exact","8736 SW 6TH ST, MIAMI, FL, 33174",116043847,"L"
906983,"8736 TIBURON DRIVE","CINCINNATI","OH",45249,39.2532448370001,-84.314238045,483,"8736 TIBURON DRIVE, CINCINNATI, OH, 45249","Match","Exact","8736 TIBURON DR, CINCINNATI, OH, 45249",103946137,"L"
906984,"8736 TOWNSQUARE DR N","JACKSONVILLE","FL",32216,30.3038267360001,-81.5664440149999,484,"8736 TOWNSQUARE DR N, JACKSONVILLE, FL, 32216","Match","Exact","8736 TOWNSQUARE DR N, JACKSONVILLE, FL, 32216",83947363,"L"
906985,"8736 US 50","HILLSBORO","OH",45133,39.2093173490001,-83.567604869,485,"8736 US 50, HILLSBORO, OH, 45133","Match","Non_Exact","8736 US HWY 50, HILLSBORO, OH, 45133",627612920,"R"
906986,"8737 2ND AVENUE","JACKSONVILLE","FL",32208,30.3997970240001,-81.685297339,486,"8737 2ND AVENUE, JACKSONVILLE, FL, 32208","Match","Exact","8737 2ND AVE, JACKSONVILLE, FL, 32208",83892353,"R"
906987,"8737 AMARETTO AVENUE","SARASOTA","FL",34238,27.2602065340001,-82.4820340529999,487,"8737 AMARETTO AVENUE, SARASOTA, FL, 34238","Match","Exact","8737 AMARETTO AVE, SARASOTA, FL, 34238",650159717,"L"
906988,"8737 BAY AVE","CALIFORNIA CITY","CA",93505,35.1240525320001,-117.972555138,488,"8737 BAY AVE, CALIFORNIA CITY, CA, 93505","Match","Exact","8737 BAY AVE, CALIF CITY, CA, 93505",109022758,"R"
906989,"8737 BLACKVIREO DR","AUSTIN","TX",78729,30.4645372460001,-97.7642223669999,489,"8737 BLACKVIREO DR, AUSTIN, TX, 78729","Match","Exact","8737 BLACKVIREO DR, AUSTIN, TX, 78729",620019641,"R"
906990,"8737 BRITTANY PARK DRIVE","SACRAMENTO","CA",95828,38.461946266,-121.378766175,490,"8737 BRITTANY PARK DRIVE, SACRAMENTO, CA, 95828","Match","Exact","8737 BRITTANY PARK DR, SACRAMENTO, CA, 95828",133374242,"R"
906991,"8737 COYOTE BUSH ROAD","RIVERSIDE","CA",92508,33.89293013,-117.306762147,491,"8737 COYOTE BUSH ROAD, RIVERSIDE, CA, 92508","Match","Exact","8737 COYOTE BUSH RD, RIVERSIDE, CA, 92508",194837373,"R"
906992,"8737 ELK RIDGE WAY","ELK GROVE","CA",95624,38.405790036,-121.38073511,492,"8737 ELK RIDGE WAY, ELK GROVE, CA, 95624","Match","Exact","8737 ELK RIDGE WAY, ELK GROVE, CA, 95624",645233663,"R"
906993,"8737 FLETCHER PKWY 472","LA MESA","CA",91942,32.783636985,-117.009879867,493,"8737 FLETCHER PKWY 472, LA MESA, CA, 91942","Match","Exact","8737 FLETCHER PKWY, LA MESA, CA, 91942",195678118,"R"
906994,"8737 FLETCHER PKWY APT 461","LA MESA","CA",91942,32.783636985,-117.009879867,494,"8737 FLETCHER PKWY APT 461, LA MESA, CA, 91942","Match","Exact","8737 FLETCHER PKWY, LA MESA, CA, 91942",195678118,"R"
906995,"8737 GRENADIER DR","DALLAS","TX",75238,32.8679716520001,-96.690905632,495,"8737 GRENADIER DR, DALLAS, TX, 75238","Match","Exact","8737 GRENADIER DR, DALLAS, TX, 75238",102922852,"L"
906996,"8737 HOWELL ROAD","MOUNT PLEASANT","TN",38474,35.4719044280001,-87.1866625549999,496,"8737 HOWELL ROAD, MOUNT PLEASANT, TN, 38474","Match","Exact","8737 HOWELL RD, MOUNT PLEASANT, TN, 38474",26903543,"R"
906997,"8737 LAKE MURRAY BLVD","EL CAJON","CA",92021,NA,NA,497,"8737 LAKE MURRAY BLVD, EL CAJON, CA, 92021","No_Match",NA,NA,NA,NA
906998,"8737 N ARCOLA COURT","KANSAS CITY","MA",64153,NA,NA,498,"8737 N ARCOLA COURT, KANSAS CITY, MA, 64153","No_Match",NA,NA,NA,NA
906999,"8737 NW 4TH STREET","CORAL SPRINGS","FL",33071,26.2367667500001,-80.242280223,499,"8737 NW 4TH STREET, CORAL SPRINGS, FL, 33071","Match","Exact","8737 4TH ST, CORAL SPRINGS, FL, 33071",114800007,"L"
907000,"8737 WELLINGTON VIEW DR","WELLINGTON","FL",33411,26.6660580540001,-80.187078406,500,"8737 WELLINGTON VIEW DR, WELLINGTON, FL, 33411","Match","Exact","8737 WELLINGTON VIEW DR, WELLINGTON, FL, 33411",645517055,"L"
