"ID","Address","City","State","Zip","lat","long","id","input_address","match_indicator","match_type","matched_address","tiger_line_id","tiger_side"
173501,"141 PINE STREET","CHOUDRANT","LA",71227,32.530965101,-92.5113152,1,"141 PINE STREET, CHOUDRANT, LA, 71227","Match","Exact","141 PINE ST, CHOUDRANT, LA, 71227",164094694,"R"
173502,"141 PINE STREET","CHOUDRNAT","LA",71227,32.530965101,-92.5113152,2,"141 PINE STREET, CHOUDRNAT, LA, 71227","Match","Non_Exact","141 PINE ST, CHOUDRANT, LA, 71227",164094694,"R"
173503,"141 PINECREST DRIVE","SPRINGFIELD","MA",1118,42.0944376100001,-72.5268832039999,3,"141 PINECREST DRIVE, SPRINGFIELD, MA, 1118","Match","Exact","141 PINECREST DR, SPRINGFIELD, MA, 01118",4054509,"R"
173504,"141 PINEVIEW DR","MOUNT AIRY","NC",27030,36.474970994,-80.623344324,4,"141 PINEVIEW DR, MOUNT AIRY, NC, 27030","Match","Exact","141 PINEVIEW DR, MOUNT AIRY, NC, 27030",154172610,"L"
173505,"141 PINOT NOIR LANE","MANSON","WA",98831,47.8868125870001,-120.126332588,5,"141 PINOT NOIR LANE, MANSON, WA, 98831","Match","Exact","141 PINOT NOIR LN, MANSON, WA, 98831",605839533,"L"
173506,"141 PISGAH ROAD","ANDREWS","NC",28901,35.188481853,-83.8399367439999,6,"141 PISGAH ROAD, ANDREWS, NC, 28901","Match","Exact","141 PISGAH RD, ANDREWS, NC, 28901",35857859,"R"
173507,"141 POLO DRIVE","NORTH WALES","PA",19454,40.2394202510001,-75.223079949,7,"141 POLO DRIVE, NORTH WALES, PA, 19454","Match","Exact","141 POLO DR, NORTH WALES, PA, 19454",135107595,"R"
173508,"141 PONDEROSA STREET","BISHOP","CA",93514,37.4937969750001,-118.342495966,8,"141 PONDEROSA STREET, BISHOP, CA, 93514","Match","Non_Exact","141 PONDEROSA, BISHOP, CA, 93514",639734181,"R"
173509,"141 PONDVIEW STREET","LIMESTONE","ME",4750,46.917641845,-67.825566126,9,"141 PONDVIEW STREET, LIMESTONE, ME, 4750","Match","Exact","141 PONDVIEW ST, LIMESTONE, ME, 04750",636223613,"R"
173510,"141 PORCH DR","GASTON","NC",27832,36.528023901,-77.649234399,10,"141 PORCH DR, GASTON, NC, 27832","Match","Exact","141 PORCH DR, GASTON, NC, 27832",54076732,"R"
173511,"141 PRESSBURG LANE","LAKEWOOD","NJ",8701,40.087898722,-74.252409509,11,"141 PRESSBURG LANE, LAKEWOOD, NJ, 8701","Match","Exact","141 PRESSBURG LN, LAKEWOOD, NJ, 08701",649716927,"L"
173512,"141 PRIVATE RD 3198","GILMER","TX",75645,NA,NA,12,"141 PRIVATE RD 3198, GILMER, TX, 75645","No_Match",NA,NA,NA,NA
173513,"141 PRIVATE RD 3808","BIG SANDY","TX",75755,32.7350683870001,-95.138459546,13,"141 PRIVATE RD 3808, BIG SANDY, TX, 75755","Match","Non_Exact","141 PVT RD 3808, BIG SANDY, TX, 75755",147601374,"L"
173514,"141 PROSPECT BLVD","WATERLOO","IA",50701,42.4814978410001,-92.360080056,14,"141 PROSPECT BLVD, WATERLOO, IA, 50701","Match","Exact","141 PROSPECT BLVD, WATERLOO, IA, 50701",77253656,"L"
173515,"141 QUAIL RUN RD","HENDERSON","NV",89014,36.0620441390001,-115.094385736,15,"141 QUAIL RUN RD, HENDERSON, NV, 89014","Match","Exact","141 QUAIL RUN RD, HENDERSON, NV, 89014",201879354,"L"
173516,"141 REBECCA PARK","BUFFALO","NY",14207,42.9544060850001,-78.8861198929999,16,"141 REBECCA PARK, BUFFALO, NY, 14207","Match","Exact","141 REBECCA PARK, BUFFALO, NY, 14207",48323276,"R"
173517,"141 REBISZ RD","BROADALBIN","NY",12025,43.0954435300001,-74.128773515,17,"141 REBISZ RD, BROADALBIN, NY, 12025","Match","Exact","141 REBISZ RD, BROADALBIN, NY, 12025",639145605,"L"
173518,"141 REIBER ROAD","RENFREW","PA",16053,40.83201287,-79.971222069,18,"141 REIBER ROAD, RENFREW, PA, 16053","Match","Exact","141 REIBER RD, RENFREW, PA, 16053",646948233,"R"
173519,"141 RETTGER STREET","ST MARYS","PA",15857,41.4333553980001,-78.545105542,19,"141 RETTGER STREET, ST MARYS, PA, 15857","Match","Exact","141 RETTGER ST, SAINT MARYS, PA, 15857",157856426,"L"
173520,"141 RICHARD COURT","EAST MEADOW","NY",11554,40.7196759010001,-73.569810901,20,"141 RICHARD COURT, EAST MEADOW, NY, 11554","Match","Exact","141 RICHARD CT, EAST MEADOW, NY, 11554",147632332,"L"
173521,"141 RIDEGEWAY DR OAKRIDGE PARK","EDMONTON ALBERTA",NA,NA,NA,NA,21,"141 RIDEGEWAY DR OAKRIDGE PARK, EDMONTON ALBERTA, , ","No_Match",NA,NA,NA,NA
173522,"141 RIFLE GAP","UNIVERSAL CITY","TX",78148,29.535484282,-98.322379132,22,"141 RIFLE GAP, UNIVERSAL CITY, TX, 78148","Match","Exact","141 RIFLE GAP, UNIVERSAL CITY, TX, 78148",101504334,"R"
173523,"141 RINGNECK TRAIL","BLOOMINGDALE","IL",60108,41.9514334730001,-88.138669508,23,"141 RINGNECK TRAIL, BLOOMINGDALE, IL, 60108","Match","Non_Exact","141 RING NECK LN, BLOOMINGDALE, IL, 60108",112517483,"L"
173524,"141 RIO VISTA CIRCLE","DURANGO","CO",81301,37.2930282730001,-107.867974898,24,"141 RIO VISTA CIRCLE, DURANGO, CO, 81301","Match","Exact","141 RIO VISTA CIR, DURANGO, CO, 81301",91696930,"L"
173525,"141 ROB ROY RD","LAGRANGE","GA",30240,32.993691577,-85.104075974,25,"141 ROB ROY RD, LAGRANGE, GA, 30240","Match","Exact","141 ROB ROY RD, LAGRANGE, GA, 30240",1774692,"L"
173526,"141 ROBERT E LEE BLVD - 344","NEW ORLEANS","LA",70124,30.020071607,-90.1115514099999,26,"141 ROBERT E LEE BLVD - 344, NEW ORLEANS, LA, 70124","Match","Exact","141 ROBERT E LEE BLVD, NEW ORLEANS, LA, 70124",191702739,"L"
173527,"141 ROBERT E LEE BLVD","NEW ORLEANS","LA",70124,30.020071607,-90.1115514099999,27,"141 ROBERT E LEE BLVD, NEW ORLEANS, LA, 70124","Match","Exact","141 ROBERT E LEE BLVD, NEW ORLEANS, LA, 70124",191702739,"L"
173528,"141 ROCK LEDGE CT","MILFORD","DE",19963,38.889628697,-75.4028524249999,28,"141 ROCK LEDGE CT, MILFORD, DE, 19963","Match","Exact","141 ROCK LEDGE CT, MILFORD, DE, 19963",623797282,"R"
173529,"141 ROCKY BRANCH ROAD","BEEBE","AR",72012,35.168143775,-91.920037973,29,"141 ROCKY BRANCH ROAD, BEEBE, AR, 72012","Match","Exact","141 ROCKY BRANCH RD, BEEBE, AR, 72012",82964357,"L"
173530,"141 ROGERS AVE","BROOKLYN","NY",11216,40.672752852,-73.9530039919999,30,"141 ROGERS AVE, BROOKLYN, NY, 11216","Match","Exact","141 ROGERS AVE, BROOKLYN, NY, 11216",59079368,"L"
173531,"141 ROLLING RIDGE DRIVE","CHATTANOOGA","TN",37416,35.004879811,-85.113331101,31,"141 ROLLING RIDGE DRIVE, CHATTANOOGA, TN, 37416","Match","Non_Exact","141 ROLLING RIDGE DR, CHATTANOOGA, TN, 37421",59319870,"L"
173532,"141 RONNIE LANE","HALIFAX","PA",17032,40.5026176120001,-76.87044248,32,"141 RONNIE LANE, HALIFAX, PA, 17032","Match","Exact","141 RONNIE LN, HALIFAX, PA, 17032",70841350,"R"
173533,"141 ROSE BRIER DRIVE","ROCHESTER HILLS","MI",48309,42.6828310270001,-83.2096950759999,33,"141 ROSE BRIER DRIVE, ROCHESTER HILLS, MI, 48309","Match","Exact","141 ROSE BRIER DR, ROCHESTER HILLS, MI, 48309",69826365,"R"
173534,"141 ROWAN STREET","PHILADELPHIA","PA",19140,NA,NA,34,"141 ROWAN STREET, PHILADELPHIA, PA, 19140","No_Match",NA,NA,NA,NA
173535,"141 ROWLAND AVENUE","CLIFTON","NJ",7012,40.8519253900001,-74.1517309239999,35,"141 ROWLAND AVENUE, CLIFTON, NJ, 7012","Match","Exact","141 ROWLAND AVE, CLIFTON, NJ, 07012",65251460,"L"
173536,"141 RUCKER AVENUE","GEORGETOWN","KY",40324,38.2057996410001,-84.561469527,36,"141 RUCKER AVENUE, GEORGETOWN, KY, 40324","Match","Exact","141 RUCKER AVE, GEORGETOWN, KY, 40324",41238891,"L"
173537,"141 RUE ST JACQUES","LINE LEXINGTON","PA",18932,40.2963063060001,-75.249392545,37,"141 RUE ST JACQUES, LINE LEXINGTON, PA, 18932","Match","Exact","141 RUE SAINT JACQUES, LINE LEXINGTON, PA, 18932",134782917,"R"
173538,"141 RUSSELL AVE","WINTHROP HARBOR","IL",60096,42.492161449,-87.828892835,38,"141 RUSSELL AVE, WINTHROP HARBOR, IL, 60096","Match","Exact","141 RUSSELL AVE, WINTHROP HARBOR, IL, 60096",647206936,"R"
173539,"141 S 1ST W APT 2106","REXBURG","ID",83440,NA,NA,39,"141 S 1ST W APT 2106, REXBURG, ID, 83440","Tie",NA,NA,NA,NA
173540,"141 S 1ST W APT 2302","REXBURG","ID",83440,NA,NA,40,"141 S 1ST W APT 2302, REXBURG, ID, 83440","Tie",NA,NA,NA,NA
173541,"141 S BALDWIN AVE","ARCADIA","FL",34266,27.221245932,-81.8727734619999,41,"141 S BALDWIN AVE, ARCADIA, FL, 34266","Match","Non_Exact","141 N BALDWIN AVE, ARCADIA, FL, 34266",16172353,"L"
173542,"141 S BAYLY AVE","LOUISVILLE","KY",40206,38.253754857,-85.69249561,42,"141 S BAYLY AVE, LOUISVILLE, KY, 40206","Match","Exact","141 S BAYLY AVE, LOUISVILLE, KY, 40206",642504764,"L"
173543,"141 S BELTWOOD","DESOTO","TX",75115,32.5882181630001,-96.82757178,43,"141 S BELTWOOD, DESOTO, TX, 75115","Match","Exact","141 BELTWOOD, DESOTO, TX, 75115",102954413,"R"
173544,"141 S FILLMORE AVE","SCRANTON","PA",18504,41.4154219600001,-75.688527557,44,"141 S FILLMORE AVE, SCRANTON, PA, 18504","Match","Exact","141 S FILLMORE AVE, SCRANTON, PA, 18504",139321907,"L"
173545,"141 S FITZHUGH ST","ROCHESTER","NY",14608,43.1495141940001,-77.6125681939999,45,"141 S FITZHUGH ST, ROCHESTER, NY, 14608","Match","Non_Exact","141 FITZHUGH ST S, ROCHESTER, NY, 14608",14539799,"R"
173546,"141 S FRESHER CODE","AURORA","CO",80012,NA,NA,46,"141 S FRESHER CODE, AURORA, CO, 80012","No_Match",NA,NA,NA,NA
173547,"141 S HARRISON ST STE 10G","EAST ORANGE","NJ",7018,40.7633678460001,-74.223677815,47,"141 S HARRISON ST STE 10G, EAST ORANGE, NJ, 7018","Match","Non_Exact","141 S HARRISON ST, EAST ORANGE, NJ, 07018",63450485,"R"
173548,"141 S LAKESHORE DRIVE E6","RACINE","WI",53403,42.667269624,-87.8082892259999,48,"141 S LAKESHORE DRIVE E6, RACINE, WI, 53403","Match","Non_Exact","141 S LAKESHORE DR, RACINE, WI, 53403",79820471,"L"
173549,"141 S MAIN ST RM 210","DECATUR","IL",62523,NA,NA,49,"141 S MAIN ST RM 210, DECATUR, IL, 62523","Tie",NA,NA,NA,NA
173550,"141 S MAY DRIVE","DUMAS","AR",71639,33.8871895300001,-91.480452118,50,"141 S MAY DRIVE, DUMAS, AR, 71639","Match","Exact","141 S MAY DR, DUMAS, AR, 71639",25894507,"R"
173551,"141 S MILL ST","CLEONA","PA",17042,NA,NA,51,"141 S MILL ST, CLEONA, PA, 17042","Tie",NA,NA,NA,NA
173552,"141 S MYERS ST  APT F","OCEANSIDE","CA",92054,NA,NA,52,"141 S MYERS ST  APT F, OCEANSIDE, CA, 92054","Tie",NA,NA,NA,NA
173553,"141 S NORTON AVE","LOS ANGELES","CA",90004,34.072216462,-118.317120993,53,"141 S NORTON AVE, LOS ANGELES, CA, 90004","Match","Exact","141 S NORTON AVE, LOS ANGELES, CA, 90004",141603558,"R"
173554,"141 S OAK AVE","HENRICO","VA",23075,37.539965914,-77.325884034,54,"141 S OAK AVE, HENRICO, VA, 23075","Match","Exact","141 S OAK AVE, HENRICO, VA, 23075",106651409,"R"
173555,"141 S PARK DR","STEPHENVILLE","TX",76401,32.2082346660001,-98.223629814,55,"141 S PARK DR, STEPHENVILLE, TX, 76401","Match","Exact","141 S PARK DR, STEPHENVILLE, TX, 76401",158524571,"L"
173556,"141 S RIVER ROAD","COVINGTON","IN",47932,40.127063637,-87.399369787,56,"141 S RIVER ROAD, COVINGTON, IN, 47932","Match","Exact","141 S RIVER RD, COVINGTON, IN, 47932",649660181,"R"
173557,"141 S VISTA ST","LOS ANGELES","CA",90036,34.072701303,-118.352208006,57,"141 S VISTA ST, LOS ANGELES, CA, 90036","Match","Exact","141 S VISTA ST, LOS ANGELES, CA, 90036",141598654,"R"
173558,"141 S WAYNE STREET","MILLEDGEVILLE","GA",31061,33.080613918,-83.226952852,58,"141 S WAYNE STREET, MILLEDGEVILLE, GA, 31061","Match","Exact","141 S WAYNE ST, MILLEDGEVILLE, GA, 31061",16582902,"L"
173559,"141 S WEST SILVER LAKE ROAD","TRAVERSE CITY","MI",49685,44.684841733,-85.689509049,59,"141 S WEST SILVER LAKE ROAD, TRAVERSE CITY, MI, 49685","Match","Exact","141 S WEST SILVER LAKE RD, TRAVERSE CITY, MI, 49685",145538987,"R"
173560,"141 SACO STREET","WESTBROOK","ME",4092,43.672148318,-70.3728035679999,60,"141 SACO STREET, WESTBROOK, ME, 4092","Match","Exact","141 SACO ST, WESTBROOK, ME, 04092",78023796,"R"
173561,"141 SAINT MARKS PLACE APT 3","BROOKLYN","NY",11217,40.68130868,-73.9786087479999,61,"141 SAINT MARKS PLACE APT 3, BROOKLYN, NY, 11217","Match","Exact","141 ST MARKS PL, BROOKLYN, NY, 11217",59077622,"L"
173562,"141 SAINT PAULS AVE FL 2","JERSEY CITY","NJ",7306,40.7366273110001,-74.0571160759999,62,"141 SAINT PAULS AVE FL 2, JERSEY CITY, NJ, 7306","Match","Exact","141 ST PAULS AVE, JERSEY CITY, NJ, 07306",59605034,"L"
173563,"141 SALLIE DRIVE","THOMASVILLE","NC",27360,35.8935591330001,-80.1258328439999,63,"141 SALLIE DRIVE, THOMASVILLE, NC, 27360","Match","Exact","141 SALLIE DR, THOMASVILLE, NC, 27360",20216010,"L"
173564,"141 SANDY DRIVE","CLINTON","PA",15026,40.4921761040001,-80.388150528,64,"141 SANDY DRIVE, CLINTON, PA, 15026","Match","Exact","141 SANDY DR, CLINTON, PA, 15026",52578870,"L"
173565,"141 SANITARIUM ROAD","SHERBURNE","NY",13460,42.7006353260001,-75.51440264,65,"141 SANITARIUM ROAD, SHERBURNE, NY, 13460","Match","Exact","141 SANITARIUM RD, SHERBURNE, NY, 13460",46419894,"L"
173566,"141 SARATOGA AVE APT 1117","SANTA CLARA","CA",95051,NA,NA,66,"141 SARATOGA AVE APT 1117, SANTA CLARA, CA, 95051","No_Match",NA,NA,NA,NA
173567,"141 SASSAFRAS TR","LEXINGTON","SC",29072,34.0192001720001,-81.2285634469999,67,"141 SASSAFRAS TR, LEXINGTON, SC, 29072","Match","Exact","141 SASSAFRAS TRL, LEXINGTON, SC, 29072",70063099,"L"
173568,"141 SAVAGE TRAIL","EAST STROUDSBURG","PA",18301,41.0450745840001,-75.169254924,68,"141 SAVAGE TRAIL, EAST STROUDSBURG, PA, 18301","Match","Exact","141 SAVAGE TRL, E STROUDSBURG, PA, 18301",136759931,"R"
173569,"141 SAVANNAH RIVER DRIVE","SUMMERVILLE","SC",29485,32.992878848,-80.1501075629999,69,"141 SAVANNAH RIVER DRIVE, SUMMERVILLE, SC, 29485","Match","Exact","141 SAVANNAH RIVER DR, SUMMERVILLE, SC, 29485",628032927,"R"
173570,"141 SAVONA WALK","LONG BEACH","CA",90803,33.753998374,-118.119859828,70,"141 SAVONA WALK, LONG BEACH, CA, 90803","Match","Non_Exact","141 N SAVONA WALK, LONG BEACH, CA, 90803",141755170,"L"
173571,"141 SE  151RST AVE APT 7","PORTLAND","OR",97233,NA,NA,71,"141 SE  151RST AVE APT 7, PORTLAND, OR, 97233","No_Match",NA,NA,NA,NA
173572,"141 SEA BREEZE","ARANSAS PASS","TX",78336,27.8951855010001,-97.1382476649999,72,"141 SEA BREEZE, ARANSAS PASS, TX, 78336","Match","Non_Exact","141 SEA BREEZE DR, ARANSAS PASS, TX, 78336",178542028,"L"
173573,"141 SEA LILY LANE","PONTE VEDRA BEACH","FL",32082,30.21822647,-81.3756662179999,73,"141 SEA LILY LANE, PONTE VEDRA BEACH, FL, 32082","Match","Exact","141 SEA LILY LN, PONTE VEDRA BEACH, FL, 32082",92603695,"L"
173574,"141 SEMORA ROAD","ROXBORO","NC",27573,36.396898938,-79.005578341,74,"141 SEMORA ROAD, ROXBORO, NC, 27573","Match","Exact","141 SEMORA RD, ROXBORO, NC, 27573",77206881,"L"
173575,"141 SHADOW POINTE CIRCLE","HUNTSVILLE","AL",35806,34.8078567370001,-86.6839646019999,75,"141 SHADOW POINTE CIRCLE, HUNTSVILLE, AL, 35806","Match","Exact","141 SHADOW POINTE CIR, HUNTSVILLE, AL, 35806",614126284,"L"
173576,"141 SHADY LANE PITTSBURGH","PITTSBURGH","PA",15215,40.4962702300001,-79.895897701,76,"141 SHADY LANE PITTSBURGH, PITTSBURGH, PA, 15215","Match","Exact","141 SHADY LN, PITTSBURGH, PA, 15215",51647382,"R"
173577,"141 SHARPE STREET","PELL CITY","AL",35215,NA,NA,77,"141 SHARPE STREET, PELL CITY, AL, 35215","No_Match",NA,NA,NA,NA
173578,"141 SHARPE STREET","STERRETT","AL",35147,33.3373220710001,-86.556429092,78,"141 SHARPE STREET, STERRETT, AL, 35147","Match","Exact","141 SHARPE ST, STERRETT, AL, 35147",635824718,"R"
173579,"141 SHAWMUT","CHELSEA","MA",2150,42.391530302,-71.032653571,79,"141 SHAWMUT, CHELSEA, MA, 2150","Match","Non_Exact","141 SHAWMUT ST, CHELSEA, MA, 02150",85711258,"R"
173580,"141 SHAWNUT ST","CHELSEA","MA",2150,42.391530302,-71.032653571,80,"141 SHAWNUT ST, CHELSEA, MA, 2150","Match","Non_Exact","141 SHAWMUT ST, CHELSEA, MA, 02150",85711258,"R"
173581,"141 SHEA LN","GLENMOORE","PA",19343,40.1116618200001,-75.714245262,81,"141 SHEA LN, GLENMOORE, PA, 19343","Match","Exact","141 SHEA LN, GLENMOORE, PA, 19343",179525104,"L"
173582,"141 SHELLY LANE","HUNTSVILLE","AL",35810,34.842338452,-86.5363704919999,82,"141 SHELLY LANE, HUNTSVILLE, AL, 35810","Match","Exact","141 SHELLY LN, HUNTSVILLE, AL, 35810",58197404,"L"
173583,"141 SHELTON STREET","BRIDGEPORT","CT",6608,41.1912105430001,-73.1864638979999,83,"141 SHELTON STREET, BRIDGEPORT, CT, 6608","Match","Exact","141 SHELTON ST, BRIDGEPORT, CT, 06608",3224706,"L"
173584,"141 SKYLINE DR","KERSEY","PA",15846,41.3590127840001,-78.601546266,84,"141 SKYLINE DR, KERSEY, PA, 15846","Match","Exact","141 SKYLINE DR, KERSEY, PA, 15846",634307101,"R"
173585,"141 SKYLINE DRIVE","BYRDSTOWN","TN",38549,36.576394212,-85.133622679,85,"141 SKYLINE DRIVE, BYRDSTOWN, TN, 38549","Match","Exact","141 SKYLINE DR, BYRDSTOWN, TN, 38549",612489205,"L"
173586,"141 SMOKE TREE CT","GASTONIA","NC",28056,35.2226908280001,-81.1236972039999,86,"141 SMOKE TREE CT, GASTONIA, NC, 28056","Match","Exact","141 SMOKE TREE CT, GASTONIA, NC, 28056",70390274,"L"
173587,"141 SNAKE HOLLOW DRIVE","VINEYARD HAVEN","MA",2568,41.442418693,-70.6249298289999,87,"141 SNAKE HOLLOW DRIVE, VINEYARD HAVEN, MA, 2568","Match","Exact","141 SNAKE HOLLOW, VINEYARD HAVEN, MA, 02568",118875240,"R"
173588,"141 SOUTH 14TH DRIVE","SHOW LOW","AZ",85901,34.247693871,-110.057710369,88,"141 SOUTH 14TH DRIVE, SHOW LOW, AZ, 85901","Match","Exact","141 S 14TH DR, SHOW LOW, AZ, 85901",172541160,"R"
173589,"141 SOUTH 2ND AVE","LEBANON","PA",17042,40.3384500550001,-76.4082902179999,89,"141 SOUTH 2ND AVE, LEBANON, PA, 17042","Match","Exact","141 S 2ND AVE, LEBANON, PA, 17042",80673778,"L"
173590,"141 SOUTH BURNET STREET","EAST ORANGE","NJ",7018,40.75957049,-74.218052359,90,"141 SOUTH BURNET STREET, EAST ORANGE, NJ, 7018","Match","Non_Exact","141 S BURNETT ST, EAST ORANGE, NJ, 07018",63450615,"R"
173591,"141 SOUTH HOWARD STREET","TEKOA","WA",99033,47.22354762,-117.070449413,91,"141 SOUTH HOWARD STREET, TEKOA, WA, 99033","Match","Non_Exact","141 HOWARD ST, TEKOA, WA, 99033",173301709,"L"
173592,"141 SOUTH LAKE DRIVE","STAMFORD","CT",6903,41.151993933,-73.6068492059999,92,"141 SOUTH LAKE DRIVE, STAMFORD, CT, 6903","Match","Exact","141 S LAKE DR, STAMFORD, CT, 06903",3257336,"R"
173593,"141 SOUTH OXFORD STREET","BROOKLYN","NY",11217,40.6851200670001,-73.973211261,93,"141 SOUTH OXFORD STREET, BROOKLYN, NY, 11217","Match","Exact","141 S OXFORD ST, BROOKLYN, NY, 11217",59099020,"L"
173594,"141 SOUTH STREET","ASHLAND","MA",1721,42.230903605,-71.4649422539999,94,"141 SOUTH STREET, ASHLAND, MA, 1721","Match","Exact","141 SOUTH ST, ASHLAND, MA, 01721",623519463,"L"
173595,"141 SOUTHERN DRIVE","PERRYVILLE","KY",40468,37.6550030000001,-84.9418471389999,95,"141 SOUTHERN DRIVE, PERRYVILLE, KY, 40468","Match","Exact","141 SOUTHERN DR, PERRYVILLE, KY, 40468",32485872,"L"
173596,"141 SPANISH CREEK DRIVE","PONTE VEDRA","FL",32081,30.135859236,-81.41031215,96,"141 SPANISH CREEK DRIVE, PONTE VEDRA, FL, 32081","Match","Exact","141 SPANISH CREEK DR, PONTE VEDRA, FL, 32081",650380461,"R"
173597,"141 SPENCER ST UNIT 203","BROOKLYN","NY",11205,40.694183443,-73.9550879619999,97,"141 SPENCER ST UNIT 203, BROOKLYN, NY, 11205","Match","Exact","141 SPENCER ST, BROOKLYN, NY, 11205",59078632,"L"
173598,"141 SPLIT RAIL DRIVE","MAGGIE VALLEY","NC",28751,35.529767323,-83.108642403,98,"141 SPLIT RAIL DRIVE, MAGGIE VALLEY, NC, 28751","Match","Exact","141 SPLIT RAIL DR, MAGGIE VALLEY, NC, 28751",600557435,"L"
173599,"141 SPRINGER ROAD","WESTON","ME",4424,45.6747971990001,-67.86660655,99,"141 SPRINGER ROAD, WESTON, ME, 4424","Match","Exact","141 SPRINGER RD, WESTON, ME, 04424",622475281,"R"
173600,"141 SPRUCE LANE","LAUREL SPRINGS","NC",28644,36.398705572,-81.207244917,100,"141 SPRUCE LANE, LAUREL SPRINGS, NC, 28644","Match","Exact","141 SPRUCE LN, LAUREL SPGS, NC, 28644",154024232,"L"
173601,"141 STAHL ROAD","SOUTHAMPTON","PA",18966,40.1854349910001,-75.05083372,101,"141 STAHL ROAD, SOUTHAMPTON, PA, 18966","Match","Exact","141 STAHL RD, SOUTHAMPTON, PA, 18966",134707935,"L"
173602,"141 STARZ LANE 3","JACKSBORO","TN",37757,36.334197725,-84.18544931,102,"141 STARZ LANE 3, JACKSBORO, TN, 37757","Match","Exact","141 STARZ LN, JACKSBORO, TN, 37757",634035422,"L"
173603,"141 STEWART LANE","PHILIPSBURG","PA",16866,40.9059271740001,-78.211318282,103,"141 STEWART LANE, PHILIPSBURG, PA, 16866","Match","Exact","141 STEWART LN, PHILIPSBURG, PA, 16866",50405248,"L"
173604,"141 STEWART PLACE","CANANDAIGUA","NY",14424,42.9048459110001,-77.2860252579999,104,"141 STEWART PLACE, CANANDAIGUA, NY, 14424","Match","Exact","141 STEWART PL, CANANDAIGUA, NY, 14424",13485700,"R"
173605,"141 STODDARD RD","WATERBURY","CT",6708,41.5663410490001,-73.08034937,105,"141 STODDARD RD, WATERBURY, CT, 6708","Match","Exact","141 STODDARD RD, WATERBURY, CT, 06708",3741485,"R"
173606,"141 STODDARD ROAD","WATERBURY","CT",6708,41.5663410490001,-73.08034937,106,"141 STODDARD ROAD, WATERBURY, CT, 6708","Match","Exact","141 STODDARD RD, WATERBURY, CT, 06708",3741485,"R"
173607,"141 STONECREST ROAD UNIT 2","SHELBYVILLE","KY",40065,38.211948636,-85.2510054859999,107,"141 STONECREST ROAD UNIT 2, SHELBYVILLE, KY, 40065","Match","Exact","141 STONECREST RD, SHELBYVILLE, KY, 40065",97080999,"L"
173608,"141 STONEWYCK DRIVE","LANCASTER","PA",17603,40.0117005000001,-76.377453821,108,"141 STONEWYCK DRIVE, LANCASTER, PA, 17603","Match","Exact","141 STONEWYCK DR, LANCASTER, PA, 17603",179711853,"R"
173609,"141 STRATFORD DRIVE","NUTLEY","NJ",7110,40.820916632,-74.137397778,109,"141 STRATFORD DRIVE, NUTLEY, NJ, 7110","Match","Exact","141 STRATFORD DR, NUTLEY, NJ, 07110",632549326,"L"
173610,"141 STRAWBERRY FIELDS RD","LEXINGTON","KY",40516,38.077335114,-84.4512799889999,110,"141 STRAWBERRY FIELDS RD, LEXINGTON, KY, 40516","Match","Exact","141 STRAWBERRY FIELDS RD, LEXINGTON, KY, 40516",31951701,"L"
173611,"141 STRESS LN","APPLE VALLEY","MN",55124,NA,NA,111,"141 STRESS LN, APPLE VALLEY, MN, 55124","No_Match",NA,NA,NA,NA
173612,"141 STUYVESANT DRIVE","PORT JEFFERSON","NY",11776,40.8944625930001,-73.049021286,112,"141 STUYVESANT DRIVE, PORT JEFFERSON, NY, 11776","Match","Non_Exact","141 STUYVESANT DR, PORT JEFF STA, NY, 11776",114003656,"L"
173613,"141 SUGAR TREE LANE","COVINGTON","VA",24426,37.723308241,-79.9525904609999,113,"141 SUGAR TREE LANE, COVINGTON, VA, 24426","Match","Non_Exact","141 SUGARTREE LN, COVINGTON, VA, 24426",62555968,"R"
173614,"141 SUGARTREE LANE","MENA","AR",71953,34.5307044620001,-94.151483683,114,"141 SUGARTREE LANE, MENA, AR, 71953","Match","Exact","141 SUGARTREE LN, MENA, AR, 71953",34535174,"L"
173615,"141 SUMMERS DRIVE","LOUISVILLE","KY",40229,38.064430977,-85.6893517789999,115,"141 SUMMERS DRIVE, LOUISVILLE, KY, 40229","Match","Exact","141 SUMMERS DR, LOUISVILLE, KY, 40229",47747319,"R"
173616,"141 SUNNYSIDE AVE","SANTA CRUZ","CA",95062,36.9804280220001,-122.015435394,116,"141 SUNNYSIDE AVE, SANTA CRUZ, CA, 95062","Match","Exact","141 SUNNYSIDE AVE, SANTA CRUZ, CA, 95062",125506408,"L"
173617,"141 SUNRISE LANE","CHICOPEE","MA",1020,42.1791566910001,-72.570243926,117,"141 SUNRISE LANE, CHICOPEE, MA, 1020","Match","Exact","141 SUNRISE LN, CHICOPEE, MA, 01020",647254368,"L"
173618,"141 SUNSET DRIVE","OHKAY OWINGEH","NM",87566,NA,NA,118,"141 SUNSET DRIVE, OHKAY OWINGEH, NM, 87566","No_Match",NA,NA,NA,NA
173619,"141 SUSAN DR","PINEVILLE","LA",71360,31.3984335270001,-92.468932793,119,"141 SUSAN DR, PINEVILLE, LA, 71360","Match","Exact","141 SUSAN DR, PINEVILLE, LA, 71360",11793282,"R"
173620,"141 SW BRANTLEY DR","WINSTON","OR",97496,43.1180486490001,-123.420361737,120,"141 SW BRANTLEY DR, WINSTON, OR, 97496","Match","Exact","141 BRANTLEY DR, WINSTON, OR, 97496",137243680,"R"
173621,"141 SW TUNISON","CORVALLIS","OR",97333,44.5434357560001,-123.266693792,121,"141 SW TUNISON, CORVALLIS, OR, 97333","Match","Non_Exact","141 SW TUNISON AVE, CORVALLIS, OR, 97333",155849170,"L"
173622,"141 SWEET BRIAR RAD","STAMFORD","CT",6905,41.108742153,-73.526063431,122,"141 SWEET BRIAR RAD, STAMFORD, CT, 6905","Match","Non_Exact","141 SWEET BRIAR RD, STAMFORD, CT, 06905",3242846,"R"
173623,"141 SWEET BRIAR ROAD","STAMFORD","CT",6905,41.108742153,-73.526063431,123,"141 SWEET BRIAR ROAD, STAMFORD, CT, 6905","Match","Exact","141 SWEET BRIAR RD, STAMFORD, CT, 06905",3242846,"R"
173624,"141 SYDNEY COURT","YORKTOWN HEIGHTS","NY",10598,41.257623111,-73.770360457,124,"141 SYDNEY COURT, YORKTOWN HEIGHTS, NY, 10598","Match","Non_Exact","141 SIDNEY CT, YORKTOWN HEIGHTS, NY, 10598",139771201,"R"
173625,"141 TALCOTT STREET","OWEGO","NY",13827,42.1111306920001,-76.275776003,125,"141 TALCOTT STREET, OWEGO, NY, 13827","Match","Exact","141 TALCOTT ST, OWEGO, NY, 13827",46709881,"R"
173626,"141 TAVISTOCK STREET","SPRINGFIELD","MA",1119,42.142936605,-72.505668293,126,"141 TAVISTOCK STREET, SPRINGFIELD, MA, 1119","Match","Exact","141 TAVISTOCK ST, SPRINGFIELD, MA, 01119",4024814,"R"
173627,"141 TAYLOR ROAD","NATCHITOCHES","LA",71457,31.7462465520001,-93.1246768089999,127,"141 TAYLOR ROAD, NATCHITOCHES, LA, 71457","Match","Exact","141 TAYLOR RD, NATCHITOCHES, LA, 71457",13362530,"L"
173628,"141 TECUMSEH ST","PITTSBURGH","PA",15207,40.4087652690001,-79.942721564,128,"141 TECUMSEH ST, PITTSBURGH, PA, 15207","Match","Exact","141 TECUMSEH ST, PITTSBURGH, PA, 15207",51813165,"L"
173629,"141 THORNDIKE AVE","LAKEWOOD","NJ",8701,40.0887111120001,-74.2399866109999,129,"141 THORNDIKE AVE, LAKEWOOD, NJ, 8701","Match","Non_Exact","141 THORNDIKE, LAKEWOOD, NJ, 08701",641806277,"R"
173630,"141 THYME AVE","MORGAN HILL","CA",95037,37.1498525600001,-121.674074229,130,"141 THYME AVE, MORGAN HILL, CA, 95037","Match","Exact","141 THYME AVE, MORGAN HILL, CA, 95037",618178365,"L"
173631,"141 TIFFANY LN","BANNER ELK","NC",28604,36.1477032120001,-81.787842758,131,"141 TIFFANY LN, BANNER ELK, NC, 28604","Match","Exact","141 TIFFANY LN, BANNER ELK, NC, 28604",649211496,"L"
173632,"141 TIMBERLAKE DRIVE","LAKESIDE","MT",59922,48.0357958230001,-114.232298879,132,"141 TIMBERLAKE DRIVE, LAKESIDE, MT, 59922","Match","Non_Exact","141 TIMBER LAKE DR, LAKESIDE, MT, 59922",204094045,"R"
173633,"141 TITANIUM DRIVE","STATESVILLE","NC",28625,35.8113244140001,-80.991612902,133,"141 TITANIUM DRIVE, STATESVILLE, NC, 28625","Match","Exact","141 TITANIUM DR, STATESVILLE, NC, 28625",46032813,"L"
173634,"141 TITONIUM DR","STATESVILLE","NC",28625,35.8113244140001,-80.991612902,134,"141 TITONIUM DR, STATESVILLE, NC, 28625","Match","Non_Exact","141 TITANIUM DR, STATESVILLE, NC, 28625",46032813,"L"
173635,"141 TOMOHAWK TR","HENDERSONVILLE","NC",28739,35.320175168,-82.551869672,135,"141 TOMOHAWK TR, HENDERSONVILLE, NC, 28739","Match","Non_Exact","141 TOMHAWK TRL, HENDERSONVILLE, NC, 28739",649287166,"L"
173636,"141 TOWNSHIP DRIVE","HIRAM","GA",30141,33.861977725,-84.7746364989999,136,"141 TOWNSHIP DRIVE, HIRAM, GA, 30141","Match","Exact","141 TOWNSHIP DR, HIRAM, GA, 30141",653472900,"L"
173637,"141 TRACTION ST","GREENVILLE","SC",29611,34.843768228,-82.4251776259999,137,"141 TRACTION ST, GREENVILLE, SC, 29611","Match","Exact","141 TRACTION ST, GREENVILLE, SC, 29611",648664916,"R"
173638,"141 TRAFALGAR LANE","SAN CLEMENTE","CA",92672,33.422423651,-117.611733352,138,"141 TRAFALGAR LANE, SAN CLEMENTE, CA, 92672","Match","Exact","141 TRAFALGAR LN, SAN CLEMENTE, CA, 92672",609047727,"L"
173639,"141 TREE HILL RD","WILLISTON","VT",5495,44.4149289600001,-73.1084204969999,139,"141 TREE HILL RD, WILLISTON, VT, 5495","Match","Exact","141 TREE HILL RD, WILLISTON, VT, 05495",135844496,"R"
173640,"141 TREEHOUSE RD","MATTESON","IL",60443,41.5241226260001,-87.7222141509999,140,"141 TREEHOUSE RD, MATTESON, IL, 60443","Match","Exact","141 TREEHOUSE RD, MATTESON, IL, 60443",112225383,"L"
173641,"141 TREMONT STREET - 10F","BOSTON","MA",2111,NA,NA,141,"141 TREMONT STREET - 10F, BOSTON, MA, 2111","Tie",NA,NA,NA,NA
173642,"141 TRENTON STREET","BOSTON","MA",2128,42.37982657,-71.033916097,142,"141 TRENTON STREET, BOSTON, MA, 2128","Match","Exact","141 TRENTON ST, BOSTON, MA, 02128",85711408,"R"
173643,"141 TUCKIE ROAD","NORTH WINDHAM","CT",6256,41.7187275950001,-72.172716314,143,"141 TUCKIE ROAD, NORTH WINDHAM, CT, 6256","Match","Exact","141 TUCKIE RD, NORTH WINDHAM, CT, 06256",626867177,"L"
173644,"141 TUMBLE RUN","STOCKBRIDGE","GA",30281,33.522294108,-84.2704101149999,144,"141 TUMBLE RUN, STOCKBRIDGE, GA, 30281","Match","Exact","141 TUMBLE RUN, STOCKBRIDGE, GA, 30281",640024451,"L"
173645,"141 UHLAND STREET","EAST RUTHERFORD","NJ",7073,40.8339426000001,-74.100537002,145,"141 UHLAND STREET, EAST RUTHERFORD, NJ, 7073","Match","Exact","141 UHLAND ST, E RUTHERFORD, NJ, 07073",64394978,"R"
173646,"141 UNION DR","THIBODAUX","LA",70301,NA,NA,146,"141 UNION DR, THIBODAUX, LA, 70301","No_Match",NA,NA,NA,NA
173647,"141 UNION HILL RD","MINERAL WELLS","TX",76067,32.85784446,-98.143388031,147,"141 UNION HILL RD, MINERAL WELLS, TX, 76067","Match","Exact","141 UNION HILL RD, MINERAL WELLS, TX, 76067",158862836,"L"
173648,"141 UNION ST","SPRINGFIELD","MA",1139,NA,NA,148,"141 UNION ST, SPRINGFIELD, MA, 1139","No_Match",NA,NA,NA,NA
173649,"141 VAUGHN ROAD","COLUMBUS","AR",71831,33.761540632,-93.840491035,149,"141 VAUGHN ROAD, COLUMBUS, AR, 71831","Match","Exact","141 VAUGHN RD, COLUMBUS, AR, 71831",73581175,"R"
173650,"141 VERONICA WAY","TAMUNING","GU",96913,13.5013501180001,144.774411071,150,"141 VERONICA WAY, TAMUNING, GU, 96913","Match","Exact","141 VERONICA WAY, TAMUNING, GU, 96913",204551150,"R"
173651,"141 VICKI COURT","SCOTTS VALLEY","CA",95066,NA,NA,151,"141 VICKI COURT, SCOTTS VALLEY, CA, 95066","No_Match",NA,NA,NA,NA
173652,"141 VILLAGE ROAD","EAST BRIDGEWATER","MA",2333,42.03695127,-70.9644255709999,152,"141 VILLAGE ROAD, EAST BRIDGEWATER, MA, 2333","Match","Exact","141 VILLAGE RD, E BRIDGEWATER, MA, 02333",87445542,"R"
173653,"141 VINTAGE RANCH CIRCLE","LA VERNIA","TX",78121,NA,NA,153,"141 VINTAGE RANCH CIRCLE, LA VERNIA, TX, 78121","No_Match",NA,NA,NA,NA
173654,"141 VISTA CREEK CIRCLE","SACRAMENTO","CA",95835,38.662741254,-121.543741365,154,"141 VISTA CREEK CIRCLE, SACRAMENTO, CA, 95835","Match","Exact","141 VISTA CREEK CIR, SACRAMENTO, CA, 95835",133408477,"L"
173655,"141 W  ANDREWS AVE","HENDERSON","NC",27536,36.3302595750001,-78.399989094,155,"141 W  ANDREWS AVE, HENDERSON, NC, 27536","Match","Exact","141 W ANDREWS AVE, HENDERSON, NC, 27536",90271007,"L"
173656,"141 W 10TH ST APT 24","NEW YORK","NY",10014,40.7345914910001,-74.000679098,156,"141 W 10TH ST APT 24, NEW YORK, NY, 10014","Match","Non_Exact","141 W 10TH ST, NEW YORK, NY, 10014",59660012,"R"
173657,"141 W 111TH ST APT 4BE","NYC","NY",10026,40.799450092,-73.953454371,157,"141 W 111TH ST APT 4BE, NYC, NY, 10026","Match","Non_Exact","141 W 111TH ST, NEW YORK, NY, 10026",59657708,"R"
173658,"141 W 123RD NUMBER 1","NEW YORK","NY",10027,NA,NA,158,"141 W 123RD NUMBER 1, NEW YORK, NY, 10027","No_Match",NA,NA,NA,NA
173659,"141 W 127 ST APT 5B","NEW YORK","NY",10027,40.809595953,-73.945751072,159,"141 W 127 ST APT 5B, NEW YORK, NY, 10027","Match","Non_Exact","141 W 127TH ST, NEW YORK, NY, 10027",59656189,"R"
173660,"141 W 127TH STREET 6C","NEW YORK","NY",10027,40.809595953,-73.945751072,160,"141 W 127TH STREET 6C, NEW YORK, NY, 10027","Match","Non_Exact","141 W 127TH ST, NEW YORK, NY, 10027",59656189,"R"
173661,"141 W 23RD STREET","HOLLAND","MI",49423,42.776668193,-86.1131296149999,161,"141 W 23RD STREET, HOLLAND, MI, 49423","Match","Exact","141 W 23RD ST, HOLLAND, MI, 49423",71077849,"R"
173662,"141 W 24TH ST APT 3","NEW YORK","NY",10011,40.744088236,-73.9935350929999,162,"141 W 24TH ST APT 3, NEW YORK, NY, 10011","Match","Non_Exact","141 W 24TH ST, NEW YORK, NY, 10011",642472021,"R"
173663,"141 W 450 S","PIMA","AZ",85543,32.88796896,-109.831070818,163,"141 W 450 S, PIMA, AZ, 85543","Match","Exact","141 W 450 S, PIMA, AZ, 85543",128087754,"R"
173664,"141 W 5TH","OXNARD","CA",93030,NA,NA,164,"141 W 5TH, OXNARD, CA, 93030","No_Match",NA,NA,NA,NA
173665,"141 W 72ND ST 4","NEW YORK","CT",10023,NA,NA,165,"141 W 72ND ST 4, NEW YORK, CT, 10023","No_Match",NA,NA,NA,NA
173666,"141 W BROOKDALE STREET","ALLENTOWN","PA",18103,40.5822191250001,-75.452738406,166,"141 W BROOKDALE STREET, ALLENTOWN, PA, 18103","Match","Exact","141 BROOKDALE ST, ALLENTOWN, PA, 18103",80774072,"R"
173667,"141 W CHAPARRAL DRIVE","BLYTHE","CA",92225,33.621707568,-114.598180307,167,"141 W CHAPARRAL DRIVE, BLYTHE, CA, 92225","Match","Exact","141 W CHAPARRAL DR, BLYTHE, CA, 92225",639035579,"R"
173668,"141 W HALL AVE UNIT 2","SAN YSIDRO","CA",92173,NA,NA,168,"141 W HALL AVE UNIT 2, SAN YSIDRO, CA, 92173","Tie",NA,NA,NA,NA
173669,"141 W HARVEY ST","PHILADELPHIA","PA",19144,40.037282674,-75.179628096,169,"141 W HARVEY ST, PHILADELPHIA, PA, 19144","Match","Exact","141 W HARVEY ST, PHILADELPHIA, PA, 19144",131401054,"R"
173670,"141 W JACKSON AVE J6","WEST MEMPHIS","AR",72301,NA,NA,170,"141 W JACKSON AVE J6, WEST MEMPHIS, AR, 72301","Tie",NA,NA,NA,NA
173671,"141 W JACKSON BLVD SUITE 1710A","CHICAGO","IL",60604,NA,NA,171,"141 W JACKSON BLVD SUITE 1710A, CHICAGO, IL, 60604","No_Match",NA,NA,NA,NA
173672,"141 W JACKSON BLVD SUITE 300A","CHICAGO","IL",60604,NA,NA,172,"141 W JACKSON BLVD SUITE 300A, CHICAGO, IL, 60604","No_Match",NA,NA,NA,NA
173673,"141 W JACKSON G4","WEST MEMPHIS","AR",72301,NA,NA,173,"141 W JACKSON G4, WEST MEMPHIS, AR, 72301","No_Match",NA,NA,NA,NA
173674,"141 W NORTH STREET","CAREY","OH",43316,40.9540379250001,-83.383437616,174,"141 W NORTH STREET, CAREY, OH, 43316","Match","Exact","141 W NORTH ST, CAREY, OH, 43316",13049223,"L"
173675,"141 W PULTENEY ST- 304","SOUTH CORNING","NY",14830,NA,NA,175,"141 W PULTENEY ST- 304, SOUTH CORNING, NY, 14830","No_Match",NA,NA,NA,NA
173676,"141 W REFRO ST","BURLESON","TX",76028,NA,NA,176,"141 W REFRO ST, BURLESON, TX, 76028","No_Match",NA,NA,NA,NA
173677,"141 W RENFRO","BURLESON","TX",76028,32.543045444,-97.3214757809999,177,"141 W RENFRO, BURLESON, TX, 76028","Match","Non_Exact","141 W RENFRO ST, BURLESON, TX, 76028",103517384,"R"
173678,"141 W SAN CARLOS","PALM SPRINGS","CA",92262,33.8570031460001,-116.546432749,178,"141 W SAN CARLOS, PALM SPRINGS, CA, 92262","Match","Non_Exact","141 W SAN CARLOS RD, PALM SPRINGS, CA, 92262",194760894,"R"
173679,"141 W","NEW YORK","NY",10011,NA,NA,179,"141 W, NEW YORK, NY, 10011","No_Match",NA,NA,NA,NA
173680,"141 WAITE FARMS LN","BRUNSWICK","OH",44212,41.2730274140001,-81.802957877,180,"141 WAITE FARMS LN, BRUNSWICK, OH, 44212","Match","Exact","141 WAITE FARMS LN, BRUNSWICK, OH, 44212",643092176,"L"
173681,"141 WALDEN DR","GLEN CARBON","IL",62034,38.762586205,-89.994229144,181,"141 WALDEN DR, GLEN CARBON, IL, 62034","Match","Exact","141 WALDEN DR, GLEN CARBON, IL, 62034",107783130,"L"
173682,"141 WALKER CIR","STATENVILLE","GA",31648,30.704828908,-83.0269465819999,182,"141 WALKER CIR, STATENVILLE, GA, 31648","Match","Exact","141 WALKER CIR, STATENVILLE, GA, 31648",5209111,"R"
173683,"141 WALL STREET","NORTHFIELD","VT",5663,44.1486122050001,-72.659475855,183,"141 WALL STREET, NORTHFIELD, VT, 5663","Match","Exact","141 WALL ST, NORTHFIELD, VT, 05663",640698359,"L"
173684,"141 WALNUT CREEK DRIVE","COMMERCIAL POINT","OH",43116,39.7675633360001,-83.068579809,184,"141 WALNUT CREEK DRIVE, COMMERCIAL POINT, OH, 43116","Match","Exact","141 WALNUT CREEK DR, COMMERCIAL POINT, OH, 43116",653484219,"R"
173685,"141 WAREHOUSE DRIVE","CLEVELAND","GA",30528,NA,NA,185,"141 WAREHOUSE DRIVE, CLEVELAND, GA, 30528","No_Match",NA,NA,NA,NA
173686,"141 WARICK ROAD","WYNNEWOOD","PA",19096,NA,NA,186,"141 WARICK ROAD, WYNNEWOOD, PA, 19096","No_Match",NA,NA,NA,NA
173687,"141 WARNER PARROTT ROAD","OREGON CITY","OR",97045,45.337325702,-122.620943409,187,"141 WARNER PARROTT ROAD, OREGON CITY, OR, 97045","Match","Exact","141 WARNER PARROTT RD, OREGON CITY, OR, 97045",157919098,"L"
173688,"141 WARWICK ST SE","MINNAPOLIS","MN",55414,44.9638064580001,-93.211509242,188,"141 WARWICK ST SE, MINNAPOLIS, MN, 55414","Match","Non_Exact","141 WARWICK ST SE, MINNEAPOLIS, MN, 55414",43638807,"L"
173689,"141 WATERSIDE AVENUE","NORTHPORT","NY",11768,40.909965647,-73.32916318,189,"141 WATERSIDE AVENUE, NORTHPORT, NY, 11768","Match","Exact","141 WATERSIDE AVE, NORTHPORT, NY, 11768",114037818,"L"
173690,"141 WATERVILLE STREET","CHARLOTTE","NC",28227,NA,NA,190,"141 WATERVILLE STREET, CHARLOTTE, NC, 28227","No_Match",NA,NA,NA,NA
173691,"141 WEAVER ROAD","WEST SAYVILLE","NY",11796,40.7402664570001,-73.1018900619999,191,"141 WEAVER ROAD, WEST SAYVILLE, NY, 11796","Match","Exact","141 WEAVER RD, WEST SAYVILLE, NY, 11796",114015043,"R"
173692,"141 WELCH RD","GREENUP","KY",41144,38.5402986020001,-82.814902345,192,"141 WELCH RD, GREENUP, KY, 41144","Match","Non_Exact","141 WELCH LN, GREENUP, KY, 41144",151409069,"L"
173693,"141 WEST 128TH STREET - UNIT 4","NEW YORK","NY",10027,40.810201948,-73.945283441,193,"141 WEST 128TH STREET - UNIT 4, NEW YORK, NY, 10027","Match","Exact","141 W 128TH ST, NEW YORK, NY, 10027",59656187,"R"
173694,"141 WEST 139TH STREET APT C26","NEW YORK","NY",10030,40.8171707380001,-73.940191956,194,"141 WEST 139TH STREET APT C26, NEW YORK, NY, 10030","Match","Exact","141 W 139TH ST, NEW YORK, NY, 10030",59656409,"R"
173695,"141 WEST 16TH STREET APT 1A","NEW YORK","NY",10011,40.7391980470001,-73.997070547,195,"141 WEST 16TH STREET APT 1A, NEW YORK, NY, 10011","Match","Exact","141 W 16TH ST, NEW YORK, NY, 10011",59653323,"R"
173696,"141 WEST 5TH STREET UNIT 4087","CHICO","CA",95927,39.7280211670001,-121.838394274,196,"141 WEST 5TH STREET UNIT 4087, CHICO, CA, 95927","Match","Non_Exact","141 W 5TH ST, CHICO, CA, 95928",68428649,"L"
173697,"141 WEST 80TH STREET","NEW YORK","NY",10024,40.783145152,-73.976180883,197,"141 WEST 80TH STREET, NEW YORK, NY, 10024","Match","Exact","141 W 80TH ST, NEW YORK, NY, 10024",59656682,"R"
173698,"141 WEST BAILEY ROAD","NAPERVILLE","IL",60565,41.741264637,-88.138009561,198,"141 WEST BAILEY ROAD, NAPERVILLE, IL, 60565","Match","Exact","141 W BAILEY RD, NAPERVILLE, IL, 60565",649654983,"R"
173699,"141 WEST BEECH DR","ROGERS","AR",72756,NA,NA,199,"141 WEST BEECH DR, ROGERS, AR, 72756","No_Match",NA,NA,NA,NA
173700,"141 WEST JOHN STREET","NEWAYGO","MI",49337,43.40313309,-85.804483611,200,"141 WEST JOHN STREET, NEWAYGO, MI, 49337","Match","Exact","141 W JOHN ST, NEWAYGO, MI, 49337",150220302,"L"
173701,"141 WEST ST","BRISTOL","CT",6010,41.6711909310001,-72.949186686,201,"141 WEST ST, BRISTOL, CT, 6010","Match","Exact","141 WEST ST, BRISTOL, CT, 06010",3505958,"L"
173702,"141 WESTERN HILLS DR","RIDGEDALE","MO",65616,36.52158489,-93.297709056,202,"141 WESTERN HILLS DR, RIDGEDALE, MO, 65616","Match","Non_Exact","141 WESTERN HILLS DR, RIDGEDALE, MO, 65739",20161859,"L"
173703,"141 WESTLEDGE ROAD","WEST SIMSBURY","CT",6092,41.888325122,-72.870380396,203,"141 WESTLEDGE ROAD, WEST SIMSBURY, CT, 6092","Match","Exact","141 WESTLEDGE RD, WEST SIMSBURY, CT, 06092",604917688,"L"
173704,"141 WESTON STREET 1832","HARTFORD","CT",6101,NA,NA,204,"141 WESTON STREET 1832, HARTFORD, CT, 6101","No_Match",NA,NA,NA,NA
173705,"141 WESTONGATE WAY","CARY","NC",27513,35.8137602480001,-78.7826150719999,205,"141 WESTONGATE WAY, CARY, NC, 27513","Match","Exact","141 WESTONGATE WAY, CARY, NC, 27513",612828570,"L"
173706,"141 WILKINSON ESTATES DRIVE","RICHMOND","VA",23227,37.6174574660001,-77.4245148159999,206,"141 WILKINSON ESTATES DRIVE, RICHMOND, VA, 23227","Match","Exact","141 WILKINSON ESTATES DR, RICHMOND, VA, 23227",106664983,"R"
173707,"141 WILLIAMSON AVENUE","HILLSIDE","NJ",7205,40.70293859,-74.2182436749999,207,"141 WILLIAMSON AVENUE, HILLSIDE, NJ, 7205","Match","Exact","141 WILLIAMSON AVE, HILLSIDE, NJ, 07205",60581473,"R"
173708,"141 WILLOW BEND DR","MADISONVILLE","LA",70447,30.4716975800001,-90.1943605279999,208,"141 WILLOW BEND DR, MADISONVILLE, LA, 70447","Match","Exact","141 WILLOW BEND DR, MADISONVILLE, LA, 70447",611481803,"L"
173709,"141 WILLOW LAKE DRIVE","FAIRHOPE","AL",36532,30.5500351320001,-87.8803344039999,209,"141 WILLOW LAKE DRIVE, FAIRHOPE, AL, 36532","Match","Exact","141 WILLOW LAKE DR, FAIRHOPE, AL, 36532",131718622,"L"
173710,"141 WILLOW PT","CROSSVILLE","TN",38555,35.977867216,-85.1004728679999,210,"141 WILLOW PT, CROSSVILLE, TN, 38555","Match","Non_Exact","141 WILLOW PT, CROSSVILLE, TN, 38571",620029348,"R"
173711,"141 WILLOWOOD DR","OAKDALE","NY",11769,NA,NA,211,"141 WILLOWOOD DR, OAKDALE, NY, 11769","No_Match",NA,NA,NA,NA
173712,"141 WINCHESTER AVE","GRASONVILLE","MD",21638,38.9637320510001,-76.199331833,212,"141 WINCHESTER AVE, GRASONVILLE, MD, 21638","Match","Exact","141 WINCHESTER AVE, GRASONVILLE, MD, 21638",68044440,"L"
173713,"141 WINWOOD","HOHENWALD","TN",38462,NA,NA,213,"141 WINWOOD, HOHENWALD, TN, 38462","No_Match",NA,NA,NA,NA
173714,"141 WISCONSIN ST","BEAVER DAM","WI",53916,43.4670445460001,-88.827493569,214,"141 WISCONSIN ST, BEAVER DAM, WI, 53916","Match","Exact","141 WISCONSIN ST, BEAVER DAM, WI, 53916",53552821,"L"
173715,"141 WOLFF DRIVE","SITKA","AK",99835,57.0494729480001,-135.297872589,215,"141 WOLFF DRIVE, SITKA, AK, 99835","Match","Exact","141 WOLFF DR, SITKA, AK, 99835",191272513,"L"
173716,"141 WOODMERE BLVD 1G","WOODMERE","NY",11598,40.631252014,-73.711838465,216,"141 WOODMERE BLVD 1G, WOODMERE, NY, 11598","Match","Exact","141 WOODMERE BLVD, WOODMERE, NY, 11598",642497402,"L"
173717,"141 YORKSHIRE PLACE","MADISON HEIGHTS","VA",24572,37.472339505,-79.096363649,217,"141 YORKSHIRE PLACE, MADISON HEIGHTS, VA, 24572","Match","Exact","141 YORKSHIRE PL, MADISON HEIGHTS, VA, 24572",159108853,"L"
173718,"141-01 41 AVE 515","FLUSHING","NY",11355,40.7585887280001,-73.829329184,218,"141-01 41 AVE 515, FLUSHING, NY, 11355","Match","Exact","141-01 41ST AVE, FLUSHING, NY, 11355",59701090,"L"
173719,"141-02 / 79TH AVENUE","FLUSHING","NY",11367,NA,NA,219,"141-02 / 79TH AVENUE, FLUSHING, NY, 11367","No_Match",NA,NA,NA,NA
173720,"141-03 25TH ROAD","FLUSHING","NY",11354,40.775980126,-73.827585025,220,"141-03 25TH ROAD, FLUSHING, NY, 11354","Match","Exact","141-3 25TH RD, FLUSHING, NY, 11354",59730654,"R"
173721,"141-04 14TH AVENUE","WHITESTONE","NY",11357,40.786552918,-73.828163498,221,"141-04 14TH AVENUE, WHITESTONE, NY, 11357","Match","Exact","141-4 14TH AVE, WHITESTONE, NY, 11357",59700388,"R"
173722,"141-05 70th street","FLUSHING","NY",11367,NA,NA,222,"141-05 70th street, FLUSHING, NY, 11367","Tie",NA,NA,NA,NA
173723,"141-05 70TH STREET","FLUSHING","NY",11367,NA,NA,223,"141-05 70TH STREET, FLUSHING, NY, 11367","Tie",NA,NA,NA,NA
173724,"141-07 20TH AVENUE SUITE 402","WHITESTONE","NY",11357,40.781674519,-73.827584491,224,"141-07 20TH AVENUE SUITE 402, WHITESTONE, NY, 11357","Match","Exact","141-7 20TH AVE, WHITESTONE, NY, 11357",59740778,"L"
173725,"141-07 20TH AVENUE SUITE 604","WHITESTONE","NY",11357,40.781674519,-73.827584491,225,"141-07 20TH AVENUE SUITE 604, WHITESTONE, NY, 11357","Match","Exact","141-7 20TH AVE, WHITESTONE, NY, 11357",59740778,"L"
173726,"141-08 230TH PLACE","LAURELTON","NY",11413,40.667347045,-73.744796999,226,"141-08 230TH PLACE, LAURELTON, NY, 11413","Match","Exact","141-8 230TH PL, LAURELTON, NY, 11413",59721297,"R"
173727,"141-1 ROUTE 130 S 345","CINNAMINSON","NJ",8077,NA,NA,227,"141-1 ROUTE 130 S 345, CINNAMINSON, NJ, 8077","No_Match",NA,NA,NA,NA
173728,"141-10 28TH AVENUE APT 3E","FLUSHING","NY",11354,40.7731099010001,-73.827619517,228,"141-10 28TH AVENUE APT 3E, FLUSHING, NY, 11354","Match","Exact","141-10 28TH AVE, FLUSHING, NY, 11354",59700875,"R"
173729,"141-11 UNION TURNPIKE 3B","KEW GARDENS HILLS","NY",11357,40.717532174,-73.8178485619999,229,"141-11 UNION TURNPIKE 3B, KEW GARDENS HILLS, NY, 11357","Match","Non_Exact","141-11 UNION TPKE, KEW GARDENS HILLS, NY, 11367",59710365,"L"
173730,"141-12 77TH AVENUE","FLUSHING","NY",11367,40.7210824860001,-73.819933426,230,"141-12 77TH AVENUE, FLUSHING, NY, 11367","Match","Exact","141-12 77TH AVE, FLUSHING, NY, 11367",59710345,"R"
173731,"141-13 72ND DRIVE","FLUSHING","NY",11367,40.724772993,-73.823096284,231,"141-13 72ND DRIVE, FLUSHING, NY, 11367","Match","Exact","141-13 72ND DR, FLUSHING, NY, 11367",59710279,"L"
173732,"141-15 FOCH BLVD","JAMAICA","NY",11436,40.6784925040001,-73.8003902,232,"141-15 FOCH BLVD, JAMAICA, NY, 11436","Match","Exact","141-15 FOCH BLVD, JAMAICA, NY, 11436",59714464,"L"
173733,"141-16 25TH ROAD APT 5B","FLUSHING","NY",11354,40.775961453,-73.827352182,233,"141-16 25TH ROAD APT 5B, FLUSHING, NY, 11354","Match","Exact","141-16 25TH RD, FLUSHING, NY, 11354",59730654,"L"
173734,"141-18 73RD TERRACE","FLUSHING","NY",11367,40.723428728,-73.822558683,234,"141-18 73RD TERRACE, FLUSHING, NY, 11367","Match","Exact","141-18 73RD TER, FLUSHING, NY, 11367",59730352,"R"
173735,"141-21 SPRINGFIELD BLVD","SPRINGFIELD GARDENS","NY",11413,40.671129895,-73.756450617,235,"141-21 SPRINGFIELD BLVD, SPRINGFIELD GARDENS, NY, 11413","Match","Exact","141-21 SPRINGFIELD BLVD, SPRINGFIELD GARDENS, NY, 11413",625295429,"L"
173736,"141-24 70TH ROAD","FLUSHING","NY",11367,40.7282608570001,-73.824157325,236,"141-24 70TH ROAD, FLUSHING, NY, 11367","Match","Exact","141-24 70TH RD, FLUSHING, NY, 11367",59710264,"R"
173737,"141-25 NORTHERN BLVD APT C8","FLUSHING","NY",11354,40.7644347770001,-73.825305928,237,"141-25 NORTHERN BLVD APT C8, FLUSHING, NY, 11354","Match","Exact","141-25 NORTHERN BLVD, FLUSHING, NY, 11354",59701116,"L"
173738,"141-27 185TH ST","SPRINGFIELD GARDENS","NY",11413,40.670224999,-73.7588732679999,238,"141-27 185TH ST, SPRINGFIELD GARDENS, NY, 11413","Match","Exact","141-27 185TH ST, SPRINGFIELD GARDENS, NY, 11413",59730525,"L"
173739,"141-28 72ND DRIVE","FLUSHING","NY",11367,40.7249711310001,-73.8223996739999,239,"141-28 72ND DRIVE, FLUSHING, NY, 11367","Match","Exact","141-28 72ND DR, FLUSHING, NY, 11367",59710279,"R"
173740,"141-30 181ST STREET","SPRINGFIELD GARDENS","NY",11413,40.669993194,-73.7627693699999,240,"141-30 181ST STREET, SPRINGFIELD GARDENS, NY, 11413","Match","Exact","141-30 181ST ST, SPRINGFIELD GARDENS, NY, 11413",652210874,"R"
173741,"141-35 78TH AVENUE 1C","FLUSHING","NY",11367,40.719622669,-73.8197520379999,241,"141-35 78TH AVENUE 1C, FLUSHING, NY, 11367","Match","Exact","141-35 78TH AVE, FLUSHING, NY, 11367",640884777,"L"
173742,"141-45 UNION TURNPIKE","FLUSHING","NY",11367,40.717580206,-73.817617775,242,"141-45 UNION TURNPIKE, FLUSHING, NY, 11367","Match","Exact","141-45 UNION TPKE, FLUSHING, NY, 11367",59710365,"L"
173743,"141-52 85TH ROAD APT 5G","BRIARWOOD","NY",11435,40.709592926,-73.814890995,243,"141-52 85TH ROAD APT 5G, BRIARWOOD, NY, 11435","Match","Exact","141-52 85TH RD, BRIARWOOD, NY, 11435",59725354,"R"
173744,"141-59 85TH ROAD 1F","BRIARWOOD","NY",11435,40.709616268,-73.8147323749999,244,"141-59 85TH ROAD 1F, BRIARWOOD, NY, 11435","Match","Exact","141-59 85TH RD, BRIARWOOD, NY, 11435",59725354,"L"
173745,"141-5985TH RD APT 5F","BRAIRWOOD","NY",11435,NA,NA,245,"141-5985TH RD APT 5F, BRAIRWOOD, NY, 11435","No_Match",NA,NA,NA,NA
173746,"141-60 84TH ROAD APT 5G","BRIARDWOOD","NY",11435,40.7127380760001,-73.8162588709999,246,"141-60 84TH ROAD APT 5G, BRIARDWOOD, NY, 11435","Match","Non_Exact","141-60 84TH RD, BRIARWOOD, NY, 11435",641031634,"L"
173747,"141","AMES","IA",50010,NA,NA,247,"141, AMES, IA, 50010","No_Match",NA,NA,NA,NA
173748,"141","DEARBORN","MI",48124,NA,NA,248,"141, DEARBORN, MI, 48124","No_Match",NA,NA,NA,NA
173749,"141","EAST ORANGE","NJ",7017,NA,NA,249,"141, EAST ORANGE, NJ, 7017","No_Match",NA,NA,NA,NA
173750,"141","WHITESTONE","NY",11357,NA,NA,250,"141, WHITESTONE, NY, 11357","No_Match",NA,NA,NA,NA
173751,"1410 - 31ST AVENUE","ROCK ISLAND","IL",61201,NA,NA,251,"1410 - 31ST AVENUE, ROCK ISLAND, IL, 61201","No_Match",NA,NA,NA,NA
173752,"1410 13TH AVE NE","WATERTOWN","SD",NA,44.9156133660001,-97.092446668,252,"1410 13TH AVE NE, WATERTOWN, SD, ","Match","Exact","1410 13TH AVE NE, WATERTOWN, SD, 57201",200740638,"R"
173753,"1410 13TH AVENUE","FRANKLINTON","LA",79438,30.8424804850001,-90.148663658,253,"1410 13TH AVENUE, FRANKLINTON, LA, 79438","Match","Non_Exact","1410 13TH AVE, FRANKLINTON, LA, 70438",82454821,"L"
173754,"1410 13TH ST SW","WADENA","MN",56482,46.4303493840001,-95.15856433,254,"1410 13TH ST SW, WADENA, MN, 56482","Match","Exact","1410 13TH ST SW, WADENA, MN, 56482",168340314,"R"
173755,"1410 14TH ST","PLANO","TX",75074,33.0182868250001,-96.693692912,255,"1410 14TH ST, PLANO, TX, 75074","Match","Exact","1410 14TH ST, PLANO, TX, 75074",123490036,"R"
173756,"1410 14TH","PLANO","TX",75074,33.0182868250001,-96.693692912,256,"1410 14TH, PLANO, TX, 75074","Match","Non_Exact","1410 14TH ST, PLANO, TX, 75074",123490036,"R"
173757,"1410 20TH STREET UNIT 19","WEST DES MOINES","IA",50265,41.594153314,-93.733158784,257,"1410 20TH STREET UNIT 19, WEST DES MOINES, IA, 50265","Match","Exact","1410 20TH ST, W DES MOINES, IA, 50265",65776681,"L"
173758,"1410 20TH STREET UNIT 214","MIAMI BEACH","FL",33139,25.7955304110001,-80.14388917,258,"1410 20TH STREET UNIT 214, MIAMI BEACH, FL, 33139","Match","Exact","1410 20TH ST, MIAMI BEACH, FL, 33139",116020134,"L"
173759,"1410 21ST ST","GALVESTON","TX",77550,29.2968039140001,-94.788360785,259,"1410 21ST ST, GALVESTON, TX, 77550","Match","Exact","1410 21ST ST, GALVESTON, TX, 77550",96692878,"L"
173760,"1410 47 AVE NE APT 10","COLUMBIA HEIGHTS","MN",55421,45.0535737220001,-93.240650376,260,"1410 47 AVE NE APT 10, COLUMBIA HEIGHTS, MN, 55421","Match","Exact","1410 47TH AVE NE, COLUMBIA HEIGHTS, MN, 55421",97500145,"R"
173761,"1410 47TH AVE NE APT 10","COLUMBIA HEIGHTS","MN",55421,45.0535737220001,-93.240650376,261,"1410 47TH AVE NE APT 10, COLUMBIA HEIGHTS, MN, 55421","Match","Exact","1410 47TH AVE NE, COLUMBIA HEIGHTS, MN, 55421",97500145,"R"
173762,"1410 71ST STREET","MIAMI BEACH","FL",33141,25.8535742710001,-80.1338487789999,262,"1410 71ST STREET, MIAMI BEACH, FL, 33141","Match","Exact","1410 71ST ST, MIAMI BEACH, FL, 33141",116008686,"L"
173763,"1410 7TH WAY CIRCLE","PLEASANT GROVE","AL",35127,33.4897713020001,-87.0012362109999,263,"1410 7TH WAY CIRCLE, PLEASANT GROVE, AL, 35127","Match","Exact","1410 7TH WAY CIR, PLEASANT GROVE, AL, 35127",81655011,"R"
173764,"1410 8TH ST CT SE","NEW PRAGUE","MN",56071,44.5356078730001,-93.557254305,264,"1410 8TH ST CT SE, NEW PRAGUE, MN, 56071","Match","Exact","1410 8TH ST CT SE, NEW PRAGUE, MN, 56071",619416592,"L"
173765,"1410 8TH","FLORESVILLE","TX",78114,29.138016291,-98.1521277099999,265,"1410 8TH, FLORESVILLE, TX, 78114","Match","Non_Exact","1410 8TH ST, FLORESVILLE, TX, 78114",54879032,"R"
173766,"1410 9TH STREET EAST","BRADENTON","FL",34208,27.4865271080001,-82.554770821,266,"1410 9TH STREET EAST, BRADENTON, FL, 34208","Match","Exact","1410 9TH ST E, BRADENTON, FL, 34208",653184002,"R"
173767,"1410 ABBEY PLACE APT 220","CHARLOTTE","NC",28209,35.1686320090001,-80.852621536,267,"1410 ABBEY PLACE APT 220, CHARLOTTE, NC, 28209","Match","Exact","1410 ABBEY PL, CHARLOTTE, NC, 28209",635657615,"R"
173768,"1410 ACAPULCO DRIVE","DALLAS","TX",75232,32.670805612,-96.842790001,268,"1410 ACAPULCO DRIVE, DALLAS, TX, 75232","Match","Exact","1410 ACAPULCO DR, DALLAS, TX, 75232",102948322,"L"
173769,"1410 ALDER","TEHACHAPI","CA",93561,35.1140610160001,-118.451190327,269,"1410 ALDER, TEHACHAPI, CA, 93561","Match","Non_Exact","1410 ALDER AVE, TEHACHAPI, CA, 93561",109423790,"R"
173770,"1410 ALDERWOOD DR","ALTOONA","IA",50009,41.6374750900001,-93.472413804,270,"1410 ALDERWOOD DR, ALTOONA, IA, 50009","Match","Exact","1410 ALDERWOOD DR, ALTOONA, IA, 50009",65862673,"R"
173771,"1410 ALLISON","BRENHAM","TX",77833,30.1490479730001,-96.378630782,271,"1410 ALLISON, BRENHAM, TX, 77833","Match","Non_Exact","1410 ALLISON ST, BRENHAM, TX, 77833",39247346,"L"
173772,"1410 ALTURAS AVENUE","RENO","NV",89503,39.5415679230001,-119.832038647,272,"1410 ALTURAS AVENUE, RENO, NV, 89503","Match","Exact","1410 ALTURAS AVE, RENO, NV, 89503",107042428,"R"
173773,"1410 AMISTAD DR","PROSPER","TX",75078,33.222331184,-96.7778688609999,273,"1410 AMISTAD DR, PROSPER, TX, 75078","Match","Exact","1410 AMISTAD DR, PROSPER, TX, 75078",619913024,"L"
173774,"1410 ANNUNCIATION ST APT 4309","NEW ORLEANS","LA",70130,29.935909006,-90.0692188089999,274,"1410 ANNUNCIATION ST APT 4309, NEW ORLEANS, LA, 70130","Match","Exact","1410 ANNUNCIATION ST, NEW ORLEANS, LA, 70130",191714671,"L"
173775,"1410 ARAGON DRIVE APT 106","KNIGHTDALE","NC",27545,35.800998296,-78.4837344429999,275,"1410 ARAGON DRIVE APT 106, KNIGHTDALE, NC, 27545","Match","Exact","1410 ARAGON DR, KNIGHTDALE, NC, 27545",639838443,"R"
173776,"1410 AVE K","GALVESTON","TX",77550,29.3017600040001,-94.781557802,276,"1410 AVE K, GALVESTON, TX, 77550","Match","Exact","1410 AVE K, GALVESTON, TX, 77550",96680494,"R"
173777,"1410 AVENUE R","BROOKLYN","NY",11229,40.605710365,-73.958494877,277,"1410 AVENUE R, BROOKLYN, NY, 11229","Match","Exact","1410 AVE R, BROOKLYN, NY, 11229",59090106,"R"
173778,"1410 BALTIMORE AVE","HOT SPRINGS","SD",57747,43.427650181,-103.478041212,278,"1410 BALTIMORE AVE, HOT SPRINGS, SD, 57747","Match","Exact","1410 BALTIMORE AVE, HOT SPRINGS, SD, 57747",634787306,"R"
173779,"1410 BAVAND CIRCLE","ROCK HILL","SC",29732,34.943989372,-81.064766922,279,"1410 BAVAND CIRCLE, ROCK HILL, SC, 29732","Match","Exact","1410 BAVAND CIR, ROCK HILL, SC, 29732",19815901,"L"
173780,"1410 BELMONT DRIVE","DALTON","GA",30720,34.750575403,-84.9838656809999,280,"1410 BELMONT DRIVE, DALTON, GA, 30720","Match","Exact","1410 BELMONT DR, DALTON, GA, 30720",57368992,"L"
173781,"1410 BEVERLY AVE","SHELBY","NC",28152,35.28324668,-81.5685578699999,281,"1410 BEVERLY AVE, SHELBY, NC, 28152","Match","Exact","1410 BEVERLY AVE, SHELBY, NC, 28152",19318445,"L"
173782,"1410 BITTERSWEET","RICHMOND","TX",77406,NA,NA,282,"1410 BITTERSWEET, RICHMOND, TX, 77406","Tie",NA,NA,NA,NA
173783,"1410 BLANDING WAY","WINDER","GA",30680,34.035447494,-83.585655781,283,"1410 BLANDING WAY, WINDER, GA, 30680","Match","Exact","1410 BLANDING WAY, WINDER, GA, 30680",628058829,"L"
173784,"1410 BLOSSOM CIRCLE","DAYTON","NJ",8810,40.3797256290001,-74.509772852,284,"1410 BLOSSOM CIRCLE, DAYTON, NJ, 8810","Match","Exact","1410 BLOSSOM CIR, DAYTON, NJ, 08810",626867525,"R"
173785,"1410 BLUE SAGE COURT","BOULDER","CO",80305,39.9728888280001,-105.26436834,285,"1410 BLUE SAGE COURT, BOULDER, CO, 80305","Match","Exact","1410 BLUE SAGE CT, BOULDER, CO, 80305",188163767,"R"
173786,"1410 BLUFF VIEW CT","INDIANAPOLIS","IN",46217,39.6849527730001,-86.1840984789999,286,"1410 BLUFF VIEW CT, INDIANAPOLIS, IN, 46217","Match","Exact","1410 BLUFF VIEW CT, INDIANAPOLIS, IN, 46217",624866828,"R"
173787,"1410 BOWIE","GALVESTON","TX",77551,29.2882000540001,-94.8196822959999,287,"1410 BOWIE, GALVESTON, TX, 77551","Match","Non_Exact","1410 BOWIE DR, GALVESTON, TX, 77551",96679184,"L"
173788,"1410 BRANDON COURT","BAY CITY","TX",77414,28.955948113,-95.9721823199999,288,"1410 BRANDON COURT, BAY CITY, TX, 77414","Match","Exact","1410 BRANDON CT, BAY CITY, TX, 77414",83279400,"L"
173789,"1410 BRATTLEBORO CIRCLE","SUN CITY CENTER","FL",33573,27.7224917340001,-82.3571816529999,289,"1410 BRATTLEBORO CIRCLE, SUN CITY CENTER, FL, 33573","Match","Exact","1410 BRATTLEBORO CIR, SUN CITY CENTER, FL, 33573",104498851,"L"
173790,"1410 BRENDON TRAILS DR","SPRING","TX",77379,30.0510195620001,-95.580607512,290,"1410 BRENDON TRAILS DR, SPRING, TX, 77379","Match","Exact","1410 BRENDON TRAILS DR, SPRING, TX, 77379",624612662,"L"
173791,"1410 BRETT PLACE UNIT 241","SAN PEDRO","CA",90732,33.755633222,-118.305953275,291,"1410 BRETT PLACE UNIT 241, SAN PEDRO, CA, 90732","Match","Exact","1410 BRETT PL, SAN PEDRO, CA, 90732",141821366,"L"
173792,"1410 BRUMFIELD DRIVE","LEITCHFIELD","KY",42754,37.500122253,-86.298809348,292,"1410 BRUMFIELD DRIVE, LEITCHFIELD, KY, 42754","Match","Non_Exact","1410 BRUMFIELD AVE, LEITCHFIELD, KY, 42754",15776768,"L"
173793,"1410 BURNT STAND ROAD","DAWSONVILLE","GA",30534,34.4573709570001,-84.000918336,293,"1410 BURNT STAND ROAD, DAWSONVILLE, GA, 30534","Match","Exact","1410 BURNT STAND RD, DAWSONVILLE, GA, 30534",101121803,"L"
173794,"1410 BYRON DRIVE","CONWAY","AR",72036,35.0992540550001,-92.5158857659999,294,"1410 BYRON DRIVE, CONWAY, AR, 72036","Match","Non_Exact","1410 BYRON DR, CONWAY, AR, 72034",141073266,"L"
173795,"1410 CAMELOT DR","FAYETTEVILLE","NC",28304,35.0249266980001,-78.9551535269999,295,"1410 CAMELOT DR, FAYETTEVILLE, NC, 28304","Match","Exact","1410 CAMELOT DR, FAYETTEVILLE, NC, 28304",64196523,"R"
173796,"1410 CANTON CIRCLE","ROSENBERG","TX",77471,29.553713354,-95.776563606,296,"1410 CANTON CIRCLE, ROSENBERG, TX, 77471","Match","Exact","1410 CANTON CIR, ROSENBERG, TX, 77471",78320080,"R"
173797,"1410 CARNAGE RD APT 204","RALEIGH","NC",27610,35.7634582840001,-78.628483865,297,"1410 CARNAGE RD APT 204, RALEIGH, NC, 27610","Match","Non_Exact","1410 CARNAGE DR, RALEIGH, NC, 27610",72509119,"R"
173798,"1410 CEDAR HOLLOW DRIVE","PROSPER","TX",75078,33.2340275820001,-96.784161123,298,"1410 CEDAR HOLLOW DRIVE, PROSPER, TX, 75078","Match","Exact","1410 CEDAR HOLLOW DR, PROSPER, TX, 75078",619964176,"L"
173799,"1410 CHADWORTH COURT","PITTSBURGH","PA",15237,40.552795486,-80.070981897,299,"1410 CHADWORTH COURT, PITTSBURGH, PA, 15237","Match","Exact","1410 CHADWORTH CT, PITTSBURGH, PA, 15237",648672690,"R"
173800,"1410 CHADWORTH CT","PITTSBURGH","PA",15237,40.552795486,-80.070981897,300,"1410 CHADWORTH CT, PITTSBURGH, PA, 15237","Match","Exact","1410 CHADWORTH CT, PITTSBURGH, PA, 15237",648672690,"R"
173801,"1410 CHARLOTTE STREET","ELIZABETH CITY","FL",27909,NA,NA,301,"1410 CHARLOTTE STREET, ELIZABETH CITY, FL, 27909","No_Match",NA,NA,NA,NA
173802,"1410 CHATLEY WAY","WOODSTOCK","GA",30188,34.092793165,-84.506240525,302,"1410 CHATLEY WAY, WOODSTOCK, GA, 30188","Match","Exact","1410 CHATLEY WAY, WOODSTOCK, GA, 30188",68861239,"R"
173803,"1410 CHERITH CT","CONCORD","NC",28027,35.4390075480001,-80.6302830339999,303,"1410 CHERITH CT, CONCORD, NC, 28027","Match","Non_Exact","1410 CHERITH CT NW, CONCORD, NC, 28027",24920516,"R"
173804,"1410 CHESAPEAKE AVE","COLUMBUS","OH",43212,39.9928104690001,-83.0461133869999,304,"1410 CHESAPEAKE AVE, COLUMBUS, OH, 43212","Match","Exact","1410 CHESAPEAKE AVE, COLUMBUS, OH, 43212",642133182,"R"
173805,"1410 CHESTNUT ST SE","OLYMPIA","WA",98501,47.0359558500001,-122.892845892,305,"1410 CHESTNUT ST SE, OLYMPIA, WA, 98501","Match","Exact","1410 CHESTNUT ST SE, OLYMPIA, WA, 98501",180944667,"L"
173806,"1410 CHICAGO AVE APT 804","EVANSTON","IL",60201,42.0430145020001,-87.680545595,306,"1410 CHICAGO AVE APT 804, EVANSTON, IL, 60201","Match","Exact","1410 CHICAGO AVE, EVANSTON, IL, 60201",111743676,"L"
173807,"1410 CIMARRON DR UNIT A","LAFAYETTE","CO",80026,39.986046276,-105.117382633,307,"1410 CIMARRON DR UNIT A, LAFAYETTE, CO, 80026","Match","Exact","1410 CIMARRON DR, LAFAYETTE, CO, 80026",624974846,"L"
173808,"1410 CLAREMONT AVE","RICHMOND","VA",23227,37.5872126580001,-77.4562467229999,308,"1410 CLAREMONT AVE, RICHMOND, VA, 23227","Match","Exact","1410 CLAREMONT AVE, RICHMOND, VA, 23227",201533911,"R"
173809,"1410 CLAYTON","BORGER","TX",79007,35.682959254,-101.38923383,309,"1410 CLAYTON, BORGER, TX, 79007","Match","Non_Exact","1410 CLAYTON ST, BORGER, TX, 79007",185356708,"R"
173810,"1410 CONCORD DR","RICHARDSON","TX",75081,32.9371583990001,-96.6987238299999,310,"1410 CONCORD DR, RICHARDSON, TX, 75081","Match","Exact","1410 CONCORD DR, RICHARDSON, TX, 75081",102915888,"R"
173811,"1410 COUNTRY CLUB RD","BASTROP","LA",71220,32.791162329,-91.917942312,311,"1410 COUNTRY CLUB RD, BASTROP, LA, 71220","Match","Exact","1410 COUNTRY CLUB RD, BASTROP, LA, 71220",75378274,"R"
173812,"1410 COUNTY HIGHWAY 48","ONEONTA","NY",13820,42.4281613040001,-75.10855535,312,"1410 COUNTY HIGHWAY 48, ONEONTA, NY, 13820","Match","Exact","1410 CTY HWY 48, ONEONTA, NY, 13820",125945573,"R"
173813,"1410 COUNTY LINE ROAD","HARMONY","NC",28634,35.9459958950001,-80.689795492,313,"1410 COUNTY LINE ROAD, HARMONY, NC, 28634","Match","Exact","1410 COUNTY LINE RD, HARMONY, NC, 28634",652098047,"R"
173814,"1410 COUNTY ROAD 3218","DEKALB","TX",75559,33.60389364,-94.533524744,314,"1410 COUNTY ROAD 3218, DEKALB, TX, 75559","Match","Non_Exact","1410 CO RD 3218, DE KALB, TX, 75559",57656858,"R"
173815,"1410 COVINGTON CT APT 1","PEORIA","IL",61614,40.7454786820001,-89.613859436,315,"1410 COVINGTON CT APT 1, PEORIA, IL, 61614","Match","Non_Exact","1410 W COVINGTON CT, PEORIA, IL, 61614",8714979,"L"
173816,"1410 COX LAKE ROAD","BELTON","SC",29627,34.5379294470001,-82.542791423,316,"1410 COX LAKE ROAD, BELTON, SC, 29627","Match","Exact","1410 COX LAKE RD, BELTON, SC, 29627",25454438,"R"
173817,"1410 CR 3218","DEKALB","TX",75559,33.60389364,-94.533524744,317,"1410 CR 3218, DEKALB, TX, 75559","Match","Non_Exact","1410 CO RD 3218, DE KALB, TX, 75559",57656858,"R"
173818,"1410 CREEKSIDE DR","WALNUT","CA",94596,37.884982151,-122.050996479,318,"1410 CREEKSIDE DR, WALNUT, CA, 94596","Match","Non_Exact","1410 CREEKSIDE DR, WALNUT CREEK, CA, 94596",647666285,"R"
173819,"1410 CREEKSIDE DRIVE APT 16","WALNUT CREEK","CA",94596,37.884982151,-122.050996479,319,"1410 CREEKSIDE DRIVE APT 16, WALNUT CREEK, CA, 94596","Match","Exact","1410 CREEKSIDE DR, WALNUT CREEK, CA, 94596",647666285,"R"
173820,"1410 CRESTON","MUSKEGON","MI",49442,43.2267740020001,-86.2093357429999,320,"1410 CRESTON, MUSKEGON, MI, 49442","Match","Non_Exact","1410 CRESTON ST, MUSKEGON, MI, 49442",77655118,"L"
173821,"1410 CROSSTOWN AVE","SILVIS","IL",61282,41.496504735,-90.409704921,321,"1410 CROSSTOWN AVE, SILVIS, IL, 61282","Match","Exact","1410 CROSSTOWN AVE, SILVIS, IL, 61282",9217731,"R"
173822,"1410 CRYSTAL LAKE CIRCLE APT 8","GREEN BAY","WI",54311,44.456708888,-88.009760504,322,"1410 CRYSTAL LAKE CIRCLE APT 8, GREEN BAY, WI, 54311","Match","Exact","1410 CRYSTAL LAKE CIR, GREEN BAY, WI, 54311",628963815,"R"
173823,"1410 CURRY ROAD SUITE-131","SCHENECTADY","NY",12306,42.783597844,-73.963126444,323,"1410 CURRY ROAD SUITE-131, SCHENECTADY, NY, 12306","Match","Exact","1410 CURRY RD, SCHENECTADY, NY, 12306",18027442,"R"
173824,"1410 DABBLING DUCK DRIVE","SUMMERVILLE","SC",29483,NA,NA,324,"1410 DABBLING DUCK DRIVE, SUMMERVILLE, SC, 29483","No_Match",NA,NA,NA,NA
173825,"1410 DAKOTA ST","LINCOLN","NE",68502,40.781581078,-96.701296741,325,"1410 DAKOTA ST, LINCOLN, NE, 68502","Match","Exact","1410 DAKOTA ST, LINCOLN, NE, 68502",28254990,"L"
173826,"1410 DAKOTA STREET","LINCOLN","NE",68502,40.781581078,-96.701296741,326,"1410 DAKOTA STREET, LINCOLN, NE, 68502","Match","Exact","1410 DAKOTA ST, LINCOLN, NE, 68502",28254990,"L"
173827,"1410 DARWOOD DRIVE","MOBILE","AL",36605,30.6431547060001,-88.1134450709999,327,"1410 DARWOOD DRIVE, MOBILE, AL, 36605","Match","Exact","1410 DARWOOD DR, MOBILE, AL, 36605",61861989,"R"
173828,"1410 DRURY DRIVE","DALLAS","TX",75232,32.679837455,-96.8444322079999,328,"1410 DRURY DRIVE, DALLAS, TX, 75232","Match","Exact","1410 DRURY DR, DALLAS, TX, 75232",102948200,"L"
173829,"1410 E 11TH ST","LOVELAND","CO",80537,40.402871304,-105.057868484,329,"1410 E 11TH ST, LOVELAND, CO, 80537","Match","Exact","1410 E 11TH ST, LOVELAND, CO, 80537",188539492,"R"
173830,"1410 E 17TH AVE","COLUMBUS","OH",43211,40.0001022710001,-82.970882037,330,"1410 E 17TH AVE, COLUMBUS, OH, 43211","Match","Exact","1410 E 17TH AVE, COLUMBUS, OH, 43211",135577883,"L"
173831,"1410 E 31ST STREET","BRYAN","TX",77802,30.6597078620001,-96.360799127,331,"1410 E 31ST STREET, BRYAN, TX, 77802","Match","Exact","1410 E 31ST ST, BRYAN, TX, 77802",21814166,"L"
173832,"1410 E 4225 N","BUHL","ID",83316,42.611580546,-114.770016135,332,"1410 E 4225 N, BUHL, ID, 83316","Match","Exact","1410 E 4225 N, BUHL, ID, 83316",118786565,"R"
173833,"1410 E 79TH STREET","KANSAS CITY","MO",64131,38.9841153340001,-94.570406353,333,"1410 E 79TH STREET, KANSAS CITY, MO, 64131","Match","Exact","1410 E 79TH ST, KANSAS CITY, MO, 64131",91455349,"L"
173834,"1410 E AYLESWORTH RD","VEEDERSBURG","IN",47987,40.2001630280001,-87.194348141,334,"1410 E AYLESWORTH RD, VEEDERSBURG, IN, 47987","Match","Exact","1410 E AYLESWORTH RD, VEEDERSBURG, IN, 47987",55218781,"R"
173835,"1410 E BAKER DR","SAN TAN VALLEY","AZ",85140,33.2305873510001,-111.550854784,335,"1410 E BAKER DR, SAN TAN VALLEY, AZ, 85140","Match","Exact","1410 E BAKER DR, SAN TAN VALLEY, AZ, 85140",627630227,"L"
173836,"1410 E IDAHOME STREET","WEST COVINA","CA",91791,34.074668294,-117.915982106,336,"1410 E IDAHOME STREET, WEST COVINA, CA, 91791","Match","Exact","1410 E IDAHOME ST, WEST COVINA, CA, 91791",141714999,"R"
173837,"1410 E IRON AVE","SALINAS","KS",67401,38.8404510060001,-97.5892341589999,337,"1410 E IRON AVE, SALINAS, KS, 67401","Match","Non_Exact","1410 E IRON AVE, SALINA, KS, 67401",196699533,"L"
173838,"1410 E KEARNEY SUITE D","SPRINGFIELD","MO",65803,NA,NA,338,"1410 E KEARNEY SUITE D, SPRINGFIELD, MO, 65803","No_Match",NA,NA,NA,NA
173839,"1410 E PINE AVE","MERIDIAN","ID",83642,43.6121255530001,-116.376243872,339,"1410 E PINE AVE, MERIDIAN, ID, 83642","Match","Exact","1410 E PINE AVE, MERIDIAN, ID, 83642",117883086,"L"
173840,"1410 E PINE ST UNIT W306","SEATTLE","WA",98122,47.6152833670001,-122.313993513,340,"1410 E PINE ST UNIT W306, SEATTLE, WA, 98122","Match","Non_Exact","1410 E PINE ST, SEATTLE, WA, 98122",186592572,"L"
173841,"1410 E SOUTH ST","HARRISONVILLE","MO",64701,38.6462913720001,-94.3372819849999,341,"1410 E SOUTH ST, HARRISONVILLE, MO, 64701","Match","Exact","1410 E SOUTH ST, HARRISONVILLE, MO, 64701",100921487,"R"
173842,"1410 EAST 13TH STREET","TUCSON","AZ",85719,32.2185959990001,-110.950718545,342,"1410 EAST 13TH STREET, TUCSON, AZ, 85719","Match","Exact","1410 E 13TH ST, TUCSON, AZ, 85719",121174254,"R"
173843,"1410 EAST 9TH ST","PANAMA CITY","FL",32401,30.164082708,-85.640629653,343,"1410 EAST 9TH ST, PANAMA CITY, FL, 32401","Match","Exact","1410 E 9TH ST, PANAMA CITY, FL, 32401",7030097,"R"
173844,"1410 EAST AVENUE APT 5A","BRONX","NY",10462,40.835709868,-73.8604401389999,344,"1410 EAST AVENUE APT 5A, BRONX, NY, 10462","Match","Exact","1410 EAST AVE, BRONX, NY, 10462",80304757,"R"
173845,"1410 EAST CENTER STREET","BEEBE","AR",72012,35.081536155,-91.866868362,345,"1410 EAST CENTER STREET, BEEBE, AR, 72012","Match","Exact","1410 E CENTER ST, BEEBE, AR, 72012",82954270,"R"
173846,"1410 EAST JACKSON STREET","MEDFORD","OR",97504,42.331128468,-122.854487952,346,"1410 EAST JACKSON STREET, MEDFORD, OR, 97504","Match","Exact","1410 E JACKSON ST, MEDFORD, OR, 97504",155515017,"R"
173847,"1410 EAST MARION ST","SEATTLE","WA",98122,47.610385131,-122.313919506,347,"1410 EAST MARION ST, SEATTLE, WA, 98122","Match","Exact","1410 E MARION ST, SEATTLE, WA, 98122",186592587,"L"
173848,"1410 EAST PERSHING STREET","APPLETON","WI",54911,44.284222863,-88.383084646,348,"1410 EAST PERSHING STREET, APPLETON, WI, 54911","Match","Exact","1410 E PERSHING ST, APPLETON, WI, 54911",74887024,"L"
173849,"1410 EAST WOODBANK WAY","WEST CHESTER","PA",19380,40.0185685640001,-75.591931516,349,"1410 EAST WOODBANK WAY, WEST CHESTER, PA, 19380","Match","Exact","1410 E WOODBANK WAY, WEST CHESTER, PA, 19380",640454440,"R"
173850,"1410 EASTERN AVENUE","MALDEN","MA",2148,42.4311540670001,-71.030315823,350,"1410 EASTERN AVENUE, MALDEN, MA, 2148","Match","Exact","1410 EASTERN AVE, MALDEN, MA, 02148",86874449,"L"
173851,"1410 EBERHARD 1","HOUSTON","TX",77019,29.754589964,-95.394722859,351,"1410 EBERHARD 1, HOUSTON, TX, 77019","Match","Non_Exact","1410 EBERHARD ST, HOUSTON, TX, 77019",96062442,"R"
173852,"1410 EDGEFIELD LN","HOFFMAN ESTATES","IL",60169,42.0548501160001,-88.11416394,352,"1410 EDGEFIELD LN, HOFFMAN ESTATES, IL, 60169","Match","Exact","1410 EDGEFIELD LN, HOFFMAN EST, IL, 60169",111693147,"R"
173853,"1410 ELDORADO DR","FLINT","MI",48504,43.031057177,-83.737838008,353,"1410 ELDORADO DR, FLINT, MI, 48504","Match","Exact","1410 ELDORADO DR, FLINT, MI, 48504",69587741,"R"
173854,"1410 ELM LANE","TERRACE PARK","OH",45174,39.156335287,-84.319181847,354,"1410 ELM LANE, TERRACE PARK, OH, 45174","Match","Exact","1410 ELM LN, TERRACE PARK, OH, 45174",103959246,"R"
173855,"1410 EMILEE COURT","ROSENBERG","TX",77471,29.5531550000001,-95.771315256,355,"1410 EMILEE COURT, ROSENBERG, TX, 77471","Match","Non_Exact","1410 EMILEE, ROSENBERG, TX, 77471",616470475,"R"
173856,"1410 EMMETT ST","KISSIMMEE","FL",34741,28.2918179710001,-81.4183570169999,356,"1410 EMMETT ST, KISSIMMEE, FL, 34741","Match","Exact","1410 EMMETT ST, KISSIMMEE, FL, 34741",176656395,"L"
173857,"1410 ENCINO AVE","MONROVIA","CA",91016,34.1366944120001,-118.017273187,357,"1410 ENCINO AVE, MONROVIA, CA, 91016","Match","Exact","1410 ENCINO AVE, MONROVIA, CA, 91016",142742383,"L"
173858,"1410 ENGAGEMENT ROAD","RAPID CITY","SD",57701,NA,NA,358,"1410 ENGAGEMENT ROAD, RAPID CITY, SD, 57701","No_Match",NA,NA,NA,NA
173859,"1410 ENGLEWOOD DR","BELLEVUE","NE",68005,41.1443509850001,-95.918196342,359,"1410 ENGLEWOOD DR, BELLEVUE, NE, 68005","Match","Exact","1410 ENGLEWOOD DR, BELLEVUE, NE, 68005",28470878,"R"
173860,"1410 ERIKA DRIVE","IOWA","LA",70647,30.219827148,-93.112535459,360,"1410 ERIKA DRIVE, IOWA, LA, 70647","Match","Exact","1410 ERIKA DR, IOWA, LA, 70647",88426376,"L"
173861,"1410 EWING ST","LOS ANGELES","CA",90026,34.0865081430001,-118.247810215,361,"1410 EWING ST, LOS ANGELES, CA, 90026","Match","Exact","1410 EWING ST, LOS ANGELES, CA, 90026",141616207,"L"
173862,"1410 FAIRFAX ROAD","BELLEVUE","NE",68005,41.1477992550001,-95.912580776,362,"1410 FAIRFAX ROAD, BELLEVUE, NE, 68005","Match","Exact","1410 FAIRFAX RD, BELLEVUE, NE, 68005",28497955,"R"
173863,"1410 FM 572 E","GOLDTHWAITE","TX",76844,NA,NA,363,"1410 FM 572 E, GOLDTHWAITE, TX, 76844","No_Match",NA,NA,NA,NA
173864,"1410 FORBES STREET","GREEN COVE SPRINGS","FL",32043,29.992339106,-81.695470627,364,"1410 FORBES STREET, GREEN COVE SPRINGS, FL, 32043","Match","Exact","1410 FORBES ST, GREEN COVE SPRINGS, FL, 32043",83807779,"L"
173865,"1410 FORSTER BLVD SW","NORTH BEND","WA",98045,47.4823637000001,-121.800715436,365,"1410 FORSTER BLVD SW, NORTH BEND, WA, 98045","Match","Exact","1410 FORSTER BLVD SW, NORTH BEND, WA, 98045",648552235,"L"
173866,"1410 FOUNTAIN VIEW DRIVE 109","HOUSTON","TX",77057,29.7533284080001,-95.485835709,366,"1410 FOUNTAIN VIEW DRIVE 109, HOUSTON, TX, 77057","Match","Exact","1410 FOUNTAIN VIEW DR, HOUSTON, TX, 77057",645141946,"R"
173867,"1410 FOXTRAIL STREET","LYNDEN","WA",98264,NA,NA,367,"1410 FOXTRAIL STREET, LYNDEN, WA, 98264","No_Match",NA,NA,NA,NA
173868,"1410 FRANKLIN STREET SUITE 211","SAN FRANCISCO","CA",94109,37.7874591610001,-122.423418357,368,"1410 FRANKLIN STREET SUITE 211, SAN FRANCISCO, CA, 94109","Match","Exact","1410 FRANKLIN ST, SAN FRANCISCO, CA, 94109",192280154,"R"
173869,"1410 FRANKLIN STREET UNIT 207","SAN FRANCISCO","CA",94109,37.7874591610001,-122.423418357,369,"1410 FRANKLIN STREET UNIT 207, SAN FRANCISCO, CA, 94109","Match","Exact","1410 FRANKLIN ST, SAN FRANCISCO, CA, 94109",192280154,"R"
173870,"1410 FRANKLIN STREET","FREDERICKSBURG","VA",22401,38.3043574870001,-77.472565985,370,"1410 FRANKLIN STREET, FREDERICKSBURG, VA, 22401","Match","Exact","1410 FRANKLIN ST, FREDERICKSBURG, VA, 22401",85005222,"L"
173871,"1410 FREEMAN LOOP","CUMBERLAND FURNACE","TN",37051,36.3163268970001,-87.339052854,371,"1410 FREEMAN LOOP, CUMBERLAND FURNACE, TN, 37051","Match","Exact","1410 FREEMAN LOOP, CUMBERLAND FURNACE, TN, 37051",72765798,"L"
173872,"1410 GLENWOOD DRIVE","BROOKINGS","OR",97415,42.0705224120001,-124.303173409,372,"1410 GLENWOOD DRIVE, BROOKINGS, OR, 97415","Match","Exact","1410 GLENWOOD DR, BROOKINGS, OR, 97415",137138906,"L"
173873,"1410 GODFREY","NORMAL","IL",61761,40.5146242370001,-88.96356184,373,"1410 GODFREY, NORMAL, IL, 61761","Match","Non_Exact","1410 GODFREY DR, NORMAL, IL, 61761",20547177,"L"
173874,"1410 GOLDEN MEADOW STREET","WAUSAU","WI",54401,44.977633446,-89.653838827,374,"1410 GOLDEN MEADOW STREET, WAUSAU, WI, 54401","Match","Exact","1410 GOLDEN MEADOW ST, WAUSAU, WI, 54401",117156988,"L"
173875,"1410 GRANT STREET SUITE B105","DENVER","CO",80203,39.73870298,-104.983583212,375,"1410 GRANT STREET SUITE B105, DENVER, CO, 80203","Match","Exact","1410 GRANT ST, DENVER, CO, 80203",177305729,"R"
173876,"1410 GRANVUE DRIVE","STUTTGART","AR",72160,34.4902558140001,-91.561979546,376,"1410 GRANVUE DRIVE, STUTTGART, AR, 72160","Match","Exact","1410 GRANVUE DR, STUTTGART, AR, 72160",11961245,"L"
173877,"1410 GREENBRIER DR","LIBERTYVILLE","IL",60048,42.2872078450001,-87.922541441,377,"1410 GREENBRIER DR, LIBERTYVILLE, IL, 60048","Match","Non_Exact","1410 GREENBRIAR DR, LIBERTYVILLE, IL, 60048",119642988,"R"
173878,"1410 GREENFIELD RD","EVANSVILLE","IN",47715,37.9582843740001,-87.470501279,378,"1410 GREENFIELD RD, EVANSVILLE, IN, 47715","Match","Exact","1410 GREENFIELD RD, EVANSVILLE, IN, 47715",39805582,"L"
173879,"1410 HACKBERRY ST","CLIFTON","TX",76634,31.783531752,-97.586659146,379,"1410 HACKBERRY ST, CLIFTON, TX, 76634","Match","Exact","1410 HACKBERRY ST, CLIFTON, TX, 76634",158595680,"R"
173880,"1410 HADWICK DRIVE  APT A","BALTIMORE","MD",21221,39.3029343520001,-76.448287638,380,"1410 HADWICK DRIVE  APT A, BALTIMORE, MD, 21221","Match","Exact","1410 HADWICK DR, BALTIMORE, MD, 21221",191490059,"L"
173881,"1410 HAND AVE","BAY MINETTE","AL",36507,30.8961556140001,-87.780338934,381,"1410 HAND AVE, BAY MINETTE, AL, 36507","Match","Exact","1410 HAND AVE, BAY MINETTE, AL, 36507",131625871,"R"
173882,"1410 HARVARD AVENUE","SHREVEPORT","LA",71108,32.498566161,-93.7732920879999,382,"1410 HARVARD AVENUE, SHREVEPORT, LA, 71108","Match","Non_Exact","1410 HARVARD AVE, SHREVEPORT, LA, 71103",57435158,"R"
173883,"1410 HARVEST CROSSING DR","MCLEAN","VA",22101,38.9316088420001,-77.196390595,383,"1410 HARVEST CROSSING DR, MCLEAN, VA, 22101","Match","Exact","1410 HARVEST CROSSING DR, MCLEAN, VA, 22101",653497848,"R"
173884,"1410 HICKORY STREET","WAUKEGAN","IL",60085,42.379499331,-87.8373183369999,384,"1410 HICKORY STREET, WAUKEGAN, IL, 60085","Match","Exact","1410 HICKORY ST, WAUKEGAN, IL, 60085",119629837,"L"
173885,"1410 HICKS STREET 4A","BRONX","NY",10469,40.878345573,-73.8499776629999,385,"1410 HICKS STREET 4A, BRONX, NY, 10469","Match","Exact","1410 HICKS ST, BRONX, NY, 10469",80297967,"R"
173886,"1410 HIDDEN SPRINGS","CHULA VISTA","CA",91915,32.6357184550001,-116.950796814,386,"1410 HIDDEN SPRINGS, CHULA VISTA, CA, 91915","Match","Non_Exact","1410 HIDDEN SPRINGS PL, CHULA VISTA, CA, 91915",195691855,"R"
173887,"1410 HIGH STREET","WISCONSIN RAPIDS","WI",54495,44.3983108900001,-89.841110228,387,"1410 HIGH STREET, WISCONSIN RAPIDS, WI, 54495","Match","Exact","1410 HIGH ST, WISCONSIN RAPIDS, WI, 54495",51285335,"R"
173888,"1410 HIGHLAND AVENUE","CLOQUET","MN",55720,46.7189373430001,-92.4801042889999,388,"1410 HIGHLAND AVENUE, CLOQUET, MN, 55720","Match","Exact","1410 HIGHLAND AVE, CLOQUET, MN, 55720",636097683,"L"
173889,"1410 HOAKOA PLACE","HONOLULU","HI",96821,21.281168203,-157.78296966,389,"1410 HOAKOA PLACE, HONOLULU, HI, 96821","Match","Exact","1410 HOAKOA PL, HONOLULU, HI, 96821",203334006,"L"
173890,"1410 INDIANA","COEUR D'ALENE","ID",83814,NA,NA,390,"1410 INDIANA, COEUR D'ALENE, ID, 83814","No_Match",NA,NA,NA,NA
173891,"1410 ISABELLA DRIVE BOX 105","MELBOURNE","FL",32935,28.1302613190001,-80.650317292,391,"1410 ISABELLA DRIVE BOX 105, MELBOURNE, FL, 32935","Match","Exact","1410 ISABELLA DR, MELBOURNE, FL, 32935",601722120,"R"
173892,"1410 ISLEWORTH CIRCLE","ATLANTA","GA",30349,33.6006296260001,-84.434529646,392,"1410 ISLEWORTH CIRCLE, ATLANTA, GA, 30349","Match","Exact","1410 ISLEWORTH CIR, ATLANTA, GA, 30349",23330950,"L"
173893,"1410 IVEY TRACE","CUMMING","GA",30041,34.1664328950001,-84.125347889,393,"1410 IVEY TRACE, CUMMING, GA, 30041","Match","Exact","1410 IVEY TRCE, CUMMING, GA, 30041",70199187,"R"
173894,"1410 IVY MEADOW DRIVE APT 1538","CHARLOTTE","NC",28213,NA,NA,394,"1410 IVY MEADOW DRIVE APT 1538, CHARLOTTE, NC, 28213","No_Match",NA,NA,NA,NA
173895,"1410 JASPER XING","PRINCETON","TX",75407,33.1894955010001,-96.520673065,395,"1410 JASPER XING, PRINCETON, TX, 75407","Match","Exact","1410 JASPER CROSSING, PRINCETON, TX, 75407",649021893,"R"
173896,"1410 JEFFERSON STREET","NASHVILLE","TN",37208,36.1707612700001,-86.80151029,396,"1410 JEFFERSON STREET, NASHVILLE, TN, 37208","Match","Exact","1410 JEFFERSON ST, NASHVILLE, TN, 37208",606818638,"R"
173897,"1410 JESSAMINE STATION PIKE","NICHOLASVILLE","KY",40356,37.872972319,-84.6200113689999,397,"1410 JESSAMINE STATION PIKE, NICHOLASVILLE, KY, 40356","Match","Non_Exact","1410 JESSAMINE STATION RD, NICHOLASVILLE, KY, 40356",639629530,"R"
173898,"1410 JONES STREET","LE CLAIRE","IA",52753,41.598636012,-90.361256848,398,"1410 JONES STREET, LE CLAIRE, IA, 52753","Match","Exact","1410 JONES ST, LE CLAIRE, IA, 52753",122731810,"L"
173899,"1410 K AVE SUITE 1103","PLANO","TX",75074,33.0187149660001,-96.699243622,399,"1410 K AVE SUITE 1103, PLANO, TX, 75074","Match","Exact","1410 K AVE, PLANO, TX, 75074",624165917,"R"
173900,"1410 KANSAS AVENUE","WHITE OAK","PA",15131,40.3516377120001,-79.818373446,400,"1410 KANSAS AVENUE, WHITE OAK, PA, 15131","Match","Exact","1410 KANSAS AVE, WHITE OAK, PA, 15131",51675596,"R"
173901,"1410 KING WILLIAM WOODS RD","MIDLOTHIAN","VA",23113,37.5690257860001,-77.723082789,401,"1410 KING WILLIAM WOODS RD, MIDLOTHIAN, VA, 23113","Match","Exact","1410 KING WILLIAM WOODS RD, MIDLOTHIAN, VA, 23113",73832830,"L"
173902,"1410 LADUE LANE","SARASOTA","FL",34231,27.285281706,-82.538798468,402,"1410 LADUE LANE, SARASOTA, FL, 34231","Match","Exact","1410 LADUE LN, SARASOTA, FL, 34231",16348920,"R"
173903,"1410 LAKE CHARLOTTE COURT","RICHMOND","TX",77406,29.6504197150001,-95.729697723,403,"1410 LAKE CHARLOTTE COURT, RICHMOND, TX, 77406","Match","Exact","1410 LAKE CHARLOTTE CT, RICHMOND, TX, 77406",649826990,"L"
173904,"1410 LAUREN PLACE","NEWARK","DE",19702,NA,NA,404,"1410 LAUREN PLACE, NEWARK, DE, 19702","No_Match",NA,NA,NA,NA
173905,"1410 LAURENTIDE","HOUSTON","TX",77029,29.7652863370001,-95.26669528,405,"1410 LAURENTIDE, HOUSTON, TX, 77029","Match","Non_Exact","1410 LAURENTIDE ST, HOUSTON, TX, 77029",96084648,"R"
173906,"1410 LENNOX WAY","MANSFIELD","TX",76063,32.587203925,-97.0689440849999,406,"1410 LENNOX WAY, MANSFIELD, TX, 76063","Match","Exact","1410 LENNOX WAY, MANSFIELD, TX, 76063",618503978,"L"
173907,"1410 LEVISON STREET","ALBERT LEA","MN",56007,43.6594138570001,-93.351838797,407,"1410 LEVISON STREET, ALBERT LEA, MN, 56007","Match","Exact","1410 LEVISON ST, ALBERT LEA, MN, 56007",39534433,"R"
173908,"1410 LEWON DRIVE","MADISON","WI",53711,43.0376218590001,-89.4673299729999,408,"1410 LEWON DRIVE, MADISON, WI, 53711","Match","Exact","1410 LEWON DR, MADISON, WI, 53711",49524610,"R"
173909,"1410 LINDLEY LANE","PRYOR","OK",74361,36.2878221400001,-95.314066541,409,"1410 LINDLEY LANE, PRYOR, OK, 74361","Match","Exact","1410 LINDLEY LN, PRYOR, OK, 74361",610828842,"L"
173910,"1410 LONAS DRIVE","MARYVILLE","TN",37803,35.7402636510001,-83.984737594,410,"1410 LONAS DRIVE, MARYVILLE, TN, 37803","Match","Exact","1410 LONAS DR, MARYVILLE, TN, 37803",607461849,"L"
173911,"1410 LONGHORN DR","NORFOLK","NE",68701,42.047922913,-97.438371134,411,"1410 LONGHORN DR, NORFOLK, NE, 68701","Match","Exact","1410 LONGHORN DR, NORFOLK, NE, 68701",161569736,"R"
173912,"1410 LORRAINE ROAD","READING","PA",19604,40.3555069330001,-75.9060232319999,412,"1410 LORRAINE ROAD, READING, PA, 19604","Match","Exact","1410 LORRAINE RD, READING, PA, 19604",80377817,"L"
173913,"1410 LOWER CAMPUS ROAD BLDG 171F","HONOLULU","HI",96822,21.295540885,-157.819999407,413,"1410 LOWER CAMPUS ROAD BLDG 171F, HONOLULU, HI, 96822","Match","Exact","1410 LOWER CAMPUS RD, HONOLULU, HI, 96822",636738916,"R"
173914,"1410 LPGA BLVD STE 148","DAYTONA BEACH","FL",32117,29.233548195,-81.070715594,414,"1410 LPGA BLVD STE 148, DAYTONA BEACH, FL, 32117","Match","Exact","1410 LPGA BLVD, DAYTONA BEACH, FL, 32117",94522413,"R"
173915,"1410 LUCIA AVE","FAIRMONT","MN",56031,43.6670440010001,-94.465848401,415,"1410 LUCIA AVE, FAIRMONT, MN, 56031","Match","Exact","1410 LUCIA AVE, FAIRMONT, MN, 56031",9982196,"L"
173916,"1410 LUSCOMBE","TOLEDO","OH",43614,41.6136795520001,-83.609456651,416,"1410 LUSCOMBE, TOLEDO, OH, 43614","Match","Non_Exact","1410 LUSCOMBE DR, TOLEDO, OH, 43614",33939252,"R"
173917,"1410 MADISON LANE","FLORISSANT","MO",63031,38.8169586540001,-90.339127322,417,"1410 MADISON LANE, FLORISSANT, MO, 63031","Match","Exact","1410 MADISON LN, FLORISSANT, MO, 63031",100116176,"L"
173918,"1410 MADISON STREET NE","MINNEAPOLIS","MN",55413,45.0022040700001,-93.253726921,418,"1410 MADISON STREET NE, MINNEAPOLIS, MN, 55413","Match","Exact","1410 MADISON ST NE, MINNEAPOLIS, MN, 55413",43678947,"L"
173919,"1410 MAIN ST STE 3D","CINCINNATI","OH",45202,39.1115201910001,-84.512234022,419,"1410 MAIN ST STE 3D, CINCINNATI, OH, 45202","Match","Exact","1410 MAIN ST, CINCINNATI, OH, 45202",103935925,"R"
173920,"1410 MALLARD COVE DR APT 6205","CINCINNATI","OH",45246,39.283318154,-84.4475617689999,420,"1410 MALLARD COVE DR APT 6205, CINCINNATI, OH, 45246","Match","Exact","1410 MALLARD COVE DR, CINCINNATI, OH, 45246",103968597,"L"
173921,"1410 MAPLE ST","PORT ARTHUR","TX",77640,29.8928106600001,-93.996492153,421,"1410 MAPLE ST, PORT ARTHUR, TX, 77640","Match","Non_Exact","1410 MAPLE AVE, PORT ARTHUR, TX, 77640",73865833,"L"
173922,"1410 MARY ELLEN WAY","JUNEAU","AK",99801,58.343842792,-134.487750606,422,"1410 MARY ELLEN WAY, JUNEAU, AK, 99801","Match","Exact","1410 MARY ELLEN WAY, JUNEAU, AK, 99801",190963927,"L"
173923,"1410 MATTHEW CT","GARDNERVILLE","NV",89460,38.892938488,-119.732390948,423,"1410 MATTHEW CT, GARDNERVILLE, NV, 89460","Match","Non_Exact","1410 MATHEW CT, GARDNERVILLE, NV, 89460",173753396,"L"
173924,"1410 MCCRAIG ROAD","LINCOLN","AL",35096,NA,NA,424,"1410 MCCRAIG ROAD, LINCOLN, AL, 35096","No_Match",NA,NA,NA,NA
173925,"1410 MCNEILL RD","SANFORD","NC",27330,35.508431456,-79.183566409,425,"1410 MCNEILL RD, SANFORD, NC, 27330","Match","Exact","1410 MCNEILL RD, SANFORD, NC, 27330",72077485,"L"
173926,"1410 MEADOW LAKES DRIVE","SUGAR LAND","TX",77479,29.5981510280001,-95.63401772,426,"1410 MEADOW LAKES DRIVE, SUGAR LAND, TX, 77479","Match","Exact","1410 MEADOW LAKES DR, SUGAR LAND, TX, 77479",78298794,"R"
173927,"1410 MEDINA DRIVE","BETTENDORF","IA",52722,41.558565322,-90.512912732,427,"1410 MEDINA DRIVE, BETTENDORF, IA, 52722","Match","Exact","1410 MEDINA DR, BETTENDORF, IA, 52722",122711027,"L"
173928,"1410 MILLER AVE","WINTER PARK","FL",32789,28.587651152,-81.368178563,428,"1410 MILLER AVE, WINTER PARK, FL, 32789","Match","Exact","1410 MILLER AVE, WINTER PARK, FL, 32789",94277594,"L"
173929,"1410 MONICA ST","AUSTIN","TX",78758,30.3883225430001,-97.695681217,429,"1410 MONICA ST, AUSTIN, TX, 78758","Match","Exact","1410 MONICA ST, AUSTIN, TX, 78758",63930280,"R"
173930,"1410 MONTE VISTA","LAS CRUCES","NM",88001,32.287835525,-106.752397861,430,"1410 MONTE VISTA, LAS CRUCES, NM, 88001","Match","Non_Exact","1410 MONTE VISTA AVE, LAS CRUCES, NM, 88001",189546613,"R"
173931,"1410 N  DEER MEADOWS RD","DELPHI","IN",46923,40.5686097810001,-86.68454752,431,"1410 N  DEER MEADOWS RD, DELPHI, IN, 46923","Match","Non_Exact","1410 N DEER MEADOW RD, DELPHI, IN, 46923",649942687,"L"
173932,"1410 N 4TH","QUINCY","IL",62301,39.948455279,-91.4098720869999,432,"1410 N 4TH, QUINCY, IL, 62301","Match","Non_Exact","1410 N 4TH ST, QUINCY, IL, 62301",35063805,"R"
173933,"1410 N 65TH AVENUE","PENSACOLA","FL",32506,30.428922648,-87.300147157,433,"1410 N 65TH AVENUE, PENSACOLA, FL, 32506","Match","Exact","1410 N 65TH AVE, PENSACOLA, FL, 32506",93212488,"R"
173934,"1410 N ARKANSAS AVE","ATLANTIC CITY","NJ",8401,39.3717899800001,-74.446159553,434,"1410 N ARKANSAS AVE, ATLANTIC CITY, NJ, 8401","Match","Exact","1410 N ARKANSAS AVE, ATLANTIC CITY, NJ, 08401",202489086,"L"
173935,"1410 N COALTER ST A-304","STAUNTON","VA",24401,38.1664084510001,-79.05385074,435,"1410 N COALTER ST A-304, STAUNTON, VA, 24401","Match","Non_Exact","1410 N COALTER ST, STAUNTON, VA, 24401",98848692,"L"
173936,"1410 N DRUID HILLS RD NE","ATLANTA","GA",30319,33.8515111790001,-84.338961505,436,"1410 N DRUID HILLS RD NE, ATLANTA, GA, 30319","Match","Exact","1410 N DRUID HILLS RD NE, ATLANTA, GA, 30319",23357965,"L"
173937,"1410 N FRANKLIN ST","LITCHFIELD","IL",62056,39.1853791940001,-89.649416023,437,"1410 N FRANKLIN ST, LITCHFIELD, IL, 62056","Match","Exact","1410 N FRANKLIN ST, LITCHFIELD, IL, 62056",99438387,"R"
173938,"1410 N PINE HILLS RD","ORLANDO","FL",32808,28.57357052,-81.452182442,438,"1410 N PINE HILLS RD, ORLANDO, FL, 32808","Match","Exact","1410 N PINE HILLS RD, ORLANDO, FL, 32808",94270170,"L"
173939,"1410 N SCOTT ST APT 1044","ARLINGTON","VA",22209,38.8905123960001,-77.080820205,439,"1410 N SCOTT ST APT 1044, ARLINGTON, VA, 22209","Match","Non_Exact","1410 N SCOTT ST, ARLINGTON, VA, 22209",76470755,"L"
173940,"1410 N SCOTT STREET 654","ARLINGTON","VA",22209,38.8905123960001,-77.080820205,440,"1410 N SCOTT STREET 654, ARLINGTON, VA, 22209","Match","Non_Exact","1410 N SCOTT ST, ARLINGTON, VA, 22209",76470755,"L"
173941,"1410 N TEJON STREET","COLORADO SPRINGS","CO",80907,38.8539092600001,-104.822465929,441,"1410 N TEJON STREET, COLORADO SPRINGS, CO, 80907","Match","Exact","1410 N TEJON ST, COLORADO SPRINGS, CO, 80907",105513994,"L"
173942,"1410 NADINA STREET","SAN MATEO","CA",94402,37.551825213,-122.319675667,442,"1410 NADINA STREET, SAN MATEO, CA, 94402","Match","Exact","1410 NADINA ST, SAN MATEO, CA, 94402",192378331,"R"
173943,"1410 NANCY DRIVE","ENID","OK",73701,36.409790426,-97.847469475,443,"1410 NANCY DRIVE, ENID, OK, 73701","Match","Exact","1410 NANCY DR, ENID, OK, 73701",154083072,"R"
173944,"1410 NE 132ND STREET","SMITHVILLE","MO",64089,39.3326487580001,-94.560313626,444,"1410 NE 132ND STREET, SMITHVILLE, MO, 64089","Match","Exact","1410 NE 132ND ST, SMITHVILLE, MO, 64089",89779860,"L"
173945,"1410 NE 140 ST","MIAMI","FL",33161,25.904630565,-80.170665835,445,"1410 NE 140 ST, MIAMI, FL, 33161","Match","Exact","1410 NE 140TH ST, MIAMI, FL, 33161",116037210,"R"
173946,"1410 NE 196TH CT","SMITHVILLE","MO",64089,39.4495523740001,-94.559255407,446,"1410 NE 196TH CT, SMITHVILLE, MO, 64089","Match","Exact","1410 NE 196TH CT, SMITHVILLE, MO, 64089",89794425,"L"
173947,"1410 NE 2ND ST","DUMAS","TX",79029,35.8693411140001,-101.954915773,447,"1410 NE 2ND ST, DUMAS, TX, 79029","Match","Exact","1410 NE 2ND ST, DUMAS, TX, 79029",164665607,"L"
173948,"1410 NE CAMPUS PARKWAY","SEATTLE","WA",98195,47.6562152000001,-122.313065799,448,"1410 NE CAMPUS PARKWAY, SEATTLE, WA, 98195","Match","Exact","1410 NE CAMPUS PKWY, SEATTLE, WA, 98195",186586984,"L"
173949,"1410 NELSON ST","RICHMOND","VA",23231,37.5129584850001,-77.399448537,449,"1410 NELSON ST, RICHMOND, VA, 23231","Match","Exact","1410 NELSON ST, RICHMOND, VA, 23231",201549171,"L"
173950,"1410 NEW YORK AVE APT 3A","BROOKLYN","NY",11210,40.638402038,-73.945338029,450,"1410 NEW YORK AVE APT 3A, BROOKLYN, NY, 11210","Match","Non_Exact","1410 NEW YORK AVE, BROOKLYN, NY, 11210",59081966,"R"
173951,"1410 NOAH ARK RD","JONESBORO","GA",30316,NA,NA,451,"1410 NOAH ARK RD, JONESBORO, GA, 30316","No_Match",NA,NA,NA,NA
173952,"1410 NORTH 18TH STREET","PHILADELPHIA","PA",19121,39.976050736,-75.165038769,452,"1410 NORTH 18TH STREET, PHILADELPHIA, PA, 19121","Match","Exact","1410 N 18TH ST, PHILADELPHIA, PA, 19121",131405953,"L"
173953,"1410 NORTH ELSON","KIRKSVILLE","MO",63501,40.2054322210001,-92.5842841689999,453,"1410 NORTH ELSON, KIRKSVILLE, MO, 63501","Match","Non_Exact","1410 N ELSON ST, KIRKSVILLE, MO, 63501",24761588,"R"
173954,"1410 NORTH SCOTT STREET","ARLINGTON","VA",22209,38.8905118010001,-77.080820144,454,"1410 NORTH SCOTT STREET, ARLINGTON, VA, 22209","Match","Exact","1410 N SCOTT ST, ARLINGTON, VA, 22209",76470755,"L"
173955,"1410 NORTHWEST SANTE FE","SILVERDALE","WA",98383,NA,NA,455,"1410 NORTHWEST SANTE FE, SILVERDALE, WA, 98383","No_Match",NA,NA,NA,NA
173956,"1410 NOTTINGHILL DRIVE","O FALLON","IL",62269,38.6160307710001,-89.877657546,456,"1410 NOTTINGHILL DRIVE, O FALLON, IL, 62269","Match","Exact","1410 NOTTINGHILL DR, O FALLON, IL, 62269",625551091,"L"
173957,"1410 NW 12TH STREET","CORVALLIS","OR",97330,44.580035579,-123.264754433,457,"1410 NW 12TH STREET, CORVALLIS, OR, 97330","Match","Exact","1410 NW 12TH ST, CORVALLIS, OR, 97330",155846592,"L"
173958,"1410 NW 204 ST","MIAMI","FL",33169,25.962235317,-80.225988253,458,"1410 NW 204 ST, MIAMI, FL, 33169","Match","Exact","1410 NW 204TH ST, MIAMI, FL, 33169",116325672,"L"
173959,"1410 NW 6TH TERR","POMPANO BEACH","FL",33060,NA,NA,459,"1410 NW 6TH TERR, POMPANO BEACH, FL, 33060","Tie",NA,NA,NA,NA
173960,"1410 NW DAISY DRIVE","TOPEKA","KS",66618,39.1062940090001,-95.683648131,460,"1410 NW DAISY DRIVE, TOPEKA, KS, 66618","Match","Exact","1410 NW DAISY DR, TOPEKA, KS, 66618",17887851,"R"
173961,"1410 NW FOXBORO RD","BLUE SPRINGS","MO",64015,39.0335363880001,-94.3210584349999,461,"1410 NW FOXBORO RD, BLUE SPRINGS, MO, 64015","Match","Exact","1410 NW FOXBORO RD, BLUE SPRINGS, MO, 64015",91513494,"R"
173962,"1410 OAKMONT ROAD UNIT 140L","SEAL BEACH","CA",90740,33.7697365610001,-118.088091883,462,"1410 OAKMONT ROAD UNIT 140L, SEAL BEACH, CA, 90740","Match","Exact","1410 OAKMONT RD, SEAL BEACH, CA, 90740",609055513,"R"
173963,"1410 OHIO STREET APT 135","ST LOUIS","MO",63104,38.6192905520001,-90.222027661,463,"1410 OHIO STREET APT 135, ST LOUIS, MO, 63104","Match","Non_Exact","1410 OHIO AVE, SAINT LOUIS, MO, 63104",107598553,"L"
173964,"1410 OLIVE AVE","HAMPTON","IA",50441,42.7505145000001,-93.221873608,464,"1410 OLIVE AVE, HAMPTON, IA, 50441","Match","Exact","1410 OLIVE AVE, HAMPTON, IA, 50441",7380728,"L"
173965,"1410 OLIVE AVENUE","HAMPTON","IA",50441,42.7505145000001,-93.221873608,465,"1410 OLIVE AVENUE, HAMPTON, IA, 50441","Match","Exact","1410 OLIVE AVE, HAMPTON, IA, 50441",7380728,"L"
173966,"1410 OMIE WAY","LAWRENCEVILLE","GA",30043,33.9693984090001,-84.048530994,466,"1410 OMIE WAY, LAWRENCEVILLE, GA, 30043","Match","Exact","1410 OMIE WAY, LAWRENCEVILLE, GA, 30043",88905604,"L"
173967,"1410 ORCHARD TERR","HILLSIDE","NJ",7205,40.7000064260001,-74.2266652549999,467,"1410 ORCHARD TERR, HILLSIDE, NJ, 7205","Match","Exact","1410 ORCHARD TER, HILLSIDE, NJ, 07205",60577549,"L"
173968,"1410 OVERHILL RD","COLUMBIA","MO",65203,38.9373493190001,-92.376326094,468,"1410 OVERHILL RD, COLUMBIA, MO, 65203","Match","Exact","1410 OVERHILL RD, COLUMBIA, MO, 65203",23479157,"L"
173969,"1410 PARK AVE NW","CORYDON","IN",47112,38.232530894,-86.152313594,469,"1410 PARK AVE NW, CORYDON, IN, 47112","Match","Exact","1410 PARK AVE NW, CORYDON, IN, 47112",34812202,"L"
173970,"1410 PARK AVENUE","NEW YORK","NY",10029,40.7920906950001,-73.9485126439999,470,"1410 PARK AVENUE, NEW YORK, NY, 10029","Match","Exact","1410 PARK AVE, NEW YORK, NY, 10029",59657892,"L"
173971,"1410 PARK MEADOW WAY","BEECH GROVE","IN",46107,39.7156887080001,-86.098466023,471,"1410 PARK MEADOW WAY, BEECH GROVE, IN, 46107","Match","Exact","1410 PARK MEADOW WAY, BEECH GROVE, IN, 46107",108037030,"R"
173972,"1410 PATRICK CIR SW","VIENNA","VA",22180,38.882211307,-77.24898752,472,"1410 PATRICK CIR SW, VIENNA, VA, 22180","Match","Exact","1410 PATRICK CIR SW, VIENNA, VA, 22180",75971153,"R"
173973,"1410 PATTERSONS MILL ROAD","DURHAM","NC",27703,35.9529138880001,-78.826371883,473,"1410 PATTERSONS MILL ROAD, DURHAM, NC, 27703","Match","Exact","1410 PATTERSONS MILL RD, DURHAM, NC, 27703",618113009,"R"
173974,"1410 PEARTREE LN","BOWIE","MD",20721,38.910171378,-76.747843745,474,"1410 PEARTREE LN, BOWIE, MD, 20721","Match","Exact","1410 PEARTREE LN, BOWIE, MD, 20721",76342474,"R"
173975,"1410 PELHAM PARKWAY SOUTH","BRONX","NY",10461,40.8574951190001,-73.8474960199999,475,"1410 PELHAM PARKWAY SOUTH, BRONX, NY, 10461","Match","Exact","1410 PELHAM PKWY S, BRONX, NY, 10461",639456453,"R"
173976,"1410 PENDLETON STREET","SAVANNAH","GA",31405,32.0455761590001,-81.130500747,476,"1410 PENDLETON STREET, SAVANNAH, GA, 31405","Match","Exact","1410 PENDLETON ST, SAVANNAH, GA, 31405",6212547,"R"
173977,"1410 PENN AVE","DES MOINES","IA",50316,41.6028190160001,-93.60843959,477,"1410 PENN AVE, DES MOINES, IA, 50316","Match","Exact","1410 PENN AVE, DES MOINES, IA, 50316",65854319,"L"
173978,"1410 PENN AVENUE","DES MOINES","IA",50316,41.6028190160001,-93.60843959,478,"1410 PENN AVENUE, DES MOINES, IA, 50316","Match","Exact","1410 PENN AVE, DES MOINES, IA, 50316",65854319,"L"
173979,"1410 PENNSYLVANIA AVE","DES MOINES","IA",50316,41.6028190160001,-93.60843959,479,"1410 PENNSYLVANIA AVE, DES MOINES, IA, 50316","Match","Exact","1410 PENNSYLVANIA AVE, DES MOINES, IA, 50316",65854319,"L"
173980,"1410 PINE GROVE AVENUE","WESTFIELD","NJ",7090,40.6359475690001,-74.3236918539999,480,"1410 PINE GROVE AVENUE, WESTFIELD, NJ, 7090","Match","Exact","1410 PINE GROVE AVE, WESTFIELD, NJ, 07090",60574148,"R"
173981,"1410 PINECREST DRIVE","LANCASTER","OH",43130,39.749754716,-82.571077729,481,"1410 PINECREST DRIVE, LANCASTER, OH, 43130","Match","Non_Exact","1410 PINECREST DR NE, LANCASTER, OH, 43130",37234232,"R"
173982,"1410 PLEASANT RIDGE ROAD","NASHVILLE","TN",37013,36.0395314410001,-86.628063308,482,"1410 PLEASANT RIDGE ROAD, NASHVILLE, TN, 37013","Match","Non_Exact","1410 PLEASANT RIDGE RD, CANE RIDGE, TN, 37013",624920774,"R"
173983,"1410 PONDEROSA AVENUE","GREEN BAY","WI",54313,44.4877339650001,-88.095953155,483,"1410 PONDEROSA AVENUE, GREEN BAY, WI, 54313","Match","Exact","1410 PONDEROSA AVE, GREEN BAY, WI, 54313",148097388,"R"
173984,"1410 PONDVIEW DR","DAVISON","MI",48423,43.0082233460001,-83.5262464799999,484,"1410 PONDVIEW DR, DAVISON, MI, 48423","Match","Exact","1410 PONDVIEW DR, DAVISON, MI, 48423",624398702,"R"
173985,"1410 PUEBLO STREET","DALLAS","TX",75212,32.780090511,-96.842911429,485,"1410 PUEBLO STREET, DALLAS, TX, 75212","Match","Exact","1410 PUEBLO ST, DALLAS, TX, 75212",102905319,"L"
173986,"1410 QUAIL DRIVE","SARASOTA","FL",34231,27.2936855300001,-82.538043746,486,"1410 QUAIL DRIVE, SARASOTA, FL, 34231","Match","Exact","1410 QUAIL DR, SARASOTA, FL, 34231",636397854,"R"
173987,"1410 RIDGE RD","HINCKLEY","OH",44233,41.237623962,-81.7449749749999,487,"1410 RIDGE RD, HINCKLEY, OH, 44233","Match","Exact","1410 RIDGE RD, HINCKLEY, OH, 44233",615679019,"L"
173988,"1410 RIVERSIDE DR","PRESTONSBURG","KY",41653,37.667520477,-82.758872089,488,"1410 RIVERSIDE DR, PRESTONSBURG, KY, 41653","Match","Exact","1410 RIVERSIDE DR, PRESTONSBURG, KY, 41653",33615667,"R"
173989,"1410 RIVERVIEW DRIVE","STILLWATER","MN",55082,45.068444341,-92.8077196249999,489,"1410 RIVERVIEW DRIVE, STILLWATER, MN, 55082","Match","Exact","1410 RIVERVIEW DR, STILLWATER, MN, 55082",97807234,"L"
173990,"1410 ROCK GLEN","GLENDALE","CA",91205,34.1402599040001,-118.233211444,490,"1410 ROCK GLEN, GLENDALE, CA, 91205","Match","Non_Exact","1410 ROCK GLEN AVE, GLENDALE, CA, 91205",142731291,"R"
173991,"1410 ROCKCLIFF ROAD","AUSTIN","TX",78746,30.3355763710001,-97.785705574,491,"1410 ROCKCLIFF ROAD, AUSTIN, TX, 78746","Match","Exact","1410 ROCKCLIFF RD, AUSTIN, TX, 78746",64020185,"R"
173992,"1410 ROYAL DR","KAUFMAN","TX",75142,32.574565756,-96.3044500519999,492,"1410 ROYAL DR, KAUFMAN, TX, 75142","Match","Exact","1410 ROYAL DR, KAUFMAN, TX, 75142",123738075,"R"
173993,"1410 S 18TH AVENUE","MAYWOOD","IL",60153,41.87426413,-87.854687041,493,"1410 S 18TH AVENUE, MAYWOOD, IL, 60153","Match","Exact","1410 S 18TH AVE, MAYWOOD, IL, 60153",111790906,"R"
173994,"1410 S AINSWOTH","TACOMA","WA",98405,NA,NA,494,"1410 S AINSWOTH, TACOMA, WA, 98405","No_Match",NA,NA,NA,NA
173995,"1410 S BENTLEY AVE","LOS ANGELES","CA",90024,34.0516885760001,-118.446505899,495,"1410 S BENTLEY AVE, LOS ANGELES, CA, 90024","Match","Non_Exact","1410 S BENTLEY AVE, LOS ANGELES, CA, 90025",141567606,"L"
173996,"1410 S LINCOLN WAY STE 100","COEUR D ALENE","ID",83814,47.6882171670001,-116.791728776,496,"1410 S LINCOLN WAY STE 100, COEUR D ALENE, ID, 83814","Match","Exact","1410 LINCOLN WAY, COEUR D ALENE, ID, 83814",640599383,"R"
173997,"1410 S OLIVE ST","LOS ANGELES","CA",90015,34.036453905,-118.264363158,497,"1410 S OLIVE ST, LOS ANGELES, CA, 90015","Match","Exact","1410 S OLIVE ST, LOS ANGELES, CA, 90015",141618940,"L"
173998,"1410 S STREET SE","WASHINGTON","DC",20020,38.8682362800001,-76.984767187,498,"1410 S STREET SE, WASHINGTON, DC, 20020","Match","Exact","1410 S ST SE, WASHINGTON, DC, 20020",76231145,"L"
173999,"1410 S WARDLE ST","BOISE","ID",83705,43.591365873,-116.231570063,499,"1410 S WARDLE ST, BOISE, ID, 83705","Match","Exact","1410 WARDLE ST, BOISE, ID, 83705",117863678,"L"
174000,"1410 SALISBURY DR","BATON ROUGE","LA",70816,30.4471469440001,-91.0186721809999,500,"1410 SALISBURY DR, BATON ROUGE, LA, 70816","Match","Exact","1410 SALISBURY DR, BATON ROUGE, LA, 70816",92194548,"R"
