"ID","Address","City","State","Zip","lat","long","id","input_address","match_indicator","match_type","matched_address","tiger_line_id","tiger_side"
517001,"33 CLIFT TRAIL","ROSSVILLE","GA",30741,34.982011834,-85.279470412,1,"33 CLIFT TRAIL, ROSSVILLE, GA, 30741","Match","Exact","33 CLIFT TRL, ROSSVILLE, GA, 30741",66719755,"R"
517002,"33 CLINTON ST","MERIDAN","CT",6450,41.5319050040001,-72.782155336,2,"33 CLINTON ST, MERIDAN, CT, 6450","Match","Non_Exact","33 CLINTON ST, MERIDEN, CT, 06450",3724365,"R"
517003,"33 CLINTON STREET","GOUVERNEUR","NY",13642,44.3361689990001,-75.4696583899999,3,"33 CLINTON STREET, GOUVERNEUR, NY, 13642","Match","Exact","33 CLINTON ST, GOUVERNEUR, NY, 13642",155170464,"L"
517004,"33 CLINTON STREET","WESTFIELD","NY",14787,42.324217407,-79.5769444489999,4,"33 CLINTON STREET, WESTFIELD, NY, 14787","Match","Exact","33 CLINTON ST, WESTFIELD, NY, 14787",120760905,"L"
517005,"33 CLOUD STREET","NEWBURGH","NY",12550,41.5459674100001,-74.0249653779999,5,"33 CLOUD STREET, NEWBURGH, NY, 12550","Match","Exact","33 CLOUD ST, NEWBURGH, NY, 12550",635467144,"L"
517006,"33 CLUB STREET APT 05-18","SINGAPORE",NA,NA,NA,NA,6,"33 CLUB STREET APT 05-18, SINGAPORE, , ","No_Match",NA,NA,NA,NA
517007,"33 COBB STREET","EAST PROVIDENCE","RI",2914,41.818795924,-71.379293694,7,"33 COBB STREET, EAST PROVIDENCE, RI, 2914","Match","Exact","33 COBB ST, E PROVIDENCE, RI, 02914",47468029,"R"
517008,"33 COE AVE","HILLSIDE","NJ",7205,40.6911052130001,-74.2176022199999,8,"33 COE AVE, HILLSIDE, NJ, 7205","Match","Exact","33 COE AVE, HILLSIDE, NJ, 07205",60577780,"R"
517009,"33 COLCHESTER AVE - PERKINS 202","BURLINGTON","VT",5405,NA,NA,9,"33 COLCHESTER AVE - PERKINS 202, BURLINGTON, VT, 5405","No_Match",NA,NA,NA,NA
517010,"33 COLE ROAD","CAMDEN","AL",36726,31.998336022,-87.336040291,10,"33 COLE ROAD, CAMDEN, AL, 36726","Match","Exact","33 COLE RD, CAMDEN, AL, 36726",10814084,"L"
517011,"33 COLEBROOK STREET","HARTFORD","CT",6112,41.7949150800001,-72.695212354,11,"33 COLEBROOK STREET, HARTFORD, CT, 6112","Match","Exact","33 COLEBROOK ST, HARTFORD, CT, 06112",3488872,"L"
517012,"33 COLONEL WINSTEAD DR","BRENTWOOD","TN",37027,35.973399661,-86.7349543569999,12,"33 COLONEL WINSTEAD DR, BRENTWOOD, TN, 37027","Match","Exact","33 COLONEL WINSTEAD DR, BRENTWOOD, TN, 37027",648855912,"L"
517013,"33 COLONIAL ACRES DR","HAMPTON","VA",23664,37.0540745760001,-76.295982965,13,"33 COLONIAL ACRES DR, HAMPTON, VA, 23664","Match","Exact","33 COLONIAL ACRES DR, HAMPTON, VA, 23664",103760516,"L"
517014,"33 COLONIAL PLACE","NEW ROCHELLE","NY",10801,40.913547823,-73.792538892,14,"33 COLONIAL PLACE, NEW ROCHELLE, NY, 10801","Match","Exact","33 COLONIAL PL, NEW ROCHELLE, NY, 10801",139750252,"R"
517015,"33 COLORADO","HIGHLAND PARK","MI",48203,42.3985924610001,-83.0908273919999,15,"33 COLORADO, HIGHLAND PARK, MI, 48203","Match","Non_Exact","33 COLORADO AVE, HIGHLAND PARK, MI, 48203",95463726,"L"
517016,"33 COLTON STREET","WINDSOR","CT",6095,41.827926286,-72.6534927169999,16,"33 COLTON STREET, WINDSOR, CT, 6095","Match","Exact","33 COLTON ST, WINDSOR, CT, 06095",3489266,"L"
517017,"33 COMMERCE DR","STANTON","KY",40380,NA,NA,17,"33 COMMERCE DR, STANTON, KY, 40380","No_Match",NA,NA,NA,NA
517018,"33 COMMONWEALTH AVE","GREAT BARRINGTON","MA",1230,42.207493049,-73.342114479,18,"33 COMMONWEALTH AVE, GREAT BARRINGTON, MA, 1230","Match","Exact","33 COMMONWEALTH AVE, GREAT BARRINGTON, MA, 01230",3940692,"L"
517019,"33 COMMONWEALTH RD","BOSWELL","PA",15531,NA,NA,19,"33 COMMONWEALTH RD, BOSWELL, PA, 15531","No_Match",NA,NA,NA,NA
517020,"33 CONGRESS TR","MILFORD","MA",1757,NA,NA,20,"33 CONGRESS TR, MILFORD, MA, 1757","Tie",NA,NA,NA,NA
517021,"33 CONKLIN STREET","DEER PARK","NY",11729,40.763472483,-73.328563958,21,"33 CONKLIN STREET, DEER PARK, NY, 11729","Match","Exact","33 CONKLIN ST, DEER PARK, NY, 11729",113970208,"R"
517022,"33 CONNELLY HILL RD","HOPKINTON","MA",1748,42.1968244490001,-71.4973846679999,22,"33 CONNELLY HILL RD, HOPKINTON, MA, 1748","Match","Exact","33 CONNELLY HILL RD, HOPKINTON, MA, 01748",87088800,"L"
517023,"33 CONSERVATION WAY","STOUGHTON","MA",2072,42.0886203320001,-71.1155616739999,23,"33 CONSERVATION WAY, STOUGHTON, MA, 2072","Match","Exact","33 CONSERVATION WAY, STOUGHTON, MA, 02072",642666328,"L"
517024,"33 COOK ST","JOHNSON CITY","NY",13970,42.1096473870001,-75.963788087,24,"33 COOK ST, JOHNSON CITY, NY, 13970","Match","Non_Exact","33 COOK ST, JOHNSON CITY, NY, 13790",46340338,"L"
517025,"33 COOLIDGE STREET","MANCHESTER","CT",6040,41.772000259,-72.546011085,25,"33 COOLIDGE STREET, MANCHESTER, CT, 6040","Match","Exact","33 COOLIDGE ST, MANCHESTER, CT, 06040",3498298,"L"
517026,"33 CORNELL ROAD","BEVERLY","MA",1915,42.5721518920001,-70.904839442,26,"33 CORNELL ROAD, BEVERLY, MA, 1915","Match","Exact","33 CORNELL RD, BEVERLY, MA, 01915",86641631,"R"
517027,"33 CORTEZ DRIVE","NASHUA","NH",3062,42.732569991,-71.5073026429999,27,"33 CORTEZ DRIVE, NASHUA, NH, 3062","Match","Exact","33 CORTEZ DR, NASHUA, NH, 03062",113572719,"L"
517028,"33 COUGAR AVENUE BOX 808","FRASER","CO",80442,NA,NA,28,"33 COUGAR AVENUE BOX 808, FRASER, CO, 80442","No_Match",NA,NA,NA,NA
517029,"33 COUNTRY ACRES","RIVERTON","WY",82501,43.0556314520001,-108.408400616,29,"33 COUNTRY ACRES, RIVERTON, WY, 82501","Match","Non_Exact","33 COUNTRY ACRES RD, RIVERTON, WY, 82501",649866646,"R"
517030,"33 COUNTRY CLUB PL","BLOOMINGTON","IL",61701,40.483688171,-88.9632956629999,30,"33 COUNTRY CLUB PL, BLOOMINGTON, IL, 61701","Match","Exact","33 COUNTRY CLUB PL, BLOOMINGTON, IL, 61701",20547976,"R"
517031,"33 COUNTRY VIEW LANE","EAST ISLIP","NY",11730,40.7182699960001,-73.182754394,31,"33 COUNTRY VIEW LANE, EAST ISLIP, NY, 11730","Match","Non_Exact","33 COUNTRYVIEW LN, EAST ISLIP, NY, 11730",113999074,"L"
517032,"33 COUNTY ROAD 60","GRAND MARAIS","MN",55604,47.8055721150001,-90.3042303409999,32,"33 COUNTY ROAD 60, GRAND MARAIS, MN, 55604","Match","Exact","33 CO RD 60, GRAND MARAIS, MN, 55604",194156439,"R"
517033,"33 COUNTY RT 9","MELLENVILLE","NY",12544,NA,NA,33,"33 COUNTY RT 9, MELLENVILLE, NY, 12544","No_Match",NA,NA,NA,NA
517034,"33 COVELL ST","GRAND RAPIDS","MI",49534,NA,NA,34,"33 COVELL ST, GRAND RAPIDS, MI, 49534","No_Match",NA,NA,NA,NA
517035,"33 COVELL STREET","WILKES-BARRE","PA",18702,41.2316270680001,-75.903923069,35,"33 COVELL STREET, WILKES-BARRE, PA, 18702","Match","Exact","33 COVELL ST, WILKES BARRE, PA, 18702",80914310,"R"
517036,"33 COWBARN LANE","NOVATO","CA",94947,38.078823594,-122.554324053,36,"33 COWBARN LANE, NOVATO, CA, 94947","Match","Exact","33 COWBARN LN, NOVATO, CA, 94947",192761173,"L"
517037,"33 CREEK ROAD SUITE 300","IRVINE","CA",92604,33.675638744,-117.79787839,37,"33 CREEK ROAD SUITE 300, IRVINE, CA, 92604","Match","Exact","33 CREEK RD, IRVINE, CA, 92604",631831732,"R"
517038,"33 CREEKSIDE CT","SECAUCUS","NV",7094,NA,NA,38,"33 CREEKSIDE CT, SECAUCUS, NV, 7094","No_Match",NA,NA,NA,NA
517039,"33 CRESCENT PLACE","SHORT HILLS","NJ",7078,40.725957796,-74.319607646,39,"33 CRESCENT PLACE, SHORT HILLS, NJ, 7078","Match","Exact","33 CRESCENT PL, SHORT HILLS, NJ, 07078",63461582,"R"
517040,"33 CREST DRIVE","LAGUNA","CA",92651,NA,NA,40,"33 CREST DRIVE, LAGUNA, CA, 92651","No_Match",NA,NA,NA,NA
517041,"33 CRESTVIEW DRIVE","BELCHERTOWN","MA",1007,42.252644742,-72.442301143,41,"33 CRESTVIEW DRIVE, BELCHERTOWN, MA, 1007","Match","Exact","33 CRESTVIEW DR, BELCHERTOWN, MA, 01007",651197403,"L"
517042,"33 CRESTWOOD DRIVE","MAPLEWOOD","NJ",7040,40.7418635340001,-74.2811155809999,42,"33 CRESTWOOD DRIVE, MAPLEWOOD, NJ, 7040","Match","Exact","33 CRESTWOOD DR, MAPLEWOOD, NJ, 07040",63462131,"R"
517043,"33 CRISPIN ROAD","LUMBERTON","NJ",8048,39.9580567510001,-74.82777265,43,"33 CRISPIN ROAD, LUMBERTON, NJ, 8048","Match","Exact","33 CRISPIN RD, LUMBERTON, NJ, 08048",134071505,"L"
517044,"33 CROMWELL ROAD","NORTH HAVEN","CT",6473,41.372842323,-72.891971425,44,"33 CROMWELL ROAD, NORTH HAVEN, CT, 6473","Match","Exact","33 CROMWELL RD, NORTH HAVEN, CT, 06473",3745498,"L"
517045,"33 CUPRESSUS LN","FORT WALTON BEACH","FL",32548,30.4177728060001,-86.638926967,45,"33 CUPRESSUS LN, FORT WALTON BEACH, FL, 32548","Match","Non_Exact","33 CYPRESSUS LN NW, FORT WALTON BEACH, FL, 32548",74406064,"L"
517046,"33 CUSTER STREET","EAST PROVIDENCE","RI",2914,41.802884772,-71.372122449,46,"33 CUSTER STREET, EAST PROVIDENCE, RI, 2914","Match","Exact","33 CUSTER ST, E PROVIDENCE, RI, 02914",47474907,"R"
517047,"33 CUT OFF RD","OXFORD","MS",38655,34.267793537,-89.583403043,47,"33 CUT OFF RD, OXFORD, MS, 38655","Match","Exact","33 CUT OFF RD, OXFORD, MS, 38655",76974021,"L"
517048,"33 DANFORTH LN","ROCKY HILL","CT",6067,41.636350749,-72.69022138,48,"33 DANFORTH LN, ROCKY HILL, CT, 6067","Match","Exact","33 DANFORTH LN, ROCKY HILL, CT, 06067",627132278,"R"
517049,"33 DANS DRIVE","INGLIS","FL",34449,29.0243562050001,-82.6386369269999,49,"33 DANS DRIVE, INGLIS, FL, 34449","Match","Non_Exact","33 DAN'S DR, INGLIS, FL, 34449",43326357,"L"
517050,"33 DARCYS RUN","ARUNDEL","ME",4046,43.435103027,-70.552647838,50,"33 DARCYS RUN, ARUNDEL, ME, 4046","Match","Non_Exact","33 DARCY'S RUN, ARUNDEL, ME, 04046",624121336,"L"
517051,"33 DAWSON CIRCLE","STATEN ISLAND","NY",10314,40.6033225740001,-74.164971695,51,"33 DAWSON CIRCLE, STATEN ISLAND, NY, 10314","Match","Exact","33 DAWSON CIR, STATEN ISLAND, NY, 10314",59883343,"L"
517052,"33 DEACON LANE","BREVARD","NC",28712,35.226145473,-82.727749573,52,"33 DEACON LANE, BREVARD, NC, 28712","Match","Exact","33 DEACON LN, BREVARD, NC, 28712",133737909,"L"
517053,"33 DEBORAH COURT","ST ANN",NA,NA,NA,NA,53,"33 DEBORAH COURT, ST ANN, , ","No_Match",NA,NA,NA,NA
517054,"33 DEER MDW","TOLLAND","CT",6084,41.844444233,-72.4164699149999,54,"33 DEER MDW, TOLLAND, CT, 6084","Match","Exact","33 DEER MEADOW, TOLLAND, CT, 06084",626691154,"L"
517055,"33 DEERING ST APT 5","PORTLAND","ME",4101,43.6542896600001,-70.2674770369999,55,"33 DEERING ST APT 5, PORTLAND, ME, 4101","Match","Exact","33 DEERING ST, PORTLAND, ME, 04101",78028101,"R"
517056,"33 DEERWOOD DRIVE","CLARK","NJ",7066,40.607216179,-74.33516987,56,"33 DEERWOOD DRIVE, CLARK, NJ, 7066","Match","Exact","33 DEERWOOD DR, CLARK, NJ, 07066",60602452,"L"
517057,"33 DEL PIZZOLI","LAKE ELSINORE","CA",92532,33.680278442,-117.28625419,57,"33 DEL PIZZOLI, LAKE ELSINORE, CA, 92532","Match","Exact","33 DEL PIZZOLI, LAKE ELSINORE, CA, 92532",195079404,"R"
517058,"33 DELMORE AVENUE","WILBRAHAM","MA",1095,42.136617524,-72.434973256,58,"33 DELMORE AVENUE, WILBRAHAM, MA, 1095","Match","Exact","33 DELMORE AVE, WILBRAHAM, MA, 01095",4027750,"L"
517059,"33 DENMARK JACKSON RD","DENMARK","TN",38391,35.5789397,-88.903851647,59,"33 DENMARK JACKSON RD, DENMARK, TN, 38391","Match","Exact","33 DENMARK JACKSON RD, DENMARK, TN, 38391",619568737,"L"
517060,"33 DESTE ROAD","MILO","ME",4463,45.2523983340001,-69.001349037,60,"33 DESTE ROAD, MILO, ME, 4463","Match","Exact","33 DESTE RD, MILO, ME, 04463",123983796,"R"
517061,"33 DETROIT AVENUE","WARREN","RI",2885,41.73347978,-71.258153823,61,"33 DETROIT AVENUE, WARREN, RI, 2885","Match","Exact","33 DETROIT AVE, WARREN, RI, 02885",645420414,"R"
517062,"33 DF HAVILAND LANE","WEYMOUTH","MA",2188,42.2145190210001,-70.958154142,62,"33 DF HAVILAND LANE, WEYMOUTH, MA, 2188","Match","Exact","33 DF HAVILAND LN, WEYMOUTH, MA, 02188",617775520,"R"
517063,"33 DINSMORE AVE APT 112","FRAMINGHAM","MA",1702,NA,NA,63,"33 DINSMORE AVE APT 112, FRAMINGHAM, MA, 1702","No_Match",NA,NA,NA,NA
517064,"33 DIXWELL AVE SUITE 195","NEW HAVEN","CT",6511,41.3139391440001,-72.932470283,64,"33 DIXWELL AVE SUITE 195, NEW HAVEN, CT, 6511","Match","Exact","33 DIXWELL AVE, NEW HAVEN, CT, 06511",3701067,"R"
517065,"33 DOE RUN","THE WOODLANDS","TX",77380,30.15342945,-95.46834628,65,"33 DOE RUN, THE WOODLANDS, TX, 77380","Match","Non_Exact","33 DOE RUN DR, THE WOODLANDS, TX, 77380",79283362,"R"
517066,"33 DONCASTER STREET","ROSLINDALE","MA",2131,42.274838951,-71.1257705099999,66,"33 DONCASTER STREET, ROSLINDALE, MA, 2131","Match","Exact","33 DONCASTER ST, ROSLINDALE, MA, 02131",85703999,"L"
517067,"33 DONNA STREET","ENFIELD","CT",6082,41.9658192750001,-72.569434138,67,"33 DONNA STREET, ENFIELD, CT, 6082","Match","Exact","33 DONNA ST, ENFIELD, CT, 06082",3481829,"R"
517068,"33 DONOVAN ROAD","PENNINGTON","NC",8534,NA,NA,68,"33 DONOVAN ROAD, PENNINGTON, NC, 8534","No_Match",NA,NA,NA,NA
517069,"33 DORSET LANE","MILL VALLEY","CA",94941,37.904630275,-122.520065858,69,"33 DORSET LANE, MILL VALLEY, CA, 94941","Match","Exact","33 DORSET LN, MILL VALLEY, CA, 94941",647381873,"L"
517070,"33 DOVER ST","BROCKTON","MA",2301,42.074911044,-71.02146815,70,"33 DOVER ST, BROCKTON, MA, 2301","Match","Exact","33 DOVER ST, BROCKTON, MA, 02301",87444104,"R"
517071,"33 DOWDY ROAD","LAMAR","MS",38642,34.9336609200001,-89.401451744,71,"33 DOWDY ROAD, LAMAR, MS, 38642","Match","Exact","33 DOWDY RD, LAMAR, MS, 38642",72841505,"R"
517072,"33 DOWNING ST","CHERRY HILL","NJ",8003,39.884555607,-74.931085915,72,"33 DOWNING ST, CHERRY HILL, NJ, 8003","Match","Exact","33 DOWNING ST, CHERRY HILL, NJ, 08003",134363478,"R"
517073,"33 DRACUT STREET","DORCHESTER","MA",2124,42.287268919,-71.062487517,73,"33 DRACUT STREET, DORCHESTER, MA, 2124","Match","Exact","33 DRACUT ST, DORCHESTER, MA, 02124",85722126,"R"
517074,"33 DUBOIS WAY NUMBER 1085","ROXBURY","MA",2119,42.3288459600001,-71.076436816,74,"33 DUBOIS WAY NUMBER 1085, ROXBURY, MA, 2119","Match","Non_Exact","33 DUBOIS ST, ROXBURY, MA, 02119",85736087,"R"
517075,"33 DUNMORE AVE","EWING","NJ",8618,40.2584857850001,-74.791120136,75,"33 DUNMORE AVE, EWING, NJ, 8618","Match","Exact","33 DUNMORE AVE, EWING, NJ, 08618",60176580,"L"
517076,"33 DUNNE PLACE","LYNBROOK","NY",11563,40.6454903790001,-73.678801167,76,"33 DUNNE PLACE, LYNBROOK, NY, 11563","Match","Exact","33 DUNNE PL, LYNBROOK, NY, 11563",147678858,"L"
517077,"33 DUNVEGAN ROAD","TORONTO",NA,NA,NA,NA,77,"33 DUNVEGAN ROAD, TORONTO, , ","No_Match",NA,NA,NA,NA
517078,"33 DWIGHT ST APT 1","BROOKLINE","MA",2446,42.3454016690001,-71.1202463289999,78,"33 DWIGHT ST APT 1, BROOKLINE, MA, 2446","Match","Exact","33 DWIGHT ST, BROOKLINE, MA, 02446",87244450,"R"
517079,"33 E CANON PERDIDO ST","SANTA BARBARA","CA",93101,34.420911721,-119.700168989,79,"33 E CANON PERDIDO ST, SANTA BARBARA, CA, 93101","Match","Exact","33 E CANON PERDIDO ST, SANTA BARBARA, CA, 93101",108605342,"L"
517080,"33 E COLUMBUS STREET","COLUMBUS","OH",43206,39.9464254860001,-82.996235924,80,"33 E COLUMBUS STREET, COLUMBUS, OH, 43206","Match","Exact","33 E COLUMBUS ST, COLUMBUS, OH, 43206",135576898,"R"
517081,"33 E CONGRESS PRKWY SUITE 201","CHICAGO","IL",60605,41.8755326790001,-87.630500491,81,"33 E CONGRESS PRKWY SUITE 201, CHICAGO, IL, 60605","Match","Exact","33 CONGRESS PKWY, CHICAGO, IL, 60605",605266862,"R"
517082,"33 E ELM ST","NORWALK","OH",44857,41.2389961870001,-82.608719611,82,"33 E ELM ST, NORWALK, OH, 44857","Match","Exact","33 E ELM ST, NORWALK, OH, 44857",12606827,"L"
517083,"33 E FIFTH STREET","DAYTON","OH",45402,39.7568768130001,-84.190419205,83,"33 E FIFTH STREET, DAYTON, OH, 45402","Match","Exact","33 E FIFTH ST, DAYTON, OH, 45402",143571417,"L"
517084,"33 E LEMON ST","LITITZ","PA",17543,40.1532206000001,-76.3058512649999,84,"33 E LEMON ST, LITITZ, PA, 17543","Match","Exact","33 E LEMON ST, LITITZ, PA, 17543",179679314,"L"
517085,"33 E NORTH STREET","BETHLEHEM","PA",18018,40.623576842,-75.376966994,85,"33 E NORTH STREET, BETHLEHEM, PA, 18018","Match","Exact","33 E NORTH ST, BETHLEHEM, PA, 18018",136884938,"L"
517086,"33 E SADDLEBACK TRAIL","PAYSON","AZ",85541,34.2509958110001,-111.271272789,86,"33 E SADDLEBACK TRAIL, PAYSON, AZ, 85541","Match","Exact","33 SADDLEBACK TRL, PAYSON, AZ, 85541",159343047,"L"
517087,"33 E SIENA DR","PLEASANT GROVE","UT",84062,40.3856234790001,-111.74030827,87,"33 E SIENA DR, PLEASANT GROVE, UT, 84062","Match","Exact","33 E SIENA DR, PLEASANT GROVE, UT, 84062",617711181,"L"
517088,"33 E TAYLOR HILL RD","MONTAGUE","MA",1376,NA,NA,88,"33 E TAYLOR HILL RD, MONTAGUE, MA, 1376","No_Match",NA,NA,NA,NA
517089,"33 E VALLEY BLVD SUITE 213","ALHAMBRA","CA",91801,NA,NA,89,"33 E VALLEY BLVD SUITE 213, ALHAMBRA, CA, 91801","Tie",NA,NA,NA,NA
517090,"33 E VALLEY BLVD SUITE 213","ALHAMBRA",NA,NA,NA,NA,90,"33 E VALLEY BLVD SUITE 213, ALHAMBRA, , ","Tie",NA,NA,NA,NA
517091,"33 E VINE","MONROE","MI",48161,NA,NA,91,"33 E VINE, MONROE, MI, 48161","No_Match",NA,NA,NA,NA
517092,"33 E WASHINGTON STREET","NANTICOKE","PA",18634,41.1968845800001,-75.999260792,92,"33 E WASHINGTON STREET, NANTICOKE, PA, 18634","Match","Exact","33 E WASHINGTON ST, NANTICOKE, PA, 18634",80937995,"R"
517093,"33 EAST 102ND PLACE","CHICAGO","IL",60628,41.708087171,-87.62228414,93,"33 EAST 102ND PLACE, CHICAGO, IL, 60628","Match","Exact","33 E 102ND PL, CHICAGO, IL, 60628",605523818,"R"
517094,"33 EAST AVE","SARATOGA SPRINGS","NY",12866,43.0928358950001,-73.778635196,94,"33 EAST AVE, SARATOGA SPRINGS, NY, 12866","Match","Exact","33 EAST AVE, SARATOGA SPGS, NY, 12866",18767150,"L"
517095,"33 EAST CAMINO REAL APT 419","BOCA RATON","FL",33432,NA,NA,95,"33 EAST CAMINO REAL APT 419, BOCA RATON, FL, 33432","No_Match",NA,NA,NA,NA
517096,"33 EAST EUCLID AVENUE","HADDONFIELD","NJ",8033,39.8992610700001,-75.0371066979999,96,"33 EAST EUCLID AVENUE, HADDONFIELD, NJ, 8033","Match","Exact","33 E EUCLID AVE, HADDONFIELD, NJ, 08033",642523358,"L"
517097,"33 EAST FARNUM ST APT 916","LANCASTER","PA",17602,40.034964953,-76.303722491,97,"33 EAST FARNUM ST APT 916, LANCASTER, PA, 17602","Match","Exact","33 E FARNUM ST, LANCASTER, PA, 17602",179664641,"L"
517098,"33 EAST HERITAGE DR NE","RYDAL","GA",30171,34.3234896170001,-84.694117676,98,"33 EAST HERITAGE DR NE, RYDAL, GA, 30171","Match","Non_Exact","33 E HERITAGE DR, RYDAL, GA, 30171",635854750,"L"
517099,"33 EAST HIGHLAND DRIVE","ALBANY","NY",12208,42.6798683590001,-73.839678346,99,"33 EAST HIGHLAND DRIVE, ALBANY, NY, 12208","Match","Non_Exact","33 E HIGHLAND DR, ALBANY, NY, 12203",18359949,"L"
517100,"33 EAST HILL RD","PLAINFIELD","VT",5667,44.277190203,-72.416541131,100,"33 EAST HILL RD, PLAINFIELD, VT, 5667","Match","Exact","33 E HILL RD, PLAINFIELD, VT, 05667",630023446,"R"
517101,"33 EAST MAIN ST","NEW LONDON","OH",44851,41.0851520100001,-82.3978917109999,101,"33 EAST MAIN ST, NEW LONDON, OH, 44851","Match","Exact","33 E MAIN ST, NEW LONDON, OH, 44851",12604705,"R"
517102,"33 EAST MAIN STREET STE 900","MADISON","WI",53703,43.074163399,-89.382729136,102,"33 EAST MAIN STREET STE 900, MADISON, WI, 53703","Match","Exact","33 E MAIN ST, MADISON, WI, 53703",49472500,"R"
517103,"33 EAST MAIN STREET SUITE 700","MADISON","WI",53703,43.074163399,-89.382729136,103,"33 EAST MAIN STREET SUITE 700, MADISON, WI, 53703","Match","Exact","33 E MAIN ST, MADISON, WI, 53703",49472500,"R"
517104,"33 EAST MEADOWBROOK CIRCLE","SICKERVILLE","NJ",8081,39.75365743,-75.0177817749999,104,"33 EAST MEADOWBROOK CIRCLE, SICKERVILLE, NJ, 8081","Match","Non_Exact","33 E MEADOWBROOK CIR, SICKLERVILLE, NJ, 08081",643920528,"L"
517105,"33 EAST MERRIMAC STREET","LOWELL","MA",1852,NA,NA,105,"33 EAST MERRIMAC STREET, LOWELL, MA, 1852","No_Match",NA,NA,NA,NA
517106,"33 EAST MERRIMACK STREET","LOWELL","MA",1852,42.644655749,-71.304454837,106,"33 EAST MERRIMACK STREET, LOWELL, MA, 1852","Match","Exact","33 E MERRIMACK ST, LOWELL, MA, 01852",86878726,"R"
517107,"33 EAST SCHROCK RD","WESTERVILLE","OH",43081,40.109642191,-82.924503326,107,"33 EAST SCHROCK RD, WESTERVILLE, OH, 43081","Match","Exact","33 E SCHROCK RD, WESTERVILLE, OH, 43081",135587533,"R"
517108,"33 EASTON STREET","HARTFORD","CT",6112,NA,NA,108,"33 EASTON STREET, HARTFORD, CT, 6112","No_Match",NA,NA,NA,NA
517109,"33 EATONIA ST","ALLSTON","MA",2134,42.360328307,-71.1269559839999,109,"33 EATONIA ST, ALLSTON, MA, 2134","Match","Exact","33 EATONIA ST, ALLSTON, MA, 02134",85722591,"R"
517110,"33 EDDY ST","MILFORD","CT",6460,41.210905251,-73.0605724009999,110,"33 EDDY ST, MILFORD, CT, 6460","Match","Exact","33 EDDY ST, MILFORD, CT, 06460",3715347,"R"
517111,"33 EDENBROOK DRIVE","HAMPTON","VA",23666,37.0466040850001,-76.445596619,111,"33 EDENBROOK DRIVE, HAMPTON, VA, 23666","Match","Exact","33 EDENBROOK DR, HAMPTON, VA, 23666",103803393,"L"
517112,"33 EDGEMONT DRIVE","PRESQUE ISLE","ME",4769,46.6959131190001,-68.033656089,112,"33 EDGEMONT DRIVE, PRESQUE ISLE, ME, 4769","Match","Exact","33 EDGEMONT DR, PRESQUE ISLE, ME, 04769",123846073,"L"
517113,"33 EDWARDS ST","ROSLYN HEIGHTS","NY",11577,40.7925962470001,-73.6476294839999,113,"33 EDWARDS ST, ROSLYN HEIGHTS, NY, 11577","Match","Exact","33 EDWARDS ST, ROSLYN HEIGHTS, NY, 11577",147838773,"R"
517114,"33 EISENHOWER PARKWAY","ROSELAND","NJ",7068,40.8181027160001,-74.3298089479999,114,"33 EISENHOWER PARKWAY, ROSELAND, NJ, 7068","Match","Exact","33 EISENHOWER PKWY, ROSELAND, NJ, 07068",63457145,"L"
517115,"33 ELDERBERRY DRIVE","WINDHAM","ME",4062,43.742436705,-70.4274795059999,115,"33 ELDERBERRY DRIVE, WINDHAM, ME, 4062","Match","Non_Exact","33 ELDERBERRY LN, WINDHAM, ME, 04062",627044608,"R"
517116,"33 ELLIOT ROAD","GREAT NECK","NY",11021,40.7972481240001,-73.718204181,116,"33 ELLIOT ROAD, GREAT NECK, NY, 11021","Match","Exact","33 ELLIOT RD, GREAT NECK, NY, 11021",652344329,"L"
517117,"33 ELM DRIVE","ROCHESTER","NY",14609,43.159693561,-77.546420353,117,"33 ELM DRIVE, ROCHESTER, NY, 14609","Match","Exact","33 ELM DR, ROCHESTER, NY, 14609",14542870,"R"
517118,"33 ELSIN LANE","WILLINBGORO","NJ",8046,40.02443286,-74.873066744,118,"33 ELSIN LANE, WILLINBGORO, NJ, 8046","Match","Non_Exact","33 ELSIN LN, WILLINGBORO, NJ, 08046",134032100,"R"
517119,"33 ELSIN LANE","WILLINGBORO","NJ",8046,40.02443286,-74.873066744,119,"33 ELSIN LANE, WILLINGBORO, NJ, 8046","Match","Exact","33 ELSIN LN, WILLINGBORO, NJ, 08046",134032100,"R"
517120,"33 ERIE AVENUE","ROCKAWAY","NJ",7866,40.9305941220001,-74.506936932,120,"33 ERIE AVENUE, ROCKAWAY, NJ, 7866","Match","Exact","33 ERIE AVE, ROCKAWAY, NJ, 07866",60438559,"R"
517121,"33 ERIE ST W","BLAUVELT","NY",10913,41.063358286,-73.9597346479999,121,"33 ERIE ST W, BLAUVELT, NY, 10913","Match","Exact","33 ERIE ST W, BLAUVELT, NY, 10913",124612302,"L"
517122,"33 ERNST DRIVE","GLEN CARBON","IL",62034,38.7721857110001,-89.989687352,122,"33 ERNST DRIVE, GLEN CARBON, IL, 62034","Match","Exact","33 ERNST DR, GLEN CARBON, IL, 62034",107706337,"L"
517123,"33 ERNSTON RD","COLONIA","NJ",7067,40.606220492,-74.316364331,123,"33 ERNSTON RD, COLONIA, NJ, 7067","Match","Exact","33 ERNSTON RD, COLONIA, NJ, 07067",60272425,"R"
517124,"33 ESPLANADE","IRVINE","CA",92612,33.661491217,-117.830826995,124,"33 ESPLANADE, IRVINE, CA, 92612","Match","Exact","33 ESPLANADE, IRVINE, CA, 92612",645535923,"R"
517125,"33 ESSEX ST APT 9","NEW YORK","NY",10002,40.715820186,-73.9896217149999,125,"33 ESSEX ST APT 9, NEW YORK, NY, 10002","Match","Exact","33 ESSEX ST, NEW YORK, NY, 10002",59654285,"L"
517126,"33 EUSDEN DR","ASTON","PA",19014,39.8724730610001,-75.4524947369999,126,"33 EUSDEN DR, ASTON, PA, 19014","Match","Exact","33 EUSDEN DR, ASTON, PA, 19014",134899612,"L"
517127,"33 EVEAKE DRIVE","ASHEVILLE","NC",28806,NA,NA,127,"33 EVEAKE DRIVE, ASHEVILLE, NC, 28806","No_Match",NA,NA,NA,NA
517128,"33 EVERGREEN DRIVE","HAMPDEN","ME",4444,44.75113551,-68.854257521,128,"33 EVERGREEN DRIVE, HAMPDEN, ME, 4444","Match","Exact","33 EVERGREEN DR, HAMPDEN, ME, 04444",618063555,"L"
517129,"33 EXETER ROAD","HAMPTON","NH",3842,42.9434808090001,-70.840155769,129,"33 EXETER ROAD, HAMPTON, NH, 3842","Match","Exact","33 EXETER RD, HAMPTON, NH, 03842",113675860,"L"
517130,"33 FAIRFAX VG","HARRISBURG","PA",17112,40.3409125360001,-76.821941938,130,"33 FAIRFAX VG, HARRISBURG, PA, 17112","Match","Non_Exact","33 FAIRFAX VILLAGE, HARRISBURG, PA, 17112",70840773,"R"
517131,"33 FAIRFIELD DRIVE","SHORT HILLS","NJ",7078,40.745819768,-74.310854524,131,"33 FAIRFIELD DRIVE, SHORT HILLS, NJ, 7078","Match","Exact","33 FAIRFIELD DR, SHORT HILLS, NJ, 07078",63495669,"L"
517132,"33 FAIRFIELD DRIVE","TINTON FALLS","NJ",7724,40.3130146500001,-74.088157065,132,"33 FAIRFIELD DRIVE, TINTON FALLS, NJ, 7724","Match","Exact","33 FAIRFIELD DR, TINTON FALLS, NJ, 07724",90453900,"L"
517133,"33 FAIRGREEN CIRCLE","FAIRFIELD","OH",45014,39.310747222,-84.495028842,133,"33 FAIRGREEN CIRCLE, FAIRFIELD, OH, 45014","Match","Exact","33 FAIRGREEN CIR, FAIRFIELD, OH, 45014",639100690,"L"
517134,"33 FAIRVIEW AVE","DUDLEY","MA",1571,42.038874965,-71.8977127749999,134,"33 FAIRVIEW AVE, DUDLEY, MA, 1571","Match","Exact","33 FAIRVIEW AVE, DUDLEY, MA, 01571",636369069,"R"
517135,"33 FAIRVIEW ROAD","PITTSBURGH","PA",15221,40.4304897480001,-79.8560824149999,135,"33 FAIRVIEW ROAD, PITTSBURGH, PA, 15221","Match","Exact","33 FAIRVIEW RD, PITTSBURGH, PA, 15221",51813731,"L"
517136,"33 FAIRWAY AVENUE","BELLEVILLE","NJ",7109,40.7959057900001,-74.174442254,136,"33 FAIRWAY AVENUE, BELLEVILLE, NJ, 7109","Match","Exact","33 FAIRWAY AVE, BELLEVILLE, NJ, 07109",63454035,"L"
517137,"33 FALCON CT","LITTLE ROCK","AR",72210,34.680706102,-92.4311166109999,137,"33 FALCON CT, LITTLE ROCK, AR, 72210","Match","Exact","33 FALCON CT, LITTLE ROCK, AR, 72210",618978371,"R"
517138,"33 FALLS CREEK RD","RAYMOND","WA",98577,46.534268496,-123.515811066,138,"33 FALLS CREEK RD, RAYMOND, WA, 98577","Match","Exact","33 FALLS CREEK RD, RAYMOND, WA, 98577",176000484,"L"
517139,"33 FALMOUTH ST","INDIAN ORCHARD","MA",1151,42.154698055,-72.490057738,139,"33 FALMOUTH ST, INDIAN ORCHARD, MA, 1151","Match","Exact","33 FALMOUTH ST, INDIAN ORCHARD, MA, 01151",4026104,"L"
517140,"33 FALMOUTH STREET","INDIAN ORCHARD","MA",1151,42.154698055,-72.490057738,140,"33 FALMOUTH STREET, INDIAN ORCHARD, MA, 1151","Match","Exact","33 FALMOUTH ST, INDIAN ORCHARD, MA, 01151",4026104,"L"
517141,"33 FARMBOOK DR","OLD BRIDGE","NJ",8857,NA,NA,141,"33 FARMBOOK DR, OLD BRIDGE, NJ, 8857","No_Match",NA,NA,NA,NA
517142,"33 FARMINGDALE DRIVE","PARSIPPANY","NJ",7054,40.853450916,-74.44785897,142,"33 FARMINGDALE DRIVE, PARSIPPANY, NJ, 7054","Match","Exact","33 FARMINGDALE DR, PARSIPPANY, NJ, 07054",60442792,"L"
517143,"33 FARNUM STREET","WORCESTER","MA",1609,42.275927231,-71.816675752,143,"33 FARNUM STREET, WORCESTER, MA, 1609","Match","Exact","33 FARNUM ST, WORCESTER, MA, 01609",40009127,"L"
517144,"33 FARREN AVENUE","NEW HAVEN","CT",6513,41.2953498950001,-72.893053228,144,"33 FARREN AVENUE, NEW HAVEN, CT, 6513","Match","Exact","33 FARREN AVE, NEW HAVEN, CT, 06513",628113936,"R"
517145,"33 FAWN HOLLOW RD","NEWTON","NJ",7860,40.982637492,-74.803449579,145,"33 FAWN HOLLOW RD, NEWTON, NJ, 7860","Match","Exact","33 FAWN HOLLOW RD, NEWTON, NJ, 07860",636745897,"L"
517146,"33 FAYERWEATHER ST","CAMBRIDGE","MA",2138,42.3786269870001,-71.1378382089999,146,"33 FAYERWEATHER ST, CAMBRIDGE, MA, 2138","Match","Exact","33 FAYERWEATHER ST, CAMBRIDGE, MA, 02138",86912728,"L"
517147,"33 FAYETTE STREET","BINGHAMTON","NY",13901,42.100048729,-75.904651539,147,"33 FAYETTE STREET, BINGHAMTON, NY, 13901","Match","Exact","33 FAYETTE ST, BINGHAMTON, NY, 13901",46342559,"L"
517148,"33 FELTER LN","PALM COAST","FL",32137,29.567510917,-81.212122488,148,"33 FELTER LN, PALM COAST, FL, 32137","Match","Exact","33 FELTER LN, PALM COAST, FL, 32137",94950248,"L"
517149,"33 FENWAY ROAD","YARDVILLE","NJ",8620,40.1877210590001,-74.6735832689999,149,"33 FENWAY ROAD, YARDVILLE, NJ, 8620","Match","Non_Exact","33 FENWAY RD, TRENTON, NJ, 08620",60185152,"R"
517150,"33 FIELDCREST DRIVE","SOMERVILLE","AL",35670,NA,NA,150,"33 FIELDCREST DRIVE, SOMERVILLE, AL, 35670","No_Match",NA,NA,NA,NA
517151,"33 FIELDSTONE DRIVE D3","HARTSDALE","NY",10530,41.0293611450001,-73.792175505,151,"33 FIELDSTONE DRIVE D3, HARTSDALE, NY, 10530","Match","Exact","33 FIELDSTONE DR, HARTSDALE, NY, 10530",139848063,"L"
517152,"33 FIEN STREET","ROCHESTER","NY",14534,43.171448974,-77.6158973289999,152,"33 FIEN STREET, ROCHESTER, NY, 14534","Match","Non_Exact","33 FIEN ST, ROCHESTER, NY, 14605",14537958,"L"
517153,"33 FIEN STREET","ROCHESTER","NY",14605,43.171448974,-77.6158973289999,153,"33 FIEN STREET, ROCHESTER, NY, 14605","Match","Exact","33 FIEN ST, ROCHESTER, NY, 14605",14537958,"L"
517154,"33 FINNEY FARM ROAD","CROTON ON HUDSON","NY",10520,41.215899306,-73.89650431,154,"33 FINNEY FARM ROAD, CROTON ON HUDSON, NY, 10520","Match","Exact","33 FINNEY FARM RD, CROTON ON HUDSON, NY, 10520",139846417,"R"
517155,"33 FISHER STREET","DOVER","NH",3820,43.187138486,-70.8782123569999,155,"33 FISHER STREET, DOVER, NH, 3820","Match","Exact","33 FISHER ST, DOVER, NH, 03820",117806626,"R"
517156,"33 FITTS RD","ASHFORD","CT",6278,41.8732260790001,-72.124569052,156,"33 FITTS RD, ASHFORD, CT, 6278","Match","Exact","33 FITTS RD, ASHFORD, CT, 06278",610950756,"L"
517157,"33 FLAGLAR DRIVE","PLATTSBURGH","NY",12901,44.7058056440001,-73.477218616,157,"33 FLAGLAR DRIVE, PLATTSBURGH, NY, 12901","Match","Exact","33 FLAGLAR DR, PLATTSBURGH, NY, 12901",136097959,"R"
517158,"33 FOREST AVE","EVERETT","MA",2149,42.407920416,-71.0610716259999,158,"33 FOREST AVE, EVERETT, MA, 2149","Match","Exact","33 FOREST AVE, EVERETT, MA, 02149",86873358,"L"
517159,"33 FOREST AVENUE","HAWTHORNE","NJ",7506,40.9503068340001,-74.152304976,159,"33 FOREST AVENUE, HAWTHORNE, NJ, 7506","Match","Exact","33 FOREST AVE, HAWTHORNE, NJ, 07506",65263699,"R"
517160,"33 FOREST AVENUE","VALLEY STREAM","NY",11581,40.6567548260001,-73.694083908,160,"33 FOREST AVENUE, VALLEY STREAM, NY, 11581","Match","Exact","33 FOREST AVE, VALLEY STREAM, NY, 11581",147685479,"L"
517161,"33 FOREST ST","DUNSTABLE","MA",1827,42.6850517570001,-71.4714404219999,161,"33 FOREST ST, DUNSTABLE, MA, 1827","Match","Exact","33 FOREST ST, DUNSTABLE, MA, 01827",86926797,"L"
517162,"33 FORT STREET","NORTHAMPTON","MA",1060,42.309896296,-72.633694882,162,"33 FORT STREET, NORTHAMPTON, MA, 1060","Match","Exact","33 FORT ST, NORTHAMPTON, MA, 01060",39849876,"R"
517163,"33 FOXCROFT DRIVE","DOYLESTOWN","PA",18901,40.2984720260001,-75.095543149,163,"33 FOXCROFT DRIVE, DOYLESTOWN, PA, 18901","Match","Exact","33 FOXCROFT DR, DOYLESTOWN, PA, 18901",134736036,"L"
517164,"33 FRANDEL DRIVE","AVON","CT",6001,41.8008388760001,-72.853641061,164,"33 FRANDEL DRIVE, AVON, CT, 6001","Match","Exact","33 FRANDEL DR, AVON, CT, 06001",3484058,"L"
517165,"33 FRANK STREET","MOUNT JOY","PA",17552,40.111632037,-76.502110035,165,"33 FRANK STREET, MOUNT JOY, PA, 17552","Match","Exact","33 FRANK ST, MOUNT JOY, PA, 17552",179652361,"L"
517166,"33 FRANKLIN AVE","CLAYMONT","DE",19703,39.8021775500001,-75.4626064029999,166,"33 FRANKLIN AVE, CLAYMONT, DE, 19703","Match","Exact","33 FRANKLIN AVE, CLAYMONT, DE, 19703",187262346,"L"
517167,"33 FRANKLIN DR","VOORHEES","NJ",8043,39.854244523,-74.987929305,167,"33 FRANKLIN DR, VOORHEES, NJ, 8043","Match","Exact","33 FRANKLIN DR, VOORHEES, NJ, 08043",134420062,"R"
517168,"33 FRANKLIN DRIVE","VOORHEES TOWNSHIP","NJ",8043,39.854244523,-74.987929305,168,"33 FRANKLIN DRIVE, VOORHEES TOWNSHIP, NJ, 8043","Match","Non_Exact","33 FRANKLIN DR, VOORHEES, NJ, 08043",134420062,"R"
517169,"33 FREE STREET","HINGHAM","MA",2043,42.21674747,-70.88228162,169,"33 FREE STREET, HINGHAM, MA, 2043","Match","Exact","33 FREE ST, HINGHAM, MA, 02043",87430562,"R"
517170,"33 FREEDOM DRIVE","LAKEWOOD","NJ",8701,40.0816479740001,-74.223483701,170,"33 FREEDOM DRIVE, LAKEWOOD, NJ, 8701","Match","Exact","33 FREEDOM DR, LAKEWOOD, NJ, 08701",617590738,"R"
517171,"33 FRUIT ST 746","BOSTON","MA",2114,42.3624180140001,-71.069471253,171,"33 FRUIT ST 746, BOSTON, MA, 2114","Match","Exact","33 FRUIT ST, BOSTON, MA, 02114",642551691,"R"
517172,"33 FRUITFARM RD","ELYSBURG","PA",17824,40.888295344,-76.5397436489999,172,"33 FRUITFARM RD, ELYSBURG, PA, 17824","Match","Non_Exact","33 FRUIT FARM RD, ELYSBURG, PA, 17824",59200139,"R"
517173,"33 FULTON AVENUE","MASTIC","NY",11950,40.8082784440001,-72.8456941109999,173,"33 FULTON AVENUE, MASTIC, NY, 11950","Match","Exact","33 FULTON AVE, MASTIC, NY, 11950",114019871,"L"
517174,"33 FURMAN CRES","ROCHESTER","NY",14620,43.1295421470001,-77.613969899,174,"33 FURMAN CRES, ROCHESTER, NY, 14620","Match","Exact","33 FURMAN CRES, ROCHESTER, NY, 14620",14540617,"R"
517175,"33 FURNACE ST","LOGAN","OH",43138,39.5408837260001,-82.417246586,175,"33 FURNACE ST, LOGAN, OH, 43138","Match","Exact","33 FURNACE ST, LOGAN, OH, 43138",36080519,"L"
517176,"33 GARDEN OAKS DRIVE","SMITHFIELD","NC",27577,35.5203085910001,-78.48371473,176,"33 GARDEN OAKS DRIVE, SMITHFIELD, NC, 27577","Match","Exact","33 GARDEN OAKS DR, SMITHFIELD, NC, 27577",637651317,"L"
517177,"33 GARDEN PARKWAY","NORWOOD","MA",2062,42.174958653,-71.227865354,177,"33 GARDEN PARKWAY, NORWOOD, MA, 2062","Match","Exact","33 GARDEN PKWY, NORWOOD, MA, 02062",87254337,"R"
517178,"33 GARDEN STREET","NATCHEZ","MS",39120,31.5665189000001,-91.3920044289999,178,"33 GARDEN STREET, NATCHEZ, MS, 39120","Match","Exact","33 GARDEN ST, NATCHEZ, MS, 39120",79844954,"R"
517179,"33 GARSIDE AVE","WAYNE","NJ",7470,40.9301991090001,-74.212450695,179,"33 GARSIDE AVE, WAYNE, NJ, 7470","Match","Exact","33 GARSIDE AVE, WAYNE, NJ, 07470",65271788,"R"
517180,"33 GARWOOD BLVD","CLAYTON","NJ",8312,39.665282233,-75.080173351,180,"33 GARWOOD BLVD, CLAYTON, NJ, 8312","Match","Exact","33 GARWOOD BLVD, CLAYTON, NJ, 08312",627042412,"L"
517181,"33 GATES CIRCLE NO 5E","BUFFALO","NY",14209,NA,NA,181,"33 GATES CIRCLE NO 5E, BUFFALO, NY, 14209","No_Match",NA,NA,NA,NA
517182,"33 GAUDET DR","BELMONT","NH",3220,43.4701417890001,-71.456968216,182,"33 GAUDET DR, BELMONT, NH, 3220","Match","Exact","33 GAUDET DR, BELMONT, NH, 03220",220149790,"R"
517183,"33 GENA COURT","TRENTON","NJ",8690,40.2071110640001,-74.681401251,183,"33 GENA COURT, TRENTON, NJ, 8690","Match","Exact","33 GENA CT, TRENTON, NJ, 08690",60204184,"R"
517184,"33 GETTYSBURG PIKE","MECHANICSBURG","PA",17055,40.188018178,-76.9823164319999,184,"33 GETTYSBURG PIKE, MECHANICSBURG, PA, 17055","Match","Exact","33 GETTYSBURG PIKE, MECHANICSBURG, PA, 17055",647946668,"L"
517185,"33 GIBBONS LANE","NEW PALTZ","NY",12561,41.7056012250001,-74.16222634,185,"33 GIBBONS LANE, NEW PALTZ, NY, 12561","Match","Exact","33 GIBBONS LN, NEW PALTZ, NY, 12561",41889086,"R"
517186,"33 GIGGLESWICK WAY","EDISION","NJ",8820,40.5927038310001,-74.392955075,186,"33 GIGGLESWICK WAY, EDISION, NJ, 8820","Match","Non_Exact","33 GIGGLESWICK WAY, EDISON, NJ, 08820",637381675,"L"
517187,"33 GIGGLESWICK WAY","EDISON","NJ",8820,40.5927038310001,-74.392955075,187,"33 GIGGLESWICK WAY, EDISON, NJ, 8820","Match","Exact","33 GIGGLESWICK WAY, EDISON, NJ, 08820",637381675,"L"
517188,"33 GLENDALE AVENUE","STATEN ISLAND","NY",10304,40.6006188060001,-74.088047398,188,"33 GLENDALE AVENUE, STATEN ISLAND, NY, 10304","Match","Exact","33 GLENDALE AVE, STATEN ISLAND, NY, 10304",59868563,"L"
517189,"33 GLENDALE CIRCLE","SCARBOROUGH","ME",4074,43.5935235060001,-70.4174262129999,189,"33 GLENDALE CIRCLE, SCARBOROUGH, ME, 4074","Match","Exact","33 GLENDALE CIR, SCARBOROUGH, ME, 04074",78037444,"L"
517190,"33 GLENWOOD PLACE","EAST ORANGE","NJ",7018,NA,NA,190,"33 GLENWOOD PLACE, EAST ORANGE, NJ, 7018","No_Match",NA,NA,NA,NA
517191,"33 GLENWOOD ROAD","WESTON","CT",6883,41.2040852310001,-73.3604811499999,191,"33 GLENWOOD ROAD, WESTON, CT, 6883","Match","Exact","33 GLENWOOD RD, WESTON, CT, 06883",3237509,"R"
517192,"33 GOLF COURSE DRIVE","SILVER BAY","MN",55614,47.2792823300001,-91.285470774,192,"33 GOLF COURSE DRIVE, SILVER BAY, MN, 55614","Match","Non_Exact","33 GOLF COURSE RD, SILVER BAY, MN, 55614",194223474,"R"
517193,"33 GOLF VIEW DR","TRABUCO CANYON","CA",92679,33.633810458,-117.567581978,193,"33 GOLF VIEW DR, TRABUCO CANYON, CA, 92679","Match","Exact","33 GOLF VIEW DR, TRABUCO CANYON, CA, 92679",144420521,"L"
517194,"33 GORMLEY AVE","PORTSMOUTH","RI",2871,41.6228928030001,-71.233547608,194,"33 GORMLEY AVE, PORTSMOUTH, RI, 2871","Match","Exact","33 GORMLEY AVE, PORTSMOUTH, RI, 02871",47345091,"R"
517195,"33 GOVERNORS AVE","MEDFORD","MA",2155,42.4203293320001,-71.111144662,195,"33 GOVERNORS AVE, MEDFORD, MA, 2155","Match","Exact","33 GOVERNORS AVE, MEDFORD, MA, 02155",86857993,"R"
517196,"33 GRACE STREET APT 2","MALDEN","MA",2148,42.433169332,-71.078456838,196,"33 GRACE STREET APT 2, MALDEN, MA, 2148","Match","Exact","33 GRACE ST, MALDEN, MA, 02148",86859700,"R"
517197,"33 GRANADA AVE APT B","LONG BEACH","CA",90803,33.7568115220001,-118.138367839,197,"33 GRANADA AVE APT B, LONG BEACH, CA, 90803","Match","Exact","33 GRANADA AVE, LONG BEACH, CA, 90803",141702683,"L"
517198,"33 GRAND VIEW TERRACE","CHESTER","NY",10918,41.3683815110001,-74.268076701,198,"33 GRAND VIEW TERRACE, CHESTER, NY, 10918","Match","Exact","33 GRAND VIEW TER, CHESTER, NY, 10918",637614266,"L"
517199,"33 GRANDVIEW RD","ARLINGTON","MA",2476,42.416067953,-71.175741295,199,"33 GRANDVIEW RD, ARLINGTON, MA, 2476","Match","Exact","33 GRANDVIEW RD, ARLINGTON, MA, 02476",86885492,"R"
517200,"33 GRANITE ST","FOXBORO","MA",2035,42.0642767000001,-71.255749897,200,"33 GRANITE ST, FOXBORO, MA, 2035","Match","Exact","33 GRANITE ST, FOXBORO, MA, 02035",87261734,"L"
517201,"33 GRANT PLACE","IRVINGTON","NJ",7111,40.727861187,-74.237253003,201,"33 GRANT PLACE, IRVINGTON, NJ, 7111","Match","Exact","33 GRANT PL, IRVINGTON, NJ, 07111",63485130,"R"
517202,"33 GRANT ROAD","SWAMPSCOTT","MA",1907,42.4733958410001,-70.914720906,202,"33 GRANT ROAD, SWAMPSCOTT, MA, 1907","Match","Exact","33 GRANT RD, SWAMPSCOTT, MA, 01907",86695299,"R"
517203,"33 GRAVES LANE","TRENTON","TN",38382,35.9504709400001,-88.864222996,203,"33 GRAVES LANE, TRENTON, TN, 38382","Match","Exact","33 GRAVES LN, TRENTON, TN, 38382",605544908,"L"
517204,"33 GREAT BLUE HERON DRIVE","GUILFORD","VT",5301,42.762217471,-72.605602225,204,"33 GREAT BLUE HERON DRIVE, GUILFORD, VT, 5301","Match","Exact","33 GREAT BLUE HERON DR, GUILFORD, VT, 05301",171090663,"L"
517205,"33 GREAT HERON LANE","BROOKFIELD","CT",6804,41.4891651780001,-73.413117072,205,"33 GREAT HERON LANE, BROOKFIELD, CT, 6804","Match","Exact","33 GREAT HERON LN, BROOKFIELD, CT, 06804",648702651,"R"
517206,"33 GREEN 747 RD","PARAGOULD","AR",72450,NA,NA,206,"33 GREEN 747 RD, PARAGOULD, AR, 72450","No_Match",NA,NA,NA,NA
517207,"33 GREEN ROAD","FAIRFIELD","ME",4937,44.617900906,-69.663056352,207,"33 GREEN ROAD, FAIRFIELD, ME, 4937","Match","Exact","33 GREEN RD, FAIRFIELD, ME, 04937",124142517,"L"
517208,"33 GREENMEADOW ROAD","PLEASANTVILLE","NY",10570,41.140061888,-73.775667144,208,"33 GREENMEADOW ROAD, PLEASANTVILLE, NY, 10570","Match","Exact","33 GREENMEADOW RD, PLEASANTVILLE, NY, 10570",139801539,"R"
517209,"33 GREENWICH AVE APT 11L","NEW YORK","NY",10014,40.7351072550001,-74.000236478,209,"33 GREENWICH AVE APT 11L, NEW YORK, NY, 10014","Match","Exact","33 GREENWICH AVE, NEW YORK, NY, 10014",59660004,"L"
517210,"33 GREENWOOD STREET","NEW HAVEN","CT",6519,41.3047863890001,-72.944526485,210,"33 GREENWOOD STREET, NEW HAVEN, CT, 6519","Match","Exact","33 GREENWOOD ST, NEW HAVEN, CT, 06519",3700352,"R"
517211,"33 GREY ROCK AVE","LITTLE FERRY","NJ",7424,40.8858219840001,-74.2380949069999,211,"33 GREY ROCK AVE, LITTLE FERRY, NJ, 7424","Match","Non_Exact","33 GREY ROCK AVE, LITTLE FALLS, NJ, 07424",65260884,"L"
517212,"33 GREYLAWN AVE","WARWICK","RI",2889,41.7181944640001,-71.403164256,212,"33 GREYLAWN AVE, WARWICK, RI, 2889","Match","Exact","33 GREYLAWN AVE, WARWICK, RI, 02889",159149348,"R"
517213,"33 GROVE AVE","WOLCOTT","CT",6716,41.56089375,-72.9490226739999,213,"33 GROVE AVE, WOLCOTT, CT, 6716","Match","Exact","33 GROVE AVE, WOLCOTT, CT, 06716",3736857,"R"
517214,"33 GROVE END RD  APT 59","LONDON, UK NW8 9LN",NA,NA,NA,NA,214,"33 GROVE END RD  APT 59, LONDON, UK NW8 9LN, , ","No_Match",NA,NA,NA,NA
517215,"33 GROVE ST","SPENCER","MA",1562,42.24827458,-71.992312903,215,"33 GROVE ST, SPENCER, MA, 1562","Match","Exact","33 GROVE ST, SPENCER, MA, 01562",40003056,"R"
517216,"33 GROVE STEET","CLIFTON","NJ",7013,40.878456838,-74.168669317,216,"33 GROVE STEET, CLIFTON, NJ, 7013","Match","Exact","33 GROVE ST, CLIFTON, NJ, 07013",65281532,"L"
517217,"33 H BOUSCAY AVE","NORWALK","OH",44857,41.251215223,-82.6243193239999,217,"33 H BOUSCAY AVE, NORWALK, OH, 44857","Match","Exact","33 BOUSCAY AVE, NORWALK, OH, 44857",12607373,"L"
517218,"33 H BOUSCAY","NORWALK","OH",44857,41.251215233,-82.624321139,218,"33 H BOUSCAY, NORWALK, OH, 44857","Match","Non_Exact","33 BOUSCAY AVE, NORWALK, OH, 44857",12607373,"L"
517219,"33 H QUEEN ANNE WAY","CHESTER","MD",21619,38.9839780410001,-76.280272327,219,"33 H QUEEN ANNE WAY, CHESTER, MD, 21619","Match","Exact","33 QUEEN ANNE WAY, CHESTER, MD, 21619",68051966,"R"
517220,"33 HAKES RD","ILION","NY",13357,43.009814711,-75.0272931759999,220,"33 HAKES RD, ILION, NY, 13357","Match","Exact","33 HAKES RD, ILION, NY, 13357",153731271,"L"
517221,"33 HALE CT","PARSIPPANY","NJ",7054,40.8575152610001,-74.393787366,221,"33 HALE CT, PARSIPPANY, NJ, 7054","Match","Exact","33 HALE CT, PARSIPPANY, NJ, 07054",60475097,"R"
517222,"33 HALIFAX PLACE","IRVINE","CA",92602,33.734511879,-117.774250397,222,"33 HALIFAX PLACE, IRVINE, CA, 92602","Match","Exact","33 HALIFAX PL, IRVINE, CA, 92602",144132399,"R"
517223,"33 HALL STREET APT 3","JAMAICA PLAIN","MA",2130,42.3048166670001,-71.113457599,223,"33 HALL STREET APT 3, JAMAICA PLAIN, MA, 2130","Match","Exact","33 HALL ST, JAMAICA PLAIN, MA, 02130",85724775,"R"
517224,"33 HAMMOND STE 201","IRVINE","CA",92618,33.660137697,-117.702032545,224,"33 HAMMOND STE 201, IRVINE, CA, 92618","Match","Exact","33 HAMMOND, IRVINE, CA, 92618",144396415,"L"
517225,"33 HAMPTON WAY","DOTHAN","AL",36305,31.2230204150001,-85.440364183,225,"33 HAMPTON WAY, DOTHAN, AL, 36305","Match","Exact","33 HAMPTON WAY, DOTHAN, AL, 36305",101247349,"L"
517226,"33 HANNAH DUSTIN DRIVE","PENACOOK","NH",3303,NA,NA,226,"33 HANNAH DUSTIN DRIVE, PENACOOK, NH, 3303","No_Match",NA,NA,NA,NA
517227,"33 HANSEN STREET","TAPPAN","NY",10983,41.0304973560001,-73.93637841,227,"33 HANSEN STREET, TAPPAN, NY, 10983","Match","Exact","33 HANSEN ST, TAPPAN, NY, 10983",124626879,"R"
517228,"33 HARBOR TOWN","LAGUNA VISTA","TX",78578,26.1093357390001,-97.29639958,228,"33 HARBOR TOWN, LAGUNA VISTA, TX, 78578","Match","Exact","33 HARBOR TOWN, LAGUNA VISTA, TX, 78578",643795201,"L"
517229,"33 HAROLD ST","COS COB","CT",6807,41.0436056190001,-73.593347136,229,"33 HAROLD ST, COS COB, CT, 6807","Match","Exact","33 HAROLD ST, COS COB, CT, 06807",618527931,"R"
517230,"33 HARRIET ST APT 1","SAN FRANCISCO","CA",94103,37.7788863210001,-122.40713906,230,"33 HARRIET ST APT 1, SAN FRANCISCO, CA, 94103","Match","Exact","33 HARRIET ST, SAN FRANCISCO, CA, 94103",192287366,"L"
517231,"33 HARRISON STREET","DUXBURY","MA",2332,42.0395620360001,-70.673546661,231,"33 HARRISON STREET, DUXBURY, MA, 2332","Match","Exact","33 HARRISON ST, DUXBURY, MA, 02332",87436552,"L"
517232,"33 HARROW LANE","LEVITTOWN","NY",11756,40.708845776,-73.5132020779999,232,"33 HARROW LANE, LEVITTOWN, NY, 11756","Match","Exact","33 HARROW LN, LEVITTOWN, NY, 11756",147644903,"L"
517233,"33 HASKIN ST","SPRINGFIELD","MA",1109,42.13173321,-72.539985537,233,"33 HASKIN ST, SPRINGFIELD, MA, 1109","Match","Exact","33 HASKIN ST, SPRINGFIELD, MA, 01109",4024947,"L"
517234,"33 HASKIN STREET","SPRINGFIELD","MA",1109,42.13173321,-72.539985537,234,"33 HASKIN STREET, SPRINGFIELD, MA, 1109","Match","Exact","33 HASKIN ST, SPRINGFIELD, MA, 01109",4024947,"L"
517235,"33 HAYWARD AVENUE APT 204","SAN MATEO","CA",94401,37.5586027430001,-122.32015815,235,"33 HAYWARD AVENUE APT 204, SAN MATEO, CA, 94401","Match","Exact","33 HAYWARD AVE, SAN MATEO, CA, 94401",192378041,"L"
517236,"33 HAYWARD AVENUE","SAN MATEO","CA",94401,37.5586027430001,-122.32015815,236,"33 HAYWARD AVENUE, SAN MATEO, CA, 94401","Match","Exact","33 HAYWARD AVE, SAN MATEO, CA, 94401",192378041,"L"
517237,"33 HAZEL STREET","ROCHESTER","NY",14623,43.077410743,-77.693311536,237,"33 HAZEL STREET, ROCHESTER, NY, 14623","Match","Exact","33 HAZEL ST, ROCHESTER, NY, 14623",14534701,"R"
517238,"33 HEATHER DRIVE","LONGMEADOW","MA",1106,42.050323603,-72.563594461,238,"33 HEATHER DRIVE, LONGMEADOW, MA, 1106","Match","Non_Exact","33 HEATHER RD, LONGMEADOW, MA, 01106",4038677,"L"
517239,"33 HEATHER LANE","PALMETTO","GA",30268,33.500485075,-84.7042589389999,239,"33 HEATHER LANE, PALMETTO, GA, 30268","Match","Exact","33 HEATHER LN, PALMETTO, GA, 30268",614455771,"R"
517240,"33 HEATHER OAKS WAY","CLARKSVILLE","AR",72830,35.494877553,-93.4717044129999,240,"33 HEATHER OAKS WAY, CLARKSVILLE, AR, 72830","Match","Exact","33 HEATHER OAKS WAY, CLARKSVILLE, AR, 72830",73526160,"L"
517241,"33 HEATHER ROAD","PORTLAND","ME",4103,43.7119366590001,-70.281426605,241,"33 HEATHER ROAD, PORTLAND, ME, 4103","Match","Exact","33 HEATHER RD, PORTLAND, ME, 04103",78026167,"R"
517242,"33 HERITAGE CROSSING","CIRCLEVILLE","NY",10919,41.5312530530001,-74.375656626,242,"33 HERITAGE CROSSING, CIRCLEVILLE, NY, 10919","Match","Exact","33 HERITAGE CROSSING, CIRCLEVILLE, NY, 10919",124485085,"L"
517243,"33 HERITAGE HILL ROAD","TARRYTOWN","NY",10591,41.0685321930001,-73.858452627,243,"33 HERITAGE HILL ROAD, TARRYTOWN, NY, 10591","Match","Exact","33 HERITAGE HILL RD, TARRYTOWN, NY, 10591",139731074,"R"
517244,"33 HERRICK AVENUE","DELMAR","NY",12054,42.6284627090001,-73.822583572,244,"33 HERRICK AVENUE, DELMAR, NY, 12054","Match","Exact","33 HERRICK AVE, DELMAR, NY, 12054",18308978,"L"
517245,"33 HERRING DRIVE","FISHKILL","NY",12524,41.5547624590001,-73.858214291,245,"33 HERRING DRIVE, FISHKILL, NY, 12524","Match","Exact","33 HERRING DR, FISHKILL, NY, 12524",638053312,"L"
517246,"33 HICKORY POND DRIVE","PENFIELD","NY",14526,43.141864072,-77.450517887,246,"33 HICKORY POND DRIVE, PENFIELD, NY, 14526","Match","Exact","33 HICKORY POND DR, PENFIELD, NY, 14526",14551431,"L"
517247,"33 HICKSVILLE ROAD","CROMWELL","CT",6416,41.598164206,-72.6666079359999,247,"33 HICKSVILLE ROAD, CROMWELL, CT, 6416","Match","Exact","33 HICKSVILLE RD, CROMWELL, CT, 06416",623846351,"L"
517248,"33 HIETT HOLLOW LANE","PLEASANT SHADE","TN",37145,36.3480223230001,-85.948971054,248,"33 HIETT HOLLOW LANE, PLEASANT SHADE, TN, 37145","Match","Exact","33 HIETT HOLLOW LN, PLEASANT SHADE, TN, 37145",645062858,"R"
517249,"33 HIGH RIDGE RD","MONROE","CT",6468,41.309057997,-73.206923988,249,"33 HIGH RIDGE RD, MONROE, CT, 6468","Match","Non_Exact","33 HIGHRIDGE DR, MONROE, CT, 06468",3218043,"L"
517250,"33 HIGH RIDGE ROAD","MONROE","CT",6468,41.309057997,-73.206923988,250,"33 HIGH RIDGE ROAD, MONROE, CT, 6468","Match","Non_Exact","33 HIGHRIDGE DR, MONROE, CT, 06468",3218043,"L"
517251,"33 HIGH ST APT 3","WEST CHESTER","PA",19384,NA,NA,251,"33 HIGH ST APT 3, WEST CHESTER, PA, 19384","No_Match",NA,NA,NA,NA
517252,"33 HIGH STREET 2","WATERBILLE","ME",4901,44.5628321400001,-69.629962618,252,"33 HIGH STREET 2, WATERBILLE, ME, 4901","Match","Non_Exact","33 HIGH ST, WATERVILLE, ME, 04901",75464259,"R"
517253,"33 HIGH STREET APT 1","ORANGE","NJ",7050,40.7745859080001,-74.232881753,253,"33 HIGH STREET APT 1, ORANGE, NJ, 7050","Match","Exact","33 HIGH ST, ORANGE, NJ, 07050",63450035,"L"
517254,"33 HIGHLAND COURT","GRAY COURT","SC",29645,34.6620368700001,-82.1011794619999,254,"33 HIGHLAND COURT, GRAY COURT, SC, 29645","Match","Exact","33 HIGHLAND CT, GRAY COURT, SC, 29645",44448221,"L"
517255,"33 HIGHLAND GLEN DRIVE 111","RANDOLPH","MA",2368,42.1617565400001,-71.0503860059999,255,"33 HIGHLAND GLEN DRIVE 111, RANDOLPH, MA, 2368","Match","Exact","33 HIGHLAND GLEN DR, RANDOLPH, MA, 02368",87268282,"L"
517256,"33 HIGHVIEW LANE","RIDGE","NY",11961,40.907973171,-72.885695363,256,"33 HIGHVIEW LANE, RIDGE, NY, 11961","Match","Exact","33 HIGHVIEW LN, RIDGE, NY, 11961",114271817,"L"
517257,"33 HILLCREST AVE","BROCKTON","MA",2301,42.112209116,-71.034829401,257,"33 HILLCREST AVE, BROCKTON, MA, 2301","Match","Exact","33 HILLCREST AVE, BROCKTON, MA, 02301",87441674,"R"
517258,"33 HILLCREST DRIVE","POTSDAM","NY",13676,44.659964447,-74.978516728,258,"33 HILLCREST DRIVE, POTSDAM, NY, 13676","Match","Exact","33 HILLCREST DR, POTSDAM, NY, 13676",155224830,"R"
517259,"33 HILLSIDE AVE","NORWOOD","NJ",7648,40.9983498440001,-73.964215134,259,"33 HILLSIDE AVE, NORWOOD, NJ, 7648","Match","Exact","33 HILLSIDE AVE, NORWOOD, NJ, 07648",64370319,"L"
517260,"33 HILLSIDE AVENUE SUITE 201","WILLISTON PARK","NY",11596,40.7575808560001,-73.640525171,260,"33 HILLSIDE AVENUE SUITE 201, WILLISTON PARK, NY, 11596","Match","Exact","33 HILLSIDE AVE, WILLISTON PARK, NY, 11596",147664367,"L"
517261,"33 HOCKANUM DRIVE","EAST HARTFORD","CT",6118,41.731214879,-72.624939978,261,"33 HOCKANUM DRIVE, EAST HARTFORD, CT, 6118","Match","Exact","33 HOCKANUM DR, EAST HARTFORD, CT, 06118",3529459,"R"
517262,"33 HOLBROOK ROAD","CENTEREACH","NY",11720,40.855322406,-73.082030011,262,"33 HOLBROOK ROAD, CENTEREACH, NY, 11720","Match","Exact","33 HOLBROOK RD, CENTEREACH, NY, 11720",114005616,"R"
517263,"33 HOLLY DRIVE","UPPER SADDLE RIVER","NJ",7458,41.0604750530001,-74.0995182999999,263,"33 HOLLY DRIVE, UPPER SADDLE RIVER, NJ, 7458","Match","Exact","33 HOLLY DR, UPPER SADDLE RIVER, NJ, 07458",64366107,"R"
517264,"33 HOLLY OAK DRIVE","VOORHEES","NJ",8043,39.855941859,-74.960224062,264,"33 HOLLY OAK DRIVE, VOORHEES, NJ, 8043","Match","Exact","33 HOLLY OAK DR, VOORHEES, NJ, 08043",134401542,"R"
517265,"33 HOLSBERY RD","TRURO","MA",2666,41.983948555,-70.057473833,265,"33 HOLSBERY RD, TRURO, MA, 2666","Match","Exact","33 HOLSBERY RD, TRURO, MA, 02666",121670141,"L"
517266,"33 HOMELAND","IRVINE","CA",92618,33.6970934120001,-117.72034512,266,"33 HOMELAND, IRVINE, CA, 92618","Match","Exact","33 HOMELAND, IRVINE, CA, 92618",627860897,"L"
517267,"33 HOOVER ROAD","NEEDHAM","MA",2494,42.2920147030001,-71.226895624,267,"33 HOOVER ROAD, NEEDHAM, MA, 2494","Match","Exact","33 HOOVER RD, NEEDHAM, MA, 02494",87240830,"R"
517268,"33 HORNBEAM ROAD","COVENTRY","RI",2816,41.717234482,-71.549371376,268,"33 HORNBEAM ROAD, COVENTRY, RI, 2816","Match","Exact","33 HORNBEAM RD, COVENTRY, RI, 02816",650978971,"R"
517269,"33 HORSESHOE LANE","NORTH FALMOUTH","MA",2556,41.6324214890001,-70.6227326009999,269,"33 HORSESHOE LANE, NORTH FALMOUTH, MA, 2556","Match","Exact","33 HORSESHOE LN, N FALMOUTH, MA, 02556",121669836,"R"
517270,"33 HORTON PLACE LOWER","BUFFALO","NY",14209,42.921225711,-78.863082355,270,"33 HORTON PLACE LOWER, BUFFALO, NY, 14209","Match","Exact","33 HORTON PL, BUFFALO, NY, 14209",48289724,"R"
517271,"33 HOSMER COURT","SAN CARLOS","CA",94070,NA,NA,271,"33 HOSMER COURT, SAN CARLOS, CA, 94070","No_Match",NA,NA,NA,NA
517272,"33 HOWARD ST","IRVINGTON","NJ",7111,40.7243171630001,-74.2262004789999,272,"33 HOWARD ST, IRVINGTON, NJ, 7111","Match","Exact","33 HOWARD ST, IRVINGTON, NJ, 07111",63464909,"R"
517273,"33 howard st","pompton lakes","NJ",7442,41.010611054,-74.284904086,273,"33 howard st, pompton lakes, NJ, 7442","Match","Exact","33 HOWARD ST, POMPTON LAKES, NJ, 07442",65256326,"L"
517274,"33 HOWARD ST","POMPTON LAKES","NJ",7442,41.010611054,-74.284904086,274,"33 HOWARD ST, POMPTON LAKES, NJ, 7442","Match","Exact","33 HOWARD ST, POMPTON LAKES, NJ, 07442",65256326,"L"
517275,"33 HUCKLEBERRY DR S","NORWALK","DC",6850,NA,NA,275,"33 HUCKLEBERRY DR S, NORWALK, DC, 6850","No_Match",NA,NA,NA,NA
517276,"33 HUCKLEBERRY ST","SICKLERVILLE","NJ",8081,39.742654106,-75.014998744,276,"33 HUCKLEBERRY ST, SICKLERVILLE, NJ, 8081","Match","Non_Exact","33 HUCKLEBERRY AVE, SICKLERVILLE, NJ, 08081",134375024,"R"
517277,"33 HUFF DRIVE","LAWRENCEVILLE","GA",30044,33.922659912,-84.062647983,277,"33 HUFF DRIVE, LAWRENCEVILLE, GA, 30044","Match","Exact","33 HUFF DR, LAWRENCEVILLE, GA, 30044",88943120,"L"
517278,"33 HUMMINGBIRD CT","CHILLICOTHE","OH",45601,39.4053986320001,-83.039632365,278,"33 HUMMINGBIRD CT, CHILLICOTHE, OH, 45601","Match","Exact","33 HUMMINGBIRD CT, CHILLICOTHE, OH, 45601",37500185,"L"
517279,"33 HUNT DRIVE","PISCATAWAY","NJ",8854,40.53456264,-74.453706443,279,"33 HUNT DRIVE, PISCATAWAY, NJ, 8854","Match","Exact","33 HUNT DR, PISCATAWAY, NJ, 08854",60294776,"L"
517280,"33 INDEPENDENCE CIRCLE","MIDDLEBURY","CT",6768,NA,NA,280,"33 INDEPENDENCE CIRCLE, MIDDLEBURY, CT, 6768","No_Match",NA,NA,NA,NA
517281,"33 INDIAN TRAIL","SEARCY","AR",72143,35.2449586110001,-91.709991423,281,"33 INDIAN TRAIL, SEARCY, AR, 72143","Match","Exact","33 INDIAN TRL, SEARCY, AR, 72143",82947888,"L"
517282,"33 INTREPID CIRCLE APT 402","MARBLEHEAD","MA",1945,42.5096852770001,-70.8544415919999,282,"33 INTREPID CIRCLE APT 402, MARBLEHEAD, MA, 1945","Match","Exact","33 INTREPID CIR, MARBLEHEAD, MA, 01945",646587508,"L"
517283,"33 IRONWOOD STREET","ISLIP","NY",11751,40.7467062970001,-73.208447943,283,"33 IRONWOOD STREET, ISLIP, NY, 11751","Match","Exact","33 IRONWOOD ST, ISLIP, NY, 11751",113997831,"R"
517284,"33 IROQUOIS ROAD","PLEASANTVILLE","NY",10570,41.133857359,-73.779077324,284,"33 IROQUOIS ROAD, PLEASANTVILLE, NY, 10570","Match","Exact","33 IROQUOIS RD, PLEASANTVILLE, NY, 10570",139735244,"R"
517285,"33 IRVING PLACE 7TH FLOOR","NEW YORK","NY",10003,40.735247488,-73.987858036,285,"33 IRVING PLACE 7TH FLOOR, NEW YORK, NY, 10003","Match","Exact","33 IRVING PL, NEW YORK, NY, 10003",59653686,"L"
517286,"33 IRVING PLACE","NEW YORK","NY",10003,40.735247488,-73.987858036,286,"33 IRVING PLACE, NEW YORK, NY, 10003","Match","Exact","33 IRVING PL, NEW YORK, NY, 10003",59653686,"L"
517287,"33 IRVING STREET","NEWTON","MA",2459,42.3373632120001,-71.189187811,287,"33 IRVING STREET, NEWTON, MA, 2459","Match","Exact","33 IRVING ST, NEWTON, MA, 02459",86866589,"R"
517288,"33 ISLAND DRIVE","RYE","NY",10580,40.979123847,-73.657997644,288,"33 ISLAND DRIVE, RYE, NY, 10580","Match","Exact","33 ISLAND DR, RYE, NY, 10580",139757336,"L"
517289,"33 ISLE OF PALMS EAST","BLUFFTON","SC",29910,32.2493078000001,-80.969157638,289,"33 ISLE OF PALMS EAST, BLUFFTON, SC, 29910","Match","Exact","33 ISLE OF PALMS E, BLUFFTON, SC, 29910",630171283,"L"
517290,"33 JACKSON AVE","SPRING VALLEY","NY",10977,41.1386482440001,-74.0320143229999,290,"33 JACKSON AVE, SPRING VALLEY, NY, 10977","Match","Exact","33 JACKSON AVE, SPRING VALLEY, NY, 10977",124604543,"R"
517291,"33 JACOBY STREET","NORRISTOWN","PA",19401,40.119777883,-75.34024081,291,"33 JACOBY STREET, NORRISTOWN, PA, 19401","Match","Non_Exact","33 E JACOBY ST, NORRISTOWN, PA, 19401",135082808,"L"
517292,"33 JALEN DR","NEW IPSWICH","NH",3071,42.7180208030001,-71.8881394799999,292,"33 JALEN DR, NEW IPSWICH, NH, 3071","Match","Exact","33 JALEN DR, NEW IPSWICH, NH, 03071",648998702,"R"
517293,"33 JAMES STREET","KEYSER","WV",26726,39.441244662,-78.980574357,293,"33 JAMES STREET, KEYSER, WV, 26726","Match","Exact","33 JAMES ST, KEYSER, WV, 26726",74306778,"R"
517294,"33 JAMES STREET","LAWRENCE","MA",1843,42.6823612790001,-71.1760768939999,294,"33 JAMES STREET, LAWRENCE, MA, 1843","Match","Exact","33 JAMES ST, LAWRENCE, MA, 01843",86626239,"L"
517295,"33 JANELLE DRIVE","WESTFIELD","MA",1085,42.0867097870001,-72.7086944609999,295,"33 JANELLE DRIVE, WESTFIELD, MA, 1085","Match","Exact","33 JANELLE DR, WESTFIELD, MA, 01085",625297489,"L"
517296,"33 JENNI COURT","OXFORD","AL",36203,33.568864251,-85.8117655459999,296,"33 JENNI COURT, OXFORD, AL, 36203","Match","Exact","33 JENNI CT, OXFORD, AL, 36203",66961477,"L"
517297,"33 JEROME AVENUE","MERIDEN","CT",6450,41.5262714140001,-72.774664531,297,"33 JEROME AVENUE, MERIDEN, CT, 6450","Match","Exact","33 JEROME AVE, MERIDEN, CT, 06450",3747643,"R"
517298,"33 JOAN STREET","SPRINGFIELD","MA",1129,42.1227597450001,-72.477967963,298,"33 JOAN STREET, SPRINGFIELD, MA, 1129","Match","Exact","33 JOAN ST, SPRINGFIELD, MA, 01129",623747396,"L"
517299,"33 JOHNATHAN RD","LAKE ZURICH","IL",60047,42.209248523,-88.1059325639999,299,"33 JOHNATHAN RD, LAKE ZURICH, IL, 60047","Match","Exact","33 JOHNATHAN RD, LAKE ZURICH, IL, 60047",119634136,"R"
517300,"33 JOHNSON AVENUE","MEDFORD","MA",2155,42.422315858,-71.135932784,300,"33 JOHNSON AVENUE, MEDFORD, MA, 2155","Match","Exact","33 JOHNSON AVE, MEDFORD, MA, 02155",86889141,"R"
517301,"33 JOHNSON STREET","CHATSWORTH","GA",30705,34.7587007180001,-84.821272434,301,"33 JOHNSON STREET, CHATSWORTH, GA, 30705","Match","Exact","33 JOHNSON ST, CHATSWORTH, GA, 30705",57108724,"R"
517302,"33 JORDAN PLACE","CHURCHVILLE","VA",24421,38.21280046,-79.1862868549999,302,"33 JORDAN PLACE, CHURCHVILLE, VA, 24421","Match","Exact","33 JORDAN PL, CHURCHVILLE, VA, 24421",98829914,"L"
517303,"33 JOSPEH LANE","STATEN ISLAND","NY",10305,40.603785477,-74.0718770189999,303,"33 JOSPEH LANE, STATEN ISLAND, NY, 10305","Match","Non_Exact","33 JOSEPH LN, STATEN ISLAND, NY, 10305",59869806,"L"
517304,"33 JUNCTION LANE","SOUTH HAMILTON","MA",1982,42.6210406930001,-70.821564912,304,"33 JUNCTION LANE, SOUTH HAMILTON, MA, 1982","Match","Exact","33 JUNCTION LN, SOUTH HAMILTON, MA, 01982",616746327,"R"
517305,"33 JUNIPER CIR","BLACK HAWK","CO",80422,39.842256864,-105.467796384,305,"33 JUNIPER CIR, BLACK HAWK, CO, 80422","Match","Exact","33 JUNIPER CIR, BLACK HAWK, CO, 80422",186484647,"L"
517306,"33 KANE PLACE","BROOKLYN","NY",11233,40.6778332320001,-73.9237025959999,306,"33 KANE PLACE, BROOKLYN, NY, 11233","Match","Exact","33 KANE PL, BROOKLYN, NY, 11233",59083367,"L"
517307,"33 KEEP AVENUE","PAXTON","MA",1612,42.310655125,-71.942539316,307,"33 KEEP AVENUE, PAXTON, MA, 1612","Match","Exact","33 KEEP AVE, PAXTON, MA, 01612",611893072,"L"
517308,"33 KELLOGG AVE","AMHERST","MA",1002,42.3775755360001,-72.517996132,308,"33 KELLOGG AVE, AMHERST, MA, 1002","Match","Exact","33 KELLOGG AVE, AMHERST, MA, 01002",39855817,"R"
517309,"33 KELLOGG AVENUE 2","AMHERST","MA",1002,42.3775755360001,-72.517996132,309,"33 KELLOGG AVENUE 2, AMHERST, MA, 1002","Match","Exact","33 KELLOGG AVE, AMHERST, MA, 01002",39855817,"R"
517310,"33 KENBERMA RD APT3","DORCHESTER","MA",2124,42.2957884040001,-71.0729023549999,310,"33 KENBERMA RD APT3, DORCHESTER, MA, 2124","Match","Exact","33 KENBERMA RD, DORCHESTER, MA, 02124",85702217,"R"
517311,"33 KENFIELD CIRCLE","BLOOMINGTON","IL",61704,40.469150561,-88.939333139,311,"33 KENFIELD CIRCLE, BLOOMINGTON, IL, 61704","Match","Exact","33 KENFIELD CIR, BLOOMINGTON, IL, 61704",20579697,"R"
517312,"33 KENILWORTH ROAD","WELLESLEY","MA",2481,NA,NA,312,"33 KENILWORTH ROAD, WELLESLEY, MA, 2481","No_Match",NA,NA,NA,NA
517313,"33 KENT STREET","PORTSMOUTH","NH",3801,43.0705501140001,-70.756248839,313,"33 KENT STREET, PORTSMOUTH, NH, 3801","Match","Exact","33 KENT ST, PORTSMOUTH, NH, 03801",113667334,"L"
517314,"33 KILBURN CRES RED DEER ALBERTA","CANADA T4P3VI",NA,NA,NA,NA,314,"33 KILBURN CRES RED DEER ALBERTA, CANADA T4P3VI, , ","No_Match",NA,NA,NA,NA
517315,"33 KILROY DR","MASTIC","NY",11950,40.8159850810001,-72.857998403,315,"33 KILROY DR, MASTIC, NY, 11950","Match","Exact","33 KILROY DR, MASTIC, NY, 11950",114019767,"R"
517316,"33 KING ROAD","HIRAM","GA",30141,33.8897248220001,-84.761833705,316,"33 KING ROAD, HIRAM, GA, 30141","Match","Exact","33 KING RD, HIRAM, GA, 30141",635632463,"L"
517317,"33 KING ST","WALLACE","ID",83873,47.4712843500001,-115.932727976,317,"33 KING ST, WALLACE, ID, 83873","Match","Exact","33 KING ST, WALLACE, ID, 83873",203522370,"R"
517318,"33 KINGMAN LANE","GARNERVILLE","NY",10923,41.1995841310001,-73.993296862,318,"33 KINGMAN LANE, GARNERVILLE, NY, 10923","Match","Non_Exact","33 KINSMAN LN, GARNERVILLE, NY, 10923",124591188,"R"
517319,"33 KINGSLAND COURT","FAIR LAWN","NJ",7410,40.9411145180001,-74.126217302,319,"33 KINGSLAND COURT, FAIR LAWN, NJ, 7410","Match","Exact","33 KINGSLAND CT, FAIR LAWN, NJ, 07410",64425212,"L"
517320,"33 KINGSTON AVE","WAKEFIELD","RI",2879,41.468447859,-71.4510110379999,320,"33 KINGSTON AVE, WAKEFIELD, RI, 2879","Match","Exact","33 KINGSTON AVE, WAKEFIELD, RI, 02879",58921803,"R"
517321,"33 KINGSTON DRIVE","BELLEVILLE","IL",62223,38.580277439,-90.0670150879999,321,"33 KINGSTON DRIVE, BELLEVILLE, IL, 62223","Match","Exact","33 KINGSTON DR, BELLEVILLE, IL, 62223",107837181,"L"
517322,"33 KINGSWOOD ROAD","BRISTOL","RI",2809,41.690328939,-71.2856166449999,322,"33 KINGSWOOD ROAD, BRISTOL, RI, 2809","Match","Exact","33 KINGSWOOD RD, BRISTOL, RI, 02809",46480699,"L"
517323,"33 KINROSS DRIVE","STAFFORD","VA",22554,38.452912397,-77.4590632759999,323,"33 KINROSS DRIVE, STAFFORD, VA, 22554","Match","Exact","33 KINROSS DR, STAFFORD, VA, 22554",614124284,"L"
517324,"33 KIPLING STREET","SPRINGFIELD","MA",1118,42.1016765460001,-72.536584794,324,"33 KIPLING STREET, SPRINGFIELD, MA, 1118","Match","Exact","33 KIPLING ST, SPRINGFIELD, MA, 01118",4036766,"R"
517325,"33 KNICKERBOCKER AVE","DOVER","NJ",7801,40.8743582320001,-74.5675093099999,325,"33 KNICKERBOCKER AVE, DOVER, NJ, 7801","Match","Exact","33 KNICKERBOCKER AVE, DOVER, NJ, 07801",60436484,"R"
517326,"33 KNIGHTS BRIDGE APT F","GUILDERLAND","NY",12084,NA,NA,326,"33 KNIGHTS BRIDGE APT F, GUILDERLAND, NY, 12084","No_Match",NA,NA,NA,NA
517327,"33 KNIGHTS BRIDGE","GUILDERLAND","NY",12085,NA,NA,327,"33 KNIGHTS BRIDGE, GUILDERLAND, NY, 12085","No_Match",NA,NA,NA,NA
517328,"33 KOEBKE ROAD","DUDLEY","MA",1571,42.0758421310001,-71.958472754,328,"33 KOEBKE ROAD, DUDLEY, MA, 1571","Match","Exact","33 KOEBKE RD, DUDLEY, MA, 01571",40089284,"L"
517329,"33 KOIKOI PLACE","HAIKU","HI",96708,20.9106912620001,-156.323678623,329,"33 KOIKOI PLACE, HAIKU, HI, 96708","Match","Non_Exact","33 KOI KOI PL, HAIKU, HI, 96708",85080458,"L"
517330,"33 L STEVENS RD","CHARLTON","MA",1507,42.142965265,-71.9654875959999,330,"33 L STEVENS RD, CHARLTON, MA, 1507","Match","Exact","33 L STEVENS RD, CHARLTON, MA, 01507",40088462,"R"
517331,"33 LA VISTA DRIVE","MORGANTOWN","WV",26508,NA,NA,331,"33 LA VISTA DRIVE, MORGANTOWN, WV, 26508","No_Match",NA,NA,NA,NA
517332,"33 LAKE AVE","STATEN ISLAND","NY",10303,40.636315037,-74.150481176,332,"33 LAKE AVE, STATEN ISLAND, NY, 10303","Match","Exact","33 LAKE AVE, STATEN ISLAND, NY, 10303",59877400,"L"
517333,"33 LAKEVIEW AVENUE","WEST BROOKFIELD","MA",1585,42.2392091950001,-72.147802465,333,"33 LAKEVIEW AVENUE, WEST BROOKFIELD, MA, 1585","Match","Exact","33 LAKEVIEW AVE, W BROOKFIELD, MA, 01585",39998379,"L"
517334,"33 LAKEVIEW AVERNUE","WEST BROOKFIELD","MA",1585,NA,NA,334,"33 LAKEVIEW AVERNUE, WEST BROOKFIELD, MA, 1585","Tie",NA,NA,NA,NA
517335,"33 LAMBERT AVENUE","FREDONIA","NY",14063,42.44218191,-79.331994579,335,"33 LAMBERT AVENUE, FREDONIA, NY, 14063","Match","Exact","33 LAMBERT AVE, FREDONIA, NY, 14063",120757935,"R"
517336,"33 LAMBERTS LANE","COATESVILLE","PA",19320,39.996338892,-75.8522531959999,336,"33 LAMBERTS LANE, COATESVILLE, PA, 19320","Match","Exact","33 LAMBERTS LN, COATESVILLE, PA, 19320",179517051,"L"
517337,"33 LANDING RD UNIT 1","ENFIELD","NH",3748,43.6183844060001,-72.1447428609999,337,"33 LANDING RD UNIT 1, ENFIELD, NH, 3748","Match","Exact","33 LANDING RD, ENFIELD, NH, 03748",145693485,"L"
517338,"33 LAUGHTON STREET","UPPER MALBORO","MD",20774,38.897164715,-76.7883142809999,338,"33 LAUGHTON STREET, UPPER MALBORO, MD, 20774","Match","Non_Exact","33 LAUGHTON ST, UPPER MARLBORO, MD, 20774",76322333,"R"
517339,"33 LAUREL ROAD","KINGS PARK","NY",11754,40.8893881020001,-73.226476995,339,"33 LAUREL ROAD, KINGS PARK, NY, 11754","Match","Exact","33 LAUREL RD, KINGS PARK, NY, 11754",113980671,"L"
517340,"33 LAUREL STREET","HOLBROOK","NY",11741,40.812408142,-73.085796036,340,"33 LAUREL STREET, HOLBROOK, NY, 11741","Match","Exact","33 LAUREL ST, HOLBROOK, NY, 11741",114005949,"R"
517341,"33 LAWRENCE ST","FRAMINGHAM","MA",1702,42.2827597290001,-71.412630688,341,"33 LAWRENCE ST, FRAMINGHAM, MA, 1702","Match","Exact","33 LAWRENCE ST, FRAMINGHAM, MA, 01702",86850244,"R"
517342,"33 LAYTON DR","CANTERBURY","NY",3224,NA,NA,342,"33 LAYTON DR, CANTERBURY, NY, 3224","No_Match",NA,NA,NA,NA
517343,"33 LAYTON DRIVE","CANTERBURY","NH",3224,43.302506839,-71.5769624069999,343,"33 LAYTON DRIVE, CANTERBURY, NH, 3224","Match","Exact","33 LAYTON DR, CANTERBURY, NH, 03224",117750363,"R"
517344,"33 LEDGEWOOD DRIVE","COHASSET","MA",2025,42.2232148630001,-70.795148199,344,"33 LEDGEWOOD DRIVE, COHASSET, MA, 2025","Match","Exact","33 LEDGEWOOD DR, COHASSET, MA, 02025",87298875,"R"
517345,"33 LEDGEWOOD DRIVE","SCITUATE","MA",2066,NA,NA,345,"33 LEDGEWOOD DRIVE, SCITUATE, MA, 2066","No_Match",NA,NA,NA,NA
517346,"33 LEICESTER STREET","BROOKLINE","MA",2445,42.328719205,-71.1404653019999,346,"33 LEICESTER STREET, BROOKLINE, MA, 2445","Match","Exact","33 LEICESTER ST, BROOKLINE, MA, 02445",87245081,"R"
517347,"33 LELAND AVENUE","PLEASANTVILLE","NY",10570,41.1336873280001,-73.77020369,347,"33 LELAND AVENUE, PLEASANTVILLE, NY, 10570","Match","Exact","33 LELAND AVE, PLEASANTVILLE, NY, 10570",139736597,"R"
517348,"33 LENOX AVE","CONGERS","NY",10920,41.1443373590001,-73.934125072,348,"33 LENOX AVE, CONGERS, NY, 10920","Match","Exact","33 LENOX AVE, CONGERS, NY, 10920",124597905,"L"
517349,"33 LESLIE WAY","HAMLIN","WV",25523,38.309255342,-82.04975394,349,"33 LESLIE WAY, HAMLIN, WV, 25523","Match","Exact","33 LESLIE WAY, HAMLIN, WV, 25523",652130267,"L"
517350,"33 LEXINGTON ST","HAMDEN","CT",6514,41.3508364050001,-72.9329261619999,350,"33 LEXINGTON ST, HAMDEN, CT, 6514","Match","Exact","33 LEXINGTON ST, HAMDEN, CT, 06514",3698703,"R"
517351,"33 LEYDEN ST","PLYMOUTH","MA",2360,41.9562561210001,-70.6629305279999,351,"33 LEYDEN ST, PLYMOUTH, MA, 2360","Match","Exact","33 LEYDEN ST, PLYMOUTH, MA, 02360",87472573,"L"
517352,"33 LIBERTY STREET","NEW YORK","NY",10550,40.7085479770001,-74.0092753389999,352,"33 LIBERTY STREET, NEW YORK, NY, 10550","Match","Non_Exact","33 LIBERTY ST, NEW YORK, NY, 10045",59659650,"R"
517353,"33 LIGHTHOUSE DRIVE","GOOSE CREEK","SC",29445,32.969382103,-80.016957909,353,"33 LIGHTHOUSE DRIVE, GOOSE CREEK, SC, 29445","Match","Exact","33 LIGHTHOUSE DR, GOOSE CREEK, SC, 29445",100747259,"R"
517354,"33 LIGHTHOUSE WAY","NEWPORT NEWS","VA",23606,37.082275672,-76.471879907,354,"33 LIGHTHOUSE WAY, NEWPORT NEWS, VA, 23606","Match","Exact","33 LIGHTHOUSE WAY, NEWPORT NEWS, VA, 23606",103770854,"L"
517355,"33 LIMERICK LANE","FAIRMONT","WV",26554,39.4692289120001,-80.1149008579999,355,"33 LIMERICK LANE, FAIRMONT, WV, 26554","Match","Exact","33 LIMERICK LN, FAIRMONT, WV, 26554",635746924,"L"
517356,"33 LINCOLN AVE","LAKE HIAWATHA","NJ",7034,40.8787030820001,-74.385649652,356,"33 LINCOLN AVE, LAKE HIAWATHA, NJ, 7034","Match","Exact","33 LINCOLN AVE, LAKE HIAWATHA, NJ, 07034",60446159,"L"
517357,"33 LINCOLN AVE","NEW ROCHELLE","NY",10801,40.9175724730001,-73.7875180779999,357,"33 LINCOLN AVE, NEW ROCHELLE, NY, 10801","Match","Exact","33 LINCOLN AVE, NEW ROCHELLE, NY, 10801",139842788,"R"
517358,"33 LINCOLN DRIVE","NORTH SMITHFIELD","RI",2896,42.006998299,-71.544747221,358,"33 LINCOLN DRIVE, NORTH SMITHFIELD, RI, 2896","Match","Exact","33 LINCOLN DR, NORTH SMITHFIELD, RI, 02896",47486300,"L"
517359,"33 LINCOLN ROAD APARTMENT 5C","BROOKLYN","NY",11225,40.660710093,-73.9618354409999,359,"33 LINCOLN ROAD APARTMENT 5C, BROOKLYN, NY, 11225","Match","Exact","33 LINCOLN RD, BROOKLYN, NY, 11225",59078538,"L"
517360,"33 LINCOLN ST","LYNN","MA",1902,42.4697006110001,-70.938210533,360,"33 LINCOLN ST, LYNN, MA, 1902","Match","Exact","33 LINCOLN ST, LYNN, MA, 01902",653270787,"R"
517361,"33 LINDELL AVE","LEOMINSTER","MA",1453,42.544218965,-71.761427753,361,"33 LINDELL AVE, LEOMINSTER, MA, 1453","Match","Exact","33 LINDELL AVE, LEOMINSTER, MA, 01453",40095676,"R"
517362,"33 LINVIEW TERRACE","BUFFALO","NY",14216,42.944936345,-78.858491058,362,"33 LINVIEW TERRACE, BUFFALO, NY, 14216","Match","Exact","33 LINVIEW TER, BUFFALO, NY, 14216",48289514,"R"
517363,"33 LIVERY POOL ROAD","NEW HARTFORD","CT",6057,41.8888363140001,-72.974820767,363,"33 LIVERY POOL ROAD, NEW HARTFORD, CT, 6057","Match","Exact","33 LIVERY POOL RD, NEW HARTFORD, CT, 06057",3113211,"L"
517364,"33 LOCHLEVEN","RICHARDSON","TX",75082,32.985410469,-96.622348404,364,"33 LOCHLEVEN, RICHARDSON, TX, 75082","Match","Exact","33 LOCHLEVEN, RICHARDSON, TX, 75082",210509998,"L"
517365,"33 LOCUST LN","FLORENCE","KY",41042,38.992784586,-84.622600894,365,"33 LOCUST LN, FLORENCE, KY, 41042","Match","Exact","33 LOCUST LN, FLORENCE, KY, 41042",81952608,"R"
517366,"33 LOGAN AVE APT 312","STATE COLLEGE","PA",16801,NA,NA,366,"33 LOGAN AVE APT 312, STATE COLLEGE, PA, 16801","No_Match",NA,NA,NA,NA
517367,"33 LONDON DRIVE","EAST BRUNSWICK","NJ",8816,40.4326388740001,-74.3679510819999,367,"33 LONDON DRIVE, EAST BRUNSWICK, NJ, 8816","Match","Exact","33 LONDON DR, E BRUNSWICK, NJ, 08816",60343789,"L"
517368,"33 LONGFELLOW ST NW","WASHINGTON","DC",20011,38.957666714,-77.0099575309999,368,"33 LONGFELLOW ST NW, WASHINGTON, DC, 20011","Match","Exact","33 LONGFELLOW ST NW, WASHINGTON, DC, 20011",76223752,"R"
517369,"33 LONO AVE","KAHULUI","HI",96732,20.889621967,-156.469863855,369,"33 LONO AVE, KAHULUI, HI, 96732","Match","Exact","33 LONO AVE, KAHULUI, HI, 96732",647461644,"R"
517370,"33 LONO AVENUE NO 400","KAHULUI","HI",96732,20.889621967,-156.469863855,370,"33 LONO AVENUE NO 400, KAHULUI, HI, 96732","Match","Non_Exact","33 LONO AVE, KAHULUI, HI, 96732",647461644,"R"
517371,"33 LONO SUITE","KAHULUI","HI",96732,20.889621967,-156.469863855,371,"33 LONO SUITE, KAHULUI, HI, 96732","Match","Non_Exact","33 LONO AVE, KAHULUI, HI, 96732",647461644,"R"
517372,"33 LOUDOUN ST","YONKERS","NY",10705,40.914548559,-73.8910569779999,372,"33 LOUDOUN ST, YONKERS, NY, 10705","Match","Exact","33 LOUDOUN ST, YONKERS, NY, 10705",139744021,"L"
517373,"33 LOUDOUN STREET APT 1G","YONKERS","NY",10705,40.914548559,-73.8910569779999,373,"33 LOUDOUN STREET APT 1G, YONKERS, NY, 10705","Match","Exact","33 LOUDOUN ST, YONKERS, NY, 10705",139744021,"L"
517374,"33 LOVELAND DR","ELKTON","MD",21921,39.688221223,-75.884308635,374,"33 LOVELAND DR, ELKTON, MD, 21921","Match","Exact","33 LOVELAND DR, ELKTON, MD, 21921",207857783,"R"
517375,"33 LOWER FARM ROAD","SOUTH KINGSTOWN","RI",2879,41.378987904,-71.553446751,375,"33 LOWER FARM ROAD, SOUTH KINGSTOWN, RI, 2879","Match","Exact","33 LOWER FARM RD, SOUTH KINGSTOWN, RI, 02879",58902333,"R"
517376,"33 LUPTON AVE","WOODBURY","NJ",8096,39.8386971560001,-75.1559329849999,376,"33 LUPTON AVE, WOODBURY, NJ, 8096","Match","Exact","33 LUPTON AVE, WOODBURY, NJ, 08096",134583215,"R"
517377,"33 LYNCROFT RD","NEW ROCHELLE","NY",10804,40.937981565,-73.786547857,377,"33 LYNCROFT RD, NEW ROCHELLE, NY, 10804","Match","Exact","33 LYNCROFT RD, NEW ROCHELLE, NY, 10804",139807249,"R"
517378,"33 MADISON AVE","PISCATAWAY","NJ",8854,40.5458784830001,-74.4320740539999,378,"33 MADISON AVE, PISCATAWAY, NJ, 8854","Match","Exact","33 MADISON AVE, PISCATAWAY, NJ, 08854",60265227,"L"
517379,"33 MADISON STREET","CHATTAHAOOCHEE","FL",32324,30.704047992,-84.844764859,379,"33 MADISON STREET, CHATTAHAOOCHEE, FL, 32324","Match","Non_Exact","33 MADISON ST, CHATTAHOOCHEE, FL, 32324",87829992,"R"
517380,"33 MADOC STREET","NEWTON","MA",2459,42.325135629,-71.1859480419999,380,"33 MADOC STREET, NEWTON, MA, 2459","Match","Exact","33 MADOC ST, NEWTON, MA, 02459",87093035,"R"
517381,"33 MAGNOLIA LANE","GROTON","MA",1450,42.6350902830001,-71.639062538,381,"33 MAGNOLIA LANE, GROTON, MA, 1450","Match","Exact","33 MAGNOLIA LN, GROTON, MA, 01450",625169700,"L"
517382,"33 MAGUE AVE","NEWTON","MA",2465,42.3548144260001,-71.23274073,382,"33 MAGUE AVE, NEWTON, MA, 2465","Match","Exact","33 MAGUE AVE, NEWTON, MA, 02465",624190488,"L"
517383,"33 MAHAN LN","ELMWOOD","TN",38560,36.287960798,-85.862058227,383,"33 MAHAN LN, ELMWOOD, TN, 38560","Match","Exact","33 MAHAN LN, ELMWOOD, TN, 38560",634001063,"R"
517384,"33 MAIN ST","SUMNER","ME",4292,44.356668062,-70.377382111,384,"33 MAIN ST, SUMNER, ME, 4292","Match","Exact","33 MAIN ST, SUMNER, ME, 04292",92658707,"R"
517385,"33 MAIN ST","VINCENTOWN","NJ",8088,39.9379416240001,-74.751174571,385,"33 MAIN ST, VINCENTOWN, NJ, 8088","Match","Exact","33 MAIN ST, VINCENTOWN, NJ, 08088",134041407,"L"
517386,"33 MAIN STREET","LITTLETON","NH",3561,44.306189583,-71.770779983,386,"33 MAIN STREET, LITTLETON, NH, 3561","Match","Exact","33 MAIN ST, LITTLETON, NH, 03561",145700006,"L"
517387,"33 MAKO CHI MNI","OGALLALA","NE",69153,41.2076071430001,-101.76692254,387,"33 MAKO CHI MNI, OGALLALA, NE, 69153","Match","Non_Exact","33 MAKOCHMNI, OGALLALA, NE, 69153",150961458,"R"
517388,"33 MALLARD PLACE","SEACAUCUS","NJ",7094,40.800724012,-74.064220467,388,"33 MALLARD PLACE, SEACAUCUS, NJ, 7094","Match","Non_Exact","33 MALLARD PL, SECAUCUS, NJ, 07094",633370504,"L"
517389,"33 MANOMET AVENUE","HULL","MA",2045,42.2817070080001,-70.86926433,389,"33 MANOMET AVENUE, HULL, MA, 2045","Match","Exact","33 MANOMET AVE, HULL, MA, 02045",87429869,"R"
517390,"33 MANOR WOODS ROAD","RANGELEY","ME",4970,44.9633165590001,-70.662880543,390,"33 MANOR WOODS ROAD, RANGELEY, ME, 4970","Match","Exact","33 MANOR WOODS RD, RANGELEY, ME, 04970",611659401,"R"
517391,"33 MANSE STREET","WASHINGTON","PA",15301,40.155995664,-80.210971031,391,"33 MANSE STREET, WASHINGTON, PA, 15301","Match","Exact","33 MANSE ST, WASHINGTON, PA, 15301",52804777,"L"
517392,"33 MAPLE AVE","NEWTON","NH",3858,42.8805661120001,-71.018766887,392,"33 MAPLE AVE, NEWTON, NH, 3858","Match","Exact","33 MAPLE AVE, NEWTON, NH, 03858",615841046,"L"
517393,"33 MAPLE AVENUE","CHESTER","MA",1011,42.278726154,-72.978702165,393,"33 MAPLE AVENUE, CHESTER, MA, 1011","Match","Exact","33 MAPLE AVE, CHESTER, MA, 01011",4012692,"R"
517394,"33 MAPLE ROAD","MAHWAH","NJ",7430,41.119581356,-74.184333512,394,"33 MAPLE ROAD, MAHWAH, NJ, 7430","Match","Exact","33 MAPLE RD, MAHWAH, NJ, 07430",64399906,"R"
517395,"33 MAPLE ST 2ND FLOOR","KEARNY","NJ",7032,40.7540134010001,-74.1575262489999,395,"33 MAPLE ST 2ND FLOOR, KEARNY, NJ, 7032","Match","Exact","33 MAPLE ST, KEARNY, NJ, 07032",59600953,"L"
517396,"33 MARBLE SANDS","NEWPORT BEACH","CA",92660,33.6310487440001,-117.852501151,396,"33 MARBLE SANDS, NEWPORT BEACH, CA, 92660","Match","Exact","33 MARBLE SANDS, NEWPORT BEACH, CA, 92660",144402461,"L"
517397,"33 MARCIA LANE","NEW CITY","NY",10956,41.1494961500001,-73.98008714,397,"33 MARCIA LANE, NEW CITY, NY, 10956","Match","Exact","33 MARCIA LN, NEW CITY, NY, 10956",124597342,"L"
517398,"33 MARGATE AVE","BEESLEYS POINT","NJ",8223,39.272828125,-74.638105729,398,"33 MARGATE AVE, BEESLEYS POINT, NJ, 8223","Match","Non_Exact","33 MARGATE AVE, MARMORA, NJ, 08223",174342044,"L"
517399,"33 MARIE STREET","NEW HAVEN","CT",6513,41.3096914870001,-72.87321958,399,"33 MARIE STREET, NEW HAVEN, CT, 6513","Match","Exact","33 MARIE ST, NEW HAVEN, CT, 06513",3704392,"R"
517400,"33 MARION LANE","OTEGO","NY",13825,42.3831670640001,-75.193517721,400,"33 MARION LANE, OTEGO, NY, 13825","Match","Exact","33 MARION LN, OTEGO, NY, 13825",624735885,"L"
517401,"33 MARKET POINT DRIVE","GREENVILLE","SC",29607,34.822930838,-82.3006792909999,401,"33 MARKET POINT DRIVE, GREENVILLE, SC, 29607","Match","Exact","33 MARKET POINT DR, GREENVILLE, SC, 29607",38375785,"R"
517402,"33 MARSEILLE","LAGUNA NIGUE","CA",92677,33.5102509610001,-117.733185776,402,"33 MARSEILLE, LAGUNA NIGUE, CA, 92677","Match","Non_Exact","33 MARSEILLE, LAGUNA NIGUEL, CA, 92677",640214511,"R"
517403,"33 MARSEILLE","LAGUNA NIGUEL","CA",92677,33.5102509610001,-117.733185776,403,"33 MARSEILLE, LAGUNA NIGUEL, CA, 92677","Match","Exact","33 MARSEILLE, LAGUNA NIGUEL, CA, 92677",640214511,"R"
517404,"33 MARSHBROOK COURT","HOPKINS","SC",29061,33.9573770440001,-80.819861701,404,"33 MARSHBROOK COURT, HOPKINS, SC, 29061","Match","Exact","33 MARSHBROOK CT, HOPKINS, SC, 29061",632476919,"L"
517405,"33 MARSTEN LANE UNIT 152","ENFIELD","NH",3748,43.6048023020001,-72.131973,405,"33 MARSTEN LANE UNIT 152, ENFIELD, NH, 3748","Match","Exact","33 MARSTEN LN, ENFIELD, NH, 03748",145699239,"L"
517406,"33 MARY AVE","LEOMINSTER","MA",1453,42.5625182970001,-71.744962001,406,"33 MARY AVE, LEOMINSTER, MA, 1453","Match","Exact","33 MARY AVE, LEOMINSTER, MA, 01453",638526016,"R"
517407,"33 MARY CT","IOWA CITY","IA",52245,41.6597237280001,-91.4779494319999,407,"33 MARY CT, IOWA CITY, IA, 52245","Match","Exact","33 MARY CT, IOWA CITY, IA, 52245",84511994,"R"
517408,"33 MASSACHUSETTS AVE","MIDDLETOWN","RI",2842,41.5140895330001,-71.3035542699999,408,"33 MASSACHUSETTS AVE, MIDDLETOWN, RI, 2842","Match","Exact","33 MASSACHUSETTS AVE, MIDDLETOWN, RI, 02842",47357604,"R"
517409,"33 MATEKJO ST","BUFFALO","NY",14206,NA,NA,409,"33 MATEKJO ST, BUFFALO, NY, 14206","No_Match",NA,NA,NA,NA
517410,"33 MAXWELL ST","ALBANY","NY",12208,42.6553070670001,-73.812510722,410,"33 MAXWELL ST, ALBANY, NY, 12208","Match","Exact","33 MAXWELL ST, ALBANY, NY, 12208",18307865,"R"
517411,"33 MAYER COURT","LOS ALTOS","CA",94022,37.381913895,-122.099740393,411,"33 MAYER COURT, LOS ALTOS, CA, 94022","Match","Exact","33 MAYER CT, LOS ALTOS, CA, 94022",122954436,"L"
517412,"33 MC DONALD RD","HOGANSBURG","NY",13655,44.9974960170001,-74.6033228109999,412,"33 MC DONALD RD, HOGANSBURG, NY, 13655","Match","Non_Exact","33 MCDONALD RD, HOGANSBURG, NY, 13655",173854513,"L"
517413,"33 MCGREGOR DRIVE","SHERBORN","MA",1770,42.2482983890001,-71.397039073,413,"33 MCGREGOR DRIVE, SHERBORN, MA, 1770","Match","Exact","33 MCGREGOR DR, SHERBORN, MA, 01770",86851019,"L"
517414,"33 MCINTOSH STREET","LIVERPOOL","NY",13090,43.1369363410001,-76.210983309,414,"33 MCINTOSH STREET, LIVERPOOL, NY, 13090","Match","Exact","33 MCINTOSH ST, LIVERPOOL, NY, 13090",46563076,"L"
517415,"33 MCKEAN ST","GOUVERNEUR","NY",13642,44.3310696,-75.477009998,415,"33 MCKEAN ST, GOUVERNEUR, NY, 13642","Match","Exact","33 MCKEAN ST, GOUVERNEUR, NY, 13642",155170520,"L"
517416,"33 MCKINLEY CT","PHILLIPSBURG","MT",59858,46.386993438,-113.424728075,416,"33 MCKINLEY CT, PHILLIPSBURG, MT, 59858","Match","Non_Exact","33 MC KINLEY CT, PHILIPSBURG, MT, 59858",640941450,"L"
517417,"33 MCMURTRY CT","ALAMEDA","CA",94502,NA,NA,417,"33 MCMURTRY CT, ALAMEDA, CA, 94502","No_Match",NA,NA,NA,NA
517418,"33 MEADER ROAD","GREENWICH","NY",12834,43.1031598800001,-73.510033897,418,"33 MEADER ROAD, GREENWICH, NY, 12834","Match","Exact","33 MEADER RD, GREENWICH, NY, 12834",636440534,"L"
517419,"33 MECHANIC STREET","ROCKPORT","ME",4856,44.1852034990001,-69.070282761,419,"33 MECHANIC STREET, ROCKPORT, ME, 4856","Match","Exact","33 MECHANIC ST, ROCKPORT, ME, 04856",75547802,"L"
517420,"33 MELBORNE DR","BELLA VISTA","AR",72714,36.4961165390001,-94.22849726,420,"33 MELBORNE DR, BELLA VISTA, AR, 72714","Match","Non_Exact","33 MELBOURN DR, BELLA VISTA, AR, 72714",47822352,"L"
517421,"33 MESERO WAY","HOT SPRINGS VILLAGE","AR",71909,34.684575323,-92.945604392,421,"33 MESERO WAY, HOT SPRINGS VILLAGE, AR, 71909","Match","Exact","33 MESERO WAY, HOT SPRINGS VILLAGE, AR, 71909",639931851,"L"
517422,"33 MICKLE DR","STONE RIDGE","NY",12484,41.8511582890001,-74.1656683539999,422,"33 MICKLE DR, STONE RIDGE, NY, 12484","Match","Exact","33 MICKLE DR, STONE RIDGE, NY, 12484",41884769,"R"
517423,"33 MIDDLE RD","HORSEHEADS","NY",14845,42.1954237830001,-76.816510421,423,"33 MIDDLE RD, HORSEHEADS, NY, 14845","Match","Exact","33 MIDDLE RD, HORSEHEADS, NY, 14845",18531141,"R"
517424,"33 MIDGELY CIRCLE","N. GRAFTON","MA",1536,42.225433319,-71.693609685,424,"33 MIDGELY CIRCLE, N. GRAFTON, MA, 1536","Match","Non_Exact","33 MIDGLEY CIR, NORTH GRAFTON, MA, 01536",40115052,"R"
517425,"33 MILL ST","RANDOLPH","MA",2368,42.1654859230001,-71.0373121709999,425,"33 MILL ST, RANDOLPH, MA, 2368","Match","Exact","33 MILL ST, RANDOLPH, MA, 02368",87272070,"L"
517426,"33 MILLBROOK DRIVE","ROCKLAND","MA",2370,42.094828304,-70.9012621429999,426,"33 MILLBROOK DRIVE, ROCKLAND, MA, 2370","Match","Exact","33 MILLBROOK DR, ROCKLAND, MA, 02370",87465451,"R"
517427,"33 MILLER RD","LAKE ZURICH","IL",60047,42.2120201930001,-88.105419879,427,"33 MILLER RD, LAKE ZURICH, IL, 60047","Match","Exact","33 MILLER RD, LAKE ZURICH, IL, 60047",119663923,"R"
517428,"33 MINUTEMAN DRIVE","SCARBOROUGH","ME",4074,43.5821973380001,-70.296294571,428,"33 MINUTEMAN DRIVE, SCARBOROUGH, ME, 4074","Match","Exact","33 MINUTEMAN DR, SCARBOROUGH, ME, 04074",78068502,"L"
517429,"33 MISSION DRIVE","NEW BRAUNFELS","TX",78130,29.70869565,-98.153387987,429,"33 MISSION DRIVE, NEW BRAUNFELS, TX, 78130","Match","Exact","33 MISSION DR, NEW BRAUNFELS, TX, 78130",72244710,"L"
517430,"33 MISTY BROOK LN","NEW FAIRFIELD","CT",6812,41.5249322070001,-73.467802268,430,"33 MISTY BROOK LN, NEW FAIRFIELD, CT, 6812","Match","Exact","33 MISTY BROOK LN, NEW FAIRFIELD, CT, 06812",637502089,"L"
517431,"33 MITCHELL ROAD","HACKETTSTOWN","NJ",7840,40.839451421,-74.829314961,431,"33 MITCHELL ROAD, HACKETTSTOWN, NJ, 7840","Match","Exact","33 MITCHELL RD, HACKETTSTOWN, NJ, 07840",98096425,"R"
517432,"33 MONROE STREET APT D","MILFORD","CT",6460,41.1967870300001,-73.084013403,432,"33 MONROE STREET APT D, MILFORD, CT, 6460","Match","Exact","33 MONROE ST, MILFORD, CT, 06460",3714205,"R"
517433,"33 MONTGOMERY STREET","HOLYOKE","MA",1040,42.2285436610001,-72.62738409,433,"33 MONTGOMERY STREET, HOLYOKE, MA, 1040","Match","Non_Exact","33 MONTGOMERY AVE, HOLYOKE, MA, 01040",4016845,"R"
517434,"33 MONTREAL ST","PORTLAND","ME",4101,43.6695169860001,-70.249678548,434,"33 MONTREAL ST, PORTLAND, ME, 4101","Match","Exact","33 MONTREAL ST, PORTLAND, ME, 04101",78028438,"R"
517435,"33 MOORE STREET APARTMENT 3","STAMFORD","CT",6902,41.050304537,-73.557170503,435,"33 MOORE STREET APARTMENT 3, STAMFORD, CT, 6902","Match","Exact","33 MOORE ST, STAMFORD, CT, 06902",3244771,"R"
517436,"33 MOORING BUOY","HILTON HEAD ISLAND","SC",29928,32.1712301000001,-80.715021588,436,"33 MOORING BUOY, HILTON HEAD ISLAND, SC, 29928","Match","Exact","33 MOORING BUOY, HILTON HEAD ISLAND, SC, 29928",87616271,"L"
517437,"33 MORNING GLORY DRIVE","WINFIELD","WV",25213,NA,NA,437,"33 MORNING GLORY DRIVE, WINFIELD, WV, 25213","No_Match",NA,NA,NA,NA
517438,"33 MORNINGSIDE RD","VERONA","NJ",7044,40.826294573,-74.252299196,438,"33 MORNINGSIDE RD, VERONA, NJ, 7044","Match","Exact","33 MORNINGSIDE RD, VERONA, NJ, 07044",63483272,"L"
517439,"33 MORNINGSIDE ROAD","VERONA","NJ",7044,40.826294573,-74.252299196,439,"33 MORNINGSIDE ROAD, VERONA, NJ, 7044","Match","Exact","33 MORNINGSIDE RD, VERONA, NJ, 07044",63483272,"L"
517440,"33 MOUNT PLEASANT PARKWAY","LIVINGSTON","NJ",7039,40.7933138080001,-74.323425313,440,"33 MOUNT PLEASANT PARKWAY, LIVINGSTON, NJ, 7039","Match","Exact","33 MOUNT PLEASANT PKWY, LIVINGSTON, NJ, 07039",63457998,"L"
517441,"33 MOUNT PROSPECT AVENUE","CLIFTON","NJ",7013,40.8654512690001,-74.1532683299999,441,"33 MOUNT PROSPECT AVENUE, CLIFTON, NJ, 7013","Match","Exact","33 MOUNT PROSPECT AVE, CLIFTON, NJ, 07013",65250747,"L"
517442,"33 MOUNTAIN AVENUE","FITCHBURG","MA",1420,42.5750384680001,-71.797715857,442,"33 MOUNTAIN AVENUE, FITCHBURG, MA, 1420","Match","Exact","33 MOUNTAIN AVE, FITCHBURG, MA, 01420",40028267,"L"
517443,"33 MOUNTAIN VIEW ST","SMITHFIELD","PA",15478,39.79778558,-79.809076725,443,"33 MOUNTAIN VIEW ST, SMITHFIELD, PA, 15478","Match","Exact","33 MOUNTAIN VIEW ST, SMITHFIELD, PA, 15478",613529235,"L"
517444,"33 MOWBRAY ST","PATCHOGUE","NY",11772,40.774366453,-73.029716938,444,"33 MOWBRAY ST, PATCHOGUE, NY, 11772","Match","Exact","33 MOWBRAY ST, PATCHOGUE, NY, 11772",114009185,"R"
517445,"33 MT PLEASANT TPKE","DENVILLE","NJ",7834,40.868053656,-74.514664447,445,"33 MT PLEASANT TPKE, DENVILLE, NJ, 7834","Match","Exact","33 MOUNT PLEASANT TPKE, DENVILLE, NJ, 07834",60439543,"R"
517446,"33 MURRAY LAKE DR","WINCHESTER","TN",37398,35.2227060060001,-86.132537855,446,"33 MURRAY LAKE DR, WINCHESTER, TN, 37398","Match","Exact","33 MURRAY LAKE DR, WINCHESTER, TN, 37398",57970061,"L"
517447,"33 MUSIC SQUARE W STE 102B","NASHVILLE","TN",37203,36.1495185430001,-86.7933151669999,447,"33 MUSIC SQUARE W STE 102B, NASHVILLE, TN, 37203","Match","Exact","33 MUSIC SQ W, NASHVILLE, TN, 37203",97186342,"R"
517448,"33 MUSTANG RD","PLACITAS","NM",87043,35.3373709190001,-106.446017607,448,"33 MUSTANG RD, PLACITAS, NM, 87043","Match","Exact","33 MUSTANG RD, PLACITAS, NM, 87043",611358881,"R"
517449,"33 N 3RD ST","PHILADELPHIA","PA",19106,39.9512357290001,-75.145427365,449,"33 N 3RD ST, PHILADELPHIA, PA, 19106","Match","Exact","33 N 3RD ST, PHILADELPHIA, PA, 19106",131424573,"R"
517450,"33 N 3RD STREET","COLUMBUS","OH",43215,39.963552614,-82.9981828479999,450,"33 N 3RD STREET, COLUMBUS, OH, 43215","Match","Exact","33 N 3RD ST, COLUMBUS, OH, 43215",135576094,"L"
517451,"33 N ALLEGANY ROAD","GRAYSLAKE","IL",60030,NA,NA,451,"33 N ALLEGANY ROAD, GRAYSLAKE, IL, 60030","No_Match",NA,NA,NA,NA
517452,"33 N CAMDEN DR SUITE 600","BEVERLY HILLS","CA",90210,NA,NA,452,"33 N CAMDEN DR SUITE 600, BEVERLY HILLS, CA, 90210","No_Match",NA,NA,NA,NA
517453,"33 N CHESTNUT STREET","CORTEZ","CO",81321,37.348994073,-108.586536359,453,"33 N CHESTNUT STREET, CORTEZ, CO, 81321","Match","Exact","33 N CHESTNUT ST, CORTEZ, CO, 81321",91765915,"L"
517454,"33 N COLEMAN RD","CENTEREACH","NY",11720,40.863806477,-73.065294389,454,"33 N COLEMAN RD, CENTEREACH, NY, 11720","Match","Exact","33 N COLEMAN RD, CENTEREACH, NY, 11720",114002396,"R"
517455,"33 N DEARBORN ST STE 300","CHICAGO","IL",60602,41.882736472,-87.6294159239999,455,"33 N DEARBORN ST STE 300, CHICAGO, IL, 60602","Match","Non_Exact","33 N DEARBORN ST, CHICAGO, IL, 60602",111768772,"R"
517456,"33 N FIRST STREET STE 1","ASHLAND","OR",97520,NA,NA,456,"33 N FIRST STREET STE 1, ASHLAND, OR, 97520","Tie",NA,NA,NA,NA
517457,"33 N GROVE ST","BERLIN","NJ",8009,39.7156608120001,-74.910954378,457,"33 N GROVE ST, BERLIN, NJ, 8009","Match","Exact","33 N GROVE ST, BERLIN, NJ, 08009",651867255,"R"
517458,"33 N LAKESHORE BLVD","LAKE WALES","FL",33853,27.9017330080001,-81.581212148,458,"33 N LAKESHORE BLVD, LAKE WALES, FL, 33853","Match","Exact","33 N LAKESHORE BLVD, LAKE WALES, FL, 33853",104832139,"R"
517459,"33 N MCELHANEY LANE","MOAB","UT",84532,NA,NA,459,"33 N MCELHANEY LANE, MOAB, UT, 84532","Tie",NA,NA,NA,NA
517460,"33 N OXFORD STREET APT 4","BROOKLYN","NY",11205,40.697425771,-73.975668317,460,"33 N OXFORD STREET APT 4, BROOKLYN, NY, 11205","Match","Non_Exact","33 N OXFORD ST, BROOKLYN, NY, 11205",59077484,"L"
517461,"33 N RIDGEVIEW DR","INDIANAPOLIS","IN",46201,39.772199647,-86.057500727,461,"33 N RIDGEVIEW DR, INDIANAPOLIS, IN, 46201","Match","Non_Exact","33 N RIDGEVIEW DR, INDIANAPOLIS, IN, 46219",108003358,"R"
517462,"33 N STREET NE","WASHINGTON DC","DC",20002,38.9072343020001,-77.007533785,462,"33 N STREET NE, WASHINGTON DC, DC, 20002","Match","Exact","33 N ST NE, WASHINGTON, DC, 20002",76243042,"R"
517463,"33 N STREET NW","WASHINGTON","DC",20005,38.90724328,-77.010623326,463,"33 N STREET NW, WASHINGTON, DC, 20005","Match","Non_Exact","33 N ST NW, WASHINGTON, DC, 20001",76243039,"R"
517464,"33 N THOMPSON STREET","NEW BUFFALO","MI",49117,41.7949395140001,-86.742833022,464,"33 N THOMPSON STREET, NEW BUFFALO, MI, 49117","Match","Exact","33 N THOMPSON ST, NEW BUFFALO, MI, 49117",119969727,"L"
517465,"33 N WEISS ST","MANVILLE","NJ",8835,40.54083831,-74.585444238,465,"33 N WEISS ST, MANVILLE, NJ, 8835","Match","Exact","33 N WEISS ST, MANVILLE, NJ, 08835",59939636,"L"
517466,"33 N WEST ST","ALLENTOWN","PA",18102,40.5978425710001,-75.4916291549999,466,"33 N WEST ST, ALLENTOWN, PA, 18102","Match","Exact","33 N WEST ST, ALLENTOWN, PA, 18102",80769482,"R"
517467,"33 NADEAU RD","HALFMOON","NY",12065,42.853120098,-73.743109493,467,"33 NADEAU RD, HALFMOON, NY, 12065","Match","Exact","33 NADEAU RD, HALFMOON, NY, 12065",18790510,"R"
517468,"33 NANTUCKET LN","ST. LOUIS","MO",63132,38.662806948,-90.391889185,468,"33 NANTUCKET LN, ST. LOUIS, MO, 63132","Match","Exact","33 NANTUCKET LN, SAINT LOUIS, MO, 63132",100194632,"L"
517469,"33 NASON ROAD","HIGGANUM","CT",6441,41.485482017,-72.5808533969999,469,"33 NASON ROAD, HIGGANUM, CT, 6441","Match","Exact","33 NASON RD, HIGGANUM, CT, 06441",635612503,"L"
517470,"33 NASSAU","WEST DEPTFORD","NJ",8096,39.8099310060001,-75.168419231,470,"33 NASSAU, WEST DEPTFORD, NJ, 8096","Match","Non_Exact","33 NASSAU AVE, WEST DEPTFORD, NJ, 08096",134582320,"L"
517471,"33 NATHAN HALE COURT","CHESHIRE","CT",6410,41.5501937860001,-72.954525259,471,"33 NATHAN HALE COURT, CHESHIRE, CT, 6410","Match","Exact","33 NATHAN HALE CT, CHESHIRE, CT, 06410",3751842,"R"
517472,"33 NATHAN HALE CT","CHESHIRE","CT",6410,41.5501937860001,-72.954525259,472,"33 NATHAN HALE CT, CHESHIRE, CT, 6410","Match","Exact","33 NATHAN HALE CT, CHESHIRE, CT, 06410",3751842,"R"
517473,"33 NATURE TRAIL","COLUMBUS","MS",39702,33.4828133660001,-88.2852928359999,473,"33 NATURE TRAIL, COLUMBUS, MS, 39702","Match","Exact","33 NATURE TRL, COLUMBUS, MS, 39702",756620,"L"
517474,"33 NETTLECREEK RD","FAIRPORT","NY",14450,43.0828101020001,-77.452977532,474,"33 NETTLECREEK RD, FAIRPORT, NY, 14450","Match","Exact","33 NETTLECREEK RD, FAIRPORT, NY, 14450",14548028,"R"
517475,"33 NEW SCOTLAND AVE","ALBANY","NY",12208,42.653423344,-73.773689959,475,"33 NEW SCOTLAND AVE, ALBANY, NY, 12208","Match","Exact","33 NEW SCOTLAND AVE, ALBANY, NY, 12208",18310127,"R"
517476,"33 NEWBURY DRIVE","WESTERLY","RI",2891,41.337547326,-71.805628676,476,"33 NEWBURY DRIVE, WESTERLY, RI, 2891","Match","Exact","33 NEWBURY DR, WESTERLY, RI, 02891",652124289,"L"
517477,"33 NEWMAN WAY","ARLINGTON","MA",2476,42.416228371,-71.1608307069999,477,"33 NEWMAN WAY, ARLINGTON, MA, 2476","Match","Exact","33 NEWMAN WAY, ARLINGTON, MA, 02476",86888256,"R"
517478,"33 NEWPORT DR","ROCHEATER","NY",14624,43.121065957,-77.704793899,478,"33 NEWPORT DR, ROCHEATER, NY, 14624","Match","Non_Exact","33 NEWPORT DR, ROCHESTER, NY, 14624",14530578,"R"
517479,"33 NEWTON STREET","SPRINGFIELD","MA",1118,42.100171695,-72.5226330899999,479,"33 NEWTON STREET, SPRINGFIELD, MA, 1118","Match","Non_Exact","33 NEWTON RD, SPRINGFIELD, MA, 01118",4037400,"R"
517480,"33 NGO 43/33 CO NHUE -HUYEN TU LIEM","HANOI",NA,NA,NA,NA,480,"33 NGO 43/33 CO NHUE -HUYEN TU LIEM, HANOI, , ","No_Match",NA,NA,NA,NA
517481,"33 NINA CT","JONESBORO","GA",30238,33.5062221960001,-84.390285422,481,"33 NINA CT, JONESBORO, GA, 30238","Match","Exact","33 NINA CT, JONESBORO, GA, 30238",624286590,"R"
517482,"33 NOLES ROAD","ARAGON","GA",30104,34.096308514,-85.091153714,482,"33 NOLES ROAD, ARAGON, GA, 30104","Match","Exact","33 NOLES RD, ARAGON, GA, 30104",29640948,"L"
517483,"33 NOR EAST LANE","PLYMOUTH","MA",2360,41.804282222,-70.588724661,483,"33 NOR EAST LANE, PLYMOUTH, MA, 2360","Match","Non_Exact","33 NOREAST LN, PLYMOUTH, MA, 02360",87494632,"R"
517484,"33 NORTH 3RD AVE APT 4F","MOUNT VERNON","NY",10550,40.913322298,-73.836400479,484,"33 NORTH 3RD AVE APT 4F, MOUNT VERNON, NY, 10550","Match","Exact","33 N 3RD AVE, MOUNT VERNON, NY, 10550",139747074,"R"
517485,"33 NORTH BENNET ST APT 2","BOSTON","MA",2113,42.365652826,-71.054678633,485,"33 NORTH BENNET ST APT 2, BOSTON, MA, 2113","Match","Exact","33 N BENNET ST, BOSTON, MA, 02113",85722410,"R"
517486,"33 NORTH BYWATER WAY","BRIGHAM CITY","UT",84302,NA,NA,486,"33 NORTH BYWATER WAY, BRIGHAM CITY, UT, 84302","Tie",NA,NA,NA,NA
517487,"33 NORTH CENTRAL AVENUE","RAMSEY","NJ",7446,41.0580842950001,-74.143976992,487,"33 NORTH CENTRAL AVENUE, RAMSEY, NJ, 7446","Match","Exact","33 N CENTRAL AVE, RAMSEY, NJ, 07446",64402197,"L"
517488,"33 NORTH DEARBORN STREET 1500","CHICAGO","IL",60602,41.8827341090001,-87.6294158219999,488,"33 NORTH DEARBORN STREET 1500, CHICAGO, IL, 60602","Match","Exact","33 N DEARBORN ST, CHICAGO, IL, 60602",111768772,"R"
517489,"33 NORTH DEARBORN STREET 1530","CHICAGO","IL",60602,41.8827341090001,-87.6294158219999,489,"33 NORTH DEARBORN STREET 1530, CHICAGO, IL, 60602","Match","Exact","33 N DEARBORN ST, CHICAGO, IL, 60602",111768772,"R"
517490,"33 NORTH DEARBORN STREET STE 1720","CHICAGO","IL",60602,41.8827341090001,-87.6294158219999,490,"33 NORTH DEARBORN STREET STE 1720, CHICAGO, IL, 60602","Match","Exact","33 N DEARBORN ST, CHICAGO, IL, 60602",111768772,"R"
517491,"33 NORTH ELM STREET","BEACON","NY",12508,41.508771752,-73.9714388309999,491,"33 NORTH ELM STREET, BEACON, NY, 12508","Match","Exact","33 N ELM ST, BEACON, NY, 12508",4162030,"L"
517492,"33 NORTH FERGUSON AVE","COOKEVILLE","TN",38501,36.163086052,-85.491230865,492,"33 NORTH FERGUSON AVE, COOKEVILLE, TN, 38501","Match","Exact","33 N FERGUSON AVE, COOKEVILLE, TN, 38501",25143640,"R"
517493,"33 NORTH KEESEY","YORK","PA",17402,39.9740497340001,-76.68869935,493,"33 NORTH KEESEY, YORK, PA, 17402","Match","Non_Exact","33 N KEESEY ST, YORK, PA, 17402",88733161,"R"
517494,"33 NORTH LAKESIDE AVE","JACKSON","NJ",8527,40.128517276,-74.279125829,494,"33 NORTH LAKESIDE AVE, JACKSON, NJ, 8527","Match","Exact","33 N LAKESIDE AVE, JACKSON, NJ, 08527",203719383,"L"
517495,"33 NORTH MAIN STREET PO BOX 174","BOONSBORO","MD",21713,39.50721466,-77.6525241319999,495,"33 NORTH MAIN STREET PO BOX 174, BOONSBORO, MD, 21713","Match","Exact","33 N MAIN ST, BOONSBORO, MD, 21713",60792302,"R"
517496,"33 NORTH PALMER DRIVE","PORT TOWNSEND","WA",98368,48.102747859,-122.880231177,496,"33 NORTH PALMER DRIVE, PORT TOWNSEND, WA, 98368","Match","Exact","33 N PALMER DR, PORT TOWNSEND, WA, 98368",151991199,"L"
517497,"33 NORTH SKY LOOP","ROSWELL","NM",88201,33.427355603,-104.508388402,497,"33 NORTH SKY LOOP, ROSWELL, NM, 88201","Match","Exact","33 N SKY LOOP, ROSWELL, NM, 88201",636786498,"L"
517498,"33 NORTH ST","LEROY","NY",14482,42.981800342,-77.9844321749999,498,"33 NORTH ST, LEROY, NY, 14482","Match","Non_Exact","33 NORTH ST, LE ROY, NY, 14482",48147573,"R"
517499,"33 NORTH ST","SLATINGTON","PA",18080,40.752900305,-75.6127914899999,499,"33 NORTH ST, SLATINGTON, PA, 18080","Match","Exact","33 NORTH ST, SLATINGTON, PA, 18080",80789822,"L"
517500,"33 NORTH THIRD AVENUE APT-5T","MOUNT VERNON","NY",10550,40.913322298,-73.836400479,500,"33 NORTH THIRD AVENUE APT-5T, MOUNT VERNON, NY, 10550","Match","Exact","33 N 3RD AVE, MOUNT VERNON, NY, 10550",139747074,"R"
