"ID","Address","City","State","Zip","lat","long","id","input_address","match_indicator","match_type","matched_address","tiger_line_id","tiger_side"
704501,"524 S LEROUX STREET","FLAGSTAFF","AZ",86001,35.1918322660001,-111.651793962,1,"524 S LEROUX STREET, FLAGSTAFF, AZ, 86001","Match","Exact","524 S LEROUX ST, FLAGSTAFF, AZ, 86001",188861203,"R"
704502,"524 S LINCOLN AVE","SANDPOINT","ID",83864,48.268513167,-116.5752914,2,"524 S LINCOLN AVE, SANDPOINT, ID, 83864","Match","Exact","524 S LINCOLN AVE, SANDPOINT, ID, 83864",169491654,"R"
704503,"524 S LYNN","REPUBLIC","MO",65738,37.111583855,-93.4624120669999,3,"524 S LYNN, REPUBLIC, MO, 65738","Match","Non_Exact","524 S LYNN AVE, REPUBLIC, MO, 65738",618216082,"L"
704504,"524 S VALVERDE DR","RUPERT","ID",83350,42.6363818680001,-113.674880379,4,"524 S VALVERDE DR, RUPERT, ID, 83350","Match","Non_Exact","524 S VAL VERDE DR, RUPERT, ID, 83350",105203905,"R"
704505,"524 S WEST END ST","MONTESANO","WA",98563,NA,NA,5,"524 S WEST END ST, MONTESANO, WA, 98563","No_Match",NA,NA,NA,NA
704506,"524 SADDLE COVE","CIBOLO","TX",78108,29.5990710350001,-98.2162870289999,6,"524 SADDLE COVE, CIBOLO, TX, 78108","Match","Exact","524 SADDLE COVE, CIBOLO, TX, 78108",641467503,"R"
704507,"524 SAGAMORE RD","HAVERTOWN","PA",19083,39.982775486,-75.292607883,7,"524 SAGAMORE RD, HAVERTOWN, PA, 19083","Match","Exact","524 SAGAMORE RD, HAVERTOWN, PA, 19083",134875682,"L"
704508,"524 SAN ANSELMO AVE - APT 142","SAN ANSELMO","CA",94960,37.9747252220001,-122.562501768,8,"524 SAN ANSELMO AVE - APT 142, SAN ANSELMO, CA, 94960","Match","Exact","524 SAN ANSELMO AVE, SAN ANSELMO, CA, 94960",192763470,"R"
704509,"524 SAN ANSELMO AVE APT 346","SAN ANSELMO","CA",94960,37.9747252220001,-122.562501768,9,"524 SAN ANSELMO AVE APT 346, SAN ANSELMO, CA, 94960","Match","Exact","524 SAN ANSELMO AVE, SAN ANSELMO, CA, 94960",192763470,"R"
704510,"524 SAN ANSELMO AVE UNIT 350","SAN ANSELMO","CA",94960,37.9747252220001,-122.562501768,10,"524 SAN ANSELMO AVE UNIT 350, SAN ANSELMO, CA, 94960","Match","Exact","524 SAN ANSELMO AVE, SAN ANSELMO, CA, 94960",192763470,"R"
704511,"524 SAN DRA WAY","MONROE","GA",30656,33.8649958190001,-83.749633167,11,"524 SAN DRA WAY, MONROE, GA, 30656","Match","Exact","524 SAN DRA WAY, MONROE, GA, 30656",618470690,"L"
704512,"524 SANDY WHISPERS PLACE","CARY","NC",27519,35.848580494,-78.90448536,12,"524 SANDY WHISPERS PLACE, CARY, NC, 27519","Match","Exact","524 SANDY WHISPERS PL, CARY, NC, 27519",627425459,"L"
704513,"524 SAYRE AVE","LEXINGTON","KY",40508,38.0393084080001,-84.487205187,13,"524 SAYRE AVE, LEXINGTON, KY, 40508","Match","Exact","524 SAYRE AVE, LEXINGTON, KY, 40508",31923548,"R"
704514,"524 SCENIC AVENUE","PIEDMONT","CA",94611,37.8285469960001,-122.224873767,14,"524 SCENIC AVENUE, PIEDMONT, CA, 94611","Match","Exact","524 SCENIC AVE, PIEDMONT, CA, 94611",125002036,"R"
704515,"524 SE 27TH ST","CAPE CORAL","FL",33904,26.6022575960001,-81.9632467819999,15,"524 SE 27TH ST, CAPE CORAL, FL, 33904","Match","Exact","524 SE 27TH ST, CAPE CORAL, FL, 33904",118088981,"R"
704516,"524 SESPE AVE","FILLMORE","AZ",93015,NA,NA,16,"524 SESPE AVE, FILLMORE, AZ, 93015","No_Match",NA,NA,NA,NA
704517,"524 SESPE AVE","FILLMORE","CA",93015,34.4007506570001,-118.913150447,17,"524 SESPE AVE, FILLMORE, CA, 93015","Match","Exact","524 SESPE AVE, FILLMORE, CA, 93015",110048331,"R"
704518,"524 SESPE DR","FILLMORE","CA",93015,34.4007506570001,-118.913150447,18,"524 SESPE DR, FILLMORE, CA, 93015","Match","Non_Exact","524 SESPE AVE, FILLMORE, CA, 93015",110048331,"R"
704519,"524 SHAW DR","SHAW AFB","SC",29152,NA,NA,19,"524 SHAW DR, SHAW AFB, SC, 29152","No_Match",NA,NA,NA,NA
704520,"524 SHERRYBROOK DRIVE","RALEIGH","NC",27610,35.773314914,-78.615671568,20,"524 SHERRYBROOK DRIVE, RALEIGH, NC, 27610","Match","Exact","524 SHERRYBROOK DR, RALEIGH, NC, 27610",208347437,"R"
704521,"524 SIERRA ST","MOSS BEACH","CA",94038,37.5325559660001,-122.515766736,21,"524 SIERRA ST, MOSS BEACH, CA, 94038","Match","Exact","524 SIERRA ST, MOSS BEACH, CA, 94038",636423629,"R"
704522,"524 SKYVIEW LANE","CARVER","MN",55315,44.771326447,-93.624016537,22,"524 SKYVIEW LANE, CARVER, MN, 55315","Match","Exact","524 SKYVIEW LN, CARVER, MN, 55315",618006370,"L"
704523,"524 SOUTH  HART ST","PRINCETON","IN",47670,38.3507126740001,-87.5688879859999,23,"524 SOUTH  HART ST, PRINCETON, IN, 47670","Match","Exact","524 S HART ST, PRINCETON, IN, 47670",36372506,"R"
704524,"524 SOUTH 14TH STREET","NEWARK","NJ",7108,NA,NA,24,"524 SOUTH 14TH STREET, NEWARK, NJ, 7108","No_Match",NA,NA,NA,NA
704525,"524 SOUTH 198TH STREET","ELKHORN","NE",68022,41.2537504900001,-96.226208404,25,"524 SOUTH 198TH STREET, ELKHORN, NE, 68022","Match","Exact","524 S 198TH ST, ELKHORN, NE, 68022",647768291,"R"
704526,"524 SOUTH BARTLETT","ST. CLAIR","MI",48079,42.8883254680001,-82.538490412,26,"524 SOUTH BARTLETT, ST. CLAIR, MI, 48079","Match","Non_Exact","524 S BARTLETT RD, SAINT CLAIR, MI, 48079",110986015,"L"
704527,"524 SOUTH CLINTON ST","BALTIMORE","MD",21224,39.2857519990001,-76.569928604,27,"524 SOUTH CLINTON ST, BALTIMORE, MD, 21224","Match","Exact","524 S CLINTON ST, BALTIMORE, MD, 21224",206425338,"R"
704528,"524 SOUTH CLINTON STREET","EAST ORANGE","NJ",7018,40.7482590640001,-74.226066564,28,"524 SOUTH CLINTON STREET, EAST ORANGE, NJ, 7018","Match","Exact","524 S CLINTON ST, EAST ORANGE, NJ, 07018",642912048,"L"
704529,"524 SOUTH DIXON","GAINESVILLE","TX",76240,33.6199022430001,-97.145405354,29,"524 SOUTH DIXON, GAINESVILLE, TX, 76240","Match","Non_Exact","524 S DIXON ST, GAINESVILLE, TX, 76240",151322637,"R"
704530,"524 SOUTH STREET","NEW HARMONY","IN",47631,38.127412559,-87.933853544,30,"524 SOUTH STREET, NEW HARMONY, IN, 47631","Match","Exact","524 SOUTH ST, NEW HARMONY, IN, 47631",39749664,"L"
704531,"524 SPRUCE STREET","SCRANTON","PA",18503,41.4071795300001,-75.662501697,31,"524 SPRUCE STREET, SCRANTON, PA, 18503","Match","Exact","524 SPRUCE ST, SCRANTON, PA, 18503",139327206,"R"
704532,"524 ST ANNS DR APT B","LAGUNA BEACH","CA",92651,NA,NA,32,"524 ST ANNS DR APT B, LAGUNA BEACH, CA, 92651","No_Match",NA,NA,NA,NA
704533,"524 STARLING CREEK","NEW BRAUNFELS","TX",78130,29.751710523,-98.0669486259999,33,"524 STARLING CREEK, NEW BRAUNFELS, TX, 78130","Match","Exact","524 STARLING CREEK, NEW BRAUNFELS, TX, 78130",72283644,"R"
704534,"524 STEVENSON ST","SAYRE","PA",18840,41.9854668290001,-76.5249447369999,34,"524 STEVENSON ST, SAYRE, PA, 18840","Match","Exact","524 STEVENSON ST, SAYRE, PA, 18840",176956716,"R"
704535,"524 STOCKTON STREET","JACKSONVILLE","FL",32204,30.3227395590001,-81.691728245,35,"524 STOCKTON STREET, JACKSONVILLE, FL, 32204","Match","Exact","524 STOCKTON ST, JACKSONVILLE, FL, 32204",83956672,"R"
704536,"524 STURDY ROAD APART 101","VALPARAISO","IN",46383,41.472342639,-87.036787451,36,"524 STURDY ROAD APART 101, VALPARAISO, IN, 46383","Match","Non_Exact","524 N STURDY RD, VALPARAISO, IN, 46383",119921564,"R"
704537,"524 SUMAC PL","DESOTO","TX",75115,32.6065731250001,-96.868017127,37,"524 SUMAC PL, DESOTO, TX, 75115","Match","Exact","524 SUMAC PL, DESOTO, TX, 75115",102953483,"L"
704538,"524 SUNDROP PATH","LEXINGTON","KY",40509,37.991930779,-84.412099477,38,"524 SUNDROP PATH, LEXINGTON, KY, 40509","Match","Exact","524 SUNDROP PATH, LEXINGTON, KY, 40509",31953979,"R"
704539,"524 SW 164TH TERRACE","OKLAHOMA CITY","OK",73170,35.3058292850001,-97.5220840759999,39,"524 SW 164TH TERRACE, OKLAHOMA CITY, OK, 73170","Match","Exact","524 SW 164TH TER, OKLAHOMA CITY, OK, 73170",624090815,"L"
704540,"524 SW HARTLEY AVE","GRESHAM","OR",97030,45.492605439,-122.469630673,40,"524 SW HARTLEY AVE, GRESHAM, OR, 97030","Match","Exact","524 SW HARTLEY AVE, GRESHAM, OR, 97030",157535793,"R"
704541,"524 TAMERACK ST","UTICA","NY",13502,43.1293549220001,-75.2255760849999,41,"524 TAMERACK ST, UTICA, NY, 13502","Match","Non_Exact","524 TAMARACK ST, UTICA, NY, 13502",171529306,"R"
704542,"524 TATUM STREET","WOODBURY","NJ",8096,39.845081624,-75.151365889,42,"524 TATUM STREET, WOODBURY, NJ, 8096","Match","Exact","524 TATUM ST, WOODBURY, NJ, 08096",134583254,"R"
704543,"524 TAYLOR ST","PORT ORCHARD","WA",98366,47.536284295,-122.639958059,43,"524 TAYLOR ST, PORT ORCHARD, WA, 98366","Match","Exact","524 TAYLOR ST, PORT ORCHARD, WA, 98366",187642778,"R"
704544,"524 TERRACE DR","WILLISTON","VT",5495,44.4212180860001,-73.054562156,44,"524 TERRACE DR, WILLISTON, VT, 5495","Match","Exact","524 TERRACE DR, WILLISTON, VT, 05495",627116701,"L"
704545,"524 THUNDER CMN","LIVERMORE","CA",94550,NA,NA,45,"524 THUNDER CMN, LIVERMORE, CA, 94550","No_Match",NA,NA,NA,NA
704546,"524 TILLMAN STREET","HILLSIDE","NJ",7205,40.7010897220001,-74.2402759519999,46,"524 TILLMAN STREET, HILLSIDE, NJ, 7205","Match","Exact","524 TILLMAN ST, HILLSIDE, NJ, 07205",60577293,"L"
704547,"524 TIMBERVIEW DRIVE","MARYSVILLE","OH",43040,40.218490296,-83.376299662,47,"524 TIMBERVIEW DRIVE, MARYSVILLE, OH, 43040","Match","Exact","524 TIMBERVIEW DR, MARYSVILLE, OH, 43040",135338491,"R"
704548,"524 TITAN CIRCLE","MURFREESBORO","TN",37130,NA,NA,48,"524 TITAN CIRCLE, MURFREESBORO, TN, 37130","No_Match",NA,NA,NA,NA
704549,"524 TOLLHOUSE RD","SPRINGFIELD","OH",45504,39.9348439980001,-83.873442486,49,"524 TOLLHOUSE RD, SPRINGFIELD, OH, 45504","Match","Exact","524 TOLLHOUSE RD, SPRINGFIELD, OH, 45504",135005550,"L"
704550,"524 TREVETHAN AVE","SANTA CRUZ, CA","CA",95062,36.987342991,-121.999315738,50,"524 TREVETHAN AVE, SANTA CRUZ, CA, CA, 95062","Match","Non_Exact","524 TREVETHAN AVE, SANTA CRUZ, CA, 95062",125506969,"R"
704551,"524 TURNPIKE","NORWICH","VT",5055,43.7428373120001,-72.3225266379999,51,"524 TURNPIKE, NORWICH, VT, 5055","Match","Non_Exact","524 TURNPIKE RD, NORWICH, VT, 05055",139238410,"R"
704552,"524 TWIN LAKE DRIVE","BILLINGS","MO",65610,37.091247498,-93.560908589,52,"524 TWIN LAKE DRIVE, BILLINGS, MO, 65610","Match","Non_Exact","524 TWIN LAKES DR, BILLINGS, MO, 65610",227927339,"L"
704553,"524 TWP RD 761","ASHLAND","OH",44805,40.9890915230001,-82.272478112,53,"524 TWP RD 761, ASHLAND, OH, 44805","Match","Exact","524 TWP RD 761, ASHLAND, OH, 44805",30144640,"L"
704554,"524 UNION STREET","SAN FRANCISCO","CA",94133,37.800574242,-122.408184316,54,"524 UNION STREET, SAN FRANCISCO, CA, 94133","Match","Exact","524 UNION ST, SAN FRANCISCO, CA, 94133",192280519,"R"
704555,"524 VALLEJO","SAN FRANCISCO","CA",94133,37.798920621,-122.406096579,55,"524 VALLEJO, SAN FRANCISCO, CA, 94133","Match","Non_Exact","524 VALLEJO ST, SAN FRANCISCO, CA, 94133",192281069,"R"
704556,"524 VALLEY RD","SANFORD","NC",27330,35.501976519,-79.218361569,56,"524 VALLEY RD, SANFORD, NC, 27330","Match","Exact","524 VALLEY RD, SANFORD, NC, 27330",72088690,"R"
704557,"524 VANDALIA AVE APT 5G","BROOKLYN","NY",11239,NA,NA,57,"524 VANDALIA AVE APT 5G, BROOKLYN, NY, 11239","No_Match",NA,NA,NA,NA
704558,"524 VENICE WAY APARTMENT 109","INGLEWOOD","CA",90302,33.97175351,-118.36397125,58,"524 VENICE WAY APARTMENT 109, INGLEWOOD, CA, 90302","Match","Exact","524 VENICE WAY, INGLEWOOD, CA, 90302",141653684,"L"
704559,"524 VICTORIA DRIVE","ENTERPRISE","AL",36330,31.336294916,-85.809685262,59,"524 VICTORIA DRIVE, ENTERPRISE, AL, 36330","Match","Exact","524 VICTORIA DR, ENTERPRISE, AL, 36330",99550672,"R"
704560,"524 W  59TH STREET","NEW YORK","NY",10019,40.7711154610001,-73.98928645,60,"524 W  59TH STREET, NEW YORK, NY, 10019","Match","Exact","524 W 59TH ST, NEW YORK, NY, 10019",650073491,"L"
704561,"524 W  91ST","LOS ANGELES","CA",90044,NA,NA,61,"524 W  91ST, LOS ANGELES, CA, 90044","No_Match",NA,NA,NA,NA
704562,"524 W 143RD ST","MANHATTAN","NY",10031,40.8243801410001,-73.949603993,62,"524 W 143RD ST, MANHATTAN, NY, 10031","Match","Non_Exact","524 W 143RD ST, NEW YORK, NY, 10031",59655946,"L"
704563,"524 W 26TH ST","MARION","IN",46953,40.537449639,-85.665203689,63,"524 W 26TH ST, MARION, IN, 46953","Match","Exact","524 W 26TH ST, MARION, IN, 46953",95009471,"R"
704564,"524 W 53RD ST APT 102","ANDERSON","IN",46013,NA,NA,64,"524 W 53RD ST APT 102, ANDERSON, IN, 46013","Tie",NA,NA,NA,NA
704565,"524 W 53RD ST APT 303","ANDERSON","IN",46013,NA,NA,65,"524 W 53RD ST APT 303, ANDERSON, IN, 46013","Tie",NA,NA,NA,NA
704566,"524 W 53RD ST APT 307","ANDERSON","IN",46013,NA,NA,66,"524 W 53RD ST APT 307, ANDERSON, IN, 46013","Tie",NA,NA,NA,NA
704567,"524 W 53RD ST APT 804","ANDERSON","IN",46013,NA,NA,67,"524 W 53RD ST APT 804, ANDERSON, IN, 46013","Tie",NA,NA,NA,NA
704568,"524 W 91ST","LOS ANGELES","CA",90044,NA,NA,68,"524 W 91ST, LOS ANGELES, CA, 90044","No_Match",NA,NA,NA,NA
704569,"524 W ARAPAHO AVE","WEATHERFORD","OK",73096,35.5291489410001,-98.713471249,69,"524 W ARAPAHO AVE, WEATHERFORD, OK, 73096","Match","Exact","524 W ARAPAHO AVE, WEATHERFORD, OK, 73096",150574519,"L"
704570,"524 W ARCADIA DRIVE","PITTSBURGH","PA",15237,40.5780368320001,-80.0282844499999,70,"524 W ARCADIA DRIVE, PITTSBURGH, PA, 15237","Match","Exact","524 W ARCADIA DR, PITTSBURGH, PA, 15237",617243204,"R"
704571,"524 W CHEROKEE STREET","WAGONER","OK",74467,35.9597191450001,-95.38316586,71,"524 W CHEROKEE STREET, WAGONER, OK, 74467","Match","Exact","524 W CHEROKEE ST, WAGONER, OK, 74467",83142602,"R"
704572,"524 W CORNELIA AVE APT 3N","CHICAGO","IL",60657,NA,NA,72,"524 W CORNELIA AVE APT 3N, CHICAGO, IL, 60657","No_Match",NA,NA,NA,NA
704573,"524 W FRANKLIN ST","BALTIMORE","MD",21201,39.294810539,-76.622827112,73,"524 W FRANKLIN ST, BALTIMORE, MD, 21201","Match","Exact","524 W FRANKLIN ST, BALTIMORE, MD, 21201",206418323,"R"
704574,"524 W FRANKLIN ST","KENTON","OH",43326,40.6473499510001,-83.615372243,74,"524 W FRANKLIN ST, KENTON, OH, 43326","Match","Exact","524 W FRANKLIN ST, KENTON, OH, 43326",36523150,"R"
704575,"524 W MADISON","BOLIVAR","MO",65613,37.611434968,-93.4154213959999,75,"524 W MADISON, BOLIVAR, MO, 65613","Match","Non_Exact","524 W MADISON ST, BOLIVAR, MO, 65613",636673721,"R"
704576,"524 W MORROW DR","PHOENIX","AZ",85027,33.6575744140001,-112.080728824,76,"524 W MORROW DR, PHOENIX, AZ, 85027","Match","Exact","524 W MORROW DR, PHOENIX, AZ, 85027",128180446,"R"
704577,"524 W MUSKOGEE","CHOUTEAU","OK",74337,36.1907227610001,-95.349425472,77,"524 W MUSKOGEE, CHOUTEAU, OK, 74337","Match","Non_Exact","524 W MUSKOGEE AVE, CHOUTEAU, OK, 74337",58801764,"R"
704578,"524 W RACE ST","LESLIE","MI",49251,42.4529863290001,-84.438429996,78,"524 W RACE ST, LESLIE, MI, 49251","Match","Exact","524 W RACE ST, LESLIE, MI, 49251",614670306,"R"
704579,"524 W WILL ROGERS BLVD APT 514","CLAREMORE","OK",74017,NA,NA,79,"524 W WILL ROGERS BLVD APT 514, CLAREMORE, OK, 74017","Tie",NA,NA,NA,NA
704580,"524 WADSWORTH AVE","PLAINFIELD","NJ",7060,NA,NA,80,"524 WADSWORTH AVE, PLAINFIELD, NJ, 7060","No_Match",NA,NA,NA,NA
704581,"524 WALNUT AVE","LONG BEACH","CA",90812,33.773792529,-118.171981244,81,"524 WALNUT AVE, LONG BEACH, CA, 90812","Match","Non_Exact","524 WALNUT AVE, LONG BEACH, CA, 90802",141695011,"R"
704582,"524 WARREN CRESCENT","NORFOLK","VA",23507,36.8569650160001,-76.2984946669999,82,"524 WARREN CRESCENT, NORFOLK, VA, 23507","Match","Exact","524 WARREN CRES, NORFOLK, VA, 23507",122127147,"R"
704583,"524 WASHINGTON AVENUE","ALTON","IL",62002,38.8889711680001,-90.160147573,83,"524 WASHINGTON AVENUE, ALTON, IL, 62002","Match","Exact","524 WASHINGTON AVE, ALTON, IL, 62002",647980051,"L"
704584,"524 WASHINGTON","GROSSE POINTE","MI",48230,42.392424297,-82.9082552359999,84,"524 WASHINGTON, GROSSE POINTE, MI, 48230","Match","Non_Exact","524 WASHINGTON RD, GROSSE POINTE, MI, 48230",95489499,"R"
704585,"524 WELLINGTON ROAD","BRECKENRIDGE","CO",80424,39.485840808,-106.034838433,85,"524 WELLINGTON ROAD, BRECKENRIDGE, CO, 80424","Match","Exact","524 WELLINGTON RD, BRECKENRIDGE, CO, 80424",600597359,"L"
704586,"524 WEST 17 TH STREET","ERIE","PA",16502,42.1150572600001,-80.090051316,86,"524 WEST 17 TH STREET, ERIE, PA, 16502","Match","Non_Exact","524 W 17TH ST, ERIE, PA, 16502",117494165,"R"
704587,"524 WEST 184TH STREET APT 3C","NEW YORK","NY",10033,40.850207348,-73.9303392689999,87,"524 WEST 184TH STREET APT 3C, NEW YORK, NY, 10033","Match","Exact","524 W 184TH ST, NEW YORK, NY, 10033",59659108,"L"
704588,"524 WEST 2ND STREET","MANKATO","MN",56001,44.1610327590001,-94.026294582,88,"524 WEST 2ND STREET, MANKATO, MN, 56001","Match","Exact","524 W 2ND ST, MANKATO, MN, 56001",28126145,"L"
704589,"524 WEST 99TH STREET","LOS ANGELES","CA",90044,33.946437867,-118.283414709,89,"524 WEST 99TH STREET, LOS ANGELES, CA, 90044","Match","Exact","524 W 99TH ST, LOS ANGELES, CA, 90044",141660373,"L"
704590,"524 WEST GARRISON BLVD","GASTONIA","NC",28052,35.2536458920001,-81.189923877,90,"524 WEST GARRISON BLVD, GASTONIA, NC, 28052","Match","Exact","524 W GARRISON BLVD, GASTONIA, NC, 28052",70379008,"R"
704591,"524 WEST JAMES STREET","LANCASTER","PA",17603,40.04493997,-76.316834946,91,"524 WEST JAMES STREET, LANCASTER, PA, 17603","Match","Exact","524 W JAMES ST, LANCASTER, PA, 17603",179662097,"L"
704592,"524 WEST PINE NEEDLE COURT","RIDGELAND","MS",39157,NA,NA,92,"524 WEST PINE NEEDLE COURT, RIDGELAND, MS, 39157","No_Match",NA,NA,NA,NA
704593,"524 WESTRIDGE CIR","RIVER FALLS","WI",54022,NA,NA,93,"524 WESTRIDGE CIR, RIVER FALLS, WI, 54022","No_Match",NA,NA,NA,NA
704594,"524 WILLIS BRANCH RD","GARRISON","KY",41141,NA,NA,94,"524 WILLIS BRANCH RD, GARRISON, KY, 41141","No_Match",NA,NA,NA,NA
704595,"524 WINDSOR GATE CIR","VIRGINIA BEACH","VA",23452,36.825416429,-76.113536306,95,"524 WINDSOR GATE CIR, VIRGINIA BEACH, VA, 23452","Match","Exact","524 WINDSOR GATE CIR, VA BCH, VA, 23452",122266396,"L"
704596,"524 WINDSOR STREET","CAMBRIDGE","MA",2141,42.3731856700001,-71.093105457,96,"524 WINDSOR STREET, CAMBRIDGE, MA, 2141","Match","Exact","524 WINDSOR ST, CAMBRIDGE, MA, 02141",640697324,"R"
704597,"524 WINSPEAR AVENUE","BUFFALO","NY",14215,42.9489026860001,-78.807277477,97,"524 WINSPEAR AVENUE, BUFFALO, NY, 14215","Match","Exact","524 WINSPEAR AVE, BUFFALO, NY, 14215",646079177,"L"
704598,"524 WOODLAND DRIVE","KERSHAW","SC",29067,34.539951278,-80.588694591,98,"524 WOODLAND DRIVE, KERSHAW, SC, 29067","Match","Exact","524 WOODLAND DR, KERSHAW, SC, 29067",40700973,"L"
704599,"524 WOODMONT AVENUE","BERKELEY","CA",94708,NA,NA,99,"524 WOODMONT AVENUE, BERKELEY, CA, 94708","Tie",NA,NA,NA,NA
704600,"524 YORK ST SE","AIKEN","SC",29801,33.552463274,-81.721107543,100,"524 YORK ST SE, AIKEN, SC, 29801","Match","Exact","524 YORK ST SE, AIKEN, SC, 29801",639954921,"L"
704601,"5240 39TH DRIVE 12S","WOODSIDE","NY",11377,NA,NA,101,"5240 39TH DRIVE 12S, WOODSIDE, NY, 11377","No_Match",NA,NA,NA,NA
704602,"5240 ACACIA STREET","SAN GABRIEL","CA",91776,34.0963675040001,-118.075544766,102,"5240 ACACIA STREET, SAN GABRIEL, CA, 91776","Match","Exact","5240 ACACIA ST, SAN GABRIEL, CA, 91776",142816447,"R"
704603,"5240 ADORATO DRIVE","NORTH LAS VEGAS","NV",89031,36.2556639810001,-115.196288391,103,"5240 ADORATO DRIVE, NORTH LAS VEGAS, NV, 89031","Match","Exact","5240 ADORATO DR, N LAS VEGAS, NV, 89031",201998596,"L"
704604,"5240 ARROWHEAD DRIVE","DREXEL HILL","PA",19026,39.949753179,-75.322631789,104,"5240 ARROWHEAD DRIVE, DREXEL HILL, PA, 19026","Match","Non_Exact","5240 ARROWHEAD LN, DREXEL HILL, PA, 19026",134874492,"L"
704605,"5240 BESSLEY PLACE","ALEXANDRIA","VA",22304,38.8060091020001,-77.123300566,105,"5240 BESSLEY PLACE, ALEXANDRIA, VA, 22304","Match","Exact","5240 BESSLEY PL, ALEXANDRIA, VA, 22304",76066053,"L"
704606,"5240 BETTS RD","GREENBRIER","TN",37073,NA,NA,106,"5240 BETTS RD, GREENBRIER, TN, 37073","No_Match",NA,NA,NA,NA
704607,"5240 BRIDLE POINT PARKWAY","SNELLVILLE","GA",30039,33.7762934790001,-84.027305305,107,"5240 BRIDLE POINT PARKWAY, SNELLVILLE, GA, 30039","Match","Non_Exact","5240 BRIDLE POINT PKWY SW, SNELLVILLE, GA, 30039",639372521,"L"
704608,"5240 BROADSTONE WAY","APEX","NC",27502,35.7120193820001,-78.845312403,108,"5240 BROADSTONE WAY, APEX, NC, 27502","Match","Exact","5240 BROADSTONE WAY, APEX, NC, 27502",650639450,"L"
704609,"5240 BROSCHE RD","ORLANDO","FL",32807,28.546703995,-81.3179049139999,109,"5240 BROSCHE RD, ORLANDO, FL, 32807","Match","Exact","5240 BROSCHE RD, ORLANDO, FL, 32807",606125678,"R"
704610,"5240 CARRINGTON PARK DRIVE","POWDER SPRINGS","GA",30127,33.875144365,-84.7078650179999,110,"5240 CARRINGTON PARK DRIVE, POWDER SPRINGS, GA, 30127","Match","Exact","5240 CARRINGTON PARK DR, POWDER SPGS, GA, 30127",627696807,"R"
704611,"5240 CHESTNUT STREET","PHILA","PA",19131,39.9585747830001,-75.226022825,111,"5240 CHESTNUT STREET, PHILA, PA, 19131","Match","Non_Exact","5240 CHESTNUT ST, PHILA, PA, 19139",131399197,"L"
704612,"5240 CLOVERDALE LANE APT A","CARMICHAEL","CA",95608,38.6070773540001,-121.341915192,112,"5240 CLOVERDALE LANE APT A, CARMICHAEL, CA, 95608","Match","Exact","5240 CLOVERDALE LN, CARMICHAEL, CA, 95608",133343201,"R"
704613,"5240 CRYSTAL LAKE RD","RHINELANDER","WI",54501,45.719202997,-89.416659193,113,"5240 CRYSTAL LAKE RD, RHINELANDER, WI, 54501","Match","Exact","5240 CRYSTAL LAKE RD, RHINELANDER, WI, 54501",196598717,"R"
704614,"5240 E 41ST STREET","ANCHORAGE","AK",99508,61.1840430350001,-149.784195638,114,"5240 E 41ST STREET, ANCHORAGE, AK, 99508","Match","Non_Exact","5240 E 41ST AVE, ANCHORAGE, AK, 99508",190802249,"R"
704615,"5240 E CALLE VENTURA","PHOENIX","AZ",85018,33.4937606280001,-111.969228251,115,"5240 E CALLE VENTURA, PHOENIX, AZ, 85018","Match","Non_Exact","5240 E CLL VENTURA, PHOENIX, AZ, 85018",128221805,"L"
704616,"5240 E THRILL PL","DENVER","CO",80207,39.762879384,-104.926824589,116,"5240 E THRILL PL, DENVER, CO, 80207","Match","Exact","5240 E THRILL PL, DENVER, CO, 80207",177311639,"R"
704617,"5240 EAST 102ND STREET","GARFIELD HTS","OH",44125,41.4186939620001,-81.6137757549999,117,"5240 EAST 102ND STREET, GARFIELD HTS, OH, 44125","Match","Exact","5240 E 102ND ST, GARFIELD HEIGHTS, OH, 44125",61119977,"R"
704618,"5240 ECHO DRIVE","HELENA","MT",59602,NA,NA,118,"5240 ECHO DRIVE, HELENA, MT, 59602","No_Match",NA,NA,NA,NA
704619,"5240 FOREST RUN DRIVE","COLUMBUS","OH",43017,40.114253913,-83.128737216,119,"5240 FOREST RUN DRIVE, COLUMBUS, OH, 43017","Match","Non_Exact","5240 FOREST RUN DR, DUBLIN, OH, 43017",218696319,"L"
704620,"5240 GLENHAVEN AVE","LOUISVILLE","OH",44641,40.8490696710001,-81.2991547079999,120,"5240 GLENHAVEN AVE, LOUISVILLE, OH, 44641","Match","Non_Exact","5240 GLENHAVEN AVE NE, LOUISVILLE, OH, 44641",64687788,"R"
704621,"5240 HICKORY KNOLL LANE","MOUNT HOLLY","NC",28120,35.3009385730001,-81.055257916,121,"5240 HICKORY KNOLL LANE, MOUNT HOLLY, NC, 28120","Match","Exact","5240 HICKORY KNOLL LN, MOUNT HOLLY, NC, 28120",70456309,"R"
704622,"5240 ISLAND DR","STONE MOUNTAIN","GA",30087,33.794106792,-84.091125147,122,"5240 ISLAND DR, STONE MOUNTAIN, GA, 30087","Match","Exact","5240 ISLAND DR, STONE MOUNTAIN, GA, 30087",88888244,"L"
704623,"5240 KINGSFIELD DR WEST","BLOOMFIELD","MI",48322,42.5473672630001,-83.385549396,123,"5240 KINGSFIELD DR WEST, BLOOMFIELD, MI, 48322","Match","Non_Exact","5240 KINGSFIELD DR, W BLOOMFIELD, MI, 48322",69722408,"R"
704624,"5240 KINGSFIELD DR","WEST BLOOMFIELD","MI",48322,42.5473672630001,-83.385549396,124,"5240 KINGSFIELD DR, WEST BLOOMFIELD, MI, 48322","Match","Exact","5240 KINGSFIELD DR, W BLOOMFIELD, MI, 48322",69722408,"R"
704625,"5240 LIMELIGHT CIRCLE APT 6","ORLANDO","FL",32839,NA,NA,125,"5240 LIMELIGHT CIRCLE APT 6, ORLANDO, FL, 32839","No_Match",NA,NA,NA,NA
704626,"5240 LONGRILE ROAD","WESTERVILLE","OH",43081,NA,NA,126,"5240 LONGRILE ROAD, WESTERVILLE, OH, 43081","No_Match",NA,NA,NA,NA
704627,"5240 LOTUS WAY","LAWRENCEVILLE","PA",15201,40.4790214220001,-79.951349847,127,"5240 LOTUS WAY, LAWRENCEVILLE, PA, 15201","Match","Non_Exact","5240 LOTUS WAY, ARSENAL, PA, 15201",51642127,"R"
704628,"5240 N CANYON ROAD","PROVO","UT",84604,40.3027515270001,-111.654495371,128,"5240 N CANYON ROAD, PROVO, UT, 84604","Match","Exact","5240 N CANYON RD, PROVO, UT, 84604",134264191,"R"
704629,"5240 N DOUGLAS HWY NO 1","JUNEAU","AK",99801,NA,NA,129,"5240 N DOUGLAS HWY NO 1, JUNEAU, AK, 99801","No_Match",NA,NA,NA,NA
704630,"5240 N KENMORE AVE 2","CHICAGO","IL",60640,41.9771619270001,-87.656442162,130,"5240 N KENMORE AVE 2, CHICAGO, IL, 60640","Match","Non_Exact","5240 N KENMORE AVE, CHICAGO, IL, 60640",111761501,"L"
704631,"5240 NE AINSWORTH ST","PORTLAND","OR",97218,45.5664196660001,-122.608675886,131,"5240 NE AINSWORTH ST, PORTLAND, OR, 97218","Match","Exact","5240 NE AINSWORTH ST, PORTLAND, OR, 97218",157511219,"R"
704632,"5240 NORTHTOWNE BLVD","COLUMBUS","OH",43229,40.075019674,-82.9645297929999,132,"5240 NORTHTOWNE BLVD, COLUMBUS, OH, 43229","Match","Exact","5240 NORTHTOWNE BLVD, COLUMBUS, OH, 43229",218660710,"R"
704633,"5240 NW 8TH AVE","GAINESVILLE","FL",32605,29.6595933020001,-82.3998612839999,133,"5240 NW 8TH AVE, GAINESVILLE, FL, 32605","Match","Exact","5240 NW 8TH AVE, GAINESVILLE, FL, 32605",6855055,"R"
704634,"5240 OAK LEAF DR APT C9","INDIANAPOLIS","IN",46220,NA,NA,134,"5240 OAK LEAF DR APT C9, INDIANAPOLIS, IN, 46220","No_Match",NA,NA,NA,NA
704635,"5240 OAKLEAF DR APT C9","INDIANAPOLIS","IN",46220,39.8481600580001,-86.134285685,135,"5240 OAKLEAF DR APT C9, INDIANAPOLIS, IN, 46220","Match","Non_Exact","5240 OAK LEAF DR, INDIANAPOLIS, IN, 46220",107985115,"L"
704636,"5240 PEAR TREE PLACE","JACKSONVILLE","FL",32211,30.3435901780001,-81.607765738,136,"5240 PEAR TREE PLACE, JACKSONVILLE, FL, 32211","Match","Exact","5240 PEAR TREE PL, JACKSONVILLE, FL, 32211",83964790,"R"
704637,"5240 PENNSGROVE STREET","PHILADELPHIA","PA",19131,39.9685171200001,-75.2258431499999,137,"5240 PENNSGROVE STREET, PHILADELPHIA, PA, 19131","Match","Exact","5240 PENNSGROVE ST, PHILADELPHIA, PA, 19131",131398670,"L"
704638,"5240 POST RIDGE DR","FORT WORTH","TX",76123,32.636975905,-97.403828818,138,"5240 POST RIDGE DR, FORT WORTH, TX, 76123","Match","Exact","5240 POST RIDGE DR, FORT WORTH, TX, 76123",639930874,"R"
704639,"5240 REMINGTON ROAD","FAYETTEVILLE","NC",28311,35.1376716190001,-78.894651455,139,"5240 REMINGTON ROAD, FAYETTEVILLE, NC, 28311","Match","Exact","5240 REMINGTON RD, FAYETTEVILLE, NC, 28311",64223377,"R"
704640,"5240 ROBINHOOD ROAD","CHARLOTTE","NC",28211,35.170311654,-80.783780657,140,"5240 ROBINHOOD ROAD, CHARLOTTE, NC, 28211","Match","Exact","5240 ROBINHOOD RD, CHARLOTTE, NC, 28211",647269738,"R"
704641,"5240 ROUSELL","NORTON SHORES","MI",49441,43.1577500240001,-86.2798224429999,141,"5240 ROUSELL, NORTON SHORES, MI, 49441","Match","Non_Exact","5240 ROUSELL ST, NORTON SHORES, MI, 49441",77652904,"L"
704642,"5240 RUDDYDUCK LANE","BIG LAKE","MN",55309,45.3518297630001,-93.7708118,142,"5240 RUDDYDUCK LANE, BIG LAKE, MN, 55309","Match","Non_Exact","5240 RUDDY DUCK LN, BIG LAKE, MN, 55309",97766842,"L"
704643,"5240 S GRANT ST","LITTLETON","CO",80121,39.621184628,-104.983282262,143,"5240 S GRANT ST, LITTLETON, CO, 80121","Match","Exact","5240 S GRANT ST, LITTLETON, CO, 80121",177337097,"L"
704644,"5240 S MAJESTIC VILLAGE CIRCLE","MURRAY","UT",84123,NA,NA,144,"5240 S MAJESTIC VILLAGE CIRCLE, MURRAY, UT, 84123","No_Match",NA,NA,NA,NA
704645,"5240 SALINE WATERWORKS ROAD","SALINE","MI",48176,42.176106476,-83.8298763989999,145,"5240 SALINE WATERWORKS ROAD, SALINE, MI, 48176","Match","Exact","5240 SALINE WATERWORKS RD, SALINE, MI, 48176",26047850,"R"
704646,"5240 SCHUYLER STREET - APT A","PHILADELPHIA","PA",19144,40.0226664,-75.176682187,146,"5240 SCHUYLER STREET - APT A, PHILADELPHIA, PA, 19144","Match","Exact","5240 SCHUYLER ST, PHILADELPHIA, PA, 19144",131401214,"L"
704647,"5240 SOMERVILLE DRIVE","ROCKLEDGE","FL",32955,28.279913552,-80.720288354,147,"5240 SOMERVILLE DRIVE, ROCKLEDGE, FL, 32955","Match","Exact","5240 SOMERVILLE DR, ROCKLEDGE, FL, 32955",93958980,"L"
704648,"5240 SOUTH STREET","LINCOLN","NE",68506,40.7916438400001,-96.648455391,148,"5240 SOUTH STREET, LINCOLN, NE, 68506","Match","Exact","5240 SOUTH ST, LINCOLN, NE, 68506",28260405,"L"
704649,"5240 SR27","DOVER","AR",72837,NA,NA,149,"5240 SR27, DOVER, AR, 72837","No_Match",NA,NA,NA,NA
704650,"5240 STATE ROAD 62","GEORGETOWN","IN",47122,38.273910852,-85.916037884,150,"5240 STATE ROAD 62, GEORGETOWN, IN, 47122","Match","Exact","5240 STATE RD 62, GEORGETOWN, IN, 47122",89551271,"L"
704651,"5240 SULLIVANTOWN RD","WALKERTOWN","NC",27051,36.178006752,-80.148053418,151,"5240 SULLIVANTOWN RD, WALKERTOWN, NC, 27051","Match","Exact","5240 SULLIVANTOWN RD, WALKERTOWN, NC, 27051",84660875,"R"
704652,"5240 SUN VALLEY CT","CLARKSTON","MI",48348,42.7376228750001,-83.358454127,152,"5240 SUN VALLEY CT, CLARKSTON, MI, 48348","Match","Exact","5240 SUN VALLEY CT, CLARKSTON, MI, 48348",69693836,"R"
704653,"5240 SW 77TH WAY","DAVIE","FL",33328,26.056145627,-80.250197713,153,"5240 SW 77TH WAY, DAVIE, FL, 33328","Match","Exact","5240 SW 77TH WAY, DAVIE, FL, 33328",648552820,"R"
704654,"5240 THURMAN BACCUS","SOCIAL CIRCLE","GA",30025,33.634874274,-83.687418048,154,"5240 THURMAN BACCUS, SOCIAL CIRCLE, GA, 30025","Match","Non_Exact","5240 THURMAN BACCUS RD, SOCIAL CIRCLE, GA, 30025",649920925,"R"
704655,"5240 UNIVERSITY WAY NE APT 305","SEATTLE","WA",98105,47.6668349340001,-122.313036334,155,"5240 UNIVERSITY WAY NE APT 305, SEATTLE, WA, 98105","Match","Exact","5240 UNIVERSITY WAY NE, SEATTLE, WA, 98105",186585328,"R"
704656,"5240 W 102 STREET APT 105","MINNEAPOLIS","MN",55437,44.8191401340001,-93.348856977,156,"5240 W 102 STREET APT 105, MINNEAPOLIS, MN, 55437","Match","Non_Exact","5240 W 102ND ST, MINNEAPOLIS, MN, 55437",43594607,"R"
704657,"5240 W 124TH PLACE","HAWTHORNE","CA",90250,33.919702392,-118.371939326,157,"5240 W 124TH PLACE, HAWTHORNE, CA, 90250","Match","Exact","5240 W 124TH PL, HAWTHORNE, CA, 90250",141656232,"L"
704658,"5240 W COUNTY ROAD 600 S","COMMISKEY","IN",47227,38.8964628080001,-85.706417288,158,"5240 W COUNTY ROAD 600 S, COMMISKEY, IN, 47227","Match","Exact","5240 W CO RD 600 S, COMMISKEY, IN, 47227",30125223,"L"
704659,"5240 W GARDEN DR","GLENDALE","AZ",85304,33.588363826,-112.171954347,159,"5240 W GARDEN DR, GLENDALE, AZ, 85304","Match","Exact","5240 W GARDEN DR, GLENDALE, AZ, 85304",128176856,"R"
704660,"5240 WATER VALLEY DRIVE","TALLAHASSEE","FL",32303,30.53374182,-84.364752176,160,"5240 WATER VALLEY DRIVE, TALLAHASSEE, FL, 32303","Match","Exact","5240 WATER VALLEY DR, TALLAHASSEE, FL, 32303",635797408,"L"
704661,"52400 W 12 MILE RD","WIXOM","MI",48393,42.4925754720001,-83.567760224,161,"52400 W 12 MILE RD, WIXOM, MI, 48393","Match","Exact","52400 12 MILE RD, WIXOM, MI, 48393",652703879,"R"
704662,"52403 W VAL VISTA RD","MARICOPA","AZ",85139,32.9710059720001,-112.131435886,162,"52403 W VAL VISTA RD, MARICOPA, AZ, 85139","Match","Non_Exact","52405 W VAL VISTA RD, MARICOPA, AZ, 85139",651688941,"R"
704663,"52404-0000","CEDAR RAPIDS","IA",52404,NA,NA,163,"52404-0000, CEDAR RAPIDS, IA, 52404","No_Match",NA,NA,NA,NA
704664,"5241 ALAMOSA PARK DRIVE","OCENASIDE","CA",92057,33.242915554,-117.281607676,164,"5241 ALAMOSA PARK DRIVE, OCENASIDE, CA, 92057","Match","Non_Exact","5241 ALAMOSA PARK DR, OCEANSIDE, CA, 92057",195427866,"L"
704665,"5241 ARBARDEE DR","FAIR OAKS","CA",95628,38.6615013530001,-121.230423269,165,"5241 ARBARDEE DR, FAIR OAKS, CA, 95628","Match","Exact","5241 ARBARDEE DR, FAIR OAKS, CA, 95628",133356445,"L"
704666,"5241 BAILEY DRIVE","ELLENWOOD","GA",30294,NA,NA,166,"5241 BAILEY DRIVE, ELLENWOOD, GA, 30294","No_Match",NA,NA,NA,NA
704667,"5241 BEAVER CREEK DR","FAYETTEVILLE","NC",28303,35.079940164,-78.9720605319999,167,"5241 BEAVER CREEK DR, FAYETTEVILLE, NC, 28303","Match","Exact","5241 BEAVER CREEK DR, FAYETTEVILLE, NC, 28303",64194953,"L"
704668,"5241 BUENA VISTA DR","DALLAS","TX",75054,NA,NA,168,"5241 BUENA VISTA DR, DALLAS, TX, 75054","No_Match",NA,NA,NA,NA
704669,"5241 CEDAR RIDGE WAY","ANTIOCH","CA",94531,37.9590293310001,-121.8006637,169,"5241 CEDAR RIDGE WAY, ANTIOCH, CA, 94531","Match","Exact","5241 CEDAR RIDGE WAY, ANTIOCH, CA, 94531",192105813,"R"
704670,"5241 COUNTY ROAD 73","ROBSTOWN","TX",78380,NA,NA,170,"5241 COUNTY ROAD 73, ROBSTOWN, TX, 78380","No_Match",NA,NA,NA,NA
704671,"5241 DAKOTA DR","WEST DES MOINES","IA",50265,41.5791418850001,-93.774843407,171,"5241 DAKOTA DR, WEST DES MOINES, IA, 50265","Match","Exact","5241 DAKOTA DR, W DES MOINES, IA, 50265",65796408,"R"
704672,"5241 DIBBLE RD","KINGSVILLE","OH",44048,41.868389011,-80.698042648,172,"5241 DIBBLE RD, KINGSVILLE, OH, 44048","Match","Exact","5241 DIBBLE RD, KINGSVILLE, OH, 44048",117316179,"L"
704673,"5241 EAST IDLEWOOD COURT","NEW ORLEANS","LA",70128,30.0324067330001,-89.955922648,173,"5241 EAST IDLEWOOD COURT, NEW ORLEANS, LA, 70128","Match","Exact","5241 E IDLEWOOD CT, NEW ORLEANS, LA, 70128",191726955,"R"
704674,"5241 EAST IDLWOOD COURT","NEW ORLEANS","LA",70128,30.0324067330001,-89.955922648,174,"5241 EAST IDLWOOD COURT, NEW ORLEANS, LA, 70128","Match","Non_Exact","5241 E IDLEWOOD CT, NEW ORLEANS, LA, 70128",191726955,"R"
704675,"5241 FLATROCK DRIVE","FAYETTEVILLE","NC",28311,35.1365493340001,-78.896566155,175,"5241 FLATROCK DRIVE, FAYETTEVILLE, NC, 28311","Match","Non_Exact","5241 FLAT ROCK DR, FAYETTEVILLE, NC, 28311",64216817,"L"
704676,"5241 GLIMMER WAY","SACRAMENTO","CA",95835,38.6733416750001,-121.530916435,176,"5241 GLIMMER WAY, SACRAMENTO, CA, 95835","Match","Exact","5241 GLIMMER WAY, SACRAMENTO, CA, 95835",619909387,"R"
704677,"5241 HICKORY ROAD","INDIANAPOLIS","IN",46239,39.691767897,-85.994364263,177,"5241 HICKORY ROAD, INDIANAPOLIS, IN, 46239","Match","Exact","5241 HICKORY RD, INDIANAPOLIS, IN, 46239",108045529,"L"
704678,"5241 LINCOLN AVE C2","CYPRESS","CA",90630,33.831795797,-118.042425295,178,"5241 LINCOLN AVE C2, CYPRESS, CA, 90630","Match","Exact","5241 LINCOLN AVE, CYPRESS, CA, 90630",143999532,"L"
704679,"5241 LINCOLN AVE STE C2","CYPRESS","CA",90630,33.831795797,-118.042425295,179,"5241 LINCOLN AVE STE C2, CYPRESS, CA, 90630","Match","Exact","5241 LINCOLN AVE, CYPRESS, CA, 90630",143999532,"L"
704680,"5241 MACK RD","HALTOM CITY","TX",76117,32.827079988,-97.270434065,180,"5241 MACK RD, HALTOM CITY, TX, 76117","Match","Exact","5241 MACK RD, HALTOM CITY, TX, 76117",101862215,"L"
704681,"5241 MARLENE AVE","JACKSONVILLE","FL",32210,30.284647878,-81.735890844,181,"5241 MARLENE AVE, JACKSONVILLE, FL, 32210","Match","Exact","5241 MARLENE AVE, JACKSONVILLE, FL, 32210",83911553,"R"
704682,"5241 MILL DAM RD","WAKE FOREST","NC",27587,35.9801427030001,-78.452710575,182,"5241 MILL DAM RD, WAKE FOREST, NC, 27587","Match","Exact","5241 MILL DAM RD, WAKE FOREST, NC, 27587",208375978,"L"
704683,"5241 MONUMENT AVE UNIT 1A","RICHMOND","VA",23226,37.5797224510001,-77.503638176,183,"5241 MONUMENT AVE UNIT 1A, RICHMOND, VA, 23226","Match","Exact","5241 MONUMENT AVE, RICHMOND, VA, 23226",643019566,"L"
704684,"5241 N MAPLE AVE","FRESNO","CA",93740,NA,NA,184,"5241 N MAPLE AVE, FRESNO, CA, 93740","Tie",NA,NA,NA,NA
704685,"5241 NORTH WINTHROP AVE APT 2","CHICAGO","IL",60640,41.977127298,-87.657825997,185,"5241 NORTH WINTHROP AVE APT 2, CHICAGO, IL, 60640","Match","Exact","5241 N WINTHROP AVE, CHICAGO, IL, 60640",111761492,"R"
704686,"5241 OLD HIGHWAY 43","SATSUMA","AL",36572,30.83904941,-88.0625072129999,186,"5241 OLD HIGHWAY 43, SATSUMA, AL, 36572","Match","Exact","5241 OLD HWY 43, SATSUMA, AL, 36572",61955151,"L"
704687,"5241 RED CEDAR DR","FORT MYERS","FL",33907,26.5833892970001,-81.8767127149999,187,"5241 RED CEDAR DR, FORT MYERS, FL, 33907","Match","Exact","5241 RED CEDAR DR, FORT MYERS, FL, 33907",610860076,"L"
704688,"5241 W HILLSBORO BLVD","COCONUT CREEK","FL",33073,26.3176271450001,-80.1973871719999,188,"5241 W HILLSBORO BLVD, COCONUT CREEK, FL, 33073","Match","Exact","5241 W HILLSBORO BLVD, COCONUT CREEK, FL, 33073",636802924,"R"
704689,"5241 WELDON CT","FORT WORTH","TX",76132,32.6715453150001,-97.420456867,189,"5241 WELDON CT, FORT WORTH, TX, 76132","Match","Non_Exact","5241 WELDEN CT, FORT WORTH, TX, 76132",648453354,"R"
704690,"5242 41ST AVE SW","SEATTLE","WA",98136,47.5551944640001,-122.384179911,190,"5242 41ST AVE SW, SEATTLE, WA, 98136","Match","Exact","5242 41ST AVE SW, SEATTLE, WA, 98136",186661465,"L"
704691,"5242 ARQUILLA DRIVE","RICHTON PARK","IL",60471,NA,NA,191,"5242 ARQUILLA DRIVE, RICHTON PARK, IL, 60471","No_Match",NA,NA,NA,NA
704692,"5242 AUTUMN PL","RAPID CITY","SD",57702,44.0331917180001,-103.271408307,192,"5242 AUTUMN PL, RAPID CITY, SD, 57702","Match","Exact","5242 AUTUMN PL, RAPID CITY, SD, 57702",205532606,"L"
704693,"5242 BURCLIFF DR","RALEIGH","NC",27612,NA,NA,193,"5242 BURCLIFF DR, RALEIGH, NC, 27612","No_Match",NA,NA,NA,NA
704694,"5242 COLUMBIA WAY","LANCASTER","CA",93536,34.645585666,-118.223688434,194,"5242 COLUMBIA WAY, LANCASTER, CA, 93536","Match","Exact","5242 COLUMBIA WAY, LANCASTER, CA, 93536",648855472,"R"
704695,"5242 COUNTRYWOOD LN","GRAND BLANC","MI",48436,42.9512912180001,-83.5971005009999,195,"5242 COUNTRYWOOD LN, GRAND BLANC, MI, 48436","Match","Non_Exact","5242 COUNTRY WOOD LN, GRAND BLANC, MI, 48439",633575284,"L"
704696,"5242 DERRINGER RD","LAS CRUCES","NM",88011,32.2599791640001,-106.727018872,196,"5242 DERRINGER RD, LAS CRUCES, NM, 88011","Match","Exact","5242 DERRINGER RD, LAS CRUCES, NM, 88011",189547033,"R"
704697,"5242 E HILTON AVE","MESA","AZ",85206,33.3886163400001,-111.718160942,197,"5242 E HILTON AVE, MESA, AZ, 85206","Match","Exact","5242 E HILTON AVE, MESA, AZ, 85206",128875515,"L"
704698,"5242 FOSTER STREET","MISSION","KS",66202,39.0346510790001,-94.672434432,198,"5242 FOSTER STREET, MISSION, KS, 66202","Match","Exact","5242 FOSTER ST, MISSION, KS, 66202",91338762,"R"
704699,"5242 GALIUM CT APT 202","CAMBRIDGE","MD",21613,NA,NA,199,"5242 GALIUM CT APT 202, CAMBRIDGE, MD, 21613","No_Match",NA,NA,NA,NA
704700,"5242 GETTYSBURG WAY","COLUMBUS","GA",31907,32.4339252120001,-84.904321339,200,"5242 GETTYSBURG WAY, COLUMBUS, GA, 31907","Match","Exact","5242 GETTYSBURG WAY, COLUMBUS, GA, 31907",98943697,"R"
704701,"5242 HOLLY SPRINGS","BAY CITY","MI",48706,43.5886429340001,-83.93072166,201,"5242 HOLLY SPRINGS, BAY CITY, MI, 48706","Match","Non_Exact","5242 HOLLY SPRINGS LN, BAY CITY, MI, 48706",650223588,"R"
704702,"5242 LAKESHORE DR","WILLIS","TX",78318,30.4106167570001,-95.5688991379999,202,"5242 LAKESHORE DR, WILLIS, TX, 78318","Match","Non_Exact","5242 LAKESHORE DR, WILLIS, TX, 77318",79273270,"R"
704703,"5242 MARBURN AVE","WINDSOR HILLS","CA",90043,33.9940195460001,-118.351566528,203,"5242 MARBURN AVE, WINDSOR HILLS, CA, 90043","Match","Exact","5242 MARBURN AVE, WINDSOR HILLS, CA, 90043",141653752,"L"
704704,"5242 MEREDITH DR","DES MOINES","IA",50310,41.644001749,-93.689145004,204,"5242 MEREDITH DR, DES MOINES, IA, 50310","Match","Exact","5242 MEREDITH DR, DES MOINES, IA, 50310",638741993,"L"
704705,"5242 N QUAIL RUN PL","PARADISE VALLEY","AZ",85253,33.513742908,-111.92876606,205,"5242 N QUAIL RUN PL, PARADISE VALLEY, AZ, 85253","Match","Exact","5242 N QUAIL RUN PL, PARADISE VALLEY, AZ, 85253",128222314,"L"
704706,"5242 NORTH IRISH RD","DAVISION","MI",48423,43.0845434460001,-83.557740721,206,"5242 NORTH IRISH RD, DAVISION, MI, 48423","Match","Non_Exact","5242 N IRISH RD, DAVISON, MI, 48423",69607614,"R"
704707,"5242 RANCHCREST DRIVE","ROANOKE","VA",24018,NA,NA,207,"5242 RANCHCREST DRIVE, ROANOKE, VA, 24018","No_Match",NA,NA,NA,NA
704708,"5242 SMETANA DRIVE NORTH","HOPKINS","MN",55343,NA,NA,208,"5242 SMETANA DRIVE NORTH, HOPKINS, MN, 55343","No_Match",NA,NA,NA,NA
704709,"5242 SOUTH 4820 WEST","KEARNS","UT",84118,40.656176798,-112.005909,209,"5242 SOUTH 4820 WEST, KEARNS, UT, 84118","Match","Exact","5242 S 4820 W, KEARNS, UT, 84118",176134655,"R"
704710,"5242 TANGERINE AVE","WINTER PARK","FL",32792,28.615867252,-81.294878685,210,"5242 TANGERINE AVE, WINTER PARK, FL, 32792","Match","Exact","5242 TANGERINE AVE, WINTER PARK, FL, 32792",93746122,"L"
704711,"5242 W COUNTY ROAD 700 S","GREENSBURG","IN",47240,NA,NA,211,"5242 W COUNTY ROAD 700 S, GREENSBURG, IN, 47240","No_Match",NA,NA,NA,NA
704712,"5242 W HARRISON ST","CHICAGO","IL",60623,41.872939509,-87.756116596,212,"5242 W HARRISON ST, CHICAGO, IL, 60623","Match","Non_Exact","5242 W HARRISON ST, CHICAGO, IL, 60644",605077782,"R"
704713,"5242 WATER LILY LN","ROCKLIN","CA",95677,38.7864634490001,-121.203414357,213,"5242 WATER LILY LN, ROCKLIN, CA, 95677","Match","Exact","5242 WATER LILY LN, ROCKLIN, CA, 95677",624264225,"L"
704714,"5242 WEST 700 SOUTH","GREENSBURG","IN",47240,39.2345291670001,-85.5801455819999,214,"5242 WEST 700 SOUTH, GREENSBURG, IN, 47240","Match","Non_Exact","5242 W CO RD 700 S, GREENSBURG, IN, 47240",31187237,"L"
704715,"5243 AHMADU BELLO WAY","ABUJA",NA,NA,NA,NA,215,"5243 AHMADU BELLO WAY, ABUJA, , ","No_Match",NA,NA,NA,NA
704716,"5243 ARIEL ST","HOUSTON","TX",77096,29.682554425,-95.474777387,216,"5243 ARIEL ST, HOUSTON, TX, 77096","Match","Exact","5243 ARIEL ST, HOUSTON, TX, 77096",96583810,"L"
704717,"5243 BREESE CIR","EL DORADO HILLS","CA",95762,38.6902435810001,-121.066471623,217,"5243 BREESE CIR, EL DORADO HILLS, CA, 95762","Match","Exact","5243 BREESE CIR, EL DORADO HILLS, CA, 95762",133069734,"R"
704718,"5243 BRIARWOOD DR","AURORA","IN",47025,39.104587118,-84.916425238,218,"5243 BRIARWOOD DR, AURORA, IN, 47025","Match","Non_Exact","5243 BRIARWOOD DR, AURORA, IN, 47001",76878120,"R"
704719,"5243 BROOKWAY DRIVE","COLUMBIA","MD",21045,NA,NA,219,"5243 BROOKWAY DRIVE, COLUMBIA, MD, 21045","No_Match",NA,NA,NA,NA
704720,"5243 COCHISE TRAIL","LAS CRUCES","NM",88012,32.3942003880001,-106.783898647,220,"5243 COCHISE TRAIL, LAS CRUCES, NM, 88012","Match","Exact","5243 COCHISE TRL, LAS CRUCES, NM, 88012",189556007,"L"
704721,"5243 CR 3300","INDEPENDENCE","KS",67301,37.2903618390001,-95.7652976479999,221,"5243 CR 3300, INDEPENDENCE, KS, 67301","Match","Exact","5243 CO RD 3300, INDEPENDENCE, KS, 67301",13799530,"L"
704722,"5243 CREEKBEND","HOUSTON","TX",77096,29.665710259,-95.4719244899999,222,"5243 CREEKBEND, HOUSTON, TX, 77096","Match","Non_Exact","5243 CREEKBEND DR, HOUSTON, TX, 77096",96039561,"L"
704723,"5243 CREKBEND","HOUSTON","TX",77096,29.665710259,-95.4719244899999,223,"5243 CREKBEND, HOUSTON, TX, 77096","Match","Non_Exact","5243 CREEKBEND DR, HOUSTON, TX, 77096",96039561,"L"
704724,"5243 CYPRESS AVENUE","KANSAS CITY","MO",64130,39.0305057310001,-94.5322351619999,224,"5243 CYPRESS AVENUE, KANSAS CITY, MO, 64130","Match","Exact","5243 CYPRESS AVE, KANSAS CITY, MO, 64130",91453320,"L"
704725,"5243 DODGE STREET","DULUTH","MN",55804,46.8343124400001,-92.018516421,225,"5243 DODGE STREET, DULUTH, MN, 55804","Match","Exact","5243 DODGE ST, DULUTH, MN, 55804",163215788,"L"
704726,"5243 E ARBOR ROAD","LONG BEACH","CA",90808,33.8430434420001,-118.130366956,226,"5243 E ARBOR ROAD, LONG BEACH, CA, 90808","Match","Exact","5243 E ARBOR RD, LONG BEACH, CA, 90808",141700547,"L"
704727,"5243 EAGLEDALE AVE APT3","LOS ANGELES","CA",90041,34.1448592190001,-118.228086059,227,"5243 EAGLEDALE AVE APT3, LOS ANGELES, CA, 90041","Match","Exact","5243 EAGLEDALE AVE, LOS ANGELES, CA, 90041",141611348,"L"
704728,"5243 MAY SMITH RD","HARTVILLE","MO",65667,37.2410039310001,-92.406982687,228,"5243 MAY SMITH RD, HARTVILLE, MO, 65667","Match","Non_Exact","5243 MAY-SMITH RD, HARTVILLE, MO, 65667",26659167,"L"
704729,"5243 N 6TH ST","PHILADELPHIA","PA",19120,40.0312751270001,-75.133647213,229,"5243 N 6TH ST, PHILADELPHIA, PA, 19120","Match","Exact","5243 N 6TH ST, PHILADELPHIA, PA, 19120",131419390,"R"
704730,"5243 OLVERA AVE","SAN DIEGO","CA",92114,32.697894949,-117.082158447,230,"5243 OLVERA AVE, SAN DIEGO, CA, 92114","Match","Exact","5243 OLVERA AVE, SAN DIEGO, CA, 92114",195352035,"R"
704731,"5243 PAWNEE DRIVE","GREELEY","CO",80634,40.375118269,-104.76542992,231,"5243 PAWNEE DRIVE, GREELEY, CO, 80634","Match","Exact","5243 PAWNEE DR, GREELEY, CO, 80634",188674316,"R"
704732,"5243 RAMBLING RD","LAS VEGAS","NV",89120,36.0942891400001,-115.095689807,232,"5243 RAMBLING RD, LAS VEGAS, NV, 89120","Match","Exact","5243 RAMBLING RD, LAS VEGAS, NV, 89120",201879000,"R"
704733,"5243 RAYANNA CT","PHOENIX","AZ",85015,33.51421678,-112.093953757,233,"5243 RAYANNA CT, PHOENIX, AZ, 85015","Match","Exact","5243 RAYANNA CT, PHOENIX, AZ, 85015",635493781,"R"
704734,"5243 ROTARY DRIVE","CHATTANOOGA","TN",37416,NA,NA,234,"5243 ROTARY DRIVE, CHATTANOOGA, TN, 37416","No_Match",NA,NA,NA,NA
704735,"5243 S HONORE","CHICAGO","IL",60609,41.798641102,-87.6707785679999,235,"5243 S HONORE, CHICAGO, IL, 60609","Match","Non_Exact","5243 S HONORE ST, CHICAGO, IL, 60609",111805477,"L"
704736,"5243 SILVER STAR CV","MEMPHIS","TN",38125,NA,NA,236,"5243 SILVER STAR CV, MEMPHIS, TN, 38125","No_Match",NA,NA,NA,NA
704737,"5243 SILVER STONE CV","MEMPHIS","TN",30080,35.0048159240001,-89.825943798,237,"5243 SILVER STONE CV, MEMPHIS, TN, 30080","Match","Non_Exact","5243 SILVER STONE COVE, MEMPHIS, TN, 38125",618713144,"R"
704738,"5243 SOUTH MEADOWLARK LANE","HALES CORNERS","WI",53130,42.9490083110001,-88.065388995,238,"5243 SOUTH MEADOWLARK LANE, HALES CORNERS, WI, 53130","Match","Exact","5243 S MEADOWLARK LN, HALES CORNERS, WI, 53130",77758290,"R"
704739,"5243 SOUTHWICK CT","MATTESON","IL",60443,41.500007597,-87.740541817,239,"5243 SOUTHWICK CT, MATTESON, IL, 60443","Match","Exact","5243 SOUTHWICK CT, MATTESON, IL, 60443",613604035,"L"
704740,"5243 SPRUCE ST","PHILADELPHIA","PA",19139,39.954721443,-75.227008047,240,"5243 SPRUCE ST, PHILADELPHIA, PA, 19139","Match","Exact","5243 SPRUCE ST, PHILADELPHIA, PA, 19139",652295347,"R"
704741,"5243 SW ROSE PL","CORVALLIS","OR",97333,44.5487632140001,-123.310341632,241,"5243 SW ROSE PL, CORVALLIS, OR, 97333","Match","Exact","5243 SW ROSE PL, CORVALLIS, OR, 97333",155872375,"L"
704742,"5243 TAMIAMI CT","CAPE CORAL","FL",33904,26.555549834,-81.967554333,242,"5243 TAMIAMI CT, CAPE CORAL, FL, 33904","Match","Exact","5243 TAMIAMI CT, CAPE CORAL, FL, 33904",118089225,"L"
704743,"5243 WOODFIELD DRIVE","CARMEL","IN",46033,39.9931322690001,-86.081239958,243,"5243 WOODFIELD DRIVE, CARMEL, IN, 46033","Match","Exact","5243 WOODFIELD DR, CARMEL, IN, 46033",29329890,"R"
704744,"52433 EAST DRIVE","BEALLSVILLE","OH",43716,NA,NA,244,"52433 EAST DRIVE, BEALLSVILLE, OH, 43716","No_Match",NA,NA,NA,NA
704745,"5244 46TH AVE S","MINNEAPOLIS","MN",55417,44.9081891110001,-93.207571711,245,"5244 46TH AVE S, MINNEAPOLIS, MN, 55417","Match","Exact","5244 46TH AVE S, MINNEAPOLIS, MN, 55417",43641118,"R"
704746,"5244 57TH STREET","LOS ANGELES","CA",90056,33.9889846460001,-118.372408004,246,"5244 57TH STREET, LOS ANGELES, CA, 90056","Match","Non_Exact","5244 W 57TH ST, LOS ANGELES, CA, 90056",141653480,"L"
704747,"5244 BASKIN STREET","ORLANDO","FL",32814,28.5786453760001,-81.319526772,247,"5244 BASKIN STREET, ORLANDO, FL, 32814","Match","Exact","5244 BASKIN ST, ORLANDO, FL, 32814",640908773,"R"
704748,"5244 BLOOMINGTON AVENUE","MINNEAPOLIS","MN",55417,44.908040375,-93.252465812,248,"5244 BLOOMINGTON AVENUE, MINNEAPOLIS, MN, 55417","Match","Non_Exact","5244 BLOOMINGTON AVE S, MINNEAPOLIS, MN, 55417",43635083,"R"
704749,"5244 BURGESS AVE","INDIANAPOLIS","IN",46219,39.7632369080001,-86.079899724,249,"5244 BURGESS AVE, INDIANAPOLIS, IN, 46219","Match","Non_Exact","5244 E BURGESS AVE, INDIANAPOLIS, IN, 46219",108001584,"L"
704750,"5244 CHLOE LANE","SEYMOUR","IN",47274,38.906088228,-85.937715423,250,"5244 CHLOE LANE, SEYMOUR, IN, 47274","Match","Exact","5244 CHLOE LN, SEYMOUR, IN, 47274",648394854,"R"
704751,"5244 EARLES COURT","FREDERICK","MD",21703,39.375549778,-77.4279928989999,251,"5244 EARLES COURT, FREDERICK, MD, 21703","Match","Exact","5244 EARLES CT, FREDERICK, MD, 21703",608291528,"R"
704752,"5244 EARLES CT","FREDERICK","MD",21703,39.375549778,-77.4279928989999,252,"5244 EARLES CT, FREDERICK, MD, 21703","Match","Exact","5244 EARLES CT, FREDERICK, MD, 21703",608291528,"R"
704753,"5244 EAST LIBBY STREET","SCOTTSDALE","AZ",85254,33.6485039740001,-111.967343711,253,"5244 EAST LIBBY STREET, SCOTTSDALE, AZ, 85254","Match","Exact","5244 E LIBBY ST, SCOTTSDALE, AZ, 85254",128591542,"L"
704754,"5244 FOLSOMVILLE DEGONIA ROAD","TENNYSON","IN",47637,38.108524188,-87.1677517529999,254,"5244 FOLSOMVILLE DEGONIA ROAD, TENNYSON, IN, 47637","Match","Exact","5244 FOLSOMVILLE DEGONIA RD, TENNYSON, IN, 47637",32208221,"R"
704755,"5244 FREDCREST RD","BALTIMORE","MD",21229,39.2829419060001,-76.7031281129999,255,"5244 FREDCREST RD, BALTIMORE, MD, 21229","Match","Exact","5244 FREDCREST RD, BALTIMORE, MD, 21229",206436599,"R"
704756,"5244 GRANDVIEW AVENUE","ALTOONA","PA",16601,40.4783857200001,-78.425342413,256,"5244 GRANDVIEW AVENUE, ALTOONA, PA, 16601","Match","Exact","5244 GRANDVIEW AVE, ALTOONA, PA, 16601",49711969,"R"
704757,"5244 HACKBERRY LANE 101","SACRAMENTO","CA",95841,38.6622520000001,-121.332022304,257,"5244 HACKBERRY LANE 101, SACRAMENTO, CA, 95841","Match","Exact","5244 HACKBERRY LN, SACRAMENTO, CA, 95841",133341373,"R"
704758,"5244 HIGHLAND TRACE CIRCLE","BIRMINGHAM","AL",35215,33.6557427010001,-86.6646408409999,258,"5244 HIGHLAND TRACE CIRCLE, BIRMINGHAM, AL, 35215","Match","Exact","5244 HIGHLAND TRACE CIR, BIRMINGHAM, AL, 35215",81658980,"L"
704759,"5244 JOSE CARDENAS","EL PASO","TX",79912,31.8127843710001,-106.528555207,259,"5244 JOSE CARDENAS, EL PASO, TX, 79912","Match","Non_Exact","5244 JOSE CARDENAS LN, EL PASO, TX, 79912",189423964,"R"
704760,"5244 KATHRYN DR","GRAND PRAIRIE","TX",75052,32.645615164,-97.0563779139999,260,"5244 KATHRYN DR, GRAND PRAIRIE, TX, 75052","Match","Exact","5244 KATHRYN DR, GRAND PRAIRIE, TX, 75052",102187620,"R"
704761,"5244 LAMBERT ROAD","GROVE CITY","OH",43123,39.858886124,-83.159910407,261,"5244 LAMBERT ROAD, GROVE CITY, OH, 43123","Match","Exact","5244 LAMBERT RD, GROVE CITY, OH, 43123",218638777,"L"
704762,"5244 MONTICELLO HALL DR","COLUMBUS","OH",43221,40.0606689890001,-83.130449121,262,"5244 MONTICELLO HALL DR, COLUMBUS, OH, 43221","Match","Exact","5244 MONTICELLO HALL DR, COLUMBUS, OH, 43221",630172275,"L"
704763,"5244 N GLENWOOD AVENUE UNIT 2S","CHICAGO","IL",60640,41.9773989400001,-87.6647899279999,263,"5244 N GLENWOOD AVENUE UNIT 2S, CHICAGO, IL, 60640","Match","Non_Exact","5244 N GLENWOOD AVE, CHICAGO, IL, 60640",111761425,"L"
704764,"5244 NEWTON FALLS ROAD","RAVENNA","OH",44266,41.160374292,-81.204187234,264,"5244 NEWTON FALLS ROAD, RAVENNA, OH, 44266","Match","Exact","5244 NEWTON FALLS RD, RAVENNA, OH, 44266",635757606,"R"
704765,"5244 ORCHARD HILLS AVE","LAS VEGAS","NV",89130,36.254293138,-115.218559784,265,"5244 ORCHARD HILLS AVE, LAS VEGAS, NV, 89130","Match","Exact","5244 ORCHARD HILLS AVE, LAS VEGAS, NV, 89130",201916967,"L"
704766,"5244 PESTO WAY","OAK PARK","CA",91377,34.1756085270001,-118.7764117,266,"5244 PESTO WAY, OAK PARK, CA, 91377","Match","Exact","5244 PESTO WAY, OAK PARK, CA, 91377",110019701,"R"
704767,"5244 ROLIND DRIVE","MONTGOMERY","AL",36108,32.3020108100001,-86.346688027,267,"5244 ROLIND DRIVE, MONTGOMERY, AL, 36108","Match","Exact","5244 ROLIND DR, MONTGOMERY, AL, 36108",1503455,"L"
704768,"5244 S JUSTINE ST","CHICAGO","IL",60609,41.7986657120001,-87.663497896,268,"5244 S JUSTINE ST, CHICAGO, IL, 60609","Match","Exact","5244 S JUSTINE ST, CHICAGO, IL, 60609",111805712,"R"
704769,"5244 S KING DRIVE UNIT 2N","CHICAGO","IL",60612,NA,NA,269,"5244 S KING DRIVE UNIT 2N, CHICAGO, IL, 60612","No_Match",NA,NA,NA,NA
704770,"5244 SCHUBERT ST","AMES","IA",50014,42.0212900830001,-93.6889318679999,270,"5244 SCHUBERT ST, AMES, IA, 50014","Match","Exact","5244 SCHUBERT ST, AMES, IA, 50014",65957634,"L"
704771,"5244 SHARPS POINT RD","SALISBURY","MD",21801,38.3377542330001,-75.6443592219999,271,"5244 SHARPS POINT RD, SALISBURY, MD, 21801","Match","Exact","5244 SHARPS POINT RD, SALISBURY, MD, 21801",637456508,"L"
704772,"5244 SIERRA VILLA DR","LOS ANGELES","CA",90041,34.142979752,-118.22250466,272,"5244 SIERRA VILLA DR, LOS ANGELES, CA, 90041","Match","Exact","5244 SIERRA VILLA DR, LOS ANGELES, CA, 90041",141611481,"R"
704773,"5244 SOUTH IRISH RD","GRAND BLANC","MI",48439,42.95549493,-83.554636624,273,"5244 SOUTH IRISH RD, GRAND BLANC, MI, 48439","Match","Non_Exact","5244 IRISH RD, GRAND BLANC, MI, 48439",69581254,"R"
704774,"5244 TRIPPLE CROWN","BONSALL","CA",92003,33.2949187300001,-117.227303733,274,"5244 TRIPPLE CROWN, BONSALL, CA, 92003","Match","Non_Exact","5244 TRIPLE CROWN DR, BONSALL, CA, 92003",195443552,"R"
704775,"5244 VIA ESTER","YORBA LINDA","CA",92886,33.8856445710001,-117.781384432,275,"5244 VIA ESTER, YORBA LINDA, CA, 92886","Match","Exact","5244 VIA ESTER, YORBA LINDA, CA, 92886",143996750,"L"
704776,"5244 W POTTER DR","GLENDALE","AZ",85308,33.6740953780001,-112.171694398,276,"5244 W POTTER DR, GLENDALE, AZ, 85308","Match","Exact","5244 W POTTER DR, GLENDALE, AZ, 85308",128399033,"R"
704777,"5244","EAST  STROUDSBURG","PA",18301,NA,NA,277,"5244, EAST  STROUDSBURG, PA, 18301","No_Match",NA,NA,NA,NA
704778,"52441 HAVASUPAI CT UNIT 2","FORT HOOD","TX",76544,31.1444188930001,-97.829139187,278,"52441 HAVASUPAI CT UNIT 2, FORT HOOD, TX, 76544","Match","Exact","52441 HAVASUPAI CT, FORT HOOD, TX, 76544",146564017,"L"
704779,"52444 AVENIDA ALVARADO","LA QUINTA","CA",92253,33.667772567,-116.314057984,279,"52444 AVENIDA ALVARADO, LA QUINTA, CA, 92253","Match","Exact","52444 AVE ALVARADO, LA QUINTA, CA, 92253",194774354,"L"
704780,"5245 79TH AVE N","GREENFIELD","MN",55357,45.0990089530001,-93.6572181769999,280,"5245 79TH AVE N, GREENFIELD, MN, 55357","Match","Non_Exact","5245 79TH AVE N, LORETTO, MN, 55357",641214276,"R"
704781,"5245 BAYWOOD FOREST DR","KNIGHTDALE","NC",27545,35.7632807260001,-78.468482643,281,"5245 BAYWOOD FOREST DR, KNIGHTDALE, NC, 27545","Match","Exact","5245 BAYWOOD FOREST DR, KNIGHTDALE, NC, 27545",72600083,"R"
704782,"5245 BRECKINRIDGE LANE","CUMMING","GA",30040,34.1351140130001,-84.2123832089999,282,"5245 BRECKINRIDGE LANE, CUMMING, GA, 30040","Match","Exact","5245 BRECKINRIDGE LN, CUMMING, GA, 30040",629552060,"R"
704783,"5245 CAMILE AVE","JACKSONVILLE","FL",32210,30.2864739450001,-81.734972736,283,"5245 CAMILE AVE, JACKSONVILLE, FL, 32210","Match","Non_Exact","5245 CAMILLE AVE, JACKSONVILLE, FL, 32210",83911067,"R"
704784,"5245 CLARCONA OCOEE ROAD","ORLANDO","FL",32810,28.6120106560001,-81.4471004649999,284,"5245 CLARCONA OCOEE ROAD, ORLANDO, FL, 32810","Match","Exact","5245 CLARCONA OCOEE RD, ORLANDO, FL, 32810",94348031,"R"
704785,"5245 CLARWIN AVENUE","PITTSBURGH","PA",15229,40.507439699,-80.027780418,285,"5245 CLARWIN AVENUE, PITTSBURGH, PA, 15229","Match","Exact","5245 CLARWIN AVE, PITTSBURGH, PA, 15229",51620461,"L"
704786,"5245 E CHARTER OAK","SCOTTSDALE","AZ",85254,NA,NA,286,"5245 E CHARTER OAK, SCOTTSDALE, AZ, 85254","No_Match",NA,NA,NA,NA
704787,"5245 ELVIRA ROAD","WOODLAND HILLS","CA",91364,34.1641765520001,-118.602622405,287,"5245 ELVIRA ROAD, WOODLAND HILLS, CA, 91364","Match","Exact","5245 ELVIRA RD, WOODLAND HILLS, CA, 91364",141535441,"L"
704788,"5245 GREYWING COURT","TERRE HAUTE","IN",47803,39.4620902180001,-87.336841565,288,"5245 GREYWING COURT, TERRE HAUTE, IN, 47803","Match","Exact","5245 GREYWING CT, TERRE HAUTE, IN, 47803",27126520,"L"
704789,"5245 HEATHERWOOD DR","POCATELLO","ID",83204,42.8128058130001,-112.417202831,289,"5245 HEATHERWOOD DR, POCATELLO, ID, 83204","Match","Non_Exact","5245 HEATHERWOOD ST, POCATELLO, ID, 83204",204357987,"R"
704790,"5245 HIGHLAND AVE","SAINT LOUIS","MO",63113,38.670091911,-90.2624168739999,290,"5245 HIGHLAND AVE, SAINT LOUIS, MO, 63113","Match","Exact","5245 HIGHLAND AVE, SAINT LOUIS, MO, 63113",619014728,"R"
704791,"5245 HWY 221","ROEBUCK","SC",29376,34.8540388550001,-81.966041295,291,"5245 HWY 221, ROEBUCK, SC, 29376","Match","Non_Exact","5245 US HWY 221, ROEBUCK, SC, 29376",636319259,"R"
704792,"5245 JEWEL LANE N","PLYMOUTH","MN",55446,45.0475495210001,-93.500323325,292,"5245 JEWEL LANE N, PLYMOUTH, MN, 55446","Match","Exact","5245 JEWEL LN N, PLYMOUTH, MN, 55446",641215331,"L"
704793,"5245 JEWEL LANE","PADUCAH","KY",42001,37.0031369000001,-88.71048405,293,"5245 JEWEL LANE, PADUCAH, KY, 42001","Match","Non_Exact","5245 JEWELL LN, PADUCAH, KY, 42001",8395734,"L"
704794,"5245 LAGUNA PARK DR","ELK GROVE","CA",95758,38.4300364000001,-121.4397061,294,"5245 LAGUNA PARK DR, ELK GROVE, CA, 95758","Match","Exact","5245 LAGUNA PARK DR, ELK GROVE, CA, 95758",133379701,"R"
704795,"5245 LOCKE LANE","VIRGINIA BEACH","VA",23464,36.819523496,-76.167188424,295,"5245 LOCKE LANE, VIRGINIA BEACH, VA, 23464","Match","Exact","5245 LOCKE LN, VA BCH, VA, 23464",122263055,"L"
704796,"5245 LOCOMOTIVE LANE","NORCROSS","GA",30071,33.9483215170001,-84.194304884,296,"5245 LOCOMOTIVE LANE, NORCROSS, GA, 30071","Match","Non_Exact","5245 LOCOMOTIVE LN NW, NORCROSS, GA, 30071",623984232,"R"
704797,"5245 NATORP BLVD C109","MASON","OH",45040,39.3006766600001,-84.3184028699999,297,"5245 NATORP BLVD C109, MASON, OH, 45040","Match","Exact","5245 NATORP BLVD, MASON, OH, 45040",159035425,"L"
704798,"5245 NE 3RD CT APT 3","MIAMI","FL",33137,25.8240277520001,-80.18861101,298,"5245 NE 3RD CT APT 3, MIAMI, FL, 33137","Match","Non_Exact","5245 NE 3RD CT, MIAMI, FL, 33137",116007718,"R"
704799,"5245 NE CLEVELAND AVE","PORTLAND","OR",97211,45.561021672,-122.665868281,299,"5245 NE CLEVELAND AVE, PORTLAND, OR, 97211","Match","Exact","5245 NE CLEVELAND AVE, PORTLAND, OR, 97211",157503424,"L"
704800,"5245 NW 195 TERR","MIAMI GARDEN","FL",33055,25.949182579,-80.28977188,300,"5245 NW 195 TERR, MIAMI GARDEN, FL, 33055","Match","Non_Exact","5245 NW 195TH DR, MIAMI GARDENS, FL, 33055",640559570,"L"
704801,"5245 OLD ATLANTA ROAD","SUWANEE","GA",30024,34.086642435,-84.131948159,301,"5245 OLD ATLANTA ROAD, SUWANEE, GA, 30024","Match","Exact","5245 OLD ATLANTA RD, SUWANEE, GA, 30024",650755430,"L"
704802,"5245 S KENWOOD AVE","CHICAGO","IL",60615,41.7999137830001,-87.592634893,302,"5245 S KENWOOD AVE, CHICAGO, IL, 60615","Match","Exact","5245 S KENWOOD AVE, CHICAGO, IL, 60615",605501134,"L"
704803,"5245 S MICHIGAN AVE UNIT G","CHICAGO","IL",60615,41.7989178710001,-87.622564386,303,"5245 S MICHIGAN AVE UNIT G, CHICAGO, IL, 60615","Match","Non_Exact","5245 S MICHIGAN AVE, CHICAGO, IL, 60615",111770993,"L"
704804,"5245 S PRAIRIE","CHICAGO","IL",60619,NA,NA,304,"5245 S PRAIRIE, CHICAGO, IL, 60619","No_Match",NA,NA,NA,NA
704805,"5245 SHAKESPEARE DRIVE","CONWAY","AR",72034,35.0990152740001,-92.516549147,305,"5245 SHAKESPEARE DRIVE, CONWAY, AR, 72034","Match","Exact","5245 SHAKESPEARE DR, CONWAY, AR, 72034",141073268,"R"
704806,"5245 SHELBORNE APT 5","MEMPHIS","TN",38134,35.1907920790001,-89.8879826039999,306,"5245 SHELBORNE APT 5, MEMPHIS, TN, 38134","Match","Non_Exact","5245 SHELBORNE CIR, MEMPHIS, TN, 38134",72923930,"R"
704807,"5245 SHELBORNE CIR APT 4","BARTLETT",NA,NA,35.1907920790001,-89.8879826039999,307,"5245 SHELBORNE CIR APT 4, BARTLETT, , ","Match","Exact","5245 SHELBORNE CIR, BARTLETT, TN, 38134",72923930,"R"
704808,"5245 SHELBORNE CIR APT 4","BARTLETT","TN",38134,35.1907920790001,-89.8879826039999,308,"5245 SHELBORNE CIR APT 4, BARTLETT, TN, 38134","Match","Exact","5245 SHELBORNE CIR, BARTLETT, TN, 38134",72923930,"R"
704809,"5245 SLAUSON","LOS ANGELES","CA",90056,33.988083671,-118.372289881,309,"5245 SLAUSON, LOS ANGELES, CA, 90056","Match","Exact","5245 SLAUSON, LOS ANGELES, CA, 90056",141653482,"R"
704810,"5245 SNOWDEN","TOLEDO","OH",43623,41.7105453570001,-83.646194613,310,"5245 SNOWDEN, TOLEDO, OH, 43623","Match","Non_Exact","5245 SNOWDEN DR, TOLEDO, OH, 43623",33931125,"L"
704811,"5245 SOUTH CLAREMONT AVENUE","CHICAGO","IL",60629,NA,NA,311,"5245 SOUTH CLAREMONT AVENUE, CHICAGO, IL, 60629","No_Match",NA,NA,NA,NA
704812,"5245 STATE HWY 94","TEBBETTS","MO",65080,38.6161356320001,-91.968263964,312,"5245 STATE HWY 94, TEBBETTS, MO, 65080","Match","Exact","5245 STATE HWY 94, TEBBETTS, MO, 65080",34351791,"L"
704813,"5245 THEODORE ST","MAPLE HTS","OH",44137,41.418095334,-81.5635851339999,313,"5245 THEODORE ST, MAPLE HTS, OH, 44137","Match","Exact","5245 THEODORE ST, MAPLE HEIGHTS, OH, 44137",61127923,"L"
704814,"5245 THOMAS ST","MAPLE HTS","OH",44137,41.418479543,-81.556433151,314,"5245 THOMAS ST, MAPLE HTS, OH, 44137","Match","Exact","5245 THOMAS ST, MAPLE HEIGHTS, OH, 44137",61129269,"L"
704815,"5245 W 99TH STREET","OAK LAWN","IL",60453,NA,NA,315,"5245 W 99TH STREET, OAK LAWN, IL, 60453","Tie",NA,NA,NA,NA
704816,"5245 W PRUFER CROSSCUT RD","DEER PARK","WA",99006,47.888210153,-117.563891684,316,"5245 W PRUFER CROSSCUT RD, DEER PARK, WA, 99006","Match","Exact","5245 PRUFER CROSSCUT RD, DEER PARK, WA, 99006",174851522,"L"
704817,"5245 W SLAUSON","LOS ANGELES","CA",90056,33.988083671,-118.372289881,317,"5245 W SLAUSON, LOS ANGELES, CA, 90056","Match","Exact","5245 SLAUSON, LOS ANGELES, CA, 90056",141653482,"R"
704818,"5245 WINDSOR LANE","LUMBERTON","TX",77657,30.2744008510001,-94.233946814,318,"5245 WINDSOR LANE, LUMBERTON, TX, 77657","Match","Exact","5245 WINDSOR LN, LUMBERTON, TX, 77657",615380841,"L"
704819,"5245 WOOD ST UNIT N","LA MESA","CA",91941,32.7737609710001,-117.003681458,319,"5245 WOOD ST UNIT N, LA MESA, CA, 91941","Match","Exact","5245 WOOD ST, LA MESA, CA, 91941",612878994,"R"
704820,"5245 ZACKARY GROVE  APT 205","COLORADO SPRINGS","CO",80919,NA,NA,320,"5245 ZACKARY GROVE  APT 205, COLORADO SPRINGS, CO, 80919","No_Match",NA,NA,NA,NA
704821,"5246 BETHUY","CASCO TWP","MI",48064,42.74889132,-82.71329131,321,"5246 BETHUY, CASCO TWP, MI, 48064","Match","Non_Exact","5246 BETHUY RD, CASCO, MI, 48064",110992925,"L"
704822,"5246 BIXLER AVE","LAKEWOOD","CA",90712,33.8525976010001,-118.152168599,322,"5246 BIXLER AVE, LAKEWOOD, CA, 90712","Match","Exact","5246 BIXLER AVE, LAKEWOOD, CA, 90712",642868269,"R"
704823,"5246 BRADDOCK AVE","NORTH CHARLESTON","SC",29405,32.8917055640001,-79.990671446,323,"5246 BRADDOCK AVE, NORTH CHARLESTON, SC, 29405","Match","Exact","5246 BRADDOCK AVE, N CHARLESTON, SC, 29405",108799350,"L"
704824,"5246 BRYANHURST","SPRING","TX",77379,30.0339488110001,-95.495012789,324,"5246 BRYANHURST, SPRING, TX, 77379","Match","Non_Exact","5246 BRYANHURST LN, SPRING, TX, 77379",96007612,"L"
704825,"5246 CADBURY ROAD","WHITTIER","CA",90601,33.999850979,-118.051861588,325,"5246 CADBURY ROAD, WHITTIER, CA, 90601","Match","Exact","5246 CADBURY RD, WHITTIER, CA, 90601",142792220,"L"
704826,"5246 COZY GLEN LANE","ALEXANDRIA","VA",22312,38.808673029,-77.145999,326,"5246 COZY GLEN LANE, ALEXANDRIA, VA, 22312","Match","Exact","5246 COZY GLEN LN, ALEXANDRIA, VA, 22312",76058384,"L"
704827,"5246 DARLENE","DALLAS","TX",75232,32.6814803620001,-96.850092326,327,"5246 DARLENE, DALLAS, TX, 75232","Match","Non_Exact","5246 DARLENE ST, DALLAS, TX, 75232",102947583,"L"
704828,"5246 E VERNON RD","ROSEBUSH","MI",48878,43.728007559,-84.743513752,328,"5246 E VERNON RD, ROSEBUSH, MI, 48878","Match","Exact","5246 E VERNON RD, ROSEBUSH, MI, 48878",110216961,"L"
704829,"5246 GIBNEY DRIVE","COLUMBUS","GA",31904,32.518659567,-84.985345111,329,"5246 GIBNEY DRIVE, COLUMBUS, GA, 31904","Match","Exact","5246 GIBNEY DR, COLUMBUS, GA, 31904",98936066,"R"
704830,"5246 LOWE PEAK DRIVE","RIVERTON","UT",84096,40.4947309400001,-112.015750058,330,"5246 LOWE PEAK DRIVE, RIVERTON, UT, 84096","Match","Exact","5246 LOWE PEAK DR, RIVERTON, UT, 84096",176128140,"L"
704831,"5246 MICHAELE LANE","MINNETONKA","MN",55345,44.908579042,-93.5068464839999,331,"5246 MICHAELE LANE, MINNETONKA, MN, 55345","Match","Exact","5246 MICHAELE LN, MINNETONKA, MN, 55345",43854909,"R"
704832,"5246 NORTH 35TH STREET","MILWAUKEE","WI",53209,43.1127942470001,-87.956410005,332,"5246 NORTH 35TH STREET, MILWAUKEE, WI, 53209","Match","Exact","5246 N 35TH ST, MILWAUKEE, WI, 53209",77735520,"R"
704833,"5246 OLIVE DALE CT","N LAS VEGAS","NV",89031,36.2552364090001,-115.146367118,333,"5246 OLIVE DALE CT, N LAS VEGAS, NV, 89031","Match","Exact","5246 OLIVE DALE CT, N LAS VEGAS, NV, 89031",201909818,"R"
704834,"5246 OLIVE DALE","N LAS VEGAS","NV",89031,36.2552364090001,-115.146367118,334,"5246 OLIVE DALE, N LAS VEGAS, NV, 89031","Match","Non_Exact","5246 OLIVE DALE CT, N LAS VEGAS, NV, 89031",201909818,"R"
704835,"5246 ONLEY RD","GIRDLETREE","MD",21829,38.0943569730001,-75.4208075019999,335,"5246 ONLEY RD, GIRDLETREE, MD, 21829","Match","Exact","5246 ONLEY RD, GIRDLETREE, MD, 21829",114551119,"L"
704836,"5246 RISHLEY RUN WAY","MOUNT DORA","FL",32757,28.777731123,-81.611567097,336,"5246 RISHLEY RUN WAY, MOUNT DORA, FL, 32757","Match","Exact","5246 RISHLEY RUN WAY, MOUNT DORA, FL, 32757",626953922,"L"
704837,"5246 SAILWIND CIRCLE","ORLANDO","FL",32810,28.638948171,-81.4373307339999,337,"5246 SAILWIND CIRCLE, ORLANDO, FL, 32810","Match","Exact","5246 SAILWIND CIR, ORLANDO, FL, 32810",94366201,"L"
704838,"5246 SHADOW LAKE DRIVE","FLOYDS KNOBS","IN",47119,38.3770623240001,-85.9037174059999,338,"5246 SHADOW LAKE DRIVE, FLOYDS KNOBS, IN, 47119","Match","Exact","5246 SHADOW LAKE DR, FLOYDS KNOBS, IN, 47119",89558641,"R"
704839,"5246 SHELBORNE CIRCLE","MEMPHIS","TN",38134,35.190785772,-89.888050012,339,"5246 SHELBORNE CIRCLE, MEMPHIS, TN, 38134","Match","Exact","5246 SHELBORNE CIR, MEMPHIS, TN, 38134",72923930,"L"
704840,"5246 STERLING COVE CT","MABLETON","GA",30126,33.8268398270001,-84.5288243959999,340,"5246 STERLING COVE CT, MABLETON, GA, 30126","Match","Exact","5246 STERLING COVE CT, MABLETON, GA, 30126",614169621,"L"
704841,"5246 SW 32ND ST UNIT 46","HOLLYWOOD","FL",33023,25.982332098,-80.1952905919999,341,"5246 SW 32ND ST UNIT 46, HOLLYWOOD, FL, 33023","Match","Non_Exact","5246 SW 32ND ST, HOLLYWOOD, FL, 33023",114785870,"L"
704842,"5246 TUPPER LAKE ROAD","SUNFIELD","MI",48890,NA,NA,342,"5246 TUPPER LAKE ROAD, SUNFIELD, MI, 48890","No_Match",NA,NA,NA,NA
704843,"5246 US HIGHWAY 62","HILLSBORO","OH",45133,39.1539522470001,-83.6583825769999,343,"5246 US HIGHWAY 62, HILLSBORO, OH, 45133","Match","Exact","5246 US HWY 62, HILLSBORO, OH, 45133",641180024,"R"
704844,"5246 W BLOOMINGDALE","CHICAGO","IL",60639,41.9131423630001,-87.7576975539999,344,"5246 W BLOOMINGDALE, CHICAGO, IL, 60639","Match","Non_Exact","5246 W BLOOMINGDALE AVE, CHICAGO, IL, 60639",605047000,"R"
704845,"52463 INDIAN SUMMER DRIVE","CHESTERFIELD","MI",48051,42.6864238420001,-82.8391317969999,345,"52463 INDIAN SUMMER DRIVE, CHESTERFIELD, MI, 48051","Match","Exact","52463 INDIAN SUMMER DR, CHESTERFIELD, MI, 48051",110731693,"L"
704846,"52464 TACOMA NARROWS DR","MACOMB","MI",48042,42.6827380290001,-82.944904983,346,"52464 TACOMA NARROWS DR, MACOMB, MI, 48042","Match","Exact","52464 TACOMA NARROWS DR, MACOMB, MI, 48042",648127719,"R"
704847,"5247 5TH STREET","ST AUGUSTINE","FL",32080,NA,NA,347,"5247 5TH STREET, ST AUGUSTINE, FL, 32080","No_Match",NA,NA,NA,NA
704848,"5247 BARRON PARK DRIVE","SAN JOSE","CA",95136,37.2567039940001,-121.848390975,348,"5247 BARRON PARK DRIVE, SAN JOSE, CA, 95136","Match","Exact","5247 BARRON PARK DR, SAN JOSE, CA, 95136",122923605,"R"
704849,"5247 BRAESVALLEY DRIVE","HOUSTON","TX",77096,29.679225945,-95.474878008,349,"5247 BRAESVALLEY DRIVE, HOUSTON, TX, 77096","Match","Exact","5247 BRAESVALLEY DR, HOUSTON, TX, 77096",96583816,"L"
704850,"5247 CENTRAL AVE","BONITA","CA",91902,32.6702015880001,-117.017603887,350,"5247 CENTRAL AVE, BONITA, CA, 91902","Match","Exact","5247 CENTRAL AVE, BONITA, CA, 91902",195362135,"L"
704851,"5247 CHANCELLOR ST","PHILADELPHIA","PA",19139,39.9564952360001,-75.226568281,351,"5247 CHANCELLOR ST, PHILADELPHIA, PA, 19139","Match","Exact","5247 CHANCELLOR ST, PHILADELPHIA, PA, 19139",131399214,"R"
704852,"5247 CO RD 254","BERTRAM","TX",78605,30.792172238,-98.109545526,352,"5247 CO RD 254, BERTRAM, TX, 78605","Match","Exact","5247 CO RD 254, BERTRAM, TX, 78605",146487614,"L"
704853,"5247 COLLEGE","BELLS","TN",38006,35.7135687540001,-89.0905927969999,353,"5247 COLLEGE, BELLS, TN, 38006","Match","Non_Exact","5247 COLLEGE ST, BELLS, TN, 38006",63320725,"R"
704854,"5247 DOWLING RD","LUCKEY","OH",43443,41.478971974,-83.498130598,354,"5247 DOWLING RD, LUCKEY, OH, 43443","Match","Exact","5247 DOWLING RD, LUCKEY, OH, 43443",38736063,"R"
704855,"5247 DOWNS WAY","NORCROSS","GA",30093,33.914345156,-84.172976126,355,"5247 DOWNS WAY, NORCROSS, GA, 30093","Match","Exact","5247 DOWNS WAY, NORCROSS, GA, 30093",88964320,"R"
704856,"5247 E BECK LANE","SCOTTSDALE","AZ",85254,33.626677966,-111.966902135,356,"5247 E BECK LANE, SCOTTSDALE, AZ, 85254","Match","Exact","5247 E BECK LN, SCOTTSDALE, AZ, 85254",128187268,"R"
704857,"5247 GARFIELD AVENUE","KANSAS CITY","MO",64130,39.0313276620001,-94.5607390059999,357,"5247 GARFIELD AVENUE, KANSAS CITY, MO, 64130","Match","Exact","5247 GARFIELD AVE, KANSAS CITY, MO, 64130",91452385,"L"
704858,"5247 GRIGGS RD","HOUSTON","TX",77021,29.697236779,-95.334767423,358,"5247 GRIGGS RD, HOUSTON, TX, 77021","Match","Exact","5247 GRIGGS RD, HOUSTON, TX, 77021",96610439,"L"
704859,"5247 HIGH PARK LANE","ORLANDO","FL",32814,28.579647745,-81.318005582,359,"5247 HIGH PARK LANE, ORLANDO, FL, 32814","Match","Exact","5247 HIGH PARK LN, ORLANDO, FL, 32814",634028797,"L"
704860,"5247 HILL VALLEY DR","PITTSBORO","IN",46167,39.873419878,-86.435363692,360,"5247 HILL VALLEY DR, PITTSBORO, IN, 46167","Match","Exact","5247 HILL VALLEY DR, PITTSBORO, IN, 46167",89204735,"R"
704861,"5247 LIGHTHOUSE ROAD","ORLANDO","FL",32808,28.6063494040001,-81.447083565,361,"5247 LIGHTHOUSE ROAD, ORLANDO, FL, 32808","Match","Exact","5247 LIGHTHOUSE RD, ORLANDO, FL, 32808",94390837,"R"
704862,"5247 MILLENIA BLVD   APT 209","ORLANDO","FL",32839,28.4737790880001,-81.442249637,362,"5247 MILLENIA BLVD   APT 209, ORLANDO, FL, 32839","Match","Exact","5247 MILLENIA BLVD, ORLANDO, FL, 32839",650072740,"L"
704863,"5247 MILLERSTOWN RD","CLARKSON","KY",42726,37.4779143910001,-86.136959716,363,"5247 MILLERSTOWN RD, CLARKSON, KY, 42726","Match","Exact","5247 MILLERSTOWN RD, CLARKSON, KY, 42726",15776829,"L"
704864,"5247 PEREGRINE ROAD","DACONO","CO",80514,40.057435535,-104.956828859,364,"5247 PEREGRINE ROAD, DACONO, CO, 80514","Match","Exact","5247 PEREGRINE RD, DACONO, CO, 80514",625045756,"R"
704865,"5247 POTENZA DR","CLAY","NY",13041,43.164012541,-76.157589967,365,"5247 POTENZA DR, CLAY, NY, 13041","Match","Exact","5247 POTENZA DR, CLAY, NY, 13041",46623962,"R"
704866,"5247 REISTERSTOWN ROAD","BALTIMORE","MD",21215,39.3441086340001,-76.685163066,366,"5247 REISTERSTOWN ROAD, BALTIMORE, MD, 21215","Match","Exact","5247 REISTERSTOWN RD, BALTIMORE, MD, 21215",206443747,"R"
704867,"5247 RELLUK DR","CINCINNATI","OH",45238,39.1256993530001,-84.608527549,367,"5247 RELLUK DR, CINCINNATI, OH, 45238","Match","Exact","5247 RELLUK DR, CINCINNATI, OH, 45238",103917412,"L"
704868,"5247 SAYBROOK RD","BALTIMORE","MD",21206,39.328288711,-76.530254175,368,"5247 SAYBROOK RD, BALTIMORE, MD, 21206","Match","Exact","5247 SAYBROOK RD, BALTIMORE, MD, 21206",639169081,"R"
704869,"5247 SEGO LILY COURT","HIGHLAND","UT",84003,NA,NA,369,"5247 SEGO LILY COURT, HIGHLAND, UT, 84003","No_Match",NA,NA,NA,NA
704870,"5247 SHERIDAN STREET","DETROIT","MI",48213,42.376195167,-83.018046077,370,"5247 SHERIDAN STREET, DETROIT, MI, 48213","Match","Exact","5247 SHERIDAN ST, DETROIT, MI, 48213",95483212,"L"
704871,"5247 W ARDMORE","CHICAGO","IL",60646,41.9859283270001,-87.761264276,371,"5247 W ARDMORE, CHICAGO, IL, 60646","Match","Non_Exact","5247 W ARDMORE AVE, CHICAGO, IL, 60646",111737407,"L"
704872,"5247 WILSON MILLS ROAD SUITE 345","CLEVELAND","OH",44143,41.5390189280001,-81.491588916,372,"5247 WILSON MILLS ROAD SUITE 345, CLEVELAND, OH, 44143","Match","Exact","5247 WILSON MILLS RD, CLEVELAND, OH, 44143",61133678,"L"
704873,"5247 WILSON MILLS ROAD SUITE 414","RICHMOND HTS","OH",44143,41.5390189280001,-81.491588916,373,"5247 WILSON MILLS ROAD SUITE 414, RICHMOND HTS, OH, 44143","Match","Exact","5247 WILSON MILLS RD, RICHMOND HEIGHTS, OH, 44143",61133678,"L"
704874,"5248 144TH STREET WEST","APPLE VALLEY","MN",55124,44.739660719,-93.171705507,374,"5248 144TH STREET WEST, APPLE VALLEY, MN, 55124","Match","Exact","5248 144TH ST W, APPLE VALLEY, MN, 55124",641640071,"R"
704875,"5248 15TH AVENUE NORTH","ST PETERSBURG","FL",33710,27.785952819,-82.704861836,375,"5248 15TH AVENUE NORTH, ST PETERSBURG, FL, 33710","Match","Exact","5248 15TH AVE N, SAINT PETERSBURG, FL, 33710",124699641,"L"
704876,"5248 17TH AVE NE","SEATTLE","WA",98105,47.6674524310001,-122.309426955,376,"5248 17TH AVE NE, SEATTLE, WA, 98105","Match","Exact","5248 17TH AVE NE, SEATTLE, WA, 98105",187080327,"R"
704877,"5248 CAMILLE AVENUE","JACKSONVILLE","FL",32210,30.286462504,-81.7350309029999,377,"5248 CAMILLE AVENUE, JACKSONVILLE, FL, 32210","Match","Exact","5248 CAMILLE AVE, JACKSONVILLE, FL, 32210",83911067,"L"
704878,"5248 CHESSIE CIRCLE","HALTOM CITY","TX",76137,32.851041443,-97.273621457,378,"5248 CHESSIE CIRCLE, HALTOM CITY, TX, 76137","Match","Exact","5248 CHESSIE CIR, HALTOM CITY, TX, 76137",102095790,"L"
704879,"5248 CLEMSON STREET","VENTURA","CA",93003,34.2742823080001,-119.224738906,379,"5248 CLEMSON STREET, VENTURA, CA, 93003","Match","Exact","5248 CLEMSON ST, VENTURA, CA, 93003",109952925,"R"
704880,"5248 COLLINGWOOD TERRACE","COLLEGE PARK","GA",30349,33.6124042490001,-84.4334962889999,380,"5248 COLLINGWOOD TERRACE, COLLEGE PARK, GA, 30349","Match","Exact","5248 COLLINGWOOD TER, COLLEGE PARK, GA, 30349",23311338,"L"
704881,"5248 COPLEY CIRCLE","SUMMERVILLE","SC",29485,32.952365275,-80.1514439709999,381,"5248 COPLEY CIRCLE, SUMMERVILLE, SC, 29485","Match","Exact","5248 COPLEY CIR, SUMMERVILLE, SC, 29485",635642307,"R"
704882,"5248 COURTYARD DRIVE","GONZALES","LA",70737,30.1526549270001,-90.931077333,382,"5248 COURTYARD DRIVE, GONZALES, LA, 70737","Match","Exact","5248 COURTYARD DR, GONZALES, LA, 70737",651729575,"L"
704883,"5248 DAYBREAK LN","WOODBRIDGE","VA",22193,38.6236418980001,-77.3653935259999,383,"5248 DAYBREAK LN, WOODBRIDGE, VA, 22193","Match","Exact","5248 DAYBREAK LN, WOODBRIDGE, VA, 22193",207143578,"L"
704884,"5248 DILL ROAD","BELLVILLE","OH",44813,40.616237964,-82.47125018,384,"5248 DILL ROAD, BELLVILLE, OH, 44813","Match","Exact","5248 DILL RD, BELLVILLE, OH, 44813",207217068,"L"
704885,"5248 EDGEMERE DRIVE","BLACK JACK","MO",63033,38.7844818340001,-90.255554322,385,"5248 EDGEMERE DRIVE, BLACK JACK, MO, 63033","Match","Exact","5248 EDGEMERE DR, BLACK JACK, MO, 63033",618221762,"R"
704886,"5248 FITZWILLIAM WAY","SACRAMENTO","CA",95823,38.4782420500001,-121.440084809,386,"5248 FITZWILLIAM WAY, SACRAMENTO, CA, 95823","Match","Exact","5248 FITZWILLIAM WAY, SACRAMENTO, CA, 95823",133352705,"L"
704887,"5248 GANNON ROAD","FOWLERVILLE","MI",48836,42.743755955,-84.023349519,387,"5248 GANNON ROAD, FOWLERVILLE, MI, 48836","Match","Non_Exact","5248 W GANNON RD, FOWLERVILLE, MI, 48836",23538667,"L"
704888,"5248 HARVARD RD","DETROIT","MI",48224,42.407720683,-82.932211485,388,"5248 HARVARD RD, DETROIT, MI, 48224","Match","Non_Exact","5248 HARVARD, DETROIT, MI, 48224",95487169,"R"
704889,"5248 HERSHOLT AVE","LAKEWOOD","CA",90712,33.852808657,-118.128062184,389,"5248 HERSHOLT AVE, LAKEWOOD, CA, 90712","Match","Exact","5248 HERSHOLT AVE, LAKEWOOD, CA, 90712",642869740,"R"
704890,"5248 LIMELIGHT CIRCLE APT 3","ORLANDO","FL",32839,NA,NA,390,"5248 LIMELIGHT CIRCLE APT 3, ORLANDO, FL, 32839","No_Match",NA,NA,NA,NA
704891,"5248 MILLER WOODS TRL","DECATUR","GA",30035,33.718982383,-84.177203322,391,"5248 MILLER WOODS TRL, DECATUR, GA, 30035","Match","Exact","5248 MILLER WOODS TRL, DECATUR, GA, 30035",619387000,"L"
704892,"5248 MOONLIT BAY WAY","SACRAMENTO","CA",95835,38.6744575640001,-121.532602924,392,"5248 MOONLIT BAY WAY, SACRAMENTO, CA, 95835","Match","Non_Exact","5248 MOONLIT BAY PL, SACRAMENTO, CA, 95835",614154076,"R"
704893,"5248 N MAIDSTONE WAY","BOISE","ID",83713,43.6524227300001,-116.344841,393,"5248 N MAIDSTONE WAY, BOISE, ID, 83713","Match","Exact","5248 N MAIDSTONE WAY, BOISE, ID, 83713",642901158,"R"
704894,"5248 N POPLAR","FRESNO","CA",93728,NA,NA,394,"5248 N POPLAR, FRESNO, CA, 93728","No_Match",NA,NA,NA,NA
704895,"5248 NW EAST PIPER CIRCLE","PORT ST LUCIE","FL",34986,27.372758402,-80.3850359469999,395,"5248 NW EAST PIPER CIRCLE, PORT ST LUCIE, FL, 34986","Match","Exact","5248 NW EAST PIPER CIR, PORT ST LUCIE, FL, 34986",120180329,"L"
704896,"5248 OLDSHIRE ROAD","Louisville","KY",40229,NA,NA,396,"5248 OLDSHIRE ROAD, Louisville, KY, 40229","No_Match",NA,NA,NA,NA
704897,"5248 OVERLOOK RD","COPLAY","PA",18037,40.7087837350001,-75.544001268,397,"5248 OVERLOOK RD, COPLAY, PA, 18037","Match","Exact","5248 OVERLOOK RD, COPLAY, PA, 18037",80810466,"L"
704898,"5248 OVERLOOK ROAD","COPLAY","PA",18037,40.7087837350001,-75.544001268,398,"5248 OVERLOOK ROAD, COPLAY, PA, 18037","Match","Exact","5248 OVERLOOK RD, COPLAY, PA, 18037",80810466,"L"
704899,"5248 PREDMORE PL","GAHANNA","OH",43230,40.0646443100001,-82.8811668119999,399,"5248 PREDMORE PL, GAHANNA, OH, 43230","Match","Exact","5248 PREDMORE PL, GAHANNA, OH, 43230",218659507,"L"
704900,"5248 S US HWY 52","FRANKFORT","IN",46041,40.2120731140001,-86.652867465,400,"5248 S US HWY 52, FRANKFORT, IN, 46041","Match","Exact","5248 US HWY 52, FRANKFORT, IN, 46041",612429717,"L"
704901,"5248 SECRETARIAL RUN","SPRING HILL","FL",34609,NA,NA,401,"5248 SECRETARIAL RUN, SPRING HILL, FL, 34609","No_Match",NA,NA,NA,NA
704902,"5248 SHELBORN CIRCLE 5","MEMPHIS","TN",38134,NA,NA,402,"5248 SHELBORN CIRCLE 5, MEMPHIS, TN, 38134","No_Match",NA,NA,NA,NA
704903,"5248 SHELBORND CIRCLE 5","MEMPHIS","TN",38134,NA,NA,403,"5248 SHELBORND CIRCLE 5, MEMPHIS, TN, 38134","No_Match",NA,NA,NA,NA
704904,"5248 STATE ROUTE 9G","GERMANTOWN","NY",12526,42.1808362450001,-73.849489868,404,"5248 STATE ROUTE 9G, GERMANTOWN, NY, 12526","Match","Exact","5248 STATE RTE 9G, GERMANTOWN, NY, 12526",41496230,"R"
704905,"5248 W BERENICE","CHICAGO","IL",60641,41.9505532210001,-87.758294071,405,"5248 W BERENICE, CHICAGO, IL, 60641","Match","Non_Exact","5248 W BERENICE AVE, CHICAGO, IL, 60641",111751866,"R"
704906,"5248 W DONNER","FRESNO","CA",93722,36.7994725620001,-119.885698314,406,"5248 W DONNER, FRESNO, CA, 93722","Match","Non_Exact","5248 W DONNER AVE, FRESNO, CA, 93722",619122204,"R"
704907,"5248 W GATESHEAD DR","WEST VALLEY CITY","UT",84120,40.7068167900001,-112.016831241,407,"5248 W GATESHEAD DR, WEST VALLEY CITY, UT, 84120","Match","Exact","5248 W GATESHEAD DR, WEST VALLEY CITY, UT, 84120",627556649,"L"
704908,"5248 W HARRISON ST","CHICAGO","IL",60644,41.8729380620001,-87.756247566,408,"5248 W HARRISON ST, CHICAGO, IL, 60644","Match","Exact","5248 W HARRISON ST, CHICAGO, IL, 60644",605077782,"R"
704909,"5248 W OAKDALE AVE","CHICAGO","IL",60641,41.9341256930001,-87.757911425,409,"5248 W OAKDALE AVE, CHICAGO, IL, 60641","Match","Exact","5248 W OAKDALE AVE, CHICAGO, IL, 60641",605164020,"R"
704910,"5249 93RD AVE NE","CRARY","ND",58327,48.170652547,-98.616883844,410,"5249 93RD AVE NE, CRARY, ND, 58327","Match","Exact","5249 93RD AVE NE, CRARY, ND, 58327",181182347,"L"
704911,"5249 ANGEL FIRE PLACE","LAS CRUCES","NM",88011,32.2567696470001,-106.719278308,411,"5249 ANGEL FIRE PLACE, LAS CRUCES, NM, 88011","Match","Exact","5249 ANGEL FIRE PL, LAS CRUCES, NM, 88011",612734312,"L"
704912,"5249 CATTLE CROSSING WAY","JACKSONVILLE","FL",32226,30.4553894920001,-81.530227945,412,"5249 CATTLE CROSSING WAY, JACKSONVILLE, FL, 32226","Match","Exact","5249 CATTLE CROSSING WAY, JACKSONVILLE, FL, 32226",614103263,"L"
704913,"5249 CHOWEN AVENUE SOUTH","MINNEAPOLIS","MN",55410,44.9080023870001,-93.325179098,413,"5249 CHOWEN AVENUE SOUTH, MINNEAPOLIS, MN, 55410","Match","Exact","5249 CHOWEN AVE S, MINNEAPOLIS, MN, 55410",43628085,"L"
704914,"5249 DAWN BREAK CANYON STREET","NORTH LAS VEGAS","NV",89031,36.256449848,-115.158339544,414,"5249 DAWN BREAK CANYON STREET, NORTH LAS VEGAS, NV, 89031","Match","Exact","5249 DAWN BREAK CANYON ST, N LAS VEGAS, NV, 89031",201998661,"L"
704915,"5249 DUKE ST","ALEXANDRIA","VA",22304,NA,NA,415,"5249 DUKE ST, ALEXANDRIA, VA, 22304","No_Match",NA,NA,NA,NA
704916,"5249 HOMESTEAD AVE","PENNSAUKEN","NJ",8109,39.9374347940001,-75.060466842,416,"5249 HOMESTEAD AVE, PENNSAUKEN, NJ, 8109","Match","Exact","5249 HOMESTEAD AVE, PENNSAUKEN, NJ, 08109",134418774,"L"
704917,"5249 LAKESIDE MANOR DRIVE","INDIANAPOLIS","IN",46268,39.8466078530001,-86.262075704,417,"5249 LAKESIDE MANOR DRIVE, INDIANAPOLIS, IN, 46268","Match","Non_Exact","5249 LAKESIDE MANOR DR, INDIANAPOLIS, IN, 46254",108040668,"L"
704918,"5249 N LAKEWOOD AVE","CHICAGO","IL",60640,41.9771977560001,-87.662361984,418,"5249 N LAKEWOOD AVE, CHICAGO, IL, 60640","Match","Exact","5249 N LAKEWOOD AVE, CHICAGO, IL, 60640",111761443,"R"
704919,"5249 NORTH 35TH","MILWAUKEE","WI",53209,43.112826177,-87.956424103,419,"5249 NORTH 35TH, MILWAUKEE, WI, 53209","Match","Non_Exact","5249 N 35TH ST, MILWAUKEE, WI, 53209",77735520,"L"
704920,"5249 NW WISK FERN CIRCLE","PORT ST LUCIE","FL",34986,27.3604375200001,-80.380285581,420,"5249 NW WISK FERN CIRCLE, PORT ST LUCIE, FL, 34986","Match","Exact","5249 NW WISK FERN CIR, PORT ST LUCIE, FL, 34986",619743996,"L"
704921,"5249 QUEEN BISHOP LANE","WILLIAMSBURG","VA",23185,37.2391282680001,-76.738171415,421,"5249 QUEEN BISHOP LANE, WILLIAMSBURG, VA, 23185","Match","Exact","5249 QUEEN BISHOP LN, WILLIAMSBURG, VA, 23185",103785533,"L"
704922,"5249 RAYMOND AVENUE","SAINT LOUIS","MO",63113,38.65784748,-90.270624203,422,"5249 RAYMOND AVENUE, SAINT LOUIS, MO, 63113","Match","Exact","5249 RAYMOND AVE, SAINT LOUIS, MO, 63113",605105868,"R"
704923,"5249 S INDIANA AVE","CHICAGO","IL",60615,41.7991134010001,-87.6209481719999,423,"5249 S INDIANA AVE, CHICAGO, IL, 60615","Match","Exact","5249 S INDIANA AVE, CHICAGO, IL, 60615",111771021,"L"
704924,"5249 SADDLEBAG LAKE ROAD","LAKE WALES","FL",33898,27.892677597,-81.47573684,424,"5249 SADDLEBAG LAKE ROAD, LAKE WALES, FL, 33898","Match","Exact","5249 SADDLEBAG LAKE RD, LAKE WALES, FL, 33898",104842009,"L"
704925,"5249 SAYBROOK RD","BALTIMORE","MD",21206,39.328315016,-76.530255621,425,"5249 SAYBROOK RD, BALTIMORE, MD, 21206","Match","Exact","5249 SAYBROOK RD, BALTIMORE, MD, 21206",639169081,"R"
704926,"5249 SHAFTER AVENUE","OAKLAND","CA",94618,37.8386988600001,-122.256714875,426,"5249 SHAFTER AVENUE, OAKLAND, CA, 94618","Match","Exact","5249 SHAFTER AVE, OAKLAND, CA, 94618",124999107,"L"
704927,"5249 SHOREVIEW AVE","MINNEAPOLIS","MN",55417,44.9074021420001,-93.2349184399999,427,"5249 SHOREVIEW AVE, MINNEAPOLIS, MN, 55417","Match","Exact","5249 SHOREVIEW AVE, MINNEAPOLIS, MN, 55417",43640453,"L"
704928,"5249 SUNNY LANE","KUNKLETOWN","PA",18058,NA,NA,428,"5249 SUNNY LANE, KUNKLETOWN, PA, 18058","No_Match",NA,NA,NA,NA
704929,"5249 WARRENSVILLE CENTER RD STE 202","MAPLE HEIGHTS","OH",44137,41.4179914210001,-81.537313296,429,"5249 WARRENSVILLE CENTER RD STE 202, MAPLE HEIGHTS, OH, 44137","Match","Exact","5249 WARRENSVILLE CENTER RD, MAPLE HEIGHTS, OH, 44137",61129984,"L"
704930,"5249 WREN AVE","EL PASO","TX",79906,31.877322613,-106.417902896,430,"5249 WREN AVE, EL PASO, TX, 79906","Match","Non_Exact","5249 WREN AVE, EL PASO, TX, 79924",189339594,"L"
704931,"52490 SWANSON DR","SOUTH BEND","IN",46530,41.7310512,-86.2073751949999,431,"52490 SWANSON DR, SOUTH BEND, IN, 46530","Match","Non_Exact","52490 SWANSON DR, SOUTH BEND, IN, 46635",8070502,"L"
704932,"52493 WINCHESTER ST","INDIAN LAND","SC",29707,34.923538121,-80.848958915,432,"52493 WINCHESTER ST, INDIAN LAND, SC, 29707","Match","Exact","52493 WINCHESTER ST, INDIAN LAND, SC, 29707",627750326,"R"
704933,"52495 335TH ST","GROVE CITY","MN",56243,45.2327118700001,-94.71736056,433,"52495 335TH ST, GROVE CITY, MN, 56243","Match","Exact","52495 335TH ST, GROVE CITY, MN, 56243",36965826,"R"
704934,"52495 INFIRMARY ROAD","MILAN","MO",63556,NA,NA,434,"52495 INFIRMARY ROAD, MILAN, MO, 63556","No_Match",NA,NA,NA,NA
704935,"524A W GAY ST","WARRENSBURG","MO",65020,38.7664637250001,-93.751725764,435,"524A W GAY ST, WARRENSBURG, MO, 65020","Match","Non_Exact","524 W GAY ST, WARRENSBURG, MO, 64093",95340496,"L"
704936,"524B 13TH ST SE","WASHINGTON","DC",20003,38.882482866,-76.9882992139999,436,"524B 13TH ST SE, WASHINGTON, DC, 20003","Match","Exact","524 13TH ST SE, WASHINGTON, DC, 20003",76230867,"L"
704937,"524W MAIN ST","WASHINGTON","NC",27889,NA,NA,437,"524W MAIN ST, WASHINGTON, NC, 27889","Tie",NA,NA,NA,NA
704938,"525  5TH AVENUE NW","NEW BRIGHTON","MN",55112,45.0578931950001,-93.193021446,438,"525  5TH AVENUE NW, NEW BRIGHTON, MN, 55112","Match","Exact","525 5TH AVE NW, NEW BRIGHTON, MN, 55112",97634557,"R"
704939,"525  B  STREET   SUITE 2200","SAN DIEGO","CA",92101,NA,NA,439,"525  B  STREET   SUITE 2200, SAN DIEGO, CA, 92101","No_Match",NA,NA,NA,NA
704940,"525  EAST COUNTY LINE RD STE 3","LAKEWOOD","NJ",8701,40.1053227990001,-74.2069418729999,440,"525  EAST COUNTY LINE RD STE 3, LAKEWOOD, NJ, 8701","Match","Exact","525 E COUNTY LINE RD, LAKEWOOD, NJ, 08701",640451437,"L"
704941,"525 10TH STREET","HEMPSTEAD","TX",77445,NA,NA,441,"525 10TH STREET, HEMPSTEAD, TX, 77445","No_Match",NA,NA,NA,NA
704942,"525 112TH STREET SE APT F324","EVERETT","WA",98208,47.896484307,-122.226295718,442,"525 112TH STREET SE APT F324, EVERETT, WA, 98208","Match","Exact","525 112TH ST SE, EVERETT, WA, 98208",187758674,"L"
704943,"525 12TH AVE N","GREYBULL","WY",82426,44.501311856,-108.054885142,443,"525 12TH AVE N, GREYBULL, WY, 82426","Match","Non_Exact","525 12TH AVE, GREYBULL, WY, 82426",605619266,"R"
704944,"525 14TH AVE E","SEATTLE","WA",98102,47.623287673,-122.314659274,444,"525 14TH AVE E, SEATTLE, WA, 98102","Match","Non_Exact","525 14TH AVE E, SEATTLE, WA, 98112",652991622,"L"
704945,"525 15TH AVENUE","NEWARK","NJ",7103,40.7378915630001,-74.203618241,445,"525 15TH AVENUE, NEWARK, NJ, 7103","Match","Exact","525 15TH AVE, NEWARK, NJ, 07103",63465532,"L"
704946,"525 1ST AVENUE NORTH   APT 5","FARGO","ND",58102,46.8769441420001,-96.786605811,446,"525 1ST AVENUE NORTH   APT 5, FARGO, ND, 58102","Match","Exact","525 1ST AVE N, FARGO, ND, 58102",151448101,"R"
704947,"525 1ST ST S","SHELBY","MT",59474,48.506000844,-111.861597447,447,"525 1ST ST S, SHELBY, MT, 59474","Match","Exact","525 1ST ST S, SHELBY, MT, 59474",204293880,"L"
704948,"525 20TH STREET SOUTH","IRONDALE","AL",35210,33.5354082630001,-86.703292012,448,"525 20TH STREET SOUTH, IRONDALE, AL, 35210","Match","Exact","525 20TH ST S, IRONDALE, AL, 35210",641611085,"L"
704949,"525 22 AV NW","MINOT","ND",58703,48.260257961,-101.301971328,449,"525 22 AV NW, MINOT, ND, 58703","Match","Exact","525 22ND AVE NW, MINOT, ND, 58703",200515964,"L"
704950,"525 22ND ST APT 3","GREELEY","CO",80631,NA,NA,450,"525 22ND ST APT 3, GREELEY, CO, 80631","No_Match",NA,NA,NA,NA
704951,"525 25TH STREET","SAN DIEGO","CA",92102,32.7109645720001,-117.14022366,451,"525 25TH STREET, SAN DIEGO, CA, 92102","Match","Exact","525 25TH ST, SAN DIEGO, CA, 92102",612890027,"R"
704952,"525 28TH STREET S","LA CROSSE","WI",54601,43.80615391,-91.215422464,452,"525 28TH STREET S, LA CROSSE, WI, 54601","Match","Exact","525 28TH ST S, LA CROSSE, WI, 54601",51021520,"R"
704953,"525 3 21ST STREET APT 5B","BROOKLYN","NY",11226,NA,NA,453,"525 3 21ST STREET APT 5B, BROOKLYN, NY, 11226","No_Match",NA,NA,NA,NA
704954,"525 30TH ST","WEST DES MOINES","IA",50265,41.57839906,-93.744959249,454,"525 30TH ST, WEST DES MOINES, IA, 50265","Match","Exact","525 30TH ST, W DES MOINES, IA, 50265",65776613,"R"
704955,"525 31ST ST","WEST DES MOINES","IA",50265,41.5782267660001,-93.746086106,455,"525 31ST ST, WEST DES MOINES, IA, 50265","Match","Exact","525 31ST ST, W DES MOINES, IA, 50265",65776610,"R"
704956,"525 37TH ST","BELLINGHAM","WA",98229,48.7291453330001,-122.468693428,456,"525 37TH ST, BELLINGHAM, WA, 98229","Match","Exact","525 37TH ST, BELLINGHAM, WA, 98229",647275942,"L"
704957,"525 3RD ST SOUTH","PEMBINA","ND",58271,NA,NA,457,"525 3RD ST SOUTH, PEMBINA, ND, 58271","No_Match",NA,NA,NA,NA
704958,"525 3RD ST","BEAVER","PA",15009,40.6957718410001,-80.303526682,458,"525 3RD ST, BEAVER, PA, 15009","Match","Exact","525 3RD ST, BEAVER, PA, 15009",52561888,"L"
704959,"525 5TH AVE SW","VALLEY CITY","ND",58072,46.9189758850001,-98.0094036259999,459,"525 5TH AVE SW, VALLEY CITY, ND, 58072","Match","Exact","525 5TH AVE SW, VALLEY CITY, ND, 58072",150676996,"R"
704960,"525 5TH STREET APT 1","LONG BEACH","CA",90802,NA,NA,460,"525 5TH STREET APT 1, LONG BEACH, CA, 90802","Tie",NA,NA,NA,NA
704961,"525 5TH STREET","OCONOMOWOC","WI",53066,43.106823273,-88.508872857,461,"525 5TH STREET, OCONOMOWOC, WI, 53066","Match","Non_Exact","525 W 5TH ST, OCONOMOWOC, WI, 53066",53805426,"R"
704962,"525 77TH AVENUE NE","OLYMPIA","WA",98506,47.144143553,-122.897257238,462,"525 77TH AVENUE NE, OLYMPIA, WA, 98506","Match","Exact","525 77TH AVE NE, OLYMPIA, WA, 98506",180941956,"L"
704963,"525 8TH AVE N","ST PETERSBURG","FL",33701,27.780335592,-82.640879452,463,"525 8TH AVE N, ST PETERSBURG, FL, 33701","Match","Exact","525 8TH AVE N, SAINT PETERSBURG, FL, 33701",124707260,"R"
704964,"525 9TH AVE 3B","NEW YORK","NY",10018,40.7566458700001,-73.9939383189999,464,"525 9TH AVE 3B, NEW YORK, NY, 10018","Match","Exact","525 9TH AVE, NEW YORK, NY, 10018",59655207,"L"
704965,"525 A H EHRIG DR","BRENHAM","TX",77833,30.18141086,-96.4014363809999,465,"525 A H EHRIG DR, BRENHAM, TX, 77833","Match","Exact","525 A H EHRIG DR, BRENHAM, TX, 77833",39249673,"L"
704966,"525 ABBOTT AVE","HARTFORD","WI",53027,43.3295271550001,-88.3856905819999,466,"525 ABBOTT AVE, HARTFORD, WI, 53027","Match","Exact","525 ABBOTT AVE, HARTFORD, WI, 53027",79576120,"R"
704967,"525 ACORN DRIVE","THOMASTON","GA",30286,32.924337037,-84.297103271,467,"525 ACORN DRIVE, THOMASTON, GA, 30286","Match","Exact","525 ACORN DR, THOMASTON, GA, 30286",83682971,"L"
704968,"525 ADRIENNE DRIVE","PETALUMA","CA",94954,38.2431435660001,-122.620914575,468,"525 ADRIENNE DRIVE, PETALUMA, CA, 94954","Match","Exact","525 ADRIENNE DR, PETALUMA, CA, 94954",639986875,"L"
704969,"525 AIKEN HUNT CIRCLE","COLUMBIA","SC",29223,34.093215602,-80.866939294,469,"525 AIKEN HUNT CIRCLE, COLUMBIA, SC, 29223","Match","Exact","525 AIKEN HUNT CIR, COLUMBIA, SC, 29223",71858063,"L"
704970,"525 ALCOTT DRIVE SUITE 2OB","COLUMBIA","SC",29203,34.0612935290001,-81.025029445,470,"525 ALCOTT DRIVE SUITE 2OB, COLUMBIA, SC, 29203","Match","Exact","525 ALCOTT DR, COLUMBIA, SC, 29203",622519931,"R"
704971,"525 ALDEN WAY","ROSEVILLE","CA",94565,38.776425046,-121.281373758,471,"525 ALDEN WAY, ROSEVILLE, CA, 94565","Match","Non_Exact","525 ALDEN WAY, ROSEVILLE, CA, 95678",106810226,"L"
704972,"525 ALEXA CT","PLANOI","TX",75075,NA,NA,472,"525 ALEXA CT, PLANOI, TX, 75075","No_Match",NA,NA,NA,NA
704973,"525 ANGLIANA AVE APT 6102","LEXINGTON","KY",40508,38.043667015,-84.5131683389999,473,"525 ANGLIANA AVE APT 6102, LEXINGTON, KY, 40508","Match","Exact","525 ANGLIANA AVE, LEXINGTON, KY, 40508",653876744,"L"
704974,"525 ANIMAS VIEW DRIVE","DURANGO","CO",81301,37.3098304700001,-107.856437026,474,"525 ANIMAS VIEW DRIVE, DURANGO, CO, 81301","Match","Exact","525 ANIMAS VIEW DR, DURANGO, CO, 81301",91716819,"L"
704975,"525 APPALOOSA DRIVE","HOPKINS","SC",29061,33.936137203,-80.8549046159999,475,"525 APPALOOSA DRIVE, HOPKINS, SC, 29061","Match","Exact","525 APPALOOSA DR, HOPKINS, SC, 29061",71831785,"R"
704976,"525 ARGONAUT AVE","SAN FRANCISCO","CA",94134,37.709131707,-122.4145626,476,"525 ARGONAUT AVE, SAN FRANCISCO, CA, 94134","Match","Exact","525 ARGONAUT AVE, SAN FRANCISCO, CA, 94134",192292550,"L"
704977,"525 ASHBY CREST LANE","FORT ASHBY","WV",26719,NA,NA,477,"525 ASHBY CREST LANE, FORT ASHBY, WV, 26719","No_Match",NA,NA,NA,NA
704978,"525 ATHENS STREET","RIVERSIDE","CA",92507,33.9597093450001,-117.323520434,478,"525 ATHENS STREET, RIVERSIDE, CA, 92507","Match","Exact","525 ATHENS ST, RIVERSIDE, CA, 92507",194830714,"R"
704979,"525 AVERY STREET","PITTSBURGH","PA",15212,40.4530088490001,-79.999769881,479,"525 AVERY STREET, PITTSBURGH, PA, 15212","Match","Exact","525 AVERY ST, PITTSBURGH, PA, 15212",51627876,"R"
704980,"525 AVON AVENUE","PASADENA","CA",91105,34.1318208010001,-118.178047553,480,"525 AVON AVENUE, PASADENA, CA, 91105","Match","Exact","525 AVON AVE, PASADENA, CA, 91105",141614736,"R"
704981,"525 B FIRST STREET","PALISADES PARK","NJ",7650,40.8525174660001,-73.992115884,481,"525 B FIRST STREET, PALISADES PARK, NJ, 7650","Match","Exact","525 1ST ST, PALISADES PARK, NJ, 07650",64429814,"L"
704982,"525 B STREET SUITE 2200","SAN DIEGO","CA",92101,NA,NA,482,"525 B STREET SUITE 2200, SAN DIEGO, CA, 92101","No_Match",NA,NA,NA,NA
704983,"525 B STREET","SAN DIEGO","CA",92101,32.7178057100001,-117.159916288,483,"525 B STREET, SAN DIEGO, CA, 92101","Match","Exact","525 B ST, SAN DIEGO, CA, 92101",195343600,"R"
704984,"525 BALLAHACK ROAD","CHESAPEAKE","VA",23322,36.5594937070001,-76.218755277,484,"525 BALLAHACK ROAD, CHESAPEAKE, VA, 23322","Match","Exact","525 BALLAHACK RD, CHESAPEAKE, VA, 23322",642143375,"L"
704985,"525 BEACH ST","MT MORRIS","MI",48458,43.114988268,-83.699038044,485,"525 BEACH ST, MT MORRIS, MI, 48458","Match","Exact","525 BEACH ST, MOUNT MORRIS, MI, 48458",69562980,"L"
704986,"525 BEECH","FAIRFIELD","OH",45014,39.3515963930001,-84.5608712069999,486,"525 BEECH, FAIRFIELD, OH, 45014","Match","Non_Exact","525 BEECH AVE, FAIRFIELD, OH, 45014",113797452,"R"
704987,"525 BELLEVUE AVE STE 311","OAKLAND","CA",94610,37.807742895,-122.254586003,487,"525 BELLEVUE AVE STE 311, OAKLAND, CA, 94610","Match","Exact","525 BELLEVUE AVE, OAKLAND, CA, 94610",125000984,"R"
704988,"525 BELLVIEW STREET","RIVER RIDGE","LA",70123,29.9505978220001,-90.213335705,488,"525 BELLVIEW STREET, RIVER RIDGE, LA, 70123","Match","Exact","525 BELLVIEW ST, RIVER RIDGE, LA, 70123",93501470,"R"
704989,"525 BELLWOOD PARK ROAD","ASBURY","NJ",8802,40.6439325650001,-75.0328272209999,489,"525 BELLWOOD PARK ROAD, ASBURY, NJ, 8802","Match","Exact","525 BELLWOOD PARK RD, ASBURY, NJ, 08802",629169647,"L"
704990,"525 BELMONT BAY UNIT 306","WOODBRIDGE","VA",22191,38.654496468,-77.232633725,490,"525 BELMONT BAY UNIT 306, WOODBRIDGE, VA, 22191","Match","Non_Exact","525 BELMONT BAY DR, WOODBRIDGE, VA, 22191",619953348,"R"
704991,"525 BELMONT BAY","WOODBRIDGE","VA",22101,NA,NA,491,"525 BELMONT BAY, WOODBRIDGE, VA, 22101","No_Match",NA,NA,NA,NA
704992,"525 BENS CREEK RD","WOODRUFF","SC",29388,34.825168128,-82.1250821249999,492,"525 BENS CREEK RD, WOODRUFF, SC, 29388","Match","Exact","525 BENS CREEK RD, WOODRUFF, SC, 29388",19529996,"L"
704993,"525 BIG SKY DR","NEW BRAUNFELS","TX",78130,29.803670937,-98.113817565,493,"525 BIG SKY DR, NEW BRAUNFELS, TX, 78130","Match","Non_Exact","525 BIG SKY DR, NEW BRAUNFELS, TX, 78132",72259136,"L"
704994,"525 BIRDSALL DR","CEDAR FALLS","IA",50613,42.533717988,-92.473784044,494,"525 BIRDSALL DR, CEDAR FALLS, IA, 50613","Match","Exact","525 BIRDSALL DR, CEDAR FALLS, IA, 50613",77276999,"L"
704995,"525 BLUE HOLE ROAD","HARRISBRUG","IL",62946,37.7037353900001,-88.5710090539999,495,"525 BLUE HOLE ROAD, HARRISBRUG, IL, 62946","Match","Non_Exact","525 BLUE HOLE RD, HARRISBURG, IL, 62946",104099670,"R"
704996,"525 BRAMHALL AVE","JERSEY CITY","NJ",7304,40.7145734850001,-74.07356544,496,"525 BRAMHALL AVE, JERSEY CITY, NJ, 7304","Match","Exact","525 BRAMHALL AVE, JERSEY CITY, NJ, 07304",59604402,"L"
704997,"525 BRAND ROAD","LOGANVILLE","GA",30052,33.851369236,-83.913841292,497,"525 BRAND ROAD, LOGANVILLE, GA, 30052","Match","Non_Exact","525 BRAND RD SW, LOGANVILLE, GA, 30052",621974457,"R"
704998,"525 BRIMSTONE WAY","COVINGTON","GA",30016,NA,NA,498,"525 BRIMSTONE WAY, COVINGTON, GA, 30016","No_Match",NA,NA,NA,NA
704999,"525 BROAD STREET","WADSWORTH","OH",44281,41.025572373,-81.714150601,499,"525 BROAD STREET, WADSWORTH, OH, 44281","Match","Exact","525 BROAD ST, WADSWORTH, OH, 44281",58679606,"R"
705000,"525 BRONXVILLE RD","YONKERS","NY",10708,40.951346169,-73.842371054,500,"525 BRONXVILLE RD, YONKERS, NY, 10708","Match","Exact","525 BRONXVILLE RD, YONKERS, NY, 10708",139842188,"L"
