"ID","Address","City","State","Zip","lat","long","id","input_address","match_indicator","match_type","matched_address","tiger_line_id","tiger_side"
376001,"2301 VANDERBILT PLACE","NASHVILLE","TN",37235,NA,NA,1,"2301 VANDERBILT PLACE, NASHVILLE, TN, 37235","No_Match",NA,NA,NA,NA
376002,"2301 VETERANS MEM PKWY APT 609","TUSCALOOSA","AL",35404,NA,NA,2,"2301 VETERANS MEM PKWY APT 609, TUSCALOOSA, AL, 35404","No_Match",NA,NA,NA,NA
376003,"2301 VISTA HOGAR","NEWPORT BEACH","CA",92660,33.637873805,-117.877185902,3,"2301 VISTA HOGAR, NEWPORT BEACH, CA, 92660","Match","Exact","2301 VIS HOGAR, NEWPORT BEACH, CA, 92660",144049219,"L"
376004,"2301 VISTA LARGA NE","ALBUQUERQUE","NM",87106,35.100107483,-106.620554529,4,"2301 VISTA LARGA NE, ALBUQUERQUE, NM, 87106","Match","Non_Exact","2301 VISTA LARGA AVE NE, ALBUQUERQUE, NM, 87106",206709503,"L"
376005,"2301 W 26TH ST","SIOUX FALLS","SD",57105,43.5294334340001,-96.753276802,5,"2301 W 26TH ST, SIOUX FALLS, SD, 57105","Match","Non_Exact","2301 W 26TH ST, SIOUX FALLS, SD, 57105",637783821,"L"
376006,"2301 W ANDERSON LN SUITE 102 - 69","AUSTIN","TX",78757,30.355750609,-97.730045831,6,"2301 W ANDERSON LN SUITE 102 - 69, AUSTIN, TX, 78757","Match","Non_Exact","2301 W ANDERSON LN, AUSTIN, TX, 78757",63930911,"L"
376007,"2301 W MAIN ST STE D","TUPELO","MS",38801,34.2558871910001,-88.74119193,7,"2301 W MAIN ST STE D, TUPELO, MS, 38801","Match","Non_Exact","2301 MAIN ST, TUPELO, MS, 38804",90653874,"R"
376008,"2301 W NORTH AVE","ANDERSON","SC",29625,34.5247778230001,-82.6632117029999,8,"2301 W NORTH AVE, ANDERSON, SC, 29625","Match","Exact","2301 W NORTH AVE, ANDERSON, SC, 29625",25450516,"L"
376009,"2301 W SWEET CT","VISALIA","CA",93291,36.343259179,-119.315694792,9,"2301 W SWEET CT, VISALIA, CA, 93291","Match","Exact","2301 W SWEET CT, VISALIA, CA, 93291",202815521,"L"
376010,"2301 WAKECREST DRIVE","FORT WORTH","TX",76108,32.7400545900001,-97.511615572,10,"2301 WAKECREST DRIVE, FORT WORTH, TX, 76108","Match","Exact","2301 WAKECREST DR, FORT WORTH, TX, 76108",102190711,"L"
376011,"2301 WASHINGTON AVE","WACO","TX",76701,31.542931536,-97.149476695,11,"2301 WASHINGTON AVE, WACO, TX, 76701","Match","Exact","2301 WASHINGTON AVE, WACO, TX, 76701",146735916,"R"
376012,"2301 WASHINGTON STREET","GARY","IN",46407,41.5767035900001,-87.337847742,12,"2301 WASHINGTON STREET, GARY, IN, 46407","Match","Exact","2301 WASHINGTON ST, GARY, IN, 46407",606334176,"L"
376013,"2301 WATERWAY COURT","AUSTIN","TX",78728,NA,NA,13,"2301 WATERWAY COURT, AUSTIN, TX, 78728","Tie",NA,NA,NA,NA
376014,"2301 WAYNESBORO HWY","LAWRENCEBURG","TN",38464,35.2537608100001,-87.3717977489999,14,"2301 WAYNESBORO HWY, LAWRENCEBURG, TN, 38464","Match","Exact","2301 WAYNESBORO HWY, LAWRENCEBURG, TN, 38464",26822835,"L"
376015,"2301 WEST 27TH AVE","PINE BLUFF","AR",71603,34.2025348920001,-92.0259990119999,15,"2301 WEST 27TH AVE, PINE BLUFF, AR, 71603","Match","Exact","2301 W 27TH AVE, PINE BLUFF, AR, 71603",2550722,"R"
376016,"2301 WEST 63RD AVE","MERRILLVILLE","IN",46410,41.503420835,-87.3636059849999,16,"2301 WEST 63RD AVE, MERRILLVILLE, IN, 46410","Match","Exact","2301 W 63RD AVE, MERRILLVILLE, IN, 46410",98431255,"L"
376017,"2301 WEST EAU GALLIE BLVD  NO 104","MELBOURNE","FL",32935,NA,NA,17,"2301 WEST EAU GALLIE BLVD  NO 104, MELBOURNE, FL, 32935","No_Match",NA,NA,NA,NA
376018,"2301 WEST MAIN ST","RUSSELLVILLE","AR",72801,35.2843947480001,-93.155010638,18,"2301 WEST MAIN ST, RUSSELLVILLE, AR, 72801","Match","Exact","2301 W MAIN ST, RUSSELLVILLE, AR, 72801",81882749,"L"
376019,"2301 WESTCHESTER DRIVE","MOORE","OK",73160,35.3159086540001,-97.4710962519999,19,"2301 WESTCHESTER DRIVE, MOORE, OK, 73160","Match","Exact","2301 WESTCHESTER DR, MOORE, OK, 73160",99929462,"L"
376020,"2301 WESTSIDE DRIVE","ROCHESTER","NY",14624,NA,NA,20,"2301 WESTSIDE DRIVE, ROCHESTER, NY, 14624","No_Match",NA,NA,NA,NA
376021,"2301 WHITE OAK DRIVE WEST","EAST STROUDSBURG","PA",18301,41.043926088,-75.2833625059999,21,"2301 WHITE OAK DRIVE WEST, EAST STROUDSBURG, PA, 18301","Match","Exact","2301 WHITE OAK DR W, E STROUDSBURG, PA, 18301",634572737,"R"
376022,"2301 WHITEHALL ST","SUITLAND","MD",20746,38.857639426,-76.933816716,22,"2301 WHITEHALL ST, SUITLAND, MD, 20746","Match","Exact","2301 WHITEHALL ST, SUITLAND, MD, 20746",76372313,"R"
376023,"2301 WINDSOR ROAD","ABILENE","TX",79605,32.420960237,-99.7784057389999,23,"2301 WINDSOR ROAD, ABILENE, TX, 79605","Match","Exact","2301 WINDSOR RD, ABILENE, TX, 79605",129958959,"L"
376024,"2301 WOODFENCE CT","VIRGINIA BEACH","VA",23456,36.7597661040001,-76.027100686,24,"2301 WOODFENCE CT, VIRGINIA BEACH, VA, 23456","Match","Exact","2301 WOODFENCE CT, VA BCH, VA, 23456",122282151,"R"
376025,"2301 WOODLAWN RD","MCKINNEY","TX",75071,33.2093634060001,-96.6023761169999,25,"2301 WOODLAWN RD, MCKINNEY, TX, 75071","Match","Exact","2301 WOODLAWN RD, MCKINNEY, TX, 75071",210471701,"R"
376026,"2301 WYOMING AVENUE NW","WASHINGTON","DC",20008,38.917013593,-77.050777081,26,"2301 WYOMING AVENUE NW, WASHINGTON, DC, 20008","Match","Exact","2301 WYOMING AVE NW, WASHINGTON, DC, 20008",76222645,"R"
376027,"2301-D GEORGIA AVE","WASHINGTON","DC",20001,38.9200730270001,-77.021921301,27,"2301-D GEORGIA AVE, WASHINGTON, DC, 20001","Match","Non_Exact","2301 GEORGIA AVE NW, WASHINGTON, DC, 20001",76224374,"R"
376028,"2301","GARY","IN",46407,NA,NA,28,"2301, GARY, IN, 46407","No_Match",NA,NA,NA,NA
376029,"2301","PLANO","TX",75074,NA,NA,29,"2301, PLANO, TX, 75074","No_Match",NA,NA,NA,NA
376030,"23010 19TH PL WEST","BOTHELL","WA",98021,47.789404179,-122.25999768,30,"23010 19TH PL WEST, BOTHELL, WA, 98021","Match","Exact","23010 19TH PL W, BOTHELL, WA, 98021",624091331,"L"
376031,"23010 54TH AVE W","MOUNTLAKE TERRACE","WA",98043,47.789990931,-122.305790877,31,"23010 54TH AVE W, MOUNTLAKE TERRACE, WA, 98043","Match","Exact","23010 54TH AVE W, MOUNTLAKE TERRACE, WA, 98043",187756788,"R"
376032,"23010 BRYCE STREET","WOODLAND HILLS","CA",91364,34.152347745,-118.626399059,32,"23010 BRYCE STREET, WOODLAND HILLS, CA, 91364","Match","Exact","23010 BRYCE ST, WOODLAND HILLS, CA, 91364",141816649,"L"
376033,"23010 E MAXWELL","LIBERTY LAKE","WA",99019,47.6688119350001,-117.096213358,33,"23010 E MAXWELL, LIBERTY LAKE, WA, 99019","Match","Non_Exact","23010 E MAXWELL AVE, LIBERTY LAKE, WA, 99019",189891547,"R"
376034,"23010 GABRIEL","NEW CANEY","TX",77357,30.156912683,-95.216442903,34,"23010 GABRIEL, NEW CANEY, TX, 77357","Match","Exact","23010 GABRIEL, NEW CANEY, TX, 77357",636293377,"L"
376035,"23010 GLENMONT ESTATES BLCD","MAGNOLIA","TX",77355,30.1154299360001,-95.758231036,35,"23010 GLENMONT ESTATES BLCD, MAGNOLIA, TX, 77355","Match","Non_Exact","23010 GLENMONT ESTATES BLVD, MAGNOLIA, TX, 77355",79327627,"R"
376036,"23010 N 65TH LN","GLENDALE","AZ",85310,33.6949686930001,-112.199669731,36,"23010 N 65TH LN, GLENDALE, AZ, 85310","Match","Exact","23010 N 65TH LN, GLENDALE, AZ, 85310",128419320,"R"
376037,"23010 ROBERTS RUN","BAY VILLAGE","OH",44140,41.4822444000001,-81.875276728,37,"23010 ROBERTS RUN, BAY VILLAGE, OH, 44140","Match","Exact","23010 ROBERTS RUN, BAY VILLAGE, OH, 44140",637588475,"R"
376038,"23010 S 201 ST","QUEEN CREEK","AZ",85142,33.239965892,-111.650691215,38,"23010 S 201 ST, QUEEN CREEK, AZ, 85142","Match","Exact","23010 S 201ST ST, QUEEN CREEK, AZ, 85142",244000072,"L"
376039,"23011 CUERVO DR","VALENCIA","CA",91351,34.435560697,-118.538068672,39,"23011 CUERVO DR, VALENCIA, CA, 91351","Match","Non_Exact","23011 CUERVO DR, VALENCIA, CA, 91354",141518734,"L"
376040,"23011 EASTBROOK DR","SAUK VILLAGE","IL",60411,41.472201033,-87.573088511,40,"23011 EASTBROOK DR, SAUK VILLAGE, IL, 60411","Match","Exact","23011 EASTBROOK DR, SAUK VILLAGE, IL, 60411",112224066,"R"
376041,"23011 IH-10 WEST","SAN ANTONIO","TX",78257,NA,NA,41,"23011 IH-10 WEST, SAN ANTONIO, TX, 78257","No_Match",NA,NA,NA,NA
376042,"23011 LAGUNA POINT DR","KATY","TX",77450,29.741796332,-95.76689988,42,"23011 LAGUNA POINT DR, KATY, TX, 77450","Match","Exact","23011 LAGUNA POINT DR, KATY, TX, 77450",78320539,"R"
376043,"23011 VENTURA BLVD","WOODLAND HILLS","CA",91364,34.1646160390001,-118.627387451,43,"23011 VENTURA BLVD, WOODLAND HILLS, CA, 91364","Match","Exact","23011 VENTURA BLVD, WOODLAND HILLS, CA, 91364",642861643,"R"
376044,"23012 BASSETT ROAD","SEDRO WOOLLEY","WA",98284,48.5283847060001,-122.246321759,44,"23012 BASSETT ROAD, SEDRO WOOLLEY, WA, 98284","Match","Exact","23012 BASSETT RD, SEDRO WOOLLEY, WA, 98284",183644783,"R"
376045,"23012 SADDLE PEAK ROAD","TOPANGA","CA",90290,34.078704019,-118.632976091,45,"23012 SADDLE PEAK ROAD, TOPANGA, CA, 90290","Match","Exact","23012 SADDLE PEAK RD, TOPANGA, CA, 90290",142833821,"R"
376046,"23012 WINGED ELM DRIVE","CLARKSBURG","MD",20871,39.233767131,-77.2526464169999,46,"23012 WINGED ELM DRIVE, CLARKSBURG, MD, 20871","Match","Exact","23012 WINGED ELM DR, CLARKSBURG, MD, 20871",624636018,"L"
376047,"23013 GEORGE RD","TONGANOXIE","KS",66086,39.136052981,-95.113160184,47,"23013 GEORGE RD, TONGANOXIE, KS, 66086","Match","Exact","23013 GEORGE RD, TONGANOXIE, KS, 66086",91413984,"L"
376048,"23013 W HWY 122","MIAMI","MO",65344,39.2327150940001,-93.24537255,48,"23013 W HWY 122, MIAMI, MO, 65344","Match","Exact","23013 W HWY 122, MIAMI, MO, 65344",21023296,"L"
376049,"23013 WEST HIGHWAY 122","MIAMI","MO",65344,39.2327156700001,-93.245382754,49,"23013 WEST HIGHWAY 122, MIAMI, MO, 65344","Match","Exact","23013 W HWY 122, MIAMI, MO, 65344",21023296,"L"
376050,"23014 - 81ST PL W","EDMONDS","WA",98026,NA,NA,50,"23014 - 81ST PL W, EDMONDS, WA, 98026","No_Match",NA,NA,NA,NA
376051,"23014 ALAMEDA AVE","ALAMEDA","CA",94501,NA,NA,51,"23014 ALAMEDA AVE, ALAMEDA, CA, 94501","No_Match",NA,NA,NA,NA
376052,"23014 BLUE FLAG CIR","CLARKSBURG","MD",20871,39.2299403690001,-77.239861908,52,"23014 BLUE FLAG CIR, CLARKSBURG, MD, 20871","Match","Exact","23014 BLUE FLAG CIR, CLARKSBURG, MD, 20871",642179839,"L"
376053,"23014 NE 69TH AVENUE","MELROSE","FL",32666,29.7190276630001,-82.079599113,53,"23014 NE 69TH AVENUE, MELROSE, FL, 32666","Match","Exact","23014 NE 69TH AVE, MELROSE, FL, 32666",6879309,"L"
376054,"23014 NW 178TH PLACE","HIGH SPRINGS","FL",32643,29.818342063,-82.588822664,54,"23014 NW 178TH PLACE, HIGH SPRINGS, FL, 32643","Match","Non_Exact","23014 NW 178TH AVE, HIGH SPRINGS, FL, 32643",6793872,"L"
376055,"23014 SPRING WILLOW","TOMBALL","TX",77375,30.0977593370001,-95.544779152,55,"23014 SPRING WILLOW, TOMBALL, TX, 77375","Match","Non_Exact","23014 SPRING WILLOW DR, TOMBALL, TX, 77375",96003042,"R"
376056,"23014 WREN CREST","CALABASAS","CA",91302,34.1440272250001,-118.629093986,56,"23014 WREN CREST, CALABASAS, CA, 91302","Match","Non_Exact","23014 WRENCREST DR, CALABASAS, CA, 91302",141723945,"R"
376057,"23015 PIONEER TRAIL","COUNCIL BLUFFS","IA",51503,41.1974421410001,-95.745694659,57,"23015 PIONEER TRAIL, COUNCIL BLUFFS, IA, 51503","Match","Exact","23015 PIONEER TRL, COUNCIL BLUFFS, IA, 51503",43914809,"R"
376058,"23016 LAKE FOREST DRIVE STE D355","LAGUNA HILLS","CA",92653,33.628810582,-117.724434311,58,"23016 LAKE FOREST DRIVE STE D355, LAGUNA HILLS, CA, 92653","Match","Exact","23016 LAKE FOREST DR, LAGUNA HILLS, CA, 92653",638572719,"R"
376059,"23017 511TH AVE","WINTHROP","MN",55396,44.6089366360001,-94.295284379,59,"23017 511TH AVE, WINTHROP, MN, 55396","Match","Exact","23017 511TH AVE, WINTHROP, MN, 55396",37012967,"R"
376060,"23017 SE 13TH WAY","SAMMAMISH","WA",98075,47.59747164,-122.032750392,60,"23017 SE 13TH WAY, SAMMAMISH, WA, 98075","Match","Exact","23017 SE 13TH WAY, SAMMAMISH, WA, 98075",647877757,"R"
376061,"23017 SE 41ST CT","SAMMAMISH","WA",98075,47.572047205,-122.034212965,61,"23017 SE 41ST CT, SAMMAMISH, WA, 98075","Match","Exact","23017 SE 41ST CT, SAMMAMISH, WA, 98075",186618433,"L"
376062,"23018 40TH AVE E","SPANAWAY","WA",98387,47.047143405,-122.377217825,62,"23018 40TH AVE E, SPANAWAY, WA, 98387","Match","Exact","23018 40TH AVE E, SPANAWAY, WA, 98387",184700855,"R"
376063,"23018 ENCHANTED LANDING LANE","KATY","TX",77494,29.7390236630001,-95.7673783,63,"23018 ENCHANTED LANDING LANE, KATY, TX, 77494","Match","Exact","23018 ENCHANTED LANDING LN, KATY, TX, 77494",78324841,"L"
376064,"23018 ETHEL DR","MABELVALE","AR",72103,34.5407248160001,-92.3980553709999,64,"23018 ETHEL DR, MABELVALE, AR, 72103","Match","Exact","23018 ETHEL DR, MABELVALE, AR, 72103",24196414,"R"
376065,"23018 LAKE AVENUE","FIVE POINTS","CA",93624,36.399450415,-120.139040265,65,"23018 LAKE AVENUE, FIVE POINTS, CA, 93624","Match","Non_Exact","23018 S LAKE AVE, FIVE POINTS, CA, 93624",642061324,"R"
376066,"23018 NE 83RD ST","VANCOUVER","WA",98682,45.6831068640001,-122.436532141,66,"23018 NE 83RD ST, VANCOUVER, WA, 98682","Match","Exact","23018 NE 83RD ST, VANCOUVER, WA, 98682",158346896,"L"
376067,"23018 NE 83RD ST","VANCOUVER","WA",98782,45.6831068640001,-122.436532141,67,"23018 NE 83RD ST, VANCOUVER, WA, 98782","Match","Non_Exact","23018 NE 83RD ST, VANCOUVER, WA, 98682",158346896,"L"
376068,"23018 SANDPIPER TRL","SPRING","TX",77373,30.0379419770001,-95.368120421,68,"23018 SANDPIPER TRL, SPRING, TX, 77373","Match","Exact","23018 SANDPIPER TRL, SPRING, TX, 77373",96042833,"L"
376069,"23018 W 61ST ST N","ANDALE","KS",67001,37.793308396,-97.605648289,69,"23018 W 61ST ST N, ANDALE, KS, 67001","Match","Exact","23018 W 61ST ST N, ANDALE, KS, 67001",115622866,"L"
376070,"23019 EARKNUST DR","SPRING","TX",77373,NA,NA,70,"23019 EARKNUST DR, SPRING, TX, 77373","No_Match",NA,NA,NA,NA
376071,"23019 EARLMIST DR","SPRINT","TX",77373,30.0420302000001,-95.39344866,71,"23019 EARLMIST DR, SPRINT, TX, 77373","Match","Non_Exact","23019 EARLMIST DR, SPRING, TX, 77373",96042278,"L"
376072,"23019 HIGHWAY 1","KEOSAUQUA","IA",52565,40.7111819260001,-91.948506835,72,"23019 HIGHWAY 1, KEOSAUQUA, IA, 52565","Match","Non_Exact","23019 STATE HWY 1, KEOSAUQUA, IA, 52565",12935257,"L"
376073,"2301C MEADOWPOINT DR","TROY","OH",45373,40.044118032,-84.244552809,73,"2301C MEADOWPOINT DR, TROY, OH, 45373","Match","Exact","2301 MEADOWPOINT DR, TROY, OH, 45373",634050288,"R"
376074,"2301DUNLEAF ARC WAY NW","NORCROSS","GA",30093,NA,NA,74,"2301DUNLEAF ARC WAY NW, NORCROSS, GA, 30093","No_Match",NA,NA,NA,NA
376075,"2302 130TH AVENW","COON RAPIDS","MN",55448,NA,NA,75,"2302 130TH AVENW, COON RAPIDS, MN, 55448","No_Match",NA,NA,NA,NA
376076,"2302 13TH STREET","HARLINGEN","TX",78550,26.2161731630001,-97.682183819,76,"2302 13TH STREET, HARLINGEN, TX, 78550","Match","Non_Exact","2302 N 13TH ST, HARLINGEN, TX, 78550",89996436,"L"
376077,"2302 14TH STREET","TUSCALOOSA","AL",35401,33.2016588860001,-87.563638026,77,"2302 14TH STREET, TUSCALOOSA, AL, 35401","Match","Exact","2302 14TH ST, TUSCALOOSA, AL, 35401",82148309,"R"
376078,"2302 157TH ST CT E","TACOMA","WA",98445,47.113567297,-122.39883338,78,"2302 157TH ST CT E, TACOMA, WA, 98445","Match","Exact","2302 157TH STREET CT E, TACOMA, WA, 98445",184742949,"R"
376079,"2302 27TH ST","SANTA MONICA","CA",90405,34.0223511340001,-118.460312308,79,"2302 27TH ST, SANTA MONICA, CA, 90405","Match","Exact","2302 27TH ST, SANTA MONICA, CA, 90405",627866941,"R"
376080,"2302 6TH AVE APART 122","TACOMA","WA",98403,47.2554421180001,-122.467256113,80,"2302 6TH AVE APART 122, TACOMA, WA, 98403","Match","Exact","2302 6TH AVE, TACOMA, WA, 98403",184646682,"L"
376081,"2302 ALIAGA TERRACE WAY","PEARLAND","TX",77089,NA,NA,81,"2302 ALIAGA TERRACE WAY, PEARLAND, TX, 77089","No_Match",NA,NA,NA,NA
376082,"2302 ANDREWS AVE","BRONX","NY",10468,40.8610661490001,-73.90768186,82,"2302 ANDREWS AVE, BRONX, NY, 10468","Match","Non_Exact","2302 ANDREWS AVE N, BRONX, NY, 10468",80298620,"R"
376083,"2302 ARBOR DRIVE","DULUTH","GA",30096,NA,NA,83,"2302 ARBOR DRIVE, DULUTH, GA, 30096","No_Match",NA,NA,NA,NA
376084,"2302 AUDUBON DRIVE","HANAHAN","SC",29410,32.9465481300001,-80.035098153,84,"2302 AUDUBON DRIVE, HANAHAN, SC, 29410","Match","Exact","2302 AUDUBON DR, HANAHAN, SC, 29410",615959211,"L"
376085,"2302 AVE R","SNYDER","TX",79549,32.7190980840001,-100.917117359,85,"2302 AVE R, SNYDER, TX, 79549","Match","Exact","2302 AVE R, SNYDER, TX, 79549",183176594,"R"
376086,"2302 AVENUE C","FORT PIERCE","FL",34950,27.450506021,-80.3479568239999,86,"2302 AVENUE C, FORT PIERCE, FL, 34950","Match","Exact","2302 AVE C, FORT PIERCE, FL, 34950",120147337,"R"
376087,"2302 AVENUE J","BROOKLYN","NY",11230,40.626051868,-73.953413095,87,"2302 AVENUE J, BROOKLYN, NY, 11230","Match","Non_Exact","2302 AVE J, BROOKLYN, NY, 11210",59082178,"R"
376088,"2302 BAYOU DRIVE","PORT ARTHUR","TX",77640,29.879557187,-94.011547008,88,"2302 BAYOU DRIVE, PORT ARTHUR, TX, 77640","Match","Exact","2302 BAYOU DR, PORT ARTHUR, TX, 77640",73865683,"R"
376089,"2302 BAYTHORNE CT","BALTIMORE","MD",21209,39.3770825660001,-76.675126828,89,"2302 BAYTHORNE CT, BALTIMORE, MD, 21209","Match","Exact","2302 BAYTHORNE CT, BALTIMORE, MD, 21209",191472019,"L"
376090,"2302 BESSMORE PARK RD","ROCHESTER","IN",46975,41.0492043570001,-86.1670810909999,90,"2302 BESSMORE PARK RD, ROCHESTER, IN, 46975","Match","Exact","2302 BESSMORE PARK RD, ROCHESTER, IN, 46975",7847057,"L"
376091,"2302 BITTERSWEET APT 3","COLUMBUS","MS",39705,33.5312358300001,-88.4392041689999,91,"2302 BITTERSWEET APT 3, COLUMBUS, MS, 39705","Match","Non_Exact","2302 BITTERSWEET DR, COLUMBUS, MS, 39705",610589567,"L"
376092,"2302 BLUE MEADOWS CT","APOPKA","FL",32703,NA,NA,92,"2302 BLUE MEADOWS CT, APOPKA, FL, 32703","No_Match",NA,NA,NA,NA
376093,"2302 BLUE RIDGE DRIVE","GREENSBORO","NC",27455,36.156482269,-79.838175173,93,"2302 BLUE RIDGE DRIVE, GREENSBORO, NC, 27455","Match","Exact","2302 BLUE RIDGE DR, GREENSBORO, NC, 27455",131065380,"L"
376094,"2302 BOB SANDLIN LN","WYLIE","TX",75098,33.0094462750001,-96.498976085,94,"2302 BOB SANDLIN LN, WYLIE, TX, 75098","Match","Exact","2302 BOB SANDLIN LN, WYLIE, TX, 75098",649104451,"L"
376095,"2302 BOULEVARD NAPOLEON","LOUISVILLE","KY",40205,NA,NA,95,"2302 BOULEVARD NAPOLEON, LOUISVILLE, KY, 40205","No_Match",NA,NA,NA,NA
376096,"2302 BUNNY RUN LANE","ARLINGTON","TX",76006,32.7703589180001,-97.0837588809999,96,"2302 BUNNY RUN LANE, ARLINGTON, TX, 76006","Match","Exact","2302 BUNNY RUN LN, ARLINGTON, TX, 76006",102096906,"L"
376097,"2302 CAMP DAVID ST","MESQUITE","TX",75149,32.7813583770001,-96.632661721,97,"2302 CAMP DAVID ST, MESQUITE, TX, 75149","Match","Exact","2302 CAMP DAVID ST, MESQUITE, TX, 75149",102932289,"L"
376098,"2302 CARDAMON DR","ARLINGTON","TX",76010,32.7151487520001,-97.068750388,98,"2302 CARDAMON DR, ARLINGTON, TX, 76010","Match","Exact","2302 CARDAMON DR, ARLINGTON, TX, 76010",618450503,"R"
376099,"2302 CATSKILL CT","IOWA CITY","IA",52245,41.6522632470001,-91.496511738,99,"2302 CATSKILL CT, IOWA CITY, IA, 52245","Match","Exact","2302 CATSKILL CT, IOWA CITY, IA, 52245",84519625,"R"
376100,"2302 CLINE STREET","STATESVILLE","NC",28677,35.7825882830001,-80.923014526,100,"2302 CLINE STREET, STATESVILLE, NC, 28677","Match","Exact","2302 CLINE ST, STATESVILLE, NC, 28677",46008632,"L"
376101,"2302 CO RD 800 E","MILL SHOALD","IL",62862,38.2138091310001,-88.225359004,101,"2302 CO RD 800 E, MILL SHOALD, IL, 62862","Match","Non_Exact","2302 CO RD 800 E, MILL SHOALS, IL, 62862",38215552,"R"
376102,"2302 COASTAL WIND","CORPUS CHRISTI","TX",78414,27.685397575,-97.360041407,102,"2302 COASTAL WIND, CORPUS CHRISTI, TX, 78414","Match","Non_Exact","2302 COASTAL WIND DR, CORPUS CHRISTI, TX, 78414",628008809,"L"
376103,"2302 COLUMBIA PLACE","LANDOVER","MD",20785,38.920879638,-76.89315643,103,"2302 COLUMBIA PLACE, LANDOVER, MD, 20785","Match","Exact","2302 COLUMBIA PL, LANDOVER, MD, 20785",76353847,"L"
376104,"2302 COPPER RIDGE RD","ARLINGTON","TX",76006,32.7872185740001,-97.0698178069999,104,"2302 COPPER RIDGE RD, ARLINGTON, TX, 76006","Match","Exact","2302 COPPER RIDGE RD, ARLINGTON, TX, 76006",102097206,"R"
376105,"2302 COTTONWOOD DRIVE","ELGIN","IL",60123,41.996821873,-88.333077079,105,"2302 COTTONWOOD DRIVE, ELGIN, IL, 60123","Match","Exact","2302 COTTONWOOD DR, ELGIN, IL, 60123",119585105,"L"
376106,"2302 COUNTRY LANE","PLANT CITY","FL",33565,28.0647482370001,-82.1477673699999,106,"2302 COUNTRY LANE, PLANT CITY, FL, 33565","Match","Exact","2302 COUNTRY LN, PLANT CITY, FL, 33565",104586650,"R"
376107,"2302 COUNTY ROAD 445","BALLINGER","TX",76821,31.733292626,-99.969678457,107,"2302 COUNTY ROAD 445, BALLINGER, TX, 76821","Match","Exact","2302 CO RD 445, BALLINGER, TX, 76821",129900687,"L"
376108,"2302 CYGNUS WAY","SPARKS","NV",89441,39.667997271,-119.707861911,108,"2302 CYGNUS WAY, SPARKS, NV, 89441","Match","Exact","2302 CYGNUS WAY, SPARKS, NV, 89441",619740913,"L"
376109,"2302 Dogie Spur","Golden","CO",80403,39.752681071,-105.389741573,109,"2302 Dogie Spur, Golden, CO, 80403","Match","Non_Exact","2302 DOGIE SPR, GOLDEN, CO, 80403",177273976,"R"
376110,"2302 DRY CREEK WAY","STOCKTON","CA",95206,37.925303351,-121.308964301,110,"2302 DRY CREEK WAY, STOCKTON, CA, 95206","Match","Exact","2302 DRY CREEK WAY, STOCKTON, CA, 95206",133882347,"L"
376111,"2302 E AMELIA AVE","PHOENIX","AZ",85016,33.493928285,-112.03215359,111,"2302 E AMELIA AVE, PHOENIX, AZ, 85016","Match","Exact","2302 E AMELIA AVE, PHOENIX, AZ, 85016",128209984,"L"
376112,"2302 E BROADWAY ROAD APT A","MESA","AZ",85204,33.4081376120001,-111.781629119,112,"2302 E BROADWAY ROAD APT A, MESA, AZ, 85204","Match","Non_Exact","2302 E BROADWAY RD, MESA, AZ, 85204",128246589,"L"
376113,"2302 E FOREST HEIGHTS DR","FLAGSTAFF","AZ",86004,35.2230885440001,-111.608541397,113,"2302 E FOREST HEIGHTS DR, FLAGSTAFF, AZ, 86004","Match","Exact","2302 E FOREST HEIGHTS DR, FLAGSTAFF, AZ, 86004",188935234,"L"
376114,"2302 E FORT LOWELL RD","TUCSON","AZ",85716,32.2648798110001,-110.937176307,114,"2302 E FORT LOWELL RD, TUCSON, AZ, 85716","Match","Non_Exact","2302 E FORT LOWELL RD, TUCSON, AZ, 85719",121168484,"R"
376115,"2302 E HULET DR","CHANDLER","AZ",85220,33.3108224160001,-111.801087921,115,"2302 E HULET DR, CHANDLER, AZ, 85220","Match","Non_Exact","2302 E HULET DR, CHANDLER, AZ, 85225",128804903,"R"
376116,"2302 EAGLE HARBOR PARKWAY","FLEMING ISLAND","FL",32003,30.117634127,-81.729837936,116,"2302 EAGLE HARBOR PARKWAY, FLEMING ISLAND, FL, 32003","Match","Exact","2302 EAGLE HARBOR PKWY, FLEMING ISLAND, FL, 32003",83833656,"R"
376117,"2302 EAST SIDE DR UNIT 124","AUSTIN","TX",78704,30.237704299,-97.748440902,117,"2302 EAST SIDE DR UNIT 124, AUSTIN, TX, 78704","Match","Exact","2302 E SIDE DR, AUSTIN, TX, 78704",63945035,"R"
376118,"2302 EVERSHAM CT","SYLVANIA","OH",43617,41.661934697,-83.717775546,118,"2302 EVERSHAM CT, SYLVANIA, OH, 43617","Match","Non_Exact","2302 EVERSHAM CT, SYLVANIA TOWNSHIP, OH, 43617",33950785,"L"
376119,"2302 FAIRHAVEN LANE","CROFTON","MD",21114,39.026461125,-76.670752115,119,"2302 FAIRHAVEN LANE, CROFTON, MD, 21114","Match","Exact","2302 FAIRHAVEN LN, CROFTON, MD, 21114",68161498,"R"
376120,"2302 FANNIN STREET STE 500","HOUSTON","TX",77002,29.746668906,-95.371784137,120,"2302 FANNIN STREET STE 500, HOUSTON, TX, 77002","Match","Exact","2302 FANNIN ST, HOUSTON, TX, 77002",96071431,"R"
376121,"2302 FARGO STREET","LOS ANGELES","CA",90039,34.0929703100001,-118.261010763,121,"2302 FARGO STREET, LOS ANGELES, CA, 90039","Match","Exact","2302 FARGO ST, LOS ANGELES, CA, 90039",142665318,"L"
376122,"2302 FERNWOOD DR","GREENSBORO","NC",27408,36.099722318,-79.820278737,122,"2302 FERNWOOD DR, GREENSBORO, NC, 27408","Match","Exact","2302 FERNWOOD DR, GREENSBORO, NC, 27408",131030466,"R"
376123,"2302 FLAMINGO ST","NEW CANEY","TX",77357,30.172185616,-95.1658710729999,123,"2302 FLAMINGO ST, NEW CANEY, TX, 77357","Match","Exact","2302 FLAMINGO ST, NEW CANEY, TX, 77357",79312768,"L"
376124,"2302 FOREST LAKES LN","STERRETT","AL",35147,33.3680026430001,-86.63353733,124,"2302 FOREST LAKES LN, STERRETT, AL, 35147","Match","Exact","2302 FOREST LAKES LN, STERRETT, AL, 35147",652387178,"R"
376125,"2302 GARDENDALE","COLUMBUS","OH",43219,39.996578422,-82.943405333,125,"2302 GARDENDALE, COLUMBUS, OH, 43219","Match","Non_Exact","2302 GARDENDALE DR, COLUMBUS, OH, 43219",218653174,"L"
376126,"2302 GRAYSTONE DRIVE","ST. CHARLES","MO",63303,38.7654525190001,-90.543044352,126,"2302 GRAYSTONE DRIVE, ST. CHARLES, MO, 63303","Match","Exact","2302 GRAYSTONE DR, SAINT CHARLES, MO, 63303",100036925,"R"
376127,"2302 GULF","MIDLAND","TX",79705,32.0139124240001,-102.105441317,127,"2302 GULF, MIDLAND, TX, 79705","Match","Non_Exact","2302 GULF AVE, MIDLAND, TX, 79705",139579372,"R"
376128,"2302 HANSON ROAD","EDGEWOOD","MD",21040,39.428408774,-76.29612034,128,"2302 HANSON ROAD, EDGEWOOD, MD, 21040","Match","Exact","2302 HANSON RD, EDGEWOOD, MD, 21040",191643991,"L"
376129,"2302 HEATH POND ROAD","ELGIN","SC",29045,34.1535603660001,-80.781979807,129,"2302 HEATH POND ROAD, ELGIN, SC, 29045","Match","Exact","2302 HEATH POND RD, ELGIN, SC, 29045",78482482,"R"
376130,"2302 HERITAGE DRIVE","SAINT CLOUD","MN",56301,45.516086929,-94.1805226389999,130,"2302 HERITAGE DRIVE, SAINT CLOUD, MN, 56301","Match","Exact","2302 HERITAGE DR, SAINT CLOUD, MN, 56301",107438190,"R"
376131,"2302 HIDDEN MEADOW LN","BALLWIN","MO",63021,38.594452419,-90.4717454029999,131,"2302 HIDDEN MEADOW LN, BALLWIN, MO, 63021","Match","Exact","2302 HIDDEN MEADOW LN, BALLWIN, MO, 63021",100127068,"R"
376132,"2302 HIGHLAND CROSSING DR","CONROE","TX",77304,30.3787250980001,-95.509398212,132,"2302 HIGHLAND CROSSING DR, CONROE, TX, 77304","Match","Exact","2302 HIGHLAND CROSSING DR, CONROE, TX, 77304",616154972,"R"
376133,"2302 HIGHLAND FOREST DR","WAXHAW","NC",28173,34.9823333580001,-80.7581136439999,133,"2302 HIGHLAND FOREST DR, WAXHAW, NC, 28173","Match","Exact","2302 HIGHLAND FOREST DR, WAXHAW, NC, 28173",622195067,"R"
376134,"2302 HIGHVIEW ROAD","MEXICO","MO",65265,39.1528455110001,-91.902222723,134,"2302 HIGHVIEW ROAD, MEXICO, MO, 65265","Match","Exact","2302 HIGHVIEW RD, MEXICO, MO, 65265",34304192,"L"
376135,"2302 HOESCHLER DRIVE","LA CROSSE","WI",54601,43.7883565320001,-91.2171180289999,135,"2302 HOESCHLER DRIVE, LA CROSSE, WI, 54601","Match","Exact","2302 HOESCHLER DR, LA CROSSE, WI, 54601",51013618,"R"
376136,"2302 HOLLY RIDGE DR","PLAINFIELD","IL",60586,41.562852019,-88.238072312,136,"2302 HOLLY RIDGE DR, PLAINFIELD, IL, 60586","Match","Exact","2302 HOLLY RIDGE DR, PLAINFIELD, IL, 60586",111627194,"L"
376137,"2302 HOOVER AVE","BISMARCK","ND",58501,46.8250506420001,-100.756278442,137,"2302 HOOVER AVE, BISMARCK, ND, 58501","Match","Exact","2302 HOOVER AVE, BISMARCK, ND, 58501",198867558,"L"
376138,"2302 INTERNATIONAL LN","MADISON","WI",53704,43.123855292,-89.351363162,138,"2302 INTERNATIONAL LN, MADISON, WI, 53704","Match","Exact","2302 INTERNATIONAL LN, MADISON, WI, 53704",49497793,"L"
376139,"2302 JASMINE ST","HONOLULU","HI",96816,21.3057472900001,-157.792681032,139,"2302 JASMINE ST, HONOLULU, HI, 96816","Match","Exact","2302 JASMINE ST, HONOLULU, HI, 96816",203239911,"L"
376140,"2302 JULIA RD","GUFFEY","CO",80820,NA,NA,140,"2302 JULIA RD, GUFFEY, CO, 80820","No_Match",NA,NA,NA,NA
376141,"2302 KEYES AVENUE","MADISON","WI",53711,43.0618857100001,-89.425154678,141,"2302 KEYES AVENUE, MADISON, WI, 53711","Match","Exact","2302 KEYES AVE, MADISON, WI, 53711",49469046,"R"
376142,"2302 KIDANE WAY SE","OLYMPIA","WA",98501,NA,NA,142,"2302 KIDANE WAY SE, OLYMPIA, WA, 98501","No_Match",NA,NA,NA,NA
376143,"2302 KILDANE WAY SE","OLYMPIA","WA",98501,47.013303401,-122.869657484,143,"2302 KILDANE WAY SE, OLYMPIA, WA, 98501","Match","Exact","2302 KILDANE WAY SE, OLYMPIA, WA, 98501",627706811,"R"
376144,"2302 KINGBIRD BEND","LELAND","NC",28451,34.2736763020001,-78.0786919179999,144,"2302 KINGBIRD BEND, LELAND, NC, 28451","Match","Non_Exact","2302 KINGBIRD BEND NE, LELAND, NC, 28451",642666425,"L"
376145,"2302 KINGSFIELD ST","JEFFERSONVILLE","IN",47130,38.3322596850001,-85.7389790459999,145,"2302 KINGSFIELD ST, JEFFERSONVILLE, IN, 47130","Match","Exact","2302 KINGSFIELD ST, JEFFERSONVILLE, IN, 47130",64919937,"R"
376146,"2302 KNOTWEED CT","WALDORF","MD",20603,38.6385288020001,-76.99947141,146,"2302 KNOTWEED CT, WALDORF, MD, 20603","Match","Exact","2302 KNOTWEED CT, WALDORF, MD, 20603",25384829,"R"
376147,"2302 LABRADOR COURT","GREENSBORO","NC",27406,36.0392907130001,-79.704767433,147,"2302 LABRADOR COURT, GREENSBORO, NC, 27406","Match","Exact","2302 LABRADOR CT, GREENSBORO, NC, 27406",131087962,"R"
376148,"2302 LACOSTE DRIVE","JONESBORO","AR",72404,35.8131201050001,-90.763622046,148,"2302 LACOSTE DRIVE, JONESBORO, AR, 72404","Match","Non_Exact","2302 LACOSTE COVE, JONESBORO, AR, 72404",46924533,"L"
376149,"2302 LAFAYETTE BLVD","NORFOLK","VA",23509,36.876836675,-76.260099133,149,"2302 LAFAYETTE BLVD, NORFOLK, VA, 23509","Match","Exact","2302 LAFAYETTE BLVD, NORFOLK, VA, 23509",122134598,"L"
376150,"2302 LANE STREET","FALLS CITY","NE",68355,40.0677406630001,-95.600546359,150,"2302 LANE STREET, FALLS CITY, NE, 68355","Match","Exact","2302 LANE ST, FALLS CITY, NE, 68355",10298051,"R"
376151,"2302 LANTERNTREE COURT","GASTONIA","NC",28056,35.2114509950001,-81.131956217,151,"2302 LANTERNTREE COURT, GASTONIA, NC, 28056","Match","Exact","2302 LANTERNTREE CT, GASTONIA, NC, 28056",70405312,"L"
376152,"2302 LILLY CT","BEL AIR","MD",21015,39.4935976690001,-76.289641854,152,"2302 LILLY CT, BEL AIR, MD, 21015","Match","Exact","2302 LILLY CT, BEL AIR, MD, 21015",606803010,"L"
376153,"2302 LITTLE TREE BEND","CEDAR PARK","TX",78613,30.484434806,-97.850502252,153,"2302 LITTLE TREE BEND, CEDAR PARK, TX, 78613","Match","Exact","2302 LITTLE TREE BEND, CEDAR PARK, TX, 78613",126521892,"L"
376154,"2302 LITTLE VALLEY ROAD","HOOVER","AL",35216,33.4093770220001,-86.8038679329999,154,"2302 LITTLE VALLEY ROAD, HOOVER, AL, 35216","Match","Exact","2302 LITTLE VALLEY RD, HOOVER, AL, 35216",81583291,"L"
376155,"2302 LYNN ROAD NW","HUNTSVILLE","AL",35810,34.7815122430001,-86.591948239,155,"2302 LYNN ROAD NW, HUNTSVILLE, AL, 35810","Match","Exact","2302 LYNN RD NW, HUNTSVILLE, AL, 35810",58115997,"R"
376156,"2302 LYNN ST","SPRINGDALE","AR",72762,36.1653523960001,-94.170118131,156,"2302 LYNN ST, SPRINGDALE, AR, 72762","Match","Exact","2302 LYNN ST, SPRINGDALE, AR, 72762",640550168,"R"
376157,"2302 MAIN STREET","WARREN","MA",1092,42.2121745810001,-72.240261776,157,"2302 MAIN STREET, WARREN, MA, 1092","Match","Non_Exact","2302 MAIN ST, WEST WARREN, MA, 01092",39997330,"L"
376158,"2302 MANCHESTER COURT","CARROLLTON","TX",75006,32.974656811,-96.860432243,158,"2302 MANCHESTER COURT, CARROLLTON, TX, 75006","Match","Exact","2302 MANCHESTER CT, CARROLLTON, TX, 75006",103263273,"R"
376159,"2302 MARENGO STREET","NEW ORLEANS","LA",70115,29.9336898110001,-90.099278146,159,"2302 MARENGO STREET, NEW ORLEANS, LA, 70115","Match","Exact","2302 MARENGO ST, NEW ORLEANS, LA, 70115",191711785,"L"
376160,"2302 MCGREGOR COURT","VIENNA","VA",22182,38.8978476080001,-77.225903054,160,"2302 MCGREGOR COURT, VIENNA, VA, 22182","Match","Exact","2302 MCGREGOR CT, VIENNA, VA, 22182",75971538,"R"
376161,"2302 MIDLAND RD","GUYTON","GA",31312,32.243174588,-81.3412292049999,161,"2302 MIDLAND RD, GUYTON, GA, 31312","Match","Exact","2302 MIDLAND RD, GUYTON, GA, 31312",6273211,"L"
376162,"2302 MINNESOTA AVENUE","DULUTH","MN",55802,46.759525927,-92.079725008,162,"2302 MINNESOTA AVENUE, DULUTH, MN, 55802","Match","Exact","2302 MINNESOTA AVE, DULUTH, MN, 55802",163214809,"L"
376163,"2302 MINNIE ROSE","GUTHRIE","OK",73044,35.855208657,-97.4330620979999,163,"2302 MINNIE ROSE, GUTHRIE, OK, 73044","Match","Non_Exact","2302 MINNIE ROSE ST, GUTHRIE, OK, 73044",121960499,"R"
376164,"2302 MONTCLAIR DRIVE","CARROLLTON","TX",75007,32.9872346390001,-96.877492035,164,"2302 MONTCLAIR DRIVE, CARROLLTON, TX, 75007","Match","Exact","2302 MONTCLAIR DR, CARROLLTON, TX, 75007",102884378,"R"
376165,"2302 MUSSER ST","LAREDO","TX",78043,27.514820199,-99.473047819,165,"2302 MUSSER ST, LAREDO, TX, 78043","Match","Exact","2302 MUSSER ST, LAREDO, TX, 78043",21673454,"L"
376166,"2302 N 15TH AVENUE","PHOENIX","AZ",85007,33.4732695660001,-112.091387797,166,"2302 N 15TH AVENUE, PHOENIX, AZ, 85007","Match","Exact","2302 N 15TH AVE, PHOENIX, AZ, 85007",128211080,"L"
376167,"2302 N BELT LINE RD","MESQUITE","TX",75150,32.795368512,-96.595738582,167,"2302 N BELT LINE RD, MESQUITE, TX, 75150","Match","Exact","2302 N BELT LINE RD, MESQUITE, TX, 75150",103232379,"L"
376168,"2302 N CENTRAL AVENUE SUITE 606","PHOENIX","AZ",85004,NA,NA,168,"2302 N CENTRAL AVENUE SUITE 606, PHOENIX, AZ, 85004","Tie",NA,NA,NA,NA
376169,"2302 N CONWAY","MISSION","TX",78574,NA,NA,169,"2302 N CONWAY, MISSION, TX, 78574","No_Match",NA,NA,NA,NA
376170,"2302 N FREE KING HWY","PITTSBURG","KS",66762,37.4307103730001,-94.6681337479999,170,"2302 N FREE KING HWY, PITTSBURG, KS, 66762","Match","Exact","2302 N FREE KING HWY, PITTSBURG, KS, 66762",33442444,"L"
376171,"2302 NE 109TH TERRACE","KANSAS CITY","MO",64155,39.291670997,-94.549755303,171,"2302 NE 109TH TERRACE, KANSAS CITY, MO, 64155","Match","Exact","2302 NE 109TH TER, KANSAS CITY, MO, 64155",647828481,"R"
376172,"2302 NICHOLAS AVENUE","COOKEVILLE","TN",38506,36.1916408440001,-85.46805642,172,"2302 NICHOLAS AVENUE, COOKEVILLE, TN, 38506","Match","Exact","2302 NICHOLAS AVE, COOKEVILLE, TN, 38506",623923721,"L"
376173,"2302 NORTH DINWIDDIE STREET","ARLINGTON","VA",22207,38.897511681,-77.128998716,173,"2302 NORTH DINWIDDIE STREET, ARLINGTON, VA, 22207","Match","Exact","2302 N DINWIDDIE ST, ARLINGTON, VA, 22207",638193006,"L"
376174,"2302 NOTTINGHAM DRIVE","BELLEVUE","NE",68123,41.112077098,-95.944728436,174,"2302 NOTTINGHAM DRIVE, BELLEVUE, NE, 68123","Match","Exact","2302 NOTTINGHAM DR, BELLEVUE, NE, 68123",28471363,"L"
376175,"2302 NW CROSBY PARK BLVD","LAWTON","OK",73505,34.6317208410001,-98.469750529,175,"2302 NW CROSBY PARK BLVD, LAWTON, OK, 73505","Match","Exact","2302 NW CROSBY PARK BLVD, LAWTON, OK, 73505",15007928,"R"
376176,"2302 OCEANWALK DR W","ATLANTIC BEACH","FL",32233,30.3576702120001,-81.406636809,176,"2302 OCEANWALK DR W, ATLANTIC BEACH, FL, 32233","Match","Exact","2302 OCEANWALK DR W, ATLANTIC BCH, FL, 32233",83942559,"R"
376177,"2302 OCENWALK DR W","ATLANTIC BEACH","FL",32233,30.3576702120001,-81.406636809,177,"2302 OCENWALK DR W, ATLANTIC BEACH, FL, 32233","Match","Non_Exact","2302 OCEANWALK DR W, ATLANTIC BCH, FL, 32233",83942559,"R"
376178,"2302 OLD GREENHILL ROAD","BOWLING GREEN","KY",42103,NA,NA,178,"2302 OLD GREENHILL ROAD, BOWLING GREEN, KY, 42103","Tie",NA,NA,NA,NA
376179,"2302 PACIFIC HEIGHTS RD","HONOLULU","HI",96813,21.3227588570001,-157.844154452,179,"2302 PACIFIC HEIGHTS RD, HONOLULU, HI, 96813","Match","Exact","2302 PACIFIC HEIGHTS RD, HONOLULU, HI, 96813",203236994,"L"
376180,"2302 PALOS LOOP","LAREDO","TX",78045,27.569214845,-99.448511571,180,"2302 PALOS LOOP, LAREDO, TX, 78045","Match","Non_Exact","2302 PALOS LOOP, LAREDO, TX, 78041",648060645,"R"
376181,"2302 PARKLAKE DR  STE 513 - 928","ATLANTA","GA",30345,33.8515655580001,-84.249034674,181,"2302 PARKLAKE DR  STE 513 - 928, ATLANTA, GA, 30345","Match","Non_Exact","2302 PARKLAKE DR NE, ATLANTA, GA, 30345",646994087,"L"
376182,"2302 PARKLAKE DR NE SUITE 425","ATLANTA","GA",30345,33.8515655580001,-84.249034674,182,"2302 PARKLAKE DR NE SUITE 425, ATLANTA, GA, 30345","Match","Exact","2302 PARKLAKE DR NE, ATLANTA, GA, 30345",646994087,"L"
376183,"2302 PARKLAKE DR NE SUITE 513-556","ATLANTA","GA",30345,33.8515655580001,-84.249034674,183,"2302 PARKLAKE DR NE SUITE 513-556, ATLANTA, GA, 30345","Match","Exact","2302 PARKLAKE DR NE, ATLANTA, GA, 30345",646994087,"L"
376184,"2302 PARKLAKE DR STE 513 NUM1050","ATLANTA","GA",30345,33.8515655580001,-84.249034674,184,"2302 PARKLAKE DR STE 513 NUM1050, ATLANTA, GA, 30345","Match","Non_Exact","2302 PARKLAKE DR NE, ATLANTA, GA, 30345",646994087,"L"
376185,"2302 PARKLAKE DR STE 513 UNIT 1524","ATLANTA","GA",30345,33.8515655580001,-84.249034674,185,"2302 PARKLAKE DR STE 513 UNIT 1524, ATLANTA, GA, 30345","Match","Non_Exact","2302 PARKLAKE DR NE, ATLANTA, GA, 30345",646994087,"L"
376186,"2302 PARKLAKE DR STE 513 UNIT 895","ATLANTA","GA",30345,33.8515655580001,-84.249034674,186,"2302 PARKLAKE DR STE 513 UNIT 895, ATLANTA, GA, 30345","Match","Non_Exact","2302 PARKLAKE DR NE, ATLANTA, GA, 30345",646994087,"L"
376187,"2302 PARKLAKE DRIVE SUITE 513 759","ATLANTA","GA",30345,33.8515655580001,-84.249034674,187,"2302 PARKLAKE DRIVE SUITE 513 759, ATLANTA, GA, 30345","Match","Non_Exact","2302 PARKLAKE DR NE, ATLANTA, GA, 30345",646994087,"L"
376188,"2302 PEASLEE RD","LOUISVILLE","KY",40216,38.2056252610001,-85.822802581,188,"2302 PEASLEE RD, LOUISVILLE, KY, 40216","Match","Exact","2302 PEASLEE RD, LOUISVILLE, KY, 40216",96836977,"L"
376189,"2302 PEGGY LANE","SILVER SPRING","MD",20910,38.9953788970001,-77.049814613,189,"2302 PEGGY LANE, SILVER SPRING, MD, 20910","Match","Exact","2302 PEGGY LN, SILVER SPRING, MD, 20910",62081053,"L"
376190,"2302 PEMBERTON","TOLEDO","OH",43606,41.6648640060001,-83.6196215529999,190,"2302 PEMBERTON, TOLEDO, OH, 43606","Match","Non_Exact","2302 PEMBERTON DR, TOLEDO, OH, 43606",33935329,"R"
376191,"2302 POST OFFICE STREET","GALVESTON","TX",77550,29.304516892,-94.7935881179999,191,"2302 POST OFFICE STREET, GALVESTON, TX, 77550","Match","Exact","2302 POST OFFICE ST, GALVESTON, TX, 77550",96679988,"R"
376192,"2302 QUENTIN RD","BROOKLYN","NY",11229,40.609132163,-73.9502059979999,192,"2302 QUENTIN RD, BROOKLYN, NY, 11229","Match","Exact","2302 QUENTIN RD, BROOKLYN, NY, 11229",59090168,"R"
376193,"2302 QUENTIN ROAD","BROOKLYN","NY",11229,40.609132163,-73.9502059979999,193,"2302 QUENTIN ROAD, BROOKLYN, NY, 11229","Match","Exact","2302 QUENTIN RD, BROOKLYN, NY, 11229",59090168,"R"
376194,"2302 RIVER ROAD","GRANBURY","TX",76048,32.4198072030001,-97.776781177,194,"2302 RIVER ROAD, GRANBURY, TX, 76048","Match","Exact","2302 RIVER RD, GRANBURY, TX, 76048",642834451,"L"
376195,"2302 ROCKINGHAM LANE SW","DECATUR","AL",35603,34.570276214,-87.0522225299999,195,"2302 ROCKINGHAM LANE SW, DECATUR, AL, 35603","Match","Exact","2302 ROCKINGHAM LN SW, DECATUR, AL, 35603",97147476,"L"
376196,"2302 ROYAL LANE","GREENVILLE","TX",75402,33.1078074870001,-96.10430163,196,"2302 ROYAL LANE, GREENVILLE, TX, 75402","Match","Exact","2302 ROYAL LN, GREENVILLE, TX, 75402",42836032,"R"
376197,"2302 RUHLAND AVENUE UNIT B","REDONDO BEACH","CA",90278,33.8756663130001,-118.369796481,197,"2302 RUHLAND AVENUE UNIT B, REDONDO BEACH, CA, 90278","Match","Exact","2302 RUHLAND AVE, REDONDO BEACH, CA, 90278",141662885,"R"
376198,"2302 S 22ND STREET","MANITOWOC","WI",54220,44.071498955,-87.675997308,198,"2302 S 22ND STREET, MANITOWOC, WI, 54220","Match","Exact","2302 S 22ND ST, MANITOWOC, WI, 54220",147968094,"R"
376199,"2302 S GOEBBERT ROAD APT 2120","ARLINGTON HEIGHTS","IL",60056,NA,NA,199,"2302 S GOEBBERT ROAD APT 2120, ARLINGTON HEIGHTS, IL, 60056","No_Match",NA,NA,NA,NA
376200,"2302 S MAKI ROAD UNIT 62","PLANT CITY","FL",33563,27.9920358030001,-82.12565614,200,"2302 S MAKI ROAD UNIT 62, PLANT CITY, FL, 33563","Match","Exact","2302 MAKI RD, PLANT CITY, FL, 33563",633394035,"L"
376201,"2302 SE 47TH AVENUE","PORTLAND","OR",97215,45.5065108690001,-122.614202661,201,"2302 SE 47TH AVENUE, PORTLAND, OR, 97215","Match","Exact","2302 SE 47TH AVE, PORTLAND, OR, 97215",157514426,"L"
376202,"2302 SHEPHERD DRIVE","NORTHFIELD","NJ",8225,39.3650464670001,-74.557913143,202,"2302 SHEPHERD DRIVE, NORTHFIELD, NJ, 8225","Match","Exact","2302 SHEPHERD DR, NORTHFIELD, NJ, 08225",202484050,"L"
376203,"2302 SIENNA DRIVE","EAST NORRITON","PA",19104,40.1340840660001,-75.320760429,203,"2302 SIENNA DRIVE, EAST NORRITON, PA, 19104","Match","Non_Exact","2302 SIENNA DR, EAST NORRITON, PA, 19401",605651941,"R"
376204,"2302 SILVERADO NORTH","MISSION","TX",78573,26.2522769400001,-98.281581536,204,"2302 SILVERADO NORTH, MISSION, TX, 78573","Match","Non_Exact","2302 SILVERADO NORTH DR, MISSION, TX, 78573",627558394,"L"
376205,"2302 SONOMA VALLEY DR","CHARLOTTE","NC",28214,35.2968379390001,-80.965783901,205,"2302 SONOMA VALLEY DR, CHARLOTTE, NC, 28214","Match","Exact","2302 SONOMA VALLEY DR, CHARLOTTE, NC, 28214",612453520,"R"
376206,"2302 SOUTHERN AVE SE","WASHINGTON","DC",20020,38.8449584110001,-76.9708721,206,"2302 SOUTHERN AVE SE, WASHINGTON, DC, 20020","Match","Exact","2302 SOUTHERN AVE SE, WASHINGTON, DC, 20020",76243916,"L"
376207,"2302 STONEHAVEN DR","ALBEMARLE","NC",28001,35.3358554810001,-80.159779742,207,"2302 STONEHAVEN DR, ALBEMARLE, NC, 28001","Match","Exact","2302 STONEHAVEN DR, ALBEMARLE, NC, 28001",14097349,"R"
376208,"2302 SUMMERFIELD DRIVE","TARBORO","NC",27886,35.906628712,-77.569571588,208,"2302 SUMMERFIELD DRIVE, TARBORO, NC, 27886","Match","Exact","2302 SUMMERFIELD DR, TARBORO, NC, 27886",90192007,"L"
376209,"2302 SUMMIT TRAIL","KEARNEY","MO",64060,39.345600205,-94.347312625,209,"2302 SUMMIT TRAIL, KEARNEY, MO, 64060","Match","Exact","2302 SUMMIT TRL, KEARNEY, MO, 64060",89783289,"L"
376210,"2302 TAMPA AVE","DURHAM","NC",27705,36.0262853240001,-78.933154197,210,"2302 TAMPA AVE, DURHAM, NC, 27705","Match","Exact","2302 TAMPA AVE, DURHAM, NC, 27705",71738163,"R"
376211,"2302 TODDSBURY PLACE","RESTON","VA",20191,38.94148914,-77.3774303599999,211,"2302 TODDSBURY PLACE, RESTON, VA, 20191","Match","Exact","2302 TODDSBURY PL, RESTON, VA, 20191",75957428,"R"
376212,"2302 TOWNSHIP ROAD 129","ADENA","OH",43901,NA,NA,212,"2302 TOWNSHIP ROAD 129, ADENA, OH, 43901","No_Match",NA,NA,NA,NA
376213,"2302 TUCKER DRIVE","COLUMBUS","GA",31907,32.481994281,-84.8820252309999,213,"2302 TUCKER DRIVE, COLUMBUS, GA, 31907","Match","Exact","2302 TUCKER DR, COLUMBUS, GA, 31907",98944586,"R"
376214,"2302 TURTLE CREEK DRIVE","MISSOURI CITY","TX",77459,29.5742677040001,-95.538742664,214,"2302 TURTLE CREEK DRIVE, MISSOURI CITY, TX, 77459","Match","Exact","2302 TURTLE CREEK DR, MISSOURI CITY, TX, 77459",78269564,"R"
376215,"2302 TURTLE CREEK DRIVE","MISSOURI","TX",77459,29.5742677040001,-95.538742664,215,"2302 TURTLE CREEK DRIVE, MISSOURI, TX, 77459","Match","Non_Exact","2302 TURTLE CREEK DR, MISSOURI CITY, TX, 77459",78269564,"R"
376216,"2302 TURTLE POINT DR","RALEIGH","NC",27604,35.81226379,-78.5414242419999,216,"2302 TURTLE POINT DR, RALEIGH, NC, 27604","Match","Exact","2302 TURTLE POINT DR, RALEIGH, NC, 27604",639846820,"R"
376217,"2302 TWILIGHT DRIVE","AURORA","IL",60503,41.713973154,-88.257999809,217,"2302 TWILIGHT DRIVE, AURORA, IL, 60503","Match","Exact","2302 TWILIGHT DR, AURORA, IL, 60503",111614031,"R"
376218,"2302 VIA PUERTA UNIT F","LAGUNA WOODS","CA",92637,33.618344087,-117.719436073,218,"2302 VIA PUERTA UNIT F, LAGUNA WOODS, CA, 92637","Match","Exact","2302 VIA PUERTA, LAGUNA WOODS, CA, 92637",144087241,"L"
376219,"2302 VICTORY DR","ALEXANDRIA","VA",22303,38.795649258,-77.071466245,219,"2302 VICTORY DR, ALEXANDRIA, VA, 22303","Match","Exact","2302 VICTORY DR, ALEXANDRIA, VA, 22303",75989441,"R"
376220,"2302 VILLAGE GREEN BLVD","PLANT CITY","FL",33566,27.9953161500001,-82.148737501,220,"2302 VILLAGE GREEN BLVD, PLANT CITY, FL, 33566","Match","Exact","2302 VILLAGE GREEN BLVD, PLANT CITY, FL, 33566",104547740,"R"
376221,"2302 W 10TH AVE","INDIANOLA","IA",50125,41.3464240540001,-93.592165689,221,"2302 W 10TH AVE, INDIANOLA, IA, 50125","Match","Exact","2302 W 10TH AVE, INDIANOLA, IA, 50125",627104033,"L"
376222,"2302 W 38TH AVE","PINE BLUFF","AR",71603,34.1913461990001,-92.0260083699999,222,"2302 W 38TH AVE, PINE BLUFF, AR, 71603","Match","Exact","2302 W 38TH AVE, PINE BLUFF, AR, 71603",2553718,"L"
376223,"2302 W 79TH STREET","INGLEWOOD","CA",90305,33.9672707240001,-118.318820499,223,"2302 W 79TH STREET, INGLEWOOD, CA, 90305","Match","Exact","2302 W 79TH ST, INGLEWOOD, CA, 90305",142753188,"L"
376224,"2302 W COFFEE DRIVE","PAOLI","IN",47454,38.6109061080001,-86.501381491,224,"2302 W COFFEE DRIVE, PAOLI, IN, 47454","Match","Exact","2302 W COFFEE DR, PAOLI, IN, 47454",624951548,"L"
376225,"2302 W MONROE ST","CHICAGO","IL",60612,41.8798935400001,-87.6841442309999,225,"2302 W MONROE ST, CHICAGO, IL, 60612","Match","Exact","2302 W MONROE ST, CHICAGO, IL, 60612",642123521,"R"
376226,"2302 W MONTEREY CIRCLE","MESA","AZ",85202,33.367625101,-111.883395432,226,"2302 W MONTEREY CIRCLE, MESA, AZ, 85202","Match","Exact","2302 W MONTEREY CIR, MESA, AZ, 85202",128239824,"R"
376227,"2302 WASHINGTON AVE","HOT SPRINGS","SD",57747,43.4332377370001,-103.491179373,227,"2302 WASHINGTON AVE, HOT SPRINGS, SD, 57747","Match","Exact","2302 WASHINGTON AVE, HOT SPRINGS, SD, 57747",174180587,"R"
376228,"2302 WATERS RUN","DECATUR","GA",30035,33.724816796,-84.193806217,228,"2302 WATERS RUN, DECATUR, GA, 30035","Match","Exact","2302 WATERS RUN, DECATUR, GA, 30035",23395027,"L"
376229,"2302 WEDGEWOOD PLAZA DRIVE","RIVIERA BEACH","FL",33404,26.785475611,-80.084971055,229,"2302 WEDGEWOOD PLAZA DRIVE, RIVIERA BEACH, FL, 33404","Match","Exact","2302 WEDGEWOOD PLAZA DR, RIVIERA BEACH, FL, 33404",648369804,"L"
376230,"2302 WEDGEWOOD PLAZA DRIVE","RIVIERA BEACH","FL",34404,26.785475611,-80.084971055,230,"2302 WEDGEWOOD PLAZA DRIVE, RIVIERA BEACH, FL, 34404","Match","Non_Exact","2302 WEDGEWOOD PLAZA DR, RIVIERA BEACH, FL, 33404",648369804,"L"
376231,"2302 WEST LINCOLNWAY","STERLING","IL",61081,41.7912463070001,-89.725239678,231,"2302 WEST LINCOLNWAY, STERLING, IL, 61081","Match","Exact","2302 W LINCOLNWAY, STERLING, IL, 61081",617328353,"R"
376232,"2302 WEST LOOP 289","LUBBOCK","TX",79407,33.573925198,-101.944497085,232,"2302 WEST LOOP 289, LUBBOCK, TX, 79407","Match","Exact","2302 W LOOP 289, LUBBOCK, TX, 79407",185269159,"R"
376233,"2302 WEYMOUTH LANE","CROFTON","MD",21114,39.0244101690001,-76.672948811,233,"2302 WEYMOUTH LANE, CROFTON, MD, 21114","Match","Exact","2302 WEYMOUTH LN, CROFTON, MD, 21114",68161350,"R"
376234,"2302 WHITETAIL CT","RESTON","VA",20191,38.927992664,-77.34643744,234,"2302 WHITETAIL CT, RESTON, VA, 20191","Match","Exact","2302 WHITETAIL CT, RESTON, VA, 20191",75959078,"R"
376235,"2302 WHITING ROAD","COTTAGE GROVE","WI",53527,43.0982116010001,-89.1808501039999,235,"2302 WHITING ROAD, COTTAGE GROVE, WI, 53527","Match","Exact","2302 WHITING RD, COTTAGE GROVE, WI, 53527",49480642,"R"
376236,"2302 WILDWOOD DRIVE","JASPER","AL",35501,33.846109977,-87.248192226,236,"2302 WILDWOOD DRIVE, JASPER, AL, 35501","Match","Exact","2302 WILDWOOD DR, JASPER, AL, 35501",636438733,"L"
376237,"2302 WILLOW LANE","ROLLING MEADOWS","IL",60008,42.06276058,-88.009115165,237,"2302 WILLOW LANE, ROLLING MEADOWS, IL, 60008","Match","Exact","2302 WILLOW LN, ROLLING MDWS, IL, 60008",111699705,"R"
376238,"2302 WIND CLIFF DR","MARIETTA","GA",30067,33.9143402,-84.485426984,238,"2302 WIND CLIFF DR, MARIETTA, GA, 30067","Match","Non_Exact","2302 WINDCLIFF DR SE, MARIETTA, GA, 30067",17253860,"R"
376239,"2302 WOODCREST DRIVE","PORTAGE","WI",53901,43.5571678430001,-89.463604104,239,"2302 WOODCREST DRIVE, PORTAGE, WI, 53901","Match","Exact","2302 WOODCREST DR, PORTAGE, WI, 53901",73329307,"L"
376240,"2302","MANITOWOC","WI",54220,NA,NA,240,"2302, MANITOWOC, WI, 54220","No_Match",NA,NA,NA,NA
376241,"2302","PLANT CITY","FL",33566,NA,NA,241,"2302, PLANT CITY, FL, 33566","No_Match",NA,NA,NA,NA
376242,"23020 397TH AVE","WOONSOCKET","SD",57385,NA,NA,242,"23020 397TH AVE, WOONSOCKET, SD, 57385","No_Match",NA,NA,NA,NA
376243,"23020 EDMONDS WAY - UNIT 405","EDMONDS","WA",98020,47.7895524150001,-122.355865814,243,"23020 EDMONDS WAY - UNIT 405, EDMONDS, WA, 98020","Match","Exact","23020 EDMONDS WAY, EDMONDS, WA, 98020",624323142,"L"
376244,"23020 HOG CREEK RD","PRESTON","MD",21655,38.7836612720001,-75.9076582169999,244,"23020 HOG CREEK RD, PRESTON, MD, 21655","Match","Exact","23020 HOG CREEK RD, PRESTON, MD, 21655",68304149,"L"
376245,"23020 HOWARD CHAPEL RD","BROOKEVILLE","MD",20833,39.233362691,-77.0726732969999,245,"23020 HOWARD CHAPEL RD, BROOKEVILLE, MD, 20833","Match","Exact","23020 HOWARD CHAPEL RD, BROOKEVILLE, MD, 20833",653274331,"R"
376246,"23020 KUMQUAT CT","COLUMBIA","CA",95310,38.042439356,-120.431166029,246,"23020 KUMQUAT CT, COLUMBIA, CA, 95310","Match","Exact","23020 KUMQUAT CT, COLUMBIA, CA, 95310",101426141,"R"
376247,"23020 PAMPLICO DRIVE","VALENCIA","CA",91354,34.4509621280001,-118.538338425,247,"23020 PAMPLICO DRIVE, VALENCIA, CA, 91354","Match","Exact","23020 PAMPLICO DR, VALENCIA, CA, 91354",141518648,"R"
376248,"23020 WEYMOUTH PLACE","VALENCIA","CA",91354,34.444660346,-118.538318857,248,"23020 WEYMOUTH PLACE, VALENCIA, CA, 91354","Match","Exact","23020 WEYMOUTH PL, VALENCIA, CA, 91354",141855505,"R"
376249,"23020 WINGED ELM DR","CLARKSBURG","MD",20871,39.23406864,-77.2533127999999,249,"23020 WINGED ELM DR, CLARKSBURG, MD, 20871","Match","Exact","23020 WINGED ELM DR, CLARKSBURG, MD, 20871",624636029,"L"
376250,"23021 BIRCH MEAD RD","CLARKSBURG","MD",20871,39.235589073,-77.2525090939999,250,"23021 BIRCH MEAD RD, CLARKSBURG, MD, 20871","Match","Exact","23021 BIRCH MEAD RD, CLARKSBURG, MD, 20871",647258146,"R"
376251,"23021 BLYSTONE","VENANGO","PA",16365,NA,NA,251,"23021 BLYSTONE, VENANGO, PA, 16365","No_Match",NA,NA,NA,NA
376252,"23021 GLENMOOR HEIGHTS","FARMINGTON HILLS","MI",48336,42.4615745250001,-83.3427076309999,252,"23021 GLENMOOR HEIGHTS, FARMINGTON HILLS, MI, 48336","Match","Non_Exact","23021 GLENMOOR HEIGHTS DR, FARMINGTON HILLS, MI, 48336",69777358,"L"
376253,"23022  PORTWOOD LANE","ZACHARY","LA",70791,30.687745851,-91.237990515,253,"23022  PORTWOOD LANE, ZACHARY, LA, 70791","Match","Exact","23022 PORTWOOD LN, ZACHARY, LA, 70791",92206004,"R"
376254,"23022 BROADWAY","NEW YORK","NY",10027,NA,NA,254,"23022 BROADWAY, NEW YORK, NY, 10027","No_Match",NA,NA,NA,NA
376255,"23022 N MCLELLAN ROAD","NINE MILE FALLS","WA",99026,47.8680682200001,-117.692786585,255,"23022 N MCLELLAN ROAD, NINE MILE FALLS, WA, 99026","Match","Exact","23022 N MCLELLAN RD, NINE MILE FALLS, WA, 99026",189900801,"R"
376256,"23022 PORTWOOD LANE","ZACHARY","LA",70791,30.687745851,-91.237990515,256,"23022 PORTWOOD LANE, ZACHARY, LA, 70791","Match","Exact","23022 PORTWOOD LN, ZACHARY, LA, 70791",92206004,"R"
376257,"23022 SE 48TH ST","SAMMAMISH","WA",98075,47.5590626090001,-122.032677411,257,"23022 SE 48TH ST, SAMMAMISH, WA, 98075","Match","Exact","23022 SE 48TH ST, SAMMAMISH, WA, 98075",650388678,"L"
376258,"23023 BIRCH MEAD RD","CLARKSBURG","MD",20871,39.235626214,-77.2525593359999,258,"23023 BIRCH MEAD RD, CLARKSBURG, MD, 20871","Match","Exact","23023 BIRCH MEAD RD, CLARKSBURG, MD, 20871",645638620,"R"
376259,"23023 GREEN GARDEN DR","CHUGIAK","AK",99567,61.416644499,-149.453348578,259,"23023 GREEN GARDEN DR, CHUGIAK, AK, 99567","Match","Exact","23023 GREEN GARDEN DR, CHUGIAK, AK, 99567",190807535,"R"
376260,"23024 57TH AV SE","WOODINVILLE","WA",98072,47.7880738900001,-122.156861295,260,"23024 57TH AV SE, WOODINVILLE, WA, 98072","Match","Exact","23024 57TH AVE SE, WOODINVILLE, WA, 98072",187777470,"L"
376261,"23024 MEADOW MIST ROAD","CLARKSBURG","MD",20871,39.232603854,-77.242894257,261,"23024 MEADOW MIST ROAD, CLARKSBURG, MD, 20871","Match","Exact","23024 MEADOW MIST RD, CLARKSBURG, MD, 20871",642180524,"L"
376262,"23025 JANE RD","TOMBALL","TX",77377,30.096731656,-95.667159128,262,"23025 JANE RD, TOMBALL, TX, 77377","Match","Exact","23025 JANE RD, TOMBALL, TX, 77377",96162420,"R"
376263,"23025 MAYFIELD AVE","FARMINGTON","MI",48336,42.4602818450001,-83.369995263,263,"23025 MAYFIELD AVE, FARMINGTON, MI, 48336","Match","Non_Exact","23025 MAYFIELD ST, FARMINGTON, MI, 48336",69725402,"L"
376264,"23026 WILSON","DEARBORN","MI",48128,42.3199823140001,-83.2605517869999,264,"23026 WILSON, DEARBORN, MI, 48128","Match","Non_Exact","23026 WILSON AVE, DEARBORN, MI, 48128",95433365,"R"
376265,"23028 COUNTY RD 33","HILLROSE","CO",80733,40.3308665370001,-103.527269738,265,"23028 COUNTY RD 33, HILLROSE, CO, 80733","Match","Exact","23028 CO RD 33, HILLROSE, CO, 80733",639806860,"R"
376266,"23028 COUNTY ROAD H","ARCHBOLD","OH",43502,NA,NA,266,"23028 COUNTY ROAD H, ARCHBOLD, OH, 43502","No_Match",NA,NA,NA,NA
376267,"23028 OAK ROAD","NEW ULM","TX",78950,29.86053832,-96.4330176989999,267,"23028 OAK ROAD, NEW ULM, TX, 78950","Match","Exact","23028 OAK RD, NEW ULM, TX, 78950",629468116,"L"
376268,"23029 STAUBER","HAZEL PARK","MI",48030,42.4615445800001,-83.1101587329999,268,"23029 STAUBER, HAZEL PARK, MI, 48030","Match","Non_Exact","23029 STAUBER AVE, HAZEL PARK, MI, 48030",69747874,"L"
376269,"23029 SYCAMORE FARM DRIVE","CLARKSBURG","MD",20871,39.2336342560001,-77.255947834,269,"23029 SYCAMORE FARM DRIVE, CLARKSBURG, MD, 20871","Match","Exact","23029 SYCAMORE FARM DR, CLARKSBURG, MD, 20871",618606948,"R"
376270,"2303  8TH STREET","EVERETT","WA",98201,48.0081571970001,-122.198216968,270,"2303  8TH STREET, EVERETT, WA, 98201","Match","Exact","2303 8TH ST, EVERETT, WA, 98201",187744760,"L"
376271,"2303 - 10TH STREET","EAST MOLINE","IL",61244,NA,NA,271,"2303 - 10TH STREET, EAST MOLINE, IL, 61244","No_Match",NA,NA,NA,NA
376272,"2303 1/2 SCARFF ST","LOS ANGELES","CA",90007,34.033111923,-118.279828463,272,"2303 1/2 SCARFF ST, LOS ANGELES, CA, 90007","Match","Exact","2303 SCARFF ST, LOS ANGELES, CA, 90007",141607445,"R"
376273,"2303 14TH ST NW 424","WASHINGTON","DC",20009,38.920117873,-77.031919753,273,"2303 14TH ST NW 424, WASHINGTON, DC, 20009","Match","Exact","2303 14TH ST NW, WASHINGTON, DC, 20009",76223157,"R"
376274,"2303 170TH STREET","MANCHESTER","IA",52057,42.5426899510001,-91.352718102,274,"2303 170TH STREET, MANCHESTER, IA, 52057","Match","Exact","2303 170TH ST, MANCHESTER, IA, 52057",636215208,"R"
376275,"2303 31ST AVENUE APARTMENT  2A","ASTORIA","NY",11106,NA,NA,275,"2303 31ST AVENUE APARTMENT  2A, ASTORIA, NY, 11106","Tie",NA,NA,NA,NA
376276,"2303 31ST AVENUE APARTMENT 2A","ASTORIA","NY",11106,NA,NA,276,"2303 31ST AVENUE APARTMENT 2A, ASTORIA, NY, 11106","Tie",NA,NA,NA,NA
376277,"2303 3RD ST SW","ALTOONA","IA",50009,41.650026053,-93.491007168,277,"2303 3RD ST SW, ALTOONA, IA, 50009","Match","Exact","2303 3RD ST SW, ALTOONA, IA, 50009",65793048,"L"
376278,"2303 76TH AVE","PHILADELPHIA","PA",19150,40.0702440910001,-75.1556041009999,278,"2303 76TH AVE, PHILADELPHIA, PA, 19150","Match","Exact","2303 76TH AVE, PHILADELPHIA, PA, 19150",131412941,"R"
376279,"2303 AMHERST ROAD","HYATTSVILLE","MD",20783,38.973071501,-76.971092518,279,"2303 AMHERST ROAD, HYATTSVILLE, MD, 20783","Match","Exact","2303 AMHERST RD, HYATTSVILLE, MD, 20783",632807714,"R"
376280,"2303 APRILMONT DR","SUGAR LAND","TX",77498,29.6425601180001,-95.663116568,280,"2303 APRILMONT DR, SUGAR LAND, TX, 77498","Match","Exact","2303 APRILMONT DR, SUGAR LAND, TX, 77498",78265499,"R"
376281,"2303 ASHWOOD AVE","NASHVILLE","TN",37212,36.1297893020001,-86.805488366,281,"2303 ASHWOOD AVE, NASHVILLE, TN, 37212","Match","Exact","2303 ASHWOOD AVE, NASHVILLE, TN, 37212",97190446,"L"
376282,"2303 BALDWIN LANE","JAMISON","PA",18929,40.2642058970001,-75.099872169,282,"2303 BALDWIN LANE, JAMISON, PA, 18929","Match","Exact","2303 BALDWIN LN, JAMISON, PA, 18929",637444696,"R"
376283,"2303 BRIGHT MEADOWS DR","MISSOURI CITY","TX",77489,29.5875073610001,-95.537739598,283,"2303 BRIGHT MEADOWS DR, MISSOURI CITY, TX, 77489","Match","Exact","2303 BRIGHT MEADOWS DR, MISSOURI CITY, TX, 77489",78270896,"R"
376284,"2303 BROOMSAGE COURT","EXPORT","PA",15632,40.408197731,-79.654693418,284,"2303 BROOMSAGE COURT, EXPORT, PA, 15632","Match","Exact","2303 BROOMSAGE CT, EXPORT, PA, 15632",618071280,"L"
376285,"2303 CAMDEN COVE WEST","MUSCLE SHOALS","AL",35661,34.740184421,-87.623882551,285,"2303 CAMDEN COVE WEST, MUSCLE SHOALS, AL, 35661","Match","Exact","2303 CAMDEN COVE W, MUSCLE SHOALS, AL, 35661",613193589,"L"
376286,"2303 CANDLEWOOD DR APT 11","MANHATTAN","KS",66503,39.2083965480001,-96.6188502319999,286,"2303 CANDLEWOOD DR APT 11, MANHATTAN, KS, 66503","Match","Exact","2303 CANDLEWOOD DR, MANHATTAN, KS, 66503",635849830,"L"
376287,"2303 CANYON VISTA DRIVE","FALLBROOK","CA",92028,33.393491882,-117.21469121,287,"2303 CANYON VISTA DRIVE, FALLBROOK, CA, 92028","Match","Exact","2303 CANYON VISTA DR, FALLBROOK, CA, 92028",195282078,"L"
376288,"2303 COHN STREET","HOUSTON","TX",77007,29.779863176,-95.4220245819999,288,"2303 COHN STREET, HOUSTON, TX, 77007","Match","Exact","2303 COHN ST, HOUSTON, TX, 77007",96060116,"L"
376289,"2303 COLLEGE AVENUE","HUNTINGTON","IN",46750,40.899721959,-85.496564914,289,"2303 COLLEGE AVENUE, HUNTINGTON, IN, 46750","Match","Exact","2303 COLLEGE AVE, HUNTINGTON, IN, 46750",6557058,"R"
376290,"2303 COLONIAL RIDGE DR","FRIENSWOOD","TX",77546,29.538574972,-95.1649096849999,290,"2303 COLONIAL RIDGE DR, FRIENSWOOD, TX, 77546","Match","Non_Exact","2303 COLONIAL RIDGE DR, FRIENDSWOOD, TX, 77546",96115037,"R"
376291,"2303 CR 1253","BLANCHARD","OK",73010,35.19960795,-97.7049064019999,291,"2303 CR 1253, BLANCHARD, OK, 73010","Match","Exact","2303 CO RD 1253, BLANCHARD, OK, 73010",651527435,"R"
376292,"2303 CRANBERRY TERRACE","SILVER SPRING","MD",20906,39.1125324660001,-77.049597439,292,"2303 CRANBERRY TERRACE, SILVER SPRING, MD, 20906","Match","Exact","2303 CRANBERRY TER, SILVER SPRING, MD, 20906",62093441,"L"
376293,"2303 CUMBERLAND PARKWAY","ATLANTA","GA",30339,33.8569070250001,-84.4806825919999,293,"2303 CUMBERLAND PARKWAY, ATLANTA, GA, 30339","Match","Non_Exact","2303 CUMBERLAND PKWY SE, ATLANTA, GA, 30339",652052675,"R"
376294,"2303 DEER TRAIL","LAMPASAS","TX",76550,31.0669489220001,-98.211489483,294,"2303 DEER TRAIL, LAMPASAS, TX, 76550","Match","Exact","2303 DEER TRL, LAMPASAS, TX, 76550",146700025,"R"
376295,"2303 DIAMOND POINTE DRIVE SE","DECATUR","AL",35603,34.5232938940001,-86.937197924,295,"2303 DIAMOND POINTE DRIVE SE, DECATUR, AL, 35603","Match","Exact","2303 DIAMOND POINTE DR SE, DECATUR, AL, 35603",635533815,"L"
376296,"2303 E 200 NORTH RD","PANA","IL",62557,39.3766307060001,-89.0994613839999,296,"2303 E 200 NORTH RD, PANA, IL, 62557","Match","Exact","2303 E 200 NORTH RD, PANA, IL, 62557",99314569,"R"
376297,"2303 E 2ND  ST","TULSA","OK",74104,36.1575957480001,-95.9593396719999,297,"2303 E 2ND  ST, TULSA, OK, 74104","Match","Exact","2303 E 2ND ST, TULSA, OK, 74104",166439559,"L"
376298,"2303 E DARTMOUTH AVE","ENGLEWOOD","CO",80113,39.660376457,-104.96132174,298,"2303 E DARTMOUTH AVE, ENGLEWOOD, CO, 80113","Match","Exact","2303 E DARTMOUTH AVE, ENGLEWOOD, CO, 80113",177334293,"L"
376299,"2303 E RANDOLPH AVE","ALEXANDRIA","VA",22301,38.826740816,-77.0520253299999,299,"2303 E RANDOLPH AVE, ALEXANDRIA, VA, 22301","Match","Exact","2303 E RANDOLPH AVE, ALEXANDRIA, VA, 22301",75988240,"R"
376300,"2303 EAST DOUBLEGATE DRIVE","ALBANY","GA",31721,31.5974930300001,-84.252009947,300,"2303 EAST DOUBLEGATE DRIVE, ALBANY, GA, 31721","Match","Exact","2303 E DOUBLEGATE DR, ALBANY, GA, 31721",84311865,"L"
376301,"2303 EAST FORT KING STREET","OCALA","FL",34471,29.185312862,-82.1058488529999,301,"2303 EAST FORT KING STREET, OCALA, FL, 34471","Match","Exact","2303 E FORT KING ST, OCALA, FL, 34471",608598865,"L"
376302,"2303 EVANS AVENUE","VALPARAISO","IN",46383,41.478166167,-87.033332311,302,"2303 EVANS AVENUE, VALPARAISO, IN, 46383","Match","Exact","2303 EVANS AVE, VALPARAISO, IN, 46383",119918220,"R"
376303,"2303 EVERGREEN","ALBANY","GA",31721,31.5431635300001,-84.192583847,303,"2303 EVERGREEN, ALBANY, GA, 31721","Match","Non_Exact","2303 EVERGREEN DR, ALBANY, GA, 31721",84313921,"R"
376304,"2303 FARRAND DRIVE","RICHMOND","VA",23231,37.520796181,-77.388043491,304,"2303 FARRAND DRIVE, RICHMOND, VA, 23231","Match","Exact","2303 FARRAND DR, RICHMOND, VA, 23231",106650663,"R"
376305,"2303 FLETCHER ST","URBANA","IL",61801,NA,NA,305,"2303 FLETCHER ST, URBANA, IL, 61801","No_Match",NA,NA,NA,NA
376306,"2303 FLORA PLACE","MONROE","LA",71201,32.5363357480001,-92.0938075179999,306,"2303 FLORA PLACE, MONROE, LA, 71201","Match","Exact","2303 FLORA PL, MONROE, LA, 71201",161086055,"L"
376307,"2303 FLOWERING ASH LANE","LAKE SAINT LOUIS","MO",63367,38.7488500900001,-90.7970036409999,307,"2303 FLOWERING ASH LANE, LAKE SAINT LOUIS, MO, 63367","Match","Exact","2303 FLOWERING ASH LN, LAKE SAINT LOUIS, MO, 63367",644930513,"L"
376308,"2303 FM 1092 RD","MISSOURI CITY","TX",77459,29.5858121100001,-95.564094604,308,"2303 FM 1092 RD, MISSOURI CITY, TX, 77459","Match","Exact","2303 FM 1092 RD, MISSOURI CITY, TX, 77459",78281438,"R"
376309,"2303 FM 1092 RD","RICHMOND","TX",77459,29.5858121100001,-95.564094604,309,"2303 FM 1092 RD, RICHMOND, TX, 77459","Match","Non_Exact","2303 FM 1092 RD, SIENNA PLANT, TX, 77459",78281438,"R"
376310,"2303 FORDCREST DRIVE","APEX","NC",27502,35.726407502,-78.8155402049999,310,"2303 FORDCREST DRIVE, APEX, NC, 27502","Match","Exact","2303 FORDCREST DR, APEX, NC, 27502",72597101,"L"
376311,"2303 FOSTER AVE","NASHVILLE","TN",37210,36.121810516,-86.742843282,311,"2303 FOSTER AVE, NASHVILLE, TN, 37210","Match","Exact","2303 FOSTER AVE, NASHVILLE, TN, 37210",97192620,"R"
376312,"2303 FOX RIVER PARKWAY","WAUKESHA","WI",53189,42.971392064,-88.264136069,312,"2303 FOX RIVER PARKWAY, WAUKESHA, WI, 53189","Match","Exact","2303 FOX RIVER PKWY, WAUKESHA, WI, 53189",53841431,"L"
376313,"2303 GATLIN CREEK ROAD","THOMASVILLE","GA",31757,30.8577329440001,-83.90288301,313,"2303 GATLIN CREEK ROAD, THOMASVILLE, GA, 31757","Match","Exact","2303 GATLIN CREEK RD, THOMASVILLE, GA, 31757",649969593,"L"
376314,"2303 GLENBURN","KINGWOOD","TX",77339,NA,NA,314,"2303 GLENBURN, KINGWOOD, TX, 77339","No_Match",NA,NA,NA,NA
376315,"2303 GREENBRIER DRIVE","CHARLOTTESVILLE","VA",22901,38.0660362890001,-78.468722849,315,"2303 GREENBRIER DRIVE, CHARLOTTESVILLE, VA, 22901","Match","Exact","2303 GREENBRIER DR, CHARLOTTESVILLE, VA, 22901",83370172,"L"
376316,"2303 HARDWOOD HILLS LANE","CHARLOTTE","NC",28214,NA,NA,316,"2303 HARDWOOD HILLS LANE, CHARLOTTE, NC, 28214","No_Match",NA,NA,NA,NA
376317,"2303 HARWOOD HILLS LANE","CHARLOTTE","NC",28214,35.3167440880001,-80.9671029259999,317,"2303 HARWOOD HILLS LANE, CHARLOTTE, NC, 28214","Match","Exact","2303 HARWOOD HILLS LN, CHARLOTTE, NC, 28214",70598442,"L"
376318,"2303 HAZEL ST","TEXARKANA","TX",75501,33.438939599,-94.0453030259999,318,"2303 HAZEL ST, TEXARKANA, TX, 75501","Match","Exact","2303 HAZEL ST, TEXARKANA, TX, 75501",57670910,"L"
376319,"2303 HICKORY CIRCLE DR","HOWELL","MI",48855,42.6233717360001,-83.90837555,319,"2303 HICKORY CIRCLE DR, HOWELL, MI, 48855","Match","Exact","2303 HICKORY CIRCLE DR, HOWELL, MI, 48855",23563499,"R"
376320,"2303 HICKORY CREEK PLACE  APT 3D","RICHMOND","VA",23294,37.633824271,-77.5547678569999,320,"2303 HICKORY CREEK PLACE  APT 3D, RICHMOND, VA, 23294","Match","Exact","2303 HICKORY CREEK PL, RICHMOND, VA, 23294",106659651,"R"
376321,"2303 HICKORY CREEK PLACE APT 3D","RICHMOND","VA",23294,37.633824271,-77.5547678569999,321,"2303 HICKORY CREEK PLACE APT 3D, RICHMOND, VA, 23294","Match","Exact","2303 HICKORY CREEK PL, RICHMOND, VA, 23294",106659651,"R"
376322,"2303 HIGHLAND MEADOW DR","COLLEYVILLE","TX",76034,32.8982535700001,-97.131564022,322,"2303 HIGHLAND MEADOW DR, COLLEYVILLE, TX, 76034","Match","Non_Exact","2303 HIGHLAND MEADOWS DR, COLLEYVILLE, TX, 76034",102090183,"R"
376323,"2303 HILLCREST RD","MEDFORD","OR",97504,42.3298939330001,-122.84256949,323,"2303 HILLCREST RD, MEDFORD, OR, 97504","Match","Exact","2303 HILLCREST RD, MEDFORD, OR, 97504",155515199,"L"
376324,"2303 HILLIARD AVE","WAYCROSS","GA",31503,31.230352812,-82.38841596,324,"2303 HILLIARD AVE, WAYCROSS, GA, 31503","Match","Exact","2303 HILLIARD AVE, WAYCROSS, GA, 31503",5236065,"R"
376325,"2303 HILLSIDE LN","CARROLTON","TX",75006,32.978406525,-96.904492943,325,"2303 HILLSIDE LN, CARROLTON, TX, 75006","Match","Non_Exact","2303 HILLSIDE LN, CARROLLTON, TX, 75006",102884132,"L"
376326,"2303 HILLTOP","ANITA","IA",50020,NA,NA,326,"2303 HILLTOP, ANITA, IA, 50020","No_Match",NA,NA,NA,NA
376327,"2303 HOLLYWOOD BLVD STE 13","HOLLYWOOD","FL",33020,26.0113414630001,-80.152758132,327,"2303 HOLLYWOOD BLVD STE 13, HOLLYWOOD, FL, 33020","Match","Exact","2303 HOLLYWOOD BLVD, HOLLYWOOD, FL, 33020",114730577,"R"
376328,"2303 HOUSTON DRIVE","MELISSA","TX",75454,NA,NA,328,"2303 HOUSTON DRIVE, MELISSA, TX, 75454","No_Match",NA,NA,NA,NA
376329,"2303 HURSTBOURNE VILLAGE DR STE 100","LOUISVILLE","KY",40299,38.216447401,-85.578790654,329,"2303 HURSTBOURNE VILLAGE DR STE 100, LOUISVILLE, KY, 40299","Match","Exact","2303 HURSTBOURNE VILLAGE DR, LOUISVILLE, KY, 40299",96926739,"L"
376330,"2303 HWY 1 SOUTH","ELGIN","SC",29045,NA,NA,330,"2303 HWY 1 SOUTH, ELGIN, SC, 29045","No_Match",NA,NA,NA,NA
376331,"2303 JUMPERS LANE","UPPER MALBORO","MD",20774,NA,NA,331,"2303 JUMPERS LANE, UPPER MALBORO, MD, 20774","No_Match",NA,NA,NA,NA
376332,"2303 KILDANE WAY SE","OLYMPIA","WA",98501,47.013302261,-122.870243718,332,"2303 KILDANE WAY SE, OLYMPIA, WA, 98501","Match","Exact","2303 KILDANE WAY SE, OLYMPIA, WA, 98501",627706811,"L"
376333,"2303 L  DON DODSON NUMBER 203","BEDFORD","TX",76021,32.8411213860001,-97.1296482769999,333,"2303 L  DON DODSON NUMBER 203, BEDFORD, TX, 76021","Match","Non_Exact","2303 L DON DODSON DR, BEDFORD, TX, 76021",637978023,"L"
376334,"2303 L DON DODSON NUMBER 203","BEDFORD","TX",76021,32.8411213860001,-97.1296482769999,334,"2303 L DON DODSON NUMBER 203, BEDFORD, TX, 76021","Match","Non_Exact","2303 L DON DODSON DR, BEDFORD, TX, 76021",637978023,"L"
376335,"2303 LAKE RD","BEDFORD","IA",50833,40.713567938,-94.6830567489999,335,"2303 LAKE RD, BEDFORD, IA, 50833","Match","Exact","2303 LAKE RD, BEDFORD, IA, 50833",38633175,"L"
376336,"2303 LEE ELDER DR","BELEN","NM",87002,NA,NA,336,"2303 LEE ELDER DR, BELEN, NM, 87002","No_Match",NA,NA,NA,NA
376337,"2303 LEIA LN","HIGHLAND PARK","NJ",8904,40.506015711,-74.437746201,337,"2303 LEIA LN, HIGHLAND PARK, NJ, 8904","Match","Exact","2303 LEIA LN, HIGHLAND PARK, NJ, 08904",641815031,"R"
376338,"2303 LISHA LANE","MISSOURI CITY","TX",77489,29.5937745620001,-95.5305526399999,338,"2303 LISHA LANE, MISSOURI CITY, TX, 77489","Match","Exact","2303 LISHA LN, MISSOURI CITY, TX, 77489",78270074,"L"
376339,"2303 LOS ANGELES","PITTSBURGH","PA",15216,40.4024578500001,-80.028988369,339,"2303 LOS ANGELES, PITTSBURGH, PA, 15216","Match","Non_Exact","2303 LOS ANGELES AVE, PITTSBURGH, PA, 15216",51631281,"L"
376340,"2303 MADISON AVENUE","BALTIMORE","MD",21217,39.3117289420001,-76.6369396819999,340,"2303 MADISON AVENUE, BALTIMORE, MD, 21217","Match","Exact","2303 MADISON AVE, BALTIMORE, MD, 21217",206416178,"R"
376341,"2303 MAPLEWOOD AVE","RICHMOND","VA",23220,37.5455572230001,-77.472475566,341,"2303 MAPLEWOOD AVE, RICHMOND, VA, 23220","Match","Exact","2303 MAPLEWOOD AVE, RICHMOND, VA, 23220",201536076,"L"
376342,"2303 MAPLEWOOD DRIVE","GREENACRES","FL",33415,26.6597284860001,-80.141986649,342,"2303 MAPLEWOOD DRIVE, GREENACRES, FL, 33415","Match","Exact","2303 MAPLEWOOD DR, GREENACRES, FL, 33415",644073492,"L"
376343,"2303 MC 3004","YELLVILLE","AR",72687,36.323281066,-92.807409063,343,"2303 MC 3004, YELLVILLE, AR, 72687","Match","Exact","2303 MC 3004, YELLVILLE, AR, 72687",2181184,"R"
376344,"2303 METZEROTT ROAD","ADELPHI","MD",20783,39.002797383,-76.9680744629999,344,"2303 METZEROTT ROAD, ADELPHI, MD, 20783","Match","Exact","2303 METZEROTT RD, ADELPHI, MD, 20783",76324575,"R"
376345,"2303 MICHELTORENA STREET","LOS ANGELES","CA",90039,34.102068194,-118.268688207,345,"2303 MICHELTORENA STREET, LOS ANGELES, CA, 90039","Match","Exact","2303 MICHELTORENA ST, LOS ANGELES, CA, 90039",141610575,"L"
376346,"2303 MID LANE - 534","HOUSTON","TX",77027,NA,NA,346,"2303 MID LANE - 534, HOUSTON, TX, 77027","No_Match",NA,NA,NA,NA
376347,"2303 MID LANE APT 422","HOUSTON","TX",77027,NA,NA,347,"2303 MID LANE APT 422, HOUSTON, TX, 77027","No_Match",NA,NA,NA,NA
376348,"2303 MILLENNIUM LANE","RESTON","VA",20191,38.9305100610001,-77.350641917,348,"2303 MILLENNIUM LANE, RESTON, VA, 20191","Match","Exact","2303 MILLENNIUM LN, RESTON, VA, 20191",645568760,"R"
376349,"2303 MINER COURT SW","TUMWATER","WA",98512,46.9874445660001,-122.931762924,349,"2303 MINER COURT SW, TUMWATER, WA, 98512","Match","Exact","2303 MINER CT SW, TUMWATER, WA, 98512",180945452,"L"
376350,"2303 MOHAWK LANE","GLENVIEW","IL",60026,42.099294564,-87.866239499,350,"2303 MOHAWK LANE, GLENVIEW, IL, 60026","Match","Exact","2303 MOHAWK LN, GLENVIEW, IL, 60026",111719324,"R"
376351,"2303 MONROE AVE APT 11","MEMPHIS","TN",38104,35.134738101,-89.985078081,351,"2303 MONROE AVE APT 11, MEMPHIS, TN, 38104","Match","Exact","2303 MONROE AVE, MEMPHIS, TN, 38104",72913454,"R"
376352,"2303 N 44TH ST SUITE 5","PHOENIX","AZ",85008,33.4730670930001,-111.987027201,352,"2303 N 44TH ST SUITE 5, PHOENIX, AZ, 85008","Match","Non_Exact","2303 N 44TH ST, PHOENIX, AZ, 85008",128223789,"R"
376353,"2303 N 53RD STREET","OMAHA","NE",68104,41.2800555310001,-95.996310084,353,"2303 N 53RD STREET, OMAHA, NE, 68104","Match","Exact","2303 N 53RD ST, OMAHA, NE, 68104",117019952,"R"
376354,"2303 N ASPEN DR","FAYETTEVILLE","AR",72703,36.092206113,-94.111538411,354,"2303 N ASPEN DR, FAYETTEVILLE, AR, 72703","Match","Exact","2303 N ASPEN DR, FAYETTEVILLE, AR, 72703",49061030,"R"
376355,"2303 N CORAL CANYON BLVD STE 200","WASHINGTON","UT",84780,37.1616444960001,-113.44700064,355,"2303 N CORAL CANYON BLVD STE 200, WASHINGTON, UT, 84780","Match","Exact","2303 CORAL CANYON BLVD, WASHINGTON, UT, 84780",607572194,"R"
376356,"2303 N DOGWOOD ST","OWASSO","OK",74055,36.288330424,-95.850991651,356,"2303 N DOGWOOD ST, OWASSO, OK, 74055","Match","Exact","2303 N DOGWOOD ST, OWASSO, OK, 74055",166433910,"L"
376357,"2303 N GEYER RD","ST. LOUIS","MO",63131,38.623053446,-90.420324991,357,"2303 N GEYER RD, ST. LOUIS, MO, 63131","Match","Exact","2303 N GEYER RD, SAINT LOUIS, MO, 63131",100126170,"L"
376358,"2303 N LANTERN LANE","FLAGSTAFF","AZ",86001,35.22240701,-111.656510803,358,"2303 N LANTERN LANE, FLAGSTAFF, AZ, 86001","Match","Exact","2303 N LANTERN LN, FLAGSTAFF, AZ, 86001",188935161,"R"
376359,"2303 N RD 1 EAST","CHINO VALLEY","AZ",86323,34.778855951,-112.447354371,359,"2303 N RD 1 EAST, CHINO VALLEY, AZ, 86323","Match","Exact","2303 N RD 1 E, CHINO VALLEY, AZ, 86323",608164836,"R"
376360,"2303 N STATE ST","ABERDEEN","SD",57401,45.4877580250001,-98.4791806119999,360,"2303 N STATE ST, ABERDEEN, SD, 57401","Match","Exact","2303 N STATE ST, ABERDEEN, SD, 57401",200794914,"L"
376361,"2303 NOLAN DRIVE","FLATWOODS","KY",41139,38.5227840210001,-82.7283341579999,361,"2303 NOLAN DRIVE, FLATWOODS, KY, 41139","Match","Exact","2303 NOLAN DR, FLATWOODS, KY, 41139",151407168,"L"
376362,"2303 NORTH ALABAMA ST","INDIANAPOLIS","IN",46205,39.799470833,-86.151973361,362,"2303 NORTH ALABAMA ST, INDIANAPOLIS, IN, 46205","Match","Exact","2303 N ALABAMA ST, INDIANAPOLIS, IN, 46205",107989712,"R"
376363,"2303 NORTH US HWY 1","FORT PIERCE","FL",34946,27.478166835,-80.338527631,363,"2303 NORTH US HWY 1, FORT PIERCE, FL, 34946","Match","Non_Exact","2303 US HWY 1, FORT PIERCE, FL, 34946",635802290,"L"
376364,"2303 NORTHGATE BLVD","SACRAMENTO","CA",95833,38.6068822940001,-121.475592708,364,"2303 NORTHGATE BLVD, SACRAMENTO, CA, 95833","Match","Exact","2303 NORTHGATE BLVD, SACRAMENTO, CA, 95833",133320594,"L"
376365,"2303 NW 43 ST","LAWTON","OK",73505,34.6322753900001,-98.444407455,365,"2303 NW 43 ST, LAWTON, OK, 73505","Match","Exact","2303 NW 43RD ST, LAWTON, OK, 73505",14991301,"R"
376366,"2303 NW 43RD ST","LAWTON","OK",73505,34.6322753900001,-98.444407455,366,"2303 NW 43RD ST, LAWTON, OK, 73505","Match","Exact","2303 NW 43RD ST, LAWTON, OK, 73505",14991301,"R"
376367,"2303 NW 43RD","LAWTON","OK",73505,34.6322753900001,-98.444407455,367,"2303 NW 43RD, LAWTON, OK, 73505","Match","Non_Exact","2303 NW 43RD ST, LAWTON, OK, 73505",14991301,"R"
376368,"2303 ONEIDA ST APT 3","UTICA","NY",13501,43.077817306,-75.262795227,368,"2303 ONEIDA ST APT 3, UTICA, NY, 13501","Match","Exact","2303 ONEIDA ST, UTICA, NY, 13501",171530915,"L"
376369,"2303 PACK DR NW","FORT PAYNE","AL",35968,34.480919167,-85.743397321,369,"2303 PACK DR NW, FORT PAYNE, AL, 35968","Match","Non_Exact","2303 PACK RD NW, FORT PAYNE, AL, 35968",647815353,"L"
376370,"2303 PARTRIDGE LN","JANESVILLE","WI",53546,42.6453581760001,-89.023127823,370,"2303 PARTRIDGE LN, JANESVILLE, WI, 53546","Match","Exact","2303 PARTRIDGE LN, JANESVILLE, WI, 53546",638877421,"L"
376371,"2303 PATRICIA ST","SPRINGDALE","AR",72762,36.178886634,-94.16298571,371,"2303 PATRICIA ST, SPRINGDALE, AR, 72762","Match","Exact","2303 PATRICIA ST, SPRINGDALE, AR, 72762",49042629,"L"
376372,"2303 PEAR LN","MADRID","IA",50156,41.8773793170001,-93.8583281699999,372,"2303 PEAR LN, MADRID, IA, 50156","Match","Exact","2303 PEAR LN, MADRID, IA, 50156",64937887,"R"
376373,"2303 PENDANT PASS","SAN ANTONIO","TX",78232,29.6042041600001,-98.45600734,373,"2303 PENDANT PASS, SAN ANTONIO, TX, 78232","Match","Exact","2303 PENDANT PASS, SAN ANTONIO, TX, 78232",101566569,"L"
376374,"2303 PINEVIEW CT","RED WING","MN",55066,44.5392785970001,-92.5356235739999,374,"2303 PINEVIEW CT, RED WING, MN, 55066","Match","Exact","2303 PINEVIEW CT, RED WING, MN, 55066",31554114,"R"
376375,"2303 PORTAL RD","CHESAPEAKE","VA",23324,36.783399698,-76.267287676,375,"2303 PORTAL RD, CHESAPEAKE, VA, 23324","Match","Exact","2303 PORTAL RD, CHESAPEAKE, VA, 23324",121771741,"L"
376376,"2303 PRENTISS AVE","NEW ORLEANS","LA",70122,30.0169804230001,-90.0580902519999,376,"2303 PRENTISS AVE, NEW ORLEANS, LA, 70122","Match","Exact","2303 PRENTISS AVE, NEW ORLEANS, LA, 70122",191704160,"L"
376377,"2303 QUEENS COURT","BETTENDORF","IA",52722,41.5637376600001,-90.499863784,377,"2303 QUEENS COURT, BETTENDORF, IA, 52722","Match","Exact","2303 QUEENS CT, BETTENDORF, IA, 52722",122721592,"R"
376378,"2303 REDWOOD BOULEVARD","BRANDON","SD",57005,43.6017753260001,-96.55586577,378,"2303 REDWOOD BOULEVARD, BRANDON, SD, 57005","Match","Non_Exact","2303 E REDWOOD BLVD, BRANDON, SD, 57005",649852829,"L"
376379,"2303 REGENTS PARK LANE","GREENSBORO","NC",28455,36.148294213,-79.82423223,379,"2303 REGENTS PARK LANE, GREENSBORO, NC, 28455","Match","Non_Exact","2303 REGENTS PARK LN, GREENSBORO, NC, 27455",131078574,"R"
376380,"2303 RICHMOND STREET SW","DECATUR","AL",35603,34.559333773,-87.0284650729999,380,"2303 RICHMOND STREET SW, DECATUR, AL, 35603","Match","Non_Exact","2303 RICHMOND DR SW, DECATUR, AL, 35603",97124234,"R"
376381,"2303 RUE ARDRIANE","LA JOLLA","CA",92037,NA,NA,381,"2303 RUE ARDRIANE, LA JOLLA, CA, 92037","No_Match",NA,NA,NA,NA
376382,"2303 S GESSNER ROAD","HOUSTON","TX",77063,29.7415844760001,-95.538363504,382,"2303 S GESSNER ROAD, HOUSTON, TX, 77063","Match","Exact","2303 S GESSNER RD, HOUSTON, TX, 77063",96619758,"L"
376383,"2303 S JACQUES ST","VISALIA","CA",93277,36.3098004020001,-119.360108088,383,"2303 S JACQUES ST, VISALIA, CA, 93277","Match","Exact","2303 S JACQUES ST, VISALIA, CA, 93277",635824268,"R"
376384,"2303 S THIXTON CT","TAMPA","FL",33629,27.9246227140001,-82.515190869,384,"2303 S THIXTON CT, TAMPA, FL, 33629","Match","Exact","2303 S THIXTON CT, TAMPA, FL, 33629",104525536,"R"
376385,"2303 SALEM DRIVE","PITTSBURGH","PA",15237,40.574054905,-80.068698836,385,"2303 SALEM DRIVE, PITTSBURGH, PA, 15237","Match","Exact","2303 SALEM DR, PITTSBURGH, PA, 15237",607708615,"R"
376386,"2303 SANDURST DRIVE","JAMISON","PA",18929,NA,NA,386,"2303 SANDURST DRIVE, JAMISON, PA, 18929","No_Match",NA,NA,NA,NA
376387,"2303 SANTA ELENA STREET","BROWNSVILLE","TX",78521,25.9150930110001,-97.468967349,387,"2303 SANTA ELENA STREET, BROWNSVILLE, TX, 78521","Match","Exact","2303 SANTA ELENA ST, BROWNSVILLE, TX, 78521",89966970,"L"
376388,"2303 SARANAC AVENUE","PITTSBURGH","PA",15216,40.40248695,-80.027088667,388,"2303 SARANAC AVENUE, PITTSBURGH, PA, 15216","Match","Exact","2303 SARANAC AVE, PITTSBURGH, PA, 15216",51631303,"L"
376389,"2303 SHADOW CREEK CIRCLE","DES MOINES","IA",50320,NA,NA,389,"2303 SHADOW CREEK CIRCLE, DES MOINES, IA, 50320","No_Match",NA,NA,NA,NA
376390,"2303 SHERBROOKE LANE","MCKINNEY","TX",75070,33.1638156870001,-96.655280101,390,"2303 SHERBROOKE LANE, MCKINNEY, TX, 75070","Match","Exact","2303 SHERBROOKE LN, MCKINNEY, TX, 75070",123558724,"L"
376391,"2303 SIGWALT ST","ROLLING MEADOWS","IL",60008,42.081501545,-88.00887252,391,"2303 SIGWALT ST, ROLLING MEADOWS, IL, 60008","Match","Exact","2303 SIGWALT ST, ROLLING MDWS, IL, 60008",111699574,"L"
376392,"2303 SOUTH HOLDEN RD APT 101T","GREENSBORO","NC",27407,36.0369438880001,-79.849746857,392,"2303 SOUTH HOLDEN RD APT 101T, GREENSBORO, NC, 27407","Match","Exact","2303 S HOLDEN RD, GREENSBORO, NC, 27407",131114345,"L"
376393,"2303 SOUTH UNION","ROSWELL","NM",88203,33.362895452,-104.536150337,393,"2303 SOUTH UNION, ROSWELL, NM, 88203","Match","Non_Exact","2303 S UNION AVE, ROSWELL, NM, 88203",131773170,"R"
376394,"2303 SOUTHEASTERN AVENUE","INDIANAPOLIS","IN",46201,39.7620090070001,-86.123793868,394,"2303 SOUTHEASTERN AVENUE, INDIANAPOLIS, IN, 46201","Match","Exact","2303 SOUTHEASTERN AVE, INDIANAPOLIS, IN, 46201",107993719,"R"
376395,"2303 SOUTHEASTERN RD","INDIANAPOLIS","IN",46201,39.7620090070001,-86.123793868,395,"2303 SOUTHEASTERN RD, INDIANAPOLIS, IN, 46201","Match","Non_Exact","2303 SOUTHEASTERN AVE, INDIANAPOLIS, IN, 46201",107993719,"R"
376396,"2303 SOUTHWOOD AVENUE","NORTON SHORES","MI",49441,43.1971523230001,-86.3009583529999,396,"2303 SOUTHWOOD AVENUE, NORTON SHORES, MI, 49441","Match","Exact","2303 SOUTHWOOD AVE, NORTON SHORES, MI, 49441",77652244,"L"
376397,"2303 STANNYE DRIVE","LOUISVILLE","KY",40222,38.2855651950001,-85.6395914079999,397,"2303 STANNYE DRIVE, LOUISVILLE, KY, 40222","Match","Exact","2303 STANNYE DR, LOUISVILLE, KY, 40222",96854483,"R"
376398,"2303 STATE ROUTE 602","NORTH ROBINSON","OH",44827,40.789912186,-82.8571279,398,"2303 STATE ROUTE 602, NORTH ROBINSON, OH, 44827","Match","Exact","2303 STATE RTE 602, N ROBINSON, OH, 44827",12075063,"R"
376399,"2303 STRAWFORK DR","FT COLLINS","CO",80525,40.5567757590001,-105.035699535,399,"2303 STRAWFORK DR, FT COLLINS, CO, 80525","Match","Exact","2303 STRAWFORK DR, FORT COLLINS, CO, 80525",633634244,"R"
376400,"2303 SUMMIT LAKE SHORE ROAD NW","OLYMPIA","WA",98502,47.0572953240001,-123.114690557,400,"2303 SUMMIT LAKE SHORE ROAD NW, OLYMPIA, WA, 98502","Match","Exact","2303 SUMMIT LAKE SHORE RD NW, OLYMPIA, WA, 98502",624540578,"R"
376401,"2303 SW 43RD ST","LAWTON","OK",73505,34.5830837400001,-98.444919695,401,"2303 SW 43RD ST, LAWTON, OK, 73505","Match","Exact","2303 SW 43RD ST, LAWTON, OK, 73505",651912521,"R"
376402,"2303 THISTLEROCK LN","SUGAR LAND","TX",77479,29.5770516440001,-95.68411037,402,"2303 THISTLEROCK LN, SUGAR LAND, TX, 77479","Match","Exact","2303 THISTLEROCK LN, SUGAR LAND, TX, 77479",78328745,"R"
376403,"2303 TROWBRIDGE WAY","LISLE","IL",60532,41.770849866,-88.094804489,403,"2303 TROWBRIDGE WAY, LISLE, IL, 60532","Match","Exact","2303 TROWBRIDGE WAY, LISLE, IL, 60532",112537883,"R"
376404,"2303 TUNLAW ROAD NW","WASHINGTON","DC",20007,38.919981856,-77.073231892,404,"2303 TUNLAW ROAD NW, WASHINGTON, DC, 20007","Match","Exact","2303 TUNLAW RD NW, WASHINGTON, DC, 20007",76240142,"R"
376405,"2303 VIA PUERTA UNIT D","LAGUNA WOODS","CA",92637,33.618013971,-117.720196225,405,"2303 VIA PUERTA UNIT D, LAGUNA WOODS, CA, 92637","Match","Exact","2303 VIA PUERTA, LAGUNA WOODS, CA, 92637",639050268,"R"
376406,"2303 W 36TH STREET","DAVENPORT","IA",52806,41.556680768,-90.610494709,406,"2303 W 36TH STREET, DAVENPORT, IA, 52806","Match","Exact","2303 W 36TH ST, DAVENPORT, IA, 52806",122705764,"L"
376407,"2303 W 3RD ST","ELK CITY","OK",73644,NA,NA,407,"2303 W 3RD ST, ELK CITY, OK, 73644","No_Match",NA,NA,NA,NA
376408,"2303 W 4240 S","TAYLORSVILLE","UT",84129,40.678782578,-111.950351577,408,"2303 W 4240 S, TAYLORSVILLE, UT, 84129","Match","Exact","2303 W 4240 S, TAYLORSVILLE, UT, 84129",176128445,"R"
376409,"2303 W ALBERSON DRIVE","ALBANY","GA",31721,31.6022432030001,-84.247486576,409,"2303 W ALBERSON DRIVE, ALBANY, GA, 31721","Match","Exact","2303 W ALBERSON DR, ALBANY, GA, 31721",84324888,"L"
376410,"2303 W GRAND AVE","CHICAGO","IL",60612,41.8906954930001,-87.6844116789999,410,"2303 W GRAND AVE, CHICAGO, IL, 60612","Match","Exact","2303 W GRAND AVE, CHICAGO, IL, 60612",111763888,"L"
376411,"2303 W SUMMIT ROAD","EVANSVILLE","IN",47712,37.9993149580001,-87.603443285,411,"2303 W SUMMIT ROAD, EVANSVILLE, IN, 47712","Match","Non_Exact","2303 W SUMMIT DR, EVANSVILLE, IN, 47712",39806306,"L"
376412,"2303 WEST 10TH","INDIANOLA","IA",50125,41.3464123730001,-93.592145963,412,"2303 WEST 10TH, INDIANOLA, IA, 50125","Match","Non_Exact","2303 W 10TH AVE, INDIANOLA, IA, 50125",627104033,"R"
376413,"2303 WEST DIVISION STREET","SLATON","TX",79364,33.433826536,-101.671499875,413,"2303 WEST DIVISION STREET, SLATON, TX, 79364","Match","Exact","2303 W DIVISION ST, SLATON, TX, 79364",185329672,"R"
376414,"2303 WHITNEY UNIT B","HOUSTON","TX",77006,29.7487939430001,-95.387282973,414,"2303 WHITNEY UNIT B, HOUSTON, TX, 77006","Match","Non_Exact","2303 WHITNEY ST, HOUSTON, TX, 77006",96062663,"L"
376415,"2303 WINDOR CV","BRYANT","AR",72022,NA,NA,415,"2303 WINDOR CV, BRYANT, AR, 72022","No_Match",NA,NA,NA,NA
376416,"2303 WINDSTONE DR","COLUMBIA","MO",65201,38.9033731220001,-92.3062804849999,416,"2303 WINDSTONE DR, COLUMBIA, MO, 65201","Match","Exact","2303 WINDSTONE DR, COLUMBIA, MO, 65201",604997923,"R"
376417,"2303 WINECUP LANE","LEAGUE CITY","TX",77573,29.51528934,-95.065524153,417,"2303 WINECUP LANE, LEAGUE CITY, TX, 77573","Match","Exact","2303 WINECUP LN, LEAGUE CITY, TX, 77573",96743613,"R"
376418,"2303 WOODGATE DR APPT 2C","PINEBLUFF","AR",71601,34.251353635,-92.021344394,418,"2303 WOODGATE DR APPT 2C, PINEBLUFF, AR, 71601","Match","Non_Exact","2303 WOODGATE DR, PINE BLUFF, AR, 71601",2556523,"R"
376419,"2303 WOODLAWN STREET","JACKSON","MS",39213,32.3224244250001,-90.199851354,419,"2303 WOODLAWN STREET, JACKSON, MS, 39213","Match","Exact","2303 WOODLAWN ST, JACKSON, MS, 39213",652222108,"L"
376420,"23030 13TH PL W","BOTHELL","WA",98021,47.7894989850001,-122.25114015,420,"23030 13TH PL W, BOTHELL, WA, 98021","Match","Exact","23030 13TH PL W, BOTHELL, WA, 98021",608921638,"L"
376421,"23030 AIRDALE LN","SAN ANTONIO","TX",78260,29.6558025200001,-98.514819049,421,"23030 AIRDALE LN, SAN ANTONIO, TX, 78260","Match","Non_Exact","23030 AIREDALE LN, SAN ANTONIO, TX, 78260",625674299,"L"
376422,"23030 CHAISSON LANE","JENNINGS","LA",70546,NA,NA,422,"23030 CHAISSON LANE, JENNINGS, LA, 70546","No_Match",NA,NA,NA,NA
376423,"23030 HALSTEAD ROAD 103","FARMINGTON HILLS","MI",48335,42.458280931,-83.41513235,423,"23030 HALSTEAD ROAD 103, FARMINGTON HILLS, MI, 48335","Match","Non_Exact","23030 HALSTED RD, FARMINGTON HILLS, MI, 48335",69785468,"R"
376424,"23030 ROAD K","CORTEZ","CO",81321,37.356417487,-108.624049651,424,"23030 ROAD K, CORTEZ, CO, 81321","Match","Exact","23030 RD K, CORTEZ, CO, 81321",91779696,"L"
376425,"23031 ARROYO VISTA SUITE B","RCHO STA MARG","CA",92688,33.626866265,-117.608723777,425,"23031 ARROYO VISTA SUITE B, RCHO STA MARG, CA, 92688","Match","Exact","23031 ARROYO VIS, RCHO STA MARG, CA, 92688",144108401,"R"
376426,"23031 BURTON STREET","WEST HILLS","CA",91304,34.2183984430001,-118.629338681,426,"23031 BURTON STREET, WEST HILLS, CA, 91304","Match","Exact","23031 BURTON ST, WEST HILLS, CA, 91304",141721148,"R"
376427,"23031 WREXFORD DRIVE","SOUTHFIELD","MI",48033,42.4602877500001,-83.310749292,427,"23031 WREXFORD DRIVE, SOUTHFIELD, MI, 48033","Match","Exact","23031 WREXFORD DR, SOUTHFIELD, MI, 48033",69777507,"L"
376428,"23032 MARACOSSIC DR","BOWLING GREEN","VA",22427,38.0069179930001,-77.249126269,428,"23032 MARACOSSIC DR, BOWLING GREEN, VA, 22427","Match","Exact","23032 MARACOSSIC DR, BOWLING GREEN, VA, 22427",21947306,"L"
376429,"23032 N 38TH PLACE","PHOENIX","AZ",85050,33.695555933,-111.992938052,429,"23032 N 38TH PLACE, PHOENIX, AZ, 85050","Match","Exact","23032 N 38TH PL, PHOENIX, AZ, 85050",243984584,"L"
376430,"23032 NE 29TH STREET","SAMMAMISH","WA",98074,47.6353286990001,-122.033896936,430,"23032 NE 29TH STREET, SAMMAMISH, WA, 98074","Match","Exact","23032 NE 29TH ST, SAMMAMISH, WA, 98074",186617740,"L"
376431,"23032 STRINGTOWN ROAD","CLARKSBURG","MD",20871,39.235922298,-77.2801842809999,431,"23032 STRINGTOWN ROAD, CLARKSBURG, MD, 20871","Match","Exact","23032 STRINGTOWN RD, CLARKSBURG, MD, 20871",638119506,"L"
376432,"23033 N 4TH ST","OSAGE CITY","KS",66523,38.643553861,-95.829344679,432,"23033 N 4TH ST, OSAGE CITY, KS, 66523","Match","Exact","23033 N 4TH ST, OSAGE CITY, KS, 66523",653241302,"R"
376433,"23033 N 4TH STREET","OSAGE CITY","KS",66523,38.643553861,-95.829344679,433,"23033 N 4TH STREET, OSAGE CITY, KS, 66523","Match","Exact","23033 N 4TH ST, OSAGE CITY, KS, 66523",653241302,"R"
376434,"23034 KIPLING STREET","OAK PARK","MI",48237,42.460127223,-83.1853227299999,434,"23034 KIPLING STREET, OAK PARK, MI, 48237","Match","Exact","23034 KIPLING ST, OAK PARK, MI, 48237",69741365,"R"
376435,"23035 CUMORAH CREST DR","WOODLAND HLS","CA",91364,34.1540587920001,-118.629121257,435,"23035 CUMORAH CREST DR, WOODLAND HLS, CA, 91364","Match","Exact","23035 CUMORAH CREST DR, WOODLAND HILLS, CA, 91364",141723884,"R"
376436,"23035 E 900TH RD","HUMANSVILLE","MO",65647,37.7571376560001,-93.647748816,436,"23035 E 900TH RD, HUMANSVILLE, MO, 65647","Match","Non_Exact","23035 E 900TH RD, HUMANSVILLE, MO, 65674",44910193,"L"
376437,"23035 LAKE SHORE DRIVE","ELKHART","IN",46514,41.737813277,-85.909092464,437,"23035 LAKE SHORE DRIVE, ELKHART, IN, 46514","Match","Exact","23035 LAKE SHORE DR, ELKHART, IN, 46514",7771064,"L"
376438,"23037 E 1680 ST","GENESEO","IL",61254,NA,NA,438,"23037 E 1680 ST, GENESEO, IL, 61254","No_Match",NA,NA,NA,NA
376439,"23038 LANEVIEW RD","HEMPSTEAD","TX",77445,30.1189519930001,-96.037555807,439,"23038 LANEVIEW RD, HEMPSTEAD, TX, 77445","Match","Exact","23038 LANEVIEW RD, HEMPSTEAD, TX, 77445",652122622,"R"
376440,"23039 BIRCH MEAD RD","CLARKSBURG","MD",20871,39.2360377590001,-77.2530386829999,440,"23039 BIRCH MEAD RD, CLARKSBURG, MD, 20871","Match","Exact","23039 BIRCH MEAD RD, CLARKSBURG, MD, 20871",618606058,"R"
376441,"23039 DREWRY RD","DREWRYVILLE","VA",23844,36.710900032,-77.304959088,441,"23039 DREWRY RD, DREWRYVILLE, VA, 23844","Match","Exact","23039 DREWRY RD, DREWRYVILLE, VA, 23844",82721008,"R"
376442,"23039 VENTURA BLVD UNIT C","WOODLAND HILLS","CA",91364,34.164287028,-118.627957203,442,"23039 VENTURA BLVD UNIT C, WOODLAND HILLS, CA, 91364","Match","Exact","23039 VENTURA BLVD, WOODLAND HILLS, CA, 91364",642861643,"R"
376443,"23039","RICHTON PARK","IL",60471,NA,NA,443,"23039, RICHTON PARK, IL, 60471","No_Match",NA,NA,NA,NA
376444,"2303B VILLA DRIVE","SISTER BAY","WI",54234,45.182417301,-87.1190122799999,444,"2303B VILLA DRIVE, SISTER BAY, WI, 54234","Match","Exact","2303 VILLA DR, SISTER BAY, WI, 54234",627194072,"R"
376445,"2304 13TH STREET SOUTH","LA CROSSE","WI",54601,43.7886462450001,-91.238343602,445,"2304 13TH STREET SOUTH, LA CROSSE, WI, 54601","Match","Exact","2304 13TH ST S, LA CROSSE, WI, 54601",51013238,"R"
376446,"2304 23RD RD","FRANKFORT","KS",66427,39.682122189,-96.3889375049999,446,"2304 23RD RD, FRANKFORT, KS, 66427","Match","Exact","2304 23RD RD, FRANKFORT, KS, 66427",28439471,"R"
376447,"2304 2ND ST","BAKER CITY","OR",97814,44.780056889,-117.832022262,447,"2304 2ND ST, BAKER CITY, OR, 97814","Match","Exact","2304 2ND ST, BAKER CITY, OR, 97814",137638907,"R"
376448,"2304 300TH ST NW","STANWOOD","WA",98282,48.268410869,-122.262100733,448,"2304 300TH ST NW, STANWOOD, WA, 98282","Match","Non_Exact","2304 300TH ST NW, STANWOOD, WA, 98292",187821667,"R"
376449,"2304 50TH AVE SW","SEATTLE","WA",98116,47.582896438,-122.394456628,449,"2304 50TH AVE SW, SEATTLE, WA, 98116","Match","Exact","2304 50TH AVE SW, SEATTLE, WA, 98116",186660736,"L"
376450,"2304 5TH AVE NW","FAYETTE","AL",35555,33.7184769520001,-87.8232857739999,450,"2304 5TH AVE NW, FAYETTE, AL, 35555","Match","Exact","2304 5TH AVE NW, FAYETTE, AL, 35555",120505394,"R"
376451,"2304 78TH ST APT 1 E","BROOKLYNY","NY",11214,NA,NA,451,"2304 78TH ST APT 1 E, BROOKLYNY, NY, 11214","No_Match",NA,NA,NA,NA
376452,"2304 93RD STREET","LUBBOCK","TX",79423,33.5103852450001,-101.865973734,452,"2304 93RD STREET, LUBBOCK, TX, 79423","Match","Exact","2304 93RD ST, LUBBOCK, TX, 79423",185256364,"L"
376453,"2304 ABBEYGLEN LANE","HOOVER","AL",35226,33.3964981390001,-86.894132457,453,"2304 ABBEYGLEN LANE, HOOVER, AL, 35226","Match","Exact","2304 ABBEYGLEN LN, HOOVER, AL, 35226",601659869,"L"
376454,"2304 AMHERST AVE","ORLANDO","FL",32804,28.572248143,-81.3802558359999,454,"2304 AMHERST AVE, ORLANDO, FL, 32804","Match","Exact","2304 AMHERST AVE, ORLANDO, FL, 32804",94277344,"L"
376455,"2304 ARBOR","HOUSTON","TX",77288,NA,NA,455,"2304 ARBOR, HOUSTON, TX, 77288","No_Match",NA,NA,NA,NA
376456,"2304 ASPEN LANE","NORTH MANKATO","MN",56003,NA,NA,456,"2304 ASPEN LANE, NORTH MANKATO, MN, 56003","No_Match",NA,NA,NA,NA
376457,"2304 ASPEN ST","RICHARDSON","TX",75082,32.9891858670001,-96.679062755,457,"2304 ASPEN ST, RICHARDSON, TX, 75082","Match","Exact","2304 ASPEN ST, RICHARDSON, TX, 75082",123490496,"R"
376458,"2304 AUGUSTA ST APT 1","CHARLOTTE","NC",28216,35.2652039560001,-80.851435502,458,"2304 AUGUSTA ST APT 1, CHARLOTTE, NC, 28216","Match","Exact","2304 AUGUSTA ST, CHARLOTTE, NC, 28216",70477198,"R"
376459,"2304 AUSTIN LANE","PROSPER","TX",75078,33.2416880860001,-96.8485624319999,459,"2304 AUSTIN LANE, PROSPER, TX, 75078","Match","Exact","2304 AUSTIN LN, PROSPER, TX, 75078",646946536,"R"
376460,"2304 AVALON DRIVE","RANDOLPH","MA",2368,42.1809527660001,-71.082259634,460,"2304 AVALON DRIVE, RANDOLPH, MA, 2368","Match","Exact","2304 AVALON DR, RANDOLPH, MA, 02368",647365984,"L"
376461,"2304 B CHARIOT DRIVE","GREENSBORO","NC",27406,36.04064177,-79.719790473,461,"2304 B CHARIOT DRIVE, GREENSBORO, NC, 27406","Match","Exact","2304 CHARIOT DR, GREENSBORO, NC, 27406",624500074,"R"
376462,"2304 BAMORE","ROSENBERG","TX",77471,29.543935086,-95.819392153,462,"2304 BAMORE, ROSENBERG, TX, 77471","Match","Non_Exact","2304 BAMORE RD, ROSENBERG, TX, 77471",78262677,"L"
376463,"2304 BARTON AVE","RICHMOND","VA",23222,37.563395422,-77.431987632,463,"2304 BARTON AVE, RICHMOND, VA, 23222","Match","Exact","2304 BARTON AVE, RICHMOND, VA, 23222",201539796,"L"
376464,"2304 BEAR PT","WEST PALM BEACH","FL",33409,26.7359906400001,-80.098422039,464,"2304 BEAR PT, WEST PALM BEACH, FL, 33409","Match","Exact","2304 BEAR PT, WEST PALM BEACH, FL, 33409",115349322,"L"
376465,"2304 BECK RD","CRESTLINE","OH",44827,40.788882195,-82.838302616,465,"2304 BECK RD, CRESTLINE, OH, 44827","Match","Exact","2304 BECK RD, CRESTLINE, OH, 44827",12075736,"L"
376466,"2304 BIRKSHIRE LN","HOOVER","AL",35244,33.3483482610001,-86.816153363,466,"2304 BIRKSHIRE LN, HOOVER, AL, 35244","Match","Exact","2304 BIRKSHIRE LN, HOOVER, AL, 35244",82099787,"L"
376467,"2304 BLUEBIRD LANE","ROLLING MEADOWS","IL",60008,42.085947156,-88.012346257,467,"2304 BLUEBIRD LANE, ROLLING MEADOWS, IL, 60008","Match","Exact","2304 BLUEBIRD LN, ROLLING MDWS, IL, 60008",111697239,"L"
376468,"2304 BOSTON BLVD","DETROIT","MI",48026,NA,NA,468,"2304 BOSTON BLVD, DETROIT, MI, 48026","No_Match",NA,NA,NA,NA
376469,"2304 BOULDERCREST RD SE","ATLANTA","GA",30316,33.6903015230001,-84.318821734,469,"2304 BOULDERCREST RD SE, ATLANTA, GA, 30316","Match","Exact","2304 BOULDERCREST RD SE, ATLANTA, GA, 30316",23368052,"L"
376470,"2304 BRADSHIRE","MIAMISBURG","OH",45342,39.605410067,-84.212181425,470,"2304 BRADSHIRE, MIAMISBURG, OH, 45342","Match","Non_Exact","2304 BRADSHIRE RD, MIAMISBURG, OH, 45342",143603523,"R"
376471,"2304 BROOKHAVEN DR","DENISON","TX",75020,33.747955414,-96.571517603,471,"2304 BROOKHAVEN DR, DENISON, TX, 75020","Match","Exact","2304 BROOKHAVEN DR, DENISON, TX, 75020",63352875,"L"
376472,"2304 CABRILLO STREET","SAN FRANCISCO","CA",94804,37.7744877480001,-122.483375304,472,"2304 CABRILLO STREET, SAN FRANCISCO, CA, 94804","Match","Non_Exact","2304 CABRILLO ST, SAN FRANCISCO, CA, 94121",192277493,"R"
376473,"2304 CADET DRIVE SUITE 3300","USAF ACADEMY","CO",80840,39.009457685,-104.892479226,473,"2304 CADET DRIVE SUITE 3300, USAF ACADEMY, CO, 80840","Match","Exact","2304 CADET DR, USAF ACADEMY, CO, 80840",610685417,"L"
376474,"2304 CASTLE ROCK RD","ARLINGTON","TX",76006,32.7849787910001,-97.070002385,474,"2304 CASTLE ROCK RD, ARLINGTON, TX, 76006","Match","Exact","2304 CASTLE ROCK RD, ARLINGTON, TX, 76006",101875146,"L"
376475,"2304 CHOICE PLACE","PFLUGERVILLE","TX",78660,30.4889146100001,-97.5722217319999,475,"2304 CHOICE PLACE, PFLUGERVILLE, TX, 78660","Match","Exact","2304 CHOICE PL, PFLUGERVILLE, TX, 78660",641830863,"R"
376476,"2304 CLARINDA","WICHITA FALLS","TX",76308,33.883380377,-98.5166988939999,476,"2304 CLARINDA, WICHITA FALLS, TX, 76308","Match","Non_Exact","2304 CLARINDA AVE, WICHITA FALLS, TX, 76308",169843055,"R"
376477,"2304 COIT RD STE 660","PLANO","TX",75075,33.0300843380001,-96.769998984,477,"2304 COIT RD STE 660, PLANO, TX, 75075","Match","Exact","2304 COIT RD, PLANO, TX, 75075",210473084,"R"
376478,"2304 COMA ST","HIDALGO","TX",78557,NA,NA,478,"2304 COMA ST, HIDALGO, TX, 78557","No_Match",NA,NA,NA,NA
376479,"2304 COVEMONT DRIVE","HUNSVILLE","AL",35801,34.7154727540001,-86.559369314,479,"2304 COVEMONT DRIVE, HUNSVILLE, AL, 35801","Match","Non_Exact","2304 COVEMONT DR SE, HUNTSVILLE, AL, 35801",647671379,"L"
376480,"2304 COVEMONT DRIVE","HUNTSVILLE","AL",35801,34.7154727540001,-86.559369314,480,"2304 COVEMONT DRIVE, HUNTSVILLE, AL, 35801","Match","Non_Exact","2304 COVEMONT DR SE, HUNTSVILLE, AL, 35801",647671379,"L"
376481,"2304 CRANBERRY TERRACE","SILVER  SPRING","MD",26906,39.112526578,-77.0497414229999,481,"2304 CRANBERRY TERRACE, SILVER  SPRING, MD, 26906","Match","Non_Exact","2304 CRANBERRY TER, SILVER SPRING, MD, 20906",62093441,"R"
376482,"2304 CRANBERRY TERRACE","SILVER SPRING","MD",26906,39.112526578,-77.0497414229999,482,"2304 CRANBERRY TERRACE, SILVER SPRING, MD, 26906","Match","Non_Exact","2304 CRANBERRY TER, SILVER SPRING, MD, 20906",62093441,"R"
376483,"2304 CREEKEDGE COURT","CORINTH","TX",76210,33.127048953,-97.074369572,483,"2304 CREEKEDGE COURT, CORINTH, TX, 76210","Match","Exact","2304 CREEKEDGE CT, CORINTH, TX, 76210",103386490,"L"
376484,"2304 CURTIS AVENUE","REDONDO BEACH","CA",90278,33.8775356300001,-118.369779597,484,"2304 CURTIS AVENUE, REDONDO BEACH, CA, 90278","Match","Exact","2304 CURTIS AVE, REDONDO BEACH, CA, 90278",141662881,"R"
376485,"2304 DAUPHIN STREET","MOBILE","AL",36606,30.686715942,-88.0950444809999,485,"2304 DAUPHIN STREET, MOBILE, AL, 36606","Match","Exact","2304 DAUPHIN ST, MOBILE, AL, 36606",61860325,"R"
376486,"2304 E 25TH ST","INDIANAPOLIS","IN",46218,39.803419315,-86.122658353,486,"2304 E 25TH ST, INDIANAPOLIS, IN, 46218","Match","Exact","2304 E 25TH ST, INDIANAPOLIS, IN, 46218",108051592,"L"
376487,"2304 E 43RD STREET","SAVANNAH","GA",31404,32.0410060890001,-81.0582102289999,487,"2304 E 43RD STREET, SAVANNAH, GA, 31404","Match","Exact","2304 E 43RD ST, SAVANNAH, GA, 31404",636354088,"L"
376488,"2304 E BALTIMORE STREET","BALTIMORE","MD",21224,39.2919105300001,-76.584485333,488,"2304 E BALTIMORE STREET, BALTIMORE, MD, 21224","Match","Exact","2304 E BALTIMORE ST, BALTIMORE, MD, 21224",206424775,"L"
376489,"2304 E BURNSIDE ST","PORTLAND","OR",97214,45.5228632050001,-122.642394116,489,"2304 E BURNSIDE ST, PORTLAND, OR, 97214","Match","Exact","2304 E BURNSIDE ST, PORTLAND, OR, 97214",157507085,"R"
376490,"2304 E CUMBERLAND ST","PHILADELPHIA","PA",19125,39.980872241,-75.123738886,490,"2304 E CUMBERLAND ST, PHILADELPHIA, PA, 19125","Match","Exact","2304 E CUMBERLAND ST, PHILADELPHIA, PA, 19125",131425356,"R"
376491,"2304 E FAIRMONT STREET","ALLENTOWN","PA",18109,40.632147263,-75.423119361,491,"2304 E FAIRMONT STREET, ALLENTOWN, PA, 18109","Match","Exact","2304 E FAIRMONT ST, ALLENTOWN, PA, 18109",80764700,"R"
376492,"2304 E LAMAR ALEXANDER PRKWY","MARYVILLE","TN",37804,35.755758214,-83.936961562,492,"2304 E LAMAR ALEXANDER PRKWY, MARYVILLE, TN, 37804","Match","Exact","2304 E LAMAR ALEXANDER PKWY, MARYVILLE, TN, 37804",614525834,"R"
376493,"2304 EAST 39 STREET","SAVANNAH","GA",31404,32.0444610280001,-81.059908566,493,"2304 EAST 39 STREET, SAVANNAH, GA, 31404","Match","Exact","2304 E 39TH ST, SAVANNAH, GA, 31404",6179546,"L"
376494,"2304 ELLINGHAM","WICHITA FALLS","TX",76308,33.881970778,-98.5170286749999,494,"2304 ELLINGHAM, WICHITA FALLS, TX, 76308","Match","Non_Exact","2304 ELLINGHAM DR, WICHITA FALLS, TX, 76308",169843060,"R"
376495,"2304 ENGLISH IVY CT SE","ATLANTA","GA",30339,33.842269285,-84.484150055,495,"2304 ENGLISH IVY CT SE, ATLANTA, GA, 30339","Match","Non_Exact","2304 ENGLISH IVY CT, ATLANTA, GA, 30339",625308243,"R"
376496,"2304 ERICA KAITLIN LN","CEDAR PARK","TX",78613,30.4969247020001,-97.8556443319999,496,"2304 ERICA KAITLIN LN, CEDAR PARK, TX, 78613","Match","Exact","2304 ERICA KAITLIN LN, CEDAR PARK, TX, 78613",617953447,"L"
376497,"2304 EVERGREEN ROAD","OTTAWA HILLS","OH",43606,41.665305548,-83.636186638,497,"2304 EVERGREEN ROAD, OTTAWA HILLS, OH, 43606","Match","Exact","2304 EVERGREEN RD, OTTAWA HILLS, OH, 43606",33934776,"R"
376498,"2304 FAIRBANKS DR","SANTA ROSA","SC",95403,NA,NA,498,"2304 FAIRBANKS DR, SANTA ROSA, SC, 95403","No_Match",NA,NA,NA,NA
376499,"2304 FAIRWAY","BATON ROUGE","LA",70809,30.4288684140001,-91.091103924,499,"2304 FAIRWAY, BATON ROUGE, LA, 70809","Match","Non_Exact","2304 FAIRWAY DR, BATON ROUGE, LA, 70809",606192090,"R"
376500,"2304 FALCON","ROUND ROCK","TX",78681,30.51975179,-97.711057661,500,"2304 FALCON, ROUND ROCK, TX, 78681","Match","Non_Exact","2304 FALCON DR, ROUND ROCK, TX, 78681",126451995,"L"
