"ID","Address","City","State","Zip","lat","long","id","input_address","match_indicator","match_type","matched_address","tiger_line_id","tiger_side"
665501,"483 MADISON GARDENS","OLD BRIDGE","NJ",8857,40.431914912,-74.3019056909999,1,"483 MADISON GARDENS, OLD BRIDGE, NJ, 8857","Match","Exact","483 MADISON GARDENS, OLD BRIDGE, NJ, 08857",60359708,"L"
665502,"483 MAIN ST","WILKES-BARRE","PA",18640,NA,NA,2,"483 MAIN ST, WILKES-BARRE, PA, 18640","Tie",NA,NA,NA,NA
665503,"483 MASS AVE","NO ANDOVER","MA",1845,42.689902149,-71.1263240929999,3,"483 MASS AVE, NO ANDOVER, MA, 1845","Match","Exact","483 MASSACHUSETTS AVE, NORTH ANDOVER, MA, 01845",86671743,"R"
665504,"483 MCAULEY STREET","OAKLAND","CA",94609,37.84587967,-122.260362824,4,"483 MCAULEY STREET, OAKLAND, CA, 94609","Match","Exact","483 MCAULEY ST, OAKLAND, CA, 94609",606340676,"L"
665505,"483 MERION ROAD","MERION STATION","PA",19066,40.007133304,-75.250173697,5,"483 MERION ROAD, MERION STATION, PA, 19066","Match","Exact","483 MERION RD, MERION STA, PA, 19066",135091077,"R"
665506,"483 MOUNTAIN AVE","GILLETTE","NJ",7933,40.675593425,-74.467294189,6,"483 MOUNTAIN AVE, GILLETTE, NJ, 7933","Match","Exact","483 MOUNTAIN AVE, GILLETTE, NJ, 07933",60449778,"L"
665507,"483 N ARMISTEAD ST","ALEXANDRIA","VA",22312,38.822533078,-77.13404702,7,"483 N ARMISTEAD ST, ALEXANDRIA, VA, 22312","Match","Exact","483 N ARMISTEAD ST, ALEXANDRIA, VA, 22312",638922189,"R"
665508,"483 N GLADIOLA RD","TATUM","NM",88267,33.3242634050001,-103.167392575,8,"483 N GLADIOLA RD, TATUM, NM, 88267","Match","Exact","483 N GLADIOLA RD, TATUM, NM, 88267",132039164,"R"
665509,"483 N VILLAGE MEADOWS","SISTERS","OR",97759,44.295555624,-121.564967998,9,"483 N VILLAGE MEADOWS, SISTERS, OR, 97759","Match","Non_Exact","483 VILLAGE MEADOWS RD, SISTERS, OR, 97759",647599284,"L"
665510,"483 NASSAN CT","LOS ANGELES","CA",90063,NA,NA,10,"483 NASSAN CT, LOS ANGELES, CA, 90063","No_Match",NA,NA,NA,NA
665511,"483 NEWPORT LOOP ROAD","NEWPORT","NC",28570,34.812491965,-76.8534405619999,11,"483 NEWPORT LOOP ROAD, NEWPORT, NC, 28570","Match","Exact","483 NEWPORT LOOP RD, NEWPORT, NC, 28570",632013755,"L"
665512,"483 NW FETTERBUSH WAY","JENSEN BEACH","FL",34957,27.2351330000001,-80.257603161,12,"483 NW FETTERBUSH WAY, JENSEN BEACH, FL, 34957","Match","Exact","483 NW FETTERBUSH WAY, JENSEN BEACH, FL, 34957",614130913,"L"
665513,"483 OLD MILL DRIVE","GAHANNA","OH",43230,40.03510112,-82.863787336,13,"483 OLD MILL DRIVE, GAHANNA, OH, 43230","Match","Exact","483 OLD MILL DR, GAHANNA, OH, 43230",617923448,"R"
665514,"483 OLD WALNUT CIRCLE","GURNEE","IL",60031,42.3675456170001,-87.9851017509999,14,"483 OLD WALNUT CIRCLE, GURNEE, IL, 60031","Match","Exact","483 OLD WALNUT CIR, GURNEE, IL, 60031",119706286,"L"
665515,"483 PARIS HILL RD","PARIS","ME",4271,44.260414225,-70.5007884459999,15,"483 PARIS HILL RD, PARIS, ME, 4271","Match","Exact","483 PARIS HILL RD, PARIS, ME, 04271",92658321,"R"
665516,"483 PARKER AVE","HACKENSACK","NJ",7601,40.8844483710001,-74.063275384,16,"483 PARKER AVE, HACKENSACK, NJ, 7601","Match","Exact","483 PARKER AVE, HACKENSACK, NJ, 07601",64385314,"L"
665517,"483 PEBBLE CHASE LN","LAWRENCEVILLE","GA",30044,33.9378618760001,-84.056370691,17,"483 PEBBLE CHASE LN, LAWRENCEVILLE, GA, 30044","Match","Exact","483 PEBBLE CHASE LN, LAWRENCEVILLE, GA, 30044",624434880,"L"
665518,"483 PEBBLE ROAD","REYNOLDS","GA",31076,32.533216769,-84.159641159,18,"483 PEBBLE ROAD, REYNOLDS, GA, 31076","Match","Exact","483 PEBBLE RD, REYNOLDS, GA, 31076",30777166,"L"
665519,"483 QUICK SILVER DRIVE","WINSTON SALEM","NC",27127,36.001645866,-80.289225706,19,"483 QUICK SILVER DRIVE, WINSTON SALEM, NC, 27127","Match","Exact","483 QUICK SILVER DR, WINSTON SALEM, NC, 27127",624432059,"L"
665520,"483 RED MAPLE DR","MANDEVILLE","LA",70448,30.378318624,-90.035283597,20,"483 RED MAPLE DR, MANDEVILLE, LA, 70448","Match","Exact","483 RED MAPLE DR, MANDEVILLE, LA, 70448",111276915,"L"
665521,"483 RIVER STREET","NORWELL","MA",2061,42.1306892860001,-70.798112164,21,"483 RIVER STREET, NORWELL, MA, 2061","Match","Exact","483 RIVER ST, NORWELL, MA, 02061",87489089,"L"
665522,"483 S 600 W","WAYNETOWN","IN",47990,40.0333158660001,-87.016621403,22,"483 S 600 W, WAYNETOWN, IN, 47990","Match","Exact","483 S 600 W, WAYNETOWN, IN, 47990",29362408,"L"
665523,"483 S HUDSON","PASADENA","CA",91101,34.138061194,-118.133804633,23,"483 S HUDSON, PASADENA, CA, 91101","Match","Non_Exact","483 S HUDSON AVE, PASADENA, CA, 91101",652036117,"R"
665524,"483 S MAIN ST","GENEVA","NY",14456,42.863767178,-76.983964541,24,"483 S MAIN ST, GENEVA, NY, 14456","Match","Exact","483 S MAIN ST, GENEVA, NY, 14456",13482085,"R"
665525,"483 S ST NUMBER 18","CHULA VISTA","CA",91910,NA,NA,25,"483 S ST NUMBER 18, CHULA VISTA, CA, 91910","No_Match",NA,NA,NA,NA
665526,"483 SEILER RD","RIDGEDALE","MO",65739,36.510065293,-93.257908092,26,"483 SEILER RD, RIDGEDALE, MO, 65739","Match","Exact","483 SEILER RD, RIDGEDALE, MO, 65739",20186415,"R"
665527,"483 SHIRLEY AVE","BUFFALO","NY",14215,42.9441860740001,-78.806463439,27,"483 SHIRLEY AVE, BUFFALO, NY, 14215","Match","Exact","483 SHIRLEY AVE, BUFFALO, NY, 14215",48297127,"R"
665528,"483 SNYDER ROAD","READING","PA",19605,40.434466091,-75.92386177,28,"483 SNYDER ROAD, READING, PA, 19605","Match","Exact","483 SNYDER RD, READING, PA, 19605",639783003,"R"
665529,"483 SO BROADWAY APT 7","LAWRENCE","MA",1843,42.684051448,-71.155025528,29,"483 SO BROADWAY APT 7, LAWRENCE, MA, 1843","Match","Non_Exact","483 S BROADWAY, LAWRENCE, MA, 01843",86628859,"R"
665530,"483 SOUTH PKWY","CLIFTON","NJ",7014,40.8439129880001,-74.1422195279999,30,"483 SOUTH PKWY, CLIFTON, NJ, 7014","Match","Exact","483 SOUTH PKWY, CLIFTON, NJ, 07014",65251870,"L"
665531,"483 SPRING STREET","WINDSOR LOCKS","CT",6096,41.9319946970001,-72.661940171,31,"483 SPRING STREET, WINDSOR LOCKS, CT, 6096","Match","Exact","483 SPRING ST, WINDSOR LOCKS, CT, 06096",3526273,"R"
665532,"483 STRATTON AVENUE SW","NEW PHILADELPHIA","OH",44663,40.47235865,-81.457929227,32,"483 STRATTON AVENUE SW, NEW PHILADELPHIA, OH, 44663","Match","Exact","483 STRATTON AVE SW, NEW PHILADELPHIA, OH, 44663",44227305,"L"
665533,"483 SW KAUER DR","MCMINNVILLE","OR",97128,NA,NA,33,"483 SW KAUER DR, MCMINNVILLE, OR, 97128","No_Match",NA,NA,NA,NA
665534,"483 SWEET APPLE LANE","DAHLONEGA","GA",30533,34.582323306,-83.9869848019999,34,"483 SWEET APPLE LANE, DAHLONEGA, GA, 30533","Match","Exact","483 SWEET APPLE LN, DAHLONEGA, GA, 30533",619111238,"L"
665535,"483 TEAL DRIVE","PHENIX CITY","AL",36870,32.4798982090001,-85.065624449,35,"483 TEAL DRIVE, PHENIX CITY, AL, 36870","Match","Exact","483 TEAL DR, PHENIX CITY, AL, 36870",638610851,"L"
665536,"483 TEMPERANCE ST","FOND DU LAC","WI",54937,43.7924841820001,-88.460375311,36,"483 TEMPERANCE ST, FOND DU LAC, WI, 54937","Match","Exact","483 TEMPERANCE ST, FOND DU LAC, WI, 54937",74809986,"R"
665537,"483 TERRANOVA ST","WINTER HAVEN","FL",33884,NA,NA,37,"483 TERRANOVA ST, WINTER HAVEN, FL, 33884","No_Match",NA,NA,NA,NA
665538,"483 TURKEY CREEK ROAD","NEWNAN","GA",30263,33.353816228,-84.7697252999999,38,"483 TURKEY CREEK ROAD, NEWNAN, GA, 30263","Match","Exact","483 TURKEY CREEK RD, NEWNAN, GA, 30263",645783077,"L"
665539,"483 VALDAPENA WAY","ESCALON","CA",95320,37.7926113010001,-121.009446322,39,"483 VALDAPENA WAY, ESCALON, CA, 95320","Match","Exact","483 VALDAPENA WAY, ESCALON, CA, 95320",133864821,"R"
665540,"483 WALNUT ST","WESTERNPORT","MD",21562,39.49184403,-79.0460550879999,40,"483 WALNUT ST, WESTERNPORT, MD, 21562","Match","Exact","483 WALNUT ST, WESTERNPORT, MD, 21562",123323332,"L"
665541,"483 WEST ROAD","BRIDGETON","NJ",8302,39.45808479,-75.315516985,41,"483 WEST ROAD, BRIDGETON, NJ, 8302","Match","Exact","483 WEST RD, BRIDGETON, NJ, 08302",174106777,"L"
665542,"483 WHISPERING HILLS DR","LEXINGTON","KY",40517,37.9773065300001,-84.507584412,42,"483 WHISPERING HILLS DR, LEXINGTON, KY, 40517","Match","Exact","483 WHISPERING HILLS DR, LEXINGTON, KY, 40517",31938784,"L"
665543,"483 WILLOW STREET","HIGHSPIRE","PA",17034,40.2068532000001,-76.779808437,43,"483 WILLOW STREET, HIGHSPIRE, PA, 17034","Match","Exact","483 WILLOW ST, HIGHSPIRE, PA, 17034",70830510,"R"
665544,"483 YELLOW BRICK RD","CHASKA","MN",55318,44.79666962,-93.5929416609999,44,"483 YELLOW BRICK RD, CHASKA, MN, 55318","Match","Non_Exact","483 YELLOW BRICK CIR, CHASKA, MN, 55318",650646234,"R"
665545,"483 YOUNG NECK RD","MOBILE","AL",36608,30.700674168,-88.316911837,45,"483 YOUNG NECK RD, MOBILE, AL, 36608","Match","Exact","483 YOUNG NECK RD, MOBILE, AL, 36608",61962161,"L"
665546,"483","JOHNSTOWN","PA",15905,NA,NA,46,"483, JOHNSTOWN, PA, 15905","No_Match",NA,NA,NA,NA
665547,"4830 ARTISTIC CIRCLE","COLORADO SPRINGS","CO",80917,38.8888330190001,-104.737940201,47,"4830 ARTISTIC CIRCLE, COLORADO SPRINGS, CO, 80917","Match","Exact","4830 ARTISTIC CIR, COLORADO SPRINGS, CO, 80917",611263313,"L"
665548,"4830 BETHANY LN","HOUSTON","TX",77039,29.899953161,-95.3197398,48,"4830 BETHANY LN, HOUSTON, TX, 77039","Match","Exact","4830 BETHANY LN, HOUSTON, TX, 77039",96074550,"R"
665549,"4830 BROOKVIEW DRIVE","RUSSELLVILLE","TN",37860,36.214931951,-83.190730995,49,"4830 BROOKVIEW DRIVE, RUSSELLVILLE, TN, 37860","Match","Exact","4830 BROOKVIEW DR, RUSSELLVILLE, TN, 37860",634393751,"L"
665550,"4830 BROWNS MILL RD","LITHONIA","GA",30038,33.6785456970001,-84.190247374,50,"4830 BROWNS MILL RD, LITHONIA, GA, 30038","Match","Exact","4830 BROWNS MILL RD, LITHONIA, GA, 30038",615311799,"L"
665551,"4830 CALLERY CREEK DR","HOUSTON","TX",77053,29.5955449420001,-95.4528035449999,51,"4830 CALLERY CREEK DR, HOUSTON, TX, 77053","Match","Exact","4830 CALLERY CREEK DR, HOUSTON, TX, 77053",639260733,"R"
665552,"4830 CLOVERFIELD DR","PEARLAND","TX",77584,29.5508724430001,-95.341751576,52,"4830 CLOVERFIELD DR, PEARLAND, TX, 77584","Match","Exact","4830 CLOVERFIELD DR, PEARLAND, TX, 77584",116594533,"R"
665553,"4830 CLOVERFIELD","PEARLAND","TX",77584,29.5508724430001,-95.341751576,53,"4830 CLOVERFIELD, PEARLAND, TX, 77584","Match","Non_Exact","4830 CLOVERFIELD DR, PEARLAND, TX, 77584",116594533,"R"
665554,"4830 COASTAL AVE","BODEGA BAY","CA",94923,38.372588428,-123.075053952,54,"4830 COASTAL AVE, BODEGA BAY, CA, 94923","Match","Exact","4830 COASTAL AVE, BODEGA BAY, CA, 94923",67452280,"L"
665555,"4830 DUGGAR RD APT B","DAYTON","OH",45417,NA,NA,55,"4830 DUGGAR RD APT B, DAYTON, OH, 45417","No_Match",NA,NA,NA,NA
665556,"4830 E AMELIA AVE","PHOENIX","AZ",85018,33.493565346,-111.97711779,56,"4830 E AMELIA AVE, PHOENIX, AZ, 85018","Match","Exact","4830 E AMELIA AVE, PHOENIX, AZ, 85018",128220621,"L"
665557,"4830 E CRESTVIEW ST","FLAGSTAFF","AZ",86004,35.30505644,-111.5638668,57,"4830 E CRESTVIEW ST, FLAGSTAFF, AZ, 86004","Match","Exact","4830 E CRESTVIEW ST, FLAGSTAFF, AZ, 86004",188996348,"L"
665558,"4830 EASTWOOD STREET APT D","WICHITA","KS",67218,37.675789782,-97.2789480609999,58,"4830 EASTWOOD STREET APT D, WICHITA, KS, 67218","Match","Non_Exact","4830 E EASTWOOD ST, WICHITA, KS, 67218",115672756,"L"
665559,"4830 EGYPT CENTRAL RD","MEMPHIS","TN",38128,35.2420899730001,-89.9023850789999,59,"4830 EGYPT CENTRAL RD, MEMPHIS, TN, 38128","Match","Exact","4830 EGYPT CENTRAL RD, MEMPHIS, TN, 38128",607512986,"L"
665560,"4830 EGYPT CENTRAL ROAD","MEMPHIS","TN",38129,35.2420899730001,-89.9023850789999,60,"4830 EGYPT CENTRAL ROAD, MEMPHIS, TN, 38129","Match","Non_Exact","4830 EGYPT CENTRAL RD, MEMPHIS, TN, 38128",607512986,"L"
665561,"4830 FORD AVENUE NW","CEDAR RAPIDS","IA",52405,41.973679765,-91.73339889,61,"4830 FORD AVENUE NW, CEDAR RAPIDS, IA, 52405","Match","Exact","4830 FORD AVE NW, CEDAR RAPIDS, IA, 52405",17052999,"R"
665562,"4830 FORT TOTTEN DRIVE NE SUITE 201","WASHINGTON","DC",20011,38.9490546760001,-77.006356684,62,"4830 FORT TOTTEN DRIVE NE SUITE 201, WASHINGTON, DC, 20011","Match","Exact","4830 FORT TOTTEN DR NE, WASHINGTON, DC, 20011",649878180,"L"
665563,"4830 FRANCE AVE SO","EDINA","MN",55410,44.915517342,-93.329071612,63,"4830 FRANCE AVE SO, EDINA, MN, 55410","Match","Exact","4830 FRANCE AVE S, EDINA, MN, 55410",43627960,"R"
665564,"4830 HAWLEY DR","GENEVA","OH",44041,41.856238166,-80.93074889,64,"4830 HAWLEY DR, GENEVA, OH, 44041","Match","Exact","4830 HAWLEY DR, GENEVA, OH, 44041",624493680,"R"
665565,"4830 HERON POINTE DRIVE STE 805","TAMPA","FL",33616,27.873262321,-82.52849945,65,"4830 HERON POINTE DRIVE STE 805, TAMPA, FL, 33616","Match","Exact","4830 HERON POINTE DR, TAMPA, FL, 33616",611521819,"L"
665566,"4830 HIGHWAY 58","CHATTANOOGA","TN",37416,35.0918033780001,-85.183317656,66,"4830 HIGHWAY 58, CHATTANOOGA, TN, 37416","Match","Non_Exact","4830 STATE RTE 58, CHATTANOOGA, TN, 37416",605471576,"R"
665567,"4830 HUFFMAN ROAD","CYGNET","OH",43413,41.2230100300001,-83.592295816,67,"4830 HUFFMAN ROAD, CYGNET, OH, 43413","Match","Exact","4830 HUFFMAN RD, CYGNET, OH, 43413",38724806,"R"
665568,"4830 HUMBOLDT AVE","MINNEAPOLIS","MN",55430,NA,NA,68,"4830 HUMBOLDT AVE, MINNEAPOLIS, MN, 55430","No_Match",NA,NA,NA,NA
665569,"4830 HWY 260","LAKESIDE","AZ",85929,NA,NA,69,"4830 HWY 260, LAKESIDE, AZ, 85929","No_Match",NA,NA,NA,NA
665570,"4830 IMPERIAL DR","RICHTON PARK","IL",60471,41.477042673,-87.733772175,70,"4830 IMPERIAL DR, RICHTON PARK, IL, 60471","Match","Exact","4830 IMPERIAL DR, RICHTON PARK, IL, 60471",111708108,"R"
665571,"4830 INDIAN HILLS DRIVE APT 102","RACINE","WI",53406,42.746212982,-87.838274552,71,"4830 INDIAN HILLS DRIVE APT 102, RACINE, WI, 53406","Match","Exact","4830 INDIAN HILLS DR, RACINE, WI, 53406",77908521,"R"
665572,"4830 INNISBROOK CT APT 1008","MYRTLE BEACH","SC",29579,33.781822655,-78.9640647529999,72,"4830 INNISBROOK CT APT 1008, MYRTLE BEACH, SC, 29579","Match","Exact","4830 INNISBROOK CT, MYRTLE BEACH, SC, 29579",631381243,"R"
665573,"4830 JEFFERSON STREET NE","COLUMBIA HEIGHTS","MN",55421,45.056006046,-93.255100512,73,"4830 JEFFERSON STREET NE, COLUMBIA HEIGHTS, MN, 55421","Match","Exact","4830 JEFFERSON ST NE, COLUMBIA HEIGHTS, MN, 55421",97487896,"L"
665574,"4830 KIM DR","POCATELLO","ID",83204,42.816877204,-112.423679949,74,"4830 KIM DR, POCATELLO, ID, 83204","Match","Exact","4830 KIM DR, POCATELLO, ID, 83204",647652053,"L"
665575,"4830 LABRADOR LN","ORLANDO","FL",32818,28.603766626,-81.486069592,75,"4830 LABRADOR LN, ORLANDO, FL, 32818","Match","Exact","4830 LABRADOR LN, ORLANDO, FL, 32818",94342029,"L"
665576,"4830 LINE AVENUE NUMBER 120","SHREVEPORT","LA",71106,32.458011889,-93.7460506639999,76,"4830 LINE AVENUE NUMBER 120, SHREVEPORT, LA, 71106","Match","Exact","4830 LINE AVE, SHREVEPORT, LA, 71106",57440976,"R"
665577,"4830 MALTA STREET","LOS ANGELES","CA",90042,34.106767059,-118.206353585,77,"4830 MALTA STREET, LOS ANGELES, CA, 90042","Match","Exact","4830 MALTA ST, LOS ANGELES, CA, 90042",141614137,"R"
665578,"4830 MORGANS CREEK CT","CARMEL","IN",46033,39.9948037120001,-86.089244679,78,"4830 MORGANS CREEK CT, CARMEL, IN, 46033","Match","Exact","4830 MORGANS CREEK CT, CARMEL, IN, 46033",619762436,"L"
665579,"4830 MORTENSEN RD - UNIT 125","AMES","IA",50014,42.013116344,-93.685075761,79,"4830 MORTENSEN RD - UNIT 125, AMES, IA, 50014","Match","Exact","4830 MORTENSEN RD, AMES, IA, 50014",65957991,"L"
665580,"4830 N 30TH PLACE","PHOENIX","AZ",85016,33.5074901040001,-112.016766869,80,"4830 N 30TH PLACE, PHOENIX, AZ, 85016","Match","Exact","4830 N 30TH PL, PHOENIX, AZ, 85016",128219311,"L"
665581,"4830 N CHRISTIANA","CHICAGO","IL",60625,41.96920363,-87.712172896,81,"4830 N CHRISTIANA, CHICAGO, IL, 60625","Match","Non_Exact","4830 N CHRISTIANA AVE, CHICAGO, IL, 60625",605174445,"L"
665582,"4830 N LOUIS AVE","CHICAGO","IL",60625,NA,NA,82,"4830 N LOUIS AVE, CHICAGO, IL, 60625","No_Match",NA,NA,NA,NA
665583,"4830 N NEAL RANCH RD","KINGMAN","AZ",86401,35.2632180270001,-113.970100556,83,"4830 N NEAL RANCH RD, KINGMAN, AZ, 86401","Match","Non_Exact","4830 N NEAL RANCH RD, KINGMAN, AZ, 86409",638006172,"L"
665584,"4830 NW 43RD STREET APT J140","GAINESVILLE","FL",32606,29.6985053940001,-82.388908955,84,"4830 NW 43RD STREET APT J140, GAINESVILLE, FL, 32606","Match","Non_Exact","4830 NW 43 ST, GAINESVILLE, FL, 32606",647854809,"L"
665585,"4830 NW 43RD STREET STE I130","GAINESVILLE","FL",32606,29.6985053940001,-82.388908955,85,"4830 NW 43RD STREET STE I130, GAINESVILLE, FL, 32606","Match","Non_Exact","4830 NW 43 ST, GAINESVILLE, FL, 32606",647854809,"L"
665586,"4830 PALO DURO LANE","DALLAS","TX",75216,32.686026466,-96.8129502789999,86,"4830 PALO DURO LANE, DALLAS, TX, 75216","Match","Non_Exact","4830 PALODURO LN, DALLAS, TX, 75216",103191238,"L"
665587,"4830 PAULINE DRIVE","NEW ORLEANS","LA",70126,30.011237464,-90.031682964,87,"4830 PAULINE DRIVE, NEW ORLEANS, LA, 70126","Match","Exact","4830 PAULINE DR, NEW ORLEANS, LA, 70126",191705192,"L"
665588,"4830 PIPER LANE","RACINE","WI",53403,42.6742695570001,-87.822835206,88,"4830 PIPER LANE, RACINE, WI, 53403","Match","Exact","4830 PIPER LN, RACINE, WI, 53403",77918766,"L"
665589,"4830 PRIMROSE LANE","MURRYSVILLE","PA",15668,40.4311357400001,-79.6633844569999,89,"4830 PRIMROSE LANE, MURRYSVILLE, PA, 15668","Match","Exact","4830 PRIMROSE LN, MURRYSVILLE, PA, 15668",53006354,"R"
665590,"4830 RAY BON DR","SAN ANTONIO","TX",78218,29.4923693970001,-98.386207842,90,"4830 RAY BON DR, SAN ANTONIO, TX, 78218","Match","Exact","4830 RAY BON DR, SAN ANTONIO, TX, 78218",101502472,"R"
665591,"4830 RAYMOND RD","JACKSON","MS",39212,32.247907409,-90.312900568,91,"4830 RAYMOND RD, JACKSON, MS, 39212","Match","Exact","4830 RAYMOND RD, JACKSON, MS, 39212",611223114,"R"
665592,"4830 RIVER GREEN PKWY","DULUTH","GA",30096,34.013677171,-84.16693228,92,"4830 RIVER GREEN PKWY, DULUTH, GA, 30096","Match","Non_Exact","4830 RIVER GREEN PKWY NW, DULUTH, GA, 30096",88943572,"L"
665593,"4830 ROCKVALE DR","KISSIMMEE","FL",34758,28.2191904520001,-81.4720727869999,93,"4830 ROCKVALE DR, KISSIMMEE, FL, 34758","Match","Exact","4830 ROCKVALE DR, KISSIMMEE, FL, 34758",650593541,"L"
665594,"4830 SAFARI","EAGAN","MN",55122,44.781450061,-93.203596945,94,"4830 SAFARI, EAGAN, MN, 55122","Match","Non_Exact","4830 SAFARI PASS, EAGAN, MN, 55122",37905787,"L"
665595,"4830 SAGITTARIUS CIRCLE","DENVER","NC",28037,35.556604668,-81.0538910449999,95,"4830 SAGITTARIUS CIRCLE, DENVER, NC, 28037","Match","Exact","4830 SAGITTARIUS CIR, DENVER, NC, 28037",638679878,"R"
665596,"4830 SEQUOIA PARK LN","KATY","TX",77494,29.720820019,-95.84214023,96,"4830 SEQUOIA PARK LN, KATY, TX, 77494","Match","Exact","4830 SEQUOIA PARK LN, KATY, TX, 77494",642954344,"L"
665597,"4830 SHADY KNOLL NW","MASSILLON","OH",44646,40.8510922780001,-81.502723942,97,"4830 SHADY KNOLL NW, MASSILLON, OH, 44646","Match","Non_Exact","4830 SHADY KNOLL AVE NW, MASSILLON, OH, 44646",642487323,"R"
665598,"4830 SOUTH 69TH STREET","LINCOLN","NE",68516,40.7650295660001,-96.627197374,98,"4830 SOUTH 69TH STREET, LINCOLN, NE, 68516","Match","Exact","4830 S 69TH ST, LINCOLN, NE, 68516",28261412,"L"
665599,"4830 THOMASBROOK LANE","LINCOLN","NE",68516,40.76501619,-96.61993836,99,"4830 THOMASBROOK LANE, LINCOLN, NE, 68516","Match","Exact","4830 THOMASBROOK LN, LINCOLN, NE, 68516",640632664,"L"
665600,"4830 TIMBERLINE DRIVE","WEST DES MOINES","IA",50265,41.552420711,-93.768313463,100,"4830 TIMBERLINE DRIVE, WEST DES MOINES, IA, 50265","Match","Exact","4830 TIMBERLINE DR, W DES MOINES, IA, 50265",65852423,"R"
665601,"4830 US 62","HILLSBORO","OH",45133,39.1425554140001,-83.666353784,101,"4830 US 62, HILLSBORO, OH, 45133","Match","Non_Exact","4830 US HWY 62, HILLSBORO, OH, 45133",641179760,"R"
665602,"4830 VALOR WAY","MADISON","WI",53718,43.027291303,-89.2951319269999,102,"4830 VALOR WAY, MADISON, WI, 53718","Match","Exact","4830 VALOR WAY, MADISON, WI, 53718",639591664,"L"
665603,"4830 W BAY VILLA DRIVE","TAMPA","FL",33611,27.9080954890001,-82.529116066,103,"4830 W BAY VILLA DRIVE, TAMPA, FL, 33611","Match","Non_Exact","4830 W BAY VILLA AVE, TAMPA, FL, 33611",104571892,"L"
665604,"4830 W TRAIL AVE","WEST VALLEY CTIY","UT",84120,40.68424049,-112.00631394,104,"4830 W TRAIL AVE, WEST VALLEY CTIY, UT, 84120","Match","Non_Exact","4830 TRAIL AVE, WEST VALLEY CITY, UT, 84120",176069387,"R"
665605,"4830 WALTON AVENUE","PHILADELPHIA","PA",19143,39.9488979990001,-75.219792162,105,"4830 WALTON AVENUE, PHILADELPHIA, PA, 19143","Match","Exact","4830 WALTON AVE, PHILADELPHIA, PA, 19143",131399869,"L"
665606,"4830 WEST WAPATO RD","WAPATO","WA",98951,46.4482391180001,-120.529669196,106,"4830 WEST WAPATO RD, WAPATO, WA, 98951","Match","Exact","4830 W WAPATO RD, WAPATO, WA, 98951",184903334,"R"
665607,"4830 WILSON RD UNIT 58","HUMBLE","TX",77396,29.936659392,-95.249569852,107,"4830 WILSON RD UNIT 58, HUMBLE, TX, 77396","Match","Exact","4830 WILSON RD, HUMBLE, TX, 77396",642107939,"L"
665608,"48301 PRAIRIE COVE ROAD","KASOTA","MN",56050,44.2498073890001,-93.977150541,108,"48301 PRAIRIE COVE ROAD, KASOTA, MN, 56050","Match","Exact","48301 PRAIRIE COVE RD, KASOTA, MN, 56050",28652878,"R"
665609,"48303 20TH ST WEST SPACE 208","LANCASTER","CA",93534,34.752346367,-118.16658901,109,"48303 20TH ST WEST SPACE 208, LANCASTER, CA, 93534","Match","Exact","48303 20TH ST W, LANCASTER, CA, 93534",141847625,"R"
665610,"48303 N 20TH STREET WEST","LANCASTER","CA",93534,34.752346367,-118.16658901,110,"48303 N 20TH STREET WEST, LANCASTER, CA, 93534","Match","Exact","48303 20TH ST W, LANCASTER, CA, 93534",141847625,"R"
665611,"48304 254TH STREET","GARRETSON","SD",57030,43.7028600830001,-96.550294735,111,"48304 254TH STREET, GARRETSON, SD, 57030","Match","Exact","48304 254TH ST, GARRETSON, SD, 57030",34964061,"R"
665612,"48305 ANNA LIVIA","GRAND BEACH","MI",49117,41.7697105980001,-86.792126265,112,"48305 ANNA LIVIA, GRAND BEACH, MI, 49117","Match","Non_Exact","48305 ANNA LIVIA WAY, GRAND BEACH, MI, 49117",119989684,"R"
665613,"48309 TECUMSEH DR","MACOMB","MI",48044,42.6526040360001,-82.922577141,113,"48309 TECUMSEH DR, MACOMB, MI, 48044","Match","Exact","48309 TECUMSEH DR, MACOMB, MI, 48044",650915124,"L"
665614,"4831  SACRAMENTO","ST LOUIS","MO",63115,38.6751030230001,-90.2465445349999,114,"4831  SACRAMENTO, ST LOUIS, MO, 63115","Match","Non_Exact","4831 SACRAMENTO AVE, SAINT LOUIS, MO, 63115",605100140,"R"
665615,"4831 11TH AVENUE","COLUMBUS","GA",31904,32.511729938,-84.974551207,115,"4831 11TH AVENUE, COLUMBUS, GA, 31904","Match","Exact","4831 11TH AVE, COLUMBUS, GA, 31904",98936240,"L"
665616,"4831 11TH STREET","LUBBOCK","TX",79416,33.5861268520001,-101.915283366,116,"4831 11TH STREET, LUBBOCK, TX, 79416","Match","Exact","4831 11TH ST, LUBBOCK, TX, 79416",185250430,"L"
665617,"4831 36TH ST NW APT 212","WASHINGTON","DC",20008,38.95272428,-77.0698345819999,117,"4831 36TH ST NW APT 212, WASHINGTON, DC, 20008","Match","Exact","4831 36TH ST NW, WASHINGTON, DC, 20008",611108984,"R"
665618,"4831 AVON LANE","JACKSONVILLE","FL",32210,30.2598183060001,-81.708510847,118,"4831 AVON LANE, JACKSONVILLE, FL, 32210","Match","Exact","4831 AVON LN, JACKSONVILLE, FL, 32210",83913935,"R"
665619,"4831 BAYVIEW LANE","EVERETT","WA",98258,47.9544506460001,-122.264472956,119,"4831 BAYVIEW LANE, EVERETT, WA, 98258","Match","Non_Exact","4831 BAYVIEW LN, EVERETT, WA, 98203",187815468,"L"
665620,"4831 BIRCH ACRES RD","OSCODA","MI",48750,44.51909835,-83.356495292,120,"4831 BIRCH ACRES RD, OSCODA, MI, 48750","Match","Exact","4831 BIRCH ACRES RD, OSCODA, MI, 48750",135880793,"R"
665621,"4831 BIRCH ACRES ROAD","OSCODA","MI",48750,44.51909835,-83.356495292,121,"4831 BIRCH ACRES ROAD, OSCODA, MI, 48750","Match","Exact","4831 BIRCH ACRES RD, OSCODA, MI, 48750",135880793,"R"
665622,"4831 BRIDGE LN","MASON","OH",45040,39.3334921310001,-84.327916966,122,"4831 BRIDGE LN, MASON, OH, 45040","Match","Exact","4831 BRIDGE LN, MASON, OH, 45040",623811954,"R"
665623,"4831 BUCKS BLUFF DRIVE","NORTH MYRTLE BEACH","SC",29582,33.846013423,-78.6234401789999,123,"4831 BUCKS BLUFF DRIVE, NORTH MYRTLE BEACH, SC, 29582","Match","Exact","4831 BUCKS BLUFF DR, N MYRTLE BCH, SC, 29582",29083949,"L"
665624,"4831 CLOVE DRIVE SOUTHWEST","MABLETON","GA",30126,33.8414880500001,-84.605121777,124,"4831 CLOVE DRIVE SOUTHWEST, MABLETON, GA, 30126","Match","Exact","4831 CLOVE DR SW, MABLETON, GA, 30126",17267268,"R"
665625,"4831 COLUMBIA ROAD","ORANGEBURG","SC",29118,33.5761808510001,-80.864549691,125,"4831 COLUMBIA ROAD, ORANGEBURG, SC, 29118","Match","Non_Exact","4831 COLUMBIA RD NE, ORANGEBURG, SC, 29118",605537819,"L"
665626,"4831 COUNTY ROAD 2445","HIGBEE","MO",65257,39.32799055,-92.52870305,126,"4831 COUNTY ROAD 2445, HIGBEE, MO, 65257","Match","Exact","4831 CO RD 2445, HIGBEE, MO, 65257",607787005,"L"
665627,"4831 DEXTER","CASPER","WY",82609,42.828960566,-106.257407626,127,"4831 DEXTER, CASPER, WY, 82609","Match","Exact","4831 DEXTER, CASPER, WY, 82609",149035656,"R"
665628,"4831 DONNA STREET","NORTH LAS VEGAS","NV",89081,36.247694047,-115.130289908,128,"4831 DONNA STREET, NORTH LAS VEGAS, NV, 89081","Match","Exact","4831 DONNA ST, N LAS VEGAS, NV, 89081",201991439,"L"
665629,"4831 E CLINTON AVE","FRESNO","CA",93703,36.772246916,-119.734934471,129,"4831 E CLINTON AVE, FRESNO, CA, 93703","Match","Exact","4831 E CLINTON AVE, FRESNO, CA, 93703",197577838,"L"
665630,"4831 E GARY ST","MESA","AZ",85205,33.4394836010001,-111.726534943,130,"4831 E GARY ST, MESA, AZ, 85205","Match","Exact","4831 E GARY ST, MESA, AZ, 85205",128937470,"R"
665631,"4831 EAST AUGUSTA AVE","CHANDLER","AZ",85249,33.2183048360001,-111.759143518,131,"4831 EAST AUGUSTA AVE, CHANDLER, AZ, 85249","Match","Exact","4831 E AUGUSTA AVE, CHANDLER, AZ, 85249",128854834,"R"
665632,"4831 GARDEN SPRING LN","GLEN ALLEN","VA",23059,37.6682264830001,-77.5955235659999,132,"4831 GARDEN SPRING LN, GLEN ALLEN, VA, 23059","Match","Exact","4831 GARDEN SPRING LN, GLEN ALLEN, VA, 23059",627265125,"R"
665633,"4831 HEIGHTS DRIV","RAPID CITY","SD",57702,44.0537500020001,-103.28383641,133,"4831 HEIGHTS DRIV, RAPID CITY, SD, 57702","Match","Exact","4831 HEIGHTS DR, RAPID CITY, SD, 57702",205507035,"L"
665634,"4831 HIGHPOINT DR NE","MARIETTA","GA",30066,34.0702531330001,-84.489361241,134,"4831 HIGHPOINT DR NE, MARIETTA, GA, 30066","Match","Exact","4831 HIGHPOINT DR NE, MARIETTA, GA, 30066",17168592,"L"
665635,"4831 HUTCHINSON ST","PHILADELPHIA","PA",19141,40.0256522920001,-75.13971789,135,"4831 HUTCHINSON ST, PHILADELPHIA, PA, 19141","Match","Non_Exact","4831 N HUTCHINSON ST, PHILADELPHIA, PA, 19141",131417397,"R"
665636,"4831 INTEGRITY STREET","NORTH LAS VEGAS","NV",89301,36.2477182040001,-115.176134613,136,"4831 INTEGRITY STREET, NORTH LAS VEGAS, NV, 89301","Match","Non_Exact","4831 INTEGRITY ST, N LAS VEGAS, NV, 89031",201951645,"L"
665637,"4831 LETSON ST","BRIGHTON","AL",35020,33.4408559710001,-86.949990568,137,"4831 LETSON ST, BRIGHTON, AL, 35020","Match","Exact","4831 LETSON ST, BRIGHTON, AL, 35020",81547727,"R"
665638,"4831 MENDEZ","NEW ORLEANS","LA",70126,30.017755193,-90.036369431,138,"4831 MENDEZ, NEW ORLEANS, LA, 70126","Match","Non_Exact","4831 MENDEZ ST, NEW ORLEANS, LA, 70126",191704666,"L"
665639,"4831 N HAMILTON STREET","CHICAGO","IL",60625,41.9696372560001,-87.68288474,139,"4831 N HAMILTON STREET, CHICAGO, IL, 60625","Match","Non_Exact","4831 N HAMILTON AVE, CHICAGO, IL, 60625",605184875,"R"
665640,"4831 N KENMORE RD","INDIANAPOLIS","IN",46226,39.8433489500001,-86.0582684939999,140,"4831 N KENMORE RD, INDIANAPOLIS, IN, 46226","Match","Exact","4831 N KENMORE RD, INDIANAPOLIS, IN, 46226",107997417,"R"
665641,"4831 N MULLIGAN AVE","CHICAGO","IL",60630,41.969346525,-87.786766988,141,"4831 N MULLIGAN AVE, CHICAGO, IL, 60630","Match","Exact","4831 N MULLIGAN AVE, CHICAGO, IL, 60630",605180764,"R"
665642,"4831 OHU RD","KAPAA","HI",96746,22.0899777170001,-159.321879795,142,"4831 OHU RD, KAPAA, HI, 96746","Match","Exact","4831 OHU RD, KAPAA, HI, 96746",203403957,"L"
665643,"4831 OLYMPIC DRIVE","WICHITA FALLS","TX",76310,33.851597762,-98.587154616,143,"4831 OLYMPIC DRIVE, WICHITA FALLS, TX, 76310","Match","Exact","4831 OLYMPIC DR, WICHITA FALLS, TX, 76310",624313086,"R"
665644,"4831 OSBORN GLADE","SAN ANTONIO","TX",78247,29.5993207240001,-98.393500382,144,"4831 OSBORN GLADE, SAN ANTONIO, TX, 78247","Match","Exact","4831 OSBORN GLADE, SAN ANTONIO, TX, 78247",627222365,"L"
665645,"4831 PANAMA LN A1","BAKERSFIELD","CA",93313,35.2959498050001,-119.055813158,145,"4831 PANAMA LN A1, BAKERSFIELD, CA, 93313","Match","Exact","4831 PANAMA LN, BAKERSFIELD, CA, 93313",640632703,"L"
665646,"4831 S 162ND E AVE","TULSA","OK",74134,36.093953792,-95.79673332,146,"4831 S 162ND E AVE, TULSA, OK, 74134","Match","Exact","4831 S 162ND E AVE, TULSA, OK, 74134",624660041,"L"
665647,"4831 S BOHLEBER RD","EVANSVILLE","IN",47712,NA,NA,147,"4831 S BOHLEBER RD, EVANSVILLE, IN, 47712","Tie",NA,NA,NA,NA
665648,"4831 S GRAMERCY PLACE","LOS ANGELES","CA",90062,33.998923242,-118.313832157,148,"4831 S GRAMERCY PLACE, LOS ANGELES, CA, 90062","Match","Exact","4831 S GRAMERCY PL, LOS ANGELES, CA, 90062",141606463,"R"
665649,"4831 SAPONI VILLAGE TRAIL","WINSTON-SALEM","NC",27127,36.0102717170001,-80.2823042059999,149,"4831 SAPONI VILLAGE TRAIL, WINSTON-SALEM, NC, 27127","Match","Exact","4831 SAPONI VILLAGE TRL, WINSTON SALEM, NC, 27127",84639199,"L"
665650,"4831 SOUTH INDIANA","CHICAGO","IL",60615,41.8068781900001,-87.621139668,150,"4831 SOUTH INDIANA, CHICAGO, IL, 60615","Match","Non_Exact","4831 S INDIANA AVE, CHICAGO, IL, 60615",111770644,"L"
665651,"4831 STATE HIGHWAY 95","TEMPLE","TX",76502,31.044504793,-97.332418998,151,"4831 STATE HIGHWAY 95, TEMPLE, TX, 76502","Match","Exact","4831 STATE HWY 95, TEMPLE, TX, 76502",146202222,"R"
665652,"4831 STONEBRIDGE DR","GIBSONIA","PA",15044,40.59746505,-79.95485453,152,"4831 STONEBRIDGE DR, GIBSONIA, PA, 15044","Match","Exact","4831 STONEBRIDGE DR, GIBSONIA, PA, 15044",646562456,"L"
665653,"4831 SW 205TH AVENUE","SOUTHWEST RANCHES","FL",33332,26.0595518530001,-80.422628816,153,"4831 SW 205TH AVENUE, SOUTHWEST RANCHES, FL, 33332","Match","Exact","4831 SW 205TH AVE, SOUTHWEST RANCHES, FL, 33332",114696651,"R"
665654,"4831 W 85TH ST","BURBANK","IL",60459,NA,NA,154,"4831 W 85TH ST, BURBANK, IL, 60459","Tie",NA,NA,NA,NA
665655,"4831 W AVENIDA DEL REY","PHOENIX","AZ",85083,33.7168092410001,-112.163731777,155,"4831 W AVENIDA DEL REY, PHOENIX, AZ, 85083","Match","Exact","4831 W AVE DEL REY, PHOENIX, AZ, 85083",128913555,"R"
665656,"4831 W MOORHEAD CIR","BOULDER","CO",80305,39.979385119,-105.236357227,156,"4831 W MOORHEAD CIR, BOULDER, CO, 80305","Match","Exact","4831 W MOORHEAD CIR, BOULDER, CO, 80305",188209726,"L"
665657,"4831 W WICKFORD","BLOOMFIELD HILLS","MI",48302,42.5676463790001,-83.2894525839999,157,"4831 W WICKFORD, BLOOMFIELD HILLS, MI, 48302","Match","Exact","4831 W WICKFORD, BLOOMFIELD HILLS, MI, 48302",69795893,"L"
665658,"48310 144TH AVE E","EATONVILLE","WA",98328,46.8176546670001,-122.242760569,158,"48310 144TH AVE E, EATONVILLE, WA, 98328","Match","Exact","48310 144TH AVE E, EATONVILLE, WA, 98328",184710379,"L"
665659,"48314 852 RD","CHAMBERS","NE",68725,42.17556483,-98.8261875869999,159,"48314 852 RD, CHAMBERS, NE, 68725","Match","Exact","48314 852ND RD, CHAMBERS, NE, 68725",167147325,"L"
665660,"48318 TELEGRAPH RD","AMHERST","OH",44001,NA,NA,160,"48318 TELEGRAPH RD, AMHERST, OH, 44001","Tie",NA,NA,NA,NA
665661,"48319 STAPLETON","MACOMB","MI",48042,42.6540747710001,-82.868970664,161,"48319 STAPLETON, MACOMB, MI, 48042","Match","Non_Exact","48319 STAPLETON AVE, MACOMB, MI, 48042",650695111,"L"
665662,"4832 ALPHONSE","METAIRIE","LA",70006,30.0236667070001,-90.1950403769999,162,"4832 ALPHONSE, METAIRIE, LA, 70006","Match","Non_Exact","4832 ALPHONSE DR, METAIRIE, LA, 70006",93497105,"L"
665663,"4832 DELAWARE STREET","GARY","IN",46409,41.530598813,-87.331323115,163,"4832 DELAWARE STREET, GARY, IN, 46409","Match","Exact","4832 DELAWARE ST, GARY, IN, 46409",98434116,"R"
665664,"4832 E 131ST PL","THORNTON","CO",80241,39.9329561420001,-104.931800996,164,"4832 E 131ST PL, THORNTON, CO, 80241","Match","Exact","4832 E 131ST PL, THORNTON, CO, 80241",177414284,"L"
665665,"4832 EAST 131ST PLACE","THORNTON","CO",80241,39.9329633360001,-104.931798544,165,"4832 EAST 131ST PLACE, THORNTON, CO, 80241","Match","Exact","4832 E 131ST PL, THORNTON, CO, 80241",177414284,"L"
665666,"4832 EAST WOODLAND DRIVE832 EAST WO","PORT CLINTON","OH",43452,41.5709649620001,-82.8430926359999,166,"4832 EAST WOODLAND DRIVE832 EAST WO, PORT CLINTON, OH, 43452","Match","Non_Exact","4832 E WOODLAND DR, PORT CLINTON, OH, 43452",44062320,"L"
665667,"4832 ECHO RIDGE DRIVE","EAGLE RIVER","WI",54521,45.831606719,-89.377507787,167,"4832 ECHO RIDGE DRIVE, EAGLE RIVER, WI, 54521","Match","Exact","4832 ECHO RIDGE DR, EAGLE RIVER, WI, 54521",196637176,"R"
665668,"4832 ESCAPARDO WAY","COLORADO SPRINGS","CO",80917,38.8720671830001,-104.738169088,168,"4832 ESCAPARDO WAY, COLORADO SPRINGS, CO, 80917","Match","Exact","4832 ESCAPARDO WAY, COLORADO SPRINGS, CO, 80917",105521985,"L"
665669,"4832 HEADWIND DRIVE","FAYETTEVILLE","NC",28306,34.9576983360001,-78.8463912939999,169,"4832 HEADWIND DRIVE, FAYETTEVILLE, NC, 28306","Match","Exact","4832 HEADWIND DR, FAYETTEVILLE, NC, 28306",64270609,"L"
665670,"4832 HIGHWAY 73","ATCHISON","KS",66002,39.504072105,-95.132773734,170,"4832 HIGHWAY 73, ATCHISON, KS, 66002","Match","Non_Exact","4832 US HWY 73, ATCHISON, KS, 66002",10064468,"L"
665671,"4832 HIGHWAY D","DEFIANCE","MO",63341,NA,NA,171,"4832 HIGHWAY D, DEFIANCE, MO, 63341","No_Match",NA,NA,NA,NA
665672,"4832 Home Avenue","San Diego","CA",92105,32.7361946010001,-117.092352545,172,"4832 Home Avenue, San Diego, CA, 92105","Match","Exact","4832 HOME AVE, SAN DIEGO, CA, 92105",195350477,"L"
665673,"4832 HOME AVENUE","San Diego","CA",92105,32.7361946010001,-117.092352545,173,"4832 HOME AVENUE, San Diego, CA, 92105","Match","Exact","4832 HOME AVE, SAN DIEGO, CA, 92105",195350477,"L"
665674,"4832 HUNT CLUB DRIVE","FLOWERY BRANCH","GA",30542,34.169472516,-83.8894215239999,174,"4832 HUNT CLUB DRIVE, FLOWERY BRANCH, GA, 30542","Match","Exact","4832 HUNT CLUB DR, FLOWERY BR, GA, 30542",629420358,"R"
665675,"4832 HWY 73","ATCHISON","KS",66002,39.504072105,-95.132773734,175,"4832 HWY 73, ATCHISON, KS, 66002","Match","Non_Exact","4832 US HWY 73, ATCHISON, KS, 66002",10064468,"L"
665676,"4832 MOUNTAIN SPRINGS COURT","RAPID CITY","SD",57702,NA,NA,176,"4832 MOUNTAIN SPRINGS COURT, RAPID CITY, SD, 57702","Tie",NA,NA,NA,NA
665677,"4832 NANNIE HELEN BURROUGHS AVENUE","WASHINGTON","DC",20019,38.898855772,-76.93303056,177,"4832 NANNIE HELEN BURROUGHS AVENUE, WASHINGTON, DC, 20019","Match","Non_Exact","4832 NANNIE HELEN BURROUGHS AVE NE, WASHINGTON, DC, 20019",76243572,"L"
665678,"4832 NE CLEVELAND AVENUE","PORTLAND","OR",97211,45.55796917,-122.665634019,178,"4832 NE CLEVELAND AVENUE, PORTLAND, OR, 97211","Match","Exact","4832 NE CLEVELAND AVE, PORTLAND, OR, 97211",157563469,"R"
665679,"4832 NORTHRIDGE CT NE","ALBUQUERQUE","NM",87109,35.135501741,-106.557418264,179,"4832 NORTHRIDGE CT NE, ALBUQUERQUE, NM, 87109","Match","Exact","4832 NORTHRIDGE CT NE, ALBUQUERQUE, NM, 87109",206713518,"R"
665680,"4832 PORTER CIRCLE","ALEXANDRIA","LA",71303,31.287247462,-92.498012199,180,"4832 PORTER CIRCLE, ALEXANDRIA, LA, 71303","Match","Exact","4832 PORTER CIR, ALEXANDRIA, LA, 71303",11814213,"L"
665681,"4832 SISKIYOU LOOP SE","OLYMPIA","WA",98501,47.0039619710001,-122.860491457,181,"4832 SISKIYOU LOOP SE, OLYMPIA, WA, 98501","Match","Exact","4832 SISKIYOU LOOP SE, OLYMPIA, WA, 98501",180975442,"L"
665682,"4832 SOUTH DORCHESTER","CHICAGO","IL",60615,41.807069669,-87.591940211,182,"4832 SOUTH DORCHESTER, CHICAGO, IL, 60615","Match","Non_Exact","4832 S DORCHESTER AVE, CHICAGO, IL, 60615",611257720,"R"
665683,"4832 SOUTH FIFTH ST","GRAND RAPIDS","MI",49503,NA,NA,183,"4832 SOUTH FIFTH ST, GRAND RAPIDS, MI, 49503","No_Match",NA,NA,NA,NA
665684,"4832 STONE GATE BLVD","AKRON","OH",44333,41.176741135,-81.678144377,184,"4832 STONE GATE BLVD, AKRON, OH, 44333","Match","Exact","4832 STONE GATE BLVD, AKRON, OH, 44333",61378592,"R"
665685,"4832 TOMAHAWK CT SW","LILBURN","GA",30047,33.8135776500001,-84.08686392,185,"4832 TOMAHAWK CT SW, LILBURN, GA, 30047","Match","Exact","4832 TOMAHAWK CT SW, LILBURN, GA, 30047",88931372,"R"
665686,"4832 TOMAHAWK CT","LILBURN","GA",30087,NA,NA,186,"4832 TOMAHAWK CT, LILBURN, GA, 30087","No_Match",NA,NA,NA,NA
665687,"4832 W KALAMO","CHARLOTTE","MI",48813,42.538834869,-84.9324864439999,187,"4832 W KALAMO, CHARLOTTE, MI, 48813","Match","Non_Exact","4832 W KALAMO HWY, CHARLOTTE, MI, 48813",12029684,"L"
665688,"4832 WAYNE MADISON RD","TRENTON","OH",45067,NA,NA,188,"4832 WAYNE MADISON RD, TRENTON, OH, 45067","No_Match",NA,NA,NA,NA
665689,"4832 WEAVER ROAD","LAKE CHARLES","LA",70605,30.1699158120001,-93.257697023,189,"4832 WEAVER ROAD, LAKE CHARLES, LA, 70605","Match","Exact","4832 WEAVER RD, LAKE CHARLES, LA, 70605",88450405,"R"
665690,"48320 DE LUZ ROAD","TEMECULA","CA",92590,NA,NA,190,"48320 DE LUZ ROAD, TEMECULA, CA, 92590","No_Match",NA,NA,NA,NA
665691,"48322 FAR CRY ROAD","LEXINGTON PARK","MD",20653,38.2282777730001,-76.401047381,191,"48322 FAR CRY ROAD, LEXINGTON PARK, MD, 20653","Match","Exact","48322 FAR CRY RD, LEXINGTON PARK, MD, 20653",36628708,"R"
665692,"4833 BEREWICK TOWN CENTER DR UNIT","CHARLOTTE","NC",28278,35.161767163,-80.9726782119999,192,"4833 BEREWICK TOWN CENTER DR UNIT, CHARLOTTE, NC, 28278","Match","Exact","4833 BEREWICK TOWN CENTER DR, CHARLOTTE, NC, 28278",648376566,"L"
665693,"4833 BEREWICK TOWN CTR DR UNIT E176","CHARLOTTE","NC",28278,35.161767163,-80.9726782119999,193,"4833 BEREWICK TOWN CTR DR UNIT E176, CHARLOTTE, NC, 28278","Match","Exact","4833 BEREWICK TOWN CENTER DR, CHARLOTTE, NC, 28278",648376566,"L"
665694,"4833 BROWNDEER LANE","RCH PALOS VRD","CA",90275,33.7777214560001,-118.364873035,194,"4833 BROWNDEER LANE, RCH PALOS VRD, CA, 90275","Match","Exact","4833 BROWNDEER LN, RCH PALOS VRD, CA, 90275",627584411,"R"
665695,"4833 CHARLOTTE CT NE","ALBUQUERQUE","NM",87109,35.135693642,-106.555392918,195,"4833 CHARLOTTE CT NE, ALBUQUERQUE, NM, 87109","Match","Exact","4833 CHARLOTTE CT NE, ALBUQUERQUE, NM, 87109",206713531,"L"
665696,"4833 CLAIRMONT AVENUE","BIRMINGHAM","AL",35222,33.5164920890001,-86.758637218,196,"4833 CLAIRMONT AVENUE, BIRMINGHAM, AL, 35222","Match","Exact","4833 CLAIRMONT AVE, BIRMINGHAM, AL, 35222",81579773,"R"
665697,"4833 DENNY AVE","NORTH HOLLYWOOD","CA",91601,34.158708281,-118.364793706,197,"4833 DENNY AVE, NORTH HOLLYWOOD, CA, 91601","Match","Exact","4833 DENNY AVE, N HOLLYWOOD, CA, 91601",141591897,"L"
665698,"4833 DIXON ST","NEW ORLEANS","LA",39503,29.9629346460001,-90.103822438,198,"4833 DIXON ST, NEW ORLEANS, LA, 39503","Match","Non_Exact","4833 DIXON ST, NEW ORLEANS, LA, 70125",191707183,"R"
665699,"4833 E 1250 S","HEBER CITY","UT",84032,40.4920376160001,-111.337565413,199,"4833 E 1250 S, HEBER CITY, UT, 84032","Match","Exact","4833 1250 S, HEBER CITY, UT, 84032",177197464,"L"
665700,"4833 ELKRIDGE DRIVE","RANCHO PALOS VERDES","CA",90275,33.7732746680001,-118.362371913,200,"4833 ELKRIDGE DRIVE, RANCHO PALOS VERDES, CA, 90275","Match","Exact","4833 ELKRIDGE DR, RANCHO PALOS VERDES, CA, 90275",627584549,"R"
665701,"4833 ENOCH DR","NASHVILLE","TN",37211,36.044555062,-86.730217125,201,"4833 ENOCH DR, NASHVILLE, TN, 37211","Match","Exact","4833 ENOCH DR, NASHVILLE, TN, 37211",97227925,"L"
665702,"4833 ESCOBEDO DR","WOODLAND HILLS","CA",91364,34.157798192,-118.589027277,202,"4833 ESCOBEDO DR, WOODLAND HILLS, CA, 91364","Match","Exact","4833 ESCOBEDO DR, WOODLAND HILLS, CA, 91364",141535744,"L"
665703,"4833 FRONT STREET UNITB118","CASTLE ROCK","CO",80104,39.403085048,-104.862303449,203,"4833 FRONT STREET UNITB118, CASTLE ROCK, CO, 80104","Match","Exact","4833 FRONT ST, CASTLE ROCK, CO, 80104",651705308,"L"
665704,"4833 HATHAWAY ROAD","LEBANON","OH",45036,39.5058788790001,-84.169531158,204,"4833 HATHAWAY ROAD, LEBANON, OH, 45036","Match","Exact","4833 HATHAWAY RD, LEBANON, OH, 45036",641179410,"R"
665705,"4833 HATHAWAY","LEBANON","OH",45036,39.5058788790001,-84.169531158,205,"4833 HATHAWAY, LEBANON, OH, 45036","Match","Non_Exact","4833 HATHAWAY RD, LEBANON, OH, 45036",641179410,"R"
665706,"4833 HEDGEROW DR","RALEIGH","NC",27616,35.8673891540001,-78.560594556,206,"4833 HEDGEROW DR, RALEIGH, NC, 27616","Match","Exact","4833 HEDGEROW DR, RALEIGH, NC, 27616",72625846,"L"
665707,"4833 HOPEDALE DR","ANTIOCH","TN",37013,NA,NA,207,"4833 HOPEDALE DR, ANTIOCH, TN, 37013","No_Match",NA,NA,NA,NA
665708,"4833 HORSEHOE BEND ROAD","TROY","OH",45373,NA,NA,208,"4833 HORSEHOE BEND ROAD, TROY, OH, 45373","No_Match",NA,NA,NA,NA
665709,"4833 KENNETH AVENUE","FAIR OAKS","CA",95628,38.653978437,-121.244199883,209,"4833 KENNETH AVENUE, FAIR OAKS, CA, 95628","Match","Exact","4833 KENNETH AVE, FAIR OAKS, CA, 95628",639036567,"L"
665710,"4833 KESWICK CT","MONTCLAIR","VA",22025,38.6155287170001,-77.353887371,210,"4833 KESWICK CT, MONTCLAIR, VA, 22025","Match","Exact","4833 KESWICK CT, MONTCLAIR, VA, 22025",76517583,"L"
665711,"4833 LIBERTY GROVE CHURCH RD","WRIGHTSVILLE","GA",31096,32.6894319410001,-82.709891071,211,"4833 LIBERTY GROVE CHURCH RD, WRIGHTSVILLE, GA, 31096","Match","Exact","4833 LIBERTY GROVE CHURCH RD, WRIGHTSVILLE, GA, 31096",100828003,"L"
665712,"4833 LONGFELLOW DRIVE","SPRINGFIELD","IL",62711,39.7970178940001,-89.745889102,212,"4833 LONGFELLOW DRIVE, SPRINGFIELD, IL, 62711","Match","Exact","4833 LONGFELLOW DR, SPRINGFIELD, IL, 62711",627090576,"R"
665713,"4833 MEDICA RD","SANTA ROSA","CA",95405,38.4503102740001,-122.665604462,213,"4833 MEDICA RD, SANTA ROSA, CA, 95405","Match","Exact","4833 MEDICA RD, SANTA ROSA, CA, 95405",604962832,"L"
665714,"4833 MONARCH DR","MESQUITE","TX",75181,32.718562736,-96.5383946759999,214,"4833 MONARCH DR, MESQUITE, TX, 75181","Match","Exact","4833 MONARCH DR, MESQUITE, TX, 75181",639481310,"R"
665715,"4833 N HARRISON ST","FORT WAYNE","IN",46807,41.039900174,-85.1382764909999,215,"4833 N HARRISON ST, FORT WAYNE, IN, 46807","Match","Non_Exact","4833 S HARRISON ST, FORT WAYNE, IN, 46807",6382518,"L"
665716,"4833 N HARRISON STREET","FORT WAYNE","IN",46807,41.039900174,-85.1382764909999,216,"4833 N HARRISON STREET, FORT WAYNE, IN, 46807","Match","Non_Exact","4833 S HARRISON ST, FORT WAYNE, IN, 46807",6382518,"L"
665717,"4833 N KILDARE","CHICAGO","IL",60630,41.9691107570001,-87.73545007,217,"4833 N KILDARE, CHICAGO, IL, 60630","Match","Non_Exact","4833 N KILDARE AVE, CHICAGO, IL, 60630",605169828,"R"
665718,"4833 N WOLCOTT AVE APAT 30","CHICAGO","IL",60640,41.969606492,-87.676220137,218,"4833 N WOLCOTT AVE APAT 30, CHICAGO, IL, 60640","Match","Non_Exact","4833 N WOLCOTT AVE, CHICAGO, IL, 60640",605184973,"R"
665719,"4833 NE 42ND STREET","SEATTLE","WA",98105,47.6591392190001,-122.2761034,219,"4833 NE 42ND STREET, SEATTLE, WA, 98105","Match","Exact","4833 NE 42ND ST, SEATTLE, WA, 98105",186588348,"R"
665720,"4833 PAGOSA SPRINGS DRIVE","LAS VEGAS","NV",89113,36.043761853,-115.206380845,220,"4833 PAGOSA SPRINGS DRIVE, LAS VEGAS, NV, 89113","Match","Non_Exact","4833 PAGOSA SPRINGS DR, LAS VEGAS, NV, 89139",202002831,"L"
665721,"4833 PLEASANT GARDEN RD","PLEASANT GARDEN","NC",27313,35.961794533,-79.762081732,221,"4833 PLEASANT GARDEN RD, PLEASANT GARDEN, NC, 27313","Match","Exact","4833 PLEASANT GARDEN RD, PLEASANT GARDEN, NC, 27313",131087084,"R"
665722,"4833 PLEASANT GARDENT RD","PLEASANT GARDEN","NC",27313,NA,NA,222,"4833 PLEASANT GARDENT RD, PLEASANT GARDEN, NC, 27313","No_Match",NA,NA,NA,NA
665723,"4833 PRESERVE DR","CHATTANOOGA","TN",37416,35.098767755,-85.183605068,223,"4833 PRESERVE DR, CHATTANOOGA, TN, 37416","Match","Exact","4833 PRESERVE DR, CHATTANOOGA, TN, 37416",639365391,"R"
665724,"4833 RIVER SPLASH AVE","LAS VEGAS","CA",89031,NA,NA,224,"4833 RIVER SPLASH AVE, LAS VEGAS, CA, 89031","No_Match",NA,NA,NA,NA
665725,"4833 RUDY ROAD","CORYDON","KY",42406,37.726489412,-87.6304380019999,225,"4833 RUDY ROAD, CORYDON, KY, 42406","Match","Exact","4833 RUDY RD, CORYDON, KY, 42406",652744338,"R"
665726,"4833 S VINCENNES","CHICAGO","IL",60615,41.806596185,-87.61385219,226,"4833 S VINCENNES, CHICAGO, IL, 60615","Match","Non_Exact","4833 S VINCENNES AVE, CHICAGO, IL, 60615",111770885,"L"
665727,"4833 SANTA MONICA AVE 7878","SAN DIEGO","CA",92107,32.745944192,-117.247477762,227,"4833 SANTA MONICA AVE 7878, SAN DIEGO, CA, 92107","Match","Exact","4833 SANTA MONICA AVE, SAN DIEGO, CA, 92107",195339395,"L"
665728,"4833 SARATOGA BLVD APT 717","CORPUS CHRISTI","TX",78413,NA,NA,228,"4833 SARATOGA BLVD APT 717, CORPUS CHRISTI, TX, 78413","No_Match",NA,NA,NA,NA
665729,"4833 SARATOGA BLVD SUITE 403","CORPUS CHRISTI","TX",78413,NA,NA,229,"4833 SARATOGA BLVD SUITE 403, CORPUS CHRISTI, TX, 78413","No_Match",NA,NA,NA,NA
665730,"4833 SOUTH LAKEWOOD DR","JACKSONVILLE","FL",32404,30.139359045,-85.602434256,230,"4833 SOUTH LAKEWOOD DR, JACKSONVILLE, FL, 32404","Match","Non_Exact","4833 S LAKEWOOD DR, CALLAWAY, FL, 32404",7032121,"R"
665731,"4833 SOUTHERN AVE SE","ALBUQUERQUE","NM",87108,35.0675307060001,-106.589638099,231,"4833 SOUTHERN AVE SE, ALBUQUERQUE, NM, 87108","Match","Exact","4833 SOUTHERN AVE SE, ALBUQUERQUE, NM, 87108",642017882,"R"
665732,"4833 SPANISHMOSS DRIVE","MCKINNEY","TX",75070,33.161694427,-96.675518735,232,"4833 SPANISHMOSS DRIVE, MCKINNEY, TX, 75070","Match","Non_Exact","4833 SPANISH MOSS DR, MCKINNEY, TX, 75070",123547028,"L"
665733,"4833 SW GULL POINT DR","LEE'S SUMMIT","MO",64082,38.831882921,-94.391811402,233,"4833 SW GULL POINT DR, LEE'S SUMMIT, MO, 64082","Match","Non_Exact","4833 SW GULL POINT DR, LEES SUMMIT, MO, 64082",100933065,"L"
665734,"4833 TREMONT ST","DALLAS","TX",75246,32.797584204,-96.7670429729999,234,"4833 TREMONT ST, DALLAS, TX, 75246","Match","Exact","4833 TREMONT ST, DALLAS, TX, 75246",102919806,"L"
665735,"4833 VIA DON LUIS","NEWBURY PARK","CA",91320,34.158327543,-118.977883266,235,"4833 VIA DON LUIS, NEWBURY PARK, CA, 91320","Match","Exact","4833 VIA DON LUIS, NEWBURY PARK, CA, 91320",110031700,"L"
665736,"4833 W 123RD ST","SAVAGE","MN",55378,44.7783992560001,-93.340691872,236,"4833 W 123RD ST, SAVAGE, MN, 55378","Match","Non_Exact","4833 123RD ST W, SAVAGE, MN, 55378",38143785,"R"
665737,"4833 W CHEETAH ST","TUCSON","AZ",85742,32.373965416,-111.068353948,237,"4833 W CHEETAH ST, TUCSON, AZ, 85742","Match","Exact","4833 W CHEETAH ST, TUCSON, AZ, 85742",121156812,"R"
665738,"4833 W IOWA","CHICAGO","IL",60651,41.8968325760001,-87.746729962,238,"4833 W IOWA, CHICAGO, IL, 60651","Match","Non_Exact","4833 W IOWA ST, CHICAGO, IL, 60651",642123039,"L"
665739,"4833 W WESTEND AVE","CHICAGO","IL",60644,41.8831118700001,-87.7466471499999,239,"4833 W WESTEND AVE, CHICAGO, IL, 60644","Match","Non_Exact","4833 W WEST END AVE, CHICAGO, IL, 60644",605076705,"L"
665740,"4833 WEST 13TH STREET","CLEVELAND","OH",44109,41.424818901,-81.68884223,240,"4833 WEST 13TH STREET, CLEVELAND, OH, 44109","Match","Exact","4833 W 13TH ST, CLEVELAND, OH, 44109",61116836,"L"
665741,"4833 WEST 142ND STREET","HAWTHORNE","CA",90250,33.9028111270001,-118.362467934,241,"4833 WEST 142ND STREET, HAWTHORNE, CA, 90250","Match","Exact","4833 W 142ND ST, HAWTHORNE, CA, 90250",647673915,"R"
665742,"4833 WESTCHESTER DRIVE APT 301","AUSTINTOWN","OH",44515,41.0961352520001,-80.748541459,242,"4833 WESTCHESTER DRIVE APT 301, AUSTINTOWN, OH, 44515","Match","Exact","4833 WESTCHESTER DR, AUSTINTOWN, OH, 44515",611171263,"R"
665743,"4833-E BEREWICK TOWN CENTER DR 215","CHARLOTTE","NC",28278,35.161767163,-80.9726782119999,243,"4833-E BEREWICK TOWN CENTER DR 215, CHARLOTTE, NC, 28278","Match","Exact","4833 BEREWICK TOWN CENTER DR, CHARLOTTE, NC, 28278",648376566,"L"
665744,"48330 CORNUCOPIA HWY","HALFWAY","OR",97834,44.921773122,-117.157989666,244,"48330 CORNUCOPIA HWY, HALFWAY, OR, 97834","Match","Exact","48330 CORNUCOPIA HWY, HALFWAY, OR, 97834",137637390,"L"
665745,"4834  SOUTH WHITNALL AVE","CUDAHY","WI",53110,42.9571175020001,-87.872420566,245,"4834  SOUTH WHITNALL AVE, CUDAHY, WI, 53110","Match","Exact","4834 S WHITNALL AVE, CUDAHY, WI, 53110",648245374,"L"
665746,"4834 ADENMOOR AVE","LAKEWOOD","CA",90713,33.845362906,-118.124042242,246,"4834 ADENMOOR AVE, LAKEWOOD, CA, 90713","Match","Exact","4834 ADENMOOR AVE, LAKEWOOD, CA, 90713",642865014,"R"
665747,"4834 BIONA DRIVE","SAN DIEGO","CA",92116,32.76562448,-117.104197966,247,"4834 BIONA DRIVE, SAN DIEGO, CA, 92116","Match","Exact","4834 BIONA DR, SAN DIEGO, CA, 92116",195346836,"L"
665748,"4834 CHARRITON DRIVE","HOUSTON","TX",77039,29.905958598,-95.320089039,248,"4834 CHARRITON DRIVE, HOUSTON, TX, 77039","Match","Exact","4834 CHARRITON DR, HOUSTON, TX, 77039",96046462,"R"
665749,"4834 CRESTED BUTTE TRL","ROCKFORD","IL",61114,42.3141546160001,-89.0234298249999,249,"4834 CRESTED BUTTE TRL, ROCKFORD, IL, 61114","Match","Exact","4834 CRESTED BUTTE TRL, ROCKFORD, IL, 61114",49270891,"R"
665750,"4834 CROW ST","ORLANDO","FL",32819,28.4583014740001,-81.4433484049999,250,"4834 CROW ST, ORLANDO, FL, 32819","Match","Exact","4834 CROW ST, ORLANDO, FL, 32819",94289598,"L"
665751,"4834 DORCHESTER STREET","GROVEPORT","OH",43125,39.867739509,-82.8759869369999,251,"4834 DORCHESTER STREET, GROVEPORT, OH, 43125","Match","Exact","4834 DORCHESTER ST, GROVEPORT, OH, 43125",613622021,"L"
665752,"4834 EAST MELINDA LANE","PHOENIX","AZ",85054,33.682679788,-111.975000231,252,"4834 EAST MELINDA LANE, PHOENIX, AZ, 85054","Match","Exact","4834 E MELINDA LN, PHOENIX, AZ, 85054",128592985,"L"
665753,"4834 GENOA ST","DENVER","CO",NA,39.7843945970001,-104.759349392,253,"4834 GENOA ST, DENVER, CO, ","Match","Non_Exact","4834 N GENOA ST, DENVER, CO, 80249",640654256,"R"
665754,"4834 KETTLE RIVER POINT","SUWANNEE","GA",30024,34.073139881,-84.09465827,254,"4834 KETTLE RIVER POINT, SUWANNEE, GA, 30024","Match","Non_Exact","4834 KETTLE RIVER PT, SUWANEE, GA, 30024",646785827,"R"
665755,"4834 LITTLE CAYMAN","LAS VEGAS","NE",89031,NA,NA,255,"4834 LITTLE CAYMAN, LAS VEGAS, NE, 89031","No_Match",NA,NA,NA,NA
665756,"4834 LURLINE STREET","NEW ORLEANS","LA",70127,30.0234972540001,-89.97107892,256,"4834 LURLINE STREET, NEW ORLEANS, LA, 70127","Match","Exact","4834 LURLINE ST, NEW ORLEANS, LA, 70127",191721761,"L"
665757,"4834 MACRIDGE BLVD","HOUSTON","TX",77053,29.6031257660001,-95.451777116,257,"4834 MACRIDGE BLVD, HOUSTON, TX, 77053","Match","Exact","4834 MACRIDGE BLVD, HOUSTON, TX, 77053",96558223,"R"
665758,"4834 MACRIDGE","HOUSTON","TX",77053,29.6031257660001,-95.451777116,258,"4834 MACRIDGE, HOUSTON, TX, 77053","Match","Non_Exact","4834 MACRIDGE BLVD, HOUSTON, TX, 77053",96558223,"R"
665759,"4834 MALLARD VIEW DR","INDIANAPOLIS","IN",46226,39.8433405710001,-86.09901938,259,"4834 MALLARD VIEW DR, INDIANAPOLIS, IN, 46226","Match","Exact","4834 MALLARD VIEW DR, INDIANAPOLIS, IN, 46226",108030689,"L"
665760,"4834 MCDERMED DR","HOUSTON","TX",77035,29.6689773320001,-95.458840804,260,"4834 MCDERMED DR, HOUSTON, TX, 77035","Match","Exact","4834 MCDERMED DR, HOUSTON, TX, 77035",96040196,"R"
665761,"4834 MELINDA LANE","PHOENIX","AZ",85054,33.682679788,-111.975000231,261,"4834 MELINDA LANE, PHOENIX, AZ, 85054","Match","Non_Exact","4834 E MELINDA LN, PHOENIX, AZ, 85054",128592985,"L"
665762,"4834 MELVIN DRIVE","CARMICHAEL","CA",95608,38.607822641,-121.351605828,262,"4834 MELVIN DRIVE, CARMICHAEL, CA, 95608","Match","Exact","4834 MELVIN DR, CARMICHAEL, CA, 95608",133334499,"R"
665763,"4834 MYAKKA VALLEY TRAIL","SARASOTA","FL",34241,NA,NA,263,"4834 MYAKKA VALLEY TRAIL, SARASOTA, FL, 34241","No_Match",NA,NA,NA,NA
665764,"4834 N LOMBARD ST","PORTLAND","OR",97203,45.5805794780001,-122.718923355,264,"4834 N LOMBARD ST, PORTLAND, OR, 97203","Match","Exact","4834 N LOMBARD ST, PORTLAND, OR, 97203",157581663,"L"
665765,"4834 OAKRIDGE DRIVE","PITTSBURG","PA",15227,40.3595039780001,-79.9717267139999,265,"4834 OAKRIDGE DRIVE, PITTSBURG, PA, 15227","Match","Non_Exact","4834 OAKRIDGE DR, PITTSBURGH, PA, 15227",51920147,"R"
665766,"4834 PERSHING STREET","HOUSTON","TX",77033,29.6789339790001,-95.350120308,266,"4834 PERSHING STREET, HOUSTON, TX, 77033","Match","Exact","4834 PERSHING ST, HOUSTON, TX, 77033",96089330,"R"
665767,"4834 PINTAIL CT NE","LACEY","WA",98516,47.100289795,-122.771541301,267,"4834 PINTAIL CT NE, LACEY, WA, 98516","Match","Exact","4834 PINTAIL CT NE, LACEY, WA, 98516",648506567,"L"
665768,"4834 ROCKY KNOB LANE","INDIANAPOLIS","IN",46254,39.841981016,-86.229859114,268,"4834 ROCKY KNOB LANE, INDIANAPOLIS, IN, 46254","Match","Exact","4834 ROCKY KNOB LN, INDIANAPOLIS, IN, 46254",108034930,"L"
665769,"4834 ROCKY SHOALS CIRCLE","EVANS","GA",30809,33.5257436110001,-82.169111081,269,"4834 ROCKY SHOALS CIRCLE, EVANS, GA, 30809","Match","Exact","4834 ROCKY SHOALS CIR, EVANS, GA, 30809",55384959,"R"
665770,"4834 S KING DRIVE APT 1","CHICAGO","IL",60615,NA,NA,270,"4834 S KING DRIVE APT 1, CHICAGO, IL, 60615","No_Match",NA,NA,NA,NA
665771,"4834 SAGE ROAD","LAS CRUCES","NM",88011,32.274214279,-106.721307596,271,"4834 SAGE ROAD, LAS CRUCES, NM, 88011","Match","Exact","4834 SAGE RD, LAS CRUCES, NM, 88011",612733374,"R"
665772,"4834 SARDINE CREEK ROAD RIGHT FORK","GOLD HILL","OR",97525,42.503071945,-123.066494409,272,"4834 SARDINE CREEK ROAD RIGHT FORK, GOLD HILL, OR, 97525","Match","Exact","4834 SARDINE CREEK RD, GOLD HILL, OR, 97525",155598350,"R"
665773,"4834 SARDINE CRK RD RIGHT FORK","GOLD HILL","OR",97525,42.503071945,-123.066494409,273,"4834 SARDINE CRK RD RIGHT FORK, GOLD HILL, OR, 97525","Match","Exact","4834 SARDINE CREEK RD, GOLD HILL, OR, 97525",155598350,"R"
665774,"4834 SMOKE TREE ROAD","PHELAN","CA",92371,34.4409707400001,-117.556579768,274,"4834 SMOKE TREE ROAD, PHELAN, CA, 92371","Match","Exact","4834 SMOKE TREE RD, PHELAN, CA, 92371",144583903,"R"
665775,"4834 SOMERSET ROAD","LONDON","KY",40741,37.1596078310001,-84.206244366,275,"4834 SOMERSET ROAD, LONDON, KY, 40741","Match","Exact","4834 SOMERSET RD, LONDON, KY, 40741",98737879,"R"
665776,"4834 STATE ROUTE 325","PATRIOT","OH",45658,38.8228414540001,-82.400527776,276,"4834 STATE ROUTE 325, PATRIOT, OH, 45658","Match","Exact","4834 STATE RTE 325, PATRIOT, OH, 45658",54954746,"L"
665777,"4834 SUMMIT BLVD","WEST PALM BEACH","FL",33415,26.662784005,-80.118686279,277,"4834 SUMMIT BLVD, WEST PALM BEACH, FL, 33415","Match","Exact","4834 SUMMIT BLVD, WEST PALM BEACH, FL, 33415",115272436,"L"
665778,"4834 SW 19TH ST","TOPEKA","KS",66604,39.0329972380001,-95.739305993,278,"4834 SW 19TH ST, TOPEKA, KS, 66604","Match","Exact","4834 SW 19TH ST, TOPEKA, KS, 66604",17886234,"R"
665779,"4834 TREEMONT DRIVE","ALLISON PARK","PA",15101,40.602582936,-79.915290216,279,"4834 TREEMONT DRIVE, ALLISON PARK, PA, 15101","Match","Non_Exact","4834 TREMONT DR, ALLISON PARK, PA, 15101",51936182,"L"
665780,"4834 W 61 ST DRIVE","ARVADA","CO",80003,39.807729453,-105.049306565,280,"4834 W 61 ST DRIVE, ARVADA, CO, 80003","Match","Non_Exact","4834 W 61ST DR, ARVADA, CO, 80003",177393171,"L"
665781,"4834 W NORWICH CT","MILWAUKEE","WI",53220,42.9721318750001,-87.9755949789999,281,"4834 W NORWICH CT, MILWAUKEE, WI, 53220","Match","Exact","4834 W NORWICH CT, MILWAUKEE, WI, 53220",77749034,"R"
665782,"48342 SAWLEAF STREET","FREMONT","CA",94539,37.471545242,-121.917188276,282,"48342 SAWLEAF STREET, FREMONT, CA, 94539","Match","Exact","48342 SAWLEAF ST, FREMONT, CA, 94539",124990321,"L"
665783,"48346 THORNCROFT","MACOMB TOWNSHIP","MI",48044,42.652469131,-82.9474519079999,283,"48346 THORNCROFT, MACOMB TOWNSHIP, MI, 48044","Match","Non_Exact","48346 THORNCROFT DR, MACOMB, MI, 48044",110704810,"R"
665784,"48346 WYNNE ROAD","RIDGE","MD",20680,38.109924343,-76.403878474,284,"48346 WYNNE ROAD, RIDGE, MD, 20680","Match","Exact","48346 WYNNE RD, RIDGE, MD, 20680",36613027,"L"
665785,"48349 250TH STREET","GARRETSON","SD",57030,43.7612598650001,-96.54213727,285,"48349 250TH STREET, GARRETSON, SD, 57030","Match","Exact","48349 250TH ST, GARRETSON, SD, 57030",647734626,"R"
665786,"4835 146TH AVE","HOLLAND","MI",49423,NA,NA,286,"4835 146TH AVE, HOLLAND, MI, 49423","No_Match",NA,NA,NA,NA
665787,"4835 70TH PLACE","URBANDALE","IA",50322,41.649733677,-93.713819315,287,"4835 70TH PLACE, URBANDALE, IA, 50322","Match","Exact","4835 70TH PL, URBANDALE, IA, 50322",65855936,"R"
665788,"4835 ASTRAL AVE","JACKSONVILLE","FL",32205,30.308411339,-81.729069759,288,"4835 ASTRAL AVE, JACKSONVILLE, FL, 32205","Match","Exact","4835 ASTRAL AVE, JACKSONVILLE, FL, 32205",83910928,"R"
665789,"4835 BARBAROSSA RD","SEGUIN","TX",78155,29.633749449,-98.003348748,289,"4835 BARBAROSSA RD, SEGUIN, TX, 78155","Match","Exact","4835 BARBAROSSA RD, SEGUIN, TX, 78155",54826011,"R"
665790,"4835 BONITA BEACH ROAD","BONITA SPRINGS","FL",34134,NA,NA,290,"4835 BONITA BEACH ROAD, BONITA SPRINGS, FL, 34134","No_Match",NA,NA,NA,NA
665791,"4835 BUFFALO","BEAUMONT","TX",77703,30.12495319,-94.12985596,291,"4835 BUFFALO, BEAUMONT, TX, 77703","Match","Non_Exact","4835 BUFFALO AVE, BEAUMONT, TX, 77703",73850350,"L"
665792,"4835 CAMDEN AVE N","MINNEAPOLIS","MN",55430,45.0427793750001,-93.288876822,292,"4835 CAMDEN AVE N, MINNEAPOLIS, MN, 55430","Match","Exact","4835 CAMDEN AVE N, MINNEAPOLIS, MN, 55430",43621799,"L"
665793,"4835 CANTERBURY COURT","VASSAR","MI",48768,43.36901943,-83.5987290259999,293,"4835 CANTERBURY COURT, VASSAR, MI, 48768","Match","Exact","4835 CANTERBURY CT, VASSAR, MI, 48768",81255327,"R"
665794,"4835 CHERRY LN NE","BEMIDJI","MN",56601,47.4873095470001,-94.81232314,294,"4835 CHERRY LN NE, BEMIDJI, MN, 56601","Match","Exact","4835 CHERRY LN NE, BEMIDJI, MN, 56601",176407024,"L"
665795,"4835 CHESNEY ST NW","CONCORD","NC",28027,35.377247149,-80.67081912,295,"4835 CHESNEY ST NW, CONCORD, NC, 28027","Match","Non_Exact","4835 CHESNEY ST, CONCORD, NC, 28027",24917398,"L"
665796,"4835 COLONEL PERRY DR","COLUMBUS","OH",43229,40.06541258,-82.978289801,296,"4835 COLONEL PERRY DR, COLUMBUS, OH, 43229","Match","Exact","4835 COLONEL PERRY DR, COLUMBUS, OH, 43229",218697169,"L"
665797,"4835 COOPERS CREEK LANE","GAINSVILLE","GA",30504,34.2492320110001,-83.878494287,297,"4835 COOPERS CREEK LANE, GAINSVILLE, GA, 30504","Match","Non_Exact","4835 COOPERS CREEK LN, GAINESVILLE, GA, 30504",618449639,"L"
665798,"4835 CORDELL AVE / APT 615","BETHESDA","MD",20814,38.990321507,-77.0971784829999,298,"4835 CORDELL AVE / APT 615, BETHESDA, MD, 20814","Match","Exact","4835 CORDELL AVE, BETHESDA, MD, 20814",62065530,"R"
665799,"4835 CORDELL AVENUE APT 422","BETHESDA","MD",20814,38.990321507,-77.0971784829999,299,"4835 CORDELL AVENUE APT 422, BETHESDA, MD, 20814","Match","Exact","4835 CORDELL AVE, BETHESDA, MD, 20814",62065530,"R"
665800,"4835 DODSWORTH LANE","COLD SPRING","KY",41076,39.039297269,-84.4204103019999,300,"4835 DODSWORTH LANE, COLD SPRING, KY, 41076","Match","Exact","4835 DODSWORTH LN, COLD SPRING, KY, 41076",635648176,"L"
665801,"4835 DUNCANS LAKE DRIVE","BUFORD","GA",30519,34.0977744900001,-83.879569827,301,"4835 DUNCANS LAKE DRIVE, BUFORD, GA, 30519","Match","Non_Exact","4835 DUNCANS LAKE DR NE, BUFORD, GA, 30519",88929138,"L"
665802,"4835 E BOSTON AVE","LAS VEGAS","NV",89104,36.148444726,-115.069096041,302,"4835 E BOSTON AVE, LAS VEGAS, NV, 89104","Match","Exact","4835 E BOSTON AVE, LAS VEGAS, NV, 89104",201875810,"R"
665803,"4835 FLETCHER AVE","FORT WORTH","TX",76107,32.7243666250001,-97.392152588,303,"4835 FLETCHER AVE, FORT WORTH, TX, 76107","Match","Exact","4835 FLETCHER AVE, FORT WORTH, TX, 76107",101881266,"L"
665804,"4835 FREDERICK AVE","GLENDALE","CA",91214,34.2402708820001,-118.255566577,304,"4835 FREDERICK AVE, GLENDALE, CA, 91214","Match","Exact","4835 FREDERICK AVE, GLENDALE, CA, 91214",141589101,"L"
665805,"4835 FULMAR DRIVE","IRONDALE","AL",35210,33.517248378,-86.713452277,305,"4835 FULMAR DRIVE, IRONDALE, AL, 35210","Match","Exact","4835 FULMAR DR, IRONDALE, AL, 35210",81587629,"R"
665806,"4835 HWY 135 S","KILGORE","TX",75662,NA,NA,306,"4835 HWY 135 S, KILGORE, TX, 75662","No_Match",NA,NA,NA,NA
665807,"4835 ILLINOIS AVENUE NW","WASHINGTON","DC",20011,38.948924823,-77.022868961,307,"4835 ILLINOIS AVENUE NW, WASHINGTON, DC, 20011","Match","Exact","4835 ILLINOIS AVE NW, WASHINGTON, DC, 20011",76223553,"R"
665808,"4835 KARR RD","CUMMING","GA",30040,34.262731349,-84.153301385,308,"4835 KARR RD, CUMMING, GA, 30040","Match","Exact","4835 KARR RD, CUMMING, GA, 30040",70175714,"L"
665809,"4835 LAFAYETTE PLACE","VERO BEACH","FL",32966,NA,NA,309,"4835 LAFAYETTE PLACE, VERO BEACH, FL, 32966","No_Match",NA,NA,NA,NA
665810,"4835 LAKEVIEW","BOISE","ID",83714,43.6648749030001,-116.291140596,310,"4835 LAKEVIEW, BOISE, ID, 83714","Match","Non_Exact","4835 LAKE VIEW PL, BOISE, ID, 83714",117917681,"R"
665811,"4835 MARK COURT","NORTH RIDGEVILLE","OH",44039,41.3992421890001,-82.003804444,311,"4835 MARK COURT, NORTH RIDGEVILLE, OH, 44039","Match","Exact","4835 MARK CT, N RIDGEVILLE, OH, 44039",55410530,"L"
665812,"4835 MEDICAL DRIVE STE 40052","SAN ANTONIO","TX",78229,29.51051059,-98.580947366,312,"4835 MEDICAL DRIVE STE 40052, SAN ANTONIO, TX, 78229","Match","Exact","4835 MEDICAL DR, SAN ANTONIO, TX, 78229",101491687,"L"
665813,"4835 MICHIGAN AVENUE","DETROIT","MI",48210,42.331183965,-83.108446251,313,"4835 MICHIGAN AVENUE, DETROIT, MI, 48210","Match","Exact","4835 MICHIGAN AVE, DETROIT, MI, 48210",95474073,"L"
665814,"4835 MIDDLE FORK RD","ADVENT","WV",25231,38.60385568,-81.5850304959999,314,"4835 MIDDLE FORK RD, ADVENT, WV, 25231","Match","Exact","4835 MIDDLE FORK RD, ADVENT, WV, 25231",130470041,"L"
665815,"4835 MOLI PL","PRINCEVILLE","HI",96722,22.223997067,-159.477042638,315,"4835 MOLI PL, PRINCEVILLE, HI, 96722","Match","Exact","4835 MOLI PL, PRINCEVILLE, HI, 96722",203401653,"R"
665816,"4835 NORTH ILLINOIS STREET","INDIANAPOLIS","IN",46208,39.8421743230001,-86.1593551779999,316,"4835 NORTH ILLINOIS STREET, INDIANAPOLIS, IN, 46208","Match","Exact","4835 N ILLINOIS ST, INDIANAPOLIS, IN, 46208",108028539,"R"
665817,"4835 OAK PARK AVE","ENCINO","CA",91316,34.158369409,-118.504467287,317,"4835 OAK PARK AVE, ENCINO, CA, 91316","Match","Exact","4835 OAK PARK AVE, ENCINO, CA, 91316",142714797,"L"
665818,"4835 OTTERBURY DR","HOUSTON","TX",77039,29.9044520030001,-95.3200719069999,318,"4835 OTTERBURY DR, HOUSTON, TX, 77039","Match","Exact","4835 OTTERBURY DR, HOUSTON, TX, 77039",96046465,"L"
665819,"4835 OXFORD DR","SARASOTA","FL",34242,27.2813063890001,-82.555383306,319,"4835 OXFORD DR, SARASOTA, FL, 34242","Match","Exact","4835 OXFORD DR, SARASOTA, FL, 34242",16348758,"L"
665820,"4835 PARA DRIVE","CINCINNATI","OH",45237,39.1747847130001,-84.4834292099999,320,"4835 PARA DRIVE, CINCINNATI, OH, 45237","Match","Exact","4835 PARA DR, CINCINNATI, OH, 45237",103924179,"L"
665821,"4835 PRINCESS PINE LANE","BOULDER JUNCTION","WI",54512,46.0808617700001,-89.66414102,321,"4835 PRINCESS PINE LANE, BOULDER JUNCTION, WI, 54512","Match","Exact","4835 PRINCESS PINE LN, BOULDER JUNCTION, WI, 54512",165596861,"L"
665822,"4835 RIVEREDGE COVE","SNELLVILLE","GA",30039,33.775336365,-84.059318601,322,"4835 RIVEREDGE COVE, SNELLVILLE, GA, 30039","Match","Exact","4835 RIVEREDGE COVE, SNELLVILLE, GA, 30039",88905874,"L"
665823,"4835 RIVERVIEW COURT","SOUTH LEBANON","OH",45065,39.3632906030001,-84.217461223,323,"4835 RIVERVIEW COURT, SOUTH LEBANON, OH, 45065","Match","Non_Exact","4835 RIVER VIEW CT, SOUTH LEBANON, OH, 45065",159050446,"R"
665824,"4835 ROUTE 82","SALT POINT","NY",12578,41.7932016180001,-73.7557756209999,324,"4835 ROUTE 82, SALT POINT, NY, 12578","Match","Non_Exact","4835 STATE RTE 82, SALT POINT, NY, 12578",648852895,"L"
665825,"4835 S CHICAGO ST","SEATTLE","WA",98118,47.5326181520001,-122.272181146,325,"4835 S CHICAGO ST, SEATTLE, WA, 98118","Match","Exact","4835 S CHICAGO ST, SEATTLE, WA, 98118",239763312,"R"
665826,"4835 S FULTON AVE SUITE 104","TULSA","OK",74135,36.0920045410001,-95.9155600079999,326,"4835 S FULTON AVE SUITE 104, TULSA, OK, 74135","Match","Non_Exact","4835 S FULTON AVE, TULSA, OK, 74135",166468557,"L"
665827,"4835 S RICE","CHICAGO","IL",60651,NA,NA,327,"4835 S RICE, CHICAGO, IL, 60651","No_Match",NA,NA,NA,NA
665828,"4835 SAN FELICIANO DRIVE","WOODLAND HILLS","CA",91364,34.1554106350001,-118.609875166,328,"4835 SAN FELICIANO DRIVE, WOODLAND HILLS, CA, 91364","Match","Exact","4835 SAN FELICIANO DR, WOODLAND HILLS, CA, 91364",141535090,"L"
665829,"4835 SHADOW GRASS DR","KATY","TX",77493,29.842170153,-95.833438219,329,"4835 SHADOW GRASS DR, KATY, TX, 77493","Match","Exact","4835 SHADOW GRASS DR, KATY, TX, 77493",627737078,"R"
665830,"4835 SHAWNEE DRIVE","Kansas City","KS",66106,39.0474970990001,-94.6898104809999,330,"4835 SHAWNEE DRIVE, Kansas City, KS, 66106","Match","Exact","4835 SHAWNEE DR, KANSAS CITY, KS, 66106",91139426,"L"
665831,"4835 SHAWNEE DRIVE","KANSAS CITY","KS",66106,39.0474970990001,-94.6898104809999,331,"4835 SHAWNEE DRIVE, KANSAS CITY, KS, 66106","Match","Exact","4835 SHAWNEE DR, KANSAS CITY, KS, 66106",91139426,"L"
665832,"4835 SMITHSON ROAD","COLLEGE GROVE","TN",37046,35.746313086,-86.811296893,332,"4835 SMITHSON ROAD, COLLEGE GROVE, TN, 37046","Match","Exact","4835 SMITHSON RD, COLLEGE GROVE, TN, 37046",73131822,"L"
665833,"4835 SOUTEL DR","JACKSONVILLE","FL",32208,30.4020878650001,-81.7221360139999,333,"4835 SOUTEL DR, JACKSONVILLE, FL, 32208","Match","Exact","4835 SOUTEL DR, JACKSONVILLE, FL, 32208",83971645,"R"
665834,"4835 SW JOHN DANIELS ROAD","KINARD","FL",32449,30.2726274930001,-85.2291591489999,334,"4835 SW JOHN DANIELS ROAD, KINARD, FL, 32449","Match","Exact","4835 JOHN DANIELS RD, KINARD, FL, 32449",6978544,"R"
665835,"4835 THEISS ROAD","HUMBLE","TX",77338,30.02817738,-95.356716978,335,"4835 THEISS ROAD, HUMBLE, TX, 77338","Match","Exact","4835 THEISS RD, HUMBLE, TX, 77338",96043238,"L"
665836,"4835 TRAKE WAY","ELLENWOOD","GA",30294,NA,NA,336,"4835 TRAKE WAY, ELLENWOOD, GA, 30294","No_Match",NA,NA,NA,NA
665837,"4835 TYLER OAKS DRIVE","HUDSONVILLE","MI",49426,42.9018532580001,-85.9026358679999,337,"4835 TYLER OAKS DRIVE, HUDSONVILLE, MI, 49426","Match","Exact","4835 TYLER OAKS DR, HUDSONVILLE, MI, 49426",71097880,"R"
665838,"4835 VALLEY ROOK","BRECKSVILLE","OH",44141,NA,NA,338,"4835 VALLEY ROOK, BRECKSVILLE, OH, 44141","No_Match",NA,NA,NA,NA
665839,"4835 VIEWCREST RD","SAN ANTONIO","TX",78217,29.573069376,-98.395603073,339,"4835 VIEWCREST RD, SAN ANTONIO, TX, 78217","Match","Exact","4835 VIEWCREST RD, SAN ANTONIO, TX, 78217",101500527,"L"
665840,"4835 W ALTGELD","CHICAGO","IL",60639,41.9260761800001,-87.747719032,340,"4835 W ALTGELD, CHICAGO, IL, 60639","Match","Non_Exact","4835 W ALTGELD ST, CHICAGO, IL, 60639",605187811,"L"
665841,"4835 WERNER DR","NEW ORLEANS","LA",70126,30.021542821,-89.9938446359999,341,"4835 WERNER DR, NEW ORLEANS, LA, 70126","Match","Exact","4835 WERNER DR, NEW ORLEANS, LA, 70126",191721025,"R"
665842,"4835 WESTIN PARK DRIVE","CONWAY","AR",72034,35.083372518,-92.5088037799999,342,"4835 WESTIN PARK DRIVE, CONWAY, AR, 72034","Match","Exact","4835 WESTIN PARK DR, CONWAY, AR, 72034",141067272,"L"
665843,"4835 WISCONSIN AVE","NW WASHINGTON","DC",20016,38.9523924970001,-77.081441862,343,"4835 WISCONSIN AVE, NW WASHINGTON, DC, 20016","Match","Non_Exact","4835 WISCONSIN AVE NW, WASHINGTON, DC, 20016",76240156,"R"
665844,"4835 WOLF ROAD","WESTERN SPRINGS","IL",60558,41.801935692,-87.8983358,344,"4835 WOLF ROAD, WESTERN SPRINGS, IL, 60558","Match","Exact","4835 WOLF RD, WESTERN SPRINGS, IL, 60558",111789407,"L"
665845,"48351 E 38TH AVE","BENNETT","CO",80102,39.7671926460001,-104.42145294,345,"48351 E 38TH AVE, BENNETT, CO, 80102","Match","Exact","48351 E 38TH AVE, BENNETT, CO, 80102",177423043,"R"
665846,"48352 KEATON WAY","INDIO","CA",92201,33.697566468,-116.253954527,346,"48352 KEATON WAY, INDIO, CA, 92201","Match","Exact","48352 KEATON WAY, INDIO, CA, 92201",195097250,"L"
665847,"48355 PURPLELEAF ST","FREMONT","CA",94539,37.4711152150001,-121.917936393,347,"48355 PURPLELEAF ST, FREMONT, CA, 94539","Match","Exact","48355 PURPLELEAF ST, FREMONT, CA, 94539",124990319,"R"
665848,"4836 6TH AVE DR","MOLINE","IL",61265,41.509359642,-90.468423624,348,"4836 6TH AVE DR, MOLINE, IL, 61265","Match","Exact","4836 6TH AVE DR, MOLINE, IL, 61265",9222520,"R"
665849,"4836 ALGONQUIN COURT","SAN DIEGO","CA",92130,32.9482789480001,-117.212995501,349,"4836 ALGONQUIN COURT, SAN DIEGO, CA, 92130","Match","Exact","4836 ALGONQUIN CT, SAN DIEGO, CA, 92130",195651957,"L"
665850,"4836 ANTONINI DR","METAIRIE","LA",70006,30.0214209000001,-90.1954640439999,350,"4836 ANTONINI DR, METAIRIE, LA, 70006","Match","Exact","4836 ANTONINI DR, METAIRIE, LA, 70006",93497139,"L"
665851,"4836 BRIARGROVE DRIVE","GROVEPORT","OH",43125,39.8774552530001,-82.86808959,351,"4836 BRIARGROVE DRIVE, GROVEPORT, OH, 43125","Match","Exact","4836 BRIARGROVE DR, GROVEPORT, OH, 43125",218642838,"R"
665852,"4836 BUCHLI LANE","LITHONIA","GA",30038,33.634774742,-84.133424782,352,"4836 BUCHLI LANE, LITHONIA, GA, 30038","Match","Exact","4836 BUCHLI LN, LITHONIA, GA, 30038",637254390,"L"
665853,"4836 BUTTERFLY DR","PRESCOTT","AZ",86301,34.5508924270001,-112.393280092,353,"4836 BUTTERFLY DR, PRESCOTT, AZ, 86301","Match","Exact","4836 BUTTERFLY DR, PRESCOTT, AZ, 86301",159456817,"L"
665854,"4836 BUTTERFLY DRIVE","PRESCOTT","AZ",86301,34.5508924270001,-112.393280092,354,"4836 BUTTERFLY DRIVE, PRESCOTT, AZ, 86301","Match","Exact","4836 BUTTERFLY DR, PRESCOTT, AZ, 86301",159456817,"L"
665855,"4836 CANADA ROAD","ARLINGTON","TN",38002,35.2547164850001,-89.748792915,355,"4836 CANADA ROAD, ARLINGTON, TN, 38002","Match","Exact","4836 CANADA RD, ARLINGTON, TN, 38002",72901020,"R"
665856,"4836 CASTLE DARGAN DRIVE","COUNTRY CLUB HILLS","IL",60478,41.548086391,-87.7336444109999,356,"4836 CASTLE DARGAN DRIVE, COUNTRY CLUB HILLS, IL, 60478","Match","Exact","4836 CASTLE DARGAN DR, COUNTRY CLUB HILLS, IL, 60478",623731338,"R"
665857,"4836 COVE VALLEY DRIVE SE","OWENS CROSS ROADS","AL",35763,34.6492445590001,-86.484967989,357,"4836 COVE VALLEY DRIVE SE, OWENS CROSS ROADS, AL, 35763","Match","Exact","4836 COVE VALLEY DR SE, OWENS CROSS ROADS, AL, 35763",627540176,"R"
665858,"4836 COVERBRIDGE RD","INDIANAPOLIS","IN",46268,NA,NA,358,"4836 COVERBRIDGE RD, INDIANAPOLIS, IN, 46268","No_Match",NA,NA,NA,NA
665859,"4836 DOWER HILL FARM PLACE","LA PLATA","MD",20646,NA,NA,359,"4836 DOWER HILL FARM PLACE, LA PLATA, MD, 20646","No_Match",NA,NA,NA,NA
665860,"4836 DOWERHILL FARM PLACE","LA PLATA","MD",20646,NA,NA,360,"4836 DOWERHILL FARM PLACE, LA PLATA, MD, 20646","No_Match",NA,NA,NA,NA
665861,"4836 FLOYNELL DRIVE","BATON ROUGE","LA",70809,30.404297781,-91.073849151,361,"4836 FLOYNELL DRIVE, BATON ROUGE, LA, 70809","Match","Exact","4836 FLOYNELL DR, BATON ROUGE, LA, 70809",92193229,"R"
665862,"4836 GREEN COURT","SHELBY TOWNSHIP","MI",48317,42.629001751,-83.063345635,362,"4836 GREEN COURT, SHELBY TOWNSHIP, MI, 48317","Match","Exact","4836 GREEN CT, SHELBY TOWNSHIP, MI, 48317",647613447,"R"
665863,"4836 HARRIET AVE S","MINNEAPOLIS","MN",55413,44.9152557300001,-93.285706996,363,"4836 HARRIET AVE S, MINNEAPOLIS, MN, 55413","Match","Non_Exact","4836 HARRIET AVE S, MINNEAPOLIS, MN, 55419",43634088,"R"
665864,"4836 KATHY JO TERRANCE","ORLANDO","FL",32808,28.573407521,-81.4452096059999,364,"4836 KATHY JO TERRANCE, ORLANDO, FL, 32808","Match","Non_Exact","4836 KATHY JO TER, ORLANDO, FL, 32808",94270344,"L"
665865,"4836 LOMA LOOP","SIERRA VISTA","AZ",85635,31.536941002,-110.246457607,365,"4836 LOMA LOOP, SIERRA VISTA, AZ, 85635","Match","Exact","4836 LOMA LOOP, SIERRA VISTA, AZ, 85635",120953331,"L"
665866,"4836 MONUMENT ST","SIMI VALLEY","CA",93063,34.279431448,-118.699258413,366,"4836 MONUMENT ST, SIMI VALLEY, CA, 93063","Match","Exact","4836 MONUMENT ST, SIMI VALLEY, CA, 93063",110044663,"L"
665867,"4836 NEW HAMPSHIRE AVE APT 3","WASHINGTON","DC",20011,NA,NA,367,"4836 NEW HAMPSHIRE AVE APT 3, WASHINGTON, DC, 20011","No_Match",NA,NA,NA,NA
665868,"4836 NW 6TH COURT","DELRAY BEACH","FL",33445,26.472399162,-80.1179127789999,368,"4836 NW 6TH COURT, DELRAY BEACH, FL, 33445","Match","Exact","4836 NW 6TH CT, DELRAY BEACH, FL, 33445",115523319,"R"
665869,"4836 NW FLORIDA AVE","ARCADIA","FL",34266,NA,NA,369,"4836 NW FLORIDA AVE, ARCADIA, FL, 34266","No_Match",NA,NA,NA,NA
665870,"4836 OLDWICK  COURT","VIRGINIA BEACH","VA",23462,36.825069161,-76.150031536,370,"4836 OLDWICK  COURT, VIRGINIA BEACH, VA, 23462","Match","Exact","4836 OLDWICK CT, VA BCH, VA, 23462",122263832,"R"
665871,"4836 OLDWICK COURT","VIRGINIA BEACH","VA",23462,36.825069161,-76.150031536,371,"4836 OLDWICK COURT, VIRGINIA BEACH, VA, 23462","Match","Exact","4836 OLDWICK CT, VA BCH, VA, 23462",122263832,"R"
665872,"4836 SAFARI PASS","EAGAN","MN",55122,44.781371284,-93.203766908,372,"4836 SAFARI PASS, EAGAN, MN, 55122","Match","Exact","4836 SAFARI PASS, EAGAN, MN, 55122",37905787,"L"
665873,"4836 SEA EAGLE DR","COLORADO SPRINGS","CO",80916,38.7872965780001,-104.735450708,373,"4836 SEA EAGLE DR, COLORADO SPRINGS, CO, 80916","Match","Exact","4836 SEA EAGLE DR, COLORADO SPRINGS, CO, 80916",105573860,"L"
665874,"4836 TOFTREES DR","ALLISON PARK","PA",15101,40.5986261050001,-79.935931605,374,"4836 TOFTREES DR, ALLISON PARK, PA, 15101","Match","Exact","4836 TOFTREES DR, ALLISON PARK, PA, 15101",51711878,"L"
665875,"4836 VALLEY OAK CIRCLE","MARIPOSA","CA",95338,37.442845619,-119.863717873,375,"4836 VALLEY OAK CIRCLE, MARIPOSA, CA, 95338","Match","Exact","4836 VALLEY OAK CIR, MARIPOSA, CA, 95338",651553044,"R"
665876,"4836 W 13TH ST","CICERO","IL",60804,41.864049288,-87.746154691,376,"4836 W 13TH ST, CICERO, IL, 60804","Match","Exact","4836 13TH ST, CICERO, IL, 60804",605086600,"R"
665877,"4836 W CO RD 50 N","GREENCASTLE","IN",46135,39.669096349,-86.9369696959999,377,"4836 W CO RD 50 N, GREENCASTLE, IN, 46135","Match","Exact","4836 W CO RD 50 N, GREENCASTLE, IN, 46135",639826827,"L"
665878,"4836 WESTBOURNE AVE","LYNDHURST","OH",44124,41.5241835580001,-81.5052201779999,378,"4836 WESTBOURNE AVE, LYNDHURST, OH, 44124","Match","Non_Exact","4836 WESTBOURNE RD, LYNDHURST, OH, 44124",61133611,"R"
665879,"4836 WINDGATE TRAIL","ACWORTH","GA",30102,34.0738066010001,-84.565128031,379,"4836 WINDGATE TRAIL, ACWORTH, GA, 30102","Match","Exact","4836 WINDGATE TRL, ACWORTH, GA, 30102",17167611,"L"
665880,"4836 WYCONDA LANE","SAN DIEGO","CA",92113,32.6926605630001,-117.089828733,380,"4836 WYCONDA LANE, SAN DIEGO, CA, 92113","Match","Exact","4836 WYCONDA LN, SAN DIEGO, CA, 92113",195352011,"L"
665881,"48360 BARBARITA LN","TICKFAW","LA",70466,30.5537835320001,-90.5135485499999,381,"48360 BARBARITA LN, TICKFAW, LA, 70466","Match","Exact","48360 BARBARITA LN, TICKFAW, LA, 70466",653313110,"L"
665882,"48363 HIGHWAY 445 N","LORANGER","LA",70446,30.5573776570001,-90.344653778,382,"48363 HIGHWAY 445 N, LORANGER, LA, 70446","Match","Non_Exact","48363 HWY 445, LORANGER, LA, 70446",75753351,"L"
665883,"48364 151ST STREET","MILBANK","SD",57252,45.194445903,-96.519606636,383,"48364 151ST STREET, MILBANK, SD, 57252","Match","Exact","48364 151ST ST, MILBANK, SD, 57252",173690704,"L"
665884,"48366 WHATLEY COURT","SHELBY TOWNSHIP","MI",48315,42.6517858780001,-83.004401695,384,"48366 WHATLEY COURT, SHELBY TOWNSHIP, MI, 48315","Match","Exact","48366 WHATLEY CT, SHELBY TOWNSHIP, MI, 48315",110658988,"L"
665885,"48366 WHATLEY COURT","SHELBY TYOWNSHIP","MI",48315,42.6517858780001,-83.004401695,385,"48366 WHATLEY COURT, SHELBY TYOWNSHIP, MI, 48315","Match","Non_Exact","48366 WHATLEY CT, SHELBY TOWNSHIP, MI, 48315",110658988,"L"
665886,"48369 HEPBURN DRIVE","INDIO","CA",92201,33.6969159290001,-116.219243343,386,"48369 HEPBURN DRIVE, INDIO, CA, 92201","Match","Exact","48369 HEPBURN DR, INDIO, CA, 92201",639940708,"R"
665887,"4837 45TH ST","WOODSIDE","NY",11377,NA,NA,387,"4837 45TH ST, WOODSIDE, NY, 11377","No_Match",NA,NA,NA,NA
665888,"4837 BACK ORRVILLE ROAD","WOOSTER","OH",44691,40.8286521590001,-81.876995885,388,"4837 BACK ORRVILLE ROAD, WOOSTER, OH, 44691","Match","Exact","4837 BACK ORRVILLE RD, WOOSTER, OH, 44691",58720849,"R"
665889,"4837 BLUE SPRUCE LANE","LAKESIDE","AZ",85929,34.1636224710001,-110.007197313,389,"4837 BLUE SPRUCE LANE, LAKESIDE, AZ, 85929","Match","Exact","4837 BLUE SPRUCE LN, LAKESIDE, AZ, 85929",172512145,"R"
665890,"4837 BRISTOL CR","WILLIAMSBURG","VA",23185,37.2510324470001,-76.754636002,390,"4837 BRISTOL CR, WILLIAMSBURG, VA, 23185","Match","Exact","4837 BRISTOL CIR, WILLIAMSBURG, VA, 23185",103773077,"R"
665891,"4837 CAMELOT DR","KIMBALL","MI",48074,42.990734946,-82.5156884199999,391,"4837 CAMELOT DR, KIMBALL, MI, 48074","Match","Exact","4837 CAMELOT DR, KIMBALL, MI, 48074",648594161,"L"
665892,"4837 CO RD302","EUREKA APRINGS","AR",72632,36.3353268380001,-93.6819250029999,392,"4837 CO RD302, EUREKA APRINGS, AR, 72632","Match","Non_Exact","4837 CO RD 302, EUREKA SPGS, AR, 72632",20073340,"R"
665893,"4837 DUFFIELD STREET","PHILADELPHIA","PA",19124,40.017340775,-75.079064079,393,"4837 DUFFIELD STREET, PHILADELPHIA, PA, 19124","Match","Exact","4837 DUFFIELD ST, PHILADELPHIA, PA, 19124",131428411,"R"
665894,"4837 DUNSMUIR AVENUE","DUNSMUIR","CA",96025,41.223841351,-122.27588356,394,"4837 DUNSMUIR AVENUE, DUNSMUIR, CA, 96025","Match","Exact","4837 DUNSMUIR AVE, DUNSMUIR, CA, 96025",113248497,"L"
665895,"4837 EAST ST RD 54","BLOOMFIELD","IN",47424,39.038492422,-86.8503883719999,395,"4837 EAST ST RD 54, BLOOMFIELD, IN, 47424","Match","Non_Exact","4837 STATE RD 54, BLOOMFIELD, IN, 47424",39309166,"L"
665896,"4837 EDINBURGH DR","SMYRNA","GA",30082,33.8351042420001,-84.513821776,396,"4837 EDINBURGH DR, SMYRNA, GA, 30082","Match","Exact","4837 EDINBURGH DR, SMYRNA, GA, 30082",627206014,"L"
665897,"4837 FAITH HOME RD","CERES","CA",95307,37.5699821100001,-120.920411837,397,"4837 FAITH HOME RD, CERES, CA, 95307","Match","Exact","4837 FAITH HOME RD, CERES, CA, 95307",650863679,"R"
665898,"4837 GREEN HILLS CIR","ANTIOCH","CA",94531,37.9683046700001,-121.763598369,398,"4837 GREEN HILLS CIR, ANTIOCH, CA, 94531","Match","Exact","4837 GREEN HILLS CIR, ANTIOCH, CA, 94531",627041582,"L"
665899,"4837 IIWI ROAD","KAPAA","HI",96746,22.088002671,-159.315030464,399,"4837 IIWI ROAD, KAPAA, HI, 96746","Match","Exact","4837 IIWI RD, KAPAA, HI, 96746",653182592,"R"
665900,"4837 INDIALANTIC DRIVE","ORLANDO","FL",32808,28.5718793240001,-81.445018349,400,"4837 INDIALANTIC DRIVE, ORLANDO, FL, 32808","Match","Exact","4837 INDIALANTIC DR, ORLANDO, FL, 32808",94270201,"R"
665901,"4837 INDIALANTICE DRIVE","ORLANDO","FL",32808,28.5718793240001,-81.445018349,401,"4837 INDIALANTICE DRIVE, ORLANDO, FL, 32808","Match","Non_Exact","4837 INDIALANTIC DR, ORLANDO, FL, 32808",94270201,"R"
665902,"4837 KATHERINE AVE","SHERMAN OAKS","CA",91423,34.158310672,-118.443244403,402,"4837 KATHERINE AVE, SHERMAN OAKS, CA, 91423","Match","Exact","4837 KATHERINE AVE, SHERMAN OAKS, CA, 91423",141561672,"L"
665903,"4837 LOMINA","LAKEWOOD","CA",90713,33.8456089420001,-118.119080605,403,"4837 LOMINA, LAKEWOOD, CA, 90713","Match","Non_Exact","4837 LOMINA AVE, LAKEWOOD, CA, 90713",642869795,"L"
665904,"4837 MERRILL CIRCLE","LAS VEGAS","NV",89121,36.101652556,-115.074249648,404,"4837 MERRILL CIRCLE, LAS VEGAS, NV, 89121","Match","Non_Exact","4837 S MERRILL CR, LAS VEGAS, NV, 89121",201878263,"R"
665905,"4837 N MILWAUKEE AVE","CHICAGO","IL",60630,41.968582596,-87.761331226,405,"4837 N MILWAUKEE AVE, CHICAGO, IL, 60630","Match","Exact","4837 N MILWAUKEE AVE, CHICAGO, IL, 60630",111751362,"R"
665906,"4837 NORTHCOTT","DOWNERS GROVE","IL",60515,41.7988975050001,-88.0248623049999,406,"4837 NORTHCOTT, DOWNERS GROVE, IL, 60515","Match","Non_Exact","4837 NORTHCOTT AVE, DOWNERS GROVE, IL, 60515",112533752,"L"
665907,"4837 PINEDELL AVE NE","COMSTOCK PARK","MI",49321,43.0508534250001,-85.653745203,407,"4837 PINEDELL AVE NE, COMSTOCK PARK, MI, 49321","Match","Exact","4837 PINEDELL AVE NE, COMSTOCK PARK, MI, 49321",12451568,"L"
665908,"4837 PURCELL RD","HEMLOCK","NY",14466,42.7879662710001,-77.569707524,408,"4837 PURCELL RD, HEMLOCK, NY, 14466","Match","Exact","4837 PURCELL RD, HEMLOCK, NY, 14466",13475287,"R"
665909,"4837 ROBIN HOOD DRIVE","NEW ORLEANS","LA",70128,30.0252848750001,-89.953553222,409,"4837 ROBIN HOOD DRIVE, NEW ORLEANS, LA, 70128","Match","Exact","4837 ROBIN HOOD DR, NEW ORLEANS, LA, 70128",191722459,"R"
665910,"4837 S GAZELLE ST","SEATTLE","WA",98118,47.5124663880001,-122.271418435,410,"4837 S GAZELLE ST, SEATTLE, WA, 98118","Match","Exact","4837 S GAZELLE ST, SEATTLE, WA, 98118",652690681,"R"
665911,"4837 S TIBET ST","AURORA",NA,NA,39.628789241,-104.727193762,411,"4837 S TIBET ST, AURORA, , ","Match","Exact","4837 S TIBET ST, AURORA, CO, 80015",632521639,"R"
665912,"4837 SE MALDEN DR","PORTLAND","OR",97206,45.466965744,-122.61304508,412,"4837 SE MALDEN DR, PORTLAND, OR, 97206","Match","Exact","4837 SE MALDEN DR, PORTLAND, OR, 97206",157515666,"L"
665913,"4837 SELKIRK","SOUTH BEND","IN",46614,41.6250216670001,-86.227684257,413,"4837 SELKIRK, SOUTH BEND, IN, 46614","Match","Non_Exact","4837 SELKIRK DR, SOUTH BEND, IN, 46614",8058333,"R"
665914,"4837 SOUTH HONORE STREET","CHICAGO","IL",60609,41.806018297,-87.670965039,414,"4837 SOUTH HONORE STREET, CHICAGO, IL, 60609","Match","Exact","4837 S HONORE ST, CHICAGO, IL, 60609",111805075,"L"
665915,"4837 STAR RIDGE DR","FORT WORTH","TX",NA,32.6330618960001,-97.395167723,415,"4837 STAR RIDGE DR, FORT WORTH, TX, ","Match","Exact","4837 STAR RIDGE DR, FT WORTH, TX, 76133",619873158,"L"
665916,"4837 SUMMER STREET","ERIE","PA",16509,42.0793524760001,-80.100012518,416,"4837 SUMMER STREET, ERIE, PA, 16509","Match","Exact","4837 SUMMER ST, ERIE, PA, 16509",117496068,"L"
665917,"4837 SUNDERLAND RD","JACKSONVILLE","FL",32210,NA,NA,417,"4837 SUNDERLAND RD, JACKSONVILLE, FL, 32210","Tie",NA,NA,NA,NA
665918,"4837 W TARO DR","GLENDALE","AZ",85308,33.6585099690001,-112.16601915,418,"4837 W TARO DR, GLENDALE, AZ, 85308","Match","Exact","4837 W TARO DR, GLENDALE, AZ, 85308",128374320,"L"
665919,"4837 WALTERS CR UNIT B","FORT SILL","OK",73503,NA,NA,419,"4837 WALTERS CR UNIT B, FORT SILL, OK, 73503","No_Match",NA,NA,NA,NA
665920,"48377 GYDE RD","CANTON","MI",48187,42.342896841,-83.517681367,420,"48377 GYDE RD, CANTON, MI, 48187","Match","Exact","48377 GYDE RD, CANTON, MI, 48187",645805941,"R"
665921,"4838 58TH LANE","WOODSIDE","NY",11377,40.7375131320001,-73.908249655,421,"4838 58TH LANE, WOODSIDE, NY, 11377","Match","Non_Exact","4838 58TH PL, WOODSIDE, NY, 11377",59729924,"R"
665922,"4838 ARDMORE AVE","OKEMOS","MI",48864,42.7210377330001,-84.429547484,422,"4838 ARDMORE AVE, OKEMOS, MI, 48864","Match","Exact","4838 ARDMORE AVE, OKEMOS, MI, 48864",17505694,"R"
665923,"4838 BEECHNUT DR","ST JOSEPH","MI",49085,42.0302538720001,-86.442386069,423,"4838 BEECHNUT DR, ST JOSEPH, MI, 49085","Match","Exact","4838 BEECHNUT DR, SAINT JOSEPH, MI, 49085",119975205,"L"
665924,"4838 BOWIE LANE","OLIVE BRANCH","MS",38654,34.9562320800001,-89.905876232,424,"4838 BOWIE LANE, OLIVE BRANCH, MS, 38654","Match","Exact","4838 BOWIE LN, OLIVE BRANCH, MS, 38654",612950801,"L"
665925,"4838 CLAYTON CROSSING LANE","ELLENWOOD","GA",30294,33.6232564490001,-84.265882196,425,"4838 CLAYTON CROSSING LANE, ELLENWOOD, GA, 30294","Match","Exact","4838 CLAYTON CROSSING LN, ELLENWOOD, GA, 30294",23329972,"L"
665926,"4838 COLFAX AVE N","MINNEAPOLIS","MN",55430,45.042838051,-93.292714976,426,"4838 COLFAX AVE N, MINNEAPOLIS, MN, 55430","Match","Exact","4838 COLFAX AVE N, MINNEAPOLIS, MN, 55430",43621781,"R"
665927,"4838 COUNTY ROAD 349","ELBA","AL",36323,31.488527897,-86.057553808,427,"4838 COUNTY ROAD 349, ELBA, AL, 36323","Match","Exact","4838 CO RD 349, ELBA, AL, 36323",650851526,"L"
665928,"4838 DELRIDGE WAY SW APT A","SEATTLE","WA",98106,47.558835086,-122.362894001,428,"4838 DELRIDGE WAY SW APT A, SEATTLE, WA, 98106","Match","Exact","4838 DELRIDGE WAY SW, SEATTLE, WA, 98106",186590905,"L"
665929,"4838 ELEMWOOD AVE APT 5","LOS ANGELES","CA",90004,34.0782810630001,-118.312222682,429,"4838 ELEMWOOD AVE APT 5, LOS ANGELES, CA, 90004","Match","Non_Exact","4838 ELMWOOD AVE, LOS ANGELES, CA, 90004",141603107,"L"
665930,"4838 GREENWOOD DR","GASTONIA","NC",28052,35.1935747250001,-81.240033105,430,"4838 GREENWOOD DR, GASTONIA, NC, 28052","Match","Exact","4838 GREENWOOD DR, GASTONIA, NC, 28052",70382448,"R"
665931,"4838 KERRY FOREST PKWY","TALLAHASSEE","FL",32309,30.536712058,-84.215293683,431,"4838 KERRY FOREST PKWY, TALLAHASSEE, FL, 32309","Match","Exact","4838 KERRY FOREST PKWY, TALLAHASSEE, FL, 32309",82846601,"R"
665932,"4838 KIMBALL HILL CIR","STOCKTON","CA",95210,38.0005017060001,-121.28275499,432,"4838 KIMBALL HILL CIR, STOCKTON, CA, 95210","Match","Exact","4838 KIMBALL HILL CIR, STOCKTON, CA, 95210",133928710,"R"
665933,"4838 LA MESA RD","PHELAN","CA",92371,34.4845540170001,-117.556540743,433,"4838 LA MESA RD, PHELAN, CA, 92371","Match","Exact","4838 LA MESA RD, PHELAN, CA, 92371",144704168,"L"
665934,"4838 MARATHON DR","MADISON","WI",53705,43.0619239430001,-89.4597982289999,434,"4838 MARATHON DR, MADISON, WI, 53705","Match","Exact","4838 MARATHON DR, MADISON, WI, 53705",49530051,"R"
665935,"4838 N 63RD STREET","MILWAUKEE","WI",53218,43.106480762,-87.989969204,435,"4838 N 63RD STREET, MILWAUKEE, WI, 53218","Match","Exact","4838 N 63RD ST, MILWAUKEE, WI, 53218",77730496,"R"
665936,"4838 N ALBANY AVE","CHICAGO","IL",60625,41.9695067850001,-87.706067633,436,"4838 N ALBANY AVE, CHICAGO, IL, 60625","Match","Exact","4838 N ALBANY AVE, CHICAGO, IL, 60625",111756622,"L"
665937,"4838 N SMALLEY AVE","KANSAS CITY","MO",64119,39.181986759,-94.487184551,437,"4838 N SMALLEY AVE, KANSAS CITY, MO, 64119","Match","Exact","4838 N SMALLEY AVE, KANSAS CITY, MO, 64119",89761801,"L"
665938,"4838 NW 96TH TERRACE","SUNRISE","FL",33351,26.184024768,-80.2797941919999,438,"4838 NW 96TH TERRACE, SUNRISE, FL, 33351","Match","Exact","4838 NW 96TH TER, SUNRISE, FL, 33351",114752168,"L"
665939,"4838 ROYAL KING COURT","SAINT LOUIS","MO",63128,38.4767444490001,-90.379059524,439,"4838 ROYAL KING COURT, SAINT LOUIS, MO, 63128","Match","Exact","4838 ROYAL KING CT, SAINT LOUIS, MO, 63128",100156628,"R"
665940,"4838 S CLAREMONT","REPUBLIC","MO",65738,37.1277544870001,-93.439366292,440,"4838 S CLAREMONT, REPUBLIC, MO, 65738","Match","Non_Exact","4838 S CLAREMONT DR, REPUBLIC, MO, 65738",76685141,"L"
665941,"4838 TANGERINE CIRCLE","OAKWOOD","GA",30566,34.2475635050001,-83.89575343,441,"4838 TANGERINE CIRCLE, OAKWOOD, GA, 30566","Match","Non_Exact","4838 TANGERINE, OAKWOOD, GA, 30566",640172446,"L"
665942,"4838 TURNRIDGE COURT NW","CONCORD","NC",28027,35.3782464170001,-80.669375003,442,"4838 TURNRIDGE COURT NW, CONCORD, NC, 28027","Match","Non_Exact","4838 TURNRIDGE CT, CONCORD, NC, 28027",24920156,"R"
665943,"4838 W HATCHER RD","GLENDALE","AZ",85302,33.5707603920001,-112.163588341,443,"4838 W HATCHER RD, GLENDALE, AZ, 85302","Match","Exact","4838 W HATCHER RD, GLENDALE, AZ, 85302",128195769,"R"
665944,"4838 WEST FULTON","CHICAGO","IL",60644,41.8857285400001,-87.74695941,444,"4838 WEST FULTON, CHICAGO, IL, 60644","Match","Non_Exact","4838 W FULTON ST, CHICAGO, IL, 60644",605076584,"R"
665945,"4838 WESTERN AVE","OLIVEHURST","CA",95961,39.094330368,-121.556233873,445,"4838 WESTERN AVE, OLIVEHURST, CA, 95961","Match","Exact","4838 WESTERN AVE, OLIVEHURST, CA, 95961",106941905,"L"
665946,"4838 WHITEFORD ROAD","TOLEDO","OH",43623,41.703732561,-83.6651833019999,446,"4838 WHITEFORD ROAD, TOLEDO, OH, 43623","Match","Exact","4838 WHITEFORD RD, TOLEDO, OH, 43623",33928070,"R"
665947,"4838 WYNDHURST RD","LEXINGTON","KY",40515,37.9569572930001,-84.476593698,447,"4838 WYNDHURST RD, LEXINGTON, KY, 40515","Match","Exact","4838 WYNDHURST RD, LEXINGTON, KY, 40515",31934368,"L"
665948,"48380 TOKER ROAD","HOPEDALE","OH",43976,40.403603289,-80.894935128,448,"48380 TOKER ROAD, HOPEDALE, OH, 43976","Match","Exact","48380 TOKER RD, HOPEDALE, OH, 43976",37719620,"L"
665949,"48382 277TH ST","CANTON","SD",57013,43.373359371,-96.53316217,449,"48382 277TH ST, CANTON, SD, 57013","Match","Exact","48382 277TH ST, CANTON, SD, 57013",176325904,"L"
665950,"4839 213TH STREET","OAKLAND GARDENS","NY",11364,NA,NA,450,"4839 213TH STREET, OAKLAND GARDENS, NY, 11364","No_Match",NA,NA,NA,NA
665951,"4839 APPLEVILLE STREET","MEMPHIS","TN",38109,35.0162617170001,-90.057948902,451,"4839 APPLEVILLE STREET, MEMPHIS, TN, 38109","Match","Exact","4839 APPLEVILLE ST, MEMPHIS, TN, 38109",72922283,"R"
665952,"4839 ARROWHEAD DRIVE","GREELEY","CO",80634,40.3728947870001,-104.759406598,452,"4839 ARROWHEAD DRIVE, GREELEY, CO, 80634","Match","Exact","4839 ARROWHEAD DR, GREELEY, CO, 80634",188674331,"R"
665953,"4839 ARROYO TRAIL","LOUISVILLE","KY",40229,38.0851435280001,-85.6742634399999,453,"4839 ARROYO TRAIL, LOUISVILLE, KY, 40229","Match","Exact","4839 ARROYO TRL, LOUISVILLE, KY, 40229",645485327,"L"
665954,"4839 BINZ ENGLEMEN","KIRBY","TX",78219,29.458402262,-98.397192224,454,"4839 BINZ ENGLEMEN, KIRBY, TX, 78219","Match","Non_Exact","4839 BINZ ENGLEMAN RD, KIRBY, TX, 78219",101536245,"L"
665955,"4839 EBONY RIDGE RD","SAN DIEGO","CA",92102,32.7046070530001,-117.090642546,455,"4839 EBONY RIDGE RD, SAN DIEGO, CA, 92102","Match","Exact","4839 EBONY RIDGE RD, SAN DIEGO, CA, 92102",195673329,"L"
665956,"4839 ENCINO AVE","ENCINO","CA",91316,34.1585703260001,-118.514171778,456,"4839 ENCINO AVE, ENCINO, CA, 91316","Match","Exact","4839 ENCINO AVE, ENCINO, CA, 91316",141793538,"L"
665957,"4839 ENCINO","ENCINO","CA",91316,NA,NA,457,"4839 ENCINO, ENCINO, CA, 91316","Tie",NA,NA,NA,NA
665958,"4839 FLEETVIEW AVE","MEMPHIS","TN",38117,35.128781792,-89.900729882,458,"4839 FLEETVIEW AVE, MEMPHIS, TN, 38117","Match","Exact","4839 FLEETVIEW AVE, MEMPHIS, TN, 38117",72925054,"R"
665959,"4839 IVY ST","EAST CHICAGO","IN",46312,41.6258667560001,-87.453199174,459,"4839 IVY ST, EAST CHICAGO, IN, 46312","Match","Exact","4839 IVY ST, EAST CHICAGO, IN, 46312",98418810,"L"
665960,"4839 LANDMARK WA","DUBLIN","CA",94568,37.7158579320001,-121.85212237,460,"4839 LANDMARK WA, DUBLIN, CA, 94568","Match","Non_Exact","4839 LANDMARK WAY, DUBLIN, CA, 94568",125084415,"L"
665961,"4839 MARKWOOD LN","HOUSTON","TX",77053,29.601577734,-95.4516570499999,461,"4839 MARKWOOD LN, HOUSTON, TX, 77053","Match","Exact","4839 MARKWOOD LN, HOUSTON, TX, 77053",96041117,"L"
665962,"4839 N 5TH STREET","PHILADELPHIA","PA",19120,40.0251399470001,-75.132969159,462,"4839 N 5TH STREET, PHILADELPHIA, PA, 19120","Match","Exact","4839 N 5TH ST, PHILADELPHIA, PA, 19120",131419413,"R"
665963,"4839 N DAMEN AVE UNIT 3S","CHICAGO","IL",60625,41.969672539,-87.679201857,463,"4839 N DAMEN AVE UNIT 3S, CHICAGO, IL, 60625","Match","Non_Exact","4839 N DAMEN AVE, CHICAGO, IL, 60625",605184937,"R"
665964,"4839 N DAMEN AVE UNIT 4N","CHICAGO","IL",60625,41.969672539,-87.679201857,464,"4839 N DAMEN AVE UNIT 4N, CHICAGO, IL, 60625","Match","Non_Exact","4839 N DAMEN AVE, CHICAGO, IL, 60625",605184937,"R"
665965,"4839 N TROY ST","CHICAGO","IL",60625,41.9693466260001,-87.7072687959999,465,"4839 N TROY ST, CHICAGO, IL, 60625","Match","Exact","4839 N TROY ST, CHICAGO, IL, 60625",605182741,"R"
665966,"4839 NETHERLANDS PLACE","FLOWERY BRANCH","GA",30542,34.1959934180001,-83.862687495,466,"4839 NETHERLANDS PLACE, FLOWERY BRANCH, GA, 30542","Match","Exact","4839 NETHERLANDS PL, FLOWERY BR, GA, 30542",627447525,"L"
665967,"4839 NORTH 90TH STREET","OMAHA","NE",68134,41.3035243960001,-96.052519203,467,"4839 NORTH 90TH STREET, OMAHA, NE, 68134","Match","Exact","4839 N 90TH ST, OMAHA, NE, 68134",636738266,"L"
665968,"4839 NORTH VIEWPOINT DR","PRESCOTT","AZ",86305,NA,NA,468,"4839 NORTH VIEWPOINT DR, PRESCOTT, AZ, 86305","No_Match",NA,NA,NA,NA
665969,"4839 OLD SHELBY RD","CONRAD","MT",59425,48.2404796660001,-111.925970688,469,"4839 OLD SHELBY RD, CONRAD, MT, 59425","Match","Exact","4839 OLD SHELBY RD, CONRAD, MT, 59425",204240703,"L"
665970,"4839 PHILIP AVE","DALLAS","TX",75223,32.787550615,-96.756476815,470,"4839 PHILIP AVE, DALLAS, TX, 75223","Match","Exact","4839 PHILIP AVE, DALLAS, TX, 75223",102920479,"L"
665971,"4839 PINE STREET","PHILADELPIA","PA",19143,39.952718265,-75.219571467,471,"4839 PINE STREET, PHILADELPIA, PA, 19143","Match","Non_Exact","4839 PINE ST, PHILADELPHIA, PA, 19143",131399711,"R"
665972,"4839 RATHBONE DR","JACKSONVILLE","FL",32257,30.214245034,-81.600771835,472,"4839 RATHBONE DR, JACKSONVILLE, FL, 32257","Match","Exact","4839 RATHBONE DR, JACKSONVILLE, FL, 32257",83919975,"L"
665973,"4839 RIVERCREST DR","EAU CLAIRE","WI",54703,44.87321418,-91.494588628,473,"4839 RIVERCREST DR, EAU CLAIRE, WI, 54703","Match","Exact","4839 RIVERCREST DR, EAU CLAIRE, WI, 54703",78932673,"L"
665974,"4839 S MICHIGAN AVE APT 1","CHICAGO","IL",60615,41.8067168470001,-87.622760238,474,"4839 S MICHIGAN AVE APT 1, CHICAGO, IL, 60615","Match","Non_Exact","4839 S MICHIGAN AVE, CHICAGO, IL, 60615",111770583,"L"
665975,"4839 SE EBBTIDE AVE","STUART","FL",34997,27.145781664,-80.201200392,475,"4839 SE EBBTIDE AVE, STUART, FL, 34997","Match","Exact","4839 SE EBBTIDE AVE, STUART, FL, 34997",120428850,"R"
665976,"4839 SHREVEPORT HWY","PINEVILLE","LA",71360,31.3854389100001,-92.43478509,476,"4839 SHREVEPORT HWY, PINEVILLE, LA, 71360","Match","Exact","4839 SHREVEPORT HWY, PINEVILLE, LA, 71360",11777598,"R"
665977,"4839 SW 148TH AVENUE SUITE 437","DAVIE","FL",33330,26.0601026900001,-80.346070147,477,"4839 SW 148TH AVENUE SUITE 437, DAVIE, FL, 33330","Match","Non_Exact","4839 SW 148TH AVE, DAVIE, FL, 33330",637473786,"R"
665978,"4839 TOWNSEND AVENUE","LOS ANGELES","CA",90041,34.134261834,-118.201512495,478,"4839 TOWNSEND AVENUE, LOS ANGELES, CA, 90041","Match","Exact","4839 TOWNSEND AVE, LOS ANGELES, CA, 90041",141613577,"L"
665979,"4839 TRITON COURT APT 3","CAPE CORAL","FL",33904,NA,NA,479,"4839 TRITON COURT APT 3, CAPE CORAL, FL, 33904","Tie",NA,NA,NA,NA
665980,"4839 US HIGHWAY 159","EFFINGHAM","KS",66023,NA,NA,480,"4839 US HIGHWAY 159, EFFINGHAM, KS, 66023","No_Match",NA,NA,NA,NA
665981,"4839 VANDERBILT DRIVE","SAN JOSE","CA",95130,37.278864479,-121.98572581,481,"4839 VANDERBILT DRIVE, SAN JOSE, CA, 95130","Match","Exact","4839 VANDERBILT DR, SAN JOSE, CA, 95130",122900475,"R"
665982,"4839 WEST 47TH STREET","CHICAGO","IL",60638,41.8075933650001,-87.74487486,482,"4839 WEST 47TH STREET, CHICAGO, IL, 60638","Match","Exact","4839 W 47TH ST, CHICAGO, IL, 60638",111799836,"L"
665983,"48390 HWY 51","TICKFAW","LA",70466,30.556342708,-90.482594437,483,"48390 HWY 51, TICKFAW, LA, 70466","Match","Exact","48390 HWY 51, TICKFAW, LA, 70466",75764673,"R"
665984,"48391 DEER CREEK WAY","AGUANGA","CA",92536,33.5238464080001,-116.816144739,484,"48391 DEER CREEK WAY, AGUANGA, CA, 92536","Match","Exact","48391 DEER CREEK WAY, AGUANGA, CA, 92536",194696462,"L"
665985,"48391 MANHATTAN CIR","CANTON","MI",48188,42.3012198930001,-83.516785918,485,"48391 MANHATTAN CIR, CANTON, MI, 48188","Match","Exact","48391 MANHATTAN CIR, CANTON, MI, 48188",95697691,"L"
665986,"48393 809TH ROAD","NORTH LOUP","NE",68859,41.5532168830001,-98.783296853,486,"48393 809TH ROAD, NORTH LOUP, NE, 68859","Match","Exact","48393 809TH RD, NORTH LOUP, NE, 68859",198317012,"R"
665987,"48394 DORA CT","BELLEVILLE","MI",48111,42.206810836,-83.512596752,487,"48394 DORA CT, BELLEVILLE, MI, 48111","Match","Exact","48394 DORA CT, BELLEVILLE, MI, 48111",95491121,"R"
665988,"484 - 37TH ST - APT 103","OAKLAND","CA",94609,NA,NA,488,"484 - 37TH ST - APT 103, OAKLAND, CA, 94609","No_Match",NA,NA,NA,NA
665989,"484 1ST STREET SUITE 1","MACON","GA",31201,32.8357829710001,-83.630661687,489,"484 1ST STREET SUITE 1, MACON, GA, 31201","Match","Non_Exact","484 1ST STREET LN, MACON, GA, 31201",81084109,"L"
665990,"484 1ST STREET","MACON","GA",31201,32.836170698,-83.631592602,490,"484 1ST STREET, MACON, GA, 31201","Match","Exact","484 1ST ST, MACON, GA, 31201",81082527,"L"
665991,"484 1ST STREET","MACON","GA",31204,32.836170698,-83.631592602,491,"484 1ST STREET, MACON, GA, 31204","Match","Non_Exact","484 1ST ST, MACON, GA, 31201",81082527,"L"
665992,"484 2ND AVE","SAN FRANCISCO","CA",94118,37.779655269,-122.45987737,492,"484 2ND AVE, SAN FRANCISCO, CA, 94118","Match","Exact","484 2ND AVE, SAN FRANCISCO, CA, 94118",192281899,"L"
665993,"484 600 EAST COUNTY ROAD","NEOGA","IL",62447,NA,NA,493,"484 600 EAST COUNTY ROAD, NEOGA, IL, 62447","No_Match",NA,NA,NA,NA
665994,"484 67TH STREET APT B1","BROOKLYN","NY",11220,40.6357423970001,-74.020450529,494,"484 67TH STREET APT B1, BROOKLYN, NY, 11220","Match","Exact","484 67TH ST, BROOKLYN, NY, 11220",640857290,"L"
665995,"484 ALTER RD","DETROIT","MI",48215,42.368404598,-82.9352405399999,495,"484 ALTER RD, DETROIT, MI, 48215","Match","Exact","484 ALTER RD, DETROIT, MI, 48215",95489094,"R"
665996,"484 APPLEBUTTER ROAD","PIPERSVILLE","PA",18947,NA,NA,496,"484 APPLEBUTTER ROAD, PIPERSVILLE, PA, 18947","No_Match",NA,NA,NA,NA
665997,"484 BACHELOR ROAD","ATMORE","AL",36502,31.005215477,-87.427710997,497,"484 BACHELOR ROAD, ATMORE, AL, 36502","Match","Exact","484 BACHELOR RD, ATMORE, AL, 36502",1928670,"L"
665998,"484 BATTLEY DAIRY ROAD","ROCKINGHAM","NC",28379,34.874446203,-79.7449656539999,498,"484 BATTLEY DAIRY ROAD, ROCKINGHAM, NC, 28379","Match","Exact","484 BATTLEY DAIRY RD, ROCKINGHAM, NC, 28379",13942465,"L"
665999,"484 BAUER RD","LECANTO","FL",34461,28.8559464910001,-82.451072047,499,"484 BAUER RD, LECANTO, FL, 34461","Match","Non_Exact","484 S BAUER RD, LECANTO, FL, 34461",610744434,"L"
666000,"484 BELL BRIDGE CIRCLE","MIDLOTHIAN","VA",23113,37.5519575120001,-77.671816051,500,"484 BELL BRIDGE CIRCLE, MIDLOTHIAN, VA, 23113","Match","Non_Exact","484 BEL BRIDGE CIR, MIDLOTHIAN, VA, 23113",639719948,"R"
