"ID","Address","City","State","Zip","lat","long","id","input_address","match_indicator","match_type","matched_address","tiger_line_id","tiger_side"
731001,"5624 GENDER RD","CANAL WINCHESTER","OH",43110,39.8654926950001,-82.8271882129999,1,"5624 GENDER RD, CANAL WINCHESTER, OH, 43110","Match","Exact","5624 GENDER RD, CANAL WINCHESTER, OH, 43110",218640890,"L"
731002,"5624 GOLF CREEK DR","TOLEDO","OH",43623,41.702079112,-83.676582178,2,"5624 GOLF CREEK DR, TOLEDO, OH, 43623","Match","Non_Exact","5624 GOLF CREEK RD, TOLEDO, OH, 43623",33928096,"R"
731003,"5624 GRAPEFIED RD","BASTIAN","VA",24314,37.15353143,-81.239430727,3,"5624 GRAPEFIED RD, BASTIAN, VA, 24314","Match","Non_Exact","5624 GRAPEFIELD RD, BASTIAN, VA, 24314",46687308,"R"
731004,"5624 HEREFORD DR","TRINITY","FL",34655,28.2407159360001,-82.6475860469999,4,"5624 HEREFORD DR, TRINITY, FL, 34655","Match","Exact","5624 HEREFORD DR, TRINITY, FL, 34655",636389302,"L"
731005,"5624 HIGH TIMBER LANE","INDIANAPOLIS","IN",46235,39.8566596040001,-85.96799502,5,"5624 HIGH TIMBER LANE, INDIANAPOLIS, IN, 46235","Match","Exact","5624 HIGH TIMBER LN, INDIANAPOLIS, IN, 46235",636065681,"L"
731006,"5624 HOKU ROAD","KAPAA","HI",96746,22.0987885530001,-159.329575988,6,"5624 HOKU ROAD, KAPAA, HI, 96746","Match","Exact","5624 HOKU RD, KAPAA, HI, 96746",614440556,"R"
731007,"5624 JUNEBERRY COURT","WATERFORD","MI",48329,42.6803484430001,-83.3993743409999,7,"5624 JUNEBERRY COURT, WATERFORD, MI, 48329","Match","Exact","5624 JUNEBERRY CT, WATERFORD, MI, 48329",69795300,"R"
731008,"5624 KALISA COURT","MOBILE","AL",36693,30.612775625,-88.172522906,8,"5624 KALISA COURT, MOBILE, AL, 36693","Match","Exact","5624 KALISA CT, MOBILE, AL, 36693",61937669,"R"
731009,"5624 LAFITTE","GALVESTON","TX",77551,29.2826544590001,-94.8275676759999,9,"5624 LAFITTE, GALVESTON, TX, 77551","Match","Non_Exact","5624 LAFITTE AVE, GALVESTON, TX, 77551",96678723,"R"
731010,"5624 MAPLETON ST SE","EAST CANTON","OH",44730,40.754960398,-81.302067735,10,"5624 MAPLETON ST SE, EAST CANTON, OH, 44730","Match","Exact","5624 MAPLETON ST SE, EAST CANTON, OH, 44730",639289148,"R"
731011,"5624 MATEO DRIVE","FORT WAYNE","IN",46835,41.1439701670001,-85.0714601509999,11,"5624 MATEO DRIVE, FORT WAYNE, IN, 46835","Match","Non_Exact","5624 MATEO CT, FORT WAYNE, IN, 46835",6384315,"R"
731012,"5624 MCSHANN RD","DALLAS","TX",75230,32.9216021190001,-96.810249152,12,"5624 MCSHANN RD, DALLAS, TX, 75230","Match","Non_Exact","5624 MC SHANN RD, DALLAS, TX, 75230",102900122,"R"
731013,"5624 MELODY LANE","WILLOUGHBY","OH",44094,NA,NA,13,"5624 MELODY LANE, WILLOUGHBY, OH, 44094","No_Match",NA,NA,NA,NA
731014,"5624 MOUNT VERNON WAY","MOUNT PLEASANT","WI",53406,42.7437655370001,-87.848573802,14,"5624 MOUNT VERNON WAY, MOUNT PLEASANT, WI, 53406","Match","Exact","5624 MT VERNON WAY, MOUNT PLEASANT, WI, 53406",77935355,"L"
731015,"5624 MOUNT VERNON WAY","MT PLEASANT","WI",53406,42.7437655370001,-87.848573802,15,"5624 MOUNT VERNON WAY, MT PLEASANT, WI, 53406","Match","Exact","5624 MT VERNON WAY, MOUNT PLEASANT, WI, 53406",77935355,"L"
731016,"5624 NORTH 69TH AVENUE","OMAHA","NE",68104,NA,NA,16,"5624 NORTH 69TH AVENUE, OMAHA, NE, 68104","Tie",NA,NA,NA,NA
731017,"5624 NW 28 ST","LAUDERHILL","FL",33313,26.1617312320001,-80.227544942,17,"5624 NW 28 ST, LAUDERHILL, FL, 33313","Match","Exact","5624 NW 28TH ST, LAUDERHILL, FL, 33313",114707600,"L"
731018,"5624 NW 28TH ST","LAUDERHILL","FL",33313,26.1617312320001,-80.227544942,18,"5624 NW 28TH ST, LAUDERHILL, FL, 33313","Match","Exact","5624 NW 28TH ST, LAUDERHILL, FL, 33313",114707600,"L"
731019,"5624 OAK STREET","MAYSLANDING","NJ",8330,39.4854144380001,-74.677712336,19,"5624 OAK STREET, MAYSLANDING, NJ, 8330","Match","Non_Exact","5624 OAK ST, MAYS LANDING, NJ, 08330",202495683,"L"
731020,"5624 ORCHARD LANE","TUSCALOOSA","AL",35405,33.1649889810001,-87.460941519,20,"5624 ORCHARD LANE, TUSCALOOSA, AL, 35405","Match","Exact","5624 ORCHARD LN, TUSCALOOSA, AL, 35405",82162635,"L"
731021,"5624 PACES GLEN AVE APT 1028","CHARLOTTE","NC",28212,35.199312213,-80.7522832349999,21,"5624 PACES GLEN AVE APT 1028, CHARLOTTE, NC, 28212","Match","Exact","5624 PACES GLEN AVE, CHARLOTTE, NC, 28212",70508670,"L"
731022,"5624 PARK AVE","KANSAS CITY","MO",64130,39.024333051,-94.558822844,22,"5624 PARK AVE, KANSAS CITY, MO, 64130","Match","Exact","5624 PARK AVE, KANSAS CITY, MO, 64130",91452544,"R"
731023,"5624 PARKLAND COURT","VIRGINIA BEACH","VA",23464,36.805449122,-76.186875444,23,"5624 PARKLAND COURT, VIRGINIA BEACH, VA, 23464","Match","Exact","5624 PARKLAND CT, VA BCH, VA, 23464",122258110,"R"
731024,"5624 PERDEMCO AVE","PORT ORCHARD","WA",98367,47.4976808170001,-122.618477885,24,"5624 PERDEMCO AVE, PORT ORCHARD, WA, 98367","Match","Non_Exact","5624 PERDEMCO AVE SE, PORT ORCHARD, WA, 98367",629069529,"L"
731025,"5624 PICNIC ROCK LANE","RALEIGH","NC",27613,35.899211748,-78.734230746,25,"5624 PICNIC ROCK LANE, RALEIGH, NC, 27613","Match","Exact","5624 PICNIC ROCK LN, RALEIGH, NC, 27613",72620983,"L"
731026,"5624 PRAIRIE MEADOWS ROAD","PACE","FL",33571,NA,NA,26,"5624 PRAIRIE MEADOWS ROAD, PACE, FL, 33571","No_Match",NA,NA,NA,NA
731027,"5624 PRAY ST","BONITA","CA",91902,32.683154583,-117.016671224,27,"5624 PRAY ST, BONITA, CA, 91902","Match","Exact","5624 PRAY ST, BONITA, CA, 91902",195362103,"L"
731028,"5624 RAVENEL LANE","SPRINGFIELD","VA",22151,38.7977037270001,-77.2146453189999,28,"5624 RAVENEL LANE, SPRINGFIELD, VA, 22151","Match","Exact","5624 RAVENEL LN, SPRINGFIELD, VA, 22151",76033619,"R"
731029,"5624 S  KEELER","CHICAGO","IL",60629,41.790621243,-87.7279934169999,29,"5624 S  KEELER, CHICAGO, IL, 60629","Match","Non_Exact","5624 S KEELER AVE, CHICAGO, IL, 60629",111800963,"R"
731030,"5624 S 113TH ST","HALES CORNERS","WI",53130,42.942277629,-88.054223959,30,"5624 S 113TH ST, HALES CORNERS, WI, 53130","Match","Exact","5624 S 113TH ST, HALES CORNERS, WI, 53130",77746527,"L"
731031,"5624 S 231ST PLACE","KENT","WA",98032,47.394102289,-122.265067073,31,"5624 S 231ST PLACE, KENT, WA, 98032","Match","Exact","5624 S 231ST PL, KENT, WA, 98032",186719707,"L"
731032,"5624 S GILLIAM STREET","PAHRUMP","NV",89061,36.136940753,-115.943696942,32,"5624 S GILLIAM STREET, PAHRUMP, NV, 89061","Match","Exact","5624 S GILLIAM ST, PAHRUMP, NV, 89061",651378536,"R"
731033,"5624 S KEELER","CHICAGO","IL",60714,NA,NA,33,"5624 S KEELER, CHICAGO, IL, 60714","No_Match",NA,NA,NA,NA
731034,"5624 S LAFAYETTE","CHICAGO","IL",60621,41.7921075900001,-87.626729509,34,"5624 S LAFAYETTE, CHICAGO, IL, 60621","Match","Non_Exact","5624 S LAFAYETTE AVE, CHICAGO, IL, 60621",605540390,"R"
731035,"5624 SENECA DR","PLANO","TX",75094,33.0065751860001,-96.6249798649999,35,"5624 SENECA DR, PLANO, TX, 75094","Match","Exact","5624 SENECA DR, PLANO, TX, 75094",123561882,"R"
731036,"5624 STEVENS CREEK BLVD","CUPERTINO","CA",95014,37.3229188610001,-122.001723943,36,"5624 STEVENS CREEK BLVD, CUPERTINO, CA, 95014","Match","Exact","5624 STEVENS CREEK BLVD, CUPERTINO, CA, 95014",122941996,"L"
731037,"5624 STREETER RD","CEDAR FALLS","IA",50622,42.5825271260001,-92.396721105,37,"5624 STREETER RD, CEDAR FALLS, IA, 50622","Match","Non_Exact","5624 STREETER RD, CEDAR FALLS, IA, 50613",212733299,"L"
731038,"5624 THACKERAY DRIVE","FAYETTEVILLE","NC",28306,34.997653418,-78.949423032,38,"5624 THACKERAY DRIVE, FAYETTEVILLE, NC, 28306","Match","Exact","5624 THACKERAY DR, FAYETTEVILLE, NC, 28306",635327454,"R"
731039,"5624 W 25TH STREET","INDIANAPOLIS","IN",46224,39.8017818390001,-86.25875673,39,"5624 W 25TH STREET, INDIANAPOLIS, IN, 46224","Match","Exact","5624 W 25TH ST, INDIANAPOLIS, IN, 46224",650776352,"R"
731040,"5625 1/2 TRUETT ST","HOU","TX",77023,29.724482193,-95.3179014139999,40,"5625 1/2 TRUETT ST, HOU, TX, 77023","Match","Exact","5625 TRUETT ST, HOUSTON, TX, 77023",96082343,"L"
731041,"5625 1/2 TRUETT ST","HOUSTON","TX",77023,29.724482193,-95.3179014139999,41,"5625 1/2 TRUETT ST, HOUSTON, TX, 77023","Match","Exact","5625 TRUETT ST, HOUSTON, TX, 77023",96082343,"L"
731042,"5625 137TH STREET 2 FL","FLUSHING","NY",11355,NA,NA,42,"5625 137TH STREET 2 FL, FLUSHING, NY, 11355","No_Match",NA,NA,NA,NA
731043,"5625 ALLENTOWN ROAD 107","CAMP SPRINGS","MD",20746,38.806844459,-76.9019953809999,43,"5625 ALLENTOWN ROAD 107, CAMP SPRINGS, MD, 20746","Match","Exact","5625 ALLENTOWN RD, CAMP SPRINGS, MD, 20746",637895333,"L"
731044,"5625 ALLENTOWN ROAD 200","SUITLAND","MD",20746,38.806844459,-76.9019953809999,44,"5625 ALLENTOWN ROAD 200, SUITLAND, MD, 20746","Match","Exact","5625 ALLENTOWN RD, SUITLAND, MD, 20746",637895333,"L"
731045,"5625 ALLENTOWN ROAD SUITE 203","CAMP SPRINGS","MD",20746,38.806844459,-76.9019953809999,45,"5625 ALLENTOWN ROAD SUITE 203, CAMP SPRINGS, MD, 20746","Match","Exact","5625 ALLENTOWN RD, CAMP SPRINGS, MD, 20746",637895333,"L"
731046,"5625 ALLENTOWN ROAD","CAMP SPRINGS","MD",20746,38.806844459,-76.9019953809999,46,"5625 ALLENTOWN ROAD, CAMP SPRINGS, MD, 20746","Match","Exact","5625 ALLENTOWN RD, CAMP SPRINGS, MD, 20746",637895333,"L"
731047,"5625 AMANDA ST","SAN DIEGO","CA",92114,32.707069362,-117.074899987,47,"5625 AMANDA ST, SAN DIEGO, CA, 92114","Match","Exact","5625 AMANDA ST, SAN DIEGO, CA, 92114",195352170,"R"
731048,"5625 AMANDA STREET","SAN DIEGO","CA",92114,32.707069362,-117.074899987,48,"5625 AMANDA STREET, SAN DIEGO, CA, 92114","Match","Exact","5625 AMANDA ST, SAN DIEGO, CA, 92114",195352170,"R"
731049,"5625 ASTER WAY","GALENA","OH",43021,40.2537893640001,-82.957391716,49,"5625 ASTER WAY, GALENA, OH, 43021","Match","Exact","5625 ASTER WAY, GALENA, OH, 43021",213001845,"L"
731050,"5625 BAILEY LANE","AMARILLO","TX",79118,35.0470850470001,-101.898233772,50,"5625 BAILEY LANE, AMARILLO, TX, 79118","Match","Exact","5625 BAILEY LN, AMARILLO, TX, 79118",182659946,"R"
731051,"5625 BROWN ST","LITTLE ROCK","AR",72206,34.6114113090001,-92.224905266,51,"5625 BROWN ST, LITTLE ROCK, AR, 72206","Match","Exact","5625 BROWN ST, LITTLE ROCK, AR, 72206",83536127,"R"
731052,"5625 CAMBRIDGE UNIT 201","CULVER CITY","CA",90230,33.986812511,-118.381117415,52,"5625 CAMBRIDGE UNIT 201, CULVER CITY, CA, 90230","Match","Non_Exact","5625 CAMBRIDGE WAY, CULVER CITY, CA, 90230",142456950,"R"
731053,"5625 CARRIAGE HILLS DRIVE","MT. PLEASANT","WI",53406,42.745537072,-87.848226073,53,"5625 CARRIAGE HILLS DRIVE, MT. PLEASANT, WI, 53406","Match","Exact","5625 CARRIAGE HILLS DR, MOUNT PLEASANT, WI, 53406",77908472,"L"
731054,"5625 DIAMOND DR","JOPLIN","MO",64801,37.110846048,-94.584461275,54,"5625 DIAMOND DR, JOPLIN, MO, 64801","Match","Non_Exact","5625 W DIAMOND DR, JOPLIN, MO, 64801",66171603,"L"
731055,"5625 EISENHOWER DRIVE","FORT WORTH","TX",76112,32.727578291,-97.2329811829999,55,"5625 EISENHOWER DRIVE, FORT WORTH, TX, 76112","Match","Exact","5625 EISENHOWER DR, FORT WORTH, TX, 76112",101898181,"L"
731056,"5625 FM 1960 RD W STE 308","HOUSTON","TX",77069,NA,NA,56,"5625 FM 1960 RD W STE 308, HOUSTON, TX, 77069","No_Match",NA,NA,NA,NA
731057,"5625 FM 1960 RD W STE 308","TOMBALL","TX",77377,NA,NA,57,"5625 FM 1960 RD W STE 308, TOMBALL, TX, 77377","No_Match",NA,NA,NA,NA
731058,"5625 HADDINGTON DR","ADAMSTOWN","MD",21710,39.3103370950001,-77.465560927,58,"5625 HADDINGTON DR, ADAMSTOWN, MD, 21710","Match","Exact","5625 HADDINGTON DR, ADAMSTOWN, MD, 21710",604957549,"R"
731059,"5625 HAVERFORD WAY","LAKE WORTH","FL",33463,26.5949287760001,-80.143512102,59,"5625 HAVERFORD WAY, LAKE WORTH, FL, 33463","Match","Exact","5625 HAVERFORD WAY, LAKE WORTH, FL, 33463",115283732,"L"
731060,"5625 HIDDEN HOLLOW LANE","EMMETT","ID",83617,NA,NA,60,"5625 HIDDEN HOLLOW LANE, EMMETT, ID, 83617","No_Match",NA,NA,NA,NA
731061,"5625 HOGENHILL TERRACE","ROCKVILLE","MD",20853,39.0939126760001,-77.1138164079999,61,"5625 HOGENHILL TERRACE, ROCKVILLE, MD, 20853","Match","Exact","5625 HOGENHILL TER, ROCKVILLE, MD, 20853",62055226,"L"
731062,"5625 HUNTERS BEND LANE","DALLAS","TX",75249,32.655782732,-96.97376887,62,"5625 HUNTERS BEND LANE, DALLAS, TX, 75249","Match","Exact","5625 HUNTERS BEND LN, DALLAS, TX, 75249",619137720,"R"
731063,"5625 IDLEWILD RD N","CHARLOTTE","NC",28227,35.201303636,-80.7187335739999,63,"5625 IDLEWILD RD N, CHARLOTTE, NC, 28227","Match","Exact","5625 IDLEWILD RD N, CHARLOTTE, NC, 28227",618149886,"L"
731064,"5625 LAFAYETTE PARK DRIVE NORTH","JACKSONVILLE","FL",32244,30.222029756,-81.726371505,64,"5625 LAFAYETTE PARK DRIVE NORTH, JACKSONVILLE, FL, 32244","Match","Exact","5625 LAFAYETTE PARK DR N, JACKSONVILLE, FL, 32244",83962726,"R"
731065,"5625 LAWNDALE","HUDSONVILLE","MI",49426,42.871528782,-85.873212359,65,"5625 LAWNDALE, HUDSONVILLE, MI, 49426","Match","Non_Exact","5625 LAWNDALE AVE, HUDSONVILLE, MI, 49426",71082723,"L"
731066,"5625 LON ROBERTS DRIVE","KNOXVILLE","TN",37918,36.045835368,-83.925521997,66,"5625 LON ROBERTS DRIVE, KNOXVILLE, TN, 37918","Match","Exact","5625 LON ROBERTS DR, KNOXVILLE, TN, 37918",42607732,"L"
731067,"5625 MCWAINE DRIVE","BESSEMER","AL",35022,33.348864652,-87.026125668,67,"5625 MCWAINE DRIVE, BESSEMER, AL, 35022","Match","Exact","5625 MCWAINE DR, BESSEMER, AL, 35022",81660365,"L"
731068,"5625 MILES SPRING RD","PINSON","AL",35126,33.7387287510001,-86.631563102,68,"5625 MILES SPRING RD, PINSON, AL, 35126","Match","Exact","5625 MILES SPRING RD, PINSON, AL, 35126",647114459,"R"
731069,"5625 MURRAY DRIVE","BERKELEY","IL",60163,41.886513345,-87.9099633869999,69,"5625 MURRAY DRIVE, BERKELEY, IL, 60163","Match","Exact","5625 MURRAY DR, BERKELEY, IL, 60163",111724814,"L"
731070,"5625 N 17TH STREET","PHOENIX","AZ",85016,33.5193388640001,-112.04496982,70,"5625 N 17TH STREET, PHOENIX, AZ, 85016","Match","Exact","5625 N 17TH ST, PHOENIX, AZ, 85016",128282210,"L"
731071,"5625 N POST RD SUITE L100","INDIANAPOLIS","IN",46216,39.8560776410001,-86.0103215,71,"5625 N POST RD SUITE L100, INDIANAPOLIS, IN, 46216","Match","Non_Exact","5625 N POST RD, INDIANAPOLIS, IN, 46216",640801287,"R"
731072,"5625 N WINTHROP APT 200","CHICAGO","IL",60660,NA,NA,72,"5625 N WINTHROP APT 200, CHICAGO, IL, 60660","No_Match",NA,NA,NA,NA
731073,"5625 N WINTHROP AVE SUITE 500","CHICAGO","IL",60660,41.984189601,-87.658011696,73,"5625 N WINTHROP AVE SUITE 500, CHICAGO, IL, 60660","Match","Non_Exact","5625 N WINTHROP AVE, CHICAGO, IL, 60660",111745907,"R"
731074,"5625 N WINTHROP AVE","CHICAGO","IL",60640,41.984189601,-87.658011696,74,"5625 N WINTHROP AVE, CHICAGO, IL, 60640","Match","Non_Exact","5625 N WINTHROP AVE, CHICAGO, IL, 60660",111745907,"R"
731075,"5625 NEW HAMPSHIRE AVE","WASHINGTON","DC",20011,38.9581316540001,-77.008094958,75,"5625 NEW HAMPSHIRE AVE, WASHINGTON, DC, 20011","Match","Non_Exact","5625 NEW HAMPSHIRE AVE NE, WASHINGTON, DC, 20011",76223848,"R"
731076,"5625 NORTH 16TH ST","PHILADELPHIA","PA",19141,40.0394428480001,-75.148525295,76,"5625 NORTH 16TH ST, PHILADELPHIA, PA, 19141","Match","Exact","5625 N 16TH ST, PHILADELPHIA, PA, 19141",131440974,"R"
731077,"5625 NORTH CAMINO DEL CONTENTO","PARADISE VALLEY","AZ",85253,NA,NA,77,"5625 NORTH CAMINO DEL CONTENTO, PARADISE VALLEY, AZ, 85253","No_Match",NA,NA,NA,NA
731078,"5625 NW 121 AVE","CORAL SPRINGS","FL",33076,26.300754995,-80.288040752,78,"5625 NW 121 AVE, CORAL SPRINGS, FL, 33076","Match","Exact","5625 NW 121ST AVE, CORAL SPRINGS, FL, 33076",114800680,"R"
731079,"5625 O STREET SUITE 5","LINCOLN","NE",68510,NA,NA,79,"5625 O STREET SUITE 5, LINCOLN, NE, 68510","No_Match",NA,NA,NA,NA
731080,"5625 OSAGE LAKE DRIVE 3B","SOUTH BEND","IN",46545,41.710174513,-86.176476626,80,"5625 OSAGE LAKE DRIVE 3B, SOUTH BEND, IN, 46545","Match","Non_Exact","5625 OSAGE LAKE DR, MISHAWAKA, IN, 46545",8072710,"L"
731081,"5625 PEREGRINE PL","PORTLAND","OR",97229,45.5601706570001,-122.886489874,81,"5625 PEREGRINE PL, PORTLAND, OR, 97229","Match","Non_Exact","5625 NW PEREGRINE PL, PORTLAND, OR, 97229",158200923,"L"
731082,"5625 PIEDRA DRIVE","FORT WORTH","TX",76179,32.8354855810001,-97.411700035,82,"5625 PIEDRA DRIVE, FORT WORTH, TX, 76179","Match","Exact","5625 PIEDRA DR, FORT WORTH, TX, 76179",619871741,"L"
731083,"5625 PIN OAK LANE","SHERWOOD","AR",72120,NA,NA,83,"5625 PIN OAK LANE, SHERWOOD, AR, 72120","No_Match",NA,NA,NA,NA
731084,"5625 POPLAR TRAIL DRIVE","MOUNT HOLLY","NC",28120,35.3034410560001,-81.055378256,84,"5625 POPLAR TRAIL DRIVE, MOUNT HOLLY, NC, 28120","Match","Exact","5625 POPLAR TRAIL DR, MOUNT HOLLY, NC, 28120",70456359,"L"
731085,"5625 PRAIRIE STREET","CEDAR FALLS","IA",50613,42.487289764,-92.4111265129999,85,"5625 PRAIRIE STREET, CEDAR FALLS, IA, 50613","Match","Exact","5625 PRAIRIE ST, CEDAR FALLS, IA, 50613",77250924,"R"
731086,"5625 REDWOOD STREET","SAN DIEGO","CA",92105,32.7407194740001,-117.074219636,86,"5625 REDWOOD STREET, SAN DIEGO, CA, 92105","Match","Exact","5625 REDWOOD ST, SAN DIEGO, CA, 92105",195372635,"R"
731087,"5625 ROCK WREN CT","ELK GROVE","CA",95758,38.4287541620001,-121.439993726,87,"5625 ROCK WREN CT, ELK GROVE, CA, 95758","Match","Exact","5625 ROCK WREN CT, ELK GROVE, CA, 95758",133379635,"L"
731088,"5625 S 73RD ST","LINCOLN","NE",68516,40.756527126,-96.620622853,88,"5625 S 73RD ST, LINCOLN, NE, 68516","Match","Exact","5625 S 73RD ST, LINCOLN, NE, 68516",28285124,"R"
731089,"5625 S ALAMO CT","LITTLETON","CO",80123,39.615670843,-105.066651669,89,"5625 S ALAMO CT, LITTLETON, CO, 80123","Match","Exact","5625 S ALAMO CT, LITTLETON, CO, 80123",177629612,"R"
731090,"5625 S BAILEY LAKE AVE","BEAVERTON","MI",48612,43.905652423,-84.646307978,90,"5625 S BAILEY LAKE AVE, BEAVERTON, MI, 48612","Match","Exact","5625 S BAILEY LAKE AVE, BEAVERTON, MI, 48612",110385587,"R"
731091,"5625 SANTA ANITA AVE - 210","TEMPLE CITY","CA",91780,34.1060788500001,-118.030395814,91,"5625 SANTA ANITA AVE - 210, TEMPLE CITY, CA, 91780","Match","Exact","5625 SANTA ANITA AVE, TEMPLE CITY, CA, 91780",241248834,"L"
731092,"5625 SOUTH GREEN","CHICAGO","IL",60621,41.7919506690001,-87.646302584,92,"5625 SOUTH GREEN, CHICAGO, IL, 60621","Match","Non_Exact","5625 S GREEN ST, CHICAGO, IL, 60621",111829898,"L"
731093,"5625 SPICEWOOD DRIVE","COLUMBIA","MO",65203,38.8910235880001,-92.4151442899999,93,"5625 SPICEWOOD DRIVE, COLUMBIA, MO, 65203","Match","Non_Exact","5625 SPICE WOOD CT, COLUMBIA, MO, 65203",627685829,"R"
731094,"5625 STEEPLECHASE DRIVE","WAUNAKEE","WI",53597,43.164086592,-89.428677635,94,"5625 STEEPLECHASE DRIVE, WAUNAKEE, WI, 53597","Match","Exact","5625 STEEPLECHASE DR, WAUNAKEE, WI, 53597",49507710,"R"
731095,"5625 W FLOWING LAKE RD","SNOHOMISH","WA",98290,47.9385195090001,-121.983013395,95,"5625 W FLOWING LAKE RD, SNOHOMISH, WA, 98290","Match","Exact","5625 W FLOWING LAKE RD, SNOHOMISH, WA, 98290",608937986,"L"
731096,"5625 W MICHIGAN AVE","GLENDALE","AZ",85308,33.6503907310001,-112.180889934,96,"5625 W MICHIGAN AVE, GLENDALE, AZ, 85308","Match","Exact","5625 W MICHIGAN AVE, GLENDALE, AZ, 85308",128173584,"L"
731097,"5625 W PARADISE LANE","GLENDALE","AZ",85306,33.632363072,-112.179602544,97,"5625 W PARADISE LANE, GLENDALE, AZ, 85306","Match","Exact","5625 W PARADISE LN, GLENDALE, AZ, 85306",128174406,"L"
731098,"5625 WEATHERBY LOOP","CANAL WINCHESTER","OH",43110,NA,NA,98,"5625 WEATHERBY LOOP, CANAL WINCHESTER, OH, 43110","No_Match",NA,NA,NA,NA
731099,"5625 WOODFIELD PARKWAY","GRAND BLANC","MI",48439,42.8783590090001,-83.5884799579999,99,"5625 WOODFIELD PARKWAY, GRAND BLANC, MI, 48439","Match","Exact","5625 WOODFIELD PKWY, GRAND BLANC, MI, 48439",627193748,"L"
731100,"56251 BICKHAM CHAPEL RD","AMITE","LA",70422,30.6742360900001,-90.503335927,100,"56251 BICKHAM CHAPEL RD, AMITE, LA, 70422","Match","Exact","56251 BICKHAM CHAPEL RD, AMITE, LA, 70422",75773986,"L"
731101,"56253 BICKHAM CHAPEL RD","AMITE","LA",70422,30.6742854230001,-90.503356395,101,"56253 BICKHAM CHAPEL RD, AMITE, LA, 70422","Match","Exact","56253 BICKHAM CHAPEL RD, AMITE, LA, 70422",75773986,"L"
731102,"5626 103RD AVENUE N","BROOKLYN PARK","MN",55443,45.140041556,-93.353968357,102,"5626 103RD AVENUE N, BROOKLYN PARK, MN, 55443","Match","Non_Exact","5626 103RD AVE, BROOKLYN PARK, MN, 55443",626693192,"R"
731103,"5626 21ST ST CT E","BRADENTON","FL",34203,27.441265242,-82.5378854969999,103,"5626 21ST ST CT E, BRADENTON, FL, 34203","Match","Exact","5626 21ST STREET CT E, BRADENTON, FL, 34203",16254834,"L"
731104,"5626 ALLOTT AVE","SHERMAN OAKS","CA",91401,34.172679128,-118.427959599,104,"5626 ALLOTT AVE, SHERMAN OAKS, CA, 91401","Match","Exact","5626 ALLOTT AVE, SHERMAN OAKS, CA, 91401",141561830,"R"
731105,"5626 AMELIA PLANTATION DRIVE","KATY","TX",77449,29.8537222210001,-95.71018026,105,"5626 AMELIA PLANTATION DRIVE, KATY, TX, 77449","Match","Exact","5626 AMELIA PLANTATION DR, KATY, TX, 77449",646704284,"R"
731106,"5626 ARDMORE DR","BATON ROUGE","LA",70817,30.4028762930001,-91.014463822,106,"5626 ARDMORE DR, BATON ROUGE, LA, 70817","Match","Exact","5626 ARDMORE DR, BATON ROUGE, LA, 70817",92195034,"R"
731107,"5626 AUCKLAND AVE","NORTH HOLLYWOOD","CA",91601,34.172907192,-118.360455283,107,"5626 AUCKLAND AVE, NORTH HOLLYWOOD, CA, 91601","Match","Exact","5626 AUCKLAND AVE, N HOLLYWOOD, CA, 91601",141591964,"R"
731108,"5626 AUCKLAND","RODRIGUE","CA",91601,NA,NA,108,"5626 AUCKLAND, RODRIGUE, CA, 91601","No_Match",NA,NA,NA,NA
731109,"5626 BALL CAMP PIKE","KNOXVILLE","TN",37921,35.976702372,-84.013622574,109,"5626 BALL CAMP PIKE, KNOXVILLE, TN, 37921","Match","Exact","5626 BALL CAMP PIKE, KNOXVILLE, TN, 37921",42613513,"L"
731110,"5626 BLUE SHADOW COURT","ORLANDO","FL",32811,28.498344479,-81.457998543,110,"5626 BLUE SHADOW COURT, ORLANDO, FL, 32811","Match","Non_Exact","5626 BLUE SHADOWS CT, ORLANDO, FL, 32811",94366282,"L"
731111,"5626 CAMELIA AVE","NORTH HOLLYWOOD","CA",91601,34.172704465,-118.382225341,111,"5626 CAMELIA AVE, NORTH HOLLYWOOD, CA, 91601","Match","Non_Exact","5626 CAMELLIA AVE, N HOLLYWOOD, CA, 91601",141564832,"R"
731112,"5626 CHINOOK DRIVE NE","TACOMA","WA",98422,47.306832179,-122.411341216,112,"5626 CHINOOK DRIVE NE, TACOMA, WA, 98422","Match","Exact","5626 CHINOOK DR NE, TACOMA, WA, 98422",184713916,"R"
731113,"5626 DAVID CHRISTIAN PLACE","GREENSBORO","NC",27410,36.1207658380001,-79.889704643,113,"5626 DAVID CHRISTIAN PLACE, GREENSBORO, NC, 27410","Match","Exact","5626 DAVID CHRISTIAN PL, GREENSBORO, NC, 27410",624707611,"R"
731114,"5626 DAVIS MILL RD","GREENSBORO","NC",27406,35.960312792,-79.792600367,114,"5626 DAVIS MILL RD, GREENSBORO, NC, 27406","Match","Exact","5626 DAVIS MILL RD, GREENSBORO, NC, 27406",647272021,"L"
731115,"5626 FLAGLER DR","CENTREVILLE","VA",20120,38.8545530810001,-77.458110161,115,"5626 FLAGLER DR, CENTREVILLE, VA, 20120","Match","Exact","5626 FLAGLER DR, CENTREVILLE, VA, 20120",647333791,"L"
731116,"5626 GOLDFISH ST APT C","LUTZ","FL",33558,28.1295943710001,-82.5365005039999,116,"5626 GOLDFISH ST APT C, LUTZ, FL, 33558","Match","Exact","5626 GOLDFISH ST, LUTZ, FL, 33558",104573059,"R"
731117,"5626 GREEN TURTLE LANE","WILMINGTON","NC",28409,34.1989757750001,-77.831305575,117,"5626 GREEN TURTLE LANE, WILMINGTON, NC, 28409","Match","Exact","5626 GREEN TURTLE LN, WILMINGTON, NC, 28409",152751276,"R"
731118,"5626 GRESHAM LANE","CENTREVILLE","VA",20120,38.845857713,-77.424564322,118,"5626 GRESHAM LANE, CENTREVILLE, VA, 20120","Match","Exact","5626 GRESHAM LN, CENTREVILLE, VA, 20120",76012237,"L"
731119,"5626 HEISKELL STREET","PHILADELPHIA","PA",19144,40.0390914920001,-75.1696270099999,119,"5626 HEISKELL STREET, PHILADELPHIA, PA, 19144","Match","Exact","5626 HEISKELL ST, PHILADELPHIA, PA, 19144",131395824,"L"
731120,"5626 HINDON WAY","CITRUS HEIGHTS","CA",95621,38.6681176110001,-121.294281357,120,"5626 HINDON WAY, CITRUS HEIGHTS, CA, 95621","Match","Exact","5626 HINDON WAY, CITRUS HEIGHTS, CA, 95621",133344499,"R"
731121,"5626 HODIAMONT AVE","ST LOUIS","MO",63136,38.7121201680001,-90.2612994529999,121,"5626 HODIAMONT AVE, ST LOUIS, MO, 63136","Match","Exact","5626 HODIAMONT AVE, SAINT LOUIS, MO, 63136",100149828,"R"
731122,"5626 HWY 107","PINEVILLE","LA",71360,31.2536894420001,-92.294349348,122,"5626 HWY 107, PINEVILLE, LA, 71360","Match","Non_Exact","5626 STATE RTE 107, PINEVILLE, LA, 71360",11806655,"L"
731123,"5626 KERMIT LANE","STOCKTON","CA",95207,38.004706178,-121.301056927,123,"5626 KERMIT LANE, STOCKTON, CA, 95207","Match","Exact","5626 KERMIT LN, STOCKTON, CA, 95207",614165219,"R"
731124,"5626 KERMIT LANE","STOCTON","CA",95207,38.004706178,-121.301056927,124,"5626 KERMIT LANE, STOCTON, CA, 95207","Match","Non_Exact","5626 KERMIT LN, STOCKTON, CA, 95207",614165219,"R"
731125,"5626 KEYSTONE PLACE N","SEATTLE","WA",98103,47.669785678,-122.333708167,125,"5626 KEYSTONE PLACE N, SEATTLE, WA, 98103","Match","Exact","5626 KEYSTONE PL N, SEATTLE, WA, 98103",239761628,"R"
731126,"5626 LEXINGTON DRIVE","COLUMBUS","GA",31907,32.4249773830001,-84.8951109499999,126,"5626 LEXINGTON DRIVE, COLUMBUS, GA, 31907","Match","Exact","5626 LEXINGTON DR, COLUMBUS, GA, 31907",98943779,"R"
731127,"5626 LUXEMBOURG STREET","ROCKVILLE","MD",20852,39.029985647,-77.114736034,127,"5626 LUXEMBOURG STREET, ROCKVILLE, MD, 20852","Match","Non_Exact","5626 LUXEMBURG ST, ROCKVILLE, MD, 20852",636853265,"L"
731128,"5626 MONDELL ROAD","SHARPSBURG","MD",21782,39.4704095720001,-77.756358531,128,"5626 MONDELL ROAD, SHARPSBURG, MD, 21782","Match","Exact","5626 MONDELL RD, SHARPSBURG, MD, 21782",612176338,"L"
731129,"5626 N 51ST AVE","GLENDALE","AZ",85301,33.5189531460001,-112.16869705,129,"5626 N 51ST AVE, GLENDALE, AZ, 85301","Match","Exact","5626 N 51ST AVE, GLENDALE, AZ, 85301",128197791,"L"
731130,"5626 NORTH 134TH DRIVE","LITCHFIELD PARK","AZ",85340,33.516671337,-112.347739239,130,"5626 NORTH 134TH DRIVE, LITCHFIELD PARK, AZ, 85340","Match","Exact","5626 N 134TH DR, LITCHFIELD PARK, AZ, 85340",128858768,"L"
731131,"5626 NORTH PLYMOUTH COURT","MCCORDSVILLE","IN",46055,39.864514522,-85.927933006,131,"5626 NORTH PLYMOUTH COURT, MCCORDSVILLE, IN, 46055","Match","Exact","5626 N PLYMOUTH CT, MCCORDSVILLE, IN, 46055",31083318,"L"
731132,"5626 OLD MONROE CIRCLE","CONCORD","NC",28025,35.3394515190001,-80.523146293,132,"5626 OLD MONROE CIRCLE, CONCORD, NC, 28025","Match","Exact","5626 OLD MONROE CIR, CONCORD, NC, 28025",24901333,"L"
731133,"5626 OSAGE DRIVE","MISHAWAKA","IN",46628,NA,NA,133,"5626 OSAGE DRIVE, MISHAWAKA, IN, 46628","No_Match",NA,NA,NA,NA
731134,"5626 PRESTON OAKS RD","DALLAS","TX",75232,32.943277901,-96.811098121,134,"5626 PRESTON OAKS RD, DALLAS, TX, 75232","Match","Non_Exact","5626 PRESTON OAKS RD, DALLAS, TX, 75254",650065790,"R"
731135,"5626 S HELENA CT","CENTENNIAL","CO",80015,39.61482541,-104.807183644,135,"5626 S HELENA CT, CENTENNIAL, CO, 80015","Match","Exact","5626 S HELENA CT, CENTENNIAL, CO, 80015",177518125,"R"
731136,"5626 SCOTLAND CIRCLE","PENSACOLA","FL",32526,30.450868282,-87.33112246,136,"5626 SCOTLAND CIRCLE, PENSACOLA, FL, 32526","Match","Exact","5626 SCOTLAND CIR, PENSACOLA, FL, 32526",93211957,"R"
731137,"5626 SOUTH DOGWOOD HEIGHTS","VAN BUREN","AR",72956,35.5200304910001,-94.3642001539999,137,"5626 SOUTH DOGWOOD HEIGHTS, VAN BUREN, AR, 72956","Match","Exact","5626 S DOGWOOD HTS, VAN BUREN, AR, 72956",53492564,"L"
731138,"5626 STEVENS FOREST ROAD APT 293","COLUMBIA","MD",21045,39.2136438810001,-76.848563241,138,"5626 STEVENS FOREST ROAD APT 293, COLUMBIA, MD, 21045","Match","Exact","5626 STEVENS FOREST RD, COLUMBIA, MD, 21045",158960521,"R"
731139,"5626 WALCOTT MILLS DRIVE","SPRING","TX",77379,30.031661635,-95.500568529,139,"5626 WALCOTT MILLS DRIVE, SPRING, TX, 77379","Match","Exact","5626 WALCOTT MILLS DR, SPRING, TX, 77379",638592715,"R"
731140,"5626 WARMSPRING ROAD","GREENCASTLE","PA",17225,39.846221472,-77.801713321,140,"5626 WARMSPRING ROAD, GREENCASTLE, PA, 17225","Match","Non_Exact","5626 WARM SPRING RD, GREENCASTLE, PA, 17225",635497662,"R"
731141,"5626 WEST JUDY COURT","VISALIA","CA",93277,36.315940777,-119.352693964,141,"5626 WEST JUDY COURT, VISALIA, CA, 93277","Match","Exact","5626 W JUDY CT, VISALIA, CA, 93277",202778831,"R"
731142,"5626 WINDERMERE DR UNIT 4","JACKSONVILLE","FL",32211,30.337772456,-81.602142956,142,"5626 WINDERMERE DR UNIT 4, JACKSONVILLE, FL, 32211","Match","Exact","5626 WINDERMERE DR, JACKSONVILLE, FL, 32211",83902742,"R"
731143,"56260 TERRITORIAL RD","DECATUR","MI",49045,42.121381166,-86.092810366,143,"56260 TERRITORIAL RD, DECATUR, MI, 49045","Match","Exact","56260 TERRITORIAL RD, DECATUR, MI, 49045",34753099,"L"
731144,"56265 45TH STREET","ELKHART","IN",46516,41.677309886,-86.03729548,144,"56265 45TH STREET, ELKHART, IN, 46516","Match","Exact","56265 45TH ST, ELKHART, IN, 46516",7757661,"R"
731145,"56268 E 302 RD","MONKEY ISLAND","OK",74331,36.578506745,-94.866116284,145,"56268 E 302 RD, MONKEY ISLAND, OK, 74331","Match","Exact","56268 E 302 RD, MONKEY ISLAND, OK, 74331",49678289,"R"
731146,"5627 ALLENTOWN ROAD 203","CAMP SPRINGS","MD",20746,38.8068435770001,-76.902001846,146,"5627 ALLENTOWN ROAD 203, CAMP SPRINGS, MD, 20746","Match","Exact","5627 ALLENTOWN RD, CAMP SPRINGS, MD, 20746",637895333,"L"
731147,"5627 ALLENTOWN ROAD 204","CAMP SPRINGS","MD",20746,38.8068435770001,-76.902001846,147,"5627 ALLENTOWN ROAD 204, CAMP SPRINGS, MD, 20746","Match","Exact","5627 ALLENTOWN RD, CAMP SPRINGS, MD, 20746",637895333,"L"
731148,"5627 ALLENTOWN ROAD 204","SUITLAND","MD",20746,38.8068435770001,-76.902001846,148,"5627 ALLENTOWN ROAD 204, SUITLAND, MD, 20746","Match","Exact","5627 ALLENTOWN RD, SUITLAND, MD, 20746",637895333,"L"
731149,"5627 ALLENTOWN ROAD SUITE 203","CAMP SPRINGS","MD",20746,38.8068435770001,-76.902001846,149,"5627 ALLENTOWN ROAD SUITE 203, CAMP SPRINGS, MD, 20746","Match","Exact","5627 ALLENTOWN RD, CAMP SPRINGS, MD, 20746",637895333,"L"
731150,"5627 ALLENTOWN ROAD SUITE 204","CAMP SPRINGS","MD",20746,38.8068435770001,-76.902001846,150,"5627 ALLENTOWN ROAD SUITE 204, CAMP SPRINGS, MD, 20746","Match","Exact","5627 ALLENTOWN RD, CAMP SPRINGS, MD, 20746",637895333,"L"
731151,"5627 ALLENTOWN ROAD","CAMP SPRINGS","MD",20746,38.8068435770001,-76.902001846,151,"5627 ALLENTOWN ROAD, CAMP SPRINGS, MD, 20746","Match","Exact","5627 ALLENTOWN RD, CAMP SPRINGS, MD, 20746",637895333,"L"
731152,"5627 APRIL JOURNEY","COLUMBIA","MD",21044,39.231748936,-76.849413017,152,"5627 APRIL JOURNEY, COLUMBIA, MD, 21044","Match","Non_Exact","5627 APRIL JOURNEY RD, COLUMBIA, MD, 21044",158947482,"R"
731153,"5627 BERWICK CT","DISCOVERY BAY","CA",94505,37.8992524650001,-121.591050793,153,"5627 BERWICK CT, DISCOVERY BAY, CA, 94505","Match","Exact","5627 BERWICK CT, DISCOVERY BAY, CA, 94505",192079115,"R"
731154,"5627 COOPER HOLLOW RD","MONMOUTH","OR",97361,NA,NA,154,"5627 COOPER HOLLOW RD, MONMOUTH, OR, 97361","No_Match",NA,NA,NA,NA
731155,"5627 COUNTRY WALK LANE","SARASOTA","FL",34233,27.2776101380001,-82.458001774,155,"5627 COUNTRY WALK LANE, SARASOTA, FL, 34233","Match","Exact","5627 COUNTRY WALK LN, SARASOTA, FL, 34233",16384917,"R"
731156,"5627 CRESTHAVEN LANE","TOLEDO","OH",43614,41.603045068,-83.672744086,156,"5627 CRESTHAVEN LANE, TOLEDO, OH, 43614","Match","Exact","5627 CRESTHAVEN LN, TOLEDO, OH, 43614",33952547,"L"
731157,"5627 GARRIGA","LAS VEGAS","NV",89135,36.0852599520001,-115.320126379,157,"5627 GARRIGA, LAS VEGAS, NV, 89135","Match","Non_Exact","5627 GARRIGA DR, LAS VEGAS, NV, 89135",645744911,"R"
731158,"5627 GAUMER AVE","PENNSAUKEN","NJ",8109,39.940903114,-75.062979495,158,"5627 GAUMER AVE, PENNSAUKEN, NJ, 8109","Match","Exact","5627 GAUMER AVE, PENNSAUKEN, NJ, 08109",134343611,"R"
731159,"5627 GREEN CIRCLE DRIVE  UNIT 322","MINNETONKA","MN",55305,NA,NA,159,"5627 GREEN CIRCLE DRIVE  UNIT 322, MINNETONKA, MN, 55305","No_Match",NA,NA,NA,NA
731160,"5627 HEATHER RUN","HOUSTON","TX",77041,29.8501061490001,-95.600190224,160,"5627 HEATHER RUN, HOUSTON, TX, 77041","Match","Exact","5627 HEATHER RUN, HOUSTON, TX, 77041",96293091,"R"
731161,"5627 KEAN ROAD","WESTERVILLE","OH",43082,40.1316562970001,-82.79631753,161,"5627 KEAN ROAD, WESTERVILLE, OH, 43082","Match","Exact","5627 KEAN RD, WESTERVILLE, OH, 43082",652707394,"L"
731162,"5627 KYLE DRIVE","CENTREVILLE","VA",20120,38.840642992,-77.4203711869999,162,"5627 KYLE DRIVE, CENTREVILLE, VA, 20120","Match","Exact","5627 KYLE DR, CENTREVILLE, VA, 20120",618788230,"L"
731163,"5627 LAMAR RD","BETHESDA","MD",20816,38.9641498500001,-77.113225246,163,"5627 LAMAR RD, BETHESDA, MD, 20816","Match","Exact","5627 LAMAR RD, BETHESDA, MD, 20816",62058938,"R"
731164,"5627 LIBERTY MANOR CIRCLE","WOODBRIDGE","VA",22193,38.6324949420001,-77.3769460199999,164,"5627 LIBERTY MANOR CIRCLE, WOODBRIDGE, VA, 22193","Match","Exact","5627 LIBERTY MANOR CIR, WOODBRIDGE, VA, 22193",646643832,"L"
731165,"5627 MATINA DRIVE","ELK GROVE","CA",95757,38.3821608910001,-121.437960933,165,"5627 MATINA DRIVE, ELK GROVE, CA, 95757","Match","Exact","5627 MATINA DR, ELK GROVE, CA, 95757",614155172,"L"
731166,"5627 MILENTZ AVENUE","ST. LOUIS","MO",63109,38.5795241960001,-90.2904126029999,166,"5627 MILENTZ AVENUE, ST. LOUIS, MO, 63109","Match","Exact","5627 MILENTZ AVE, SAINT LOUIS, MO, 63109",107599405,"R"
731167,"5627 MONROE STREET","CHEVERLY","MD",20784,38.9341308320001,-76.921057076,167,"5627 MONROE STREET, CHEVERLY, MD, 20784","Match","Exact","5627 MONROE ST, CHEVERLY, MD, 20784",76345560,"R"
731168,"5627 N FLORA AVENUE","FRESNO","CA",93710,36.8202175550001,-119.764332856,168,"5627 N FLORA AVENUE, FRESNO, CA, 93710","Match","Exact","5627 N FLORA AVE, FRESNO, CA, 93710",197632242,"L"
731169,"5627 N LONDON PLACE","KANSAS CITY","MO",64151,39.19695067,-94.63246765,169,"5627 N LONDON PLACE, KANSAS CITY, MO, 64151","Match","Exact","5627 N LONDON PL, KANSAS CITY, MO, 64151",39707246,"R"
731170,"5627 PARIS AVE","NEW ORLEANS","LA",70122,30.0148247930001,-90.074838799,170,"5627 PARIS AVE, NEW ORLEANS, LA, 70122","Match","Exact","5627 PARIS AVE, NEW ORLEANS, LA, 70122",191754440,"L"
731171,"5627 PORTICO DRIVE","RIVERBANK","CA",95367,37.72043892,-120.95244353,171,"5627 PORTICO DRIVE, RIVERBANK, CA, 95367","Match","Exact","5627 PORTICO DR, RIVERBANK, CA, 95367",102643039,"L"
731172,"5627 STATFIELD GLEN LANE","KATY","TX",77450,29.714379079,-95.757559911,172,"5627 STATFIELD GLEN LANE, KATY, TX, 77450","Match","Exact","5627 STATFIELD GLEN LN, KATY, TX, 77450",633670568,"R"
731173,"5627 STONINGTON TRACE PKWY","STONE MOUNTAIN","GA",30087,33.7825641260001,-84.159168134,173,"5627 STONINGTON TRACE PKWY, STONE MOUNTAIN, GA, 30087","Match","Exact","5627 STONINGTON TRACE PKWY, STONE MOUNTAIN, GA, 30087",23381660,"R"
731174,"5627 SUNDAY DR","OTISCO","IN",47163,38.545864738,-85.7178277199999,174,"5627 SUNDAY DR, OTISCO, IN, 47163","Match","Exact","5627 SUNDAY DR, OTISCO, IN, 47163",633586688,"L"
731175,"5627 TELEGRAPH AVE SUITE 158","OAKLAND","CA",94609,37.841642269,-122.261829615,175,"5627 TELEGRAPH AVE SUITE 158, OAKLAND, CA, 94609","Match","Exact","5627 TELEGRAPH AVE, OAKLAND, CA, 94609",635481446,"L"
731176,"5627 TELEGRAPH AVENUE STE 123","OAKLAND","CA",94609,37.841642269,-122.261829615,176,"5627 TELEGRAPH AVENUE STE 123, OAKLAND, CA, 94609","Match","Exact","5627 TELEGRAPH AVE, OAKLAND, CA, 94609",635481446,"L"
731177,"5627 W 107TH STREET","CHICAGO RIDGE","IL",60415,41.697892245,-87.7596359089999,177,"5627 W 107TH STREET, CHICAGO RIDGE, IL, 60415","Match","Exact","5627 107TH ST, CHICAGO RIDGE, IL, 60415",111813559,"L"
731178,"5627 WESTCHESTER CIR","STOCKTON","CA",95219,38.056164564,-121.384638238,178,"5627 WESTCHESTER CIR, STOCKTON, CA, 95219","Match","Exact","5627 WESTCHESTER CIR, STOCKTON, CA, 95219",133891676,"R"
731179,"5627 WINTHROP AVE","INDIANAPOLIS","IN",46201,39.85507884,-86.141444538,179,"5627 WINTHROP AVE, INDIANAPOLIS, IN, 46201","Match","Non_Exact","5627 WINTHROP AVE, INDIANAPOLIS, IN, 46220",107984984,"R"
731180,"5627","ELKGROVE","CA",95757,NA,NA,180,"5627, ELKGROVE, CA, 95757","No_Match",NA,NA,NA,NA
731181,"56272 52ND AVENUE","LAWRENCE","MI",49064,42.2291923070001,-86.093041364,181,"56272 52ND AVENUE, LAWRENCE, MI, 49064","Match","Exact","56272 52ND AVE, LAWRENCE, MI, 49064",34752145,"R"
731182,"5627A KANSAS STREET","HOUSTON","TX",77007,29.781964477,-95.422740738,182,"5627A KANSAS STREET, HOUSTON, TX, 77007","Match","Exact","5627 KANSAS ST, HOUSTON, TX, 77007",96060112,"L"
731183,"5628 75TH AVE CT W","UNIVERSITY PLACE","WA",98467,47.201707206,-122.537892562,183,"5628 75TH AVE CT W, UNIVERSITY PLACE, WA, 98467","Match","Exact","5628 75TH AVENUE CT W, UNIVERSITY PLACE, WA, 98467",184678194,"R"
731184,"5628 AFTON DRIVE","BIRMINGHAM","AL",35242,33.4026614000001,-86.7257785959999,184,"5628 AFTON DRIVE, BIRMINGHAM, AL, 35242","Match","Exact","5628 AFTON DR, BIRMINGHAM, AL, 35242",82117907,"R"
731185,"5628 BEND CREEK ROAD","DUNWOODY","GA",30338,33.966902702,-84.329510978,185,"5628 BEND CREEK ROAD, DUNWOODY, GA, 30338","Match","Exact","5628 BEND CREEK RD, DUNWOODY, GA, 30338",23355906,"R"
731186,"5628 BROOKS WOOD ROAD","LOTHIAN","MD",20711,38.8065772740001,-76.630282747,186,"5628 BROOKS WOOD ROAD, LOTHIAN, MD, 20711","Match","Non_Exact","5628 BROOKSWOOD RD, LOTHIAN, MD, 20711",68202958,"R"
731187,"5628 CANAL BLVD","NEW ORLEANS","LA",70124,29.9928758180001,-90.109607309,187,"5628 CANAL BLVD, NEW ORLEANS, LA, 70124","Match","Exact","5628 CANAL BLVD, NEW ORLEANS, LA, 70124",191752802,"L"
731188,"5628 GREEN RIDGE RD NW","ROANOKE","VA",24019,37.313241212,-80.018113042,188,"5628 GREEN RIDGE RD NW, ROANOKE, VA, 24019","Match","Exact","5628 GREEN RIDGE RD NW, ROANOKE, VA, 24019",62929042,"L"
731189,"5628 HANDEL COURT","NORTH CHESTERFIELD","VA",23234,37.4620119510001,-77.502843829,189,"5628 HANDEL COURT, NORTH CHESTERFIELD, VA, 23234","Match","Exact","5628 HANDEL CT, NORTH CHESTERFIELD, VA, 23234",223173270,"R"
731190,"5628 INDIAN TRAIL","SUFFOLK","VA",23434,36.7419745010001,-76.733698493,190,"5628 INDIAN TRAIL, SUFFOLK, VA, 23434","Match","Exact","5628 INDIAN TRL, SUFFOLK, VA, 23434",122236577,"L"
731191,"5628 KEMP LN","BURKE","VA",22015,38.797206164,-77.2660889749999,191,"5628 KEMP LN, BURKE, VA, 22015","Match","Exact","5628 KEMP LN, BURKE, VA, 22015",75974351,"L"
731192,"5628 KENDALL AVE","LOS ANGELES","CA",90032,34.098599107,-118.15821308,192,"5628 KENDALL AVE, LOS ANGELES, CA, 90032","Match","Exact","5628 KENDALL AVE, LOS ANGELES, CA, 90032",141635194,"R"
731193,"5628 LINDEN CIRCLE","JOHNSTON","IA",50131,41.6628836180001,-93.700374847,193,"5628 LINDEN CIRCLE, JOHNSTON, IA, 50131","Match","Exact","5628 LINDEN CIR, JOHNSTON, IA, 50131",637571535,"L"
731194,"5628 LITTLE THEATER BLVD","AUSTIN","TX",78747,30.142539619,-97.767892234,194,"5628 LITTLE THEATER BLVD, AUSTIN, TX, 78747","Match","Non_Exact","5628 LITTLE THEATER BEND, AUSTIN, TX, 78747",641775195,"R"
731195,"5628 MACEO LN","FORT WORTH","TX",76112,32.725849189,-97.2330671139999,195,"5628 MACEO LN, FORT WORTH, TX, 76112","Match","Exact","5628 MACEO LN, FORT WORTH, TX, 76112",101898178,"R"
731196,"5628 MARILYN ROAD","INDIANAPOLIS","IN",46218,39.83226003,-86.0718948319999,196,"5628 MARILYN ROAD, INDIANAPOLIS, IN, 46218","Match","Non_Exact","5628 MARILYN RD, INDIANAPOLIS, IN, 46226",107999563,"L"
731197,"5628 MASTERS BLVD","ORLANDO","FL",32819,28.473842054,-81.5105752379999,197,"5628 MASTERS BLVD, ORLANDO, FL, 32819","Match","Exact","5628 MASTERS BLVD, ORLANDO, FL, 32819",94272006,"L"
731198,"5628 MESA MOUNTAIN DRIVE","LAS VEGAS","NV",89135,36.0858370600001,-115.329359594,198,"5628 MESA MOUNTAIN DRIVE, LAS VEGAS, NV, 89135","Match","Exact","5628 MESA MOUNTAIN, LAS VEGAS, NV, 89135",640590444,"R"
731199,"5628 MURRAY DRIVE","BERKELEY","IL",60163,41.8865258750001,-87.910028912,199,"5628 MURRAY DRIVE, BERKELEY, IL, 60163","Match","Exact","5628 MURRAY DR, BERKELEY, IL, 60163",111724814,"R"
731200,"5628 MURRAY DRIVE","BERKELEY","IN",60163,NA,NA,200,"5628 MURRAY DRIVE, BERKELEY, IN, 60163","No_Match",NA,NA,NA,NA
731201,"5628 MUSE CT","ZEPHYRHILLS","FL",33542,28.2396707090001,-82.1657268,201,"5628 MUSE CT, ZEPHYRHILLS, FL, 33542","Match","Exact","5628 MUSE CT, ZEPHYRHILLS, FL, 33542",86356934,"L"
731202,"5628 NOTTINGHAM","SAINT LOUIS","MO",63109,38.5865221550001,-90.289221109,202,"5628 NOTTINGHAM, SAINT LOUIS, MO, 63109","Match","Non_Exact","5628 NOTTINGHAM AVE, SAINT LOUIS, MO, 63109",107599377,"L"
731203,"5628 RIVERBEND BLVD","BATON ROUGE","LA",70820,30.3847448970001,-91.197054678,203,"5628 RIVERBEND BLVD, BATON ROUGE, LA, 70820","Match","Exact","5628 RIVERBEND BLVD, BATON ROUGE, LA, 70820",92185031,"R"
731204,"5628 ROCK ISLAND ROAD - UNIT 189","TAMARAC","FL",33319,26.1945985300001,-80.2199438659999,204,"5628 ROCK ISLAND ROAD - UNIT 189, TAMARAC, FL, 33319","Match","Exact","5628 ROCK ISLAND RD, TAMARAC, FL, 33319",651800096,"R"
731205,"5628 SCOTLAND TERRACE","PENSACOLA","FL",32526,30.4506260680001,-87.3301196369999,205,"5628 SCOTLAND TERRACE, PENSACOLA, FL, 32526","Match","Exact","5628 SCOTLAND TER, PENSACOLA, FL, 32526",93211959,"R"
731206,"5628 SUNDAY SILENCE DRIVE","DEL VALLE","TX",78617,30.1725088760001,-97.610675128,206,"5628 SUNDAY SILENCE DRIVE, DEL VALLE, TX, 78617","Match","Non_Exact","5628 SUNDAY SILENCE, DEL VALLE, TX, 78617",64095080,"R"
731207,"5628 SW CLARION LANE","TOPEKA","KS",66610,38.998057137,-95.7530887299999,207,"5628 SW CLARION LANE, TOPEKA, KS, 66610","Match","Exact","5628 SW CLARION LN, TOPEKA, KS, 66610",17902592,"L"
731208,"5628 SW GREEN OAKS BLVD STEB","ARLINGTON","TX",76017,NA,NA,208,"5628 SW GREEN OAKS BLVD STEB, ARLINGTON, TX, 76017","No_Match",NA,NA,NA,NA
731209,"5628 W BLUFF AVE","FRESNO","CA",93722,36.8498489880001,-119.891543506,209,"5628 W BLUFF AVE, FRESNO, CA, 93722","Match","Exact","5628 W BLUFF AVE, FRESNO, CA, 93722",197622919,"L"
731210,"5628 W DAVIT AVE","SANTA ANA","CA",92704,33.739618319,-117.943135461,210,"5628 W DAVIT AVE, SANTA ANA, CA, 92704","Match","Exact","5628 W DAVIT AVE, SANTA ANA, CA, 92704",144121010,"L"
731211,"5628 W EUCLID AVE","LAVEEN","AZ",85339,33.366839547,-112.180816586,211,"5628 W EUCLID AVE, LAVEEN, AZ, 85339","Match","Exact","5628 W EUCLID AVE, LAVEEN, AZ, 85339",639828853,"R"
731212,"5628 W GUNNISON STREET","CHICAGO","IL",60630,41.968676524,-87.768851839,212,"5628 W GUNNISON STREET, CHICAGO, IL, 60630","Match","Exact","5628 W GUNNISON ST, CHICAGO, IL, 60630",605160952,"R"
731213,"5628 W SWIFT AVE","FRESNO","CA",93722,36.7961195840001,-119.891942435,213,"5628 W SWIFT AVE, FRESNO, CA, 93722","Match","Exact","5628 W SWIFT AVE, FRESNO, CA, 93722",197616207,"R"
731214,"5628 WEDGMONT CIRCLE N","FORT WORTH","TX",76133,32.66229615,-97.3804012579999,214,"5628 WEDGMONT CIRCLE N, FORT WORTH, TX, 76133","Match","Exact","5628 WEDGMONT CIR N, FORT WORTH, TX, 76133",101893485,"R"
731215,"5628 WOLF CREEK DR","JACKSONVILLE","FL",32222,30.242808874,-81.837507503,215,"5628 WOLF CREEK DR, JACKSONVILLE, FL, 32222","Match","Non_Exact","5628 WOLFCREEK DR, JACKSONVILLE, FL, 32222",83957898,"L"
731216,"5628 WOODFOREST DR","SACRAMENTO","CA",95842,38.6900470890001,-121.330686681,216,"5628 WOODFOREST DR, SACRAMENTO, CA, 95842","Match","Exact","5628 WOODFOREST DR, SACRAMENTO, CA, 95842",133340939,"R"
731217,"5628-A3 EMERSON ST","BLADENSBURG","MD",20710,NA,NA,217,"5628-A3 EMERSON ST, BLADENSBURG, MD, 20710","No_Match",NA,NA,NA,NA
731218,"56280 LITTLE CAPTINA ROAD","POWHATAN POINT","OH",43942,39.899368157,-80.826674694,218,"56280 LITTLE CAPTINA ROAD, POWHATAN POINT, OH, 43942","Match","Exact","56280 LITTLE CAPTINA RD, POWHATAN POINT, OH, 43942",36233225,"R"
731219,"56281 LITTLE CAPTINA RD","POWHATAN POINT","OH",43942,39.8978422430001,-80.8262222129999,219,"56281 LITTLE CAPTINA RD, POWHATAN POINT, OH, 43942","Match","Exact","56281 LITTLE CAPTINA RD, POWHATAN POINT, OH, 43942",36233227,"L"
731220,"56284 TROON NORTH","SHELBY TWP","MI",48316,42.7072059600001,-83.049243771,220,"56284 TROON NORTH, SHELBY TWP, MI, 48316","Match","Exact","56284 TROON N, SHELBY TOWNSHIP, MI, 48316",110708614,"R"
731221,"5629 ADOBE ROAD","ROCKLIN","CA",95765,38.8051132040001,-121.262410194,221,"5629 ADOBE ROAD, ROCKLIN, CA, 95765","Match","Exact","5629 ADOBE RD, ROCKLIN, CA, 95765",106777045,"R"
731222,"5629 ALBIA TERRACE","SAINT LOUIS","MO",63136,38.7183763680001,-90.2726880289999,222,"5629 ALBIA TERRACE, SAINT LOUIS, MO, 63136","Match","Exact","5629 ALBIA TER, SAINT LOUIS, MO, 63136",100147655,"L"
731223,"5629 ARTHINGTON DRIVE","HOUSTON","TX",77053,29.600323524,-95.467464094,223,"5629 ARTHINGTON DRIVE, HOUSTON, TX, 77053","Match","Non_Exact","5629 ARTHINGTON ST, HOUSTON, TX, 77053",78270792,"L"
731224,"5629 BERMUDA ROAD","ST LOUIS","MO",63121,38.7225034620001,-90.292574802,224,"5629 BERMUDA ROAD, ST LOUIS, MO, 63121","Match","Non_Exact","5629 BERMUDA AVE, SAINT LOUIS, MO, 63121",629145359,"L"
731225,"5629 CHEVROLET BLVD 6","PARMA","OH",44130,41.408585314,-81.7688950099999,225,"5629 CHEVROLET BLVD 6, PARMA, OH, 44130","Match","Exact","5629 CHEVROLET BLVD, PARMA, OH, 44130",61104148,"L"
731226,"5629 COLLEEN LANE","WEST BEND","WI",53095,43.39472849,-88.137704055,226,"5629 COLLEEN LANE, WEST BEND, WI, 53095","Match","Exact","5629 COLLEEN LN, WEST BEND, WI, 53095",79559029,"R"
731227,"5629 COUNTY HWY 3280","FREEPORT","FL",32439,30.4399484940001,-86.061662615,227,"5629 COUNTY HWY 3280, FREEPORT, FL, 32439","Match","Exact","5629 CO HWY 3280, FREEPORT, FL, 32439",32990750,"R"
731228,"5629 CRENSHAW RD APT B","RICHMOND","VA",23227,37.609781013,-77.444015768,228,"5629 CRENSHAW RD APT B, RICHMOND, VA, 23227","Match","Exact","5629 CRENSHAW RD, RICHMOND, VA, 23227",106683555,"R"
731229,"5629 D STREET","SPRINGFIELD","OR",97478,44.049852968,-122.929625059,229,"5629 D STREET, SPRINGFIELD, OR, 97478","Match","Exact","5629 D ST, SPRINGFIELD, OR, 97478",605388957,"R"
731230,"5629 DELAFIELD AVENUE","BRONX","NY",10471,40.9048837620001,-73.9037293869999,230,"5629 DELAFIELD AVENUE, BRONX, NY, 10471","Match","Exact","5629 DELAFIELD AVE, BRONX, NY, 10471",80296174,"L"
731231,"5629 EUCLID","KANSAS CITY","MO",64130,39.024388382,-94.562307334,231,"5629 EUCLID, KANSAS CITY, MO, 64130","Match","Non_Exact","5629 EUCLID AVE, KANSAS CITY, MO, 64130",91452498,"L"
731232,"5629 FAWNBROOK LANE","DUBLIN","OH",43017,40.129925773,-83.143011534,232,"5629 FAWNBROOK LANE, DUBLIN, OH, 43017","Match","Exact","5629 FAWNBROOK LN, DUBLIN, OH, 43017",135630104,"R"
731233,"5629 FOX LOVE LN","CINCINNATI","OH",45239,NA,NA,233,"5629 FOX LOVE LN, CINCINNATI, OH, 45239","No_Match",NA,NA,NA,NA
731234,"5629 HEMPSTEAD RD APT 4","PITTSBURGH","PA",15217,40.4319183480001,-79.926913419,234,"5629 HEMPSTEAD RD APT 4, PITTSBURGH, PA, 15217","Match","Non_Exact","5629 HEMPSTEAD ST, PITTSBURGH, PA, 15217",51650264,"R"
731235,"5629 IVY HILL DRIVE","FREDERICKSBURG","VA",22407,38.2132213780001,-77.529640662,235,"5629 IVY HILL DRIVE, FREDERICKSBURG, VA, 22407","Match","Exact","5629 IVY HILL DR, FREDERICKSBURG, VA, 22407",614150576,"L"
731236,"5629 N FIG GARDEN DR 101","FRESNO","CA",93722,NA,NA,236,"5629 N FIG GARDEN DR 101, FRESNO, CA, 93722","No_Match",NA,NA,NA,NA
731237,"5629 NE 6 AVE","MIAMI","FL",33127,25.8279612580001,-80.1829871429999,237,"5629 NE 6 AVE, MIAMI, FL, 33127","Match","Non_Exact","5629 NE 6TH AVE, MIAMI, FL, 33137",116260829,"R"
731238,"5629 NORTH WESTERN AVENUE","PEORIA","IL",61614,40.75594599,-89.621375761,238,"5629 NORTH WESTERN AVENUE, PEORIA, IL, 61614","Match","Exact","5629 N WESTERN AVE, PEORIA, IL, 61614",8712257,"L"
731239,"5629 NORTHBROOK","PLANO","TX",75093,33.040223573,-96.813790307,239,"5629 NORTHBROOK, PLANO, TX, 75093","Match","Non_Exact","5629 NORTHBROOK DR, PLANO, TX, 75093",123541124,"L"
731240,"5629 NW 87TH TERRACE A APT C332","KANSAS CITY","MO",64154,39.2526114450001,-94.647047177,240,"5629 NW 87TH TERRACE A APT C332, KANSAS CITY, MO, 64154","Match","Non_Exact","5629 NW 87TH TER, KANSAS CITY, MO, 64154",636511520,"L"
731241,"5629 OLD GARDEN ROAD","WILMINGTON","NC",28403,34.2349836870001,-77.848649134,241,"5629 OLD GARDEN ROAD, WILMINGTON, NC, 28403","Match","Exact","5629 OLD GARDEN RD, WILMINGTON, NC, 28403",650628544,"L"
731242,"5629 PARISH LANE","PORTSMOUTH","VA",23703,36.8939621280001,-76.386901109,242,"5629 PARISH LANE, PORTSMOUTH, VA, 23703","Match","Exact","5629 PARISH LN, PORTSMOUTH, VA, 23703",122190177,"L"
731243,"5629 S CLARA AVENUE","FRESNO","CA",93706,36.654133706,-119.795312474,243,"5629 S CLARA AVENUE, FRESNO, CA, 93706","Match","Exact","5629 S CLARA AVE, FRESNO, CA, 93706",197586884,"R"
731244,"5629 SE 44TH LOOP","TRENTON","FL",32693,29.6730891870001,-82.711795474,244,"5629 SE 44TH LOOP, TRENTON, FL, 32693","Match","Exact","5629 SE 44TH LOOP, TRENTON, FL, 32693",648387730,"R"
731245,"5629 SELBY CT","WORTHINGTON","OH",43085,40.0777842190001,-83.015674226,245,"5629 SELBY CT, WORTHINGTON, OH, 43085","Match","Exact","5629 SELBY CT, WORTHINGTON, OH, 43085",218686131,"L"
731246,"5629 SHALLOW CREEK DRIVE","MIDLOTHIAN","TX",76062,32.4217106450001,-96.977305611,246,"5629 SHALLOW CREEK DRIVE, MIDLOTHIAN, TX, 76062","Match","Non_Exact","5629 SHALLOW CREEK DR, MIDLOTHIAN, TX, 76065",648674196,"L"
731247,"5629 SHEEROCK COURT","COLUMBIA","MD",21045,39.216229121,-76.8223040299999,247,"5629 SHEEROCK COURT, COLUMBIA, MD, 21045","Match","Exact","5629 SHEEROCK CT, COLUMBIA, MD, 21045",158926264,"L"
731248,"5629 SOUTH YOUNGFIELD WAY","LITTLETON","CO",80127,39.6145301020001,-105.1437124,248,"5629 SOUTH YOUNGFIELD WAY, LITTLETON, CO, 80127","Match","Exact","5629 S YOUNGFIELD WAY, LITTLETON, CO, 80127",177322259,"L"
731249,"5629 SWEET MEADOW DRIVE","MONTGOMERY","AL",36117,32.4047389350001,-86.2016912669999,249,"5629 SWEET MEADOW DRIVE, MONTGOMERY, AL, 36117","Match","Exact","5629 SWEET MEADOW DR, MONTGOMERY, AL, 36117",1498371,"R"
731250,"5629 SYCAMORE RIDGE RD","MEMPHIS","TN",38134,35.178437026,-89.87573946,250,"5629 SYCAMORE RIDGE RD, MEMPHIS, TN, 38134","Match","Exact","5629 SYCAMORE RIDGE RD, MEMPHIS, TN, 38134",618377056,"R"
731251,"5629 VALNUT RIDGE DRIVE","AGOURA HILLS","CA",91301,NA,NA,251,"5629 VALNUT RIDGE DRIVE, AGOURA HILLS, CA, 91301","No_Match",NA,NA,NA,NA
731252,"5629 WALNUT RIDGE DRIVE","AGOURA HILLS","CA",91301,34.1527408740001,-118.77011006,252,"5629 WALNUT RIDGE DRIVE, AGOURA HILLS, CA, 91301","Match","Exact","5629 WALNUT RIDGE DR, AGOURA HILLS, CA, 91301",141777126,"R"
731253,"5629 WESTCREEK DR","FORT WORTH","TX",76133,32.6646030380001,-97.362024193,253,"5629 WESTCREEK DR, FORT WORTH, TX, 76133","Match","Exact","5629 WESTCREEK DR, FORT WORTH, TX, 76133",101886910,"L"
731254,"5629 WOOD ST","PORT ORANGE","FL",32127,29.116962831,-80.9870739839999,254,"5629 WOOD ST, PORT ORANGE, FL, 32127","Match","Exact","5629 WOOD ST, PORT ORANGE, FL, 32127",94529325,"L"
731255,"5629 WOODVINE CT","FORT WORTH","TX",76140,32.589056758,-97.239652298,255,"5629 WOODVINE CT, FORT WORTH, TX, 76140","Match","Exact","5629 WOODVINE CT, FORT WORTH, TX, 76140",101903587,"L"
731256,"5629 WYCLIFFE RD","EDINA","MN",55436,44.900268178,-93.372013085,256,"5629 WYCLIFFE RD, EDINA, MN, 55436","Match","Exact","5629 WYCLIFFE RD, EDINA, MN, 55436",613542935,"L"
731257,"5629","WEST BEND","WI",53095,NA,NA,257,"5629, WEST BEND, WI, 53095","No_Match",NA,NA,NA,NA
731258,"56295 LITTLE MONITEAU ROAD","CALIFORNIA","MO",65018,38.6660738960001,-92.492079249,258,"56295 LITTLE MONITEAU ROAD, CALIFORNIA, MO, 65018","Match","Exact","56295 LITTLE MONITEAU RD, CALIFORNIA, MO, 65018",34472316,"R"
731259,"56296 270TH AVENUE","PINE ISLAND","MN",55963,44.132840985,-92.698500241,259,"56296 270TH AVENUE, PINE ISLAND, MN, 55963","Match","Exact","56296 270TH AVE, PINE ISLAND, MN, 55963",31428485,"L"
731260,"56298 HILLCREST SCHOOL RD","HUSSER","LA",70442,NA,NA,260,"56298 HILLCREST SCHOOL RD, HUSSER, LA, 70442","No_Match",NA,NA,NA,NA
731261,"562B N 137TH ST","SEATTLE","WA",98133,47.7279584710001,-122.350723525,261,"562B N 137TH ST, SEATTLE, WA, 98133","Match","Exact","562 N 137TH ST, SEATTLE, WA, 98133",239760941,"L"
731262,"562W 192RD STREET","NEW YORK","NY",10040,NA,NA,262,"562W 192RD STREET, NEW YORK, NY, 10040","No_Match",NA,NA,NA,NA
731263,"563 10TH AVE NW","NEW BRIGHTON","MN",55112,45.0584921670001,-93.2006171949999,263,"563 10TH AVE NW, NEW BRIGHTON, MN, 55112","Match","Exact","563 10TH AVE NW, NEW BRIGHTON, MN, 55112",97634457,"R"
731264,"563 17TH STREET","SAN DIEGO","CA",92101,32.711117528,-117.148542123,264,"563 17TH STREET, SAN DIEGO, CA, 92101","Match","Exact","563 17TH ST, SAN DIEGO, CA, 92101",195344812,"R"
731265,"563 38TH AVENUE NE","COLUMBIA HEIGHTS","MN",55421,45.036455947,-93.257439619,265,"563 38TH AVENUE NE, COLUMBIA HEIGHTS, MN, 55421","Match","Exact","563 38TH AVE NE, COLUMBIA HEIGHTS, MN, 55421",617527103,"L"
731266,"563 A LAAU ST","KAHULUI","HI",96732,20.8747601920001,-156.467951795,266,"563 A LAAU ST, KAHULUI, HI, 96732","Match","Exact","563 LAAU ST, KAHULUI, HI, 96732",85060519,"L"
731267,"563 ALTON WAY UNIT A","DENVER","CO",80230,39.7237052,-104.879780178,267,"563 ALTON WAY UNIT A, DENVER, CO, 80230","Match","Non_Exact","563 N ALTON WAY, DENVER, CO, 80230",624762380,"R"
731268,"563 AMARANTO CT","RIO RICO","AZ",85648,NA,NA,268,"563 AMARANTO CT, RIO RICO, AZ, 85648","Tie",NA,NA,NA,NA
731269,"563 BAY DRIVE","SUDBURY","MA",1776,NA,NA,269,"563 BAY DRIVE, SUDBURY, MA, 1776","No_Match",NA,NA,NA,NA
731270,"563 BAY STREET","TAUNTON","MA",2780,41.926490261,-71.098541128,270,"563 BAY STREET, TAUNTON, MA, 2780","Match","Non_Exact","563 BAY RD, TAUNTON, MA, 02780",46759864,"R"
731271,"563 BLACK BEAR RD NE","ALBUQUERQUE","NM",87122,35.1801899870001,-106.487462519,271,"563 BLACK BEAR RD NE, ALBUQUERQUE, NM, 87122","Match","Exact","563 BLACK BEAR RD NE, ALBUQUERQUE, NM, 87122",206777977,"L"
731272,"563 BLAKE STREET","VICTORIA","TX",77905,28.811975289,-97.0769026,272,"563 BLAKE STREET, VICTORIA, TX, 77905","Match","Exact","563 BLAKE ST, VICTORIA, TX, 77905",44573848,"R"
731273,"563 BROWN CROSSING ROAD","MILLEDGEVILLE","GA",31061,NA,NA,273,"563 BROWN CROSSING ROAD, MILLEDGEVILLE, GA, 31061","No_Match",NA,NA,NA,NA
731274,"563 BROWNING DR","TUSCALOOSA","AL",35405,33.1257349300001,-87.5440142259999,274,"563 BROWNING DR, TUSCALOOSA, AL, 35405","Match","Exact","563 BROWNING DR, TUSCALOOSA, AL, 35405",82192151,"L"
731275,"563 CARRIE CIRCLE","SAN MARCOS","CA",92069,33.1482034380001,-117.16265107,275,"563 CARRIE CIRCLE, SAN MARCOS, CA, 92069","Match","Exact","563 CARRIE CIR, SAN MARCOS, CA, 92069",195296035,"R"
731276,"563 CARTER COURT SUITE B","KIMBERLY","WI",54136,44.262894047,-88.3493541289999,276,"563 CARTER COURT SUITE B, KIMBERLY, WI, 54136","Match","Exact","563 CARTER CT, KIMBERLY, WI, 54136",74895995,"R"
731277,"563 CHURCH ST","BOUND BROOK","NJ",8805,40.569723911,-74.532216763,277,"563 CHURCH ST, BOUND BROOK, NJ, 8805","Match","Exact","563 CHURCH ST, BOUND BROOK, NJ, 08805",59940682,"L"
731278,"563 COLLEGE AVENUE B102","LANCASTER","PA",17603,40.045697552,-76.318882426,278,"563 COLLEGE AVENUE B102, LANCASTER, PA, 17603","Match","Exact","563 COLLEGE AVE, LANCASTER, PA, 17603",642656024,"R"
731279,"563 COLORADO AVE C","GLENDORA","CA",91740,NA,NA,279,"563 COLORADO AVE C, GLENDORA, CA, 91740","Tie",NA,NA,NA,NA
731280,"563 COTTAGE OAKS CIR","MYRTLE BEACH","SC",29579,33.7244331470001,-78.92712033,280,"563 COTTAGE OAKS CIR, MYRTLE BEACH, SC, 29579","Match","Exact","563 COTTAGE OAKS CIR, MYRTLE BEACH, SC, 29579",635644371,"L"
731281,"563 COUNTY ROAD","VRENDEBURGH","AL",36481,NA,NA,281,"563 COUNTY ROAD, VRENDEBURGH, AL, 36481","No_Match",NA,NA,NA,NA
731282,"563 CREEK STONE LANE","STONE MOUNTAIN","GA",30087,33.79284489,-84.101630126,282,"563 CREEK STONE LANE, STONE MOUNTAIN, GA, 30087","Match","Exact","563 CREEK STONE LN, STONE MOUNTAIN, GA, 30087",23385253,"R"
731283,"563 DANBURY ROAD","NEW MILFORD","CT",6776,41.5071155640001,-73.419631523,283,"563 DANBURY ROAD, NEW MILFORD, CT, 6776","Match","Exact","563 DANBURY RD, NEW MILFORD, CT, 06776",636080903,"L"
731284,"563 DE LAURA LANE","VIRGINIA BEACH","VA",23455,36.85658456,-76.1556369579999,284,"563 DE LAURA LANE, VIRGINIA BEACH, VA, 23455","Match","Exact","563 DE LAURA LN, VIRGINIA BCH, VA, 23455",641468949,"L"
731285,"563 DELLWOOD DRIVE","NEWPORT NEWS","VA",23602,37.0999247340001,-76.540437245,285,"563 DELLWOOD DRIVE, NEWPORT NEWS, VA, 23602","Match","Exact","563 DELLWOOD DR, NEWPORT NEWS, VA, 23602",103751336,"L"
731286,"563 DELSEA DR","MALAGA","NJ",8328,39.5735364080001,-75.049755491,286,"563 DELSEA DR, MALAGA, NJ, 8328","Match","Exact","563 DELSEA DR, MALAGA, NJ, 08328",643128869,"L"
731287,"563 DERRICK TURNBOW AVE","CINCINNATI","OH",45214,39.11109808,-84.524687548,287,"563 DERRICK TURNBOW AVE, CINCINNATI, OH, 45214","Match","Exact","563 DERRICK TURNBOW AVE, CINCINNATI, OH, 45214",103970264,"L"
731288,"563 E 1840 N","OREM","UT",84097,40.33105699,-111.683080411,288,"563 E 1840 N, OREM, UT, 84097","Match","Exact","563 E 1840 N, OREM, UT, 84097",134217275,"L"
731289,"563 E 40TH STREET REAR ENTRANCE","CHICAGO","IL",60653,41.821441636,-87.6116326009999,289,"563 E 40TH STREET REAR ENTRANCE, CHICAGO, IL, 60653","Match","Non_Exact","563 E 40TH ST, CHICAGO, IL, 60653",605590723,"R"
731290,"563 EAST SIENA DRIVE","WASHINGTON","UT",84780,37.1258380530001,-113.500693708,290,"563 EAST SIENA DRIVE, WASHINGTON, UT, 84780","Match","Exact","563 E SIENA DR, WASHINGTON, UT, 84780",652004749,"L"
731291,"563 EMERALD ST","NEW ORLEANS","LA",70124,30.020701301,-90.108360971,291,"563 EMERALD ST, NEW ORLEANS, LA, 70124","Match","Non_Exact","563 EMERALD AVE, NEW ORLEANS, LA, 70124",191702764,"L"
731292,"563 FERGUSON DRIVE STE-L","ORLANDO","FL",32805,28.5504589,-81.4200645879999,292,"563 FERGUSON DRIVE STE-L, ORLANDO, FL, 32805","Match","Exact","563 FERGUSON DR, ORLANDO, FL, 32805",652515116,"R"
731293,"563 FERGUSON DRIVE","ORLANDO","FL",32805,28.5504589,-81.4200645879999,293,"563 FERGUSON DRIVE, ORLANDO, FL, 32805","Match","Exact","563 FERGUSON DR, ORLANDO, FL, 32805",652515116,"R"
731294,"563 FOX POINT LANE","MURRAY","UT",84121,NA,NA,294,"563 FOX POINT LANE, MURRAY, UT, 84121","No_Match",NA,NA,NA,NA
731295,"563 FRANCIS STREET","PITTSBURGH","PA",15219,40.448490561,-79.9683511439999,295,"563 FRANCIS STREET, PITTSBURGH, PA, 15219","Match","Exact","563 FRANCIS ST, PITTSBURGH, PA, 15219",51642550,"L"
731296,"563 FURNACE DR","ALBURTIS","PA",18011,NA,NA,296,"563 FURNACE DR, ALBURTIS, PA, 18011","No_Match",NA,NA,NA,NA
731297,"563 FURNACE RD","ALBURTIS","PA",18011,NA,NA,297,"563 FURNACE RD, ALBURTIS, PA, 18011","No_Match",NA,NA,NA,NA
731298,"563 GELPI AVE","JEFFERSON","LA",70121,29.9649465200001,-90.168837729,298,"563 GELPI AVE, JEFFERSON, LA, 70121","Match","Exact","563 GELPI AVE, JEFFERSON, LA, 70121",93501342,"R"
731299,"563 GILMORE STAGE RD","ORANGE CITY","FL",32763,28.9420329640001,-81.292516076,299,"563 GILMORE STAGE RD, ORANGE CITY, FL, 32763","Match","Exact","563 GILMORE STAGE RD, ORANGE CITY, FL, 32763",612317570,"L"
731300,"563 GILMORE STAGE ROAD","ORANGE CITY","FL",32763,28.9420329640001,-81.292516076,300,"563 GILMORE STAGE ROAD, ORANGE CITY, FL, 32763","Match","Exact","563 GILMORE STAGE RD, ORANGE CITY, FL, 32763",612317570,"L"
731301,"563 GLYNBROOK ST N","KEIZER","OR",97303,44.978485151,-123.032500686,301,"563 GLYNBROOK ST N, KEIZER, OR, 97303","Match","Exact","563 GLYNBROOK ST N, KEIZER, OR, 97303",156246483,"R"
731302,"563 GREESON RD NE","RESACA","GA",30735,34.595488935,-84.85018623,302,"563 GREESON RD NE, RESACA, GA, 30735","Match","Exact","563 GREESON RD NE, RESACA, GA, 30735",57324611,"R"
731303,"563 GROVE ST","FRAMINGHAM","MA",1701,42.3179637220001,-71.449514446,303,"563 GROVE ST, FRAMINGHAM, MA, 1701","Match","Exact","563 GROVE ST, FRAMINGHAM, MA, 01701",87101401,"R"
731304,"563 HAWTHORNE ST","LOUISVILLE","CO",80027,NA,NA,304,"563 HAWTHORNE ST, LOUISVILLE, CO, 80027","No_Match",NA,NA,NA,NA
731305,"563 HENDERSON AVENUE","STATEN ISLAND","NY",10310,40.6376920660001,-74.111369118,305,"563 HENDERSON AVENUE, STATEN ISLAND, NY, 10310","Match","Exact","563 HENDERSON AVE, STATEN ISLAND, NY, 10310",59878271,"R"
731306,"563 HILLANDALE CIRCLE","MARIETTA","GA",30064,33.9466357360001,-84.570227282,306,"563 HILLANDALE CIRCLE, MARIETTA, GA, 30064","Match","Exact","563 HILLANDALE CIR, MARIETTA, GA, 30064",17175364,"L"
731307,"563 HILLMAN ST","WARRENVILLE","SC",29851,33.517426078,-81.790099453,307,"563 HILLMAN ST, WARRENVILLE, SC, 29851","Match","Exact","563 HILLMAN ST, WARRENVILLE, SC, 29851",627462215,"L"
731308,"563 HUNTS MEADOW ROAD","WINDSOR","ME",4363,44.27589326,-69.607130404,308,"563 HUNTS MEADOW ROAD, WINDSOR, ME, 4363","Match","Exact","563 HUNTS MEADOW RD, WINDSOR, ME, 04363",607802403,"L"
731309,"563 HWY 126","JONESVILLE","LA",71343,31.6697366600001,-91.851210022,309,"563 HWY 126, JONESVILLE, LA, 71343","Match","Exact","563 HWY 126, JONESVILLE, LA, 71343",118967131,"L"
731310,"563 JAN ROAD","MILLERSVILLE","MD",21108,39.1143063260001,-76.623684039,310,"563 JAN ROAD, MILLERSVILLE, MD, 21108","Match","Exact","563 JAN RD, MILLERSVILLE, MD, 21108",68161604,"R"
731311,"563 LANDON HILL ROAD","CHESTERTOWN","NY",12817,43.6874627180001,-73.816402904,311,"563 LANDON HILL ROAD, CHESTERTOWN, NY, 12817","Match","Exact","563 LANDON HILL RD, CHESTERTOWN, NY, 12817",636776888,"L"
731312,"563 LARCHWOOD AVE","UPPER DARBY","PA",19082,39.9612893550001,-75.2694311669999,312,"563 LARCHWOOD AVE, UPPER DARBY, PA, 19082","Match","Exact","563 LARCHWOOD AVE, UPPER DARBY, PA, 19082",134877651,"R"
731313,"563 LARCHWOOD AVENUE","UPPER DARBY","PA",19082,39.9612893550001,-75.2694311669999,313,"563 LARCHWOOD AVENUE, UPPER DARBY, PA, 19082","Match","Exact","563 LARCHWOOD AVE, UPPER DARBY, PA, 19082",134877651,"R"
731314,"563 LOG ROAD","SMITHFIELD","RI",2917,41.933291147,-71.583990958,314,"563 LOG ROAD, SMITHFIELD, RI, 2917","Match","Exact","563 LOG RD, SMITHFIELD, RI, 02917",47447684,"L"
731315,"563 MAGNOLIA AVE","GURNEE","IL",60031,42.36764063,-87.892308737,315,"563 MAGNOLIA AVE, GURNEE, IL, 60031","Match","Exact","563 MAGNOLIA AVE, GURNEE, IL, 60031",119640600,"L"
731316,"563 MAGNOLIA DR","CROWN POINT","IN",46307,41.3932022830001,-87.358897568,316,"563 MAGNOLIA DR, CROWN POINT, IN, 46307","Match","Exact","563 MAGNOLIA DR, CROWN POINT, IN, 46307",98433169,"L"
731317,"563 MAIN STREET","HARWICH","MA",2645,41.6871518940001,-70.089000206,317,"563 MAIN STREET, HARWICH, MA, 2645","Match","Exact","563 MAIN ST, HARWICH, MA, 02645",647371416,"L"
731318,"563 MAPLE CREEK RD","MOSCOW","OH",45153,38.824316578,-84.195587648,318,"563 MAPLE CREEK RD, MOSCOW, OH, 45153","Match","Exact","563 MAPLE CREEK RD, MOSCOW, OH, 45153",118442109,"L"
731319,"563 MARIETTA AVE","SWARTHMORE","PA",19081,39.890812499,-75.347989646,319,"563 MARIETTA AVE, SWARTHMORE, PA, 19081","Match","Exact","563 MARIETTA AVE, SWARTHMORE, PA, 19081",134879329,"L"
731320,"563 MARION FOREST RD","SYLVA","NC",28779,35.4052667730001,-83.1815685079999,320,"563 MARION FOREST RD, SYLVA, NC, 28779","Match","Exact","563 MARION FOREST RD, SYLVA, NC, 28779",36000134,"R"
731321,"563 MEMORIAL DRIVE SE UNIT 204","ATLANTA","GA",30312,33.7467092700001,-84.368716322,321,"563 MEMORIAL DRIVE SE UNIT 204, ATLANTA, GA, 30312","Match","Exact","563 MEMORIAL DR SE, ATLANTA, GA, 30312",17357537,"R"
731322,"563 MIAMI TRACE COURT","LOVELAND","OH",45140,39.246487502,-84.276419098,322,"563 MIAMI TRACE COURT, LOVELAND, OH, 45140","Match","Exact","563 MIAMI TRACE CT, LOVELAND, OH, 45140",118454984,"L"
731323,"563 MILES DR","COLLINSVILLE","VA",24078,36.7092384220001,-79.918863514,323,"563 MILES DR, COLLINSVILLE, VA, 24078","Match","Non_Exact","563 MILES RD, COLLINSVILLE, VA, 24078",55522762,"R"
731324,"563 MONGES ST","HAZLETON","PA",18201,40.9643126720001,-75.958132989,324,"563 MONGES ST, HAZLETON, PA, 18201","Match","Exact","563 MONGES ST, HAZLETON, PA, 18201",80923079,"R"
731325,"563 MYRTLE","HOLLAND","MI",49423,42.776029475,-86.156932679,325,"563 MYRTLE, HOLLAND, MI, 49423","Match","Non_Exact","563 MYRTLE AVE, HOLLAND, MI, 49423",71100276,"R"
731326,"563 N 10TH ST","LARAMIE","WY",82072,41.3167101490001,-105.58379633,326,"563 N 10TH ST, LARAMIE, WY, 82072","Match","Exact","563 N 10TH ST, LARAMIE, WY, 82072",168739982,"R"
731327,"563 N HELIOTROPE APT 203","LOS ANGELES","CA",90004,34.0790445060001,-118.2955717,327,"563 N HELIOTROPE APT 203, LOS ANGELES, CA, 90004","Match","Non_Exact","563 HELIOTROPE DR, LOS ANGELES, CA, 90004",141604312,"R"
731328,"563 N SANTA FE","TULSA","OK",74127,36.1606531680001,-96.009495704,328,"563 N SANTA FE, TULSA, OK, 74127","Match","Non_Exact","563 N SANTA FE AVE, TULSA, OK, 74127",166434990,"R"
731329,"563 NEW CUT LANE","BLAYTHWOODQQ","SC",29016,34.1797853670001,-80.950551778,329,"563 NEW CUT LANE, BLAYTHWOODQQ, SC, 29016","Match","Non_Exact","563 NEW CUT LN, BLYTHEWOOD, SC, 29016",645499646,"L"
731330,"563 NORTH CYPRESS STREET","JESUP","GA",31546,31.6042315990001,-81.8719734489999,330,"563 NORTH CYPRESS STREET, JESUP, GA, 31546","Match","Exact","563 N CYPRESS ST, JESUP, GA, 31546",4836138,"L"
731331,"563 NW 155TH WAY","NEWBERRY","FL",32669,29.659321644,-82.507654166,331,"563 NW 155TH WAY, NEWBERRY, FL, 32669","Match","Exact","563 NW 155TH WAY, NEWBERRY, FL, 32669",626394787,"R"
731332,"563 NW 48TH STREET","MIAMI","FL",33127,25.8198369260001,-80.2048976739999,332,"563 NW 48TH STREET, MIAMI, FL, 33127","Match","Exact","563 NW 48TH ST, MIAMI, FL, 33127",116005661,"R"
731333,"563 OLDE FIELD DR","MAGNOLIA","DE",19962,39.0442105720001,-75.5161684879999,333,"563 OLDE FIELD DR, MAGNOLIA, DE, 19962","Match","Exact","563 OLDE FIELD DR, MAGNOLIA, DE, 19962",651714276,"L"
731334,"563 OPENING HILL RD","MADISON","CT",6443,41.3402356020001,-72.637956972,334,"563 OPENING HILL RD, MADISON, CT, 6443","Match","Exact","563 OPENING HILL RD, MADISON, CT, 06443",3709221,"L"
731335,"563 PALMYRA CHURCH RD","EDINBURG","VA",22824,38.781033167,-78.589611939,335,"563 PALMYRA CHURCH RD, EDINBURG, VA, 22824","Match","Exact","563 PALMYRA CHURCH RD, EDINBURG, VA, 22824",55930515,"R"
731336,"563 PARK AVENUE","NEW YORK","NY",10065,40.764895573,-73.968344437,336,"563 PARK AVENUE, NEW YORK, NY, 10065","Match","Exact","563 PARK AVE, NEW YORK, NY, 10065",59657433,"R"
731337,"563 PECK AVENUE","FORT MYERS","FL",33919,26.564231923,-81.909778584,337,"563 PECK AVENUE, FORT MYERS, FL, 33919","Match","Exact","563 PECK AVE, FORT MYERS, FL, 33919",118025302,"L"
731338,"563 PERCH LAKE RD","HUDSON","WI",54016,45.0500907300001,-92.686275721,338,"563 PERCH LAKE RD, HUDSON, WI, 54016","Match","Exact","563 PERCH LAKE RD, HUDSON, WI, 54016",653036673,"L"
731339,"563 PETTUS ROAD","MADISON","AL",35757,34.7968167560001,-86.740290546,339,"563 PETTUS ROAD, MADISON, AL, 35757","Match","Exact","563 PETTUS RD, MADISON, AL, 35757",653331313,"L"
731340,"563 PIERMONT RD","DEMAREST","NJ",7627,NA,NA,340,"563 PIERMONT RD, DEMAREST, NJ, 7627","No_Match",NA,NA,NA,NA
731341,"563 POINT PETER RAOD","ST. MARYS","GA",31558,30.756294687,-81.52482234,341,"563 POINT PETER RAOD, ST. MARYS, GA, 31558","Match","Non_Exact","563 POINT PETER PL, SAINT MARYS, GA, 31558",644063323,"L"
731342,"563 POINT PETER ROAD","ST MARYS","GA",31558,NA,NA,342,"563 POINT PETER ROAD, ST MARYS, GA, 31558","Tie",NA,NA,NA,NA
731343,"563 PRESSGROVE DRIVE","CLARKSVILLE","TN",37043,36.492437223,-87.181727842,343,"563 PRESSGROVE DRIVE, CLARKSVILLE, TN, 37043","Match","Non_Exact","563 PRESS GROVE DR, CLARKSVILLE, TN, 37043",635032944,"R"
731344,"563 PRIMUS CT","FREDERICK","MD",21703,39.406262923,-77.4355751369999,344,"563 PRIMUS CT, FREDERICK, MD, 21703","Match","Exact","563 PRIMUS CT, FREDERICK, MD, 21703",604957127,"R"
731345,"563 RANGE RD","GURLEY","AL",35748,34.669360769,-86.388332622,345,"563 RANGE RD, GURLEY, AL, 35748","Match","Exact","563 RANGE RD, GURLEY, AL, 35748",58196487,"L"
731346,"563 RATTLER BLUFF","SAN ANTONIO","TX",78251,29.4379044340001,-98.693445282,346,"563 RATTLER BLUFF, SAN ANTONIO, TX, 78251","Match","Exact","563 RATTLER BLUFF, SAN ANTONIO, TX, 78251",101749591,"L"
731347,"563 RECTOR ROAD","ENNICE","NC",28623,36.535092213,-81.0203909419999,347,"563 RECTOR ROAD, ENNICE, NC, 28623","Match","Exact","563 RECTOR RD, ENNICE, NC, 28623",154020003,"R"
731348,"563 RIDGESIDE DR","GOLDEN","CO",80401,39.7013345890001,-105.284435997,348,"563 RIDGESIDE DR, GOLDEN, CO, 80401","Match","Exact","563 RIDGESIDE DR, GOLDEN, CO, 80401",624696239,"L"
731349,"563 ROOSEVELT STREET","GARY","IN",46404,41.600333488,-87.364179626,349,"563 ROOSEVELT STREET, GARY, IN, 46404","Match","Exact","563 ROOSEVELT ST, GARY, IN, 46404",606330554,"L"
731350,"563 RUTHERFORD CIRCLE","BIRMINHAM","AL",35206,33.5729362430001,-86.7014522429999,350,"563 RUTHERFORD CIRCLE, BIRMINHAM, AL, 35206","Match","Non_Exact","563 RUTHERFORD CIR, BIRMINGHAM, AL, 35206",640552472,"L"
731351,"563 S 9TH","BERTHOUD","CO",80513,NA,NA,351,"563 S 9TH, BERTHOUD, CO, 80513","Tie",NA,NA,NA,NA
731352,"563 S WASHINGTON ST","DENVER","CO",80209,39.706418274,-104.979268628,352,"563 S WASHINGTON ST, DENVER, CO, 80209","Match","Exact","563 S WASHINGTON ST, DENVER, CO, 80209",177331741,"R"
731353,"563 Sagamore Ave","Portsmouth","NH",3801,43.0593068380001,-70.7536642429999,353,"563 Sagamore Ave, Portsmouth, NH, 3801","Match","Exact","563 SAGAMORE AVE, PORTSMOUTH, NH, 03801",113702437,"R"
731354,"563 SE 27TH AVE","PORTLAND","OR",97214,45.5188615230001,-122.638105027,354,"563 SE 27TH AVE, PORTLAND, OR, 97214","Match","Exact","563 SE 27TH AVE, PORTLAND, OR, 97214",157562912,"R"
731355,"563 SHORE RD","NORTH TRURO","MA",2652,42.0575732520001,-70.136818585,355,"563 SHORE RD, NORTH TRURO, MA, 2652","Match","Exact","563 SHORE RD, NORTH TRURO, MA, 02652",121623825,"R"
731356,"563 SOUTH 400 EAST","SALT LAKE CITY","UT",84111,40.757022041,-111.879626813,356,"563 SOUTH 400 EAST, SALT LAKE CITY, UT, 84111","Match","Exact","563 S 400 E, SALT LAKE CITY, UT, 84111",636230727,"L"
731357,"563 SOUTH SHERMAN STREET","DENVER","CO",80209,39.7064097590001,-104.985152246,357,"563 SOUTH SHERMAN STREET, DENVER, CO, 80209","Match","Exact","563 S SHERMAN ST, DENVER, CO, 80209",177331646,"R"
731358,"563 SOUTH XENON CT","LAKEWOOD","CO",80228,39.7057995230001,-105.142540551,358,"563 SOUTH XENON CT, LAKEWOOD, CO, 80228","Match","Exact","563 S XENON CT, LAKEWOOD, CO, 80228",177316885,"R"
731359,"563 SUNNINGADALE DR","INKSTER","MI",48141,42.3076867950001,-83.307333065,359,"563 SUNNINGADALE DR, INKSTER, MI, 48141","Match","Non_Exact","563 SUNNINGDALE DR, INKSTER, MI, 48141",95502865,"L"
731360,"563 SUTTER STREET","SAN FRANCISCO","CA",94102,37.7890954920001,-122.409597965,360,"563 SUTTER STREET, SAN FRANCISCO, CA, 94102","Match","Exact","563 SUTTER ST, SAN FRANCISCO, CA, 94102",192280955,"L"
731361,"563 TROY AVENUE","BROOKLYN","NY",11203,40.659638242,-73.937038829,361,"563 TROY AVENUE, BROOKLYN, NY, 11203","Match","Exact","563 TROY AVE, BROOKLYN, NY, 11203",59079889,"L"
731362,"563 VILLA DRIVE","YPSILANTI","MI",48198,42.257911129,-83.619523053,362,"563 VILLA DRIVE, YPSILANTI, MI, 48198","Match","Exact","563 VILLA DR, YPSILANTI, MI, 48198",26020710,"R"
731363,"563 W BAY AREA BLVD","WEBSTER","TX",77573,NA,NA,363,"563 W BAY AREA BLVD, WEBSTER, TX, 77573","No_Match",NA,NA,NA,NA
731364,"563 W GRANITE DR APT D","BLOOMINGTON","IN",47404,39.1801884000001,-86.53975884,364,"563 W GRANITE DR APT D, BLOOMINGTON, IN, 47404","Match","Non_Exact","563 W GRANITE DR, BLOOMINGTON, IN, 47404",42321785,"R"
731365,"563 WAGON CREEK ROAD","BANDERA","TX",78003,29.739229247,-99.013968157,365,"563 WAGON CREEK ROAD, BANDERA, TX, 78003","Match","Exact","563 WAGON CREEK RD, BANDERA, TX, 78003",102706630,"R"
731366,"563 WARWICK STREET","BROOKLYN","NY",11207,40.669625061,-73.8848708479999,366,"563 WARWICK STREET, BROOKLYN, NY, 11207","Match","Exact","563 WARWICK ST, BROOKLYN, NY, 11207",59085183,"L"
731367,"563 WASHINGTON AVENUE","BELLEVILLE","NJ",7109,40.8007474790001,-74.146788982,367,"563 WASHINGTON AVENUE, BELLEVILLE, NJ, 7109","Match","Exact","563 WASHINGTON AVE, BELLEVILLE, NJ, 07109",63455644,"L"
731368,"563 WEST 150 ST APT 1E","NEW YORK","NY",10031,40.829141485,-73.947028384,368,"563 WEST 150 ST APT 1E, NEW YORK, NY, 10031","Match","Exact","563 W 150TH ST, NEW YORK, NY, 10031",59655932,"R"
731369,"563 WEST 150 STREET 1C","NEW YORK","NY",20031,40.829141485,-73.947028384,369,"563 WEST 150 STREET 1C, NEW YORK, NY, 20031","Match","Non_Exact","563 W 150TH ST, NEW YORK, NY, 10031",59655932,"R"
731370,"563 WEST 169TH ST  FL 1ST","NEW YORK","NY",10032,40.84126717,-73.9383306249999,370,"563 WEST 169TH ST  FL 1ST, NEW YORK, NY, 10032","Match","Exact","563 W 169TH ST, NEW YORK, NY, 10032",59655700,"R"
731371,"563 WEST 169TH STREET FL 1ST","NEW YORK","NY",10032,40.84126717,-73.9383306249999,371,"563 WEST 169TH STREET FL 1ST, NEW YORK, NY, 10032","Match","Exact","563 W 169TH ST, NEW YORK, NY, 10032",59655700,"R"
731372,"563 WEST 79TH ST","INDIANAPOLIS","IN",46260,39.8976232150001,-86.168881261,372,"563 WEST 79TH ST, INDIANAPOLIS, IN, 46260","Match","Exact","563 W 79TH ST, INDIANAPOLIS, IN, 46260",107981763,"L"
731373,"563 WESTMORELAND AVENUE","KINGSTON","PA",18704,41.266313213,-75.884923305,373,"563 WESTMORELAND AVENUE, KINGSTON, PA, 18704","Match","Exact","563 WESTMORELAND AVE, KINGSTON, PA, 18704",80914034,"R"
731374,"563 WOODLAND AVENUE","MOUNTAINSIDE","NJ",7092,40.6682572180001,-74.348057146,374,"563 WOODLAND AVENUE, MOUNTAINSIDE, NJ, 7092","Match","Exact","563 WOODLAND AVE, MOUNTAINSIDE, NJ, 07092",60566834,"L"
731375,"563 ZION PARK BLVD","SPRINGDALE","UT",84767,37.1923423270001,-112.993588255,375,"563 ZION PARK BLVD, SPRINGDALE, UT, 84767","Match","Exact","563 ZION PARK BLVD, SPRINGDALE, UT, 84767",635848635,"R"
731376,"5630  SAN DIAGO ST APT  2","EL CERRIOT","CA",94530,37.899939138,-122.3068024,376,"5630  SAN DIAGO ST APT  2, EL CERRIOT, CA, 94530","Match","Non_Exact","5630 SAN DIEGO ST, EL CERRITO, CA, 94530",607832535,"R"
731377,"5630 ALGONQUIN WAY","SAN JOSE","CA",95138,37.270415574,-121.769977138,377,"5630 ALGONQUIN WAY, SAN JOSE, CA, 95138","Match","Exact","5630 ALGONQUIN WAY, SAN JOSE, CA, 95138",123010355,"L"
731378,"5630 BEARING RD","ROANOKE","VA",24018,NA,NA,378,"5630 BEARING RD, ROANOKE, VA, 24018","No_Match",NA,NA,NA,NA
731379,"5630 BENJAMIN COURT","HUBER HEIGHTS","OH",45424,39.8361402,-84.143086641,379,"5630 BENJAMIN COURT, HUBER HEIGHTS, OH, 45424","Match","Exact","5630 BENJAMIN CT, HUBER HEIGHTS, OH, 45424",143573122,"R"
731380,"5630 CLARK STATE ROAD","GAHANNA","OH",43230,40.032752524,-82.8445543299999,380,"5630 CLARK STATE ROAD, GAHANNA, OH, 43230","Match","Exact","5630 CLARK STATE RD, GAHANNA, OH, 43230",641137005,"L"
731381,"5630 E BINGHAMPTON DR","TUCSON","AZ",85712,32.2628779410001,-110.873301802,381,"5630 E BINGHAMPTON DR, TUCSON, AZ, 85712","Match","Exact","5630 BINGHAMPTON DR, TUCSON, AZ, 85712",121178176,"L"
731382,"5630 FAIRMONT DR","NEW ORLEANS","LA",70122,NA,NA,382,"5630 FAIRMONT DR, NEW ORLEANS, LA, 70122","No_Match",NA,NA,NA,NA
731383,"5630 FARNSWORTH RD","BRETHREN","MI",49619,44.3223645210001,-86.081203189,383,"5630 FARNSWORTH RD, BRETHREN, MI, 49619","Match","Exact","5630 FARNSWORTH RD, BRETHREN, MI, 49619",146022638,"L"
731384,"5630 FOUNTAIN GROVE CIRCLE APT 163","FAYETTEVILLE","NC",28304,35.0344060730001,-79.0740448179999,384,"5630 FOUNTAIN GROVE CIRCLE APT 163, FAYETTEVILLE, NC, 28304","Match","Exact","5630 FOUNTAIN GROVE CIR, FAYETTEVILLE, NC, 28304",646518800,"R"
731385,"5630 GLENSTONE WAY","SAN DIEGO","CA",92121,32.9132622320001,-117.19539106,385,"5630 GLENSTONE WAY, SAN DIEGO, CA, 92121","Match","Exact","5630 GLENSTONE WAY, SAN DIEGO, CA, 92121",195652086,"L"
731386,"5630 GOLF POINT DR UNIT 206","SARASOTA","FL",34236,NA,NA,386,"5630 GOLF POINT DR UNIT 206, SARASOTA, FL, 34236","No_Match",NA,NA,NA,NA
731387,"5630 KENSINGTON AVE","COUNTRYSIDE","IL",60525,41.787790864,-87.874337133,387,"5630 KENSINGTON AVE, COUNTRYSIDE, IL, 60525","Match","Non_Exact","5630 S KENSINGTON AVE, COUNTRYSIDE, IL, 60525",112205386,"R"
731388,"5630 LANDON ST SE","SALEM","OR",97306,44.874218801,-123.001233801,388,"5630 LANDON ST SE, SALEM, OR, 97306","Match","Exact","5630 LANDON ST SE, SALEM, OR, 97306",613679434,"L"
731389,"5630 LIERMAN CIR","CENTREVILLE","VA",20120,38.8395587480001,-77.420829011,389,"5630 LIERMAN CIR, CENTREVILLE, VA, 20120","Match","Exact","5630 LIERMAN CIR, CENTREVILLE, VA, 20120",647365313,"L"
731390,"5630 MUSTANG TRAIL","TYLER","TX",75707,32.2885196720001,-95.257448207,390,"5630 MUSTANG TRAIL, TYLER, TX, 75707","Match","Exact","5630 MUSTANG TRL, TYLER, TX, 75707",624744916,"R"
731391,"5630 N CAMINO DE LAS ESTRELLAS","TUCSON","AZ",85718,NA,NA,391,"5630 N CAMINO DE LAS ESTRELLAS, TUCSON, AZ, 85718","No_Match",NA,NA,NA,NA
731392,"5630 N SHERIDAN RD APT 1227","CHICAGO","IL",60660,41.98440429,-87.655214096,392,"5630 N SHERIDAN RD APT 1227, CHICAGO, IL, 60660","Match","Non_Exact","5630 N SHERIDAN RD, CHICAGO, IL, 60660",646582900,"R"
731393,"5630 N STAR RIDGE WAY","STAR","ID",83669,43.7404529980001,-116.471311279,393,"5630 N STAR RIDGE WAY, STAR, ID, 83669","Match","Exact","5630 N STAR RIDGE WAY, STAR, ID, 83669",117880133,"R"
731394,"5630 N VISTA LANE","JANESVILLE","WI",53548,42.7535299940001,-89.128334142,394,"5630 N VISTA LANE, JANESVILLE, WI, 53548","Match","Exact","5630 N VISTA LN, JANESVILLE, WI, 53548",49900136,"R"
731395,"5630 NE COUCH ST","PORTLAND","OR",97213,45.523574931,-122.606052613,395,"5630 NE COUCH ST, PORTLAND, OR, 97213","Match","Exact","5630 NE COUCH ST, PORTLAND, OR, 97213",157512445,"R"
731396,"5630 REDTAIL ROAD","COUNCIL BLUFFS","IA",51501,41.202707698,-95.8341415419999,396,"5630 REDTAIL ROAD, COUNCIL BLUFFS, IA, 51501","Match","Exact","5630 REDTAIL RD, COUNCIL BLUFFS, IA, 51501",617973335,"L"
731397,"5630 SANTA CRUZ AVE","RICHMOND","CA",94804,37.9069954930001,-122.312197219,397,"5630 SANTA CRUZ AVE, RICHMOND, CA, 94804","Match","Exact","5630 SANTA CRUZ AVE, RICHMOND, CA, 94804",192043693,"R"
731398,"5630 SEDONA DR","AUSTIN","TX",78759,30.397091372,-97.764694345,398,"5630 SEDONA DR, AUSTIN, TX, 78759","Match","Non_Exact","5630 SEDONIA DR, AUSTIN, TX, 78759",63986152,"L"
731399,"5630 SINCLAIR ROAD","COLUMBUS","OH",43229,40.079837598,-82.9976595749999,399,"5630 SINCLAIR ROAD, COLUMBUS, OH, 43229","Match","Exact","5630 SINCLAIR RD, COLUMBUS, OH, 43229",218660521,"R"
731400,"5630 SMITH RD","HUEYTOWN","AL",35023,33.4611110880001,-87.0283131899999,400,"5630 SMITH RD, HUEYTOWN, AL, 35023","Match","Exact","5630 SMITH RD, HUEYTOWN, AL, 35023",81545928,"L"
731401,"5630 STATE ROAD","KINGSVILLE","OH",44048,41.8770874360001,-80.617693641,401,"5630 STATE ROAD, KINGSVILLE, OH, 44048","Match","Exact","5630 STATE RD, KINGSVILLE, OH, 44048",117316231,"R"
731402,"5630 SUMMER MEADOW PASS","STONE MOUNTAIN","GA",30087,33.773837681,-84.1585564969999,402,"5630 SUMMER MEADOW PASS, STONE MOUNTAIN, GA, 30087","Match","Exact","5630 SUMMER MEADOW PASS, STONE MOUNTAIN, GA, 30087",23394795,"R"
731403,"5630 SW 120TH AVENUE","COOPER CITY","FL",33330,26.047753702,-80.3085168659999,403,"5630 SW 120TH AVENUE, COOPER CITY, FL, 33330","Match","Exact","5630 SW 120TH AVE, COOPER CITY, FL, 33330",114700125,"L"
731404,"5630 TOURE DRIVE","PORT ORANGE","FL",32129,NA,NA,404,"5630 TOURE DRIVE, PORT ORANGE, FL, 32129","No_Match",NA,NA,NA,NA
731405,"5630 TULLS CORNER ROAD","MARION STATION","MD",21838,38.036571124,-75.7665231829999,405,"5630 TULLS CORNER ROAD, MARION STATION, MD, 21838","Match","Exact","5630 TULLS CORNER RD, MARION STATION, MD, 21838",209666718,"L"
731406,"5630 VICTORY LOOP","MANASSAS","VA",20112,38.6707012590001,-77.375622487,406,"5630 VICTORY LOOP, MANASSAS, VA, 20112","Match","Exact","5630 VICTORY LOOP, MANASSAS, VA, 20112",652134097,"L"
731407,"5630 W 43RD","AMARILLO","TX",79109,35.163261232,-101.899313676,407,"5630 W 43RD, AMARILLO, TX, 79109","Match","Non_Exact","5630 W 43RD AVE, AMARILLO, TX, 79109",182653003,"R"
731408,"5630 W STATE HWY 96","PUEBLO","CO",81005,38.2591326940001,-104.706244695,408,"5630 W STATE HWY 96, PUEBLO, CO, 81005","Match","Exact","5630 STATE HWY 96, PUEBLO, CO, 81005",105079661,"R"
731409,"5630 WAPELLO AVE SE","LONE TREE","IA",52755,41.52223443,-91.3867124609999,409,"5630 WAPELLO AVE SE, LONE TREE, IA, 52755","Match","Exact","5630 WAPELLO AVE SE, LONE TREE, IA, 52755",84493102,"R"
731410,"5630 WEATHERFORD RD","FAYETTEVILLE","NC",28303,35.0994619360001,-78.978306598,410,"5630 WEATHERFORD RD, FAYETTEVILLE, NC, 28303","Match","Exact","5630 WEATHERFORD RD, FAYETTEVILLE, NC, 28303",64223284,"R"
731411,"5630 WEST MARKET STREET","GREENSBORO","NC",27409,36.0763218760001,-79.891761398,411,"5630 WEST MARKET STREET, GREENSBORO, NC, 27409","Match","Exact","5630 W MARKET ST, GREENSBORO, NC, 27409",131108994,"R"
731412,"5630 WISCONSIN AVE  1504","BETHESDA","MD",20815,38.9658036590001,-77.088271526,412,"5630 WISCONSIN AVE  1504, BETHESDA, MD, 20815","Match","Exact","5630 WISCONSIN AVE, BETHESDA, MD, 20815",638659322,"R"
731413,"5630 WOODLAND ROAD","MINNETONKA","MN",55345,44.901482867,-93.485379273,413,"5630 WOODLAND ROAD, MINNETONKA, MN, 55345","Match","Exact","5630 WOODLAND RD, MINNETONKA, MN, 55345",43826397,"R"
731414,"5630","FAYETTEVILLE","NC",28312,NA,NA,414,"5630, FAYETTEVILLE, NC, 28312","No_Match",NA,NA,NA,NA
731415,"56306 892RD","HARTINGTON","NE",68739,NA,NA,415,"56306 892RD, HARTINGTON, NE, 68739","No_Match",NA,NA,NA,NA
731416,"5631 ALPENROSE AVE","FRISCO","TX",75035,33.1239960880001,-96.760115895,416,"5631 ALPENROSE AVE, FRISCO, TX, 75035","Match","Exact","5631 ALPENROSE AVE, FRISCO, TX, 75035",651062045,"R"
731417,"5631 ALPENROSE AVENUE","FRISCO","TX",75035,33.1239960880001,-96.760115895,417,"5631 ALPENROSE AVENUE, FRISCO, TX, 75035","Match","Exact","5631 ALPENROSE AVE, FRISCO, TX, 75035",651062045,"R"
731418,"5631 BELLFORT STREET","HOUSTON","TX",77033,29.6663090910001,-95.3388087819999,418,"5631 BELLFORT STREET, HOUSTON, TX, 77033","Match","Exact","5631 BELLFORT ST, HOUSTON, TX, 77033",96089975,"L"
731419,"5631 COLORADO AVENUE NW","WASHINGTON","DC",20011,38.9581178080001,-77.031665203,419,"5631 COLORADO AVENUE NW, WASHINGTON, DC, 20011","Match","Exact","5631 COLORADO AVE NW, WASHINGTON, DC, 20011",636884426,"R"
731420,"5631 CORNWALLIS RD","GARNER","NC",27529,35.6191609210001,-78.535849496,420,"5631 CORNWALLIS RD, GARNER, NC, 27529","Match","Exact","5631 CORNWALLIS RD, GARNER, NC, 27529",26541824,"L"
731421,"5631 CYPRESS AVENUE","CARMICHAEL","CA",95608,38.6389525170001,-121.333625957,421,"5631 CYPRESS AVENUE, CARMICHAEL, CA, 95608","Match","Exact","5631 CYPRESS AVE, CARMICHAEL, CA, 95608",133342980,"L"
731422,"5631 E 48TH CIRCLE N","WICHITA","KS",67220,37.771955199,-97.2706891139999,422,"5631 E 48TH CIRCLE N, WICHITA, KS, 67220","Match","Exact","5631 E 48TH CIR N, WICHITA, KS, 67220",115669841,"L"
731423,"5631 E MAIN STREET","WOLVERINE","MI",49799,45.2731304480001,-84.603266858,423,"5631 E MAIN STREET, WOLVERINE, MI, 49799","Match","Exact","5631 MAIN ST, WOLVERINE, MI, 49799",134531566,"R"
731424,"5631 GLENN RD","INDIANAPOLIS","IN",46216,39.855993977,-86.021733736,424,"5631 GLENN RD, INDIANAPOLIS, IN, 46216","Match","Exact","5631 GLENN RD, INDIANAPOLIS, IN, 46216",108055657,"R"
731425,"5631 GOVANE AVE","BALTIMORE","MD",21212,39.3582486870001,-76.607363613,425,"5631 GOVANE AVE, BALTIMORE, MD, 21212","Match","Exact","5631 GOVANE AVE, BALTIMORE, MD, 21212",206465266,"R"
731426,"5631 GOVANE AVE","BALTIMORE","NC",28215,NA,NA,426,"5631 GOVANE AVE, BALTIMORE, NC, 28215","No_Match",NA,NA,NA,NA
731427,"5631 HERONS LANDING DRIVE","ROCKLEDGE","FL",32955,28.266629359,-80.706238013,427,"5631 HERONS LANDING DRIVE, ROCKLEDGE, FL, 32955","Match","Exact","5631 HERONS LANDING DR, ROCKLEDGE, FL, 32955",93931626,"R"
731428,"5631 JESUSP MEADOWS RD","NORTH CHESTERFIELD","VA",23234,37.441210088,-77.5021413109999,428,"5631 JESUSP MEADOWS RD, NORTH CHESTERFIELD, VA, 23234","Match","Non_Exact","5631 JESSUP MEADOWS DR, NORTH CHESTERFIELD, VA, 23234",201560758,"L"
731429,"5631 LIVE SAGE DRIVE","COLLEGE PARK","GA",33049,33.6486411060001,-84.567310941,429,"5631 LIVE SAGE DRIVE, COLLEGE PARK, GA, 33049","Match","Non_Exact","5631 LIVE SAGE DR, COLLEGE PARK, GA, 30349",644631928,"L"
731430,"5631 MAIN ST","DOWNERS GROVE","IL",60516,41.784872288,-88.0089150599999,430,"5631 MAIN ST, DOWNERS GROVE, IL, 60516","Match","Exact","5631 MAIN ST, DOWNERS GROVE, IL, 60516",112534645,"L"
731431,"5631 MATLOCK RD","GRANBURY","TX",76049,32.417762743,-97.665254895,431,"5631 MATLOCK RD, GRANBURY, TX, 76049","Match","Exact","5631 MATLOCK RD, GRANBURY, TX, 76049",158810175,"R"
731432,"5631 MIRIAM ROAD","PHILADELPHIA","PA",19124,40.0309476200001,-75.088519407,432,"5631 MIRIAM ROAD, PHILADELPHIA, PA, 19124","Match","Exact","5631 MIRIAM RD, PHILADELPHIA, PA, 19124",131426830,"R"
731433,"5631 MOHAWK RD","RHINELANDER","WI",54501,45.658357595,-89.4355029389999,433,"5631 MOHAWK RD, RHINELANDER, WI, 54501","Match","Exact","5631 MOHAWK RD, RHINELANDER, WI, 54501",649744954,"R"
731434,"5631 MT HOLLY HUNTERSVILLE RD","CHARLOTTE","NC",28216,35.3357521560001,-80.9206740819999,434,"5631 MT HOLLY HUNTERSVILLE RD, CHARLOTTE, NC, 28216","Match","Non_Exact","5631 MOUNT HOLLY-HUNTERSVILLE RD, CHARLOTTE, NC, 28216",647264647,"L"
731435,"5631 N US 421","MONON","IN",47959,NA,NA,435,"5631 N US 421, MONON, IN, 47959","No_Match",NA,NA,NA,NA
731436,"5631 NOBLES CT","INDIANAPOLIS","IN",46221,NA,NA,436,"5631 NOBLES CT, INDIANAPOLIS, IN, 46221","No_Match",NA,NA,NA,NA
731437,"5631 NW 27TH TERRACE","GAINESVILLE","FL",32653,29.7061898740001,-82.363668054,437,"5631 NW 27TH TERRACE, GAINESVILLE, FL, 32653","Match","Exact","5631 NW 27TH TER, GAINESVILLE, FL, 32653",6802587,"R"
731438,"5631 NW 34TH STREET","GAINESVILLE","FL",32653,29.706118153,-82.372173031,438,"5631 NW 34TH STREET, GAINESVILLE, FL, 32653","Match","Exact","5631 NW 34TH ST, GAINESVILLE, FL, 32653",601179412,"R"
731439,"5631 OHELO ROAD","KAPPA","HI",96746,22.048742438,-159.366525556,439,"5631 OHELO ROAD, KAPPA, HI, 96746","Match","Non_Exact","5631 OHELO RD, KAPAA, HI, 96746",203403481,"R"
731440,"5631 OLDE HARTLEY WAY","GLEN ALLEN","VA",23060,37.675553097,-77.55450594,440,"5631 OLDE HARTLEY WAY, GLEN ALLEN, VA, 23060","Match","Exact","5631 OLDE HARTLEY WAY, GLEN ALLEN, VA, 23060",106667558,"L"
731441,"5631 PARDY SMITH ROAD","NEWARK","NY",14513,43.0286645310001,-77.1130713319999,441,"5631 PARDY SMITH ROAD, NEWARK, NY, 14513","Match","Exact","5631 PARDY SMITH RD, NEWARK, NY, 14513",14926130,"L"
731442,"5631 PIPING ROCK LANE","HOUSTON","TX",77056,29.742373566,-95.4752522919999,442,"5631 PIPING ROCK LANE, HOUSTON, TX, 77056","Match","Exact","5631 PIPING ROCK LN, HOUSTON, TX, 77056",96033011,"L"
731443,"5631 REGENCY PARK COURT APT 13","SUITLAND","MD",20746,38.8379766840001,-76.90933408,443,"5631 REGENCY PARK COURT APT 13, SUITLAND, MD, 20746","Match","Exact","5631 REGENCY PARK CT, SUITLAND, MD, 20746",76314696,"L"
731444,"5631 RICKENBACKER ROAD","BELL","CA",90201,33.989217963,-118.162499869,444,"5631 RICKENBACKER ROAD, BELL, CA, 90201","Match","Exact","5631 RICKENBACKER RD, BELL, CA, 90201",141695226,"R"
731445,"5631 S 257TH E AVE","BROKEN ARROW","OK",74014,NA,NA,445,"5631 S 257TH E AVE, BROKEN ARROW, OK, 74014","No_Match",NA,NA,NA,NA
731446,"5631 S FARM RD 135","SPRINGFIELD","MO",65810,37.1127404530001,-93.342892191,446,"5631 S FARM RD 135, SPRINGFIELD, MO, 65810","Match","Exact","5631 S FARM RD 135, SPRINGFIELD, MO, 65810",76697435,"L"
731447,"5631 SILVER BLUFF COURT","PARKER","CO",80134,39.444857648,-104.743144624,447,"5631 SILVER BLUFF COURT, PARKER, CO, 80134","Match","Exact","5631 SILVER BLUFF CT, PARKER, CO, 80134",130824080,"R"
731448,"5631 SOLERA CT","FT MYERS","FL",33919,26.5635648590001,-81.893298891,448,"5631 SOLERA CT, FT MYERS, FL, 33919","Match","Exact","5631 SOLERA CT, FORT MYERS, FL, 33919",118167733,"L"
731449,"5631 STATE ROUTE 154","PINCKNEYVILLE","IL",62274,38.083159675,-89.337679629,449,"5631 STATE ROUTE 154, PINCKNEYVILLE, IL, 62274","Match","Exact","5631 STATE RTE 154, PINCKNEYVILLE, IL, 62274",93123611,"R"
731450,"5631 STOCKWELL STREET","LINCOLN","NE",68506,40.7744907210001,-96.6438599109999,450,"5631 STOCKWELL STREET, LINCOLN, NE, 68506","Match","Exact","5631 STOCKWELL ST, LINCOLN, NE, 68506",28290829,"R"
731451,"5631 SW 163 AVE","SW RANCHES","FL",33331,26.0501852620001,-80.3657836199999,451,"5631 SW 163 AVE, SW RANCHES, FL, 33331","Match","Exact","5631 SW 163RD AVE, SOUTHWEST RANCHES, FL, 33331",114698951,"R"
731452,"5631 TILBUBO LN","PACE","FL",32571,NA,NA,452,"5631 TILBUBO LN, PACE, FL, 32571","No_Match",NA,NA,NA,NA
731453,"5631 TRACY AVE","KANSAS CITY","MO",64110,39.0246937650001,-94.571609789,453,"5631 TRACY AVE, KANSAS CITY, MO, 64110","Match","Exact","5631 TRACY AVE, KANSAS CITY, MO, 64110",91448661,"L"
731454,"5631 TURNBRIDGE WELLS RD","LITHONIA","GA",30058,NA,NA,454,"5631 TURNBRIDGE WELLS RD, LITHONIA, GA, 30058","No_Match",NA,NA,NA,NA
731455,"5631 UNDERWOOD AVE","CHARLOTTE","NC",28213,35.3060428060001,-80.6738819879999,455,"5631 UNDERWOOD AVE, CHARLOTTE, NC, 28213","Match","Exact","5631 UNDERWOOD AVE, CHARLOTTE, NC, 28213",24918350,"R"
731456,"5631 VALHALLA DRIVE","SACRAMENTO","CA",95608,38.64477944,-121.333562823,456,"5631 VALHALLA DRIVE, SACRAMENTO, CA, 95608","Match","Non_Exact","5631 VALHALLA DR, CARMICHAEL, CA, 95608",133342764,"L"
731457,"5631 W SEEGER CT","VISALIA","CA",93277,36.3103151770001,-119.353275658,457,"5631 W SEEGER CT, VISALIA, CA, 93277","Match","Exact","5631 W SEEGER CT, VISALIA, CA, 93277",202778856,"R"
731458,"5631 WILLOWTWIG LANE","DAYTON","OH",45459,39.670376016,-84.2051980859999,458,"5631 WILLOWTWIG LANE, DAYTON, OH, 45459","Match","Exact","5631 WILLOWTWIG LN, DAYTON, OH, 45459",143580566,"R"
731459,"5631 WINDING WOODS BLVD","COLUMBUS","OH",43213,39.9856366160001,-82.8591921999999,459,"5631 WINDING WOODS BLVD, COLUMBUS, OH, 43213","Match","Exact","5631 WINDING WOODS BLVD, COLUMBUS, OH, 43213",135707379,"R"
731460,"56310 UNION STREET","CALUMET","MI",49913,47.2314202110001,-88.45141197,460,"56310 UNION STREET, CALUMET, MI, 49913","Match","Exact","56310 UNION ST, CALUMET, MI, 49913",184108711,"R"
731461,"5632 BELSTEAD LANE","GLEN ALLEN","VA",23059,37.6917032470001,-77.614203961,461,"5632 BELSTEAD LANE, GLEN ALLEN, VA, 23059","Match","Exact","5632 BELSTEAD LN, GLEN ALLEN, VA, 23059",106668029,"L"
731462,"5632 BIG SANDY DRIVE","RALEIGH","NC",27616,35.889234715,-78.5472353919999,462,"5632 BIG SANDY DRIVE, RALEIGH, NC, 27616","Match","Exact","5632 BIG SANDY DR, RALEIGH, NC, 27616",72649427,"R"
731463,"5632 BLACKBIRD AVENUE","WESTLAKE VILLAGE","CA",91362,34.1689912140001,-118.790588716,463,"5632 BLACKBIRD AVENUE, WESTLAKE VILLAGE, CA, 91362","Match","Exact","5632 BLACKBIRD AVE, WESTLAKE VILLAGE, CA, 91362",109977906,"L"
731464,"5632 BLOOMINGDALE RD","Blountville","TN",37617,36.572954214,-82.397890473,464,"5632 BLOOMINGDALE RD, Blountville, TN, 37617","Match","Non_Exact","5632 BLOOMINGDALE PIKE, BLOUNTVILLE, TN, 37617",127836076,"R"
731465,"5632 CANDO DRIVE","FORT WORTH","TX",76134,32.6605442170001,-97.3078307929999,465,"5632 CANDO DRIVE, FORT WORTH, TX, 76134","Match","Exact","5632 CANDO DR, FORT WORTH, TX, 76134",101895361,"R"
731466,"5632 CHARLIE WALKER ROAD","KANNAPOLIS","NC",28081,35.49162711,-80.663693773,466,"5632 CHARLIE WALKER ROAD, KANNAPOLIS, NC, 28081","Match","Exact","5632 CHARLIE WALKER RD, KANNAPOLIS, NC, 28081",24895583,"R"
731467,"5632 COLFAX AVE","NORTH HOLLYWOOD","CA",91601,34.172793902,-118.387757836,467,"5632 COLFAX AVE, NORTH HOLLYWOOD, CA, 91601","Match","Exact","5632 COLFAX AVE, N HOLLYWOOD, CA, 91601",241237520,"R"
731468,"5632 CYPRESS POINT DR","CITRUS HEIGHTS","CA",95610,38.6689884910001,-121.265232098,468,"5632 CYPRESS POINT DR, CITRUS HEIGHTS, CA, 95610","Match","Exact","5632 CYPRESS POINT DR, CITRUS HEIGHTS, CA, 95610",133345440,"L"
731469,"5632 CYPRESS POINT DRIVE","CITRUS HEIGHTS","CA",95610,38.6689884910001,-121.265232098,469,"5632 CYPRESS POINT DRIVE, CITRUS HEIGHTS, CA, 95610","Match","Exact","5632 CYPRESS POINT DR, CITRUS HEIGHTS, CA, 95610",133345440,"L"
731470,"5632 DONNELLY AVE","FORT WORTH","TX",76107,32.729269586,-97.406756069,470,"5632 DONNELLY AVE, FORT WORTH, TX, 76107","Match","Exact","5632 DONNELLY AVE, FORT WORTH, TX, 76107",101880734,"R"
731471,"5632 DONNELLY","FORT WORTH","TX",76107,32.729269586,-97.406756069,471,"5632 DONNELLY, FORT WORTH, TX, 76107","Match","Non_Exact","5632 DONNELLY AVE, FORT WORTH, TX, 76107",101880734,"R"
731472,"5632 HARPETH HAVEN DRIVE","PEGRAM","TN",37143,36.0861226270001,-87.04079553,472,"5632 HARPETH HAVEN DRIVE, PEGRAM, TN, 37143","Match","Exact","5632 HARPETH HAVEN DR, PEGRAM, TN, 37143",636639895,"L"
731473,"5632 HWY 185  NUMBER 24","OPELOUSAS","LA",70570,NA,NA,473,"5632 HWY 185  NUMBER 24, OPELOUSAS, LA, 70570","No_Match",NA,NA,NA,NA
731474,"5632 JOHNSON STREET","ARVADA","CO",80002,39.798899055,-105.108706532,474,"5632 JOHNSON STREET, ARVADA, CO, 80002","Match","Exact","5632 JOHNSON ST, ARVADA, CO, 80002",177759159,"R"
731475,"5632 LAKE MENDOTA DR","MADISON","WI",53705,43.087155357,-89.474659851,475,"5632 LAKE MENDOTA DR, MADISON, WI, 53705","Match","Exact","5632 LAKE MENDOTA DR, MADISON, WI, 53705",49466710,"R"
731476,"5632 LEBANON AVE","PHILADELPHIA","PA",19131,39.9867532230001,-75.235562643,476,"5632 LEBANON AVE, PHILADELPHIA, PA, 19131","Match","Exact","5632 LEBANON AVE, PHILADELPHIA, PA, 19131",131397962,"L"
731477,"5632 LEBANON AVENUE","PHILADELPHIA","PA",19131,39.9867532230001,-75.235562643,477,"5632 LEBANON AVENUE, PHILADELPHIA, PA, 19131","Match","Exact","5632 LEBANON AVE, PHILADELPHIA, PA, 19131",131397962,"L"
731478,"5632 LINDA DRIVE","WATAUGA","TX",76137,32.86278529,-97.262590798,478,"5632 LINDA DRIVE, WATAUGA, TX, 76137","Match","Non_Exact","5632 LINDA DR, WATAUGA, TX, 76148",101861893,"R"
731479,"5632 MADISON AVENUE","MONTCLAIR","NJ",7042,NA,NA,479,"5632 MADISON AVENUE, MONTCLAIR, NJ, 7042","No_Match",NA,NA,NA,NA
731480,"5632 MORSE HILL RD","WILLIAMSON","NY",14589,43.207950372,-77.112702992,480,"5632 MORSE HILL RD, WILLIAMSON, NY, 14589","Match","Exact","5632 MORSE HILL RD, WILLIAMSON, NY, 14589",14911386,"L"
731481,"5632 N STATE RD 25","ROCHESTER","IL",46975,NA,NA,481,"5632 N STATE RD 25, ROCHESTER, IL, 46975","No_Match",NA,NA,NA,NA
731482,"5632 N UBER ST","PHILADELPHIA","PA",19142,40.0398452470001,-75.153540896,482,"5632 N UBER ST, PHILADELPHIA, PA, 19142","Match","Non_Exact","5632 N UBER ST, PHILADELPHIA, PA, 19141",131413618,"L"
731483,"5632 PARTRIDGE DR","ORLANDO","FL",32810,28.6124769690001,-81.4572090359999,483,"5632 PARTRIDGE DR, ORLANDO, FL, 32810","Match","Exact","5632 PARTRIDGE DR, ORLANDO, FL, 32810",94326562,"L"
731484,"5632 ROAN ROAD","SYLVANIA","OH",43560,41.7173358570001,-83.6777018719999,484,"5632 ROAN ROAD, SYLVANIA, OH, 43560","Match","Exact","5632 ROAN RD, SYLVANIA, OH, 43560",33952437,"R"
731485,"5632 S 25TH ST","MILWAUKEE","WI",53221,42.9427045360001,-87.94643644,485,"5632 S 25TH ST, MILWAUKEE, WI, 53221","Match","Exact","5632 S 25TH ST, MILWAUKEE, WI, 53221",77760527,"L"
731486,"5632 S 3275 W","TAYLORSVILLE","UT",84129,40.6487957520001,-111.969257568,486,"5632 S 3275 W, TAYLORSVILLE, UT, 84129","Match","Exact","5632 S 3275 W, TAYLORSVILLE, UT, 84129",176104245,"L"
731487,"5632 S 44TH PL","PHOENIX","AZ",85040,33.395201909,-111.986540107,487,"5632 S 44TH PL, PHOENIX, AZ, 85040","Match","Exact","5632 S 44TH PL, PHOENIX, AZ, 85040",128224913,"R"
731488,"5632 SCOTT CT","JOSHUA","TX",76058,32.4566515660001,-97.415275029,488,"5632 SCOTT CT, JOSHUA, TX, 76058","Match","Exact","5632 SCOTT CT, JOSHUA, TX, 76058",103528089,"L"
731489,"5632 SPANISH BAY ST SE","CANTON","OH",44730,40.769915772,-81.299441315,489,"5632 SPANISH BAY ST SE, CANTON, OH, 44730","Match","Exact","5632 SPANISH BAY ST SE, CANTON, OH, 44730",641781163,"L"
731490,"5632 SPANISH RIVER RD","FT PIERCE","FL",34951,27.5374385800001,-80.389490582,490,"5632 SPANISH RIVER RD, FT PIERCE, FL, 34951","Match","Exact","5632 SPANISH RIVER RD, FORT PIERCE, FL, 34951",610747236,"L"
731491,"5632 STRAWFLOWER LN","SAN JOSE","CA",95118,37.244114875,-121.88540459,491,"5632 STRAWFLOWER LN, SAN JOSE, CA, 95118","Match","Exact","5632 STRAWFLOWER LN, SAN JOSE, CA, 95118",122947173,"L"
731492,"5632 SW 19TH STREET","WEST PARK","FL",33023,25.9933584,-80.199482135,492,"5632 SW 19TH STREET, WEST PARK, FL, 33023","Match","Exact","5632 SW 19TH ST, WEST PARK, FL, 33023",114735070,"L"
731493,"5632 TISH CIRCLE","OLIVEHURST","CA",95961,39.1172682340001,-121.579964819,493,"5632 TISH CIRCLE, OLIVEHURST, CA, 95961","Match","Exact","5632 TISH CIR, OLIVEHURST, CA, 95961",106941251,"L"
731494,"5632 TULIP ST","PHILADELPHIA","PA",19124,40.0135529340001,-75.0631893509999,494,"5632 TULIP ST, PHILADELPHIA, PA, 19124","Match","Exact","5632 TULIP ST, PHILADELPHIA, PA, 19124",131429068,"L"
731495,"5632 VAN NUYS BLVD  403","VAN NUYS","CA",91401,34.1729011890001,-118.448698198,495,"5632 VAN NUYS BLVD  403, VAN NUYS, CA, 91401","Match","Exact","5632 VAN NUYS BLVD, VAN NUYS, CA, 91401",141561460,"R"
731496,"5632 VAN NUYS BLVD  APT 201","VAN  NUYS","CA",91401,34.1729011890001,-118.448698198,496,"5632 VAN NUYS BLVD  APT 201, VAN  NUYS, CA, 91401","Match","Exact","5632 VAN NUYS BLVD, VAN NUYS, CA, 91401",141561460,"R"
731497,"5632 VAN NUYS BLVD  APT 201","VAN NUYS","CA",91401,34.1729011890001,-118.448698198,497,"5632 VAN NUYS BLVD  APT 201, VAN NUYS, CA, 91401","Match","Exact","5632 VAN NUYS BLVD, VAN NUYS, CA, 91401",141561460,"R"
731498,"5632 VAN NUYS BLVD 403","VAN NUYS","CA",91401,34.1729011890001,-118.448698198,498,"5632 VAN NUYS BLVD 403, VAN NUYS, CA, 91401","Match","Exact","5632 VAN NUYS BLVD, VAN NUYS, CA, 91401",141561460,"R"
731499,"5632 VAN NUYS BLVD UNIT 1492","SHERMAN OAKS","CA",91401,34.1729011890001,-118.448698198,499,"5632 VAN NUYS BLVD UNIT 1492, SHERMAN OAKS, CA, 91401","Match","Exact","5632 VAN NUYS BLVD, SHERMAN OAKS, CA, 91401",141561460,"R"
731500,"5632 VENTURI DRIVE","HUNTINGTON BEACH","CA",92649,33.724887988,-118.029926137,500,"5632 VENTURI DRIVE, HUNTINGTON BEACH, CA, 92649","Match","Exact","5632 VENTURI DR, HUNTINGTON BEACH, CA, 92649",144014321,"R"
