"ID","Address","City","State","Zip","lat","long","id","input_address","match_indicator","match_type","matched_address","tiger_line_id","tiger_side"
648001,"4581 CR 3546","SULPHUR BLUFF","TX",75481,33.303858527,-95.388975929,1,"4581 CR 3546, SULPHUR BLUFF, TX, 75481","Match","Exact","4581 CO RD 3546, SULPHUR BLUFF, TX, 75481",42783288,"L"
648002,"4581 EDGEMOOR STREET","ORLANDO","FL",32811,28.5425936280001,-81.436598168,2,"4581 EDGEMOOR STREET, ORLANDO, FL, 32811","Match","Exact","4581 EDGEMOOR ST, ORLANDO, FL, 32811",606106480,"R"
648003,"4581 GREEN COOK RD","WESTERVILLE","OH",43082,40.138792568,-82.7802675089999,3,"4581 GREEN COOK RD, WESTERVILLE, OH, 43082","Match","Non_Exact","4581 GREEN-COOK RD, WESTERVILLE, OH, 43082",24588126,"R"
648004,"4581 HALL ROAD","BLAINE","WA",98230,48.969030036,-122.728674546,4,"4581 HALL ROAD, BLAINE, WA, 98230","Match","Exact","4581 HALL RD, BLAINE, WA, 98230",183758170,"L"
648005,"4581 HAPPY DR NE","SALEM","OR",97305,44.9878295090001,-122.97599871,5,"4581 HAPPY DR NE, SALEM, OR, 97305","Match","Exact","4581 HAPPY DR NE, SALEM, OR, 97305",156278067,"R"
648006,"4581 HELENA DRIVE","TITUSVILLE","FL",32780,28.566158214,-80.83136619,6,"4581 HELENA DRIVE, TITUSVILLE, FL, 32780","Match","Exact","4581 HELENA DR, TITUSVILLE, FL, 32780",93956777,"L"
648007,"4581 HIGHWAY 154","THOMASVILLE","AL",36784,31.8950259710001,-87.755530304,7,"4581 HIGHWAY 154, THOMASVILLE, AL, 36784","Match","Non_Exact","4581 STATE HWY 154, THOMASVILLE, AL, 36784",34574265,"R"
648008,"4581 HOMESTEAD LN","PORTAGE","MI",49024,42.1906178340001,-85.643714957,8,"4581 HOMESTEAD LN, PORTAGE, MI, 49024","Match","Exact","4581 HOMESTEAD LN, PORTAGE, MI, 49024",12225332,"L"
648009,"4581 JAGUAR DRIVE","PLANO","TX",75024,33.080860741,-96.784961439,9,"4581 JAGUAR DRIVE, PLANO, TX, 75024","Match","Exact","4581 JAGUAR DR, PLANO, TX, 75024",600641243,"L"
648010,"4581 LAUREL TRAIL","ROCKY MOUNT","NC",27804,35.9947581370001,-77.877815743,10,"4581 LAUREL TRAIL, ROCKY MOUNT, NC, 27804","Match","Non_Exact","4581 LAUREL TRAIL RD, ROCKY MOUNT, NC, 27804",90392111,"L"
648011,"4581 LYNNFIELD COURT","RENO","NV",89519,39.4801915150001,-119.854407983,11,"4581 LYNNFIELD COURT, RENO, NV, 89519","Match","Exact","4581 LYNNFIELD CT, RENO, NV, 89519",107073098,"R"
648012,"4581 NW 21ST STREET 100","LAUDERHILL","FL",33313,26.1537083100001,-80.210784269,12,"4581 NW 21ST STREET 100, LAUDERHILL, FL, 33313","Match","Non_Exact","4581 NW 21ST ST, LAUDERHILL, FL, 33313",114708044,"R"
648013,"4581 QUAIL RIDGE CT NE","ADA","MI",49301,42.9688656120001,-85.5570400409999,13,"4581 QUAIL RIDGE CT NE, ADA, MI, 49301","Match","Exact","4581 QUAIL RIDGE CT NE, ADA, MI, 49301",12492534,"R"
648014,"4581 ROYALE DRIVE","TUSCALOOSA","AL",35406,33.257835722,-87.4893514139999,14,"4581 ROYALE DRIVE, TUSCALOOSA, AL, 35406","Match","Exact","4581 ROYALE DR, TUSCALOOSA, AL, 35406",640972872,"R"
648015,"4581 TALLY HO TRAIL","BOULDER","CO",80301,40.0574247690001,-105.196291775,15,"4581 TALLY HO TRAIL, BOULDER, CO, 80301","Match","Exact","4581 TALLY HO TRL, BOULDER, CO, 80301",188220320,"R"
648016,"4581 TOLLAND AVE","HOLT","MI",48442,42.648150705,-84.52738328,16,"4581 TOLLAND AVE, HOLT, MI, 48442","Match","Non_Exact","4581 TOLLAND AVE, HOLT, MI, 48842",17504158,"L"
648017,"4581 TOLLAND AVE","HOLT","MI",48842,42.648150705,-84.52738328,17,"4581 TOLLAND AVE, HOLT, MI, 48842","Match","Exact","4581 TOLLAND AVE, HOLT, MI, 48842",17504158,"L"
648018,"4581 TONI DRIVE","DAYTON","OH",45417,39.7055571510001,-84.262207304,18,"4581 TONI DRIVE, DAYTON, OH, 45417","Match","Exact","4581 TONI DR, DAYTON, OH, 45417",143577708,"R"
648019,"4581 VANCOUVER","DETROIT","MI",48204,42.3589710250001,-83.120129409,19,"4581 VANCOUVER, DETROIT, MI, 48204","Match","Non_Exact","4581 VANCOUVER ST, DETROIT, MI, 48204",95471984,"L"
648020,"4581 VILLAGE PARK DR E","WILLIAMSBURG","VA",23185,37.2503256270001,-76.760489346,20,"4581 VILLAGE PARK DR E, WILLIAMSBURG, VA, 23185","Match","Exact","4581 VILLAGE PARK DR E, WILLIAMSBURG, VA, 23185",103773308,"R"
648021,"4581 VZ COUNTY ROAD 2112","WILLS POINT","TX",75169,32.6128116940001,-95.9798935909999,21,"4581 VZ COUNTY ROAD 2112, WILLS POINT, TX, 75169","Match","Exact","4581 VZ COUNTY ROAD 2112, WILLS POINT, TX, 75169",42919127,"L"
648022,"4581 W DYER RD","PAHRUMP","NV",89048,36.2164156470001,-116.096248968,22,"4581 W DYER RD, PAHRUMP, NV, 89048","Match","Exact","4581 W DYER RD, PAHRUMP, NV, 89048",140596884,"R"
648023,"4581 WESTON RD 238","WESTON","FL",33331,NA,NA,23,"4581 WESTON RD 238, WESTON, FL, 33331","No_Match",NA,NA,NA,NA
648024,"4581 ZIKA LANE","EDWARDSVILLE","IL",62025,38.8205586060001,-89.9240451049999,24,"4581 ZIKA LANE, EDWARDSVILLE, IL, 62025","Match","Exact","4581 ZIKA LN, EDWARDSVILLE, IL, 62025",649624685,"L"
648025,"45810 WOODWARD AVENUE","PONTIAC","MI",48341,42.6259689730001,-83.285133195,25,"45810 WOODWARD AVENUE, PONTIAC, MI, 48341","Match","Exact","45810 WOODWARD AVE, PONTIAC, MI, 48341",69705922,"L"
648026,"45812 LOVINGS CHURCH LANE","HEAVENER","OK",74937,34.8622849810001,-94.478553994,26,"45812 LOVINGS CHURCH LANE, HEAVENER, OK, 74937","Match","Exact","45812 LOVINGS CHURCH LN, HEAVENER, OK, 74937",606789946,"R"
648027,"4582 BLACK POWDER DR","HERRIMAN","UT",84096,40.5292908850001,-112.000216028,27,"4582 BLACK POWDER DR, HERRIMAN, UT, 84096","Match","Non_Exact","4582 W BLACK POWDER DR, HERRIMAN, UT, 84096",630276485,"L"
648028,"4582 CRAIG VALLEY DRIVE","CATAWBA","VA",24070,NA,NA,28,"4582 CRAIG VALLEY DRIVE, CATAWBA, VA, 24070","No_Match",NA,NA,NA,NA
648029,"4582 KINGSTON RD","KINGSTON","GA",30145,NA,NA,29,"4582 KINGSTON RD, KINGSTON, GA, 30145","No_Match",NA,NA,NA,NA
648030,"4582 KINGWOOD AVE SUITE E-223","KINGWOOD","TX",77345,NA,NA,30,"4582 KINGWOOD AVE SUITE E-223, KINGWOOD, TX, 77345","No_Match",NA,NA,NA,NA
648031,"4582 KINGWOOD DR STE E 339","KINGWOOD","TX",77345,30.0506580730001,-95.182462414,31,"4582 KINGWOOD DR STE E 339, KINGWOOD, TX, 77345","Match","Non_Exact","4582 KINGWOOD DR, KINGWOOD, TX, 77339",96667456,"R"
648032,"4582 KINGWOOD DR STE E 399","KINGWOOD","TX",77345,30.0506580730001,-95.182462414,32,"4582 KINGWOOD DR STE E 399, KINGWOOD, TX, 77345","Match","Non_Exact","4582 KINGWOOD DR, KINGWOOD, TX, 77339",96667456,"R"
648033,"4582 KINGWOOD DR STE E174","KINGWOOD","TX",77345,30.0506580730001,-95.182462414,33,"4582 KINGWOOD DR STE E174, KINGWOOD, TX, 77345","Match","Non_Exact","4582 KINGWOOD DR, KINGWOOD, TX, 77339",96667456,"R"
648034,"4582 PINE CREST","HAUGHTON","LA",71037,32.563110841,-93.5727725949999,34,"4582 PINE CREST, HAUGHTON, LA, 71037","Match","Non_Exact","4582 PINE CREST DR, HAUGHTON, LA, 71037",108524603,"R"
648035,"4582 RHAPSODY DRIVE","HUNTINGTON BEACH","CA",92649,33.726246422,-118.048879864,35,"4582 RHAPSODY DRIVE, HUNTINGTON BEACH, CA, 92649","Match","Exact","4582 RHAPSODY DR, HUNTINGTON BEACH, CA, 92649",144013681,"R"
648036,"4582 S FAIRPLAY ST","AURORA","CO",80015,39.63291524,-104.815064058,36,"4582 S FAIRPLAY ST, AURORA, CO, 80015","Match","Exact","4582 S FAIRPLAY ST, AURORA, CO, 80015",177355808,"L"
648037,"4582 SCOTTSDALE PLACE","WALDORF","MD",20602,38.586990465,-76.916331783,37,"4582 SCOTTSDALE PLACE, WALDORF, MD, 20602","Match","Exact","4582 SCOTTSDALE PL, WALDORF, MD, 20602",635278557,"L"
648038,"4582 SW 126 TH AVENUE","MIRAMAR","FL",33027,25.9587445070001,-80.3140935979999,38,"4582 SW 126 TH AVENUE, MIRAMAR, FL, 33027","Match","Non_Exact","4582 SW 126TH TER, MIRAMAR, FL, 33027",114797970,"R"
648039,"4582 SW 126 TH STREET","MIRAMAR","FL",33027,25.9587445070001,-80.3140935979999,39,"4582 SW 126 TH STREET, MIRAMAR, FL, 33027","Match","Non_Exact","4582 SW 126TH TER, MIRAMAR, FL, 33027",114797970,"R"
648040,"4582 SW 126TH AVENUE","MIRAMAR","FL",33027,25.9587445070001,-80.3140935979999,40,"4582 SW 126TH AVENUE, MIRAMAR, FL, 33027","Match","Non_Exact","4582 SW 126TH TER, MIRAMAR, FL, 33027",114797970,"R"
648041,"4582 W BLACK POWDER DRIVE","HERRIMAN","UT",84096,40.5292910380001,-112.00025419,41,"4582 W BLACK POWDER DRIVE, HERRIMAN, UT, 84096","Match","Exact","4582 W BLACK POWDER DR, HERRIMAN, UT, 84096",630276485,"L"
648042,"4582 W GAVIN LN","LIBERTYVILLE","IL",60048,42.324460892,-87.913590702,42,"4582 W GAVIN LN, LIBERTYVILLE, IL, 60048","Match","Exact","4582 GAVIN LN, LIBERTYVILLE, IL, 60048",119704333,"R"
648043,"4582 W ST RD 114","NORTH MANCHESTER","IN",46952,NA,NA,43,"4582 W ST RD 114, NORTH MANCHESTER, IN, 46952","No_Match",NA,NA,NA,NA
648044,"4582 WARWICK LANE","FRISCO","TX",75034,33.087716657,-96.8527864769999,44,"4582 WARWICK LANE, FRISCO, TX, 75034","Match","Exact","4582 WARWICK LN, FRISCO, TX, 75034",614126801,"R"
648045,"4582 WOODBRIDGE ST","GARY","IN",46408,41.535676858,-87.383119446,45,"4582 WOODBRIDGE ST, GARY, IN, 46408","Match","Exact","4582 WOODBRIDGE ST, GARY, IN, 46408",98430164,"R"
648046,"45820 BARHAM CT","LANCASTER","CA",93534,34.7161034530001,-118.157820547,46,"45820 BARHAM CT, LANCASTER, CA, 93534","Match","Exact","45820 BARHAM CT, LANCASTER, CA, 93534",141830826,"L"
648047,"45822 BRISTOL CIRCLE","NOVI","MI",48377,42.5171099240001,-83.503502765,47,"45822 BRISTOL CIRCLE, NOVI, MI, 48377","Match","Exact","45822 BRISTOL CIR, NOVI, MI, 48377",69804144,"R"
648048,"45823 SALING LANE","CALDWELL","OH",43724,39.760219788,-81.48393026,48,"45823 SALING LANE, CALDWELL, OH, 43724","Match","Exact","45823 SALING LN, CALDWELL, OH, 43724",38023809,"R"
648049,"45829 LOWER POWDER RD","BAKER CITY","OR",97814,44.8792220390001,-117.643823157,49,"45829 LOWER POWDER RD, BAKER CITY, OR, 97814","Match","Exact","45829 LOWER POWDER RD, BAKER CITY, OR, 97814",647530640,"R"
648050,"4583 79TH AVE NE","DEVILS LAKE","ND",58301,48.074718725,-98.919103351,50,"4583 79TH AVE NE, DEVILS LAKE, ND, 58301","Match","Exact","4583 79TH AVE NE, DEVILS LAKE, ND, 58301",181184971,"L"
648051,"4583 AVA POINT","HILLIARD","OH",43026,NA,NA,51,"4583 AVA POINT, HILLIARD, OH, 43026","No_Match",NA,NA,NA,NA
648052,"4583 CAPITAL DOME DR","JACKSONVILLE","FL",32246,30.2608473080001,-81.5222651839999,52,"4583 CAPITAL DOME DR, JACKSONVILLE, FL, 32246","Match","Exact","4583 CAPITAL DOME DR, JACKSONVILLE, FL, 32246",633762291,"L"
648053,"4583 CARMEL CIR","PACE","FL",32571,30.6044306320001,-87.155614811,53,"4583 CARMEL CIR, PACE, FL, 32571","Match","Exact","4583 CARMEL CIR, PACE, FL, 32571",619081066,"L"
648054,"4583 CHESTNUT RIDGE ROAD - 2","AMHERST","NY",14228,43.0046170410001,-78.808572351,54,"4583 CHESTNUT RIDGE ROAD - 2, AMHERST, NY, 14228","Match","Exact","4583 CHESTNUT RIDGE RD, AMHERST, NY, 14228",626687303,"R"
648055,"4583 CROFTSHIRE DRIVE","DAYTON","OH",45440,39.6777216940001,-84.1318653549999,55,"4583 CROFTSHIRE DRIVE, DAYTON, OH, 45440","Match","Exact","4583 CROFTSHIRE DR, DAYTON, OH, 45440",143618125,"R"
648056,"4583 DESLIN DR","TALLAHASSEE","FL",32305,30.3836201780001,-84.28060501,56,"4583 DESLIN DR, TALLAHASSEE, FL, 32305","Match","Exact","4583 DESLIN DR, TALLAHASSEE, FL, 32305",618824438,"L"
648057,"4583 FOUNTAIN DRIVE","MARIETTA","GA",30067,33.958191545,-84.41825328,57,"4583 FOUNTAIN DRIVE, MARIETTA, GA, 30067","Match","Non_Exact","4583 FOUNTAIN DR NE, MARIETTA, GA, 30067",17255156,"L"
648058,"4583 HIGHLAND AVENUE","SAN DIEGO","CA",92115,32.7605757860001,-117.097456425,58,"4583 HIGHLAND AVENUE, SAN DIEGO, CA, 92115","Match","Exact","4583 HIGHLAND AVE, SAN DIEGO, CA, 92115",195346933,"R"
648059,"4583 PINE VALLEY CIRCLE","STOCKTON","CA",95219,37.9712797010001,-121.356650495,59,"4583 PINE VALLEY CIRCLE, STOCKTON, CA, 95219","Match","Exact","4583 PINE VALLEY CIR, STOCKTON, CA, 95219",133888538,"R"
648060,"4583 TOBY DARDEN","ADAMS","TN",37010,36.527907559,-87.111703747,60,"4583 TOBY DARDEN, ADAMS, TN, 37010","Match","Non_Exact","4583 TOBY DARDEN RD, ADAMS, TN, 37010",644058788,"R"
648061,"4583 VALLEY PARKWAY SE APT H","SMYRNA","GA",30082,33.840250779,-84.501593143,61,"4583 VALLEY PARKWAY SE APT H, SMYRNA, GA, 30082","Match","Non_Exact","4583 VALLEY PKWY, SMYRNA, GA, 30082",17250703,"R"
648062,"4583 W AVE L10","LANCASTER","CA",93536,34.6511063130001,-118.211352204,62,"4583 W AVE L10, LANCASTER, CA, 93536","Match","Exact","4583 W AVE L10, LANCASTER, CA, 93536",141854208,"L"
648063,"45830 BELVOIR ROAD","GREAT MILLS","MD",20634,38.278824253,-76.490001122,63,"45830 BELVOIR ROAD, GREAT MILLS, MD, 20634","Match","Exact","45830 BELVOIR RD, GREAT MILLS, MD, 20634",36609571,"L"
648064,"45833 LOVING MOTORWAY","HEAVENER","OK",74937,NA,NA,64,"45833 LOVING MOTORWAY, HEAVENER, OK, 74937","No_Match",NA,NA,NA,NA
648065,"45833 STERLING BRIDGE PLACE","STERLING","VA",20164,39.008631902,-77.4158361089999,65,"45833 STERLING BRIDGE PLACE, STERLING, VA, 20164","Match","Exact","45833 STERLING BRIDGE PL, STERLING, VA, 20164",218907004,"R"
648066,"45834 OLD CORRAL ROAD","COARSEGOLD","CA",93614,37.238348219,-119.711794487,66,"45834 OLD CORRAL ROAD, COARSEGOLD, CA, 93614","Match","Exact","45834 OLD CORRAL RD, COARSEGOLD, CA, 93614",102369695,"L"
648067,"45837 120 ST","SISSETON","SD",57262,45.6454953080001,-97.030253456,67,"45837 120 ST, SISSETON, SD, 57262","Match","Exact","45837 120TH ST, SISSETON, SD, 57262",636013079,"R"
648068,"45837 120ST","SISSETON","SD",57262,NA,NA,68,"45837 120ST, SISSETON, SD, 57262","No_Match",NA,NA,NA,NA
648069,"4584 58TH AVE NORTH","BROOKLYN PARK","MN",55429,45.0582517760001,-93.3536471359999,69,"4584 58TH AVE NORTH, BROOKLYN PARK, MN, 55429","Match","Exact","4584 58TH AVE N, BROOKLYN PARK, MN, 55429",43614971,"R"
648070,"4584 ALLENDALE RD","VACAVILLE","CA",95688,38.45320142,-121.963217538,70,"4584 ALLENDALE RD, VACAVILLE, CA, 95688","Match","Exact","4584 ALLENDALE RD, VACAVILLE, CA, 95688",192610473,"R"
648071,"4584 BROOKHAVE CIR NE","CANTON","OH",44705,NA,NA,71,"4584 BROOKHAVE CIR NE, CANTON, OH, 44705","No_Match",NA,NA,NA,NA
648072,"4584 CHRISTIANA PARRAN ROAD","CHESAPEAKE BEACH","MD",20732,38.639503077,-76.54071735,72,"4584 CHRISTIANA PARRAN ROAD, CHESAPEAKE BEACH, MD, 20732","Match","Exact","4584 CHRISTIANA PARRAN RD, CHESAPEAKE BEACH, MD, 20732",647267279,"L"
648073,"4584 COUNTRY ROAD 5","DELTA","OH",43515,41.539096672,-83.9602749749999,73,"4584 COUNTRY ROAD 5, DELTA, OH, 43515","Match","Non_Exact","4584 CO RD 5, DELTA, OH, 43515",650023205,"R"
648074,"4584 CR 27","CANTON","NY",13617,44.5004279460001,-75.087546397,74,"4584 CR 27, CANTON, NY, 13617","Match","Exact","4584 CO RD 27, CANTON, NY, 13617",155199347,"R"
648075,"4584 EAST MILLER CANYON ROAD","HEREFORD","AZ",85615,31.427318519,-110.249035553,75,"4584 EAST MILLER CANYON ROAD, HEREFORD, AZ, 85615","Match","Exact","4584 E MILLER CANYON RD, HEREFORD, AZ, 85615",650233510,"R"
648076,"4584 FIELDHOUSE STA SW","LILBURN","GA",30047,33.87972855,-84.123036618,76,"4584 FIELDHOUSE STA SW, LILBURN, GA, 30047","Match","Exact","4584 FIELDHOUSE STATION SW, LILBURN, GA, 30047",629917850,"R"
648077,"4584 FIGSBORO ROAD","MARTINSVILLE","VA",24112,36.78924707,-79.853781043,77,"4584 FIGSBORO ROAD, MARTINSVILLE, VA, 24112","Match","Exact","4584 FIGSBORO RD, MARTINSVILLE, VA, 24112",55539427,"R"
648078,"4584 GLENEAGLES DRIVE","BOYNTON BEACH","FL",33436,26.5140069720001,-80.114952392,78,"4584 GLENEAGLES DRIVE, BOYNTON BEACH, FL, 33436","Match","Exact","4584 GLENEAGLES DR, BOYNTON BEACH, FL, 33436",115547280,"L"
648079,"4584 GREENLRAE ST","ROCKIN","CA",95677,NA,NA,79,"4584 GREENLRAE ST, ROCKIN, CA, 95677","No_Match",NA,NA,NA,NA
648080,"4584 MCBETH COURT","MOORPARK","CA",93021,34.273491296,-118.872031126,80,"4584 MCBETH COURT, MOORPARK, CA, 93021","Match","Exact","4584 MCBETH CT, MOORPARK, CA, 93021",110004342,"R"
648081,"4584 MEADOW CREEK PATH","LITHONIA","GA",30038,33.669491109,-84.2061823669999,81,"4584 MEADOW CREEK PATH, LITHONIA, GA, 30038","Match","Exact","4584 MEADOW CREEK PATH, LITHONIA, GA, 30038",625286624,"R"
648082,"4584 MUDDY CREEK RD","HARWOOD","MD",20776,38.8568912110001,-76.558078581,82,"4584 MUDDY CREEK RD, HARWOOD, MD, 20776","Match","Exact","4584 MUDDY CREEK RD, HARWOOD, MD, 20776",606940757,"R"
648083,"4584 QUEEN MARY","SOUTH EUCLID","OH",44121,41.536852164,-81.512670192,83,"4584 QUEEN MARY, SOUTH EUCLID, OH, 44121","Match","Non_Exact","4584 QUEEN MARY DR, SOUTH EUCLID, OH, 44121",61124796,"R"
648084,"4584 SNOWBIRD DRIVE","HAMILTON","OH",45011,39.397047725,-84.4641760969999,84,"4584 SNOWBIRD DRIVE, HAMILTON, OH, 45011","Match","Exact","4584 SNOWBIRD DR, HAMILTON, OH, 45011",113808449,"L"
648085,"4584 VINEHILL ROAD","EXCELSIOR","MN",55331,44.920794164,-93.523628817,85,"4584 VINEHILL ROAD, EXCELSIOR, MN, 55331","Match","Non_Exact","4584 VINE HILL RD, EXCELSIOR, MN, 55331",43820732,"R"
648086,"4584 WASHINGTON STREET","ROSLINDALE","MA",2131,42.277338967,-71.1381269399999,86,"4584 WASHINGTON STREET, ROSLINDALE, MA, 2131","Match","Exact","4584 WASHINGTON ST, ROSLINDALE, MA, 02131",85703627,"L"
648087,"4584 WOLF RUN DR","MEDFORD","OR",97504,42.333179407,-122.789043838,87,"4584 WOLF RUN DR, MEDFORD, OR, 97504","Match","Exact","4584 WOLF RUN DR, MEDFORD, OR, 97504",640103053,"R"
648088,"4584 WOLF RUN","MEDFORD","OR",97504,42.333179407,-122.789043838,88,"4584 WOLF RUN, MEDFORD, OR, 97504","Match","Non_Exact","4584 WOLF RUN DR, MEDFORD, OR, 97504",640103053,"R"
648089,"45843 131ST STREET","SISSETON","SD",57262,NA,NA,89,"45843 131ST STREET, SISSETON, SD, 57262","No_Match",NA,NA,NA,NA
648090,"45844 144TH STREET","SUMMIT","SD",57266,45.296976461,-97.030321876,90,"45844 144TH STREET, SUMMIT, SD, 57266","Match","Exact","45844 144TH ST, SUMMIT, SD, 57266",621437857,"R"
648091,"45848 PRAIRE GRASS CT","BELLEVILLE","MI",48111,42.2307646300001,-83.488508,91,"45848 PRAIRE GRASS CT, BELLEVILLE, MI, 48111","Match","Non_Exact","45848 PRAIRIEGRASS CT, BELLEVILLE, MI, 48111",617583160,"L"
648092,"4585 BIVENS HILL RD","READYVILLE","TN",37149,35.855428487,-86.2122403549999,92,"4585 BIVENS HILL RD, READYVILLE, TN, 37149","Match","Exact","4585 BIVENS HILL RD, READYVILLE, TN, 37149",59026523,"L"
648093,"4585 BROOK FARMS CT","DULUTH","GA",30096,33.954520632,-84.1697964699999,93,"4585 BROOK FARMS CT, DULUTH, GA, 30096","Match","Exact","4585 BROOK FARMS CT, DULUTH, GA, 30096",88929850,"R"
648094,"4585 CALLE DE VIDA","SAN DIEGO","CA",92124,32.825619052,-117.084341758,94,"4585 CALLE DE VIDA, SAN DIEGO, CA, 92124","Match","Non_Exact","4585 CLL DE VIDA, SAN DIEGO, CA, 92124",195322337,"R"
648095,"4585 CLIFF RIDGE CT","EAGAN","MN",55123,44.7909578270001,-93.151039886,95,"4585 CLIFF RIDGE CT, EAGAN, MN, 55123","Match","Exact","4585 CLIFF RIDGE CT, EAGAN, MN, 55123",37929545,"L"
648096,"4585 EMERALD ST","BOISE","ID",83706,43.611595107,-116.238233123,96,"4585 EMERALD ST, BOISE, ID, 83706","Match","Exact","4585 EMERALD ST, BOISE, ID, 83706",117862896,"L"
648097,"4585 FLOUNDER LAKE ROAD","MEGGETT","SC",29449,32.708407274,-80.24621208,97,"4585 FLOUNDER LAKE ROAD, MEGGETT, SC, 29449","Match","Non_Exact","4585 FLOUNDER LAKE DR, MEGGETT, SC, 29449",605765070,"R"
648098,"4585 HOUCK DR","PLEASANT HILL","IA",50327,41.6068872920001,-93.5241869179999,98,"4585 HOUCK DR, PLEASANT HILL, IA, 50327","Match","Exact","4585 HOUCK DR, PLEASANT HILL, IA, 50327",65813634,"L"
648099,"4585 LANDERWOOD COURT","DECATUR","GA",30034,33.6836834640001,-84.201368406,99,"4585 LANDERWOOD COURT, DECATUR, GA, 30034","Match","Exact","4585 LANDERWOOD CT, DECATUR, GA, 30034",23383586,"R"
648100,"4585 N ELSTON AVE APT 207","CHICAGO","IL",60630,41.9642811360001,-87.7345520549999,100,"4585 N ELSTON AVE APT 207, CHICAGO, IL, 60630","Match","Non_Exact","4585 N ELSTON AVE, CHICAGO, IL, 60630",111755456,"R"
648101,"4585 OLDFIELD ROAD","TALLADEGA","AL",35160,33.227999192,-86.1967260229999,101,"4585 OLDFIELD ROAD, TALLADEGA, AL, 35160","Match","Exact","4585 OLDFIELD RD, TALLADEGA, AL, 35160",642911470,"L"
648102,"4585 PALM ORCHID LN","STONE MOUNTAIN","GA",30083,NA,NA,102,"4585 PALM ORCHID LN, STONE MOUNTAIN, GA, 30083","No_Match",NA,NA,NA,NA
648103,"4585 PERRY STREET","DENVER","CO",80212,39.779842359,-105.039260174,103,"4585 PERRY STREET, DENVER, CO, 80212","Match","Exact","4585 PERRY ST, DENVER, CO, 80212",177299670,"L"
648104,"4585 QUAIL RUN","EDMOND","OK",73025,35.709896106,-97.604098192,104,"4585 QUAIL RUN, EDMOND, OK, 73025","Match","Exact","4585 QUAIL RUN, EDMOND, OK, 73025",100430588,"L"
648105,"4585 REYNOLDSBURG ROAD","PARIS","TN",38242,36.216799608,-88.247145346,105,"4585 REYNOLDSBURG ROAD, PARIS, TN, 38242","Match","Exact","4585 REYNOLDSBURG RD, PARIS, TN, 38242",607048040,"R"
648106,"4585 RIPLEY DRIVE","EL PASO","TX",79922,31.830987034,-106.570570849,106,"4585 RIPLEY DRIVE, EL PASO, TX, 79922","Match","Exact","4585 RIPLEY DR, EL PASO, TX, 79922",640806671,"L"
648107,"4585 ROBERTS AVE","BEAUMONT","TX",77707,30.0594445250001,-94.142405122,107,"4585 ROBERTS AVE, BEAUMONT, TX, 77707","Match","Exact","4585 ROBERTS AVE, BEAUMONT, TX, 77707",635190748,"R"
648108,"4585 SCHNEIDER DRIVE","OREGON","WI",53575,42.9607272430001,-89.354565825,108,"4585 SCHNEIDER DRIVE, OREGON, WI, 53575","Match","Exact","4585 SCHNEIDER DR, OREGON, WI, 53575",49547807,"R"
648109,"4585 SHOSHONE STREET APT 104","DENVER","CO",80211,39.7798453560001,-105.00957494,109,"4585 SHOSHONE STREET APT 104, DENVER, CO, 80211","Match","Exact","4585 SHOSHONE ST, DENVER, CO, 80211",177379221,"L"
648110,"4585 SLATER RD APT 203","EGAN","MN",55122,44.7912002630001,-93.223940977,110,"4585 SLATER RD APT 203, EGAN, MN, 55122","Match","Non_Exact","4585 SLATER RD, EAGAN, MN, 55122",37936349,"R"
648111,"4585 SUNSET DRIVE","BEMUS POINT","NY",14712,NA,NA,111,"4585 SUNSET DRIVE, BEMUS POINT, NY, 14712","No_Match",NA,NA,NA,NA
648112,"4585 UPPER SOUTH POINT DRIVE","LOOGOOTEE","IN",47553,38.7194095570001,-86.933821488,112,"4585 UPPER SOUTH POINT DRIVE, LOOGOOTEE, IN, 47553","Match","Exact","4585 UPPER SOUTH POINT DR, LOOGOOTEE, IN, 47553",32080810,"L"
648113,"4585 US HWY 61","ST FRANCISVILLE","LA",70775,30.7580657500001,-91.3016611209999,113,"4585 US HWY 61, ST FRANCISVILLE, LA, 70775","Match","Exact","4585 US HWY 61, SAINT FRANCISVILLE, LA, 70775",84902688,"L"
648114,"4585 WEST PHILLIPS BLVD","ONTARIO","CA",91762,34.046820499,-117.705304449,114,"4585 WEST PHILLIPS BLVD, ONTARIO, CA, 91762","Match","Non_Exact","4585 PHILLIPS BLVD, ONTARIO, CA, 91762",144672612,"R"
648115,"4585 WEST SENECA TURNPIKE","SYRACUSE","NY",13215,43.0006775530001,-76.1957778779999,115,"4585 WEST SENECA TURNPIKE, SYRACUSE, NY, 13215","Match","Exact","4585 W SENECA TPKE, SYRACUSE, NY, 13215",46589013,"L"
648116,"4586 BITTERCREEK ROAD","FAIRVIEW","WY",83119,NA,NA,116,"4586 BITTERCREEK ROAD, FAIRVIEW, WY, 83119","No_Match",NA,NA,NA,NA
648117,"4586 CADDO LANE","FAYETTEVILLE","AR",72704,36.1234458980001,-94.188629423,117,"4586 CADDO LANE, FAYETTEVILLE, AR, 72704","Match","Exact","4586 CADDO LN, FAYETTEVILLE, AR, 72704",49113093,"R"
648118,"4586 CARMAR DR","LAS VEGAS","NV",89122,36.1061854070001,-115.039263932,118,"4586 CARMAR DR, LAS VEGAS, NV, 89122","Match","Exact","4586 CARMAR DR, LAS VEGAS, NV, 89122",201912207,"L"
648119,"4586 CEDAR PARK DR","STONE MOUNTAIN","GA",30083,33.816565729,-84.2010259849999,119,"4586 CEDAR PARK DR, STONE MOUNTAIN, GA, 30083","Match","Exact","4586 CEDAR PARK DR, STONE MOUNTAIN, GA, 30083",23405856,"L"
648120,"4586 E AMERICAN AVENUE","FRESNO","CA",93725,36.6635988560001,-119.707338881,120,"4586 E AMERICAN AVENUE, FRESNO, CA, 93725","Match","Exact","4586 E AMERICAN AVE, FRESNO, CA, 93725",629635966,"L"
648121,"4586 E SMITHIVLLEWESTERN RD","SMITHVILLE","OH",44677,40.857880687,-81.881431858,121,"4586 E SMITHIVLLEWESTERN RD, SMITHVILLE, OH, 44677","Match","Non_Exact","4586 SMITHVILLE WESTERN RD, SMITHVILLE, OH, 44677",58742505,"R"
648122,"4586 FARWELL LAKE RD","HORTON","MI",49246,42.0763211350001,-84.4894440479999,122,"4586 FARWELL LAKE RD, HORTON, MI, 49246","Match","Exact","4586 FARWELL LAKE RD, HORTON, MI, 49246",17610744,"R"
648123,"4586 HOGAN LN","WADSWORTH","IL",60083,42.4074028750001,-87.913239257,123,"4586 HOGAN LN, WADSWORTH, IL, 60083","Match","Exact","4586 HOGAN LN, WADSWORTH, IL, 60083",610361834,"R"
648124,"4586 HWY 20","MARYSVILLE","CA",95901,NA,NA,124,"4586 HWY 20, MARYSVILLE, CA, 95901","No_Match",NA,NA,NA,NA
648125,"4586 IO RAOD UNIT A","KEKAHA","HI",96752,21.9700582420001,-159.713508962,125,"4586 IO RAOD UNIT A, KEKAHA, HI, 96752","Match","Non_Exact","4586 IO RD, KEKAHA, HI, 96752",203402404,"L"
648126,"4586 N COLLEGE","FRESNO","CA",93704,36.8009399220001,-119.797249587,126,"4586 N COLLEGE, FRESNO, CA, 93704","Match","Non_Exact","4586 N COLLEGE AVE, FRESNO, CA, 93704",197573913,"R"
648127,"4586 N PEACH CHURCH AVE","JOPLIN","MO",64801,NA,NA,127,"4586 N PEACH CHURCH AVE, JOPLIN, MO, 64801","No_Match",NA,NA,NA,NA
648128,"4586 NATIONAL PIKE","MARKLEYSBURG","PA",15459,39.778911328,-79.504924503,128,"4586 NATIONAL PIKE, MARKLEYSBURG, PA, 15459","Match","Exact","4586 NATIONAL PIKE, MARKLEYSBURG, PA, 15459",613531777,"L"
648129,"4586 PLUM ORCHARD CT","STONE MOUNTAIN","GA",30083,33.79018818,-84.202191566,129,"4586 PLUM ORCHARD CT, STONE MOUNTAIN, GA, 30083","Match","Exact","4586 PLUM ORCHARD CT, STONE MOUNTAIN, GA, 30083",23371683,"L"
648130,"4586 S 116TH RD","BOLIVAR","MO",65613,NA,NA,130,"4586 S 116TH RD, BOLIVAR, MO, 65613","No_Match",NA,NA,NA,NA
648131,"4586 S 20TH ST NO 2","MILWAUKEE","WI",53221,NA,NA,131,"4586 S 20TH ST NO 2, MILWAUKEE, WI, 53221","No_Match",NA,NA,NA,NA
648132,"4586 THORNOAK DERIVE","GROVE CITY","OH",43123,39.9034179110001,-83.1206017979999,132,"4586 THORNOAK DERIVE, GROVE CITY, OH, 43123","Match","Non_Exact","4586 THORNOAK DR, GROVE CITY, OH, 43123",135779999,"R"
648133,"4586 VALLEY PKWY SE APT P","SMYRNA","GA",30082,33.8402892940001,-84.501458567,133,"4586 VALLEY PKWY SE APT P, SMYRNA, GA, 30082","Match","Non_Exact","4586 VALLEY PKWY, SMYRNA, GA, 30082",17250702,"L"
648134,"4586 WEST 430 RD","PRYOR","OK",74361,36.39436069,-95.3385688879999,134,"4586 WEST 430 RD, PRYOR, OK, 74361","Match","Exact","4586 W 430 RD, PRYOR, OK, 74361",634861933,"L"
648135,"45860 CASS AVE 13","UTICA","MI",48317,42.63231813,-83.035719518,135,"45860 CASS AVE 13, UTICA, MI, 48317","Match","Exact","45860 CASS AVE, UTICA, MI, 48317",645863470,"R"
648136,"45860 LATHUM DRIVE","NOVI","MI",48374,42.461710059,-83.502949424,136,"45860 LATHUM DRIVE, NOVI, MI, 48374","Match","Exact","45860 LATHUM DR, NOVI, MI, 48374",629087791,"L"
648137,"45860 PRIVATE SHORE","NEW BALTIMORE","MI",48047,NA,NA,137,"45860 PRIVATE SHORE, NEW BALTIMORE, MI, 48047","No_Match",NA,NA,NA,NA
648138,"45863 CROW ROAD","HALFWAY","OR",97834,44.8740494190001,-117.073237048,138,"45863 CROW ROAD, HALFWAY, OR, 97834","Match","Exact","45863 CROW RD, HALFWAY, OR, 97834",137641968,"R"
648139,"45864 WEST QUINCY TERRACE","LEXINGTON PARK","MD",20653,38.3087901010001,-76.488045772,139,"45864 WEST QUINCY TERRACE, LEXINGTON PARK, MD, 20653","Match","Exact","45864 W QUINCY TER, LEXINGTON PARK, MD, 20653",36610338,"R"
648140,"4587 BAYWOODS DRIVE","PENSACOLA","FL",32504,30.498445577,-87.1638345329999,140,"4587 BAYWOODS DRIVE, PENSACOLA, FL, 32504","Match","Exact","4587 BAYWOODS DR, PENSACOLA, FL, 32504",93307156,"R"
648141,"4587 CHEYENNE AVENUE","DAVENPORT","IA",52806,41.567166064,-90.607885601,141,"4587 CHEYENNE AVENUE, DAVENPORT, IA, 52806","Match","Exact","4587 CHEYENNE AVE, DAVENPORT, IA, 52806",635847280,"R"
648142,"4587 COUNTY ROAD 1040","CELESTE","TX",75423,33.27014927,-96.144923639,142,"4587 COUNTY ROAD 1040, CELESTE, TX, 75423","Match","Exact","4587 CO RD 1040, CELESTE, TX, 75423",652022631,"L"
648143,"4587 DEARBORN STREET","DENVER","CO",80239,39.7784519100001,-104.820631965,143,"4587 DEARBORN STREET, DENVER, CO, 80239","Match","Exact","4587 DEARBORN ST, DENVER, CO, 80239",606027332,"R"
648144,"4587 FINSBURY DRIVE","DUBLIN","OH",43016,40.141082404,-83.0995485129999,144,"4587 FINSBURY DRIVE, DUBLIN, OH, 43016","Match","Exact","4587 FINSBURY DR, DUBLIN, OH, 43016",213001840,"L"
648145,"4587 S REMINGTON ROAD","LAKELAND","FL",33805,NA,NA,145,"4587 S REMINGTON ROAD, LAKELAND, FL, 33805","No_Match",NA,NA,NA,NA
648146,"4587 SUNNY CREEK LANE","SYLVANIA","OH",43560,41.6961659580001,-83.7664166609999,146,"4587 SUNNY CREEK LANE, SYLVANIA, OH, 43560","Match","Exact","4587 SUNNY CREEK LN, SYLVANIA, OH, 43560",648146719,"R"
648147,"4587 VALLEY PARKWAY /APT J","SMYRNA","GA",30082,33.8402034580001,-84.501749322,147,"4587 VALLEY PARKWAY /APT J, SMYRNA, GA, 30082","Match","Exact","4587 VALLEY PKWY, SMYRNA, GA, 30082",17250703,"R"
648148,"45871 ROGUE RIVER ROAD","INDIO","CA",92201,33.715850346,-116.25376094,148,"45871 ROGUE RIVER ROAD, INDIO, CA, 92201","Match","Exact","45871 ROGUE RIVER RD, INDIO, CA, 92201",639968252,"R"
648149,"4588 4TH STREET","CARPINTERIA","CA",93013,34.398891264,-119.526133307,149,"4588 4TH STREET, CARPINTERIA, CA, 93013","Match","Exact","4588 4TH ST, CARPINTERIA, CA, 93013",108660087,"L"
648150,"4588 CHRISTIANA PARRAN ROAD","CHESAPEAKE BEACH","MD",20732,38.639563278,-76.5407447279999,150,"4588 CHRISTIANA PARRAN ROAD, CHESAPEAKE BEACH, MD, 20732","Match","Exact","4588 CHRISTIANA PARRAN RD, CHESAPEAKE BEACH, MD, 20732",647267279,"L"
648151,"4588 CRESTWOOD CT","NEWBURGH","IN",47630,37.9679828880001,-87.388998062,151,"4588 CRESTWOOD CT, NEWBURGH, IN, 47630","Match","Exact","4588 CRESTWOOD CT, NEWBURGH, IN, 47630",32210706,"L"
648152,"4588 CRICKET PASS","COLLEGE STATION","TX",33173,30.5450358370001,-96.2559975999999,152,"4588 CRICKET PASS, COLLEGE STATION, TX, 33173","Match","Non_Exact","4588 CRICKET PASS, COLLEGE STA, TX, 77845",21836781,"L"
648153,"4588 FALCON CIR","DAYTON","OH",45424,39.8207502170001,-84.109879687,153,"4588 FALCON CIR, DAYTON, OH, 45424","Match","Exact","4588 FALCON CIR, DAYTON, OH, 45424",143630085,"R"
648154,"4588 FOUNTAINHEAD DRIVE","STONE MOUNTAIN","GA",30083,33.770103969,-84.205968962,154,"4588 FOUNTAINHEAD DRIVE, STONE MOUNTAIN, GA, 30083","Match","Exact","4588 FOUNTAINHEAD DR, STONE MOUNTAIN, GA, 30083",23371754,"L"
648155,"4588 HURSTON ROAD","PULASKI","VA",24301,37.057211399,-80.701436427,155,"4588 HURSTON ROAD, PULASKI, VA, 24301","Match","Exact","4588 HURSTON RD, PULASKI, VA, 24301",47015631,"R"
648156,"4588 KOLOHALA STREET","HONOLULU","HI",96816,21.2651269310001,-157.785781984,156,"4588 KOLOHALA STREET, HONOLULU, HI, 96816","Match","Exact","4588 KOLOHALA ST, HONOLULU, HI, 96816",203243447,"L"
648157,"4588 KY HWY 801 S","MOREHEAD","KY",40351,38.10141072,-83.493230467,157,"4588 KY HWY 801 S, MOREHEAD, KY, 40351","Match","Non_Exact","4588 STATE HWY 801 S, MOREHEAD, KY, 40351",39634321,"R"
648158,"4588 MEREDITH RD","YELLOW SPRINGS","OH",45387,39.811250452,-83.865935388,158,"4588 MEREDITH RD, YELLOW SPRINGS, OH, 45387","Match","Exact","4588 MEREDITH RD, YELLOW SPGS, OH, 45387",143419012,"L"
648159,"4588 NOVATO ST","UNION CITY","CA",94587,37.573067386,-122.062783861,159,"4588 NOVATO ST, UNION CITY, CA, 94587","Match","Exact","4588 NOVATO ST, UNION CITY, CA, 94587",606119181,"L"
648160,"4588 SAWMILL PLACE","NOLENSVILLE","TN",37135,35.9493817370001,-86.683546555,160,"4588 SAWMILL PLACE, NOLENSVILLE, TN, 37135","Match","Exact","4588 SAWMILL PL, NOLENSVILLE, TN, 37135",614926534,"R"
648161,"4588 STONEWOOD DR","MIDDLETON","WI",53562,43.106259365,-89.5484585839999,161,"4588 STONEWOOD DR, MIDDLETON, WI, 53562","Match","Non_Exact","4588 STONE WOOD DR, MIDDLETON, WI, 53562",49464331,"R"
648162,"4588 SWEGLE RD NE","SALEM","OR",97301,44.9490324750001,-122.970778173,162,"4588 SWEGLE RD NE, SALEM, OR, 97301","Match","Exact","4588 SWEGLE RD NE, SALEM, OR, 97301",649942487,"R"
648163,"4588 WEST HILLSIDE DR","EUGENE","OR",97405,44.0047963160001,-123.078066977,163,"4588 WEST HILLSIDE DR, EUGENE, OR, 97405","Match","Exact","4588 W HILLSIDE DR, EUGENE, OR, 97405",178175484,"R"
648164,"45882 CORTE CARMELLO","TEMECULA","CA",92592,33.4611694230001,-117.08767666,164,"45882 CORTE CARMELLO, TEMECULA, CA, 92592","Match","Exact","45882 CORTE CARMELLO, TEMECULA, CA, 92592",194880208,"L"
648165,"45883 STRICKLAND RD","GREAT MILLS","MD",20634,38.271171656,-76.4870894859999,165,"45883 STRICKLAND RD, GREAT MILLS, MD, 20634","Match","Exact","45883 STRICKLAND RD, GREAT MILLS, MD, 20634",627113316,"R"
648166,"45888 BUCKNELL COURT","INDIO","CA",92201,33.715844471,-116.258115204,166,"45888 BUCKNELL COURT, INDIO, CA, 92201","Match","Exact","45888 BUCKNELL CT, INDIO, CA, 92201",195048000,"L"
648167,"4589 CHRISTINA DR","YPSILANTI","MI",48197,42.218141846,-83.6690378659999,167,"4589 CHRISTINA DR, YPSILANTI, MI, 48197","Match","Exact","4589 CHRISTINA DR, YPSILANTI, MI, 48197",26035322,"L"
648168,"4589 CUSSETA ROAD","COLUMBUS","GA",31903,32.4292047170001,-84.921718762,168,"4589 CUSSETA ROAD, COLUMBUS, GA, 31903","Match","Non_Exact","4589 OLD CUSSETA RD, COLUMBUS, GA, 31903",632667613,"L"
648169,"4589 EASLEY RD","GOLDEN","CO",80403,39.7801098190001,-105.19010098,169,"4589 EASLEY RD, GOLDEN, CO, 80403","Match","Exact","4589 EASLEY RD, GOLDEN, CO, 80403",649627072,"L"
648170,"4589 GLENHAVEN RD","COLUMBUS","OH",43231,40.064608218,-82.944948795,170,"4589 GLENHAVEN RD, COLUMBUS, OH, 43231","Match","Non_Exact","4589 GLENHAVEN DR, COLUMBUS, OH, 43231",218659344,"R"
648171,"4589 GRIFFIN CREEK RD","MEDFORD","OR",97501,42.268074137,-122.91474281,171,"4589 GRIFFIN CREEK RD, MEDFORD, OR, 97501","Match","Exact","4589 GRIFFIN CREEK RD, MEDFORD, OR, 97501",627763546,"R"
648172,"4589 JOEY RD","MOSE LAKE","WA",98837,47.155333193,-119.239947716,172,"4589 JOEY RD, MOSE LAKE, WA, 98837","Match","Non_Exact","4589 JOEY RD NE, MOSES LAKE, WA, 98837",157102409,"R"
648173,"4589 OLD CUSSETA ROAD","COLUMBUS","GA",31903,32.4292047170001,-84.921718762,173,"4589 OLD CUSSETA ROAD, COLUMBUS, GA, 31903","Match","Exact","4589 OLD CUSSETA RD, COLUMBUS, GA, 31903",632667613,"L"
648174,"4589 OLD STAGE RD","GREENVILLE","AL",36037,31.9147250020001,-86.595612108,174,"4589 OLD STAGE RD, GREENVILLE, AL, 36037","Match","Exact","4589 OLD STAGE RD, GREENVILLE, AL, 36037",1813187,"L"
648175,"4589 ROAD E NE","MOSES LAKE","WA",98837,47.1579903470001,-119.384249744,175,"4589 ROAD E NE, MOSES LAKE, WA, 98837","Match","Exact","4589 RD E NE, MOSES LAKE, WA, 98837",157109366,"R"
648176,"4589 SAWTOOTH","POCATELLO","ID",83204,NA,NA,176,"4589 SAWTOOTH, POCATELLO, ID, 83204","No_Match",NA,NA,NA,NA
648177,"4589 STONE HOLLOW WAY","MARIETTA","GA",30062,34.0031137230001,-84.416191998,177,"4589 STONE HOLLOW WAY, MARIETTA, GA, 30062","Match","Exact","4589 STONE HOLLOW WAY, MARIETTA, GA, 30062",17170705,"L"
648178,"4589 WALNUT CREEK RD","CHILLICOTHE","OH",45601,39.3807361090001,-82.836115873,178,"4589 WALNUT CREEK RD, CHILLICOTHE, OH, 45601","Match","Exact","4589 WALNUT CREEK RD, CHILLICOTHE, OH, 45601",37497013,"L"
648179,"4589 WOLF RUN DR","MEDFORD","OR",97504,42.33326149,-122.789031223,179,"4589 WOLF RUN DR, MEDFORD, OR, 97504","Match","Exact","4589 WOLF RUN DR, MEDFORD, OR, 97504",640103053,"L"
648180,"45893 KRISTI LYNN COURT","LEXINGTON PARK","MD",20653,38.2976712380001,-76.487745021,180,"45893 KRISTI LYNN COURT, LEXINGTON PARK, MD, 20653","Match","Exact","45893 KRISTI LYNN CT, LEXINGTON PARK, MD, 20653",36620320,"R"
648181,"458A 8TH AVE","FORT KNOX","KY",40121,37.892091356,-85.952096879,181,"458A 8TH AVE, FORT KNOX, KY, 40121","Match","Exact","458 8TH AVE, FORT KNOX, KY, 40121",34614808,"R"
648182,"458A MADISON STREET  APT 2","BROOKLYN","NY",11221,40.6859604380001,-73.9397574339999,182,"458A MADISON STREET  APT 2, BROOKLYN, NY, 11221","Match","Exact","458 MADISON ST, BROOKLYN, NY, 11221",59079245,"R"
648183,"459 1/2 SANCHEZ ST","SAN FRANCISCO","CA",94114,37.761777352,-122.430624275,183,"459 1/2 SANCHEZ ST, SAN FRANCISCO, CA, 94114","Match","Exact","459 SANCHEZ ST, SAN FRANCISCO, CA, 94114",192284097,"L"
648184,"459 12TH ST NW","BYRON","MN",55920,44.041197593,-92.653966942,184,"459 12TH ST NW, BYRON, MN, 55920","Match","Exact","459 12TH ST NW, BYRON, MN, 55920",30564390,"R"
648185,"459 17TH STREET","BROOKLYN","NY",11215,40.658960123,-73.983401497,185,"459 17TH STREET, BROOKLYN, NY, 11215","Match","Exact","459 17TH ST, BROOKLYN, NY, 11215",59075829,"L"
648186,"459 21ST PL","SANTA MONICA","CA",90402,34.041393914,-118.492065277,186,"459 21ST PL, SANTA MONICA, CA, 90402","Match","Exact","459 21ST PL, SANTA MONICA, CA, 90402",141558978,"L"
648187,"459 21ST PLACE","SANTA MONICA","CA",90402,34.041393914,-118.492065277,187,"459 21ST PLACE, SANTA MONICA, CA, 90402","Match","Exact","459 21ST PL, SANTA MONICA, CA, 90402",141558978,"L"
648188,"459 38TH STREET","RICHMOND","CA",94805,37.9357330060001,-122.332872746,188,"459 38TH STREET, RICHMOND, CA, 94805","Match","Exact","459 38TH ST, RICHMOND, CA, 94805",192041183,"L"
648189,"459 ADAMS AVE","MUSKEGON","MI",49442,43.246957953,-86.231938111,189,"459 ADAMS AVE, MUSKEGON, MI, 49442","Match","Exact","459 ADAMS AVE, MUSKEGON, MI, 49442",77651197,"R"
648190,"459 ALLEN AVENUE","PORTLAND","ME",4103,43.70283084,-70.2849084919999,190,"459 ALLEN AVENUE, PORTLAND, ME, 4103","Match","Exact","459 ALLEN AVE, PORTLAND, ME, 04103",78074726,"R"
648191,"459 ALLEN HILL ROAD","CRAFTSBURY","VT",5827,44.6670243740001,-72.326524728,191,"459 ALLEN HILL ROAD, CRAFTSBURY, VT, 5827","Match","Non_Exact","459 ALLEN HILL RD, CRAFTSBURY CM, VT, 05827",196754004,"R"
648192,"459 ARGYLE ROAD","BROOKLYN","NY",11218,40.6378393410001,-73.9656672099999,192,"459 ARGYLE ROAD, BROOKLYN, NY, 11218","Match","Exact","459 ARGYLE RD, BROOKLYN, NY, 11218",652212315,"L"
648193,"459 ARGYLE ROAD","CEDARHURST","NY",11516,40.628592552,-73.731935946,193,"459 ARGYLE ROAD, CEDARHURST, NY, 11516","Match","Exact","459 ARGYLE RD, CEDARHURST, NY, 11516",147656920,"R"
648194,"459 AURORA AVE","ST PAUL","MN",55103,44.9548854330001,-93.119477633,194,"459 AURORA AVE, ST PAUL, MN, 55103","Match","Exact","459 AURORA AVE, SAINT PAUL, MN, 55103",97670249,"R"
648195,"459 BEACHWAY TRAIL","SHALLOTTE","NC",28470,33.975442984,-78.3525075379999,195,"459 BEACHWAY TRAIL, SHALLOTTE, NC, 28470","Match","Non_Exact","459 BEACHWAY TRL SW, SHALLOTTE, NC, 28470",153139878,"R"
648196,"459 BENJAMIN PL","MANTECA","CA",95336,37.804085134,-121.23610707,196,"459 BENJAMIN PL, MANTECA, CA, 95336","Match","Non_Exact","459 BENJAMIN PL, MANTECA, CA, 95337",133896636,"R"
648197,"459 BETSY ROSS LANE","FLORENCE","AL",35633,34.8655205110001,-87.728744132,197,"459 BETSY ROSS LANE, FLORENCE, AL, 35633","Match","Exact","459 BETSY ROSS LN, FLORENCE, AL, 35633",41339154,"L"
648198,"459 BLACK MATT RD","DOUGLASSVILLE","PA",19518,40.237742672,-75.728770712,198,"459 BLACK MATT RD, DOUGLASSVILLE, PA, 19518","Match","Exact","459 BLACK MATT RD, DOUGLASSVILLE, PA, 19518",80413435,"R"
648199,"459 BLEVINS PASS","PIPE CREEK","TX",78063,29.72923461,-98.88968116,199,"459 BLEVINS PASS, PIPE CREEK, TX, 78063","Match","Exact","459 BLEVINS PASS, PIPE CREEK, TX, 78063",629471118,"R"
648200,"459 BLUE TEAL DRIVE","CINCINNATI","OH",45246,39.297886368,-84.488733231,200,"459 BLUE TEAL DRIVE, CINCINNATI, OH, 45246","Match","Exact","459 BLUE TEAL DR, CINCINNATI, OH, 45246",103956487,"L"
648201,"459 BOSTON RD","SUTTON","MA",1590,42.13830255,-71.783628434,201,"459 BOSTON RD, SUTTON, MA, 1590","Match","Exact","459 BOSTON RD, SUTTON, MA, 01590",40091313,"R"
648202,"459 BUENA VISTA AVE 108","ALAMEDA","CA",94501,37.7773811550001,-122.283918355,202,"459 BUENA VISTA AVE 108, ALAMEDA, CA, 94501","Match","Exact","459 BUENA VISTA AVE, ALAMEDA, CA, 94501",606249965,"L"
648203,"459 CALLAHAN ROAD","OAKDALE","LA",71463,30.8087432180001,-92.603173144,203,"459 CALLAHAN ROAD, OAKDALE, LA, 71463","Match","Exact","459 CALLAHAN RD, OAKDALE, LA, 71463",13129396,"L"
648204,"459 CANTERBURY RISE","FRANKLIN","TN",37067,35.9394472930001,-86.7771973169999,204,"459 CANTERBURY RISE, FRANKLIN, TN, 37067","Match","Exact","459 CANTERBURY RISE, FRANKLIN, TN, 37067",649144567,"L"
648205,"459 CARDINAL COVE CIRCLE","HOOVER","AL",35226,33.404154851,-86.835251683,205,"459 CARDINAL COVE CIRCLE, HOOVER, AL, 35226","Match","Exact","459 CARDINAL COVE CIR, HOOVER, AL, 35226",81560387,"L"
648206,"459 CARLTON DR","BENTLEYVILLE","PA",15314,40.158992745,-80.044509186,206,"459 CARLTON DR, BENTLEYVILLE, PA, 15314","Match","Exact","459 CARLTON DR, BENTLEYVILLE, PA, 15314",52826424,"R"
648207,"459 COMMERCIAL DR","THOMASVILLE","GA",31757,30.853757982,-83.940093479,207,"459 COMMERCIAL DR, THOMASVILLE, GA, 31757","Match","Exact","459 COMMERCIAL DR, THOMASVILLE, GA, 31757",83111199,"L"
648208,"459 COMMISSIONERS PIKE","PILESGROVE","NJ",8098,39.6053319910001,-75.2872014129999,208,"459 COMMISSIONERS PIKE, PILESGROVE, NJ, 8098","Match","Exact","459 COMMISSIONERS PIKE, PILESGROVE, NJ, 08098",235158607,"R"
648209,"459 CONDADO WAY","ESCONDIDO","CA",92025,33.102488007,-117.062070881,209,"459 CONDADO WAY, ESCONDIDO, CA, 92025","Match","Exact","459 CONDADO WAY, ESCONDIDO, CA, 92025",195314310,"R"
648210,"459 CR 2092","LIBERTY","TX",77575,30.176958572,-94.7586969979999,210,"459 CR 2092, LIBERTY, TX, 77575","Match","Exact","459 CO RD 2092, LIBERTY, TX, 77575",24128977,"L"
648211,"459 DENA CIRCLE","RACINE","WI",53402,42.762367662,-87.7853575509999,211,"459 DENA CIRCLE, RACINE, WI, 53402","Match","Exact","459 DENA CIR, RACINE, WI, 53402",77906295,"L"
648212,"459 DOLLY DR","CONVERSE","TX",78109,29.4985169720001,-98.3011437439999,212,"459 DOLLY DR, CONVERSE, TX, 78109","Match","Exact","459 DOLLY DR, CONVERSE, TX, 78109",637824770,"L"
648213,"459 DURHAM ROAD","BRUNSWICK","ME",4011,43.9276891160001,-70.048362288,213,"459 DURHAM ROAD, BRUNSWICK, ME, 4011","Match","Exact","459 DURHAM RD, BRUNSWICK, ME, 04011",78049822,"L"
648214,"459 E 630TH AVE","GIRARD","KS",66743,37.528468982,-94.768690011,214,"459 E 630TH AVE, GIRARD, KS, 66743","Match","Exact","459 E 630TH AVE, GIRARD, KS, 66743",33435856,"L"
648215,"459 E COALVILLE","DRAPER","UT",84020,40.4807220910001,-111.87806632,215,"459 E COALVILLE, DRAPER, UT, 84020","Match","Non_Exact","459 COALVILLE WAY, DRAPER, UT, 84020",176150958,"L"
648216,"459 E HIGHLAND AVE","REDLANDS","CA",92373,34.044280875,-117.166366896,216,"459 E HIGHLAND AVE, REDLANDS, CA, 92373","Match","Exact","459 E HIGHLAND AVE, REDLANDS, CA, 92373",144685445,"L"
648217,"459 E JERSEY STREET 2ND FLOOR","ELIZABETH","NJ",7206,40.6549708860001,-74.19424801,217,"459 E JERSEY STREET 2ND FLOOR, ELIZABETH, NJ, 7206","Match","Non_Exact","459 E JERSEY ST, ELIZABETH, NJ, 07206",60579318,"R"
648218,"459 E SCHMEIZER LANE","BOISE","ID",83706,NA,NA,218,"459 E SCHMEIZER LANE, BOISE, ID, 83706","Tie",NA,NA,NA,NA
648219,"459 EAST 120 STREET","CLEVELAND","OH",44108,41.5443627440001,-81.6021007749999,219,"459 EAST 120 STREET, CLEVELAND, OH, 44108","Match","Exact","459 E 120TH ST, CLEVELAND, OH, 44108",638271723,"L"
648220,"459 EAST 52 STREET 2F","BROOKLYN","NY",11203,40.6493822210001,-73.92816608,220,"459 EAST 52 STREET 2F, BROOKLYN, NY, 11203","Match","Exact","459 E 52ND ST, BROOKLYN, NY, 11203",59085745,"L"
648221,"459 EAST COUNTY RD 66","FORT COLLINS","CO",80524,40.7257033810001,-105.066604595,221,"459 EAST COUNTY RD 66, FORT COLLINS, CO, 80524","Match","Exact","459 E CO RD 66, FORT COLLINS, CO, 80524",640625341,"L"
648222,"459 EAST HALSEY ROAD","PARSIPPANY","NJ",7054,40.8518541230001,-74.409194715,222,"459 EAST HALSEY ROAD, PARSIPPANY, NJ, 7054","Match","Exact","459 E HALSEY RD, PARSIPPANY, NJ, 07054",60475460,"R"
648223,"459 EDGEWOOD AVENUE","NEW HAVEN","CT",6511,41.315182545,-72.950357813,223,"459 EDGEWOOD AVENUE, NEW HAVEN, CT, 6511","Match","Exact","459 EDGEWOOD AVE, NEW HAVEN, CT, 06511",3700126,"R"
648224,"459 ELBOW POND RD","ANDOVER","NH",3216,43.456098308,-71.789780842,224,"459 ELBOW POND RD, ANDOVER, NH, 3216","Match","Exact","459 ELBOW POND RD, ANDOVER, NH, 03216",117735988,"R"
648225,"459 ELM ST","MONTGOMERY","AL",36110,32.354201097,-86.3147445179999,225,"459 ELM ST, MONTGOMERY, AL, 36110","Match","Non_Exact","459 ELM ST, MONTGOMERY, AL, 36108",1474806,"L"
648226,"459 EVERGREEN","BLAKELY","GA",39823,31.372746996,-84.925646539,226,"459 EVERGREEN, BLAKELY, GA, 39823","Match","Non_Exact","459 EVERGREEN AVE, BLAKELY, GA, 39823",149772990,"L"
648227,"459 FOG HILL ROAD","AUSTERLITZ","NY",12017,42.344479091,-73.434729201,227,"459 FOG HILL ROAD, AUSTERLITZ, NY, 12017","Match","Exact","459 FOG HILL RD, AUSTERLITZ, NY, 12017",41504418,"R"
648228,"459 FOREST CIRCLE","SOUTH CHARLESTON","WV",25303,38.3593371600001,-81.678797156,228,"459 FOREST CIRCLE, SOUTH CHARLESTON, WV, 25303","Match","Exact","459 FOREST CIR, S CHARLESTON, WV, 25303",78590170,"L"
648229,"459 FOX TRAIL DRIVE","LAKE SAINT LOUIS","MO",63367,38.7915352110001,-90.769149514,229,"459 FOX TRAIL DRIVE, LAKE SAINT LOUIS, MO, 63367","Match","Exact","459 FOX TRAIL DR, LAKE SAINT LOUIS, MO, 63367",100034179,"L"
648230,"459 FULTON STREET STE 209","SAN FRANCISCO","CA",94102,37.778622813,-122.424300161,230,"459 FULTON STREET STE 209, SAN FRANCISCO, CA, 94102","Match","Exact","459 FULTON ST, SAN FRANCISCO, CA, 94102",192283931,"L"
648231,"459 FULTON STREET SUITE 208","SAN FRANCISCO","CA",94102,37.778622813,-122.424300161,231,"459 FULTON STREET SUITE 208, SAN FRANCISCO, CA, 94102","Match","Exact","459 FULTON ST, SAN FRANCISCO, CA, 94102",192283931,"L"
648232,"459 GOLF COURSE DRIVE","LEONIA","NJ",7605,40.8681917320001,-73.9792286859999,232,"459 GOLF COURSE DRIVE, LEONIA, NJ, 7605","Match","Exact","459 GOLF COURSE DR, LEONIA, NJ, 07605",64390035,"R"
648233,"459 GOSHEN HILL ROAD","LEBANON",NA,NA,41.607289624,-72.235823356,233,"459 GOSHEN HILL ROAD, LEBANON, , ","Match","Exact","459 GOSHEN HILL RD, LEBANON, CT, 06249",56866523,"L"
648234,"459 HAMMETT DRIVE","DECATUR","GA",30032,33.7840335980001,-84.2320618799999,234,"459 HAMMETT DRIVE, DECATUR, GA, 30032","Match","Exact","459 HAMMETT DR, DECATUR, GA, 30032",23390961,"R"
648235,"459 HARBOROUGH CT","FLORENCE","SC",29501,34.205388944,-79.841209724,235,"459 HARBOROUGH CT, FLORENCE, SC, 29501","Match","Exact","459 HARBOROUGH CT, FLORENCE, SC, 29501",28884390,"L"
648236,"459 HARBOROUGH","FLORENCE","SC",29501,34.205388944,-79.841209724,236,"459 HARBOROUGH, FLORENCE, SC, 29501","Match","Non_Exact","459 HARBOROUGH CT, FLORENCE, SC, 29501",28884390,"L"
648237,"459 HARVEST CREEK LANE","BOERNE","TX",78006,29.945587163,-98.64280547,237,"459 HARVEST CREEK LANE, BOERNE, TX, 78006","Match","Exact","459 HARVEST CREEK LN, BOERNE, TX, 78006",648573033,"L"
648238,"459 HOLLYBROOK DRIVE","MONTGOMERY","AL",36109,32.3746456700001,-86.227703752,238,"459 HOLLYBROOK DRIVE, MONTGOMERY, AL, 36109","Match","Non_Exact","459 HOLLY BROOK DR, MONTGOMERY, AL, 36109",1472258,"L"
648239,"459 IRVIN AVENUE","ROCHESTER","PA",15074,40.705760341,-80.287566154,239,"459 IRVIN AVENUE, ROCHESTER, PA, 15074","Match","Exact","459 IRVIN AVE, ROCHESTER, PA, 15074",52561043,"R"
648240,"459 JEFFERSON AVE","BROOKLYN","NY",11208,40.6844715720001,-73.9397855669999,240,"459 JEFFERSON AVE, BROOKLYN, NY, 11208","Match","Non_Exact","459 JEFFERSON AVE, BROOKLYN, NY, 11221",59079277,"L"
648241,"459 KINGS ROAD","BRISBANE","CA",94005,37.678488197,-122.40122696,241,"459 KINGS ROAD, BRISBANE, CA, 94005","Match","Exact","459 KINGS RD, BRISBANE, CA, 94005",192401962,"L"
648242,"459 KNIGHT ROAD","MURRAY","KY",42071,36.62256367,-88.275677652,242,"459 KNIGHT ROAD, MURRAY, KY, 42071","Match","Exact","459 KNIGHT RD, MURRAY, KY, 42071",31723823,"R"
648243,"459 KNOLLBROOK DR","LANGHORNE","PA",19047,40.205266126,-74.8852418549999,243,"459 KNOLLBROOK DR, LANGHORNE, PA, 19047","Match","Exact","459 KNOLLBROOK DR, LANGHORNE, PA, 19047",134732031,"L"
648244,"459 LA HERRAN DR","SANTA CLARA","CA",95051,37.3308904730001,-121.999749444,244,"459 LA HERRAN DR, SANTA CLARA, CA, 95051","Match","Exact","459 LA HERRAN DR, SANTA CLARA, CA, 95051",122898159,"R"
648245,"459 LAKEWOOD STREET","DETROIT","MI",48215,42.3655947390001,-82.9413075309999,245,"459 LAKEWOOD STREET, DETROIT, MI, 48215","Match","Exact","459 LAKEWOOD ST, DETROIT, MI, 48215",95489283,"L"
648246,"459 LAKEWOOD","DETROIT","MI",48125,NA,NA,246,"459 LAKEWOOD, DETROIT, MI, 48125","No_Match",NA,NA,NA,NA
648247,"459 LANCELOT LANE","LEXINGTON","KY",40517,37.9819650100001,-84.5079646459999,247,"459 LANCELOT LANE, LEXINGTON, KY, 40517","Match","Exact","459 LANCELOT LN, LEXINGTON, KY, 40517",31924766,"L"
648248,"459 LCR 242","MEXIA","TX",76667,NA,NA,248,"459 LCR 242, MEXIA, TX, 76667","No_Match",NA,NA,NA,NA
648249,"459 LINCOLN ST","ABINGTON","MA",2351,42.123689794,-70.9696345249999,249,"459 LINCOLN ST, ABINGTON, MA, 2351","Match","Exact","459 LINCOLN ST, ABINGTON, MA, 02351",87487732,"R"
648250,"459 LOCUST ST N","TWIN FALLS","ID",83301,42.569570963,-114.455386606,250,"459 LOCUST ST N, TWIN FALLS, ID, 83301","Match","Exact","459 LOCUST ST N, TWIN FALLS, ID, 83301",118793437,"L"
648251,"459 LUDLOW STREET","PORTLAND","ME",4102,43.6803468080001,-70.3111530529999,251,"459 LUDLOW STREET, PORTLAND, ME, 4102","Match","Exact","459 LUDLOW ST, PORTLAND, ME, 04102",632780817,"R"
648252,"459 MADISON STREET NE","MINNEAPOLIS","MN",55413,44.9941723150001,-93.253699356,252,"459 MADISON STREET NE, MINNEAPOLIS, MN, 55413","Match","Exact","459 MADISON ST NE, MINNEAPOLIS, MN, 55413",640662064,"R"
648253,"459 MAIN STREET SUITE 386","TRUSSVILLE","AL",35173,33.6178893530001,-86.613894677,253,"459 MAIN STREET SUITE 386, TRUSSVILLE, AL, 35173","Match","Exact","459 MAIN ST, TRUSSVILLE, AL, 35173",81639976,"L"
648254,"459 MALL BLVD UNIT 28","SAVANNAH","GA",31406,32.001083549,-81.108493483,254,"459 MALL BLVD UNIT 28, SAVANNAH, GA, 31406","Match","Exact","459 MALL BLVD, SAVANNAH, GA, 31406",641733922,"R"
648255,"459 MALL BLVD UNIT 63","SAVANNAH","GA",31406,32.001083549,-81.108493483,255,"459 MALL BLVD UNIT 63, SAVANNAH, GA, 31406","Match","Exact","459 MALL BLVD, SAVANNAH, GA, 31406",641733922,"R"
648256,"459 MENLO PARK ROAD","GREEN BAY","WI",54302,44.493279107,-87.9511121,256,"459 MENLO PARK ROAD, GREEN BAY, WI, 54302","Match","Exact","459 MENLO PARK RD, GREEN BAY, WI, 54302",148120289,"R"
648257,"459 MIDDLEGROUND RD SW","PATASKALA","OH",43062,40.015865907,-82.651745935,257,"459 MIDDLEGROUND RD SW, PATASKALA, OH, 43062","Match","Non_Exact","459 MIDDLE GROUND RD SW, PATASKALA, OH, 43062",61536138,"L"
648258,"459 N 9TH ST","LARAMIE","WY",82070,41.315813473,-105.585208856,258,"459 N 9TH ST, LARAMIE, WY, 82070","Match","Non_Exact","459 N 9TH ST, LARAMIE, WY, 82072",168740011,"R"
648259,"459 N GILBERT ROAD STE A210","GILBERT","AZ",85234,33.358624483,-111.789720547,259,"459 N GILBERT ROAD STE A210, GILBERT, AZ, 85234","Match","Non_Exact","459 N GILBERT RD, GILBERT, AZ, 85234",128254757,"R"
648260,"459 N TENMILE LAKE","LAKESIDE","OR",97449,43.574337052,-124.158692291,260,"459 N TENMILE LAKE, LAKESIDE, OR, 97449","Match","Non_Exact","459 TENMILE TER, LAKESIDE, OR, 97449",137061896,"L"
648261,"459 NE 17TH WAY","FORT LAUDERDALE","FL",33301,26.1278058230001,-80.124608281,261,"459 NE 17TH WAY, FORT LAUDERDALE, FL, 33301","Match","Exact","459 NE 17TH WAY, FORT LAUDERDALE, FL, 33301",114725989,"L"
648262,"459 NEVILLE STREET 1ST FL","PERTH AMBOY","NJ",8861,40.5196863840001,-74.279099351,262,"459 NEVILLE STREET 1ST FL, PERTH AMBOY, NJ, 8861","Match","Exact","459 NEVILLE ST, PERTH AMBOY, NJ, 08861",60280768,"L"
648263,"459 NORTH WARREN ST","TIMMONSVILLE","SC",29161,34.1394318530001,-79.945978188,263,"459 NORTH WARREN ST, TIMMONSVILLE, SC, 29161","Match","Exact","459 N WARREN ST, TIMMONSVILLE, SC, 29161",28875160,"R"
648264,"459 NORVELLE COURT","GLEN BURNIE","MD",21061,39.122223762,-76.622351017,264,"459 NORVELLE COURT, GLEN BURNIE, MD, 21061","Match","Exact","459 NORVELLE CT, GLEN BURNIE, MD, 21061",68158590,"L"
648265,"459 OFFENBACH PLACE","SUNNYVALE","CA",94087,37.3546969720001,-122.028515219,265,"459 OFFENBACH PLACE, SUNNYVALE, CA, 94087","Match","Exact","459 OFFENBACH PL, SUNNYVALE, CA, 94087",122938392,"L"
648266,"459 OLD COLONY AVENUE","SOUTH BOSTON","MA",2127,42.322500447,-71.052296698,266,"459 OLD COLONY AVENUE, SOUTH BOSTON, MA, 2127","Match","Exact","459 OLD COLONY AVE, SOUTH BOSTON, MA, 02127",85712635,"R"
648267,"459 OLD HWY 287","WAXAHACHIE","TX",75165,32.329102248,-96.7610528439999,267,"459 OLD HWY 287, WAXAHACHIE, TX, 75165","Match","Exact","459 OLD HWY 287, WAXAHACHIE, TX, 75165",103489123,"R"
648268,"459 OPIHIKAO PL","HONOLULU","HI",96825,21.2883139360001,-157.711300526,268,"459 OPIHIKAO PL, HONOLULU, HI, 96825","Match","Exact","459 OPIHIKAO PL, HONOLULU, HI, 96825",203334923,"R"
648269,"459 PARAMARIBO ST","PUNTA GORDA","OK",33983,NA,NA,269,"459 PARAMARIBO ST, PUNTA GORDA, OK, 33983","No_Match",NA,NA,NA,NA
648270,"459 PARK AVE","CADIZ","OH",43907,40.269661114,-81.003373072,270,"459 PARK AVE, CADIZ, OH, 43907","Match","Exact","459 PARK AVE, CADIZ, OH, 43907",37713726,"L"
648271,"459 PLYMOUTH AVE","BUFFALO","NY",14213,42.9092900750001,-78.892828703,271,"459 PLYMOUTH AVE, BUFFALO, NY, 14213","Match","Exact","459 PLYMOUTH AVE, BUFFALO, NY, 14213",48288927,"R"
648272,"459 PRINCE AVE","CLARKSDALE","MS",38614,34.2014048990001,-90.5560825439999,272,"459 PRINCE AVE, CLARKSDALE, MS, 38614","Match","Exact","459 PRINCE AVE, CLARKSDALE, MS, 38614",951197,"L"
648273,"459 PUGHS DRIVE","LYNCHBURG","VA",24501,37.2959361150001,-79.1357359519999,273,"459 PUGHS DRIVE, LYNCHBURG, VA, 24501","Match","Exact","459 PUGHS DR, LYNCHBURG, VA, 24501",647660831,"R"
648274,"459 REYNOLDS AVE APT 308","COLUMBUS","OH",43201,39.981099897,-82.991795324,274,"459 REYNOLDS AVE APT 308, COLUMBUS, OH, 43201","Match","Exact","459 REYNOLDS AVE, COLUMBUS, OH, 43201",135578930,"R"
648275,"459 ROBINSON ROAD","GILBOA","NY",12076,42.4072363220001,-74.3806122829999,275,"459 ROBINSON ROAD, GILBOA, NY, 12076","Match","Exact","459 ROBINSON RD, GILBOA, NY, 12076",18921979,"L"
648276,"459 ROGER CANYON RD","LARAMIE","WY",82073,41.3936172860001,-105.534660614,276,"459 ROGER CANYON RD, LARAMIE, WY, 82073","Match","Non_Exact","459 ROGER CANYON RD, LARAMIE, WY, 82072",604512610,"R"
648277,"459 S 98TH WAY","MESA","AZ",85208,33.4064472160001,-111.618001155,277,"459 S 98TH WAY, MESA, AZ, 85208","Match","Exact","459 S 98TH WAY, MESA, AZ, 85208",128926396,"L"
648278,"459 S SADDLEBROOK CIRCLE","CHESTER SPRINGS","PA",19425,40.066744908,-75.631305911,278,"459 S SADDLEBROOK CIRCLE, CHESTER SPRINGS, PA, 19425","Match","Exact","459 S SADDLEBROOK CIR, CHESTER SPRINGS, PA, 19425",179538704,"R"
648279,"459 S SIXTH STREET","KERMAN","CA",93630,36.7286141980001,-120.058905812,279,"459 S SIXTH STREET, KERMAN, CA, 93630","Match","Exact","459 S 6TH ST, KERMAN, CA, 93630",638575500,"L"
648280,"459 SALTARE DR","CALABASH","NC",28467,33.9015278160001,-78.5750767169999,280,"459 SALTARE DR, CALABASH, NC, 28467","Match","Non_Exact","459 SALTAIRE DR SW, CALABASH, NC, 28467",153155798,"L"
648281,"459 SANDHILL ROAD","BEAVERTOWN","PA",17813,NA,NA,281,"459 SANDHILL ROAD, BEAVERTOWN, PA, 17813","No_Match",NA,NA,NA,NA
648282,"459 SENATE ROAD","NEW MILFORD","NJ",7646,40.9257152810001,-74.014235576,282,"459 SENATE ROAD, NEW MILFORD, NJ, 7646","Match","Exact","459 SENATE RD, NEW MILFORD, NJ, 07646",64387593,"L"
648283,"459 SHAKER ROAD","NORTHFIELD","NH",3276,43.433874315,-71.528680896,283,"459 SHAKER ROAD, NORTHFIELD, NH, 3276","Match","Exact","459 SHAKER RD, NORTHFIELD, NH, 03276",636311020,"L"
648284,"459 SHERBROOKE DRIVE","SUN PRAIRIE","WI",53590,43.183901507,-89.280785429,284,"459 SHERBROOKE DRIVE, SUN PRAIRIE, WI, 53590","Match","Exact","459 SHERBROOKE DR, SUN PRAIRIE, WI, 53590",647150541,"R"
648285,"459 SILVERTHORN","NEW CASTLE","CO",81647,NA,NA,285,"459 SILVERTHORN, NEW CASTLE, CO, 81647","No_Match",NA,NA,NA,NA
648286,"459 SOUTH ST APT 301","FITCHBURG","MA",1420,42.568576573,-71.796725656,286,"459 SOUTH ST APT 301, FITCHBURG, MA, 1420","Match","Exact","459 SOUTH ST, FITCHBURG, MA, 01420",40028773,"L"
648287,"459 SPANISH WELLS COURT","WINTER GARDEN","FL",34787,28.572402981,-81.577995643,287,"459 SPANISH WELLS COURT, WINTER GARDEN, FL, 34787","Match","Exact","459 SPANISH WELLS CT, WINTER GARDEN, FL, 34787",94369144,"R"
648288,"459 SPRINGS-FIREPLACE ROAD","EAST HAMPTON","NY",11937,41.001325352,-72.170050336,288,"459 SPRINGS-FIREPLACE ROAD, EAST HAMPTON, NY, 11937","Match","Non_Exact","459 SPRINGS FIREPLACE RD, EAST HAMPTON, NY, 11937",114052007,"L"
648289,"459 ST MARKS AVENUE SUITE 1A","459 ST MARKS AVENUE","NY",11433,NA,NA,289,"459 ST MARKS AVENUE SUITE 1A, 459 ST MARKS AVENUE, NY, 11433","No_Match",NA,NA,NA,NA
648290,"459 ST MARKS AVENUE SUITE 1A","BROOKLYN","NY",11238,40.676533444,-73.958925425,290,"459 ST MARKS AVENUE SUITE 1A, BROOKLYN, NY, 11238","Match","Exact","459 ST MARKS AVE, BROOKLYN, NY, 11238",59078455,"L"
648291,"459 STOLL RD","SAUGERTIES","NY",12477,42.0732839300001,-74.06575287,291,"459 STOLL RD, SAUGERTIES, NY, 12477","Match","Exact","459 STOLL RD, SAUGERTIES, NY, 12477",635528616,"R"
648292,"459 STRAFER STREET","CINCINNATI","OH",45226,39.116639047,-84.434798069,292,"459 STRAFER STREET, CINCINNATI, OH, 45226","Match","Exact","459 STRAFER ST, CINCINNATI, OH, 45226",623823279,"L"
648293,"459 SUSZYCKI DRIVE","MAUSTON","WI",53948,43.79393415,-90.08568675,293,"459 SUSZYCKI DRIVE, MAUSTON, WI, 53948","Match","Exact","459 SUSZYCKI DR, MAUSTON, WI, 53948",50951034,"R"
648294,"459 TELLURIDE DR","GILBERTS","IL",60136,42.085843094,-88.368390859,294,"459 TELLURIDE DR, GILBERTS, IL, 60136","Match","Exact","459 TELLURIDE DR, GILBERTS, IL, 60136",119567870,"R"
648295,"459 TRAILHEAD DR","ABITA SPRINGS","LA",70420,30.5575649240001,-89.9578262369999,295,"459 TRAILHEAD DR, ABITA SPRINGS, LA, 70420","Match","Exact","459 TRAILHEAD DR, ABITA SPRINGS, LA, 70420",111240211,"R"
648296,"459 TRINADAD ST","MORRO BAY","CA",93442,35.40449671,-120.864259135,296,"459 TRINADAD ST, MORRO BAY, CA, 93442","Match","Non_Exact","459 TRINIDAD ST, MORRO BAY, CA, 93442",109766023,"L"
648297,"459 TWICKENHAM ROAD","GLENSIDE","PA",19038,40.0983326850001,-75.167864944,297,"459 TWICKENHAM ROAD, GLENSIDE, PA, 19038","Match","Exact","459 TWICKENHAM RD, GLENSIDE, PA, 19038",135106123,"R"
648298,"459 VALLEY VIEW ROAD","ROSE BUD","AR",72137,35.2908634200001,-92.099823887,298,"459 VALLEY VIEW ROAD, ROSE BUD, AR, 72137","Match","Non_Exact","459 VALLEYVIEW RD, ROSE BUD, AR, 72137",82936421,"R"
648299,"459 VAUGHN DRIVE","PARAGOULD","AR",72450,36.1162421980001,-90.515744012,299,"459 VAUGHN DRIVE, PARAGOULD, AR, 72450","Match","Exact","459 VAUGHN DR, PARAGOULD, AR, 72450",635475060,"L"
648300,"459 VIA SACRA","FARMVILLE","VA",23901,37.241505771,-78.468431757,300,"459 VIA SACRA, FARMVILLE, VA, 23901","Match","Exact","459 VIA SACRA, FARMVILLE, VA, 23901",640855060,"L"
648301,"459 W 18TH ST APT 3","NEW YORK","NY",10011,40.744160541,-74.005206092,301,"459 W 18TH ST APT 3, NEW YORK, NY, 10011","Match","Non_Exact","459 W 18TH ST, NEW YORK, NY, 10011",59659714,"R"
648302,"459 W JASPER DR","CHANDLER","AZ",85225,33.325837087,-111.847548079,302,"459 W JASPER DR, CHANDLER, AZ, 85225","Match","Exact","459 W JASPER DR, CHANDLER, AZ, 85225",128243093,"L"
648303,"459 W PARK DRIVE","MARY ESTHER","FL",32569,30.4137044500001,-86.719218731,303,"459 W PARK DRIVE, MARY ESTHER, FL, 32569","Match","Exact","459 W PARK DR, MARY ESTHER, FL, 32569",74409819,"L"
648304,"459 WARREN RD","GLOVERSVILLE","NY",12078,43.0714369450001,-74.2624590899999,304,"459 WARREN RD, GLOVERSVILLE, NY, 12078","Match","Exact","459 WARREN RD, GLOVERSVILLE, NY, 12078",153645371,"L"
648305,"459 WASHINGTON AVE","BROOKLYN","NY",11238,40.684833946,-73.9651317139999,305,"459 WASHINGTON AVE, BROOKLYN, NY, 11238","Match","Exact","459 WASHINGTON AVE, BROOKLYN, NY, 11238",59077962,"L"
648306,"459 WAVERLY PL","NEWPORT NEWS","VA",23608,37.162796621,-76.5158701949999,306,"459 WAVERLY PL, NEWPORT NEWS, VA, 23608","Match","Exact","459 WAVERLY PL, NEWPORT NEWS, VA, 23608",103812181,"L"
648307,"459 WHITE CHURCH ROAD","CHAMBERSBURG","PA",17202,NA,NA,307,"459 WHITE CHURCH ROAD, CHAMBERSBURG, PA, 17202","No_Match",NA,NA,NA,NA
648308,"459 WHITETAIL LANE","GREENWOOD","AR",72936,35.218378773,-94.176191462,308,"459 WHITETAIL LANE, GREENWOOD, AR, 72936","Match","Exact","459 WHITETAIL LN, GREENWOOD, AR, 72936",642913911,"L"
648309,"459 YORKSHIRE DRIVE","MACON","GA",31210,32.8848769690001,-83.720610574,309,"459 YORKSHIRE DRIVE, MACON, GA, 31210","Match","Exact","459 YORKSHIRE DR, MACON, GA, 31210",81056748,"R"
648310,"4590 38TH WAY SOUTH","ST PETERSBURG","FL",33711,27.7267190040001,-82.685014162,310,"4590 38TH WAY SOUTH, ST PETERSBURG, FL, 33711","Match","Exact","4590 38TH WAY S, SAINT PETERSBURG, FL, 33711",124709943,"L"
648311,"4590 BROOKSHIRE LOOP","MCCALLA","AL",35020,NA,NA,311,"4590 BROOKSHIRE LOOP, MCCALLA, AL, 35020","No_Match",NA,NA,NA,NA
648312,"4590 CLARKSVILLE PIKE","NASHVILLE","TN",37218,36.235058887,-86.831410241,312,"4590 CLARKSVILLE PIKE, NASHVILLE, TN, 37218","Match","Exact","4590 CLARKSVILLE PIKE, NASHVILLE, TN, 37218",97210690,"R"
648313,"4590 DEER RUN PLACE","LOUISVILLE","KY",40299,38.1702256720001,-85.486313991,313,"4590 DEER RUN PLACE, LOUISVILLE, KY, 40299","Match","Exact","4590 DEER RUN PL, LOUISVILLE, KY, 40299",96884586,"L"
648314,"4590 E PAYTON AVE","CARLISLE","IA",50047,NA,NA,314,"4590 E PAYTON AVE, CARLISLE, IA, 50047","No_Match",NA,NA,NA,NA
648315,"4590 EGBERT ROAD","MARTINSVILLE","IN",46151,39.4794595540001,-86.342757686,315,"4590 EGBERT ROAD, MARTINSVILLE, IN, 46151","Match","Exact","4590 EGBERT RD, MARTINSVILLE, IN, 46151",43560674,"R"
648316,"4590 ELLSBERRY COURT","BATAVIA","OH",45103,39.105774303,-84.233191227,316,"4590 ELLSBERRY COURT, BATAVIA, OH, 45103","Match","Exact","4590 ELLSBERRY CT, BATAVIA, OH, 45103",118463777,"L"
648317,"4590 GENN RD","WAMEGO","KS",66547,39.212744297,-96.2498699,317,"4590 GENN RD, WAMEGO, KS, 66547","Match","Exact","4590 GENN RD, WAMEGO, KS, 66547",22310421,"L"
648318,"4590 GREENS PRAIRIE TRAIL","COLLEGE STATION","TX",77845,30.520715286,-96.2937580299999,318,"4590 GREENS PRAIRIE TRAIL, COLLEGE STATION, TX, 77845","Match","Exact","4590 GREENS PRAIRIE TRL, COLLEGE STATION, TX, 77845",647736814,"L"
648319,"4590 GRISWOLD ROAD","KIMBALL","MI",48074,42.965144099,-82.5059482569999,319,"4590 GRISWOLD ROAD, KIMBALL, MI, 48074","Match","Exact","4590 GRISWOLD RD, KIMBALL, MI, 48074",110955906,"L"
648320,"4590 JENNET LN","CHIPLEY","FL",32428,30.4988305590001,-85.644240394,320,"4590 JENNET LN, CHIPLEY, FL, 32428","Match","Exact","4590 JENNET LN, CHIPLEY, FL, 32428",33061466,"R"
648321,"4590 LONG RAPIDS ROAD","ALPENA","MI",49707,45.112607531,-83.5494453869999,321,"4590 LONG RAPIDS ROAD, ALPENA, MI, 49707","Match","Exact","4590 LONG RAPIDS RD, ALPENA, MI, 49707",642572254,"R"
648322,"4590 MACARTHUR BOULEVARD SUITE 600","NEWPORT BEACH","CA",92660,33.6701570930001,-117.863359724,322,"4590 MACARTHUR BOULEVARD SUITE 600, NEWPORT BEACH, CA, 92660","Match","Non_Exact","4590 MACARTHUR CT, NEWPORT BEACH, CA, 92660",609073202,"L"
648323,"4590 MARSHALL RUN CIRCLE APT 308","GLEN ALLEN","NC",23059,NA,NA,323,"4590 MARSHALL RUN CIRCLE APT 308, GLEN ALLEN, NC, 23059","No_Match",NA,NA,NA,NA
648324,"4590 MC EWEN DR","BLOOMFIELD HILLS","MI",48302,42.5710706190001,-83.30116814,324,"4590 MC EWEN DR, BLOOMFIELD HILLS, MI, 48302","Match","Exact","4590 MC EWEN DR, BLOOMFIELD HILLS, MI, 48302",69728426,"R"
648325,"4590 MOONGLOW DRIVE","JAMESVILLE","NY",13078,42.991813344,-76.1190702119999,325,"4590 MOONGLOW DRIVE, JAMESVILLE, NY, 13078","Match","Exact","4590 MOONGLOW DR, JAMESVILLE, NY, 13078",636808808,"L"
648326,"4590 NEWTON DRIVE","COLORADO SPRINGS","CO",80916,38.7896796410001,-104.742995382,326,"4590 NEWTON DRIVE, COLORADO SPRINGS, CO, 80916","Match","Exact","4590 NEWTON DR, COLORADO SPRINGS, CO, 80916",105524247,"L"
648327,"4590 NW 79 AVE APT 1C","DORAL","FL",33166,25.8162122740001,-80.3255059639999,327,"4590 NW 79 AVE APT 1C, DORAL, FL, 33166","Match","Non_Exact","4590 NW 79TH AVE, DORAL, FL, 33166",115957595,"R"
648328,"4590 PURCELL DR 2806","NORTH CHARLESTON","SC",29418,32.907955735,-80.084129864,328,"4590 PURCELL DR 2806, NORTH CHARLESTON, SC, 29418","Match","Exact","4590 PURCELL DR, N CHARLESTON, SC, 29418",108820483,"L"
648329,"4590 ROCKY RD","LENOIR","NC",28645,35.9236197750001,-81.63068587,329,"4590 ROCKY RD, LENOIR, NC, 28645","Match","Exact","4590 ROCKY RD, LENOIR, NC, 28645",45865882,"R"
648330,"4590 S LINDBERGH BLVD","ST LOUIS","MO",63127,38.532994655,-90.384786173,330,"4590 S LINDBERGH BLVD, ST LOUIS, MO, 63127","Match","Exact","4590 S LINDBERGH BLVD, SAINT LOUIS, MO, 63127",100190790,"L"
648331,"4590 S NOB HILL STREET","SALT LAKE CITY","UT",84120,40.6703970360001,-111.990172101,331,"4590 S NOB HILL STREET, SALT LAKE CITY, UT, 84120","Match","Exact","4590 NOB HILL ST, SALT LAKE CITY, UT, 84120",176070380,"R"
648332,"4590 S PROFESSIONAL DR NO 4309","EDINBURG","TX",78539,26.260963626,-98.177497344,332,"4590 S PROFESSIONAL DR NO 4309, EDINBURG, TX, 78539","Match","Non_Exact","4590 PROFESSIONAL DR, EDINBURG, TX, 78539",632511743,"L"
648333,"4590 SANDPEBBLE TRACE UNIT 204","STUART","FL",34996,27.23645859,-80.190653335,333,"4590 SANDPEBBLE TRACE UNIT 204, STUART, FL, 34996","Match","Non_Exact","4590 NE SANDPEBBLE TRCE, STUART, FL, 34996",120421243,"R"
648334,"4590 SIMPSON LN","RICHMOND","KY",40475,37.88749548,-84.3100189049999,334,"4590 SIMPSON LN, RICHMOND, KY, 40475","Match","Exact","4590 SIMPSON LN, RICHMOND, KY, 40475",31991841,"R"
648335,"4590 SOUTH 1250 WEST","RIVERDALE","UT",84405,41.179442432,-112.010062874,335,"4590 SOUTH 1250 WEST, RIVERDALE, UT, 84405","Match","Non_Exact","4590 1250 W, RIVERDALE, UT, 84405",636278801,"R"
648336,"4590 SOUTH FM 56","GLEN ROSE","TX",76043,32.279700436,-97.805733378,336,"4590 SOUTH FM 56, GLEN ROSE, TX, 76043","Match","Non_Exact","4590 FM 56, GLEN ROSE, TX, 76043",158908369,"R"
648337,"4590 SPAR RD","HARTFORD","TN",37753,35.8091237460001,-83.0919841369999,337,"4590 SPAR RD, HARTFORD, TN, 37753","Match","Exact","4590 SPAR RD, HARTFORD, TN, 37753",132776425,"R"
648338,"4590 SPRING ST","WHITEHALL","PA",18052,40.692699369,-75.5410290949999,338,"4590 SPRING ST, WHITEHALL, PA, 18052","Match","Exact","4590 SPRING ST, WHITEHALL, PA, 18052",80784827,"L"
648339,"4590 STUTZ ROAD","FAYETTEVILLE","OH",45118,NA,NA,339,"4590 STUTZ ROAD, FAYETTEVILLE, OH, 45118","No_Match",NA,NA,NA,NA
648340,"4590 TURTLE CREEK DR","BROOKFIELD","WI",53005,43.100930137,-88.0833567609999,340,"4590 TURTLE CREEK DR, BROOKFIELD, WI, 53005","Match","Exact","4590 TURTLE CREEK DR, BROOKFIELD, WI, 53005",53849688,"L"
648341,"4590 W ABERDEEN AVE","LITTLETON","CO",80123,39.6083660830001,-105.046999505,341,"4590 W ABERDEEN AVE, LITTLETON, CO, 80123","Match","Exact","4590 W ABERDEEN AVE, LITTLETON, CO, 80123",177519785,"L"
648342,"4590 WENDY WAY","LITHONIA","GA",30038,33.6625675120001,-84.203284105,342,"4590 WENDY WAY, LITHONIA, GA, 30038","Match","Exact","4590 WENDY WAY, LITHONIA, GA, 30038",619381597,"L"
648343,"4590 WILMINGTON ST","HOUSTON","TX",77051,29.6560062510001,-95.358857875,343,"4590 WILMINGTON ST, HOUSTON, TX, 77051","Match","Exact","4590 WILMINGTON ST, HOUSTON, TX, 77051",644890720,"R"
648344,"4590 WOODLAND RD","OSCODA","MI",48750,44.439391422,-83.335572999,344,"4590 WOODLAND RD, OSCODA, MI, 48750","Match","Exact","4590 WOODLAND RD, OSCODA, MI, 48750",161301656,"L"
648345,"4590 WOODS EDGE RD","TROY","VA",22974,37.977171953,-78.3407205199999,345,"4590 WOODS EDGE RD, TROY, VA, 22974","Match","Exact","4590 WOODS EDGE RD, TROY, VA, 22974",83397248,"L"
648346,"45901 NOKES BLVD","STERLING","VA",20166,39.024135534,-77.4137177659999,346,"45901 NOKES BLVD, STERLING, VA, 20166","Match","Exact","45901 NOKES BLVD, STERLING, VA, 20166",62364289,"L"
648347,"45908 A COUNTY RD 39","OTIS","CO",80743,40.133617782,-102.848029035,347,"45908 A COUNTY RD 39, OTIS, CO, 80743","Match","Exact","45908 CO RD 39, OTIS, CO, 80743",177850005,"L"
648348,"45908 B COUNTY RD 39","OTIS","CO",80743,40.133617782,-102.848029035,348,"45908 B COUNTY RD 39, OTIS, CO, 80743","Match","Exact","45908 CO RD 39, OTIS, CO, 80743",177850005,"L"
648349,"4591 195TH ST","ESTHERVILLE","IA",51334,43.3689883810001,-94.684646743,349,"4591 195TH ST, ESTHERVILLE, IA, 51334","Match","Exact","4591 195TH ST, ESTHERVILLE, IA, 51334",9592617,"R"
648350,"4591 BARNACLE DRIVE","PORT ORANGE","FL",32127,29.122883244,-80.996141978,350,"4591 BARNACLE DRIVE, PORT ORANGE, FL, 32127","Match","Exact","4591 BARNACLE DR, PORT ORANGE, FL, 32127",94559076,"L"
648351,"4591 BEACON HILL DRIVE","WILLIAMSBURG","VA",23188,37.2729194390001,-76.7694753119999,351,"4591 BEACON HILL DRIVE, WILLIAMSBURG, VA, 23188","Match","Exact","4591 BEACON HILL DR, WILLIAMSBURG, VA, 23188",614148409,"R"
648352,"4591 CAMBURY DR","LA PALMA","CA",90623,33.845789025,-118.052897885,352,"4591 CAMBURY DR, LA PALMA, CA, 90623","Match","Exact","4591 CAMBURY DR, LA PALMA, CA, 90623",143998153,"L"
648353,"4591 COUNTY ROAD 2648","ROYSE CITY","TX",75189,33.02159163,-96.27421659,353,"4591 COUNTY ROAD 2648, ROYSE CITY, TX, 75189","Match","Exact","4591 CO RD 2648, ROYSE CITY, TX, 75189",42863389,"R"
648354,"4591 DANIELS RUN ROAD","PILOT","VA",24138,37.0513373210001,-80.298666584,354,"4591 DANIELS RUN ROAD, PILOT, VA, 24138","Match","Non_Exact","4591 DANIELS RUN RD NE, PILOT, VA, 24138",648609415,"R"
648355,"4591 DONERIAL PL APT 3B","OKEMOS","MI",48864,42.7150833490001,-84.398945704,355,"4591 DONERIAL PL APT 3B, OKEMOS, MI, 48864","Match","Non_Exact","4591 DONERAIL PL, OKEMOS, MI, 48864",642536913,"L"
648356,"4591 FM 3151","LOVELADY","TX",75851,31.088627366,-95.532514624,356,"4591 FM 3151, LOVELADY, TX, 75851","Match","Exact","4591 FM 3151, LOVELADY, TX, 75851",21994413,"R"
648357,"4591 LILLY CT","WEST BLOOMFIELD","MI",48323,42.5683189760001,-83.4356120039999,357,"4591 LILLY CT, WEST BLOOMFIELD, MI, 48323","Match","Exact","4591 LILLY CT, W BLOOMFIELD, MI, 48323",69799633,"R"
648358,"4591 NDCBU","TAOS","NM",87571,NA,NA,358,"4591 NDCBU, TAOS, NM, 87571","No_Match",NA,NA,NA,NA
648359,"4591 ORLEANS STREET","DENVER","CO",80249,39.7798454420001,-104.737035945,359,"4591 ORLEANS STREET, DENVER, CO, 80249","Match","Exact","4591 ORLEANS ST, DENVER, CO, 80249",177629837,"R"
648360,"4591 PETERS ROAD","PLANTATION","FL",33317,26.106189713,-80.2093982769999,360,"4591 PETERS ROAD, PLANTATION, FL, 33317","Match","Exact","4591 PETERS RD, PLANTATION, FL, 33317",623836803,"R"
648361,"4591 SE HANOVER CT","STUART","FL",34997,27.151284939,-80.187524389,361,"4591 SE HANOVER CT, STUART, FL, 34997","Match","Non_Exact","4591 SE HANOVER ST, STUART, FL, 34997",120419922,"L"
648362,"4591 SIRODAY AVE","YORBA LINDA","CA",92886,33.894461252,-117.830920173,362,"4591 SIRODAY AVE, YORBA LINDA, CA, 92886","Match","Exact","4591 SIRODAY AVE, YORBA LINDA, CA, 92886",143994842,"R"
648363,"4591 TUMBLEWEED DRIVE","BRIGHTON","CO",80601,39.99882704,-104.759763969,363,"4591 TUMBLEWEED DRIVE, BRIGHTON, CO, 80601","Match","Exact","4591 TUMBLEWEED DR, BRIGHTON, CO, 80601",177458288,"L"
648364,"4591 WATER OAK DRIVE","LAKE WYLIE","SC",29710,35.1384398660001,-81.0616353199999,364,"4591 WATER OAK DRIVE, LAKE WYLIE, SC, 29710","Match","Exact","4591 WATER OAK DR, LAKE WYLIE, SC, 29710",618820314,"R"
648365,"45911 CORTE CARMELLO","TEMECULA","CA",92592,33.459957751,-117.086990343,365,"45911 CORTE CARMELLO, TEMECULA, CA, 92592","Match","Exact","45911 CORTE CARMELLO, TEMECULA, CA, 92592",194880208,"R"
648366,"4592 A ROCKMART RD","SILVER CREEK","GA",30173,34.163309687,-85.142449561,366,"4592 A ROCKMART RD, SILVER CREEK, GA, 30173","Match","Non_Exact","4592 ROCKMART RD SE, SILVER CREEK, GA, 30173",30679316,"L"
648367,"4592 AIRPORT BLVD","MOBILE","AL",36608,30.6761078490001,-88.167086395,367,"4592 AIRPORT BLVD, MOBILE, AL, 36608","Match","Exact","4592 AIRPORT BLVD, MOBILE, AL, 36608",61940012,"R"
648368,"4592 BROOKHILL DR S","MANLIUS","NY",13104,42.9933680660001,-75.987241478,368,"4592 BROOKHILL DR S, MANLIUS, NY, 13104","Match","Exact","4592 BROOKHILL DR S, MANLIUS, NY, 13104",46578683,"R"
648369,"4592 CAROLINA HWY","DENMARK","SC",29042,33.327911495,-81.141861681,369,"4592 CAROLINA HWY, DENMARK, SC, 29042","Match","Exact","4592 CAROLINA HWY, DENMARK, SC, 29042",18954448,"L"
648370,"4592 CRAIG LN","VACAVILLE","CA",95688,38.404414423,-121.962953345,370,"4592 CRAIG LN, VACAVILLE, CA, 95688","Match","Exact","4592 CRAIG LN, VACAVILLE, CA, 95688",192583634,"R"
648371,"4592 CRESTVIEW DR","CHATTANOOGA","TN",37415,35.1290380390001,-85.276848072,371,"4592 CRESTVIEW DR, CHATTANOOGA, TN, 37415","Match","Exact","4592 CRESTVIEW DR, CHATTANOOGA, TN, 37415",59305141,"R"
648372,"4592 DARROWBY DRIVE","POWDER SPRINGS","GA",30127,33.8236618760001,-84.6919931579999,372,"4592 DARROWBY DRIVE, POWDER SPRINGS, GA, 30127","Match","Exact","4592 DARROWBY DR, POWDER SPGS, GA, 30127",17235137,"L"
648373,"4592 EVERGREEN FOREST","NAVASOTA","TX",77868,30.279098956,-95.9290764849999,373,"4592 EVERGREEN FOREST, NAVASOTA, TX, 77868","Match","Non_Exact","4592 EVERGREEN FOREST LN, NAVASOTA, TX, 77868",21892377,"L"
648374,"4592 GREAT BLUE HERON DRIVE","LAKELAND","FL",33812,27.9706313610001,-81.871704768,374,"4592 GREAT BLUE HERON DRIVE, LAKELAND, FL, 33812","Match","Exact","4592 GREAT BLUE HERON DR, LAKELAND, FL, 33812",614462692,"L"
648375,"4592 KIMBERLY DR","BELTON","TX",76513,31.0477260930001,-97.531993755,375,"4592 KIMBERLY DR, BELTON, TX, 76513","Match","Exact","4592 KIMBERLY DR, BELTON, TX, 76513",146181819,"L"
648376,"4592 MISSION MEADOW CIRCLE","LAS VEGAS","NV",89139,36.0377572190001,-115.202478732,376,"4592 MISSION MEADOW CIRCLE, LAS VEGAS, NV, 89139","Match","Non_Exact","4592 W MISSION MEADOW CIR, LAS VEGAS, NV, 89139",625091378,"R"
648377,"4592 NARROW PASSAGE ROAD","BUCHANAN","VA",24066,37.5573225260001,-79.7248558059999,377,"4592 NARROW PASSAGE ROAD, BUCHANAN, VA, 24066","Match","Exact","4592 NARROW PASSAGE RD, BUCHANAN, VA, 24066",62463930,"R"
648378,"4592 NEW YORK ST","SAN DIEGO","CA",92112,32.7608270630001,-117.153652375,378,"4592 NEW YORK ST, SAN DIEGO, CA, 92112","Match","Non_Exact","4592 NEW YORK ST, SAN DIEGO, CA, 92116",195700200,"L"
648379,"4592 NEWPORT AVE","SAN DIEGO","CA",92107,32.742458609,-117.24390313,379,"4592 NEWPORT AVE, SAN DIEGO, CA, 92107","Match","Exact","4592 NEWPORT AVE, SAN DIEGO, CA, 92107",195339427,"R"
648380,"4592 PLUM LANE","ONTARIO","OR",97914,44.096027297,-117.020325296,380,"4592 PLUM LANE, ONTARIO, OR, 97914","Match","Exact","4592 PLUM LN, ONTARIO, OR, 97914",138612174,"R"
648381,"4592 RANGER CREEK RD","BOERNE","TX",78006,29.804731254,-98.828417364,381,"4592 RANGER CREEK RD, BOERNE, TX, 78006","Match","Exact","4592 RANGER CREEK RD, BOERNE, TX, 78006",648579345,"L"
648382,"4592 ROHRWAY AVE NW","MASSILLON","OH",44647,40.8483596730001,-81.522713547,382,"4592 ROHRWAY AVE NW, MASSILLON, OH, 44647","Match","Exact","4592 ROHRWAY AVE NW, MASSILLON, OH, 44647",64668328,"R"
648383,"4592 ROSS ROAD","TIPP CITY","OH",45371,39.913868042,-84.131923711,383,"4592 ROSS ROAD, TIPP CITY, OH, 45371","Match","Exact","4592 ROSS RD, TIPP CITY, OH, 45371",207637317,"R"
648384,"45925 SR 174 N","GRAND COULEE","WA",99133,NA,NA,384,"45925 SR 174 N, GRAND COULEE, WA, 99133","No_Match",NA,NA,NA,NA
648385,"4593 EL CERRITO","SAN DIEGO","CA",92115,32.76054943,-117.0736623,385,"4593 EL CERRITO, SAN DIEGO, CA, 92115","Match","Non_Exact","4593 EL CERRITO DR, SAN DIEGO, CA, 92115",195350292,"R"
648386,"4593 HAWLEY BLVD","SAN DIEGO","CA",92116,32.7607685250001,-117.119480522,386,"4593 HAWLEY BLVD, SAN DIEGO, CA, 92116","Match","Exact","4593 HAWLEY BLVD, SAN DIEGO, CA, 92116",612870304,"R"
648387,"4593 JEFFERSON AVENUE","AVELLA","PA",15312,40.240907867,-80.399639017,387,"4593 JEFFERSON AVENUE, AVELLA, PA, 15312","Match","Exact","4593 JEFFERSON AVE, AVELLA, PA, 15312",616257224,"L"
648388,"4593 KINSDALE","MABELTON","GA",30126,33.841848671,-84.585223417,388,"4593 KINSDALE, MABELTON, GA, 30126","Match","Non_Exact","4593 KINSDALE DR, MABLETON, GA, 30126",17218607,"L"
648389,"4593 LESSIG RD","HUNTERS","WA",99137,NA,NA,389,"4593 LESSIG RD, HUNTERS, WA, 99137","No_Match",NA,NA,NA,NA
648390,"4593 MAPLE LEAF CIRCLE","EAGAN","MN",55123,44.791000889,-93.146782082,390,"4593 MAPLE LEAF CIRCLE, EAGAN, MN, 55123","Match","Exact","4593 MAPLE LEAF CIR, EAGAN, MN, 55123",37909513,"R"
648391,"4593 SAWTOOTH","CHUBBUCK","ID",83202,42.9154871860001,-112.484287745,391,"4593 SAWTOOTH, CHUBBUCK, ID, 83202","Match","Non_Exact","4593 SAWTOOTH ST, CHUBBUCK, ID, 83202",204350002,"L"
648392,"4593 SHARON VALLEY CT","DUNWOODY","GA",30338,33.9309082500001,-84.287358604,392,"4593 SHARON VALLEY CT, DUNWOODY, GA, 30338","Match","Exact","4593 SHARON VALLEY CT, DUNWOODY, GA, 30338",23357337,"R"
648393,"4593E - 500S","HARTFORD CITY","IN",47348,NA,NA,393,"4593E - 500S, HARTFORD CITY, IN, 47348","No_Match",NA,NA,NA,NA
648394,"4594 BASS LAKE RD","PIERSON","MI",49339,43.3609238550001,-85.530490457,394,"4594 BASS LAKE RD, PIERSON, MI, 49339","Match","Exact","4594 BASS LAKE RD, PIERSON, MI, 49339",110558786,"R"
648395,"4594 BRIARGATE DR","ST CHARLES","MO",63304,38.72658475,-90.6131228259999,395,"4594 BRIARGATE DR, ST CHARLES, MO, 63304","Match","Exact","4594 BRIARGATE DR, SAINT CHARLES, MO, 63304",605593733,"L"
648396,"4594 BRONSON ST","SAN BERNARDINO","CA",92407,34.1700482680001,-117.354223502,396,"4594 BRONSON ST, SAN BERNARDINO, CA, 92407","Match","Exact","4594 BRONSON ST, SAN BERNARDINO, CA, 92407",636518642,"L"
648397,"4594 CARUM CIRCLE","LAKE PARK","GA",31636,30.717094769,-83.21280276,397,"4594 CARUM CIRCLE, LAKE PARK, GA, 31636","Match","Exact","4594 CARUM CIR, LAKE PARK, GA, 31636",87722269,"R"
648398,"4594 CHASE OAKS DRIVE","SARASOTA","OH",34241,NA,NA,398,"4594 CHASE OAKS DRIVE, SARASOTA, OH, 34241","No_Match",NA,NA,NA,NA
648399,"4594 COUNTY HOME RD","CONOVER","NC",28613,35.7559117490001,-81.247532811,399,"4594 COUNTY HOME RD, CONOVER, NC, 28613","Match","Exact","4594 COUNTY HOME RD, CONOVER, NC, 28613",45897565,"R"
648400,"4594 CRABB APPLE","TRACY","CA",95377,NA,NA,400,"4594 CRABB APPLE, TRACY, CA, 95377","No_Match",NA,NA,NA,NA
648401,"4594 EAST CONWAY DR","ATLANTA","GA",30327,33.8808072800001,-84.401745138,401,"4594 EAST CONWAY DR, ATLANTA, GA, 30327","Match","Non_Exact","4594 E CONWAY DR NW, ATLANTA, GA, 30327",17334474,"L"
648402,"4594 GOODMAN STREET","GROVE CITY","OH",43123,39.8686998810001,-83.062547627,402,"4594 GOODMAN STREET, GROVE CITY, OH, 43123","Match","Exact","4594 GOODMAN ST, GROVE CITY, OH, 43123",218640207,"L"
648403,"4594 HWY 42 B","CONLEY","GA",30288,NA,NA,403,"4594 HWY 42 B, CONLEY, GA, 30288","No_Match",NA,NA,NA,NA
648404,"4594 STATE ROAD 1","BUTLER","IN",46721,41.367466628,-84.869334948,404,"4594 STATE ROAD 1, BUTLER, IN, 46721","Match","Exact","4594 STATE RD 1, BUTLER, IN, 46721",6518277,"L"
648405,"4595 20TH ST NE","NAPLES","FL",34120,26.3169174240001,-81.5683525489999,405,"4595 20TH ST NE, NAPLES, FL, 34120","Match","Exact","4595 20TH ST NE, NAPLES, FL, 34120",115128712,"L"
648406,"4595 BLAKE ROAD","SEVILLE","OH",44273,41.0471713370001,-81.855542654,406,"4595 BLAKE ROAD, SEVILLE, OH, 44273","Match","Exact","4595 BLAKE RD, SEVILLE, OH, 44273",58688126,"L"
648407,"4595 CEDAR DR","BASTROP","LA",71220,32.7674161,-91.940471512,407,"4595 CEDAR DR, BASTROP, LA, 71220","Match","Exact","4595 CEDAR DR, BASTROP, LA, 71220",75387468,"R"
648408,"4595 E ST RD 120","FREMONT","IN",46737,41.7304996870001,-84.906617521,408,"4595 E ST RD 120, FREMONT, IN, 46737","Match","Non_Exact","4595 E STATE RD 120, FREMONT, IN, 46737",7721192,"L"
648409,"4595 GOLD HILL ROAD","CONCORD","NC",28025,35.451417517,-80.499196259,409,"4595 GOLD HILL ROAD, CONCORD, NC, 28025","Match","Exact","4595 GOLD HILL RD, CONCORD, NC, 28025",24904629,"L"
648410,"4595 MARSHA LANE","POTOSI","WI",53820,42.641210035,-90.6492896949999,410,"4595 MARSHA LANE, POTOSI, WI, 53820","Match","Exact","4595 MARSHA LN, POTOSI, WI, 53820",32753398,"L"
648411,"4595 N 25TH W AVE","TULSA","OK",74126,36.217255005,-96.019726164,411,"4595 N 25TH W AVE, TULSA, OK, 74126","Match","Exact","4595 N 25TH W AVE, TULSA, OK, 74126",82387680,"L"
648412,"4595 NORTHLAKE BLVD STE 106","PALM BEACH GARDENS","FL",33418,26.8091727140001,-80.107990381,412,"4595 NORTHLAKE BLVD STE 106, PALM BEACH GARDENS, FL, 33418","Match","Exact","4595 NORTHLAKE BLVD, PALM BEACH GARDENS, FL, 33418",639579689,"L"
648413,"4595 NW 37TH CT","MIAMI","FL",33142,25.815839929,-80.257763935,413,"4595 NW 37TH CT, MIAMI, FL, 33142","Match","Exact","4595 NW 37TH CT, MIAMI, FL, 33142",116000448,"R"
648414,"4595 S PARKHILL AVE","SPRINGFIELD","MO",65810,37.1310101220001,-93.3096909659999,414,"4595 S PARKHILL AVE, SPRINGFIELD, MO, 65810","Match","Exact","4595 S PARKHILL AVE, SPRINGFIELD, MO, 65810",76701115,"L"
648415,"4595 STABLE DRIVE","HUDSONVILLE","MI",49426,42.850986391,-85.8375607,415,"4595 STABLE DRIVE, HUDSONVILLE, MI, 49426","Match","Exact","4595 STABLE DR, HUDSONVILLE, MI, 49426",627193419,"L"
648416,"4595 US HWY 41","PELHAM","TN",37366,35.27300632,-85.858434345,416,"4595 US HWY 41, PELHAM, TN, 37366","Match","Exact","4595 US HWY 41, PELHAM, TN, 37366",58272356,"R"
648417,"4595 VALLEY PARKWAY SE  APT J","SMYRNA","GA",30082,33.840173421,-84.502083549,417,"4595 VALLEY PARKWAY SE  APT J, SMYRNA, GA, 30082","Match","Non_Exact","4595 VALLEY PKWY, SMYRNA, GA, 30082",17250703,"R"
648418,"4595 VICTORIA ROAD","CHARLESTON","WV",25313,38.399332961,-81.727833158,418,"4595 VICTORIA ROAD, CHARLESTON, WV, 25313","Match","Exact","4595 VICTORIA RD, CHARLESTON, WV, 25313",78643714,"L"
648419,"4595 W SPRING CREEK PKWY","PLANO","TX",75024,33.0565122830001,-96.786822023,419,"4595 W SPRING CREEK PKWY, PLANO, TX, 75024","Match","Exact","4595 W SPRING CREEK PKWY, PLANO, TX, 75024",210508466,"L"
648420,"45955 OLD HOUSTON HIGHWAY","HEMPSTEAD","TX",77445,30.0773013630001,-96.014170868,420,"45955 OLD HOUSTON HIGHWAY, HEMPSTEAD, TX, 77445","Match","Exact","45955 OLD HOUSTON HWY, HEMPSTEAD, TX, 77445",78356831,"L"
648421,"45959 LAURA LEE WAY","GREAT MILLS","MD",20634,38.2026810300001,-76.4853810019999,421,"45959 LAURA LEE WAY, GREAT MILLS, MD, 20634","Match","Exact","45959 LAURA LEE WAY, GREAT MILLS, MD, 20634",637456057,"R"
648422,"4596 BENT CREEK PLACE","GROVE CITY","OH",43123,39.869121464,-83.065786142,422,"4596 BENT CREEK PLACE, GROVE CITY, OH, 43123","Match","Exact","4596 BENT CREEK PL, GROVE CITY, OH, 43123",135627102,"L"
648423,"4596 BLACKWELL","OCEANSIDE","CA",92056,33.1773843570001,-117.268253673,423,"4596 BLACKWELL, OCEANSIDE, CA, 92056","Match","Non_Exact","4596 BLACKWELL RD, OCEANSIDE, CA, 92056",195286576,"L"
648424,"4596 COLONIAL DR APT 2","SAGINAW","MI",48603,43.4412648380001,-84.0064733839999,424,"4596 COLONIAL DR APT 2, SAGINAW, MI, 48603","Match","Exact","4596 COLONIAL DR, SAGINAW, MI, 48603",80232461,"R"
648425,"4596 E COLLINWOOD DRIVE","GILBERT","AZ",85298,33.2278439,-111.690319621,425,"4596 E COLLINWOOD DRIVE, GILBERT, AZ, 85298","Match","Exact","4596 E COLLINWOOD DR, GILBERT, AZ, 85298",128874368,"L"
648426,"4596 FRENCH ROAD","CLINTON","NY",13323,43.0851263480001,-75.38374759,426,"4596 FRENCH ROAD, CLINTON, NY, 13323","Match","Exact","4596 FRENCH RD, CLINTON, NY, 13323",171524761,"L"
648427,"4596 HIDDEN POND LANE","EDEN","MD",21822,38.32094406,-75.678529423,427,"4596 HIDDEN POND LANE, EDEN, MD, 21822","Match","Exact","4596 HIDDEN POND LN, EDEN, MD, 21822",645185930,"L"
648428,"4596 SOUTH 2770 EAST","HOLLADAY","UT",84117,40.6708586840001,-111.812745473,428,"4596 SOUTH 2770 EAST, HOLLADAY, UT, 84117","Match","Exact","4596 S 2770 E, HOLLADAY, UT, 84117",176094721,"R"
648429,"4596 TRETO AVE","LAS VEGAS","NV",89141,35.9966458310001,-115.203406222,429,"4596 TRETO AVE, LAS VEGAS, NV, 89141","Match","Exact","4596 TRETO AVE, LAS VEGAS, NV, 89141",202001740,"R"
648430,"4596 VALLEY PKWY SE","SMYRNA","GA",30082,33.840160704,-84.502116421,430,"4596 VALLEY PKWY SE, SMYRNA, GA, 30082","Match","Non_Exact","4596 VALLEY PKWY, SMYRNA, GA, 30082",17250703,"L"
648431,"4596 W IRLO BRONSON MEM HWY","KISSIMMEE","FL",34746,28.310784934,-81.465999322,431,"4596 W IRLO BRONSON MEM HWY, KISSIMMEE, FL, 34746","Match","Exact","4596 W IRLO BRONSON MEMORIAL HWY, KISSIMMEE, FL, 34746",176672485,"L"
648432,"4596 WEST LAWRENCE WAY","NEW PALESTINE","IN",46163,39.7357157650001,-85.888149046,432,"4596 WEST LAWRENCE WAY, NEW PALESTINE, IN, 46163","Match","Exact","4596 W LAWRENCE WAY, NEW PALESTINE, IN, 46163",627530254,"L"
648433,"45962 BLUE JAY COURT","GREAT MILLS","MD",20634,38.278377812,-76.485245554,433,"45962 BLUE JAY COURT, GREAT MILLS, MD, 20634","Match","Exact","45962 BLUE JAY CT, GREAT MILLS, MD, 20634",36630928,"R"
648434,"45967 HW 18","DAVIS","SD",57021,43.2575013000001,-97.0085410139999,434,"45967 HW 18, DAVIS, SD, 57021","Match","Non_Exact","45967 US HWY 18, DAVIS, SD, 57021",173012915,"R"
648435,"4597 AVENUE H","BROOKLYN","NY",11234,40.6326075920001,-73.932330327,435,"4597 AVENUE H, BROOKLYN, NY, 11234","Match","Exact","4597 AVE H, BROOKLYN, NY, 11234",59085982,"L"
648436,"4597 BITTER CREEK RD","AFTON","WY",83110,42.67133334,-110.974396083,436,"4597 BITTER CREEK RD, AFTON, WY, 83110","Match","Exact","4597 BITTER CREEK RD, AFTON, WY, 83110",611012637,"L"
648437,"4597 BOWEN BAYOU ROAD","SANIBEL","FL",33957,26.4665234880001,-82.154318626,437,"4597 BOWEN BAYOU ROAD, SANIBEL, FL, 33957","Match","Exact","4597 BOWEN BAYOU RD, SANIBEL, FL, 33957",118100664,"R"
648438,"4597 COUNTYLINE ROAD","NEW CASTLE","PA",16101,40.9994667770001,-80.229999397,438,"4597 COUNTYLINE ROAD, NEW CASTLE, PA, 16101","Match","Non_Exact","4597 COUNTY LINE RD, NEW CASTLE, PA, 16101",65189237,"L"
648439,"4597 CR 2617","CADDO MILLS","TX",75135,33.0176999400001,-96.252787699,439,"4597 CR 2617, CADDO MILLS, TX, 75135","Match","Exact","4597 CO RD 2617, CADDO MILLS, TX, 75135",42842056,"R"
648440,"4597 CROCKETT COURT","FREMONT","CA",94538,37.532976202,-121.976555498,440,"4597 CROCKETT COURT, FREMONT, CA, 94538","Match","Exact","4597 CROCKETT CT, FREMONT, CA, 94538",125030503,"R"
648441,"4597 HWY 158 WEST","DOUGLAS","GA",31533,NA,NA,441,"4597 HWY 158 WEST, DOUGLAS, GA, 31533","No_Match",NA,NA,NA,NA
648442,"4597 MILLIS RD","NORTH BRANCH","MI",48461,43.165223918,-83.287080417,442,"4597 MILLIS RD, NORTH BRANCH, MI, 48461","Match","Exact","4597 MILLIS RD, NORTH BRANCH, MI, 48461",110455693,"L"
648443,"4597 SOUTH OAKENWALD","CHICAGO","IL",60653,41.811684799,-87.5935457419999,443,"4597 SOUTH OAKENWALD, CHICAGO, IL, 60653","Match","Non_Exact","4597 S OAKENWALD AVE, CHICAGO, IL, 60653",605500294,"L"
648444,"4597 WHITE FOX","MEMPHIS","TN",38109,35.023209122,-90.046155578,444,"4597 WHITE FOX, MEMPHIS, TN, 38109","Match","Non_Exact","4597 WHITE FOX ST, MEMPHIS, TN, 38109",72909797,"R"
648445,"4598 BRANT STREET","DENVER","CO",80211,39.7801104060001,-105.019343444,445,"4598 BRANT STREET, DENVER, CO, 80211","Match","Non_Exact","4598 BRYANT ST, DENVER, CO, 80211",177300994,"R"
648446,"4598 BRYANT STREET","DENVER","CO",80211,39.7801104060001,-105.019343444,446,"4598 BRYANT STREET, DENVER, CO, 80211","Match","Exact","4598 BRYANT ST, DENVER, CO, 80211",177300994,"R"
648447,"4598 CARTER ROAD","AUSTELL","GA",30106,33.8441082750001,-84.657623096,447,"4598 CARTER ROAD, AUSTELL, GA, 30106","Match","Exact","4598 CARTER RD, AUSTELL, GA, 30106",17243235,"L"
648448,"4598 COUNTY RD 138","GLEN ULLIN","ND",58631,NA,NA,448,"4598 COUNTY RD 138, GLEN ULLIN, ND, 58631","No_Match",NA,NA,NA,NA
648449,"4598 DICKS MILL ROAD","MCLEANSVILLE","NC",27301,36.1393448150001,-79.6780231129999,449,"4598 DICKS MILL ROAD, MCLEANSVILLE, NC, 27301","Match","Non_Exact","4598 DICKS MILL RD, MC LEANSVILLE, NC, 27301",131092732,"R"
648450,"4598 LAWRENCEVILLE HIGHWAY","TUCKER","GA",30084,33.86127178,-84.19999143,450,"4598 LAWRENCEVILLE HIGHWAY, TUCKER, GA, 30084","Match","Exact","4598 LAWRENCEVILLE HWY, TUCKER, GA, 30084",23363661,"L"
648451,"4598 N 700W","KOKOMO","IN",46901,NA,NA,451,"4598 N 700W, KOKOMO, IN, 46901","No_Match",NA,NA,NA,NA
648452,"4598 N DIXIE HIGHWAY","BOCA RATON","FL",33431,26.3905570950001,-80.0809518089999,452,"4598 N DIXIE HIGHWAY, BOCA RATON, FL, 33431","Match","Exact","4598 N DIXIE HWY, BOCA RATON, FL, 33431",115293480,"R"
648453,"4598 NW 35TH AVENUE","FORT LAUDERDALE","FL",33312,26.0648627750001,-80.1926924529999,453,"4598 NW 35TH AVENUE, FORT LAUDERDALE, FL, 33312","Match","Non_Exact","4598 SW 35TH AVE, FORT LAUDERDALE, FL, 33312",645575271,"L"
648454,"4598 REED BARK LANE","JACKSONVILLE","FL",32246,30.261300615,-81.5392841,454,"4598 REED BARK LANE, JACKSONVILLE, FL, 32246","Match","Exact","4598 REED BARK LN, JACKSONVILLE, FL, 32246",83962499,"L"
648455,"4598 WEST 132ND ST","HAWTHORNE","CA",90250,33.912677821,-118.356839121,455,"4598 WEST 132ND ST, HAWTHORNE, CA, 90250","Match","Exact","4598 W 132ND ST, HAWTHORNE, CA, 90250",241242617,"L"
648456,"4598 WEST 5800 SOUTH","HOOPER","UT",84315,41.1583833,-112.090961877,456,"4598 WEST 5800 SOUTH, HOOPER, UT, 84315","Match","Exact","4598 W 5800 S, HOOPER, UT, 84315",640980022,"R"
648457,"4598 WORMWOOD DR","WEST VALLEY CITY","UT",84120,40.671071645,-112.014729593,457,"4598 WORMWOOD DR, WEST VALLEY CITY, UT, 84120","Match","Exact","4598 WORMWOOD DR, WEST VALLEY CITY, UT, 84120",176069435,"R"
648458,"45980 IS HWY 280","SYLACAUGA","AL",35150,33.119481481,-86.2405872369999,458,"45980 IS HWY 280, SYLACAUGA, AL, 35150","Match","Non_Exact","45980 US HWY 280, SYLACAUGA, AL, 35150",66976089,"R"
648459,"45986 TISSIACK ROAD","FREMONT","CA",94539,NA,NA,459,"45986 TISSIACK ROAD, FREMONT, CA, 94539","Tie",NA,NA,NA,NA
648460,"45988 W 141ST ST S","BRISTOW","OK",74010,35.9592910170001,-96.507185716,460,"45988 W 141ST ST S, BRISTOW, OK, 74010","Match","Exact","45988 W 141ST ST S, BRISTOW, OK, 74010",165847307,"L"
648461,"4599 COUNTY ROAD 52","CENTER","CO",81125,37.8150045350001,-106.056218763,461,"4599 COUNTY ROAD 52, CENTER, CO, 81125","Match","Exact","4599 CO RD 52, CENTER, CO, 81125",104397760,"L"
648462,"4599 DEEP RIVER PLACE","JACKSONVILLE","FL",32224,30.2583675660001,-81.4756931919999,462,"4599 DEEP RIVER PLACE, JACKSONVILLE, FL, 32224","Match","Exact","4599 DEEP RIVER PL, JACKSONVILLE, FL, 32224",83942866,"L"
648463,"4599 DEERHORN TRAIL","BREMERTON","WA",98311,NA,NA,463,"4599 DEERHORN TRAIL, BREMERTON, WA, 98311","No_Match",NA,NA,NA,NA
648464,"4599 DELTONA BOULEVARD","SPRING HILL","FL",34606,28.4990138480001,-82.5649120909999,464,"4599 DELTONA BOULEVARD, SPRING HILL, FL, 34606","Match","Exact","4599 DELTONA BLVD, SPRING HILL, FL, 34606",85430725,"L"
648465,"4599 DRIFTWOOD DRIVE","TAYLORSVILLE","UT",84123,40.6708654770001,-111.933645488,465,"4599 DRIFTWOOD DRIVE, TAYLORSVILLE, UT, 84123","Match","Exact","4599 DRIFTWOOD DR, TAYLORSVILLE, UT, 84123",176073439,"L"
648466,"4599 FREUDENBERGER AVE","DAYTON","OH",45417,39.767757811,-84.264935066,466,"4599 FREUDENBERGER AVE, DAYTON, OH, 45417","Match","Exact","4599 FREUDENBERGER AVE, DAYTON, OH, 45417",143566127,"R"
648467,"4599 HACKAMORE RD","WELLINGTON","CO",80549,40.797964812,-104.982640094,467,"4599 HACKAMORE RD, WELLINGTON, CO, 80549","Match","Exact","4599 HACKAMORE RD, WELLINGTON, CO, 80549",188495546,"L"
648468,"4599 LARKSONG DRIVE","CASTLE ROCK","CO",80109,39.4055083060001,-104.911789525,468,"4599 LARKSONG DRIVE, CASTLE ROCK, CO, 80109","Match","Exact","4599 LARKSONG DR, CASTLE ROCK, CO, 80109",130837479,"L"
648469,"4599 N ANNATA AVE","MERIDIAN","ID",83646,43.644981914,-116.426916407,469,"4599 N ANNATA AVE, MERIDIAN, ID, 83646","Match","Exact","4599 N ANNATA AVE, MERIDIAN, ID, 83646",619844389,"R"
648470,"4599 N CHURCH STREET","WHITEHALL","PA",18052,40.68864991,-75.540512782,470,"4599 N CHURCH STREET, WHITEHALL, PA, 18052","Match","Exact","4599 N CHURCH ST, WHITEHALL, PA, 18052",80780583,"R"
648471,"4599 N TEMPLIN RD","MARTINSVILLE","IN",46151,39.4955812000001,-86.49904508,471,"4599 N TEMPLIN RD, MARTINSVILLE, IN, 46151","Match","Non_Exact","4599 TEMPLIN LN, MARTINSVILLE, IN, 46151",43558508,"L"
648472,"4599 N WASHINGTON APT 18 D","STILLWATER","OK",74075,NA,NA,472,"4599 N WASHINGTON APT 18 D, STILLWATER, OK, 74075","No_Match",NA,NA,NA,NA
648473,"4599 N WASHINGTON ST APT 40F","STILLWATER","OK",74075,36.169561206,-97.0697231,473,"4599 N WASHINGTON ST APT 40F, STILLWATER, OK, 74075","Match","Non_Exact","4599 N WASHINGTON ST, STILLWATER, OK, 74075",166394996,"R"
648474,"4599 NUTTERS CROSS ROAD","SALISBURY","MD",21804,38.318767091,-75.5571384949999,474,"4599 NUTTERS CROSS ROAD, SALISBURY, MD, 21804","Match","Exact","4599 NUTTERS CROSS RD, SALISBURY, MD, 21804",114461162,"R"
648475,"4599 QUEEN MARY DRIVE","SOUTH EUCLID","OH",44121,41.536862651,-81.512418028,475,"4599 QUEEN MARY DRIVE, SOUTH EUCLID, OH, 44121","Match","Exact","4599 QUEEN MARY DR, SOUTH EUCLID, OH, 44121",61124796,"L"
648476,"4599 W DAVIS ST  APT 613","DALLAS","TX",75211,32.749820298,-96.898520988,476,"4599 W DAVIS ST  APT 613, DALLAS, TX, 75211","Match","Non_Exact","4599 W DAVIS ST, DALLAS, TX, 75211",647954865,"R"
648477,"4599 WILSON RD","INDIAN RIVER","MI",49749,45.3955582410001,-84.6189970309999,477,"4599 WILSON RD, INDIAN RIVER, MI, 49749","Match","Exact","4599 WILSON RD, INDIAN RIVER, MI, 49749",134537774,"R"
648478,"45990 TOURNAMENT DR","NORTHVILLE TWN","MI",48168,42.403696322,-83.5007526909999,478,"45990 TOURNAMENT DR, NORTHVILLE TWN, MI, 48168","Match","Non_Exact","45990 TOURNAMENT DR, NORTHVILLE, MI, 48168",95735541,"L"
648479,"45994 PLUM GROVE DR","MACOMMB","MI",48044,42.6363292780001,-82.941588709,479,"45994 PLUM GROVE DR, MACOMMB, MI, 48044","Match","Non_Exact","45994 PLUM GROVE DR, MACOMB, MI, 48044",110663119,"L"
648480,"45998 COUNTY RD DD","AKRON","CO",80720,NA,NA,480,"45998 COUNTY RD DD, AKRON, CO, 80720","No_Match",NA,NA,NA,NA
648481,"45A","WATERTOWN","MA",2472,NA,NA,481,"45A, WATERTOWN, MA, 2472","No_Match",NA,NA,NA,NA
648482,"45B ANDERSON ROAD","KATONAH","NY",10536,41.263257308,-73.691930683,482,"45B ANDERSON ROAD, KATONAH, NY, 10536","Match","Exact","45 ANDERSON RD, KATONAH, NY, 10536",630543312,"L"
648483,"45D SCHOOL ST","DANIELSON","CT",6239,41.8022357340001,-71.882299164,483,"45D SCHOOL ST, DANIELSON, CT, 6239","Match","Exact","45 SCHOOL ST, DANIELSON, CT, 06239",56457913,"L"
648484,"45R COURT ST","NEWTON","MA",2458,42.3533927120001,-71.202672945,484,"45R COURT ST, NEWTON, MA, 2458","Match","Exact","45 COURT ST, NEWTON, MA, 02458",86864422,"R"
648485,"45W 132ND STREET","NEW YORK CITY","NY",10037,NA,NA,485,"45W 132ND STREET, NEW YORK CITY, NY, 10037","Tie",NA,NA,NA,NA
648486,"45W223 LEES RD","MAPLE PARK","IL",60151,41.975291832,-88.495949665,486,"45W223 LEES RD, MAPLE PARK, IL, 60151","Match","Exact","45W223 LEES RD, MAPLE PARK, IL, 60151",119584927,"L"
648487,"45W647 KESLINGER ROAD","ELBURN","IL",60119,41.8810387500001,-88.4978443099999,487,"45W647 KESLINGER ROAD, ELBURN, IL, 60119","Match","Exact","45W647 KESLINGER RD, ELBURN, IL, 60119",119532070,"R"
648488,"46  LAZY LANE","THE WOODLANDS","TX",77380,30.1462077520001,-95.476070764,488,"46  LAZY LANE, THE WOODLANDS, TX, 77380","Match","Exact","46 LAZY LN, THE WOODLANDS, TX, 77380",79335057,"R"
648489,"46  PINE SQUARE","HAMMOND","LA",70401,NA,NA,489,"46  PINE SQUARE, HAMMOND, LA, 70401","Tie",NA,NA,NA,NA
648490,"46 1/2 AGAMENTICUS ROAD","SOUTH BERWICK","ME",3908,43.2376986460001,-70.800063143,490,"46 1/2 AGAMENTICUS ROAD, SOUTH BERWICK, ME, 3908","Match","Exact","46 AGAMENTICUS RD, SOUTH BERWICK, ME, 03908",641985995,"R"
648491,"46 165TH PLACE","CALUMET CITY","IL",60409,41.5892712510001,-87.526669955,491,"46 165TH PLACE, CALUMET CITY, IL, 60409","Match","Exact","46 165TH PL, CALUMET CITY, IL, 60409",605714523,"L"
648492,"46 2 EIN GEDI STREET","BEIT SHEMESH","NY",99108,NA,NA,492,"46 2 EIN GEDI STREET, BEIT SHEMESH, NY, 99108","No_Match",NA,NA,NA,NA
648493,"46 4TH ST SW","WINTER HAVEN","FL",33880,28.022071048,-81.731370833,493,"46 4TH ST SW, WINTER HAVEN, FL, 33880","Match","Exact","46 4TH ST SW, WINTER HAVEN, FL, 33880",104823869,"L"
648494,"46 4TH STREET EAST","SAINT PAUL","MN",55101,NA,NA,494,"46 4TH STREET EAST, SAINT PAUL, MN, 55101","No_Match",NA,NA,NA,NA
648495,"46 94TH STREET","BKLYN.","NY",11209,40.618229376,-74.0381135709999,495,"46 94TH STREET, BKLYN., NY, 11209","Match","Non_Exact","46 94TH ST, BROOKLYN, NY, 11209",59087383,"R"
648496,"46 98TH AVE NW","COON RAPIDS",NA,NA,45.14777106,-93.268333336,496,"46 98TH AVE NW, COON RAPIDS, , ","Match","Exact","46 98TH AVE NW, COON RAPIDS, MN, 55448",97507453,"R"
648497,"46 ABBOTTSFORD RD","BROOKLINE","MA",2446,42.3493170940001,-71.1232309179999,497,"46 ABBOTTSFORD RD, BROOKLINE, MA, 2446","Match","Exact","46 ABBOTTSFORD RD, BROOKLINE, MA, 02446",87244363,"L"
648498,"46 ABBOTTSFORD ROAD","BROOKLINE","MA",2446,42.3493170940001,-71.1232309179999,498,"46 ABBOTTSFORD ROAD, BROOKLINE, MA, 2446","Match","Exact","46 ABBOTTSFORD RD, BROOKLINE, MA, 02446",87244363,"L"
648499,"46 AEGEAN LANE","LOWELL","MA",1854,42.6504263780001,-71.357909132,499,"46 AEGEAN LANE, LOWELL, MA, 1854","Match","Exact","46 AEGEAN LN, LOWELL, MA, 01854",86925740,"L"
648500,"46 ALAMO PL","BUFFALO","NY",14220,42.8555139380001,-78.8267324939999,500,"46 ALAMO PL, BUFFALO, NY, 14220","Match","Exact","46 ALAMO PL, BUFFALO, NY, 14220",48301222,"L"
