"ID","Address","City","State","Zip","lat","long","id","input_address","match_indicator","match_type","matched_address","tiger_line_id","tiger_side"
169001,"1400 BERRIVINE DRIVE","HARTSELLE","AL",35640,34.4563184990001,-86.9099763149999,1,"1400 BERRIVINE DRIVE, HARTSELLE, AL, 35640","Match","Non_Exact","1400 BERRIVINE DR NE, HARTSELLE, AL, 35640",97132209,"L"
169002,"1400 BETHLEHEM ROAD","ROCKY MOUNT","NC",27803,35.937099308,-77.8359033149999,2,"1400 BETHLEHEM ROAD, ROCKY MOUNT, NC, 27803","Match","Exact","1400 BETHLEHEM RD, ROCKY MOUNT, NC, 27803",90398827,"R"
169003,"1400 BISCAYA DR","MIAMI BEACH","FL",33154,25.873581766,-80.131647324,3,"1400 BISCAYA DR, MIAMI BEACH, FL, 33154","Match","Exact","1400 BISCAYA DR, MIAMI BEACH, FL, 33154",116324386,"L"
169004,"1400 BISSELL  AVE","RICHMOND","CA",94801,37.934075853,-122.35610222,4,"1400 BISSELL  AVE, RICHMOND, CA, 94801","Match","Exact","1400 BISSELL AVE, RICHMOND, CA, 94801",192040596,"R"
169005,"1400 BISSELL AVE","RICHMOND","CA",94801,37.934075853,-122.35610222,5,"1400 BISSELL AVE, RICHMOND, CA, 94801","Match","Exact","1400 BISSELL AVE, RICHMOND, CA, 94801",192040596,"R"
169006,"1400 BLACKHORSE HILL RD BLDG 39B","COATESVILLE","PA",19320,39.999173737,-75.7995725059999,6,"1400 BLACKHORSE HILL RD BLDG 39B, COATESVILLE, PA, 19320","Match","Exact","1400 BLACKHORSE HILL RD, COATESVILLE, PA, 19320",636457732,"R"
169007,"1400 BORDEN RD","BUMPASS","VA",23024,37.9622785110001,-77.737694743,7,"1400 BORDEN RD, BUMPASS, VA, 23024","Match","Exact","1400 BORDEN RD, BUMPASS, VA, 23024",84922996,"R"
169008,"1400 BOREN AVE 209","SEATTLE","WA",98101,47.6125529670001,-122.328070412,8,"1400 BOREN AVE 209, SEATTLE, WA, 98101","Match","Exact","1400 BOREN AVE, SEATTLE, WA, 98101",186589767,"R"
169009,"1400 BRIERCLIFF DR","ORLANDO","FL",32806,28.5272052120001,-81.362369367,9,"1400 BRIERCLIFF DR, ORLANDO, FL, 32806","Match","Exact","1400 BRIERCLIFF DR, ORLANDO, FL, 32806",94283109,"R"
169010,"1400 BRIGADIER DRIVE","FREDERICKSBURG","VA",22401,38.2869316760001,-77.499642067,10,"1400 BRIGADIER DRIVE, FREDERICKSBURG, VA, 22401","Match","Exact","1400 BRIGADIER DR, FREDERICKSBURG, VA, 22401",616371608,"L"
169011,"1400 BRISTLEWOOD DR","MCKINNEY","TX",75072,33.1909122330001,-96.724298075,11,"1400 BRISTLEWOOD DR, MCKINNEY, TX, 75072","Match","Exact","1400 BRISTLEWOOD DR, MCKINNEY, TX, 75072",123563199,"L"
169012,"1400 BRISTOL STREET N SUITE 210","NEWPORT BEACH","CA",92660,NA,NA,12,"1400 BRISTOL STREET N SUITE 210, NEWPORT BEACH, CA, 92660","No_Match",NA,NA,NA,NA
169013,"1400 BRISTOL STREET NORTH SUITE 210","NEWPORT BEACH","CA",92660,NA,NA,13,"1400 BRISTOL STREET NORTH SUITE 210, NEWPORT BEACH, CA, 92660","No_Match",NA,NA,NA,NA
169014,"1400 BROADWAY STREET","ANDERSON","IN",46012,40.1289733310001,-85.678013616,14,"1400 BROADWAY STREET, ANDERSON, IN, 46012","Match","Exact","1400 BROADWAY ST, ANDERSON, IN, 46012",31113927,"R"
169015,"1400 BROADWAY","NEW YORK","NY",10018,40.7529506770001,-73.9872828599999,15,"1400 BROADWAY, NEW YORK, NY, 10018","Match","Exact","1400 BROADWAY, NEW YORK, NY, 10018",59658602,"R"
169016,"1400 BROWNING RD","COLUMBIA","SC",29210,NA,NA,16,"1400 BROWNING RD, COLUMBIA, SC, 29210","No_Match",NA,NA,NA,NA
169017,"1400 BUCKHORN RD","ROSEBURG","OR",97470,43.208891389,-123.252949815,17,"1400 BUCKHORN RD, ROSEBURG, OR, 97470","Match","Exact","1400 BUCKHORN RD, ROSEBURG, OR, 97470",613942705,"R"
169018,"1400 BUFORD HIGHWAY","SUGAR HILL","GA",30518,34.0865723270001,-84.0251136959999,18,"1400 BUFORD HIGHWAY, SUGAR HILL, GA, 30518","Match","Exact","1400 BUFORD HWY, SUGAR HILL, GA, 30518",632615948,"L"
169019,"1400 BUTTONWOOD COURT","HIGH POINT","NC",27265,36.0263632420001,-80.015493496,19,"1400 BUTTONWOOD COURT, HIGH POINT, NC, 27265","Match","Exact","1400 BUTTONWOOD CT, HIGH POINT, NC, 27265",131073582,"R"
169020,"1400 BYRAM DRIVE","CLEARWATER","FL",33755,27.992687684,-82.779511715,20,"1400 BYRAM DRIVE, CLEARWATER, FL, 33755","Match","Exact","1400 BYRAM DR, CLEARWATER, FL, 33755",124667401,"L"
169021,"1400 CACTUS AVE","COLUMBIA","SC",29210,34.0689546720001,-81.1214865169999,21,"1400 CACTUS AVE, COLUMBIA, SC, 29210","Match","Exact","1400 CACTUS AVE, COLUMBIA, SC, 29210",71865997,"L"
169022,"1400 CACTUS AVENUE","COLUMBIA","SC",29210,34.0689546720001,-81.1214865169999,22,"1400 CACTUS AVENUE, COLUMBIA, SC, 29210","Match","Exact","1400 CACTUS AVE, COLUMBIA, SC, 29210",71865997,"L"
169023,"1400 CALIPER OAK CIRCLE APT 200","MT PLEASANT","SC",29464,32.8148197040001,-79.8388882629999,23,"1400 CALIPER OAK CIRCLE APT 200, MT PLEASANT, SC, 29464","Match","Exact","1400 CALIPER OAK CIR, MOUNT PLEASANT, SC, 29464",645443983,"R"
169024,"1400 CALIPER OAK CIRCLE APT 208","MOUNT PLEASANT","SC",29464,32.8148197040001,-79.8388882629999,24,"1400 CALIPER OAK CIRCLE APT 208, MOUNT PLEASANT, SC, 29464","Match","Exact","1400 CALIPER OAK CIR, MOUNT PLEASANT, SC, 29464",645443983,"R"
169025,"1400 CAMERO WAY","FREMONT","CA",94539,37.545407197,-121.950317179,25,"1400 CAMERO WAY, FREMONT, CA, 94539","Match","Exact","1400 CAMERO WAY, FREMONT, CA, 94539",125033233,"L"
169026,"1400 CAMERON ST","MEMPHIS","TN",38106,35.108220784,-90.049506547,26,"1400 CAMERON ST, MEMPHIS, TN, 38106","Match","Exact","1400 CAMERON ST, MEMPHIS, TN, 38106",72907520,"L"
169027,"1400 CANDLEWOOD DRIVE","PITTSBURGH","PA",15241,40.3135103170001,-80.102310696,27,"1400 CANDLEWOOD DRIVE, PITTSBURGH, PA, 15241","Match","Exact","1400 CANDLEWOOD DR, PITTSBURGH, PA, 15241",51618799,"R"
169028,"1400 CANOPY PASTURE DRIVE","SAINT CLOUD","FL",34771,28.305465559,-81.242829819,28,"1400 CANOPY PASTURE DRIVE, SAINT CLOUD, FL, 34771","Match","Exact","1400 CANOPY PASTURE DR, SAINT CLOUD, FL, 34771",640854457,"L"
169029,"1400 CARPENTIER ST APT 215","SAN LEANDRO","CA",94577,37.722481342,-122.15896916,29,"1400 CARPENTIER ST APT 215, SAN LEANDRO, CA, 94577","Match","Exact","1400 CARPENTIER ST, SAN LEANDRO, CA, 94577",606162330,"L"
169030,"1400 CASTRO STREET","SAN FRANCISCO","CA",94114,37.7504326910001,-122.434005867,30,"1400 CASTRO STREET, SAN FRANCISCO, CA, 94114","Match","Exact","1400 CASTRO ST, SAN FRANCISCO, CA, 94114",192284541,"R"
169031,"1400 CATAMARAN LN","MONUMENT","CO",80132,39.103670934,-104.852998773,31,"1400 CATAMARAN LN, MONUMENT, CO, 80132","Match","Exact","1400 CATAMARAN LN, MONUMENT, CO, 80132",105507853,"L"
169032,"1400 CATHEDRAL AVE NW APT 412","WASHINGTON","DC",20016,NA,NA,32,"1400 CATHEDRAL AVE NW APT 412, WASHINGTON, DC, 20016","No_Match",NA,NA,NA,NA
169033,"1400 CATHERINE STREET","DECATUR","GA",30030,33.751957921,-84.281151021,33,"1400 CATHERINE STREET, DECATUR, GA, 30030","Match","Exact","1400 CATHERINE ST, DECATUR, GA, 30030",23367666,"L"
169034,"1400 CENTRAL AVE APT 306","WENATCHEE","WA",98801,47.439681281,-120.33607203,34,"1400 CENTRAL AVE APT 306, WENATCHEE, WA, 98801","Match","Exact","1400 CENTRAL AVE, WENATCHEE, WA, 98801",156973809,"L"
169035,"1400 CHAPARRAL","BURKBURNETT","TX",76354,34.0794188630001,-98.589429356,35,"1400 CHAPARRAL, BURKBURNETT, TX, 76354","Match","Non_Exact","1400 CHAPARRAL RD, BURKBURNETT, TX, 76354",169837359,"L"
169036,"1400 CHATEAU LN","MANSFIELD","TX",76063,32.586012118,-97.165669801,36,"1400 CHATEAU LN, MANSFIELD, TX, 76063","Match","Exact","1400 CHATEAU LN, MANSFIELD, TX, 76063",618507787,"R"
169037,"1400 CHAUMONT CT","ARLINGTON","TX",76013,32.7226801790001,-97.178047207,37,"1400 CHAUMONT CT, ARLINGTON, TX, 76013","Match","Exact","1400 CHAUMONT CT, ARLINGTON, TX, 76013",636967802,"L"
169038,"1400 CHERRY ST","DENVER","CO",80220,39.738435472,-104.933836424,38,"1400 CHERRY ST, DENVER, CO, 80220","Match","Exact","1400 CHERRY ST, DENVER, CO, 80220",177312077,"R"
169039,"1400 CHEWS LANDING RD SUITE 3","LAUREL SPRINGS","NJ",8021,39.823467199,-75.045875499,39,"1400 CHEWS LANDING RD SUITE 3, LAUREL SPRINGS, NJ, 8021","Match","Exact","1400 CHEWS LANDING RD, LAUREL SPGS, NJ, 08021",134393061,"L"
169040,"1400 CHILDRESS ST","WELLINGTON","TX",79095,34.8500794890001,-100.217276193,40,"1400 CHILDRESS ST, WELLINGTON, TX, 79095","Match","Exact","1400 CHILDRESS ST, WELLINGTON, TX, 79095",164593237,"R"
169041,"1400 CHIPS DRIVE APT A","KILLEEN","TX",76549,31.0780129550001,-97.7632862409999,41,"1400 CHIPS DRIVE APT A, KILLEEN, TX, 76549","Match","Exact","1400 CHIPS DR, KILLEEN, TX, 76549",641531039,"L"
169042,"1400 CHURCH ST NW","WASHINGTON","DC",20005,38.9103818740001,-77.032158564,42,"1400 CHURCH ST NW, WASHINGTON, DC, 20005","Match","Exact","1400 CHURCH ST NW, WASHINGTON, DC, 20005",635190554,"L"
169043,"1400 CHURCH STREET","MACKINAC ISLAND","MI",49757,45.8511399010001,-84.6113743779999,43,"1400 CHURCH STREET, MACKINAC ISLAND, MI, 49757","Match","Exact","1400 CHURCH ST, MACKINAC ISLAND, MI, 49757",130710706,"R"
169044,"1400 CIMARRON DRIVE UNIT C","LAFAYETTE","CO",80026,39.9861126160001,-105.117382462,44,"1400 CIMARRON DRIVE UNIT C, LAFAYETTE, CO, 80026","Match","Exact","1400 CIMARRON DR, LAFAYETTE, CO, 80026",624974846,"L"
169045,"1400 CLAREWOOD DR APT 315","SAN MARCOS","TX",78666,29.88093794,-97.9198798689999,45,"1400 CLAREWOOD DR APT 315, SAN MARCOS, TX, 78666","Match","Exact","1400 CLAREWOOD DR, SAN MARCOS, TX, 78666",63825395,"L"
169046,"1400 CLARK STREET","WILKINSBURG","PA",15221,40.443882198,-79.873036484,46,"1400 CLARK STREET, WILKINSBURG, PA, 15221","Match","Exact","1400 CLARK ST, WILKINSBURG, PA, 15221",51668983,"R"
169047,"1400 CLAY AVE SW","CAIRO","GA",39828,30.878191519,-84.2262202639999,47,"1400 CLAY AVE SW, CAIRO, GA, 39828","Match","Exact","1400 CLAY AVE SW, CAIRO, GA, 39828",84356138,"L"
169048,"1400 CLAY AVENUE SW","CAIRO","GA",39828,30.878191519,-84.2262202639999,48,"1400 CLAY AVENUE SW, CAIRO, GA, 39828","Match","Exact","1400 CLAY AVE SW, CAIRO, GA, 39828",84356138,"L"
169049,"1400 CLOVER DRIVE","AMARILLO","TX",79102,35.2022520940001,-101.85308032,49,"1400 CLOVER DRIVE, AMARILLO, TX, 79102","Match","Exact","1400 CLOVER DR, AMARILLO, TX, 79102",182470843,"R"
169050,"1400 CLUB DR","TARPON SPRINGS","FL",34689,28.1640664400001,-82.745691912,50,"1400 CLUB DR, TARPON SPRINGS, FL, 34689","Match","Exact","1400 CLUB DR, TARPON SPNGS, FL, 34689",124754153,"L"
169051,"1400 COLERAIN PIKE","MARTINS FERRY","OH",43935,40.09722478,-80.735049826,51,"1400 COLERAIN PIKE, MARTINS FERRY, OH, 43935","Match","Exact","1400 COLERAIN PIKE, MARTINS FERRY, OH, 43935",635861056,"R"
169052,"1400 COLONIAL AVE APT F13","BRISTOL","PA",19007,40.1165411280001,-74.855664996,52,"1400 COLONIAL AVE APT F13, BRISTOL, PA, 19007","Match","Exact","1400 COLONIAL AVE, BRISTOL, PA, 19007",134716976,"R"
169053,"1400 COLONIAL AVE F29","BRISTOL","PA",19007,40.1165411280001,-74.855664996,53,"1400 COLONIAL AVE F29, BRISTOL, PA, 19007","Match","Exact","1400 COLONIAL AVE, BRISTOL, PA, 19007",134716976,"R"
169054,"1400 COMMONWEALTH AVENUE","TOMS RIVER","NJ",8757,40.0031517300001,-74.2561367499999,54,"1400 COMMONWEALTH AVENUE, TOMS RIVER, NJ, 8757","Match","Non_Exact","1400 COMMONWEALTH BLVD, TOMS RIVER, NJ, 08757",203722046,"R"
169055,"1400 COMMUNITY DRIVE","WACONIA","MN",55387,44.8368597310001,-93.808573912,55,"1400 COMMUNITY DRIVE, WACONIA, MN, 55387","Match","Exact","1400 COMMUNITY DR, WACONIA, MN, 55387",43517920,"L"
169056,"1400 CONLEY ROAD","RAYMONDVILLE","TX",78580,NA,NA,56,"1400 CONLEY ROAD, RAYMONDVILLE, TX, 78580","No_Match",NA,NA,NA,NA
169057,"1400 COPPERFIELD COURT","LEXINGTON","KY",40514,37.9848485420001,-84.572935963,57,"1400 COPPERFIELD COURT, LEXINGTON, KY, 40514","Match","Exact","1400 COPPERFIELD CT, LEXINGTON, KY, 40514",31933993,"R"
169058,"1400 CORONA DRIVE","AUSTIN","TX",78620,30.3108692500001,-97.701334007,58,"1400 CORONA DRIVE, AUSTIN, TX, 78620","Match","Non_Exact","1400 CORONA DR, AUSTIN, TX, 78723",63932747,"L"
169059,"1400 COUNTRY CLUB BLVD","CLIVE","IA",50325,41.6032345,-93.801566662,59,"1400 COUNTRY CLUB BLVD, CLIVE, IA, 50325","Match","Exact","1400 COUNTRY CLUB BLVD, CLIVE, IA, 50325",65853720,"L"
169060,"1400 COUNTRY CLUB LANE","RED BAY","AL",35582,34.4617239740001,-88.1506894249999,60,"1400 COUNTRY CLUB LANE, RED BAY, AL, 35582","Match","Exact","1400 COUNTRY CLUB LN, RED BAY, AL, 35582",41257775,"R"
169061,"1400 COUNTRY RIDGE DR","DESOTO","TX",75115,32.6166635210001,-96.882385589,61,"1400 COUNTRY RIDGE DR, DESOTO, TX, 75115","Match","Exact","1400 COUNTRY RIDGE DR, DESOTO, TX, 75115",102994633,"L"
169062,"1400 COUNTY ROAD 52","ELDRIDGE","AL",35554,NA,NA,62,"1400 COUNTY ROAD 52, ELDRIDGE, AL, 35554","No_Match",NA,NA,NA,NA
169063,"1400 CR 2005","LIBERTY","TX",77575,30.1304047470001,-94.755292495,63,"1400 CR 2005, LIBERTY, TX, 77575","Match","Exact","1400 CO RD 2005, LIBERTY, TX, 77575",24125845,"R"
169064,"1400 CR 2255","VALLEY VIEW","TX",76272,33.4866043960001,-97.075612081,64,"1400 CR 2255, VALLEY VIEW, TX, 76272","Match","Exact","1400 CO RD 2255, VALLEY VIEW, TX, 76272",151334193,"L"
169065,"1400 CR 961A","BRAZORIA","TX",77422,29.047160326,-95.652145721,65,"1400 CR 961A, BRAZORIA, TX, 77422","Match","Exact","1400 CO RD 961A, BRAZORIA, TX, 77422",116573126,"R"
169066,"1400 CREEDMOOR AVENUE","PITTSBURGH","PA",15226,40.389440834,-80.0126675829999,66,"1400 CREEDMOOR AVENUE, PITTSBURGH, PA, 15226","Match","Exact","1400 CREEDMOOR AVE, PITTSBURGH, PA, 15226",51637904,"R"
169067,"1400 CRESENT GREEN SUITE 120","CARY","NC",27518,NA,NA,67,"1400 CRESENT GREEN SUITE 120, CARY, NC, 27518","No_Match",NA,NA,NA,NA
169068,"1400 CRITTENDEN ROAD","ROCHESTER","NY",14623,43.104007134,-77.636490234,68,"1400 CRITTENDEN ROAD, ROCHESTER, NY, 14623","Match","Exact","1400 CRITTENDEN RD, ROCHESTER, NY, 14623",642864038,"L"
169069,"1400 CROYDON DR","CLEARWATER","FL",33756,27.933707575,-82.7785949779999,69,"1400 CROYDON DR, CLEARWATER, FL, 33756","Match","Exact","1400 CROYDON DR, CLEARWATER, FL, 33756",124674770,"L"
169070,"1400 CUTHBERTSON ROAD","WAXHAW","NC",28173,34.977287059,-80.7336622839999,70,"1400 CUTHBERTSON ROAD, WAXHAW, NC, 28173","Match","Exact","1400 CUTHBERTSON RD, WAXHAW, NC, 28173",642590139,"L"
169071,"1400 DALE BUMPERS RD","LEXA","AR",72335,34.97995359,-90.7991210229999,71,"1400 DALE BUMPERS RD, LEXA, AR, 72335","Match","Non_Exact","1400 DALE BUMPERS RD, FORREST CITY, AR, 72335",635892437,"R"
169072,"1400 DANIELLE COURT","MARION","IL",62959,NA,NA,72,"1400 DANIELLE COURT, MARION, IL, 62959","No_Match",NA,NA,NA,NA
169073,"1400 DARTMOUTH ST","BRUNSWICK","GA",31520,31.140032449,-81.484680294,73,"1400 DARTMOUTH ST, BRUNSWICK, GA, 31520","Match","Exact","1400 DARTMOUTH ST, BRUNSWICK, GA, 31520",9135123,"R"
169074,"1400 DAVIDSON COURT","AUBURN","IN",46706,41.3597724140001,-85.031620334,74,"1400 DAVIDSON COURT, AUBURN, IN, 46706","Match","Exact","1400 DAVIDSON CT, AUBURN, IN, 46706",6522279,"L"
169075,"1400 DAVIS AV","SPRINGDALE","AR",72764,36.193898484,-94.14521161,75,"1400 DAVIS AV, SPRINGDALE, AR, 72764","Match","Exact","1400 DAVIS AVE, SPRINGDALE, AR, 72764",49043024,"R"
169076,"1400 DAVIS AVENUE","SPRINGDALE","AR",72764,36.193898484,-94.14521161,76,"1400 DAVIS AVENUE, SPRINGDALE, AR, 72764","Match","Exact","1400 DAVIS AVE, SPRINGDALE, AR, 72764",49043024,"R"
169077,"1400 DEFENSE PENTAGON","WASHINGTON","DC",20301,NA,NA,77,"1400 DEFENSE PENTAGON, WASHINGTON, DC, 20301","No_Match",NA,NA,NA,NA
169078,"1400 DENNIS AVENUE","SILVER SPRING","MD",20902,39.025797835,-77.0326611259999,78,"1400 DENNIS AVENUE, SILVER SPRING, MD, 20902","Match","Exact","1400 DENNIS AVE, SILVER SPRING, MD, 20902",62064446,"L"
169079,"1400 DESERT HILLS DR","LAS VEGAS","NV",89117,36.1552033020001,-115.306611791,79,"1400 DESERT HILLS DR, LAS VEGAS, NV, 89117","Match","Exact","1400 DESERT HILLS DR, LAS VEGAS, NV, 89117",201901490,"L"
169080,"1400 DESOTO BLVD","HOT SPRINGS VILLAGE","AR",71909,NA,NA,80,"1400 DESOTO BLVD, HOT SPRINGS VILLAGE, AR, 71909","No_Match",NA,NA,NA,NA
169081,"1400 DIXON STREET","LAFAYETTE","CO",80026,39.9865687700001,-105.092750585,81,"1400 DIXON STREET, LAFAYETTE, CO, 80026","Match","Non_Exact","1400 DIXON AVE, LAFAYETTE, CO, 80026",188211799,"L"
169082,"1400 DORCHESTER AVENUE","GWYNN OAK","MD",21207,39.29974481,-76.725221012,82,"1400 DORCHESTER AVENUE, GWYNN OAK, MD, 21207","Match","Exact","1400 DORCHESTER AVE, GWYNN OAK, MD, 21207",191483898,"L"
169083,"1400 DOUGLAS STREET","OMAHA","NE",68179,41.258650555,-95.934623819,83,"1400 DOUGLAS STREET, OMAHA, NE, 68179","Match","Exact","1400 DOUGLAS ST, OMAHA, NE, 68179",116988519,"R"
169084,"1400 DRY CREEK ROAD","SCREVEN","GA",31560,31.576170394,-82.0577216199999,84,"1400 DRY CREEK ROAD, SCREVEN, GA, 31560","Match","Exact","1400 DRY CREEK RD, SCREVEN, GA, 31560",4841758,"L"
169085,"1400 DUKE AVE","MCALLEN","TX",78504,26.2769286230001,-98.2227000729999,85,"1400 DUKE AVE, MCALLEN, TX, 78504","Match","Exact","1400 DUKE AVE, MCALLEN, TX, 78504",648840206,"L"
169086,"1400 E 3RD AVE","ALBANY","GA",31705,31.5874675760001,-84.119840863,86,"1400 E 3RD AVE, ALBANY, GA, 31705","Match","Exact","1400 E 3RD AVE, ALBANY, GA, 31705",84316355,"R"
169087,"1400 E 450 S","LAGRANGE","IN",46761,41.5774915760001,-85.3987630679999,87,"1400 E 450 S, LAGRANGE, IN, 46761","Match","Exact","1400 E 450 S, LAGRANGE, IN, 46761",8188178,"L"
169088,"1400 E 57TH ST APT 403","CHICAGO","IL",60637,41.7915069950001,-87.591555547,88,"1400 E 57TH ST APT 403, CHICAGO, IL, 60637","Match","Non_Exact","1400 E 57TH ST, CHICAGO, IL, 60637",605537232,"L"
169089,"1400 E 8TH ST APT 2","SIOUX FALLS","SD",57103,43.548502684,-96.708796427,89,"1400 E 8TH ST APT 2, SIOUX FALLS, SD, 57103","Match","Non_Exact","1400 E 8TH ST, SIOUX FALLS, SD, 57103",34973692,"L"
169090,"1400 E 9TH STREET","ROCHESTER","IN",46975,41.0617100210001,-86.196679043,90,"1400 E 9TH STREET, ROCHESTER, IN, 46975","Match","Exact","1400 E 9TH ST, ROCHESTER, IN, 46975",7846067,"R"
169091,"1400 E CORNWALLIS RD1922B","DURHAM","NC",27713,NA,NA,91,"1400 E CORNWALLIS RD1922B, DURHAM, NC, 27713","No_Match",NA,NA,NA,NA
169092,"1400 E DOWNING","TAHLEQUAH","OK",74464,35.915352355,-94.9499332509999,92,"1400 E DOWNING, TAHLEQUAH, OK, 74464","Match","Non_Exact","1400 E DOWNING ST, TAHLEQUAH, OK, 74464",53645045,"L"
169093,"1400 E ELIZABETH AVE","LINDEN","NJ",7036,40.6438858380001,-74.238415705,93,"1400 E ELIZABETH AVE, LINDEN, NJ, 7036","Match","Exact","1400 E ELIZABETH AVE, LINDEN, NJ, 07036",60579753,"R"
169094,"1400 E FAIRY CHASM","BAYSIDE","WI",53217,43.183838259,-87.891224796,94,"1400 E FAIRY CHASM, BAYSIDE, WI, 53217","Match","Non_Exact","1400 E FAIRY CHASM RD, BAYSIDE, WI, 53217",77736748,"L"
169095,"1400 E GRANT AVE","VINELAND","NJ",8361,39.4490880540001,-75.002872273,95,"1400 E GRANT AVE, VINELAND, NJ, 8361","Match","Exact","1400 E GRANT AVE, VINELAND, NJ, 08361",636220537,"L"
169096,"1400 E HANNA AVE","INDIANAPOLIS","IN",46227,NA,NA,96,"1400 E HANNA AVE, INDIANAPOLIS, IN, 46227","No_Match",NA,NA,NA,NA
169097,"1400 E JOHNSON AVENUE APT 426","PENSACOLA","FL",32514,30.518924123,-87.233168194,97,"1400 E JOHNSON AVENUE APT 426, PENSACOLA, FL, 32514","Match","Non_Exact","1400 E JOHNSON AVE, PENSACOLA, FL, 32514",93276885,"L"
169098,"1400 E L SAUNDERS DRIVE","WAYCROSS","GA",31501,31.2266573470001,-82.358094896,98,"1400 E L SAUNDERS DRIVE, WAYCROSS, GA, 31501","Match","Exact","1400 E L SAUNDERS DR, WAYCROSS, GA, 31501",5236807,"R"
169099,"1400 E LEE STREET","PENSACOLA","FL",32503,30.430038858,-87.200858347,99,"1400 E LEE STREET, PENSACOLA, FL, 32503","Match","Exact","1400 E LEE ST, PENSACOLA, FL, 32503",93221880,"L"
169100,"1400 E MEADOWVIEW DRIVE","OAK CREEK","WI",53154,42.855824673,-87.89570656,100,"1400 E MEADOWVIEW DRIVE, OAK CREEK, WI, 53154","Match","Exact","1400 MEADOWVIEW DR, OAK CREEK, WI, 53154",77723265,"L"
169101,"1400 E MICHIGAN AVENUE","LANSING","MI",48912,42.733599934,-84.531123855,101,"1400 E MICHIGAN AVENUE, LANSING, MI, 48912","Match","Exact","1400 E MICHIGAN AVE, LANSING, MI, 48912",17499626,"R"
169102,"1400 E NINE MILE ROAD STE 50","HIGHLAND SPRINGS","VA",23075,37.5356946590001,-77.318186205,102,"1400 E NINE MILE ROAD STE 50, HIGHLAND SPRINGS, VA, 23075","Match","Non_Exact","1400 E NINE MILE RD, HIGHLAND SPGS, VA, 23075",106666830,"L"
169103,"1400 E PALM CANYON DR      APT 216","PALM SPRINGS","CA",92264,NA,NA,103,"1400 E PALM CANYON DR      APT 216, PALM SPRINGS, CA, 92264","Tie",NA,NA,NA,NA
169104,"1400 E PITKIN ST","FORT COLLINS","CO",80524,40.570291141,-105.053574476,104,"1400 E PITKIN ST, FORT COLLINS, CO, 80524","Match","Exact","1400 E PITKIN ST, FORT COLLINS, CO, 80524",188492256,"L"
169105,"1400 E PRAIRIE VIEW DR","OAK CREEK","WI",53154,42.8670671890001,-87.895378012,105,"1400 E PRAIRIE VIEW DR, OAK CREEK, WI, 53154","Match","Exact","1400 E PRAIRIE VIEW DR, OAK CREEK, WI, 53154",624756187,"R"
169106,"1400 E ROSS AVENUE","ALHAMBRA","CA",91801,34.0725201280001,-118.109338163,106,"1400 E ROSS AVENUE, ALHAMBRA, CA, 91801","Match","Exact","1400 E ROSS AVE, ALHAMBRA, CA, 91801",142689639,"R"
169107,"1400 E SIESTA DRIVE","FLORENCE","SC",29505,34.170499314,-79.7595614259999,107,"1400 E SIESTA DRIVE, FLORENCE, SC, 29505","Match","Exact","1400 E SIESTA DR, FLORENCE, SC, 29505",28910910,"L"
169108,"1400 E SOUTHERN AVE STE 400","TEMPE","AZ",85282,NA,NA,108,"1400 E SOUTHERN AVE STE 400, TEMPE, AZ, 85282","Tie",NA,NA,NA,NA
169109,"1400 E SOUTHERN AVE SUITE 400","TEMPE","AZ",85282,NA,NA,109,"1400 E SOUTHERN AVE SUITE 400, TEMPE, AZ, 85282","Tie",NA,NA,NA,NA
169110,"1400 E SOUTHERN AVE","TEMPE","AZ",85282,33.3930173750001,-111.915479899,110,"1400 E SOUTHERN AVE, TEMPE, AZ, 85282","Match","Exact","1400 E SOUTHERN AVE, TEMPE, AZ, 85282",128922906,"L"
169111,"1400 E WALNUT ST","GOLDSBORO","NC",27530,35.377496976,-77.976894548,111,"1400 E WALNUT ST, GOLDSBORO, NC, 27530","Match","Exact","1400 E WALNUT ST, GOLDSBORO, NC, 27530",14405142,"R"
169112,"1400 E WEST HWY APT 304","SILVER SPRING","MD",20910,38.993716856,-77.032426044,112,"1400 E WEST HWY APT 304, SILVER SPRING, MD, 20910","Match","Non_Exact","1400 E WEST HWY, SILVER SPRING, MD, 20910",62067878,"L"
169113,"1400 EAST 30TH STREET","CLEVELAND","OH",44114,41.5114891010001,-81.671538504,113,"1400 EAST 30TH STREET, CLEVELAND, OH, 44114","Match","Exact","1400 E 30TH ST, CLEVELAND, OH, 44114",625399570,"R"
169114,"1400 EAST 55TH PLACE","CHICAGO","IL",60637,41.7949458940001,-87.5892932149999,114,"1400 EAST 55TH PLACE, CHICAGO, IL, 60637","Match","Exact","1400 E 55TH PL, CHICAGO, IL, 60637",111771946,"L"
169115,"1400 EAST BLVD","DEER PARK","TX",77536,NA,NA,115,"1400 EAST BLVD, DEER PARK, TX, 77536","No_Match",NA,NA,NA,NA
169116,"1400 EAST HANNA","INDIANAPOLIS","IN",46227,NA,NA,116,"1400 EAST HANNA, INDIANAPOLIS, IN, 46227","No_Match",NA,NA,NA,NA
169117,"1400 EAST HIGHWAY 50","OFALLON","IL",62269,38.5809298280001,-89.8877649629999,117,"1400 EAST HIGHWAY 50, OFALLON, IL, 62269","Match","Non_Exact","1400 E US HWY 50, O FALLON, IL, 62269",107933981,"R"
169118,"1400 EAST NEW YORK AVE 4A","BROOKLYN","NY",11212,40.6701267230001,-73.915790353,118,"1400 EAST NEW YORK AVE 4A, BROOKLYN, NY, 11212","Match","Exact","1400 E NEW YORK AVE, BROOKLYN, NY, 11212",59083806,"R"
169119,"1400 EAST TWIN LAKES DRIVE","LITTLE ROCK","AR",72205,34.740339722,-92.379190511,119,"1400 EAST TWIN LAKES DRIVE, LITTLE ROCK, AR, 72205","Match","Exact","1400 E TWIN LAKES DR, LITTLE ROCK, AR, 72205",83501283,"R"
169120,"1400 EAST WEST HIGHWAY  817","SILVER SPRINGS","MD",2910,NA,NA,120,"1400 EAST WEST HIGHWAY  817, SILVER SPRINGS, MD, 2910","No_Match",NA,NA,NA,NA
169121,"1400 EAST WEST HIGHWAY APT 1419","SILVER SPRINGS","MD",20910,38.993716856,-77.032426044,121,"1400 EAST WEST HIGHWAY APT 1419, SILVER SPRINGS, MD, 20910","Match","Exact","1400 E WEST HWY, SILVER SPRING, MD, 20910",62067878,"L"
169122,"1400 EAST WEST HIGHWAY APT 1420","SILVER SPRING","MD",20910,38.993716856,-77.032426044,122,"1400 EAST WEST HIGHWAY APT 1420, SILVER SPRING, MD, 20910","Match","Exact","1400 E WEST HWY, SILVER SPRING, MD, 20910",62067878,"L"
169123,"1400 EAST WEST HIGHWAY","SILVER SPRING","MD",20910,38.993716856,-77.032426044,123,"1400 EAST WEST HIGHWAY, SILVER SPRING, MD, 20910","Match","Exact","1400 E WEST HWY, SILVER SPRING, MD, 20910",62067878,"L"
169124,"1400 EAST WEST HWY NO 302","SILVER SPRING","MD",20910,38.993716856,-77.032426044,124,"1400 EAST WEST HWY NO 302, SILVER SPRING, MD, 20910","Match","Non_Exact","1400 E WEST HWY, SILVER SPRING, MD, 20910",62067878,"L"
169125,"1400 EASTCREST DRIVE","CHARLOTTE","NC",28201,35.2133233120001,-80.794496345,125,"1400 EASTCREST DRIVE, CHARLOTTE, NC, 28201","Match","Non_Exact","1400 EASTCREST DR, CHARLOTTE, NC, 28205",640628862,"L"
169126,"1400 EASTSHORE DRIVE","ALAMEDA","CA",94501,37.7549919410001,-122.227247894,126,"1400 EASTSHORE DRIVE, ALAMEDA, CA, 94501","Match","Exact","1400 EASTSHORE DR, ALAMEDA, CA, 94501",125007051,"R"
169127,"1400 ECHO LAKE RD","BIGFORK","MT",59911,48.1285334200001,-114.027560157,127,"1400 ECHO LAKE RD, BIGFORK, MT, 59911","Match","Exact","1400 ECHO LAKE RD, BIGFORK, MT, 59911",204099004,"R"
169128,"1400 EDGEHILL DRIVE","BURLINGAME","CA",94010,37.5820709450001,-122.35980591,128,"1400 EDGEHILL DRIVE, BURLINGAME, CA, 94010","Match","Exact","1400 EDGEHILL DR, BURLINGAME, CA, 94010",192376344,"R"
169129,"1400 EIGHT AVENUE","FORT WORTH","TX",76104,32.7298447310001,-97.343716034,129,"1400 EIGHT AVENUE, FORT WORTH, TX, 76104","Match","Exact","1400 8TH AVE, FORT WORTH, TX, 76104",647845356,"R"
169130,"1400 EL CAMINO REAL APT 323 SO","SAN FRANCISCO","CA",94080,37.6577754260001,-122.438097629,130,"1400 EL CAMINO REAL APT 323 SO, SAN FRANCISCO, CA, 94080","Match","Non_Exact","1400 S EL CAMINO REAL, S SAN FRAN, CA, 94080",645882678,"R"
169131,"1400 EL CAMINO VILLAGE DR APT 1704","HOUSTON","TX",77058,NA,NA,131,"1400 EL CAMINO VILLAGE DR APT 1704, HOUSTON, TX, 77058","No_Match",NA,NA,NA,NA
169132,"1400 EL","HOUSTON","TX",77058,NA,NA,132,"1400 EL, HOUSTON, TX, 77058","No_Match",NA,NA,NA,NA
169133,"1400 ELM DRIVE","CRESTON","IA",50801,41.0734229500001,-94.365137363,133,"1400 ELM DRIVE, CRESTON, IA, 50801","Match","Exact","1400 ELM DR, CRESTON, IA, 50801",75231948,"L"
169134,"1400 EMELINE AVE BLDG K 1ST FLOOR","SANTA CRUZ","CA",95060,36.992563095,-122.017579535,134,"1400 EMELINE AVE BLDG K 1ST FLOOR, SANTA CRUZ, CA, 95060","Match","Exact","1400 EMELINE AVE, SANTA CRUZ, CA, 95060",125505787,"R"
169135,"1400 EMERSON STREET NW","WASHINGTON","DC",20011,38.9497325510001,-77.033354241,135,"1400 EMERSON STREET NW, WASHINGTON, DC, 20011","Match","Exact","1400 EMERSON ST NW, WASHINGTON, DC, 20011",76222424,"L"
169136,"1400 ENCHANTED LANE","LANCASTER","TX",75146,32.5790284670001,-96.7855654159999,136,"1400 ENCHANTED LANE, LANCASTER, TX, 75146","Match","Exact","1400 ENCHANTED LN, LANCASTER, TX, 75146",102955278,"L"
169137,"1400 EUCLID ST NW APT 6","WASHINGTON","DC",20009,38.923619871,-77.032285402,137,"1400 EUCLID ST NW APT 6, WASHINGTON, DC, 20009","Match","Exact","1400 EUCLID ST NW, WASHINGTON, DC, 20009",76223147,"L"
169138,"1400 FAIRMONT STREET  NW","WASHINGTON","DC",20009,38.9245269200001,-77.032369865,138,"1400 FAIRMONT STREET  NW, WASHINGTON, DC, 20009","Match","Exact","1400 FAIRMONT ST NW, WASHINGTON, DC, 20009",76223143,"L"
169139,"1400 FARRELL AVENUE","SOUTH BEND","IN",46615,41.669096428,-86.2257649269999,139,"1400 FARRELL AVENUE, SOUTH BEND, IN, 46615","Match","Non_Exact","1400 FARRELL LN, SOUTH BEND, IN, 46615",8075577,"L"
169140,"1400 FAWN RD","GREENWOOD","DE",19950,NA,NA,140,"1400 FAWN RD, GREENWOOD, DE, 19950","No_Match",NA,NA,NA,NA
169141,"1400 FLAT SHOALS ROAD","ATLANTA","GA",30349,33.5979752110001,-84.435329843,141,"1400 FLAT SHOALS ROAD, ATLANTA, GA, 30349","Match","Exact","1400 FLAT SHOALS RD, ATLANTA, GA, 30349",636086572,"L"
169142,"1400 FLORIDA AVENUE NE 101","WASHINGTON","DC",20002,38.900417572,-76.984629105,142,"1400 FLORIDA AVENUE NE 101, WASHINGTON, DC, 20002","Match","Exact","1400 FLORIDA AVE NE, WASHINGTON, DC, 20002",641473355,"L"
169143,"1400 FOREST COVE DRIVE","MOBILE","AL",36618,30.718387405,-88.1485521339999,143,"1400 FOREST COVE DRIVE, MOBILE, AL, 36618","Match","Exact","1400 FOREST COVE DR, MOBILE, AL, 36618",640527067,"R"
169144,"1400 FOUNDERS WAY","HARRISONBURG","VA",22802,38.450528772,-78.839887587,144,"1400 FOUNDERS WAY, HARRISONBURG, VA, 22802","Match","Exact","1400 FOUNDERS WAY, HARRISONBURG, VA, 22802",626159832,"R"
169145,"1400 FRUIT COVE ROAD N","FRUIT COVE","FL",32259,30.121009697,-81.630213297,145,"1400 FRUIT COVE ROAD N, FRUIT COVE, FL, 32259","Match","Exact","1400 FRUIT COVE RD N, FRUIT COVE, FL, 32259",640411532,"R"
169146,"1400 FULTON AVE STE 5","SACRAMENTO","CA",95825,38.5912243550001,-121.401443032,146,"1400 FULTON AVE STE 5, SACRAMENTO, CA, 95825","Match","Exact","1400 FULTON AVE, SACRAMENTO, CA, 95825",133335639,"R"
169147,"1400 GANDY BLVD 706","ST  PETERSBURG","FL",33702,NA,NA,147,"1400 GANDY BLVD 706, ST  PETERSBURG, FL, 33702","No_Match",NA,NA,NA,NA
169148,"1400 GEORGE F WEST SR BLVD","NATCHEZ","MS",39120,31.570884908,-91.381100873,148,"1400 GEORGE F WEST SR BLVD, NATCHEZ, MS, 39120","Match","Exact","1400 GEORGE F WEST SR BLVD, NATCHEZ, MS, 39120",79852706,"L"
169149,"1400 GOVERNORS DRIVE","CORSICANA","TX",75110,32.0950752480001,-96.48948617,149,"1400 GOVERNORS DRIVE, CORSICANA, TX, 75110","Match","Exact","1400 GOVERNORS DR, CORSICANA, TX, 75110",183885378,"L"
169150,"1400 GOVERNORS RIDGE CT","FRANKLIN","TN",37064,35.8998464090001,-86.840634074,150,"1400 GOVERNORS RIDGE CT, FRANKLIN, TN, 37064","Match","Exact","1400 GOVERNORS RIDGE, FRANKLIN, TN, 37064",73123253,"R"
169151,"1400 GRANBY ST","NORFOLK","VA",23510,36.8624388800001,-76.2873238669999,151,"1400 GRANBY ST, NORFOLK, VA, 23510","Match","Exact","1400 GRANBY ST, NORFOLK, VA, 23510",122127553,"R"
169152,"1400 GRANDVIEW AVENUE","MCKEESPORT","PA",15132,40.343530951,-79.836533031,152,"1400 GRANDVIEW AVENUE, MCKEESPORT, PA, 15132","Match","Exact","1400 GRANDVIEW AVE, MCKEESPORT, PA, 15132",51678425,"R"
169153,"1400 GRANT 53","SHERIDAN","AR",72150,34.4528069790001,-92.35177041,153,"1400 GRANT 53, SHERIDAN, AR, 72150","Match","Exact","1400 GRANT 53, SHERIDAN, AR, 72150",624341677,"R"
169154,"1400 GRAY HIGHWAY APARTMENT 301","MACON","GA",31211,32.8613798170001,-83.6138263839999,154,"1400 GRAY HIGHWAY APARTMENT 301, MACON, GA, 31211","Match","Exact","1400 GRAY HWY, MACON, GA, 31211",81084494,"L"
169155,"1400 GRAY HWY  APT 803","MACON","GA",31211,32.8613798170001,-83.6138263839999,155,"1400 GRAY HWY  APT 803, MACON, GA, 31211","Match","Exact","1400 GRAY HWY, MACON, GA, 31211",81084494,"L"
169156,"1400 GREEN OAKS LANE","CHARLOTTE","NC",28205,35.2129238480001,-80.794457245,156,"1400 GREEN OAKS LANE, CHARLOTTE, NC, 28205","Match","Exact","1400 GREEN OAKS LN, CHARLOTTE, NC, 28205",648307523,"R"
169157,"1400 GREENMOUNT AVE","BALTIMORE","MD",21202,NA,NA,157,"1400 GREENMOUNT AVE, BALTIMORE, MD, 21202","No_Match",NA,NA,NA,NA
169158,"1400 GREENMOUNT","BALTIMORE","MD",21202,NA,NA,158,"1400 GREENMOUNT, BALTIMORE, MD, 21202","No_Match",NA,NA,NA,NA
169159,"1400 GROVE ST NE","CANTON","OH",44721,40.87264215,-81.3559939789999,159,"1400 GROVE ST NE, CANTON, OH, 44721","Match","Exact","1400 GROVE ST NE, CANTON, OH, 44721",64676748,"R"
169160,"1400 GULF BLVD 1B","INDIAN ROCKS BEACH","FL",33785,27.896650939,-82.8486278789999,160,"1400 GULF BLVD 1B, INDIAN ROCKS BEACH, FL, 33785","Match","Exact","1400 GULF BLVD, INDIAN ROCKS BEACH, FL, 33785",124663180,"L"
169161,"1400 H C MATHIS DR","PADUCAH","KY",42001,NA,NA,161,"1400 H C MATHIS DR, PADUCAH, KY, 42001","No_Match",NA,NA,NA,NA
169162,"1400 H LINE 1705","DALLAS","TX",75207,NA,NA,162,"1400 H LINE 1705, DALLAS, TX, 75207","No_Match",NA,NA,NA,NA
169163,"1400 HALLMAN ROAD","ABINGTON","PA",19001,40.137681495,-75.1424501339999,163,"1400 HALLMAN ROAD, ABINGTON, PA, 19001","Match","Exact","1400 HALLMAN RD, ABINGTON, PA, 19001",135092078,"L"
169164,"1400 HAMBLEN WAY","COOL","CA",94614,38.8783025060001,-121.000752474,164,"1400 HAMBLEN WAY, COOL, CA, 94614","Match","Non_Exact","1400 HAMBLEN WAY, COOL, CA, 95614",133072989,"L"
169165,"1400 HANSEN DRIVE","WILLMAR","MN",56201,45.1070473120001,-95.063254123,165,"1400 HANSEN DRIVE, WILLMAR, MN, 56201","Match","Non_Exact","1400 HANSEN DR SW, WILLMAR, MN, 56201",36712459,"L"
169166,"1400 HARMONY DRIVE","WADSWORTH","OH",44281,41.0605212150001,-81.731639397,166,"1400 HARMONY DRIVE, WADSWORTH, OH, 44281","Match","Exact","1400 HARMONY DR, WADSWORTH, OH, 44281",58690855,"L"
169167,"1400 HARMONY LANE","FULLERTON","CA",92831,33.8822698050001,-117.902976216,167,"1400 HARMONY LANE, FULLERTON, CA, 92831","Match","Exact","1400 HARMONY LN, FULLERTON, CA, 92831",144009048,"R"
169168,"1400 HARTFORD TURNPIKE UNIT 30","NORTH HAVEN","CT",6473,41.3880635200001,-72.879084088,168,"1400 HARTFORD TURNPIKE UNIT 30, NORTH HAVEN, CT, 6473","Match","Exact","1400 HARTFORD TPKE, NORTH HAVEN, CT, 06473",639745974,"L"
169169,"1400 HAWK VALLEY DR","LITTLE ELM","TX",75068,33.2077528250001,-96.925920629,169,"1400 HAWK VALLEY DR, LITTLE ELM, TX, 75068","Match","Exact","1400 HAWK VALLEY DR, LITTLE ELM, TX, 75068",629557552,"R"
169170,"1400 HAWTHORNE ST","HOUSTON","TX",77006,29.742319212,-95.395906252,170,"1400 HAWTHORNE ST, HOUSTON, TX, 77006","Match","Exact","1400 HAWTHORNE ST, HOUSTON, TX, 77006",96064445,"R"
169171,"1400 HEADLEE HEIGHTS","SEARCY","AR",72143,NA,NA,171,"1400 HEADLEE HEIGHTS, SEARCY, AR, 72143","Tie",NA,NA,NA,NA
169172,"1400 HEAVEN SENT LANE","CLEARWATER","FL",33755,27.9855875970001,-82.779415988,172,"1400 HEAVEN SENT LANE, CLEARWATER, FL, 33755","Match","Exact","1400 HEAVEN SENT LN, CLEARWATER, FL, 33755",124732341,"L"
169173,"1400 HELEN DRIVE 101","SHARON HILL","PA",19079,NA,NA,173,"1400 HELEN DRIVE 101, SHARON HILL, PA, 19079","No_Match",NA,NA,NA,NA
169174,"1400 HELEN DRIVE APT 101","NEWARK","DE",19702,39.674362554,-75.660278751,174,"1400 HELEN DRIVE APT 101, NEWARK, DE, 19702","Match","Exact","1400 HELEN DR, NEWARK, DE, 19702",649457848,"R"
169175,"1400 HELEN DRIVE UNIT 104","NEWARK","DE",19702,39.674362554,-75.660278751,175,"1400 HELEN DRIVE UNIT 104, NEWARK, DE, 19702","Match","Exact","1400 HELEN DR, NEWARK, DE, 19702",649457848,"R"
169176,"1400 HERBERT DR APT B","LORAIN","OH",44053,41.4197094240001,-82.190040758,176,"1400 HERBERT DR APT B, LORAIN, OH, 44053","Match","Exact","1400 HERBERT DR, LORAIN, OH, 44053",55448995,"R"
169177,"1400 HERMANN DRIVE","HOUSTON","TX",77004,NA,NA,177,"1400 HERMANN DRIVE, HOUSTON, TX, 77004","No_Match",NA,NA,NA,NA
169178,"1400 HERRINGTON RD SUITE 11307","LAWRENCEVILLE","GA",30044,33.958877214,-84.0808163149999,178,"1400 HERRINGTON RD SUITE 11307, LAWRENCEVILLE, GA, 30044","Match","Exact","1400 HERRINGTON RD, LAWRENCEVILLE, GA, 30044",624502114,"R"
169179,"1400 HERRINGTON ROAD","LAWRENCEVILLE","GA",30044,33.958877214,-84.0808163149999,179,"1400 HERRINGTON ROAD, LAWRENCEVILLE, GA, 30044","Match","Exact","1400 HERRINGTON RD, LAWRENCEVILLE, GA, 30044",624502114,"R"
169180,"1400 HERRINGTON/APT 22107","LAWRENCEVILLE","GA",30044,NA,NA,180,"1400 HERRINGTON/APT 22107, LAWRENCEVILLE, GA, 30044","No_Match",NA,NA,NA,NA
169181,"1400 HI LINE APT 2219","DALLAS","TX",75207,NA,NA,181,"1400 HI LINE APT 2219, DALLAS, TX, 75207","No_Match",NA,NA,NA,NA
169182,"1400 HI LINE DRIVE 2216","DALLAS","TX",75207,NA,NA,182,"1400 HI LINE DRIVE 2216, DALLAS, TX, 75207","No_Match",NA,NA,NA,NA
169183,"1400 HIGHLAND DRIVE","SAN MARCOS","TX",78666,29.8968879920001,-97.949157922,183,"1400 HIGHLAND DRIVE, SAN MARCOS, TX, 78666","Match","Exact","1400 HIGHLAND DR, SAN MARCOS, TX, 78666",63810581,"R"
169184,"1400 HIGHLANDS CT E","COLUMBIA","MO",65023,NA,NA,184,"1400 HIGHLANDS CT E, COLUMBIA, MO, 65023","No_Match",NA,NA,NA,NA
169185,"1400 HIGHWAY 71","INTERNATIONAL FALLS","MN",56649,NA,NA,185,"1400 HIGHWAY 71, INTERNATIONAL FALLS, MN, 56649","No_Match",NA,NA,NA,NA
169186,"1400 HOLIDAY HILL ROAD","GOLETA","CA",93117,34.463072562,-119.832467061,186,"1400 HOLIDAY HILL ROAD, GOLETA, CA, 93117","Match","Exact","1400 HOLIDAY HILL RD, GOLETA, CA, 93117",108622987,"R"
169187,"1400 HOLLYBRIAR DR APT 115","GAHANNA","OH",43230,NA,NA,187,"1400 HOLLYBRIAR DR APT 115, GAHANNA, OH, 43230","No_Match",NA,NA,NA,NA
169188,"1400 HOLLYBRIER DRIVE","GAHANNA","OH",43230,NA,NA,188,"1400 HOLLYBRIER DRIVE, GAHANNA, OH, 43230","No_Match",NA,NA,NA,NA
169189,"1400 HOOD CIRCLE APT 205","MARTINSBURG","WV",25403,NA,NA,189,"1400 HOOD CIRCLE APT 205, MARTINSBURG, WV, 25403","No_Match",NA,NA,NA,NA
169190,"1400 HOVAS LN","BROOKSHIRE","TX",77423,29.7669423090001,-95.9573172949999,190,"1400 HOVAS LN, BROOKSHIRE, TX, 77423","Match","Non_Exact","1400 HOVAS, BROOKSHIRE, TX, 77423",649066098,"R"
169191,"1400 HUBBELL PL 1204","SEATTLE","WA",98101,47.6116409790001,-122.330154848,191,"1400 HUBBELL PL 1204, SEATTLE, WA, 98101","Match","Exact","1400 HUBBELL PL, SEATTLE, WA, 98101",186589759,"R"
169192,"1400 HUNTOON AVE","LOUISVILLE","KY",40118,38.1718114230001,-85.784835229,192,"1400 HUNTOON AVE, LOUISVILLE, KY, 40118","Match","Non_Exact","1400 HUNTOON AVE, LOUISVILLE, KY, 40215",96848252,"L"
169193,"1400 HW 41 NORTH SUITE 2723","INVERNESS","FL",34451,NA,NA,193,"1400 HW 41 NORTH SUITE 2723, INVERNESS, FL, 34451","No_Match",NA,NA,NA,NA
169194,"1400 HW 41 NORTH SUITE 2723","IVERNESS","FL",34451,NA,NA,194,"1400 HW 41 NORTH SUITE 2723, IVERNESS, FL, 34451","No_Match",NA,NA,NA,NA
169195,"1400 HWY 368","GRAND JUNCTION","TN",38039,35.069879959,-89.1871705039999,195,"1400 HWY 368, GRAND JUNCTION, TN, 38039","Match","Non_Exact","1400 STATE RTE 368, GRAND JCT, TN, 38039",21121289,"R"
169196,"1400 HWY 41N STE 2801","INVERNESS","FL",34450,NA,NA,196,"1400 HWY 41N STE 2801, INVERNESS, FL, 34450","No_Match",NA,NA,NA,NA
169197,"1400 HWY 82 W BOX 7258","ITTA BENA","MS",38941,33.5072263920001,-90.339751249,197,"1400 HWY 82 W BOX 7258, ITTA BENA, MS, 38941","Match","Non_Exact","1400 HWY 82 W, ITTA BENA, MS, 38941",1062964,"L"
169198,"1400 HWY 82 W MVSU 7258","ITTA BENA","MS",38941,33.5072263920001,-90.339751249,198,"1400 HWY 82 W MVSU 7258, ITTA BENA, MS, 38941","Match","Non_Exact","1400 HWY 82 W, ITTA BENA, MS, 38941",1062964,"L"
169199,"1400 IDLEWILD","COLUMBUS","OH",43232,39.948603274,-82.832015548,199,"1400 IDLEWILD, COLUMBUS, OH, 43232","Match","Non_Exact","1400 IDLEWILD DR, COLUMBUS, OH, 43232",218647873,"L"
169200,"1400 ILLINOIS PLACE","UPPER MARLBORO","MD",20774,38.870196515,-76.8277090399999,200,"1400 ILLINOIS PLACE, UPPER MARLBORO, MD, 20774","Match","Exact","1400 ILLINOIS PL, UPPER MARLBORO, MD, 20774",76346506,"R"
169201,"1400 INDEPENDENCE WAY","CHARLOTTESVILLE","VA",22902,37.99857603,-78.489524508,201,"1400 INDEPENDENCE WAY, CHARLOTTESVILLE, VA, 22902","Match","Exact","1400 INDEPENDENCE WAY, CHARLOTTESVILLE, VA, 22902",83386949,"L"
169202,"1400 INGLEWOOD DR","CLEVELAND HTS","OH",44121,41.521802979,-81.54821221,202,"1400 INGLEWOOD DR, CLEVELAND HTS, OH, 44121","Match","Exact","1400 INGLEWOOD DR, CLEVELAND HEIGHTS, OH, 44121",61125043,"R"
169203,"1400 INGRAHAM STREET NW","WASHINGTON","DC",20011,38.954082069,-77.0335520089999,203,"1400 INGRAHAM STREET NW, WASHINGTON, DC, 20011","Match","Exact","1400 INGRAHAM ST NW, WASHINGTON, DC, 20011",641520597,"L"
169204,"1400 IRISHTOWN ROAD","NEW OXFORD","PA",17350,39.842598073,-77.0504977589999,204,"1400 IRISHTOWN ROAD, NEW OXFORD, PA, 17350","Match","Exact","1400 IRISHTOWN RD, NEW OXFORD, PA, 17350",60876805,"L"
169205,"1400 IRVING ST APT 316","WASHINGTON","DC",20010,38.928792102,-77.032771091,205,"1400 IRVING ST APT 316, WASHINGTON, DC, 20010","Match","Non_Exact","1400 IRVING ST NW, WASHINGTON, DC, 20010",76222990,"L"
169206,"1400 IRVING ST NW 131","WASHINGTON","DC",20010,38.928792102,-77.032771091,206,"1400 IRVING ST NW 131, WASHINGTON, DC, 20010","Match","Exact","1400 IRVING ST NW, WASHINGTON, DC, 20010",76222990,"L"
169207,"1400 IRVING ST NW 625","WASHINGTON DC","DC",20010,38.928792102,-77.032771091,207,"1400 IRVING ST NW 625, WASHINGTON DC, DC, 20010","Match","Exact","1400 IRVING ST NW, WASHINGTON, DC, 20010",76222990,"L"
169208,"1400 IRVING STREET STE 249","WASHINGTON","DC",20010,38.928792102,-77.032771091,208,"1400 IRVING STREET STE 249, WASHINGTON, DC, 20010","Match","Non_Exact","1400 IRVING ST NW, WASHINGTON, DC, 20010",76222990,"L"
169209,"1400 JACK WARNER PKWY NE","TUSCALOOSA","AL",35404,33.2325365630001,-87.505374177,209,"1400 JACK WARNER PKWY NE, TUSCALOOSA, AL, 35404","Match","Exact","1400 JACK WARNER PKWY NE, TUSCALOOSA, AL, 35404",82203398,"L"
169210,"1400 JACKIE ROBINSON PL","ROUND ROCK","TX",78665,30.5375466740001,-97.621962465,210,"1400 JACKIE ROBINSON PL, ROUND ROCK, TX, 78665","Match","Exact","1400 JACKIE ROBINSON PL, ROUND ROCK, TX, 78665",126474582,"R"
169211,"1400 JIM HAMILTON BLVD","COLUMBIA","SC",29205,33.9769403720001,-81.0015081509999,211,"1400 JIM HAMILTON BLVD, COLUMBIA, SC, 29205","Match","Exact","1400 JIM HAMILTON BLVD, COLUMBIA, SC, 29205",629969958,"L"
169212,"1400 JOHN R LYNCH ST PO BOX 17569","JACKSON","MS",39217,32.297526706,-90.206144461,212,"1400 JOHN R LYNCH ST PO BOX 17569, JACKSON, MS, 39217","Match","Exact","1400 JOHN R LYNCH ST, JACKSON, MS, 39217",647875433,"R"
169213,"1400 JR LYNCH ST","JACKSON","MS",39217,32.2977540530001,-90.211168231,213,"1400 JR LYNCH ST, JACKSON, MS, 39217","Match","Non_Exact","1400 J R LYNCH ST, JACKSON, MS, 39217",615829854,"R"
169214,"1400 JR LYNCH STREET","JACKSON","MS",39217,32.2977540530001,-90.211168231,214,"1400 JR LYNCH STREET, JACKSON, MS, 39217","Match","Non_Exact","1400 J R LYNCH ST, JACKSON, MS, 39217",615829854,"R"
169215,"1400 KELLY PLACE","NEWPORT","NV",28570,NA,NA,215,"1400 KELLY PLACE, NEWPORT, NV, 28570","No_Match",NA,NA,NA,NA
169216,"1400 KEMPNER PARK DRIVE","ROBINSON","TX",76706,31.4588894560001,-97.135058538,216,"1400 KEMPNER PARK DRIVE, ROBINSON, TX, 76706","Match","Exact","1400 KEMPNER PARK DR, ROBINSON, TX, 76706",146789051,"R"
169217,"1400 KENDRICK ROAD","GASTONIA","NC",28056,35.21496281,-81.151197667,217,"1400 KENDRICK ROAD, GASTONIA, NC, 28056","Match","Exact","1400 KENDRICK RD, GASTONIA, NC, 28056",70451558,"L"
169218,"1400 KENESAW AVE APT 31G","KNOXVILLE","TN",37919,35.932690248,-83.9635345739999,218,"1400 KENESAW AVE APT 31G, KNOXVILLE, TN, 37919","Match","Exact","1400 KENESAW AVE, KNOXVILLE, TN, 37919",42624022,"L"
169219,"1400 KENNEDY APT 218","KEY WEST","FL",33040,24.5634136260001,-81.766560979,219,"1400 KENNEDY APT 218, KEY WEST, FL, 33040","Match","Non_Exact","1400 KENNEDY DR, KEY WEST, FL, 33040",636380972,"R"
169220,"1400 KEY BLVD STE 100","ARLINGTON","VA",22209,38.896421973,-77.073432354,220,"1400 KEY BLVD STE 100, ARLINGTON, VA, 22209","Match","Non_Exact","1400 N KEY BLVD, ARLINGTON, VA, 22209",76470829,"L"
169221,"1400 KING GEORGE BLVD","ANN ARBOR","MI",48104,42.245896864,-83.72480324,221,"1400 KING GEORGE BLVD, ANN ARBOR, MI, 48104","Match","Exact","1400 KING GEORGE BLVD, ANN ARBOR, MI, 48104",26015786,"R"
169222,"1400 KIWANIS DR","FREEPORT","IL",61032,42.2841563440001,-89.668940278,222,"1400 KIWANIS DR, FREEPORT, IL, 61032","Match","Exact","1400 KIWANIS DR, FREEPORT, IL, 61032",639951164,"R"
169223,"1400 KLUTTS ROAD","ROCKWALL","TX",75032,32.822903453,-96.389832944,223,"1400 KLUTTS ROAD, ROCKWALL, TX, 75032","Match","Non_Exact","1400 KLUTTS DR, ROCKWALL, TX, 75032",123788966,"L"
169224,"1400 LACASSASS PIKE","MURFREESBORO","TN",37130,35.859207477,-86.368539499,224,"1400 LACASSASS PIKE, MURFREESBORO, TN, 37130","Match","Non_Exact","1400 LASCASSAS PIKE, MURFREESBORO, TN, 37130",636505201,"R"
169225,"1400 LAKE BREEZE CT","NORTH PORT","FL",34291,27.074221375,-82.213213174,225,"1400 LAKE BREEZE CT, NORTH PORT, FL, 34291","Match","Exact","1400 LAKE BREEZE CT, NORTH PORT, FL, 34291",617659115,"R"
169226,"1400 LAKE SHADOW CIRCLE 10305","MAITLAND","FL",32751,28.62547999,-81.405195108,226,"1400 LAKE SHADOW CIRCLE 10305, MAITLAND, FL, 32751","Match","Exact","1400 LAKE SHADOW CIR, MAITLAND, FL, 32751",606098672,"R"
169227,"1400 LAKESHORE DR","METAIRIE","LA",70005,30.016225638,-90.136242561,227,"1400 LAKESHORE DR, METAIRIE, LA, 70005","Match","Non_Exact","1400 LAKESHORE AVE, METAIRIE, LA, 70005",93498552,"L"
169228,"1400 LAMPLIGHTER LN","FORT WORTH","TX",76134,32.651094997,-97.340608393,228,"1400 LAMPLIGHTER LN, FORT WORTH, TX, 76134","Match","Exact","1400 LAMPLIGHTER LN, FORT WORTH, TX, 76134",101894435,"R"
169229,"1400 LANCASTER 701","BALTIMORE","MD",21231,39.282395368,-76.5969492679999,229,"1400 LANCASTER 701, BALTIMORE, MD, 21231","Match","Non_Exact","1400 LANCASTER ST, BALTIMORE, MD, 21231",206422000,"L"
169230,"1400 LANCASTER STREET SUITE 602","BALTIMORE","MD",21231,39.282395368,-76.5969492679999,230,"1400 LANCASTER STREET SUITE 602, BALTIMORE, MD, 21231","Match","Exact","1400 LANCASTER ST, BALTIMORE, MD, 21231",206422000,"L"
169231,"1400 LAUREL STREET","GEORGETOWN","TX",78626,30.6316797740001,-97.666103398,231,"1400 LAUREL STREET, GEORGETOWN, TX, 78626","Match","Exact","1400 LAUREL ST, GEORGETOWN, TX, 78626",640537457,"L"
169232,"1400 LAVACA SUITE 1000","AUSTIN","TX",78701,30.2767463590001,-97.742246866,232,"1400 LAVACA SUITE 1000, AUSTIN, TX, 78701","Match","Non_Exact","1400 LAVACA ST, AUSTIN, TX, 78701",63943297,"L"
169233,"1400 LEISURE LAKE DR","LAWRENCEVILLE","GA",30044,33.902007483,-84.0064581399999,233,"1400 LEISURE LAKE DR, LAWRENCEVILLE, GA, 30044","Match","Exact","1400 LEISURE LAKE DR, LAWRENCEVILLE, GA, 30044",624502324,"R"
169234,"1400 LEISURE LAKE DRIVE","LAWRENCEVILLE","GA",30044,33.902007483,-84.0064581399999,234,"1400 LEISURE LAKE DRIVE, LAWRENCEVILLE, GA, 30044","Match","Exact","1400 LEISURE LAKE DR, LAWRENCEVILLE, GA, 30044",624502324,"R"
169235,"1400 LEONARD ST NE","GRAND RAPIDS","MI",49505,42.984424748,-85.635115669,235,"1400 LEONARD ST NE, GRAND RAPIDS, MI, 49505","Match","Exact","1400 LEONARD ST NE, GRAND RAPIDS, MI, 49505",12473956,"R"
169236,"1400 LOCUST ROAD","CAMPBELLSVILLE","KY",42718,37.374571213,-85.460921979,236,"1400 LOCUST ROAD, CAMPBELLSVILLE, KY, 42718","Match","Exact","1400 LOCUST RD, CAMPBELLSVILLE, KY, 42718",35245207,"L"
169237,"1400 LOMBARDY DRIVE","MODESTO","CA",95351,37.623365742,-121.023745604,237,"1400 LOMBARDY DRIVE, MODESTO, CA, 95351","Match","Exact","1400 LOMBARDY DR, MODESTO, CA, 95351",102617669,"L"
169238,"1400 LONDON ROAD","NEW LENOX","IL",60451,41.5344321270001,-87.945983699,238,"1400 LONDON ROAD, NEW LENOX, IL, 60451","Match","Exact","1400 LONDON RD, NEW LENOX, IL, 60451",111564138,"R"
169239,"1400 LONG VALLEY ROAD","RENO","NV",89508,NA,NA,239,"1400 LONG VALLEY ROAD, RENO, NV, 89508","No_Match",NA,NA,NA,NA
169240,"1400 LONGFELLOW ST NW- UNIT 101","WASHINGTON","DC",20011,38.95727788,-77.0336653379999,240,"1400 LONGFELLOW ST NW- UNIT 101, WASHINGTON, DC, 20011","Match","Exact","1400 LONGFELLOW ST NW, WASHINGTON, DC, 20011",641520569,"L"
169241,"1400 LONGREACH DR","BAKERSFIELD","CA",93314,NA,NA,241,"1400 LONGREACH DR, BAKERSFIELD, CA, 93314","No_Match",NA,NA,NA,NA
169242,"1400 LORRIMAINE","FRISCO","TX",75035,NA,NA,242,"1400 LORRIMAINE, FRISCO, TX, 75035","No_Match",NA,NA,NA,NA
169243,"1400 LYNCH ST","JACKSON","MS",39217,NA,NA,243,"1400 LYNCH ST, JACKSON, MS, 39217","No_Match",NA,NA,NA,NA
169244,"1400 MADISON AVE SUITE 208","MANKATO","MN",56001,44.166902916,-93.972126281,244,"1400 MADISON AVE SUITE 208, MANKATO, MN, 56001","Match","Exact","1400 MADISON AVE, MANKATO, MN, 56001",640616783,"R"
169245,"1400 MAGNOLIA AVE","MANHATTAN BEACH","CA",90266,33.888974009,-118.39327346,245,"1400 MAGNOLIA AVE, MANHATTAN BEACH, CA, 90266","Match","Exact","1400 MAGNOLIA AVE, MANHATTAN BEACH, CA, 90266",642869555,"R"
169246,"1400 MAIN ST","LITTLE ROCK","AR",72202,34.7352716090001,-92.272846683,246,"1400 MAIN ST, LITTLE ROCK, AR, 72202","Match","Exact","1400 MAIN ST, LITTLE ROCK, AR, 72202",83511513,"R"
169247,"1400 MAIN ST","STURGIS","SD",57785,44.414604588,-103.515643473,247,"1400 MAIN ST, STURGIS, SD, 57785","Match","Exact","1400 MAIN ST, STURGIS, SD, 57785",200907313,"L"
169248,"1400 MAIN STREET","CANONSBURG","PA",15317,40.2744251140001,-80.1645883259999,248,"1400 MAIN STREET, CANONSBURG, PA, 15317","Match","Exact","1400 MAIN ST, CANONSBURG, PA, 15317",641792075,"R"
169249,"1400 MALL OF GEORGIA BLVD APT 615","BUFORD","GA",30519,NA,NA,249,"1400 MALL OF GEORGIA BLVD APT 615, BUFORD, GA, 30519","No_Match",NA,NA,NA,NA
169250,"1400 MALONE ST","DENTON","TX",76201,33.227608651,-97.149708897,250,"1400 MALONE ST, DENTON, TX, 76201","Match","Exact","1400 MALONE ST, DENTON, TX, 76201",103338552,"L"
169251,"1400 MANDEL","WESTCHESTER","IL",60154,41.8589126480001,-87.897002576,251,"1400 MANDEL, WESTCHESTER, IL, 60154","Match","Non_Exact","1400 MANDEL AVE, WESTCHESTER, IL, 60154",111787817,"R"
169252,"1400 MANOR DR APT G-7","MURFREESBORO","TN",37130,35.827631696,-86.372837588,252,"1400 MANOR DR APT G-7, MURFREESBORO, TN, 37130","Match","Exact","1400 MANOR DR, MURFREESBORO, TN, 37130",59040811,"R"
169253,"1400 MAPLE AVE","DOWNERS GROVE","IL",60515,41.787192787,-88.019719599,253,"1400 MAPLE AVE, DOWNERS GROVE, IL, 60515","Match","Exact","1400 MAPLE AVE, DOWNERS GROVE, IL, 60515",637894292,"R"
169254,"1400 MARIPOSA CIRCLE UNIT 101","NAPLES","FL",34105,26.2027505510001,-81.742609821,254,"1400 MARIPOSA CIRCLE UNIT 101, NAPLES, FL, 34105","Match","Exact","1400 MARIPOSA CIR, NAPLES, FL, 34105",619120432,"L"
169255,"1400 MARKAN DR NE APT 3","ATLANTA","GA",30306,33.7924844080001,-84.343281345,255,"1400 MARKAN DR NE APT 3, ATLANTA, GA, 30306","Match","Exact","1400 MARKAN DR NE, ATLANTA, GA, 30306",647049680,"L"
169256,"1400 MARKET PLACE BLVD STE 103","CUMMING","GA",30041,34.180152955,-84.133432246,256,"1400 MARKET PLACE BLVD STE 103, CUMMING, GA, 30041","Match","Exact","1400 MARKET PLACE BLVD, CUMMING, GA, 30041",648734828,"R"
169257,"1400 MARKET PLACE BLVD","CUMMING","GA",30041,34.180152955,-84.133432246,257,"1400 MARKET PLACE BLVD, CUMMING, GA, 30041","Match","Exact","1400 MARKET PLACE BLVD, CUMMING, GA, 30041",648734828,"R"
169258,"1400 MARKET ST","WILLIAMSPORT","PA",17701,NA,NA,258,"1400 MARKET ST, WILLIAMSPORT, PA, 17701","No_Match",NA,NA,NA,NA
169259,"1400 MARSHALL ROAD","JACKSONVILLE","AR",72076,34.880541641,-92.12599912,259,"1400 MARSHALL ROAD, JACKSONVILLE, AR, 72076","Match","Exact","1400 MARSHALL RD, JACKSONVILLE, AR, 72076",83518705,"L"
169260,"1400 MARTIN LUTHER KING JR DR APT C","GREENSBORO","NC",27406,36.0540019210001,-79.782940814,260,"1400 MARTIN LUTHER KING JR DR APT C, GREENSBORO, NC, 27406","Match","Exact","1400 MARTIN LUTHER KING JR DR, GREENSBORO, NC, 27406",131033724,"R"
169261,"1400 MASSACHUSETTS STREET","LAWRENCE","KS",66044,38.958121132,-95.235894129,261,"1400 MASSACHUSETTS STREET, LAWRENCE, KS, 66044","Match","Exact","1400 MASSACHUSETTS ST, LAWRENCE, KS, 66044",17684842,"L"
169262,"1400 MATHEWS LANE","MARION","IL",62959,NA,NA,262,"1400 MATHEWS LANE, MARION, IL, 62959","No_Match",NA,NA,NA,NA
169263,"1400 MAXHELEN BLVD APT 2112","WATERLOO","IA",50702,42.4509361890001,-92.3308854809999,263,"1400 MAXHELEN BLVD APT 2112, WATERLOO, IA, 50702","Match","Non_Exact","1400 MAXHELEN BLVD, WATERLOO, IA, 50701",650505471,"R"
169264,"1400 MAYHURST BLVD","MCLEAN","VA",22102,38.9389009120001,-77.2432771209999,264,"1400 MAYHURST BLVD, MCLEAN, VA, 22102","Match","Exact","1400 MAYHURST BLVD, MCLEAN, VA, 22102",215922990,"R"
169265,"1400 MAYPORT RD","ATLANTIC BEACH","FL",32233,30.3344733320001,-81.415290021,265,"1400 MAYPORT RD, ATLANTIC BEACH, FL, 32233","Match","Exact","1400 MAYPORT RD, ATLANTIC BCH, FL, 32233",83945485,"L"
169266,"1400 MAYPORT ROAD","ATLANTIC BEACH","FL",32233,30.3344733320001,-81.415290021,266,"1400 MAYPORT ROAD, ATLANTIC BEACH, FL, 32233","Match","Exact","1400 MAYPORT RD, ATLANTIC BCH, FL, 32233",83945485,"L"
169267,"1400 MCCAIN PARKWAY","PELHAM","AL",35124,33.2759395040001,-86.7979313819999,267,"1400 MCCAIN PARKWAY, PELHAM, AL, 35124","Match","Exact","1400 MCCAIN PKWY, PELHAM, AL, 35124",221551717,"L"
169268,"1400 MCCALLIE AVENUE","CHATTANOOGA","TN",37404,35.0383842750001,-85.281379285,268,"1400 MCCALLIE AVENUE, CHATTANOOGA, TN, 37404","Match","Exact","1400 MCCALLIE AVE, CHATTANOOGA, TN, 37404",59308082,"R"
169269,"1400 MCKINNEY RD","HOUSTON","TX",77010,29.7548271520001,-95.361397778,269,"1400 MCKINNEY RD, HOUSTON, TX, 77010","Match","Non_Exact","1400 MCKINNEY ST, HOUSTON, TX, 77010",96067765,"R"
169270,"1400 MCKINNEY ST APT 2500","HOUSTON","TX",77010,29.7548271520001,-95.361397778,270,"1400 MCKINNEY ST APT 2500, HOUSTON, TX, 77010","Match","Exact","1400 MCKINNEY ST, HOUSTON, TX, 77010",96067765,"R"
169271,"1400 MCKINNEY STREET UNIT 910","HOUSTON","TX",77010,29.7548271520001,-95.361397778,271,"1400 MCKINNEY STREET UNIT 910, HOUSTON, TX, 77010","Match","Exact","1400 MCKINNEY ST, HOUSTON, TX, 77010",96067765,"R"
169272,"1400 MELBOURNE RD","CHARLOTTESVILLE, VA","VA",22901,38.052536285,-78.472757571,272,"1400 MELBOURNE RD, CHARLOTTESVILLE, VA, VA, 22901","Match","Non_Exact","1400 MELBOURNE RD, CHARLOTTESVILLE, VA, 22901",83406362,"L"
169273,"1400 MERCANTILE LANE 208","LARGO","MD",20774,38.9083891820001,-76.837221243,273,"1400 MERCANTILE LANE 208, LARGO, MD, 20774","Match","Exact","1400 MERCANTILE LN, LARGO, MD, 20774",76367375,"R"
169274,"1400 MERCANTILE LANE SUITE 200R","LARGO","MD",20774,38.9083891820001,-76.837221243,274,"1400 MERCANTILE LANE SUITE 200R, LARGO, MD, 20774","Match","Exact","1400 MERCANTILE LN, LARGO, MD, 20774",76367375,"R"
169275,"1400 MERCANTILE LANE SUITE 252","LARGO","MD",20774,38.9083891820001,-76.837221243,275,"1400 MERCANTILE LANE SUITE 252, LARGO, MD, 20774","Match","Exact","1400 MERCANTILE LN, LARGO, MD, 20774",76367375,"R"
169276,"1400 MERCANTILE LANE","LARGO","MD",20774,38.9083891820001,-76.837221243,276,"1400 MERCANTILE LANE, LARGO, MD, 20774","Match","Exact","1400 MERCANTILE LN, LARGO, MD, 20774",76367375,"R"
169277,"1400 MERRILL AVE","WAUSAU","WI",54401,44.980989654,-89.645584755,277,"1400 MERRILL AVE, WAUSAU, WI, 54401","Match","Exact","1400 MERRILL AVE, WAUSAU, WI, 54401",117135923,"L"
169278,"1400 METHYL ST","PITTSBURGH","PA",15216,40.414213827,-80.025835993,278,"1400 METHYL ST, PITTSBURGH, PA, 15216","Match","Exact","1400 METHYL ST, PITTSBURGH, PA, 15216",51631062,"R"
169279,"1400 MIDDLE STREET APT 114","WILLIAMSBURG","VA",23185,37.2870840690001,-76.7249705579999,279,"1400 MIDDLE STREET APT 114, WILLIAMSBURG, VA, 23185","Match","Exact","1400 MIDDLE ST, WILLIAMSBURG, VA, 23185",617115909,"R"
169280,"1400 MILAGRO DR","AUSTIN","TX",78733,30.3170750730001,-97.8997649629999,280,"1400 MILAGRO DR, AUSTIN, TX, 78733","Match","Exact","1400 MILAGRO DR, AUSTIN, TX, 78733",624458757,"R"
169281,"1400 MILL CREEK DR","PROSPECT","OR",97536,42.7219297180001,-122.529957635,281,"1400 MILL CREEK DR, PROSPECT, OR, 97536","Match","Exact","1400 MILL CREEK DR, PROSPECT, OR, 97536",641092609,"L"
169282,"1400 MINESITE ROAD","ALLENTOWN","PA",18103,40.5603214560001,-75.542948086,282,"1400 MINESITE ROAD, ALLENTOWN, PA, 18103","Match","Exact","1400 MINESITE RD, ALLENTOWN, PA, 18103",625300146,"R"
169283,"1400 MISTY COVE","ROCKWALL","TX",75087,32.9470784760001,-96.4852349079999,283,"1400 MISTY COVE, ROCKWALL, TX, 75087","Match","Non_Exact","1400 MISTY COVE DR, ROCKWALL, TX, 75087",213560653,"L"
169284,"1400 MONTANA AVE","BENSON","MN",56215,NA,NA,284,"1400 MONTANA AVE, BENSON, MN, 56215","No_Match",NA,NA,NA,NA
169285,"1400 MONTANA AVE","EL PASO","TX",79902,31.771446709,-106.479916477,285,"1400 MONTANA AVE, EL PASO, TX, 79902","Match","Exact","1400 MONTANA AVE, EL PASO, TX, 79902",189341299,"R"
169286,"1400 MONUMENT HILL ROAD","EL CAJON","CA",92020,32.7728939780001,-116.935980024,286,"1400 MONUMENT HILL ROAD, EL CAJON, CA, 92020","Match","Exact","1400 MONUMENT HILL RD, EL CAJON, CA, 92020",195718596,"R"
169287,"1400 MORGAN AVENUE","LA GRANGE PARK","IL",60526,41.838494573,-87.8580857809999,287,"1400 MORGAN AVENUE, LA GRANGE PARK, IL, 60526","Match","Exact","1400 MORGAN AVE, LA GRANGE PARK, IL, 60526",111791468,"L"
169288,"1400 MUIRFIELD BEND DR UNIT B","HUTTO","TX",78634,NA,NA,288,"1400 MUIRFIELD BEND DR UNIT B, HUTTO, TX, 78634","No_Match",NA,NA,NA,NA
169289,"1400 N  MCCOLL AVE STE 104B","MCALLEN","TX",78501,NA,NA,289,"1400 N  MCCOLL AVE STE 104B, MCALLEN, TX, 78501","No_Match",NA,NA,NA,NA
169290,"1400 N 2ND ST APT 2N","HARRISBURG","PA",17102,40.2696317750001,-76.892288798,290,"1400 N 2ND ST APT 2N, HARRISBURG, PA, 17102","Match","Non_Exact","1400 N 2ND ST, HARRISBURG, PA, 17102",70816962,"L"
169291,"1400 N 30TH ST UNIT 165","MOUNT VERNON","WA",98273,48.4325386840001,-122.302572695,291,"1400 N 30TH ST UNIT 165, MOUNT VERNON, WA, 98273","Match","Non_Exact","1400 N 30TH ST, MOUNT VERNON, WA, 98273",183660908,"L"
169292,"1400 N 30TH ST","MOUNT VERNON","WA",98273,48.4325386840001,-122.302572695,292,"1400 N 30TH ST, MOUNT VERNON, WA, 98273","Match","Exact","1400 N 30TH ST, MOUNT VERNON, WA, 98273",183660908,"L"
169293,"1400 N 3RD AVE W","VIRGINIA","MN",55792,NA,NA,293,"1400 N 3RD AVE W, VIRGINIA, MN, 55792","No_Match",NA,NA,NA,NA
169294,"1400 N 4TH ST","PHILADELPHIA","PA",19122,39.972430398,-75.142577703,294,"1400 N 4TH ST, PHILADELPHIA, PA, 19122","Match","Exact","1400 N 4TH ST, PHILADELPHIA, PA, 19122",131422797,"L"
169295,"1400 N 64 AVE","HOLLYWOOD","FL",33024,26.021880303,-80.216152197,295,"1400 N 64 AVE, HOLLYWOOD, FL, 33024","Match","Exact","1400 N 64TH AVE, HOLLYWOOD, FL, 33024",114716336,"L"
169296,"1400 N ALBANY AVE","ATLANTIC CITY","NJ",8401,NA,NA,296,"1400 N ALBANY AVE, ATLANTIC CITY, NJ, 8401","No_Match",NA,NA,NA,NA
169297,"1400 N CR 1950 E","VILLA GROVE","IL",61956,39.8559577770001,-88.103644575,297,"1400 N CR 1950 E, VILLA GROVE, IL, 61956","Match","Exact","1400 N CO RD 1950 E, VILLA GROVE, IL, 61956",606283633,"L"
169298,"1400 N EAGLE LAKE DRIVE","KALAMAZOO","MI",49009,42.219266422,-85.722575042,298,"1400 N EAGLE LAKE DRIVE, KALAMAZOO, MI, 49009","Match","Exact","1400 N EAGLE LAKE DR, KALAMAZOO, MI, 49009",12222965,"L"
169299,"1400 N EAST ST","ODELL","IL",60640,NA,NA,299,"1400 N EAST ST, ODELL, IL, 60640","No_Match",NA,NA,NA,NA
169300,"1400 N EDGMONT NO 303","LOS ANGELES","CA",90027,NA,NA,300,"1400 N EDGMONT NO 303, LOS ANGELES, CA, 90027","No_Match",NA,NA,NA,NA
169301,"1400 N FEDERAL HIGHWAY","FORT LAUDERDALE","FL",33304,26.146916887,-80.1200266989999,301,"1400 N FEDERAL HIGHWAY, FORT LAUDERDALE, FL, 33304","Match","Exact","1400 N FEDERAL HWY, FORT LAUDERDALE, FL, 33304",636913387,"L"
169302,"1400 N FOSTER DR","BATON ROUGE","LA",70806,30.4613823220001,-91.139367218,302,"1400 N FOSTER DR, BATON ROUGE, LA, 70806","Match","Exact","1400 N FOSTER DR, BATON ROUGE, LA, 70806",606166576,"R"
169303,"1400 N HACIENDA BLV","LA PUENTE","CA",91744,34.0460342260001,-117.948755043,303,"1400 N HACIENDA BLV, LA PUENTE, CA, 91744","Match","Exact","1400 N HACIENDA BLVD, LA PUENTE, CA, 91744",640111144,"R"
169304,"1400 N HACIENDA BLVD","LA PUENTE","CA",91744,34.0460342260001,-117.948755043,304,"1400 N HACIENDA BLVD, LA PUENTE, CA, 91744","Match","Exact","1400 N HACIENDA BLVD, LA PUENTE, CA, 91744",640111144,"R"
169305,"1400 N JOHNSON AVENUE SUITE 101","EL CAJON","CA",92020,32.8143622160001,-116.971010415,305,"1400 N JOHNSON AVENUE SUITE 101, EL CAJON, CA, 92020","Match","Non_Exact","1400 N JOHNSON AVE, EL CAJON, CA, 92020",195414022,"L"
169306,"1400 N KENNEDY","SHAWNEE","OK",74801,35.345368912,-96.938756623,306,"1400 N KENNEDY, SHAWNEE, OK, 74801","Match","Non_Exact","1400 N KENNEDY AVE, SHAWNEE, OK, 74801",636548459,"L"
169307,"1400 N KENTUCKY AVE","ROSWELL","NM",88201,33.4081494650001,-104.527520697,307,"1400 N KENTUCKY AVE, ROSWELL, NM, 88201","Match","Exact","1400 N KENTUCKY AVE, ROSWELL, NM, 88201",131769091,"L"
169308,"1400 N LAKE SHORE APT 8C","CHICAGO","IL",60610,NA,NA,308,"1400 N LAKE SHORE APT 8C, CHICAGO, IL, 60610","No_Match",NA,NA,NA,NA
169309,"1400 N LAKE SHORE DR","CHICAGO","IL",60610,41.907914777,-87.625803041,309,"1400 N LAKE SHORE DR, CHICAGO, IL, 60610","Match","Exact","1400 N LAKE SHORE DR, CHICAGO, IL, 60610",610959115,"L"
169310,"1400 N MCDOWELL BLVD","PETALUMA","CA",94954,38.275582754,-122.66933052,310,"1400 N MCDOWELL BLVD, PETALUMA, CA, 94954","Match","Exact","1400 N MCDOWELL BLVD, PETALUMA, CA, 94954",67500277,"R"
169311,"1400 N PROVIDENCE ROAD","MEDIA","PA",19063,39.935276172,-75.391284358,311,"1400 N PROVIDENCE ROAD, MEDIA, PA, 19063","Match","Exact","1400 N PROVIDENCE RD, MEDIA, PA, 19063",615376805,"L"
169312,"1400 N STATE HIGHWAY 360 APT 1513","MANSFIELD","LA",76063,NA,NA,312,"1400 N STATE HIGHWAY 360 APT 1513, MANSFIELD, LA, 76063","No_Match",NA,NA,NA,NA
169313,"1400 N WESTMINISTER","MIDWEST CITY","OK",73116,NA,NA,313,"1400 N WESTMINISTER, MIDWEST CITY, OK, 73116","No_Match",NA,NA,NA,NA
169314,"1400 NATCHEZ AVE S","GOLDEN VALLEY","MN",55416,44.96863725,-93.338998375,314,"1400 NATCHEZ AVE S, GOLDEN VALLEY, MN, 55416","Match","Exact","1400 NATCHEZ AVE S, GOLDEN VALLEY, MN, 55416",43620260,"R"
169315,"1400 NE 136TH AVE 201","3007 E 13TH PL","WA",98684,NA,NA,315,"1400 NE 136TH AVE 201, 3007 E 13TH PL, WA, 98684","No_Match",NA,NA,NA,NA
169316,"1400 NE 136TH AVE 201","VANCOUVER","WA",98684,45.6337251850001,-122.531457589,316,"1400 NE 136TH AVE 201, VANCOUVER, WA, 98684","Match","Non_Exact","1400 NE 136TH AVE, VANCOUVER, WA, 98684",612183280,"R"
169317,"1400 NE 136TH AVE","VANCOUVER","WA",98684,45.6337251850001,-122.531457589,317,"1400 NE 136TH AVE, VANCOUVER, WA, 98684","Match","Exact","1400 NE 136TH AVE, VANCOUVER, WA, 98684",612183280,"R"
169318,"1400 NE 8TH","SMITHVILLE","TX",78957,NA,NA,318,"1400 NE 8TH, SMITHVILLE, TX, 78957","No_Match",NA,NA,NA,NA
169319,"1400 NEVILLE STREET","JONESBORO","AR",72401,35.82497877,-90.721356816,319,"1400 NEVILLE STREET, JONESBORO, AR, 72401","Match","Exact","1400 NEVILLE ST, JONESBORO, AR, 72401",46912993,"L"
169320,"1400 NEW GARDEN RD","GREENSBORO","NC",27410,36.1059876830001,-79.88613314,320,"1400 NEW GARDEN RD, GREENSBORO, NC, 27410","Match","Exact","1400 NEW GARDEN RD, GREENSBORO, NC, 27410",642169093,"R"
169321,"1400 NEWTON ST","ORANGE","TX",77630,30.0770421010001,-93.765135726,321,"1400 NEWTON ST, ORANGE, TX, 77630","Match","Exact","1400 NEWTON ST, ORANGE, TX, 77630",74017852,"R"
169322,"1400 NITTANY DR","CHAMBERSBURG","PA",17202,39.9198706990001,-77.7050229549999,322,"1400 NITTANY DR, CHAMBERSBURG, PA, 17202","Match","Exact","1400 NITTANY DR, CHAMBERSBURG, PA, 17202",60102158,"R"
169323,"1400 NORTH 30TH STREET","QUINCY","IL",62301,39.946259727,-91.3676475299999,323,"1400 NORTH 30TH STREET, QUINCY, IL, 62301","Match","Exact","1400 N 30TH ST, QUINCY, IL, 62301",640437815,"R"
169324,"1400 NORTH BROADVIEW DRIVE","OKLAHOMA CITY","OK",73127,35.482481793,-97.6498974199999,324,"1400 NORTH BROADVIEW DRIVE, OKLAHOMA CITY, OK, 73127","Match","Exact","1400 N BROADVIEW DR, OKLAHOMA CITY, OK, 73127",100389567,"R"
169325,"1400 NORTH IMPERIAL AVENUE UNIT 28","EL CENTRO","CA",92243,32.805796878,-115.569941379,325,"1400 NORTH IMPERIAL AVENUE UNIT 28, EL CENTRO, CA, 92243","Match","Exact","1400 N IMPERIAL AVE, EL CENTRO, CA, 92243",194493904,"L"
169326,"1400 NORTH LAKE SHORE DRIVE APT 10E","CHICAGO","IL",60610,NA,NA,326,"1400 NORTH LAKE SHORE DRIVE APT 10E, CHICAGO, IL, 60610","No_Match",NA,NA,NA,NA
169327,"1400 NORTH MCCOLL","MCALLEN","TX",78501,26.214505135,-98.210526059,327,"1400 NORTH MCCOLL, MCALLEN, TX, 78501","Match","Non_Exact","1400 N MCCOLL RD, MCALLEN, TX, 78501",71559948,"R"
169328,"1400 NORTH REED ROAD","CORUNNA","MI",48817,43.016247058,-84.006744364,328,"1400 NORTH REED ROAD, CORUNNA, MI, 48817","Match","Exact","1400 N REED RD, CORUNNA, MI, 48817",23646832,"R"
169329,"1400 NW 108TH AVE APT 269","PLANTATION","FL",33322,26.14347188,-80.2949235409999,329,"1400 NW 108TH AVE APT 269, PLANTATION, FL, 33322","Match","Non_Exact","1400 NW 108TH AVE, PLANTATION, FL, 33322",114795813,"R"
169330,"1400 NW 108TH AVENUE APT 269","PLANTATION","FL",33322,26.14347188,-80.2949235409999,330,"1400 NW 108TH AVENUE APT 269, PLANTATION, FL, 33322","Match","Non_Exact","1400 NW 108TH AVE, PLANTATION, FL, 33322",114795813,"R"
169331,"1400 NW 53RD ST","MIAMI","FL",33142,25.8237543880001,-80.2205146489999,331,"1400 NW 53RD ST, MIAMI, FL, 33142","Match","Exact","1400 NW 53RD ST, MIAMI, FL, 33142",116005036,"L"
169332,"1400 NW 54TH STREET APT 722","MIAMI","FL",33142,25.8245348830001,-80.2205412019999,332,"1400 NW 54TH STREET APT 722, MIAMI, FL, 33142","Match","Non_Exact","1400 NW 54TH ST, MIAMI, FL, 33142",116260414,"L"
169333,"1400 NW 60TH UNIT 201","SEATTLE","WA",98107,NA,NA,333,"1400 NW 60TH UNIT 201, SEATTLE, WA, 98107","No_Match",NA,NA,NA,NA
169334,"1400 NW 9TH AVE UNIT E31","BOCA RATON","FL",33486,NA,NA,334,"1400 NW 9TH AVE UNIT E31, BOCA RATON, FL, 33486","Tie",NA,NA,NA,NA
169335,"1400 NW CHURCH STREET","LEON","IA",50144,40.7503740880001,-93.747796627,335,"1400 NW CHURCH STREET, LEON, IA, 50144","Match","Exact","1400 NW CHURCH ST, LEON, IA, 50144",75273322,"R"
169336,"1400 NW IRVING STREET","PORTLAND","OR",97209,45.527882966,-122.685416015,336,"1400 NW IRVING STREET, PORTLAND, OR, 97209","Match","Exact","1400 NW IRVING ST, PORTLAND, OR, 97209",157562829,"L"
169337,"1400 NW MARSHALL ST UNIT 307","PORTLAND","OR",97209,45.530736765,-122.68551135,337,"1400 NW MARSHALL ST UNIT 307, PORTLAND, OR, 97209","Match","Non_Exact","1400 NW MARSHALL ST, PORTLAND, OR, 97209",157498661,"L"
169338,"1400 NW TERRE VIEW DRIVE","PULLMAN","WA",99163,NA,NA,338,"1400 NW TERRE VIEW DRIVE, PULLMAN, WA, 99163","No_Match",NA,NA,NA,NA
169339,"1400 OAK ST","BARABOO","WI",53913,43.4785271700001,-89.742381786,339,"1400 OAK ST, BARABOO, WI, 53913","Match","Exact","1400 OAK ST, BARABOO, WI, 53913",86534190,"R"
169340,"1400 OAKPOINTE DRIVE","WACONIA","MN",55387,44.8296851360001,-93.811331131,340,"1400 OAKPOINTE DRIVE, WACONIA, MN, 55387","Match","Exact","1400 OAKPOINTE DR, WACONIA, MN, 55387",43510015,"L"
169341,"1400 OATMAN ST","LLANO","TX",78643,30.744258426,-98.674751975,341,"1400 OATMAN ST, LLANO, TX, 78643","Match","Exact","1400 OATMAN ST, LLANO, TX, 78643",182244246,"R"
169342,"1400 OCEAN AVE","BRIGANTINE","NJ",8203,39.400196474,-74.371386501,342,"1400 OCEAN AVE, BRIGANTINE, NJ, 8203","Match","Exact","1400 OCEAN AVE, BRIGANTINE, NJ, 08203",202491796,"L"
169343,"1400 OCONOMOWOC PKWY","OCONOMOWOC","WI",53066,NA,NA,343,"1400 OCONOMOWOC PKWY, OCONOMOWOC, WI, 53066","No_Match",NA,NA,NA,NA
169344,"1400 OGLETHORPE ST NW APT 2","WASHINGTON","DC",20011,38.9610217950001,-77.0336733519999,344,"1400 OGLETHORPE ST NW APT 2, WASHINGTON, DC, 20011","Match","Exact","1400 OGLETHORPE ST NW, WASHINGTON, DC, 20011",641520510,"L"
169345,"1400 OGLETHROPE AVENUE","RALEIGH","NC",27607,NA,NA,345,"1400 OGLETHROPE AVENUE, RALEIGH, NC, 27607","No_Match",NA,NA,NA,NA
169346,"1400 OLD FORGE DR APT 2695","LITTLE ROCK","AR",72227,34.765633903,-92.3832080399999,346,"1400 OLD FORGE DR APT 2695, LITTLE ROCK, AR, 72227","Match","Non_Exact","1400 OLD FORGE DR, LITTLE ROCK, AR, 72227",83565495,"R"
169347,"1400 OLD TAMAH RD","IRMO","SC",29063,NA,NA,347,"1400 OLD TAMAH RD, IRMO, SC, 29063","No_Match",NA,NA,NA,NA
169348,"1400 OLD TAMAH ROAD","IRMO","SC",29063,NA,NA,348,"1400 OLD TAMAH ROAD, IRMO, SC, 29063","No_Match",NA,NA,NA,NA
169349,"1400 OMARA DRIVE","UNION","NJ",7083,40.70958067,-74.271855395,349,"1400 OMARA DRIVE, UNION, NJ, 7083","Match","Exact","1400 OMARA DR, UNION, NJ, 07083",60593171,"L"
169350,"1400 OPUS PLACE SUITE 100","DOWNERS GROVE","IL",60515,41.8295293830001,-88.0230411059999,350,"1400 OPUS PLACE SUITE 100, DOWNERS GROVE, IL, 60515","Match","Exact","1400 OPUS PL, DOWNERS GROVE, IL, 60515",112533350,"L"
169351,"1400 OPUS PLACE SUITE100","DOWNERS GROVE","IL",60515,41.8295293830001,-88.0230411059999,351,"1400 OPUS PLACE SUITE100, DOWNERS GROVE, IL, 60515","Match","Exact","1400 OPUS PL, DOWNERS GROVE, IL, 60515",112533350,"L"
169352,"1400 OXFORD LANE","DENTON","TX",76209,33.2459905220001,-97.111689876,352,"1400 OXFORD LANE, DENTON, TX, 76209","Match","Exact","1400 OXFORD LN, DENTON, TX, 76209",103407058,"R"
169353,"1400 PALISADE AVENUE APT 10","UNION CITY","NJ",7087,40.7604629350001,-74.033795383,353,"1400 PALISADE AVENUE APT 10, UNION CITY, NJ, 7087","Match","Exact","1400 PALISADE AVE, UNION CITY, NJ, 07087",59616359,"R"
169354,"1400 PANCOAST RD","WARREN GROVE","NJ",8005,39.7465552900001,-74.368417667,354,"1400 PANCOAST RD, WARREN GROVE, NJ, 8005","Match","Non_Exact","1400 PANCOAST RD, BARNEGAT, NJ, 08005",203705255,"R"
169355,"1400 PANCOAST ROAD","WARREN GROVE","NJ",8005,39.7465552900001,-74.368417667,355,"1400 PANCOAST ROAD, WARREN GROVE, NJ, 8005","Match","Non_Exact","1400 PANCOAST RD, BARNEGAT, NJ, 08005",203705255,"R"
169356,"1400 PELHAM PARKWAY SOUTH","BRONX","NY",10461,40.857504185,-73.847640056,356,"1400 PELHAM PARKWAY SOUTH, BRONX, NY, 10461","Match","Exact","1400 PELHAM PKWY S, BRONX, NY, 10461",639456453,"R"
169357,"1400 PELHAM PKWY S","BRONX","NY",10461,40.857504185,-73.847640056,357,"1400 PELHAM PKWY S, BRONX, NY, 10461","Match","Exact","1400 PELHAM PKWY S, BRONX, NY, 10461",639456453,"R"
169358,"1400 PIKE STREET","MARIETTA","OH",45750,39.3929071470001,-81.404781622,358,"1400 PIKE STREET, MARIETTA, OH, 45750","Match","Exact","1400 PIKE ST, MARIETTA, OH, 45750",634490084,"L"
169359,"1400 PINE COURT","WISCONSIN DELLS","WI",53965,43.629503089,-89.756636887,359,"1400 PINE COURT, WISCONSIN DELLS, WI, 53965","Match","Exact","1400 PINE CT, WISCONSIN DELLS, WI, 53965",73327598,"L"
169360,"1400 PINEVIEW ROAD","BIRMINGHAM","AL",35228,33.474658731,-86.8936053469999,360,"1400 PINEVIEW ROAD, BIRMINGHAM, AL, 35228","Match","Exact","1400 PINEVIEW RD, BIRMINGHAM, AL, 35228",81677357,"L"
169361,"1400 PINNACLE COURT NO 405","PT RICHMOND","CA",94801,NA,NA,361,"1400 PINNACLE COURT NO 405, PT RICHMOND, CA, 94801","No_Match",NA,NA,NA,NA
169362,"1400 POCA RIVER ROAD N","POCA","WV",25159,38.462763398,-81.766237412,362,"1400 POCA RIVER ROAD N, POCA, WV, 25159","Match","Exact","1400 POCA RIVER RD N, POCA, WV, 25159",130530851,"R"
169363,"1400 POUST ROAD","MODESTO","CA",95358,NA,NA,363,"1400 POUST ROAD, MODESTO, CA, 95358","No_Match",NA,NA,NA,NA
169364,"1400 PRESIDENT ST","BROOKLYN","NY",11213,40.667652681,-73.942978137,364,"1400 PRESIDENT ST, BROOKLYN, NY, 11213","Match","Exact","1400 PRESIDENT ST, BROOKLYN, NY, 11213",59079694,"R"
169365,"1400 PRESTON RD SUITE 400","PLANO","TX",75093,NA,NA,365,"1400 PRESTON RD SUITE 400, PLANO, TX, 75093","No_Match",NA,NA,NA,NA
169366,"1400 PRESTON ROAD SUITE 400","PLANO","TX",75093,NA,NA,366,"1400 PRESTON ROAD SUITE 400, PLANO, TX, 75093","No_Match",NA,NA,NA,NA
169367,"1400 PUTNAM ST","ANTIOCH","CA",94509,37.989639696,-121.830969326,367,"1400 PUTNAM ST, ANTIOCH, CA, 94509","Match","Exact","1400 PUTNAM ST, ANTIOCH, CA, 94509",192074663,"R"
169368,"1400 QUAIL ST STE 200","NEWPORT BEACH","CA",92660,33.662006934,-117.869647669,368,"1400 QUAIL ST STE 200, NEWPORT BEACH, CA, 92660","Match","Exact","1400 QUAIL ST, NEWPORT BEACH, CA, 92660",144049233,"R"
169369,"1400 QUAIL STREET    SUITE 100","NEWPORT BEACH","CA",92660,33.662006934,-117.869647669,369,"1400 QUAIL STREET    SUITE 100, NEWPORT BEACH, CA, 92660","Match","Exact","1400 QUAIL ST, NEWPORT BEACH, CA, 92660",144049233,"R"
169370,"1400 QUINCY STREET NE","WASHINGTON","DC",20017,38.937249706,-76.987321607,370,"1400 QUINCY STREET NE, WASHINGTON, DC, 20017","Match","Exact","1400 QUINCY ST NE, WASHINGTON, DC, 20017",649878575,"L"
169371,"1400 R STREET - 20 NEBRASKA UNION","LINCOLN","NE",68588,NA,NA,371,"1400 R STREET - 20 NEBRASKA UNION, LINCOLN, NE, 68588","No_Match",NA,NA,NA,NA
169372,"1400 REDONDO AVE","LONG BEACH","CA",90804,33.784471565,-118.15239201,372,"1400 REDONDO AVE, LONG BEACH, CA, 90804","Match","Non_Exact","1400 N REDONDO AVE, LONG BEACH, CA, 90804",141701536,"R"
169373,"1400 RIDGE AVENUE A210","READING","PA",19607,40.317789754,-75.956192635,373,"1400 RIDGE AVENUE A210, READING, PA, 19607","Match","Exact","1400 RIDGE AVE, READING, PA, 19607",652188450,"R"
169374,"1400 RIDGE RD","ONTARIO","NY",14519,NA,NA,374,"1400 RIDGE RD, ONTARIO, NY, 14519","No_Match",NA,NA,NA,NA
169375,"1400 RIDGEMONT DRIVE","AUSTIN","TX",78723,30.3123838120001,-97.7003901099999,375,"1400 RIDGEMONT DRIVE, AUSTIN, TX, 78723","Match","Exact","1400 RIDGEMONT DR, AUSTIN, TX, 78723",63932751,"L"
169376,"1400 RIO GRANDE STREET STE 301","AUSTIN","TX",78701,NA,NA,376,"1400 RIO GRANDE STREET STE 301, AUSTIN, TX, 78701","No_Match",NA,NA,NA,NA
169377,"1400 RIVERSIDE DR","GAUTIER","MS",39553,30.446131463,-88.63174155,377,"1400 RIVERSIDE DR, GAUTIER, MS, 39553","Match","Exact","1400 RIVERSIDE DR, GAUTIER, MS, 39553",89260802,"L"
169378,"1400 RIVERY BLVD","GEORGETOWN","TX",78628,30.6456431830001,-97.687631097,378,"1400 RIVERY BLVD, GEORGETOWN, TX, 78628","Match","Exact","1400 RIVERY BLVD, GEORGETOWN, TX, 78628",648539252,"R"
169379,"1400 RIVIERA AVENUE","VENICE","CA",90291,33.989226499,-118.469252203,379,"1400 RIVIERA AVENUE, VENICE, CA, 90291","Match","Exact","1400 RIVIERA AVE, VENICE, CA, 90291",141576136,"L"
169380,"1400 ROBERT GURLEY RD","SCOTTS HILL","TN",38374,35.4275693710001,-88.186165349,380,"1400 ROBERT GURLEY RD, SCOTTS HILL, TN, 38374","Match","Exact","1400 ROBERT GURLEY RD, SCOTTS HILL, TN, 38374",19648580,"L"
169381,"1400 ROCKDALE DRIVE","ARLINGTON","TX",76018,32.661991986,-97.087189107,381,"1400 ROCKDALE DRIVE, ARLINGTON, TX, 76018","Match","Exact","1400 ROCKDALE DR, ARLINGTON, TX, 76018",101912014,"R"
169382,"1400 ROLLING HILLS DR","FAYETTEVILLE","AR",72703,36.1052379990001,-94.139912948,382,"1400 ROLLING HILLS DR, FAYETTEVILLE, AR, 72703","Match","Non_Exact","1400 E ROLLING HILLS DR, FAYETTEVILLE, AR, 72703",49046123,"L"
169383,"1400 ROSA PARKS BLVD NO 403","NASHVILLE","TN",37208,NA,NA,383,"1400 ROSA PARKS BLVD NO 403, NASHVILLE, TN, 37208","No_Match",NA,NA,NA,NA
169384,"1400 ROSELLE AVE","PALATKA","FL",32177,29.6335069850001,-81.657659168,384,"1400 ROSELLE AVE, PALATKA, FL, 32177","Match","Exact","1400 ROSELLE AVE, PALATKA, FL, 32177",86073217,"L"
169385,"1400 RT 82","HOPEWELL JUNCTION","NY",12533,41.613760912,-73.783077498,385,"1400 RT 82, HOPEWELL JUNCTION, NY, 12533","Match","Non_Exact","1400 STATE RTE 82, HOPEWELL JCT, NY, 12533",653453311,"L"
169386,"1400 RUSTIC TIMERS LANE","FLOWER MOUND","TX",75028,33.037094331,-97.0492718469999,386,"1400 RUSTIC TIMERS LANE, FLOWER MOUND, TX, 75028","Match","Non_Exact","1400 RUSTIC TIMBERS LN, FLOWER MOUND, TX, 75028",103376770,"L"
169387,"1400 S 11TH ST","QUINCY","IL",62301,39.915212829,-91.398165374,387,"1400 S 11TH ST, QUINCY, IL, 62301","Match","Exact","1400 S 11TH ST, QUINCY, IL, 62301",651663361,"L"
169388,"1400 S 11TH","QUINCY","IL",62301,39.915212829,-91.398165374,388,"1400 S 11TH, QUINCY, IL, 62301","Match","Non_Exact","1400 S 11TH ST, QUINCY, IL, 62301",651663361,"L"
169389,"1400 S 183RD ST WEST APT 306","GODDARD","KS",67052,NA,NA,389,"1400 S 183RD ST WEST APT 306, GODDARD, KS, 67052","Tie",NA,NA,NA,NA
169390,"1400 S 22ND STREET","PHILADEPHIA","PA",19146,39.9345734780001,-75.180902347,390,"1400 S 22ND STREET, PHILADEPHIA, PA, 19146","Match","Non_Exact","1400 S 22ND ST, PHILADELPHIA, PA, 19146",131410821,"R"
169391,"1400 S 24TH ST","MT. VERNON","IL",62864,NA,NA,391,"1400 S 24TH ST, MT. VERNON, IL, 62864","No_Match",NA,NA,NA,NA
169392,"1400 S 28TH ST","BROKEN ARROW","OK",74014,36.0395298110001,-95.756198281,392,"1400 S 28TH ST, BROKEN ARROW, OK, 74014","Match","Exact","1400 S 28TH ST, BROKEN ARROW, OK, 74014",83171309,"R"
169393,"1400 S 4TH STREET","PERRY","OK",73077,36.2693725,-97.2816997909999,393,"1400 S 4TH STREET, PERRY, OK, 73077","Match","Exact","1400 4TH ST, PERRY, OK, 73077",155001446,"R"
169394,"1400 S 52ND ST UNIT 33","WEST DES MOINES","IA",50265,41.5508440420001,-93.774222158,394,"1400 S 52ND ST UNIT 33, WEST DES MOINES, IA, 50265","Match","Non_Exact","1400 S 52ND ST, W DES MOINES, IA, 50265",65837984,"R"
169395,"1400 S 52ND STREET","WEST DES MOINES","IA",50265,41.5508440420001,-93.774222158,395,"1400 S 52ND STREET, WEST DES MOINES, IA, 50265","Match","Exact","1400 S 52ND ST, W DES MOINES, IA, 50265",65837984,"R"
169396,"1400 S AMBASSADOR WAY","SALT LAKE CITY","UT",84108,40.7384231730001,-111.812141664,396,"1400 S AMBASSADOR WAY, SALT LAKE CITY, UT, 84108","Match","Exact","1400 AMBASSADOR WAY, SALT LAKE CITY, UT, 84108",176093646,"R"
169397,"1400 S AQUARIUS AVE","DELAND","FL",32724,29.0043836340001,-81.2966428719999,397,"1400 S AQUARIUS AVE, DELAND, FL, 32724","Match","Exact","1400 AQUARIUS AVE, DELAND, FL, 32724",643136293,"L"
169398,"1400 S BEDFORD AVE","EVANSVILLE","IN",47713,37.9582326840001,-87.550097302,398,"1400 S BEDFORD AVE, EVANSVILLE, IN, 47713","Match","Exact","1400 S BEDFORD AVE, EVANSVILLE, IN, 47713",39785675,"L"
169399,"1400 S BRADDOCK AVE","PITTSBURGH","PA",15206,40.4301014540001,-79.892324376,399,"1400 S BRADDOCK AVE, PITTSBURGH, PA, 15206","Match","Non_Exact","1400 S BRADDOCK AVE, PITTSBURGH, PA, 15218",51653512,"R"
169400,"1400 S BRADDOCK AVE","PITTSBURGH","PA",15218,40.4301014540001,-79.892324376,400,"1400 S BRADDOCK AVE, PITTSBURGH, PA, 15218","Match","Exact","1400 S BRADDOCK AVE, PITTSBURGH, PA, 15218",51653512,"R"
169401,"1400 S BUSSE RD","MOUNT PROSPECT","IL",60656,42.041818176,-87.960769015,401,"1400 S BUSSE RD, MOUNT PROSPECT, IL, 60656","Match","Non_Exact","1400 BUSSE RD, MT PROSPECT, IL, 60056",639786434,"R"
169402,"1400 S CARRIAGE LANE APT 5","NEW BERLIN","WI",53151,43.0164988060001,-88.115775245,402,"1400 S CARRIAGE LANE APT 5, NEW BERLIN, WI, 53151","Match","Non_Exact","1400 S CARRIAGE LN, NEW BERLIN, WI, 53151",638473751,"L"
169403,"1400 S DIXIE HWY WEST STE 1W","POMPANO BEACH","FL",33060,26.2147331740001,-80.132054905,403,"1400 S DIXIE HWY WEST STE 1W, POMPANO BEACH, FL, 33060","Match","Non_Exact","1400 S DIXIE HWY W, POMPANO BEACH, FL, 33060",114747481,"L"
169404,"1400 S DULUTH AVE","SIOUX FALLS","SD",57105,43.5329690020001,-96.733776645,404,"1400 S DULUTH AVE, SIOUX FALLS, SD, 57105","Match","Exact","1400 S DULUTH AVE, SIOUX FALLS, SD, 57105",34972592,"L"
169405,"1400 S GLENDALE AVE","SIOUX FALLS","SD",57105,43.532900598,-96.7474954099999,405,"1400 S GLENDALE AVE, SIOUX FALLS, SD, 57105","Match","Exact","1400 S GLENDALE AVE, SIOUX FALLS, SD, 57105",34971664,"L"
169406,"1400 S INDIANA AVE","FRENCH LICK","IN",47432,38.537404371,-86.6287493679999,406,"1400 S INDIANA AVE, FRENCH LICK, IN, 47432","Match","Exact","1400 INDIANA AVE, FRENCH LICK, IN, 47432",647817434,"R"
169407,"1400 S JOYCE ST APT 1007","ARLINGTON","VA",22202,38.8627171480001,-77.063711468,407,"1400 S JOYCE ST APT 1007, ARLINGTON, VA, 22202","Match","Non_Exact","1400 S JOYCE ST, ARLINGTON, VA, 22202",650091500,"R"
169408,"1400 S JOYCE STREET 1108","ARLINGTON","VA",22202,38.8627171480001,-77.063711468,408,"1400 S JOYCE STREET 1108, ARLINGTON, VA, 22202","Match","Non_Exact","1400 S JOYCE ST, ARLINGTON, VA, 22202",650091500,"R"
169409,"1400 S JOYCE STREET","ARLINGTON","VA",22202,38.8627171480001,-77.063711468,409,"1400 S JOYCE STREET, ARLINGTON, VA, 22202","Match","Exact","1400 S JOYCE ST, ARLINGTON, VA, 22202",650091500,"R"
169410,"1400 S LAKEVIEW BLVD","LORAIN","OH",44052,41.4637684420001,-82.189768639,410,"1400 S LAKEVIEW BLVD, LORAIN, OH, 44052","Match","Exact","1400 S LAKEVIEW BLVD, LORAIN, OH, 44052",55404219,"R"
169411,"1400 S LAMAR","DALLAS","TX",75201,NA,NA,411,"1400 S LAMAR, DALLAS, TX, 75201","No_Match",NA,NA,NA,NA
169412,"1400 S LOOP 336 W","CONROE","TX",77304,30.2840709170001,-95.4800129559999,412,"1400 S LOOP 336 W, CONROE, TX, 77304","Match","Exact","1400 S LOOP 336 W, CONROE, TX, 77304",653239241,"L"
169413,"1400 S MICHIGAN AVENUE STE 2410","CHICAGO","IL",60605,41.863850271,-87.624080766,413,"1400 S MICHIGAN AVENUE STE 2410, CHICAGO, IL, 60605","Match","Non_Exact","1400 S MICHIGAN AVE, CHICAGO, IL, 60605",111769892,"R"
169414,"1400 S MILITARY PLACE","PORTLAND","OR",97219,NA,NA,414,"1400 S MILITARY PLACE, PORTLAND, OR, 97219","No_Match",NA,NA,NA,NA
169415,"1400 S MONROE ST APT F","LITTLE ROCK","AR",72204,34.738826831,-92.329023728,415,"1400 S MONROE ST APT F, LITTLE ROCK, AR, 72204","Match","Non_Exact","1400 S MONROE ST, LITTLE ROCK, AR, 72204",639050108,"L"
169416,"1400 S NAVAJO AVENUE","PARKER","AZ",85344,34.1436847470001,-114.292791918,416,"1400 S NAVAJO AVENUE, PARKER, AZ, 85344","Match","Exact","1400 S NAVAJO AVE, PARKER, AZ, 85344",129603031,"L"
169417,"1400 S NOVA RD","DAYTONA BEACH","FL",32114,29.179198441,-81.02919295,417,"1400 S NOVA RD, DAYTONA BEACH, FL, 32114","Match","Exact","1400 S NOVA RD, DAYTONA BEACH, FL, 32114",94526386,"R"
169418,"1400 S SARATOGA STREET","MARSHALL","MN",56258,44.4297808310001,-95.785922214,418,"1400 S SARATOGA STREET, MARSHALL, MN, 56258","Match","Exact","1400 S SARATOGA ST, MARSHALL, MN, 56258",605203178,"L"
169419,"1400 S SCHILLER ST","LITTLE ROCK","AR",72202,34.737646458,-92.296532917,419,"1400 S SCHILLER ST, LITTLE ROCK, AR, 72202","Match","Exact","1400 S SCHILLER ST, LITTLE ROCK, AR, 72202",83509623,"R"
169420,"1400 S WASHINGTON AVE","COMPTON","CA",90221,33.88401392,-118.193768125,420,"1400 S WASHINGTON AVE, COMPTON, CA, 90221","Match","Exact","1400 S WASHINGTON AVE, COMPTON, CA, 90221",141683542,"L"
169421,"1400 SACRAMENTO STREET","UPPER MARLBORO","MD",20774,38.8697407540001,-76.829498125,421,"1400 SACRAMENTO STREET, UPPER MARLBORO, MD, 20774","Match","Exact","1400 SACRAMENTO ST, UPPER MARLBORO, MD, 20774",76346532,"L"
169422,"1400 SALTERS MILL RD","PLAINS","GA",31780,31.989649839,-84.3855301899999,422,"1400 SALTERS MILL RD, PLAINS, GA, 31780","Match","Exact","1400 SALTERS MILL RD, PLAINS, GA, 31780",651787178,"L"
169423,"1400 SAN PABLO AVE","BERKELEY","CA",94702,37.8785914920001,-122.295327002,423,"1400 SAN PABLO AVE, BERKELEY, CA, 94702","Match","Exact","1400 SAN PABLO AVE, BERKELEY, CA, 94702",642189011,"R"
169424,"1400 SANDALWOOD COURT","EVANSVILLE","IN",47720,37.992460377,-87.6439364839999,424,"1400 SANDALWOOD COURT, EVANSVILLE, IN, 47720","Match","Exact","1400 SANDALWOOD CT, EVANSVILLE, IN, 47720",39789446,"R"
169425,"1400 SAWYERWOOD AVE","ORLANDO","FL",32809,28.4543905300001,-81.3609059199999,425,"1400 SAWYERWOOD AVE, ORLANDO, FL, 32809","Match","Exact","1400 SAWYERWOOD AVE, ORLANDO, FL, 32809",94291048,"R"
169426,"1400 SCHERTZ PARKWAY","SCHERTZ","TX",78154,29.564382885,-98.2697329869999,426,"1400 SCHERTZ PARKWAY, SCHERTZ, TX, 78154","Match","Exact","1400 SCHERTZ PKWY, SCHERTZ, TX, 78154",614167928,"L"
169427,"1400 SE 21ST ST","OKEECHOBEE","FL",34974,27.225521541,-80.813914325,427,"1400 SE 21ST ST, OKEECHOBEE, FL, 34974","Match","Exact","1400 SE 21ST ST, OKEECHOBEE, FL, 34974",4973602,"R"
169428,"1400 SE LAVA DRIVE NO 24","MILWAUKIE","OR",97222,NA,NA,428,"1400 SE LAVA DRIVE NO 24, MILWAUKIE, OR, 97222","No_Match",NA,NA,NA,NA
169429,"1400 SENECA BLVD APT 403","BROADVIEW HEIGHTS","OH",44147,41.316487142,-81.689096698,429,"1400 SENECA BLVD APT 403, BROADVIEW HEIGHTS, OH, 44147","Match","Exact","1400 SENECA BLVD, BROADVIEW HEIGHTS, OH, 44147",61141557,"R"
169430,"1400 SHATTUCK AVE STE 12","BERKELEY","CA",94709,37.881925347,-122.269510704,430,"1400 SHATTUCK AVE STE 12, BERKELEY, CA, 94709","Match","Exact","1400 SHATTUCK AVE, BERKELEY, CA, 94709",635481402,"R"
169431,"1400 SHERI LN SOUTH","AZLE","TX",76020,32.9140003320001,-97.519515409,431,"1400 SHERI LN SOUTH, AZLE, TX, 76020","Match","Exact","1400 SHERI LN S, AZLE, TX, 76020",101849631,"R"
169432,"1400 SHERMAN CT","YUBA CITY","CA",95991,39.1069409940001,-121.623586616,432,"1400 SHERMAN CT, YUBA CITY, CA, 95991","Match","Exact","1400 SHERMAN CT, YUBA CITY, CA, 95991",68569483,"L"
169433,"1400 SMITH ST","HOUSTON","TX",77002,29.756023595,-95.370757308,433,"1400 SMITH ST, HOUSTON, TX, 77002","Match","Exact","1400 SMITH ST, HOUSTON, TX, 77002",96067529,"R"
169434,"1400 SOUTH 52ND STREET UNIT 5","WEST DES MOINES","IA",50265,41.5508549150001,-93.774222293,434,"1400 SOUTH 52ND STREET UNIT 5, WEST DES MOINES, IA, 50265","Match","Exact","1400 S 52ND ST, W DES MOINES, IA, 50265",65837984,"R"
169435,"1400 SOUTH BARTON ST 406","ARLINGTON","VA",22204,38.859966496,-77.0830195249999,435,"1400 SOUTH BARTON ST 406, ARLINGTON, VA, 22204","Match","Exact","1400 S BARTON ST, ARLINGTON, VA, 22204",76477672,"R"
169436,"1400 SOUTH BOUNDARY","KIRKSVILLE","MO",63501,40.1864740230001,-92.5955075589999,436,"1400 SOUTH BOUNDARY, KIRKSVILLE, MO, 63501","Match","Non_Exact","1400 S BOUNDARY ST, KIRKSVILLE, MO, 63501",653448976,"L"
169437,"1400 SOUTH CREEKSIDE DRIVE","CHULA VISTA","CA",91915,32.634743805,-116.945837484,437,"1400 SOUTH CREEKSIDE DRIVE, CHULA VISTA, CA, 91915","Match","Exact","1400 S CREEKSIDE DR, CHULA VISTA, CA, 91915",195750088,"L"
169438,"1400 SOUTH JEFFERSON ST","CHICAGO","IL",60607,41.865841661,-87.642148693,438,"1400 SOUTH JEFFERSON ST, CHICAGO, IL, 60607","Match","Exact","1400 S JEFFERSON ST, CHICAGO, IL, 60607",111827536,"R"
169439,"1400 SOUTH LONG STREET LOT 913","OPELIKA","AL",36801,32.6373523820001,-85.3880896379999,439,"1400 SOUTH LONG STREET LOT 913, OPELIKA, AL, 36801","Match","Exact","1400 S LONG ST, OPELIKA, AL, 36801",1599157,"R"
169440,"1400 SOUTH MICHIGAN AVE","CHICAGO","IL",60605,41.863850271,-87.624080766,440,"1400 SOUTH MICHIGAN AVE, CHICAGO, IL, 60605","Match","Exact","1400 S MICHIGAN AVE, CHICAGO, IL, 60605",111769892,"R"
169441,"1400 SOUTH MICHIGAN AVENUE","CHICAGO","IL",60605,41.863850271,-87.624080766,441,"1400 SOUTH MICHIGAN AVENUE, CHICAGO, IL, 60605","Match","Exact","1400 S MICHIGAN AVE, CHICAGO, IL, 60605",111769892,"R"
169442,"1400 SOUTH STREET","HARTSEL","CO",80449,NA,NA,442,"1400 SOUTH STREET, HARTSEL, CO, 80449","No_Match",NA,NA,NA,NA
169443,"1400 SPEER BLVD","DENVER","CO",80247,39.7385876370001,-104.996975311,443,"1400 SPEER BLVD, DENVER, CO, 80247","Match","Non_Exact","1400 SPEER BLVD, DENVER, CO, 80204",617188313,"R"
169444,"1400 SPIESS LANE","WARMINSTER","PA",18974,40.224147144,-75.109930441,444,"1400 SPIESS LANE, WARMINSTER, PA, 18974","Match","Exact","1400 SPIESS LN, WARMINSTER, PA, 18974",134736108,"L"
169445,"1400 SPIESS LN","WARMINSTER","PA",18974,40.224147144,-75.109930441,445,"1400 SPIESS LN, WARMINSTER, PA, 18974","Match","Exact","1400 SPIESS LN, WARMINSTER, PA, 18974",134736108,"L"
169446,"1400 SPRING GARDEN ST APT 506","PHILADELPHIA","PA",19130,39.9623735590001,-75.1615428649999,446,"1400 SPRING GARDEN ST APT 506, PHILADELPHIA, PA, 19130","Match","Exact","1400 SPRING GARDEN ST, PHILADELPHIA, PA, 19130",642122369,"L"
169447,"1400 STADIUM DRIVE","ADA","OK",74820,34.7603779450001,-96.661141868,447,"1400 STADIUM DRIVE, ADA, OK, 74820","Match","Non_Exact","1400 S STADIUM DR, ADA, OK, 74820",606921393,"L"
169448,"1400 STANTON WAY","SAN JOSE","CA",95131,37.3772634520001,-121.885078954,448,"1400 STANTON WAY, SAN JOSE, CA, 95131","Match","Exact","1400 STANTON WAY, SAN JOSE, CA, 95131",123009504,"R"
169449,"1400 STATE HIGHWAY U","CARUTHERSVILLE","MO",63830,NA,NA,449,"1400 STATE HIGHWAY U, CARUTHERSVILLE, MO, 63830","No_Match",NA,NA,NA,NA
169450,"1400 STATE ROAD ROUTE 9","LAKE GEORGE","NY",12845,NA,NA,450,"1400 STATE ROAD ROUTE 9, LAKE GEORGE, NY, 12845","No_Match",NA,NA,NA,NA
169451,"1400 STERLINGBROOKE DR","POWDER SPRINGS","GA",30127,33.882290884,-84.721385969,451,"1400 STERLINGBROOKE DR, POWDER SPRINGS, GA, 30127","Match","Non_Exact","1400 STERLINGBROOKE DR SW, POWDER SPGS, GA, 30127",634779483,"L"
169452,"1400 STONEY FIELD PLACE","LAWRENCEVILLE","GA",30043,34.01683016,-83.966387176,452,"1400 STONEY FIELD PLACE, LAWRENCEVILLE, GA, 30043","Match","Exact","1400 STONEY FIELD PL, LAWRENCEVILLE, GA, 30043",88934043,"L"
169453,"1400 SUNBURY DR","BELLEVUE","NE",68005,41.1456833550001,-95.922280748,453,"1400 SUNBURY DR, BELLEVUE, NE, 68005","Match","Exact","1400 SUNBURY DR, BELLEVUE, NE, 68005",28498065,"R"
169454,"1400 SUNFLOWER DRIVE","MISSOULA","MT",59802,46.895290742,-113.963820997,454,"1400 SUNFLOWER DRIVE, MISSOULA, MT, 59802","Match","Exact","1400 SUNFLOWER DR, MISSOULA, MT, 59802",205240651,"L"
169455,"1400 SW 15TH STREET","FT LAUDERDALE","FL",33312,NA,NA,455,"1400 SW 15TH STREET, FT LAUDERDALE, FL, 33312","Tie",NA,NA,NA,NA
169456,"1400 SW 16TH STREET","BOCA RATON","FL",33486,26.333817303,-80.114014781,456,"1400 SW 16TH STREET, BOCA RATON, FL, 33486","Match","Exact","1400 SW 16TH ST, BOCA RATON, FL, 33486",115537597,"L"
169457,"1400 SW CHAPMAN WAY","PALM CITY","FL",34990,27.1837567750001,-80.270306686,457,"1400 SW CHAPMAN WAY, PALM CITY, FL, 34990","Match","Exact","1400 SW CHAPMAN WAY, PALM CITY, FL, 34990",120424032,"R"
169458,"1400 SW SHOREWOOD DR","DUNNELLON","FL",34431,29.126564537,-82.5218234289999,458,"1400 SW SHOREWOOD DR, DUNNELLON, FL, 34431","Match","Exact","1400 SW SHOREWOOD DR, DUNNELLON, FL, 34431",629191857,"R"
169459,"1400 TALISMAN CIRCLE","VIRGINIA BEACH","VA",23464,36.797051981,-76.170889969,459,"1400 TALISMAN CIRCLE, VIRGINIA BEACH, VA, 23464","Match","Exact","1400 TALISMAN CIR, VA BCH, VA, 23464",122264560,"L"
169460,"1400 TALL GRASS ST","HUDSON","WI",54016,NA,NA,460,"1400 TALL GRASS ST, HUDSON, WI, 54016","No_Match",NA,NA,NA,NA
169461,"1400 TANEY AVENUE","FREDERICK","MD",21702,39.4344004590001,-77.416094465,461,"1400 TANEY AVENUE, FREDERICK, MD, 21702","Match","Exact","1400 TANEY AVE, FREDERICK, MD, 21702",60672299,"R"
169462,"1400 TANGLEVINE","ROCKWALL","TX",75087,32.964746017,-96.473215952,462,"1400 TANGLEVINE, ROCKWALL, TX, 75087","Match","Non_Exact","1400 TANGLEVINE DR, ROCKWALL, TX, 75087",213565191,"R"
169463,"1400 TECHNOLOGY LANE","PETALUMA","CA",94954,38.2317278040001,-122.604032889,463,"1400 TECHNOLOGY LANE, PETALUMA, CA, 94954","Match","Exact","1400 TECHNOLOGY LN, PETALUMA, CA, 94954",605026867,"R"
169464,"1400 TENNYSON STREET","DENVER","CO",80204,39.738633049,-105.043993397,464,"1400 TENNYSON STREET, DENVER, CO, 80204","Match","Exact","1400 TENNYSON ST, DENVER, CO, 80204",177300405,"R"
169465,"1400 TIGER PRIDE DRIVE","SALEM","MO",65560,NA,NA,465,"1400 TIGER PRIDE DRIVE, SALEM, MO, 65560","No_Match",NA,NA,NA,NA
169466,"1400 TIMBER FALLS LN P8","OLYPHANT","PA",18447,NA,NA,466,"1400 TIMBER FALLS LN P8, OLYPHANT, PA, 18447","No_Match",NA,NA,NA,NA
169467,"1400 TOKAY","CARLSBAD","NM",88220,32.442956558,-104.209256383,467,"1400 TOKAY, CARLSBAD, NM, 88220","Match","Non_Exact","1400 TOKAY AVE, CARLSBAD, NM, 88220",647303722,"R"
169468,"1400 TOWNSEND DRIVE","HOUGHTON","MI",49931,47.110633782,-88.531394945,468,"1400 TOWNSEND DRIVE, HOUGHTON, MI, 49931","Match","Exact","1400 TOWNSEND DR, HOUGHTON, MI, 49931",184112662,"R"
169469,"1400 TROWBRIDGE RD","FORT PIERCE","FL",34945,27.4364212570001,-80.48503125,469,"1400 TROWBRIDGE RD, FORT PIERCE, FL, 34945","Match","Exact","1400 TROWBRIDGE RD, FORT PIERCE, FL, 34945",648128548,"R"
169470,"1400 TROWBRIDGE ROAD","FORT PIERCE","FL",34945,27.4364212570001,-80.48503125,470,"1400 TROWBRIDGE ROAD, FORT PIERCE, FL, 34945","Match","Exact","1400 TROWBRIDGE RD, FORT PIERCE, FL, 34945",648128548,"R"
169471,"1400 TURNER MCCALL BLVD","ROME","GA",30161,34.251971956,-85.163271524,471,"1400 TURNER MCCALL BLVD, ROME, GA, 30161","Match","Exact","1400 TURNER MCCALL BLVD, ROME, GA, 30161",30677077,"R"
169472,"1400 TURNER STREET","OLD HICKORY","TN",37138,36.256324267,-86.6430292589999,472,"1400 TURNER STREET, OLD HICKORY, TN, 37138","Match","Exact","1400 TURNER ST, OLD HICKORY, TN, 37138",97183922,"R"
169473,"1400 UNION STREET","READING","PA",19604,40.359039776,-75.909651404,473,"1400 UNION STREET, READING, PA, 19604","Match","Exact","1400 UNION ST, READING, PA, 19604",80446869,"R"
169474,"1400 UNIVERSITY DRIVE","CARLSBAD","NM",88220,32.437925353,-104.265539469,474,"1400 UNIVERSITY DRIVE, CARLSBAD, NM, 88220","Match","Exact","1400 UNIVERSITY DR, CARLSBAD, NM, 88220",131297711,"L"
169475,"1400 URBAN CENTER SUITE 200","BIRMINGHAM","AL",35242,NA,NA,475,"1400 URBAN CENTER SUITE 200, BIRMINGHAM, AL, 35242","Tie",NA,NA,NA,NA
169476,"1400 US HWY 83","CHILDRESS","TX",79201,34.4827061300001,-100.212400565,476,"1400 US HWY 83, CHILDRESS, TX, 79201","Match","Exact","1400 US HWY 83, CHILDRESS, TX, 79201",164416212,"R"
169477,"1400 VAN BUREN ST NE","PLYMOUTH","MN",55447,NA,NA,477,"1400 VAN BUREN ST NE, PLYMOUTH, MN, 55447","No_Match",NA,NA,NA,NA
169478,"1400 VANDENBURG CIRCLE","SGT BLUFF","IA",51054,NA,NA,478,"1400 VANDENBURG CIRCLE, SGT BLUFF, IA, 51054","Tie",NA,NA,NA,NA
169479,"1400 VET MEM HWY SE SUITE 134-327","MABLETON","GA",30126,NA,NA,479,"1400 VET MEM HWY SE SUITE 134-327, MABLETON, GA, 30126","No_Match",NA,NA,NA,NA
169480,"1400 VETERANS MEM HWY STE 134-248","MABLETON","GA",30126,NA,NA,480,"1400 VETERANS MEM HWY STE 134-248, MABLETON, GA, 30126","No_Match",NA,NA,NA,NA
169481,"1400 VETERANS MEM HWY STE 134-341","MABLETON","GA",30126,NA,NA,481,"1400 VETERANS MEM HWY STE 134-341, MABLETON, GA, 30126","No_Match",NA,NA,NA,NA
169482,"1400 VETERANS MEMORIAL HWY 134-102","MABLETON","GA",30126,NA,NA,482,"1400 VETERANS MEMORIAL HWY 134-102, MABLETON, GA, 30126","No_Match",NA,NA,NA,NA
169483,"1400 VETERANS MEMORIAL HWY STE 140-","MABLETON","GA",30126,NA,NA,483,"1400 VETERANS MEMORIAL HWY STE 140-, MABLETON, GA, 30126","No_Match",NA,NA,NA,NA
169484,"1400 VETERANS MEMORIAL HWY STE 335","MABLETON","GA",30126,NA,NA,484,"1400 VETERANS MEMORIAL HWY STE 335, MABLETON, GA, 30126","No_Match",NA,NA,NA,NA
169485,"1400 VETERANS MEMORIAL HWY","MABLETON","GA",30126,NA,NA,485,"1400 VETERANS MEMORIAL HWY, MABLETON, GA, 30126","No_Match",NA,NA,NA,NA
169486,"1400 VFW PARKWAY - BLDG 3/RM2C108","BOSTON","MA",2132,NA,NA,486,"1400 VFW PARKWAY - BLDG 3/RM2C108, BOSTON, MA, 2132","No_Match",NA,NA,NA,NA
169487,"1400 VILLAGE BLVD 718","WEST PALM BEACH","FL",33409,26.7204357110001,-80.1021786749999,487,"1400 VILLAGE BLVD 718, WEST PALM BEACH, FL, 33409","Match","Exact","1400 VILLAGE BLVD, WEST PALM BEACH, FL, 33409",649061023,"L"
169488,"1400 VILLAGE BLVD APT 1035","WEST PALM BEACH","FL",33409,26.7204357110001,-80.1021786749999,488,"1400 VILLAGE BLVD APT 1035, WEST PALM BEACH, FL, 33409","Match","Exact","1400 VILLAGE BLVD, WEST PALM BEACH, FL, 33409",649061023,"L"
169489,"1400 VILLAGE BLVD","WEST PAM BEACH","FL",33409,26.7204357110001,-80.1021786749999,489,"1400 VILLAGE BLVD, WEST PAM BEACH, FL, 33409","Match","Non_Exact","1400 VILLAGE BLVD, WEST PALM BEACH, FL, 33409",649061023,"L"
169490,"1400 VILLAGE SQ BLVD STE 3 282","TALLAHASSEE","FL",32312,NA,NA,490,"1400 VILLAGE SQ BLVD STE 3 282, TALLAHASSEE, FL, 32312","No_Match",NA,NA,NA,NA
169491,"1400 VILLAGE SQ BLVD STE 3282","TALLAHASSEE","FL",32312,NA,NA,491,"1400 VILLAGE SQ BLVD STE 3282, TALLAHASSEE, FL, 32312","No_Match",NA,NA,NA,NA
169492,"1400 VILLAGE SQ BLVD STE 3282","TALLAHSSEE","FL",32312,NA,NA,492,"1400 VILLAGE SQ BLVD STE 3282, TALLAHSSEE, FL, 32312","No_Match",NA,NA,NA,NA
169493,"1400 VILLAGE SQ BLVD SUITE 3-110","TALLAHASSEE","FL",32312,NA,NA,493,"1400 VILLAGE SQ BLVD SUITE 3-110, TALLAHASSEE, FL, 32312","No_Match",NA,NA,NA,NA
169494,"1400 VILLAGE SQUARE BLVD 3 80744","TALLAHASSEE","FL",32312,30.510735347,-84.25058554,494,"1400 VILLAGE SQUARE BLVD 3 80744, TALLAHASSEE, FL, 32312","Match","Exact","1400 VILLAGE SQUARE BLVD, TALLAHASSEE, FL, 32312",82880497,"L"
169495,"1400 VILLAGE SQUARE BLVD 3-183","TALLAHASSEE","FL",32312,30.510735347,-84.25058554,495,"1400 VILLAGE SQUARE BLVD 3-183, TALLAHASSEE, FL, 32312","Match","Exact","1400 VILLAGE SQUARE BLVD, TALLAHASSEE, FL, 32312",82880497,"L"
169496,"1400 W 1ST","HEREFORD","TX",79045,34.808774095,-102.411033247,496,"1400 W 1ST, HEREFORD, TX, 79045","Match","Non_Exact","1400 W 1ST ST, HEREFORD, TX, 79045",164006036,"L"
169497,"1400 W 52ND AVE","DENVER","CO",80221,39.791032375,-105.004385111,497,"1400 W 52ND AVE, DENVER, CO, 80221","Match","Exact","1400 W 52ND AVE, DENVER, CO, 80221",177410207,"L"
169498,"1400 W 61ST AVENUE","MERRILLVILLE","IN",46410,41.507474163,-87.353584607,498,"1400 W 61ST AVENUE, MERRILLVILLE, IN, 46410","Match","Exact","1400 W 61ST AVE, MERRILLVILLE, IN, 46410",98431412,"R"
169499,"1400 W 8TH STREET","THE DALLES","OR",97058,45.6066212810001,-121.2037504,499,"1400 W 8TH STREET, THE DALLES, OR, 97058","Match","Exact","1400 W 8TH ST, THE DALLES, OR, 97058",175556543,"R"
169500,"1400 W 94TH STREET","BLOOMINGTON","MN",55431,44.8335328210001,-93.297502951,500,"1400 W 94TH STREET, BLOOMINGTON, MN, 55431","Match","Exact","1400 W 94TH ST, BLOOMINGTON, MN, 55431",43812973,"R"
