"ID","Address","City","State","Zip","lat","long","id","input_address","match_indicator","match_type","matched_address","tiger_line_id","tiger_side"
650501,"4609 BROOKVIEW RD","ROCKFORD","IL",61107,42.293533177,-89.0271637179999,1,"4609 BROOKVIEW RD, ROCKFORD, IL, 61107","Match","Exact","4609 BROOKVIEW RD, ROCKFORD, IL, 61107",49257892,"R"
650502,"4609 CAPSTONE DR","MONROE","NC",28110,35.027011605,-80.636019077,2,"4609 CAPSTONE DR, MONROE, NC, 28110","Match","Exact","4609 CAPSTONE DR, MONROE, NC, 28110",14199807,"L"
650503,"4609 CORONADO DRIVE","CHARLOTTE","NC",28212,35.1976074730001,-80.761457514,3,"4609 CORONADO DRIVE, CHARLOTTE, NC, 28212","Match","Exact","4609 CORONADO DR, CHARLOTTE, NC, 28212",70550104,"L"
650504,"4609 COUNTY ROAD 23 NORTH","QUINCY","OH",43343,NA,NA,4,"4609 COUNTY ROAD 23 NORTH, QUINCY, OH, 43343","No_Match",NA,NA,NA,NA
650505,"4609 DERUSSEY PARKWAY","CHEVY CHASE","MD",20815,NA,NA,5,"4609 DERUSSEY PARKWAY, CHEVY CHASE, MD, 20815","No_Match",NA,NA,NA,NA
650506,"4609 DICKENS PRIDE CT","BOWIE","MD",20720,38.953833295,-76.7864515369999,6,"4609 DICKENS PRIDE CT, BOWIE, MD, 20720","Match","Exact","4609 DICKENS PRIDE CT, BOWIE, MD, 20720",633421471,"L"
650507,"4609 E AUGUSTA AVE","CHANDLER","AZ",85249,33.217737883,-111.76297981,7,"4609 E AUGUSTA AVE, CHANDLER, AZ, 85249","Match","Exact","4609 E AUGUSTA AVE, CHANDLER, AZ, 85249",128854829,"R"
650508,"4609 EAST CEASAR CHAVEZ AVE","LOS ANGELES","CA",90022,NA,NA,8,"4609 EAST CEASAR CHAVEZ AVE, LOS ANGELES, CA, 90022","No_Match",NA,NA,NA,NA
650509,"4609 EGYPT ROAD","CAMBRIDGE","MD",21613,38.487985296,-76.104652062,9,"4609 EGYPT ROAD, CAMBRIDGE, MD, 21613","Match","Exact","4609 EGYPT RD, CAMBRIDGE, MD, 21613",99663958,"R"
650510,"4609 EVANSHIRE WAY","MCKINNEY","TX",75070,33.153151671,-96.671412694,10,"4609 EVANSHIRE WAY, MCKINNEY, TX, 75070","Match","Exact","4609 EVANSHIRE WAY, MCKINNEY, TX, 75070",614186900,"R"
650511,"4609 FOX SEDGE LN","DENTON","TX",76208,33.16932129,-97.073202233,11,"4609 FOX SEDGE LN, DENTON, TX, 76208","Match","Exact","4609 FOX SEDGE LN, DENTON, TX, 76208",625134978,"L"
650512,"4609 FOXBOROUGH COURT","NORMAN","OK",73072,35.222655526,-97.509959594,12,"4609 FOXBOROUGH COURT, NORMAN, OK, 73072","Match","Exact","4609 FOXBOROUGH CT, NORMAN, OK, 73072",99958809,"L"
650513,"4609 FRANCISCO VERRETT DR","NEW ORLEANS","LA",70126,30.0176071720001,-89.995193735,13,"4609 FRANCISCO VERRETT DR, NEW ORLEANS, LA, 70126","Match","Exact","4609 FRANCISCO VERRETT DR, NEW ORLEANS, LA, 70126",191730263,"L"
650514,"4609 FREESTONE ST","HIGH POINT","NC",27265,36.0559891930001,-79.997587499,14,"4609 FREESTONE ST, HIGH POINT, NC, 27265","Match","Exact","4609 FREESTONE ST, HIGH POINT, NC, 27265",646482903,"L"
650515,"4609 GAINSVILLE AVE","HEMET","AZ",92544,NA,NA,15,"4609 GAINSVILLE AVE, HEMET, AZ, 92544","No_Match",NA,NA,NA,NA
650516,"4609 GLEN VALLEY DRIVE","LITTLE ROCK","AR",72223,34.797373173,-92.4453875149999,16,"4609 GLEN VALLEY DRIVE, LITTLE ROCK, AR, 72223","Match","Exact","4609 GLEN VALLEY DR, LITTLE ROCK, AR, 72223",83543365,"R"
650517,"4609 GLENMOOR CIRCLE","YAKIMA","WA",98908,46.589347855,-120.569698165,17,"4609 GLENMOOR CIRCLE, YAKIMA, WA, 98908","Match","Exact","4609 GLENMOOR CIR, YAKIMA, WA, 98908",184960398,"R"
650518,"4609 GRAMERCY CT","RALEIGH","NC",27609,35.84444124,-78.658411541,18,"4609 GRAMERCY CT, RALEIGH, NC, 27609","Match","Exact","4609 GRAMERCY CT, RALEIGH, NC, 27609",72522879,"L"
650519,"4609 GRAZING WAY","UPPER MARLBORO","MD",20772,38.825462379,-76.8148785129999,19,"4609 GRAZING WAY, UPPER MARLBORO, MD, 20772","Match","Exact","4609 GRAZING WAY, UPPER MARLBORO, MD, 20772",650604900,"R"
650520,"4609 HARRISON ST APT 2","KANSAS CITY","MO",64110,39.0433152520001,-94.574061273,20,"4609 HARRISON ST APT 2, KANSAS CITY, MO, 64110","Match","Exact","4609 HARRISON ST, KANSAS CITY, MO, 64110",91447960,"L"
650521,"4609 HEDGES AVE","KANSAS CITY","MO",64133,39.038507489,-94.453661903,21,"4609 HEDGES AVE, KANSAS CITY, MO, 64133","Match","Exact","4609 HEDGES AVE, KANSAS CITY, MO, 64133",624541038,"L"
650522,"4609 HUMMINGBIRD PLACE","FAYETTEVILLE","NC",28312,35.053261467,-78.763618735,22,"4609 HUMMINGBIRD PLACE, FAYETTEVILLE, NC, 28312","Match","Exact","4609 HUMMINGBIRD PL, FAYETTEVILLE, NC, 28312",64271826,"R"
650523,"4609 HWY 83","EVERGREEN","AL",36401,31.5027012140001,-87.0091587159999,23,"4609 HWY 83, EVERGREEN, AL, 36401","Match","Non_Exact","4609 STATE RTE 83, EVERGREEN, AL, 36401",651758632,"L"
650524,"4609 LATOUR LANE","COLLEYVILLE","TX",76034,32.876761537,-97.108961591,24,"4609 LATOUR LANE, COLLEYVILLE, TX, 76034","Match","Exact","4609 LATOUR LN, COLLEYVILLE, TX, 76034",648428884,"L"
650525,"4609 LAWN AVE","KANSAS CITY","MO",64130,39.0416932950001,-94.530045301,25,"4609 LAWN AVE, KANSAS CITY, MO, 64130","Match","Exact","4609 LAWN AVE, KANSAS CITY, MO, 64130",91453073,"L"
650526,"4609 LISTER","KANSAS CITY","MO",64130,39.0417170260001,-94.528858675,26,"4609 LISTER, KANSAS CITY, MO, 64130","Match","Non_Exact","4609 LISTER AVE, KANSAS CITY, MO, 64130",91453078,"L"
650527,"4609 MERIDIAN PARK DR","PEARLAND","TX",77584,29.555506521,-95.291386717,27,"4609 MERIDIAN PARK DR, PEARLAND, TX, 77584","Match","Exact","4609 MERIDIAN PARK DR, PEARLAND, TX, 77584",631999829,"L"
650528,"4609 MERIDIAN PARK DRIVE","PEARLAND","TX",77584,29.555506521,-95.291386717,28,"4609 MERIDIAN PARK DRIVE, PEARLAND, TX, 77584","Match","Exact","4609 MERIDIAN PARK DR, PEARLAND, TX, 77584",631999829,"L"
650529,"4609 MICHAUX ST","HOUSTON","TX",77009,29.797310516,-95.384394577,29,"4609 MICHAUX ST, HOUSTON, TX, 77009","Match","Exact","4609 MICHAUX ST, HOUSTON, TX, 77009",96065316,"L"
650530,"4609 MIDDLEBORO LANE","GAINESVILLE","GA",30506,34.363126784,-83.904189909,30,"4609 MIDDLEBORO LANE, GAINESVILLE, GA, 30506","Match","Exact","4609 MIDDLEBORO LN, GAINESVILLE, GA, 30506",618456013,"L"
650531,"4609 N ARDMORE AVE","MILWAUKEE","WI",53211,43.1001591620001,-87.894738472,31,"4609 N ARDMORE AVE, MILWAUKEE, WI, 53211","Match","Exact","4609 N ARDMORE AVE, MILWAUKEE, WI, 53211",77743041,"L"
650532,"4609 NARAGANSETT AVE","SAN DIEGO","CA",92107,32.7410671230001,-117.245832968,32,"4609 NARAGANSETT AVE, SAN DIEGO, CA, 92107","Match","Non_Exact","4609 NARRAGANSETT AVE, SAN DIEGO, CA, 92107",195339741,"L"
650533,"4609 NAVAJO TRAIL","BALCH SPRINGS","TX",75180,32.7087109940001,-96.601223593,33,"4609 NAVAJO TRAIL, BALCH SPRINGS, TX, 75180","Match","Exact","4609 NAVAJO TRL, BALCH SPRINGS, TX, 75180",102964327,"R"
650534,"4609 OLD STONE LN","GASTONIA","NC",28056,35.2447047370001,-81.097070407,34,"4609 OLD STONE LN, GASTONIA, NC, 28056","Match","Exact","4609 OLD STONE LN, GASTONIA, NC, 28056",70452694,"R"
650535,"4609 ORCHARD AVE","LOS ANGELES","CA",90037,34.001608882,-118.288981218,35,"4609 ORCHARD AVE, LOS ANGELES, CA, 90037","Match","Exact","4609 ORCHARD AVE, LOS ANGELES, CA, 90037",141607851,"R"
650536,"4609 ORCHARD PARKWAY","MUSKOGEE","OK",74403,35.695610597,-95.36817323,36,"4609 ORCHARD PARKWAY, MUSKOGEE, OK, 74403","Match","Exact","4609 ORCHARD PKWY, MUSKOGEE, OK, 74403",91950968,"R"
650537,"4609 PAGE DRIVE","METAIRIE","LA",70003,30.020546903,-90.2072633929999,37,"4609 PAGE DRIVE, METAIRIE, LA, 70003","Match","Exact","4609 PAGE DR, METAIRIE, LA, 70003",93496766,"R"
650538,"4609 PEZANCE PL","UPPER MARLBORO","MD",20772,NA,NA,38,"4609 PEZANCE PL, UPPER MARLBORO, MD, 20772","No_Match",NA,NA,NA,NA
650539,"4609 PINECREST OFFICE PARK DRIVE","ALEXANDRIA","VA",22312,38.8240842280001,-77.161009032,39,"4609 PINECREST OFFICE PARK DRIVE, ALEXANDRIA, VA, 22312","Match","Exact","4609 PINECREST OFFICE PARK DR, ALEXANDRIA, VA, 22312",76004685,"R"
650540,"4609 QUAIL LAKES DR STE 4","STOCKTON","CA",95207,37.987495224,-121.340182462,40,"4609 QUAIL LAKES DR STE 4, STOCKTON, CA, 95207","Match","Exact","4609 QUAIL LAKES DR, STOCKTON, CA, 95207",133932542,"R"
650541,"4609 RAMSGATE COURT","ARLINGTON","TX",76013,32.7082378960001,-97.178531263,41,"4609 RAMSGATE COURT, ARLINGTON, TX, 76013","Match","Exact","4609 RAMSGATE CT, ARLINGTON, TX, 76013",101902099,"R"
650542,"4609 RASPBERRY PATCH LANE","HENRICO","VA",23231,37.523451445,-77.378964454,42,"4609 RASPBERRY PATCH LANE, HENRICO, VA, 23231","Match","Exact","4609 RASPBERRY PATCH LN, HENRICO, VA, 23231",624751016,"R"
650543,"4609 RIMROCK CT","LAS CRUCES","NM",88012,32.371391096,-106.771753194,43,"4609 RIMROCK CT, LAS CRUCES, NM, 88012","Match","Exact","4609 RIMROCK CT, LAS CRUCES, NM, 88012",627535604,"R"
650544,"4609 RIVERDALE ROAD","RIVERDALE PARK","MD",20737,38.9621693350001,-76.937160702,44,"4609 RIVERDALE ROAD, RIVERDALE PARK, MD, 20737","Match","Exact","4609 RIVERDALE RD, RIVERDALE PARK, MD, 20737",76306173,"R"
650545,"4609 ROSALIE","DEARBORN","MI",48126,42.3180629610001,-83.19917627,45,"4609 ROSALIE, DEARBORN, MI, 48126","Match","Non_Exact","4609 ROSALIE ST, DEARBORN, MI, 48126",95443743,"L"
650546,"4609 ROUNDHILL RD","ALEXANDRIA","VA",22310,38.7828816210001,-77.114242307,46,"4609 ROUNDHILL RD, ALEXANDRIA, VA, 22310","Match","Exact","4609 ROUNDHILL RD, ALEXANDRIA, VA, 22310",75985783,"L"
650547,"4609 SALOMA PLACE","AUSTIN","TX",78749,30.2095201220001,-97.851262084,47,"4609 SALOMA PLACE, AUSTIN, TX, 78749","Match","Exact","4609 SALOMA PL, AUSTIN, TX, 78749",63937693,"L"
650548,"4609 SANDALWOOD","ROSENBURG","TX",77471,29.5496662680001,-95.778222292,48,"4609 SANDALWOOD, ROSENBURG, TX, 77471","Match","Non_Exact","4609 SANDALWOOD AVE, ROSENBERG, TX, 77471",78263738,"L"
650549,"4609 SAYBROOK DR","EVANSVILLE","IN",47711,38.032928408,-87.494458666,49,"4609 SAYBROOK DR, EVANSVILLE, IN, 47711","Match","Exact","4609 SAYBROOK DR, EVANSVILLE, IN, 47711",39798715,"R"
650550,"4609 SENECA ROAD","TRUMANSBURG","NY",14886,42.5476840260001,-76.6602975329999,50,"4609 SENECA ROAD, TRUMANSBURG, NY, 14886","Match","Non_Exact","4609 E SENECA RD, TRUMANSBURG, NY, 14886",14669970,"L"
650551,"4609 SIR BARTON DRIVE","KNIGHTDALE","NC",27545,35.7818026470001,-78.507779892,51,"4609 SIR BARTON DRIVE, KNIGHTDALE, NC, 27545","Match","Exact","4609 SIR BARTON DR, KNIGHTDALE, NC, 27545",624484286,"R"
650552,"4609 SPRING DRIVE","ST LOUIS","MO",63123,38.5447488560001,-90.304831187,52,"4609 SPRING DRIVE, ST LOUIS, MO, 63123","Match","Exact","4609 SPRING DR, SAINT LOUIS, MO, 63123",627117838,"R"
650553,"4609 SPRINGMAID LAND","OXON HILL","MD",20745,38.8266383050001,-76.99102586,53,"4609 SPRINGMAID LAND, OXON HILL, MD, 20745","Match","Non_Exact","4609 SPRINGMAID LN, OXON HILL, MD, 20745",642143051,"L"
650554,"4609 SPRINGMAID LANE","OXON HILL","MD",20745,38.8266383050001,-76.99102586,54,"4609 SPRINGMAID LANE, OXON HILL, MD, 20745","Match","Exact","4609 SPRINGMAID LN, OXON HILL, MD, 20745",642143051,"L"
650555,"4609 STANLEY COURT","WINSTON SALEM","NC",27101,36.1342113860001,-80.163790686,55,"4609 STANLEY COURT, WINSTON SALEM, NC, 27101","Match","Exact","4609 STANLEY CT, WINSTON SALEM, NC, 27101",635546845,"L"
650556,"4609 STARTING POST CT","GAINESVILLE","VA",20155,38.858243972,-77.600554627,56,"4609 STARTING POST CT, GAINESVILLE, VA, 20155","Match","Exact","4609 STARTING POST CT, GAINESVILLE, VA, 20155",619960680,"L"
650557,"4609 SUMAC AVE","KLAMATH FALL","OR",97603,42.1842790640001,-121.73255946,57,"4609 SUMAC AVE, KLAMATH FALL, OR, 97603","Match","Non_Exact","4609 SUMAC AVE, KLAMATH FALLS, OR, 97603",156660221,"R"
650558,"4609 WAKEREY ST","OMAHA","NE",68132,NA,NA,58,"4609 WAKEREY ST, OMAHA, NE, 68132","No_Match",NA,NA,NA,NA
650559,"4609 WEST MILBROOK DRIVE APT  B","COLUMBIA","MO",65203,38.9414975890001,-92.405371642,59,"4609 WEST MILBROOK DRIVE APT  B, COLUMBIA, MO, 65203","Match","Non_Exact","4609 W MILLBROOK DR, COLUMBIA, MO, 65203",605028300,"R"
650560,"4609 WESTCREEK LN","SACHSE","TX",75150,32.9667439740001,-96.593010997,60,"4609 WESTCREEK LN, SACHSE, TX, 75150","Match","Non_Exact","4609 WESTCREEK LN, SACHSE, TX, 75048",102928606,"R"
650561,"4609 WESTERN HILLS DRIVE","WEST DES MOINES","IA",50265,41.5781113360001,-93.764047313,61,"4609 WESTERN HILLS DRIVE, WEST DES MOINES, IA, 50265","Match","Exact","4609 WESTERN HILLS DR, W DES MOINES, IA, 50265",65775111,"R"
650562,"4609 WHITE AVE","BALTIMORE","MD",21206,39.3417546110001,-76.536344588,62,"4609 WHITE AVE, BALTIMORE, MD, 21206","Match","Exact","4609 WHITE AVE, BALTIMORE, MD, 21206",206465364,"R"
650563,"4609 ZOLTON DRIVE","TITUSVILLE","FL",32780,28.563102896,-80.832500604,63,"4609 ZOLTON DRIVE, TITUSVILLE, FL, 32780","Match","Non_Exact","4609 ZOLTAN DR, TITUSVILLE, FL, 32780",93956766,"R"
650564,"46097 239TH STREET","WENTWORTH","SD",57075,43.92065691,-96.991090863,64,"46097 239TH STREET, WENTWORTH, SD, 57075","Match","Exact","46097 239TH ST, WENTWORTH, SD, 57075",203674845,"L"
650565,"461  NATALIE DR","PORT ST LUCIE","FL",34952,27.311810388,-80.315656199,65,"461  NATALIE DR, PORT ST LUCIE, FL, 34952","Match","Exact","461 NATALIE DR, PORT ST LUCIE, FL, 34952",610720359,"L"
650566,"461 22ND AVE","LONGVIEW","WA",98632,46.1260256370001,-122.953673159,66,"461 22ND AVE, LONGVIEW, WA, 98632","Match","Exact","461 22ND AVE, LONGVIEW, WA, 98632",184489525,"L"
650567,"461 2ND EAST","RIRIE","ID",83443,NA,NA,67,"461 2ND EAST, RIRIE, ID, 83443","No_Match",NA,NA,NA,NA
650568,"461 98TH LANE","BLAINE","MN",55434,45.1492162590001,-93.257801469,68,"461 98TH LANE, BLAINE, MN, 55434","Match","Non_Exact","461 98TH LN NE, BLAINE, MN, 55434",97486842,"L"
650569,"461 A S NORTHKILL RD","BERNVILLE","PA",19506,40.4812583840001,-76.1183032129999,69,"461 A S NORTHKILL RD, BERNVILLE, PA, 19506","Match","Exact","461 S NORTHKILL RD, BERNVILLE, PA, 19506",649994104,"L"
650570,"461 AMELIA COURT","LOVELAND","CO",80537,40.3882369880001,-105.118608794,70,"461 AMELIA COURT, LOVELAND, CO, 80537","Match","Exact","461 AMELIA CT, LOVELAND, CO, 80537",188524509,"L"
650571,"461 ARBORWOOD ST","FILLMORE","CA",93015,34.3969971590001,-118.90754644,71,"461 ARBORWOOD ST, FILLMORE, CA, 93015","Match","Exact","461 ARBORWOOD ST, FILLMORE, CA, 93015",624526226,"L"
650572,"461 ASMONT ST","BOSTON","MA",2122,NA,NA,72,"461 ASMONT ST, BOSTON, MA, 2122","No_Match",NA,NA,NA,NA
650573,"461 BACON","AKRON","OH",44320,41.0870385430001,-81.552787037,73,"461 BACON, AKRON, OH, 44320","Match","Non_Exact","461 BACON AVE, AKRON, OH, 44320",61339972,"L"
650574,"461 BEAR CREEK ROAD","HUBERT","NC",28539,34.6580197420001,-77.204353808,74,"461 BEAR CREEK ROAD, HUBERT, NC, 28539","Match","Exact","461 BEAR CREEK RD, HUBERT, NC, 28539",636161128,"R"
650575,"461 BERKSHIRE DRIVE","DANVILLE","VA",24541,36.599402942,-79.475215428,75,"461 BERKSHIRE DRIVE, DANVILLE, VA, 24541","Match","Exact","461 BERKSHIRE DR, DANVILLE, VA, 24541",56663892,"R"
650576,"461 BIG BRUSH CREEK ROAD","BUFFALO","KY",42716,37.4080768050001,-85.577536622,76,"461 BIG BRUSH CREEK ROAD, BUFFALO, KY, 42716","Match","Exact","461 BIG BRUSH CREEK RD, BUFFALO, KY, 42716",69317717,"L"
650577,"461 BRADDOCK DRIVE","NORTH HUNTINGDON","PA",15642,40.3246457860001,-79.737401523,77,"461 BRADDOCK DRIVE, NORTH HUNTINGDON, PA, 15642","Match","Exact","461 BRADDOCK DR, N HUNTINGDON, PA, 15642",52966274,"L"
650578,"461 BRENTWOOD DRIVE","PUEBLO","CO",81005,38.2603763270001,-104.666943279,78,"461 BRENTWOOD DRIVE, PUEBLO, CO, 81005","Match","Exact","461 BRENTWOOD DR, PUEBLO, CO, 81005",105022161,"R"
650579,"461 CANYON CREEK DRIVE","AMERICAN CANYON","CA",94503,38.1619601850001,-122.242816993,79,"461 CANYON CREEK DRIVE, AMERICAN CANYON, CA, 94503","Match","Exact","461 CANYON CREEK DR, AMERICAN CANYON, CA, 94503",67426213,"L"
650580,"461 CAREY STREET","DEERFIELD","MI",49238,41.8939372620001,-83.779331537,80,"461 CAREY STREET, DEERFIELD, MI, 49238","Match","Exact","461 CAREY ST, DEERFIELD, MI, 49238",25948676,"R"
650581,"461 CEDAR MOUNTAIN RD","THOMASTON","CT",6787,41.6473999250001,-73.0676761459999,81,"461 CEDAR MOUNTAIN RD, THOMASTON, CT, 6787","Match","Exact","461 CEDAR MOUNTAIN RD, THOMASTON, CT, 06787",627063475,"L"
650582,"461 CLARK STREET","ORANGE CITY","FL",32763,28.9438228240001,-81.293676191,82,"461 CLARK STREET, ORANGE CITY, FL, 32763","Match","Exact","461 CLARK ST, ORANGE CITY, FL, 32763",94517915,"R"
650583,"461 COLUMBIA 82 WEST","MAGNOLIA","AR",71753,33.2668254060001,-93.1420220689999,83,"461 COLUMBIA 82 WEST, MAGNOLIA, AR, 71753","Match","Non_Exact","461 COLUMBIA RD, MAGNOLIA, AR, 71753",10675812,"L"
650584,"461 COTTONTAIL LANE","ELLENSBURG","WA",98926,47.095437357,-120.556871835,84,"461 COTTONTAIL LANE, ELLENSBURG, WA, 98926","Match","Exact","461 COTTONTAIL LN, ELLENSBURG, WA, 98926",157206694,"L"
650585,"461 COUGAR DR","HOUMA","LA",70360,29.5694673300001,-90.738804736,85,"461 COUGAR DR, HOUMA, LA, 70360","Match","Exact","461 COUGAR DR, HOUMA, LA, 70360",642486691,"L"
650586,"461 COURTRIGHT DR","PICKERINGTON","OH",43147,39.896276546,-82.7662892289999,86,"461 COURTRIGHT DR, PICKERINGTON, OH, 43147","Match","Exact","461 COURTRIGHT DR, PICKERINGTON, OH, 43147",37235932,"R"
650587,"461 CR 4876","DAYTON","TX",77657,29.954633555,-94.964593225,87,"461 CR 4876, DAYTON, TX, 77657","Match","Non_Exact","461 CO RD 4876, DAYTON, TX, 77535",611050661,"R"
650588,"461 CRAIG RD","N ABINGTON TWP","PA",18414,41.5524255870001,-75.66812312,88,"461 CRAIG RD, N ABINGTON TWP, PA, 18414","Match","Exact","461 CRAIG RD, NORTH ABINGTON TOWNSHIP, PA, 18414",139323325,"R"
650589,"461 CRESCENT DR","WEST CHESTER","PA",19382,39.9022230250001,-75.5757744649999,89,"461 CRESCENT DR, WEST CHESTER, PA, 19382","Match","Exact","461 CRESCENT DR, WEST CHESTER, PA, 19382",179515121,"L"
650590,"461 CRIMSON RIDGE DRIVE","JONESBORO","GA",30238,33.5023589240001,-84.376653597,90,"461 CRIMSON RIDGE DRIVE, JONESBORO, GA, 30238","Match","Exact","461 CRIMSON RIDGE DR, JONESBORO, GA, 30238",633906627,"L"
650591,"461 DE LA SALLE AVE","NAPERVILLE","IL",60565,41.7132975150001,-88.151371849,91,"461 DE LA SALLE AVE, NAPERVILLE, IL, 60565","Match","Non_Exact","461 DE LASALLE AVE, NAPERVILLE, IL, 60565",111583341,"L"
650592,"461 DEAN STREET 16F","BROOKLYN","NY",11217,40.6817567800001,-73.975402687,92,"461 DEAN STREET 16F, BROOKLYN, NY, 11217","Match","Exact","461 DEAN ST, BROOKLYN, NY, 11217",650082031,"L"
650593,"461 DEAN STREET 8G","BROOKLYN","NY",11217,40.6817567800001,-73.975402687,93,"461 DEAN STREET 8G, BROOKLYN, NY, 11217","Match","Exact","461 DEAN ST, BROOKLYN, NY, 11217",650082031,"L"
650594,"461 DEKALB AVE","BROOKLYN","NY",11205,40.6905323570001,-73.958748171,94,"461 DEKALB AVE, BROOKLYN, NY, 11205","Match","Exact","461 DEKALB AVE, BROOKLYN, NY, 11205",59078033,"L"
650595,"461 DOMINISH ESTATES DR","APOPKA","FL",32712,28.685311407,-81.4899783129999,95,"461 DOMINISH ESTATES DR, APOPKA, FL, 32712","Match","Exact","461 DOMINISH ESTATES DR, APOPKA, FL, 32712",94415787,"R"
650596,"461 DOVE LN","AXSON","GA",31624,31.3007968590001,-82.7393118909999,96,"461 DOVE LN, AXSON, GA, 31624","Match","Exact","461 DOVE LN, AXSON, GA, 31624",612837829,"R"
650597,"461 E 300 S","PORTLAND","IN",47371,40.3963391680001,-84.968786168,97,"461 E 300 S, PORTLAND, IN, 47371","Match","Exact","461 E 300 S, PORTLAND, IN, 47371",45039804,"R"
650598,"461 E BROWN STREET","BLAIRSVILLE","PA",15717,40.4302986430001,-79.255634196,98,"461 E BROWN STREET, BLAIRSVILLE, PA, 15717","Match","Exact","461 E BROWN ST, BLAIRSVILLE, PA, 15717",66294784,"L"
650599,"461 E CLARA ST","PORT HUENEME","CA",93041,34.1516029150001,-119.193862608,99,"461 E CLARA ST, PORT HUENEME, CA, 93041","Match","Exact","461 E CLARA ST, PORT HUENEME, CA, 93041",648278433,"L"
650600,"461 E ENCINIS AVENUE","GILBERT","AZ",85234,33.369122067,-111.780767022,100,"461 E ENCINIS AVENUE, GILBERT, AZ, 85234","Match","Non_Exact","461 E ENCINAS AVE, GILBERT, AZ, 85234",128254901,"R"
650601,"461 E FULLERTON AVENUE","GLENDALE HEIGHTS","IL",60139,41.9183963470001,-88.0686039989999,101,"461 E FULLERTON AVENUE, GLENDALE HEIGHTS, IL, 60139","Match","Exact","461 FULLERTON AVE, GLENDALE HEIGHTS, IL, 60139",112520706,"R"
650602,"461 EAST CALIFORNIA ST","KALISPELL","MT",59901,48.206044036,-114.31023719,102,"461 EAST CALIFORNIA ST, KALISPELL, MT, 59901","Match","Exact","461 E CALIFORNIA ST, KALISPELL, MT, 59901",204086918,"R"
650603,"461 EAST CLINTON STREET","DOYLESTOWN","OH",44230,40.9638626730001,-81.692771296,103,"461 EAST CLINTON STREET, DOYLESTOWN, OH, 44230","Match","Exact","461 E CLINTON ST, DOYLESTOWN, OH, 44230",58732292,"R"
650604,"461 EAST MAIN STREET","OWEGO","NY",13827,42.108668424,-76.2508953299999,104,"461 EAST MAIN STREET, OWEGO, NY, 13827","Match","Exact","461 E MAIN ST, OWEGO, NY, 13827",618280300,"L"
650605,"461 ELCINO DR","PENSACOLA","FL",32526,30.453501153,-87.33465754,105,"461 ELCINO DR, PENSACOLA, FL, 32526","Match","Exact","461 ELCINO DR, PENSACOLA, FL, 32526",93273522,"R"
650606,"461 ELM STREET","LUDLOW","KY",41016,39.0925425950001,-84.552355625,106,"461 ELM STREET, LUDLOW, KY, 41016","Match","Exact","461 ELM ST, LUDLOW, KY, 41016",103874301,"L"
650607,"461 ENSLEY STREET","PENSACOLA","FL",32514,30.521990772,-87.2529089989999,107,"461 ENSLEY STREET, PENSACOLA, FL, 32514","Match","Non_Exact","461 E ENSLEY ST, PENSACOLA, FL, 32514",93211383,"R"
650608,"461 ERVIN LANE","COVINGTON","TN",38019,35.6052443070001,-89.642572301,108,"461 ERVIN LANE, COVINGTON, TN, 38019","Match","Exact","461 ERVIN LN, COVINGTON, TN, 38019",73169599,"L"
650609,"461 FANNIE STREET","MCDONALD","PA",15057,40.376040118,-80.232910084,109,"461 FANNIE STREET, MCDONALD, PA, 15057","Match","Non_Exact","461 FANNIE ST, MC DONALD, PA, 15057",622871842,"L"
650610,"461 FIFTH STREET","ELKO","NV",89801,40.832990954,-115.763665764,110,"461 FIFTH STREET, ELKO, NV, 89801","Match","Exact","461 5TH ST, ELKO, NV, 89801",154626047,"L"
650611,"461 FINCH LANE","LEXINGTON","SC",29073,33.9411811030001,-81.2121045329999,111,"461 FINCH LANE, LEXINGTON, SC, 29073","Match","Exact","461 FINCH LN, LEXINGTON, SC, 29073",650426482,"L"
650612,"461 FOREST HILL RD","MACON","GA",31210,32.8698754650001,-83.689758748,112,"461 FOREST HILL RD, MACON, GA, 31210","Match","Exact","461 FOREST HILL RD, MACON, GA, 31210",81078447,"R"
650613,"461 GAGE ST","PLANADA","CA",95365,37.2946808090001,-120.322653887,113,"461 GAGE ST, PLANADA, CA, 95365","Match","Exact","461 GAGE ST, PLANADA, CA, 95365",125284900,"L"
650614,"461 GLEBE ROAD","DALEVILLE","VA",24083,37.4199725130001,-79.919267669,114,"461 GLEBE ROAD, DALEVILLE, VA, 24083","Match","Exact","461 GLEBE RD, DALEVILLE, VA, 24083",62460907,"R"
650615,"461 GODWIN STREET","PORTSMOUTH","VA",23704,36.835343719,-76.315372012,115,"461 GODWIN STREET, PORTSMOUTH, VA, 23704","Match","Exact","461 GODWIN ST, PORTSMOUTH, VA, 23704",122199626,"L"
650616,"461 GOLFVIEW WAY","BOWLING GREEN","KY",42104,36.912487217,-86.4598299369999,116,"461 GOLFVIEW WAY, BOWLING GREEN, KY, 42104","Match","Exact","461 GOLFVIEW WAY, BOWLING GREEN, KY, 42104",28028790,"R"
650617,"461 GRAND NATIONAL LN","ELGIN","SC",29045,34.1371173110001,-80.855327866,117,"461 GRAND NATIONAL LN, ELGIN, SC, 29045","Match","Exact","461 GRAND NATIONAL LN, ELGIN, SC, 29045",625618653,"L"
650618,"461 GRASSY RIDGE ROAD","MOUNT STORM","WV",26739,39.2127420840001,-79.2254931379999,118,"461 GRASSY RIDGE ROAD, MOUNT STORM, WV, 26739","Match","Exact","461 GRASSY RIDGE RD, MOUNT STORM, WV, 26739",642983747,"R"
650619,"461 GRAVES RD","YANCEYVILLE","NC",27320,36.3324392980001,-79.472288663,119,"461 GRAVES RD, YANCEYVILLE, NC, 27320","Match","Non_Exact","461 GRAVES RD, REIDSVILLE, NC, 27320",96780223,"R"
650620,"461 GREENAN","LAKE ORION","MI",48362,42.7787993580001,-83.290048852,120,"461 GREENAN, LAKE ORION, MI, 48362","Match","Non_Exact","461 GREENAN LN, LAKE ORION, MI, 48362",69825468,"L"
650621,"461 GREENRIDGE CIRCLE","STONE MOUNTAIN","GA",30083,33.7885316520001,-84.239435737,121,"461 GREENRIDGE CIRCLE, STONE MOUNTAIN, GA, 30083","Match","Exact","461 GREENRIDGE CIR, STONE MOUNTAIN, GA, 30083",23369957,"R"
650622,"461 HARBOR BLVD","BELMONT","CA",94002,37.51978681,-122.268795792,122,"461 HARBOR BLVD, BELMONT, CA, 94002","Match","Exact","461 HARBOR BLVD, BELMONT, CA, 94002",192381956,"L"
650623,"461 HARVICK CIRCLE","STOCKBRIDGE","GA",30281,33.5309522100001,-84.2027179089999,123,"461 HARVICK CIRCLE, STOCKBRIDGE, GA, 30281","Match","Exact","461 HARVICK CIR, STOCKBRIDGE, GA, 30281",653449142,"L"
650624,"461 HERITAGE WAY","CAMERON","NC",28326,35.26592845,-79.0738231289999,124,"461 HERITAGE WAY, CAMERON, NC, 28326","Match","Exact","461 HERITAGE WAY, CAMERON, NC, 28326",71975040,"L"
650625,"461 HICKORY WALK","MARIETTA","GA",30064,33.9495944670001,-84.5813289719999,125,"461 HICKORY WALK, MARIETTA, GA, 30064","Match","Exact","461 HICKORY WALK, MARIETTA, GA, 30064",17205631,"R"
650626,"461 HIGHLAND AVENUE","ATHENS","GA",30605,33.9401704380001,-83.395223261,126,"461 HIGHLAND AVENUE, ATHENS, GA, 30605","Match","Non_Exact","461 HIGHLAND AVE, ATHENS, GA, 30606",4803085,"L"
650627,"461 HIGHWAY CC","MONTGOMERY CITY","MO",63361,NA,NA,127,"461 HIGHWAY CC, MONTGOMERY CITY, MO, 63361","No_Match",NA,NA,NA,NA
650628,"461 HILLSIDE AVE","PISCATAWAY","NJ",8554,NA,NA,128,"461 HILLSIDE AVE, PISCATAWAY, NJ, 8554","No_Match",NA,NA,NA,NA
650629,"461 JONAH KELSEY RD","RUSSELL SPRINGS","KY",42642,37.029414274,-84.964347613,129,"461 JONAH KELSEY RD, RUSSELL SPRINGS, KY, 42642","Match","Exact","461 JONAH KELSEY RD, RUSSELL SPRINGS, KY, 42642",38440925,"L"
650630,"461 JUNG BLVD E","NAPLES","FL",34120,26.260965094,-81.5987790359999,130,"461 JUNG BLVD E, NAPLES, FL, 34120","Match","Exact","461 JUNG BLVD E, NAPLES, FL, 34120",115128939,"L"
650631,"461 KAHINU STREET","HONOLULU","HI",96821,21.293746345,-157.725454351,131,"461 KAHINU STREET, HONOLULU, HI, 96821","Match","Exact","461 KAHINU ST, HONOLULU, HI, 96821",203243944,"R"
650632,"461 KEMPER ST","SHREVEPORT","LA",71106,32.4405235510001,-93.74897507,132,"461 KEMPER ST, SHREVEPORT, LA, 71106","Match","Exact","461 KEMPER ST, SHREVEPORT, LA, 71106",57440156,"R"
650633,"461 LAKE VIEW ALCOVE","WOODBURY","MN",55129,44.942432641,-92.896536533,133,"461 LAKE VIEW ALCOVE, WOODBURY, MN, 55129","Match","Exact","461 LAKE VIEW ALCOVE, WOODBURY, MN, 55129",97836706,"R"
650634,"461 LILLY CT","MIDLOTHIAN","TX",76065,32.437676163,-96.989105251,134,"461 LILLY CT, MIDLOTHIAN, TX, 76065","Match","Exact","461 LILLY CT, MIDLOTHIAN, TX, 76065",651865174,"R"
650635,"461 LINWOOD AVE","BUFFALO","NY",14209,42.9146310530001,-78.867048817,135,"461 LINWOOD AVE, BUFFALO, NY, 14209","Match","Exact","461 LINWOOD AVE, BUFFALO, NY, 14209",48289769,"R"
650636,"461 LIVE OAK BLVD","BATON ROUGE","LA",70806,30.4522678490001,-91.1489848689999,136,"461 LIVE OAK BLVD, BATON ROUGE, LA, 70806","Match","Exact","461 LIVE OAK BLVD, BATON ROUGE, LA, 70806",92183935,"L"
650637,"461 LOCKHART STREET","DAYTONA BEACH","FL",32114,29.1998006640001,-81.0290966759999,137,"461 LOCKHART STREET, DAYTONA BEACH, FL, 32114","Match","Exact","461 LOCKHART ST, DAYTONA BEACH, FL, 32114",94524877,"L"
650638,"461 LONG MEADOW","SPRING BRANCH","TX",78070,29.8182669940001,-98.399947641,138,"461 LONG MEADOW, SPRING BRANCH, TX, 78070","Match","Exact","461 LONG MEADOW, SPRING BRANCH, TX, 78070",72271571,"L"
650639,"461 LONG RIDGE DRIVE","SEVEN HILLS","OH",44131,41.4069097170001,-81.6825593149999,139,"461 LONG RIDGE DRIVE, SEVEN HILLS, OH, 44131","Match","Exact","461 LONG RIDGE DR, SEVEN HILLS, OH, 44131",61117462,"L"
650640,"461 LORING PLACE","HORIZON CITY","TX",79928,31.696413035,-106.20752328,140,"461 LORING PLACE, HORIZON CITY, TX, 79928","Match","Exact","461 LORING PL, HORIZON CITY, TX, 79928",189357293,"L"
650641,"461 LOXLEY COURT","TITUSVILLE","FL",32780,28.546136711,-80.802420253,141,"461 LOXLEY COURT, TITUSVILLE, FL, 32780","Match","Exact","461 LOXLEY CT, TITUSVILLE, FL, 32780",93959761,"R"
650642,"461 LYNN DRIVE","BEREA","OH",44017,41.3602016400001,-81.868992729,142,"461 LYNN DRIVE, BEREA, OH, 44017","Match","Exact","461 LYNN DR, BEREA, OH, 44017",61130635,"L"
650643,"461 MAPLE DRIVE","REXBURG","ID",83440,43.824564428,-111.770796791,143,"461 MAPLE DRIVE, REXBURG, ID, 83440","Match","Exact","461 MAPLE DR, REXBURG, ID, 83440",119090982,"R"
650644,"461 MARINE STREET","MOBILE","AL",36605,30.678187058,-88.055387266,144,"461 MARINE STREET, MOBILE, AL, 36605","Match","Non_Exact","461 MARINE ST, MOBILE, AL, 36604",61867758,"L"
650645,"461 MARION","SALT LAKE CITY","UT",84116,40.7793251050001,-111.921126528,145,"461 MARION, SALT LAKE CITY, UT, 84116","Match","Non_Exact","461 MARION ST, SALT LAKE CITY, UT, 84116",176066604,"L"
650646,"461 MARTIN LUTHER KING N","LIBERTY","TX",77575,30.0586063760001,-94.736948736,146,"461 MARTIN LUTHER KING N, LIBERTY, TX, 77575","Match","Non_Exact","461 MARTIN L KING ST N, LIBERTY, TX, 77575",624479201,"L"
650647,"461 MCINTOSH AVE","ORANGE PARK","FL",32073,30.1674062810001,-81.704082843,147,"461 MCINTOSH AVE, ORANGE PARK, FL, 32073","Match","Non_Exact","461 MC INTOSH AVE, ORANGE PARK, FL, 32073",83815771,"R"
650648,"461 MEADOWOOD BLVD","CASSELBERRY","FL",32730,28.6481219820001,-81.3430497159999,148,"461 MEADOWOOD BLVD, CASSELBERRY, FL, 32730","Match","Exact","461 MEADOWOOD BLVD, CASSELBERRY, FL, 32730",639253775,"R"
650649,"461 MELISSA DRIVE","CHESTER","CA",96020,40.3089071630001,-121.224535381,149,"461 MELISSA DRIVE, CHESTER, CA, 96020","Match","Non_Exact","461 MELISSA AVE, CHESTER, CA, 96020",127223746,"L"
650650,"461 MORNING STAR COURT","KELLER","TX",76248,32.9132163830001,-97.2412931329999,150,"461 MORNING STAR COURT, KELLER, TX, 76248","Match","Exact","461 MORNING STAR CT, KELLER, TX, 76248",101860271,"L"
650651,"461 MT SIDNEY RD","LANCASTER","PA",17602,40.0504195500001,-76.2124713759999,151,"461 MT SIDNEY RD, LANCASTER, PA, 17602","Match","Exact","461 MOUNT SIDNEY RD, LANCASTER, PA, 17602",179666600,"R"
650652,"461 N 44TH ST APT 1717","LINCOLN","NE",68503,40.8169198580001,-96.657656537,152,"461 N 44TH ST APT 1717, LINCOLN, NE, 68503","Match","Non_Exact","461 N 44TH ST, LINCOLN, NE, 68503",653359915,"R"
650653,"461 N 5TH ST","LEBANON","PA",17046,40.347441125,-76.419901379,153,"461 N 5TH ST, LEBANON, PA, 17046","Match","Exact","461 N 5TH ST, LEBANON, PA, 17046",80676965,"L"
650654,"461 N OAK","ELMHURST","IL",60126,41.9117649500001,-87.953605937,154,"461 N OAK, ELMHURST, IL, 60126","Match","Non_Exact","461 OAK ST, ELMHURST, IL, 60126",112544520,"R"
650655,"461 N SABINE ST","ST DAVID","AZ",85630,31.9139589070001,-110.264573531,155,"461 N SABINE ST, ST DAVID, AZ, 85630","Match","Non_Exact","461 N SABIN ST, SAINT DAVID, AZ, 85630",121031826,"R"
650656,"461 NEW ORCHARD ROAD","EPSOM","NH",3234,43.251877295,-71.344341442,156,"461 NEW ORCHARD ROAD, EPSOM, NH, 3234","Match","Exact","461 NEW ORCHARD RD, EPSOM, NH, 03234",649943531,"L"
650657,"461 NORTH CORRY","FORT BRAGG","CA",95437,39.4462190450001,-123.799382981,157,"461 NORTH CORRY, FORT BRAGG, CA, 95437","Match","Non_Exact","461 N CORRY ST, FORT BRAGG, CA, 95437",67256452,"L"
650658,"461 NORTH FRESNO STREET","FRESNO","CA",93701,36.749790508,-119.781499642,158,"461 NORTH FRESNO STREET, FRESNO, CA, 93701","Match","Exact","461 N FRESNO ST, FRESNO, CA, 93701",197580102,"L"
650659,"461 NORTH SHORE DR","NEW RICHMOND","WI",54017,45.132003276,-92.5309720499999,159,"461 NORTH SHORE DR, NEW RICHMOND, WI, 54017","Match","Exact","461 N SHORE DR, NEW RICHMOND, WI, 54017",110902543,"R"
650660,"461 OAK GROVE CLOVER HILL CH ROAD","LAWNDALE","NC",28090,NA,NA,160,"461 OAK GROVE CLOVER HILL CH ROAD, LAWNDALE, NC, 28090","No_Match",NA,NA,NA,NA
650661,"461 OAK POINT DR","LA PLACE","LA",70068,30.0969766790001,-90.47974314,161,"461 OAK POINT DR, LA PLACE, LA, 70068","Match","Exact","461 OAK POINT DR, LA PLACE, LA, 70068",614108025,"R"
650662,"461 OAK POINT","LA PLACE","LA",70068,30.0969766790001,-90.47974314,162,"461 OAK POINT, LA PLACE, LA, 70068","Match","Non_Exact","461 OAK POINT DR, LA PLACE, LA, 70068",614108025,"R"
650663,"461 OLD DIXIE WAY","FOREST PARK","GA",30297,33.5874210050001,-84.376674554,163,"461 OLD DIXIE WAY, FOREST PARK, GA, 30297","Match","Exact","461 OLD DIXIE WAY, FOREST PARK, GA, 30297",23326531,"R"
650664,"461 OLD FREE HOPE ROAD","CHATSWORTH","GA",30705,34.7758243110001,-84.843056756,164,"461 OLD FREE HOPE ROAD, CHATSWORTH, GA, 30705","Match","Exact","461 OLD FREE HOPE RD, CHATSWORTH, GA, 30705",57104788,"L"
650665,"461 ORIOLE LN","JUPITER","FL",33458,26.9050063600001,-80.1374524779999,165,"461 ORIOLE LN, JUPITER, FL, 33458","Match","Exact","461 ORIOLE LN, JUPITER, FL, 33458",115351593,"L"
650666,"461 OTIS ROAD","NORTH BRUNSWICK","NJ",8902,40.4574168510001,-74.4582722709999,166,"461 OTIS ROAD, NORTH BRUNSWICK, NJ, 8902","Match","Exact","461 OTIS RD, N BRUNSWICK, NJ, 08902",60264356,"R"
650667,"461 OWASSO HILLS DRIVE","ROSEVILLE","MN",55113,45.0301975780001,-93.1201031159999,167,"461 OWASSO HILLS DRIVE, ROSEVILLE, MN, 55113","Match","Exact","461 OWASSO HILLS DR, ROSEVILLE, MN, 55113",97663616,"L"
650668,"461 PARIS HILL RD","PARIS","ME",4271,NA,NA,168,"461 PARIS HILL RD, PARIS, ME, 4271","No_Match",NA,NA,NA,NA
650669,"461 PEEBLES STREET","PITTSBURGH","PA",15221,40.4418549640001,-79.8941443859999,169,"461 PEEBLES STREET, PITTSBURGH, PA, 15221","Match","Exact","461 PEEBLES ST, PITTSBURGH, PA, 15221",623196813,"L"
650670,"461 PENN BOULEVARD","YORK","PA",17402,39.9291887050001,-76.663982823,170,"461 PENN BOULEVARD, YORK, PA, 17402","Match","Exact","461 PENN BLVD, YORK, PA, 17402",648164469,"L"
650671,"461 PITTS RD","CATAWBA","SC",29704,34.832470904,-80.946885545,171,"461 PITTS RD, CATAWBA, SC, 29704","Match","Exact","461 PITTS RD, CATAWBA, SC, 29704",618822379,"R"
650672,"461 PRIVATE ROAD 332","ATLANTA","TX",75551,NA,NA,172,"461 PRIVATE ROAD 332, ATLANTA, TX, 75551","No_Match",NA,NA,NA,NA
650673,"461 PROVIDENCE RUN WAY","LAWRENCEVILLE","GA",30046,33.963772819,-83.96679662,173,"461 PROVIDENCE RUN WAY, LAWRENCEVILLE, GA, 30046","Match","Exact","461 PROVIDENCE RUN WAY, LAWRENCEVILLE, GA, 30046",650162559,"R"
650674,"461 RIVER BEND BLVD","KENT","OH",44240,41.168959306,-81.352937599,174,"461 RIVER BEND BLVD, KENT, OH, 44240","Match","Exact","461 RIVER BEND BLVD, KENT, OH, 44240",137532062,"L"
650675,"461 RUTHERFORD DRIVE","COVINGTON","LA",70433,30.428644558,-90.094370603,175,"461 RUTHERFORD DRIVE, COVINGTON, LA, 70433","Match","Exact","461 RUTHERFORD DR, COVINGTON, LA, 70433",111271947,"R"
650676,"461 S 4TH ST","BLYTHE","CA",92225,33.6040274310001,-114.591664557,176,"461 S 4TH ST, BLYTHE, CA, 92225","Match","Exact","461 S FOURTH ST, BLYTHE, CA, 92225",194811380,"L"
650677,"461 S 7TH ST","LAFAYETTE","IN",47901,40.412762119,-86.888420534,177,"461 S 7TH ST, LAFAYETTE, IN, 47901","Match","Exact","461 S 7TH ST, LAFAYETTE, IN, 47901",27306207,"L"
650678,"461 S BARNES DRIVE 114","GARLAND","TX",75042,NA,NA,178,"461 S BARNES DRIVE 114, GARLAND, TX, 75042","Tie",NA,NA,NA,NA
650679,"461 S BARNES DRIVE","GARLAND","TX",75042,32.9102315850001,-96.6799833429999,179,"461 S BARNES DRIVE, GARLAND, TX, 75042","Match","Exact","461 S BARNES DR, GARLAND, TX, 75042",614082859,"R"
650680,"461 S BARRINGTON COURT","NEWARK","DE",19702,39.6069876870001,-75.778843756,180,"461 S BARRINGTON COURT, NEWARK, DE, 19702","Match","Exact","461 S BARRINGTON CT, NEWARK, DE, 19702",187288039,"R"
650681,"461 S BARRINGTON CT","NEWARK","DE",19702,39.6069876870001,-75.778843756,181,"461 S BARRINGTON CT, NEWARK, DE, 19702","Match","Exact","461 S BARRINGTON CT, NEWARK, DE, 19702",187288039,"R"
650682,"461 S BEECH DALY","DEARBORN HEIGHTS","MI",48125,NA,NA,182,"461 S BEECH DALY, DEARBORN HEIGHTS, MI, 48125","Tie",NA,NA,NA,NA
650683,"461 S BLACK BRANCH RD","CECILIA","KY",42724,37.6593483030001,-85.9750120099999,183,"461 S BLACK BRANCH RD, CECILIA, KY, 42724","Match","Exact","461 S BLACK BRANCH RD, CECILIA, KY, 42724",34620569,"L"
650684,"461 S BRYANT AVE","TUCSON","AZ",85711,32.214202759,-110.903060258,184,"461 S BRYANT AVE, TUCSON, AZ, 85711","Match","Exact","461 S BRYANT AVE, TUCSON, AZ, 85711",121175760,"L"
650685,"461 S BRYANT","TUCOSN","AZ",85711,32.214202759,-110.903060258,185,"461 S BRYANT, TUCOSN, AZ, 85711","Match","Non_Exact","461 S BRYANT AVE, TUCSON, AZ, 85711",121175760,"L"
650686,"461 S BRYANT","TUCSON","AZ",85711,32.214202759,-110.903060258,186,"461 S BRYANT, TUCSON, AZ, 85711","Match","Non_Exact","461 S BRYANT AVE, TUCSON, AZ, 85711",121175760,"L"
650687,"461 S HARKNESS","JACKSON","GA",30223,NA,NA,187,"461 S HARKNESS, JACKSON, GA, 30223","No_Match",NA,NA,NA,NA
650688,"461 S MAIN ST","WILLITS","CA",95490,39.4068009220001,-123.352079108,188,"461 S MAIN ST, WILLITS, CA, 95490","Match","Exact","461 S MAIN ST, WILLITS, CA, 95490",67312352,"R"
650689,"461 S MILPITAS BLVD SUITE 1","MILPITAS","CA",95035,37.425272212,-121.894764254,189,"461 S MILPITAS BLVD SUITE 1, MILPITAS, CA, 95035","Match","Non_Exact","461 S MILPITAS BLVD, MILPITAS, CA, 95035",650107698,"R"
650690,"461 SANTA DOMINGA","SOLANA BEACH","CA",92075,33.0042176260001,-117.253679893,190,"461 SANTA DOMINGA, SOLANA BEACH, CA, 92075","Match","Exact","461 SANTA DOMINGA, SOLANA BEACH, CA, 92075",195294118,"L"
650691,"461 SARATOGA STREET","FILLMORE","CA",93015,34.4021313600001,-118.911598564,191,"461 SARATOGA STREET, FILLMORE, CA, 93015","Match","Exact","461 SARATOGA ST, FILLMORE, CA, 93015",109989850,"L"
650692,"461 SCHOOLHOUSE LANE","PHILADELPHIA","PA",19144,40.0271728980001,-75.180076274,192,"461 SCHOOLHOUSE LANE, PHILADELPHIA, PA, 19144","Match","Non_Exact","461 W SCHOOL HOUSE LN, PHILADELPHIA, PA, 19144",131401114,"R"
650693,"461 SCOTTS RUN ROAD - APT 1","OSAGE","WV",26543,39.6592739050001,-80.008318285,193,"461 SCOTTS RUN ROAD - APT 1, OSAGE, WV, 26543","Match","Exact","461 SCOTTS RUN RD, OSAGE, WV, 26543",50738935,"L"
650694,"461 SHOREWOOD CT","NORFOLK","VA",23502,36.8338003120001,-76.2136014279999,194,"461 SHOREWOOD CT, NORFOLK, VA, 23502","Match","Exact","461 SHOREWOOD CT, NORFOLK, VA, 23502",624152047,"R"
650695,"461 SOLEDAD ST","SOLEDAD","CA",93960,36.429780298,-121.324708823,195,"461 SOLEDAD ST, SOLEDAD, CA, 93960","Match","Exact","461 SOLEDAD ST, SOLEDAD, CA, 93960",196799884,"L"
650696,"461 SOURTH 4TH STREET","BLYTHE","CA",92225,NA,NA,196,"461 SOURTH 4TH STREET, BLYTHE, CA, 92225","No_Match",NA,NA,NA,NA
650697,"461 SOUTH 4TH STREET","BLYTHE","CA",92225,33.604033192,-114.591664675,197,"461 SOUTH 4TH STREET, BLYTHE, CA, 92225","Match","Exact","461 S FOURTH ST, BLYTHE, CA, 92225",194811380,"L"
650698,"461 SOUTH BROAD STREET","GLEN ROCK","NJ",7452,40.9712136140001,-74.124830435,198,"461 SOUTH BROAD STREET, GLEN ROCK, NJ, 7452","Match","Non_Exact","461 BROAD ST, GLEN ROCK, NJ, 07452",641450539,"L"
650699,"461 SOUTH HARKNESS STREET","JACKSON","GA",30223,33.2918312960001,-83.9765062129999,199,"461 SOUTH HARKNESS STREET, JACKSON, GA, 30223","Match","Non_Exact","461 S HARKNESS ST, JACKSON, GA, 30233",648684895,"L"
650700,"461 SOUTH LAUDERDALE","MEMPHIS","TN",38126,35.134396714,-90.043721263,200,"461 SOUTH LAUDERDALE, MEMPHIS, TN, 38126","Match","Non_Exact","461 S LAUDERDALE ST, MEMPHIS, TN, 38126",72903831,"R"
650701,"461 SOUTH LEHIGH GORGE DRIVE","WEATHERLY","PA",18255,40.9744087710001,-75.765827504,201,"461 SOUTH LEHIGH GORGE DRIVE, WEATHERLY, PA, 18255","Match","Exact","461 S LEHIGH GORGE DR, WEATHERLY, PA, 18255",80623724,"R"
650702,"461 STATE ROUTE 70 EAST","BROWDER","KY",42326,NA,NA,202,"461 STATE ROUTE 70 EAST, BROWDER, KY, 42326","No_Match",NA,NA,NA,NA
650703,"461 STERLING STREET","ATLANTA","GA",30307,33.766203375,-84.344664795,203,"461 STERLING STREET, ATLANTA, GA, 30307","Match","Non_Exact","461 STERLING ST NE, ATLANTA, GA, 30307",23364945,"R"
650704,"461 STONEGATE LANE","FRONT ROYAL","VA",22630,38.9540470910001,-78.1372099659999,204,"461 STONEGATE LANE, FRONT ROYAL, VA, 22630","Match","Exact","461 STONEGATE LN, FRONT ROYAL, VA, 22630",159091940,"L"
650705,"461 SW 1ST AVENUE","OAK HARBOR","WA",98277,48.2977257000001,-122.663308488,205,"461 SW 1ST AVENUE, OAK HARBOR, WA, 98277","Match","Exact","461 SW 1ST AVE, OAK HARBOR, WA, 98277",187607262,"L"
650706,"461 TANGELO COURT","FREMONT","CA",94539,NA,NA,206,"461 TANGELO COURT, FREMONT, CA, 94539","No_Match",NA,NA,NA,NA
650707,"461 TENNESSEE STREET","MEMPHIS","TN",38103,35.1353625450001,-90.061966779,207,"461 TENNESSEE STREET, MEMPHIS, TN, 38103","Match","Exact","461 TENNESSEE ST, MEMPHIS, TN, 38103",72901600,"R"
650708,"461 TOLEMAN ROAD","ROCK TAVERN","NY",12575,41.4695946630001,-74.138845271,208,"461 TOLEMAN ROAD, ROCK TAVERN, NY, 12575","Match","Exact","461 TOLEMAN RD, ROCK TAVERN, NY, 12575",124394601,"L"
650709,"461 UNIVERSAL STREET","MCCOMB","MS",39648,31.220347986,-90.464362621,209,"461 UNIVERSAL STREET, MCCOMB, MS, 39648","Match","Exact","461 UNIVERSAL ST, MCCOMB, MS, 39648",75858876,"R"
650710,"461 VAN KIRK STREET","PHILA","PA",19120,40.0445708450001,-75.103685545,210,"461 VAN KIRK STREET, PHILA, PA, 19120","Match","Exact","461 VAN KIRK ST, PHILA, PA, 19120",131414835,"L"
650711,"461 VAN KIRK STREET","PHILADELPHIA","PA",19120,40.0445708450001,-75.103685545,211,"461 VAN KIRK STREET, PHILADELPHIA, PA, 19120","Match","Exact","461 VAN KIRK ST, PHILADELPHIA, PA, 19120",131414835,"L"
650712,"461 W  BRENTWOOD LANE","GLENDALE","WI",53217,43.1337254600001,-87.9143384719999,212,"461 W  BRENTWOOD LANE, GLENDALE, WI, 53217","Match","Exact","461 W BRENTWOOD LN, GLENDALE, WI, 53217",77736276,"L"
650713,"461 W 11TH STREET","SAN PEDRO","CA",90731,33.734214971,-118.287051274,213,"461 W 11TH STREET, SAN PEDRO, CA, 90731","Match","Exact","461 W 11TH ST, SAN PEDRO, CA, 90731",141690668,"L"
650714,"461 W 6TH ST","SAN PEDRO","CA",90731,33.738749404,-118.287031175,214,"461 W 6TH ST, SAN PEDRO, CA, 90731","Match","Exact","461 W 6TH ST, SAN PEDRO, CA, 90731",141690628,"L"
650715,"461 W APACHE TRAIL UNIT 330","APACHE JUNCTION","AZ",85120,NA,NA,215,"461 W APACHE TRAIL UNIT 330, APACHE JUNCTION, AZ, 85120","Tie",NA,NA,NA,NA
650716,"461 W COURTNEY LANE","TEMPE","AZ",85284,33.3259383560001,-111.944657039,216,"461 W COURTNEY LANE, TEMPE, AZ, 85284","Match","Exact","461 W COURTNEY LN, TEMPE, AZ, 85284",642858535,"L"
650717,"461 W MAPLEDALE AVE","HAZEL PARK","MI",48030,42.4723268760001,-83.1086677919999,217,"461 W MAPLEDALE AVE, HAZEL PARK, MI, 48030","Match","Exact","461 W MAPLEDALE AVE, HAZEL PARK, MI, 48030",69747480,"L"
650718,"461 W ORCHARD","ROGERS CITY","MI",49779,45.4134089680001,-83.81573129,218,"461 W ORCHARD, ROGERS CITY, MI, 49779","Match","Non_Exact","461 W ORCHARD ST, ROGERS CITY, MI, 49779",130755355,"R"
650719,"461 W WORKS","SHERIDAN","WY",82801,44.796424453,-106.962453596,219,"461 W WORKS, SHERIDAN, WY, 82801","Match","Non_Exact","461 W WORKS ST, SHERIDAN, WY, 82801",147404442,"R"
650720,"461 WASHINGTON AVENUE","KENLIWORTH","NJ",7033,40.6780170870001,-74.2942156779999,220,"461 WASHINGTON AVENUE, KENLIWORTH, NJ, 7033","Match","Non_Exact","461 WASHINGTON AVE, KENILWORTH, NJ, 07033",60570699,"R"
650721,"461 WEST 13490 SOUTH A402","DRAPER","UT",84020,40.506209825,-111.902785523,221,"461 WEST 13490 SOUTH A402, DRAPER, UT, 84020","Match","Exact","461 W 13490 S, DRAPER, UT, 84020",645882721,"L"
650722,"461 WEST 44TH ST APT 6B","NEW YORK","NY",10036,40.7604492130001,-73.9933667079999,222,"461 WEST 44TH ST APT 6B, NEW YORK, NY, 10036","Match","Exact","461 W 44TH ST, NEW YORK, NY, 10036",59655193,"R"
650723,"461 WEST POPLAR","COLLIERVILLE","TN",38017,35.045827156,-89.677851655,223,"461 WEST POPLAR, COLLIERVILLE, TN, 38017","Match","Non_Exact","461 W POPLAR AVE, COLLIERVILLE, TN, 38017",607494802,"L"
650724,"461 WESTERN PKWY","SEYMOUR","IN",47274,38.954779236,-85.916068617,224,"461 WESTERN PKWY, SEYMOUR, IN, 47274","Match","Exact","461 WESTERN PKWY, SEYMOUR, IN, 47274",31246184,"L"
650725,"461 WESTMINISTTER PL C","HEMET","CA",92545,33.7538964600001,-117.007233542,225,"461 WESTMINISTTER PL C, HEMET, CA, 92545","Match","Non_Exact","461 WESTMINSTER PL, HEMET, CA, 92545",194829120,"L"
650726,"461 WILDEWOOD AVE","GEORGETOWN","SC",29440,33.4016952970001,-79.2798001909999,226,"461 WILDEWOOD AVE, GEORGETOWN, SC, 29440","Match","Exact","461 WILDEWOOD AVE, GEORGETOWN, SC, 29440",29002716,"R"
650727,"461 WILLS ROAD","AMELIA","VA",23002,37.200851033,-77.808188145,227,"461 WILLS ROAD, AMELIA, VA, 23002","Match","Non_Exact","461 WILLS RD, AMELIA COURT HOUSE, VA, 23002",649105073,"R"
650728,"461 WOODVIEW CIRCLE","PALM BEACH GARDENS","FL",33418,26.846625025,-80.120396015,228,"461 WOODVIEW CIRCLE, PALM BEACH GARDENS, FL, 33418","Match","Exact","461 WOODVIEW CIR, PALM BEACH GARDENS, FL, 33418",115352998,"L"
650729,"461 WYONA STREET","BROOKLYN","NY",11207,40.667302427,-73.8917472109999,229,"461 WYONA STREET, BROOKLYN, NY, 11207","Match","Exact","461 WYONA ST, BROOKLYN, NY, 11207",59085065,"L"
650730,"461-515 JANESVILLE GRADE","JANESVILLE","CA",96114,40.274301689,-120.522862709,230,"461-515 JANESVILLE GRADE, JANESVILLE, CA, 96114","Match","Non_Exact","461 JANESVILLE GRADE RD, JANESVILLE, CA, 96114",126962705,"L"
650731,"461","BLAIRSVILLE","PA",15717,NA,NA,231,"461, BLAIRSVILLE, PA, 15717","No_Match",NA,NA,NA,NA
650732,"4610 123RD AVE NE","LAKE STEVENS","WA",98258,48.0379159460001,-122.065156853,232,"4610 123RD AVE NE, LAKE STEVENS, WA, 98258","Match","Exact","4610 123RD AVE NE, LAKE STEVENS, WA, 98258",647682348,"L"
650733,"4610 8TH ST S UNIT 101","WISCONSIN RAPIDS","WI",54494,44.3546051050001,-89.816996524,233,"4610 8TH ST S UNIT 101, WISCONSIN RAPIDS, WI, 54494","Match","Exact","4610 8TH ST S, WISCONSIN RAPIDS, WI, 54494",636198588,"L"
650734,"4610 ALAMANCE STREET","BAYTOWN","TX",77521,29.7669428290001,-94.990388305,234,"4610 ALAMANCE STREET, BAYTOWN, TX, 77521","Match","Exact","4610 ALAMANCE ST, BAYTOWN, TX, 77521",96156427,"L"
650735,"4610 ARLINGTON","FORT SMITH","AR",72904,35.4174279050001,-94.379396464,235,"4610 ARLINGTON, FORT SMITH, AR, 72904","Match","Non_Exact","4610 ARLINGTON AVE, FORT SMITH, AR, 72904",56102840,"R"
650736,"4610 BEE CT","WARRENTON","VA",20186,38.7441835600001,-77.691891095,236,"4610 BEE CT, WARRENTON, VA, 20186","Match","Non_Exact","4610 BEE CT, WARRENTON, VA, 20187",650626796,"L"
650737,"4610 BONNIE VIEW RD","DALLAS","TX",75216,32.7028242220001,-96.7717916139999,237,"4610 BONNIE VIEW RD, DALLAS, TX, 75216","Match","Exact","4610 BONNIE VIEW RD, DALLAS, TX, 75216",102952297,"L"
650738,"4610 BROOKSHIRE PKWY","CARMEL","IN",46033,39.96139671,-86.0939994989999,238,"4610 BROOKSHIRE PKWY, CARMEL, IN, 46033","Match","Exact","4610 BROOKSHIRE PKWY, CARMEL, IN, 46033",29295795,"L"
650739,"4610 CALVERT RD","HUNTSVILLE","AL",35816,34.746434419,-86.6376608099999,239,"4610 CALVERT RD, HUNTSVILLE, AL, 35816","Match","Non_Exact","4610 CALVERT RD NW, HUNTSVILLE, AL, 35816",58205875,"R"
650740,"4610 CAMPBELL APT 2","KANSAS CITY","MO",NA,39.0433183600001,-94.5751950659999,240,"4610 CAMPBELL APT 2, KANSAS CITY, MO, ","Match","Non_Exact","4610 CAMPBELL ST, KANSAS CITY, MO, 64110",91447954,"R"
650741,"4610 CARROLL STREET","PITTSBURG","PA",15224,40.465213761,-79.949464712,241,"4610 CARROLL STREET, PITTSBURG, PA, 15224","Match","Non_Exact","4610 CARROLL ST, PITTSBURGH, PA, 15224",51643039,"R"
650742,"4610 CEDARGARDEN RD","BALTIMORE","MD",21229,39.276878029,-76.6929712749999,242,"4610 CEDARGARDEN RD, BALTIMORE, MD, 21229","Match","Non_Exact","4610 CEDAR GARDEN RD, BALTIMORE, MD, 21229",206413507,"R"
650743,"4610 CENTER BLD APT 1419","LONG ISLAND CITY","NY",11109,40.74751866,-73.956497471,243,"4610 CENTER BLD APT 1419, LONG ISLAND CITY, NY, 11109","Match","Non_Exact","4610 CENTER BLVD, LONG ISLAND CITY, NY, 11109",641564173,"L"
650744,"4610 CENTER BLVD 1105","LONG ISLAND CITY","NY",11109,40.74751866,-73.956497471,244,"4610 CENTER BLVD 1105, LONG ISLAND CITY, NY, 11109","Match","Exact","4610 CENTER BLVD, LONG ISLAND CITY, NY, 11109",641564173,"L"
650745,"4610 CENTER BLVD APT 2316","LONG ISLAND CITY","NY",11109,40.74751866,-73.956497471,245,"4610 CENTER BLVD APT 2316, LONG ISLAND CITY, NY, 11109","Match","Exact","4610 CENTER BLVD, LONG ISLAND CITY, NY, 11109",641564173,"L"
650746,"4610 CENTER BOULEVARD","LONG ISLAND","NY",11109,40.74751866,-73.956497471,246,"4610 CENTER BOULEVARD, LONG ISLAND, NY, 11109","Match","Non_Exact","4610 CENTER BLVD, LONG ISLAND CITY, NY, 11109",641564173,"L"
650747,"4610 CENTRAL DRIVE","STONE MOUNTAIN","GA",30083,33.8122167450001,-84.200679781,247,"4610 CENTRAL DRIVE, STONE MOUNTAIN, GA, 30083","Match","Exact","4610 CENTRAL DR, STONE MOUNTAIN, GA, 30083",23405885,"L"
650748,"4610 CLIFF AVENUE","LOUISVILLE","KY",40202,38.183285074,-85.776187722,248,"4610 CLIFF AVENUE, LOUISVILLE, KY, 40202","Match","Non_Exact","4610 CLIFF AVE, LOUISVILLE, KY, 40215",96848650,"R"
650749,"4610 COUNTRYCROSSING DRIVE","SPRING","TX",77388,30.044755041,-95.4860551639999,249,"4610 COUNTRYCROSSING DRIVE, SPRING, TX, 77388","Match","Exact","4610 COUNTRYCROSSING DR, SPRING, TX, 77388",624860084,"L"
650750,"4610 CRESTWOOD WAY","SACRAMENTO","CA",95822,38.533305156,-121.50618042,250,"4610 CRESTWOOD WAY, SACRAMENTO, CA, 95822","Match","Exact","4610 CRESTWOOD WAY, SACRAMENTO, CA, 95822",133322664,"R"
650751,"4610 DALLAS LN N","PLYMOUTH","MN",55446,NA,NA,251,"4610 DALLAS LN N, PLYMOUTH, MN, 55446","Tie",NA,NA,NA,NA
650752,"4610 DARTMOUTH DR","KILLEEN","TX",76542,31.071373464,-97.731955295,252,"4610 DARTMOUTH DR, KILLEEN, TX, 76542","Match","Exact","4610 DARTMOUTH DR, KILLEEN, TX, 76542",146167002,"R"
650753,"4610 E BROOMSAGE DRIVE","FAYETTEVILLE","AR",72701,NA,NA,253,"4610 E BROOMSAGE DRIVE, FAYETTEVILLE, AR, 72701","No_Match",NA,NA,NA,NA
650754,"4610 E LAKE SAMMAMISH PKWY NE","SAMMAMISH","WA",98074,47.6497414070001,-122.08880588,254,"4610 E LAKE SAMMAMISH PKWY NE, SAMMAMISH, WA, 98074","Match","Exact","4610 E LAKE SAMMAMISH PKWY NE, SAMMAMISH, WA, 98074",636723468,"R"
650755,"4610 E OSBORN","PHOENIX","AZ",85018,33.487491274,-111.98227976,255,"4610 E OSBORN, PHOENIX, AZ, 85018","Match","Non_Exact","4610 E OSBORN RD, PHOENIX, AZ, 85018",642858649,"L"
650756,"4610 EAST DE AVENUE","KALAMAZOO","MI",49004,42.365483527,-85.534740372,256,"4610 EAST DE AVENUE, KALAMAZOO, MI, 49004","Match","Exact","4610 E DE AVE, KALAMAZOO, MI, 49004",12227913,"R"
650757,"4610 ELLA ST","PHILADELPHIA","PA",19104,40.0198883520001,-75.121892008,257,"4610 ELLA ST, PHILADELPHIA, PA, 19104","Match","Non_Exact","4610 ELLA ST, PHILADELPHIA, PA, 19120",131420084,"L"
650758,"4610 ERINWOOD CT","EVANSVILLE","IN",47725,38.065886864,-87.4937127969999,258,"4610 ERINWOOD CT, EVANSVILLE, IN, 47725","Match","Exact","4610 ERINWOOD CT, EVANSVILLE, IN, 47725",627591573,"L"
650759,"4610 EUBANK BLVD NE","ALBUQUERQUE","NM",87111,35.1327559580001,-106.533324554,259,"4610 EUBANK BLVD NE, ALBUQUERQUE, NM, 87111","Match","Exact","4610 EUBANK BLVD NE, ALBUQUERQUE, NM, 87111",206714783,"R"
650760,"4610 FULTON AVENUE UNIT 112","SHERMAN OAKS","AZ",91423,NA,NA,260,"4610 FULTON AVENUE UNIT 112, SHERMAN OAKS, AZ, 91423","No_Match",NA,NA,NA,NA
650761,"4610 GALAHAD DR","NEW ORLEANS","LA",70127,30.018076923,-89.985759522,261,"4610 GALAHAD DR, NEW ORLEANS, LA, 70127","Match","Exact","4610 GALAHAD DR, NEW ORLEANS, LA, 70127",191721138,"L"
650762,"4610 GENESSEE ST","KANSAS CITY","MO",64112,39.0442869730001,-94.6059010389999,262,"4610 GENESSEE ST, KANSAS CITY, MO, 64112","Match","Exact","4610 GENESSEE ST, KANSAS CITY, MO, 64112",91446568,"R"
650763,"4610 GLADYS","BEAUMONT","TX",77706,30.0932789130001,-94.151836122,263,"4610 GLADYS, BEAUMONT, TX, 77706","Match","Non_Exact","4610 GLADYS AVE, BEAUMONT, TX, 77706",73852570,"R"
650764,"4610 GOLFVIEW DR","JORDAN","MN",55352,44.6383464030001,-93.615283628,264,"4610 GOLFVIEW DR, JORDAN, MN, 55352","Match","Exact","4610 GOLFVIEW DR, JORDAN, MN, 55352",38155526,"L"
650765,"4610 GOLFVIEW DRIVE","JORDAN","MN",55352,44.6383464030001,-93.615283628,265,"4610 GOLFVIEW DRIVE, JORDAN, MN, 55352","Match","Exact","4610 GOLFVIEW DR, JORDAN, MN, 55352",38155526,"L"
650766,"4610 HATHAWAY DRIVE","MEDFORD","OR",97504,42.3329864950001,-122.793399771,266,"4610 HATHAWAY DRIVE, MEDFORD, OR, 97504","Match","Exact","4610 HATHAWAY DR, MEDFORD, OR, 97504",155614481,"R"
650767,"4610 IRIS STREET","ROCKVILLE","MD",20853,39.075045888,-77.093184046,267,"4610 IRIS STREET, ROCKVILLE, MD, 20853","Match","Exact","4610 IRIS ST, ROCKVILLE, MD, 20853",62059880,"L"
650768,"4610 LAFAYETTE STREET","SANTA CLARA","CA",95056,37.3999877570001,-121.962251856,268,"4610 LAFAYETTE STREET, SANTA CLARA, CA, 95056","Match","Non_Exact","4610 LAFAYETTE ST, SANTA CLARA, CA, 95054",122958411,"L"
650769,"4610 LAKESIDE DRIVE","GRAND ISLAND","NE",68801,40.924271708,-98.285872191,269,"4610 LAKESIDE DRIVE, GRAND ISLAND, NE, 68801","Match","Exact","4610 LAKESIDE DR, GRAND ISLAND, NE, 68801",196250761,"L"
650770,"4610 LARSON BEACH RD","MCFARLAND","WI",53558,43.0174400610001,-89.301860219,270,"4610 LARSON BEACH RD, MCFARLAND, WI, 53558","Match","Exact","4610 LARSON BEACH RD, MCFARLAND, WI, 53558",49475920,"R"
650771,"4610 LEARNED SAGE","ELLICOT CITY","MD",21042,39.2480015100001,-76.8404705689999,271,"4610 LEARNED SAGE, ELLICOT CITY, MD, 21042","Match","Non_Exact","4610 LEARNED SAGE CT, ELLICOTT CITY, MD, 21042",158931431,"R"
650772,"4610 LINDEN RD","LINDEN","NC",28356,35.2553033520001,-78.753099903,272,"4610 LINDEN RD, LINDEN, NC, 28356","Match","Exact","4610 LINDEN RD, LINDEN, NC, 28356",64209182,"L"
650773,"4610 LIVINGSTON ROAD SE APT 302","WASHINGTON","DC",20032,38.8235968440001,-77.001990958,273,"4610 LIVINGSTON ROAD SE APT 302, WASHINGTON, DC, 20032","Match","Exact","4610 LIVINGSTON RD SE, WASHINGTON, DC, 20032",76232618,"L"
650774,"4610 LIVINGTON  RD","WASHINGTON","DC",20032,NA,NA,274,"4610 LIVINGTON  RD, WASHINGTON, DC, 20032","No_Match",NA,NA,NA,NA
650775,"4610 LUNSFORD HOLLOW","FRIENDSWOOD","TX",77546,NA,NA,275,"4610 LUNSFORD HOLLOW, FRIENDSWOOD, TX, 77546","No_Match",NA,NA,NA,NA
650776,"4610 MARBLEHEAD BAY DRIVE","OCEANSIDE","CA",92057,33.2529842770001,-117.314621835,276,"4610 MARBLEHEAD BAY DRIVE, OCEANSIDE, CA, 92057","Match","Exact","4610 MARBLEHEAD BAY DR, OCEANSIDE, CA, 92057",195420587,"L"
650777,"4610 MOONBEAM COURT","MYRTLE BEACH","SC",29579,33.7693994050001,-78.949787513,277,"4610 MOONBEAM COURT, MYRTLE BEACH, SC, 29579","Match","Exact","4610 MOONBEAM CT, MYRTLE BEACH, SC, 29579",630412938,"R"
650778,"4610 MOONBEAM DR","HARRISON","AR",72601,36.2358809670001,-93.231848434,278,"4610 MOONBEAM DR, HARRISON, AR, 72601","Match","Exact","4610 MOONBEAM DR, HARRISON, AR, 72601",20003793,"L"
650779,"4610 N ARMENIA AVENUE APT 206","TAMPA","FL",33603,27.9860744970001,-82.484619176,279,"4610 N ARMENIA AVENUE APT 206, TAMPA, FL, 33603","Match","Non_Exact","4610 N ARMENIA AVE, TAMPA, FL, 33603",104516488,"L"
650780,"4610 N CARLIN SPRINGS RD","ARLINGTON","VA",22203,38.875881657,-77.1150636039999,280,"4610 N CARLIN SPRINGS RD, ARLINGTON, VA, 22203","Match","Exact","4610 N CARLIN SPRINGS RD, ARLINGTON, VA, 22203",76473166,"L"
650781,"4610 NANTUCKETT DR APT 17","TOLEDO","OH",43623,41.7004727200001,-83.6569943109999,281,"4610 NANTUCKETT DR APT 17, TOLEDO, OH, 43623","Match","Non_Exact","4610 NANTUCKET DR, TOLEDO, OH, 43623",33931231,"R"
650782,"4610 NE 89TH STREET","SEATTLE","WA",98115,47.693393852,-122.277400712,282,"4610 NE 89TH STREET, SEATTLE, WA, 98115","Match","Exact","4610 NE 89TH ST, SEATTLE, WA, 98115",186705882,"R"
650783,"4610 NE 90TH TERR","KANSAS CITY","MO",64156,39.2577040460001,-94.524749347,283,"4610 NE 90TH TERR, KANSAS CITY, MO, 64156","Match","Exact","4610 NE 90TH TER, KANSAS CITY, MO, 64156",649142272,"L"
650784,"4610 NEW ORLEANS STREET","NEW ORLEANS","LA",70122,30.0047147780001,-90.067940541,284,"4610 NEW ORLEANS STREET, NEW ORLEANS, LA, 70122","Match","Exact","4610 NEW ORLEANS ST, NEW ORLEANS, LA, 70122",191703894,"L"
650785,"4610 NICKERSON COURT","COLUMBUS","GA",31907,32.431548788,-84.9179690569999,285,"4610 NICKERSON COURT, COLUMBUS, GA, 31907","Match","Exact","4610 NICKERSON CT, COLUMBUS, GA, 31907",98943390,"R"
650786,"4610 NORTH FEDERAL HIGHWAY","FORT LAUDERDALE","FL",33308,26.184809753,-80.1177790249999,286,"4610 NORTH FEDERAL HIGHWAY, FORT LAUDERDALE, FL, 33308","Match","Exact","4610 N FEDERAL HWY, FORT LAUDERDALE, FL, 33308",636912318,"L"
650787,"4610 NW 71ST AVE","LAUDERHILL","FL",33319,26.181941678,-80.244256145,287,"4610 NW 71ST AVE, LAUDERHILL, FL, 33319","Match","Exact","4610 NW 71ST AVE, LAUDERHILL, FL, 33319",114702974,"L"
650788,"4610 NW 79TH AVENUE APT 2B","MIAMI","FL",33166,25.8165262310001,-80.325516124,288,"4610 NW 79TH AVENUE APT 2B, MIAMI, FL, 33166","Match","Non_Exact","4610 NW 79TH AVE, MIAMI, FL, 33166",116264684,"R"
650789,"4610 PACES FERRY DRIVE","DURHAM","NC",27712,36.0929658000001,-78.930874046,289,"4610 PACES FERRY DRIVE, DURHAM, NC, 27712","Match","Exact","4610 PACES FERRY DR, DURHAM, NC, 27712",640627615,"R"
650790,"4610 PARK BLVD","PANAMA CITY","FL",32404,30.1379587640001,-85.605717059,290,"4610 PARK BLVD, PANAMA CITY, FL, 32404","Match","Exact","4610 PARK BLVD, PANAMA CITY, FL, 32404",7060005,"R"
650791,"4610 PIGEON OAKS DRIVE","VALDOSTA","GA",31601,30.690443718,-83.26504662,291,"4610 PIGEON OAKS DRIVE, VALDOSTA, GA, 31601","Match","Exact","4610 PIGEON OAKS DR, VALDOSTA, GA, 31601",87746969,"R"
650792,"4610 PINEHURST DRIVE SOUTH","AUSTIN","TX",78747,30.135992641,-97.7846705699999,292,"4610 PINEHURST DRIVE SOUTH, AUSTIN, TX, 78747","Match","Exact","4610 PINEHURST DR S, AUSTIN, TX, 78747",63998450,"L"
650793,"4610 PINELOCH BAYOU DRIVE","BAYTOWN","TX",77523,29.7935834670001,-94.848703609,293,"4610 PINELOCH BAYOU DRIVE, BAYTOWN, TX, 77523","Match","Exact","4610 PINELOCH BAYOU DR, BAYTOWN, TX, 77523",651826740,"R"
650794,"4610 PRESIDENTS ROAD","SCOTTSVILLE","VA",24590,37.9089850820001,-78.484131404,294,"4610 PRESIDENTS ROAD, SCOTTSVILLE, VA, 24590","Match","Exact","4610 PRESIDENTS RD, SCOTTSVILLE, VA, 24590",83394377,"L"
650795,"4610 ROUTE 220","NEW ALBANY","PA",18833,41.610549516,-76.446957771,295,"4610 ROUTE 220, NEW ALBANY, PA, 18833","Match","Non_Exact","4610 US HWY 220, NEW ALBANY, PA, 18833",629455681,"R"
650796,"4610 S 54TH STREET","LINCOLN","NE",68516,40.7668884570001,-96.646699194,296,"4610 S 54TH STREET, LINCOLN, NE, 68516","Match","Exact","4610 S 54TH ST, LINCOLN, NE, 68516",28260994,"L"
650797,"4610 S BIG HORN DRIVE","CHANDLER","AZ",85249,33.239299255,-111.774050224,297,"4610 S BIG HORN DRIVE, CHANDLER, AZ, 85249","Match","Exact","4610 S BIG HORN DR, CHANDLER, AZ, 85249",640949900,"L"
650798,"4610 S ELLIS AVE","CHICAGO","IL",60653,41.811174534,-87.601739605,298,"4610 S ELLIS AVE, CHICAGO, IL, 60653","Match","Exact","4610 S ELLIS AVE, CHICAGO, IL, 60653",611128279,"R"
650799,"4610 S LAVERGNE AVE","CHICAGO","IL",60638,41.809155687,-87.7480958209999,299,"4610 S LAVERGNE AVE, CHICAGO, IL, 60638","Match","Exact","4610 S LAVERGNE AVE, CHICAGO, IL, 60638",605301344,"R"
650800,"4610 S RUSK ST","AMARILLO","TX",79110,35.1611802900001,-101.862400658,300,"4610 S RUSK ST, AMARILLO, TX, 79110","Match","Exact","4610 S RUSK ST, AMARILLO, TX, 79110",182655029,"R"
650801,"4610 SAN JUAN AVENUE","JACKSONVILLE","FL",32210,30.2821609640001,-81.724391716,301,"4610 SAN JUAN AVENUE, JACKSONVILLE, FL, 32210","Match","Exact","4610 SAN JUAN AVE, JACKSONVILLE, FL, 32210",83911768,"L"
650802,"4610 SCHULER ST","ALLENTOWN","PA",18103,40.568003586,-75.547747628,302,"4610 SCHULER ST, ALLENTOWN, PA, 18103","Match","Exact","4610 SCHULER ST, ALLENTOWN, PA, 18103",80803082,"L"
650803,"4610 SETTING SUN TERRACE","SYRACUSE","NY",13215,42.9924957280001,-76.1979847869999,303,"4610 SETTING SUN TERRACE, SYRACUSE, NY, 13215","Match","Exact","4610 SETTING SUN TER, SYRACUSE, NY, 13215",628433102,"L"
650804,"4610 SHOALWOOD AVE","AUSTIN","TX",78756,30.3186601,-97.744124603,304,"4610 SHOALWOOD AVE, AUSTIN, TX, 78756","Match","Exact","4610 SHOALWOOD AVE, AUSTIN, TX, 78756",63929599,"L"
650805,"4610 SHOALWOOD","AUSTIN","TX",78756,30.3186601,-97.744124603,305,"4610 SHOALWOOD, AUSTIN, TX, 78756","Match","Non_Exact","4610 SHOALWOOD AVE, AUSTIN, TX, 78756",63929599,"L"
650806,"4610 SIERRA MADRE DRIVE","NEW ORLEANS","LA",70127,30.0208174520001,-89.9646108649999,306,"4610 SIERRA MADRE DRIVE, NEW ORLEANS, LA, 70127","Match","Non_Exact","4610 SIERRA MADRE ST, NEW ORLEANS, LA, 70127",191721877,"L"
650807,"4610 STILESBORO RD NW","KENNESAW","GA",30152,33.99799525,-84.684497154,307,"4610 STILESBORO RD NW, KENNESAW, GA, 30152","Match","Exact","4610 STILESBORO RD NW, KENNESAW, GA, 30152",643023705,"R"
650808,"4610 SW 10 ST","MIAMI","FL",33134,25.762004878,-80.270455666,308,"4610 SW 10 ST, MIAMI, FL, 33134","Match","Exact","4610 SW 10TH ST, MIAMI, FL, 33134",116056417,"L"
650809,"4610 SWEETWATER BLVD STE 200","SUGAR LAND","TX",77479,29.5826473760001,-95.630821027,309,"4610 SWEETWATER BLVD STE 200, SUGAR LAND, TX, 77479","Match","Exact","4610 SWEETWATER BLVD, SUGAR LAND, TX, 77479",227754620,"R"
650810,"4610 SWEETWATER BLVD SUITE 200","SUGAR LAND","TX",77479,29.5826473760001,-95.630821027,310,"4610 SWEETWATER BLVD SUITE 200, SUGAR LAND, TX, 77479","Match","Exact","4610 SWEETWATER BLVD, SUGAR LAND, TX, 77479",227754620,"R"
650811,"4610 TERESA TRAIL","MIDLOTHIAN","TX",76065,32.4317708950001,-96.958553729,311,"4610 TERESA TRAIL, MIDLOTHIAN, TX, 76065","Match","Exact","4610 TERESA TRL, MIDLOTHIAN, TX, 76065",616469439,"R"
650812,"4610 THIRD STREET","TILLAMOOK","OR",97141,45.4573117150001,-123.806835467,312,"4610 THIRD STREET, TILLAMOOK, OR, 97141","Match","Exact","4610 3RD ST, TILLAMOOK, OR, 97141",636633396,"L"
650813,"4610 TILBURY TRL","RICHMOND","TX",77407,29.6151121990001,-95.687469961,313,"4610 TILBURY TRL, RICHMOND, TX, 77407","Match","Exact","4610 TILBURY TRL, RICHMOND, TX, 77407",641121037,"R"
650814,"4610 TILLY MILL ROAD","DUNWOODY","GA",30360,33.9306610950001,-84.284227576,314,"4610 TILLY MILL ROAD, DUNWOODY, GA, 30360","Match","Exact","4610 TILLY MILL RD, DUNWOODY, GA, 30360",642648103,"L"
650815,"4610 VANKLEEK AVENUE","NEW SMYRNA BEACH","FL",32169,NA,NA,315,"4610 VANKLEEK AVENUE, NEW SMYRNA BEACH, FL, 32169","No_Match",NA,NA,NA,NA
650816,"4610 VERSAILLES DR","MIDLAND","TX",79703,31.976618117,-102.13378048,316,"4610 VERSAILLES DR, MIDLAND, TX, 79703","Match","Exact","4610 VERSAILLES DR, MIDLAND, TX, 79703",139580062,"R"
650817,"4610 VICTOR STREET APT 4","DALLAS","TX",75246,32.794800093,-96.768720413,317,"4610 VICTOR STREET APT 4, DALLAS, TX, 75246","Match","Exact","4610 VICTOR ST, DALLAS, TX, 75246",102919812,"R"
650818,"4610 W 2ND STREET","PLAINVIEW","TX",79072,34.1793626410001,-101.757306584,318,"4610 W 2ND STREET, PLAINVIEW, TX, 79072","Match","Exact","4610 W 2ND ST, PLAINVIEW, TX, 79072",185707375,"L"
650819,"4610 W NORTHGATE DRIVE","IRVING","TX",75062,32.8569405690001,-97.016962582,319,"4610 W NORTHGATE DRIVE, IRVING, TX, 75062","Match","Exact","4610 W NORTHGATE DR, IRVING, TX, 75062",102979687,"L"
650820,"4610 W SAN MIGUEL ST","TAMPA","FL",33629,27.924819665,-82.5207454169999,320,"4610 W SAN MIGUEL ST, TAMPA, FL, 33629","Match","Exact","4610 W SAN MIGUEL ST, TAMPA, FL, 33629",104525276,"L"
650821,"4610 W TWAIN AVE APT C","LAS VEGAS","NV",89103,36.1226145530001,-115.203234218,321,"4610 W TWAIN AVE APT C, LAS VEGAS, NV, 89103","Match","Non_Exact","4610 W TWAIN AVE, LAS VEGAS, NV, 89103",201863186,"R"
650822,"4610 WALDEN WAY","DENVER","CO",80249,39.7803777880001,-104.775612322,322,"4610 WALDEN WAY, DENVER, CO, 80249","Match","Non_Exact","4610 N WALDEN WAY, DENVER, CO, 80249",640740594,"R"
650823,"4610 WEST 38TH STREET","ERIE","PA",16506,42.063948985,-80.172422352,323,"4610 WEST 38TH STREET, ERIE, PA, 16506","Match","Exact","4610 W 38TH ST, ERIE, PA, 16506",117508314,"R"
650824,"4610 WEST ALESCI DRIVE","FRANKLIN","WI",53132,42.8877792440001,-87.975518928,324,"4610 WEST ALESCI DRIVE, FRANKLIN, WI, 53132","Match","Exact","4610 W ALESCI DR, FRANKLIN, WI, 53132",632311024,"L"
650825,"4610 WHITEWELD TERRACE","WILMINGTON","NC",28412,34.157903382,-77.9009970119999,325,"4610 WHITEWELD TERRACE, WILMINGTON, NC, 28412","Match","Exact","4610 WHITEWELD TER, WILMINGTON, NC, 28412",152766907,"R"
650826,"4610 WILLOW LEAF  PL","HENRICO","VA",23228,37.623047781,-77.517827771,326,"4610 WILLOW LEAF  PL, HENRICO, VA, 23228","Match","Exact","4610 WILLOW LEAF PL, HENRICO, VA, 23228",624858938,"R"
650827,"4610 WILLOW LEAF PL","HENRICO","VA",23228,37.623047781,-77.517827771,327,"4610 WILLOW LEAF PL, HENRICO, VA, 23228","Match","Exact","4610 WILLOW LEAF PL, HENRICO, VA, 23228",624858938,"R"
650828,"4610 WOOLCOMBER ST","LAS VEGAS","NV",89115,36.244116911,-115.060236673,328,"4610 WOOLCOMBER ST, LAS VEGAS, NV, 89115","Match","Exact","4610 WOOLCOMBER ST, LAS VEGAS, NV, 89115",641033303,"L"
650829,"4610 WYNN ROAD","LAS VEGAS","NV",89103,36.1060882850001,-115.194555693,329,"4610 WYNN ROAD, LAS VEGAS, NV, 89103","Match","Exact","4610 WYNN RD, LAS VEGAS, NV, 89103",201869600,"L"
650830,"4610 YORK ROAD UNIT 2","BALTIMORE","MD",21212,39.3446423440001,-76.609647835,330,"4610 YORK ROAD UNIT 2, BALTIMORE, MD, 21212","Match","Exact","4610 YORK RD, BALTIMORE, MD, 21212",206408695,"L"
650831,"4610 YUPON","HOUSTON","TX",77006,29.731755784,-95.3971775209999,331,"4610 YUPON, HOUSTON, TX, 77006","Match","Non_Exact","4610 YUPON ST, HOUSTON, TX, 77006",96064705,"R"
650832,"46101 CREEKSIDE BLVD","MACOMB","MI",48044,42.6371058990001,-82.8858023239999,332,"46101 CREEKSIDE BLVD, MACOMB, MI, 48044","Match","Exact","46101 CREEKSIDE BLVD, MACOMB, MI, 48044",617773694,"R"
650833,"46104 W BELLE AVE","MARICOPA","AZ",85139,33.0541673020001,-112.0633923,333,"46104 W BELLE AVE, MARICOPA, AZ, 85139","Match","Exact","46104 BELLE AVE, MARICOPA, AZ, 85139",129255840,"R"
650834,"46105 BEACH CREST DRIVE  777","NESKOWIN","OR",97149,45.115222477,-123.972608007,334,"46105 BEACH CREST DRIVE  777, NESKOWIN, OR, 97149","Match","Exact","46105 BEACH CREST DR, NESKOWIN, OR, 97149",156406420,"L"
650835,"4611 19TH ST NORTH","ARLINGTON","VA",22207,38.893477777,-77.1186742949999,335,"4611 19TH ST NORTH, ARLINGTON, VA, 22207","Match","Exact","4611 19TH ST N, ARLINGTON, VA, 22207",76468136,"R"
650836,"4611 62ND AVE W","UNIVERSITY PLACE","WA",98466,47.2152236110001,-122.520585366,336,"4611 62ND AVE W, UNIVERSITY PLACE, WA, 98466","Match","Exact","4611 62ND AVE W, UNIVERSITY PLACE, WA, 98466",184619822,"L"
650837,"4611 7TH ST S","ARLINGTON","VA",22204,38.8610340390001,-77.1085562759999,337,"4611 7TH ST S, ARLINGTON, VA, 22204","Match","Exact","4611 7TH ST S, ARLINGTON, VA, 22204",76469067,"R"
650838,"4611 86TH ST","LUBBOCK","TX",79424,33.515621783,-101.911435057,338,"4611 86TH ST, LUBBOCK, TX, 79424","Match","Exact","4611 86TH ST, LUBBOCK, TX, 79424",185265333,"R"
650839,"4611 ABERCORN ST","ROSHARON","TX",77583,29.5176250220001,-95.425880424,339,"4611 ABERCORN ST, ROSHARON, TX, 77583","Match","Exact","4611 ABERCORN ST, ROSHARON, TX, 77583",648020991,"R"
650840,"4611 APRIL MEADOW WAY","SUGAR LAND","TX",77479,29.5807989050001,-95.6385940009999,340,"4611 APRIL MEADOW WAY, SUGAR LAND, TX, 77479","Match","Exact","4611 APRIL MEADOW WAY, SUGAR LAND, TX, 77479",78288469,"L"
650841,"4611 AQUALINDA BLVD","CAPE CORAL","FL",33914,NA,NA,341,"4611 AQUALINDA BLVD, CAPE CORAL, FL, 33914","No_Match",NA,NA,NA,NA
650842,"4611 ASHTON HILL LANE","CHARLOTTE","NC",28269,35.3733177660001,-80.7858584479999,342,"4611 ASHTON HILL LANE, CHARLOTTE, NC, 28269","Match","Exact","4611 ASHTON HILL LN, CHARLOTTE, NC, 28269",648377906,"R"
650843,"4611 ASPEN HILL RD","ROCKVILLE","MD",20853,39.0769510120001,-77.0921562409999,343,"4611 ASPEN HILL RD, ROCKVILLE, MD, 20853","Match","Exact","4611 ASPEN HILL RD, ROCKVILLE, MD, 20853",62059883,"R"
650844,"4611 ASSEMBLY DRIVE SUITE A","LANHAM","MD",20706,38.9543522230001,-76.830780077,344,"4611 ASSEMBLY DRIVE SUITE A, LANHAM, MD, 20706","Match","Exact","4611 ASSEMBLY DR, LANHAM, MD, 20706",76378782,"L"
650845,"4611 BEECHWOOD DRIVE","ROSENBERG","TX",77471,29.49606349,-95.812819059,345,"4611 BEECHWOOD DRIVE, ROSENBERG, TX, 77471","Match","Exact","4611 BEECHWOOD DR, ROSENBERG, TX, 77471",648704723,"L"
650846,"4611 BETHANY GLEN DRIVE","BATAVIA","OH",45103,39.1063102860001,-84.239740269,346,"4611 BETHANY GLEN DRIVE, BATAVIA, OH, 45103","Match","Exact","4611 BETHANY GLEN DR, BATAVIA, OH, 45103",118458282,"L"
650847,"4611 BIG ROCK DR","WILMINGTON","DE",19802,39.774094527,-75.525761776,347,"4611 BIG ROCK DR, WILMINGTON, DE, 19802","Match","Exact","4611 BIG ROCK DR, WILMINGTON, DE, 19802",187258550,"L"
650848,"4611 BLUEBONNET BLVD STE B","BATON ROUGE","LA",70809,30.407032192,-91.082685079,348,"4611 BLUEBONNET BLVD STE B, BATON ROUGE, LA, 70809","Match","Non_Exact","4611 BLUEBONNET RD, BATON ROUGE, LA, 70809",646575245,"L"
650849,"4611 BUFFAT MILL ROAD","KNOXVILLE","TN",37914,36.0225262980001,-83.87497015,349,"4611 BUFFAT MILL ROAD, KNOXVILLE, TN, 37914","Match","Non_Exact","4611 BUFFAT MILL RD NE, KNOXVILLE, TN, 37914",42621560,"L"
650850,"4611 BUFFET MILL","KNOXVILLE","TN",37914,NA,NA,350,"4611 BUFFET MILL, KNOXVILLE, TN, 37914","No_Match",NA,NA,NA,NA
650851,"4611 CALLE LAS CRUSES","SIERRA VISTA","AZ",85635,31.5323141480001,-110.251129527,351,"4611 CALLE LAS CRUSES, SIERRA VISTA, AZ, 85635","Match","Non_Exact","4611 CLL LAS CRUCES, SIERRA VISTA, AZ, 85635",120988588,"R"
650852,"4611 CALVERT ROAD APT 9","COLLEGE PARK","MD",20740,38.9787621340001,-76.9337337439999,352,"4611 CALVERT ROAD APT 9, COLLEGE PARK, MD, 20740","Match","Exact","4611 CALVERT RD, COLLEGE PARK, MD, 20740",76305169,"R"
650853,"4611 CATALPA ST","LOS ANGELES","CA",90032,34.0634932200001,-118.184108101,353,"4611 CATALPA ST, LOS ANGELES, CA, 90032","Match","Exact","4611 CATALPA ST, LOS ANGELES, CA, 90032",141623777,"L"
650854,"4611 CATALPA STREET","LOS ANGELES","CA",90032,34.0634932200001,-118.184108101,354,"4611 CATALPA STREET, LOS ANGELES, CA, 90032","Match","Exact","4611 CATALPA ST, LOS ANGELES, CA, 90032",141623777,"L"
650855,"4611 CAYMAN PLACE","AUSTIN","TX",78749,30.207058712,-97.853817724,355,"4611 CAYMAN PLACE, AUSTIN, TX, 78749","Match","Non_Exact","4611 CAYMEN PL, AUSTIN, TX, 78749",63939292,"L"
650856,"4611 CLARENDON AVE","HARRISBURG","PA",17109,40.288640962,-76.811956493,356,"4611 CLARENDON AVE, HARRISBURG, PA, 17109","Match","Non_Exact","4611 CLARENDON ST, HARRISBURG, PA, 17109",70822273,"R"
650857,"4611 CLEARY AVE","METAIRIE","LA",70002,30.017298833,-90.173813044,357,"4611 CLEARY AVE, METAIRIE, LA, 70002","Match","Exact","4611 CLEARY AVE, METAIRIE, LA, 70002",93497743,"R"
650858,"4611 COMET VIEW CT","HUMBLE","TX",77396,29.941836059,-95.242427033,358,"4611 COMET VIEW CT, HUMBLE, TX, 77396","Match","Exact","4611 COMET VIEW CT, HUMBLE, TX, 77396",637550629,"L"
650859,"4611 COMETVIEW CT","HUMBLE","TX",77396,29.941836059,-95.242427033,359,"4611 COMETVIEW CT, HUMBLE, TX, 77396","Match","Non_Exact","4611 COMET VIEW CT, HUMBLE, TX, 77396",637550629,"L"
650860,"4611 CONNIES COURT LAND","MISSOURI CITY","TX",77459,29.5847213220001,-95.57832046,360,"4611 CONNIES COURT LAND, MISSOURI CITY, TX, 77459","Match","Non_Exact","4611 CONNIES COURT LN, MISSOURI CITY, TX, 77459",78290210,"R"
650861,"4611 CORTEZ CIRCLE","MANDAN","ND",58554,46.8650674630001,-100.947168884,361,"4611 CORTEZ CIRCLE, MANDAN, ND, 58554","Match","Exact","4611 CORTEZ CIR, MANDAN, ND, 58554",199013788,"L"
650862,"4611 COUNTY RD 1081","PRINCETON","TX",75407,33.1082270970001,-96.504776318,362,"4611 COUNTY RD 1081, PRINCETON, TX, 75407","Match","Exact","4611 CO RD 1081, PRINCETON, TX, 75407",123558537,"R"
650863,"4611 CURRAGHMORE","CHARLOTTE","NC",28210,35.1422680690001,-80.8220820559999,363,"4611 CURRAGHMORE, CHARLOTTE, NC, 28210","Match","Non_Exact","4611 CURRAGHMORE RD, CHARLOTTE, NC, 28210",635657928,"L"
650864,"4611 DALTON ROAD","CHEVY CHASE","MD",20815,38.959951753,-77.0915001239999,364,"4611 DALTON ROAD, CHEVY CHASE, MD, 20815","Match","Exact","4611 DALTON RD, CHEVY CHASE, MD, 20815",62105501,"R"
650865,"4611 DOMINION DRIVE","NAPLES","FL",34112,26.1104799280001,-81.765845322,365,"4611 DOMINION DRIVE, NAPLES, FL, 34112","Match","Exact","4611 DOMINION DR, NAPLES, FL, 34112",642828641,"L"
650866,"4611 E HOUSTON ST 802","SAN ANTONIO","TX",78220,29.424034282,-98.4030917219999,366,"4611 E HOUSTON ST 802, SAN ANTONIO, TX, 78220","Match","Non_Exact","4611 E HOUSTON ST, SAN ANTONIO, TX, 78220",652712404,"L"
650867,"4611 E SHEA BLVD","PHOENIX","AZ",85028,33.5826555840001,-111.983881711,367,"4611 E SHEA BLVD, PHOENIX, AZ, 85028","Match","Exact","4611 E SHEA BLVD, PHOENIX, AZ, 85028",128944012,"R"
650868,"4611 ENCHANTED BAY","ARLINGTON","TX",76016,32.67271127,-97.2273280859999,368,"4611 ENCHANTED BAY, ARLINGTON, TX, 76016","Match","Non_Exact","4611 ENCHANTED BAY BLVD, ARLINGTON, TX, 76016",101960426,"L"
650869,"4611 GREEN MEADOWS DRIVE","ENON","OH",45323,39.863698029,-83.942824189,369,"4611 GREEN MEADOWS DRIVE, ENON, OH, 45323","Match","Exact","4611 GREEN MEADOWS DR, ENON, OH, 45323",135014007,"R"
650870,"4611 GREY HAWK LANE","BISMARCK","ND",58503,46.855993719,-100.816823433,370,"4611 GREY HAWK LANE, BISMARCK, ND, 58503","Match","Exact","4611 GREY HAWK LN, BISMARCK, ND, 58503",643003322,"R"
650871,"4611 GULFWAY DRIVE","BAYTOWN","TX",77521,29.77292004,-94.9218653089999,371,"4611 GULFWAY DRIVE, BAYTOWN, TX, 77521","Match","Exact","4611 GULFWAY DR, BAYTOWN, TX, 77521",96566992,"L"
650872,"4611 HARD SCRABBLE RD SUITE 332","COLUMBIA","SC",29229,34.1525428090001,-80.911541928,372,"4611 HARD SCRABBLE RD SUITE 332, COLUMBIA, SC, 29229","Match","Exact","4611 HARD SCRABBLE RD, COLUMBIA, SC, 29229",640032811,"L"
650873,"4611 HARD SCRABBLE ROAD STE 109-193","COLUMBIA","SC",29229,34.1525428090001,-80.911541928,373,"4611 HARD SCRABBLE ROAD STE 109-193, COLUMBIA, SC, 29229","Match","Exact","4611 HARD SCRABBLE RD, COLUMBIA, SC, 29229",640032811,"L"
650874,"4611 HARLING LANE","BETHESDA","MD",20814,38.9892048740001,-77.092110781,374,"4611 HARLING LANE, BETHESDA, MD, 20814","Match","Exact","4611 HARLING LN, BETHESDA, MD, 20814",62065682,"R"
650875,"4611 ISLANDS DRIVE","BAKERSFIELD","CA",93312,35.4014473550001,-119.100878828,375,"4611 ISLANDS DRIVE, BAKERSFIELD, CA, 93312","Match","Exact","4611 ISLANDS DR, BAKERSFIELD, CA, 93312",109527627,"L"
650876,"4611 KINGSMORE DR","LOUISVILLE","KY",40229,38.1014733820001,-85.676053564,376,"4611 KINGSMORE DR, LOUISVILLE, KY, 40229","Match","Exact","4611 KINGSMORE DR, LOUISVILLE, KY, 40229",96859592,"L"
650877,"4611 LAGOON DR","KELSEYVILLE","CA",95451,38.964632458,-122.713012463,377,"4611 LAGOON DR, KELSEYVILLE, CA, 95451","Match","Exact","4611 LAGOON DR, KELSEYVILLE, CA, 95451",67036572,"L"
650878,"4611 LAS LINDAS WAY","CARMICHAEL","CA",95608,38.647589166,-121.301348461,378,"4611 LAS LINDAS WAY, CARMICHAEL, CA, 95608","Match","Exact","4611 LAS LINDAS WAY, CARMICHAEL, CA, 95608",133343686,"L"
650879,"4611 LONG CLIMB CANYON","HUMBLE","TX",77396,29.9421402090001,-95.2394537329999,379,"4611 LONG CLIMB CANYON, HUMBLE, TX, 77396","Match","Exact","4611 LONG CLIMB CANYON, HUMBLE, TX, 77396",625668084,"R"
650880,"4611 LUNSFORD HOLLOW LN","FRIENDSWOOD","TX",77546,29.53819309,-95.173080048,380,"4611 LUNSFORD HOLLOW LN, FRIENDSWOOD, TX, 77546","Match","Non_Exact","4611 LUNDSFORD HOLLOW LN, FRIENDSWOOD, TX, 77546",627918608,"L"
650881,"4611 MORNING GLORY","MISSOURI CITY","TX",77459,29.553912122,-95.52530366,381,"4611 MORNING GLORY, MISSOURI CITY, TX, 77459","Match","Non_Exact","4611 MORNING GLORY CT, MISSOURI CITY, TX, 77459",78293351,"R"
650882,"4611 MUIRWOOD PLACE","STOW","OH",44224,41.1818723700001,-81.402969222,382,"4611 MUIRWOOD PLACE, STOW, OH, 44224","Match","Exact","4611 MUIRWOOD PL, STOW, OH, 44224",61376643,"L"
650883,"4611 N EDEN CT","INDIANAPOLIS","IN",46254,39.8393627070001,-86.232829292,383,"4611 N EDEN CT, INDIANAPOLIS, IN, 46254","Match","Exact","4611 N EDEN CT, INDIANAPOLIS, IN, 46254",107976309,"R"
650884,"4611 N FEDERAL HIGHWAY 411","POMPANO BEACH","FL",33064,26.28790715,-80.0957547529999,384,"4611 N FEDERAL HIGHWAY 411, POMPANO BEACH, FL, 33064","Match","Non_Exact","4611 N FEDERAL HWY, POMPANO BEACH, FL, 33064",114743834,"L"
650885,"4611 N PAULINA 2A","CHICAGO","IL",60640,NA,NA,385,"4611 N PAULINA 2A, CHICAGO, IL, 60640","No_Match",NA,NA,NA,NA
650886,"4611 NE 46TH AVENUE","OCALA","FL",34479,29.234322993,-82.108945749,386,"4611 NE 46TH AVENUE, OCALA, FL, 34479","Match","Non_Exact","4611 NE 46TH ST, OCALA, FL, 34479",116807266,"L"
650887,"4611 NECHES TRAIL LANE","SPRING","TX",77388,30.0693350880001,-95.48985899,387,"4611 NECHES TRAIL LANE, SPRING, TX, 77388","Match","Exact","4611 NECHES TRAIL LN, SPRING, TX, 77388",96170243,"R"
650888,"4611 NORTHWEST COLUMBIA STREET","VANCOUVER","WA",98663,45.6555029880001,-122.673397592,388,"4611 NORTHWEST COLUMBIA STREET, VANCOUVER, WA, 98663","Match","Exact","4611 NW COLUMBIA ST, VANCOUVER, WA, 98663",158324872,"R"
650889,"4611 OAK HILL RD","OAKLAND","CA",94605,37.765905581,-122.138125644,389,"4611 OAK HILL RD, OAKLAND, CA, 94605","Match","Exact","4611 OAK HILL RD, OAKLAND, CA, 94605",125011653,"L"
650890,"4611 OAK HILL ROAD","OAKLAND","CA",94605,37.765905581,-122.138125644,390,"4611 OAK HILL ROAD, OAKLAND, CA, 94605","Match","Exact","4611 OAK HILL RD, OAKLAND, CA, 94605",125011653,"L"
650891,"4611 OHIO STREET","SAN DIEGO","CA",92116,32.761335409,-117.128945169,391,"4611 OHIO STREET, SAN DIEGO, CA, 92116","Match","Exact","4611 OHIO ST, SAN DIEGO, CA, 92116",641369586,"R"
650892,"4611 PENDALL DRIVE","FORT WASHINGTON","MD",20744,38.7861941520001,-76.931686515,392,"4611 PENDALL DRIVE, FORT WASHINGTON, MD, 20744","Match","Exact","4611 PENDALL DR, FT WASHINGTON, MD, 20744",645469418,"R"
650893,"4611 PEPPERCORN DRIVE","ARLINGTON","TN",38002,35.251578296,-89.766985475,393,"4611 PEPPERCORN DRIVE, ARLINGTON, TN, 38002","Match","Exact","4611 PEPPERCORN DR, ARLINGTON, TN, 38002",618368979,"L"
650894,"4611 PHOENIX LANE","PASCO","WA",99301,46.269507334,-119.158854213,394,"4611 PHOENIX LANE, PASCO, WA, 99301","Match","Exact","4611 PHOENIX LN, PASCO, WA, 99301",648108483,"L"
650895,"4611 PIN OAK CREEK LANE","KINGWOOD","TX",77345,30.0752457460001,-95.1719639579999,395,"4611 PIN OAK CREEK LANE, KINGWOOD, TX, 77345","Match","Exact","4611 PIN OAK CREEK LN, KINGWOOD, TX, 77345",627951877,"R"
650896,"4611 POINTE AUX PEAUX","NEWPORT","MI",48166,41.9522503220001,-83.28754047,396,"4611 POINTE AUX PEAUX, NEWPORT, MI, 48166","Match","Non_Exact","4611 POINTE AUX PEAUX RD, NEWPORT, MI, 48166",40480136,"R"
650897,"4611 RIME VILLAGE","BIRMINGHAM","AL",35216,33.3782884870001,-86.790899629,397,"4611 RIME VILLAGE, BIRMINGHAM, AL, 35216","Match","Non_Exact","4611 RIME VILLAGE DR, BIRMINGHAM, AL, 35216",633437203,"R"
650898,"4611 RIVA RIDGE CT","INDIANAPOLIS","IN",85710,39.7008431260001,-86.0690625949999,398,"4611 RIVA RIDGE CT, INDIANAPOLIS, IN, 85710","Match","Non_Exact","4611 RIVA RIDGE CT, INDIANAPOLIS, IN, 46237",108009635,"L"
650899,"4611 S 96TH ST - SUITE 100","OMAHA","NE",68127,41.2134630310001,-96.062207507,399,"4611 S 96TH ST - SUITE 100, OMAHA, NE, 68127","Match","Non_Exact","4611 S 96TH ST, OMAHA, NE, 68127",117022381,"L"
650900,"4611 S AMERICAN LAKE BLVD","TACOMA","WA",98409,47.1957286960001,-122.497881246,400,"4611 S AMERICAN LAKE BLVD, TACOMA, WA, 98409","Match","Exact","4611 S AMERICAN LAKE BLVD, TACOMA, WA, 98409",184622620,"R"
650901,"4611 S DAKOTA AVE NE","WASHINGTON","MD",20011,NA,NA,401,"4611 S DAKOTA AVE NE, WASHINGTON, MD, 20011","No_Match",NA,NA,NA,NA
650902,"4611 S HAMPTON","SUGAR LAND","TX",77479,29.561543574,-95.6097033,402,"4611 S HAMPTON, SUGAR LAND, TX, 77479","Match","Non_Exact","4611 S HAMPTON ST, SUGAR LAND, TX, 77479",78287818,"R"
650903,"4611 S OTHELLO ST","SEATTLE","WA",98118,47.5369328210001,-122.275024208,403,"4611 S OTHELLO ST, SEATTLE, WA, 98118","Match","Exact","4611 S OTHELLO ST, SEATTLE, WA, 98118",186596902,"R"
650904,"4611 S UNIVERSITY DR STE 190","DAVIE","FL",33328,26.0634129330001,-80.25229738,404,"4611 S UNIVERSITY DR STE 190, DAVIE, FL, 33328","Match","Non_Exact","4611 S UNIVERSITY DR, DAVIE, FL, 33328",645695680,"R"
650905,"4611 S UNIVERSITY DR STE 272","DAVIE","FL",33328,26.0634129330001,-80.25229738,405,"4611 S UNIVERSITY DR STE 272, DAVIE, FL, 33328","Match","Non_Exact","4611 S UNIVERSITY DR, DAVIE, FL, 33328",645695680,"R"
650906,"4611 S UNIVERSITY DRIVE 227","DAVIE","FL",33328,26.0634129330001,-80.25229738,406,"4611 S UNIVERSITY DRIVE 227, DAVIE, FL, 33328","Match","Non_Exact","4611 S UNIVERSITY DR, DAVIE, FL, 33328",645695680,"R"
650907,"4611 S W 26 STREET","WEST PARK","FL",33023,25.9870867600001,-80.189462576,407,"4611 S W 26 STREET, WEST PARK, FL, 33023","Match","Exact","4611 SW 26TH ST, WEST PARK, FL, 33023",114735307,"R"
650908,"4611 SE 70TH AVE","PORTLAND","OR",97206,45.4894548610001,-122.591232167,408,"4611 SE 70TH AVE, PORTLAND, OR, 97206","Match","Exact","4611 SE 70TH AVE, PORTLAND, OR, 97206",157534022,"R"
650909,"4611 SE 84TH AVE","PORTLAND","OR",97266,45.4893485330001,-122.576779169,409,"4611 SE 84TH AVE, PORTLAND, OR, 97266","Match","Exact","4611 SE 84TH AVE, PORTLAND, OR, 97266",157517440,"R"
650910,"4611 SHILOH ROAD","MIDLOTHIAN","TX",76065,32.517336852,-96.9363171479999,410,"4611 SHILOH ROAD, MIDLOTHIAN, TX, 76065","Match","Exact","4611 SHILOH RD, MIDLOTHIAN, TX, 76065",648657582,"L"
650911,"4611 SILVERTIP LANE","EVERETT","WA",98203,47.956042865,-122.215821064,411,"4611 SILVERTIP LANE, EVERETT, WA, 98203","Match","Exact","4611 SILVERTIP LN, EVERETT, WA, 98203",187744161,"L"
650912,"4611 SOMMERVILLE WAY","RENO","NV",89509,39.48035149,-119.855934132,412,"4611 SOMMERVILLE WAY, RENO, NV, 89509","Match","Non_Exact","4611 SOMMERVILLE WAY, RENO, NV, 89519",107073086,"L"
650913,"4611 SOUTH INDIANA AVENUE","CHICAGO","IL",60653,41.810892935,-87.621245492,413,"4611 SOUTH INDIANA AVENUE, CHICAGO, IL, 60653","Match","Exact","4611 S INDIANA AVE, CHICAGO, IL, 60653",605539638,"L"
650914,"4611 SOUTHERNESS LANE SE","LACEY","WA",98513,46.9813115270001,-122.82261301,414,"4611 SOUTHERNESS LANE SE, LACEY, WA, 98513","Match","Exact","4611 SOUTHERNESS LN SE, LACEY, WA, 98513",633098290,"R"
650915,"4611 SW ARNOLD STREET","PORTLAND","OR",97219,45.444663448,-122.724186742,415,"4611 SW ARNOLD STREET, PORTLAND, OR, 97219","Match","Exact","4611 SW ARNOLD ST, PORTLAND, OR, 97219",157525206,"R"
650916,"4611 SW LAUREL OAK TERRACE","PALM CITY","FL",34990,27.117021762,-80.316402115,416,"4611 SW LAUREL OAK TERRACE, PALM CITY, FL, 34990","Match","Exact","4611 SW LAUREL OAK TER, PALM CITY, FL, 34990",120433157,"L"
650917,"4611 SWEETWATER DRIVE","BRECKSVILLE","OH",44141,41.291320953,-81.666245191,417,"4611 SWEETWATER DRIVE, BRECKSVILLE, OH, 44141","Match","Exact","4611 SWEETWATER DR, BRECKSVILLE, OH, 44141",61141605,"L"
650918,"4611 TEALWOOD TRL","WESLEY CHAPEL","FL",33544,28.22425521,-82.369373512,418,"4611 TEALWOOD TRL, WESLEY CHAPEL, FL, 33544","Match","Exact","4611 TEALWOOD TRL, WESLEY CHAPEL, FL, 33544",627220762,"L"
650919,"4611 THOUSAND OAKS DR","ARLINGTON","TX",76017,32.673969153,-97.181568869,419,"4611 THOUSAND OAKS DR, ARLINGTON, TX, 76017","Match","Exact","4611 THOUSAND OAKS DR, ARLINGTON, TX, 76017",101902697,"R"
650920,"4611 TIBBS ST","SHREVEPORT","LA",71105,32.4583991420001,-93.729784576,420,"4611 TIBBS ST, SHREVEPORT, LA, 71105","Match","Exact","4611 TIBBS ST, SHREVEPORT, LA, 71105",57441248,"L"
650921,"4611 TOBAGO COVE","AUSTIN","TX",78749,30.210580189,-97.851435909,421,"4611 TOBAGO COVE, AUSTIN, TX, 78749","Match","Exact","4611 TOBAGO COVE, AUSTIN, TX, 78749",64097369,"L"
650922,"4611 TOURO ST","NEW ORLEANS","LA",70122,30.005068712,-90.06218954,422,"4611 TOURO ST, NEW ORLEANS, LA, 70122","Match","Exact","4611 TOURO ST, NEW ORLEANS, LA, 70122",191703996,"R"
650923,"4611 VAN WINKLE","AMARILLO","TX",79119,35.159603088,-101.926801113,423,"4611 VAN WINKLE, AMARILLO, TX, 79119","Match","Non_Exact","4611 VAN WINKLE DR, AMARILLO, TX, 79119",182673454,"L"
650924,"4611 VERPLANCK PLACE NW","WASHINGTON","DC",20016,38.9439709580001,-77.090940814,424,"4611 VERPLANCK PLACE NW, WASHINGTON, DC, 20016","Match","Exact","4611 VERPLANCK PL NW, WASHINGTON, DC, 20016",76219757,"R"
650925,"4611 W 4800 S","HOOPER","UT",84315,41.1761420170001,-112.090990282,425,"4611 W 4800 S, HOOPER, UT, 84315","Match","Exact","4611 W 4800 S, HOOPER, UT, 84315",605806033,"L"
650926,"4611 W BELOIT RD APT 3","WEST MILWAUKEE","WI",53214,43.018870291,-87.971578783,426,"4611 W BELOIT RD APT 3, WEST MILWAUKEE, WI, 53214","Match","Non_Exact","4611 W BELOIT RD, W MILWAUKEE, WI, 53214",77734665,"L"
650927,"4611 W LODGE DR","LAVEEN","AZ",85339,33.353713902,-112.15813033,427,"4611 W LODGE DR, LAVEEN, AZ, 85339","Match","Exact","4611 W LODGE DR, LAVEEN, AZ, 85339",244001316,"R"
650928,"4611 W QUAIL RIDGE","BOISE","ID",83703,43.669151517,-116.245105116,428,"4611 W QUAIL RIDGE, BOISE, ID, 83703","Match","Non_Exact","4611 W QUAIL RIDGE DR, BOISE, ID, 83703",117903884,"R"
650929,"4611 WILLYS PKWY","TOLEDO","OH",43612,41.702185774,-83.5728776349999,429,"4611 WILLYS PKWY, TOLEDO, OH, 43612","Match","Exact","4611 WILLYS PKWY, TOLEDO, OH, 43612",33933819,"L"
650930,"4611 WILSON AVE","NEW ORLEANS","LA",70126,30.017066976,-89.999121483,430,"4611 WILSON AVE, NEW ORLEANS, LA, 70126","Match","Exact","4611 WILSON AVE, NEW ORLEANS, LA, 70126",191720923,"R"
650931,"46111 FONNER RD","NORTHVILLE","MI",48167,42.432961246,-83.498135839,431,"46111 FONNER RD, NORTHVILLE, MI, 48167","Match","Exact","46111 FONNER RD, NORTHVILLE, MI, 48167",95404604,"L"
650932,"46112 ECR 1590","WYNNEWOOD","OK",73098,NA,NA,432,"46112 ECR 1590, WYNNEWOOD, OK, 73098","No_Match",NA,NA,NA,NA
650933,"461126 EAST 995 DRIVE","SALLISAW","OK",74955,35.5778356770001,-94.805730741,433,"461126 EAST 995 DRIVE, SALLISAW, OK, 74955","Match","Non_Exact","461126 E 995 RD, SALLISAW, OK, 74955",53771101,"L"
650934,"46115 CO HWY 51","PERHAM","MN",56573,46.6316931650001,-95.576443976,434,"46115 CO HWY 51, PERHAM, MN, 56573","Match","Exact","46115 CO HWY 51, PERHAM, MN, 56573",168335868,"L"
650935,"46119 240TH STREET","CHESTER","SD",57016,43.906173982,-96.985272268,435,"46119 240TH STREET, CHESTER, SD, 57016","Match","Exact","46119 240TH ST, CHESTER, SD, 57016",203669835,"L"
650936,"4612  NW 133RD AVE","PORTLAND","OR",97229,45.552749137,-122.814341567,436,"4612  NW 133RD AVE, PORTLAND, OR, 97229","Match","Exact","4612 NW 133RD AVE, PORTLAND, OR, 97229",649032392,"R"
650937,"4612 1/4 YORK BLVD","LOS ANGELES","CA",90041,34.1231247600001,-118.215506724,437,"4612 1/4 YORK BLVD, LOS ANGELES, CA, 90041","Match","Exact","4612 YORK BLVD, LOS ANGELES, CA, 90041",141613678,"R"
650938,"4612 121 ST STREET","LUBBOCK","TX",79424,33.486279844,-101.907295468,438,"4612 121 ST STREET, LUBBOCK, TX, 79424","Match","Non_Exact","4612 121ST ST, LUBBOCK, TX, 79424",652500996,"R"
650939,"4612 177TH AVE SE","BELLEVUE","WA",98006,47.563456574,-122.103789023,439,"4612 177TH AVE SE, BELLEVUE, WA, 98006","Match","Exact","4612 177TH AVE SE, BELLEVUE, WA, 98006",239773056,"R"
650940,"4612 55TH AVE","MOLINE","IL",61265,41.457812855,-90.472505118,440,"4612 55TH AVE, MOLINE, IL, 61265","Match","Exact","4612 55TH AVE, MOLINE, IL, 61265",9216368,"R"
650941,"4612 6L WESTPARK DRIVE","JONES","LA",71109,NA,NA,441,"4612 6L WESTPARK DRIVE, JONES, LA, 71109","No_Match",NA,NA,NA,NA
650942,"4612 6L WESTPARK DRIVE","SHREVEPORT","LA",71109,NA,NA,442,"4612 6L WESTPARK DRIVE, SHREVEPORT, LA, 71109","No_Match",NA,NA,NA,NA
650943,"4612 6TH STREET NW","WASHNGTON","DC",20011,NA,NA,443,"4612 6TH STREET NW, WASHNGTON, DC, 20011","No_Match",NA,NA,NA,NA
650944,"4612 ALGODON CT","HARLINGEN","TX",78552,26.1525010180001,-97.6888616109999,444,"4612 ALGODON CT, HARLINGEN, TX, 78552","Match","Exact","4612 ALGODON CT, HARLINGEN, TX, 78552",90030480,"R"
650945,"4612 ARIZONA STREET","SAN DIEGO","CA",92116,32.761335364,-117.137625085,445,"4612 ARIZONA STREET, SAN DIEGO, CA, 92116","Match","Exact","4612 ARIZONA ST, SAN DIEGO, CA, 92116",195345208,"L"
650946,"4612 AUTUMN RIDGE COURT","MIDLAND","MI",48640,NA,NA,446,"4612 AUTUMN RIDGE COURT, MIDLAND, MI, 48640","No_Match",NA,NA,NA,NA
650947,"4612 BARKLEY ESTATES DRIVE","COLLIERVILLE","TN",38017,35.0218921420001,-89.747527888,447,"4612 BARKLEY ESTATES DRIVE, COLLIERVILLE, TN, 38017","Match","Non_Exact","4612 BARKLEY ESTATE DR, COLLIERVILLE, TN, 38017",619932416,"R"
650948,"4612 BASS PI SE","WASHINGTON DC","DC",20019,NA,NA,448,"4612 BASS PI SE, WASHINGTON DC, DC, 20019","No_Match",NA,NA,NA,NA
650949,"4612 BELCOURT DRIVE","DAYTON","OH",45418,39.722118272,-84.264009161,449,"4612 BELCOURT DRIVE, DAYTON, OH, 45418","Match","Non_Exact","4612 BELCOURT DR, DAYTON, OH, 45417",143629984,"L"
650950,"4612 BURKE DR","METAIRIE","LA",70003,30.020867923,-90.217405334,450,"4612 BURKE DR, METAIRIE, LA, 70003","Match","Exact","4612 BURKE DR, METAIRIE, LA, 70003",93494088,"L"
650951,"4612 CAMP STREET","NEW ORLEANS","LA",70115,29.9216052470001,-90.104130995,451,"4612 CAMP STREET, NEW ORLEANS, LA, 70115","Match","Exact","4612 CAMP ST, NEW ORLEANS, LA, 70115",191712975,"L"
650952,"4612 CAPE CHARLES DR","PLANO","TX",75024,33.0917365380001,-96.788974695,452,"4612 CAPE CHARLES DR, PLANO, TX, 75024","Match","Exact","4612 CAPE CHARLES DR, PLANO, TX, 75024",123567265,"R"
650953,"4612 CAPE CHARLES DR","PLANO","TX",75025,33.0917365380001,-96.788974695,453,"4612 CAPE CHARLES DR, PLANO, TX, 75025","Match","Non_Exact","4612 CAPE CHARLES DR, PLANO, TX, 75024",123567265,"R"
650954,"4612 CHARLES PLACE","PLANO","TX",75093,33.0454745260001,-96.786882063,454,"4612 CHARLES PLACE, PLANO, TX, 75093","Match","Exact","4612 CHARLES PL, PLANO, TX, 75093",123509792,"L"
650955,"4612 CORKTREE LANE","CROWLEY","TX",76036,NA,NA,455,"4612 CORKTREE LANE, CROWLEY, TX, 76036","No_Match",NA,NA,NA,NA
650956,"4612 COUNTRY HILLS COURT","PLANT CITY","FL",33566,NA,NA,456,"4612 COUNTRY HILLS COURT, PLANT CITY, FL, 33566","Tie",NA,NA,NA,NA
650957,"4612 COUNTRY ST","EDINBURG","TX",78541,26.3320918050001,-98.249993401,457,"4612 COUNTRY ST, EDINBURG, TX, 78541","Match","Exact","4612 COUNTRY ST, EDINBURG, TX, 78541",634007667,"L"
650958,"4612 DELUTH AVE","MEMPHIS","TN",38118,35.060033939,-89.908774189,458,"4612 DELUTH AVE, MEMPHIS, TN, 38118","Match","Exact","4612 DELUTH AVE, MEMPHIS, TN, 38118",72921692,"L"
650959,"4612 EUEGENE DRIVE","BRISTOL","PA",19007,40.118973415,-74.8692072649999,459,"4612 EUEGENE DRIVE, BRISTOL, PA, 19007","Match","Non_Exact","4612 EUGENE DR, BRISTOL, PA, 19007",134716923,"R"
650960,"4612 FINLEY DRIVE","AUSTIN","TX",78731,30.321715269,-97.75173712,460,"4612 FINLEY DRIVE, AUSTIN, TX, 78731","Match","Exact","4612 FINLEY DR, AUSTIN, TX, 78731",63929509,"L"
650961,"4612 FIRESTONE DR","FRISCO","TX",75034,33.099407279,-96.851209554,461,"4612 FIRESTONE DR, FRISCO, TX, 75034","Match","Exact","4612 FIRESTONE DR, FRISCO, TX, 75034",103372783,"L"
650962,"4612 FRAMINGHAM DR","SYLVANNIA","OH",43560,41.699270911,-83.7025917299999,462,"4612 FRAMINGHAM DR, SYLVANNIA, OH, 43560","Match","Non_Exact","4612 FRAMINGHAM DR, SYLVANIA, OH, 43560",33927507,"R"
650963,"4612 GARY AVENUE","FAIRFIELD","AL",35064,33.4912853110001,-86.9152101939999,463,"4612 GARY AVENUE, FAIRFIELD, AL, 35064","Match","Exact","4612 GARY AVE, FAIRFIELD, AL, 35064",81551651,"R"
650964,"4612 GENERAL LOWREY DRIVE","NASHVILLE","TN",37215,36.0897745180001,-86.8127704249999,464,"4612 GENERAL LOWREY DRIVE, NASHVILLE, TN, 37215","Match","Exact","4612 GENERAL LOWREY DR, NASHVILLE, TN, 37215",97191248,"L"
650965,"4612 HAMILTON BRIDGE ROAD","PACE","FL",32571,30.6251406170001,-87.1306898719999,465,"4612 HAMILTON BRIDGE ROAD, PACE, FL, 32571","Match","Exact","4612 HAMILTON BRIDGE RD, PACE, FL, 32571",74588580,"R"
650966,"4612 HARRISON ST","CHEVY CHASE","MD",20815,38.9576433,-77.091408649,466,"4612 HARRISON ST, CHEVY CHASE, MD, 20815","Match","Exact","4612 HARRISON ST, CHEVY CHASE, MD, 20815",62067288,"L"
650967,"4612 HARRISON STREET","CHEVY CHASE","MD",20815,38.9576433,-77.091408649,467,"4612 HARRISON STREET, CHEVY CHASE, MD, 20815","Match","Exact","4612 HARRISON ST, CHEVY CHASE, MD, 20815",62067288,"L"
650968,"4612 HELLWIG RD","BALTIMORE","MD",21206,39.344627797,-76.5346422869999,468,"4612 HELLWIG RD, BALTIMORE, MD, 21206","Match","Exact","4612 HELLWIG RD, BALTIMORE, MD, 21206",206412192,"L"
650969,"4612 HELLWIG ROAD","BALTIMORE","MD",21206,39.344627797,-76.5346422869999,469,"4612 HELLWIG ROAD, BALTIMORE, MD, 21206","Match","Exact","4612 HELLWIG RD, BALTIMORE, MD, 21206",206412192,"L"
650970,"4612 HOSKINS ROAD","BILLINGS","MT",59105,45.882559122,-108.384068483,470,"4612 HOSKINS ROAD, BILLINGS, MT, 59105","Match","Exact","4612 HOSKINS RD, BILLINGS, MT, 59105",181454972,"L"
650971,"4612 HUMMINGBIRD WAY","FAIRFAX","VA",22033,38.861459005,-77.396206851,471,"4612 HUMMINGBIRD WAY, FAIRFAX, VA, 22033","Match","Exact","4612 HUMMINGBIRD WAY, FAIRFAX, VA, 22033",624463738,"R"
650972,"4612 HWY 218 E","MONROE","NC",28110,NA,NA,472,"4612 HWY 218 E, MONROE, NC, 28110","No_Match",NA,NA,NA,NA
650973,"4612 INTERSTATE 55","MARION","AR",72364,NA,NA,473,"4612 INTERSTATE 55, MARION, AR, 72364","No_Match",NA,NA,NA,NA
650974,"4612 JOHNSON AVENUE","WESTERN SPRINGS","IL",60558,41.805945616,-87.897304317,474,"4612 JOHNSON AVENUE, WESTERN SPRINGS, IL, 60558","Match","Exact","4612 JOHNSON AVE, WESTERN SPRINGS, IL, 60558",111789249,"R"
650975,"4612 KINGS POINT CT","LAKELAND","FL",33803,27.9815436490001,-81.933516085,475,"4612 KINGS POINT CT, LAKELAND, FL, 33803","Match","Non_Exact","4612 KINGS POINT CT, LAKELAND, FL, 33813",104813001,"L"
650976,"4612 LACY AVE","SUITLAND","MD",20746,38.8531882450001,-76.927705835,476,"4612 LACY AVE, SUITLAND, MD, 20746","Match","Exact","4612 LACY AVE, SUITLAND, MD, 20746",641711120,"L"
650977,"4612 LAFITE LANE","COLLEYVILLE","TX",76034,32.876683492,-97.1069188439999,477,"4612 LAFITE LANE, COLLEYVILLE, TX, 76034","Match","Exact","4612 LAFITE LN, COLLEYVILLE, TX, 76034",648428853,"R"
650978,"4612 LAWNDALE DRIVE","GREENSBORO","NC",27455,36.1384023630001,-79.8328526929999,478,"4612 LAWNDALE DRIVE, GREENSBORO, NC, 27455","Match","Exact","4612 LAWNDALE DR, GREENSBORO, NC, 27455",131027831,"R"
650979,"4612 LEON DE ORO DR","LAS VEGAS","NV",89129,36.2443434960001,-115.295570748,479,"4612 LEON DE ORO DR, LAS VEGAS, NV, 89129","Match","Exact","4612 LEON DE ORO DR, LAS VEGAS, NV, 89129",647521110,"R"
650980,"4612 LODGEPOLE DR","VIRGINIA BEACH","VA",23462,36.81358828,-76.1386231279999,480,"4612 LODGEPOLE DR, VIRGINIA BEACH, VA, 23462","Match","Exact","4612 LODGEPOLE DR, VA BCH, VA, 23462",122303161,"R"
650981,"4612 MAIN ST","BRUNO","MN",55712,46.2789000500001,-92.66087722,481,"4612 MAIN ST, BRUNO, MN, 55712","Match","Exact","4612 MAIN ST, BRUNO, MN, 55712",163092021,"L"
650982,"4612 MEADOW DR","RACINE","WI",53402,42.8083791270001,-87.834489649,482,"4612 MEADOW DR, RACINE, WI, 53402","Match","Exact","4612 MEADOW DR, RACINE, WI, 53402",77905157,"R"
650983,"4612 MONROE","VIDOR","TX",77662,30.1938078630001,-94.030434344,483,"4612 MONROE, VIDOR, TX, 77662","Match","Non_Exact","4612 MONROE DR, VIDOR, TX, 77662",74032458,"L"
650984,"4612 NE 63RD TER","KANSAS CITY","MO",64119,39.209126747,-94.524554832,484,"4612 NE 63RD TER, KANSAS CITY, MO, 64119","Match","Exact","4612 NE 63RD TER, KANSAS CITY, MO, 64119",624252019,"L"
650985,"4612 NE STATE RD 47","HIGH SPRING","FL",32643,NA,NA,485,"4612 NE STATE RD 47, HIGH SPRING, FL, 32643","No_Match",NA,NA,NA,NA
650986,"4612 NE STATE RD 47","HIGH SPRINGS","FL",32643,29.805864093,-82.7412192749999,486,"4612 NE STATE RD 47, HIGH SPRINGS, FL, 32643","Match","Non_Exact","4612 NE STATE RD 47, HIGH SPRINGS, FL, 32643",636952676,"R"
650987,"4612 NE WHISPERING WINDS DR","LEES SUMMIT","MO",64064,38.994866777,-94.355369389,487,"4612 NE WHISPERING WINDS DR, LEES SUMMIT, MO, 64064","Match","Exact","4612 NE WHISPERING WINDS DR, LEES SUMMIT, MO, 64064",91503212,"R"
650988,"4612 NORA AVENUE","IRWINDALE","CA",91706,34.0965339580001,-117.937563499,488,"4612 NORA AVENUE, IRWINDALE, CA, 91706","Match","Exact","4612 NORA AVE, IRWINDALE, CA, 91706",142780811,"R"
650989,"4612 NORTH 24TH STREETT","ARLINGTON","VA",22207,NA,NA,489,"4612 NORTH 24TH STREETT, ARLINGTON, VA, 22207","No_Match",NA,NA,NA,NA
650990,"4612 NW 33RD ST TERRACE","OKLAHOMA CITY","OK",73122,NA,NA,490,"4612 NW 33RD ST TERRACE, OKLAHOMA CITY, OK, 73122","No_Match",NA,NA,NA,NA
650991,"4612 ORTEGA BLVD","JACKSONVILLE","FL",32210,30.266586069,-81.700578433,491,"4612 ORTEGA BLVD, JACKSONVILLE, FL, 32210","Match","Exact","4612 ORTEGA BLVD, JACKSONVILLE, FL, 32210",83914013,"R"
650992,"4612 PANTINA WAY","INDIANAPOLIS","IN",46237,39.7010024940001,-86.048775818,492,"4612 PANTINA WAY, INDIANAPOLIS, IN, 46237","Match","Exact","4612 PANTINA WAY, INDIANAPOLIS, IN, 46237",108065142,"R"
650993,"4612 PATRICK HENRY HWY","MEHERRIN","VA",23954,37.104229221,-78.3706278779999,493,"4612 PATRICK HENRY HWY, MEHERRIN, VA, 23954","Match","Exact","4612 PATRICK HENRY HWY, MEHERRIN, VA, 23954",73996657,"R"
650994,"4612 RHYTHM RD","KISSIMMEE","FL",34746,28.33447009,-81.4665804799999,494,"4612 RHYTHM RD, KISSIMMEE, FL, 34746","Match","Exact","4612 RHYTHM RD, KISSIMMEE, FL, 34746",652053820,"L"
650995,"4612 RIVERFRONT DR","LOUISVILLE","KY",40216,38.207630959,-85.864629308,495,"4612 RIVERFRONT DR, LOUISVILLE, KY, 40216","Match","Non_Exact","4612 RIVER FRONT DR, LOUISVILLE, KY, 40216",96989234,"R"
650996,"4612 RUNNING DEER WAY","BOWIE","MD",20720,38.9522526650001,-76.8116448919999,496,"4612 RUNNING DEER WAY, BOWIE, MD, 20720","Match","Exact","4612 RUNNING DEER WAY, BOWIE, MD, 20720",76406123,"L"
650997,"4612 S MERIDIAN STREET","MARION","IN",46953,40.5139706940001,-85.6534663629999,497,"4612 S MERIDIAN STREET, MARION, IN, 46953","Match","Exact","4612 S MERIDIAN ST, MARION, IN, 46953",95015579,"R"
650998,"4612 SAUNDERS AVE","NASHVILLE","CA",37216,NA,NA,498,"4612 SAUNDERS AVE, NASHVILLE, CA, 37216","No_Match",NA,NA,NA,NA
650999,"4612 SOUTH COLLEGE DR","BLOOMINGTON","IN",47403,39.1163767460001,-86.533987729,499,"4612 SOUTH COLLEGE DR, BLOOMINGTON, IN, 47403","Match","Exact","4612 S COLLEGE DR, BLOOMINGTON, IN, 47403",606908394,"R"
651000,"4612 SOUTH FOREST AVE","SPRINGFIELD","MO",65810,37.131060469,-93.3269366769999,500,"4612 SOUTH FOREST AVE, SPRINGFIELD, MO, 65810","Match","Exact","4612 S FOREST AVE, SPRINGFIELD, MO, 65810",76693673,"R"
