"ID","Address","City","State","Zip","lat","long","id","input_address","match_indicator","match_type","matched_address","tiger_line_id","tiger_side"
743001,"585 PEACHTREE PARKWAY","CUMMING","GA",30041,34.1507749670001,-84.173565904,1,"585 PEACHTREE PARKWAY, CUMMING, GA, 30041","Match","Exact","585 PEACHTREE PKWY, CUMMING, GA, 30041",70190024,"R"
743002,"585 PINTO ROAD","GREENEVILLE","TN",37745,36.153007195,-82.7843664659999,2,"585 PINTO ROAD, GREENEVILLE, TN, 37745","Match","Exact","585 PINTO RD, GREENEVILLE, TN, 37745",611356056,"L"
743003,"585 PORTLAND AVENUE","ST. PAUL","MN",55102,44.9424079560001,-93.124210718,3,"585 PORTLAND AVENUE, ST. PAUL, MN, 55102","Match","Non_Exact","585 W PORTLAND AVE, SAINT PAUL, MN, 55102",97647553,"R"
743004,"585 PROSPECT STREET","MAPLEWOOD","NJ",7040,40.7297064270001,-74.266609962,4,"585 PROSPECT STREET, MAPLEWOOD, NJ, 7040","Match","Exact","585 PROSPECT ST, MAPLEWOOD, NJ, 07040",63462459,"R"
743005,"585 QUAIL ROAD","OREM","UT",84097,40.328603549,-111.682323861,5,"585 QUAIL ROAD, OREM, UT, 84097","Match","Non_Exact","585 E QUAIL RD, OREM, UT, 84097",134205242,"L"
743006,"585 RAMSDALE DR","ROSWELL","GA",30075,34.030018968,-84.378728815,6,"585 RAMSDALE DR, ROSWELL, GA, 30075","Match","Exact","585 RAMSDALE DR, ROSWELL, GA, 30075",17352030,"R"
743007,"585 RHODES ST","ATLANTA","GA",30314,33.7569093160001,-84.407287663,7,"585 RHODES ST, ATLANTA, GA, 30314","Match","Non_Exact","585 RHODES ST NW, ATLANTA, GA, 30314",639073356,"R"
743008,"585 ROSEMILL DRIVE","LEXINGTON","KY",40503,38.0204412620001,-84.530181555,8,"585 ROSEMILL DRIVE, LEXINGTON, KY, 40503","Match","Exact","585 ROSEMILL DR, LEXINGTON, KY, 40503",31920063,"R"
743009,"585 S 22ND ST","COLUMBUS","OH",43205,39.953094827,-82.972650161,9,"585 S 22ND ST, COLUMBUS, OH, 43205","Match","Exact","585 S 22ND ST, COLUMBUS, OH, 43205",218649370,"R"
743010,"585 S 3600 W","OGDEN","UT",84404,41.2548621240001,-112.067363736,10,"585 S 3600 W, OGDEN, UT, 84404","Match","Exact","585 S 3600 W, OGDEN, UT, 84404",653303001,"R"
743011,"585 S EDGEWOOD AVE","ELMHURST","IL",60126,41.880907226,-87.921893215,11,"585 S EDGEWOOD AVE, ELMHURST, IL, 60126","Match","Exact","585 EDGEWOOD AVE, ELMHURST, IL, 60126",112545717,"L"
743012,"585 S NEGLEY AVE APT 21","PITTSBURGH","PA",15123,NA,NA,12,"585 S NEGLEY AVE APT 21, PITTSBURGH, PA, 15123","No_Match",NA,NA,NA,NA
743013,"585 S THIRD ST","CLIFTON","IL",60927,40.931234391,-87.931157394,13,"585 S THIRD ST, CLIFTON, IL, 60927","Match","Exact","585 S THIRD ST, CLIFTON, IL, 60927",90750489,"R"
743014,"585 SADDLEBACK TERRACE","FREMONT","CA",94536,37.5646749900001,-121.970192665,14,"585 SADDLEBACK TERRACE, FREMONT, CA, 94536","Match","Exact","585 SADDLEBACK TER, FREMONT, CA, 94536",125042378,"R"
743015,"585 SEA STREET  UNIT 4","QUINCY","MA",2169,42.26110885,-70.975897748,15,"585 SEA STREET  UNIT 4, QUINCY, MA, 2169","Match","Exact","585 SEA ST, QUINCY, MA, 02169",87274677,"R"
743016,"585 SECLUDED ACRES RD","FORSYTH","MO",65653,36.673363216,-93.103248724,16,"585 SECLUDED ACRES RD, FORSYTH, MO, 65653","Match","Exact","585 SECLUDED ACRES RD, FORSYTH, MO, 65653",20155201,"R"
743017,"585 SHADY CREST DRIVE","LAVERGNE","TN",37086,35.990851347,-86.607395343,17,"585 SHADY CREST DRIVE, LAVERGNE, TN, 37086","Match","Non_Exact","585 SHADY CREST DR, LA VERGNE, TN, 37086",59028463,"L"
743018,"585 SHERINGHAM CT","ROSWELL","GA",30076,34.0336669490001,-84.29221605,18,"585 SHERINGHAM CT, ROSWELL, GA, 30076","Match","Exact","585 SHERINGHAM CT, ROSWELL, GA, 30076",17373881,"R"
743019,"585 SHILOH HEIGHT RD","AIKEN","SC",29801,33.6039358030001,-81.712504127,19,"585 SHILOH HEIGHT RD, AIKEN, SC, 29801","Match","Exact","585 SHILOH HEIGHTS RD, AIKEN, SC, 29801",636583940,"L"
743020,"585 SHILOH HEIGHTS RD","AIKEN","SC",29801,33.6039358030001,-81.712504127,20,"585 SHILOH HEIGHTS RD, AIKEN, SC, 29801","Match","Exact","585 SHILOH HEIGHTS RD, AIKEN, SC, 29801",636583940,"L"
743021,"585 SILO HILL RD","LORENA","TX",76655,31.3641237680001,-97.118743348,21,"585 SILO HILL RD, LORENA, TX, 76655","Match","Exact","585 SILO HILL RD, LORENA, TX, 76655",639935705,"L"
743022,"585 SIMPSON ST","PLYMOUTH","MI",48170,42.360792948,-83.466742553,22,"585 SIMPSON ST, PLYMOUTH, MI, 48170","Match","Exact","585 SIMPSON ST, PLYMOUTH, MI, 48170",95500152,"L"
743023,"585 SLEEPY HOLLOW N","GOODRICH","TX",77335,NA,NA,23,"585 SLEEPY HOLLOW N, GOODRICH, TX, 77335","No_Match",NA,NA,NA,NA
743024,"585 SOUTH ALTON WAY 4C","DENVER","CO",80247,39.705848824,-104.883256279,24,"585 SOUTH ALTON WAY 4C, DENVER, CO, 80247","Match","Exact","585 S ALTON WAY, DENVER, CO, 80247",612862068,"R"
743025,"585 SOUTHAMPTON LANE","LEAGUE CITY","TX",77573,29.470652006,-95.1630531769999,25,"585 SOUTHAMPTON LANE, LEAGUE CITY, TX, 77573","Match","Exact","585 SOUTHAMPTON LN, LEAGUE CITY, TX, 77573",646508730,"L"
743026,"585 SOUTHAMPTON LN","LEAGUE CITY","TX",77573,29.470652006,-95.1630531769999,26,"585 SOUTHAMPTON LN, LEAGUE CITY, TX, 77573","Match","Exact","585 SOUTHAMPTON LN, LEAGUE CITY, TX, 77573",646508730,"L"
743027,"585 SPRUCE CIRCLE","LOUISVILLE","CO",80027,39.9751119960001,-105.149742323,27,"585 SPRUCE CIRCLE, LOUISVILLE, CO, 80027","Match","Exact","585 SPRUCE CIR, LOUISVILLE, CO, 80027",220749082,"R"
743028,"585 STATE ROUTE 1125 S","FULTON","KY",42041,NA,NA,28,"585 STATE ROUTE 1125 S, FULTON, KY, 42041","No_Match",NA,NA,NA,NA
743029,"585 STETSON PLACE SW","BAINBRIDGE ISLAND","WA",98110,47.6209873350001,-122.524739549,29,"585 STETSON PLACE SW, BAINBRIDGE ISLAND, WA, 98110","Match","Exact","585 STETSON PL SW, BAINBRIDGE ISLAND, WA, 98110",187657918,"L"
743030,"585 STEWART AVENUE - SUITE 440","GARDEN CITY","NY",11530,40.731222734,-73.61382087,30,"585 STEWART AVENUE - SUITE 440, GARDEN CITY, NY, 11530","Match","Exact","585 STEWART AVE, GARDEN CITY, NY, 11530",147626789,"L"
743031,"585 STRATFORD ROAD","BALDWIN","NY",11510,40.680435952,-73.619201801,31,"585 STRATFORD ROAD, BALDWIN, NY, 11510","Match","Exact","585 STRATFORD RD, BALDWIN, NY, 11510",147629077,"L"
743032,"585 STUBBS BAY RD N","ORONO","MN",55356,44.9889936280001,-93.614945644,32,"585 STUBBS BAY RD N, ORONO, MN, 55356","Match","Exact","585 STUBBS BAY RD N, ORONO, MN, 55356",43853277,"L"
743033,"585 SUMMERLIN STREET","BARTOW","FL",33830,NA,NA,33,"585 SUMMERLIN STREET, BARTOW, FL, 33830","Tie",NA,NA,NA,NA
743034,"585 SUMMIT OAKS COURT","NASHVILLE","TN",37221,36.08533464,-86.9220345159999,34,"585 SUMMIT OAKS COURT, NASHVILLE, TN, 37221","Match","Exact","585 SUMMIT OAKS CT, NASHVILLE, TN, 37221",606360654,"L"
743035,"585 TECHNOLOGY PARK","LAKE MARY","FL",32746,28.7354673360001,-81.3609693619999,35,"585 TECHNOLOGY PARK, LAKE MARY, FL, 32746","Match","Exact","585 TECHNOLOGY PARK, LAKE MARY, FL, 32746",653180712,"L"
743036,"585 THORNTON WAY","ASHLAND","OR",97520,42.206725401,-122.73114186,36,"585 THORNTON WAY, ASHLAND, OR, 97520","Match","Exact","585 THORNTON WAY, ASHLAND, OR, 97520",636600635,"L"
743037,"585 TIMBERLANE DRIVE","VICKSBURG","MS",39180,32.2517238360001,-90.799139074,37,"585 TIMBERLANE DRIVE, VICKSBURG, MS, 39180","Match","Exact","585 TIMBERLANE DR, VICKSBURG, MS, 39180",611053415,"R"
743038,"585 TURNPIKE ST NO 15","SOUTH EASTON","MA",2375,42.0029448000001,-71.0668746979999,38,"585 TURNPIKE ST NO 15, SOUTH EASTON, MA, 2375","Match","Non_Exact","585 TURNPIKE ST, SOUTH EASTON, MA, 02375",642439653,"R"
743039,"585 VAN KIRK STREET","PHILADELPHIA","PA",19120,40.0423992730001,-75.099805599,39,"585 VAN KIRK STREET, PHILADELPHIA, PA, 19120","Match","Exact","585 VAN KIRK ST, PHILADELPHIA, PA, 19120",131414990,"L"
743040,"585 W BROAD ST","NEW HOLLAND","PA",17557,40.097990607,-76.1056811189999,40,"585 W BROAD ST, NEW HOLLAND, PA, 17557","Match","Exact","585 W BROAD ST, NEW HOLLAND, PA, 17557",179650471,"L"
743041,"585 W CLAY AVE","MUSKEGON","MI",49440,43.2313664660001,-86.257528809,41,"585 W CLAY AVE, MUSKEGON, MI, 49440","Match","Exact","585 W CLAY AVE, MUSKEGON, MI, 49440",77650676,"L"
743042,"585 W END AVE APT 9F","NEW YORK","NY",10024,40.790415571,-73.976742926,42,"585 W END AVE APT 9F, NEW YORK, NY, 10024","Match","Non_Exact","585 W END AVE, NEW YORK, NY, 10024",59656689,"L"
743043,"585 WATER TURKEY RETREAT","CHARLESTON","SC",29412,32.736573311,-79.9133496059999,43,"585 WATER TURKEY RETREAT, CHARLESTON, SC, 29412","Match","Exact","585 WATER TURKEY RETREAT, CHARLESTON, SC, 29412",622741013,"R"
743044,"585 WEST 214TH STREET","NEW YORK","NY",10033,40.871568788,-73.9194814859999,44,"585 WEST 214TH STREET, NEW YORK, NY, 10033","Match","Non_Exact","585 W 214TH ST, NEW YORK, NY, 10034",59658769,"R"
743045,"585 WILLOW AVE","HAYWARD","CA",94541,37.6761901460001,-122.098768408,45,"585 WILLOW AVE, HAYWARD, CA, 94541","Match","Exact","585 WILLOW AVE, HAYWARD, CA, 94541",125020294,"R"
743046,"585 WINDSPIRIT CIRCLE","PRESCOTT","AZ",86303,34.5306694990001,-112.415128596,46,"585 WINDSPIRIT CIRCLE, PRESCOTT, AZ, 86303","Match","Exact","585 WINDSPIRIT CIR, PRESCOTT, AZ, 86303",159507198,"R"
743047,"585 WINSTEAD ROAD","COBDEN","IL",62920,37.579864501,-89.283340002,47,"585 WINSTEAD ROAD, COBDEN, IL, 62920","Match","Exact","585 WINSTEAD RD, COBDEN, IL, 62920",639685957,"L"
743048,"585 WINTER ST NE APT 315","SALEM","OR",97301,44.94372206,-123.029590572,48,"585 WINTER ST NE APT 315, SALEM, OR, 97301","Match","Exact","585 WINTER ST NE, SALEM, OR, 97301",156249748,"L"
743049,"585 WINTER ST NE APT 715","SALEM","OR",97301,44.94372206,-123.029590572,49,"585 WINTER ST NE APT 715, SALEM, OR, 97301","Match","Exact","585 WINTER ST NE, SALEM, OR, 97301",156249748,"L"
743050,"585 WISTERIA WAY","SAN RAFAEL","CA",94903,38.0136833280001,-122.557700347,50,"585 WISTERIA WAY, SAN RAFAEL, CA, 94903","Match","Exact","585 WISTERIA WAY, SAN RAFAEL, CA, 94903",192762117,"R"
743051,"585 WOODS EDGE DR","LONDON","KY",40744,37.1044123300001,-84.1281254579999,51,"585 WOODS EDGE DR, LONDON, KY, 40744","Match","Non_Exact","585 WOODS EDGE DR, LONDON, KY, 40741",98755611,"R"
743052,"585 WOODWARD DR","FAYETTEVILLE","GA",30215,33.385486615,-84.4815350699999,52,"585 WOODWARD DR, FAYETTEVILLE, GA, 30215","Match","Exact","585 WOODWARD DR, FAYETTEVILLE, GA, 30215",635998442,"R"
743053,"585 WYARNO ROAD","SHERIDAN","WY",82801,44.8386321,-106.847618119,53,"585 WYARNO ROAD, SHERIDAN, WY, 82801","Match","Exact","585 WYARNO RD, SHERIDAN, WY, 82801",605387426,"L"
743054,"5850 45TH ST","VERO BEACH","FL",32967,27.6753179500001,-80.4475533139999,54,"5850 45TH ST, VERO BEACH, FL, 32967","Match","Exact","5850 45TH ST, VERO BEACH, FL, 32967",611127827,"R"
743055,"5850 AMAPOLA DR","SAN JOSE","CA",95129,37.3079199480001,-122.005193765,55,"5850 AMAPOLA DR, SAN JOSE, CA, 95129","Match","Exact","5850 AMAPOLA DR, SAN JOSE, CA, 95129",122942050,"L"
743056,"5850 BALBOA DRIVE","OAKLAND","CA",94611,37.831353791,-122.202330947,56,"5850 BALBOA DRIVE, OAKLAND, CA, 94611","Match","Exact","5850 BALBOA DR, OAKLAND, CA, 94611",125003483,"R"
743057,"5850 BOW ISLAND AVE","LAS VEGAS","NV",89122,36.1152243990001,-115.045626279,57,"5850 BOW ISLAND AVE, LAS VEGAS, NV, 89122","Match","Exact","5850 BOW ISLAND AVE, LAS VEGAS, NV, 89122",624812377,"R"
743058,"5850 CAMERON RUN TER APT 909","ALEXANDRIA","VA",22303,38.792377732,-77.0619939709999,58,"5850 CAMERON RUN TER APT 909, ALEXANDRIA, VA, 22303","Match","Exact","5850 CAMERON RUN TER, ALEXANDRIA, VA, 22303",650110868,"L"
743059,"5850 CAMERON RUN TERRACE 1010","ALEXANDRIA","VA",22303,38.792377732,-77.0619939709999,59,"5850 CAMERON RUN TERRACE 1010, ALEXANDRIA, VA, 22303","Match","Exact","5850 CAMERON RUN TER, ALEXANDRIA, VA, 22303",650110868,"L"
743060,"5850 CANOGA AVE STE 400","5850 CANOGA AVE STE","CA",91367,34.1763128310001,-118.597349612,60,"5850 CANOGA AVE STE 400, 5850 CANOGA AVE STE, CA, 91367","Match","Non_Exact","5850 CANOGA AVE, WOODLAND HLS, CA, 91367",142710004,"R"
743061,"5850 CANOGA AVE STE 400","WOODLAND HILLS","CA",91367,34.1763128310001,-118.597349612,61,"5850 CANOGA AVE STE 400, WOODLAND HILLS, CA, 91367","Match","Exact","5850 CANOGA AVE, WOODLAND HILLS, CA, 91367",142710004,"R"
743062,"5850 CANOGA AVE SUITE 400","WOODLAND HILLS","CA",91367,34.1763128310001,-118.597349612,62,"5850 CANOGA AVE SUITE 400, WOODLAND HILLS, CA, 91367","Match","Exact","5850 CANOGA AVE, WOODLAND HILLS, CA, 91367",142710004,"R"
743063,"5850 CANOGA AVE","WOODLAND HILLS","CA",91367,34.1763128310001,-118.597349612,63,"5850 CANOGA AVE, WOODLAND HILLS, CA, 91367","Match","Exact","5850 CANOGA AVE, WOODLAND HILLS, CA, 91367",142710004,"R"
743064,"5850 CANOGA AVENUE SUITE 400","WOODLAND HILLS","CA",91367,34.1763128310001,-118.597349612,64,"5850 CANOGA AVENUE SUITE 400, WOODLAND HILLS, CA, 91367","Match","Exact","5850 CANOGA AVE, WOODLAND HILLS, CA, 91367",142710004,"R"
743065,"5850 CHARON LN APT 100","MADISON","WI",53718,43.088846463,-89.280943485,65,"5850 CHARON LN APT 100, MADISON, WI, 53718","Match","Exact","5850 CHARON LN, MADISON, WI, 53718",627013912,"R"
743066,"5850 COMMERCE BLVD SUITE 100","ROHNERT PARK","CA",94928,38.353610014,-122.712406396,66,"5850 COMMERCE BLVD SUITE 100, ROHNERT PARK, CA, 94928","Match","Exact","5850 COMMERCE BLVD, ROHNERT PARK, CA, 94928",67518679,"L"
743067,"5850 COMMERCE BLVE SUITE 100","ROHNERT PARK","CA",94928,38.353610014,-122.712406396,67,"5850 COMMERCE BLVE SUITE 100, ROHNERT PARK, CA, 94928","Match","Non_Exact","5850 COMMERCE BLVD, ROHNERT PARK, CA, 94928",67518679,"L"
743068,"5850 CR 3918","ATHENS","TX",75752,32.256065311,-95.874349679,68,"5850 CR 3918, ATHENS, TX, 75752","Match","Exact","5850 CO RD 3918, ATHENS, TX, 75752",627722212,"L"
743069,"5850 DARLINGTON ROAD","PITTSBURGH","PA",15217,40.4370397800001,-79.9210470959999,69,"5850 DARLINGTON ROAD, PITTSBURGH, PA, 15217","Match","Exact","5850 DARLINGTON RD, PITTSBURGH, PA, 15217",51652151,"R"
743070,"5850 DOGWOOD RD SE","PORT ORCHARD","WA",98367,47.4961041670001,-122.642565413,70,"5850 DOGWOOD RD SE, PORT ORCHARD, WA, 98367","Match","Exact","5850 DOGWOOD RD SE, PORT ORCHARD, WA, 98367",624232804,"L"
743071,"5850 E BUTTE ST","MESA","AZ",85205,33.4217632670001,-111.704614492,71,"5850 E BUTTE ST, MESA, AZ, 85205","Match","Exact","5850 E BUTTE ST, MESA, AZ, 85205",128251805,"L"
743072,"5850 E STILL CIR","MESA","AZ",85206,33.382017379,-111.703997435,72,"5850 E STILL CIR, MESA, AZ, 85206","Match","Exact","5850 E STILL CIR, MESA, AZ, 85206",128875576,"R"
743073,"5850 EAGLEHEAD DRIVE","IJAMSVILLE","MD",21754,NA,NA,73,"5850 EAGLEHEAD DRIVE, IJAMSVILLE, MD, 21754","No_Match",NA,NA,NA,NA
743074,"5850 EAST LINE ROAD","WHITEWRIGHT","TX",75491,33.5258366580001,-96.383505139,74,"5850 EAST LINE ROAD, WHITEWRIGHT, TX, 75491","Match","Exact","5850 E LINE RD, WHITEWRIGHT, TX, 75491",647421012,"R"
743075,"5850 EUBANK NE SUITE B34","ALBUQUERQUE","NH",87111,NA,NA,75,"5850 EUBANK NE SUITE B34, ALBUQUERQUE, NH, 87111","No_Match",NA,NA,NA,NA
743076,"5850 FAIRWAY CT","WEST DES MOINES","IA",50266,41.5658545960001,-93.789026388,76,"5850 FAIRWAY CT, WEST DES MOINES, IA, 50266","Match","Exact","5850 FAIRWAY CT, WEST DES MOINES, IA, 50266",617497336,"L"
743077,"5850 GLASSPORT LANE","CHARLOTTE","NC",28210,35.143882202,-80.863222145,77,"5850 GLASSPORT LANE, CHARLOTTE, NC, 28210","Match","Exact","5850 GLASSPORT LN, CHARLOTTE, NC, 28210",618147175,"L"
743078,"5850 GRANITE PARKWAY SUITE 900","PLANO","TX",75024,33.087963093,-96.821674311,78,"5850 GRANITE PARKWAY SUITE 900, PLANO, TX, 75024","Match","Exact","5850 GRANITE PKWY, PLANO, TX, 75024",615064079,"R"
743079,"5850 GRANITE PKWY STE 900","PLANO","TX",75024,33.087963093,-96.821674311,79,"5850 GRANITE PKWY STE 900, PLANO, TX, 75024","Match","Exact","5850 GRANITE PKWY, PLANO, TX, 75024",615064079,"R"
743080,"5850 GULFTON ST APT 1862","HOUSTON","TX",77081,29.7164472160001,-95.483813574,80,"5850 GULFTON ST APT 1862, HOUSTON, TX, 77081","Match","Exact","5850 GULFTON ST, HOUSTON, TX, 77081",96614914,"R"
743081,"5850 HAMMOND DR","NORCROSS","GA",30071,33.9223302550001,-84.202390243,81,"5850 HAMMOND DR, NORCROSS, GA, 30071","Match","Non_Exact","5850 HAMMOND DR NW, NORCROSS, GA, 30071",88884380,"L"
743082,"5850 HERON DRIVE","HOUSTON","TX",77033,29.6594336740001,-95.330230506,82,"5850 HERON DRIVE, HOUSTON, TX, 77033","Match","Exact","5850 HERON DR, HOUSTON, TX, 77033",96091382,"R"
743083,"5850 HILLANDALE DR APT 224","LITHONIA","GA",30058,33.706240274,-84.167776498,83,"5850 HILLANDALE DR APT 224, LITHONIA, GA, 30058","Match","Exact","5850 HILLANDALE DR, LITHONIA, GA, 30058",642649045,"L"
743084,"5850 HILLANDALE DRIVE APT 224","LITHONIA","GA",30058,33.706240274,-84.167776498,84,"5850 HILLANDALE DRIVE APT 224, LITHONIA, GA, 30058","Match","Exact","5850 HILLANDALE DR, LITHONIA, GA, 30058",642649045,"L"
743085,"5850 HILLANDALE DRIVE APT 532","LITHONIA","GA",30058,33.706240274,-84.167776498,85,"5850 HILLANDALE DRIVE APT 532, LITHONIA, GA, 30058","Match","Exact","5850 HILLANDALE DR, LITHONIA, GA, 30058",642649045,"L"
743086,"5850 HILLANDALE DRIVE APT 623","LITHONIA","FL",30058,NA,NA,86,"5850 HILLANDALE DRIVE APT 623, LITHONIA, FL, 30058","No_Match",NA,NA,NA,NA
743087,"5850 HILLANDALE DRIVE","LITHONIA","GA",30058,33.706240274,-84.167776498,87,"5850 HILLANDALE DRIVE, LITHONIA, GA, 30058","Match","Exact","5850 HILLANDALE DR, LITHONIA, GA, 30058",642649045,"L"
743088,"5850 HILLCREST RD","MEDFORD","OR",97504,42.3309044100001,-122.766586495,88,"5850 HILLCREST RD, MEDFORD, OR, 97504","Match","Exact","5850 HILLCREST RD, MEDFORD, OR, 97504",155578495,"R"
743089,"5850 HUBBARD DRIVE","ROCKVILLE","MD",20852,39.054352685,-77.119808711,89,"5850 HUBBARD DRIVE, ROCKVILLE, MD, 20852","Match","Exact","5850 HUBBARD DR, ROCKVILLE, MD, 20852",638661439,"L"
743090,"5850 JORDAN CIRCLE","ANCHORAGE","AK",99504,61.1822180070001,-149.771520845,90,"5850 JORDAN CIRCLE, ANCHORAGE, AK, 99504","Match","Exact","5850 JORDAN CIR, ANCHORAGE, AK, 99504",190809158,"L"
743091,"5850 LAKESHORE DR","ANN ARBOR","MI",48108,42.2017721070001,-83.761928024,91,"5850 LAKESHORE DR, ANN ARBOR, MI, 48108","Match","Exact","5850 LAKESHORE DR, ANN ARBOR, MI, 48108",26032259,"R"
743092,"5850 LORAC DR","CLARKSTON","MI",48346,42.7234445890001,-83.414634931,92,"5850 LORAC DR, CLARKSTON, MI, 48346","Match","Exact","5850 LORAC DR, CLARKSTON, MI, 48346",69802254,"L"
743093,"5850 NOTTING HILL DRIVE","BIRMINGHAM","AL",35235,NA,NA,93,"5850 NOTTING HILL DRIVE, BIRMINGHAM, AL, 35235","No_Match",NA,NA,NA,NA
743094,"5850 NW 111 AVENUE","DORAL","FL",33178,25.8272218560001,-80.376905423,94,"5850 NW 111 AVENUE, DORAL, FL, 33178","Match","Exact","5850 NW 111TH AVE, DORAL, FL, 33178",116078784,"R"
743095,"5850 NW 111 AVENUE","MIAMI","FL",33173,25.8272218560001,-80.376905423,95,"5850 NW 111 AVENUE, MIAMI, FL, 33173","Match","Non_Exact","5850 NW 111TH AVE, MIAMI, FL, 33178",116078784,"R"
743096,"5850 NW 75TH AVE","OCALA","FL",34482,29.2437173860001,-82.243580584,96,"5850 NW 75TH AVE, OCALA, FL, 34482","Match","Exact","5850 NW 75TH AVE, OCALA, FL, 34482",647924967,"L"
743097,"5850 NW CR 2091","CORSICANA","TX",75110,NA,NA,97,"5850 NW CR 2091, CORSICANA, TX, 75110","Tie",NA,NA,NA,NA
743098,"5850 OAKHURST DRIVE","SEMINOLE","FL",33772,27.825901711,-82.801908283,98,"5850 OAKHURST DRIVE, SEMINOLE, FL, 33772","Match","Exact","5850 OAKHURST DR, SEMINOLE, FL, 33772",124690996,"L"
743099,"5850 OPUS PARKWAY SUITE 120","MINNETONKA","MN",55343,44.898223231,-93.4074877629999,99,"5850 OPUS PARKWAY SUITE 120, MINNETONKA, MN, 55343","Match","Exact","5850 OPUS PKWY, MINNETONKA, MN, 55343",43856979,"R"
743100,"5850 OPUS PARKWAY SUITE 250","MINNETONKA","MN",55343,44.898223231,-93.4074877629999,100,"5850 OPUS PARKWAY SUITE 250, MINNETONKA, MN, 55343","Match","Exact","5850 OPUS PKWY, MINNETONKA, MN, 55343",43856979,"R"
743101,"5850 PANTHER DRIVE","RENO","NV",89506,39.5908823440001,-119.822730109,101,"5850 PANTHER DRIVE, RENO, NV, 89506","Match","Exact","5850 PANTHER DR, RENO, NV, 89506",640019349,"R"
743102,"5850 PARK RD","MARCY","NY",13403,43.1448007220001,-75.2878325839999,102,"5850 PARK RD, MARCY, NY, 13403","Match","Exact","5850 PARK RD, MARCY, NY, 13403",171526726,"R"
743103,"5850 PETERSON LOOP","FORT BELVOIR","VA",22060,38.7043932070001,-77.13704143,103,"5850 PETERSON LOOP, FORT BELVOIR, VA, 22060","Match","Exact","5850 PETERSON LOOP, FORT BELVOIR, VA, 22060",75992543,"L"
743104,"5850 PILMOUR DRIVE","PROVIDENCE FORGE","VA",23140,37.4814340780001,-77.018742989,104,"5850 PILMOUR DRIVE, PROVIDENCE FORGE, VA, 23140","Match","Exact","5850 PILMOUR DR, PROVIDENCE FORGE, VA, 23140",645662702,"L"
743105,"5850 POLARIS AVE SUITE 1400","LAS VEGAS","NV",89118,36.083468243,-115.185570794,105,"5850 POLARIS AVE SUITE 1400, LAS VEGAS, NV, 89118","Match","Exact","5850 POLARIS AVE, LAS VEGAS, NV, 89118",201985073,"L"
743106,"5850 RED CHERRY LANE","MINNETONKA","MN",55345,44.897844928,-93.514806687,106,"5850 RED CHERRY LANE, MINNETONKA, MN, 55345","Match","Exact","5850 RED CHERRY LN, MINNETONKA, MN, 55345",43838158,"R"
743107,"5850 S POLARIS AVE STE 1400","LAS VEGAS","NV",89118,36.083451912,-115.185571034,107,"5850 S POLARIS AVE STE 1400, LAS VEGAS, NV, 89118","Match","Exact","5850 POLARIS AVE, LAS VEGAS, NV, 89118",201985073,"L"
743108,"5850 SE DOGWOOD ROAD","PORT ORCHARD","WA",98367,47.4903307490001,-122.646503019,108,"5850 SE DOGWOOD ROAD, PORT ORCHARD, WA, 98367","Match","Exact","5850 SE DOGWOOD RD, PORT ORCHARD, WA, 98367",187632109,"R"
743109,"5850 SOUTH GOOD","HOUSTON","TX",77033,29.679478434,-95.333770855,109,"5850 SOUTH GOOD, HOUSTON, TX, 77033","Match","Non_Exact","5850 SOUTHGOOD ST, HOUSTON, TX, 77033",96089652,"R"
743110,"5850 SPRINGBOX DR","SUWANEE","GA",30024,34.0749966400001,-84.125756901,110,"5850 SPRINGBOX DR, SUWANEE, GA, 30024","Match","Exact","5850 SPRINGBOX DR, SUWANEE, GA, 30024",646207419,"R"
743111,"5850 SW 102ND AVE","COOPER CITY","FL",33328,26.0466918020001,-80.2808203659999,111,"5850 SW 102ND AVE, COOPER CITY, FL, 33328","Match","Exact","5850 SW 102ND AVE, COOPER CITY, FL, 33328",114778703,"L"
743112,"5850 SW 47 STREET","MIAMI","FL",33155,25.72709222,-80.289314404,112,"5850 SW 47 STREET, MIAMI, FL, 33155","Match","Exact","5850 SW 47TH ST, MIAMI, FL, 33155",115978630,"L"
743113,"5850 US 60 BOX 11 SUMMIT PLAZA","ASHLAND","KY",41102,38.437360147,-82.687672446,113,"5850 US 60 BOX 11 SUMMIT PLAZA, ASHLAND, KY, 41102","Match","Non_Exact","5850 US HWY 60, ASHLAND, KY, 41102",151061041,"R"
743114,"5850 W 3RD ST UNIT 186","LOS ANGELES","CA",90036,34.069251788,-118.347659237,114,"5850 W 3RD ST UNIT 186, LOS ANGELES, CA, 90036","Match","Non_Exact","5850 W 3RD ST, LOS ANGELES, CA, 90036",650089184,"L"
743115,"5850 W 3RD ST UNIT 268","LOS ANGELES","CA",90036,34.069251788,-118.347659237,115,"5850 W 3RD ST UNIT 268, LOS ANGELES, CA, 90036","Match","Non_Exact","5850 W 3RD ST, LOS ANGELES, CA, 90036",650089184,"L"
743116,"5850 W GLENDALE AVE STE B-51","GLENDALE","AZ",85301,33.538589374,-112.185452728,116,"5850 W GLENDALE AVE STE B-51, GLENDALE, AZ, 85301","Match","Non_Exact","5850 W GLENDALE AVE, GLENDALE, AZ, 85301",636812864,"R"
743117,"5850 W GLENDALE AVE STE B51","GLENDALE","AZ",85301,33.538589374,-112.185452728,117,"5850 W GLENDALE AVE STE B51, GLENDALE, AZ, 85301","Match","Non_Exact","5850 W GLENDALE AVE, GLENDALE, AZ, 85301",636812864,"R"
743118,"5850 W GLENDALE AVENUE SUITE B-51","GLENDALE","AZ",85301,33.538589374,-112.185452728,118,"5850 W GLENDALE AVENUE SUITE B-51, GLENDALE, AZ, 85301","Match","Non_Exact","5850 W GLENDALE AVE, GLENDALE, AZ, 85301",636812864,"R"
743119,"5850 W THIRD STREET STE 268","LOS ANGELES","CA",90036,34.069251788,-118.347659237,119,"5850 W THIRD STREET STE 268, LOS ANGELES, CA, 90036","Match","Non_Exact","5850 W 3RD ST, LOS ANGELES, CA, 90036",650089184,"L"
743120,"5850 W TIFFIN ST","BASCOM","OH",44809,41.1326403320001,-83.28247737,120,"5850 W TIFFIN ST, BASCOM, OH, 44809","Match","Exact","5850 TIFFIN ST, BASCOM, OH, 44809",642752431,"L"
743121,"5850 W WARREN AVE","DENVER","CO",80227,39.6754146750001,-105.060354429,121,"5850 W WARREN AVE, DENVER, CO, 80227","Match","Exact","5850 W WARREN AVE, DENVER, CO, 80227",177623953,"L"
743122,"5850 WALERGA RD UNIT 3","SACRAMENTO","CA",95842,38.673933167,-121.357591027,122,"5850 WALERGA RD UNIT 3, SACRAMENTO, CA, 95842","Match","Exact","5850 WALERGA RD, SACRAMENTO, CA, 95842",648349606,"R"
743123,"5850 WATERLOO ROAD / SUITE 140","COLUMBIA","MD",21045,39.2095882470001,-76.798810611,123,"5850 WATERLOO ROAD / SUITE 140, COLUMBIA, MD, 21045","Match","Exact","5850 WATERLOO RD, COLUMBIA, MD, 21045",653290344,"R"
743124,"5850 WILSHIRE BLVD STE 268","BEVERLY HILLS","CA",90036,34.0624013830001,-118.356078301,124,"5850 WILSHIRE BLVD STE 268, BEVERLY HILLS, CA, 90036","Match","Non_Exact","5850 WILSHIRE BLVD, LOS ANGELES, CA, 90036",141599096,"L"
743125,"5850 WILSHIRE BLVD STE 268","LOS ANGELES","CA",90036,34.0624013830001,-118.356078301,125,"5850 WILSHIRE BLVD STE 268, LOS ANGELES, CA, 90036","Match","Exact","5850 WILSHIRE BLVD, LOS ANGELES, CA, 90036",141599096,"L"
743126,"5851 ANDERSON AVE SE  SUITE 128","ALBUQUERQUE","NM",87108,35.0637445090001,-106.581419186,126,"5851 ANDERSON AVE SE  SUITE 128, ALBUQUERQUE, NM, 87108","Match","Exact","5851 ANDERSON AVE SE, ALBUQUERQUE, NM, 87108",206718372,"L"
743127,"5851 BARNES RD","HOLLAND","TX",76534,30.9305883660001,-97.443285856,127,"5851 BARNES RD, HOLLAND, TX, 76534","Match","Exact","5851 BARNES RD, HOLLAND, TX, 76534",146188358,"L"
743128,"5851 BELT LINE ROAD","DALLAS","TX",75254,32.954091686,-96.805661119,128,"5851 BELT LINE ROAD, DALLAS, TX, 75254","Match","Exact","5851 BELT LINE RD, DALLAS, TX, 75254",103274384,"L"
743129,"5851 BUCK RUN DRIVE","LAKELAND","FL",33811,27.959669031,-82.00034293,129,"5851 BUCK RUN DRIVE, LAKELAND, FL, 33811","Match","Exact","5851 BUCK RUN DR, LAKELAND, FL, 33811",104852726,"R"
743130,"5851 CAMBRIDGE BAY DRIVE","CHARLOTTE","NC",28269,35.388790214,-80.771960429,130,"5851 CAMBRIDGE BAY DRIVE, CHARLOTTE, NC, 28269","Match","Exact","5851 CAMBRIDGE BAY DR, CHARLOTTE, NC, 28269",70545256,"R"
743131,"5851 CAMINO DEL SOL APT 104","BOCA RATON","FL",33433,NA,NA,131,"5851 CAMINO DEL SOL APT 104, BOCA RATON, FL, 33433","No_Match",NA,NA,NA,NA
743132,"5851 CASTLE HUNT","SAN ANTONIO","TX",78218,29.4862121520001,-98.376046916,132,"5851 CASTLE HUNT, SAN ANTONIO, TX, 78218","Match","Non_Exact","5851 CASTLE HUNT DR, SAN ANTONIO, TX, 78218",101536527,"L"
743133,"5851 CHAPELWOOD WAY","DALLAS","TX",75228,32.797566126,-96.701898033,133,"5851 CHAPELWOOD WAY, DALLAS, TX, 75228","Match","Exact","5851 CHAPELWOOD WAY, DALLAS, TX, 75228",102924021,"R"
743134,"5851 E HAMPTON ST","TUCSON","AZ",85712,32.248150659,-110.867344803,134,"5851 E HAMPTON ST, TUCSON, AZ, 85712","Match","Exact","5851 E HAMPTON ST, TUCSON, AZ, 85712",121180436,"L"
743135,"5851 FAIRWAY LANE","ST CLOUD","MN",56303,45.5755241140001,-94.23760027,135,"5851 FAIRWAY LANE, ST CLOUD, MN, 56303","Match","Exact","5851 FAIRWAY LN, SAINT CLOUD, MN, 56303",107413160,"R"
743136,"5851 FEEZOR ROAD","FARMINGTON","MO",63640,37.7446311730001,-90.371045398,136,"5851 FEEZOR ROAD, FARMINGTON, MO, 63640","Match","Non_Exact","5851 FEEZER RD, FARMINGTON, MO, 63640",62392778,"R"
743137,"5851 HAZELTINE AVE 102","VAN NUYS","CA",91401,34.1769199140001,-118.439980256,137,"5851 HAZELTINE AVE 102, VAN NUYS, CA, 91401","Match","Exact","5851 HAZELTINE AVE, VAN NUYS, CA, 91401",141561188,"L"
743138,"5851 HERONPARK PLACE","LITHIA","FL",33547,27.8469706430001,-82.233899814,138,"5851 HERONPARK PLACE, LITHIA, FL, 33547","Match","Exact","5851 HERONPARK PL, LITHIA, FL, 33547",104592286,"L"
743139,"5851 HOLMBERG RD 1414","PARKLAND","FL",33067,26.312014451,-80.2035706299999,139,"5851 HOLMBERG RD 1414, PARKLAND, FL, 33067","Match","Exact","5851 HOLMBERG RD, PARKLAND, FL, 33067",114816127,"L"
743140,"5851 HOLMBERG RD 3924","PARKLAND","FL",33067,26.312014451,-80.2035706299999,140,"5851 HOLMBERG RD 3924, PARKLAND, FL, 33067","Match","Exact","5851 HOLMBERG RD, PARKLAND, FL, 33067",114816127,"L"
743141,"5851 HOLMBERG RD","PARKLAND","FL",33067,26.312014451,-80.2035706299999,141,"5851 HOLMBERG RD, PARKLAND, FL, 33067","Match","Exact","5851 HOLMBERG RD, PARKLAND, FL, 33067",114816127,"L"
743142,"5851 HOMBERG ROAD","PARKLAND","FL",33067,NA,NA,142,"5851 HOMBERG ROAD, PARKLAND, FL, 33067","No_Match",NA,NA,NA,NA
743143,"5851 KENSINGTON BOULEVARD","NEW ORLEANS","LA",70127,30.035507495,-89.966717215,143,"5851 KENSINGTON BOULEVARD, NEW ORLEANS, LA, 70127","Match","Exact","5851 KENSINGTON BLVD, NEW ORLEANS, LA, 70127",191749515,"R"
743144,"5851 KOVARIK RD","WICHITA FALLS","TX",76310,33.887713219,-98.585615782,144,"5851 KOVARIK RD, WICHITA FALLS, TX, 76310","Match","Exact","5851 KOVARIK RD, WICHITA FALLS, TX, 76310",169841438,"L"
743145,"5851 LOST CREEK","SAN ANTONIO","TX",78247,29.591140442,-98.376060438,145,"5851 LOST CREEK, SAN ANTONIO, TX, 78247","Match","Non_Exact","5851 LOST CREEK ST, SAN ANTONIO, TX, 78247",101501181,"L"
743146,"5851 MAC ARTHUR BOULEVARD","OAKLAND","CA",94605,37.7756187950001,-122.185102454,146,"5851 MAC ARTHUR BOULEVARD, OAKLAND, CA, 94605","Match","Non_Exact","5851 MACARTHUR BLVD, OAKLAND, CA, 94605",125008511,"R"
743147,"5851 MT VERNON DR","ALEXANDRIA","VA",22303,38.7919283430001,-77.068650294,147,"5851 MT VERNON DR, ALEXANDRIA, VA, 22303","Match","Exact","5851 MOUNT VERNON DR, ALEXANDRIA, VA, 22303",75989608,"L"
743148,"5851 NE 2 AVE","N MIAMI","FL",33137,25.829188865,-80.192021801,148,"5851 NE 2 AVE, N MIAMI, FL, 33137","Match","Non_Exact","5851 NE 2ND AVE, MIAMI, FL, 33137",116007280,"R"
743149,"5851 NE 96TH AVE","BRONSON","FL",32621,29.4192449560001,-82.6125122939999,149,"5851 NE 96TH AVE, BRONSON, FL, 32621","Match","Exact","5851 NE 96TH AVE, BRONSON, FL, 32621",651724302,"L"
743150,"5851 NORTH LAKESHORE","SHREVEPORT","LA",71107,32.5362892000001,-93.85742518,150,"5851 NORTH LAKESHORE, SHREVEPORT, LA, 71107","Match","Non_Exact","5851 N LAKESHORE DR, SHREVEPORT, LA, 71107",652760068,"L"
743151,"5851 QUANTRELL AVE APT T10","ALEXANDRIA","VA",22312,38.8187444490001,-77.135885521,151,"5851 QUANTRELL AVE APT T10, ALEXANDRIA, VA, 22312","Match","Exact","5851 QUANTRELL AVE, ALEXANDRIA, VA, 22312",75982275,"R"
743152,"5851 RAPID RUN ROAD","CINCINNATI","OH",45238,39.1114211880001,-84.643016331,152,"5851 RAPID RUN ROAD, CINCINNATI, OH, 45238","Match","Non_Exact","5851 RAPID RUN RD, CINCINNATI, OH, 45233",103963354,"L"
743153,"5851 RHODE ISLAND DRIVE","WOODBRIDGE","VA",22193,38.6559135460001,-77.3899711939999,153,"5851 RHODE ISLAND DRIVE, WOODBRIDGE, VA, 22193","Match","Exact","5851 RHODE ISLAND DR, WOODBRIDGE, VA, 22193",635411608,"R"
743154,"5851 S 525 E","PIERCETON","IN",46562,41.1486532010001,-85.738624994,154,"5851 S 525 E, PIERCETON, IN, 46562","Match","Exact","5851 S 525 E, PIERCETON, IN, 46562",7922594,"L"
743155,"5851 S SHERIDAN BLVD","LITTLETON","CO",80123,39.6118720380001,-105.053617666,155,"5851 S SHERIDAN BLVD, LITTLETON, CO, 80123","Match","Exact","5851 S SHERIDAN BLVD, LITTLETON, CO, 80123",177516028,"R"
743156,"5851 SAN FELIPE SUITE 220","HOUSTON","TX",77057,29.749878858,-95.485077425,156,"5851 SAN FELIPE SUITE 220, HOUSTON, TX, 77057","Match","Non_Exact","5851 SAN FELIPE ST, HOUSTON, TX, 77057",639273300,"L"
743157,"5851 SANTA BABARA AVE","GARDEN GROVE","CA",92845,33.7909815690001,-118.03075915,157,"5851 SANTA BABARA AVE, GARDEN GROVE, CA, 92845","Match","Non_Exact","5851 SANTA BARBARA AVE, GARDEN GROVE, CA, 92845",144003525,"L"
743158,"5851 SANTA BARBARA AVE","GARDEN GROVE","CA",92845,33.7909815690001,-118.03075915,158,"5851 SANTA BARBARA AVE, GARDEN GROVE, CA, 92845","Match","Exact","5851 SANTA BARBARA AVE, GARDEN GROVE, CA, 92845",144003525,"L"
743159,"5851 SHIRLEY DRIVE","BETHEL PARK","PA",15102,40.309643931,-80.031727641,159,"5851 SHIRLEY DRIVE, BETHEL PARK, PA, 15102","Match","Exact","5851 SHIRLEY DR, BETHEL PARK, PA, 15102",51657627,"L"
743160,"5851 ST RD 62","FRIENDSHIP","IN",47021,NA,NA,160,"5851 ST RD 62, FRIENDSHIP, IN, 47021","No_Match",NA,NA,NA,NA
743161,"5851 UPTON ST","MCLEAN","VA",22101,38.928089131,-77.132861812,161,"5851 UPTON ST, MCLEAN, VA, 22101","Match","Exact","5851 UPTON ST, MCLEAN, VA, 22101",76050207,"L"
743162,"5851 UPTON STREET","MCLEAN","VA",22101,38.928089131,-77.132861812,162,"5851 UPTON STREET, MCLEAN, VA, 22101","Match","Exact","5851 UPTON ST, MCLEAN, VA, 22101",76050207,"L"
743163,"5851 WELLS LANE","SALADO","TX",76571,NA,NA,163,"5851 WELLS LANE, SALADO, TX, 76571","No_Match",NA,NA,NA,NA
743164,"5851 WEST 82ND STREET","BURBANK","IL",60459,41.7431704860001,-87.7671797369999,164,"5851 WEST 82ND STREET, BURBANK, IL, 60459","Match","Exact","5851 W 82ND ST, BURBANK, IL, 60459",111811679,"L"
743165,"5851 WESTCHASE ST","ATLANTA","GA",30336,33.723851741,-84.5804335,165,"5851 WESTCHASE ST, ATLANTA, GA, 30336","Match","Exact","5851 WESTCHASE ST, ATLANTA, GA, 30336",642059020,"R"
743166,"5851 WILKINSON AVE","VALLEY VILLAGE","CA",91607,34.176591596,-118.404179139,166,"5851 WILKINSON AVE, VALLEY VILLAGE, CA, 91607","Match","Exact","5851 WILKINSON AVE, VALLEY VLG, CA, 91607",141563355,"L"
743167,"5851 WINDSONG DR","STANSBURY PARK","UT",84074,40.6351243940001,-112.309400567,167,"5851 WINDSONG DR, STANSBURY PARK, UT, 84074","Match","Exact","5851 WINDSONG DR, STANSBURY PARK, UT, 84074",155386809,"L"
743168,"5851A","INDIANAPOLIS","IN",46254,NA,NA,168,"5851A, INDIANAPOLIS, IN, 46254","No_Match",NA,NA,NA,NA
743169,"5852 BOWCROFT UNIT 3","LOS ANGELES","CA",90016,34.0193118650001,-118.373733509,169,"5852 BOWCROFT UNIT 3, LOS ANGELES, CA, 90016","Match","Non_Exact","5852 BOWCROFT ST, LOS ANGELES, CA, 90016",142728967,"L"
743170,"5852 CHIMNEY SPRINGS RD","BUFORD","GA",30518,34.1520619570001,-84.013068639,170,"5852 CHIMNEY SPRINGS RD, BUFORD, GA, 30518","Match","Exact","5852 CHIMNEY SPRINGS RD, BUFORD, GA, 30518",98283274,"R"
743171,"5852 CHRISTIANSEN COURT","LAKELAND","FL",33812,NA,NA,171,"5852 CHRISTIANSEN COURT, LAKELAND, FL, 33812","No_Match",NA,NA,NA,NA
743172,"5852 COLFAX AVENUE","ALEXANDRIA","VA",22311,38.8385332020001,-77.13320828,172,"5852 COLFAX AVENUE, ALEXANDRIA, VA, 22311","Match","Exact","5852 COLFAX AVE, ALEXANDRIA, VA, 22311",76061393,"L"
743173,"5852 CONSTITUTION AVENUE","AVE MARIA","FL",34142,26.314555854,-81.4418002959999,173,"5852 CONSTITUTION AVENUE, AVE MARIA, FL, 34142","Match","Non_Exact","5852 CONSTITUTION ST, AVE MARIA, FL, 34142",648662295,"L"
743174,"5852 DAISY CREEK CT","LAS VEGAS","NV",89141,36.0047901230001,-115.222253333,174,"5852 DAISY CREEK CT, LAS VEGAS, NV, 89141","Match","Exact","5852 DAISY CREEK CT, LAS VEGAS, NV, 89141",652058265,"R"
743175,"5852 DAISY CREEK","LAS VEGAS","NV",89141,36.0047901230001,-115.222253333,175,"5852 DAISY CREEK, LAS VEGAS, NV, 89141","Match","Non_Exact","5852 DAISY CREEK CT, LAS VEGAS, NV, 89141",652058265,"R"
743176,"5852 FAIRWAY LN","ST.CLOUD","MN",56303,45.575513786,-94.237661442,176,"5852 FAIRWAY LN, ST.CLOUD, MN, 56303","Match","Exact","5852 FAIRWAY LN, SAINT CLOUD, MN, 56303",107413160,"L"
743177,"5852 GREYCOURT AVE","SAN DIEGO","CA",92114,32.6926769610001,-117.071007996,177,"5852 GREYCOURT AVE, SAN DIEGO, CA, 92114","Match","Exact","5852 GREYCOURT AVE, SAN DIEGO, CA, 92114",195353095,"L"
743178,"5852 HAMILTON AVENUE","CINCINNATI","OH",45224,39.197826177,-84.5462274,178,"5852 HAMILTON AVENUE, CINCINNATI, OH, 45224","Match","Exact","5852 HAMILTON AVE, CINCINNATI, OH, 45224",103921123,"R"
743179,"5852 KNOLLVIEW CT","COVINGTON","KY",41015,38.9823739300001,-84.496412935,179,"5852 KNOLLVIEW CT, COVINGTON, KY, 41015","Match","Exact","5852 KNOLLVIEW CT, COVINGTON, KY, 41015",619746886,"L"
743180,"5852 MCASHAN RIDGE ROAD","MC CALLA","AL",35111,33.3211586420001,-87.037764653,180,"5852 MCASHAN RIDGE ROAD, MC CALLA, AL, 35111","Match","Exact","5852 MCASHAN RIDGE RD, MC CALLA, AL, 35111",627297581,"R"
743181,"5852 S PRAIRIE STREET UNIT-2","CHICAGO","IL",60637,NA,NA,181,"5852 S PRAIRIE STREET UNIT-2, CHICAGO, IL, 60637","No_Match",NA,NA,NA,NA
743182,"5852 STATE HIGHWAY 56","HANNAWA FALLS","NY",13647,NA,NA,182,"5852 STATE HIGHWAY 56, HANNAWA FALLS, NY, 13647","No_Match",NA,NA,NA,NA
743183,"5852 WESTMINSTER WAY","EAST LANSING","MI",48823,42.751049691,-84.4385790709999,183,"5852 WESTMINSTER WAY, EAST LANSING, MI, 48823","Match","Exact","5852 WESTMINSTER WAY, EAST LANSING, MI, 48823",17514443,"R"
743184,"5853 BARRIER REEF DR","FORT WORTH","TX",76179,32.8391464850001,-97.413349317,184,"5853 BARRIER REEF DR, FORT WORTH, TX, 76179","Match","Exact","5853 BARRIER REEF DR, FORT WORTH, TX, 76179",619872395,"L"
743185,"5853 COOPER LAKE DRIVE","JACKSONVILLE","FL",32218,30.4336073360001,-81.7430761849999,185,"5853 COOPER LAKE DRIVE, JACKSONVILLE, FL, 32218","Match","Non_Exact","5853 COPPER LAKE DR, JACKSONVILLE, FL, 32218",83939433,"R"
743186,"5853 COPPER LAKE DR","JACKSONVILLE","FL",32218,30.4336073360001,-81.7430761849999,186,"5853 COPPER LAKE DR, JACKSONVILLE, FL, 32218","Match","Exact","5853 COPPER LAKE DR, JACKSONVILLE, FL, 32218",83939433,"R"
743187,"5853 E GOV JOHN SEVIER HWY","KNOXVILLE","TN",37924,36.012880512,-83.826239984,187,"5853 E GOV JOHN SEVIER HWY, KNOXVILLE, TN, 37924","Match","Exact","5853 E GOVERNOR JOHN SEVIER HWY, KNOXVILLE, TN, 37924",42661921,"L"
743188,"5853 E KAYLEIGH LN","LAKE CHARLES","LA",70605,30.149129443,-93.23706342,188,"5853 E KAYLEIGH LN, LAKE CHARLES, LA, 70605","Match","Exact","5853 E KAYLEIGH LN, LAKE CHARLES, LA, 70605",600638961,"L"
743189,"5853 EAST ENROSE STREET","MESA","AZ",85205,33.4312874760001,-111.705275822,189,"5853 EAST ENROSE STREET, MESA, AZ, 85205","Match","Exact","5853 E ENROSE ST, MESA, AZ, 85205",128283521,"R"
743190,"5853 FOLKSTONE DR","TROY","MI",48085,42.603718906,-83.142544039,190,"5853 FOLKSTONE DR, TROY, MI, 48085","Match","Exact","5853 FOLKSTONE DR, TROY, MI, 48085",69714207,"R"
743191,"5853 FOX LAIR AVENUE","MEMPHIS","TN",38115,35.054020334,-89.868342561,191,"5853 FOX LAIR AVENUE, MEMPHIS, TN, 38115","Match","Exact","5853 FOX LAIR AVE, MEMPHIS, TN, 38115",72928761,"R"
743192,"5853 HOLSTEIN WAY","MURRAY","UT",84107,40.642621208,-111.872797294,192,"5853 HOLSTEIN WAY, MURRAY, UT, 84107","Match","Exact","5853 HOLSTEIN WAY, MURRAY, UT, 84107",176110574,"L"
743193,"5853 LOMOND DR","SAN DIEGO","CA",92120,32.786176369,-117.072643752,193,"5853 LOMOND DR, SAN DIEGO, CA, 92120","Match","Exact","5853 LOMOND DR, SAN DIEGO, CA, 92120",195322913,"R"
743194,"5853 NC 742 S","WADESBORO","NC",28170,NA,NA,194,"5853 NC 742 S, WADESBORO, NC, 28170","No_Match",NA,NA,NA,NA
743195,"5853 NW 54TH CIRCLE","CORAL SPRINGS","FL",33067,26.296077967,-80.206753963,195,"5853 NW 54TH CIRCLE, CORAL SPRINGS, FL, 33067","Match","Exact","5853 54TH CIR, CORAL SPRINGS, FL, 33067",608969317,"L"
743196,"5853 PARCHESTER RD","RALEIGH","NC",27616,35.860167247,-78.564882943,196,"5853 PARCHESTER RD, RALEIGH, NC, 27616","Match","Non_Exact","5853 PARKCHESTER RD, RALEIGH, NC, 27616",634096879,"L"
743197,"5853 PITCH PINE DRIVE","ORLANDO","FL",32819,28.479397507,-81.4879518119999,197,"5853 PITCH PINE DRIVE, ORLANDO, FL, 32819","Match","Exact","5853 PITCH PINE DR, ORLANDO, FL, 32819",94332109,"L"
743198,"5853 ROBERT OLIVER PLACE","COLUMBIA","MD",21045,39.210028235,-76.8465354799999,198,"5853 ROBERT OLIVER PLACE, COLUMBIA, MD, 21045","Match","Exact","5853 ROBERT OLIVER PL, COLUMBIA, MD, 21045",619668345,"L"
743199,"5853 S FOX WAY","LITTLETON","CO",80120,39.6106467550001,-104.995402231,199,"5853 S FOX WAY, LITTLETON, CO, 80120","Match","Exact","5853 S FOX WAY, LITTLETON, CO, 80120",177336471,"R"
743200,"5853 S LA BREA AVE","LOS ANGELES","CA",90056,33.987651284,-118.358376033,200,"5853 S LA BREA AVE, LOS ANGELES, CA, 90056","Match","Exact","5853 S LA BREA AVE, LOS ANGELES, CA, 90056",141653718,"R"
743201,"5853 S NORTHERN RIDGE RD","SPRINGFIELD","MO",65810,37.1084336930001,-93.348332477,201,"5853 S NORTHERN RIDGE RD, SPRINGFIELD, MO, 65810","Match","Exact","5853 S NORTHERN RIDGE RD, SPRINGFIELD, MO, 65810",647743973,"L"
743202,"5853 SEASIDE DRIVE","NEW PORT RICHEY","FL",34652,28.245032736,-82.742231072,202,"5853 SEASIDE DRIVE, NEW PORT RICHEY, FL, 34652","Match","Exact","5853 SEASIDE DR, NEW PORT RICHEY, FL, 34652",86365009,"R"
743203,"5853 STATE ROUTE 534","WINDSOR","OH",44099,41.5881571730001,-80.953247074,203,"5853 STATE ROUTE 534, WINDSOR, OH, 44099","Match","Exact","5853 STATE RTE 534, WINDSOR, OH, 44099",117320691,"L"
743204,"5853 SUTTER AVENUE","CARMICHAEL","CA",95608,38.633510777,-121.329091395,204,"5853 SUTTER AVENUE, CARMICHAEL, CA, 95608","Match","Exact","5853 SUTTER AVE, CARMICHAEL, CA, 95608",133343003,"L"
743205,"5853 TWEED TRAIL","FARMINGTON","NY",14425,NA,NA,205,"5853 TWEED TRAIL, FARMINGTON, NY, 14425","No_Match",NA,NA,NA,NA
743206,"5853 WEST KIEWEG","WEST TERRE HAUTE","IN",47885,39.4344389180001,-87.508164386,206,"5853 WEST KIEWEG, WEST TERRE HAUTE, IN, 47885","Match","Non_Exact","5853 W KIEWIG DR, W TERRE HAUTE, IN, 47885",27127501,"R"
743207,"58535 STRAWBERRY COURT","SOUTH BEND","IN",46619,NA,NA,207,"58535 STRAWBERRY COURT, SOUTH BEND, IN, 46619","No_Match",NA,NA,NA,NA
743208,"5854 AIRLINE ROAD","ARLINGTON","TN",38002,35.2863137080001,-89.67181248,208,"5854 AIRLINE ROAD, ARLINGTON, TN, 38002","Match","Exact","5854 AIRLINE RD, ARLINGTON, TN, 38002",607388979,"R"
743209,"5854 APPLEWHITE ROAD","WENDELL","NC",27591,35.7137642500001,-78.331965698,209,"5854 APPLEWHITE ROAD, WENDELL, NC, 27591","Match","Exact","5854 APPLEWHITE RD, WENDELL, NC, 27591",639652629,"R"
743210,"5854 CALAMIE DRIVE","PARMA HEIGHTS","OH",44130,41.4038788170001,-81.766547182,210,"5854 CALAMIE DRIVE, PARMA HEIGHTS, OH, 44130","Match","Exact","5854 CALAMIE DR, PARMA HEIGHTS, OH, 44130",61104167,"R"
743211,"5854 CALICO LANE","CANFIELD","OH",44406,41.0343747860001,-80.799398399,211,"5854 CALICO LANE, CANFIELD, OH, 44406","Match","Exact","5854 CALICO LN, CANFIELD, OH, 44406",64608057,"R"
743212,"5854 DELORES DR","COLORADO SPRINGS","CO",80922,NA,NA,212,"5854 DELORES DR, COLORADO SPRINGS, CO, 80922","No_Match",NA,NA,NA,NA
743213,"5854 E MICHIGAN AVE","KALAMAZOO","MI",49004,42.28853063,-85.5149277679999,213,"5854 E MICHIGAN AVE, KALAMAZOO, MI, 49004","Match","Non_Exact","5854 E MICHIGAN AVE, KALAMAZOO, MI, 49048",12231917,"R"
743214,"5854 HAMILTON BRIDGE RD","MILTON","FL",32570,30.62154639,-87.07819306,214,"5854 HAMILTON BRIDGE RD, MILTON, FL, 32570","Match","Exact","5854 HAMILTON BRIDGE RD, MILTON, FL, 32570",653869460,"R"
743215,"5854 HAWTHORNE LANE","FERNDALE","WA",98248,48.8534731500001,-122.600613481,215,"5854 HAWTHORNE LANE, FERNDALE, WA, 98248","Match","Exact","5854 HAWTHORNE LN, FERNDALE, WA, 98248",183784095,"L"
743216,"5854 MISTY HILL DRIVE","CLARKSTON","MI",48346,42.724078982,-83.4074539,216,"5854 MISTY HILL DRIVE, CLARKSTON, MI, 48346","Match","Exact","5854 MISTY HILL DR, CLARKSTON, MI, 48346",69693009,"L"
743217,"5854 N 7TH ST","PHILADELPHIA","PA",19120,40.04103395,-75.1332272829999,217,"5854 N 7TH ST, PHILADELPHIA, PA, 19120","Match","Exact","5854 N 7TH ST, PHILADELPHIA, PA, 19120",131414252,"L"
743218,"5854 N 7TH ST","PHILADELPHIA","PA",19141,40.04103395,-75.1332272829999,218,"5854 N 7TH ST, PHILADELPHIA, PA, 19141","Match","Non_Exact","5854 N 7TH ST, PHILADELPHIA, PA, 19120",131414252,"L"
743219,"5854 N NICKERSON","CHICAGO","IL",60631,41.9875132940001,-87.802154593,219,"5854 N NICKERSON, CHICAGO, IL, 60631","Match","Non_Exact","5854 N NICKERSON AVE, CHICAGO, IL, 60631",605171472,"L"
743220,"5854 NORMANDIE PLACE","RIVERSIDE","CA",92501,33.96536819,-117.406896603,220,"5854 NORMANDIE PLACE, RIVERSIDE, CA, 92501","Match","Non_Exact","5854 NORMANDIE PL, RIVERSIDE, CA, 92504",194739528,"L"
743221,"5854 NORMANDIE PLACE","RIVERSIDE","CA",92504,33.96536819,-117.406896603,221,"5854 NORMANDIE PLACE, RIVERSIDE, CA, 92504","Match","Exact","5854 NORMANDIE PL, RIVERSIDE, CA, 92504",194739528,"L"
743222,"5854 OAK CREST CIRCLE","AMES","IA",50010,42.077111373,-93.623105465,222,"5854 OAK CREST CIRCLE, AMES, IA, 50010","Match","Exact","5854 OAK CREST CIR, AMES, IA, 50010",648141850,"L"
743223,"5854 RODMAN ST","PHILADELPHIA","PA",19143,39.9526284730001,-75.2397506849999,223,"5854 RODMAN ST, PHILADELPHIA, PA, 19143","Match","Exact","5854 RODMAN ST, PHILADELPHIA, PA, 19143",131397805,"L"
743224,"5854 ROSEHEATH RD","BAILEY","NC",27807,35.8557607440001,-78.103167065,224,"5854 ROSEHEATH RD, BAILEY, NC, 27807","Match","Exact","5854 ROSEHEATH RD, BAILEY, NC, 27807",90401030,"R"
743225,"5854 S OLEARIA PLACE","BOISE","ID",83716,43.549594932,-116.125159554,225,"5854 S OLEARIA PLACE, BOISE, ID, 83716","Match","Non_Exact","5854 S OLEARIA CT, BOISE, ID, 83716",117884129,"L"
743226,"5854 W KAYLEIGH LANE","LAKE CHARLES","LA",70605,30.1491106890001,-93.240145898,226,"5854 W KAYLEIGH LANE, LAKE CHARLES, LA, 70605","Match","Exact","5854 W KAYLEIGH LN, LAKE CHARLES, LA, 70605",600638963,"R"
743227,"5854 WOODCREST AVE","PHILADELPHIA","PA",19131,39.987686216,-75.2409585459999,227,"5854 WOODCREST AVE, PHILADELPHIA, PA, 19131","Match","Exact","5854 WOODCREST AVE, PHILADELPHIA, PA, 19131",131395986,"L"
743228,"58545 CR 21","GOSHEN","IN",46528,41.6411188110001,-85.850087827,228,"58545 CR 21, GOSHEN, IN, 46528","Match","Exact","58545 CO RD 21, GOSHEN, IN, 46528",604676039,"R"
743229,"58547 FAIRLANE DR","DOWAGIAC","MI",49047,NA,NA,229,"58547 FAIRLANE DR, DOWAGIAC, MI, 49047","No_Match",NA,NA,NA,NA
743230,"5855  197TH STREET","CHIPPEWA FALLS","WI",54729,44.9278193050001,-91.2743093139999,230,"5855  197TH STREET, CHIPPEWA FALLS, WI, 54729","Match","Exact","5855 197TH ST, CHIPPEWA FALLS, WI, 54729",78927543,"L"
743231,"5855 149TH ST W","APPLE VALLEY","MN",55124,44.7329903180001,-93.1840865199999,231,"5855 149TH ST W, APPLE VALLEY, MN, 55124","Match","Exact","5855 149TH ST W, APPLE VALLEY, MN, 55124",37907476,"L"
743232,"5855 200TH ST","SIBLEY","IA",51249,43.3600931070001,-95.632205582,232,"5855 200TH ST, SIBLEY, IA, 51249","Match","Exact","5855 200TH ST, SIBLEY, IA, 51249",30288675,"L"
743233,"5855 4TH ST APT 10","DETROIT","MI",48202,42.3612313190001,-83.076003224,233,"5855 4TH ST APT 10, DETROIT, MI, 48202","Match","Exact","5855 4TH ST, DETROIT, MI, 48202",95476179,"L"
743234,"5855 ARBOR HILLS WAY","THE COLONY","TX",75056,33.0551614570001,-96.847062657,234,"5855 ARBOR HILLS WAY, THE COLONY, TX, 75056","Match","Exact","5855 ARBOR HILLS WAY, THE COLONY, TX, 75056",218039751,"R"
743235,"5855 BALTIMORE AVE","COCOA","FL",32927,28.459709017,-80.829513139,235,"5855 BALTIMORE AVE, COCOA, FL, 32927","Match","Exact","5855 BALTIMORE AVE, COCOA, FL, 32927",93913800,"L"
743236,"5855 BAYONNE","HASLETT","MI",48840,42.7510577840001,-84.417145631,236,"5855 BAYONNE, HASLETT, MI, 48840","Match","Non_Exact","5855 BAYONNE AVE, HASLETT, MI, 48840",17505970,"L"
743237,"5855 BROOKFLOWER CIRCLE E","LAKE CHARLES","LA",70605,NA,NA,237,"5855 BROOKFLOWER CIRCLE E, LAKE CHARLES, LA, 70605","No_Match",NA,NA,NA,NA
743238,"5855 CALAIS LANE","ST PETERSBURG","FL",33714,27.8253609430001,-82.663517488,238,"5855 CALAIS LANE, ST PETERSBURG, FL, 33714","Match","Exact","5855 CALAIS LN, SAINT PETERSBURG, FL, 33714",629908251,"R"
743239,"5855 CARLTON WAY APT 8","LOS ANGLES","CA",90028,34.1004766830001,-118.31732473,239,"5855 CARLTON WAY APT 8, LOS ANGLES, CA, 90028","Match","Non_Exact","5855 CARLTON WAY, LOS ANGELES, CA, 90028",141597103,"R"
743240,"5855 DE GIVERVILLE AVE","SAINT LOUIS","MO",63112,38.6516427070001,-90.290418249,240,"5855 DE GIVERVILLE AVE, SAINT LOUIS, MO, 63112","Match","Exact","5855 DE GIVERVILLE AVE, SAINT LOUIS, MO, 63112",639791378,"R"
743241,"5855 DE GIVERVILLE AVE","ST. LOUIS","MO",63112,38.6516427070001,-90.290418249,241,"5855 DE GIVERVILLE AVE, ST. LOUIS, MO, 63112","Match","Exact","5855 DE GIVERVILLE AVE, SAINT LOUIS, MO, 63112",639791378,"R"
743242,"5855 DEBORAH DRIVE","NORTH RIDGEVILLE","OH",44039,41.4055722570001,-82.002615007,242,"5855 DEBORAH DRIVE, NORTH RIDGEVILLE, OH, 44039","Match","Exact","5855 DEBORAH DR, N RIDGEVILLE, OH, 44039",55419499,"R"
743243,"5855 DIX RD","COGGON","IA",52218,42.284820747,-91.6324865,243,"5855 DIX RD, COGGON, IA, 52218","Match","Exact","5855 DIX RD, COGGON, IA, 52218",17010986,"R"
743244,"5855 E NAPLES PLACE STE 216","LONG BEACH","CA",90803,NA,NA,244,"5855 E NAPLES PLACE STE 216, LONG BEACH, CA, 90803","No_Match",NA,NA,NA,NA
743245,"5855 FOSSIL RD NW","ALBUQUERQUE","NM",87114,35.1933882860001,-106.71020305,245,"5855 FOSSIL RD NW, ALBUQUERQUE, NM, 87114","Match","Exact","5855 FOSSIL RD NW, ALBUQUERQUE, NM, 87114",645000213,"L"
743246,"5855 GLADSTONE DR","COLORADO SPRINGS","CO",80906,38.744431864,-104.836441886,246,"5855 GLADSTONE DR, COLORADO SPRINGS, CO, 80906","Match","Non_Exact","5855 GLADSTONE ST, COLORADO SPRINGS, CO, 80906",105573061,"L"
743247,"5855 HAAHEO STREET","KAPAA","HI",96746,22.052232728,-159.370874648,247,"5855 HAAHEO STREET, KAPAA, HI, 96746","Match","Exact","5855 HAAHEO ST, KAPAA, HI, 96746",203405748,"R"
743248,"5855 HIGHWAY ZZ","GERALD","MO",63037,NA,NA,248,"5855 HIGHWAY ZZ, GERALD, MO, 63037","No_Match",NA,NA,NA,NA
743249,"5855 HOLLISTER AVE","GOLETA","CA",93117,34.4358711680001,-119.827905998,249,"5855 HOLLISTER AVE, GOLETA, CA, 93117","Match","Exact","5855 HOLLISTER AVE, GOLETA, CA, 93117",108670559,"L"
743250,"5855 HOLLISTER","GOLETA","CA",93117,34.4358711680001,-119.827905998,250,"5855 HOLLISTER, GOLETA, CA, 93117","Match","Non_Exact","5855 HOLLISTER AVE, GOLETA, CA, 93117",108670559,"L"
743251,"5855 HORTON ST UNIT 814","EMERYVILLE","CA",94608,37.8401199350001,-122.291220832,251,"5855 HORTON ST UNIT 814, EMERYVILLE, CA, 94608","Match","Exact","5855 HORTON ST, EMERYVILLE, CA, 94608",124994384,"L"
743252,"5855 JIMMY CARTER BLVD STE 200","NORCROSS","GA",30071,33.9225541650001,-84.21288922,252,"5855 JIMMY CARTER BLVD STE 200, NORCROSS, GA, 30071","Match","Exact","5855 JIMMY CARTER BLVD, NORCROSS, GA, 30071",88947936,"R"
743253,"5855 JIMMY CARTER BLVD SUITE 190","NORCROSS","GA",30071,33.9225541650001,-84.21288922,253,"5855 JIMMY CARTER BLVD SUITE 190, NORCROSS, GA, 30071","Match","Exact","5855 JIMMY CARTER BLVD, NORCROSS, GA, 30071",88947936,"R"
743254,"5855 LEXINGTON","LUMBERTON","TX",77657,30.2740279490001,-94.192809123,254,"5855 LEXINGTON, LUMBERTON, TX, 77657","Match","Non_Exact","5855 LEXINGTON CIR, LUMBERTON, TX, 77657",639990205,"L"
743255,"5855 LUND ST","JUNEAU","AK",99701,58.3594950510001,-134.49700253,255,"5855 LUND ST, JUNEAU, AK, 99701","Match","Non_Exact","5855 LUND ST, JUNEAU, AK, 99801",190963833,"R"
743256,"5855 LUND ST","JUNEAU","AK",99801,58.3594950510001,-134.49700253,256,"5855 LUND ST, JUNEAU, AK, 99801","Match","Exact","5855 LUND ST, JUNEAU, AK, 99801",190963833,"R"
743257,"5855 MEDLOCK BRIDGE PARKWAY SUITE 1","JOHNS CREEK","GA",30022,34.029289604,-84.188926696,257,"5855 MEDLOCK BRIDGE PARKWAY SUITE 1, JOHNS CREEK, GA, 30022","Match","Exact","5855 MEDLOCK BRIDGE PKWY, JOHNS CREEK, GA, 30022",17376584,"R"
743258,"5855 MONFORT HILLS AVE","CINCINNATI","OH",45239,39.2032134230001,-84.576247284,258,"5855 MONFORT HILLS AVE, CINCINNATI, OH, 45239","Match","Exact","5855 MONFORT HILLS AVE, CINCINNATI, OH, 45239",103920550,"L"
743259,"5855 MONFRONT HILLS AVE","CINCINNATI","OH",45239,NA,NA,259,"5855 MONFRONT HILLS AVE, CINCINNATI, OH, 45239","No_Match",NA,NA,NA,NA
743260,"5855 MONROE STREET","SYLVANIA","OH",43506,41.712618261,-83.682048607,260,"5855 MONROE STREET, SYLVANIA, OH, 43506","Match","Non_Exact","5855 MONROE ST, SYLVANIA, OH, 43560",33927857,"L"
743261,"5855 N 90TH ST","OMAHA","NE",68134,41.3125166780001,-96.0524943569999,261,"5855 N 90TH ST, OMAHA, NE, 68134","Match","Exact","5855 N 90TH ST, OMAHA, NE, 68134",636723637,"L"
743262,"5855 N SHERIDAN RD UNIT 13J","CHICAGO","IL",60660,41.988790463,-87.65533591,262,"5855 N SHERIDAN RD UNIT 13J, CHICAGO, IL, 60660","Match","Non_Exact","5855 N SHERIDAN RD, CHICAGO, IL, 60660",111889264,"R"
743263,"5855 N SHERIDAN ROAD  APT 16D","CHICAGO","IL",60660,41.988790463,-87.65533591,263,"5855 N SHERIDAN ROAD  APT 16D, CHICAGO, IL, 60660","Match","Non_Exact","5855 N SHERIDAN RD, CHICAGO, IL, 60660",111889264,"R"
743264,"5855 NE 43RD LANE ROAD","SILVER SPRINGS","FL",34488,29.232334571,-82.051760222,264,"5855 NE 43RD LANE ROAD, SILVER SPRINGS, FL, 34488","Match","Exact","5855 NE 43RD LANE RD, SILVER SPRINGS, FL, 34488",617696401,"L"
743265,"5855 NW 194TH STREET","MIAMI","FL",33015,25.949328698,-80.296935283,265,"5855 NW 194TH STREET, MIAMI, FL, 33015","Match","Non_Exact","5855 NW 194TH ST, MIAMI GARDENS, FL, 33015",116023098,"R"
743266,"5855 OLD OAK RIDGE RD","GREENSBORO","NC",27410,36.1090154130001,-79.9068647669999,266,"5855 OLD OAK RIDGE RD, GREENSBORO, NC, 27410","Match","Exact","5855 OLD OAK RIDGE RD, GREENSBORO, NC, 27410",131109550,"L"
743267,"5855 QUEEN ANNE CTO","DAYTON","OH",45424,39.8388112800001,-84.137061111,267,"5855 QUEEN ANNE CTO, DAYTON, OH, 45424","Match","Non_Exact","5855 QUEEN ANNE CT, DAYTON, OH, 45424",143573169,"L"
743268,"5855 ROSEHILL FOREST LN","PORTER","TX",77365,NA,NA,268,"5855 ROSEHILL FOREST LN, PORTER, TX, 77365","No_Match",NA,NA,NA,NA
743269,"5855 S QUARTERLINE RD APT 525","MUSKEGON","MI",49444,43.1460628820001,-86.1957518789999,269,"5855 S QUARTERLINE RD APT 525, MUSKEGON, MI, 49444","Match","Non_Exact","5855 S QUARTERLINE RD, MUSKEGON, MI, 49444",648227334,"R"
743270,"5855 SE AMITY ROAD","AMITY","OR",97101,45.114279174,-123.177442714,270,"5855 SE AMITY ROAD, AMITY, OR, 97101","Match","Exact","5855 SE AMITY RD, AMITY, OR, 97101",605473825,"R"
743271,"5855 SHECKLER RD","FALLON","NV",89406,39.459889564,-118.87310266,271,"5855 SHECKLER RD, FALLON, NV, 89406","Match","Exact","5855 SHECKLER RD, FALLON, NV, 89406",139959136,"L"
743272,"5855 SPRING CABIN","SAN ANTONIO","TX",78247,29.5772691700001,-98.381698656,272,"5855 SPRING CABIN, SAN ANTONIO, TX, 78247","Match","Exact","5855 SPRING CABIN, SAN ANTONIO, TX, 78247",101547291,"R"
743273,"5855 STATE ROUTE 734","JAMESTOWN","OH",45335,39.6569223120001,-83.714416568,273,"5855 STATE ROUTE 734, JAMESTOWN, OH, 45335","Match","Exact","5855 STATE RTE 734, JAMESTOWN, OH, 45335",143418168,"L"
743274,"5855 VALLEY DRIVE UNIT 1061","NORTH LAS VEGAS","NV",89031,36.2662572740001,-115.197965207,274,"5855 VALLEY DRIVE UNIT 1061, NORTH LAS VEGAS, NV, 89031","Match","Exact","5855 VALLEY DR, N LAS VEGAS, NV, 89031",641578535,"L"
743275,"5855 W TACKETT DRIVE","FAYETTEVILLE","AR",72704,36.0761055580001,-94.244504531,275,"5855 W TACKETT DRIVE, FAYETTEVILLE, AR, 72704","Match","Exact","5855 W TACKETT DR, FAYETTEVILLE, AR, 72704",49078870,"R"
743276,"5855 WALTER ST","RIVERSIDE","CA",92504,33.9550777270001,-117.430237648,276,"5855 WALTER ST, RIVERSIDE, CA, 92504","Match","Exact","5855 WALTER ST, RIVERSIDE, CA, 92504",194739119,"R"
743277,"5855 WHISPER WAY","ELKRIDGE","MD",21075,39.209820672,-76.734431235,277,"5855 WHISPER WAY, ELKRIDGE, MD, 21075","Match","Exact","5855 WHISPER WAY, ELKRIDGE, MD, 21075",618726274,"L"
743278,"5855 ZEIGLER BLVD","MOBILE","AL",36608,30.7092620490001,-88.1795720109999,278,"5855 ZEIGLER BLVD, MOBILE, AL, 36608","Match","Exact","5855 ZEIGLER BLVD, MOBILE, AL, 36608",61853679,"L"
743279,"5855","CHIPPEWA FALLS","WI",54729,NA,NA,279,"5855, CHIPPEWA FALLS, WI, 54729","No_Match",NA,NA,NA,NA
743280,"58550 WERDERMAN","LENOX","MI",48048,42.728430818,-82.842783953,280,"58550 WERDERMAN, LENOX, MI, 48048","Match","Non_Exact","58550 WERDERMAN RD, LENOX, MI, 48048",110697199,"R"
743281,"5856 ANDOVER WAY","TUCKER","GA",30084,33.8810364550001,-84.1744446929999,281,"5856 ANDOVER WAY, TUCKER, GA, 30084","Match","Non_Exact","5856 ANDOVER WAY NW, TUCKER, GA, 30084",88903265,"R"
743282,"5856 BELGRAVE AVE","GARDEN GROVE","CA",92845,33.785334467,-118.030581013,282,"5856 BELGRAVE AVE, GARDEN GROVE, CA, 92845","Match","Exact","5856 BELGRAVE AVE, GARDEN GROVE, CA, 92845",144003555,"R"
743283,"5856 BRIDGETOWN CT","BURKE","VA",22015,38.793040515,-77.301597995,283,"5856 BRIDGETOWN CT, BURKE, VA, 22015","Match","Exact","5856 BRIDGETOWN CT, BURKE, VA, 22015",76042556,"R"
743284,"5856 CUNEO RD","COULTERVILLE","CA",95311,37.7775248410001,-120.185133843,284,"5856 CUNEO RD, COULTERVILLE, CA, 95311","Match","Exact","5856 CUNEO RD, COULTERVILLE, CA, 95311",627047135,"R"
743285,"5856 DANDELION LANE","PENSACOLA","FL",32526,30.460012206,-87.326835371,285,"5856 DANDELION LANE, PENSACOLA, FL, 32526","Match","Exact","5856 DANDELION LN, PENSACOLA, FL, 32526",617456975,"R"
743286,"5856 DARLINGTON ROAD APT 1","PITTSBURGH","PA",15217,40.4370466830001,-79.920857271,286,"5856 DARLINGTON ROAD APT 1, PITTSBURGH, PA, 15217","Match","Exact","5856 DARLINGTON RD, PITTSBURGH, PA, 15217",51652151,"R"
743287,"5856 E TERCEL DR","TUCSON","AZ",85756,32.123764674,-110.86702523,287,"5856 E TERCEL DR, TUCSON, AZ, 85756","Match","Exact","5856 E TERCEL DR, TUCSON, AZ, 85756",606817173,"R"
743288,"5856 EASY STREET","WAUNAKEE","WI",53597,43.2064839920001,-89.444741204,288,"5856 EASY STREET, WAUNAKEE, WI, 53597","Match","Exact","5856 EASY ST, WAUNAKEE, WI, 53597",49559863,"L"
743289,"5856 GLENWAY AVENUE","CINCINNATI","OH",45238,39.1383759490001,-84.615634148,289,"5856 GLENWAY AVENUE, CINCINNATI, OH, 45238","Match","Exact","5856 GLENWAY AVE, CINCINNATI, OH, 45238",103970827,"R"
743290,"5856 HAVERFORD AVENUE","INDIANAPOLIS","ID",46220,NA,NA,290,"5856 HAVERFORD AVENUE, INDIANAPOLIS, ID, 46220","No_Match",NA,NA,NA,NA
743291,"5856 LORENZO DR","GRAND PRAIRIE","TX",75052,32.6289300820001,-97.057626504,291,"5856 LORENZO DR, GRAND PRAIRIE, TX, 75052","Match","Exact","5856 LORENZO DR, GRAND PRAIRIE, TX, 75052",648465998,"L"
743292,"5856 MERITO AVE","SAN BERNARDINO","CA",92404,34.1474358,-117.247138049,292,"5856 MERITO AVE, SAN BERNARDINO, CA, 92404","Match","Exact","5856 MERITO AVE, SAN BERNARDINO, CA, 92404",144660619,"R"
743293,"5856 N 62ND ST","MILWAUKEE","WI",53218,43.1240409010001,-87.988284116,293,"5856 N 62ND ST, MILWAUKEE, WI, 53218","Match","Exact","5856 N 62ND ST, MILWAUKEE, WI, 53218",77726259,"R"
743294,"5856 N 62ND","MILWAUKEE","WI",53218,NA,NA,294,"5856 N 62ND, MILWAUKEE, WI, 53218","No_Match",NA,NA,NA,NA
743295,"5856 N 6TH STREET","PHILADELPHIA","PA",19120,40.0408525610001,-75.131561807,295,"5856 N 6TH STREET, PHILADELPHIA, PA, 19120","Match","Non_Exact","5856 N 6TH ST, PHILADELPHIA, PA, 19120",131414273,"L"
743296,"5856 N ORCHARD CREEK CIRCLE","BOULDER","CO",80304,40.05785961,-105.217972421,296,"5856 N ORCHARD CREEK CIRCLE, BOULDER, CO, 80304","Match","Non_Exact","5856 N ORCHARD CREEK CIR, BOULDER, CO, 80301",220752107,"R"
743297,"5856 OLD OAK RIDGE ROAD APT 108","GREENSBORO","NC",27410,36.1083449830001,-79.9053789869999,297,"5856 OLD OAK RIDGE ROAD APT 108, GREENSBORO, NC, 27410","Match","Non_Exact","5856 OLD OAK RIDGE RD, GREENSBORO, NC, 27410",131109548,"R"
743298,"5856 PRINCETON DRIVE","PENSACOLA","FL",32526,30.4543848480001,-87.3331901289999,298,"5856 PRINCETON DRIVE, PENSACOLA, FL, 32526","Match","Exact","5856 PRINCETON DR, PENSACOLA, FL, 32526",93234357,"L"
743299,"5856 RUSHWOOD DRV","DUBLIN","OH",43017,40.1303266840001,-83.137144849,299,"5856 RUSHWOOD DRV, DUBLIN, OH, 43017","Match","Exact","5856 RUSHWOOD DR, DUBLIN, OH, 43017",649632869,"R"
743300,"5856 S CARRIE LANE","MIAMI","AZ",85539,33.406972022,-110.829137323,300,"5856 S CARRIE LANE, MIAMI, AZ, 85539","Match","Exact","5856 CARRIE LN, MIAMI, AZ, 85539",650860361,"L"
743301,"5856 SANDSTONE WAY","JACKSONVILLE","FL",32258,30.1358341170001,-81.54783386,301,"5856 SANDSTONE WAY, JACKSONVILLE, FL, 32258","Match","Exact","5856 SANDSTONE WAY, JACKSONVILLE, FL, 32258",627923216,"R"
743302,"5856 SETTLERS RIDGE CIRCLE","SYLVANIA","OH",43560,41.717917411,-83.756866617,302,"5856 SETTLERS RIDGE CIRCLE, SYLVANIA, OH, 43560","Match","Exact","5856 SETTLERS RIDGE CIR, SYLVANIA, OH, 43560",33963889,"R"
743303,"5856 SUNNYBROOK LANE","MINNETRISTA","MN",55364,44.950952499,-93.6723340789999,303,"5856 SUNNYBROOK LANE, MINNETRISTA, MN, 55364","Match","Exact","5856 SUNNYBROOK LN, MINNETRISTA, MN, 55364",43862478,"R"
743304,"5856 VALLEY FORGE DR","HOUSTON","TX",77057,29.753745393,-95.48496269,304,"5856 VALLEY FORGE DR, HOUSTON, TX, 77057","Match","Exact","5856 VALLEY FORGE DR, HOUSTON, TX, 77057",645141949,"R"
743305,"5856 WAYSIDE COURT","NEWBURGH","IN",47630,37.964617086,-87.355794503,305,"5856 WAYSIDE COURT, NEWBURGH, IN, 47630","Match","Exact","5856 WAYSIDE CT, NEWBURGH, IN, 47630",32219068,"L"
743306,"5856 WHITEWOOD CIR","HOOVER","AL",35244,33.339814355,-86.8882864129999,306,"5856 WHITEWOOD CIR, HOOVER, AL, 35244","Match","Exact","5856 WHITEWOOD CIR, HOOVER, AL, 35244",81708945,"L"
743307,"58560 CAMPERO","JOSHUA TREE","CA",92252,NA,NA,307,"58560 CAMPERO, JOSHUA TREE, CA, 92252","No_Match",NA,NA,NA,NA
743308,"58561 JETSON AVE","PLAQUEMINE","LA",70764,30.2710754940001,-91.235126825,308,"58561 JETSON AVE, PLAQUEMINE, LA, 70764","Match","Exact","58561 JETSON AVE, PLAQUEMINE, LA, 70764",85549216,"R"
743309,"5857 AVENIDA ENTRADA","PALMDALE","CA",93551,34.6272551260001,-118.235670752,309,"5857 AVENIDA ENTRADA, PALMDALE, CA, 93551","Match","Exact","5857 AVE ENTRADA, PALMDALE, CA, 93551",141846801,"R"
743310,"5857 BLUEGRASS TRAIL","COOPERSBURG","PA",18036,40.5007720890001,-75.4145071089999,310,"5857 BLUEGRASS TRAIL, COOPERSBURG, PA, 18036","Match","Non_Exact","5857 BLUE GRASS TRL, COOPERSBURG, PA, 18036",80786623,"R"
743311,"5857 BROOMES ISLAND RD","PORT REPUBLIC","MD",20676,38.4525576550001,-76.5602565469999,311,"5857 BROOMES ISLAND RD, PORT REPUBLIC, MD, 20676","Match","Exact","5857 BROOMES ISLAND RD, PORT REPUBLIC, MD, 20676",78169385,"L"
743312,"5857 BURNING TREE DR","EL PASO","TX",79912,31.8325645480001,-106.524257167,312,"5857 BURNING TREE DR, EL PASO, TX, 79912","Match","Exact","5857 BURNING TREE DR, EL PASO, TX, 79912",189336145,"R"
743313,"5857 CHESTNUT ST","PHILADELPHIA","PA",19139,39.960096306,-75.238226912,313,"5857 CHESTNUT ST, PHILADELPHIA, PA, 19139","Match","Exact","5857 CHESTNUT ST, PHILADELPHIA, PA, 19139",131397747,"R"
743314,"5857 CHESTNUT","PHILADELPHIA","PA",19139,39.960096306,-75.238226912,314,"5857 CHESTNUT, PHILADELPHIA, PA, 19139","Match","Non_Exact","5857 CHESTNUT ST, PHILADELPHIA, PA, 19139",131397747,"R"
743315,"5857 DANDELION LANE","PENSACOLA","FL",32526,30.4600018100001,-87.326839417,315,"5857 DANDELION LANE, PENSACOLA, FL, 32526","Match","Exact","5857 DANDELION LN, PENSACOLA, FL, 32526",617456975,"L"
743316,"5857 DEER STREET","MAPLE LAKE","MN",55362,45.2773199710001,-93.766873993,316,"5857 DEER STREET, MAPLE LAKE, MN, 55362","Match","Non_Exact","5857 DEER ST, MONTICELLO, MN, 55362",614645510,"R"
743317,"5857 E BONIWOOD TURN","CLINTON","MD",20735,38.7301830120001,-76.90806744,317,"5857 E BONIWOOD TURN, CLINTON, MD, 20735","Match","Exact","5857 E BONIWOOD TURN, CLINTON, MD, 20735",76352002,"R"
743318,"5857 E FLAMINGO RD","LAS VEGAS","NV",89122,36.114822723,-115.047294508,318,"5857 E FLAMINGO RD, LAS VEGAS, NV, 89122","Match","Exact","5857 E FLAMINGO RD, LAS VEGAS, NV, 89122",629121152,"R"
743319,"5857 ECHO WAY","INDIANAPOLIS","IN",46278,39.8714650680001,-86.263478444,319,"5857 ECHO WAY, INDIANAPOLIS, IN, 46278","Match","Exact","5857 ECHO WAY, INDIANAPOLIS, IN, 46278",107975877,"L"
743320,"5857 LEE MILLS RD","FOREST PARK","GA",30297,NA,NA,320,"5857 LEE MILLS RD, FOREST PARK, GA, 30297","No_Match",NA,NA,NA,NA
743321,"5857 LITTLE SANDY LOOP","NINE MILE FALLS","WA",99026,47.836136147,-117.600628009,321,"5857 LITTLE SANDY LOOP, NINE MILE FALLS, WA, 99026","Match","Non_Exact","5857 LITTLE SANDY LOOP RD, NINE MILE FALLS, WA, 99026",627759334,"L"
743322,"5857 N FAIRHILL ST","PHILADELPHIA","PA",19120,40.0406287110001,-75.130615635,322,"5857 N FAIRHILL ST, PHILADELPHIA, PA, 19120","Match","Exact","5857 N FAIRHILL ST, PHILADELPHIA, PA, 19120",131414280,"R"
743323,"5857 N KENMORE AVE FL 2","CHICAGO","IL",60660,41.988564351,-87.6567579539999,323,"5857 N KENMORE AVE FL 2, CHICAGO, IL, 60660","Match","Non_Exact","5857 N KENMORE AVE, CHICAGO, IL, 60660",111745879,"R"
743324,"5857 N KENMORE AVE","CHICAGO","IL",60660,41.988564351,-87.6567579539999,324,"5857 N KENMORE AVE, CHICAGO, IL, 60660","Match","Exact","5857 N KENMORE AVE, CHICAGO, IL, 60660",111745879,"R"
743325,"5857 NORTH ORCHARD CREEK CIRCLE","BOULDER","CO",80301,40.057872349,-105.218242733,325,"5857 NORTH ORCHARD CREEK CIRCLE, BOULDER, CO, 80301","Match","Exact","5857 N ORCHARD CREEK CIR, BOULDER, CO, 80301",220752107,"L"
743326,"5857 OBERLIN ROAD","AMHERST","OH",44001,41.41181908,-82.188093625,326,"5857 OBERLIN ROAD, AMHERST, OH, 44001","Match","Exact","5857 OBERLIN RD, AMHERST, OH, 44001",55405453,"L"
743327,"5857 OWENS AVE STE 300","CARLSBAD","CA",92008,33.121209026,-117.283243408,327,"5857 OWENS AVE STE 300, CARLSBAD, CA, 92008","Match","Exact","5857 OWENS AVE, CARLSBAD, CA, 92008",195449129,"R"
743328,"5857 S REED WAY APT 1724","LITTLETON","CO",80123,39.610955459,-105.074497103,328,"5857 S REED WAY APT 1724, LITTLETON, CO, 80123","Match","Non_Exact","5857 S REED WAY, LITTLETON, CO, 80123",177733863,"R"
743329,"5857 STOCKTON RD","PHILADELPHIA","PA",19138,40.0528968460001,-75.160645528,329,"5857 STOCKTON RD, PHILADELPHIA, PA, 19138","Match","Exact","5857 STOCKTON RD, PHILADELPHIA, PA, 19138",131395701,"R"
743330,"5857 WEST M76","WEST BRANCH","MI",48661,44.283841807,-84.363208145,330,"5857 WEST M76, WEST BRANCH, MI, 48661","Match","Non_Exact","5857 W M 76, WEST BRANCH, MI, 48661",624282281,"L"
743331,"5857 WILLIS AVE","VAN NUYS","CA",91411,34.1767591990001,-118.455259848,331,"5857 WILLIS AVE, VAN NUYS, CA, 91411","Match","Exact","5857 WILLIS AVE, VAN NUYS, CA, 91411",141560365,"L"
743332,"58575 JACOBS ROAD","CENTREVILLE","MI",49032,41.9481537790001,-85.5473343049999,332,"58575 JACOBS ROAD, CENTREVILLE, MI, 49032","Match","Exact","58575 JACOBS RD, CENTREVILLE, MI, 49032",15313742,"R"
743333,"5858 2ND AVE","LOS ANGELES","CA",90043,33.9880490940001,-118.319598451,333,"5858 2ND AVE, LOS ANGELES, CA, 90043","Match","Exact","5858 2ND AVE, LOS ANGELES, CA, 90043",141657867,"L"
743334,"5858 ASTER MEADOWS PL","SAN DIEGO","CA",92130,32.9644629960001,-117.194048449,334,"5858 ASTER MEADOWS PL, SAN DIEGO, CA, 92130","Match","Exact","5858 ASTER MEADOWS PL, SAN DIEGO, CA, 92130",642191653,"L"
743335,"5858 CHEROKEE DRIVE","BARGERSVILLE","IN",46106,39.5592178140001,-86.1634359449999,335,"5858 CHEROKEE DRIVE, BARGERSVILLE, IN, 46106","Match","Exact","5858 CHEROKEE DR, BARGERSVILLE, IN, 46106",629793370,"L"
743336,"5858 CIUDAD LEON CT","SAN DIEGO","CA",92120,32.783729808,-117.051088843,336,"5858 CIUDAD LEON CT, SAN DIEGO, CA, 92120","Match","Exact","5858 CIUDAD LEON CT, SAN DIEGO, CA, 92120",195323684,"L"
743337,"5858 CLUB VIEW DRIVE","JACKSON","MS",39211,32.379175505,-90.122727218,337,"5858 CLUB VIEW DRIVE, JACKSON, MS, 39211","Match","Non_Exact","5858 CLUBVIEW DR, JACKSON, MS, 39211",65361532,"R"
743338,"5858 CONTE DR","LOTHIAN","MD",20711,38.797198543,-76.6409994319999,338,"5858 CONTE DR, LOTHIAN, MD, 20711","Match","Exact","5858 CONTE DR, LOTHIAN, MD, 20711",68191170,"R"
743339,"5858 DENVER AVENUE","LOS ANGELES","CA",90044,33.9881129830001,-118.283794394,339,"5858 DENVER AVENUE, LOS ANGELES, CA, 90044","Match","Exact","5858 DENVER AVE, LOS ANGELES, CA, 90044",141659553,"L"
743340,"5858 MORGAN PL","STOCKTON","CA",95219,37.99798875,-121.351688534,340,"5858 MORGAN PL, STOCKTON, CA, 95219","Match","Exact","5858 MORGAN PL, STOCKTON, CA, 95219",653160331,"L"
743341,"5858 N DRAKE AVE","CHICAGO","IL",60659,41.9876638430001,-87.717566507,341,"5858 N DRAKE AVE, CHICAGO, IL, 60659","Match","Exact","5858 N DRAKE AVE, CHICAGO, IL, 60659",111742517,"L"
743342,"5858 PINTAIL WAY","FREDERICK","CO",80504,40.1361396840001,-104.943445246,342,"5858 PINTAIL WAY, FREDERICK, CO, 80504","Match","Exact","5858 PINTAIL WAY, FREDERICK, CO, 80504",188729411,"L"
743343,"5858 REX RIDGE PKWY","REX","GA",30273,33.5921079120001,-84.287036281,343,"5858 REX RIDGE PKWY, REX, GA, 30273","Match","Exact","5858 REX RIDGE PKWY, REX, GA, 30273",628059122,"R"
743344,"5858 RICHVILLE DR SW","NAVARRE","OH",44662,40.747902776,-81.465811386,344,"5858 RICHVILLE DR SW, NAVARRE, OH, 44662","Match","Exact","5858 RICHVILLE DR SW, NAVARRE, OH, 44662",64686460,"L"
743345,"5858 SAN CLEMENTE LANE APTC","INDIANAPOLIS","IN",46226,39.8615392820001,-86.051566999,345,"5858 SAN CLEMENTE LANE APTC, INDIANAPOLIS, IN, 46226","Match","Exact","5858 SAN CLEMENTE LN, INDIANAPOLIS, IN, 46226",107997257,"L"
743346,"5858 SINGING HILL ROAD","LIVERMORE","CA",94550,NA,NA,346,"5858 SINGING HILL ROAD, LIVERMORE, CA, 94550","No_Match",NA,NA,NA,NA
743347,"5858 SOUTHMINSTER DR","HOUSTON","TX",77035,29.639248148,-95.490778091,347,"5858 SOUTHMINSTER DR, HOUSTON, TX, 77035","Match","Exact","5858 SOUTHMINSTER DR, HOUSTON, TX, 77035",96038751,"R"
743348,"5858 THUNDER HILL RD B-2","COLUMBIA","MD",21044,39.2099358290001,-76.843115677,348,"5858 THUNDER HILL RD B-2, COLUMBIA, MD, 21044","Match","Non_Exact","5858 THUNDER HILL RD, COLUMBIA, MD, 21045",158947108,"R"
743349,"5858 UPPER LAKE DRIVE","HUMBLE","TX",77346,NA,NA,349,"5858 UPPER LAKE DRIVE, HUMBLE, TX, 77346","No_Match",NA,NA,NA,NA
743350,"5858 W 72ND","FREMONT","MI",49412,43.423884458,-85.9467147509999,350,"5858 W 72ND, FREMONT, MI, 49412","Match","Non_Exact","5858 W 72ND ST, FREMONT, MI, 49412",150218842,"L"
743351,"58585 OAK GROVE RD","CALIFORNIA","MO",65018,38.7064811280001,-92.530718959,351,"58585 OAK GROVE RD, CALIFORNIA, MO, 65018","Match","Exact","58585 OAK GROVE RD, CALIFORNIA, MO, 65018",34470709,"L"
743352,"5859 ARGONNE BLVD","NEW ORLEANS","LA",70124,29.9961617610001,-90.103672505,352,"5859 ARGONNE BLVD, NEW ORLEANS, LA, 70124","Match","Exact","5859 ARGONNE BLVD, NEW ORLEANS, LA, 70124",191705845,"R"
743353,"5859 COLLINS DRIVE","HELENA","MT",59602,46.7188360740001,-111.978441339,353,"5859 COLLINS DRIVE, HELENA, MT, 59602","Match","Exact","5859 COLLINS DR, HELENA, MT, 59602",202385839,"R"
743354,"5859 DOVER RD","APPLE CREEK","OH",44606,40.7566454500001,-81.8633387739999,354,"5859 DOVER RD, APPLE CREEK, OH, 44606","Match","Exact","5859 DOVER RD, APPLE CREEK, OH, 44606",58725030,"R"
743355,"5859 E SENOUR DR","WEST CHESTER","OH",45069,39.3623956540001,-84.428138841,355,"5859 E SENOUR DR, WEST CHESTER, OH, 45069","Match","Exact","5859 E SENOUR DR, WEST CHESTER, OH, 45069",113810565,"R"
743356,"5859 EDGEHILL DRIVE","ALEXANDRIA","VA",22303,38.791249651,-77.080900578,356,"5859 EDGEHILL DRIVE, ALEXANDRIA, VA, 22303","Match","Exact","5859 EDGEHILL DR, ALEXANDRIA, VA, 22303",75989363,"L"
743357,"5859 ETTERSBERG DRIVE","SAN JOSE","CA",95123,37.245190048,-121.812663162,357,"5859 ETTERSBERG DRIVE, SAN JOSE, CA, 95123","Match","Exact","5859 ETTERSBERG DR, SAN JOSE, CA, 95123",122925521,"R"
743358,"5859 FOXGLOVE LN","DALLAS","TX",75249,32.6543153150001,-96.970134817,358,"5859 FOXGLOVE LN, DALLAS, TX, 75249","Match","Exact","5859 FOXGLOVE LN, DALLAS, TX, 75249",619140314,"R"
743359,"5859 HAYES MILL RD","BASKERVILLE","VA",23915,36.7450503590001,-78.2888773,359,"5859 HAYES MILL RD, BASKERVILLE, VA, 23915","Match","Exact","5859 HAYES MILL RD, BASKERVILLE, VA, 23915",54323273,"L"
743360,"5859 HUNTERS CREEK ROAD","SOUTH WALES","NY",14139,42.727577302,-78.5314683679999,360,"5859 HUNTERS CREEK ROAD, SOUTH WALES, NY, 14139","Match","Exact","5859 HUNTERS CREEK RD, SOUTH WALES, NY, 14139",48321833,"R"
743361,"5859 LAKE POINT DRIVE","ARLINGTON","TX",76016,32.7089412300001,-97.197757933,361,"5859 LAKE POINT DRIVE, ARLINGTON, TX, 76016","Match","Exact","5859 LAKE POINT DR, ARLINGTON, TX, 76016",636761834,"R"
743362,"5859 LANDAU DRIVE","SOUTHAVEN","MS",38671,34.9461122120001,-89.974731251,362,"5859 LANDAU DRIVE, SOUTHAVEN, MS, 38671","Match","Exact","5859 LANDAU DR, SOUTHAVEN, MS, 38671",632594090,"L"
743363,"5859 MURFIELD DR","ROCHESTER HILLS","MI",48306,42.7128076320001,-83.193470846,363,"5859 MURFIELD DR, ROCHESTER HILLS, MI, 48306","Match","Exact","5859 MURFIELD DR, ROCHESTER HILLS, MI, 48306",69757773,"R"
743364,"5859 N 6TH ST","PHILADELPHIA","PA",19120,40.0408833610001,-75.131540709,364,"5859 N 6TH ST, PHILADELPHIA, PA, 19120","Match","Exact","5859 N 6TH ST, PHILADELPHIA, PA, 19120",131414273,"R"
743365,"5859 NATUREVIEW LN","DUBLIN","OH",43017,40.074391271,-83.098101743,365,"5859 NATUREVIEW LN, DUBLIN, OH, 43017","Match","Exact","5859 NATUREVIEW LN, DUBLIN, OH, 43017",218686024,"R"
743366,"5859 NORTH 92ND STREET","MILWAUKEE","WI",53225,43.1239698790001,-88.027040827,366,"5859 NORTH 92ND STREET, MILWAUKEE, WI, 53225","Match","Exact","5859 N 92ND ST, MILWAUKEE, WI, 53225",77724904,"L"
743367,"5859 NORTH MAIN STREET","ROCK HALL","MD",21661,39.1398498040001,-76.2351086529999,367,"5859 NORTH MAIN STREET, ROCK HALL, MD, 21661","Match","Exact","5859 N MAIN ST, ROCK HALL, MD, 21661",614247754,"R"
743368,"5859 OLD SELMA ROAD","MONTGOMERY","AL",36108,32.350939322,-86.439571036,368,"5859 OLD SELMA ROAD, MONTGOMERY, AL, 36108","Match","Exact","5859 OLD SELMA RD, MONTGOMERY, AL, 36108",1466804,"R"
743369,"5859 POINTE WEST DR","WINNECONNE","WI",54986,44.104703224,-88.6627489209999,369,"5859 POINTE WEST DR, WINNECONNE, WI, 54986","Match","Exact","5859 POINTE WEST DR, WINNECONNE, WI, 54986",74510410,"R"
743370,"5859 PRESCOTT RD","BATON ROUGE","LA",70805,30.487917914,-91.131871181,370,"5859 PRESCOTT RD, BATON ROUGE, LA, 70805","Match","Exact","5859 PRESCOTT RD, BATON ROUGE, LA, 70805",92188575,"L"
743371,"5859 RANCH VIEW RD","OCEANSIDE","CA",92057,33.252953629,-117.252487185,371,"5859 RANCH VIEW RD, OCEANSIDE, CA, 92057","Match","Exact","5859 RANCH VIEW RD, OCEANSIDE, CA, 92057",195750647,"R"
743372,"5859 S WRIGHT STR","KINGSVILLE","OH",44048,41.885853765,-80.6804032759999,372,"5859 S WRIGHT STR, KINGSVILLE, OH, 44048","Match","Exact","5859 S WRIGHT ST, KINGSVILLE, OH, 44048",117309251,"L"
743373,"5859 SE 92ND AVE","PORTLAND","OR",97266,45.4802052640001,-122.56860459,373,"5859 SE 92ND AVE, PORTLAND, OR, 97266","Match","Exact","5859 SE 92ND AVE, PORTLAND, OR, 97266",157520649,"R"
743374,"5859 STATE ROUTE 414","HECTOR","NY",14841,42.5171237390001,-76.8741143839999,374,"5859 STATE ROUTE 414, HECTOR, NY, 14841","Match","Exact","5859 STATE RTE 414, HECTOR, NY, 14841",18189542,"L"
743375,"5859 SUMMIT BRIDGE RD","TOWNSEND","DE",19734,39.404917815,-75.692507796,375,"5859 SUMMIT BRIDGE RD, TOWNSEND, DE, 19734","Match","Exact","5859 SUMMIT BRIDGE RD, TOWNSEND, DE, 19734",634427176,"R"
743376,"5859 W COCHISE DRIVE","GLENDALE","AZ",85302,33.5803251250001,-112.18489549,376,"5859 W COCHISE DRIVE, GLENDALE, AZ, 85302","Match","Exact","5859 W COCHISE DR, GLENDALE, AZ, 85302",128417804,"R"
743377,"5859 WACCAMAW SCHOOL ROAD","ASH","NC",28420,34.0656547990001,-78.5155667339999,377,"5859 WACCAMAW SCHOOL ROAD, ASH, NC, 28420","Match","Non_Exact","5859 WACCAMAW SCHOOL RD NW, ASH, NC, 28420",153129463,"R"
743378,"5859 WALL ST","LOS ANGELES","CA",90003,33.9879162840001,-118.271812274,378,"5859 WALL ST, LOS ANGELES, CA, 90003","Match","Exact","5859 WALL ST, LOS ANGELES, CA, 90003",141670303,"R"
743379,"5859","BATON ROUGE","LA",70805,NA,NA,379,"5859, BATON ROUGE, LA, 70805","No_Match",NA,NA,NA,NA
743380,"586 22ND AVE","SAN FRANCISICO","CA",94121,37.7767908710001,-122.481264112,380,"586 22ND AVE, SAN FRANCISICO, CA, 94121","Match","Non_Exact","586 22ND AVE, SAN FRANCISCO, CA, 94121",192277486,"L"
743381,"586 AZTEC DRIVE","CAROL STREAM","IL",60188,41.9172722440001,-88.139250913,381,"586 AZTEC DRIVE, CAROL STREAM, IL, 60188","Match","Exact","586 AZTEC DR, CAROL STREAM, IL, 60188",112577127,"L"
743382,"586 BAYONA LOOP","CHULA VISTA","CA",91910,32.647852061,-117.01740982,382,"586 BAYONA LOOP, CHULA VISTA, CA, 91910","Match","Exact","586 BAYONA LOOP, CHULA VISTA, CA, 91910",195388778,"L"
743383,"586 BENCH LEG RD","MINERAL BLUFF","GA",30559,34.898350495,-84.283110202,383,"586 BENCH LEG RD, MINERAL BLUFF, GA, 30559","Match","Exact","586 BENCH LEG RD, MINERAL BLUFF, GA, 30559",648089982,"L"
743384,"586 BLYTHWOOD CT","GREENSBORO","NC",27405,36.150641997,-79.788510942,384,"586 BLYTHWOOD CT, GREENSBORO, NC, 27405","Match","Non_Exact","586 BLYTHEWOOD CT, GREENSBORO, NC, 27455",131071522,"L"
743385,"586 BONANZA TRAIL SUITE C","BIG BEAR LAKE","CA",92315,34.2420163190001,-116.915899902,385,"586 BONANZA TRAIL SUITE C, BIG BEAR LAKE, CA, 92315","Match","Exact","586 BONANZA TRL, BIG BEAR LAKE, CA, 92315",144611412,"L"
743386,"586 BONITO AVE","KEY LARGO","FL",33037,25.139236608,-80.396580902,386,"586 BONITO AVE, KEY LARGO, FL, 33037","Match","Exact","586 BONITO AVE, KEY LARGO, FL, 33037",116463951,"R"
743387,"586 BRAINARD CIRCLE","LAFAYETTE","CO",80026,40.005584673,-105.115470596,387,"586 BRAINARD CIRCLE, LAFAYETTE, CO, 80026","Match","Exact","586 BRAINARD CIR, LAFAYETTE, CO, 80026",220750136,"L"
743388,"586 BRANTLEY TERRACE WAY APT 103","ALTAMONTE SPRINGS","FL",32714,28.6516827070001,-81.4262937359999,388,"586 BRANTLEY TERRACE WAY APT 103, ALTAMONTE SPRINGS, FL, 32714","Match","Exact","586 BRANTLEY TERRACE WAY, ALTAMONTE SPRINGS, FL, 32714",645811010,"R"
743389,"586 BRIDGETON ROAD","WESTON","FL",33326,26.1147587200001,-80.387507645,389,"586 BRIDGETON ROAD, WESTON, FL, 33326","Match","Exact","586 BRIDGETON RD, WESTON, FL, 33326",114775536,"L"
743390,"586 BRISTOL COURT","CLARKSVILLE","TN",37043,36.564482459,-87.283169382,390,"586 BRISTOL COURT, CLARKSVILLE, TN, 37043","Match","Exact","586 BRISTOL CT, CLARKSVILLE, TN, 37043",31827287,"L"
743391,"586 CANYON DRIVE","SEDONA","AZ",86336,34.851502397,-111.760607523,391,"586 CANYON DRIVE, SEDONA, AZ, 86336","Match","Exact","586 CANYON DR, SEDONA, AZ, 86336",188949261,"R"
743392,"586 CAVITO DRIVE SW","ATLANTA","GA",30311,NA,NA,392,"586 CAVITO DRIVE SW, ATLANTA, GA, 30311","No_Match",NA,NA,NA,NA
743393,"586 CHELTENHAM AVENUE SE","PALM BAY","FL",32909,27.9850124280001,-80.646578934,393,"586 CHELTENHAM AVENUE SE, PALM BAY, FL, 32909","Match","Exact","586 CHELTENHAM AVE SE, PALM BAY, FL, 32909",93954243,"R"
743394,"586 COVE CT","OAKLAND","CA",94578,37.6918807340001,-122.136123418,394,"586 COVE CT, OAKLAND, CA, 94578","Match","Non_Exact","586 COVE CT, SAN LEANDRO, CA, 94578",125041562,"L"
743395,"586 CROSBY LANE","COLUMBUS","MS",39701,33.473621602,-88.560430417,395,"586 CROSBY LANE, COLUMBUS, MS, 39701","Match","Exact","586 CROSBY LN, COLUMBUS, MS, 39701",756142,"L"
743396,"586 DEAN ST","BROOKLYN","NY",11238,40.680723013,-73.9705321279999,396,"586 DEAN ST, BROOKLYN, NY, 11238","Match","Exact","586 DEAN ST, BROOKLYN, NY, 11238",59077741,"R"
743397,"586 DEAN STREET APT 1","BROOKLYN","NY",11238,40.680723013,-73.9705321279999,397,"586 DEAN STREET APT 1, BROOKLYN, NY, 11238","Match","Exact","586 DEAN ST, BROOKLYN, NY, 11238",59077741,"R"
743398,"586 DEGUIGNE DRIVE","SUNNYVALE","CA",94085,NA,NA,398,"586 DEGUIGNE DRIVE, SUNNYVALE, CA, 94085","No_Match",NA,NA,NA,NA
743399,"586 DELLWOOD DRIVE","NEWPORT NEWS","VA",23602,37.1017721970001,-76.540005182,399,"586 DELLWOOD DRIVE, NEWPORT NEWS, VA, 23602","Match","Exact","586 DELLWOOD DR, NEWPORT NEWS, VA, 23602",103751336,"R"
743400,"586 E 113TH STREET","JENKS","OK",74037,35.99986763,-95.9635068269999,400,"586 E 113TH STREET, JENKS, OK, 74037","Match","Exact","586 E 113TH ST, JENKS, OK, 74037",166479435,"R"
743401,"586 E 187 ST 3","BRONX","NY",10458,40.855742053,-73.887925158,401,"586 E 187 ST 3, BRONX, NY, 10458","Match","Non_Exact","586 E 187TH ST, BRONX, NY, 10458",80301458,"R"
743402,"586 E 87TH STREET","BROOKLYN","NY",11236,40.6423175080001,-73.9120734479999,402,"586 E 87TH STREET, BROOKLYN, NY, 11236","Match","Exact","586 E 87TH ST, BROOKLYN, NY, 11236",59086331,"R"
743403,"586 EAGLES CROSSING PL","LAKE MARY","FL",32746,28.7393688810001,-81.329236103,403,"586 EAGLES CROSSING PL, LAKE MARY, FL, 32746","Match","Exact","586 EAGLES CROSSING PL, LAKE MARY, FL, 32746",93779582,"R"
743404,"586 EAST 9TH AVENUE","PROVO","UT",84604,NA,NA,404,"586 EAST 9TH AVENUE, PROVO, UT, 84604","No_Match",NA,NA,NA,NA
743405,"586 EAST 9TH AVENUE","SALT LAKE CITY","UT",84103,40.779626078,-111.871986622,405,"586 EAST 9TH AVENUE, SALT LAKE CITY, UT, 84103","Match","Exact","586 E 9TH AVE, SALT LAKE CITY, UT, 84103",176067862,"R"
743406,"586 EAST FLORIDA AVE","YOUNGSTOWN","OH",44512,41.070265809,-80.644711854,406,"586 EAST FLORIDA AVE, YOUNGSTOWN, OH, 44512","Match","Non_Exact","586 E FLORIDA AVE, YOUNGSTOWN, OH, 44502",64596381,"L"
743407,"586 EAST OVERLOOK MTN RD","BUDA","TX",78610,30.115256136,-97.8936682409999,407,"586 EAST OVERLOOK MTN RD, BUDA, TX, 78610","Match","Exact","586 E OVERLOOK MOUNTAIN RD, BUDA, TX, 78610",63847750,"L"
743408,"586 EASY STREET","MERRITT ISLAND","FL",32953,28.3845093680001,-80.7102030249999,408,"586 EASY STREET, MERRITT ISLAND, FL, 32953","Match","Exact","586 EASY ST, MERRITT ISLAND, FL, 32953",93893245,"R"
743409,"586 EMPIRE ST","HAYTI","MO",63851,36.2281735350001,-89.766222582,409,"586 EMPIRE ST, HAYTI, MO, 63851","Match","Exact","586 EMPIRE ST, HAYTI, MO, 63851",38897767,"L"
743410,"586 FM 547","FARMERSVILLE","TX",75442,33.1458860270001,-96.331443255,410,"586 FM 547, FARMERSVILLE, TX, 75442","Match","Exact","586 FM 547, FARMERSVILLE, TX, 75442",123499921,"R"
743411,"586 FOREST OAKS RD","MONROE","LA",71202,32.4143306350001,-92.061388006,411,"586 FOREST OAKS RD, MONROE, LA, 71202","Match","Exact","586 FOREST OAKS RD, MONROE, LA, 71202",612383771,"R"
743412,"586 FOREST OAKS ROAD","MONROE","LA",71202,32.4143306350001,-92.061388006,412,"586 FOREST OAKS ROAD, MONROE, LA, 71202","Match","Exact","586 FOREST OAKS RD, MONROE, LA, 71202",612383771,"R"
743413,"586 FOREST VIEW DRI","STEAMBOAT SPRINGS","CO",80487,40.475593105,-106.800040994,413,"586 FOREST VIEW DRI, STEAMBOAT SPRINGS, CO, 80487","Match","Non_Exact","586 FOREST VIEW DR, STEAMBOAT SPRINGS, CO, 80487",608256067,"R"
743414,"586 FORMWALT STREET","ATLANTA","GA",30312,33.7386901130001,-84.395784796,414,"586 FORMWALT STREET, ATLANTA, GA, 30312","Match","Non_Exact","586 FORMWALT ST SW, ATLANTA, GA, 30312",17346076,"L"
743415,"586 FORTRESS BLVD","MURFREES BORO","TN",37128,35.855070933,-86.467593768,415,"586 FORTRESS BLVD, MURFREES BORO, TN, 37128","Match","Non_Exact","586 FORTRESS BLVD, MURFREESBORO, TN, 37128",628006276,"R"
743416,"586 FORTRESS BLVD","MURFREESBORO","TN",37128,35.855070933,-86.467593768,416,"586 FORTRESS BLVD, MURFREESBORO, TN, 37128","Match","Exact","586 FORTRESS BLVD, MURFREESBORO, TN, 37128",628006276,"R"
743417,"586 GLENGARRY CT","EARLYSVILLE","VA",22936,38.140158172,-78.4794816199999,417,"586 GLENGARRY CT, EARLYSVILLE, VA, 22936","Match","Exact","586 GLENGARRY CT, EARLYSVILLE, VA, 22936",83380525,"R"
743418,"586 GRANGE COURT","DEKALB","IL",60115,41.9240784400001,-88.785665947,418,"586 GRANGE COURT, DEKALB, IL, 60115","Match","Exact","586 GRANGE CT, DEKALB, IL, 60115",52278390,"L"
743419,"586 GRANT 53","SHERIDAN","AR",72150,34.442165372,-92.35682796,419,"586 GRANT 53, SHERIDAN, AR, 72150","Match","Exact","586 GRANT 53, SHERIDAN, AR, 72150",648299493,"R"
743420,"586 GROTH DR","SAN JOSE","CA",95111,37.2907087300001,-121.832034044,420,"586 GROTH DR, SAN JOSE, CA, 95111","Match","Exact","586 GROTH DR, SAN JOSE, CA, 95111",122973586,"R"
743421,"586 GROVES RD","CANVAS","WV",26662,38.2507765020001,-80.77886347,421,"586 GROVES RD, CANVAS, WV, 26662","Match","Exact","586 GROVES RD, CANVAS, WV, 26662",50060263,"L"
743422,"586 HAWKSBURRY LANE","CHARLESTON","WV",25302,NA,NA,422,"586 HAWKSBURRY LANE, CHARLESTON, WV, 25302","No_Match",NA,NA,NA,NA
743423,"586 HIGHWAY 82","FITZPATRICK","AL",36029,NA,NA,423,"586 HIGHWAY 82, FITZPATRICK, AL, 36029","No_Match",NA,NA,NA,NA
743424,"586 HWY 35 NORTH","DERMOTT","AR",71638,NA,NA,424,"586 HWY 35 NORTH, DERMOTT, AR, 71638","No_Match",NA,NA,NA,NA
743425,"586 INDIAN DRIVE","AUBURN","PA",17922,40.582858066,-76.2007658319999,425,"586 INDIAN DRIVE, AUBURN, PA, 17922","Match","Exact","586 INDIAN DR, AUBURN, PA, 17922",70953851,"R"
743426,"586 IRVING PL","BALDWIN","NY",11510,40.6652021900001,-73.6155156259999,426,"586 IRVING PL, BALDWIN, NY, 11510","Match","Exact","586 IRVING PL, BALDWIN, NY, 11510",147629768,"R"
743427,"586 KENNEDY CT","MIDDLETON","ID",83644,43.7134006950001,-116.616341438,427,"586 KENNEDY CT, MIDDLETON, ID, 83644","Match","Exact","586 KENNEDY CT, MIDDLETON, ID, 83644",619907549,"L"
743428,"586 KIRBY LANE","GRAND JUNCTION","CO",81504,39.0897394240001,-108.487880233,428,"586 KIRBY LANE, GRAND JUNCTION, CO, 81504","Match","Exact","586 KIRBY LN, GRAND JCT, CO, 81504",122455674,"R"
743429,"586 LARAMIE RD","WESTVILLE","IN",46391,41.542066999,-86.9527702789999,429,"586 LARAMIE RD, WESTVILLE, IN, 46391","Match","Exact","586 LARAMIE RD, WESTVILLE, IN, 46391",119924366,"L"
743430,"586 LIGHTHOUSE CT","WESTERVILLE","OH",43082,40.141284678,-82.8942935749999,430,"586 LIGHTHOUSE CT, WESTERVILLE, OH, 43082","Match","Exact","586 LIGHTHOUSE CT, WESTERVILLE, OH, 43082",24591400,"R"
743431,"586 LONGVIEW DRIVE","LEXINGTON","KY",40503,38.0203735950001,-84.53335967,431,"586 LONGVIEW DRIVE, LEXINGTON, KY, 40503","Match","Exact","586 LONGVIEW DR, LEXINGTON, KY, 40503",31920065,"L"
743432,"586 LOVELY ST","AVON","CT",6001,41.7758530410001,-72.890374794,432,"586 LOVELY ST, AVON, CT, 6001","Match","Exact","586 LOVELY ST, AVON, CT, 06001",3531336,"L"
743433,"586 LYNN VALLEY RD SW","ATLANTA","GA",30311,33.7379197860001,-84.482201849,433,"586 LYNN VALLEY RD SW, ATLANTA, GA, 30311","Match","Exact","586 LYNN VALLEY RD SW, ATLANTA, GA, 30311",17401301,"L"
743434,"586 MACON ST","BROOKLYN","NY",11233,40.683647185,-73.927288474,434,"586 MACON ST, BROOKLYN, NY, 11233","Match","Exact","586 MACON ST, BROOKLYN, NY, 11233",59082797,"R"
743435,"586 MAIN ST","LAYTON","UT",84041,41.068399814,-111.974255117,435,"586 MAIN ST, LAYTON, UT, 84041","Match","Non_Exact","586 N MAIN ST, LAYTON, UT, 84041",155319201,"R"
743436,"586 MANHATTAN AVENUE STE 3R","BROOKLYN","NY",11222,40.7228853780001,-73.950262535,436,"586 MANHATTAN AVENUE STE 3R, BROOKLYN, NY, 11222","Match","Exact","586 MANHATTAN AVE, BROOKLYN, NY, 11222",59076496,"R"
743437,"586 MCPHERSON CIRCLE","SAGAMORE HILLS","OH",44067,41.3421830880001,-81.54819301,437,"586 MCPHERSON CIRCLE, SAGAMORE HILLS, OH, 44067","Match","Exact","586 MCPHERSON CIR, SAGAMORE HILLS, OH, 44067",61388443,"L"
743438,"586 MILFORD AVE","YUBA CITY","CA",95991,NA,NA,438,"586 MILFORD AVE, YUBA CITY, CA, 95991","No_Match",NA,NA,NA,NA
743439,"586 MIRAWOOD TRAIL NE","CONCORD","NC",28025,35.4302935530001,-80.586460744,439,"586 MIRAWOOD TRAIL NE, CONCORD, NC, 28025","Match","Exact","586 MIRAWOOD TRL NE, CONCORD, NC, 28025",24915836,"L"
743440,"586 MORGAN COMMON","LIVERPOOL","CA",94551,37.688539635,-121.767380757,440,"586 MORGAN COMMON, LIVERPOOL, CA, 94551","Match","Non_Exact","586 MORGAN CMN, LIVERMORE, CA, 94551",125042970,"L"
743441,"586 N GOLD DR L26","APACHE JUNCTION","AZ",85120,NA,NA,441,"586 N GOLD DR L26, APACHE JUNCTION, AZ, 85120","Tie",NA,NA,NA,NA
743442,"586 N MAPLE AVE","EAST ORANGE","NJ",7017,40.7757333870001,-74.197458399,442,"586 N MAPLE AVE, EAST ORANGE, NJ, 7017","Match","Exact","586 N MAPLE AVE, EAST ORANGE, NJ, 07017",63451818,"R"
743443,"586 NM88","PORTALES","NM",88130,NA,NA,443,"586 NM88, PORTALES, NM, 88130","No_Match",NA,NA,NA,NA
743444,"586 NORTH CATHERINE STREET","SALT LAKE CITY","UT",84116,40.781978866,-111.932287335,444,"586 NORTH CATHERINE STREET, SALT LAKE CITY, UT, 84116","Match","Non_Exact","586 CATHERINE ST, SALT LAKE CITY, UT, 84116",176065802,"R"
743445,"586 NOVAK DRIVE","SAN JOSE","CA",95127,37.38394405,-121.83502991,445,"586 NOVAK DRIVE, SAN JOSE, CA, 95127","Match","Exact","586 NOVAK DR, SAN JOSE, CA, 95127",122964805,"R"
743446,"586 OAK BLUFF RD","BRANSON","MO",65616,36.669381222,-93.210057842,446,"586 OAK BLUFF RD, BRANSON, MO, 65616","Match","Exact","586 OAK BLUFF RD, BRANSON, MO, 65616",20175282,"R"
743447,"586 OWEN STREET","DETROIT","MI",48202,42.385269023,-83.074932043,447,"586 OWEN STREET, DETROIT, MI, 48202","Match","Exact","586 OWEN ST, DETROIT, MI, 48202",95475455,"R"
743448,"586 OWENS STREET","DETROIT","MI",48202,NA,NA,448,"586 OWENS STREET, DETROIT, MI, 48202","No_Match",NA,NA,NA,NA
743449,"586 PARK AVE APT 6A","BROOKLYN","NY",11206,40.697330562,-73.951791156,449,"586 PARK AVE APT 6A, BROOKLYN, NY, 11206","Match","Exact","586 PARK AVE, BROOKLYN, NY, 11206",650071855,"R"
743450,"586 PEPPERTREE","WINDSOR","CA",95492,38.551727525,-122.794261646,450,"586 PEPPERTREE, WINDSOR, CA, 95492","Match","Non_Exact","586 PEPPERTREE DR, WINDSOR, CA, 95492",67519679,"R"
743451,"586 PLACER STREET","GRAND JUNCTION","CO",81504,39.0900240490001,-108.500044116,451,"586 PLACER STREET, GRAND JUNCTION, CO, 81504","Match","Exact","586 PLACER ST, GRAND JCT, CO, 81504",122446530,"R"
743452,"586 PRESTWORTH DR","COLLIERVILLE","MS",38017,NA,NA,452,"586 PRESTWORTH DR, COLLIERVILLE, MS, 38017","No_Match",NA,NA,NA,NA
743453,"586 RHODES DRIVE","PALO ALTO","CA",94303,37.4500026440001,-122.132028111,453,"586 RHODES DRIVE, PALO ALTO, CA, 94303","Match","Exact","586 RHODES DR, PALO ALTO, CA, 94303",122951096,"R"
743454,"586 RIDGE ROAD","FAIR HAVEN","NJ",7704,NA,NA,454,"586 RIDGE ROAD, FAIR HAVEN, NJ, 7704","No_Match",NA,NA,NA,NA
743455,"586 ROUND HILL ROAD","GREENWICH","CT",6831,41.119355967,-73.669172939,455,"586 ROUND HILL ROAD, GREENWICH, CT, 6831","Match","Exact","586 ROUND HILL RD, GREENWICH, CT, 06831",3287273,"L"
743456,"586 S 400 W","OREM","UT",84058,40.2865130260001,-111.70501266,456,"586 S 400 W, OREM, UT, 84058","Match","Exact","586 S 400 W, OREM, UT, 84058",134205999,"R"
743457,"586 S HITCHING POST DR","CAMP VERDE","AZ",86322,34.5608949190001,-111.866632659,457,"586 S HITCHING POST DR, CAMP VERDE, AZ, 86322","Match","Exact","586 HITCHING POST DR, CAMP VERDE, AZ, 86322",627404589,"L"
743458,"586 S HWY 181","DOWNS","KS",67437,NA,NA,458,"586 S HWY 181, DOWNS, KS, 67437","No_Match",NA,NA,NA,NA
743459,"586 S SAULSBURY ST","LAKEWOOD","CO",80226,NA,NA,459,"586 S SAULSBURY ST, LAKEWOOD, CO, 80226","Tie",NA,NA,NA,NA
743460,"586 SALTGRASS POINTE DR","CHARLESTON","SC",29412,32.748799266,-79.995392941,460,"586 SALTGRASS POINTE DR, CHARLESTON, SC, 29412","Match","Exact","586 SALTGRASS POINTE DR, CHARLESTON, SC, 29412",648562603,"L"
743461,"586 STATE ROUTE 374","CADYVILLE","NY",12918,44.7114747790001,-73.673441867,461,"586 STATE ROUTE 374, CADYVILLE, NY, 12918","Match","Exact","586 STATE RTE 374, CADYVILLE, NY, 12918",136097966,"R"
743462,"586 STUMPBRIDGE ROAD","CANTON","MS",39046,32.6802244580001,-89.9769686019999,462,"586 STUMPBRIDGE ROAD, CANTON, MS, 39046","Match","Non_Exact","586 STUMP BRIDGE RD, CANTON, MS, 39046",152481807,"R"
743463,"586 SUNNYBROOK ROAD","RIDGELAND","MS",39157,32.4453989460001,-90.140684117,463,"586 SUNNYBROOK ROAD, RIDGELAND, MS, 39157","Match","Exact","586 SUNNYBROOK RD, RIDGELAND, MS, 39157",651107145,"L"
743464,"586 SW LAKOTA AVE","PORT ST. LUCIE","FL",34953,27.225936109,-80.3661133809999,464,"586 SW LAKOTA AVE, PORT ST. LUCIE, FL, 34953","Match","Exact","586 SW LAKOTA AVE, PORT ST LUCIE, FL, 34953",120155104,"R"
743465,"586 TOOLEY STREET","BELHAVEN","NC",27810,35.5380020690001,-76.6105137449999,465,"586 TOOLEY STREET, BELHAVEN, NC, 27810","Match","Exact","586 TOOLEY ST, BELHAVEN, NC, 27810",67945889,"R"
743466,"586 UNION RD","SPRING VALLEY","NY",10977,41.135138005,-74.0537808249999,466,"586 UNION RD, SPRING VALLEY, NY, 10977","Match","Exact","586 UNION RD, SPRING VALLEY, NY, 10977",124627407,"R"
743467,"586 UNION STREET 4R","BROOKLYN","NY",11215,40.6779830630001,-73.984509192,467,"586 UNION STREET 4R, BROOKLYN, NY, 11215","Match","Exact","586 UNION ST, BROOKLYN, NY, 11215",59075667,"R"
743468,"586 USCHAK ROAD","DERRY","PA",15627,40.3554526090001,-79.3665711419999,468,"586 USCHAK ROAD, DERRY, PA, 15627","Match","Exact","586 USCHAK RD, DERRY, PA, 15627",53011619,"R"
743469,"586 VAUXHALL ST EXT","WATERFORD","CT",6385,41.3739717990001,-72.126947039,469,"586 VAUXHALL ST EXT, WATERFORD, CT, 6385","Match","Non_Exact","586 VAUXHALL ST EXD, WATERFORD, CT, 06385",56841422,"R"
743470,"586 W HACIENDA AVENUE","CAMPBELL","CA",95008,37.2691382470001,-121.960048014,470,"586 W HACIENDA AVENUE, CAMPBELL, CA, 95008","Match","Exact","586 W HACIENDA AVE, CAMPBELL, CA, 95008",618175271,"L"
743471,"586 W PARSONS AVE","WATERVLIET","MI",49098,42.1960472710001,-86.2688624529999,471,"586 W PARSONS AVE, WATERVLIET, MI, 49098","Match","Exact","586 W PARSONS AVE, WATERVLIET, MI, 49098",119995826,"R"
743472,"586 W SECOND ST","OAKBORO","NC",28129,35.2213798560001,-80.328662499,472,"586 W SECOND ST, OAKBORO, NC, 28129","Match","Exact","586 W 2ND ST, OAKBORO, NC, 28129",14083740,"L"
743473,"586 WASATCH DR","FREMONT","CA",94536,37.5758270010001,-121.963372873,473,"586 WASATCH DR, FREMONT, CA, 94536","Match","Exact","586 WASATCH DR, FREMONT, CA, 94536",125030178,"R"
743474,"586 WELDON ROAD","PALMETTO","GA",30268,33.49880283,-84.653845986,474,"586 WELDON ROAD, PALMETTO, GA, 30268","Match","Exact","586 WELDON RD, PALMETTO, GA, 30268",642534890,"L"
743475,"586 WEYLAND ROAD","HAMPTON","VA",23665,37.0961457350001,-76.360193629,475,"586 WEYLAND ROAD, HAMPTON, VA, 23665","Match","Exact","586 WEYLAND RD, HAMPTON, VA, 23665",103800001,"L"
743476,"5860 175 AVE SE","CHRISTINE","ND",58015,46.5626405960001,-96.759114013,476,"5860 175 AVE SE, CHRISTINE, ND, 58015","Match","Exact","5860 175TH AVE SE, CHRISTINE, ND, 58015",649907697,"R"
743477,"5860 175TH AVE SE","CHRISTINE","ND",58015,46.5626405960001,-96.759114013,477,"5860 175TH AVE SE, CHRISTINE, ND, 58015","Match","Exact","5860 175TH AVE SE, CHRISTINE, ND, 58015",649907697,"R"
743478,"5860 BOLLILNG DRIVE","ORLANDO","FL",32808,NA,NA,478,"5860 BOLLILNG DRIVE, ORLANDO, FL, 32808","No_Match",NA,NA,NA,NA
743479,"5860 BOWMAN ROAD","EAST SYRACUSE","NY",13057,43.054465678,-76.032144019,479,"5860 BOWMAN ROAD, EAST SYRACUSE, NY, 13057","Match","Exact","5860 BOWMAN RD, EAST SYRACUSE, NY, 13057",46582876,"R"
743480,"5860 BOWMAN ROAD","EAST SYRACUSE","NY",13206,43.054465678,-76.032144019,480,"5860 BOWMAN ROAD, EAST SYRACUSE, NY, 13206","Match","Non_Exact","5860 BOWMAN RD, EAST SYRACUSE, NY, 13057",46582876,"R"
743481,"5860 BUR OAKS LANE","NAPLES","FL",34119,26.2500151240001,-81.724767857,481,"5860 BUR OAKS LANE, NAPLES, FL, 34119","Match","Exact","5860 BUR OAKS LN, NAPLES, FL, 34119",640429608,"R"
743482,"5860 CARTER LANE","JACKSONVILLE","FL",32244,30.2434496600001,-81.719563379,482,"5860 CARTER LANE, JACKSONVILLE, FL, 32244","Match","Exact","5860 CARTER LN, JACKSONVILLE, FL, 32244",83912714,"R"
743483,"5860 CITRUS BLVD D140","NEW ORLEANS","LA",70047,NA,NA,483,"5860 CITRUS BLVD D140, NEW ORLEANS, LA, 70047","No_Match",NA,NA,NA,NA
743484,"5860 COLLEGE PARKWAY","MOBILE","AL",36613,NA,NA,484,"5860 COLLEGE PARKWAY, MOBILE, AL, 36613","No_Match",NA,NA,NA,NA
743485,"5860 COPPER CANYON DR","THE COLONY","TX",75056,33.0867296910001,-96.8603819689999,485,"5860 COPPER CANYON DR, THE COLONY, TX, 75056","Match","Exact","5860 COPPER CANYON DR, THE COLONY, TX, 75056",103401153,"L"
743486,"5860 E 5 AVE","HIALEAH","FL",33013,25.8758893040001,-80.272921458,486,"5860 E 5 AVE, HIALEAH, FL, 33013","Match","Exact","5860 E 5TH AVE, HIALEAH, FL, 33013",116056171,"L"
743487,"5860 EL PASO RD","CALDWELL","ID",84607,43.846301941,-116.692726486,487,"5860 EL PASO RD, CALDWELL, ID, 84607","Match","Non_Exact","5860 EL PASO RD, CALDWELL, ID, 83607",649835667,"R"
743488,"5860 ELPASO RD","CALDWELL","ID",83607,43.846301941,-116.692726486,488,"5860 ELPASO RD, CALDWELL, ID, 83607","Match","Non_Exact","5860 EL PASO RD, CALDWELL, ID, 83607",649835667,"R"
743489,"5860 FOREST BLVD","WYOMING","MN",55092,45.3213735620001,-92.9871937999999,489,"5860 FOREST BLVD, WYOMING, MN, 55092","Match","Non_Exact","5860 FOREST BLVD TRL, WYOMING, MN, 55092",97594046,"L"
743490,"5860 GEDDES RD","SUPERIOR TWP","MI",48198,42.2791864280001,-83.64480176,490,"5860 GEDDES RD, SUPERIOR TWP, MI, 48198","Match","Exact","5860 GEDDES RD, SUPERIOR TOWNSHIP, MI, 48198",652798469,"R"
743491,"5860 GULFTON ST APT 2017","HOUSTON","TX",77081,29.716435801,-95.48437402,491,"5860 GULFTON ST APT 2017, HOUSTON, TX, 77081","Match","Exact","5860 GULFTON ST, HOUSTON, TX, 77081",96614916,"R"
743492,"5860 HIGHWAY 61 NORTH","WHITE BEAR LAKE","MN",55110,NA,NA,492,"5860 HIGHWAY 61 NORTH, WHITE BEAR LAKE, MN, 55110","No_Match",NA,NA,NA,NA
743493,"5860 LUDINGTON DRIVE","VIRGINIA BEACH","VA",23464,36.7744287560001,-76.202065502,493,"5860 LUDINGTON DRIVE, VIRGINIA BEACH, VA, 23464","Match","Exact","5860 LUDINGTON DR, VA BCH, VA, 23464",636737070,"L"
743494,"5860 MANDARIN DR APT C","GOLETA","CA",93117,34.437380809,-119.828136405,494,"5860 MANDARIN DR APT C, GOLETA, CA, 93117","Match","Exact","5860 MANDARIN DR, GOLETA, CA, 93117",108601495,"R"
743495,"5860 MISTYDAWN DR","SUWANEE","GA",30024,34.074259757,-84.12289594,495,"5860 MISTYDAWN DR, SUWANEE, GA, 30024","Match","Exact","5860 MISTYDAWN DR, SUWANEE, GA, 30024",646207462,"L"
743496,"5860 NW DUNMORE AVENUE","PORT ST LUCIE","FL",34986,27.3533383990001,-80.3919917489999,496,"5860 NW DUNMORE AVENUE, PORT ST LUCIE, FL, 34986","Match","Exact","5860 NW DUNMORE AVE, PORT ST LUCIE, FL, 34986",120179678,"R"
743497,"5860 OKEMOS RD","HASLETT","MI",48840,NA,NA,497,"5860 OKEMOS RD, HASLETT, MI, 48840","No_Match",NA,NA,NA,NA
743498,"5860 PLUM HOLLOW DRIVE APT 4","YPSILANTI","MI",48197,42.205551832,-83.693039536,498,"5860 PLUM HOLLOW DRIVE APT 4, YPSILANTI, MI, 48197","Match","Exact","5860 PLUM HOLLOW DR, YPSILANTI, MI, 48197",645517052,"L"
743499,"5860 S PECOS RD STE 300","LAS VEGAS","NV",89120,36.083309559,-115.100931836,499,"5860 S PECOS RD STE 300, LAS VEGAS, NV, 89120","Match","Non_Exact","5860 S PECOS RD, LAS VEGAS, NV, 89120",201873192,"L"
743500,"5860 SOMERSET DR","PENSACOLA","FL",32526,30.465639018,-87.277753015,500,"5860 SOMERSET DR, PENSACOLA, FL, 32526","Match","Exact","5860 SOMERSET DR, PENSACOLA, FL, 32526",93212920,"R"
