"ID","Address","City","State","Zip","lat","long","id","input_address","match_indicator","match_type","matched_address","tiger_line_id","tiger_side"
627501,"43258 DARBY ST","LANCASTER","CA",93535,34.669088899,-118.071502905,1,"43258 DARBY ST, LANCASTER, CA, 93535","Match","Exact","43258 DARBY ST, LANCASTER, CA, 93535",141860870,"L"
627502,"43259 HIGHWAY D","PERRY","MO",63462,NA,NA,2,"43259 HIGHWAY D, PERRY, MO, 63462","No_Match",NA,NA,NA,NA
627503,"4326 14TH STREET SW","STANTON","ND",58571,47.212591946,-101.409522217,3,"4326 14TH STREET SW, STANTON, ND, 58571","Match","Exact","4326 14TH ST SW, STANTON, ND, 58571",199082578,"R"
627504,"4326 226TH PL SE","BOTHELL","WA",98021,47.7923563510001,-122.174625039,4,"4326 226TH PL SE, BOTHELL, WA, 98021","Match","Exact","4326 226TH PL SE, BOTHELL, WA, 98021",606932461,"L"
627505,"4326 5TH AVE NW UNIT 2","SEATTLE","WA",98107,47.659717007,-122.362931124,5,"4326 5TH AVE NW UNIT 2, SEATTLE, WA, 98107","Match","Exact","4326 5TH AVE NW, SEATTLE, WA, 98107",186580998,"R"
627506,"4326 APPLE ORCHARD LANE","SUITLAND","MD",20746,38.8341499300001,-76.93351267,6,"4326 APPLE ORCHARD LANE, SUITLAND, MD, 20746","Match","Exact","4326 APPLE ORCHARD LN, SUITLAND, MD, 20746",76352233,"L"
627507,"4326 APPLEWOOD LN","MATTESON","IL",60443,41.5099642550001,-87.720575228,7,"4326 APPLEWOOD LN, MATTESON, IL, 60443","Match","Exact","4326 APPLEWOOD LN, MATTESON, IL, 60443",111708282,"R"
627508,"4326 BOTANY LANE","HOUSTON","TX",77047,29.6345209130001,-95.359903477,8,"4326 BOTANY LANE, HOUSTON, TX, 77047","Match","Exact","4326 BOTANY LN, HOUSTON, TX, 77047",96090444,"R"
627509,"4326 BOTNEY LANE","HOUSTO","TX",77047,29.6345209130001,-95.359903477,9,"4326 BOTNEY LANE, HOUSTO, TX, 77047","Match","Non_Exact","4326 BOTANY LN, HOUSTON, TX, 77047",96090444,"R"
627510,"4326 BROOKLYN AVE","KANSAS CITY","MO",64138,39.0478661060001,-94.55864827,10,"4326 BROOKLYN AVE, KANSAS CITY, MO, 64138","Match","Non_Exact","4326 BROOKLYN AVE, KANSAS CITY, MO, 64130",91451970,"R"
627511,"4326 BUNDY SETTLEMENT ROAD","BROCKPORT","PA",15823,41.236037911,-78.717715944,11,"4326 BUNDY SETTLEMENT ROAD, BROCKPORT, PA, 15823","Match","Exact","4326 BUNDY SETTLEMENT RD, BROCKPORT, PA, 15823",157849793,"R"
627512,"4326 CASTELTON CIRCLE","MATHER","CA",95655,38.545439419,-121.283643934,12,"4326 CASTELTON CIRCLE, MATHER, CA, 95655","Match","Non_Exact","4326 CASTLETON CIR, MATHER, CA, 95655",133349231,"R"
627513,"4326 CRYSTAL RIDGE ST","MISSOURI CITY","TX",77459,29.5110657970001,-95.5205881539999,13,"4326 CRYSTAL RIDGE ST, MISSOURI CITY, TX, 77459","Match","Exact","4326 CRYSTAL RIDGE ST, MISSOURI CITY, TX, 77459",78290857,"L"
627514,"4326 E SR 66","CANNELTON","IN",47520,37.900897639,-86.7276219409999,14,"4326 E SR 66, CANNELTON, IN, 47520","Match","Exact","4326 STATE RD 66, CANNELTON, IN, 47520",606671233,"R"
627515,"4326 EASTWAY STREET","TOLEDO","OH",43612,41.697031544,-83.571527964,15,"4326 EASTWAY STREET, TOLEDO, OH, 43612","Match","Exact","4326 EASTWAY ST, TOLEDO, OH, 43612",33934172,"R"
627516,"4326 ELVIRA","CORPUS CHRISTI","TX",78416,27.7563922780001,-97.445631776,16,"4326 ELVIRA, CORPUS CHRISTI, TX, 78416","Match","Non_Exact","4326 ELVIRA DR, CORPUS CHRISTI, TX, 78416",178513722,"L"
627517,"4326 ENGLISH MORNING LN","ELLICOTT CITY","MD",21043,39.251233653,-76.795052718,17,"4326 ENGLISH MORNING LN, ELLICOTT CITY, MD, 21043","Match","Exact","4326 ENGLISH MORNING LN, ELLICOTT CITY, MD, 21043",614144992,"R"
627518,"4326 FREEMAN ROAD","ORCHARD PARK","NY",14127,42.76556693,-78.731928683,18,"4326 FREEMAN ROAD, ORCHARD PARK, NY, 14127","Match","Exact","4326 FREEMAN RD, ORCHARD PARK, NY, 14127",48311471,"R"
627519,"4326 GAULT PLACE NE","WASHINGTON","DC",20019,38.8990647960001,-76.939730926,19,"4326 GAULT PLACE NE, WASHINGTON, DC, 20019","Match","Exact","4326 GAULT PL NE, WASHINGTON, DC, 20019",76233415,"L"
627520,"4326 GOLDEN EAGLE POINT","PORTSMOUTH","VA",23703,36.8877866720001,-76.396792632,20,"4326 GOLDEN EAGLE POINT, PORTSMOUTH, VA, 23703","Match","Exact","4326 GOLDEN EAGLE PT, PORTSMOUTH, VA, 23703",122200852,"L"
627521,"4326 GROVEPARK DRIVE","TALLAHASSEE","FL",32311,30.388134474,-84.224040305,21,"4326 GROVEPARK DRIVE, TALLAHASSEE, FL, 32311","Match","Non_Exact","4326 GROVE PARK DR, TALLAHASSEE, FL, 32311",618806145,"R"
627522,"4326 HARBOR BEACH BLVD","BRIGANTINE","NJ",8203,39.3926632700001,-74.397421467,22,"4326 HARBOR BEACH BLVD, BRIGANTINE, NJ, 8203","Match","Non_Exact","4326 HARBOUR BEACH BLVD, BRIGANTINE, NJ, 08203",647601565,"L"
627523,"4326 HUNTSFIELD RD","FAYETTEVILLE","NC",28314,35.0532010520001,-78.948912704,23,"4326 HUNTSFIELD RD, FAYETTEVILLE, NC, 28314","Match","Exact","4326 HUNTSFIELD RD, FAYETTEVILLE, NC, 28314",64228174,"R"
627524,"4326 JONES BRIDGE CIRCLE","PEACHTREE CORNERS","GA",30092,33.9860986830001,-84.233203042,24,"4326 JONES BRIDGE CIRCLE, PEACHTREE CORNERS, GA, 30092","Match","Exact","4326 JONES BRIDGE CIR, PEACHTREE CORNERS, GA, 30092",88893229,"R"
627525,"4326 KELLYBROOK DR","CONCORD","NC",28025,35.357716995,-80.5625230319999,25,"4326 KELLYBROOK DR, CONCORD, NC, 28025","Match","Exact","4326 KELLYBROOK DR, CONCORD, NC, 28025",647185455,"R"
627526,"4326 LAKEWOOD ST","DETROIT","MI",48215,42.390143607,-82.9569308649999,26,"4326 LAKEWOOD ST, DETROIT, MI, 48215","Match","Exact","4326 LAKEWOOD ST, DETROIT, MI, 48215",95485572,"R"
627527,"4326 LIDDELL LANE","ERDA","UT",84074,40.605840587,-112.303174221,27,"4326 LIDDELL LANE, ERDA, UT, 84074","Match","Exact","4326 LIDDELL LN, ERDA, UT, 84074",155399211,"R"
627528,"4326 LOST FEATHER LANE","SANTA FE","NM",87507,35.6307257400001,-106.013291913,28,"4326 LOST FEATHER LANE, SANTA FE, NM, 87507","Match","Non_Exact","4326 LOST FEATHER, SANTA FE, NM, 87507",169426874,"R"
627529,"4326 LOYOLA AVENUE","ALEXANDRIA","VA",22304,38.825717716,-77.10496691,29,"4326 LOYOLA AVENUE, ALEXANDRIA, VA, 22304","Match","Exact","4326 LOYOLA AVE, ALEXANDRIA, VA, 22304",76021711,"L"
627530,"4326 MACKIN WOODS LN","SAN JOSE","CA",95135,37.3060411380001,-121.76372475,30,"4326 MACKIN WOODS LN, SAN JOSE, CA, 95135","Match","Exact","4326 MACKIN WOODS LN, SAN JOSE, CA, 95135",123161126,"R"
627531,"4326 MEADOWS CT","KLAMATH FALLS","OR",97603,NA,NA,31,"4326 MEADOWS CT, KLAMATH FALLS, OR, 97603","Tie",NA,NA,NA,NA
627532,"4326 MORNING DOVE DR","JACKSONVILLE","FL",32258,30.1386475250001,-81.594777348,32,"4326 MORNING DOVE DR, JACKSONVILLE, FL, 32258","Match","Exact","4326 MORNING DOVE DR, JACKSONVILLE, FL, 32258",83943728,"R"
627533,"4326 N CHEYENNE","TACOMA","WA",98407,47.288511344,-122.498517798,33,"4326 N CHEYENNE, TACOMA, WA, 98407","Match","Non_Exact","4326 N CHEYENNE ST, TACOMA, WA, 98407",184643884,"L"
627534,"4326 NE 32ND PLACE","PORTLAND","OR",97211,45.554510168,-122.631721904,34,"4326 NE 32ND PLACE, PORTLAND, OR, 97211","Match","Exact","4326 NE 32ND PL, PORTLAND, OR, 97211",157506264,"R"
627535,"4326 NORTH 57TH PLACE","PHOENIX","AZ",85018,33.4985041250001,-111.957964477,35,"4326 NORTH 57TH PLACE, PHOENIX, AZ, 85018","Match","Exact","4326 N 57TH PL, PHOENIX, AZ, 85018",128282242,"L"
627536,"4326 NW 70TH LANE","CORAL SPRINGS","FL",33065,26.284444374,-80.2206114859999,36,"4326 NW 70TH LANE, CORAL SPRINGS, FL, 33065","Match","Exact","4326 NW 70TH LN, CORAL SPRINGS, FL, 33065",114738312,"L"
627537,"4326 PAXTON WAY","BIRMINGHAM","AL",35242,33.48847124,-86.666160497,37,"4326 PAXTON WAY, BIRMINGHAM, AL, 35242","Match","Exact","4326 PAXTON WAY, BIRMINGHAM, AL, 35242",625634282,"L"
627538,"4326 PENNSWOOD DRIVE","MIDDLETOWN","OH",45042,39.5376931440001,-84.3523296339999,38,"4326 PENNSWOOD DRIVE, MIDDLETOWN, OH, 45042","Match","Exact","4326 PENNSWOOD DR, MIDDLETOWN, OH, 45042",113819640,"R"
627539,"4326 QUEENS WAY","MINNETONKA","MN",55345,44.924645825,-93.458208634,39,"4326 QUEENS WAY, MINNETONKA, MN, 55345","Match","Exact","4326 QUEENS WAY, MINNETONKA, MN, 55345",43825997,"R"
627540,"4326 RAWLINS","DALLAS","TX",75219,32.816285635,-96.812744284,40,"4326 RAWLINS, DALLAS, TX, 75219","Match","Non_Exact","4326 RAWLINS ST, DALLAS, TX, 75219",102908380,"R"
627541,"4326 REIMER RD","NORTON","OH",44203,41.054836918,-81.6823946759999,41,"4326 REIMER RD, NORTON, OH, 44203","Match","Exact","4326 REIMER RD, NORTON, OH, 44203",61362376,"L"
627542,"4326 RIVER BIRCH DRIVE","SPRING HILL","FL",34607,28.4965793760001,-82.60537303,42,"4326 RIVER BIRCH DRIVE, SPRING HILL, FL, 34607","Match","Exact","4326 RIVER BIRCH DR, SPRING HILL, FL, 34607",85461993,"L"
627543,"4326 S 1100 E","UPLAND","IN",46989,40.489666356,-85.4646760699999,43,"4326 S 1100 E, UPLAND, IN, 46989","Match","Exact","4326 S 1100 E, UPLAND, IN, 46989",95005055,"L"
627544,"4326 S HESPERIDES DRIVE","NAGS HEAD","NC",27959,35.9456312400001,-75.62579877,44,"4326 S HESPERIDES DRIVE, NAGS HEAD, NC, 27959","Match","Exact","4326 S HESPERIDES DR, NAGS HEAD, NC, 27959",81302410,"R"
627545,"4326 SE SECRETARIAT COURT","LEES SUMMIT","MO",64082,38.839311541,-94.3693308749999,45,"4326 SE SECRETARIAT COURT, LEES SUMMIT, MO, 64082","Match","Exact","4326 SE SECRETARIAT CT, LEES SUMMIT, MO, 64082",91513122,"R"
627546,"4326 SPINNAKER COVE LANE","TAMPA","FL",33615,NA,NA,46,"4326 SPINNAKER COVE LANE, TAMPA, FL, 33615","No_Match",NA,NA,NA,NA
627547,"4326 SPRINGVIEW DRIVE","SAN ANTONIO","TX",78222,29.3787619460001,-98.410984347,47,"4326 SPRINGVIEW DRIVE, SAN ANTONIO, TX, 78222","Match","Exact","4326 SPRINGVIEW DR, SAN ANTONIO, TX, 78222",101535423,"R"
627548,"4326 SW LAGRANGE ST","PORT ST. LUCIE","FL",34953,27.215735254,-80.387054818,48,"4326 SW LAGRANGE ST, PORT ST. LUCIE, FL, 34953","Match","Exact","4326 SW LAGRANGE ST, PORT ST LUCIE, FL, 34953",120165458,"R"
627549,"4326 TROUT LILLY LANE","MANLIUS","NY",13104,42.9828233330001,-75.9608530359999,49,"4326 TROUT LILLY LANE, MANLIUS, NY, 13104","Match","Non_Exact","4326 TROUT LILY LN, MANLIUS, NY, 13104",46587808,"L"
627550,"4326 US HIGHWAY 1NORTH","MONMOUTH JUNCTION","NJ",8852,NA,NA,50,"4326 US HIGHWAY 1NORTH, MONMOUTH JUNCTION, NJ, 8852","No_Match",NA,NA,NA,NA
627551,"4326 VAUGHN AVE","MERCED","CA",95341,37.298822526,-120.565223257,51,"4326 VAUGHN AVE, MERCED, CA, 95341","Match","Exact","4326 VAUGHN AVE, MERCED, CA, 95341",125279490,"L"
627552,"4326 W 145TH STREET","LAWNDALE","CA",90260,33.9001188980001,-118.351172415,52,"4326 W 145TH STREET, LAWNDALE, CA, 90260","Match","Exact","4326 W 145TH ST, LAWNDALE, CA, 90260",241242679,"L"
627553,"4326 W APOLLO RD","LAVEEN","AZ",85339,33.386052342,-112.152135809,53,"4326 W APOLLO RD, LAVEEN, AZ, 85339","Match","Exact","4326 W APOLLO RD, LAVEEN, AZ, 85339",128865250,"R"
627554,"4326 W CHEYENNE AVE STE109","N LAS VEGAS","NV",89032,36.217364995,-115.199676708,54,"4326 W CHEYENNE AVE STE109, N LAS VEGAS, NV, 89032","Match","Non_Exact","4326 W CHEYENNE AVE, N LAS VEGAS, NV, 89032",632506316,"R"
627555,"4326 WEBSTER DRIVE","YORK","PA",17402,NA,NA,55,"4326 WEBSTER DRIVE, YORK, PA, 17402","Tie",NA,NA,NA,NA
627556,"4326 WEST AUGUSTA BLVD SUITE 2","CHICAGO","IL",60651,41.8988889010001,-87.7343242269999,56,"4326 WEST AUGUSTA BLVD SUITE 2, CHICAGO, IL, 60651","Match","Exact","4326 W AUGUSTA BLVD, CHICAGO, IL, 60651",111758408,"R"
627557,"4326 WEST SCHOOL STREET","CHICAGO","IL",60641,41.9408130790001,-87.735585753,57,"4326 WEST SCHOOL STREET, CHICAGO, IL, 60641","Match","Exact","4326 W SCHOOL ST, CHICAGO, IL, 60641",605219742,"R"
627558,"4326 WIND TREE DRIVE","BARTLETT","TN",38135,35.2439459650001,-89.836077266,58,"4326 WIND TREE DRIVE, BARTLETT, TN, 38135","Match","Exact","4326 WIND TREE DR, BARTLETT, TN, 38135",72963762,"L"
627559,"43260 ATHERTON ST","ASHBURN","VA",20147,39.0241963820001,-77.5047024679999,59,"43260 ATHERTON ST, ASHBURN, VA, 20147","Match","Exact","43260 ATHERTON ST, ASHBURN, VA, 20147",62355146,"R"
627560,"43261 CHOKEBERRY SQ","ASHBURN","VA",20147,39.04378847,-77.50607543,60,"43261 CHOKEBERRY SQ, ASHBURN, VA, 20147","Match","Exact","43261 CHOKEBERRY SQ, ASHBURN, VA, 20147",62346739,"R"
627561,"43263 MISSION HILLS WAY","LEESBURG","VA",20176,39.10981602,-77.502922185,61,"43263 MISSION HILLS WAY, LEESBURG, VA, 20176","Match","Exact","43263 MISSION HILLS WAY, LEESBURG, VA, 20176",62356854,"L"
627562,"43268 SPINKS FERRY ROAD","LEESBURG","VA",20176,39.2082369930001,-77.50049613,62,"43268 SPINKS FERRY ROAD, LEESBURG, VA, 20176","Match","Exact","43268 SPINKS FERRY RD, LEESBURG, VA, 20176",218965906,"L"
627563,"4327 159TH ST","URBANDALE","IA",50323,41.639220686,-93.837694201,63,"4327 159TH ST, URBANDALE, IA, 50323","Match","Exact","4327 159TH ST, URBANDALE, IA, 50323",641426763,"L"
627564,"4327 170TH PL SE","BELLEVUE","WA",98006,NA,NA,64,"4327 170TH PL SE, BELLEVUE, WA, 98006","Tie",NA,NA,NA,NA
627565,"4327 43RD STREET NW","WASHINGTON","DC",20016,38.945673621,-77.083774841,65,"4327 43RD STREET NW, WASHINGTON, DC, 20016","Match","Exact","4327 43RD ST NW, WASHINGTON, DC, 20016",76219837,"R"
627566,"4327 BARKER STREET SE","WASHINGTON","OK",20019,NA,NA,66,"4327 BARKER STREET SE, WASHINGTON, OK, 20019","No_Match",NA,NA,NA,NA
627567,"4327 BEECHNUT DRIVE","DURHAM","NC",27707,35.9400471770001,-78.9874395099999,67,"4327 BEECHNUT DRIVE, DURHAM, NC, 27707","Match","Non_Exact","4327 BEECHNUT LN, DURHAM, NC, 27707",71790671,"R"
627568,"4327 BROOK LANE","SAINT LOUIS PARK","MN",55416,44.9221251060001,-93.3555393079999,68,"4327 BROOK LANE, SAINT LOUIS PARK, MN, 55416","Match","Exact","4327 BROOK LN, SAINT LOUIS PARK, MN, 55416",43626140,"L"
627569,"4327 CASSANNA WAY APT 712","OCEANSIDE","CA",92057,33.221053598,-117.300684291,69,"4327 CASSANNA WAY APT 712, OCEANSIDE, CA, 92057","Match","Exact","4327 CASSANNA WAY, OCEANSIDE, CA, 92057",195425937,"L"
627570,"4327 CHATSWORTH ST N","SHOREVIEW","MN",55126,45.0732881640001,-93.146635502,70,"4327 CHATSWORTH ST N, SHOREVIEW, MN, 55126","Match","Exact","4327 CHATSWORTH ST N, SHOREVIEW, MN, 55126",97635174,"R"
627571,"4327 COUNTRYWOOD","SANTA MARIA","CA",93455,34.8774278120001,-120.448229924,71,"4327 COUNTRYWOOD, SANTA MARIA, CA, 93455","Match","Non_Exact","4327 COUNTRYWOOD DR, SANTA MARIA, CA, 93455",108596749,"R"
627572,"4327 COVE DR","PALM HARBOR","FL",34685,28.0794275100001,-82.7035026889999,72,"4327 COVE DR, PALM HARBOR, FL, 34685","Match","Exact","4327 COVE DR, PALM HARBOR, FL, 34685",124680451,"R"
627573,"4327 DISSTON STREET","PHILADELPHIA","PA",19135,40.030184911,-75.044983808,73,"4327 DISSTON STREET, PHILADELPHIA, PA, 19135","Match","Exact","4327 DISSTON ST, PHILADELPHIA, PA, 19135",131435323,"L"
627574,"4327 E CHEERY LYNN ROAD","PHOENIX","AZ",85018,33.4853313260001,-111.988569318,74,"4327 E CHEERY LYNN ROAD, PHOENIX, AZ, 85018","Match","Exact","4327 E CHEERY LYNN RD, PHOENIX, AZ, 85018",128220379,"R"
627575,"4327 E JASPER DR","GILBERT","AZ",85296,33.3272134850001,-111.697253046,75,"4327 E JASPER DR, GILBERT, AZ, 85296","Match","Exact","4327 E JASPER DR, GILBERT, AZ, 85296",128878155,"R"
627576,"4327 EAST 176TH STREET","CLEVELAND","OH",44120,NA,NA,76,"4327 EAST 176TH STREET, CLEVELAND, OH, 44120","No_Match",NA,NA,NA,NA
627577,"4327 HICKORY STREET","OMAHA","NE",68105,41.2436571480001,-95.9774606,77,"4327 HICKORY STREET, OMAHA, NE, 68105","Match","Exact","4327 HICKORY ST, OMAHA, NE, 68105",117023579,"L"
627578,"4327 KUMLER DR","WHITEHALL","OH",43213,39.9654978660001,-82.884400806,78,"4327 KUMLER DR, WHITEHALL, OH, 43213","Match","Exact","4327 KUMLER DR, WHITEHALL, OH, 43213",218649793,"R"
627579,"4327 LANCASHIRE LANE","MILFORD","MI",48380,42.6337921840001,-83.673985933,79,"4327 LANCASHIRE LANE, MILFORD, MI, 48380","Match","Exact","4327 LANCASHIRE LN, MILFORD, MI, 48380",69686585,"L"
627580,"4327 LOVELAND DRIVE","LIVERPOOL","NY",13090,43.167367895,-76.215592143,80,"4327 LOVELAND DRIVE, LIVERPOOL, NY, 13090","Match","Exact","4327 LOVELAND DR, LIVERPOOL, NY, 13090",46587968,"L"
627581,"4327 N 78TH STREET E-311","SCOTSDALE","AZ",85251,NA,NA,81,"4327 N 78TH STREET E-311, SCOTSDALE, AZ, 85251","No_Match",NA,NA,NA,NA
627582,"4327 N ASH ST","SPOKANE","WA",99205,47.698625253,-117.436432978,82,"4327 N ASH ST, SPOKANE, WA, 99205","Match","Exact","4327 N ASH ST, SPOKANE, WA, 99205",189872943,"L"
627583,"4327 N MOZART","CHICAGO","IL",60618,41.9602668850001,-87.6996485069999,83,"4327 N MOZART, CHICAGO, IL, 60618","Match","Non_Exact","4327 N MOZART ST, CHICAGO, IL, 60618",605155330,"R"
627584,"4327 PAYNE","ATTICA","MI",48412,43.024995549,-83.1732727309999,84,"4327 PAYNE, ATTICA, MI, 48412","Match","Non_Exact","4327 PAYNE RD, ATTICA, MI, 48412",110459307,"L"
627585,"4327 PENSWOOD DRIVE","MIDDLETOWN","OH",45044,39.5377040590001,-84.352328275,85,"4327 PENSWOOD DRIVE, MIDDLETOWN, OH, 45044","Match","Non_Exact","4327 PENNSWOOD DR, MIDDLETOWN, OH, 45042",113819640,"L"
627586,"4327 RAVENSWORTH ROAD APT 321","ANNANDALE","VA",22003,38.828566854,-77.198231565,86,"4327 RAVENSWORTH ROAD APT 321, ANNANDALE, VA, 22003","Match","Exact","4327 RAVENSWORTH RD, ANNANDALE, VA, 22003",75980425,"L"
627587,"4327 ROCKPORT LANE","BOWIE","MD",20720,38.9500232440001,-76.810036553,87,"4327 ROCKPORT LANE, BOWIE, MD, 20720","Match","Exact","4327 ROCKPORT LN, BOWIE, MD, 20720",76378883,"R"
627588,"4327 RUSTIC WAGON","SAN ANTONIO","TX",78253,29.478083584,-98.76585584,88,"4327 RUSTIC WAGON, SAN ANTONIO, TX, 78253","Match","Exact","4327 RUSTIC WAGON, SAN ANTONIO, TX, 78253",620038412,"L"
627589,"4327 S CONKLIN","SPOKANE","WA",99203,47.6143645550001,-117.396231433,89,"4327 S CONKLIN, SPOKANE, WA, 99203","Match","Non_Exact","4327 S CONKLIN ST, SPOKANE, WA, 99203",189883036,"L"
627590,"4327 S HWY 27 BOX 233","CLERMONT","FL",34711,28.50103453,-81.719118798,90,"4327 S HWY 27 BOX 233, CLERMONT, FL, 34711","Match","Non_Exact","4327 US HWY 27, CLERMONT, FL, 34711",94181425,"R"
627591,"4327 S HWY 27 STE 177","CLERMONT","FL",34711,28.50103453,-81.719118798,91,"4327 S HWY 27 STE 177, CLERMONT, FL, 34711","Match","Non_Exact","4327 US HWY 27, CLERMONT, FL, 34711",94181425,"R"
627592,"4327 S L ST","TACOMA","WA",98418,47.218108344,-122.44932773,92,"4327 S L ST, TACOMA, WA, 98418","Match","Exact","4327 S L ST, TACOMA, WA, 98418",184625251,"L"
627593,"4327 S MENTOR AVE","SPRINGFIELD","MO",65804,37.134056571,-93.231440858,93,"4327 S MENTOR AVE, SPRINGFIELD, MO, 65804","Match","Exact","4327 S MENTOR AVE, SPRINGFIELD, MO, 65804",76695407,"R"
627594,"4327 SOUTH HIGHWAY 27  SUITE 139","CLERMONT","FL",34711,NA,NA,94,"4327 SOUTH HIGHWAY 27  SUITE 139, CLERMONT, FL, 34711","No_Match",NA,NA,NA,NA
627595,"4327 SOUTH HIGHWAY 27","CLERMONT","FL",34711,NA,NA,95,"4327 SOUTH HIGHWAY 27, CLERMONT, FL, 34711","No_Match",NA,NA,NA,NA
627596,"4327 ST MARYS RD","FLOYDS KNOBS","IN",47119,38.336537058,-85.869760604,96,"4327 ST MARYS RD, FLOYDS KNOBS, IN, 47119","Match","Exact","4327 SAINT MARYS RD, FLOYDS KNOBS, IN, 47119",89544205,"L"
627597,"4327 STARCREST DR","WARRENTON","VA",20187,38.7362818820001,-77.686919527,97,"4327 STARCREST DR, WARRENTON, VA, 20187","Match","Non_Exact","4327 S STARCREST DR, WARRENTON, VA, 20187",146267296,"L"
627598,"4327 SUNRISE ROAD","BAYTOWN","TX",77521,29.784992591,-94.852072014,98,"4327 SUNRISE ROAD, BAYTOWN, TX, 77521","Match","Non_Exact","4327 SUNRISE RD, BAYTOWN, TX, 77523",641748068,"L"
627599,"4327 SWIFT AVE  UNIT 5","SAN DIEGO","CA",92104,32.7558363860001,-117.118981101,99,"4327 SWIFT AVE  UNIT 5, SAN DIEGO, CA, 92104","Match","Exact","4327 SWIFT AVE, SAN DIEGO, CA, 92104",195346517,"R"
627600,"4327 SWIFT AVENUE","SAN DIEGO","CA",92116,32.7558363860001,-117.118981101,100,"4327 SWIFT AVENUE, SAN DIEGO, CA, 92116","Match","Non_Exact","4327 SWIFT AVE, SAN DIEGO, CA, 92104",195346517,"R"
627601,"4327 TROOST AVE","KANSAS CITY","MO",64118,39.0484084230001,-94.572547362,101,"4327 TROOST AVE, KANSAS CITY, MO, 64118","Match","Non_Exact","4327 TROOST AVE, KANSAS CITY, MO, 64110",91447982,"L"
627602,"4327 TUCKER NORTH CT","TUCKER","GA",30084,33.8654511350001,-84.210458062,102,"4327 TUCKER NORTH CT, TUCKER, GA, 30084","Match","Exact","4327 TUCKER NORTH CT, TUCKER, GA, 30084",23363490,"R"
627603,"4327 US HIGHWAY 27 STE 177","Clermont","FL",34711,28.5010556780001,-81.719126881,103,"4327 US HIGHWAY 27 STE 177, Clermont, FL, 34711","Match","Non_Exact","4327 US HWY 27, CLERMONT, FL, 34711",94181425,"R"
627604,"4327 US HIGHWAY 27 STE 177","CLERMONT","FL",34711,28.5010556780001,-81.719126881,104,"4327 US HIGHWAY 27 STE 177, CLERMONT, FL, 34711","Match","Non_Exact","4327 US HWY 27, CLERMONT, FL, 34711",94181425,"R"
627605,"4327 W CETON DR","LAVEEN","AZ",85339,33.3484811800001,-112.152565869,105,"4327 W CETON DR, LAVEEN, AZ, 85339","Match","Exact","4327 W CETON DR, LAVEEN, AZ, 85339",128216849,"R"
627606,"4327 WALLABY ROAD","WENTWORTH","MO",64873,37.001370417,-94.0789752699999,106,"4327 WALLABY ROAD, WENTWORTH, MO, 64873","Match","Exact","4327 WALLABY RD, WENTWORTH, MO, 64873",56005822,"R"
627607,"4327 WESTBURY DRIVE","CENTER VALLEY","PA",18034,40.531764767,-75.4112924039999,107,"4327 WESTBURY DRIVE, CENTER VALLEY, PA, 18034","Match","Exact","4327 WESTBURY DR, CENTER VALLEY, PA, 18034",80786538,"R"
627608,"4327 WOODBRIDGE AVENUE NW","ROANOKE","VA",24017,37.3104384380001,-80.0029063969999,108,"4327 WOODBRIDGE AVENUE NW, ROANOKE, VA, 24017","Match","Exact","4327 WOODBRIDGE AVE NW, ROANOKE, VA, 24017",62902320,"R"
627609,"43271 BROOKFORD SQ","ASHBURN","VA",20147,39.0491813310001,-77.504907959,109,"43271 BROOKFORD SQ, ASHBURN, VA, 20147","Match","Exact","43271 BROOKFORD SQ, ASHBURN, VA, 20147",62342027,"L"
627610,"43271 COUNTY ROAD 124","ROSEAU","MN",56751,48.8194907440001,-95.677809026,110,"43271 COUNTY ROAD 124, ROSEAU, MN, 56751","Match","Exact","43271 CO RD 124, ROSEAU, MN, 56751",611930837,"L"
627611,"4328 7TH AVE 207","SEATTLE","WA",98105,47.660243672,-122.320805301,111,"4328 7TH AVE 207, SEATTLE, WA, 98105","Match","Non_Exact","4328 7TH AVE NE, SEATTLE, WA, 98105",186990333,"R"
627612,"4328 7TH AVE NE APT 202","SEATTLE","WA",98105,47.660243672,-122.320805301,112,"4328 7TH AVE NE APT 202, SEATTLE, WA, 98105","Match","Exact","4328 7TH AVE NE, SEATTLE, WA, 98105",186990333,"R"
627613,"4328 AIRPORT RD","INDIANA","PA",15701,40.642785555,-79.0511989779999,113,"4328 AIRPORT RD, INDIANA, PA, 15701","Match","Exact","4328 AIRPORT RD, INDIANA, PA, 15701",66287226,"R"
627614,"4328 ALBANY POST RD","HYDE PARK","NY",12538,41.787146578,-73.934076553,114,"4328 ALBANY POST RD, HYDE PARK, NY, 12538","Match","Exact","4328 ALBANY POST RD, HYDE PARK, NY, 12538",4226394,"L"
627615,"4328 BANNOCK AVE","SAN DIEGO","CA",92117,32.83288336,-117.199429433,115,"4328 BANNOCK AVE, SAN DIEGO, CA, 92117","Match","Exact","4328 BANNOCK AVE, SAN DIEGO, CA, 92117",195302655,"L"
627616,"4328 CORONA AVE","NORCO","CA",92860,33.9446053340001,-117.54553457,116,"4328 CORONA AVE, NORCO, CA, 92860","Match","Exact","4328 CORONA AVE, NORCO, CA, 92860",647493472,"L"
627617,"4328 CORPORATE SQUARE","NAPLES","FL",34104,26.1561212770001,-81.75849083,117,"4328 CORPORATE SQUARE, NAPLES, FL, 34104","Match","Exact","4328 CORPORATE SQ, NAPLES, FL, 34104",115149750,"L"
627618,"4328 CYNTHIA ST","BELLAIRE","TX",77041,29.693562716,-95.4480106359999,118,"4328 CYNTHIA ST, BELLAIRE, TX, 77041","Match","Non_Exact","4328 CYNTHIA ST, BELLAIRE, TX, 77401",96131930,"R"
627619,"4328 DON JULIO BLIVD","NORTH HIGHLANDS","CA",95660,38.688834383,-121.364807991,119,"4328 DON JULIO BLIVD, NORTH HIGHLANDS, CA, 95660","Match","Non_Exact","4328 DON JULIO BLVD, NORTH HIGHLANDS, CA, 95660",133331975,"R"
627620,"4328 ELIA STREET","BANQUETE","TX",78339,27.8050369850001,-97.7931922129999,120,"4328 ELIA STREET, BANQUETE, TX, 78339","Match","Exact","4328 ELIA ST, BANQUETE, TX, 78339",178526546,"R"
627621,"4328 ELM AVE","HAMMOND","IN",46327,41.635105593,-87.5013199639999,121,"4328 ELM AVE, HAMMOND, IN, 46327","Match","Exact","4328 ELM AVE, HAMMOND, IN, 46327",98416602,"R"
627622,"4328 FM 1301","WHARTON","TX",77488,29.315166011,-96.0331775499999,122,"4328 FM 1301, WHARTON, TX, 77488","Match","Exact","4328 FM 1301, WHARTON, TX, 77488",636443607,"L"
627623,"4328 GOLDEN GATE WAY","DUMFRIES","VA",22025,38.5723501680001,-77.338678282,123,"4328 GOLDEN GATE WAY, DUMFRIES, VA, 22025","Match","Exact","4328 GOLDEN GATE WAY, DUMFRIES, VA, 22025",614162110,"L"
627624,"4328 GOLDEN HILL DR","NASHVILLE","TN",37218,36.219360518,-86.8562144369999,124,"4328 GOLDEN HILL DR, NASHVILLE, TN, 37218","Match","Non_Exact","4328 GOLDEN HILLS DR, NASHVILLE, TN, 37218",97178304,"R"
627625,"4328 GROSBEAK GLEN","WINDSOR","WI",53598,43.214254775,-89.33026863,125,"4328 GROSBEAK GLEN, WINDSOR, WI, 53598","Match","Exact","4328 GROSBEAK GLEN, WINDSOR, WI, 53598",625065600,"L"
627626,"4328 HEDGE RD","ROXANA","IL",62084,38.816779669,-90.048225471,126,"4328 HEDGE RD, ROXANA, IL, 62084","Match","Exact","4328 HEDGE RD, ROXANA, IL, 62084",640580865,"L"
627627,"4328 HICKORY RD  2A","MISHAWAKA","IN",46545,41.699804342,-86.1970943759999,127,"4328 HICKORY RD  2A, MISHAWAKA, IN, 46545","Match","Exact","4328 HICKORY RD, MISHAWAKA, IN, 46545",8060153,"R"
627628,"4328 HOFFMAN RD","MOBILE","AL",36619,30.6009675880001,-88.223009894,128,"4328 HOFFMAN RD, MOBILE, AL, 36619","Match","Exact","4328 HOFFMAN RD, MOBILE, AL, 36619",61855089,"R"
627629,"4328 HWY S 52 N","NEWTON","IA",50208,NA,NA,129,"4328 HWY S 52 N, NEWTON, IA, 50208","No_Match",NA,NA,NA,NA
627630,"4328 HYER STREET","DALLAS","TX",75205,32.850198318,-96.809040053,130,"4328 HYER STREET, DALLAS, TX, 75205","Match","Exact","4328 HYER ST, DALLAS, TX, 75205",102906091,"R"
627631,"4328 ISLETA CT","LAS CRUCES","NM",88011,32.3651192840001,-106.729146568,131,"4328 ISLETA CT, LAS CRUCES, NM, 88011","Match","Exact","4328 ISLETA CT, LAS CRUCES, NM, 88011",625696216,"R"
627632,"4328 JAGUAR LOOP","SANTA FE","NM",87507,35.630508933,-106.035051652,132,"4328 JAGUAR LOOP, SANTA FE, NM, 87507","Match","Exact","4328 JAGUAR LOOP, SANTA FE, NM, 87507",641142918,"L"
627633,"4328 JEKER DRIVE","PLANO","TX",75074,33.0331610110001,-96.643125179,133,"4328 JEKER DRIVE, PLANO, TX, 75074","Match","Exact","4328 JEKER DR, PLANO, TX, 75074",210524730,"L"
627634,"4328 KARIBA LAKE TER","SARASOTA","FL",34243,27.397828932,-82.506478884,134,"4328 KARIBA LAKE TER, SARASOTA, FL, 34243","Match","Exact","4328 KARIBA LAKE TER, SARASOTA, FL, 34243",644370407,"R"
627635,"4328 LEVELSIDE AVE","LAKEWOOD","CA",90712,33.8371369710001,-118.156182323,135,"4328 LEVELSIDE AVE, LAKEWOOD, CA, 90712","Match","Exact","4328 LEVELSIDE AVE, LAKEWOOD, CA, 90712",642863485,"R"
627636,"4328 LISA CT","GULF BREEZE","FL",32563,30.391236115,-87.0422937929999,136,"4328 LISA CT, GULF BREEZE, FL, 32563","Match","Exact","4328 LISA CT, GULF BREEZE, FL, 32563",74566238,"R"
627637,"4328 MESSERSMITH DR","GREENWOOD","IN",46142,39.6117949800001,-86.185574687,137,"4328 MESSERSMITH DR, GREENWOOD, IN, 46142","Match","Exact","4328 MESSERSMITH DR, GREENWOOD, IN, 46142",114648598,"R"
627638,"4328 MOBLEYS BRIDGE ROAD","GRIMESLAND","NC",27837,35.564462093,-77.224839796,138,"4328 MOBLEYS BRIDGE ROAD, GRIMESLAND, NC, 27837","Match","Exact","4328 MOBLEYS BRIDGE RD, GRIMESLAND, NC, 27837",638316995,"R"
627639,"4328 OLCOTT AVE","EAST CHICAGO","IN",46312,41.6351875920001,-87.479446953,139,"4328 OLCOTT AVE, EAST CHICAGO, IN, 46312","Match","Exact","4328 OLCOTT AVE, EAST CHICAGO, IN, 46312",98418201,"R"
627640,"4328 PEARL CT","PLANO","TX",75024,33.084352494,-96.7767182919999,140,"4328 PEARL CT, PLANO, TX, 75024","Match","Exact","4328 PEARL CT, PLANO, TX, 75024",123530702,"R"
627641,"4328 PEEBLE DR","WILMINGTON","NC",28412,34.1658056580001,-77.92068525,141,"4328 PEEBLE DR, WILMINGTON, NC, 28412","Match","Exact","4328 PEEBLE DR, WILMINGTON, NC, 28412",636283926,"L"
627642,"4328 PENDER CT","MURFREESBORO","TN",37219,35.8702865710001,-86.489207074,142,"4328 PENDER CT, MURFREESBORO, TN, 37219","Match","Non_Exact","4328 PENDER CT, MURFREESBORO, TN, 37129",632950669,"R"
627643,"4328 PEPPERMILL LANE","CINCINNATI","OH",42242,39.230866319,-84.392137211,143,"4328 PEPPERMILL LANE, CINCINNATI, OH, 42242","Match","Non_Exact","4328 PEPPERMILL LN, CINCINNATI, OH, 45242",103948701,"L"
627644,"4328 PINE LAKE DRIVE","TERRY","MS",39170,32.183262948,-90.364089311,144,"4328 PINE LAKE DRIVE, TERRY, MS, 39170","Match","Exact","4328 PINE LAKE DR, TERRY, MS, 39170",616297918,"L"
627645,"4328 PLEASANT PATH","ELLICOTT CITY","MD",21043,39.250245159,-76.7843892669999,145,"4328 PLEASANT PATH, ELLICOTT CITY, MD, 21043","Match","Exact","4328 PLEASANT PATH, ELLICOTT CITY, MD, 21043",635560185,"R"
627646,"4328 RANDMORE ROAD","UPPER ARLINGTON","OH",43220,40.0450519300001,-83.064201893,146,"4328 RANDMORE ROAD, UPPER ARLINGTON, OH, 43220","Match","Exact","4328 RANDMORE RD, UPPER ARLINGTON, OH, 43220",218656494,"R"
627647,"4328 RIDGE AVE 207","PHILADELPHIA","PA",19129,40.01055533,-75.198207184,147,"4328 RIDGE AVE 207, PHILADELPHIA, PA, 19129","Match","Exact","4328 RIDGE AVE, PHILADELPHIA, PA, 19129",131400756,"L"
627648,"4328 S 200TH RD","HALFWAY","MO",65663,NA,NA,148,"4328 S 200TH RD, HALFWAY, MO, 65663","No_Match",NA,NA,NA,NA
627649,"4328 S DEBORAH ROAD","SPRINGFIELD","MO",65810,37.135978428,-93.330894879,149,"4328 S DEBORAH ROAD, SPRINGFIELD, MO, 65810","Match","Exact","4328 S DEBORAH RD, SPRINGFIELD, MO, 65810",76676407,"L"
627650,"4328 S NEW HOPE RD","GASTONIA","NC",28056,35.215573862,-81.082739233,150,"4328 S NEW HOPE RD, GASTONIA, NC, 28056","Match","Exact","4328 S NEW HOPE RD, GASTONIA, NC, 28056",649751083,"R"
627651,"4328 SAINTS LANE","GLOUCESTER","VA",23061,37.3314229150001,-76.447939877,151,"4328 SAINTS LANE, GLOUCESTER, VA, 23061","Match","Exact","4328 SAINTS LN, GLOUCESTER, VA, 23061",653496755,"R"
627652,"4328 SCORPIUS STREET HEC 328","ORLANDO","FL",32816,28.6017043370001,-81.1975305079999,152,"4328 SCORPIUS STREET HEC 328, ORLANDO, FL, 32816","Match","Exact","4328 SCORPIUS ST, ORLANDO, FL, 32816",640907625,"R"
627653,"4328 SOUTH EDGEWOOD TER","FORT WORTH","TX",76119,32.7010832880001,-97.25349643,153,"4328 SOUTH EDGEWOOD TER, FORT WORTH, TX, 76119","Match","Non_Exact","4328 EDGEWOOD TER, FORT WORTH, TX, 76119",101899416,"R"
627654,"4328 ST CLAIR AVENUE","STUDIO CITY","CA",91604,34.149133568,-118.39980431,154,"4328 ST CLAIR AVENUE, STUDIO CITY, CA, 91604","Match","Exact","4328 SAINT CLAIR AVE, STUDIO CITY, CA, 91604",141565727,"R"
627655,"4328 STROMBOLI DRIVE","PLANO","TX",75093,33.0541314010001,-96.777995856,155,"4328 STROMBOLI DRIVE, PLANO, TX, 75093","Match","Exact","4328 STROMBOLI DR, PLANO, TX, 75093",210476661,"R"
627656,"4328 SWEET CLOVER LN","CROWLEY","TX",76036,32.590561172,-97.386284643,156,"4328 SWEET CLOVER LN, CROWLEY, TX, 76036","Match","Exact","4328 SWEET CLOVER LN, CROWLEY, TX, 76036",637603368,"R"
627657,"4328 TANEY AVE APT 203","ALEXANDRIA","VA",22304,38.8149116590001,-77.1055772669999,157,"4328 TANEY AVE APT 203, ALEXANDRIA, VA, 22304","Match","Exact","4328 TANEY AVE, ALEXANDRIA, VA, 22304",76066513,"L"
627658,"4328 VINE RIDGE COURT","ARLINGTON","TX",76017,32.6624423690001,-97.1783220679999,158,"4328 VINE RIDGE COURT, ARLINGTON, TX, 76017","Match","Exact","4328 VINE RIDGE CT, ARLINGTON, TX, 76017",101945921,"R"
627659,"4328 W ROUNDHOUSE APT 1","SWARTZ CREEK","MI",48473,NA,NA,159,"4328 W ROUNDHOUSE APT 1, SWARTZ CREEK, MI, 48473","No_Match",NA,NA,NA,NA
627660,"4328 WOODLAKE DRIVE","FORT WORTH","TX",76135,32.819940386,-97.421480699,160,"4328 WOODLAKE DRIVE, FORT WORTH, TX, 76135","Match","Exact","4328 WOODLAKE DR, FORT WORTH, TX, 76135",102097714,"R"
627661,"4328 WOODLAKE DRIVE","FORT WORTH,","TX",76135,32.819940386,-97.421480699,161,"4328 WOODLAKE DRIVE, FORT WORTH,, TX, 76135","Match","Exact","4328 WOODLAKE DR, FORT WORTH, TX, 76135",102097714,"R"
627662,"4328 WOODLAKE DRIVE","LAKE WORTH","TX",76135,32.819940386,-97.421480699,162,"4328 WOODLAKE DRIVE, LAKE WORTH, TX, 76135","Match","Exact","4328 WOODLAKE DR, LAKE WORTH, TX, 76135",102097714,"R"
627663,"4328 WYOMING STREET","KANSAS CITY","MO",64111,39.049516227,-94.604524786,163,"4328 WYOMING STREET, KANSAS CITY, MO, 64111","Match","Exact","4328 WYOMING ST, KANSAS CITY, MO, 64111",91446749,"R"
627664,"43280 W PLEASANT RIDGE RD","HAMMOND","LA",70403,30.4875491390001,-90.4273154649999,164,"43280 W PLEASANT RIDGE RD, HAMMOND, LA, 70403","Match","Exact","43280 W PLEASANT RIDGE RD, HAMMOND, LA, 70403",75764993,"R"
627665,"43284 WELLBORNE WOODS DRIVE","ASHBURN","VA",20148,38.9865107630001,-77.504457762,165,"43284 WELLBORNE WOODS DRIVE, ASHBURN, VA, 20148","Match","Non_Exact","43284 WELBOURNE WOODS DR, ASHBURN, VA, 20148",62353363,"L"
627666,"43285 BIG PINE DR","RONAN","MT",59864,47.581412636,-114.059150509,166,"43285 BIG PINE DR, RONAN, MT, 59864","Match","Exact","43285 BIG PINE DR, RONAN, MT, 59864",206903730,"R"
627667,"43285 JUDD RD","BELLEVILLE","MI",48111,42.1448147620001,-83.459352896,167,"43285 JUDD RD, BELLEVILLE, MI, 48111","Match","Exact","43285 JUDD RD, BELLEVILLE, MI, 48111",95453618,"R"
627668,"43288 CHATTERTON CT","FREMONT","CA",94538,37.517248825,-121.951523866,168,"43288 CHATTERTON CT, FREMONT, CA, 94538","Match","Exact","43288 CHATTERTON CT, FREMONT, CA, 94538",125034050,"L"
627669,"43289 CARLYLE PLACE","CLINTON TWP","MI",48038,42.6146560930001,-82.964400197,169,"43289 CARLYLE PLACE, CLINTON TWP, MI, 48038","Match","Exact","43289 CARLYLE PL, CLINTON TOWNSHIP, MI, 48038",641541796,"L"
627670,"4329 ANNALEA DRIVE","FORTH WORTH","TX",76123,32.6109386360001,-97.3873045129999,170,"4329 ANNALEA DRIVE, FORTH WORTH, TX, 76123","Match","Exact","4329 ANNALEA DR, FORT WORTH, TX, 76123",619868726,"L"
627671,"4329 AVENIDA SOLEDAD","OCEANSIDE","CA",92057,33.2313556190001,-117.305727436,171,"4329 AVENIDA SOLEDAD, OCEANSIDE, CA, 92057","Match","Exact","4329 AVE SOLEDAD, OCEANSIDE, CA, 92057",195418966,"R"
627672,"4329 BARRY MEADOWS COVE","MEMPHIS","TN",38125,35.0304915570001,-89.7991164219999,172,"4329 BARRY MEADOWS COVE, MEMPHIS, TN, 38125","Match","Exact","4329 BARRY MEADOWS COVE, MEMPHIS, TN, 38125",607502856,"R"
627673,"4329 BEN GUNN ROAD","VIRGINIA BEACH","VA",23455,36.909424604,-76.120244583,173,"4329 BEN GUNN ROAD, VIRGINIA BEACH, VA, 23455","Match","Exact","4329 BEN GUNN RD, VIRGINIA BCH, VA, 23455",122259841,"L"
627674,"4329 BLACKBEARD ROAD","VIRGINIA BEACH","VA",23455,36.9074926760001,-76.122242703,174,"4329 BLACKBEARD ROAD, VIRGINIA BEACH, VA, 23455","Match","Exact","4329 BLACKBEARD RD, VIRGINIA BCH, VA, 23455",122259956,"L"
627675,"4329 BLAIR COVE NO 64","JONESBORO","AR",72404,35.7862299430001,-90.690456776,175,"4329 BLAIR COVE NO 64, JONESBORO, AR, 72404","Match","Non_Exact","4329 BLAIR COVE, JONESBORO, AR, 72404",623719121,"R"
627676,"4329 BUCKINGHAM AVE","DETROIT","MI",48224,42.396252497,-82.940761601,176,"4329 BUCKINGHAM AVE, DETROIT, MI, 48224","Match","Exact","4329 BUCKINGHAM AVE, DETROIT, MI, 48224",95487227,"L"
627677,"4329 CARMELO OAKS CT","SACRAMENTO","CA",95841,38.654683784,-121.363975607,177,"4329 CARMELO OAKS CT, SACRAMENTO, CA, 95841","Match","Exact","4329 CARMELO OAKS CT, SACRAMENTO, CA, 95841",624518236,"L"
627678,"4329 CRESTRIDGE STREET","LARAMIE","WY",82070,41.2953252730001,-105.539853696,178,"4329 CRESTRIDGE STREET, LARAMIE, WY, 82070","Match","Exact","4329 CRESTRIDGE ST, LARAMIE, WY, 82070",646498785,"L"
627679,"4329 CROW CREEK DRIVE","COLORADO SPRINGS","CO",80922,38.894617644,-104.691051242,179,"4329 CROW CREEK DRIVE, COLORADO SPRINGS, CO, 80922","Match","Exact","4329 CROW CREEK DR, COLORADO SPRINGS, CO, 80922",105575563,"L"
627680,"4329 CRYSTAL AVENUE NE","SALEM","OR",97305,44.9975170930001,-122.973225247,180,"4329 CRYSTAL AVENUE NE, SALEM, OR, 97305","Match","Exact","4329 CRYSTAL AVE NE, SALEM, OR, 97305",156269757,"L"
627681,"4329 FAIRBLUFF RD","HEPHIZABAH","GA",30815,33.3155402450001,-81.986904951,181,"4329 FAIRBLUFF RD, HEPHIZABAH, GA, 30815","Match","Non_Exact","4329 FAIRBLUFF RD, HEPHZIBAH, GA, 30815",55629060,"L"
627682,"4329 FOREST SPRINGS DRIVE","MONROE","NC",28112,34.935583508,-80.656436125,182,"4329 FOREST SPRINGS DRIVE, MONROE, NC, 28112","Match","Exact","4329 FOREST SPRINGS DR, MONROE, NC, 28112",642590079,"L"
627683,"4329 FOX HILLS DR","JANESVILLE","WI",53546,42.732777228,-88.985283957,183,"4329 FOX HILLS DR, JANESVILLE, WI, 53546","Match","Exact","4329 FOX HILLS DR, JANESVILLE, WI, 53546",617256536,"L"
627684,"4329 GORDON STREET","BETHLEHEM","PA",18020,40.675013033,-75.310306703,184,"4329 GORDON STREET, BETHLEHEM, PA, 18020","Match","Exact","4329 GORDON ST, BETHLEHEM, PA, 18020",136925421,"L"
627685,"4329 HARBY STREET","HOUSTON","TX",77023,29.7334932250001,-95.337867917,185,"4329 HARBY STREET, HOUSTON, TX, 77023","Match","Exact","4329 HARBY ST, HOUSTON, TX, 77023",96621348,"L"
627686,"4329 HAWTHORNE STREET NW","WASHINGTON","DC",20016,38.928880301,-77.085123328,186,"4329 HAWTHORNE STREET NW, WASHINGTON, DC, 20016","Match","Exact","4329 HAWTHORNE ST NW, WASHINGTON, DC, 20016",76237644,"R"
627687,"4329 HYDE PARK DR","CHARLOTTE","NC",28216,35.3171852580001,-80.863047985,187,"4329 HYDE PARK DR, CHARLOTTE, NC, 28216","Match","Exact","4329 HYDE PARK DR, CHARLOTTE, NC, 28216",70471464,"L"
627688,"4329 LAKE AVE","INTERLOCHEN","MI",49643,44.623580395,-85.757271552,188,"4329 LAKE AVE, INTERLOCHEN, MI, 49643","Match","Exact","4329 LAKE AVE, INTERLOCHEN, MI, 49643",145528346,"R"
627689,"4329 LEELAND STREET APT G","HOUSTON","TX",77023,29.7366782120001,-95.3371834169999,189,"4329 LEELAND STREET APT G, HOUSTON, TX, 77023","Match","Exact","4329 LEELAND ST, HOUSTON, TX, 77023",96073730,"L"
627690,"4329 MAMMOTH CREEK DR","LAS VEGAS","NV",89147,36.1104920290001,-115.267107449,190,"4329 MAMMOTH CREEK DR, LAS VEGAS, NV, 89147","Match","Exact","4329 MAMMOTH CREEK DR, LAS VEGAS, NV, 89147",201900497,"R"
627691,"4329 MARIETTA STREET","POWDER SPRINGS","GA",30127,33.859440212,-84.681114437,191,"4329 MARIETTA STREET, POWDER SPRINGS, GA, 30127","Match","Exact","4329 MARIETTA ST, POWDER SPGS, GA, 30127",17225758,"L"
627692,"4329 MYLAN RD","RICHMOND","VA",23223,37.5728432230001,-77.35633868,192,"4329 MYLAN RD, RICHMOND, VA, 23223","Match","Exact","4329 MYLAN RD, RICHMOND, VA, 23223",638657145,"R"
627693,"4329 NW 56TH STREET","OKLAHOMA CITY","OK",73112,35.527553117,-97.597416744,193,"4329 NW 56TH STREET, OKLAHOMA CITY, OK, 73112","Match","Exact","4329 NW 56TH ST, OKLAHOMA CITY, OK, 73112",645598468,"R"
627694,"4329 PEARL CT","PLANO","TX",75024,33.084363319,-96.776720375,194,"4329 PEARL CT, PLANO, TX, 75024","Match","Exact","4329 PEARL CT, PLANO, TX, 75024",123530702,"L"
627695,"4329 PENTENWELL LANE","SOUTH JORDAN","UT",84009,40.5570819820001,-111.993899163,195,"4329 PENTENWELL LANE, SOUTH JORDAN, UT, 84009","Match","Non_Exact","4329 W PENTENWELL LN, SOUTH JORDAN, UT, 84009",617910390,"R"
627696,"4329 RYAN COURT","GARY","IN",46403,41.597304804,-87.2842978259999,196,"4329 RYAN COURT, GARY, IN, 46403","Match","Exact","4329 RYAN CT, GARY, IN, 46403",98427686,"R"
627697,"4329 S 78TH","QUINCY","IL",62305,39.8785400520001,-91.292926623,197,"4329 S 78TH, QUINCY, IL, 62305","Match","Non_Exact","4329 S 78TH ST, QUINCY, IL, 62305",35081362,"R"
627698,"4329 SANTA RITA STREET","EL PASO","TX",79902,31.799849963,-106.502524219,198,"4329 SANTA RITA STREET, EL PASO, TX, 79902","Match","Exact","4329 SANTA RITA ST, EL PASO, TX, 79902",189373930,"L"
627699,"4329 SE 3RD STREET","RENTON","WA",98059,47.480733592,-122.160821119,199,"4329 SE 3RD STREET, RENTON, WA, 98059","Match","Exact","4329 SE 3RD ST, RENTON, WA, 98059",239773849,"L"
627700,"4329 SELKIRK DRIVE WEST","FORT WORTH","TX",76109,32.6805305570001,-97.3873207889999,200,"4329 SELKIRK DRIVE WEST, FORT WORTH, TX, 76109","Match","Exact","4329 SELKIRK DR W, FORT WORTH, TX, 76109",101882318,"L"
627701,"4329 SERENE CR","FRUITLAND PARK","FL",34731,28.8623108460001,-81.881975217,201,"4329 SERENE CR, FRUITLAND PARK, FL, 34731","Match","Exact","4329 SERENE CIR, FRUITLAND PARK, FL, 34731",94139889,"R"
627702,"4329 STANHOPE STREET","UNIVERSITY PARK","TX",75205,32.841269917,-96.808200385,202,"4329 STANHOPE STREET, UNIVERSITY PARK, TX, 75205","Match","Non_Exact","4329 STANHOPE ST, DALLAS, TX, 75205",102906544,"L"
627703,"4329 TACOMA TRACE","SUWANEE","GA",30024,34.066805721,-84.075842209,203,"4329 TACOMA TRACE, SUWANEE, GA, 30024","Match","Exact","4329 TACOMA TRCE, SUWANEE, GA, 30024",645840380,"L"
627704,"4329 UPVIEW TERRACE","PITTSBURGH","PA",15201,40.479982992,-79.943822353,204,"4329 UPVIEW TERRACE, PITTSBURGH, PA, 15201","Match","Exact","4329 UPVIEW TER, PITTSBURGH, PA, 15201",51932980,"L"
627705,"4329 VAN NESS ST NW","WASHINGTON","DC",20016,38.9431710360001,-77.084558207,205,"4329 VAN NESS ST NW, WASHINGTON, DC, 20016","Match","Exact","4329 VAN NESS ST NW, WASHINGTON, DC, 20016",76219850,"R"
627706,"4329 VAN NUYS BLVD APT 1","SHERMAN OAKS","CA",91403,34.1498556010001,-118.448953354,206,"4329 VAN NUYS BLVD APT 1, SHERMAN OAKS, CA, 91403","Match","Exact","4329 VAN NUYS BLVD, SHERMAN OAKS, CA, 91403",141562379,"L"
627707,"4329 W NORTHWEST BLVD","SPOKANE","WA",99205,47.698902746,-117.474844302,207,"4329 W NORTHWEST BLVD, SPOKANE, WA, 99205","Match","Exact","4329 W NORTHWEST BLVD, SPOKANE, WA, 99205",605648562,"L"
627708,"4329 WOOD DUCK WAY","RACINE","WI",53403,42.680563636,-87.8209858869999,208,"4329 WOOD DUCK WAY, RACINE, WI, 53403","Match","Exact","4329 WOOD DUCK WAY, RACINE, WI, 53403",639768163,"R"
627709,"4329 WOODS DR","OKLAHOMA CITY","OK",73111,35.5155681200001,-97.490988702,209,"4329 WOODS DR, OKLAHOMA CITY, OK, 73111","Match","Exact","4329 WOODS DR, OKLAHOMA CITY, OK, 73111",100401122,"L"
627710,"4329 WORDSWORTH CREEK DR","CORPUS CHRISTI","TX",78410,NA,NA,210,"4329 WORDSWORTH CREEK DR, CORPUS CHRISTI, TX, 78410","No_Match",NA,NA,NA,NA
627711,"4329 YOUNG ROAD","WALDORF","MD",20601,38.591214544,-76.788321368,211,"4329 YOUNG ROAD, WALDORF, MD, 20601","Match","Exact","4329 YOUNG RD, WALDORF, MD, 20601",25392258,"L"
627712,"43290 180TH STREET","VIENNA","SD",57271,44.77550094,-97.554115655,212,"43290 180TH STREET, VIENNA, SD, 57271","Match","Exact","43290 180TH ST, VIENNA, SD, 57271",650297798,"R"
627713,"43293 RIVERSIDE DR","PRAIRIEVILLE","LA",70769,30.3422682400001,-90.87791995,213,"43293 RIVERSIDE DR, PRAIRIEVILLE, LA, 70769","Match","Exact","43293 RIVERSIDE DR, PRAIRIEVILLE, LA, 70769",650985944,"R"
627714,"43296 LITTLE SAND RD","HINCKLEY","MN",55037,46.0461041400001,-92.656130896,214,"43296 LITTLE SAND RD, HINCKLEY, MN, 55037","Match","Exact","43296 LITTLE SAND RD, HINCKLEY, MN, 55037",163105737,"R"
627715,"43299 W PLEASANT RIDGE RD","HAMMOND","LA",70403,30.487285512,-90.427329371,215,"43299 W PLEASANT RIDGE RD, HAMMOND, LA, 70403","Match","Exact","43299 W PLEASANT RIDGE RD, HAMMOND, LA, 70403",75764993,"L"
627716,"432A COLONIAL DR","LANCASTER","SC",29720,34.731397944,-80.782990765,216,"432A COLONIAL DR, LANCASTER, SC, 29720","Match","Exact","432 COLONIAL DR, LANCASTER, SC, 29720",40709407,"L"
627717,"433  W 12TH STREET","NEWPORT","KY",41071,39.0805301980001,-84.494297009,217,"433  W 12TH STREET, NEWPORT, KY, 41071","Match","Exact","433 W 12TH ST, NEWPORT, KY, 41071",104447520,"R"
627718,"433 18TH ST","SANTA MONICA","CA",90402,34.039032155,-118.49590393,218,"433 18TH ST, SANTA MONICA, CA, 90402","Match","Exact","433 18TH ST, SANTA MONICA, CA, 90402",141558986,"L"
627719,"433 3 400TH ROAD","FAIR PLAY","MO",65649,NA,NA,219,"433 3 400TH ROAD, FAIR PLAY, MO, 65649","No_Match",NA,NA,NA,NA
627720,"433 33RD STREET","MANHATTAN BEACH","CA",90266,33.8989967950001,-118.414946504,220,"433 33RD STREET, MANHATTAN BEACH, CA, 90266","Match","Exact","433 33RD ST, MANHATTAN BEACH, CA, 90266",141580440,"L"
627721,"433 34TH AVE DR E BUILD 16","BRADENTON","FL",34297,27.468814262,-82.559577921,221,"433 34TH AVE DR E BUILD 16, BRADENTON, FL, 34297","Match","Non_Exact","433 34TH AVENUE DR E, BRADENTON, FL, 34208",16278145,"L"
627722,"433 4-H LAKE ROAD","DANIELS","WV",25832,NA,NA,222,"433 4-H LAKE ROAD, DANIELS, WV, 25832","No_Match",NA,NA,NA,NA
627723,"433 8TH AVE NE","TUSCALOOSA","AL",35404,33.220479852,-87.525496018,223,"433 8TH AVE NE, TUSCALOOSA, AL, 35404","Match","Exact","433 8TH AVE NE, TUSCALOOSA, AL, 35404",82150330,"R"
627724,"433 AIRPORT BLVD SUITE 206W","BURLINGAME","CA",94010,37.589745614,-122.34134226,224,"433 AIRPORT BLVD SUITE 206W, BURLINGAME, CA, 94010","Match","Exact","433 AIRPORT BLVD, BURLINGAME, CA, 94010",641279208,"L"
627725,"433 ALCOTT STREET","PHILADELPHIA","PA",19120,40.0442921170001,-75.1049751419999,225,"433 ALCOTT STREET, PHILADELPHIA, PA, 19120","Match","Exact","433 ALCOTT ST, PHILADELPHIA, PA, 19120",131414864,"L"
627726,"433 ALEX D OWENS DRIVE","KINGS MOUNTAIN","NC",28086,35.1877213330001,-81.350903146,226,"433 ALEX D OWENS DRIVE, KINGS MOUNTAIN, NC, 28086","Match","Exact","433 ALEX D OWENS DR, KINGS MOUNTAIN, NC, 28086",19336959,"R"
627727,"433 ALFRED STREET","ALBEMADE","NC",28001,35.3466343860001,-80.184636263,227,"433 ALFRED STREET, ALBEMADE, NC, 28001","Match","Non_Exact","433 ALFRED ST, ALBEMARLE, NC, 28001",14081556,"R"
627728,"433 ARBOR TRAIL","THOMASVILLE","NC",27360,35.8729453350001,-80.172084962,228,"433 ARBOR TRAIL, THOMASVILLE, NC, 27360","Match","Exact","433 ARBOR TRL, THOMASVILLE, NC, 27360",20239825,"L"
627729,"433 AUSTIN AVE","DOWNERS GROVE","IL",60515,41.797686834,-87.996107434,229,"433 AUSTIN AVE, DOWNERS GROVE, IL, 60515","Match","Non_Exact","433 AUSTIN ST, DOWNERS GROVE, IL, 60515",112701147,"L"
627730,"433 BARKLEY CT","NASHVILLE","TN",37013,36.0362386190001,-86.678427626,230,"433 BARKLEY CT, NASHVILLE, TN, 37013","Match","Non_Exact","433 BARKLEY CT, CANE RIDGE, TN, 37013",97207971,"L"
627731,"433 BAYARD AVE","WILMINGTON","DE",19805,39.750462246,-75.575089421,231,"433 BAYARD AVE, WILMINGTON, DE, 19805","Match","Exact","433 BAYARD AVE, WILMINGTON, DE, 19805",639027473,"L"
627732,"433 BEACH 40TH ST","FAR ROCKAWAY","NY",11691,NA,NA,232,"433 BEACH 40TH ST, FAR ROCKAWAY, NY, 11691","No_Match",NA,NA,NA,NA
627733,"433 BEACH AVENUE","MANARONECK","NY",10543,40.955833209,-73.730606439,233,"433 BEACH AVENUE, MANARONECK, NY, 10543","Match","Non_Exact","433 BEACH AVE, MAMARONECK, NY, 10543",139755295,"R"
627734,"433 BINNS BOULEVARD","COLUMBUS","OH",43204,39.945558572,-83.079016038,234,"433 BINNS BOULEVARD, COLUMBUS, OH, 43204","Match","Exact","433 BINNS BLVD, COLUMBUS, OH, 43204",218677958,"R"
627735,"433 BIRCH RD","HELLERTOWN","PA",18055,40.5774850020001,-75.3296407989999,235,"433 BIRCH RD, HELLERTOWN, PA, 18055","Match","Exact","433 BIRCH RD, HELLERTOWN, PA, 18055",136887032,"R"
627736,"433 BLUEBIRD CIRCLE","CHATTANOOGA","TN",37412,34.9921355540001,-85.183422407,236,"433 BLUEBIRD CIRCLE, CHATTANOOGA, TN, 37412","Match","Exact","433 BLUEBIRD CIR, CHATTANOOGA, TN, 37412",59327182,"L"
627737,"433 BRAMHALL AVENUE","JERSEY CITY","NJ",7304,40.712465385,-74.0695519079999,237,"433 BRAMHALL AVENUE, JERSEY CITY, NJ, 7304","Match","Exact","433 BRAMHALL AVE, JERSEY CITY, NJ, 07304",59604747,"L"
627738,"433 BRANCH FOREST WAY","STOCKBRIDGE","GA",30281,33.598486634,-84.1851154509999,238,"433 BRANCH FOREST WAY, STOCKBRIDGE, GA, 30281","Match","Exact","433 BRANCH FOREST WAY, STOCKBRIDGE, GA, 30281",634028254,"L"
627739,"433 BRISTLECONE ROAD","FAYETTEVILLE","NC",28311,35.109999723,-78.8862733839999,239,"433 BRISTLECONE ROAD, FAYETTEVILLE, NC, 28311","Match","Non_Exact","433 BRISTLECONE DR, FAYETTEVILLE, NC, 28311",64229357,"R"
627740,"433 BROADWAY SUITE 428","NEW YORK","NY",10013,40.7200146480001,-74.001366401,240,"433 BROADWAY SUITE 428, NEW YORK, NY, 10013","Match","Exact","433 BROADWAY, NEW YORK, NY, 10013",59660300,"L"
627741,"433 BROOK RIDGE AVE","ATLANTA","GA",30340,33.902014395,-84.237107183,241,"433 BROOK RIDGE AVE, ATLANTA, GA, 30340","Match","Exact","433 BROOK RIDGE AVE, ATLANTA, GA, 30340",23397038,"R"
627742,"433 CADENZA DRIVE","ORLANDO","FL",32807,28.546751064,-81.307364121,242,"433 CADENZA DRIVE, ORLANDO, FL, 32807","Match","Exact","433 CADENZA DR, ORLANDO, FL, 32807",94372511,"L"
627743,"433 CALLAN AVENUE SUITE 206","SAN LEANDRO","CA",94577,37.727021086,-122.152098525,243,"433 CALLAN AVENUE SUITE 206, SAN LEANDRO, CA, 94577","Match","Exact","433 CALLAN AVE, SAN LEANDRO, CA, 94577",125012300,"R"
627744,"433 CAMDEN DRIVE SUITE 600","BEVERLY HILLS","CA",90210,34.0689928410001,-118.404465418,244,"433 CAMDEN DRIVE SUITE 600, BEVERLY HILLS, CA, 90210","Match","Non_Exact","433 N CAMDEN DR, BEVERLY HILLS, CA, 90210",141571560,"L"
627745,"433 CANYON POINT CIRCLE","GOLDEN","CO",80401,39.7590849150001,-105.237245909,245,"433 CANYON POINT CIRCLE, GOLDEN, CO, 80401","Match","Non_Exact","433 CANYON POINT CIR, GOLDEN, CO, 80403",177780449,"R"
627746,"433 CANYON RD / BOX 1377","SUNDANCE","WY",82729,44.4135606610001,-104.393116643,246,"433 CANYON RD / BOX 1377, SUNDANCE, WY, 82729","Match","Exact","433 CANYON RD, SUNDANCE, WY, 82729",622053523,"L"
627747,"433 CAPEN HALL","BUFFALO","NY",14260,NA,NA,247,"433 CAPEN HALL, BUFFALO, NY, 14260","No_Match",NA,NA,NA,NA
627748,"433 CARRIAGE DR APT 3C","WEST CHICAGO","IL",60185,41.8607390080001,-88.1983833419999,248,"433 CARRIAGE DR APT 3C, WEST CHICAGO, IL, 60185","Match","Exact","433 CARRIAGE DR, WEST CHICAGO, IL, 60185",112733230,"L"
627749,"433 CEDAR STREET","HAZARD","KY",41701,NA,NA,249,"433 CEDAR STREET, HAZARD, KY, 41701","No_Match",NA,NA,NA,NA
627750,"433 CENTER AVE","GREENSBURG","PA",15601,40.309298133,-79.5432422549999,250,"433 CENTER AVE, GREENSBURG, PA, 15601","Match","Exact","433 CENTER AVE, GREENSBURG, PA, 15601",647472655,"L"
627751,"433 CENTER ROAD","BRADFORD","NH",3221,43.241065179,-71.968860515,251,"433 CENTER ROAD, BRADFORD, NH, 3221","Match","Exact","433 CENTER RD, BRADFORD, NH, 03221",117713668,"L"
627752,"433 CENTRAL AVE SUITE 400","ST PETERSBURG","FL",33701,27.7712138050001,-82.63908601,252,"433 CENTRAL AVE SUITE 400, ST PETERSBURG, FL, 33701","Match","Exact","433 CENTRAL AVE, SAINT PETERSBURG, FL, 33701",124708198,"R"
627753,"433 CHAPEL RIDGE DR APT E","HAZELWOOD","MO",63042,38.7724572390001,-90.3728504379999,253,"433 CHAPEL RIDGE DR APT E, HAZELWOOD, MO, 63042","Match","Exact","433 CHAPEL RIDGE DR, HAZELWOOD, MO, 63042",604463749,"R"
627754,"433 CHARITY CIR 1109","LANSING","MI",NA,42.737732727,-84.6643107089999,254,"433 CHARITY CIR 1109, LANSING, MI, ","Match","Exact","433 CHARITY CIR, LANSING, MI, 48917",12034474,"R"
627755,"433 CHERRY CREEK DRIVE","LOGANVILLE","GA",30052,33.856422299,-83.9306028949999,255,"433 CHERRY CREEK DRIVE, LOGANVILLE, GA, 30052","Match","Exact","433 CHERRY CREEK DR, LOGANVILLE, GA, 30052",627669514,"L"
627756,"433 CHERRY ST","MACON","GA",31201,32.8350058390001,-83.626396888,256,"433 CHERRY ST, MACON, GA, 31201","Match","Exact","433 CHERRY ST, MACON, GA, 31201",81062962,"R"
627757,"433 CHESTNUT ST","READING","PA",19602,40.3322030640001,-75.92879235,257,"433 CHESTNUT ST, READING, PA, 19602","Match","Exact","433 CHESTNUT ST, READING, PA, 19602",80383163,"L"
627758,"433 CHESTNUT","GRANDVIEW","WA",98930,NA,NA,258,"433 CHESTNUT, GRANDVIEW, WA, 98930","No_Match",NA,NA,NA,NA
627759,"433 CHURCH STREET NORTH","CONCORD","NC",28025,35.4220600690001,-80.591259505,259,"433 CHURCH STREET NORTH, CONCORD, NC, 28025","Match","Exact","433 CHURCH ST N, CONCORD, NC, 28025",24899049,"L"
627760,"433 CLINTON AVENUE","OAK PARK","IL",60302,41.8810745600001,-87.798438779,260,"433 CLINTON AVENUE, OAK PARK, IL, 60302","Match","Exact","433 CLINTON AVE, OAK PARK, IL, 60302",111752814,"R"
627761,"433 COLLINGS AVENUE","COLLINGSWOOD","NJ",8107,39.912002269,-75.081435557,261,"433 COLLINGS AVENUE, COLLINGSWOOD, NJ, 8107","Match","Exact","433 COLLINGS AVE, COLLINGSWOOD, NJ, 08107",134349507,"R"
627762,"433 COOPERS HAWK DR","ASHEVILLE","NC",28803,35.4949903790001,-82.5563798009999,262,"433 COOPERS HAWK DR, ASHEVILLE, NC, 28803","Match","Exact","433 COOPERS HAWK DR, ASHEVILLE, NC, 28803",633842157,"R"
627763,"433 CORRINE COURT","LAPLACE","LA",70068,30.08051633,-90.489752147,263,"433 CORRINE COURT, LAPLACE, LA, 70068","Match","Non_Exact","433 CORRINE CT, LA PLACE, LA, 70068",93690229,"R"
627764,"433 COWEE CREEK ROAD","FRANKLIN","NC",28734,35.261859369,-83.407580273,264,"433 COWEE CREEK ROAD, FRANKLIN, NC, 28734","Match","Exact","433 COWEE CREEK RD, FRANKLIN, NC, 28734",35481873,"R"
627765,"433 CR 3501","EMORY","TX",75440,32.9228884240001,-95.715516227,265,"433 CR 3501, EMORY, TX, 75440","Match","Exact","433 CO RD 3501, EMORY, TX, 75440",634310102,"R"
627766,"433 CR 4570","WINNSBORO","TX",75494,32.889502856,-95.20301949,266,"433 CR 4570, WINNSBORO, TX, 75494","Match","Exact","433 CO RD 4570, WINNSBORO, TX, 75494",42997562,"L"
627767,"433 DAISY LN","HURDLE MILLS","NC",27541,36.263249875,-79.0465140809999,267,"433 DAISY LN, HURDLE MILLS, NC, 27541","Match","Exact","433 DAISY LN, HURDLE MILLS, NC, 27541",77216789,"R"
627768,"433 DAVIS DRIVE","CAMPBELLSVILLE","KY",42718,37.316884696,-85.400725725,268,"433 DAVIS DRIVE, CAMPBELLSVILLE, KY, 42718","Match","Non_Exact","433 DAVIS RD, CAMPBELLSVILLE, KY, 42718",635388896,"L"
627769,"433 DELMAR TERRACE S APT 4","ST. PETERSBURG","FL",33701,27.766438179,-82.639088516,269,"433 DELMAR TERRACE S APT 4, ST. PETERSBURG, FL, 33701","Match","Exact","433 DELMAR TER S, SAINT PETERSBURG, FL, 33701",124708252,"R"
627770,"433 DOERSCH TRAIL","SEYMOUR","WI",54165,44.5086539540001,-88.337201985,270,"433 DOERSCH TRAIL, SEYMOUR, WI, 54165","Match","Exact","433 DOERSCH TRL, SEYMOUR, WI, 54165",74881927,"L"
627771,"433 DOVE STREET","DUNKIRK","NY",14048,42.4817908160001,-79.3388840699999,271,"433 DOVE STREET, DUNKIRK, NY, 14048","Match","Exact","433 DOVE ST, DUNKIRK, NY, 14048",120757447,"L"
627772,"433 DUKE AVENUE","NORTH LAS VEGAS","NV",89030,36.2082686620001,-115.146211552,272,"433 DUKE AVENUE, NORTH LAS VEGAS, NV, 89030","Match","Exact","433 DUKE AVE, N LAS VEGAS, NV, 89030",201865947,"L"
627773,"433 E 45TH STREET","CHICAGO","IL",60653,41.8121216650001,-87.615479399,273,"433 E 45TH STREET, CHICAGO, IL, 60653","Match","Non_Exact","433 E 45TH PL, CHICAGO, IL, 60653",605591408,"R"
627774,"433 E 6TH ST","MOSCOW","ID",83843,46.730157209,-116.995603842,274,"433 E 6TH ST, MOSCOW, ID, 83843","Match","Exact","433 E 6TH ST, MOSCOW, ID, 83843",193850466,"L"
627775,"433 E 74TH STREET","NEW YORK","NY",10021,40.768499843,-73.953553077,275,"433 E 74TH STREET, NEW YORK, NY, 10021","Match","Exact","433 E 74TH ST, NEW YORK, NY, 10021",650156955,"L"
627776,"433 E CHIPPEWA ST","CADOTT","WI",54727,44.944567518,-91.1456360079999,276,"433 E CHIPPEWA ST, CADOTT, WI, 54727","Match","Exact","433 E CHIPPEWA ST, CADOTT, WI, 54727",78921435,"L"
627777,"433 E GREENFIELD","LOMBARD","IL",60148,41.893246161,-88.0061838569999,277,"433 E GREENFIELD, LOMBARD, IL, 60148","Match","Non_Exact","433 E GREENFIELD AVE, LOMBARD, IL, 60148",112524587,"R"
627778,"433 E MAIN ST","GREENSBURG","IN",47240,39.3366933660001,-85.4787731489999,278,"433 E MAIN ST, GREENSBURG, IN, 47240","Match","Exact","433 E MAIN ST, GREENSBURG, IN, 47240",31182877,"L"
627779,"433 EAST 51ST STREET APT 9B","NEW YORK","NY",10022,40.7539862840001,-73.964450196,279,"433 EAST 51ST STREET APT 9B, NEW YORK, NY, 10022","Match","Exact","433 E 51ST ST, NEW YORK, NY, 10022",59658742,"L"
627780,"433 EAST 51ST STREET APT 9F","NEW YORK","NY",10022,40.7539862840001,-73.964450196,280,"433 EAST 51ST STREET APT 9F, NEW YORK, NY, 10022","Match","Exact","433 E 51ST ST, NEW YORK, NY, 10022",59658742,"L"
627781,"433 EAST 6TH STREET","NEW YORK","NY",10009,40.7260846190001,-73.985384314,281,"433 EAST 6TH STREET, NEW YORK, NY, 10009","Match","Exact","433 E 6TH ST, NEW YORK, NY, 10009",59654072,"L"
627782,"433 EAST 91ST STREET","BROOKLYN","NY",11212,40.655151512,-73.921251709,282,"433 EAST 91ST STREET, BROOKLYN, NY, 11212","Match","Exact","433 E 91ST ST, BROOKLYN, NY, 11212",59083707,"L"
627783,"433 EAST CLEARVIEW DR","COLUMBIA","MO",65202,39.0095192410001,-92.334693153,283,"433 EAST CLEARVIEW DR, COLUMBIA, MO, 65202","Match","Exact","433 E CLEARVIEW DR, COLUMBIA, MO, 65202",23480007,"L"
627784,"433 EAST COMMERCE","FAIRFIELD","TX",75840,31.725126776,-96.1557943349999,284,"433 EAST COMMERCE, FAIRFIELD, TX, 75840","Match","Non_Exact","433 E COMMERCE ST, FAIRFIELD, TX, 75840",88975943,"L"
627785,"433 EAST COURT ST","SIDNEY","OH",45365,40.2844194740001,-84.151168621,285,"433 EAST COURT ST, SIDNEY, OH, 45365","Match","Exact","433 E COURT ST, SIDNEY, OH, 45365",52220258,"L"
627786,"433 EAST COURT","SIDNEY","OH",45365,40.2844194740001,-84.151168621,286,"433 EAST COURT, SIDNEY, OH, 45365","Match","Non_Exact","433 E COURT ST, SIDNEY, OH, 45365",52220258,"L"
627787,"433 EAST FRANKLIN","HAVANA","IL",62644,40.304491791,-90.055088413,287,"433 EAST FRANKLIN, HAVANA, IL, 62644","Match","Non_Exact","433 E FRANKLIN ST, HAVANA, IL, 62644",37759468,"R"
627788,"433 EAST GORGAS LANE","PHILADELPHIA","PA",19119,40.0627663720001,-75.1797360259999,288,"433 EAST GORGAS LANE, PHILADELPHIA, PA, 19119","Match","Exact","433 E GORGAS LN, PHILADELPHIA, PA, 19119",131395263,"L"
627789,"433 EAST STONEHEDGE DR APT 3H","SALT LAKE CITY","UT",84107,40.680993116,-111.878766419,289,"433 EAST STONEHEDGE DR APT 3H, SALT LAKE CITY, UT, 84107","Match","Exact","433 E STONEHEDGE DR, SALT LAKE CITY, UT, 84107",630273693,"L"
627790,"433 ELM AVE","AKRON","CO",80720,40.1626319390001,-103.20604335,290,"433 ELM AVE, AKRON, CO, 80720","Match","Exact","433 ELM AVE, AKRON, CO, 80720",177841157,"L"
627791,"433 ENGLIGH OAK ROAD","FLETCHER","NC",28732,35.434742236,-82.452831096,291,"433 ENGLIGH OAK ROAD, FLETCHER, NC, 28732","Match","Non_Exact","433 ENGLISH OAK RD, FLETCHER, NC, 28732",152302828,"L"
627792,"433 ENGLISH OAK ROAD","FLETCHER","NC",28732,35.434742236,-82.452831096,292,"433 ENGLISH OAK ROAD, FLETCHER, NC, 28732","Match","Exact","433 ENGLISH OAK RD, FLETCHER, NC, 28732",152302828,"L"
627793,"433 ENRIGHT CT","PITTSBURGH","PA",15206,40.4616731560001,-79.91751998,293,"433 ENRIGHT CT, PITTSBURGH, PA, 15206","Match","Exact","433 ENRIGHT CT, PITTSBURGH, PA, 15206",51646703,"L"
627794,"433 ERTMAN ROAD","NEWCASTLE","WY",82701,44.064886872,-104.223688605,294,"433 ERTMAN ROAD, NEWCASTLE, WY, 82701","Match","Exact","433 ERTMAN RD, NEWCASTLE, WY, 82701",147502848,"R"
627795,"433 EVARTS ST NE APT 1","WASHINGTON","DC",20017,38.9245037380001,-77.000108156,295,"433 EVARTS ST NE APT 1, WASHINGTON, DC, 20017","Match","Exact","433 EVARTS ST NE, WASHINGTON, DC, 20017",641969470,"R"
627796,"433 FAIRCHILD AVE","KENT","OH",44240,41.158816614,-81.3610356569999,296,"433 FAIRCHILD AVE, KENT, OH, 44240","Match","Exact","433 FAIRCHILD AVE, KENT, OH, 44240",137515737,"R"
627797,"433 FAIRFIELD AVENUE","GRETNA","LA",70056,29.884953125,-90.0434535859999,297,"433 FAIRFIELD AVENUE, GRETNA, LA, 70056","Match","Exact","433 FAIRFIELD AVE, GRETNA, LA, 70056",93529249,"L"
627798,"433 FAIRFIELD DRIVE","SANFORD","FL",32771,NA,NA,298,"433 FAIRFIELD DRIVE, SANFORD, FL, 32771","No_Match",NA,NA,NA,NA
627799,"433 FANCY BLUFF ROAD","BRUNSWICK","GA",31523,31.1395431940001,-81.557927094,299,"433 FANCY BLUFF ROAD, BRUNSWICK, GA, 31523","Match","Exact","433 FANCY BLUFF RD, BRUNSWICK, GA, 31523",9143563,"L"
627800,"433 FIRST AVENUE","DEPTFORD","NJ",8096,39.8079073150001,-75.085010406,300,"433 FIRST AVENUE, DEPTFORD, NJ, 8096","Match","Exact","433 FIRST AVE, DEPTFORD, NJ, 08096",134625160,"R"
627801,"433 FLOURNOY LUCAS RD LOT 51","SHREVEPORT","LA",71106,32.390999467,-93.764556726,301,"433 FLOURNOY LUCAS RD LOT 51, SHREVEPORT, LA, 71106","Match","Exact","433 FLOURNOY LUCAS RD, SHREVEPORT, LA, 71106",57477560,"L"
627802,"433 FRANCES DR","HAVANA","FL",32333,30.638819653,-84.400558636,302,"433 FRANCES DR, HAVANA, FL, 32333","Match","Exact","433 FRANCES DR, HAVANA, FL, 32333",635856576,"L"
627803,"433 GAITHER ST","GAITHERSBURG","MD",20877,39.1353440030001,-77.1888936239999,303,"433 GAITHER ST, GAITHERSBURG, MD, 20877","Match","Exact","433 GAITHER ST, GAITHERSBURG, MD, 20877",62051195,"L"
627804,"433 GAITHER STREET","GAITHERSBURG","MD",20878,39.1353440030001,-77.1888936239999,304,"433 GAITHER STREET, GAITHERSBURG, MD, 20878","Match","Non_Exact","433 GAITHER ST, GAITHERSBURG, MD, 20877",62051195,"L"
627805,"433 GLENWOOD RD","VESTAVIA","AL",35216,33.451999673,-86.783128819,305,"433 GLENWOOD RD, VESTAVIA, AL, 35216","Match","Exact","433 GLENWOOD RD, VESTAVIA, AL, 35216",81584511,"L"
627806,"433 GORE CREEK DRIVE","VAIL","CO",81657,39.6406369860001,-106.370354763,306,"433 GORE CREEK DRIVE, VAIL, CO, 81657","Match","Exact","433 GORE CREEK DR, VAIL, CO, 81657",105729725,"R"
627807,"433 GREENLEAF DRIVE","SAINT LOUIS","MO",63122,38.5901750670001,-90.398003575,307,"433 GREENLEAF DRIVE, SAINT LOUIS, MO, 63122","Match","Exact","433 GREENLEAF DR, SAINT LOUIS, MO, 63122",100137195,"L"
627808,"433 HARRIGAN RD","FALLON","NV",89406,39.470811075,-118.762749001,308,"433 HARRIGAN RD, FALLON, NV, 89406","Match","Exact","433 HARRIGAN RD, FALLON, NV, 89406",629468575,"R"
627809,"433 HARTFORD SQUARE","WEST CHESTER","PA",19380,40.0167908980001,-75.617058919,309,"433 HARTFORD SQUARE, WEST CHESTER, PA, 19380","Match","Exact","433 HARTFORD SQ, WEST CHESTER, PA, 19380",179523119,"L"
627810,"433 HERBERT DRIVE","JASPER","TN",37347,35.077846112,-85.5834671059999,310,"433 HERBERT DRIVE, JASPER, TN, 37347","Match","Non_Exact","433 HERBERT LN, JASPER, TN, 37347",58411977,"R"
627811,"433 HIGHLAND AV NE","ATLANTA","GA",30126,33.7613684670001,-84.3731489629999,311,"433 HIGHLAND AV NE, ATLANTA, GA, 30126","Match","Non_Exact","433 HIGHLAND AVE NE, ATLANTA, GA, 30312",17357169,"R"
627812,"433 HIGHLAND AVE 1156","ATLANTA","GA",30312,33.7613684670001,-84.3731489629999,312,"433 HIGHLAND AVE 1156, ATLANTA, GA, 30312","Match","Non_Exact","433 HIGHLAND AVE NE, ATLANTA, GA, 30312",17357169,"R"
627813,"433 HIGHLAND AVE NE","ATLANTA","GA",30312,33.7613684670001,-84.3731489629999,313,"433 HIGHLAND AVE NE, ATLANTA, GA, 30312","Match","Exact","433 HIGHLAND AVE NE, ATLANTA, GA, 30312",17357169,"R"
627814,"433 HIGHLAND NE","ATLANTA","GA",30312,33.7613684670001,-84.3731489629999,314,"433 HIGHLAND NE, ATLANTA, GA, 30312","Match","Non_Exact","433 HIGHLAND AVE NE, ATLANTA, GA, 30312",17357169,"R"
627815,"433 HIGHLAND PLACE","MONROVIA","CA",91016,34.1598678280001,-118.011767199,315,"433 HIGHLAND PLACE, MONROVIA, CA, 91016","Match","Exact","433 HIGHLAND PL, MONROVIA, CA, 91016",241241615,"L"
627816,"433 HIGHTOWER DRIVE","DEBARY","FL",32713,28.9050051560001,-81.319879118,316,"433 HIGHTOWER DRIVE, DEBARY, FL, 32713","Match","Exact","433 HIGHTOWER DR, DEBARY, FL, 32713",94576232,"L"
627817,"433 IIIWAHI LOOP","KAILUA","HI",96734,NA,NA,317,"433 IIIWAHI LOOP, KAILUA, HI, 96734","No_Match",NA,NA,NA,NA
627818,"433 ILIWAHI LOOP","KAILUA","HI",96734,21.4194174080001,-157.752185911,318,"433 ILIWAHI LOOP, KAILUA, HI, 96734","Match","Exact","433 ILIWAHI LOOP, KAILUA, HI, 96734",203239003,"R"
627819,"433 INDEPENDENCE STREET","FAIRPORT HARBOR","OH",44077,41.751517703,-81.273200635,319,"433 INDEPENDENCE STREET, FAIRPORT HARBOR, OH, 44077","Match","Exact","433 INDEPENDENCE ST, FAIRPORT HARBOR, OH, 44077",137464684,"L"
627820,"433 INTERVALE ROAD","NEW GLOUCESTER","ME",4260,43.9614591120001,-70.278092429,320,"433 INTERVALE ROAD, NEW GLOUCESTER, ME, 4260","Match","Exact","433 INTERVALE RD, NEW GLOUCESTER, ME, 04260",647466321,"L"
627821,"433 J STREET","LOS BANOS","CA",93635,37.0610252110001,-120.850932089,321,"433 J STREET, LOS BANOS, CA, 93635","Match","Exact","433 J ST, LOS BANOS, CA, 93635",125290703,"L"
627822,"433 JAVAN SMITH RD","SILER CITY","NC",27344,35.7718782690001,-79.399075248,322,"433 JAVAN SMITH RD, SILER CITY, NC, 27344","Match","Exact","433 JAVAN SMITH RD, SILER CITY, NC, 27344",71339239,"L"
627823,"433 JERSEY AVENUE APT 2","JERSEY CITY","NJ",7302,40.7172020140001,-74.048586734,323,"433 JERSEY AVENUE APT 2, JERSEY CITY, NJ, 7302","Match","Exact","433 JERSEY AVE, JERSEY CITY, NJ, 07302",59605989,"L"
627824,"433 JULIA WAY","LEXINGTON","KY",40508,38.0449059860001,-84.48215935,324,"433 JULIA WAY, LEXINGTON, KY, 40508","Match","Exact","433 JULIA WAY, LEXINGTON, KY, 40508",647456441,"R"
627825,"433 KELTON AVE 103","LOS ANGELES","CA",90024,34.0696396970001,-118.453808509,325,"433 KELTON AVE 103, LOS ANGELES, CA, 90024","Match","Exact","433 KELTON AVE, LOS ANGELES, CA, 90024",141567069,"R"
627826,"433 KELTON AVENUE 103","LOS ANGELES","CA",90024,34.0696396970001,-118.453808509,326,"433 KELTON AVENUE 103, LOS ANGELES, CA, 90024","Match","Exact","433 KELTON AVE, LOS ANGELES, CA, 90024",141567069,"R"
627827,"433 KEONIANI ST","HON","HI",96815,21.2853041010001,-157.83195104,327,"433 KEONIANI ST, HON, HI, 96815","Match","Non_Exact","433 KEONIANA ST, HONOLULU, HI, 96815",203241716,"R"
627828,"433 KEYES ROAD","UTICA","NY",13502,43.1133920510001,-75.1782851569999,328,"433 KEYES ROAD, UTICA, NY, 13502","Match","Exact","433 KEYES RD, UTICA, NY, 13502",171530041,"L"
627829,"433 KINGS WAY","KALISPELL","MT",59901,48.2345997410001,-114.290035496,329,"433 KINGS WAY, KALISPELL, MT, 59901","Match","Exact","433 KINGS WAY, KALISPELL, MT, 59901",204089190,"L"
627830,"433 KITTY HAWK RD STE 227","UNIVERSAL CITY","TX",78148,29.5549599550001,-98.301813469,330,"433 KITTY HAWK RD STE 227, UNIVERSAL CITY, TX, 78148","Match","Exact","433 KITTY HAWK RD, UNIVERSAL CITY, TX, 78148",624380101,"R"
627831,"433 KITTY HAWK ROAD SUITE 227","UNIVERSAL CITY","TX",78148,29.5549599550001,-98.301813469,331,"433 KITTY HAWK ROAD SUITE 227, UNIVERSAL CITY, TX, 78148","Match","Exact","433 KITTY HAWK RD, UNIVERSAL CITY, TX, 78148",624380101,"R"
627832,"433 LAFAYETTE AVENUE","BROOKLYN","NY",11238,40.6891232020001,-73.957946985,332,"433 LAFAYETTE AVENUE, BROOKLYN, NY, 11238","Match","Exact","433 LAFAYETTE AVE, BROOKLYN, NY, 11238",650073785,"L"
627833,"433 LAKE MIRROR DR","LAKE PLACID","FL",33852,27.2708444830001,-81.362541065,333,"433 LAKE MIRROR DR, LAKE PLACID, FL, 33852","Match","Exact","433 LAKE MIRROR DR, LAKE PLACID, FL, 33852",4682583,"L"
627834,"433 LAKEVIEW AVE","HADDONFIELD","NJ",8033,39.8930220870001,-75.026811537,334,"433 LAKEVIEW AVE, HADDONFIELD, NJ, 8033","Match","Exact","433 LAKEVIEW AVE, HADDONFIELD, NJ, 08033",134419074,"L"
627835,"433 LAKEVIEW DR","JEFFERSON","TX",75657,32.7572072360001,-94.587335243,335,"433 LAKEVIEW DR, JEFFERSON, TX, 75657","Match","Exact","433 LAKEVIEW DR, JEFFERSON, TX, 75657",57745348,"L"
627836,"433 LAS COLINAS BLVD E STE 1130","IRVING","TX",75039,NA,NA,336,"433 LAS COLINAS BLVD E STE 1130, IRVING, TX, 75039","No_Match",NA,NA,NA,NA
627837,"433 LINCOLN DRIVE","CHESHIRE","CT",6410,41.512220997,-72.909332806,337,"433 LINCOLN DRIVE, CHESHIRE, CT, 6410","Match","Exact","433 LINCOLN DR, CHESHIRE, CT, 06410",3737296,"R"
627838,"433 LINCOLN ROAD","BROOKLYN","NY",11225,40.6616669700001,-73.9492402669999,338,"433 LINCOLN ROAD, BROOKLYN, NY, 11225","Match","Exact","433 LINCOLN RD, BROOKLYN, NY, 11225",59079583,"L"
627839,"433 LIPFORD STREET","MEMPHIS","TN",38112,35.14439758,-89.9634313989999,339,"433 LIPFORD STREET, MEMPHIS, TN, 38112","Match","Exact","433 LIPFORD ST, MEMPHIS, TN, 38112",72913672,"L"
627840,"433 LLANO","FORNEY","TX",75126,NA,NA,340,"433 LLANO, FORNEY, TX, 75126","No_Match",NA,NA,NA,NA
627841,"433 LOCUST STREET","LOCKPORT","NY",14094,43.158591722,-78.6858113659999,341,"433 LOCUST STREET, LOCKPORT, NY, 14094","Match","Exact","433 LOCUST ST, LOCKPORT, NY, 14094",605128981,"L"
627842,"433 LONDON COURT II","EGG HARBOR TOWNSHIP","NJ",8234,NA,NA,342,"433 LONDON COURT II, EGG HARBOR TOWNSHIP, NJ, 8234","No_Match",NA,NA,NA,NA
627843,"433 LOOKOVER DR","ANDERSON","SC",29621,34.568995826,-82.705388844,343,"433 LOOKOVER DR, ANDERSON, SC, 29621","Match","Exact","433 LOOKOVER DR, ANDERSON, SC, 29621",632170970,"L"
627844,"433 MAIN ST","BATAVIA","IL",60510,41.8469363740001,-88.314881736,344,"433 MAIN ST, BATAVIA, IL, 60510","Match","Exact","433 MAIN ST, BATAVIA, IL, 60510",119511769,"R"
627845,"433 MAIN ST","PHOENIX","NY",13135,43.2281677340001,-76.2974545869999,345,"433 MAIN ST, PHOENIX, NY, 13135","Match","Exact","433 MAIN ST, PHOENIX, NY, 13135",57816391,"R"
627846,"433 MALLARD ROAD","PHILIPSBURG","PA",16866,40.8634152970001,-78.207422418,346,"433 MALLARD ROAD, PHILIPSBURG, PA, 16866","Match","Exact","433 MALLARD RD, PHILIPSBURG, PA, 16866",634169846,"R"
627847,"433 MALVERN LAKES CIRCLE 104","FREDRICKSBURG","VA",22406,38.362442635,-77.5311134029999,347,"433 MALVERN LAKES CIRCLE 104, FREDRICKSBURG, VA, 22406","Match","Non_Exact","433 MALVERN LAKES CIR, FREDERICKSBURG, VA, 22406",228329341,"R"
627848,"433 MAPLE RUN","ROUND ROCK","TX",78664,NA,NA,348,"433 MAPLE RUN, ROUND ROCK, TX, 78664","Tie",NA,NA,NA,NA
627849,"433 MARIMAR ST","LAKELAND","FL",33813,27.982914856,-81.961944075,349,"433 MARIMAR ST, LAKELAND, FL, 33813","Match","Exact","433 MARIMAR ST, LAKELAND, FL, 33813",104812354,"R"
627850,"433 MARION ST","WINCHESTER","VA",22601,39.196898902,-78.17709609,350,"433 MARION ST, WINCHESTER, VA, 22601","Match","Exact","433 MARION ST, WINCHESTER, VA, 22601",55579818,"L"
627851,"433 MARK STREET","ST MARYS","PA",15857,41.4371981350001,-78.5607677419999,351,"433 MARK STREET, ST MARYS, PA, 15857","Match","Exact","433 MARK ST, SAINT MARYS, PA, 15857",157845359,"L"
627852,"433 MATTY DRIVE","ROSTRAVER TOWNSHIP","PA",15012,40.153215152,-79.7950501999999,352,"433 MATTY DRIVE, ROSTRAVER TOWNSHIP, PA, 15012","Match","Exact","433 MATTY DR, ROSTRAVER TOWNSHIP, PA, 15012",613049284,"L"
627853,"433 MCDOWELL STREET","CINCINNATI","OH",45226,39.116936808,-84.436191338,353,"433 MCDOWELL STREET, CINCINNATI, OH, 45226","Match","Exact","433 MCDOWELL ST, CINCINNATI, OH, 45226",103931420,"L"
627854,"433 MEADOW BROOK ROAD","ROCHESTER","MI",48309,NA,NA,354,"433 MEADOW BROOK ROAD, ROCHESTER, MI, 48309","No_Match",NA,NA,NA,NA
627855,"433 MEADOW LANE","WOOSTER","OH",44691,40.8222732350001,-81.947361504,355,"433 MEADOW LANE, WOOSTER, OH, 44691","Match","Exact","433 MEADOW LN, WOOSTER, OH, 44691",635801867,"R"
627856,"433 MEADOWVIEW DR","LEBANON","PA",17042,40.3182657080001,-76.383588891,356,"433 MEADOWVIEW DR, LEBANON, PA, 17042","Match","Exact","433 MEADOWVIEW DR, LEBANON, PA, 17042",80683455,"R"
627857,"433 MELVIN AVENUE","RACINE","WI",53402,42.7554845220001,-87.784748293,357,"433 MELVIN AVENUE, RACINE, WI, 53402","Match","Exact","433 MELVIN AVE, RACINE, WI, 53402",77906354,"L"
627858,"433 METAIRIE ROAD SUITE 118","METAIRIE","LA",70005,29.9842467030001,-90.12884461,358,"433 METAIRIE ROAD SUITE 118, METAIRIE, LA, 70005","Match","Exact","433 METAIRIE RD, METAIRIE, LA, 70005",93504144,"R"
627859,"433 MILLER AVE","BROOKLYN","NY",11207,40.670162573,-73.890575252,359,"433 MILLER AVE, BROOKLYN, NY, 11207","Match","Exact","433 MILLER AVE, BROOKLYN, NY, 11207",59085053,"L"
627860,"433 MIMOSA GROVE CROSSING","TUCKER","GA",30084,33.876564639,-84.1767407199999,360,"433 MIMOSA GROVE CROSSING, TUCKER, GA, 30084","Match","Exact","433 MIMOSA GROVE CROSSING, TUCKER, GA, 30084",624027575,"R"
627861,"433 MOUNT RUSHMORE ROAD NORTH","RAPID CITY","SD",57701,44.0823312910001,-103.230507669,361,"433 MOUNT RUSHMORE ROAD NORTH, RAPID CITY, SD, 57701","Match","Non_Exact","433 MOUNT RUSHMORE RD, RAPID CITY, SD, 57701",205508460,"R"
627862,"433 N 330TH ROAD","LASALLE","IL",61301,NA,NA,362,"433 N 330TH ROAD, LASALLE, IL, 61301","No_Match",NA,NA,NA,NA
627863,"433 N AURORA ST APT 2N","ITHACA","NY",14850,NA,NA,363,"433 N AURORA ST APT 2N, ITHACA, NY, 14850","Tie",NA,NA,NA,NA
627864,"433 N BETHANY RD","MCDONOUGH","GA",30252,33.441617782,-84.088701471,364,"433 N BETHANY RD, MCDONOUGH, GA, 30252","Match","Exact","433 N BETHANY RD, MCDONOUGH, GA, 30252",23185087,"L"
627865,"433 N CAMDEN DR SUITE 600","BEVERLY HILLS","CA",90210,34.069000632,-118.404473628,365,"433 N CAMDEN DR SUITE 600, BEVERLY HILLS, CA, 90210","Match","Non_Exact","433 N CAMDEN DR, BEVERLY HILLS, CA, 90210",141571560,"L"
627866,"433 N CAMDEN DRIVE SUITE 600","BEVERLY HILLS","CA",90210,34.069000632,-118.404473628,366,"433 N CAMDEN DRIVE SUITE 600, BEVERLY HILLS, CA, 90210","Match","Non_Exact","433 N CAMDEN DR, BEVERLY HILLS, CA, 90210",141571560,"L"
627867,"433 N HALL","MESA","AZ",85203,33.4235937280001,-111.793545614,367,"433 N HALL, MESA, AZ, 85203","Match","Exact","433 N HALL, MESA, AZ, 85203",128924932,"R"
627868,"433 N SAGINAW ST","HOLLY","MI",48442,42.7961520860001,-83.627804084,368,"433 N SAGINAW ST, HOLLY, MI, 48442","Match","Exact","433 N SAGINAW ST, HOLLY, MI, 48442",69751158,"L"
627869,"433 N SIERRA WAY","SAN BERNARDINO","CA",92410,34.107139212,-117.285151739,369,"433 N SIERRA WAY, SAN BERNARDINO, CA, 92410","Match","Exact","433 N SIERRA WAY, SAN BERNARDINO, CA, 92410",144655607,"R"
627870,"433 N WINDSOR BLVD","LOS ANGELES","CA",90004,34.07798697,-118.319609913,370,"433 N WINDSOR BLVD, LOS ANGELES, CA, 90004","Match","Exact","433 N WINDSOR BLVD, LOS ANGELES, CA, 90004",141603020,"L"
627871,"433 NE 50TH STREET","CROSS CITY","FL",32628,29.648961258,-83.136989783,371,"433 NE 50TH STREET, CROSS CITY, FL, 32628","Match","Non_Exact","433 NE 50 ST, CROSS CITY, FL, 32628",611026239,"L"
627872,"433 NE 76TH AVENUE","PORTLAND","OR",97213,45.525790226,-122.584737091,372,"433 NE 76TH AVENUE, PORTLAND, OR, 97213","Match","Exact","433 NE 76TH AVE, PORTLAND, OR, 97213",157513954,"L"
627873,"433 NE 82ND ST APT11","MIAMI","FL",33136,25.8668373,-80.123281252,373,"433 NE 82ND ST APT11, MIAMI, FL, 33136","Match","Non_Exact","433 82ND ST, MIAMI, FL, 33141",116009148,"R"
627874,"433 NE TILLAMOOK ST","PORTLAND","OR",97212,45.5378595860001,-122.661140377,374,"433 NE TILLAMOOK ST, PORTLAND, OR, 97212","Match","Exact","433 NE TILLAMOOK ST, PORTLAND, OR, 97212",157504920,"L"
627875,"433 NELSON ST","JUNEAU","AK",99801,58.3046984750001,-134.403869782,375,"433 NELSON ST, JUNEAU, AK, 99801","Match","Exact","433 NELSON ST, JUNEAU, AK, 99801",190964456,"L"
627876,"433 NEW BRITAIN AVENUE","HARTFORD","CT",6106,41.739554728,-72.697134771,376,"433 NEW BRITAIN AVENUE, HARTFORD, CT, 6106","Match","Exact","433 NEW BRITAIN AVE, HARTFORD, CT, 06106",3515797,"L"
627877,"433 NORTH 41ST STREET","PHILADELPHIA","PA",19104,39.960550276,-75.205349212,377,"433 NORTH 41ST STREET, PHILADELPHIA, PA, 19104","Match","Exact","433 N 41ST ST, PHILADELPHIA, PA, 19104",131403888,"R"
627878,"433 NORTH BEAL STREET APT B","BELTON","TX",76513,31.0591941750001,-97.458139306,378,"433 NORTH BEAL STREET APT B, BELTON, TX, 76513","Match","Exact","433 N BEAL ST, BELTON, TX, 76513",146145906,"R"
627879,"433 NORTH FIVE POINTS ROAD","WEST CHESTER","PA",19380,39.9739426310001,-75.5823827899999,379,"433 NORTH FIVE POINTS ROAD, WEST CHESTER, PA, 19380","Match","Exact","433 N FIVE POINTS RD, WEST CHESTER, PA, 19380",639109188,"R"
627880,"433 NORTH LOUISE APT 305","GLENDALE","CA",91206,34.1524038960001,-118.252637424,380,"433 NORTH LOUISE APT 305, GLENDALE, CA, 91206","Match","Non_Exact","433 N LOUISE ST, GLENDALE, CA, 91206",141608883,"L"
627881,"433 NW 15TH STREET","OKLAHOMA CITY","OK",73103,35.48479059,-97.5197536589999,381,"433 NW 15TH STREET, OKLAHOMA CITY, OK, 73103","Match","Exact","433 NW 15TH ST, OKLAHOMA CITY, OK, 73103",100400781,"R"
627882,"433 OAKMONT CT","MAIDSVILLE","WV",26541,39.671541618,-80.078829969,382,"433 OAKMONT CT, MAIDSVILLE, WV, 26541","Match","Exact","433 OAKMONT CT, MAIDSVILLE, WV, 26541",648334716,"L"
627883,"433 OAKWOOD DRIVE","CHARLOTTE","MI",48813,42.5688891340001,-84.847598311,383,"433 OAKWOOD DRIVE, CHARLOTTE, MI, 48813","Match","Exact","433 OAKWOOD DR, CHARLOTTE, MI, 48813",627082569,"L"
627884,"433 OGLETHORPE NW","WASHINGTON","DC",20011,38.961321083,-77.01868875,384,"433 OGLETHORPE NW, WASHINGTON, DC, 20011","Match","Non_Exact","433 OGLETHORPE ST NW, WASHINGTON, DC, 20011",76223361,"R"
627885,"433 ORCHARD DR","NORTHVILLE","MI",48167,NA,NA,385,"433 ORCHARD DR, NORTHVILLE, MI, 48167","No_Match",NA,NA,NA,NA
627886,"433 PARK AVE","WAVERLY","NY",14892,42.002884754,-76.5387834759999,386,"433 PARK AVE, WAVERLY, NY, 14892","Match","Exact","433 PARK AVE, WAVERLY, NY, 14892",46707591,"L"
627887,"433 PATTERSON RD","SENECA","SC",29678,34.682949987,-82.912904385,387,"433 PATTERSON RD, SENECA, SC, 29678","Match","Exact","433 PATTERSON RD, SENECA, SC, 29678",25646136,"R"
627888,"433 PAXINOSA AVE","EASTON","PA",18042,40.703083308,-75.2023222669999,388,"433 PAXINOSA AVE, EASTON, PA, 18042","Match","Exact","433 PAXINOSA AVE, EASTON, PA, 18042",136884025,"R"
627889,"433 PELZER HIGHWAY","EASLEY","SC",29642,34.799650404,-82.5982035219999,389,"433 PELZER HIGHWAY, EASLEY, SC, 29642","Match","Exact","433 PELZER HWY, EASLEY, SC, 29642",26208331,"L"
627890,"433 PENDLETON STREET","ROCK HILL","SC",29730,34.925314541,-81.018772771,390,"433 PENDLETON STREET, ROCK HILL, SC, 29730","Match","Exact","433 PENDLETON ST, ROCK HILL, SC, 29730",19792053,"L"
627891,"433 PINE AVE UNIT 307","LONG BEACH","CA",90802,33.772143456,-118.192383303,391,"433 PINE AVE UNIT 307, LONG BEACH, CA, 90802","Match","Exact","433 PINE AVE, LONG BEACH, CA, 90802",653858887,"L"
627892,"433 PLAZA REAL 275 MOVE TO MEDITATE","BOCA RATON","FL",33432,NA,NA,392,"433 PLAZA REAL 275 MOVE TO MEDITATE, BOCA RATON, FL, 33432","No_Match",NA,NA,NA,NA
627893,"433 PLAZA REAL SUITE 275","BOCA RATON","FL",33432,26.354613289,-80.085815552,393,"433 PLAZA REAL SUITE 275, BOCA RATON, FL, 33432","Match","Non_Exact","433 PLZ REAL, BOCA RATON, FL, 33432",115492336,"L"
627894,"433 PLEASANT HILL RD","BLOUNTVILLE","TN",37617,36.510577653,-82.3641630559999,394,"433 PLEASANT HILL RD, BLOUNTVILLE, TN, 37617","Match","Exact","433 PLEASANT HILL RD, BLOUNTVILLE, TN, 37617",127863539,"L"
627895,"433 POWHATAN AVENUE","LESTER","PA",19029,39.8664945030001,-75.296814736,395,"433 POWHATAN AVENUE, LESTER, PA, 19029","Match","Non_Exact","433 POWHATTAN AVE, LESTER, PA, 19029",652541888,"L"
627896,"433 POWHATTAN AVE","LESTER","PA",19029,39.8664945030001,-75.296814736,396,"433 POWHATTAN AVE, LESTER, PA, 19029","Match","Exact","433 POWHATTAN AVE, LESTER, PA, 19029",652541888,"L"
627897,"433 PUSSEY AVENUE","COLLINGDALE","PA",19023,39.9130933060001,-75.2712247919999,397,"433 PUSSEY AVENUE, COLLINGDALE, PA, 19023","Match","Non_Exact","433 PUSEY AVE, COLLINGDALE, PA, 19023",134884826,"R"
627898,"433 PUTNAM AVENUE","BROOKLYN","NY",11221,40.6847768120001,-73.9436426029999,398,"433 PUTNAM AVENUE, BROOKLYN, NY, 11221","Match","Exact","433 PUTNAM AVE, BROOKLYN, NY, 11221",59079194,"L"
627899,"433 QUIMBY AVE NW","COKATO","MN",55321,45.1593797080001,-94.2162254259999,399,"433 QUIMBY AVE NW, COKATO, MN, 55321","Match","Exact","433 QUIMBY AVE NW, COKATO, MN, 55321",43995397,"L"
627900,"433 QUINCY STREET","BROOKLYN","NY",11221,40.6878637930001,-73.9428629459999,400,"433 QUINCY STREET, BROOKLYN, NY, 11221","Match","Exact","433 QUINCY ST, BROOKLYN, NY, 11221",59079186,"L"
627901,"433 RAPP RD","VALATIE","NY",12184,42.469773269,-73.6765574619999,401,"433 RAPP RD, VALATIE, NY, 12184","Match","Non_Exact","433 RAPP RD N, VALATIE, NY, 12184",627264458,"L"
627902,"433 REDFORD LANE","MODESTO","CA",95350,37.6882676070001,-120.998796156,402,"433 REDFORD LANE, MODESTO, CA, 95350","Match","Exact","433 REDFORD LN, MODESTO, CA, 95350",102600277,"R"
627903,"433 RIVER ST STE 6002","TROY","NY",12180,NA,NA,403,"433 RIVER ST STE 6002, TROY, NY, 12180","No_Match",NA,NA,NA,NA
627904,"433 RIVERVIEW DRIVE NO1603","NEW CASTLE","CO",81647,39.563875635,-107.512802545,404,"433 RIVERVIEW DRIVE NO1603, NEW CASTLE, CO, 81647","Match","Non_Exact","433 RIVER VIEW DR, NEW CASTLE, CO, 81647",105810524,"L"
627905,"433 ROBERTS STREET","CHATTANOOGA","TN",37404,35.043011956,-85.273488564,405,"433 ROBERTS STREET, CHATTANOOGA, TN, 37404","Match","Exact","433 ROBERTS ST, CHATTANOOGA, TN, 37404",647298387,"L"
627906,"433 ROCKHILL DR","KETTERING","OH",45429,39.701227144,-84.16414313,406,"433 ROCKHILL DR, KETTERING, OH, 45429","Match","Non_Exact","433 ROCKHILL AVE, KETTERING, OH, 45429",143582033,"L"
627907,"433 ROGERS ROAD","LEXINGTON","NC",27292,35.7629742130001,-80.246177087,407,"433 ROGERS ROAD, LEXINGTON, NC, 27292","Match","Exact","433 ROGERS RD, LEXINGTON, NC, 27292",640223862,"R"
627908,"433 ROSEHILL PLACE APT 3","ELIZABETH","NJ",7202,40.654701247,-74.221366199,408,"433 ROSEHILL PLACE APT 3, ELIZABETH, NJ, 7202","Match","Exact","433 ROSEHILL PL, ELIZABETH, NJ, 07202",60604866,"R"
627909,"433 ROTARY PLACE NE","SAINT PETERSBURG","FL",33703,27.82615051,-82.6301146019999,409,"433 ROTARY PLACE NE, SAINT PETERSBURG, FL, 33703","Match","Exact","433 ROTARY PL NE, SAINT PETERSBURG, FL, 33703",124794506,"L"
627910,"433 RUSSELL BLVD","DAVIS","CA",95616,38.5462489380001,-121.754095961,410,"433 RUSSELL BLVD, DAVIS, CA, 95616","Match","Exact","433 RUSSELL BLVD, DAVIS, CA, 95616",67696126,"R"
627911,"433 S 17TH ST","KINGSVILLE","TX",78363,27.5127683800001,-97.851620242,411,"433 S 17TH ST, KINGSVILLE, TX, 78363","Match","Exact","433 S 17TH ST, KINGSVILLE, TX, 78363",72101855,"L"
627912,"433 S 1ST ST","MONTROSE","CO",81401,38.4789722200001,-107.875448777,412,"433 S 1ST ST, MONTROSE, CO, 81401","Match","Exact","433 S 1ST ST, MONTROSE, CO, 81401",122539762,"L"
627913,"433 S 2ND ST 308","LOUISVILLE","KY",40202,38.252006253,-85.753956675,413,"433 S 2ND ST 308, LOUISVILLE, KY, 40202","Match","Non_Exact","433 S 2ND ST, LOUISVILLE, KY, 40202",96844720,"L"
627914,"433 S 700 W","SPRINGVILLE","UT",84663,40.1729596120001,-111.624127376,414,"433 S 700 W, SPRINGVILLE, UT, 84663","Match","Non_Exact","433 N 700 W, SPRINGVILLE, UT, 84663",617493867,"L"
627915,"433 S BERNADOTTE STREET","NEW ORLEANS","LA",70119,29.976519276,-90.110369889,415,"433 S BERNADOTTE STREET, NEW ORLEANS, LA, 70119","Match","Exact","433 S BERNADOTTE ST, NEW ORLEANS, LA, 70119",191706484,"R"
627916,"433 S FINLEY RD","LOMBARD","IL",60148,NA,NA,416,"433 S FINLEY RD, LOMBARD, IL, 60148","Tie",NA,NA,NA,NA
627917,"433 S MANHATTAN PL UNIT 302","LOS ANGELES","CA",90020,34.066488523,-118.310356085,417,"433 S MANHATTAN PL UNIT 302, LOS ANGELES, CA, 90020","Match","Non_Exact","433 S MANHATTAN PL, LOS ANGELES, CA, 90020",141603789,"R"
627918,"433 S MLK DR","HAYTI HEIGHTS","MO",63851,36.2297338920001,-89.7706875219999,418,"433 S MLK DR, HAYTI HEIGHTS, MO, 63851","Match","Exact","433 S MARTIN LUTHER KING DR, HAYTI HEIGHTS, MO, 63851",38897768,"R"
627919,"433 S PROSPECT STREET","CRESCENT CITY","FL",32112,NA,NA,419,"433 S PROSPECT STREET, CRESCENT CITY, FL, 32112","Tie",NA,NA,NA,NA
627920,"433 S RIVER DRIVE","SALINE","MI",48176,NA,NA,420,"433 S RIVER DRIVE, SALINE, MI, 48176","No_Match",NA,NA,NA,NA
627921,"433 S TWIN VALLEY ROAD","ELVERSON","PA",19520,40.145820669,-75.854098881,421,"433 S TWIN VALLEY ROAD, ELVERSON, PA, 19520","Match","Exact","433 S TWIN VALLEY RD, ELVERSON, PA, 19520",179472941,"R"
627922,"433 S WESTMORELAND AVE","LOS ANGELES","CA",90020,34.0662037290001,-118.288456864,422,"433 S WESTMORELAND AVE, LOS ANGELES, CA, 90020","Match","Exact","433 S WESTMORELAND AVE, LOS ANGELES, CA, 90020",141605006,"R"
627923,"433 SAINT PAULS BLVD APT 1E","NORFOLK","VA",23510,36.8491271570001,-76.284495115,423,"433 SAINT PAULS BLVD APT 1E, NORFOLK, VA, 23510","Match","Exact","433 SAINT PAULS BLVD, NORFOLK, VA, 23510",122153885,"L"
627924,"433 SAN DIEGO CIRCLE NUM 156","CHULA VISTA","CA",91910,NA,NA,424,"433 SAN DIEGO CIRCLE NUM 156, CHULA VISTA, CA, 91910","No_Match",NA,NA,NA,NA
627925,"433 SANDFORD AVE","HILLSIDE","NJ",7205,NA,NA,425,"433 SANDFORD AVE, HILLSIDE, NJ, 7205","No_Match",NA,NA,NA,NA
627926,"433 SE 521ST RD","WARRENSBURG","MO",64093,38.69350826,-93.6502161509999,426,"433 SE 521ST RD, WARRENSBURG, MO, 64093","Match","Exact","433 SE 521ST RD, WARRENSBURG, MO, 64093",95369875,"R"
627927,"433 SEMINOLE AVENUE","FORT LAUDERDALE","FL",33312,NA,NA,427,"433 SEMINOLE AVENUE, FORT LAUDERDALE, FL, 33312","No_Match",NA,NA,NA,NA
627928,"433 SHADOW HAWK LANE","KEARNEYSVILLE","WV",25403,39.31012142,-77.97125181,428,"433 SHADOW HAWK LANE, KEARNEYSVILLE, WV, 25403","Match","Non_Exact","433 SHADOW HAWK LN, KEARNEYSVILLE, WV, 25430",610487359,"L"
627929,"433 SHELL LN","DECATUR","TN",37322,35.525551878,-84.778070643,429,"433 SHELL LN, DECATUR, TN, 37322","Match","Exact","433 SHELL LN, DECATUR, TN, 37322",610818510,"L"
627930,"433 SHEPPERD LANE","HIGHLAND LAKES","NJ",7422,41.1644743740001,-74.4511178349999,430,"433 SHEPPERD LANE, HIGHLAND LAKES, NJ, 7422","Match","Exact","433 SHEPPERD LN, HIGHLAND LAKES, NJ, 07422",98012057,"L"
627931,"433 SIGNAL HILL ROAD","N BARRINGTON","IL",60010,42.197711553,-88.124742795,431,"433 SIGNAL HILL ROAD, N BARRINGTON, IL, 60010","Match","Exact","433 SIGNAL HILL RD, N BARRINGTON, IL, 60010",119695423,"R"
627932,"433 SIMS LANE","EVANSTON","WY",82930,41.27956892,-110.976807561,432,"433 SIMS LANE, EVANSTON, WY, 82930","Match","Exact","433 SIMS LN, EVANSTON, WY, 82930",606035508,"L"
627933,"433 SO 2ND ST APT 209","LOUISVILLE","KY",40202,38.252017279,-85.753954768,433,"433 SO 2ND ST APT 209, LOUISVILLE, KY, 40202","Match","Non_Exact","433 S 2ND ST, LOUISVILLE, KY, 40202",96844720,"L"
627934,"433 SOTHEBY WAY","DEBARY","FL",32713,28.8983298570001,-81.3219176699999,434,"433 SOTHEBY WAY, DEBARY, FL, 32713","Match","Exact","433 SOTHEBY WAY, DEBARY, FL, 32713",94577060,"R"
627935,"433 SOUTH 21ST STREET","RICHMOND","IN",47374,39.8223854240001,-84.874175808,435,"433 SOUTH 21ST STREET, RICHMOND, IN, 47374","Match","Exact","433 S 21ST ST, RICHMOND, IN, 47374",31327304,"R"
627936,"433 SOUTH 6TH STREET","DENVER","PA",17517,40.2311817630001,-76.143600211,436,"433 SOUTH 6TH STREET, DENVER, PA, 17517","Match","Exact","433 S 6TH ST, DENVER, PA, 17517",179669146,"L"
627937,"433 SOUTH 7TH STREET APT 2301","MINNEAPOLIS","MN",55415,NA,NA,437,"433 SOUTH 7TH STREET APT 2301, MINNEAPOLIS, MN, 55415","No_Match",NA,NA,NA,NA
627938,"433 SOUTH AVENUE E","HUMBLE","TX",77338,29.9939655800001,-95.262264977,438,"433 SOUTH AVENUE E, HUMBLE, TX, 77338","Match","Exact","433 S AVE E, HUMBLE, TX, 77338",647600123,"R"
627939,"433 SOUTH EMERSON ST","DENVER","CO",80209,39.708651999,-104.976894597,439,"433 SOUTH EMERSON ST, DENVER, CO, 80209","Match","Exact","433 S EMERSON ST, DENVER, CO, 80209",177331739,"R"
627940,"433 SOUTH EVANGELINE STREET","NEW IBERIA","LA",70560,29.989972037,-91.8015349789999,440,"433 SOUTH EVANGELINE STREET, NEW IBERIA, LA, 70560","Match","Exact","433 S EVANGELINE ST, NEW IBERIA, LA, 70560",85372118,"R"
627941,"433 SOUTH FRANCIS ST","KENT","OH",44240,41.150393035,-81.386044227,441,"433 SOUTH FRANCIS ST, KENT, OH, 44240","Match","Exact","433 S FRANCIS ST, KENT, OH, 44240",137515506,"L"
627942,"433 SOUTH SCOTT AVE","GLENOLDEN","PA",19036,39.8961465190001,-75.29487334,442,"433 SOUTH SCOTT AVE, GLENOLDEN, PA, 19036","Match","Exact","433 S SCOTT AVE, GLENOLDEN, PA, 19036",134884175,"L"
627943,"433 SPARKS DRIVE","GRANADA","MN",56039,43.7000086570001,-94.341220707,443,"433 SPARKS DRIVE, GRANADA, MN, 56039","Match","Exact","433 SPARKS DR, GRANADA, MN, 56039",9977334,"R"
627944,"433 SPRING STREET","MONTEAGLE","TN",37356,35.235137164,-85.833423226,444,"433 SPRING STREET, MONTEAGLE, TN, 37356","Match","Exact","433 SPRING ST, MONTEAGLE, TN, 37356",58409819,"L"
627945,"433 STATE RTE 3","TUPPER LAKE","NY",12986,44.24677841,-74.494903649,445,"433 STATE RTE 3, TUPPER LAKE, NY, 12986","Match","Exact","433 STATE RTE 3, TUPPER LAKE, NY, 12986",173844415,"R"
627946,"433 STOCKHAM AVE","MORRISVILLE","PA",19067,40.2130808630001,-74.781471391,446,"433 STOCKHAM AVE, MORRISVILLE, PA, 19067","Match","Exact","433 STOCKHAM AVE, MORRISVILLE, PA, 19067",134723815,"L"
627947,"433 SUMMERWIND PLANTATION DRIVE","GARNER","NC",27529,35.617199337,-78.5729417329999,447,"433 SUMMERWIND PLANTATION DRIVE, GARNER, NC, 27529","Match","Exact","433 SUMMERWIND PLANTATION DR, GARNER, NC, 27529",651831907,"L"
627948,"433 SUNNYBROOK RD","MARQUETTE","MI",49855,46.4513202840001,-87.3072126869999,448,"433 SUNNYBROOK RD, MARQUETTE, MI, 49855","Match","Exact","433 SUNNYBROOK RD, MARQUETTE, MI, 49855",182040744,"L"
627949,"433 SW 13TH AVE","CANBY","OR",97013,45.2522064240001,-122.693734156,449,"433 SW 13TH AVE, CANBY, OR, 97013","Match","Exact","433 SW 13TH AVE, CANBY, OR, 97013",157947295,"R"
627950,"433 SW 13TH AVENUE","CANBY","OR",97013,45.2522064240001,-122.693734156,450,"433 SW 13TH AVENUE, CANBY, OR, 97013","Match","Exact","433 SW 13TH AVE, CANBY, OR, 97013",157947295,"R"
627951,"433 SYCAMORE DRIVE","DECATUR","GA",30030,33.7781269750001,-84.281840277,451,"433 SYCAMORE DRIVE, DECATUR, GA, 30030","Match","Exact","433 SYCAMORE DR, DECATUR, GA, 30030",23367294,"R"
627952,"433 SYCAMORE ST","WESTFIELD","IN",46074,40.044816424,-86.122771184,452,"433 SYCAMORE ST, WESTFIELD, IN, 46074","Match","Exact","433 SYCAMORE ST, WESTFIELD, IN, 46074",29326428,"R"
627953,"433 SYLVAN AVE 61","MOUNTAIN VIEW","CA",94041,37.383905122,-122.060967645,453,"433 SYLVAN AVE 61, MOUNTAIN VIEW, CA, 94041","Match","Exact","433 SYLVAN AVE, MOUNTAIN VIEW, CA, 94041",618167444,"L"
627954,"433 TALL CEDAR LN","GREENCASTLE","PA",17225,39.7740772670001,-77.708554009,454,"433 TALL CEDAR LN, GREENCASTLE, PA, 17225","Match","Exact","433 TALL CEDAR LN, GREENCASTLE, PA, 17225",60099462,"R"
627955,"433 TANEYTOWN RD","TANEYTOWN","MD",21787,NA,NA,455,"433 TANEYTOWN RD, TANEYTOWN, MD, 21787","No_Match",NA,NA,NA,NA
627956,"433 TRELLIS LANE","FERNLEY","NV",89408,39.593604472,-119.234319353,456,"433 TRELLIS LANE, FERNLEY, NV, 89408","Match","Non_Exact","433 TRELLIS WAY, FERNLEY, NV, 89408",632164016,"L"
627957,"433 TUSCUMBIA COVE EAST","COLLIERVILLE","TN",38017,35.0148245820001,-89.681632243,457,"433 TUSCUMBIA COVE EAST, COLLIERVILLE, TN, 38017","Match","Exact","433 TUSCUMBIA COVE E, COLLIERVILLE, TN, 38017",72974612,"R"
627958,"433 UNION","IONIA","MI",48846,42.9867189230001,-85.063787614,458,"433 UNION, IONIA, MI, 48846","Match","Non_Exact","433 UNION ST, IONIA, MI, 48846",12145230,"L"
627959,"433 UPPER TERRACE APT 8","SAN FRANCISCO","CA",94117,37.762742992,-122.446104921,459,"433 UPPER TERRACE APT 8, SAN FRANCISCO, CA, 94117","Match","Exact","433 UPPER TER, SAN FRANCISCO, CA, 94117",192301098,"L"
627960,"433 VALLEY VIEW CT","JEFFERSON CITY","MO",65109,38.5848903310001,-92.225497503,460,"433 VALLEY VIEW CT, JEFFERSON CITY, MO, 65109","Match","Exact","433 VALLEY VIEW CT, JEFFERSON CITY, MO, 65109",34410213,"R"
627961,"433 VALVERDA RD HWY 977","MARINGOUIN","LA",70757,30.502396452,-91.514503211,461,"433 VALVERDA RD HWY 977, MARINGOUIN, LA, 70757","Match","Exact","433 VALVERDA RD, MARINGOUIN, LA, 70757",190096164,"L"
627962,"433 VESTA DRIVE","DAUPHIN","PA",17018,40.3788153620001,-76.917293195,462,"433 VESTA DRIVE, DAUPHIN, PA, 17018","Match","Exact","433 VESTA DR, DAUPHIN, PA, 17018",70812217,"L"
627963,"433 VICTOR STREET","SCHOTCH PLAINS","NJ",7076,40.661275808,-74.385419218,463,"433 VICTOR STREET, SCHOTCH PLAINS, NJ, 7076","Match","Non_Exact","433 VICTOR ST, SCOTCH PLAINS, NJ, 07076",60566006,"L"
627964,"433 W 261ST ST","BRONX","NY",10471,40.9098861730001,-73.901810703,464,"433 W 261ST ST, BRONX, NY, 10471","Match","Exact","433 W 261ST ST, BRONX, NY, 10471",80295752,"R"
627965,"433 W 7TH STREET","DOVER","OH",44622,40.521933372,-81.485638202,465,"433 W 7TH STREET, DOVER, OH, 44622","Match","Exact","433 W 7TH ST, DOVER, OH, 44622",612298456,"L"
627966,"433 W BRIAR PLACE 3C","CHICAGO","IL",60657,NA,NA,466,"433 W BRIAR PLACE 3C, CHICAGO, IL, 60657","No_Match",NA,NA,NA,NA
627967,"433 W GILMAN ST APT 302","MADISON","WI",53703,43.073787032,-89.394897827,467,"433 W GILMAN ST APT 302, MADISON, WI, 53703","Match","Non_Exact","433 W GILMAN ST, MADISON, WI, 53703",49472229,"L"
627968,"433 W HARRISON NUM 805821","CHICAGO","IL",60680,NA,NA,468,"433 W HARRISON NUM 805821, CHICAGO, IL, 60680","No_Match",NA,NA,NA,NA
627969,"433 W HARRISON ST UNIT 804202","CHICAGO","IL",60680,41.8814489540001,-88.21352097,469,"433 W HARRISON ST UNIT 804202, CHICAGO, IL, 60680","Match","Non_Exact","433 HARRISON ST, WEST CHICAGO, IL, 60185",112516051,"R"
627970,"433 W HARRISON ST","COLUMBUS","WI",53925,43.339891542,-89.0191017399999,470,"433 W HARRISON ST, COLUMBUS, WI, 53925","Match","Exact","433 W HARRISON ST, COLUMBUS, WI, 53925",73326480,"L"
627971,"433 W LAKE MARY BLVD STE 1010-255","LAKE MARY","FL",32736,NA,NA,471,"433 W LAKE MARY BLVD STE 1010-255, LAKE MARY, FL, 32736","No_Match",NA,NA,NA,NA
627972,"433 WALL ST","EATON","CO",80615,40.5312414470001,-104.710151087,472,"433 WALL ST, EATON, CO, 80615","Match","Exact","433 WALL ST, EATON, CO, 80615",188674545,"L"
627973,"433 WALLACE STREET","DOYLE","TN",38559,35.864379193,-85.511182028,473,"433 WALLACE STREET, DOYLE, TN, 38559","Match","Exact","433 WALLACE ST, DOYLE, TN, 38559",34262584,"L"
627974,"433 WARREN RD","NEWTON FALLS","OH",44444,41.19111058,-80.967132158,474,"433 WARREN RD, NEWTON FALLS, OH, 44444","Match","Exact","433 WARREN RD, NEWTON FALLS, OH, 44444",117402169,"L"
627975,"433 WAUSAU STREET","BIRNAMWOOD","WI",54414,44.9309840710001,-89.212274984,475,"433 WAUSAU STREET, BIRNAMWOOD, WI, 54414","Match","Exact","433 WAUSAU ST, BIRNAMWOOD, WI, 54414",126859322,"L"
627976,"433 WEST 100TH STREET","CHICAGO","IL",60628,41.7124906010001,-87.6348173919999,476,"433 WEST 100TH STREET, CHICAGO, IL, 60628","Match","Exact","433 W 100TH ST, CHICAGO, IL, 60628",605471698,"L"
627977,"433 WEST 22ND STREET","UPLAND","PA",19015,NA,NA,477,"433 WEST 22ND STREET, UPLAND, PA, 19015","No_Match",NA,NA,NA,NA
627978,"433 WEST COUNTY DR","BRANCHBURG","NJ",8876,40.584676834,-74.699192218,478,"433 WEST COUNTY DR, BRANCHBURG, NJ, 8876","Match","Exact","433 W COUNTY DR, BRANCHBURG, NJ, 08876",59966614,"L"
627979,"433 WEST GREEN ST","HASTINGS","MI",49058,42.645907913,-85.29266889,479,"433 WEST GREEN ST, HASTINGS, MI, 49058","Match","Exact","433 W GREEN ST, HASTINGS, MI, 49058",10505268,"R"
627980,"433 WEST ST STE 7","AMHERST","MA",1002,42.341843972,-72.519940795,480,"433 WEST ST STE 7, AMHERST, MA, 1002","Match","Exact","433 WEST ST, AMHERST, MA, 01002",39868467,"R"
627981,"433 WEST STREET","STOUGHTON","WI",53589,42.9253902520001,-89.224777102,481,"433 WEST STREET, STOUGHTON, WI, 53589","Match","Exact","433 WEST ST, STOUGHTON, WI, 53589",49481596,"R"
627982,"433 WESTCHESTER CIRCLE","VALPARAISO","IN",46385,41.4533594490001,-87.1485868729999,482,"433 WESTCHESTER CIRCLE, VALPARAISO, IN, 46385","Match","Exact","433 WESTCHESTER CIR, VALPARAISO, IN, 46385",119919770,"R"
627983,"433 WESTERN AVENUE","ALBANY","NY",12203,42.665008513,-73.7871146159999,483,"433 WESTERN AVENUE, ALBANY, NY, 12203","Match","Exact","433 WESTERN AVE, ALBANY, NY, 12203",639455436,"R"
627984,"433 WESTVIEW DR","ROSEBURG","OR",97471,43.3085205510001,-123.377946975,484,"433 WESTVIEW DR, ROSEBURG, OR, 97471","Match","Exact","433 WESTVIEW DR, ROSEBURG, OR, 97471",636688067,"L"
627985,"433 WESTWOOD AVE","SMRYNA","TN",37167,35.9749027610001,-86.542937964,485,"433 WESTWOOD AVE, SMRYNA, TN, 37167","Match","Non_Exact","433 WESTWOOD DR, SMYRNA, TN, 37167",617751917,"L"
627986,"433 WILCLAY DR","NASHVILLE","TN",37209,36.143195217,-86.8760023299999,486,"433 WILCLAY DR, NASHVILLE, TN, 37209","Match","Exact","433 WILCLAY DR, NASHVILLE, TN, 37209",97180172,"L"
627987,"433 WILLIAMS STREET","LONGMEADOW","MA",1106,42.0505948360001,-72.566105866,487,"433 WILLIAMS STREET, LONGMEADOW, MA, 1106","Match","Exact","433 WILLIAMS ST, LONGMEADOW, MA, 01106",4063847,"R"
627988,"433 WILLOW BEND DR","MURPHY","TX",75094,33.0037490290001,-96.609638455,488,"433 WILLOW BEND DR, MURPHY, TX, 75094","Match","Exact","433 WILLOW BEND DR, MURPHY, TX, 75094",123540948,"L"
627989,"433 WILSON POND RD","NORTH MONMOTH","ME",4262,NA,NA,489,"433 WILSON POND RD, NORTH MONMOTH, ME, 4262","No_Match",NA,NA,NA,NA
627990,"433 WILSON ROAD","GRIFFIN","GA",30224,33.227737371,-84.233071336,490,"433 WILSON ROAD, GRIFFIN, GA, 30224","Match","Exact","433 WILSON RD, GRIFFIN, GA, 30224",635023986,"R"
627991,"433 WINDING ROAD SHORE DR","TOOL","TX",75143,NA,NA,491,"433 WINDING ROAD SHORE DR, TOOL, TX, 75143","No_Match",NA,NA,NA,NA
627992,"433 WOODLAND ST UNIT 188","HARTFORD","CT",6112,41.7808331750001,-72.6967892329999,492,"433 WOODLAND ST UNIT 188, HARTFORD, CT, 6112","Match","Exact","433 WOODLAND ST, HARTFORD, CT, 06112",3488945,"L"
627993,"433 WOODLAND STREET UNIT 188","HARTFORD","CT",6112,41.7808331750001,-72.6967892329999,493,"433 WOODLAND STREET UNIT 188, HARTFORD, CT, 6112","Match","Exact","433 WOODLAND ST, HARTFORD, CT, 06112",3488945,"L"
627994,"433 YOUNG RD","ANGIER","NC",27501,35.476234462,-78.670366544,494,"433 YOUNG RD, ANGIER, NC, 27501","Match","Exact","433 YOUNG RD, ANGIER, NC, 27501",71989769,"L"
627995,"433-435 LESLIE STREET","NEWARK","NJ",7112,40.7104147000001,-74.223470805,495,"433-435 LESLIE STREET, NEWARK, NJ, 7112","Match","Exact","433 LESLIE ST, NEWARK, NJ, 07112",63495979,"R"
627996,"4330 200TH STREET","DEEP RIVER","IA",52222,41.6704308400001,-92.3968529539999,496,"4330 200TH STREET, DEEP RIVER, IA, 52222","Match","Exact","4330 200TH ST, DEEP RIVER, IA, 52222",89576470,"L"
627997,"4330 33RD AVE","VERO BEACH","FL",32967,27.671979488,-80.418834349,497,"4330 33RD AVE, VERO BEACH, FL, 32967","Match","Exact","4330 33RD AVE, VERO BEACH, FL, 32967",120322556,"R"
627998,"4330 44TH STREET APT 5C","SUNNYSIDE","NY",11104,NA,NA,498,"4330 44TH STREET APT 5C, SUNNYSIDE, NY, 11104","No_Match",NA,NA,NA,NA
627999,"4330 46TH ST APT 1T","SUNNYSIDE","NY",11104,NA,NA,499,"4330 46TH ST APT 1T, SUNNYSIDE, NY, 11104","No_Match",NA,NA,NA,NA
628000,"4330 8TH AVENUE NORTH","SAINT PETERSBURG","FL",33713,27.779980423,-82.6921435579999,500,"4330 8TH AVENUE NORTH, SAINT PETERSBURG, FL, 33713","Match","Exact","4330 8TH AVE N, SAINT PETERSBURG, FL, 33713",124700136,"L"
