"ID","Address","City","State","Zip","lat","long","id","input_address","match_indicator","match_type","matched_address","tiger_line_id","tiger_side"
119001,"1237 CROSS GABLE","NEW BRAUNFELS","TX",78132,NA,NA,1,"1237 CROSS GABLE, NEW BRAUNFELS, TX, 78132","No_Match",NA,NA,NA,NA
119002,"1237 CROSS KEYS RD","LEXINGTON","KY",40504,38.0414358640001,-84.554865223,2,"1237 CROSS KEYS RD, LEXINGTON, KY, 40504","Match","Exact","1237 CROSS KEYS RD, LEXINGTON, KY, 40504",31933467,"R"
119003,"1237 DARTMOUTH DR","WAUNAKEE","WI",53597,43.1750832880001,-89.416690288,3,"1237 DARTMOUTH DR, WAUNAKEE, WI, 53597","Match","Exact","1237 DARTMOUTH DR, WAUNAKEE, WI, 53597",635872658,"L"
119004,"1237 DICKERSON ROAD","NORTH WALES","PA",19454,40.224886064,-75.273166305,4,"1237 DICKERSON ROAD, NORTH WALES, PA, 19454","Match","Exact","1237 DICKERSON RD, NORTH WALES, PA, 19454",135075350,"R"
119005,"1237 DOTHAN ROAD","COLUMBIA","SC",29210,34.0646711700001,-81.119236357,5,"1237 DOTHAN ROAD, COLUMBIA, SC, 29210","Match","Exact","1237 DOTHAN RD, COLUMBIA, SC, 29210",71845088,"L"
119006,"1237 DUNCAN DR","DRESHER","PA",19025,40.135782969,-75.150320708,6,"1237 DUNCAN DR, DRESHER, PA, 19025","Match","Exact","1237 DUNCAN DR, DRESHER, PA, 19025",135091819,"R"
119007,"1237 E 166TH PLACE","SOUTH HOLLAND","IL",60473,41.5927722050001,-87.587149569,7,"1237 E 166TH PLACE, SOUTH HOLLAND, IL, 60473","Match","Exact","1237 E 166TH PL, SOUTH HOLLAND, IL, 60473",111780787,"R"
119008,"1237 E ADAMS BLVD","LOS ANGELES","CA",90011,34.0172314000001,-118.25154428,8,"1237 E ADAMS BLVD, LOS ANGELES, CA, 90011","Match","Exact","1237 E ADAMS BLVD, LOS ANGELES, CA, 90011",141620061,"L"
119009,"1237 E DIANA AVE","ANAHEIM","CA",NA,33.8289192940001,-117.898072057,9,"1237 E DIANA AVE, ANAHEIM, CA, ","Match","Exact","1237 E DIANA AVE, ANAHEIM, CA, 92805",144027466,"L"
119010,"1237 E ROOSEVELT ST SUITE 1","PHOENIX","AZ",85006,33.458708867,-112.055589058,10,"1237 E ROOSEVELT ST SUITE 1, PHOENIX, AZ, 85006","Match","Non_Exact","1237 E ROOSEVELT ST, PHOENIX, AZ, 85006",128213927,"R"
119011,"1237 E SANTA CLARA ST APT 8","VENTURA","CA",93001,34.2795686170001,-119.281801134,11,"1237 E SANTA CLARA ST APT 8, VENTURA, CA, 93001","Match","Non_Exact","1237 E SANTA CLARA ST, VENTURA, CA, 93001",109951180,"L"
119012,"1237 E WEISGARBER RD UNIT 53136","KNOXVILLE","TN",37950,NA,NA,12,"1237 E WEISGARBER RD UNIT 53136, KNOXVILLE, TN, 37950","No_Match",NA,NA,NA,NA
119013,"1237 E WEISGARBER RD","KNOXVILLE","TN",37950,NA,NA,13,"1237 E WEISGARBER RD, KNOXVILLE, TN, 37950","Tie",NA,NA,NA,NA
119014,"1237 EAST 49TH STREET","BROOKLYN","NY",11234,40.6308884630001,-73.9291577929999,14,"1237 EAST 49TH STREET, BROOKLYN, NY, 11234","Match","Exact","1237 E 49TH ST, BROOKLYN, NY, 11234",59086014,"L"
119015,"1237 EAST 82ND STREET","BROOKLYN","NY",11236,40.630927596,-73.905594949,15,"1237 EAST 82ND STREET, BROOKLYN, NY, 11236","Match","Exact","1237 E 82ND ST, BROOKLYN, NY, 11236",59086513,"L"
119016,"1237 ENGLEWOOD","MEMPHIS","TN",38106,35.112919117,-90.0253324459999,16,"1237 ENGLEWOOD, MEMPHIS, TN, 38106","Match","Non_Exact","1237 ENGLEWOOD ST, MEMPHIS, TN, 38106",72957433,"R"
119017,"1237 FAIRLANE DR","CAPE GIRARDEAU","MO",63701,37.325303408,-89.554470292,17,"1237 FAIRLANE DR, CAPE GIRARDEAU, MO, 63701","Match","Exact","1237 FAIRLANE DR, CAPE GIRARDEAU, MO, 63701",35181957,"L"
119018,"1237 FARRAGUT PLACE NE","WASHINGTON","DC",20017,38.9516221650001,-76.988843002,18,"1237 FARRAGUT PLACE NE, WASHINGTON, DC, 20017","Match","Exact","1237 FARRAGUT PL NE, WASHINGTON, DC, 20017",76228244,"R"
119019,"1237 FRANKLIN ST NE","WASHINGTON","DC",20017,38.925505931,-76.989536562,19,"1237 FRANKLIN ST NE, WASHINGTON, DC, 20017","Match","Exact","1237 FRANKLIN ST NE, WASHINGTON, DC, 20017",76228772,"R"
119020,"1237 FRONT STREET","CONWAY","AR",72032,35.0958156250001,-92.4429614219999,20,"1237 FRONT STREET, CONWAY, AR, 72032","Match","Exact","1237 FRONT ST, CONWAY, AR, 72032",604749456,"L"
119021,"1237 FRONT","CONWAY","AR",72032,35.0958156250001,-92.4429614219999,21,"1237 FRONT, CONWAY, AR, 72032","Match","Non_Exact","1237 FRONT ST, CONWAY, AR, 72032",604749456,"L"
119022,"1237 GALAHAD CRESCENT","VA BEACH","VA",23453,NA,NA,22,"1237 GALAHAD CRESCENT, VA BEACH, VA, 23453","No_Match",NA,NA,NA,NA
119023,"1237 GARDEN VILLAGE DRIVE","FLORISSANT","MO",63031,38.824774575,-90.328338418,23,"1237 GARDEN VILLAGE DRIVE, FLORISSANT, MO, 63031","Match","Exact","1237 GARDEN VILLAGE DR, FLORISSANT, MO, 63031",100193666,"R"
119024,"1237 GRAND STREET","WESTBURY","NY",11590,40.757351564,-73.590799736,24,"1237 GRAND STREET, WESTBURY, NY, 11590","Match","Exact","1237 GRAND ST, WESTBURY, NY, 11590",147623979,"L"
119025,"1237 GRANDE VIEW","LOGANVILLE","GA",30052,33.7295183310001,-83.928698878,25,"1237 GRANDE VIEW, LOGANVILLE, GA, 30052","Match","Exact","1237 GRANDE VW, LOGANVILLE, GA, 30052",624379874,"L"
119026,"1237 GRANDVIEW AVE","GLENDALE","CA",91201,34.166311077,-118.281003424,26,"1237 GRANDVIEW AVE, GLENDALE, CA, 91201","Match","Exact","1237 GRANDVIEW AVE, GLENDALE, CA, 91201",142727958,"L"
119027,"1237 GRAVES AVE","EL CAJON","CA",92020,32.8124137290001,-116.961531782,27,"1237 GRAVES AVE, EL CAJON, CA, 92020","Match","Non_Exact","1237 GRAVES AVE, EL CAJON, CA, 92021",633279773,"R"
119028,"1237 GREEN OAK RD","VISTA","CA",92081,33.1573190440001,-117.225968639,28,"1237 GREEN OAK RD, VISTA, CA, 92081","Match","Exact","1237 GREEN OAK RD, VISTA, CA, 92081",650392503,"R"
119029,"1237 GREENRIDGE AVENUE","LITHONIA","GA",30058,33.7580729310001,-84.153448501,29,"1237 GREENRIDGE AVENUE, LITHONIA, GA, 30058","Match","Exact","1237 GREENRIDGE AVE, LITHONIA, GA, 30058",624900434,"L"
119030,"1237 GREENWICH STREET SW","ATLANTA","GA",30310,33.7438719900001,-84.428248429,30,"1237 GREENWICH STREET SW, ATLANTA, GA, 30310","Match","Exact","1237 GREENWICH ST SW, ATLANTA, GA, 30310",17342555,"R"
119031,"1237 HAMBRICK DR","STONE MOUNTAIN","GA",30083,NA,NA,31,"1237 HAMBRICK DR, STONE MOUNTAIN, GA, 30083","Tie",NA,NA,NA,NA
119032,"1237 HEBDEN COVE","VIRGINIA BEACH","VA",23452,36.8716601450001,-76.102709889,32,"1237 HEBDEN COVE, VIRGINIA BEACH, VA, 23452","Match","Exact","1237 HEBDEN COVE, VA BCH, VA, 23452",122295419,"L"
119033,"1237 HYDRANGEA CIR  NW","CONCORD","NC",28027,35.377900202,-80.721720021,33,"1237 HYDRANGEA CIR  NW, CONCORD, NC, 28027","Match","Exact","1237 HYDRANGEA CIR NW, CONCORD, NC, 28027",650556638,"R"
119034,"1237 LANSING AVE W","BREMERTON","WA",98312,47.552947112,-122.67622935,34,"1237 LANSING AVE W, BREMERTON, WA, 98312","Match","Exact","1237 LANSING AVE W, BREMERTON, WA, 98312",187642174,"R"
119035,"1237 LAURA LANE","NORTH WALES","PA",19454,40.2057862880001,-75.24602737,35,"1237 LAURA LANE, NORTH WALES, PA, 19454","Match","Exact","1237 LAURA LN, NORTH WALES, PA, 19454",135112343,"L"
119036,"1237 LITITZ PIKE","LANCASTER","PA",17601,40.05908372,-76.30599362,36,"1237 LITITZ PIKE, LANCASTER, PA, 17601","Match","Exact","1237 LITITZ PIKE, LANCASTER, PA, 17601",636706080,"R"
119037,"1237 LUZERN STREET","SEASIDE","CA",93955,36.602919048,-121.831548651,37,"1237 LUZERN STREET, SEASIDE, CA, 93955","Match","Exact","1237 LUZERN ST, SEASIDE, CA, 93955",649935530,"L"
119038,"1237 MAC DUFF DR","MURFREESBORO","TN",37128,35.834583476,-86.4531905859999,38,"1237 MAC DUFF DR, MURFREESBORO, TN, 37128","Match","Non_Exact","1237 MACDUFF DR, MURFREESBORO, TN, 37128",606767079,"L"
119039,"1237 MARTINQUE CT","MARCO ISLAND","FL",34145,25.960873593,-81.715937246,39,"1237 MARTINQUE CT, MARCO ISLAND, FL, 34145","Match","Non_Exact","1237 MARTINIQUE CT, MARCO ISLAND, FL, 34145",115122195,"R"
119040,"1237 MARVIN AVENUE","CHARLESTON","SC",29407,32.8042066240001,-79.998727636,40,"1237 MARVIN AVENUE, CHARLESTON, SC, 29407","Match","Exact","1237 MARVIN AVE, CHARLESTON, SC, 29407",108803605,"L"
119041,"1237 MERCEDES PL","ORLANDO","FL",32804,28.562840341,-81.3964857019999,41,"1237 MERCEDES PL, ORLANDO, FL, 32804","Match","Exact","1237 MERCEDES PL, ORLANDO, FL, 32804",94280252,"R"
119042,"1237 MILNE DRIVE","LOCKPORT","IL",60441,41.584882323,-88.033824592,42,"1237 MILNE DRIVE, LOCKPORT, IL, 60441","Match","Exact","1237 MILNE DR, LOCKPORT, IL, 60441",111545529,"R"
119043,"1237 N 3000 WEST","WEST POINT","UT",84015,41.1315657100001,-112.083799348,43,"1237 N 3000 WEST, WEST POINT, UT, 84015","Match","Exact","1237 N 3000 W, WEST POINT, UT, 84015",229356926,"L"
119044,"1237 N LUNA AVE","CHICAGO","IL",60639,NA,NA,44,"1237 N LUNA AVE, CHICAGO, IL, 60639","No_Match",NA,NA,NA,NA
119045,"1237 N YARBERRY COURT","SPRINGFIELD","MO",65802,37.220071148,-93.217816399,45,"1237 N YARBERRY COURT, SPRINGFIELD, MO, 65802","Match","Non_Exact","1237 N YARBERRY AVE, SPRINGFIELD, MO, 65802",76696410,"L"
119046,"1237 NE 71ST AVE","PORTLAND","OR",97213,45.531863205,-122.589829892,46,"1237 NE 71ST AVE, PORTLAND, OR, 97213","Match","Exact","1237 NE 71ST AVE, PORTLAND, OR, 97213",157513423,"L"
119047,"1237 NELSON STREET","COAL TOWNSHIP","PA",17866,40.7805133470001,-76.571418189,47,"1237 NELSON STREET, COAL TOWNSHIP, PA, 17866","Match","Exact","1237 NELSON ST, COAL TOWNSHIP, PA, 17866",48061162,"L"
119048,"1237 NORTHPOINT DR","SAN FRANCISCO","CA",94130,37.8315366420001,-122.373914445,48,"1237 NORTHPOINT DR, SAN FRANCISCO, CA, 94130","Match","Exact","1237 NORTHPOINT DR, SAN FRANCISCO, CA, 94130",192294402,"L"
119049,"1237 NORWELL DRIVE","COLUMBUS","OH",43220,40.0479503650001,-83.0538561659999,49,"1237 NORWELL DRIVE, COLUMBUS, OH, 43220","Match","Exact","1237 NORWELL DR, COLUMBUS, OH, 43220",218693168,"L"
119050,"1237 NW 7TH STREET APT 204","FORT LAUDERDALE","FL",33311,26.131130935,-80.157813072,50,"1237 NW 7TH STREET APT 204, FORT LAUDERDALE, FL, 33311","Match","Non_Exact","1237 NW 7TH ST, FORT LAUDERDALE, FL, 33311",114721251,"R"
119051,"1237 OAK ISLAND COURT","FORT COLLINS","CO",80525,40.5184333600001,-105.05601408,51,"1237 OAK ISLAND COURT, FORT COLLINS, CO, 80525","Match","Exact","1237 OAK ISLAND CT, FORT COLLINS, CO, 80525",188519393,"L"
119052,"1237 OLD TIMBER TRL","FLINT","MI",48532,43.0225552140001,-83.805687501,52,"1237 OLD TIMBER TRL, FLINT, MI, 48532","Match","Exact","1237 OLD TIMBER TRL, FLINT, MI, 48532",627647646,"L"
119053,"1237 OLEANDER DRIVE","LILBURN","GA",30047,33.8605416520001,-84.093769069,53,"1237 OLEANDER DRIVE, LILBURN, GA, 30047","Match","Non_Exact","1237 OLEANDER DR SW, LILBURN, GA, 30047",88948904,"R"
119054,"1237 ORMSBY COURT","LOUISVILLE","KY",40203,38.233323297,-85.764993351,54,"1237 ORMSBY COURT, LOUISVILLE, KY, 40203","Match","Exact","1237 ORMSBY CT, LOUISVILLE, KY, 40203",96843940,"L"
119055,"1237 PAPA BEAR LANE","COLUMBUS","TX",78934,NA,NA,55,"1237 PAPA BEAR LANE, COLUMBUS, TX, 78934","No_Match",NA,NA,NA,NA
119056,"1237 PARK PLAZA DR","COLUMBUS","OH",43213,39.956095503,-82.8492919569999,56,"1237 PARK PLAZA DR, COLUMBUS, OH, 43213","Match","Exact","1237 PARK PLAZA DR, COLUMBUS, OH, 43213",218649962,"L"
119057,"1237 PERKINS LANE","LANCASTER","KY",40444,37.5763008550001,-84.526101151,57,"1237 PERKINS LANE, LANCASTER, KY, 40444","Match","Exact","1237 PERKINS LN, LANCASTER, KY, 40444",32537347,"L"
119058,"1237 PONDELLA DRIVE","CHARLOTTE","NC",28213,35.2736093840001,-80.78206441,58,"1237 PONDELLA DRIVE, CHARLOTTE, NC, 28213","Match","Exact","1237 PONDELLA DR, CHARLOTTE, NC, 28213",70507342,"L"
119059,"1237 POST OAK CIRCLE","FAIRFIELD","AL",35064,33.465307281,-86.932164401,59,"1237 POST OAK CIRCLE, FAIRFIELD, AL, 35064","Match","Exact","1237 POST OAK CIR, FAIRFIELD, AL, 35064",81652735,"R"
119060,"1237 QUAIL RIDGE DRIVE","ONEIDA","WI",54115,44.544393375,-88.135518194,60,"1237 QUAIL RIDGE DRIVE, ONEIDA, WI, 54115","Match","Non_Exact","1237 QUAIL RIDGE DR, ONEIDA, WI, 54155",148121923,"R"
119061,"1237 RAVELLE CT","BELLBROOK","OH",45305,39.656452174,-84.060208836,61,"1237 RAVELLE CT, BELLBROOK, OH, 45305","Match","Exact","1237 RAVELLE CT, BELLBROOK, OH, 45305",143394345,"R"
119062,"1237 RIVER MIST DRIVE","LILBURN","GA",30047,33.869161739,-84.073348857,62,"1237 RIVER MIST DRIVE, LILBURN, GA, 30047","Match","Exact","1237 RIVER MIST DR, LILBURN, GA, 30047",88904168,"L"
119063,"1237 ROSSVIEW RD","CLARKSVILLE","TN",37043,36.555095292,-87.257160566,63,"1237 ROSSVIEW RD, CLARKSVILLE, TN, 37043","Match","Exact","1237 ROSSVIEW RD, CLARKSVILLE, TN, 37043",31833300,"L"
119064,"1237 RYDALE RD","DAYTON","OH",45405,39.808749022,-84.212520355,64,"1237 RYDALE RD, DAYTON, OH, 45405","Match","Exact","1237 RYDALE RD, DAYTON, OH, 45405",143568092,"L"
119065,"1237 S MADISON","JONESBORO","AR",72401,35.830749338,-90.707005707,65,"1237 S MADISON, JONESBORO, AR, 72401","Match","Non_Exact","1237 S MADISON ST, JONESBORO, AR, 72401",46909668,"L"
119066,"1237 S VAL VISTA DR","MESA","AZ",85204,33.3928231800001,-111.753797281,66,"1237 S VAL VISTA DR, MESA, AZ, 85204","Match","Exact","1237 S VAL VISTA DR, MESA, AZ, 85204",128933803,"L"
119067,"1237 S VICTORIA  UNIT 501","OXNARD","CA",93035,34.188742818,-119.22126264,67,"1237 S VICTORIA  UNIT 501, OXNARD, CA, 93035","Match","Non_Exact","1237 VICTORIA AVE, OXNARD, CA, 93035",109954763,"R"
119068,"1237 S VICTORIA AVE STE 167","OXNARD","CA",93035,34.188742818,-119.22126264,68,"1237 S VICTORIA AVE STE 167, OXNARD, CA, 93035","Match","Exact","1237 VICTORIA AVE, OXNARD, CA, 93035",109954763,"R"
119069,"1237 SE ROSEHILL DRIVE","LEES SUMMIT","MO",64081,38.897293629,-94.333312948,69,"1237 SE ROSEHILL DRIVE, LEES SUMMIT, MO, 64081","Match","Exact","1237 ROSEHILL DR, LEES SUMMIT, MO, 64081",91512267,"R"
119070,"1237 SOUTH 525 WEST","DANVILLE","IN",46122,39.7428950990001,-86.618494442,70,"1237 SOUTH 525 WEST, DANVILLE, IN, 46122","Match","Non_Exact","1237 S CO RD 525 W, DANVILLE, IN, 46122",89221416,"R"
119071,"1237 SOUTH D STREET","LAKE WORTH","FL",33460,26.601066496,-80.062594632,71,"1237 SOUTH D STREET, LAKE WORTH, FL, 33460","Match","Exact","1237 S D ST, LAKE WORTH, FL, 33460",115294326,"R"
119072,"1237 SOUTH NEW AVE","SPRINGFIELD","MO",65807,37.1921740700001,-93.305748625,72,"1237 SOUTH NEW AVE, SPRINGFIELD, MO, 65807","Match","Exact","1237 S NEW AVE, SPRINGFIELD, MO, 65807",76675355,"R"
119073,"1237 SPAR AVENUE","BEACHWOOD","NJ",8722,39.923360931,-74.2042085959999,73,"1237 SPAR AVENUE, BEACHWOOD, NJ, 8722","Match","Exact","1237 SPAR AVE, BEACHWOOD, NJ, 08722",203730388,"L"
119074,"1237 STANLEY AVENUE APT 1H","BROOKLYN","NY",11208,40.665925078,-73.864398706,74,"1237 STANLEY AVENUE APT 1H, BROOKLYN, NY, 11208","Match","Exact","1237 STANLEY AVE, BROOKLYN, NY, 11208",59102469,"L"
119075,"1237 SUNFLOWER AVENUE","COVINA","CA",91724,34.102087876,-117.846355586,75,"1237 SUNFLOWER AVENUE, COVINA, CA, 91724","Match","Non_Exact","1237 N SUNFLOWER AVE, COVINA, CA, 91724",142819101,"L"
119076,"1237 SUSSEX DRIVE","NORTH LAUDERDALE","FL",33068,26.2123202540001,-80.232194614,76,"1237 SUSSEX DRIVE, NORTH LAUDERDALE, FL, 33068","Match","Exact","1237 SUSSEX DR, N LAUDERDALE, FL, 33068",650097818,"L"
119077,"1237 TAMPICO AVE","SALINAS","CA",93906,36.6993648650001,-121.640227886,77,"1237 TAMPICO AVE, SALINAS, CA, 93906","Match","Exact","1237 TAMPICO AVE, SALINAS, CA, 93906",196823290,"L"
119078,"1237 VIKING COURT","MANNING","SC",29102,33.6711187940001,-80.210455912,78,"1237 VIKING COURT, MANNING, SC, 29102","Match","Exact","1237 VIKING CT, MANNING, SC, 29102",606080714,"L"
119079,"1237 W 108TH ST","CHICAGO","IL",60643,41.697685698,-87.653235977,79,"1237 W 108TH ST, CHICAGO, IL, 60643","Match","Exact","1237 W 108TH ST, CHICAGO, IL, 60643",111823580,"L"
119080,"1237 W 45TH STREET","LOS ANGELES","CA",90037,34.002678776,-118.296725491,80,"1237 W 45TH STREET, LOS ANGELES, CA, 90037","Match","Exact","1237 W 45TH ST, LOS ANGELES, CA, 90037",141607778,"R"
119081,"1237 W 6TH ST","STAUNTON","IL",62088,39.005854732,-89.80100499,81,"1237 W 6TH ST, STAUNTON, IL, 62088","Match","Exact","1237 W 6TH ST, STAUNTON, IL, 62088",97935125,"R"
119082,"1237 W CR 800 N","LIZTON","IN",46149,39.8790753480001,-86.548371683,82,"1237 W CR 800 N, LIZTON, IN, 46149","Match","Exact","1237 W CO RD 800 N, LIZTON, IN, 46149",641433496,"L"
119083,"1237 W MONROE ST","SANDUSKY","OH",44870,41.4467208090001,-82.7185080529999,83,"1237 W MONROE ST, SANDUSKY, OH, 44870","Match","Exact","1237 W MONROE ST, SANDUSKY, OH, 44870",55324667,"L"
119084,"1237 W PARLIAMENT","CRETE","IL",60417,41.447618193,-87.6432662719999,84,"1237 W PARLIAMENT, CRETE, IL, 60417","Match","Non_Exact","1237 PARLIAMENT ST, CRETE, IL, 60417",111630125,"R"
119085,"1237 WASHINGTON","MADISON","IL",62060,38.6893806410001,-90.153142039,85,"1237 WASHINGTON, MADISON, IL, 62060","Match","Non_Exact","1237 WASHINGTON AVE, MADISON, IL, 62060",107683042,"L"
119086,"1237 WEST MONROE STREET","SPRINGFIELD","IL",62704,39.799651897,-89.6754898,86,"1237 WEST MONROE STREET, SPRINGFIELD, IL, 62704","Match","Exact","1237 W MONROE ST, SPRINGFIELD, IL, 62704",97322719,"R"
119087,"1237 WINDWARD COURT","GREENWOOD","IN",46143,39.586676406,-86.07470417,87,"1237 WINDWARD COURT, GREENWOOD, IN, 46143","Match","Exact","1237 WINDWARD CT, GREENWOOD, IN, 46143",627748976,"R"
119088,"1237 WOODCHASE TRAIL","BATAVIA","OH",45103,39.0797536470001,-84.233547025,88,"1237 WOODCHASE TRAIL, BATAVIA, OH, 45103","Match","Exact","1237 WOODCHASE TRL, BATAVIA, OH, 45103",618765268,"R"
119089,"1237 WOODLAND DRIVE","ELIZABETH","KY",42701,37.7214921140001,-85.883587763,89,"1237 WOODLAND DRIVE, ELIZABETH, KY, 42701","Match","Non_Exact","1237 WOODLAND DR, ELIZABETHTOWN, KY, 42701",34639943,"R"
119090,"1237 WOODLAWN DR","UNIONTOWN","OH",44685,NA,NA,90,"1237 WOODLAWN DR, UNIONTOWN, OH, 44685","No_Match",NA,NA,NA,NA
119091,"1237 WRIGHT AVE","CROWLEY","LA",70526,30.224633356,-92.36457869,91,"1237 WRIGHT AVE, CROWLEY, LA, 70526","Match","Exact","1237 WRIGHT AVE, CROWLEY, LA, 70526",88303833,"L"
119092,"1237 YELLOWHAMMER DR","PATTERSON","CA",95363,37.4649831890001,-121.14759411,92,"1237 YELLOWHAMMER DR, PATTERSON, CA, 95363","Match","Exact","1237 YELLOWHAMMER DR, PATTERSON, CA, 95363",102634416,"R"
119093,"1237 YERKES STREET","PHILADELPHIA","PA",19119,40.0599922370001,-75.1722153009999,93,"1237 YERKES STREET, PHILADELPHIA, PA, 19119","Match","Exact","1237 YERKES ST, PHILADELPHIA, PA, 19119",131395570,"L"
119094,"1237","CLINTON","TN",37716,NA,NA,94,"1237, CLINTON, TN, 37716","No_Match",NA,NA,NA,NA
119095,"1237","MESA","AZ",85204,NA,NA,95,"1237, MESA, AZ, 85204","No_Match",NA,NA,NA,NA
119096,"12370 CROOKED CREEK LANE","FT MYERS","FL",33913,26.598583193,-81.7556912869999,96,"12370 CROOKED CREEK LANE, FT MYERS, FL, 33913","Match","Exact","12370 CROOKED CREEK LN, FORT MYERS, FL, 33913",619097926,"L"
119097,"12370 Rock Ridge Lane","FORT MYERS","FL",33913,26.5978356840001,-81.755098816,97,"12370 Rock Ridge Lane, FORT MYERS, FL, 33913","Match","Exact","12370 ROCK RIDGE LN, FORT MYERS, FL, 33913",640701963,"L"
119098,"12370 S MILLER STREET","CLINTON","IN",47842,39.7039539940001,-87.519979758,98,"12370 S MILLER STREET, CLINTON, IN, 47842","Match","Non_Exact","12370 S MILLER AVE, CLINTON, IN, 47842",66501503,"R"
119099,"12371 E HARNEY LANE","LODI","CA",95240,38.101766588,-121.16485493,99,"12371 E HARNEY LANE, LODI, CA, 95240","Match","Exact","12371 E HARNEY LN, LODI, CA, 95240",133905688,"L"
119100,"12371 ELM HURST DR","ATHENS","AL",35613,34.7393291010001,-86.879630379,100,"12371 ELM HURST DR, ATHENS, AL, 35613","Match","Exact","12371 ELM HURST DR, ATHENS, AL, 35613",637496533,"R"
119101,"12371 STARHILL TRACE","ST. FRANCISVILLE","LA",70775,30.7544330110001,-91.2999136339999,101,"12371 STARHILL TRACE, ST. FRANCISVILLE, LA, 70775","Match","Non_Exact","12371 STAR HILL TRCE, SAINT FRANCISVILLE, LA, 70775",651009374,"R"
119102,"12371 TORBERG PLACE","FISHERS","IN",46038,39.965771751,-86.014950066,102,"12371 TORBERG PLACE, FISHERS, IN, 46038","Match","Exact","12371 TORBERG PL, FISHERS, IN, 46038",29305528,"R"
119103,"12372 GARNER ROAD","BEAUMONT","TX",77705,29.905131344,-94.1399592559999,103,"12372 GARNER ROAD, BEAUMONT, TX, 77705","Match","Exact","12372 GARNER RD, BEAUMONT, TX, 77705",73878492,"R"
119104,"12372 IVYWOOD ST NW","COON RAPIDS","MN",55433,45.1953843530001,-93.343409531,104,"12372 IVYWOOD ST NW, COON RAPIDS, MN, 55433","Match","Exact","12372 IVYWOOD ST NW, COON RAPIDS, MN, 55433",97495013,"R"
119105,"12372 MONTANO COURT","CASTLE PINES","CO",80108,39.491697495,-104.912780962,105,"12372 MONTANO COURT, CASTLE PINES, CO, 80108","Match","Exact","12372 MONTANO CT, CASTLE PINES, CO, 80108",130841538,"R"
119106,"12372 ORANGE PLACE","CHINO","CA",91710,34.0286773280001,-117.660453133,106,"12372 ORANGE PLACE, CHINO, CA, 91710","Match","Exact","12372 ORANGE PL, CHINO, CA, 91710",144687246,"L"
119107,"12372 SE 60TH TERRACE","BELLEVUE","FL",34420,29.0424675090001,-82.04991756,107,"12372 SE 60TH TERRACE, BELLEVUE, FL, 34420","Match","Non_Exact","12372 SE 60TH TER, BELLEVIEW, FL, 34420",116746357,"L"
119108,"12372 SPRING VALLEY RD","MOODY","TX",76557,31.340355829,-97.33929096,108,"12372 SPRING VALLEY RD, MOODY, TX, 76557","Match","Exact","12372 SPRING VALLEY RD, MOODY, TX, 76557",146770117,"L"
119109,"12373 310TH AVE","STRATHCONA","MN",56759,48.576713247,-95.9279990909999,109,"12373 310TH AVE, STRATHCONA, MN, 56759","Match","Exact","12373 310TH AVE, STRATHCONA, MN, 56759",176606547,"L"
119110,"12373 DOGWOOD TRAIL","GLOUCESTER","VA",23061,37.547427741,-76.541868366,110,"12373 DOGWOOD TRAIL, GLOUCESTER, VA, 23061","Match","Exact","12373 DOGWOOD TRL, GLOUCESTER, VA, 23061",168217504,"R"
119111,"12373 N 147TH DR","SURPRISE","AZ",85379,33.5961954380001,-112.377162823,111,"12373 N 147TH DR, SURPRISE, AZ, 85379","Match","Exact","12373 N 147TH DR, SURPRISE, AZ, 85379",244012187,"R"
119112,"12374 AVENUE 424","OROSI","CA",93647,36.5593721340001,-119.296627904,112,"12374 AVENUE 424, OROSI, CA, 93647","Match","Exact","12374 AVE 424, OROSI, CA, 93647",639036766,"R"
119113,"12374 BRIARDALE WAY","SAN DIEGO","CA",92128,32.944062439,-117.074471279,113,"12374 BRIARDALE WAY, SAN DIEGO, CA, 92128","Match","Exact","12374 BRIARDALE WAY, SAN DIEGO, CA, 92128",195391537,"L"
119114,"12374 HIGHLAND DRIVE","GEISMAR","LA",70734,30.2523819840001,-90.994109879,114,"12374 HIGHLAND DRIVE, GEISMAR, LA, 70734","Match","Exact","12374 HIGHLAND DR, GEISMAR, LA, 70734",651727072,"R"
119115,"12374 SAN JOSE DRIVE","RESTON","VA",20191,38.933263412,-77.374745048,115,"12374 SAN JOSE DRIVE, RESTON, VA, 20191","Match","Exact","12374 SAN JOSE DR, RESTON, VA, 20191",75957737,"R"
119116,"12374 TRAMONTO DRIVE","CONROE","TX",77304,30.3797724180001,-95.546282898,116,"12374 TRAMONTO DRIVE, CONROE, TX, 77304","Match","Exact","12374 TRAMONTO DR, CONROE, TX, 77304",635035983,"R"
119117,"12374 WEST ATLANTIC PLACE","LAKEWOOD","CO",80228,39.6806969470001,-105.133857084,117,"12374 WEST ATLANTIC PLACE, LAKEWOOD, CO, 80228","Match","Exact","12374 W ATLANTIC PL, LAKEWOOD, CO, 80228",177317663,"L"
119118,"12374 WHITWORTH TERRACE CT","ST LOUIS","MO",63141,38.6678436670001,-90.46055624,118,"12374 WHITWORTH TERRACE CT, ST LOUIS, MO, 63141","Match","Exact","12374 WHITWORTH TERRACE CT, SAINT LOUIS, MO, 63141",100186965,"R"
119119,"12375 ALDERBROOK DR","RANCHO CUCAMONGA","CA",91739,34.1154818690001,-117.535416797,119,"12375 ALDERBROOK DR, RANCHO CUCAMONGA, CA, 91739","Match","Exact","12375 ALDERBROOK DR, ETIWANDA, CA, 91739",614814138,"R"
119120,"12375 BAUMHART RD","AMHERST","OH",44001,41.3083161810001,-82.2730866219999,120,"12375 BAUMHART RD, AMHERST, OH, 44001","Match","Exact","12375 BAUMHART RD, AMHERST, OH, 44001",652732922,"L"
119121,"12375 BISSONNET ST UNIT 36","HOUSTON","TX",77099,29.6764212640001,-95.59696236,121,"12375 BISSONNET ST UNIT 36, HOUSTON, TX, 77099","Match","Exact","12375 BISSONNET ST, HOUSTON, TX, 77099",96603024,"L"
119122,"12375 E CLINTON AVENUE","SANGER","CA",93657,36.7719130290001,-119.568690799,122,"12375 E CLINTON AVENUE, SANGER, CA, 93657","Match","Exact","12375 E CLINTON AVE, SANGER, CA, 93657",197643728,"R"
119123,"12375 JAYCIE CIRCLE","MIDWEST CITY","OK",73170,35.4454042300001,-97.3106968929999,123,"12375 JAYCIE CIRCLE, MIDWEST CITY, OK, 73170","Match","Non_Exact","12375 JAYCIE CIR, MIDWEST CITY, OK, 73130",638578647,"L"
119124,"12375 MOUNT CLARE PLACE","WALDORF","MD",20601,NA,NA,124,"12375 MOUNT CLARE PLACE, WALDORF, MD, 20601","No_Match",NA,NA,NA,NA
119125,"12375 ROAD 12K","OTTAWA","OH",45875,NA,NA,125,"12375 ROAD 12K, OTTAWA, OH, 45875","No_Match",NA,NA,NA,NA
119126,"12375 S MILITARY TR UNIT 73","BOYNTON BEACH","FL",33436,26.4937543070001,-80.123030311,126,"12375 S MILITARY TR UNIT 73, BOYNTON BEACH, FL, 33436","Match","Exact","12375 MILITARY TRL, BOYNTON BEACH, FL, 33436",115288485,"R"
119127,"12375 S MILITARY TRL  LOT 73","BOYNTON BEACH","FL",33436,26.4937543070001,-80.123030311,127,"12375 S MILITARY TRL  LOT 73, BOYNTON BEACH, FL, 33436","Match","Exact","12375 MILITARY TRL, BOYNTON BEACH, FL, 33436",115288485,"R"
119128,"12375 S MILITARY TRL LOT 73","BOYNTON BEACH","FL",33436,26.4937543070001,-80.123030311,128,"12375 S MILITARY TRL LOT 73, BOYNTON BEACH, FL, 33436","Match","Exact","12375 MILITARY TRL, BOYNTON BEACH, FL, 33436",115288485,"R"
119129,"12375 SUNCHASE DRIVE","JACKSONVILLE","FL",32246,NA,NA,129,"12375 SUNCHASE DRIVE, JACKSONVILLE, FL, 32246","No_Match",NA,NA,NA,NA
119130,"12375 SW 202ND AVE","MIAMI","FL",33196,25.648216345,-80.520467659,130,"12375 SW 202ND AVE, MIAMI, FL, 33196","Match","Exact","12375 SW 202ND AVE, MIAMI, FL, 33196",115952580,"R"
119131,"12376 NEWBROOK DR","HOUSTON","TX",77072,29.6844746720001,-95.597691792,131,"12376 NEWBROOK DR, HOUSTON, TX, 77072","Match","Exact","12376 NEWBROOK DR, HOUSTON, TX, 77072",96035423,"L"
119132,"12377 BROOKNEAL HIGHWAY","GLADYS","VA",24554,37.125510439,-79.01895273,132,"12377 BROOKNEAL HIGHWAY, GLADYS, VA, 24554","Match","Exact","12377 BROOKNEAL HWY, GLADYS, VA, 24554",647624213,"L"
119133,"12377 CREEKVIEW DRIVE UNIT 109","SAN DIEGO","CA",92128,32.944469934,-117.091076908,133,"12377 CREEKVIEW DRIVE UNIT 109, SAN DIEGO, CA, 92128","Match","Exact","12377 CREEKVIEW DR, SAN DIEGO, CA, 92128",627886377,"R"
119134,"12377 MAVERICK DRIVE APT D","MARYLAND HEIGHTS","MO",63043,38.7172688300001,-90.4511200699999,134,"12377 MAVERICK DRIVE APT D, MARYLAND HEIGHTS, MO, 63043","Match","Exact","12377 MAVERICK DR, MARYLAND HEIGHTS, MO, 63043",635921149,"R"
119135,"12377 PEABODY DRIVE","FENTON","MI",48430,42.7498062430001,-83.711347098,135,"12377 PEABODY DRIVE, FENTON, MI, 48430","Match","Exact","12377 PEABODY DR, FENTON, MI, 48430",23562152,"R"
119136,"12377 S 1000 W","WEST LAFAYETTE","IN",47906,40.571209647,-87.057390579,136,"12377 S 1000 W, WEST LAFAYETTE, IN, 47906","Match","Exact","12377 S 1000 W, W LAFAYETTE, IN, 47906",27361491,"R"
119137,"12377 UDALL RD","HIRAM","OH",44234,41.328888347,-81.121245403,137,"12377 UDALL RD, HIRAM, OH, 44234","Match","Exact","12377 UDALL RD, HIRAM, OH, 44234",137534378,"L"
119138,"12378 ALPINE CIRCLE","VICTORVILLE","CA",92392,34.475164702,-117.370273752,138,"12378 ALPINE CIRCLE, VICTORVILLE, CA, 92392","Match","Exact","12378 ALPINE CIR, VICTORVILLE, CA, 92392",144743009,"L"
119139,"12378 CADY CREEK HANOVER","HANOVER","VA",23069,37.746902731,-77.364075643,139,"12378 CADY CREEK HANOVER, HANOVER, VA, 23069","Match","Non_Exact","12378 CADY CREEK DR, HANOVER, VA, 23069",220556052,"R"
119140,"12378 CR 3450","STRATFORD","OK",74872,34.8059171420001,-96.8623521809999,140,"12378 CR 3450, STRATFORD, OK, 74872","Match","Exact","12378 CO RD 3450, STRATFORD, OK, 74872",606908827,"R"
119141,"12378 LEOPOLD RD","LEOPOLD","IN",47551,38.1045187770001,-86.586015719,141,"12378 LEOPOLD RD, LEOPOLD, IN, 47551","Match","Exact","12378 LEOPOLD RD, LEOPOLD, IN, 47551",606658181,"R"
119142,"12378 NEWBROOK","HOUSTON","TX",77072,29.6844739960001,-95.597721676,142,"12378 NEWBROOK, HOUSTON, TX, 77072","Match","Non_Exact","12378 NEWBROOK DR, HOUSTON, TX, 77072",96035423,"L"
119143,"12378 SPRING LEAF","SHEPARDSVILLE","KY",40165,NA,NA,143,"12378 SPRING LEAF, SHEPARDSVILLE, KY, 40165","No_Match",NA,NA,NA,NA
119144,"12379 CASCADES POINT DRIVE","BOCA RATON","FL",33428,NA,NA,144,"12379 CASCADES POINT DRIVE, BOCA RATON, FL, 33428","No_Match",NA,NA,NA,NA
119145,"12379 FAIRHAVEN DR","BATON ROUGE","LA",70815,30.4497376900001,-91.045520612,145,"12379 FAIRHAVEN DR, BATON ROUGE, LA, 70815","Match","Exact","12379 FAIRHAVEN DR, BATON ROUGE, LA, 70815",92191678,"L"
119146,"12379 SMITH ROAD","ROCKFORD","OH",45882,NA,NA,146,"12379 SMITH ROAD, ROCKFORD, OH, 45882","No_Match",NA,NA,NA,NA
119147,"12379 W WAVERLY DR","CASA GRANDE","AZ",85194,32.9817089960001,-111.700126259,147,"12379 W WAVERLY DR, CASA GRANDE, AZ, 85194","Match","Exact","12379 W WAVERLY DR, CASA GRANDE, AZ, 85194",648072762,"L"
119148,"1238 1/2 NORTH 8TH STREET","QUINCY","IL",62301,39.9461385560001,-91.4033909839999,148,"1238 1/2 NORTH 8TH STREET, QUINCY, IL, 62301","Match","Exact","1238 N 8TH ST, QUINCY, IL, 62301",35063890,"R"
119149,"1238 3RD AVE N","SEATTLE","WA",98109,47.6301505170001,-122.351321986,149,"1238 3RD AVE N, SEATTLE, WA, 98109","Match","Exact","1238 3RD AVE N, SEATTLE, WA, 98109",186582351,"R"
119150,"1238 7TH AVE","NORTH SAINT CLOUD","MN",56303,45.5725119890001,-94.171075915,150,"1238 7TH AVE, NORTH SAINT CLOUD, MN, 56303","Match","Non_Exact","1238 7TH AVE N, SAINT CLOUD, MN, 56303",107414227,"R"
119151,"1238 ADRIAN WAY","SAN JOSE","CA",95122,37.344006372,-121.832236609,151,"1238 ADRIAN WAY, SAN JOSE, CA, 95122","Match","Exact","1238 ADRIAN WAY, SAN JOSE, CA, 95122",122912684,"L"
119152,"1238 AMBER LANE","HARRISBURG","PA",17111,40.2279018250001,-76.7953609859999,152,"1238 AMBER LANE, HARRISBURG, PA, 17111","Match","Exact","1238 AMBER LN, HARRISBURG, PA, 17111",646579869,"R"
119153,"1238 AMBLING WAY","MYRTLE BEACH","SC",29579,33.7040757190001,-78.9557077859999,153,"1238 AMBLING WAY, MYRTLE BEACH, SC, 29579","Match","Non_Exact","1238 AMBLING WAY DR, MYRTLE BEACH, SC, 29579",29089711,"L"
119154,"1238 ANDREW ROAD","FAYETTEVILLE","NC",28311,NA,NA,154,"1238 ANDREW ROAD, FAYETTEVILLE, NC, 28311","No_Match",NA,NA,NA,NA
119155,"1238 AUGMONT AVENUE","COLUMBUS","OH",43207,39.898925439,-82.9618394409999,155,"1238 AUGMONT AVENUE, COLUMBUS, OH, 43207","Match","Exact","1238 AUGMONT AVE, COLUMBUS, OH, 43207",218675348,"L"
119156,"1238 BAILEY AVE","BUFFALO","NY",14206,42.8879069610001,-78.814197625,156,"1238 BAILEY AVE, BUFFALO, NY, 14206","Match","Exact","1238 BAILEY AVE, BUFFALO, NY, 14206",48301419,"L"
119157,"1238 BELLE MEADE DRIVE","LANCASTER","PA",17601,40.0693355590001,-76.2818805369999,157,"1238 BELLE MEADE DRIVE, LANCASTER, PA, 17601","Match","Exact","1238 BELLE MEADE DR, LANCASTER, PA, 17601",179686806,"R"
119158,"1238 BERING ST","PLACENTIA","CA",92870,33.8844552800001,-117.838144426,158,"1238 BERING ST, PLACENTIA, CA, 92870","Match","Exact","1238 BERING ST, PLACENTIA, CA, 92870",143995733,"R"
119159,"1238 BLACKSTONE COURT NW","CONCORD","NC",28027,35.3971217110001,-80.656528723,159,"1238 BLACKSTONE COURT NW, CONCORD, NC, 28027","Match","Exact","1238 BLACKSTONE CT NW, CONCORD, NC, 28027",24913227,"L"
119160,"1238 BLUE LAKE BLVD","ARLINGTON","TX",76005,32.797161999,-97.0849813629999,160,"1238 BLUE LAKE BLVD, ARLINGTON, TX, 76005","Match","Exact","1238 BLUE LAKE BLVD, ARLINGTON, TX, 76005",641724513,"R"
119161,"1238 BOYNTON AVE APT 2F","BRONX","NY",10472,40.8297193180001,-73.878472737,161,"1238 BOYNTON AVE APT 2F, BRONX, NY, 10472","Match","Exact","1238 BOYNTON AVE, BRONX, NY, 10472",80303085,"R"
119162,"1238 BRIARVILLE ROAD","MADISON","TN",37115,36.2451836280001,-86.736197868,162,"1238 BRIARVILLE ROAD, MADISON, TN, 37115","Match","Exact","1238 BRIARVILLE RD, MADISON, TN, 37115",606808596,"R"
119163,"1238 BROOKS POINTE DR","LAWRENCEVILLE","GA",30045,33.944015693,-83.9098164599999,163,"1238 BROOKS POINTE DR, LAWRENCEVILLE, GA, 30045","Match","Exact","1238 BROOKS POINTE DR, LAWRENCEVILLE, GA, 30045",627475397,"L"
119164,"1238 BURNETTS CHAPEL ROAD","GREENSBORO","NC",27406,35.948942656,-79.83371984,164,"1238 BURNETTS CHAPEL ROAD, GREENSBORO, NC, 27406","Match","Exact","1238 BURNETTS CHAPEL RD, GREENSBORO, NC, 27406",639239883,"R"
119165,"1238 CAMERON LANE","RIPON","CA",95366,37.74874813,-121.109473477,165,"1238 CAMERON LANE, RIPON, CA, 95366","Match","Exact","1238 CAMERON LN, RIPON, CA, 95366",133928838,"R"
119166,"1238 CARNOUSTIE CIR","GROVE CITY","OH",43123,39.8677847610001,-83.0396076219999,166,"1238 CARNOUSTIE CIR, GROVE CITY, OH, 43123","Match","Exact","1238 CARNOUSTIE CIR, GROVE CITY, OH, 43123",627980359,"L"
119167,"1238 CATON RD","CORNING","NY",14830,42.0633861950001,-77.0349778039999,167,"1238 CATON RD, CORNING, NY, 14830","Match","Exact","1238 CATON RD, CORNING, NY, 14830",14722802,"R"
119168,"1238 CHAFIELD STREET","MOUNT PLEASANT","SC",29464,NA,NA,168,"1238 CHAFIELD STREET, MOUNT PLEASANT, SC, 29464","No_Match",NA,NA,NA,NA
119169,"1238 CHERRY STREET","MADERA","CA",93638,36.9476184060001,-120.043154115,169,"1238 CHERRY STREET, MADERA, CA, 93638","Match","Exact","1238 CHERRY ST, MADERA, CA, 93638",650896657,"R"
119170,"1238 CHURCH STREET","BOHEMIA","NY",11716,40.770470835,-73.093910921,170,"1238 CHURCH STREET, BOHEMIA, NY, 11716","Match","Exact","1238 CHURCH ST, BOHEMIA, NY, 11716",114041487,"R"
119171,"1238 CRYSTAL HEIGHTS RD","CRYSTAL CITY","MO",63019,38.239282088,-90.378261955,171,"1238 CRYSTAL HEIGHTS RD, CRYSTAL CITY, MO, 63019","Match","Exact","1238 CRYSTAL HEIGHTS RD, CRYSTAL CITY, MO, 63019",62805896,"R"
119172,"1238 DAKOTA DR","BOX ELDER","SD",57719,44.158882132,-103.071557647,172,"1238 DAKOTA DR, BOX ELDER, SD, 57719","Match","Exact","1238 DAKOTA DR, BOX ELDER, SD, 57719",640950371,"L"
119173,"1238 DAYTON ST","MADISON","WI",53703,43.088077436,-89.369240086,173,"1238 DAYTON ST, MADISON, WI, 53703","Match","Non_Exact","1238 E DAYTON ST, MADISON, WI, 53703",49472702,"L"
119174,"1238 DUNBAR ST","ALTAMONTE SPRINGS","FL",32701,28.665866927,-81.348973587,174,"1238 DUNBAR ST, ALTAMONTE SPRINGS, FL, 32701","Match","Exact","1238 DUNBAR ST, ALTAMONTE SPRINGS, FL, 32701",93743366,"L"
119175,"1238 EAST 250 NORTH","LAYTON","UT",84040,NA,NA,175,"1238 EAST 250 NORTH, LAYTON, UT, 84040","No_Match",NA,NA,NA,NA
119176,"1238 EAST 78TH STREET","LOS ANGELES","CA",90001,33.9680359770001,-118.253240134,176,"1238 EAST 78TH STREET, LOS ANGELES, CA, 90001","Match","Exact","1238 E 78TH ST, LOS ANGELES, CA, 90001",142760422,"R"
119177,"1238 ELSON ROAD","BROOKHAVEN","PA",19015,39.856132933,-75.391512006,177,"1238 ELSON ROAD, BROOKHAVEN, PA, 19015","Match","Exact","1238 ELSON RD, BROOKHAVEN, PA, 19015",134889614,"R"
119178,"1238 ESTES DRIVE","SANTA MARIA","CA",93454,34.949541476,-120.416549667,178,"1238 ESTES DRIVE, SANTA MARIA, CA, 93454","Match","Exact","1238 ESTES DR, SANTA MARIA, CA, 93454",108595937,"L"
119179,"1238 FERDON ROAD","ANN ARBOR","MI",48104,42.2661056590001,-83.72547537,179,"1238 FERDON ROAD, ANN ARBOR, MI, 48104","Match","Exact","1238 FERDON RD, ANN ARBOR, MI, 48104",26015358,"R"
119180,"1238 FM 2560","SULPHUR SPRINGS","TX",75482,33.0686447190001,-95.564831154,180,"1238 FM 2560, SULPHUR SPRINGS, TX, 75482","Match","Exact","1238 FM 2560, SULPHUR SPRINGS, TX, 75482",42791898,"L"
119181,"1238 FRANKLIN AVENUE","PITTSBURGH","PA",15221,40.437953484,-79.875282456,181,"1238 FRANKLIN AVENUE, PITTSBURGH, PA, 15221","Match","Exact","1238 FRANKLIN AVE, PITTSBURGH, PA, 15221",620108376,"R"
119182,"1238 GENERAL BRAGG ST","SAN ANTONIO","TX",78245,29.422485356,-98.693099895,182,"1238 GENERAL BRAGG ST, SAN ANTONIO, TX, 78245","Match","Exact","1238 GENERAL BRAGG ST, SAN ANTONIO, TX, 78245",101505439,"R"
119183,"1238 GENERAL BRAGG ST","SAN ANTONIO","TX",78254,29.422485356,-98.693099895,183,"1238 GENERAL BRAGG ST, SAN ANTONIO, TX, 78254","Match","Non_Exact","1238 GENERAL BRAGG ST, SAN ANTONIO, TX, 78245",101505439,"R"
119184,"1238 GLASGOW DR","POST FALLS","ID",83854,47.718099308,-116.883818559,184,"1238 GLASGOW DR, POST FALLS, ID, 83854","Match","Non_Exact","1238 N GLASGOW DR, POST FALLS, ID, 83854",192900749,"R"
119185,"1238 GLENBROOK ROAD","BARTONSVILLE","PA",18321,41.0082102320001,-75.301914494,185,"1238 GLENBROOK ROAD, BARTONSVILLE, PA, 18321","Match","Exact","1238 GLENBROOK RD, BARTONSVILLE, PA, 18321",136757828,"R"
119186,"1238 GRANDMA HILLS RD","AMHERST","VA",24521,NA,NA,186,"1238 GRANDMA HILLS RD, AMHERST, VA, 24521","No_Match",NA,NA,NA,NA
119187,"1238 JEFFERY DR","HOMEWOOD","IL",60430,41.548511332,-87.647509154,187,"1238 JEFFERY DR, HOMEWOOD, IL, 60430","Match","Exact","1238 JEFFERY DR, HOMEWOOD, IL, 60430",111712693,"R"
119188,"1238 KELLEYTOWN ROAD","MCDONOUGH","GA",30252,33.5472497750001,-84.105618522,188,"1238 KELLEYTOWN ROAD, MCDONOUGH, GA, 30252","Match","Exact","1238 KELLEYTOWN RD, MCDONOUGH, GA, 30252",23198116,"L"
119189,"1238 LAMAR","VIDOR","TX",77662,30.137845138,-94.011742407,189,"1238 LAMAR, VIDOR, TX, 77662","Match","Non_Exact","1238 LAMAR ST, VIDOR, TX, 77662",74018224,"L"
119190,"1238 LE JACK CIR","FOREST","VA",24551,37.388901205,-79.30805279,190,"1238 LE JACK CIR, FOREST, VA, 24551","Match","Non_Exact","1238 LEJACK CIR, FOREST, VA, 24551",641113275,"L"
119191,"1238 LIGHT STREET APT 303","BALTIMORE","MD",21230,39.2755643360001,-76.612171659,191,"1238 LIGHT STREET APT 303, BALTIMORE, MD, 21230","Match","Exact","1238 LIGHT ST, BALTIMORE, MD, 21230",639169330,"R"
119192,"1238 MARTHA CUSTIS DRIVE","ALEXANDRIA","VA",22302,38.841881979,-77.081526566,192,"1238 MARTHA CUSTIS DRIVE, ALEXANDRIA, VA, 22302","Match","Exact","1238 MARTHA CUSTIS DR, ALEXANDRIA, VA, 22302",75987180,"L"
119193,"1238 MCANDREWS RD","BURNSVILLE","MN",55337,44.751330486,-93.295072605,193,"1238 MCANDREWS RD, BURNSVILLE, MN, 55337","Match","Exact","1238 MCANDREWS RD, BURNSVILLE, MN, 55337",37903420,"L"
119194,"1238 MENLO DRIVE","DAVIS","CA",95616,38.5587388800001,-121.737273519,194,"1238 MENLO DRIVE, DAVIS, CA, 95616","Match","Exact","1238 MENLO DR, DAVIS, CA, 95616",67691180,"R"
119195,"1238 MINNEHAHA AVE S","MINNEAPOLIS","MN",55406,NA,NA,195,"1238 MINNEHAHA AVE S, MINNEAPOLIS, MN, 55406","No_Match",NA,NA,NA,NA
119196,"1238 N BELLEVUE ST","PHILADELPHIA","PA",19140,NA,NA,196,"1238 N BELLEVUE ST, PHILADELPHIA, PA, 19140","No_Match",NA,NA,NA,NA
119197,"1238 N GRANT ROAD","CARROLL","IA",51401,42.071835945,-94.859230671,197,"1238 N GRANT ROAD, CARROLL, IA, 51401","Match","Exact","1238 N GRANT RD, CARROLL, IA, 51401",68630105,"R"
119198,"1238 NOEL GREENE DR","OAK HARBOR","WA",98277,48.283432911,-122.548202068,198,"1238 NOEL GREENE DR, OAK HARBOR, WA, 98277","Match","Exact","1238 NOEL GREENE DR, OAK HARBOR, WA, 98277",187613549,"R"
119199,"1238 NORTH BOND","BALTIMORE","MD",21213,39.3046727890001,-76.596607407,199,"1238 NORTH BOND, BALTIMORE, MD, 21213","Match","Non_Exact","1238 N BOND ST, BALTIMORE, MD, 21213",206464262,"L"
119200,"1238 NORTH STREET","PITTSFIELD","MA",1201,42.4772333450001,-73.245031642,200,"1238 NORTH STREET, PITTSFIELD, MA, 1201","Match","Exact","1238 NORTH ST, PITTSFIELD, MA, 01201",3953252,"R"
119201,"1238 OLD MERIDIAN ST","CARMEL","IN",46238,NA,NA,201,"1238 OLD MERIDIAN ST, CARMEL, IN, 46238","No_Match",NA,NA,NA,NA
119202,"1238 PINE GROVE DRIVE","EASTON","PA",18045,40.7141930700001,-75.2494701059999,202,"1238 PINE GROVE DRIVE, EASTON, PA, 18045","Match","Exact","1238 PINE GROVE DR, EASTON, PA, 18045",136893170,"R"
119203,"1238 PROSPECT","TOLEDO","OH",43606,41.6591365510001,-83.574409997,203,"1238 PROSPECT, TOLEDO, OH, 43606","Match","Non_Exact","1238 PROSPECT AVE, TOLEDO, OH, 43606",33938232,"R"
119204,"1238 ROUTE 3A","BOW","NH",3304,43.139173622,-71.4899202399999,204,"1238 ROUTE 3A, BOW, NH, 3304","Match","Non_Exact","1238 STATE RTE 3A, BOW, NH, 03304",117738118,"L"
119205,"1238 ROYAL CREEK COURT","PLEASANTON","CA",94566,37.6483606730001,-121.896027183,205,"1238 ROYAL CREEK COURT, PLEASANTON, CA, 94566","Match","Exact","1238 ROYAL CREEK CT, PLEASANTON, CA, 94566",633927788,"R"
119206,"1238 S 10TH ST","OMAHA","NE",68108,41.246524095,-95.929344595,206,"1238 S 10TH ST, OMAHA, NE, 68108","Match","Exact","1238 S 10TH ST, OMAHA, NE, 68108",650399310,"R"
119207,"1238 S 3RD","MONTROSE","CO",81401,38.483168763,-107.865420541,207,"1238 S 3RD, MONTROSE, CO, 81401","Match","Non_Exact","1238 S 3RD ST, MONTROSE, CO, 81401",122541021,"R"
119208,"1238 S BROWN AVE","TERRE HAUTE","IN",47803,39.4544771870001,-87.369449204,208,"1238 S BROWN AVE, TERRE HAUTE, IN, 47803","Match","Exact","1238 S BROWN AVE, TERRE HAUTE, IN, 47803",27118217,"L"
119209,"1238 S CLARK RD","CEDAR HILL","TX",75104,32.563848589,-96.9425929069999,209,"1238 S CLARK RD, CEDAR HILL, TX, 75104","Match","Exact","1238 S CLARK RD, CEDAR HILL, TX, 75104",103184939,"R"
119210,"1238 S WOODS AVENUE","LOS ANGELES","CA",90022,34.015410493,-118.159838806,210,"1238 S WOODS AVENUE, LOS ANGELES, CA, 90022","Match","Exact","1238 S WOODS AVE, LOS ANGELES, CA, 90022",141638131,"L"
119211,"1238 SALEM CREEK BOULEVARD","INDIANAPOLIS","IN",46231,39.7482177410001,-86.324343198,211,"1238 SALEM CREEK BOULEVARD, INDIANAPOLIS, IN, 46231","Match","Exact","1238 SALEM CREEK BLVD, INDIANAPOLIS, IN, 46231",108046425,"R"
119212,"1238 SAN JOAQUIN AVE","TULARE","CA",93274,NA,NA,212,"1238 SAN JOAQUIN AVE, TULARE, CA, 93274","Tie",NA,NA,NA,NA
119213,"1238 SARATOGA DR APT A","CHARLOTTE","NC",28208,35.2561329930001,-80.899062219,213,"1238 SARATOGA DR APT A, CHARLOTTE, NC, 28208","Match","Exact","1238 SARATOGA DR, CHARLOTTE, NC, 28208",70475394,"R"
119214,"1238 SE 43RD TER","CAPE CORAL","FL",33904,26.5736970510001,-81.950717964,214,"1238 SE 43RD TER, CAPE CORAL, FL, 33904","Match","Exact","1238 SE 43RD TER, CAPE CORAL, FL, 33904",118014423,"R"
119215,"1238 SEROTA PLACE","PHILADELPHIA","PA",19115,40.0941993540001,-75.0340961479999,215,"1238 SEROTA PLACE, PHILADELPHIA, PA, 19115","Match","Exact","1238 SEROTA PL, PHILADELPHIA, PA, 19115",645573956,"R"
119216,"1238 SIMPSON STREET 1A","BRONX","NY",10459,40.8291502530001,-73.892886771,216,"1238 SIMPSON STREET 1A, BRONX, NY, 10459","Match","Exact","1238 SIMPSON ST, BRONX, NY, 10459",80302322,"R"
119217,"1238 SOPRIS DR","HOUSTON","TX",77077,29.7653832030001,-95.638140242,217,"1238 SOPRIS DR, HOUSTON, TX, 77077","Match","Exact","1238 SOPRIS DR, HOUSTON, TX, 77077",623998462,"R"
119218,"1238 SOUTH 24TH STREET","PHILADELPHIA","PA",19146,39.9372752400001,-75.1836969569999,218,"1238 SOUTH 24TH STREET, PHILADELPHIA, PA, 19146","Match","Exact","1238 S 24TH ST, PHILADELPHIA, PA, 19146",131407009,"R"
119219,"1238 SOUTH 50TH STREET","WEST MILWAUKEE","WI",53214,43.0182562160001,-87.976044401,219,"1238 SOUTH 50TH STREET, WEST MILWAUKEE, WI, 53214","Match","Exact","1238 S 50TH ST, W MILWAUKEE, WI, 53214",77734508,"L"
119220,"1238 STATE ROAD","ELIOT","ME",3903,43.119724406,-70.78571661,220,"1238 STATE ROAD, ELIOT, ME, 3903","Match","Exact","1238 STATE RD, ELIOT, ME, 03903",92781253,"R"
119221,"1238 STONE DRIVE","BLANCHARD","OK",73010,35.1261763960001,-97.6906454579999,221,"1238 STONE DRIVE, BLANCHARD, OK, 73010","Match","Exact","1238 STONE DR, BLANCHARD, OK, 73010",15246442,"L"
119222,"1238 STONY CREEK WAY","ROCKFORD","IL",61108,42.2571350420001,-88.994100612,222,"1238 STONY CREEK WAY, ROCKFORD, IL, 61108","Match","Exact","1238 STONY CREEK WAY, ROCKFORD, IL, 61108",49293438,"L"
119223,"1238 SW CARDINELL WAY","PORTLAND","OR",97201,45.509412501,-122.688473458,223,"1238 SW CARDINELL WAY, PORTLAND, OR, 97201","Match","Non_Exact","1238 SW CARDINELL DR, PORTLAND, OR, 97201",642879006,"L"
119224,"1238 UNIVERSITY CITY BLVD UNIT 140","BLACKSBURG","VA",24060,37.242499448,-80.432031927,224,"1238 UNIVERSITY CITY BLVD UNIT 140, BLACKSBURG, VA, 24060","Match","Exact","1238 UNIVERSITY CITY BLVD, BLACKSBURG, VA, 24060",73615952,"R"
119225,"1238 VALLEY HWY","CHARLOTTE","MI",48813,42.5826679850001,-84.8610710629999,225,"1238 VALLEY HWY, CHARLOTTE, MI, 48813","Match","Exact","1238 VALLEY HWY, CHARLOTTE, MI, 48813",12029994,"R"
119226,"1238 VERMONT ST","SAN FRANCISCO","CA",94110,37.7539376610001,-122.403481877,226,"1238 VERMONT ST, SAN FRANCISCO, CA, 94110","Match","Exact","1238 VERMONT ST, SAN FRANCISCO, CA, 94110",192288988,"R"
119227,"1238 VERSAILLES AVE","ALAMEDA","CA",94501,37.758391766,-122.239129978,227,"1238 VERSAILLES AVE, ALAMEDA, CA, 94501","Match","Exact","1238 VERSAILLES AVE, ALAMEDA, CA, 94501",125006777,"R"
119228,"1238 VIENNA COURT","HAMPTON","GA",30228,33.4483599440001,-84.35728599,228,"1238 VIENNA COURT, HAMPTON, GA, 30228","Match","Exact","1238 VIENNA CT, HAMPTON, GA, 30228",627670430,"R"
119229,"1238 W FLORENCE AVE","LOS ANGELES","CA",90044,33.974590376,-118.296966287,229,"1238 W FLORENCE AVE, LOS ANGELES, CA, 90044","Match","Exact","1238 W FLORENCE AVE, LOS ANGELES, CA, 90044",141659361,"L"
119230,"1238 W MALIBU DR","TEMPE","AZ",85282,33.391996002,-111.958294359,230,"1238 W MALIBU DR, TEMPE, AZ, 85282","Match","Exact","1238 W MALIBU DR, TEMPE, AZ, 85282",128226747,"R"
119231,"1238 W READING STREET","TULSA","OK",74127,36.1783524030001,-96.00689596,231,"1238 W READING STREET, TULSA, OK, 74127","Match","Exact","1238 W READING ST, TULSA, OK, 74127",82333570,"R"
119232,"1238 W TALON CT","PALATINE","IL",60067,42.133023086,-88.073660891,232,"1238 W TALON CT, PALATINE, IL, 60067","Match","Exact","1238 W TALON CT, PALATINE, IL, 60067",617314443,"L"
119233,"1238 W WINNEMAC","CHICAGO","IL",60640,41.973632191,-87.660978953,233,"1238 W WINNEMAC, CHICAGO, IL, 60640","Match","Non_Exact","1238 W WINNEMAC AVE, CHICAGO, IL, 60640",111761520,"R"
119234,"1238 WATERFORD RD","WEST CHESTER","PA",19380,40.0114765590001,-75.575493745,234,"1238 WATERFORD RD, WEST CHESTER, PA, 19380","Match","Exact","1238 WATERFORD RD, WEST CHESTER, PA, 19380",179489846,"R"
119235,"1238 WATERVIEW STREET","FAR ROCKAWAY","NY",11691,NA,NA,235,"1238 WATERVIEW STREET, FAR ROCKAWAY, NY, 11691","No_Match",NA,NA,NA,NA
119236,"1238 WELLER WAY","SACRAMENTO","CA",95818,38.5515588850001,-121.50185465,236,"1238 WELLER WAY, SACRAMENTO, CA, 95818","Match","Exact","1238 WELLER WAY, SACRAMENTO, CA, 95818",133322567,"R"
119237,"1238 WEST FLETCHER UNIT H","CHICAGO","IL",60657,41.9389192530001,-87.660087644,237,"1238 WEST FLETCHER UNIT H, CHICAGO, IL, 60657","Match","Non_Exact","1238 W FLETCHER ST, CHICAGO, IL, 60657",605239262,"R"
119238,"1238 WILLOW BEND DR","CLARKSVILLE","TN",37043,NA,NA,238,"1238 WILLOW BEND DR, CLARKSVILLE, TN, 37043","No_Match",NA,NA,NA,NA
119239,"1238 WILLOWGREEN CT","WESTLAKE VILLAGE","CA",91361,34.148830289,-118.842214654,239,"1238 WILLOWGREEN CT, WESTLAKE VILLAGE, CA, 91361","Match","Exact","1238 WILLOWGREEN CT, WESTLAKE VILLAGE, CA, 91361",109977373,"L"
119240,"1238 WOLF SPRINGS ROAD","HARRISON","AR",72601,36.2865210800001,-93.1462951459999,240,"1238 WOLF SPRINGS ROAD, HARRISON, AR, 72601","Match","Non_Exact","1238 WOLF SPRINGS RD N, HARRISON, AR, 72601",19992540,"R"
119241,"1238 WOODCLIFF CT","LILBURN","GA",30047,33.8671995510001,-84.074429691,241,"1238 WOODCLIFF CT, LILBURN, GA, 30047","Match","Non_Exact","1238 WOODCLIFF CT SW, LILBURN, GA, 30047",88904173,"R"
119242,"12380 CANAL BANK RD","GARLAND","UT",84312,41.731326564,-112.191838413,242,"12380 CANAL BANK RD, GARLAND, UT, 84312","Match","Exact","12380 CANAL BANK RD, GARLAND, UT, 84312",611160866,"L"
119243,"12380 CAVALRY CT","GRANGER","IN",46530,41.7409524110001,-86.108618833,243,"12380 CAVALRY CT, GRANGER, IN, 46530","Match","Exact","12380 CAVALRY CT, GRANGER, IN, 46530",8071262,"R"
119244,"12380 GENEVA WAY","APPLE VALLEY","MN",55124,44.7699415810001,-93.213260113,244,"12380 GENEVA WAY, APPLE VALLEY, MN, 55124","Match","Exact","12380 GENEVA WAY, APPLE VALLEY, MN, 55124",37905636,"R"
119245,"12380 INDIAN RIVER DR","APPLE VALLEY","CA",92308,34.476226008,-117.251019741,245,"12380 INDIAN RIVER DR, APPLE VALLEY, CA, 92308","Match","Exact","12380 INDIAN RIVER DR, APPLE VALLEY, CA, 92308",144591478,"R"
119246,"12380 PALM DR SUITE D","DESERT HOT SPRINGS","CA",92240,33.958509345,-116.501344186,246,"12380 PALM DR SUITE D, DESERT HOT SPRINGS, CA, 92240","Match","Exact","12380 PALM DR, DESERT HOT SPRINGS, CA, 92240",194721947,"R"
119247,"12380 RAVEN ST NW","COON RAPIDS","MN",55448,45.1955114530001,-93.3228304249999,247,"12380 RAVEN ST NW, COON RAPIDS, MN, 55448","Match","Exact","12380 RAVEN ST NW, COON RAPIDS, MN, 55448",97507367,"R"
119248,"12380 SAGE VIEW RD","POWAY","CA",92604,32.9543073900001,-117.065673135,248,"12380 SAGE VIEW RD, POWAY, CA, 92604","Match","Non_Exact","12380 SAGE VIEW RD, POWAY, CA, 92064",195657010,"L"
119249,"12380 SW 51ST COURT","COOPER CITY","FL",33330,26.055421317,-80.31275914,249,"12380 SW 51ST COURT, COOPER CITY, FL, 33330","Match","Non_Exact","12380 SW 51ST CT, COOPER CITY, FL, 33330",114752531,"R"
119250,"12380 TRIPE TREE TERRACE","VICTORVILLE","CA",92392,34.4757784810001,-117.356992878,250,"12380 TRIPE TREE TERRACE, VICTORVILLE, CA, 92392","Match","Non_Exact","12380 TRIPLE TREE TER, VICTORVILLE, CA, 92392",144591830,"R"
119251,"12380 VILLAGE VIEW DRIVE","LEAVENWORTH","WA",98826,47.6050591170001,-120.66509105,251,"12380 VILLAGE VIEW DRIVE, LEAVENWORTH, WA, 98826","Match","Exact","12380 VILLAGE VIEW DR, LEAVENWORTH, WA, 98826",652334558,"L"
119252,"12381 BUFFALO RD","CLAYTON","NC",27527,35.672473714,-78.355203925,252,"12381 BUFFALO RD, CLAYTON, NC, 27527","Match","Exact","12381 BUFFALO RD, CLAYTON, NC, 27527",26542066,"L"
119253,"12381 BUFFALO ROAD","ARCHERS LODGE","NC",27527,35.672473714,-78.355203925,253,"12381 BUFFALO ROAD, ARCHERS LODGE, NC, 27527","Match","Non_Exact","12381 BUFFALO RD, ARCHER LODGE, NC, 27527",26542066,"L"
119254,"12381 COLD STREAM GUARD COURT","BRISTOW","VA",20138,38.7343803700001,-77.56347607,254,"12381 COLD STREAM GUARD COURT, BRISTOW, VA, 20138","Match","Non_Exact","12381 COLD STREAM GUARD CT, BRISTOW, VA, 20136",76530127,"L"
119255,"12381 DALE ST","GARDEN GROVE","CA",92841,33.7827783500001,-117.984064792,255,"12381 DALE ST, GARDEN GROVE, CA, 92841","Match","Non_Exact","12381 DALE AVE, GARDEN GROVE, CA, 92841",144414334,"R"
119256,"12381 KNOLLWOOD CIRCLE","WAYNESBORO","PA",17268,39.7526258820001,-77.508173026,256,"12381 KNOLLWOOD CIRCLE, WAYNESBORO, PA, 17268","Match","Exact","12381 KNOLLWOOD CIR, WAYNESBORO, PA, 17268",60097653,"L"
119257,"12381 MONTEGO PLAZA","DALLAS","TX",75230,32.9189032040001,-96.814643368,257,"12381 MONTEGO PLAZA, DALLAS, TX, 75230","Match","Exact","12381 MONTEGO PLZ, DALLAS, TX, 75230",103208243,"L"
119258,"12381 PIPELINE AVENUE","CHINO","CA",91710,34.027826109,-117.715521883,258,"12381 PIPELINE AVENUE, CHINO, CA, 91710","Match","Exact","12381 PIPELINE AVE, CHINO, CA, 91710",144670652,"L"
119259,"12381 ROSSRIDGE CT","ST LOUIS","MO",63146,38.68435006,-90.452772898,259,"12381 ROSSRIDGE CT, ST LOUIS, MO, 63146","Match","Exact","12381 ROSSRIDGE CT, SAINT LOUIS, MO, 63146",100124276,"R"
119260,"12382 DOYLESTOWN RD","RITTMAN","OH",44270,40.977128985,-81.7580012189999,260,"12382 DOYLESTOWN RD, RITTMAN, OH, 44270","Match","Exact","12382 DOYLESTOWN RD, RITTMAN, OH, 44270",58720043,"R"
119261,"12382 N 2900","DOVER","OK",73734,NA,NA,261,"12382 N 2900, DOVER, OK, 73734","No_Match",NA,NA,NA,NA
119262,"12382 PURCIFUL","LICKING","MO",65542,37.4981417500001,-91.779584837,262,"12382 PURCIFUL, LICKING, MO, 65542","Match","Non_Exact","12382 PURSIFULL DR, LICKING, MO, 65542",26434415,"R"
119263,"12382 RIDGETOP CIRCLE","FRISCO","TX",75067,33.1444880500001,-96.769983786,263,"12382 RIDGETOP CIRCLE, FRISCO, TX, 75067","Match","Non_Exact","12382 RIDGETOP CIR, FRISCO, TX, 75035",210507336,"R"
119264,"12382 STATE HIGHWAY F","TARKIO","MO",64491,NA,NA,264,"12382 STATE HIGHWAY F, TARKIO, MO, 64491","No_Match",NA,NA,NA,NA
119265,"12383 SW 264TH TERRACE","HOMESTEAD","FL",33032,25.5211972660001,-80.3919797679999,265,"12383 SW 264TH TERRACE, HOMESTEAD, FL, 33032","Match","Exact","12383 SW 264TH TER, HOMESTEAD, FL, 33032",115991296,"R"
119266,"12384 AVENUE 416 STE AB","OROSI","CA",93647,36.544957131,-119.296276035,266,"12384 AVENUE 416 STE AB, OROSI, CA, 93647","Match","Exact","12384 AVE 416, OROSI, CA, 93647",614722351,"R"
119267,"12384 BEAVER ROAD","ST CHARLES","MI",48655,43.313428512,-84.156215397,267,"12384 BEAVER ROAD, ST CHARLES, MI, 48655","Match","Exact","12384 BEAVER RD, SAINT CHARLES, MI, 48655",80203096,"R"
119268,"12384 EAGLE CIRCLE NW","COON RAPIDS","MN",55448,45.1922034500001,-93.305386094,268,"12384 EAGLE CIRCLE NW, COON RAPIDS, MN, 55448","Match","Non_Exact","12384 EAGLE ST NW, COON RAPIDS, MN, 55448",639107920,"L"
119269,"12384 JIM BABIN ROAD","ST. AMANT","LA",70774,30.2503379890001,-90.8479491639999,269,"12384 JIM BABIN ROAD, ST. AMANT, LA, 70774","Match","Exact","12384 JIM BABIN RD, SAINT AMANT, LA, 70774",115043789,"R"
119270,"12384 YUMA COURT","MORENO VALLEY","CA",92557,33.9407404730001,-117.214036354,270,"12384 YUMA COURT, MORENO VALLEY, CA, 92557","Match","Exact","12384 YUMA CT, MORENO VALLEY, CA, 92557",194790658,"R"
119271,"12385 74TH AVE","SEMINOLE","FL",33772,27.8399205480001,-82.810084049,271,"12385 74TH AVE, SEMINOLE, FL, 33772","Match","Non_Exact","12385 74TH AVE N, SEMINOLE, FL, 33772",651754350,"R"
119272,"12385 HUNTERS POINTE DRIVE","NORTHPORT","AL",35475,33.345254922,-87.610367472,272,"12385 HUNTERS POINTE DRIVE, NORTHPORT, AL, 35475","Match","Exact","12385 HUNTERS POINTE DR, NORTHPORT, AL, 35475",82175866,"R"
119273,"12385 LARIMORE RD","SAINT LOUIS","MO",63138,38.7949605800001,-90.185531322,273,"12385 LARIMORE RD, SAINT LOUIS, MO, 63138","Match","Exact","12385 LARIMORE RD, SAINT LOUIS, MO, 63138",100164966,"L"
119274,"12385 ROCKLEDGE CIRCLE","BOCA RATON","FL",33428,NA,NA,274,"12385 ROCKLEDGE CIRCLE, BOCA RATON, FL, 33428","No_Match",NA,NA,NA,NA
119275,"12385 SW 121 AVENUE","TIGARD","OR",97228,45.430412742,-122.799938103,275,"12385 SW 121 AVENUE, TIGARD, OR, 97228","Match","Non_Exact","12385 SW 121ST AVE, TIGARD, OR, 97223",639782361,"R"
119276,"12386 154 ROAD NORTH","JUPITER","FL",33478,26.9045267770001,-80.2309771559999,276,"12386 154 ROAD NORTH, JUPITER, FL, 33478","Match","Exact","12386 154TH RD N, JUPITER, FL, 33478",115260076,"R"
119277,"12386 CLEYDAEL BLVD","KING GEORGE","VA",22485,38.3158074140001,-77.128957118,277,"12386 CLEYDAEL BLVD, KING GEORGE, VA, 22485","Match","Exact","12386 CLEYDAEL BLVD, KING GEORGE, VA, 22485",635411497,"R"
119278,"12386 STARTING GATE WAY","ASHLAND","VA",23005,37.751962237,-77.530395238,278,"12386 STARTING GATE WAY, ASHLAND, VA, 23005","Match","Exact","12386 STARTING GATE WAY, ASHLAND, VA, 23005",618115834,"R"
119279,"12386 STATE RD 535 - UNIT 441","ORLANDO","FL",32836,NA,NA,279,"12386 STATE RD 535 - UNIT 441, ORLANDO, FL, 32836","No_Match",NA,NA,NA,NA
119280,"12386 W 34TH PL","WHEAT RIDGE","CO",80033,39.7633049470001,-105.13731278,280,"12386 W 34TH PL, WHEAT RIDGE, CO, 80033","Match","Exact","12386 W 34TH PL, WHEAT RIDGE, CO, 80033",177800407,"L"
119281,"12387 195TH LANE NW","ANOKA","MN",55303,NA,NA,281,"12387 195TH LANE NW, ANOKA, MN, 55303","No_Match",NA,NA,NA,NA
119282,"12387 195TH LANE NW","ELK RIVER","MN",55330,45.3256066820001,-93.5817680709999,282,"12387 195TH LANE NW, ELK RIVER, MN, 55330","Match","Exact","12387 195TH LN NW, ELK RIVER, MN, 55330",97764015,"L"
119283,"12387 E HARVARD DR","AURORA","CO",80014,39.6704670870001,-104.843645701,283,"12387 E HARVARD DR, AURORA, CO, 80014","Match","Exact","12387 E HARVARD DR, AURORA, CO, 80014",177549078,"L"
119284,"12387 HUNTINGTON VILLAGE DR","NORTHPORT","AL",35475,33.3060076890001,-87.605533666,284,"12387 HUNTINGTON VILLAGE DR, NORTHPORT, AL, 35475","Match","Exact","12387 HUNTINGTON VILLAGE DR, NORTHPORT, AL, 35475",82237212,"L"
119285,"12387 HUNTINGTON VILLAGE DR","NORTHPORT","AL",36116,33.3060076890001,-87.605533666,285,"12387 HUNTINGTON VILLAGE DR, NORTHPORT, AL, 36116","Match","Non_Exact","12387 HUNTINGTON VILLAGE DR, NORTHPORT, AL, 35475",82237212,"L"
119286,"12387 MARQUIS RD","UNIONVILLE","VA",22567,38.232276158,-77.9603338329999,286,"12387 MARQUIS RD, UNIONVILLE, VA, 22567","Match","Exact","12387 MARQUIS RD, UNIONVILLE, VA, 22567",29884744,"R"
119287,"12387 OAK FIELDS DRIVE","GEISMAR","LA",70734,30.2515651470001,-91.012213188,287,"12387 OAK FIELDS DRIVE, GEISMAR, LA, 70734","Match","Exact","12387 OAK FIELDS DR, GEISMAR, LA, 70734",635169356,"R"
119288,"12388 CO RD 25","BLAIR","NE",68008,41.55808618,-96.213398153,288,"12388 CO RD 25, BLAIR, NE, 68008","Match","Exact","12388 CO RD 25, BLAIR, NE, 68008",176773997,"R"
119289,"12388 FLINT DRIVE","MOUNDVILLE","AL",35474,33.009811374,-87.618941934,289,"12388 FLINT DRIVE, MOUNDVILLE, AL, 35474","Match","Exact","12388 FLINT DR, MOUNDVILLE, AL, 35474",82232024,"L"
119290,"12388 SAN MARINO AVENUE NW","UNIONTOWN","OH",44685,40.966542464,-81.38582288,290,"12388 SAN MARINO AVENUE NW, UNIONTOWN, OH, 44685","Match","Exact","12388 SAN MARINO AVE NW, UNIONTOWN, OH, 44685",641781316,"L"
119291,"12389 HWY 550","CHAMA","NM",87520,NA,NA,291,"12389 HWY 550, CHAMA, NM, 87520","No_Match",NA,NA,NA,NA
119292,"12389 KEITHVILLE KEATCHIE RD","KEITHVILLE","LA",71047,32.300896734,-93.851711397,292,"12389 KEITHVILLE KEATCHIE RD, KEITHVILLE, LA, 71047","Match","Exact","12389 KEITHVILLE KEATCHIE RD, KEITHVILLE, LA, 71047",57433406,"L"
119293,"1239 16TH STREET","WILMETTE","IL",60091,42.084479362,-87.716419764,293,"1239 16TH STREET, WILMETTE, IL, 60091","Match","Exact","1239 16TH ST, WILMETTE, IL, 60091",111861341,"L"
119294,"1239 38TH AVE","MYRTLE BEACH","SC",29577,33.727657698,-78.869266253,294,"1239 38TH AVE, MYRTLE BEACH, SC, 29577","Match","Non_Exact","1239 38TH AVE N, MYRTLE BEACH, SC, 29577",637237810,"L"
119295,"1239 4TH AVE","LOS ANGELES","CA",90019,34.048629944,-118.320713242,295,"1239 4TH AVE, LOS ANGELES, CA, 90019","Match","Exact","1239 4TH AVE, LOS ANGELES, CA, 90019",642861853,"R"
119296,"1239 9TH AVE","SAN FRANCISCO","CA",94122,37.7651435010001,-122.46639225,296,"1239 9TH AVE, SAN FRANCISCO, CA, 94122","Match","Exact","1239 9TH AVE, SAN FRANCISCO, CA, 94122",640957151,"R"
119297,"1239 BARKER ST","TULLY","NY",13159,42.832925996,-76.1929407109999,297,"1239 BARKER ST, TULLY, NY, 13159","Match","Exact","1239 BARKER ST, TULLY, NY, 13159",46621267,"L"
119298,"1239 BAY AREA BLVD","HOUSTON","TX",77085,29.5589872470001,-95.1168150409999,298,"1239 BAY AREA BLVD, HOUSTON, TX, 77085","Match","Non_Exact","1239 BAY AREA BLVD, HOUSTON, TX, 77058",96544874,"L"
119299,"1239 BAYVIEW WAY","WELLINGTON","FL",33414,26.6650663200001,-80.214680104,299,"1239 BAYVIEW WAY, WELLINGTON, FL, 33414","Match","Non_Exact","1239 BAY VIEW WAY, WELLINGTON, FL, 33414",618581766,"L"
119300,"1239 BLUE LEAF DR","RICHMOND","TX",77469,29.5536570900001,-95.709608308,300,"1239 BLUE LEAF DR, RICHMOND, TX, 77469","Match","Exact","1239 BLUE LEAF DR, RICHMOND, TX, 77469",629607627,"R"
119301,"1239 CALIFORNIA DRIVE","MURFREESBORO","TN",37129,35.917339129,-86.49796256,301,"1239 CALIFORNIA DRIVE, MURFREESBORO, TN, 37129","Match","Exact","1239 CALIFORNIA DR, MURFREESBORO, TN, 37129",635424675,"L"
119302,"1239 CANYON RD","SANTA FE","NM",87501,35.679385204,-105.91667645,302,"1239 CANYON RD, SANTA FE, NM, 87501","Match","Exact","1239 CANYON RD, SANTA FE, NM, 87501",169379709,"L"
119303,"1239 CANYON ROAD","SANTA FE","NM",87501,35.679385204,-105.91667645,303,"1239 CANYON ROAD, SANTA FE, NM, 87501","Match","Exact","1239 CANYON RD, SANTA FE, NM, 87501",169379709,"L"
119304,"1239 CAROL ANN PLACE","SAINT LOUIS","MO",63122,38.6002838040001,-90.3822388199999,304,"1239 CAROL ANN PLACE, SAINT LOUIS, MO, 63122","Match","Exact","1239 CAROL ANN PL, SAINT LOUIS, MO, 63122",100137933,"L"
119305,"1239 CARROLL STREET","BROOKLYN","NY",11213,40.66700516,-73.947360099,305,"1239 CARROLL STREET, BROOKLYN, NY, 11213","Match","Exact","1239 CARROLL ST, BROOKLYN, NY, 11213",59079468,"L"
119306,"1239 CHAPLIN STREET SE","WASHINGTON DC","DC",20019,38.8756830740001,-76.937936097,306,"1239 CHAPLIN STREET SE, WASHINGTON DC, DC, 20019","Match","Exact","1239 CHAPLIN ST SE, WASHINGTON, DC, 20019",76233834,"R"
119307,"1239 CHARLES AVENUE","ST PAUL","MN",55104,44.9575323980001,-93.152413955,307,"1239 CHARLES AVENUE, ST PAUL, MN, 55104","Match","Non_Exact","1239 W CHARLES AVE, SAINT PAUL, MN, 55104",97642125,"R"
119308,"1239 CHERRY BLOSSOM LANE","TRACY","CA",95377,37.702714332,-121.440645712,308,"1239 CHERRY BLOSSOM LANE, TRACY, CA, 95377","Match","Exact","1239 CHERRY BLOSSOM LN, TRACY, CA, 95377",133920344,"L"
119309,"1239 CHESTNUT STREET","ROSELLE","NJ",7203,40.6448193570001,-74.260021696,309,"1239 CHESTNUT STREET, ROSELLE, NJ, 7203","Match","Exact","1239 CHESTNUT ST, ROSELLE, NJ, 07203",60575757,"L"
119310,"1239 CO ROAD W-14","FORT ATKINSON","IA",52144,NA,NA,310,"1239 CO ROAD W-14, FORT ATKINSON, IA, 52144","No_Match",NA,NA,NA,NA
119311,"1239 CREEKSIDE DRIVE","NOLENSVILLE","TN",37135,35.959353336,-86.658192414,311,"1239 CREEKSIDE DRIVE, NOLENSVILLE, TN, 37135","Match","Exact","1239 CREEKSIDE DR, NOLENSVILLE, TN, 37135",614924718,"L"
119312,"1239 DAHL ROAD","LOUISVILLE","KY",40213,38.174211664,-85.697640282,312,"1239 DAHL ROAD, LOUISVILLE, KY, 40213","Match","Exact","1239 DAHL RD, LOUISVILLE, KY, 40213",636514357,"L"
119313,"1239 DICKINSON DRIVE","CORAL GABLES","FL",33146,25.716099663,-80.280230805,313,"1239 DICKINSON DRIVE, CORAL GABLES, FL, 33146","Match","Exact","1239 DICKINSON DR, CORAL GABLES, FL, 33146",116092858,"R"
119314,"1239 DOGWOOD AVE","NEOGA","IL",62447,39.3280667430001,-88.4641533609999,314,"1239 DOGWOOD AVE, NEOGA, IL, 62447","Match","Exact","1239 DOGWOOD AVE, NEOGA, IL, 62447",5716790,"L"
119315,"1239 DONALD STREET","JAKCOSNVILLE","FL",32205,30.306249177,-81.702925761,315,"1239 DONALD STREET, JAKCOSNVILLE, FL, 32205","Match","Non_Exact","1239 DONALD ST, JACKSONVILLE, FL, 32205",83913293,"L"
119316,"1239 E 30TH STREET","JACKSONVILLE","FL",32206,30.3625237730001,-81.638802085,316,"1239 E 30TH STREET, JACKSONVILLE, FL, 32206","Match","Exact","1239 E 30TH ST, JACKSONVILLE, FL, 32206",83898413,"L"
119317,"1239 EAST 34TH STREET","BROOKLYN","NY",11210,40.6254633190001,-73.942760006,317,"1239 EAST 34TH STREET, BROOKLYN, NY, 11210","Match","Exact","1239 E 34TH ST, BROOKLYN, NY, 11210",59098124,"L"
119318,"1239 EAST 35TH STREET","BROOKLYN","NY",11210,40.6238916460001,-73.9414789579999,318,"1239 EAST 35TH STREET, BROOKLYN, NY, 11210","Match","Exact","1239 E 35TH ST, BROOKLYN, NY, 11210",59090247,"L"
119319,"1239 EAST 55TH","BROOKLYN","NY",11234,40.6266755460001,-73.922855285,319,"1239 EAST 55TH, BROOKLYN, NY, 11234","Match","Non_Exact","1239 E 55TH ST, BROOKLYN, NY, 11234",59086115,"L"
119320,"1239 EAST 84TH STREET TOP FLOOR","BROOKLYN","NY",11225,40.63181632,-73.904145147,320,"1239 EAST 84TH STREET TOP FLOOR, BROOKLYN, NY, 11225","Match","Non_Exact","1239 E 84TH ST, BROOKLYN, NY, 11236",59086831,"L"
119321,"1239 EAST KIOWA AVENUE","FORT MORGAN","CA",80701,NA,NA,321,"1239 EAST KIOWA AVENUE, FORT MORGAN, CA, 80701","No_Match",NA,NA,NA,NA
119322,"1239 EAST MAIN STREET","CARBONDALE","IL",62901,37.7323744600001,-89.190584685,322,"1239 EAST MAIN STREET, CARBONDALE, IL, 62901","Match","Exact","1239 E MAIN ST, CARBONDALE, IL, 62901",95125500,"R"
119323,"1239 EAT 55TH","BROOKLYN","NY",11234,NA,NA,323,"1239 EAT 55TH, BROOKLYN, NY, 11234","No_Match",NA,NA,NA,NA
119324,"1239 FAIRVIEW DR","MONROE","GA",30656,33.821421425,-83.723870814,324,"1239 FAIRVIEW DR, MONROE, GA, 30656","Match","Exact","1239 FAIRVIEW DR, MONROE, GA, 30656",77619232,"R"
119325,"1239 FINLEY RD","CAMP HILL","AL",36850,NA,NA,325,"1239 FINLEY RD, CAMP HILL, AL, 36850","No_Match",NA,NA,NA,NA
119326,"1239 FLETCHER DRIVE","REYNOLDSBURG","OH",43068,39.9607237320001,-82.7822612319999,326,"1239 FLETCHER DRIVE, REYNOLDSBURG, OH, 43068","Match","Exact","1239 FLETCHER DR, REYNOLDSBURG, OH, 43068",135595485,"R"
119327,"1239 FROZEN CAMP CREEK ROAD","GAY","WV",25244,38.807984764,-81.576465871,327,"1239 FROZEN CAMP CREEK ROAD, GAY, WV, 25244","Match","Exact","1239 FROZEN CAMP CREEK RD, GAY, WV, 25244",130501498,"R"
119328,"1239 GARNER AVE","SCHENECTADY","NY",12309,42.8112687230001,-73.904708834,328,"1239 GARNER AVE, SCHENECTADY, NY, 12309","Match","Exact","1239 GARNER AVE, SCHENECTADY, NY, 12309",18029606,"L"
119329,"1239 GLENCOA AVE","HIGHLAND PARK","IL",60035,NA,NA,329,"1239 GLENCOA AVE, HIGHLAND PARK, IL, 60035","No_Match",NA,NA,NA,NA
119330,"1239 GLENHEATHER DR","WINDERMERE","FL",34786,28.5237722410001,-81.547617098,330,"1239 GLENHEATHER DR, WINDERMERE, FL, 34786","Match","Exact","1239 GLENHEATHER DR, WINDERMERE, FL, 34786",627298669,"R"
119331,"1239 GLENHURST DRIVE","LODI","CA",95240,38.1178471750001,-121.286696013,331,"1239 GLENHURST DRIVE, LODI, CA, 95240","Match","Exact","1239 GLENHURST DR, LODI, CA, 95240",133840811,"R"
119332,"1239 GLENVIEW STREET","PHILADELPHIA","PA",19111,40.047610535,-75.076699446,332,"1239 GLENVIEW STREET, PHILADELPHIA, PA, 19111","Match","Exact","1239 GLENVIEW ST, PHILADELPHIA, PA, 19111",131416068,"L"
119333,"1239 HALL SE","GRAND RAPIDS","MI",49506,42.9410328550001,-85.63794173,333,"1239 HALL SE, GRAND RAPIDS, MI, 49506","Match","Non_Exact","1239 HALL ST SE, GRAND RAPIDS, MI, 49506",12461818,"L"
119334,"1239 HARRY STREET","BOKEELIA","FL",33922,NA,NA,334,"1239 HARRY STREET, BOKEELIA, FL, 33922","No_Match",NA,NA,NA,NA
119335,"1239 HAWK RIDGE ROAD","LAFAYETTE","CO",80026,40.0125656210001,-105.085728432,335,"1239 HAWK RIDGE ROAD, LAFAYETTE, CO, 80026","Match","Exact","1239 HAWK RIDGE RD, LAFAYETTE, CO, 80026",641291474,"R"
119336,"1239 HICKORY AVE","MT PLEASANT","IA",52641,41.1323749360001,-91.583744198,336,"1239 HICKORY AVE, MT PLEASANT, IA, 52641","Match","Exact","1239 HICKORY AVE, MOUNT PLEASANT, IA, 52641",16096990,"L"
119337,"1239 HIGH STREET","FAIRPORT HARBOR","OH",44077,41.7393927540001,-81.2703293599999,337,"1239 HIGH STREET, FAIRPORT HARBOR, OH, 44077","Match","Exact","1239 HIGH ST, FAIRPORT HARBOR, OH, 44077",631972212,"R"
119338,"1239 HIGHWAY 51","MADISON","MS",39110,32.4802924570001,-90.101706721,338,"1239 HIGHWAY 51, MADISON, MS, 39110","Match","Non_Exact","1239 US HWY 51, MADISON, MS, 39110",152490728,"R"
119339,"1239 HOLLY STREET","DENVER","CO",80220,39.7355111430001,-104.922337726,339,"1239 HOLLY STREET, DENVER, CO, 80220","Match","Exact","1239 HOLLY ST, DENVER, CO, 80220",177312254,"L"
119340,"1239 HUDSON ROAD","CAMBRIDGE","MD",21613,38.6023838340001,-76.2168327319999,340,"1239 HUDSON ROAD, CAMBRIDGE, MD, 21613","Match","Exact","1239 HUDSON RD, CAMBRIDGE, MD, 21613",99660023,"L"
119341,"1239 HUNTINGTON DR","MUNDELEIN","IL",60060,42.259272158,-87.982129621,341,"1239 HUNTINGTON DR, MUNDELEIN, IL, 60060","Match","Exact","1239 HUNTINGTON DR, MUNDELEIN, IL, 60060",119701360,"L"
119342,"1239 ISLAND PLACE EAST","MEMPHIS","TN",38103,35.1739535520001,-90.050402704,342,"1239 ISLAND PLACE EAST, MEMPHIS, TN, 38103","Match","Exact","1239 ISLAND PL E, MEMPHIS, TN, 38103",610384243,"L"
119343,"1239 JEFFREY LA","LANGHORNE","PA",19047,40.1621470910001,-74.9347814239999,343,"1239 JEFFREY LA, LANGHORNE, PA, 19047","Match","Exact","1239 JEFFREY LN, LANGHORNE, PA, 19047",636358762,"R"
119344,"1239 JENIFER STREET APT 1","MADISON","WI",53703,43.083097174,-89.362741,344,"1239 JENIFER STREET APT 1, MADISON, WI, 53703","Match","Exact","1239 JENIFER ST, MADISON, WI, 53703",49473315,"R"
119345,"1239 JEROME AVENUE","JANESVILLE","WI",53545,42.663315353,-89.014410185,345,"1239 JEROME AVENUE, JANESVILLE, WI, 53545","Match","Non_Exact","1239 JEROME AVE, JANESVILLE, WI, 53546",49854411,"L"
119346,"1239 KERN DR","GERMANTOWN","OH",45327,39.6312489520001,-84.353103631,346,"1239 KERN DR, GERMANTOWN, OH, 45327","Match","Exact","1239 KERN DR, GERMANTOWN, OH, 45327",613633068,"L"
119347,"1239 KING SPRINGS COURT","SMYRNA","GA",30080,33.865074888,-84.518696683,347,"1239 KING SPRINGS COURT, SMYRNA, GA, 30080","Match","Non_Exact","1239 KING SPRINGS CT SE, SMYRNA, GA, 30080",625182647,"L"
119348,"1239 KLETTE AVENUE","FRESNO","CA",93706,36.725582408,-119.807807129,348,"1239 KLETTE AVENUE, FRESNO, CA, 93706","Match","Exact","1239 KLETTE AVE, FRESNO, CA, 93706",197579353,"L"
119349,"1239 LARAMIE AVE","ALLIANCE","NE",69147,42.106969314,-102.872487687,349,"1239 LARAMIE AVE, ALLIANCE, NE, 69147","Match","Non_Exact","1239 LARAMIE AVE, ALLIANCE, NE, 69301",162350940,"R"
119350,"1239 LARAMIE AVE","ALLIANCE","NE",69301,42.106969314,-102.872487687,350,"1239 LARAMIE AVE, ALLIANCE, NE, 69301","Match","Exact","1239 LARAMIE AVE, ALLIANCE, NE, 69301",162350940,"R"
119351,"1239 LAS PALMAS DR","SANTA CLARA","CA",95051,37.348276781,-121.970075513,351,"1239 LAS PALMAS DR, SANTA CLARA, CA, 95051","Match","Exact","1239 LAS PALMAS DR, SANTA CLARA, CA, 95051",122898962,"R"
119352,"1239 LOASA DRIVE","PUEBLO WEST","CO",81007,38.3261485960001,-104.799595703,352,"1239 LOASA DRIVE, PUEBLO WEST, CO, 81007","Match","Non_Exact","1239 W LOASA DR, PUEBLO WEST, CO, 81007",105034318,"R"
119353,"1239 MARYLAND AVENUE NE","WASHINGTON","DC",20002,38.8976254610001,-76.989455243,353,"1239 MARYLAND AVENUE NE, WASHINGTON, DC, 20002","Match","Exact","1239 MARYLAND AVE NE, WASHINGTON, DC, 20002",638246851,"R"
119354,"1239 MEYER COURT","MCLEAN","VA",22101,38.9393746640001,-77.1543651109999,354,"1239 MEYER COURT, MCLEAN, VA, 22101","Match","Exact","1239 MEYER CT, MCLEAN, VA, 22101",75963930,"R"
119355,"1239 N GARRISON","ROCKFORD","IL",61103,42.286089663,-89.089260209,355,"1239 N GARRISON, ROCKFORD, IL, 61103","Match","Non_Exact","1239 GARRISON AVE, ROCKFORD, IL, 61103",639147083,"R"
119356,"1239 N HIGHLAND AVE","ATLANTA","GA",30306,33.7886025450001,-84.355439039,356,"1239 N HIGHLAND AVE, ATLANTA, GA, 30306","Match","Non_Exact","1239 N HIGHLAND AVE NE, ATLANTA, GA, 30306",17356940,"R"
119357,"1239 N PAULINA ST","CHICAGO","IL",60622,41.9045186290001,-87.670288206,357,"1239 N PAULINA ST, CHICAGO, IL, 60622","Match","Exact","1239 N PAULINA ST, CHICAGO, IL, 60622",605066385,"R"
119358,"1239 NORTH GREENVIEW AVE","CHICAGO","IL",60642,41.9043973760001,-87.665067665,358,"1239 NORTH GREENVIEW AVE, CHICAGO, IL, 60642","Match","Exact","1239 N GREENVIEW AVE, CHICAGO, IL, 60642",605066696,"R"
119359,"1239 NW 67TH STREET","OCALA","FL",34475,29.2562152990001,-82.147987212,359,"1239 NW 67TH STREET, OCALA, FL, 34475","Match","Exact","1239 NW 67TH ST, OCALA, FL, 34475",116707323,"L"
119360,"1239 OLDE OAKS DR","JOHNSON CITY","TN",37615,36.3591460870001,-82.454860568,360,"1239 OLDE OAKS DR, JOHNSON CITY, TN, 37615","Match","Exact","1239 OLDE OAKS DR, JOHNSON CITY, TN, 37615",127937154,"L"
119361,"1239 ORCHARD DR","AMES","IA",50010,42.0335374570001,-93.6289699069999,361,"1239 ORCHARD DR, AMES, IA, 50010","Match","Exact","1239 ORCHARD DR, AMES, IA, 50010",635597958,"L"
119362,"1239 ORTIZ SE APT D","ALBUQUERQUE","NM",87108,35.0630602210001,-106.585324607,362,"1239 ORTIZ SE APT D, ALBUQUERQUE, NM, 87108","Match","Non_Exact","1239 ORTIZ DR SE, ALBUQUERQUE, NM, 87108",206718345,"R"
119363,"1239 PACIFIC ST APT 2","BROOKLYN","NY",11216,40.677765816,-73.951437218,363,"1239 PACIFIC ST APT 2, BROOKLYN, NY, 11216","Match","Exact","1239 PACIFIC ST, BROOKLYN, NY, 11216",59079350,"L"
119364,"1239 PACIFIC STREET","BROOKLYN","NY",11216,40.677765816,-73.951437218,364,"1239 PACIFIC STREET, BROOKLYN, NY, 11216","Match","Exact","1239 PACIFIC ST, BROOKLYN, NY, 11216",59079350,"L"
119365,"1239 PADDOCK HILLS AVENUE","CINCINNATI","OH",45229,39.1644926600001,-84.478032723,365,"1239 PADDOCK HILLS AVENUE, CINCINNATI, OH, 45229","Match","Exact","1239 PADDOCK HILLS AVE, CINCINNATI, OH, 45229",103929524,"R"
119366,"1239 PALM STREET","CLEARWATER","FL",33755,27.9966555020001,-82.7860214569999,366,"1239 PALM STREET, CLEARWATER, FL, 33755","Match","Exact","1239 PALM ST, CLEARWATER, FL, 33755",653874096,"R"
119367,"1239 RED MILL ROAD","KITTANNING","PA",16201,40.788940493,-79.390027092,367,"1239 RED MILL ROAD, KITTANNING, PA, 16201","Match","Exact","1239 RED MILL RD, KITTANNING, PA, 16201",52484231,"R"
119368,"1239 REECE ROAD","SEVERN","MD",21144,39.118585271,-76.715524804,368,"1239 REECE ROAD, SEVERN, MD, 21144","Match","Exact","1239 REECE RD, SEVERN, MD, 21144",618710992,"L"
119369,"1239 REMSEN AVENUE","BROOKLYN","NY",11236,40.6395098680001,-73.905148557,369,"1239 REMSEN AVENUE, BROOKLYN, NY, 11236","Match","Exact","1239 REMSEN AVE, BROOKLYN, NY, 11236",59086639,"L"
119370,"1239 ROSSMORE","CINCINNATI","OH",45237,39.1793425230001,-84.476007274,370,"1239 ROSSMORE, CINCINNATI, OH, 45237","Match","Non_Exact","1239 ROSSMORE AVE, CINCINNATI, OH, 45237",103928570,"R"
119371,"1239 ROY ROAD","AUGUSTA","GA",30909,33.4796335830001,-82.101414641,371,"1239 ROY ROAD, AUGUSTA, GA, 30909","Match","Non_Exact","1239 ROY ST, AUGUSTA, GA, 30909",639324835,"R"
119372,"1239 RUSSELL AVE N","MINNEAPOLIS","MN",55601,44.9903487670001,-93.3107955149999,372,"1239 RUSSELL AVE N, MINNEAPOLIS, MN, 55601","Match","Non_Exact","1239 RUSSELL AVE N, MINNEAPOLIS, MN, 55411",43623552,"L"
119373,"1239 S ASH CT","CHANDLER","AZ",85286,33.28844252,-111.869320078,373,"1239 S ASH CT, CHANDLER, AZ, 85286","Match","Exact","1239 S ASH CT, CHANDLER, AZ, 85286",128797235,"L"
119374,"1239 S SHIRLEY AVE","REPUBLIC","MO",65738,37.1033183800001,-93.4779974419999,374,"1239 S SHIRLEY AVE, REPUBLIC, MO, 65738","Match","Exact","1239 SHIRLEY AVE, REPUBLIC, MO, 65738",629088238,"R"
119375,"1239 SAINT CLAIRE PL","SCHAUMBURG","IL",60173,42.029943492,-88.053212459,375,"1239 SAINT CLAIRE PL, SCHAUMBURG, IL, 60173","Match","Exact","1239 SAINT CLAIRE PL, SCHAUMBURG, IL, 60173",111878776,"L"
119376,"1239 SE 14TH TERRANCE","GAINESVILLE","FL",32641,NA,NA,376,"1239 SE 14TH TERRANCE, GAINESVILLE, FL, 32641","No_Match",NA,NA,NA,NA
119377,"1239 SEVIER AVE","MENLO PARK","CA",94025,37.474711337,-122.157107157,377,"1239 SEVIER AVE, MENLO PARK, CA, 94025","Match","Exact","1239 SEVIER AVE, MENLO PARK, CA, 94025",192366094,"L"
119378,"1239 SHAFFER DR APT 3","LORAIN","OH",44053,41.4205120920001,-82.187564406,378,"1239 SHAFFER DR APT 3, LORAIN, OH, 44053","Match","Exact","1239 SHAFFER DR, LORAIN, OH, 44053",55436515,"L"
119379,"1239 SHOREWINDS TRAIL","ST CHARLES","MO",63303,38.7693809290001,-90.515175671,379,"1239 SHOREWINDS TRAIL, ST CHARLES, MO, 63303","Match","Exact","1239 SHOREWINDS TRL, SAINT CHARLES, MO, 63303",617975782,"R"
119380,"1239 SPAIGHT ST","MADISON","WI",53703,43.082451511,-89.361885881,380,"1239 SPAIGHT ST, MADISON, WI, 53703","Match","Exact","1239 SPAIGHT ST, MADISON, WI, 53703",49473319,"R"
119381,"1239 SUDAN ST","MOBILE","AL",36693,30.638568639,-88.1541721419999,381,"1239 SUDAN ST, MOBILE, AL, 36693","Match","Exact","1239 SUDAN ST, MOBILE, AL, 36693",646577565,"L"
119382,"1239 SUDAN","MOBILE","AL",36693,30.638568639,-88.1541721419999,382,"1239 SUDAN, MOBILE, AL, 36693","Match","Non_Exact","1239 SUDAN ST, MOBILE, AL, 36693",646577565,"L"
119383,"1239 SUGARWOOD CIRCLE","ESSEX","MD",21221,39.302512629,-76.4520500949999,383,"1239 SUGARWOOD CIRCLE, ESSEX, MD, 21221","Match","Exact","1239 SUGARWOOD CIR, ESSEX, MD, 21221",191504514,"L"
119384,"1239 SUMMIT BLVD","BROADVIEW HTS","OH",44147,41.315510547,-81.688173126,384,"1239 SUMMIT BLVD, BROADVIEW HTS, OH, 44147","Match","Exact","1239 SUMMIT BLVD, BROADVIEW HEIGHTS, OH, 44147",61141559,"R"
119385,"1239 TAYLOR STREET","PORT TOWNSEND","WA",98368,48.121113462,-122.762637092,385,"1239 TAYLOR STREET, PORT TOWNSEND, WA, 98368","Match","Exact","1239 TAYLOR ST, PORT TOWNSEND, WA, 98368",151991562,"L"
119386,"1239 VENICE ST","LONGMONT","CO",80501,40.180188365,-105.111219803,386,"1239 VENICE ST, LONGMONT, CO, 80501","Match","Exact","1239 VENICE ST, LONGMONT, CO, 80501",188155846,"L"
119387,"1239 VENIDO DRIVE","KNOXVILE","TN",37932,35.92581182,-84.145648229,387,"1239 VENIDO DRIVE, KNOXVILE, TN, 37932","Match","Non_Exact","1239 VENIDO DR, KNOXVILLE, TN, 37932",42610444,"R"
119388,"1239 VIA ANTIBES","REDLAND","CA",92374,34.069317491,-117.14441335,388,"1239 VIA ANTIBES, REDLAND, CA, 92374","Match","Non_Exact","1239 VIA ANTIBES, REDLANDS, CA, 92374",144966503,"R"
119389,"1239 W AVENUE H14","LANCASTER","CA",93534,34.7057651960001,-118.152209935,389,"1239 W AVENUE H14, LANCASTER, CA, 93534","Match","Exact","1239 W AVE H14, LANCASTER, CA, 93534",141525871,"L"
119390,"1239 W DAWN DRIVE","TUCSON","AZ",85704,32.360097658,-110.993027787,390,"1239 W DAWN DRIVE, TUCSON, AZ, 85704","Match","Exact","1239 W DAWN DR, TUCSON, AZ, 85704",121164166,"L"
119391,"1239 W RIDGE ROAD","LITTLETON","CO",80120,39.5940920410001,-105.002851731,391,"1239 W RIDGE ROAD, LITTLETON, CO, 80120","Match","Exact","1239 W RIDGE RD, LITTLETON, CO, 80120",177336711,"R"
119392,"1239 WALKER AVE","ST. LOUIS","MO",63138,38.782655366,-90.205038112,392,"1239 WALKER AVE, ST. LOUIS, MO, 63138","Match","Exact","1239 WALKER AVE, SAINT LOUIS, MO, 63138",100150978,"R"
119393,"1239 WALTERS AVE","NORTHBROOK","IL",60062,42.1272666830001,-87.810905438,393,"1239 WALTERS AVE, NORTHBROOK, IL, 60062","Match","Exact","1239 WALTERS AVE, NORTHBROOK, IL, 60062",111839848,"L"
119394,"1239 WASHINGTON AVENUE APT 7","ASBURY PARK","NJ",7712,40.220008024,-74.02095387,394,"1239 WASHINGTON AVENUE APT 7, ASBURY PARK, NJ, 7712","Match","Exact","1239 WASHINGTON AVE, ASBURY PARK, NJ, 07712",90463344,"R"
119395,"1239 WASHINGTON STREET","HOLLYWOOD","FL",33019,26.0044942500001,-80.131552835,395,"1239 WASHINGTON STREET, HOLLYWOOD, FL, 33019","Match","Exact","1239 WASHINGTON ST, HOLLYWOOD, FL, 33019",114732730,"R"
119396,"1239 WEATHERVANE LANE APT 3B","AKRON","OH",44313,41.1365422600001,-81.552183229,396,"1239 WEATHERVANE LANE APT 3B, AKRON, OH, 44313","Match","Exact","1239 WEATHERVANE LN, AKRON, OH, 44313",640189303,"R"
119397,"1239 WEEPING OAKS CT","SAN JOSE","CA",95120,37.2125409510001,-121.859352026,397,"1239 WEEPING OAKS CT, SAN JOSE, CA, 95120","Match","Exact","1239 WEEPING OAKS CT, SAN JOSE, CA, 95120",122923253,"L"
119398,"1239 WHITETAIL DR","DRIPPING SPRINGS","TX",78620,30.3434701300001,-98.186614743,398,"1239 WHITETAIL DR, DRIPPING SPRINGS, TX, 78620","Match","Exact","1239 WHITETAIL DR, DRIPPING SPRINGS, TX, 78620",72150764,"L"
119399,"1239 WICKS LANE","BILLINGS","MT",59044,45.8274269090001,-108.453473625,399,"1239 WICKS LANE, BILLINGS, MT, 59044","Match","Non_Exact","1239 WICKS LN, BILLINGS, MT, 59105",618672084,"L"
119400,"1239 WICKS LANE","BILLINGS","MT",59105,45.8274269090001,-108.453473625,400,"1239 WICKS LANE, BILLINGS, MT, 59105","Match","Exact","1239 WICKS LN, BILLINGS, MT, 59105",618672084,"L"
119401,"1239 WILKENS AVE","BALTIMORE","MD",21224,NA,NA,401,"1239 WILKENS AVE, BALTIMORE, MD, 21224","No_Match",NA,NA,NA,NA
119402,"12390 N COPELAND LN","FLAGSTAFF","AZ",86004,35.3189418170001,-111.557030388,402,"12390 N COPELAND LN, FLAGSTAFF, AZ, 86004","Match","Exact","12390 N COPELAND LN, FLAGSTAFF, AZ, 86004",651669600,"L"
119403,"12390 NW 26TH COURT","CORAL SPRINGS","FL",33065,26.2641651120001,-80.2925873569999,403,"12390 NW 26TH COURT, CORAL SPRINGS, FL, 33065","Match","Exact","12390 NW 26TH CT, CORAL SPRINGS, FL, 33065",114772606,"L"
119404,"12390 ONEAL ROAD","GONZALES","LA",70737,30.2507235240001,-90.912471656,404,"12390 ONEAL ROAD, GONZALES, LA, 70737","Match","Exact","12390 ONEAL RD, GONZALES, LA, 70737",115033142,"R"
119405,"12390 SHAWNEE ROAD","STAGECOACH","NV",89429,39.356862747,-119.441050098,405,"12390 SHAWNEE ROAD, STAGECOACH, NV, 89429","Match","Exact","12390 SHAWNEE RD, STAGECOACH, NV, 89429",140359210,"R"
119406,"12390 SW 124TH TERR","MIAMI","FL",33186,25.652664757,-80.395326317,406,"12390 SW 124TH TERR, MIAMI, FL, 33186","Match","Exact","12390 SW 124TH TER, MIAMI, FL, 33186",638639003,"L"
119407,"12391 BRADFORD DRIVE","PARKER","CO",80134,39.5316308660001,-104.845128538,407,"12391 BRADFORD DRIVE, PARKER, CO, 80134","Match","Exact","12391 BRADFORD DR, PARKER, CO, 80134",625210068,"R"
119408,"12391 CHALLENDON DR","RANCHO CUCAMONGA","CA",91739,34.1478559,-117.534651625,408,"12391 CHALLENDON DR, RANCHO CUCAMONGA, CA, 91739","Match","Exact","12391 CHALLENDON DR, ETIWANDA, CA, 91739",614817416,"R"
119409,"12391 MICHIGAN AVE","AMITE","LA",70422,NA,NA,409,"12391 MICHIGAN AVE, AMITE, LA, 70422","No_Match",NA,NA,NA,NA
119410,"12391 SW 76 ST","MIAMI","FL",33183,25.69697297,-80.393988884,410,"12391 SW 76 ST, MIAMI, FL, 33183","Match","Exact","12391 SW 76TH ST, MIAMI, FL, 33183",116072223,"R"
119411,"12391 TURKEL DR","FISHERS","IN",46038,39.967762985,-86.016704272,411,"12391 TURKEL DR, FISHERS, IN, 46038","Match","Exact","12391 TURKEL DR, FISHERS, IN, 46038",29305500,"R"
119412,"12391 W CAMPBELL AVE","AVONDALE","AZ",85392,33.500897912,-112.327411251,412,"12391 W CAMPBELL AVE, AVONDALE, AZ, 85392","Match","Exact","12391 W CAMPBELL AVE, AVONDALE, AZ, 85392",128870742,"R"
119413,"12392 HAWK CREEK DRIVE","FRISCO","TX",75033,33.181338711,-96.8813030319999,413,"12392 HAWK CREEK DRIVE, FRISCO, TX, 75033","Match","Exact","12392 HAWK CREEK DR, FRISCO, TX, 75033",103412771,"L"
119414,"12392 SUNSET SAGE AVE","LAS VEGAS","NV",89138,NA,NA,414,"12392 SUNSET SAGE AVE, LAS VEGAS, NV, 89138","No_Match",NA,NA,NA,NA
119415,"12392 WOODLINE DR","SAINT LOUIS","MO",63141,38.6635611080001,-90.460531175,415,"12392 WOODLINE DR, SAINT LOUIS, MO, 63141","Match","Exact","12392 WOODLINE DR, SAINT LOUIS, MO, 63141",100124418,"L"
119416,"12393 BEAUCHAMPS LANE","SARATOGA","CA",95070,37.288518524,-122.038971026,416,"12393 BEAUCHAMPS LANE, SARATOGA, CA, 95070","Match","Exact","12393 BEAUCHAMPS LN, SARATOGA, CA, 95070",122990203,"R"
119417,"12393 COUNTY ROAD 32","GREENSBORO","AL",36744,32.8004491190001,-87.602851239,417,"12393 COUNTY ROAD 32, GREENSBORO, AL, 36744","Match","Exact","12393 CO RD 32, GREENSBORO, AL, 36744",38995589,"R"
119418,"12393 CTY RD O","ATHENS","WI",54411,NA,NA,418,"12393 CTY RD O, ATHENS, WI, 54411","No_Match",NA,NA,NA,NA
119419,"12393 NE 50TH VIEW","OXFORD","FL",34484,28.9358402660001,-82.020069366,419,"12393 NE 50TH VIEW, OXFORD, FL, 34484","Match","Exact","12393 N E 50TH VW, OXFORD, FL, 34484",635737417,"R"
119420,"12393 NE 50TH VIEW","OXFORD","FL",34785,28.9358402660001,-82.020069366,420,"12393 NE 50TH VIEW, OXFORD, FL, 34785","Match","Non_Exact","12393 N E 50TH VW, OXFORD, FL, 34484",635737417,"R"
119421,"12393 SW 124 TERR","MIAMI","FL",33186,25.652675722,-80.3953543809999,421,"12393 SW 124 TERR, MIAMI, FL, 33186","Match","Exact","12393 SW 124TH TER, MIAMI, FL, 33186",638639003,"R"
119422,"12393 WASHINGTON BLVD","WHITTIER","CA",90606,33.967161484,-118.049673248,422,"12393 WASHINGTON BLVD, WHITTIER, CA, 90606","Match","Exact","12393 WASHINGTON BLVD, WHITTIER, CA, 90606",142807067,"L"
119423,"12394 FM 539","LA VERNIA","TX",78121,29.3316191700001,-98.055122511,423,"12394 FM 539, LA VERNIA, TX, 78121","Match","Exact","12394 FM 539, LA VERNIA, TX, 78121",54888253,"R"
119424,"12394 FM 539","LAVERNIA","TX",78121,29.3316191700001,-98.055122511,424,"12394 FM 539, LAVERNIA, TX, 78121","Match","Exact","12394 FM 539, LAVERNIA, TX, 78121",54888253,"R"
119425,"12394 HUES RIDGE DRIVE","CONROE","TX",77302,30.272898776,-95.418524337,425,"12394 HUES RIDGE DRIVE, CONROE, TX, 77302","Match","Exact","12394 HUES RIDGE DR, CONROE, TX, 77302",79330376,"R"
119426,"12394 HWY E","VERSAILLES","MO",65084,NA,NA,426,"12394 HWY E, VERSAILLES, MO, 65084","No_Match",NA,NA,NA,NA
119427,"12394 MEADOW DRIVE","WINNEBAGO","IL",61088,42.3084695690001,-89.280213755,427,"12394 MEADOW DRIVE, WINNEBAGO, IL, 61088","Match","Exact","12394 MEADOW DR, WINNEBAGO, IL, 61088",648156726,"R"
119428,"12394 PLUM LANE","WILTON","CA",95693,38.4392737110001,-121.208127107,428,"12394 PLUM LANE, WILTON, CA, 95693","Match","Exact","12394 PLUM LN, WILTON, CA, 95693",133359214,"L"
119429,"12394 SIMPSON RD","GULFPORT","MS",39503,30.467986705,-89.082256098,429,"12394 SIMPSON RD, GULFPORT, MS, 39503","Match","Exact","12394 SIMPSON RD, GULFPORT, MS, 39503",111378714,"L"
119430,"12394 TEACHOUT RD","MANITOU BEACH","MI",49253,41.986624481,-84.235479084,430,"12394 TEACHOUT RD, MANITOU BEACH, MI, 49253","Match","Exact","12394 TEACHOUT RD, MANITOU BEACH, MI, 49253",640514284,"L"
119431,"12395 BLUE TERRACE WAY","CASTLE PINES","CO",80108,39.4911286670001,-104.919006325,431,"12395 BLUE TERRACE WAY, CASTLE PINES, CO, 80108","Match","Exact","12395 BLUE TERRACE WAY, CASTLE PINES, CO, 80108",130841606,"R"
119432,"12395 FELT CT","MORENO VALLEY","CA",92557,33.940256774,-117.22151562,432,"12395 FELT CT, MORENO VALLEY, CA, 92557","Match","Exact","12395 FELT CT, MORENO VALLEY, CA, 92557",194750087,"L"
119433,"12395 WILLSHIRE LANE","CHARDON","OH",44024,41.5322983030001,-81.2742990199999,433,"12395 WILLSHIRE LANE, CHARDON, OH, 44024","Match","Exact","12395 WILLSHIRE LN, CHARDON, OH, 44024",137442060,"L"
119434,"12395 WOODVIEW STREET","PLANO","IL",60545,41.6506647410001,-88.495825736,434,"12395 WOODVIEW STREET, PLANO, IL, 60545","Match","Exact","12395 WOODVIEW ST, PLANO, IL, 60545",647512259,"L"
119435,"12396 103RD AVENUE","KIMBALL","MN",55353,45.302900117,-94.3228751839999,435,"12396 103RD AVENUE, KIMBALL, MN, 55353","Match","Exact","12396 103RD AVE, KIMBALL, MN, 55353",612008031,"R"
119436,"12396 DRAKE ST NW","COON RAPIDS","MN",55448,45.194726114,-93.3040471369999,436,"12396 DRAKE ST NW, COON RAPIDS, MN, 55448","Match","Exact","12396 DRAKE ST NW, COON RAPIDS, MN, 55448",645488146,"L"
119437,"12396 RUST LANE","KEITHVILLE","LA",71047,32.3010837590001,-93.875893344,437,"12396 RUST LANE, KEITHVILLE, LA, 71047","Match","Exact","12396 RUST LN, KEITHVILLE, LA, 71047",629113043,"R"
119438,"12396 STARWOOD LANE","NEVADA CITY","CA",95959,39.2486070200001,-120.95238861,438,"12396 STARWOOD LANE, NEVADA CITY, CA, 95959","Match","Exact","12396 STARWOOD LN, NEVADA CITY, CA, 95959",106553536,"L"
119439,"12396 WORLD TRADE DR 108","SAN DIEGO","CA",92128,32.987424596,-117.067839928,439,"12396 WORLD TRADE DR 108, SAN DIEGO, CA, 92128","Match","Exact","12396 WORLD TRADE DR, SAN DIEGO, CA, 92128",195666829,"R"
119440,"12397 JADE CT","PLYMOUTH","IN",46563,41.317448794,-86.300577458,440,"12397 JADE CT, PLYMOUTH, IN, 46563","Match","Exact","12397 JADE CT, PLYMOUTH, IN, 46563",7649300,"R"
119441,"12397 JERICHO ROAD","SHERWOOD","OH",43556,41.2673135430001,-84.5847762509999,441,"12397 JERICHO ROAD, SHERWOOD, OH, 43556","Match","Exact","12397 JERICHO RD, SHERWOOD, OH, 43556",6704857,"L"
119442,"12397 RENDOVA STREET NE","BLAINE","MN",55449,45.1948892730001,-93.180339858,442,"12397 RENDOVA STREET NE, BLAINE, MN, 55449","Match","Exact","12397 RENDOVA ST NE, BLAINE, MN, 55449",614150633,"R"
119443,"12397 RIVER VALLEY DRIVE","FISHERS","IN",46037,39.967714163,-85.943172835,443,"12397 RIVER VALLEY DRIVE, FISHERS, IN, 46037","Match","Exact","12397 RIVER VALLEY DR, FISHERS, IN, 46037",624412146,"R"
119444,"12397 S 176TH AVE","GOODYEAR","AZ",85338,33.333758974,-112.42851517,444,"12397 S 176TH AVE, GOODYEAR, AZ, 85338","Match","Exact","12397 S 176TH AVE, GOODYEAR, AZ, 85338",243924125,"L"
119445,"12398 COUNTRY AY CIR","FORT MYERS","FL",33913,NA,NA,445,"12398 COUNTRY AY CIR, FORT MYERS, FL, 33913","No_Match",NA,NA,NA,NA
119446,"12398 N 1330TH ST","MARTINSVILLE","IL",62442,39.331337406,-87.7642727479999,446,"12398 N 1330TH ST, MARTINSVILLE, IL, 62442","Match","Exact","12398 N 1330TH ST, MARTINSVILLE, IL, 62442",5645700,"R"
119447,"12399 71ST AVENUE","BLUE GRASS","IA",52726,41.4841256490001,-90.764599493,447,"12399 71ST AVENUE, BLUE GRASS, IA, 52726","Match","Exact","12399 71ST AVE, BLUE GRASS, IA, 52726",122719595,"L"
119448,"12399 FLATLANDS AVENUE APT 8A","BROOKLYN","NY",11207,40.6570642070001,-73.876269822,448,"12399 FLATLANDS AVENUE APT 8A, BROOKLYN, NY, 11207","Match","Exact","12399 FLATLANDS AVE, BROOKLYN, NY, 11207",634254539,"L"
119449,"12399 OAK LN","CRIVITZ","WI",54114,45.2455847310001,-88.3544125609999,449,"12399 OAK LN, CRIVITZ, WI, 54114","Match","Exact","12399 OAK LN, CRIVITZ, WI, 54114",170318802,"L"
119450,"12399 TOWNLINE ROAD","HIBBING","MN",55746,47.3715007150001,-92.994273934,450,"12399 TOWNLINE ROAD, HIBBING, MN, 55746","Match","Non_Exact","12399 TOWN LINE RD, HIBBING, MN, 55746",163228663,"L"
119451,"12399 W DIXIE HWY","NORTH MIAMI","FL",33161,25.8892033540001,-80.188382077,451,"12399 W DIXIE HWY, NORTH MIAMI, FL, 33161","Match","Exact","12399 W DIXIE HWY, NORTH MIAMI, FL, 33161",116034423,"R"
119452,"12399 WEBER DR","MISHAWAKA","IN",46545,41.687761612,-86.1075173679999,452,"12399 WEBER DR, MISHAWAKA, IN, 46545","Match","Exact","12399 WEBER DR, MISHAWAKA, IN, 46545",8078928,"R"
119453,"123A  E HIGH STREET","GLASSBORO","NJ",8028,NA,NA,453,"123A  E HIGH STREET, GLASSBORO, NJ, 8028","Tie",NA,NA,NA,NA
119454,"123A DANIELS DRIVE","FRANKLIN","TN",37064,35.9286913080001,-86.860905144,454,"123A DANIELS DRIVE, FRANKLIN, TN, 37064","Match","Exact","123 DANIELS DR, FRANKLIN, TN, 37064",73104174,"L"
119455,"123A E HIGH STREET","GLASSBORO","NJ",8028,NA,NA,455,"123A E HIGH STREET, GLASSBORO, NJ, 8028","Tie",NA,NA,NA,NA
119456,"123A HAGGAR HALL","NOTRE DAME","IN",46556,NA,NA,456,"123A HAGGAR HALL, NOTRE DAME, IN, 46556","No_Match",NA,NA,NA,NA
119457,"123A SHERBURNE RD","PELHAM","NH",3076,42.704514954,-71.37159881,457,"123A SHERBURNE RD, PELHAM, NH, 3076","Match","Exact","123 SHERBURNE RD, PELHAM, NH, 03076",113560231,"L"
119458,"123A WILSON STREET","RIDGELAND","SC",29936,32.481070355,-80.9772269439999,458,"123A WILSON STREET, RIDGELAND, SC, 29936","Match","Exact","123 WILSON ST, RIDGELAND, SC, 29936",33148423,"R"
119459,"123B MENDOZA COLLEGE OF BUSINESS","NOTRE DAME","IN",46556,NA,NA,459,"123B MENDOZA COLLEGE OF BUSINESS, NOTRE DAME, IN, 46556","No_Match",NA,NA,NA,NA
119460,"123C LA CUEVA ROAD","GLORIETA","NM",87535,NA,NA,460,"123C LA CUEVA ROAD, GLORIETA, NM, 87535","No_Match",NA,NA,NA,NA
119461,"123D ARCADIA LN","OAK RIDGE","TN",37830,36.0458052390001,-84.2118113509999,461,"123D ARCADIA LN, OAK RIDGE, TN, 37830","Match","Exact","123 ARCADIA LN, OAK RIDGE, TN, 37830",90130483,"R"
119462,"123S MUNN AVE 5K","EAST ORANGE","NJ",7018,40.7521025830001,-74.213905417,462,"123S MUNN AVE 5K, EAST ORANGE, NJ, 7018","Match","Non_Exact","123 S MUNN AVE, EAST ORANGE, NJ, 07018",63481408,"R"
119463,"124  HILLSIDE AVE","TEANECK","NJ",7666,40.8755022720001,-74.016337574,463,"124  HILLSIDE AVE, TEANECK, NJ, 7666","Match","Exact","124 HILLSIDE AVE, TEANECK, NJ, 07666",64389306,"L"
119464,"124  N WALL AVENUE","JOPLIN","MO",64801,37.0909794720001,-94.51539791,464,"124  N WALL AVENUE, JOPLIN, MO, 64801","Match","Exact","124 N WALL AVE, JOPLIN, MO, 64801",66147002,"L"
119465,"124 1/2 SOUTH MAIN STREET","CELINA","OH",45822,40.548713698,-84.570789835,465,"124 1/2 SOUTH MAIN STREET, CELINA, OH, 45822","Match","Exact","124 S MAIN ST, CELINA, OH, 45822",43084241,"R"
119466,"124 10TH STREET 3","MANHATTAN BEACH","CA",90266,33.883296681,-118.410457604,466,"124 10TH STREET 3, MANHATTAN BEACH, CA, 90266","Match","Exact","124 10TH ST, MANHATTAN BEACH, CA, 90266",141581555,"R"
119467,"124 10TH STREET","MANHATTAN BEACH","CA",90266,33.883296681,-118.410457604,467,"124 10TH STREET, MANHATTAN BEACH, CA, 90266","Match","Exact","124 10TH ST, MANHATTAN BEACH, CA, 90266",141581555,"R"
119468,"124 11TH AVE","HUNTINGTON","WV",25701,38.4087963270001,-82.453935587,468,"124 11TH AVE, HUNTINGTON, WV, 25701","Match","Exact","124 11TH AVE, HUNTINGTON, WV, 25701",101317502,"L"
119469,"124 15TH ST NUM G","HUNTINGTON BEACH","CA",92648,33.6638566120001,-118.010542928,469,"124 15TH ST NUM G, HUNTINGTON BEACH, CA, 92648","Match","Exact","124 15TH ST, HUNTINGTON BEACH, CA, 92648",144019540,"R"
119470,"124 17TH AVE E","SEATTLE","WA",98112,47.6188404280001,-122.31012649,470,"124 17TH AVE E, SEATTLE, WA, 98112","Match","Exact","124 17TH AVE E, SEATTLE, WA, 98112",638598934,"R"
119471,"124 1ST STREET","DRUMMOND","MT",59832,46.6694322700001,-113.148650108,471,"124 1ST STREET, DRUMMOND, MT, 59832","Match","Exact","124 1ST ST, DRUMMOND, MT, 59832",611082132,"R"
119472,"124 21 FLATLANDS AVE STE 8K","BROOKLYN","NY",11208,NA,NA,472,"124 21 FLATLANDS AVE STE 8K, BROOKLYN, NY, 11208","No_Match",NA,NA,NA,NA
119473,"124 222ND STREET","BALDWIN","WI",54002,44.87951567,-92.354847934,473,"124 222ND STREET, BALDWIN, WI, 54002","Match","Exact","124 222ND ST, BALDWIN, WI, 54002",110900070,"L"
119474,"124 239TH WAY  SE","SAMMAMISH","WA",98074,47.608457705,-122.02147737,474,"124 239TH WAY  SE, SAMMAMISH, WA, 98074","Match","Exact","124 239TH WAY SE, SAMMAMISH, WA, 98074",633776310,"R"
119475,"124 246TH WAY SE","SAMMAMISH","WA",98074,47.6078381360001,-122.011627671,475,"124 246TH WAY SE, SAMMAMISH, WA, 98074","Match","Exact","124 246TH WAY SE, SAMMAMISH, WA, 98074",186934103,"R"
119476,"124 25TH STREET NW","BARBERTON","OH",44203,41.011316789,-81.63141092,476,"124 25TH STREET NW, BARBERTON, OH, 44203","Match","Exact","124 25TH ST NW, BARBERTON, OH, 44203",61363030,"L"
119477,"124 28TH ST CT NW","BRADENTON","FL",34205,27.4995550900001,-82.590401567,477,"124 28TH ST CT NW, BRADENTON, FL, 34205","Match","Exact","124 28TH STREET CT NW, BRADENTON, FL, 34205",16232648,"R"
119478,"124 2ND AVE","TWO HARBORS","MN",55616,47.0207589,-91.661577439,478,"124 2ND AVE, TWO HARBORS, MN, 55616","Match","Exact","124 2ND AVE, TWO HARBORS, MN, 55616",194219218,"R"
119479,"124 2ND STREET","BARABOO","WI",53913,43.4689358520001,-89.7420059249999,479,"124 2ND STREET, BARABOO, WI, 53913","Match","Exact","124 2ND ST, BARABOO, WI, 53913",86534437,"L"
119480,"124 3RD AVE SW","PIPESTONE","MN",56164,44.000197572,-96.3206383959999,480,"124 3RD AVE SW, PIPESTONE, MN, 56164","Match","Exact","124 3RD AVE SW, PIPESTONE, MN, 56164",34930544,"L"
119481,"124 3RD AVENUE","INDIALANTIC","FL",32903,28.0927421320001,-80.567876735,481,"124 3RD AVENUE, INDIALANTIC, FL, 32903","Match","Exact","124 3RD AVE, INDIALANTIC, FL, 32903",93906315,"R"
119482,"124 3RD AVENUE","NYACK","NY",10960,41.094070345,-73.919386388,482,"124 3RD AVENUE, NYACK, NY, 10960","Match","Exact","124 3RD AVE, NYACK, NY, 10960",124628125,"R"
119483,"124 4TH AVE S STE 180","KENT","WA",98032,47.3813430810001,-122.23739921,483,"124 4TH AVE S STE 180, KENT, WA, 98032","Match","Exact","124 4TH AVE S, KENT, WA, 98032",186634621,"L"
119484,"124 58TH ST","VIRGINIA BEACH","VA",23451,36.8844392240001,-75.985836908,484,"124 58TH ST, VIRGINIA BEACH, VA, 23451","Match","Exact","124 58TH ST, VA BCH, VA, 23451",122276374,"R"
119485,"124 6TH AVENUE","DEWITT","IA",52742,41.8160533380001,-90.5389025919999,485,"124 6TH AVENUE, DEWITT, IA, 52742","Match","Non_Exact","124 6TH AVE, DE WITT, IA, 52742",16805118,"R"
119486,"124 6TH ST NW","BARBERTON","OH",44203,41.0142105,-81.6124732069999,486,"124 6TH ST NW, BARBERTON, OH, 44203","Match","Exact","124 6TH ST NW, BARBERTON, OH, 44203",61342154,"L"
119487,"124 6TH ST","NAPLES","FL",34113,26.07462386,-81.727282873,487,"124 6TH ST, NAPLES, FL, 34113","Match","Exact","124 6TH ST, NAPLES, FL, 34113",609036879,"R"
119488,"124 8TH STREET","WEST DES MOINES","IA",50265,41.57008496,-93.713049736,488,"124 8TH STREET, WEST DES MOINES, IA, 50265","Match","Exact","124 8TH ST, W DES MOINES, IA, 50265",65785032,"L"
119489,"124 91ST AVE NE","BLAINE","MN",55434,45.135889483,-93.264230493,489,"124 91ST AVE NE, BLAINE, MN, 55434","Match","Exact","124 91ST AVE NE, BLAINE, MN, 55434",97486580,"R"
119490,"124 A STREET","BAKERSFIELD","CA",93304,35.3553700950001,-119.02942596,490,"124 A STREET, BAKERSFIELD, CA, 93304","Match","Exact","124 A ST, BAKERSFIELD, CA, 93304",645295937,"R"
119491,"124 ABERDEEN LANE","MONROE","MI",48161,41.927207207,-83.4678860189999,491,"124 ABERDEEN LANE, MONROE, MI, 48161","Match","Non_Exact","124 ABERDEEN DR, MONROE, MI, 48161",627631840,"L"
119492,"124 AIRSTRIP ROAD","EAST STROUDSBURG","PA",18301,41.035082189,-75.155862133,492,"124 AIRSTRIP ROAD, EAST STROUDSBURG, PA, 18301","Match","Exact","124 AIRSTRIP RD, E STROUDSBURG, PA, 18301",136760004,"L"
119493,"124 ALMOND CIRCLE","KINGSLAND","GA",31548,30.804249213,-81.635369149,493,"124 ALMOND CIRCLE, KINGSLAND, GA, 31548","Match","Exact","124 ALMOND CIR, KINGSLAND, GA, 31548",125713410,"L"
119494,"124 ALMONTE BLVD UNIT 5","MILL VALLEY","CA",94941,37.8901697570001,-122.527489949,494,"124 ALMONTE BLVD UNIT 5, MILL VALLEY, CA, 94941","Match","Exact","124 ALMONTE BLVD, MILL VALLEY, CA, 94941",192766808,"R"
119495,"124 ALTON DRIVE","MADISON","WI",53718,43.0981574100001,-89.2785824869999,495,"124 ALTON DRIVE, MADISON, WI, 53718","Match","Exact","124 ALTON DR, MADISON, WI, 53718",648225926,"R"
119496,"124 ALTON ROAD","NASHVILLE","TN",37205,36.0920630270001,-86.874302142,496,"124 ALTON ROAD, NASHVILLE, TN, 37205","Match","Exact","124 ALTON RD, NASHVILLE, TN, 37205",97181074,"L"
119497,"124 AMBER MILL CIRCLE","BRUNSWICK","GA",31525,31.257636813,-81.518022678,497,"124 AMBER MILL CIRCLE, BRUNSWICK, GA, 31525","Match","Exact","124 AMBER MILL CIR, BRUNSWICK, GA, 31525",636097747,"R"
119498,"124 AMBLESIDE DR","FALMOUTH","MA",2540,41.609200318,-70.6270588909999,498,"124 AMBLESIDE DR, FALMOUTH, MA, 2540","Match","Exact","124 AMBLESIDE DR, FALMOUTH, MA, 02540",121571818,"L"
119499,"124 ANCHOR LN","MILFORD","DE",19963,38.937839351,-75.4226976639999,499,"124 ANCHOR LN, MILFORD, DE, 19963","Match","Exact","124 ANCHOR LN, MILFORD, DE, 19963",617125626,"R"
119500,"124 ANDERSON HILL RD","ENFIELD","NH",3748,43.6497586730001,-72.1371828059999,500,"124 ANDERSON HILL RD, ENFIELD, NH, 3748","Match","Exact","124 ANDERSON HILL RD, ENFIELD, NH, 03748",145712893,"R"
