"ID","Address","City","State","Zip","lat","long","id","input_address","match_indicator","match_type","matched_address","tiger_line_id","tiger_side"
510501,"323 EAST BORT STREET","LONG BEACH","CA",90805,33.8705526110001,-118.196476553,1,"323 EAST BORT STREET, LONG BEACH, CA, 90805","Match","Exact","323 E BORT ST, LONG BEACH, CA, 90805",141683745,"L"
510502,"323 EAST CHESTER ST","LONG BEACH","NY",11561,40.5894881450001,-73.654606589,2,"323 EAST CHESTER ST, LONG BEACH, NY, 11561","Match","Exact","323 E CHESTER ST, LONG BEACH, NY, 11561",147682405,"L"
510503,"323 EAST D STREET","CULVER","OR",97734,44.5244265170001,-121.207572685,3,"323 EAST D STREET, CULVER, OR, 97734","Match","Exact","323 E D ST, CULVER, OR, 97734",611148167,"L"
510504,"323 EAST GARLAND ROAD","GRAND SALINE","TX",75140,32.6745127660001,-95.707114686,4,"323 EAST GARLAND ROAD, GRAND SALINE, TX, 75140","Match","Non_Exact","323 E GARLAND ST, GRAND SALINE, TX, 75140",42917485,"R"
510505,"323 EAST SEALE","NACOGDOCHES","TX",75961,NA,NA,5,"323 EAST SEALE, NACOGDOCHES, TX, 75961","No_Match",NA,NA,NA,NA
510506,"323 EAST STREET NE","CLEVELAND","TN",37311,35.152009859,-84.865970225,6,"323 EAST STREET NE, CLEVELAND, TN, 37311","Match","Non_Exact","323 EAST ST SE, CLEVELAND, TN, 37311",57574781,"R"
510507,"323 EAST UNIVERSITY PKWY APT A","BALTIMORE","MD",21218,39.329195788,-76.6124247559999,7,"323 EAST UNIVERSITY PKWY APT A, BALTIMORE, MD, 21218","Match","Exact","323 E UNIVERSITY PKWY, BALTIMORE, MD, 21218",206408895,"R"
510508,"323 EAST VIEW PLACE","OSCEOLA","IA",50213,41.0370446690001,-93.752334288,8,"323 EAST VIEW PLACE, OSCEOLA, IA, 50213","Match","Exact","323 E VIEW PL, OSCEOLA, IA, 50213",648090302,"L"
510509,"323 EAST WACKER DRIVE BOX 106","CHICAGO","IL",60601,41.8877091890001,-87.619891152,9,"323 EAST WACKER DRIVE BOX 106, CHICAGO, IL, 60601","Match","Exact","323 E WACKER DR, CHICAGO, IL, 60601",633618864,"R"
510510,"323 EATON ROAD","CONWAY","NH",3818,NA,NA,10,"323 EATON ROAD, CONWAY, NH, 3818","No_Match",NA,NA,NA,NA
510511,"323 EDGEWATER AVE","EDGEWATER PARK","NJ",8010,40.068622824,-74.896825497,11,"323 EDGEWATER AVE, EDGEWATER PARK, NJ, 8010","Match","Exact","323 EDGEWATER AVE, EDGEWATER PARK, NJ, 08010",134028827,"R"
510512,"323 EDGEWATER DR","PENSACOLA","FL",32507,30.405108442,-87.2638315249999,12,"323 EDGEWATER DR, PENSACOLA, FL, 32507","Match","Exact","323 EDGEWATER DR, PENSACOLA, FL, 32507",93216694,"L"
510513,"323 ELIZABETH DRIVE","SINKING SPRING","PA",19608,40.33138325,-76.01869332,13,"323 ELIZABETH DRIVE, SINKING SPRING, PA, 19608","Match","Exact","323 ELIZABETH DR, SINKING SPRING, PA, 19608",80411997,"R"
510514,"323 ELIZABETH","HUNTSVILLE","MO",65259,39.428863436,-92.5453284819999,14,"323 ELIZABETH, HUNTSVILLE, MO, 65259","Match","Non_Exact","323 ELIZABETH ST, HUNTSVILLE, MO, 65259",23793790,"R"
510515,"323 EMANUEL CLEAVER II BLVD UNIT 5D","KANSAS CITY","MO",64112,39.0420129820001,-94.5833589119999,15,"323 EMANUEL CLEAVER II BLVD UNIT 5D, KANSAS CITY, MO, 64112","Match","Exact","323 EMANUEL CLEAVER II BLVD, KANSAS CITY, MO, 64112",91447672,"R"
510516,"323 EMERSON AVENUE","ALLIANCE","NE",69301,42.09731751,-102.877741843,16,"323 EMERSON AVENUE, ALLIANCE, NE, 69301","Match","Exact","323 EMERSON AVE, ALLIANCE, NE, 69301",162358469,"R"
510517,"323 EMMING ST","CINCINNATI","OH",45219,39.1229854690001,-84.524250267,17,"323 EMMING ST, CINCINNATI, OH, 45219","Match","Exact","323 EMMING ST, CINCINNATI, OH, 45219",103970356,"L"
510518,"323 ENOS PLACE","HOHOKUS","NJ",7423,41.0003993190001,-74.1088828269999,18,"323 ENOS PLACE, HOHOKUS, NJ, 7423","Match","Non_Exact","323 ENOS PL, HO HO KUS, NJ, 07423",64366649,"L"
510519,"323 ENTERPRISE DR","BIRD IN HAND","PA",17505,40.039982637,-76.184931814,19,"323 ENTERPRISE DR, BIRD IN HAND, PA, 17505","Match","Exact","323 ENTERPRISE DR, BIRD IN HAND, PA, 17505",634150917,"L"
510520,"323 EUCLID 33","SANTA ANA","CA",92703,NA,NA,20,"323 EUCLID 33, SANTA ANA, CA, 92703","No_Match",NA,NA,NA,NA
510521,"323 FAIRFIELD AVE","BRIDGEPORT","CT",6604,41.17837697,-73.192539599,21,"323 FAIRFIELD AVE, BRIDGEPORT, CT, 6604","Match","Exact","323 FAIRFIELD AVE, BRIDGEPORT, CT, 06604",3224200,"L"
510522,"323 FERN DRIVE","BORING","OR",97009,NA,NA,22,"323 FERN DRIVE, BORING, OR, 97009","No_Match",NA,NA,NA,NA
510523,"323 FIELDBROOK DRIVE","MAGNOLIA","DE",19962,39.0679195660001,-75.4934647539999,23,"323 FIELDBROOK DRIVE, MAGNOLIA, DE, 19962","Match","Exact","323 FIELDBROOK DR, MAGNOLIA, DE, 19962",68106118,"L"
510524,"323 FIRETHORNE CIRCLE","EXTON","PA",19341,40.033192209,-75.6520643379999,24,"323 FIRETHORNE CIRCLE, EXTON, PA, 19341","Match","Exact","323 FIRETHORNE CIR, EXTON, PA, 19341",179522940,"R"
510525,"323 FIRST AVE S","BAXTER","TN",38544,36.150851565,-85.640682392,25,"323 FIRST AVE S, BAXTER, TN, 38544","Match","Exact","323 1ST AVE S, BAXTER, TN, 38544",605278456,"L"
510526,"323 FM 1117","NIXON","TX",78140,29.298692094,-97.764497229,26,"323 FM 1117, NIXON, TX, 78140","Match","Exact","323 FM 1117, NIXON, TX, 78140",44501336,"R"
510527,"323 FM 22 E","JACKSONVILLE","TX",75766,31.9186087520001,-95.2311518609999,27,"323 FM 22 E, JACKSONVILLE, TX, 75766","Match","Exact","323 FM 22 E, JACKSONVILLE, TX, 75766",607010597,"L"
510528,"323 FM 2693 E","NEW WAVERLY","TX",77538,NA,NA,28,"323 FM 2693 E, NEW WAVERLY, TX, 77538","No_Match",NA,NA,NA,NA
510529,"323 FOREST PARK RD","MADISON","TN",37207,36.259622891,-86.7037109999999,29,"323 FOREST PARK RD, MADISON, TN, 37207","Match","Non_Exact","323 FOREST PARK RD, MADISON, TN, 37115",97183237,"R"
510530,"323 FORREST AVE","SELMA","AL",36701,32.416073511,-87.042585872,30,"323 FORREST AVE, SELMA, AL, 36701","Match","Exact","323 FORREST AVE, SELMA, AL, 36701",1283718,"L"
510531,"323 FORSYTH ST","BARNESVILLE","GA",30204,33.0546024240001,-84.1500555269999,31,"323 FORSYTH ST, BARNESVILLE, GA, 30204","Match","Exact","323 FORSYTH ST, BARNESVILLE, GA, 30204",66647117,"R"
510532,"323 FORSYTH STREET","BARNESVILLE","GA",30204,33.0546024240001,-84.1500555269999,32,"323 FORSYTH STREET, BARNESVILLE, GA, 30204","Match","Exact","323 FORSYTH ST, BARNESVILLE, GA, 30204",66647117,"R"
510533,"323 GALAHAD ROAD NORTH","HUDSON","WI",54016,44.9927716130001,-92.7620836249999,33,"323 GALAHAD ROAD NORTH, HUDSON, WI, 54016","Match","Exact","323 GALAHAD RD N, HUDSON, WI, 54016",653395579,"R"
510534,"323 GALAHAD ROAD","HUDSON","WI",54016,44.9927716130001,-92.7620836249999,34,"323 GALAHAD ROAD, HUDSON, WI, 54016","Match","Non_Exact","323 GALAHAD RD N, HUDSON, WI, 54016",653395579,"R"
510535,"323 GILL LANE 12G","ISELIN","NJ",8830,40.5619686050001,-74.3149751139999,35,"323 GILL LANE 12G, ISELIN, NJ, 8830","Match","Exact","323 GILL LN, ISELIN, NJ, 08830",60274244,"L"
510536,"323 GLENDALE AVENUE","DECATUR","GA",30030,33.7793828170001,-84.2891276939999,36,"323 GLENDALE AVENUE, DECATUR, GA, 30030","Match","Exact","323 GLENDALE AVE, DECATUR, GA, 30030",23367177,"R"
510537,"323 GLENLAKE DR","HOSCHTON","GA",30548,34.080363655,-83.705253698,37,"323 GLENLAKE DR, HOSCHTON, GA, 30548","Match","Non_Exact","323 GLEN LAKE DR, HOSCHTON, GA, 30548",646440995,"L"
510538,"323 GRALAN RD","CATONSVILLE","MD",21228,39.275418094,-76.761752213,38,"323 GRALAN RD, CATONSVILLE, MD, 21228","Match","Exact","323 GRALAN RD, CATONSVILLE, MD, 21228",191554575,"R"
510539,"323 GRANGE ROAD","TROY","NY",12180,42.7715213700001,-73.639390126,39,"323 GRANGE ROAD, TROY, NY, 12180","Match","Exact","323 GRANGE RD, TROY, NY, 12180",35746187,"R"
510540,"323 GRANTHAM ST","SUMTER","SC",29150,33.94053825,-80.348903976,40,"323 GRANTHAM ST, SUMTER, SC, 29150","Match","Exact","323 GRANTHAM ST, SUMTER, SC, 29150",202669062,"R"
510541,"323 GREEN ACRES","ELK RAPIDS","MI",49629,44.891771217,-85.391089667,41,"323 GREEN ACRES, ELK RAPIDS, MI, 49629","Match","Non_Exact","323 GREEN ACRES LN, ELK RAPIDS, MI, 49629",145830160,"R"
510542,"323 GREEN AVENUE APT 3A","BROOKLYN","NY",11238,NA,NA,42,"323 GREEN AVENUE APT 3A, BROOKLYN, NY, 11238","No_Match",NA,NA,NA,NA
510543,"323 GREEN PARK DRIVE","BELTON","TX",76513,31.1265808270001,-97.4724771689999,43,"323 GREEN PARK DRIVE, BELTON, TX, 76513","Match","Exact","323 GREEN PARK DR, BELTON, TX, 76513",146185162,"R"
510544,"323 GREENHAVEN DR SE","ATLANTA","GA",30317,33.741260584,-84.313374903,44,"323 GREENHAVEN DR SE, ATLANTA, GA, 30317","Match","Exact","323 GREENHAVEN DR SE, ATLANTA, GA, 30317",642388919,"R"
510545,"323 GREYDENE AVENUE","CANON CITY","CO",81212,38.451117434,-105.210893151,45,"323 GREYDENE AVENUE, CANON CITY, CO, 81212","Match","Exact","323 GREYDENE AVE, CANON CITY, CO, 81212",108288298,"L"
510546,"323 HADDONSTONE DRIVE","APPLETON","WI",54913,44.304885461,-88.401157542,46,"323 HADDONSTONE DRIVE, APPLETON, WI, 54913","Match","Exact","323 HADDONSTONE DR, APPLETON, WI, 54913",74897933,"R"
510547,"323 HAINES RD","BEDFORD HILLS","NY",10507,41.2413580240001,-73.7225198089999,47,"323 HAINES RD, BEDFORD HILLS, NY, 10507","Match","Exact","323 HAINES RD, BEDFORD HILLS, NY, 10507",139769509,"L"
510548,"323 HALSTEAD AVENUE","HARRISON","NY",10528,NA,NA,48,"323 HALSTEAD AVENUE, HARRISON, NY, 10528","No_Match",NA,NA,NA,NA
510549,"323 HAMAKER ROAD","MANHEIM","PA",17545,40.1735884340001,-76.39540419,49,"323 HAMAKER ROAD, MANHEIM, PA, 17545","Match","Exact","323 HAMAKER RD, MANHEIM, PA, 17545",179654407,"L"
510550,"323 HARBOR DRIVE SOUTH","INDIAN ROCKS BEACH","FL",33785,27.907320944,-82.842206918,50,"323 HARBOR DRIVE SOUTH, INDIAN ROCKS BEACH, FL, 33785","Match","Exact","323 HARBOR DR S, INDIAN ROCKS BEACH, FL, 33785",124663156,"R"
510551,"323 HARRISON AVENUE","GOODLAND","KS",67735,39.356311325,-101.700894113,51,"323 HARRISON AVENUE, GOODLAND, KS, 67735","Match","Exact","323 HARRISON AVE, GOODLAND, KS, 67735",146658042,"R"
510552,"323 HELEN STREET","GRETNA","LA",70056,29.913626493,-90.036924707,52,"323 HELEN STREET, GRETNA, LA, 70056","Match","Exact","323 HELEN ST, GRETNA, LA, 70056",93507872,"L"
510553,"323 HICKORY KNOLL RD","HOMEWOOD","AL",35226,33.4441244550001,-86.8159192159999,53,"323 HICKORY KNOLL RD, HOMEWOOD, AL, 35226","Match","Non_Exact","323 HICKORY KNOLL RD, HOOVER, AL, 35226",653029294,"L"
510554,"323 HICKSVILLE RD APT 15","BETHPAGE","NY",11714,40.732511974,-73.492673281,54,"323 HICKSVILLE RD APT 15, BETHPAGE, NY, 11714","Match","Exact","323 HICKSVILLE RD, BETHPAGE, NY, 11714",147834199,"L"
510555,"323 HIGH STREET","WALPOLE","MA",2081,42.1685797900001,-71.2632552699999,55,"323 HIGH STREET, WALPOLE, MA, 2081","Match","Exact","323 HIGH ST, WALPOLE, MA, 02081",635748756,"R"
510556,"323 HILLCREST ST","ELLSWORTH","WI",54011,44.726794678,-92.482540826,56,"323 HILLCREST ST, ELLSWORTH, WI, 54011","Match","Non_Exact","323 W HILLCREST ST, ELLSWORTH, WI, 54011",95868304,"R"
510557,"323 HILLTOP AVENUE","OWATONNA","MN",55060,44.081220161,-93.2401497229999,57,"323 HILLTOP AVENUE, OWATONNA, MN, 55060","Match","Non_Exact","323 HILLTOP AVE SW, OWATONNA, MN, 55060",38175007,"R"
510558,"323 HILLVIEW DRIVE","WOOD RIVER","IL",62095,38.8796661050001,-90.091540475,58,"323 HILLVIEW DRIVE, WOOD RIVER, IL, 62095","Match","Exact","323 HILLVIEW DR, WOOD RIVER, IL, 62095",107710460,"R"
510559,"323 HOFFMAN AVENUE","NEW MILFORD","NJ",7646,40.9275776000001,-74.0208887479999,59,"323 HOFFMAN AVENUE, NEW MILFORD, NJ, 7646","Match","Exact","323 HOFFMAN AVE, NEW MILFORD, NJ, 07646",64387490,"R"
510560,"323 HOLLY DR","BAYTOWN","TX",77520,29.773432428,-95.039559652,60,"323 HOLLY DR, BAYTOWN, TX, 77520","Match","Exact","323 HOLLY DR, BAYTOWN, TX, 77520",96102302,"R"
510561,"323 HOLLYWOOD AVENUE","HO HO KUS","NJ",7423,41.0021796520001,-74.107088043,61,"323 HOLLYWOOD AVENUE, HO HO KUS, NJ, 7423","Match","Exact","323 HOLLYWOOD AVE, HO HO KUS, NJ, 07423",64366656,"L"
510562,"323 HOW AVE","PLAINFILED","NJ",7076,NA,NA,62,"323 HOW AVE, PLAINFILED, NJ, 7076","No_Match",NA,NA,NA,NA
510563,"323 IBERIS DRIVE","ARLINGTON","TX",76018,32.6640627510001,-97.1087060569999,63,"323 IBERIS DRIVE, ARLINGTON, TX, 76018","Match","Exact","323 IBERIS DR, ARLINGTON, TX, 76018",101921270,"R"
510564,"323 INDEPENDENCE STREET","SPRINGFIELD","TN",37172,36.488896319,-86.722842653,64,"323 INDEPENDENCE STREET, SPRINGFIELD, TN, 37172","Match","Exact","323 INDEPENDENCE ST, SPRINGFIELD, TN, 37172",97445285,"L"
510565,"323 INDIAN CREEK ROAD","MECHANICSBURG","PA",17050,40.2499304630001,-76.966948804,65,"323 INDIAN CREEK ROAD, MECHANICSBURG, PA, 17050","Match","Non_Exact","323 INDIAN CREEK DR, MECHANICSBURG, PA, 17050",60988091,"L"
510566,"323 INDIAN HILLS DRIVE","BOWLING GREEN","KY",42103,36.9938566100001,-86.4040250899999,66,"323 INDIAN HILLS DRIVE, BOWLING GREEN, KY, 42103","Match","Exact","323 INDIAN HILLS DR, BOWLING GREEN, KY, 42103",28007683,"L"
510567,"323 INSPIRATION LANE","GAITHERSBURG","MD",20878,39.1204493870001,-77.2372076249999,67,"323 INSPIRATION LANE, GAITHERSBURG, MD, 20878","Match","Exact","323 INSPIRATION LN, GAITHERSBURG, MD, 20878",62103510,"R"
510568,"323 IRIS STREET","PIEDMONT","MO",63957,37.158157418,-90.695514528,68,"323 IRIS STREET, PIEDMONT, MO, 63957","Match","Exact","323 IRIS ST, PIEDMONT, MO, 63957",35436072,"L"
510569,"323 ISSAAC DRIVE","GOODLETSVILLE","TN",37072,36.341385342,-86.725782656,69,"323 ISSAAC DRIVE, GOODLETSVILLE, TN, 37072","Match","Non_Exact","323 ISAAC DR, GOODLETTSVILLE, TN, 37072",97223072,"L"
510570,"323 JACKSON STREET","HARLINGEN","TX",78550,NA,NA,70,"323 JACKSON STREET, HARLINGEN, TX, 78550","No_Match",NA,NA,NA,NA
510571,"323 JEFFERSON STREET","BURLINGTON","IA",52601,40.81001488,-91.103014165,71,"323 JEFFERSON STREET, BURLINGTON, IA, 52601","Match","Exact","323 JEFFERSON ST, BURLINGTON, IA, 52601",5542055,"L"
510572,"323 JORDAN THICKET","PLYMOUTH","NC",27962,NA,NA,72,"323 JORDAN THICKET, PLYMOUTH, NC, 27962","No_Match",NA,NA,NA,NA
510573,"323 KENTWOOD DRIVE","MURPHY","TX",75094,33.001706389,-96.606310214,73,"323 KENTWOOD DRIVE, MURPHY, TX, 75094","Match","Exact","323 KENTWOOD DR, MURPHY, TX, 75094",210509571,"L"
510574,"323 KILKERRAN LANE","PELHAM","AL",35124,33.2646304730001,-86.749273441,74,"323 KILKERRAN LANE, PELHAM, AL, 35124","Match","Exact","323 KILKERRAN LN, PELHAM, AL, 35124",651991416,"L"
510575,"323 KINGSTON RD","JACKSONVILLE","NC",28546,34.8173465090001,-77.408255835,75,"323 KINGSTON RD, JACKSONVILLE, NC, 28546","Match","Exact","323 KINGSTON RD, JACKSONVILLE, NC, 28546",636147007,"L"
510576,"323 KOONTZTOWN RD","HEDGESVILLE","WV",25427,39.5711545680001,-77.938319501,76,"323 KOONTZTOWN RD, HEDGESVILLE, WV, 25427","Match","Exact","323 KOONTZTOWN RD, HEDGESVILLE, WV, 25427",123382174,"L"
510577,"323 LAKESIDE CROSSING","MOUNT JOY","PA",17552,40.110561626,-76.52901587,77,"323 LAKESIDE CROSSING, MOUNT JOY, PA, 17552","Match","Exact","323 LAKESIDE CROSSING, MOUNT JOY, PA, 17552",625190994,"R"
510578,"323 LAKEWOOD ROAD","NEPTUNE","NJ",7753,40.193538581,-74.0506196539999,78,"323 LAKEWOOD ROAD, NEPTUNE, NJ, 7753","Match","Exact","323 LAKEWOOD RD, NEPTUNE, NJ, 07753",90457896,"R"
510579,"323 LATE HARVEST DR","WRIGHT CITY","MO",63390,38.8129372720001,-91.060475772,79,"323 LATE HARVEST DR, WRIGHT CITY, MO, 63390","Match","Exact","323 LATE HARVEST DR, WRIGHT CITY, MO, 63390",625563221,"R"
510580,"323 LAUREL ROAD","SHARON HILL","PA",19079,39.9127966550001,-75.262244451,80,"323 LAUREL ROAD, SHARON HILL, PA, 19079","Match","Exact","323 LAUREL RD, SHARON HILL, PA, 19079",134899147,"L"
510581,"323 LEEWARD LANE  202","FORT PIERCE","FL",34949,27.4640158890001,-80.3015551999999,81,"323 LEEWARD LANE  202, FORT PIERCE, FL, 34949","Match","Exact","323 LEEWARD LN, FORT PIERCE, FL, 34949",638806984,"R"
510582,"323 LENAPE DRIVE","BERWYN","PA",19312,40.035852241,-75.4551687109999,82,"323 LENAPE DRIVE, BERWYN, PA, 19312","Match","Exact","323 LENAPE DR, BERWYN, PA, 19312",179499956,"L"
510583,"323 LENNOX AVE","TOWSON","MD",21286,39.3991716470001,-76.5984907449999,83,"323 LENNOX AVE, TOWSON, MD, 21286","Match","Exact","323 LENNOX AVE, TOWSON, MD, 21286",191504685,"L"
510584,"323 LIBERTY LANE","NEW BERLIN","IL",62670,39.7293545210001,-89.904771958,84,"323 LIBERTY LANE, NEW BERLIN, IL, 62670","Match","Exact","323 LIBERTY LN, NEW BERLIN, IL, 62670",97351808,"R"
510585,"323 LILAC LANE","DOVER","NH",3820,43.178314797,-70.9013127599999,85,"323 LILAC LANE, DOVER, NH, 3820","Match","Exact","323 LILAC LN, DOVER, NH, 03820",625057654,"R"
510586,"323 LILLIAN  ST","DALLAS","TX",75211,32.747242192,-96.875503973,86,"323 LILLIAN  ST, DALLAS, TX, 75211","Match","Exact","323 LILLIAN ST, DALLAS, TX, 75211",102940082,"L"
510587,"323 LINCOLN DR","MINERAL WELLS","WV",26150,39.1858032530001,-81.503884391,87,"323 LINCOLN DR, MINERAL WELLS, WV, 26150","Match","Exact","323 LINCOLN DR, MINERAL WELLS, WV, 26150",90874154,"L"
510588,"323 LINCOLN STREET","LAWRENCEBURG","KY",40342,38.035330855,-84.887860916,88,"323 LINCOLN STREET, LAWRENCEBURG, KY, 40342","Match","Exact","323 LINCOLN ST, LAWRENCEBURG, KY, 40342",43453135,"L"
510589,"323 LINDSAY ST","CHAPEL HILL","NC",27516,35.9144785720001,-79.0601501639999,89,"323 LINDSAY ST, CHAPEL HILL, NC, 27516","Match","Exact","323 LINDSAY ST, CHAPEL HILL, NC, 27516",72378842,"R"
510590,"323 LINDSEY AVE","CHESAPEAKE CITY","MD",21915,39.5276014770001,-75.8163796219999,90,"323 LINDSEY AVE, CHESAPEAKE CITY, MD, 21915","Match","Exact","323 LINDSEY AVE, CHESAPEAKE CITY, MD, 21915",207855802,"R"
510591,"323 LITTLE JOHN DR","BATON ROUGE","LA",70815,30.456683949,-91.051302003,91,"323 LITTLE JOHN DR, BATON ROUGE, LA, 70815","Match","Exact","323 LITTLE JOHN DR, BATON ROUGE, LA, 70815",92191608,"L"
510592,"323 LIVINGSTON STREET","WESTFIELD","NJ",7079,NA,NA,92,"323 LIVINGSTON STREET, WESTFIELD, NJ, 7079","No_Match",NA,NA,NA,NA
510593,"323 LONDONDERY DRIVE","SARASOTA","FL",34240,27.344186961,-82.408826544,93,"323 LONDONDERY DRIVE, SARASOTA, FL, 34240","Match","Non_Exact","323 LONDONDERRY DR, SARASOTA, FL, 34240",16405731,"R"
510594,"323 LOS PRADOS DR","SAFETY HARBOR","FL",34695,27.9930947280001,-82.70813673,94,"323 LOS PRADOS DR, SAFETY HARBOR, FL, 34695","Match","Exact","323 LOS PRADOS DR, SAFETY HARBOR, FL, 34695",124811959,"L"
510595,"323 LYONS LAKE ROAD APT 1","NASSAU","NY",12123,42.5355698290001,-73.5752290149999,95,"323 LYONS LAKE ROAD APT 1, NASSAU, NY, 12123","Match","Exact","323 LYONS LAKE RD, NASSAU, NY, 12123",35725485,"L"
510596,"323 MADISON STREET","PICKENS","MS",39146,32.881758113,-89.967411026,96,"323 MADISON STREET, PICKENS, MS, 39146","Match","Exact","323 MADISON ST, PICKENS, MS, 39146",7602172,"R"
510597,"323 MAIN STREET APARTMENT A","EVANSVILLE","IN",47708,37.9711688450001,-87.571887158,97,"323 MAIN STREET APARTMENT A, EVANSVILLE, IN, 47708","Match","Exact","323 MAIN ST, EVANSVILLE, IN, 47708",39782541,"R"
510598,"323 MAIN STREET","KEYPORT","NJ",7735,40.427956802,-74.1987845739999,98,"323 MAIN STREET, KEYPORT, NJ, 7735","Match","Exact","323 MAIN ST, KEYPORT, NJ, 07735",90474135,"L"
510599,"323 MAIN STREET","RINDGE","NH",3461,42.74052361,-72.0077408129999,99,"323 MAIN STREET, RINDGE, NH, 3461","Match","Exact","323 MAIN ST, RINDGE, NH, 03461",646842659,"R"
510600,"323 MAJORS ST","SANTA CRUZ","CA",95060,36.9758874710001,-122.046251338,100,"323 MAJORS ST, SANTA CRUZ, CA, 95060","Match","Exact","323 MAJORS ST, SANTA CRUZ, CA, 95060",125525932,"L"
510601,"323 MAPLE STREET","ATHENS","TN",37303,35.4481303520001,-84.613865818,101,"323 MAPLE STREET, ATHENS, TN, 37303","Match","Exact","323 MAPLE ST, ATHENS, TN, 37303",88534429,"R"
510602,"323 MARION ANDERSON M13","HOT SPRINGS","AR",71913,34.4599287120001,-93.1392717109999,102,"323 MARION ANDERSON M13, HOT SPRINGS, AR, 71913","Match","Non_Exact","323 MARION ANDERSON RD, HOT SPRINGS, AR, 71913",22770326,"R"
510603,"323 MARK AVE","MARIETTA","GA",30066,33.997803192,-84.542186331,103,"323 MARK AVE, MARIETTA, GA, 30066","Match","Exact","323 MARK AVE, MARIETTA, GA, 30066",17168184,"L"
510604,"323 MARTIN LUTHER KING BLVD","NEWARK","NJ",7102,40.7433412550001,-74.175928695,104,"323 MARTIN LUTHER KING BLVD, NEWARK, NJ, 7102","Match","Exact","323 DR MARTIN LUTHER KING JR BLVD, NEWARK, NJ, 07102",63467028,"R"
510605,"323 MCDANIEL AVENUE","WILMINGTON","DE",19803,39.7979469900001,-75.54171102,105,"323 MCDANIEL AVENUE, WILMINGTON, DE, 19803","Match","Exact","323 MCDANIEL AVE, WILMINGTON, DE, 19803",187256213,"L"
510606,"323 MCILVAINE ROAD","BENTLEYVILLE","PA",15314,40.169218777,-80.030276527,106,"323 MCILVAINE ROAD, BENTLEYVILLE, PA, 15314","Match","Exact","323 MCILVAINE RD, BENTLEYVILLE, PA, 15314",52807601,"R"
510607,"323 MELROSE AVENUE","BOARDMAN","OH",44512,41.044626952,-80.649308307,107,"323 MELROSE AVENUE, BOARDMAN, OH, 44512","Match","Exact","323 MELROSE AVE, BOARDMAN, OH, 44512",64598961,"R"
510608,"323 MICHELLE LANE","DALY CITY","CA",94015,37.656588954,-122.462171604,108,"323 MICHELLE LANE, DALY CITY, CA, 94015","Match","Exact","323 MICHELLE LN, DALY CITY, CA, 94015",192371085,"L"
510609,"323 MILBURN DR","SYRACUSE","NY",13207,43.0027712890001,-76.150419904,109,"323 MILBURN DR, SYRACUSE, NY, 13207","Match","Exact","323 MILBURN DR, SYRACUSE, NY, 13207",46577279,"L"
510610,"323 MILLER AVENUE","44240","OH",44240,41.1563735230001,-81.349175083,110,"323 MILLER AVENUE, 44240, OH, 44240","Match","Non_Exact","323 MILLER AVE, KENT, OH, 44240",137516217,"R"
510611,"323 MIMOSA DRIVE","DECATUR","GA",30030,33.759232136,-84.289542474,111,"323 MIMOSA DRIVE, DECATUR, GA, 30030","Match","Exact","323 MIMOSA DR, DECATUR, GA, 30030",23367499,"R"
510612,"323 MINTER DR","WARNER ROBINS","GA",31088,32.56065704,-83.667096126,112,"323 MINTER DR, WARNER ROBINS, GA, 31088","Match","Exact","323 MINTER DR, WARNER ROBINS, GA, 31088",634017824,"L"
510613,"323 MONTECELLO DRIVE","BRANFORD","NY",6405,NA,NA,113,"323 MONTECELLO DRIVE, BRANFORD, NY, 6405","No_Match",NA,NA,NA,NA
510614,"323 MORRILL ST","GILFORD","NH",3249,43.541374999,-71.4406155899999,114,"323 MORRILL ST, GILFORD, NH, 3249","Match","Exact","323 MORRILL ST, GILFORD, NH, 03249",145502591,"R"
510615,"323 MOUNTAINVIEW ROAD","MORGANTOWN","WV",26508,39.5413323490001,-79.8833242219999,115,"323 MOUNTAINVIEW ROAD, MORGANTOWN, WV, 26508","Match","Exact","323 MOUNTAINVIEW RD, MORGANTOWN, WV, 26508",648442046,"R"
510616,"323 N 26TH ST","CAMP HILL","PA",17011,40.246144793,-76.927858268,116,"323 N 26TH ST, CAMP HILL, PA, 17011","Match","Exact","323 N 26TH ST, CAMP HILL, PA, 17011",647885130,"R"
510617,"323 N 5TH AVE","SEQUIM","WA",98382,48.0817309130001,-123.113136573,117,"323 N 5TH AVE, SEQUIM, WA, 98382","Match","Exact","323 N 5TH AVE, SEQUIM, WA, 98382",150852372,"L"
510618,"323 N 6TH ST","NEDERLAND","TX",77627,29.98216869,-93.985630408,118,"323 N 6TH ST, NEDERLAND, TX, 77627","Match","Exact","323 6TH ST, NEDERLAND, TX, 77627",73860077,"L"
510619,"323 N 8TH STREET","ST JOSEPH","MO",64501,39.7684360600001,-94.850720461,119,"323 N 8TH STREET, ST JOSEPH, MO, 64501","Match","Exact","323 N 8TH ST, SAINT JOSEPH, MO, 64501",15952277,"R"
510620,"323 N ANN ARBOR ST","SALINE","MI",48176,42.169396191,-83.7831939129999,120,"323 N ANN ARBOR ST, SALINE, MI, 48176","Match","Exact","323 N ANN ARBOR ST, SALINE, MI, 48176",26018860,"L"
510621,"323 N AUSTIN","CHICAGO","IL",60644,41.88598597,-87.774835567,121,"323 N AUSTIN, CHICAGO, IL, 60644","Match","Non_Exact","323 N AUSTIN BLVD, CHICAGO, IL, 60644",112226263,"R"
510622,"323 N BLUE LAKE TERRACE","DELAND","FL",32724,29.0330624260001,-81.2727312439999,122,"323 N BLUE LAKE TERRACE, DELAND, FL, 32724","Match","Exact","323 N BLUE LAKE TER, DELAND, FL, 32724",94510456,"R"
510623,"323 N BROOKSIDE AVE","FREEPORT","NY",11520,40.666777906,-73.6012948429999,123,"323 N BROOKSIDE AVE, FREEPORT, NY, 11520","Match","Exact","323 N BROOKSIDE AVE, FREEPORT, NY, 11520",147630040,"L"
510624,"323 N CENTRAL AVE","VALLEY CITY","ND",58072,NA,NA,124,"323 N CENTRAL AVE, VALLEY CITY, ND, 58072","Tie",NA,NA,NA,NA
510625,"323 N CORRY STREET","QUINCY","FL",32351,NA,NA,125,"323 N CORRY STREET, QUINCY, FL, 32351","Tie",NA,NA,NA,NA
510626,"323 N FIR STREET UNIT B","JENKS","OK",74037,36.024351816,-95.9789486,126,"323 N FIR STREET UNIT B, JENKS, OK, 74037","Match","Non_Exact","323 N FIR ST, JENKS, OK, 74037",166471701,"R"
510627,"323 N FIR STREET","JENKS","OK",74037,36.024351816,-95.9789486,127,"323 N FIR STREET, JENKS, OK, 74037","Match","Exact","323 N FIR ST, JENKS, OK, 74037",166471701,"R"
510628,"323 N GILBERT ST","DANVILLE","IL",61832,40.1292647270001,-87.63557707,128,"323 N GILBERT ST, DANVILLE, IL, 61832","Match","Exact","323 N GILBERT ST, DANVILLE, IL, 61832",617332114,"R"
510629,"323 N GILBERT","CLEVELAND","OK",74020,36.3117159780001,-96.476485667,129,"323 N GILBERT, CLEVELAND, OK, 74020","Match","Non_Exact","323 N GILBERT AVE, CLEVELAND, OK, 74020",166320845,"R"
510630,"323 N HIGHWAY 101","SOLANA BEACH","CA",92075,32.9882800300001,-117.270848211,130,"323 N HIGHWAY 101, SOLANA BEACH, CA, 92075","Match","Non_Exact","323 HWY 101, SOLANA BEACH, CA, 92075",195704064,"R"
510631,"323 N LOCUST ST","APPLETON","WI",54914,44.264263892,-88.4174566309999,131,"323 N LOCUST ST, APPLETON, WI, 54914","Match","Exact","323 N LOCUST ST, APPLETON, WI, 54914",74920227,"L"
510632,"323 N LOUISIANA PL","KENNEWICK","WA",99336,46.2133163030001,-119.23473445,132,"323 N LOUISIANA PL, KENNEWICK, WA, 99336","Match","Exact","323 N LOUISIANA PL, KENNEWICK, WA, 99336",174989575,"R"
510633,"323 N MAIN ST","PONTOTOC","MS",38863,34.2658657000001,-89.00054461,133,"323 N MAIN ST, PONTOTOC, MS, 38863","Match","Exact","323 N MAIN ST, PONTOTOC, MS, 38863",77007184,"L"
510634,"323 N MAIN STREET","TENNYSON","IN",47637,38.084184201,-87.11815354,134,"323 N MAIN STREET, TENNYSON, IN, 47637","Match","Exact","323 N MAIN ST, TENNYSON, IN, 47637",32221101,"L"
510635,"323 N MAIN","MARBLE ROCK","IA",50653,NA,NA,135,"323 N MAIN, MARBLE ROCK, IA, 50653","No_Match",NA,NA,NA,NA
510636,"323 N PARK ST","GIFFORD","IL",61847,40.3052924880001,-88.019611416,136,"323 N PARK ST, GIFFORD, IL, 61847","Match","Exact","323 N PARK ST, GIFFORD, IL, 61847",8807739,"L"
510637,"323 N PARKSIDE AVE","CHICAGO","IL",60644,41.8859820530001,-87.7667092679999,137,"323 N PARKSIDE AVE, CHICAGO, IL, 60644","Match","Exact","323 N PARKSIDE AVE, CHICAGO, IL, 60644",616787136,"R"
510638,"323 N WEST 1ST ST","WINK","TX",79789,NA,NA,138,"323 N WEST 1ST ST, WINK, TX, 79789","Tie",NA,NA,NA,NA
510639,"323 NEW BOSTON STREET - SUITE 2","WOBURN","MA",1801,42.5245547330001,-71.148126936,139,"323 NEW BOSTON STREET - SUITE 2, WOBURN, MA, 1801","Match","Non_Exact","323 NEW BOSTON ST, WOBURN, MA, 01801",87082365,"R"
510640,"323 NORTH 19TH STREET","PHILADELPHIA","PA",19103,39.9601485250001,-75.1700884219999,140,"323 NORTH 19TH STREET, PHILADELPHIA, PA, 19103","Match","Exact","323 N 19TH ST, PHILADELPHIA, PA, 19103",652464581,"R"
510641,"323 NORTH BROAD","GUTHRIE","OK",73044,35.8807291320001,-97.4227993439999,141,"323 NORTH BROAD, GUTHRIE, OK, 73044","Match","Non_Exact","323 N BROAD ST, GUTHRIE, OK, 73044",606633287,"L"
510642,"323 NORTH BROADWAY","LEXINGTON","KY",40508,38.0522743650001,-84.495154809,142,"323 NORTH BROADWAY, LEXINGTON, KY, 40508","Match","Non_Exact","323 N BROADWAY RD, LEXINGTON, KY, 40508",638595692,"L"
510643,"323 NORTH BROADWAY","NYACK","NY",10960,41.1004590470001,-73.91715634,143,"323 NORTH BROADWAY, NYACK, NY, 10960","Match","Non_Exact","323 N BROADWAY AVE, NYACK, NY, 10960",124600591,"R"
510644,"323 NORTH DUKE STREET","MILLERSVILLE","PA",17551,40.0015647870001,-76.366106835,144,"323 NORTH DUKE STREET, MILLERSVILLE, PA, 17551","Match","Exact","323 N DUKE ST, MILLERSVILLE, PA, 17551",647524615,"L"
510645,"323 NORTH MARKET","SHAWNEE","OK",74801,35.330354298,-96.926101081,145,"323 NORTH MARKET, SHAWNEE, OK, 74801","Match","Non_Exact","323 N MARKET AVE, SHAWNEE, OK, 74801",100579278,"R"
510646,"323 NORTH MAX","HINTON","OK",73047,35.473630681,-98.360525067,146,"323 NORTH MAX, HINTON, OK, 73047","Match","Non_Exact","323 N MAX ST, HINTON, OK, 73047",92451239,"R"
510647,"323 NORTH RIVER STREET","GUILFORD","CT",6437,41.289584098,-72.688580869,147,"323 NORTH RIVER STREET, GUILFORD, CT, 6437","Match","Exact","323 N RIVER ST, GUILFORD, CT, 06437",3708853,"R"
510648,"323 NORTH ROAD","YORK","PA",17403,39.8651981190001,-76.6956875,148,"323 NORTH ROAD, YORK, PA, 17403","Match","Exact","323 NORTH RD, YORK, PA, 17403",611416150,"R"
510649,"323 NORTH VAN BUREN","STOUGHTON","WI",53589,42.920699131,-89.230680773,149,"323 NORTH VAN BUREN, STOUGHTON, WI, 53589","Match","Non_Exact","323 N VAN BUREN ST, STOUGHTON, WI, 53589",49481448,"L"
510650,"323 NORTH WILLIAM STREET","MARINE CITY","MI",48039,NA,NA,150,"323 NORTH WILLIAM STREET, MARINE CITY, MI, 48039","No_Match",NA,NA,NA,NA
510651,"323 NORTHERN HEIGHTS DRIVE","SEWARD","NE",68434,40.921100155,-97.0958252569999,151,"323 NORTHERN HEIGHTS DRIVE, SEWARD, NE, 68434","Match","Exact","323 NORTHERN HEIGHTS DR, SEWARD, NE, 68434",39456447,"R"
510652,"323 NW 2ND AVENUE","DELRAY BEACH","FL",33444,26.4673502850001,-80.075241268,152,"323 NW 2ND AVENUE, DELRAY BEACH, FL, 33444","Match","Exact","323 NW 2ND AVE, DELRAY BEACH, FL, 33444",115298043,"R"
510653,"323 NW 2ND STREET","RESERVE","LA",70084,30.0621100810001,-90.554725215,153,"323 NW 2ND STREET, RESERVE, LA, 70084","Match","Exact","323 NW 2ND ST, RESERVE, LA, 70084",93687645,"L"
510654,"323 OAK GROVE DR","GRENADA","MS",38901,33.7549883720001,-89.794614241,154,"323 OAK GROVE DR, GRENADA, MS, 38901","Match","Exact","323 OAK GROVE DR, GRENADA, MS, 38901",7555863,"L"
510655,"323 OAKHILL DR","WALLINGFORD","KY",41093,NA,NA,155,"323 OAKHILL DR, WALLINGFORD, KY, 41093","No_Match",NA,NA,NA,NA
510656,"323 OAKVIEW TER DR","ALEDO","IL",61231,41.1898563680001,-90.7535761729999,156,"323 OAKVIEW TER DR, ALEDO, IL, 61231","Match","Exact","323 OAKVIEW TERRACE DR, ALEDO, IL, 61231",5467984,"R"
510657,"323 OBISPO AVENUE UNIT 105","LONG BEACH","CA",90814,33.770374991,-118.154591262,157,"323 OBISPO AVENUE UNIT 105, LONG BEACH, CA, 90814","Match","Exact","323 OBISPO AVE, LONG BEACH, CA, 90814",141701732,"L"
510658,"323 OLD INDIAN HEAD RD","KINGS PARK","NY",11754,40.8726963290001,-73.2548691229999,158,"323 OLD INDIAN HEAD RD, KINGS PARK, NY, 11754","Match","Non_Exact","323 OLD INDIANHEAD RD, KINGS PARK, NY, 11754",114236155,"R"
510659,"323 OLD KINGSTON ROAD","NEW PALTZ","NY",12561,41.779060669,-74.075475066,159,"323 OLD KINGSTON ROAD, NEW PALTZ, NY, 12561","Match","Exact","323 OLD KINGSTON RD, NEW PALTZ, NY, 12561",41871534,"L"
510660,"323 ORCHARD STREET","GREENWICH","CT",6830,41.0507980150001,-73.605837647,160,"323 ORCHARD STREET, GREENWICH, CT, 6830","Match","Exact","323 ORCHARD ST, GREENWICH, CT, 06830",3243447,"R"
510661,"323 ORLANDO AVE","GLOUCESTER","NJ",8030,39.888589806,-75.1069800559999,161,"323 ORLANDO AVE, GLOUCESTER, NJ, 8030","Match","Non_Exact","323 ORLANDO AVE, GLOUCESTER CY, NJ, 08030",134348717,"R"
510662,"323 PALISADE AVENUE - APT C2","CLIFFSIDE PARK","NJ",7100,NA,NA,162,"323 PALISADE AVENUE - APT C2, CLIFFSIDE PARK, NJ, 7100","No_Match",NA,NA,NA,NA
510663,"323 PALM DR","OVIEDO","FL",32765,NA,NA,163,"323 PALM DR, OVIEDO, FL, 32765","No_Match",NA,NA,NA,NA
510664,"323 PALM HARBOR DRIVE","ORANGEBURG","SC",29115,33.476401348,-80.9046432709999,164,"323 PALM HARBOR DRIVE, ORANGEBURG, SC, 29115","Match","Exact","323 PALM HARBOR DR, ORANGEBURG, SC, 29115",19236332,"R"
510665,"323 PANORA WAY","UPPER MARLBORO","MD",20774,38.8917972450001,-76.7644866969999,165,"323 PANORA WAY, UPPER MARLBORO, MD, 20774","Match","Exact","323 PANORA WAY, UPPER MARLBORO, MD, 20774",633421746,"L"
510666,"323 PARK AVE UNIT H1","BASALT","CO",81621,39.373898184,-107.078571666,166,"323 PARK AVE UNIT H1, BASALT, CO, 81621","Match","Exact","323 PARK AVE, BASALT, CO, 81621",636171500,"L"
510667,"323 PATRICIA LANE","EAGLE POINT","OR",97524,42.4652680460001,-122.790164938,167,"323 PATRICIA LANE, EAGLE POINT, OR, 97524","Match","Exact","323 PATRICIA LN, EAGLE POINT, OR, 97524",155597435,"L"
510668,"323 PEASE HILL ROAD","WHITNEY POINT","NY",13862,42.3084662570001,-75.955623245,168,"323 PEASE HILL ROAD, WHITNEY POINT, NY, 13862","Match","Exact","323 PEASE HILL RD, WHITNEY POINT, NY, 13862",640450247,"L"
510669,"323 PEMBERTON DR","ELYRIA","OH",44035,41.340503728,-82.076559649,169,"323 PEMBERTON DR, ELYRIA, OH, 44035","Match","Exact","323 PEMBERTON DR, ELYRIA, OH, 44035",636704601,"R"
510670,"323 PENINSULA POINT","CANTON","GA",30115,34.1818340450001,-84.453742972,170,"323 PENINSULA POINT, CANTON, GA, 30115","Match","Exact","323 PENINSULA PT, CANTON, GA, 30115",617657394,"L"
510671,"323 PENNINGTON ST APT 2","ELIZABETH","NJ",7202,40.6639346490001,-74.226970485,171,"323 PENNINGTON ST APT 2, ELIZABETH, NJ, 7202","Match","Exact","323 PENNINGTON ST, ELIZABETH, NJ, 07202",60578358,"R"
510672,"323 PINE GROVE ROAD","MAGEE","MS",39111,31.8817652650001,-89.659208248,172,"323 PINE GROVE ROAD, MAGEE, MS, 39111","Match","Exact","323 PINE GROVE RD, MAGEE, MS, 39111",538474,"L"
510673,"323 PINE STREET","GREER","SC",29650,34.9455132300001,-82.230496638,173,"323 PINE STREET, GREER, SC, 29650","Match","Exact","323 PINE ST, GREER, SC, 29650",38308527,"L"
510674,"323 PINEHURST DR SE","TUMWATER","WA",98501,46.9958199540001,-122.903736061,174,"323 PINEHURST DR SE, TUMWATER, WA, 98501","Match","Exact","323 PINEHURST DR SE, TUMWATER, WA, 98501",180945672,"R"
510675,"323 PINHOOK RD","ROGERSVILLE","TN",37857,36.4035501910001,-82.984222882,175,"323 PINHOOK RD, ROGERSVILLE, TN, 37857","Match","Exact","323 PINHOOK RD, ROGERSVILLE, TN, 37857",42399582,"L"
510676,"323 PLAZA STREET NE","LEESBURG","VA",20176,NA,NA,176,"323 PLAZA STREET NE, LEESBURG, VA, 20176","No_Match",NA,NA,NA,NA
510677,"323 PLUMWOOD CIR","KISSIMMEE","FL",34743,28.341926277,-81.376114458,177,"323 PLUMWOOD CIR, KISSIMMEE, FL, 34743","Match","Exact","323 PLUMWOOD CIR, KISSIMMEE, FL, 34743",612303166,"L"
510678,"323 PLYLEYS LANE","CHILLICOTHE","OH",45601,39.3245159860001,-83.0150173709999,178,"323 PLYLEYS LANE, CHILLICOTHE, OH, 45601","Match","Exact","323 PLYLEYS LN, CHILLICOTHE, OH, 45601",635650635,"R"
510679,"323 PORTIA ST","SOUTH AMBOY","NJ",8879,40.475138615,-74.280810905,179,"323 PORTIA ST, SOUTH AMBOY, NJ, 8879","Match","Exact","323 PORTIA ST, SOUTH AMBOY, NJ, 08879",60318165,"L"
510680,"323 PRECIPICE WAY","GEORGETOWN","TX",78626,30.6045880400001,-97.651819259,180,"323 PRECIPICE WAY, GEORGETOWN, TX, 78626","Match","Exact","323 PRECIPICE WAY, GEORGETOWN, TX, 78626",126533330,"L"
510681,"323 PRESTON STREET","PHILADELPHIA","PA",19104,NA,NA,181,"323 PRESTON STREET, PHILADELPHIA, PA, 19104","Tie",NA,NA,NA,NA
510682,"323 PROSPECT AVE","OWATONNA","MN",55060,NA,NA,182,"323 PROSPECT AVE, OWATONNA, MN, 55060","No_Match",NA,NA,NA,NA
510683,"323 PROSPECT PL","BROOKLYN","NY",11238,40.677002949,-73.9656552549999,183,"323 PROSPECT PL, BROOKLYN, NY, 11238","Match","Exact","323 PROSPECT PL, BROOKLYN, NY, 11238",59078412,"L"
510684,"323 PROSPECT PLACE","BROOKLYN","NY",11238,40.677002949,-73.9656552549999,184,"323 PROSPECT PLACE, BROOKLYN, NY, 11238","Match","Exact","323 PROSPECT PL, BROOKLYN, NY, 11238",59078412,"L"
510685,"323 PUTNAM AVENUE SUITE 1","BROOKLYN","NY",11216,40.6841781680001,-73.948829686,185,"323 PUTNAM AVENUE SUITE 1, BROOKLYN, NY, 11216","Match","Exact","323 PUTNAM AVE, BROOKLYN, NY, 11216",59078918,"L"
510686,"323 RAINBOW ROAD","ADVANCE","NC",27006,35.9870369230001,-80.49381799,186,"323 RAINBOW ROAD, ADVANCE, NC, 27006","Match","Exact","323 RAINBOW RD, ADVANCE, NC, 27006",640641273,"L"
510687,"323 REID STREET","HOUSTON","TX",77022,29.814708781,-95.367523348,187,"323 REID STREET, HOUSTON, TX, 77022","Match","Exact","323 REID ST, HOUSTON, TX, 77022",96565665,"L"
510688,"323 RENA BELLE ST NW","EYOTA","MN",55934,43.994682041,-92.2382989339999,188,"323 RENA BELLE ST NW, EYOTA, MN, 55934","Match","Exact","323 RENA BELLE ST NW, EYOTA, MN, 55934",30555945,"L"
510689,"323 REVERE AVE","UNION","NJ",7083,40.7166235830001,-74.272262255,189,"323 REVERE AVE, UNION, NJ, 7083","Match","Exact","323 REVERE AVE, UNION, NJ, 07083",60571159,"R"
510690,"323 RIDGE LANE","AUTRYVILLE","NC",28318,35.1030798080001,-78.636826599,190,"323 RIDGE LANE, AUTRYVILLE, NC, 28318","Match","Exact","323 RIDGE LN, AUTRYVILLE, NC, 28318",14264227,"R"
510691,"323 RIDGEPOINT CIRCLE SUITE A32","BRIDGEVILLE","PA",15017,40.32599291,-80.1253186009999,191,"323 RIDGEPOINT CIRCLE SUITE A32, BRIDGEVILLE, PA, 15017","Match","Non_Exact","323 RIDGE POINT CIR, BRIDGEVILLE, PA, 15017",51618704,"R"
510692,"323 RIVER STREET","CAMBRIDGE","MA",2139,42.3622153900001,-71.11370622,192,"323 RIVER STREET, CAMBRIDGE, MA, 2139","Match","Exact","323 RIVER ST, CAMBRIDGE, MA, 02139",86869680,"R"
510693,"323 RIVERMONT DRIVE","SPARTANBURG","SC",29302,34.9347620670001,-81.909055797,193,"323 RIVERMONT DRIVE, SPARTANBURG, SC, 29302","Match","Exact","323 RIVERMONT DR, SPARTANBURG, SC, 29302",19471421,"L"
510694,"323 RIVERSIDE DR","WAUCHULA","FL",33873,27.557501012,-81.7966216579999,194,"323 RIVERSIDE DR, WAUCHULA, FL, 33873","Match","Exact","323 RIVERSIDE DR, WAUCHULA, FL, 33873",611119960,"R"
510695,"323 RIVERVIEW DRIVE","NEW KENSINGTON","PA",15068,40.5555709130001,-79.754513262,195,"323 RIVERVIEW DRIVE, NEW KENSINGTON, PA, 15068","Match","Exact","323 RIVERVIEW DR, NEW KENSINGTON, PA, 15068",52960468,"L"
510696,"323 ROCK CREEK ROAD","UNION","MS",39365,32.563353598,-89.056389393,196,"323 ROCK CREEK ROAD, UNION, MS, 39365","Match","Exact","323 ROCK CREEK RD, UNION, MS, 39365",628688413,"L"
510697,"323 ROCKLAND ST","MANCHESTER","NH",3102,42.984729026,-71.495328655,197,"323 ROCKLAND ST, MANCHESTER, NH, 3102","Match","Non_Exact","323 ROCKLAND AVE, MANCHESTER, NH, 03102",113529542,"R"
510698,"323 ROGERS AVE","WEST SPRINGFIELD","MA",1089,42.1140174860001,-72.6630020859999,198,"323 ROGERS AVE, WEST SPRINGFIELD, MA, 1089","Match","Exact","323 ROGERS AVE, W SPRINGFIELD, MA, 01089",4031976,"L"
510699,"323 ROUTE 94","VERNON","NJ",7462,41.1998860910001,-74.481633721,199,"323 ROUTE 94, VERNON, NJ, 7462","Match","Non_Exact","323 STATE RTE 94, VERNON, NJ, 07462",653300648,"R"
510700,"323 ROWLAND AVE","CARNEGIE","PA",15106,40.403779797,-80.0822427379999,200,"323 ROWLAND AVE, CARNEGIE, PA, 15106","Match","Exact","323 ROWLAND AVE, CARNEGIE, PA, 15106",51617177,"L"
510701,"323 ROYAL CREST CIRCLE","KATHLEEN","GA",31047,32.5398371000001,-83.710507783,201,"323 ROYAL CREST CIRCLE, KATHLEEN, GA, 31047","Match","Exact","323 ROYAL CREST CIR, KATHLEEN, GA, 31047",618742478,"L"
510702,"323 RUE CHATEAU","THIBODAUX","LA",70301,29.809578458,-90.84823342,202,"323 RUE CHATEAU, THIBODAUX, LA, 70301","Match","Exact","323 RUE CHATEAU, THIBODAUX, LA, 70301",648294803,"L"
510703,"323 S 14TH STREET","ST CHARLES","IL",60174,41.9089390280001,-88.331333274,203,"323 S 14TH STREET, ST CHARLES, IL, 60174","Match","Exact","323 S 14TH ST, SAINT CHARLES, IL, 60174",119505926,"R"
510704,"323 S 9TH AVE WEST","WASHBURN","WI",54891,46.6728804730001,-90.907981324,204,"323 S 9TH AVE WEST, WASHBURN, WI, 54891","Match","Non_Exact","323 N 9TH AVE W, WASHBURN, WI, 54891",194282253,"L"
510705,"323 S BOYER AVE","SANDPOINT","ID",83864,48.270634167,-116.557022019,205,"323 S BOYER AVE, SANDPOINT, ID, 83864","Match","Exact","323 S BOYER AVE, SANDPOINT, ID, 83864",169476447,"R"
510706,"323 S BRANCIFORTE AVE","SANTA CRUZ","CA",95062,36.9727288300001,-122.013867664,206,"323 S BRANCIFORTE AVE, SANTA CRUZ, CA, 95062","Match","Exact","323 S BRANCIFORTE AVE, SANTA CRUZ, CA, 95062",125506554,"L"
510707,"323 S CONGRESS ST","ABERDEEN","SD",57401,45.461911867,-98.4718368059999,207,"323 S CONGRESS ST, ABERDEEN, SD, 57401","Match","Exact","323 S CONGRESS ST, ABERDEEN, SD, 57401",200795653,"R"
510708,"323 S EAST AVE","OAK PARK","IL",60302,41.882475604,-87.7894377269999,208,"323 S EAST AVE, OAK PARK, IL, 60302","Match","Exact","323 S EAST AVE, OAK PARK, IL, 60302",605117839,"R"
510709,"323 S EAST AVE","OAKPARK","IL",60302,41.882475604,-87.7894377269999,209,"323 S EAST AVE, OAKPARK, IL, 60302","Match","Non_Exact","323 S EAST AVE, OAK PARK, IL, 60302",605117839,"R"
510710,"323 S GEORGE ST","MT PROSPECT","IL",60056,42.0603974910001,-87.924264761,210,"323 S GEORGE ST, MT PROSPECT, IL, 60056","Match","Exact","323 S GEORGE ST, MOUNT PROSPECT, IL, 60056",111720535,"L"
510711,"323 S LINDSAY","GAINESVILLE","TX",76240,NA,NA,211,"323 S LINDSAY, GAINESVILLE, TX, 76240","No_Match",NA,NA,NA,NA
510712,"323 S LOCUST ST","PALMYRA","PA",17078,40.3034438020001,-76.595624973,212,"323 S LOCUST ST, PALMYRA, PA, 17078","Match","Exact","323 S LOCUST ST, PALMYRA, PA, 17078",80671324,"L"
510713,"323 S MAIN ST APT 5F","ABERDEEN","SD",57401,NA,NA,213,"323 S MAIN ST APT 5F, ABERDEEN, SD, 57401","Tie",NA,NA,NA,NA
510714,"323 S PIERSON","NEW RICHMOND","WI",54017,NA,NA,214,"323 S PIERSON, NEW RICHMOND, WI, 54017","No_Match",NA,NA,NA,NA
510715,"323 S QUINCY AVENUE","GALLOWAY","NJ",8205,NA,NA,215,"323 S QUINCY AVENUE, GALLOWAY, NJ, 8205","No_Match",NA,NA,NA,NA
510716,"323 S RIDGE STREET","CAMBRIDGE","IL",61238,41.2972260820001,-90.1910351129999,216,"323 S RIDGE STREET, CAMBRIDGE, IL, 61238","Match","Exact","323 S RIDGE ST, CAMBRIDGE, IL, 61238",612930794,"L"
510717,"323 S SPORTING HILL RD","MECHANICSBURG","PA",17050,40.2302273270001,-76.971325838,217,"323 S SPORTING HILL RD, MECHANICSBURG, PA, 17050","Match","Exact","323 S SPORTING HILL RD, MECHANICSBURG, PA, 17050",606998014,"L"
510718,"323 S WALNUT ST","BATESVILLE","IN",47006,39.2968683340001,-85.225556761,218,"323 S WALNUT ST, BATESVILLE, IN, 47006","Match","Exact","323 S WALNUT ST, BATESVILLE, IN, 47006",31503210,"L"
510719,"323 S WASHINGTON ST","SHELBY","NC",28150,35.2883443310001,-81.5391033879999,219,"323 S WASHINGTON ST, SHELBY, NC, 28150","Match","Exact","323 S WASHINGTON ST, SHELBY, NC, 28150",19318260,"R"
510720,"323 SAINT THOMAS CHURCH RD","CHAPIN","SC",29036,34.104272226,-81.345692314,220,"323 SAINT THOMAS CHURCH RD, CHAPIN, SC, 29036","Match","Exact","323 SAINT THOMAS CHURCH RD, CHAPIN, SC, 29036",70047589,"R"
510721,"323 SANDALWOOD DR","MANDEVILLE","LA",70448,30.383588327,-90.0701319839999,221,"323 SANDALWOOD DR, MANDEVILLE, LA, 70448","Match","Exact","323 SANDALWOOD DR, MANDEVILLE, LA, 70448",611482618,"R"
510722,"323 SANFORD ROAD","UPPER DARBY","PA",19082,39.9556134870001,-75.268957916,222,"323 SANFORD ROAD, UPPER DARBY, PA, 19082","Match","Exact","323 SANFORD RD, UPPER DARBY, PA, 19082",134877683,"R"
510723,"323 SCOTT ST","SAN MARCOS","TX",78666,29.8809920750001,-97.949592923,223,"323 SCOTT ST, SAN MARCOS, TX, 78666","Match","Exact","323 SCOTT ST, SAN MARCOS, TX, 78666",639254949,"L"
510724,"323 SE HIGHLAND PARK DR","LEES SUMMIT","MO",64063,38.914809002,-94.3141107979999,224,"323 SE HIGHLAND PARK DR, LEES SUMMIT, MO, 64063","Match","Exact","323 SE HIGHLAND PARK DR, LEES SUMMIT, MO, 64063",617927998,"L"
510725,"323 SECOND STREET","SHIILLINGTON","PA",19607,40.2998762600001,-75.963121551,225,"323 SECOND STREET, SHIILLINGTON, PA, 19607","Match","Non_Exact","323 2ND ST, SHILLINGTON, PA, 19607",80380987,"L"
510726,"323 SHADOW OAK DRIVE","CASSELBERRY","FL",32707,28.664201936,-81.298398199,226,"323 SHADOW OAK DRIVE, CASSELBERRY, FL, 32707","Match","Exact","323 SHADOW OAK DR, CASSELBERRY, FL, 32707",642153370,"L"
510727,"323 SHADY GROVE RD","KING MTN","NC",28086,35.2548117310001,-81.2873132729999,227,"323 SHADY GROVE RD, KING MTN, NC, 28086","Match","Non_Exact","323 SHADY GROVE RD, KINGS MOUNTAIN, NC, 28086",70453190,"L"
510728,"323 SHADY GROVE RD","KINGS MOUNTAIN","NC",28086,35.2548117310001,-81.2873132729999,228,"323 SHADY GROVE RD, KINGS MOUNTAIN, NC, 28086","Match","Exact","323 SHADY GROVE RD, KINGS MOUNTAIN, NC, 28086",70453190,"L"
510729,"323 SHADY GROVE","KINGS MOUNTAIN","NC",28086,35.2548117310001,-81.2873132729999,229,"323 SHADY GROVE, KINGS MOUNTAIN, NC, 28086","Match","Non_Exact","323 SHADY GROVE RD, KINGS MOUNTAIN, NC, 28086",70453190,"L"
510730,"323 SHAW AVENUE","CLAIRTON","PA",15025,40.2965533400001,-79.881526375,230,"323 SHAW AVENUE, CLAIRTON, PA, 15025","Match","Exact","323 SHAW AVE, CLAIRTON, PA, 15025",51660754,"R"
510731,"323 SHIRLEY AVE","BELLEAIR","FL",33756,27.937158147,-82.801529796,231,"323 SHIRLEY AVE, BELLEAIR, FL, 33756","Match","Exact","323 SHIRLEY AVE, BELLEAIR, FL, 33756",124670924,"R"
510732,"323 SHORE ROAD","BAY POINT","CA",94565,38.0389579970001,-121.969663787,232,"323 SHORE ROAD, BAY POINT, CA, 94565","Match","Exact","323 SHORE RD, BAY POINT, CA, 94565",629640915,"L"
510733,"323 SHORT WEYEL RD","MARION","TX",78124,29.5871841310001,-98.201180344,233,"323 SHORT WEYEL RD, MARION, TX, 78124","Match","Exact","323 SHORT WEYEL RD, MARION, TX, 78124",54851026,"L"
510734,"323 SHORT WEYEL","MARION","TX",78124,29.5871841310001,-98.201180344,234,"323 SHORT WEYEL, MARION, TX, 78124","Match","Non_Exact","323 SHORT WEYEL RD, MARION, TX, 78124",54851026,"L"
510735,"323 SOMERS ROAD","ELLINGTON","CT",6029,41.91656069,-72.4533134769999,235,"323 SOMERS ROAD, ELLINGTON, CT, 6029","Match","Exact","323 SOMERS RD, ELLINGTON, CT, 06029",57008826,"R"
510736,"323 SOMERSET DR","ST","IL",60107,42.0359224250001,-88.171143007,236,"323 SOMERSET DR, ST, IL, 60107","Match","Non_Exact","323 SOMERSET DR, STREAMWOOD, IL, 60107",111688491,"R"
510737,"323 SORRELWOOD DRIVE","LEAGUE CITY","TX",77573,29.5194706890001,-95.052965294,237,"323 SORRELWOOD DRIVE, LEAGUE CITY, TX, 77573","Match","Exact","323 SORRELWOOD DR, LEAGUE CITY, TX, 77573",96694985,"R"
510738,"323 SOUTH 132ND STREET","OMAHA","NE",68154,41.2566992220001,-96.119541826,238,"323 SOUTH 132ND STREET, OMAHA, NE, 68154","Match","Exact","323 S 132ND ST, OMAHA, NE, 68154",117006250,"L"
510739,"323 SOUTH 22ND STREET","EASTON","PA",18042,40.686300488,-75.244706244,239,"323 SOUTH 22ND STREET, EASTON, PA, 18042","Match","Exact","323 S 22ND ST, EASTON, PA, 18042",136881674,"R"
510740,"323 SOUTH 49 AVENUE","OMAHA","NE",68132,41.257523007,-95.9890589089999,240,"323 SOUTH 49 AVENUE, OMAHA, NE, 68132","Match","Exact","323 S 49TH AVE, OMAHA, NE, 68132",116983077,"L"
510741,"323 SOUTH 7TH STREET","ELIZABETH",NA,NA,40.6564466180001,-74.206416228,241,"323 SOUTH 7TH STREET, ELIZABETH, , ","Match","Exact","323 S 7TH ST, ELIZABETH, NJ, 07202",60579067,"R"
510742,"323 SOUTH BARNARD STREET","STATE COLLEGE","PA",16801,40.788122023,-77.862802619,242,"323 SOUTH BARNARD STREET, STATE COLLEGE, PA, 16801","Match","Exact","323 S BARNARD ST, STATE COLLEGE, PA, 16801",50398495,"L"
510743,"323 SOUTH ELM ST","GEORGETOWN","OH",45121,38.8616112730001,-83.89994165,243,"323 SOUTH ELM ST, GEORGETOWN, OH, 45121","Match","Exact","323 S ELM ST, GEORGETOWN, OH, 45121",100978753,"R"
510744,"323 SOUTH OHIO ST","MUYSCODA","WI",53573,43.183252786,-90.4459304929999,244,"323 SOUTH OHIO ST, MUYSCODA, WI, 53573","Match","Non_Exact","323 S OHIO ST, MUSCODA, WI, 53573",32742535,"L"
510745,"323 SOUTH SIERRA AVE","OAKDALE","CA",95361,37.7644290320001,-120.844221511,245,"323 SOUTH SIERRA AVE, OAKDALE, CA, 95361","Match","Exact","323 S SIERRA AVE, OAKDALE, CA, 95361",102588341,"L"
510746,"323 SOUTH WEAVE ST","LOUISVILLE","KY",40229,NA,NA,246,"323 SOUTH WEAVE ST, LOUISVILLE, KY, 40229","No_Match",NA,NA,NA,NA
510747,"323 SOUTHEAST COWLS STREET","MCMINNVILLE","OR",97128,45.2070361080001,-123.197011004,247,"323 SOUTHEAST COWLS STREET, MCMINNVILLE, OR, 97128","Match","Exact","323 SE COWLS ST, MCMINNVILLE, OR, 97128",156494003,"L"
510748,"323 SOUTHVIEW DR","EPHRATA","PA",17522,40.1252541710001,-76.228619459,248,"323 SOUTHVIEW DR, EPHRATA, PA, 17522","Match","Exact","323 SOUTHVIEW DR, EPHRATA, PA, 17522",179666258,"L"
510749,"323 SPRING WOODS","SPRING","TX",77386,30.1358922110001,-95.4388280379999,249,"323 SPRING WOODS, SPRING, TX, 77386","Match","Non_Exact","323 SPRINGWOODS DR, SPRING, TX, 77386",79283974,"L"
510750,"323 SPRUCE ST","AURORA","IL",60506,41.7626522580001,-88.319605452,250,"323 SPRUCE ST, AURORA, IL, 60506","Match","Exact","323 SPRUCE ST, AURORA, IL, 60506",119515575,"R"
510751,"323 ST JOHNS AVENUE","PALATKA","FL",32177,29.6466975720001,-81.631440834,251,"323 ST JOHNS AVENUE, PALATKA, FL, 32177","Match","Exact","323 ST JOHNS AVE, PALATKA, FL, 32177",86072772,"L"
510752,"323 STEVENS AVE","JERSEY CITY","NJ",7305,40.7067719190001,-74.095535775,252,"323 STEVENS AVE, JERSEY CITY, NJ, 7305","Match","Exact","323 STEVENS AVE, JERSEY CITY, NJ, 07305",639963349,"L"
510753,"323 STILES ST","VAUXHALL","NJ",7088,40.716742455,-74.280967441,253,"323 STILES ST, VAUXHALL, NJ, 7088","Match","Exact","323 STILES ST, VAUXHALL, NJ, 07088",60570968,"R"
510754,"323 STONEWOOD","SAN ANTONIO","TX",78216,29.570831438,-98.491354418,254,"323 STONEWOOD, SAN ANTONIO, TX, 78216","Match","Non_Exact","323 STONEWOOD ST, SAN ANTONIO, TX, 78216",101563851,"L"
510755,"323 SUMMIT ROAD","ELIZABETH","NJ",7208,40.673001399,-74.240423681,255,"323 SUMMIT ROAD, ELIZABETH, NJ, 7208","Match","Exact","323 SUMMIT RD, ELIZABETH, NJ, 07208",60576681,"R"
510756,"323 SW ROYAL CT","LAKE CITY","FL",32024,30.120382002,-82.7194940489999,256,"323 SW ROYAL CT, LAKE CITY, FL, 32024","Match","Exact","323 SW ROYAL CT, LAKE CITY, FL, 32024",606834265,"R"
510757,"323 SWEETMANS LANE","MILLSTONE TWP","NJ",8535,NA,NA,257,"323 SWEETMANS LANE, MILLSTONE TWP, NJ, 8535","No_Match",NA,NA,NA,NA
510758,"323 SYCAMORE ROAD","SANTA MONICA","CA",90402,34.0312222040001,-118.515535538,258,"323 SYCAMORE ROAD, SANTA MONICA, CA, 90402","Match","Exact","323 SYCAMORE RD, SANTA MONICA, CA, 90402",142715235,"L"
510759,"323 SYLVANIA AVE","AVON BY THE SEA","NJ",7717,40.1923232440001,-74.01663178,259,"323 SYLVANIA AVE, AVON BY THE SEA, NJ, 7717","Match","Exact","323 SYLVANIA AVE, AVON BY SEA, NJ, 07717",90464477,"L"
510760,"323 TABERNACLE ROAD","BRENT","AL",35034,32.9430076690001,-87.16428876,260,"323 TABERNACLE ROAD, BRENT, AL, 35034","Match","Exact","323 TABERNACLE RD, BRENT, AL, 35034",38851572,"L"
510761,"323 TATE LANE ST","ST JOHNS","FL",32259,30.0583944140001,-81.621896502,261,"323 TATE LANE ST, ST JOHNS, FL, 32259","Match","Exact","323 TATE LN, SAINT JOHNS, FL, 32259",648011862,"L"
510762,"323 THOMAS STREET","COLUMBIA","IL",62236,38.436943082,-90.2062260869999,262,"323 THOMAS STREET, COLUMBIA, IL, 62236","Match","Exact","323 THOMAS ST, COLUMBIA, IL, 62236",116440380,"L"
510763,"323 TODD LEVEE RD N","HUMBOLT","TN",38343,35.7830562440001,-88.911275987,263,"323 TODD LEVEE RD N, HUMBOLT, TN, 38343","Match","Non_Exact","323 TODD LEVEE RD N, HUMBOLDT, TN, 38343",63323572,"L"
510764,"323 TOWNPARK CIRCLE","LOUISVILLE","KY",40243,38.240761176,-85.51701932,264,"323 TOWNPARK CIRCLE, LOUISVILLE, KY, 40243","Match","Non_Exact","323 TOWNEPARK CIR, LOUISVILLE, KY, 40243",642504907,"L"
510765,"323 TOWNSVALLEY RD","RIVER FALLS","WI",54022,NA,NA,265,"323 TOWNSVALLEY RD, RIVER FALLS, WI, 54022","No_Match",NA,NA,NA,NA
510766,"323 TULLAMORE RD","MAGNOLIA","DE",19962,39.055750007,-75.508927996,266,"323 TULLAMORE RD, MAGNOLIA, DE, 19962","Match","Exact","323 TULLAMORE RD, MAGNOLIA, DE, 19962",601698906,"L"
510767,"323 UNIVERSITY BLVD E","SILVER SPRING","MD",20901,39.0106454450001,-77.00133784,267,"323 UNIVERSITY BLVD E, SILVER SPRING, MD, 20901","Match","Exact","323 UNIVERSITY BLVD E, SILVER SPRING, MD, 20901",637214278,"L"
510768,"323 UPPER RIVER RD","GALLIPOLIS","OH",45631,38.8332641710001,-82.155054083,268,"323 UPPER RIVER RD, GALLIPOLIS, OH, 45631","Match","Exact","323 UPPER RIVER RD, GALLIPOLIS, OH, 45631",54974219,"R"
510769,"323 VALENTIN RD","BELEN","NM",87002,34.6745474690001,-106.761256528,269,"323 VALENTIN RD, BELEN, NM, 87002","Match","Exact","323 VALENTIN RD, BELEN, NM, 87002",635550305,"R"
510770,"323 VARNUM ST","WASHINGTON","DC",20011,38.9432281520001,-77.0159170599999,270,"323 VARNUM ST, WASHINGTON, DC, 20011","Match","Non_Exact","323 VARNUM ST NW, WASHINGTON, DC, 20011",76223680,"R"
510771,"323 VERNON STREET","IRONTON","OH",45638,38.5339923500001,-82.6841074829999,271,"323 VERNON STREET, IRONTON, OH, 45638","Match","Exact","323 VERNON ST, IRONTON, OH, 45638",55009676,"R"
510772,"323 VICTOR-EGYPT ROAD","VICTOR","NY",14564,43.023355629,-77.399110541,272,"323 VICTOR-EGYPT ROAD, VICTOR, NY, 14564","Match","Non_Exact","323 VICTOR EGYPT RD, VICTOR, NY, 14564",13485198,"L"
510773,"323 VICTORIA STREET","SAN FRANCISCO","CA",94132,37.716602648,-122.465332315,273,"323 VICTORIA STREET, SAN FRANCISCO, CA, 94132","Match","Exact","323 VICTORIA ST, SAN FRANCISCO, CA, 94132",192285545,"L"
510774,"323 VIKING DRIVE","BATTLE CREEK","MI",49017,42.3509607450001,-85.171159814,274,"323 VIKING DRIVE, BATTLE CREEK, MI, 49017","Match","Exact","323 VIKING DR, BATTLE CREEK, MI, 49017",11713524,"L"
510775,"323 W 19TH AVE","COVINGTON","LA",70433,30.4748616040001,-90.104345788,275,"323 W 19TH AVE, COVINGTON, LA, 70433","Match","Exact","323 W 19TH AVE, COVINGTON, LA, 70433",111234706,"L"
510776,"323 W 23RD","SPOKANE","WA",99203,47.6336166180001,-117.415847428,276,"323 W 23RD, SPOKANE, WA, 99203","Match","Non_Exact","323 W 23RD AVE, SPOKANE, WA, 99203",189877427,"L"
510777,"323 W 24TH ST","HAYS","KS",67601,38.884671988,-99.3298964959999,277,"323 W 24TH ST, HAYS, KS, 67601","Match","Exact","323 W 24TH ST, HAYS, KS, 67601",149824494,"R"
510778,"323 W 30TH STREET","HOUSTON","TX",77018,29.813879575,-95.402082428,278,"323 W 30TH STREET, HOUSTON, TX, 77018","Match","Exact","323 W 30TH ST, HOUSTON, TX, 77018",96055179,"L"
510779,"323 W 34TH ST","MINNEAPOLIS","MN",55408,44.941327503,-93.283401398,279,"323 W 34TH ST, MINNEAPOLIS, MN, 55408","Match","Exact","323 W 34TH ST, MINNEAPOLIS, MN, 55408",43633493,"L"
510780,"323 W 8TH STREET APT 412","KANSAS CITY","MO",64105,39.1046253860001,-94.586521407,280,"323 W 8TH STREET APT 412, KANSAS CITY, MO, 64105","Match","Non_Exact","323 W 8TH ST, KANSAS CITY, MO, 64105",91444896,"L"
510781,"323 W 9TH ST TH 107","NEW YORK","NY",10025,NA,NA,281,"323 W 9TH ST TH 107, NEW YORK, NY, 10025","No_Match",NA,NA,NA,NA
510782,"323 W ALONDRA BLVD","GARDENA","CA",90248,33.8855818370001,-118.278909682,282,"323 W ALONDRA BLVD, GARDENA, CA, 90248","Match","Exact","323 W ALONDRA BLVD, GARDENA, CA, 90248",241243495,"R"
510783,"323 W BELTLINE ROAD","GRAND PRAIRIE","TX",75052,NA,NA,283,"323 W BELTLINE ROAD, GRAND PRAIRIE, TX, 75052","No_Match",NA,NA,NA,NA
510784,"323 W BROADWAY STE 504","LOUISVILLE","KY",40202,NA,NA,284,"323 W BROADWAY STE 504, LOUISVILLE, KY, 40202","Tie",NA,NA,NA,NA
510785,"323 W BROADWAY","PATERSON","NJ",7522,40.926170961,-74.183720674,285,"323 W BROADWAY, PATERSON, NJ, 7522","Match","Exact","323 W BROADWAY, PATERSON, NJ, 07522",65262610,"L"
510786,"323 W COTTON STREET","LACONA","IA",50139,41.1875343350001,-93.389219484,286,"323 W COTTON STREET, LACONA, IA, 50139","Match","Exact","323 W COTTON ST, LACONA, IA, 50139",83767176,"R"
510787,"323 W DOGWOOD ST","SCRANTON","KS",66537,38.7750730060001,-95.742673453,287,"323 W DOGWOOD ST, SCRANTON, KS, 66537","Match","Exact","323 DOGWOOD ST, SCRANTON, KS, 66537",11215424,"L"
510788,"323 W FRANCIS STREET","ASPEN","CO",81611,39.1943447290001,-106.824704298,288,"323 W FRANCIS STREET, ASPEN, CO, 81611","Match","Exact","323 W FRANCIS ST, ASPEN, CO, 81611",105956560,"L"
510789,"323 W GOODWIN STREET","PRESCOTT","AZ",86302,34.539996526,-112.472476618,289,"323 W GOODWIN STREET, PRESCOTT, AZ, 86302","Match","Non_Exact","323 W GOODWIN ST, PRESCOTT, AZ, 86303",159457948,"L"
510790,"323 W LOCUST APT B","LODI","CA",95240,NA,NA,290,"323 W LOCUST APT B, LODI, CA, 95240","No_Match",NA,NA,NA,NA
510791,"323 W MAIN","PLEASANT PLAINS","IL",62677,39.8729825560001,-89.9240718189999,291,"323 W MAIN, PLEASANT PLAINS, IL, 62677","Match","Non_Exact","323 W MAIN ST, PLEASANT PLAINS, IL, 62677",97312356,"R"
510792,"323 W PARKER AVE","BUSHNELL","FL",33513,28.669486786,-82.117355028,292,"323 W PARKER AVE, BUSHNELL, FL, 33513","Match","Exact","323 W PARKER AVE, BUSHNELL, FL, 33513",86496440,"R"
510793,"323 W SAINT PETER ST","NEW IBERIA","LA",70560,30.0081566010001,-91.8221695679999,293,"323 W SAINT PETER ST, NEW IBERIA, LA, 70560","Match","Exact","323 W SAINT PETER ST, NEW IBERIA, LA, 70560",649922345,"L"
510794,"323 W SOUTH STREET","CAMBRIDGE","IL",61238,41.2995036140001,-90.196822633,294,"323 W SOUTH STREET, CAMBRIDGE, IL, 61238","Match","Exact","323 W SOUTH ST, CAMBRIDGE, IL, 61238",8909152,"L"
510795,"323 W ST PETER ST","NEW IBERIA","LA",70560,30.0081566010001,-91.8221695679999,295,"323 W ST PETER ST, NEW IBERIA, LA, 70560","Match","Exact","323 W SAINT PETER ST, NEW IBERIA, LA, 70560",649922345,"L"
510796,"323 W STATE STREET","HAMBURG","PA",19526,NA,NA,296,"323 W STATE STREET, HAMBURG, PA, 19526","Tie",NA,NA,NA,NA
510797,"323 W STUBBS","EDINBURG","TX",78539,26.2987786320001,-98.165498105,297,"323 W STUBBS, EDINBURG, TX, 78539","Match","Non_Exact","323 W STUBBS ST, EDINBURG, TX, 78539",607620257,"R"
510798,"323 W WALNUT ST STE 201","JOHNSON CITY","TN",37604,36.3128447450001,-82.35265032,298,"323 W WALNUT ST STE 201, JOHNSON CITY, TN, 37604","Match","Non_Exact","323 W WALNUT ST, JOHNSON CITY, TN, 37604",127924600,"L"
510799,"323 W WILLIAMS","WESTVILLE","IL",61883,40.045327634,-87.641913756,299,"323 W WILLIAMS, WESTVILLE, IL, 61883","Match","Non_Exact","323 W WILLIAMS ST, WESTVILLE, IL, 61883",66000429,"R"
510800,"323 WAINWRIGHT ST","NEWARK","NJ",7112,40.710161009,-74.22486866,300,"323 WAINWRIGHT ST, NEWARK, NJ, 7112","Match","Exact","323 WAINWRIGHT ST, NEWARK, NJ, 07112",63485348,"R"
510801,"323 WALL STREET","KINGSTON","NY",12401,41.934187256,-74.019788659,301,"323 WALL STREET, KINGSTON, NY, 12401","Match","Exact","323 WALL ST, KINGSTON, NY, 12401",41864551,"L"
510802,"323 WALNUT HILL LANE","HAVERTOWN","PA",19083,39.9698962730001,-75.3294554559999,302,"323 WALNUT HILL LANE, HAVERTOWN, PA, 19083","Match","Exact","323 WALNUT HILL LN, HAVERTOWN, PA, 19083",134873922,"L"
510803,"323 WALNUT ST","HOT SPRINGS","AR",71901,34.5195471100001,-93.0630962119999,303,"323 WALNUT ST, HOT SPRINGS, AR, 71901","Match","Exact","323 WALNUT ST, HOT SPRINGS, AR, 71901",22743964,"L"
510804,"323 WASHINGTON AVE ROOM 7","MIAMI BEACH","FL",33139,25.772719769,-80.134561333,304,"323 WASHINGTON AVE ROOM 7, MIAMI BEACH, FL, 33139","Match","Exact","323 WASHINGTON AVE, MIAMI BEACH, FL, 33139",116020746,"R"
510805,"323 WASHINGTON STREET","HANOVER","MA",2339,42.1153435200001,-70.817747756,305,"323 WASHINGTON STREET, HANOVER, MA, 2339","Match","Exact","323 WASHINGTON ST, HANOVER, MA, 02339",87485318,"L"
510806,"323 WATSON STREET","SIMMESPORT","LA",71369,30.9829228420001,-91.807567661,306,"323 WATSON STREET, SIMMESPORT, LA, 71369","Match","Non_Exact","323 WATSON, SIMMESPORT, LA, 71369",13144114,"L"
510807,"323 WEATHER VANE LANE","HARRISON","OH",45030,39.2534544530001,-84.8134393509999,307,"323 WEATHER VANE LANE, HARRISON, OH, 45030","Match","Non_Exact","323 WEATHERVANE LN, HARRISON, OH, 45030",103955866,"L"
510808,"323 WEATHERBY PLACE","HAINES CITY","FL",33844,28.108629153,-81.6547824519999,308,"323 WEATHERBY PLACE, HAINES CITY, FL, 33844","Match","Exact","323 WEATHERBY PL, HAINES CITY, FL, 33844",614468103,"R"
510809,"323 WENDELL ST","CRESCENT CITY","CA",95531,41.7485675510001,-124.20517405,309,"323 WENDELL ST, CRESCENT CITY, CA, 95531","Match","Exact","323 WENDELL ST, CRESCENT CITY, CA, 95531",113163171,"R"
510810,"323 WESLEY CHAPEL RD","KENANSVILLE","NC",28349,35.01635214,-77.90736794,310,"323 WESLEY CHAPEL RD, KENANSVILLE, NC, 28349","Match","Exact","323 WESLEY CHAPEL RD, KENANSVILLE, NC, 28349",650843194,"L"
510811,"323 WEST 101ST PLACE","CHICAGO","IL",60628,41.709800188,-87.63170468,311,"323 WEST 101ST PLACE, CHICAGO, IL, 60628","Match","Exact","323 W 101ST PL, CHICAGO, IL, 60628",616793015,"L"
510812,"323 WEST 3RD ST","FRANKFORT","KY",40601,38.1938302030001,-84.8787577579999,312,"323 WEST 3RD ST, FRANKFORT, KY, 40601","Match","Exact","323 W 3RD ST, FRANKFORT, KY, 40601",97044690,"L"
510813,"323 WEST 74TH STREET  APT 2","RICHFIELD","MN",55423,44.869085012,-93.2837614859999,313,"323 WEST 74TH STREET  APT 2, RICHFIELD, MN, 55423","Match","Exact","323 W 74TH ST, RICHFIELD, MN, 55423",43592975,"L"
510814,"323 WEST 96TH NUMBER 1302","NEW YORK","NY",10025,40.795463225,-73.973691054,314,"323 WEST 96TH NUMBER 1302, NEW YORK, NY, 10025","Match","Non_Exact","323 W 96TH ST, NEW YORK, NY, 10025",59656560,"R"
510815,"323 WEST AVE","CARTERSVILLE","GA",30120,34.1607277420001,-84.800215383,315,"323 WEST AVE, CARTERSVILLE, GA, 30120","Match","Exact","323 WEST AVE, CARTERSVILLE, GA, 30120",30445572,"L"
510816,"323 WEST CHURCH STREET","HARRISBURG","IL",62946,37.737048003,-88.5454491789999,316,"323 WEST CHURCH STREET, HARRISBURG, IL, 62946","Match","Exact","323 W CHURCH ST, HARRISBURG, IL, 62946",104099042,"L"
510817,"323 WEST COLUMBIA AVENUE","BATESBURG","SC",29006,33.9070648570001,-81.538983005,317,"323 WEST COLUMBIA AVENUE, BATESBURG, SC, 29006","Match","Exact","323 W COLUMBIA AVE, BATESBURG, SC, 29006",70035301,"L"
510818,"323 WEST COURT STREET","WEISER","ID",83672,44.248350402,-116.973575506,318,"323 WEST COURT STREET, WEISER, ID, 83672","Match","Exact","323 W COURT ST, WEISER, ID, 83672",138414257,"L"
510819,"323 WEST DOVER STREET","WORTHINGTON","MN",56187,43.629273147,-95.606349595,319,"323 WEST DOVER STREET, WORTHINGTON, MN, 56187","Match","Exact","323 W DOVER ST, WORTHINGTON, MN, 56187",29731046,"R"
510820,"323 WEST MAIN APT 1","TILTON","NH",3276,43.4434133340001,-71.593762645,320,"323 WEST MAIN APT 1, TILTON, NH, 3276","Match","Non_Exact","323 W MAIN ST, TILTON, NH, 03276",145498191,"L"
510821,"323 WEST MAIN ST","ANDOVER","OH",44003,41.6071131800001,-80.5800499009999,321,"323 WEST MAIN ST, ANDOVER, OH, 44003","Match","Exact","323 W MAIN ST, ANDOVER, OH, 44003",117323626,"L"
510822,"323 WEST NAVARRE ST","SOUTH BEND","IN",46616,41.6830927710001,-86.254614821,322,"323 WEST NAVARRE ST, SOUTH BEND, IN, 46616","Match","Exact","323 W NAVARRE ST, SOUTH BEND, IN, 46616",8088042,"R"
510823,"323 WEST NORTHFIELD","LIVINGSTON","NJ",7039,40.7912227460001,-74.33728702,323,"323 WEST NORTHFIELD, LIVINGSTON, NJ, 7039","Match","Non_Exact","323 W NORTHFIELD RD, LIVINGSTON, NJ, 07039",63457895,"L"
510824,"323 WEST RIVER ROAD","PALATKA","FL",32177,29.7159749310001,-81.61983925,324,"323 WEST RIVER ROAD, PALATKA, FL, 32177","Match","Exact","323 W RIVER RD, PALATKA, FL, 32177",86095339,"R"
510825,"323 WEST RUSSELL STREET","BARRINGTON","IL",60010,42.150370879,-88.141498341,325,"323 WEST RUSSELL STREET, BARRINGTON, IL, 60010","Match","Exact","323 W RUSSELL ST, BARRINGTON, IL, 60010",111835302,"R"
510826,"323 WEST ST PETER STREET","NEW IBERIA","LA",70560,30.0081525140001,-91.822165806,326,"323 WEST ST PETER STREET, NEW IBERIA, LA, 70560","Match","Exact","323 W SAINT PETER ST, NEW IBERIA, LA, 70560",649922345,"L"
510827,"323 WEST ST","LANSING","MI",48915,42.7311066390001,-84.573942018,327,"323 WEST ST, LANSING, MI, 48915","Match","Exact","323 WEST ST, LANSING, MI, 48915",17519817,"L"
510828,"323 WEST WALNUT AVENUE","BASTROP","LA",71220,32.7752820590001,-91.917099516,328,"323 WEST WALNUT AVENUE, BASTROP, LA, 71220","Match","Exact","323 W WALNUT AVE, BASTROP, LA, 71220",75378890,"R"
510829,"323 WESTWIND WAY","HELENA","MT",59602,46.6182557390001,-112.044500471,329,"323 WESTWIND WAY, HELENA, MT, 59602","Match","Exact","323 WESTWIND WAY, HELENA, MT, 59602",202418312,"L"
510830,"323 WHEATON CT","COLUMBUS","OH",43235,40.121130769,-83.0072589059999,330,"323 WHEATON CT, COLUMBUS, OH, 43235","Match","Exact","323 WHEATON CT, COLUMBUS, OH, 43235",218687597,"L"
510831,"323 WHIPSERING HILLS","HOT SPRINGS","AR",71901,NA,NA,331,"323 WHIPSERING HILLS, HOT SPRINGS, AR, 71901","No_Match",NA,NA,NA,NA
510832,"323 WHITRIDGE AVE","BALTIMORE","MD",21218,39.3214792090001,-76.61257951,332,"323 WHITRIDGE AVE, BALTIMORE, MD, 21218","Match","Exact","323 WHITRIDGE AVE, BALTIMORE, MD, 21218",206464193,"R"
510833,"323 WILDWOOD","WORCESTER","MA",1603,42.254170102,-71.858429182,333,"323 WILDWOOD, WORCESTER, MA, 1603","Match","Non_Exact","323 WILDWOOD AVE, WORCESTER, MA, 01603",653292233,"R"
510834,"323 WILLIAMS STREET","BEL AIR","MD",21014,39.5384069680001,-76.356854309,334,"323 WILLIAMS STREET, BEL AIR, MD, 21014","Match","Exact","323 WILLIAMS ST, BEL AIR, MD, 21014",191641015,"R"
510835,"323 WILLOWBEND CIRCLE","HOT SPRINGS","AR",71913,34.461442307,-93.084865827,335,"323 WILLOWBEND CIRCLE, HOT SPRINGS, AR, 71913","Match","Non_Exact","323 WILLOW BEND CIR, HOT SPRINGS, AR, 71913",627100084,"R"
510836,"323 WILSON LANE","BEREA","KY",40403,37.6119219500001,-84.239701582,336,"323 WILSON LANE, BEREA, KY, 40403","Match","Exact","323 WILSON LN, BEREA, KY, 40403",31997176,"L"
510837,"323 WINDSOR OAKS COURT","WINSTON SALEM","NC",27104,36.095669835,-80.292757934,337,"323 WINDSOR OAKS COURT, WINSTON SALEM, NC, 27104","Match","Exact","323 WINDSOR OAKS CT, WINSTON SALEM, NC, 27104",623935907,"L"
510838,"323-10 IVES DAIRY RD","MIAMI","FL",33179,25.957863864,-80.19351842,338,"323-10 IVES DAIRY RD, MIAMI, FL, 33179","Match","Exact","323 IVES DAIRY RD, MIAMI, FL, 33179",649356163,"L"
510839,"323","COLFAX","CA",95713,NA,NA,339,"323, COLFAX, CA, 95713","No_Match",NA,NA,NA,NA
510840,"323","MAURICE","LA",70555,NA,NA,340,"323, MAURICE, LA, 70555","No_Match",NA,NA,NA,NA
510841,"3230 14TH AVE SE","NAPLES","FL",34117,26.2050944280001,-81.542462115,341,"3230 14TH AVE SE, NAPLES, FL, 34117","Match","Exact","3230 14TH AVE SE, NAPLES, FL, 34117",115132256,"R"
510842,"3230 55TH ST","WOODSIDE","NY",11377,NA,NA,342,"3230 55TH ST, WOODSIDE, NY, 11377","No_Match",NA,NA,NA,NA
510843,"3230 66TH AVE NE","NAPLES","FL",34120,26.3525921350001,-81.5427023789999,343,"3230 66TH AVE NE, NAPLES, FL, 34120","Match","Exact","3230 66TH AVE NE, NAPLES, FL, 34120",650557331,"R"
510844,"3230 ALABAMA STREET","HOUSTON","TX",77004,29.726006725,-95.3599711049999,344,"3230 ALABAMA STREET, HOUSTON, TX, 77004","Match","Exact","3230 ALABAMA ST, HOUSTON, TX, 77004",96072112,"R"
510845,"3230 ARENA BLVD 245-291","SACRAMENTO","CA",95834,38.6430358580001,-121.533217623,345,"3230 ARENA BLVD 245-291, SACRAMENTO, CA, 95834","Match","Exact","3230 ARENA BLVD, SACRAMENTO, CA, 95834",133400354,"R"
510846,"3230 ARENA BLVD STE 245-272","SACRAMENTO","CA",95834,38.6430358580001,-121.533217623,346,"3230 ARENA BLVD STE 245-272, SACRAMENTO, CA, 95834","Match","Exact","3230 ARENA BLVD, SACRAMENTO, CA, 95834",133400354,"R"
510847,"3230 ARENA BLVD STE 245","SACRAMENTO","CA",95834,38.6430358580001,-121.533217623,347,"3230 ARENA BLVD STE 245, SACRAMENTO, CA, 95834","Match","Exact","3230 ARENA BLVD, SACRAMENTO, CA, 95834",133400354,"R"
510848,"3230 ARGYLL DR","SANFORD","NC",27332,NA,NA,348,"3230 ARGYLL DR, SANFORD, NC, 27332","No_Match",NA,NA,NA,NA
510849,"3230 ASH MEADOW LANE","FRANKLIN","OH",45005,39.4967713390001,-84.2618059279999,349,"3230 ASH MEADOW LANE, FRANKLIN, OH, 45005","Match","Exact","3230 ASH MEADOW LN, FRANKLIN, OH, 45005",617732579,"L"
510850,"3230 BEACHVIEW DR","TOMS RIVER","NJ",8753,39.955149616,-74.1152021629999,350,"3230 BEACHVIEW DR, TOMS RIVER, NJ, 8753","Match","Exact","3230 BEACHVIEW DR, TOMS RIVER, NJ, 08753",203737718,"L"
510851,"3230 BENTON BLVD","KANSAS CITY","MO",64128,39.0672154220001,-94.546080307,351,"3230 BENTON BLVD, KANSAS CITY, MO, 64128","Match","Exact","3230 BENTON BLVD, KANSAS CITY, MO, 64128",91450269,"R"
510852,"3230 BETHEL AVENUE","INDIANAPOLIS","IN",46203,39.7406533880001,-86.109780111,352,"3230 BETHEL AVENUE, INDIANAPOLIS, IN, 46203","Match","Exact","3230 BETHEL AVE, INDIANAPOLIS, IN, 46203",108000898,"L"
510853,"3230 BROWNSVILLE ROAD","PITTSBURGH","PA",15227,40.378408092,-79.975444093,353,"3230 BROWNSVILLE ROAD, PITTSBURGH, PA, 15227","Match","Exact","3230 BROWNSVILLE RD, PITTSBURGH, PA, 15227",51639611,"R"
510854,"3230 BRUNSWICK DRIVE","FLORISSANT","MO",63033,38.817467779,-90.305036313,354,"3230 BRUNSWICK DRIVE, FLORISSANT, MO, 63033","Match","Exact","3230 BRUNSWICK DR, FLORISSANT, MO, 63033",100143661,"R"
510855,"3230 BRUNSWICK","FLORISSANT","MO",63303,NA,NA,355,"3230 BRUNSWICK, FLORISSANT, MO, 63303","No_Match",NA,NA,NA,NA
510856,"3230 CANAL PL","LAND O LAKES","FL",34639,28.20452929,-82.454918564,356,"3230 CANAL PL, LAND O LAKES, FL, 34639","Match","Exact","3230 CANAL PL, LAND O LAKES, FL, 34639",86352846,"R"
510857,"3230 CANDIAN STREET","KATY","TX",77493,29.822191843,-95.824156102,357,"3230 CANDIAN STREET, KATY, TX, 77493","Match","Non_Exact","3230 CANADIAN ST, KATY, TX, 77493",96130739,"R"
510858,"3230 CARR ST","FLINT","MI",48506,43.05441425,-83.648877353,358,"3230 CARR ST, FLINT, MI, 48506","Match","Exact","3230 CARR ST, FLINT, MI, 48506",644162228,"R"
510859,"3230 CHADWICK DR","LOS ANGELES","CA",90032,34.082452609,-118.17077461,359,"3230 CHADWICK DR, LOS ANGELES, CA, 90032","Match","Exact","3230 CHADWICK DR, LOS ANGELES, CA, 90032",141623384,"R"
510860,"3230 CHASSE RIDGE DR","ORANGE","TX",77632,30.1595522760001,-93.77734921,360,"3230 CHASSE RIDGE DR, ORANGE, TX, 77632","Match","Exact","3230 CHASSE RIDGE DR, ORANGE, TX, 77632",74018604,"R"
510861,"3230 CLASSIC DRIVE","ST. LOUIS","MO",63033,38.7907577710001,-90.295772712,361,"3230 CLASSIC DRIVE, ST. LOUIS, MO, 63033","Match","Non_Exact","3230 CLASSIC DR, FLORISSANT, MO, 63033",100144730,"R"
510862,"3230 CORDOBA RANCH BLVD","LUTZ","FL",33559,28.1399941240001,-82.421095959,362,"3230 CORDOBA RANCH BLVD, LUTZ, FL, 33559","Match","Exact","3230 CORDOBA RANCH BLVD, LUTZ, FL, 33559",641603729,"L"
510863,"3230 COUNTY ROAD 3230","BRAZORIA","TX",77522,NA,NA,363,"3230 COUNTY ROAD 3230, BRAZORIA, TX, 77522","No_Match",NA,NA,NA,NA
510864,"3230 COWGILL LANE","REDDING","CA",96002,40.6380869990001,-122.406655166,364,"3230 COWGILL LANE, REDDING, CA, 96002","Match","Non_Exact","3230 COWGILL LN, REDDING, CA, 96003",126672546,"L"
510865,"3230 CREEKSIDE DR","PONDER","TX",76259,33.170042783,-97.345233628,365,"3230 CREEKSIDE DR, PONDER, TX, 76259","Match","Exact","3230 CREEKSIDE DR, PONDER, TX, 76259",641510653,"R"
510866,"3230 DASHIELL ROAD","FALLS CHURCH","VA",22042,38.860218327,-77.173981673,366,"3230 DASHIELL ROAD, FALLS CHURCH, VA, 22042","Match","Exact","3230 DASHIELL RD, FALLS CHURCH, VA, 22042",75980779,"L"
510867,"3230 DERBY CIRCLE","HIGH POINT","NC",27265,35.994329786,-79.980013932,367,"3230 DERBY CIRCLE, HIGH POINT, NC, 27265","Match","Exact","3230 DERBY CIR, HIGH POINT, NC, 27265",131079518,"L"
510868,"3230 DOGWOOD DRIVE","EAST POINT","GA",30344,33.668214914,-84.486008064,368,"3230 DOGWOOD DRIVE, EAST POINT, GA, 30344","Match","Exact","3230 DOGWOOD DR, EAST POINT, GA, 30344",17338564,"L"
510869,"3230 DOGWOOD","EAST POINT","GA",30344,33.668214914,-84.486008064,369,"3230 DOGWOOD, EAST POINT, GA, 30344","Match","Non_Exact","3230 DOGWOOD DR, EAST POINT, GA, 30344",17338564,"L"
510870,"3230 E BAY DR  3008","HOLMES BEACH","FL",32417,NA,NA,370,"3230 E BAY DR  3008, HOLMES BEACH, FL, 32417","No_Match",NA,NA,NA,NA
510871,"3230 E BAY DR  308","HOLMES BEACH","FL",34217,27.4920318530001,-82.707345313,371,"3230 E BAY DR  308, HOLMES BEACH, FL, 34217","Match","Non_Exact","3230 E BAY DR, HOLMES BEACH, FL, 34217",16296419,"L"
510872,"3230 E COURTLAND AVE","SPOKANE","WA",99217,47.688931471,-117.362567564,372,"3230 E COURTLAND AVE, SPOKANE, WA, 99217","Match","Exact","3230 E COURTLAND AVE, SPOKANE, WA, 99217",189894122,"L"
510873,"3230 E IMPERIAL HWY SUITE 175","BREA","CA",92821,33.9110327980001,-117.856674384,373,"3230 E IMPERIAL HWY SUITE 175, BREA, CA, 92821","Match","Exact","3230 IMPERIAL HWY, BREA, CA, 92821",144114158,"R"
510874,"3230 E IRWIN AVE","MESA","AZ",85204,33.384472449,-111.761230141,374,"3230 E IRWIN AVE, MESA, AZ, 85204","Match","Exact","3230 E IRWIN AVE, MESA, AZ, 85204",128812955,"L"
510875,"3230 E SENECA STREET","TUCSON","AZ",85716,32.246953772,-110.92395317,375,"3230 E SENECA STREET, TUCSON, AZ, 85716","Match","Exact","3230 E SENECA ST, TUCSON, AZ, 85716",121174832,"R"
510876,"3230 E WOODMENT RD STE 110A","COLORADO SPRINGS","CO",80923,NA,NA,376,"3230 E WOODMENT RD STE 110A, COLORADO SPRINGS, CO, 80923","No_Match",NA,NA,NA,NA
510877,"3230 EAST 50TH STREET","MINNEAPOLIS","MN",55417,44.9126072380001,-93.225216766,377,"3230 EAST 50TH STREET, MINNEAPOLIS, MN, 55417","Match","Exact","3230 E 50TH ST, MINNEAPOLIS, MN, 55417",43640506,"L"
510878,"3230 EAST PINCHOT AVENUE","PHOENIX","AZ",85018,33.4823496540001,-112.012100237,378,"3230 EAST PINCHOT AVENUE, PHOENIX, AZ, 85018","Match","Exact","3230 E PINCHOT AVE, PHOENIX, AZ, 85018",128223071,"L"
510879,"3230 ELLERSLIE AVE","BALTIMORE","MD",21218,39.327624583,-76.6036196279999,379,"3230 ELLERSLIE AVE, BALTIMORE, MD, 21218","Match","Exact","3230 ELLERSLIE AVE, BALTIMORE, MD, 21218",206409306,"L"
510880,"3230 EVERGREEN EVE CROSSING","DACULA","GA",30019,34.0306086360001,-83.915629829,380,"3230 EVERGREEN EVE CROSSING, DACULA, GA, 30019","Match","Exact","3230 EVERGREEN EVE CROSSING, DACULA, GA, 30019",88933125,"R"
510881,"3230 FOX ROAD","MILLSAP","TX",76066,32.737157133,-97.907674325,381,"3230 FOX ROAD, MILLSAP, TX, 76066","Match","Exact","3230 FOX RD, MILLSAP, TX, 76066",103591899,"L"
510882,"3230 GARFIELD ST","MINNEAPOLIS","MN",55418,45.0264827060001,-93.233281778,382,"3230 GARFIELD ST, MINNEAPOLIS, MN, 55418","Match","Non_Exact","3230 GARFIELD ST NE, MINNEAPOLIS, MN, 55418",43637349,"L"
510883,"3230 GARFIELD STREET","HOLLYWOOD","FL",33021,26.0209288080001,-80.1744905859999,383,"3230 GARFIELD STREET, HOLLYWOOD, FL, 33021","Match","Exact","3230 GARFIELD ST, HOLLYWOOD, FL, 33021",114729298,"L"
510884,"3230 GAZLEY RD","MYRTLE CREEK","OR",97457,42.944083747,-123.281403652,384,"3230 GAZLEY RD, MYRTLE CREEK, OR, 97457","Match","Exact","3230 GAZLEY RD, MYRTLE CREEK, OR, 97457",639653140,"L"
510885,"3230 HARDISTY AVE","CINCINNATI","OH",45208,39.1313967130001,-84.4265776519999,385,"3230 HARDISTY AVE, CINCINNATI, OH, 45208","Match","Exact","3230 HARDISTY AVE, CINCINNATI, OH, 45208",103933215,"L"
510886,"3230 HEMON RD","MONTGOMERY","AL",36106,32.3581976680001,-86.2596901699999,386,"3230 HEMON RD, MONTGOMERY, AL, 36106","Match","Exact","3230 HEMON RD, MONTGOMERY, AL, 36106",1471656,"R"
510887,"3230 HENDERSON MILL RD UNIT 2","ATLANTA","GA",30341,33.8789221230001,-84.2488172179999,387,"3230 HENDERSON MILL RD UNIT 2, ATLANTA, GA, 30341","Match","Exact","3230 HENDERSON MILL RD, ATLANTA, GA, 30341",645265769,"L"
510888,"3230 HENDERSON MILL RD","ATLANTA","GA",30341,33.8789221230001,-84.2488172179999,388,"3230 HENDERSON MILL RD, ATLANTA, GA, 30341","Match","Exact","3230 HENDERSON MILL RD, ATLANTA, GA, 30341",645265769,"L"
510889,"3230 HOLDEN CIRCLE","MATTESON","IL",60443,41.4962004880001,-87.694584127,389,"3230 HOLDEN CIRCLE, MATTESON, IL, 60443","Match","Exact","3230 HOLDEN CIR, MATTESON, IL, 60443",112388080,"L"
510890,"3230 HYDE ST","IRVING","TX",75063,32.900725175,-96.987795932,390,"3230 HYDE ST, IRVING, TX, 75063","Match","Exact","3230 HYDE ST, IRVING, TX, 75063",646742716,"R"
510891,"3230 IDAHO ST","BERKELEY","CA",94702,37.84860867,-122.28165467,391,"3230 IDAHO ST, BERKELEY, CA, 94702","Match","Exact","3230 IDAHO ST, BERKELEY, CA, 94702",124994483,"R"
510892,"3230 INDIAN CREEK DR","BUFFALO GROVE","IL",60089,42.2070870200001,-87.95674152,392,"3230 INDIAN CREEK DR, BUFFALO GROVE, IL, 60089","Match","Exact","3230 INDIAN CREEK DR, BUFFALO GROVE, IL, 60089",119719891,"L"
510893,"3230 LAKE FOREST AVE","IOWA CITY","IA",52245,41.664786586,-91.487470823,393,"3230 LAKE FOREST AVE, IOWA CITY, IA, 52245","Match","Exact","3230 LAKE FOREST AVE, IOWA CITY, IA, 52245",84496676,"L"
510894,"3230 LITTLE REFUGE ROAD","WALESKA","GA",30114,34.3169431370001,-84.586521079,394,"3230 LITTLE REFUGE ROAD, WALESKA, GA, 30114","Match","Non_Exact","3230 LITTLE REFUGE RD, WALESKA, GA, 30183",647607380,"R"
510895,"3230 LOCKWOOD ROAD","CERES","CA",95307,37.5886261200001,-120.910861127,395,"3230 LOCKWOOD ROAD, CERES, CA, 95307","Match","Exact","3230 LOCKWOOD RD, CERES, CA, 95307",102593330,"L"
510896,"3230 MACDONALD AVENUE","RICHMOND","CA",94804,37.9344391010001,-122.338478629,396,"3230 MACDONALD AVENUE, RICHMOND, CA, 94804","Match","Exact","3230 MACDONALD AVE, RICHMOND, CA, 94804",192041092,"R"
510897,"3230 MEADWAY DR","HOUSTON","TX",77082,29.728832966,-95.6095373219999,397,"3230 MEADWAY DR, HOUSTON, TX, 77082","Match","Exact","3230 MEADWAY DR, HOUSTON, TX, 77082",96021590,"L"
510898,"3230 METAIRIE COURT PARKWAY","METAIRIE","LA",70002,30.0083366370001,-90.14766592,398,"3230 METAIRIE COURT PARKWAY, METAIRIE, LA, 70002","Match","Exact","3230 METAIRIE CT, METAIRIE, LA, 70002",93514162,"L"
510899,"3230 MINERAL RIDGE COURT","STONE MOUNTAIN","GA",30087,33.793448943,-84.086102131,399,"3230 MINERAL RIDGE COURT, STONE MOUNTAIN, GA, 30087","Match","Exact","3230 MINERAL RIDGE CT, STONE MOUNTAIN, GA, 30087",645866875,"R"
510900,"3230 N 126TH DR","AVONDALE","AZ",85392,33.4847991550001,-112.330868034,400,"3230 N 126TH DR, AVONDALE, AZ, 85392","Match","Exact","3230 N 126TH DR, AVONDALE, AZ, 85392",128847746,"L"
510901,"3230 N MEADOW BROOK DRIVE","FLAGSTAFF","AZ",86004,35.2086343290001,-111.582491059,401,"3230 N MEADOW BROOK DRIVE, FLAGSTAFF, AZ, 86004","Match","Non_Exact","3230 E MEADOW BROOK DR, FLAGSTAFF, AZ, 86004",188863465,"R"
510902,"3230 N RIVER DRIVE","EDEN","UT",84310,41.317198531,-111.842023391,402,"3230 N RIVER DRIVE, EDEN, UT, 84310","Match","Exact","3230 N RIVER DR, EDEN, UT, 84310",155687853,"R"
510903,"3230 NC HIGHWAY 111 N","GOLDSBORO","NC",27534,NA,NA,403,"3230 NC HIGHWAY 111 N, GOLDSBORO, NC, 27534","No_Match",NA,NA,NA,NA
510904,"3230 NE 104TH ST","SEATTLE","WA",98125,47.7039225710001,-122.293569774,404,"3230 NE 104TH ST, SEATTLE, WA, 98125","Match","Exact","3230 NE 104TH ST, SEATTLE, WA, 98125",186584930,"L"
510905,"3230 NW 200TH STREET","MIAMI","FL",33056,25.955690589,-80.255645248,405,"3230 NW 200TH STREET, MIAMI, FL, 33056","Match","Non_Exact","3230 200TH ST, MIAMI GARDENS, FL, 33056",116027520,"R"
510906,"3230 NW 204 TERRACE","MIAMI GARDENS","FL",33056,25.9608578350001,-80.255710202,406,"3230 NW 204 TERRACE, MIAMI GARDENS, FL, 33056","Match","Exact","3230 NW 204TH TER, MIAMI GARDENS, FL, 33056",116064618,"L"
510907,"3230 NW 4TH PLACE","FT. LAUDERDALE","FL",33311,26.1263003030001,-80.1884398409999,407,"3230 NW 4TH PLACE, FT. LAUDERDALE, FL, 33311","Match","Non_Exact","3230 NW 4TH PL, FORT LAUDERDALE, FL, 33311",114709978,"L"
510908,"3230 NW 4TH STREET APT 106","POMPANO BEACH","FL",33069,NA,NA,408,"3230 NW 4TH STREET APT 106, POMPANO BEACH, FL, 33069","No_Match",NA,NA,NA,NA
510909,"3230 NW 4THPLACE","FT LAUDERDALE","FL",33311,NA,NA,409,"3230 NW 4THPLACE, FT LAUDERDALE, FL, 33311","No_Match",NA,NA,NA,NA
510910,"3230 OLD HWY 60","RONDA","NC",28670,36.1478960600001,-80.89148327,410,"3230 OLD HWY 60, RONDA, NC, 28670","Match","Non_Exact","3230 OLD STATE HWY 60, RONDA, NC, 28670",648227964,"L"
510911,"3230 OLD STONE ROAD","STOUGHTON","WI",53589,42.880730681,-89.2566769169999,411,"3230 OLD STONE ROAD, STOUGHTON, WI, 53589","Match","Exact","3230 OLD STONE RD, STOUGHTON, WI, 53589",649745986,"R"
510912,"3230 OUTBACK LN","RENO","NV",89510,39.7159036190001,-119.632720022,412,"3230 OUTBACK LN, RENO, NV, 89510","Match","Exact","3230 OUTBACK LN, RENO, NV, 89510",107119949,"L"
510913,"3230 OVERLAND AVE 125","LOS ANGELES","CA",90034,34.028844264,-118.414766949,413,"3230 OVERLAND AVE 125, LOS ANGELES, CA, 90034","Match","Exact","3230 OVERLAND AVE, LOS ANGELES, CA, 90034",648182908,"L"
510914,"3230 PARKSIDE CENTER CIR","TAMPA","FL",33619,27.973195682,-82.3361236539999,414,"3230 PARKSIDE CENTER CIR, TAMPA, FL, 33619","Match","Exact","3230 PARKSIDE CENTER CIR, TAMPA, FL, 33619",104668008,"L"
510915,"3230 PHEASANT DRIVE","NASHVILLE","TN",37218,NA,NA,415,"3230 PHEASANT DRIVE, NASHVILLE, TN, 37218","No_Match",NA,NA,NA,NA
510916,"3230 POSSUM RUN RD","MANSFIELD","OH",44903,40.6724305600001,-82.496413967,416,"3230 POSSUM RUN RD, MANSFIELD, OH, 44903","Match","Exact","3230 POSSUM RUN RD, MANSFIELD, OH, 44903",207217195,"L"
510917,"3230 RESERVOIR ROAD","WASHINGTON","DC",20007,38.912602081,-77.064980496,417,"3230 RESERVOIR ROAD, WASHINGTON, DC, 20007","Match","Non_Exact","3230 RESERVOIR RD NW, WASHINGTON, DC, 20007",76221249,"L"
510918,"3230 RHEIMS DRIVE","MIDLOTHIAN","TX",76065,32.4892207670001,-96.9543338189999,418,"3230 RHEIMS DRIVE, MIDLOTHIAN, TX, 76065","Match","Exact","3230 RHEIMS DR, MIDLOTHIAN, TX, 76065",648659716,"R"
510919,"3230 RIDGE RD","SPEARFISH","SD",57783,44.5063308160001,-103.912275536,419,"3230 RIDGE RD, SPEARFISH, SD, 57783","Match","Exact","3230 RIDGE RD, SPEARFISH, SD, 57783",193359930,"R"
510920,"3230 RYANS PL","LANCASTER","CA",93536,34.6719453090001,-118.189252793,420,"3230 RYANS PL, LANCASTER, CA, 93536","Match","Exact","3230 RYANS PL, LANCASTER, CA, 93536",624770189,"L"
510921,"3230 S 149TH STREET","NEW BERLIN","WI",53151,42.98607235,-88.100037593,421,"3230 S 149TH STREET, NEW BERLIN, WI, 53151","Match","Exact","3230 S 149TH ST, NEW BERLIN, WI, 53151",53822909,"L"
510922,"3230 S BIRCHETT DR","TEMPE","AZ",85282,33.393551066,-111.884342508,422,"3230 S BIRCHETT DR, TEMPE, AZ, 85282","Match","Exact","3230 S BIRCHETT DR, TEMPE, AZ, 85282",128233335,"R"
510923,"3230 S BUFFALO DR  STE 107","LAS VEGAS","NV",89117,36.130365571,-115.260975607,423,"3230 S BUFFALO DR  STE 107, LAS VEGAS, NV, 89117","Match","Non_Exact","3230 S BUFFALO DR, LAS VEGAS, NV, 89117",201861660,"L"
510924,"3230 S BUFFALO DR STE 107","LAS VEGAS","NV",89117,36.130365571,-115.260975607,424,"3230 S BUFFALO DR STE 107, LAS VEGAS, NV, 89117","Match","Non_Exact","3230 S BUFFALO DR, LAS VEGAS, NV, 89117",201861660,"L"
510925,"3230 S OCEAN BOULEVARD 306","PALM BEACH","FL",33480,26.603662593,-80.038568939,425,"3230 S OCEAN BOULEVARD 306, PALM BEACH, FL, 33480","Match","Non_Exact","3230 S OCEAN BLVD, PALM BEACH, FL, 33480",650150293,"L"
510926,"3230 SABRINA LN","FLORISSANT","MO",63031,38.828516467,-90.31801288,426,"3230 SABRINA LN, FLORISSANT, MO, 63031","Match","Exact","3230 SABRINA LN, FLORISSANT, MO, 63031",100116372,"R"
510927,"3230 SAN BRUNO AVE","SAN FRANCISCO","CA",94134,37.721078101,-122.400899871,427,"3230 SAN BRUNO AVE, SAN FRANCISCO, CA, 94134","Match","Exact","3230 SAN BRUNO AVE, SAN FRANCISCO, CA, 94134",640992571,"R"
510928,"3230 SANTA MONICA AVE","FULLERTON","CA",92835,33.9082069070001,-117.93165989,428,"3230 SANTA MONICA AVE, FULLERTON, CA, 92835","Match","Non_Exact","3230 N SANTA MONICA AVE, FULLERTON, CA, 92835",624955961,"R"
510929,"3230 SCENIC BROOK DRIVE SW","CONYERS","GA",30094,33.661055597,-84.08975724,429,"3230 SCENIC BROOK DRIVE SW, CONYERS, GA, 30094","Match","Exact","3230 SCENIC BROOK DR SW, CONYERS, GA, 30094",23745287,"L"
510930,"3230 SHADOW LAKE LANE","MATTHEWS","NC",28104,35.1410498450001,-80.631687259,430,"3230 SHADOW LAKE LANE, MATTHEWS, NC, 28104","Match","Exact","3230 SHADOW LAKE LN, MATTHEWS, NC, 28104",14198175,"R"
510931,"3230 SOUTH BUFFALO DRIVE SUITE107","LAS VEGAS","NV",89117,36.1303751340001,-115.260975607,431,"3230 SOUTH BUFFALO DRIVE SUITE107, LAS VEGAS, NV, 89117","Match","Exact","3230 S BUFFALO DR, LAS VEGAS, NV, 89117",201861660,"L"
510932,"3230 SOUTH GESSNER  NO 1311","HOUSTON","TX",77063,NA,NA,432,"3230 SOUTH GESSNER  NO 1311, HOUSTON, TX, 77063","No_Match",NA,NA,NA,NA
510933,"3230 SPECKLEBELLY DR","BAYTOWN","TX",77521,NA,NA,433,"3230 SPECKLEBELLY DR, BAYTOWN, TX, 77521","No_Match",NA,NA,NA,NA
510934,"3230 ST JAMES CHURCH RD","NEWTON","NC",28658,35.603526871,-81.191083642,434,"3230 ST JAMES CHURCH RD, NEWTON, NC, 28658","Match","Exact","3230 SAINT JAMES CHURCH RD, NEWTON, NC, 28658",45940793,"R"
510935,"3230 SUNSET DR","REDDING","CA",96001,40.586467043,-122.420004466,435,"3230 SUNSET DR, REDDING, CA, 96001","Match","Exact","3230 SUNSET DR, REDDING, CA, 96001",126626851,"R"
510936,"3230 SW ARCHER RD","GAINESVILLE","FL",32608,29.627621861,-82.3716229629999,436,"3230 SW ARCHER RD, GAINESVILLE, FL, 32608","Match","Exact","3230 SW ARCHER RD, GAINESVILLE, FL, 32608",637951885,"R"
510937,"3230 SW ARCHER ROAD APTJ247","GAINESVILLE","FL",32608,NA,NA,437,"3230 SW ARCHER ROAD APTJ247, GAINESVILLE, FL, 32608","Tie",NA,NA,NA,NA
510938,"3230 SW VERMONT ST","PORTLAND","OR",97219,45.4760840440001,-122.710166439,438,"3230 SW VERMONT ST, PORTLAND, OR, 97219","Match","Exact","3230 SW VERMONT ST, PORTLAND, OR, 97219",157500076,"L"
510939,"3230 SWEETWATER DR","CUMMING","GA",30041,34.173389725,-84.082928158,439,"3230 SWEETWATER DR, CUMMING, GA, 30041","Match","Exact","3230 SWEETWATER DR, CUMMING, GA, 30041",70184064,"R"
510940,"3230 TAR HOLLOW ROAD","MURRAYSVILLE","PA",15668,40.429008002,-79.6715508079999,440,"3230 TAR HOLLOW ROAD, MURRAYSVILLE, PA, 15668","Match","Non_Exact","3230 TARR HOLLOW RD, MURRYSVILLE, PA, 15668",53008661,"L"
510941,"3230 TUCKER POINTE DRIVE","TUCKER","GA",30084,33.8844291,-84.22128043,441,"3230 TUCKER POINTE DRIVE, TUCKER, GA, 30084","Match","Non_Exact","3230 TUCKER POINT DR, TUCKER, GA, 30084",625051255,"R"
510942,"3230 W 66TH STREET UNIT 1","CHICAGO","IL",60629,41.7735115290001,-87.7035987639999,442,"3230 W 66TH STREET UNIT 1, CHICAGO, IL, 60629","Match","Non_Exact","3230 W 66TH ST, CHICAGO, IL, 60629",111819420,"R"
510943,"3230 W SAINT PAUL AVE","MILWAUKEE","WI",53208,43.0347821450001,-87.95445497,443,"3230 W SAINT PAUL AVE, MILWAUKEE, WI, 53208","Match","Exact","3230 W ST PAUL AVE, MILWAUKEE, WI, 53208",77740051,"R"
510944,"3230 WALLACE BUIE ROAD","WEBB","AL",36376,31.2723258190001,-85.230634998,444,"3230 WALLACE BUIE ROAD, WEBB, AL, 36376","Match","Exact","3230 WALLACE BUIE RD, WEBB, AL, 36376",101206519,"L"
510945,"3230 WESSINGER ROAD","CHAPIN","SC",29036,34.1010468700001,-81.3316378979999,445,"3230 WESSINGER ROAD, CHAPIN, SC, 29036","Match","Exact","3230 WESSINGER RD, CHAPIN, SC, 29036",70047603,"L"
510946,"3230 WHITNEY","DETROIT","MI",48206,42.3613989230001,-83.108151165,446,"3230 WHITNEY, DETROIT, MI, 48206","Match","Non_Exact","3230 WHITNEY ST, DETROIT, MI, 48206",95472286,"R"
510947,"3230 WOODRIDGE AVE","CANTON","OH",44718,NA,NA,447,"3230 WOODRIDGE AVE, CANTON, OH, 44718","No_Match",NA,NA,NA,NA
510948,"3230 YAZOO CT","LAKE HAVASU CITY","AZ",86404,NA,NA,448,"3230 YAZOO CT, LAKE HAVASU CITY, AZ, 86404","No_Match",NA,NA,NA,NA
510949,"3230 YOSEMITE AVE SO","MINNEAPOLIS","MN",55416,44.9458073690001,-93.3531094159999,449,"3230 YOSEMITE AVE SO, MINNEAPOLIS, MN, 55416","Match","Exact","3230 YOSEMITE AVE S, MINNEAPOLIS, MN, 55416",43625664,"R"
510950,"32300 DETROIT AVE","AVON","OH",44011,41.4566332850001,-81.9735856889999,450,"32300 DETROIT AVE, AVON, OH, 44011","Match","Non_Exact","32300 DETROIT RD, AVON, OH, 44011",55422785,"R"
510951,"32300 SUMMERGLADE DR","WESLEY CHAPEL","FL",33545,28.2594463240001,-82.282604438,451,"32300 SUMMERGLADE DR, WESLEY CHAPEL, FL, 33545","Match","Exact","32300 SUMMERGLADE DR, WESLEY CHAPEL, FL, 33545",632019058,"R"
510952,"32301 2ND","FEDERAL WAY","WA",98023,NA,NA,452,"32301 2ND, FEDERAL WAY, WA, 98023","No_Match",NA,NA,NA,NA
510953,"32301 CUSTER ROAD","BURR OAK","MI",49030,41.919472248,-85.3253401439999,453,"32301 CUSTER ROAD, BURR OAK, MI, 49030","Match","Exact","32301 CUSTER RD, BURR OAK, MI, 49030",15315717,"R"
510954,"32302 CAMINO CAPISTRANO","SAN JUAN CAPISTRANO","CA",92675,NA,NA,454,"32302 CAMINO CAPISTRANO, SAN JUAN CAPISTRANO, CA, 92675","No_Match",NA,NA,NA,NA
510955,"32302 HICKORY LN","AVON LAKE","OH",44012,41.4960496040001,-81.996096107,455,"32302 HICKORY LN, AVON LAKE, OH, 44012","Match","Exact","32302 HICKORY LN, AVON LAKE, OH, 44012",55417764,"L"
510956,"32302 SE BROOKS RD","BORING","OR",97009,45.439909432,-122.330106197,456,"32302 SE BROOKS RD, BORING, OR, 97009","Match","Exact","32302 SE BROOKS RD, BORING, OR, 97009",633198127,"R"
510957,"32303 GUM ROAD","FRANKFORD","DE",19945,38.4909170020001,-75.184531622,457,"32303 GUM ROAD, FRANKFORD, DE, 19945","Match","Exact","32303 GUM RD, FRANKFORD, DE, 19945",648963472,"R"
510958,"32303 WATERSMEET","FULSHEAR","TX",77441,29.6810682340001,-95.9295183579999,458,"32303 WATERSMEET, FULSHEAR, TX, 77441","Match","Exact","32303 WATERSMEET, FULSHEAR, TX, 77441",78282679,"R"
510959,"32304 KEILA DRIVE","SPRINGFIELD","LA",70462,30.367409652,-90.540293198,459,"32304 KEILA DRIVE, SPRINGFIELD, LA, 70462","Match","Exact","32304 KEILA DR, SPRINGFIELD, LA, 70462",635284007,"R"
510960,"32305 LEPRECHAUN LANE","BONSALL","CA",92003,33.299000591,-117.167704823,460,"32305 LEPRECHAUN LANE, BONSALL, CA, 92003","Match","Exact","32305 LEPRECHAUN LN, BONSALL, CA, 92003",195287987,"R"
510961,"32305 NE 8TH ST","CARNATION","WA",98014,47.6153378010001,-121.908565175,461,"32305 NE 8TH ST, CARNATION, WA, 98014","Match","Exact","32305 NE 8TH ST, CARNATION, WA, 98014",239765159,"R"
510962,"32306 LINDA VISTA LANE","DANA POINT","CA",92629,33.4939927080001,-117.721340522,462,"32306 LINDA VISTA LANE, DANA POINT, CA, 92629","Match","Exact","32306 LINDA VISTA LN, DANA POINT, CA, 92629",144070402,"R"
510963,"3230SPRING HOLLOW AVE APT A","BOWLING GREEN","KY",42104,NA,NA,463,"3230SPRING HOLLOW AVE APT A, BOWLING GREEN, KY, 42104","No_Match",NA,NA,NA,NA
510964,"3231 184TH STREET APT 2B","HOMEWOOD","IL",60430,41.5553207180001,-87.694965515,464,"3231 184TH STREET APT 2B, HOMEWOOD, IL, 60430","Match","Exact","3231 184TH ST, HOMEWOOD, IL, 60430",111708848,"L"
510965,"3231 ALGO DULCE","SAN ANTONIO","TX",78211,29.324928809,-98.559968885,465,"3231 ALGO DULCE, SAN ANTONIO, TX, 78211","Match","Exact","3231 ALGO DULCE, SAN ANTONIO, TX, 78211",101543150,"R"
510966,"3231 ALLAN PLACE","HONOLULU","HI",96817,21.339778069,-157.833000757,466,"3231 ALLAN PLACE, HONOLULU, HI, 96817","Match","Exact","3231 ALLAN PL, HONOLULU, HI, 96817",203237115,"R"
510967,"3231 ALLEN PKWY APT 1106","HOUSTON","TX",77019,29.7609316680001,-95.400895242,467,"3231 ALLEN PKWY APT 1106, HOUSTON, TX, 77019","Match","Exact","3231 ALLEN PKWY, HOUSTON, TX, 77019",653285781,"L"
510968,"3231 ANNUNCIATION STREET","BATON ROUGE","LA",70115,29.920991956,-90.0856066169999,468,"3231 ANNUNCIATION STREET, BATON ROUGE, LA, 70115","Match","Non_Exact","3231 ANNUNCIATION ST, NEW ORLEANS, LA, 70115",191714922,"R"
510969,"3231 ARMOUR CT","MASON","OH",45040,39.3915150560001,-84.324790584,469,"3231 ARMOUR CT, MASON, OH, 45040","Match","Exact","3231 ARMOUR CT, MASON, OH, 45040",624931716,"R"
510970,"3231 AURBUN BLVD","FT LAUDERDALE","FL",33312,NA,NA,470,"3231 AURBUN BLVD, FT LAUDERDALE, FL, 33312","No_Match",NA,NA,NA,NA
510971,"3231 B CYPRESS PARK ROAD","GREENSBORO","NC",27407,36.030305588,-79.846097845,471,"3231 B CYPRESS PARK ROAD, GREENSBORO, NC, 27407","Match","Exact","3231 CYPRESS PARK RD, GREENSBORO, NC, 27407",131106356,"L"
510972,"3231 BANKS ROAD","BANCROFT","ID",83217,42.8799860070001,-111.929130929,472,"3231 BANKS ROAD, BANCROFT, ID, 83217","Match","Exact","3231 BANKS RD, BANCROFT, ID, 83217",130163281,"L"
510973,"3231 BAYVIEW WAY","PENSACOLA","FL",32503,30.451931862,-87.178567733,473,"3231 BAYVIEW WAY, PENSACOLA, FL, 32503","Match","Exact","3231 BAYVIEW WAY, PENSACOLA, FL, 32503",93307683,"L"
510974,"3231 BIRNAMWOOD ROAD","RALEIGH","NC",27607,35.8102474360001,-78.681459299,474,"3231 BIRNAMWOOD ROAD, RALEIGH, NC, 27607","Match","Exact","3231 BIRNAMWOOD RD, RALEIGH, NC, 27607",72501824,"L"
510975,"3231 BISHOP STREET","CINCINNATI","OH",45220,39.1392792070001,-84.5134595229999,475,"3231 BISHOP STREET, CINCINNATI, OH, 45220","Match","Exact","3231 BISHOP ST, CINCINNATI, OH, 45220",103961610,"L"
510976,"3231 BRYNMAWR DR","PORTAGE","MI",49024,42.2407034550001,-85.627783487,476,"3231 BRYNMAWR DR, PORTAGE, MI, 49024","Match","Non_Exact","3231 BRYN MAWR DR, PORTAGE, MI, 49024",12236555,"R"
510977,"3231 C BUSINESS PARK DRIVE BOX 124","VISTA","CA",92081,33.1335048130001,-117.228630156,477,"3231 C BUSINESS PARK DRIVE BOX 124, VISTA, CA, 92081","Match","Non_Exact","3231 BUS PARK DR, VISTA, CA, 92081",195420801,"R"
510978,"3231 CHAD COURT","MURFREESBORO","TN",37129,35.9110032510001,-86.417898996,478,"3231 CHAD COURT, MURFREESBORO, TN, 37129","Match","Exact","3231 CHAD CT, MURFREESBORO, TN, 37129",59040403,"R"
510979,"3231 CHARLENE AVE","CANTON","OH",44706,40.763449603,-81.3989849869999,479,"3231 CHARLENE AVE, CANTON, OH, 44706","Match","Non_Exact","3231 CHARLENE AVE SW, CANTON, OH, 44706",64681524,"R"
510980,"3231 CLUB DRIVE","LOS ANGELES","CA",90064,34.0338789620001,-118.402016123,480,"3231 CLUB DRIVE, LOS ANGELES, CA, 90064","Match","Exact","3231 CLUB DR, LOS ANGELES, CA, 90064",141573680,"R"
510981,"3231 CONSERVATION PLACE 208","MELBOURNE","FL",32934,28.178727042,-80.677103093,481,"3231 CONSERVATION PLACE 208, MELBOURNE, FL, 32934","Match","Exact","3231 CONSERVATION PL, MELBOURNE, FL, 32934",630452814,"L"
510982,"3231 CONSERVATION PLACE","MELBOURNE","FL",32934,28.178727042,-80.677103093,482,"3231 CONSERVATION PLACE, MELBOURNE, FL, 32934","Match","Exact","3231 CONSERVATION PL, MELBOURNE, FL, 32934",630452814,"L"
510983,"3231 COPPER MILL","HENRICO","VA",23294,37.633383414,-77.55988343,483,"3231 COPPER MILL, HENRICO, VA, 23294","Match","Non_Exact","3231 COPPERMILL TRCE, HENRICO, VA, 23294",106659626,"R"
510984,"3231 CRESTVIEW DRIVE","PINEVILLE","LA",71360,31.330000968,-92.391628391,484,"3231 CRESTVIEW DRIVE, PINEVILLE, LA, 71360","Match","Exact","3231 CRESTVIEW DR, PINEVILLE, LA, 71360",11785344,"L"
510985,"3231 CURTIS DR","TYLER","TX",75701,32.3135758220001,-95.283736608,485,"3231 CURTIS DR, TYLER, TX, 75701","Match","Exact","3231 CURTIS DR, TYLER, TX, 75701",141272285,"R"
510986,"3231 CYRESS PARK ROAD UNIT B","GREENSBORO","NC",27407,36.03030548,-79.846096215,486,"3231 CYRESS PARK ROAD UNIT B, GREENSBORO, NC, 27407","Match","Non_Exact","3231 CYPRESS PARK RD, GREENSBORO, NC, 27407",131106356,"L"
510987,"3231 DEERLANE DRIVE","DUARTE","CA",91010,34.149347532,-117.937132271,487,"3231 DEERLANE DRIVE, DUARTE, CA, 91010","Match","Exact","3231 DEERLANE DR, DUARTE, CA, 91010",142778997,"L"
510988,"3231 DOBBINS PIKE","PORTLAND","TN",37148,36.539621315,-86.411942482,488,"3231 DOBBINS PIKE, PORTLAND, TN, 37148","Match","Exact","3231 DOBBINS PIKE, PORTLAND, TN, 37148",624869829,"L"
510989,"3231 E 67TH WAY","LONG BEACH","CA",90805,33.8774312350001,-118.155192595,489,"3231 E 67TH WAY, LONG BEACH, CA, 90805","Match","Exact","3231 E 67TH WAY, LONG BEACH, CA, 90805",141698655,"L"
510990,"3231 E CAPITOL AVENUE","BISMARCK","ND",58501,46.8252886390001,-100.742124299,490,"3231 E CAPITOL AVENUE, BISMARCK, ND, 58501","Match","Exact","3231 E CAPITOL AVE, BISMARCK, ND, 58501",639856015,"L"
510991,"3231 E FOREST LAKE DRIVE","SARASOTA","FL",34232,27.3051657510001,-82.490598113,491,"3231 E FOREST LAKE DRIVE, SARASOTA, FL, 34232","Match","Exact","3231 E FOREST LAKE DR, SARASOTA, FL, 34232",16353468,"L"
510992,"3231 EAST FRENCH RD","LINCOLN","MI",48742,44.706791427,-83.39244145,492,"3231 EAST FRENCH RD, LINCOLN, MI, 48742","Match","Non_Exact","3231 FRENCH RD, LINCOLN, MI, 48742",135874490,"L"
510993,"3231 ELECTRIC ROAD","ROANOKE","VA",24018,37.2295397770001,-80.0078180629999,493,"3231 ELECTRIC ROAD, ROANOKE, VA, 24018","Match","Exact","3231 ELECTRIC RD, ROANOKE, VA, 24018",62924354,"R"
510994,"3231 FARREL HILL ST","FRESNO","TX",77545,29.539690625,-95.489030187,494,"3231 FARREL HILL ST, FRESNO, TX, 77545","Match","Exact","3231 FARREL HILL ST, FRESNO, TX, 77545",635421535,"R"
510995,"3231 FOX RUN ROAD","DOVER","PA",17315,39.9848635440001,-76.822852309,495,"3231 FOX RUN ROAD, DOVER, PA, 17315","Match","Exact","3231 FOX RUN RD, DOVER, PA, 17315",88751720,"R"
510996,"3231 FOXBORO PLACE","SAN JOSE","CA",95135,37.3109002780001,-121.783730288,496,"3231 FOXBORO PLACE, SAN JOSE, CA, 95135","Match","Exact","3231 FOXBORO PL, SAN JOSE, CA, 95135",122918229,"L"
510997,"3231 GOLDENEYE PLACE","SUPERIOR","CO",80027,39.9235928850001,-105.149894388,497,"3231 GOLDENEYE PLACE, SUPERIOR, CO, 80027","Match","Exact","3231 GOLDENEYE PL, SUPERIOR, CO, 80027",188190847,"R"
510998,"3231 HARTSHIRE S DRIVE APT 1","BARGERSVILLE","IN",46106,39.549402849,-86.162930812,498,"3231 HARTSHIRE S DRIVE APT 1, BARGERSVILLE, IN, 46106","Match","Exact","3231 HARTSHIRE S DR, BARGERSVILLE, IN, 46106",624660579,"R"
510999,"3231 HEARTHRIDGE CIRCLE","COLORADO SPRINGS","CO",80916,38.924119982,-104.766423436,499,"3231 HEARTHRIDGE CIRCLE, COLORADO SPRINGS, CO, 80916","Match","Non_Exact","3231 HEARTHRIDGE CIR, COLO SPGS, CO, 80918",105574244,"R"
511000,"3231 HIDDEN ACRES","CATLETTSBURG","KY",41129,38.417788026,-82.658563126,500,"3231 HIDDEN ACRES, CATLETTSBURG, KY, 41129","Match","Non_Exact","3231 HIDDEN ACRES RD, CATLETTSBURG, KY, 41129",151047659,"L"
