"ID","Address","City","State","Zip","lat","long","id","input_address","match_indicator","match_type","matched_address","tiger_line_id","tiger_side"
294501,"1935 W 4700 S STE 545","SALT LAKE CITY","UT",84129,NA,NA,1,"1935 W 4700 S STE 545, SALT LAKE CITY, UT, 84129","No_Match",NA,NA,NA,NA
294502,"1935 W KENT ROAD","DULUTH","MN",55812,46.8137886310001,-92.085804545,2,"1935 W KENT ROAD, DULUTH, MN, 55812","Match","Exact","1935 W KENT RD, DULUTH, MN, 55812",163211783,"L"
294503,"1935 W MILWAUKEE ST","STOUGHTON","WI",53589,42.911176122,-89.244353497,3,"1935 W MILWAUKEE ST, STOUGHTON, WI, 53589","Match","Exact","1935 W MILWAUKEE ST, STOUGHTON, WI, 53589",640846900,"L"
294504,"1935 W ODESSA CT","NAMPA","ID",83686,43.5524559720001,-116.603971981,4,"1935 W ODESSA CT, NAMPA, ID, 83686","Match","Non_Exact","1935 W ODESSA AVE, NAMPA, ID, 83686",627043319,"L"
294505,"1935 W OLD SHAKOPEE RD APT 12","BLOOMINGTON","MN",55431,44.8218059260001,-93.304606967,5,"1935 W OLD SHAKOPEE RD APT 12, BLOOMINGTON, MN, 55431","Match","Non_Exact","1935 W OLD SHAKOPEE RD, BLOOMINGTON, MN, 55431",653421897,"R"
294506,"1935 W SILVER SPRING DR UNIT3","MILWAUKEE","WI",53209,43.118970776,-87.9371539909999,6,"1935 W SILVER SPRING DR UNIT3, MILWAUKEE, WI, 53209","Match","Non_Exact","1935 W SILVER SPRING DR, MILWAUKEE, WI, 53209",77735762,"L"
294507,"1935 W SUPERIOR ST","CHICAGO","IL",60622,41.8950124510001,-87.6755027629999,7,"1935 W SUPERIOR ST, CHICAGO, IL, 60622","Match","Exact","1935 W SUPERIOR ST, CHICAGO, IL, 60622",111764780,"L"
294508,"1935 WASHINGTON AVE","BRONX","NY",10456,40.8477691190001,-73.897652753,8,"1935 WASHINGTON AVE, BRONX, NY, 10456","Match","Non_Exact","1935 WASHINGTON AVE, BRONX, NY, 10457",80311697,"L"
294509,"1935 WENTON WAY","LAWRENCEVILLE","MD",30078,NA,NA,9,"1935 WENTON WAY, LAWRENCEVILLE, MD, 30078","No_Match",NA,NA,NA,NA
294510,"1935 WEST 77TH STREET","LOS ANGELES","CA",90047,33.969982411,-118.311986129,10,"1935 WEST 77TH STREET, LOS ANGELES, CA, 90047","Match","Exact","1935 W 77TH ST, LOS ANGELES, CA, 90047",141658613,"R"
294511,"1935 WOODLAND RD","SAPULPA","OK",74066,35.982693747,-96.088913272,11,"1935 WOODLAND RD, SAPULPA, OK, 74066","Match","Exact","1935 WOODLAND RD, SAPULPA, OK, 74066",635496720,"R"
294512,"1935 YATES AVENUE","BRONX","NY",10461,40.8533705940001,-73.852589957,12,"1935 YATES AVENUE, BRONX, NY, 10461","Match","Exact","1935 YATES AVE, BRONX, NY, 10461",80305224,"L"
294513,"19350 ALCOY","DETROIT","MI",48205,42.437259211,-82.988853376,13,"19350 ALCOY, DETROIT, MI, 48205","Match","Non_Exact","19350 ALCOY AVE, DETROIT, MI, 48205",95467680,"R"
294514,"19350 M140","SOUTH HAVEN","MI",49090,NA,NA,14,"19350 M140, SOUTH HAVEN, MI, 49090","No_Match",NA,NA,NA,NA
294515,"19350 S YALE AVE","MOUNDS","OK",74047,35.879368534,-95.9261082199999,15,"19350 S YALE AVE, MOUNDS, OK, 74047","Match","Exact","19350 S YALE AVE, MOUNDS, OK, 74047",652814411,"R"
294516,"19350 SHERMAN WAY UNIT 333","RESEDA","CA",91335,34.200973262,-118.554607042,16,"19350 SHERMAN WAY UNIT 333, RESEDA, CA, 91335","Match","Exact","19350 SHERMAN WAY, RESEDA, CA, 91335",141553685,"L"
294517,"19350 WARD STREET 21","HUNTINGTON BEACH","CA",92646,33.680667011,-117.945270245,17,"19350 WARD STREET 21, HUNTINGTON BEACH, CA, 92646","Match","Non_Exact","19350 S WARD ST, HUNTINGTON BEACH, CA, 92646",640192929,"L"
294518,"19350 WARD STREET 45","HUNTINGTON BEACH","CA",92646,33.680667011,-117.945270245,18,"19350 WARD STREET 45, HUNTINGTON BEACH, CA, 92646","Match","Non_Exact","19350 S WARD ST, HUNTINGTON BEACH, CA, 92646",640192929,"L"
294519,"19351 GERMAIN STREET","NORTHRIDGE","CA",91326,34.2609591340001,-118.55487691,19,"19351 GERMAIN STREET, NORTHRIDGE, CA, 91326","Match","Exact","19351 GERMAIN ST, NORTHRIDGE, CA, 91326",141539480,"R"
294520,"19351 JEFFERSON ROAD","FREEDOM","OK",73842,36.841212609,-99.108761763,20,"19351 JEFFERSON ROAD, FREEDOM, OK, 73842","Match","Exact","19351 JEFFERSON RD, FREEDOM, OK, 73842",161168095,"L"
294521,"19351 RENWOOD ST","EUCLID","OH",44119,41.5916552960001,-81.544378695,21,"19351 RENWOOD ST, EUCLID, OH, 44119","Match","Non_Exact","19351 RENWOOD AVE, EUCLID, OH, 44119",61108095,"L"
294522,"19351 SW 118TH COURT","MIAMI","FL",33157,NA,NA,22,"19351 SW 118TH COURT, MIAMI, FL, 33157","No_Match",NA,NA,NA,NA
294523,"19351 W ASHLEY DR","BUCKEYE","AZ",85326,NA,NA,23,"19351 W ASHLEY DR, BUCKEYE, AZ, 85326","No_Match",NA,NA,NA,NA
294524,"19351 W WASHINGTON ST","GRAYSLAKE","IL",60030,42.360554376,-88.009877952,24,"19351 W WASHINGTON ST, GRAYSLAKE, IL, 60030","Match","Exact","19351 WASHINGTON ST, GRAYSLAKE, IL, 60030",119750510,"R"
294525,"19352 STATE HWY 156","LA PLATA","MO",63549,40.0253590470001,-92.672479724,25,"19352 STATE HWY 156, LA PLATA, MO, 63549","Match","Exact","19352 STATE HWY 156, LA PLATA, MO, 63549",24959700,"L"
294526,"19353 BRIAR DRIVE","BLOOMINGTON","IL",61705,40.4209711230001,-88.8948986519999,26,"19353 BRIAR DRIVE, BLOOMINGTON, IL, 61705","Match","Exact","19353 BRIAR DR, BLOOMINGTON, IL, 61705",20588294,"R"
294527,"19353 OAKWOOD AVE","COUNTRY CLUB HILLS","IL",60478,41.537270902,-87.7140556859999,27,"19353 OAKWOOD AVE, COUNTRY CLUB HILLS, IL, 60478","Match","Exact","19353 OAKWOOD AVE, COUNTRY CLUB HILLS, IL, 60478",111707756,"L"
294528,"19354 JAS COUZENS","DETROIT","MI",48235,NA,NA,28,"19354 JAS COUZENS, DETROIT, MI, 48235","No_Match",NA,NA,NA,NA
294529,"19355 AVENUE 24","CHOWCHILLA","CA",93610,37.0981967600001,-120.195936701,29,"19355 AVENUE 24, CHOWCHILLA, CA, 93610","Match","Exact","19355 AVE 24, CHOWCHILLA, CA, 93610",102345805,"L"
294530,"19355 NE 10TH AVE APT 311","MIAMI","FL",33179,NA,NA,30,"19355 NE 10TH AVE APT 311, MIAMI, FL, 33179","No_Match",NA,NA,NA,NA
294531,"19355 PINE GLEN DRIVE","FORT MYERS","FL",33967,26.456950664,-81.795597248,31,"19355 PINE GLEN DRIVE, FORT MYERS, FL, 33967","Match","Exact","19355 PINE GLEN DR, FORT MYERS, FL, 33967",118169082,"L"
294532,"19356 CONWAY HILL RD","MOUNT VERNON","WA",98274,48.337342021,-122.325434686,32,"19356 CONWAY HILL RD, MOUNT VERNON, WA, 98274","Match","Exact","19356 CONWAY HILL RD, MOUNT VERNON, WA, 98274",183655430,"L"
294533,"19356 EMBERS AVENUE","FARMINGTON","MN",55024,44.669891642,-93.16317867,33,"19356 EMBERS AVENUE, FARMINGTON, MN, 55024","Match","Exact","19356 EMBERS AVE, FARMINGTON, MN, 55024",645551987,"L"
294534,"19357 GLASTONBURY","DETROIT","MI",48219,42.4327451400001,-83.223094321,34,"19357 GLASTONBURY, DETROIT, MI, 48219","Match","Non_Exact","19357 GLASTONBURY RD, DETROIT, MI, 48219",95422585,"L"
294535,"19357 NW 62 AVE","MIAMI","FL",33015,NA,NA,35,"19357 NW 62 AVE, MIAMI, FL, 33015","No_Match",NA,NA,NA,NA
294536,"19357 RAVENHILL ROAD","HIDDEN VALLEY LAKE","CA",95467,38.8180157310001,-122.551958356,36,"19357 RAVENHILL ROAD, HIDDEN VALLEY LAKE, CA, 95467","Match","Exact","19357 RAVENHILL RD, HIDDEN VALLEY LAKE, CA, 95467",67039938,"L"
294537,"19358 AMERICAN","DETROIT","MI",48204,NA,NA,37,"19358 AMERICAN, DETROIT, MI, 48204","No_Match",NA,NA,NA,NA
294538,"19358 SARATOGA-LOS RD","SARATOGA","CA",95070,NA,NA,38,"19358 SARATOGA-LOS RD, SARATOGA, CA, 95070","No_Match",NA,NA,NA,NA
294539,"19359 CIRCLE GATE DRIVE","GERMANTOWN","MD",20874,39.172585956,-77.2672282089999,39,"19359 CIRCLE GATE DRIVE, GERMANTOWN, MD, 20874","Match","Exact","19359 CIRCLE GATE DR, GERMANTOWN, MD, 20874",62046026,"L"
294540,"19359 LANGE RD","WHITE OWL","SD",57792,44.594541963,-102.442073539,40,"19359 LANGE RD, WHITE OWL, SD, 57792","Match","Exact","19359 LANGE RD, WHITE OWL, SD, 57792",200931296,"L"
294541,"19359 SW 24 STREET","MIRAMAR","FL",33029,25.9862780780001,-80.404729253,41,"19359 SW 24 STREET, MIRAMAR, FL, 33029","Match","Exact","19359 SW 24TH ST, MIRAMAR, FL, 33029",114816953,"R"
294542,"1936 134TH STREET","COMPTON","CA",90222,33.9107324240001,-118.253799121,42,"1936 134TH STREET, COMPTON, CA, 90222","Match","Non_Exact","1936 W 134TH ST, COMPTON, CA, 90222",141673836,"L"
294543,"1936 13TH ST N","ARLINGTON","VA",22201,38.888833312,-77.081178512,43,"1936 13TH ST N, ARLINGTON, VA, 22201","Match","Exact","1936 13TH ST N, ARLINGTON, VA, 22201",650102780,"L"
294544,"1936 15TH STREET  APT","SAN FRANCISCO","CA",94114,37.7662165470001,-122.427485377,44,"1936 15TH STREET  APT, SAN FRANCISCO, CA, 94114","Match","Exact","1936 15TH ST, SAN FRANCISCO, CA, 94114",652200841,"R"
294545,"1936 19TH AVE","VERO BEACH","FL",32960,27.636782758,-80.4044991769999,45,"1936 19TH AVE, VERO BEACH, FL, 32960","Match","Exact","1936 19TH AVE, VERO BEACH, FL, 32960",610941039,"R"
294546,"1936 26 AVENUE COURT","GREELEY","CO",80634,40.4083286050001,-104.72255368,46,"1936 26 AVENUE COURT, GREELEY, CO, 80634","Match","Exact","1936 26TH AVENUE CT, GREELEY, CO, 80634",188676136,"L"
294547,"1936 268TH ST","DENVER","IA",50622,42.6604890780001,-92.3682581149999,47,"1936 268TH ST, DENVER, IA, 50622","Match","Exact","1936 268TH ST, DENVER, IA, 50622",641056209,"L"
294548,"1936 45TH TERRACE SW","NAPLES","FL",34116,26.1919620840001,-81.698217487,48,"1936 45TH TERRACE SW, NAPLES, FL, 34116","Match","Exact","1936 45TH TER SW, NAPLES, FL, 34116",115229512,"R"
294549,"1936 45TH TERRACE","NAPLES","FL",34116,26.1919620840001,-81.698217487,49,"1936 45TH TERRACE, NAPLES, FL, 34116","Match","Non_Exact","1936 45TH TER SW, NAPLES, FL, 34116",115229512,"R"
294550,"1936 55TH AVE S","FARGO","ND",58104,46.800968943,-96.811372722,50,"1936 55TH AVE S, FARGO, ND, 58104","Match","Exact","1936 55TH AVE S, FARGO, ND, 58104",151455226,"R"
294551,"1936 5TH AVE","PITTSBURGH","PA",15219,40.438274156,-79.9787497889999,51,"1936 5TH AVE, PITTSBURGH, PA, 15219","Match","Exact","1936 5TH AVE, PITTSBURGH, PA, 15219",639088840,"R"
294552,"1936 7TH STREET","SARASOTA","FL",34236,27.342137431,-82.531993416,52,"1936 7TH STREET, SARASOTA, FL, 34236","Match","Exact","1936 7TH ST, SARASOTA, FL, 34236",16349544,"R"
294553,"1936 ALICE DR","PENNGROVE","CA",94951,38.3281937150001,-122.668906323,53,"1936 ALICE DR, PENNGROVE, CA, 94951","Match","Exact","1936 ALICE DR, PENNGROVE, CA, 94951",67499811,"L"
294554,"1936 AMITY HILL COURT","RALEIGH","NC",27612,35.867386723,-78.6753943159999,54,"1936 AMITY HILL COURT, RALEIGH, NC, 27612","Match","Exact","1936 AMITY HILL CT, RALEIGH, NC, 27612",72622151,"L"
294555,"1936 BENTON ST","ST LOUIS","MO",63106,38.6481704940001,-90.202611631,55,"1936 BENTON ST, ST LOUIS, MO, 63106","Match","Exact","1936 BENTON ST, SAINT LOUIS, MO, 63106",107604287,"L"
294556,"1936 BLAINE AVE","SALT LAKE CITY","UT",84108,40.732891755,-111.835388126,56,"1936 BLAINE AVE, SALT LAKE CITY, UT, 84108","Match","Exact","1936 BLAINE AVE, SALT LAKE CITY, UT, 84108",176081661,"R"
294557,"1936 BROOKHAVEN PL","ATWATER","CA",95301,37.3444601750001,-120.573202563,57,"1936 BROOKHAVEN PL, ATWATER, CA, 95301","Match","Exact","1936 BROOKHAVEN PL, ATWATER, CA, 95301",614115857,"L"
294558,"1936 BRUCE B DOWNS 163","WESLEY CHAPEL","FL",33543,NA,NA,58,"1936 BRUCE B DOWNS 163, WESLEY CHAPEL, FL, 33543","No_Match",NA,NA,NA,NA
294559,"1936 BRUCE B DOWNS BLVD 112","WESLEY CHAPEL","FL",33543,NA,NA,59,"1936 BRUCE B DOWNS BLVD 112, WESLEY CHAPEL, FL, 33543","Tie",NA,NA,NA,NA
294560,"1936 BRUCE B DOWNS BLVD 163","WESLEY CHAPEL","FL",33543,NA,NA,60,"1936 BRUCE B DOWNS BLVD 163, WESLEY CHAPEL, FL, 33543","Tie",NA,NA,NA,NA
294561,"1936 BRUCE B DOWNS BLVD BOX 112","WESLEY CHAPEL","FL",33543,NA,NA,61,"1936 BRUCE B DOWNS BLVD BOX 112, WESLEY CHAPEL, FL, 33543","Tie",NA,NA,NA,NA
294562,"1936 BRUCE B DOWNS BLVD STE 326","WESLEY CHAPEL","FL",33544,NA,NA,62,"1936 BRUCE B DOWNS BLVD STE 326, WESLEY CHAPEL, FL, 33544","Tie",NA,NA,NA,NA
294563,"1936 BRUCE B DOWNS BLVD","WESLEY CHAPEL","FL",33544,NA,NA,63,"1936 BRUCE B DOWNS BLVD, WESLEY CHAPEL, FL, 33544","Tie",NA,NA,NA,NA
294564,"1936 BURCHSTONE DRIVE","ORLANDO","FL",32806,28.5196470490001,-81.346720868,64,"1936 BURCHSTONE DRIVE, ORLANDO, FL, 32806","Match","Exact","1936 BURCHSTONE DR, ORLANDO, FL, 32806",606109467,"R"
294565,"1936 BURWELL ST","BREMERTON","WA",98337,47.5650987700001,-122.644133537,65,"1936 BURWELL ST, BREMERTON, WA, 98337","Match","Exact","1936 BURWELL ST, BREMERTON, WA, 98337",187641751,"R"
294566,"1936 CABALLERO WAY","LAS VEGAS","NV",89169,36.132744152,-115.125009173,66,"1936 CABALLERO WAY, LAS VEGAS, NV, 89169","Match","Exact","1936 CABALLERO WAY, LAS VEGAS, NV, 89169",201871033,"L"
294567,"1936 CAMBRIDGE LANE","MONTGOMERY","IL",60538,41.7231552320001,-88.4097599139999,67,"1936 CAMBRIDGE LANE, MONTGOMERY, IL, 60538","Match","Exact","1936 CAMBRIDGE LN, MONTGOMERY, IL, 60538",119564034,"R"
294568,"1936 CASTLEBERRY WAY","BIRMINGHAM","AL",35214,33.545846823,-86.864495542,68,"1936 CASTLEBERRY WAY, BIRMINGHAM, AL, 35214","Match","Exact","1936 CASTLEBERRY WAY, BIRMINGHAM, AL, 35214",81725059,"L"
294569,"1936 CEDAR CREST BLVD","DALLAS","TX",75203,32.726384959,-96.7964662319999,69,"1936 CEDAR CREST BLVD, DALLAS, TX, 75203","Match","Exact","1936 CEDAR CREST BLVD, DALLAS, TX, 75203",102950044,"R"
294570,"1936 CHESTNUT COURT","MUNSTER","IN",46321,41.5503841080001,-87.481939214,70,"1936 CHESTNUT COURT, MUNSTER, IN, 46321","Match","Exact","1936 CHESTNUT CT, MUNSTER, IN, 46321",98421430,"R"
294571,"1936 CLAUDINE","ST. LOUIS","MO",63138,38.778778802,-90.232566559,71,"1936 CLAUDINE, ST. LOUIS, MO, 63138","Match","Non_Exact","1936 CLAUDINE DR, SAINT LOUIS, MO, 63138",100148828,"L"
294572,"1936 COYOTE RIDGE","LAS CRUCES","NM",88011,32.343294401,-106.734873651,72,"1936 COYOTE RIDGE, LAS CRUCES, NM, 88011","Match","Non_Exact","1936 COYOTE RIDGE DR, LAS CRUCES, NM, 88011",612720385,"R"
294573,"1936 DALY AVENUE","NEW YORK","NY",10460,40.841376316,-73.884151913,73,"1936 DALY AVENUE, NEW YORK, NY, 10460","Match","Non_Exact","1936 DALY AVE, BRONX, NY, 10460",80301856,"R"
294574,"1936 DAY BREAK DRIVE","LANCASTER","TX",75146,NA,NA,74,"1936 DAY BREAK DRIVE, LANCASTER, TX, 75146","No_Match",NA,NA,NA,NA
294575,"1936 DROLLINGER ST","WICHITA","KS",67218,37.6582726520001,-97.266697447,75,"1936 DROLLINGER ST, WICHITA, KS, 67218","Match","Exact","1936 DROLLINGER ST, WICHITA, KS, 67218",115651458,"L"
294576,"1936 DUNEDIN DRIVE","OLD HICKORY","TN",37138,36.2033487590001,-86.572105906,76,"1936 DUNEDIN DRIVE, OLD HICKORY, TN, 37138","Match","Exact","1936 DUNEDIN DR, OLD HICKORY, TN, 37138",89699315,"R"
294577,"1936 E BELL AVE","DES MOINES","IA",50320,41.5625778360001,-93.5890053539999,77,"1936 E BELL AVE, DES MOINES, IA, 50320","Match","Exact","1936 E BELL AVE, DES MOINES, IA, 50320",65791476,"L"
294578,"1936 EAST CEDAR ST","SPRINGFIELD","IL",62703,39.785173451,-89.62893826,78,"1936 EAST CEDAR ST, SPRINGFIELD, IL, 62703","Match","Exact","1936 E CEDAR ST, SPRINGFIELD, IL, 62703",97325903,"R"
294579,"1936 EASTRIDGE CIRCLE","MADISON","MS",39110,NA,NA,79,"1936 EASTRIDGE CIRCLE, MADISON, MS, 39110","No_Match",NA,NA,NA,NA
294580,"1936 EMERYVILE CT","CHULA VISTA","CA",91913,32.637441951,-116.977758668,80,"1936 EMERYVILE CT, CHULA VISTA, CA, 91913","Match","Non_Exact","1936 EMERYVILLE CT, CHULA VISTA, CA, 91913",195764971,"R"
294581,"1936 FM 1643","WINNSBORO","TX",75494,32.882608529,-95.371540689,81,"1936 FM 1643, WINNSBORO, TX, 75494","Match","Exact","1936 FM 1643, WINNSBORO, TX, 75494",42997928,"R"
294582,"1936 FM 2610","LIVINGSTON","TX",77351,30.534666917,-94.823992685,82,"1936 FM 2610, LIVINGSTON, TX, 77351","Match","Exact","1936 FM 2610, LIVINGSTON, TX, 77351",23224645,"L"
294583,"1936 FOREST LANE","PACIFIC","MO",63069,38.47257918,-90.765303017,83,"1936 FOREST LANE, PACIFIC, MO, 63069","Match","Non_Exact","1936 S FOREST LN, PACIFIC, MO, 63069",99744654,"L"
294584,"1936 GASTON STREET","WINSTON SALEM","NC",27103,36.082454683,-80.2683723219999,84,"1936 GASTON STREET, WINSTON SALEM, NC, 27103","Match","Exact","1936 GASTON ST, WINSTON SALEM, NC, 27103",84609995,"L"
294585,"1936 GEORGETOWN LN UNIT 1","SCHAUMBURG","IL",60169,42.060460537,-88.128094421,85,"1936 GEORGETOWN LN UNIT 1, SCHAUMBURG, IL, 60169","Match","Non_Exact","1936 GEORGETOWN LN, HOFFMAN EST, IL, 60169",112358818,"L"
294586,"1936 GEORGETOWN LN UNIT 2","SCHAUMBURG","IL",60169,42.060460537,-88.128094421,86,"1936 GEORGETOWN LN UNIT 2, SCHAUMBURG, IL, 60169","Match","Non_Exact","1936 GEORGETOWN LN, HOFFMAN EST, IL, 60169",112358818,"L"
294587,"1936 GEORGETOWN LN UNIT 3","SCHAUMBURG","IL",60169,42.060460537,-88.128094421,87,"1936 GEORGETOWN LN UNIT 3, SCHAUMBURG, IL, 60169","Match","Non_Exact","1936 GEORGETOWN LN, HOFFMAN EST, IL, 60169",112358818,"L"
294588,"1936 GEORGETOWN LN","SCHAUMBURG","IL",60169,42.060460537,-88.128094421,88,"1936 GEORGETOWN LN, SCHAUMBURG, IL, 60169","Match","Non_Exact","1936 GEORGETOWN LN, HOFFMAN EST, IL, 60169",112358818,"L"
294589,"1936 GLADSTONE","OTTUMWA","IA",52501,41.006503894,-92.452269778,89,"1936 GLADSTONE, OTTUMWA, IA, 52501","Match","Non_Exact","1936 GLADSTONE ST, OTTUMWA, IA, 52501",89622714,"L"
294590,"1936 GOULSON AVE","WARREN","MI",48091,42.4602121180001,-83.083324708,90,"1936 GOULSON AVE, WARREN, MI, 48091","Match","Exact","1936 GOULSON AVE, WARREN, MI, 48091",110669713,"R"
294591,"1936 GRAND FIR DRIVE","LITTLE ELM","TX",75068,33.1784300780001,-96.907765325,91,"1936 GRAND FIR DRIVE, LITTLE ELM, TX, 75068","Match","Exact","1936 GRAND FIR DR, LITTLE ELM, TX, 75068",634085116,"R"
294592,"1936 GREENSBORO ROAD","EUPORA","MS",39744,NA,NA,92,"1936 GREENSBORO ROAD, EUPORA, MS, 39744","No_Match",NA,NA,NA,NA
294593,"1936 HARBOUR INLET DRIVE","FORT LAUDERDALE","FL",33316,NA,NA,93,"1936 HARBOUR INLET DRIVE, FORT LAUDERDALE, FL, 33316","No_Match",NA,NA,NA,NA
294594,"1936 HIGHLAND AVE","NORTHBROOK","IL",60062,42.1178397840001,-87.864120913,94,"1936 HIGHLAND AVE, NORTHBROOK, IL, 60062","Match","Exact","1936 HIGHLAND AVE, NORTHBROOK, IL, 60062",111881894,"R"
294595,"1936 HOOVER AVENUE","OAKLAND","CA",94602,37.810968356,-122.20885228,95,"1936 HOOVER AVENUE, OAKLAND, CA, 94602","Match","Exact","1936 HOOVER AVE, OAKLAND, CA, 94602",125049978,"L"
294596,"1936 HORRELL HILL RD","HOPKINS","SC",29061,33.9165356120001,-80.866660155,96,"1936 HORRELL HILL RD, HOPKINS, SC, 29061","Match","Exact","1936 HORRELL HILL RD, HOPKINS, SC, 29061",71831809,"L"
294597,"1936 JASMINE STREET","EL CAJON","CA",92021,32.8205158700001,-116.915606419,97,"1936 JASMINE STREET, EL CAJON, CA, 92021","Match","Exact","1936 JASMINE ST, EL CAJON, CA, 92021",195333114,"L"
294598,"1936 KILARNEY AVE","MEMPHIS","TN",38116,34.998359066,-89.998677457,98,"1936 KILARNEY AVE, MEMPHIS, TN, 38116","Match","Exact","1936 KILARNEY AVE, MEMPHIS, TN, 38116",72923148,"L"
294599,"1936 LAPALOMA STREET","MEMPHIS","TN",38114,35.09256377,-89.998629358,99,"1936 LAPALOMA STREET, MEMPHIS, TN, 38114","Match","Exact","1936 LAPALOMA ST, MEMPHIS, TN, 38114",72917521,"L"
294600,"1936 LIMESTONE ROAD","BARTLESLVILLE","OK",74006,36.7229688410001,-95.9303361189999,100,"1936 LIMESTONE ROAD, BARTLESLVILLE, OK, 74006","Match","Non_Exact","1936 LIMESTONE CT, BARTLESVILLE, OK, 74006",18709199,"R"
294601,"1936 MANTON STREET","MAPLEWOOD","MN",55109,44.9997821440001,-93.039296157,101,"1936 MANTON STREET, MAPLEWOOD, MN, 55109","Match","Exact","1936 MANTON ST, MAPLEWOOD, MN, 55109",97651237,"R"
294602,"1936 MICHIGAN AVE","E LIVERPOOL","OH",43920,40.6377259120001,-80.530475087,102,"1936 MICHIGAN AVE, E LIVERPOOL, OH, 43920","Match","Exact","1936 MICHIGAN AVE, EAST LIVERPOOL, OH, 43920",63637403,"R"
294603,"1936 MIDAS DRIVE","WINNEMUCCA","NV",89445,40.960740564,-117.720274467,103,"1936 MIDAS DRIVE, WINNEMUCCA, NV, 89445","Match","Exact","1936 MIDAS DR, WINNEMUCCA, NV, 89445",170953127,"R"
294604,"1936 MINTON ST","MURPHYSBORO","IL",62966,37.7723924000001,-89.345124589,104,"1936 MINTON ST, MURPHYSBORO, IL, 62966","Match","Exact","1936 MINTON ST, MURPHYSBORO, IL, 62966",95062813,"R"
294605,"1936 MOUNT SHASTA DRIVE","SAN PEDRO","CA",90732,33.762269824,-118.303725013,105,"1936 MOUNT SHASTA DRIVE, SAN PEDRO, CA, 90732","Match","Exact","1936 MOUNT SHASTA DR, SAN PEDRO, CA, 90732",141688951,"R"
294606,"1936 MYRTLEDALE AVE","BATON ROUGE","LA",70808,30.418223873,-91.15714522,106,"1936 MYRTLEDALE AVE, BATON ROUGE, LA, 70808","Match","Exact","1936 MYRTLEDALE AVE, BATON ROUGE, LA, 70808",92184604,"R"
294607,"1936 N 5TH ST","HARRISBURG","PA",17102,40.2784673150001,-76.891183288,107,"1936 N 5TH ST, HARRISBURG, PA, 17102","Match","Exact","1936 N 5TH ST, HARRISBURG, PA, 17102",627070187,"L"
294608,"1936 N CLARK APT 301","CHICAGO","IL",60614,NA,NA,108,"1936 N CLARK APT 301, CHICAGO, IL, 60614","No_Match",NA,NA,NA,NA
294609,"1936 N MADISON STREET","WICHITA","KS",67214,37.7179955230001,-97.310460798,109,"1936 N MADISON STREET, WICHITA, KS, 67214","Match","Exact","1936 N MADISON ST, WICHITA, KS, 67214",115636324,"R"
294610,"1936 NIEWOEHNER ROAD","RICHMOND","IN",47374,39.8035982500001,-84.850797024,110,"1936 NIEWOEHNER ROAD, RICHMOND, IN, 47374","Match","Exact","1936 NIEWOEHNER RD, RICHMOND, IN, 47374",31338067,"L"
294611,"1936 NORTH BUCKEYE","KOKOMO","IN",46901,40.5034814410001,-86.1322187919999,111,"1936 NORTH BUCKEYE, KOKOMO, IN, 46901","Match","Non_Exact","1936 N BUCKEYE ST, KOKOMO, IN, 46901",27262401,"R"
294612,"1936 NORTH STREET","NACOGDOCHES","TX",75962,31.6216392420001,-94.6524697789999,112,"1936 NORTH STREET, NACOGDOCHES, TX, 75962","Match","Non_Exact","1936 NORTH ST, NACOGDOCHES, TX, 75965",72437069,"R"
294613,"1936 OLD DOGWOOD","JONESBORO","GA",30238,33.476417627,-84.34071763,113,"1936 OLD DOGWOOD, JONESBORO, GA, 30238","Match","Exact","1936 OLD DOGWOOD, JONESBORO, GA, 30238",629795757,"L"
294614,"1936 PALM STREET","READING","PA",19604,40.3639446240001,-75.908575521,114,"1936 PALM STREET, READING, PA, 19604","Match","Exact","1936 PALM ST, READING, PA, 19604",80377622,"L"
294615,"1936 PALMER PARK","HYATTVILLE","MD",20785,38.916809056,-76.870726592,115,"1936 PALMER PARK, HYATTVILLE, MD, 20785","Match","Non_Exact","1936 PALMER PARK RD, HYATTSVILLE, MD, 20785",76309962,"L"
294616,"1936 PEBBLE BEACH CT","LAWRENCE","KS",66047,38.9494078370001,-95.3061187549999,116,"1936 PEBBLE BEACH CT, LAWRENCE, KS, 66047","Match","Exact","1936 PEBBLE BEACH CT, LAWRENCE, KS, 66047",17690821,"L"
294617,"1936 PICKFAIR STREET","MARYLAND HEIGHTS","MO",63146,NA,NA,117,"1936 PICKFAIR STREET, MARYLAND HEIGHTS, MO, 63146","No_Match",NA,NA,NA,NA
294618,"1936 PINECREST AVE","COUPEVILLE","WA",98239,48.139175041,-122.59704383,118,"1936 PINECREST AVE, COUPEVILLE, WA, 98239","Match","Exact","1936 PINECREST AVE, COUPEVILLE, WA, 98239",187583637,"L"
294619,"1936 POLK ROAD 31","COVE","AR",71937,34.3900939580001,-94.359275727,119,"1936 POLK ROAD 31, COVE, AR, 71937","Match","Exact","1936 POLK ROAD 31, COVE, AR, 71937",34532840,"L"
294620,"1936 S 17TH VE","MAYWOOD","IL",60155,NA,NA,120,"1936 S 17TH VE, MAYWOOD, IL, 60155","No_Match",NA,NA,NA,NA
294621,"1936 S 29TH STREET","PHILADELPHIA","PA",19145,39.92948095,-75.193739286,121,"1936 S 29TH STREET, PHILADELPHIA, PA, 19145","Match","Exact","1936 S 29TH ST, PHILADELPHIA, PA, 19145",131410176,"R"
294622,"1936 S 37TH ST","OMAHA","NE",68105,41.241149019,-95.967838496,122,"1936 S 37TH ST, OMAHA, NE, 68105","Match","Exact","1936 S 37TH ST, OMAHA, NE, 68105",116984431,"R"
294623,"1936 S FAIRVIEW AVE","DECATUR","IL",62521,39.8186953680001,-88.977103013,123,"1936 S FAIRVIEW AVE, DECATUR, IL, 62521","Match","Non_Exact","1936 S FAIRVIEW RD, DECATUR, IL, 62521",20748850,"L"
294624,"1936 SANDEE CRESCENT","VIRGINS BEACH","VA",23454,36.8744759510001,-76.033365864,124,"1936 SANDEE CRESCENT, VIRGINS BEACH, VA, 23454","Match","Non_Exact","1936 SANDEE CRES, VIRGINIA BCH, VA, 23454",122261460,"R"
294625,"1936 SAVAGE ROAD","CHARLESTON","SC",29407,32.806188272,-80.027989921,125,"1936 SAVAGE ROAD, CHARLESTON, SC, 29407","Match","Exact","1936 SAVAGE RD, CHARLESTON, SC, 29407",108801176,"L"
294626,"1936 SEYMOUR AVENUE","CINCINNATI","OH",45237,39.1868863030001,-84.46052481,126,"1936 SEYMOUR AVENUE, CINCINNATI, OH, 45237","Match","Exact","1936 SEYMOUR AVE, CINCINNATI, OH, 45237",103961477,"L"
294627,"1936 STEWART DR","WARREN","OH",44485,41.2449491020001,-80.845550121,127,"1936 STEWART DR, WARREN, OH, 44485","Match","Non_Exact","1936 STEWART DR NW, WARREN, OH, 44485",117422776,"R"
294628,"1936 SUNRISE BLVD","EUGENE","OR",97405,44.0382875660001,-123.134740069,128,"1936 SUNRISE BLVD, EUGENE, OR, 97405","Match","Exact","1936 SUNRISE BLVD, EUGENE, OR, 97405",178165823,"R"
294629,"1936 SW LANE","TOPEKA","KS",66604,39.033345695,-95.695484144,129,"1936 SW LANE, TOPEKA, KS, 66604","Match","Non_Exact","1936 SW LANE ST, TOPEKA, KS, 66604",17887684,"L"
294630,"1936 TOLBERT TERRACE","CHESTER","VA",23836,37.357341009,-77.3993653749999,130,"1936 TOLBERT TERRACE, CHESTER, VA, 23836","Match","Exact","1936 TOLBERT TER, CHESTER, VA, 23836",637629207,"R"
294631,"1936 UNA CT","FREMONT","CA",94539,37.543782999,-121.953168654,131,"1936 UNA CT, FREMONT, CA, 94539","Match","Exact","1936 UNA CT, FREMONT, CA, 94539",125033183,"L"
294632,"1936 W 91ST STREET","LOS ANGELES","CA",90047,33.9545240530001,-118.312470114,132,"1936 W 91ST STREET, LOS ANGELES, CA, 90047","Match","Exact","1936 W 91ST ST, LOS ANGELES, CA, 90047",141658752,"L"
294633,"1936 W EDYTH AVE","BALDWIN","MI",49304,43.9198156590001,-85.8407541989999,133,"1936 W EDYTH AVE, BALDWIN, MI, 49304","Match","Exact","1936 W EDYTH AVE, BALDWIN, MI, 49304",150197116,"R"
294634,"1936 W FARM ROAD 56","SPRINGFIELD","MO",65803,37.341636652,-93.314151115,134,"1936 W FARM ROAD 56, SPRINGFIELD, MO, 65803","Match","Non_Exact","1936 W FARM RD 56, SPRINGFIELD, MO, 65803",605841399,"R"
294635,"1936 W MLK BLVD","TAMPA","FL",33607,27.981252087,-82.4789642549999,135,"1936 W MLK BLVD, TAMPA, FL, 33607","Match","Exact","1936 W DR MARTIN LUTHER KING JR BLVD, TAMPA, FL, 33607",104628758,"L"
294636,"1936 W SAGE","EVANSTON","WY",82930,41.2698047800001,-110.976904186,136,"1936 W SAGE, EVANSTON, WY, 82930","Match","Non_Exact","1936 W SAGE ST, EVANSTON, WY, 82930",160278504,"R"
294637,"1936 WESTERN AVENUE","NORTHBROOK","IL",60062,42.117321621,-87.839083494,137,"1936 WESTERN AVENUE, NORTHBROOK, IL, 60062","Match","Exact","1936 WESTERN AVE, NORTHBROOK, IL, 60062",111728333,"R"
294638,"1936 WILDER AVE APT 306","HONOLULU","HI",96822,21.299932439,-157.82792043,138,"1936 WILDER AVE APT 306, HONOLULU, HI, 96822","Match","Exact","1936 WILDER AVE, HONOLULU, HI, 96822",203237648,"L"
294639,"1936 WINDY HILL ROAD","SAINT LOUIS","MO",63122,38.5773009230001,-90.440511655,139,"1936 WINDY HILL ROAD, SAINT LOUIS, MO, 63122","Match","Exact","1936 WINDY HILL RD, SAINT LOUIS, MO, 63122",100128999,"L"
294640,"1936 WINFIELD AVE","INDIANAPOLIS","IN",46222,39.792439207,-86.207434372,140,"1936 WINFIELD AVE, INDIANAPOLIS, IN, 46222","Match","Exact","1936 WINFIELD AVE, INDIANAPOLIS, IN, 46222",107986050,"L"
294641,"19360 HEALY STREET","DETROIT","MI",48234,42.436435761,-83.0559438129999,141,"19360 HEALY STREET, DETROIT, MI, 48234","Match","Exact","19360 HEALY ST, DETROIT, MI, 48234",95464434,"R"
294642,"19360 INDIAN SUMMER RD","BEND","OR",97702,43.9927285840001,-121.356112465,142,"19360 INDIAN SUMMER RD, BEND, OR, 97702","Match","Exact","19360 INDIAN SUMMER RD, BEND, OR, 97702",636596599,"L"
294643,"19360 RINALDI 660","PORTER RANCH","CA",91326,34.2749289820001,-118.554723904,143,"19360 RINALDI 660, PORTER RANCH, CA, 91326","Match","Non_Exact","19360 RINALDI ST, PORTER RANCH, CA, 91326",651692730,"L"
294644,"19360 RINALDI ST 660","PORTER RANCH","CA",91326,34.2749289820001,-118.554723904,144,"19360 RINALDI ST 660, PORTER RANCH, CA, 91326","Match","Exact","19360 RINALDI ST, PORTER RANCH, CA, 91326",651692730,"L"
294645,"19360 RINALDI ST UNIT 182","PORTER RANCH","CA",91326,34.2749289820001,-118.554723904,145,"19360 RINALDI ST UNIT 182, PORTER RANCH, CA, 91326","Match","Exact","19360 RINALDI ST, PORTER RANCH, CA, 91326",651692730,"L"
294646,"19360 RINALDI ST","PORTER RANCH","CA",91326,34.2749289820001,-118.554723904,146,"19360 RINALDI ST, PORTER RANCH, CA, 91326","Match","Exact","19360 RINALDI ST, PORTER RANCH, CA, 91326",651692730,"L"
294647,"19360 RINALDI ST","PORTER RANCH","CA",91360,34.2749289820001,-118.554723904,147,"19360 RINALDI ST, PORTER RANCH, CA, 91360","Match","Non_Exact","19360 RINALDI ST, PORTER RANCH, CA, 91326",651692730,"L"
294648,"19360 RINALDI STREET 660","PORTER RANCH","CA",91326,34.2749289820001,-118.554723904,148,"19360 RINALDI STREET 660, PORTER RANCH, CA, 91326","Match","Exact","19360 RINALDI ST, PORTER RANCH, CA, 91326",651692730,"L"
294649,"19360 RINALDI STREET STE 333","PORTER RANCH","CA",91326,34.2749289820001,-118.554723904,149,"19360 RINALDI STREET STE 333, PORTER RANCH, CA, 91326","Match","Exact","19360 RINALDI ST, PORTER RANCH, CA, 91326",651692730,"L"
294650,"19360 RINALDI STREET","NORTHRIDGE","CA",91326,34.2749289820001,-118.554723904,150,"19360 RINALDI STREET, NORTHRIDGE, CA, 91326","Match","Exact","19360 RINALDI ST, NORTHRIDGE, CA, 91326",651692730,"L"
294651,"19360 SW 69 STREET","FT LAUDERDALE","FL",33332,26.030253374,-80.405713003,151,"19360 SW 69 STREET, FT LAUDERDALE, FL, 33332","Match","Exact","19360 SW 69TH ST, FORT LAUDERDALE, FL, 33332",114817030,"R"
294652,"19361 GRAY RD","YALE","VA",23897,36.815184677,-77.291942036,152,"19361 GRAY RD, YALE, VA, 23897","Match","Exact","19361 GRAY RD, YALE, VA, 23897",168082285,"L"
294653,"19361 HAZELGROVE DR","OREGON CITY","OR",97045,45.326864673,-122.624399176,153,"19361 HAZELGROVE DR, OREGON CITY, OR, 97045","Match","Non_Exact","19361 S HAZEL GROVE DR, OREGON CITY, OR, 97045",157954229,"L"
294654,"19361 MIDDLE CAMP RD UNIT 1889","TWAIN HARTE","CA",95383,NA,NA,154,"19361 MIDDLE CAMP RD UNIT 1889, TWAIN HARTE, CA, 95383","No_Match",NA,NA,NA,NA
294655,"19361 SEABISCUIT WAY","APPLE VALLEY","CA",92308,34.486364871,-117.240374436,155,"19361 SEABISCUIT WAY, APPLE VALLEY, CA, 92308","Match","Exact","19361 SEABISCUIT WAY, APPLE VALLEY, CA, 92308",638621642,"R"
294656,"19362 CANBY CT","FARMINGTON","MN",55024,44.6690977060001,-93.129294712,156,"19362 CANBY CT, FARMINGTON, MN, 55024","Match","Exact","19362 CANBY CT, FARMINGTON, MN, 55024",624698345,"L"
294657,"19362 CANDY COURT","FARMINGTON","MN",55024,44.6690977060001,-93.129294712,157,"19362 CANDY COURT, FARMINGTON, MN, 55024","Match","Non_Exact","19362 CANBY CT, FARMINGTON, MN, 55024",624698345,"L"
294658,"19362 LAMONT","DETROIT","MI",48234,42.4364681170001,-83.054955714,158,"19362 LAMONT, DETROIT, MI, 48234","Match","Non_Exact","19362 LAMONT AVE, DETROIT, MI, 48234",95464445,"R"
294659,"19362 RUFF SHORES RD","GRAND RAPIDS","MN",55744,47.1566739130001,-93.5323991229999,159,"19362 RUFF SHORES RD, GRAND RAPIDS, MN, 55744","Match","Exact","19362 RUFF SHORES RD, GRAND RAPIDS, MN, 55744",162959637,"R"
294660,"19362 W 73RD ST S","BOYNTON","OK",74422,NA,NA,160,"19362 W 73RD ST S, BOYNTON, OK, 74422","No_Match",NA,NA,NA,NA
294661,"19363 ACCLAIM  DR","SALINAS","CA",93908,36.6068474100001,-121.657138961,161,"19363 ACCLAIM  DR, SALINAS, CA, 93908","Match","Exact","19363 ACCLAIM DR, SALINAS, CA, 93908",196862882,"L"
294662,"19363 TOTEM CT","RIVERSIDE","CA",92508,33.8825117910001,-117.324588511,162,"19363 TOTEM CT, RIVERSIDE, CA, 92508","Match","Exact","19363 TOTEM CT, RIVERSIDE, CA, 92508",194836978,"R"
294663,"19364 E MESA VIEW TRAIL","KINGMAN","AZ",86401,35.1986677630001,-113.427405734,163,"19364 E MESA VIEW TRAIL, KINGMAN, AZ, 86401","Match","Exact","19364 E MESA VIEW TRL, KINGMAN, AZ, 86401",651028216,"R"
294664,"19365 ARKAY COUT","SONOMA","CA",95476,38.2951932980001,-122.482360401,164,"19365 ARKAY COUT, SONOMA, CA, 95476","Match","Non_Exact","19365 ARKAY CT, SONOMA, CA, 95476",67533000,"L"
294665,"19365 GREENS CROSSING COURT","GREAT MILLS","MD",20634,38.200914991,-76.479707562,165,"19365 GREENS CROSSING COURT, GREAT MILLS, MD, 20634","Match","Exact","19365 GREENS CROSSING CT, GREAT MILLS, MD, 20634",641811241,"R"
294666,"19366 KINENE CT","REDDING","CA",96003,40.6214253680001,-122.343175803,166,"19366 KINENE CT, REDDING, CA, 96003","Match","Exact","19366 KINENE CT, REDDING, CA, 96003",126659121,"L"
294667,"19366 WOOLWORTH AVENUE","OMAHA","NE",68130,41.2444919280001,-96.218921354,167,"19366 WOOLWORTH AVENUE, OMAHA, NE, 68130","Match","Exact","19366 WOOLWORTH AVE, OMAHA, NE, 68130",624402302,"L"
294668,"19367 CITIZENS BLVD UNIT 101","GEORGETOWN","DE",19947,38.695867664,-75.413796743,168,"19367 CITIZENS BLVD UNIT 101, GEORGETOWN, DE, 19947","Match","Exact","19367 CITIZENS BLVD, GEORGETOWN, DE, 19947",640655205,"L"
294669,"19367 E MOCKINGBIRD DR","QUEEN CREEK","AZ",85142,33.268618358,-111.665921813,169,"19367 E MOCKINGBIRD DR, QUEEN CREEK, AZ, 85142","Match","Exact","19367 E MOCKINGBIRD DR, QUEEN CREEK, AZ, 85142",244004102,"R"
294670,"19368 N LARIAT RD","MARICOPA","AZ",85138,33.0541588770001,-112.025586622,170,"19368 N LARIAT RD, MARICOPA, AZ, 85138","Match","Exact","19368 N LARIAT RD, MARICOPA, AZ, 85138",633480661,"L"
294671,"19369 INVERNESS CT","BLOOMINGTON","IL",61705,40.4195537780001,-88.894249671,171,"19369 INVERNESS CT, BLOOMINGTON, IL, 61705","Match","Exact","19369 INVERNESS CT, BLOOMINGTON, IL, 61705",20585275,"R"
294672,"1937 22ND STREET UNIT 1","SANTA MONICA","CA",90404,34.0228628310001,-118.46971071,172,"1937 22ND STREET UNIT 1, SANTA MONICA, CA, 90404","Match","Exact","1937 22ND ST, SANTA MONICA, CA, 90404",141568314,"L"
294673,"1937 315TH AVENUE","FORT MADISON","IA",52627,40.6771956530001,-91.311980702,173,"1937 315TH AVENUE, FORT MADISON, IA, 52627","Match","Exact","1937 315TH AVE, FORT MADISON, IA, 52627",635569621,"L"
294674,"1937 4TH ST","SANDUSKY","OH",44870,41.448177366,-82.680347072,174,"1937 4TH ST, SANDUSKY, OH, 44870","Match","Exact","1937 4TH ST, SANDUSKY, OH, 44870",636598598,"R"
294675,"1937 4TH STREET SE","CANTON","OH",44707,40.791156261,-81.35342191,175,"1937 4TH STREET SE, CANTON, OH, 44707","Match","Exact","1937 4TH ST SE, CANTON, OH, 44707",64685697,"L"
294676,"1937 ABBOTSBURY WAY","LAFAYETTE","IN",47909,40.361134436,-86.871579775,176,"1937 ABBOTSBURY WAY, LAFAYETTE, IN, 47909","Match","Exact","1937 ABBOTSBURY WAY, LAFAYETTE, IN, 47909",27322631,"R"
294677,"1937 ASHLAND RD","MANSFIELD","OH",44905,40.794963529,-82.443150983,177,"1937 ASHLAND RD, MANSFIELD, OH, 44905","Match","Exact","1937 ASHLAND RD, MANSFIELD, OH, 44905",207228532,"L"
294678,"1937 AVERY WAY","CASTLE ROCK","CO",80109,39.3853319030001,-104.90798227,178,"1937 AVERY WAY, CASTLE ROCK, CO, 80109","Match","Exact","1937 AVERY WAY, CASTLE ROCK, CO, 80109",625224387,"L"
294679,"1937 BELLMORE AVE","DEPTFORD","NJ",8096,39.815235251,-75.0935529019999,179,"1937 BELLMORE AVE, DEPTFORD, NJ, 8096","Match","Exact","1937 BELLMORE AVE, DEPTFORD, NJ, 08096",134586253,"R"
294680,"1937 BIRCH RD","MCLEAN","VA",22101,38.9130449640001,-77.163453246,180,"1937 BIRCH RD, MCLEAN, VA, 22101","Match","Exact","1937 BIRCH RD, MCLEAN, VA, 22101",76022587,"L"
294681,"1937 BIRKDALE DR","COLUMBUS","OH",43232,39.938549359,-82.845174987,181,"1937 BIRKDALE DR, COLUMBUS, OH, 43232","Match","Exact","1937 BIRKDALE DR, COLUMBUS, OH, 43232",135593926,"R"
294682,"1937 BRIAR RIDGE ROAD","TUPELO","MS",38804,34.236884236,-88.672921313,182,"1937 BRIAR RIDGE ROAD, TUPELO, MS, 38804","Match","Exact","1937 BRIAR RIDGE RD, TUPELO, MS, 38804",90676208,"R"
294683,"1937 CAMEL DRIVE","STERLING HEIGHTS","MI",48310,42.543349721,-83.087119345,183,"1937 CAMEL DRIVE, STERLING HEIGHTS, MI, 48310","Match","Exact","1937 CAMEL DR, STERLING HEIGHTS, MI, 48310",110668449,"L"
294684,"1937 CHAMBERS CIRCLE","BRENTWOOD","CA",94513,37.938923758,-121.733037574,184,"1937 CHAMBERS CIRCLE, BRENTWOOD, CA, 94513","Match","Exact","1937 CHAMBERS CIR, BRENTWOOD, CA, 94513",192108990,"L"
294685,"1937 CLAREMENT AVE APT 209","ASHLAND","OH",44805,40.849946796,-82.343859574,185,"1937 CLAREMENT AVE APT 209, ASHLAND, OH, 44805","Match","Non_Exact","1937 CLAREMONT AVE, ASHLAND, OH, 44805",30156167,"R"
294686,"1937 CLARION AVE","CINCINNATI","OH",45207,39.1443411860001,-84.464780063,186,"1937 CLARION AVE, CINCINNATI, OH, 45207","Match","Exact","1937 CLARION AVE, CINCINNATI, OH, 45207",103929945,"R"
294687,"1937 CLEVELAND AVE","COLUMBUS","OH",43211,40.0059245050001,-82.972149523,187,"1937 CLEVELAND AVE, COLUMBUS, OH, 43211","Match","Exact","1937 CLEVELAND AVE, COLUMBUS, OH, 43211",135577885,"L"
294688,"1937 CLINTON AVE","CHAMBERSBURG","PA",17201,39.95439007,-77.634516789,188,"1937 CLINTON AVE, CHAMBERSBURG, PA, 17201","Match","Exact","1937 CLINTON AVE, CHAMBERSBURG, PA, 17201",60101693,"L"
294689,"1937 CURRENT ST","LIBERTY","MO",64068,39.216548231,-94.402620293,189,"1937 CURRENT ST, LIBERTY, MO, 64068","Match","Exact","1937 CURRENT ST, LIBERTY, MO, 64068",89773951,"L"
294690,"1937 DEERBROOK DR","TYLER","TX",75703,32.2774392520001,-95.2755059419999,190,"1937 DEERBROOK DR, TYLER, TX, 75703","Match","Exact","1937 DEERBROOK DR, TYLER, TX, 75703",633520209,"R"
294691,"1937 DEMBRIGH LN","CHARLOTTE","NC",28262,35.317922674,-80.7063431839999,191,"1937 DEMBRIGH LN, CHARLOTTE, NC, 28262","Match","Exact","1937 DEMBRIGH LN, CHARLOTTE, NC, 28262",70532335,"R"
294692,"1937 E 29TH ST UNIT D","OAKLAND","CA",94606,37.7971410270001,-122.229955734,192,"1937 E 29TH ST UNIT D, OAKLAND, CA, 94606","Match","Non_Exact","1937 E 29TH ST, OAKLAND, CA, 94606",125002664,"R"
294693,"1937 EAST 26TH ST","BROOKLYN","NY",11229,40.603734278,-73.946363843,193,"1937 EAST 26TH ST, BROOKLYN, NY, 11229","Match","Exact","1937 E 26TH ST, BROOKLYN, NY, 11229",59090227,"L"
294694,"1937 EAST 26TH STREET","BROOKLYN","NY",11229,40.603734278,-73.946363843,194,"1937 EAST 26TH STREET, BROOKLYN, NY, 11229","Match","Exact","1937 E 26TH ST, BROOKLYN, NY, 11229",59090227,"L"
294695,"1937 EAST CAPITOL AVE","BISMARCK","ND",58501,46.829821456,-100.760701294,195,"1937 EAST CAPITOL AVE, BISMARCK, ND, 58501","Match","Exact","1937 E CAPITOL AVE, BISMARCK, ND, 58501",198867538,"R"
294696,"1937 EAST STREET","NATIONAL CITY","MI",43718,NA,NA,196,"1937 EAST STREET, NATIONAL CITY, MI, 43718","No_Match",NA,NA,NA,NA
294697,"1937 EASTWOOD DR","HENDERSON","TX",75652,32.164231554,-94.7664831439999,197,"1937 EASTWOOD DR, HENDERSON, TX, 75652","Match","Exact","1937 EASTWOOD DR, HENDERSON, TX, 75652",616960377,"L"
294698,"1937 EASTWOOD DRIVE","HENDERSON","TX",75652,32.164231554,-94.7664831439999,198,"1937 EASTWOOD DRIVE, HENDERSON, TX, 75652","Match","Exact","1937 EASTWOOD DR, HENDERSON, TX, 75652",616960377,"L"
294699,"1937 EASY ST","NATIONAL CITY","MI",48748,44.3362298650001,-83.650502698,199,"1937 EASY ST, NATIONAL CITY, MI, 48748","Match","Exact","1937 EASY ST, NATIONAL CITY, MI, 48748",161307905,"R"
294700,"1937 EDGEWOOD ST","JONESBORO","AR",72401,35.8220164430001,-90.716179303,200,"1937 EDGEWOOD ST, JONESBORO, AR, 72401","Match","Exact","1937 EDGEWOOD ST, JONESBORO, AR, 72401",46930595,"L"
294701,"1937 F ST","LINCON","NE",68510,40.8047120270001,-96.693336265,201,"1937 F ST, LINCON, NE, 68510","Match","Non_Exact","1937 F ST, LINCOLN, NE, 68510",28254823,"R"
294702,"1937 GEARHART ST","DULUTH","MN",55811,46.774705463,-92.149086138,202,"1937 GEARHART ST, DULUTH, MN, 55811","Match","Exact","1937 GEARHART ST, DULUTH, MN, 55811",163212869,"R"
294703,"1937 GLENNAIRE DR","ESCONDIDO","CA",92015,33.103407114,-117.058638088,203,"1937 GLENNAIRE DR, ESCONDIDO, CA, 92015","Match","Non_Exact","1937 GLENNAIRE DR, ESCONDIDO, CA, 92025",195314315,"R"
294704,"1937 GREELEY STREET S","STILLWATER","MN",55082,45.0384539070001,-92.820958477,204,"1937 GREELEY STREET S, STILLWATER, MN, 55082","Match","Exact","1937 GREELEY ST S, STILLWATER, MN, 55082",97826230,"R"
294705,"1937 GREEN ACRES COURT","MONTGOMERY","AL",36106,32.3475104340001,-86.241825978,205,"1937 GREEN ACRES COURT, MONTGOMERY, AL, 36106","Match","Exact","1937 GREEN ACRES CT, MONTGOMERY, AL, 36106",1488978,"R"
294706,"1937 GREENLEAF ST","BETHLEHEM","PA",18017,40.655737023,-75.3434497279999,206,"1937 GREENLEAF ST, BETHLEHEM, PA, 18017","Match","Exact","1937 GREENLEAF ST, BETHLEHEM, PA, 18017",136877374,"L"
294707,"1937 HAINES ROAD","MADISON","OH",44057,41.8211908440001,-81.084705761,207,"1937 HAINES ROAD, MADISON, OH, 44057","Match","Exact","1937 HAINES RD, MADISON, OH, 44057",625835199,"L"
294708,"1937 HAWKEN DR","PLANO","TX",75023,33.0691852780001,-96.730448133,208,"1937 HAWKEN DR, PLANO, TX, 75023","Match","Exact","1937 HAWKEN DR, PLANO, TX, 75023",123487090,"L"
294709,"1937 HEWETT LANE","MAITLAND","FL",32751,28.645431269,-81.342612878,209,"1937 HEWETT LANE, MAITLAND, FL, 32751","Match","Exact","1937 HEWETT LN, MAITLAND, FL, 32751",93743856,"L"
294710,"1937 HIGHWAY 218","DONNELLSON","IA",52625,40.67659687,-91.564297148,210,"1937 HIGHWAY 218, DONNELLSON, IA, 52625","Match","Non_Exact","1937 US HWY 218, DONNELLSON, IA, 52625",638703547,"L"
294711,"1937 HOUSTON DR","BISMARCK","ND",58501,46.7813160640001,-100.787018861,211,"1937 HOUSTON DR, BISMARCK, ND, 58501","Match","Non_Exact","1937 HOUSTON DR, BISMARCK, ND, 58504",198852730,"L"
294712,"1937 HUNTINGTON","GROSSE POINT WOODS","MI",48236,42.4316838060001,-82.9135892159999,212,"1937 HUNTINGTON, GROSSE POINT WOODS, MI, 48236","Match","Non_Exact","1937 HUNTINGTON BLVD, GROSSE PT WDS, MI, 48236",95487645,"L"
294713,"1937 HUNTINGTON","GROSSE PONTE","MI",48236,42.4316838060001,-82.9135892159999,213,"1937 HUNTINGTON, GROSSE PONTE, MI, 48236","Match","Non_Exact","1937 HUNTINGTON BLVD, GROSSE POINTE, MI, 48236",95487645,"L"
294714,"1937 INDIAN LILAC","LANCASTER","TX",75146,32.5977223090001,-96.7943431319999,214,"1937 INDIAN LILAC, LANCASTER, TX, 75146","Match","Non_Exact","1937 INDIAN LILAC DR, LANCASTER, TX, 75146",618984618,"L"
294715,"1937 KILBURN ROAD N","ROCHESTER HILLS","MI",48306,42.708407649,-83.194023269,215,"1937 KILBURN ROAD N, ROCHESTER HILLS, MI, 48306","Match","Exact","1937 KILBURN RD N, ROCHESTER HILLS, MI, 48306",69708364,"R"
294716,"1937 LA RAMADA DR","CAMARILLO","CA",93012,34.2372024840001,-118.981789408,216,"1937 LA RAMADA DR, CAMARILLO, CA, 93012","Match","Exact","1937 LA RAMADA DR, CAMARILLO, CA, 93012",644270710,"L"
294717,"1937 MANDRIN WAY","SAN JOSE","CA",95122,37.3414614160001,-121.837787963,217,"1937 MANDRIN WAY, SAN JOSE, CA, 95122","Match","Non_Exact","1937 MANDARIN WAY, SAN JOSE, CA, 95122",122912698,"L"
294718,"1937 MAPLE AVE","FLORENCE","AL",35630,34.827651867,-87.677755084,218,"1937 MAPLE AVE, FLORENCE, AL, 35630","Match","Exact","1937 MAPLE AVE, FLORENCE, AL, 35630",41320189,"L"
294719,"1937 MARGINY ST","NEW ORLEANS","LA",70117,29.9771277670001,-90.056185,219,"1937 MARGINY ST, NEW ORLEANS, LA, 70117","Match","Non_Exact","1937 MARIGNY ST, NEW ORLEANS, LA, 70117",191715601,"R"
294720,"1937 MARKET STREET","HARRISBURG","PA",17103,40.2684979680001,-76.86045983,220,"1937 MARKET STREET, HARRISBURG, PA, 17103","Match","Exact","1937 MARKET ST, HARRISBURG, PA, 17103",616487846,"R"
294721,"1937 MASSACHUSETTS ST","FORT COLLINS","CO",80525,40.544331185,-105.042524584,221,"1937 MASSACHUSETTS ST, FORT COLLINS, CO, 80525","Match","Exact","1937 MASSACHUSETTS ST, FORT COLLINS, CO, 80525",188538383,"R"
294722,"1937 MELISE DR","GLENVIEW","IL",60025,42.089975667,-87.799559191,222,"1937 MELISE DR, GLENVIEW, IL, 60025","Match","Exact","1937 MELISE DR, GLENVIEW, IL, 60025",112368315,"R"
294723,"1937 MT MCKINLEY PLACE","CEDAR HILLS","TX",75104,32.5433372200001,-97.001519989,223,"1937 MT MCKINLEY PLACE, CEDAR HILLS, TX, 75104","Match","Non_Exact","1937 MT MCKINLEY PL, CEDAR HILL, TX, 75104",616771399,"L"
294724,"1937 N 8TH ST","COEUR D'ALENE","ID",83814,47.6942106700001,-116.774343013,224,"1937 N 8TH ST, COEUR D'ALENE, ID, 83814","Match","Non_Exact","1937 N 8TH ST, COEUR D ALENE, ID, 83814",192940051,"L"
294725,"1937 N MUNICIPAL WAY","ROUND LAKE BEACH","IL",60073,42.3831189040001,-88.071014114,225,"1937 N MUNICIPAL WAY, ROUND LAKE BEACH, IL, 60073","Match","Exact","1937 N MUNICIPAL WAY, ROUND LAKE BEACH, IL, 60073",119714968,"R"
294726,"1937 N SPARKS FERRY RD","SALEM","IN",47167,38.6316677890001,-86.107995364,226,"1937 N SPARKS FERRY RD, SALEM, IN, 47167","Match","Exact","1937 N SPARKS FERRY RD, SALEM, IN, 47167",77541607,"R"
294727,"1937 NW 3RD AVENUE","MIAMI","FL",33136,25.794214106,-80.20031682,227,"1937 NW 3RD AVENUE, MIAMI, FL, 33136","Match","Non_Exact","1937 NW 3RD AVE, MIAMI, FL, 33136",638374468,"R"
294728,"1937 OREGON ST","BERKELEY","CA",94703,37.857157929,-122.270526043,228,"1937 OREGON ST, BERKELEY, CA, 94703","Match","Exact","1937 OREGON ST, BERKELEY, CA, 94703",606130361,"L"
294729,"1937 PAGE ST APT 6","SAN FRANCISCO","CA",94117,37.770225387,-122.452701467,229,"1937 PAGE ST APT 6, SAN FRANCISCO, CA, 94117","Match","Exact","1937 PAGE ST, SAN FRANCISCO, CA, 94117",192282324,"L"
294730,"1937 PALO VERDE DR","YOUNGSTOWN","OH",45514,41.0491611190001,-80.620548344,230,"1937 PALO VERDE DR, YOUNGSTOWN, OH, 45514","Match","Non_Exact","1937 PALO VERDE DR, YOUNGSTOWN, OH, 44514",64599665,"R"
294731,"1937 ROUSE COURT","MODESTO","CA",95351,37.620395654,-121.021856829,231,"1937 ROUSE COURT, MODESTO, CA, 95351","Match","Exact","1937 ROUSE CT, MODESTO, CA, 95351",102610907,"R"
294732,"1937 S 10TH AVENUE","MAYWOOD","IL",60153,41.8690223180001,-87.8446280699999,232,"1937 S 10TH AVENUE, MAYWOOD, IL, 60153","Match","Exact","1937 S 10TH AVE, MAYWOOD, IL, 60153",111791167,"L"
294733,"1937 S 11TH AVE","YUMA","AZ",85364,32.6923432740001,-114.632197161,233,"1937 S 11TH AVE, YUMA, AZ, 85364","Match","Exact","1937 11TH AVE, YUMA, AZ, 85364",129625431,"L"
294734,"1937 S GRANT ST","Denver","CO",80210,39.681447486,-104.984054841,234,"1937 S GRANT ST, Denver, CO, 80210","Match","Exact","1937 S GRANT ST, DENVER, CO, 80210",177332282,"R"
294735,"1937 S GRANT ST","DENVER","CO",80210,39.681447486,-104.984054841,235,"1937 S GRANT ST, DENVER, CO, 80210","Match","Exact","1937 S GRANT ST, DENVER, CO, 80210",177332282,"R"
294736,"1937 SALISBURY WAY","HINESVILLE","GA",31313,31.796371102,-81.6349240449999,236,"1937 SALISBURY WAY, HINESVILLE, GA, 31313","Match","Exact","1937 SALISBURY WAY, HINESVILLE, GA, 31313",635652686,"R"
294737,"1937 SPRING BEAUTY DRIVE","FLORISSANT","MO",63031,38.8366894540001,-90.3349945689999,237,"1937 SPRING BEAUTY DRIVE, FLORISSANT, MO, 63031","Match","Exact","1937 SPRING BEAUTY DR, FLORISSANT, MO, 63031",100182959,"L"
294738,"1937 SPRINGFIELD DRIVE","FORT COLLINS","CO",80521,40.5702923920001,-105.112133122,238,"1937 SPRINGFIELD DRIVE, FORT COLLINS, CO, 80521","Match","Exact","1937 SPRINGFIELD DR, FORT COLLINS, CO, 80521",188490514,"L"
294739,"1937 ST PAUL STREET","CHARLOTTE","NC",28216,35.258089602,-80.851936118,239,"1937 ST PAUL STREET, CHARLOTTE, NC, 28216","Match","Exact","1937 SAINT PAUL ST, CHARLOTTE, NC, 28216",70477293,"L"
294740,"1937 STONY MEADOW","BILLINGS","MT",59101,45.7357195810001,-108.551644582,240,"1937 STONY MEADOW, BILLINGS, MT, 59101","Match","Non_Exact","1937 STONY MEADOW LN, BILLINGS, MT, 59101",645330412,"L"
294741,"1937 TALBOT TER","MONTGOMERY","AL",36106,32.3471672540001,-86.240049171,241,"1937 TALBOT TER, MONTGOMERY, AL, 36106","Match","Exact","1937 TALBOT TER, MONTGOMERY, AL, 36106",1544724,"L"
294742,"1937 TENNESSEE ST","NEW ORLEANS","LA",70117,29.971467337,-90.0202812329999,242,"1937 TENNESSEE ST, NEW ORLEANS, LA, 70117","Match","Exact","1937 TENNESSEE ST, NEW ORLEANS, LA, 70117",191732184,"R"
294743,"1937 TIGRIS DRIVE","W PALM BEACH","FL",33411,26.709060003,-80.167834292,243,"1937 TIGRIS DRIVE, W PALM BEACH, FL, 33411","Match","Exact","1937 TIGRIS DR, WEST PALM BEACH, FL, 33411",115579724,"L"
294744,"1937 VISTA DEL MAR AVE  2A","LOS ANGELES","CA",90068,34.1064138150001,-118.323995003,244,"1937 VISTA DEL MAR AVE  2A, LOS ANGELES, CA, 90068","Match","Exact","1937 VISTA DEL MAR AVE, LOS ANGELES, CA, 90068",639059185,"L"
294745,"1937 VISTA DEL MAR AVE STE 2A","LOS ANGELES","CA",90068,34.1064138150001,-118.323995003,245,"1937 VISTA DEL MAR AVE STE 2A, LOS ANGELES, CA, 90068","Match","Exact","1937 VISTA DEL MAR AVE, LOS ANGELES, CA, 90068",639059185,"L"
294746,"1937 WAYFIELD DR","AVON","IN",46123,39.7337403380001,-86.406693294,246,"1937 WAYFIELD DR, AVON, IN, 46123","Match","Exact","1937 WAYFIELD DR, AVON, IN, 46123",89236104,"L"
294747,"1937 WEST 18TH ST","SAN BERNARDINO","CA",92411,34.130925195,-117.332430494,247,"1937 WEST 18TH ST, SAN BERNARDINO, CA, 92411","Match","Exact","1937 W 18TH ST, SAN BERNARDINO, CA, 92411",144651719,"L"
294748,"1937 WESTOVER RESERVE BLVD","WINDERMERE","FL",34786,28.515592349,-81.510214197,248,"1937 WESTOVER RESERVE BLVD, WINDERMERE, FL, 34786","Match","Exact","1937 WESTOVER RESERVE BLVD, WINDERMERE, FL, 34786",94373200,"L"
294749,"1937 WHITEHALL ST","MARYVILLE","TN",37803,35.717843337,-83.974834285,249,"1937 WHITEHALL ST, MARYVILLE, TN, 37803","Match","Exact","1937 WHITEHALL ST, MARYVILLE, TN, 37803",89847688,"R"
294750,"1937 WILDWOOD CIRCLE","GLENDALE HEIGHTS","IL",60139,41.9296319210001,-88.079112746,250,"1937 WILDWOOD CIRCLE, GLENDALE HEIGHTS, IL, 60139","Match","Exact","1937 WILDWOOD CIR, GLENDALE HEIGHTS, IL, 60139",112520436,"R"
294751,"1937 WILTON DRIVE","NEW ORLEANS","LA",70122,30.008679907,-90.067620861,251,"1937 WILTON DRIVE, NEW ORLEANS, LA, 70122","Match","Exact","1937 WILTON DR, NEW ORLEANS, LA, 70122",191703935,"R"
294752,"1937 WOODSIDE LANE","RICHFIELD","WI",53076,43.2585914060001,-88.192833003,252,"1937 WOODSIDE LANE, RICHFIELD, WI, 53076","Match","Exact","1937 WOODSIDE LN, RICHFIELD, WI, 53076",79558786,"R"
294753,"1937 YUKON DR","BOLINGBROOK","IL",60490,41.6934970930001,-88.1562894529999,253,"1937 YUKON DR, BOLINGBROOK, IL, 60490","Match","Exact","1937 YUKON DR, BOLINGBROOK, IL, 60490",111583208,"R"
294754,"1937","COSHOCTON","OH",43812,NA,NA,254,"1937, COSHOCTON, OH, 43812","No_Match",NA,NA,NA,NA
294755,"19370 BROKEN FENCE WAY","Monument","CO",80132,39.1131112790001,-104.847222236,255,"19370 BROKEN FENCE WAY, Monument, CO, 80132","Match","Exact","19370 BROKEN FENCE WAY, MONUMENT, CO, 80132",105507864,"L"
294756,"19370 COLLINS AVE APT 1214","SUNNY ISLES","FL",33160,25.955175406,-80.120417467,256,"19370 COLLINS AVE APT 1214, SUNNY ISLES, FL, 33160","Match","Non_Exact","19370 COLLINS AVE, SUNNY ISLES BEACH, FL, 33160",116292688,"L"
294757,"19370 E TODD EVANS RD","BLACK CANYON CITY","AZ",85324,34.070351992,-112.143724008,257,"19370 E TODD EVANS RD, BLACK CANYON CITY, AZ, 85324","Match","Exact","19370 TODD EVANS RD, BLACK CANYON CITY, AZ, 85324",159490829,"L"
294758,"19370 HILL ST","ANDERSON","CA",96007,40.467711927,-122.334530668,258,"19370 HILL ST, ANDERSON, CA, 96007","Match","Exact","19370 HILL ST, ANDERSON, CA, 96007",126618914,"L"
294759,"19370 NORTH SAINT VRAIN","LYONS","CO",80540,40.230745954,-105.282388365,259,"19370 NORTH SAINT VRAIN, LYONS, CO, 80540","Match","Non_Exact","19370 N SAINT VRAIN DR, LYONS, CO, 80540",649621631,"L"
294760,"19370 RYAN RD","DETROIT","MI",48234,42.4363534330001,-83.063301268,260,"19370 RYAN RD, DETROIT, MI, 48234","Match","Exact","19370 RYAN RD, DETROIT, MI, 48234",95464160,"R"
294761,"19370 VREELAND","WOODHAVEN","MI",48183,42.1117945390001,-83.222942581,261,"19370 VREELAND, WOODHAVEN, MI, 48183","Match","Non_Exact","19370 VREELAND RD, WOODHAVEN, MI, 48183",95457824,"R"
294762,"19370 W GRANT LINE RD","MOUNTAIN HOUSE","CA",95391,NA,NA,262,"19370 W GRANT LINE RD, MOUNTAIN HOUSE, CA, 95391","No_Match",NA,NA,NA,NA
294763,"19371 BENTLER ST","DETROIT","MI",48219,42.4324507050001,-83.253591091,263,"19371 BENTLER ST, DETROIT, MI, 48219","Match","Exact","19371 BENTLER ST, DETROIT, MI, 48219",95420764,"L"
294764,"19371 CORAL GABLES","SOUTHFIELD","MI",48076,42.4865787730001,-83.23554403,264,"19371 CORAL GABLES, SOUTHFIELD, MI, 48076","Match","Non_Exact","19371 CORAL GABLES ST, SOUTHFIELD, MI, 48076",69739153,"L"
294765,"19371 JERSEY AVE","LAKEVEILLE","MN",55044,44.6661669490001,-93.275875302,265,"19371 JERSEY AVE, LAKEVEILLE, MN, 55044","Match","Non_Exact","19371 JERSEY AVE, LAKEVILLE, MN, 55044",37906812,"R"
294766,"19371 KEYMAR WAY","MONTGOMERY VILLAGE","MD",20886,39.173610007,-77.195250796,266,"19371 KEYMAR WAY, MONTGOMERY VILLAGE, MD, 20886","Match","Exact","19371 KEYMAR WAY, MONTGOMERY VILLAGE, MD, 20886",62050116,"R"
294767,"19371 PAIUTE CIRCLE","BEND","OR",97702,NA,NA,267,"19371 PAIUTE CIRCLE, BEND, OR, 97702","No_Match",NA,NA,NA,NA
294768,"19372 COUNTY ROAD EE","AKRON","CO",80720,NA,NA,268,"19372 COUNTY ROAD EE, AKRON, CO, 80720","No_Match",NA,NA,NA,NA
294769,"19372 SEATON LOOP","BEND","OR",97702,44.0343397170001,-121.355764464,269,"19372 SEATON LOOP, BEND, OR, 97702","Match","Non_Exact","19372 SW SEATON LOOP, BEND, OR, 97702",633732727,"R"
294770,"19372 W HOLTS EAST ROAD","MARTIN","OH",43445,41.530623275,-83.3079864159999,270,"19372 W HOLTS EAST ROAD, MARTIN, OH, 43445","Match","Exact","19372 HOLTS EAST RD, MARTIN, OH, 43445",44067725,"R"
294771,"19373 INDIAN SUMMER ROAD","BEND","OR",97702,43.993137978,-121.355300872,271,"19373 INDIAN SUMMER ROAD, BEND, OR, 97702","Match","Exact","19373 INDIAN SUMMER RD, BEND, OR, 97702",636596599,"R"
294772,"19373 LAKE ROCKHILL ROAD","WARSAW","MO",65355,38.3240806250001,-93.3607564119999,272,"19373 LAKE ROCKHILL ROAD, WARSAW, MO, 65355","Match","Exact","19373 LAKE ROCKHILL RD, WARSAW, MO, 65355",652089425,"R"
294773,"19374 460TH ST","LAKE MILLS","IA",50450,43.429997846,-93.609322017,273,"19374 460TH ST, LAKE MILLS, IA, 50450","Match","Exact","19374 460TH ST, LAKE MILLS, IA, 50450",39492454,"L"
294774,"19374 MCKENZIE COURT","LINCOLN","DE",19960,38.841467321,-75.413918725,274,"19374 MCKENZIE COURT, LINCOLN, DE, 19960","Match","Exact","19374 MCKENZIE CT, LINCOLN, DE, 19960",623947328,"L"
294775,"19375 PINE GLADE","GUERNEVILLE","CA",95446,38.478456297,-122.999551085,275,"19375 PINE GLADE, GUERNEVILLE, CA, 95446","Match","Exact","19375 PINE GLADE, GUERNEVILLE, CA, 95446",67519985,"R"
294776,"19375 VONTAY RD","MAIDENS","VA",23102,37.7587653360001,-77.769215418,276,"19375 VONTAY RD, MAIDENS, VA, 23102","Match","Exact","19375 VONTAY RD, MAIDENS, VA, 23102",84955254,"L"
294777,"19376 BURT RD","DETROIT","MI",48219,42.432455878,-83.248709885,277,"19376 BURT RD, DETROIT, MI, 48219","Match","Exact","19376 BURT RD, DETROIT, MI, 48219",95421461,"R"
294778,"19377 E DISCOVERY PLACE","ROWLAND HEIGHTS","CA",91748,33.9925727470001,-117.878938525,278,"19377 E DISCOVERY PLACE, ROWLAND HEIGHTS, CA, 91748","Match","Exact","19377 DISCOVERY PL, ROWLAND HEIGHTS, CA, 91748",142250180,"R"
294779,"19377 FREDONIA COURT","RIVERSIDE","CA",92508,33.8832665680001,-117.32448582,279,"19377 FREDONIA COURT, RIVERSIDE, CA, 92508","Match","Exact","19377 FREDONIA CT, RIVERSIDE, CA, 92508",194836983,"R"
294780,"19378 HUNTINGTON","GROSSE POINTE WOODS","MI",48236,NA,NA,280,"19378 HUNTINGTON, GROSSE POINTE WOODS, MI, 48236","No_Match",NA,NA,NA,NA
294781,"19378 S FITZMORRIS RD","COVINGTON","LA",70435,30.528770847,-90.080501903,281,"19378 S FITZMORRIS RD, COVINGTON, LA, 70435","Match","Exact","19378 S FITZMORRIS RD, COVINGTON, LA, 70435",111299459,"L"
294782,"19379 BRANDYWINE STREET","RIVERVIEW","MI",48193,42.167858752,-83.191394256,282,"19379 BRANDYWINE STREET, RIVERVIEW, MI, 48193","Match","Exact","19379 BRANDYWINE ST, RIVERVIEW, MI, 48193",95505747,"L"
294783,"19379 GREENVIEW","DETROIT","MI",48219,42.4330531510001,-83.225478416,283,"19379 GREENVIEW, DETROIT, MI, 48219","Match","Non_Exact","19379 GREENVIEW AVE, DETROIT, MI, 48219",95421802,"L"
294784,"19379 TOMAHAWK LANE","ST. JOSEPH","MO",64505,39.845409487,-94.786405147,284,"19379 TOMAHAWK LANE, ST. JOSEPH, MO, 64505","Match","Exact","19379 TOMAHAWK LN, SAINT JOSEPH, MO, 64505",624461779,"R"
294785,"1938 9TH ST","RENSSELAER","NY",12144,42.6577759310001,-73.724423754,285,"1938 9TH ST, RENSSELAER, NY, 12144","Match","Exact","1938 9TH ST, RENSSELAER, NY, 12144",35731224,"R"
294786,"1938 ABBOTS CREEK CHURCH RD","HIGH POINT","NC",27265,35.993175679,-80.086513436,286,"1938 ABBOTS CREEK CHURCH RD, HIGH POINT, NC, 27265","Match","Non_Exact","1938 ABBOTTS CREEK CHURCH RD, HIGH POINT, NC, 27265",604809976,"L"
294787,"1938 ALTA OAKS DRIVE","ARCADIA","CA",91006,34.1670478020001,-118.027267286,287,"1938 ALTA OAKS DRIVE, ARCADIA, CA, 91006","Match","Exact","1938 ALTA OAKS DR, ARCADIA, CA, 91006",141818162,"R"
294788,"1938 ALVOCY SHOALS BLUFF","LAWRENCEVILLE","GA",30045,NA,NA,288,"1938 ALVOCY SHOALS BLUFF, LAWRENCEVILLE, GA, 30045","No_Match",NA,NA,NA,NA
294789,"1938 BACON PARK DRIVE","SAVANNAH","GA",31406,32.015277441,-81.082182551,289,"1938 BACON PARK DRIVE, SAVANNAH, GA, 31406","Match","Exact","1938 BACON PARK DR, SAVANNAH, GA, 31406",6179051,"L"
294790,"1938 BARRINGTON CIRCLE","SUN PRAIRIE","WI",53590,43.189139912,-89.2472641209999,290,"1938 BARRINGTON CIRCLE, SUN PRAIRIE, WI, 53590","Match","Exact","1938 BARRINGTON CIR, SUN PRAIRIE, WI, 53590",49496438,"R"
294791,"1938 BAYVIEW DRIVE","NEW SMYRNA BEACH","FL",32168,29.0639115770001,-80.967957113,291,"1938 BAYVIEW DRIVE, NEW SMYRNA BEACH, FL, 32168","Match","Exact","1938 BAYVIEW DR, NEW SMYRNA BEACH, FL, 32168",644883996,"L"
294792,"1938 BENJAMIN STREET NE","MINNEAPOLIS","MN",55418,NA,NA,292,"1938 BENJAMIN STREET NE, MINNEAPOLIS, MN, 55418","No_Match",NA,NA,NA,NA
294793,"1938 BRIDGESTONE CIRCLE","CONYERS","GA",30012,33.678051748,-83.982416416,293,"1938 BRIDGESTONE CIRCLE, CONYERS, GA, 30012","Match","Exact","1938 BRIDGESTONE CIR, CONYERS, GA, 30012",634099136,"R"
294794,"1938 BRUSHY MOUNTAIN ROAD","WILKESBORO","NC",28697,36.1266145600001,-81.1417891999999,294,"1938 BRUSHY MOUNTAIN ROAD, WILKESBORO, NC, 28697","Match","Exact","1938 BRUSHY MOUNTAIN RD, WILKESBORO, NC, 28697",46132233,"L"
294795,"1938 BUCKWOOD DRIVE","TALLAHASSEE","FL",32317,30.4658037040001,-84.208145975,295,"1938 BUCKWOOD DRIVE, TALLAHASSEE, FL, 32317","Match","Exact","1938 BUCKWOOD DR, TALLAHASSEE, FL, 32317",82855059,"L"
294796,"1938 CADDOT ST","LITTLE ELM","TX",75068,NA,NA,296,"1938 CADDOT ST, LITTLE ELM, TX, 75068","No_Match",NA,NA,NA,NA
294797,"1938 COBBETT DRIVE","AVON","IN",46123,NA,NA,297,"1938 COBBETT DRIVE, AVON, IN, 46123","No_Match",NA,NA,NA,NA
294798,"1938 E DIAMOND DR","TEMPE","AZ",85283,33.357207234,-111.905507287,298,"1938 E DIAMOND DR, TEMPE, AZ, 85283","Match","Exact","1938 E DIAMOND DR, TEMPE, AZ, 85283",128238984,"R"
294799,"1938 E HARNEY","LARAMIE","WY",82070,NA,NA,299,"1938 E HARNEY, LARAMIE, WY, 82070","No_Match",NA,NA,NA,NA
294800,"1938 EAST RAINES ROAD","MEMPHIS","TN",38116,35.035592536,-89.999031346,300,"1938 EAST RAINES ROAD, MEMPHIS, TN, 38116","Match","Exact","1938 E RAINES RD, MEMPHIS, TN, 38116",72975337,"L"
294801,"1938 EAST TREMONT AVE","BRONX","NY",10462,40.8414549820001,-73.862168969,301,"1938 EAST TREMONT AVE, BRONX, NY, 10462","Match","Exact","1938 E TREMONT AVE, BRONX, NY, 10462",80309125,"R"
294802,"1938 FRANKFORT AVENUE","LOUISVILLE","KY",40206,38.2549741940001,-85.711055301,302,"1938 FRANKFORT AVENUE, LOUISVILLE, KY, 40206","Match","Exact","1938 FRANKFORT AVE, LOUISVILLE, KY, 40206",96845670,"R"
294803,"1938 HARBOR LIGHTS DR","GRAND PRAIRIE","TX",75051,32.7195110820001,-96.975843373,303,"1938 HARBOR LIGHTS DR, GRAND PRAIRIE, TX, 75051","Match","Exact","1938 HARBOR LIGHTS DR, GRAND PRAIRIE, TX, 75051",650655999,"R"
294804,"1938 HARROW RD","WATERLOO","IA",50701,42.5105846870001,-92.399309822,304,"1938 HARROW RD, WATERLOO, IA, 50701","Match","Exact","1938 HARROW RD, WATERLOO, IA, 50701",212732802,"L"
294805,"1938 HIGHWAY 270 EAST","DOERUN","GA",31744,31.3229923870001,-83.895391579,305,"1938 HIGHWAY 270 EAST, DOERUN, GA, 31744","Match","Non_Exact","1938 STATE RTE 270 E, DOERUN, GA, 31744",84243495,"L"
294806,"1938 JOLIE WAY","REDDING","CA",96003,40.580589054,-122.325463388,306,"1938 JOLIE WAY, REDDING, CA, 96003","Match","Exact","1938 JOLIE WAY, REDDING, CA, 96003",624978948,"R"
294807,"1938 JUDAH ST","SAN FRANCISCO","CA",94122,37.7614532750001,-122.48278408,307,"1938 JUDAH ST, SAN FRANCISCO, CA, 94122","Match","Exact","1938 JUDAH ST, SAN FRANCISCO, CA, 94122",192277642,"R"
294808,"1938 MALVERNE WAY","SOUTH BEND","IN",46614,41.6454005480001,-86.217571719,308,"1938 MALVERNE WAY, SOUTH BEND, IN, 46614","Match","Non_Exact","1938 MALVERN WAY, SOUTH BEND, IN, 46614",8061759,"R"
294809,"1938 MELINDA WAY","BIRMINGHAM","AL",35214,33.5823472160001,-86.8973759209999,309,"1938 MELINDA WAY, BIRMINGHAM, AL, 35214","Match","Exact","1938 MELINDA WAY, BIRMINGHAM, AL, 35214",81550481,"R"
294810,"1938 MOSLEY","LANCASTER","TX",75134,NA,NA,310,"1938 MOSLEY, LANCASTER, TX, 75134","No_Match",NA,NA,NA,NA
294811,"1938 N 19TH STREET","MILWAUKEE","WI",53205,43.0554254520001,-87.936429518,311,"1938 N 19TH STREET, MILWAUKEE, WI, 53205","Match","Exact","1938 N 19TH ST, MILWAUKEE, WI, 53205",77740225,"R"
294812,"1938 N 28TH STREET","MILWAUKEE","WI",53208,43.055520523,-87.948766576,312,"1938 N 28TH STREET, MILWAUKEE, WI, 53208","Match","Exact","1938 N 28TH ST, MILWAUKEE, WI, 53208",77740099,"R"
294813,"1938 NORTH 28TH STREET","MILWAUKEE","WI",53208,43.0555105670001,-87.948766712,313,"1938 NORTH 28TH STREET, MILWAUKEE, WI, 53208","Match","Exact","1938 N 28TH ST, MILWAUKEE, WI, 53208",77740099,"R"
294814,"1938 NORTH DAYTONA AVENUE","FLAGLER BEACH","FL",32316,29.497526012,-81.1371330819999,314,"1938 NORTH DAYTONA AVENUE, FLAGLER BEACH, FL, 32316","Match","Non_Exact","1938 N DAYTONA AVE, FLAGLER BEACH, FL, 32136",645520070,"R"
294815,"1938 NW PARKWAY","WICHITA","KS",67212,NA,NA,315,"1938 NW PARKWAY, WICHITA, KS, 67212","Tie",NA,NA,NA,NA
294816,"1938 OLD DOGWOOD","JONESBORO","GA",30238,33.4764169330001,-84.3406524389999,316,"1938 OLD DOGWOOD, JONESBORO, GA, 30238","Match","Exact","1938 OLD DOGWOOD, JONESBORO, GA, 30238",629795757,"L"
294817,"1938 OLD KIRKWOOD RD","BEAR","DE",19701,39.5824018770001,-75.6860885099999,317,"1938 OLD KIRKWOOD RD, BEAR, DE, 19701","Match","Exact","1938 OLD KIRKWOOD RD, BEAR, DE, 19701",187266006,"L"
294818,"1938 PALMVIEW ROAD","SARASOTA","FL",34241,27.3121656700001,-82.308275367,318,"1938 PALMVIEW ROAD, SARASOTA, FL, 34241","Match","Non_Exact","1938 PALM VIEW RD, SARASOTA, FL, 34240",16385200,"R"
294819,"1938 PLANK ROAD","HOOVERSVILLE","PA",15936,40.141696396,-78.9501254529999,319,"1938 PLANK ROAD, HOOVERSVILLE, PA, 15936","Match","Exact","1938 PLANK RD, HOOVERSVILLE, PA, 15936",70236424,"L"
294820,"1938 S ZARZAMORA ST APT 7101","SAN ANTONIO","TX",78207,29.406053985,-98.529781374,320,"1938 S ZARZAMORA ST APT 7101, SAN ANTONIO, TX, 78207","Match","Non_Exact","1938 S ZARZAMORA ST, SAN ANTONIO, TX, 78207",640624419,"L"
294821,"1938 SE 12 STREET","HOMESTEAD","FL",33035,25.4588138400001,-80.447837845,321,"1938 SE 12 STREET, HOMESTEAD, FL, 33035","Match","Exact","1938 SE 12TH ST, HOMESTEAD, FL, 33035",624991559,"R"
294822,"1938 SE 4TH STREET","GRAND PRAIRIE","TX",75051,32.717257514,-97.001572615,322,"1938 SE 4TH STREET, GRAND PRAIRIE, TX, 75051","Match","Exact","1938 SE 4TH ST, GRAND PRAIRIE, TX, 75051",102936395,"R"
294823,"1938 SHARON LANE","MANITOWOC","WI",54220,44.122092599,-87.703615406,323,"1938 SHARON LANE, MANITOWOC, WI, 54220","Match","Exact","1938 SHARON LN, MANITOWOC, WI, 54220",147969546,"L"
294824,"1938 SHEPARD CIRCLE SW","ATLANTA","GA",30311,NA,NA,324,"1938 SHEPARD CIRCLE SW, ATLANTA, GA, 30311","No_Match",NA,NA,NA,NA
294825,"1938 SOMERSET DRIVE","MUNSTER","IN",46321,41.528986237,-87.48210543,325,"1938 SOMERSET DRIVE, MUNSTER, IN, 46321","Match","Exact","1938 SOMERSET DR, MUNSTER, IN, 46321",624947770,"R"
294826,"1938 SW HENDRY STREET","ARCDIA","FL",34266,27.204509015,-81.873865498,326,"1938 SW HENDRY STREET, ARCDIA, FL, 34266","Match","Non_Exact","1938 SW HENDRY ST, ARCADIA, FL, 34266",16162246,"R"
294827,"1938 TIMBERHILL TRAIL","INDIANAPOLIS","IN",46217,39.651237935,-86.1930900309999,327,"1938 TIMBERHILL TRAIL, INDIANAPOLIS, IN, 46217","Match","Non_Exact","1938 TIMBER HILL TRL, INDIANAPOLIS, IN, 46217",641063669,"R"
294828,"1938 TORONTO STREET","DALLAS","TX",75212,32.779671776,-96.85170764,328,"1938 TORONTO STREET, DALLAS, TX, 75212","Match","Exact","1938 TORONTO ST, DALLAS, TX, 75212",103177724,"L"
294829,"1938 W 2295 S","WOODS CROSS","UT",84087,NA,NA,329,"1938 W 2295 S, WOODS CROSS, UT, 84087","No_Match",NA,NA,NA,NA
294830,"1938 W 2295 SOUTH","WOODS CROSS","UT",84087,NA,NA,330,"1938 W 2295 SOUTH, WOODS CROSS, UT, 84087","No_Match",NA,NA,NA,NA
294831,"1938 W 30TH ST","WICHITA","KS",67217,NA,NA,331,"1938 W 30TH ST, WICHITA, KS, 67217","No_Match",NA,NA,NA,NA
294832,"1938 W HALL RD","NEW RICHMOND","OH",45157,38.951123044,-84.198854454,332,"1938 W HALL RD, NEW RICHMOND, OH, 45157","Match","Exact","1938 W HALL RD, NEW RICHMOND, OH, 45157",118448553,"L"
294833,"1938 W MEADOW HILLS DRIVE","NOGALES","AZ",85621,31.3856626840001,-110.97459827,333,"1938 W MEADOW HILLS DRIVE, NOGALES, AZ, 85621","Match","Exact","1938 W MEADOW HILLS DR, NOGALES, AZ, 85621",636473095,"L"
294834,"1938 W SPARKS ST","PHILADELPHIA","PA",19141,40.0478803240001,-75.15203084,334,"1938 W SPARKS ST, PHILADELPHIA, PA, 19141","Match","Exact","1938 W SPARKS ST, PHILADELPHIA, PA, 19141",131413538,"L"
294835,"1938 W SPARKS STREET","PHILADELPHIA","PA",19141,40.0478803240001,-75.15203084,335,"1938 W SPARKS STREET, PHILADELPHIA, PA, 19141","Match","Exact","1938 W SPARKS ST, PHILADELPHIA, PA, 19141",131413538,"L"
294836,"1938 WASHINGTON STREET","NEWTON","MA",2466,42.334004803,-71.2444664609999,336,"1938 WASHINGTON STREET, NEWTON, MA, 2466","Match","Non_Exact","1938 WASHINGTON ST, AUBURNDALE, MA, 02466",86863121,"L"
294837,"1938 WEST 5TH STREET","PORT ANGELES","WA",98363,48.1304995310001,-123.473404697,337,"1938 WEST 5TH STREET, PORT ANGELES, WA, 98363","Match","Exact","1938 W 5TH ST, PORT ANGELES, WA, 98363",150878670,"L"
294838,"1938 WEST MAGNOLIA","SAN ANTONIO","TX",78201,29.4564554450001,-98.5289094029999,338,"1938 WEST MAGNOLIA, SAN ANTONIO, TX, 78201","Match","Non_Exact","1938 W MAGNOLIA AVE, SAN ANTONIO, TX, 78201",101513963,"L"
294839,"1938 WESTBURN AVE","CLEVELAND","OH",44112,41.5457498910001,-81.5587700999999,339,"1938 WESTBURN AVE, CLEVELAND, OH, 44112","Match","Exact","1938 WESTBURN AVE, CLEVELAND, OH, 44112",61124001,"R"
294840,"1938 WINDSOR HILL DR APT J","MATTHEWS","NC",28105,35.1358757130001,-80.707674248,340,"1938 WINDSOR HILL DR APT J, MATTHEWS, NC, 28105","Match","Exact","1938 WINDSOR HILL DR, MATTHEWS, NC, 28105",70536334,"R"
294841,"1938 WOODARD RD NW","SUPPLY","NC",28462,34.0276779270001,-78.34884706,341,"1938 WOODARD RD NW, SUPPLY, NC, 28462","Match","Exact","1938 WOODARD RD NW, SUPPLY, NC, 28462",153175417,"R"
294842,"1938 WOODRIDGE DRIVE","LEAVENWORTH","KS",66048,39.3054656480001,-94.952320457,342,"1938 WOODRIDGE DRIVE, LEAVENWORTH, KS, 66048","Match","Exact","1938 WOODRIDGE DR, LEAVENWORTH, KS, 66048",646821189,"L"
294843,"19380 CITIZENS BLVD UNIT 204","GEORGETOWN","DE",19947,38.695950248,-75.415088591,343,"19380 CITIZENS BLVD UNIT 204, GEORGETOWN, DE, 19947","Match","Exact","19380 CITIZENS BLVD, GEORGETOWN, DE, 19947",649666536,"R"
294844,"19380 COLLINS AVE 726","SUNNY ISLES BEACH","FL",33160,25.955219975,-80.120402779,344,"19380 COLLINS AVE 726, SUNNY ISLES BEACH, FL, 33160","Match","Exact","19380 COLLINS AVE, SUNNY ISLES BEACH, FL, 33160",116292688,"L"
294845,"19380 COLLINS AVE","SUNNY ISLES BEACH","FL",33160,25.955219975,-80.120402779,345,"19380 COLLINS AVE, SUNNY ISLES BEACH, FL, 33160","Match","Exact","19380 COLLINS AVE, SUNNY ISLES BEACH, FL, 33160",116292688,"L"
294846,"19380 HAYDEN CT","BROOKFIELD","WI",53045,43.0862382760001,-88.153403077,346,"19380 HAYDEN CT, BROOKFIELD, WI, 53045","Match","Exact","19380 HAYDEN CT, BROOKFIELD, WI, 53045",53849651,"L"
294847,"19380 OLD CRANEY CREEK LANE","GREAT MILLS","MD",20634,38.202029356,-76.478907657,347,"19380 OLD CRANEY CREEK LANE, GREAT MILLS, MD, 20634","Match","Exact","19380 OLD CRANEY CREEK LN, GREAT MILLS, MD, 20634",625097641,"L"
294848,"19380 ORCHARD GROVE DR","OREGON CITY","OR",97045,45.3247884940001,-122.61674062,348,"19380 ORCHARD GROVE DR, OREGON CITY, OR, 97045","Match","Exact","19380 ORCHARD GROVE DR, OREGON CITY, OR, 97045",157985624,"L"
294849,"19380 SUNDERLAND","DETROIT","MI",48219,42.433024018,-83.229212327,349,"19380 SUNDERLAND, DETROIT, MI, 48219","Match","Non_Exact","19380 SUNDERLAND RD, DETROIT, MI, 48219",95421785,"R"
294850,"19380 WEST 57TH PLACE","GO","CO",80403,39.8011135630001,-105.218707146,350,"19380 WEST 57TH PLACE, GO, CO, 80403","Match","Non_Exact","19380 W 57TH PL, GOLDEN, CO, 80403",177761477,"L"
294851,"19381 CHESTNUT ST","VACHERIE","LA",70090,29.9279156540001,-90.67637833,351,"19381 CHESTNUT ST, VACHERIE, LA, 70090","Match","Non_Exact","19381 CHESTNUT LN, VACHERIE, LA, 70090",93664792,"L"
294852,"19381 EAST TUFTS CIRCLE","CENTENNIAL","CO",80015,39.6330553080001,-104.762134522,352,"19381 EAST TUFTS CIRCLE, CENTENNIAL, CO, 80015","Match","Exact","19381 E TUFTS CIR, CENTENNIAL, CO, 80015",177520393,"L"
294853,"19381 SHIAWASSEE DR","DETROIT","MI",48219,42.431412241,-83.272812438,353,"19381 SHIAWASSEE DR, DETROIT, MI, 48219","Match","Exact","19381 SHIAWASSEE DR, DETROIT, MI, 48219",95420458,"L"
294854,"19382 MALLORY CANYON ROAD","SALINAS","CA",93907,36.809847894,-121.631083006,354,"19382 MALLORY CANYON ROAD, SALINAS, CA, 93907","Match","Exact","19382 MALLORY CANYON RD, SALINAS, CA, 93907",196822831,"R"
294855,"19382 SHAKLE LANE","LEXINGTON PARK","MD",20653,38.199891505,-76.4311203779999,355,"19382 SHAKLE LANE, LEXINGTON PARK, MD, 20653","Match","Exact","19382 SHAKLE LN, LEXINGTON PARK, MD, 20653",36640074,"L"
294856,"19383 COCKRELL RD","YOUKON","MO",65589,37.2345211640001,-91.826623313,356,"19383 COCKRELL RD, YOUKON, MO, 65589","Match","Non_Exact","19383 COCKRELL RD, YUKON, MO, 65589",26437983,"L"
294857,"19383 E CHAFFEE PL","DENVER","CO",80249,39.777810249,-104.76182546,357,"19383 E CHAFFEE PL, DENVER, CO, 80249","Match","Exact","19383 E CHAFFEE PL, DENVER, CO, 80249",177352204,"R"
294858,"19383 V ST","OMAHA","NE",68135,41.2003026630001,-96.218831537,358,"19383 V ST, OMAHA, NE, 68135","Match","Exact","19383 V ST, OMAHA, NE, 68135",624351927,"R"
294859,"19385 EAST PRENTICE LANE","CENTENNIAL","CO",80015,39.6194332360001,-104.762107121,359,"19385 EAST PRENTICE LANE, CENTENNIAL, CO, 80015","Match","Exact","19385 E PRENTICE LN, CENTENNIAL, CO, 80015",177360080,"L"
294860,"19386 COVENTRY STREET","DETROIT","MI",48203,42.435583202,-83.101398439,360,"19386 COVENTRY STREET, DETROIT, MI, 48203","Match","Exact","19386 COVENTRY ST, DETROIT, MI, 48203",95461986,"R"
294861,"19386 SW 65TH STREET","FORT LAUDERDALE","FL",33332,26.0369947130001,-80.4062831649999,361,"19386 SW 65TH STREET, FORT LAUDERDALE, FL, 33332","Match","Exact","19386 SW 65TH ST, FORT LAUDERDALE, FL, 33332",114817034,"R"
294862,"19386 WINDWARD COVE","GULFPORT","MS",39503,30.463177832,-89.1663818069999,362,"19386 WINDWARD COVE, GULFPORT, MS, 39503","Match","Exact","19386 WINDWARD COVE, GULFPORT, MS, 39503",111395849,"R"
294863,"19387 HIDDEN OAKS DR","BROOKSVILLE","FL",34604,28.479277746,-82.407817138,363,"19387 HIDDEN OAKS DR, BROOKSVILLE, FL, 34604","Match","Exact","19387 HIDDEN OAKS DR, BROOKSVILLE, FL, 34604",85456607,"R"
294864,"19387 ISABELLA DR","MACOMV","MI",48044,42.643574121,-82.928768454,364,"19387 ISABELLA DR, MACOMV, MI, 48044","Match","Non_Exact","19387 ISABELLA DR, MACOMB, MI, 48044",110732484,"R"
294865,"19387 NEWCOM KNOLL","LAWRENCEBURG","IN",47025,39.153228423,-84.8394865989999,365,"19387 NEWCOM KNOLL, LAWRENCEBURG, IN, 47025","Match","Exact","19387 NEWCOM KNOLL, LAWRENCEBURG, IN, 47025",224035215,"R"
294866,"19387 PONDEROSA RD","PIONEER","CA",95666,38.4889586350001,-120.550164473,366,"19387 PONDEROSA RD, PIONEER, CA, 95666","Match","Non_Exact","19387 PONDEROSA DR, PIONEER, CA, 95666",132723507,"L"
294867,"19387 ROAD 248","STRATHMORE","CA",93267,36.1417849330001,-119.017987623,367,"19387 ROAD 248, STRATHMORE, CA, 93267","Match","Exact","19387 RD 248, STRATHMORE, CA, 93267",635824346,"L"
294868,"19387 YONKA STREET","DETROIT","MI",48234,42.436420276,-83.066333532,368,"19387 YONKA STREET, DETROIT, MI, 48234","Match","Exact","19387 YONKA ST, DETROIT, MI, 48234",95464115,"L"
294869,"19388 114TH ST SE","BIG LAKE","MN",55309,45.4062599330001,-93.765040496,369,"19388 114TH ST SE, BIG LAKE, MN, 55309","Match","Exact","19388 114TH ST SE, BIG LAKE, MN, 55309",97776863,"L"
294870,"19388 144TH ST SE","BIG LAKE","MN",55309,NA,NA,370,"19388 144TH ST SE, BIG LAKE, MN, 55309","No_Match",NA,NA,NA,NA
294871,"19388 WARRINGTON DR","DETROIT","MI",48221,42.4356190290001,-83.140437482,371,"19388 WARRINGTON DR, DETROIT, MI, 48221","Match","Exact","19388 WARRINGTON DR, DETROIT, MI, 48221",95460870,"R"
294872,"19389 CAROLINA CIRCLE","BOCA RATON","FL",33434,26.3881728550001,-80.2006566159999,372,"19389 CAROLINA CIRCLE, BOCA RATON, FL, 33434","Match","Exact","19389 CAROLINA CIR, BOCA RATON, FL, 33434",115575294,"R"
294873,"19389 CAROLINA CRICLE","BOCA RATON","FL",33434,26.3881728550001,-80.2006566159999,373,"19389 CAROLINA CRICLE, BOCA RATON, FL, 33434","Match","Non_Exact","19389 CAROLINA CIR, BOCA RATON, FL, 33434",115575294,"R"
294874,"19389 EUREKA ST","DETROIT","MI",48234,42.436580996,-83.057936803,374,"19389 EUREKA ST, DETROIT, MI, 48234","Match","Exact","19389 EUREKA ST, DETROIT, MI, 48234",95464426,"L"
294875,"193890 N 4070 RD","ANTLERS","OK",74523,34.2013805930001,-95.779222846,375,"193890 N 4070 RD, ANTLERS, OK, 74523","Match","Non_Exact","193890 N4070 RD, ANTLERS, OK, 74523",633132340,"R"
294876,"1939 108TH AVE","OAKLAND","CA",94603,37.739216529,-122.159883846,376,"1939 108TH AVE, OAKLAND, CA, 94603","Match","Exact","1939 108TH AVE, OAKLAND, CA, 94603",125011288,"L"
294877,"1939 24TH ST CIRCLE WEST","PALMETTO","FL",34221,NA,NA,377,"1939 24TH ST CIRCLE WEST, PALMETTO, FL, 34221","No_Match",NA,NA,NA,NA
294878,"1939 7TH AVENUE","SACRAMENTO","CA",95818,38.5475494900001,-121.492306177,378,"1939 7TH AVENUE, SACRAMENTO, CA, 95818","Match","Exact","1939 7TH AVE, SACRAMENTO, CA, 95818",133325715,"L"
294879,"1939 ABERDENE RD","COLUMBUS","OH",43211,NA,NA,379,"1939 ABERDENE RD, COLUMBUS, OH, 43211","No_Match",NA,NA,NA,NA
294880,"1939 BONNEYCASTLE RD","LOUISVILLE","KY",40204,NA,NA,380,"1939 BONNEYCASTLE RD, LOUISVILLE, KY, 40204","No_Match",NA,NA,NA,NA
294881,"1939 BRIDGESTONE CIRCLE","CONYERS","GA",30012,33.6780663110001,-83.9824255359999,381,"1939 BRIDGESTONE CIRCLE, CONYERS, GA, 30012","Match","Exact","1939 BRIDGESTONE CIR, CONYERS, GA, 30012",634099136,"L"
294882,"1939 BRISTA DE MAR CIR","ATLANTIC BEACH","FL",32233,30.352041059,-81.401896316,382,"1939 BRISTA DE MAR CIR, ATLANTIC BEACH, FL, 32233","Match","Exact","1939 BRISTA DE MAR CIR, ATLANTIC BCH, FL, 32233",83942403,"R"
294883,"1939 CAVENDALE DRIVE","ROCK HILL","SC",29732,34.9530470030001,-81.065765542,383,"1939 CAVENDALE DRIVE, ROCK HILL, SC, 29732","Match","Exact","1939 CAVENDALE DR, ROCK HILL, SC, 29732",19806970,"L"
294884,"1939 CHASE COMMON CT","NORCROSS","GA",30071,33.9216240960001,-84.198478474,384,"1939 CHASE COMMON CT, NORCROSS, GA, 30071","Match","Exact","1939 CHASE COMMON CT, NORCROSS, GA, 30071",88924506,"L"
294885,"1939 CHICKASAW DRIVE","HENDERSON","NV",89002,36.0103723400001,-114.936476896,385,"1939 CHICKASAW DRIVE, HENDERSON, NV, 89002","Match","Exact","1939 CHICKASAW DR, HENDERSON, NV, 89002",201928197,"R"
294886,"1939 CHURCHILL CT","FORT COLLINS","CO",80526,40.538822942,-105.112089704,386,"1939 CHURCHILL CT, FORT COLLINS, CO, 80526","Match","Exact","1939 CHURCHILL CT, FORT COLLINS, CO, 80526",188505608,"L"
294887,"1939 CIRCLE DRIVE","NORTH PALM BEACH","FL",33408,26.8551184770001,-80.062590238,387,"1939 CIRCLE DRIVE, NORTH PALM BEACH, FL, 33408","Match","Exact","1939 CIRCLE DR, NORTH PALM BEACH, FL, 33408",115580497,"R"
294888,"1939 CR 645","FARMERSVILLE","TX",75442,33.12742774,-96.353652928,388,"1939 CR 645, FARMERSVILLE, TX, 75442","Match","Exact","1939 CO RD 645, FARMERSVILLE, TX, 75442",635383394,"L"
294889,"1939 E FRUIT ST","SANTA ANA","CA",92701,33.7528291300001,-117.840231159,389,"1939 E FRUIT ST, SANTA ANA, CA, 92701","Match","Exact","1939 E FRUIT ST, SANTA ANA, CA, 92701",144117795,"L"
294890,"1939 E MAIN S","ALBEMARLE","NC",28001,NA,NA,390,"1939 E MAIN S, ALBEMARLE, NC, 28001","No_Match",NA,NA,NA,NA
294891,"1939 E MAIN ST","ALBEMARLE","NC",28001,35.348497733,-80.1632128909999,391,"1939 E MAIN ST, ALBEMARLE, NC, 28001","Match","Exact","1939 E MAIN ST, ALBEMARLE, NC, 28001",639446047,"R"
294892,"1939 E STREET","RIO LINDA","CA",95673,38.6762728530001,-121.421228738,392,"1939 E STREET, RIO LINDA, CA, 95673","Match","Exact","1939 E ST, RIO LINDA, CA, 95673",133439128,"L"
294893,"1939 EDWARD COVE","MEMPHIS","TN",38107,35.1665112760001,-89.993455125,393,"1939 EDWARD COVE, MEMPHIS, TN, 38107","Match","Exact","1939 EDWARD COVE, MEMPHIS, TN, 38107",72966799,"L"
294894,"1939 ELLEN","SAN LEANDRO","CA",95125,NA,NA,394,"1939 ELLEN, SAN LEANDRO, CA, 95125","No_Match",NA,NA,NA,NA
294895,"1939 ENGLEWOOD ROAD","GALAX","VA",24333,36.660035099,-81.020558755,395,"1939 ENGLEWOOD ROAD, GALAX, VA, 24333","Match","Exact","1939 ENGLEWOOD RD, GALAX, VA, 24333",153798584,"L"
294896,"1939 FARNSWORTH LANE","NORTHBROOK","IL",60062,42.121480536,-87.827630426,396,"1939 FARNSWORTH LANE, NORTHBROOK, IL, 60062","Match","Exact","1939 FARNSWORTH LN, NORTHBROOK, IL, 60062",112388481,"R"
294897,"1939 FLAGLER ST","QUINCY","FL",32351,30.5768480040001,-84.6030460379999,397,"1939 FLAGLER ST, QUINCY, FL, 32351","Match","Exact","1939 FLAGLER ST, QUINCY, FL, 32351",87816827,"L"
294898,"1939 FRAMES RD","DUNDALK","MD",21222,39.261746051,-76.4908414829999,398,"1939 FRAMES RD, DUNDALK, MD, 21222","Match","Exact","1939 FRAMES RD, DUNDALK, MD, 21222",191531844,"L"
294899,"1939 GOLDSMITH LANE SUITE 144","LOUISVILLE","KY",40218,38.2023801980001,-85.6805599749999,399,"1939 GOLDSMITH LANE SUITE 144, LOUISVILLE, KY, 40218","Match","Exact","1939 GOLDSMITH LN, LOUISVILLE, KY, 40218",96889576,"L"
294900,"1939 GOLDSMITH LN 214","LOUISVILLE","IN",40218,NA,NA,400,"1939 GOLDSMITH LN 214, LOUISVILLE, IN, 40218","No_Match",NA,NA,NA,NA
294901,"1939 GOLDSMITH LN 214","LOUISVILLE","KY",40218,38.2023801980001,-85.6805599749999,401,"1939 GOLDSMITH LN 214, LOUISVILLE, KY, 40218","Match","Exact","1939 GOLDSMITH LN, LOUISVILLE, KY, 40218",96889576,"L"
294902,"1939 GREENBRIER ROAD","WINSTON SALEM","NC",27104,36.1077831960001,-80.2739164669999,402,"1939 GREENBRIER ROAD, WINSTON SALEM, NC, 27104","Match","Exact","1939 GREENBRIER RD, WINSTON SALEM, NC, 27104",84647893,"R"
294903,"1939 HARRISON ST","OAKLAND","CA",94612,37.808019829,-122.264547568,403,"1939 HARRISON ST, OAKLAND, CA, 94612","Match","Exact","1939 HARRISON ST, OAKLAND, CA, 94612",125000897,"L"
294904,"1939 HARRISON STREET SUITE 921","OAKLAND","CA",94612,37.808019829,-122.264547568,404,"1939 HARRISON STREET SUITE 921, OAKLAND, CA, 94612","Match","Exact","1939 HARRISON ST, OAKLAND, CA, 94612",125000897,"L"
294905,"1939 HILLMAN ST","TULARE","CA",93274,36.2300629430001,-119.331039994,405,"1939 HILLMAN ST, TULARE, CA, 93274","Match","Exact","1939 HILLMAN ST, TULARE, CA, 93274",607519317,"L"
294906,"1939 LAMBETH WAY","SAN RAMON","CA",94582,37.751947214,-121.892914205,406,"1939 LAMBETH WAY, SAN RAMON, CA, 94582","Match","Exact","1939 LAMBETH WAY, SAN RAMON, CA, 94582",624637515,"L"
294907,"1939 LAMBETH","SAN RAMON","CA",94582,37.751947214,-121.892914205,407,"1939 LAMBETH, SAN RAMON, CA, 94582","Match","Non_Exact","1939 LAMBETH WAY, SAN RAMON, CA, 94582",624637515,"L"
294908,"1939 LURTING AVENUE","BRONX","NY",10461,40.85192807,-73.856002401,408,"1939 LURTING AVENUE, BRONX, NY, 10461","Match","Exact","1939 LURTING AVE, BRONX, NY, 10461",80304539,"L"
294909,"1939 MARBLE STONE LANE","ROSENBERG","TX",77469,29.5177464000001,-95.746720338,409,"1939 MARBLE STONE LANE, ROSENBERG, TX, 77469","Match","Exact","1939 MARBLE STONE LN, ROSENBERG, TX, 77469",641138296,"L"
294910,"1939 MAYFLOWER DR","DALLAS","TX",75208,32.7584708370001,-96.852835405,410,"1939 MAYFLOWER DR, DALLAS, TX, 75208","Match","Exact","1939 MAYFLOWER DR, DALLAS, TX, 75208",102944814,"R"
294911,"1939 N ANTIOCH AVE","FRESNO","CA",93722,36.763707577,-119.876575202,411,"1939 N ANTIOCH AVE, FRESNO, CA, 93722","Match","Exact","1939 N ANTIOCH AVE, FRESNO, CA, 93722",618731974,"L"
294912,"1939 N BERENDO ST","SAN FERNANDO","CA",91340,NA,NA,412,"1939 N BERENDO ST, SAN FERNANDO, CA, 91340","No_Match",NA,NA,NA,NA
294913,"1939 N PENNSYLVANIA ST","INDIANAPOLIS","IN",46202,39.793193167,-86.1560322939999,413,"1939 N PENNSYLVANIA ST, INDIANAPOLIS, IN, 46202","Match","Exact","1939 N PENNSYLVANIA ST, INDIANAPOLIS, IN, 46202",108051434,"R"
294914,"1939 NEREID AVENUE","BRONX","NY",10466,40.8989743290001,-73.847349338,414,"1939 NEREID AVENUE, BRONX, NY, 10466","Match","Exact","1939 NEREID AVE, BRONX, NY, 10466",80297526,"L"
294915,"1939 NW HOYT STREET","PORTLAND","OR",97209,45.527076558,-122.691209256,415,"1939 NW HOYT STREET, PORTLAND, OR, 97209","Match","Exact","1939 NW HOYT ST, PORTLAND, OR, 97209",157498432,"R"
294916,"1939 PARKWOOD RD","CHARLESTON","WV",25314,38.333735548,-81.673441512,416,"1939 PARKWOOD RD, CHARLESTON, WV, 25314","Match","Exact","1939 PARKWOOD RD, CHARLESTON, WV, 25314",78619617,"L"
294917,"1939 PERIDOT CIR","KISSIMMEE","FL",34743,28.3153149890001,-81.3687290989999,417,"1939 PERIDOT CIR, KISSIMMEE, FL, 34743","Match","Exact","1939 PERIDOT CIR, KISSIMMEE, FL, 34743",640008196,"R"
294918,"1939 PRAIRIE CREEK","PEARLAND","TX",77581,29.5498526330001,-95.241053974,418,"1939 PRAIRIE CREEK, PEARLAND, TX, 77581","Match","Non_Exact","1939 PRAIRIE CREEK DR, PEARLAND, TX, 77581",116603085,"R"
294919,"1939 QUIET CIRCLE","SAN JOSE","CA",95132,37.4107440880001,-121.862569233,419,"1939 QUIET CIRCLE, SAN JOSE, CA, 95132","Match","Exact","1939 QUIET CIR, SAN JOSE, CA, 95132",122962528,"L"
294920,"1939 RICHVALE LANE","HOUSTON","TX",77062,29.5665844110001,-95.114724103,420,"1939 RICHVALE LANE, HOUSTON, TX, 77062","Match","Exact","1939 RICHVALE LN, HOUSTON, TX, 77062",96115800,"L"
294921,"1939 S 13TH","MAYWOOD","IL",60153,41.86890492,-87.84830642,421,"1939 S 13TH, MAYWOOD, IL, 60153","Match","Non_Exact","1939 S 13TH AVE, MAYWOOD, IL, 60153",111790973,"L"
294922,"1939 S BOUVIER STREET","PHILADELPHIA","PA",19145,39.927071373,-75.175118557,422,"1939 S BOUVIER STREET, PHILADELPHIA, PA, 19145","Match","Exact","1939 S BOUVIER ST, PHILADELPHIA, PA, 19145",131411233,"L"
294923,"1939 SKYLINE VISTA DR","LA HABRA HEIGHTS","CA",90631,33.964454533,-117.932610833,423,"1939 SKYLINE VISTA DR, LA HABRA HEIGHTS, CA, 90631","Match","Exact","1939 SKYLINE VISTA DR, LA HABRA HEIGHTS, CA, 90631",141756908,"L"
294924,"1939 SONG SPARROW CT","SCHAUMBURG","IL",60173,42.0645184310001,-88.037908989,424,"1939 SONG SPARROW CT, SCHAUMBURG, IL, 60173","Match","Exact","1939 SONG SPARROW CT, SCHAUMBURG, IL, 60173",112370406,"R"
294925,"1939 SOUTH 13TH STREET","PHILADELPHIA","PA",19148,39.926048311,-75.1671526659999,425,"1939 SOUTH 13TH STREET, PHILADELPHIA, PA, 19148","Match","Exact","1939 S 13TH ST, PHILADELPHIA, PA, 19148",131412030,"L"
294926,"1939 SOUTHERN LOOP SUITE S","SHREVEPORT","LA",71106,NA,NA,426,"1939 SOUTHERN LOOP SUITE S, SHREVEPORT, LA, 71106","No_Match",NA,NA,NA,NA
294927,"1939 SPARROWS RIDGE","KATY","TX",77450,29.7493094280001,-95.715734552,427,"1939 SPARROWS RIDGE, KATY, TX, 77450","Match","Exact","1939 SPARROWS RIDGE, KATY, TX, 77450",96618556,"R"
294928,"1939 SPRINGPORT RD APT 3","JACKSON","MI",49202,42.276542211,-84.4378391179999,428,"1939 SPRINGPORT RD APT 3, JACKSON, MI, 49202","Match","Exact","1939 SPRINGPORT RD, JACKSON, MI, 49202",648158323,"L"
294929,"1939 SPRUCE CREEK LANDING","PORT ORANGE","FL",32128,29.06782997,-81.054887451,429,"1939 SPRUCE CREEK LANDING, PORT ORANGE, FL, 32128","Match","Exact","1939 SPRUCE CREEK LNDG, PORT ORANGE, FL, 32128",94548599,"L"
294930,"1939 STADIUM OAKS CT","ARLINGTON","TX",76011,32.747997325,-97.0797698059999,430,"1939 STADIUM OAKS CT, ARLINGTON, TX, 76011","Match","Exact","1939 STADIUM OAKS CT, ARLINGTON, TX, 76011",102175302,"L"
294931,"1939 SUMMIT COURT","MONTOURSVILLE","PA",17754,41.265125702,-76.9409617269999,431,"1939 SUMMIT COURT, MONTOURSVILLE, PA, 17754","Match","Exact","1939 SUMMIT CT, MONTOURSVILLE, PA, 17754",59454051,"R"
294932,"1939 VIA MONTECITO","CAMARILLO","CA",93012,34.236364275,-118.975237957,432,"1939 VIA MONTECITO, CAMARILLO, CA, 93012","Match","Exact","1939 VIA MONTECITO, CAMARILLO, CA, 93012",109965514,"R"
294933,"1939 VILLAGE PARK","MISSOURI CITY","TX",77485,NA,NA,433,"1939 VILLAGE PARK, MISSOURI CITY, TX, 77485","No_Match",NA,NA,NA,NA
294934,"1939 VILLAGE PARK","WALLIS","TX",77485,NA,NA,434,"1939 VILLAGE PARK, WALLIS, TX, 77485","No_Match",NA,NA,NA,NA
294935,"1939 W ASHBROOKE RD","CHICAGO","IL",60446,41.6047627570001,-88.155088414,435,"1939 W ASHBROOKE RD, CHICAGO, IL, 60446","Match","Non_Exact","1939 ASHBROOKE RD, ROMEOVILLE, IL, 60446",111635106,"R"
294936,"1939 W CORNELIA AVE","CHICAGO","IL",60657,41.9450425700001,-87.677600011,436,"1939 W CORNELIA AVE, CHICAGO, IL, 60657","Match","Exact","1939 W CORNELIA AVE, CHICAGO, IL, 60657",605158886,"L"
294937,"1939 W CUYLER AVE","CHICAGO","IL",60613,41.955103632,-87.6779861109999,437,"1939 W CUYLER AVE, CHICAGO, IL, 60613","Match","Exact","1939 W CUYLER AVE, CHICAGO, IL, 60613",629482200,"L"
294938,"1939 W KIMBERLY RD","ATLANTA","GA",30331,NA,NA,438,"1939 W KIMBERLY RD, ATLANTA, GA, 30331","Tie",NA,NA,NA,NA
294939,"1939 W LOYOLA","CHICAGO","IL",60626,42.0003366240001,-87.678952403,439,"1939 W LOYOLA, CHICAGO, IL, 60626","Match","Non_Exact","1939 W LOYOLA AVE, CHICAGO, IL, 60626",605169141,"R"
294940,"1939 WALLACE AVENUE APT 115","COSTA MESA","CA",92627,33.6448510810001,-117.92985651,440,"1939 WALLACE AVENUE APT 115, COSTA MESA, CA, 92627","Match","Exact","1939 WALLACE AVE, COSTA MESA, CA, 92627",609065910,"L"
294941,"1939 WENTZVILLE PKWY STE 155","WENTZVILLE","MO",63385,38.813345649,-90.875363374,441,"1939 WENTZVILLE PKWY STE 155, WENTZVILLE, MO, 63385","Match","Exact","1939 WENTZVILLE PKWY, WENTZVILLE, MO, 63385",100069169,"L"
294942,"1939 WEST MARSHALL ST","NORRISTOWN","PA",19403,40.1343465100001,-75.3740333809999,442,"1939 WEST MARSHALL ST, NORRISTOWN, PA, 19403","Match","Exact","1939 W MARSHALL ST, NORRISTOWN, PA, 19403",135118069,"R"
294943,"1939 WHITEHALL FOREST CT","ATLANTA","GA",30315,NA,NA,443,"1939 WHITEHALL FOREST CT, ATLANTA, GA, 30315","No_Match",NA,NA,NA,NA
294944,"1939 WOODBURY PIKE","LOYSBURG","PA",16659,NA,NA,444,"1939 WOODBURY PIKE, LOYSBURG, PA, 16659","No_Match",NA,NA,NA,NA
294945,"1939 WOODCREST CIRCLE","MOSINEE","WI",54455,44.8389124170001,-89.602915647,445,"1939 WOODCREST CIRCLE, MOSINEE, WI, 54455","Match","Exact","1939 WOODCREST CIR, MOSINEE, WI, 54455",117163454,"L"
294946,"1939 YORK LANE","HIGHLAND PARK","IL",60035,42.180672933,-87.834151741,446,"1939 YORK LANE, HIGHLAND PARK, IL, 60035","Match","Exact","1939 YORK LN, HIGHLAND PARK, IL, 60035",119650851,"R"
294947,"1939 YUCCA COURT","DOUGLAS","WY",82633,42.7449350690001,-105.359528311,447,"1939 YUCCA COURT, DOUGLAS, WY, 82633","Match","Exact","1939 YUCCA CT, DOUGLAS, WY, 82633",147000977,"L"
294948,"19392 E HERITAGE PL","ROWLAND HEIGHTS","CA",91748,33.9931907800001,-117.878542871,448,"19392 E HERITAGE PL, ROWLAND HEIGHTS, CA, 91748","Match","Exact","19392 HERITAGE PL, ROWLAND HEIGHTS, CA, 91748",142842713,"L"
294949,"19392 OAKWOOD DR","BLOOMINGTON","IL",61705,40.422962252,-88.890034204,449,"19392 OAKWOOD DR, BLOOMINGTON, IL, 61705","Match","Exact","19392 OAKWOOD DR, BLOOMINGTON, IL, 61705",20586644,"R"
294950,"19393 PROMENADE DR","LEESBURG","VA",20176,39.0810131540001,-77.494403859,450,"19393 PROMENADE DR, LEESBURG, VA, 20176","Match","Exact","19393 PROMENADE DR, LEESBURG, VA, 20176",629470741,"R"
294951,"19394 HALSTEAD ST","NORTHRIDGE","CA",91324,34.2437347630001,-118.556825333,451,"19394 HALSTEAD ST, NORTHRIDGE, CA, 91324","Match","Non_Exact","19394 HALSTED ST, NORTHRIDGE, CA, 91324",141540178,"L"
294952,"19394 WHISPERING HILL DR","BRISTOL","IN",46507,41.678978774,-85.8378077529999,452,"19394 WHISPERING HILL DR, BRISTOL, IN, 46507","Match","Non_Exact","19394 WHISPERING HILLS DR, BRISTOL, IN, 46507",624524678,"R"
294953,"19395 EAST FAIR PLACE","AURORA","CO",80016,39.604067752,-104.762374805,453,"19395 EAST FAIR PLACE, AURORA, CO, 80016","Match","Exact","19395 E FAIR PL, AURORA, CO, 80016",177524418,"L"
294954,"19395 HARRIS LANE","ONANCOCK","VA",23417,37.915327403,-75.393633736,454,"19395 HARRIS LANE, ONANCOCK, VA, 23417","Match","Exact","19395 HARRIS LN, ONANCOCK, VA, 23417",114604286,"L"
294955,"19395 OUTER BANK RD","NOBLESVILLE","IN",46062,40.069387713,-86.0613560469999,455,"19395 OUTER BANK RD, NOBLESVILLE, IN, 46062","Match","Exact","19395 OUTER BANK RD, NOBLESVILLE, IN, 46062",29332136,"R"
294956,"19395 W 94TH AVENUE","ARVADA","CO",80007,39.867035437,-105.220323074,456,"19395 W 94TH AVENUE, ARVADA, CO, 80007","Match","Exact","19395 W 94TH AVE, ARVADA, CO, 80007",645233929,"R"
294957,"19396 BARNETT ROAD","BROOKSVILLE","FL",34601,28.537868598,-82.409779479,457,"19396 BARNETT ROAD, BROOKSVILLE, FL, 34601","Match","Exact","19396 BARNETT RD, BROOKSVILLE, FL, 34601",85456225,"L"
294958,"19396 MONTE VISTA DRIVE","SARATOGA","CA",95070,37.2481753750001,-122.011758029,458,"19396 MONTE VISTA DRIVE, SARATOGA, CA, 95070","Match","Exact","19396 MONTE VISTA DR, SARATOGA, CA, 95070",618175333,"L"
294959,"19396 TAMARACK ROAD","CULVER","IN",46511,NA,NA,459,"19396 TAMARACK ROAD, CULVER, IN, 46511","No_Match",NA,NA,NA,NA
294960,"19397 DELEWARE CIRCLE","BOCA RATON","FL",33434,26.3865744660001,-80.202702739,460,"19397 DELEWARE CIRCLE, BOCA RATON, FL, 33434","Match","Non_Exact","19397 DELAWARE CIR, BOCA RATON, FL, 33434",115291913,"R"
294961,"19397 SCENIC HWY 98","FAIRHOPE","AL",36532,NA,NA,461,"19397 SCENIC HWY 98, FAIRHOPE, AL, 36532","No_Match",NA,NA,NA,NA
294962,"19398 E QUINCY PL","AURORA","CO",80015,NA,NA,462,"19398 E QUINCY PL, AURORA, CO, 80015","Tie",NA,NA,NA,NA
294963,"19398 WEATHERVANE","MACOMB","MI",48044,42.6489884000001,-82.928788622,463,"19398 WEATHERVANE, MACOMB, MI, 48044","Match","Non_Exact","19398 WEATHERVANE DR, MACOMB, MI, 48044",110720309,"L"
294964,"19399 LONG LAKE BRANCH BLVD","LUTZ","FL",33558,NA,NA,464,"19399 LONG LAKE BRANCH BLVD, LUTZ, FL, 33558","No_Match",NA,NA,NA,NA
294965,"194 164TH ST SE NUMB 395","MILL CREEK","WA",98012,47.84930788,-122.230836302,465,"194 164TH ST SE NUMB 395, MILL CREEK, WA, 98012","Match","Exact","194 164TH ST SE, MILL CREEK, WA, 98012",627045843,"R"
294966,"194 25TH STREET","TROY","NY",12180,42.74186109,-73.664789372,466,"194 25TH STREET, TROY, NY, 12180","Match","Exact","194 25TH ST, TROY, NY, 12180",35730371,"R"
294967,"194 2ND ST","KEYPORT","NJ",7735,40.438401739,-74.191895501,467,"194 2ND ST, KEYPORT, NJ, 7735","Match","Exact","194 2ND ST, KEYPORT, NJ, 07735",642801727,"R"
294968,"194 ACADEMY DR","WILMORE","KY",40390,37.8553010840001,-84.6604512659999,468,"194 ACADEMY DR, WILMORE, KY, 40390","Match","Exact","194 ACADEMY DR, WILMORE, KY, 40390",647322559,"R"
294969,"194 ALABAMA ST","SPINDALE","NC",28160,35.367579048,-81.9304554129999,469,"194 ALABAMA ST, SPINDALE, NC, 28160","Match","Exact","194 ALABAMA ST, SPINDALE, NC, 28160",19388597,"R"
294970,"194 ARTIST LAKE RD","MIDDLE ISLAND","NY",11953,40.8781956760001,-72.936551271,470,"194 ARTIST LAKE RD, MIDDLE ISLAND, NY, 11953","Match","Non_Exact","194 ARTIST LAKE DR, MIDDLE ISLAND, NY, 11953",114034770,"L"
294971,"194 AZALEA COURT","SUNSET BEACH","NC",28468,NA,NA,471,"194 AZALEA COURT, SUNSET BEACH, NC, 28468","Tie",NA,NA,NA,NA
294972,"194 BAY 40 STREET","BROOKLYN","NY",11214,40.5935677000001,-73.9905283529999,472,"194 BAY 40 STREET, BROOKLYN, NY, 11214","Match","Exact","194 BAY 40TH ST, BROOKLYN, NY, 11214",59088882,"R"
294973,"194 BAYVIEW DR","LEES SUMMIT","MO",64064,38.9895237850001,-94.374739657,473,"194 BAYVIEW DR, LEES SUMMIT, MO, 64064","Match","Non_Exact","194 NE BAYVIEW DR, LEES SUMMIT, MO, 64064",653445691,"R"
294974,"194 BEACH 74TH STREET APT A","ARVERNE","NY",11692,40.588754039,-73.801968807,474,"194 BEACH 74TH STREET APT A, ARVERNE, NY, 11692","Match","Exact","194 BEACH 74TH ST, ARVERNE, NY, 11692",59740768,"R"
294975,"194 BELMONT AVENUE","ELMONT","NY",11003,40.7011956320001,-73.722126469,475,"194 BELMONT AVENUE, ELMONT, NY, 11003","Match","Exact","194 BELMONT AVE, ELMONT, NY, 11003",147667465,"L"
294976,"194 BERGEN BLVD","WOODLAND PARK","NJ",7424,40.895833001,-74.211239722,476,"194 BERGEN BLVD, WOODLAND PARK, NJ, 7424","Match","Exact","194 BERGEN BLVD, WOODLAND PARK, NJ, 07424",65261483,"R"
294977,"194 BERKELEY RIDGE DRIVE","COLUMBIA","SC",29229,34.183049974,-80.8824835409999,477,"194 BERKELEY RIDGE DRIVE, COLUMBIA, SC, 29229","Match","Exact","194 BERKELEY RIDGE DR, COLUMBIA, SC, 29229",608832029,"L"
294978,"194 BERKSHIRE ROAD","HASBROUCK HEIGHTS","NJ",7604,40.857637998,-74.074220117,478,"194 BERKSHIRE ROAD, HASBROUCK HEIGHTS, NJ, 7604","Match","Exact","194 BERKSHIRE RD, HASBROUCK HEIGHTS, NJ, 07604",64393256,"R"
294979,"194 BIG OAK ROAD","BRIDGETON","NJ",8302,39.4903023250001,-75.17550529,479,"194 BIG OAK ROAD, BRIDGETON, NJ, 8302","Match","Exact","194 BIG OAK RD, BRIDGETON, NJ, 08302",174108372,"L"
294980,"194 BLOOMFIELD AVENUE","BLOOMFIELD","NJ",7003,40.7812783310001,-74.190799532,480,"194 BLOOMFIELD AVENUE, BLOOMFIELD, NJ, 7003","Match","Exact","194 BLOOMFIELD AVE, BLOOMFIELD, NJ, 07003",63451390,"L"
294981,"194 BOTTOMS ROAD","PANACEA","FL",32346,30.0414261190001,-84.379975605,481,"194 BOTTOMS ROAD, PANACEA, FL, 32346","Match","Exact","194 BOTTOMS RD, PANACEA, FL, 32346",610430140,"L"
294982,"194 BRANDY BROOK ROAD","SCITUATE","RI",2857,41.8142307310001,-71.5734083089999,482,"194 BRANDY BROOK ROAD, SCITUATE, RI, 2857","Match","Exact","194 BRANDY BROOK RD, SCITUATE, RI, 02857",47449983,"R"
294983,"194 BUNCOMBE HILL LANE","MT OLIVE","NC",28365,35.1120440110001,-78.041390693,483,"194 BUNCOMBE HILL LANE, MT OLIVE, NC, 28365","Match","Exact","194 BUNCOMBE HILL LN, MOUNT OLIVE, NC, 28365",13442458,"R"
294984,"194 CAPITOL VIEW","ROSEVILLE","MN",55113,NA,NA,484,"194 CAPITOL VIEW, ROSEVILLE, MN, 55113","No_Match",NA,NA,NA,NA
294985,"194 CAROLYN ROAD","UNION","NJ",7083,40.6745516,-74.268469017,485,"194 CAROLYN ROAD, UNION, NJ, 7083","Match","Exact","194 CAROLYN RD, UNION, NJ, 07083",60602220,"R"
294986,"194 CASTLEWOOD DR","SEGUIN","TX",78155,29.57101197,-97.879811616,486,"194 CASTLEWOOD DR, SEGUIN, TX, 78155","Match","Exact","194 CASTLEWOOD DR, SEGUIN, TX, 78155",234718389,"L"
294987,"194 CATHERINE ST","AMHERST","NY",14221,42.9830521260001,-78.7573510719999,487,"194 CATHERINE ST, AMHERST, NY, 14221","Match","Exact","194 CATHERINE ST, AMHERST, NY, 14221",48298402,"L"
294988,"194 CEDAR HEIGHTS","FORT GAY","WV",25514,38.116138597,-82.5871213039999,488,"194 CEDAR HEIGHTS, FORT GAY, WV, 25514","Match","Exact","194 CEDAR HTS, FORT GAY, WV, 25514",57207333,"R"
294989,"194 CEDARWOOD LANE","NEWINGTON","CT",6111,41.691819083,-72.708388965,489,"194 CEDARWOOD LANE, NEWINGTON, CT, 6111","Match","Exact","194 CEDARWOOD LN, NEWINGTON, CT, 06111",3515207,"R"
294990,"194 CEMETERY LANE","LEESPORT","PA",19533,40.4081562490001,-76.022795253,490,"194 CEMETERY LANE, LEESPORT, PA, 19533","Match","Exact","194 CEMETERY LN, LEESPORT, PA, 19533",80448240,"L"
294991,"194 CENTRAL STREET","BOYLSTON","MA",1505,42.3508408450001,-71.718133882,491,"194 CENTRAL STREET, BOYLSTON, MA, 1505","Match","Exact","194 CENTRAL ST, BOYLSTON, MA, 01505",40110750,"R"
294992,"194 COBALT CT","WINSTON-SALEM","NC",27127,35.996829334,-80.287488373,492,"194 COBALT CT, WINSTON-SALEM, NC, 27127","Match","Exact","194 COBALT CT, WINSTON SALEM, NC, 27127",628655113,"L"
294993,"194 COLONIAL DRIVE","SOMERSET","MA",2726,41.7461896240001,-71.154268112,493,"194 COLONIAL DRIVE, SOMERSET, MA, 2726","Match","Exact","194 COLONIAL DR, SOMERSET, MA, 02726",46768457,"R"
294994,"194 CONNECTICUT AVE","SINKING SPRING","PA",19608,40.3405323550001,-76.0371383679999,494,"194 CONNECTICUT AVE, SINKING SPRING, PA, 19608","Match","Exact","194 CONNECTICUT AVE, SINKING SPRING, PA, 19608",634117818,"R"
294995,"194 CONNECTICUT STREET","SAN FRANCISCO","CA",94107,37.76394056,-122.39763016,495,"194 CONNECTICUT STREET, SAN FRANCISCO, CA, 94107","Match","Exact","194 CONNECTICUT ST, SAN FRANCISCO, CA, 94107",192288255,"R"
294996,"194 CORAL AVE","TAVERNIER","FL",33070,25.0067570590001,-80.532233014,496,"194 CORAL AVE, TAVERNIER, FL, 33070","Match","Exact","194 CORAL AVE, TAVERNIER, FL, 33070",116464969,"R"
294997,"194 CORNELL DRIVE","WOODLAND PARK","CO",80863,NA,NA,497,"194 CORNELL DRIVE, WOODLAND PARK, CO, 80863","No_Match",NA,NA,NA,NA
294998,"194 CORNELL","BONNER SPRINGS","KS",66012,39.061240922,-94.8784777499999,498,"194 CORNELL, BONNER SPRINGS, KS, 66012","Match","Non_Exact","194 CORNELL AVE, BONNER SPRINGS, KS, 66012",91131783,"L"
294999,"194 COUNTRY HILL ROAD","WASHINGTON","LA",70589,30.659288453,-92.174188113,499,"194 COUNTRY HILL ROAD, WASHINGTON, LA, 70589","Match","Exact","194 COUNTRY HILL RD, WASHINGTON, LA, 70589",106450319,"R"
295000,"194 COUNTY ROAD 4110","JACKSONVILLE","TX",75766,32.004164055,-95.225363698,500,"194 COUNTY ROAD 4110, JACKSONVILLE, TX, 75766","Match","Exact","194 CO RD 4110, JACKSONVILLE, TX, 75766",72302057,"R"
