"ID","Address","City","State","Zip","lat","long","id","input_address","match_indicator","match_type","matched_address","tiger_line_id","tiger_side"
984501,"PO BOX 344","ELKINS","WV",26241,NA,NA,1,"PO BOX 344, ELKINS, WV, 26241","No_Match",NA,NA,NA,NA
984502,"PO BOX 344","ELLENSBURG","WA",98926,NA,NA,2,"PO BOX 344, ELLENSBURG, WA, 98926","No_Match",NA,NA,NA,NA
984503,"PO BOX 344","ESSEX","CT",6426,NA,NA,3,"PO BOX 344, ESSEX, CT, 6426","No_Match",NA,NA,NA,NA
984504,"PO BOX 344","GARNAVILLO","IA",52049,NA,NA,4,"PO BOX 344, GARNAVILLO, IA, 52049","No_Match",NA,NA,NA,NA
984505,"PO BOX 344","HILLSBORO","ND",58045,NA,NA,5,"PO BOX 344, HILLSBORO, ND, 58045","No_Match",NA,NA,NA,NA
984506,"PO BOX 344","HIXSON","TN",37343,NA,NA,6,"PO BOX 344, HIXSON, TN, 37343","No_Match",NA,NA,NA,NA
984507,"PO BOX 344","MARSHALL","TX",75671,NA,NA,7,"PO BOX 344, MARSHALL, TX, 75671","No_Match",NA,NA,NA,NA
984508,"PO BOX 344","MAXTON","NC",28364,NA,NA,8,"PO BOX 344, MAXTON, NC, 28364","No_Match",NA,NA,NA,NA
984509,"PO BOX 344","MILTON","WA",98354,NA,NA,9,"PO BOX 344, MILTON, WA, 98354","No_Match",NA,NA,NA,NA
984510,"PO BOX 344","Newell","NC",28126,NA,NA,10,"PO BOX 344, Newell, NC, 28126","No_Match",NA,NA,NA,NA
984511,"PO BOX 344","NEWELL","NC",28126,NA,NA,11,"PO BOX 344, NEWELL, NC, 28126","No_Match",NA,NA,NA,NA
984512,"PO BOX 344","OSKALOOSA","KS",66066,NA,NA,12,"PO BOX 344, OSKALOOSA, KS, 66066","No_Match",NA,NA,NA,NA
984513,"PO BOX 344","OSKLOOSA","KS",66066,NA,NA,13,"PO BOX 344, OSKLOOSA, KS, 66066","No_Match",NA,NA,NA,NA
984514,"PO BOX 344","ROSE HILL","KS",67133,NA,NA,14,"PO BOX 344, ROSE HILL, KS, 67133","No_Match",NA,NA,NA,NA
984515,"PO BOX 344","SAXTONS RIVER","VT",5154,NA,NA,15,"PO BOX 344, SAXTONS RIVER, VT, 5154","No_Match",NA,NA,NA,NA
984516,"PO BOX 344","SHARON CENTER","OH",44274,NA,NA,16,"PO BOX 344, SHARON CENTER, OH, 44274","No_Match",NA,NA,NA,NA
984517,"PO BOX 344","SHOKAN","NY",12481,NA,NA,17,"PO BOX 344, SHOKAN, NY, 12481","No_Match",NA,NA,NA,NA
984518,"PO BOX 344","SULTANA","CA",93666,NA,NA,18,"PO BOX 344, SULTANA, CA, 93666","No_Match",NA,NA,NA,NA
984519,"PO BOX 344","SUNRAY","TX",79086,NA,NA,19,"PO BOX 344, SUNRAY, TX, 79086","No_Match",NA,NA,NA,NA
984520,"PO BOX 344","THOMPSON FALLS","MT",59873,NA,NA,20,"PO BOX 344, THOMPSON FALLS, MT, 59873","No_Match",NA,NA,NA,NA
984521,"PO BOX 3440","LONDON","KY",40743,NA,NA,21,"PO BOX 3440, LONDON, KY, 40743","No_Match",NA,NA,NA,NA
984522,"PO BOX 34409","PENSACOLA","FL",32507,NA,NA,22,"PO BOX 34409, PENSACOLA, FL, 32507","No_Match",NA,NA,NA,NA
984523,"PO BOX 3441","SAN LUIS","AZ",85349,NA,NA,23,"PO BOX 3441, SAN LUIS, AZ, 85349","No_Match",NA,NA,NA,NA
984524,"PO BOX 3441","VENTURA","CA",93006,NA,NA,24,"PO BOX 3441, VENTURA, CA, 93006","No_Match",NA,NA,NA,NA
984525,"PO BOX 3444","WISE","VA",24293,NA,NA,25,"PO BOX 3444, WISE, VA, 24293","No_Match",NA,NA,NA,NA
984526,"PO BOX 34483","MEMPHIS","TN",38184,NA,NA,26,"PO BOX 34483, MEMPHIS, TN, 38184","No_Match",NA,NA,NA,NA
984527,"PO BOX 34485","INDIANAPOLIS","IN",46234,NA,NA,27,"PO BOX 34485, INDIANAPOLIS, IN, 46234","No_Match",NA,NA,NA,NA
984528,"PO BOX 345","AVERILL PARK","NY",12018,NA,NA,28,"PO BOX 345, AVERILL PARK, NY, 12018","No_Match",NA,NA,NA,NA
984529,"PO BOX 345","BELLEVILLE","KS",66935,NA,NA,29,"PO BOX 345, BELLEVILLE, KS, 66935","No_Match",NA,NA,NA,NA
984530,"PO BOX 345","BELMONT","NC",28012,NA,NA,30,"PO BOX 345, BELMONT, NC, 28012","No_Match",NA,NA,NA,NA
984531,"PO BOX 345","BLAKESLEE","PA",18610,NA,NA,31,"PO BOX 345, BLAKESLEE, PA, 18610","No_Match",NA,NA,NA,NA
984532,"PO BOX 345","BRANDON","VT",5733,NA,NA,32,"PO BOX 345, BRANDON, VT, 5733","No_Match",NA,NA,NA,NA
984533,"PO BOX 345","DENISON","TX",75021,NA,NA,33,"PO BOX 345, DENISON, TX, 75021","No_Match",NA,NA,NA,NA
984534,"PO BOX 345","EVADALE","TX",77615,NA,NA,34,"PO BOX 345, EVADALE, TX, 77615","No_Match",NA,NA,NA,NA
984535,"PO BOX 345","FAYETTEVILLE","GA",30214,NA,NA,35,"PO BOX 345, FAYETTEVILLE, GA, 30214","No_Match",NA,NA,NA,NA
984536,"PO BOX 345","GHENT","NY",12075,NA,NA,36,"PO BOX 345, GHENT, NY, 12075","No_Match",NA,NA,NA,NA
984537,"PO BOX 345","GUNTER","TX",75058,NA,NA,37,"PO BOX 345, GUNTER, TX, 75058","No_Match",NA,NA,NA,NA
984538,"PO BOX 345","INDIANOLA","MS",38751,NA,NA,38,"PO BOX 345, INDIANOLA, MS, 38751","No_Match",NA,NA,NA,NA
984539,"PO BOX 345","JACKSON","NH",3846,NA,NA,39,"PO BOX 345, JACKSON, NH, 3846","No_Match",NA,NA,NA,NA
984540,"PO BOX 345","KEOTA","OK",74941,NA,NA,40,"PO BOX 345, KEOTA, OK, 74941","No_Match",NA,NA,NA,NA
984541,"PO BOX 345","NEVIS","MN",56467,NA,NA,41,"PO BOX 345, NEVIS, MN, 56467","No_Match",NA,NA,NA,NA
984542,"PO BOX 345","OLNEY","MD",20832,NA,NA,42,"PO BOX 345, OLNEY, MD, 20832","No_Match",NA,NA,NA,NA
984543,"PO BOX 345","RANDOLPH","VT",5060,NA,NA,43,"PO BOX 345, RANDOLPH, VT, 5060","No_Match",NA,NA,NA,NA
984544,"PO BOX 345","SHARON CENTER","OH",44274,NA,NA,44,"PO BOX 345, SHARON CENTER, OH, 44274","No_Match",NA,NA,NA,NA
984545,"PO BOX 345","STATE LINE","PA",17263,NA,NA,45,"PO BOX 345, STATE LINE, PA, 17263","No_Match",NA,NA,NA,NA
984546,"PO BOX 345","VAN VLECK","TX",77482,NA,NA,46,"PO BOX 345, VAN VLECK, TX, 77482","No_Match",NA,NA,NA,NA
984547,"PO BOX 345","VICTORIA","TX",77902,NA,NA,47,"PO BOX 345, VICTORIA, TX, 77902","No_Match",NA,NA,NA,NA
984548,"PO BOX 3451","NEWARK","NJ",7103,NA,NA,48,"PO BOX 3451, NEWARK, NJ, 7103","No_Match",NA,NA,NA,NA
984549,"PO BOX 3451","SALT LAKE CITY","UT",84110,NA,NA,49,"PO BOX 3451, SALT LAKE CITY, UT, 84110","No_Match",NA,NA,NA,NA
984550,"PO BOX 34511","SAN FRANCISCO","CA",94134,NA,NA,50,"PO BOX 34511, SAN FRANCISCO, CA, 94134","No_Match",NA,NA,NA,NA
984551,"PO BOX 3452","WALNUT CREEK","CA",94598,NA,NA,51,"PO BOX 3452, WALNUT CREEK, CA, 94598","No_Match",NA,NA,NA,NA
984552,"PO BOX 34528","RENO","NV",89523,NA,NA,52,"PO BOX 34528, RENO, NV, 89523","No_Match",NA,NA,NA,NA
984553,"PO BOX 3453","SEWARD","AK",99664,NA,NA,53,"PO BOX 3453, SEWARD, AK, 99664","No_Match",NA,NA,NA,NA
984554,"PO BOX 3454","SEATTLE","WA",98409,NA,NA,54,"PO BOX 3454, SEATTLE, WA, 98409","No_Match",NA,NA,NA,NA
984555,"PO BOX 34544","JUNEAU","AK",99801,NA,NA,55,"PO BOX 34544, JUNEAU, AK, 99801","No_Match",NA,NA,NA,NA
984556,"PO BOX 3455","OAKLAND","CA",94603,NA,NA,56,"PO BOX 3455, OAKLAND, CA, 94603","No_Match",NA,NA,NA,NA
984557,"PO BOX 34551","SAN ANTONIO","TX",78256,NA,NA,57,"PO BOX 34551, SAN ANTONIO, TX, 78256","No_Match",NA,NA,NA,NA
984558,"PO BOX 34554","LAS VEGAS","NV",89133,NA,NA,58,"PO BOX 34554, LAS VEGAS, NV, 89133","No_Match",NA,NA,NA,NA
984559,"PO BOX 3456","ARNOLD","CA",95223,NA,NA,59,"PO BOX 3456, ARNOLD, CA, 95223","No_Match",NA,NA,NA,NA
984560,"PO BOX 3456","BRECKENRIDGE","CO",80424,NA,NA,60,"PO BOX 3456, BRECKENRIDGE, CO, 80424","No_Match",NA,NA,NA,NA
984561,"PO BOX 34568","CHARLOTTE","NC",28234,NA,NA,61,"PO BOX 34568, CHARLOTTE, NC, 28234","No_Match",NA,NA,NA,NA
984562,"PO BOX 3457","NEDERLAND","CO",80466,NA,NA,62,"PO BOX 3457, NEDERLAND, CO, 80466","No_Match",NA,NA,NA,NA
984563,"PO BOX 3457","WINTER PARK","CO",80482,NA,NA,63,"PO BOX 3457, WINTER PARK, CO, 80482","No_Match",NA,NA,NA,NA
984564,"PO BOX 34572","KANSAS CITY","MO",64116,NA,NA,64,"PO BOX 34572, KANSAS CITY, MO, 64116","No_Match",NA,NA,NA,NA
984565,"PO BOX 34572","LAS VEGAS","NV",89133,NA,NA,65,"PO BOX 34572, LAS VEGAS, NV, 89133","No_Match",NA,NA,NA,NA
984566,"PO BOX 3458","SHOW LOW","AZ",85902,NA,NA,66,"PO BOX 3458, SHOW LOW, AZ, 85902","No_Match",NA,NA,NA,NA
984567,"PO BOX 3459","LIVERMORE","CA",94551,NA,NA,67,"PO BOX 3459, LIVERMORE, CA, 94551","No_Match",NA,NA,NA,NA
984568,"PO BOX 346","AURORA","OH",44202,NA,NA,68,"PO BOX 346, AURORA, OH, 44202","No_Match",NA,NA,NA,NA
984569,"PO BOX 346","BEARSVILLE","NY",12409,NA,NA,69,"PO BOX 346, BEARSVILLE, NY, 12409","No_Match",NA,NA,NA,NA
984570,"PO BOX 346","CAMAS","WA",98607,NA,NA,70,"PO BOX 346, CAMAS, WA, 98607","No_Match",NA,NA,NA,NA
984571,"PO BOX 346","CLIO","MI",48420,NA,NA,71,"PO BOX 346, CLIO, MI, 48420","No_Match",NA,NA,NA,NA
984572,"PO BOX 346","CORBETT","OR",97019,NA,NA,72,"PO BOX 346, CORBETT, OR, 97019","No_Match",NA,NA,NA,NA
984573,"PO BOX 346","FATE","TX",75132,NA,NA,73,"PO BOX 346, FATE, TX, 75132","No_Match",NA,NA,NA,NA
984574,"PO BOX 346","FT. VALLEY","GA",31030,NA,NA,74,"PO BOX 346, FT. VALLEY, GA, 31030","No_Match",NA,NA,NA,NA
984575,"PO BOX 346","LA VETA","CO",81055,NA,NA,75,"PO BOX 346, LA VETA, CO, 81055","No_Match",NA,NA,NA,NA
984576,"PO BOX 346","LAGRANGE","OH",44050,NA,NA,76,"PO BOX 346, LAGRANGE, OH, 44050","No_Match",NA,NA,NA,NA
984577,"PO BOX 346","LITTLE ELM","TX",75068,NA,NA,77,"PO BOX 346, LITTLE ELM, TX, 75068","No_Match",NA,NA,NA,NA
984578,"PO BOX 346","MAUSTON","WI",53948,NA,NA,78,"PO BOX 346, MAUSTON, WI, 53948","No_Match",NA,NA,NA,NA
984579,"PO BOX 346","PINE MOUNTAIN","GA",31822,NA,NA,79,"PO BOX 346, PINE MOUNTAIN, GA, 31822","No_Match",NA,NA,NA,NA
984580,"PO BOX 346","PUEBLO OF ACOMA","NM",87034,NA,NA,80,"PO BOX 346, PUEBLO OF ACOMA, NM, 87034","No_Match",NA,NA,NA,NA
984581,"PO BOX 346","SPIRIT LAKE","IA",51360,NA,NA,81,"PO BOX 346, SPIRIT LAKE, IA, 51360","No_Match",NA,NA,NA,NA
984582,"PO BOX 3461","KIRKLAND","WA",98083,NA,NA,82,"PO BOX 3461, KIRKLAND, WA, 98083","No_Match",NA,NA,NA,NA
984583,"PO BOX 3461","OCEANSIDE","CA",92051,NA,NA,83,"PO BOX 3461, OCEANSIDE, CA, 92051","No_Match",NA,NA,NA,NA
984584,"PO BOX 3462","POST FALLS","ID",83877,NA,NA,84,"PO BOX 3462, POST FALLS, ID, 83877","No_Match",NA,NA,NA,NA
984585,"PO BOX 3463","NEW BERN","NC",28564,NA,NA,85,"PO BOX 3463, NEW BERN, NC, 28564","No_Match",NA,NA,NA,NA
984586,"PO BOX 34637","LOS ANGELES","CA",90034,NA,NA,86,"PO BOX 34637, LOS ANGELES, CA, 90034","No_Match",NA,NA,NA,NA
984587,"PO BOX 3464","LONGVIEW","TX",75606,NA,NA,87,"PO BOX 3464, LONGVIEW, TX, 75606","No_Match",NA,NA,NA,NA
984588,"PO BOX 34641","LOUISVILLE","KY",34641,NA,NA,88,"PO BOX 34641, LOUISVILLE, KY, 34641","No_Match",NA,NA,NA,NA
984589,"PO BOX 34646","RENO","NV",89533,NA,NA,89,"PO BOX 34646, RENO, NV, 89533","No_Match",NA,NA,NA,NA
984590,"PO BOX 3465","PAGO PAGO","AS",96799,NA,NA,90,"PO BOX 3465, PAGO PAGO, AS, 96799","No_Match",NA,NA,NA,NA
984591,"PO BOX 34660","LAS VEGAS","NV",89133,NA,NA,91,"PO BOX 34660, LAS VEGAS, NV, 89133","No_Match",NA,NA,NA,NA
984592,"PO BOX 34661","DETROIT","MI",48234,NA,NA,92,"PO BOX 34661, DETROIT, MI, 48234","No_Match",NA,NA,NA,NA
984593,"PO BOX 3467","HAMPTON","VA",23663,NA,NA,93,"PO BOX 3467, HAMPTON, VA, 23663","No_Match",NA,NA,NA,NA
984594,"PO BOX 347","ADAMS","WI",53910,NA,NA,94,"PO BOX 347, ADAMS, WI, 53910","No_Match",NA,NA,NA,NA
984595,"PO BOX 347","ALPHARETTA","GA",30009,NA,NA,95,"PO BOX 347, ALPHARETTA, GA, 30009","No_Match",NA,NA,NA,NA
984596,"PO BOX 347","BALA CYNWYD","PA",19004,NA,NA,96,"PO BOX 347, BALA CYNWYD, PA, 19004","No_Match",NA,NA,NA,NA
984597,"PO BOX 347","CHILHOWIE","VA",24319,NA,NA,97,"PO BOX 347, CHILHOWIE, VA, 24319","No_Match",NA,NA,NA,NA
984598,"PO BOX 347","CLARK","PA",16113,NA,NA,98,"PO BOX 347, CLARK, PA, 16113","No_Match",NA,NA,NA,NA
984599,"PO BOX 347","COALFIELD","TN",37719,NA,NA,99,"PO BOX 347, COALFIELD, TN, 37719","No_Match",NA,NA,NA,NA
984600,"PO BOX 347","CROWLEY","TX",76036,NA,NA,100,"PO BOX 347, CROWLEY, TX, 76036","No_Match",NA,NA,NA,NA
984601,"PO BOX 347","DENISON","TX",75021,NA,NA,101,"PO BOX 347, DENISON, TX, 75021","No_Match",NA,NA,NA,NA
984602,"PO BOX 347","DUTCH FLAT","CA",95714,NA,NA,102,"PO BOX 347, DUTCH FLAT, CA, 95714","No_Match",NA,NA,NA,NA
984603,"PO BOX 347","DUTCH FLAT","NV",95714,NA,NA,103,"PO BOX 347, DUTCH FLAT, NV, 95714","No_Match",NA,NA,NA,NA
984604,"PO BOX 347","EGG HARBOR CITY","NJ",8215,NA,NA,104,"PO BOX 347, EGG HARBOR CITY, NJ, 8215","No_Match",NA,NA,NA,NA
984605,"PO BOX 347","HAVANNA","FL",31620,NA,NA,105,"PO BOX 347, HAVANNA, FL, 31620","No_Match",NA,NA,NA,NA
984606,"PO BOX 347","HERMISTON","OR",97838,NA,NA,106,"PO BOX 347, HERMISTON, OR, 97838","No_Match",NA,NA,NA,NA
984607,"PO BOX 347","HUDSON","CO",80642,NA,NA,107,"PO BOX 347, HUDSON, CO, 80642","No_Match",NA,NA,NA,NA
984608,"PO BOX 347","MARS","PA",16046,NA,NA,108,"PO BOX 347, MARS, PA, 16046","No_Match",NA,NA,NA,NA
984609,"PO BOX 347","OXFORD","MI",48371,NA,NA,109,"PO BOX 347, OXFORD, MI, 48371","No_Match",NA,NA,NA,NA
984610,"PO BOX 347","REDWATER","TX",75573,NA,NA,110,"PO BOX 347, REDWATER, TX, 75573","No_Match",NA,NA,NA,NA
984611,"PO BOX 347","SAVOY","TX",75479,NA,NA,111,"PO BOX 347, SAVOY, TX, 75479","No_Match",NA,NA,NA,NA
984612,"PO BOX 347","WATERVILET","NY",12189,NA,NA,112,"PO BOX 347, WATERVILET, NY, 12189","No_Match",NA,NA,NA,NA
984613,"PO BOX 347000","HOUSTON","TX",77234,NA,NA,113,"PO BOX 347000, HOUSTON, TX, 77234","No_Match",NA,NA,NA,NA
984614,"PO BOX 3471","BAY ST LOUIS","MS",39521,NA,NA,114,"PO BOX 3471, BAY ST LOUIS, MS, 39521","No_Match",NA,NA,NA,NA
984615,"PO BOX 3471","MCKINNEY","TX",75070,NA,NA,115,"PO BOX 3471, MCKINNEY, TX, 75070","No_Match",NA,NA,NA,NA
984616,"PO BOX 3472","AMHERST","MA",1004,NA,NA,116,"PO BOX 3472, AMHERST, MA, 1004","No_Match",NA,NA,NA,NA
984617,"PO BOX 347217","SAN FRANCISCO","CA",94134,NA,NA,117,"PO BOX 347217, SAN FRANCISCO, CA, 94134","No_Match",NA,NA,NA,NA
984618,"PO BOX 347518","SAN FRANCISCO","CA",94134,NA,NA,118,"PO BOX 347518, SAN FRANCISCO, CA, 94134","No_Match",NA,NA,NA,NA
984619,"PO BOX 347518","SAN FRANCISO","CA",94134,NA,NA,119,"PO BOX 347518, SAN FRANCISO, CA, 94134","No_Match",NA,NA,NA,NA
984620,"PO BOX 34752","CHARLOTTE","NC",28234,NA,NA,120,"PO BOX 34752, CHARLOTTE, NC, 28234","No_Match",NA,NA,NA,NA
984621,"PO BOX 3476","HUNTINGTON BEACH","CA",92605,NA,NA,121,"PO BOX 3476, HUNTINGTON BEACH, CA, 92605","No_Match",NA,NA,NA,NA
984622,"PO BOX 3478","OAKLAND","CA",94609,NA,NA,122,"PO BOX 3478, OAKLAND, CA, 94609","No_Match",NA,NA,NA,NA
984623,"PO BOX 348","BOOKER","TX",79005,NA,NA,123,"PO BOX 348, BOOKER, TX, 79005","No_Match",NA,NA,NA,NA
984624,"PO BOX 348","CANONSBURG","PA",15317,NA,NA,124,"PO BOX 348, CANONSBURG, PA, 15317","No_Match",NA,NA,NA,NA
984625,"PO BOX 348","DEERFIELD","WI",53531,NA,NA,125,"PO BOX 348, DEERFIELD, WI, 53531","No_Match",NA,NA,NA,NA
984626,"PO BOX 348","DENVER","NC",28037,NA,NA,126,"PO BOX 348, DENVER, NC, 28037","No_Match",NA,NA,NA,NA
984627,"PO BOX 348","ELGIN","OK",73538,NA,NA,127,"PO BOX 348, ELGIN, OK, 73538","No_Match",NA,NA,NA,NA
984628,"PO BOX 348","KIGOMA TANZANIA","AZ",0,NA,NA,128,"PO BOX 348, KIGOMA TANZANIA, AZ, 0","No_Match",NA,NA,NA,NA
984629,"PO BOX 348","LANCASTER","NY",14086,NA,NA,129,"PO BOX 348, LANCASTER, NY, 14086","No_Match",NA,NA,NA,NA
984630,"PO BOX 348","MOUNTAIN GROVE","MO",65711,NA,NA,130,"PO BOX 348, MOUNTAIN GROVE, MO, 65711","No_Match",NA,NA,NA,NA
984631,"PO BOX 348","NAPOLEON","OH",43545,NA,NA,131,"PO BOX 348, NAPOLEON, OH, 43545","No_Match",NA,NA,NA,NA
984632,"PO BOX 348","NEWPORT","WA",99156,NA,NA,132,"PO BOX 348, NEWPORT, WA, 99156","No_Match",NA,NA,NA,NA
984633,"PO BOX 348","NORMAN","AR",71960,NA,NA,133,"PO BOX 348, NORMAN, AR, 71960","No_Match",NA,NA,NA,NA
984634,"PO BOX 348","RIDGEFIELD","CT",6877,NA,NA,134,"PO BOX 348, RIDGEFIELD, CT, 6877","No_Match",NA,NA,NA,NA
984635,"PO BOX 348","SEASIDE","OR",97138,NA,NA,135,"PO BOX 348, SEASIDE, OR, 97138","No_Match",NA,NA,NA,NA
984636,"PO BOX 348","TOOELE","UT",84074,NA,NA,136,"PO BOX 348, TOOELE, UT, 84074","No_Match",NA,NA,NA,NA
984637,"PO BOX 348","WAYNE","IL",60184,NA,NA,137,"PO BOX 348, WAYNE, IL, 60184","No_Match",NA,NA,NA,NA
984638,"PO BOX 348","YOUNG","AZ",85554,NA,NA,138,"PO BOX 348, YOUNG, AZ, 85554","No_Match",NA,NA,NA,NA
984639,"PO BOX 348075","SACRAMENTO","CA",95834,NA,NA,139,"PO BOX 348075, SACRAMENTO, CA, 95834","No_Match",NA,NA,NA,NA
984640,"PO BOX 3481","PADUCAH","KY",42002,NA,NA,140,"PO BOX 3481, PADUCAH, KY, 42002","No_Match",NA,NA,NA,NA
984641,"PO BOX 34814","LAS VEGAS","NV",89133,NA,NA,141,"PO BOX 34814, LAS VEGAS, NV, 89133","No_Match",NA,NA,NA,NA
984642,"PO BOX 348437","SACRAMENTO","CA",95834,NA,NA,142,"PO BOX 348437, SACRAMENTO, CA, 95834","No_Match",NA,NA,NA,NA
984643,"PO BOX 3485","DELAND","FL",32721,NA,NA,143,"PO BOX 3485, DELAND, FL, 32721","No_Match",NA,NA,NA,NA
984644,"PO BOX 3485","TAMPA","FL",33601,NA,NA,144,"PO BOX 3485, TAMPA, FL, 33601","No_Match",NA,NA,NA,NA
984645,"PO BOX 3486","CAMP VERDE","AZ",86322,NA,NA,145,"PO BOX 3486, CAMP VERDE, AZ, 86322","No_Match",NA,NA,NA,NA
984646,"PO BOX 3486","SEQUIM","WA",98382,NA,NA,146,"PO BOX 3486, SEQUIM, WA, 98382","No_Match",NA,NA,NA,NA
984647,"PO BOX 3487","CAREFREE","AZ",85377,NA,NA,147,"PO BOX 3487, CAREFREE, AZ, 85377","No_Match",NA,NA,NA,NA
984648,"PO BOX 34872","PHILADELPHIA","PA",19101,NA,NA,148,"PO BOX 34872, PHILADELPHIA, PA, 19101","No_Match",NA,NA,NA,NA
984649,"PO BOX 3488","GREENWOOD","SC",29648,NA,NA,149,"PO BOX 3488, GREENWOOD, SC, 29648","No_Match",NA,NA,NA,NA
984650,"PO BOX 3489","POST FALLS","ID",83877,NA,NA,150,"PO BOX 3489, POST FALLS, ID, 83877","No_Match",NA,NA,NA,NA
984651,"PO BOX 349","AGUADA","PR",602,NA,NA,151,"PO BOX 349, AGUADA, PR, 602","No_Match",NA,NA,NA,NA
984652,"PO BOX 349","AUBURN","IN",46706,NA,NA,152,"PO BOX 349, AUBURN, IN, 46706","No_Match",NA,NA,NA,NA
984653,"PO BOX 349","BIG TIMBER","MT",59011,NA,NA,153,"PO BOX 349, BIG TIMBER, MT, 59011","No_Match",NA,NA,NA,NA
984654,"PO BOX 349","CLINTON","WA",98236,NA,NA,154,"PO BOX 349, CLINTON, WA, 98236","No_Match",NA,NA,NA,NA
984655,"PO BOX 349","COPPELL","TX",75019,NA,NA,155,"PO BOX 349, COPPELL, TX, 75019","No_Match",NA,NA,NA,NA
984656,"PO BOX 349","KALAHEO","HI",96741,NA,NA,156,"PO BOX 349, KALAHEO, HI, 96741","No_Match",NA,NA,NA,NA
984657,"PO BOX 349","MATHERVILLE","IL",61263,NA,NA,157,"PO BOX 349, MATHERVILLE, IL, 61263","No_Match",NA,NA,NA,NA
984658,"PO BOX 349","NORWAY","ME",4268,NA,NA,158,"PO BOX 349, NORWAY, ME, 4268","No_Match",NA,NA,NA,NA
984659,"PO BOX 349","ORACLE","AZ",85623,NA,NA,159,"PO BOX 349, ORACLE, AZ, 85623","No_Match",NA,NA,NA,NA
984660,"PO BOX 3491","NAPLES","FL",34106,NA,NA,160,"PO BOX 3491, NAPLES, FL, 34106","No_Match",NA,NA,NA,NA
984661,"PO BOX 3491","PALMER","AK",99645,NA,NA,161,"PO BOX 3491, PALMER, AK, 99645","No_Match",NA,NA,NA,NA
984662,"PO BOX 3492","ROCK ISLAND","IL",61201,NA,NA,162,"PO BOX 3492, ROCK ISLAND, IL, 61201","No_Match",NA,NA,NA,NA
984663,"PO BOX 3493","WICHITA","KS",67201,NA,NA,163,"PO BOX 3493, WICHITA, KS, 67201","No_Match",NA,NA,NA,NA
984664,"PO BOX 3494","QUARTZSITE","AZ",85346,NA,NA,164,"PO BOX 3494, QUARTZSITE, AZ, 85346","No_Match",NA,NA,NA,NA
984665,"PO BOX 349483","HOMESTEAD","FL",33034,NA,NA,165,"PO BOX 349483, HOMESTEAD, FL, 33034","No_Match",NA,NA,NA,NA
984666,"PO BOX 3495","SOUTH PADRE ISLAND","TX",78597,NA,NA,166,"PO BOX 3495, SOUTH PADRE ISLAND, TX, 78597","No_Match",NA,NA,NA,NA
984667,"PO BOX 3495","TELLURIDE","CO",81435,NA,NA,167,"PO BOX 3495, TELLURIDE, CO, 81435","No_Match",NA,NA,NA,NA
984668,"PO BOX 34982","LAS VEGAS","NV",89133,NA,NA,168,"PO BOX 34982, LAS VEGAS, NV, 89133","No_Match",NA,NA,NA,NA
984669,"PO BOX 35  118 INDIAN TRAIL RD","BLAIR","SC",29015,34.419262401,-81.373566436,169,"PO BOX 35  118 INDIAN TRAIL RD, BLAIR, SC, 29015","Match","Exact","118 INDIAN TRAIL RD, BLAIR, SC, 29015",40618569,"L"
984670,"PO BOX 35","BROOMFIELD","CO",80038,NA,NA,170,"PO BOX 35, BROOMFIELD, CO, 80038","No_Match",NA,NA,NA,NA
984671,"PO BOX 35","BURLEY","WA",98322,NA,NA,171,"PO BOX 35, BURLEY, WA, 98322","No_Match",NA,NA,NA,NA
984672,"PO BOX 35","CREEKSIDE","PA",15732,NA,NA,172,"PO BOX 35, CREEKSIDE, PA, 15732","No_Match",NA,NA,NA,NA
984673,"PO BOX 35","CROMPOND","NY",10517,NA,NA,173,"PO BOX 35, CROMPOND, NY, 10517","No_Match",NA,NA,NA,NA
984674,"PO BOX 35","ELGIN","SC",29045,NA,NA,174,"PO BOX 35, ELGIN, SC, 29045","No_Match",NA,NA,NA,NA
984675,"PO BOX 35","ELNORA","IN",47529,NA,NA,175,"PO BOX 35, ELNORA, IN, 47529","No_Match",NA,NA,NA,NA
984676,"PO BOX 35","HAMMERSVILLE","OH",45130,NA,NA,176,"PO BOX 35, HAMMERSVILLE, OH, 45130","No_Match",NA,NA,NA,NA
984677,"PO BOX 35","HAWTHORNE","CA",90251,NA,NA,177,"PO BOX 35, HAWTHORNE, CA, 90251","No_Match",NA,NA,NA,NA
984678,"PO BOX 35","HIRAM","ME",4041,NA,NA,178,"PO BOX 35, HIRAM, ME, 4041","No_Match",NA,NA,NA,NA
984679,"PO BOX 35","HITCHCOCK","SD",57348,NA,NA,179,"PO BOX 35, HITCHCOCK, SD, 57348","No_Match",NA,NA,NA,NA
984680,"PO BOX 35","HOUSTON","PA",15342,NA,NA,180,"PO BOX 35, HOUSTON, PA, 15342","No_Match",NA,NA,NA,NA
984681,"PO BOX 35","HURLOCK","MD",21643,NA,NA,181,"PO BOX 35, HURLOCK, MD, 21643","No_Match",NA,NA,NA,NA
984682,"PO BOX 35","IDYLLWILD","CA",92549,NA,NA,182,"PO BOX 35, IDYLLWILD, CA, 92549","No_Match",NA,NA,NA,NA
984683,"PO BOX 35","IVANHOE","TX",75447,NA,NA,183,"PO BOX 35, IVANHOE, TX, 75447","No_Match",NA,NA,NA,NA
984684,"PO BOX 35","JEFFERSON","WI",53549,NA,NA,184,"PO BOX 35, JEFFERSON, WI, 53549","No_Match",NA,NA,NA,NA
984685,"PO BOX 35","LAFAYETTE","AL",36862,NA,NA,185,"PO BOX 35, LAFAYETTE, AL, 36862","No_Match",NA,NA,NA,NA
984686,"PO BOX 35","MCCARR","KY",41544,NA,NA,186,"PO BOX 35, MCCARR, KY, 41544","No_Match",NA,NA,NA,NA
984687,"PO BOX 35","MEADOW LANDS","PA",15347,NA,NA,187,"PO BOX 35, MEADOW LANDS, PA, 15347","No_Match",NA,NA,NA,NA
984688,"PO BOX 35","MIDVALE","ID",83645,NA,NA,188,"PO BOX 35, MIDVALE, ID, 83645","No_Match",NA,NA,NA,NA
984689,"PO BOX 35","MT. WASHINGTON","KY",40047,NA,NA,189,"PO BOX 35, MT. WASHINGTON, KY, 40047","No_Match",NA,NA,NA,NA
984690,"PO BOX 35","NEW TOWN","ND",58504,NA,NA,190,"PO BOX 35, NEW TOWN, ND, 58504","No_Match",NA,NA,NA,NA
984691,"PO BOX 35","NORTH SUTTON","NH",3260,NA,NA,191,"PO BOX 35, NORTH SUTTON, NH, 3260","No_Match",NA,NA,NA,NA
984692,"PO BOX 35","PLATO","MO",65552,NA,NA,192,"PO BOX 35, PLATO, MO, 65552","No_Match",NA,NA,NA,NA
984693,"PO BOX 35","RODANTHE","NC",27968,NA,NA,193,"PO BOX 35, RODANTHE, NC, 27968","No_Match",NA,NA,NA,NA
984694,"PO BOX 35","SAVANNA","OK",74565,NA,NA,194,"PO BOX 35, SAVANNA, OK, 74565","No_Match",NA,NA,NA,NA
984695,"PO BOX 35","SEARCHLIGHT","NV",89046,NA,NA,195,"PO BOX 35, SEARCHLIGHT, NV, 89046","No_Match",NA,NA,NA,NA
984696,"PO BOX 35","SELLERSBURG","IN",47172,NA,NA,196,"PO BOX 35, SELLERSBURG, IN, 47172","No_Match",NA,NA,NA,NA
984697,"PO BOX 35","SHELTER ISLAND","NY",11964,NA,NA,197,"PO BOX 35, SHELTER ISLAND, NY, 11964","No_Match",NA,NA,NA,NA
984698,"PO BOX 35","SHERWOOD","MD",21665,NA,NA,198,"PO BOX 35, SHERWOOD, MD, 21665","No_Match",NA,NA,NA,NA
984699,"PO BOX 35","SMITHVILLE","TX",78957,NA,NA,199,"PO BOX 35, SMITHVILLE, TX, 78957","No_Match",NA,NA,NA,NA
984700,"PO BOX 35","SPRAGUE RIVER","OR",97639,NA,NA,200,"PO BOX 35, SPRAGUE RIVER, OR, 97639","No_Match",NA,NA,NA,NA
984701,"PO BOX 35","STOUGHTON","WI",53589,NA,NA,201,"PO BOX 35, STOUGHTON, WI, 53589","No_Match",NA,NA,NA,NA
984702,"PO BOX 35","TWENTYNINE PALMS","CA",92277,NA,NA,202,"PO BOX 35, TWENTYNINE PALMS, CA, 92277","No_Match",NA,NA,NA,NA
984703,"PO BOX 35","UKIAH","OR",97880,NA,NA,203,"PO BOX 35, UKIAH, OR, 97880","No_Match",NA,NA,NA,NA
984704,"PO BOX 35","ULM","MT",59485,NA,NA,204,"PO BOX 35, ULM, MT, 59485","No_Match",NA,NA,NA,NA
984705,"PO BOX 35","VAIL","IA",51465,NA,NA,205,"PO BOX 35, VAIL, IA, 51465","No_Match",NA,NA,NA,NA
984706,"PO BOX 35","VERSHIRE","VT",5079,NA,NA,206,"PO BOX 35, VERSHIRE, VT, 5079","No_Match",NA,NA,NA,NA
984707,"PO BOX 35","WAGONTOWN","PA",19376,NA,NA,207,"PO BOX 35, WAGONTOWN, PA, 19376","No_Match",NA,NA,NA,NA
984708,"PO BOX 35","WHITEFIELD","ME",4353,NA,NA,208,"PO BOX 35, WHITEFIELD, ME, 4353","No_Match",NA,NA,NA,NA
984709,"PO BOX 35","WHITEHALL","NY",12887,NA,NA,209,"PO BOX 35, WHITEHALL, NY, 12887","No_Match",NA,NA,NA,NA
984710,"PO BOX 350","BURTON","TX",77835,NA,NA,210,"PO BOX 350, BURTON, TX, 77835","No_Match",NA,NA,NA,NA
984711,"PO BOX 350","EASTFORD","CT",6242,NA,NA,211,"PO BOX 350, EASTFORD, CT, 6242","No_Match",NA,NA,NA,NA
984712,"PO BOX 350","NEEDVILLE","TX",77461,NA,NA,212,"PO BOX 350, NEEDVILLE, TX, 77461","No_Match",NA,NA,NA,NA
984713,"PO BOX 350","ROSENBERG","TX",77471,NA,NA,213,"PO BOX 350, ROSENBERG, TX, 77471","No_Match",NA,NA,NA,NA
984714,"PO BOX 350","VERNON","AZ",85940,NA,NA,214,"PO BOX 350, VERNON, AZ, 85940","No_Match",NA,NA,NA,NA
984715,"PO BOX 3500 PMB 409","SISTERS","OR",97759,NA,NA,215,"PO BOX 3500 PMB 409, SISTERS, OR, 97759","No_Match",NA,NA,NA,NA
984716,"PO BOX 35001","FAYETTEVILLE","NC",28303,NA,NA,216,"PO BOX 35001, FAYETTEVILLE, NC, 28303","No_Match",NA,NA,NA,NA
984717,"PO BOX 350036","NORTHGLENN","CO",80234,NA,NA,217,"PO BOX 350036, NORTHGLENN, CO, 80234","No_Match",NA,NA,NA,NA
984718,"PO BOX 35009","CHARLOTTE","NC",28235,NA,NA,218,"PO BOX 35009, CHARLOTTE, NC, 28235","No_Match",NA,NA,NA,NA
984719,"PO BOX 3501","FARMINGTON HILLS","MI",48333,NA,NA,219,"PO BOX 3501, FARMINGTON HILLS, MI, 48333","No_Match",NA,NA,NA,NA
984720,"PO BOX 3501","RENO","NV",89505,NA,NA,220,"PO BOX 3501, RENO, NV, 89505","No_Match",NA,NA,NA,NA
984721,"PO BOX 3501","TRENTON","NJ",8629,NA,NA,221,"PO BOX 3501, TRENTON, NJ, 8629","No_Match",NA,NA,NA,NA
984722,"PO BOX 35010","PHOENIX","AZ",85069,NA,NA,222,"PO BOX 35010, PHOENIX, AZ, 85069","No_Match",NA,NA,NA,NA
984723,"PO BOX 350111","FORT LAUDERDALE","FL",33335,NA,NA,223,"PO BOX 350111, FORT LAUDERDALE, FL, 33335","No_Match",NA,NA,NA,NA
984724,"PO BOX 3502","GRANADA HILLS","CA",91344,NA,NA,224,"PO BOX 3502, GRANADA HILLS, CA, 91344","No_Match",NA,NA,NA,NA
984725,"PO BOX 3502","GRANADA HILLS","CA",91394,NA,NA,225,"PO BOX 3502, GRANADA HILLS, CA, 91394","No_Match",NA,NA,NA,NA
984726,"PO BOX 350209","JACKSONVILLE","FL",32235,NA,NA,226,"PO BOX 350209, JACKSONVILLE, FL, 32235","No_Match",NA,NA,NA,NA
984727,"PO BOX 350213","JACKSONVILLE","FL",32235,NA,NA,227,"PO BOX 350213, JACKSONVILLE, FL, 32235","No_Match",NA,NA,NA,NA
984728,"PO BOX 35024","ST PETERSBURG","FL",33705,NA,NA,228,"PO BOX 35024, ST PETERSBURG, FL, 33705","No_Match",NA,NA,NA,NA
984729,"PO BOX 35026","JUNEAU","AK",99803,NA,NA,229,"PO BOX 35026, JUNEAU, AK, 99803","No_Match",NA,NA,NA,NA
984730,"PO BOX 3503  11772 AMBER STREET","SEWARD","AK",99664,60.1512809000001,-149.427535764,230,"PO BOX 3503  11772 AMBER STREET, SEWARD, AK, 99664","Match","Exact","11772 AMBER ST, SEWARD, AK, 99664",646840079,"R"
984731,"PO BOX 350321","FORT LAUDERDALE","FL",33335,NA,NA,231,"PO BOX 350321, FORT LAUDERDALE, FL, 33335","No_Match",NA,NA,NA,NA
984732,"PO BOX 350367","WESTMINSTER","CO",80035,NA,NA,232,"PO BOX 350367, WESTMINSTER, CO, 80035","No_Match",NA,NA,NA,NA
984733,"PO BOX 350372","MIAMI","FL",33135,NA,NA,233,"PO BOX 350372, MIAMI, FL, 33135","No_Match",NA,NA,NA,NA
984734,"PO BOX 3504","HOUSTON","TX",77253,NA,NA,234,"PO BOX 3504, HOUSTON, TX, 77253","No_Match",NA,NA,NA,NA
984735,"PO BOX 3504","JACKSON","WY",83001,NA,NA,235,"PO BOX 3504, JACKSON, WY, 83001","No_Match",NA,NA,NA,NA
984736,"PO BOX 3505","DULUTH","MN",55803,NA,NA,236,"PO BOX 3505, DULUTH, MN, 55803","No_Match",NA,NA,NA,NA
984737,"PO BOX 3505","DULUTH","MN",55804,NA,NA,237,"PO BOX 3505, DULUTH, MN, 55804","No_Match",NA,NA,NA,NA
984738,"PO BOX 3506","MUSCLE SHOALS","AL",35662,NA,NA,238,"PO BOX 3506, MUSCLE SHOALS, AL, 35662","No_Match",NA,NA,NA,NA
984739,"PO BOX 350682","WESTMINSTER","CO",80035,NA,NA,239,"PO BOX 350682, WESTMINSTER, CO, 80035","No_Match",NA,NA,NA,NA
984740,"PO BOX 3507","PAGO PAGO","AS",96799,NA,NA,240,"PO BOX 3507, PAGO PAGO, AS, 96799","No_Match",NA,NA,NA,NA
984741,"PO BOX 35070","LOUISVILLE","KY",40232,NA,NA,241,"PO BOX 35070, LOUISVILLE, KY, 40232","No_Match",NA,NA,NA,NA
984742,"PO BOX 35095","NORTH CHESTERFIELD","VA",23235,NA,NA,242,"PO BOX 35095, NORTH CHESTERFIELD, VA, 23235","No_Match",NA,NA,NA,NA
984743,"PO BOX 350980","BROOKLYN","NY",11235,NA,NA,243,"PO BOX 350980, BROOKLYN, NY, 11235","No_Match",NA,NA,NA,NA
984744,"PO BOX 351","AGUANGA","CA",92536,NA,NA,244,"PO BOX 351, AGUANGA, CA, 92536","No_Match",NA,NA,NA,NA
984745,"PO BOX 351","BERLIN","OH",44610,NA,NA,245,"PO BOX 351, BERLIN, OH, 44610","No_Match",NA,NA,NA,NA
984746,"PO BOX 351","BUENA PARK","CA",90621,NA,NA,246,"PO BOX 351, BUENA PARK, CA, 90621","No_Match",NA,NA,NA,NA
984747,"PO BOX 351","CEDAR KEY","FL",32625,NA,NA,247,"PO BOX 351, CEDAR KEY, FL, 32625","No_Match",NA,NA,NA,NA
984748,"PO BOX 351","CREEDMOOR","NC",27522,NA,NA,248,"PO BOX 351, CREEDMOOR, NC, 27522","No_Match",NA,NA,NA,NA
984749,"PO BOX 351","DALLAS CENTER","IA",50063,NA,NA,249,"PO BOX 351, DALLAS CENTER, IA, 50063","No_Match",NA,NA,NA,NA
984750,"PO BOX 351","DEVINE","TX",78016,NA,NA,250,"PO BOX 351, DEVINE, TX, 78016","No_Match",NA,NA,NA,NA
984751,"PO BOX 351","FLATONIA","TX",78941,NA,NA,251,"PO BOX 351, FLATONIA, TX, 78941","No_Match",NA,NA,NA,NA
984752,"PO BOX 351","GLENNS FERRY","ID",83623,NA,NA,252,"PO BOX 351, GLENNS FERRY, ID, 83623","No_Match",NA,NA,NA,NA
984753,"PO BOX 351","LA PLATA","NM",87418,NA,NA,253,"PO BOX 351, LA PLATA, NM, 87418","No_Match",NA,NA,NA,NA
984754,"PO BOX 351","LOOP","TX",79342,NA,NA,254,"PO BOX 351, LOOP, TX, 79342","No_Match",NA,NA,NA,NA
984755,"PO BOX 351","PIKEVILLE","KY",41502,NA,NA,255,"PO BOX 351, PIKEVILLE, KY, 41502","No_Match",NA,NA,NA,NA
984756,"PO BOX 351","RANGELEY","ME",4970,NA,NA,256,"PO BOX 351, RANGELEY, ME, 4970","No_Match",NA,NA,NA,NA
984757,"PO BOX 351","SHARON","GA",30664,NA,NA,257,"PO BOX 351, SHARON, GA, 30664","No_Match",NA,NA,NA,NA
984758,"PO BOX 351","WALTERVILLE","OR",97489,NA,NA,258,"PO BOX 351, WALTERVILLE, OR, 97489","No_Match",NA,NA,NA,NA
984759,"PO BOX 3510","PEMBROKE","NC",28372,NA,NA,259,"PO BOX 3510, PEMBROKE, NC, 28372","No_Match",NA,NA,NA,NA
984760,"PO BOX 35104","ALBUQUERQUE","NM",87176,NA,NA,260,"PO BOX 35104, ALBUQUERQUE, NM, 87176","No_Match",NA,NA,NA,NA
984761,"PO BOX 351087","JACKSONVILLE","FL",32235,NA,NA,261,"PO BOX 351087, JACKSONVILLE, FL, 32235","No_Match",NA,NA,NA,NA
984762,"PO BOX 351087","LOS ANGELES","CA",90035,NA,NA,262,"PO BOX 351087, LOS ANGELES, CA, 90035","No_Match",NA,NA,NA,NA
984763,"PO BOX 3511","DELAND","FL",32721,NA,NA,263,"PO BOX 3511, DELAND, FL, 32721","No_Match",NA,NA,NA,NA
984764,"PO BOX 351148","JACKSONVILLE","FL",32235,NA,NA,264,"PO BOX 351148, JACKSONVILLE, FL, 32235","No_Match",NA,NA,NA,NA
984765,"PO BOX 35128","ST. PETERSBURG","FL",33705,NA,NA,265,"PO BOX 35128, ST. PETERSBURG, FL, 33705","No_Match",NA,NA,NA,NA
984766,"PO BOX 3513","BILLINGS","MT",59103,NA,NA,266,"PO BOX 3513, BILLINGS, MT, 59103","No_Match",NA,NA,NA,NA
984767,"PO BOX 3513","PLACIDA","FL",33946,NA,NA,267,"PO BOX 3513, PLACIDA, FL, 33946","No_Match",NA,NA,NA,NA
984768,"PO BOX 351304","MIAMI","FL",33135,NA,NA,268,"PO BOX 351304, MIAMI, FL, 33135","No_Match",NA,NA,NA,NA
984769,"PO BOX 351325","LOS ANGELES","CA",90035,NA,NA,269,"PO BOX 351325, LOS ANGELES, CA, 90035","No_Match",NA,NA,NA,NA
984770,"PO BOX 351328","PALM COAST","FL",32135,NA,NA,270,"PO BOX 351328, PALM COAST, FL, 32135","No_Match",NA,NA,NA,NA
984771,"PO BOX 351464","WESTMINSTER","CO",80035,NA,NA,271,"PO BOX 351464, WESTMINSTER, CO, 80035","No_Match",NA,NA,NA,NA
984772,"PO BOX 35152","DALLAS","TX",75235,NA,NA,272,"PO BOX 35152, DALLAS, TX, 75235","No_Match",NA,NA,NA,NA
984773,"PO BOX 3516","ANAHEIM","CA",92803,NA,NA,273,"PO BOX 3516, ANAHEIM, CA, 92803","No_Match",NA,NA,NA,NA
984774,"PO BOX 3516","RANCHO CORDOVA","CA",95741,NA,NA,274,"PO BOX 3516, RANCHO CORDOVA, CA, 95741","No_Match",NA,NA,NA,NA
984775,"PO BOX 35168","HOUSTON","TX",77235,NA,NA,275,"PO BOX 35168, HOUSTON, TX, 77235","No_Match",NA,NA,NA,NA
984776,"PO BOX 351701","WESTMINSTER","CO",80035,NA,NA,276,"PO BOX 351701, WESTMINSTER, CO, 80035","No_Match",NA,NA,NA,NA
984777,"PO BOX 351913","WESTMINSTER","CO",80035,NA,NA,277,"PO BOX 351913, WESTMINSTER, CO, 80035","No_Match",NA,NA,NA,NA
984778,"PO BOX 352","CASCADE LOCKS","OR",97014,NA,NA,278,"PO BOX 352, CASCADE LOCKS, OR, 97014","No_Match",NA,NA,NA,NA
984779,"PO BOX 352","CASCADE","MT",59421,NA,NA,279,"PO BOX 352, CASCADE, MT, 59421","No_Match",NA,NA,NA,NA
984780,"PO BOX 352","CAVE SPRING","GA",30124,NA,NA,280,"PO BOX 352, CAVE SPRING, GA, 30124","No_Match",NA,NA,NA,NA
984781,"PO BOX 352","CHINOOK","MT",59523,NA,NA,281,"PO BOX 352, CHINOOK, MT, 59523","No_Match",NA,NA,NA,NA
984782,"PO BOX 352","CIMARRON","KS",67835,NA,NA,282,"PO BOX 352, CIMARRON, KS, 67835","No_Match",NA,NA,NA,NA
984783,"PO BOX 352","DEARING","GA",30808,NA,NA,283,"PO BOX 352, DEARING, GA, 30808","No_Match",NA,NA,NA,NA
984784,"PO BOX 352","EVANSVILLE","MN",56326,NA,NA,284,"PO BOX 352, EVANSVILLE, MN, 56326","No_Match",NA,NA,NA,NA
984785,"PO BOX 352","FOWLER","CA",93625,NA,NA,285,"PO BOX 352, FOWLER, CA, 93625","No_Match",NA,NA,NA,NA
984786,"PO BOX 352","FRIDAY HARBOR","WA",98250,NA,NA,286,"PO BOX 352, FRIDAY HARBOR, WA, 98250","No_Match",NA,NA,NA,NA
984787,"PO BOX 352","GRAND MARAIS","MI",49839,NA,NA,287,"PO BOX 352, GRAND MARAIS, MI, 49839","No_Match",NA,NA,NA,NA
984788,"PO BOX 352","IVOR","VA",23866,NA,NA,288,"PO BOX 352, IVOR, VA, 23866","No_Match",NA,NA,NA,NA
984789,"PO BOX 352","KINGSTON","WA",98346,NA,NA,289,"PO BOX 352, KINGSTON, WA, 98346","No_Match",NA,NA,NA,NA
984790,"PO BOX 352","LARIMORE","ND",58251,NA,NA,290,"PO BOX 352, LARIMORE, ND, 58251","No_Match",NA,NA,NA,NA
984791,"PO BOX 352","MUENSTER","TX",76252,NA,NA,291,"PO BOX 352, MUENSTER, TX, 76252","No_Match",NA,NA,NA,NA
984792,"PO BOX 352","RICH SQUARE, NC","NC",27869,NA,NA,292,"PO BOX 352, RICH SQUARE, NC, NC, 27869","No_Match",NA,NA,NA,NA
984793,"PO BOX 352","RICHFIELD","NC",28137,NA,NA,293,"PO BOX 352, RICHFIELD, NC, 28137","No_Match",NA,NA,NA,NA
984794,"PO BOX 352","ROCKWOOD","TN",37854,NA,NA,294,"PO BOX 352, ROCKWOOD, TN, 37854","No_Match",NA,NA,NA,NA
984795,"PO BOX 352","STOWE","VT",5672,NA,NA,295,"PO BOX 352, STOWE, VT, 5672","No_Match",NA,NA,NA,NA
984796,"PO BOX 352","TALKEETNA","AK",99676,NA,NA,296,"PO BOX 352, TALKEETNA, AK, 99676","No_Match",NA,NA,NA,NA
984797,"PO BOX 352","TYBEE ISLAND","GA",31328,NA,NA,297,"PO BOX 352, TYBEE ISLAND, GA, 31328","No_Match",NA,NA,NA,NA
984798,"PO BOX 352","WINDOM","TX",75492,NA,NA,298,"PO BOX 352, WINDOM, TX, 75492","No_Match",NA,NA,NA,NA
984799,"PO BOX 352","YAMHILL","OR",97148,NA,NA,299,"PO BOX 352, YAMHILL, OR, 97148","No_Match",NA,NA,NA,NA
984800,"PO BOX 35204","TUCSON","AZ",85740,NA,NA,300,"PO BOX 35204, TUCSON, AZ, 85740","No_Match",NA,NA,NA,NA
984801,"PO BOX 3521","CRESTLINE","CA",92325,NA,NA,301,"PO BOX 3521, CRESTLINE, CA, 92325","No_Match",NA,NA,NA,NA
984802,"PO BOX 352201","TOLEDO","OH",43635,NA,NA,302,"PO BOX 352201, TOLEDO, OH, 43635","No_Match",NA,NA,NA,NA
984803,"PO BOX 3524","SAN ANGELO","TX",76902,NA,NA,303,"PO BOX 3524, SAN ANGELO, TX, 76902","No_Match",NA,NA,NA,NA
984804,"PO BOX 352499","PALM COAST","FL",32135,NA,NA,304,"PO BOX 352499, PALM COAST, FL, 32135","No_Match",NA,NA,NA,NA
984805,"PO BOX 352592","TOLEDO","OH",43635,NA,NA,305,"PO BOX 352592, TOLEDO, OH, 43635","No_Match",NA,NA,NA,NA
984806,"PO BOX 3526","DULUTH","MN",55803,NA,NA,306,"PO BOX 3526, DULUTH, MN, 55803","No_Match",NA,NA,NA,NA
984807,"PO BOX 35285","JUNEAU","AK",99803,NA,NA,307,"PO BOX 35285, JUNEAU, AK, 99803","No_Match",NA,NA,NA,NA
984808,"PO BOX 353","AUGUSTA","NJ",7822,NA,NA,308,"PO BOX 353, AUGUSTA, NJ, 7822","No_Match",NA,NA,NA,NA
984809,"PO BOX 353","BLOCK ISLAND","RI",2807,NA,NA,309,"PO BOX 353, BLOCK ISLAND, RI, 2807","No_Match",NA,NA,NA,NA
984810,"PO BOX 353","CARRBORO","NC",25710,NA,NA,310,"PO BOX 353, CARRBORO, NC, 25710","No_Match",NA,NA,NA,NA
984811,"PO BOX 353","FAIR PLAY","SC",29643,NA,NA,311,"PO BOX 353, FAIR PLAY, SC, 29643","No_Match",NA,NA,NA,NA
984812,"PO BOX 353","FAIRVIEW","MT",59221,NA,NA,312,"PO BOX 353, FAIRVIEW, MT, 59221","No_Match",NA,NA,NA,NA
984813,"PO BOX 353","GREENFIELD CENTER","NY",12833,NA,NA,313,"PO BOX 353, GREENFIELD CENTER, NY, 12833","No_Match",NA,NA,NA,NA
984814,"PO BOX 353","HAKALAU","HI",96710,NA,NA,314,"PO BOX 353, HAKALAU, HI, 96710","No_Match",NA,NA,NA,NA
984815,"PO BOX 353","LANNON","WI",53046,NA,NA,315,"PO BOX 353, LANNON, WI, 53046","No_Match",NA,NA,NA,NA
984816,"PO BOX 353","LAVONIA","GA",30553,NA,NA,316,"PO BOX 353, LAVONIA, GA, 30553","No_Match",NA,NA,NA,NA
984817,"PO BOX 353","MORRISVILLE","VT",5661,NA,NA,317,"PO BOX 353, MORRISVILLE, VT, 5661","No_Match",NA,NA,NA,NA
984818,"PO BOX 353","NAGUABO","PR",718,NA,NA,318,"PO BOX 353, NAGUABO, PR, 718","No_Match",NA,NA,NA,NA
984819,"PO BOX 353","ORWELL","OH",44076,NA,NA,319,"PO BOX 353, ORWELL, OH, 44076","No_Match",NA,NA,NA,NA
984820,"PO BOX 353","RIMROCK","AZ",86335,NA,NA,320,"PO BOX 353, RIMROCK, AZ, 86335","No_Match",NA,NA,NA,NA
984821,"PO BOX 353","SPOKANE VALLEY","WA",99016,NA,NA,321,"PO BOX 353, SPOKANE VALLEY, WA, 99016","No_Match",NA,NA,NA,NA
984822,"PO BOX 353","STAUNTON","VA",24402,NA,NA,322,"PO BOX 353, STAUNTON, VA, 24402","No_Match",NA,NA,NA,NA
984823,"PO BOX 353","SULLY","IA",50251,NA,NA,323,"PO BOX 353, SULLY, IA, 50251","No_Match",NA,NA,NA,NA
984824,"PO BOX 353","SUMMERFILED","NC",27358,NA,NA,324,"PO BOX 353, SUMMERFILED, NC, 27358","No_Match",NA,NA,NA,NA
984825,"PO BOX 353","TREGO","MT",59934,NA,NA,325,"PO BOX 353, TREGO, MT, 59934","No_Match",NA,NA,NA,NA
984826,"PO BOX 353","WARM SPRINGS","OR",97761,NA,NA,326,"PO BOX 353, WARM SPRINGS, OR, 97761","No_Match",NA,NA,NA,NA
984827,"PO BOX 353","WEST MILFORD, NJ 074","NJ",7480,NA,NA,327,"PO BOX 353, WEST MILFORD, NJ 074, NJ, 7480","No_Match",NA,NA,NA,NA
984828,"PO BOX 353","WEST MILFORD","NJ",7480,NA,NA,328,"PO BOX 353, WEST MILFORD, NJ, 7480","No_Match",NA,NA,NA,NA
984829,"PO BOX 3530","DECATUR","GA",30030,NA,NA,329,"PO BOX 3530, DECATUR, GA, 30030","No_Match",NA,NA,NA,NA
984830,"PO BOX 35301","LOUISVILLE","KY",40232,NA,NA,330,"PO BOX 35301, LOUISVILLE, KY, 40232","No_Match",NA,NA,NA,NA
984831,"PO BOX 353021","PALM COAST","FL",32135,NA,NA,331,"PO BOX 353021, PALM COAST, FL, 32135","No_Match",NA,NA,NA,NA
984832,"PO BOX 35304","KANSAS CITY","MO",64134,NA,NA,332,"PO BOX 35304, KANSAS CITY, MO, 64134","No_Match",NA,NA,NA,NA
984833,"PO BOX 3532","PAGO PAGO","AS",96799,NA,NA,333,"PO BOX 3532, PAGO PAGO, AS, 96799","No_Match",NA,NA,NA,NA
984834,"PO BOX 35322","TULSA","OK",74153,NA,NA,334,"PO BOX 35322, TULSA, OK, 74153","No_Match",NA,NA,NA,NA
984835,"PO BOX 353232","PALM COAST","FL",32135,NA,NA,335,"PO BOX 353232, PALM COAST, FL, 32135","No_Match",NA,NA,NA,NA
984836,"PO BOX 3533","WARRENTON","VA",20188,NA,NA,336,"PO BOX 3533, WARRENTON, VA, 20188","No_Match",NA,NA,NA,NA
984837,"PO BOX 3534","WRIGHTWOOD","CA",92397,NA,NA,337,"PO BOX 3534, WRIGHTWOOD, CA, 92397","No_Match",NA,NA,NA,NA
984838,"PO BOX 35344","HOUSTON","TX",77035,NA,NA,338,"PO BOX 35344, HOUSTON, TX, 77035","No_Match",NA,NA,NA,NA
984839,"PO BOX 3535","HUNTINGTON BEACH","CA",92605,NA,NA,339,"PO BOX 3535, HUNTINGTON BEACH, CA, 92605","No_Match",NA,NA,NA,NA
984840,"PO BOX 35353","ST PETERSBURG","FL",33705,NA,NA,340,"PO BOX 35353, ST PETERSBURG, FL, 33705","No_Match",NA,NA,NA,NA
984841,"PO BOX 35354","FAIRBANKS","AK",99703,NA,NA,341,"PO BOX 35354, FAIRBANKS, AK, 99703","No_Match",NA,NA,NA,NA
984842,"PO BOX 3536","PHILADELPHIA","PA",19122,NA,NA,342,"PO BOX 3536, PHILADELPHIA, PA, 19122","No_Match",NA,NA,NA,NA
984843,"PO BOX 3537","BENTONVILLE","AR",72712,NA,NA,343,"PO BOX 3537, BENTONVILLE, AR, 72712","No_Match",NA,NA,NA,NA
984844,"PO BOX 3537","DAYTON","OH",45401,NA,NA,344,"PO BOX 3537, DAYTON, OH, 45401","No_Match",NA,NA,NA,NA
984845,"PO BOX 354","BELFAST","NY",14711,NA,NA,345,"PO BOX 354, BELFAST, NY, 14711","No_Match",NA,NA,NA,NA
984846,"PO BOX 354","BROKEN BOW","NE",68822,NA,NA,346,"PO BOX 354, BROKEN BOW, NE, 68822","No_Match",NA,NA,NA,NA
984847,"PO BOX 354","CASCADE LOCKS","OR",97014,NA,NA,347,"PO BOX 354, CASCADE LOCKS, OR, 97014","No_Match",NA,NA,NA,NA
984848,"PO BOX 354","COPAKE","NY",12516,NA,NA,348,"PO BOX 354, COPAKE, NY, 12516","No_Match",NA,NA,NA,NA
984849,"PO BOX 354","DEPOE BAY","OR",97341,NA,NA,349,"PO BOX 354, DEPOE BAY, OR, 97341","No_Match",NA,NA,NA,NA
984850,"PO BOX 354","EMILY","MN",56447,NA,NA,350,"PO BOX 354, EMILY, MN, 56447","No_Match",NA,NA,NA,NA
984851,"PO BOX 354","GARCIASVILLE","TX",78547,NA,NA,351,"PO BOX 354, GARCIASVILLE, TX, 78547","No_Match",NA,NA,NA,NA
984852,"PO BOX 354","GLENVILLE","WV",26351,NA,NA,352,"PO BOX 354, GLENVILLE, WV, 26351","No_Match",NA,NA,NA,NA
984853,"PO BOX 354","GOWER","MO",64454,NA,NA,353,"PO BOX 354, GOWER, MO, 64454","No_Match",NA,NA,NA,NA
984854,"PO BOX 354","HANOVER","IN",47243,NA,NA,354,"PO BOX 354, HANOVER, IN, 47243","No_Match",NA,NA,NA,NA
984855,"PO BOX 354","IRVINE","KY",40336,NA,NA,355,"PO BOX 354, IRVINE, KY, 40336","No_Match",NA,NA,NA,NA
984856,"PO BOX 354","LAKE CITY","MI",49651,NA,NA,356,"PO BOX 354, LAKE CITY, MI, 49651","No_Match",NA,NA,NA,NA
984857,"PO BOX 354","MARION","PA",17235,NA,NA,357,"PO BOX 354, MARION, PA, 17235","No_Match",NA,NA,NA,NA
984858,"PO BOX 354","MILFORD","TX",76670,NA,NA,358,"PO BOX 354, MILFORD, TX, 76670","No_Match",NA,NA,NA,NA
984859,"PO BOX 354","ODON","IN",47562,NA,NA,359,"PO BOX 354, ODON, IN, 47562","No_Match",NA,NA,NA,NA
984860,"PO BOX 354","OLATHE","KS",66051,NA,NA,360,"PO BOX 354, OLATHE, KS, 66051","No_Match",NA,NA,NA,NA
984861,"PO BOX 354","OVERTON","NV",89040,NA,NA,361,"PO BOX 354, OVERTON, NV, 89040","No_Match",NA,NA,NA,NA
984862,"PO BOX 354","PERRIN","TX",76486,NA,NA,362,"PO BOX 354, PERRIN, TX, 76486","No_Match",NA,NA,NA,NA
984863,"PO BOX 354","PORT GIBSON","MS",39150,NA,NA,363,"PO BOX 354, PORT GIBSON, MS, 39150","No_Match",NA,NA,NA,NA
984864,"PO BOX 354","REDFIELD","IA",50233,NA,NA,364,"PO BOX 354, REDFIELD, IA, 50233","No_Match",NA,NA,NA,NA
984865,"PO BOX 354","STERLING","OK",73567,NA,NA,365,"PO BOX 354, STERLING, OK, 73567","No_Match",NA,NA,NA,NA
984866,"PO BOX 354","STRAFFORD","MO",65757,NA,NA,366,"PO BOX 354, STRAFFORD, MO, 65757","No_Match",NA,NA,NA,NA
984867,"PO BOX 354","TUTTLE","OK",73089,NA,NA,367,"PO BOX 354, TUTTLE, OK, 73089","No_Match",NA,NA,NA,NA
984868,"PO BOX 354","WHITESBORO","TX",76273,NA,NA,368,"PO BOX 354, WHITESBORO, TX, 76273","No_Match",NA,NA,NA,NA
984869,"PO BOX 354","ZELLWOOD","FL",32798,NA,NA,369,"PO BOX 354, ZELLWOOD, FL, 32798","No_Match",NA,NA,NA,NA
984870,"PO BOX 35401","HOUSTON","TX",77235,NA,NA,370,"PO BOX 35401, HOUSTON, TX, 77235","No_Match",NA,NA,NA,NA
984871,"PO BOX 354034","PALM COAST","FL",32135,NA,NA,371,"PO BOX 354034, PALM COAST, FL, 32135","No_Match",NA,NA,NA,NA
984872,"PO BOX 35404","TULSA","OK",74153,NA,NA,372,"PO BOX 35404, TULSA, OK, 74153","No_Match",NA,NA,NA,NA
984873,"PO BOX 3541","FREDERICK","MD",21705,NA,NA,373,"PO BOX 3541, FREDERICK, MD, 21705","No_Match",NA,NA,NA,NA
984874,"PO BOX 3541","WENATCHEE","WA",98807,NA,NA,374,"PO BOX 3541, WENATCHEE, WA, 98807","No_Match",NA,NA,NA,NA
984875,"PO BOX 3543","CEDAR HILL","TX",75106,NA,NA,375,"PO BOX 3543, CEDAR HILL, TX, 75106","No_Match",NA,NA,NA,NA
984876,"PO BOX 35466","TULSA","OK",74153,NA,NA,376,"PO BOX 35466, TULSA, OK, 74153","No_Match",NA,NA,NA,NA
984877,"PO BOX 3547","BRENTWOOD","TN",37024,NA,NA,377,"PO BOX 3547, BRENTWOOD, TN, 37024","No_Match",NA,NA,NA,NA
984878,"PO BOX 354873","PALM COAST","FL",32164,NA,NA,378,"PO BOX 354873, PALM COAST, FL, 32164","No_Match",NA,NA,NA,NA
984879,"PO BOX 3549","JACKSON","WY",83001,NA,NA,379,"PO BOX 3549, JACKSON, WY, 83001","No_Match",NA,NA,NA,NA
984880,"PO BOX 355","ADVANCE","NC",27006,NA,NA,380,"PO BOX 355, ADVANCE, NC, 27006","No_Match",NA,NA,NA,NA
984881,"PO BOX 355","ANIMAS","NM",88020,NA,NA,381,"PO BOX 355, ANIMAS, NM, 88020","No_Match",NA,NA,NA,NA
984882,"PO BOX 355","BURNSVILLE","NC",28714,NA,NA,382,"PO BOX 355, BURNSVILLE, NC, 28714","No_Match",NA,NA,NA,NA
984883,"PO BOX 355","CALLAHAN","FL",32011,NA,NA,383,"PO BOX 355, CALLAHAN, FL, 32011","No_Match",NA,NA,NA,NA
984884,"PO BOX 355","CARTHAGE","TX",75633,NA,NA,384,"PO BOX 355, CARTHAGE, TX, 75633","No_Match",NA,NA,NA,NA
984885,"PO BOX 355","CLARKSVILLE","TX",75426,NA,NA,385,"PO BOX 355, CLARKSVILLE, TX, 75426","No_Match",NA,NA,NA,NA
984886,"PO BOX 355","EAST BRADY","PA",16028,NA,NA,386,"PO BOX 355, EAST BRADY, PA, 16028","No_Match",NA,NA,NA,NA
984887,"PO BOX 355","ELLENSBURG","WA",98926,NA,NA,387,"PO BOX 355, ELLENSBURG, WA, 98926","No_Match",NA,NA,NA,NA
984888,"PO BOX 355","GATES MILLS","OH",44040,NA,NA,388,"PO BOX 355, GATES MILLS, OH, 44040","No_Match",NA,NA,NA,NA
984889,"PO BOX 355","HAMILTON","MT",59840,NA,NA,389,"PO BOX 355, HAMILTON, MT, 59840","No_Match",NA,NA,NA,NA
984890,"PO BOX 355","HOPEWELL JUNCTION","NY",12533,NA,NA,390,"PO BOX 355, HOPEWELL JUNCTION, NY, 12533","No_Match",NA,NA,NA,NA
984891,"PO BOX 355","KELLER","WA",99140,NA,NA,391,"PO BOX 355, KELLER, WA, 99140","No_Match",NA,NA,NA,NA
984892,"PO BOX 355","MCCLELLANVILLE","SC",29458,NA,NA,392,"PO BOX 355, MCCLELLANVILLE, SC, 29458","No_Match",NA,NA,NA,NA
984893,"PO BOX 355","PACKWOOD","WA",98361,NA,NA,393,"PO BOX 355, PACKWOOD, WA, 98361","No_Match",NA,NA,NA,NA
984894,"PO BOX 355","RIDGEFIELD","WA",98642,NA,NA,394,"PO BOX 355, RIDGEFIELD, WA, 98642","No_Match",NA,NA,NA,NA
984895,"PO BOX 355","RITZVILLE","WA",99169,NA,NA,395,"PO BOX 355, RITZVILLE, WA, 99169","No_Match",NA,NA,NA,NA
984896,"PO BOX 355","ROPESVILLE","TX",79358,NA,NA,396,"PO BOX 355, ROPESVILLE, TX, 79358","No_Match",NA,NA,NA,NA
984897,"PO BOX 355","SCOTT","LA",70583,NA,NA,397,"PO BOX 355, SCOTT, LA, 70583","No_Match",NA,NA,NA,NA
984898,"PO BOX 355","SPRING VALLEY","CA",91977,NA,NA,398,"PO BOX 355, SPRING VALLEY, CA, 91977","No_Match",NA,NA,NA,NA
984899,"PO BOX 355","VICTORIA","KS",67671,NA,NA,399,"PO BOX 355, VICTORIA, KS, 67671","No_Match",NA,NA,NA,NA
984900,"PO BOX 355","WALLS","MS",38680,NA,NA,400,"PO BOX 355, WALLS, MS, 38680","No_Match",NA,NA,NA,NA
984901,"PO BOX 355","WARSAW","IN",46580,NA,NA,401,"PO BOX 355, WARSAW, IN, 46580","No_Match",NA,NA,NA,NA
984902,"PO BOX 355","WESTLEY","CA",95387,NA,NA,402,"PO BOX 355, WESTLEY, CA, 95387","No_Match",NA,NA,NA,NA
984903,"PO BOX 3550","CONCORD","NH",3302,NA,NA,403,"PO BOX 3550, CONCORD, NH, 3302","No_Match",NA,NA,NA,NA
984904,"PO BOX 3550","KNOXVILLE","TN",37927,NA,NA,404,"PO BOX 3550, KNOXVILLE, TN, 37927","No_Match",NA,NA,NA,NA
984905,"PO BOX 3550","NORTH MYRTLE BEACH","SC",29582,NA,NA,405,"PO BOX 3550, NORTH MYRTLE BEACH, SC, 29582","No_Match",NA,NA,NA,NA
984906,"PO BOX 3551","LAS VEGAS","NM",87701,NA,NA,406,"PO BOX 3551, LAS VEGAS, NM, 87701","No_Match",NA,NA,NA,NA
984907,"PO BOX 35516","CANTON","OH",44735,NA,NA,407,"PO BOX 35516, CANTON, OH, 44735","No_Match",NA,NA,NA,NA
984908,"PO BOX 3552","EATONTON","GA",31024,NA,NA,408,"PO BOX 3552, EATONTON, GA, 31024","No_Match",NA,NA,NA,NA
984909,"PO BOX 3552","KETCHUM,","ID",83340,NA,NA,409,"PO BOX 3552, KETCHUM,, ID, 83340","No_Match",NA,NA,NA,NA
984910,"PO BOX 35525","IDAHO FALLS","ID",83403,NA,NA,410,"PO BOX 35525, IDAHO FALLS, ID, 83403","No_Match",NA,NA,NA,NA
984911,"PO BOX 3553","RINCON","PR",677,NA,NA,411,"PO BOX 3553, RINCON, PR, 677","No_Match",NA,NA,NA,NA
984912,"PO BOX 3554","RAMONA","CA",92065,NA,NA,412,"PO BOX 3554, RAMONA, CA, 92065","No_Match",NA,NA,NA,NA
984913,"PO BOX 35542","TUCSON","AZ",85740,NA,NA,413,"PO BOX 35542, TUCSON, AZ, 85740","No_Match",NA,NA,NA,NA
984914,"PO BOX 35545","FORTWAINRIGHT","AK",99703,NA,NA,414,"PO BOX 35545, FORTWAINRIGHT, AK, 99703","No_Match",NA,NA,NA,NA
984915,"PO BOX 3555","APOLLO BEACH","FL",33572,NA,NA,415,"PO BOX 3555, APOLLO BEACH, FL, 33572","No_Match",NA,NA,NA,NA
984916,"PO BOX 3555","POST FALLS","ID",83877,NA,NA,416,"PO BOX 3555, POST FALLS, ID, 83877","No_Match",NA,NA,NA,NA
984917,"PO BOX 3555","TEQUESTA","FL",33469,NA,NA,417,"PO BOX 3555, TEQUESTA, FL, 33469","No_Match",NA,NA,NA,NA
984918,"PO BOX 3556 AMITY STATION","WOODBRIDGE",NA,NA,NA,NA,418,"PO BOX 3556 AMITY STATION, WOODBRIDGE, , ","No_Match",NA,NA,NA,NA
984919,"PO BOX 3556","OXFORD","AL",36203,NA,NA,419,"PO BOX 3556, OXFORD, AL, 36203","No_Match",NA,NA,NA,NA
984920,"PO BOX 3557","BLUFFTON","SC",29910,NA,NA,420,"PO BOX 3557, BLUFFTON, SC, 29910","No_Match",NA,NA,NA,NA
984921,"PO BOX 35572","JUNEAU","AK",99803,NA,NA,421,"PO BOX 35572, JUNEAU, AK, 99803","No_Match",NA,NA,NA,NA
984922,"PO BOX 35591","CLEVELAND","OH",44135,NA,NA,422,"PO BOX 35591, CLEVELAND, OH, 44135","No_Match",NA,NA,NA,NA
984923,"PO BOX 356","BLOUNTSTOWN","FL",32424,NA,NA,423,"PO BOX 356, BLOUNTSTOWN, FL, 32424","No_Match",NA,NA,NA,NA
984924,"PO BOX 356","CANONCITO","NM",87026,NA,NA,424,"PO BOX 356, CANONCITO, NM, 87026","No_Match",NA,NA,NA,NA
984925,"PO BOX 356","CASHIERS","NC",28717,NA,NA,425,"PO BOX 356, CASHIERS, NC, 28717","No_Match",NA,NA,NA,NA
984926,"PO BOX 356","COLERAIN","NC",27294,NA,NA,426,"PO BOX 356, COLERAIN, NC, 27294","No_Match",NA,NA,NA,NA
984927,"PO BOX 356","DOUGLAS","CA",96042,NA,NA,427,"PO BOX 356, DOUGLAS, CA, 96042","No_Match",NA,NA,NA,NA
984928,"PO BOX 356","KNIPPA","TX",78870,NA,NA,428,"PO BOX 356, KNIPPA, TX, 78870","No_Match",NA,NA,NA,NA
984929,"PO BOX 356","LOTT","TX",76656,NA,NA,429,"PO BOX 356, LOTT, TX, 76656","No_Match",NA,NA,NA,NA
984930,"PO BOX 356","MCADENVILLE","NC",28101,NA,NA,430,"PO BOX 356, MCADENVILLE, NC, 28101","No_Match",NA,NA,NA,NA
984931,"PO BOX 356","MIAMI","TX",79059,NA,NA,431,"PO BOX 356, MIAMI, TX, 79059","No_Match",NA,NA,NA,NA
984932,"PO BOX 356","NORTH SAN JUAN","CA",95960,NA,NA,432,"PO BOX 356, NORTH SAN JUAN, CA, 95960","No_Match",NA,NA,NA,NA
984933,"PO BOX 356","OSCEOLA","MO",64776,NA,NA,433,"PO BOX 356, OSCEOLA, MO, 64776","No_Match",NA,NA,NA,NA
984934,"PO BOX 356","RAHWAY","NJ",7065,NA,NA,434,"PO BOX 356, RAHWAY, NJ, 7065","No_Match",NA,NA,NA,NA
984935,"PO BOX 356","ST IGNATIUS","MT",59865,NA,NA,435,"PO BOX 356, ST IGNATIUS, MT, 59865","No_Match",NA,NA,NA,NA
984936,"PO BOX 356","TYRO","KS",67364,NA,NA,436,"PO BOX 356, TYRO, KS, 67364","No_Match",NA,NA,NA,NA
984937,"PO BOX 356","WALWORTH","WI",53184,NA,NA,437,"PO BOX 356, WALWORTH, WI, 53184","No_Match",NA,NA,NA,NA
984938,"PO BOX 356","WATERFORD","CA",95386,NA,NA,438,"PO BOX 356, WATERFORD, CA, 95386","No_Match",NA,NA,NA,NA
984939,"PO BOX 356","WRIGHT","WY",82732,NA,NA,439,"PO BOX 356, WRIGHT, WY, 82732","No_Match",NA,NA,NA,NA
984940,"PO BOX 35606","TULSA","OK",74153,NA,NA,440,"PO BOX 35606, TULSA, OK, 74153","No_Match",NA,NA,NA,NA
984941,"PO BOX 3561","PLANT CITY","FL",33563,NA,NA,441,"PO BOX 3561, PLANT CITY, FL, 33563","No_Match",NA,NA,NA,NA
984942,"PO BOX 35610","LOUISVILLE","KY",40232,NA,NA,442,"PO BOX 35610, LOUISVILLE, KY, 40232","No_Match",NA,NA,NA,NA
984943,"PO BOX 3562","ALBANY","GA",31706,NA,NA,443,"PO BOX 3562, ALBANY, GA, 31706","No_Match",NA,NA,NA,NA
984944,"PO BOX 3562","SOUTH PADRE ISLAND","TX",78597,NA,NA,444,"PO BOX 3562, SOUTH PADRE ISLAND, TX, 78597","No_Match",NA,NA,NA,NA
984945,"PO BOX 3565","JACKSONVILLE","FL",32206,NA,NA,445,"PO BOX 3565, JACKSONVILLE, FL, 32206","No_Match",NA,NA,NA,NA
984946,"PO BOX 3566","SAINT AUGUSTINE","FL",32085,NA,NA,446,"PO BOX 3566, SAINT AUGUSTINE, FL, 32085","No_Match",NA,NA,NA,NA
984947,"PO BOX 3568","LAPINE","OR",97739,NA,NA,447,"PO BOX 3568, LAPINE, OR, 97739","No_Match",NA,NA,NA,NA
984948,"PO BOX 356H","HAMPTON","NH",3842,NA,NA,448,"PO BOX 356H, HAMPTON, NH, 3842","No_Match",NA,NA,NA,NA
984949,"PO BOX 357","ACTON","CA",93510,NA,NA,449,"PO BOX 357, ACTON, CA, 93510","No_Match",NA,NA,NA,NA
984950,"PO BOX 357","BILLINGS","MT",59103,NA,NA,450,"PO BOX 357, BILLINGS, MT, 59103","No_Match",NA,NA,NA,NA
984951,"PO BOX 357","COWLEY","WY",82420,NA,NA,451,"PO BOX 357, COWLEY, WY, 82420","No_Match",NA,NA,NA,NA
984952,"PO BOX 357","ELK CITY","ID",83525,NA,NA,452,"PO BOX 357, ELK CITY, ID, 83525","No_Match",NA,NA,NA,NA
984953,"PO BOX 357","FAIRPLAY","CO",80440,NA,NA,453,"PO BOX 357, FAIRPLAY, CO, 80440","No_Match",NA,NA,NA,NA
984954,"PO BOX 357","GILBERTSVILLE","NY",13776,NA,NA,454,"PO BOX 357, GILBERTSVILLE, NY, 13776","No_Match",NA,NA,NA,NA
984955,"PO BOX 357","GLENALLEN","AK",99588,NA,NA,455,"PO BOX 357, GLENALLEN, AK, 99588","No_Match",NA,NA,NA,NA
984956,"PO BOX 357","GREENBELT","MD",20768,NA,NA,456,"PO BOX 357, GREENBELT, MD, 20768","No_Match",NA,NA,NA,NA
984957,"PO BOX 357","KALAHEO","HI",96741,NA,NA,457,"PO BOX 357, KALAHEO, HI, 96741","No_Match",NA,NA,NA,NA
984958,"PO BOX 357","MCLAUGHLIN","SD",57642,NA,NA,458,"PO BOX 357, MCLAUGHLIN, SD, 57642","No_Match",NA,NA,NA,NA
984959,"PO BOX 357","MONMOUTH","ME",4259,NA,NA,459,"PO BOX 357, MONMOUTH, ME, 4259","No_Match",NA,NA,NA,NA
984960,"PO BOX 357","REDMOND","OR",97756,NA,NA,460,"PO BOX 357, REDMOND, OR, 97756","No_Match",NA,NA,NA,NA
984961,"PO BOX 357","RICHLAND","OR",97870,NA,NA,461,"PO BOX 357, RICHLAND, OR, 97870","No_Match",NA,NA,NA,NA
984962,"PO BOX 357","RYE","NY",10580,NA,NA,462,"PO BOX 357, RYE, NY, 10580","No_Match",NA,NA,NA,NA
984963,"PO BOX 357","SALEM","SC",29676,NA,NA,463,"PO BOX 357, SALEM, SC, 29676","No_Match",NA,NA,NA,NA
984964,"PO BOX 357","TREYNOR","IA",51575,NA,NA,464,"PO BOX 357, TREYNOR, IA, 51575","No_Match",NA,NA,NA,NA
984965,"PO BOX 357","UPPER MARLBORO","MD",20773,NA,NA,465,"PO BOX 357, UPPER MARLBORO, MD, 20773","No_Match",NA,NA,NA,NA
984966,"PO BOX 357","WILTON","NH",3086,NA,NA,466,"PO BOX 357, WILTON, NH, 3086","No_Match",NA,NA,NA,NA
984967,"PO BOX 3571","KETCHUM","ID",83340,NA,NA,467,"PO BOX 3571, KETCHUM, ID, 83340","No_Match",NA,NA,NA,NA
984968,"PO BOX 3571","SUMMERVILLE","SC",29483,NA,NA,468,"PO BOX 3571, SUMMERVILLE, SC, 29483","No_Match",NA,NA,NA,NA
984969,"PO BOX 357124","SAN DIEGO","CA",92135,NA,NA,469,"PO BOX 357124, SAN DIEGO, CA, 92135","No_Match",NA,NA,NA,NA
984970,"PO BOX 3572","PEACHTREE CITY","GA",30269,NA,NA,470,"PO BOX 3572, PEACHTREE CITY, GA, 30269","No_Match",NA,NA,NA,NA
984971,"PO BOX 3572","WAYNE","NJ",7474,NA,NA,471,"PO BOX 3572, WAYNE, NJ, 7474","No_Match",NA,NA,NA,NA
984972,"PO BOX 3573","LAKE HAVASU CITY","AZ",86405,NA,NA,472,"PO BOX 3573, LAKE HAVASU CITY, AZ, 86405","No_Match",NA,NA,NA,NA
984973,"PO BOX 35740","PHOENIX","AZ",85069,NA,NA,473,"PO BOX 35740, PHOENIX, AZ, 85069","No_Match",NA,NA,NA,NA
984974,"PO BOX 357442","GAINESVILLE","FL",32635,NA,NA,474,"PO BOX 357442, GAINESVILLE, FL, 32635","No_Match",NA,NA,NA,NA
984975,"PO BOX 3575","JACKSONVILLE","FL",32206,NA,NA,475,"PO BOX 3575, JACKSONVILLE, FL, 32206","No_Match",NA,NA,NA,NA
984976,"PO BOX 357597","GAINESVILLE","FL",32635,NA,NA,476,"PO BOX 357597, GAINESVILLE, FL, 32635","No_Match",NA,NA,NA,NA
984977,"PO BOX 3576","PAGO PAGO","AS",96799,NA,NA,477,"PO BOX 3576, PAGO PAGO, AS, 96799","No_Match",NA,NA,NA,NA
984978,"PO BOX 357656","GAINESVILLE","FL",32635,NA,NA,478,"PO BOX 357656, GAINESVILLE, FL, 32635","No_Match",NA,NA,NA,NA
984979,"PO BOX 3577","WEST LEBANON","NH",3784,NA,NA,479,"PO BOX 3577, WEST LEBANON, NH, 3784","No_Match",NA,NA,NA,NA
984980,"PO BOX 35776","TULSA","OK",74153,NA,NA,480,"PO BOX 35776, TULSA, OK, 74153","No_Match",NA,NA,NA,NA
984981,"PO BOX 357970","GAINESVILLE","FL",32635,NA,NA,481,"PO BOX 357970, GAINESVILLE, FL, 32635","No_Match",NA,NA,NA,NA
984982,"PO BOX 358","CAMBRIDGE","ID",83610,NA,NA,482,"PO BOX 358, CAMBRIDGE, ID, 83610","No_Match",NA,NA,NA,NA
984983,"PO BOX 358","CHAPMANVILLE","WV",25508,NA,NA,483,"PO BOX 358, CHAPMANVILLE, WV, 25508","No_Match",NA,NA,NA,NA
984984,"PO BOX 358","CLEARLAKE","CA",95422,NA,NA,484,"PO BOX 358, CLEARLAKE, CA, 95422","No_Match",NA,NA,NA,NA
984985,"PO BOX 358","COULTERVILLE","IL",62237,NA,NA,485,"PO BOX 358, COULTERVILLE, IL, 62237","No_Match",NA,NA,NA,NA
984986,"PO BOX 358","ELFRIDA","AZ",85610,NA,NA,486,"PO BOX 358, ELFRIDA, AZ, 85610","No_Match",NA,NA,NA,NA
984987,"PO BOX 358","GILBERT","WV",25621,NA,NA,487,"PO BOX 358, GILBERT, WV, 25621","No_Match",NA,NA,NA,NA
984988,"PO BOX 358","GRAVETTE","AR",72736,NA,NA,488,"PO BOX 358, GRAVETTE, AR, 72736","No_Match",NA,NA,NA,NA
984989,"PO BOX 358","KENNEDALE","TX",76060,NA,NA,489,"PO BOX 358, KENNEDALE, TX, 76060","No_Match",NA,NA,NA,NA
984990,"PO BOX 358","MOLALLA","OR",97038,NA,NA,490,"PO BOX 358, MOLALLA, OR, 97038","No_Match",NA,NA,NA,NA
984991,"PO BOX 358","NAALEHU","HI",96772,NA,NA,491,"PO BOX 358, NAALEHU, HI, 96772","No_Match",NA,NA,NA,NA
984992,"PO BOX 358","ROPER","NC",27970,NA,NA,492,"PO BOX 358, ROPER, NC, 27970","No_Match",NA,NA,NA,NA
984993,"PO BOX 358","SANDWICH","IL",60548,NA,NA,493,"PO BOX 358, SANDWICH, IL, 60548","No_Match",NA,NA,NA,NA
984994,"PO BOX 358164","FL","FL",32635,NA,NA,494,"PO BOX 358164, FL, FL, 32635","No_Match",NA,NA,NA,NA
984995,"PO BOX 3582","CAREFREE","AZ",85377,NA,NA,495,"PO BOX 3582, CAREFREE, AZ, 85377","No_Match",NA,NA,NA,NA
984996,"PO BOX 3582","UNION","NJ",7083,NA,NA,496,"PO BOX 3582, UNION, NJ, 7083","No_Match",NA,NA,NA,NA
984997,"PO BOX 358212","GAINESVILLE","FL",32635,NA,NA,497,"PO BOX 358212, GAINESVILLE, FL, 32635","No_Match",NA,NA,NA,NA
984998,"PO BOX 3583","VALLEJO","CA",94590,NA,NA,498,"PO BOX 3583, VALLEJO, CA, 94590","No_Match",NA,NA,NA,NA
984999,"PO BOX 35853","DES MOINES","IA",50315,NA,NA,499,"PO BOX 35853, DES MOINES, IA, 50315","No_Match",NA,NA,NA,NA
985000,"PO BOX 3586","NORTH CHESTERFIELD","VA",23235,NA,NA,500,"PO BOX 3586, NORTH CHESTERFIELD, VA, 23235","No_Match",NA,NA,NA,NA
