"ID","Address","City","State","Zip","lat","long","id","input_address","match_indicator","match_type","matched_address","tiger_line_id","tiger_side"
942001,"950 28TH STREET APT 223","BOULDER","CO",80303,40.0053442820001,-105.258344575,1,"950 28TH STREET APT 223, BOULDER, CO, 80303","Match","Non_Exact","950 28TH STREET FRONTAGE RD, BOULDER, CO, 80303",608791165,"R"
942002,"950 28TH STREET SE SUITE E-105","GRAND RAPIDS","MI",49508,42.912761957,-85.64346238,2,"950 28TH STREET SE SUITE E-105, GRAND RAPIDS, MI, 49508","Match","Exact","950 28TH ST SE, GRAND RAPIDS, MI, 49508",615657037,"R"
942003,"950 33RD AVENUE SW","VERO BEACH","FL",32968,27.585928202,-80.420391453,3,"950 33RD AVENUE SW, VERO BEACH, FL, 32968","Match","Exact","950 33RD AVE SW, VERO BEACH, FL, 32968",120319406,"R"
942004,"950 3RD AVE  25TH FLOOR","NEW YORK","NY",10022,40.7602037120001,-73.9675753239999,4,"950 3RD AVE  25TH FLOOR, NEW YORK, NY, 10022","Match","Exact","950 3RD AVE, NEW YORK, NY, 10022",59657509,"L"
942005,"950 3RD AVE 25TH FL","NEW YORK","NY",10022,40.7602037120001,-73.9675753239999,5,"950 3RD AVE 25TH FL, NEW YORK, NY, 10022","Match","Exact","950 3RD AVE, NEW YORK, NY, 10022",59657509,"L"
942006,"950 40TH STREET 16","OAKLAND","CA",94608,NA,NA,6,"950 40TH STREET 16, OAKLAND, CA, 94608","No_Match",NA,NA,NA,NA
942007,"950 61ST ST STUDIO B","OAKLAND","CA",94608,37.8451941920001,-122.277761851,7,"950 61ST ST STUDIO B, OAKLAND, CA, 94608","Match","Exact","950 61ST ST, OAKLAND, CA, 94608",124994806,"R"
942008,"950 67TH STREET","BROOKLYN","NY",11219,40.6292194590001,-74.0100108079999,8,"950 67TH STREET, BROOKLYN, NY, 11219","Match","Exact","950 67TH ST, BROOKLYN, NY, 11219",59094676,"R"
942009,"950 76TH AVE S","FARGO","ND",58104,46.774357138,-96.7934419279999,9,"950 76TH AVE S, FARGO, ND, 58104","Match","Exact","950 76 AVE S, FARGO, ND, 58104",151459147,"L"
942010,"950 ALLEN STREET","FERNDALE","MI",48220,42.454346392,-83.137798157,10,"950 ALLEN STREET, FERNDALE, MI, 48220","Match","Exact","950 ALLEN ST, FERNDALE, MI, 48220",69806868,"R"
942011,"950 ALTAMONT BLVD APT 31","ALTAMONT","NY",12009,42.6955230610001,-74.02939315,11,"950 ALTAMONT BLVD APT 31, ALTAMONT, NY, 12009","Match","Exact","950 ALTAMONT BLVD, ALTAMONT, NY, 12009",18333366,"L"
942012,"950 ALYSHEBA RD APT 208","SHAKOPEE","MN",55379,44.788935714,-93.493574897,12,"950 ALYSHEBA RD APT 208, SHAKOPEE, MN, 55379","Match","Exact","950 ALYSHEBA RD, SHAKOPEE, MN, 55379",606967604,"L"
942013,"950 ANGIE LANE","DESOTO","TX",75115,32.6074917010001,-96.872987828,13,"950 ANGIE LANE, DESOTO, TX, 75115","Match","Exact","950 ANGIE LN, DESOTO, TX, 75115",624097419,"L"
942014,"950 ARUM DRIVE","MABLETON","GA",30126,33.8015932180001,-84.581801442,14,"950 ARUM DRIVE, MABLETON, GA, 30126","Match","Exact","950 ARUM DR, MABLETON, GA, 30126",17174996,"L"
942015,"950 ASHLEY RD","BLOUNTSVILLE","AL",35031,34.101405184,-86.622793603,15,"950 ASHLEY RD, BLOUNTSVILLE, AL, 35031","Match","Exact","950 ASHLEY RD, BLOUNTSVILLE, AL, 35031",99084636,"L"
942016,"950 BAY STREET NE","ST PETERSBURG","FL",33701,27.7817269010001,-82.6328775429999,16,"950 BAY STREET NE, ST PETERSBURG, FL, 33701","Match","Exact","950 BAY ST NE, SAINT PETERSBURG, FL, 33701",124713378,"L"
942017,"950 BAYHILL WAY","SPARKS","NV",89511,39.592330754,-119.728556056,17,"950 BAYHILL WAY, SPARKS, NV, 89511","Match","Non_Exact","950 BAYHILL WAY, SPARKS, NV, 89436",107120345,"L"
942018,"950 BAYSIDE DRIVE","GREENWOOD","IN",46143,39.6015538460001,-86.131858985,18,"950 BAYSIDE DRIVE, GREENWOOD, IN, 46143","Match","Exact","950 BAYSIDE DR, GREENWOOD, IN, 46143",114653554,"L"
942019,"950 BIRMINGHAM RD STE 501-293","MILTON","GA",30004,34.1660849940001,-84.33145519,19,"950 BIRMINGHAM RD STE 501-293, MILTON, GA, 30004","Match","Exact","950 BIRMINGHAM RD, MILTON, GA, 30004",17421808,"L"
942020,"950 BLUESTONE LANE APT 6","MARATHON CITY","WI",54448,44.9424793520001,-89.840388736,20,"950 BLUESTONE LANE APT 6, MARATHON CITY, WI, 54448","Match","Non_Exact","950 BLUE STONE LN, MARATHON, WI, 54448",117163394,"R"
942021,"950 BOYD THOMPSON RD","HILLSBORO","WV",24946,NA,NA,21,"950 BOYD THOMPSON RD, HILLSBORO, WV, 24946","No_Match",NA,NA,NA,NA
942022,"950 BRENTWOOD","JENISON","MI",49428,42.8950805430001,-85.805461483,22,"950 BRENTWOOD, JENISON, MI, 49428","Match","Non_Exact","950 BRENTWOOD ST, JENISON, MI, 49428",71083863,"R"
942023,"950 BRICKELL BAY DR APT 4500","MIAMI","FL",33131,25.764438785,-80.189864648,23,"950 BRICKELL BAY DR APT 4500, MIAMI, FL, 33131","Match","Exact","950 BRICKELL BAY DR, MIAMI, FL, 33131",624579706,"R"
942024,"950 BRICKELL BAY DR APT 5011","MIAMI","FL",33131,25.764438785,-80.189864648,24,"950 BRICKELL BAY DR APT 5011, MIAMI, FL, 33131","Match","Exact","950 BRICKELL BAY DR, MIAMI, FL, 33131",624579706,"R"
942025,"950 BRICKELL BAY DR UNIT 4908","MIAMI","FL",33131,25.764438785,-80.189864648,25,"950 BRICKELL BAY DR UNIT 4908, MIAMI, FL, 33131","Match","Exact","950 BRICKELL BAY DR, MIAMI, FL, 33131",624579706,"R"
942026,"950 BRICKELL BAY DRIVE 3003","MIAMI","FL",33131,25.764438785,-80.189864648,26,"950 BRICKELL BAY DRIVE 3003, MIAMI, FL, 33131","Match","Exact","950 BRICKELL BAY DR, MIAMI, FL, 33131",624579706,"R"
942027,"950 BRITTANY PARK DR APT 320","ANTIOCH","TN",37013,36.049026618,-86.678806579,27,"950 BRITTANY PARK DR APT 320, ANTIOCH, TN, 37013","Match","Exact","950 BRITTANY PARK DR, ANTIOCH, TN, 37013",97213337,"L"
942028,"950 BURLINGTON ST","OPA LOCKA","FL",33054,25.900983771,-80.249370196,28,"950 BURLINGTON ST, OPA LOCKA, FL, 33054","Match","Exact","950 BURLINGTON ST, OPA LOCKA, FL, 33054",116056768,"R"
942029,"950 BURNT CHIMNEY RD","CAMPOBELLO","SC",29322,35.15493795,-82.0531003999999,29,"950 BURNT CHIMNEY RD, CAMPOBELLO, SC, 29322","Match","Exact","950 BURNT CHIMNEY RD, CAMPOBELLO, SC, 29322",640661437,"R"
942030,"950 BUTTONWOODS DRIVE","WARWICK","RI",2886,41.686997874,-71.4142948319999,30,"950 BUTTONWOODS DRIVE, WARWICK, RI, 2886","Match","Non_Exact","950 BUTTONWOODS AVE, WARWICK, RI, 02886",159149628,"L"
942031,"950 CAGNEY LANE","NEWPORT BEACH","CA",92663,NA,NA,31,"950 CAGNEY LANE, NEWPORT BEACH, CA, 92663","No_Match",NA,NA,NA,NA
942032,"950 CAROLINE STREET","NEENAH","WI",54956,44.18417721,-88.478425468,32,"950 CAROLINE STREET, NEENAH, WI, 54956","Match","Exact","950 CAROLINE ST, NEENAH, WI, 54956",74487206,"R"
942033,"950 CARTER OAK DR","CALABASAS","CA",91302,34.083673661,-118.692724036,33,"950 CARTER OAK DR, CALABASAS, CA, 91302","Match","Non_Exact","950 CRATER OAK DR, CALABASAS, CA, 91302",142709536,"R"
942034,"950 CARYA CRT","GREAT FALLS","VA",22066,38.9843122180001,-77.2847341949999,34,"950 CARYA CRT, GREAT FALLS, VA, 22066","Match","Exact","950 CARYA CT, GREAT FALLS, VA, 22066",75999368,"R"
942035,"950 CELIA LN","LEXINGTON","KY",40504,38.040795831,-84.540909191,35,"950 CELIA LN, LEXINGTON, KY, 40504","Match","Exact","950 CELIA LN, LEXINGTON, KY, 40504",31919925,"L"
942036,"950 CENTENNIAL AVE","DELTONA","FL",32738,28.890295463,-81.1945583199999,36,"950 CENTENNIAL AVE, DELTONA, FL, 32738","Match","Exact","950 CENTENNIAL AVE, DELTONA, FL, 32738",94503375,"L"
942037,"950 CHAIN OF ROCKS ROAD","ST LOUIS","MO",63137,38.7298795180001,-90.226825736,37,"950 CHAIN OF ROCKS ROAD, ST LOUIS, MO, 63137","Match","Non_Exact","950 CHAIN OF ROCKS DR, SAINT LOUIS, MO, 63137",100150614,"L"
942038,"950 CHANNEL TUNNEL CT","GREEN BAY","WI",54313,44.5665086440001,-88.123361524,38,"950 CHANNEL TUNNEL CT, GREEN BAY, WI, 54313","Match","Exact","950 CHANNEL TUNNEL CT, GREEN BAY, WI, 54313",616167384,"L"
942039,"950 CHAPS CIR","LAS VEGAS","NV",89002,36.004643393,-114.955208381,39,"950 CHAPS CIR, LAS VEGAS, NV, 89002","Match","Non_Exact","950 CHAPS CIR, HENDERSON, NV, 89002",201912498,"R"
942040,"950 COBB PARKWAY S STE 190","MARIETTA","GA",30060,33.927654853,-84.508177143,40,"950 COBB PARKWAY S STE 190, MARIETTA, GA, 30060","Match","Exact","950 COBB PKWY S, MARIETTA, GA, 30060",649232544,"L"
942041,"950 COBBLESTONE LANE","GARNER","IA",50438,43.0957086400001,-93.614850541,41,"950 COBBLESTONE LANE, GARNER, IA, 50438","Match","Exact","950 COBBLESTONE LN, GARNER, IA, 50438",7410191,"L"
942042,"950 COMMERCE ST","FORT WORTH","TX",76102,32.7521012340001,-97.328501229,42,"950 COMMERCE ST, FORT WORTH, TX, 76102","Match","Exact","950 COMMERCE ST, FORT WORTH, TX, 76102",101888836,"R"
942043,"950 CONGER","WHITEWATER","WI",53190,NA,NA,43,"950 CONGER, WHITEWATER, WI, 53190","No_Match",NA,NA,NA,NA
942044,"950 CORBETT AVE UNIT 1","SAN FRANCISCO","CA",94131,37.7518416190001,-122.44352634,44,"950 CORBETT AVE UNIT 1, SAN FRANCISCO, CA, 94131","Match","Exact","950 CORBETT AVE, SAN FRANCISCO, CA, 94131",192298279,"R"
942045,"950 COUNTRY CHARM CIRCLE","OVIEDO","FL",32765,28.683333911,-81.1978903,45,"950 COUNTRY CHARM CIRCLE, OVIEDO, FL, 32765","Match","Exact","950 COUNTRY CHARM CIR, OVIEDO, FL, 32765",642152970,"R"
942046,"950 COUNTY ROAD 10 SUITE 206","SPRING LAKE PARK","MN",55432,45.1235404510001,-93.247278767,46,"950 COUNTY ROAD 10 SUITE 206, SPRING LAKE PARK, MN, 55432","Match","Exact","950 CO RD 10, SPRING LAKE PARK, MN, 55432",647500097,"R"
942047,"950 COUNTY SQUARE DRIVE SUITE 104","VENTURA","CA",93003,34.266208851,-119.214496898,47,"950 COUNTY SQUARE DRIVE SUITE 104, VENTURA, CA, 93003","Match","Exact","950 COUNTY SQUARE DR, VENTURA, CA, 93003",639043840,"L"
942048,"950 CR 459","TROY","TX",76579,31.1937462830001,-97.190201945,48,"950 CR 459, TROY, TX, 76579","Match","Exact","950 CO RD 459, TROY, TX, 76579",627681205,"R"
942049,"950 CR 753 S","WEBSTER","FL",33597,28.5844537030001,-82.0886737769999,49,"950 CR 753 S, WEBSTER, FL, 33597","Match","Exact","950 CO RD 753 S, WEBSTER, FL, 33597",611721365,"L"
942050,"950 CR 753S","WEBSTER","FL",33597,NA,NA,50,"950 CR 753S, WEBSTER, FL, 33597","No_Match",NA,NA,NA,NA
942051,"950 CREEKSIDE","REDLANDS","CA",92373,34.012425969,-117.173677123,51,"950 CREEKSIDE, REDLANDS, CA, 92373","Match","Non_Exact","950 CREEKSIDE DR, REDLANDS, CA, 92373",614820839,"R"
942052,"950 CRESTON RD","BERKELEY","CA",94707,37.8964429220001,-122.259647129,52,"950 CRESTON RD, BERKELEY, CA, 94707","Match","Non_Exact","950 CRESTON RD, BERKELEY, CA, 94708",125083508,"R"
942053,"950 CRYSTAL LAKE TERRACE","FRANKLIN LAKES","NJ",7417,41.024629098,-74.218746832,53,"950 CRYSTAL LAKE TERRACE, FRANKLIN LAKES, NJ, 7417","Match","Exact","950 CRYSTAL LAKE TER, FRANKLIN LAKES, NJ, 07417",64437149,"L"
942054,"950 CYPRESS COURT","TITUSVILLE","FL",32780,28.54248869,-80.813853717,54,"950 CYPRESS COURT, TITUSVILLE, FL, 32780","Match","Exact","950 CYPRESS CT, TITUSVILLE, FL, 32780",93944984,"R"
942055,"950 DANNON VW SW STE 4201","ATLANTA","GA",30331,NA,NA,55,"950 DANNON VW SW STE 4201, ATLANTA, GA, 30331","No_Match",NA,NA,NA,NA
942056,"950 DUESENBURGE DR 1003","ONTARIO","CA",91764,NA,NA,56,"950 DUESENBURGE DR 1003, ONTARIO, CA, 91764","No_Match",NA,NA,NA,NA
942057,"950 DUNCAN RD","SOUTH DAYTONA","FL",32119,29.16170077,-81.018619101,57,"950 DUNCAN RD, SOUTH DAYTONA, FL, 32119","Match","Exact","950 DUNCAN RD, S DAYTONA, FL, 32119",94527027,"R"
942058,"950 DUNCAN STREET  301","SAN FRANCISCO","CA",94131,37.7452141360001,-122.441609673,58,"950 DUNCAN STREET  301, SAN FRANCISCO, CA, 94131","Match","Exact","950 DUNCAN ST, SAN FRANCISCO, CA, 94131",192284574,"R"
942059,"950 E 1ST STREET","DOUGLASS","KS",67039,37.519585831,-97.004997589,59,"950 E 1ST STREET, DOUGLASS, KS, 67039","Match","Exact","950 E 1ST ST, DOUGLASS, KS, 67039",32271098,"L"
942060,"950 E 34TH ST","BROOKLYN","NY",11210,40.6330284900001,-73.943789051,60,"950 E 34TH ST, BROOKLYN, NY, 11210","Match","Exact","950 E 34TH ST, BROOKLYN, NY, 11210",59081981,"R"
942061,"950 E 3RD ST STE 2608","LOS ANGELES","CA",90013,34.045972894,-118.233392167,61,"950 E 3RD ST STE 2608, LOS ANGELES, CA, 90013","Match","Non_Exact","950 E 3RD ST, LOS ANGELES, CA, 90013",652036369,"R"
942062,"950 E 3RD STREET","LOS ANGELES","CA",90013,34.045972894,-118.233392167,62,"950 E 3RD STREET, LOS ANGELES, CA, 90013","Match","Exact","950 E 3RD ST, LOS ANGELES, CA, 90013",652036369,"R"
942063,"950 E BENNETT AVE","GLENDORA","CA",91741,34.1396889850001,-117.849345753,63,"950 E BENNETT AVE, GLENDORA, CA, 91741","Match","Exact","950 E BENNETT AVE, GLENDORA, CA, 91741",141717780,"R"
942064,"950 E BITTERS RD APT 1308","SAN ANTONIO","TX",78216,29.5615771060001,-98.4781988399999,64,"950 E BITTERS RD APT 1308, SAN ANTONIO, TX, 78216","Match","Exact","950 BITTERS RD, SAN ANTONIO, TX, 78216",101496333,"R"
942065,"950 E CIRCLE DR","WHITEFISH BAY","WI",53217,43.1142255940001,-87.899461845,65,"950 E CIRCLE DR, WHITEFISH BAY, WI, 53217","Match","Exact","950 E CIRCLE DR, WHITEFISH BAY, WI, 53217",77760970,"R"
942066,"950 E GLENGARRY CIR","BLOOMFIELD HILLS","MI",48301,NA,NA,66,"950 E GLENGARRY CIR, BLOOMFIELD HILLS, MI, 48301","Tie",NA,NA,NA,NA
942067,"950 E PACES FERRY RD NE STE 1625","ATLANTA","GA",30326,33.8487723870001,-84.35326987,67,"950 E PACES FERRY RD NE STE 1625, ATLANTA, GA, 30326","Match","Non_Exact","950 E PACES FERRY RD NE, ATLANTA, GA, 30326",17425958,"L"
942068,"950 E PINE ST","COMPTON","CA",90221,33.9114572990001,-118.213262058,68,"950 E PINE ST, COMPTON, CA, 90221","Match","Exact","950 E PINE ST, COMPTON, CA, 90221",141678229,"R"
942069,"950 E SEA BISCUIT WAY","WASHINGTON","UT",84780,37.0732991410001,-113.492797228,69,"950 E SEA BISCUIT WAY, WASHINGTON, UT, 84780","Match","Exact","950 E SEA BISCUIT WAY, WASHINGTON, UT, 84780",651996413,"R"
942070,"950 E WASHINGTON ST","BATON ROUGE","LA",70802,30.4311452150001,-91.176138588,70,"950 E WASHINGTON ST, BATON ROUGE, LA, 70802","Match","Exact","950 E WASHINGTON ST, BATON ROUGE, LA, 70802",606191491,"R"
942071,"950 EAGLES LANDING PARKWAY 611","STOCKBRIDGE","GA",30281,33.513463196,-84.212801545,71,"950 EAGLES LANDING PARKWAY 611, STOCKBRIDGE, GA, 30281","Match","Exact","950 EAGLES LANDING PKWY, STOCKBRIDGE, GA, 30281",210423874,"L"
942072,"950 EAGLES LANDING PARKWAY NUM 476","STOCKBRIDGE","GA",30281,33.513463196,-84.212801545,72,"950 EAGLES LANDING PARKWAY NUM 476, STOCKBRIDGE, GA, 30281","Match","Exact","950 EAGLES LANDING PKWY, STOCKBRIDGE, GA, 30281",210423874,"L"
942073,"950 EAGLES LANDING PARKWAY STE 462","STOCKBRIDGE","GA",30281,33.513463196,-84.212801545,73,"950 EAGLES LANDING PARKWAY STE 462, STOCKBRIDGE, GA, 30281","Match","Exact","950 EAGLES LANDING PKWY, STOCKBRIDGE, GA, 30281",210423874,"L"
942074,"950 EAGLES LANDING PARKWAY STE 637","STOCKBRIDGE","GA",30281,33.513463196,-84.212801545,74,"950 EAGLES LANDING PARKWAY STE 637, STOCKBRIDGE, GA, 30281","Match","Exact","950 EAGLES LANDING PKWY, STOCKBRIDGE, GA, 30281",210423874,"L"
942075,"950 EAGLES LANDING PARKWAY SUITE558","STOCKBRIDGE","GA",30281,33.513463196,-84.212801545,75,"950 EAGLES LANDING PARKWAY SUITE558, STOCKBRIDGE, GA, 30281","Match","Exact","950 EAGLES LANDING PKWY, STOCKBRIDGE, GA, 30281",210423874,"L"
942076,"950 EAGLES LANDING PKWY  289","STOCKBRIDGE","GA",30281,33.513463196,-84.212801545,76,"950 EAGLES LANDING PKWY  289, STOCKBRIDGE, GA, 30281","Match","Exact","950 EAGLES LANDING PKWY, STOCKBRIDGE, GA, 30281",210423874,"L"
942077,"950 EAGLES LANDING PKWY PMB 347","STOCKBRIDGE","GA",30281,33.513463196,-84.212801545,77,"950 EAGLES LANDING PKWY PMB 347, STOCKBRIDGE, GA, 30281","Match","Exact","950 EAGLES LANDING PKWY, STOCKBRIDGE, GA, 30281",210423874,"L"
942078,"950 EAGLES LANDING PKWY STE 485","STOCKBRIDGE","GA",30281,33.513463196,-84.212801545,78,"950 EAGLES LANDING PKWY STE 485, STOCKBRIDGE, GA, 30281","Match","Exact","950 EAGLES LANDING PKWY, STOCKBRIDGE, GA, 30281",210423874,"L"
942079,"950 EAGLES LANDING PKWY STE 701","STOCKBRIDGE","GA",30281,33.513463196,-84.212801545,79,"950 EAGLES LANDING PKWY STE 701, STOCKBRIDGE, GA, 30281","Match","Exact","950 EAGLES LANDING PKWY, STOCKBRIDGE, GA, 30281",210423874,"L"
942080,"950 EAGLES LANDING PKWY SUITE 315","STOCKBRIDGE","GA",30281,33.513463196,-84.212801545,80,"950 EAGLES LANDING PKWY SUITE 315, STOCKBRIDGE, GA, 30281","Match","Exact","950 EAGLES LANDING PKWY, STOCKBRIDGE, GA, 30281",210423874,"L"
942081,"950 EAGLES LANDING PKWY SUITE 327","STOCKBRIDGE","GA",30281,33.513463196,-84.212801545,81,"950 EAGLES LANDING PKWY SUITE 327, STOCKBRIDGE, GA, 30281","Match","Exact","950 EAGLES LANDING PKWY, STOCKBRIDGE, GA, 30281",210423874,"L"
942082,"950 EAGLES LANDING PKWY SUITE 603","STOCKBRIDGE","GA",30281,33.513463196,-84.212801545,82,"950 EAGLES LANDING PKWY SUITE 603, STOCKBRIDGE, GA, 30281","Match","Exact","950 EAGLES LANDING PKWY, STOCKBRIDGE, GA, 30281",210423874,"L"
942083,"950 EAGLES LANDING PKWY SUITE 617","STOCKBRIDGE","GA",30281,33.513463196,-84.212801545,83,"950 EAGLES LANDING PKWY SUITE 617, STOCKBRIDGE, GA, 30281","Match","Exact","950 EAGLES LANDING PKWY, STOCKBRIDGE, GA, 30281",210423874,"L"
942084,"950 EAGLES LANDING PKWY SUITE 618","STOCKBRIDGE","GA",30253,33.513463196,-84.212801545,84,"950 EAGLES LANDING PKWY SUITE 618, STOCKBRIDGE, GA, 30253","Match","Non_Exact","950 EAGLES LANDING PKWY, STOCKBRIDGE, GA, 30281",210423874,"L"
942085,"950 EAGLES LANDING PKWY UNIT 881","STOCKBRIGE","GA",30281,33.513463196,-84.212801545,85,"950 EAGLES LANDING PKWY UNIT 881, STOCKBRIGE, GA, 30281","Match","Non_Exact","950 EAGLES LANDING PKWY, STOCKBRIDGE, GA, 30281",210423874,"L"
942086,"950 EAGLES LANDING PKWY","STOCKBRIDGE","GA",30281,33.513463196,-84.212801545,86,"950 EAGLES LANDING PKWY, STOCKBRIDGE, GA, 30281","Match","Exact","950 EAGLES LANDING PKWY, STOCKBRIDGE, GA, 30281",210423874,"L"
942087,"950 EAGLES LANDING PKY SUITE 219","STOCKBRIDGE","GA",30281,33.513463196,-84.212801545,87,"950 EAGLES LANDING PKY SUITE 219, STOCKBRIDGE, GA, 30281","Match","Exact","950 EAGLES LANDING PKWY, STOCKBRIDGE, GA, 30281",210423874,"L"
942088,"950 EAST 216TH STREET","BRONX","NY",10469,40.8792339880001,-73.8569500839999,88,"950 EAST 216TH STREET, BRONX, NY, 10469","Match","Exact","950 E 216TH ST, BRONX, NY, 10469",80297337,"R"
942089,"950 EAST 4TH WALK 11B","NEW YORK","NY",10009,NA,NA,89,"950 EAST 4TH WALK 11B, NEW YORK, NY, 10009","No_Match",NA,NA,NA,NA
942090,"950 EAST 61ST","CHICAGO","IL",60637,41.7841040100001,-87.602585015,90,"950 EAST 61ST, CHICAGO, IL, 60637","Match","Non_Exact","950 E 61ST ST, CHICAGO, IL, 60637",605501647,"L"
942091,"950 EAST 63RD STREET BASEMENT","BRONX","NY",10459,NA,NA,91,"950 EAST 63RD STREET BASEMENT, BRONX, NY, 10459","No_Match",NA,NA,NA,NA
942092,"950 EAST LUGONIA AVENUE","REDLANDS","CA",92374,34.070043556,-117.170517593,92,"950 EAST LUGONIA AVENUE, REDLANDS, CA, 92374","Match","Exact","950 E LUGONIA AVE, REDLANDS, CA, 92374",144664624,"R"
942093,"950 EAST NINE MILE ROAD","HAZEL PARK","MI",48030,42.4615522130001,-83.096420419,93,"950 EAST NINE MILE ROAD, HAZEL PARK, MI, 48030","Match","Exact","950 E 9 MILE RD, HAZEL PARK, MI, 48030",69748426,"R"
942094,"950 EAST PINE OAKS DRIVE","SHOW LOW","AZ",95901,NA,NA,94,"950 EAST PINE OAKS DRIVE, SHOW LOW, AZ, 95901","No_Match",NA,NA,NA,NA
942095,"950 EAST ROBINSON","NORTH TONAWANDA","NY",14120,43.035775793,-78.8455605349999,95,"950 EAST ROBINSON, NORTH TONAWANDA, NY, 14120","Match","Non_Exact","950 E ROBINSON ST, N TONAWANDA, NY, 14120",48690719,"L"
942096,"950 EASY 4TH WALK 11B","NEW YORK","NY",10009,NA,NA,96,"950 EASY 4TH WALK 11B, NEW YORK, NY, 10009","No_Match",NA,NA,NA,NA
942097,"950 EDINBURGH DRIVE","LANCASTER","PA",17601,40.070563038,-76.3986254929999,97,"950 EDINBURGH DRIVE, LANCASTER, PA, 17601","Match","Exact","950 EDINBURGH DR, LANCASTER, PA, 17601",179659054,"L"
942098,"950 ELKINS LAKE","HUNTSVILLE","TX",77340,30.657448776,-95.530233862,98,"950 ELKINS LAKE, HUNTSVILLE, TX, 77340","Match","Exact","950 ELKINS LAKE, HUNTSVILLE, TX, 77340",22217307,"L"
942099,"950 ELM AVE","DICKINSON","ND",58601,46.888980142,-102.772095095,99,"950 ELM AVE, DICKINSON, ND, 58601","Match","Exact","950 ELM AVE, DICKINSON, ND, 58601",199272744,"L"
942100,"950 ELTY AVENUE","VINELAND","NJ",8360,39.5359619430001,-75.0399151619999,100,"950 ELTY AVENUE, VINELAND, NJ, 8360","Match","Exact","950 ELTY AVE, VINELAND, NJ, 08360",174116802,"R"
942101,"950 EVENING ST","WORTHINGTON","OH",43085,40.094196837,-83.021873946,101,"950 EVENING ST, WORTHINGTON, OH, 43085","Match","Exact","950 EVENING ST, WORTHINGTON, OH, 43085",135607262,"R"
942102,"950 EVENING STREET","WORTHINGTON","OH",43085,40.094196837,-83.021873946,102,"950 EVENING STREET, WORTHINGTON, OH, 43085","Match","Exact","950 EVENING ST, WORTHINGTON, OH, 43085",135607262,"R"
942103,"950 EVERGREEN AVE","BRONX","NY",10473,40.822350629,-73.87961338,103,"950 EVERGREEN AVE, BRONX, NY, 10473","Match","Exact","950 EVERGREEN AVE, BRONX, NY, 10473",80303125,"R"
942104,"950 FIXLER RD","WADSWORTH","OH",44281,41.081042552,-81.721256567,104,"950 FIXLER RD, WADSWORTH, OH, 44281","Match","Exact","950 FIXLER RD, WADSWORTH, OH, 44281",58678751,"L"
942105,"950 FLOWER ST APT 414","LOS ANGELES","CA",90015,34.045247509,-118.26196059,105,"950 FLOWER ST APT 414, LOS ANGELES, CA, 90015","Match","Non_Exact","950 S FLOWER ST, LOS ANGELES, CA, 90015",650083423,"L"
942106,"950 FM 1747","JASPER","TX",75951,NA,NA,106,"950 FM 1747, JASPER, TX, 75951","No_Match",NA,NA,NA,NA
942107,"950 FM 3314","NACOGDOCHES","TX",75964,31.64330542,-94.693258989,107,"950 FM 3314, NACOGDOCHES, TX, 75964","Match","Exact","950 FM 3314, NACOGDOCHES, TX, 75964",633907046,"R"
942108,"950 FOREST AVE APT","DETROIT","MI",48201,42.351968711,-83.071056144,108,"950 FOREST AVE APT, DETROIT, MI, 48201","Match","Non_Exact","950 W FOREST AVE, DETROIT, MI, 48201",95477493,"R"
942109,"950 FRM 1959 RD APT 311","HOUSTON","TX",77034,NA,NA,109,"950 FRM 1959 RD APT 311, HOUSTON, TX, 77034","No_Match",NA,NA,NA,NA
942110,"950 FULTON STREET 382","BROOKLYN","NY",11238,40.6826590540001,-73.9629677729999,110,"950 FULTON STREET 382, BROOKLYN, NY, 11238","Match","Exact","950 FULTON ST, BROOKLYN, NY, 11238",59078049,"R"
942111,"950 GARDINER CIRCLE","SUWANEE","GA",30024,34.0592399500001,-84.141836575,111,"950 GARDINER CIRCLE, SUWANEE, GA, 30024","Match","Exact","950 GARDINER CIR, SUWANEE, GA, 30024",638662673,"R"
942112,"950 GEMINI STREET SUITE 6","HOUSTON","TX",77058,29.551468379,-95.1175774599999,112,"950 GEMINI STREET SUITE 6, HOUSTON, TX, 77058","Match","Exact","950 GEMINI ST, HOUSTON, TX, 77058",96566192,"R"
942113,"950 GLACKENS LANE","WILMINGTON","DE",19808,39.7453859510001,-75.707963159,113,"950 GLACKENS LANE, WILMINGTON, DE, 19808","Match","Exact","950 GLACKENS LN, WILMINGTON, DE, 19808",187296734,"L"
942114,"950 GLEBE LANE","BERRYVILLE","VA",22611,39.1568147300001,-77.882954173,114,"950 GLEBE LANE, BERRYVILLE, VA, 22611","Match","Exact","950 GLEBE LN, BERRYVILLE, VA, 22611",125897073,"R"
942115,"950 GRAHAM ST","ST AUGUSTINE","FL",32084,29.8826193720001,-81.3327949119999,115,"950 GRAHAM ST, ST AUGUSTINE, FL, 32084","Match","Exact","950 GRAHAM ST, SAINT AUGUSTINE, FL, 32084",92583814,"L"
942116,"950 GRANDVIEW MEADOWS J105","LONGMONT","CO",80503,40.1475625940001,-105.164111626,116,"950 GRANDVIEW MEADOWS J105, LONGMONT, CO, 80503","Match","Non_Exact","950 GRANDVIEW MEADOWS DR, LONGMONT, CO, 80503",220752881,"L"
942117,"950 GRAYBAR LANE","NASHVILLE","TN",37204,36.1084930390001,-86.7868179289999,117,"950 GRAYBAR LANE, NASHVILLE, TN, 37204","Match","Exact","950 GRAYBAR LN, NASHVILLE, TN, 37204",97191132,"L"
942118,"950 H STREET","WASHOUGAL","WA",98671,45.5840722840001,-122.361266285,118,"950 H STREET, WASHOUGAL, WA, 98671","Match","Exact","950 H ST, WASHOUGAL, WA, 98671",158345496,"R"
942119,"950 HANOVER AVENUE","NORFOLK","VA",23508,36.898090417,-76.2960742819999,119,"950 HANOVER AVENUE, NORFOLK, VA, 23508","Match","Exact","950 HANOVER AVE, NORFOLK, VA, 23508",122131714,"R"
942120,"950 HAWTHORNE RD","GROSSE POINTE WOODS","MI",48236,42.4420096210001,-82.8900595009999,120,"950 HAWTHORNE RD, GROSSE POINTE WOODS, MI, 48236","Match","Exact","950 HAWTHORNE RD, GROSSE POINTE WOODS, MI, 48236",95487881,"R"
942121,"950 HENRY ORR PARKWAY APT 1607","SPARKS","NV",89436,39.5991623570001,-119.724871465,121,"950 HENRY ORR PARKWAY APT 1607, SPARKS, NV, 89436","Match","Exact","950 HENRY ORR PKWY, SPARKS, NV, 89436",632648547,"L"
942122,"950 HERRINGTON RD SUITE C UNIT 108","LAWRENCEVILLE","GA",30044,33.941265066,-84.0809903109999,122,"950 HERRINGTON RD SUITE C UNIT 108, LAWRENCEVILLE, GA, 30044","Match","Non_Exact","950 HERRINGTON RD NW, LAWRENCEVILLE, GA, 30044",88939993,"R"
942123,"950 HICKORY ST","ST. CLAIR","MO",63077,38.3440165390001,-90.9742320289999,123,"950 HICKORY ST, ST. CLAIR, MO, 63077","Match","Exact","950 HICKORY ST, SAINT CLAIR, MO, 63077",649686855,"R"
942124,"950 HICKORY STREET","ROSEBURG","OR",97470,NA,NA,124,"950 HICKORY STREET, ROSEBURG, OR, 97470","No_Match",NA,NA,NA,NA
942125,"950 HICKORY TRAIL","WELLINGTON","FL",33414,26.667000676,-80.2419314429999,125,"950 HICKORY TRAIL, WELLINGTON, FL, 33414","Match","Exact","950 HICKORY TRL, WELLINGTON, FL, 33414",648106719,"R"
942126,"950 HIGH SCHOOL WAY APT 3121","MOUNTAIN VIEW","CA",94041,37.3876288020001,-122.08512826,126,"950 HIGH SCHOOL WAY APT 3121, MOUNTAIN VIEW, CA, 94041","Match","Exact","950 HIGH SCHOOL WAY, MOUNTAIN VIEW, CA, 94041",618190690,"R"
942127,"950 HIGH SCHOOL WAY APT 3127","MOUNTAIN VIEW","CA",94041,37.3876288020001,-122.08512826,127,"950 HIGH SCHOOL WAY APT 3127, MOUNTAIN VIEW, CA, 94041","Match","Exact","950 HIGH SCHOOL WAY, MOUNTAIN VIEW, CA, 94041",618190690,"R"
942128,"950 HIGHLAND CIR","NOKOMIS","FL",34275,27.1424637110001,-82.4433582299999,128,"950 HIGHLAND CIR, NOKOMIS, FL, 34275","Match","Exact","950 HIGHLAND CIR, NOKOMIS, FL, 34275",16389005,"R"
942129,"950 HIGHLAND CIRCLE","NOKOMIS","FL",34275,27.1424637110001,-82.4433582299999,129,"950 HIGHLAND CIRCLE, NOKOMIS, FL, 34275","Match","Exact","950 HIGHLAND CIR, NOKOMIS, FL, 34275",16389005,"R"
942130,"950 HILLCREST DR APT 115","HOLLYWOOD","FL",33021,26.000776549,-80.1888632819999,130,"950 HILLCREST DR APT 115, HOLLYWOOD, FL, 33021","Match","Exact","950 HILLCREST DR, HOLLYWOOD, FL, 33021",650098075,"R"
942131,"950 HOMER AVENUE","KANSAS CITY","KS",66101,39.0979768620001,-94.63481868,131,"950 HOMER AVENUE, KANSAS CITY, KS, 66101","Match","Exact","950 HOMER AVE, KANSAS CITY, KS, 66101",632863389,"R"
942132,"950 HOOVER DRIVE","NORTH BRUNSWICK","NJ",8902,40.4563311000001,-74.450822332,132,"950 HOOVER DRIVE, NORTH BRUNSWICK, NJ, 8902","Match","Exact","950 HOOVER DR, N BRUNSWICK, NJ, 08902",60359675,"L"
942133,"950 HOPEWELL LN","APPLE VALLEY","MN",55124,44.729027869,-93.245137012,133,"950 HOPEWELL LN, APPLE VALLEY, MN, 55124","Match","Exact","950 HOPEWELL LN, APPLE VALLEY, MN, 55124",37906568,"R"
942134,"950 HOSPITAL WAY SUITE B","POCATELLO","ID",83201,42.870908575,-112.417418974,134,"950 HOSPITAL WAY SUITE B, POCATELLO, ID, 83201","Match","Exact","950 HOSPITAL WAY, POCATELLO, ID, 83201",646486074,"R"
942135,"950 HWY 361","STRAWBERRY","AR",72469,35.9535845460001,-91.249923168,135,"950 HWY 361, STRAWBERRY, AR, 72469","Match","Exact","950 HWY 361, STRAWBERRY, AR, 72469",648337225,"R"
942136,"950 IDAHO ST","ELKO","NV",89801,40.83612285,-115.758990599,136,"950 IDAHO ST, ELKO, NV, 89801","Match","Non_Exact","950 E IDAHO ST, ELKO, NV, 89801",154548904,"R"
942137,"950 IDAHO STREET","ELKO","NV",89801,40.83612285,-115.758990599,137,"950 IDAHO STREET, ELKO, NV, 89801","Match","Non_Exact","950 E IDAHO ST, ELKO, NV, 89801",154548904,"R"
942138,"950 IVY GLEN DR","SAN JOSE","CA",95133,37.380391338,-121.861417117,138,"950 IVY GLEN DR, SAN JOSE, CA, 95133","Match","Exact","950 IVY GLEN DR, SAN JOSE, CA, 95133",123170688,"L"
942139,"950 JAMESTOWN RD","WILLIAMSBURG","VA",23185,37.2642055270001,-76.720944016,139,"950 JAMESTOWN RD, WILLIAMSBURG, VA, 23185","Match","Exact","950 JAMESTOWN RD, WILLIAMSBURG, VA, 23185",103772109,"R"
942140,"950 JEANERETTE","UNIVERSITY CITY","MO",63130,38.666506401,-90.340969259,140,"950 JEANERETTE, UNIVERSITY CITY, MO, 63130","Match","Non_Exact","950 JEANERETTE DR, UNIVERSITY CITY, MO, 63130",100133935,"R"
942141,"950 L ST","BAKER CITY","OR",97814,44.7921177970001,-117.815842516,141,"950 L ST, BAKER CITY, OR, 97814","Match","Exact","950 L ST, BAKER CITY, OR, 97814",635788672,"R"
942142,"950 LAFAYETTE RD","STARKSBORO","VT",5487,44.182614458,-73.0004853469999,142,"950 LAFAYETTE RD, STARKSBORO, VT, 5487","Match","Exact","950 LAFAYETTE RD, STARKSBORO, VT, 05487",210115240,"R"
942143,"950 LAKE RIDGE PKWY APT 11304","RIVERDALE","GA",30296,33.542903299,-84.423163076,143,"950 LAKE RIDGE PKWY APT 11304, RIVERDALE, GA, 30296","Match","Exact","950 LAKE RIDGE PKWY, RIVERDALE, GA, 30296",23329597,"L"
942144,"950 LAKESHORE RD","MARTIN","GA",30557,NA,NA,144,"950 LAKESHORE RD, MARTIN, GA, 30557","Tie",NA,NA,NA,NA
942145,"950 LANGLADE ROAD","ANTIGO","WI",54409,45.1451322890001,-89.136412776,145,"950 LANGLADE ROAD, ANTIGO, WI, 54409","Match","Exact","950 LANGLADE RD, ANTIGO, WI, 54409",646142767,"L"
942146,"950 LARRABEE ST APT 303","WEST HOLLYWOOD","CA",90069,34.088579135,-118.38444066,146,"950 LARRABEE ST APT 303, WEST HOLLYWOOD, CA, 90069","Match","Non_Exact","950 N LARRABEE ST, W HOLLYWOOD, CA, 90069",141572108,"R"
942147,"950 LASALLE AVE","WATERFORD","MI",48328,NA,NA,147,"950 LASALLE AVE, WATERFORD, MI, 48328","No_Match",NA,NA,NA,NA
942148,"950 LATIGO CANYON DRIVE","MALIBU","CA",90265,34.086540529,-118.806791952,148,"950 LATIGO CANYON DRIVE, MALIBU, CA, 90265","Match","Non_Exact","950 LATIGO CANYON RD, MALIBU, CA, 90265",142784804,"R"
942149,"950 LEIGHS BROOK WAY","DACULA","GA",30019,33.9633846840001,-83.8940992989999,149,"950 LEIGHS BROOK WAY, DACULA, GA, 30019","Match","Exact","950 LEIGHS BROOK WAY, DACULA, GA, 30019",88928294,"L"
942150,"950 LIBERTY CHURCH ROAD","LORIS","SC",29569,34.0373182810001,-78.794995876,150,"950 LIBERTY CHURCH ROAD, LORIS, SC, 29569","Match","Exact","950 LIBERTY CHURCH RD, LORIS, SC, 29569",29048125,"R"
942151,"950 MACKINAW STREET","JACKSONVILLE","FL",32254,30.335724312,-81.713050924,151,"950 MACKINAW STREET, JACKSONVILLE, FL, 32254","Match","Exact","950 MACKINAW ST, JACKSONVILLE, FL, 32254",83893531,"L"
942152,"950 MAGNOLIA AVE 17","LOS ANGELES","CA",90006,34.053692051,-118.28655782,152,"950 MAGNOLIA AVE 17, LOS ANGELES, CA, 90006","Match","Exact","950 MAGNOLIA AVE, LOS ANGELES, CA, 90006",141605148,"L"
942153,"950 MAIN STEET","COVENTRY","CT",6238,41.765933046,-72.291619714,153,"950 MAIN STEET, COVENTRY, CT, 6238","Match","Exact","950 MAIN ST, COVENTRY, CT, 06238",639718352,"R"
942154,"950 MAIN STREET","WORCESTER","MA",1610,42.249608735,-71.8233886849999,154,"950 MAIN STREET, WORCESTER, MA, 1610","Match","Exact","950 MAIN ST, WORCESTER, MA, 01610",40009588,"R"
942155,"950 MAINE AVE SW UNIT 1231","WASHINGTON","DC",20024,38.878963098,-77.023123875,155,"950 MAINE AVE SW UNIT 1231, WASHINGTON, DC, 20024","Match","Exact","950 MAINE AVE SW, WASHINGTON, DC, 20024",651747494,"L"
942156,"950 MAMARONECK AVE","WHITE PLAINS","NY",10605,41.0088540890001,-73.752705319,156,"950 MAMARONECK AVE, WHITE PLAINS, NY, 10605","Match","Exact","950 MAMARONECK AVE, WHITE PLAINS, NY, 10605",139804041,"R"
942157,"950 MANOR LANE","BAY SHORE","NY",11706,40.7104600380001,-73.2798333539999,157,"950 MANOR LANE, BAY SHORE, NY, 11706","Match","Exact","950 MANOR LN, BAY SHORE, NY, 11706",113994718,"R"
942158,"950 MARIETTA ST NW APT 1113","ATLANTA","GA",30318,NA,NA,158,"950 MARIETTA ST NW APT 1113, ATLANTA, GA, 30318","Tie",NA,NA,NA,NA
942159,"950 MARVELL LANE","HIGHLAND PARK","IL",60035,42.1776579350001,-87.80525081,159,"950 MARVELL LANE, HIGHLAND PARK, IL, 60035","Match","Exact","950 MARVELL LN, HIGHLAND PARK, IL, 60035",119651633,"L"
942160,"950 MASON LANE","WAXAHACHIE","TX",75167,32.490231964,-96.8837674229999,160,"950 MASON LANE, WAXAHACHIE, TX, 75167","Match","Exact","950 MASON LN, WAXAHACHIE, TX, 75167",616470130,"R"
942161,"950 MASSACHUSETTES AVE","BERTHOUD","CO",80513,40.306117756,-105.087007663,161,"950 MASSACHUSETTES AVE, BERTHOUD, CO, 80513","Match","Non_Exact","950 MASSACHUSETTS AVE, BERTHOUD, CO, 80513",642284585,"R"
942162,"950 MASSACHUSETTS AVE APT 613","CAMBRIDGE","MA",2139,42.36862691,-71.109350288,162,"950 MASSACHUSETTS AVE APT 613, CAMBRIDGE, MA, 2139","Match","Exact","950 MASSACHUSETTS AVE, CAMBRIDGE, MA, 02139",639007755,"L"
942163,"950 MASSACHUSETTS AVENUE APT 508","CAMBRIDGE","MA",2139,42.36862691,-71.109350288,163,"950 MASSACHUSETTS AVENUE APT 508, CAMBRIDGE, MA, 2139","Match","Exact","950 MASSACHUSETTS AVE, CAMBRIDGE, MA, 02139",639007755,"L"
942164,"950 MEADOW COURT","WINCHESTER","VA",22601,39.160836573,-78.192608692,164,"950 MEADOW COURT, WINCHESTER, VA, 22601","Match","Exact","950 MEADOW CT, WINCHESTER, VA, 22601",649936932,"L"
942165,"950 MEADOW LANE","HENDERSON","NC",27536,36.32164691,-78.434889175,165,"950 MEADOW LANE, HENDERSON, NC, 27536","Match","Exact","950 MEADOW LN, HENDERSON, NC, 27536",90271406,"R"
942166,"950 MEDICAL DR","BRIGHAM CITY","UT",84302,41.49202259,-112.024077241,166,"950 MEDICAL DR, BRIGHAM CITY, UT, 84302","Match","Exact","950 MEDICAL DR, BRIGHAM CITY, UT, 84302",153890966,"R"
942167,"950 MERICREST STREET","BRENTWOOD","CA",94513,NA,NA,167,"950 MERICREST STREET, BRENTWOOD, CA, 94513","No_Match",NA,NA,NA,NA
942168,"950 MILL COURT","BRIDGEVILLE","PA",15017,40.328277293,-80.1333713989999,168,"950 MILL COURT, BRIDGEVILLE, PA, 15017","Match","Exact","950 MILL CT, BRIDGEVILLE, PA, 15017",607690129,"R"
942169,"950 MONTEREY WAY APT A1","LAWRENCE","KS",66049,38.9676503210001,-95.288315825,169,"950 MONTEREY WAY APT A1, LAWRENCE, KS, 66049","Match","Exact","950 MONTEREY WAY, LAWRENCE, KS, 66049",17688176,"L"
942170,"950 MORRIS RD","KENT","OH",44240,41.14528232,-81.3486049479999,170,"950 MORRIS RD, KENT, OH, 44240","Match","Exact","950 MORRIS RD, KENT, OH, 44240",137545678,"R"
942171,"950 MOUNT AVE 304","MISSOULA","MT",59801,46.85603595,-114.012156919,171,"950 MOUNT AVE 304, MISSOULA, MT, 59801","Match","Exact","950 MOUNT AVE, MISSOULA, MT, 59801",205238738,"R"
942172,"950 MT BENEVOLENCE ROAD","NEWTON","NJ",7860,41.0958448470001,-74.841809934,172,"950 MT BENEVOLENCE ROAD, NEWTON, NJ, 7860","Match","Exact","950 MOUNT BENEVOLENCE RD, NEWTON, NJ, 07860",98043408,"R"
942173,"950 N 3RD ST","SILSBEE","TX",77656,30.355039968,-94.173302733,173,"950 N 3RD ST, SILSBEE, TX, 77656","Match","Exact","950 N 3RD ST, SILSBEE, TX, 77656",647541639,"R"
942174,"950 N 600 W","BOUNTIFUL","UT",84087,40.899266572,-111.89526818,174,"950 N 600 W, BOUNTIFUL, UT, 84087","Match","Non_Exact","950 N 600 W, W BOUNTIFUL, UT, 84087",229360329,"R"
942175,"950 N 600E NO1","LOGAN","UT",84321,NA,NA,175,"950 N 600E NO1, LOGAN, UT, 84321","No_Match",NA,NA,NA,NA
942176,"950 N 78TH ST","SEATTLE","WA",98103,47.685494555,-122.346429022,176,"950 N 78TH ST, SEATTLE, WA, 98103","Match","Exact","950 N 78TH ST, SEATTLE, WA, 98103",239761480,"L"
942177,"950 N DUESENBERG DR 6214","ONTARIO","CA",91764,34.075486137,-117.571130197,177,"950 N DUESENBERG DR 6214, ONTARIO, CA, 91764","Match","Non_Exact","950 N DUESENBERG DR, ONTARIO, CA, 91764",144981554,"L"
942178,"950 N IMPERIAL AVE","BRAWLEY","CA",92227,32.989570703,-115.535041635,178,"950 N IMPERIAL AVE, BRAWLEY, CA, 92227","Match","Exact","950 N IMPERIAL AVE, BRAWLEY, CA, 92227",194489574,"R"
942179,"950 N KINGS RD UNIT 139","WEST HOLLYWOOD","CA",90069,34.0879807310001,-118.371725684,179,"950 N KINGS RD UNIT 139, WEST HOLLYWOOD, CA, 90069","Match","Non_Exact","950 N KINGS RD, W HOLLYWOOD, CA, 90069",141598032,"R"
942180,"950 N KINGS RD UNIT 319","WEST HOLLYWOODQ","CA",90069,34.0879807310001,-118.371725684,180,"950 N KINGS RD UNIT 319, WEST HOLLYWOODQ, CA, 90069","Match","Non_Exact","950 N KINGS RD, W HOLLYWOOD, CA, 90069",141598032,"R"
942181,"950 N KINGS RD UNIT 344","WEST HOLLYWOOD","CA",90069,34.0879807310001,-118.371725684,181,"950 N KINGS RD UNIT 344, WEST HOLLYWOOD, CA, 90069","Match","Non_Exact","950 N KINGS RD, W HOLLYWOOD, CA, 90069",141598032,"R"
942182,"950 N MAIN","PRINCETON","IL",61356,41.383857715,-89.465076069,182,"950 N MAIN, PRINCETON, IL, 61356","Match","Non_Exact","950 N MAIN ST, PRINCETON, IL, 61356",8476989,"L"
942183,"950 N MERIDIAN ST  SUITE 500","INDIANAPOLIS","IN",46204,39.7804819830001,-86.157578026,183,"950 N MERIDIAN ST  SUITE 500, INDIANAPOLIS, IN, 46204","Match","Non_Exact","950 N MERIDIAN ST, INDIANAPOLIS, IN, 46204",107991323,"L"
942184,"950 N MICHIGAN AVE STE 5101","CHICAGO","IL",60611,41.900292753,-87.624188552,184,"950 N MICHIGAN AVE STE 5101, CHICAGO, IL, 60611","Match","Non_Exact","950 N MICHIGAN AVE, CHICAGO, IL, 60611",605268172,"L"
942185,"950 N SAINT LOUIS AVENUE","CHICAGO","IL",60651,41.898252734,-87.713971116,185,"950 N SAINT LOUIS AVENUE, CHICAGO, IL, 60651","Match","Exact","950 N ST LOUIS AVE, CHICAGO, IL, 60651",111759614,"L"
942186,"950 N SPRING ST","INDEPENDENCE","MO",64050,39.1009385300001,-94.419514479,186,"950 N SPRING ST, INDEPENDENCE, MO, 64050","Match","Exact","950 N SPRING ST, INDEPENDENCE, MO, 64050",91462417,"L"
942187,"950 N WASHINGTON ST","ALEXANDRIA","VA",22314,38.8147967680001,-77.0448830569999,187,"950 N WASHINGTON ST, ALEXANDRIA, VA, 22314","Match","Exact","950 N WASHINGTON ST, ALEXANDRIA, VA, 22314",75988508,"L"
942188,"950 NEW HAMPSHIRE AVE NW","WASHINGTON","DC",20052,38.901540777,-77.051045877,188,"950 NEW HAMPSHIRE AVE NW, WASHINGTON, DC, 20052","Match","Non_Exact","950 NEW HAMPSHIRE AVE NW, WASHINGTON, DC, 20037",76225252,"L"
942189,"950 NORTH ARIZONA STREET","BRIDGE CITY","TX",77611,30.0373492910001,-93.850024816,189,"950 NORTH ARIZONA STREET, BRIDGE CITY, TX, 77611","Match","Exact","950 N ARIZONA ST, BRIDGE CITY, TX, 77611",74026991,"L"
942190,"950 NORTH DUESENBERG DRIVE","ONTARIO","CA",91464,34.0755178680001,-117.571140137,190,"950 NORTH DUESENBERG DRIVE, ONTARIO, CA, 91464","Match","Non_Exact","950 N DUESENBERG DR, ONTARIO, CA, 91764",144981554,"L"
942191,"950 NORTH KINGS BLVD APT 125","WEST HOLLYWOOD","CA",90069,34.087964867,-118.37172554,191,"950 NORTH KINGS BLVD APT 125, WEST HOLLYWOOD, CA, 90069","Match","Non_Exact","950 N KINGS RD, W HOLLYWOOD, CA, 90069",141598032,"R"
942192,"950 NORTH KINGS ROAD UNIT 319","WEST HOLLYWOOD","CA",90069,34.087964867,-118.37172554,192,"950 NORTH KINGS ROAD UNIT 319, WEST HOLLYWOOD, CA, 90069","Match","Exact","950 N KINGS RD, W HOLLYWOOD, CA, 90069",141598032,"R"
942193,"950 NORTH SAN ANTONIO ROAD 3A","LOS ALTOS","CA",94022,37.399344516,-122.114334443,193,"950 NORTH SAN ANTONIO ROAD 3A, LOS ALTOS, CA, 94022","Match","Exact","950 N SAN ANTONIO RD, LOS ALTOS, CA, 94022",614030425,"L"
942194,"950 NW 20TH ST","MIAMI","FL",33127,25.795134611,-80.210503229,194,"950 NW 20TH ST, MIAMI, FL, 33127","Match","Exact","950 NW 20TH ST, MIAMI, FL, 33127",116261519,"L"
942195,"950 NW 33RD DR","LAUDERHILL","FL",33311,26.1344890450001,-80.191734472,195,"950 NW 33RD DR, LAUDERHILL, FL, 33311","Match","Exact","950 NW 33RD DR, LAUDERHILL, FL, 33311",114709924,"R"
942196,"950 OCEAN LANE","IMPERIAL BEACH","CA",91932,32.578549067,-117.132031584,196,"950 OCEAN LANE, IMPERIAL BEACH, CA, 91932","Match","Exact","950 OCEAN LN, IMPERIAL BEACH, CA, 91932",632574232,"L"
942197,"950 OCKLEY DR","SHREVEPORT","LA",71106,32.470377629,-93.748983414,197,"950 OCKLEY DR, SHREVEPORT, LA, 71106","Match","Exact","950 OCKLEY DR, SHREVEPORT, LA, 71106",57437193,"R"
942198,"950 ORANGE AVE","DAYTONA","FL",32129,29.1489563980001,-80.99402839,198,"950 ORANGE AVE, DAYTONA, FL, 32129","Match","Non_Exact","950 ORANGE AVE, PT ORANGE, FL, 32129",647925160,"R"
942199,"950 OTTINGER ROAD","KELLER","TX",76262,32.949003734,-97.2173610309999,199,"950 OTTINGER ROAD, KELLER, TX, 76262","Match","Exact","950 OTTINGER RD, KELLER, TX, 76262",101940988,"L"
942200,"950 OWEN AVE","AKRON","OH",44311,41.061006396,-81.537921345,200,"950 OWEN AVE, AKRON, OH, 44311","Match","Exact","950 OWEN AVE, AKRON, OH, 44311",61344164,"R"
942201,"950 PACIFIC AVE SUITE 1220","TACOMA","WA",98402,47.2542453460001,-122.438833493,201,"950 PACIFIC AVE SUITE 1220, TACOMA, WA, 98402","Match","Exact","950 PACIFIC AVE, TACOMA, WA, 98402",184646964,"R"
942202,"950 PACIFIC AVE SUITE 300","TACOMA","WA",98402,47.2542453460001,-122.438833493,202,"950 PACIFIC AVE SUITE 300, TACOMA, WA, 98402","Match","Exact","950 PACIFIC AVE, TACOMA, WA, 98402",184646964,"R"
942203,"950 PACIFIC AVE SUITE 410","TACOMA","WA",98402,47.2542453460001,-122.438833493,203,"950 PACIFIC AVE SUITE 410, TACOMA, WA, 98402","Match","Exact","950 PACIFIC AVE, TACOMA, WA, 98402",184646964,"R"
942204,"950 PAMONA-APT176","THE DALLES","OR",97058,NA,NA,204,"950 PAMONA-APT176, THE DALLES, OR, 97058","No_Match",NA,NA,NA,NA
942205,"950 PARK LAKE RD APT 502","ROSSVILLE","GA",30741,34.959035122,-85.233030134,205,"950 PARK LAKE RD APT 502, ROSSVILLE, GA, 30741","Match","Exact","950 PARK LAKE RD, ROSSVILLE, GA, 30741",66693934,"R"
942206,"950 PARK TERRACE","LAKEWOOD","NJ",8701,40.10199634,-74.1987631539999,206,"950 PARK TERRACE, LAKEWOOD, NJ, 8701","Match","Exact","950 PARK TER, LAKEWOOD, NJ, 08701",203837864,"L"
942207,"950 PARKHILL DR","BOISE,","ID",83702,43.641359659,-116.199995736,207,"950 PARKHILL DR, BOISE,, ID, 83702","Match","Exact","950 PARKHILL DR, BOISE, ID, 83702",117884971,"R"
942208,"950 PEACHTREE DRIVE  NO 7","COLUMBUS","GA",31906,32.464905833,-84.970086682,208,"950 PEACHTREE DRIVE  NO 7, COLUMBUS, GA, 31906","Match","Non_Exact","950 PEACHTREE DR, COLUMBUS, GA, 31906",647411003,"R"
942209,"950 PEDRO DRIVE","FAYETTEVILLE","NC",28303,35.077250856,-78.931343129,209,"950 PEDRO DRIVE, FAYETTEVILLE, NC, 28303","Match","Exact","950 PEDRO DR, FAYETTEVILLE, NC, 28303",64245734,"R"
942210,"950 PENINSULA CORPORATE CIRCLE 2000","BOCA RATON","FL",33487,NA,NA,210,"950 PENINSULA CORPORATE CIRCLE 2000, BOCA RATON, FL, 33487","No_Match",NA,NA,NA,NA
942211,"950 PINE AVE","REDLANDS","CA",92373,34.052101683,-117.194870225,211,"950 PINE AVE, REDLANDS, CA, 92373","Match","Exact","950 PINE AVE, REDLANDS, CA, 92373",144664082,"R"
942212,"950 PINOAK LANE","CANTONMENT","FL",32533,30.645016619,-87.3371625029999,212,"950 PINOAK LANE, CANTONMENT, FL, 32533","Match","Exact","950 PINOAK LN, CANTONMENT, FL, 32533",93260542,"L"
942213,"950 PRINCESS PALM STREET","WEST COVINA","CA",91790,NA,NA,213,"950 PRINCESS PALM STREET, WEST COVINA, CA, 91790","No_Match",NA,NA,NA,NA
942214,"950 PUNCHEON BRANCH RD","MINOR HILL","TN",38473,35.055973318,-87.172203165,214,"950 PUNCHEON BRANCH RD, MINOR HILL, TN, 38473","Match","Exact","950 PUNCHEON BRANCH RD, MINOR HILL, TN, 38473",45316037,"R"
942215,"950 QUAIL KNOLL RD","FALLBROOK","CA",92028,33.3409394120001,-117.237153878,215,"950 QUAIL KNOLL RD, FALLBROOK, CA, 92028","Match","Exact","950 QUAIL KNOLL RD, FALLBROOK, CA, 92028",195368787,"L"
942216,"950 REUNION PLACE","ATLANTA","GA",30331,33.7255970900001,-84.521478137,216,"950 REUNION PLACE, ATLANTA, GA, 30331","Match","Exact","950 REUNION PL, ATLANTA, GA, 30331",17397924,"R"
942217,"950 RISA ROAD","LAFAYETTE","CA",94549,37.889064112,-122.135187439,217,"950 RISA ROAD, LAFAYETTE, CA, 94549","Match","Exact","950 RISA RD, LAFAYETTE, CA, 94549",648872135,"R"
942218,"950 ROCKY OAKS TRAIL","CORDOVA","TN",38018,35.1509496130001,-89.7556023659999,218,"950 ROCKY OAKS TRAIL, CORDOVA, TN, 38018","Match","Exact","950 ROCKY OAKS TRL, CORDOVA, TN, 38018",72947807,"R"
942219,"950 RUNNYMEAD LANE","SAN DIEGO","CA",92106,32.720049579,-117.236617488,219,"950 RUNNYMEAD LANE, SAN DIEGO, CA, 92106","Match","Exact","950 RUNNYMEAD LN, SAN DIEGO, CA, 92106",195340070,"L"
942220,"950 RUTLAND ROAD APT 727","BROOKLYN","NY",11212,40.6617931970001,-73.927732942,220,"950 RUTLAND ROAD APT 727, BROOKLYN, NY, 11212","Match","Exact","950 RUTLAND RD, BROOKLYN, NY, 11212",59083533,"R"
942221,"950 RUTLAND ROAD","BROOKLYN","NY",11212,40.6617931970001,-73.927732942,221,"950 RUTLAND ROAD, BROOKLYN, NY, 11212","Match","Exact","950 RUTLAND RD, BROOKLYN, NY, 11212",59083533,"R"
942222,"950 RYANWOOD DR","WEST PLAM BEACH","FL",33413,26.6916863450001,-80.13572633,222,"950 RYANWOOD DR, WEST PLAM BEACH, FL, 33413","Match","Non_Exact","950 RYANWOOD DR, WEST PALM BEACH, FL, 33413",115579730,"L"
942223,"950 S 4TH ST","COTTONWOOD","AZ",86326,34.7223020770001,-112.024834262,223,"950 S 4TH ST, COTTONWOOD, AZ, 86326","Match","Exact","950 S 4TH ST, COTTONWOOD, AZ, 86326",159494716,"L"
942224,"950 S BASCOM AVE SUITE 1113","SAN JOSE","CA",95128,37.3088922150001,-121.931769525,224,"950 S BASCOM AVE SUITE 1113, SAN JOSE, CA, 95128","Match","Non_Exact","950 S BASCOM AVE, SAN JOSE, CA, 95128",122905446,"L"
942225,"950 S BOWSHIER AVE","DECATUR","IL",62522,NA,NA,225,"950 S BOWSHIER AVE, DECATUR, IL, 62522","Tie",NA,NA,NA,NA
942226,"950 S BOWSHIER","DECATUR","IL",62522,NA,NA,226,"950 S BOWSHIER, DECATUR, IL, 62522","Tie",NA,NA,NA,NA
942227,"950 S CHERRY ST SUITE 300","DENVER","CO",80246,39.6992812980001,-104.934089192,227,"950 S CHERRY ST SUITE 300, DENVER, CO, 80246","Match","Non_Exact","950 S CHERRY ST, DENVER, CO, 80246",635534473,"R"
942228,"950 S CHERRY SUITE 300","DENVER","CO",80246,NA,NA,228,"950 S CHERRY SUITE 300, DENVER, CO, 80246","No_Match",NA,NA,NA,NA
942229,"950 S CIMARRON WAY APT I104","AURORA","CO",80012,39.7002553020001,-104.820903016,229,"950 S CIMARRON WAY APT I104, AURORA, CO, 80012","Match","Non_Exact","950 S CIMARRON WAY, AURORA, CO, 80012",177564746,"L"
942230,"950 S CIMARRON WAY APT NUM I-204","AURORA","CO",80012,39.7002553020001,-104.820903016,230,"950 S CIMARRON WAY APT NUM I-204, AURORA, CO, 80012","Match","Non_Exact","950 S CIMARRON WAY, AURORA, CO, 80012",177564746,"L"
942231,"950 S CIMARRON WAY L303","AURORA","CO",80012,39.7002553020001,-104.820903016,231,"950 S CIMARRON WAY L303, AURORA, CO, 80012","Match","Non_Exact","950 S CIMARRON WAY, AURORA, CO, 80012",177564746,"L"
942232,"950 S MYRTLE ST","SEATTLE","WA",98108,47.5394347860001,-122.32120281,232,"950 S MYRTLE ST, SEATTLE, WA, 98108","Match","Exact","950 S MYRTLE ST, SEATTLE, WA, 98108",186592148,"L"
942233,"950 S PINE ISLAND ROAD SUITE A150","PLANTATION","FL",33324,26.109131463,-80.2615318209999,233,"950 S PINE ISLAND ROAD SUITE A150, PLANTATION, FL, 33324","Match","Non_Exact","950 S PINE ISLAND RD, PLANTATION, FL, 33324",608972690,"R"
942234,"950 S RAPIDS ROAD APT 320","MANITOWOC","WI",54220,NA,NA,234,"950 S RAPIDS ROAD APT 320, MANITOWOC, WI, 54220","Tie",NA,NA,NA,NA
942235,"950 S RIDGE DR","MIDLOTHIAN","TX",76065,32.4164668330001,-97.0038258279999,235,"950 S RIDGE DR, MIDLOTHIAN, TX, 76065","Match","Exact","950 S RIDGE DR, MIDLOTHIAN, TX, 76065",214500570,"L"
942236,"950 S SHERMAN","LONGMONT","CO",80501,40.1479856810001,-105.11555345,236,"950 S SHERMAN, LONGMONT, CO, 80501","Match","Non_Exact","950 S SHERMAN ST, LONGMONT, CO, 80501",188155496,"L"
942237,"950 S SPUR","MESA","AZ",85204,33.3972654820001,-111.80071055,237,"950 S SPUR, MESA, AZ, 85204","Match","Non_Exact","950 S SPR, MESA, AZ, 85204",128245970,"R"
942238,"950 S","DENVER","CO",80246,NA,NA,238,"950 S, DENVER, CO, 80246","No_Match",NA,NA,NA,NA
942239,"950 SAINT HILAIRE ROAD","YAKIMA","WA",98901,46.593930872,-120.358339411,239,"950 SAINT HILAIRE ROAD, YAKIMA, WA, 98901","Match","Exact","950 SAINT HILAIRE RD, YAKIMA, WA, 98901",184970624,"L"
942240,"950 SAINT JOHNS PLACE APT 1","BROOKLYN","NY",11213,40.6714376150001,-73.946677187,240,"950 SAINT JOHNS PLACE APT 1, BROOKLYN, NY, 11213","Match","Exact","950 ST JOHNS PL, BROOKLYN, NY, 11213",59079460,"R"
942241,"950 SE 3RD STREET APT 4","BEND","OR",97702,44.041135567,-121.303208347,241,"950 SE 3RD STREET APT 4, BEND, OR, 97702","Match","Non_Exact","950 SE 3RD ST, BEND, OR, 97702",152554576,"R"
942242,"950 SE THIRD ST STE 4","BEND","OR",97702,44.041135567,-121.303208347,242,"950 SE THIRD ST STE 4, BEND, OR, 97702","Match","Non_Exact","950 SE 3RD ST, BEND, OR, 97702",152554576,"R"
942243,"950 SEVEN HILLS DR UNIT 2224","HENDERSON","NV",89052,35.9933235180001,-115.120832478,243,"950 SEVEN HILLS DR UNIT 2224, HENDERSON, NV, 89052","Match","Exact","950 SEVEN HILLS DR, HENDERSON, NV, 89052",201996347,"L"
942244,"950 SHAREPOINT COURT 318","ALAMEDA","CA",94501,37.763375626,-122.269673942,244,"950 SHAREPOINT COURT 318, ALAMEDA, CA, 94501","Match","Non_Exact","950 SHOREPOINT CT, ALAMEDA, CA, 94501",612430037,"R"
942245,"950 SHOREPOINT COURT APT 203","ALAMEDA","CA",94501,37.763375626,-122.269673942,245,"950 SHOREPOINT COURT APT 203, ALAMEDA, CA, 94501","Match","Exact","950 SHOREPOINT CT, ALAMEDA, CA, 94501",612430037,"R"
942246,"950 SHULLS MILL RD","BOONE","NC",28607,36.167386347,-81.717811689,246,"950 SHULLS MILL RD, BOONE, NC, 28607","Match","Exact","950 SHULLS MILL RD, BOONE, NC, 28607",649737692,"L"
942247,"950 SLOW CREEK COURT","BOILING SPRINGS","SC",29316,35.0425862430001,-81.960959526,247,"950 SLOW CREEK COURT, BOILING SPRINGS, SC, 29316","Match","Exact","950 SLOW CREEK CT, BOILING SPRINGS, SC, 29316",640378021,"R"
942248,"950 SMOKEY HOLLOW ROAD","PIKETON","OH",45661,39.0541189090001,-83.099869632,248,"950 SMOKEY HOLLOW ROAD, PIKETON, OH, 45661","Match","Exact","950 SMOKEY HOLLOW RD, PIKETON, OH, 45661",55068311,"R"
942249,"950 SOUNDVIEW AVE 2446","HOMER","AK",99603,59.644704559,-151.569031706,249,"950 SOUNDVIEW AVE 2446, HOMER, AK, 99603","Match","Exact","950 SOUNDVIEW AVE, HOMER, AK, 99603",638508965,"R"
942250,"950 SOUTH COAST DRIVE SUITE 204","COSTA MESA","CA",92626,33.6898952600001,-117.896715149,250,"950 SOUTH COAST DRIVE SUITE 204, COSTA MESA, CA, 92626","Match","Exact","950 S COAST DR, COSTA MESA, CA, 92626",609061815,"L"
942251,"950 SOUTH CONCOURSE","KEYPORT","NJ",7735,40.4453577940001,-74.212368818,251,"950 SOUTH CONCOURSE, KEYPORT, NJ, 7735","Match","Exact","950 S CONCOURSE, KEYPORT, NJ, 07735",90473708,"L"
942252,"950 SOUTH FAIRFAX AVE UNIT 215","LOS ANGELES","CA",90036,34.0593966810001,-118.363207816,252,"950 SOUTH FAIRFAX AVE UNIT 215, LOS ANGELES, CA, 90036","Match","Exact","950 S FAIRFAX AVE, LOS ANGELES, CA, 90036",642863786,"L"
942253,"950 SOUTH FOSTER APT 36","BATON ROUGE","LA",70806,30.4397485750001,-91.135213777,253,"950 SOUTH FOSTER APT 36, BATON ROUGE, LA, 70806","Match","Non_Exact","950 S FOSTER DR, BATON ROUGE, LA, 70806",606172151,"R"
942254,"950 SOUTHERLY RD APT J323","TOWNSON","MD",21204,39.4081401450001,-76.6029590589999,254,"950 SOUTHERLY RD APT J323, TOWNSON, MD, 21204","Match","Non_Exact","950 SOUTHERLY RD, TOWSON, MD, 21204",191473489,"R"
942255,"950 SOUTHERLY RD NO 435","TOWSON","MD",21204,39.4081401450001,-76.6029590589999,255,"950 SOUTHERLY RD NO 435, TOWSON, MD, 21204","Match","Non_Exact","950 SOUTHERLY RD, TOWSON, MD, 21204",191473489,"R"
942256,"950 SOUTHMAIN","WILLIAMSTOWN","KY",41097,NA,NA,256,"950 SOUTHMAIN, WILLIAMSTOWN, KY, 41097","No_Match",NA,NA,NA,NA
942257,"950 SPRING FOREST ROAD APT 1-H","GREENVILLE","NC",27834,35.594136054,-77.409206806,257,"950 SPRING FOREST ROAD APT 1-H, GREENVILLE, NC, 27834","Match","Exact","950 SPRING FOREST RD, GREENVILLE, NC, 27834",645496092,"L"
942258,"950 STAGECOACH RANCH ROAD","DRIPPING SPRINGS","TX",78620,30.332076682,-98.132960268,258,"950 STAGECOACH RANCH ROAD, DRIPPING SPRINGS, TX, 78620","Match","Exact","950 STAGECOACH RANCH RD, DRIPPING SPRINGS, TX, 78620",642470120,"L"
942259,"950 STEEPLE RUN","LAWRENCEVILLE","GA",30043,33.990891284,-84.060755442,259,"950 STEEPLE RUN, LAWRENCEVILLE, GA, 30043","Match","Exact","950 STEEPLE RUN, LAWRENCEVILLE, GA, 30043",88906353,"R"
942260,"950 STEEPLE SQUARE CT","KNIGHTDALE","NC",27545,35.8024943710001,-78.4874942329999,260,"950 STEEPLE SQUARE CT, KNIGHTDALE, NC, 27545","Match","Exact","950 STEEPLE SQUARE CT, KNIGHTDALE, NC, 27545",639848745,"L"
942261,"950 STEVENS CREEK RD APT L1","AUGUSTA","GA",30907,33.519685227,-82.04416072,261,"950 STEVENS CREEK RD APT L1, AUGUSTA, GA, 30907","Match","Exact","950 STEVENS CREEK RD, AUGUSTA, GA, 30907",55633828,"L"
942262,"950 STONELEIGH ROAD","CENTER POINT","TX",78010,29.989784442,-99.007422807,262,"950 STONELEIGH ROAD, CENTER POINT, TX, 78010","Match","Exact","950 STONELEIGH RD, CENTER POINT, TX, 78010",176902635,"L"
942263,"950 SUMMERSET COURT","IDAHO FALLS","ID",83404,43.468843689,-112.015354548,263,"950 SUMMERSET COURT, IDAHO FALLS, ID, 83404","Match","Exact","950 SUMMERSET CT, IDAHO FALLS, ID, 83404",119152832,"R"
942264,"950 SUNSET MEADOWS ST","OAKDALE","CA",95361,NA,NA,264,"950 SUNSET MEADOWS ST, OAKDALE, CA, 95361","No_Match",NA,NA,NA,NA
942265,"950 SUSSEX ST","BRIDGEWATER","NJ",8807,40.590306184,-74.6106665949999,265,"950 SUSSEX ST, BRIDGEWATER, NJ, 8807","Match","Exact","950 SUSSEX ST, BRIDGEWATER, NJ, 08807",59937726,"L"
942266,"950 SW 21 AVENUE PCH","PORTLAND","OR",97205,45.521251507,-122.694220627,266,"950 SW 21 AVENUE PCH, PORTLAND, OR, 97205","Match","Non_Exact","950 SW 21ST AVE, PORTLAND, OR, 97205",157498477,"L"
942267,"950 SW 88TH AVE","PEMBROKE PINES","FL",33025,26.0005960400001,-80.26174274,267,"950 SW 88TH AVE, PEMBROKE PINES, FL, 33025","Match","Exact","950 SW 88TH AVE, PEMBROKE PINES, FL, 33025",114753972,"R"
942268,"950 THARP ROAD SUITE 1000","YUBA CITY","CA",95993,39.1395197900001,-121.648511798,268,"950 THARP ROAD SUITE 1000, YUBA CITY, CA, 95993","Match","Exact","950 THARP RD, YUBA CITY, CA, 95993",68582162,"R"
942269,"950 THIRD AVENUE 32ND FLOOR","NEW YORK","NY",10022,40.7602037120001,-73.9675753239999,269,"950 THIRD AVENUE 32ND FLOOR, NEW YORK, NY, 10022","Match","Exact","950 3RD AVE, NEW YORK, NY, 10022",59657509,"L"
942270,"950 TOWNSHIP RD 1172","TIFFIN","OH",44883,NA,NA,270,"950 TOWNSHIP RD 1172, TIFFIN, OH, 44883","No_Match",NA,NA,NA,NA
942271,"950 TURKEY RUN RD","HARRISONBURG","VA",22801,38.445303945,-78.892318544,271,"950 TURKEY RUN RD, HARRISONBURG, VA, 22801","Match","Exact","950 TURKEY RUN RD, HARRISONBURG, VA, 22801",55763583,"L"
942272,"950 TURKEY VALLEY WAY APT 6207","KNOXVILLE","TN",37932,NA,NA,272,"950 TURKEY VALLEY WAY APT 6207, KNOXVILLE, TN, 37932","No_Match",NA,NA,NA,NA
942273,"950 TYLER ST","AIKEN","SC",29803,33.512734478,-81.7176371589999,273,"950 TYLER ST, AIKEN, SC, 29803","Match","Exact","950 TYLER ST, AIKEN, SC, 29803",64991515,"L"
942274,"950 UNION MEETING ROAD","BLUE BELL","PA",19422,40.1570884670001,-75.2771171219999,274,"950 UNION MEETING ROAD, BLUE BELL, PA, 19422","Match","Exact","950 UNION MEETING RD, BLUE BELL, PA, 19422",135121921,"L"
942275,"950 UNIVERSITY ST","MEMPHIS","TN",38107,35.163227039,-89.990907065,275,"950 UNIVERSITY ST, MEMPHIS, TN, 38107","Match","Exact","950 UNIVERSITY ST, MEMPHIS, TN, 38107",72912124,"R"
942276,"950 VIA KACHESS RD","EASTON","WA",98925,47.3248463780001,-121.257137,276,"950 VIA KACHESS RD, EASTON, WA, 98925","Match","Exact","950 VIA KACHESS RD, EASTON, WA, 98925",624780123,"R"
942277,"950 W 1ST ST","WINNER","SD",57580,43.3776150520001,-99.871422493,277,"950 W 1ST ST, WINNER, SD, 57580","Match","Exact","950 W 1ST ST, WINNER, SD, 57580",200367055,"R"
942278,"950 W ACADEMY AVE","MAIZE","KS",67101,NA,NA,278,"950 W ACADEMY AVE, MAIZE, KS, 67101","No_Match",NA,NA,NA,NA
942279,"950 W BANNOCK SUITE 210","BOISE","ID",83702,NA,NA,279,"950 W BANNOCK SUITE 210, BOISE, ID, 83702","No_Match",NA,NA,NA,NA
942280,"950 W JOHN CARPENTER FWY STE 102","IRVING","TX",75039,32.8881479820001,-96.959410167,280,"950 W JOHN CARPENTER FWY STE 102, IRVING, TX, 75039","Match","Non_Exact","950 W JOHN CARPENTER FWY, IRVING, TX, 75039",102983015,"L"
942281,"950 W NORTH ST","MARSHALL","MO",65340,39.1211582920001,-93.210812264,281,"950 W NORTH ST, MARSHALL, MO, 65340","Match","Exact","950 W NORTH ST, MARSHALL, MO, 65340",21036702,"L"
942282,"950 W PEACHTREE ST","ATLANTA","GA",30309,33.780480423,-84.3841274659999,282,"950 W PEACHTREE ST, ATLANTA, GA, 30309","Match","Exact","950 PEACHTREE ST, ATLANTA, GA, 30309",17343542,"L"
942283,"950 W SIERRA MADRE AVE","AZUSA","CA",91702,NA,NA,283,"950 W SIERRA MADRE AVE, AZUSA, CA, 91702","No_Match",NA,NA,NA,NA
942284,"950 W SIERRA MADRE","AZUSA","CA",91702,NA,NA,284,"950 W SIERRA MADRE, AZUSA, CA, 91702","No_Match",NA,NA,NA,NA
942285,"950 W VENTURE PLACE","SIOUX FALLS","SD",57105,43.5140046160001,-96.739491274,285,"950 W VENTURE PLACE, SIOUX FALLS, SD, 57105","Match","Exact","950 W VENTURE PL, SIOUX FALLS, SD, 57105",641547768,"L"
942286,"950 WAILUPE DR","WAILUKU","HI",96793,20.9096406410001,-156.497846202,286,"950 WAILUPE DR, WAILUKU, HI, 96793","Match","Exact","950 WAILUPE DR, WAILUKU, HI, 96793",85081139,"R"
942287,"950 WALKER RD","WAYNESVILLE","NC",28786,35.45503066,-83.078834617,287,"950 WALKER RD, WAYNESVILLE, NC, 28786","Match","Exact","950 WALKER RD, WAYNESVILLE, NC, 28786",151838017,"R"
942288,"950 WALNUT STREET","WINSTON SALEM","NC",27101,36.0824594110001,-80.249500128,288,"950 WALNUT STREET, WINSTON SALEM, NC, 27101","Match","Non_Exact","950 WALNUT ST SW, WINSTON SALEM, NC, 27101",635547818,"L"
942289,"950 WASHINGTON BLVD 100","OAK PARK","IL",60302,41.8814949550001,-87.799249598,289,"950 WASHINGTON BLVD 100, OAK PARK, IL, 60302","Match","Exact","950 WASHINGTON BLVD, OAK PARK, IL, 60302",616787811,"R"
942290,"950 WEATHERSTONE","ST CHARLES","MO",63304,38.7241098310001,-90.676047125,290,"950 WEATHERSTONE, ST CHARLES, MO, 63304","Match","Non_Exact","950 WEATHERSTONE DR, SAINT CHARLES, MO, 63304",605595757,"L"
942291,"950 WEST 13TH STREET SUITE 1","RIVIERA BEACH","FL",33404,26.7736396280001,-80.067480884,291,"950 WEST 13TH STREET SUITE 1, RIVIERA BEACH, FL, 33404","Match","Exact","950 W 13TH ST, RIVIERA BEACH, FL, 33404",115581707,"R"
942292,"950 WEST ACADEMY AVENUE","MAIZE","KS",67101,NA,NA,292,"950 WEST ACADEMY AVENUE, MAIZE, KS, 67101","No_Match",NA,NA,NA,NA
942293,"950 WEST MONROE ST -  APARTMENT 60","CHICAGO","IL",60607,41.8804256650001,-87.6514536299999,293,"950 WEST MONROE ST -  APARTMENT 60, CHICAGO, IL, 60607","Match","Exact","950 W MONROE ST, CHICAGO, IL, 60607",605110060,"R"
942294,"950 WEST PEACHTREE ST NW UNIT 1514","ATLANTA","GA",30309,33.780251175,-84.3873218259999,294,"950 WEST PEACHTREE ST NW UNIT 1514, ATLANTA, GA, 30309","Match","Exact","950 W PEACHTREE ST NW, ATLANTA, GA, 30309",17343466,"L"
942295,"950 WESTPORT DR","PORT EDWARDS","WI",54469,44.3510458270001,-89.878883415,295,"950 WESTPORT DR, PORT EDWARDS, WI, 54469","Match","Exact","950 WESTPORT DR, PORT EDWARDS, WI, 54469",51289204,"L"
942296,"950 WHITE POND ROAD","LEESBURG","GA",31763,31.6589703830001,-84.079256722,296,"950 WHITE POND ROAD, LEESBURG, GA, 31763","Match","Exact","950 WHITE POND RD, LEESBURG, GA, 31763",124574683,"L"
942297,"950 WILCOX STREET","WAUPUN","WI",53963,43.6300099200001,-88.719296229,297,"950 WILCOX STREET, WAUPUN, WI, 53963","Match","Exact","950 WILCOX ST, WAUPUN, WI, 53963",53542909,"R"
942298,"950 WILLARD STREET","GALESBURG","IL",61401,40.958504443,-90.361280399,298,"950 WILLARD STREET, GALESBURG, IL, 61401","Match","Exact","950 WILLARD ST, GALESBURG, IL, 61401",9039561,"L"
942299,"950 WILLOWLEAF DR APT 2006","SAN JOSE","CA",95128,37.3095471980001,-121.923161596,299,"950 WILLOWLEAF DR APT 2006, SAN JOSE, CA, 95128","Match","Exact","950 WILLOWLEAF DR, SAN JOSE, CA, 95128",122973373,"R"
942300,"950 WINCHESTER DRIVE","WESTMINSTER","MD",21157,39.5479654580001,-76.995002176,300,"950 WINCHESTER DRIVE, WESTMINSTER, MD, 21157","Match","Exact","950 WINCHESTER DR, WESTMINSTER, MD, 21157",61787971,"R"
942301,"950 WITMER RD","YORK","PA",17406,39.9706047120001,-76.6122798869999,301,"950 WITMER RD, YORK, PA, 17406","Match","Exact","950 WITMER RD, YORK, PA, 17406",611409880,"R"
942302,"950 WOODY LANE","LANCASTER","TX",75146,NA,NA,302,"950 WOODY LANE, LANCASTER, TX, 75146","No_Match",NA,NA,NA,NA
942303,"950 YANKEE AVENUE","CRESCO","IA",52136,NA,NA,303,"950 YANKEE AVENUE, CRESCO, IA, 52136","No_Match",NA,NA,NA,NA
942304,"950 YORK ROAD SUITE 107","HINSDALE","IL",60521,41.8170615700001,-87.9260194139999,304,"950 YORK ROAD SUITE 107, HINSDALE, IL, 60521","Match","Non_Exact","950 N YORK RD, HINSDALE, IL, 60521",647503556,"L"
942305,"950-23 BLANDING BLVD 242","ORANGE PARK","FL",32065,30.138301443,-81.7736850319999,305,"950-23 BLANDING BLVD 242, ORANGE PARK, FL, 32065","Match","Exact","950 BLANDING BLVD, ORANGE PARK, FL, 32065",636070547,"L"
942306,"9500 49TH PLACE","COLLEGE PARK","MD",20740,39.0088933800001,-76.9239906299999,306,"9500 49TH PLACE, COLLEGE PARK, MD, 20740","Match","Exact","9500 49TH PL, COLLEGE PARK, MD, 20740",76337000,"L"
942307,"9500 53RD ST","JURUPA VALLEY","CA",92509,33.990905647,-117.491626933,307,"9500 53RD ST, JURUPA VALLEY, CA, 92509","Match","Exact","9500 53RD ST, JURUPA VALLEY, CA, 92509",194735665,"L"
942308,"9500 AFFIRMED LANE","BOCA RATON","FL",33496,26.4029218800001,-80.196080049,308,"9500 AFFIRMED LANE, BOCA RATON, FL, 33496","Match","Exact","9500 AFFIRMED LN, BOCA RATON, FL, 33496",115505272,"R"
942309,"9500 AFTON GROVE ROAD","CORDOVA","TN",38108,35.1537509250001,-89.7480846079999,309,"9500 AFTON GROVE ROAD, CORDOVA, TN, 38108","Match","Non_Exact","9500 AFTON GROVE RD, CORDOVA, TN, 38018",611502291,"L"
942310,"9500 ALICE MAE LANE APT 339","AUSTIN","TX",78748,30.1644108460001,-97.794935932,310,"9500 ALICE MAE LANE APT 339, AUSTIN, TX, 78748","Match","Exact","9500 ALICE MAE LN, AUSTIN, TX, 78748",640900250,"L"
942311,"9500 ARENA DRIVE 460","LARGO","MD",20774,38.9038395330001,-76.841459614,311,"9500 ARENA DRIVE 460, LARGO, MD, 20774","Match","Exact","9500 ARENA DR, LARGO, MD, 20774",76367372,"R"
942312,"9500 ARENA DRIVE SUITE 105","LARGO","MD",20772,38.9038395330001,-76.841459614,312,"9500 ARENA DRIVE SUITE 105, LARGO, MD, 20772","Match","Non_Exact","9500 ARENA DR, LARGO, MD, 20774",76367372,"R"
942313,"9500 ARENA DRIVE SUITE 105","LARGO","MI",20772,NA,NA,313,"9500 ARENA DRIVE SUITE 105, LARGO, MI, 20772","No_Match",NA,NA,NA,NA
942314,"9500 ARENA DRIVE SUITE 460","LARGO","MD",20774,38.9038395330001,-76.841459614,314,"9500 ARENA DRIVE SUITE 460, LARGO, MD, 20774","Match","Exact","9500 ARENA DR, LARGO, MD, 20774",76367372,"R"
942315,"9500 ARENA DRIVE SUITE 460","TEMPLE HILLS","MD",20748,NA,NA,315,"9500 ARENA DRIVE SUITE 460, TEMPLE HILLS, MD, 20748","No_Match",NA,NA,NA,NA
942316,"9500 ARENA DRIVE","LARGO","MD",20774,38.9038395330001,-76.841459614,316,"9500 ARENA DRIVE, LARGO, MD, 20774","Match","Exact","9500 ARENA DR, LARGO, MD, 20774",76367372,"R"
942317,"9500 BETHEL SCHOOL RD","MIDLAND","NC",28107,NA,NA,317,"9500 BETHEL SCHOOL RD, MIDLAND, NC, 28107","No_Match",NA,NA,NA,NA
942318,"9500 BOLTON ESTATES ROAD","MILLINGTON","TN",38053,35.3371632390001,-89.746256386,318,"9500 BOLTON ESTATES ROAD, MILLINGTON, TN, 38053","Match","Exact","9500 BOLTON ESTATES RD, MILLINGTON, TN, 38053",72975758,"L"
942319,"9500 COMMUNITY HOUSE RD","CHARLOTTE","NC",28227,35.035115004,-80.824783157,319,"9500 COMMUNITY HOUSE RD, CHARLOTTE, NC, 28227","Match","Non_Exact","9500 COMMUNITY HOUSE RD, CHARLOTTE, NC, 28277",612219259,"R"
942320,"9500 CR 252","LIVE OAK","FL",32060,30.161429893,-82.941283481,320,"9500 CR 252, LIVE OAK, FL, 32060","Match","Exact","9500 CO RD 252, LIVE OAK, FL, 32060",610552825,"L"
942321,"9500 CR 915","GODLEY","TX",76044,32.4963022110001,-97.5131223879999,321,"9500 CR 915, GODLEY, TX, 76044","Match","Exact","9500 CO RD 915, GODLEY, TX, 76044",649459363,"L"
942322,"9500 E CATALINA DRIVE","PRESCOTT VALLEY","AZ",86314,34.601461505,-112.29786661,322,"9500 E CATALINA DRIVE, PRESCOTT VALLEY, AZ, 86314","Match","Exact","9500 E CATALINA DR, PRESCOTT VALLEY, AZ, 86314",159460642,"L"
942323,"9500 EMERY AVE","KANSAS CITY","MO",64139,38.9473371920001,-94.414763856,323,"9500 EMERY AVE, KANSAS CITY, MO, 64139","Match","Exact","9500 EMERY AVE, KANSAS CITY, MO, 64139",637428528,"L"
942324,"9500 EMMETT RD","GLEN ALENN","VA",23060,37.6528477800001,-77.5561022489999,324,"9500 EMMETT RD, GLEN ALENN, VA, 23060","Match","Non_Exact","9500 EMMETT RD, GLEN ALLEN, VA, 23060",106643530,"R"
942325,"9500 EUCLID AVE  E21","CLEVELAND","OH",44195,41.5034000810001,-81.622845953,325,"9500 EUCLID AVE  E21, CLEVELAND, OH, 44195","Match","Exact","9500 EUCLID AVE, CLEVELAND, OH, 44195",638278962,"L"
942326,"9500 EUCLID AVE","CLEVELAND","OH",44106,41.5034000810001,-81.622845953,326,"9500 EUCLID AVE, CLEVELAND, OH, 44106","Match","Non_Exact","9500 EUCLID AVE, CLEVELAND, OH, 44195",638278962,"L"
942327,"9500 EUCLID AVENUE DESK A50","CLEVELAND","OH",44195,41.5034000810001,-81.622845953,327,"9500 EUCLID AVENUE DESK A50, CLEVELAND, OH, 44195","Match","Exact","9500 EUCLID AVE, CLEVELAND, OH, 44195",638278962,"L"
942328,"9500 EUCLID AVENUE DESK A51","CLEVELAND","OH",44195,41.5034000810001,-81.622845953,328,"9500 EUCLID AVENUE DESK A51, CLEVELAND, OH, 44195","Match","Exact","9500 EUCLID AVE, CLEVELAND, OH, 44195",638278962,"L"
942329,"9500 EUCLID AVENUE","CLEVELAND","OH",44106,41.5034000810001,-81.622845953,329,"9500 EUCLID AVENUE, CLEVELAND, OH, 44106","Match","Non_Exact","9500 EUCLID AVE, CLEVELAND, OH, 44195",638278962,"L"
942330,"9500 EUCLID AVENUE","CLEVELAND","OH",44195,41.5034000810001,-81.622845953,330,"9500 EUCLID AVENUE, CLEVELAND, OH, 44195","Match","Exact","9500 EUCLID AVE, CLEVELAND, OH, 44195",638278962,"L"
942331,"9500 FEATHER GRASS LN STE120 BOX112","FORT WORTH","TX",76177,NA,NA,331,"9500 FEATHER GRASS LN STE120 BOX112, FORT WORTH, TX, 76177","No_Match",NA,NA,NA,NA
942332,"9500 FOXLAIR PLACE","GAITHERSBURG","MD",20882,39.221416043,-77.195531245,332,"9500 FOXLAIR PLACE, GAITHERSBURG, MD, 20882","Match","Exact","9500 FOXLAIR PL, GAITHERSBURG, MD, 20882",62092621,"L"
942333,"9500 GILLMAN DR  MC429","LA JOLLA","CA",92093,NA,NA,333,"9500 GILLMAN DR  MC429, LA JOLLA, CA, 92093","No_Match",NA,NA,NA,NA
942334,"9500 GILMAN DRIVE - MC7320","SAN DIEGO","CA",92093,NA,NA,334,"9500 GILMAN DRIVE - MC7320, SAN DIEGO, CA, 92093","No_Match",NA,NA,NA,NA
942335,"9500 GILMAN DRIVE 0116","SAN DIEGO","CA",92093,NA,NA,335,"9500 GILMAN DRIVE 0116, SAN DIEGO, CA, 92093","No_Match",NA,NA,NA,NA
942336,"9500 GILMAN DRIVE NO 0521","LA JOLLA","CA",92093,NA,NA,336,"9500 GILMAN DRIVE NO 0521, LA JOLLA, CA, 92093","No_Match",NA,NA,NA,NA
942337,"9500 GILMAN DRIVE UREY HALL ROOM 52","LA JOLLA","CA",92093,NA,NA,337,"9500 GILMAN DRIVE UREY HALL ROOM 52, LA JOLLA, CA, 92093","No_Match",NA,NA,NA,NA
942338,"9500 GILMAN DRIVE","LA JOLLA","CA",92037,NA,NA,338,"9500 GILMAN DRIVE, LA JOLLA, CA, 92037","No_Match",NA,NA,NA,NA
942339,"9500 GILMAN DRIVE","LA JOLLA","CA",92093,NA,NA,339,"9500 GILMAN DRIVE, LA JOLLA, CA, 92093","No_Match",NA,NA,NA,NA
942340,"9500 GILMORE RIDGE ROAD","NASHVILLE","TN",47448,NA,NA,340,"9500 GILMORE RIDGE ROAD, NASHVILLE, TN, 47448","No_Match",NA,NA,NA,NA
942341,"9500 GREINER ROAD","CLARENCE","NY",14031,42.9883032430001,-78.6352341369999,341,"9500 GREINER ROAD, CLARENCE, NY, 14031","Match","Exact","9500 GREINER RD, CLARENCE, NY, 14031",48312900,"L"
942342,"9500 GUERNSEY CT","CHARLOTTE","NC",28213,35.2954437810001,-80.713896569,342,"9500 GUERNSEY CT, CHARLOTTE, NC, 28213","Match","Exact","9500 GUERNSEY CT, CHARLOTTE, NC, 28213",70541264,"L"
942343,"9500 HARRITT RD","LAKESIDE","CA",92040,32.8513023240001,-116.885991863,343,"9500 HARRITT RD, LAKESIDE, CA, 92040","Match","Exact","9500 HARRITT RD, LAKESIDE, CA, 92040",650373088,"L"
942344,"9500 HILLWOOD DRIVE STE 112","LAS VEGAS","NV",89134,36.1878242510001,-115.304464182,344,"9500 HILLWOOD DRIVE STE 112, LAS VEGAS, NV, 89134","Match","Exact","9500 HILLWOOD DR, LAS VEGAS, NV, 89134",201914966,"R"
942345,"9500 IDLEWOOD COURT","LOUISVILLE","KY",40291,38.171383335,-85.583206359,345,"9500 IDLEWOOD COURT, LOUISVILLE, KY, 40291","Match","Exact","9500 IDLEWOOD CT, LOUISVILLE, KY, 40291",96866486,"L"
942346,"9500 JOLLYVILLE RD APT 199","AUSTIN","TX",78759,30.3871245720001,-97.745700374,346,"9500 JOLLYVILLE RD APT 199, AUSTIN, TX, 78759","Match","Exact","9500 JOLLYVILLE RD, AUSTIN, TX, 78759",637873936,"L"
942347,"9500 JUG ST NW","PATASKALA","OH",43062,NA,NA,347,"9500 JUG ST NW, PATASKALA, OH, 43062","No_Match",NA,NA,NA,NA
942348,"9500 KETONA COVE","AUSTIN","TX",78759,30.398795803,-97.765316856,348,"9500 KETONA COVE, AUSTIN, TX, 78759","Match","Exact","9500 KETONA COVE, AUSTIN, TX, 78759",63991737,"L"
942349,"9500 KNOLLCREST BLVD","JOHNS CREEK","GA",30022,34.010505315,-84.210514571,349,"9500 KNOLLCREST BLVD, JOHNS CREEK, GA, 30022","Match","Exact","9500 KNOLLCREST BLVD, JOHNS CREEK, GA, 30022",17375760,"L"
942350,"9500 LAGUNA DRIVE","SAINT LOUIS","MO",63132,38.677018311,-90.380699143,350,"9500 LAGUNA DRIVE, SAINT LOUIS, MO, 63132","Match","Exact","9500 LAGUNA DR, SAINT LOUIS, MO, 63132",100131116,"L"
942351,"9500 LAKESIDE BLVD BUILDING 3","THE WOODLANDS","TX",77381,NA,NA,351,"9500 LAKESIDE BLVD BUILDING 3, THE WOODLANDS, TX, 77381","No_Match",NA,NA,NA,NA
942352,"9500 LOMA DR","BRISTOW","VA",20136,38.7492986070001,-77.568273948,352,"9500 LOMA DR, BRISTOW, VA, 20136","Match","Exact","9500 LOMA DR, BRISTOW, VA, 20136",619918543,"R"
942353,"9500 MARRIANA WAY","ALVERADO","TX",76009,32.487332452,-97.155431141,353,"9500 MARRIANA WAY, ALVERADO, TX, 76009","Match","Non_Exact","9500 MARIANNA WAY, ALVARADO, TX, 76009",649210588,"R"
942354,"9500 MC NEIL DR","AUSTN","TX",78750,NA,NA,354,"9500 MC NEIL DR, AUSTN, TX, 78750","No_Match",NA,NA,NA,NA
942355,"9500 MCNEIL DR","AUSTIN","TX",78750,NA,NA,355,"9500 MCNEIL DR, AUSTIN, TX, 78750","No_Match",NA,NA,NA,NA
942356,"9500 MEDICAL CENTER DRIVE STE 230E","UPPER MARLBORO","MD",20774,NA,NA,356,"9500 MEDICAL CENTER DRIVE STE 230E, UPPER MARLBORO, MD, 20774","No_Match",NA,NA,NA,NA
942357,"9500 MEDICAL CENTER DRIVE SUITE 460","LARGO","MD",20774,NA,NA,357,"9500 MEDICAL CENTER DRIVE SUITE 460, LARGO, MD, 20774","No_Match",NA,NA,NA,NA
942358,"9500 MURPHY LANE","EAU CLAIRE","WI",54703,NA,NA,358,"9500 MURPHY LANE, EAU CLAIRE, WI, 54703","No_Match",NA,NA,NA,NA
942359,"9500 N 1450 EAST RD","GEORGETOWN","IL",61846,40.0045234340001,-87.665974813,359,"9500 N 1450 EAST RD, GEORGETOWN, IL, 61846","Match","Exact","9500 1450 EAST RD, GEORGETOWN, IL, 61846",612025376,"L"
942360,"9500 N DORO DRIVE","PALMER","AK",99645,61.691726063,-149.235017115,360,"9500 N DORO DRIVE, PALMER, AK, 99645","Match","Exact","9500 DORO DR, PALMER, AK, 99645",191047090,"R"
942361,"9500 N DOUGLAS HIGHWAY","JUNEAU","AK",99801,58.3399008230001,-134.562018826,361,"9500 N DOUGLAS HIGHWAY, JUNEAU, AK, 99801","Match","Exact","9500 N DOUGLAS HWY, JUNEAU, AK, 99801",647163301,"R"
942362,"9500 NW 3RD AVE","MIAMI","FL",33150,25.862167884,-80.203516501,362,"9500 NW 3RD AVE, MIAMI, FL, 33150","Match","Exact","9500 NW 3RD AVE, MIAMI, FL, 33150",116003315,"L"
942363,"9500 NW 44TH PLACE","CORAL SPRINGS","FL",33065,26.2853515520001,-80.252422936,363,"9500 NW 44TH PLACE, CORAL SPRINGS, FL, 33065","Match","Exact","9500 NW 44TH PL, CORAL SPRINGS, FL, 33065",114690257,"L"
942364,"9500 OLD GREENSBORO ROAD","TUSCALOOSA","AL",35405,NA,NA,364,"9500 OLD GREENSBORO ROAD, TUSCALOOSA, AL, 35405","No_Match",NA,NA,NA,NA
942365,"9500 ORMSBY STATION RD","LOUISVILLE","KY",40223,38.2642505220001,-85.575597935,365,"9500 ORMSBY STATION RD, LOUISVILLE, KY, 40223","Match","Exact","9500 ORMSBY STATION RD, LOUISVILLE, KY, 40223",96877394,"L"
942366,"9500 PARAGON DR","HENRICO","VA",23228,37.642879201,-77.497819511,366,"9500 PARAGON DR, HENRICO, VA, 23228","Match","Exact","9500 PARAGON DR, HENRICO, VA, 23228",106646328,"L"
942367,"9500 PENNSYLVANIA AVE SUITE 1011","UPPER MARLBORO","MD",20772,38.820115532,-76.846553252,367,"9500 PENNSYLVANIA AVE SUITE 1011, UPPER MARLBORO, MD, 20772","Match","Exact","9500 PENNSYLVANIA AVE, UPPER MARLBORO, MD, 20772",637903965,"R"
942368,"9500 PINES BLVD","PEMBROKE PINES","FL",33024,NA,NA,368,"9500 PINES BLVD, PEMBROKE PINES, FL, 33024","No_Match",NA,NA,NA,NA
942369,"9500 POLE RUN RD","DISPUTANTA","VA",23842,37.1919599490001,-77.236224614,369,"9500 POLE RUN RD, DISPUTANTA, VA, 23842","Match","Exact","9500 POLE RUN RD, DISPUTANTA, VA, 23842",54140419,"R"
942370,"9500 QUAYMAS COURT","ELK GROVE","CA",95624,38.411172171,-121.366125403,370,"9500 QUAYMAS COURT, ELK GROVE, CA, 95624","Match","Exact","9500 QUAYMAS CT, ELK GROVE, CA, 95624",133354994,"R"
942371,"9500 RAMBLING CREEK WAY","HEISKELL","TN",37754,36.097338418,-84.0313452939999,371,"9500 RAMBLING CREEK WAY, HEISKELL, TN, 37754","Match","Exact","9500 RAMBLING CREEK WAY, HEISKELL, TN, 37754",604668037,"R"
942372,"9500 RAY WHITE RD SUITE 200","FORT WORTH","TX",76244,NA,NA,372,"9500 RAY WHITE RD SUITE 200, FORT WORTH, TX, 76244","No_Match",NA,NA,NA,NA
942373,"9500 ROOSEVELT AVE NE STE 100","SEATTLE","WA",98115,47.6977248630001,-122.317575194,373,"9500 ROOSEVELT AVE NE STE 100, SEATTLE, WA, 98115","Match","Non_Exact","9500 ROOSEVELT WAY NE, SEATTLE, WA, 98115",186584592,"R"
942374,"9500 ROOSEVELT WAY NE STE 100","SEATTLE","WA",98115,47.6977248630001,-122.317575194,374,"9500 ROOSEVELT WAY NE STE 100, SEATTLE, WA, 98115","Match","Exact","9500 ROOSEVELT WAY NE, SEATTLE, WA, 98115",186584592,"R"
942375,"9500 SH 35S","PALACIOS","TX",77465,NA,NA,375,"9500 SH 35S, PALACIOS, TX, 77465","No_Match",NA,NA,NA,NA
942376,"9500 SIDE BROOK RD UNIT 109","OWINGS MILLS","MD",21117,39.3968703410001,-76.805558221,376,"9500 SIDE BROOK RD UNIT 109, OWINGS MILLS, MD, 21117","Match","Non_Exact","9500 SIDEBROOK RD, OWINGS MILLS, MD, 21117",637503415,"L"
942377,"9500 SMITH ROAD","ASHLEY","OH",43003,40.4144103720001,-82.9757494409999,377,"9500 SMITH ROAD, ASHLEY, OH, 43003","Match","Exact","9500 SMITH RD, ASHLEY, OH, 43003",24591678,"R"
942378,"9500 SOUTH BROWN ROAD","CHARDON","OH",44024,41.6126908370001,-81.183412362,378,"9500 SOUTH BROWN ROAD, CHARDON, OH, 44024","Match","Exact","9500 S BROWN RD, CHARDON, OH, 44024",624372537,"R"
942379,"9500 SPERRY ROAD","KIRTLAND","OH",44094,NA,NA,379,"9500 SPERRY ROAD, KIRTLAND, OH, 44094","No_Match",NA,NA,NA,NA
942380,"9500 SPRINGFIELD GARDENS DR","CHARLOTTE","NC",28227,35.174199308,-80.708828083,380,"9500 SPRINGFIELD GARDENS DR, CHARLOTTE, NC, 28227","Match","Exact","9500 SPRINGFIELD GARDENS DR, CHARLOTTE, NC, 28227",635862069,"R"
942381,"9500 STONEY CREEK WAY","RENO","NV",89506,39.6284755180001,-119.877499909,381,"9500 STONEY CREEK WAY, RENO, NV, 89506","Match","Exact","9500 STONEY CREEK WAY, RENO, NV, 89506",107101367,"R"
942382,"9500 SW 29 STREET","MIAMI","FL",33165,25.7427997980001,-80.349525151,382,"9500 SW 29 STREET, MIAMI, FL, 33165","Match","Exact","9500 SW 29TH ST, MIAMI, FL, 33165",116055780,"L"
942383,"9500 SW 3RD ST APT A212","BOCA RATON","FL",33428,26.3443290810001,-80.1939923199999,383,"9500 SW 3RD ST APT A212, BOCA RATON, FL, 33428","Match","Non_Exact","9500 SW 3RD ST, BOCA RATON, FL, 33428",115573914,"R"
942384,"9500 SW 73RD AVE","PINECREST","FL",33156,25.6823739390001,-80.312585105,384,"9500 SW 73RD AVE, PINECREST, FL, 33156","Match","Exact","9500 SW 73RD AVE, PINECREST, FL, 33156",623945412,"R"
942385,"9500 SW 92ND STREET","MIAMI","FL",33176,25.6838991270001,-80.349269955,385,"9500 SW 92ND STREET, MIAMI, FL, 33176","Match","Exact","9500 SW 92ND ST, MIAMI, FL, 33176",115980625,"L"
942386,"9500 SW OLD HIGHWAY 47","GASTON","OR",97119,45.448585838,-123.150074,386,"9500 SW OLD HIGHWAY 47, GASTON, OR, 97119","Match","Exact","9500 SW OLD HIGHWAY 47, GASTON, OR, 97119",625198886,"R"
942387,"9500 TORTUGA DEL MAR DRIVE","BAKERSFIELD","CA",93314,35.431145444,-119.107604347,387,"9500 TORTUGA DEL MAR DRIVE, BAKERSFIELD, CA, 93314","Match","Exact","9500 TORTUGA DEL MAR DR, BAKERSFIELD, CA, 93314",648094703,"R"
942388,"9500 W 144TH PL BOX 11","ORLAND PARK","IL",60462,41.627674632,-87.850302416,388,"9500 W 144TH PL BOX 11, ORLAND PARK, IL, 60462","Match","Non_Exact","9500 W 144TH PL, ORLAND PARK, IL, 60462",641236486,"L"
942389,"9500 W CAPITOL DR APT1","WAUWATOSA","WI",53222,43.08975314,-88.031580471,389,"9500 W CAPITOL DR APT1, WAUWATOSA, WI, 53222","Match","Non_Exact","9500 W CAPITOL DR, WAUWATOSA, WI, 53222",77727801,"R"
942390,"9500 W PRITCHARD CT","MUNCIE","IN",47396,40.202430012,-85.498136068,390,"9500 W PRITCHARD CT, MUNCIE, IN, 47396","Match","Non_Exact","9500 W PRITCHARD CT, YORKTOWN, IN, 47396",632831427,"L"
942391,"9500 WEEMS AVE SW","ALBUQUERQUE","NM",87121,35.063704326,-106.738818185,391,"9500 WEEMS AVE SW, ALBUQUERQUE, NM, 87121","Match","Non_Exact","9500 WEEMS DR SW, ALBUQUERQUE, NM, 87121",206797223,"L"
942392,"9500 WEST RD APT 1603","HOUSTON","TX",77064,29.9037432700001,-95.558044541,392,"9500 WEST RD APT 1603, HOUSTON, TX, 77064","Match","Exact","9500 WEST RD, HOUSTON, TX, 77064",96227502,"L"
942393,"9500 WREN LANE","EAGLE RIVER","AK",99577,61.3066526700001,-149.502239906,393,"9500 WREN LANE, EAGLE RIVER, AK, 99577","Match","Non_Exact","9500 WREN CIR, EAGLE RIVER, AK, 99577",190793455,"L"
942394,"9500 WYNDEN COVE","AUSTIN","TX",78748,30.178504741,-97.825313223,394,"9500 WYNDEN COVE, AUSTIN, TX, 78748","Match","Exact","9500 WYNDEN COVE, AUSTIN, TX, 78748",63940217,"R"
942395,"9500 ZELZAH AVE","NORTHRIDGE","LA",91325,NA,NA,395,"9500 ZELZAH AVE, NORTHRIDGE, LA, 91325","No_Match",NA,NA,NA,NA
942396,"9501 AIRE LIBRE DRIVE","AUSTIN","TX",78726,30.4320549920001,-97.83265776,396,"9501 AIRE LIBRE DRIVE, AUSTIN, TX, 78726","Match","Exact","9501 AIRE LIBRE DR, AUSTIN, TX, 78726",641759102,"L"
942397,"9501 ARBOR OAK LANE","JACKSONVILLE","FL",32208,30.4110263380001,-81.701308491,397,"9501 ARBOR OAK LANE, JACKSONVILLE, FL, 32208","Match","Exact","9501 ARBOR OAK LN, JACKSONVILLE, FL, 32208",624021715,"R"
942398,"9501 ARLINGTON EXPRESSWAY","JACKSONVILLE","FL",32225,30.321824527,-81.548418163,398,"9501 ARLINGTON EXPRESSWAY, JACKSONVILLE, FL, 32225","Match","Non_Exact","9501 ARLINGTON EXPY, JACKSONVILLE, FL, 32211",83969781,"L"
942399,"9501 BAYCLIFF CT","ORLANDO","FL",32836,28.4263169650001,-81.505002543,399,"9501 BAYCLIFF CT, ORLANDO, FL, 32836","Match","Exact","9501 BAYCLIFF CT, ORLANDO, FL, 32836",94337117,"L"
942400,"9501 CENTRAL AVENUE","INDIANAPOLIS","IN",46240,39.9253819260001,-86.150672534,400,"9501 CENTRAL AVENUE, INDIANAPOLIS, IN, 46240","Match","Exact","9501 CENTRAL AVE, INDIANAPOLIS, IN, 46240",107982817,"R"
942401,"9501 CERRITOS AVE 202","ANAHEIM","CA",92804,33.810409996,-117.967475092,401,"9501 CERRITOS AVE 202, ANAHEIM, CA, 92804","Match","Exact","9501 CERRITOS AVE, ANAHEIM, CA, 92804",144251097,"L"
942402,"9501 CERRITOS AVE STE202","ANAHEIM","CA",92804,33.810409996,-117.967475092,402,"9501 CERRITOS AVE STE202, ANAHEIM, CA, 92804","Match","Exact","9501 CERRITOS AVE, ANAHEIM, CA, 92804",144251097,"L"
942403,"9501 CERRITOS AVE UNT 229","ANAHEIM","CA",92809,33.810409996,-117.967475092,403,"9501 CERRITOS AVE UNT 229, ANAHEIM, CA, 92809","Match","Non_Exact","9501 CERRITOS AVE, ANAHEIM, CA, 92804",144251097,"L"
942404,"9501 CERRITOS AVE","ANAHEIM","CA",92804,33.810409996,-117.967475092,404,"9501 CERRITOS AVE, ANAHEIM, CA, 92804","Match","Exact","9501 CERRITOS AVE, ANAHEIM, CA, 92804",144251097,"L"
942405,"9501 CLOVERCROFT ROAD","FRANKLIN","TN",37067,35.927633009,-86.743231238,405,"9501 CLOVERCROFT ROAD, FRANKLIN, TN, 37067","Match","Exact","9501 CLOVERCROFT RD, FRANKLIN, TN, 37067",651699757,"R"
942406,"9501 COBHAM PARK DRIVE","DAPHNE","AL",36526,30.57068996,-87.859997304,406,"9501 COBHAM PARK DRIVE, DAPHNE, AL, 36526","Match","Exact","9501 COBHAM PARK DR, DAPHNE, AL, 36526",646858978,"R"
942407,"9501 CONSTITUTION HALL DR","CHARLOTTE","NC",28277,35.0240961860001,-80.826914797,407,"9501 CONSTITUTION HALL DR, CHARLOTTE, NC, 28277","Match","Exact","9501 CONSTITUTION HALL DR, CHARLOTTE, NC, 28277",70543237,"R"
942408,"9501 DEER SPRING LANE","CHARLOTTE","NC",28210,35.1020310550001,-80.8571408729999,408,"9501 DEER SPRING LANE, CHARLOTTE, NC, 28210","Match","Exact","9501 DEER SPRING LN, CHARLOTTE, NC, 28210",70512564,"L"
942409,"9501 DOMINICAN DR","CUTLER BAY","FL",33189,25.581114203,-80.3452616719999,409,"9501 DOMINICAN DR, CUTLER BAY, FL, 33189","Match","Exact","9501 DOMINICAN DR, CUTLER BAY, FL, 33189",115995751,"R"
942410,"9501 DOUBLE OAK LANE","FT. WORTH","TX",76163,32.604556308,-97.3890374269999,410,"9501 DOUBLE OAK LANE, FT. WORTH, TX, 76163","Match","Non_Exact","9501 DOUBLE OAK LN, FT WORTH, TX, 76123",637606852,"R"
942411,"9501 E 65 TERRACE","RAYTOWN","MO",64132,NA,NA,411,"9501 E 65 TERRACE, RAYTOWN, MO, 64132","No_Match",NA,NA,NA,NA
942412,"9501 E 86TH ST","INDIANAPOLIS","IN",46256,39.912545821,-86.000883781,412,"9501 E 86TH ST, INDIANAPOLIS, IN, 46256","Match","Exact","9501 E 86TH ST, INDIANAPOLIS, IN, 46256",108020078,"R"
942413,"9501 E LEMON AVE","TEMPLE CITY","CA",91780,34.1171268080001,-118.06516238,413,"9501 E LEMON AVE, TEMPLE CITY, CA, 91780","Match","Exact","9501 LEMON AVE, TEMPLE CITY, CA, 91780",241241365,"L"
942414,"9501 GARFIELD AVE S - 202","BLOOMINGTON","MN",55420,44.8309897440001,-93.286897918,414,"9501 GARFIELD AVE S - 202, BLOOMINGTON, MN, 55420","Match","Exact","9501 GARFIELD AVE S, BLOOMINGTON, MN, 55420",43849676,"L"
942415,"9501 JARRELL LANE","SPOTSYLVANIA","VA",22551,38.222077589,-77.826876715,415,"9501 JARRELL LANE, SPOTSYLVANIA, VA, 22551","Match","Exact","9501 JARRELL LN, SPOTSYLVANIA, VA, 22551",228802026,"L"
942416,"9501 LA SALLE BLVD","DETROIT","MI",48206,42.376802323,-83.107354102,416,"9501 LA SALLE BLVD, DETROIT, MI, 48206","Match","Exact","9501 LA SALLE BLVD, DETROIT, MI, 48206",95704525,"L"
942417,"9501 LAKEVIEW ROAD","UNION CITY","GA",30291,33.602608048,-84.56922364,417,"9501 LAKEVIEW ROAD, UNION CITY, GA, 30291","Match","Non_Exact","9501 LAKEVIEW CIR, UNION CITY, GA, 30291",17405454,"L"
942418,"9501 LASAHLLE BLVD","DETROIT","MI",48206,NA,NA,418,"9501 LASAHLLE BLVD, DETROIT, MI, 48206","No_Match",NA,NA,NA,NA
942419,"9501 LAWLOR ST","OAKLAND","CA",94603,37.7530279590001,-122.158153839,419,"9501 LAWLOR ST, OAKLAND, CA, 94603","Match","Non_Exact","9501 LAWLOR ST, OAKLAND, CA, 94605",125011111,"R"
942420,"9501 LAWNFIELD DR","TWINSBURG","OH",44087,41.3270067440001,-81.469391038,420,"9501 LAWNFIELD DR, TWINSBURG, OH, 44087","Match","Exact","9501 LAWNFIELD DR, TWINSBURG, OH, 44087",61363645,"R"
942421,"9501 LUCY JANE LANE   APT 122","CHARLOTTE","NC",28270,35.142605895,-80.741804547,421,"9501 LUCY JANE LANE   APT 122, CHARLOTTE, NC, 28270","Match","Exact","9501 LUCY JANE LN, CHARLOTTE, NC, 28270",642170016,"L"
942422,"9501 MAISON CT","MYRTLE BEACH","SC",29572,33.765820886,-78.792481502,422,"9501 MAISON CT, MYRTLE BEACH, SC, 29572","Match","Exact","9501 MAISON CT, MYRTLE BEACH, SC, 29572",607416910,"R"
942423,"9501 MARTINDALE ROAD","COLUMBIA","SC",29223,34.0864156280001,-80.92385405,423,"9501 MARTINDALE ROAD, COLUMBIA, SC, 29223","Match","Exact","9501 MARTINDALE RD, COLUMBIA, SC, 29223",71841921,"L"
942424,"9501 MICHAEL EDWARDS DRIVE","LOUISVILLE","KY",40291,38.171984541,-85.58240991,424,"9501 MICHAEL EDWARDS DRIVE, LOUISVILLE, KY, 40291","Match","Non_Exact","9501 MICHAEL EDWARD DR, LOUISVILLE, KY, 40291",96866488,"L"
942425,"9501 N 137TH E CT","OWASSO","OK",74055,NA,NA,425,"9501 N 137TH E CT, OWASSO, OK, 74055","No_Match",NA,NA,NA,NA
942426,"9501 N FM 620 APT 12108","AUSTIN","TX",78726,30.432856133,-97.841332365,426,"9501 N FM 620 APT 12108, AUSTIN, TX, 78726","Match","Exact","9501 FM 620, AUSTIN, TX, 78726",649359186,"R"
942427,"9501 N FM 620 APT 12208","AUSTIN","TX",78726,30.432856133,-97.841332365,427,"9501 N FM 620 APT 12208, AUSTIN, TX, 78726","Match","Exact","9501 FM 620, AUSTIN, TX, 78726",649359186,"R"
942428,"9501 NW 86TH TERRACE","KANSAS CITY","MO",64153,39.251138466,-94.6904851629999,428,"9501 NW 86TH TERRACE, KANSAS CITY, MO, 64153","Match","Non_Exact","9501 NW 86TH TER, KANSAS CITY, MO, 64153",39704356,"L"
942429,"9501 PIONEER DR","WACO","TX",76712,31.4940081670001,-97.225324273,429,"9501 PIONEER DR, WACO, TX, 76712","Match","Exact","9501 PIONEER DR, WACO, TX, 76712",146760544,"R"
942430,"9501 RACHEL DRIVE","YORKTOWN","IN",47396,40.1821780070001,-85.496664954,430,"9501 RACHEL DRIVE, YORKTOWN, IN, 47396","Match","Exact","9501 RACHEL DR, YORKTOWN, IN, 47396",631696355,"L"
942431,"9501 ROBERT HOLT","EL PASO","TX",79924,31.8790774760001,-106.431349898,431,"9501 ROBERT HOLT, EL PASO, TX, 79924","Match","Non_Exact","9501 ROBERT HOLT DR, EL PASO, TX, 79924",635454311,"L"
942432,"9501 SARAZEN CT","PATTERSON","CA",95363,37.4036442010001,-121.262116602,432,"9501 SARAZEN CT, PATTERSON, CA, 95363","Match","Exact","9501 SARAZEN CT, PATTERSON, CA, 95363",102644264,"R"
942433,"9501 ST BARTS LANE","HUNTERSVILLE","NC",28078,35.4345396630001,-80.853664537,433,"9501 ST BARTS LANE, HUNTERSVILLE, NC, 28078","Match","Exact","9501 SAINT BARTS LN, HUNTERSVILLE, NC, 28078",70530743,"R"
942434,"9501 SW 192ND ST","VASHON","WA",98070,47.432836089,-122.455371372,434,"9501 SW 192ND ST, VASHON, WA, 98070","Match","Exact","9501 SW 192ND ST, VASHON, WA, 98070",648672393,"R"
942435,"9501 SW 27TH ST","OKLAHOMA CITY","OK",73128,35.437333047,-97.68322292,435,"9501 SW 27TH ST, OKLAHOMA CITY, OK, 73128","Match","Exact","9501 SW 27TH ST, OKLAHOMA CITY, OK, 73128",641685427,"L"
942436,"9501 SW 35TH TERRACE","OKLAHOMA CITY","OK",73179,35.428990922,-97.682402855,436,"9501 SW 35TH TERRACE, OKLAHOMA CITY, OK, 73179","Match","Exact","9501 SW 35TH TER, OKLAHOMA CITY, OK, 73179",624392828,"L"
942437,"9501 US HIGHWAY 441","LEESBURG","FL",34788,28.827378465,-81.800797034,437,"9501 US HIGHWAY 441, LEESBURG, FL, 34788","Match","Exact","9501 US HWY 441, LEESBURG, FL, 34788",640585860,"R"
942438,"9501 W DEVON AVE STE 400","ROSEMONT","IL",60018,41.9957785060001,-87.862041758,438,"9501 W DEVON AVE STE 400, ROSEMONT, IL, 60018","Match","Exact","9501 DEVON AVE, ROSEMONT, IL, 60018",111860424,"L"
942439,"9501 W RYAN","WICHITA","KS",67205,NA,NA,439,"9501 W RYAN, WICHITA, KS, 67205","Tie",NA,NA,NA,NA
942440,"9501 W SAHARA APT 2234","LAS VEGAS","NV",89117,NA,NA,440,"9501 W SAHARA APT 2234, LAS VEGAS, NV, 89117","No_Match",NA,NA,NA,NA
942441,"9501 W SAHARA AVE","LAS VEGAS","NV",89117,36.144405926,-115.30351008,441,"9501 W SAHARA AVE, LAS VEGAS, NV, 89117","Match","Exact","9501 W SAHARA AVE, LAS VEGAS, NV, 89117",640232443,"L"
942442,"9501 WEST 115TH STREET","OVERLAND PARK","KS",66210,38.9224678530001,-94.695612501,442,"9501 WEST 115TH STREET, OVERLAND PARK, KS, 66210","Match","Exact","9501 W 115TH ST, OVERLAND PARK, KS, 66210",91276873,"L"
942443,"9501 WOODLAND RIDGE DR","TEMPLE TERRACE","FL",33637,28.038461349,-82.364070211,443,"9501 WOODLAND RIDGE DR, TEMPLE TERRACE, FL, 33637","Match","Exact","9501 WOODLAND RIDGE DR, TEMPLE TER, FL, 33637",104570052,"L"
942444,"9501 WOODLAND RIDGE DR","TEMPLE TERRACE","FL",33647,28.038461349,-82.364070211,444,"9501 WOODLAND RIDGE DR, TEMPLE TERRACE, FL, 33647","Match","Non_Exact","9501 WOODLAND RIDGE DR, TEMPLE TERR, FL, 33637",104570052,"L"
942445,"9501 WOODPECKER ROAD","CHESTERFIELD","VA",23838,37.333334689,-77.5533287009999,445,"9501 WOODPECKER ROAD, CHESTERFIELD, VA, 23838","Match","Exact","9501 WOODPECKER RD, CHESTERFIELD, VA, 23838",201576979,"R"
942446,"9501 YALE AVE","CLEVELAND","OH",44108,41.5333971520001,-81.621211618,446,"9501 YALE AVE, CLEVELAND, OH, 44108","Match","Exact","9501 YALE AVE, CLEVELAND, OH, 44108",61112433,"L"
942447,"95014-3946","CUPERTINO","CA",95014,NA,NA,447,"95014-3946, CUPERTINO, CA, 95014","No_Match",NA,NA,NA,NA
942448,"9502 117TH AVE NE","KIRKLAND","WA",98033,47.685776543,-122.18383481,448,"9502 117TH AVE NE, KIRKLAND, WA, 98033","Match","Exact","9502 117TH AVE NE, KIRKLAND, WA, 98033",624393968,"L"
942449,"9502 14TH AVE NW","SEATTLE","WA",98117,47.698185505,-122.374099256,449,"9502 14TH AVE NW, SEATTLE, WA, 98117","Match","Exact","9502 14TH AVE NW, SEATTLE, WA, 98117",186577266,"R"
942450,"9502 187TH STREET COURT EAST","PUYALLUP","WA",98375,47.0853645990001,-122.30679961,450,"9502 187TH STREET COURT EAST, PUYALLUP, WA, 98375","Match","Exact","9502 187TH STREET CT E, PUYALLUP, WA, 98375",184764834,"L"
942451,"9502 2ND AVE SE","EVERETT","WA",98208,47.911805573,-122.229489414,451,"9502 2ND AVE SE, EVERETT, WA, 98208","Match","Exact","9502 2ND AVE SE, EVERETT, WA, 98208",187773724,"L"
942452,"9502 97TH STREET","OZONE PARK","NY",11416,NA,NA,452,"9502 97TH STREET, OZONE PARK, NY, 11416","No_Match",NA,NA,NA,NA
942453,"9502 ALABASTER OAKS LN","HUMBLE","TX",77396,29.94526655,-95.2490473559999,453,"9502 ALABASTER OAKS LN, HUMBLE, TX, 77396","Match","Exact","9502 ALABASTER OAKS LN, HUMBLE, TX, 77396",625667386,"L"
942454,"9502 BRIANS RUN","HELOTES","TX",78023,29.570366817,-98.670085009,454,"9502 BRIANS RUN, HELOTES, TX, 78023","Match","Exact","9502 BRIANS RUN, HELOTES, TX, 78023",101585226,"L"
942455,"9502 BUTLER DRIVE","BRENTWOOD","TN",37027,35.9808893810001,-86.7443104279999,455,"9502 BUTLER DRIVE, BRENTWOOD, TN, 37027","Match","Exact","9502 BUTLER DR, BRENTWOOD, TN, 37027",73118538,"L"
942456,"9502 COVE CREEK DRIVE","HIGHLANDS RANCH","CO",80129,39.5439004360001,-105.019891357,456,"9502 COVE CREEK DRIVE, HIGHLANDS RANCH, CO, 80129","Match","Non_Exact","9502 S COVE CREEK DR, HIGHLANDS RANCH, CO, 80129",130816004,"R"
942457,"9502 HEXHAM CT","SPRING","TX",77379,29.999559838,-95.547487812,457,"9502 HEXHAM CT, SPRING, TX, 77379","Match","Exact","9502 HEXHAM CT, SPRING, TX, 77379",96005760,"L"
942458,"9502 LEMON ROAD","ZACHARY","LA",70791,30.7050369180001,-91.082133883,458,"9502 LEMON ROAD, ZACHARY, LA, 70791","Match","Exact","9502 LEMON RD, ZACHARY, LA, 70791",652863859,"L"
942459,"9502 MILKWEED AVE","LAS VEGAS","NV",89166,NA,NA,459,"9502 MILKWEED AVE, LAS VEGAS, NV, 89166","No_Match",NA,NA,NA,NA
942460,"9502 ORANGEVALE AVE","FOLSOM","CA",95630,38.6817036050001,-121.199517987,460,"9502 ORANGEVALE AVE, FOLSOM, CA, 95630","Match","Exact","9502 ORANGEVALE AVE, FOLSOM, CA, 95630",133446982,"R"
942461,"9502 REICHLING LANE","PICO RIVERA","CA",90660,33.9903155010001,-118.079288069,461,"9502 REICHLING LANE, PICO RIVERA, CA, 90660","Match","Exact","9502 REICHLING LN, PICO RIVERA, CA, 90660",141738627,"R"
942462,"9502 SAW MILL LANE","UPPER MARLBORO","MD",20772,NA,NA,462,"9502 SAW MILL LANE, UPPER MARLBORO, MD, 20772","No_Match",NA,NA,NA,NA
942463,"9502 SEWARD PLANTATION RD","BRENHAM","TX",77833,30.319630332,-96.332059565,463,"9502 SEWARD PLANTATION RD, BRENHAM, TX, 77833","Match","Exact","9502 SEWARD PLANTATION RD, BRENHAM, TX, 77833",39231720,"R"
942464,"9502 SW 123 AVE","MIAMI","FL",33176,25.679506202,-80.3944352729999,464,"9502 SW 123 AVE, MIAMI, FL, 33176","Match","Non_Exact","9502 SW 123RD AVE, MIAMI, FL, 33186",116281777,"L"
942465,"9502 TEMPLETON AVE SE","SNOQUALMIE","WA",98065,47.515366445,-121.873496014,465,"9502 TEMPLETON AVE SE, SNOQUALMIE, WA, 98065","Match","Exact","9502 TEMPLETON AVE SE, SNOQUALMIE, WA, 98065",617981242,"L"
942466,"9502 TREVORS COURT","LAKESIDE","CA",92040,32.8523080570001,-116.903616653,466,"9502 TREVORS COURT, LAKESIDE, CA, 92040","Match","Exact","9502 TREVORS CT, LAKESIDE, CA, 92040",195378351,"R"
942467,"9502 WARD PLACE","URBANA","MD",21704,39.3333355070001,-77.341124943,467,"9502 WARD PLACE, URBANA, MD, 21704","Match","Exact","9502 WARD PL, URBANA, MD, 21704",604956662,"L"
942468,"9502 WOODFAIR DR APT 212","HOUSTON","TX",77036,29.6774266410001,-95.553482398,468,"9502 WOODFAIR DR APT 212, HOUSTON, TX, 77036","Match","Exact","9502 WOODFAIR DR, HOUSTON, TX, 77036",96603366,"R"
942469,"9503 ATHEL DRIVE","PORT CHARLOTTE","FL",33981,26.889621505,-82.201252004,469,"9503 ATHEL DRIVE, PORT CHARLOTTE, FL, 33981","Match","Exact","9503 ATHEL DR, PORT CHARLOTTE, FL, 33981",4303541,"R"
942470,"9503 BELLHAVEN CT","FREDERICK","MD",21701,39.4045009600001,-77.334526002,470,"9503 BELLHAVEN CT, FREDERICK, MD, 21701","Match","Exact","9503 BELLHAVEN CT, FREDERICK, MD, 21701",60707135,"L"
942471,"9503 BENT BROOK DRIVE","INDIANAPOLIS","IN",46250,39.9252674590001,-86.0625489509999,471,"9503 BENT BROOK DRIVE, INDIANAPOLIS, IN, 46250","Match","Exact","9503 BENT BROOK DR, INDIANAPOLIS, IN, 46250",107996326,"L"
942472,"9503 CHARLESTOWN NEW MARKET RD","CHARLESTOWN","IN",47111,38.4907700860001,-85.6501677369999,472,"9503 CHARLESTOWN NEW MARKET RD, CHARLESTOWN, IN, 47111","Match","Exact","9503 CHARLESTOWN NEW MARKET RD, CHARLESTOWN, IN, 47111",64899797,"R"
942473,"9503 CLOVERIDGE STE 4323","BENBROOK","TX",76126,32.6735436320001,-97.472798892,473,"9503 CLOVERIDGE STE 4323, BENBROOK, TX, 76126","Match","Non_Exact","9503 CLOVERIDGE DR, BENBROOK, TX, 76126",616466221,"L"
942474,"9503 DELAMERE CREEK LANE","BRENTWOOD","TN",37027,35.947616839,-86.747135825,474,"9503 DELAMERE CREEK LANE, BRENTWOOD, TN, 37027","Match","Exact","9503 DELAMERE CREEK LN, BRENTWOOD, TN, 37027",629164390,"R"
942475,"9503 E 64TH TERRACE","RAYTOWN","MO",64133,39.0065280170001,-94.470065511,475,"9503 E 64TH TERRACE, RAYTOWN, MO, 64133","Match","Exact","9503 E 64TH TER, RAYTOWN, MO, 64133",628887450,"R"
942476,"9503 GERALD DRIVE","NORTH HILLS","CA",91343,34.2431363220001,-118.494862413,476,"9503 GERALD DRIVE, NORTH HILLS, CA, 91343","Match","Non_Exact","9503 GERALD AVE, NORTH HILLS, CA, 91343",141544461,"L"
942477,"9503 JOWETT PLACE","SUGAR LAND","TX",77498,29.6750695440001,-95.660511465,477,"9503 JOWETT PLACE, SUGAR LAND, TX, 77498","Match","Exact","9503 JOWETT PL, SUGAR LAND, TX, 77498",624718843,"R"
942478,"9503 LINDGEN AV","SUN CITY","AZ",85373,NA,NA,478,"9503 LINDGEN AV, SUN CITY, AZ, 85373","No_Match",NA,NA,NA,NA
942479,"9503 LINDGREN AV","SUN CITY","AZ",85373,33.646207157,-112.265482761,479,"9503 LINDGREN AV, SUN CITY, AZ, 85373","Match","Non_Exact","9503 W LINDGREN AVE, SUN CITY, AZ, 85373",128912092,"L"
942480,"9503 LOOS RD","MARINE","IL",62061,38.7949055030001,-89.8242881149999,480,"9503 LOOS RD, MARINE, IL, 62061","Match","Exact","9503 LOOS RD, MARINE, IL, 62061",107673538,"L"
942481,"9503 MARGO LANE","LITTLE ROCK","AR",72210,34.669282541,-92.443367767,481,"9503 MARGO LANE, LITTLE ROCK, AR, 72210","Match","Exact","9503 MARGO LN, LITTLE ROCK, AR, 72210",649416554,"R"
942482,"9503 MARYLAND COVE","SHERWOOD","AR",72120,34.8407090200001,-92.2201635709999,482,"9503 MARYLAND COVE, SHERWOOD, AR, 72120","Match","Exact","9503 MARYLAND COVE, SHERWOOD, AR, 72120",83497750,"L"
942483,"9503 N ASKEW","KANSAS CITY","MO",64156,39.2658383090001,-94.537252267,483,"9503 N ASKEW, KANSAS CITY, MO, 64156","Match","Non_Exact","9503 N ASKEW AVE, KANSAS CITY, MO, 64156",627810724,"R"
942484,"9503 QUAIL POINTE LANE","FAIRFAX STATION","VA",22039,38.725758184,-77.2733706659999,484,"9503 QUAIL POINTE LANE, FAIRFAX STATION, VA, 22039","Match","Exact","9503 QUAIL POINTE LN, FAIRFAX STATION, VA, 22039",76006488,"L"
942485,"9503 SHADOWGROVE DR","RANCHO CUCAMONGA","CA",91730,34.0788287450001,-117.597884578,485,"9503 SHADOWGROVE DR, RANCHO CUCAMONGA, CA, 91730","Match","Exact","9503 SHADOWGROVE DR, RANCHO CUCAMONGA, CA, 91730",144980042,"R"
942486,"9503 SHARPSBURG PIKE","HAGERSTOWN","MD",21740,39.575646641,-77.726238425,486,"9503 SHARPSBURG PIKE, HAGERSTOWN, MD, 21740","Match","Exact","9503 SHARPSBURG PIKE, HAGERSTOWN, MD, 21740",612170524,"R"
942487,"9503 STATE RD APT 107","PHILADELPHIA","PA",19114,40.0513916030001,-74.985399657,487,"9503 STATE RD APT 107, PHILADELPHIA, PA, 19114","Match","Exact","9503 STATE RD, PHILADELPHIA, PA, 19114",652672321,"R"
942488,"9503 W ONTARIO DR","LITTLETON","CO",80128,39.593253776,-105.102219485,488,"9503 W ONTARIO DR, LITTLETON, CO, 80128","Match","Exact","9503 W ONTARIO DR, LITTLETON, CO, 80128",177801095,"R"
942489,"9504 4TH AVE","BROOKLYN","NY",11209,40.615847188,-74.031148867,489,"9504 4TH AVE, BROOKLYN, NY, 11209","Match","Exact","9504 4TH AVE, BROOKLYN, NY, 11209",59087513,"R"
942490,"9504 BEECHNUT DR","AUSTIN","TX",78748,30.17616845,-97.818303172,490,"9504 BEECHNUT DR, AUSTIN, TX, 78748","Match","Exact","9504 BEECHNUT DR, AUSTIN, TX, 78748",640896531,"L"
942491,"9504 CHADBOURN COURT","LOUISVILLE","KY",40223,38.274948571,-85.575573009,491,"9504 CHADBOURN COURT, LOUISVILLE, KY, 40223","Match","Exact","9504 CHADBOURN CT, LOUISVILLE, KY, 40223",96863612,"R"
942492,"9504 CR 13","ARLINGTON","NE",68002,41.517947142,-96.328964604,492,"9504 CR 13, ARLINGTON, NE, 68002","Match","Exact","9504 CO RD 13, ARLINGTON, NE, 68002",176772273,"R"
942493,"9504 CYPRESS HARBOR DR","GIBSONTON","FL",33534,27.842118827,-82.349693601,493,"9504 CYPRESS HARBOR DR, GIBSONTON, FL, 33534","Match","Exact","9504 CYPRESS HARBOR DR, GIBSONTON, FL, 33534",104664955,"L"
942494,"9504 CYPRESS HARBOR DR","GIBSTONTON","FL",33534,27.842118827,-82.349693601,494,"9504 CYPRESS HARBOR DR, GIBSTONTON, FL, 33534","Match","Non_Exact","9504 CYPRESS HARBOR DR, GIBSONTON, FL, 33534",104664955,"L"
942495,"9504 CYPRESS HARBOR DRIVE","GIBSONTON","FL",33534,27.842118827,-82.349693601,495,"9504 CYPRESS HARBOR DRIVE, GIBSONTON, FL, 33534","Match","Exact","9504 CYPRESS HARBOR DR, GIBSONTON, FL, 33534",104664955,"L"
942496,"9504 DEWEY DR","CHARLOTTE","NC",28217,35.2387681000001,-80.9874392949999,496,"9504 DEWEY DR, CHARLOTTE, NC, 28217","Match","Non_Exact","9504 DEWEY DR, CHARLOTTE, NC, 28214",635861117,"R"
942497,"9504 DRURY AVENUE","KANSAS CITY","MO",64137,38.9528813960001,-94.525114161,497,"9504 DRURY AVENUE, KANSAS CITY, MO, 64137","Match","Exact","9504 DRURY AVE, KANSAS CITY, MO, 64137",91458032,"R"
942498,"9504 E KIVA AVE","MESA","AZ",85208,33.3770391420001,-111.63035958,498,"9504 E KIVA AVE, MESA, AZ, 85208","Match","Non_Exact","9504 E KIVA AVE, MESA, AZ, 85212",128816290,"R"
942499,"9504 EDENBROOK COURT","BRENTWOOD","TN",37027,35.987631074,-86.72964817,499,"9504 EDENBROOK COURT, BRENTWOOD, TN, 37027","Match","Exact","9504 EDENBROOK CT, BRENTWOOD, TN, 37027",631947714,"L"
942500,"9504 FITZGERALD CT","UPPER MARLBORO","MD",20772,38.7588072020001,-76.786079543,500,"9504 FITZGERALD CT, UPPER MARLBORO, MD, 20772","Match","Exact","9504 FITZGERALD CT, UPPER MARLBORO, MD, 20772",634527928,"L"
