"ID","Address","City","State","Zip","lat","long","id","input_address","match_indicator","match_type","matched_address","tiger_line_id","tiger_side"
930001,"9200 CENTERWAY ROAD","GAITHERSBURG","ME",20879,NA,NA,1,"9200 CENTERWAY ROAD, GAITHERSBURG, ME, 20879","No_Match",NA,NA,NA,NA
930002,"9200 CHURCH STREET SUITE 400","MANASSAS","VA",20110,38.7516261710001,-77.473628361,2,"9200 CHURCH STREET SUITE 400, MANASSAS, VA, 20110","Match","Exact","9200 CHURCH ST, MANASSAS, VA, 20110",76505362,"R"
930003,"9200 CLINTON RD","JACKSON","MI",49201,42.351184398,-84.515707784,3,"9200 CLINTON RD, JACKSON, MI, 49201","Match","Exact","9200 CLINTON RD, JACKSON, MI, 49201",17613995,"L"
930004,"9200 E 155TH ST","KANSAS CITY","MO",64149,38.8415842480001,-94.4862961749999,4,"9200 E 155TH ST, KANSAS CITY, MO, 64149","Match","Exact","9200 E 155TH ST, KANSAS CITY, MO, 64149",642901920,"L"
930005,"9200 E MINERAL AVE SUITE 100","CENTENNIAL","CO",80112,39.574638615,-104.884589444,5,"9200 E MINERAL AVE SUITE 100, CENTENNIAL, CO, 80112","Match","Non_Exact","9200 E MINERAL AVE, CENTENNIAL, CO, 80112",177347790,"R"
930006,"9200 EDGEWORTH DRIVE","CAPITOL HEIGHTS","MD",20743,38.881403843,-76.848930084,6,"9200 EDGEWORTH DRIVE, CAPITOL HEIGHTS, MD, 20743","Match","Exact","9200 EDGEWORTH DR, CAPITOL HEIGHTS, MD, 20743",76341102,"L"
930007,"9200 EDWARDS WAY APT 505","HYATTSVILLE","MD",20783,39.004694773,-76.971020876,7,"9200 EDWARDS WAY APT 505, HYATTSVILLE, MD, 20783","Match","Exact","9200 EDWARDS WAY, HYATTSVILLE, MD, 20783",650130620,"L"
930008,"9200 EDWARDS WAY UNIT 1007","HYATTSVILLE","MD",20783,39.004694773,-76.971020876,8,"9200 EDWARDS WAY UNIT 1007, HYATTSVILLE, MD, 20783","Match","Exact","9200 EDWARDS WAY, HYATTSVILLE, MD, 20783",650130620,"L"
930009,"9200 EDWARDS WAY","HYATTSVILLE","MD",20783,39.004694773,-76.971020876,9,"9200 EDWARDS WAY, HYATTSVILLE, MD, 20783","Match","Exact","9200 EDWARDS WAY, HYATTSVILLE, MD, 20783",650130620,"L"
930010,"9200 FRANCISCO AVE","EVERGREEN PARK","IL",60805,41.726148204,-87.694575264,10,"9200 FRANCISCO AVE, EVERGREEN PARK, IL, 60805","Match","Non_Exact","9200 S FRANCISCO AVE, EVERGREEN PARK, IL, 60805",111821723,"R"
930011,"9200 GAUTIER VANCLEAVE RD","VANCLEAVE","MS",39565,30.473317018,-88.693786586,11,"9200 GAUTIER VANCLEAVE RD, VANCLEAVE, MS, 39565","Match","Exact","9200 GAUTIER VANCLEAVE RD, VANCLEAVE, MS, 39565",89248045,"R"
930012,"9200 HADDON AVE","SUN VALLEY","CA",91352,34.236247979,-118.40243422,12,"9200 HADDON AVE, SUN VALLEY, CA, 91352","Match","Exact","9200 HADDON AVE, SUN VALLEY, CA, 91352",141552164,"R"
930013,"9200 HAMPTON OAKS LANE","CHARLOTTE","NC",28270,35.083588537,-80.761657478,13,"9200 HAMPTON OAKS LANE, CHARLOTTE, NC, 28270","Match","Exact","9200 HAMPTON OAKS LN, CHARLOTTE, NC, 28270",70495482,"R"
930014,"9200 HARTWELL","DETROIT","MI",48228,42.36224851,-83.176379117,14,"9200 HARTWELL, DETROIT, MI, 48228","Match","Non_Exact","9200 HARTWELL ST, DETROIT, MI, 48228",95442201,"R"
930015,"9200 JAMES RIVER AND KANAWHA TPKE","SMOOT","WV",24977,37.9041117420001,-80.652446326,15,"9200 JAMES RIVER AND KANAWHA TPKE, SMOOT, WV, 24977","Match","Exact","9200 JAMES RIVER AND KANAWHA TPKE, SMOOT, WV, 24977",651770118,"L"
930016,"9200 JORDANN LN","CHEYENNE","WY",82009,41.1799680130001,-104.698458527,16,"9200 JORDANN LN, CHEYENNE, WY, 82009","Match","Exact","9200 JORDANN LN, CHEYENNE, WY, 82009",604965330,"L"
930017,"9200 KENTSDALE DRIVE","POTOMAC","MD",20854,39.0088540260001,-77.171122624,17,"9200 KENTSDALE DRIVE, POTOMAC, MD, 20854","Match","Exact","9200 KENTSDALE DR, POTOMAC, MD, 20854",62056978,"L"
930018,"9200 LIVERY LANE APT N","LAUREL","MD",20723,39.1206670030001,-76.841063877,18,"9200 LIVERY LANE APT N, LAUREL, MD, 20723","Match","Exact","9200 LIVERY LN, LAUREL, MD, 20723",158944071,"R"
930019,"9200 MASON VALLEY RD","BENTONVILLE","AR",72713,36.3112965710001,-94.3407662819999,19,"9200 MASON VALLEY RD, BENTONVILLE, AR, 72713","Match","Exact","9200 MASON VALLEY RD, BENTONVILLE, AR, 72713",635425720,"R"
930020,"9200 MEADOW GROVE DRIVE","ELK GROVE","CA",95624,38.4048845770001,-121.35679548,20,"9200 MEADOW GROVE DRIVE, ELK GROVE, CA, 95624","Match","Exact","9200 MEADOW GROVE DR, ELK GROVE, CA, 95624",133355113,"R"
930021,"9200 N HOLLYBROOK LAKE DR APT 109","PEMBROKE PINES","FL",33025,25.995255457,-80.269489945,21,"9200 N HOLLYBROOK LAKE DR APT 109, PEMBROKE PINES, FL, 33025","Match","Non_Exact","9200 S HOLLYBROOK LAKE DR, PEMBROKE PINES, FL, 33025",637689257,"L"
930022,"9200 NEW TRAILS DR SUITE 200","THE WOODLANDS","TX",77381,30.1761474400001,-95.482744118,22,"9200 NEW TRAILS DR SUITE 200, THE WOODLANDS, TX, 77381","Match","Non_Exact","9200 NEW TRAILS DR, THE WOODLANDS, TX, 77381",79324894,"R"
930023,"9200 NORTH PLAZA APT 3402","AUSTIN","TX",78753,30.355049836,-97.685133091,23,"9200 NORTH PLAZA APT 3402, AUSTIN, TX, 78753","Match","Non_Exact","9200 NORTH PLZ, AUSTIN, TX, 78753",642470594,"L"
930024,"9200 NW 12TH AVE","MIAMI","FL",33150,25.858833675,-80.216206422,24,"9200 NW 12TH AVE, MIAMI, FL, 33150","Match","Exact","9200 NW 12TH AVE, MIAMI, FL, 33150",640559489,"L"
930025,"9200 NW 53RD STREET","SUNRISE","FL",33351,26.1886306700001,-80.272647793,25,"9200 NW 53RD STREET, SUNRISE, FL, 33351","Match","Exact","9200 NW 53RD ST, SUNRISE, FL, 33351",114752183,"R"
930026,"9200 OWINGS PARK DRIVE UNIT-P","OWING MILLS","MD",21117,NA,NA,26,"9200 OWINGS PARK DRIVE UNIT-P, OWING MILLS, MD, 21117","No_Match",NA,NA,NA,NA
930027,"9200 POYNTER RD","FORT WORTH","TX",76123,32.608847729,-97.3640556669999,27,"9200 POYNTER RD, FORT WORTH, TX, 76123","Match","Non_Exact","9200 POYNTER ST, FORT WORTH, TX, 76123",102190582,"R"
930028,"9200 POYNTER ST","FORT WORTH","TN",76123,NA,NA,28,"9200 POYNTER ST, FORT WORTH, TN, 76123","No_Match",NA,NA,NA,NA
930029,"9200 POYNTER ST","FORT WORTH","TX",76123,32.608847729,-97.3640556669999,29,"9200 POYNTER ST, FORT WORTH, TX, 76123","Match","Exact","9200 POYNTER ST, FORT WORTH, TX, 76123",102190582,"R"
930030,"9200 REDMOND WOODINVILLE ROAD D322","REDMOND","WA",98052,47.683381985,-122.124141202,30,"9200 REDMOND WOODINVILLE ROAD D322, REDMOND, WA, 98052","Match","Non_Exact","9200 REDMOND WOODINVILLE RD NE, REDMOND, WA, 98052",187058182,"R"
930031,"9200 REDTAIL CT","JACKSONVILLE","FL",32222,30.204435141,-81.8127854159999,31,"9200 REDTAIL CT, JACKSONVILLE, FL, 32222","Match","Exact","9200 REDTAIL CT, JACKSONVILLE, FL, 32222",614100250,"L"
930032,"9200 S CLYDE","CHICAGO","IL",60617,NA,NA,32,"9200 S CLYDE, CHICAGO, IL, 60617","No_Match",NA,NA,NA,NA
930033,"9200 S DADELAND BLVD","MIAMI","FL",33156,NA,NA,33,"9200 S DADELAND BLVD, MIAMI, FL, 33156","No_Match",NA,NA,NA,NA
930034,"9200 S DADELAND BOULEVARD SUITE 508","MIAMI","FL",33156,NA,NA,34,"9200 S DADELAND BOULEVARD SUITE 508, MIAMI, FL, 33156","No_Match",NA,NA,NA,NA
930035,"9200 S DAUPHIN AVE APT 3C","CHICAGO","IL",60619,41.7274106150001,-87.6029638959999,35,"9200 S DAUPHIN AVE APT 3C, CHICAGO, IL, 60619","Match","Non_Exact","9200 S DAUPHIN AVE, CHICAGO, IL, 60619",111776531,"R"
930036,"9200 S FRANCISCO","EVERGREEN PARK","IL",60805,NA,NA,36,"9200 S FRANCISCO, EVERGREEN PARK, IL, 60805","No_Match",NA,NA,NA,NA
930037,"9200 S MERRILL AV","CHICAGO","IL",60617,41.7278788400001,-87.571849325,37,"9200 S MERRILL AV, CHICAGO, IL, 60617","Match","Exact","9200 S MERRILL AVE, CHICAGO, IL, 60617",605549421,"R"
930038,"9200 S VAIL WAY","INGELWOOD","CA",90305,33.9530994730001,-118.331464959,38,"9200 S VAIL WAY, INGELWOOD, CA, 90305","Match","Non_Exact","9200 VAIL WAY, INGLEWOOD, CA, 90305",632052948,"L"
930039,"9200 S VAIL WAY","INGLEWOOD","CA",90305,33.9530994730001,-118.331464959,39,"9200 S VAIL WAY, INGLEWOOD, CA, 90305","Match","Exact","9200 VAIL WAY, INGLEWOOD, CA, 90305",632052948,"L"
930040,"9200 SEARS ROAD","CONCORD","MI",49237,42.1674436930001,-84.579839325,40,"9200 SEARS ROAD, CONCORD, MI, 49237","Match","Exact","9200 SEARS RD, CONCORD, MI, 49237",17632204,"L"
930041,"9200 SHASTA BLVD","LOS MOLINOS","CA",96055,40.060727613,-122.091212137,41,"9200 SHASTA BLVD, LOS MOLINOS, CA, 96055","Match","Exact","9200 SHASTA BLVD, LOS MOLINOS, CA, 96055",119373195,"R"
930042,"9200 SHIRECREST DRIVE","FORT SMITH","AR",72916,NA,NA,42,"9200 SHIRECREST DRIVE, FORT SMITH, AR, 72916","No_Match",NA,NA,NA,NA
930043,"9200 SUMMIT CENTRE WAY","ORLANDO","FL",32810,28.635985498,-81.4043796509999,43,"9200 SUMMIT CENTRE WAY, ORLANDO, FL, 32810","Match","Exact","9200 SUMMIT CENTRE WAY, ORLANDO, FL, 32810",606098078,"R"
930044,"9200 SW 24TH ST","OKLAHOMA CITY","OK",73128,35.4393384460001,-97.6757398729999,44,"9200 SW 24TH ST, OKLAHOMA CITY, OK, 73128","Match","Exact","9200 SW 24TH ST, OKLAHOMA CITY, OK, 73128",92537858,"R"
930045,"9200 SW JAMIESON RD","BEAVERTON","OR",97005,45.4828878070001,-122.772735279,45,"9200 SW JAMIESON RD, BEAVERTON, OR, 97005","Match","Non_Exact","9200 SW JAMIESON CT, BEAVERTON, OR, 97005",158187665,"R"
930046,"9200 SW PARKVIEW LOOP","BEAVERTON","OR",97008,45.454719009,-122.799920632,46,"9200 SW PARKVIEW LOOP, BEAVERTON, OR, 97008","Match","Exact","9200 SW PARKVIEW LOOP, BEAVERTON, OR, 97008",158189425,"L"
930047,"9200 TIDAL LANE APT 206","HAMPTON","VA",23666,37.0478391410001,-76.400157317,47,"9200 TIDAL LANE APT 206, HAMPTON, VA, 23666","Match","Exact","9200 TIDAL LN, HAMPTON, VA, 23666",641047724,"R"
930048,"9200 UNIVERSITY BOULEVARD","N CHARLESTON","SC",29406,32.9771557940001,-80.069790037,48,"9200 UNIVERSITY BOULEVARD, N CHARLESTON, SC, 29406","Match","Non_Exact","9200 UNIVERSITY BLVD, N CHARLESTON, SC, 29423",108887184,"R"
930049,"9200 UNIVERSITY CITY BLVD","CHARLOTTE","NC",28213,35.302533037,-80.728865076,49,"9200 UNIVERSITY CITY BLVD, CHARLOTTE, NC, 28213","Match","Exact","9200 UNIVERSITY CITY BLVD, CHARLOTTE, NC, 28213",642649431,"L"
930050,"9200 VERNON DR","GREAT FALLS","VA",22066,38.9526944680001,-77.2638647759999,50,"9200 VERNON DR, GREAT FALLS, VA, 22066","Match","Exact","9200 VERNON DR, GREAT FALLS, VA, 22066",215923899,"L"
930051,"9200 W BROADWAY AVENUE","BROOKLYN PARK","MN",55445,45.1218958520001,-93.376640756,51,"9200 W BROADWAY AVENUE, BROOKLYN PARK, MN, 55445","Match","Exact","9200 W BROADWAY AVE, BROOKLYN PARK, MN, 55445",43665205,"R"
930052,"9200 W BROGAN DR APT 204","BOISE","ID",83709,43.5440677380001,-116.297100648,52,"9200 W BROGAN DR APT 204, BOISE, ID, 83709","Match","Non_Exact","9200 W BROGAN DR, BOISE, ID, 83709",617936704,"R"
930053,"9200 W WISCONSIN AVE","MILWAUKEE","WI",53226,NA,NA,53,"9200 W WISCONSIN AVE, MILWAUKEE, WI, 53226","No_Match",NA,NA,NA,NA
930054,"9200 WALSINGHAM ROAD","LARGO","FL",33773,27.8798056360001,-82.7661148719999,54,"9200 WALSINGHAM ROAD, LARGO, FL, 33773","Match","Exact","9200 WALSINGHAM RD, LARGO, FL, 33773",124677827,"L"
930055,"9200 WEST 280TH STREET","NEW PRAGUE","MN",56071,44.5434343590001,-93.7121580259999,55,"9200 WEST 280TH STREET, NEW PRAGUE, MN, 56071","Match","Exact","9200 W 280TH ST, NEW PRAGUE, MN, 56071",28655511,"L"
930056,"9200 WESTHEIMER RD 606","HOUSTON","TX",77063,NA,NA,56,"9200 WESTHEIMER RD 606, HOUSTON, TX, 77063","No_Match",NA,NA,NA,NA
930057,"9200 WESTHEIMER RD APT 1102","HOUSTON","TX",77063,NA,NA,57,"9200 WESTHEIMER RD APT 1102, HOUSTON, TX, 77063","No_Match",NA,NA,NA,NA
930058,"9200 WESTHEIMER RD APT 1209","HOUSTON","TX",77063,NA,NA,58,"9200 WESTHEIMER RD APT 1209, HOUSTON, TX, 77063","No_Match",NA,NA,NA,NA
930059,"9200 WESTMINSTER BLVD  UNIT 4","WESTMINSTER","CA",92683,33.7594074830001,-117.971657494,59,"9200 WESTMINSTER BLVD  UNIT 4, WESTMINSTER, CA, 92683","Match","Non_Exact","9200 WESTMINISTER BLVD, WESTMINSTER, CA, 92683",636432300,"R"
930060,"9200 WOODHALL BAY","BROOKLYN PARK","MN",55443,45.121605367,-93.351902003,60,"9200 WOODHALL BAY, BROOKLYN PARK, MN, 55443","Match","Exact","9200 WOODHALL BAY, BROOKLYN PARK, MN, 55443",43854387,"R"
930061,"9201 122ND CT NE G148","KIRKLAND","WA",98033,47.6840710650001,-122.177711764,61,"9201 122ND CT NE G148, KIRKLAND, WA, 98033","Match","Exact","9201 122ND CT NE, KIRKLAND, WA, 98033",645931526,"L"
930062,"9201 3RD AVE S","BLOOMINGTON","MN",55420,44.8368194650001,-93.273345853,62,"9201 3RD AVE S, BLOOMINGTON, MN, 55420","Match","Exact","9201 3RD AVE S, BLOOMINGTON, MN, 55420",43596334,"L"
930063,"9201 75TH AVE N","BROOKLYN PARK","MN",55428,45.090088715,-93.399456892,63,"9201 75TH AVE N, BROOKLYN PARK, MN, 55428","Match","Exact","9201 75TH AVE N, BROOKLYN PARK, MN, 55428",43850708,"L"
930064,"9201 8TH AVE NE","SEATTLE","WA",98115,47.695920141,-122.320334815,64,"9201 8TH AVE NE, SEATTLE, WA, 98115","Match","Exact","9201 8TH AVE NE, SEATTLE, WA, 98115",186580092,"L"
930065,"9201 ALLISON LANE","OKLAHOMA CITY","OK",73151,35.5645278650001,-97.4049401,65,"9201 ALLISON LANE, OKLAHOMA CITY, OK, 73151","Match","Exact","9201 ALLISON LN, OKLAHOMA CITY, OK, 73151",100433986,"L"
930066,"9201 ARBORETUM PARKWAY","RICHMOND","VA",23236,37.494819061,-77.570622788,66,"9201 ARBORETUM PARKWAY, RICHMOND, VA, 23236","Match","Exact","9201 ARBORETUM PKWY, RICHMOND, VA, 23236",223164724,"L"
930067,"9201 ARNOLD AVE NW","MONTICELLO","MN",55362,45.2849356150001,-93.9070689659999,67,"9201 ARNOLD AVE NW, MONTICELLO, MN, 55362","Match","Exact","9201 ARNOLD AVE NW, MONTICELLO, MN, 55362",43987080,"R"
930068,"9201 BARROWS RIDGE COURT","CHESTERFIELD","VA",23838,37.344064045,-77.554579555,68,"9201 BARROWS RIDGE COURT, CHESTERFIELD, VA, 23838","Match","Exact","9201 BARROWS RIDGE CT, CHESTERFIELD, VA, 23838",642417816,"L"
930069,"9201 BELLGROVE COURT","KILLEEN","TX",76542,31.0475688060001,-97.722595482,69,"9201 BELLGROVE COURT, KILLEEN, TX, 76542","Match","Exact","9201 BELLGROVE CT, KILLEEN, TX, 76542",632060351,"L"
930070,"9201 BRINT RD","SYLVANIA","OH",43560,41.702062568,-83.764594,70,"9201 BRINT RD, SYLVANIA, OH, 43560","Match","Exact","9201 BRINT RD, SYLVANIA, OH, 43560",33924900,"L"
930071,"9201 BRINT","SYLVANIA","OH",43560,41.702062568,-83.764594,71,"9201 BRINT, SYLVANIA, OH, 43560","Match","Non_Exact","9201 BRINT RD, SYLVANIA, OH, 43560",33924900,"L"
930072,"9201 COMPTON ST","DENTON","TX",76207,33.140013954,-97.246874399,72,"9201 COMPTON ST, DENTON, TX, 76207","Match","Exact","9201 COMPTON ST, DENTON, TX, 76207",625185391,"R"
930073,"9201 CORAL","ST. LOUIS","MO",63123,38.551747075,-90.315540907,73,"9201 CORAL, ST. LOUIS, MO, 63123","Match","Non_Exact","9201 CORAL DR, SAINT LOUIS, MO, 63123",100153856,"R"
930074,"9201 E CENTRAL ST","KANSAS CITY","MO",64114,38.961631934,-94.5937539719999,74,"9201 E CENTRAL ST, KANSAS CITY, MO, 64114","Match","Exact","9201 CENTRAL ST, KANSAS CITY, MO, 64114",91491563,"L"
930075,"9201 E STELLA RD","TUCSON","AZ",85730,32.1845504780001,-110.796026785,75,"9201 E STELLA RD, TUCSON, AZ, 85730","Match","Exact","9201 E STELLA RD, TUCSON, AZ, 85730",606833050,"L"
930076,"9201 E WHIPSAW LA","PRESCOTT VALLEY","AZ",86314,34.612211513,-112.304026225,76,"9201 E WHIPSAW LA, PRESCOTT VALLEY, AZ, 86314","Match","Exact","9201 E WHIPSAW LN, PRESCOTT VALLEY, AZ, 86314",159460462,"R"
930077,"9201 E WHIPSAW LANE","PRESCOTT VALLEY","AZ",86314,34.612211513,-112.304026225,77,"9201 E WHIPSAW LANE, PRESCOTT VALLEY, AZ, 86314","Match","Exact","9201 E WHIPSAW LN, PRESCOTT VALLEY, AZ, 86314",159460462,"R"
930078,"9201 EAST MISSISSIPPI AVE APT 6","DENVER","CO",80247,39.696561827,-104.880975178,78,"9201 EAST MISSISSIPPI AVE APT 6, DENVER, CO, 80247","Match","Exact","9201 E MISSISSIPPI AVE, DENVER, CO, 80247",177527973,"L"
930079,"9201 EAST MISSISSIPPI AVENUE","DENVER","CO",80247,39.696561827,-104.880975178,79,"9201 EAST MISSISSIPPI AVENUE, DENVER, CO, 80247","Match","Exact","9201 E MISSISSIPPI AVE, DENVER, CO, 80247",177527973,"L"
930080,"9201 EAST WOOD AVE","CROSS ROADS","TX",76227,33.211012419,-96.97664675,80,"9201 EAST WOOD AVE, CROSS ROADS, TX, 76227","Match","Non_Exact","9201 EASTWOOD AVE, CROSSROADS, TX, 76227",641507853,"R"
930081,"9201 EDGEVALE DRIVE","CHARLOTTE","NC",28216,35.320232506,-80.860711162,81,"9201 EDGEVALE DRIVE, CHARLOTTE, NC, 28216","Match","Exact","9201 EDGEVALE DR, CHARLOTTE, NC, 28216",70471447,"L"
930082,"9201 EDGEWOOD DRIVE UNIT 4904","CAPITOL HEIGHTS","MD",20790,NA,NA,82,"9201 EDGEWOOD DRIVE UNIT 4904, CAPITOL HEIGHTS, MD, 20790","No_Match",NA,NA,NA,NA
930083,"9201 FORSHEY STREET","NEW ORLEANS","LA",70118,29.96984174,-90.1227507999999,83,"9201 FORSHEY STREET, NEW ORLEANS, LA, 70118","Match","Exact","9201 FORSHEY ST, NEW ORLEANS, LA, 70118",191700558,"R"
930084,"9201 GARLAND LN N APT B 208","MAPLE GROVE","MN",55311,45.1222825350001,-93.495289364,84,"9201 GARLAND LN N APT B 208, MAPLE GROVE, MN, 55311","Match","Exact","9201 GARLAND LN N, MAPLE GROVE, MN, 55311",637623136,"R"
930085,"9201 HOPELAND DR","AUSTIN","TX",78749,30.206891195,-97.88633228,85,"9201 HOPELAND DR, AUSTIN, TX, 78749","Match","Exact","9201 HOPELAND DR, AUSTIN, TX, 78749",64033917,"L"
930086,"9201 HOPELAND DRIVE","AUSTIN","TX",78749,30.206891195,-97.88633228,86,"9201 HOPELAND DRIVE, AUSTIN, TX, 78749","Match","Exact","9201 HOPELAND DR, AUSTIN, TX, 78749",64033917,"L"
930087,"9201 JOHNSON DRIVE","SHERWOOD","AR",72120,34.8482950060001,-92.2072353039999,87,"9201 JOHNSON DRIVE, SHERWOOD, AR, 72120","Match","Exact","9201 JOHNSON DR, SHERWOOD, AR, 72120",618993158,"L"
930088,"9201 KANIS RD APT 7H","LITTLE ROCK","AR",72205,34.741405366,-92.376771025,88,"9201 KANIS RD APT 7H, LITTLE ROCK, AR, 72205","Match","Exact","9201 KANIS RD, LITTLE ROCK, AR, 72205",641821340,"L"
930089,"9201 LEATHERWOOD ROAD","GUILFORD","IN",47022,39.201629365,-84.986169129,89,"9201 LEATHERWOOD ROAD, GUILFORD, IN, 47022","Match","Exact","9201 LEATHERWOOD RD, GUILFORD, IN, 47022",647749139,"L"
930090,"9201 LILY LAKE ROAD","WASILLA","AK",99623,61.57051584,-149.681786508,90,"9201 LILY LAKE ROAD, WASILLA, AK, 99623","Match","Non_Exact","9201 W LILLY LAKE RD, WASILLA, AK, 99623",191077677,"L"
930091,"9201 LINN STATION RD","HURSTBOURNE","KY",40222,38.2290465230001,-85.5812563269999,91,"9201 LINN STATION RD, HURSTBOURNE, KY, 40222","Match","Exact","9201 LINN STATION RD, HURSTBOURNE, KY, 40222",611525057,"L"
930092,"9201 MASON AVE","MORTON GROVE","IL",60053,42.0483205040001,-87.7749357549999,92,"9201 MASON AVE, MORTON GROVE, IL, 60053","Match","Exact","9201 MASON AVE, MORTON GROVE, IL, 60053",111735167,"R"
930093,"9201 MELRUDE ROAD","COTTON","MN",55724,47.196525637,-92.4145215,93,"9201 MELRUDE ROAD, COTTON, MN, 55724","Match","Exact","9201 MELRUDE RD, COTTON, MN, 55724",651319010,"L"
930094,"9201 MILLENIUM DR","WILLINGBORO","NJ",8046,40.052879794,-74.8880447989999,94,"9201 MILLENIUM DR, WILLINGBORO, NJ, 8046","Match","Exact","9201 MILLENIUM DR, WILLINGBORO, NJ, 08046",645316335,"R"
930095,"9201 N 7TH AVENUE","PHOENIX","AZ",85021,33.569966047,-112.082503146,95,"9201 N 7TH AVENUE, PHOENIX, AZ, 85021","Match","Exact","9201 N 7TH AVE, PHOENIX, AZ, 85021",128585355,"R"
930096,"9201 N INDIANA AVE","KANSAS CITY","MO",64156,39.260525478,-94.5388966039999,96,"9201 N INDIANA AVE, KANSAS CITY, MO, 64156","Match","Exact","9201 INDIANA AVE, KANSAS CITY, MO, 64156",89787288,"R"
930097,"9201 NW 78TH ST","WEATHERBY LAKE","MO",64152,39.2371540610001,-94.68778317,97,"9201 NW 78TH ST, WEATHERBY LAKE, MO, 64152","Match","Exact","9201 NW 78TH ST, WEATHERBY LAKE, MO, 64152",39692486,"R"
930098,"9201 NYE AVE SE","SNOQUALMIE,","WA",98065,47.517684849,-121.88400167,98,"9201 NYE AVE SE, SNOQUALMIE,, WA, 98065","Match","Exact","9201 NYE AVE SE, SNOQUALMIE, WA, 98065",651299829,"L"
930099,"9201 PADDOCK LANE","POTOMAC","MD",20854,39.065144102,-77.1886446249999,99,"9201 PADDOCK LANE, POTOMAC, MD, 20854","Match","Exact","9201 PADDOCK LN, POTOMAC, MD, 20854",62053642,"R"
930100,"9201 PINE VIEW LANE","CLINTON","MD",20735,38.7630997840001,-76.8880716,100,"9201 PINE VIEW LANE, CLINTON, MD, 20735","Match","Exact","9201 PINE VIEW LN, CLINTON, MD, 20735",76358035,"R"
930101,"9201 PRINCE WILLIAMS AVE APT 514","MANASSAS","VA",20110,NA,NA,101,"9201 PRINCE WILLIAMS AVE APT 514, MANASSAS, VA, 20110","No_Match",NA,NA,NA,NA
930102,"9201 QUAIL HILL CIRCLE","AUSTIN","TX",78758,30.3648403820001,-97.7041618009999,102,"9201 QUAIL HILL CIRCLE, AUSTIN, TX, 78758","Match","Exact","9201 QUAIL HILL CIR, AUSTIN, TX, 78758",63930592,"R"
930103,"9201 QUAIL WOOD DR","AUSTIN","TX",78758,30.3652055750001,-97.705160893,103,"9201 QUAIL WOOD DR, AUSTIN, TX, 78758","Match","Exact","9201 QUAIL WOOD DR, AUSTIN, TX, 78758",63982480,"R"
930104,"9201 QUINTANA DRIVE","BETHESDA","MD",20817,NA,NA,104,"9201 QUINTANA DRIVE, BETHESDA, MD, 20817","No_Match",NA,NA,NA,NA
930105,"9201 S AVENIDA DEL YAQUI STE 25","GUADALUPE","AZ",85283,33.363586748,-111.963102202,105,"9201 S AVENIDA DEL YAQUI STE 25, GUADALUPE, AZ, 85283","Match","Non_Exact","9201 S AVE DEL YAQUI, GUADALUPE, AZ, 85283",128236787,"L"
930106,"9201 S AVENIDA DEL YAQUI STE","GUADALUPE","AZ",85283,33.363586748,-111.963102202,106,"9201 S AVENIDA DEL YAQUI STE, GUADALUPE, AZ, 85283","Match","Non_Exact","9201 S AVE DEL YAQUI, GUADALUPE, AZ, 85283",128236787,"L"
930107,"9201 S CENTRAL PARK","EVERGREEN PARK","IL",60805,41.725958889,-87.711737587,107,"9201 S CENTRAL PARK, EVERGREEN PARK, IL, 60805","Match","Non_Exact","9201 CENTRAL PARK AVE, EVERGREEN PARK, IL, 60805",111818764,"L"
930108,"9201 S MERRILL AVE","CHICAGO","IL",60617,41.727879113,-87.571834638,108,"9201 S MERRILL AVE, CHICAGO, IL, 60617","Match","Exact","9201 S MERRILL AVE, CHICAGO, IL, 60617",605549421,"L"
930109,"9201 S PALO VERDE RD","BUCKEYE","AZ",85326,33.3628452500001,-112.677055545,109,"9201 S PALO VERDE RD, BUCKEYE, AZ, 85326","Match","Exact","9201 S PALO VERDE RD, BUCKEYE, AZ, 85326",128123955,"R"
930110,"9201 S WENTWORTH AVENUE","CHICAGO","IL",60620,41.726984927,-87.62879523,110,"9201 S WENTWORTH AVENUE, CHICAGO, IL, 60620","Match","Exact","9201 S WENTWORTH AVE, CHICAGO, IL, 60620",112383822,"L"
930111,"9201 SANDY CREEK ROAD","FORT WASHINGTON","MD",20744,38.764058877,-77.008857357,111,"9201 SANDY CREEK ROAD, FORT WASHINGTON, MD, 20744","Match","Exact","9201 SANDY CREEK RD, FT WASHINGTON, MD, 20744",76348874,"R"
930112,"9201 SE 52ND AVE","PORTLAND","OR",97206,NA,NA,112,"9201 SE 52ND AVE, PORTLAND, OR, 97206","No_Match",NA,NA,NA,NA
930113,"9201 SEVILLE ROAD","FORT MYERS","FL",33967,26.4639785050001,-81.7988790049999,113,"9201 SEVILLE ROAD, FORT MYERS, FL, 33967","Match","Exact","9201 SEVILLE RD, FORT MYERS, FL, 33967",117978841,"R"
930114,"9201 SOUTH KARLOV AVE","OAK LAWN","IL",60453,41.7256683780001,-87.7243111509999,114,"9201 SOUTH KARLOV AVE, OAK LAWN, IL, 60453","Match","Exact","9201 S KARLOV AVE, OAK LAWN, IL, 60453",111818476,"L"
930115,"9201 SUNSET BLVD SUITE 812","LOS ANGELES","CA",90069,34.0897280840001,-118.393696656,115,"9201 SUNSET BLVD SUITE 812, LOS ANGELES, CA, 90069","Match","Exact","9201 SUNSET BLVD, LOS ANGELES, CA, 90069",646914025,"R"
930116,"9201 SW 25TH STREET","OKLAHOMA CITY","OK",73128,35.438494318,-97.67527964,116,"9201 SW 25TH STREET, OKLAHOMA CITY, OK, 73128","Match","Exact","9201 SW 25TH ST, OKLAHOMA CITY, OK, 73128",92536051,"L"
930117,"9201 UNIVERSITY BLVD MARTIN HALL 4","RALEIGH","NC",28223,NA,NA,117,"9201 UNIVERSITY BLVD MARTIN HALL 4, RALEIGH, NC, 28223","No_Match",NA,NA,NA,NA
930118,"9201 UNIVERSITY CITY BLVD C3065B","CHARLOTTE","NC",28223,35.300017241,-80.7343124289999,118,"9201 UNIVERSITY CITY BLVD C3065B, CHARLOTTE, NC, 28223","Match","Non_Exact","9201 UNIVERSITY CITY BLVD, CHARLOTTE, NC, 28213",642330839,"L"
930119,"9201 UNIVERSITY CITY BLVD LYNCH HAL","CHARLOTTE","NC",28223,35.300017241,-80.7343124289999,119,"9201 UNIVERSITY CITY BLVD LYNCH HAL, CHARLOTTE, NC, 28223","Match","Non_Exact","9201 UNIVERSITY CITY BLVD, CHARLOTTE, NC, 28213",642330839,"L"
930120,"9201 UNIVERSITY CITY BLVD","CHARLITTE","NC",28223,35.300017241,-80.7343124289999,120,"9201 UNIVERSITY CITY BLVD, CHARLITTE, NC, 28223","Match","Non_Exact","9201 UNIVERSITY CITY BLVD, CHARLOTTE, NC, 28213",642330839,"L"
930121,"9201 UNIVERSITY CITY BLVD","CHARLOTTE","NC",28223,35.300017241,-80.7343124289999,121,"9201 UNIVERSITY CITY BLVD, CHARLOTTE, NC, 28223","Match","Non_Exact","9201 UNIVERSITY CITY BLVD, CHARLOTTE, NC, 28213",642330839,"L"
930122,"9201 US HWY 33 E","LINN","WV",26384,39.0044996730001,-80.7194587079999,122,"9201 US HWY 33 E, LINN, WV, 26384","Match","Exact","9201 US HWY 33 E, LINN, WV, 26384",49982483,"L"
930123,"9201 UUNIVERSITY CITY BLVD","CHARLOTTE","NC",28223,NA,NA,123,"9201 UUNIVERSITY CITY BLVD, CHARLOTTE, NC, 28223","No_Match",NA,NA,NA,NA
930124,"9201 W 112TH STREET","OVERLAND PARK","KS",66210,38.9260207830001,-94.692888623,124,"9201 W 112TH STREET, OVERLAND PARK, KS, 66210","Match","Exact","9201 W 112TH ST, OVERLAND PARK, KS, 66210",91277438,"R"
930125,"9201 WARM SPRING CIR","PLANO","TX",75024,33.1040544350001,-96.772489886,125,"9201 WARM SPRING CIR, PLANO, TX, 75024","Match","Exact","9201 WARM SPRINGS CIR, PLANO, TX, 75024",123567655,"L"
930126,"9201 WARREN PKWY STE 273","FRISCO","TX",75035,33.109004746,-96.803349176,126,"9201 WARREN PKWY STE 273, FRISCO, TX, 75035","Match","Exact","9201 WARREN PKWY, FRISCO, TX, 75035",619982039,"R"
930127,"9201 WARREN PKWY STE 300 200","FRISCO","TX",75035,33.109004746,-96.803349176,127,"9201 WARREN PKWY STE 300 200, FRISCO, TX, 75035","Match","Exact","9201 WARREN PKWY, FRISCO, TX, 75035",619982039,"R"
930128,"9201 WESLEY ST STE B","GREENVILLE","TX",75402,33.081072589,-96.108661834,128,"9201 WESLEY ST STE B, GREENVILLE, TX, 75402","Match","Exact","9201 WESLEY ST, GREENVILLE, TX, 75402",42865429,"R"
930129,"9201 WOODHALL LAKE DRIVE","WAXHAW","NC",28173,34.9770732420001,-80.8046901879999,129,"9201 WOODHALL LAKE DRIVE, WAXHAW, NC, 28173","Match","Exact","9201 WOODHALL LAKE DR, WAXHAW, NC, 28173",620017933,"L"
930130,"9201","SUNRISE","FL",33322,NA,NA,130,"9201, SUNRISE, FL, 33322","No_Match",NA,NA,NA,NA
930131,"9202 206TH STREET COURT EAST","GRAHAM","WA",98338,47.0690751240001,-122.30753271,131,"9202 206TH STREET COURT EAST, GRAHAM, WA, 98338","Match","Exact","9202 206TH STREET CT E, GRAHAM, WA, 98338",184682146,"R"
930132,"9202 229TH AVE E","BUCKLEY","WA",98321,47.173591566,-122.123498727,132,"9202 229TH AVE E, BUCKLEY, WA, 98321","Match","Exact","9202 229 AVE E, BUCKLEY, WA, 98321",623980838,"R"
930133,"9202 BREEDEN DRIVE","BATON ROUGE","LA",70811,30.5311164230001,-91.1052346449999,133,"9202 BREEDEN DRIVE, BATON ROUGE, LA, 70811","Match","Exact","9202 BREEDEN DR, BATON ROUGE, LA, 70811",606192451,"R"
930134,"9202 COLLINGTON SQUARE","ALLISON PARK","PA",15101,40.572692977,-79.9983512159999,134,"9202 COLLINGTON SQUARE, ALLISON PARK, PA, 15101","Match","Exact","9202 COLLINGTON SQ, ALLISON PARK, PA, 15101",629097718,"L"
930135,"9202 COLLINGWOOD LN","ALPHARETTA","GA",30022,NA,NA,135,"9202 COLLINGWOOD LN, ALPHARETTA, GA, 30022","No_Match",NA,NA,NA,NA
930136,"9202 CONWAY COURT","FISHERS","IN",46037,39.9314488200001,-86.005868972,136,"9202 CONWAY COURT, FISHERS, IN, 46037","Match","Exact","9202 CONWAY CT, FISHERS, IN, 46037",29324390,"L"
930137,"9202 CREST HILL COURT","GILROY","CA",95020,37.025016699,-121.608992068,137,"9202 CREST HILL COURT, GILROY, CA, 95020","Match","Exact","9202 CREST HILL CT, GILROY, CA, 95020",649614241,"L"
930138,"9202 CRUTCHFIELD LANE","BOWIE","MD",20720,39.0154579540001,-76.778276969,138,"9202 CRUTCHFIELD LANE, BOWIE, MD, 20720","Match","Exact","9202 CRUTCHFIELD LN, BOWIE, MD, 20720",76416159,"L"
930139,"9202 DARNELL LANE","SHAWNEE MISSION","KS",66215,38.9618785760001,-94.759216634,139,"9202 DARNELL LANE, SHAWNEE MISSION, KS, 66215","Match","Non_Exact","9202 DARNELL ST, SHAWNEE MISSION, KS, 66215",91270924,"R"
930140,"9202 E RIVER DRIVE","NAVARRE","FL",52466,30.4244754000001,-86.836639298,140,"9202 E RIVER DRIVE, NAVARRE, FL, 52466","Match","Non_Exact","9202 E RIVER DR, NAVARRE, FL, 32566",624110977,"L"
930141,"9202 FIVE FORKS ST","SAN ANTONIO","TX",78245,29.4143085650001,-98.6651807699999,141,"9202 FIVE FORKS ST, SAN ANTONIO, TX, 78245","Match","Exact","9202 FIVE FORKS ST, SAN ANTONIO, TX, 78245",101505753,"L"
930142,"9202 FRY ST APT 205","MANASSAS","VA",20110,38.7361533700001,-77.4713143769999,142,"9202 FRY ST APT 205, MANASSAS, VA, 20110","Match","Exact","9202 FRY ST, MANASSAS, VA, 20110",76513956,"L"
930143,"9202 HOWARD AVENUE","FORT HOWARD","MD",21052,39.2089878580001,-76.442917797,143,"9202 HOWARD AVENUE, FORT HOWARD, MD, 21052","Match","Exact","9202 HOWARD AVE, FORT HOWARD, MD, 21052",633273707,"R"
930144,"9202 LASATER","SAN ANTONIO","TX",78254,29.5289881940001,-98.6566293069999,144,"9202 LASATER, SAN ANTONIO, TX, 78254","Match","Non_Exact","9202 LASATER ST, SAN ANTONIO, TX, 78254",101489362,"R"
930145,"9202 LEMONA DRIVE","SAINT LOUIS","MO",63123,38.54137467,-90.315977521,145,"9202 LEMONA DRIVE, SAINT LOUIS, MO, 63123","Match","Exact","9202 LEMONA DR, SAINT LOUIS, MO, 63123",100154104,"L"
930146,"9202 LONG BRANCH PARKWAY","SILVER SPRING","MD",20901,39.0055372950001,-76.999318293,146,"9202 LONG BRANCH PARKWAY, SILVER SPRING, MD, 20901","Match","Exact","9202 LONG BRANCH PKWY, SILVER SPRING, MD, 20901",62089466,"L"
930147,"9202 MARKHAM RD","MANVEL","TX",77578,29.4687568360001,-95.3249730159999,147,"9202 MARKHAM RD, MANVEL, TX, 77578","Match","Exact","9202 MARKHAM RD, MANVEL, TX, 77578",116607360,"R"
930148,"9202 MEMORIAL GROVE DR","SPRING","TX",77379,30.0280424010001,-95.559899267,148,"9202 MEMORIAL GROVE DR, SPRING, TX, 77379","Match","Exact","9202 MEMORIAL GROVE DR, SPRING, TX, 77379",96170147,"R"
930149,"9202 MOONSTONE DR","AUSTIN","TX",78729,NA,NA,149,"9202 MOONSTONE DR, AUSTIN, TX, 78729","No_Match",NA,NA,NA,NA
930150,"9202 OAK HILLS AVE","BAKERSFIELD","CA",93312,35.421473328,-119.104129673,150,"9202 OAK HILLS AVE, BAKERSFIELD, CA, 93312","Match","Exact","9202 OAK HILLS AVE, BAKERSFIELD, CA, 93312",640632811,"R"
930151,"9202 RODEO DRIVE","IRVING","TX",75063,32.933127615,-96.955344612,151,"9202 RODEO DRIVE, IRVING, TX, 75063","Match","Exact","9202 RODEO DR, IRVING, TX, 75063",638656308,"R"
930152,"9202 ROY BEAN DRIVE","HOUSTON","TX",77041,29.837802937,-95.518425549,152,"9202 ROY BEAN DRIVE, HOUSTON, TX, 77041","Match","Exact","9202 ROY BEAN DR, HOUSTON, TX, 77041",96025455,"R"
930153,"9202 S HEATHER DRIVE","TEMPE","AZ",85284,33.3292923180001,-111.910498261,153,"9202 S HEATHER DRIVE, TEMPE, AZ, 85284","Match","Exact","9202 S HEATHER DR, TEMPE, AZ, 85284",128941455,"L"
930154,"9202 SHAFERS MILL DR","FREDERICK","MD",21704,39.3417043170001,-77.3430417549999,154,"9202 SHAFERS MILL DR, FREDERICK, MD, 21704","Match","Exact","9202 SHAFERS MILL DR, FREDERICK, MD, 21704",608292505,"L"
930155,"9202 SKIPPING STONE LN","HOUSTON","TX",77064,29.9048900720001,-95.560045848,155,"9202 SKIPPING STONE LN, HOUSTON, TX, 77064","Match","Exact","9202 SKIPPING STONE LN, HOUSTON, TX, 77064",96227684,"L"
930156,"9202 SUNNYOAK DRIVE","RIVERVIEW","FL",33569,27.8604080320001,-82.297201991,156,"9202 SUNNYOAK DRIVE, RIVERVIEW, FL, 33569","Match","Exact","9202 SUNNYOAK DR, RIVERVIEW, FL, 33569",104600654,"R"
930157,"9202 VENTURE CT","MANASSAS PARKER","VA",20111,38.771179117,-77.439371744,157,"9202 VENTURE CT, MANASSAS PARKER, VA, 20111","Match","Non_Exact","9202 VENTURE CT, MANASSAS PARK, VA, 20111",76548873,"R"
930158,"9202 W CAMBRIDGE AVE","PHOENIX","AZ",85037,33.476583621,-112.256893928,158,"9202 W CAMBRIDGE AVE, PHOENIX, AZ, 85037","Match","Exact","9202 W CAMBRIDGE AVE, PHOENIX, AZ, 85037",244018222,"L"
930159,"9202 WELLSWORTH DR","HOUSTON","TX",77083,29.6796403290001,-95.62631327,159,"9202 WELLSWORTH DR, HOUSTON, TX, 77083","Match","Exact","9202 WELLSWORTH DR, HOUSTON, TX, 77083",96560194,"R"
930160,"9202 WINDMILL ROAD","PASO ROBLES","CA",93446,35.7280291540001,-120.860025003,160,"9202 WINDMILL ROAD, PASO ROBLES, CA, 93446","Match","Exact","9202 WINDMILL RD, PASO ROBLES, CA, 93446",109845342,"R"
930161,"92027 GLASGOW DRIVE","ASTORIA","OR",97103,46.1432915510001,-123.804332561,161,"92027 GLASGOW DRIVE, ASTORIA, OR, 97103","Match","Exact","92027 GLASGOW DR, ASTORIA, OR, 97103",159222187,"R"
930162,"9203 24TH COURT SE","OLYMIA","WA",98513,47.0255771290001,-122.745030188,162,"9203 24TH COURT SE, OLYMIA, WA, 98513","Match","Non_Exact","9203 24TH CT SE, OLYMPIA, WA, 98513",180971422,"R"
930163,"9203 ALTA OAKS DR","DALLAS","TX",75243,32.906244777,-96.740316738,163,"9203 ALTA OAKS DR, DALLAS, TX, 75243","Match","Exact","9203 ALTA OAKS DR, DALLAS, TX, 75243",102914708,"L"
930164,"9203 ASH LAND CT","PEWEE VALLEY","KY",40056,38.2919253050001,-85.473108149,164,"9203 ASH LAND CT, PEWEE VALLEY, KY, 40056","Match","Exact","9203 ASH LAND CT, PEWEE VALLEY, KY, 40056",624258632,"R"
930165,"9203 CENTRAL BLVD SE","WINNABOW","NC",28479,34.1541939140001,-77.992407063,165,"9203 CENTRAL BLVD SE, WINNABOW, NC, 28479","Match","Exact","9203 CENTRAL BLVD SE, WINNABOW, NC, 28479",153153646,"L"
930166,"9203 CHASTAIN PLACE","CORDOVA","TN",38018,35.1558470590001,-89.7561723159999,166,"9203 CHASTAIN PLACE, CORDOVA, TN, 38018","Match","Exact","9203 CHASTAIN PL, CORDOVA, TN, 38018",611498102,"R"
930167,"9203 CR 445","JAY","OK",74346,36.368216482,-94.844127051,167,"9203 CR 445, JAY, OK, 74346","Match","Exact","9203 CO RD 445, JAY, OK, 74346",613664639,"R"
930168,"9203 DAIRY VIEW LANE","HOUSTON","TX",77099,29.679116487,-95.599562882,168,"9203 DAIRY VIEW LANE, HOUSTON, TX, 77099","Match","Exact","9203 DAIRY VIEW LN, HOUSTON, TX, 77099",96603006,"L"
930169,"9203 DEWBERRY LANE","COLLEGE PARK","MD",20740,39.0077014550001,-76.9519488079999,169,"9203 DEWBERRY LANE, COLLEGE PARK, MD, 20740","Match","Exact","9203 DEWBERRY LN, COLLEGE PARK, MD, 20740",76324639,"R"
930170,"9203 FLORIDA AVENUE","PITTSBURGH","PA",15235,40.4653920920001,-79.8621820709999,170,"9203 FLORIDA AVENUE, PITTSBURGH, PA, 15235","Match","Exact","9203 FLORIDA AVE, PITTSBURGH, PA, 15235",51937711,"L"
930171,"9203 FONTAINEBLEAU BLDG 6","MIAMI","FL",33172,25.7736243800001,-80.3429438919999,171,"9203 FONTAINEBLEAU BLDG 6, MIAMI, FL, 33172","Match","Non_Exact","9203 FONTAINEBLEAU BLVD, MIAMI, FL, 33172",629016745,"L"
930172,"9203 FOREST HAVEN DR","ALEXANDRIA","VA",22309,38.707949039,-77.11040345,172,"9203 FOREST HAVEN DR, ALEXANDRIA, VA, 22309","Match","Exact","9203 FOREST HAVEN DR, ALEXANDRIA, VA, 22309",76052160,"L"
930173,"9203 GAMBIER DR","SAN ANTONIO","TX",78250,29.525435562,-98.677722103,173,"9203 GAMBIER DR, SAN ANTONIO, TX, 78250","Match","Exact","9203 GAMBIER DR, SAN ANTONIO, TX, 78250",638592199,"R"
930174,"9203 GLEN FOREST DR","GREENVILLE","SC",29607,34.850680385,-82.341478071,174,"9203 GLEN FOREST DR, GREENVILLE, SC, 29607","Match","Exact","9203 GLEN FOREST DR, GREENVILLE, SC, 29607",38368490,"R"
930175,"9203 HWY 6 SOUTH SUITE 124-236","HOUSTON","TX",77083,NA,NA,175,"9203 HWY 6 SOUTH SUITE 124-236, HOUSTON, TX, 77083","No_Match",NA,NA,NA,NA
930176,"9203 IVANHOE RD","FORT WASHINGTON","MD",20744,38.7616662660001,-77.023275036,176,"9203 IVANHOE RD, FORT WASHINGTON, MD, 20744","Match","Exact","9203 IVANHOE RD, FT WASHINGTON, MD, 20744",76302061,"R"
930177,"9203 LINN STATION ROAD","LOUISVILLE","KY",40222,38.229043007,-85.581205661,177,"9203 LINN STATION ROAD, LOUISVILLE, KY, 40222","Match","Exact","9203 LINN STATION RD, LOUISVILLE, KY, 40222",611525057,"L"
930178,"9203 LUCCHESI DRIVE","SACRAMENTO","CA",95829,38.4563063640001,-121.357615007,178,"9203 LUCCHESI DRIVE, SACRAMENTO, CA, 95829","Match","Exact","9203 LUCCHESI DR, SACRAMENTO, CA, 95829",133406083,"L"
930179,"9203 MARSH DRIVE","AUSTIN","TX",78748,30.184288855,-97.829773492,179,"9203 MARSH DRIVE, AUSTIN, TX, 78748","Match","Exact","9203 MARSH DR, AUSTIN, TX, 78748",63940008,"L"
930180,"9203 MICHAELS LANE","MARCY","NY",13403,43.186130731,-75.27562323,180,"9203 MICHAELS LANE, MARCY, NY, 13403","Match","Exact","9203 MICHAELS LN, MARCY, NY, 13403",637726235,"L"
930181,"9203 NATIONAL AVENUE","LELAND","NC",28451,34.238847186,-78.042838784,181,"9203 NATIONAL AVENUE, LELAND, NC, 28451","Match","Non_Exact","9203 NATIONAL AVE NE, LELAND, NC, 28451",153162685,"L"
930182,"9203 OAK ROAD","WILLIS","MI",48191,42.0994760900001,-83.574782603,182,"9203 OAK ROAD, WILLIS, MI, 48191","Match","Exact","9203 OAK RD, WILLIS, MI, 48191",26047602,"L"
930183,"9203 ROLLING OAKS DRIVE","TOMBALL","TX",77375,30.1379370490001,-95.567243003,183,"9203 ROLLING OAKS DRIVE, TOMBALL, TX, 77375","Match","Non_Exact","9203 ROLLING OAKS, TOMBALL, TX, 77375",96001439,"R"
930184,"9203 SHERIDAN PARK CT","BRENTWOOD","TN",37027,36.0236324300001,-86.760526753,184,"9203 SHERIDAN PARK CT, BRENTWOOD, TN, 37027","Match","Exact","9203 SHERIDAN PARK CT, BRENTWOOD, TN, 37027",631953306,"R"
930185,"9203 SUNSHADOW CT","PEARLAND","TX",77584,29.5647370460001,-95.361558023,185,"9203 SUNSHADOW CT, PEARLAND, TX, 77584","Match","Exact","9203 SUNSHADOW CT, PEARLAND, TX, 77584",116651186,"L"
930186,"9203 TOPEKA STREET","BETHESDA","MD",20817,39.006032938,-77.128762813,186,"9203 TOPEKA STREET, BETHESDA, MD, 20817","Match","Exact","9203 TOPEKA ST, BETHESDA, MD, 20817",62058000,"R"
930187,"9203 TOWN TERRACE","SPRING","TX",77379,30.010158446,-95.551763017,187,"9203 TOWN TERRACE, SPRING, TX, 77379","Match","Non_Exact","9203 TOWNE TERRACE DR, SPRING, TX, 77379",96003771,"L"
930188,"9203 TOWNE TERRACE DR","SPRING","TX",77379,30.010158446,-95.551763017,188,"9203 TOWNE TERRACE DR, SPRING, TX, 77379","Match","Exact","9203 TOWNE TERRACE DR, SPRING, TX, 77379",96003771,"L"
930189,"9203 TURNBERRY PLACE","LITHONIA","GA",30038,33.6963310730001,-84.170157418,189,"9203 TURNBERRY PLACE, LITHONIA, GA, 30038","Match","Exact","9203 TURNBERRY PL, LITHONIA, GA, 30038",619387221,"R"
930190,"9203 TWIN ACRES DR","WANATAH","IN",46390,41.38497148,-86.874316662,190,"9203 TWIN ACRES DR, WANATAH, IN, 46390","Match","Exact","9203 TWIN ACRES DR, WANATAH, IN, 46390",604784798,"L"
930191,"9203 UNION MEADOW LN","CYPRESS","TX",77433,29.911878351,-95.719150653,191,"9203 UNION MEADOW LN, CYPRESS, TX, 77433","Match","Exact","9203 UNION MEADOW LN, CYPRESS, TX, 77433",652136954,"L"
930192,"9203 W 157TH TERRACE","OVERLAND PARK","KS",66221,38.8425860900001,-94.6921275019999,192,"9203 W 157TH TERRACE, OVERLAND PARK, KS, 66221","Match","Exact","9203 W 157TH TER, OVERLAND PARK, KS, 66221",648741450,"R"
930193,"9203 WHITWORTH DR","BEVERLY HILLS","CA",90212,34.0570944030001,-118.391882377,193,"9203 WHITWORTH DR, BEVERLY HILLS, CA, 90212","Match","Exact","9203 WHITWORTH DR, BEVERLY HILLS, CA, 90212",142719191,"R"
930194,"9204 218TH PL","QUEENS VILLAGE","NY",11428,NA,NA,194,"9204 218TH PL, QUEENS VILLAGE, NY, 11428","No_Match",NA,NA,NA,NA
930195,"9204 ABACO WAY","FORT WORTH","TX",76123,32.6105356250001,-97.366890776,195,"9204 ABACO WAY, FORT WORTH, TX, 76123","Match","Exact","9204 ABACO WAY, FORT WORTH, TX, 76123",638656072,"R"
930196,"9204 AFTON CT","MANASSAS","VA",20110,38.757210522,-77.4901527759999,196,"9204 AFTON CT, MANASSAS, VA, 20110","Match","Exact","9204 AFTON CT, MANASSAS, VA, 20110",76505193,"L"
930197,"9204 ALMOND ST","ALTA LOMA","CA",91737,34.161983177,-117.606188613,197,"9204 ALMOND ST, ALTA LOMA, CA, 91737","Match","Exact","9204 ALMOND ST, RANCHO CUCAMONGA, CA, 91737",144700405,"L"
930198,"9204 APPLETON","DETROIT","MI",48239,42.3617472720001,-83.271492847,198,"9204 APPLETON, DETROIT, MI, 48239","Match","Exact","9204 APPLETON, DETROIT, MI, 48239",95431480,"R"
930199,"9204 ARNIE COURT","MANASSAS","VA",20111,38.767345946,-77.4289463009999,199,"9204 ARNIE COURT, MANASSAS, VA, 20111","Match","Exact","9204 ARNIE CT, MANASSAS, VA, 20111",76549057,"L"
930200,"9204 BELL STATION ROAD","STOUTSVILLE","OH",43154,39.6502920780001,-82.850441878,200,"9204 BELL STATION ROAD, STOUTSVILLE, OH, 43154","Match","Exact","9204 BELL STATION RD, STOUTSVILLE, OH, 43154",37460469,"L"
930201,"9204 BIG SPRINGS LOOP","BRISTOW","VA",20136,38.7602905190001,-77.568876957,201,"9204 BIG SPRINGS LOOP, BRISTOW, VA, 20136","Match","Exact","9204 BIG SPRINGS LOOP, BRISTOW, VA, 20136",647918339,"L"
930202,"9204 BRONZE RIVER AVE","LAS VEGAS","NV",89149,36.292348745,-115.297525583,202,"9204 BRONZE RIVER AVE, LAS VEGAS, NV, 89149","Match","Non_Exact","9204 W BRONZE RIVER AVE, LAS VEGAS, NV, 89149",626989320,"L"
930203,"9204 COLUMBIA AVENUE","MUNSTER","IN",46321,41.546314771,-87.5059999919999,203,"9204 COLUMBIA AVENUE, MUNSTER, IN, 46321","Match","Exact","9204 COLUMBIA AVE, MUNSTER, IN, 46321",98420612,"R"
930204,"9204 CROWFIELD RESERVE LANE","LADSON","SC",29456,NA,NA,204,"9204 CROWFIELD RESERVE LANE, LADSON, SC, 29456","No_Match",NA,NA,NA,NA
930205,"9204 CRYSTAL COVE","CEDAR HILL","TX",75104,32.5711931280001,-97.025569196,205,"9204 CRYSTAL COVE, CEDAR HILL, TX, 75104","Match","Exact","9204 CRYSTAL COVE, CEDAR HILL, TX, 75104",103000710,"L"
930206,"9204 ESPADA AVE","HESPERIA","CA",92345,34.419109362,-117.256482956,206,"9204 ESPADA AVE, HESPERIA, CA, 92345","Match","Exact","9204 ESPADA AVE, HESPERIA, CA, 92345",144589825,"L"
930207,"9204 GOOD LUCK RD","LANHAM","MD",20706,38.979761174,-76.849180589,207,"9204 GOOD LUCK RD, LANHAM, MD, 20706","Match","Exact","9204 GOOD LUCK RD, LANHAM, MD, 20706",76384899,"L"
930208,"9204 GOOD LUCK ROAD","LANHAM","MD",20706,38.979761174,-76.849180589,208,"9204 GOOD LUCK ROAD, LANHAM, MD, 20706","Match","Exact","9204 GOOD LUCK RD, LANHAM, MD, 20706",76384899,"L"
930209,"9204 HAILEY COURT","NORTH RICHLAND HILLS","TX",76182,32.88801578,-97.1878008739999,209,"9204 HAILEY COURT, NORTH RICHLAND HILLS, TX, 76182","Match","Exact","9204 HAILEY CT, NORTH RICHLAND HILLS, TX, 76182",617671377,"R"
930210,"9204 HEATHERWOOD DRIVE","AUSTIN","TX",78748,30.1839424390001,-97.8264272329999,210,"9204 HEATHERWOOD DRIVE, AUSTIN, TX, 78748","Match","Exact","9204 HEATHERWOOD DR, AUSTIN, TX, 78748",63940032,"R"
930211,"9204 HOTEL RD","CLAUDE","TX",79019,35.074876927,-101.431473593,211,"9204 HOTEL RD, CLAUDE, TX, 79019","Match","Exact","9204 HOTEL RD, CLAUDE, TX, 79019",182142146,"R"
930212,"9204 MAHOGANY DR","BOYNTON BEACH","FL",33436,26.5478613930001,-80.09381173,212,"9204 MAHOGANY DR, BOYNTON BEACH, FL, 33436","Match","Exact","9204 MAHOGANY DR, BOYNTON BEACH, FL, 33436",640965120,"L"
930213,"9204 MOUNTAIN MAGNOLIA DR","RIVERVIEW","FL",33578,27.8915353620001,-82.3517060189999,213,"9204 MOUNTAIN MAGNOLIA DR, RIVERVIEW, FL, 33578","Match","Exact","9204 MOUNTAIN MAGNOLIA DR, RIVERVIEW, FL, 33578",641720758,"R"
930214,"9204 OSWALD WAY 2A","BALTIMORE","MD",21237,39.3528815980001,-76.472411907,214,"9204 OSWALD WAY 2A, BALTIMORE, MD, 21237","Match","Exact","9204 OSWALD WAY, BALTIMORE, MD, 21237",191480236,"L"
930215,"9204 OSWALD WAY 2A","ROSEVILLE","MD",21237,39.3528815980001,-76.472411907,215,"9204 OSWALD WAY 2A, ROSEVILLE, MD, 21237","Match","Non_Exact","9204 OSWALD WAY, ROSEDALE, MD, 21237",191480236,"L"
930216,"9204 RIBBON FALLS LOOP","BRISTOW","VA",20136,NA,NA,216,"9204 RIBBON FALLS LOOP, BRISTOW, VA, 20136","No_Match",NA,NA,NA,NA
930217,"9204 ROST PLACE APT 2","BROOKLYN","NY",11236,40.634398,-73.8960824979999,217,"9204 ROST PLACE APT 2, BROOKLYN, NY, 11236","Match","Exact","9204 ROST PL, BROOKLYN, NY, 11236",59096962,"R"
930218,"9204 S COMMERCIAL AVE STE 206","CHICAGO","IL",60617,41.728068163,-87.551216385,218,"9204 S COMMERCIAL AVE STE 206, CHICAGO, IL, 60617","Match","Non_Exact","9204 S COMMERCIAL AVE, CHICAGO, IL, 60617",605531043,"R"
930219,"9204 S THOMAS AVE","BRIDGEVIEW","IL",60455,41.724056433,-87.80481173,219,"9204 S THOMAS AVE, BRIDGEVIEW, IL, 60455","Match","Exact","9204 THOMAS AVE, BRIDGEVIEW, IL, 60455",111811921,"R"
930220,"9204 SOUTH MCKINLEY AVENUE","OKLAHOMA CITY","OK",73139,35.375469819,-97.536213343,220,"9204 SOUTH MCKINLEY AVENUE, OKLAHOMA CITY, OK, 73139","Match","Exact","9204 S MCKINLEY AVE, OKLAHOMA CITY, OK, 73139",99904686,"L"
930221,"9204 SOUTH MERRILL AVENUE","CHICAGO","IL",60617,41.727788354,-87.571846309,221,"9204 SOUTH MERRILL AVENUE, CHICAGO, IL, 60617","Match","Exact","9204 S MERRILL AVE, CHICAGO, IL, 60617",605549421,"R"
930222,"9204 SOUTHERN BREEZE DRIVE","ORLANDO","FL",32836,28.429265048,-81.494107452,222,"9204 SOUTHERN BREEZE DRIVE, ORLANDO, FL, 32836","Match","Exact","9204 SOUTHERN BREEZE DR, ORLANDO, FL, 32836",94422481,"L"
930223,"9204 SPIRIT HAVEN ROAD","TOMAHAWK","WI",54487,NA,NA,223,"9204 SPIRIT HAVEN ROAD, TOMAHAWK, WI, 54487","No_Match",NA,NA,NA,NA
930224,"9204 TERWILLIGERS WOOD COURT","CINCINNATI","OH",45249,39.270684042,-84.315789482,224,"9204 TERWILLIGERS WOOD COURT, CINCINNATI, OH, 45249","Match","Exact","9204 TERWILLIGERS WOOD CT, CINCINNATI, OH, 45249",103977755,"R"
930225,"9204 THOMPSON AVE","YUKON","OK",73099,NA,NA,225,"9204 THOMPSON AVE, YUKON, OK, 73099","No_Match",NA,NA,NA,NA
930226,"9204 VANVLEET RD","GAINES","MI",48436,42.8941111560001,-83.8696252409999,226,"9204 VANVLEET RD, GAINES, MI, 48436","Match","Non_Exact","9204 VAN VLEET RD, GAINES, MI, 48436",69572102,"L"
930227,"9204 WARM SPRINGS CIR","PLANO","TX",75024,33.1043405660001,-96.772476796,227,"9204 WARM SPRINGS CIR, PLANO, TX, 75024","Match","Exact","9204 WARM SPRINGS CIR, PLANO, TX, 75024",123567656,"R"
930228,"9204 WEST 141ST STREET","OVERLAND PARK","KS",66221,38.873526666,-94.6923222089999,228,"9204 WEST 141ST STREET, OVERLAND PARK, KS, 66221","Match","Exact","9204 W 141ST ST, OVERLAND PARK, KS, 66221",91323718,"L"
930229,"9204 WINSTON ROAD","PINE BLUFF","AR",71601,34.1359061270001,-91.789612759,229,"9204 WINSTON ROAD, PINE BLUFF, AR, 71601","Match","Exact","9204 WINSTON RD, PINE BLUFF, AR, 71601",642898307,"R"
930230,"9205 ANDREA DR","WOODBURY","MN",55125,44.9055225770001,-92.919422374,230,"9205 ANDREA DR, WOODBURY, MN, 55125","Match","Non_Exact","9205 ANDREA RD, WOODBURY, MN, 55125",97799428,"L"
930231,"9205 ASH SPRING RD APT 4","LOUISVILLE","KY",40291,NA,NA,231,"9205 ASH SPRING RD APT 4, LOUISVILLE, KY, 40291","No_Match",NA,NA,NA,NA
930232,"9205 BLOSSOM LANE - APT 1","LOUISVILLE","KY",40241,38.2873308710001,-85.580797182,232,"9205 BLOSSOM LANE - APT 1, LOUISVILLE, KY, 40241","Match","Exact","9205 BLOSSOM LN, LOUISVILLE, KY, 40241",96863496,"L"
930233,"9205 BURLEY DR","BETHESDA","MD",20817,39.0064475290001,-77.118309478,233,"9205 BURLEY DR, BETHESDA, MD, 20817","Match","Exact","9205 BURLEY DR, BETHESDA, MD, 20817",62058290,"R"
930234,"9205 CAMBERWELL RD","MINT HILL","NC",28227,35.1857774270001,-80.679114039,234,"9205 CAMBERWELL RD, MINT HILL, NC, 28227","Match","Exact","9205 CAMBERWELL RD, MINT HILL, NC, 28227",70505076,"R"
930235,"9205 CASSIDY COURT","MIDWEST CITY","OK",73130,NA,NA,235,"9205 CASSIDY COURT, MIDWEST CITY, OK, 73130","No_Match",NA,NA,NA,NA
930236,"9205 CENTERWAY RD","GAITHERSBURG","MD",20879,39.169225345,-77.1895726819999,236,"9205 CENTERWAY RD, GAITHERSBURG, MD, 20879","Match","Exact","9205 CENTERWAY RD, GAITHERSBURG, MD, 20879",62050325,"R"
930237,"9205 CHARLTON PLACE","DOUGLASVILLE","GA",30135,33.731578246,-84.720749008,237,"9205 CHARLTON PLACE, DOUGLASVILLE, GA, 30135","Match","Exact","9205 CHARLTON PL, DOUGLASVILLE, GA, 30135",16654112,"R"
930238,"9205 COLLEGE WAY N","SEATTLE","WA",98103,47.6961557120001,-122.335154416,238,"9205 COLLEGE WAY N, SEATTLE, WA, 98103","Match","Exact","9205 COLLEGE WAY N, SEATTLE, WA, 98103",187072583,"L"
930239,"9205 COMMONS PL","ANCHORAGE","AK",99502,61.1370940040001,-149.941918056,239,"9205 COMMONS PL, ANCHORAGE, AK, 99502","Match","Exact","9205 COMMONS PL, ANCHORAGE, AK, 99502",605183295,"L"
930240,"9205 FM 78 APT 3203","CONVERSE","TX",78109,29.518809027,-98.3080901009999,240,"9205 FM 78 APT 3203, CONVERSE, TX, 78109","Match","Non_Exact","9205 FM 78, CONVERSE, TX, 78109",101571993,"L"
930241,"9205 FM 78 APT 7102","CONVERSE","TX",78109,29.518809027,-98.3080901009999,241,"9205 FM 78 APT 7102, CONVERSE, TX, 78109","Match","Non_Exact","9205 FM 78, CONVERSE, TX, 78109",101571993,"L"
930242,"9205 FM 78 APT 9101","CONVERSE","TX",78109,29.518809027,-98.3080901009999,242,"9205 FM 78 APT 9101, CONVERSE, TX, 78109","Match","Non_Exact","9205 FM 78, CONVERSE, TX, 78109",101571993,"L"
930243,"9205 GLENWATER DR  APT 1104","CHARLOTTE","NC",28262,35.316298411,-80.751116537,243,"9205 GLENWATER DR  APT 1104, CHARLOTTE, NC, 28262","Match","Exact","9205 GLENWATER DR, CHARLOTTE, NC, 28262",70542535,"L"
930244,"9205 GRAND PALM COURT","RIVERVIEW","FL",33578,27.916808422,-82.355322868,244,"9205 GRAND PALM COURT, RIVERVIEW, FL, 33578","Match","Non_Exact","9205 GRAND PALM CT, RIVERVIEW, FL, 33569",104593369,"L"
930245,"9205 GREENSHIRE DRIVE","MANASSAS","VA",20111,38.764739902,-77.429746038,245,"9205 GREENSHIRE DRIVE, MANASSAS, VA, 20111","Match","Exact","9205 GREENSHIRE DR, MANASSAS, VA, 20111",76549102,"L"
930246,"9205 GWYNNDALE DRIVE","CLINTON","MD",20735,38.7632746890001,-76.905915297,246,"9205 GWYNNDALE DRIVE, CLINTON, MD, 20735","Match","Exact","9205 GWYNNDALE DR, CLINTON, MD, 20735",637815423,"R"
930247,"9205 LAZY HOLLOW","SMYRNA","TN",37167,35.9767421230001,-86.5790102129999,247,"9205 LAZY HOLLOW, SMYRNA, TN, 37167","Match","Non_Exact","9205 LAZYHOLLOW LN, SMYRNA, TN, 37167",634013654,"R"
930248,"9205 LINN STATION RD","LOUISVILLE","KY",40222,38.2290170410001,-85.580832878,248,"9205 LINN STATION RD, LOUISVILLE, KY, 40222","Match","Exact","9205 LINN STATION RD, LOUISVILLE, KY, 40222",611525058,"L"
930249,"9205 LIVERY LANE APT H","LAUREL","MD",20723,39.1205985220001,-76.8409852139999,249,"9205 LIVERY LANE APT H, LAUREL, MD, 20723","Match","Exact","9205 LIVERY LN, LAUREL, MD, 20723",158944071,"L"
930250,"9205 LYAL LANE","LOS MOLINOS","CA",96055,40.060110034,-122.104252828,250,"9205 LYAL LANE, LOS MOLINOS, CA, 96055","Match","Exact","9205 LYAL LN, LOS MOLINOS, CA, 96055",624908988,"L"
930251,"9205 N ARCH VILLAGE CT APT E","N CHESTERFIELD","VA",23236,37.4956478130001,-77.568972278,251,"9205 N ARCH VILLAGE CT APT E, N CHESTERFIELD, VA, 23236","Match","Non_Exact","9205 N ARCH VILLAGE CT, NORTH CHESTERFIELD, VA, 23236",201531760,"L"
930252,"9205 O STREET","OMAHA","NE",68127,41.2079619680001,-96.054399426,252,"9205 O STREET, OMAHA, NE, 68127","Match","Exact","9205 O ST, OMAHA, NE, 68127",116974247,"L"
930253,"9205 OAR PARK AVE","MORTON GROVE","IL",60053,NA,NA,253,"9205 OAR PARK AVE, MORTON GROVE, IL, 60053","No_Match",NA,NA,NA,NA
930254,"9205 OLD HIGHWAY 30","HAMMETT","ID",83627,42.9456975520001,-115.462273889,254,"9205 OLD HIGHWAY 30, HAMMETT, ID, 83627","Match","Exact","9205 OLD HWY 30, HAMMETT, ID, 83627",117628066,"L"
930255,"9205 ORBITER DR","DALLAS","TX",75243,32.900886889,-96.762144124,255,"9205 ORBITER DR, DALLAS, TX, 75243","Match","Exact","9205 ORBITER DR, DALLAS, TX, 75243",102914228,"L"
930256,"9205 OVALLA DRIVE","AUSTIN","TX",78749,30.195419144,-97.854399224,256,"9205 OVALLA DRIVE, AUSTIN, TX, 78749","Match","Exact","9205 OVALLA DR, AUSTIN, TX, 78749",64032720,"L"
930257,"9205 PINE TRAIL LANE","SUMMERVILLE","SC",29486,33.0419622650001,-80.1457405039999,257,"9205 PINE TRAIL LANE, SUMMERVILLE, SC, 29486","Match","Exact","9205 PINE TRAIL LN, SUMMERVILLE, SC, 29486",645284490,"L"
930258,"9205 POINT REPLETE DRIVE","FORT BELVOIR","VA",22060,38.708669118,-77.18863771,258,"9205 POINT REPLETE DRIVE, FORT BELVOIR, VA, 22060","Match","Exact","9205 POINT REPLETE DR, FORT BELVOIR, VA, 22060",619941801,"R"
930259,"9205 PRAIRIE AVE","HIGHLAND","IN",46322,41.5461113920001,-87.475734654,259,"9205 PRAIRIE AVE, HIGHLAND, IN, 46322","Match","Exact","9205 PRAIRIE AVE, HIGHLAND, IN, 46322",98421712,"L"
930260,"9205 PRINCE WILLIAM STREET SUITE 2","MANASSAS","VA",20110,38.7492294570001,-77.475239936,260,"9205 PRINCE WILLIAM STREET SUITE 2, MANASSAS, VA, 20110","Match","Exact","9205 PRINCE WILLIAM ST, MANASSAS, VA, 20110",76535965,"L"
930261,"9205 QUAIL HILL CIRCLE","AUSTIN","TX",78758,30.3648600930001,-97.704155774,261,"9205 QUAIL HILL CIRCLE, AUSTIN, TX, 78758","Match","Exact","9205 QUAIL HILL CIR, AUSTIN, TX, 78758",63930592,"R"
930262,"9205 RAMBLEWOOD DRIVE APT 837","CORAL SPRINGS","FL",33071,26.2437799370001,-80.2491909409999,262,"9205 RAMBLEWOOD DRIVE APT 837, CORAL SPRINGS, FL, 33071","Match","Exact","9205 RAMBLEWOOD DR, CORAL SPRINGS, FL, 33071",114691322,"L"
930263,"9205 RENAISANCE WAY","INGLEWOOD","CA",90305,33.9531333680001,-118.330976375,263,"9205 RENAISANCE WAY, INGLEWOOD, CA, 90305","Match","Non_Exact","9205 RENAISSANCE WAY, INGLEWOOD, CA, 90305",632052951,"R"
930264,"9205 RENOIR CT","BOYNTON BEACH","FL",33472,26.5400165250001,-80.133683376,264,"9205 RENOIR CT, BOYNTON BEACH, FL, 33472","Match","Exact","9205 RENOIR CT, BOYNTON BEACH, FL, 33472",115489249,"R"
930265,"9205 S ESSEX STREET","CHICAGO","IL",60617,41.7279440620001,-87.563310947,265,"9205 S ESSEX STREET, CHICAGO, IL, 60617","Match","Non_Exact","9205 S ESSEX AVE, CHICAGO, IL, 60617",605531991,"L"
930266,"9205 SAINT MARTIN","FORT WORTH","TX",76123,32.6106395100001,-97.369252984,266,"9205 SAINT MARTIN, FORT WORTH, TX, 76123","Match","Non_Exact","9205 SAINT MARTIN RD, FORT WORTH, TX, 76123",619864750,"L"
930267,"9205 SAN PASQUAL WAY","STOCKTON","CA",95201,38.034202953,-121.31709329,267,"9205 SAN PASQUAL WAY, STOCKTON, CA, 95201","Match","Non_Exact","9205 SAN PASQUAL WAY, STOCKTON, CA, 95210",133844899,"L"
930268,"9205 SIERRA COLLEGE BLVD  SUITE 120","ROSEVILLE","CA",95661,38.734707762,-121.225855433,268,"9205 SIERRA COLLEGE BLVD  SUITE 120, ROSEVILLE, CA, 95661","Match","Exact","9205 SIERRA COLLEGE BLVD, ROSEVILLE, CA, 95661",652198869,"R"
930269,"9205 SIERRA COLLEGE BLVD SUITE 120","ROSEVILLE","CA",95661,38.734707762,-121.225855433,269,"9205 SIERRA COLLEGE BLVD SUITE 120, ROSEVILLE, CA, 95661","Match","Exact","9205 SIERRA COLLEGE BLVD, ROSEVILLE, CA, 95661",652198869,"R"
930270,"9205 SKILLMAN STREET SUITE 100","DALLAS","TX",75243,NA,NA,270,"9205 SKILLMAN STREET SUITE 100, DALLAS, TX, 75243","No_Match",NA,NA,NA,NA
930271,"9205 SKILLMAN STREET SUITE 119","DALLAS","TX",75243,NA,NA,271,"9205 SKILLMAN STREET SUITE 119, DALLAS, TX, 75243","No_Match",NA,NA,NA,NA
930272,"9205 SKILLMAN STREET SUITE 127","DALLAS","TX",75243,NA,NA,272,"9205 SKILLMAN STREET SUITE 127, DALLAS, TX, 75243","No_Match",NA,NA,NA,NA
930273,"9205 SOUTH 91ST EAST AVE","TULSA","OK",74133,36.028561418,-95.874760162,273,"9205 SOUTH 91ST EAST AVE, TULSA, OK, 74133","Match","Exact","9205 S 91ST EAST AVE, TULSA, OK, 74133",166462238,"L"
930274,"9205 STREAM PEBBLE DRIVE","COLUMBUS","OH",43240,40.1548984770001,-82.991830906,274,"9205 STREAM PEBBLE DRIVE, COLUMBUS, OH, 43240","Match","Exact","9205 STREAM PEBBLE DR, COLUMBUS, OH, 43240",24599125,"L"
930275,"9205 SW 227TH LN","CUTLER BAY","FL",33190,25.55562716,-80.340165536,275,"9205 SW 227TH LN, CUTLER BAY, FL, 33190","Match","Exact","9205 SW 227TH LN, CUTLER BAY, FL, 33190",641849330,"L"
930276,"9205 WESTPORT RD","MARYSVILLE","IN",47141,38.540204954,-85.561286092,276,"9205 WESTPORT RD, MARYSVILLE, IN, 47141","Match","Exact","9205 WESTPORT RD, MARYSVILLE, IN, 47141",64874016,"L"
930277,"9205 WHISPERING OAK DR","MIDWEST CITY","OK",73130,35.4546866320001,-97.365989559,277,"9205 WHISPERING OAK DR, MIDWEST CITY, OK, 73130","Match","Exact","9205 WHISPERING OAK DR, MIDWEST CITY, OK, 73130",100430363,"L"
930278,"9205 WILD RIVER DR","ARLINGTON","TX",76002,32.596828814,-97.084473176,278,"9205 WILD RIVER DR, ARLINGTON, TX, 76002","Match","Exact","9205 WILD RIVER DR, ARLINGTON, TX, 76002",618448690,"L"
930279,"9205 WYRICKRD","CORRYTONT","TN",37721,NA,NA,279,"9205 WYRICKRD, CORRYTONT, TN, 37721","No_Match",NA,NA,NA,NA
930280,"9206 121ST AVE NE","LAKE STEVENS","WA",98258,48.080641525,-122.067620637,280,"9206 121ST AVE NE, LAKE STEVENS, WA, 98258","Match","Exact","9206 121ST AVE NE, LAKE STEVENS, WA, 98258",187776272,"R"
930281,"9206 APPIN CT","HOUSTON","TX",77095,29.9158942770001,-95.655008631,281,"9206 APPIN CT, HOUSTON, TX, 77095","Match","Exact","9206 APPIN CT, HOUSTON, TX, 77095",625827358,"R"
930282,"9206 BENGAL ROAD","RANDALLSTOWN","MD",21133,39.3758823950001,-76.8017291319999,282,"9206 BENGAL ROAD, RANDALLSTOWN, MD, 21133","Match","Exact","9206 BENGAL RD, RANDALLSTOWN, MD, 21133",191463272,"R"
930283,"9206 BERGENWOOD AVE","NORTH BERGEN","NJ",7047,40.811666259,-74.0054255919999,283,"9206 BERGENWOOD AVE, NORTH BERGEN, NJ, 7047","Match","Exact","9206 BERGENWOOD AVE, NORTH BERGEN, NJ, 07047",59616306,"R"
930284,"9206 BLAZING STAR LANE","PROSPECT","KY",40059,38.326475062,-85.570562754,284,"9206 BLAZING STAR LANE, PROSPECT, KY, 40059","Match","Exact","9206 BLAZING STAR LN, PROSPECT, KY, 40059",641783663,"R"
930285,"9206 BRIGHTLEAF PL","CHARLOTTE","NC",28269,35.342742113,-80.8091443719999,285,"9206 BRIGHTLEAF PL, CHARLOTTE, NC, 28269","Match","Exact","9206 BRIGHTLEAF PL, CHARLOTTE, NC, 28269",70520280,"R"
930286,"9206 FAIRWAY CT","RIVERDALE","GA",30274,33.5048058850001,-84.3968022029999,286,"9206 FAIRWAY CT, RIVERDALE, GA, 30274","Match","Exact","9206 FAIRWAY CT, RIVERDALE, GA, 30274",23339894,"R"
930287,"9206 FRANKLIN ST","CHATSWORTH","CA",91311,34.237802727,-118.640055075,287,"9206 FRANKLIN ST, CHATSWORTH, CA, 91311","Match","Exact","9206 FRANKLIN ST, CHATSWORTH, CA, 91311",142785642,"R"
930288,"9206 GARDNER AVE","LUBBOCK","TX",79424,33.5096260610001,-101.941926869,288,"9206 GARDNER AVE, LUBBOCK, TX, 79424","Match","Exact","9206 GARDNER AVE, LUBBOCK, TX, 79424",185273242,"L"
930289,"9206 LINKMEADOW","HOUSTON","TX",77025,29.6811190280001,-95.435529768,289,"9206 LINKMEADOW, HOUSTON, TX, 77025","Match","Non_Exact","9206 LINKMEADOW LN, HOUSTON, TX, 77025",96087005,"R"
930290,"9206 MCCORD ROAD","ORIENT","OH",43146,39.8025301960001,-83.047507482,290,"9206 MCCORD ROAD, ORIENT, OH, 43146","Match","Exact","9206 MCCORD RD, ORIENT, OH, 43146",627087711,"L"
930291,"9206 MILL CREEK DRIVE","MARSHFIELD","WI",54449,44.6124311080001,-90.175346121,291,"9206 MILL CREEK DRIVE, MARSHFIELD, WI, 54449","Match","Exact","9206 MILL CREEK DR, MARSHFIELD, WI, 54449",51278937,"R"
930292,"9206 N MAIN ST APT 1","COELLO","IL",62825,NA,NA,292,"9206 N MAIN ST APT 1, COELLO, IL, 62825","No_Match",NA,NA,NA,NA
930293,"9206 OLD BARDSTOWN RD","LOUISVILLE","KY",40291,NA,NA,293,"9206 OLD BARDSTOWN RD, LOUISVILLE, KY, 40291","Tie",NA,NA,NA,NA
930294,"9206 PRINCE AVE","CLEVELAND","OH",44105,41.454172977,-81.622347095,294,"9206 PRINCE AVE, CLEVELAND, OH, 44105","Match","Exact","9206 PRINCE AVE, CLEVELAND, OH, 44105",61118947,"R"
930295,"9206 RICE AVENUE","GLENARDEN","MD",20706,38.927874812,-76.84910552,295,"9206 RICE AVENUE, GLENARDEN, MD, 20706","Match","Exact","9206 RICE AVE, GLENARDEN, MD, 20706",648061609,"L"
930296,"9206 RICHMOND DR","KANSAS CITY","MO",64138,38.9578442050001,-94.500337155,296,"9206 RICHMOND DR, KANSAS CITY, MO, 64138","Match","Exact","9206 RICHMOND DR, KANSAS CITY, MO, 64138",91465838,"R"
930297,"9206 RUNALDUE RD","MANASSAS","VA",20110,38.747988164,-77.4784429539999,297,"9206 RUNALDUE RD, MANASSAS, VA, 20110","Match","Exact","9206 RUNALDUE RD, MANASSAS, VA, 20110",76534369,"R"
930298,"9206 RUTGERS DR","LITTLE ROCK","AR",72204,34.727601437,-92.3773094759999,298,"9206 RUTGERS DR, LITTLE ROCK, AR, 72204","Match","Exact","9206 RUTGERS DR, LITTLE ROCK, AR, 72204",83501634,"R"
930299,"9206 S DENKER AVE","LOS ANGELES","CA",90047,33.952617036,-118.30464502,299,"9206 S DENKER AVE, LOS ANGELES, CA, 90047","Match","Exact","9206 S DENKER AVE, LOS ANGELES, CA, 90047",141659081,"L"
930300,"9206 S GARVEY WAY","INGLEWOOD","CA",90305,33.953090893,-118.33199581,300,"9206 S GARVEY WAY, INGLEWOOD, CA, 90305","Match","Exact","9206 GARVEY WAY, INGLEWOOD, CA, 90305",632052944,"L"
930301,"9206 SAINT CLAIR DRIVE NE","ATLANTA","GA",30329,33.837847019,-84.315466515,301,"9206 SAINT CLAIR DRIVE NE, ATLANTA, GA, 30329","Match","Exact","9206 SAINT CLAIR DR NE, ATLANTA, GA, 30329",645264671,"R"
930302,"9206 SOPHIA AVE","NORTH HILLS","CA",91343,34.2375947580001,-118.48834346,302,"9206 SOPHIA AVE, NORTH HILLS, CA, 91343","Match","Exact","9206 SOPHIA AVE, NORTH HILLS, CA, 91343",141544734,"R"
930303,"9206 SOUTH 700 EAST 407","SANDY","UT",84070,NA,NA,303,"9206 SOUTH 700 EAST 407, SANDY, UT, 84070","No_Match",NA,NA,NA,NA
930304,"9206 TANGLEY LANE","LOUISVILLE","KY",40242,38.280959941,-85.581238453,304,"9206 TANGLEY LANE, LOUISVILLE, KY, 40242","Match","Exact","9206 TANGLEY LN, LOUISVILLE, KY, 40242",96863550,"R"
930305,"9206 TIMBERLINE DRIVE","OMAHA","NE",68152,41.3423560040001,-95.9989751429999,305,"9206 TIMBERLINE DRIVE, OMAHA, NE, 68152","Match","Exact","9206 TIMBERLINE DR, OMAHA, NE, 68152",116974729,"L"
930306,"9206 TIMERLINE DRIVE","OMAHA","NE",68152,41.3423560040001,-95.9989751429999,306,"9206 TIMERLINE DRIVE, OMAHA, NE, 68152","Match","Non_Exact","9206 TIMBERLINE DR, OMAHA, NE, 68152",116974729,"L"
930307,"9206 WATER OAK","ARLINGTON","TX",76002,32.5970059480001,-97.083603682,307,"9206 WATER OAK, ARLINGTON, TX, 76002","Match","Non_Exact","9206 WATER OAK DR, ARLINGTON, TX, 76002",618448573,"R"
930308,"9206 WINTERGREEN COURT","SYLVANIA","OH",43560,41.715707933,-83.765423555,308,"9206 WINTERGREEN COURT, SYLVANIA, OH, 43560","Match","Exact","9206 WINTERGREEN CT, SYLVANIA, OH, 43560",33954170,"R"
930309,"9206 WOODENBRIDGE ROAD","PHILADELPHIA","PA",19114,40.061295726,-75.017836637,309,"9206 WOODENBRIDGE ROAD, PHILADELPHIA, PA, 19114","Match","Exact","9206 WOODENBRIDGE RD, PHILADELPHIA, PA, 19114",628810570,"L"
930310,"9206 YOUNGSTOWN","HUMBLE","TX",77396,29.948489652,-95.2568233059999,310,"9206 YOUNGSTOWN, HUMBLE, TX, 77396","Match","Non_Exact","9206 YOUNGSTOWN PL, HUMBLE, TX, 77396",96047754,"R"
930311,"9207 BEVERLY DR","ORANGE","TX",77630,30.0663697360001,-93.9057884809999,311,"9207 BEVERLY DR, ORANGE, TX, 77630","Match","Exact","9207 BEVERLY DR, ORANGE, TX, 77630",74024836,"L"
930312,"9207 BRAKE ROAD","PINE BLUFF","AR",71603,34.1276327840001,-92.123197878,312,"9207 BRAKE ROAD, PINE BLUFF, AR, 71603","Match","Exact","9207 BRAKE RD, PINE BLUFF, AR, 71603",2561588,"L"
930313,"9207 BROKEN TIMBER WAY","COLUMBIA","MD",21045,39.2254956400001,-76.828536118,313,"9207 BROKEN TIMBER WAY, COLUMBIA, MD, 21045","Match","Exact","9207 BROKEN TIMBER WAY, COLUMBIA, MD, 21045",158923986,"L"
930314,"9207 CHAMPIONS CIRCLE","FRANKLIN","TN",37064,35.9069323790001,-86.846653166,314,"9207 CHAMPIONS CIRCLE, FRANKLIN, TN, 37064","Match","Exact","9207 CHAMPIONS CIR, FRANKLIN, TN, 37064",637500016,"L"
930315,"9207 CORTANA PLACE","BATON ROUGE","LA",70815,30.4612305270001,-91.091784734,315,"9207 CORTANA PLACE, BATON ROUGE, LA, 70815","Match","Exact","9207 CORTANA PL, BATON ROUGE, LA, 70815",92208927,"L"
930316,"9207 DEER XING","LORTON","VA",22079,38.709553606,-77.2309567249999,316,"9207 DEER XING, LORTON, VA, 22079","Match","Exact","9207 DEER CROSSING, LORTON, VA, 22079",76026597,"R"
930317,"9207 DULENE","LAKESIDE","CA",92040,NA,NA,317,"9207 DULENE, LAKESIDE, CA, 92040","No_Match",NA,NA,NA,NA
930318,"9207 E C R 25 SOUTH","SELMA","IN",47383,NA,NA,318,"9207 E C R 25 SOUTH, SELMA, IN, 47383","No_Match",NA,NA,NA,NA
930319,"9207 EUROPEAN OLIVE DR","RIVERVIEW","FL",33578,27.891854795,-82.3516288929999,319,"9207 EUROPEAN OLIVE DR, RIVERVIEW, FL, 33578","Match","Non_Exact","9207 EUROPEAN OLIVE WAY, RIVERVIEW, FL, 33578",641720762,"R"
930320,"9207 FELDBANK DR","CHARLOTTE","NC",28216,35.319182256,-80.860158543,320,"9207 FELDBANK DR, CHARLOTTE, NC, 28216","Match","Exact","9207 FELDBANK DR, CHARLOTTE, NC, 28216",70471448,"L"
930321,"9207 FELDBANK DRIVE","CHARLOTTE","NC",28216,35.319182256,-80.860158543,321,"9207 FELDBANK DRIVE, CHARLOTTE, NC, 28216","Match","Exact","9207 FELDBANK DR, CHARLOTTE, NC, 28216",70471448,"L"
930322,"9207 FESTIVAL COURT","TAMPA","FL",33647,28.1300528150001,-82.341013225,322,"9207 FESTIVAL COURT, TAMPA, FL, 33647","Match","Exact","9207 FESTIVAL CT, TAMPA, FL, 33647",104574259,"R"
930323,"9207 GREAT LAKES CIRCLE","CENTERVILLE","OH",45458,39.6142677,-84.203766284,323,"9207 GREAT LAKES CIRCLE, CENTERVILLE, OH, 45458","Match","Exact","9207 GREAT LAKES CIR, CENTERVILLE, OH, 45458",627648113,"R"
930324,"9207 JOHNSON ROAD","MOBILE","AL",36695,30.6254033820001,-88.2586729289999,324,"9207 JOHNSON ROAD, MOBILE, AL, 36695","Match","Non_Exact","9207 JOHNSON RD S, MOBILE, AL, 36695",61915647,"L"
930325,"9207 LAZZINI","CORDOVA","TN",38016,35.179243947,-89.755365073,325,"9207 LAZZINI, CORDOVA, TN, 38016","Match","Non_Exact","9207 LAZZINI COVE, CORDOVA, TN, 38016",624565949,"R"
930326,"9207 LEXINGTON FARMS DR","ALPHARETTA","GA",30004,34.0791426170001,-84.313184103,326,"9207 LEXINGTON FARMS DR, ALPHARETTA, GA, 30004","Match","Non_Exact","9207 LEXINGTON FARM DR, ALPHARETTA, GA, 30004",17388462,"R"
930327,"9207 MALLISON AVE","SOUTH GATE","CA",90280,33.949921498,-118.197737253,327,"9207 MALLISON AVE, SOUTH GATE, CA, 90280","Match","Exact","9207 MALLISON AVE, SOUTH GATE, CA, 90280",141676448,"R"
930328,"9207 MEADOWMONT COURT","TAMPA","FL",33626,28.072386932,-82.591750018,328,"9207 MEADOWMONT COURT, TAMPA, FL, 33626","Match","Exact","9207 MEADOWMONT CT, TAMPA, FL, 33626",104641546,"L"
930329,"9207 MESSINA DRIVE","FT. WASHINGTON","MD",20744,38.7634856490001,-77.0107512659999,329,"9207 MESSINA DRIVE, FT. WASHINGTON, MD, 20744","Match","Exact","9207 MESSINA DR, FT WASHINGTON, MD, 20744",76350815,"R"
930330,"9207 MOUNTAIN MAGNOLIA DR","RIVERVIEW","FL",33578,27.891496691,-82.3516962799999,330,"9207 MOUNTAIN MAGNOLIA DR, RIVERVIEW, FL, 33578","Match","Exact","9207 MOUNTAIN MAGNOLIA DR, RIVERVIEW, FL, 33578",641720758,"L"
930331,"9207 N 95TH STREET","MILWAUKEE","WI",53234,43.1841755090001,-88.027389792,331,"9207 N 95TH STREET, MILWAUKEE, WI, 53234","Match","Non_Exact","9207 N 95TH ST, MILWAUKEE, WI, 53224",77724042,"L"
930332,"9207 NE 92ND ST","VANCOUVER","WA",98662,45.688603367,-122.577538739,332,"9207 NE 92ND ST, VANCOUVER, WA, 98662","Match","Exact","9207 NE 92ND ST, VANCOUVER, WA, 98662",158360308,"R"
930333,"9207 NORTH ASHLAND AVENUE","NILES","IL",60714,42.04780544,-87.8273616,333,"9207 NORTH ASHLAND AVENUE, NILES, IL, 60714","Match","Exact","9207 N ASHLAND AVE, NILES, IL, 60714",111731481,"R"
930334,"9207 NOTRE DAME AVENUE","CHATSWORTH","CA",91311,34.237593707,-118.636962608,334,"9207 NOTRE DAME AVENUE, CHATSWORTH, CA, 91311","Match","Exact","9207 NOTRE DAME AVE, CHATSWORTH, CA, 91311",142675238,"R"
930335,"9207 OLD COACH ROAD","CINCINNATI","OH",45249,39.2524702960001,-84.310811643,335,"9207 OLD COACH ROAD, CINCINNATI, OH, 45249","Match","Exact","9207 OLD COACH RD, CINCINNATI, OH, 45249",103977577,"R"
930336,"9207 RIVER RIDGE DRIVE","CANTON","GA",30114,NA,NA,336,"9207 RIVER RIDGE DRIVE, CANTON, GA, 30114","No_Match",NA,NA,NA,NA
930337,"9207 SMITH CROSSING DRIVE","KERNERSVILLE","NC",27284,36.0768328180001,-80.10148856,337,"9207 SMITH CROSSING DRIVE, KERNERSVILLE, NC, 27284","Match","Exact","9207 SMITH CROSSING DR, KERNERSVILLE, NC, 27284",651497960,"R"
930338,"9207 SOUTH NOBEL WAY","INGLEWOOD","CA",90305,33.952825352,-118.332548225,338,"9207 SOUTH NOBEL WAY, INGLEWOOD, CA, 90305","Match","Exact","9207 S NOBEL WAY, INGLEWOOD, CA, 90305",632052866,"L"
930339,"9207 SW 193RD CR","DUNNELLON","FL",34432,29.0878427870001,-82.442863508,339,"9207 SW 193RD CR, DUNNELLON, FL, 34432","Match","Exact","9207 SW 193RD CIR, DUNNELLON, FL, 34432",116734156,"R"
930340,"9207 TWIN HILLS DR","HOUSTON","TX",77031,29.6669682780001,-95.539246124,340,"9207 TWIN HILLS DR, HOUSTON, TX, 77031","Match","Exact","9207 TWIN HILLS DR, HOUSTON, TX, 77031",96037148,"L"
930341,"9207 W  ADLER","MILWAUKEE","WI",53214,43.0274204850001,-88.027460591,341,"9207 W  ADLER, MILWAUKEE, WI, 53214","Match","Non_Exact","9207 W ADLER ST, MILWAUKEE, WI, 53214",77729673,"L"
930342,"9207 W ADLER ST","MILWAUKEE","WI",53214,43.0274204850001,-88.027460591,342,"9207 W ADLER ST, MILWAUKEE, WI, 53214","Match","Exact","9207 W ADLER ST, MILWAUKEE, WI, 53214",77729673,"L"
930343,"9207 WINTERSET CT","CLINTON","MD",20735,38.7636660850001,-76.8660144739999,343,"9207 WINTERSET CT, CLINTON, MD, 20735","Match","Exact","9207 WINTERSET CT, CLINTON, MD, 20735",76343299,"R"
930344,"9208 28TH ST CT E","EDGEWOOD","WA",98371,47.2314626150001,-122.306856813,344,"9208 28TH ST CT E, EDGEWOOD, WA, 98371","Match","Exact","9208 28TH STREET CT E, EDGEWOOD, WA, 98371",184722535,"R"
930345,"9208 ADALEE COURT","COLUMBIA","MD",21045,39.1778559370001,-76.835389979,345,"9208 ADALEE COURT, COLUMBIA, MD, 21045","Match","Exact","9208 ADALEE CT, COLUMBIA, MD, 21045",158934355,"R"
930346,"9208 ANNAPOLIS ROAD","LANHAM","MD",20706,38.963987929,-76.8543588329999,346,"9208 ANNAPOLIS ROAD, LANHAM, MD, 20706","Match","Exact","9208 ANNAPOLIS RD, LANHAM, MD, 20706",76384447,"L"
930347,"9208 ARNIE COURT","MANASSAS PARK","VA",20111,38.767440643,-77.429572832,347,"9208 ARNIE COURT, MANASSAS PARK, VA, 20111","Match","Exact","9208 ARNIE CT, MANASSAS PARK, VA, 20111",76549057,"L"
930348,"9208 BEDFORD","ODESSA","TX",79764,31.940205947,-102.414281674,348,"9208 BEDFORD, ODESSA, TX, 79764","Match","Non_Exact","9208 BEDFORD DR, ODESSA, TX, 79764",139424680,"R"
930349,"9208 BREISH COURT","EL PASO","TX",79925,31.7814929360001,-106.364302034,349,"9208 BREISH COURT, EL PASO, TX, 79925","Match","Exact","9208 BREISH CT, EL PASO, TX, 79925",642467002,"R"
930350,"9208 CENTRAL STREET","KANSAS CITY","MO",64114,38.9615835290001,-94.593766833,350,"9208 CENTRAL STREET, KANSAS CITY, MO, 64114","Match","Exact","9208 CENTRAL ST, KANSAS CITY, MO, 64114",91491563,"R"
930351,"9208 CHANDLER DR","GROVELAND","FL",34736,28.575861425,-81.802896687,351,"9208 CHANDLER DR, GROVELAND, FL, 34736","Match","Exact","9208 CHANDLER DR, GROVELAND, FL, 34736",651715335,"L"
930352,"9208 CINDER PL NW","ALBUQUERQUE","NM",87120,35.0941264740001,-106.742966851,352,"9208 CINDER PL NW, ALBUQUERQUE, NM, 87120","Match","Exact","9208 CINDER PL NW, ALBUQUERQUE, NM, 87120",626893864,"R"
930353,"9208 CROOKED CREEK LANE","OKC","OK",73160,35.374344788,-97.467575287,353,"9208 CROOKED CREEK LANE, OKC, OK, 73160","Match","Non_Exact","9208 CROOKED CREEK LN, OKLAHOMA CITY, OK, 73160",624485707,"R"
930354,"9208 CUB RUN DR","CONCORD","NC",28027,35.467563023,-80.733507823,354,"9208 CUB RUN DR, CONCORD, NC, 28027","Match","Exact","9208 CUB RUN DR, CONCORD, NC, 28027",24911868,"L"
930355,"9208 E BEDELL STREET","WICHITA","KS",67207,37.6679644700001,-97.2297542049999,355,"9208 E BEDELL STREET, WICHITA, KS, 67207","Match","Exact","9208 BEDELL ST, WICHITA, KS, 67207",115652649,"L"
930356,"9208 E CHAMPAGNE DR","SUN LAKES","AZ",85248,33.2240959920001,-111.884036471,356,"9208 E CHAMPAGNE DR, SUN LAKES, AZ, 85248","Match","Exact","9208 E CHAMPAGNE DR, SUN LAKES, AZ, 85248",128860174,"R"
930357,"9208 EL CAMINITO","GILROY","CA",95020,37.0257315850001,-121.601548164,357,"9208 EL CAMINITO, GILROY, CA, 95020","Match","Exact","9208 EL CAMINITO, GILROY, CA, 95020",122993285,"R"
930358,"9208 FAIRLANE PL","LAUREL","DC",20708,NA,NA,358,"9208 FAIRLANE PL, LAUREL, DC, 20708","No_Match",NA,NA,NA,NA
930359,"9208 FOX HOLLOW TRAIL","IRVING","TX",75063,32.931945506,-96.962012504,359,"9208 FOX HOLLOW TRAIL, IRVING, TX, 75063","Match","Exact","9208 FOX HOLLOW TRL, IRVING, TX, 75063",617054423,"R"
930360,"9208 GRAFFINGTON WAY","RALEIGH","NC",27615,NA,NA,360,"9208 GRAFFINGTON WAY, RALEIGH, NC, 27615","No_Match",NA,NA,NA,NA
930361,"9208 HARRISBURG LN","MCKINNEY","TX",75071,33.207494076,-96.736651034,361,"9208 HARRISBURG LN, MCKINNEY, TX, 75071","Match","Exact","9208 HARRISBURG LN, MCKINNEY, TX, 75071",123555422,"R"
930362,"9208 HONEYSUCKLE DR","EASTON","MD",21601,38.800574065,-76.0574352359999,362,"9208 HONEYSUCKLE DR, EASTON, MD, 21601","Match","Non_Exact","9208 HONEYSUCKLE DR N, EASTON, MD, 21601",209753561,"R"
930363,"9208 KLINGER RD","COVINGTON","OH",45318,40.1427737170001,-84.378078145,363,"9208 KLINGER RD, COVINGTON, OH, 45318","Match","Exact","9208 KLINGER RD, COVINGTON, OH, 45318",207644075,"R"
930364,"9208 LONGVIEW DR","JOHNSTON","IA",50131,41.6590733310001,-93.745545497,364,"9208 LONGVIEW DR, JOHNSTON, IA, 50131","Match","Exact","9208 LONGVIEW DR, JOHNSTON, IA, 50131",65801605,"R"
930365,"9208 MARILYN DRIVE","WHITE SETTLEMENT","TX",76108,32.7487893090001,-97.474418881,365,"9208 MARILYN DRIVE, WHITE SETTLEMENT, TX, 76108","Match","Exact","9208 MARILYN DR, WHITE SETTLEMENT, TX, 76108",102190953,"R"
930366,"9208 N 96TH E AVE","OWASSO","OK",74055,36.2880747230001,-95.866962278,366,"9208 N 96TH E AVE, OWASSO, OK, 74055","Match","Exact","9208 N 96TH E AVE, OWASSO, OK, 74055",641408751,"R"
930367,"9208 NE 116TH TERR","KANSAS CITY","MO",64157,39.3036048220001,-94.4664864379999,367,"9208 NE 116TH TERR, KANSAS CITY, MO, 64157","Match","Exact","9208 NE 116TH TER, KANSAS CITY, MO, 64157",641529791,"R"
930368,"9208 NE HWY 99  BOX 107-432","VANCOUVER","WA",98665,45.6885332510001,-122.659085115,368,"9208 NE HWY 99  BOX 107-432, VANCOUVER, WA, 98665","Match","Non_Exact","9208 NE HWY 99, VANCOUVER, WA, 98665",648929387,"L"
930369,"9208 NE HWY 99 STE 107-357","VANCOUVER","WA",98665,45.6885332510001,-122.659085115,369,"9208 NE HWY 99 STE 107-357, VANCOUVER, WA, 98665","Match","Non_Exact","9208 NE HWY 99, VANCOUVER, WA, 98665",648929387,"L"
930370,"9208 NE HWY 99 STE 107-386","VANCOUVER","WA",98665,45.6885332510001,-122.659085115,370,"9208 NE HWY 99 STE 107-386, VANCOUVER, WA, 98665","Match","Non_Exact","9208 NE HWY 99, VANCOUVER, WA, 98665",648929387,"L"
930371,"9208 NE HWY 99 SUITE 107-386","VANCOUVER","WA",98665,45.6885332510001,-122.659085115,371,"9208 NE HWY 99 SUITE 107-386, VANCOUVER, WA, 98665","Match","Non_Exact","9208 NE HWY 99, VANCOUVER, WA, 98665",648929387,"L"
930372,"9208 NW 99TH ST","YUKON","OK",73099,35.5698227940001,-97.678263371,372,"9208 NW 99TH ST, YUKON, OK, 73099","Match","Exact","9208 NW 99TH ST, YUKON, OK, 73099",92531644,"L"
930373,"9208 RIVERSIDE STATION BLVD","SECAUCUS","NJ",7094,40.765291394,-74.083010352,373,"9208 RIVERSIDE STATION BLVD, SECAUCUS, NJ, 7094","Match","Exact","9208 RIVERSIDE STATION BLVD, SECAUCUS, NJ, 07094",633417680,"R"
930374,"9208 S LOOMIS-UNIT 1","CHICAGO","IL",60620,NA,NA,374,"9208 S LOOMIS-UNIT 1, CHICAGO, IL, 60620","No_Match",NA,NA,NA,NA
930375,"9208 S LOOMIS-UNIT 2","CHICAGO","IL",60620,NA,NA,375,"9208 S LOOMIS-UNIT 2, CHICAGO, IL, 60620","No_Match",NA,NA,NA,NA
930376,"9208 SANDHILLS DRIVE","ARGYLE","TX",76226,33.0746224970001,-97.114189107,376,"9208 SANDHILLS DRIVE, ARGYLE, TX, 76226","Match","Exact","9208 SANDHILLS DR, ARGYLE, TX, 76226",646878624,"L"
930377,"9208 SHADYDALE DRIVE","ST LOUIS","MO",63138,38.7336371710001,-90.249967547,377,"9208 SHADYDALE DRIVE, ST LOUIS, MO, 63138","Match","Non_Exact","9208 SHADYDALE DR, SAINT LOUIS, MO, 63136",100149536,"R"
930378,"9208 SOUTH 41ST STREET","FRANKLIN","WI",53132,42.8765232590001,-87.966886016,378,"9208 SOUTH 41ST STREET, FRANKLIN, WI, 53132","Match","Exact","9208 S 41ST ST, FRANKLIN, WI, 53132",77763281,"R"
930379,"9208 SOUTH FLORENCE AVE","TULSA","OK",74137,36.027695109,-95.941326177,379,"9208 SOUTH FLORENCE AVE, TULSA, OK, 74137","Match","Exact","9208 S FLORENCE AVE, TULSA, OK, 74137",642071279,"L"
930380,"9208 SOUTH LOOMIS","CHICAGO","IL",60620,41.7264744930001,-87.65794895,380,"9208 SOUTH LOOMIS, CHICAGO, IL, 60620","Match","Non_Exact","9208 S LOOMIS ST, CHICAGO, IL, 60620",111823011,"R"
930381,"9208 SUMNER GROVE DRIVE","LAUREL","MD",20708,39.0452500660001,-76.847746779,381,"9208 SUMNER GROVE DRIVE, LAUREL, MD, 20708","Match","Exact","9208 SUMNER GROVE DR, LAUREL, MD, 20708",641062746,"L"
930382,"9208 TROY RD","NEW CARLISLE","OH",45344,39.992471042,-83.9771154379999,382,"9208 TROY RD, NEW CARLISLE, OH, 45344","Match","Exact","9208 TROY RD, NEW CARLISLE, OH, 45344",635605445,"L"
930383,"9208 TWINS STREET","BRAINERD","MN",56401,46.3726197730001,-94.209525185,383,"9208 TWINS STREET, BRAINERD, MN, 56401","Match","Exact","9208 TWINS ST, BRAINERD, MN, 56401",162855881,"R"
930384,"9208 W 156TH PLACE","OVERLAND PARK","KS",66221,38.844503424,-94.69094103,384,"9208 W 156TH PLACE, OVERLAND PARK, KS, 66221","Match","Exact","9208 W 156TH PL, OVERLAND PARK, KS, 66221",647310009,"L"
930385,"9208 W CENTURY DR 517","ARIZONA CITY","AZ",85123,32.7533978220001,-111.666358225,385,"9208 W CENTURY DR 517, ARIZONA CITY, AZ, 85123","Match","Non_Exact","9208 W CENTURY DR, ARIZONA CITY, AZ, 85123",129185632,"L"
930386,"9208 W CENTURY DRIVE 517","ARIZONA CITY","AZ",85123,32.7533978220001,-111.666358225,386,"9208 W CENTURY DRIVE 517, ARIZONA CITY, AZ, 85123","Match","Non_Exact","9208 W CENTURY DR, ARIZONA CITY, AZ, 85123",129185632,"L"
930387,"9208 WINDSOR HWY","DIMONDALE","MI",48821,42.6473785630001,-84.658574888,387,"9208 WINDSOR HWY, DIMONDALE, MI, 48821","Match","Exact","9208 WINDSOR HWY, DIMONDALE, MI, 48821",637410022,"R"
930388,"9208 WOODEN BRIDGE ROAD","POTOMAC","MD",20854,39.0633925810001,-77.1890095099999,388,"9208 WOODEN BRIDGE ROAD, POTOMAC, MD, 20854","Match","Exact","9208 WOODEN BRIDGE RD, POTOMAC, MD, 20854",62053641,"L"
930389,"92086 460TH AVENUE","WINDOM","MN",56101,43.82118475,-95.155495075,389,"92086 460TH AVENUE, WINDOM, MN, 56101","Match","Exact","92086 460TH AVE, WINDOM, MN, 56101",9937199,"R"
930390,"9209  TUCKAHOE LANE TUCKAHOE LANE","ADELPHI","MD",20783,39.0165495570001,-76.963228176,390,"9209  TUCKAHOE LANE TUCKAHOE LANE, ADELPHI, MD, 20783","Match","Exact","9209 TUCKAHOE LN, ADELPHI, MD, 20783",76323407,"R"
930391,"9209 8TH AVENUE SW","SEATTLE","WA",98106,47.5206181710001,-122.345450127,391,"9209 8TH AVENUE SW, SEATTLE, WA, 98106","Match","Exact","9209 8TH AVE SW, SEATTLE, WA, 98106",186993083,"R"
930392,"9209 BLACKSTONE DRIVE","PROVIDENCE VILLAGE","TX",76227,33.2412221110001,-96.966409084,392,"9209 BLACKSTONE DRIVE, PROVIDENCE VILLAGE, TX, 76227","Match","Exact","9209 BLACKSTONE DR, PROVIDENCE VILLAGE, TX, 76227",646832206,"L"
930393,"9209 CHARTERHOUSE RD","FREDERICK","MD",21704,39.3409068330001,-77.342173012,393,"9209 CHARTERHOUSE RD, FREDERICK, MD, 21704","Match","Exact","9209 CHARTERHOUSE RD, FREDERICK, MD, 21704",608292514,"R"
930394,"9209 CLAY CANYON DR","CORONA","CA",92833,33.782769665,-117.499660241,394,"9209 CLAY CANYON DR, CORONA, CA, 92833","Match","Non_Exact","9209 CLAY CANYON DR, CORONA, CA, 92883",194745021,"R"
930395,"9209 CLINTON ANDERSON DRIVE NW","ALBURQUERQUE","NM",87114,35.186446587,-106.676882018,395,"9209 CLINTON ANDERSON DRIVE NW, ALBURQUERQUE, NM, 87114","Match","Non_Exact","9209 CLINTON ANDERSON DR NW, ALBUQUERQUE, NM, 87114",206732667,"L"
930396,"9209 CORNWELL DRIVE","WAKE FOREST","NC",27587,35.931879097,-78.51469159,396,"9209 CORNWELL DRIVE, WAKE FOREST, NC, 27587","Match","Exact","9209 CORNWELL DR, WAKE FOREST, NC, 27587",612815529,"L"
930397,"9209 CYPRESS COVE DR","ORLANDO","FL",32819,28.449807305,-81.5155225029999,397,"9209 CYPRESS COVE DR, ORLANDO, FL, 32819","Match","Exact","9209 CYPRESS COVE DR, ORLANDO, FL, 32819",94267110,"L"
930398,"9209 DAYSTAR DRIVE","PLANO","TX",75025,33.1039952240001,-96.7416627439999,398,"9209 DAYSTAR DRIVE, PLANO, TX, 75025","Match","Exact","9209 DAYSTAR DR, PLANO, TX, 75025",123533665,"L"
930399,"9209 DEWEY GIBBS ROAD","URBANDALE","IA",50322,41.6249465440001,-93.744523853,399,"9209 DEWEY GIBBS ROAD, URBANDALE, IA, 50322","Match","Exact","9209 DEWEY GIBBS RD, URBANDALE, IA, 50322",65776131,"R"
930400,"9209 GARY LANE","GLENARDEN","MD",20774,38.931316576,-76.849553358,400,"9209 GARY LANE, GLENARDEN, MD, 20774","Match","Exact","9209 GARY LN, GLENARDEN, MD, 20774",76310880,"R"
930401,"9209 GREAT LAKES CIRCLE","MIAMISBURG","OH",45458,39.614280104,-84.203812966,401,"9209 GREAT LAKES CIRCLE, MIAMISBURG, OH, 45458","Match","Non_Exact","9209 GREAT LAKES CIR, CENTERVILLE, OH, 45458",627648113,"R"
930402,"9209 HI VIEW LN","LOUISVILLE","KY",40272,38.121447387,-85.831179063,402,"9209 HI VIEW LN, LOUISVILLE, KY, 40272","Match","Exact","9209 HI VIEW LN, LOUISVILLE, KY, 40272",96840019,"L"
930403,"9209 HUNTINGTON CIRCLE","JOHNSTON","IA",50131,41.6745714400001,-93.746028974,403,"9209 HUNTINGTON CIRCLE, JOHNSTON, IA, 50131","Match","Exact","9209 HUNTINGTON CIR, JOHNSTON, IA, 50131",65811349,"L"
930404,"9209 LAGUNA LAKE WAY","ELK GROVE","CA",95758,38.41477654,-121.435813831,404,"9209 LAGUNA LAKE WAY, ELK GROVE, CA, 95758","Match","Exact","9209 LAGUNA LAKE WAY, ELK GROVE, CA, 95758",133416570,"L"
930405,"9209 LORTON VALLEY ROAD","LORTON","VA",22079,38.708089796,-77.228263349,405,"9209 LORTON VALLEY ROAD, LORTON, VA, 22079","Match","Exact","9209 LORTON VALLEY RD, LORTON, VA, 22079",76043411,"L"
930406,"9209 MIDLAND TURN","UPPER MARLBORO","MD",20772,38.7638255100001,-76.792585446,406,"9209 MIDLAND TURN, UPPER MARLBORO, MD, 20772","Match","Exact","9209 MIDLAND TURN, UPPER MARLBORO, MD, 20772",639249282,"R"
930407,"9209 NORTH 103RD EAST AVENUE","OWASSO","OK",74055,NA,NA,407,"9209 NORTH 103RD EAST AVENUE, OWASSO, OK, 74055","Tie",NA,NA,NA,NA
930408,"9209 NW 53RD CT","SUNRISE","FL",33351,26.1897732,-80.273164272,408,"9209 NW 53RD CT, SUNRISE, FL, 33351","Match","Exact","9209 NW 53RD CT, SUNRISE, FL, 33351",114752181,"R"
930409,"9209 SCENIC BLUFF DRIVE","AUSTIN","TX",78733,NA,NA,409,"9209 SCENIC BLUFF DRIVE, AUSTIN, TX, 78733","No_Match",NA,NA,NA,NA
930410,"9209 SEMINOLE BLVD  UNIT 99","SEMINOLE","FL",33772,27.857048521,-82.787052972,410,"9209 SEMINOLE BLVD  UNIT 99, SEMINOLE, FL, 33772","Match","Exact","9209 SEMINOLE BLVD, SEMINOLE, FL, 33772",639734145,"R"
930411,"9209 SR 333 NORTH","LONDON","AR",72847,NA,NA,411,"9209 SR 333 NORTH, LONDON, AR, 72847","No_Match",NA,NA,NA,NA
930412,"9209 SW 136 STREET CIR","MIAMI","FL",33176,25.6457755180001,-80.342316765,412,"9209 SW 136 STREET CIR, MIAMI, FL, 33176","Match","Exact","9209 SW 136TH STREET CIR, MIAMI, FL, 33176",638638542,"R"
930413,"9209 SW 1ST PLACE","GAINESVILLE","FL",32607,29.6511375850001,-82.440224219,413,"9209 SW 1ST PLACE, GAINESVILLE, FL, 32607","Match","Exact","9209 SW 1ST PL, GAINESVILLE, FL, 32607",6803015,"L"
930414,"9209 SW 227TH STREET  UNIT 3","CUTLER BAY","FL",33190,25.5571963560001,-80.341064101,414,"9209 SW 227TH STREET  UNIT 3, CUTLER BAY, FL, 33190","Match","Non_Exact","9209 SW 227TH ST, CUTLER BAY, FL, 33190",634011414,"L"
930415,"9209 TUCKAHOE LN","ADELPHI","MD",20783,39.0165495570001,-76.963228176,415,"9209 TUCKAHOE LN, ADELPHI, MD, 20783","Match","Exact","9209 TUCKAHOE LN, ADELPHI, MD, 20783",76323407,"R"
930416,"9209 WESTDRUM COURT","INDIANAPOLIS","IN",46231,39.7557301680001,-86.325711457,416,"9209 WESTDRUM COURT, INDIANAPOLIS, IN, 46231","Match","Exact","9209 WESTDRUM CT, INDIANAPOLIS, IN, 46231",108033937,"R"
930417,"9209 WOODHURST COURT","LOUISVILLE","KY",40222,38.2277187060001,-85.584495268,417,"9209 WOODHURST COURT, LOUISVILLE, KY, 40222","Match","Exact","9209 WOODHURST CT, LOUISVILLE, KY, 40222",96870474,"L"
930418,"921 13TH STREET NW","FAYETTE","AL",35555,33.7084300710001,-87.839276949,418,"921 13TH STREET NW, FAYETTE, AL, 35555","Match","Exact","921 13TH ST NW, FAYETTE, AL, 35555",120515341,"L"
930419,"921 18TH STREET","ZION","IL",60099,42.462485982,-87.819966579,419,"921 18TH STREET, ZION, IL, 60099","Match","Exact","921 18TH ST, ZION, IL, 60099",119677481,"R"
930420,"921 21ST AVE","SEATTLE","WA",98112,47.610351817,-122.305019297,420,"921 21ST AVE, SEATTLE, WA, 98112","Match","Non_Exact","921 21ST AVE, SEATTLE, WA, 98122",186592957,"L"
930421,"921 24TH AVE S APT 5","MINNEAPOLIS","MN",55406,44.963341627,-93.237733378,421,"921 24TH AVE S APT 5, MINNEAPOLIS, MN, 55406","Match","Exact","921 24TH AVE S, MINNEAPOLIS, MN, 55406",43647173,"L"
930422,"921 26TH STREET","ORLANDO","FL",32805,28.5155604220001,-81.39224754,422,"921 26TH STREET, ORLANDO, FL, 32805","Match","Exact","921 26TH ST, ORLANDO, FL, 32805",94283528,"R"
930423,"921 31ST PLACE","BELLINGHAM","WA",98225,48.724387623,-122.476681939,423,"921 31ST PLACE, BELLINGHAM, WA, 98225","Match","Exact","921 31ST PL, BELLINGHAM, WA, 98225",183789337,"L"
930424,"921 3RD STREET","HAVRE","MT",59501,48.550357406,-109.669338472,424,"921 3RD STREET, HAVRE, MT, 59501","Match","Exact","921 3RD ST, HAVRE, MT, 59501",162154349,"R"
930425,"921 48TH AVENUE","VERO BEACH","FL",32966,27.6183794840001,-80.435677889,425,"921 48TH AVENUE, VERO BEACH, FL, 32966","Match","Exact","921 48TH AVE, VERO BEACH, FL, 32966",120317092,"R"
930426,"921 52 ST          APT 302","NE WASHGINTON","DC",20019,NA,NA,426,"921 52 ST          APT 302, NE WASHGINTON, DC, 20019","No_Match",NA,NA,NA,NA
930427,"921 56TH STREET","WEST DES MOINES","IA",50266,41.582427253,-93.783609325,427,"921 56TH STREET, WEST DES MOINES, IA, 50266","Match","Exact","921 56TH ST, WEST DES MOINES, IA, 50266",65794483,"R"
930428,"921 63RD AVENUE EAST","BRADENTON","FL",34203,27.429297095,-82.5545469639999,428,"921 63RD AVENUE EAST, BRADENTON, FL, 34203","Match","Exact","921 63RD AVE E, BRADENTON, FL, 34203",16240377,"L"
930429,"921 7TH STREET","LAUREL","MD",20707,39.0992313720001,-76.857562617,429,"921 7TH STREET, LAUREL, MD, 20707","Match","Exact","921 7TH ST, LAUREL, MD, 20707",76325598,"R"
930430,"921 9TH STREET","LAKE LINDEN","MI",49945,NA,NA,430,"921 9TH STREET, LAKE LINDEN, MI, 49945","No_Match",NA,NA,NA,NA
930431,"921 AIRPORT SERVICE ROAD","NASHVILLE","TN",37214,NA,NA,431,"921 AIRPORT SERVICE ROAD, NASHVILLE, TN, 37214","No_Match",NA,NA,NA,NA
930432,"921 AIRPORT WAY","HAILEY","ID",83333,43.512201782,-114.306921203,432,"921 AIRPORT WAY, HAILEY, ID, 83333","Match","Exact","921 AIRPORT WAY, HAILEY, ID, 83333",105239372,"R"
930433,"921 ALLENDALE  STREET","BALTIMORE","MD",20212,39.2981782580001,-76.678618205,433,"921 ALLENDALE  STREET, BALTIMORE, MD, 20212","Match","Non_Exact","921 ALLENDALE ST, BALTIMORE, MD, 21229",206413319,"R"
930434,"921 AMANDA DR","LITHONIA","GA",30058,33.702501533,-84.109226532,434,"921 AMANDA DR, LITHONIA, GA, 30058","Match","Exact","921 AMANDA DR, LITHONIA, GA, 30058",619388719,"L"
930435,"921 AMELIA COURT","WINDSOR","CA",95492,38.560917671,-122.80432086,435,"921 AMELIA COURT, WINDSOR, CA, 95492","Match","Exact","921 AMELIA CT, WINDSOR, CA, 95492",67511450,"L"
930436,"921 ANCHORAGE LANE","GRAYSON","GA",30017,33.898603925,-83.9775677599999,436,"921 ANCHORAGE LANE, GRAYSON, GA, 30017","Match","Exact","921 ANCHORAGE LN, GRAYSON, GA, 30017",88935033,"L"
930437,"921 ANCHORAGE LN","GRAYSON","GA",30017,33.898603925,-83.9775677599999,437,"921 ANCHORAGE LN, GRAYSON, GA, 30017","Match","Exact","921 ANCHORAGE LN, GRAYSON, GA, 30017",88935033,"L"
930438,"921 ANGELA ST","ARABI","LA",70032,29.9560231610001,-90.0065461839999,438,"921 ANGELA ST, ARABI, LA, 70032","Match","Non_Exact","921 ANGELA AVE, ARABI, LA, 70032",111185985,"R"
930439,"921 ANNAPOLIS AVE","EDGEWATER","MD",21037,38.908783456,-76.517207489,439,"921 ANNAPOLIS AVE, EDGEWATER, MD, 21037","Match","Exact","921 ANNAPOLIS AVE, EDGEWATER, MD, 21037",68177609,"R"
930440,"921 ARTHUR ROAD","MONTOURSVILLE","PA",17754,41.256752368,-76.913269881,440,"921 ARTHUR ROAD, MONTOURSVILLE, PA, 17754","Match","Exact","921 ARTHUR RD, MONTOURSVILLE, PA, 17754",59448998,"L"
930441,"921 ASBURY AVE","EVANSTON","IL",60202,42.0349520140001,-87.689924639,441,"921 ASBURY AVE, EVANSTON, IL, 60202","Match","Exact","921 ASBURY AVE, EVANSTON, IL, 60202",605252094,"R"
930442,"921 ASBURY AVENUE","EVANSTON","IL",60202,42.0349520140001,-87.689924639,442,"921 ASBURY AVENUE, EVANSTON, IL, 60202","Match","Exact","921 ASBURY AVE, EVANSTON, IL, 60202",605252094,"R"
930443,"921 ASHFORD LANE","WESTMONT","IL",60559,41.777918691,-87.972534303,443,"921 ASHFORD LANE, WESTMONT, IL, 60559","Match","Exact","921 ASHFORD LN, WESTMONT, IL, 60559",636318851,"L"
930444,"921 ASPEN CT","DESOTO","TX",75115,32.6159171190001,-96.835764893,444,"921 ASPEN CT, DESOTO, TX, 75115","Match","Exact","921 ASPEN CT, DESOTO, TX, 75115",103188549,"R"
930445,"921 ASSEMBLY STREET","COLUMBIA","SC",29208,33.996990281,-81.033653425,445,"921 ASSEMBLY STREET, COLUMBIA, SC, 29208","Match","Non_Exact","921 ASSEMBLY ST, COLUMBIA, SC, 29201",638928507,"L"
930446,"921 BAKER AVE","DICKINSON","ND",58601,46.886754496,-102.763466987,446,"921 BAKER AVE, DICKINSON, ND, 58601","Match","Exact","921 BAKER AVE, DICKINSON, ND, 58601",199273807,"L"
930447,"921 BASSWOOD DRIVE","WEBSTER","NY",14605,43.2113058480001,-77.4868230179999,447,"921 BASSWOOD DRIVE, WEBSTER, NY, 14605","Match","Non_Exact","921 BASSWOOD DR, WEBSTER, NY, 14580",14551396,"L"
930448,"921 BELLEFONTE AVENUE","LOCK HAVEN","PA",17745,41.1306335100001,-77.4633580289999,448,"921 BELLEFONTE AVENUE, LOCK HAVEN, PA, 17745","Match","Exact","921 BELLEFONTE AVE, LOCK HAVEN, PA, 17745",77150531,"L"
930449,"921 BERESFORD WAY","LAKE MARY","FL",32746,28.73717658,-81.352369997,449,"921 BERESFORD WAY, LAKE MARY, FL, 32746","Match","Exact","921 BERESFORD WAY, LAKE MARY, FL, 32746",93769163,"R"
930450,"921 BERGEN AVE","JERSEY CITY","NJ",7601,NA,NA,450,"921 BERGEN AVE, JERSEY CITY, NJ, 7601","No_Match",NA,NA,NA,NA
930451,"921 BEVERLY ROAD","RYDAL","PA",19046,40.0934522430001,-75.105185175,451,"921 BEVERLY ROAD, RYDAL, PA, 19046","Match","Exact","921 BEVERLY RD, RYDAL, PA, 19046",135095275,"R"
930452,"921 BIRCHWOOD DRIVE","RAYMORE","MO",64083,38.786671181,-94.445571409,452,"921 BIRCHWOOD DRIVE, RAYMORE, MO, 64083","Match","Exact","921 BIRCHWOOD DR, RAYMORE, MO, 64083",100939140,"R"
930453,"921 BIRKSHIRE AVENUE","CHANDLER","IN",47610,38.046073774,-87.354097392,453,"921 BIRKSHIRE AVENUE, CHANDLER, IN, 47610","Match","Exact","921 BIRKSHIRE AVE, CHANDLER, IN, 47610",32214255,"L"
930454,"921 BLACK JACK LANE","MOORE","OK",73160,35.345440846,-97.461122404,454,"921 BLACK JACK LANE, MOORE, OK, 73160","Match","Exact","921 BLACK JACK LN, MOORE, OK, 73160",99956621,"R"
930455,"921 BOURBON STREET","NEW ORLEANS","LA",70116,29.960472426,-90.063989813,455,"921 BOURBON STREET, NEW ORLEANS, LA, 70116","Match","Exact","921 BOURBON ST, NEW ORLEANS, LA, 70116",191710940,"L"
930456,"921 BOURLAND RD","KELLER","TX",76248,32.9480348020001,-97.242794358,456,"921 BOURLAND RD, KELLER, TX, 76248","Match","Exact","921 BOURLAND RD, KELLER, TX, 76248",102109655,"L"
930457,"921 BOXWOOD COURT","CHATHAM","IL",62629,NA,NA,457,"921 BOXWOOD COURT, CHATHAM, IL, 62629","No_Match",NA,NA,NA,NA
930458,"921 BRAD STREET","LANSING","MI",48911,42.6738134190001,-84.564817107,458,"921 BRAD STREET, LANSING, MI, 48911","Match","Exact","921 BRAD ST, LANSING, MI, 48911",17502584,"L"
930459,"921 BRENTWOOD DRIVE","MURPHY","TX",75094,33.0305896900001,-96.616999876,459,"921 BRENTWOOD DRIVE, MURPHY, TX, 75094","Match","Exact","921 BRENTWOOD DR, MURPHY, TX, 75094",210490017,"R"
930460,"921 BRIARWOOD CT","MASON","OH",45040,39.363720818,-84.284256318,460,"921 BRIARWOOD CT, MASON, OH, 45040","Match","Exact","921 BRIARWOOD CT, MASON, OH, 45040",159043151,"L"
930461,"921 BRITTEN AVE","LANSING","MI",48910,42.716914714,-84.565046936,461,"921 BRITTEN AVE, LANSING, MI, 48910","Match","Exact","921 BRITTEN AVE, LANSING, MI, 48910",17498823,"L"
930462,"921 BROADHAVEN DRIVE","RALEIGH","NC",27603,35.624181133,-78.67317926,462,"921 BROADHAVEN DRIVE, RALEIGH, NC, 27603","Match","Exact","921 BROADHAVEN DR, RALEIGH, NC, 27603",72598210,"L"
930463,"921 BROADWAY ST","PLAINVIEW","TX",79072,34.1899409370001,-101.70308017,463,"921 BROADWAY ST, PLAINVIEW, TX, 79072","Match","Exact","921 BROADWAY ST, PLAINVIEW, TX, 79072",185696547,"L"
930464,"921 BROOKBERRY FARM CIRCLE","WINSTON-SALEM","NC",27106,36.1117685610001,-80.3750904779999,464,"921 BROOKBERRY FARM CIRCLE, WINSTON-SALEM, NC, 27106","Match","Exact","921 BROOKBERRY FARM CIR, WINSTON SALEM, NC, 27106",628540788,"L"
930465,"921 BROOKFIELD DR APT 6","MANSFIELD","OH",44907,40.7319808350001,-82.505385879,465,"921 BROOKFIELD DR APT 6, MANSFIELD, OH, 44907","Match","Exact","921 BROOKFIELD DR, MANSFIELD, OH, 44907",207218910,"L"
930466,"921 BRYAN PLACE A6","GARNER","NC",27529,35.7107691680001,-78.617380786,466,"921 BRYAN PLACE A6, GARNER, NC, 27529","Match","Exact","921 BRYAN PL, GARNER, NC, 27529",72563698,"L"
930467,"921 BRYAN PLACE APT B1","GARNER","NC",27529,35.7107691680001,-78.617380786,467,"921 BRYAN PLACE APT B1, GARNER, NC, 27529","Match","Exact","921 BRYAN PL, GARNER, NC, 27529",72563698,"L"
930468,"921 BUFFALO SPRINGS DRIVE","FORT WORTH","TX",76140,32.6063003620001,-97.303215225,468,"921 BUFFALO SPRINGS DRIVE, FORT WORTH, TX, 76140","Match","Exact","921 BUFFALO SPRINGS DR, FORT WORTH, TX, 76140",637604442,"L"
930469,"921 BUSLEIGH CASTLE WAY","PFLUGERVILLE","TX",78660,30.474817924,-97.608679442,469,"921 BUSLEIGH CASTLE WAY, PFLUGERVILLE, TX, 78660","Match","Exact","921 BUSLEIGH CASTLE WAY, PFLUGERVILLE, TX, 78660",64121570,"R"
930470,"921 CAPWOOD AVENUE","LITCHFIELD","MN",55355,45.1360331440001,-94.512047759,470,"921 CAPWOOD AVENUE, LITCHFIELD, MN, 55355","Match","Exact","921 CAPWOOD AVE, LITCHFIELD, MN, 55355",612991915,"R"
930471,"921 CASSEQUE PROVINCE","MT PLEASANT","SC",29464,32.8416257740001,-79.830255815,471,"921 CASSEQUE PROVINCE, MT PLEASANT, SC, 29464","Match","Exact","921 CASSEQUE PROVINCE, MOUNT PLEASANT, SC, 29464",631235331,"R"
930472,"921 CEDARBERRY RD","NORTH PLATTE","NE",69101,41.1270836960001,-100.775147055,472,"921 CEDARBERRY RD, NORTH PLATTE, NE, 69101","Match","Exact","921 CEDARBERRY RD, NORTH PLATTE, NE, 69101",151260255,"L"
930473,"921 CENTRAL AVENUE NORTH","KENT","WA",98032,47.389881964,-122.231090359,473,"921 CENTRAL AVENUE NORTH, KENT, WA, 98032","Match","Exact","921 CENTRAL AVE N, KENT, WA, 98032",187043260,"L"
930474,"921 CHURCH ST","HOUMA","LA",70360,29.5919199160001,-90.723198025,474,"921 CHURCH ST, HOUMA, LA, 70360","Match","Exact","921 CHURCH ST, HOUMA, LA, 70360",92051689,"L"
930475,"921 CHURCH ST","SAN FRANCISCO","CA",94114,37.7561494940001,-122.427849332,475,"921 CHURCH ST, SAN FRANCISCO, CA, 94114","Match","Exact","921 CHURCH ST, SAN FRANCISCO, CA, 94114",192284782,"L"
930476,"921 CLARK ROAD","PASCO","WA",99301,46.300087922,-119.141174863,476,"921 CLARK ROAD, PASCO, WA, 99301","Match","Exact","921 CLARK RD, PASCO, WA, 99301",175269027,"L"
930477,"921 COLERIDGE ROAD","BALTIMORE","MD",21229,39.292516662,-76.715888922,477,"921 COLERIDGE ROAD, BALTIMORE, MD, 21229","Match","Exact","921 COLERIDGE RD, BALTIMORE, MD, 21229",191484764,"R"
930478,"921 COLLEGE STREET","BOWLING GREEN","KY",42101,36.9937342440001,-86.441780534,478,"921 COLLEGE STREET, BOWLING GREEN, KY, 42101","Match","Exact","921 COLLEGE ST, BOWLING GREEN, KY, 42101",28021682,"L"
930479,"921 COUNTY RD 39","SOUTHAMPTON","NY",11968,40.8918398530001,-72.4286168309999,479,"921 COUNTY RD 39, SOUTHAMPTON, NY, 11968","Match","Exact","921 CO RD 39, SOUTHAMPTON, NY, 11968",643142512,"L"
930480,"921 COUNTY STREET 2935","TUTTLE","OK",73089,35.258042048,-97.768906212,480,"921 COUNTY STREET 2935, TUTTLE, OK, 73089","Match","Exact","921 COUNTY STREET 2935, TUTTLE, OK, 73089",624392884,"L"
930481,"921 COVENANT WAY","CHESAPEAKE","VA",23322,NA,NA,481,"921 COVENANT WAY, CHESAPEAKE, VA, 23322","No_Match",NA,NA,NA,NA
930482,"921 CRABTREE CROSSING PKWY","MORRISVILLE","NC",27560,35.8031999560001,-78.829148295,482,"921 CRABTREE CROSSING PKWY, MORRISVILLE, NC, 27560","Match","Exact","921 CRABTREE CROSSING PKWY, MORRISVILLE, NC, 27560",72615122,"L"
930483,"921 CRAWFORD APT 4212","FORT WORTH","TX",76104,32.7351865100001,-97.324240477,483,"921 CRAWFORD APT 4212, FORT WORTH, TX, 76104","Match","Non_Exact","921 CRAWFORD ST, FORT WORTH, TX, 76104",101889968,"L"
930484,"921 CREEKDALE DR","RICHARDSON","TX",75080,32.9580244410001,-96.754484345,484,"921 CREEKDALE DR, RICHARDSON, TX, 75080","Match","Exact","921 CREEKDALE DR, RICHARDSON, TX, 75080",103211420,"L"
930485,"921 CRESTVIEW DRIVE","LA CRESCENTA","CA",91202,NA,NA,485,"921 CRESTVIEW DRIVE, LA CRESCENTA, CA, 91202","No_Match",NA,NA,NA,NA
930486,"921 CYPRESS POINT CIRCLE","BOWIE","MD",20721,38.9034684320001,-76.810480114,486,"921 CYPRESS POINT CIRCLE, BOWIE, MD, 20721","Match","Exact","921 CYPRESS POINT CIR, BOWIE, MD, 20721",76319816,"L"
930487,"921 CYPRESS","PLANO","TX",75025,NA,NA,487,"921 CYPRESS, PLANO, TX, 75025","No_Match",NA,NA,NA,NA
930488,"921 DELMAR ROAD","MORGAN CITY","LA",70342,NA,NA,488,"921 DELMAR ROAD, MORGAN CITY, LA, 70342","No_Match",NA,NA,NA,NA
930489,"921 DOGWOOD DRIVE","PELL CITY","AL",35128,NA,NA,489,"921 DOGWOOD DRIVE, PELL CITY, AL, 35128","No_Match",NA,NA,NA,NA
930490,"921 E 25TH STREET","WILMINGTON","DE",19802,39.7623273820001,-75.5430530369999,490,"921 E 25TH STREET, WILMINGTON, DE, 19802","Match","Non_Exact","921 W 25TH ST, WILMINGTON, DE, 19802",187258241,"R"
930491,"921 E 3RD AVE","LUCK","WI",54853,45.573582339,-92.468758532,491,"921 E 3RD AVE, LUCK, WI, 54853","Match","Exact","921 E 3RD AVE, LUCK, WI, 54853",110835808,"R"
930492,"921 E 53RD ST S","WICHITA","KS",67216,37.5968360430001,-97.326623075,492,"921 E 53RD ST S, WICHITA, KS, 67216","Match","Exact","921 E 53RD ST S, WICHITA, KS, 67216",115656702,"R"
930493,"921 E 90TH ST","CHICAGO","IL",60619,41.7312339320001,-87.600513801,493,"921 E 90TH ST, CHICAGO, IL, 60619","Match","Exact","921 E 90TH ST, CHICAGO, IL, 60619",111775044,"R"
930494,"921 E ANGELENO AVE","BURBANK","CA",91501,34.188525688,-118.298806109,494,"921 E ANGELENO AVE, BURBANK, CA, 91501","Match","Exact","921 E ANGELENO AVE, BURBANK, CA, 91501",141595984,"L"
930495,"921 E CHULA VISTA ROAD","TUCCSON","AZ",85718,32.3299823200001,-110.958002857,495,"921 E CHULA VISTA ROAD, TUCCSON, AZ, 85718","Match","Non_Exact","921 E CHULA VISTA RD, TUCSON, AZ, 85718",121165758,"L"
930496,"921 E CLAUDE ST","CARSON","CA",90746,33.8839678000001,-118.258564641,496,"921 E CLAUDE ST, CARSON, CA, 90746","Match","Exact","921 CLAUDE ST, CARSON, CA, 90746",142766204,"L"
930497,"921 E DUPONT ROAD 794","FORT WAYNE","IN",46825,41.1778379360001,-85.1539276249999,497,"921 E DUPONT ROAD 794, FORT WAYNE, IN, 46825","Match","Non_Exact","921 W DUPONT RD, FORT WAYNE, IN, 46825",647262234,"L"
930498,"921 E HAYES","OKMULGEE","OK",74447,35.6355313110001,-95.961318212,498,"921 E HAYES, OKMULGEE, OK, 74447","Match","Non_Exact","921 E HAYES ST, OKMULGEE, OK, 74447",647834452,"L"
930499,"921 E MULBERRY STREET","ANGLETON","TX",77515,29.1662381030001,-95.4211312529999,499,"921 E MULBERRY STREET, ANGLETON, TX, 77515","Match","Exact","921 E MULBERRY ST, ANGLETON, TX, 77515",116578588,"L"
930500,"921 E OLD HICKORY BLVD APT 14","MADISON","TN",37208,NA,NA,500,"921 E OLD HICKORY BLVD APT 14, MADISON, TN, 37208","No_Match",NA,NA,NA,NA
