"ID","Address","City","State","Zip","lat","long","id","input_address","match_indicator","match_type","matched_address","tiger_line_id","tiger_side"
165001,"13901 54TH AVENUE NORTH","PLYMOUTH","MN",55446,45.0524242930001,-93.457708499,1,"13901 54TH AVENUE NORTH, PLYMOUTH, MN, 55446","Match","Non_Exact","13901 54TH AVE, PLYMOUTH, MN, 55446",624422692,"L"
165002,"13901 84TH PLACE N","MAPLE GROVE","MN",55369,45.107738006,-93.4548843649999,2,"13901 84TH PLACE N, MAPLE GROVE, MN, 55369","Match","Exact","13901 84TH PL N, MAPLE GROVE, MN, 55369",43659352,"L"
165003,"13901 84TH PLACE NORTH","MAPLE GROVE","MN",55369,45.107738006,-93.4548843649999,3,"13901 84TH PLACE NORTH, MAPLE GROVE, MN, 55369","Match","Exact","13901 84TH PL N, MAPLE GROVE, MN, 55369",43659352,"L"
165004,"13901 BALSAM LN N","DAYTON","MN",55327,45.205537172,-93.4254273179999,4,"13901 BALSAM LN N, DAYTON, MN, 55327","Match","Exact","13901 BALSAM LN N, DAYTON, MN, 55327",43850909,"L"
165005,"13901 CASTLE BLVD APT 32","SILVER SPRING","MD",20904,39.084267606,-76.9407578289999,5,"13901 CASTLE BLVD APT 32, SILVER SPRING, MD, 20904","Match","Exact","13901 CASTLE BLVD, SILVER SPRING, MD, 20904",62094084,"R"
165006,"13901 E 89TH ST N","OWASSO","OK",74055,36.282718204,-95.8183762629999,6,"13901 E 89TH ST N, OWASSO, OK, 74055","Match","Exact","13901 E 89TH ST N, OWASSO, OK, 74055",166516057,"L"
165007,"13901 E JEFFERSON","DETROIT","MI",48215,42.3712863440001,-82.948231831,7,"13901 E JEFFERSON, DETROIT, MI, 48215","Match","Non_Exact","13901 E JEFFERSON AVE, DETROIT, MI, 48215",95485892,"L"
165008,"13901 FT APACHE LANE","EL PASO","TX",79938,31.847152484,-106.198476279,8,"13901 FT APACHE LANE, EL PASO, TX, 79938","Match","Exact","13901 FORT APACHE LN, EL PASO, TX, 79938",189370411,"L"
165009,"13901 GRAND BORO LANE","GRANDVIEW","MO",64030,38.872839314,-94.535618792,9,"13901 GRAND BORO LANE, GRANDVIEW, MO, 64030","Match","Non_Exact","13901 GRANDBORO LN, GRANDVIEW, MO, 64030",91477071,"L"
165010,"13901 MIDWAY ROAD SUITE 102-285","DALLAS","TX",75244,32.9391474760001,-96.839014989,10,"13901 MIDWAY ROAD SUITE 102-285, DALLAS, TX, 75244","Match","Exact","13901 MIDWAY RD, DALLAS, TX, 75244",103250512,"L"
165011,"13901 MIDWAY ROAD","DALLAS","TX",75244,32.9391474760001,-96.839014989,11,"13901 MIDWAY ROAD, DALLAS, TX, 75244","Match","Exact","13901 MIDWAY RD, DALLAS, TX, 75244",103250512,"L"
165012,"13901 N 67TH AVE","GLENDALE","AZ",85306,33.6115971080001,-112.202595461,12,"13901 N 67TH AVE, GLENDALE, AZ, 85306","Match","Exact","13901 N 67TH AVE, GLENDALE, AZ, 85306",128174257,"R"
165013,"13901 NORDHOFF ST","ARLETA","CA",91332,34.235319003,-118.43575253,13,"13901 NORDHOFF ST, ARLETA, CA, 91332","Match","Non_Exact","13901 NORDHOFF ST, ARLETA, CA, 91331",141549757,"R"
165014,"13901 NORGHOFF ST","ARLETA","CA",91332,NA,NA,14,"13901 NORGHOFF ST, ARLETA, CA, 91332","No_Match",NA,NA,NA,NA
165015,"13901 NW 4TH STREET 101","PEMBROKE PINES","FL",33028,26.0098495560001,-80.330885138,15,"13901 NW 4TH STREET 101, PEMBROKE PINES, FL, 33028","Match","Non_Exact","13901 NW 4TH ST, PEMBROKE PINES, FL, 33028",114801406,"L"
165016,"13901 OLIVE VIEW LN UNIT 12","SYLMAR","CA",91342,34.3241074260001,-118.448453143,16,"13901 OLIVE VIEW LN UNIT 12, SYLMAR, CA, 91342","Match","Exact","13901 OLIVE VIEW LN, SYLMAR, CA, 91342",141558901,"L"
165017,"13901 RIVER CYPRESS WAY","TAMPA","FL",33637,28.072646719,-82.3634574659999,17,"13901 RIVER CYPRESS WAY, TAMPA, FL, 33637","Match","Exact","13901 RIVER CYPRESS WAY, TAMPA, FL, 33637",646562145,"R"
165018,"13901 S 4200 RD","CLAREMORE","OK",74017,36.4102283830001,-95.5251829279999,18,"13901 S 4200 RD, CLAREMORE, OK, 74017","Match","Exact","13901 S 4200 RD, CLAREMORE, OK, 74017",612085136,"R"
165019,"13901 SALEFORD TERRACE","UPPER MARLBORO","MD",20772,NA,NA,19,"13901 SALEFORD TERRACE, UPPER MARLBORO, MD, 20772","No_Match",NA,NA,NA,NA
165020,"13901 SAYRE ST UNIT 16","SYLMAR","CA",91342,34.308355293,-118.435795417,20,"13901 SAYRE ST UNIT 16, SYLMAR, CA, 91342","Match","Exact","13901 SAYRE ST, SYLMAR, CA, 91342",141546011,"R"
165021,"13901 SO CARROLTON RD","ESCALON","CA",95320,37.837422508,-121.071725936,21,"13901 SO CARROLTON RD, ESCALON, CA, 95320","Match","Exact","13901 CARROLTON RD, ESCALON, CA, 95320",133863920,"R"
165022,"13901 STATION ROAD","MIDDLEFIELD","OH",44062,41.4908531450001,-81.0997463319999,22,"13901 STATION ROAD, MIDDLEFIELD, OH, 44062","Match","Exact","13901 STATION RD, MIDDLEFIELD, OH, 44062",137437827,"L"
165023,"13901 SUTTON PARK DR S STE 170","JACKSONVILLE","FL",32224,30.2582616720001,-81.462367451,23,"13901 SUTTON PARK DR S STE 170, JACKSONVILLE, FL, 32224","Match","Exact","13901 SUTTON PARK DR S, JACKSONVILLE, FL, 32224",83961744,"L"
165024,"13901 SUTTON PARK DRIVE STE 220","JACKSONVILLE","FL",32224,30.2582616720001,-81.462367451,24,"13901 SUTTON PARK DRIVE STE 220, JACKSONVILLE, FL, 32224","Match","Non_Exact","13901 SUTTON PARK DR S, JACKSONVILLE, FL, 32224",83961744,"L"
165025,"13901 SW 31ST STREET","DAVIE","FL",33330,26.0811611400001,-80.335280266,25,"13901 SW 31ST STREET, DAVIE, FL, 33330","Match","Exact","13901 SW 31ST ST, DAVIE, FL, 33330",114814482,"R"
165026,"13901 SW 62ND STREET","MUSTANG","OK",73064,35.4033473860001,-97.7816638749999,26,"13901 SW 62ND STREET, MUSTANG, OK, 73064","Match","Exact","13901 SW 62ND ST, MUSTANG, OK, 73064",650531572,"R"
165027,"13901 TODD RUN NEW HARMONY ROAD","WILLIAMSBURG","OH",45176,39.0205200250001,-84.011921625,27,"13901 TODD RUN NEW HARMONY ROAD, WILLIAMSBURG, OH, 45176","Match","Non_Exact","13901 TODDS RUN NEW HARMONY RD, WILLIAMSBURG, OH, 45176",606314628,"R"
165028,"13901 TODDS RUN NEW HARMONY","WILLIAMSBURG","OH",45176,39.0205200250001,-84.011921625,28,"13901 TODDS RUN NEW HARMONY, WILLIAMSBURG, OH, 45176","Match","Non_Exact","13901 TODDS RUN NEW HARMONY RD, WILLIAMSBURG, OH, 45176",606314628,"R"
165029,"13901 US HWY 27","LAKE WALES","FL",33859,NA,NA,29,"13901 US HWY 27, LAKE WALES, FL, 33859","No_Match",NA,NA,NA,NA
165030,"13901 WEST SHELDON ROAD","TAMPA","FL",33626,NA,NA,30,"13901 WEST SHELDON ROAD, TAMPA, FL, 33626","No_Match",NA,NA,NA,NA
165031,"13901 WINDY KNOLL DRIVE","RIVERVIEW","FL",33579,27.7780542020001,-82.303401444,31,"13901 WINDY KNOLL DRIVE, RIVERVIEW, FL, 33579","Match","Non_Exact","13901 WINDY KNOLL RD, RIVERVIEW, FL, 33579",646577661,"L"
165032,"13902 55TH DR SE","EVERETT","WA",98208,47.871726456,-122.158262372,32,"13902 55TH DR SE, EVERETT, WA, 98208","Match","Exact","13902 55TH DR SE, EVERETT, WA, 98208",187800113,"R"
165033,"13902 BARTLETT AVENUE","CLEVLAND","OH",44120,41.4574791810001,-81.5862282579999,33,"13902 BARTLETT AVENUE, CLEVLAND, OH, 44120","Match","Non_Exact","13902 BARTLETT AVE, CLEVELAND, OH, 44120",652734758,"R"
165034,"13902 BRESSANI WAY","LIVE OAK","TX",78233,29.57141546,-98.3425917929999,34,"13902 BRESSANI WAY, LIVE OAK, TX, 78233","Match","Exact","13902 BRESSANI WAY, LIVE OAK, TX, 78233",614728622,"R"
165035,"13902 CHUCK PRIVATE RD","KAPLAN","LA",70548,NA,NA,35,"13902 CHUCK PRIVATE RD, KAPLAN, LA, 70548","No_Match",NA,NA,NA,NA
165036,"13902 CR 2134","WHITEHOUSE","TX",75791,32.204193511,-95.180896412,36,"13902 CR 2134, WHITEHOUSE, TX, 75791","Match","Exact","13902 CO RD 2134, WHITEHOUSE, TX, 75791",141307468,"R"
165037,"13902 E MARINA DR","AURORA","CO",80014,39.66341658,-104.827168723,37,"13902 E MARINA DR, AURORA, CO, 80014","Match","Exact","13902 E MARINA DR, AURORA, CO, 80014",177549139,"R"
165038,"13902 FAIRGROVE AVENUE","LA PUENTE","CA",91746,34.058989517,-117.973104626,38,"13902 FAIRGROVE AVENUE, LA PUENTE, CA, 91746","Match","Exact","13902 FAIRGROVE AVE, LA PUENTE, CA, 91746",141652143,"R"
165039,"13902 FLEUR DE LIS","CYPRESS","TX",77429,29.93868115,-95.631340414,39,"13902 FLEUR DE LIS, CYPRESS, TX, 77429","Match","Non_Exact","13902 FLEUR DE LIS BLVD, CYPRESS, TX, 77429",96004722,"R"
165040,"13902 GARBER RD","KAPLAN","LA",70548,NA,NA,40,"13902 GARBER RD, KAPLAN, LA, 70548","No_Match",NA,NA,NA,NA
165041,"13902 GLEN ABBEY DR","CHARLOTTE","NC",28278,35.0659974370001,-81.033174123,41,"13902 GLEN ABBEY DR, CHARLOTTE, NC, 28278","Match","Exact","13902 GLEN ABBEY DR, CHARLOTTE, NC, 28278",614177063,"R"
165042,"13902 LAKE MAGDALENE BLVD","TAMPA","FL",33618,28.078303938,-82.4918001029999,42,"13902 LAKE MAGDALENE BLVD, TAMPA, FL, 33618","Match","Exact","13902 LAKE MAGDALENE BLVD, TAMPA, FL, 33618",104585617,"L"
165043,"13902 MEADOWBROOK RD","BROOMFIELD","CO",80020,39.9471789020001,-105.053708323,43,"13902 MEADOWBROOK RD, BROOMFIELD, CO, 80020","Match","Non_Exact","13902 MEADOWBROOK DR, BROOMFIELD, CO, 80020",210037452,"R"
165044,"13902 N DALE MABRY HWY SUITE 203","TAMPA","FL",33618,28.0725984860001,-82.5066587279999,44,"13902 N DALE MABRY HWY SUITE 203, TAMPA, FL, 33618","Match","Non_Exact","13902 N DALE MABRY HWY, TAMPA, FL, 33618",104510647,"L"
165045,"13902 NOLANDALE ST","LA PUENTE","CA",91746,34.0611345340001,-117.971013456,45,"13902 NOLANDALE ST, LA PUENTE, CA, 91746","Match","Exact","13902 NOLANDALE ST, LA PUENTE, CA, 91746",141652090,"R"
165046,"13902 PARADISE VALLEY DR","HOUSTON","TX",77069,29.989924665,-95.5273210349999,46,"13902 PARADISE VALLEY DR, HOUSTON, TX, 77069","Match","Exact","13902 PARADISE VALLEY DR, HOUSTON, TX, 77069",96009430,"R"
165047,"13902 S ATLANTIC","RIVERDALE","IL",60827,41.6425152460001,-87.628143391,47,"13902 S ATLANTIC, RIVERDALE, IL, 60827","Match","Non_Exact","13902 S ATLANTIC AVE, RIVERDALE, IL, 60827",111834915,"R"
165048,"13902 SULLIVAN COURT","SILVER SPRING","MD",20906,39.084456699,-77.045083162,48,"13902 SULLIVAN COURT, SILVER SPRING, MD, 20906","Match","Exact","13902 SULLIVAN CT, SILVER SPRING, MD, 20906",62098068,"R"
165049,"13903 ALMEDA SCHOOL RD","HOUSTON","TX",77047,29.605315696,-95.417392497,49,"13903 ALMEDA SCHOOL RD, HOUSTON, TX, 77047","Match","Exact","13903 ALMEDA SCHOOL RD, HOUSTON, TX, 77047",96087852,"L"
165050,"13903 APPLING LANE","CHARLOTTE","NC",28278,35.073711556,-81.008053106,50,"13903 APPLING LANE, CHARLOTTE, NC, 28278","Match","Exact","13903 APPLING LN, CHARLOTTE, NC, 28278",70505439,"L"
165051,"13903 BRIARWOOD DR APT 833","LAUREL","MD",20708,39.0812017750001,-76.8506832149999,51,"13903 BRIARWOOD DR APT 833, LAUREL, MD, 20708","Match","Exact","13903 BRIARWOOD DR, LAUREL, MD, 20708",76326419,"R"
165052,"13903 CASTLE BLVD UNIT 44","SILVER SPRING","MD",20904,39.0838605540001,-76.941258107,52,"13903 CASTLE BLVD UNIT 44, SILVER SPRING, MD, 20904","Match","Exact","13903 CASTLE BLVD, SILVER SPRING, MD, 20904",62094084,"R"
165053,"13903 E 89TH ST N","OWASSO","OK",74055,36.282730133,-95.818362075,53,"13903 E 89TH ST N, OWASSO, OK, 74055","Match","Exact","13903 E 89TH ST N, OWASSO, OK, 74055",166516057,"L"
165054,"13903 FALLING RAIN CT","CYPRESS","TX",77426,30.00629214,-95.637115642,54,"13903 FALLING RAIN CT, CYPRESS, TX, 77426","Match","Non_Exact","13903 FALLING RAIN CT, CYPRESS, TX, 77429",627797121,"R"
165055,"13903 FANCY GAP DR","LOUISVILLE","KY",40299,38.1758659220001,-85.517173762,55,"13903 FANCY GAP DR, LOUISVILLE, KY, 40299","Match","Exact","13903 FANCY GAP DR, LOUISVILLE, KY, 40299",96930108,"L"
165056,"13903 FORDHAM","DETROIT","MI",48205,42.4340991,-82.9817694019999,56,"13903 FORDHAM, DETROIT, MI, 48205","Match","Non_Exact","13903 FORDHAM ST, DETROIT, MI, 48205",95467984,"L"
165057,"13903 FORT NELSON DRIVE","HOUSTON","TX",77083,29.698739204,-95.629785376,57,"13903 FORT NELSON DRIVE, HOUSTON, TX, 77083","Match","Exact","13903 FORT NELSON DR, HOUSTON, TX, 77083",641686463,"R"
165058,"13903 LOTHIAN DR","PFLUGERVILLE","TX",78660,30.4150194330001,-97.647595743,58,"13903 LOTHIAN DR, PFLUGERVILLE, TX, 78660","Match","Exact","13903 LOTHIAN DR, PFLUGERVILLE, TX, 78660",63966875,"R"
165059,"13903 MONTROSE","DETROIT","MI",48227,42.3872066500001,-83.2002424299999,59,"13903 MONTROSE, DETROIT, MI, 48227","Match","Non_Exact","13903 MONTROSE ST, DETROIT, MI, 48227",95439667,"L"
165060,"13903 THERMAL DR","AUSTIN","TX",78728,30.4298998150001,-97.6749571509999,60,"13903 THERMAL DR, AUSTIN, TX, 78728","Match","Exact","13903 THERMAL DR, AUSTIN, TX, 78728",64027197,"R"
165061,"13904 476TH AVE","CORONA","SD",57227,45.368211757,-96.678048524,61,"13904 476TH AVE, CORONA, SD, 57227","Match","Exact","13904 476TH AVE, CORONA, SD, 57227",196098239,"R"
165062,"13904 AKERS CIRCLE","EAGLE RIVER","AK",99577,61.34570948,-149.571349882,62,"13904 AKERS CIRCLE, EAGLE RIVER, AK, 99577","Match","Exact","13904 AKERS CIR, EAGLE RIVER, AK, 99577",649219344,"R"
165063,"13904 ARBORETUM STREET","ANCHORAGE","AK",99516,61.094856001,-149.809730652,63,"13904 ARBORETUM STREET, ANCHORAGE, AK, 99516","Match","Exact","13904 ARBORETUM ST, ANCHORAGE, AK, 99516",190827632,"R"
165064,"13904 ARDATH AVE","GARDENA","CA",90249,33.905319632,-118.323955648,64,"13904 ARDATH AVE, GARDENA, CA, 90249","Match","Exact","13904 ARDATH AVE, GARDENA, CA, 90249",141661077,"L"
165065,"13904 BANGOR AVE","GARFIELD HEIGHTS","OH",44125,41.4143119,-81.585231387,65,"13904 BANGOR AVE, GARFIELD HEIGHTS, OH, 44125","Match","Exact","13904 BANGOR AVE, GARFIELD HEIGHTS, OH, 44125",61128301,"R"
165066,"13904 CHESTERFIELD CIRCLE","NORTH LITTLE ROCK","AR",72117,34.7449711030001,-92.110149695,66,"13904 CHESTERFIELD CIRCLE, NORTH LITTLE ROCK, AR, 72117","Match","Exact","13904 CHESTERFIELD CIR, N LITTLE ROCK, AR, 72117",83545294,"R"
165067,"13904 COMMODORE POINT RD","MIDLOTHIAN","VA",23112,37.4364027010001,-77.659332093,67,"13904 COMMODORE POINT RD, MIDLOTHIAN, VA, 23112","Match","Exact","13904 COMMODORE POINT RD, MIDLOTHIAN, VA, 23112",201529762,"R"
165068,"13904 COMMODORE POINT ROAD","MIDLOTHIAN","VA",23112,37.4364027010001,-77.659332093,68,"13904 COMMODORE POINT ROAD, MIDLOTHIAN, VA, 23112","Match","Exact","13904 COMMODORE POINT RD, MIDLOTHIAN, VA, 23112",201529762,"R"
165069,"13904 N BOULEVARD","TAMPA","FL",33613,NA,NA,69,"13904 N BOULEVARD, TAMPA, FL, 33613","No_Match",NA,NA,NA,NA
165070,"13904 PLEASANT VIEW DR","BOWIE","MD",20720,38.9602828210001,-76.761602867,70,"13904 PLEASANT VIEW DR, BOWIE, MD, 20720","Match","Exact","13904 PLEASANT VIEW DR, BOWIE, MD, 20720",76342597,"L"
165071,"13904 SE HWY 2","TUSKAHOMA","OK",74574,34.711219541,-95.3137986569999,71,"13904 SE HWY 2, TUSKAHOMA, OK, 74574","Match","Non_Exact","13904 STATE HWY 2, TUSKAHOMA, OK, 74574",80589029,"R"
165072,"13904 SUMMERLOOK  LANE","CHESTERFIELD","VA",23832,37.3766813780001,-77.668655942,72,"13904 SUMMERLOOK  LANE, CHESTERFIELD, VA, 23832","Match","Exact","13904 SUMMERLOOK LN, CHESTERFIELD, VA, 23832",201566206,"R"
165073,"13904 SW 93 LANE","MIAMI","FL",33186,25.680335674,-80.41939589,73,"13904 SW 93 LANE, MIAMI, FL, 33186","Match","Exact","13904 93RD LN, MIAMI, FL, 33186",116092072,"R"
165074,"13904","BRUNSVILLE","MN",55337,NA,NA,74,"13904, BRUNSVILLE, MN, 55337","No_Match",NA,NA,NA,NA
165075,"13905 ASCOTT DRIVE","UPPER MARLBORO","MD",20772,38.823472565,-76.7619879549999,75,"13905 ASCOTT DRIVE, UPPER MARLBORO, MD, 20772","Match","Exact","13905 ASCOTT DR, UPPER MARLBORO, MD, 20772",76344381,"R"
165076,"13905 CAENEN","OVERLAND PARK","KS",66221,38.8758840680001,-94.7278146089999,76,"13905 CAENEN, OVERLAND PARK, KS, 66221","Match","Non_Exact","13905 CAENEN ST, OVERLAND PARK, KS, 66221",91329066,"R"
165077,"13905 CAINE AVE","CLEVELAND","OH",44128,41.4434095450001,-81.584824737,77,"13905 CAINE AVE, CLEVELAND, OH, 44128","Match","Non_Exact","13905 CAINE AVE, CLEVELAND, OH, 44105",652733144,"L"
165078,"13905 HAWTHORN AVE","EASTVALE","CA",92880,33.9577831490001,-117.586778132,78,"13905 HAWTHORN AVE, EASTVALE, CA, 92880","Match","Exact","13905 HAWTHORN AVE, EASTVALE, CA, 92880",195095571,"L"
165079,"13905 HAWTHORN AVE","EASTVALE","NJ",92880,NA,NA,79,"13905 HAWTHORN AVE, EASTVALE, NJ, 92880","No_Match",NA,NA,NA,NA
165080,"13905 MACCORKLE AVENUE","CHARLESTON","WV",25315,38.213556489,-81.525273891,80,"13905 MACCORKLE AVENUE, CHARLESTON, WV, 25315","Match","Exact","13905 MACCORKLE AVE, CHARLESTON, WV, 25315",78651124,"R"
165081,"13905 N SHORE DR","MILLERSBURG","MI",49759,45.250805094,-84.0820299979999,81,"13905 N SHORE DR, MILLERSBURG, MI, 49759","Match","Exact","13905 N SHORE DR, MILLERSBURG, MI, 49759",130765357,"R"
165082,"13905 OAK MEADOW","UNIVERSAL CITY","TX",78148,29.5660543430001,-98.324233667,82,"13905 OAK MEADOW, UNIVERSAL CITY, TX, 78148","Match","Non_Exact","13905 OAK MEADOWS, UNIVERSAL CITY, TX, 78148",652659728,"L"
165083,"13905 SHADY SHORES DRIVE","TAMPA","FL",33613,28.074683378,-82.4823871519999,83,"13905 SHADY SHORES DRIVE, TAMPA, FL, 33613","Match","Exact","13905 SHADY SHORES DR, TAMPA, FL, 33613",104555991,"R"
165084,"13905 SHANNON DR","SILVER SPRING","MD",20904,39.0842601430001,-77.005653916,84,"13905 SHANNON DR, SILVER SPRING, MD, 20904","Match","Exact","13905 SHANNON DR, SILVER SPRING, MD, 20904",62068965,"R"
165085,"13905 SHANNON DRIVE","SILVER SPRING","MD",20904,39.0842601430001,-77.005653916,85,"13905 SHANNON DRIVE, SILVER SPRING, MD, 20904","Match","Exact","13905 SHANNON DR, SILVER SPRING, MD, 20904",62068965,"R"
165086,"13905 VALE ST NW","ANDOVER","MN",55304,45.22280077,-93.2931147639999,86,"13905 VALE ST NW, ANDOVER, MN, 55304","Match","Exact","13905 VALE ST NW, ANDOVER, MN, 55304",97497821,"R"
165087,"13905 WINDJAMMER DRIVE","CORPUS CHRISTI","TX",78418,27.6060812060001,-97.235403488,87,"13905 WINDJAMMER DRIVE, CORPUS CHRISTI, TX, 78418","Match","Exact","13905 WINDJAMMER DR, CORPUS CHRISTI, TX, 78418",178524848,"R"
165088,"13905","SILVER SPRING","MD",20904,NA,NA,88,"13905, SILVER SPRING, MD, 20904","No_Match",NA,NA,NA,NA
165089,"13906 ASHTON ROAD","ROCKY POINT","NC",28457,34.4746936970001,-77.9413332949999,89,"13906 ASHTON ROAD, ROCKY POINT, NC, 28457","Match","Exact","13906 ASHTON RD, ROCKY POINT, NC, 28457",647177852,"R"
165090,"13906 BISHOPS BEQUEST ROAD","UPPER MARLBORO","MD",20772,38.8285242580001,-76.7642562839999,90,"13906 BISHOPS BEQUEST ROAD, UPPER MARLBORO, MD, 20772","Match","Exact","13906 BISHOPS BEQUEST RD, UPPER MARLBORO, MD, 20772",628708761,"L"
165091,"13906 BRIAWICK STREET","GERMANTOWN","MD",20874,NA,NA,91,"13906 BRIAWICK STREET, GERMANTOWN, MD, 20874","No_Match",NA,NA,NA,NA
165092,"13906 CARLENE DRIVE","UPPER MARLBORO","MD",20772,38.8408044130001,-76.766300653,92,"13906 CARLENE DRIVE, UPPER MARLBORO, MD, 20772","Match","Exact","13906 CARLENE DR, UPPER MARLBORO, MD, 20772",76344192,"L"
165093,"13906 CONNER PARK DR","CYPRESS","TX",77429,29.9758511250001,-95.655151143,93,"13906 CONNER PARK DR, CYPRESS, TX, 77429","Match","Exact","13906 CONNER PARK DR, CYPRESS, TX, 77429",625667482,"L"
165094,"13906 CR 1564","ADA","OK",74820,34.746868787,-96.708274515,94,"13906 CR 1564, ADA, OK, 74820","Match","Exact","13906 CO RD 1564, ADA, OK, 74820",634065129,"L"
165095,"13906 E MONTELLO RD","SCOTTSDALE","AZ",85262,33.8122449860001,-111.780261324,95,"13906 E MONTELLO RD, SCOTTSDALE, AZ, 85262","Match","Exact","13906 E MONTELLO RD, SCOTTSDALE, AZ, 85262",243975450,"L"
165096,"13906 GOLD BOTTOM CT","BRANDYWINE","MD",20613,38.6993117490001,-76.9348325299999,96,"13906 GOLD BOTTOM CT, BRANDYWINE, MD, 20613","Match","Exact","13906 GOLD BOTTOM CT, BRANDYWINE, MD, 20613",632160135,"L"
165097,"13906 HAMMERMILL FIELD DRIVE","BOWIE","MD",20720,38.950004488,-76.7638829379999,97,"13906 HAMMERMILL FIELD DRIVE, BOWIE, MD, 20720","Match","Exact","13906 HAMMERMILL FIELD DR, BOWIE, MD, 20720",648072884,"L"
165098,"13906 IRONTON RD","LITTLE ROCK","AR",72206,34.628202324,-92.27735139,98,"13906 IRONTON RD, LITTLE ROCK, AR, 72206","Match","Exact","13906 IRONTON RD, LITTLE ROCK, AR, 72206",653153074,"R"
165099,"13906 LAROU LN","SANTA FE","TX",77517,29.427875284,-95.12605001,99,"13906 LAROU LN, SANTA FE, TX, 77517","Match","Exact","13906 LAROU LN, SANTA FE, TX, 77517",96683867,"L"
165100,"13906 LEE JACKSON HWY","BIG ISLAND","VA",24526,37.571833337,-79.3784813039999,100,"13906 LEE JACKSON HWY, BIG ISLAND, VA, 24526","Match","Exact","13906 LEE JACKSON HWY, BIG ISLAND, VA, 24526",228445612,"L"
165101,"13906 NESTOR AVE","COMPTON","CA",90220,NA,NA,101,"13906 NESTOR AVE, COMPTON, CA, 90220","No_Match",NA,NA,NA,NA
165102,"13906 ORIZABA AVENUE","PARAMOUNT","CA",90723,33.908245616,-118.157824439,102,"13906 ORIZABA AVENUE, PARAMOUNT, CA, 90723","Match","Exact","13906 ORIZABA AVE, PARAMOUNT, CA, 90723",141697049,"L"
165103,"13906 RT 62 W","SALEM","OH",44460,NA,NA,103,"13906 RT 62 W, SALEM, OH, 44460","No_Match",NA,NA,NA,NA
165104,"13906 SHADY SHORES DR","TAMPA","FL",33613,28.076262835,-82.482347123,104,"13906 SHADY SHORES DR, TAMPA, FL, 33613","Match","Exact","13906 SHADY SHORES DR, TAMPA, FL, 33613",104555991,"L"
165105,"13906 TINKERS CREEK ROAD","VALLEY VIEW","OH",44125,41.3720682570001,-81.588151437,105,"13906 TINKERS CREEK ROAD, VALLEY VIEW, OH, 44125","Match","Exact","13906 TINKERS CREEK RD, VALLEY VIEW, OH, 44125",649549796,"R"
165106,"13906 WENRICH","LIVE OAK","TX",78233,29.570034938,-98.341411947,106,"13906 WENRICH, LIVE OAK, TX, 78233","Match","Exact","13906 WENRICH, LIVE OAK, TX, 78233",614734538,"R"
165107,"13907  CARRYBACK","ROAD","FL",33525,NA,NA,107,"13907  CARRYBACK, ROAD, FL, 33525","No_Match",NA,NA,NA,NA
165108,"13907 AMBERLY COURT","BOWIE","MD",20720,38.9552882890001,-76.764490446,108,"13907 AMBERLY COURT, BOWIE, MD, 20720","Match","Exact","13907 AMBERLY CT, BOWIE, MD, 20720",76342620,"L"
165109,"13907 INLAND SPRING CT","HOUSTON","TX",77059,29.5972197580001,-95.1392283549999,109,"13907 INLAND SPRING CT, HOUSTON, TX, 77059","Match","Exact","13907 INLAND SPRING CT, HOUSTON, TX, 77059",96544112,"L"
165110,"13907 LAKE MEADOWS DRIVE","BOWIE","MD",20720,38.968181026,-76.7640899579999,110,"13907 LAKE MEADOWS DRIVE, BOWIE, MD, 20720","Match","Exact","13907 LAKE MEADOWS DR, BOWIE, MD, 20720",624834246,"R"
165111,"13907 MAJESTIC SPRINGS LN","HUMBLE","TX",77396,29.9214250700001,-95.271683083,111,"13907 MAJESTIC SPRINGS LN, HUMBLE, TX, 77396","Match","Exact","13907 MAJESTIC SPRING LN, HUMBLE, TX, 77396",624605158,"R"
165112,"13907 MAUGANSVILLE RD","MAUGANSVILLE","MD",21767,39.6963798800001,-77.7448097719999,112,"13907 MAUGANSVILLE RD, MAUGANSVILLE, MD, 21767","Match","Exact","13907 MAUGANSVILLE RD, MAUGANSVILLE, MD, 21767",60785063,"R"
165113,"13907 MONTFORT DR 1726","DALLAS","TX",75240,32.937166614,-96.813815365,113,"13907 MONTFORT DR 1726, DALLAS, TX, 75240","Match","Exact","13907 MONTFORT DR, DALLAS, TX, 75240",650067529,"L"
165114,"13907 MONTFORT DR APT 1940","DALLAS","TX",75201,32.937166614,-96.813815365,114,"13907 MONTFORT DR APT 1940, DALLAS, TX, 75201","Match","Non_Exact","13907 MONTFORT DR, DALLAS, TX, 75240",650067529,"L"
165115,"13907 MONTFORT DRIVE 125","DALLAS","TX",75240,32.937166614,-96.813815365,115,"13907 MONTFORT DRIVE 125, DALLAS, TX, 75240","Match","Exact","13907 MONTFORT DR, DALLAS, TX, 75240",650067529,"L"
165116,"13907 PISCATAWAY","FORT WASHINGTON","MD",20744,38.698574691,-77.001804706,116,"13907 PISCATAWAY, FORT WASHINGTON, MD, 20744","Match","Non_Exact","13907 PISCATAWAY DR, FT WASHINGTON, MD, 20744",76391547,"R"
165117,"13907 SAN ALISO COURT","CORONA","CA",92880,33.943546085,-117.587444194,117,"13907 SAN ALISO COURT, CORONA, CA, 92880","Match","Exact","13907 SAN ALISO CT, CORONA, CA, 92880",608987781,"L"
165118,"13907 W 72ND CT","SHAWNEE","KS",66216,38.9976178640001,-94.748044464,118,"13907 W 72ND CT, SHAWNEE, KS, 66216","Match","Exact","13907 72ND CT, SHAWNEE, KS, 66216",91309999,"R"
165119,"13908 51ST AVE NW","GIG HARBOR","WA",98332,47.3855560530001,-122.605618879,119,"13908 51ST AVE NW, GIG HARBOR, WA, 98332","Match","Exact","13908 51ST AVE NW, GIG HARBOR, WA, 98332",184674175,"L"
165120,"13908 CASTLE BLVD APT 204","SILVER SPRING","MD",20904,39.0832896220001,-76.9423121729999,120,"13908 CASTLE BLVD APT 204, SILVER SPRING, MD, 20904","Match","Exact","13908 CASTLE BLVD, SILVER SPRING, MD, 20904",62094084,"L"
165121,"13908 CASTLE BLVD- APT 103","SILVER SPRING","MD",20904,NA,NA,121,"13908 CASTLE BLVD- APT 103, SILVER SPRING, MD, 20904","Tie",NA,NA,NA,NA
165122,"13908 FAREHAM LANE","UPPER MARLBORO","MD",20772,38.823839062,-76.762369958,122,"13908 FAREHAM LANE, UPPER MARLBORO, MD, 20772","Match","Exact","13908 FAREHAM LN, UPPER MARLBORO, MD, 20772",76344435,"R"
165123,"13908 FLORIGOLD DRIVE","WINDERMERE","FL",34786,28.4736538810001,-81.592377428,123,"13908 FLORIGOLD DRIVE, WINDERMERE, FL, 34786","Match","Exact","13908 FLORIGOLD DR, WINDERMERE, FL, 34786",94408564,"L"
165124,"13908 GRAYSON AVENUE","NORWALK","CA",90650,NA,NA,124,"13908 GRAYSON AVENUE, NORWALK, CA, 90650","No_Match",NA,NA,NA,NA
165125,"13908 GREEN TRAILS CT","CENTREVILLE","VA",20121,38.8202722280001,-77.429772261,125,"13908 GREEN TRAILS CT, CENTREVILLE, VA, 20121","Match","Exact","13908 GREEN TRAILS CT, CENTREVILLE, VA, 20121",76025209,"L"
165126,"13908 HIGHWAY H","WEAUBLEAU","MO",65774,NA,NA,126,"13908 HIGHWAY H, WEAUBLEAU, MO, 65774","No_Match",NA,NA,NA,NA
165127,"13908 KIRKLAND RIDGE","EDMOND","OK",73013,35.6119684550001,-97.454452545,127,"13908 KIRKLAND RIDGE, EDMOND, OK, 73013","Match","Exact","13908 KIRKLAND RIDGE, EDMOND, OK, 73013",100435482,"R"
165128,"13908 LULLABY RD","GERMANTOWN","MD",20874,39.1766685220001,-77.286502245,128,"13908 LULLABY RD, GERMANTOWN, MD, 20874","Match","Exact","13908 LULLABY RD, GERMANTOWN, MD, 20874",635444302,"L"
165129,"13908 MEADOW LANE","PLAINFIELD","IL",60544,41.6288813640001,-88.23015369,129,"13908 MEADOW LANE, PLAINFIELD, IL, 60544","Match","Exact","13908 MEADOW LN, PLAINFIELD, IL, 60544",111625100,"R"
165130,"13908 OAKVIEW BLVD","GARFIELD HEIGHTS","OH",44125,41.408155837,-81.586330018,130,"13908 OAKVIEW BLVD, GARFIELD HEIGHTS, OH, 44125","Match","Exact","13908 OAKVIEW BLVD, GARFIELD HEIGHTS, OH, 44125",61128320,"R"
165131,"13908 S PARMALEE AVE","COMPTON","CA",90222,33.9055619440001,-118.25105284,131,"13908 S PARMALEE AVE, COMPTON, CA, 90222","Match","Non_Exact","13908 S PARMELEE AVE, COMPTON, CA, 90222",141673976,"L"
165132,"13908 S SAN PEDRO ST","LOS ANGELES","CA",90061,33.905793809,-118.269644397,132,"13908 S SAN PEDRO ST, LOS ANGELES, CA, 90061","Match","Exact","13908 S SAN PEDRO ST, LOS ANGELES, CA, 90061",241243866,"L"
165133,"13908 SEAFORTH MANOR WAY","TAMPA","FL",33613,28.0747583180001,-82.479755433,133,"13908 SEAFORTH MANOR WAY, TAMPA, FL, 33613","Match","Exact","13908 SEAFORTH MANOR WAY, TAMPA, FL, 33613",104511429,"L"
165134,"13908 SUNNYBROOK ROAD","PHOENIX","MD",21131,39.505971001,-76.574282828,134,"13908 SUNNYBROOK ROAD, PHOENIX, MD, 21131","Match","Exact","13908 SUNNYBROOK RD, PHOENIX, MD, 21131",191568322,"L"
165135,"13909 84TH DRIVE APT 505","JAMAICA","NY",11435,NA,NA,135,"13909 84TH DRIVE APT 505, JAMAICA, NY, 11435","No_Match",NA,NA,NA,NA
165136,"13909 ARBOR HILL CV","MANOR","TX",78653,30.361915294,-97.539140695,136,"13909 ARBOR HILL CV, MANOR, TX, 78653","Match","Exact","13909 ARBOR HILL COVE, MANOR, TX, 78653",649000858,"R"
165137,"13909 BURNISHED WOOD CT","UPPER MARLBORO","MD",20774,38.862576743,-76.765028118,137,"13909 BURNISHED WOOD CT, UPPER MARLBORO, MD, 20774","Match","Exact","13909 BURNISHED WOOD CT, UPPER MARLBORO, MD, 20774",76417069,"R"
165138,"13909 E PLACITA PROPIA","VAIL","AZ",85641,NA,NA,138,"13909 E PLACITA PROPIA, VAIL, AZ, 85641","No_Match",NA,NA,NA,NA
165139,"13909 GRENFELL PLACE","BOWIE","MD",20720,38.9748572830001,-76.765019675,139,"13909 GRENFELL PLACE, BOWIE, MD, 20720","Match","Exact","13909 GRENFELL PL, BOWIE, MD, 20720",76348663,"R"
165140,"13909 HEMLOCK STREET","OVERLAND PARK","KS",66223,38.8739510240001,-94.680564579,140,"13909 HEMLOCK STREET, OVERLAND PARK, KS, 66223","Match","Exact","13909 HEMLOCK ST, OVERLAND PARK, KS, 66223",91313637,"R"
165141,"13909 HERITAGE LANE","SILVER SPRING","MD",20906,39.0868490830001,-77.0559368469999,141,"13909 HERITAGE LANE, SILVER SPRING, MD, 20906","Match","Exact","13909 HERITAGE LN, SILVER SPRING, MD, 20906",62062958,"R"
165142,"13909 MARATHON RD","AUSTIN","TX",78717,30.491485912,-97.79655193,142,"13909 MARATHON RD, AUSTIN, TX, 78717","Match","Exact","13909 MARATHON RD, AUSTIN, TX, 78717",640714173,"L"
165143,"13909 MILLCOLE AVE","PANAMA CITY BEACH","FL",32413,30.2020984660001,-85.849041805,143,"13909 MILLCOLE AVE, PANAMA CITY BEACH, FL, 32413","Match","Exact","13909 MILLCOLE AVE, PANAMA CITY BEACH, FL, 32413",7020567,"L"
165144,"13909 N NORTHVIEW RD","EDWARDSPORT","IN",47528,38.8771226740001,-87.297253739,144,"13909 N NORTHVIEW RD, EDWARDSPORT, IN, 47528","Match","Exact","13909 NORTHVIEW RD, EDWARDSPORT, IN, 47528",30067466,"L"
165145,"13909 NE 101ST ST","VANCOUVER","WA",98682,45.6957262560001,-122.529613696,145,"13909 NE 101ST ST, VANCOUVER, WA, 98682","Match","Exact","13909 NE 101ST ST, VANCOUVER, WA, 98682",648927910,"R"
165146,"13909 PALMER HOUSE WAY","SILVER SPRING","MD",20904,39.0827395760001,-76.9357970839999,146,"13909 PALMER HOUSE WAY, SILVER SPRING, MD, 20904","Match","Exact","13909 PALMER HOUSE WAY, SILVER SPRING, MD, 20904",62141204,"L"
165147,"13909 PINE ST","OMAHA","NE",68144,41.244279884,-96.130352189,147,"13909 PINE ST, OMAHA, NE, 68144","Match","Exact","13909 PINE ST, OMAHA, NE, 68144",116970023,"L"
165148,"13909 TRACK RD E","CAT SPRING","TX",78933,29.828579549,-96.285775347,148,"13909 TRACK RD E, CAT SPRING, TX, 78933","Match","Non_Exact","13909 TRACK RD, CAT SPRING, TX, 78933",41812717,"L"
165149,"13909 VALLEY COUNTRY DRIVE","CHANTILLY","VA",20151,38.881586096,-77.427336404,149,"13909 VALLEY COUNTRY DRIVE, CHANTILLY, VA, 20151","Match","Exact","13909 VALLEY COUNTRY DR, CHANTILLY, VA, 20151",76012368,"L"
165150,"13909 W 73RD","SHAWNEE","KS",66216,38.9957160430001,-94.748297726,150,"13909 W 73RD, SHAWNEE, KS, 66216","Match","Non_Exact","13909 73RD ST, SHAWNEE, KS, 66216",91309989,"R"
165151,"13909 WEST AVENUE","CLEVELAND","OH",44111,41.4482551780001,-81.78919997,151,"13909 WEST AVENUE, CLEVELAND, OH, 44111","Match","Exact","13909 WEST AVE, CLEVELAND, OH, 44111",61102849,"L"
165152,"1391 ALTAMONT STREET","TRACY CITY","TN",37387,35.263560985,-85.739450081,152,"1391 ALTAMONT STREET, TRACY CITY, TN, 37387","Match","Exact","1391 ALTAMONT ST, TRACY CITY, TN, 37387",612030609,"L"
165153,"1391 ALVARADO RD","BERKELEY","CA",94705,37.864726067,-122.230950535,153,"1391 ALVARADO RD, BERKELEY, CA, 94705","Match","Exact","1391 ALVARADO RD, BERKELEY, CA, 94705",124999545,"L"
165154,"1391 ANDREW MILLING RD","DECATUR","MS",39327,32.4958618000001,-89.190588045,154,"1391 ANDREW MILLING RD, DECATUR, MS, 39327","Match","Exact","1391 ANDREW MILLING RD, DECATUR, MS, 39327",649522969,"R"
165155,"1391 BEAUMONT BROOKLYN RD","BEAUMONT","MS",39423,31.164632328,-88.925464502,155,"1391 BEAUMONT BROOKLYN RD, BEAUMONT, MS, 39423","Match","Exact","1391 BEAUMONT BROOKLYN RD, BEAUMONT, MS, 39423",7440580,"L"
165156,"1391 BECKWITH RD","MOUNT JULIET","TN",37122,36.2147980140001,-86.4724471339999,156,"1391 BECKWITH RD, MOUNT JULIET, TN, 37122","Match","Exact","1391 BECKWITH RD, MOUNT JULIET, TN, 37122",89685856,"R"
165157,"1391 BECKWITH RD","MT JULIET","TN",37122,36.2147980140001,-86.4724471339999,157,"1391 BECKWITH RD, MT JULIET, TN, 37122","Match","Exact","1391 BECKWITH RD, MOUNT JULIET, TN, 37122",89685856,"R"
165158,"1391 BELLA VISTA BLVD","NASHVILLE","TN",37207,36.282668975,-86.771728334,158,"1391 BELLA VISTA BLVD, NASHVILLE, TN, 37207","Match","Non_Exact","1391 BELLAVISTA BLVD, NASHVILLE, TN, 37207",97181756,"L"
165159,"1391 BETHEL CHURCH RD","ELKTON","VA",22827,38.4240755180001,-78.642167214,159,"1391 BETHEL CHURCH RD, ELKTON, VA, 22827","Match","Exact","1391 BETHEL CHURCH RD, ELKTON, VA, 22827",642626706,"L"
165160,"1391 BROADWAY APT D","EL CAJON","CA",92021,32.8077024510001,-116.931857287,160,"1391 BROADWAY APT D, EL CAJON, CA, 92021","Match","Exact","1391 BROADWAY, EL CAJON, CA, 92021",195333355,"R"
165161,"1391 BROADWAY D","EL CAJON","CA",92021,32.8077024510001,-116.931857287,161,"1391 BROADWAY D, EL CAJON, CA, 92021","Match","Exact","1391 BROADWAY, EL CAJON, CA, 92021",195333355,"R"
165162,"1391 CALLE PEQUENO","GARDNERVILLE","NV",89410,38.9396403980001,-119.652534501,162,"1391 CALLE PEQUENO, GARDNERVILLE, NV, 89410","Match","Non_Exact","1391 CLL PEQUENO, GARDNERVILLE, NV, 89410",173760698,"R"
165163,"1391 CAROLYN CT","YORKVILLE","IL",60560,41.6583597110001,-88.486959262,163,"1391 CAROLYN CT, YORKVILLE, IL, 60560","Match","Exact","1391 CAROLYN CT, YORKVILLE, IL, 60560",646515590,"R"
165164,"1391 CENTRAL AVE","MIDDLETOWN","OH",45044,39.514891375,-84.398912814,164,"1391 CENTRAL AVE, MIDDLETOWN, OH, 45044","Match","Exact","1391 CENTRAL AVE, MIDDLETOWN, OH, 45044",113795611,"L"
165165,"1391 CHATTERTON RD","EAGAN","MN",55123,44.8087377360001,-93.165994677,165,"1391 CHATTERTON RD, EAGAN, MN, 55123","Match","Exact","1391 CHATTERTON RD, EAGAN, MN, 55123",37918205,"L"
165166,"1391 CHUCKANUT CREST DRIVE","BELLINGHAM","WA",98229,48.692187549,-122.489370707,166,"1391 CHUCKANUT CREST DRIVE, BELLINGHAM, WA, 98229","Match","Exact","1391 CHUCKANUT CREST DR, BELLINGHAM, WA, 98229",183793472,"R"
165167,"1391 CHURCH STREET","BEAUMONT","TX",77705,30.051505854,-94.09701353,167,"1391 CHURCH STREET, BEAUMONT, TX, 77705","Match","Exact","1391 CHURCH ST, BEAUMONT, TX, 77705",73857718,"L"
165168,"1391 CR 340","KENEDY","TX",78119,28.8945815920001,-97.7982328639999,168,"1391 CR 340, KENEDY, TX, 78119","Match","Exact","1391 CO RD 340, KENEDY, TX, 78119",635379945,"L"
165169,"1391 DUFFERS LANE","OAK HARBOR","WA",98277,48.320556986,-122.690612999,169,"1391 DUFFERS LANE, OAK HARBOR, WA, 98277","Match","Exact","1391 DUFFERS LN, OAK HARBOR, WA, 98277",187594915,"R"
165170,"1391 E 22ND AVE","EUGENE","OR",97403,44.035632633,-123.071711261,170,"1391 E 22ND AVE, EUGENE, OR, 97403","Match","Exact","1391 E 22ND AVE, EUGENE, OR, 97403",605394201,"L"
165171,"1391 E VIA MARBELLA DR","FRESNO","CA",93730,36.8972698630001,-119.758342474,171,"1391 E VIA MARBELLA DR, FRESNO, CA, 93730","Match","Exact","1391 E VIA MARBELLA DR, FRESNO, CA, 93730",636060330,"R"
165172,"1391 ELDRON BLVD SE","PALM BAY","FL",32909,27.963121917,-80.660976976,172,"1391 ELDRON BLVD SE, PALM BAY, FL, 32909","Match","Exact","1391 ELDRON BLVD SE, PALM BAY, FL, 32909",93908993,"L"
165173,"1391 ELLIS HOLLOW ROAD","ITHACA","NY",14850,42.429141246,-76.420010689,173,"1391 ELLIS HOLLOW ROAD, ITHACA, NY, 14850","Match","Exact","1391 ELLIS HOLLOW RD, ITHACA, NY, 14850",18858720,"L"
165174,"1391 FOXLAND BLVD F207","GALLATIN","TN",37066,36.3453037960001,-86.513757734,174,"1391 FOXLAND BLVD F207, GALLATIN, TN, 37066","Match","Exact","1391 FOXLAND BLVD, GALLATIN, TN, 37066",643561066,"L"
165175,"1391 GIPPS STREET","SUMMERTON","SC",29148,NA,NA,175,"1391 GIPPS STREET, SUMMERTON, SC, 29148","No_Match",NA,NA,NA,NA
165176,"1391 HADSELL AVE","VINELAND","NJ",8360,39.504147028,-75.000523659,176,"1391 HADSELL AVE, VINELAND, NJ, 8360","Match","Exact","1391 HADSELL AVE, VINELAND, NJ, 08360",174117242,"R"
165177,"1391 HIGHLAND HALL ROAD","BOONE","NC",28607,36.2265133500001,-81.703648319,177,"1391 HIGHLAND HALL ROAD, BOONE, NC, 28607","Match","Exact","1391 HIGHLAND HALL RD, BOONE, NC, 28607",649263257,"L"
165178,"1391 KIMBLEWICK ROAD","POTOMAC","MD",20854,39.0598120540001,-77.170927583,178,"1391 KIMBLEWICK ROAD, POTOMAC, MD, 20854","Match","Exact","1391 KIMBLEWICK RD, POTOMAC, MD, 20854",62053974,"L"
165179,"1391 LINCOLN SHORE COURT","CAROL STREAM","IL",60188,41.924326395,-88.1734372349999,179,"1391 LINCOLN SHORE COURT, CAROL STREAM, IL, 60188","Match","Non_Exact","1391 LINCOLNSHIRE CT, CAROL STREAM, IL, 60188",112569277,"L"
165180,"1391 MAIN STREET SUITE 201","SPRINGFIELD","MA",1103,42.1025187490001,-72.5902466919999,180,"1391 MAIN STREET SUITE 201, SPRINGFIELD, MA, 1103","Match","Exact","1391 MAIN ST, SPRINGFIELD, MA, 01103",4034991,"R"
165181,"1391 MORNING STAR DRIVE","ALLENTOWN","PA",18106,40.5567380590001,-75.557579098,181,"1391 MORNING STAR DRIVE, ALLENTOWN, PA, 18106","Match","Exact","1391 MORNING STAR DR, ALLENTOWN, PA, 18106",629895366,"R"
165182,"1391 N MOORE RD","ROBBINS","NC",27325,35.4675395830001,-79.550264883,182,"1391 N MOORE RD, ROBBINS, NC, 27325","Match","Exact","1391 N MOORE RD, ROBBINS, NC, 27325",640601599,"R"
165183,"1391 NORTH FIRST STREET","UPLAND","CA",91786,34.113747517,-117.649793075,183,"1391 NORTH FIRST STREET, UPLAND, CA, 91786","Match","Non_Exact","1391 N 1ST AVE, UPLAND, CA, 91786",144674537,"L"
165184,"1391 NORTH MAIN STREET","MOUNT PLEASANT","AR",72561,NA,NA,184,"1391 NORTH MAIN STREET, MOUNT PLEASANT, AR, 72561","No_Match",NA,NA,NA,NA
165185,"1391 NORTHWYCK COURT","MCLEAN","VA",22102,38.935265529,-77.228456438,185,"1391 NORTHWYCK COURT, MCLEAN, VA, 22102","Match","Exact","1391 NORTHWYCK CT, MCLEAN, VA, 22102",638306259,"L"
165186,"1391 NW 41ST COURT","OAKLAND PARK","FL",33309,26.179087037,-80.162281234,186,"1391 NW 41ST COURT, OAKLAND PARK, FL, 33309","Match","Exact","1391 NW 41ST CT, OAKLAND PARK, FL, 33309",114718242,"R"
165187,"1391 NW ST LUCIE WEST BLVD 247","PORT ST LUCIE","FL",34986,NA,NA,187,"1391 NW ST LUCIE WEST BLVD 247, PORT ST LUCIE, FL, 34986","No_Match",NA,NA,NA,NA
165188,"1391 OLIVE LANE","HAMPSHIRE","IL",60140,42.091242811,-88.498587878,188,"1391 OLIVE LANE, HAMPSHIRE, IL, 60140","Match","Exact","1391 OLIVE LN, HAMPSHIRE, IL, 60140",633570412,"L"
165189,"1391 PENNSYLVANIA AVE SE - 541","WASHINGTON","DC",20003,38.880551274,-76.98629529,189,"1391 PENNSYLVANIA AVE SE - 541, WASHINGTON, DC, 20003","Match","Exact","1391 PENNSYLVANIA AVE SE, WASHINGTON, DC, 20003",641474182,"R"
165190,"1391 PENNSYLVANIA AVE SE 207","WASHINGTON","DC",20003,38.880551274,-76.98629529,190,"1391 PENNSYLVANIA AVE SE 207, WASHINGTON, DC, 20003","Match","Exact","1391 PENNSYLVANIA AVE SE, WASHINGTON, DC, 20003",641474182,"R"
165191,"1391 PENNSYLVANIA AVE SE UNIT M07","WASHINGTON","DC",20003,38.880551274,-76.98629529,191,"1391 PENNSYLVANIA AVE SE UNIT M07, WASHINGTON, DC, 20003","Match","Exact","1391 PENNSYLVANIA AVE SE, WASHINGTON, DC, 20003",641474182,"R"
165192,"1391 PENNSYLVANIA AVE SE","WASHINGTON","DC",20003,38.880551274,-76.98629529,192,"1391 PENNSYLVANIA AVE SE, WASHINGTON, DC, 20003","Match","Exact","1391 PENNSYLVANIA AVE SE, WASHINGTON, DC, 20003",641474182,"R"
165193,"1391 PENNSYLVANIA AVE","WASHINGTON","DC",20003,38.880551274,-76.98629529,193,"1391 PENNSYLVANIA AVE, WASHINGTON, DC, 20003","Match","Non_Exact","1391 PENNSYLVANIA AVE SE, WASHINGTON, DC, 20003",641474182,"R"
165194,"1391 PUT-IN BAY ROAD","PUT-IN-BAY","OH",43456,41.641046051,-82.831048561,194,"1391 PUT-IN BAY ROAD, PUT-IN-BAY, OH, 43456","Match","Non_Exact","1391 PUT IN BAY RD, PUT IN BAY, OH, 43456",644361608,"R"
165195,"1391 REBECCA WAY","ROHNERT PARK","CA",94928,38.3391842730001,-122.680241606,195,"1391 REBECCA WAY, ROHNERT PARK, CA, 94928","Match","Exact","1391 REBECCA WAY, ROHNERT PARK, CA, 94928",67518852,"L"
165196,"1391 RIVER RD","DRUMORE","PA",17518,39.8229606560001,-76.238390534,196,"1391 RIVER RD, DRUMORE, PA, 17518","Match","Exact","1391 RIVER RD, DRUMORE, PA, 17518",179644550,"R"
165197,"1391 RUSSELL LANE","CONROE","TX",77304,30.3534770160001,-95.563870154,197,"1391 RUSSELL LANE, CONROE, TX, 77304","Match","Exact","1391 RUSSELL LN, CONROE, TX, 77304",79308249,"L"
165198,"1391 RUTH PLACE","DECATUR","GA",30035,33.752841376,-84.2303282949999,198,"1391 RUTH PLACE, DECATUR, GA, 30035","Match","Exact","1391 RUTH PL, DECATUR, GA, 30035",23370349,"R"
165199,"1391 S BRITT","WHITTEMORE","MI",48770,44.2463185780001,-83.763219922,199,"1391 S BRITT, WHITTEMORE, MI, 48770","Match","Non_Exact","1391 BRITT RD, WHITTEMORE, MI, 48770",161314459,"R"
165200,"1391 S GATEWAY DR","YUMA","AZ",85364,32.7022955250001,-114.644587658,200,"1391 S GATEWAY DR, YUMA, AZ, 85364","Match","Exact","1391 S GATEWAY DR, YUMA, AZ, 85364",129672536,"L"
165201,"1391 SOUTH AZALEA BOULEVARD","BARBERTON","OH",44203,41.004610842,-81.5856187049999,201,"1391 SOUTH AZALEA BOULEVARD, BARBERTON, OH, 44203","Match","Exact","1391 S AZALEA BLVD, BARBERTON, OH, 44203",61390137,"R"
165202,"1391 SOUTH MAIN STREET","BELLEVUE","ID",83313,NA,NA,202,"1391 SOUTH MAIN STREET, BELLEVUE, ID, 83313","No_Match",NA,NA,NA,NA
165203,"1391 SPEER BLVD 850","DENVER","CO",80204,39.738220228,-104.997474997,203,"1391 SPEER BLVD 850, DENVER, CO, 80204","Match","Exact","1391 SPEER BLVD, DENVER, CO, 80204",177304609,"L"
165204,"1391 SPEER BLVD SUITE 450","DENVER","CO",80204,39.738220228,-104.997474997,204,"1391 SPEER BLVD SUITE 450, DENVER, CO, 80204","Match","Exact","1391 SPEER BLVD, DENVER, CO, 80204",177304609,"L"
165205,"1391 STATE HIGHWAY 92","WINTERSET","IA",50273,41.330301433,-94.166621333,205,"1391 STATE HIGHWAY 92, WINTERSET, IA, 50273","Match","Exact","1391 STATE HWY 92, WINTERSET, IA, 50273",635884600,"R"
165206,"1391 SUNWOOD TERRACE","ANNAPOLIS","MD",21409,39.034412312,-76.465658043,206,"1391 SUNWOOD TERRACE, ANNAPOLIS, MD, 21409","Match","Exact","1391 SUNWOOD TER, ANNAPOLIS, MD, 21409",68202436,"L"
165207,"1391 SUTHERLAND ST","LOS ANGELES","CA",90026,34.0766777380001,-118.252463298,207,"1391 SUTHERLAND ST, LOS ANGELES, CA, 90026","Match","Exact","1391 SUTHERLAND ST, LOS ANGELES, CA, 90026",141616358,"L"
165208,"1391 SW 11TH STREET","LIVE OAK","FL",32064,30.289899846,-83.008230344,208,"1391 SW 11TH STREET, LIVE OAK, FL, 32064","Match","Non_Exact","1391 11TH ST SW, LIVE OAK, FL, 32064",636383025,"L"
165209,"1391 SW EDINBURGH DRIVE","PORT SAINT LUCIE","FL",34953,27.212742442,-80.3917581759999,209,"1391 SW EDINBURGH DRIVE, PORT SAINT LUCIE, FL, 34953","Match","Exact","1391 SW EDINBURGH DR, PORT ST LUCIE, FL, 34953",120160087,"L"
165210,"1391 TRACE CREEK RD","WHITELYVILLE","TN",38588,36.3901880720001,-85.708518055,210,"1391 TRACE CREEK RD, WHITELYVILLE, TN, 38588","Match","Non_Exact","1391 TRACE CREEK RD, WHITLEYVILLE, TN, 38588",627289370,"L"
165211,"1391 Veterans Memorial 100","mableton","GA",NA,NA,NA,211,"1391 Veterans Memorial 100, mableton, GA, ","No_Match",NA,NA,NA,NA
165212,"1391 VETERANS MEMORIAL 101","MABLETON","GA",NA,NA,NA,212,"1391 VETERANS MEMORIAL 101, MABLETON, GA, ","No_Match",NA,NA,NA,NA
165213,"1391 VILLAGE CREEK CR SE","ATLANTA","GA",30316,33.7203300370001,-84.3472648279999,213,"1391 VILLAGE CREEK CR SE, ATLANTA, GA, 30316","Match","Non_Exact","1391 VILLAGE CREEK CIR, ATLANTA, GA, 30316",23401032,"L"
165214,"1391 W BOGGY DEPOT RD","ATOKA","OK",74525,34.3168442670001,-96.1581510999999,214,"1391 W BOGGY DEPOT RD, ATOKA, OK, 74525","Match","Exact","1391 W BOGGY DEPOT RD, ATOKA, OK, 74525",63081385,"L"
165215,"1391 WAVELAND DRIVE APT A","GAHANNA","OH",43230,40.054989694,-82.873163529,215,"1391 WAVELAND DRIVE APT A, GAHANNA, OH, 43230","Match","Exact","1391 WAVELAND DR, GAHANNA, OH, 43230",218540302,"L"
165216,"1391 WEATHERFORD RD","URIAH","AL",36480,31.345806479,-87.6729883309999,216,"1391 WEATHERFORD RD, URIAH, AL, 36480","Match","Exact","1391 WEATHERFORD RD, URIAH, AL, 36480",2006761,"L"
165217,"1391 WEST FIFTH AVENUE 257","COLUMBUS","OH",43212,39.988730769,-83.0434068069999,217,"1391 WEST FIFTH AVENUE 257, COLUMBUS, OH, 43212","Match","Exact","1391 W 5TH AVE, COLUMBUS, OH, 43212",218689384,"L"
165218,"1391 WEST FIFTH AVENUE 257","COLUMUBS","OH",43212,39.988730769,-83.0434068069999,218,"1391 WEST FIFTH AVENUE 257, COLUMUBS, OH, 43212","Match","Non_Exact","1391 W 5TH AVE, COLUMBUS, OH, 43212",218689384,"L"
165219,"13910 COLUMBINE AVE","WELLINGTON","FL",33414,26.6705910360001,-80.266694515,219,"13910 COLUMBINE AVE, WELLINGTON, FL, 33414","Match","Exact","13910 COLUMBINE AVE, WELLINGTON, FL, 33414",115253532,"R"
165220,"13910 DENTWOOD DR","HOUSTON","TX",77014,29.9703596250001,-95.438360244,220,"13910 DENTWOOD DR, HOUSTON, TX, 77014","Match","Exact","13910 DENTWOOD DR, HOUSTON, TX, 77014",96011510,"R"
165221,"13910 E 126TH ST","FISHERS","IN",46037,39.9724909990001,-85.9161085659999,221,"13910 E 126TH ST, FISHERS, IN, 46037","Match","Exact","13910 E 126TH ST, FISHERS, IN, 46037",642018786,"L"
165222,"13910 N 192ND STREE","BENNINGTON","NE",68007,NA,NA,222,"13910 N 192ND STREE, BENNINGTON, NE, 68007","No_Match",NA,NA,NA,NA
165223,"13910 OLD HARBOR LANE APT 309","MARINA DEL REY","CA",90292,33.9688869010001,-118.451407371,223,"13910 OLD HARBOR LANE APT 309, MARINA DEL REY, CA, 90292","Match","Non_Exact","13910 OLD HARBOR LN, MARINA DEL REY, CA, 90292",651697738,"L"
165224,"13910 PARK DRIVE","BROOKPARK","OH",44142,41.3921937550001,-81.792104753,224,"13910 PARK DRIVE, BROOKPARK, OH, 44142","Match","Exact","13910 PARK DR, BROOKPARK, OH, 44142",61178480,"R"
165225,"13910 PENROD","DETROIT","MI",48223,42.3869000380001,-83.221028835,225,"13910 PENROD, DETROIT, MI, 48223","Match","Non_Exact","13910 PENROD ST, DETROIT, MI, 48223",95439336,"R"
165226,"13910 RUSSEL VALLEY RD","TRUCKEE","CA",96161,39.441245177,-120.141904698,226,"13910 RUSSEL VALLEY RD, TRUCKEE, CA, 96161","Match","Exact","13910 RUSSEL VALLEY RD, TRUCKEE, CA, 96161",106544773,"L"
165227,"13910 SANDHURST DR","HUNTSVILLE","AL",35803,34.6020334500001,-86.578524078,227,"13910 SANDHURST DR, HUNTSVILLE, AL, 35803","Match","Non_Exact","13910 SANDHURST DR SW, HUNTSVILLE, AL, 35803",58153512,"R"
165228,"13910 STONEWOOD COURT","ROSHARON","TX",77583,29.501021915,-95.437520244,228,"13910 STONEWOOD COURT, ROSHARON, TX, 77583","Match","Exact","13910 STONEWOOD CT, ROSHARON, TX, 77583",614116553,"R"
165229,"13910 W 73RD AVE","ARVADA","CO",80005,39.82941643,-105.155268765,229,"13910 W 73RD AVE, ARVADA, CO, 80005","Match","Exact","13910 W 73RD AVE, ARVADA, CO, 80005",177283782,"L"
165230,"13910 WINTERVALLEY NE","CEDAR SPRINGS","MI",49319,NA,NA,230,"13910 WINTERVALLEY NE, CEDAR SPRINGS, MI, 49319","No_Match",NA,NA,NA,NA
165231,"13911 13TH AVE CT E","TACOMA","WA",98445,47.1296205020001,-122.411014622,231,"13911 13TH AVE CT E, TACOMA, WA, 98445","Match","Exact","13911 13TH AVENUE CT E, TACOMA, WA, 98445",184673568,"L"
165232,"13911 69TH AVE SE","SNOHOMISH","WA",98296,47.8701563270001,-122.141045417,232,"13911 69TH AVE SE, SNOHOMISH, WA, 98296","Match","Exact","13911 69TH AVE SE, SNOHOMISH, WA, 98296",187796020,"L"
165233,"13911 CAROL WAY E","TUSTIN","CA",92780,NA,NA,233,"13911 CAROL WAY E, TUSTIN, CA, 92780","No_Match",NA,NA,NA,NA
165234,"13911 CR 199D","KILGORE","TX",75662,32.327048125,-94.8411181019999,234,"13911 CR 199D, KILGORE, TX, 75662","Match","Exact","13911 CO RD 199D, KILGORE, TX, 75662",653215466,"R"
165235,"13911 DAMON LANE","SARATOGA","CA",95070,37.2650855730001,-122.058088918,235,"13911 DAMON LANE, SARATOGA, CA, 95070","Match","Exact","13911 DAMON LN, SARATOGA, CA, 95070",123019074,"L"
165236,"13911 DISTRIBUTION WAY","FARMERS BRANCH","TX",75234,32.934310478,-96.899332213,236,"13911 DISTRIBUTION WAY, FARMERS BRANCH, TX, 75234","Match","Exact","13911 DISTRIBUTION WAY, FARMERS BRANCH, TX, 75234",103209336,"L"
165237,"13911 EDSALL ST","UPPR MARLBORO","MD",20772,38.8394356430001,-76.764550533,237,"13911 EDSALL ST, UPPR MARLBORO, MD, 20772","Match","Exact","13911 EDSALL ST, UPPR MARLBORO, MD, 20772",76344140,"L"
165238,"13911 GREEN TRAILS CT","CENTREVILLE","VA",21021,38.8202742820001,-77.4298112239999,238,"13911 GREEN TRAILS CT, CENTREVILLE, VA, 21021","Match","Non_Exact","13911 GREEN TRAILS CT, CENTREVILLE, VA, 20121",76025209,"R"
165239,"13911 HALE ROAD","BURTON","OH",44021,41.4908650510001,-81.117863148,239,"13911 HALE ROAD, BURTON, OH, 44021","Match","Exact","13911 HALE RD, BURTON, OH, 44021",137432295,"L"
165240,"13911 HARVIE COURT","IRWIN","PA",15642,40.3372612270001,-79.769179973,240,"13911 HARVIE COURT, IRWIN, PA, 15642","Match","Exact","13911 HARVIE CT, IRWIN, PA, 15642",52966010,"R"
165241,"13911 KING GREGORY WAY","UPPER MARLBORO","MD",20772,38.825087809,-76.7669652979999,241,"13911 KING GREGORY WAY, UPPER MARLBORO, MD, 20772","Match","Exact","13911 KING GREGORY WAY, UPPER MARLBORO, MD, 20772",76401432,"L"
165242,"13911 LOCKE LANE","HOUSTON","TX",77077,29.736700587,-95.6366400219999,242,"13911 LOCKE LANE, HOUSTON, TX, 77077","Match","Exact","13911 LOCKE LN, HOUSTON, TX, 77077",96021081,"L"
165243,"13911 NE KLICKITAT CT","PORTLAND","OR",97230,45.5461833690001,-122.519910773,243,"13911 NE KLICKITAT CT, PORTLAND, OR, 97230","Match","Exact","13911 NE KLICKITAT CT, PORTLAND, OR, 97230",157522135,"L"
165244,"13911 RIDGEDALE DRIVE","HOPKINS","MN",55305,44.9706245520001,-93.455229743,244,"13911 RIDGEDALE DRIVE, HOPKINS, MN, 55305","Match","Exact","13911 RIDGEDALE DR, HOPKINS, MN, 55305",43822969,"L"
165245,"13911 ROANOKE FALLS DRIVE","CYPRESS","TX",77429,30.0135026680001,-95.635230644,245,"13911 ROANOKE FALLS DRIVE, CYPRESS, TX, 77429","Match","Exact","13911 ROANOKE FALLS DR, CYPRESS, TX, 77429",627774522,"L"
165246,"13911 SW 75 STREET","MIAMI","FL",33183,25.695117834,-80.42002676,246,"13911 SW 75 STREET, MIAMI, FL, 33183","Match","Exact","13911 SW 75TH ST, MIAMI, FL, 33183",115966618,"R"
165247,"13911 TURAH RD","CLINTON","MT",59825,46.811205919,-113.800929091,247,"13911 TURAH RD, CLINTON, MT, 59825","Match","Exact","13911 TURAH RD, CLINTON, MT, 59825",205316987,"L"
165248,"13911 TURAH ROAD","CLINTON","MT",59825,46.811205919,-113.800929091,248,"13911 TURAH ROAD, CLINTON, MT, 59825","Match","Exact","13911 TURAH RD, CLINTON, MT, 59825",205316987,"L"
165249,"13912 HEWES AVE","SANTA ANA","CA",92705,33.7607457350001,-117.806246016,249,"13912 HEWES AVE, SANTA ANA, CA, 92705","Match","Exact","13912 HEWES AVE, SANTA ANA, CA, 92705",609055451,"L"
165250,"13912 MARY ANN DR","UPPER MARLBORO","MD",20774,38.859826367,-76.764537887,250,"13912 MARY ANN DR, UPPER MARLBORO, MD, 20774","Match","Exact","13912 MARY ANN DR, UPPER MARLBORO, MD, 20774",638665796,"R"
165251,"13912 MURIEL AVENUE","HUDSON","FL",34667,28.3599248040001,-82.699883853,251,"13912 MURIEL AVENUE, HUDSON, FL, 34667","Match","Exact","13912 MURIEL AVE, HUDSON, FL, 34667",86335327,"R"
165252,"13912 NOBLE PARK DRIVE","TAMAPA","FL",33556,28.192390688,-82.585607614,252,"13912 NOBLE PARK DRIVE, TAMAPA, FL, 33556","Match","Non_Exact","13912 NOBLE PARK DR, ODESSA, FL, 33556",632187877,"L"
165253,"13912 ROCKINGHAM ROAD","GERMANTOWN","MD",20874,39.1573900160001,-77.288049174,253,"13912 ROCKINGHAM ROAD, GERMANTOWN, MD, 20874","Match","Exact","13912 ROCKINGHAM RD, GERMANTOWN, MD, 20874",62102901,"L"
165254,"13912 SE 44TH ST","BELLEVUE","WA",98006,47.5683343250001,-122.155629692,254,"13912 SE 44TH ST, BELLEVUE, WA, 98006","Match","Exact","13912 SE 44TH ST, BELLEVUE, WA, 98006",186613879,"L"
165255,"13912 SHADY SHORES DR","TAMPA","FL",33613,28.076359274,-82.4823020859999,255,"13912 SHADY SHORES DR, TAMPA, FL, 33613","Match","Exact","13912 SHADY SHORES DR, TAMPA, FL, 33613",104555991,"L"
165256,"13912 SNOWY PLOVER LANE","RIVERVIEW","FL",33579,27.7803539940001,-82.3274607559999,256,"13912 SNOWY PLOVER LANE, RIVERVIEW, FL, 33579","Match","Exact","13912 SNOWY PLOVER LN, RIVERVIEW, FL, 33579",650770063,"R"
165257,"13912 TABIONA DR","SILVER SPRING","MD",20906,39.1023237300001,-77.0544914129999,257,"13912 TABIONA DR, SILVER SPRING, MD, 20906","Match","Exact","13912 TABIONA DR, SILVER SPRING, MD, 20906",62078408,"L"
165258,"13912 WESTDALE DRIVE","BAKERSFIELD","CA",93314,35.3791991740001,-119.157283851,258,"13912 WESTDALE DRIVE, BAKERSFIELD, CA, 93314","Match","Exact","13912 WESTDALE DR, BAKERSFIELD, CA, 93314",109448028,"R"
165259,"13913 BARRINGTON LANE","UPPER MARLBORO","MD",20772,38.8231325090001,-76.761666885,259,"13913 BARRINGTON LANE, UPPER MARLBORO, MD, 20772","Match","Exact","13913 BARRINGTON LN, UPPER MARLBORO, MD, 20772",76344375,"L"
165260,"13913 CARTHAGE CIRCLE","BURTONSVILLE","MD",20866,39.0847730670001,-76.93633937,260,"13913 CARTHAGE CIRCLE, BURTONSVILLE, MD, 20866","Match","Exact","13913 CARTHAGE CIR, BURTONSVILLE, MD, 20866",62077913,"R"
165261,"13913 E 68TH ST","CUSHING","OK",74023,36.043830035,-96.861368188,261,"13913 E 68TH ST, CUSHING, OK, 74023","Match","Exact","13913 E 68TH ST, CUSHING, OK, 74023",166393770,"R"
165262,"13913 ELLA BLVD APT 201","HOUSTON","TX",77014,29.969524258,-95.4316752289999,262,"13913 ELLA BLVD APT 201, HOUSTON, TX, 77014","Match","Exact","13913 ELLA BLVD, HOUSTON, TX, 77014",96658895,"L"
165263,"13913 GOTHIC DR","CENTERVILLE","VA",20121,38.8324605120001,-77.427513441,263,"13913 GOTHIC DR, CENTERVILLE, VA, 20121","Match","Non_Exact","13913 GOTHIC DR, CENTREVILLE, VA, 20121",215978793,"R"
165264,"13913 HICKORY TREE CT","ORLANDO","FL",32832,28.398797286,-81.1832959,264,"13913 HICKORY TREE CT, ORLANDO, FL, 32832","Match","Exact","13913 HICKORY TREE CT, ORLANDO, FL, 32832",94368181,"R"
165265,"13913 NW 55TH AVE","VANCOUVER","WA",98685,45.721465032,-122.727101359,265,"13913 NW 55TH AVE, VANCOUVER, WA, 98685","Match","Exact","13913 NW 55TH AVE, VANCOUVER, WA, 98685",648927863,"R"
165266,"13913 SHANNOCK LANE","UPPER MARLBORO","MD",20774,38.878949452,-76.7670657099999,266,"13913 SHANNOCK LANE, UPPER MARLBORO, MD, 20774","Match","Exact","13913 SHANNOCK LN, UPPER MARLBORO, MD, 20774",648124095,"L"
165267,"13913 STERLINGTON","EDMOND","OK",73013,35.611559421,-97.457846542,267,"13913 STERLINGTON, EDMOND, OK, 73013","Match","Exact","13913 STERLINGTON, EDMOND, OK, 73013",100434089,"L"
165268,"13913 W 73RD ST","SHAWNEE","KS",66216,38.9957193170001,-94.7484223659999,268,"13913 W 73RD ST, SHAWNEE, KS, 66216","Match","Exact","13913 73RD ST, SHAWNEE, KS, 66216",91309989,"R"
165269,"13914 BENTPATH DRIVE","HOUSTON","TX",77014,29.9838455930001,-95.479367102,269,"13914 BENTPATH DRIVE, HOUSTON, TX, 77014","Match","Exact","13914 BENTPATH DR, HOUSTON, TX, 77014",96556119,"L"
165270,"13914 BESSEMER ST","NORTH HOLLYWOOD","CA",91401,34.181220776,-118.436048597,270,"13914 BESSEMER ST, NORTH HOLLYWOOD, CA, 91401","Match","Non_Exact","13914 BESSEMER ST, VALLEY GLEN, CA, 91401",141561343,"L"
165271,"13914 CASTLE BOULEVARD APT 203","SILVER SPRING","MD",20904,39.0833503040001,-76.942202723,271,"13914 CASTLE BOULEVARD APT 203, SILVER SPRING, MD, 20904","Match","Exact","13914 CASTLE BLVD, SILVER SPRING, MD, 20904",62094084,"L"
165272,"13914 CONVOY ROAD","VAN WERT","OH",45891,40.9172852510001,-84.554391063,272,"13914 CONVOY ROAD, VAN WERT, OH, 45891","Match","Exact","13914 CONVOY RD, VAN WERT, OH, 45891",209308343,"R"
165273,"13914 EAST 28TH PL","TULSA","OK",74128,36.1230006710001,-95.820927899,273,"13914 EAST 28TH PL, TULSA, OK, 74128","Match","Non_Exact","13914 E 28TH PL, TULSA, OK, 74134",166457195,"R"
165274,"13914 IVYWOOD ST NW","ANDOVER","MN",55304,45.2233830910001,-93.344948786,274,"13914 IVYWOOD ST NW, ANDOVER, MN, 55304","Match","Exact","13914 IVYWOOD ST NW, ANDOVER, MN, 55304",97497885,"R"
165275,"13914 OLD HICKORY BLVD","CANE RIDGE","TN",37013,36.0066067660001,-86.659390179,275,"13914 OLD HICKORY BLVD, CANE RIDGE, TN, 37013","Match","Exact","13914 OLD HICKORY BLVD, CANE RIDGE, TN, 37013",650723980,"R"
165276,"13914 QUEENSBURY LANE","HOUSTON","TX",77079,29.778473553,-95.588089151,276,"13914 QUEENSBURY LANE, HOUSTON, TX, 77079","Match","Exact","13914 QUEENSBURY LN, HOUSTON, TX, 77079",627490388,"R"
165277,"13914 S 1950 W","BLUFFDALE","UT",84065,40.498816215,-111.943472759,277,"13914 S 1950 W, BLUFFDALE, UT, 84065","Match","Exact","13914 S 1950 W, BLUFFDALE, UT, 84065",176144848,"L"
165278,"13914 SILVER STREAM DR","CARMEL","IN",46032,39.993745705,-86.1594396,278,"13914 SILVER STREAM DR, CARMEL, IN, 46032","Match","Exact","13914 SILVER STREAM DR, CARMEL, IN, 46032",29327295,"R"
165279,"13914 VENTURA BLVD","SHERMAN OAKS","CA",91423,34.148731667,-118.435534219,279,"13914 VENTURA BLVD, SHERMAN OAKS, CA, 91423","Match","Exact","13914 VENTURA BLVD, SHERMAN OAKS, CA, 91423",141562523,"L"
165280,"13914 W 73RD ST","SHAWNEE","KS",66216,38.995729827,-94.74815684,280,"13914 W 73RD ST, SHAWNEE, KS, 66216","Match","Exact","13914 73RD ST, SHAWNEE, KS, 66216",91309989,"L"
165281,"13914","ROCK STILL COURT","VA",20124,NA,NA,281,"13914, ROCK STILL COURT, VA, 20124","No_Match",NA,NA,NA,NA
165282,"13915 CASTLE BLVD 33","SILVER SPRING","MD",20904,39.08319979,-76.942449896,282,"13915 CASTLE BLVD 33, SILVER SPRING, MD, 20904","Match","Exact","13915 CASTLE BLVD, SILVER SPRING, MD, 20904",62094084,"R"
165283,"13915 CASTLE BLVD APT 21","SILVER SPRING","MD",20904,39.08319979,-76.942449896,283,"13915 CASTLE BLVD APT 21, SILVER SPRING, MD, 20904","Match","Exact","13915 CASTLE BLVD, SILVER SPRING, MD, 20904",62094084,"R"
165284,"13915 N ROBINHOOD LANE","KANSAS CITY","MO",64164,39.3442659250001,-94.611600059,284,"13915 N ROBINHOOD LANE, KANSAS CITY, MO, 64164","Match","Exact","13915 N ROBINHOOD LN, KANSAS CITY, MO, 64164",39712761,"L"
165285,"13915 NE 78TH ST","VANCOUVER","WA",98682,45.679048096,-122.529095326,285,"13915 NE 78TH ST, VANCOUVER, WA, 98682","Match","Exact","13915 NE 78TH ST, VANCOUVER, WA, 98682",158366392,"R"
165286,"13915 OLD COAST RD PH 01","NAPLES","FL",34110,26.2974628700001,-81.820647094,286,"13915 OLD COAST RD PH 01, NAPLES, FL, 34110","Match","Non_Exact","13915 OLD COAST RD, NAPLES, FL, 34110",648625173,"R"
165287,"13915 PALMER HOUSE WAY","SILVER SPRING","MD",20904,39.0828011090001,-76.9358703679999,287,"13915 PALMER HOUSE WAY, SILVER SPRING, MD, 20904","Match","Exact","13915 PALMER HOUSE WAY, SILVER SPRING, MD, 20904",62141204,"L"
165288,"13915 SUNLAND DRIVE","FLORISSANT","MO",63034,38.8117769130001,-90.283251907,288,"13915 SUNLAND DRIVE, FLORISSANT, MO, 63034","Match","Exact","13915 SUNLAND DR, FLORISSANT, MO, 63034",645519879,"L"
165289,"13915 TABLE ROCK AVE","BAKERSFIELD","CA",93314,35.3987149390001,-119.15674159,289,"13915 TABLE ROCK AVE, BAKERSFIELD, CA, 93314","Match","Exact","13915 TABLE ROCK AVE, BAKERSFIELD, CA, 93314",109447553,"L"
165290,"13915 US HWY 43","LINDEN","AL",36748,32.193983082,-87.781472013,290,"13915 US HWY 43, LINDEN, AL, 36748","Match","Exact","13915 US HWY 43, LINDEN, AL, 36748",9690748,"L"
165291,"13915 VIEWRIDGE CT","CHINO HILLS","CA",91709,34.0002775560001,-117.747219631,291,"13915 VIEWRIDGE CT, CHINO HILLS, CA, 91709","Match","Exact","13915 VIEWRIDGE CT, CHINO HILLS, CA, 91709",144982721,"L"
165292,"13915 W 30TH AVE","GOLDEN","CO",80401,39.759253159,-105.155504558,292,"13915 W 30TH AVE, GOLDEN, CO, 80401","Match","Exact","13915 W 30TH AVE, GOLDEN, CO, 80401",177285448,"R"
165293,"13916 CAMBRIDGE CIR","PLAINFIELD","IL",60544,41.6308232920001,-88.1683058679999,293,"13916 CAMBRIDGE CIR, PLAINFIELD, IL, 60544","Match","Exact","13916 CAMBRIDGE CIR, PLAINFIELD, IL, 60544",111612965,"R"
165294,"13916 EVERGREEN STREET NW","ANDOVER","MN",55304,45.223862981,-93.271917978,294,"13916 EVERGREEN STREET NW, ANDOVER, MN, 55304","Match","Non_Exact","13916 EVERGREEN ST, ANDOVER, MN, 55304",97506368,"R"
165295,"13916 GRANT SPRINGS CT","HASLET","TX",76052,32.98148195,-97.404055113,295,"13916 GRANT SPRINGS CT, HASLET, TX, 76052","Match","Exact","13916 GRANT SPRINGS CT, HASLET, TX, 76052",102114187,"L"
165296,"13916 PINE LODGE LANE","FORT MYERS","FL",33913,NA,NA,296,"13916 PINE LODGE LANE, FORT MYERS, FL, 33913","No_Match",NA,NA,NA,NA
165297,"13916 SPANISH POINT DR","JACKSONVILLE","FL",32225,30.3623090470001,-81.478058924,297,"13916 SPANISH POINT DR, JACKSONVILLE, FL, 32225","Match","Exact","13916 SPANISH POINT DR, JACKSONVILLE, FL, 32225",640433612,"R"
165298,"13916 TERRY","DETROIT","MI",48227,42.387644192,-83.191198043,298,"13916 TERRY, DETROIT, MI, 48227","Match","Non_Exact","13916 TERRY AVE, DETROIT, MI, 48227",95441482,"R"
165299,"13916","ALEXANDER","AR",72002,NA,NA,299,"13916, ALEXANDER, AR, 72002","No_Match",NA,NA,NA,NA
165300,"13917 ARCTURUS AVE","GARDENA","CA",90249,33.90524119,-118.321442986,300,"13917 ARCTURUS AVE, GARDENA, CA, 90249","Match","Exact","13917 ARCTURUS AVE, GARDENA, CA, 90249",141661085,"R"
165301,"13917 BRIAR LN","PLAINFIELD","IL",60544,41.6288811360001,-88.229400407,301,"13917 BRIAR LN, PLAINFIELD, IL, 60544","Match","Exact","13917 BRIAR LN, PLAINFIELD, IL, 60544",111625101,"R"
165302,"13917 CARMEL RIDGE ROAD","SAN DIEGO","CA",92128,32.9735764760001,-117.077504263,302,"13917 CARMEL RIDGE ROAD, SAN DIEGO, CA, 92128","Match","Exact","13917 CARMEL RIDGE RD, SAN DIEGO, CA, 92128",195390773,"R"
165303,"13917 COUNTY RD 350","FLEMINGTON","MO",65650,37.828002928,-93.508717885,303,"13917 COUNTY RD 350, FLEMINGTON, MO, 65650","Match","Exact","13917 CO RD 350, FLEMINGTON, MO, 65650",22621838,"L"
165304,"13917 COUNTY ROAD 1564","ADA","OK",74820,34.7468534010001,-96.708184261,304,"13917 COUNTY ROAD 1564, ADA, OK, 74820","Match","Exact","13917 CO RD 1564, ADA, OK, 74820",634065129,"R"
165305,"13917 S WABASH AVENUE","RIVERDALE","IL",60827,41.642310954,-87.620852723,305,"13917 S WABASH AVENUE, RIVERDALE, IL, 60827","Match","Exact","13917 WABASH AVE, RIVERDALE, IL, 60827",111778039,"L"
165306,"13918 186TH AVE NE","WOODINVILLE","WA",98072,47.724457726,-122.091343206,306,"13918 186TH AVE NE, WOODINVILLE, WA, 98072","Match","Exact","13918 186TH AVE NE, WOODINVILLE, WA, 98072",186932108,"R"
165307,"13918 286TH AVE NE","WOODINVILLE","WA",98072,NA,NA,307,"13918 286TH AVE NE, WOODINVILLE, WA, 98072","No_Match",NA,NA,NA,NA
165308,"13918 ALBEMARLE DR","FARMERS BRANCH","TX",75234,32.936057454,-96.895096816,308,"13918 ALBEMARLE DR, FARMERS BRANCH, TX, 75234","Match","Exact","13918 ALBEMARLE DR, FARMERS BRANCH, TX, 75234",102988652,"R"
165309,"13918 ALBEMARLE DRIVE","FARMERS BRANCH","TX",75234,32.936057454,-96.895096816,309,"13918 ALBEMARLE DRIVE, FARMERS BRANCH, TX, 75234","Match","Exact","13918 ALBEMARLE DR, FARMERS BRANCH, TX, 75234",102988652,"R"
165310,"13918 BELLA DONNA","SAN ANTONIO","TX",78253,29.4241827390001,-98.770612103,310,"13918 BELLA DONNA, SAN ANTONIO, TX, 78253","Match","Exact","13918 BELLA DONNA, SAN ANTONIO, TX, 78253",619948765,"R"
165311,"13918 CASTLE BLV APT 104","SILVER SPRING","MD",20904,39.0833907590001,-76.942129756,311,"13918 CASTLE BLV APT 104, SILVER SPRING, MD, 20904","Match","Exact","13918 CASTLE BLVD, SILVER SPRING, MD, 20904",62094084,"L"
165312,"13918 E  MISSISSIPPI AVE SUITE 215","AURORA","CO",80012,39.696615561,-104.827500132,312,"13918 E  MISSISSIPPI AVE SUITE 215, AURORA, CO, 80012","Match","Non_Exact","13918 E MISSISSIPPI AVE, AURORA, CO, 80012",632756991,"R"
165313,"13918 E MISSISSIPPI AVE STE 247","AURORA","CO",80012,39.696615561,-104.827500132,313,"13918 E MISSISSIPPI AVE STE 247, AURORA, CO, 80012","Match","Non_Exact","13918 E MISSISSIPPI AVE, AURORA, CO, 80012",632756991,"R"
165314,"13918 E MISSISSIPPI AVE SUITE 112","AURORA","CO",80012,39.696615561,-104.827500132,314,"13918 E MISSISSIPPI AVE SUITE 112, AURORA, CO, 80012","Match","Non_Exact","13918 E MISSISSIPPI AVE, AURORA, CO, 80012",632756991,"R"
165315,"13918 E MISSISSIPPI AVE SUITE 215","AURORA","CO",80012,39.696615561,-104.827500132,315,"13918 E MISSISSIPPI AVE SUITE 215, AURORA, CO, 80012","Match","Non_Exact","13918 E MISSISSIPPI AVE, AURORA, CO, 80012",632756991,"R"
165316,"13918 FIRE CREEK TRAIL DR","EAGLE RIVER","AK",99577,61.345648381,-149.555427747,316,"13918 FIRE CREEK TRAIL DR, EAGLE RIVER, AK, 99577","Match","Exact","13918 FIRE CREEK TRAIL DR, EAGLE RIVER, AK, 99577",605335183,"L"
165317,"13918 LAKE MEADOWS DR","BOWIE","MD",20720,38.967517179,-76.763830126,317,"13918 LAKE MEADOWS DR, BOWIE, MD, 20720","Match","Exact","13918 LAKE MEADOWS DR, BOWIE, MD, 20720",624834336,"L"
165318,"13918 S MICHIGAN AVE","RIVERALE","IL",60827,41.642282939,-87.619653389,318,"13918 S MICHIGAN AVE, RIVERALE, IL, 60827","Match","Non_Exact","13918 S MICHIGAN AVE, RIVERDALE, IL, 60827",111778041,"R"
165319,"13918 S MICHIGAN","RIVERDALE","IL",60827,41.64227693,-87.619653389,319,"13918 S MICHIGAN, RIVERDALE, IL, 60827","Match","Non_Exact","13918 S MICHIGAN AVE, RIVERDALE, IL, 60827",111778041,"R"
165320,"13918 SOUTH OAKDALE COURT","PLAINFIELD","IL",60544,41.629503334,-88.1620137419999,320,"13918 SOUTH OAKDALE COURT, PLAINFIELD, IL, 60544","Match","Exact","13918 S OAKDALE CT, PLAINFIELD, IL, 60544",111599286,"L"
165321,"13918 TOBACCO BAY PLACE","CHESTER","VA",23836,37.3349907200001,-77.3615377039999,321,"13918 TOBACCO BAY PLACE, CHESTER, VA, 23836","Match","Exact","13918 TOBACCO BAY PL, CHESTER, VA, 23836",625628263,"L"
165322,"13918 WESTDALE DRIVE","BAKERSFIELD","CA",93314,35.3791991740001,-119.157333551,322,"13918 WESTDALE DRIVE, BAKERSFIELD, CA, 93314","Match","Exact","13918 WESTDALE DR, BAKERSFIELD, CA, 93314",109448028,"R"
165323,"13918 WICKERSHAM LANE","HOUSTON","TX",77077,29.7374845050001,-95.6361141099999,323,"13918 WICKERSHAM LANE, HOUSTON, TX, 77077","Match","Exact","13918 WICKERSHAM LN, HOUSTON, TX, 77077",96021080,"R"
165324,"13919 77TH AVE CT E","PUYALLUP","WA",98373,47.1300138600001,-122.32589955,324,"13919 77TH AVE CT E, PUYALLUP, WA, 98373","Match","Exact","13919 77TH AVENUE CT E, PUYALLUP, WA, 98373",184699306,"R"
165325,"13919 ARTHUR AVE UNIT 3","PARAMOUNT","CA",90723,33.9085710640001,-118.163642887,325,"13919 ARTHUR AVE UNIT 3, PARAMOUNT, CA, 90723","Match","Exact","13919 ARTHUR AVE, PARAMOUNT, CA, 90723",142772785,"R"
165326,"13919 CEDAR CANYON","SAN ANTONIO","TX",78231,29.5731583830001,-98.530204689,326,"13919 CEDAR CANYON, SAN ANTONIO, TX, 78231","Match","Exact","13919 CEDAR CANYON, SAN ANTONIO, TX, 78231",101555369,"R"
165327,"13919 CHARLYNN OAKS DRIVE","HOUSTON","TX",77070,29.9804870410001,-95.5489896559999,327,"13919 CHARLYNN OAKS DRIVE, HOUSTON, TX, 77070","Match","Non_Exact","13919 CHARLYNN OAKS, HOUSTON, TX, 77070",96005820,"L"
165328,"13919 ELM TRACE LANE","HOUSTON","TX",77014,NA,NA,328,"13919 ELM TRACE LANE, HOUSTON, TX, 77014","No_Match",NA,NA,NA,NA
165329,"13919 LAUDER ST","DETROIT","MI",48227,42.3876211300001,-83.1900442639999,329,"13919 LAUDER ST, DETROIT, MI, 48227","Match","Exact","13919 LAUDER ST, DETROIT, MI, 48227",95441495,"L"
165330,"13919 LUDGATE PASS","HOUSTON","TX",77034,29.5955430240001,-95.1821450909999,330,"13919 LUDGATE PASS, HOUSTON, TX, 77034","Match","Exact","13919 LUDGATE PASS, HOUSTON, TX, 77034",96113634,"L"
165331,"13919 S WEST BAY SHORE DR STE G-01","TRAVERSE CITY","MI",49684,NA,NA,331,"13919 S WEST BAY SHORE DR STE G-01, TRAVERSE CITY, MI, 49684","No_Match",NA,NA,NA,NA
165332,"13919 W MAIN ST","DALEVILLE","IN",47334,40.130196272,-85.549446883,332,"13919 W MAIN ST, DALEVILLE, IN, 47334","Match","Exact","13919 W MAIN ST, DALEVILLE, IN, 47334",30842430,"R"
165333,"13919 WEST MAIN STREET","DALEVILLE","IN",47334,40.130219745,-85.54942242,333,"13919 WEST MAIN STREET, DALEVILLE, IN, 47334","Match","Exact","13919 W MAIN ST, DALEVILLE, IN, 47334",30842430,"R"
165334,"1391CALLE PEQUENO","GARDNERVILLE","NV",89410,NA,NA,334,"1391CALLE PEQUENO, GARDNERVILLE, NV, 89410","No_Match",NA,NA,NA,NA
165335,"1392 8TH ST SE","SIOUX CENTER","IA",51250,43.070546118,-96.1546054299999,335,"1392 8TH ST SE, SIOUX CENTER, IA, 51250","Match","Exact","1392 8TH ST SE, SIOUX CENTER, IA, 51250",648667426,"L"
165336,"1392 ALMOND CREST","ATWATER","CA",95301,37.30784486,-120.583170734,336,"1392 ALMOND CREST, ATWATER, CA, 95301","Match","Non_Exact","1392 ALMOND CREST AVE, ATWATER, CA, 95301",125340935,"R"
165337,"1392 ALMOND CREST","MERCED","CA",95301,NA,NA,337,"1392 ALMOND CREST, MERCED, CA, 95301","No_Match",NA,NA,NA,NA
165338,"1392 AMHERST ST  APT3","BUFFALO","NY",14216,42.941115788,-78.8525530539999,338,"1392 AMHERST ST  APT3, BUFFALO, NY, 14216","Match","Exact","1392 AMHERST ST, BUFFALO, NY, 14216",645418300,"L"
165339,"1392 BAILEY CIRCLE","HIGH POINT","NC",27262,35.9777694910001,-79.9887670689999,339,"1392 BAILEY CIRCLE, HIGH POINT, NC, 27262","Match","Exact","1392 BAILEY CIR, HIGH POINT, NC, 27262",636278438,"L"
165340,"1392 BIRCHCREST DRIVE","WHITE BEAR LK","MN",55110,45.0749379480001,-93.042253492,340,"1392 BIRCHCREST DRIVE, WHITE BEAR LK, MN, 55110","Match","Exact","1392 BIRCHCREST DR, WHITE BEAR LAKE, MN, 55110",97662130,"R"
165341,"1392 BOSWALL DRIVE","WORTHINGTON","OH",43085,40.1160991990001,-82.979250152,341,"1392 BOSWALL DRIVE, WORTHINGTON, OH, 43085","Match","Exact","1392 BOSWALL DR, WORTHINGTON, OH, 43085",135622503,"L"
165342,"1392 CHARLES AVE","FLINT","MI",48505,43.077846342,-83.679916485,342,"1392 CHARLES AVE, FLINT, MI, 48505","Match","Exact","1392 CHARLES AVE, FLINT, MI, 48505",69566467,"R"
165343,"1392 COUNTRY LANE","BELLINGHAM","WA",98226,48.7896835920001,-122.556264303,343,"1392 COUNTRY LANE, BELLINGHAM, WA, 98226","Match","Non_Exact","1392 COUNTRY LN, BELLINGHAM, WA, 98225",183776323,"R"
165344,"1392 CR 4411","REKLAW","TX",75784,31.9053632930001,-94.986047433,344,"1392 CR 4411, REKLAW, TX, 75784","Match","Exact","1392 CO RD 4411, REKLAW, TX, 75784",72312077,"L"
165345,"1392 DELAWARE TURNPIKE","DELMAR","NY",12054,42.5925590940001,-73.9101284979999,345,"1392 DELAWARE TURNPIKE, DELMAR, NY, 12054","Match","Exact","1392 DELAWARE TPKE, DELMAR, NY, 12054",18364121,"R"
165346,"1392 EAST 5935 SOUTH","MURRAY","UT",84121,40.6433955100001,-111.8514818,346,"1392 EAST 5935 SOUTH, MURRAY, UT, 84121","Match","Exact","1392 E 5935 S, MURRAY, UT, 84121",647312392,"R"
165347,"1392 GIFFORDS CHURCH RD","SCHENECTADY","NY",12306,42.758010572,-74.007896891,347,"1392 GIFFORDS CHURCH RD, SCHENECTADY, NY, 12306","Match","Exact","1392 GIFFORDS CHURCH RD, SCHENECTADY, NY, 12306",642835078,"L"
165348,"1392 HEATHERWOOD LANE UNIT 29","ANN ARBOR","MI",48108,42.237934613,-83.7571695089999,348,"1392 HEATHERWOOD LANE UNIT 29, ANN ARBOR, MI, 48108","Match","Exact","1392 HEATHERWOOD LN, ANN ARBOR, MI, 48108",26034833,"L"
165349,"1392 HILLMAN ROAD","KNOXVILLE","TN",37932,35.9129645630001,-84.1844172739999,349,"1392 HILLMAN ROAD, KNOXVILLE, TN, 37932","Match","Exact","1392 HILLMAN RD, KNOXVILLE, TN, 37932",624790115,"L"
165350,"1392 INDIANOLA AVE","AKRON","OH",44278,41.082431376,-81.465411522,350,"1392 INDIANOLA AVE, AKRON, OH, 44278","Match","Non_Exact","1392 INDIANOLA AVE, AKRON, OH, 44305",61351099,"R"
165351,"1392 JOHNSONVILLE ROAD","JOHNSONVILLE","NY",12094,42.9093542350001,-73.514593783,351,"1392 JOHNSONVILLE ROAD, JOHNSONVILLE, NY, 12094","Match","Exact","1392 JOHNSONVILLE RD, JOHNSONVILLE, NY, 12094",35719769,"R"
165352,"1392 KELLOGG STREET","ALDEN","NY",14004,42.897961717,-78.495011738,352,"1392 KELLOGG STREET, ALDEN, NY, 14004","Match","Exact","1392 KELLOGG ST, ALDEN, NY, 14004",48313977,"L"
165353,"1392 KYLE ST","MEMPHIS","IN",38106,NA,NA,353,"1392 KYLE ST, MEMPHIS, IN, 38106","No_Match",NA,NA,NA,NA
165354,"1392 KYLE ST","MEMPHIS","TN",38106,35.107844352,-90.004842399,354,"1392 KYLE ST, MEMPHIS, TN, 38106","Match","Exact","1392 KYLE ST, MEMPHIS, TN, 38106",653298597,"L"
165355,"1392 LAKE BALDWIN LANE","ORLANDO","FL",32814,28.5651420620001,-81.326346262,355,"1392 LAKE BALDWIN LANE, ORLANDO, FL, 32814","Match","Exact","1392 LAKE BALDWIN LN, ORLANDO, FL, 32814",94425157,"L"
165356,"1392 LAKE RD","CONNEAUT","OH",44030,41.9467901950001,-80.613266816,356,"1392 LAKE RD, CONNEAUT, OH, 44030","Match","Exact","1392 LAKE RD, CONNEAUT, OH, 44030",117310917,"L"
165357,"1392 LAWLER RANCH","SUISUN","CA",94585,38.238173886,-121.991543875,357,"1392 LAWLER RANCH, SUISUN, CA, 94585","Match","Non_Exact","1392 LAWLER RANCH PKWY, SUISUN CITY, CA, 94585",192563412,"L"
165358,"1392 MAURICE BROWN RD","JAMESVILLE","NC",27846,35.793909483,-76.896344196,358,"1392 MAURICE BROWN RD, JAMESVILLE, NC, 27846","Match","Exact","1392 MAURICE BROWN RD, JAMESVILLE, NC, 27846",56802084,"L"
165359,"1392 MCLENDON AVE NE SUITE 6","ATLANTA","GA",30307,33.764895865,-84.3420720569999,359,"1392 MCLENDON AVE NE SUITE 6, ATLANTA, GA, 30307","Match","Exact","1392 MCLENDON AVE NE, ATLANTA, GA, 30307",23365162,"L"
165360,"1392 N 3850 W","WEST POINT","UT",84015,41.1335321700001,-112.099998625,360,"1392 N 3850 W, WEST POINT, UT, 84015","Match","Exact","1392 N 3850 W, WEST POINT, UT, 84015",155368457,"R"
165361,"1392 N CHURCH AVE","MULBERRY","FL",33860,27.907002854,-81.9737653,361,"1392 N CHURCH AVE, MULBERRY, FL, 33860","Match","Non_Exact","1392 CHURCH AVE N, MULBERRY, FL, 33860",647863797,"R"
165362,"1392 NUNNALLY TRAIL","MONROE","GA",30655,33.7660757020001,-83.8078795549999,362,"1392 NUNNALLY TRAIL, MONROE, GA, 30655","Match","Exact","1392 NUNNALLY TRL, MONROE, GA, 30655",627725351,"L"
165363,"1392 QUINNIPIAC AVENUE","NEW HAVEN","CT",6512,NA,NA,363,"1392 QUINNIPIAC AVENUE, NEW HAVEN, CT, 6512","No_Match",NA,NA,NA,NA
165364,"1392 QUIVIRA RD","WASHINGTON","KS",66968,39.768766337,-97.049387146,364,"1392 QUIVIRA RD, WASHINGTON, KS, 66968","Match","Exact","1392 QUIVIRA RD, WASHINGTON, KS, 66968",11564215,"R"
165365,"1392 RIDGEWOOD CR","ASHEBORO","NC",27203,35.7399254470001,-79.7870876709999,365,"1392 RIDGEWOOD CR, ASHEBORO, NC, 27203","Match","Exact","1392 RIDGEWOOD CIR, ASHEBORO, NC, 27203",20441689,"R"
165366,"1392 ROLAND HAYES PARKWAY","CALHOUN","GA",30701,34.502834369,-84.998955263,366,"1392 ROLAND HAYES PARKWAY, CALHOUN, GA, 30701","Match","Non_Exact","1392 ROLAND HAYES PKWY SW, CALHOUN, GA, 30701",57323408,"R"
165367,"1392 S CO RD 150 W","BROWNSTOWN","IN",47220,38.8575467410001,-86.0664517609999,367,"1392 S CO RD 150 W, BROWNSTOWN, IN, 47220","Match","Exact","1392 S CO RD 150 W, BROWNSTOWN, IN, 47220",31268195,"L"
165368,"1392 S DOGWOOD DRIVE","HARRISONBURG","VA",22801,38.43559407,-78.90198333,368,"1392 S DOGWOOD DRIVE, HARRISONBURG, VA, 22801","Match","Exact","1392 S DOGWOOD DR, HARRISONBURG, VA, 22801",55727301,"L"
165369,"1392 SKYLINE DRIVE","BLAIR","NE",68008,41.531219623,-96.151207503,369,"1392 SKYLINE DRIVE, BLAIR, NE, 68008","Match","Exact","1392 SKYLINE DR, BLAIR, NE, 68008",176773237,"R"
165370,"1392 SOUTH 3RD STREET","TROY","MO",63379,38.9665181990001,-90.965283912,370,"1392 SOUTH 3RD STREET, TROY, MO, 63379","Match","Exact","1392 S 3RD ST, TROY, MO, 63379",44867729,"R"
165371,"1392 SOUTH HIGH STREET","COLUMBUS","OH",43207,39.933663876,-82.995948318,371,"1392 SOUTH HIGH STREET, COLUMBUS, OH, 43207","Match","Exact","1392 S HIGH ST, COLUMBUS, OH, 43207",135584994,"L"
165372,"1392 SUMMIT PINES BLVD APT 634","WEST PALM BEACH","FL",33415,26.6581055400001,-80.1222025439999,372,"1392 SUMMIT PINES BLVD APT 634, WEST PALM BEACH, FL, 33415","Match","Exact","1392 SUMMIT PINES BLVD, WEST PALM BEACH, FL, 33415",624496730,"R"
165373,"1392 THORNHILL","YOUNGSTOWN","OH",44505,41.1246025410001,-80.625278044,373,"1392 THORNHILL, YOUNGSTOWN, OH, 44505","Match","Non_Exact","1392 THORNHILL RD, YOUNGSTOWN, OH, 44505",64619455,"L"
165374,"1392 TROJAN ROAD","CROSS","SC",29436,33.375145961,-80.149835014,374,"1392 TROJAN ROAD, CROSS, SC, 29436","Match","Exact","1392 TROJAN RD, CROSS, SC, 29436",100778988,"L"
165375,"1392 W MINNEHAHA AVE","SAINT PAUL","MN",55104,44.962915213,-93.159054769,375,"1392 W MINNEHAHA AVE, SAINT PAUL, MN, 55104","Match","Exact","1392 W MINNEHAHA AVE, SAINT PAUL, MN, 55104",97641593,"L"
165376,"1392 WATSON ROAD","HILLSBORO","KY",41049,38.3001431010001,-83.578878151,376,"1392 WATSON ROAD, HILLSBORO, KY, 41049","Match","Exact","1392 WATSON RD, HILLSBORO, KY, 41049",54409297,"L"
165377,"1392 WEST 31ST STREET","RIVIERA BEACH","FL",33404,26.788014832,-80.076362241,377,"1392 WEST 31ST STREET, RIVIERA BEACH, FL, 33404","Match","Exact","1392 W 31ST ST, RIVIERA BEACH, FL, 33404",115529062,"R"
165378,"1392 WEST RIVER RD","SHADY SIDE","MD",20764,38.8309367570001,-76.517376262,378,"1392 WEST RIVER RD, SHADY SIDE, MD, 20764","Match","Exact","1392 W RIVER RD, SHADY SIDE, MD, 20764",68178328,"L"
165379,"1392 WOODLAND AVE","ATLANTA","GA",30316,NA,NA,379,"1392 WOODLAND AVE, ATLANTA, GA, 30316","No_Match",NA,NA,NA,NA
165380,"1392","CALUMET CITY","IL",60409,NA,NA,380,"1392, CALUMET CITY, IL, 60409","No_Match",NA,NA,NA,NA
165381,"13920 ASLAN PASSAGE","FORT WAYNE","IN",46845,41.213096137,-85.1453890769999,381,"13920 ASLAN PASSAGE, FORT WAYNE, IN, 46845","Match","Exact","13920 ASLAN PSGE, FORT WAYNE, IN, 46845",651360871,"R"
165382,"13920 BAUER DR","ROCKVILLE","MD",20853,39.085020022,-77.087978151,382,"13920 BAUER DR, ROCKVILLE, MD, 20853","Match","Exact","13920 BAUER DR, ROCKVILLE, MD, 20853",62059810,"L"
165383,"13920 CASTLE BLVD APT 601","SILVER SPRING","MD",20904,39.083410987,-76.942093273,383,"13920 CASTLE BLVD APT 601, SILVER SPRING, MD, 20904","Match","Exact","13920 CASTLE BLVD, SILVER SPRING, MD, 20904",62094084,"L"
165384,"13920 CASTLE BLVD APT303","SILVER SPRING","MD",20904,39.083410987,-76.942093273,384,"13920 CASTLE BLVD APT303, SILVER SPRING, MD, 20904","Match","Exact","13920 CASTLE BLVD, SILVER SPRING, MD, 20904",62094084,"L"
165385,"13920 CASTLE BLVD UNIT 506","SILVER SPRING","MD",20904,39.083410987,-76.942093273,385,"13920 CASTLE BLVD UNIT 506, SILVER SPRING, MD, 20904","Match","Exact","13920 CASTLE BLVD, SILVER SPRING, MD, 20904",62094084,"L"
165386,"13920 FLORIGOLD DRIVE","WINDERMERE","FL",34786,28.473775457,-81.592552688,386,"13920 FLORIGOLD DRIVE, WINDERMERE, FL, 34786","Match","Exact","13920 FLORIGOLD DR, WINDERMERE, FL, 34786",94408564,"L"
165387,"13920 FM 523","ANGLETON","TX",77515,29.135797601,-95.392372444,387,"13920 FM 523, ANGLETON, TX, 77515","Match","Exact","13920 FM 523, ANGLETON, TX, 77515",641827422,"R"
165388,"13920 HIGHWAY 23","BELLE CHASSE","LA",70037,29.7213957120001,-89.999009067,388,"13920 HIGHWAY 23, BELLE CHASSE, LA, 70037","Match","Non_Exact","13920 STATE RTE 23, BELLE CHASSE, LA, 70037",649187430,"L"
165389,"13920 KELSEY DRIVE","CHICO","CA",95973,39.8093888120001,-121.88519921,389,"13920 KELSEY DRIVE, CHICO, CA, 95973","Match","Exact","13920 KELSEY DR, CHICO, CA, 95973",68459487,"R"
165390,"13920 KINSEL RD","MINNETONKA","MN",55345,44.906920826,-93.457101374,390,"13920 KINSEL RD, MINNETONKA, MN, 55345","Match","Exact","13920 KINSEL RD, MINNETONKA, MN, 55345",43864910,"R"
165391,"13920 LUDINGTON PL","CENTERVILLE","VA",20121,38.823448526,-77.429992403,391,"13920 LUDINGTON PL, CENTERVILLE, VA, 20121","Match","Non_Exact","13920 LUDINGTON PL, CENTREVILLE, VA, 20121",614143124,"R"
165392,"13920 LUDINGTON PL","CENTREVILLE","VA",20121,38.823448526,-77.429992403,392,"13920 LUDINGTON PL, CENTREVILLE, VA, 20121","Match","Exact","13920 LUDINGTON PL, CENTREVILLE, VA, 20121",614143124,"R"
165393,"13920 MANDOLIN DR APT 2305","HOUSTON","TX",77070,29.978972255,-95.5699895989999,393,"13920 MANDOLIN DR APT 2305, HOUSTON, TX, 77070","Match","Exact","13920 MANDOLIN DR, HOUSTON, TX, 77070",644879137,"L"
165394,"13920 MANDOLIN DR APT 2432","HOUSTON","TX",77070,29.978972255,-95.5699895989999,394,"13920 MANDOLIN DR APT 2432, HOUSTON, TX, 77070","Match","Exact","13920 MANDOLIN DR, HOUSTON, TX, 77070",644879137,"L"
165395,"13920 MANDOLIN DR","HOUSTON","TX",77070,29.978972255,-95.5699895989999,395,"13920 MANDOLIN DR, HOUSTON, TX, 77070","Match","Exact","13920 MANDOLIN DR, HOUSTON, TX, 77070",644879137,"L"
165396,"13920 MOORPARK ST","SHERMAN OAKS","CA",91423,34.150344825,-118.436111681,396,"13920 MOORPARK ST, SHERMAN OAKS, CA, 91423","Match","Exact","13920 MOORPARK ST, SHERMAN OAKS, CA, 91423",141562520,"L"
165397,"13920 NOLAND STREET","OVERLAND PARK","KS",66221,38.875073774,-94.73925769,397,"13920 NOLAND STREET, OVERLAND PARK, KS, 66221","Match","Exact","13920 NOLAND ST, OVERLAND PARK, KS, 66221",91356390,"L"
165398,"13920 S OAKDALE CT","PLAINFIELD","IL",60544,41.629517041,-88.161980769,398,"13920 S OAKDALE CT, PLAINFIELD, IL, 60544","Match","Exact","13920 S OAKDALE CT, PLAINFIELD, IL, 60544",111599286,"L"
165399,"13920 SIMKO RANCH LN","GALT","CA",95632,38.24940904,-121.331946476,399,"13920 SIMKO RANCH LN, GALT, CA, 95632","Match","Exact","13920 SIMKO RANCH LN, GALT, CA, 95632",133409566,"L"
165400,"13920 STERLING ST","MORENO VALLEY","CA",92555,33.918411539,-117.159936807,400,"13920 STERLING ST, MORENO VALLEY, CA, 92555","Match","Exact","13920 STERLING ST, MORENO VALLEY, CA, 92555",194750740,"L"
165401,"13920 SUNFISH BEND","ALPHARETTA","GA",30004,34.121287668,-84.261094226,401,"13920 SUNFISH BEND, ALPHARETTA, GA, 30004","Match","Exact","13920 SUNFISH BEND, ALPHARETTA, GA, 30004",636105180,"R"
165402,"13920 TENNESSEE AVENUE","ASTATULA","FL",34705,28.7045284700001,-81.725326267,402,"13920 TENNESSEE AVENUE, ASTATULA, FL, 34705","Match","Exact","13920 TENNESSEE AVE, ASTATULA, FL, 34705",94165397,"R"
165403,"13920 TRISTAN LANE SUITE 826","EULESS","TX",76040,32.8193095240001,-97.0672292089999,403,"13920 TRISTAN LANE SUITE 826, EULESS, TX, 76040","Match","Exact","13920 TRISTAN LN, EULESS, TX, 76040",619867968,"R"
165404,"13920 WAGON TRAIL DR","EL PASO","TX",79938,31.8522743980001,-106.196444389,404,"13920 WAGON TRAIL DR, EL PASO, TX, 79938","Match","Exact","13920 WAGON TRAIL DR, EL PASO, TX, 79938",189370452,"R"
165405,"13921 ABERDEENS FOLLY COURT","BOWIE","MD",20720,38.9515504410001,-76.7644077959999,405,"13921 ABERDEENS FOLLY COURT, BOWIE, MD, 20720","Match","Exact","13921 ABERDEENS FOLLY CT, BOWIE, MD, 20720",648072324,"R"
165406,"13921 FAREHAM ROAD","ODESSA","FL",33556,28.18784011,-82.585659821,406,"13921 FAREHAM ROAD, ODESSA, FL, 33556","Match","Non_Exact","13921 FARHAM RD, ODESSA, FL, 33556",641442867,"L"
165407,"13921 KORNBLUM AVE APT 10","HAWTHORNE","CA",90250,33.905104587,-118.337313196,407,"13921 KORNBLUM AVE APT 10, HAWTHORNE, CA, 90250","Match","Exact","13921 KORNBLUM AVE, HAWTHORNE, CA, 90250",142752723,"R"
165408,"13921 LONGBOAT DRIVE","CORPUS CHRISTI","TX",78418,27.603975211,-97.2340584679999,408,"13921 LONGBOAT DRIVE, CORPUS CHRISTI, TX, 78418","Match","Exact","13921 LONGBOAT DR, CORPUS CHRISTI, TX, 78418",178524858,"R"
165409,"13921 LULLABY RD","GERMANTOWN","MD",20874,39.1765151770001,-77.286933328,409,"13921 LULLABY RD, GERMANTOWN, MD, 20874","Match","Exact","13921 LULLABY RD, GERMANTOWN, MD, 20874",635444302,"R"
165410,"13921 PEBBLE FALLS LANE","PEARLAND","TX",77584,29.5571481470001,-95.436885359,410,"13921 PEBBLE FALLS LANE, PEARLAND, TX, 77584","Match","Exact","13921 PEBBLE FALLS LN, PEARLAND, TX, 77584",648707222,"R"
165411,"13921 ROCK BROOK CT","CLIFTON","VA",20124,38.806484776,-77.427131601,411,"13921 ROCK BROOK CT, CLIFTON, VA, 20124","Match","Exact","13921 ROCK BROOK CT, CLIFTON, VA, 20124",76057007,"R"
165412,"13921 SPINNING AVE","GARDENA","CA",90249,33.905212115,-118.318929367,412,"13921 SPINNING AVE, GARDENA, CA, 90249","Match","Exact","13921 SPINNING AVE, GARDENA, CA, 90249",141661097,"R"
165413,"13921 SW 278 STREET","HOMESTEAD","FL",33032,25.508850029,-80.417264457,413,"13921 SW 278 STREET, HOMESTEAD, FL, 33032","Match","Exact","13921 SW 278TH ST, HOMESTEAD, FL, 33032",115990724,"L"
165414,"13922 AUTUMN RIDGE TRAIL","HOUSTON","TX",77048,29.6067264860001,-95.354773022,414,"13922 AUTUMN RIDGE TRAIL, HOUSTON, TX, 77048","Match","Non_Exact","13922 AUTUMN RIDGE TRAIL DR, HOUSTON, TX, 77048",636880699,"L"
165415,"13922 E NOLAND CT","INDEPENDENCE","MO",64055,39.0543883930001,-94.415258934,415,"13922 E NOLAND CT, INDEPENDENCE, MO, 64055","Match","Non_Exact","13922 S NOLAND CT, INDEPENDENCE, MO, 64055",91501545,"R"
165416,"13922 E STANFORD CIRCLE B8","AURORA","CO",80015,39.634320217,-104.826392127,416,"13922 E STANFORD CIRCLE B8, AURORA, CO, 80015","Match","Non_Exact","13922 E STANFORD CIR, AURORA, CO, 80015",649783927,"R"
165417,"13922 FALCONCREST RD","GERMANTOWN","MD",20874,39.1494480370001,-77.291288548,417,"13922 FALCONCREST RD, GERMANTOWN, MD, 20874","Match","Exact","13922 FALCONCREST RD, GERMANTOWN, MD, 20874",62104243,"R"
165418,"13922 GARFIELD ST","THORNTON","CO",80602,39.948314725,-104.944516394,418,"13922 GARFIELD ST, THORNTON, CO, 80602","Match","Exact","13922 GARFIELD ST, THORNTON, CO, 80602",639760281,"R"
165419,"13922 HIGHSTREAM PLACE","GERMANTOWN","MD",20874,39.17093385,-77.286577517,419,"13922 HIGHSTREAM PLACE, GERMANTOWN, MD, 20874","Match","Exact","13922 HIGHSTREAM PL, GERMANTOWN, MD, 20874",632475165,"L"
165420,"13922 LAKE MAGDALENE BLVD","TAMPA","FL",33618,28.0790616900001,-82.491131108,420,"13922 LAKE MAGDALENE BLVD, TAMPA, FL, 33618","Match","Exact","13922 LAKE MAGDALENE BLVD, TAMPA, FL, 33618",104585618,"L"
165421,"13922 LONE RIDER TRL","BEE CAVE","TX",78738,30.301017035,-97.9668793659999,421,"13922 LONE RIDER TRL, BEE CAVE, TX, 78738","Match","Exact","13922 LONE RIDER TRL, BEE CAVE, TX, 78738",64018702,"R"
165422,"13922 NORMANDY CT","SUGARLAND","TX",77498,29.649225039,-95.629312257,422,"13922 NORMANDY CT, SUGARLAND, TX, 77498","Match","Non_Exact","13922 NORMANDY CT, SUGAR LAND, TX, 77498",641102066,"R"
165423,"13922 S FRIENDSHIP BLVD","HERRIMAN","UT",84096,40.4983823220001,-112.028504683,423,"13922 S FRIENDSHIP BLVD, HERRIMAN, UT, 84096","Match","Non_Exact","13922 FRIENDSHIP DR, HERRIMAN, UT, 84096",176151982,"R"
165424,"13922 S GREEN HILLS LOOP","AUSTIN","TX",78737,30.1524588990001,-97.988235695,424,"13922 S GREEN HILLS LOOP, AUSTIN, TX, 78737","Match","Exact","13922 S GREEN HILLS LOOP, AUSTIN, TX, 78737",63830192,"L"
165425,"13922 TUSTIN EAST DR","TUSTIN","CA",92780,33.7318499610001,-117.809894076,425,"13922 TUSTIN EAST DR, TUSTIN, CA, 92780","Match","Exact","13922 TUSTIN EAST DR, TUSTIN, CA, 92780",616893247,"R"
165426,"13922 WESTFIELD DR","WILLIS","TX",77378,NA,NA,426,"13922 WESTFIELD DR, WILLIS, TX, 77378","No_Match",NA,NA,NA,NA
165427,"13922 WESTVIEW FOREST DR","BOWIE","MD",20720,38.965681455,-76.75980229,427,"13922 WESTVIEW FOREST DR, BOWIE, MD, 20720","Match","Exact","13922 WESTVIEW FOREST DR, BOWIE, MD, 20720",76350165,"R"
165428,"13922 WINDING RIDGE LANE","CENTREVILLE","VA",20121,38.8252535300001,-77.429674991,428,"13922 WINDING RIDGE LANE, CENTREVILLE, VA, 20121","Match","Exact","13922 WINDING RIDGE LN, CENTREVILLE, VA, 20121",614139171,"R"
165429,"13922 WOODSON PARK DR APT 411","HOUSTON","TX",77044,29.9196047840001,-95.197979364,429,"13922 WOODSON PARK DR APT 411, HOUSTON, TX, 77044","Match","Exact","13922 WOODSON PARK DR, HOUSTON, TX, 77044",638190687,"L"
165430,"13922 WOODSON PARK DRIVE APT 111","HOUSTON","TX",77044,29.9196047840001,-95.197979364,430,"13922 WOODSON PARK DRIVE APT 111, HOUSTON, TX, 77044","Match","Exact","13922 WOODSON PARK DR, HOUSTON, TX, 77044",638190687,"L"
165431,"13923 BROOKE HOLLOW BLVD","SAN ANTONIO","TX",78232,29.57329464,-98.464835804,431,"13923 BROOKE HOLLOW BLVD, SAN ANTONIO, TX, 78232","Match","Non_Exact","13923 BROOK HOLLOW BLVD, SAN ANTONIO, TX, 78232",101496184,"L"
165432,"13923 BROWNWOOD STREET","HOUSTON","TX",77015,29.7783824740001,-95.177301755,432,"13923 BROWNWOOD STREET, HOUSTON, TX, 77015","Match","Exact","13923 BROWNWOOD ST, HOUSTON, TX, 77015",642103239,"L"
165433,"13923 FORT NELSON DR","HOUSTON","TX",77083,29.6987361340001,-95.630022087,433,"13923 FORT NELSON DR, HOUSTON, TX, 77083","Match","Exact","13923 FORT NELSON DR, HOUSTON, TX, 77083",641686463,"R"
165434,"13923 HIGHLAND MEADOW ROAD","CHARLOTTE","NC",28278,35.104132065,-80.961064869,434,"13923 HIGHLAND MEADOW ROAD, CHARLOTTE, NC, 28278","Match","Non_Exact","13923 HIGHLAND MEADOW RD, CHARLOTTE, NC, 28273",624348657,"L"
165435,"13923 MEADOWBROOK DRIVE","PLAINFIELD","IL",60544,41.6282932330001,-88.205399039,435,"13923 MEADOWBROOK DRIVE, PLAINFIELD, IL, 60544","Match","Non_Exact","13923 N MEADOWBROOK DR, PLAINFIELD, IL, 60544",111533479,"L"
165436,"13923 PAWNEE TRAILS DR","CYPRESS","TX",77091,30.0094875620001,-95.635383291,436,"13923 PAWNEE TRAILS DR, CYPRESS, TX, 77091","Match","Non_Exact","13923 PAWNEE TRAILS DR, CYPRESS, TX, 77429",627761320,"L"
165437,"13923 S BROUGHAM CIR","OLATHE","KS",66062,NA,NA,437,"13923 S BROUGHAM CIR, OLATHE, KS, 66062","Tie",NA,NA,NA,NA
165438,"13923 SCHAEFFER RD","BOYDS","MD",20841,39.1608731800001,-77.288946325,438,"13923 SCHAEFFER RD, BOYDS, MD, 20841","Match","Exact","13923 SCHAEFFER RD, BOYDS, MD, 20841",62140565,"L"
165439,"13923 SOUTH NORRISVILLE ROAD","MEADVILLE","PA",16335,41.658762541,-80.2656648189999,439,"13923 SOUTH NORRISVILLE ROAD, MEADVILLE, PA, 16335","Match","Exact","13923 S NORRISVILLE RD, MEADVILLE, PA, 16335",98584089,"L"
165440,"13923 STONEFIELD DRIVE","CLIFTON","VA",22024,38.812263403,-77.426564465,440,"13923 STONEFIELD DRIVE, CLIFTON, VA, 22024","Match","Non_Exact","13923 STONEFIELD DR, CLIFTON, VA, 20124",76011699,"L"
165441,"13923 TRIBECA LN","SAN ANTONIO","TX",78245,29.4195136860001,-98.772568171,441,"13923 TRIBECA LN, SAN ANTONIO, TX, 78245","Match","Non_Exact","13923 TRIBECA, SAN ANTONIO, TX, 78245",651188319,"R"
165442,"13923 VINELAND RD","DE SOTO","MO",63020,38.106905112,-90.608980995,442,"13923 VINELAND RD, DE SOTO, MO, 63020","Match","Exact","13923 VINELAND RD, DE SOTO, MO, 63020",607912519,"L"
165443,"13923 WESTERN WAY","WILLISTON","ND",58801,48.135695915,-103.692684943,443,"13923 WESTERN WAY, WILLISTON, ND, 58801","Match","Exact","13923 WESTERN WAY, WILLISTON, ND, 58801",649258057,"L"
165444,"13924 5TH AVE N","ZIMMERMAN","MN",55398,45.449261117,-93.621889335,444,"13924 5TH AVE N, ZIMMERMAN, MN, 55398","Match","Exact","13924 5TH AVE N, ZIMMERMAN, MN, 55398",232766156,"L"
165445,"13924 ANNANDALE LANE","CHINO","CA",91708,NA,NA,445,"13924 ANNANDALE LANE, CHINO, CA, 91708","No_Match",NA,NA,NA,NA
165446,"13924 FORT NELSON DR","HOUSTON","TX",77983,29.69874679,-95.6300459459999,446,"13924 FORT NELSON DR, HOUSTON, TX, 77983","Match","Non_Exact","13924 FORT NELSON DR, HOUSTON, TX, 77083",641686463,"L"
165447,"13924 HIGHWAY 23","BELLE CHASSE","LA",70037,29.721331966,-89.9989742659999,447,"13924 HIGHWAY 23, BELLE CHASSE, LA, 70037","Match","Non_Exact","13924 STATE RTE 23, BELLE CHASSE, LA, 70037",649187430,"L"
165448,"13924 MARQUESAS WAY APT 1311","MARINA DEL REY","CA",90292,33.976448136,-118.453402991,448,"13924 MARQUESAS WAY APT 1311, MARINA DEL REY, CA, 90292","Match","Exact","13924 MARQUESAS WAY, MARINA DEL REY, CA, 90292",650064327,"L"
165449,"13924 MARQUESAS WAY APT 2319","MARINA DEL REY","CA",90292,33.976448136,-118.453402991,449,"13924 MARQUESAS WAY APT 2319, MARINA DEL REY, CA, 90292","Match","Exact","13924 MARQUESAS WAY, MARINA DEL REY, CA, 90292",650064327,"L"
165450,"13924 N SPOTTED EAGLE DR","PRESCOTT","AZ",86305,34.7448039500001,-112.567068087,450,"13924 N SPOTTED EAGLE DR, PRESCOTT, AZ, 86305","Match","Exact","13924 SPOTTED EAGLE DR, PRESCOTT, AZ, 86305",159520386,"L"
165451,"13924 NE COUNTY RD 1471","WALDO","FL",32694,NA,NA,451,"13924 NE COUNTY RD 1471, WALDO, FL, 32694","Tie",NA,NA,NA,NA
165452,"13924 ORANGEVALE AVE","EASTVALE","CA",92880,33.9594640970001,-117.586776485,452,"13924 ORANGEVALE AVE, EASTVALE, CA, 92880","Match","Exact","13924 ORANGEVALE AVE, EASTVALE, CA, 92880",195095612,"L"
165453,"13924 SW 216 ROAD","JETMORE","KS",67854,37.97056523,-99.9361857329999,453,"13924 SW 216 ROAD, JETMORE, KS, 67854","Match","Exact","13924 216 RD, JETMORE, KS, 67854",138279341,"R"
165454,"13925 238TH AVE NE","WOODINVILLE","WA",98077,47.7237674410001,-122.021516414,454,"13925 238TH AVE NE, WOODINVILLE, WA, 98077","Match","Exact","13925 238TH AVE NE, WOODINVILLE, WA, 98077",187026258,"R"
165455,"13925 51ST ST NW","WILLISTON","ND",58801,48.154251496,-103.707212196,455,"13925 51ST ST NW, WILLISTON, ND, 58801","Match","Exact","13925 51ST ST NW, WILLISTON, ND, 58801",167739710,"R"
165456,"13925 BRUYERE COURT","SAN DIEGO","CA",92129,32.971077774,-117.130370804,456,"13925 BRUYERE COURT, SAN DIEGO, CA, 92129","Match","Exact","13925 BRUYERE CT, SAN DIEGO, CA, 92129",195380238,"L"
165457,"13925 BURNING TREE","VICTORVILLE","CA",92395,34.5042207000001,-117.316540613,457,"13925 BURNING TREE, VICTORVILLE, CA, 92395","Match","Non_Exact","13925 BURNING TREE DR, VICTORVILLE, CA, 92395",144572265,"L"
165458,"13925 CABARRUS STATION RD","MIDLAND","NC",28107,35.2249344960001,-80.5597790049999,458,"13925 CABARRUS STATION RD, MIDLAND, NC, 28107","Match","Exact","13925 CABARRUS STATION RD, MIDLAND, NC, 28107",637195161,"R"
165459,"13925 HAVEN RIDGE LANE UNIT 201","CHARLOTTE","NC",28215,35.225572184,-80.631443925,459,"13925 HAVEN RIDGE LANE UNIT 201, CHARLOTTE, NC, 28215","Match","Exact","13925 HAVEN RIDGE LN, CHARLOTTE, NC, 28215",631739481,"L"
165460,"13925 ISLE ROYALE","BOLINGBROOK","IL",60544,NA,NA,460,"13925 ISLE ROYALE, BOLINGBROOK, IL, 60544","No_Match",NA,NA,NA,NA
165461,"13925 MAILSAIL DRIVE","ANCHORAGE","AK",99516,NA,NA,461,"13925 MAILSAIL DRIVE, ANCHORAGE, AK, 99516","No_Match",NA,NA,NA,NA
165462,"13925 SPARREN AVE","SAN DIEGO","CA",92129,32.971911886,-117.137455188,462,"13925 SPARREN AVE, SAN DIEGO, CA, 92129","Match","Exact","13925 SPARREN AVE, SAN DIEGO, CA, 92129",195659606,"R"
165463,"13925 W 73RD AVE","ARVADA","CO",80005,39.829410883,-105.155353867,463,"13925 W 73RD AVE, ARVADA, CO, 80005","Match","Exact","13925 W 73RD AVE, ARVADA, CO, 80005",177283782,"R"
165464,"13925 WATERVILLE COURT","CORONA","CA",92880,33.944334763,-117.587353758,464,"13925 WATERVILLE COURT, CORONA, CA, 92880","Match","Exact","13925 WATERVILLE CT, CORONA, CA, 92880",608987782,"L"
165465,"13925","OAK HILLS","CA",92344,NA,NA,465,"13925, OAK HILLS, CA, 92344","No_Match",NA,NA,NA,NA
165466,"13926 HULL STREET 115","MIDLOTHIAN","CA",23112,NA,NA,466,"13926 HULL STREET 115, MIDLOTHIAN, CA, 23112","No_Match",NA,NA,NA,NA
165467,"13926 HULL STREET RD","MIDLOTIAN","VA",23112,37.4046266510001,-77.663564201,467,"13926 HULL STREET RD, MIDLOTIAN, VA, 23112","Match","Non_Exact","13926 HULL STREET RD, MIDLOTHIAN, VA, 23112",201561790,"R"
165468,"13926 LEONARD","WARREN","MI",48089,42.459775542,-82.9817599309999,468,"13926 LEONARD, WARREN, MI, 48089","Match","Non_Exact","13926 LEONARD AVE, WARREN, MI, 48089",110678282,"R"
165469,"13926 SW 26 STREET","MIAMI","FL",33175,25.743365318,-80.420685151,469,"13926 SW 26 STREET, MIAMI, FL, 33175","Match","Exact","13926 SW 26TH ST, MIAMI, FL, 33175",116070036,"L"
165470,"13926 SW 47 STREET","MIAMI","FL",33175,25.7230527740001,-80.419173874,470,"13926 SW 47 STREET, MIAMI, FL, 33175","Match","Exact","13926 SW 47TH ST, MIAMI, FL, 33175",642612664,"L"
165471,"13926 SW 47 STRET","MIAMI","FL",33175,NA,NA,471,"13926 SW 47 STRET, MIAMI, FL, 33175","No_Match",NA,NA,NA,NA
165472,"13927 1/2 DOTY AVE","HAWTHORNE","CA",90250,33.904887504,-118.339499452,472,"13927 1/2 DOTY AVE, HAWTHORNE, CA, 90250","Match","Exact","13927 DOTY AVE, HAWTHORNE, CA, 90250",142752703,"R"
165473,"13927 CARLENE DRIVE","UPPER MARLBORO","MD",20772,38.8410293260001,-76.765667534,473,"13927 CARLENE DRIVE, UPPER MARLBORO, MD, 20772","Match","Exact","13927 CARLENE DR, UPPER MARLBORO, MD, 20772",76344192,"R"
165474,"13927 CHERRY DALE LANE","TAMPA","FL",33618,28.079621049,-82.493450525,474,"13927 CHERRY DALE LANE, TAMPA, FL, 33618","Match","Exact","13927 CHERRY DALE LN, TAMPA, FL, 33618",104510794,"R"
165475,"13927 COACHMANS CIRCLE","GERMANTOWN","MD",20874,39.1552725710001,-77.287577566,475,"13927 COACHMANS CIRCLE, GERMANTOWN, MD, 20874","Match","Exact","13927 COACHMANS CIR, GERMANTOWN, MD, 20874",62127862,"L"
165476,"13927 CROW RIDGE CT","CYPRESS","TX",77429,30.014278414,-95.635506639,476,"13927 CROW RIDGE CT, CYPRESS, TX, 77429","Match","Exact","13927 CROW RIDGE CT, CYPRESS, TX, 77429",627774029,"L"
165477,"13927 FAIR PARK","HOUSTON","TX",77014,29.972026306,-95.44517117,477,"13927 FAIR PARK, HOUSTON, TX, 77014","Match","Non_Exact","13927 FAIR PARK DR, HOUSTON, TX, 77014",96129977,"R"
165478,"13927 LITTLEBORNE BIRDWELL","HOUSTON","TX",77047,29.6068334350001,-95.357909024,478,"13927 LITTLEBORNE BIRDWELL, HOUSTON, TX, 77047","Match","Non_Exact","13927 LITTLEBORNE BIRDWELL LN, HOUSTON, TX, 77047",624603327,"L"
165479,"13927 RIDGE ROAD","WEYNESBORO","PA",17268,39.7502434620001,-77.7019351179999,479,"13927 RIDGE ROAD, WEYNESBORO, PA, 17268","Match","Non_Exact","13927 RIDGE RD, WAYNESBORO, PA, 17268",605531253,"L"
165480,"13927 RIDGE ROAD","WEYNESBORO","VA",17268,NA,NA,480,"13927 RIDGE ROAD, WEYNESBORO, VA, 17268","No_Match",NA,NA,NA,NA
165481,"13927 SILVER HILL ROAD","MOUNTAIN","WI",54149,45.1816838350001,-88.4690103039999,481,"13927 SILVER HILL ROAD, MOUNTAIN, WI, 54149","Match","Exact","13927 SILVER HILL RD, MOUNTAIN, WI, 54149",170318366,"R"
165482,"13928 CHARCOAL LANE","FARMERS BRANCH","TX",75234,32.9346709380001,-96.877334815,482,"13928 CHARCOAL LANE, FARMERS BRANCH, TX, 75234","Match","Exact","13928 CHARCOAL LN, FARMERS BRANCH, TX, 75234",102889550,"R"
165483,"13928 FALL HARVEST DR","FRISCO","TX",75033,33.1941723210001,-96.873441178,483,"13928 FALL HARVEST DR, FRISCO, TX, 75033","Match","Exact","13928 FALL HARVEST DR, FRISCO, TX, 75033",614130286,"L"
165484,"13928 KIMBLETON AVENUE","BATON ROUGE","LA",70817,30.3884837950001,-91.026154316,484,"13928 KIMBLETON AVENUE, BATON ROUGE, LA, 70817","Match","Exact","13928 KIMBLETON AVE, BATON ROUGE, LA, 70817",92211614,"L"
165485,"13928 NOLAND STREET","OVERLAND PARK","KS",66221,38.8750418330001,-94.73907378,485,"13928 NOLAND STREET, OVERLAND PARK, KS, 66221","Match","Exact","13928 NOLAND ST, OVERLAND PARK, KS, 66221",628850557,"L"
165486,"13928 SPANISH OAK DRIVE","BATON ROUGE","LA",70818,30.576544717,-91.046159409,486,"13928 SPANISH OAK DRIVE, BATON ROUGE, LA, 70818","Match","Exact","13928 SPANISH OAK DR, BATON ROUGE, LA, 70818",92186876,"L"
165487,"13929 BLACKBEARD DR","CORPUS CHRISTI","TX",78418,27.6017510560001,-97.2346033649999,487,"13929 BLACKBEARD DR, CORPUS CHRISTI, TX, 78418","Match","Exact","13929 BLACKBEARD DR, CORPUS CHRISTI, TX, 78418",605768990,"R"
165488,"13929 CHARLESTON DR","ORLAND PARK","IL",60462,41.6378752530001,-87.848042655,488,"13929 CHARLESTON DR, ORLAND PARK, IL, 60462","Match","Exact","13929 CHARLESTON DR, ORLAND PARK, IL, 60462",653225267,"L"
165489,"13929 DOTY AVE","GARDENA","CA",90250,33.9047591890001,-118.339500577,489,"13929 DOTY AVE, GARDENA, CA, 90250","Match","Non_Exact","13929 DOTY AVE, HAWTHORNE, CA, 90250",142752703,"R"
165490,"13929 ROCKLAND VILLAGE DR UNIT 303","CHANTILLY","VA",20151,38.8908854540001,-77.429542736,490,"13929 ROCKLAND VILLAGE DR UNIT 303, CHANTILLY, VA, 20151","Match","Exact","13929 ROCKLAND VILLAGE DR, CHANTILLY, VA, 20151",637520405,"R"
165491,"13929 TAYLORS CREST LANE","LAKE OSWEGO","OR",97035,45.4245752670001,-122.720869088,491,"13929 TAYLORS CREST LANE, LAKE OSWEGO, OR, 97035","Match","Exact","13929 TAYLORS CREST LN, LAKE OSWEGO, OR, 97035",157909238,"R"
165492,"1393 235TH AVE","NEW AUBURN","WI",54757,45.1862099050001,-91.655740087,492,"1393 235TH AVE, NEW AUBURN, WI, 54757","Match","Exact","1393 235TH AVE, NEW AUBURN, WI, 54757",78930062,"L"
165493,"1393 AIRPORT RHODISS RD","HICKORY","NC",28601,35.7586338190001,-81.412750952,493,"1393 AIRPORT RHODISS RD, HICKORY, NC, 28601","Match","Non_Exact","1393 AIRPORT RHODHISS RD, HICKORY, NC, 28601",37189625,"L"
165494,"1393 BEDFORD ROAD","CHARLESTON","WV",25314,38.327558507,-81.649004594,494,"1393 BEDFORD ROAD, CHARLESTON, WV, 25314","Match","Exact","1393 BEDFORD RD, CHARLESTON, WV, 25314",78647531,"L"
165495,"1393 BLUE WATER ROAD","HARRISONBURG","VA",22802,38.3914284370001,-78.843089543,495,"1393 BLUE WATER ROAD, HARRISONBURG, VA, 22802","Match","Non_Exact","1393 BLUEWATER RD, HARRISONBURG, VA, 22801",636661272,"R"
165496,"1393 CALLIE ROAD","CHARLESTON","WV",25301,38.33710081,-81.628705646,496,"1393 CALLIE ROAD, CHARLESTON, WV, 25301","Match","Non_Exact","1393 CALLIE RD, CHARLESTON, WV, 25314",78593656,"L"
165497,"1393 CHRYSOLITE AVE","MENTONE","CA",92359,34.0767598400001,-117.137398897,497,"1393 CHRYSOLITE AVE, MENTONE, CA, 92359","Match","Exact","1393 CHRYSOLITE AVE, MENTONE, CA, 92359",144666327,"L"
165498,"1393 CLEVELAND AVE N","ST PAUL","MN",55108,NA,NA,498,"1393 CLEVELAND AVE N, ST PAUL, MN, 55108","No_Match",NA,NA,NA,NA
165499,"1393 CRAILFORD COURT","SAN JOSE","CA",95121,37.297391438,-121.812860073,499,"1393 CRAILFORD COURT, SAN JOSE, CA, 95121","Match","Exact","1393 CRAILFORD CT, SAN JOSE, CA, 95121",122916203,"L"
165500,"1393 E 27TH STREET","TULSA","OK",74114,36.12562897,-95.973588746,500,"1393 E 27TH STREET, TULSA, OK, 74114","Match","Exact","1393 E 27TH ST, TULSA, OK, 74114",166442275,"L"
