"ID","Address","City","State","Zip","lat","long","id","input_address","match_indicator","match_type","matched_address","tiger_line_id","tiger_side"
828001,"715 N SADDLE CREEK RD","OMAHA","NE",68132,41.2659054740001,-95.980682856,1,"715 N SADDLE CREEK RD, OMAHA, NE, 68132","Match","Exact","715 N SADDLE CREEK RD, OMAHA, NE, 68132",117024453,"R"
828002,"715 N WEBSTER ST","PORTLAND","OR",97217,45.5597321720001,-122.674117516,2,"715 N WEBSTER ST, PORTLAND, OR, 97217","Match","Exact","715 N WEBSTER ST, PORTLAND, OR, 97217",157503360,"R"
828003,"715 NAVY STREET","SANTA MONICA","CA",90405,34.0019543540001,-118.472962745,3,"715 NAVY STREET, SANTA MONICA, CA, 90405","Match","Exact","715 NAVY ST, SANTA MONICA, CA, 90405",141568951,"L"
828004,"715 NE 66ND AVENUE","PORTLAND","OR",97213,NA,NA,4,"715 NE 66ND AVENUE, PORTLAND, OR, 97213","No_Match",NA,NA,NA,NA
828005,"715 NE 6TH STREET APT 11","FORT LAUDERDALE","FL",33304,26.1299730380001,-80.1353870089999,5,"715 NE 6TH STREET APT 11, FORT LAUDERDALE, FL, 33304","Match","Non_Exact","715 NE 6TH ST, FORT LAUDERDALE, FL, 33304",114723004,"L"
828006,"715 NE TRAVERSE DRIVE","WAUKEE","IA",50326,41.62148868,-93.858319911,6,"715 NE TRAVERSE DRIVE, WAUKEE, IA, 50326","Match","Non_Exact","715 NE TRAVERSE DR, WAUKEE, IA, 50263",641889313,"L"
828007,"715 NELLIS RD","MIDDLE RIVER","MD",21220,39.3414980740001,-76.4477820119999,7,"715 NELLIS RD, MIDDLE RIVER, MD, 21220","Match","Exact","715 NELLIS RD, MIDDLE RIVER, MD, 21220",647276090,"R"
828008,"715 NEWPORT N","ROSELL","IL",60172,41.969035327,-88.0979171179999,8,"715 NEWPORT N, ROSELL, IL, 60172","Match","Non_Exact","715 NEWPORT N, ROSELLE, IL, 60172",112518895,"L"
828009,"715 NEWTON ROAD","BERWYN","PA",19312,NA,NA,9,"715 NEWTON ROAD, BERWYN, PA, 19312","No_Match",NA,NA,NA,NA
828010,"715 NORTH 24TH STREET","RICHMOND","VA",23223,37.5358273250001,-77.4162101639999,10,"715 NORTH 24TH STREET, RICHMOND, VA, 23223","Match","Exact","715 N 24TH ST, RICHMOND, VA, 23223",201541251,"R"
828011,"715 NORTH JOHNSON STREET","IOWA CITY","IA",52245,41.669273058,-91.527139064,11,"715 NORTH JOHNSON STREET, IOWA CITY, IA, 52245","Match","Exact","715 N JOHNSON ST, IOWA CITY, IA, 52245",84495397,"L"
828012,"715 NORTH M STREET","FREMONT","NE",68025,41.436458401,-96.5061031549999,12,"715 NORTH M STREET, FREMONT, NE, 68025","Match","Exact","715 N M ST, FREMONT, NE, 68025",136313072,"L"
828013,"715 NORTH TREMONT STREET","OCEANSIDE","CA",92054,33.199873697,-117.38406778,13,"715 NORTH TREMONT STREET, OCEANSIDE, CA, 92054","Match","Exact","715 N TREMONT ST, OCEANSIDE, CA, 92054",195280151,"L"
828014,"715 NW 133 CT","MIAMI","FL",33182,25.774159809,-80.41180098,14,"715 NW 133 CT, MIAMI, FL, 33182","Match","Exact","715 NW 133RD CT, MIAMI, FL, 33182",116063399,"L"
828015,"715 NW 151ST ST","VANCOUVER","WA",98685,45.730162137,-122.677821689,15,"715 NW 151ST ST, VANCOUVER, WA, 98685","Match","Exact","715 NW 151ST ST, VANCOUVER, WA, 98685",158372206,"L"
828016,"715 NW 178TH","BEAVERTON","OR",97007,NA,NA,16,"715 NW 178TH, BEAVERTON, OR, 97007","No_Match",NA,NA,NA,NA
828017,"715 NW 2ND ST","CHECOTAH","OK",74426,35.4781465470001,-95.522721062,17,"715 NW 2ND ST, CHECOTAH, OK, 74426","Match","Exact","715 NW 2ND ST, CHECOTAH, OK, 74426",632715577,"R"
828018,"715 NW 7TH STREET","DANIA BEACH","FL",33004,26.0601768120001,-80.14867005,18,"715 NW 7TH STREET, DANIA BEACH, FL, 33004","Match","Exact","715 NW 7TH ST, DANIA BEACH, FL, 33004",114729762,"L"
828019,"715 NW 9TH STREET","GRAND RAPIDS","MN",55744,47.2417018290001,-93.53928071,19,"715 NW 9TH STREET, GRAND RAPIDS, MN, 55744","Match","Exact","715 NW 9TH ST, GRAND RAPIDS, MN, 55744",162932325,"R"
828020,"715 NW HEINZWOOD CIRCLE","LAWTON","OK",73505,34.6159305,-98.445924948,20,"715 NW HEINZWOOD CIRCLE, LAWTON, OK, 73505","Match","Exact","715 NW HEINZWOOD CIR, LAWTON, OK, 73505",14991288,"R"
828021,"715 NW JOHNS PLACE","PENDLETON","OR",97801,45.680187485,-118.794831175,21,"715 NW JOHNS PLACE, PENDLETON, OR, 97801","Match","Exact","715 NW JOHNS PL, PENDLETON, OR, 97801",170404179,"L"
828022,"715 OAK ST","COULTERVILLE","IL",62237,38.1875308310001,-89.5981438489999,22,"715 OAK ST, COULTERVILLE, IL, 62237","Match","Exact","715 OAK ST, COULTERVILLE, IL, 62237",95174445,"L"
828023,"715 OCEAN PARKWAY-6N","BROOKLYN","NY",11230,40.6311665200001,-73.9714953069999,23,"715 OCEAN PARKWAY-6N, BROOKLYN, NY, 11230","Match","Non_Exact","715 OCEAN PKWY, BROOKLYN, NY, 11230",59097006,"L"
828024,"715 ODER LN","HOUSTON","TX",77090,30.027250865,-95.446223314,24,"715 ODER LN, HOUSTON, TX, 77090","Match","Exact","715 ODER LN, HOUSTON, TX, 77090",96009315,"R"
828025,"715 OLD BROOKMAN RD","BRUNSWICK","GA",31523,31.1837300190001,-81.6537867069999,25,"715 OLD BROOKMAN RD, BRUNSWICK, GA, 31523","Match","Exact","715 OLD BROOKMAN RD, BRUNSWICK, GA, 31523",9150661,"L"
828026,"715 OLD UNION  ROAD","PARIS","TN",38242,36.2833445790001,-88.2190913159999,26,"715 OLD UNION  ROAD, PARIS, TN, 38242","Match","Exact","715 OLD UNION RD, PARIS, TN, 38242",607046826,"L"
828027,"715 OLD WINSTON ROAD","HIGH POINT","NC",27265,35.996377678,-80.0269181909999,27,"715 OLD WINSTON ROAD, HIGH POINT, NC, 27265","Match","Exact","715 OLD WINSTON RD, HIGH POINT, NC, 27265",131037720,"L"
828028,"715 OREGON AVE","WEST DUNDEE","IL",60118,42.097069585,-88.285586978,28,"715 OREGON AVE, WEST DUNDEE, IL, 60118","Match","Exact","715 OREGON AVE, WEST DUNDEE, IL, 60118",119500385,"L"
828029,"715 PAINTED FOREST ROAD","NORMAN","OK",73071,35.266053071,-97.430078634,29,"715 PAINTED FOREST ROAD, NORMAN, OK, 73071","Match","Exact","715 PAINTED FOREST RD, NORMAN, OK, 73071",641687871,"R"
828030,"715 PARK AVENUE APT 16B","NEW YORK","NY",10021,40.7696284460001,-73.9648949309999,30,"715 PARK AVENUE APT 16B, NEW YORK, NY, 10021","Match","Exact","715 PARK AVE, NEW YORK, NY, 10021",59657311,"R"
828031,"715 PARK AVENUE SOUTH","ERIE","PA",16502,42.12399013,-80.101415184,31,"715 PARK AVENUE SOUTH, ERIE, PA, 16502","Match","Non_Exact","715 PARK AVE N, ERIE, PA, 16502",117494028,"L"
828032,"715 PARK MEADOW DR","KATY","TX",77450,29.771375483,-95.7449761139999,32,"715 PARK MEADOW DR, KATY, TX, 77450","Match","Exact","715 PARK MEADOW DR, KATY, TX, 77450",96013870,"R"
828033,"715 PARK STREET","GAINESVILLE","GA",30501,34.306247053,-83.8219535869999,33,"715 PARK STREET, GAINESVILLE, GA, 30501","Match","Exact","715 PARK ST, GAINESVILLE, GA, 30501",98249061,"L"
828034,"715 PARKER ST STE 3B","FORT COLLINS","CO",80525,40.5652440760001,-105.067194505,34,"715 PARKER ST STE 3B, FORT COLLINS, CO, 80525","Match","Exact","715 PARKER ST, FORT COLLINS, CO, 80525",188491591,"L"
828035,"715 PARKHURST DRIVE","DALLAS","TX",75218,32.8498316070001,-96.7068011279999,35,"715 PARKHURST DRIVE, DALLAS, TX, 75218","Match","Exact","715 PARKHURST DR, DALLAS, TX, 75218",103202109,"R"
828036,"715 PARKMONT AVE","DALLAS","TX",75214,32.8044468420001,-96.761757333,36,"715 PARKMONT AVE, DALLAS, TX, 75214","Match","Non_Exact","715 PARKMONT ST, DALLAS, TX, 75214",102919769,"L"
828037,"715 PARKWAY CIRCLE","NORTH ATLANTA","GA",30340,33.904000968,-84.237386274,37,"715 PARKWAY CIRCLE, NORTH ATLANTA, GA, 30340","Match","Non_Exact","715 PARKWAY VIS, ATLANTA, GA, 30340",23401197,"R"
828038,"715 PASEO CAMARILLO 901","CAMARILLO","CA",93010,34.221026647,-119.060042388,38,"715 PASEO CAMARILLO 901, CAMARILLO, CA, 93010","Match","Non_Exact","715 PSO CAMARILLO, CAMARILLO, CA, 93010",110016765,"R"
828039,"715 PEACHTREE ST NE SUITE 100","ATLANTA","GA",30308,33.7741818700001,-84.3847130939999,39,"715 PEACHTREE ST NE SUITE 100, ATLANTA, GA, 30308","Match","Non_Exact","715 PEACHTREE ST, ATLANTA, GA, 30308",17343615,"R"
828040,"715 PECO DRIVE","LANTANA","TX",76226,33.096405444,-97.1241001669999,40,"715 PECO DRIVE, LANTANA, TX, 76226","Match","Non_Exact","715 PECO ST, LANTANA, TX, 76226",636192784,"L"
828041,"715 PEEPLES ST APT 710","ATLANTA","GA",30310,33.735491698,-84.4204786399999,41,"715 PEEPLES ST APT 710, ATLANTA, GA, 30310","Match","Non_Exact","715 PEEPLES ST SW, ATLANTA, GA, 30310",17345045,"R"
828042,"715 PEEPLES STREET","ATLANTA","GA",30310,33.735491698,-84.4204786399999,42,"715 PEEPLES STREET, ATLANTA, GA, 30310","Match","Non_Exact","715 PEEPLES ST SW, ATLANTA, GA, 30310",17345045,"R"
828043,"715 PENN AVE N","MINNEAPOLIS","MN",55411,44.985395456,-93.3082844749999,43,"715 PENN AVE N, MINNEAPOLIS, MN, 55411","Match","Exact","715 PENN AVE N, MINNEAPOLIS, MN, 55411",641220346,"L"
828044,"715 PENN AVE NORTH","MINNEAPOLIS","MN",55411,44.985395456,-93.3082844749999,44,"715 PENN AVE NORTH, MINNEAPOLIS, MN, 55411","Match","Exact","715 PENN AVE N, MINNEAPOLIS, MN, 55411",641220346,"L"
828045,"715 PENNSYLVANIA AVENUE","ASHLAND","OR",97520,42.188163241,-122.70542539,45,"715 PENNSYLVANIA AVENUE, ASHLAND, OR, 97520","Match","Non_Exact","715 PENNSYLVANIA ST, ASHLAND, OR, 97520",640096695,"L"
828046,"715 PLEASANT AVE","PECKVILLE","PA",18452,41.478704378,-75.579643339,46,"715 PLEASANT AVE, PECKVILLE, PA, 18452","Match","Non_Exact","715 S PLEASANT AVE, PECKVILLE, PA, 18452",623571591,"L"
828047,"715 PLENMAR DRIVE","SHEPHERDSVILLE","KY",40165,37.9158564690001,-85.67396089,47,"715 PLENMAR DRIVE, SHEPHERDSVILLE, KY, 40165","Match","Exact","715 PLENMAR DR, SHEPHERDSVILLE, KY, 40165",47744710,"R"
828048,"715 PONDEROSA COURT","FAYETTEVILLE","GA",30214,33.4728930040001,-84.422012719,48,"715 PONDEROSA COURT, FAYETTEVILLE, GA, 30214","Match","Exact","715 PONDEROSA CT, FAYETTEVILLE, GA, 30214",75930715,"L"
828049,"715 PONY EXPRESS TRAIL","MCKINNEY","TX",75071,33.237981383,-96.500044679,49,"715 PONY EXPRESS TRAIL, MCKINNEY, TX, 75071","Match","Exact","715 PONY EXPRESS TRL, MCKINNEY, TX, 75071",637373783,"L"
828050,"715 POPLAR SPRINGS ROAD","WESTMINSTER","SC",29693,34.694901095,-83.03385399,50,"715 POPLAR SPRINGS ROAD, WESTMINSTER, SC, 29693","Match","Exact","715 POPLAR SPRINGS RD, WESTMINSTER, SC, 29693",25661359,"R"
828051,"715 POWER STREE","HELENA","MT",59601,46.592840848,-112.047405495,51,"715 POWER STREE, HELENA, MT, 59601","Match","Non_Exact","715 POWER ST, HELENA, MT, 59601",202349538,"R"
828052,"715 PRAIRIE DR","LEBANON","IN",46052,40.0535989850001,-86.488924174,52,"715 PRAIRIE DR, LEBANON, IN, 46052","Match","Exact","715 PRAIRIE DR, LEBANON, IN, 46052",29251923,"R"
828053,"715 PROSPECT","HOT SPRINGS","AR",71901,34.504824329,-93.065467896,53,"715 PROSPECT, HOT SPRINGS, AR, 71901","Match","Non_Exact","715 PROSPECT AVE, HOT SPRINGS, AR, 71901",644341118,"R"
828054,"715 PRYORTOWN RD","VILLA RIDGE","IL",62996,37.183744926,-89.149451061,54,"715 PRYORTOWN RD, VILLA RIDGE, IL, 62996","Match","Exact","715 PRYORTOWN RD, VILLA RIDGE, IL, 62996",5947035,"L"
828055,"715 QUAIL","BIRMINGHAM","AL",35214,33.585963082,-86.890196509,55,"715 QUAIL, BIRMINGHAM, AL, 35214","Match","Non_Exact","715 QUAIL DR, BIRMINGHAM, AL, 35214",81550513,"R"
828056,"715 QUINTILIAN AVENUE","ORLANDO","FL",32809,28.4641170690001,-81.386493899,56,"715 QUINTILIAN AVENUE, ORLANDO, FL, 32809","Match","Exact","715 QUINTILIAN AVE, ORLANDO, FL, 32809",94290642,"R"
828057,"715 RACHEL ST","TROY","ID",83871,46.7429937740001,-116.766478406,57,"715 RACHEL ST, TROY, ID, 83871","Match","Exact","715 RACHEL ST, TROY, ID, 83871",193862997,"R"
828058,"715 RAILROAD STREET","SPRINGDALE","PA",15144,40.5365902610001,-79.7813551849999,58,"715 RAILROAD STREET, SPRINGDALE, PA, 15144","Match","Exact","715 RAILROAD ST, SPRINGDALE, PA, 15144",51668104,"L"
828059,"715 RANCOCAS AVENUE","RIVERSIDE","NJ",8075,40.0266700760001,-74.961799001,59,"715 RANCOCAS AVENUE, RIVERSIDE, NJ, 8075","Match","Exact","715 RANCOCAS AVE, RIVERSIDE, NJ, 08075",134064596,"L"
828060,"715 RANDOLPH STREET NE - NUMBER 3","WASHINGTON","DC",20017,38.939424516,-76.994404677,60,"715 RANDOLPH STREET NE - NUMBER 3, WASHINGTON, DC, 20017","Match","Exact","715 RANDOLPH ST NE, WASHINGTON, DC, 20017",76228206,"R"
828061,"715 RAVENS POINT ST","TRACY CITY","TN",37387,NA,NA,61,"715 RAVENS POINT ST, TRACY CITY, TN, 37387","No_Match",NA,NA,NA,NA
828062,"715 RAY AVE","CHESAPEAKE","VA",23320,36.7597739030001,-76.28602754,62,"715 RAY AVE, CHESAPEAKE, VA, 23320","Match","Exact","715 RAY AVE, CHESAPEAKE, VA, 23320",121773155,"L"
828063,"715 RAYMOND RD","CHESTER","NH",3036,42.98316214,-71.208874779,63,"715 RAYMOND RD, CHESTER, NH, 3036","Match","Exact","715 RAYMOND RD, CHESTER, NH, 03036",113710162,"R"
828064,"715 REFLECTIONS WAY","WINTER GARDEN","FL",34787,28.5323392770001,-81.594583202,64,"715 REFLECTIONS WAY, WINTER GARDEN, FL, 34787","Match","Non_Exact","715 REFLECTIONS LN, WINTER GARDEN, FL, 34787",647522090,"L"
828065,"715 RICE RD APT 17G","RIDGELAND","MS",39157,32.421420228,-90.106401865,65,"715 RICE RD APT 17G, RIDGELAND, MS, 39157","Match","Exact","715 RICE RD, RIDGELAND, MS, 39157",152491625,"R"
828066,"715 RICE RD APT 30H","RIDGELAND","MS",39157,32.421420228,-90.106401865,66,"715 RICE RD APT 30H, RIDGELAND, MS, 39157","Match","Exact","715 RICE RD, RIDGELAND, MS, 39157",152491625,"R"
828067,"715 RICE ROAD APT 27F","RIDGELAND","MS",39157,32.421420228,-90.106401865,67,"715 RICE ROAD APT 27F, RIDGELAND, MS, 39157","Match","Exact","715 RICE RD, RIDGELAND, MS, 39157",152491625,"R"
828068,"715 RICE ROAD APT 2F","RIDGELAND","MS",39157,32.421420228,-90.106401865,68,"715 RICE ROAD APT 2F, RIDGELAND, MS, 39157","Match","Exact","715 RICE RD, RIDGELAND, MS, 39157",152491625,"R"
828069,"715 RICE ROAD APT 3F","RIDGELAND","MS",39157,32.421420228,-90.106401865,69,"715 RICE ROAD APT 3F, RIDGELAND, MS, 39157","Match","Exact","715 RICE RD, RIDGELAND, MS, 39157",152491625,"R"
828070,"715 RICHMOND RD","ROCKINGHAM","NC",28379,34.956125322,-79.750571803,70,"715 RICHMOND RD, ROCKINGHAM, NC, 28379","Match","Exact","715 RICHMOND RD, ROCKINGHAM, NC, 28379",13918183,"L"
828071,"715 RIVER FOREST ROAD","EVANSDALE","IA",50707,42.4688682570001,-92.297636062,71,"715 RIVER FOREST ROAD, EVANSDALE, IA, 50707","Match","Exact","715 RIVER FOREST RD, EVANSDALE, IA, 50707",77255641,"L"
828072,"715 ROANOKE AVE","RIVERHEAD","NY",11901,40.9237608270001,-72.6665799519999,72,"715 ROANOKE AVE, RIVERHEAD, NY, 11901","Match","Exact","715 ROANOKE AVE, RIVERHEAD, NY, 11901",643102563,"L"
828073,"715 ROCK CREEK CT","RICHMOND","TX",77469,29.5299874190001,-95.728375887,73,"715 ROCK CREEK CT, RICHMOND, TX, 77469","Match","Exact","715 ROCK CREEK CT, RICHMOND, TX, 77469",627737800,"L"
828074,"715 ROOSEVELT STREET","STOUGHTON","WI",53589,42.9281215980001,-89.228760616,74,"715 ROOSEVELT STREET, STOUGHTON, WI, 53589","Match","Exact","715 ROOSEVELT ST, STOUGHTON, WI, 53589",49481577,"L"
828075,"715 ROSEWOOD DR","PITTSBURGH","PA",15239,40.5104727550001,-79.771271038,75,"715 ROSEWOOD DR, PITTSBURGH, PA, 15239","Match","Exact","715 ROSEWOOD DR, PITTSBURGH, PA, 15239",635789524,"L"
828076,"715 ROYAL AVE","ROCKFORD","IL",61101,42.283221579,-89.120805275,76,"715 ROYAL AVE, ROCKFORD, IL, 61101","Match","Exact","715 ROYAL AVE, ROCKFORD, IL, 61101",49252024,"R"
828077,"715 RUDY DR","CLYTON","NC",27520,35.5609327270001,-78.5431344419999,77,"715 RUDY DR, CLYTON, NC, 27520","Match","Non_Exact","715 RUDY DR, CLAYTON, NC, 27520",26545799,"L"
828078,"715 S 12TH ST","COEUR D'ALENE","ID",83814,47.6681979460001,-116.769488581,78,"715 S 12TH ST, COEUR D'ALENE, ID, 83814","Match","Non_Exact","715 S 12TH ST, COEUR D ALENE, ID, 83814",192903085,"L"
828079,"715 S 59TH STREET","PHILADELPHIA","PA",19143,39.9502087020001,-75.2411794449999,79,"715 S 59TH STREET, PHILADELPHIA, PA, 19143","Match","Exact","715 S 59TH ST, PHILADELPHIA, PA, 19143",131397828,"L"
828080,"715 S 5TH ST","COOS BAY","OR",97420,43.362389427,-124.217499089,80,"715 S 5TH ST, COOS BAY, OR, 97420","Match","Exact","715 S 5TH ST, COOS BAY, OR, 97420",136987000,"L"
828081,"715 S AVE HAUGH P 127","PICAYUNE","MS",39466,NA,NA,81,"715 S AVE HAUGH P 127, PICAYUNE, MS, 39466","No_Match",NA,NA,NA,NA
828082,"715 S BROADWAY","URBANA","IL",61801,40.1073140140001,-88.207292835,82,"715 S BROADWAY, URBANA, IL, 61801","Match","Non_Exact","715 S BROADWAY AVE, URBANA, IL, 61801",8856482,"R"
828083,"715 S CALHOUN ST RM 300","FORT WAYNE","IN",46802,41.0800818120001,-85.1398060289999,83,"715 S CALHOUN ST RM 300, FORT WAYNE, IN, 46802","Match","Non_Exact","715 S CALHOUN ST, FORT WAYNE, IN, 46802",6379256,"L"
828084,"715 S E 29TH DRIVE","HOMESTEAD","FL",33033,25.4638216230001,-80.434829698,84,"715 S E 29TH DRIVE, HOMESTEAD, FL, 33033","Match","Exact","715 SE 29TH DR, HOMESTEAD, FL, 33033",116085207,"L"
828085,"715 S EXTENSION ROAD 11","MESA","AZ",85210,33.401989986,-111.848470688,85,"715 S EXTENSION ROAD 11, MESA, AZ, 85210","Match","Non_Exact","715 S EXTENSION RD, MESA, AZ, 85210",128947842,"L"
828086,"715 S GODDARD STREET","VISALIA","CA",93292,36.3241246630001,-119.266324837,86,"715 S GODDARD STREET, VISALIA, CA, 93292","Match","Exact","715 S GODDARD ST, VISALIA, CA, 93292",639857197,"R"
828087,"715 S HOLLAND SYLVANIA RD LOT 20","TOLEDO","OH",43615,41.6276710830001,-83.684182569,87,"715 S HOLLAND SYLVANIA RD LOT 20, TOLEDO, OH, 43615","Match","Non_Exact","715 S HOLLAND SYLVANIA RD, TOLEDO, OH, 43615",647830694,"L"
828088,"715 S MAPLE ST","VINTON","VA",24179,37.2745161010001,-79.898942641,88,"715 S MAPLE ST, VINTON, VA, 24179","Match","Exact","715 S MAPLE ST, VINTON, VA, 24179",62906452,"R"
828089,"715 S MEDINA","LOCKHART","TX",78644,29.8735564900001,-97.679938915,89,"715 S MEDINA, LOCKHART, TX, 78644","Match","Non_Exact","715 S MEDINA ST, LOCKHART, TX, 78644",45534106,"L"
828090,"715 S PEAR ORCHARD ROAD","RIDGELAND","MS",39157,32.4036277970001,-90.1235182299999,90,"715 S PEAR ORCHARD ROAD, RIDGELAND, MS, 39157","Match","Exact","715 S PEAR ORCHARD RD, RIDGELAND, MS, 39157",152479293,"L"
828091,"715 S POWELL PKWY","ANNA","TX",75409,33.3433621840001,-96.5518180299999,91,"715 S POWELL PKWY, ANNA, TX, 75409","Match","Exact","715 S POWELL PKWY, ANNA, TX, 75409",210471739,"L"
828092,"715 S POWELL","ANNA","TX",75409,33.3433621840001,-96.5518180299999,92,"715 S POWELL, ANNA, TX, 75409","Match","Non_Exact","715 S POWELL PKWY, ANNA, TX, 75409",210471739,"L"
828093,"715 S VAN BUREN ST","HUGOTON","KS",67951,37.175554973,-101.351473605,93,"715 S VAN BUREN ST, HUGOTON, KS, 67951","Match","Exact","715 S VAN BUREN ST, HUGOTON, KS, 67951",167100703,"R"
828094,"715 S WADE AVE","ALLIANCE","OH",44601,40.9148599640001,-81.092666734,94,"715 S WADE AVE, ALLIANCE, OH, 44601","Match","Exact","715 WADE AVE, ALLIANCE, OH, 44601",64696880,"R"
828095,"715 S WALNUT AVE UNIT 1","BREA","CA",92821,33.9098723270001,-117.905271675,95,"715 S WALNUT AVE UNIT 1, BREA, CA, 92821","Match","Non_Exact","715 S WALNUT AVE, BREA, CA, 92821",144007431,"R"
828096,"715 S WALNUT ST","BRAZIL","IN",47834,39.517132428,-87.126619719,96,"715 S WALNUT ST, BRAZIL, IN, 47834","Match","Exact","715 S WALNUT ST, BRAZIL, IN, 47834",41741932,"L"
828097,"715 S WASHINGTON 310","BASTROP","LA",71220,NA,NA,97,"715 S WASHINGTON 310, BASTROP, LA, 71220","No_Match",NA,NA,NA,NA
828098,"715 S WATERMELON DRIVE","PUEBLO WEST","CO",81007,38.310016708,-104.759862666,98,"715 S WATERMELON DRIVE, PUEBLO WEST, CO, 81007","Match","Exact","715 S WATERMELON DR, PUEBLO WEST, CO, 81007",105034591,"L"
828099,"715 SAINT EMANUEL ST","MOBILE","AL",36603,30.675390109,-88.0422906919999,99,"715 SAINT EMANUEL ST, MOBILE, AL, 36603","Match","Exact","715 ST EMANUEL ST, MOBILE, AL, 36603",61936203,"L"
828100,"715 SAN MARTIN PLACE","THOUSAND OAKS","CA",91360,34.21690714,-118.895912813,100,"715 SAN MARTIN PLACE, THOUSAND OAKS, CA, 91360","Match","Exact","715 SAN MARTIN PL, THOUSAND OAKS, CA, 91360",109966207,"R"
828101,"715 SCHILLER ST","ITASCA","IL",60143,41.9698237150001,-88.005447182,101,"715 SCHILLER ST, ITASCA, IL, 60143","Match","Exact","715 SCHILLER ST, ITASCA, IL, 60143",112523941,"L"
828102,"715 SCOTT ST","CRESTLINE","OH",44827,40.7853728160001,-82.7278151209999,102,"715 SCOTT ST, CRESTLINE, OH, 44827","Match","Exact","715 SCOTT ST, CRESTLINE, OH, 44827",12078158,"L"
828103,"715 SE MADISON STREET","STUART","FL",34996,27.193596755,-80.227843695,103,"715 SE MADISON STREET, STUART, FL, 34996","Match","Non_Exact","715 SE MADISON AVE, STUART, FL, 34996",120401517,"R"
828104,"715 SE NEHALEM ST","PORTLAND","OR",97202,45.465755797,-122.658791537,104,"715 SE NEHALEM ST, PORTLAND, OR, 97202","Match","Exact","715 SE NEHALEM ST, PORTLAND, OR, 97202",157508978,"L"
828105,"715 SE OLSON DRIVE","WAUKEE","IA",50263,41.60717119,-93.860319099,105,"715 SE OLSON DRIVE, WAUKEE, IA, 50263","Match","Exact","715 SE OLSON DR, WAUKEE, IA, 50263",600637864,"R"
828106,"715 SEASIDE AVENUE","ABSECON","NJ",8201,39.433989667,-74.50938071,106,"715 SEASIDE AVENUE, ABSECON, NJ, 8201","Match","Exact","715 SEASIDE AVE, ABSECON, NJ, 08201",202484935,"L"
828107,"715 SEWARD ST APT 3S","EVANSTON","IL",60202,42.0287882970001,-87.6807329819999,107,"715 SEWARD ST APT 3S, EVANSTON, IL, 60202","Match","Exact","715 SEWARD ST, EVANSTON, IL, 60202",111744264,"R"
828108,"715 SHANTILL WAY","LAKE HELEN","FL",32744,28.9605053940001,-81.240922616,108,"715 SHANTILL WAY, LAKE HELEN, FL, 32744","Match","Exact","715 SHANTILL WAY, LAKE HELEN, FL, 32744",94566588,"L"
828109,"715 SHERIDAN AVE","ROSELLE","NJ",7203,40.654165306,-74.24834441,109,"715 SHERIDAN AVE, ROSELLE, NJ, 7203","Match","Exact","715 SHERIDAN AVE, ROSELLE, NJ, 07203",60576779,"L"
828110,"715 SHERIDAN STREET","RICHMOND","IN",47374,39.8365137380001,-84.8979768739999,110,"715 SHERIDAN STREET, RICHMOND, IN, 47374","Match","Exact","715 SHERIDAN ST, RICHMOND, IN, 47374",31343285,"R"
828111,"715 SHERWOOD DR","FLORRISANT","MO",63031,38.818422103,-90.323125357,111,"715 SHERWOOD DR, FLORRISANT, MO, 63031","Match","Non_Exact","715 SHERWOOD DR, FLORISSANT, MO, 63031",100116486,"R"
828112,"715 SHERWOOD DRIVE","JONESBORO","GA",30236,33.564066231,-84.36760118,112,"715 SHERWOOD DRIVE, JONESBORO, GA, 30236","Match","Exact","715 SHERWOOD DR, JONESBORO, GA, 30236",23316192,"R"
828113,"715 SHOAL CT","CROSBY","TX",77532,29.9186860610001,-95.0806379859999,113,"715 SHOAL CT, CROSBY, TX, 77532","Match","Exact","715 SHOAL CT, CROSBY, TX, 77532",96051871,"R"
828114,"715 SO 17TH ST","GRAND FORKS","ND",58201,47.915161728,-97.051074258,114,"715 SO 17TH ST, GRAND FORKS, ND, 58201","Match","Exact","715 S 17TH ST, GRAND FORKS, ND, 58201",171276297,"L"
828115,"715 SOMERSET ST","CONROE","TX",77302,30.251646409,-95.434337369,115,"715 SOMERSET ST, CONROE, TX, 77302","Match","Non_Exact","715 SOMERSET LN, CONROE, TX, 77302",79327873,"L"
828116,"715 SOUTH 13TH AVE","FAIRVIEW","OK",73737,36.2652145750001,-98.470347802,116,"715 SOUTH 13TH AVE, FAIRVIEW, OK, 73737","Match","Exact","715 S 13TH AVE, FAIRVIEW, OK, 73737",154941377,"R"
828117,"715 SOUTH BRADY STREET","DUBOIS","PA",15801,NA,NA,117,"715 SOUTH BRADY STREET, DUBOIS, PA, 15801","No_Match",NA,NA,NA,NA
828118,"715 SOUTH BROADWAY","GREEN BAY","WI",54304,44.509832816,-88.0255919479999,118,"715 SOUTH BROADWAY, GREEN BAY, WI, 54304","Match","Exact","715 S BROADWAY, GREEN BAY, WI, 54304",640617003,"L"
828119,"715 SOUTH DARIEN STREET","PHILADELPHIA","PA",19147,39.9411572560001,-75.1565420859999,119,"715 SOUTH DARIEN STREET, PHILADELPHIA, PA, 19147","Match","Exact","715 S DARIEN ST, PHILADELPHIA, PA, 19147",131424020,"L"
828120,"715 SOUTH DUPONT HIGHWAY","MILFORD","DE",19963,38.8989410020001,-75.439466378,120,"715 SOUTH DUPONT HIGHWAY, MILFORD, DE, 19963","Match","Non_Exact","715 S DUPONT BLVD, MILFORD, DE, 19963",106116286,"R"
828121,"715 SOUTH EUGENE STREET","BATON ROUGE","LA",70806,30.442189376,-91.1599459459999,121,"715 SOUTH EUGENE STREET, BATON ROUGE, LA, 70806","Match","Exact","715 S EUGENE ST, BATON ROUGE, LA, 70806",92184015,"L"
828122,"715 SOUTH MAIN ST","BANGOR","PA",18013,40.858285053,-75.203718946,122,"715 SOUTH MAIN ST, BANGOR, PA, 18013","Match","Exact","715 S MAIN ST, BANGOR, PA, 18013",647957863,"R"
828123,"715 SOUTH OAK STREET","LAKE CITY","MN",55041,44.44381309,-92.261885762,123,"715 SOUTH OAK STREET, LAKE CITY, MN, 55041","Match","Exact","715 S OAK ST, LAKE CITY, MN, 55041",31620301,"R"
828124,"715 SOUTH VIRGINIA STREET","HOPKINSVILLE","KY",42240,36.8660129350001,-87.4872814719999,124,"715 SOUTH VIRGINIA STREET, HOPKINSVILLE, KY, 42240","Match","Exact","715 S VIRGINIA ST, HOPKINSVILLE, KY, 42240",11272307,"R"
828125,"715 SOUTHFORK DR","WAUKEE","IA",50263,41.6042500190001,-93.820559212,125,"715 SOUTHFORK DR, WAUKEE, IA, 50263","Match","Exact","715 SOUTHFORK DR, WAUKEE, IA, 50263",65643552,"L"
828126,"715 SOUTHWINDS DR","BRYN MAWR","PA",19010,40.0055829450001,-75.346544765,126,"715 SOUTHWINDS DR, BRYN MAWR, PA, 19010","Match","Exact","715 SOUTHWINDS DR, BRYN MAWR, PA, 19010",134892233,"L"
828127,"715 ST MARKS AVE APT 2M","BROOKLYN","NY",11216,40.6751686150001,-73.949215338,127,"715 ST MARKS AVE APT 2M, BROOKLYN, NY, 11216","Match","Exact","715 ST MARKS AVE, BROOKLYN, NY, 11216",59079419,"L"
828128,"715 STANLEY HOOD RD","CROSSVILLE","TN",38571,36.041119612,-85.146847238,128,"715 STANLEY HOOD RD, CROSSVILLE, TN, 38571","Match","Exact","715 STANLEY HOOD RD, CROSSVILLE, TN, 38571",624750951,"L"
828129,"715 STATE ROUTE 96","SHILOH","OH",44878,40.8942765850001,-82.485266603,129,"715 STATE ROUTE 96, SHILOH, OH, 44878","Match","Exact","715 STATE RTE 96, SHILOH, OH, 44878",638661916,"R"
828130,"715 STEWART ST","FOLSOM","CA",95630,38.653072594,-121.16029455,130,"715 STEWART ST, FOLSOM, CA, 95630","Match","Exact","715 STEWART ST, FOLSOM, CA, 95630",133387892,"R"
828131,"715 STONE AVENUE","MATTOON","WI",54450,45.007496603,-89.038125845,131,"715 STONE AVENUE, MATTOON, WI, 54450","Match","Exact","715 STONE AVE, MATTOON, WI, 54450",126870174,"R"
828132,"715 STONEY BROOK DRIVE","SAGAMORE HILLS","OH",44067,41.309054034,-81.562003397,132,"715 STONEY BROOK DRIVE, SAGAMORE HILLS, OH, 44067","Match","Non_Exact","715 STONEY BROOK RD, SAGAMORE HILLS, OH, 44067",61361126,"R"
828133,"715 SUMMERWOOD DRIVE","ROCK HILL","SC",29732,34.9545466170001,-81.029009945,133,"715 SUMMERWOOD DRIVE, ROCK HILL, SC, 29732","Match","Exact","715 SUMMERWOOD DR, ROCK HILL, SC, 29732",19791139,"L"
828134,"715 SUNNYSLOPE DR APT 8","HARTLAND","WI",53029,NA,NA,134,"715 SUNNYSLOPE DR APT 8, HARTLAND, WI, 53029","No_Match",NA,NA,NA,NA
828135,"715 SUNRIDGE DRIVE","CARLISLE","IA",50047,41.4863123700001,-93.494129431,135,"715 SUNRIDGE DRIVE, CARLISLE, IA, 50047","Match","Exact","715 SUNRIDGE DR, CARLISLE, IA, 50047",641426620,"L"
828136,"715 SW 148TH AVENUE","DAVIE","FL",33325,26.110961047,-80.3463511749999,136,"715 SW 148TH AVENUE, DAVIE, FL, 33325","Match","Exact","715 SW 148TH AVE, DAVIE, FL, 33325",114794668,"R"
828137,"715 SW 15TH STREET","FT. LAUDERDALE","FL",33315,26.1027807470001,-80.150727193,137,"715 SW 15TH STREET, FT. LAUDERDALE, FL, 33315","Match","Exact","715 SW 15TH ST, FORT LAUDERDALE, FL, 33315",114727861,"R"
828138,"715 SW DERBY DRIVE","LEES SUMMIT","MO",64081,38.9063374930001,-94.4389038,138,"715 SW DERBY DRIVE, LEES SUMMIT, MO, 64081","Match","Exact","715 SW DERBY DR, LEES SUMMIT, MO, 64081",91511415,"R"
828139,"715 SW RUSTIC CIRCLE","STUART","FL",34997,27.127674601,-80.2608138749999,139,"715 SW RUSTIC CIRCLE, STUART, FL, 34997","Match","Exact","715 SW RUSTIC CIR, STUART, FL, 34997",120414500,"R"
828140,"715 TAUBER RD","NEW LENOX","IL",60451,41.504217382,-87.943090159,140,"715 TAUBER RD, NEW LENOX, IL, 60451","Match","Exact","715 TAUBER RD, NEW LENOX, IL, 60451",111584665,"L"
828141,"715 TAYLOR ST","BAYARD","NM",88023,32.7511940900001,-108.138644059,141,"715 TAYLOR ST, BAYARD, NM, 88023","Match","Exact","715 TAYLOR ST, BAYARD, NM, 88023",192656805,"R"
828142,"715 THIRD STREET","GLASGOW","MO",65254,39.227409326,-92.844734229,142,"715 THIRD STREET, GLASGOW, MO, 65254","Match","Exact","715 3RD ST, GLASGOW, MO, 65254",23105533,"L"
828143,"715 THOMAS ROAD","LYNCHBURG","VA",24502,37.393050885,-79.187403902,143,"715 THOMAS ROAD, LYNCHBURG, VA, 24502","Match","Exact","715 THOMAS RD, LYNCHBURG, VA, 24502",62740470,"L"
828144,"715 TODDTOWN RD","GROVE HILL","AL",36451,31.619880009,-87.87060409,144,"715 TODDTOWN RD, GROVE HILL, AL, 36451","Match","Exact","715 TODDTOWN RD, GROVE HILL, AL, 36451",34565867,"L"
828145,"715 TREMONT STREET","BOSTON","MA",2118,42.340544417,-71.07803143,145,"715 TREMONT STREET, BOSTON, MA, 2118","Match","Exact","715 TREMONT ST, BOSTON, MA, 02118",85700680,"R"
828146,"715 TREVITT CIRCLE","SOUTH EUCLID","OH",44143,NA,NA,146,"715 TREVITT CIRCLE, SOUTH EUCLID, OH, 44143","Tie",NA,NA,NA,NA
828147,"715 TRUMAN ST SE","ALBUQUERQUE","NM",87108,35.070879947,-106.587310017,147,"715 TRUMAN ST SE, ALBUQUERQUE, NM, 87108","Match","Exact","715 TRUMAN ST SE, ALBUQUERQUE, NM, 87108",206718184,"R"
828148,"715 TRUMPETERS CT W","MONUMENT","CO",80132,39.1028018220001,-104.806796442,148,"715 TRUMPETERS CT W, MONUMENT, CO, 80132","Match","Exact","715 TRUMPETERS CT W, MONUMENT, CO, 80132",647972341,"R"
828149,"715 TUFTS AVE","PORT ORCHARD","WA",98366,47.542529561,-122.604816147,149,"715 TUFTS AVE, PORT ORCHARD, WA, 98366","Match","Non_Exact","715 TUFTS AVE E, PORT ORCHARD, WA, 98366",187676337,"R"
828150,"715 TWIN DIKES RD","ATKINS","AR",72823,35.2258734530001,-92.9613514329999,150,"715 TWIN DIKES RD, ATKINS, AR, 72823","Match","Exact","715 TWIN DIKES RD, ATKINS, AR, 72823",81900500,"L"
828151,"715 U S HIGHWAY 401 SOUTH","WARRENTON","NC",27589,36.3836295560001,-78.162200506,151,"715 U S HIGHWAY 401 SOUTH, WARRENTON, NC, 27589","Match","Non_Exact","715 US HWY 401 S, WARRENTON, NC, 27589",640679845,"R"
828152,"715 UNION LANDING ROAD","CINNAMINSON","NJ",8077,40.0178164980001,-74.994462529,152,"715 UNION LANDING ROAD, CINNAMINSON, NJ, 8077","Match","Exact","715 UNION LANDING RD, CINNAMINSON, NJ, 08077",134025696,"R"
828153,"715 UNION STREET","BROOKLYN","NY",11215,40.6767243780001,-73.9812378249999,153,"715 UNION STREET, BROOKLYN, NY, 11215","Match","Exact","715 UNION ST, BROOKLYN, NY, 11215",652211773,"L"
828154,"715 UNION WOODS DRIVE","BRODNAX","VA",23920,36.7426996020001,-77.9108148029999,154,"715 UNION WOODS DRIVE, BRODNAX, VA, 23920","Match","Exact","715 UNION WOODS DR, BRODNAX, VA, 23920",54024554,"R"
828155,"715 UNISON CT","CARY","NC",27519,35.7761347430001,-78.8814852249999,155,"715 UNISON CT, CARY, NC, 27519","Match","Exact","715 UNISON CT, CARY, NC, 27519",627232466,"L"
828156,"715 UNIVERSITY PKWY","NATCHITOCHES","LA",71457,31.7530679860001,-93.0950804399999,156,"715 UNIVERSITY PKWY, NATCHITOCHES, LA, 71457","Match","Exact","715 UNIVERSITY PKWY, NATCHITOCHES, LA, 71457",13349894,"L"
828157,"715 VALLEYVIEW ROAD","PITTSBURGH","PA",15243,40.3886366630001,-80.0609746929999,157,"715 VALLEYVIEW ROAD, PITTSBURGH, PA, 15243","Match","Exact","715 VALLEYVIEW RD, PITTSBURGH, PA, 15243",607645604,"L"
828158,"715 VISTA VIA","TAFT","CA",93268,35.130231886,-119.478339601,158,"715 VISTA VIA, TAFT, CA, 93268","Match","Non_Exact","715 VISTA VIA DR, TAFT, CA, 93268",109450321,"R"
828159,"715 VIVIAN DRIVE","PRINCETON","KY",42445,37.113291125,-87.865294867,159,"715 VIVIAN DRIVE, PRINCETON, KY, 42445","Match","Exact","715 VIVIAN DR, PRINCETON, KY, 42445",10647915,"L"
828160,"715 W 119TH ST S","JENKS","OK",74037,35.9913152250001,-95.978340961,160,"715 W 119TH ST S, JENKS, OK, 74037","Match","Exact","715 W 119TH ST S, JENKS, OK, 74037",166475354,"L"
828161,"715 W 14TH ST","SULPHUR","OK",73086,34.504780238,-96.984859397,161,"715 W 14TH ST, SULPHUR, OK, 73086","Match","Exact","715 W 14TH ST, SULPHUR, OK, 73086",58448129,"L"
828162,"715 W 15TH ST","MILROY","IN",46156,NA,NA,162,"715 W 15TH ST, MILROY, IN, 46156","No_Match",NA,NA,NA,NA
828163,"715 W 2ND STREET","OTTAWA","KS",66067,38.615808316,-95.27722371,163,"715 W 2ND STREET, OTTAWA, KS, 66067","Match","Exact","715 W 2ND ST, OTTAWA, KS, 66067",10603437,"L"
828164,"715 W 37TH STREET","WILMINGTON","DE",19802,39.7660699910001,-75.530662042,164,"715 W 37TH STREET, WILMINGTON, DE, 19802","Match","Exact","715 W 37TH ST, WILMINGTON, DE, 19802",187258572,"R"
828165,"715 W 5TH ST","APPLETON","WI",54914,44.2571858000001,-88.41624039,165,"715 W 5TH ST, APPLETON, WI, 54914","Match","Exact","715 W 5TH ST, APPLETON, WI, 54914",653037666,"L"
828166,"715 W 6 TH AVE","MESA","AZ",85210,33.4041315640001,-111.846532633,166,"715 W 6 TH AVE, MESA, AZ, 85210","Match","Non_Exact","715 W 6TH AVE, MESA, AZ, 85210",128965982,"L"
828167,"715 W 6TH AVE","MESA","AZ",85210,33.4041315640001,-111.846532633,167,"715 W 6TH AVE, MESA, AZ, 85210","Match","Exact","715 W 6TH AVE, MESA, AZ, 85210",128965982,"L"
828168,"715 W ABRAM STREET","ARLINGTON","MO",76013,NA,NA,168,"715 W ABRAM STREET, ARLINGTON, MO, 76013","No_Match",NA,NA,NA,NA
828169,"715 W BAKER AVENUE","ABINGDON","MD",21009,39.451610042,-76.252852354,169,"715 W BAKER AVENUE, ABINGDON, MD, 21009","Match","Exact","715 W BAKER AVE, ABINGDON, MD, 21009",191645072,"R"
828170,"715 W CENTER CIR","NIXA","MO",65714,37.0445096110001,-93.3096437149999,170,"715 W CENTER CIR, NIXA, MO, 65714","Match","Exact","715 CENTER CIR, NIXA, MO, 65714",635746468,"L"
828171,"715 W CENTER CIRCLE","NIXA","MO",65714,37.0445096110001,-93.3096437149999,171,"715 W CENTER CIRCLE, NIXA, MO, 65714","Match","Exact","715 CENTER CIR, NIXA, MO, 65714",635746468,"L"
828172,"715 W CLARK ST","CLARINDA","IA",51632,40.733102542,-95.046334308,172,"715 W CLARK ST, CLARINDA, IA, 51632","Match","Exact","715 W CLARK ST, CLARINDA, IA, 51632",10225883,"R"
828173,"715 W INKSTER AVENUE","KALAMAZOO","MI",49008,42.2669395730001,-85.592847794,173,"715 W INKSTER AVENUE, KALAMAZOO, MI, 49008","Match","Exact","715 INKSTER AVE, KALAMAZOO, MI, 49008",12229188,"L"
828174,"715 W MAPLE ST","RAWLINS","WY",82301,41.790830627,-107.24426292,174,"715 W MAPLE ST, RAWLINS, WY, 82301","Match","Exact","715 W MAPLE ST, RAWLINS, WY, 82301",148729951,"L"
828175,"715 W MARKET ST APT 105","AKRON","OH",44313,NA,NA,175,"715 W MARKET ST APT 105, AKRON, OH, 44313","No_Match",NA,NA,NA,NA
828176,"715 W MARKET STREET APT 405","AKRON","OH",44303,41.0952212350001,-81.5403288219999,176,"715 W MARKET STREET APT 405, AKRON, OH, 44303","Match","Non_Exact","715 W MARKET ST, AKRON, OH, 44303",61339829,"R"
828177,"715 W MICHIGAN AVE","JACKSON","MI",49201,42.24741498,-84.419329396,177,"715 W MICHIGAN AVE, JACKSON, MI, 49201","Match","Exact","715 W MICHIGAN AVE, JACKSON, MI, 49201",17632022,"L"
828178,"715 W MILLING ST 315","LANCASTER","CA",93534,34.6959248740001,-118.142404901,178,"715 W MILLING ST 315, LANCASTER, CA, 93534","Match","Non_Exact","715 W MILLING ST, LANCASTER, CA, 93534",142706419,"L"
828179,"715 W PALM STREET","COMPTON","CA",90220,33.8949023220001,-118.236574632,179,"715 W PALM STREET, COMPTON, CA, 90220","Match","Exact","715 W PALM ST, COMPTON, CA, 90220",141775597,"R"
828180,"715 W SAN JOSE LANE","MEQUON","WI",53092,43.219270985,-87.91571175,180,"715 W SAN JOSE LANE, MEQUON, WI, 53092","Match","Exact","715 W SAN JOSE LN, MEQUON, WI, 53092",95903246,"L"
828181,"715 W SOUTH ST","SMYRNA","DE",19977,39.2918731840001,-75.6143367339999,181,"715 W SOUTH ST, SMYRNA, DE, 19977","Match","Exact","715 W SOUTH ST, SMYRNA, DE, 19977",646517108,"R"
828182,"715 W STATE","ROCKFORD","IL",61102,42.2734481740001,-89.099905113,182,"715 W STATE, ROCKFORD, IL, 61102","Match","Non_Exact","715 W STATE ST, ROCKFORD, IL, 61102",635576431,"R"
828183,"715 W WILLOW ST","CHIPPEWA FALLS","WI",54729,44.9332326260001,-91.4033824649999,183,"715 W WILLOW ST, CHIPPEWA FALLS, WI, 54729","Match","Exact","715 W WILLOW ST, CHIPPEWA FALLS, WI, 54729",78924333,"L"
828184,"715 W WORLEY STREET","COLUMBIA","MO",65203,38.958969601,-92.3479222779999,184,"715 W WORLEY STREET, COLUMBIA, MO, 65203","Match","Exact","715 W WORLEY ST, COLUMBIA, MO, 65203",23480465,"R"
828185,"715 WALLIS AVENUE","FARRELL","PA",16121,41.2124503380001,-80.501459396,185,"715 WALLIS AVENUE, FARRELL, PA, 16121","Match","Exact","715 WALLIS AVE, FARRELL, PA, 16121",605372679,"R"
828186,"715 WALNUT ST - 2ND FL","GA","AL",35901,34.0114164230001,-86.010472986,186,"715 WALNUT ST - 2ND FL, GA, AL, 35901","Match","Non_Exact","715 WALNUT ST, GADSDEN, AL, 35901",650423426,"R"
828187,"715 WALNUT ST STE 100","GADSDEN","AL",35901,34.0114164230001,-86.010472986,187,"715 WALNUT ST STE 100, GADSDEN, AL, 35901","Match","Exact","715 WALNUT ST, GADSDEN, AL, 35901",650423426,"R"
828188,"715 WASHINGTON AVENU","SAVANNAH","GA",31405,32.0455642850001,-81.0881615769999,188,"715 WASHINGTON AVENU, SAVANNAH, GA, 31405","Match","Exact","715 WASHINGTON AVE, SAVANNAH, GA, 31405",6178200,"R"
828189,"715 WASHINGTON AVENUE","CINCINNATI","OH",45215,NA,NA,189,"715 WASHINGTON AVENUE, CINCINNATI, OH, 45215","No_Match",NA,NA,NA,NA
828190,"715 WASHINGTON ST APT 24","RAWLINS","WY",82301,41.781327462,-107.231488427,190,"715 WASHINGTON ST APT 24, RAWLINS, WY, 82301","Match","Exact","715 WASHINGTON ST, RAWLINS, WY, 82301",611196788,"R"
828191,"715 WAYFIELD","ST. LOUIS","MO",63132,38.668893638,-90.36941676,191,"715 WAYFIELD, ST. LOUIS, MO, 63132","Match","Non_Exact","715 WAYFIELD DR, SAINT LOUIS, MO, 63132",100131199,"L"
828192,"715 WAYSIDE ROAD","NEPTUNE","NJ",7753,40.222763824,-74.059657139,192,"715 WAYSIDE ROAD, NEPTUNE, NJ, 7753","Match","Exact","715 WAYSIDE RD, NEPTUNE, NJ, 07753",90485656,"L"
828193,"715 WEISER ST","READING","PA",19601,40.3467179150001,-75.937778688,193,"715 WEISER ST, READING, PA, 19601","Match","Exact","715 WEISER ST, READING, PA, 19601",80444391,"R"
828194,"715 WEST 16 STREET","KANAS CITY","MO",64108,39.0954581870001,-94.592338505,194,"715 WEST 16 STREET, KANAS CITY, MO, 64108","Match","Non_Exact","715 W 16TH ST, KANSAS CITY, MO, 64108",91444402,"L"
828195,"715 WEST 18TH STREET","TEMPE","AZ",85281,33.4090579790001,-111.950260556,195,"715 WEST 18TH STREET, TEMPE, AZ, 85281","Match","Exact","715 W 18TH ST, TEMPE, AZ, 85281",128226507,"L"
828196,"715 WEST 23RD ST","EUGENE","OR",97405,44.034359463,-123.102867475,196,"715 WEST 23RD ST, EUGENE, OR, 97405","Match","Non_Exact","715 W 23RD AVE, EUGENE, OR, 97405",605393586,"R"
828197,"715 WEST 24TH STREET APT 1","CHEYENNE","WY",82001,41.137649455,-104.825716924,197,"715 WEST 24TH STREET APT 1, CHEYENNE, WY, 82001","Match","Exact","715 W 24TH ST, CHEYENNE, WY, 82001",160149557,"L"
828198,"715 WEST 26TH STREET","MARION","IN",46953,40.5374095720001,-85.6677245179999,198,"715 WEST 26TH STREET, MARION, IN, 46953","Match","Exact","715 W 26TH ST, MARION, IN, 46953",95009448,"L"
828199,"715 WEST 37TH ST","WILMINGTON","DE",19802,39.7660674200001,-75.530660009,199,"715 WEST 37TH ST, WILMINGTON, DE, 19802","Match","Exact","715 W 37TH ST, WILMINGTON, DE, 19802",187258572,"R"
828200,"715 WEST 37TH STREET","WILMINGTON","DE",19802,39.7660674200001,-75.530660009,200,"715 WEST 37TH STREET, WILMINGTON, DE, 19802","Match","Exact","715 W 37TH ST, WILMINGTON, DE, 19802",187258572,"R"
828201,"715 WEST CLEVELAND AVE","BELLEVILLE","IL",62220,38.5050469290001,-89.9930873599999,201,"715 WEST CLEVELAND AVE, BELLEVILLE, IL, 62220","Match","Exact","715 W CLEVELAND AVE, BELLEVILLE, IL, 62220",107841993,"R"
828202,"715 WEST LYMAN AVE","WINTER PARK","FL",32789,28.594887552,-81.3584489,202,"715 WEST LYMAN AVE, WINTER PARK, FL, 32789","Match","Exact","715 W LYMAN AVE, WINTER PARK, FL, 32789",94422609,"R"
828203,"715 WEST NETTIE","KINGSVILLE","TX",78363,27.524581604,-97.876696427,203,"715 WEST NETTIE, KINGSVILLE, TX, 78363","Match","Non_Exact","715 W NETTIE AVE, KINGSVILLE, TX, 78363",72100374,"L"
828204,"715 WEST WALNUT ST","KALAMAZOO","MI",49007,42.286187597,-85.59248845,204,"715 WEST WALNUT ST, KALAMAZOO, MI, 49007","Match","Exact","715 W WALNUT ST, KALAMAZOO, MI, 49007",12228910,"L"
828205,"715 WESTON RD","HOT SPRING","AR",71913,34.4776225310001,-93.121429454,205,"715 WESTON RD, HOT SPRING, AR, 71913","Match","Non_Exact","715 WESTON RD, HOT SPRINGS NATIONAL PARK, AR, 71913",610980779,"R"
828206,"715 WESTON RD","HOT SPRINGS","AR",71913,34.4776225310001,-93.121429454,206,"715 WESTON RD, HOT SPRINGS, AR, 71913","Match","Exact","715 WESTON RD, HOT SPRINGS, AR, 71913",610980779,"R"
828207,"715 WET ELM STREET","BISHOP","CA",93514,37.365466516,-118.402789656,207,"715 WET ELM STREET, BISHOP, CA, 93514","Match","Non_Exact","715 W ELM ST, BISHOP, CA, 93514",175841847,"L"
828208,"715 WHITECAP DRIVE","SEABROOK","TX",77586,29.577805852,-95.036610512,208,"715 WHITECAP DRIVE, SEABROOK, TX, 77586","Match","Exact","715 WHITECAP DR, SEABROOK, TX, 77586",96116646,"L"
828209,"715 WHITEHAVEN CT","WALNUT CREEK","CA",94598,37.915117111,-122.002155515,209,"715 WHITEHAVEN CT, WALNUT CREEK, CA, 94598","Match","Exact","715 WHITEHAVEN CT, WALNUT CREEK, CA, 94598",192101381,"R"
828210,"715 WHITTIER AVENUE NW","NORTH CANTON","OH",44720,40.8838611210001,-81.4148033989999,210,"715 WHITTIER AVENUE NW, NORTH CANTON, OH, 44720","Match","Exact","715 WHITTIER AVE NW, NORTH CANTON, OH, 44720",64692861,"L"
828211,"715 WILKSHIRE CT","GRAND BLANC","MI",48439,42.918873261,-83.605955861,211,"715 WILKSHIRE CT, GRAND BLANC, MI, 48439","Match","Exact","715 WILKSHIRE CT, GRAND BLANC, MI, 48439",69590820,"L"
828212,"715 WINDING CREEK TERRACE","BRENTWOOD","CA",94513,37.9353340480001,-121.710653326,212,"715 WINDING CREEK TERRACE, BRENTWOOD, CA, 94513","Match","Exact","715 WINDING CREEK TER, BRENTWOOD, CA, 94513",192102615,"L"
828213,"715 ZIMMER LANE","GREENOCK","PA",15047,40.311879402,-79.7964454569999,213,"715 ZIMMER LANE, GREENOCK, PA, 15047","Match","Exact","715 ZIMMER LN, GREENOCK, PA, 15047",51679731,"L"
828214,"715-3 ZLOTKIN CIRCLE","FREEHOLD","MD",7728,NA,NA,214,"715-3 ZLOTKIN CIRCLE, FREEHOLD, MD, 7728","No_Match",NA,NA,NA,NA
828215,"715","EASTLAND","TX",76448,NA,NA,215,"715, EASTLAND, TX, 76448","No_Match",NA,NA,NA,NA
828216,"715","JANESVILLE","WI",53545,NA,NA,216,"715, JANESVILLE, WI, 53545","No_Match",NA,NA,NA,NA
828217,"715","KISSIMMEE","FL",34758,NA,NA,217,"715, KISSIMMEE, FL, 34758","No_Match",NA,NA,NA,NA
828218,"715","LAKE HELEN","FL",32744,NA,NA,218,"715, LAKE HELEN, FL, 32744","No_Match",NA,NA,NA,NA
828219,"715","ROCKFORD","IL",61101,NA,NA,219,"715, ROCKFORD, IL, 61101","No_Match",NA,NA,NA,NA
828220,"715","SAN PEDRO","CA",90731,NA,NA,220,"715, SAN PEDRO, CA, 90731","No_Match",NA,NA,NA,NA
828221,"7150 92ND ST NW","BOWBELLS","ND",58721,48.749277471,-102.278412202,221,"7150 92ND ST NW, BOWBELLS, ND, 58721","Match","Exact","7150 92ND ST NW, BOWBELLS, ND, 58721",200030067,"R"
828222,"7150 CURRIER RD","LOUDON","NH",3307,43.312378659,-71.4624614799999,222,"7150 CURRIER RD, LOUDON, NH, 3307","Match","Exact","7150 CURRIER RD, LOUDON, NH, 03307",636311037,"R"
828223,"7150 DOGWOOD DR","SHINGLETOWN","CA",96088,NA,NA,223,"7150 DOGWOOD DR, SHINGLETOWN, CA, 96088","No_Match",NA,NA,NA,NA
828224,"7150 DURANGO DR","HORN LAKE","MS",38637,34.9651643070001,-90.0555541529999,224,"7150 DURANGO DR, HORN LAKE, MS, 38637","Match","Exact","7150 DURANGO DR, HORN LAKE, MS, 38637",91854716,"R"
828225,"7150 E GRAND AVE 1209","DALLAS","TX",75223,32.80600257,-96.734269937,225,"7150 E GRAND AVE 1209, DALLAS, TX, 75223","Match","Non_Exact","7150 E GRAND AVE, DALLAS, TX, 75223",102921346,"R"
828226,"7150 E GRAND AVE","DALLAS","TX",75223,32.80600257,-96.734269937,226,"7150 E GRAND AVE, DALLAS, TX, 75223","Match","Exact","7150 E GRAND AVE, DALLAS, TX, 75223",102921346,"R"
828227,"7150 E JACKSON DR","NEW ORLEANS","LA",70117,NA,NA,227,"7150 E JACKSON DR, NEW ORLEANS, LA, 70117","No_Match",NA,NA,NA,NA
828228,"7150 EAST CAMELBACK ROAD SUITE 285","SCOTTSDALE","AZ",85251,33.502276985,-111.926682833,228,"7150 EAST CAMELBACK ROAD SUITE 285, SCOTTSDALE, AZ, 85251","Match","Exact","7150 E CAMELBACK RD, SCOTTSDALE, AZ, 85251",128829353,"L"
828229,"7150 EAST GRAND 1313","DALLAS","TX",75223,32.805990465,-96.734278724,229,"7150 EAST GRAND 1313, DALLAS, TX, 75223","Match","Non_Exact","7150 E GRAND AVE, DALLAS, TX, 75223",102921346,"R"
828230,"7150 FOXBRICK LANE","HUMBLE","TX",77338,30.006885416,-95.3156028449999,230,"7150 FOXBRICK LANE, HUMBLE, TX, 77338","Match","Exact","7150 FOXBRICK LN, HUMBLE, TX, 77338",644482170,"R"
828231,"7150 GARTMAN ROAD","ORCHARD PARK","NY",14127,42.706996514,-78.723214739,231,"7150 GARTMAN ROAD, ORCHARD PARK, NY, 14127","Match","Exact","7150 GARTMAN RD, ORCHARD PARK, NY, 14127",48343095,"L"
828232,"7150 GRANITE CIRCLE SUITE 203","TOLEDO","OH",43617,NA,NA,232,"7150 GRANITE CIRCLE SUITE 203, TOLEDO, OH, 43617","Tie",NA,NA,NA,NA
828233,"7150 HAMILTON BLVD UNIT 323","TREXLERTOWN","PA",18087,40.550966364,-75.596519331,233,"7150 HAMILTON BLVD UNIT 323, TREXLERTOWN, PA, 18087","Match","Exact","7150 HAMILTON BLVD, TREXLERTOWN, PA, 18087",80798829,"R"
828234,"7150 HELMSDALE CIR","WEST HILLS","CA",91307,34.2002207960001,-118.642499502,234,"7150 HELMSDALE CIR, WEST HILLS, CA, 91307","Match","Exact","7150 HELMSDALE CIR, WEST HILLS, CA, 91307",141722975,"R"
828235,"7150 HEMLOCK AVE","LANCASTER","CA",93536,34.6569848600001,-118.257307345,235,"7150 HEMLOCK AVE, LANCASTER, CA, 93536","Match","Exact","7150 HEMLOCK AVE, LANCASTER, CA, 93536",648780210,"L"
828236,"7150 HILLY LN","CEDAR GROVE","WI",53013,43.5398362930001,-87.830862751,236,"7150 HILLY LN, CEDAR GROVE, WI, 53013","Match","Exact","7150 HILLY LN, CEDAR GROVE, WI, 53013",95899100,"R"
828237,"7150 JACKSON ST","TAYLOR","MI",48180,42.2560372510001,-83.2335814319999,237,"7150 JACKSON ST, TAYLOR, MI, 48180","Match","Exact","7150 JACKSON ST, TAYLOR, MI, 48180",95446070,"R"
828238,"7150 MACQUARIE ST","LA MESA","CA",91942,32.776219665,-117.042948206,238,"7150 MACQUARIE ST, LA MESA, CA, 91942","Match","Exact","7150 MACQUARIE ST, LA MESA, CA, 91942",195325559,"L"
828239,"7150 MISSION HILLS DRIVE","YPSILANTI","MI",48197,42.1860731690001,-83.614946838,239,"7150 MISSION HILLS DRIVE, YPSILANTI, MI, 48197","Match","Exact","7150 MISSION HILLS DR, YPSILANTI, MI, 48197",26033004,"R"
828240,"7150 N 16TH STREET","PHOENIX","AZ",85020,33.541072764,-112.047497265,240,"7150 N 16TH STREET, PHOENIX, AZ, 85020","Match","Exact","7150 N 16TH ST, PHOENIX, AZ, 85020",128918945,"L"
828241,"7150 N LINDER RD","MERIDIAN","ID",83646,43.669516695,-116.413651788,241,"7150 N LINDER RD, MERIDIAN, ID, 83646","Match","Exact","7150 N LINDER RD, MERIDIAN, ID, 83646",648612468,"L"
828242,"7150 NE 126TH","KIRKLAND","WA",98034,47.7135395760001,-122.245288572,242,"7150 NE 126TH, KIRKLAND, WA, 98034","Match","Non_Exact","7150 NE 126TH ST, KIRKLAND, WA, 98034",186601907,"L"
828243,"7150 NW 112TH PL","CHIEFLAND","FL",32626,29.493424223,-82.8918627099999,243,"7150 NW 112TH PL, CHIEFLAND, FL, 32626","Match","Exact","7150 NW 112TH PL, CHIEFLAND, FL, 32626",43331841,"L"
828244,"7150 NW 21 STREET","SUNRISE","FL",33313,26.1521678450001,-80.242119706,244,"7150 NW 21 STREET, SUNRISE, FL, 33313","Match","Exact","7150 NW 21ST ST, SUNRISE, FL, 33313",114704228,"L"
828245,"7150 NW 21ST STREET","SUNRISE","FL",33313,26.1521678450001,-80.242119706,245,"7150 NW 21ST STREET, SUNRISE, FL, 33313","Match","Exact","7150 NW 21ST ST, SUNRISE, FL, 33313",114704228,"L"
828246,"7150 OAKWOOD CREEK RD","EDMOND","OK",73034,35.7279966930001,-97.46593527,246,"7150 OAKWOOD CREEK RD, EDMOND, OK, 73034","Match","Exact","7150 OAKWOOD CREEK RD, EDMOND, OK, 73034",121978659,"R"
828247,"7150 PARSONS BLVD 3M","FLUSHING","NY",11365,NA,NA,247,"7150 PARSONS BLVD 3M, FLUSHING, NY, 11365","No_Match",NA,NA,NA,NA
828248,"7150 PARSONS BLVD","FLUSHING","NY",11365,NA,NA,248,"7150 PARSONS BLVD, FLUSHING, NY, 11365","No_Match",NA,NA,NA,NA
828249,"7150 PLACID STREET","LAS VEGAS","NV",89119,36.0597429160001,-115.158902405,249,"7150 PLACID STREET, LAS VEGAS, NV, 89119","Match","Exact","7150 PLACID ST, LAS VEGAS, NV, 89119",201965204,"L"
828250,"7150 PONY CART DRIVE","CHESTERFEILD","VA",23838,37.483814308,-77.525848309,250,"7150 PONY CART DRIVE, CHESTERFEILD, VA, 23838","Match","Non_Exact","7150 PONY CART DR, NORTH CHESTERFIELD, VA, 23225",201567577,"L"
828251,"7150 RAGLAND ROAD LOT 34","CINCINNATI","OH",45244,39.1147292520001,-84.3538425579999,251,"7150 RAGLAND ROAD LOT 34, CINCINNATI, OH, 45244","Match","Exact","7150 RAGLAND RD, CINCINNATI, OH, 45244",103970689,"L"
828252,"7150 RED LION FIVE POINTS RD","SPRINGBORO","OH",45066,39.5446776210001,-84.214680062,252,"7150 RED LION FIVE POINTS RD, SPRINGBORO, OH, 45066","Match","Exact","7150 RED LION 5 POINTS RD, SPRINGBORO, OH, 45066",652639697,"L"
828253,"7150 S WABASH AVE","CHICAGO","IL",60619,41.7646041350001,-87.623284746,253,"7150 S WABASH AVE, CHICAGO, IL, 60619","Match","Exact","7150 S WABASH AVE, CHICAGO, IL, 60619",111772274,"R"
828254,"7150 SAN MATEO BLVD SUITE 187","DALLAS","TX",75223,32.8070003170001,-96.736268846,254,"7150 SAN MATEO BLVD SUITE 187, DALLAS, TX, 75223","Match","Exact","7150 SAN MATEO BLVD, DALLAS, TX, 75223",103231483,"L"
828255,"7150 SEAMAN RD","OREGON","OH",43616,41.6528155670001,-83.3777113639999,255,"7150 SEAMAN RD, OREGON, OH, 43616","Match","Non_Exact","7150 SEAMAN ST, OREGON, OH, 43616",648789860,"R"
828256,"7150 SOCIETY HILL ROAD","AUBURN","AL",36830,32.56300055,-85.4213219009999,256,"7150 SOCIETY HILL ROAD, AUBURN, AL, 36830","Match","Exact","7150 SOCIETY HILL RD, AUBURN, AL, 36830",651425287,"L"
828257,"7150 SOUTH MICHIGAN","CHICAGO","IL",60619,41.7646545000001,-87.62167506,257,"7150 SOUTH MICHIGAN, CHICAGO, IL, 60619","Match","Non_Exact","7150 S MICHIGAN AVE, CHICAGO, IL, 60619",111772298,"R"
828258,"7150 T","CINCINNATI","OH",45244,NA,NA,258,"7150 T, CINCINNATI, OH, 45244","No_Match",NA,NA,NA,NA
828259,"7150 TAMPA AVENUE","RESEDA","CA",91335,34.1999819960001,-118.553506439,259,"7150 TAMPA AVENUE, RESEDA, CA, 91335","Match","Exact","7150 TAMPA AVE, RESEDA, CA, 91335",141554186,"R"
828260,"7150 TIPPIN AVE UNIT 10601","PENSACOLA","FL",32524,30.4979305090001,-87.196488502,260,"7150 TIPPIN AVE UNIT 10601, PENSACOLA, FL, 32524","Match","Non_Exact","7150 TIPPIN AVE, PENSACOLA, FL, 32504",93218571,"R"
828261,"7150 VALHALLA RANCH DR","PERRY","FL",32348,NA,NA,261,"7150 VALHALLA RANCH DR, PERRY, FL, 32348","No_Match",NA,NA,NA,NA
828262,"7150 W CATHEDRAL VALLEY RD","ASH FORK","AZ",86320,NA,NA,262,"7150 W CATHEDRAL VALLEY RD, ASH FORK, AZ, 86320","No_Match",NA,NA,NA,NA
828263,"7150 WARWICK DR","YPSILANTI","MI",48197,42.1744608220001,-83.616420209,263,"7150 WARWICK DR, YPSILANTI, MI, 48197","Match","Exact","7150 WARWICK DR, YPSILANTI, MI, 48197",619078917,"R"
828264,"7151  NW  45TH   CT","LAUDERHILL","FL",33319,26.181144137,-80.245119297,264,"7151  NW  45TH   CT, LAUDERHILL, FL, 33319","Match","Exact","7151 NW 45TH CT, LAUDERHILL, FL, 33319",114702970,"L"
828265,"7151 BEECH RIDGE TRAIL","TALLAHASSEE","FL",32312,30.5672444510001,-84.215840032,265,"7151 BEECH RIDGE TRAIL, TALLAHASSEE, FL, 32312","Match","Exact","7151 BEECH RIDGE TRL, TALLAHASSEE, FL, 32312",82900038,"R"
828266,"7151 BIRCH TREE PLACE","FONTANA","CA",92336,34.123915895,-117.47039625,266,"7151 BIRCH TREE PLACE, FONTANA, CA, 92336","Match","Exact","7151 BIRCH TREE PL, FONTANA, CA, 92336",145229834,"L"
828267,"7151 BLUFF RIDGE ROAD","INDIANAPOLIS","IN",46178,NA,NA,267,"7151 BLUFF RIDGE ROAD, INDIANAPOLIS, IN, 46178","No_Match",NA,NA,NA,NA
828268,"7151 BLUFFRIDGE BLVD","INDIANAPOLIS","IN",46278,39.878221932,-86.287170991,268,"7151 BLUFFRIDGE BLVD, INDIANAPOLIS, IN, 46278","Match","Exact","7151 BLUFFRIDGE BLVD, INDIANAPOLIS, IN, 46278",108027870,"L"
828269,"7151 BON VILLA CIRCLE","LA PALMA","CA",90623,33.8567112010001,-118.03841347,269,"7151 BON VILLA CIRCLE, LA PALMA, CA, 90623","Match","Exact","7151 BON VILLA CIR, LA PALMA, CA, 90623",143998298,"R"
828270,"7151 E 25TH PL","YUMA","AZ",85365,32.6818741490001,-114.511720493,270,"7151 E 25TH PL, YUMA, AZ, 85365","Match","Exact","7151 E 25TH PL, YUMA, AZ, 85365",129653226,"L"
828271,"7151 LAKE LUCERO LOOP","LAS CRUCES","NM",88011,32.2978720410001,-106.680377718,271,"7151 LAKE LUCERO LOOP, LAS CRUCES, NM, 88011","Match","Exact","7151 LAKE LUCERO LOOP, LAS CRUCES, NM, 88011",641472008,"L"
828272,"7151 MONTEREY STREET","LA VERNE","CA",91750,34.1444774080001,-117.766140415,272,"7151 MONTEREY STREET, LA VERNE, CA, 91750","Match","Exact","7151 MONTEREY ST, LA VERNE, CA, 91750",141718548,"L"
828273,"7151 MONTEVIDEO ROAD","JESSUP","MD",20794,39.173262449,-76.775818546,273,"7151 MONTEVIDEO ROAD, JESSUP, MD, 20794","Match","Exact","7151 MONTEVIDEO RD, JESSUP, MD, 20794",158963400,"L"
828274,"7151 N LEMON ROCK PLACE","TUCSON","AR",85718,NA,NA,274,"7151 N LEMON ROCK PLACE, TUCSON, AR, 85718","No_Match",NA,NA,NA,NA
828275,"7151 NADIR HOMES 33-20","ST THOMAS","VI",802,NA,NA,275,"7151 NADIR HOMES 33-20, ST THOMAS, VI, 802","No_Match",NA,NA,NA,NA
828276,"7151 NOVA SCOTIA DRIVE","PORT RICHEY","FL",34668,28.2848067900001,-82.6951633,276,"7151 NOVA SCOTIA DRIVE, PORT RICHEY, FL, 34668","Match","Exact","7151 NOVA SCOTIA DR, PORT RICHEY, FL, 34668",86362205,"R"
828277,"7151 O KELLY CHAPEL RD SUITE 229","CARY","NC",27519,35.845755511,-78.887046873,277,"7151 O KELLY CHAPEL RD SUITE 229, CARY, NC, 27519","Match","Non_Exact","7151 OKELLY CHAPEL RD, CARY, NC, 27519",648949695,"L"
828278,"7151 OFFICE CITY DRIVE STE 110","HOUSTON","TX",77087,29.700285679,-95.290053547,278,"7151 OFFICE CITY DRIVE STE 110, HOUSTON, TX, 77087","Match","Non_Exact","7151 OFFICE CITY DR, HOUSTON, TX, 77012",96610767,"L"
828279,"7151 OKELLY CHAPEL RD NUM 130","CARY","NC",27519,35.845755511,-78.887046873,279,"7151 OKELLY CHAPEL RD NUM 130, CARY, NC, 27519","Match","Exact","7151 OKELLY CHAPEL RD, CARY, NC, 27519",648949695,"L"
828280,"7151 S DURANGO DR UNIT 106","LAS VEGAS","NV",89113,36.058187294,-115.279221845,280,"7151 S DURANGO DR UNIT 106, LAS VEGAS, NV, 89113","Match","Exact","7151 DURANGO DR, LAS VEGAS, NV, 89113",627470117,"R"
828281,"7151 SPRINGBORO PIKE","DAYTON","OH",45449,39.648792766,-84.224174911,281,"7151 SPRINGBORO PIKE, DAYTON, OH, 45449","Match","Exact","7151 SPRINGBORO PIKE, DAYTON, OH, 45449",627921032,"R"
828282,"7151 W VAN GORDER DR","WASILLA","AK",99654,61.536224271,-149.629493241,282,"7151 W VAN GORDER DR, WASILLA, AK, 99654","Match","Non_Exact","7151 VAN GORDER DR, WASILLA, AK, 99623",191084063,"R"
828283,"7151 WEST STATE HWY 4","BEATRICE","NE",68310,40.285499015,-96.818889542,283,"7151 WEST STATE HWY 4, BEATRICE, NE, 68310","Match","Non_Exact","7151 STATE HWY 4, BEATRICE, NE, 68310",11635038,"L"
828284,"7151 WINDBURY LANE","FLINT","MI",48507,42.92443259,-83.702117045,284,"7151 WINDBURY LANE, FLINT, MI, 48507","Match","Exact","7151 WINDBURY LN, FLINT, MI, 48507",618353113,"L"
828285,"7151 WOODLAKE PARKWAY  LOT 126","SAN ANTONIO","TX",78218,NA,NA,285,"7151 WOODLAKE PARKWAY  LOT 126, SAN ANTONIO, TX, 78218","No_Match",NA,NA,NA,NA
828286,"7152 CLEARWATER DR","WILLIS","TX",77318,30.411173542,-95.572828253,286,"7152 CLEARWATER DR, WILLIS, TX, 77318","Match","Exact","7152 CLEARWATER DR, WILLIS, TX, 77318",79273255,"L"
828287,"7152 CREEKWATER RD","CENTERVILLE","OH",45459,39.64078147,-84.218810766,287,"7152 CREEKWATER RD, CENTERVILLE, OH, 45459","Match","Non_Exact","7152 CREEK WATER DR, CENTERVILLE, OH, 45459",143600422,"R"
828288,"7152 EAGLE RD","INDIANAPOLIS","IN",46278,39.8682384750001,-86.326825003,288,"7152 EAGLE RD, INDIANAPOLIS, IN, 46278","Match","Exact","7152 EAGLE RD, INDIANAPOLIS, IN, 46278",89202483,"L"
828289,"7152 FLORA LAM STREET","LAS VEGAS","NV",89166,36.2912464550001,-115.332729518,289,"7152 FLORA LAM STREET, LAS VEGAS, NV, 89166","Match","Exact","7152 FLORA LAM ST, LAS VEGAS, NV, 89166",651281192,"L"
828290,"7152 HIDDEN VALLEY DRIVE","LAMBERTVILLE","MI",48144,41.744192782,-83.619691903,290,"7152 HIDDEN VALLEY DRIVE, LAMBERTVILLE, MI, 48144","Match","Exact","7152 HIDDEN VALLEY DR, LAMBERTVILLE, MI, 48144",40498093,"L"
828291,"7152 IRONWOOD DR","ORLANDO","FL",32818,28.559694533,-81.482677334,291,"7152 IRONWOOD DR, ORLANDO, FL, 32818","Match","Exact","7152 IRONWOOD DR, ORLANDO, FL, 32818",94342211,"L"
828292,"7152 JOYCE LANE","THEODORE","AL",36582,30.5434224590001,-88.273512349,292,"7152 JOYCE LANE, THEODORE, AL, 36582","Match","Exact","7152 JOYCE LN, THEODORE, AL, 36582",61946731,"R"
828293,"7152 KINGSBURY BOULEVARD","SAINT LOUIS","MO",63103,38.6546935220001,-90.3194636539999,293,"7152 KINGSBURY BOULEVARD, SAINT LOUIS, MO, 63103","Match","Non_Exact","7152 KINGSBURY BLVD, SAINT LOUIS, MO, 63130",100135865,"L"
828294,"7152 KNAPP NE","ADA","MI",49301,43.0078185730001,-85.4938162459999,294,"7152 KNAPP NE, ADA, MI, 49301","Match","Non_Exact","7152 KNAPP ST NE, ADA, MI, 49301",12479396,"R"
828295,"7152 LAKEVIEW DR","GULF SHORES","AL",36542,30.328262211,-87.67743768,295,"7152 LAKEVIEW DR, GULF SHORES, AL, 36542","Match","Non_Exact","7152 LAKE VIEW DR, GULF SHORES, AL, 36542",131718246,"R"
828296,"7152 MARLIN ST","GASTONIA","NC",28056,35.2190579190001,-81.0791939,296,"7152 MARLIN ST, GASTONIA, NC, 28056","Match","Exact","7152 MARLIN ST, GASTONIA, NC, 28056",70420714,"L"
828297,"7152 MILL CREEK ROAD","THE DALLES","OR",97058,45.5449667830001,-121.32310689,297,"7152 MILL CREEK ROAD, THE DALLES, OR, 97058","Match","Exact","7152 MILL CREEK RD, THE DALLES, OR, 97058",611142062,"R"
828298,"7152 MUSTANG RIM DRIVE","COLORADO SPG","CO",80923,38.92909847,-104.687182659,298,"7152 MUSTANG RIM DRIVE, COLORADO SPG, CO, 80923","Match","Non_Exact","7152 MUSTANG RIM DR, COLORADO SPRINGS, CO, 80923",643505226,"L"
828299,"7152 N 85TH ST","OMAHA","NE",68122,41.324169711,-96.0437859789999,299,"7152 N 85TH ST, OMAHA, NE, 68122","Match","Exact","7152 N 85TH ST, OMAHA, NE, 68122",117000735,"L"
828300,"7152 N DELAWARE AVE","PORTLAND","OR",97217,45.5748567850001,-122.692447068,300,"7152 N DELAWARE AVE, PORTLAND, OR, 97217","Match","Exact","7152 N DELAWARE AVE, PORTLAND, OR, 97217",157495479,"R"
828301,"7152 N MOHICAN DR","EAGLE MOUNTAIN","UT",84005,40.3495574080001,-111.967761566,301,"7152 N MOHICAN DR, EAGLE MOUNTAIN, UT, 84005","Match","Exact","7152 MOHICAN DR, EAGLE MOUNTAIN, UT, 84005",629771770,"R"
828302,"7152 TIMBERVIEW DRIVE","DUBLIN","OH",43017,40.1129478070001,-83.128975555,302,"7152 TIMBERVIEW DRIVE, DUBLIN, OH, 43017","Match","Exact","7152 TIMBERVIEW DR, DUBLIN, OH, 43017",218696320,"L"
828303,"7152 VAL BROOK LANE","SAINT LOUIS","MO",63123,38.5629941130001,-90.3371573749999,303,"7152 VAL BROOK LANE, SAINT LOUIS, MO, 63123","Match","Exact","7152 VAL BROOK LN, SAINT LOUIS, MO, 63123",100141789,"L"
828304,"7153 10TH STREET NORTH","OAKDALE","MN",55128,NA,NA,304,"7153 10TH STREET NORTH, OAKDALE, MN, 55128","No_Match",NA,NA,NA,NA
828305,"7153 AUTUMN RIDGE LANE","MECHANICSVILLE","VA",23111,37.5975823430001,-77.3337387449999,305,"7153 AUTUMN RIDGE LANE, MECHANICSVILLE, VA, 23111","Match","Exact","7153 AUTUMN RIDGE LN, MECHANICSVILLE, VA, 23111",84973785,"R"
828306,"7153 E SUMMIT TRAIL ST","MESA","AZ",85207,33.493335288,-111.676404469,306,"7153 E SUMMIT TRAIL ST, MESA, AZ, 85207","Match","Exact","7153 E SUMMIT TRAIL ST, MESA, AZ, 85207",243963898,"R"
828307,"7153 FENTON RD","BRISTOLVILLE","OH",44402,41.411143892,-80.875264704,307,"7153 FENTON RD, BRISTOLVILLE, OH, 44402","Match","Non_Exact","7153 FENTON RD NW, BRISTOLVILLE, OH, 44402",117400761,"R"
828308,"7153 FORTHUN RD","BAXTER","MN",56425,46.347709937,-94.253340881,308,"7153 FORTHUN RD, BAXTER, MN, 56425","Match","Non_Exact","7153 FORTHUN RD S, BAXTER, MN, 56425",611816213,"L"
828309,"7153 KENDRICK COURT","HAMILTON","OH",45011,39.381838531,-84.493532379,309,"7153 KENDRICK COURT, HAMILTON, OH, 45011","Match","Exact","7153 KENDRICK CT, HAMILTON, OH, 45011",113819089,"R"
828310,"7153 LYNDAM HILL CIR","LORTON","VA",22079,38.713082763,-77.19062553,310,"7153 LYNDAM HILL CIR, LORTON, VA, 22079","Match","Exact","7153 LYNDAM HILL CIR, LORTON, VA, 22079",646785768,"R"
828311,"7153 RAMPART WAY","PENSACOLA","FL",32505,30.4512718350001,-87.2741912669999,311,"7153 RAMPART WAY, PENSACOLA, FL, 32505","Match","Exact","7153 RAMPART WAY, PENSACOLA, FL, 32505",93250053,"R"
828312,"7153 ST ROAD 113","DANE","WI",53529,43.2504271700001,-89.471864795,312,"7153 ST ROAD 113, DANE, WI, 53529","Match","Exact","7153 STATE RD 113, DANE, WI, 53529",49456845,"L"
828313,"7153 VIRGINIA APT D","ST LOUIS","MO",63111,38.5528095820001,-90.2585142359999,313,"7153 VIRGINIA APT D, ST LOUIS, MO, 63111","Match","Non_Exact","7153 VIRGINIA AVE, SAINT LOUIS, MO, 63111",107603114,"R"
828314,"7153 W OAKLAND PARK BLVD","LAUDERHILL","FL",33313,26.1655281930001,-80.2439453,314,"7153 W OAKLAND PARK BLVD, LAUDERHILL, FL, 33313","Match","Exact","7153 W OAKLAND PARK BLVD, LAUDERHILL, FL, 33313",114703102,"R"
828315,"7153 WILSON ROAD","WEST PALM BEACH","FL",33413,NA,NA,315,"7153 WILSON ROAD, WEST PALM BEACH, FL, 33413","No_Match",NA,NA,NA,NA
828316,"7154 CAHABA VALLEY RD","BIRMINGHAM","AL",35242,33.422100207,-86.670578706,316,"7154 CAHABA VALLEY RD, BIRMINGHAM, AL, 35242","Match","Exact","7154 CAHABA VALLEY RD, BIRMINGHAM, AL, 35242",650450266,"L"
828317,"7154 CHILDERS AVE","LAS VEGAS","NV",89178,36.000731445,-115.249406956,317,"7154 CHILDERS AVE, LAS VEGAS, NV, 89178","Match","Non_Exact","7154 W CHILDERS AVE, LAS VEGAS, NV, 89178",626137989,"L"
828318,"7154 CRITTENDEN RD","SUFFOLK","VA",23432,36.87786542,-76.5366015669999,318,"7154 CRITTENDEN RD, SUFFOLK, VA, 23432","Match","Exact","7154 CRITTENDEN RD, SUFFOLK, VA, 23432",648196705,"R"
828319,"7154 DEERSVILLE EXT AVE SE","UHRICHSVILLE","OH",44683,NA,NA,319,"7154 DEERSVILLE EXT AVE SE, UHRICHSVILLE, OH, 44683","No_Match",NA,NA,NA,NA
828320,"7154 E JACKSON DR","NEW ORLEANS","LA",70117,NA,NA,320,"7154 E JACKSON DR, NEW ORLEANS, LA, 70117","No_Match",NA,NA,NA,NA
828321,"7154 GALLERY RIDGE","SAN ANTONIO","TX",78250,29.5065237060001,-98.6816225869999,321,"7154 GALLERY RIDGE, SAN ANTONIO, TX, 78250","Match","Exact","7154 GALLERY RIDGE, SAN ANTONIO, TX, 78250",101488691,"R"
828322,"7154 HANGING ROCK CT","DENVER","NC",28037,NA,NA,322,"7154 HANGING ROCK CT, DENVER, NC, 28037","No_Match",NA,NA,NA,NA
828323,"7154 LAFAYETTE ROAD","HOPKINSVILLE","KY",42240,36.77075997,-87.526665624,323,"7154 LAFAYETTE ROAD, HOPKINSVILLE, KY, 42240","Match","Exact","7154 LAFAYETTE RD, HOPKINSVILLE, KY, 42240",11278189,"R"
828324,"7154 MEADOW LANE","WARRENTON","VA",20187,38.7426393120001,-77.708375627,324,"7154 MEADOW LANE, WARRENTON, VA, 20187","Match","Exact","7154 MEADOW LN, WARRENTON, VA, 20187",146287001,"L"
828325,"7154 MT AIRY PLACE","PHILADELPHIA","PA",19119,40.044761055,-75.20627455,325,"7154 MT AIRY PLACE, PHILADELPHIA, PA, 19119","Match","Exact","7154 MOUNT AIRY PL, PHILADELPHIA, PA, 19119",131394288,"R"
828326,"7154 N UNIVERSITY DRIVE 186","TAMARAC","FL",33321,26.2119574990001,-80.252376102,326,"7154 N UNIVERSITY DRIVE 186, TAMARAC, FL, 33321","Match","Non_Exact","7154 N UNIVERSITY DR, TAMARAC, FL, 33321",114702376,"L"
828327,"7154 PRESLEY ROAD","LANHAM","MD",20706,38.9869618750001,-76.847590584,327,"7154 PRESLEY ROAD, LANHAM, MD, 20706","Match","Exact","7154 PRESLEY RD, LANHAM, MD, 20706",76310204,"L"
828328,"7154 RADBOURNE ROAD","UPPER DARBY","PA",19082,39.9482643330001,-75.258548548,328,"7154 RADBOURNE ROAD, UPPER DARBY, PA, 19082","Match","Exact","7154 RADBOURNE RD, UPPER DARBY, PA, 19082",134878504,"L"
828329,"7154 RIVER PL CT","COLLEGE STATION","TX",77845,NA,NA,329,"7154 RIVER PL CT, COLLEGE STATION, TX, 77845","No_Match",NA,NA,NA,NA
828330,"7154 ROBINWOOD LANE","GATES MILLS","OH",44040,41.5075979430001,-81.421434195,330,"7154 ROBINWOOD LANE, GATES MILLS, OH, 44040","Match","Exact","7154 ROBINWOOD LN, GATES MILLS, OH, 44040",624941174,"L"
828331,"7154 S ARTESIAN AVE","CHICAGO","IL",60629,41.7634667290001,-87.684436777,331,"7154 S ARTESIAN AVE, CHICAGO, IL, 60629","Match","Exact","7154 S ARTESIAN AVE, CHICAGO, IL, 60629",605310314,"R"
828332,"7154 SE BLUEBIRD CIRCLE","HOBE SOUND","FL",33455,27.1022060780001,-80.1606630649999,332,"7154 SE BLUEBIRD CIRCLE, HOBE SOUND, FL, 33455","Match","Exact","7154 SE BLUEBIRD CIR, HOBE SOUND, FL, 33455",120412107,"R"
828333,"7154 SNOW HILL ROAD","SALISBURY","MD",21804,38.25515304,-75.500330769,333,"7154 SNOW HILL ROAD, SALISBURY, MD, 21804","Match","Exact","7154 SNOW HILL RD, SALISBURY, MD, 21804",114523532,"R"
828334,"7154 SNOWY BIRCH WAY","SACRAMENTO","CA",95823,38.4587435920001,-121.421140459,334,"7154 SNOWY BIRCH WAY, SACRAMENTO, CA, 95823","Match","Exact","7154 SNOWY BIRCH WAY, SACRAMENTO, CA, 95823",133404245,"R"
828335,"7154 STILLWATER COURT","FT WORTH","TX",76137,32.870586114,-97.270658124,335,"7154 STILLWATER COURT, FT WORTH, TX, 76137","Match","Exact","7154 STILLWATER CT, FORT WORTH, TX, 76137",102086921,"R"
828336,"7154 TILLMAN ROAD","PORT GIBSON","MS",39150,31.8696258250001,-90.9261131709999,336,"7154 TILLMAN ROAD, PORT GIBSON, MS, 39150","Match","Exact","7154 TILLMAN RD, PORT GIBSON, MS, 39150",65140682,"L"
828337,"7154 UPPER 136TH STREET","APPLE VALLEY","MN",55124,44.750481999,-93.210402401,337,"7154 UPPER 136TH STREET, APPLE VALLEY, MN, 55124","Match","Non_Exact","7154 UPPER 136TH ST W, APPLE VALLEY, MN, 55124",37932773,"R"
828338,"7154 W CRESTWOOD DR","DELPHI","IN",46923,40.575169358,-86.661078989,338,"7154 W CRESTWOOD DR, DELPHI, IN, 46923","Match","Exact","7154 W CRESTWOOD DR, DELPHI, IN, 46923",640106207,"L"
828339,"7154 W STATE ST - 281","BOISE","ID",83714,43.667393502,-116.27761679,339,"7154 W STATE ST - 281, BOISE, ID, 83714","Match","Non_Exact","7154 W STATE ST, BOISE, ID, 83714",648157084,"R"
828340,"7154 W STATE ST NUM 393","BOISE","ID",83714,43.667393502,-116.27761679,340,"7154 W STATE ST NUM 393, BOISE, ID, 83714","Match","Non_Exact","7154 W STATE ST, BOISE, ID, 83714",648157084,"R"
828341,"7154 W STATE ST STE 369","BOISE","ID",83714,43.667393502,-116.27761679,341,"7154 W STATE ST STE 369, BOISE, ID, 83714","Match","Non_Exact","7154 W STATE ST, BOISE, ID, 83714",648157084,"R"
828342,"7154 W STATE STREET NUM 393","BOISE","ID",83714,43.667393502,-116.27761679,342,"7154 W STATE STREET NUM 393, BOISE, ID, 83714","Match","Non_Exact","7154 W STATE ST, BOISE, ID, 83714",648157084,"R"
828343,"7154 YOUNGSTOWN SALEM ROAD","CANFIELD","OH",44406,41.0150756790001,-80.776659707,343,"7154 YOUNGSTOWN SALEM ROAD, CANFIELD, OH, 44406","Match","Exact","7154 YOUNGSTOWN SALEM RD, CANFIELD, OH, 44406",64608263,"R"
828344,"7155 164TH AVE NE","NEW LONDON","MN",56273,45.2824603030001,-94.946420201,344,"7155 164TH AVE NE, NEW LONDON, MN, 56273","Match","Exact","7155 164TH AVE NE, NEW LONDON, MN, 56273",36719713,"L"
828345,"7155 AARONWAY DRIVE","WEST BLOOMFIELD","MI",48324,42.5956189510001,-83.427104495,345,"7155 AARONWAY DRIVE, WEST BLOOMFIELD, MI, 48324","Match","Exact","7155 AARONWAY DR, W BLOOMFIELD, MI, 48324",69792327,"L"
828346,"7155 BASIL WESTERN RD","CANAL WINCHESTER","OH",43110,39.840876419,-82.7279186819999,346,"7155 BASIL WESTERN RD, CANAL WINCHESTER, OH, 43110","Match","Exact","7155 BASIL WESTERN RD, CANAL WINCHESTER, OH, 43110",37217815,"L"
828347,"7155 BELLE POINTE DR","BELLEVILLE","MI",48111,42.2507188540001,-83.4837239299999,347,"7155 BELLE POINTE DR, BELLEVILLE, MI, 48111","Match","Exact","7155 BELLE POINTE DR, BELLEVILLE, MI, 48111",95723966,"R"
828348,"7155 BEULAH AVENUE","ST LOUIS","MO",63136,38.7075103550001,-90.2738791959999,348,"7155 BEULAH AVENUE, ST LOUIS, MO, 63136","Match","Exact","7155 BEULAH AVE, SAINT LOUIS, MO, 63136",642197124,"R"
828349,"7155 CARIBOU COURT","SAN DIEGO","CA",92129,32.960275817,-117.163779694,349,"7155 CARIBOU COURT, SAN DIEGO, CA, 92129","Match","Exact","7155 CARIBOU CT, SAN DIEGO, CA, 92129",619631021,"R"
828350,"7155 CELOME CT","SAN DIEGO","CA",92129,32.9379163950001,-117.166831512,350,"7155 CELOME CT, SAN DIEGO, CA, 92129","Match","Exact","7155 CELOME CT, SAN DIEGO, CA, 92129",195391185,"L"
828351,"7155 CHURCH AVE","POTTS CAMP","MS",38659,34.642019798,-89.301025044,351,"7155 CHURCH AVE, POTTS CAMP, MS, 38659","Match","Exact","7155 CHURCH AVE, POTTS CAMP, MS, 38659",647360784,"R"
828352,"7155 COOPER DRIVE APT B","LEWIS MCCHORD","WA",98433,47.1035133780001,-122.5773664,352,"7155 COOPER DRIVE APT B, LEWIS MCCHORD, WA, 98433","Match","Exact","7155 COOPER DR, LEWIS MCCHORD, WA, 98433",641608368,"L"
828353,"7155 FOREST MERE DR","RIVERVIEW","FL",33578,27.8785717650001,-82.363446591,353,"7155 FOREST MERE DR, RIVERVIEW, FL, 33578","Match","Exact","7155 FOREST MERE DR, RIVERVIEW, FL, 33578",633887245,"L"
828354,"7155 HADES CHURCH ROAD","CHAMBERSBURG","PA",17202,39.833445651,-77.62944212,354,"7155 HADES CHURCH ROAD, CHAMBERSBURG, PA, 17202","Match","Exact","7155 HADES CHURCH RD, CHAMBERSBURG, PA, 17202",616344263,"L"
828355,"7155 MARLBOROUGH TERRACE","BERKELEY","CA",94705,37.8621346210001,-122.22390389,355,"7155 MARLBOROUGH TERRACE, BERKELEY, CA, 94705","Match","Exact","7155 MARLBOROUGH TER, BERKELEY, CA, 94705",652225314,"L"
828356,"7155 NO RIVER RD","SOUTH CHARLESTON","OH",45368,39.8161499070001,-83.753572525,356,"7155 NO RIVER RD, SOUTH CHARLESTON, OH, 45368","Match","Exact","7155 N RIVER RD, S CHARLESTON, OH, 45368",652703770,"R"
828357,"7155 OAKRIDGE DRIVE","SAN ANTONIO","TX",78229,29.4991107720001,-98.558267711,357,"7155 OAKRIDGE DRIVE, SAN ANTONIO, TX, 78229","Match","Exact","7155 OAKRIDGE DR, SAN ANTONIO, TX, 78229",101491880,"L"
828358,"7155 PENDALE CIRCLE","PENDLETON","NY",14120,43.0795213980001,-78.757367571,358,"7155 PENDALE CIRCLE, PENDLETON, NY, 14120","Match","Non_Exact","7155 PENDALE CIR, N TONAWANDA, NY, 14120",637609169,"L"
828359,"7155 RAMSGATE AVE APT 107","LOS ANGELES","CA",90045,33.9723281280001,-118.374085688,359,"7155 RAMSGATE AVE APT 107, LOS ANGELES, CA, 90045","Match","Exact","7155 RAMSGATE AVE, LOS ANGELES, CA, 90045",640413575,"R"
828360,"7155 RAMSGATE AVE APT 9","LOS ANGELES","CA",90045,33.9723281280001,-118.374085688,360,"7155 RAMSGATE AVE APT 9, LOS ANGELES, CA, 90045","Match","Exact","7155 RAMSGATE AVE, LOS ANGELES, CA, 90045",640413575,"R"
828361,"7155 REGENTS PARK BLVD","TOLEDO","OH",43617,41.66623301,-83.714322609,361,"7155 REGENTS PARK BLVD, TOLEDO, OH, 43617","Match","Exact","7155 REGENTS PARK BLVD, TOLEDO, OH, 43617",33957489,"L"
828362,"7155 ROSWELL RD","SANDY SPRINGS","GA",30328,33.9501664160001,-84.3691282949999,362,"7155 ROSWELL RD, SANDY SPRINGS, GA, 30328","Match","Exact","7155 ROSWELL RD, SANDY SPRINGS, GA, 30328",17385886,"R"
828363,"7155 S EAST END","CHICAGO","IL",60649,41.7650389610001,-87.583638725,363,"7155 S EAST END, CHICAGO, IL, 60649","Match","Non_Exact","7155 S EAST END AVE, CHICAGO, IL, 60649",641753706,"L"
828364,"7155 SCARVAN RD","YUCCA VALLEY","CA",92284,34.1230446280001,-116.438088002,364,"7155 SCARVAN RD, YUCCA VALLEY, CA, 92284","Match","Exact","7155 SCARVAN RD, YUCCA VALLEY, CA, 92284",144628752,"R"
828365,"7155 SCARVAN ROAD","YUCCA VALLEY","CA",92284,34.1230446280001,-116.438088002,365,"7155 SCARVAN ROAD, YUCCA VALLEY, CA, 92284","Match","Exact","7155 SCARVAN RD, YUCCA VALLEY, CA, 92284",144628752,"R"
828366,"7155 SCHOMBURG RD","COLUMBUS","GA",31909,32.550585761,-84.905024333,366,"7155 SCHOMBURG RD, COLUMBUS, GA, 31909","Match","Exact","7155 SCHOMBURG RD, COLUMBUS, GA, 31909",98949269,"L"
828367,"7155 SPIKERUSH CT","BRADENTON","FL",34202,27.413240194,-82.424772398,367,"7155 SPIKERUSH CT, BRADENTON, FL, 34202","Match","Exact","7155 SPIKERUSH CT, BRADENTON, FL, 34202",16271406,"L"
828368,"7155 TALISMAN LANE","COLUMBIA","MD",21045,39.190784374,-76.839891983,368,"7155 TALISMAN LANE, COLUMBIA, MD, 21045","Match","Exact","7155 TALISMAN LN, COLUMBIA, MD, 21045",158946990,"L"
828369,"7155 TIMBER TRAIL LANE SOUTH","COTTAGE GROVE","MN",55016,44.850159712,-92.961442807,369,"7155 TIMBER TRAIL LANE SOUTH, COTTAGE GROVE, MN, 55016","Match","Exact","7155 TIMBER TRAIL LN S, COTTAGE GROVE, MN, 55016",646637561,"R"
828370,"7155 W CLIFTON AVE","LITTLETON","CO",80128,39.5693661870001,-105.076945191,370,"7155 W CLIFTON AVE, LITTLETON, CO, 80128","Match","Exact","7155 W CLIFTON AVE, LITTLETON, CO, 80128",640548529,"R"
828371,"7155 WILLIAM","TAYLOR","MI",48180,42.255592645,-83.2465635619999,371,"7155 WILLIAM, TAYLOR, MI, 48180","Match","Non_Exact","7155 WILLIAM ST, TAYLOR, MI, 48180",95445777,"L"
828372,"7156 BRADFORD WOODS WAY","INDIANAPOLIS","IN",46268,39.8834628710001,-86.226974366,372,"7156 BRADFORD WOODS WAY, INDIANAPOLIS, IN, 46268","Match","Exact","7156 BRADFORD WOODS WAY, INDIANAPOLIS, IN, 46268",108025260,"L"
828373,"7156 CODY DRIVE","WEST DES MOINES","IA",50266,41.5761415520001,-93.806826208,373,"7156 CODY DRIVE, WEST DES MOINES, IA, 50266","Match","Exact","7156 CODY DR, WEST DES MOINES, IA, 50266",617498253,"R"
828374,"7156 E OLD ROAD 30","PIERCETON","IN",46562,41.236016777,-85.703968754,374,"7156 E OLD ROAD 30, PIERCETON, IN, 46562","Match","Exact","7156 E OLD ROAD 30, PIERCETON, IN, 46562",7935650,"L"
828375,"7156 GLADE TRAIL","KALAMAZOO","MI",49009,42.218655015,-85.689551769,375,"7156 GLADE TRAIL, KALAMAZOO, MI, 49009","Match","Exact","7156 GLADE TRL, KALAMAZOO, MI, 49009",12224081,"R"
828376,"7156 IRONWOOD DRIVE","ORLANDO","FL",32818,28.559702515,-81.482956647,376,"7156 IRONWOOD DRIVE, ORLANDO, FL, 32818","Match","Exact","7156 IRONWOOD DR, ORLANDO, FL, 32818",94342211,"L"
828377,"7156 LARME AVE","ALLEN PARK","MI",48101,42.2562089800001,-83.2215276489999,377,"7156 LARME AVE, ALLEN PARK, MI, 48101","Match","Exact","7156 LARME AVE, ALLEN PARK, MI, 48101",95446795,"R"
828378,"7156 NORTH FENWICK AVENUE","PORTLAND","OR",97217,45.5748473560001,-122.685239285,378,"7156 NORTH FENWICK AVENUE, PORTLAND, OR, 97217","Match","Exact","7156 N FENWICK AVE, PORTLAND, OR, 97217",157495726,"R"
828379,"7156 PORT MORESBY","ROCKFORD","IL",61108,42.263607736,-88.97741781,379,"7156 PORT MORESBY, ROCKFORD, IL, 61108","Match","Non_Exact","7156 PORT MORESBY DR, ROCKFORD, IL, 61108",49264112,"L"
828380,"7156 PRINCETON AVE","ST LOUIS","MO",63130,38.6582259480001,-90.31948161,380,"7156 PRINCETON AVE, ST LOUIS, MO, 63130","Match","Exact","7156 PRINCETON AVE, SAINT LOUIS, MO, 63130",100134391,"L"
828381,"7156 RAVENS RUN","CINCINNATI","OH",45140,39.105981602,-84.356023517,381,"7156 RAVENS RUN, CINCINNATI, OH, 45140","Match","Non_Exact","7156 RAVENS RUN, CINCINNATI, OH, 45244",103958143,"R"
828382,"7156 RIGEL BEND SW","ATLANTA","GA",30331,33.691968031,-84.619457957,382,"7156 RIGEL BEND SW, ATLANTA, GA, 30331","Match","Exact","7156 RIGEL BEND SW, ATLANTA, GA, 30331",624153253,"R"
828383,"7156 S EBERHART AVE","CHICAGO","IL",60619,41.764713197,-87.612822336,383,"7156 S EBERHART AVE, CHICAGO, IL, 60619","Match","Exact","7156 S EBERHART AVE, CHICAGO, IL, 60619",111772530,"R"
828384,"7156 S VERBENA WAY","CENTENNIAL","CO",80112,39.5865518780001,-104.890384793,384,"7156 S VERBENA WAY, CENTENNIAL, CO, 80112","Match","Exact","7156 S VERBENA WAY, CENTENNIAL, CO, 80112",177346911,"L"
828385,"7156 SHADY OAKS DR","BARTLETT","TN",38133,35.212954435,-89.82482314,385,"7156 SHADY OAKS DR, BARTLETT, TN, 38133","Match","Exact","7156 SHADY OAKS DR, BARTLETT, TN, 38133",72963884,"L"
828386,"7156 SUNSET CT","MECHANICSVILLE","VA",23111,37.5919455040001,-77.347548714,386,"7156 SUNSET CT, MECHANICSVILLE, VA, 23111","Match","Exact","7156 SUNSET CT, MECHANICSVILLE, VA, 23111",84962627,"L"
828387,"7156 SUSANNAH DRIVE","REYNOLDSBURG","OH",43068,39.9235320390001,-82.805334366,387,"7156 SUSANNAH DRIVE, REYNOLDSBURG, OH, 43068","Match","Exact","7156 SUSANNAH DR, REYNOLDSBURG, OH, 43068",650427560,"R"
828388,"7156 WESTWIND STREET","WEEKI WACHEE","FL",34607,28.532361786,-82.631789624,388,"7156 WESTWIND STREET, WEEKI WACHEE, FL, 34607","Match","Exact","7156 WESTWIND ST, WEEKI WACHEE, FL, 34607",636360844,"R"
828389,"7156 WOODSON RD","RAYTOWN","MO",64133,38.9916160080001,-94.447553667,389,"7156 WOODSON RD, RAYTOWN, MO, 64133","Match","Exact","7156 WOODSON RD, RAYTOWN, MO, 64133",629856017,"R"
828390,"7156","ORLANDO","FL",32818,NA,NA,390,"7156, ORLANDO, FL, 32818","No_Match",NA,NA,NA,NA
828391,"71566 FAIRVIEW ROAD","ANITA","IA",50020,NA,NA,391,"71566 FAIRVIEW ROAD, ANITA, IA, 50020","No_Match",NA,NA,NA,NA
828392,"7157 17TH LANE NORTH","ST PETERSBURG","FL",33702,27.837095805,-82.657482696,392,"7157 17TH LANE NORTH, ST PETERSBURG, FL, 33702","Match","Exact","7157 17TH LN N, SAINT PETERSBURG, FL, 33702",124703011,"R"
828393,"7157 BLUEWATER DR","CLARKSTON","MI",48348,42.7410387640001,-83.465799813,393,"7157 BLUEWATER DR, CLARKSTON, MI, 48348","Match","Exact","7157 BLUEWATER DR, CLARKSTON, MI, 48348",636250312,"R"
828394,"7157 COUNTRY RUN PARKWAY","ORLANDO","FL",32818,28.598922556,-81.487338831,394,"7157 COUNTRY RUN PARKWAY, ORLANDO, FL, 32818","Match","Exact","7157 COUNTRY RUN PKWY, ORLANDO, FL, 32818",606137933,"R"
828395,"7157 FM 314","BEN WHEELER","TX",75754,32.4113112480001,-95.595322062,395,"7157 FM 314, BEN WHEELER, TX, 75754","Match","Exact","7157 FM 314, BEN WHEELER, TX, 75754",646842427,"R"
828396,"7157 GLENVIEW DR","SAN JOSE","CA",95120,37.2019114020001,-121.857065035,396,"7157 GLENVIEW DR, SAN JOSE, CA, 95120","Match","Exact","7157 GLENVIEW DR, SAN JOSE, CA, 95120",123018154,"R"
828397,"7157 HILLBOLDT RD","SEALY","TX",77474,NA,NA,397,"7157 HILLBOLDT RD, SEALY, TX, 77474","No_Match",NA,NA,NA,NA
828398,"7157 ILLINOIS AVE","BIRCH TREE","MO",65438,NA,NA,398,"7157 ILLINOIS AVE, BIRCH TREE, MO, 65438","No_Match",NA,NA,NA,NA
828399,"7157 KIOWA PEAK AVE","LAS VEGAS","NV",89179,35.9885618110001,-115.249128015,399,"7157 KIOWA PEAK AVE, LAS VEGAS, NV, 89179","Match","Exact","7157 KIOWA PEAK AVE, LAS VEGAS, NV, 89179",625228258,"R"
828400,"7157 PEACH ORCHARD LANE","MECHANICSVILLE","VA",23111,37.6019879360001,-77.3466162129999,400,"7157 PEACH ORCHARD LANE, MECHANICSVILLE, VA, 23111","Match","Exact","7157 PEACH ORCHARD LN, MECHANICSVILLE, VA, 23111",84962585,"R"
828401,"7157 PLACITA CT","GRAND RAPIDS","MI",49546,42.8981548030001,-85.490916423,401,"7157 PLACITA CT, GRAND RAPIDS, MI, 49546","Match","Non_Exact","7157 PLACITA CT SE, GRAND RAPIDS, MI, 49546",12440860,"R"
828402,"7157 TRESSEL WOOD DRIVE","CINCINNATI","OH",45248,39.1974925160001,-84.677672381,402,"7157 TRESSEL WOOD DRIVE, CINCINNATI, OH, 45248","Match","Exact","7157 TRESSEL WOOD DR, CINCINNATI, OH, 45248",617259629,"L"
828403,"71578 FLORIDA DRIVE","TWENTYNINE PALMS","CA",92277,34.1455618590001,-116.100296807,403,"71578 FLORIDA DRIVE, TWENTYNINE PALMS, CA, 92277","Match","Exact","71578 FLORIDA DR, TWENTYNINE PALMS, CA, 92277",614809668,"L"
828404,"71579 SCHROEDER ROAD","PENDLETON","OR",97801,45.6189844250001,-118.807393424,404,"71579 SCHROEDER ROAD, PENDLETON, OR, 97801","Match","Exact","71579 SCHROEDER RD, PENDLETON, OR, 97801",170408820,"R"
828405,"7158 AUDUBON DR","SPOKANE","WA",99208,47.7225594980001,-117.457406283,405,"7158 AUDUBON DR, SPOKANE, WA, 99208","Match","Non_Exact","7158 N AUDUBON DR, SPOKANE, WA, 99208",189867760,"R"
828406,"7158 CLAUDIA DR","COLUMBIA","SC",29223,34.0665894750001,-80.97364185,406,"7158 CLAUDIA DR, COLUMBIA, SC, 29223","Match","Exact","7158 CLAUDIA DR, COLUMBIA, SC, 29223",71823096,"R"
828407,"7158 E MAPLEBEND CT","MONTICELLO","IN",47960,NA,NA,407,"7158 E MAPLEBEND CT, MONTICELLO, IN, 47960","Tie",NA,NA,NA,NA
828408,"7158 EAGLE SPRINGS DRIVE","FAYETTE","NC",28314,NA,NA,408,"7158 EAGLE SPRINGS DRIVE, FAYETTE, NC, 28314","No_Match",NA,NA,NA,NA
828409,"7158 EAGLE SPRINGS DRIVE","HOPE MILLS","NC",28348,34.899274903,-78.8901030499999,409,"7158 EAGLE SPRINGS DRIVE, HOPE MILLS, NC, 28348","Match","Exact","7158 EAGLE SPRING DR, HOPE MILLS, NC, 28348",64218591,"L"
828410,"7158 FOCH RD","NEW ORLEANS","LA",70126,30.025749982,-90.0202032029999,410,"7158 FOCH RD, NEW ORLEANS, LA, 70126","Match","Exact","7158 FOCH RD, NEW ORLEANS, LA, 70126",191705314,"L"
828411,"7158 GALLERY COURT","GERMANTOWN","TN",38138,35.094779126,-89.82466578,411,"7158 GALLERY COURT, GERMANTOWN, TN, 38138","Match","Exact","7158 GALLERY CT, GERMANTOWN, TN, 38138",607445146,"L"
828412,"7158 GLEN TERRACE APT 1","SAN ANTONIO","TX",78239,29.5103898520001,-98.3452138009999,412,"7158 GLEN TERRACE APT 1, SAN ANTONIO, TX, 78239","Match","Exact","7158 GLEN TER, SAN ANTONIO, TX, 78239",101504164,"L"
828413,"7158 PEA RIDGE ROAD","BROOKVILLE","IN",47012,39.4724811890001,-84.938162306,413,"7158 PEA RIDGE ROAD, BROOKVILLE, IN, 47012","Match","Exact","7158 PEA RIDGE RD, BROOKVILLE, IN, 47012",33190291,"L"
828414,"7158 REDWOOD RETREAT ROAD","GILROY","CA",95020,37.0418492310001,-121.71683688,414,"7158 REDWOOD RETREAT ROAD, GILROY, CA, 95020","Match","Exact","7158 REDWOOD RETREAT RD, GILROY, CA, 95020",640646776,"L"
828415,"7158 RICHMOND","WATERFORD","MI",48327,NA,NA,415,"7158 RICHMOND, WATERFORD, MI, 48327","No_Match",NA,NA,NA,NA
828416,"7158 RIVER BIRCH ST","TIPP CITY","OH",45371,39.8882491320001,-84.10572751,416,"7158 RIVER BIRCH ST, TIPP CITY, OH, 45371","Match","Exact","7158 RIVER BIRCH ST, TIPP CITY, OH, 45371",648998193,"L"
828417,"7158 S CRANDON AVENUE","CHICAGO","IL",60649,41.7649869050001,-87.568931391,417,"7158 S CRANDON AVENUE, CHICAGO, IL, 60649","Match","Exact","7158 S CRANDON AVE, CHICAGO, IL, 60649",605536394,"R"
828418,"7158 S DEVILS LAKE DR","WEBSTER","WI",54893,45.9002242940001,-92.350963656,418,"7158 S DEVILS LAKE DR, WEBSTER, WI, 54893","Match","Exact","7158 S DEVILS LAKE DR, WEBSTER, WI, 54893",167457452,"R"
828419,"7158 S QUINCE ST","CENTENNIAL","CO",80112,39.5864748910001,-104.901648501,419,"7158 S QUINCE ST, CENTENNIAL, CO, 80112","Match","Exact","7158 S QUINCE ST, CENTENNIAL, CO, 80112",177346738,"L"
828420,"7158 WEST CIRCLE DR","DALLAS","TX",75214,32.842853254,-96.7327397179999,420,"7158 WEST CIRCLE DR, DALLAS, TX, 75214","Match","Exact","7158 W CIRCLE DR, DALLAS, TX, 75214",102919382,"R"
828421,"7158 WHIPPOORWILL LN","LINO LAKES","MN",55014,45.165155842,-93.1262562699999,421,"7158 WHIPPOORWILL LN, LINO LAKES, MN, 55014","Match","Exact","7158 WHIPPOORWILL LN, LINO LAKES, MN, 55014",97501528,"R"
828422,"7159 1ST ST COTTREVILLE","MARINE CITY","MI",48039,42.6849652280001,-82.508134605,422,"7159 1ST ST COTTREVILLE, MARINE CITY, MI, 48039","Match","Exact","7159 FIRST ST, MARINE CITY, MI, 48039",110989587,"R"
828423,"7159 COUNTY ROAD 9A","GARRETT,","IN",46738,41.2691337970001,-85.1455584029999,423,"7159 COUNTY ROAD 9A, GARRETT,, IN, 46738","Match","Exact","7159 CO RD 9A, GARRETT, IN, 46738",6514442,"R"
828424,"7159 CROW FOOT RD","TRAIL","OR",97541,42.649485451,-122.691983617,424,"7159 CROW FOOT RD, TRAIL, OR, 97541","Match","Non_Exact","7159 CROWFOOT RD, TRAIL, OR, 97541",635449220,"L"
828425,"7159 GUILLORY RD","ORANGE","TX",77632,NA,NA,425,"7159 GUILLORY RD, ORANGE, TX, 77632","No_Match",NA,NA,NA,NA
828426,"7159 KALLAND WAY","SUN PRAIRIE","WI",53590,43.2409077,-89.241506433,426,"7159 KALLAND WAY, SUN PRAIRIE, WI, 53590","Match","Exact","7159 KALLAND WAY, SUN PRAIRIE, WI, 53590",625194697,"R"
828427,"7159 LAFAYETTE AVENUE","FT WASHINGTON","PA",19034,40.134195784,-75.21793917,427,"7159 LAFAYETTE AVENUE, FT WASHINGTON, PA, 19034","Match","Exact","7159 LAFAYETTE AVE, FORT WASHINGTON, PA, 19034",638353784,"L"
828428,"7159 LODGE POLE DR SE","GRAND RAPIDS","MI",49548,42.833783763,-85.660422252,428,"7159 LODGE POLE DR SE, GRAND RAPIDS, MI, 49548","Match","Non_Exact","7159 LODGE POLE DR, GRAND RAPIDS, MI, 49548",12490741,"L"
828429,"7159 LODGE POLE DR","GRAND RAPIDS","MI",49508,42.833783763,-85.660422252,429,"7159 LODGE POLE DR, GRAND RAPIDS, MI, 49508","Match","Non_Exact","7159 LODGE POLE DR, GRAND RAPIDS, MI, 49548",12490741,"L"
828430,"7159 LODGE POLE DR","GRAND RAPIDS","MI",49548,42.833783763,-85.660422252,430,"7159 LODGE POLE DR, GRAND RAPIDS, MI, 49548","Match","Exact","7159 LODGE POLE DR, GRAND RAPIDS, MI, 49548",12490741,"L"
828431,"7159 OAK DR","POLAND","OH",44514,41.0134808270001,-80.606875698,431,"7159 OAK DR, POLAND, OH, 44514","Match","Exact","7159 OAK DR, POLAND, OH, 44514",64615988,"L"
828432,"7159 WEIL AVE","ST LOUIS","MO",63119,38.5874596310001,-90.31813305,432,"7159 WEIL AVE, ST LOUIS, MO, 63119","Match","Exact","7159 WEIL AVE, SAINT LOUIS, MO, 63119",640510417,"R"
828433,"71590 HOOVER LINE RD","IRON RIVER","WI",54847,46.6133188270001,-91.490388587,433,"71590 HOOVER LINE RD, IRON RIVER, WI, 54847","Match","Exact","71590 HOOVER LINE RD, IRON RIVER, WI, 54847",194293075,"L"
828434,"715A ACADEMY TER","LINDEN","NJ",7036,40.6310758980001,-74.273303987,434,"715A ACADEMY TER, LINDEN, NJ, 7036","Match","Exact","715 ACADEMY TER, LINDEN, NJ, 07036",60575504,"L"
828435,"716 1/2 N ARDMORE AVE","LOS ANGELES","CA",90029,34.08376151,-118.301600259,435,"716 1/2 N ARDMORE AVE, LOS ANGELES, CA, 90029","Match","Exact","716 N ARDMORE AVE, LOS ANGELES, CA, 90029",141603391,"R"
828436,"716 105TH ST SW","EVERETT","WA",98204,47.9027934980001,-122.243133349,436,"716 105TH ST SW, EVERETT, WA, 98204","Match","Exact","716 105TH ST SW, EVERETT, WA, 98204",645616871,"L"
828437,"716 11TH AVENUE","SALT LAKE CITY","UT",84103,40.7818806290001,-111.867928554,437,"716 11TH AVENUE, SALT LAKE CITY, UT, 84103","Match","Non_Exact","716 E 11TH AVE, SALT LAKE CITY, UT, 84103",176067814,"R"
828438,"716 13TH AVE SE","MINNEAPOLIS","MN",55414,44.9841900590001,-93.234626745,438,"716 13TH AVE SE, MINNEAPOLIS, MN, 55414","Match","Exact","716 13TH AVE SE, MINNEAPOLIS, MN, 55414",43836301,"R"
828439,"716 15TH AVE E","DICKINSON","ND",58601,46.8847034840001,-102.761456844,439,"716 15TH AVE E, DICKINSON, ND, 58601","Match","Exact","716 15TH AVE E, DICKINSON, ND, 58601",606314454,"L"
828440,"716 1ST ST NORTH","MINNEAPOLIS","MN",55401,44.9896945350001,-93.275155748,440,"716 1ST ST NORTH, MINNEAPOLIS, MN, 55401","Match","Exact","716 1ST ST N, MINNEAPOLIS, MN, 55401",43777463,"R"
828441,"716 26TH AVE E APT DOWNSTAIRS","SEATTLE","WA",98102,47.625326885,-122.298749221,441,"716 26TH AVE E APT DOWNSTAIRS, SEATTLE, WA, 98102","Match","Non_Exact","716 26TH AVE E, SEATTLE, WA, 98112",186587973,"R"
828442,"716 2ND AVE UNIT 7","SAN FRANCISCO","CA",94118,37.775265695,-122.459558008,442,"716 2ND AVE UNIT 7, SAN FRANCISCO, CA, 94118","Match","Exact","716 2ND AVE, SAN FRANCISCO, CA, 94118",192281936,"L"
828443,"716 2ND ST W","WILLISTON","ND",58801,48.1452076900001,-103.633621971,443,"716 2ND ST W, WILLISTON, ND, 58801","Match","Exact","716 2ND ST W, WILLISTON, ND, 58801",167738809,"R"
828444,"716 35TH STREET","SACRAMENTO","CA",95816,38.574229046,-121.458322938,444,"716 35TH STREET, SACRAMENTO, CA, 95816","Match","Exact","716 35TH ST, SACRAMENTO, CA, 95816",133325376,"R"
828445,"716 3RD AVE NE","ROSEAU","MN",56751,48.854197346,-95.760126424,445,"716 3RD AVE NE, ROSEAU, MN, 56751","Match","Exact","716 3RD AVE NE, ROSEAU, MN, 56751",653420340,"L"
828446,"716 3RD LN S","KIRKLAND","WA",98033,47.6729372130001,-122.193799039,446,"716 3RD LN S, KIRKLAND, WA, 98033","Match","Exact","716 3RD LN S, KIRKLAND, WA, 98033",650845211,"L"
828447,"716 4TH AVENUE APARTMENT 1","TROY","NY",12182,42.7796506460001,-73.672362614,447,"716 4TH AVENUE APARTMENT 1, TROY, NY, 12182","Match","Exact","716 4TH AVE, TROY, NY, 12182",35729800,"R"
828448,"716 4TH ST SW APT 3","ROANOKE","VA",24016,37.2673005880001,-79.948390455,448,"716 4TH ST SW APT 3, ROANOKE, VA, 24016","Match","Exact","716 4TH ST SW, ROANOKE, VA, 24016",62939577,"L"
828449,"716 51 PL","KENOSHA","WI",53140,42.5890236820001,-87.820705735,449,"716 51 PL, KENOSHA, WI, 53140","Match","Exact","716 51ST PL, KENOSHA, WI, 53140",79800524,"R"
828450,"716 5TH AVE APT 5","BROOKLYN","NY",11215,40.660479267,-73.99433504,450,"716 5TH AVE APT 5, BROOKLYN, NY, 11215","Match","Exact","716 5TH AVE, BROOKLYN, NY, 11215",59075750,"R"
828451,"716 6TH AVE","MIDDLETOWN","OH",45044,39.510607576,-84.412402121,451,"716 6TH AVE, MIDDLETOWN, OH, 45044","Match","Exact","716 6TH AVE, MIDDLETOWN, OH, 45044",113795381,"R"
828452,"716 8TH STREET","SNOHOMISH","WA",98290,47.921931086,-122.090959649,452,"716 8TH STREET, SNOHOMISH, WA, 98290","Match","Exact","716 8TH ST, SNOHOMISH, WA, 98290",187818998,"L"
828453,"716 9TH AVE SOUTH","EDMONDS","WA",98020,47.805095672,-122.366933246,453,"716 9TH AVE SOUTH, EDMONDS, WA, 98020","Match","Exact","716 9TH AVE S, EDMONDS, WA, 98020",187754693,"R"
828454,"716 ALBERTA CT","WENDELL","NC",27591,35.7906269010001,-78.373727182,454,"716 ALBERTA CT, WENDELL, NC, 27591","Match","Exact","716 ALBERTA CT, WENDELL, NC, 27591",625161503,"L"
828455,"716 AMBOIS DRIVE","CREVE COEUR","MO",63141,38.6744141930001,-90.484473425,455,"716 AMBOIS DRIVE, CREVE COEUR, MO, 63141","Match","Exact","716 AMBOIS DR, CREVE COEUR, MO, 63141",100173992,"R"
828456,"716 AMES AVENUE","PALO ALTO","CA",94303,37.4276719040001,-122.119321932,456,"716 AMES AVENUE, PALO ALTO, CA, 94303","Match","Exact","716 AMES AVE, PALO ALTO, CA, 94303",122951624,"R"
828457,"716 ANN ST","BEAUFORT","NC",28516,34.716386099,-76.661040433,457,"716 ANN ST, BEAUFORT, NC, 28516","Match","Exact","716 ANN ST, BEAUFORT, NC, 28516",33862120,"L"
828458,"716 ARAPAHOE RD UNIT B","BOULDER","CO",80302,40.012940497,-105.285300288,458,"716 ARAPAHOE RD UNIT B, BOULDER, CO, 80302","Match","Non_Exact","716 ARAPAHOE AVE, BOULDER, CO, 80302",188159519,"R"
828459,"716 ASHLEY CREEK CIRCLE","STONE MOUNTAIN","GA",30083,33.7946723160001,-84.210866459,459,"716 ASHLEY CREEK CIRCLE, STONE MOUNTAIN, GA, 30083","Match","Exact","716 ASHLEY CREEK CIR, STONE MOUNTAIN, GA, 30083",23399115,"R"
828460,"716 ASHLEY LANE","STONE MOUNTAIN","GA",30087,33.7715051230001,-84.1209784499999,460,"716 ASHLEY LANE, STONE MOUNTAIN, GA, 30087","Match","Exact","716 ASHLEY LN, STONE MOUNTAIN, GA, 30087",23394830,"R"
828461,"716 AUSTIN AVE","ALBION","MI",49224,42.2536816050001,-84.763170949,461,"716 AUSTIN AVE, ALBION, MI, 49224","Match","Exact","716 AUSTIN AVE, ALBION, MI, 49224",11706838,"R"
828462,"716 B 63RD AVE W","BRADENTON","FL",34207,27.429403592,-82.569541919,462,"716 B 63RD AVE W, BRADENTON, FL, 34207","Match","Exact","716 63RD AVE W, BRADENTON, FL, 34207",16239800,"L"
828463,"716 BAILEY ROAD","JEFFERSON","NH",3583,44.3982738190001,-71.5186516919999,463,"716 BAILEY ROAD, JEFFERSON, NH, 3583","Match","Exact","716 BAILEY RD, JEFFERSON, NH, 03583",624914605,"L"
828464,"716 BARLEY GREEN ST","WAKE FOREST","NC",27587,35.9592844150001,-78.4816228399999,464,"716 BARLEY GREEN ST, WAKE FOREST, NC, 27587","Match","Exact","716 BARLEY GREEN ST, WAKE FOREST, NC, 27587",627277741,"R"
828465,"716 BARLEY RIDGE COURT SOUTH","ST. PETERS","MO",63376,38.776794464,-90.659772652,465,"716 BARLEY RIDGE COURT SOUTH, ST. PETERS, MO, 63376","Match","Exact","716 BARLEY RIDGE CT S, SAINT PETERS, MO, 63376",605570695,"R"
828466,"716 BAY AVE","PANAMA CITY","FL",32401,30.160887399,-85.641805151,466,"716 BAY AVE, PANAMA CITY, FL, 32401","Match","Exact","716 BAY AVE, PANAMA CITY, FL, 32401",7030111,"R"
828467,"716 BAY DRIVE","STEVENSVILLE","MD",21666,38.8877305070001,-76.364046996,467,"716 BAY DRIVE, STEVENSVILLE, MD, 21666","Match","Exact","716 BAY DR, STEVENSVILLE, MD, 21666",68043441,"L"
828468,"716 BEACON STREET UNIT 590042","NEWTON","MA",2459,42.331024002,-71.188799203,468,"716 BEACON STREET UNIT 590042, NEWTON, MA, 2459","Match","Exact","716 BEACON ST, NEWTON, MA, 02459",86866644,"L"
828469,"716 BEECH DR","SENECA","SC",29678,34.674931121,-82.944067229,469,"716 BEECH DR, SENECA, SC, 29678","Match","Exact","716 BEECH DR, SENECA, SC, 29678",25645190,"L"
828470,"716 BENTON BLVD","KANSAS CITY","MO",64124,39.1040332650001,-94.5441469369999,470,"716 BENTON BLVD, KANSAS CITY, MO, 64124","Match","Exact","716 BENTON BLVD, KANSAS CITY, MO, 64124",91449289,"R"
828471,"716 BERN STREET","NEW BERN","NC",28560,35.1110586930001,-77.0460335179999,471,"716 BERN STREET, NEW BERN, NC, 28560","Match","Exact","716 BERN ST, NEW BERN, NC, 28560",34121799,"R"
828472,"716 BRIGHTON DRIVE","LINWOOD","NJ",8221,39.3553435200001,-74.574560245,472,"716 BRIGHTON DRIVE, LINWOOD, NJ, 8221","Match","Exact","716 BRIGHTON DR, LINWOOD, NJ, 08221",202483274,"L"
828473,"716 BROADWAY ST","NEW ORLEANS","LA",70118,29.93865713,-90.125812576,473,"716 BROADWAY ST, NEW ORLEANS, LA, 70118","Match","Exact","716 BROADWAY ST, NEW ORLEANS, LA, 70118",191701756,"L"
828474,"716 BROADWAY","NEW ORLEANS","LA",70118,29.93865713,-90.125812576,474,"716 BROADWAY, NEW ORLEANS, LA, 70118","Match","Non_Exact","716 BROADWAY ST, NEW ORLEANS, LA, 70118",191701756,"L"
828475,"716 BUCHANAN","GARY","IN",46402,41.59791369,-87.35330336,475,"716 BUCHANAN, GARY, IN, 46402","Match","Non_Exact","716 BUCHANAN ST, GARY, IN, 46402",98426109,"R"
828476,"716 BULLFROG LN","CONROE","TX",77384,30.1977937520001,-95.464565613,476,"716 BULLFROG LN, CONROE, TX, 77384","Match","Exact","716 BULLFROG LN, CONROE, TX, 77384",79317054,"L"
828477,"716 BUTTE ST","YREKA","CA",96097,41.7307999270001,-122.644616597,477,"716 BUTTE ST, YREKA, CA, 96097","Match","Exact","716 BUTTE ST, YREKA, CA, 96097",113226088,"L"
828478,"716 C RAPIDAN RIVER CT","CHESAPEAKE","VA",23320,NA,NA,478,"716 C RAPIDAN RIVER CT, CHESAPEAKE, VA, 23320","No_Match",NA,NA,NA,NA
828479,"716 C ST NE APT B","WASHINGTON","DC",20002,NA,NA,479,"716 C ST NE APT B, WASHINGTON, DC, 20002","No_Match",NA,NA,NA,NA
828480,"716 CALAMUS PALM PLACE","LAS VEGAS","NV",89011,36.067962386,-115.031928091,480,"716 CALAMUS PALM PLACE, LAS VEGAS, NV, 89011","Match","Non_Exact","716 CALAMUS PALM PL, HENDERSON, NV, 89011",638578360,"L"
828481,"716 CALLE ESTADO 3","MIRAMAR, PR","PR",907,18.452169355,-66.084076704,481,"716 CALLE ESTADO 3, MIRAMAR, PR, PR, 907","Match","Non_Exact","716 CLL ESTADO, MIRAMAR, PR, 00907",206605892,"R"
828482,"716 CAMIN CATALINA","SAN DIEGO","CA",92075,NA,NA,482,"716 CAMIN CATALINA, SAN DIEGO, CA, 92075","No_Match",NA,NA,NA,NA
828483,"716 CAMPERDOWN ROAD","TEANECK","NJ",7666,40.9029069860001,-74.02340744,483,"716 CAMPERDOWN ROAD, TEANECK, NJ, 7666","Match","Non_Exact","716 CAMPERDOWN AVE, TEANECK, NJ, 07666",64388503,"L"
828484,"716 CANAL SHORE DRIVE SW","LE CLAIRE","IA",52753,NA,NA,484,"716 CANAL SHORE DRIVE SW, LE CLAIRE, IA, 52753","No_Match",NA,NA,NA,NA
828485,"716 CARDINAL DR","HENDERSON","NC",27537,36.3221139120001,-78.3828038939999,485,"716 CARDINAL DR, HENDERSON, NC, 27537","Match","Non_Exact","716 CARDINAL DR, HENDERSON, NC, 27536",90273020,"L"
828486,"716 CAROLINA AVENUE","NORFOLK","VA",23508,36.8820603790001,-76.292487783,486,"716 CAROLINA AVENUE, NORFOLK, VA, 23508","Match","Exact","716 CAROLINA AVE, NORFOLK, VA, 23508",122132070,"R"
828487,"716 CASTLE CREEK DR","COPPELL","TX",75019,32.986513217,-96.965788486,487,"716 CASTLE CREEK DR, COPPELL, TX, 75019","Match","Exact","716 CASTLE CREEK DR, COPPELL, TX, 75019",102997589,"L"
828488,"716 CASTLETON DR","GREENCASTLE","IN",46135,39.6542706810001,-86.84497695,488,"716 CASTLETON DR, GREENCASTLE, IN, 46135","Match","Exact","716 CASTLETON DR, GREENCASTLE, IN, 46135",50104742,"R"
828489,"716 CASWELL RD","CHAPEL HILL","NC",27514,35.9335501250001,-79.0486345259999,489,"716 CASWELL RD, CHAPEL HILL, NC, 27514","Match","Exact","716 CASWELL RD, CHAPEL HILL, NC, 27514",72380106,"L"
828490,"716 CATFISH RD","RICHFIELD","NC",28137,35.6036072950001,-80.2456360589999,490,"716 CATFISH RD, RICHFIELD, NC, 28137","Match","Exact","716 CATFISH RD, RICHFIELD, NC, 28137",25288231,"L"
828491,"716 CAVE MILLE ROAD","BOWLING GREEN","KY",42104,36.95200291,-86.468571745,491,"716 CAVE MILLE ROAD, BOWLING GREEN, KY, 42104","Match","Non_Exact","716 CAVE MILL RD, BOWLING GREEN, KY, 42104",614171631,"R"
828492,"716 CENTENNIAL AVE","NEBRASKA CITY","NE",68410,40.682944037,-95.883337103,492,"716 CENTENNIAL AVE, NEBRASKA CITY, NE, 68410","Match","Exact","716 CENTENNIAL AVE, NEBRASKA CITY, NE, 68410",10411010,"R"
828493,"716 CENTRAL AVENUE","UNION BEACH","NJ",7735,40.443884817,-74.165425783,493,"716 CENTRAL AVENUE, UNION BEACH, NJ, 7735","Match","Exact","716 CENTRAL AVE, UNION BEACH, NJ, 07735",90475290,"R"
828494,"716 CHAD STREET","ITALY","TX",76651,32.193971317,-96.879847696,494,"716 CHAD STREET, ITALY, TX, 76651","Match","Exact","716 CHAD ST, ITALY, TX, 76651",629571789,"R"
828495,"716 CHARING CROSS","BALTIMORE","MD",21239,NA,NA,495,"716 CHARING CROSS, BALTIMORE, MD, 21239","No_Match",NA,NA,NA,NA
828496,"716 CHERRY ST","MINDEN","LA",71055,32.6036777460001,-93.285501929,496,"716 CHERRY ST, MINDEN, LA, 71055","Match","Exact","716 CHERRY ST, MINDEN, LA, 71055",73394197,"R"
828497,"716 CHERRYBEND RD","WILMINGTON","OH",45177,39.463016684,-83.71126996,497,"716 CHERRYBEND RD, WILMINGTON, OH, 45177","Match","Exact","716 CHERRYBEND RD, WILMINGTON, OH, 45177",146850261,"L"
828498,"716 CO RD 151","NEWVILLE","AL",36353,31.4194859560001,-85.412207037,498,"716 CO RD 151, NEWVILLE, AL, 36353","Match","Exact","716 CO RD 151, NEWVILLE, AL, 36353",623581175,"R"
828499,"716 COLONY LANE","FRANKFORT","IL",60423,41.4957299920001,-87.8100542289999,499,"716 COLONY LANE, FRANKFORT, IL, 60423","Match","Exact","716 COLONY LN, FRANKFORT, IL, 60423",111551212,"R"
828500,"716 COLORADO AVENUE","LOUISVILLE","KY",40208,38.21492334,-85.770222598,500,"716 COLORADO AVENUE, LOUISVILLE, KY, 40208","Match","Exact","716 COLORADO AVE, LOUISVILLE, KY, 40208",96844397,"L"
