"ID","Address","City","State","Zip","lat","long","id","input_address","match_indicator","match_type","matched_address","tiger_line_id","tiger_side"
833001,"7220 GARLAND AVENUE","TAKOMA PARK","MD",20912,38.9839815610001,-76.9933096519999,1,"7220 GARLAND AVENUE, TAKOMA PARK, MD, 20912","Match","Exact","7220 GARLAND AVE, TAKOMA PARK, MD, 20912",76302997,"L"
833002,"7220 GEER ROAD","HOWELL","MI",48855,42.700853475,-83.986093854,2,"7220 GEER ROAD, HOWELL, MI, 48855","Match","Exact","7220 GEER RD, HOWELL, MI, 48855",23574227,"R"
833003,"7220 GOUGH ST","BALTIMORE","MD",21224,39.2930873330001,-76.5258674309999,3,"7220 GOUGH ST, BALTIMORE, MD, 21224","Match","Exact","7220 GOUGH ST, BALTIMORE, MD, 21224",191487322,"L"
833004,"7220 HWY 6","DELEON","TX",76454,NA,NA,4,"7220 HWY 6, DELEON, TX, 76454","No_Match",NA,NA,NA,NA
833005,"7220 LAKE WILLOW","NEW ORLEANS","LA",70126,30.0326667480001,-90.0010044059999,5,"7220 LAKE WILLOW, NEW ORLEANS, LA, 70126","Match","Non_Exact","7220 LAKE WILLOW DR, NEW ORLEANS, LA, 70126",191720478,"L"
833006,"7220 LINDEN","PRAIRIE VILLAGE","KS",66208,38.998739185,-94.641422274,6,"7220 LINDEN, PRAIRIE VILLAGE, KS, 66208","Match","Non_Exact","7220 LINDEN ST, PRAIRIE VLG, KS, 66208",91278804,"R"
833007,"7220 LONG CANYON TRL","DALLAS","TX",75249,32.6410056020001,-96.950558529,7,"7220 LONG CANYON TRL, DALLAS, TX, 75249","Match","Exact","7220 LONG CANYON TRL, DALLAS, TX, 75249",102941564,"L"
833008,"7220 LOS PADRES TRAIL","FORT WORTH","TX",76137,32.8713682910001,-97.2745041329999,8,"7220 LOS PADRES TRAIL, FORT WORTH, TX, 76137","Match","Exact","7220 LOS PADRES TRL, FORT WORTH, TX, 76137",638656181,"R"
833009,"7220 MCCALLUM BLVD APT 1113","DALLAS","TX",75252,32.9879235820001,-96.778154746,9,"7220 MCCALLUM BLVD APT 1113, DALLAS, TX, 75252","Match","Exact","7220 MCCALLUM BLVD, DALLAS, TX, 75252",653857928,"R"
833010,"7220 MCCULLUM BLVD APT 1708","DESOTO","TX",75252,32.9879235820001,-96.778154746,10,"7220 MCCULLUM BLVD APT 1708, DESOTO, TX, 75252","Match","Non_Exact","7220 MCCALLUM BLVD, DALLAS, TX, 75252",653857928,"R"
833011,"7220 MOUNT TABOR RD","CUMMING","GA",30028,34.3281668130001,-84.180110794,11,"7220 MOUNT TABOR RD, CUMMING, GA, 30028","Match","Exact","7220 MOUNT TABOR RD, CUMMING, GA, 30028",625073330,"L"
833012,"7220 NICHOLAS CIRCLE","COOPERSBURG","PA",18036,40.4955824300001,-75.4088360009999,12,"7220 NICHOLAS CIRCLE, COOPERSBURG, PA, 18036","Match","Exact","7220 NICHOLAS CIR, COOPERSBURG, PA, 18036",617260743,"R"
833013,"7220 NORTH LINDBERGH SUITE 280","HAZELWOOD","MO",63042,38.783615265,-90.355511013,13,"7220 NORTH LINDBERGH SUITE 280, HAZELWOOD, MO, 63042","Match","Non_Exact","7220 N LINDBERGH BLVD, HAZELWOOD, MO, 63042",100119058,"R"
833014,"7220 NORTH ROGERS UNIT A","CHICAGO","IL",60645,42.0127855710001,-87.6821155969999,14,"7220 NORTH ROGERS UNIT A, CHICAGO, IL, 60645","Match","Non_Exact","7220 N ROGERS AVE, CHICAGO, IL, 60645",616887324,"L"
833015,"7220 NW 114TH AVE APT 310","DORAL","FL",33178,25.834237617,-80.383545382,15,"7220 NW 114TH AVE APT 310, DORAL, FL, 33178","Match","Non_Exact","7220 NW 114TH AVE, DORAL, FL, 33178",648441225,"R"
833016,"7220 NW 6TH COURT","PLANTATION","FL",33317,26.1308182980001,-80.243544475,16,"7220 NW 6TH COURT, PLANTATION, FL, 33317","Match","Exact","7220 NW 6TH CT, PLANTATION, FL, 33317",114704875,"L"
833017,"7220 OGELSBY AVE","LOS ANGELES","CA",90045,33.9770749800001,-118.399935291,17,"7220 OGELSBY AVE, LOS ANGELES, CA, 90045","Match","Exact","7220 OGELSBY AVE, LOS ANGELES, CA, 90045",141579039,"L"
833018,"7220 PINE POINT","PAINESVILLE","OH",44077,41.6742881010001,-81.2306557159999,18,"7220 PINE POINT, PAINESVILLE, OH, 44077","Match","Exact","7220 PINE PT, PAINESVILLE, OH, 44077",137472593,"L"
833019,"7220 PRATTE ST","OMAHA","NE",68134,41.2923385440001,-96.0245422409999,19,"7220 PRATTE ST, OMAHA, NE, 68134","Match","Non_Exact","7220 PRATT ST, OMAHA, NE, 68134",116976027,"R"
833020,"7220 READING ROAD 1","CINCINNATI","OH",45237,39.193474141,-84.4607827039999,20,"7220 READING ROAD 1, CINCINNATI, OH, 45237","Match","Exact","7220 READING RD, CINCINNATI, OH, 45237",103928498,"R"
833021,"7220 ROCKING HORSE LN","CUMMING","GA",30040,34.1682163340001,-84.231872476,21,"7220 ROCKING HORSE LN, CUMMING, GA, 30040","Match","Exact","7220 ROCKING HORSE LN, CUMMING, GA, 30040",646597013,"R"
833022,"7220 S 71ST LANE","LAVEEN","AZ",85339,33.3808488880001,-112.212746603,22,"7220 S 71ST LANE, LAVEEN, AZ, 85339","Match","Exact","7220 S 71ST LN, LAVEEN, AZ, 85339",244002669,"L"
833023,"7220 S 88TH ST APT 920","LINCOLN","NE",68526,40.7390921150001,-96.6010941219999,23,"7220 S 88TH ST APT 920, LINCOLN, NE, 68526","Match","Non_Exact","7220 S 88TH ST, LINCOLN, NE, 68526",648076171,"R"
833024,"7220 SOMBRILLA AVE","ATASCADERO","CA",93422,35.4864861360001,-120.659971217,24,"7220 SOMBRILLA AVE, ATASCADERO, CA, 93422","Match","Exact","7220 SOMBRILLA AVE, ATASCADERO, CA, 93422",109813314,"L"
833025,"7220 SOUTH LONGHORN LANE","HEREFORD","AZ",85615,31.4387851110001,-110.125004976,25,"7220 SOUTH LONGHORN LANE, HEREFORD, AZ, 85615","Match","Non_Exact","7220 S LONGHORN RD, HEREFORD, AZ, 85615",120983201,"R"
833026,"7220 SOUTHEASTERN AVE","HAMMOND","IN",46324,41.582751994,-87.489361362,26,"7220 SOUTHEASTERN AVE, HAMMOND, IN, 46324","Match","Exact","7220 SOUTHEASTERN AVE, HAMMOND, IN, 46324",636322123,"R"
833027,"7220 SOUTHWIND DRIVE","BILOXI","MS",39532,30.439938854,-88.86093648,27,"7220 SOUTHWIND DRIVE, BILOXI, MS, 39532","Match","Exact","7220 SOUTHWIND DR, BILOXI, MS, 39532",89267850,"R"
833028,"7220 SPRUCE ST","UPPER DARBY","PA",19082,39.9539980230001,-75.2649115299999,28,"7220 SPRUCE ST, UPPER DARBY, PA, 19082","Match","Exact","7220 SPRUCE ST, UPPER DARBY, PA, 19082",134877818,"L"
833029,"7220 U S HWY 129 S","JASPER","FL",32052,NA,NA,29,"7220 U S HWY 129 S, JASPER, FL, 32052","No_Match",NA,NA,NA,NA
833030,"7220 VIEWCREST DR","SAN DIEGO","CA",92114,32.7151802980001,-117.04265684,30,"7220 VIEWCREST DR, SAN DIEGO, CA, 92114","Match","Exact","7220 VIEWCREST DR, SAN DIEGO, CA, 92114",195360877,"L"
833031,"7220 W  83RD ST","BRIDGVIEW","IL",60455,41.7407903230001,-87.799947292,31,"7220 W  83RD ST, BRIDGVIEW, IL, 60455","Match","Non_Exact","7220 83RD ST, BRIDGEVIEW, IL, 60455",605296979,"R"
833032,"7220 W 83RD ST","BRIDGEVIEW","IL",60455,NA,NA,32,"7220 W 83RD ST, BRIDGEVIEW, IL, 60455","Tie",NA,NA,NA,NA
833033,"7220 WATKINS CT","RUTHER GLEN","VA",22546,38.0275040010001,-77.522978407,33,"7220 WATKINS CT, RUTHER GLEN, VA, 22546","Match","Exact","7220 WATKINS CT, RUTHER GLEN, VA, 22546",636775019,"R"
833034,"7220 WILSON STREET","DEXTER","MI",48130,42.330749741,-83.870435232,34,"7220 WILSON STREET, DEXTER, MI, 48130","Match","Exact","7220 WILSON ST, DEXTER, MI, 48130",612456569,"L"
833035,"7220 WINEDALE","DALLAS","TX",75231,32.881373356,-96.738332508,35,"7220 WINEDALE, DALLAS, TX, 75231","Match","Non_Exact","7220 WINEDALE DR, DALLAS, TX, 75231",102915078,"R"
833036,"7220 YORK AVE S APT 222","EDINA","MN",55425,NA,NA,36,"7220 YORK AVE S APT 222, EDINA, MN, 55425","No_Match",NA,NA,NA,NA
833037,"7220 ZOEY CIRCLE","NAVARRE","FL",32566,30.406108096,-86.922001715,37,"7220 ZOEY CIRCLE, NAVARRE, FL, 32566","Match","Non_Exact","7220 ZOE CIR, NAVARRE, FL, 32566",74590166,"L"
833038,"7221 87TH ST SE","MERCER ISLAND","WA",98040,47.537989483,-122.22247964,38,"7221 87TH ST SE, MERCER ISLAND, WA, 98040","Match","Non_Exact","7221 87TH AVE SE, MERCER ISLAND, WA, 98040",629182520,"R"
833039,"7221 ADAMS STREET UNIT 2","FOREST PARK","IL",60130,41.8777878550001,-87.805593737,39,"7221 ADAMS STREET UNIT 2, FOREST PARK, IL, 60130","Match","Exact","7221 ADAMS ST, FOREST PARK, IL, 60130",605086176,"R"
833040,"7221 CAPITAL DRIVE","HARRISBURG","PA",17111,40.266273073,-76.762759412,40,"7221 CAPITAL DRIVE, HARRISBURG, PA, 17111","Match","Exact","7221 CAPITAL DR, HARRISBURG, PA, 17111",70843245,"L"
833041,"7221 CEDAR POINT DR","NEW PORT RICHEY","FL",34652,28.255274838,-82.695085171,41,"7221 CEDAR POINT DR, NEW PORT RICHEY, FL, 34652","Match","Non_Exact","7221 CEDAR POINT DR, NEW PORT RICHEY, FL, 34653",86371484,"R"
833042,"7221 CHADBOURNE DRIVE","NEW ORLEANS","LA",70126,30.026112358,-90.006101927,42,"7221 CHADBOURNE DRIVE, NEW ORLEANS, LA, 70126","Match","Exact","7221 CHADBOURNE DR, NEW ORLEANS, LA, 70126",191720790,"L"
833043,"7221 DIVISION STREET","RIVERFOREST","IL",60305,41.9015420110001,-87.805914436,43,"7221 DIVISION STREET, RIVERFOREST, IL, 60305","Match","Non_Exact","7221 DIVISION ST, RIVER FOREST, IL, 60305",111752572,"L"
833044,"7221 DRY CREEL COURT","FORT WAYNE","IN",46835,NA,NA,44,"7221 DRY CREEL COURT, FORT WAYNE, IN, 46835","No_Match",NA,NA,NA,NA
833045,"7221 E RENAISSANCE","NEW ORLEANS","LA",70128,30.0554099280001,-89.954602186,45,"7221 E RENAISSANCE, NEW ORLEANS, LA, 70128","Match","Non_Exact","7221 E RENAISSANCE CT, NEW ORLEANS, LA, 70128",191721976,"R"
833046,"7221 FAIRWOODS PLACE","MONTGOMERY","AL",36117,32.3556027700001,-86.149708276,46,"7221 FAIRWOODS PLACE, MONTGOMERY, AL, 36117","Match","Exact","7221 FAIRWOODS PL, MONTGOMERY, AL, 36117",1526134,"L"
833047,"7221 HICKORY LANE","WINSTON","GA",30187,33.689986671,-84.811562845,47,"7221 HICKORY LANE, WINSTON, GA, 30187","Match","Exact","7221 HICKORY LN, WINSTON, GA, 30187",16646684,"R"
833048,"7221 KENNEBUNK ROAD","BALTIMORE","MD",21244,39.311570638,-76.763246534,48,"7221 KENNEBUNK ROAD, BALTIMORE, MD, 21244","Match","Exact","7221 KENNEBUNK RD, BALTIMORE, MD, 21244",191482766,"L"
833049,"7221 LAMB ROAD   801","SAN ANTONIO","TX",78240,29.50694478,-98.5936580429999,49,"7221 LAMB ROAD   801, SAN ANTONIO, TX, 78240","Match","Exact","7221 LAMB RD, SAN ANTONIO, TX, 78240",641656479,"L"
833050,"7221 MILL RUN CIR","NAPLES","FL",34109,26.2304757570001,-81.778591924,50,"7221 MILL RUN CIR, NAPLES, FL, 34109","Match","Exact","7221 MILL RUN CIR, NAPLES, FL, 34109",115153535,"L"
833051,"7221 MOUNTAINDALE RD","FREDERICK","MD",21702,39.5147557830001,-77.415468107,51,"7221 MOUNTAINDALE RD, FREDERICK, MD, 21702","Match","Exact","7221 MOUNTAINDALE RD, FREDERICK, MD, 21702",60740537,"R"
833052,"7221 OLANTATION BLVD","MIRAMAR","FL",33023,NA,NA,52,"7221 OLANTATION BLVD, MIRAMAR, FL, 33023","No_Match",NA,NA,NA,NA
833053,"7221 PITT ST","NEW ORLEANS","LA",70118,29.932893742,-90.13060309,53,"7221 PITT ST, NEW ORLEANS, LA, 70118","Match","Exact","7221 PITT ST, NEW ORLEANS, LA, 70118",191701651,"R"
833054,"7221 RAFTER ROAD","FRANKTOWN","CO",80116,39.40000351,-104.751407041,54,"7221 RAFTER ROAD, FRANKTOWN, CO, 80116","Match","Exact","7221 RAFTER RD, FRANKTOWN, CO, 80116",130851108,"L"
833055,"7221 S ALBION ST","CENTENNIAL","CO",80122,39.5859051200001,-104.939691621,55,"7221 S ALBION ST, CENTENNIAL, CO, 80122","Match","Exact","7221 S ALBION ST, CENTENNIAL, CO, 80122",177345170,"R"
833056,"7221 S JENNINGS RD","SWARTZ CREEK","MI",48473,42.9227726660001,-83.7506386489999,56,"7221 S JENNINGS RD, SWARTZ CREEK, MI, 48473","Match","Exact","7221 S JENNINGS RD, SWARTZ CREEK, MI, 48473",69574242,"L"
833057,"7221 S MACHIAS RD","SNOHOMISH","WA",98290,47.930726184,-122.079152475,57,"7221 S MACHIAS RD, SNOHOMISH, WA, 98290","Match","Exact","7221 S MACHIAS RD, SNOHOMISH, WA, 98290",624295395,"R"
833058,"7221 S VERNON AVE","CHICAGO","IL",60619,41.7634431330001,-87.613988209,58,"7221 S VERNON AVE, CHICAGO, IL, 60619","Match","Exact","7221 S VERNON AVE, CHICAGO, IL, 60619",111772532,"L"
833059,"7221 SANTA FE LOOP","HORN LAKE","TN",38637,NA,NA,59,"7221 SANTA FE LOOP, HORN LAKE, TN, 38637","No_Match",NA,NA,NA,NA
833060,"7221 SIENNE RIDGE LANE","LAUDERHILL","FL",33319,26.1784689780001,-80.2453631,60,"7221 SIENNE RIDGE LANE, LAUDERHILL, FL, 33319","Match","Non_Exact","7221 SIENNA RIDGE LN, LAUDERHILL, FL, 33319",608972275,"R"
833061,"7221 SMITH CREEK ROAD","SOPCHOPPY","FL",32358,30.0849699820001,-84.546024169,61,"7221 SMITH CREEK ROAD, SOPCHOPPY, FL, 32358","Match","Exact","7221 SMITH CREEK RD, SOPCHOPPY, FL, 32358",629647558,"L"
833062,"7221 SW 139 AVE","MIAMI","FL",33183,25.6994487480001,-80.418359702,62,"7221 SW 139 AVE, MIAMI, FL, 33183","Match","Non_Exact","7221 SW 139TH AVE, MIAMI, FL, 33183",115966580,"L"
833063,"7221 VENUS RD","COLUMBIA","SC",29209,33.975217306,-80.925921843,63,"7221 VENUS RD, COLUMBIA, SC, 29209","Match","Exact","7221 VENUS RD, COLUMBIA, SC, 29209",71830330,"R"
833064,"7221 VERDI WAY","MCKINNEY","TX",75072,33.200160828,-96.713256433,64,"7221 VERDI WAY, MCKINNEY, TX, 75072","Match","Exact","7221 VERDI WAY, MCKINNEY, TX, 75072",619923068,"L"
833065,"7221 W FAWN DR","LAVEEN","AZ",85339,33.3750981640001,-112.213370627,65,"7221 W FAWN DR, LAVEEN, AZ, 85339","Match","Exact","7221 W FAWN DR, LAVEEN, AZ, 85339",244011171,"R"
833066,"7221 W VALHALLA WAY","MADISON","WI",53719,43.0456795280001,-89.508373976,66,"7221 W VALHALLA WAY, MADISON, WI, 53719","Match","Exact","7221 W VALHALLA WAY, MADISON, WI, 53719",49498438,"L"
833067,"7221 WALTERBORO RD","CHARLOTTE","NC",28227,35.1866319050001,-80.712847102,67,"7221 WALTERBORO RD, CHARLOTTE, NC, 28227","Match","Exact","7221 WALTERBORO RD, CHARLOTTE, NC, 28227",70512395,"R"
833068,"7222 A STREET","TACOMA","WA",98408,47.1912185570001,-122.431387448,68,"7222 A STREET, TACOMA, WA, 98408","Match","Exact","7222 A ST, TACOMA, WA, 98408",652986144,"R"
833069,"7222 BOELLNER DR","HAZELWOOD","MO",63032,38.770073998,-90.3313312499999,69,"7222 BOELLNER DR, HAZELWOOD, MO, 63032","Match","Non_Exact","7222 BOELLNER DR, HAZELWOOD, MO, 63042",100120006,"R"
833070,"7222 BROOKCOVE LN","DALLAS","TX",75214,32.8465479990001,-96.734883839,70,"7222 BROOKCOVE LN, DALLAS, TX, 75214","Match","Exact","7222 BROOKCOVE LN, DALLAS, TX, 75214",102919113,"R"
833071,"7222 CARMEN PLACE","MENTOR","OH",44060,41.6729761030001,-81.311376536,71,"7222 CARMEN PLACE, MENTOR, OH, 44060","Match","Exact","7222 CARMEN PL, MENTOR, OH, 44060",137474210,"L"
833072,"7222 CHERMONT CIR","KNOXVILLE","TN",37918,36.0721344840001,-83.9446207619999,72,"7222 CHERMONT CIR, KNOXVILLE, TN, 37918","Match","Non_Exact","7222 W CHERMONT CIR, KNOXVILLE, TN, 37918",42672341,"L"
833073,"7222 DALTON FOX LAKE RD N","LAWRENCE","OH",44666,40.8854886500001,-81.6767345329999,73,"7222 DALTON FOX LAKE RD N, LAWRENCE, OH, 44666","Match","Non_Exact","7222 DALTON-FOX LAKE RD, N LAWRENCE, OH, 44666",58759684,"L"
833074,"7222 E NORLAND","MESA","AZ",85207,33.4649609470001,-111.674629799,74,"7222 E NORLAND, MESA, AZ, 85207","Match","Non_Exact","7222 E NORLAND ST, MESA, AZ, 85207",616711476,"R"
833075,"7222 FAIRBROOK ROAD","Catonsville","MD",21244,39.310086476,-76.762594698,75,"7222 FAIRBROOK ROAD, Catonsville, MD, 21244","Match","Non_Exact","7222 FAIRBROOK RD, WINDSOR MILL, MD, 21244",191482799,"R"
833076,"7222 FISHER DRIVE","CHINCOTEAGUE","VA",23336,37.921501017,-75.3896447179999,76,"7222 FISHER DRIVE, CHINCOTEAGUE, VA, 23336","Match","Exact","7222 FISHER DR, CHINCOTEAGUE, VA, 23336",114583141,"R"
833077,"7222 FOSSIL HILL DR","ARLINGTON","TX",76002,32.6260154620001,-97.1010665219999,77,"7222 FOSSIL HILL DR, ARLINGTON, TX, 76002","Match","Exact","7222 FOSSIL HILL DR, ARLINGTON, TX, 76002",102189317,"R"
833078,"7222 HARDWOOD TR","DALLAS","TX",75249,32.6389714160001,-96.94735532,78,"7222 HARDWOOD TR, DALLAS, TX, 75249","Match","Exact","7222 HARDWOOD TRL, DALLAS, TX, 75249",102941948,"L"
833079,"7222 LINWOOD AVENUE","UPPER DARBY","PA",19082,39.959410249,-75.278085835,79,"7222 LINWOOD AVENUE, UPPER DARBY, PA, 19082","Match","Exact","7222 LINWOOD AVE, UPPER DARBY, PA, 19082",134877279,"L"
833080,"7222 LUHI PL","HONOLULU","HI",96825,21.300511672,-157.685935566,80,"7222 LUHI PL, HONOLULU, HI, 96825","Match","Exact","7222 LUHI PL, HONOLULU, HI, 96825",203241246,"L"
833081,"7222 N BRAY ROAD","MOUNT MORRIS","MI",48458,NA,NA,81,"7222 N BRAY ROAD, MOUNT MORRIS, MI, 48458","Tie",NA,NA,NA,NA
833082,"7222 N STEAMBOAT DR","LINCOLN","NE",68521,40.882954242,-96.696544338,82,"7222 N STEAMBOAT DR, LINCOLN, NE, 68521","Match","Exact","7222 N STEAMBOAT DR, LINCOLN, NE, 68521",28299810,"R"
833083,"7222 ORCHID LAKE ROAD","NEW PORT RICHEY","FL",34653,28.272903914,-82.6951301139999,83,"7222 ORCHID LAKE ROAD, NEW PORT RICHEY, FL, 34653","Match","Exact","7222 ORCHID LAKE RD, NEW PORT RICHEY, FL, 34653",86372030,"R"
833084,"7222 PETROL ST APT 2","PARAMOUNT","CA",90723,33.8982014110001,-118.172362975,84,"7222 PETROL ST APT 2, PARAMOUNT, CA, 90723","Match","Non_Exact","7222 E PETROL ST, PARAMOUNT, CA, 90723",142851181,"R"
833085,"7222 RED WING RD","GROVELAND","FL",34736,28.528977953,-81.8340088429999,85,"7222 RED WING RD, GROVELAND, FL, 34736","Match","Non_Exact","7222 REDWING RD, GROVELAND, FL, 34736",94232105,"L"
833086,"7222 RESERVOIR RD","SPRINGFIELD","VA",22150,38.7941225690001,-77.193910236,86,"7222 RESERVOIR RD, SPRINGFIELD, VA, 22150","Match","Exact","7222 RESERVOIR RD, SPRINGFIELD, VA, 22150",75983333,"L"
833087,"7222 ROBIN WAY","WEST JORDAN","UT",84080,40.619747472,-111.946505349,87,"7222 ROBIN WAY, WEST JORDAN, UT, 84080","Match","Non_Exact","7222 ROBIN WAY, WEST JORDAN, UT, 84084",176076133,"R"
833088,"7222 ROYAL GATE","ARLINGTON","TX",76016,32.6715134180001,-97.2219689409999,88,"7222 ROYAL GATE, ARLINGTON, TX, 76016","Match","Non_Exact","7222 ROYAL GATE DR, ARLINGTON, TX, 76016",101929958,"L"
833089,"7222 S RHODES","CHICAGO","IL",60619,41.76345522,-87.6115866169999,89,"7222 S RHODES, CHICAGO, IL, 60619","Match","Non_Exact","7222 S RHODES AVE, CHICAGO, IL, 60619",111772550,"R"
833090,"7222 S WABASH","CHICAGO","IL",60619,41.763231202,-87.623256275,90,"7222 S WABASH, CHICAGO, IL, 60619","Match","Non_Exact","7222 S WABASH AVE, CHICAGO, IL, 60619",111772276,"R"
833091,"7222 S WENTWORTH","CHICAGO","IL",60621,41.7629230420001,-87.629718367,91,"7222 S WENTWORTH, CHICAGO, IL, 60621","Match","Non_Exact","7222 S WENTWORTH AVE, CHICAGO, IL, 60621",618053356,"R"
833092,"7222 SE 24TH STREET","MERCER ISLAND","WA",98040,47.5891575650001,-122.242643564,92,"7222 SE 24TH STREET, MERCER ISLAND, WA, 98040","Match","Exact","7222 SE 24TH ST, MERCER ISLAND, WA, 98040",186605990,"L"
833093,"7222 SHELOWOOD ROAD","BALTIMORE","MD",21207,NA,NA,93,"7222 SHELOWOOD ROAD, BALTIMORE, MD, 21207","No_Match",NA,NA,NA,NA
833094,"7222 SIERRA AVE  RM 204","FONTANA","CA",92336,34.122460491,-117.436087151,94,"7222 SIERRA AVE  RM 204, FONTANA, CA, 92336","Match","Exact","7222 SIERRA AVE, FONTANA, CA, 92336",144642391,"R"
833095,"7222 SIERRA AVE","FONTANA","CA",92336,34.122460491,-117.436087151,95,"7222 SIERRA AVE, FONTANA, CA, 92336","Match","Exact","7222 SIERRA AVE, FONTANA, CA, 92336",144642391,"R"
833096,"7222 SOUTH FAIRGROUNDS RD","STILLWATER","OK",74074,36.0381232550001,-96.9980719599999,96,"7222 SOUTH FAIRGROUNDS RD, STILLWATER, OK, 74074","Match","Non_Exact","7222 S FAIRGROUNDS, STILLWATER, OK, 74074",166390332,"L"
833097,"7222 SPLIT RAIL LANE","LAUREL","MD",20707,39.1077308260001,-76.879243397,97,"7222 SPLIT RAIL LANE, LAUREL, MD, 20707","Match","Exact","7222 SPLIT RAIL LN, LAUREL, MD, 20707",76333807,"R"
833098,"7222 SPRING ORCHARD LANE","RICHMOND","TX",77407,29.6998596870001,-95.71910072,98,"7222 SPRING ORCHARD LANE, RICHMOND, TX, 77407","Match","Exact","7222 SPRING ORCHARD LN, RICHMOND, TX, 77407",627502557,"L"
833099,"7222 STILLBROOK ST","SAN ANTONIO","TX",78238,29.4903091480001,-98.6317094299999,99,"7222 STILLBROOK ST, SAN ANTONIO, TX, 78238","Match","Non_Exact","7222 STILL BROOK ST, SAN ANTONIO, TX, 78238",101506352,"L"
833100,"7222 W CERMAK / STE 701","NORTH RIVERSIDE","IL",60546,41.850180676,-87.815888925,100,"7222 W CERMAK / STE 701, NORTH RIVERSIDE, IL, 60546","Match","Non_Exact","7222 CERMAK RD, N RIVERSIDE, IL, 60546",605267437,"R"
833101,"7222 W CERMAK SUITE 312","NORTH RIVERSIDE","IL",60546,41.850180676,-87.815888925,101,"7222 W CERMAK SUITE 312, NORTH RIVERSIDE, IL, 60546","Match","Non_Exact","7222 CERMAK RD, N RIVERSIDE, IL, 60546",605267437,"R"
833102,"7222 W COUNTY LINE RD","ODESSA","FL",33556,28.172863481,-82.559325396,102,"7222 W COUNTY LINE RD, ODESSA, FL, 33556","Match","Exact","7222 COUNTY LINE RD, ODESSA, FL, 33556",635536906,"L"
833103,"7222 W TINA LANE","PHOENIX","AZ",85310,33.683385881,-112.213495222,103,"7222 W TINA LANE, PHOENIX, AZ, 85310","Match","Non_Exact","7222 W TINA LN, GLENDALE, AZ, 85310",128387137,"R"
833104,"7222B WASHINGTON STREET","FOREST PARK","IL",60130,41.881362562,-87.805929923,104,"7222B WASHINGTON STREET, FOREST PARK, IL, 60130","Match","Exact","7222 WASHINGTON ST, FOREST PARK, IL, 60130",605113718,"L"
833105,"7223 173RD ST","TINLEY PARK","IL",60477,41.5768464220001,-87.7941602189999,105,"7223 173RD ST, TINLEY PARK, IL, 60477","Match","Exact","7223 173RD ST, TINLEY PARK, IL, 60477",111702409,"L"
833106,"7223 6TH ST","RIO LINDA","CA",95673,38.6988634050001,-121.452217937,106,"7223 6TH ST, RIO LINDA, CA, 95673","Match","Exact","7223 6TH ST, RIO LINDA, CA, 95673",640854444,"L"
833107,"7223 ALEBARAN SUN","SAN ANTONIO","TX",78252,29.3553855440001,-98.637661888,107,"7223 ALEBARAN SUN, SAN ANTONIO, TX, 78252","Match","Non_Exact","7223 ALDEBARAN SUN, SAN ANTONIO, TX, 78252",637816333,"L"
833108,"7223 ANDREA COURT","GRAND BLANC","MI",48439,42.923411731,-83.580066702,108,"7223 ANDREA COURT, GRAND BLANC, MI, 48439","Match","Exact","7223 ANDREA CT, GRAND BLANC, MI, 48439",617492887,"L"
833109,"7223 BUCANERO","GRAND PRAIRIE","TX",75054,32.591194092,-97.0432391319999,109,"7223 BUCANERO, GRAND PRAIRIE, TX, 75054","Match","Exact","7223 BUCANERO, GRAND PRAIRIE, TX, 75054",617672017,"R"
833110,"7223 CANADIAN DR","IRVING","TX",75039,32.907314587,-96.946631976,110,"7223 CANADIAN DR, IRVING, TX, 75039","Match","Exact","7223 CANADIAN DR, IRVING, TX, 75039",624608143,"R"
833111,"7223 CASWELL ROAD","BYRON","NY",14422,43.0635381970001,-78.07330859,111,"7223 CASWELL ROAD, BYRON, NY, 14422","Match","Exact","7223 CASWELL RD, BYRON, NY, 14422",48145487,"R"
833112,"7223 CHADWICK DR","FORT WAYNE","IN",46835,41.0196809550001,-85.083572395,112,"7223 CHADWICK DR, FORT WAYNE, IN, 46835","Match","Non_Exact","7223 CHADWICK DR, FORT WAYNE, IN, 46816",6387015,"L"
833113,"7223 CHADWICK DRIVE","FORT WAYNE","IN",46835,41.0196809550001,-85.083572395,113,"7223 CHADWICK DRIVE, FORT WAYNE, IN, 46835","Match","Non_Exact","7223 CHADWICK DR, FORT WAYNE, IN, 46816",6387015,"L"
833114,"7223 ESTANCIA LANE","SMITHFIELD","UT",84335,41.8635737980001,-111.87671542,114,"7223 ESTANCIA LANE, SMITHFIELD, UT, 84335","Match","Exact","7223 ESTANCIA LN, SMITHFIELD, UT, 84335",640987862,"L"
833115,"7223 FLOYD ST","PENSACOLA","FL",32526,30.4987416500001,-87.287581581,115,"7223 FLOYD ST, PENSACOLA, FL, 32526","Match","Non_Exact","7223 FLOYD DR, PENSACOLA, FL, 32526",93252825,"R"
833116,"7223 GRANTS HOLLOW","RICHMOND","TX",77407,29.70050351,-95.722045253,116,"7223 GRANTS HOLLOW, RICHMOND, TX, 77407","Match","Non_Exact","7223 GRANTS HOLLOW LN, RICHMOND, TX, 77407",627500534,"R"
833117,"7223 HICKORY VALLEY DR","FENTON","MI",48430,42.687144862,-83.816363434,117,"7223 HICKORY VALLEY DR, FENTON, MI, 48430","Match","Exact","7223 HICKORY VALLEY DR, FENTON, MI, 48430",23563416,"L"
833118,"7223 KRUTSINGER RD","KINMUNDY","IL",62854,38.738156313,-88.720078856,118,"7223 KRUTSINGER RD, KINMUNDY, IL, 62854","Match","Exact","7223 KRUTSINGER RD, KINMUNDY, IL, 62854",93041504,"L"
833119,"7223 KRUTSINGER ROAD","KINMUNDY","IL",62854,38.738156313,-88.720078856,119,"7223 KRUTSINGER ROAD, KINMUNDY, IL, 62854","Match","Exact","7223 KRUTSINGER RD, KINMUNDY, IL, 62854",93041504,"L"
833120,"7223 LINDEN AVE","LAS VEGAS","NV",89110,36.1700621420001,-115.01429883,120,"7223 LINDEN AVE, LAS VEGAS, NV, 89110","Match","Exact","7223 LINDEN AVE, LAS VEGAS, NV, 89110",201991872,"R"
833121,"7223 LINDEN AVENUE","LAS VEGAS","NV",89110,36.1700621420001,-115.01429883,121,"7223 LINDEN AVENUE, LAS VEGAS, NV, 89110","Match","Exact","7223 LINDEN AVE, LAS VEGAS, NV, 89110",201991872,"R"
833122,"7223 LOMESOME WOODS TRL","HUMBLE","TX",77346,29.992479561,-95.1675490659999,122,"7223 LOMESOME WOODS TRL, HUMBLE, TX, 77346","Match","Non_Exact","7223 LONESOME WOODS TRL, HUMBLE, TX, 77346",96118570,"L"
833123,"7223 LONESOME WOODS TRL","HOUMBLE","TX",77346,29.992479561,-95.1675490659999,123,"7223 LONESOME WOODS TRL, HOUMBLE, TX, 77346","Match","Non_Exact","7223 LONESOME WOODS TRL, HUMBLE, TX, 77346",96118570,"L"
833124,"7223 LONESOME WOODS TRL","HUMBLE","TX",77346,29.992479561,-95.1675490659999,124,"7223 LONESOME WOODS TRL, HUMBLE, TX, 77346","Match","Exact","7223 LONESOME WOODS TRL, HUMBLE, TX, 77346",96118570,"L"
833125,"7223 MAUMEE WESTERN RD","MAUMEE","OH",43537,41.5736103080001,-83.71348606,125,"7223 MAUMEE WESTERN RD, MAUMEE, OH, 43537","Match","Exact","7223 MAUMEE WESTERN RD, MAUMEE, OH, 43537",33954825,"L"
833126,"7223 N WILDERNESS RD","MOUNT VERNON","KY",40456,37.4485791060001,-84.324661485,126,"7223 N WILDERNESS RD, MOUNT VERNON, KY, 40456","Match","Exact","7223 N WILDERNESS RD, MOUNT VERNON, KY, 40456",98146055,"L"
833127,"7223 NORTH HAMILTON AVE UNIT F","CHICAGO","IL",60645,42.012932957,-87.684976083,127,"7223 NORTH HAMILTON AVE UNIT F, CHICAGO, IL, 60645","Match","Exact","7223 N HAMILTON AVE, CHICAGO, IL, 60645",605261291,"R"
833128,"7223 PANACHE WAY","BOCA RATON","FL",33433,26.333315993,-80.1591389019999,128,"7223 PANACHE WAY, BOCA RATON, FL, 33433","Match","Exact","7223 PANACHE WAY, BOCA RATON, FL, 33433",647638226,"R"
833129,"7223 RUTH DR","KLAMATH FALLS","OR",97603,42.182704259,-121.701882335,129,"7223 RUTH DR, KLAMATH FALLS, OR, 97603","Match","Exact","7223 RUTH DR, KLAMATH FALLS, OR, 97603",156708608,"L"
833130,"7223 S  STONY ISLAND AV","CHICAGO","IL",60649,41.7635628720001,-87.5858487369999,130,"7223 S  STONY ISLAND AV, CHICAGO, IL, 60649","Match","Exact","7223 STONY ISLAND AVE, CHICAGO, IL, 60649",605535752,"L"
833131,"7223 S STONY ISLAND","CHICAGO","IL",60649,41.763516544,-87.585847716,131,"7223 S STONY ISLAND, CHICAGO, IL, 60649","Match","Non_Exact","7223 STONY ISLAND AVE, CHICAGO, IL, 60649",605535752,"L"
833132,"7223 SHELTON COURT","CHESTERFIELD","VA",23832,37.381482754,-77.5114031909999,132,"7223 SHELTON COURT, CHESTERFIELD, VA, 23832","Match","Exact","7223 SHELTON CT, CHESTERFIELD, VA, 23832",201566289,"R"
833133,"7223 SHELTON CT","CHESTERFIELD","VA",23832,37.381482754,-77.5114031909999,133,"7223 SHELTON CT, CHESTERFIELD, VA, 23832","Match","Exact","7223 SHELTON CT, CHESTERFIELD, VA, 23832",201566289,"R"
833134,"7223 SOUTH MAIN STREET","LOS ANGELES","CA",90003,33.974461149,-118.273933694,134,"7223 SOUTH MAIN STREET, LOS ANGELES, CA, 90003","Match","Exact","7223 S MAIN ST, LOS ANGELES, CA, 90003",141659855,"R"
833135,"7223 SUNDANCE CIRCLE","WEST CHESTER","OH",45069,39.3711030750001,-84.404746357,135,"7223 SUNDANCE CIRCLE, WEST CHESTER, OH, 45069","Match","Exact","7223 SUNDANCE CIR, WEST CHESTER, OH, 45069",113816328,"R"
833136,"7223 W 118TH PL UNIT D","BROOMFIELD","CO",80020,39.9104213100001,-105.076913512,136,"7223 W 118TH PL UNIT D, BROOMFIELD, CO, 80020","Match","Non_Exact","7223 W 118TH PL, BROOMFIELD, CO, 80020",210038883,"R"
833137,"7223 W CRAIN ST","NILES","IL",60714,NA,NA,137,"7223 W CRAIN ST, NILES, IL, 60714","Tie",NA,NA,NA,NA
833138,"7223 WILD OLIVE AVE NE","ALBUQUERQUE","NM",87113,35.1905204940001,-106.565856563,138,"7223 WILD OLIVE AVE NE, ALBUQUERQUE, NM, 87113","Match","Exact","7223 WILD OLIVE AVE NE, ALBUQUERQUE, NM, 87113",632646314,"L"
833139,"7223 YARDLEY DR","LAREDO","TX",77494,29.7073585800001,-95.780025511,139,"7223 YARDLEY DR, LAREDO, TX, 77494","Match","Non_Exact","7223 YARDLEY DR, KATY, TX, 77494",78261854,"L"
833140,"7223B FLORIN MALL DRIVE","SACRAMENTO","CA",95823,38.4950799370001,-121.434378927,140,"7223B FLORIN MALL DRIVE, SACRAMENTO, CA, 95823","Match","Exact","7223 FLORIN MALL DR, SACRAMENTO, CA, 95823",133352738,"L"
833141,"7224 2ND STREET","RIO LINDA","CA",95673,38.6988711970001,-121.461476455,141,"7224 2ND STREET, RIO LINDA, CA, 95673","Match","Exact","7224 2ND ST, RIO LINDA, CA, 95673",133445931,"R"
833142,"7224 BLOOMINGTON AVE S","RICHFIELD","MN",55423,44.8721978680001,-93.252934986,142,"7224 BLOOMINGTON AVE S, RICHFIELD, MN, 55423","Match","Exact","7224 BLOOMINGTON AVE S, RICHFIELD, MN, 55423",43593530,"R"
833143,"7224 BRUSH LAKE RD","EAU CLAIRE","MI",49111,41.9859354020001,-86.222822972,143,"7224 BRUSH LAKE RD, EAU CLAIRE, MI, 49111","Match","Exact","7224 BRUSH LAKE RD, EAU CLAIRE, MI, 49111",653385528,"R"
833144,"7224 CAMDEN ANENUE NORTH","BROOKLYN CENTER","MN",55126,NA,NA,144,"7224 CAMDEN ANENUE NORTH, BROOKLYN CENTER, MN, 55126","No_Match",NA,NA,NA,NA
833145,"7224 COLD SPRINGS ROAD","PENNGROVE","CA",94951,38.3272824760001,-122.630105665,145,"7224 COLD SPRINGS ROAD, PENNGROVE, CA, 94951","Match","Exact","7224 COLD SPRINGS RD, PENNGROVE, CA, 94951",67475549,"R"
833146,"7224 E 163RD TERRACE","BELTON","MO",64012,38.827181437,-94.4999095209999,146,"7224 E 163RD TERRACE, BELTON, MO, 64012","Match","Exact","7224 163RD TER, BELTON, MO, 64012",100927532,"L"
833147,"7224 E 77TH ST","TULSA","OK",74133,36.0531279900001,-95.895673405,147,"7224 E 77TH ST, TULSA, OK, 74133","Match","Exact","7224 E 77TH ST, TULSA, OK, 74133",166455057,"R"
833148,"7224 EAST 32ND PLACE","TULSA","OK",74145,36.1166799210001,-95.8964706689999,148,"7224 EAST 32ND PLACE, TULSA, OK, 74145","Match","Exact","7224 E 32ND PL, TULSA, OK, 74145",166453248,"R"
833149,"7224 HUNTERS RUN","GAHANNA","OH",43230,NA,NA,149,"7224 HUNTERS RUN, GAHANNA, OH, 43230","No_Match",NA,NA,NA,NA
833150,"7224 KALLIE KAY LANE","SACRAMENTO","CA",95823,38.477397266,-121.419745813,150,"7224 KALLIE KAY LANE, SACRAMENTO, CA, 95823","Match","Exact","7224 KALLIE KAY LN, SACRAMENTO, CA, 95823",637116194,"R"
833151,"7224 KING RD","SPRING ARBOR","MI",49283,42.218359101,-84.544951043,151,"7224 KING RD, SPRING ARBOR, MI, 49283","Match","Exact","7224 KING RD, SPRING ARBOR, MI, 49283",17623166,"R"
833152,"7224 LADY HAWK CT","EL PASO","TX",79912,31.865487634,-106.556865201,152,"7224 LADY HAWK CT, EL PASO, TX, 79912","Match","Exact","7224 LADY HAWK CT, EL PASO, TX, 79912",189376350,"R"
833153,"7224 LAKEWOOD DR","HOUSTON","TX",77016,29.860384491,-95.2987194299999,153,"7224 LAKEWOOD DR, HOUSTON, TX, 77016","Match","Exact","7224 LAKEWOOD DR, HOUSTON, TX, 77016",96075591,"R"
833154,"7224 LUMBER PORT DR","RUSKIN","FL",33573,27.7473218870001,-82.371534047,154,"7224 LUMBER PORT DR, RUSKIN, FL, 33573","Match","Exact","7224 LUMBER PORT DR, RUSKIN, FL, 33573",637790228,"R"
833155,"7224 N SKILES CT","KANSAS CITY","MO",64158,39.2241762040001,-94.484195013,155,"7224 N SKILES CT, KANSAS CITY, MO, 64158","Match","Exact","7224 N SKILES CT, KANSAS CITY, MO, 64158",89778342,"L"
833156,"7224 NOBALE AVE N","BROOKLYN CENTER","MN",55423,NA,NA,156,"7224 NOBALE AVE N, BROOKLYN CENTER, MN, 55423","No_Match",NA,NA,NA,NA
833157,"7224 PERSHING AVENUE  1ST FLOOR","SAINT LOUIS","MO",63130,38.6528046560001,-90.323233552,157,"7224 PERSHING AVENUE  1ST FLOOR, SAINT LOUIS, MO, 63130","Match","Exact","7224 PERSHING AVE, SAINT LOUIS, MO, 63130",100135857,"L"
833158,"7224 PORT AVENUE","CLEVELAND","OH",44104,41.4774899760001,-81.638133969,158,"7224 PORT AVENUE, CLEVELAND, OH, 44104","Match","Exact","7224 PORT AVE, CLEVELAND, OH, 44104",640792117,"R"
833159,"7224 REGNER RD","SAN DIEGO","CA",92119,32.8122058100001,-117.015554358,159,"7224 REGNER RD, SAN DIEGO, CA, 92119","Match","Exact","7224 REGNER RD, SAN DIEGO, CA, 92119",195325950,"L"
833160,"7224 S CALUMET","CHICAGO","IL",60619,NA,NA,160,"7224 S CALUMET, CHICAGO, IL, 60619","No_Match",NA,NA,NA,NA
833161,"7224 S HALLDALE AVE","LOS ANGELES","CA",90047,33.9742459140001,-118.302424023,161,"7224 S HALLDALE AVE, LOS ANGELES, CA, 90047","Match","Exact","7224 S HALLDALE AVE, LOS ANGELES, CA, 90047",141658477,"L"
833162,"7224 S MERRILL AVE","CHICAGO","IL",60649,NA,NA,162,"7224 S MERRILL AVE, CHICAGO, IL, 60649","No_Match",NA,NA,NA,NA
833163,"7224 S RIDGELAND AVE","CHICAGO","IL",60649,41.7635175730001,-87.5823851169999,163,"7224 S RIDGELAND AVE, CHICAGO, IL, 60649","Match","Exact","7224 S RIDGELAND AVE, CHICAGO, IL, 60649",111774739,"R"
833164,"7224 SE ARIEL ST","HILLSBORO","OR",97123,45.5141678250001,-122.905931923,164,"7224 SE ARIEL ST, HILLSBORO, OR, 97123","Match","Exact","7224 SE ARIEL ST, HILLSBORO, OR, 97123",158219560,"L"
833165,"7224 SEASONS COURT","RIVERDALW","GA",30374,NA,NA,165,"7224 SEASONS COURT, RIVERDALW, GA, 30374","No_Match",NA,NA,NA,NA
833166,"7224 SHORELINE DR UNIT 169","SAN DIEGO","CA",92122,32.865065342,-117.201028645,166,"7224 SHORELINE DR UNIT 169, SAN DIEGO, CA, 92122","Match","Exact","7224 SHORELINE DR, SAN DIEGO, CA, 92122",195699849,"R"
833167,"7224 SOUTH ELWOOD AVE","TULSA","OK",74132,36.0587457880001,-95.9937140769999,167,"7224 SOUTH ELWOOD AVE, TULSA, OK, 74132","Match","Exact","7224 S ELWOOD AVE, TULSA, OK, 74132",166443995,"R"
833168,"7224 SOUTH HOBART BLVD","LOS ANGELES","CA",90047,33.9742397540001,-118.307838803,168,"7224 SOUTH HOBART BLVD, LOS ANGELES, CA, 90047","Match","Exact","7224 S HOBART BLVD, LOS ANGELES, CA, 90047",141658397,"L"
833169,"7224 WEST MARKET STREET","MERCER","PA",16137,41.2373419050001,-80.356236877,169,"7224 WEST MARKET STREET, MERCER, PA, 16137","Match","Exact","7224 W MARKET ST, MERCER, PA, 16137",605370154,"L"
833170,"7225 BIRCH BARK DRIVE","NASHVILLE","TN",37221,36.066616089,-86.930763793,170,"7225 BIRCH BARK DRIVE, NASHVILLE, TN, 37221","Match","Exact","7225 BIRCH BARK DR, NASHVILLE, TN, 37221",97179969,"L"
833171,"7225 BRADLY DRIVE","PLAINFIELD","IL",60544,41.5632611720001,-88.258213772,171,"7225 BRADLY DRIVE, PLAINFIELD, IL, 60544","Match","Non_Exact","7225 BRADLEY DR, PLAINFIELD, IL, 60586",642126100,"R"
833172,"7225 BUCKS FORD DRIVE","RIVERVIEW","FL",33578,27.8740196040001,-82.3430161589999,172,"7225 BUCKS FORD DRIVE, RIVERVIEW, FL, 33578","Match","Exact","7225 BUCKS FORD DR, RIVERVIEW, FL, 33578",104615523,"R"
833173,"7225 CALVIN ROAD","UPPER DARBY","PA",19082,39.95856073,-75.265457979,173,"7225 CALVIN ROAD, UPPER DARBY, PA, 19082","Match","Exact","7225 CALVIN RD, UPPER DARBY, PA, 19082",134877739,"R"
833174,"7225 CRESCEBT PARK W APT","PLAYA VISTA","CA",90094,NA,NA,174,"7225 CRESCEBT PARK W APT, PLAYA VISTA, CA, 90094","No_Match",NA,NA,NA,NA
833175,"7225 CRESENT PARK W APT 267","PLAYA VISTA","CA",90094,NA,NA,175,"7225 CRESENT PARK W APT 267, PLAYA VISTA, CA, 90094","No_Match",NA,NA,NA,NA
833176,"7225 CROSSROADS GARDEN DR APT 4211","ORLANDO","FL",32821,28.356794866,-81.486857857,176,"7225 CROSSROADS GARDEN DR APT 4211, ORLANDO, FL, 32821","Match","Exact","7225 CROSSROADS GARDEN DR, ORLANDO, FL, 32821",650566193,"R"
833177,"7225 DEVEREUX COURT","ALEXANDRIA","VA",22315,38.7607600050001,-77.1260204389999,177,"7225 DEVEREUX COURT, ALEXANDRIA, VA, 22315","Match","Exact","7225 DEVEREUX CT, ALEXANDRIA, VA, 22315",76017397,"R"
833178,"7225 DILLON","HOUSTON","TX",77061,29.656875524,-95.297863879,178,"7225 DILLON, HOUSTON, TX, 77061","Match","Non_Exact","7225 DILLON ST, HOUSTON, TX, 77061",96092268,"L"
833179,"7225 E OLD MAPLE AVE","TERRE HAUTE","IN",47803,39.4916418340001,-87.306108051,179,"7225 E OLD MAPLE AVE, TERRE HAUTE, IN, 47803","Match","Non_Exact","7225 E OLD MAPLE AVE, TERRE HAUTE, IN, 47803",606468404,"R"
833180,"7225 E VASSAR AVE","FRESNO","CA",93737,36.77095115,-119.659258403,180,"7225 E VASSAR AVE, FRESNO, CA, 93737","Match","Exact","7225 E VASSAR AVE, FRESNO, CA, 93737",650070072,"R"
833181,"7225 EAST LINDSEY","NORMAN","OK",73026,35.20377531,-97.3350100009999,181,"7225 EAST LINDSEY, NORMAN, OK, 73026","Match","Non_Exact","7225 E LINDSEY ST, NORMAN, OK, 73026",99942915,"L"
833182,"7225 ELLINGTON CIRCLE","AUSTIN","TX",78724,30.306088403,-97.643243426,182,"7225 ELLINGTON CIRCLE, AUSTIN, TX, 78724","Match","Exact","7225 ELLINGTON CIR, AUSTIN, TX, 78724",63974549,"R"
833183,"7225 FAIR OAKS AVENUE APT 1301","DALLAS","TX",75231,32.8743004150001,-96.7563935809999,183,"7225 FAIR OAKS AVENUE APT 1301, DALLAS, TX, 75231","Match","Exact","7225 FAIR OAKS AVE, DALLAS, TX, 75231",102914590,"L"
833184,"7225 FAUSSETT ROAD","FENTON","MI",48430,42.7061151820001,-83.812360036,184,"7225 FAUSSETT ROAD, FENTON, MI, 48430","Match","Exact","7225 FAUSSETT RD, FENTON, MI, 48430",23541414,"L"
833185,"7225 FERN MEADOW ST","LAS VEGAS","NV",89149,36.2927912920001,-115.302974471,185,"7225 FERN MEADOW ST, LAS VEGAS, NV, 89149","Match","Exact","7225 FERN MEADOW ST, LAS VEGAS, NV, 89149",632847268,"L"
833186,"7225 FERNWOOD AVE","EGG HARBOR TOWNSHIP","NJ",8234,39.3723266970001,-74.620013098,186,"7225 FERNWOOD AVE, EGG HARBOR TOWNSHIP, NJ, 8234","Match","Exact","7225 FERNWOOD AVE, EGG HARBOR TOWNSHIP, NJ, 08234",202524408,"L"
833187,"7225 GREAT NORTHERN TRAIL","UNION","IL",60180,42.223389067,-88.543726328,187,"7225 GREAT NORTHERN TRAIL, UNION, IL, 60180","Match","Exact","7225 GREAT NORTHERN TRL, UNION, IL, 60180",623816756,"L"
833188,"7225 GULFSHORE DRIVE N 404","NAPLES","FL",34108,NA,NA,188,"7225 GULFSHORE DRIVE N 404, NAPLES, FL, 34108","No_Match",NA,NA,NA,NA
833189,"7225 HEATHERWOOD","JENISON","MI",49428,42.900135672,-85.825498109,189,"7225 HEATHERWOOD, JENISON, MI, 49428","Match","Non_Exact","7225 HEATHERWOOD DR, JENISON, MI, 49428",71083246,"L"
833190,"7225 HEMLOCK LN APT 112","MAPLE GROVE","MN",55369,45.08553892,-93.431440242,190,"7225 HEMLOCK LN APT 112, MAPLE GROVE, MN, 55369","Match","Non_Exact","7225 HEMLOCK LN N, MAPLE GROVE, MN, 55369",640692445,"R"
833191,"7225 HIGHWAY 41","LEMOORE","CA",93245,36.3717506140001,-119.80956132,191,"7225 HIGHWAY 41, LEMOORE, CA, 93245","Match","Non_Exact","7225 STATE HWY 41, LEMOORE, CA, 93245",197995279,"R"
833192,"7225 HUNTVALLEY TRAIL","WENDELL","NC",27591,35.7454333060001,-78.40056118,192,"7225 HUNTVALLEY TRAIL, WENDELL, NC, 27591","Match","Non_Exact","7225 HUNT VALLEY TRL, WENDELL, NC, 27591",72541588,"R"
833193,"7225 HWY 162","HOLLYWOOD","SC",29449,32.7275088010001,-80.291319813,193,"7225 HWY 162, HOLLYWOOD, SC, 29449","Match","Non_Exact","7225 STATE HWY 162, HOLLYWOOD, SC, 29449",639950792,"R"
833194,"7225 JOHNSTON ROAD","ZOLFO SPRINGS","FL",33890,27.4003146220001,-81.62917325,194,"7225 JOHNSTON ROAD, ZOLFO SPRINGS, FL, 33890","Match","Exact","7225 JOHNSTON RD, ZOLFO SPRINGS, FL, 33890",16197357,"R"
833195,"7225 LEDBETTER RD","CLIMAX","NC",27233,35.910951647,-79.690769506,195,"7225 LEDBETTER RD, CLIMAX, NC, 27233","Match","Exact","7225 LEDBETTER RD, CLIMAX, NC, 27233",131091287,"R"
833196,"7225 LEMONWOOD","LEMON GROVE","CA",91945,NA,NA,196,"7225 LEMONWOOD, LEMON GROVE, CA, 91945","No_Match",NA,NA,NA,NA
833197,"7225 LINCOLNSHIRE RD","LINCOLN","NE",68506,40.7940539960001,-96.621239638,197,"7225 LINCOLNSHIRE RD, LINCOLN, NE, 68506","Match","Exact","7225 LINCOLNSHIRE RD, LINCOLN, NE, 68506",28261307,"R"
833198,"7225 MIDDLEPOINT","DEARBORN","MI",48126,NA,NA,198,"7225 MIDDLEPOINT, DEARBORN, MI, 48126","No_Match",NA,NA,NA,NA
833199,"7225 NORMANDY RD","FORT WORTH","TX",76112,32.7488956650001,-97.204423323,199,"7225 NORMANDY RD, FORT WORTH, TX, 76112","Match","Exact","7225 NORMANDY RD, FORT WORTH, TX, 76112",101900468,"L"
833200,"7225 NORTH 69TH CIRCLE","OMAHA","NE",68152,41.3244693610001,-96.018821627,200,"7225 NORTH 69TH CIRCLE, OMAHA, NE, 68152","Match","Exact","7225 N 69TH CIR, OMAHA, NE, 68152",116974693,"R"
833201,"7225 PERRYSVILLE AVENUE","PITTSBURGH","PA",15202,40.510156871,-80.0837018889999,201,"7225 PERRYSVILLE AVENUE, PITTSBURGH, PA, 15202","Match","Exact","7225 PERRYSVILLE AVE, PITTSBURGH, PA, 15202",51614361,"L"
833202,"7225 RHAPSODY LANE","HUGHSON","CA",95326,37.607895355,-120.862868166,202,"7225 RHAPSODY LANE, HUGHSON, CA, 95326","Match","Exact","7225 RHAPSODY LN, HUGHSON, CA, 95326",102643151,"L"
833203,"7225 S 145 STREET","OMAHA","NE",68138,41.1882444670001,-96.1403292539999,203,"7225 S 145 STREET, OMAHA, NE, 68138","Match","Exact","7225 S 145TH ST, OMAHA, NE, 68138",28465499,"L"
833204,"7225 S 58TH AVE","LAVEEN","AZ",85339,33.3811217890001,-112.18320715,204,"7225 S 58TH AVE, LAVEEN, AZ, 85339","Match","Exact","7225 S 58TH AVE, LAVEEN, AZ, 85339",244010929,"R"
833205,"7225 S MAIN ST","LOS ANGELES","CA",90003,33.9744426290001,-118.273933607,205,"7225 S MAIN ST, LOS ANGELES, CA, 90003","Match","Exact","7225 S MAIN ST, LOS ANGELES, CA, 90003",141659855,"R"
833206,"7225 SE 36TH ST","MERCER ISLAND","WA",98040,47.578145325,-122.241877945,206,"7225 SE 36TH ST, MERCER ISLAND, WA, 98040","Match","Exact","7225 SE 36TH ST, MERCER ISLAND, WA, 98040",186606038,"R"
833207,"7225 SE 86TH","PORTLAND","OR",97266,45.4708882950001,-122.574892221,207,"7225 SE 86TH, PORTLAND, OR, 97266","Match","Non_Exact","7225 SE 86TH AVE, PORTLAND, OR, 97266",157517685,"R"
833208,"7225 SHERBOURNE LANE","SAN DIEGO","CA",92129,32.961636797,-117.162922034,208,"7225 SHERBOURNE LANE, SAN DIEGO, CA, 92129","Match","Exact","7225 SHERBOURNE LN, SAN DIEGO, CA, 92129",619628427,"L"
833209,"7225 SO HAMPTON RD","LINCOLN","NE",68506,40.792478159,-96.622087833,209,"7225 SO HAMPTON RD, LINCOLN, NE, 68506","Match","Exact","7225 S HAMPTON RD, LINCOLN, NE, 68506",28261305,"R"
833210,"7225 SOUTH HAMPTON RD","LINCOLN","NE",68506,40.792478159,-96.622087833,210,"7225 SOUTH HAMPTON RD, LINCOLN, NE, 68506","Match","Exact","7225 S HAMPTON RD, LINCOLN, NE, 68506",28261305,"R"
833211,"7225 SOUTH MERILL AVE","CHICAGO","IL",60649,41.763597116,-87.572524511,211,"7225 SOUTH MERILL AVE, CHICAGO, IL, 60649","Match","Non_Exact","7225 S MERRILL AVE, CHICAGO, IL, 60649",111775608,"L"
833212,"7225 STONEGATE DR","SAINT LOUIS","MO",63123,38.577369307,-90.3168583459999,212,"7225 STONEGATE DR, SAINT LOUIS, MO, 63123","Match","Exact","7225 STONEGATE DR, SAINT LOUIS, MO, 63123",100153702,"R"
833213,"7225 W HIGGINS AVE","CHICAGO","IL",60656,41.9812168390001,-87.80743991,213,"7225 W HIGGINS AVE, CHICAGO, IL, 60656","Match","Exact","7225 W HIGGINS AVE, CHICAGO, IL, 60656",605266652,"L"
833214,"7225 WALNUT DRIVE","LOS ANGELES","CA",90001,33.974274677,-118.239524777,214,"7225 WALNUT DRIVE, LOS ANGELES, CA, 90001","Match","Exact","7225 WALNUT DR, LOS ANGELES, CA, 90001",141671921,"R"
833215,"7225 WEST REEVES ROAD","BLOOMINGTON","IN",47404,39.231169155,-86.634055893,215,"7225 WEST REEVES ROAD, BLOOMINGTON, IN, 47404","Match","Exact","7225 W REEVES RD, BLOOMINGTON, IN, 47404",638825537,"L"
833216,"7225 WHITEHALL RD","SHAKOPEE","MN",55379,44.7744356270001,-93.425172544,216,"7225 WHITEHALL RD, SHAKOPEE, MN, 55379","Match","Exact","7225 WHITEHALL RD, SHAKOPEE, MN, 55379",38154295,"L"
833217,"7225 WILTSHIRE PLACE","HIGHLANDS RANCH","CO",80130,NA,NA,217,"7225 WILTSHIRE PLACE, HIGHLANDS RANCH, CO, 80130","Tie",NA,NA,NA,NA
833218,"72256 KUSTENMACHER RD","ABITA SPRINGS","LA",70420,30.4774616500001,-90.0499703039999,218,"72256 KUSTENMACHER RD, ABITA SPRINGS, LA, 70420","Match","Exact","72256 KUSTENMACHER RD, ABITA SPRINGS, LA, 70420",111282399,"R"
833219,"72258","EUGENE","OR",97401,NA,NA,219,"72258, EUGENE, OR, 97401","No_Match",NA,NA,NA,NA
833220,"72259 RAINBOW DRIVE","COVINGTON","LA",70433,30.481243847,-90.061176116,220,"72259 RAINBOW DRIVE, COVINGTON, LA, 70433","Match","Exact","72259 RAINBOW DR, COVINGTON, LA, 70433",111259450,"L"
833221,"7226 235TH STREET WEST","FARMINGTON","MN",55024,44.608872047,-93.212756882,221,"7226 235TH STREET WEST, FARMINGTON, MN, 55024","Match","Exact","7226 235TH ST W, FARMINGTON, MN, 55024",636520882,"R"
833222,"7226 ALAMEDA AVE","EL PASO","TX",79915,31.74822082,-106.385548652,222,"7226 ALAMEDA AVE, EL PASO, TX, 79915","Match","Exact","7226 ALAMEDA AVE, EL PASO, TX, 79915",189346651,"R"
833223,"7226 BELMONT AVE","MAYS LANDING","NJ",8330,39.524628471,-74.812017898,223,"7226 BELMONT AVE, MAYS LANDING, NJ, 8330","Match","Exact","7226 BELMONT AVE, MAYS LANDING, NJ, 08330",202519025,"L"
833224,"7226 BELMONT AVENUE","MAYS LANDING","NJ",8330,39.524628471,-74.812017898,224,"7226 BELMONT AVENUE, MAYS LANDING, NJ, 8330","Match","Exact","7226 BELMONT AVE, MAYS LANDING, NJ, 08330",202519025,"L"
833225,"7226 BERANGER DR","IRVING","TX",75063,32.905501977,-96.9901981259999,225,"7226 BERANGER DR, IRVING, TX, 75063","Match","Exact","7226 BERANGER DR, IRVING, TX, 75063",643199013,"L"
833226,"7226 BLACK BULL LANE","ORLANDO","FL",32835,28.5206719280001,-81.484419117,226,"7226 BLACK BULL LANE, ORLANDO, FL, 32835","Match","Exact","7226 BLACK BULL LN, ORLANDO, FL, 32835",94355637,"R"
833227,"7226 BRITTANY WAY","DOUGLASVILLE","GA",30134,33.779032623,-84.734302342,227,"7226 BRITTANY WAY, DOUGLASVILLE, GA, 30134","Match","Exact","7226 BRITTANY WAY, DOUGLASVILLE, GA, 30134",618477920,"L"
833228,"7226 BROOKCREST PLACE","ANNANDALE","VA",22003,38.8421379690001,-77.19465557,228,"7226 BROOKCREST PLACE, ANNANDALE, VA, 22003","Match","Exact","7226 BROOKCREST PL, ANNANDALE, VA, 22003",75980211,"R"
833229,"7226 CANMORE LANE","KNOXVILLE","TN",37919,35.929255095,-84.0234821889999,229,"7226 CANMORE LANE, KNOXVILLE, TN, 37919","Match","Exact","7226 CANMORE LN, KNOXVILLE, TN, 37919",42669905,"R"
833230,"7226 COBBLE CREEK DRIVE","MATTHEWS","NC",28104,35.0246839690001,-80.701174877,230,"7226 COBBLE CREEK DRIVE, MATTHEWS, NC, 28104","Match","Exact","7226 COBBLE CREEK DR, MATTHEWS, NC, 28104",649472778,"L"
833231,"7226 COLEMAN","DEARBORN","MI",48126,42.344034133,-83.194101188,231,"7226 COLEMAN, DEARBORN, MI, 48126","Match","Non_Exact","7226 COLEMAN ST, DEARBORN, MI, 48126",95442074,"R"
833232,"7226 CONCORDRIDGE DRIVE","CINCINNATI","OH",45244,39.098399525,-84.355471801,232,"7226 CONCORDRIDGE DRIVE, CINCINNATI, OH, 45244","Match","Exact","7226 CONCORDRIDGE DR, CINCINNATI, OH, 45244",103940370,"L"
833233,"7226 DEUCE RD","TOMAH","WI",54660,44.0697408940001,-90.5081714789999,233,"7226 DEUCE RD, TOMAH, WI, 54660","Match","Exact","7226 DEUCE RD, TOMAH, WI, 54660",653394320,"L"
833234,"7226 EAST CHANDLER AVENUE","EVANSVILLE","IN",47715,37.9647345650001,-87.464624541,234,"7226 EAST CHANDLER AVENUE, EVANSVILLE, IN, 47715","Match","Exact","7226 E CHANDLER AVE, EVANSVILLE, IN, 47715",39787942,"L"
833235,"7226 EMANON","DEARBORN","MI",48126,42.34482459,-83.1602755929999,235,"7226 EMANON, DEARBORN, MI, 48126","Match","Non_Exact","7226 EMANON ST, DEARBORN, MI, 48126",95443514,"R"
833236,"7226 FOUR RIVERS ROAD","BOULDER","CO",80301,40.0682213970001,-105.185536987,236,"7226 FOUR RIVERS ROAD, BOULDER, CO, 80301","Match","Exact","7226 FOUR RIVERS RD, BOULDER, CO, 80301",220752213,"R"
833237,"7226 GENERAL SHERMAN LN","AFFTON","MO",63123,38.5641273850001,-90.3391830749999,237,"7226 GENERAL SHERMAN LN, AFFTON, MO, 63123","Match","Exact","7226 GENERAL SHERMAN LN, AFFTON, MO, 63123",100141775,"L"
833238,"7226 INDIAN BOUNDARY","GARY","IN",46403,41.617307403,-87.251121891,238,"7226 INDIAN BOUNDARY, GARY, IN, 46403","Match","Exact","7226 INDIAN BOUNDARY, GARY, IN, 46403",98428037,"L"
833239,"7226 JACKSON MORGAN LANE","POWELL","TN",37849,36.01988218,-84.026840507,239,"7226 JACKSON MORGAN LANE, POWELL, TN, 37849","Match","Exact","7226 JACKSON MORGAN LN, POWELL, TN, 37849",624278450,"L"
833240,"7226 JESSMAN ROAD EAST DRIVE","INDIANAPOLIS","IN",46256,39.8863734180001,-86.0391235229999,240,"7226 JESSMAN ROAD EAST DRIVE, INDIANAPOLIS, IN, 46256","Match","Exact","7226 JESSMAN ROAD E DR, INDIANAPOLIS, IN, 46256",108017828,"L"
833241,"7226 JOHNSON RD","INDIANAPOLIS","IN",46250,39.885372261,-86.05074623,241,"7226 JOHNSON RD, INDIANAPOLIS, IN, 46250","Match","Exact","7226 JOHNSON RD, INDIANAPOLIS, IN, 46250",107996700,"L"
833242,"7226 KETCHEL DRIVE","COMSTOCK PARK","MI",49321,43.0935628410001,-85.6490374369999,242,"7226 KETCHEL DRIVE, COMSTOCK PARK, MI, 49321","Match","Non_Exact","7226 KETCHEL DR NE, COMSTOCK PARK, MI, 49321",12451378,"L"
833243,"7226 N GREENWICH AVE","PORTLAND","OR",97217,45.5755871120001,-122.683204892,243,"7226 N GREENWICH AVE, PORTLAND, OR, 97217","Match","Exact","7226 N GREENWICH AVE, PORTLAND, OR, 97217",157495729,"R"
833244,"7226 N MAHR CR","SPOKANE","WA",99208,47.7239137660001,-117.429181791,244,"7226 N MAHR CR, SPOKANE, WA, 99208","Match","Non_Exact","7226 N MAHR CT, SPOKANE, WA, 99208",189868115,"R"
833245,"7226 PENNSYLVANIA AVENUE","POLAND","OH",44514,41.0252826760001,-80.619439535,245,"7226 PENNSYLVANIA AVENUE, POLAND, OH, 44514","Match","Exact","7226 PENNSYLVANIA AVE, POLAND, OH, 44514",64599825,"R"
833246,"7226 S 58TH AVE","LAVEEN","AZ",85339,33.3811060400001,-112.183222244,246,"7226 S 58TH AVE, LAVEEN, AZ, 85339","Match","Exact","7226 S 58TH AVE, LAVEEN, AZ, 85339",244010929,"L"
833247,"7226 S 90TH EAST AVE APT 2079","TULSA","OK",74133,36.0580124750001,-95.874318382,247,"7226 S 90TH EAST AVE APT 2079, TULSA, OK, 74133","Match","Non_Exact","7226 S 90TH EAST AVE, TULSA, OK, 74133",166510480,"L"
833248,"7226 S YATES BLVD APT 2S","CHICAGO","IL",60649,41.7638774590001,-87.566478741,248,"7226 S YATES BLVD APT 2S, CHICAGO, IL, 60649","Match","Non_Exact","7226 S YATES BLVD, CHICAGO, IL, 60649",111775683,"R"
833249,"7226 SCOOTWOOD AVE","CINCINNATI","OH",45237,39.1935328060001,-84.461964984,249,"7226 SCOOTWOOD AVE, CINCINNATI, OH, 45237","Match","Non_Exact","7226 SCOTTWOOD AVE, CINCINNATI, OH, 45237",103928454,"R"
833250,"7226 STATE ROUTE 9","CHESTERTOWN","NY",12817,NA,NA,250,"7226 STATE ROUTE 9, CHESTERTOWN, NY, 12817","No_Match",NA,NA,NA,NA
833251,"7226 TUNISIA LOOP","FORT HOOD","TX",76544,31.1256241770001,-97.746058455,251,"7226 TUNISIA LOOP, FORT HOOD, TX, 76544","Match","Exact","7226 TUNISIA LOOP, FORT HOOD, TX, 76544",634563360,"L"
833252,"7226 WALNUT RIDGE CIR","LAS VEGAS","NV",89119,36.0592798110001,-115.129296279,252,"7226 WALNUT RIDGE CIR, LAS VEGAS, NV, 89119","Match","Exact","7226 WALNUT RIDGE CIR, LAS VEGAS, NV, 89119",201872860,"L"
833253,"7226 WHIPPLE STREET","Pittsburgh","PA",15218,40.4247972680001,-79.895966003,253,"7226 WHIPPLE STREET, Pittsburgh, PA, 15218","Match","Exact","7226 WHIPPLE ST, PITTSBURGH, PA, 15218",639084618,"R"
833254,"7226 WICKFORD DR","ALEXANDRIA","VA",22315,38.7614949800001,-77.128763124,254,"7226 WICKFORD DR, ALEXANDRIA, VA, 22315","Match","Exact","7226 WICKFORD DR, ALEXANDRIA, VA, 22315",75985696,"R"
833255,"7226 WILLOW RAIN","SAN ANTONIO","TX",78244,29.489613494,-98.3461060069999,255,"7226 WILLOW RAIN, SAN ANTONIO, TX, 78244","Match","Exact","7226 WILLOW RAIN, SAN ANTONIO, TX, 78244",645362753,"R"
833256,"7227 ALICIAS WAY","MORROW","GA",30260,33.5571486870001,-84.341123422,256,"7227 ALICIAS WAY, MORROW, GA, 30260","Match","Non_Exact","7227 ALICIA'S WAY, MORROW, GA, 30260",632324979,"L"
833257,"7227 AVENTINE WAY","CHATTANOOGA","TN",37421,35.0141279760001,-85.1695565429999,257,"7227 AVENTINE WAY, CHATTANOOGA, TN, 37421","Match","Exact","7227 AVENTINE WAY, CHATTANOOGA, TN, 37421",645100376,"L"
833258,"7227 BLAIR ROAD NW","WASHINGTON","DC",20012,38.9771016390001,-77.020847358,258,"7227 BLAIR ROAD NW, WASHINGTON, DC, 20012","Match","Exact","7227 BLAIR RD NW, WASHINGTON, DC, 20012",76221761,"R"
833259,"7227 BRANICO DR","ROANOKE","VA",24018,37.179450381,-80.012046251,259,"7227 BRANICO DR, ROANOKE, VA, 24018","Match","Exact","7227 BRANICO DR, ROANOKE, VA, 24018",62922394,"L"
833260,"7227 CANA","GRAND PRAIRIE","TX",75054,32.583390353,-97.059591971,260,"7227 CANA, GRAND PRAIRIE, TX, 75054","Match","Exact","7227 CANA, GRAND PRAIRIE, TX, 75054",617672292,"R"
833261,"7227 COMSTOCK AVE UNIT F","WHITTIER","CA",90602,33.976727936,-118.038570078,261,"7227 COMSTOCK AVE UNIT F, WHITTIER, CA, 90602","Match","Exact","7227 COMSTOCK AVE, WHITTIER, CA, 90602",141747869,"R"
833262,"7227 E HIGHWAY 290","AUSTIN","TX",78723,30.3226675440001,-97.680832967,262,"7227 E HIGHWAY 290, AUSTIN, TX, 78723","Match","Exact","7227 E HWY 290, AUSTIN, TX, 78723",64101867,"R"
833263,"7227 GALLANT GLEN LN","HOUSTON","TX",77095,29.8834016010001,-95.664522198,263,"7227 GALLANT GLEN LN, HOUSTON, TX, 77095","Match","Exact","7227 GALLANT GLEN LN, HOUSTON, TX, 77095",96123509,"L"
833264,"7227 LACY HILL DRIVE","HOUSTON","TX",77036,29.7005844780001,-95.5446662799999,264,"7227 LACY HILL DRIVE, HOUSTON, TX, 77036","Match","Exact","7227 LACY HILL DR, HOUSTON, TX, 77036",96024245,"L"
833265,"7227 LAND O LAKES BLVD","LAND O LAKES","FL",32306,NA,NA,265,"7227 LAND O LAKES BLVD, LAND O LAKES, FL, 32306","No_Match",NA,NA,NA,NA
833266,"7227 LAND O LAKES BLVD","LAND O LAKES","FL",34638,NA,NA,266,"7227 LAND O LAKES BLVD, LAND O LAKES, FL, 34638","No_Match",NA,NA,NA,NA
833267,"7227 LAND O LAKES","LAND O LAKES","FL",34638,NA,NA,267,"7227 LAND O LAKES, LAND O LAKES, FL, 34638","No_Match",NA,NA,NA,NA
833268,"7227 N ALBINA AVE","PORTLAND","OR",97217,45.57533081,-122.674817755,268,"7227 N ALBINA AVE, PORTLAND, OR, 97217","Match","Exact","7227 N ALBINA AVE, PORTLAND, OR, 97217",157502059,"L"
833269,"7227 N BELL","CHICAGO","IL",60645,42.0130036960001,-87.686194504,269,"7227 N BELL, CHICAGO, IL, 60645","Match","Non_Exact","7227 N BELL AVE, CHICAGO, IL, 60645",605261283,"R"
833270,"7227 N LAFAYETTE STREET","DEARBORN HIEGHTS","MI",48127,42.341760863,-83.2792689939999,270,"7227 N LAFAYETTE STREET, DEARBORN HIEGHTS, MI, 48127","Match","Non_Exact","7227 N LAFAYETTE ST, DEARBORN HEIGHTS, MI, 48127",95431005,"L"
833271,"7227 N PHILADELPHIA AVE","PORTLAND","OR",97203,45.5892274870001,-122.756055134,271,"7227 N PHILADELPHIA AVE, PORTLAND, OR, 97203","Match","Exact","7227 N PHILADELPHIA AVE, PORTLAND, OR, 97203",157493240,"L"
833272,"7227 N PHILADELPHIA AVENUE APT 116","PORTLAND","OR",97203,45.5892274870001,-122.756055134,272,"7227 N PHILADELPHIA AVENUE APT 116, PORTLAND, OR, 97203","Match","Non_Exact","7227 N PHILADELPHIA AVE, PORTLAND, OR, 97203",157493240,"L"
833273,"7227 PINELAND TRAIL","DAYTON","OH",45415,39.8526805920001,-84.288683452,273,"7227 PINELAND TRAIL, DAYTON, OH, 45415","Match","Exact","7227 PINELAND TRL, DAYTON, OH, 45415",143608666,"R"
833274,"7227 PLANTAIN DRIVE","ORLANDO","FL",32818,28.561442732,-81.486089756,274,"7227 PLANTAIN DRIVE, ORLANDO, FL, 32818","Match","Exact","7227 PLANTAIN DR, ORLANDO, FL, 32818",94271083,"R"
833275,"7227 POINT PLEASANT RD","ELK GROVE","CA",95757,38.335877827,-121.419029101,275,"7227 POINT PLEASANT RD, ELK GROVE, CA, 95757","Match","Exact","7227 POINT PLEASANT RD, ELK GROVE, CA, 95757",629156690,"L"
833276,"7227 PULEHU STREET","HONOLULU","HI",96825,21.2920953570001,-157.691550558,276,"7227 PULEHU STREET, HONOLULU, HI, 96825","Match","Exact","7227 PULEHU ST, HONOLULU, HI, 96825",203244394,"R"
833277,"7227 QUAIL RIDGE DRIVE","CHARLOTTE","NC",28226,35.0914377830001,-80.83852072,277,"7227 QUAIL RIDGE DRIVE, CHARLOTTE, NC, 28226","Match","Exact","7227 QUAIL RIDGE DR, CHARLOTTE, NC, 28226",70490970,"R"
833278,"7227 REINERSTEN DRIVE","BRITT","MN",55710,NA,NA,278,"7227 REINERSTEN DRIVE, BRITT, MN, 55710","No_Match",NA,NA,NA,NA
833279,"7227 SIERRA WAY","DALLAS","TX",75241,32.658108575,-96.776932341,279,"7227 SIERRA WAY, DALLAS, TX, 75241","Match","Exact","7227 SIERRA WAY, DALLAS, TX, 75241",103190612,"R"
833280,"7227 SUNSET TERRACE","SAN ANTONIO","TX",78244,29.4880882420001,-98.347226419,280,"7227 SUNSET TERRACE, SAN ANTONIO, TX, 78244","Match","Exact","7227 SUNSET TER, SAN ANTONIO, TX, 78244",645362625,"L"
833281,"7227 SW 22ND PLACE","GAINESVILLE","FL",32607,29.63226402,-82.420220366,281,"7227 SW 22ND PLACE, GAINESVILLE, FL, 32607","Match","Exact","7227 SW 22ND PL, GAINESVILLE, FL, 32607",6804251,"R"
833282,"7227 THURSTON RD","SPRINGFIELD","OR",97478,44.051805329,-122.897310943,282,"7227 THURSTON RD, SPRINGFIELD, OR, 97478","Match","Exact","7227 THURSTON RD, SPRINGFIELD, OR, 97478",178198092,"R"
833283,"7227 W 15TH AVE","KENNEWICK","WA",99338,46.1948319350001,-119.219248245,283,"7227 W 15TH AVE, KENNEWICK, WA, 99338","Match","Exact","7227 W 15TH AVE, KENNEWICK, WA, 99338",175006615,"L"
833284,"7227 WILTON CHASE","DUBLIN","OH",43017,40.1598891180001,-83.18154272,284,"7227 WILTON CHASE, DUBLIN, OH, 43017","Match","Exact","7227 WILTON CHASE, DUBLIN, OH, 43017",646602135,"L"
833285,"7227 WOODLAWN AVE","HAMMOND","IN",46324,41.582415702,-87.5077009399999,285,"7227 WOODLAWN AVE, HAMMOND, IN, 46324","Match","Exact","7227 WOODLAWN AVE, HAMMOND, IN, 46324",98417744,"L"
833286,"7227 WYMART ROAD","PENSACOLA","FL",32526,30.4960316620001,-87.289407532,286,"7227 WYMART ROAD, PENSACOLA, FL, 32526","Match","Exact","7227 WYMART RD, PENSACOLA, FL, 32526",93277859,"L"
833287,"7227 YORK CREST","NORTH RIDGEVILLE","OH",44039,41.387456107,-82.00776209,287,"7227 YORK CREST, NORTH RIDGEVILLE, OH, 44039","Match","Non_Exact","7227 YORK CRES, N RIDGEVILLE, OH, 44039",55420336,"R"
833288,"72274 BILLY ROAD","PENDLETON","OR",97801,NA,NA,288,"72274 BILLY ROAD, PENDLETON, OR, 97801","No_Match",NA,NA,NA,NA
833289,"7228 ALLAN AVENUE","FALLS CHURCH","VA",22046,38.8863613600001,-77.195253781,289,"7228 ALLAN AVENUE, FALLS CHURCH, VA, 22046","Match","Exact","7228 ALLAN AVE, FALLS CHURCH, VA, 22046",75978408,"R"
833290,"7228 ANTON CIRCLE NE","ALBUQUERQUE","NM",87122,35.1627974620001,-106.528009113,290,"7228 ANTON CIRCLE NE, ALBUQUERQUE, NM, 87122","Match","Exact","7228 ANTON CIR NE, ALBUQUERQUE, NM, 87122",647339727,"R"
833291,"7228 BLACK WALNUT CIRCLE","LOUISVILLE","KY",40229,38.096153966,-85.6438067889999,291,"7228 BLACK WALNUT CIRCLE, LOUISVILLE, KY, 40229","Match","Exact","7228 BLACK WALNUT CIR, LOUISVILLE, KY, 40229",648039565,"R"
833292,"7228 BROWN DRIVE NORTHWEST","MALVERN","OH",44644,40.6903812730001,-81.19514065,292,"7228 BROWN DRIVE NORTHWEST, MALVERN, OH, 44644","Match","Exact","7228 BROWN DR NW, MALVERN, OH, 44644",44184589,"L"
833293,"7228 CLARCONA OCOEE RD UNIT 285","CLARCANO","FL",32710,NA,NA,293,"7228 CLARCONA OCOEE RD UNIT 285, CLARCANO, FL, 32710","No_Match",NA,NA,NA,NA
833294,"7228 CLARCONA7228 OCOEE RD UNIT 285","CLARCANO","FL",32710,NA,NA,294,"7228 CLARCONA7228 OCOEE RD UNIT 285, CLARCANO, FL, 32710","No_Match",NA,NA,NA,NA
833295,"7228 CLARENDON STREET","SAN JOSE","CA",95129,37.3083442080001,-122.030592415,295,"7228 CLARENDON STREET, SAN JOSE, CA, 95129","Match","Exact","7228 CLARENDON ST, SAN JOSE, CA, 95129",123180943,"L"
833296,"7228 COMMERCIAL STREET","BEULAH","MI",49617,44.6283758910001,-86.0950012,296,"7228 COMMERCIAL STREET, BEULAH, MI, 49617","Match","Non_Exact","7228 COMMERCIAL AVE, BEULAH, MI, 49617",145912968,"R"
833297,"7228 COUNTY RD 346","SUMMERSVILLE","MO",65571,NA,NA,297,"7228 COUNTY RD 346, SUMMERSVILLE, MO, 65571","No_Match",NA,NA,NA,NA
833298,"7228 ELMWOOD AVE","MIDDLETON","WI",53562,43.096064185,-89.505538547,298,"7228 ELMWOOD AVE, MIDDLETON, WI, 53562","Match","Exact","7228 ELMWOOD AVE, MIDDLETON, WI, 53562",49464636,"R"
833299,"7228 EVE COURT","LAS VEGAS","NV",89145,36.163552366,-115.256291311,299,"7228 EVE COURT, LAS VEGAS, NV, 89145","Match","Exact","7228 EVE CT, LAS VEGAS, NV, 89145",201858313,"R"
833300,"7228 EVERGLADES BLVD","NAPLES","FL",34120,26.364310135,-81.5463219279999,300,"7228 EVERGLADES BLVD, NAPLES, FL, 34120","Match","Non_Exact","7228 EVERGLADES BLVD N, NAPLES, FL, 34120",115128573,"R"
833301,"7228 GOLD MINE AVE","AUSTELL","GA",30168,33.77777396,-84.558679345,301,"7228 GOLD MINE AVE, AUSTELL, GA, 30168","Match","Exact","7228 GOLD MINE AVE, AUSTELL, GA, 30168",634052029,"L"
833302,"7228 GREAT PANDA COVE","DEL VALLE","TX",78617,30.1558411710001,-97.644453246,302,"7228 GREAT PANDA COVE, DEL VALLE, TX, 78617","Match","Exact","7228 GREAT PANDA COVE, DEL VALLE, TX, 78617",64006825,"R"
833303,"7228 HAZELTINE COURT","DENVER","NC",28037,35.4805155070001,-81.0340732449999,303,"7228 HAZELTINE COURT, DENVER, NC, 28037","Match","Exact","7228 HAZELTINE CT, DENVER, NC, 28037",625229609,"L"
833304,"7228 HUMBER CIRCLE","WESLEY CHAPEL","FL",33545,28.2594899690001,-82.296287696,304,"7228 HUMBER CIRCLE, WESLEY CHAPEL, FL, 33545","Match","Exact","7228 HUMBER CIR, WESLEY CHAPEL, FL, 33545",634073987,"R"
833305,"7228 KINGS RIDGE DRIVE","CHARLOTTE","NC",28217,35.1401407440001,-80.882646197,305,"7228 KINGS RIDGE DRIVE, CHARLOTTE, NC, 28217","Match","Exact","7228 KINGS RIDGE DR, CHARLOTTE, NC, 28217",640627695,"L"
833306,"7228 LINDEN ROAD","FENTON","MI",48430,42.7143717930001,-83.78251117,306,"7228 LINDEN ROAD, FENTON, MI, 48430","Match","Exact","7228 LINDEN RD, FENTON, MI, 48430",23585153,"R"
833307,"7228 MORENA VILLA DR","HIGHLAND","CA",92346,NA,NA,307,"7228 MORENA VILLA DR, HIGHLAND, CA, 92346","No_Match",NA,NA,NA,NA
833308,"7228 N 72ND DR","GLENDALE","AZ",85303,33.541013381,-112.214252031,308,"7228 N 72ND DR, GLENDALE, AZ, 85303","Match","Exact","7228 N 72ND DR, GLENDALE, AZ, 85303",613300075,"L"
833309,"7228 N BEAU AVE","MILWAUKEE","WI",53224,43.1484590970001,-88.0637289809999,309,"7228 N BEAU AVE, MILWAUKEE, WI, 53224","Match","Exact","7228 N BEAU AVE, MILWAUKEE, WI, 53224",618710894,"L"
833310,"7228 N ROGERS AVE APT 8","CHICAGO","IL",60645,42.012901013,-87.681874218,310,"7228 N ROGERS AVE APT 8, CHICAGO, IL, 60645","Match","Non_Exact","7228 N ROGERS AVE, CHICAGO, IL, 60645",616887324,"L"
833311,"7228 PENNSYLVANIA AVE","ST. LOUIS","MO",63111,38.55071996,-90.2558463079999,311,"7228 PENNSYLVANIA AVE, ST. LOUIS, MO, 63111","Match","Exact","7228 PENNSYLVANIA AVE, SAINT LOUIS, MO, 63111",107603151,"L"
833312,"7228 PROCTOR LANE","MARSING","ID",83639,43.5270823640001,-116.784135035,312,"7228 PROCTOR LANE, MARSING, ID, 83639","Match","Exact","7228 PROCTOR LN, MARSING, ID, 83639",648498780,"R"
833313,"7228 S CALUMET","CHICAGO","IL",60619,41.7632629280001,-87.616818386,313,"7228 S CALUMET, CHICAGO, IL, 60619","Match","Non_Exact","7228 S CALUMET AVE, CHICAGO, IL, 60619",111772320,"R"
833314,"7228 SPRING VALLEY ROAD","DALLAS","TX",75254,32.940238934,-96.779289547,314,"7228 SPRING VALLEY ROAD, DALLAS, TX, 75254","Match","Exact","7228 SPRING VALLEY RD, DALLAS, TX, 75254",102900914,"R"
833315,"7228 STONEHAVEN CT","PINELLAS PARK","FL",33781,27.8286888010001,-82.7397142999999,315,"7228 STONEHAVEN CT, PINELLAS PARK, FL, 33781","Match","Exact","7228 STONEHAVEN CT, PINELLAS PARK, FL, 33781",124692685,"L"
833316,"7228 TABOR AVE","PHILADELPHIA","PA",19111,40.0581375670001,-75.081838179,316,"7228 TABOR AVE, PHILADELPHIA, PA, 19111","Match","Exact","7228 TABOR AVE, PHILADELPHIA, PA, 19111",131415784,"L"
833317,"7228 ULIRICH","DEXTER","MI",48130,42.332271625,-83.8681856649999,317,"7228 ULIRICH, DEXTER, MI, 48130","Match","Non_Exact","7228 ULRICH ST, DEXTER, MI, 48130",648231878,"R"
833318,"7229 BEECH AVENUE","ORANGEVALE","CA",95662,38.698251531,-121.229988936,318,"7229 BEECH AVENUE, ORANGEVALE, CA, 95662","Match","Exact","7229 BEECH AVE, ORANGEVALE, CA, 95662",133363961,"L"
833319,"7229 BERGEN COURT","BROOKLYN","NY",11234,40.6249583490001,-73.91091517,319,"7229 BERGEN COURT, BROOKLYN, NY, 11234","Match","Exact","7229 BERGEN CT, BROOKLYN, NY, 11234",59098205,"L"
833320,"7229 BOGGESS","HOUSTON","TX",77016,29.859576335,-95.29845077,320,"7229 BOGGESS, HOUSTON, TX, 77016","Match","Non_Exact","7229 BOGGESS RD, HOUSTON, TX, 77016",96075602,"L"
833321,"7229 CHAIN LAKE DRIVE","SOUTH BRANCH","MI",48761,44.4868518960001,-83.8477218369999,321,"7229 CHAIN LAKE DRIVE, SOUTH BRANCH, MI, 48761","Match","Exact","7229 CHAIN LAKE DR, SOUTH BRANCH, MI, 48761",632689703,"L"
833322,"7229 CRANBROOK COURT","INDIANAPOLIS","IN",46250,39.885104557,-86.095020253,322,"7229 CRANBROOK COURT, INDIANAPOLIS, IN, 46250","Match","Exact","7229 CRANBROOK CT, INDIANAPOLIS, IN, 46250",107994789,"R"
833323,"7229 CREEKS BEND","WEST BLOOMFIELD","MI",48322,NA,NA,323,"7229 CREEKS BEND, WEST BLOOMFIELD, MI, 48322","Tie",NA,NA,NA,NA
833324,"7229 EASY STREET","CAMP SPRINGS","MD",20746,38.7910443870001,-76.918033378,324,"7229 EASY STREET, CAMP SPRINGS, MD, 20746","Match","Non_Exact","7229 EASY ST, CAMP SPRINGS, MD, 20748",76330479,"R"
833325,"7229 EDNA CT","LA VISTA","NE",68128,41.188599842,-96.02482374,325,"7229 EDNA CT, LA VISTA, NE, 68128","Match","Exact","7229 EDNA CT, LA VISTA, NE, 68128",28486304,"R"
833326,"7229 FAIRWOODS PLACE","MONTGOMERY","AL",36117,32.3554773290001,-86.149698013,326,"7229 FAIRWOODS PLACE, MONTGOMERY, AL, 36117","Match","Exact","7229 FAIRWOODS PL, MONTGOMERY, AL, 36117",1526134,"L"
833327,"7229 FERGUSON RD APT 1403","DALLAS","TX",75228,32.795357919,-96.7219495259999,327,"7229 FERGUSON RD APT 1403, DALLAS, TX, 75228","Match","Exact","7229 FERGUSON RD, DALLAS, TX, 75228",640542254,"L"
833328,"7229 FERGUSON ROAD APT 3507","DALLAS","TX",75228,32.795357919,-96.7219495259999,328,"7229 FERGUSON ROAD APT 3507, DALLAS, TX, 75228","Match","Exact","7229 FERGUSON RD, DALLAS, TX, 75228",640542254,"L"
833329,"7229 FOX POINT DR","CHARLOTTE","NC",28269,35.318143025,-80.824415146,329,"7229 FOX POINT DR, CHARLOTTE, NC, 28269","Match","Exact","7229 FOX POINT DR, CHARLOTTE, NC, 28269",611256453,"L"
833330,"7229 HARVARD CT NW","BREMERTON","WA",98311,47.62969917,-122.652465448,330,"7229 HARVARD CT NW, BREMERTON, WA, 98311","Match","Exact","7229 HARVARD CT NW, BREMERTON, WA, 98311",187647531,"L"
833331,"7229 HOLLY HILL DR APT 107","DALLAS","TX",75231,32.8760089080001,-96.758395712,331,"7229 HOLLY HILL DR APT 107, DALLAS, TX, 75231","Match","Exact","7229 HOLLY HILL DR, DALLAS, TX, 75231",102914521,"L"
833332,"7229 HOLLY HILL DR APT 116","DALLAS","TX",75231,32.8760089080001,-96.758395712,332,"7229 HOLLY HILL DR APT 116, DALLAS, TX, 75231","Match","Exact","7229 HOLLY HILL DR, DALLAS, TX, 75231",102914521,"L"
833333,"7229 LAKE SUZZANNE LN","PANAMA CITY","FL",32404,30.266346399,-85.529770206,333,"7229 LAKE SUZZANNE LN, PANAMA CITY, FL, 32404","Match","Exact","7229 LAKE SUZZANNE LN, PANAMA CITY, FL, 32404",7058686,"L"
833334,"7229 MERLOT SIENNA AVE","GIBSONTON","FL",33534,27.7941354500001,-82.369827834,334,"7229 MERLOT SIENNA AVE, GIBSONTON, FL, 33534","Match","Exact","7229 MERLOT SIENNA AVE, GIBSONTON, FL, 33534",624729897,"R"
833335,"7229 MOUNTAIN LAUREL WAY","STOCKBRIDGE","GA",30281,33.55683767,-84.290592537,335,"7229 MOUNTAIN LAUREL WAY, STOCKBRIDGE, GA, 30281","Match","Exact","7229 MOUNTAIN LAUREL WAY, STOCKBRIDGE, GA, 30281",633906635,"R"
833336,"7229 NORTH 58TH DR","GLENDALE","AZ",85301,33.5432757790001,-112.184920662,336,"7229 NORTH 58TH DR, GLENDALE, AZ, 85301","Match","Exact","7229 N 58TH DR, GLENDALE, AZ, 85301",128192993,"R"
833337,"7229 PINEVIEW DRIVE","ENGLEWOOD","OH",45322,39.85193844,-84.2952186429999,337,"7229 PINEVIEW DRIVE, ENGLEWOOD, OH, 45322","Match","Exact","7229 PINEVIEW DR, ENGLEWOOD, OH, 45322",143602890,"R"
833338,"7229 SOUTH 58TH AVENUE","LAVEEN","AZ",85339,33.3810904650001,-112.183210923,338,"7229 SOUTH 58TH AVENUE, LAVEEN, AZ, 85339","Match","Exact","7229 S 58TH AVE, LAVEEN, AZ, 85339",244010929,"R"
833339,"7229 SUNNYBROOK DRIVE","BOISE","ID",83709,43.5923709890001,-116.271607768,339,"7229 SUNNYBROOK DRIVE, BOISE, ID, 83709","Match","Exact","7229 SUNNYBROOK DR, BOISE, ID, 83709",117862422,"L"
833340,"7229 TIMBER ROAD","ALVARADO","TX",76009,32.361558137,-97.2166888849999,340,"7229 TIMBER ROAD, ALVARADO, TX, 76009","Match","Exact","7229 TIMBER RD, ALVARADO, TX, 76009",103527050,"R"
833341,"7229 TIMBERLAKE DR SE","LACEY","WA",98503,47.0302562540001,-122.785058827,341,"7229 TIMBERLAKE DR SE, LACEY, WA, 98503","Match","Exact","7229 TIMBERLAKE DR SE, LACEY, WA, 98503",180973985,"R"
833342,"7229 TRANSIT ROAD","ELBA","NY",14058,43.0655911900001,-78.115508861,342,"7229 TRANSIT ROAD, ELBA, NY, 14058","Match","Exact","7229 TRANSIT RD, ELBA, NY, 14058",48145150,"R"
833343,"7229","ORANGEVALE","CA",95662,NA,NA,343,"7229, ORANGEVALE, CA, 95662","No_Match",NA,NA,NA,NA
833344,"72297 CR 29","SYRACUSE","IN",46567,41.4456041810001,-85.7672115999999,344,"72297 CR 29, SYRACUSE, IN, 46567","Match","Exact","72297 CO RD 29, SYRACUSE, IN, 46567",7748290,"L"
833345,"723  CHAMSTER  AVE","FERGUSON","MO",63135,NA,NA,345,"723  CHAMSTER  AVE, FERGUSON, MO, 63135","No_Match",NA,NA,NA,NA
833346,"723 - 15TH AVENUE","TWO HARBORS","MN",55616,NA,NA,346,"723 - 15TH AVENUE, TWO HARBORS, MN, 55616","No_Match",NA,NA,NA,NA
833347,"723 1/2 HOUCHIN ROAD","BAKERSFIELD","CA",93304,35.3479138800001,-119.023410721,347,"723 1/2 HOUCHIN ROAD, BAKERSFIELD, CA, 93304","Match","Exact","723 HOUCHIN RD, BAKERSFIELD, CA, 93304",109089552,"R"
833348,"723 11TH AVENUE B CT","SILVIS","IL",61282,41.499201634,-90.418474813,348,"723 11TH AVENUE B CT, SILVIS, IL, 61282","Match","Exact","723 11TH AVENUE B CT, SILVIS, IL, 61282",9217498,"L"
833349,"723 1ST AVE S","FORT DODGE","IA",50501,42.50396762,-94.188233435,349,"723 1ST AVE S, FORT DODGE, IA, 50501","Match","Exact","723 1ST AVE S, FORT DODGE, IA, 50501",638319836,"R"
833350,"723 3RD ST S","KIRKLAND","WA",98033,47.669985313,-122.20332084,350,"723 3RD ST S, KIRKLAND, WA, 98033","Match","Exact","723 3RD ST S, KIRKLAND, WA, 98033",239763871,"R"
833351,"723 49TH ST S","FARGO","ND",58103,46.8683902560001,-96.868417714,351,"723 49TH ST S, FARGO, ND, 58103","Match","Exact","723 49TH ST S, FARGO, ND, 58103",151463574,"L"
833352,"723 7TH AVE","SAN BRUNO","CA",94066,37.6300437030001,-122.405374156,352,"723 7TH AVE, SAN BRUNO, CA, 94066","Match","Exact","723 7TH AVE, SAN BRUNO, CA, 94066",192374269,"L"
833353,"723 7TH TERRACE","COOS BAY","OR",97420,43.3704391150001,-124.219897615,353,"723 7TH TERRACE, COOS BAY, OR, 97420","Match","Exact","723 7TH TER, COOS BAY, OR, 97420",136986723,"L"
833354,"723 7TH WAY","WEST PALM BEACH","FL",33407,26.7515882430001,-80.094853997,354,"723 7TH WAY, WEST PALM BEACH, FL, 33407","Match","Exact","723 7TH WAY, WEST PALM BEACH, FL, 33407",115311597,"R"
833355,"723 ALSTON RD","SANTA BARBARA","CA",93108,34.4310524640001,-119.65796149,355,"723 ALSTON RD, SANTA BARBARA, CA, 93108","Match","Exact","723 ALSTON RD, SANTA BARBARA, CA, 93108",108606369,"L"
833356,"723 APACHE RD NE","PIEDMONT","OK",73078,35.6819598060001,-97.736029687,356,"723 APACHE RD NE, PIEDMONT, OK, 73078","Match","Non_Exact","723 APACHE NE, PIEDMONT, OK, 73078",650573348,"R"
833357,"723 APPALACHIAN AVE","CARLISLE","PA",17013,40.25402145,-77.19623917,357,"723 APPALACHIAN AVE, CARLISLE, PA, 17013","Match","Exact","723 APPALACHIAN AVE, CARLISLE, PA, 17013",640719114,"R"
833358,"723 ARBUCKLE ROAD","ERIE","PA",16509,42.0903715860001,-80.039701666,358,"723 ARBUCKLE ROAD, ERIE, PA, 16509","Match","Exact","723 ARBUCKLE RD, ERIE, PA, 16509",117498815,"R"
833359,"723 ARROWHEAD BOULEVARD","WILTON","WI",54670,43.8181158880001,-90.5253232329999,359,"723 ARROWHEAD BOULEVARD, WILTON, WI, 54670","Match","Exact","723 ARROWHEAD BLVD, WILTON, WI, 54670",51080992,"R"
833360,"723 ASHLAND AVE","RIVER FOREST","IL",60305,41.8925011850001,-87.816308829,360,"723 ASHLAND AVE, RIVER FOREST, IL, 60305","Match","Exact","723 ASHLAND AVE, RIVER FOREST, IL, 60305",111749517,"R"
833361,"723 AVE G","FT. MADISON","IN",52627,NA,NA,361,"723 AVE G, FT. MADISON, IN, 52627","No_Match",NA,NA,NA,NA
833362,"723 AVENUE CHAUMONT","DELRAY BEACH","FL",33445,26.471059489,-80.113734424,362,"723 AVENUE CHAUMONT, DELRAY BEACH, FL, 33445","Match","Exact","723 AVE CHAUMONT, DELRAY BEACH, FL, 33445",115336271,"L"
833363,"723 B 55TH ST SW","EVERETT","WA",98203,47.9474101960001,-122.241635225,363,"723 B 55TH ST SW, EVERETT, WA, 98203","Match","Exact","723 55TH ST SW, EVERETT, WA, 98203",187773632,"R"
833364,"723 BAINBRIDGE LANE","IRONDALE","AL",35210,33.5268760660001,-86.6756131509999,364,"723 BAINBRIDGE LANE, IRONDALE, AL, 35210","Match","Exact","723 BAINBRIDGE LN, IRONDALE, AL, 35210",623818720,"R"
833365,"723 BAKER ST","SAN FRANCISCO","CA",94115,37.7776225900001,-122.4417326,365,"723 BAKER ST, SAN FRANCISCO, CA, 94115","Match","Exact","723 BAKER ST, SAN FRANCISCO, CA, 94115",192283289,"L"
833366,"723 BARD AVENUE","STATEN ISLAND","NY",10310,40.6253180590001,-74.10463039,366,"723 BARD AVENUE, STATEN ISLAND, NY, 10310","Match","Exact","723 BARD AVE, STATEN ISLAND, NY, 10310",59883071,"L"
833367,"723 BAYOU CREST DR","DICKINSON","TX",77539,29.440032279,-95.0899234,367,"723 BAYOU CREST DR, DICKINSON, TX, 77539","Match","Exact","723 BAYOU CREST DR, DICKINSON, TX, 77539",96694626,"L"
833368,"723 BEECHCREST DRIVE","RIVER VALE","NJ",7675,41.0277486480001,-74.018616777,368,"723 BEECHCREST DRIVE, RIVER VALE, NJ, 7675","Match","Exact","723 BEECHCREST DR, RIVER VALE, NJ, 07675",647240405,"R"
833369,"723 BISHOP ROAD","BALL GROUND","GA",30107,34.3048313730001,-84.439634456,369,"723 BISHOP ROAD, BALL GROUND, GA, 30107","Match","Exact","723 BISHOP RD, BALL GROUND, GA, 30107",624486263,"R"
833370,"723 BITTINGHALL CR","RURAL HALL","NC",27045,36.221532005,-80.3003234129999,370,"723 BITTINGHALL CR, RURAL HALL, NC, 27045","Match","Non_Exact","723 BITTING HALL CIR, RURAL HALL, NC, 27045",624112185,"R"
833371,"723 BLOOMFIELD STREET","HOBOKEN","NJ",7030,40.7452117030001,-74.029374635,371,"723 BLOOMFIELD STREET, HOBOKEN, NJ, 7030","Match","Exact","723 BLOOMFIELD ST, HOBOKEN, NJ, 07030",59606896,"R"
833372,"723 BREAUX ALLEY","NEW IBERIA","LA",70560,30.0090309820001,-91.83464881,372,"723 BREAUX ALLEY, NEW IBERIA, LA, 70560","Match","Exact","723 BREAUX ALY, NEW IBERIA, LA, 70560",85361490,"L"
833373,"723 BRIDLE RIDGE RD","EAGAN","MN",55123,44.815989899,-93.120748889,373,"723 BRIDLE RIDGE RD, EAGAN, MN, 55123","Match","Exact","723 BRIDLE RIDGE RD, EAGAN, MN, 55123",37922445,"R"
833374,"723 BRITTON AVE","DAYTON","OH",45429,39.672063377,-84.151461656,374,"723 BRITTON AVE, DAYTON, OH, 45429","Match","Exact","723 BRITTON AVE, DAYTON, OH, 45429",143583631,"L"
833375,"723 BROWNLEE ROAD","EIGHTY-FOUR","PA",15330,40.2022676190001,-80.124449079,375,"723 BROWNLEE ROAD, EIGHTY-FOUR, PA, 15330","Match","Exact","723 BROWNLEE RD, EIGHTY FOUR, PA, 15330",52806729,"R"
833376,"723 CAL VERNON RD","CALEODNIA","MS",39740,33.6963749270001,-88.273738876,376,"723 CAL VERNON RD, CALEODNIA, MS, 39740","Match","Non_Exact","723 CAL VERNON RD, CALEDONIA, MS, 39740",649541905,"R"
833377,"723 CARMEL PL","RUTLAND","VT",5701,43.6065793320001,-72.94677267,377,"723 CARMEL PL, RUTLAND, VT, 5701","Match","Exact","723 CARMEL PL, RUTLAND, VT, 05701",627123132,"R"
833378,"723 CATHERINE AVE","SAN MARCOS","CA",92069,33.1497946050001,-117.14355992,378,"723 CATHERINE AVE, SAN MARCOS, CA, 92069","Match","Exact","723 CATHERINE AVE, SAN MARCOS, CA, 92069",195310852,"R"
833379,"723 CHAPIN RD","CHAPIN","SC",29036,34.1543334520001,-81.3365961279999,379,"723 CHAPIN RD, CHAPIN, SC, 29036","Match","Exact","723 CHAPIN RD, CHAPIN, SC, 29036",640802500,"L"
833380,"723 CHARTER HALL DR","PALATINE","IL",60067,42.1235697590001,-88.055975734,380,"723 CHARTER HALL DR, PALATINE, IL, 60067","Match","Non_Exact","723 N CHARTER HALL DR, PALATINE, IL, 60067",112363220,"L"
833381,"723 CHERRY STREET","FORT COLLINS","CO",80521,40.5921942040001,-105.08874332,381,"723 CHERRY STREET, FORT COLLINS, CO, 80521","Match","Exact","723 CHERRY ST, FORT COLLINS, CO, 80521",188584498,"L"
833382,"723 CINDY LANE","COVE","TX",77523,29.8159492930001,-94.8108683889999,382,"723 CINDY LANE, COVE, TX, 77523","Match","Exact","723 CINDY LN, COVE, TX, 77523",95952974,"R"
833383,"723 CIRCLE DRIVE NE","LENOIR","NC",28645,35.9262986740001,-81.511992559,383,"723 CIRCLE DRIVE NE, LENOIR, NC, 28645","Match","Exact","723 CIRCLE DR NE, LENOIR, NC, 28645",45873971,"L"
833384,"723 CLINTON DRIVE - SUITE A","STOCKTON","CA",95210,38.023666523,-121.303322774,384,"723 CLINTON DRIVE - SUITE A, STOCKTON, CA, 95210","Match","Exact","723 CLINTON DR, STOCKTON, CA, 95210",133845257,"L"
833385,"723 CLINTON STREET","CAMDEN","NJ",8103,39.9385071680001,-75.1150031239999,385,"723 CLINTON STREET, CAMDEN, NJ, 8103","Match","Exact","723 CLINTON ST, CAMDEN, NJ, 08103",647273278,"L"
833386,"723 CLINTON STREET","WAUKESHA","WI",53186,43.0099913400001,-88.232740314,386,"723 CLINTON STREET, WAUKESHA, WI, 53186","Match","Exact","723 CLINTON ST, WAUKESHA, WI, 53186",53811766,"R"
833387,"723 CO RD 1410 N","CARMI","IL",62821,38.0844932090001,-88.239382463,387,"723 CO RD 1410 N, CARMI, IL, 62821","Match","Exact","723 CO RD 1410 N, CARMI, IL, 62821",38213763,"L"
833388,"723 CORBETT ST","WINTERVILLE","NC",27858,35.5333313470001,-77.37930123,388,"723 CORBETT ST, WINTERVILLE, NC, 27858","Match","Non_Exact","723 CORBETT ST, WINTERVILLE, NC, 28590",80045771,"L"
833389,"723 COTTONWOOD CIR","LIBERTY","MO",64068,NA,NA,389,"723 COTTONWOOD CIR, LIBERTY, MO, 64068","Tie",NA,NA,NA,NA
833390,"723 COTTONWOOD CT","MESQUITE","TX",75149,NA,NA,390,"723 COTTONWOOD CT, MESQUITE, TX, 75149","No_Match",NA,NA,NA,NA
833391,"723 COUNTY ROAD 1410 NORTH","CARMI","IL",62821,38.0844932090001,-88.239382463,391,"723 COUNTY ROAD 1410 NORTH, CARMI, IL, 62821","Match","Exact","723 CO RD 1410 N, CARMI, IL, 62821",38213763,"L"
833392,"723 COURT STREET","PORT HURON","MI",48060,42.9716900080001,-82.427923243,392,"723 COURT STREET, PORT HURON, MI, 48060","Match","Exact","723 COURT ST, PORT HURON, MI, 48060",110957697,"L"
833393,"723 COVE PARKWAY STE C","COTTONWOOD","AZ",86326,34.727753142,-112.004708047,393,"723 COVE PARKWAY STE C, COTTONWOOD, AZ, 86326","Match","Exact","723 COVE PKWY, COTTONWOOD, AZ, 86326",159494643,"L"
833394,"723 CREEKWOOD LN","WEST BEND","WI",53095,43.4132664190001,-88.154973033,394,"723 CREEKWOOD LN, WEST BEND, WI, 53095","Match","Exact","723 CREEKWOOD LN, WEST BEND, WI, 53095",79576567,"R"
833395,"723 CREST STREET","WHEATON","IL",60189,41.8579632550001,-88.1196563999999,395,"723 CREST STREET, WHEATON, IL, 60189","Match","Exact","723 CREST ST, WHEATON, IL, 60189",652585211,"L"
833396,"723 CRIMSON KING TRACE","TARPON SPRINGS","FL",34689,28.139399295,-82.774825111,396,"723 CRIMSON KING TRACE, TARPON SPRINGS, FL, 34689","Match","Exact","723 CRIMSON KING TRCE, TARPON SPNGS, FL, 34689",124660249,"L"
833397,"723 CRISTINA","INCLINE VILLAGE","NV",89451,39.2667105470001,-119.942434026,397,"723 CRISTINA, INCLINE VILLAGE, NV, 89451","Match","Non_Exact","723 CRISTINA DR, INCLINE VILLAGE, NV, 89451",107056587,"L"
833398,"723 CROWN DR","BARTLESVILLE","OK",74006,36.7447883340001,-95.909283693,398,"723 CROWN DR, BARTLESVILLE, OK, 74006","Match","Exact","723 CROWN DR, BARTLESVILLE, OK, 74006",18706911,"L"
833399,"723 D ST","VADER","WA",98593,46.401676702,-122.95623442,399,"723 D ST, VADER, WA, 98593","Match","Exact","723 D ST, VADER, WA, 98593",180719911,"L"
833400,"723 DARTER RD","HELENA","MT",59602,46.7321290990001,-112.030612898,400,"723 DARTER RD, HELENA, MT, 59602","Match","Exact","723 DARTER RD, HELENA, MT, 59602",647471347,"L"
833401,"723 DE QUEEN AVENUE","DE QUEEN","AR",71832,34.037743391,-94.346038167,401,"723 DE QUEEN AVENUE, DE QUEEN, AR, 71832","Match","Non_Exact","723 DEQUEEN AVE, DE QUEEN, AR, 71832",84824201,"L"
833402,"723 DIABLO WAY","EMERALD HILLS","CA",94062,37.460895619,-122.264710783,402,"723 DIABLO WAY, EMERALD HILLS, CA, 94062","Match","Exact","723 DIABLO WAY, EMERALD HILLS, CA, 94062",192385932,"L"
833403,"723 DOANE AVENUE","BELLPORT","NY",11713,40.7798413950001,-72.948293994,403,"723 DOANE AVENUE, BELLPORT, NY, 11713","Match","Exact","723 DOANE AVE, BELLPORT, NY, 11713",114014312,"L"
833404,"723 DORTHY S LANE","JACKSON","NJ",8527,40.0681466990001,-74.347375514,404,"723 DORTHY S LANE, JACKSON, NJ, 8527","Match","Non_Exact","723 DORATHYS LN, JACKSON, NJ, 08527",636226161,"L"
833405,"723 E 21ST ST","SIOUX FALLS","SD",57105,43.533525313,-96.717033656,405,"723 E 21ST ST, SIOUX FALLS, SD, 57105","Match","Exact","723 E 21ST ST, SIOUX FALLS, SD, 57105",34974031,"R"
833406,"723 E 5TH","MITCHELL","SD",57301,43.7135314810001,-98.0166292,406,"723 E 5TH, MITCHELL, SD, 57301","Match","Non_Exact","723 E 5TH AVE, MITCHELL, SD, 57301",200658109,"R"
833407,"723 E GERONIMO ST","CHANDLER","AZ",85225,33.293103848,-111.830017818,407,"723 E GERONIMO ST, CHANDLER, AZ, 85225","Match","Exact","723 E GERONIMO ST, CHANDLER, AZ, 85225",128782204,"R"
833408,"723 E INVERNESS LANE","SPOKANE","WA",99223,47.6063457860001,-117.398816852,408,"723 E INVERNESS LANE, SPOKANE, WA, 99223","Match","Exact","723 E INVERNESS LN, SPOKANE, WA, 99223",189894150,"L"
833409,"723 E LOCUST AVE STE 118","FRESNO","CA",93720,36.840571217,-119.772196459,409,"723 E LOCUST AVE STE 118, FRESNO, CA, 93720","Match","Non_Exact","723 E LOCUST AVE, FRESNO, CA, 93720",197573072,"R"
833410,"723 E MILL","HASTINGS","MI",49058,42.6502549420001,-85.278033636,410,"723 E MILL, HASTINGS, MI, 49058","Match","Non_Exact","723 E MILL ST, HASTINGS, MI, 49058",10505168,"R"
833411,"723 E SINTO AVE","SPOKANE","WA",99202,47.6706238090001,-117.398833948,411,"723 E SINTO AVE, SPOKANE, WA, 99202","Match","Exact","723 E SINTO AVE, SPOKANE, WA, 99202",637877571,"L"
833412,"723 EARLY STREET","MONTGOMERY","AL",36108,32.358921503,-86.3190662229999,412,"723 EARLY STREET, MONTGOMERY, AL, 36108","Match","Exact","723 EARLY ST, MONTGOMERY, AL, 36108",642884526,"L"
833413,"723 EAST  RENROSE","LOVES PARK","IL",61111,42.32030868,-89.054530294,413,"723 EAST  RENROSE, LOVES PARK, IL, 61111","Match","Non_Exact","723 E RENROSE AVE, LOVES PARK, IL, 61111",605025537,"R"
833414,"723 EAST 3RD STREET APT 1","LONG BEACH","CA",90802,33.770508595,-118.183518851,414,"723 EAST 3RD STREET APT 1, LONG BEACH, CA, 90802","Match","Exact","723 E 3RD ST, LONG BEACH, CA, 90802",141694878,"L"
833415,"723 EAST 4TH STREET","SOUTH BOSTON","MA",2127,42.33474884,-71.035459343,415,"723 EAST 4TH STREET, SOUTH BOSTON, MA, 2127","Match","Exact","723 E 4TH ST, SOUTH BOSTON, MA, 02127",85731226,"R"
833416,"723 EAST FORT KING STREET","OCALA","FL",34471,29.185489401,-82.130756258,416,"723 EAST FORT KING STREET, OCALA, FL, 34471","Match","Exact","723 E FORT KING ST, OCALA, FL, 34471",116725713,"L"
833417,"723 EAST TELEGRAPH ROAD","FILLMORE","CA",93015,34.403604402,-118.927192,417,"723 EAST TELEGRAPH ROAD, FILLMORE, CA, 93015","Match","Non_Exact","723 OLD TELEGRAPH RD, FILLMORE, CA, 93015",110126786,"L"
833418,"723 EASTBROOK HARLANSBURG RD","NEW CASLTE","PA",16101,41.0418892270001,-80.240230228,418,"723 EASTBROOK HARLANSBURG RD, NEW CASLTE, PA, 16101","Match","Non_Exact","723 EASTBROOK HARLANSBURG RD, NEW CASTLE, PA, 16101",65192726,"R"
833419,"723 EASTBROOK HARLANSBURG RD","NEW CASTLE","PA",16101,41.0418892270001,-80.240230228,419,"723 EASTBROOK HARLANSBURG RD, NEW CASTLE, PA, 16101","Match","Exact","723 EASTBROOK HARLANSBURG RD, NEW CASTLE, PA, 16101",65192726,"R"
833420,"723 EASTSIDE ST NE","OLYMPIA","WA",98506,47.05039169,-122.888726688,420,"723 EASTSIDE ST NE, OLYMPIA, WA, 98506","Match","Exact","723 EASTSIDE ST NE, OLYMPIA, WA, 98506",180976427,"L"
833421,"723 EDGEWOOD RD","RICHMOND HEIGHTS","OH",44143,41.542916576,-81.4905181999999,421,"723 EDGEWOOD RD, RICHMOND HEIGHTS, OH, 44143","Match","Exact","723 EDGEWOOD RD, RICHMOND HEIGHTS, OH, 44143",631784880,"R"
833422,"723 ELMHURST PLACE","GLASSBORO","NJ",8028,39.707529349,-75.139323595,422,"723 ELMHURST PLACE, GLASSBORO, NJ, 8028","Match","Exact","723 ELMHURST PL, GLASSBORO, NJ, 08028",134603967,"L"
833423,"723 EMERALD DRIVE","HURRICANE","WV",25526,38.42872743,-82.042907036,423,"723 EMERALD DRIVE, HURRICANE, WV, 25526","Match","Exact","723 EMERALD DR, HURRICANE, WV, 25526",648397014,"R"
833424,"723 ENTRADA DR","GOLDEN","CO",80401,39.728036102,-105.211743504,424,"723 ENTRADA DR, GOLDEN, CO, 80401","Match","Exact","723 ENTRADA DR, GOLDEN, CO, 80401",177759875,"L"
833425,"723 EUCLID AVENUE","BROOKLYN","NY",11208,40.669358,-73.8704364719999,425,"723 EUCLID AVENUE, BROOKLYN, NY, 11208","Match","Exact","723 EUCLID AVE, BROOKLYN, NY, 11208",640860594,"L"
833426,"723 FAIRLANE DRIVE","GRIFTON","NC",28530,35.388623432,-77.415334459,426,"723 FAIRLANE DRIVE, GRIFTON, NC, 28530","Match","Non_Exact","723 N FAIRLANE DR, GRIFTON, NC, 28530",80002365,"L"
833427,"723 FERRY ST SW","ALBANY","OR",97321,44.632095625,-123.107635701,427,"723 FERRY ST SW, ALBANY, OR, 97321","Match","Exact","723 FERRY ST SW, ALBANY, OR, 97321",156070590,"R"
833428,"723 FINNEY DR","VINTON","VA",24179,37.268150416,-79.868418165,428,"723 FINNEY DR, VINTON, VA, 24179","Match","Exact","723 FINNEY DR, VINTON, VA, 24179",62912254,"L"
833429,"723 FIR STREET","SANDPOINT","ID",83864,48.2793272270001,-116.557437724,429,"723 FIR STREET, SANDPOINT, ID, 83864","Match","Exact","723 FIR ST, SANDPOINT, ID, 83864",169476133,"L"
833430,"723 FITZGERALD PLACE","ATLANTA","GA",30349,33.6600350310001,-84.625424498,430,"723 FITZGERALD PLACE, ATLANTA, GA, 30349","Match","Exact","723 FITZGERALD PL, ATLANTA, GA, 30349",625654829,"R"
833431,"723 FOWLER STREET","MUSKEGON","MI",49445,43.2608440980001,-86.266697009,431,"723 FOWLER STREET, MUSKEGON, MI, 49445","Match","Exact","723 FOWLER ST, MUSKEGON, MI, 49445",647174831,"L"
833432,"723 FOXWOOD DRIVE","COLORADO SPRINGS","CO",80911,38.7547422220001,-104.721725663,432,"723 FOXWOOD DRIVE, COLORADO SPRINGS, CO, 80911","Match","Exact","723 FOXWOOD DR, COLORADO SPRINGS, CO, 80911",105573525,"R"
833433,"723 GOODRICH AVE","SARASOTA","FL",34236,27.3424065460001,-82.536491531,433,"723 GOODRICH AVE, SARASOTA, FL, 34236","Match","Exact","723 GOODRICH AVE, SARASOTA, FL, 34236",16347415,"L"
833434,"723 GRAISBURY AVENUE","HADDONFIELD","NJ",8033,39.897460562,-75.058343286,434,"723 GRAISBURY AVENUE, HADDONFIELD, NJ, 8033","Match","Exact","723 GRAISBURY AVE, HADDONFIELD, NJ, 08033",134353886,"R"
833435,"723 GREEN MEADOW AVENUE","ROCKFORD","IL",61107,42.274903253,-89.0498703439999,435,"723 GREEN MEADOW AVENUE, ROCKFORD, IL, 61107","Match","Exact","723 GREEN MEADOW AVE, ROCKFORD, IL, 61107",49260172,"R"
833436,"723 GREEN ST 5","FORT WALTON BEACH","FL",32547,30.443198303,-86.629483626,436,"723 GREEN ST 5, FORT WALTON BEACH, FL, 32547","Match","Exact","723 GREEN ST, FORT WALTON BEACH, FL, 32547",74397476,"R"
833437,"723 HALL ST","ALMA","AR",72921,35.477556377,-94.2203408619999,437,"723 HALL ST, ALMA, AR, 72921","Match","Exact","723 HALL ST, ALMA, AR, 72921",53485864,"L"
833438,"723 HARDY ROAD","WILMINGTON","NY",12997,44.3912308500001,-73.7813132649999,438,"723 HARDY ROAD, WILMINGTON, NY, 12997","Match","Exact","723 HARDY RD, WILMINGTON, NY, 12997",136245510,"L"
833439,"723 HILAND AVENUE","CORAOPOLIS","PA",15108,40.5174949880001,-80.1730628129999,439,"723 HILAND AVENUE, CORAOPOLIS, PA, 15108","Match","Exact","723 HILAND AVE, CORAOPOLIS, PA, 15108",51612461,"L"
833440,"723 HORIZON DRIVE","STROUDSBURG","PA",18360,40.995277226,-75.206230177,440,"723 HORIZON DRIVE, STROUDSBURG, PA, 18360","Match","Exact","723 HORIZON DR, STROUDSBURG, PA, 18360",627529684,"R"
833441,"723 HOWARD BR","SALYERSVILLE","KY",41465,NA,NA,441,"723 HOWARD BR, SALYERSVILLE, KY, 41465","No_Match",NA,NA,NA,NA
833442,"723 HUNTLEY STREET","DALLAS","TX",75214,32.8058441640001,-96.7600855059999,442,"723 HUNTLEY STREET, DALLAS, TX, 75214","Match","Exact","723 HUNTLEY ST, DALLAS, TX, 75214",102919706,"L"
833443,"723 JERROLD AVE","SAN FRANCISCO","CA",94124,37.7293551980001,-122.37276875,443,"723 JERROLD AVE, SAN FRANCISCO, CA, 94124","Match","Exact","723 JERROLD AVE, SAN FRANCISCO, CA, 94124",192291289,"L"
833444,"723 JOHNSON AVE","HAMILTON","NJ",8501,NA,NA,444,"723 JOHNSON AVE, HAMILTON, NJ, 8501","No_Match",NA,NA,NA,NA
833445,"723 KAPULENA LOOP","HONOLULU","HI",96825,21.2983247350001,-157.710497426,445,"723 KAPULENA LOOP, HONOLULU, HI, 96825","Match","Exact","723 KAPULENA LOOP, HONOLULU, HI, 96825",203241071,"R"
833446,"723 KEATS AVENUE SW","HOWARD LAKE","MN",55349,45.141621317,-94.09391498,446,"723 KEATS AVENUE SW, HOWARD LAKE, MN, 55349","Match","Exact","723 KEATS AVE SW, HOWARD LAKE, MN, 55349",43996063,"L"
833447,"723 LAKESHORE DR","AUBURN","IN",46706,41.358894783,-85.0677256719999,447,"723 LAKESHORE DR, AUBURN, IN, 46706","Match","Exact","723 LAKESHORE DR, AUBURN, IN, 46706",6521972,"L"
833448,"723 LAUREL","WILMETTE","IL",60091,42.0726779840001,-87.697832185,448,"723 LAUREL, WILMETTE, IL, 60091","Match","Non_Exact","723 LAUREL AVE, WILMETTE, IL, 60091",111742771,"L"
833449,"723 LUCERNE CIRCLE","ORMOND BEACH","FL",32174,29.302802324,-81.0700860869999,449,"723 LUCERNE CIRCLE, ORMOND BEACH, FL, 32174","Match","Exact","723 LUCERNE CIR, ORMOND BEACH, FL, 32174",94520479,"R"
833450,"723 MAIN ST 7TH FLOOR","HOUSTON","TX",77002,29.758991329,-95.363298684,450,"723 MAIN ST 7TH FLOOR, HOUSTON, TX, 77002","Match","Exact","723 MAIN ST, HOUSTON, TX, 77002",96067728,"L"
833451,"723 MAIN ST","ROCHESTER","IN",46975,41.0668859940001,-86.215900565,451,"723 MAIN ST, ROCHESTER, IN, 46975","Match","Exact","723 MAIN ST, ROCHESTER, IN, 46975",7842362,"R"
833452,"723 MAIN STREET","ETNA","CA",96027,41.4545065030001,-122.896717865,452,"723 MAIN STREET, ETNA, CA, 96027","Match","Exact","723 MAIN ST, ETNA, CA, 96027",113248213,"L"
833453,"723 MANGROVE POINT RD","SARASOTA","FL",34242,27.287885165,-82.5571781099999,453,"723 MANGROVE POINT RD, SARASOTA, FL, 34242","Match","Exact","723 MANGROVE POINT RD, SARASOTA, FL, 34242",16348711,"L"
833454,"723 MASSACHUSETTS STREET","LAWRENCE","KS",66044,38.9707565840001,-95.235917784,454,"723 MASSACHUSETTS STREET, LAWRENCE, KS, 66044","Match","Exact","723 MASSACHUSETTS ST, LAWRENCE, KS, 66044",17684005,"R"
833455,"723 MCKEWIN AVE","BALTIMORE","MD",21214,39.3328352610001,-76.605689865,455,"723 MCKEWIN AVE, BALTIMORE, MD, 21214","Match","Non_Exact","723 MCKEWIN AVE, BALTIMORE, MD, 21218",206409248,"R"
833456,"723 MCKEWIN AVENUE","BALTIMORE","MD",21218,39.3328352610001,-76.605689865,456,"723 MCKEWIN AVENUE, BALTIMORE, MD, 21218","Match","Exact","723 MCKEWIN AVE, BALTIMORE, MD, 21218",206409248,"R"
833457,"723 MESA ROAD","MCDONOUGH","GA",30253,33.5032385420001,-84.174077287,457,"723 MESA ROAD, MCDONOUGH, GA, 30253","Match","Exact","723 MESA RD, MCDONOUGH, GA, 30253",647596790,"L"
833458,"723 MISSISSIPPI AVE APT 3","CHATTANOOGA","TN",37405,35.072760831,-85.299000157,458,"723 MISSISSIPPI AVE APT 3, CHATTANOOGA, TN, 37405","Match","Exact","723 MISSISSIPPI AVE, CHATTANOOGA, TN, 37405",59306824,"L"
833459,"723 MONROE HICKORY","OAK HILL","OH",45656,38.8601890030001,-82.619650222,459,"723 MONROE HICKORY, OAK HILL, OH, 45656","Match","Non_Exact","723 MONROE HICKORY RD, OAK HILL, OH, 45656",54781039,"L"
833460,"723 N 11TH ST","APOLLO","PA",15613,NA,NA,460,"723 N 11TH ST, APOLLO, PA, 15613","No_Match",NA,NA,NA,NA
833461,"723 N 8TH AVE E","NEWTON","IA",50208,41.706404397,-93.044841605,461,"723 N 8TH AVE E, NEWTON, IA, 50208","Match","Exact","723 N 8TH AVE E, NEWTON, IA, 50208",89424453,"L"
833462,"723 N ALMAR","MESA","AZ",85213,33.428686929,-111.76140963,462,"723 N ALMAR, MESA, AZ, 85213","Match","Exact","723 N ALMAR, MESA, AZ, 85213",128378684,"L"
833463,"723 N CAMPBELL AVE","BELOIT","KS",67420,39.4654955820001,-98.107661676,463,"723 N CAMPBELL AVE, BELOIT, KS, 67420","Match","Exact","723 N CAMPBELL AVE, BELOIT, KS, 67420",148303649,"L"
833464,"723 N CAMPBELL","BELOIT","KS",67420,39.4654955820001,-98.107661676,464,"723 N CAMPBELL, BELOIT, KS, 67420","Match","Non_Exact","723 N CAMPBELL AVE, BELOIT, KS, 67420",148303649,"L"
833465,"723 N EWING ST","HELENA","MT",59601,46.593309188,-112.029954253,465,"723 N EWING ST, HELENA, MT, 59601","Match","Exact","723 N EWING ST, HELENA, MT, 59601",202349545,"R"
833466,"723 N GRAMERCY PL","LOS ANGELES","CA",90038,34.084181523,-118.312451259,466,"723 N GRAMERCY PL, LOS ANGELES, CA, 90038","Match","Exact","723 N GRAMERCY PL, LOS ANGELES, CA, 90038",141603058,"L"
833467,"723 N HEDGECOKE","BORGER","TX",79007,35.673307015,-101.39204706,467,"723 N HEDGECOKE, BORGER, TX, 79007","Match","Non_Exact","723 N HEDGECOKE ST, BORGER, TX, 79007",185357036,"L"
833468,"723 N OLEANDER AVE","DAYTONA BEACH","FL",32118,29.236486487,-81.0168065079999,468,"723 N OLEANDER AVE, DAYTONA BEACH, FL, 32118","Match","Exact","723 N OLEANDER AVE, DAYTONA BEACH, FL, 32118",94523770,"L"
833469,"723 N WALNUT","STOCKTON","KS",67669,39.4435098750001,-99.273634019,469,"723 N WALNUT, STOCKTON, KS, 67669","Match","Non_Exact","723 N WALNUT ST, STOCKTON, KS, 67669",149997136,"L"
833470,"723 N WASHINGTON ST APT 3","ROME","NY",13440,43.2203170940001,-75.452515503,470,"723 N WASHINGTON ST APT 3, ROME, NY, 13440","Match","Non_Exact","723 N WASHINGTON ST, ROME, NY, 13440",171522165,"L"
833471,"723 N WHITE ROCK","REPUBLIC","MO",65738,37.1269870250001,-93.432898585,471,"723 N WHITE ROCK, REPUBLIC, MO, 65738","Match","Non_Exact","723 WHITE ROCK AVE, REPUBLIC, MO, 65738",76713149,"R"
833472,"723 N WORKMAN STREET","SAN FERNANDO","CA",91340,34.293794362,-118.435286495,472,"723 N WORKMAN STREET, SAN FERNANDO, CA, 91340","Match","Exact","723 N WORKMAN ST, SAN FERNANDO, CA, 91340",141547878,"L"
833473,"723 NE 116TH CT","PORTLAND","OR",97220,45.5272928090001,-122.543135696,473,"723 NE 116TH CT, PORTLAND, OR, 97220","Match","Exact","723 NE 116TH CT, PORTLAND, OR, 97220",157519599,"L"
833474,"723 NORTH 10 ST","READING","PA",19604,40.34623406,-75.917816387,474,"723 NORTH 10 ST, READING, PA, 19604","Match","Exact","723 N 10TH ST, READING, PA, 19604",80377494,"R"
833475,"723 NORTH 14TH STREET","FORT SMIITH","AR",72901,35.3879029570001,-94.412511522,475,"723 NORTH 14TH STREET, FORT SMIITH, AR, 72901","Match","Non_Exact","723 N 14TH ST, FORT SMITH, AR, 72901",56102060,"L"
833476,"723 NORTH ELM ST","GUTHRIE","OK",73044,35.8845919610001,-97.418968391,476,"723 NORTH ELM ST, GUTHRIE, OK, 73044","Match","Exact","723 N ELM ST, GUTHRIE, OK, 73044",647416197,"L"
833477,"723 NORTH NORMANDIE AVENUE","LOS ANGELES","CA",90029,34.083858139,-118.300451038,477,"723 NORTH NORMANDIE AVENUE, LOS ANGELES, CA, 90029","Match","Exact","723 N NORMANDIE AVE, LOS ANGELES, CA, 90029",141603412,"L"
833478,"723 NW 2ND STREET","FORT LAUDERDALE","FL",33311,26.123934686,-80.1509614129999,478,"723 NW 2ND STREET, FORT LAUDERDALE, FL, 33311","Match","Exact","723 NW 2ND ST, FORT LAUDERDALE, FL, 33311",114722626,"R"
833479,"723 OAK KNOLL ROAD","WILLISTON","VT",5495,44.4323648910001,-73.106793764,479,"723 OAK KNOLL ROAD, WILLISTON, VT, 5495","Match","Exact","723 OAK KNOLL RD, WILLISTON, VT, 05495",642837191,"L"
833480,"723 OLD BATH HIGHWAY","WASHINGTON","NC",27889,35.5492460350001,-77.006035762,480,"723 OLD BATH HIGHWAY, WASHINGTON, NC, 27889","Match","Exact","723 OLD BATH HWY, WASHINGTON, NC, 27889",635926726,"R"
833481,"723 PALM AVE","TARPON SPRINGS","FL",34689,28.1461668380001,-82.773480224,481,"723 PALM AVE, TARPON SPRINGS, FL, 34689","Match","Exact","723 PALM AVE, TARPON SPNGS, FL, 34689",124660231,"R"
833482,"723 PARADISE LANE","COLORADO SPRINGS","CO",80904,38.8575235180001,-104.85928961,482,"723 PARADISE LANE, COLORADO SPRINGS, CO, 80904","Match","Exact","723 PARADISE LN, COLORADO SPRINGS, CO, 80904",105560610,"R"
833483,"723 PASADENA","FLINT","MI",48504,NA,NA,483,"723 PASADENA, FLINT, MI, 48504","No_Match",NA,NA,NA,NA
833484,"723 PEACHTREE DRIVE","CHESAPEAKE","VA",23322,36.6992699080001,-76.20153584,484,"723 PEACHTREE DRIVE, CHESAPEAKE, VA, 23322","Match","Exact","723 PEACHTREE DR, CHESAPEAKE, VA, 23322",121799715,"L"
833485,"723 PLEASANT STREET","OSAGE","IA",50461,43.2821387280001,-92.8106544949999,485,"723 PLEASANT STREET, OSAGE, IA, 50461","Match","Exact","723 PLEASANT ST, OSAGE, IA, 50461",7470698,"L"
833486,"723 PRAIRIE LAKE DR","SHERMAN","IL",62684,39.906557966,-89.5898007179999,486,"723 PRAIRIE LAKE DR, SHERMAN, IL, 62684","Match","Exact","723 PRAIRIE LAKE DR, SHERMAN, IL, 62684",653208210,"L"
833487,"723 PROSPECT AVENUE","BRISTOL","VA",24201,36.6083234390001,-82.1863727859999,487,"723 PROSPECT AVENUE, BRISTOL, VA, 24201","Match","Exact","723 PROSPECT AVE, BRISTOL, VA, 24201",154347244,"L"
833488,"723 QUARTZ DR","BENTON","AR",72019,34.641271311,-92.575133674,488,"723 QUARTZ DR, BENTON, AR, 72019","Match","Exact","723 QUARTZ DR, BENTON, AR, 72019",631795537,"R"
833489,"723 QUEBEC PLACE NW","WASHINGTON","DC",20010,38.9361779290001,-77.02205508,489,"723 QUEBEC PLACE NW, WASHINGTON, DC, 20010","Match","Exact","723 QUEBEC PL NW, WASHINGTON, DC, 20010",76224132,"R"
833490,"723 QUEENS STREET","VIRGINIA BEACH","VA",23454,36.85300253,-76.0379764159999,490,"723 QUEENS STREET, VIRGINIA BEACH, VA, 23454","Match","Non_Exact","723 QUEENS WAY, VIRGINIA BCH, VA, 23454",122269607,"R"
833491,"723 REDDING DR","JACKSON","MS",39211,NA,NA,491,"723 REDDING DR, JACKSON, MS, 39211","No_Match",NA,NA,NA,NA
833492,"723 RICKELMAN","MARLIN","TX",76661,31.302347286,-96.885810339,492,"723 RICKELMAN, MARLIN, TX, 76661","Match","Non_Exact","723 RICKELMAN ST, MARLIN, TX, 76661",24840151,"R"
833493,"723 RIVER OAKS DRIVE","SHEBOYGAN FALLS","WI",53085,43.7266183780001,-87.82943161,493,"723 RIVER OAKS DRIVE, SHEBOYGAN FALLS, WI, 53085","Match","Exact","723 RIVER OAKS DR, SHEBOYGAN FALLS, WI, 53085",79512262,"R"
833494,"723 RIVERSIDE DRIVE SE","SAINT CLOUD","MN",56304,45.5584138630001,-94.146493621,494,"723 RIVERSIDE DRIVE SE, SAINT CLOUD, MN, 56304","Match","Exact","723 RIVERSIDE DR SE, SAINT CLOUD, MN, 56304",97769753,"R"
833495,"723 RIVERSIDE ST APT 233","PORTLAND","ME",4103,43.6997013690001,-70.322676497,495,"723 RIVERSIDE ST APT 233, PORTLAND, ME, 4103","Match","Exact","723 RIVERSIDE ST, PORTLAND, ME, 04103",624838808,"R"
833496,"723 S CALIFORNIA","MONROVIA","CA",91016,34.144127413,-117.994979045,496,"723 S CALIFORNIA, MONROVIA, CA, 91016","Match","Non_Exact","723 S CALIFORNIA AVE, MONROVIA, CA, 91016",142743748,"R"
833497,"723 S NEIL ST","CHAMPAIGN","IL",61820,40.108384373,-88.2434480329999,497,"723 S NEIL ST, CHAMPAIGN, IL, 61820","Match","Exact","723 S NEIL ST, CHAMPAIGN, IL, 61820",8810851,"R"
833498,"723 S OREGON STREET","ONTARIO","OR",97914,44.0201970310001,-116.965053197,498,"723 S OREGON STREET, ONTARIO, OR, 97914","Match","Exact","723 S OREGON ST, ONTARIO, OR, 97914",138642733,"L"
833499,"723 S PEGGY ST","TULARE","CA",93274,36.201637249,-119.319133806,499,"723 S PEGGY ST, TULARE, CA, 93274","Match","Exact","723 S PEGGY ST, TULARE, CA, 93274",202784376,"R"
833500,"723 S TAYLOR STREET","ROCKY MOUNT","NC",27801,35.9394236630001,-77.816658059,500,"723 S TAYLOR STREET, ROCKY MOUNT, NC, 27801","Match","Non_Exact","723 S TAYLOR ST, ROCKY MOUNT, NC, 27803",90383150,"R"
