"ID","Address","City","State","Zip","lat","long","id","input_address","match_indicator","match_type","matched_address","tiger_line_id","tiger_side"
727001,"556 CASTLE HALL ROAD","MOUNT PLEASANT","SC",29464,32.846161699,-79.8346704309999,1,"556 CASTLE HALL ROAD, MOUNT PLEASANT, SC, 29464","Match","Exact","556 CASTLE HALL RD, MOUNT PLEASANT, SC, 29464",108854146,"L"
727002,"556 CENTRAL TURNPIKE","SUTTON","MA",1590,42.1230120650001,-71.782662306,2,"556 CENTRAL TURNPIKE, SUTTON, MA, 1590","Match","Exact","556 CENTRAL TPKE, SUTTON, MA, 01590",636369021,"L"
727003,"556 CHAMBERLAIN LANE","SALEM","VA",24153,37.3045063390001,-80.03405221,3,"556 CHAMBERLAIN LANE, SALEM, VA, 24153","Match","Exact","556 CHAMBERLAIN LN, SALEM, VA, 24153",62901524,"R"
727004,"556 CHAMP CLARK","SHREVEPORT","LA",71108,32.4544658140001,-93.766335364,4,"556 CHAMP CLARK, SHREVEPORT, LA, 71108","Match","Non_Exact","556 CHAMP CLARK ST, SHREVEPORT, LA, 71108",57439608,"R"
727005,"556 CHERRY TREE LN","ROCHESTER HILLS","MI",48306,42.70632342,-83.1466897559999,5,"556 CHERRY TREE LN, ROCHESTER HILLS, MI, 48306","Match","Exact","556 CHERRY TREE LN, ROCHESTER HILLS, MI, 48306",69790408,"R"
727006,"556 CHICKADEE LANE","VICTOR","MT",59875,46.387427793,-114.19307962,6,"556 CHICKADEE LANE, VICTOR, MT, 59875","Match","Exact","556 CHICKADEE LN, VICTOR, MT, 59875",153532519,"L"
727007,"556 CHICKADEE LN","VICTOR","MT",59875,46.387427793,-114.19307962,7,"556 CHICKADEE LN, VICTOR, MT, 59875","Match","Exact","556 CHICKADEE LN, VICTOR, MT, 59875",153532519,"L"
727008,"556 CLAYTON CT","SLIDELL","LA",70461,30.2792300310001,-89.711539161,8,"556 CLAYTON CT, SLIDELL, LA, 70461","Match","Exact","556 CLAYTON CT, SLIDELL, LA, 70461",611483237,"R"
727009,"556 CR 391","JONESBORO","AR",72401,35.889770556,-90.743764552,9,"556 CR 391, JONESBORO, AR, 72401","Match","Exact","556 CO RD 391, JONESBORO, AR, 72401",46929863,"R"
727010,"556 CROWN ST  APT A8","BROOKLYN","NY",11213,40.6657133150001,-73.940272529,10,"556 CROWN ST  APT A8, BROOKLYN, NY, 11213","Match","Exact","556 CROWN ST, BROOKLYN, NY, 11213",59079704,"R"
727011,"556 CROWN ST APT A6","BROOKLYN","NY",11213,40.6657133150001,-73.940272529,11,"556 CROWN ST APT A6, BROOKLYN, NY, 11213","Match","Exact","556 CROWN ST, BROOKLYN, NY, 11213",59079704,"R"
727012,"556 CROWN ST","BROOKLYN","NY",11213,40.6657133150001,-73.940272529,12,"556 CROWN ST, BROOKLYN, NY, 11213","Match","Exact","556 CROWN ST, BROOKLYN, NY, 11213",59079704,"R"
727013,"556 DALLAS STREET","HIRAM","GA",30141,33.8830483460001,-84.7649886359999,13,"556 DALLAS STREET, HIRAM, GA, 30141","Match","Exact","556 DALLAS ST, HIRAM, GA, 30141",207990923,"R"
727014,"556 DARWIN BLVD","EDISON","NJ",8820,40.583174178,-74.341184184,14,"556 DARWIN BLVD, EDISON, NJ, 8820","Match","Exact","556 DARWIN BLVD, EDISON, NJ, 08820",60362009,"R"
727015,"556 DIVISION ST","RICHTON PARK","IL",60471,NA,NA,15,"556 DIVISION ST, RICHTON PARK, IL, 60471","No_Match",NA,NA,NA,NA
727016,"556 DOUGLAS DR","ELLERSLIE","GA",31807,32.6449838840001,-84.793264687,16,"556 DOUGLAS DR, ELLERSLIE, GA, 31807","Match","Exact","556 DOUGLAS DR, ELLERSLIE, GA, 31807",1734925,"L"
727017,"556 EAGLE VIEW DR","SALEM","OR",97304,44.9413951870001,-123.08324836,17,"556 EAGLE VIEW DR, SALEM, OR, 97304","Match","Non_Exact","556 EAGLE VIEW DR NW, SALEM, OR, 97304",610949956,"L"
727018,"556 EAST 12300 SOUTH","DRAPER","UT",84020,40.5267015040001,-111.875728618,18,"556 EAST 12300 SOUTH, DRAPER, UT, 84020","Match","Exact","556 E 12300 S, DRAPER, UT, 84020",176131746,"R"
727019,"556 EAST 96TH STREET","BROOKLYN","NY",11212,40.654956499,-73.9146274,19,"556 EAST 96TH STREET, BROOKLYN, NY, 11212","Match","Exact","556 E 96TH ST, BROOKLYN, NY, 11212",640860054,"R"
727020,"556 EAST LELAND AVENUE","SALT LAKE CITY","UT",84106,40.705500822,-111.875105085,20,"556 EAST LELAND AVENUE, SALT LAKE CITY, UT, 84106","Match","Exact","556 E LELAND AVE, SALT LAKE CITY, UT, 84106",621649189,"R"
727021,"556 EAST LELAND AVENUE","SOUTH SALT LAKE","UT",84106,40.705500822,-111.875105085,21,"556 EAST LELAND AVENUE, SOUTH SALT LAKE, UT, 84106","Match","Exact","556 E LELAND AVE, S SALT LAKE, UT, 84106",621649189,"R"
727022,"556 ENCLAVE CIRCLE","FULTONDALE","AL",35068,33.596026205,-86.8205968789999,22,"556 ENCLAVE CIRCLE, FULTONDALE, AL, 35068","Match","Exact","556 ENCLAVE CIR, FULTONDALE, AL, 35068",637804297,"L"
727023,"556 EQUESTRIAN WAY","MOUNT PLEASANT","PA",15666,40.1421501470001,-79.526406928,23,"556 EQUESTRIAN WAY, MOUNT PLEASANT, PA, 15666","Match","Exact","556 EQUESTRIAN WAY, MT PLEASANT, PA, 15666",613055767,"R"
727024,"556 EWING ST","PRINCETON","NJ",8540,40.3689757110001,-74.6581293519999,24,"556 EWING ST, PRINCETON, NJ, 8540","Match","Exact","556 EWING ST, PRINCETON, NJ, 08540",60170667,"L"
727025,"556 EWING STREET","PRINCETON","NJ",8540,40.3689757110001,-74.6581293519999,25,"556 EWING STREET, PRINCETON, NJ, 8540","Match","Exact","556 EWING ST, PRINCETON, NJ, 08540",60170667,"L"
727026,"556 FERNDALE STREET NORTH","MAPLEWOOD","MN",55109,44.958558678,-92.9897952329999,26,"556 FERNDALE STREET NORTH, MAPLEWOOD, MN, 55109","Match","Non_Exact","556 FERNDALE ST N, MAPLEWOOD, MN, 55119",97654077,"R"
727027,"556 FOREST LAWN ROAD","WEBSTER","NY",14580,43.2481872870001,-77.5044710399999,27,"556 FOREST LAWN ROAD, WEBSTER, NY, 14580","Match","Exact","556 FOREST LAWN RD, WEBSTER, NY, 14580",14536717,"L"
727028,"556 FRANESI WAY","SACRAMENTO","CA",95838,38.646149418,-121.453397012,28,"556 FRANESI WAY, SACRAMENTO, CA, 95838","Match","Exact","556 FRANESI WAY, SACRAMENTO, CA, 95838",133380506,"L"
727029,"556 FRANKLIN ST","CAMBRIDGE","MA",2139,NA,NA,29,"556 FRANKLIN ST, CAMBRIDGE, MA, 2139","Tie",NA,NA,NA,NA
727030,"556 G SWAUGER ROAD","OAKLAND","MD",21550,39.3574324320001,-79.4367173639999,30,"556 G SWAUGER ROAD, OAKLAND, MD, 21550","Match","Exact","556 G SWAUGER RD, OAKLAND, MD, 21550",74207629,"R"
727031,"556 GARRISONVILLE ROAD SUITE 213","STAFFORD","VA",22554,38.473637554,-77.437460706,31,"556 GARRISONVILLE ROAD SUITE 213, STAFFORD, VA, 22554","Match","Exact","556 GARRISONVILLE RD, STAFFORD, VA, 22554",25553915,"L"
727032,"556 GENEVA AVENUE","PHILADELPHIA","PA",19120,40.0313272610001,-75.114869523,32,"556 GENEVA AVENUE, PHILADELPHIA, PA, 19120","Match","Exact","556 GENEVA AVE, PHILADELPHIA, PA, 19120",131420024,"R"
727033,"556 GLADIOLA WAY","STAFFORD","VA",22554,38.4453783440001,-77.431545246,33,"556 GLADIOLA WAY, STAFFORD, VA, 22554","Match","Exact","556 GLADIOLA WAY, STAFFORD, VA, 22554",652158589,"R"
727034,"556 GOSSAMER WING WAY","SEBASTIAN","FL",32958,27.807082768,-80.491699043,34,"556 GOSSAMER WING WAY, SEBASTIAN, FL, 32958","Match","Exact","556 GOSSAMER WING WAY, SEBASTIAN, FL, 32958",610956922,"R"
727035,"556 GRANVILLE AVENUE","LOS ANGELOS","CA",90064,NA,NA,35,"556 GRANVILLE AVENUE, LOS ANGELOS, CA, 90064","No_Match",NA,NA,NA,NA
727036,"556 HAVENSIDE AVE","NEWBURY PARK","CA",91320,34.1685538200001,-118.959817476,36,"556 HAVENSIDE AVE, NEWBURY PARK, CA, 91320","Match","Exact","556 HAVENSIDE AVE, NEWBURY PARK, CA, 91320",110031519,"L"
727037,"556 HIDDEN WAY","HOMER","AK",99603,59.640359512,-151.55648103,37,"556 HIDDEN WAY, HOMER, AK, 99603","Match","Exact","556 HIDDEN WAY, HOMER, AK, 99603",191032814,"R"
727038,"556 HILLSIDE VIEW DR","DUNCANSVILLE","PA",16635,40.4176291100001,-78.401468361,38,"556 HILLSIDE VIEW DR, DUNCANSVILLE, PA, 16635","Match","Exact","556 HILLSIDE VIEW DR, DUNCANSVILLE, PA, 16635",637580509,"R"
727039,"556 HUSKINS BRANCH RD","MARION","NC",28752,35.7773243440001,-82.04837735,39,"556 HUSKINS BRANCH RD, MARION, NC, 28752","Match","Exact","556 HUSKINS BRANCH RD, MARION, NC, 28752",35914118,"L"
727040,"556 INAUDI CRT","PATTERSON","CA",95363,37.4617940800001,-121.129965031,40,"556 INAUDI CRT, PATTERSON, CA, 95363","Match","Exact","556 INAUDI CT, PATTERSON, CA, 95363",102613101,"L"
727041,"556 INGLESIDE WAY","PIKE ROAD","AL",36064,32.356277919,-86.074193442,41,"556 INGLESIDE WAY, PIKE ROAD, AL, 36064","Match","Exact","556 INGLESIDE WAY, PIKE ROAD, AL, 36064",631752982,"L"
727042,"556 JACQUES AVE","RAHWAY","NJ",7065,NA,NA,42,"556 JACQUES AVE, RAHWAY, NJ, 7065","No_Match",NA,NA,NA,NA
727043,"556 JONES ST UNIT 304","SAN FRANCISCO","CA",94102,37.786468336,-122.413097873,43,"556 JONES ST UNIT 304, SAN FRANCISCO, CA, 94102","Match","Exact","556 JONES ST, SAN FRANCISCO, CA, 94102",192280912,"R"
727044,"556 LAKESHORE DR EXT","ASHEVILLE","NC",28804,NA,NA,44,"556 LAKESHORE DR EXT, ASHEVILLE, NC, 28804","No_Match",NA,NA,NA,NA
727045,"556 LEEDS AVE","INDIANAPOLIS","IN",46203,39.7587694360001,-86.1175780569999,45,"556 LEEDS AVE, INDIANAPOLIS, IN, 46203","Match","Exact","556 LEEDS AVE, INDIANAPOLIS, IN, 46203",652688627,"R"
727046,"556 LEXINGTON AVE","ROCHESTER","NY",14613,43.179281216,-77.6448909279999,46,"556 LEXINGTON AVE, ROCHESTER, NY, 14613","Match","Exact","556 LEXINGTON AVE, ROCHESTER, NY, 14613",14531519,"R"
727047,"556 LINNEA ST","FAIR GROVE","MO",65648,37.3741996590001,-93.15446164,47,"556 LINNEA ST, FAIR GROVE, MO, 65648","Match","Exact","556 LINNEA ST, FAIR GROVE, MO, 65648",76705734,"L"
727048,"556 LODGE TRAIL CIRCLE","PRESCOTT","AZ",86303,34.533721332,-112.510255958,48,"556 LODGE TRAIL CIRCLE, PRESCOTT, AZ, 86303","Match","Exact","556 LODGE TRAIL CIR, PRESCOTT, AZ, 86303",647949702,"L"
727049,"556 LUNDEE PLACE","MEMPHIS","TN",38111,35.117564256,-89.9681306849999,49,"556 LUNDEE PLACE, MEMPHIS, TN, 38111","Match","Non_Exact","556 LUNDEE ST, MEMPHIS, TN, 38111",72918076,"L"
727050,"556 LYDING LANE","SEBASTOPOL","CA",95472,38.4057384110001,-122.834395048,50,"556 LYDING LANE, SEBASTOPOL, CA, 95472","Match","Exact","556 LYDING LN, SEBASTOPOL, CA, 95472",624202440,"L"
727051,"556 LYDING LANE","SEBASTOPOL","CA",95473,38.4057384110001,-122.834395048,51,"556 LYDING LANE, SEBASTOPOL, CA, 95473","Match","Non_Exact","556 LYDING LN, SEBASTOPOL, CA, 95472",624202440,"L"
727052,"556 MADISON AVE","PATERSON","NJ",7514,40.921834882,-74.152723373,52,"556 MADISON AVE, PATERSON, NJ, 7514","Match","Exact","556 MADISON AVE, PATERSON, NJ, 07514",65264265,"R"
727053,"556 MASSAPAOG AVE","SHARON","MA",2067,42.073026498,-71.172617557,53,"556 MASSAPAOG AVE, SHARON, MA, 2067","Match","Non_Exact","556 MASSAPOAG AVE, SHARON, MA, 02067",87301386,"R"
727054,"556 MEADOWVIEW DR","WEST CHICAGO","IL",60185,41.911269406,-88.194677236,54,"556 MEADOWVIEW DR, WEST CHICAGO, IL, 60185","Match","Exact","556 MEADOWVIEW DR, WEST CHICAGO, IL, 60185",112680600,"L"
727055,"556 MILLWOOD DR","PATTERSON","CA",95363,37.48354856,-121.118538085,55,"556 MILLWOOD DR, PATTERSON, CA, 95363","Match","Exact","556 MILLWOOD DR, PATTERSON, CA, 95363",643038415,"L"
727056,"556 MOHAWK DR","FONDA","NY",12068,42.939406067,-74.307445097,56,"556 MOHAWK DR, FONDA, NY, 12068","Match","Exact","556 MOHAWK DR, FONDA, NY, 12068",635564590,"L"
727057,"556 MORNINGSTAR DR","ELLWOOD CITY","PA",16117,40.8533102920001,-80.249786311,57,"556 MORNINGSTAR DR, ELLWOOD CITY, PA, 16117","Match","Exact","556 MORNINGSTAR DR, ELLWOOD CITY, PA, 16117",52588365,"L"
727058,"556 MOTHER GASTON BLVD  APT 3B","BROOKLYN","NY",11212,40.6655485160001,-73.905812402,58,"556 MOTHER GASTON BLVD  APT 3B, BROOKLYN, NY, 11212","Match","Exact","556 MOTHER GASTON BLVD, BROOKLYN, NY, 11212",59084583,"R"
727059,"556 N DIAMOND BAR BLVD 111","DIAMOND BAR","CA",91765,NA,NA,59,"556 N DIAMOND BAR BLVD 111, DIAMOND BAR, CA, 91765","Tie",NA,NA,NA,NA
727060,"556 N DIAMOND BAR BLVD STE 210","DIAMOND BAR","CA",91765,NA,NA,60,"556 N DIAMOND BAR BLVD STE 210, DIAMOND BAR, CA, 91765","Tie",NA,NA,NA,NA
727061,"556 N TERRACE DR","WICHITA","KS",67208,37.6948442890001,-97.283996144,61,"556 N TERRACE DR, WICHITA, KS, 67208","Match","Exact","556 N TERRACE DR, WICHITA, KS, 67208",115638310,"R"
727062,"556 N WICKHAM ROAD APT 113","MELBOURNE","FL",32935,28.115923622,-80.6726203859999,62,"556 N WICKHAM ROAD APT 113, MELBOURNE, FL, 32935","Match","Non_Exact","556 N WICKHAM RD, MELBOURNE, FL, 32935",93933599,"L"
727063,"556 NE WAUNA AVE","WHITE SALMON","WA",98672,45.7310584210001,-121.482894414,63,"556 NE WAUNA AVE, WHITE SALMON, WA, 98672","Match","Exact","556 NE WAUNA AVE, WHITE SALMON, WA, 98672",175634275,"L"
727064,"556 NEUSE RIVER PARKWAY","CLAYTON","NC",27527,35.6563236740001,-78.3902884669999,64,"556 NEUSE RIVER PARKWAY, CLAYTON, NC, 27527","Match","Exact","556 NEUSE RIVER PKWY, CLAYTON, NC, 27527",26553143,"R"
727065,"556 NORTH ARTESIAN","CHICAGO","IL",60612,41.89163445,-87.687955965,65,"556 NORTH ARTESIAN, CHICAGO, IL, 60612","Match","Non_Exact","556 N ARTESIAN AVE, CHICAGO, IL, 60612",605090128,"L"
727066,"556 NORTH SHORE DR SUITE 16","SOUTH HAVEN","MI",49090,42.41534153,-86.273987749,66,"556 NORTH SHORE DR SUITE 16, SOUTH HAVEN, MI, 49090","Match","Exact","556 N SHORE DR, SOUTH HAVEN, MI, 49090",34759919,"R"
727067,"556 NORTH SHORE DRIVE - 16","SOUTH HAVEN","MI",49090,42.41534153,-86.273987749,67,"556 NORTH SHORE DRIVE - 16, SOUTH HAVEN, MI, 49090","Match","Exact","556 N SHORE DR, SOUTH HAVEN, MI, 49090",34759919,"R"
727068,"556 NORTH SHORE DRIVE LOT 16","SOUTH HAVEN","MI",49090,42.41534153,-86.273987749,68,"556 NORTH SHORE DRIVE LOT 16, SOUTH HAVEN, MI, 49090","Match","Exact","556 N SHORE DR, SOUTH HAVEN, MI, 49090",34759919,"R"
727069,"556 NW 53 STREET","BOCA RATON","FL",33487,26.3962584510001,-80.089995885,69,"556 NW 53 STREET, BOCA RATON, FL, 33487","Match","Exact","556 NW 53RD ST, BOCA RATON, FL, 33487",640585529,"L"
727070,"556 NW MAIN ST","ELKHART","IA",50073,41.793397516,-93.527709896,70,"556 NW MAIN ST, ELKHART, IA, 50073","Match","Exact","556 MAIN ST, ELKHART, IA, 50073",65773316,"R"
727071,"556 OAKLAND PATH","MEDFORD","MN",55049,44.171447807,-93.238475106,71,"556 OAKLAND PATH, MEDFORD, MN, 55049","Match","Exact","556 OAKLAND PATH, MEDFORD, MN, 55049",38178839,"L"
727072,"556 OMAR STREET","POMONA","CA",91768,34.0568711560001,-117.806013742,72,"556 OMAR STREET, POMONA, CA, 91768","Match","Exact","556 OMAR ST, POMONA, CA, 91768",141729347,"R"
727073,"556 ORANGEWOOD CT","PALMDALE","CA",93550,34.5638580080001,-118.117700655,73,"556 ORANGEWOOD CT, PALMDALE, CA, 93550","Match","Exact","556 ORANGEWOOD CT, PALMDALE, CA, 93550",141799627,"L"
727074,"556 PINE VALLEY ROAD SE","MARIETTA","GA",30067,33.9339008420001,-84.430553973,74,"556 PINE VALLEY ROAD SE, MARIETTA, GA, 30067","Match","Exact","556 PINE VALLEY RD SE, MARIETTA, GA, 30067",17183761,"R"
727075,"556 PLAZA SEVILLA CT","TREASURE ISLAND","FL",33706,27.7194739660001,-82.734188694,75,"556 PLAZA SEVILLA CT, TREASURE ISLAND, FL, 33706","Match","Non_Exact","556 PLAZA WAY, TREASURE ISLAND, FL, 33706",124708681,"L"
727076,"556 PRIVATE ROAD 354","KITTS HILL","OH",45645,38.582217627,-82.538795012,76,"556 PRIVATE ROAD 354, KITTS HILL, OH, 45645","Match","Non_Exact","556 PVT RD 354, KITTS HILL, OH, 45645",55019301,"R"
727077,"556 RIVAGE PROMENADE","WILMINGTON","NC",28412,34.1139921480001,-77.908074655,77,"556 RIVAGE PROMENADE, WILMINGTON, NC, 28412","Match","Exact","556 RIVAGE PROMENADE, WILMINGTON, NC, 28412",152755492,"L"
727078,"556 ROEMER ROAD","ELGIN","TX",78621,30.37561974,-97.3382666809999,78,"556 ROEMER ROAD, ELGIN, TX, 78621","Match","Exact","556 ROEMER RD, ELGIN, TX, 78621",45490065,"R"
727079,"556 S FAIR OAKS AVE -17","PASADENA","CA",91105,34.1363263320001,-118.150374432,79,"556 S FAIR OAKS AVE -17, PASADENA, CA, 91105","Match","Non_Exact","556 S FAIR OAKS AVE, PASADENA, CA, 91105",141629680,"L"
727080,"556 SCHUYLKILL AVE","READING","PA",19601,40.3443665290001,-75.9397164219999,80,"556 SCHUYLKILL AVE, READING, PA, 19601","Match","Exact","556 SCHUYLKILL AVE, READING, PA, 19601",80444574,"L"
727081,"556 SOUTH STREET","SHREWSBURY","MA",1545,42.2701800290001,-71.6789877689999,81,"556 SOUTH STREET, SHREWSBURY, MA, 1545","Match","Exact","556 SOUTH ST, SHREWSBURY, MA, 01545",645350241,"R"
727082,"556 SOUTHERN BLVD 1ST FL","BRONX","NY",10455,40.812350183,-73.9033665379999,82,"556 SOUTHERN BLVD 1ST FL, BRONX, NY, 10455","Match","Exact","556 SOUTHERN BLVD, BRONX, NY, 10455",80302231,"R"
727083,"556 STATE ST","MADISON","WI",53703,43.074843781,-89.394479807,83,"556 STATE ST, MADISON, WI, 53703","Match","Exact","556 STATE ST, MADISON, WI, 53703",49469425,"R"
727084,"556 STONEWALL DRIVE","GALLOWAY","NJ",8205,39.491886304,-74.4709813109999,84,"556 STONEWALL DRIVE, GALLOWAY, NJ, 8205","Match","Exact","556 STONEWALL DR, GALLOWAY, NJ, 08205",202533348,"R"
727085,"556 SUMMER LAKE LANE","VIRGINIA BEACH","VA",23454,36.778815981,-75.973169922,85,"556 SUMMER LAKE LANE, VIRGINIA BEACH, VA, 23454","Match","Exact","556 SUMMER LAKE LN, VIRGINIA BCH, VA, 23454",122287965,"L"
727086,"556 SWANSTONE DR","SACRAMENTO","CA",95818,38.555201808,-121.511269436,86,"556 SWANSTONE DR, SACRAMENTO, CA, 95818","Match","Non_Exact","556 SWANSTON DR, SACRAMENTO, CA, 95818",133321687,"R"
727087,"556 TARA ROAD","CANTONMENT","FL",32533,30.5382889410001,-87.332903594,87,"556 TARA ROAD, CANTONMENT, FL, 32533","Match","Exact","556 TARA RD, CANTONMENT, FL, 32533",93210190,"R"
727088,"556 TARGEE STREET","STATEN ISLAND","NY",10304,40.6133542050001,-74.0848695029999,88,"556 TARGEE STREET, STATEN ISLAND, NY, 10304","Match","Exact","556 TARGEE ST, STATEN ISLAND, NY, 10304",59869403,"R"
727089,"556 TAWNYBERRY LANE","COLLEGEVILLE","PA",19426,40.1822065360001,-75.487643388,89,"556 TAWNYBERRY LANE, COLLEGEVILLE, PA, 19426","Match","Exact","556 TAWNYBERRY LN, COLLEGEVILLE, PA, 19426",636462062,"L"
727090,"556 TERHUNE DRIVE","WAYNE","NJ",7470,41.0076002970001,-74.271452719,90,"556 TERHUNE DRIVE, WAYNE, NJ, 7470","Match","Exact","556 TERHUNE DR, WAYNE, NJ, 07470",65256576,"L"
727091,"556 THOMAS S BOYLAND","BROOKLYN","NY",11212,40.667418501,-73.9130871999999,91,"556 THOMAS S BOYLAND, BROOKLYN, NY, 11212","Match","Non_Exact","556 THOMAS S BOYLAND ST, BROOKLYN, NY, 11212",59083825,"R"
727092,"556 TRAINA DRIVE","PATTERSON","CA",95363,37.462231704,-121.13085908,92,"556 TRAINA DRIVE, PATTERSON, CA, 95363","Match","Exact","556 TRAINA DR, PATTERSON, CA, 95363",102613097,"R"
727093,"556 TULSA STREET","SAN LORENZO","CA",94580,37.692008446,-122.126876357,93,"556 TULSA STREET, SAN LORENZO, CA, 94580","Match","Exact","556 TULSA ST, SAN LORENZO, CA, 94580",125014035,"R"
727094,"556 TYLER STREET NW","ATLANTA","GA",30314,33.7627773200001,-84.4068171179999,94,"556 TYLER STREET NW, ATLANTA, GA, 30314","Match","Exact","556 TYLER ST NW, ATLANTA, GA, 30314",17395987,"L"
727095,"556 US HWY 224","SULLIVAN","OH",44880,41.0283914290001,-82.236191595,95,"556 US HWY 224, SULLIVAN, OH, 44880","Match","Exact","556 US HWY 224, SULLIVAN, OH, 44880",30143255,"L"
727096,"556 VALLEY ST UNIT C","ORANGE","NJ",7050,40.7636600760001,-74.250141688,96,"556 VALLEY ST UNIT C, ORANGE, NJ, 7050","Match","Exact","556 VALLEY ST, ORANGE, NJ, 07050",63461098,"L"
727097,"556 W 156TH STREET","NEW YORK","NY",10032,40.8329189770001,-73.944116826,97,"556 W 156TH STREET, NEW YORK, NY, 10032","Match","Exact","556 W 156TH ST, NEW YORK, NY, 10032",59655448,"L"
727098,"556 W 181ST ST","NY","NY",10033,40.848963874,-73.932890143,98,"556 W 181ST ST, NY, NY, 10033","Match","Exact","556 W 181ST ST, NEW YORK, NY, 10033",59655647,"L"
727099,"556 WASHINGTON AVENUE 31","BELLEVILLE","NJ",7109,40.7993454670001,-74.1474277039999,99,"556 WASHINGTON AVENUE 31, BELLEVILLE, NJ, 7109","Match","Exact","556 WASHINGTON AVE, BELLEVILLE, NJ, 07109",63455644,"R"
727100,"556 WASHINGTON ST","GARY","IN",46402,41.6005741560001,-87.338426061,100,"556 WASHINGTON ST, GARY, IN, 46402","Match","Exact","556 WASHINGTON ST, GARY, IN, 46402",98426439,"R"
727101,"556 WEST ARLINGTON PL CH","CHICAGO","IL",60614,41.926750143,-87.64294776,101,"556 WEST ARLINGTON PL CH, CHICAGO, IL, 60614","Match","Exact","556 W ARLINGTON PL, CHICAGO, IL, 60614",605242482,"R"
727102,"556 WEST MAIN STREET EXTENSION","KERSEY","PA",15846,41.365764798,-78.641197136,102,"556 WEST MAIN STREET EXTENSION, KERSEY, PA, 15846","Match","Non_Exact","556 W MAIN ST, KERSEY, PA, 15846",642891218,"R"
727103,"556 WEST WESLEY DRIVE","ATLANTA","GA",30305,33.8287002930001,-84.405637602,103,"556 WEST WESLEY DRIVE, ATLANTA, GA, 30305","Match","Non_Exact","556 W WESLEY RD, ATLANTA, GA, 30305",17334949,"L"
727104,"556 WILSON CEMETERY RD NE","CHECK","VA",24072,37.0238865260001,-80.240938397,104,"556 WILSON CEMETERY RD NE, CHECK, VA, 24072","Match","Exact","556 WILSON CEMETERY RD NE, CHECK, VA, 24072",79787135,"L"
727105,"556 WINDSOR DR","ALLEN","TX",75002,33.080632006,-96.668542368,105,"556 WINDSOR DR, ALLEN, TX, 75002","Match","Exact","556 WINDSOR DR, ALLEN, TX, 75002",123485849,"L"
727106,"556 WOODBAY DR","COLUMBUS","OH",43230,40.033577909,-82.89206623,106,"556 WOODBAY DR, COLUMBUS, OH, 43230","Match","Exact","556 WOODBAY DR, COLUMBUS, OH, 43230",218657446,"L"
727107,"556 WOODLAND AVE","WADSWORTH","OH",44281,41.0381945400001,-81.725228342,107,"556 WOODLAND AVE, WADSWORTH, OH, 44281","Match","Exact","556 WOODLAND AVE, WADSWORTH, OH, 44281",58678977,"L"
727108,"556 WOODLAWN ROAD","STEENS","MS",39766,33.6230567370001,-88.323216494,108,"556 WOODLAWN ROAD, STEENS, MS, 39766","Match","Exact","556 WOODLAWN RD, STEENS, MS, 39766",749349,"R"
727109,"556 ZEPHYR ROAD","WILLISTON","VT",5495,44.451202547,-73.104462338,109,"556 ZEPHYR ROAD, WILLISTON, VT, 5495","Match","Exact","556 ZEPHYR RD, WILLISTON, VT, 05495",648858245,"R"
727110,"5560 ACKERFIELD AVE -APT 103","LONG BEACH","CA",90805,33.8574380900001,-118.163091235,110,"5560 ACKERFIELD AVE -APT 103, LONG BEACH, CA, 90805","Match","Exact","5560 ACKERFIELD AVE, LONG BEACH, CA, 90805",141698805,"R"
727111,"5560 ACKERFIELD AVE","LONG BEACH","CA",90805,33.8574380900001,-118.163091235,111,"5560 ACKERFIELD AVE, LONG BEACH, CA, 90805","Match","Exact","5560 ACKERFIELD AVE, LONG BEACH, CA, 90805",141698805,"R"
727112,"5560 AVENIDA FLORENCIA","YORBA LINDA","CA",92887,33.880278161,-117.755294468,112,"5560 AVENIDA FLORENCIA, YORBA LINDA, CA, 92887","Match","Exact","5560 AVE FLORENCIA, YORBA LINDA, CA, 92887",143997052,"R"
727113,"5560 BOURBON ST","DUBLIN","OH",43221,40.0587588020001,-83.1290425449999,113,"5560 BOURBON ST, DUBLIN, OH, 43221","Match","Non_Exact","5560 BOURBON ST, UPPER ARLINGTON, OH, 43221",218576156,"R"
727114,"5560 CALLE VISTA LINDA","YORBA LINDA","CA",92887,33.8814039800001,-117.772350518,114,"5560 CALLE VISTA LINDA, YORBA LINDA, CA, 92887","Match","Non_Exact","5560 CLL VISTA LINDA, YORBA LINDA, CA, 92887",144089964,"R"
727115,"5560 FAULCONER STREET","SAN DIEGO","CA",92105,32.729490519,-117.076494605,115,"5560 FAULCONER STREET, SAN DIEGO, CA, 92105","Match","Exact","5560 FAULCONER ST, SAN DIEGO, CA, 92105",195350818,"L"
727116,"5560 FRANKLIN PIKE CIRCLE","BRENTWOOD","TN",37027,36.0436246,-86.779925808,116,"5560 FRANKLIN PIKE CIRCLE, BRENTWOOD, TN, 37027","Match","Exact","5560 FRANKLIN PIKE CIR, BRENTWOOD, TN, 37027",97193331,"L"
727117,"5560 GLENBROOK RD","STROUDSBURG","PA",18360,40.972293838,-75.217052897,117,"5560 GLENBROOK RD, STROUDSBURG, PA, 18360","Match","Exact","5560 GLENBROOK RD, STROUDSBURG, PA, 18360",636487247,"R"
727118,"5560 GLENBROOK ROAD","STROUDSBURG","PA",18360,40.972293838,-75.217052897,118,"5560 GLENBROOK ROAD, STROUDSBURG, PA, 18360","Match","Exact","5560 GLENBROOK RD, STROUDSBURG, PA, 18360",636487247,"R"
727119,"5560 GOODWIN ST","INDIANAPOLIS","IN",46234,39.845716526,-86.33140466,119,"5560 GOODWIN ST, INDIANAPOLIS, IN, 46234","Match","Exact","5560 GOODWIN ST, INDIANAPOLIS, IN, 46234",642172264,"L"
727120,"5560 GROSS COURT","ORLANDO","FL",32810,28.6130449880001,-81.3992919299999,120,"5560 GROSS COURT, ORLANDO, FL, 32810","Match","Exact","5560 GROSS CT, ORLANDO, FL, 32810",94275559,"L"
727121,"5560 HUNTERS BEND","DALLAS","TX",75249,32.655395314,-96.975761816,121,"5560 HUNTERS BEND, DALLAS, TX, 75249","Match","Non_Exact","5560 HUNTERS BEND LN, DALLAS, TX, 75249",634122375,"L"
727122,"5560 KNOB RD","NASHVILLE","TN",37209,36.137713483,-86.856012433,122,"5560 KNOB RD, NASHVILLE, TN, 37209","Match","Exact","5560 KNOB RD, NASHVILLE, TN, 37209",97180565,"R"
727123,"5560 MACY PLACE DRIVE","WAMEGO","KS",66547,39.2306181480001,-96.3556040569999,123,"5560 MACY PLACE DRIVE, WAMEGO, KS, 66547","Match","Exact","5560 MACY PLACE DR, WAMEGO, KS, 66547",647445124,"R"
727124,"5560 N TROPICAL TRAIL","MERRITT ISLAND","FL",32953,28.4571806480001,-80.716390858,124,"5560 N TROPICAL TRAIL, MERRITT ISLAND, FL, 32953","Match","Exact","5560 N TROPICAL TRL, MERRITT ISLAND, FL, 32953",93887162,"R"
727125,"5560 NORTH WILLARD AVENUE","SAN GABRIEL","CA",91776,34.100817798,-118.085253456,125,"5560 NORTH WILLARD AVENUE, SAN GABRIEL, CA, 91776","Match","Exact","5560 N WILLARD AVE, SAN GABRIEL, CA, 91776",141634824,"R"
727126,"5560 NW 107 AVENUE SUITE 1010","DORAL","FL",33178,25.8259875470001,-80.369861022,126,"5560 NW 107 AVENUE SUITE 1010, DORAL, FL, 33178","Match","Non_Exact","5560 NW 107TH AVE, DORAL, FL, 33178",116287206,"R"
727127,"5560 NW 114 AVE APT 105","DORAL","FL",33178,25.8243314900001,-80.381931948,127,"5560 NW 114 AVE APT 105, DORAL, FL, 33178","Match","Non_Exact","5560 NW 114TH AVE, DORAL, FL, 33178",116267593,"R"
727128,"5560 OLD MYSTIC COURT","JUPITER","FL",33458,26.950247975,-80.1193238019999,128,"5560 OLD MYSTIC COURT, JUPITER, FL, 33458","Match","Exact","5560 OLD MYSTIC CT, JUPITER, FL, 33458",115573924,"R"
727129,"5560 OVERLAND AVE SUITE 410","SAN DIEGO","CA",92123,32.8339418210001,-117.130684181,129,"5560 OVERLAND AVE SUITE 410, SAN DIEGO, CA, 92123","Match","Exact","5560 OVERLAND AVE, SAN DIEGO, CA, 92123",195675499,"L"
727130,"5560 PEACHTREE RD","ATLANTA","GA",30328,33.8952580910001,-84.295915981,130,"5560 PEACHTREE RD, ATLANTA, GA, 30328","Match","Non_Exact","5560 PEACHTREE RD, ATLANTA, GA, 30341",23406945,"L"
727131,"5560 PERRYTOWN DRIVE","WEST BLOOMFIELD","MI",48322,42.5557655900001,-83.3849184539999,131,"5560 PERRYTOWN DRIVE, WEST BLOOMFIELD, MI, 48322","Match","Exact","5560 PERRYTOWN DR, W BLOOMFIELD, MI, 48322",69775315,"R"
727132,"5560 PONY FARM APT A","RICHMOND","VA",23227,37.607251666,-77.4277602399999,132,"5560 PONY FARM APT A, RICHMOND, VA, 23227","Match","Non_Exact","5560 PONY FARM DR, RICHMOND, VA, 23227",106677924,"L"
727133,"5560 REDLAND DRIVE","SAN DIEGO","CA",92115,32.764651455,-117.075707754,133,"5560 REDLAND DRIVE, SAN DIEGO, CA, 92115","Match","Exact","5560 REDLAND DR, SAN DIEGO, CA, 92115",612894542,"R"
727134,"5560 ROCK ISLAND RD","ROCK ISLAND","WA",98850,47.376910552,-120.158038234,134,"5560 ROCK ISLAND RD, ROCK ISLAND, WA, 98850","Match","Exact","5560 ROCK ISLAND RD, ROCK ISLAND, WA, 98850",643064714,"L"
727135,"5560 S DICKERSON","LAKE CITY","MI",49651,44.2592213720001,-85.255282834,135,"5560 S DICKERSON, LAKE CITY, MI, 49651","Match","Non_Exact","5560 S DICKERSON RD, LAKE CITY, MI, 49651",146063407,"L"
727136,"5560 SAN ONOFRE TERRACE","SAN DIEGO","CA",92114,32.700230241,-117.076910451,136,"5560 SAN ONOFRE TERRACE, SAN DIEGO, CA, 92114","Match","Exact","5560 SAN ONOFRE TER, SAN DIEGO, CA, 92114",612875337,"L"
727137,"5560 SOUTH FRANKLIN ST","GREENWOOD VLG","CO",80121,39.6149001540001,-104.969292487,137,"5560 SOUTH FRANKLIN ST, GREENWOOD VLG, CO, 80121","Match","Exact","5560 S FRANKLIN ST, GREENWOOD VILLAGE, CO, 80121",177337344,"L"
727138,"5560 SPECTRA CIR APT 110","FORT MYERS","FL",33980,26.4884033600001,-81.843836542,138,"5560 SPECTRA CIR APT 110, FORT MYERS, FL, 33980","Match","Non_Exact","5560 SPECTRA CIR, FORT MYERS, FL, 33908",650582098,"L"
727139,"5560 STATELINE RD","WALLS","MS",38680,34.991654629,-90.088367224,139,"5560 STATELINE RD, WALLS, MS, 38680","Match","Exact","5560 STATELINE RD, WALLS, MS, 38680",91846572,"L"
727140,"5560 STONEWOOD CT","NORCROSS","GA",30093,33.9120855950001,-84.186549298,140,"5560 STONEWOOD CT, NORCROSS, GA, 30093","Match","Exact","5560 STONEWOOD CT, NORCROSS, GA, 30093",624400434,"R"
727141,"5560 TEJON ST","DENVER","CO",80221,39.797556077,-105.011107851,141,"5560 TEJON ST, DENVER, CO, 80221","Match","Exact","5560 TEJON ST, DENVER, CO, 80221",647751612,"R"
727142,"5560 WILD ROSE LANE","EAU CLAIRE","WI",54701,44.750779906,-91.463112275,142,"5560 WILD ROSE LANE, EAU CLAIRE, WI, 54701","Match","Exact","5560 WILD ROSE LN, EAU CLAIRE, WI, 54701",46075554,"L"
727143,"5561 CAMERON BLVD","NEW ORLEANS","LA",70122,30.0150839730001,-90.0639488049999,143,"5561 CAMERON BLVD, NEW ORLEANS, LA, 70122","Match","Exact","5561 CAMERON BLVD, NEW ORLEANS, LA, 70122",191750550,"R"
727144,"5561 E EARL YOUNG RD","BLOOMINGTON","IN",47408,39.2213188100001,-86.454398731,144,"5561 E EARL YOUNG RD, BLOOMINGTON, IN, 47408","Match","Exact","5561 EARL YOUNG RD, BLOOMINGTON, IN, 47408",42331102,"L"
727145,"5561 EMERALD WAY","ACWORTH","GA",30102,34.0899553730001,-84.634170583,145,"5561 EMERALD WAY, ACWORTH, GA, 30102","Match","Exact","5561 EMERALD WAY, ACWORTH, GA, 30102",68835617,"L"
727146,"5561 ENRIGHT AVE   SUITE 220","SAINT LOUIS","MO",63112,38.654778616,-90.2807329,146,"5561 ENRIGHT AVE   SUITE 220, SAINT LOUIS, MO, 63112","Match","Exact","5561 ENRIGHT AVE, SAINT LOUIS, MO, 63112",107594009,"R"
727147,"5561 HIGHWAY 207","ANDERSON","AL",35610,34.9006284810001,-87.276754994,147,"5561 HIGHWAY 207, ANDERSON, AL, 35610","Match","Non_Exact","5561 STATE RTE 207, ANDERSON, AL, 35610",41329612,"L"
727148,"5561 KINSMAN ROAD","MIDDLEFIELD","OH",44062,41.4587557450001,-80.997134891,148,"5561 KINSMAN ROAD, MIDDLEFIELD, OH, 44062","Match","Exact","5561 KINSMAN RD, MIDDLEFIELD, OH, 44062",636567495,"R"
727149,"5561 LEAN AVENUE","SAN JOSE","CA",95123,37.252644859,-121.817609591,149,"5561 LEAN AVENUE, SAN JOSE, CA, 95123","Match","Exact","5561 LEAN AVE, SAN JOSE, CA, 95123",122925027,"R"
727150,"5561 NE 5TH PL","OCALA","FL",34470,29.192197263,-82.0571633289999,150,"5561 NE 5TH PL, OCALA, FL, 34470","Match","Exact","5561 NE 5TH PL, OCALA, FL, 34470",116729297,"L"
727151,"5561 NORTH 31ST STREET","MILWAUKEE","WI",53209,43.118484708,-87.951397744,151,"5561 NORTH 31ST STREET, MILWAUKEE, WI, 53209","Match","Exact","5561 N 31ST ST, MILWAUKEE, WI, 53209",77735553,"L"
727152,"5561 OLD STATE ROAD","EDINBORO","PA",16412,41.934478922,-80.1523768279999,152,"5561 OLD STATE ROAD, EDINBORO, PA, 16412","Match","Exact","5561 OLD STATE RD, EDINBORO, PA, 16412",117488843,"L"
727153,"5561 PANGOLA ROAD","FORT MYERS","FL",33905,26.663164405,-81.75772539,153,"5561 PANGOLA ROAD, FORT MYERS, FL, 33905","Match","Non_Exact","5561 PANGOLA DR, FORT MYERS, FL, 33905",118054287,"L"
727154,"5561 PEMBROKE AVENUE","SANTA BARBARA","CA",93111,34.4478978010001,-119.817606173,154,"5561 PEMBROKE AVENUE, SANTA BARBARA, CA, 93111","Match","Exact","5561 PEMBROKE AVE, SANTA BARBARA, CA, 93111",108694127,"L"
727155,"5561 ROCK ROSE CIRCLE","KERNS","UT",84118,40.645409473,-112.023750178,155,"5561 ROCK ROSE CIRCLE, KERNS, UT, 84118","Match","Non_Exact","5561 W ROCK ROSE CIR, KEARNS, UT, 84118",611646439,"L"
727156,"5561 STAPLETON DRIVE","MONTGOMERY","AL",36116,32.310517799,-86.194931448,156,"5561 STAPLETON DRIVE, MONTGOMERY, AL, 36116","Match","Exact","5561 STAPLETON DR, MONTGOMERY, AL, 36116",616663062,"R"
727157,"5561 SUNSET RIDGE RD","WALWORTH","WI",53184,NA,NA,157,"5561 SUNSET RIDGE RD, WALWORTH, WI, 53184","No_Match",NA,NA,NA,NA
727158,"5561 SUPERIOR DRIVE","LAKELAND","FL",33805,28.1151920040001,-81.914357292,158,"5561 SUPERIOR DRIVE, LAKELAND, FL, 33805","Match","Exact","5561 SUPERIOR DR, LAKELAND, FL, 33805",648236999,"R"
727159,"5561 TEMPLAR STREET","COLUMBUS","OH",43232,39.914101219,-82.845540009,159,"5561 TEMPLAR STREET, COLUMBUS, OH, 43232","Match","Exact","5561 TEMPLAR ST, COLUMBUS, OH, 43232",218558471,"R"
727160,"5561 TIERRA ALTA CIRCLE","DEL VALLE","TX",78617,NA,NA,160,"5561 TIERRA ALTA CIRCLE, DEL VALLE, TX, 78617","No_Match",NA,NA,NA,NA
727161,"5561 TOLLGATE ROAD","PIPERSVILLE","PA",18947,40.419454133,-75.0948405729999,161,"5561 TOLLGATE ROAD, PIPERSVILLE, PA, 18947","Match","Exact","5561 TOLLGATE RD, PIPERSVILLE, PA, 18947",648200802,"L"
727162,"5561 VILLAGE GREEN COURT 11","LOS ANGELES","CA",90016,NA,NA,162,"5561 VILLAGE GREEN COURT 11, LOS ANGELES, CA, 90016","No_Match",NA,NA,NA,NA
727163,"5561 WHISPERWOOD DR","DALZELL","SC",29040,33.998705973,-80.498587291,163,"5561 WHISPERWOOD DR, DALZELL, SC, 29040","Match","Exact","5561 WHISPERWOOD DR, DALZELL, SC, 29040",202700623,"R"
727164,"5561-D VILLAGE WINDS DR","NOBLESVILLE","IN",46062,40.045931712,-86.076246308,164,"5561-D VILLAGE WINDS DR, NOBLESVILLE, IN, 46062","Match","Exact","5561 VILLAGE WINDS DR, NOBLESVILLE, IN, 46062",29332288,"R"
727165,"55617 COUNTY ROAD 13","MOUNTAIN LAKE","MN",56159,43.876650295,-94.968590702,165,"55617 COUNTY ROAD 13, MOUNTAIN LAKE, MN, 56159","Match","Exact","55617 CO RD 13, MOUNTAIN LAKE, MN, 56159",608396002,"R"
727166,"5562 BLAKEMORE STREET","PHILADELPHIA","PA",19138,40.0478538990001,-75.1593275879999,166,"5562 BLAKEMORE STREET, PHILADELPHIA, PA, 19138","Match","Exact","5562 BLAKEMORE ST, PHILADELPHIA, PA, 19138",131413406,"L"
727167,"5562 Central Avenue","BONITA","CA",91902,32.671994071,-117.01110689,167,"5562 Central Avenue, BONITA, CA, 91902","Match","Exact","5562 CENTRAL AVE, BONITA, CA, 91902",195763963,"R"
727168,"5562 E WILMA ROAD","COEUR D ALENE","ID",83814,47.6350072920001,-116.710437047,168,"5562 E WILMA ROAD, COEUR D ALENE, ID, 83814","Match","Exact","5562 E WILMA RD, COEUR D ALENE, ID, 83814",192939202,"R"
727169,"5562 HOBART ST APT 717","PITTSBURGH","PA",15217,40.4324763050001,-79.928671563,169,"5562 HOBART ST APT 717, PITTSBURGH, PA, 15217","Match","Exact","5562 HOBART ST, PITTSBURGH, PA, 15217",51816369,"R"
727170,"5562 JUNIPER","SAGINAW","MI",48603,43.4481979030001,-84.026362395,170,"5562 JUNIPER, SAGINAW, MI, 48603","Match","Non_Exact","5562 JUNIPER LN, SAGINAW, MI, 48603",80208054,"R"
727171,"5562 LIBERTY WOODS DR","LIBERTY TWP","OH",45011,39.4124855740001,-84.412869238,171,"5562 LIBERTY WOODS DR, LIBERTY TWP, OH, 45011","Match","Exact","5562 LIBERTY WOODS DR, LIBERTY TWP, OH, 45011",113792660,"R"
727172,"5562 MALLARD TRAIL","LITHONIA","GA",30058,33.728023862,-84.1612532789999,172,"5562 MALLARD TRAIL, LITHONIA, GA, 30058","Match","Exact","5562 MALLARD TRL, LITHONIA, GA, 30058",23378654,"L"
727173,"5562 MORGAN PARK","SUGAR LAND","TX",77479,29.5906015960001,-95.6806524309999,173,"5562 MORGAN PARK, SUGAR LAND, TX, 77479","Match","Non_Exact","5562 MORGAN PARK LN, SUGAR LAND, TX, 77479",633672222,"R"
727174,"5562 N PASEO PESCADO","TUCSON","AZ",85718,32.3074315050001,-110.907979413,174,"5562 N PASEO PESCADO, TUCSON, AZ, 85718","Match","Non_Exact","5562 N PSO PESCADO, TUCSON, AZ, 85718",121209366,"R"
727175,"5562 QUEEN ELIZABETH LANE","JACKSON","MS",39209,32.338736076,-90.273569653,175,"5562 QUEEN ELIZABETH LANE, JACKSON, MS, 39209","Match","Exact","5562 QUEEN ELIZABETH LN, JACKSON, MS, 39209",65379373,"R"
727176,"5562 ROCK ROSE CIRCLE","KERNS","UT",84118,40.645420438,-112.023761053,176,"5562 ROCK ROSE CIRCLE, KERNS, UT, 84118","Match","Non_Exact","5562 W ROCK ROSE CIR, KEARNS, UT, 84118",611646439,"R"
727177,"5562 S BRUNER ST","HINSDALE","IL",60521,41.7873196890001,-87.9426263,177,"5562 S BRUNER ST, HINSDALE, IL, 60521","Match","Exact","5562 S BRUNER ST, HINSDALE, IL, 60521",112549810,"R"
727178,"5562 SCHMALZRIED RD","LEVERING","MI",49755,45.665462604,-84.8004073119999,178,"5562 SCHMALZRIED RD, LEVERING, MI, 49755","Match","Exact","5562 SCHMALZRIED RD, LEVERING, MI, 49755",133980287,"R"
727179,"5562 VONNIE LANE","CYPRESS","CA",90630,33.833962958,-118.03404819,179,"5562 VONNIE LANE, CYPRESS, CA, 90630","Match","Exact","5562 VONNIE LN, CYPRESS, CA, 90630",144414136,"R"
727180,"5562 ZION RIDGE TERR","RICHMOND","VA",23234,NA,NA,180,"5562 ZION RIDGE TERR, RICHMOND, VA, 23234","Tie",NA,NA,NA,NA
727181,"5563 57TH WAY","VERO BEACH","FL",32967,27.696187778,-80.444625028,181,"5563 57TH WAY, VERO BEACH, FL, 32967","Match","Exact","5563 57TH WAY, VERO BEACH, FL, 32967",623833889,"L"
727182,"5563 BUTTE STREET","LEHIGH ACRES","FL",33971,26.6285125110001,-81.7491458819999,182,"5563 BUTTE STREET, LEHIGH ACRES, FL, 33971","Match","Exact","5563 BUTTE ST, LEHIGH ACRES, FL, 33971",117983748,"L"
727183,"5563 BUTTE STREET","LEIGH ACRES","FL",33971,26.6285125110001,-81.7491458819999,183,"5563 BUTTE STREET, LEIGH ACRES, FL, 33971","Match","Non_Exact","5563 BUTTE ST, LEHIGH ACRES, FL, 33971",117983748,"L"
727184,"5563 CARLETANS LN","THE PLAINS","VA",20198,38.804050321,-77.805908137,184,"5563 CARLETANS LN, THE PLAINS, VA, 20198","Match","Exact","5563 CARLETANS LN, THE PLAINS, VA, 20198",641144608,"R"
727185,"5563 CLOUDS REST","MARIPOSA","CA",95338,37.4881357450001,-119.835963831,185,"5563 CLOUDS REST, MARIPOSA, CA, 95338","Match","Exact","5563 CLOUDS REST, MARIPOSA, CA, 95338",102456799,"L"
727186,"5563 NORTH 54TH STREET","MILWAUKEE","WI",53218,43.1186296490001,-87.9799395329999,186,"5563 NORTH 54TH STREET, MILWAUKEE, WI, 53218","Match","Exact","5563 N 54TH ST, MILWAUKEE, WI, 53218",77726792,"L"
727187,"5563 PROSPERO LANE","HERRIMAN","UT",84096,40.496480406,-112.023656917,187,"5563 PROSPERO LANE, HERRIMAN, UT, 84096","Match","Exact","5563 PROSPERO LN, HERRIMAN, UT, 84096",645323614,"R"
727188,"5563 RENN LANE","INDIANAPOLIS","IN",46254,39.8355736780001,-86.257763612,188,"5563 RENN LANE, INDIANAPOLIS, IN, 46254","Match","Exact","5563 RENN LN, INDIANAPOLIS, IN, 46254",108059380,"L"
727189,"5563 RICE ROAD","BOSTON","NY",14025,42.6308284460001,-78.7739974899999,189,"5563 RICE ROAD, BOSTON, NY, 14025","Match","Exact","5563 RICE RD, BOSTON, NY, 14025",635608604,"L"
727190,"5563 S CLIFFSEDGE AVE","BOISE","ID",83716,43.551072956,-116.116914738,190,"5563 S CLIFFSEDGE AVE, BOISE, ID, 83716","Match","Exact","5563 S CLIFFSEDGE AVE, BOISE, ID, 83716",117884344,"L"
727191,"5563 SEMINARY ROAD APT 301","FALLS CHURCH","VA",22041,38.8430964820001,-77.1222036679999,191,"5563 SEMINARY ROAD APT 301, FALLS CHURCH, VA, 22041","Match","Exact","5563 SEMINARY RD, FALLS CHURCH, VA, 22041",650142455,"R"
727192,"5563 SENECA PLACE","SIMI VALLEY","CA",93063,NA,NA,192,"5563 SENECA PLACE, SIMI VALLEY, CA, 93063","No_Match",NA,NA,NA,NA
727193,"5563 SILVER STREET ROAD","AUBURN","NY",13021,42.8856682570001,-76.565374402,193,"5563 SILVER STREET ROAD, AUBURN, NY, 13021","Match","Exact","5563 SILVER STREET RD, AUBURN, NY, 13021",33526759,"L"
727194,"5563 SYDNEY PL","HIGHLANDS RANCH","CO",80130,39.5414898390001,-104.923910406,194,"5563 SYDNEY PL, HIGHLANDS RANCH, CO, 80130","Match","Exact","5563 SYDNEY PL, HIGHLANDS RANCH, CO, 80130",130820309,"L"
727195,"5563 WITTEN VALLEY ROAD","TAZEWELL","VA",24651,37.0989772930001,-81.5674326769999,195,"5563 WITTEN VALLEY ROAD, TAZEWELL, VA, 24651","Match","Exact","5563 WITTEN VALLEY RD, TAZEWELL, VA, 24651",47317652,"L"
727196,"5564 CASCADE RUN","ATLANTA","GA",30336,33.726601583,-84.5680539809999,196,"5564 CASCADE RUN, ATLANTA, GA, 30336","Match","Exact","5564 CASCADE RUN, ATLANTA, GA, 30336",644988938,"L"
727197,"5564 DURRETT DRIVE","DUNWOODY","GA",30338,33.9638745290001,-84.3166922889999,197,"5564 DURRETT DRIVE, DUNWOODY, GA, 30338","Match","Exact","5564 DURRETT DR, DUNWOODY, GA, 30338",23356354,"R"
727198,"5564 E 1150 NORTH ROAD","DANVERS","IL",61774,40.450594327,-89.153869014,198,"5564 E 1150 NORTH ROAD, DANVERS, IL, 61774","Match","Non_Exact","5564 E 1150 NORTH RD, STANFORD, IL, 61774",20540001,"L"
727199,"5564 EASTWEDGE DRIVE","FORT WORTH","TX",76137,32.881604678,-97.263889037,199,"5564 EASTWEDGE DRIVE, FORT WORTH, TX, 76137","Match","Exact","5564 EASTWEDGE DR, FORT WORTH, TX, 76137",102107758,"L"
727200,"5564 FAIRLEY ROAD","MAXTON","NC",28364,34.6461884990001,-79.385619775,200,"5564 FAIRLEY ROAD, MAXTON, NC, 28364","Match","Exact","5564 FAIRLEY RD, MAXTON, NC, 28364",608089114,"L"
727201,"5564 FAIRLEY ROAD","MAXTON","NC",28564,34.6461884990001,-79.385619775,201,"5564 FAIRLEY ROAD, MAXTON, NC, 28564","Match","Non_Exact","5564 FAIRLEY RD, MAXTON, NC, 28364",608089114,"L"
727202,"5564 LITTLE MILL RD","BUFORD","GA",30518,34.133082223,-84.021504776,202,"5564 LITTLE MILL RD, BUFORD, GA, 30518","Match","Exact","5564 LITTLE MILL RD, BUFORD, GA, 30518",627612818,"L"
727203,"5564 MARTINA WAY","DUNWOODY","GA",30338,33.962526391,-84.330480539,203,"5564 MARTINA WAY, DUNWOODY, GA, 30338","Match","Exact","5564 MARTINA WAY, DUNWOODY, GA, 30338",23355922,"R"
727204,"5564 MARTY RD","ORLANDO","FL",32822,28.4805409680001,-81.2758739499999,204,"5564 MARTY RD, ORLANDO, FL, 32822","Match","Exact","5564 MARTY RD, ORLANDO, FL, 32822",94421923,"R"
727205,"5564 NETTLEBED COURT","COLUMBIA","NY",21045,NA,NA,205,"5564 NETTLEBED COURT, COLUMBIA, NY, 21045","No_Match",NA,NA,NA,NA
727206,"5564 PO BOX","OAKLAND","CA",94605,NA,NA,206,"5564 PO BOX, OAKLAND, CA, 94605","No_Match",NA,NA,NA,NA
727207,"5564 SCHEFFLERA PLACE","GRANT","FL",32949,27.926897664,-80.5507865599999,207,"5564 SCHEFFLERA PLACE, GRANT, FL, 32949","Match","Exact","5564 SCHEFFLERA PL, GRANT, FL, 32949",93935039,"R"
727208,"5564 SOUCHAK DR","WEST PALM BEACH","FL",33413,26.6854695750001,-80.1295051129999,208,"5564 SOUCHAK DR, WEST PALM BEACH, FL, 33413","Match","Exact","5564 SOUCHAK DR, WEST PALM BEACH, FL, 33413",115269515,"L"
727209,"5564 STATE HWY 43","JEFFERSON","TX",75657,32.8053547710001,-94.1738672659999,209,"5564 STATE HWY 43, JEFFERSON, TX, 75657","Match","Exact","5564 STATE HWY 43, JEFFERSON, TX, 75657",57751864,"L"
727210,"5564 VERNON AVE","ST. LOUIS","MO",63112,38.6595598750001,-90.281371781,210,"5564 VERNON AVE, ST. LOUIS, MO, 63112","Match","Exact","5564 VERNON AVE, SAINT LOUIS, MO, 63112",107592930,"L"
727211,"5565 ACKERFIELD AVE","LONG BEACH","CA",90805,33.857478821,-118.163104711,211,"5565 ACKERFIELD AVE, LONG BEACH, CA, 90805","Match","Exact","5565 ACKERFIELD AVE, LONG BEACH, CA, 90805",141698805,"L"
727212,"5565 AIRPORT HIGHWAY STE 101","TOLEDO","OH",43615,41.6157529440001,-83.674301504,212,"5565 AIRPORT HIGHWAY STE 101, TOLEDO, OH, 43615","Match","Exact","5565 AIRPORT HWY, TOLEDO, OH, 43615",33951628,"R"
727213,"5565 ALLEN ROAD","HERNANDO","MS",38632,34.77908641,-89.7946227159999,213,"5565 ALLEN ROAD, HERNANDO, MS, 38632","Match","Exact","5565 ALLEN RD, HERNANDO, MS, 38632",641121571,"L"
727214,"5565 BIG BOAT DRIVE SW","ATLANTA","GA",30331,33.715669559,-84.572329596,214,"5565 BIG BOAT DRIVE SW, ATLANTA, GA, 30331","Match","Non_Exact","5565 BIG BOAT DR, ATLANTA, GA, 30331",627634554,"R"
727215,"5565 BLAINE AVE SUITE 225","INVER GROVE HEIGHTS","MN",55076,44.867618034,-93.053884662,215,"5565 BLAINE AVE SUITE 225, INVER GROVE HEIGHTS, MN, 55076","Match","Non_Exact","5565 BLAINE AVE E, INVER GROVE HEIGHTS, MN, 55076",37947643,"L"
727216,"5565 CAMINITO MUNDANO","SAN DIEGO","CA",92130,NA,NA,216,"5565 CAMINITO MUNDANO, SAN DIEGO, CA, 92130","No_Match",NA,NA,NA,NA
727217,"5565 COTTAGE FARM ROAD","JOHNS CREEK","GA",30022,34.031929345,-84.199037612,217,"5565 COTTAGE FARM ROAD, JOHNS CREEK, GA, 30022","Match","Exact","5565 COTTAGE FARM RD, JOHNS CREEK, GA, 30022",17427651,"L"
727218,"5565 COUNTY RD 3","KINDRED","ND",58051,46.6039666020001,-97.032281021,218,"5565 COUNTY RD 3, KINDRED, ND, 58051","Match","Exact","5565 CO RD 3, KINDRED, ND, 58051",181272002,"L"
727219,"5565 COURT F","HANOVER PARK","IL",60133,NA,NA,219,"5565 COURT F, HANOVER PARK, IL, 60133","No_Match",NA,NA,NA,NA
727220,"5565 DEER CREEK DRIVE","DALLAS","TX",75228,32.792958884,-96.704159948,220,"5565 DEER CREEK DRIVE, DALLAS, TX, 75228","Match","Exact","5565 DEER CREEK DR, DALLAS, TX, 75228",102978716,"L"
727221,"5565 EVELYN DRIVE","NORTH CHARLESTON","SC",29418,32.858465186,-80.053628293,221,"5565 EVELYN DRIVE, NORTH CHARLESTON, SC, 29418","Match","Exact","5565 EVELYN DR, N CHARLESTON, SC, 29418",108800011,"L"
727222,"5565 GROSSMONT CENTER DR STE 455","LA MESA","CA",91942,32.7790260370001,-117.008258913,222,"5565 GROSSMONT CENTER DR STE 455, LA MESA, CA, 91942","Match","Exact","5565 GROSSMONT CENTER DR, LA MESA, CA, 91942",640042827,"R"
727223,"5565 KINGS RETREAT DR E","HORN LAKE","MS",38637,34.951460136,-90.08850439,223,"5565 KINGS RETREAT DR E, HORN LAKE, MS, 38637","Match","Exact","5565 KINGS RETREAT DR E, HORN LAKE, MS, 38637",632760034,"L"
727224,"5565 KIPLINGTON DR","CINCINNATI","OH",45239,39.198981432,-84.567284027,224,"5565 KIPLINGTON DR, CINCINNATI, OH, 45239","Match","Exact","5565 KIPLINGTON DR, CINCINNATI, OH, 45239",103957269,"L"
727225,"5565 MADISON ROAD","ALMA","MI",48801,43.422729888,-84.7191276249999,225,"5565 MADISON ROAD, ALMA, MI, 48801","Match","Non_Exact","5565 W MADISON RD, ALMA, MI, 48801",80160219,"L"
727226,"5565 MANSION BLUFF APT 3006","SAN ANTONIO","TX",78245,NA,NA,226,"5565 MANSION BLUFF APT 3006, SAN ANTONIO, TX, 78245","No_Match",NA,NA,NA,NA
727227,"5565 MANSIONS BLFS APT 2305","SAN ANTONIO","TX",78245,29.3766531910001,-98.7554871679999,227,"5565 MANSIONS BLFS APT 2305, SAN ANTONIO, TX, 78245","Match","Exact","5565 MANSIONS BLFS, SAN ANTONIO, TX, 78245",648222619,"L"
727228,"5565 MANSIONS BLUFF APT 4306","SAN ANTONIO","TX",78245,29.3766531910001,-98.7554871679999,228,"5565 MANSIONS BLUFF APT 4306, SAN ANTONIO, TX, 78245","Match","Non_Exact","5565 MANSIONS BLFS, SAN ANTONIO, TX, 78245",648222619,"L"
727229,"5565 MANSIONS BLUFFS APT 4005","SAN ANTONIO","TX",78245,29.3766531910001,-98.7554871679999,229,"5565 MANSIONS BLUFFS APT 4005, SAN ANTONIO, TX, 78245","Match","Exact","5565 MANSIONS BLFS, SAN ANTONIO, TX, 78245",648222619,"L"
727230,"5565 MANSIONS BLUFFS APT 4406","SAN ANTONIO","TX",78245,29.3766531910001,-98.7554871679999,230,"5565 MANSIONS BLUFFS APT 4406, SAN ANTONIO, TX, 78245","Match","Exact","5565 MANSIONS BLFS, SAN ANTONIO, TX, 78245",648222619,"L"
727231,"5565 MIDDLEBELT RD","WEST BLOOMFIELD","MI",48232,42.557559412,-83.341711719,231,"5565 MIDDLEBELT RD, WEST BLOOMFIELD, MI, 48232","Match","Non_Exact","5565 MIDDLEBELT RD, W BLOOMFIELD, MI, 48323",640604806,"L"
727232,"5565 NAPLES CANAL","LONG BEACH","CA",90803,33.753637154,-118.125684677,232,"5565 NAPLES CANAL, LONG BEACH, CA, 90803","Match","Non_Exact","5565 E NAPLES CANAL, LONG BEACH, CA, 90803",142651538,"L"
727233,"5565 PACIFIC BLVD","BOCA RATON","FL",33473,26.3399645870001,-80.130635593,233,"5565 PACIFIC BLVD, BOCA RATON, FL, 33473","Match","Non_Exact","5565 PACIFIC BLVD, BOCA RATON, FL, 33433",650072746,"L"
727234,"5565 PINE AVENUE","CHINO HILLS","CA",91709,33.946952561,-117.68327405,234,"5565 PINE AVENUE, CHINO HILLS, CA, 91709","Match","Exact","5565 PINE AVE, CHINO HILLS, CA, 91709",145224339,"L"
727235,"5565 PROVIDENCE CHURCH RD","WINSTON SALEM","NC",27105,36.19591753,-80.234234685,235,"5565 PROVIDENCE CHURCH RD, WINSTON SALEM, NC, 27105","Match","Exact","5565 PROVIDENCE CHURCH RD, WINSTON SALEM, NC, 27105",649729272,"R"
727236,"5565 PROVIDENCE CHURCH ROAD","WINSTON SALEM","NC",27105,36.19591753,-80.234234685,236,"5565 PROVIDENCE CHURCH ROAD, WINSTON SALEM, NC, 27105","Match","Exact","5565 PROVIDENCE CHURCH RD, WINSTON SALEM, NC, 27105",649729272,"R"
727237,"5565 REMINGTON ROAD","LAS CRUCES","NM",88011,32.2543931070001,-106.701920204,237,"5565 REMINGTON ROAD, LAS CRUCES, NM, 88011","Match","Exact","5565 REMINGTON RD, LAS CRUCES, NM, 88011",632637208,"L"
727238,"5565 S 360 E","HILLSDALE","IN",47854,39.801895304,-87.395105934,238,"5565 S 360 E, HILLSDALE, IN, 47854","Match","Non_Exact","5565 S CO RD 360 E, HILLSDALE, IN, 47854",66507469,"L"
727239,"5565 S WILSON MEADOWS DR","SHELBYVILLE","IN",46176,39.444198644,-85.758805975,239,"5565 S WILSON MEADOWS DR, SHELBYVILLE, IN, 46176","Match","Exact","5565 S WILSON MEADOWS DR, SHELBYVILLE, IN, 46176",33213826,"L"
727240,"5565 SANDHILL RD","IRVINE","KY",40336,37.765372164,-84.03116353,240,"5565 SANDHILL RD, IRVINE, KY, 40336","Match","Non_Exact","5565 SAND HILL RD, IRVINE, KY, 40336",31904625,"L"
727241,"5565 SEMINARY RD  APT 109","FALLS CHURCH","VA",22041,38.843179789,-77.122237318,241,"5565 SEMINARY RD  APT 109, FALLS CHURCH, VA, 22041","Match","Exact","5565 SEMINARY RD, FALLS CHURCH, VA, 22041",615667457,"R"
727242,"5565 THORNGROVE WAY","SPRINGHILL","FL",34609,28.504527174,-82.501756831,242,"5565 THORNGROVE WAY, SPRINGHILL, FL, 34609","Match","Non_Exact","5565 THORNGROVE WAY, SPRING HILL, FL, 34609",85468085,"L"
727243,"5565 W JACKSON BLVD","CHICAGO","IL",60644,41.8765463450001,-87.763631178,243,"5565 W JACKSON BLVD, CHICAGO, IL, 60644","Match","Exact","5565 W JACKSON BLVD, CHICAGO, IL, 60644",111754885,"L"
727244,"5565 W MCNABB RD","NORTH LAUDERDALE","FL",33068,NA,NA,244,"5565 W MCNABB RD, NORTH LAUDERDALE, FL, 33068","No_Match",NA,NA,NA,NA
727245,"5565 WASHINGTON STREET","DENVER","CO",80216,39.797682088,-104.978246325,245,"5565 WASHINGTON STREET, DENVER, CO, 80216","Match","Exact","5565 WASHINGTON ST, DENVER, CO, 80216",177303041,"L"
727246,"55655 PONTIAC TRAIL SERVICE ROAD","NEW HUDSON","MI",48165,42.5185571480001,-83.6045247329999,246,"55655 PONTIAC TRAIL SERVICE ROAD, NEW HUDSON, MI, 48165","Match","Non_Exact","55655 PONTIAC TRAIL CT, NEW HUDSON, MI, 48165",69716339,"L"
727247,"5566 BIMINI DR","MINNETONKA","MN",55343,44.9034146870001,-93.4243618679999,247,"5566 BIMINI DR, MINNETONKA, MN, 55343","Match","Exact","5566 BIMINI DR, MINNETONKA, MN, 55343",43838001,"L"
727248,"5566 CIDERBERRY DRIVE","BRIGHTON","MI",48116,42.5186422040001,-83.839739919,248,"5566 CIDERBERRY DRIVE, BRIGHTON, MI, 48116","Match","Exact","5566 CIDERBERRY DR, BRIGHTON, MI, 48116",619590131,"R"
727249,"5566 CRYSTAL FALLS STREET","DUBLIN","OH",43016,NA,NA,249,"5566 CRYSTAL FALLS STREET, DUBLIN, OH, 43016","No_Match",NA,NA,NA,NA
727250,"5566 FOXBORO AVENUE NW","CANTON","OH",44718,40.8617750020001,-81.482127597,250,"5566 FOXBORO AVENUE NW, CANTON, OH, 44718","Match","Exact","5566 FOXBORO AVE NW, CANTON, OH, 44718",64671759,"R"
727251,"5566 LONGEST DRIVE","SOUTH BELOIT","IL",61080,42.4816380080001,-89.008360913,251,"5566 LONGEST DRIVE, SOUTH BELOIT, IL, 61080","Match","Exact","5566 LONGEST DR, SOUTH BELOIT, IL, 61080",606592998,"L"
727252,"5566 OAKDALE RD","MABLETON","GA",30126,33.817945047,-84.4997308979999,252,"5566 OAKDALE RD, MABLETON, GA, 30126","Match","Non_Exact","5566 OAKDALE RD SE, MABLETON, GA, 30126",17250275,"R"
727253,"5566 RIDGEWOOD LANE","BRECKSVILLE","OH",44141,41.2885984980001,-81.6573104079999,253,"5566 RIDGEWOOD LANE, BRECKSVILLE, OH, 44141","Match","Exact","5566 RIDGEWOOD LN, BRECKSVILLE, OH, 44141",624027834,"L"
727254,"5566 SENOUR DR","WEST CHESTER","OH",45069,39.3640866420001,-84.4365213459999,254,"5566 SENOUR DR, WEST CHESTER, OH, 45069","Match","Exact","5566 SENOUR DR, WEST CHESTER, OH, 45069",113810544,"R"
727255,"5566 STEMPLE RIDGE RD","AURORA","WV",26705,39.303693793,-79.5624729899999,255,"5566 STEMPLE RIDGE RD, AURORA, WV, 26705","Match","Exact","5566 STEMPLE RIDGE RD, AURORA, WV, 26705",611582777,"R"
727256,"5566 SUGAR MAPLE RUN","HAMILTON","OH",45011,39.4134658900001,-84.443351074,256,"5566 SUGAR MAPLE RUN, HAMILTON, OH, 45011","Match","Exact","5566 SUGAR MAPLE RUN, HAMILTON, OH, 45011",625193236,"R"
727257,"5566 TYLERTOWN AVE","MEMPHIS","TN",38134,35.2148313860001,-89.877702299,257,"5566 TYLERTOWN AVE, MEMPHIS, TN, 38134","Match","Exact","5566 TYLERTOWN AVE, MEMPHIS, TN, 38134",72924048,"L"
727258,"5566 VERNON AVENUE","SAINT LOUIS","MO",63112,38.65956412,-90.281410696,258,"5566 VERNON AVENUE, SAINT LOUIS, MO, 63112","Match","Exact","5566 VERNON AVE, SAINT LOUIS, MO, 63112",107592930,"L"
727259,"5566 WRIGHT ROAD","POWDER SPRINGS","GA",30127,33.9136301930001,-84.7167174159999,259,"5566 WRIGHT ROAD, POWDER SPRINGS, GA, 30127","Match","Exact","5566 WRIGHT RD, POWDER SPGS, GA, 30127",614172391,"R"
727260,"5567 CENTERPOINTE BLVD APT 8","CANANDAIGUA","NY",14482,42.9247942580001,-77.322727027,260,"5567 CENTERPOINTE BLVD APT 8, CANANDAIGUA, NY, 14482","Match","Non_Exact","5567 CENTERPOINTE BLVD, CANANDAIGUA, NY, 14424",13486145,"L"
727261,"5567 E HENRY JONES RD","KING HILL","ID",83633,42.992545873,-115.201862049,261,"5567 E HENRY JONES RD, KING HILL, ID, 83633","Match","Exact","5567 E HENRY JONES RD, KING HILL, ID, 83633",117632213,"R"
727262,"5567 E VAN BUREN 2ND FLOOR","CHICAGO","IL",60623,NA,NA,262,"5567 E VAN BUREN 2ND FLOOR, CHICAGO, IL, 60623","No_Match",NA,NA,NA,NA
727263,"5567 EDINBOROUGH DRIVE","WEST BLOOMFIELD","MI",48322,42.5295487720001,-83.351245373,263,"5567 EDINBOROUGH DRIVE, WEST BLOOMFIELD, MI, 48322","Match","Exact","5567 EDINBOROUGH DR, W BLOOMFIELD, MI, 48322",69723068,"L"
727264,"5567 FIRST STATESMAN LANE","ALEXANDRIA","VA",22312,38.8004600890001,-77.1456412219999,264,"5567 FIRST STATESMAN LANE, ALEXANDRIA, VA, 22312","Match","Exact","5567 FIRST STATESMAN LN, ALEXANDRIA, VA, 22312",76005016,"L"
727265,"5567 FOX GLEN CIR","LITHONIA","GA",30038,33.6795279630001,-84.163396746,265,"5567 FOX GLEN CIR, LITHONIA, GA, 30038","Match","Exact","5567 FOX GLEN CIR, LITHONIA, GA, 30038",23378702,"R"
727266,"5567 MCCONOUGH RD","HOFFMAN ESTATES","IL",60192,NA,NA,266,"5567 MCCONOUGH RD, HOFFMAN ESTATES, IL, 60192","No_Match",NA,NA,NA,NA
727267,"5567 MIDWOOD AVENUE","BALTIMORE","MD",21212,39.3569169670001,-76.600520365,267,"5567 MIDWOOD AVENUE, BALTIMORE, MD, 21212","Match","Exact","5567 MIDWOOD AVE, BALTIMORE, MD, 21212",206408519,"R"
727268,"5567 MUIRFIELD WAY","AVON","IN",46123,39.7501832990001,-86.4272726309999,268,"5567 MUIRFIELD WAY, AVON, IN, 46123","Match","Exact","5567 MUIRFIELD WAY, AVON, IN, 46123",89211598,"R"
727269,"5567 RIGHTWOOD WAY","SACRAMENTO","CA",95823,38.45029716,-121.4393885,269,"5567 RIGHTWOOD WAY, SACRAMENTO, CA, 95823","Match","Exact","5567 RIGHTWOOD WAY, SACRAMENTO, CA, 95823",133380027,"R"
727270,"5567 ROSEWOOD DR","MYRTLE BEACH","SC",29588,33.685853163,-78.9938854979999,270,"5567 ROSEWOOD DR, MYRTLE BEACH, SC, 29588","Match","Exact","5567 ROSEWOOD DR, MYRTLE BEACH, SC, 29588",29057527,"L"
727271,"5567 SOUTH ORANGE STREET","ORLANDO","FL",32839,NA,NA,271,"5567 SOUTH ORANGE STREET, ORLANDO, FL, 32839","No_Match",NA,NA,NA,NA
727272,"5567 W MONROE STREET","CHICAGO","IL",60644,41.8792593090001,-87.763785927,272,"5567 W MONROE STREET, CHICAGO, IL, 60644","Match","Exact","5567 W MONROE ST, CHICAGO, IL, 60644",111754859,"L"
727273,"5567 WEST BEACHFRONT LANE","BOISE","IA",83703,NA,NA,273,"5567 WEST BEACHFRONT LANE, BOISE, IA, 83703","No_Match",NA,NA,NA,NA
727274,"5567 WEST VAN BUREN","CHICAGO","IL",60644,41.8747374270001,-87.763580056,274,"5567 WEST VAN BUREN, CHICAGO, IL, 60644","Match","Non_Exact","5567 W VAN BUREN ST, CHICAGO, IL, 60644",111795076,"L"
727275,"5567 YORKE STREET NW","CONCORD","NC",28027,35.4125321070001,-80.6757136639999,275,"5567 YORKE STREET NW, CONCORD, NC, 28027","Match","Exact","5567 YORKE ST NW, CONCORD, NC, 28027",24922499,"L"
727276,"5568 BLACKPOOL ROAD","LINCOLN","NE",68518,40.756882472,-96.678543573,276,"5568 BLACKPOOL ROAD, LINCOLN, NE, 68518","Match","Non_Exact","5568 BLACKPOOL RD, LINCOLN, NE, 68516",28273939,"R"
727277,"5568 CHALKVILLE ROAD","BIRMINGHAM","AL",35235,33.652529889,-86.6374310739999,277,"5568 CHALKVILLE ROAD, BIRMINGHAM, AL, 35235","Match","Exact","5568 CHALKVILLE RD, BIRMINGHAM, AL, 35235",81758814,"R"
727278,"5568 E SHENNA DR","SCOTTSDALE","AZ",85254,33.613749898,-111.961156199,278,"5568 E SHENNA DR, SCOTTSDALE, AZ, 85254","Match","Non_Exact","5568 E SHEENA DR, SCOTTSDALE, AZ, 85254",128354515,"L"
727279,"5568 FIELD CREST DRIVE","HARTFORD","WI",53027,43.3931948600001,-88.311808582,279,"5568 FIELD CREST DRIVE, HARTFORD, WI, 53027","Match","Exact","5568 FIELD CREST DR, HARTFORD, WI, 53027",79574949,"L"
727280,"5568 HIGHAWY 190 EAST","LAMPASAS","TX",76550,NA,NA,280,"5568 HIGHAWY 190 EAST, LAMPASAS, TX, 76550","No_Match",NA,NA,NA,NA
727281,"5568 HOWE ROAD","TRENTON","OH",45067,39.500829459,-84.472051731,281,"5568 HOWE ROAD, TRENTON, OH, 45067","Match","Exact","5568 HOWE RD, TRENTON, OH, 45067",113818340,"L"
727282,"5568 JOHN MARSHALL HWY","LEBANON CHURCH","VA",22641,39.057090665,-78.369045575,282,"5568 JOHN MARSHALL HWY, LEBANON CHURCH, VA, 22641","Match","Exact","5568 JOHN MARSHALL HWY, LEBANON CH, VA, 22641",635299012,"R"
727283,"5568 LANDON ST SE","SALEM","OR",97306,44.8747751060001,-123.001068879,283,"5568 LANDON ST SE, SALEM, OR, 97306","Match","Exact","5568 LANDON ST SE, SALEM, OR, 97306",613679434,"L"
727284,"5568 RUSSELL ROAD","MARION","NY",14505,43.202803886,-77.161655874,284,"5568 RUSSELL ROAD, MARION, NY, 14505","Match","Exact","5568 RUSSELL RD, MARION, NY, 14505",14910917,"R"
727285,"5568 STATE RD FF","EDWARDS","MO",65326,38.2392595050001,-93.069073068,285,"5568 STATE RD FF, EDWARDS, MO, 65326","Match","Exact","5568 STATE RD FF, EDWARDS, MO, 65326",639940625,"L"
727286,"55680 CALIFORNIA RD","DOWAGIAC","MI",49047,41.9902537520001,-86.155743373,286,"55680 CALIFORNIA RD, DOWAGIAC, MI, 49047","Match","Exact","55680 CALIFORNIA RD, DOWAGIAC, MI, 49047",22573507,"R"
727287,"5569 16 ST N","ARLINGTON","VA",22205,38.8867872050001,-77.134430661,287,"5569 16 ST N, ARLINGTON, VA, 22205","Match","Exact","5569 16TH ST N, ARLINGTON, VA, 22205",76467167,"R"
727288,"5569 CR 1540","ADA","OK",74820,34.7822166880001,-96.853989294,288,"5569 CR 1540, ADA, OK, 74820","Match","Exact","5569 CO RD 1540, ADA, OK, 74820",606916278,"R"
727289,"5569 DUNSBURRY COURT","SAN JOSE","CA",95123,37.2524669370001,-121.849156269,289,"5569 DUNSBURRY COURT, SAN JOSE, CA, 95123","Match","Exact","5569 DUNSBURRY CT, SAN JOSE, CA, 95123",122923635,"R"
727290,"5569 GLEN OAKS POINT","WEST DES MOINES","IA",50266,NA,NA,290,"5569 GLEN OAKS POINT, WEST DES MOINES, IA, 50266","No_Match",NA,NA,NA,NA
727291,"5569 N CLEO","FRESNO","CA",93722,36.8182912350001,-119.88225983,291,"5569 N CLEO, FRESNO, CA, 93722","Match","Non_Exact","5569 N CLEO AVE, FRESNO, CA, 93722",625007767,"L"
727292,"5569 OAKWOOD DRIVE","STONE MOUNTAIN","GA",30087,33.8468915710001,-84.1644417049999,292,"5569 OAKWOOD DRIVE, STONE MOUNTAIN, GA, 30087","Match","Exact","5569 OAKWOOD DR, STONE MOUNTAIN, GA, 30087",23384568,"R"
727293,"5569 PARK SIDE ROAD","HOOVER","AL",35244,33.348325038,-86.8938303209999,293,"5569 PARK SIDE ROAD, HOOVER, AL, 35244","Match","Exact","5569 PARK SIDE RD, HOOVER, AL, 35244",653337301,"R"
727294,"5569 POWDER DRIVE","WEST BLOOMFIELD","MI",48322,NA,NA,294,"5569 POWDER DRIVE, WEST BLOOMFIELD, MI, 48322","No_Match",NA,NA,NA,NA
727295,"5569 POWDER HORN DR","WEST BLOOMFIELD","MI",48322,42.5567282980001,-83.3477123329999,295,"5569 POWDER HORN DR, WEST BLOOMFIELD, MI, 48322","Match","Exact","5569 POWDER HORN DR, W BLOOMFIELD, MI, 48322",69726183,"L"
727296,"5569 POWDERHORN DR","WEST BLOOMFIELD","MI",48322,42.5567282980001,-83.3477123329999,296,"5569 POWDERHORN DR, WEST BLOOMFIELD, MI, 48322","Match","Non_Exact","5569 POWDER HORN DR, W BLOOMFIELD, MI, 48322",69726183,"L"
727297,"5569 RICKOVER STREET","BATON ROUGE","LA",70811,30.5557761530001,-91.136836833,297,"5569 RICKOVER STREET, BATON ROUGE, LA, 70811","Match","Exact","5569 RICKOVER ST, BATON ROUGE, LA, 70811",92186302,"L"
727298,"5569 SIESTA ESTATES CT","SARASOTA","FL",34242,27.2691612560001,-82.546776999,298,"5569 SIESTA ESTATES CT, SARASOTA, FL, 34242","Match","Exact","5569 SIESTA ESTATES CT, SARASOTA, FL, 34242",16349000,"R"
727299,"5569 SIMM COURT","FREMONT","CA",94538,37.5158374980001,-121.976373765,299,"5569 SIMM COURT, FREMONT, CA, 94538","Match","Exact","5569 SIMM CT, FREMONT, CA, 94538",125031063,"R"
727300,"5569 SW 113 AVENUE","COOPER CITY","FL",33330,26.0517935670001,-80.298861389,300,"5569 SW 113 AVENUE, COOPER CITY, FL, 33330","Match","Exact","5569 SW 113TH AVE, COOPER CITY, FL, 33330",114760351,"R"
727301,"5569 SW MUSTANG ROAD","TERREBONNE","OR",97760,44.413643171,-121.239866496,301,"5569 SW MUSTANG ROAD, TERREBONNE, OR, 97760","Match","Exact","5569 SW MUSTANG RD, TERREBONNE, OR, 97760",153245823,"R"
727302,"5569 TEMPLAR STREET","COLUMBUS","OH",43232,39.9140978460001,-82.8454759379999,302,"5569 TEMPLAR STREET, COLUMBUS, OH, 43232","Match","Exact","5569 TEMPLAR ST, COLUMBUS, OH, 43232",218558471,"R"
727303,"5569 VENUS LANE","FAIRFIELD","OH",45014,39.3240204840001,-84.529035419,303,"5569 VENUS LANE, FAIRFIELD, OH, 45014","Match","Exact","5569 VENUS LN, FAIRFIELD, OH, 45014",113807261,"R"
727304,"55690 JEFFERSON KNOLLS DR","OSCEOLA","IN",46561,41.68537831,-86.066816127,304,"55690 JEFFERSON KNOLLS DR, OSCEOLA, IN, 46561","Match","Exact","55690 JEFFERSON KNOLLS DR, OSCEOLA, IN, 46561",8071785,"R"
727305,"556B POIPU DRIVE","HONOLULU","HI",96825,21.275427515,-157.706715666,305,"556B POIPU DRIVE, HONOLULU, HI, 96825","Match","Exact","556 POIPU DR, HONOLULU, HI, 96825",203244142,"L"
727306,"557 12TH COURT","PLEASANT GROVE","AL",35127,33.4944167030001,-86.992343326,306,"557 12TH COURT, PLEASANT GROVE, AL, 35127","Match","Exact","557 12TH CT, PLEASANT GROVE, AL, 35127",81544703,"R"
727307,"557 1ST STREET","RANDOM LAKE","WI",53075,43.550071438,-87.965759966,307,"557 1ST STREET, RANDOM LAKE, WI, 53075","Match","Exact","557 1ST ST, RANDOM LAKE, WI, 53075",79499090,"L"
727308,"557 2ND STREET","HOBOKEN","NJ",7030,40.740184829,-74.03896266,308,"557 2ND STREET, HOBOKEN, NJ, 7030","Match","Exact","557 2ND ST, HOBOKEN, NJ, 07030",59605548,"L"
727309,"557 3RD STREET APARTMENT 3","BROOKLYN","NY",11215,40.6696612320001,-73.976780956,309,"557 3RD STREET APARTMENT 3, BROOKLYN, NY, 11215","Match","Exact","557 3RD ST, BROOKLYN, NY, 11215",59078159,"L"
727310,"557 57TH STREET","BROOKLYN","NY",11220,40.6404451940001,-74.0131577189999,310,"557 57TH STREET, BROOKLYN, NY, 11220","Match","Exact","557 57TH ST, BROOKLYN, NY, 11220",59094433,"L"
727311,"557 67TH ST","SPRINGFIELD","IL",97478,NA,NA,311,"557 67TH ST, SPRINGFIELD, IL, 97478","No_Match",NA,NA,NA,NA
727312,"557 ARROYO SECO DR","SAN DIEGO","CA",92114,32.700657818,-117.053274607,312,"557 ARROYO SECO DR, SAN DIEGO, CA, 92114","Match","Exact","557 ARROYO SECO DR, SAN DIEGO, CA, 92114",195353386,"L"
727313,"557 ATLANTIC AVE APT 2 B","BROOKLYN","NY",11217,40.6848649680001,-73.979513727,313,"557 ATLANTIC AVE APT 2 B, BROOKLYN, NY, 11217","Match","Exact","557 ATLANTIC AVE, BROOKLYN, NY, 11217",59077566,"L"
727314,"557 AVENUE Z SUITE 2A","BROOKLYN","NY",11223,40.5859164760001,-73.973025117,314,"557 AVENUE Z SUITE 2A, BROOKLYN, NY, 11223","Match","Exact","557 AVE Z, BROOKLYN, NY, 11223",59090851,"L"
727315,"557 BAILY ROAD","YEADON","PA",19050,39.9347027060001,-75.2573915999999,315,"557 BAILY ROAD, YEADON, PA, 19050","Match","Exact","557 BAILY RD, YEADON, PA, 19050",134886325,"L"
727316,"557 BARTON FERRY ROAD","WEST POINT","MS",39783,33.6135140150001,-88.5968352199999,316,"557 BARTON FERRY ROAD, WEST POINT, MS, 39783","Match","Non_Exact","557 BARTON FERRY RD, WEST POINT, MS, 39773",612843227,"L"
727317,"557 BASTANCHURY","HENDERSON","NV",89011,36.058980477,-114.996325373,317,"557 BASTANCHURY, HENDERSON, NV, 89011","Match","Non_Exact","557 BASTANCHURY AVE, HENDERSON, NV, 89011",201880440,"L"
727318,"557 BELLVIEW CIRCLE","MONCKS CORNER","SC",29461,33.228404524,-79.994175142,318,"557 BELLVIEW CIRCLE, MONCKS CORNER, SC, 29461","Match","Exact","557 BELLVIEW CIR, MONCKS CORNER, SC, 29461",652418386,"L"
727319,"557 BROAD ST","FAIRBORN","OH",45324,39.82999915,-84.023484848,319,"557 BROAD ST, FAIRBORN, OH, 45324","Match","Non_Exact","557 N BROAD ST, FAIRBORN, OH, 45324",143418657,"L"
727320,"557 BROADWAY APT 19D","BROOKLYN","NY",11206,40.7047368180001,-73.948953564,320,"557 BROADWAY APT 19D, BROOKLYN, NY, 11206","Match","Exact","557 BROADWAY, BROOKLYN, NY, 11206",59102956,"L"
727321,"557 BROCKHAM DRIVE","JACKSONVILLE","FL",32221,30.3083196360001,-81.8214820219999,321,"557 BROCKHAM DRIVE, JACKSONVILLE, FL, 32221","Match","Exact","557 BROCKHAM DR, JACKSONVILLE, FL, 32221",83956121,"L"
727322,"557 BRYCE","WHITE ROCK","NM",87547,35.8226438300001,-106.192685473,322,"557 BRYCE, WHITE ROCK, NM, 87547","Match","Non_Exact","557 BRYCE AVE, WHITE ROCK, NM, 87547",143756092,"L"
727323,"557 BURR OAK COURT","VACAVILLE","CA",95688,38.3944319920001,-121.982705303,323,"557 BURR OAK COURT, VACAVILLE, CA, 95688","Match","Exact","557 BURR OAK CT, VACAVILLE, CA, 95688",192583660,"L"
727324,"557 CALIBRE CREST PARKWAY APT 205","ALTAMONTE SPRINGS","FL",32714,NA,NA,324,"557 CALIBRE CREST PARKWAY APT 205, ALTAMONTE SPRINGS, FL, 32714","No_Match",NA,NA,NA,NA
727325,"557 CAPRI RD","COCOA BEACH","FL",32931,28.3282991030001,-80.615431854,325,"557 CAPRI RD, COCOA BEACH, FL, 32931","Match","Exact","557 CAPRI RD, COCOA BEACH, FL, 32931",93899168,"R"
727326,"557 CARROLL ST SUITE 2","BROOKLYN","NY",11215,40.675890828,-73.983215807,326,"557 CARROLL ST SUITE 2, BROOKLYN, NY, 11215","Match","Exact","557 CARROLL ST, BROOKLYN, NY, 11215",59075675,"L"
727327,"557 CHESTERFIELD RD","OAKDALE","CT",6370,41.446626252,-72.198716802,327,"557 CHESTERFIELD RD, OAKDALE, CT, 6370","Match","Exact","557 CHESTERFIELD RD, OAKDALE, CT, 06370",56838535,"R"
727328,"557 CHESTERFIELD ROAD","OAKDALE","CT",6370,41.446626252,-72.198716802,328,"557 CHESTERFIELD ROAD, OAKDALE, CT, 6370","Match","Exact","557 CHESTERFIELD RD, OAKDALE, CT, 06370",56838535,"R"
727329,"557 CLIFFSIDE DRIVE","AKRON","OH",44313,41.124627924,-81.5669128389999,329,"557 CLIFFSIDE DRIVE, AKRON, OH, 44313","Match","Exact","557 CLIFFSIDE DR, AKRON, OH, 44313",61337622,"R"
727330,"557 CLOVER","EDWARDSVILLE","IL",62025,38.9118206220001,-89.929233531,330,"557 CLOVER, EDWARDSVILLE, IL, 62025","Match","Non_Exact","557 CLOVER DR, EDWARDSVILLE, IL, 62025",107709408,"L"
727331,"557 CONSTITUTION AVE","EVERETT","MA",2149,NA,NA,331,"557 CONSTITUTION AVE, EVERETT, MA, 2149","No_Match",NA,NA,NA,NA
727332,"557 COUNTY ROAD 20","SARCOXIE","MO",64862,37.0603772920001,-94.094933773,332,"557 COUNTY ROAD 20, SARCOXIE, MO, 64862","Match","Exact","557 CO RD 20, SARCOXIE, MO, 64862",66168467,"L"
727333,"557 CR 371","WATER VALLEY","MS",38965,34.2412311680001,-89.554912668,333,"557 CR 371, WATER VALLEY, MS, 38965","Match","Exact","557 CO RD 371, WATER VALLEY, MS, 38965",619444631,"L"
727334,"557 DOGWOOD CREEK PL","FUQUAY VARINA","NC",27526,35.6101901390001,-78.7934905509999,334,"557 DOGWOOD CREEK PL, FUQUAY VARINA, NC, 27526","Match","Exact","557 DOGWOOD CREEK PL, FUQUAY VARINA, NC, 27526",634096611,"R"
727335,"557 DOVE TERRACE WEST","OLDSMAR","FL",34677,28.0425835020001,-82.699300512,335,"557 DOVE TERRACE WEST, OLDSMAR, FL, 34677","Match","Non_Exact","557 DOVE TER, OLDSMAR, FL, 34677",624535944,"R"
727336,"557 DUNDEE RD","PORT TREVERTON","PA",17864,NA,NA,336,"557 DUNDEE RD, PORT TREVERTON, PA, 17864","No_Match",NA,NA,NA,NA
727337,"557 E ARBOR CIRCLE","OAK CREEK","WI",53154,42.8794828430001,-87.904665536,337,"557 E ARBOR CIRCLE, OAK CREEK, WI, 53154","Match","Exact","557 E ARBOR CIR, OAK CREEK, WI, 53154",648111683,"R"
727338,"557 E AVE","CORONADO","CA",92118,32.693416932,-117.178301728,338,"557 E AVE, CORONADO, CA, 92118","Match","Exact","557 E AVE, CORONADO, CA, 92118",195344051,"L"
727339,"557 E MESQUITE BLVD","MESQUITE","NV",89027,36.804170248,-114.058879464,339,"557 E MESQUITE BLVD, MESQUITE, NV, 89027","Match","Exact","557 E MESQUITE BLVD, MESQUITE, NV, 89027",201919692,"L"
727340,"557 E NIKOS WAY","NOGALES","AZ",85621,NA,NA,340,"557 E NIKOS WAY, NOGALES, AZ, 85621","No_Match",NA,NA,NA,NA
727341,"557 E TUJUNGA AVE UNIT B","BURBANK","CA",91501,34.183550945,-118.302317582,341,"557 E TUJUNGA AVE UNIT B, BURBANK, CA, 91501","Match","Non_Exact","557 E TUJUNGA AVE, BURBANK, CA, 91501",141595457,"L"
727342,"557 EAST ABINGTON WAY","SPARTANBURG","SC",29301,34.940326488,-82.009585264,342,"557 EAST ABINGTON WAY, SPARTANBURG, SC, 29301","Match","Exact","557 E ABINGTON WAY, SPARTANBURG, SC, 29301",630196563,"L"
727343,"557 EAST BAY STREET PO BOX 22572","CHARLESTON","SC",29413,32.7922128920001,-79.931219896,343,"557 EAST BAY STREET PO BOX 22572, CHARLESTON, SC, 29413","Match","Non_Exact","557 E BAY ST, CHARLESTON, SC, 29403",108850096,"L"
727344,"557 EMMERSON CIRCLE","BOLINGBROOK","ID",60440,NA,NA,344,"557 EMMERSON CIRCLE, BOLINGBROOK, ID, 60440","No_Match",NA,NA,NA,NA
727345,"557 EVERGREEN ROAD","LOUISVILLE","MS",39339,33.1635809530001,-88.9936063919999,345,"557 EVERGREEN ROAD, LOUISVILLE, MS, 39339","Match","Exact","557 EVERGREEN RD, LOUISVILLE, MS, 39339",608051262,"L"
727346,"557 FAIRVIEW","MEDFORD","NJ",8055,39.85411886,-74.834528959,346,"557 FAIRVIEW, MEDFORD, NJ, 8055","Match","Non_Exact","557 FAIRVIEW RD, MEDFORD, NJ, 08055",134038879,"R"
727347,"557 FARMINGTON CIRCLE","EVANS","GA",30809,33.521624682,-82.172329267,347,"557 FARMINGTON CIRCLE, EVANS, GA, 30809","Match","Exact","557 FARMINGTON CIR, EVANS, GA, 30809",612734062,"L"
727348,"557 FLORENCE STREET","AURORA","CO",80010,39.724548655,-104.871624594,348,"557 FLORENCE STREET, AURORA, CO, 80010","Match","Exact","557 FLORENCE ST, AURORA, CO, 80010",177342856,"L"
727349,"557 FOUR OAKS LANE","EL DORADO","AR",71730,33.1815656200001,-92.580882618,349,"557 FOUR OAKS LANE, EL DORADO, AR, 71730","Match","Exact","557 FOUR OAKS LN, EL DORADO, AR, 71730",28173222,"R"
727350,"557 GILLESPIE DRIVE","ALLEN","TX",75002,33.075006645,-96.6722944909999,350,"557 GILLESPIE DRIVE, ALLEN, TX, 75002","Match","Exact","557 GILLESPIE DR, ALLEN, TX, 75002",210523522,"L"
727351,"557 GRAND CONCOURSE 4062","BRONX","NY",10451,40.819078672,-73.927074472,351,"557 GRAND CONCOURSE 4062, BRONX, NY, 10451","Match","Exact","557 GRAND CONCOURSE, BRONX, NY, 10451",80300096,"L"
727352,"557 GROUSE AVE","ALDEN","IA",50006,42.619184477,-93.380710132,352,"557 GROUSE AVE, ALDEN, IA, 50006","Match","Exact","557 GROUSE AVE, ALDEN, IA, 50006",635807234,"R"
727353,"557 HAMBRICK SQUARE","STONE MOUNTAIN","GA",30083,33.7918603050001,-84.212820114,353,"557 HAMBRICK SQUARE, STONE MOUNTAIN, GA, 30083","Match","Exact","557 HAMBRICK SQ, STONE MOUNTAIN, GA, 30083",23391000,"R"
727354,"557 HAMPTON GROVE","ALLENDALE","SC",29810,33.0106859910001,-81.3179120349999,354,"557 HAMPTON GROVE, ALLENDALE, SC, 29810","Match","Exact","557 HAMPTON GROVE, ALLENDALE, SC, 29810",19040803,"R"
727355,"557 HANCOCK ST APT 4","QUINCY","MA",2170,42.270217501,-71.020290914,355,"557 HANCOCK ST APT 4, QUINCY, MA, 2170","Match","Exact","557 HANCOCK ST, QUINCY, MA, 02170",87248730,"R"
727356,"557 HIGHWATER ROAD","DAYTON","TN",37321,35.5477444470001,-84.976444196,356,"557 HIGHWATER ROAD, DAYTON, TN, 37321","Match","Exact","557 HIGHWATER RD, DAYTON, TN, 37321",653614295,"L"
727357,"557 HOLMESVILLE HILL ROAD","SOUTH NEW BERLIN","NY",13843,42.5132431270001,-75.402833669,357,"557 HOLMESVILLE HILL ROAD, SOUTH NEW BERLIN, NY, 13843","Match","Exact","557 HOLMESVILLE HILL RD, S NEW BERLIN, NY, 13843",46423310,"R"
727358,"557 INSIESIDE DR","BATON ROUGE","LA",70806,NA,NA,358,"557 INSIESIDE DR, BATON ROUGE, LA, 70806","No_Match",NA,NA,NA,NA
727359,"557 JOHNSON ROAD","DUNN","NC",27521,35.4333291790001,-78.636128915,359,"557 JOHNSON ROAD, DUNN, NC, 27521","Match","Non_Exact","557 JOHNSON RD, COATS, NC, 27521",71958505,"L"
727360,"557 JUMPING JACK LANE","LAKE CHARLES","TX",70615,NA,NA,360,"557 JUMPING JACK LANE, LAKE CHARLES, TX, 70615","No_Match",NA,NA,NA,NA
727361,"557 KINSELLA DRIVE","EDGEWOOD","KY",41017,39.0033964510001,-84.554420823,361,"557 KINSELLA DRIVE, EDGEWOOD, KY, 41017","Match","Exact","557 KINSELLA DR, EDGEWOOD, KY, 41017",103883015,"L"
727362,"557 KORU STREET","SOUTH LAKE TAHOE","CA",96150,38.862909981,-120.040753499,362,"557 KORU STREET, SOUTH LAKE TAHOE, CA, 96150","Match","Exact","557 KORU ST, SOUTH LAKE TAHOE, CA, 96150",133022592,"R"
727363,"557 LAKE PARK DRIVE","VALPARAISO","IN",46385,41.5160142710001,-87.122721258,363,"557 LAKE PARK DRIVE, VALPARAISO, IN, 46385","Match","Exact","557 LAKE PARK DR, VALPARAISO, IN, 46385",119923936,"L"
727364,"557 LESTER ST","MEMPHIS","TN",38112,35.148390116,-89.965240055,364,"557 LESTER ST, MEMPHIS, TN, 38112","Match","Exact","557 LESTER ST, MEMPHIS, TN, 38112",72913256,"L"
727365,"557 LINCOLN AVE","LINDENHURST","NY",11757,40.6802876240001,-73.363048603,365,"557 LINCOLN AVE, LINDENHURST, NY, 11757","Match","Exact","557 LINCOLN AVE, LINDENHURST, NY, 11757",635432346,"R"
727366,"557 LOCHLYN HILL DR","CHARLOTTESVILLE","VA",22901,38.0484074570001,-78.4601719079999,366,"557 LOCHLYN HILL DR, CHARLOTTESVILLE, VA, 22901","Match","Exact","557 LOCHLYN HILL DR, CHARLOTTESVILLE, VA, 22901",651909608,"L"
727367,"557 LOGAN AVE","PALISADE","CO",81526,39.1078629360001,-108.357885732,367,"557 LOGAN AVE, PALISADE, CO, 81526","Match","Exact","557 LOGAN AVE, PALISADE, CO, 81526",122428463,"L"
727368,"557 LUTHER DRIVE","IRON STATION","NC",28080,35.457656006,-81.085014744,368,"557 LUTHER DRIVE, IRON STATION, NC, 28080","Match","Exact","557 LUTHER DR, IRON STATION, NC, 28080",645500422,"R"
727369,"557 MAIN STREET","ROANOKE","AL",36274,33.150583517,-85.366054336,369,"557 MAIN STREET, ROANOKE, AL, 36274","Match","Exact","557 MAIN ST, ROANOKE, AL, 36274",1633951,"L"
727370,"557 MARLA DRIVE","AMERICAN CANYON","CA",94503,38.155712092,-122.263073345,370,"557 MARLA DRIVE, AMERICAN CANYON, CA, 94503","Match","Exact","557 MARLA DR, AMERICAN CANYON, CA, 94503",67429838,"L"
727371,"557 MARTIN ROAD","LACKAWANNA","NY",14218,42.816566187,-78.8030834799999,371,"557 MARTIN ROAD, LACKAWANNA, NY, 14218","Match","Exact","557 MARTIN RD, LACKAWANNA, NY, 14218",48303462,"R"
727372,"557 MCINTYRE LANE","MAUMEE","OH",43537,41.5865828330001,-83.652485277,372,"557 MCINTYRE LANE, MAUMEE, OH, 43537","Match","Exact","557 MCINTYRE LN, MAUMEE, OH, 43537",33936054,"L"
727373,"557 MILTON ST UNIT F","CINCINNATI","OH",45202,39.1131156760001,-84.504731701,373,"557 MILTON ST UNIT F, CINCINNATI, OH, 45202","Match","Exact","557 MILTON ST, CINCINNATI, OH, 45202",103936228,"R"
727374,"557 MILWAUKEE STREET","DENVER","CO",80206,39.7249557820001,-104.952217547,374,"557 MILWAUKEE STREET, DENVER, CO, 80206","Match","Exact","557 MILWAUKEE ST, DENVER, CO, 80206",177338276,"L"
727375,"557 MOOSE TROT AVENUE","FAIRBANKS","AK",99712,64.8843828940001,-147.477670181,375,"557 MOOSE TROT AVENUE, FAIRBANKS, AK, 99712","Match","Exact","557 MOOSE TROT AVE, FAIRBANKS, AK, 99712",190914067,"R"
727376,"557 MYSTIC LANE","LAGUNA BEACH","CA",92651,33.544496026,-117.776751859,376,"557 MYSTIC LANE, LAGUNA BEACH, CA, 92651","Match","Exact","557 MYSTIC LN, LAGUNA BEACH, CA, 92651",144068505,"L"
727377,"557 N 94TH PL","MESA","AZ",85207,33.4262292390001,-111.628110812,377,"557 N 94TH PL, MESA, AZ, 85207","Match","Exact","557 N 94TH PL, MESA, AZ, 85207",128786762,"L"
727378,"557 N BIRDSEY ST","COLUMBUS","WI",53925,43.344509046,-89.014754397,378,"557 N BIRDSEY ST, COLUMBUS, WI, 53925","Match","Exact","557 N BIRDSEY ST, COLUMBUS, WI, 53925",73327235,"L"
727379,"557 N SCOTT ST","JOLIET","IL",60432,41.53452163,-88.080379616,379,"557 N SCOTT ST, JOLIET, IL, 60432","Match","Exact","557 N SCOTT ST, JOLIET, IL, 60432",111541551,"L"
727380,"557 N SCOTT ST","JOLIET",NA,NA,41.53451669,-88.080379391,380,"557 N SCOTT ST, JOLIET, , ","Match","Exact","557 N SCOTT ST, JOLIET, IL, 60432",111541551,"L"
727381,"557 N SCOTT","JOLIET","IL",60432,41.53452163,-88.080379616,381,"557 N SCOTT, JOLIET, IL, 60432","Match","Non_Exact","557 N SCOTT ST, JOLIET, IL, 60432",111541551,"L"
727382,"557 N WYMORE ROAD SUITE 100","MAITLAND","FL",32751,28.6390251290001,-81.386221071,382,"557 N WYMORE ROAD SUITE 100, MAITLAND, FL, 32751","Match","Exact","557 WYMORE RD, MAITLAND, FL, 32751",94367584,"L"
727383,"557 NEVILLE ST","PERTH AMBOY","NJ",8861,40.5208428610001,-74.283111621,383,"557 NEVILLE ST, PERTH AMBOY, NJ, 8861","Match","Exact","557 NEVILLE ST, PERTH AMBOY, NJ, 08861",60280675,"L"
727384,"557 NORTH 2ND STREET","GRIFFIN","GA",30223,33.255534835,-84.2530746689999,384,"557 NORTH 2ND STREET, GRIFFIN, GA, 30223","Match","Exact","557 N 2ND ST, GRIFFIN, GA, 30223",23768490,"L"
727385,"557 OAK ISLAND CIRCLE","PLANT CITY","FL",33565,28.052618152,-82.1214965469999,385,"557 OAK ISLAND CIRCLE, PLANT CITY, FL, 33565","Match","Exact","557 OAK ISLAND CIR, PLANT CITY, FL, 33565",104586848,"L"
727386,"557 OLD STAGE ROAD","GLEN BURNIE","MD",21061,39.1427041760001,-76.634132124,386,"557 OLD STAGE ROAD, GLEN BURNIE, MD, 21061","Match","Exact","557 OLD STAGE RD, GLEN BURNIE, MD, 21061",68184633,"L"
727387,"557 OLD STEINE CIRCLE","NEW BRIGHTON","MN",55112,45.064502701,-93.194126071,387,"557 OLD STEINE CIRCLE, NEW BRIGHTON, MN, 55112","Match","Exact","557 OLD STEINE CIR, NEW BRIGHTON, MN, 55112",97667153,"R"
727388,"557 PARK STREET","STOUGHTON","MA",2072,42.118579117,-71.084976781,388,"557 PARK STREET, STOUGHTON, MA, 2072","Match","Exact","557 PARK ST, STOUGHTON, MA, 02072",87267745,"R"
727389,"557 PAULINE DR","BONNEAU","SC",29431,33.3277488740001,-79.99093024,389,"557 PAULINE DR, BONNEAU, SC, 29431","Match","Exact","557 PAULINE DR, BONNEAU, SC, 29431",100770900,"R"
727390,"557 PELICAN BAY DR","DAYTONA BEACH","FL",32119,29.153951734,-81.045575491,390,"557 PELICAN BAY DR, DAYTONA BEACH, FL, 32119","Match","Exact","557 PELICAN BAY DR, DAYTONA BEACH, FL, 32119",653192366,"L"
727391,"557 PELICAN BAY DRIVE","DAYTONA BEACH","FL",32119,29.153951734,-81.045575491,391,"557 PELICAN BAY DRIVE, DAYTONA BEACH, FL, 32119","Match","Exact","557 PELICAN BAY DR, DAYTONA BEACH, FL, 32119",653192366,"L"
727392,"557 PIONEER DRIVE","ST. PETERS","MO",63376,38.788952395,-90.634933501,392,"557 PIONEER DRIVE, ST. PETERS, MO, 63376","Match","Exact","557 PIONEER DR, SAINT PETERS, MO, 63376",605559198,"R"
727393,"557 POPLAR RIDGE DR","MERIDIAN","MS",39305,NA,NA,393,"557 POPLAR RIDGE DR, MERIDIAN, MS, 39305","No_Match",NA,NA,NA,NA
727394,"557 PRATT RD","RED OAK","TX",75154,32.5144414100001,-96.7540984509999,394,"557 PRATT RD, RED OAK, TX, 75154","Match","Exact","557 PRATT RD, RED OAK, TX, 75154",640569349,"L"
727395,"557 RHODESTOWN RD","JACKSONVILLE","NC",28540,34.834520191,-77.5124226629999,395,"557 RHODESTOWN RD, JACKSONVILLE, NC, 28540","Match","Exact","557 RHODESTOWN RD, JACKSONVILLE, NC, 28540",620026210,"R"
727396,"557 RICE DR","AUBURN","GA",30011,34.051106304,-83.8340764169999,396,"557 RICE DR, AUBURN, GA, 30011","Match","Exact","557 RICE DR, AUBURN, GA, 30011",77572948,"R"
727397,"557 RYDER RD","CORINTH","VT",5039,44.0122878450001,-72.362532057,397,"557 RYDER RD, CORINTH, VT, 5039","Match","Exact","557 RYDER RD, CORINTH, VT, 05039",181142456,"L"
727398,"557 S 150 E","BURLEY","ID",83318,42.4525829030001,-113.763972935,398,"557 S 150 E, BURLEY, ID, 83318","Match","Exact","557 S 150 E, BURLEY, ID, 83318",105309345,"R"
727399,"557 S ELIZABETH","LOMBARD","IL",60148,41.876091106,-88.023977928,399,"557 S ELIZABETH, LOMBARD, IL, 60148","Match","Non_Exact","557 S ELIZABETH ST, LOMBARD, IL, 60148",112579799,"L"
727400,"557 S ORANGE STREET","MEDIA","PA",19063,39.9114224350001,-75.395522204,400,"557 S ORANGE STREET, MEDIA, PA, 19063","Match","Exact","557 S ORANGE ST, MEDIA, PA, 19063",134870061,"L"
727401,"557 SADDLE RIDGE RD","WOODMERE","NY",11598,40.6417896500001,-73.715926096,401,"557 SADDLE RIDGE RD, WOODMERE, NY, 11598","Match","Exact","557 SADDLE RIDGE RD, WOODMERE, NY, 11598",147677192,"L"
727402,"557 SCENIC DR","TWO HARBORS","MN",55616,46.9786241620001,-91.746468824,402,"557 SCENIC DR, TWO HARBORS, MN, 55616","Match","Exact","557 SCENIC DR, TWO HARBORS, MN, 55616",194220467,"R"
727403,"557 SE APRIL LN","LAKE CITY","FL",32025,30.0914035690001,-82.586043723,403,"557 SE APRIL LN, LAKE CITY, FL, 32025","Match","Exact","557 SE APRIL LN, LAKE CITY, FL, 32025",5141559,"R"
727404,"557 SEVEN LAKES NORTH","WEST END","NC",27376,NA,NA,404,"557 SEVEN LAKES NORTH, WEST END, NC, 27376","No_Match",NA,NA,NA,NA
727405,"557 SOUTHERN VIEW DR","SMYRNA","DE",19977,39.276874891,-75.6217372469999,405,"557 SOUTHERN VIEW DR, SMYRNA, DE, 19977","Match","Exact","557 SOUTHERN VIEW DR, SMYRNA, DE, 19977",617126078,"L"
727406,"557 STRATHCLYDE WAY","ROCK HILL","SC",29730,34.9287206650001,-81.0602779709999,406,"557 STRATHCLYDE WAY, ROCK HILL, SC, 29730","Match","Exact","557 STRATHCLYDE WAY, ROCK HILL, SC, 29730",19818743,"L"
727407,"557 TRAMWAY BLVD NE","ALBUQUERQUE","NM",87123,35.076913065,-106.497258331,407,"557 TRAMWAY BLVD NE, ALBUQUERQUE, NM, 87123","Match","Exact","557 TRAMWAY BLVD NE, ALBUQUERQUE, NM, 87123",653360214,"R"
727408,"557 TREASURE LANE","STARKVILLE","MS",39759,33.5030340430001,-88.808124105,408,"557 TREASURE LANE, STARKVILLE, MS, 39759","Match","Exact","557 TREASURE LN, STARKVILLE, MS, 39759",607230817,"R"
727409,"557 VALLEY ROAD","SOMERVILLE","ME",4348,44.2339998570001,-69.444034066,409,"557 VALLEY ROAD, SOMERVILLE, ME, 4348","Match","Exact","557 VALLEY RD, SOMERVILLE, ME, 04348",624260457,"R"
727410,"557 W 150TH STREET APT 25","NEW YORK","NY",10031,40.829091856,-73.946910475,410,"557 W 150TH STREET APT 25, NEW YORK, NY, 10031","Match","Non_Exact","557 W 150TH ST, NEW YORK, NY, 10031",59655932,"R"
727411,"557 W ALAMO CT WAY","MUSTANG","OK",73064,35.3939791,-97.73552591,411,"557 W ALAMO CT WAY, MUSTANG, OK, 73064","Match","Exact","557 W ALAMO CT WAY, MUSTANG, OK, 73064",614099421,"L"
727412,"557 W CULLERTON STREET","CHICAGO","IL",60616,41.855679292,-87.640907483,412,"557 W CULLERTON STREET, CHICAGO, IL, 60616","Match","Exact","557 W CULLERTON ST, CHICAGO, IL, 60616",605101766,"L"
727413,"557 WEST 187TH ST 3","NEW YORK","NY",10033,40.8526827310001,-73.9300724569999,413,"557 WEST 187TH ST 3, NEW YORK, NY, 10033","Match","Exact","557 W 187TH ST, NEW YORK, NY, 10033",59659061,"R"
727414,"557 WEST 27TH PLACE","EUGENE","OR",97405,44.028147603,-123.100692125,414,"557 WEST 27TH PLACE, EUGENE, OR, 97405","Match","Exact","557 W 27TH PL, EUGENE, OR, 97405",178168802,"R"
727415,"557 WEST 3750 NORTH","PLEASANT VIEW","UT",84414,41.3247318460001,-111.989616743,415,"557 WEST 3750 NORTH, PLEASANT VIEW, UT, 84414","Match","Exact","557 W 3750 N, PLEASANT VIEW, UT, 84414",155710638,"L"
727416,"557 WILLIAMS ST","CONNEAUT","OH",44030,41.950456816,-80.574435477,416,"557 WILLIAMS ST, CONNEAUT, OH, 44030","Match","Exact","557 WILLIAMS ST, CONNEAUT, OH, 44030",117309971,"L"
727417,"557 WINDERMERE DR","CULPEPPER","VA",22071,38.479192117,-78.022363796,417,"557 WINDERMERE DR, CULPEPPER, VA, 22071","Match","Non_Exact","557 WINDERMERE DR, CULPEPER, VA, 22701",225080784,"L"
727418,"557 WINDSWEPT BLVD","FREEPORT","FL",32439,30.4850580470001,-86.0324489069999,418,"557 WINDSWEPT BLVD, FREEPORT, FL, 32439","Match","Exact","557 WINDSWEPT BLVD, FREEPORT, FL, 32439",32986760,"L"
727419,"557 WINSTON","GRAND PRAIRIE","TX",75052,32.6688365420001,-96.999934114,419,"557 WINSTON, GRAND PRAIRIE, TX, 75052","Match","Non_Exact","557 WINSTON ST, GRAND PRAIRIE, TX, 75052",102981360,"R"
727420,"557","GLEN BURNIE","MD",21061,NA,NA,420,"557, GLEN BURNIE, MD, 21061","No_Match",NA,NA,NA,NA
727421,"557","ORANGE","NJ",7050,NA,NA,421,"557, ORANGE, NJ, 7050","No_Match",NA,NA,NA,NA
727422,"5570 BANTRY LANE","FITCHBURG","WI",53711,43.0195656500001,-89.4296438969999,422,"5570 BANTRY LANE, FITCHBURG, WI, 53711","Match","Exact","5570 BANTRY LN, FITCHBURG, WI, 53711",49500726,"L"
727423,"5570 BROOKDALE RD","BLOOMFIELD HILLS","MI",48304,42.5596983560001,-83.217287879,423,"5570 BROOKDALE RD, BLOOMFIELD HILLS, MI, 48304","Match","Exact","5570 BROOKDALE RD, BLOOMFIELD HILLS, MI, 48304",69733934,"R"
727424,"5570 CAMINO DORADO","YORBA LINDA","CA",92887,33.877763911,-117.728306797,424,"5570 CAMINO DORADO, YORBA LINDA, CA, 92887","Match","Non_Exact","5570 CAMINO VIS, YORBA LINDA, CA, 92887",144126671,"R"
727425,"5570 CEDARHAVEN DR","AGOURA HILLS","CA",91301,34.153542697,-118.780625869,425,"5570 CEDARHAVEN DR, AGOURA HILLS, CA, 91301","Match","Exact","5570 CEDARHAVEN DR, AGOURA HILLS, CA, 91301",142785730,"R"
727426,"5570 CONNIE JEAN RD LOT 21","JACKSONVILLE","FL",32222,30.2437205000001,-81.823440053,426,"5570 CONNIE JEAN RD LOT 21, JACKSONVILLE, FL, 32222","Match","Exact","5570 CONNIE JEAN RD, JACKSONVILLE, FL, 32222",83940302,"R"
727427,"5570 DAYBREAK DRIVE","RENO","NV",89523,39.5339835290001,-119.877201616,427,"5570 DAYBREAK DRIVE, RENO, NV, 89523","Match","Exact","5570 DAYBREAK DR, RENO, NV, 89523",107088116,"L"
727428,"5570 FM 423 STE 250 UNIT 1105","FRISCO","TX",75036,NA,NA,428,"5570 FM 423 STE 250 UNIT 1105, FRISCO, TX, 75036","No_Match",NA,NA,NA,NA
727429,"5570 FM 423 STE 250-169","FRISCO","TX",75034,NA,NA,429,"5570 FM 423 STE 250-169, FRISCO, TX, 75034","No_Match",NA,NA,NA,NA
727430,"5570 GOLDCREST DR","CINCINNATI","OH",45238,39.132576983,-84.6283680929999,430,"5570 GOLDCREST DR, CINCINNATI, OH, 45238","Match","Exact","5570 GOLDCREST DR, CINCINNATI, OH, 45238",103917143,"R"
727431,"5570 HANDLEY BLVD","MORROW","GA",30260,33.603393784,-84.3214142799999,431,"5570 HANDLEY BLVD, MORROW, GA, 30260","Match","Exact","5570 HANDLEY BLVD, MORROW, GA, 30260",23315629,"L"
727432,"5570 HECATE CT","FAIRFAX","VA",22032,38.7993066940001,-77.303365745,432,"5570 HECATE CT, FAIRFAX, VA, 22032","Match","Exact","5570 HECATE CT, FAIRFAX, VA, 22032",619042002,"R"
727433,"5570 HWY 278 W","MCGEHEE","AR",71654,NA,NA,433,"5570 HWY 278 W, MCGEHEE, AR, 71654","No_Match",NA,NA,NA,NA
727434,"5570 HYACINTH COVE","MEMPHIS","TN",38115,35.0450912260001,-89.878978487,434,"5570 HYACINTH COVE, MEMPHIS, TN, 38115","Match","Exact","5570 HYACINTH COVE, MEMPHIS, TN, 38115",72928851,"L"
727435,"5570 MORANN AVENUE","HOUTZDALE","PA",16651,40.8155502540001,-78.351949336,435,"5570 MORANN AVENUE, HOUTZDALE, PA, 16651","Match","Exact","5570 MORANN AVE, HOUTZDALE, PA, 16651",50522942,"R"
727436,"5570 N 1180 W","ST. GEORGE","UT",84770,37.206046014,-113.609653374,436,"5570 N 1180 W, ST. GEORGE, UT, 84770","Match","Exact","5570 N 1180 W, SAINT GEORGE, UT, 84770",166198952,"R"
727437,"5570 NW 44 ST APT A303","LAUDERHILL","FL",33319,26.1792860800001,-80.2239630939999,437,"5570 NW 44 ST APT A303, LAUDERHILL, FL, 33319","Match","Non_Exact","5570 NW 44TH ST, LAUDERHILL, FL, 33319",635435351,"R"
727438,"5570 NW 44TH ST UNIT 516A","LAUDERHILL","FL",33319,26.1792860800001,-80.2239630939999,438,"5570 NW 44TH ST UNIT 516A, LAUDERHILL, FL, 33319","Match","Non_Exact","5570 NW 44TH ST, LAUDERHILL, FL, 33319",635435351,"R"
727439,"5570 NW 44TH STREET 202A","LAUDERHILL","FL",33319,26.1792860800001,-80.2239630939999,439,"5570 NW 44TH STREET 202A, LAUDERHILL, FL, 33319","Match","Non_Exact","5570 NW 44TH ST, LAUDERHILL, FL, 33319",635435351,"R"
727440,"5570 NW 44TH STREET STE A305","LAUDERHILL","FL",33319,26.1792860800001,-80.2239630939999,440,"5570 NW 44TH STREET STE A305, LAUDERHILL, FL, 33319","Match","Non_Exact","5570 NW 44TH ST, LAUDERHILL, FL, 33319",635435351,"R"
727441,"5570 OAK PARK LANE","OAK PARK","CA",91377,34.182039365,-118.784753187,441,"5570 OAK PARK LANE, OAK PARK, CA, 91377","Match","Exact","5570 OAK PARK LN, OAK PARK, CA, 91377",110019530,"L"
727442,"5570 OAKRIDGE AVE","PAHRUMP","NV",89048,36.1383715750001,-115.966067935,442,"5570 OAKRIDGE AVE, PAHRUMP, NV, 89048","Match","Exact","5570 OAKRIDGE AVE, PAHRUMP, NV, 89048",140593276,"L"
727443,"5570 POST ROAD UNIT 8","EAST GREENWICH","RI",2818,41.64333227,-71.4653719739999,443,"5570 POST ROAD UNIT 8, EAST GREENWICH, RI, 2818","Match","Exact","5570 POST RD, EAST GREENWICH, RI, 02818",159151389,"L"
727444,"5570 ROSEMEAD BLVD STE A","TEMPLE CITY","CA",91780,34.100757167,-118.073424806,444,"5570 ROSEMEAD BLVD STE A, TEMPLE CITY, CA, 91780","Match","Exact","5570 ROSEMEAD BLVD, TEMPLE CITY, CA, 91780",615108639,"R"
727445,"5570 S UNIVERSITY DRIVE","DAVIE","FL",33328,26.0515998750001,-80.2517304689999,445,"5570 S UNIVERSITY DRIVE, DAVIE, FL, 33328","Match","Exact","5570 S UNIVERSITY DR, DAVIE, FL, 33328",640909961,"L"
727446,"5570 SCHUTTA RD","SHOREVIEW","MN",55126,45.1093829010001,-93.178356171,446,"5570 SCHUTTA RD, SHOREVIEW, MN, 55126","Match","Exact","5570 SCHUTTA RD, SHOREVIEW, MN, 55126",97634626,"R"
727447,"5570 SHADOW GROVE BLVD","PENSACOLA","FL",32526,30.454089046,-87.336056963,447,"5570 SHADOW GROVE BLVD, PENSACOLA, FL, 32526","Match","Exact","5570 SHADOW GROVE BLVD, PENSACOLA, FL, 32526",93244749,"R"
727448,"5570 SOUTH PARK AVE APT 606","HAMBURG","NY",14075,42.745466198,-78.824938795,448,"5570 SOUTH PARK AVE APT 606, HAMBURG, NY, 14075","Match","Exact","5570 S PARK AVE, HAMBURG, NY, 14075",48321076,"L"
727449,"5570 SR 59","MARTINSVILLE","IN",46151,NA,NA,449,"5570 SR 59, MARTINSVILLE, IN, 46151","No_Match",NA,NA,NA,NA
727450,"5570 SR 62 SOUTH","HILLSBORO","OH",45133,NA,NA,450,"5570 SR 62 SOUTH, HILLSBORO, OH, 45133","No_Match",NA,NA,NA,NA
727451,"5570 STARBOARD DR","DISCOVERY BAY","CA",94505,37.9094376670001,-121.59280015,451,"5570 STARBOARD DR, DISCOVERY BAY, CA, 94505","Match","Exact","5570 STARBOARD DR, DISCOVERY BAY, CA, 94505",192033425,"R"
727452,"5570 SUPERIOR DR","LAKELAND","FL",33805,28.1153167860001,-81.914231595,452,"5570 SUPERIOR DR, LAKELAND, FL, 33805","Match","Exact","5570 SUPERIOR DR, LAKELAND, FL, 33805",648236999,"L"
727453,"5570 SW 3RD STREET","CORVALLIS","OR",97333,44.5025012360001,-123.270428069,453,"5570 SW 3RD STREET, CORVALLIS, OR, 97333","Match","Exact","5570 SW 3RD ST, CORVALLIS, OR, 97333",650967456,"L"
727454,"5570 TREELINE DR","COLUMBUS","IN",47201,39.181905252,-85.984906071,454,"5570 TREELINE DR, COLUMBUS, IN, 47201","Match","Exact","5570 TREELINE DR, COLUMBUS, IN, 47201",636874547,"L"
727455,"5570 VALERIO TRAIL","SAN DEIGO","CA",92130,32.961958597,-117.200173446,455,"5570 VALERIO TRAIL, SAN DEIGO, CA, 92130","Match","Non_Exact","5570 VALERIO TRL, SAN DIEGO, CA, 92130",612889700,"L"
727456,"5570 VALERIO TRAIL","SAN DIEGO","CA",92130,32.961958597,-117.200173446,456,"5570 VALERIO TRAIL, SAN DIEGO, CA, 92130","Match","Exact","5570 VALERIO TRL, SAN DIEGO, CA, 92130",612889700,"L"
727457,"5570 W LOWELL ROAD","COLUMBUS","IN",47201,39.249020364,-85.985841288,457,"5570 W LOWELL ROAD, COLUMBUS, IN, 47201","Match","Exact","5570 W LOWELL RD, COLUMBUS, IN, 47201",606497489,"R"
727458,"5570 WEST 13600 NORTH","GARLAND","UT",84312,41.755805751,-112.152209815,458,"5570 WEST 13600 NORTH, GARLAND, UT, 84312","Match","Exact","5570 W 13600 N, GARLAND, UT, 84312",153897478,"R"
727459,"55701 GLENBROOKE DR","SHELBY TWP","MI",48316,NA,NA,459,"55701 GLENBROOKE DR, SHELBY TWP, MI, 48316","No_Match",NA,NA,NA,NA
727460,"55708 ELDER RD","MISHAWAKA","IN",46545,41.684802726,-86.143469261,460,"55708 ELDER RD, MISHAWAKA, IN, 46545","Match","Exact","55708 ELDER RD, MISHAWAKA, IN, 46545",646947208,"L"
727461,"55708 ELDER ROAD","MISHAWAKA","IN",46545,41.684802726,-86.143469261,461,"55708 ELDER ROAD, MISHAWAKA, IN, 46545","Match","Exact","55708 ELDER RD, MISHAWAKA, IN, 46545",646947208,"L"
727462,"5571 BENT GRASS WAY","DOUGLASVILLE","GA",30135,33.654001082,-84.747797887,462,"5571 BENT GRASS WAY, DOUGLASVILLE, GA, 30135","Match","Exact","5571 BENT GRASS WAY, DOUGLASVILLE, GA, 30135",618476874,"L"
727463,"5571 COLT DRIVE","LONGMONT","CO",80503,40.0758538490001,-105.179270707,463,"5571 COLT DRIVE, LONGMONT, CO, 80503","Match","Exact","5571 COLT DR, LONGMONT, CO, 80503",220752423,"L"
727464,"5571 EAST DIONYSUS DR","FLORENCE","AZ",85132,33.1070795410001,-111.50647932,464,"5571 EAST DIONYSUS DR, FLORENCE, AZ, 85132","Match","Exact","5571 E DIONYSUS DR, FLORENCE, AZ, 85132",626677797,"L"
727465,"5571 EAST MIDDLETOWN RD","NEW MIDDLETOWN","OH",44442,40.95856573,-80.546637894,465,"5571 EAST MIDDLETOWN RD, NEW MIDDLETOWN, OH, 44442","Match","Exact","5571 E MIDDLETOWN RD, NEW MIDDLETOWN, OH, 44442",64602957,"R"
727466,"5571 GOODHUE AVENUE","ROCKFORD","IL",61109,42.230915252,-89.007192007,466,"5571 GOODHUE AVENUE, ROCKFORD, IL, 61109","Match","Exact","5571 GOODHUE AVE, ROCKFORD, IL, 61109",49294059,"R"
727467,"5571 GREENSPUR","LAKE PARK","GA",31636,30.845587139,-83.137278193,467,"5571 GREENSPUR, LAKE PARK, GA, 31636","Match","Non_Exact","5571 GREEN SPR, LAKE PARK, GA, 31636",87725820,"L"
727468,"5571 LAKESHORE ROAD","BUFORD","GA",30510,34.1441423310001,-83.996824268,468,"5571 LAKESHORE ROAD, BUFORD, GA, 30510","Match","Non_Exact","5571 LAKESHORE RD, BUFORD, GA, 30518",88966810,"R"
727469,"5571 LAVACA RD","GRAND PRAIRIE","TX",75052,32.6405129410001,-97.047335269,469,"5571 LAVACA RD, GRAND PRAIRIE, TX, 75052","Match","Exact","5571 LAVACA RD, GRAND PRAIRIE, TX, 75052",102187660,"R"
727470,"5571 LEXINGTON DR","HILLIARD","OH",43026,40.052924584,-83.1670306669999,470,"5571 LEXINGTON DR, HILLIARD, OH, 43026","Match","Exact","5571 LEXINGTON DR, HILLIARD, OH, 43026",646827212,"R"
727471,"5571 N ROYAL PARK DR","BOISE","ID",83713,43.6554014430001,-116.361974513,471,"5571 N ROYAL PARK DR, BOISE, ID, 83713","Match","Non_Exact","5571 N ROYAL PARK AVE, BOISE, ID, 83713",651244234,"R"
727472,"5571 N UNIVERSITY DR STE 1O1","CORAL SPRINGS","FL",33067,26.2977783480001,-80.2501891969999,472,"5571 N UNIVERSITY DR STE 1O1, CORAL SPRINGS, FL, 33067","Match","Non_Exact","5571 N UNIVERSITY DR, CORAL SPRINGS, FL, 33067",616391609,"L"
727473,"5571 NW 43RD LANE ROAD","OCALA","FL",34482,NA,NA,473,"5571 NW 43RD LANE ROAD, OCALA, FL, 34482","No_Match",NA,NA,NA,NA
727474,"5571 OMEGA ROAD","IUKA","IL",62849,38.6783566290001,-88.781097249,474,"5571 OMEGA ROAD, IUKA, IL, 62849","Match","Exact","5571 OMEGA RD, IUKA, IL, 62849",93041237,"L"
727475,"5571 PERGOLA LANE","PROVIDENCE FORGE","VA",23140,37.4734175450001,-76.9843586229999,475,"5571 PERGOLA LANE, PROVIDENCE FORGE, VA, 23140","Match","Non_Exact","5571 PERGOLA CT, PROVIDENCE FORGE, VA, 23140",625630079,"L"
727476,"5571 RINGWOOD ROAD","ENFIELD","NC",27823,36.2137786690001,-77.764394716,476,"5571 RINGWOOD ROAD, ENFIELD, NC, 27823","Match","Exact","5571 RINGWOOD RD, ENFIELD, NC, 27823",56717433,"L"
727477,"5571 ST CHARLES DR","WOODBRIDGE","VA",22192,38.642153889,-77.37631736,477,"5571 ST CHARLES DR, WOODBRIDGE, VA, 22192","Match","Non_Exact","5571 SAINT CHARLES DR, WOODBRIDGE, VA, 22193",76508059,"L"
727478,"5571 STATE RT 6","ANDOVER","OH",44003,NA,NA,478,"5571 STATE RT 6, ANDOVER, OH, 44003","No_Match",NA,NA,NA,NA
727479,"5571 SUWANEE DAM RD","SUGAR HILL","GA",30518,34.1031987580001,-84.083676624,479,"5571 SUWANEE DAM RD, SUGAR HILL, GA, 30518","Match","Exact","5571 SUWANEE DAM RD, SUGAR HILL, GA, 30518",640547680,"R"
727480,"5571 SYKESVILLE RD","ELDERSBURG","MD",21784,39.4199654540001,-76.941510432,480,"5571 SYKESVILLE RD, ELDERSBURG, MD, 21784","Match","Exact","5571 SYKESVILLE RD, ELDERSBURG, MD, 21784",61781150,"L"
727481,"5571 TYLER ST","HUDSONVILLE","MI",49426,42.8997423910001,-85.920825594,481,"5571 TYLER ST, HUDSONVILLE, MI, 49426","Match","Exact","5571 TYLER ST, HUDSONVILLE, MI, 49426",71099119,"L"
727482,"5571 US 20","WAKEMAN","OH",44889,NA,NA,482,"5571 US 20, WAKEMAN, OH, 44889","No_Match",NA,NA,NA,NA
727483,"5571 US HWY 67","BALLINGER","TX",76821,31.7546546,-99.9061710939999,483,"5571 US HWY 67, BALLINGER, TX, 76821","Match","Exact","5571 US HWY 67, BALLINGER, TX, 76821",649972431,"R"
727484,"5571 WASHINGTON AVE APT A","MUSKEGON","MI",49441,43.253142967,-86.1077972799999,484,"5571 WASHINGTON AVE APT A, MUSKEGON, MI, 49441","Match","Non_Exact","5571 WASHINGTON AVE, MUSKEGON, MI, 49442",77656441,"R"
727485,"55712 TERESA LANE","OLATHE","CO",81416,NA,NA,485,"55712 TERESA LANE, OLATHE, CO, 81416","No_Match",NA,NA,NA,NA
727486,"5572 BRADNA","LOS ANGELES","CA",90043,33.991813242,-118.350239631,486,"5572 BRADNA, LOS ANGELES, CA, 90043","Match","Non_Exact","5572 BRADNA DR, LOS ANGELES, CA, 90043",141653755,"L"
727487,"5572 CANDY COVE TR","PRIOR LAKE","MN",55372,44.725164787,-93.408468645,487,"5572 CANDY COVE TR, PRIOR LAKE, MN, 55372","Match","Non_Exact","5572 CANDY COVE TRL SE, PRIOR LAKE, MN, 55372",38142061,"L"
727488,"5572 EAST BONNIWOOD TURN","CLINTON","MD",20735,38.7328098200001,-76.912318704,488,"5572 EAST BONNIWOOD TURN, CLINTON, MD, 20735","Match","Non_Exact","5572 E BONIWOOD TURN, CLINTON, MD, 20735",643706827,"L"
727489,"5572 FESTIVAL AVE","FAIRBURN","GA",30213,33.545278511,-84.5716579859999,489,"5572 FESTIVAL AVE, FAIRBURN, GA, 30213","Match","Exact","5572 FESTIVAL AVE, FAIRBURN, GA, 30213",625654174,"R"
727490,"5572 FIELDBROOK DRIVE","EAST AMHERST","NY",14051,43.00385405,-78.6866638779999,490,"5572 FIELDBROOK DRIVE, EAST AMHERST, NY, 14051","Match","Non_Exact","5572 FIELD BROOK DR, EAST AMHERST, NY, 14051",613806064,"R"
727491,"5572 GALA AVE","SAN DIEGO","CA",92120,32.7991432520001,-117.069142594,491,"5572 GALA AVE, SAN DIEGO, CA, 92120","Match","Exact","5572 GALA AVE, SAN DIEGO, CA, 92120",195322659,"L"
727492,"5572 GRASSY MEADOWS AVE APT F","KALAMAZOO","MI",49048,42.3332398690001,-85.520789248,492,"5572 GRASSY MEADOWS AVE APT F, KALAMAZOO, MI, 49048","Match","Exact","5572 GRASSY MEADOWS AVE, KALAMAZOO, MI, 49048",628670475,"L"
727493,"5572 JASPER ST","DENVER","CO",80239,39.796157399,-104.804146656,493,"5572 JASPER ST, DENVER, CO, 80239","Match","Non_Exact","5572 N JASPER ST, DENVER, CO, 80239",606058122,"R"
727494,"5572 JUSTIN CT","YPSILANTI","MI",48197,42.2082026520001,-83.5934044589999,494,"5572 JUSTIN CT, YPSILANTI, MI, 48197","Match","Exact","5572 JUSTIN CT, YPSILANTI, MI, 48197",26055472,"R"
727495,"5572 KIRKWOOD HIGHWAY","WILMINGTON","DE",19808,39.715433154,-75.6733969969999,495,"5572 KIRKWOOD HIGHWAY, WILMINGTON, DE, 19808","Match","Exact","5572 KIRKWOOD HWY, WILMINGTON, DE, 19808",640701345,"L"
727496,"5572 LIBERTY ST","DRYDEN","MI",48428,42.945015943,-83.1227967519999,496,"5572 LIBERTY ST, DRYDEN, MI, 48428","Match","Exact","5572 LIBERTY ST, DRYDEN, MI, 48428",110474469,"R"
727497,"5572 MAIDENHEAD DRIVE","WINDSOR","CO",80550,NA,NA,497,"5572 MAIDENHEAD DRIVE, WINDSOR, CO, 80550","No_Match",NA,NA,NA,NA
727498,"5572 N EL ADOBE DR","FRESNO","CA",93711,36.8174820850001,-119.8277019,498,"5572 N EL ADOBE DR, FRESNO, CA, 93711","Match","Exact","5572 EL ADOBE DR, FRESNO, CA, 93711",627185657,"R"
727499,"5572 NC HWY 33 E","GRIMESLAND","NC",27837,35.5883701830001,-77.266803964,499,"5572 NC HWY 33 E, GRIMESLAND, NC, 27837","Match","Non_Exact","5572 STATE HWY 33 E, GRIMESLAND, NC, 27837",80040609,"R"
727500,"5572 NC HYW 33 E","GRIMESLAND","NC",28737,NA,NA,500,"5572 NC HYW 33 E, GRIMESLAND, NC, 28737","No_Match",NA,NA,NA,NA
