"ID","Address","City","State","Zip","lat","long","id","input_address","match_indicator","match_type","matched_address","tiger_line_id","tiger_side"
314001,"20139 DRIFTWOOD AVE","LYNWOOD","IL",60411,41.530303186,-87.53999663,1,"20139 DRIFTWOOD AVE, LYNWOOD, IL, 60411","Match","Exact","20139 DRIFTWOOD AVE, LYNWOOD, IL, 60411",111786889,"R"
314002,"20139 HARDWOOD TERR","ASHBURN","VA",20147,39.0584304750001,-77.440952543,2,"20139 HARDWOOD TERR, ASHBURN, VA, 20147","Match","Exact","20139 HARDWOOD TER, ASHBURN, VA, 20147",62341146,"L"
314003,"20139 WILLIAMSON DRIVE","PARKER","CO",80138,39.510515194,-104.754179706,3,"20139 WILLIAMSON DRIVE, PARKER, CO, 80138","Match","Exact","20139 WILLIAMSON DR, PARKER, CO, 80138",130804020,"R"
314004,"2013CRAWFORD RD","RALEIGH","NC",27610,NA,NA,4,"2013CRAWFORD RD, RALEIGH, NC, 27610","No_Match",NA,NA,NA,NA
314005,"2013F HIDDEN LAKE DR","STOW","OH",44224,41.196144905,-81.4305652099999,5,"2013F HIDDEN LAKE DR, STOW, OH, 44224","Match","Exact","2013 HIDDEN LAKE DR, STOW, OH, 44224",61376674,"L"
314006,"2014 230TH STREET","INWOOD","IA",51240,43.3162778120001,-96.3878225779999,6,"2014 230TH STREET, INWOOD, IA, 51240","Match","Exact","2014 230TH ST, INWOOD, IA, 51240",30200428,"R"
314007,"2014 23RD STREET","SACRAMENTO","CA",95816,38.564337118,-121.480787874,7,"2014 23RD STREET, SACRAMENTO, CA, 95816","Match","Non_Exact","2014 23RD ST, SACRAMENTO, CA, 95818",133420114,"R"
314008,"2014 24TH STREET NO 64","BELLINGHAM","WA",98225,48.713746729,-122.486142308,8,"2014 24TH STREET NO 64, BELLINGHAM, WA, 98225","Match","Non_Exact","2014 24TH ST, BELLINGHAM, WA, 98225",646090203,"R"
314009,"2014 4TH AVENUE","SACRAMENTO","CA",95818,38.5523507460001,-121.489938061,9,"2014 4TH AVENUE, SACRAMENTO, CA, 95818","Match","Exact","2014 4TH AVE, SACRAMENTO, CA, 95818",133325768,"R"
314010,"2014 6TH ST SW","WILLMAR","MN",56201,45.1023098810001,-95.047854918,10,"2014 6TH ST SW, WILLMAR, MN, 56201","Match","Exact","2014 6TH ST SW, WILLMAR, MN, 56201",36712517,"L"
314011,"2014 9TH AVENUE","OAKLAND","CA",94606,37.7968942860001,-122.244808861,11,"2014 9TH AVENUE, OAKLAND, CA, 94606","Match","Exact","2014 9TH AVE, OAKLAND, CA, 94606",125001545,"R"
314012,"2014 APPLEGATE DRIVE","CONCORD","NC",28027,35.442795431,-80.647863735,12,"2014 APPLEGATE DRIVE, CONCORD, NC, 28027","Match","Exact","2014 APPLEGATE DR, CONCORD, NC, 28027",24895959,"R"
314013,"2014 ARGOSY DR","MEMPHIS","TN",38116,35.0045358470001,-89.9970203299999,13,"2014 ARGOSY DR, MEMPHIS, TN, 38116","Match","Exact","2014 ARGOSY DR, MEMPHIS, TN, 38116",72923013,"L"
314014,"2014 ARLINGTON DRIVE","SELMA","AL",36701,32.40186255,-87.069628092,14,"2014 ARLINGTON DRIVE, SELMA, AL, 36701","Match","Exact","2014 ARLINGTON DR, SELMA, AL, 36701",1284338,"L"
314015,"2014 ATHENA RD","LANCASTER","SC",29721,34.6785730080001,-80.7545999119999,15,"2014 ATHENA RD, LANCASTER, SC, 29721","Match","Non_Exact","2014 ATHENA RD, LANCASTER, SC, 29720",40694088,"R"
314016,"2014 BAKER TRAIL","HOUSTON","TX",77094,29.7591776090001,-95.705851034,16,"2014 BAKER TRAIL, HOUSTON, TX, 77094","Match","Non_Exact","2014 BAKER RD, HOUSTON, TX, 77094",642191126,"L"
314017,"2014 BALTIMORE ST","MIDDLETOWN","OH",45044,39.493527482,-84.401349325,17,"2014 BALTIMORE ST, MIDDLETOWN, OH, 45044","Match","Exact","2014 BALTIMORE ST, MIDDLETOWN, OH, 45044",113791979,"R"
314018,"2014 BEACH STREET","CONCORD","CA",94519,37.980221724,-122.029707941,18,"2014 BEACH STREET, CONCORD, CA, 94519","Match","Exact","2014 BEACH ST, CONCORD, CA, 94519",192054523,"R"
314019,"2014 BEECH LANE","BENSALEM","PA",19020,40.1048076810001,-74.933260205,19,"2014 BEECH LANE, BENSALEM, PA, 19020","Match","Exact","2014 BEECH LN, BENSALEM, PA, 19020",134714772,"L"
314020,"2014 BEL AIRE DR","GLENDALE","CA",91201,34.1826478740001,-118.288665713,20,"2014 BEL AIRE DR, GLENDALE, CA, 91201","Match","Exact","2014 BEL AIRE DR, GLENDALE, CA, 91201",141596112,"L"
314021,"2014 BENTWOOD STREET","GLENN HEIGHTS","TX",75154,32.5520262680001,-96.8271041,21,"2014 BENTWOOD STREET, GLENN HEIGHTS, TX, 75154","Match","Exact","2014 BENTWOOD ST, GLENN HEIGHTS, TX, 75154",624244132,"R"
314022,"2014 BRECKENRIDGE LN","ALPHARETTA","GA",30005,34.0630695350001,-84.227941713,22,"2014 BRECKENRIDGE LN, ALPHARETTA, GA, 30005","Match","Exact","2014 BRECKENRIDGE LN, ALPHARETTA, GA, 30005",17389442,"L"
314023,"2014 BUCHANAN","SEASIDE","CA",93955,36.619564439,-121.826285332,23,"2014 BUCHANAN, SEASIDE, CA, 93955","Match","Non_Exact","2014 BUCHANAN ST, SEASIDE, CA, 93955",196820724,"R"
314024,"2014 BURNING TREE LANE","YOUNGSTOWN","OH",44505,41.1533091800001,-80.6280020889999,24,"2014 BURNING TREE LANE, YOUNGSTOWN, OH, 44505","Match","Exact","2014 BURNING TREE LN, YOUNGSTOWN, OH, 44505",117418812,"R"
314025,"2014 BURNSIDE DRIVE","FREDERICK","MD",21702,39.466604718,-77.4132298379999,25,"2014 BURNSIDE DRIVE, FREDERICK, MD, 21702","Match","Exact","2014 BURNSIDE DR, FREDERICK, MD, 21702",60702375,"L"
314026,"2014 CAMINO A LOS CERROS","MENLO PARK","CA",94025,NA,NA,26,"2014 CAMINO A LOS CERROS, MENLO PARK, CA, 94025","No_Match",NA,NA,NA,NA
314027,"2014 CANDLEWOOD DRIVE","E. STROUDSBURG","PA",18301,41.0405997450001,-75.231404944,27,"2014 CANDLEWOOD DRIVE, E. STROUDSBURG, PA, 18301","Match","Exact","2014 CANDLEWOOD DR, E STROUDSBURG, PA, 18301",136759953,"R"
314028,"2014 CHRISTINA COVE","HOOVER","AL",35244,NA,NA,28,"2014 CHRISTINA COVE, HOOVER, AL, 35244","No_Match",NA,NA,NA,NA
314029,"2014 CHULI NENE","TALLAHASSEE","FL",32301,30.42086713,-84.2552541869999,29,"2014 CHULI NENE, TALLAHASSEE, FL, 32301","Match","Exact","2014 CHULI NENE, TALLAHASSEE, FL, 32301",82854443,"R"
314030,"2014 CHURCHILL STREET","NEW ORLEANS","LA",70461,30.2530666420001,-89.7452276019999,30,"2014 CHURCHILL STREET, NEW ORLEANS, LA, 70461","Match","Non_Exact","2014 CHURCHILL ST, SLIDELL, LA, 70461",111252669,"R"
314031,"2014 COLONY STREET 11","MOUNTAIN VIEW","CA",94043,37.4158966840001,-122.091520501,31,"2014 COLONY STREET 11, MOUNTAIN VIEW, CA, 94043","Match","Exact","2014 COLONY ST, MOUNTAIN VIEW, CA, 94043",649341341,"R"
314032,"2014 COLUMBIA PIKE APT 1","ARLINGTON","VA",22204,38.8645812070001,-77.0791218109999,32,"2014 COLUMBIA PIKE APT 1, ARLINGTON, VA, 22204","Match","Non_Exact","2014 S COLUMBIA PIKE, ARLINGTON, VA, 22204",76477666,"L"
314033,"2014 CORNFLOWER CT","MISHAWAKA","IN",46544,41.640494871,-86.1642840649999,33,"2014 CORNFLOWER CT, MISHAWAKA, IN, 46544","Match","Exact","2014 CORNFLOWER CT, MISHAWAKA, IN, 46544",8073457,"L"
314034,"2014 COUNTY RD 2526","QUINLAN","TX",75474,32.9481939620001,-96.173886414,34,"2014 COUNTY RD 2526, QUINLAN, TX, 75474","Match","Exact","2014 CO RD 2526, QUINLAN, TX, 75474",42855382,"L"
314035,"2014 COUNTY ROAD 2526","QUINLAN","TX",75474,32.9481939620001,-96.173886414,35,"2014 COUNTY ROAD 2526, QUINLAN, TX, 75474","Match","Exact","2014 CO RD 2526, QUINLAN, TX, 75474",42855382,"L"
314036,"2014 CRIPPLE CREEK LANE","LEWISVILLE","TX",75077,33.078620615,-97.044072484,36,"2014 CRIPPLE CREEK LANE, LEWISVILLE, TX, 75077","Match","Exact","2014 CRIPPLE CREEK LN, LEWISVILLE, TX, 75077",640568257,"L"
314037,"2014 CROSS WILLOW LANE","INDIANAPOLIS","IN",46239,39.7420246390001,-86.030895377,37,"2014 CROSS WILLOW LANE, INDIANAPOLIS, IN, 46239","Match","Exact","2014 CROSS WILLOW LN, INDIANAPOLIS, IN, 46239",108030057,"R"
314038,"2014 DEVONSHIRE AVE","LANSING","MI",48910,42.710465621,-84.534821708,38,"2014 DEVONSHIRE AVE, LANSING, MI, 48910","Match","Exact","2014 DEVONSHIRE AVE, LANSING, MI, 48910",17500358,"R"
314039,"2014 DORIS CT","MISSOURI CITY","TX",77489,29.613757908,-95.542557863,39,"2014 DORIS CT, MISSOURI CITY, TX, 77489","Match","Exact","2014 DORIS CT, MISSOURI CITY, TX, 77489",636742805,"L"
314040,"2014 DUNHEATH DRIVE","ELKTON","KY",42220,NA,NA,40,"2014 DUNHEATH DRIVE, ELKTON, KY, 42220","No_Match",NA,NA,NA,NA
314041,"2014 E 26TH AVENUE","NORTH KANSAS CITY","MO",64116,39.1485061830001,-94.556660033,41,"2014 E 26TH AVENUE, NORTH KANSAS CITY, MO, 64116","Match","Exact","2014 E 26TH AVE, N KANSAS CITY, MO, 64116",89759004,"L"
314042,"2014 E 9TH STREET","CRAIG","CO",81625,40.5211853010001,-107.524377783,42,"2014 E 9TH STREET, CRAIG, CO, 81625","Match","Exact","2014 E 9TH ST, CRAIG, CO, 81625",162249375,"L"
314043,"2014 E BEACON BY WAY","LAKELAND","FL",33803,28.019312724,-81.951890755,43,"2014 E BEACON BY WAY, LAKELAND, FL, 33803","Match","Exact","2014 E BEACON BY WAY, LAKELAND, FL, 33803",104811198,"L"
314044,"2014 E BRIGADIER DR","GILBERT","AZ",85298,33.2095246280001,-111.744876042,44,"2014 E BRIGADIER DR, GILBERT, AZ, 85298","Match","Exact","2014 E BRIGADIER DR, GILBERT, AZ, 85298",636877070,"L"
314045,"2014 E ESTATE RD","KALKASKA","MI",49646,44.7431597720001,-85.1797118329999,45,"2014 E ESTATE RD, KALKASKA, MI, 49646","Match","Exact","2014 E ESTATE RD, KALKASKA, MI, 49646",145930455,"R"
314046,"2014 E HELEN STREET","TUCSON","AZ",85719,32.237333623,-110.94227221,46,"2014 E HELEN STREET, TUCSON, AZ, 85719","Match","Exact","2014 E HELEN ST, TUCSON, AZ, 85719",121173766,"R"
314047,"2014 E JEFFERSON BOULEVARD","SOUTH BEND","IN",46617,41.6732385400001,-86.217868819,47,"2014 E JEFFERSON BOULEVARD, SOUTH BEND, IN, 46617","Match","Exact","2014 E JEFFERSON BLVD, SOUTH BEND, IN, 46617",8061130,"R"
314048,"2014 E OAKLAND AVE","JOHNSON CITY","TN",37601,36.352369669,-82.360483422,48,"2014 E OAKLAND AVE, JOHNSON CITY, TN, 37601","Match","Exact","2014 E OAKLAND AVE, JOHNSON CITY, TN, 37601",127921266,"R"
314049,"2014 E WINSTON DR","PHOENIX","AZ",85042,33.3690738,-112.038906341,49,"2014 E WINSTON DR, PHOENIX, AZ, 85042","Match","Exact","2014 E WINSTON DR, PHOENIX, AZ, 85042",243926732,"L"
314050,"2014 EL CAMINO DE LA LUZ","SANTA BARBARA","CA",93109,34.397367918,-119.726206332,50,"2014 EL CAMINO DE LA LUZ, SANTA BARBARA, CA, 93109","Match","Exact","2014 EL CAMINO DE LA LUZ, SANTA BARBARA, CA, 93109",108607236,"R"
314051,"2014 ELLEN PARK PLACE","NEW ORLEANS","LA",70131,29.932811272,-90.0006256999999,51,"2014 ELLEN PARK PLACE, NEW ORLEANS, LA, 70131","Match","Exact","2014 ELLEN PARK PL, NEW ORLEANS, LA, 70131",191723226,"L"
314052,"2014 EMERALD RIDGE DRIVE","LAKELAND","FL",33813,27.965855579,-81.9261924319999,52,"2014 EMERALD RIDGE DRIVE, LAKELAND, FL, 33813","Match","Exact","2014 EMERALD RIDGE DR, LAKELAND, FL, 33813",104868455,"L"
314053,"2014 FAIRWAY GREEN","KINGWOOD","TX",77339,30.0382029100001,-95.1764718699999,53,"2014 FAIRWAY GREEN, KINGWOOD, TX, 77339","Match","Non_Exact","2014 FAIRWAY GREEN DR, KINGWOOD, TX, 77339",96423365,"L"
314054,"2014 FIESTA COURT","ORLANDO","FL",32811,28.5175461150001,-81.4398432899999,54,"2014 FIESTA COURT, ORLANDO, FL, 32811","Match","Exact","2014 FIESTA CT, ORLANDO, FL, 32811",94274075,"R"
314055,"2014 FOXHURST DRIVE","LOUISVILLE","KY",40216,38.198272509,-85.814865008,55,"2014 FOXHURST DRIVE, LOUISVILLE, KY, 40216","Match","Exact","2014 FOXHURST DR, LOUISVILLE, KY, 40216",96892573,"L"
314056,"2014 FRANCIS AVE","ELKHART","IN",46516,41.668097618,-85.962986894,56,"2014 FRANCIS AVE, ELKHART, IN, 46516","Match","Non_Exact","2014 FRANCES AVE, ELKHART, IN, 46516",7752607,"L"
314057,"2014 GLADSTONE AVENUE","LOUISVILLE","KY",40205,38.215224478,-85.684181917,57,"2014 GLADSTONE AVENUE, LOUISVILLE, KY, 40205","Match","Exact","2014 GLADSTONE AVE, LOUISVILLE, KY, 40205",96853250,"R"
314058,"2014 GREENWEST DR","MISSOURI CITY","TX",77489,29.5926986750001,-95.531906949,58,"2014 GREENWEST DR, MISSOURI CITY, TX, 77489","Match","Exact","2014 GREENWEST DR, MISSOURI CITY, TX, 77489",78270939,"L"
314059,"2014 HARLEQUIN TERRACE","SILVER SPRING","MD",20904,39.0681899750001,-76.969412392,59,"2014 HARLEQUIN TERRACE, SILVER SPRING, MD, 20904","Match","Exact","2014 HARLEQUIN TER, SILVER SPRING, MD, 20904",62089803,"R"
314060,"2014 HAVERFORD DR","CROWNSVILLE","MD",21032,38.9948167410001,-76.618813701,60,"2014 HAVERFORD DR, CROWNSVILLE, MD, 21032","Match","Exact","2014 HAVERFORD DR, CROWNSVILLE, MD, 21032",68214800,"L"
314061,"2014 HAY TERRACE","EASTON","PA",18042,40.684777044,-75.241028821,61,"2014 HAY TERRACE, EASTON, PA, 18042","Match","Exact","2014 HAY TER, EASTON, PA, 18042",136881748,"L"
314062,"2014 HEMLOCK RD","CATAWISSA","PA",17820,40.9022940420001,-76.503752455,62,"2014 HEMLOCK RD, CATAWISSA, PA, 17820","Match","Exact","2014 HEMLOCK RD, CATAWISSA, PA, 17820",59238785,"R"
314063,"2014 HILLTOP ROAD","FLOURTOWN","PA",19031,40.1138004970001,-75.204935657,63,"2014 HILLTOP ROAD, FLOURTOWN, PA, 19031","Match","Exact","2014 HILLTOP RD, FLOURTOWN, PA, 19031",135089123,"L"
314064,"2014 INLAND LOOP","WOODBRIDGE","VA",22192,38.674509459,-77.2739782319999,64,"2014 INLAND LOOP, WOODBRIDGE, VA, 22192","Match","Exact","2014 INLAND LOOP, WOODBRIDGE, VA, 22192",76524130,"L"
314065,"2014 JEFFERESON BOULEVARD","SOUTH BEND","IN",46617,41.6732448430001,-86.217904162,65,"2014 JEFFERESON BOULEVARD, SOUTH BEND, IN, 46617","Match","Non_Exact","2014 E JEFFERSON BLVD, SOUTH BEND, IN, 46617",8061130,"R"
314066,"2014 KENDALL LN","LOUISVILLE","KY",40216,38.17959468,-85.82679859,66,"2014 KENDALL LN, LOUISVILLE, KY, 40216","Match","Exact","2014 KENDALL LN, LOUISVILLE, KY, 40216",96839057,"L"
314067,"2014 KENNING","GRAND RAPIDS","MI",49321,NA,NA,67,"2014 KENNING, GRAND RAPIDS, MI, 49321","No_Match",NA,NA,NA,NA
314068,"2014 KILLARNEY DR","BELLEVILLE","IL",62221,38.5352556330001,-89.955042297,68,"2014 KILLARNEY DR, BELLEVILLE, IL, 62221","Match","Exact","2014 KILLARNEY DR, BELLEVILLE, IL, 62221",107884259,"L"
314069,"2014 LAKE BLUFF RD","BLOOMINGTON","IL",61704,40.4541472710001,-89.003611103,69,"2014 LAKE BLUFF RD, BLOOMINGTON, IL, 61704","Match","Exact","2014 LAKE BLUFF RD, BLOOMINGTON, IL, 61704",20589613,"L"
314070,"2014 MACCUMBER LANE","WILMINGTON","NC",28403,34.2217409260001,-77.830294194,70,"2014 MACCUMBER LANE, WILMINGTON, NC, 28403","Match","Exact","2014 MACCUMBER LN, WILMINGTON, NC, 28403",152738157,"L"
314071,"2014 MAIN ST","CAMBRIA","MA",93428,NA,NA,71,"2014 MAIN ST, CAMBRIA, MA, 93428","No_Match",NA,NA,NA,NA
314072,"2014 MARYLAND","DALLAS","TX",75216,32.723705174,-96.8131964199999,72,"2014 MARYLAND, DALLAS, TX, 75216","Match","Non_Exact","2014 MARYLAND AVE, DALLAS, TX, 75216",102949549,"L"
314073,"2014 MERLIN DRIVE","CHATTANOOGA","TN",37412,NA,NA,73,"2014 MERLIN DRIVE, CHATTANOOGA, TN, 37412","No_Match",NA,NA,NA,NA
314074,"2014 MIDYETTE RD UNIT 705","TALLAHASSEE","FL",32301,30.4196441230001,-84.2349364309999,74,"2014 MIDYETTE RD UNIT 705, TALLAHASSEE, FL, 32301","Match","Exact","2014 MIDYETTE RD, TALLAHASSEE, FL, 32301",618796055,"R"
314075,"2014 MIDYETTE ROAD APT 305","TALLAHASSEE","FL",32301,30.4196441230001,-84.2349364309999,75,"2014 MIDYETTE ROAD APT 305, TALLAHASSEE, FL, 32301","Match","Exact","2014 MIDYETTE RD, TALLAHASSEE, FL, 32301",618796055,"R"
314076,"2014 MOUNTAIN WOOD COUR","UPPER MARLBORO","MD",20774,38.8635346080001,-76.76524876,76,"2014 MOUNTAIN WOOD COUR, UPPER MARLBORO, MD, 20774","Match","Non_Exact","2014 MOUNTAIN WOOD CT, UPPER MARLBORO, MD, 20774",76417059,"R"
314077,"2014 N DEXEL AVE","INDIANAPOLIS","IN",46218,NA,NA,77,"2014 N DEXEL AVE, INDIANAPOLIS, IN, 46218","No_Match",NA,NA,NA,NA
314078,"2014 N JEFFERSON ST","WILMINGTON","DE",19802,39.755548348,-75.5444424359999,78,"2014 N JEFFERSON ST, WILMINGTON, DE, 19802","Match","Exact","2014 N JEFFERSON ST, WILMINGTON, DE, 19802",187258825,"R"
314079,"2014 NE 104TH ST","SEATTLE","WA",98125,47.7039261740001,-122.30667488,79,"2014 NE 104TH ST, SEATTLE, WA, 98125","Match","Exact","2014 NE 104TH ST, SEATTLE, WA, 98125",186584841,"L"
314080,"2014 NE 10TH ST","OCALA","FL",34470,29.1969552050001,-82.11087929,80,"2014 NE 10TH ST, OCALA, FL, 34470","Match","Exact","2014 NE 10TH ST, OCALA, FL, 34470",116728331,"R"
314081,"2014 NORTH 57 STREET","PHILADELPHIA","PA",19131,39.985162277,-75.2370674749999,81,"2014 NORTH 57 STREET, PHILADELPHIA, PA, 19131","Match","Exact","2014 N 57TH ST, PHILADELPHIA, PA, 19131",131397959,"L"
314082,"2014 NORTH MARKET STREET","KOKOMO","IN",46901,40.5046430510001,-86.129213861,82,"2014 NORTH MARKET STREET, KOKOMO, IN, 46901","Match","Exact","2014 N MARKET ST, KOKOMO, IN, 46901",27262556,"R"
314083,"2014 NW 139 TERRACE","PEMBROKE PINES","FL",33028,26.0263576030001,-80.336886831,83,"2014 NW 139 TERRACE, PEMBROKE PINES, FL, 33028","Match","Exact","2014 NW 139TH TER, PEMBROKE PINES, FL, 33028",114801380,"L"
314084,"2014 NW 38TH TERRACE","LAUDERDALE LAKES","FL",33311,26.151865061,-80.20020268,84,"2014 NW 38TH TERRACE, LAUDERDALE LAKES, FL, 33311","Match","Exact","2014 NW 38TH TER, LAUDERDALE LAKES, FL, 33311",631811718,"L"
314085,"2014 OAKDALE ESTATES DRIVE","PLAINFIELD","IL",60586,41.5583580090001,-88.2103024899999,85,"2014 OAKDALE ESTATES DRIVE, PLAINFIELD, IL, 60586","Match","Exact","2014 OAKDALE ESTATES DR, PLAINFIELD, IL, 60586",111621038,"R"
314086,"2014 ONE HALF WALKERS LN","MERAUX","LA",70075,NA,NA,86,"2014 ONE HALF WALKERS LN, MERAUX, LA, 70075","No_Match",NA,NA,NA,NA
314087,"2014 OVERVIEW LN","GARLAND","TX",75044,32.9318809650001,-96.676639773,87,"2014 OVERVIEW LN, GARLAND, TX, 75044","Match","Exact","2014 OVERVIEW LN, GARLAND, TX, 75044",102916958,"R"
314088,"2014 PEOPLES STREET","AUSTIN","TX",78702,30.267601099,-97.718182551,88,"2014 PEOPLES STREET, AUSTIN, TX, 78702","Match","Exact","2014 PEOPLES ST, AUSTIN, TX, 78702",63947230,"L"
314089,"2014 PLANTATION DR","HARLINGEN","TX",78550,26.209934251,-97.674381247,89,"2014 PLANTATION DR, HARLINGEN, TX, 78550","Match","Exact","2014 PLANTATION DR, HARLINGEN, TX, 78550",89978891,"R"
314090,"2014 POTTER AVE","MERRICK","NY",11566,40.6821067330001,-73.557170906,90,"2014 POTTER AVE, MERRICK, NY, 11566","Match","Exact","2014 POTTER AVE, MERRICK, NY, 11566",147634883,"R"
314091,"2014 PROVIDENCE WY","LODI","CA",95242,38.1064245040001,-121.297625119,91,"2014 PROVIDENCE WY, LODI, CA, 95242","Match","Exact","2014 PROVIDENCE WAY, LODI, CA, 95242",133891521,"L"
314092,"2014 RACHAEL AVE","NATIONAL CITY","CA",91950,32.6744382590001,-117.070071493,92,"2014 RACHAEL AVE, NATIONAL CITY, CA, 91950","Match","Exact","2014 RACHAEL AVE, NATIONAL CITY, CA, 91950",195352897,"R"
314093,"2014 RIDGECREST DRIVE","KNOXVILLE","TN",37918,36.0380933390001,-83.949722756,93,"2014 RIDGECREST DRIVE, KNOXVILLE, TN, 37918","Match","Non_Exact","2014 RIDGECREST DR NE, KNOXVILLE, TN, 37918",42616492,"R"
314094,"2014 RIVERLANDING CIRCLE","LAWRENCEVILLE","GA",30045,33.949089997,-84.044864511,94,"2014 RIVERLANDING CIRCLE, LAWRENCEVILLE, GA, 30045","Match","Non_Exact","2014 RIVERLANDING CIR, LAWRENCEVILLE, GA, 30046",88917430,"L"
314095,"2014 ROBINWOOD COURT","BENTON","AR",72015,34.5798941420001,-92.553576135,95,"2014 ROBINWOOD COURT, BENTON, AR, 72015","Match","Exact","2014 ROBINWOOD CT, BENTON, AR, 72015",24223525,"R"
314096,"2014 ROSEDOWN ST","LAKE CHARLES","LA",70605,30.1581498960001,-93.254533711,96,"2014 ROSEDOWN ST, LAKE CHARLES, LA, 70605","Match","Non_Exact","2014 ROSEDOWN DR, LAKE CHARLES, LA, 70605",88450271,"R"
314097,"2014 ROSEWOOD LANE","PUEBLO","CO",81005,38.2303631670001,-104.66068523,97,"2014 ROSEWOOD LANE, PUEBLO, CO, 81005","Match","Exact","2014 ROSEWOOD LN, PUEBLO, CO, 81005",105044362,"R"
314098,"2014 RUBEN DRIVE","WAUKESHA","WI",53186,43.0333413010001,-88.1897776009999,98,"2014 RUBEN DRIVE, WAUKESHA, WI, 53186","Match","Exact","2014 RUBEN DR, WAUKESHA, WI, 53186",53812779,"L"
314099,"2014 RUDDY ROAD","RALEIGH","NC",27616,35.8447148220001,-78.4894209019999,99,"2014 RUDDY ROAD, RALEIGH, NC, 27616","Match","Exact","2014 RUDDY RD, RALEIGH, NC, 27616",72601982,"L"
314100,"2014 S 379TH ST","FEDERAL WAY","WA",98003,47.2624614850001,-122.30768773,100,"2014 S 379TH ST, FEDERAL WAY, WA, 98003","Match","Exact","2014 S 379TH ST, FEDERAL WAY, WA, 98003",186952025,"L"
314101,"2014 S 89TH ST","WEST ALLIS","WI",53227,43.007856464,-88.023596975,101,"2014 S 89TH ST, WEST ALLIS, WI, 53227","Match","Exact","2014 S 89TH ST, WEST ALLIS, WI, 53227",77730028,"L"
314102,"2014 S ASHWOOD AVE","FAYETTEVILLE","AR",72701,36.0421731110001,-94.184024863,102,"2014 S ASHWOOD AVE, FAYETTEVILLE, AR, 72701","Match","Exact","2014 S ASHWOOD AVE, FAYETTEVILLE, AR, 72701",49048131,"L"
314103,"2014 S PALM CT","PASADENA","TX",77502,29.671135393,-95.184502897,103,"2014 S PALM CT, PASADENA, TX, 77502","Match","Exact","2014 S PALM CT, PASADENA, TX, 77502",96104353,"R"
314104,"2014 S POPLAR","WICHITA","KS",67211,37.656877266,-97.306801767,104,"2014 S POPLAR, WICHITA, KS, 67211","Match","Non_Exact","2014 S POPLAR ST, WICHITA, KS, 67211",115647742,"L"
314105,"2014 S RACINE AVENUE APT 304","CHICAGO","IL",60608,41.8550383840001,-87.6563472,105,"2014 S RACINE AVENUE APT 304, CHICAGO, IL, 60608","Match","Non_Exact","2014 S RACINE AVE, CHICAGO, IL, 60608",111803470,"R"
314106,"2014 SAINT HELENS STREET","SAINT HELENS","OR",97051,NA,NA,106,"2014 SAINT HELENS STREET, SAINT HELENS, OR, 97051","Tie",NA,NA,NA,NA
314107,"2014 SANSOM ST","PHILADELPHIA","PA",19103,39.9513349900001,-75.1740365639999,107,"2014 SANSOM ST, PHILADELPHIA, PA, 19103","Match","Exact","2014 SANSOM ST, PHILADELPHIA, PA, 19103",131406779,"L"
314108,"2014 SE 6TH AVE","CAMAS","WA",98607,45.5829971040001,-122.38722022,108,"2014 SE 6TH AVE, CAMAS, WA, 98607","Match","Exact","2014 SE 6TH AVE, CAMAS, WA, 98607",158331985,"L"
314109,"2014 SE DONELLE DR","TOLEDO","OR",97391,44.606034971,-123.923824874,109,"2014 SE DONELLE DR, TOLEDO, OR, 97391","Match","Exact","2014 SE DONELLE DR, TOLEDO, OR, 97391",155957020,"R"
314110,"2014 SIERRA DRIVE","PEKIN","IL",61554,40.542402978,-89.6190938079999,110,"2014 SIERRA DRIVE, PEKIN, IL, 61554","Match","Exact","2014 SIERRA DR, PEKIN, IL, 61554",652492994,"L"
314111,"2014 SILVERADO PASS","SPRING HILL","TN",37174,35.6815732430001,-86.902846519,111,"2014 SILVERADO PASS, SPRING HILL, TN, 37174","Match","Exact","2014 SILVERADO PASS, SPRING HILL, TN, 37174",625626471,"R"
314112,"2014 SMITH DRIVE","AUGUSTA","GA",30906,33.424502401,-82.0179646999999,112,"2014 SMITH DRIVE, AUGUSTA, GA, 30906","Match","Exact","2014 SMITH DR, AUGUSTA, GA, 30906",55640730,"L"
314113,"2014 SOUTH 11TH STREET","MEBANE","NC",27302,NA,NA,113,"2014 SOUTH 11TH STREET, MEBANE, NC, 27302","No_Match",NA,NA,NA,NA
314114,"2014 SOUTH LONG HOLLOW ROAD","TRION","GA",30753,34.5981136620001,-85.333543799,114,"2014 SOUTH LONG HOLLOW ROAD, TRION, GA, 30753","Match","Exact","2014 S LONG HOLLOW RD, TRION, GA, 30753",632677471,"L"
314115,"2014 SOUTH RACINE UNIT 110","CHICAGO","IL",60608,41.85504036,-87.6563472449999,115,"2014 SOUTH RACINE UNIT 110, CHICAGO, IL, 60608","Match","Non_Exact","2014 S RACINE AVE, CHICAGO, IL, 60608",111803470,"R"
314116,"2014 SOUTHGATE DRIVE","SCHENECTADY","NY",12304,42.789300354,-73.922210309,116,"2014 SOUTHGATE DRIVE, SCHENECTADY, NY, 12304","Match","Exact","2014 SOUTHGATE DR, SCHENECTADY, NY, 12304",645555371,"L"
314117,"2014 SPRING CREEK DRIVE","DURHAM","NC",27704,36.0191444760001,-78.846623966,117,"2014 SPRING CREEK DRIVE, DURHAM, NC, 27704","Match","Exact","2014 SPRING CREEK DR, DURHAM, NC, 27704",614174100,"R"
314118,"2014 SPRINGWOOD","JEFFERSON CITY","MO",65101,38.5413225410001,-92.158252163,118,"2014 SPRINGWOOD, JEFFERSON CITY, MO, 65101","Match","Non_Exact","2014 SPRINGWOOD CT, JEFFERSON CITY, MO, 65101",34416183,"R"
314119,"2014 SUNFLOWER AVE","CLARKSDALE","MS",38614,34.183956444,-90.569745295,119,"2014 SUNFLOWER AVE, CLARKSDALE, MS, 38614","Match","Exact","2014 SUNFLOWER AVE, CLARKSDALE, MS, 38614",953117,"R"
314120,"2014 SUNNYBRROK DRIVE","TYLER","TX",75701,32.3279336260001,-95.312920188,120,"2014 SUNNYBRROK DRIVE, TYLER, TX, 75701","Match","Non_Exact","2014 SUNNYBROOK DR, TYLER, TX, 75701",141315343,"R"
314121,"2014 SW 143 PLACE","MIAMI","FL",33175,25.7481867600001,-80.427713897,121,"2014 SW 143 PLACE, MIAMI, FL, 33175","Match","Exact","2014 SW 143RD PL, MIAMI, FL, 33175",631775798,"L"
314122,"2014 SW 29TH COURT APT 2","DELRAY BEACH","FL",33445,26.4264443060001,-80.093335199,122,"2014 SW 29TH COURT APT 2, DELRAY BEACH, FL, 33445","Match","Non_Exact","2014 SW 29TH CT, DELRAY BEACH, FL, 33445",115291384,"R"
314123,"2014 TELEMARK CT NW","ROCHESTER","MN",55901,44.045625122,-92.4765255739999,123,"2014 TELEMARK CT NW, ROCHESTER, MN, 55901","Match","Exact","2014 TELEMARK CT NW, ROCHESTER, MN, 55901",30551030,"R"
314124,"2014 TENNYSON AVE NE","MASSILLON","OH",44646,40.8193923910001,-81.496369918,124,"2014 TENNYSON AVE NE, MASSILLON, OH, 44646","Match","Exact","2014 TENNYSON AVE NE, MASSILLON, OH, 44646",64723224,"R"
314125,"2014 THORNAPPLE DR","TOLEDO","OH",43614,41.6014594760001,-83.6481549109999,125,"2014 THORNAPPLE DR, TOLEDO, OH, 43614","Match","Exact","2014 THORNAPPLE DR, TOLEDO, OH, 43614",33935861,"R"
314126,"2014 TIMBER COVE COURT","WEATHERFORD","TX",76087,32.7340580370001,-97.7516238439999,126,"2014 TIMBER COVE COURT, WEATHERFORD, TX, 76087","Match","Exact","2014 TIMBER COVE CT, WEATHERFORD, TX, 76087",103604503,"R"
314127,"2014 TRAILPINE COURT","NORMAN","OK",73072,35.1908717640001,-97.471079601,127,"2014 TRAILPINE COURT, NORMAN, OK, 73072","Match","Exact","2014 TRAILPINE CT, NORMAN, OK, 73072",99910867,"L"
314128,"2014 TULARE STREET STE 631","FRSNO","CA",93721,36.7340411610001,-119.789886351,128,"2014 TULARE STREET STE 631, FRSNO, CA, 93721","Match","Non_Exact","2014 TULARE ST, FRESNO, CA, 93721",197579751,"R"
314129,"2014 TULARE STREET SUITE 631","FRESNO","CA",93722,36.7340411610001,-119.789886351,129,"2014 TULARE STREET SUITE 631, FRESNO, CA, 93722","Match","Non_Exact","2014 TULARE ST, FRESNO, CA, 93721",197579751,"R"
314130,"2014 UPLAND WAY","PHILADELPHIA","PA",19131,39.9869460630001,-75.2456734249999,130,"2014 UPLAND WAY, PHILADELPHIA, PA, 19131","Match","Exact","2014 UPLAND WAY, PHILADELPHIA, PA, 19131",131395964,"L"
314131,"2014 VENABLE ST","RICHMOND","VA",23223,37.538316836,-77.420168374,131,"2014 VENABLE ST, RICHMOND, VA, 23223","Match","Exact","2014 VENABLE ST, RICHMOND, VA, 23223",201541191,"L"
314132,"2014 W 53RD ST","CLEVELAND","OH",44102,41.4768139820001,-81.7228877379999,132,"2014 W 53RD ST, CLEVELAND, OH, 44102","Match","Exact","2014 W 53RD ST, CLEVELAND, OH, 44102",61101623,"R"
314133,"2014 W 82ND STREET","LOS ANGELES","CA",90047,33.9645737710001,-118.313814128,133,"2014 W 82ND STREET, LOS ANGELES, CA, 90047","Match","Exact","2014 W 82ND ST, LOS ANGELES, CA, 90047",141658633,"L"
314134,"2014 W CARSON RD","PHOENIX","AZ",85041,33.382576709,-112.102135957,134,"2014 W CARSON RD, PHOENIX, AZ, 85041","Match","Exact","2014 W CARSON RD, PHOENIX, AZ, 85041",244004143,"L"
314135,"2014 WAGNER ROAD","BATAVIA","IL",60510,41.8257752750001,-88.2821402499999,135,"2014 WAGNER ROAD, BATAVIA, IL, 60510","Match","Exact","2014 WAGNER RD, BATAVIA, IL, 60510",119565605,"L"
314136,"2014 WASHINGTON AVE","CONWAY","AR",72032,35.105528212,-92.444766435,136,"2014 WASHINGTON AVE, CONWAY, AR, 72032","Match","Exact","2014 WASHINGTON AVE, CONWAY, AR, 72032",141043490,"R"
314137,"2014 WATERMARK PLACE","COLUMBIA","SC",29210,34.01227449,-81.064223232,137,"2014 WATERMARK PLACE, COLUMBIA, SC, 29210","Match","Exact","2014 WATERMARK PL, COLUMBIA, SC, 29210",636792795,"R"
314138,"2014 WATERS TRAIL DRIVE","CHARLOTTE","NC",28216,35.3232358280001,-80.889183314,138,"2014 WATERS TRAIL DRIVE, CHARLOTTE, NC, 28216","Match","Exact","2014 WATERS TRAIL DR, CHARLOTTE, NC, 28216",70582914,"L"
314139,"2014 WATERS TRAIL DRIVE","CHARLOTTEE","NC",28216,35.3232358280001,-80.889183314,139,"2014 WATERS TRAIL DRIVE, CHARLOTTEE, NC, 28216","Match","Non_Exact","2014 WATERS TRAIL DR, CHARLOTTE, NC, 28216",70582914,"L"
314140,"2014 WATTS RD APT C","BENTON","AR",72015,34.582235661,-92.565719718,140,"2014 WATTS RD APT C, BENTON, AR, 72015","Match","Exact","2014 WATTS RD, BENTON, AR, 72015",24221267,"L"
314141,"2014 WEST 17TH COURT","RIVIERA BEACH","FL",33404,26.778706232,-80.0887983219999,141,"2014 WEST 17TH COURT, RIVIERA BEACH, FL, 33404","Match","Exact","2014 W 17TH CT, RIVIERA BEACH, FL, 33404",644286129,"R"
314142,"2014 WEST GORE CREEK DRIVE UNIT 25","VAIL","CO",81657,39.6297118190001,-106.415393259,142,"2014 WEST GORE CREEK DRIVE UNIT 25, VAIL, CO, 81657","Match","Exact","2014 W GORE CREEK DR, VAIL, CO, 81657",105729338,"R"
314143,"2014 WEST RANDOLPH STREET","CHICAGO","IL",60612,41.8846222450001,-87.677712696,143,"2014 WEST RANDOLPH STREET, CHICAGO, IL, 60612","Match","Exact","2014 W RANDOLPH ST, CHICAGO, IL, 60612",111892047,"R"
314144,"2014 WESTWOOD DR","STAFFORD","TX",77477,29.6061964460001,-95.536733273,144,"2014 WESTWOOD DR, STAFFORD, TX, 77477","Match","Exact","2014 WESTWOOD DR, STAFFORD, TX, 77477",78330264,"R"
314145,"2014 WHITE OAK VALLEY RD","CLEVELAND","TN",37312,35.2222550160001,-84.9578523019999,145,"2014 WHITE OAK VALLEY RD, CLEVELAND, TN, 37312","Match","Exact","2014 WHITE OAK VALLEY RD, CLEVELAND, TN, 37312",57570984,"R"
314146,"2014 WHITLOCK DRIVE","BENTON","AR",72015,34.567398967,-92.563752638,146,"2014 WHITLOCK DRIVE, BENTON, AR, 72015","Match","Exact","2014 WHITLOCK DR, BENTON, AR, 72015",24194863,"R"
314147,"2014 WI","ROCKFORD","IL",61107,NA,NA,147,"2014 WI, ROCKFORD, IL, 61107","No_Match",NA,NA,NA,NA
314148,"2014 WINDING WAY","AUBURN","AL",36830,32.58997679,-85.4506760949999,148,"2014 WINDING WAY, AUBURN, AL, 36830","Match","Exact","2014 WINDING WAY, AUBURN, AL, 36830",1605385,"R"
314149,"2014 WINTON AVE","SPEEDWAY","IN",46224,39.7931481320001,-86.24689462,149,"2014 WINTON AVE, SPEEDWAY, IN, 46224","Match","Exact","2014 WINTON AVE, SPEEDWAY, IN, 46224",107978612,"L"
314150,"2014 WISTERIA RD","ROCKFORD","IL",61107,42.2892370640001,-89.0266954969999,150,"2014 WISTERIA RD, ROCKFORD, IL, 61107","Match","Exact","2014 WISTERIA RD, ROCKFORD, IL, 61107",49262103,"L"
314151,"2014 WOOD BROOK DR","AMELIA","OH",45102,39.019338448,-84.180531743,151,"2014 WOOD BROOK DR, AMELIA, OH, 45102","Match","Exact","2014 WOOD BROOK DR, AMELIA, OH, 45102",618767735,"L"
314152,"2014 WOODSTOCK ROAD","CHAMBERSBURG","PA",17202,39.94568329,-77.583336733,152,"2014 WOODSTOCK ROAD, CHAMBERSBURG, PA, 17202","Match","Exact","2014 WOODSTOCK RD, CHAMBERSBURG, PA, 17202",617885414,"R"
314153,"2014 YAVAPAI DR","KINGMAN","AZ",86401,35.204636318,-113.997714572,153,"2014 YAVAPAI DR, KINGMAN, AZ, 86401","Match","Non_Exact","2014 N YAVAPAI DR, KINGMAN, AZ, 86401",647623752,"L"
314154,"20140 LAZY RIVER TER APT 206","ASHBURN","VA",20147,39.059175542,-77.466725566,154,"20140 LAZY RIVER TER APT 206, ASHBURN, VA, 20147","Match","Exact","20140 LAZY RIVER TER, ASHBURN, VA, 20147",218922232,"L"
314155,"20140 NW 57 CT","MIAMI","FL",33015,25.9554858930001,-80.295366383,155,"20140 NW 57 CT, MIAMI, FL, 33015","Match","Non_Exact","20140 NW 57TH CT, MIAMI GARDENS, FL, 33015",116258369,"L"
314156,"20140 ROSCOE BLVD APT 311","WINNETKA","CA",91306,34.2201804490001,-118.572124945,156,"20140 ROSCOE BLVD APT 311, WINNETKA, CA, 91306","Match","Exact","20140 ROSCOE BLVD, WINNETKA, CA, 91306",640421840,"L"
314157,"20140 SCHOLAR DRIVE - SUITE 321","HAGERSTOWN","MD",21742,39.6300489910001,-77.670510287,157,"20140 SCHOLAR DRIVE - SUITE 321, HAGERSTOWN, MD, 21742","Match","Exact","20140 SCHOLAR DR, HAGERSTOWN, MD, 21742",60799506,"L"
314158,"20140 SHEFFIELD RD","DETROIT","MI",NA,42.442329251,-83.138981601,158,"20140 SHEFFIELD RD, DETROIT, MI, ","Match","Exact","20140 SHEFFIELD RD, DETROIT, MI, 48221",95460822,"R"
314159,"20140 W DIXIE HWAY","MIAMI","FL",33180,25.9618901530001,-80.147623589,159,"20140 W DIXIE HWAY, MIAMI, FL, 33180","Match","Exact","20140 W DIXIE HWY, MIAMI, FL, 33180",635561302,"L"
314160,"20140 WOODINGHAM","DETROIT","MI",48221,42.441600426,-83.150775965,160,"20140 WOODINGHAM, DETROIT, MI, 48221","Match","Non_Exact","20140 WOODINGHAM DR, DETROIT, MI, 48221",95425446,"R"
314161,"20141 130TH AVE","INDIANOLA","IA",50125,41.2330376310001,-93.558042598,161,"20141 130TH AVE, INDIANOLA, IA, 50125","Match","Exact","20141 130TH AVE, INDIANOLA, IA, 50125",653236719,"L"
314162,"20141 COLCHESTER RD","PURCELLVILLE","VA",20132,39.0609164460001,-77.737462561,162,"20141 COLCHESTER RD, PURCELLVILLE, VA, 20132","Match","Exact","20141 COLCHESTER RD, PURCELLVILLE, VA, 20132",62337549,"L"
314163,"20141 E 40TH STREET","DENVER","CO",80249,NA,NA,163,"20141 E 40TH STREET, DENVER, CO, 80249","Tie",NA,NA,NA,NA
314164,"20141 HARNED ST","DETROIT","MI",48234,42.443100267,-83.073936327,164,"20141 HARNED ST, DETROIT, MI, 48234","Match","Exact","20141 HARNED ST, DETROIT, MI, 48234",95462833,"L"
314165,"20141 ROMAN ROAD","HARRAH","OK",73045,35.4689552190001,-97.174066261,165,"20141 ROMAN ROAD, HARRAH, OK, 73045","Match","Exact","20141 ROMAN RD, HARRAH, OK, 73045",100436010,"L"
314166,"20141/2","CLARKSBURG","WV",26301,NA,NA,166,"20141/2, CLARKSBURG, WV, 26301","No_Match",NA,NA,NA,NA
314167,"20142 E 43RD AVE","DENVER","CO",80249,39.7761312810001,-104.752301796,167,"20142 E 43RD AVE, DENVER, CO, 80249","Match","Exact","20142 E 43RD AVE, DENVER, CO, 80249",177627334,"L"
314168,"20142 NORTHCOTE","BOCA RATON","FL",33434,26.3817583680001,-80.158428997,168,"20142 NORTHCOTE, BOCA RATON, FL, 33434","Match","Non_Exact","20142 NORTHCOTE DR, BOCA RATON, FL, 33434",115317327,"R"
314169,"20142 PRAIRIE DUNES TERRACE","ASHBURN","VA",20147,39.0597059290001,-77.504175881,169,"20142 PRAIRIE DUNES TERRACE, ASHBURN, VA, 20147","Match","Exact","20142 PRAIRIE DUNES TER, ASHBURN, VA, 20147",635891208,"L"
314170,"20144 6TH AVENUE NE","SHORELINE","WA",95188,47.7755363520001,-122.323609989,170,"20144 6TH AVENUE NE, SHORELINE, WA, 95188","Match","Non_Exact","20144 6TH AVE NE, SHORELINE, WA, 98155",186573422,"R"
314171,"20145 DELITA DR","WOODLAND HILLS","CA",91364,34.1649306750001,-118.573424417,171,"20145 DELITA DR, WOODLAND HILLS, CA, 91364","Match","Exact","20145 DELITA DR, WOODLAND HILLS, CA, 91364",142049310,"R"
314172,"20145 LANGWELL DR","PORTER","TX",77365,NA,NA,172,"20145 LANGWELL DR, PORTER, TX, 77365","No_Match",NA,NA,NA,NA
314173,"20145 NE 3RD COURT","MIAMI","FL",33179,25.9607846420001,-80.1954191999999,173,"20145 NE 3RD COURT, MIAMI, FL, 33179","Match","Exact","20145 NE 3RD CT, MIAMI, FL, 33179",116249694,"R"
314174,"20145 NE SANDY BLVE LOT 10","FAIRVIEW","OR",97024,NA,NA,174,"20145 NE SANDY BLVE LOT 10, FAIRVIEW, OR, 97024","No_Match",NA,NA,NA,NA
314175,"20145 RUSHTON ROAD","WOODLAND HILLS","CA",91364,NA,NA,175,"20145 RUSHTON ROAD, WOODLAND HILLS, CA, 91364","No_Match",NA,NA,NA,NA
314176,"20145 WASATCH MOUNTAIN LANE","BEND","OR",97702,44.0083021350001,-121.318676748,176,"20145 WASATCH MOUNTAIN LANE, BEND, OR, 97702","Match","Exact","20145 WASATCH MOUNTAIN LN, BEND, OR, 97702",617830419,"R"
314177,"20145 WASATCH MOUNTAIN LANE","BEND","OR",NA,44.0083021350001,-121.318676748,177,"20145 WASATCH MOUNTAIN LANE, BEND, OR, ","Match","Exact","20145 WASATCH MOUNTAIN LN, BEND, OR, 97702",617830419,"R"
314178,"20146 COHASSET ST UNIT 3","WINNETKA","CA",91306,34.207116634,-118.573092598,178,"20146 COHASSET ST UNIT 3, WINNETKA, CA, 91306","Match","Exact","20146 COHASSET ST, WINNETKA, CA, 91306",141540493,"L"
314179,"20147 E CAMACHO RD","QUEEN CREEK","AZ",85142,33.255572526,-111.649209992,179,"20147 E CAMACHO RD, QUEEN CREEK, AZ, 85142","Match","Exact","20147 E CAMACHO RD, QUEEN CREEK, AZ, 85142",617919269,"R"
314180,"20147 FIELDTREE DR","HUMBLE","TX",77338,30.0102027130001,-95.275552589,180,"20147 FIELDTREE DR, HUMBLE, TX, 77338","Match","Exact","20147 FIELDTREE DR, HUMBLE, TX, 77338",96128195,"L"
314181,"20147 RICHARD STREET","SOUTH BEND","IN",46637,41.7367140490001,-86.258134458,181,"20147 RICHARD STREET, SOUTH BEND, IN, 46637","Match","Non_Exact","20147 RICHARD AVE, SOUTH BEND, IN, 46637",8052998,"R"
314182,"20147","ATHENS","AL",35614,NA,NA,182,"20147, ATHENS, AL, 35614","No_Match",NA,NA,NA,NA
314183,"20148 E AVENUE","WELLSBURG","IA",50680,42.409331384,-92.9445895059999,183,"20148 E AVENUE, WELLSBURG, IA, 50680","Match","Exact","20148 E AVE, WELLSBURG, IA, 50680",77409007,"R"
314184,"20148 LOWER SKYRIDGE DRIVE","GROVELAND","CA",95321,37.8472176720001,-120.194214468,184,"20148 LOWER SKYRIDGE DRIVE, GROVELAND, CA, 95321","Match","Exact","20148 LOWER SKYRIDGE DR, GROVELAND, CA, 95321",101416777,"R"
314185,"20148 RHODA CIRCLE","CERRITOS","CA",90703,33.8471322130001,-118.067235172,185,"20148 RHODA CIRCLE, CERRITOS, CA, 90703","Match","Exact","20148 RHODA CIR, CERRITOS, CA, 90703",141753804,"L"
314186,"20149 473RD AVE","MADELIA","MN",56062,NA,NA,186,"20149 473RD AVE, MADELIA, MN, 56062","Tie",NA,NA,NA,NA
314187,"2015  PISGAH FOREST DRIVE","PISGAH FOREST","NC",28768,35.219264691,-82.664044905,187,"2015  PISGAH FOREST DRIVE, PISGAH FOREST, NC, 28768","Match","Exact","2015 PISGAH FOREST DR, PISGAH FOREST, NC, 28768",650604402,"L"
314188,"2015 - 28TH N AVE","FARGO","ND",58103,NA,NA,188,"2015 - 28TH N AVE, FARGO, ND, 58103","No_Match",NA,NA,NA,NA
314189,"2015 11TH ST SW","ROCHESTER","MN",55902,44.0112702860001,-92.4924073559999,189,"2015 11TH ST SW, ROCHESTER, MN, 55902","Match","Exact","2015 11TH ST SW, ROCHESTER, MN, 55902",30564631,"R"
314190,"2015 13TH AVE W APT 402","SEATTLE","WA",98119,47.637092135,-122.373949994,190,"2015 13TH AVE W APT 402, SEATTLE, WA, 98119","Match","Exact","2015 13TH AVE W, SEATTLE, WA, 98119",187079323,"L"
314191,"2015 177 TH AVE NE","REDMOND","WA",98052,47.627893785,-122.103602845,191,"2015 177 TH AVE NE, REDMOND, WA, 98052","Match","Non_Exact","2015 177TH AVE NE, REDMOND, WA, 98052",623940926,"L"
314192,"2015 1ST AVENUE NORTH","BIRMINGHAM","AL",35203,33.514573023,-86.80538246,192,"2015 1ST AVENUE NORTH, BIRMINGHAM, AL, 35203","Match","Exact","2015 1ST AVE N, BIRMINGHAM, AL, 35203",81575795,"R"
314193,"2015 20TH ST","FORT MEADE","MD",20755,39.117478695,-76.729158002,193,"2015 20TH ST, FORT MEADE, MD, 20755","Match","Exact","2015 20TH ST, FORT MEADE, MD, 20755",68153969,"L"
314194,"2015 21ST STREET","ROCK ISLAND","IL",61201,41.491064915,-90.5708872709999,194,"2015 21ST STREET, ROCK ISLAND, IL, 61201","Match","Exact","2015 21ST ST, ROCK ISLAND, IL, 61201",9208596,"L"
314195,"2015 27TH STREET","SACRAMENTO","CA",95818,38.56267753,-121.475541199,195,"2015 27TH STREET, SACRAMENTO, CA, 95818","Match","Exact","2015 27TH ST, SACRAMENTO, CA, 95818",133420204,"L"
314196,"2015 31ST AVE","COUNCIL BLUFFS","IA",51501,41.230546959,-95.872579638,196,"2015 31ST AVE, COUNCIL BLUFFS, IA, 51501","Match","Exact","2015 31ST AVE, COUNCIL BLUFFS, IA, 51501",43911541,"R"
314197,"2015 31ST ST","GREELEY","CO",80631,40.3868968100001,-104.711353089,197,"2015 31ST ST, GREELEY, CO, 80631","Match","Exact","2015 31ST ST, GREELEY, CO, 80631",188707887,"R"
314198,"2015 41ST ST NW APT-J19","ROCHESTER","MN",55901,44.0653034220001,-92.493967724,198,"2015 41ST ST NW APT-J19, ROCHESTER, MN, 55901","Match","Exact","2015 41ST ST NW, ROCHESTER, MN, 55901",636505493,"R"
314199,"2015 4TH ST APT 3","SANTA MONICA","CA",90405,34.0084513890001,-118.485933444,199,"2015 4TH ST APT 3, SANTA MONICA, CA, 90405","Match","Exact","2015 4TH ST, SANTA MONICA, CA, 90405",141559810,"L"
314200,"2015 6TH LANE NW","CHOTEAU","MT",59422,47.9005889920001,-112.114218459,200,"2015 6TH LANE NW, CHOTEAU, MT, 59422","Match","Exact","2015 6TH LN NW, CHOTEAU, MT, 59422",202607015,"R"
314201,"2015 82ND AVE","OAKLAND","CA",94621,37.759315777,-122.171960787,201,"2015 82ND AVE, OAKLAND, CA, 94621","Match","Exact","2015 82ND AVE, OAKLAND, CA, 94621",125009530,"L"
314202,"2015 9TH STREET EAST","GLENCOE","MN",55336,44.768246651,-94.135267671,202,"2015 9TH STREET EAST, GLENCOE, MN, 55336","Match","Exact","2015 9TH ST E, GLENCOE, MN, 55336",36807204,"L"
314203,"2015 ABBOTT RD APT 2","LACKAWANNA","NY",14218,42.810189742,-78.799029036,203,"2015 ABBOTT RD APT 2, LACKAWANNA, NY, 14218","Match","Exact","2015 ABBOTT RD, LACKAWANNA, NY, 14218",48344592,"R"
314204,"2015 ADDISON","MUSKEGON","MI",49441,43.2161637460001,-86.285321693,204,"2015 ADDISON, MUSKEGON, MI, 49441","Match","Non_Exact","2015 ADDISON ST, MUSKEGON, MI, 49441",77649763,"R"
314205,"2015 ALCOVY TRAILS DRIVE","DACULA","GA",30019,33.9294020730001,-83.895357296,205,"2015 ALCOVY TRAILS DRIVE, DACULA, GA, 30019","Match","Exact","2015 ALCOVY TRAILS DR, DACULA, GA, 30019",635859612,"R"
314206,"2015 AMPERE DR","LOUISVILLE","KY",40299,NA,NA,206,"2015 AMPERE DR, LOUISVILLE, KY, 40299","No_Match",NA,NA,NA,NA
314207,"2015 ANDOVER WAY","MOUNT PLEASANT","SC",29466,32.888696236,-79.803345443,207,"2015 ANDOVER WAY, MOUNT PLEASANT, SC, 29466","Match","Exact","2015 ANDOVER WAY, MOUNT PLEASANT, SC, 29466",108889870,"R"
314208,"2015 AQUAMARINE TERRACE","SILVER SPRING","MD",20904,39.070647224,-76.9703619109999,208,"2015 AQUAMARINE TERRACE, SILVER SPRING, MD, 20904","Match","Exact","2015 AQUAMARINE TER, SILVER SPRING, MD, 20904",62073031,"L"
314209,"2015 ARLINGTON PLACE","HENDERSONVILLE","NC",28791,35.3363791460001,-82.47397426,209,"2015 ARLINGTON PLACE, HENDERSONVILLE, NC, 28791","Match","Exact","2015 ARLINGTON PL, HENDERSONVILLE, NC, 28791",152255126,"L"
314210,"2015 BAHAMAS APT 4","EDINBURG","TX",78541,NA,NA,210,"2015 BAHAMAS APT 4, EDINBURG, TX, 78541","No_Match",NA,NA,NA,NA
314211,"2015 BARRET DRIVE","FRISCO","TX",75033,33.18071825,-96.873608464,211,"2015 BARRET DRIVE, FRISCO, TX, 75033","Match","Exact","2015 BARRET DR, FRISCO, TX, 75033",103418250,"R"
314212,"2015 BAXTER DRIVE","BOZEMAN","MT",59715,45.658781414,-111.023541647,212,"2015 BAXTER DRIVE, BOZEMAN, MT, 59715","Match","Exact","2015 BAXTER DR, BOZEMAN, MT, 59715",163516038,"R"
314213,"2015 BEECHWOOD RD","HYATTSVILLE","MD",20783,38.9756491810001,-76.9771638299999,213,"2015 BEECHWOOD RD, HYATTSVILLE, MD, 20783","Match","Exact","2015 BEECHWOOD RD, HYATTSVILLE, MD, 20783",76303776,"R"
314214,"2015 BENTLEY ST","ORLANDO","FL",32805,28.546082052,-81.4059050769999,214,"2015 BENTLEY ST, ORLANDO, FL, 32805","Match","Exact","2015 BENTLEY ST, ORLANDO, FL, 32805",94280352,"R"
314215,"2015 BERGREN COURT","KINGSBURG","CA",93631,36.529629786,-119.546082283,215,"2015 BERGREN COURT, KINGSBURG, CA, 93631","Match","Exact","2015 BERGREN CT, KINGSBURG, CA, 93631",197630539,"L"
314216,"2015 BERNARD LANE","STROUDSBURG","PA",18360,40.9658568500001,-75.2867789649999,216,"2015 BERNARD LANE, STROUDSBURG, PA, 18360","Match","Exact","2015 BERNARD LN, STROUDSBURG, PA, 18360",136780478,"L"
314217,"2015 BLUEROCK CT","GREENSBORO","NC",27405,NA,NA,217,"2015 BLUEROCK CT, GREENSBORO, NC, 27405","No_Match",NA,NA,NA,NA
314218,"2015 BOBWHITE COURT","O'FALLON","MO",63366,38.866743238,-90.7788867359999,218,"2015 BOBWHITE COURT, O'FALLON, MO, 63366","Match","Non_Exact","2015 BOBWHITE CT, O FALLON, MO, 63366",605518505,"L"
314219,"2015 BONANZA ROAD","HOUSTON","TX",77062,29.5686577440001,-95.1152352,219,"2015 BONANZA ROAD, HOUSTON, TX, 77062","Match","Exact","2015 BONANZA RD, HOUSTON, TX, 77062",96115624,"L"
314220,"2015 BOUNDARY ST STE 300","BEAUFORT","SC",29902,32.441508991,-80.692318725,220,"2015 BOUNDARY ST STE 300, BEAUFORT, SC, 29902","Match","Exact","2015 BOUNDARY ST, BEAUFORT, SC, 29902",647869466,"R"
314221,"2015 BOUNDARY STREET SUITE 236","BEAUFORT","SC",29902,32.441508991,-80.692318725,221,"2015 BOUNDARY STREET SUITE 236, BEAUFORT, SC, 29902","Match","Exact","2015 BOUNDARY ST, BEAUFORT, SC, 29902",647869466,"R"
314222,"2015 BOUNDARY STREET","BEAUFORT","SC",29902,32.441508991,-80.692318725,222,"2015 BOUNDARY STREET, BEAUFORT, SC, 29902","Match","Exact","2015 BOUNDARY ST, BEAUFORT, SC, 29902",647869466,"R"
314223,"2015 BRATTON PLACE DRIVE","FRANKLIN","TN",37067,35.9305015630001,-86.839386384,223,"2015 BRATTON PLACE DRIVE, FRANKLIN, TN, 37067","Match","Exact","2015 BRATTON PLACE DR, FRANKLIN, TN, 37067",73120354,"L"
314224,"2015 BRIDGEWAY 101-A","SAUSALITO","CA",94965,37.862209813,-122.494887155,224,"2015 BRIDGEWAY 101-A, SAUSALITO, CA, 94965","Match","Exact","2015 BRIDGEWAY, SAUSALITO, CA, 94965",192770071,"L"
314225,"2015 BRIGADIER CT","ODENTON","MD",21113,39.1083410630001,-76.715605647,225,"2015 BRIGADIER CT, ODENTON, MD, 21113","Match","Non_Exact","2015 BRIGADIER BLVD, ODENTON, MD, 21113",68201314,"L"
314226,"2015 BRIGADIER NLVD","ODENTON","MD",21113,39.1083410630001,-76.715605647,226,"2015 BRIGADIER NLVD, ODENTON, MD, 21113","Match","Non_Exact","2015 BRIGADIER BLVD, ODENTON, MD, 21113",68201314,"L"
314227,"2015 BYRD","PORTAGE","MI",49002,42.2405816610001,-85.5654592069999,227,"2015 BYRD, PORTAGE, MI, 49002","Match","Non_Exact","2015 BYRD DR, PORTAGE, MI, 49002",647927970,"L"
314228,"2015 CAMERON DRIVE","PENSACOLA","FL",32505,30.4711827510001,-87.281617646,228,"2015 CAMERON DRIVE, PENSACOLA, FL, 32505","Match","Exact","2015 CAMERON DR, PENSACOLA, FL, 32505",93247166,"R"
314229,"2015 CARTIER WAY","CHARLOTTE","NC",28208,35.2216526730001,-80.872501311,229,"2015 CARTIER WAY, CHARLOTTE, NC, 28208","Match","Exact","2015 CARTIER WAY, CHARLOTTE, NC, 28208",70484683,"L"
314230,"2015 CASPIAN AVE","ATLANTIC CITY","NJ",8401,39.3655583940001,-74.440694267,230,"2015 CASPIAN AVE, ATLANTIC CITY, NJ, 8401","Match","Exact","2015 CASPIAN AVE, ATLANTIC CITY, NJ, 08401",642609243,"R"
314231,"2015 CASTILLO APT C","SANTA BARBARA","CA",93101,NA,NA,231,"2015 CASTILLO APT C, SANTA BARBARA, CA, 93101","No_Match",NA,NA,NA,NA
314232,"2015 CEDAR BEND DR APT 1002","Austin","TX",78758,30.4089029830001,-97.698725171,232,"2015 CEDAR BEND DR APT 1002, Austin, TX, 78758","Match","Exact","2015 CEDAR BEND DR, AUSTIN, TX, 78758",63930170,"L"
314233,"2015 CEDAR BEND DR APT 1002","AUSTIN","TX",78758,30.4089029830001,-97.698725171,233,"2015 CEDAR BEND DR APT 1002, AUSTIN, TX, 78758","Match","Exact","2015 CEDAR BEND DR, AUSTIN, TX, 78758",63930170,"L"
314234,"2015 CENTRAL AVE NE APT 408","MINNEAPOLIS","MN",55418,45.009027915,-93.247318091,234,"2015 CENTRAL AVE NE APT 408, MINNEAPOLIS, MN, 55418","Match","Exact","2015 CENTRAL AVE NE, MINNEAPOLIS, MN, 55418",43836058,"R"
314235,"2015 CERVANTES","BEAR","DE",19801,NA,NA,235,"2015 CERVANTES, BEAR, DE, 19801","No_Match",NA,NA,NA,NA
314236,"2015 CHANTILLY LANE","HOUSTON","TX",77018,29.828408575,-95.448209057,236,"2015 CHANTILLY LANE, HOUSTON, TX, 77018","Match","Exact","2015 CHANTILLY LN, HOUSTON, TX, 77018",96028846,"L"
314237,"2015 CHARLESTON OAK CIRCLE","LAWRENCEVILLE","GA",30043,34.0429889270001,-83.9627985659999,237,"2015 CHARLESTON OAK CIRCLE, LAWRENCEVILLE, GA, 30043","Match","Exact","2015 CHARLESTON OAK CIR, LAWRENCEVILLE, GA, 30043",627660662,"L"
314238,"2015 CHOWKEEBIN NENE","TALLAHASSEE","FL",32301,30.4221999220001,-84.25402933,238,"2015 CHOWKEEBIN NENE, TALLAHASSEE, FL, 32301","Match","Exact","2015 CHOWKEEBIN NENE, TALLAHASSEE, FL, 32301",82854448,"L"
314239,"2015 CLIFFMANOR CIR SE","HUNTSVILLE","AL",35801,34.717982573,-86.557574274,239,"2015 CLIFFMANOR CIR SE, HUNTSVILLE, AL, 35801","Match","Exact","2015 CLIFFMANOR CIR SE, HUNTSVILLE, AL, 35801",58119499,"L"
314240,"2015 CLIPPER STRAITS","SNELLVILLE","GA",30078,33.867395365,-84.020642766,240,"2015 CLIPPER STRAITS, SNELLVILLE, GA, 30078","Match","Exact","2015 CLIPPER STRAITS, SNELLVILLE, GA, 30078",88890050,"R"
314241,"2015 COLLEGE AVENUE","VINCENNES","IN",47591,38.6673712410001,-87.508610881,241,"2015 COLLEGE AVENUE, VINCENNES, IN, 47591","Match","Exact","2015 COLLEGE AVE, VINCENNES, IN, 47591",30059615,"L"
314242,"2015 COLUMBINE AVE","BOULDER","CO",80302,39.999147168,-105.267518806,242,"2015 COLUMBINE AVE, BOULDER, CO, 80302","Match","Exact","2015 COLUMBINE AVE, BOULDER, CO, 80302",220749743,"L"
314243,"2015 CONCORD PL","CAPE GIRARDEAU","MO",63701,37.3389535690001,-89.5480895379999,243,"2015 CONCORD PL, CAPE GIRARDEAU, MO, 63701","Match","Exact","2015 CONCORD PL, CAPE GIRARDEAU, MO, 63701",35199594,"L"
314244,"2015 CORNWALL ROAD","SOUTH WALES","NY",14139,42.7087060870001,-78.599384033,244,"2015 CORNWALL ROAD, SOUTH WALES, NY, 14139","Match","Exact","2015 CORNWALL RD, SOUTH WALES, NY, 14139",48343181,"R"
314245,"2015 CR 1350","BLANCHARD","OK",73010,35.058653753,-97.750109272,245,"2015 CR 1350, BLANCHARD, OK, 73010","Match","Exact","2015 CO RD 1350, BLANCHARD, OK, 73010",640401298,"L"
314246,"2015 CROOKED LANE","FLINT","MI",48503,42.993527451,-83.726288846,246,"2015 CROOKED LANE, FLINT, MI, 48503","Match","Exact","2015 CROOKED LN, FLINT, MI, 48503",69573767,"L"
314247,"2015 CROWN POINT","FRANKFORT","KY",40601,NA,NA,247,"2015 CROWN POINT, FRANKFORT, KY, 40601","No_Match",NA,NA,NA,NA
314248,"2015 CYPRESS CLUB DRIVE","ARLINGTON","TX",76010,32.7136728460001,-97.073078524,248,"2015 CYPRESS CLUB DRIVE, ARLINGTON, TX, 76010","Match","Exact","2015 CYPRESS CLUB DR, ARLINGTON, TX, 76010",102135684,"R"
314249,"2015 CYPRUS DR SE","MASSILLON","OH",44646,40.7730886310001,-81.494020927,249,"2015 CYPRUS DR SE, MASSILLON, OH, 44646","Match","Exact","2015 CYPRUS DR SE, MASSILLON, OH, 44646",64713437,"L"
314250,"2015 DYLAN DRIVE","SLIDELL","LA",70461,30.2524315000001,-89.7431036689999,250,"2015 DYLAN DRIVE, SLIDELL, LA, 70461","Match","Exact","2015 DYLAN DR, SLIDELL, LA, 70461",653718265,"L"
314251,"2015 E 12TH ST","CHATTANOOGA","TN",37404,35.0279225470001,-85.277304805,251,"2015 E 12TH ST, CHATTANOOGA, TN, 37404","Match","Exact","2015 E 12TH ST, CHATTANOOGA, TN, 37404",59308399,"L"
314252,"2015 E BROADWAY UNIT 307","LONG BEACH","CA",90803,33.767228184,-118.167455588,252,"2015 E BROADWAY UNIT 307, LONG BEACH, CA, 90803","Match","Non_Exact","2015 E BROADWAY, LONG BEACH, CA, 90803",141701346,"L"
314253,"2015 E DALLAS STREET","ARGYLE","TX",76226,NA,NA,253,"2015 E DALLAS STREET, ARGYLE, TX, 76226","No_Match",NA,NA,NA,NA
314254,"2015 E PINETREE BLVD APT I-4","THOMASVILLE","GA",31792,30.813039739,-83.9703761489999,254,"2015 E PINETREE BLVD APT I-4, THOMASVILLE, GA, 31792","Match","Non_Exact","2015 S PINETREE BLVD, THOMASVILLE, GA, 31792",83103848,"L"
314255,"2015 E PRIMAVERA LN","FORT MOHAVE","AZ",86426,35.0074275710001,-114.579122946,255,"2015 E PRIMAVERA LN, FORT MOHAVE, AZ, 86426","Match","Exact","2015 PRIMAVERA LN, FORT MOHAVE, AZ, 86426",190346549,"L"
314256,"2015 E ROUTT AVE","PUEBLO","CO",81004,38.2328909990001,-104.616002219,256,"2015 E ROUTT AVE, PUEBLO, CO, 81004","Match","Exact","2015 E ROUTT AVE, PUEBLO, CO, 81004",105027302,"R"
314257,"2015 E ST RD 32","WINCHESTER","IN",47394,40.171635399,-85.016892775,257,"2015 E ST RD 32, WINCHESTER, IN, 47394","Match","Exact","2015 STATE RD 32, WINCHESTER, IN, 47394",31215150,"R"
314258,"2015 E STATE RD 32","WINCHESTER","IN",47394,40.1716324240001,-85.0169163159999,258,"2015 E STATE RD 32, WINCHESTER, IN, 47394","Match","Exact","2015 STATE RD 32, WINCHESTER, IN, 47394",31215150,"R"
314259,"2015 E STATE ROAD 32","WINCHESTER","IN",47394,40.1716324240001,-85.0169163159999,259,"2015 E STATE ROAD 32, WINCHESTER, IN, 47394","Match","Exact","2015 STATE RD 32, WINCHESTER, IN, 47394",31215150,"R"
314260,"2015 E TACHEVAH DRIVE","PALM SPRINGS","CA",92262,33.8376272790001,-116.524784915,260,"2015 E TACHEVAH DRIVE, PALM SPRINGS, CA, 92262","Match","Exact","2015 E TACHEVAH DR, PALM SPRINGS, CA, 92262",194763548,"R"
314261,"2015 EAGLE VIEW DR","NAVASOTA","TX",77868,30.368277618,-96.12003292,261,"2015 EAGLE VIEW DR, NAVASOTA, TX, 77868","Match","Exact","2015 EAGLE VIEW DR, NAVASOTA, TX, 77868",650036879,"R"
314262,"2015 EAST 4TH STREET APT 407","CLEVELAND","OH",44115,41.499411437,-81.690249583,262,"2015 EAST 4TH STREET APT 407, CLEVELAND, OH, 44115","Match","Exact","2015 E 4TH ST, CLEVELAND, OH, 44115",638281489,"L"
314263,"2015 EAST DRIVE","JACKSON","MS",39204,NA,NA,263,"2015 EAST DRIVE, JACKSON, MS, 39204","No_Match",NA,NA,NA,NA
314264,"2015 EAST PINETREE BLVD APT I-4","THOMASVILLE","GA",31792,30.842747166,-83.947680361,264,"2015 EAST PINETREE BLVD APT I-4, THOMASVILLE, GA, 31792","Match","Exact","2015 E PINETREE BLVD, THOMASVILLE, GA, 31792",639743896,"L"
314265,"2015 EASTFIELD DR","MISSOURI CITY","TX",77459,29.572603241,-95.531735197,265,"2015 EASTFIELD DR, MISSOURI CITY, TX, 77459","Match","Non_Exact","2015 EASTFIELD CIR, MISSOURI CITY, TX, 77459",78271041,"L"
314266,"2015 EDENDALE CIRCLE","KATY","TX",77450,29.7523288560001,-95.7485768339999,266,"2015 EDENDALE CIRCLE, KATY, TX, 77450","Match","Exact","2015 EDENDALE CIR, KATY, TX, 77450",96299318,"L"
314267,"2015 EMERSON ST","EVANSTON","IL",60201,42.0520417110001,-87.7013262299999,267,"2015 EMERSON ST, EVANSTON, IL, 60201","Match","Exact","2015 EMERSON ST, EVANSTON, IL, 60201",111743135,"R"
314268,"2015 EMORY ROAD","REISTERSTOWN","MD",21136,39.520023452,-76.8646214839999,268,"2015 EMORY ROAD, REISTERSTOWN, MD, 21136","Match","Exact","2015 EMORY RD, REISTERSTOWN, MD, 21136",61776706,"L"
314269,"2015 ERVING CIRCLE 5108","OCOEE","FL",34761,NA,NA,269,"2015 ERVING CIRCLE 5108, OCOEE, FL, 34761","No_Match",NA,NA,NA,NA
314270,"2015 ERVING CIRCLE","OCOEE","FL",34761,NA,NA,270,"2015 ERVING CIRCLE, OCOEE, FL, 34761","No_Match",NA,NA,NA,NA
314271,"2015 ERVING CIRLCE 5108","OCOEE","FL",34761,NA,NA,271,"2015 ERVING CIRLCE 5108, OCOEE, FL, 34761","No_Match",NA,NA,NA,NA
314272,"2015 FARM HILL COURT","STOCKBRIDGE","GA",30281,33.5153376920001,-84.256164902,272,"2015 FARM HILL COURT, STOCKBRIDGE, GA, 30281","Match","Exact","2015 FARM HILL CT, STOCKBRIDGE, GA, 30281",23213329,"L"
314273,"2015 FLETCHER ST","CHICAGO","IL",60618,41.938649793,-87.678984053,273,"2015 FLETCHER ST, CHICAGO, IL, 60618","Match","Non_Exact","2015 W FLETCHER ST, CHICAGO, IL, 60618",605236513,"L"
314274,"2015 FOSTER AVENUE APT 68","BROOKLYN","NY",11210,40.63648256,-73.958091729,274,"2015 FOSTER AVENUE APT 68, BROOKLYN, NY, 11210","Match","Exact","2015 FOSTER AVE, BROOKLYN, NY, 11210",652212824,"L"
314275,"2015 FRENCH BAYOU LANE","HENDERSONVILLE","TN",37075,36.293739289,-86.616272077,275,"2015 FRENCH BAYOU LANE, HENDERSONVILLE, TN, 37075","Match","Exact","2015 FRENCH BAYOU LN, HENDERSONVILLE, TN, 37075",650582299,"R"
314276,"2015 GLEASON AVE  1ST FL","BRONX","NY",10472,40.8311680830001,-73.856752629,276,"2015 GLEASON AVE  1ST FL, BRONX, NY, 10472","Match","Exact","2015 GLEASON AVE, BRONX, NY, 10472",80305993,"L"
314277,"2015 GLEN PARK DRIVE","MISSOURI CITY","TX",77489,29.6141413710001,-95.543281153,277,"2015 GLEN PARK DRIVE, MISSOURI CITY, TX, 77489","Match","Exact","2015 GLEN PARK DR, MISSOURI CITY, TX, 77489",636742794,"R"
314278,"2015 GODBY ROAD NUMBER 16","COLLEGE PARK","GA",30349,33.615047071,-84.454891768,278,"2015 GODBY ROAD NUMBER 16, COLLEGE PARK, GA, 30349","Match","Exact","2015 GODBY RD, COLLEGE PARK, GA, 30349",23324493,"R"
314279,"2015 GORDEN RIDGE DR","E.  STROUDSBURG","PA",18301,41.0859114560001,-75.195574477,279,"2015 GORDEN RIDGE DR, E.  STROUDSBURG, PA, 18301","Match","Non_Exact","2015 GORDON RIDGE DR, E STROUDSBURG, PA, 18302",629881782,"R"
314280,"2015 GRAEFENBURG ROAD","LAWRENCEBURG","KY",40342,38.1063196150001,-84.959553866,280,"2015 GRAEFENBURG ROAD, LAWRENCEBURG, KY, 40342","Match","Exact","2015 GRAEFENBURG RD, LAWRENCEBURG, KY, 40342",43456502,"L"
314281,"2015 GRAND AVENUE","BRONX","NY",10453,40.8535356520001,-73.909827725,281,"2015 GRAND AVENUE, BRONX, NY, 10453","Match","Exact","2015 GRAND AVE, BRONX, NY, 10453",80299669,"L"
314282,"2015 GREENBROOK PARKWAY APT A","AUSTIN","TX",78723,30.305776716,-97.690790878,282,"2015 GREENBROOK PARKWAY APT A, AUSTIN, TX, 78723","Match","Exact","2015 GREENBROOK PKWY, AUSTIN, TX, 78723",63951137,"R"
314283,"2015 GRESHAM LANE","DAVIDSONVILLE","MD",21035,38.9100190820001,-76.599891207,283,"2015 GRESHAM LANE, DAVIDSONVILLE, MD, 21035","Match","Exact","2015 GRESHAM LN, DAVIDSONVILLE, MD, 21035",68210550,"R"
314284,"2015 GRUENE RD","NEW BRAUNFELS","TX",78130,29.7255008170001,-98.119218406,284,"2015 GRUENE RD, NEW BRAUNFELS, TX, 78130","Match","Exact","2015 GRUENE RD, NEW BRAUNFELS, TX, 78130",641470914,"L"
314285,"2015 GUMBRANCH APT 1106","JACKSONVILLE","NC",28540,34.7949744490001,-77.4365567259999,285,"2015 GUMBRANCH APT 1106, JACKSONVILLE, NC, 28540","Match","Non_Exact","2015 GUM BRANCH RD, JACKSONVILLE, NC, 28540",14037115,"L"
314286,"2015 HANCOCK STREET UNIT 110","SAN DIEGO","CA",92110,32.744254303,-117.188158096,286,"2015 HANCOCK STREET UNIT 110, SAN DIEGO, CA, 92110","Match","Exact","2015 HANCOCK ST, SAN DIEGO, CA, 92110",195755713,"L"
314287,"2015 HARBERT","MEMPHIS","TN",38104,35.1292992420001,-89.994593923,287,"2015 HARBERT, MEMPHIS, TN, 38104","Match","Non_Exact","2015 HARBERT AVE, MEMPHIS, TN, 38104",72912659,"R"
314288,"2015 HELMSDALE LANE","AUGUSTA","GA",30909,33.5192669400001,-82.0291374889999,288,"2015 HELMSDALE LANE, AUGUSTA, GA, 30909","Match","Exact","2015 HELMSDALE LN, AUGUSTA, GA, 30909",55654935,"R"
314289,"2015 HICKORY DR","CLEVELAND","TN",37311,35.1779037470001,-84.882412975,289,"2015 HICKORY DR, CLEVELAND, TN, 37311","Match","Non_Exact","2015 HICKORY DR NW, CLEVELAND, TN, 37311",57571283,"L"
314290,"2015 HIGHWAY 22","KALONA","IA",52247,41.485752683,-91.7434443129999,290,"2015 HIGHWAY 22, KALONA, IA, 52247","Match","Non_Exact","2015 STATE HWY 22, KALONA, IA, 52247",84188616,"R"
314291,"2015 HILL STREET","NEW SMYRNA BEACH","FL",32169,29.0234622040001,-80.887644458,291,"2015 HILL STREET, NEW SMYRNA BEACH, FL, 32169","Match","Exact","2015 HILL ST, NEW SMYRNA BEACH, FL, 32169",94534499,"L"
314292,"2015 HOUNDS LAKE COURT","KISSIMMEE","FL",34741,28.312791286,-81.425042135,292,"2015 HOUNDS LAKE COURT, KISSIMMEE, FL, 34741","Match","Exact","2015 HOUNDS LAKE CT, KISSIMMEE, FL, 34741",176655482,"L"
314293,"2015 HULSEY PLACE","BIRMINGHAM","AL",35216,33.447016965,-86.79651541,293,"2015 HULSEY PLACE, BIRMINGHAM, AL, 35216","Match","Exact","2015 HULSEY PL, BIRMINGHAM, AL, 35216",646166697,"L"
314294,"2015 HUNTERBROOK ROAD","YORKTOWN HEIGHTS","NY",10598,41.2703850280001,-73.8385925969999,294,"2015 HUNTERBROOK ROAD, YORKTOWN HEIGHTS, NY, 10598","Match","Exact","2015 HUNTERBROOK RD, YORKTOWN HEIGHTS, NY, 10598",617946406,"L"
314295,"2015 IRONGATE DRIVE","ARLINGTON","TX",76012,32.757074894,-97.1407460409999,295,"2015 IRONGATE DRIVE, ARLINGTON, TX, 76012","Match","Exact","2015 IRONGATE DR, ARLINGTON, TX, 76012",101904949,"R"
314296,"2015 IVY LANE","CUMMING","GA",30041,34.225651188,-84.0972523359999,296,"2015 IVY LANE, CUMMING, GA, 30041","Match","Exact","2015 IVY LN, CUMMING, GA, 30041",70184139,"L"
314297,"2015 JANIS DR","MEMPHIS","TN",38116,35.0282866150001,-89.996708323,297,"2015 JANIS DR, MEMPHIS, TN, 38116","Match","Exact","2015 JANIS DR, MEMPHIS, TN, 38116",72919266,"R"
314298,"2015 KALAMAZOO ST SE","GRAND RAPIDS","MI",49507,42.92672701,-85.633740254,298,"2015 KALAMAZOO ST SE, GRAND RAPIDS, MI, 49507","Match","Non_Exact","2015 KALAMAZOO AVE SE, GRAND RAPIDS, MI, 49507",12462268,"R"
314299,"2015 KANSAS DR","BROOKINGS","SD",57006,44.3097581910001,-96.771358279,299,"2015 KANSAS DR, BROOKINGS, SD, 57006","Match","Exact","2015 KANSAS DR, BROOKINGS, SD, 57006",193622917,"L"
314300,"2015 KAY CIR","COLUMBUS","GA",31907,32.4816962780001,-84.9360356189999,300,"2015 KAY CIR, COLUMBUS, GA, 31907","Match","Exact","2015 KAY CIR, COLUMBUS, GA, 31907",98947572,"L"
314301,"2015 LAKE DRIVE","LAURINBURG","NC",28352,34.7465487210001,-79.491234151,301,"2015 LAKE DRIVE, LAURINBURG, NC, 28352","Match","Exact","2015 LAKE DR, LAURINBURG, NC, 28352",25789469,"L"
314302,"2015 LARKSPUR RIDGE DRIVE","BROOKINGS","SD",57006,44.282011401,-96.805394934,302,"2015 LARKSPUR RIDGE DRIVE, BROOKINGS, SD, 57006","Match","Exact","2015 LARKSPUR RIDGE DR, BROOKINGS, SD, 57006",624527248,"L"
314303,"2015 LAURA AVE","SAN LEANDRO","CA",94577,37.71920966,-122.178874862,303,"2015 LAURA AVE, SAN LEANDRO, CA, 94577","Match","Exact","2015 LAURA AVE, SAN LEANDRO, CA, 94577",125010182,"L"
314304,"2015 LONG LEAF LAKE CIRCLE","BESSAMER","AL",35022,33.2826083200001,-86.9500567539999,304,"2015 LONG LEAF LAKE CIRCLE, BESSAMER, AL, 35022","Match","Non_Exact","2015 LONG LEAF LAKE CIR, BESSEMER, AL, 35022",618048268,"L"
314305,"2015 LORRAINE DR SE","OLYMPIA","WA",98501,46.9219156710001,-122.876094452,305,"2015 LORRAINE DR SE, OLYMPIA, WA, 98501","Match","Exact","2015 LORRAINE DR SE, OLYMPIA, WA, 98501",627637615,"L"
314306,"2015 MABRY MILL RD","HOUSTON","TX",77062,29.5914820520001,-95.141447883,306,"2015 MABRY MILL RD, HOUSTON, TX, 77062","Match","Exact","2015 MABRY MILL RD, HOUSTON, TX, 77062",96582617,"L"
314307,"2015 MADISON STREET UNIT 101","HOLLYWOOD","FL",33020,26.0067996280001,-80.1472433009999,307,"2015 MADISON STREET UNIT 101, HOLLYWOOD, FL, 33020","Match","Exact","2015 MADISON ST, HOLLYWOOD, FL, 33020",114732511,"R"
314308,"2015 MANCHESTER AVE","EDMOND","OK",73034,35.724447577,-97.454597789,308,"2015 MANCHESTER AVE, EDMOND, OK, 73034","Match","Exact","2015 MANCHESTER AVE, EDMOND, OK, 73034",606097351,"L"
314309,"2015 MAPLE LEAF PLACE","UPPER MARLBORO","MD",20774,38.861462622,-76.7856710789999,309,"2015 MAPLE LEAF PLACE, UPPER MARLBORO, MD, 20774","Match","Non_Exact","2015 MAPLELEAF PL, UPPER MARLBORO, MD, 20774",76333735,"L"
314310,"2015 MARMION AVENUE","BRONX","NY",10460,40.8443647930001,-73.8859355279999,310,"2015 MARMION AVENUE, BRONX, NY, 10460","Match","Exact","2015 MARMION AVE, BRONX, NY, 10460",80301805,"L"
314311,"2015 MARTIN L KING BLVD","NEW ORLEANS","LA",70113,29.941811037,-90.0801417069999,311,"2015 MARTIN L KING BLVD, NEW ORLEANS, LA, 70113","Match","Exact","2015 MARTIN LUTHER KING JR BLVD, NEW ORLEANS, LA, 70113",191713663,"R"
314312,"2015 MARTIN L KING BLVD","NEW ORLEQANS","LA",70113,29.941811037,-90.0801417069999,312,"2015 MARTIN L KING BLVD, NEW ORLEQANS, LA, 70113","Match","Non_Exact","2015 MARTIN LUTHER KING JR BLVD, NEW ORLEANS, LA, 70113",191713663,"R"
314313,"2015 MAYFIELD VILLA DR","ARLINGTON","TX",76014,32.6904354590001,-97.0751210829999,313,"2015 MAYFIELD VILLA DR, ARLINGTON, TX, 76014","Match","Exact","2015 MAYFIELD VILLA DR, ARLINGTON, TX, 76014",637603258,"R"
314314,"2015 MCCREA ROAD","THOUSAND OAKS","CA",91362,34.228127054,-118.8419911,314,"2015 MCCREA ROAD, THOUSAND OAKS, CA, 91362","Match","Exact","2015 MCCREA RD, THOUSAND OAKS, CA, 91362",109975437,"L"
314315,"2015 MCKENZIE ROAD","MESQUITE","TX",75181,32.718101243,-96.574082404,315,"2015 MCKENZIE ROAD, MESQUITE, TX, 75181","Match","Exact","2015 MCKENZIE RD, MESQUITE, TX, 75181",103173807,"L"
314316,"2015 MEADOWSIDE DR","EUSTIS","FL",32726,28.8755643150001,-81.727854607,316,"2015 MEADOWSIDE DR, EUSTIS, FL, 32726","Match","Exact","2015 MEADOWSIDE DR, EUSTIS, FL, 32726",94158841,"L"
314317,"2015 MING DR","EDGECLIFF VILLAGE","TX",76134,32.6535699570001,-97.349038967,317,"2015 MING DR, EDGECLIFF VILLAGE, TX, 76134","Match","Exact","2015 MING DR, EDGECLIFF VILLAGE, TX, 76134",101894234,"L"
314318,"2015 MOUNTAIN ASPEN LN","KINGWOOD","TX",77345,30.0495754510001,-95.144328227,318,"2015 MOUNTAIN ASPEN LN, KINGWOOD, TX, 77345","Match","Exact","2015 MOUNTAIN ASPEN LN, KINGWOOD, TX, 77345",627517139,"L"
314319,"2015 N 119TH STREET","WAUWATOSA","WI",53226,43.056468443,-88.0612836349999,319,"2015 N 119TH STREET, WAUWATOSA, WI, 53226","Match","Exact","2015 N 119TH ST, WAUWATOSA, WI, 53226",77728696,"L"
314320,"2015 N 49TH ST","OMAHA","NE",68104,41.278019897,-95.987814135,320,"2015 N 49TH ST, OMAHA, NE, 68104","Match","Exact","2015 N 49TH ST, OMAHA, NE, 68104",116978818,"R"
314321,"2015 N 50TH ST 44","PHOENIX","AZ",85008,33.469567876,-111.97403334,321,"2015 N 50TH ST 44, PHOENIX, AZ, 85008","Match","Non_Exact","2015 N 50TH ST, PHOENIX, AZ, 85008",128225259,"R"
314322,"2015 N 77TH DR","PHOENIX","AZ",85035,33.4702497160001,-112.225081155,322,"2015 N 77TH DR, PHOENIX, AZ, 85035","Match","Exact","2015 N 77TH DR, PHOENIX, AZ, 85035",627888852,"L"
314323,"2015 N 850 E","NORTH OGDEN","UT",84414,41.2936296880001,-111.95474543,323,"2015 N 850 E, NORTH OGDEN, UT, 84414","Match","Exact","2015 N 850 E, NORTH OGDEN, UT, 84414",647955962,"L"
314324,"2015 N HWY 25","TRAVELERS REST","SC",29690,35.043495755,-82.429896406,324,"2015 N HWY 25, TRAVELERS REST, SC, 29690","Match","Non_Exact","2015 US HWY 25, TRAVELERS REST, SC, 29690",641037109,"R"
314325,"2015 N LINCOLN ST","ARLINGTON","VA",22207,38.894921025,-77.103284155,325,"2015 N LINCOLN ST, ARLINGTON, VA, 22207","Match","Exact","2015 N LINCOLN ST, ARLINGTON, VA, 22207",76469428,"R"
314326,"2015 N MONROE ST","SPOKANE","WA",99205,47.675928126,-117.426680727,326,"2015 N MONROE ST, SPOKANE, WA, 99205","Match","Exact","2015 N MONROE ST, SPOKANE, WA, 99205",605656112,"L"
314327,"2015 N NAVAJO","FLAGSTAFF","AZ",86001,35.219197691,-111.653308464,327,"2015 N NAVAJO, FLAGSTAFF, AZ, 86001","Match","Non_Exact","2015 N NAVAJO DR, FLAGSTAFF, AZ, 86001",188862615,"L"
314328,"2015 N SHOREWOOD AVENUE","UPLAND","CA",91784,34.1365645270001,-117.666320785,328,"2015 N SHOREWOOD AVENUE, UPLAND, CA, 91784","Match","Exact","2015 SHOREWOOD AVE, UPLAND, CA, 91784",144669383,"L"
314329,"2015 NE 28TH PL","RENTON","WA",98056,47.5169568700001,-122.191876753,329,"2015 NE 28TH PL, RENTON, WA, 98056","Match","Non_Exact","2015 NE 28TH ST, RENTON, WA, 98056",186609045,"R"
314330,"2015 NE TRISHA DRIVE","HILLSBORO","OR",97124,45.5401840550001,-122.980652298,330,"2015 NE TRISHA DRIVE, HILLSBORO, OR, 97124","Match","Exact","2015 NE TRISHA DR, HILLSBORO, OR, 97124",158230082,"L"
314331,"2015 NEIL AVE","COLUMBUS","OH",43210,40.0020978380001,-83.01550451,331,"2015 NEIL AVE, COLUMBUS, OH, 43210","Match","Exact","2015 NEIL AVE, COLUMBUS, OH, 43210",649632047,"L"
314332,"2015 NELSON MILL ROAD","JARRETTSVILLE","MD",21084,39.6293400210001,-76.482073532,332,"2015 NELSON MILL ROAD, JARRETTSVILLE, MD, 21084","Match","Exact","2015 NELSON MILL RD, JARRETTSVILLE, MD, 21084",647526697,"R"
314333,"2015 NEW LINDEN ROAD","NEWPORT","KY",41071,39.0790539330001,-84.480019845,333,"2015 NEW LINDEN ROAD, NEWPORT, KY, 41071","Match","Exact","2015 NEW LINDEN RD, NEWPORT, KY, 41071",104447748,"L"
314334,"2015 NORTH HYDRAULIC","WICHITA","KS",67214,37.71939924,-97.3173391029999,334,"2015 NORTH HYDRAULIC, WICHITA, KS, 67214","Match","Non_Exact","2015 N HYDRAULIC AVE, WICHITA, KS, 67214",115636230,"L"
314335,"2015 NORTH MAIN STREET","WATERBURY","CT",6704,41.578462874,-73.028115981,335,"2015 NORTH MAIN STREET, WATERBURY, CT, 6704","Match","Exact","2015 N MAIN ST, WATERBURY, CT, 06704",3727250,"L"
314336,"2015 NORTHLANDS DR SE","ALBUQUERQUE","NM",87123,35.0462733030001,-106.515419531,336,"2015 NORTHLANDS DR SE, ALBUQUERQUE, NM, 87123","Match","Exact","2015 NORTHLANDS DR SE, ALBUQUERQUE, NM, 87123",624595120,"L"
314337,"2015 NW FLANDERS STREET","PORTLAND","OR",97209,45.525620761,-122.692768628,337,"2015 NW FLANDERS STREET, PORTLAND, OR, 97209","Match","Exact","2015 NW FLANDERS ST, PORTLAND, OR, 97209",157498449,"R"
314338,"2015 OAK PARTK CIR NE","ATLANTA","GA",30324,NA,NA,338,"2015 OAK PARTK CIR NE, ATLANTA, GA, 30324","No_Match",NA,NA,NA,NA
314339,"2015 OLD LINCOLN HWY","CRESCENT","IA",51526,41.3748766430001,-95.856851507,339,"2015 OLD LINCOLN HWY, CRESCENT, IA, 51526","Match","Exact","2015 OLD LINCOLN HWY, CRESCENT, IA, 51526",653235215,"L"
314340,"2015 OLEANDER ST","BATON ROUGE","LA",70806,30.442100704,-91.167722649,340,"2015 OLEANDER ST, BATON ROUGE, LA, 70806","Match","Exact","2015 OLEANDER ST, BATON ROUGE, LA, 70806",92182820,"L"
314341,"2015 PACER TRAIL","BEAVER CREEK","OH",45434,39.729339312,-84.010615871,341,"2015 PACER TRAIL, BEAVER CREEK, OH, 45434","Match","Non_Exact","2015 PACER TRL, BEAVERCREEK, OH, 45434",143420554,"R"
314342,"2015 PADDINGTON DRIVE","PARK CITY","UT",84060,40.6631377350001,-111.488744925,342,"2015 PADDINGTON DRIVE, PARK CITY, UT, 84060","Match","Exact","2015 PADDINGTON DR, PARK CITY, UT, 84060",607310156,"L"
314343,"2015 PEACE COURT","ST. LEONARD","MD",20685,38.448713351,-76.522731124,343,"2015 PEACE COURT, ST. LEONARD, MD, 20685","Match","Exact","2015 PEACE CT, SAINT LEONARD, MD, 20685",78177627,"R"
314344,"2015 PERNOD CT","APOPKA","FL",32703,28.6465724,-81.484207421,344,"2015 PERNOD CT, APOPKA, FL, 32703","Match","Exact","2015 PERNOD CT, APOPKA, FL, 32703",94342866,"L"
314345,"2015 PORT CARDIFF","SAN DEIGO","CA",91913,32.658216478,-116.980487531,345,"2015 PORT CARDIFF, SAN DEIGO, CA, 91913","Match","Non_Exact","2015 PORT CARDIFF, CHULA VISTA, CA, 91913",195416766,"R"
314346,"2015 POWERS FERRY ROAD SE","MARIETTA","GA",30067,33.902338118,-84.451614325,346,"2015 POWERS FERRY ROAD SE, MARIETTA, GA, 30067","Match","Exact","2015 POWERS FERRY RD SE, MARIETTA, GA, 30067",17252970,"L"
314347,"2015 PROBST CT","CEDAR RAPIDS","IA",52404,41.9581281210001,-91.704561154,347,"2015 PROBST CT, CEDAR RAPIDS, IA, 52404","Match","Non_Exact","2015 PROBST CT SW, CEDAR RAPIDS, IA, 52404",613174720,"L"
314348,"2015 RACCOON ROAD","ROBINSON","KS",66532,39.799582285,-95.415171471,348,"2015 RACCOON ROAD, ROBINSON, KS, 66532","Match","Exact","2015 RACCOON RD, ROBINSON, KS, 66532",9769862,"L"
314349,"2015 REBEL ROAD","VIDOR","TX",77662,NA,NA,349,"2015 REBEL ROAD, VIDOR, TX, 77662","No_Match",NA,NA,NA,NA
314350,"2015 REBEL","VIDOR","TX",77662,NA,NA,350,"2015 REBEL, VIDOR, TX, 77662","No_Match",NA,NA,NA,NA
314351,"2015 REDDINGTON RD","HOUSTON","TX",77478,29.6516611120001,-95.610745734,351,"2015 REDDINGTON RD, HOUSTON, TX, 77478","Match","Non_Exact","2015 REDDINGTON RD, SUGAR LAND, TX, 77478",78334280,"L"
314352,"2015 REDWOOD AVENUE","REDWOOD CITY","CA",94061,37.4645699100001,-122.237372191,352,"2015 REDWOOD AVENUE, REDWOOD CITY, CA, 94061","Match","Exact","2015 REDWOOD AVE, REDWOOD CITY, CA, 94061",192362723,"L"
314353,"2015 RESERVE CIR","HARRISONBURG","VA",22801,38.401753994,-78.869056474,353,"2015 RESERVE CIR, HARRISONBURG, VA, 22801","Match","Exact","2015 RESERVE CIR, HARRISONBURG, VA, 22801",651787799,"L"
314354,"2015 REYNOLDS DRIVE","ATLANTA","GA",30315,33.699408674,-84.400534089,354,"2015 REYNOLDS DRIVE, ATLANTA, GA, 30315","Match","Non_Exact","2015 REYNOLDS DR SW, ATLANTA, GA, 30315",17346787,"R"
314355,"2015 RICH SMITH STREET APT 201","CONWAY","AR",72032,35.099765614,-92.3992857329999,355,"2015 RICH SMITH STREET APT 201, CONWAY, AR, 72032","Match","Non_Exact","2015 RICH SMITH LN, CONWAY, AR, 72032",617916093,"R"
314356,"2015 RIVERVIEW AVENUE","N CHARLESTON","SC",29405,32.8417807750001,-79.9606563469999,356,"2015 RIVERVIEW AVENUE, N CHARLESTON, SC, 29405","Match","Exact","2015 RIVERVIEW AVE, N CHARLESTON, SC, 29405",108805175,"L"
314357,"2015 ROOSEVELT AVE","RAPID CITY","SD",57702,44.0656836490001,-103.23712997,357,"2015 ROOSEVELT AVE, RAPID CITY, SD, 57702","Match","Non_Exact","2015 ROOSEVELT AVE, RAPID CITY, SD, 57701",205508403,"R"
314358,"2015 ROUTE 100","MACUNGIE","PA",18062,40.5309970220001,-75.6002804509999,358,"2015 ROUTE 100, MACUNGIE, PA, 18062","Match","Non_Exact","2015 STATE RTE 100, MACUNGIE, PA, 18062",80785825,"R"
314359,"2015 ROYAL LN SUITE 470","DALLAS","TX",75229,32.895690582,-96.9102688629999,359,"2015 ROYAL LN SUITE 470, DALLAS, TX, 75229","Match","Exact","2015 ROYAL LN, DALLAS, TX, 75229",103206430,"L"
314360,"2015 S 4TH AVE","CHEYENNE","WY",82007,41.0992948420001,-104.816865597,360,"2015 S 4TH AVE, CHEYENNE, WY, 82007","Match","Exact","2015 S 4TH AVE, CHEYENNE, WY, 82007",160150443,"L"
314361,"2015 S 500 W","SALT LAKE CITY","UT",84105,40.726250921,-111.876757985,361,"2015 S 500 W, SALT LAKE CITY, UT, 84105","Match","Non_Exact","2015 S 500 E, SALT LAKE CITY, UT, 84105",652893005,"L"
314362,"2015 S ASH PL","BROKEN ARROW","OK",74012,36.029814523,-95.792994709,362,"2015 S ASH PL, BROKEN ARROW, OK, 74012","Match","Exact","2015 S ASH PL, BROKEN ARROW, OK, 74012",166465275,"R"
314363,"2015 S FINLEY","LOMBARD","IL",60148,NA,NA,363,"2015 S FINLEY, LOMBARD, IL, 60148","Tie",NA,NA,NA,NA
314364,"2015 S HENERER RD","HENEFER","UT",84033,NA,NA,364,"2015 S HENERER RD, HENEFER, UT, 84033","No_Match",NA,NA,NA,NA
314365,"2015 S PARK PLACE","ATLANTA","GA",30339,33.90258312,-84.477862912,365,"2015 S PARK PLACE, ATLANTA, GA, 30339","Match","Non_Exact","2015 S PARK PL NW, ATLANTA, GA, 30339",649418427,"L"
314366,"2015 SAINT MATTHEWS ROAD","SWANSWA","SC",29160,33.7370854170001,-81.0216412079999,366,"2015 SAINT MATTHEWS ROAD, SWANSWA, SC, 29160","Match","Non_Exact","2015 SAINT MATTHEWS RD, SWANSEA, SC, 29160",70045350,"R"
314367,"2015 SAINT MICHAEL DRIVE APT 5","LEXINGTON","KY",40502,38.026313637,-84.458678101,367,"2015 SAINT MICHAEL DRIVE APT 5, LEXINGTON, KY, 40502","Match","Exact","2015 ST MICHAEL DR, LEXINGTON, KY, 40502",31927199,"L"
314368,"2015 SAND LAKE DRIVE","ATLANTA","GA",30331,33.6997404050001,-84.5434944199999,368,"2015 SAND LAKE DRIVE, ATLANTA, GA, 30331","Match","Non_Exact","2015 SANDLAKE DR, ATLANTA, GA, 30331",618349840,"R"
314369,"2015 SANDGATE CIR","COLLEGE PARK","GA",30349,33.589072711,-84.4596729089999,369,"2015 SANDGATE CIR, COLLEGE PARK, GA, 30349","Match","Non_Exact","2015 SANDGATE CIR SW, COLLEGE PARK, GA, 30349",17360740,"R"
314370,"2015 SANDRINGHAM DRIVE","TOLEDO","OH",43615,41.659086517,-83.652003868,370,"2015 SANDRINGHAM DRIVE, TOLEDO, OH, 43615","Match","Exact","2015 SANDRINGHAM DR, TOLEDO, OH, 43615",33934681,"L"
314371,"2015 SE 11TH AVE APT 1","PORTLAND","OR",97214,45.50850425,-122.654721586,371,"2015 SE 11TH AVE APT 1, PORTLAND, OR, 97214","Match","Non_Exact","2015 SE 11TH AVE, PORTLAND, OR, 97214",157508430,"R"
314372,"2015 SHADOW PARK DRIVE","KATY","TX",77494,29.7522858030001,-95.768017109,372,"2015 SHADOW PARK DRIVE, KATY, TX, 77494","Match","Exact","2015 SHADOW PARK DR, KATY, TX, 77494",78325599,"R"
314373,"2015 SIXTH AVE SP 137","CLARKSTON","WA",99403,46.3852940630001,-117.081991364,373,"2015 SIXTH AVE SP 137, CLARKSTON, WA, 99403","Match","Exact","2015 6TH AVE, CLARKSTON, WA, 99403",639095542,"L"
314374,"2015 SOUTH 8TH","QUINCY","IL",62305,39.9069495900001,-91.403201098,374,"2015 SOUTH 8TH, QUINCY, IL, 62305","Match","Non_Exact","2015 S 8TH ST, QUINCY, IL, 62305",35080659,"R"
314375,"2015 SOUTH TUTTLE AVE","SARASOTA","FL",34239,27.315321311,-82.514010624,375,"2015 SOUTH TUTTLE AVE, SARASOTA, FL, 34239","Match","Exact","2015 S TUTTLE AVE, SARASOTA, FL, 34239",16434010,"L"
314376,"2015 SOUTHSIDE TERRACE","DALLAS","TX",75232,32.660710807,-96.852229096,376,"2015 SOUTHSIDE TERRACE, DALLAS, TX, 75232","Match","Non_Exact","2015 SOUTHSIDE TERRACE DR, DALLAS, TX, 75232",102993437,"R"
314377,"2015 SPRING MIST TERRACE","LAWRENCEVILLE","GA",30043,34.01597947,-84.001536937,377,"2015 SPRING MIST TERRACE, LAWRENCEVILLE, GA, 30043","Match","Exact","2015 SPRING MIST TER, LAWRENCEVILLE, GA, 30043",636286181,"L"
314378,"2015 SPRINGS ROAD","VALLEJO","CA",94591,38.106021012,-122.218812054,378,"2015 SPRINGS ROAD, VALLEJO, CA, 94591","Match","Exact","2015 SPRINGS RD, VALLEJO, CA, 94591",192569781,"R"
314379,"2015 ST ALBANS ST","PHILADELPHIA","PA",19146,39.942487597,-75.1759654959999,379,"2015 ST ALBANS ST, PHILADELPHIA, PA, 19146","Match","Exact","2015 SAINT ALBANS ST, PHILADELPHIA, PA, 19146",131407214,"R"
314380,"2015 ST ANN ST","OWENSBORO","KY",42301,NA,NA,380,"2015 ST ANN ST, OWENSBORO, KY, 42301","No_Match",NA,NA,NA,NA
314381,"2015 STERLING DRIVE","MCDONALD","PA",15057,40.363385942,-80.183250479,381,"2015 STERLING DRIVE, MCDONALD, PA, 15057","Match","Non_Exact","2015 STERLING DR, MC DONALD, PA, 15057",645566011,"L"
314382,"2015 STOCKTON ST APT 2","SAN FRANCISCO","CA",94133,37.804263049,-122.409959325,382,"2015 STOCKTON ST APT 2, SAN FRANCISCO, CA, 94133","Match","Exact","2015 STOCKTON ST, SAN FRANCISCO, CA, 94133",192280379,"L"
314383,"2015 SUDBURY DR","HOFFMAN ESTATES","IL",60619,42.0577892850001,-88.129455308,383,"2015 SUDBURY DR, HOFFMAN ESTATES, IL, 60619","Match","Non_Exact","2015 SUDBURY DR, HOFFMAN EST, IL, 60169",111691204,"L"
314384,"2015 SULLIVAN TRAIL","EASTON","PA",18040,40.719866176,-75.223349731,384,"2015 SULLIVAN TRAIL, EASTON, PA, 18040","Match","Exact","2015 SULLIVAN TRL, EASTON, PA, 18040",650025214,"L"
314385,"2015 SUNBEND FALLS","SAN ANTONIO","TX",78224,29.3348893190001,-98.539490734,385,"2015 SUNBEND FALLS, SAN ANTONIO, TX, 78224","Match","Exact","2015 SUNBEND FALLS, SAN ANTONIO, TX, 78224",101705949,"L"
314386,"2015 SW 101ST LN","MIRAMAR","FL",33025,25.9913575050001,-80.2810477629999,386,"2015 SW 101ST LN, MIRAMAR, FL, 33025","Match","Exact","2015 SW 101ST LN, MIRAMAR, FL, 33025",114798356,"R"
314387,"2015 SW 16TH AVENUE","GAINESVILLE","FL",32610,29.634614503,-82.3491408309999,387,"2015 SW 16TH AVENUE, GAINESVILLE, FL, 32610","Match","Non_Exact","2015 SW 16TH AVE, GAINESVILLE, FL, 32608",638636468,"L"
314388,"2015 SW 21 ST","MIAMI","FL",33145,25.7522223820001,-80.227263377,388,"2015 SW 21 ST, MIAMI, FL, 33145","Match","Non_Exact","2015 SW 21ST ST, MIAMI, FL, 33145",116018863,"R"
314389,"2015 SW 69 DRIVE","GAINESVILLE","FL",32607,29.6343534970001,-82.416081338,389,"2015 SW 69 DRIVE, GAINESVILLE, FL, 32607","Match","Exact","2015 SW 69TH DR, GAINESVILLE, FL, 32607",6817415,"R"
314390,"2015 SW KNOLLCREST DRIVE","PORTLAND","OR",97051,45.505287013,-122.773859698,390,"2015 SW KNOLLCREST DRIVE, PORTLAND, OR, 97051","Match","Non_Exact","2015 SW KNOLLCREST DR, PORTLAND, OR, 97225",158187321,"R"
314391,"2015 THACKREY STREET","MANHATTAN","KS",66502,39.186974229,-96.58921328,391,"2015 THACKREY STREET, MANHATTAN, KS, 66502","Match","Non_Exact","2015 THACKERY ST, MANHATTAN, KS, 66502",27794312,"R"
314392,"2015 TORDELO PLACE","APEX","NC",27502,35.708739123,-78.9082832679999,392,"2015 TORDELO PLACE, APEX, NC, 27502","Match","Exact","2015 TORDELO PL, APEX, NC, 27502",648036875,"L"
314393,"2015 TYRE CIRCLE","LAS CRUCES","NM",88001,32.292467844,-106.744761195,393,"2015 TYRE CIRCLE, LAS CRUCES, NM, 88001","Match","Exact","2015 TYRE CIR, LAS CRUCES, NM, 88001",189546631,"L"
314394,"2015 UNION ST","BROOKLYN","NY",11212,40.666253011,-73.921551761,394,"2015 UNION ST, BROOKLYN, NY, 11212","Match","Exact","2015 UNION ST, BROOKLYN, NY, 11212",59083463,"L"
314395,"2015 UNIVERSITY AVE APT 2CS","BRONX","NY",10453,40.8549819340001,-73.910995427,395,"2015 UNIVERSITY AVE APT 2CS, BRONX, NY, 10453","Match","Exact","2015 UNIVERSITY AVE, BRONX, NY, 10453",80299643,"L"
314396,"2015 UNIVERSITY LANE","CHARLOTTE","NC",28213,NA,NA,396,"2015 UNIVERSITY LANE, CHARLOTTE, NC, 28213","No_Match",NA,NA,NA,NA
314397,"2015 VAITOGI ROAD","PAGO PAGO","AS",96799,NA,NA,397,"2015 VAITOGI ROAD, PAGO PAGO, AS, 96799","No_Match",NA,NA,NA,NA
314398,"2015 VIA ESPLANADE","PUNTA GORDA","FL",33950,26.91093635,-82.075525294,398,"2015 VIA ESPLANADE, PUNTA GORDA, FL, 33950","Match","Exact","2015 VIA ESPLANADE, PUNTA GORDA, FL, 33950",640860244,"R"
314399,"2015 VISCOUNT ROAD","ORLANDO","FL",32809,28.4564021410001,-81.406174423,399,"2015 VISCOUNT ROAD, ORLANDO, FL, 32809","Match","Non_Exact","2015 VISCOUNT ROW, ORLANDO, FL, 32809",94290474,"R"
314400,"2015 W 37TH ST","KEARNEY","NE",68847,NA,NA,400,"2015 W 37TH ST, KEARNEY, NE, 68847","No_Match",NA,NA,NA,NA
314401,"2015 W COLORADO BLVD","DALLAS","TX",75208,32.7602105230001,-96.854989534,401,"2015 W COLORADO BLVD, DALLAS, TX, 75208","Match","Exact","2015 W COLORADO BLVD, DALLAS, TX, 75208",102944792,"R"
314402,"2015 W CONCORD PL APT C","CHICAGO","IL",60647,41.9115543620001,-87.678182179,402,"2015 W CONCORD PL APT C, CHICAGO, IL, 60647","Match","Non_Exact","2015 W CONCORD PL, CHICAGO, IL, 60647",605026614,"L"
314403,"2015 W FLETCHER ST","CHICAGO","IL",60618,41.9386497850001,-87.6789846949999,403,"2015 W FLETCHER ST, CHICAGO, IL, 60618","Match","Exact","2015 W FLETCHER ST, CHICAGO, IL, 60618",605236513,"L"
314404,"2015 W UNIVERSITY ST APT A408","SPRINGFIELD","MO",65807,37.1838490050001,-93.3190153909999,404,"2015 W UNIVERSITY ST APT A408, SPRINGFIELD, MO, 65807","Match","Exact","2015 UNIVERSITY ST, SPRINGFIELD, MO, 65807",641436519,"R"
314405,"2015 WASHINGTON ST","ELK HORN","IA",51531,41.5917994930001,-95.057737975,405,"2015 WASHINGTON ST, ELK HORN, IA, 51531","Match","Exact","2015 WASHINGTON ST, ELK HORN, IA, 51531",61801575,"R"
314406,"2015 WB CLARK ROAD","CREEDMOOR","NC",27522,36.1149460870001,-78.719523366,406,"2015 WB CLARK ROAD, CREEDMOOR, NC, 27522","Match","Exact","2015 WB CLARK RD, CREEDMOOR, NC, 27522",637913083,"L"
314407,"2015 WEBER DRIVE","DISTRICT HEIGHTS","MD",20747,38.8644638580001,-76.906962162,407,"2015 WEBER DRIVE, DISTRICT HEIGHTS, MD, 20747","Match","Exact","2015 WEBER DR, DISTRICT HEIGHTS, MD, 20747",76313867,"R"
314408,"2015 WEST 18TH AVENUE","EUGENE","OR",97402,44.040484673,-123.12312057,408,"2015 WEST 18TH AVENUE, EUGENE, OR, 97402","Match","Exact","2015 W 18TH AVE, EUGENE, OR, 97402",178166110,"R"
314409,"2015 WEST MAYFIELD BLVD","SAN ANTONIO","TX",78211,29.364141278,-98.565047163,409,"2015 WEST MAYFIELD BLVD, SAN ANTONIO, TX, 78211","Match","Exact","2015 W MAYFIELD BLVD, SAN ANTONIO, TX, 78211",101519206,"R"
314410,"2015 WEST WILSON AVE","CHICAGO","IL",60625,41.9650841530001,-87.679613521,410,"2015 WEST WILSON AVE, CHICAGO, IL, 60625","Match","Exact","2015 W WILSON AVE, CHICAGO, IL, 60625",605188711,"L"
314411,"2015 WILLIAM FRANKLIN DR","FREDERICK","MD",21702,39.469907333,-77.412175587,411,"2015 WILLIAM FRANKLIN DR, FREDERICK, MD, 21702","Match","Exact","2015 WILLIAM FRANKLIN DR, FREDERICK, MD, 21702",60706654,"L"
314412,"2015 WILLOWBROOK AVE","PALMDALE","CA",93534,34.6004826760001,-118.165741738,412,"2015 WILLOWBROOK AVE, PALMDALE, CA, 93534","Match","Non_Exact","2015 WILLOWBROOK AVE, PALMDALE, CA, 93551",141836763,"R"
314413,"2015 WINCHESTER ST","OCEANSIDE","CA",92054,33.1988513680001,-117.361345822,413,"2015 WINCHESTER ST, OCEANSIDE, CA, 92054","Match","Exact","2015 WINCHESTER ST, OCEANSIDE, CA, 92054",195280985,"R"
314414,"2015 WINDEMERE CIRCLE","SCHAUMBURG","IL",60194,42.0449745430001,-88.132338005,414,"2015 WINDEMERE CIRCLE, SCHAUMBURG, IL, 60194","Match","Exact","2015 WINDEMERE CIR, SCHAUMBURG, IL, 60194",111840711,"R"
314415,"2015 WINDVALLEY CT","JEFFERSON CITY","MO",65101,38.5641417100001,-92.13201365,415,"2015 WINDVALLEY CT, JEFFERSON CITY, MO, 65101","Match","Exact","2015 WINDVALLEY CT, JEFFERSON CITY, MO, 65101",34416170,"R"
314416,"2015 WINN CREEK DRIVE","HAWRIVER","NC",27258,36.0043921820001,-79.3241424399999,416,"2015 WINN CREEK DRIVE, HAWRIVER, NC, 27258","Match","Non_Exact","2015 WINN CREEK DR, HAW RIVER, NC, 27258",71677832,"L"
314417,"2015 WOLCOTT DRIVE","COLUMBIA","MO",65202,38.972141085,-92.3238917039999,417,"2015 WOLCOTT DRIVE, COLUMBIA, MO, 65202","Match","Exact","2015 WOLCOTT DR, COLUMBIA, MO, 65202",23480166,"L"
314418,"2015 WOODBINE AVE","RIDGEWOOD","NY",11385,NA,NA,418,"2015 WOODBINE AVE, RIDGEWOOD, NY, 11385","No_Match",NA,NA,NA,NA
314419,"2015 WOODLAWN AVE","NIAGARA FALLS","NY",14301,43.0988725720001,-79.037462465,419,"2015 WOODLAWN AVE, NIAGARA FALLS, NY, 14301","Match","Exact","2015 WOODLAWN AVE, NIAGARA FALLS, NY, 14301",48686364,"R"
314420,"2015 WOODSIDE COURT","MITCHELLVILLE","MD",20721,NA,NA,420,"2015 WOODSIDE COURT, MITCHELLVILLE, MD, 20721","No_Match",NA,NA,NA,NA
314421,"20150 589TH  AVE","MANKATO","MN",56001,44.1259718700001,-93.9289296109999,421,"20150 589TH  AVE, MANKATO, MN, 56001","Match","Exact","20150 589TH AVE, MANKATO, MN, 56001",28121618,"L"
314422,"20150 E SONOQUI BLVD","QUEEN CREEK","AZ",85241,33.242378015,-111.648866676,422,"20150 E SONOQUI BLVD, QUEEN CREEK, AZ, 85241","Match","Non_Exact","20150 E SONOQUI BLVD, QUEEN CREEK, AZ, 85142",244004227,"L"
314423,"20150 WELBORN ROAD","N FORT MYERS","FL",33917,26.7595551750001,-81.820011923,423,"20150 WELBORN ROAD, N FORT MYERS, FL, 33917","Match","Exact","20150 WELBORN RD, N FORT MYERS, FL, 33917",118022905,"R"
314424,"20151 BRAVADA ST UNIT 4","ESTERO","FL",33928,26.4462869980001,-81.819782413,424,"20151 BRAVADA ST UNIT 4, ESTERO, FL, 33928","Match","Exact","20151 BRAVADA ST, ESTERO, FL, 33928",618018945,"R"
314425,"20151 E SONOQUI BLVD","QUEEN CREEK","AZ",85142,33.242367051,-111.648866622,425,"20151 E SONOQUI BLVD, QUEEN CREEK, AZ, 85142","Match","Exact","20151 E SONOQUI BLVD, QUEEN CREEK, AZ, 85142",244004227,"R"
314426,"20151 HILL SPRING RD","WILDOMAR","CA",92595,33.6141621720001,-117.303381011,426,"20151 HILL SPRING RD, WILDOMAR, CA, 92595","Match","Exact","20151 HILL SPRING RD, WILDOMAR, CA, 92595",194842167,"R"
314427,"20151 HILLSPRING ROAD","WILDOMAR","CA",92595,33.6141621720001,-117.303381011,427,"20151 HILLSPRING ROAD, WILDOMAR, CA, 92595","Match","Non_Exact","20151 HILL SPRING RD, WILDOMAR, CA, 92595",194842167,"R"
314428,"20151 SOUTH LAKESHORE BLVD","EUCLID","OH",44123,41.600211916,-81.539240745,428,"20151 SOUTH LAKESHORE BLVD, EUCLID, OH, 44123","Match","Non_Exact","20151 S LAKE SHORE BLVD, EUCLID, OH, 44123",61107811,"L"
314429,"20152 ADAMS ROAD","ABERDEEN","MS",39730,33.8985465800001,-88.571445679,429,"20152 ADAMS ROAD, ABERDEEN, MS, 39730","Match","Exact","20152 ADAMS RD, ABERDEEN, MS, 39730",611750567,"L"
314430,"20152 BANDON DUNES CT","ASHBURN","VA",20147,39.0584523040001,-77.4957409039999,430,"20152 BANDON DUNES CT, ASHBURN, VA, 20147","Match","Exact","20152 BANDON DUNES CT, ASHBURN, VA, 20147",624610032,"L"
314431,"20152 BAYFRONT LANE UNIT 102","HUNTINGTON BEACH","CA",92646,33.670326835,-117.986139849,431,"20152 BAYFRONT LANE UNIT 102, HUNTINGTON BEACH, CA, 92646","Match","Exact","20152 BAYFRONT LN, HUNTINGTON BEACH, CA, 92646",144256457,"R"
314432,"20152 LAUREL RD","TRACY","CA",95304,37.772890036,-121.403278705,432,"20152 LAUREL RD, TRACY, CA, 95304","Match","Exact","20152 LAUREL RD, TRACY, CA, 95304",133885274,"L"
314433,"20152 STONEY ISLAND AVE","CHICAGO HEIGHTS","IL",60411,41.5290672560001,-87.577878042,433,"20152 STONEY ISLAND AVE, CHICAGO HEIGHTS, IL, 60411","Match","Exact","20152 STONEY ISLAND AVE, CHICAGO HEIGHTS, IL, 60411",638361481,"R"
314434,"20153 EASTWOOD DRIVE","ZACHARY","LA",70791,30.6559017870001,-91.204850897,434,"20153 EASTWOOD DRIVE, ZACHARY, LA, 70791","Match","Exact","20153 EASTWOOD DR, ZACHARY, LA, 70791",653316202,"R"
314435,"20153 LONG MEADOW LANE","LEWES","DE",19958,38.712928435,-75.2202748679999,435,"20153 LONG MEADOW LANE, LEWES, DE, 19958","Match","Exact","20153 LONG MEADOW LN, LEWES, DE, 19958",641487349,"R"
314436,"20153 W LAKE PKWY","GEORGETOWN","TX",78628,30.6591150350001,-97.771317013,436,"20153 W LAKE PKWY, GEORGETOWN, TX, 78628","Match","Exact","20153 W LAKE PKWY, GEORGETOWN, TX, 78628",126458285,"R"
314437,"20154 MASSAI TRAIL","APPLE VALLEY","CA",92307,34.505914095,-117.224436419,437,"20154 MASSAI TRAIL, APPLE VALLEY, CA, 92307","Match","Exact","20154 MASSAI TRL, APPLE VALLEY, CA, 92307",144740402,"L"
314438,"20154 MITCHELL STREET","DENVER","CO",80249,39.777570073,-104.753348858,438,"20154 MITCHELL STREET, DENVER, CO, 80249","Match","Non_Exact","20154 MITCHELL PL, DENVER, CO, 80249",177627328,"R"
314439,"20155 BAY CEDAR AVE","TAMPA","FL",33647,28.1643276200001,-82.3327609789999,439,"20155 BAY CEDAR AVE, TAMPA, FL, 33647","Match","Exact","20155 BAY CEDAR AVE, TAMPA, FL, 33647",630280252,"L"
314440,"20155 MIDDLEBELT RD","LIVONIA","MI",48152,42.4365531440001,-83.3364005619999,440,"20155 MIDDLEBELT RD, LIVONIA, MI, 48152","Match","Exact","20155 MIDDLEBELT RD, LIVONIA, MI, 48152",95418221,"L"
314441,"20155 N CR 3180","PAULS VALLEY","OK",72075,NA,NA,441,"20155 N CR 3180, PAULS VALLEY, OK, 72075","No_Match",NA,NA,NA,NA
314442,"20155 N CR 3180","PAULS VALLEY","OK",73075,NA,NA,442,"20155 N CR 3180, PAULS VALLEY, OK, 73075","No_Match",NA,NA,NA,NA
314443,"20155 NE 25TH AVENUE","MIAMI","FL",33180,25.962140311,-80.1516329309999,443,"20155 NE 25TH AVENUE, MIAMI, FL, 33180","Match","Exact","20155 NE 25TH AVE, MIAMI, FL, 33180",116035166,"R"
314444,"20155 NE 38TH COURT SUITE 301","AVENTURA","FL",33160,NA,NA,444,"20155 NE 38TH COURT SUITE 301, AVENTURA, FL, 33160","No_Match",NA,NA,NA,NA
314445,"20155 NE 38TH COURT SUITE 301","AVENTURA","FL",33180,25.96271341,-80.126179078,445,"20155 NE 38TH COURT SUITE 301, AVENTURA, FL, 33180","Match","Non_Exact","20155 NE 38TH CT, AVENTURA, FL, 33180",116324423,"R"
314446,"20155 NW 260TH ST","OKEECHOBEE","FL",34972,27.483581047,-81.033012276,446,"20155 NW 260TH ST, OKEECHOBEE, FL, 34972","Match","Exact","20155 NW 260TH ST, OKEECHOBEE, FL, 34972",627415133,"R"
314447,"20155 RICHARD WEAVER RD","MT VERNON","AL",36560,31.1142035940001,-88.1172836539999,447,"20155 RICHARD WEAVER RD, MT VERNON, AL, 36560","Match","Exact","20155 RICHARD WEAVER RD, MOUNT VERNON, AL, 36560",61972356,"R"
314448,"20155 TONEY ST","PERRIS","CA",92570,33.7754069910001,-117.310684169,448,"20155 TONEY ST, PERRIS, CA, 92570","Match","Exact","20155 TONEY ST, PERRIS, CA, 92570",194875602,"R"
314449,"20156 CLARINDA AVE","WICHITA FALLS","TX",76308,NA,NA,449,"20156 CLARINDA AVE, WICHITA FALLS, TX, 76308","No_Match",NA,NA,NA,NA
314450,"20156 SE VERMONT RD","GARNETT","KS",66032,38.187822023,-95.112967565,450,"20156 SE VERMONT RD, GARNETT, KS, 66032","Match","Exact","20156 SE VERMONT RD, GARNETT, KS, 66032",10466970,"R"
314451,"20156 SE VERMONT","GARNETT","KS",66032,38.187822023,-95.112967565,451,"20156 SE VERMONT, GARNETT, KS, 66032","Match","Non_Exact","20156 SE VERMONT RD, GARNETT, KS, 66032",10466970,"R"
314452,"20156 STANTON AVE APT 10","CASTRO VALLEY","CA",94546,37.69697789,-122.09085799,452,"20156 STANTON AVE APT 10, CASTRO VALLEY, CA, 94546","Match","Exact","20156 STANTON AVE, CASTRO VALLEY, CA, 94546",125014760,"L"
314453,"20156 SW 5TH PL","DUNNELLON","FL",34431,29.1823141940001,-82.456718031,453,"20156 SW 5TH PL, DUNNELLON, FL, 34431","Match","Exact","20156 SW 5TH PL, DUNNELLON, FL, 34431",116838430,"R"
314454,"20157 KEMP ST","CLINTON TWP","MI",48035,42.5489782390001,-82.91520339,454,"20157 KEMP ST, CLINTON TWP, MI, 48035","Match","Exact","20157 KEMP ST, CLINTON TOWNSHIP, MI, 48035",110680571,"L"
314455,"20157 SAYLES","ABILENE","TX",79605,NA,NA,455,"20157 SAYLES, ABILENE, TX, 79605","No_Match",NA,NA,NA,NA
314456,"20158 NW 35TH AVE","MIAMI GARDENS","FL",33056,25.956776737,-80.260095655,456,"20158 NW 35TH AVE, MIAMI GARDENS, FL, 33056","Match","Exact","20158 NW 35TH AVE, MIAMI GARDENS, FL, 33056",116249596,"R"
314457,"20158 PENDLETON ROAD","BOWLING GREEN","VA",22427,37.9855802870001,-77.246293663,457,"20158 PENDLETON ROAD, BOWLING GREEN, VA, 22427","Match","Exact","20158 PENDLETON RD, BOWLING GREEN, VA, 22427",21954397,"L"
314458,"20159 ALISON TRAIL",",MOKENA","IL",60448,41.522471248,-87.9233481809999,458,"20159 ALISON TRAIL, ,MOKENA, IL, 60448","Match","Exact","20159 ALISON TRL, MOKENA, IL, 60448",635311545,"L"
314459,"20159 ALISON TRAIL","MOKENA","IL",60448,41.522471248,-87.9233481809999,459,"20159 ALISON TRAIL, MOKENA, IL, 60448","Match","Exact","20159 ALISON TRL, MOKENA, IL, 60448",635311545,"L"
314460,"20159 MERRIEWOOD LANE","BEND","OR",97702,44.0308792750001,-121.314507831,460,"20159 MERRIEWOOD LANE, BEND, OR, 97702","Match","Exact","20159 MERRIEWOOD LN, BEND, OR, 97702",611083708,"R"
314461,"2015N KALSMAN","COMPTON","CA",90012,NA,NA,461,"2015N KALSMAN, COMPTON, CA, 90012","No_Match",NA,NA,NA,NA
314462,"2016 11 AVENUE EAST","HIBBING","MN",55746,47.42733035,-92.928404433,462,"2016 11 AVENUE EAST, HIBBING, MN, 55746","Match","Exact","2016 11TH AVE E, HIBBING, MN, 55746",163166571,"R"
314463,"2016 27TH STREET E","BRADENTON","FL",34208,27.481194777,-82.530236795,463,"2016 27TH STREET E, BRADENTON, FL, 34208","Match","Exact","2016 27TH ST E, BRADENTON, FL, 34208",652334865,"R"
314464,"2016 2ND AVENUE NORTH","GREAT FALLS","MT",59401,47.507381299,-111.27254256,464,"2016 2ND AVENUE NORTH, GREAT FALLS, MT, 59401","Match","Exact","2016 2ND AVE N, GREAT FALLS, MT, 59401",202226543,"R"
314465,"2016 4TH STREET","NEW ORLEANS","LA",70113,29.9349287900001,-90.087692829,465,"2016 4TH STREET, NEW ORLEANS, LA, 70113","Match","Exact","2016 4TH ST, NEW ORLEANS, LA, 70113",191712649,"L"
314466,"2016 64TH AVE NE","TACOMA","WA",98422,47.27465728,-122.362385051,466,"2016 64TH AVE NE, TACOMA, WA, 98422","Match","Exact","2016 64TH AVE NE, TACOMA, WA, 98422",184647711,"L"
314467,"2016 ALDEN ROAD SUITE B","ORLANDO","FL",32803,28.5696849880001,-81.3714869309999,467,"2016 ALDEN ROAD SUITE B, ORLANDO, FL, 32803","Match","Exact","2016 ALDEN RD, ORLANDO, FL, 32803",94277526,"L"
314468,"2016 ARAMANCHE DRIVE","BURLINGTON","NC",27215,36.025202705,-79.493250571,468,"2016 ARAMANCHE DRIVE, BURLINGTON, NC, 27215","Match","Exact","2016 ARAMANCHE DR, BURLINGTON, NC, 27215",650606925,"L"
314469,"2016 BANCROFT ROAD","VALDOSTA","GA",31602,30.868178067,-83.256422822,469,"2016 BANCROFT ROAD, VALDOSTA, GA, 31602","Match","Exact","2016 BANCROFT RD, VALDOSTA, GA, 31602",87716874,"L"
314470,"2016 BEATRICE AVE","EDINBURG","TX",78539,26.2672793030001,-98.189658328,470,"2016 BEATRICE AVE, EDINBURG, TX, 78539","Match","Exact","2016 BEATRICE AVE, EDINBURG, TX, 78539",627621421,"R"
314471,"2016 BELTON CT","ARLINGTON","TX",76018,32.651356273,-97.073411036,471,"2016 BELTON CT, ARLINGTON, TX, 76018","Match","Exact","2016 BELTON CT, ARLINGTON, TX, 76018",101947830,"L"
314472,"2016 BENINGO LANE","BAY ST. LOUIS","MS",39520,NA,NA,472,"2016 BENINGO LANE, BAY ST. LOUIS, MS, 39520","No_Match",NA,NA,NA,NA
314473,"2016 BEVERLY HILLS DR","VESTAVIA","AL",35216,33.4440277250001,-86.80456879,473,"2016 BEVERLY HILLS DR, VESTAVIA, AL, 35216","Match","Exact","2016 BEVERLY HILLS DR, VESTAVIA, AL, 35216",81629642,"R"
314474,"2016 BIENVILLE DRIVE","MONROE","LA",71201,32.535686653,-92.098276303,474,"2016 BIENVILLE DRIVE, MONROE, LA, 71201","Match","Exact","2016 BIENVILLE DR, MONROE, LA, 71201",161104868,"L"
314475,"2016 BLACK SNAKE ROAD","DYSART","PA",16636,40.5494270350001,-78.477259477,475,"2016 BLACK SNAKE ROAD, DYSART, PA, 16636","Match","Exact","2016 BLACK SNAKE RD, DYSART, PA, 16636",652838408,"R"
314476,"2016 BLAIR COURT","FAIRFIELD","CA",94534,38.2903457310001,-122.037872068,476,"2016 BLAIR COURT, FAIRFIELD, CA, 94534","Match","Exact","2016 BLAIR CT, FAIRFIELD, CA, 94534",192549331,"L"
314477,"2016 BRANDYWINE DRIVE","NEW BRAUNFELS","TX",78130,29.7152011580001,-98.077612919,477,"2016 BRANDYWINE DRIVE, NEW BRAUNFELS, TX, 78130","Match","Exact","2016 BRANDYWINE DR, NEW BRAUNFELS, TX, 78130",650287598,"R"
314478,"2016 BUCKMAN AVE","WYOMISSING","PA",19610,40.3388935720001,-75.9936238729999,478,"2016 BUCKMAN AVE, WYOMISSING, PA, 19610","Match","Exact","2016 BUCKMAN AVE, WYOMISSING, PA, 19610",80412585,"L"
314479,"2016 BURSON DRIVE","CHESAPEAKE","VA",23323,36.7432577800001,-76.319417352,479,"2016 BURSON DRIVE, CHESAPEAKE, VA, 23323","Match","Exact","2016 BURSON DR, CHESAPEAKE, VA, 23323",121769949,"R"
314480,"2016 BUSH DR","LOS OSOS","CA",NA,35.314597538,-120.836097366,480,"2016 BUSH DR, LOS OSOS, CA, ","Match","Exact","2016 BUSH DR, LOS OSOS, CA, 93402",109798809,"R"
314481,"2016 CARDINAL DRIVE","FORNEY","TX",75126,32.7542178240001,-96.4437922879999,481,"2016 CARDINAL DRIVE, FORNEY, TX, 75126","Match","Exact","2016 CARDINAL DR, FORNEY, TX, 75126",619899492,"R"
314482,"2016 CAROLINA AVENUE","BAYTOWN","TX",77520,29.7236704310001,-95.002020922,482,"2016 CAROLINA AVENUE, BAYTOWN, TX, 77520","Match","Non_Exact","2016 CAROLINA ST, BAYTOWN, TX, 77520",96109106,"R"
314483,"2016 CASE AVE","SAINT PAUL","MN",55119,44.9702816560001,-93.015262988,483,"2016 CASE AVE, SAINT PAUL, MN, 55119","Match","Exact","2016 CASE AVE, SAINT PAUL, MN, 55119",97653565,"R"
314484,"2016 CHADWICK TERRACE","TEMPLE HILLS","MD",20748,38.8379934220001,-76.967107845,484,"2016 CHADWICK TERRACE, TEMPLE HILLS, MD, 20748","Match","Exact","2016 CHADWICK TER, TEMPLE HILLS, MD, 20748",76361115,"R"
314485,"2016 CHESTNUT ST","EVERETT","WA",98201,47.990636325,-122.187972941,485,"2016 CHESTNUT ST, EVERETT, WA, 98201","Match","Exact","2016 CHESTNUT ST, EVERETT, WA, 98201",187745771,"R"
314486,"2016 CHURCH ST","NORFOLK","VA",23504,36.8668790030001,-76.2789853959999,486,"2016 CHURCH ST, NORFOLK, VA, 23504","Match","Exact","2016 CHURCH ST, NORFOLK, VA, 23504",122123579,"R"
314487,"2016 COLEBROOKE DR","TEMPLE HILLS","MD",20748,38.831662067,-76.96639802,487,"2016 COLEBROOKE DR, TEMPLE HILLS, MD, 20748","Match","Exact","2016 COLEBROOKE DR, TEMPLE HILLS, MD, 20748",76312557,"L"
314488,"2016 COLONY HILL DRIVE","CHARLOTTE","NC",28214,35.3002216260001,-80.958867669,488,"2016 COLONY HILL DRIVE, CHARLOTTE, NC, 28214","Match","Exact","2016 COLONY HILL DR, CHARLOTTE, NC, 28214",70514125,"R"
314489,"2016 COMANCHE TRAIL","ENID","OK",73703,36.3858408140001,-97.9037519409999,489,"2016 COMANCHE TRAIL, ENID, OK, 73703","Match","Exact","2016 COMANCHE TRL, ENID, OK, 73703",154081483,"R"
314490,"2016 COOPER LN","NASHVILLE","TN",37216,36.2082479310001,-86.712878786,490,"2016 COOPER LN, NASHVILLE, TN, 37216","Match","Exact","2016 COOPER LN, NASHVILLE, TN, 37216",97194461,"R"
314491,"2016 COUNTRY TRAIS DR","CLAYTON","NC",27520,35.617566772,-78.49928654,491,"2016 COUNTRY TRAIS DR, CLAYTON, NC, 27520","Match","Non_Exact","2016 COUNTRY TRAILS DR, CLAYTON, NC, 27520",26541457,"R"
314492,"2016 COUNTY ROAD 42 WEST","BURNSVILLE","MN",55337,44.7464690310001,-93.304149954,492,"2016 COUNTY ROAD 42 WEST, BURNSVILLE, MN, 55337","Match","Exact","2016 CO RD 42 W, BURNSVILLE, MN, 55337",37932224,"L"
314493,"2016 CR 412","LEXINGTON","TX",78947,30.5265616090001,-96.964812348,493,"2016 CR 412, LEXINGTON, TX, 78947","Match","Exact","2016 CO RD 412, LEXINGTON, TX, 78947",642861781,"L"
314494,"2016 CRESCENT DRIVE","SNELLVILLE","GA",30078,33.860138985,-84.033188135,494,"2016 CRESCENT DRIVE, SNELLVILLE, GA, 30078","Match","Non_Exact","2016 CRESCENT DR SW, SNELLVILLE, GA, 30078",88889975,"L"
314495,"2016 DIAMOND CREEK DRIVE","COLORADO SPRINGS","CO",80921,39.0339763330001,-104.787499133,495,"2016 DIAMOND CREEK DRIVE, COLORADO SPRINGS, CO, 80921","Match","Exact","2016 DIAMOND CREEK DR, COLORADO SPRINGS, CO, 80921",610682192,"L"
314496,"2016 DOBSON ROAD","BLYTHEWOOD","SC",29016,34.2245548240001,-80.888593564,496,"2016 DOBSON ROAD, BLYTHEWOOD, SC, 29016","Match","Exact","2016 DOBSON RD, BLYTHEWOOD, SC, 29016",71807270,"L"
314497,"2016 E 17TH PL","TULSA","OK",74104,36.1370243060001,-95.9631622429999,497,"2016 E 17TH PL, TULSA, OK, 74104","Match","Exact","2016 E 17TH PL, TULSA, OK, 74104",166442771,"R"
314498,"2016 E JEFFERSON APT 402","DETROIT","MI",48207,NA,NA,498,"2016 E JEFFERSON APT 402, DETROIT, MI, 48207","No_Match",NA,NA,NA,NA
314499,"2016 E PARK ROW","ARLINGTON","TX",76010,32.7208782700001,-97.076815617,499,"2016 E PARK ROW, ARLINGTON, TX, 76010","Match","Non_Exact","2016 E PARK ROW DR, ARLINGTON, TX, 76010",101913062,"R"
314500,"2016 E SAINT JAMES ST","ARLINGTON HEIGHTS","IL",60004,42.086329977,-87.958268818,500,"2016 E SAINT JAMES ST, ARLINGTON HEIGHTS, IL, 60004","Match","Exact","2016 E SAINT JAMES ST, ARLINGTON HEIGHTS, IL, 60004",111719395,"L"
