"ID","Address","City","State","Zip","lat","long","id","input_address","match_indicator","match_type","matched_address","tiger_line_id","tiger_side"
869501,"800 CLEMATIS ST","W PALM BEACH","FL",33401,26.7135249360001,-80.059877548,1,"800 CLEMATIS ST, W PALM BEACH, FL, 33401","Match","Exact","800 CLEMATIS ST, WEST PALM BEACH, FL, 33401",115528211,"L"
869502,"800 CLINTON ST","HOBOKEN","NJ",7030,40.7468963370001,-74.0328040049999,2,"800 CLINTON ST, HOBOKEN, NJ, 7030","Match","Exact","800 CLINTON ST, HOBOKEN, NJ, 07030",59606853,"L"
869503,"800 CLOCK BLVD","MASSAPEQUA","NY",11762,NA,NA,3,"800 CLOCK BLVD, MASSAPEQUA, NY, 11762","No_Match",NA,NA,NA,NA
869504,"800 CLOVER DRIVE","UPPER LAKE","CA",95485,39.171304708,-122.898174502,4,"800 CLOVER DRIVE, UPPER LAKE, CA, 95485","Match","Exact","800 CLOVER DR, UPPER LAKE, CA, 95485",67046763,"R"
869505,"800 COBBLESTONE","YAKIMA","WA",98908,46.611322837,-120.579251421,5,"800 COBBLESTONE, YAKIMA, WA, 98908","Match","Non_Exact","800 COBBLESTONE PL, YAKIMA, WA, 98908",184963889,"R"
869506,"800 COLE RIDGE ROAD","UNIONDALE","NY",11575,40.689546588,-73.5928669369999,6,"800 COLE RIDGE ROAD, UNIONDALE, NY, 11575","Match","Non_Exact","800 COLERIDGE RD, UNIONDALE, NY, 11553",147630521,"R"
869507,"800 COLUMBIA DRIVE LOT 34","MYRTLE BEACH","SC",29577,33.688996005,-78.899006871,7,"800 COLUMBIA DRIVE LOT 34, MYRTLE BEACH, SC, 29577","Match","Exact","800 COLUMBIA DR, MYRTLE BEACH, SC, 29577",29065530,"L"
869508,"800 COLUMBIA STREET","CLEVELAND","MN",56017,44.3223643520001,-93.831283523,8,"800 COLUMBIA STREET, CLEVELAND, MN, 56017","Match","Exact","800 COLUMBIA ST, CLEVELAND, MN, 56017",28651669,"R"
869509,"800 COLUMBINE","ESTES PARK","CO",80517,40.3664188590001,-105.547981222,9,"800 COLUMBINE, ESTES PARK, CO, 80517","Match","Non_Exact","800 COLUMBINE DR, ESTES PARK, CO, 80517",188513390,"R"
869510,"800 COLWELL LANE","MCDONOUGH","GA",30253,33.491041373,-84.187829596,10,"800 COLWELL LANE, MCDONOUGH, GA, 30253","Match","Exact","800 COLWELL LN, MCDONOUGH, GA, 30253",617922472,"R"
869511,"800 COMMERCE STREET","HOUSTON","TX",77002,29.764758343,-95.361198035,11,"800 COMMERCE STREET, HOUSTON, TX, 77002","Match","Exact","800 COMMERCE ST, HOUSTON, TX, 77002",96625222,"R"
869512,"800 COMMERCE","PALACIOS","TX",77465,28.7003921090001,-96.220494657,12,"800 COMMERCE, PALACIOS, TX, 77465","Match","Non_Exact","800 COMMERCE ST, PALACIOS, TX, 77465",83288471,"R"
869513,"800 COMPTON ROAD SUITE 17","CINCINNATI","OH",45211,39.233770721,-84.5114364469999,13,"800 COMPTON ROAD SUITE 17, CINCINNATI, OH, 45211","Match","Non_Exact","800 COMPTON RD, CINCINNATI, OH, 45231",103960783,"R"
869514,"800 CONCORD LANE","BARRINGTON","IL",60010,42.147735332,-88.124865245,14,"800 CONCORD LANE, BARRINGTON, IL, 60010","Match","Exact","800 CONCORD LN, BARRINGTON, IL, 60010",605598869,"L"
869515,"800 CONCOURSE VILLAGE","BRONX","NY",10451,NA,NA,15,"800 CONCOURSE VILLAGE, BRONX, NY, 10451","Tie",NA,NA,NA,NA
869516,"800 CONFEDERATE WAY","WAYCROSS","GA",31503,31.2121595830001,-82.299944986,16,"800 CONFEDERATE WAY, WAYCROSS, GA, 31503","Match","Exact","800 CONFEDERATE WAY, WAYCROSS, GA, 31503",5247419,"L"
869517,"800 COOPER","SAGINAW","MI",49602,NA,NA,17,"800 COOPER, SAGINAW, MI, 49602","No_Match",NA,NA,NA,NA
869518,"800 COOPERTOWN ROAD","BRYN MAWR","PA",19010,40.0082851780001,-75.326017753,18,"800 COOPERTOWN ROAD, BRYN MAWR, PA, 19010","Match","Exact","800 COOPERTOWN RD, BRYN MAWR, PA, 19010",652291572,"L"
869519,"800 CORRIANDER DRIVE","TORRANCE","CA",90502,33.812534471,-118.288799798,19,"800 CORRIANDER DRIVE, TORRANCE, CA, 90502","Match","Non_Exact","800 CORIANDER DR, TORRANCE, CA, 90502",241243697,"L"
869520,"800 CORTELYOU ROAD 6C","BROOKLYN","NY",11218,40.6387971360001,-73.9706922089999,20,"800 CORTELYOU ROAD 6C, BROOKLYN, NY, 11218","Match","Exact","800 CORTELYOU RD, BROOKLYN, NY, 11218",59081046,"R"
869521,"800 COTSWOLD CT","GROVETOWN","GA",30813,33.511746757,-82.191200785,21,"800 COTSWOLD CT, GROVETOWN, GA, 30813","Match","Exact","800 COTSWOLD CT, GROVETOWN, GA, 30813",629561397,"R"
869522,"800 COTTAGE HILL AVE","MOBILE","AL",36605,30.6525442330001,-88.135378724,22,"800 COTTAGE HILL AVE, MOBILE, AL, 36605","Match","Non_Exact","800 COTTAGE HILL AVE, MOBILE, AL, 36693",61858919,"R"
869523,"800 COTTAGEVIEW DRIVE STE 1080","TRAVERSE CITY","MI",49684,44.7584272330001,-85.644623087,23,"800 COTTAGEVIEW DRIVE STE 1080, TRAVERSE CITY, MI, 49684","Match","Exact","800 COTTAGEVIEW DR, TRAVERSE CITY, MI, 49684",651750250,"L"
869524,"800 COTTAGEVIEW DRIVE SUITE 304","TRAVERSE CITY","MI",49684,44.7584272330001,-85.644623087,24,"800 COTTAGEVIEW DRIVE SUITE 304, TRAVERSE CITY, MI, 49684","Match","Exact","800 COTTAGEVIEW DR, TRAVERSE CITY, MI, 49684",651750250,"L"
869525,"800 COTTEGE RD","BONNE TERRE","MO",63628,37.9102830580001,-90.548916748,25,"800 COTTEGE RD, BONNE TERRE, MO, 63628","Match","Non_Exact","800 COTTAGE RD, BONNE TERRE, MO, 63628",62404908,"R"
869526,"800 COTTON DEPOT LN APT 14","FORT WORTH","TX",76102,32.7565962580001,-97.325769645,26,"800 COTTON DEPOT LN APT 14, FORT WORTH, TX, 76102","Match","Exact","800 COTTON DEPOT LN, FORT WORTH, TX, 76102",639255766,"R"
869527,"800 COUNTRY PLACE DRIVE","HOUSTON","TX",77079,29.7734480980001,-95.600252615,27,"800 COUNTRY PLACE DRIVE, HOUSTON, TX, 77079","Match","Exact","800 COUNTRY PLACE DR, HOUSTON, TX, 77079",96629910,"R"
869528,"800 COUNTY RD D WEST APT 205","ST. PAUL","MN",55112,NA,NA,28,"800 COUNTY RD D WEST APT 205, ST. PAUL, MN, 55112","No_Match",NA,NA,NA,NA
869529,"800 COUNTY ROAD 1610","MARLOW","OK",73055,34.6818140820001,-97.9662303859999,29,"800 COUNTY ROAD 1610, MARLOW, OK, 73055","Match","Exact","800 CO RD 1610, MARLOW, OK, 73055",13646128,"R"
869530,"800 COUNTY ROAD 4120","MERIDIAN","TX",76665,31.8314291510001,-97.8115350579999,30,"800 COUNTY ROAD 4120, MERIDIAN, TX, 76665","Match","Exact","800 CO RD 4120, MERIDIAN, TX, 76665",158594038,"R"
869531,"800 COUNTY ROAD 8 NW","BUFFALO","MN",55313,45.1634967850001,-93.991828945,31,"800 COUNTY ROAD 8 NW, BUFFALO, MN, 55313","Match","Exact","800 CO RD 8 NW, BUFFALO, MN, 55313",44005108,"R"
869532,"800 COURTLAND ROAD","EMPORIA","VA",23847,36.68270463,-77.4937371899999,32,"800 COURTLAND ROAD, EMPORIA, VA, 23847","Match","Exact","800 COURTLAND RD, EMPORIA, VA, 23847",653491836,"R"
869533,"800 COVINGTON","BOWLING GREEN","KY",42104,NA,NA,33,"800 COVINGTON, BOWLING GREEN, KY, 42104","No_Match",NA,NA,NA,NA
869534,"800 COWBOY LN","FRITCH","TX",79036,35.6372569370001,-101.581817695,34,"800 COWBOY LN, FRITCH, TX, 79036","Match","Exact","800 COWBOY LN, FRITCH, TX, 79036",185354649,"L"
869535,"800 COX LANE","CUTCHOGUE","NY",11935,41.0238099160001,-72.480113664,35,"800 COX LANE, CUTCHOGUE, NY, 11935","Match","Exact","800 COX LN, CUTCHOGUE, NY, 11935",113956374,"L"
869536,"800 COYLE ST","SPRINGHILL","LA",71075,32.9992569570001,-93.4717992609999,36,"800 COYLE ST, SPRINGHILL, LA, 71075","Match","Exact","800 COYLE ST, SPRINGHILL, LA, 71075",73407789,"R"
869537,"800 CR 125","SIDNEY","TX",76474,NA,NA,37,"800 CR 125, SIDNEY, TX, 76474","No_Match",NA,NA,NA,NA
869538,"800 CR 257","Liberty Hill","TX",78642,30.6994189660001,-97.869417512,38,"800 CR 257, Liberty Hill, TX, 78642","Match","Exact","800 CO RD 257, LIBERTY HILL, TX, 78642",636383520,"R"
869539,"800 CR 347","GRANGER","TX",76530,30.652264663,-97.427575271,39,"800 CR 347, GRANGER, TX, 76530","Match","Exact","800 CO RD 347, GRANGER, TX, 76530",650013193,"R"
869540,"800 CR 4120","MERIDIAN","TX",76665,31.8314291510001,-97.8115350579999,40,"800 CR 4120, MERIDIAN, TX, 76665","Match","Exact","800 CO RD 4120, MERIDIAN, TX, 76665",158594038,"R"
869541,"800 CR NW 1030","MT VERNON","TX",75457,33.221005253,-95.2352813859999,41,"800 CR NW 1030, MT VERNON, TX, 75457","Match","Exact","800 NW 1030, MOUNT VERNON, TX, 75457",70360839,"R"
869542,"800 CR SW 3230","WINNSBORO","TX",75494,33.048253376,-95.276836396,42,"800 CR SW 3230, WINNSBORO, TX, 75494","Match","Exact","800 CO RD SW 3230, WINNSBORO, TX, 75494",70356498,"R"
869543,"800 CRANDON BOULEVARD","KEY BISCAYNE","FL",33149,25.6864485680001,-80.162905463,43,"800 CRANDON BOULEVARD, KEY BISCAYNE, FL, 33149","Match","Exact","800 CRANDON BLVD, KEY BISCAYNE, FL, 33149",116021375,"R"
869544,"800 CRAWFORD STREET","PORTSMOUTH","VA",23704,36.8329985770001,-76.297818752,44,"800 CRAWFORD STREET, PORTSMOUTH, VA, 23704","Match","Exact","800 CRAWFORD ST, PORTSMOUTH, VA, 23704",641113669,"L"
869545,"800 CROSS POINTE ROAD SUITE E","GAHANNA","OH",43230,39.9970374590001,-82.83308565,45,"800 CROSS POINTE ROAD SUITE E, GAHANNA, OH, 43230","Match","Exact","800 CROSS POINTE RD, GAHANNA, OH, 43230",218690800,"R"
869546,"800 CRYSTAL AVENUE","SHOREVIEW","MI",55426,NA,NA,46,"800 CRYSTAL AVENUE, SHOREVIEW, MI, 55426","No_Match",NA,NA,NA,NA
869547,"800 CUESTA CT","VISTA","CA",92083,33.207776858,-117.265124878,47,"800 CUESTA CT, VISTA, CA, 92083","Match","Exact","800 CUESTA CT, VISTA, CA, 92083",649232410,"L"
869548,"800 CUNNINGHAM ROAD","INDIANA","PA",15701,40.6277631130001,-79.260579664,48,"800 CUNNINGHAM ROAD, INDIANA, PA, 15701","Match","Exact","800 CUNNINGHAM RD, INDIANA, PA, 15701",66313003,"L"
869549,"800 CUSTER RD APT 224","RICHARDSON","TX",75080,32.9586530550001,-96.735179328,49,"800 CUSTER RD APT 224, RICHARDSON, TX, 75080","Match","Exact","800 CUSTER RD, RICHARDSON, TX, 75080",102913576,"R"
869550,"800 CYPRESS DR","VISTA","CA",92084,33.1958473030001,-117.218989618,50,"800 CYPRESS DR, VISTA, CA, 92084","Match","Exact","800 CYPRESS DR, VISTA, CA, 92084",195417185,"L"
869551,"800 D STREET SE","ARDMORE","OK",73401,34.159659006,-97.1281441259999,51,"800 D STREET SE, ARDMORE, OK, 73401","Match","Exact","800 D ST SE, ARDMORE, OK, 73401",14829368,"R"
869552,"800 DAISY BATES DR","LITTLE ROCK","AR",72202,NA,NA,52,"800 DAISY BATES DR, LITTLE ROCK, AR, 72202","No_Match",NA,NA,NA,NA
869553,"800 DALLAS AVE","ROSENBERG","TX",77471,29.549921103,-95.819514268,53,"800 DALLAS AVE, ROSENBERG, TX, 77471","Match","Exact","800 DALLAS AVE, ROSENBERG, TX, 77471",78339389,"R"
869554,"800 DANA DR","YUKON","OK",73099,35.476138228,-97.7272593609999,54,"800 DANA DR, YUKON, OK, 73099","Match","Exact","800 DANA DR, YUKON, OK, 73099",614102027,"L"
869555,"800 DANMEAD AVE","AKRON","OH",44305,41.086790647,-81.477658155,55,"800 DANMEAD AVE, AKRON, OH, 44305","Match","Exact","800 DANMEAD AVE, AKRON, OH, 44305",61381841,"L"
869556,"800 DANMEAD AVENUE","AKRON","OH",44305,41.086790647,-81.477658155,56,"800 DANMEAD AVENUE, AKRON, OH, 44305","Match","Exact","800 DANMEAD AVE, AKRON, OH, 44305",61381841,"L"
869557,"800 DAWSON","AKRON","OH",44320,41.0912682380001,-81.578028306,57,"800 DAWSON, AKRON, OH, 44320","Match","Non_Exact","800 DAWSON RD, AKRON, OH, 44320",61338088,"R"
869558,"800 DEKALB AVENUE","BROOKLYN","NY",11221,40.6921973090001,-73.944164553,58,"800 DEKALB AVENUE, BROOKLYN, NY, 11221","Match","Exact","800 DEKALB AVE, BROOKLYN, NY, 11221",652211079,"R"
869559,"800 DENOW RD STE C 388","PENNINGTON","NJ",8534,NA,NA,59,"800 DENOW RD STE C 388, PENNINGTON, NJ, 8534","No_Match",NA,NA,NA,NA
869560,"800 DESERT DRIVE","GLOBE","AZ",85501,33.3886479230001,-110.756640902,60,"800 DESERT DRIVE, GLOBE, AZ, 85501","Match","Exact","800 DESERT DR, GLOBE, AZ, 85501",159382194,"L"
869561,"800 DEXTER","DENVER","CO",80220,39.7293699360001,-104.932779195,61,"800 DEXTER, DENVER, CO, 80220","Match","Non_Exact","800 DEXTER ST, DENVER, CO, 80220",177339366,"R"
869562,"800 DOLOROSA - SUITE 204","SAN ANTONIO","TX",78207,29.424299574,-98.4982993469999,62,"800 DOLOROSA - SUITE 204, SAN ANTONIO, TX, 78207","Match","Exact","800 DOLOROSA, SAN ANTONIO, TX, 78207",101525895,"L"
869563,"800 DOWLIN FORGE RD","DOWNINGTOWN","PA",19335,40.055563492,-75.6885736259999,63,"800 DOWLIN FORGE RD, DOWNINGTOWN, PA, 19335","Match","Exact","800 DOWLIN FORGE RD, DOWNINGTOWN, PA, 19335",653370580,"R"
869564,"800 DOWLIN FORGE ROAD","DOWNINGTOWN","PA",19335,40.055563492,-75.6885736259999,64,"800 DOWLIN FORGE ROAD, DOWNINGTOWN, PA, 19335","Match","Exact","800 DOWLIN FORGE RD, DOWNINGTOWN, PA, 19335",653370580,"R"
869565,"800 DOWNS DRIVE","SILVER SPRING","MD",20904,39.060694465,-76.994015224,65,"800 DOWNS DRIVE, SILVER SPRING, MD, 20904","Match","Exact","800 DOWNS DR, SILVER SPRING, MD, 20904",62073181,"L"
869566,"800 DR M L KING ST","NATCHEZ","MS",39120,31.5637467870001,-91.393334658,66,"800 DR M L KING ST, NATCHEZ, MS, 39120","Match","Non_Exact","800 N MARTIN LUTHER KING JR ST, NATCHEZ, MS, 39120",79845040,"L"
869567,"800 DRAPER RD SW","BLACKSBURG","VA",24060,37.22317178,-80.409019826,67,"800 DRAPER RD SW, BLACKSBURG, VA, 24060","Match","Exact","800 DRAPER RD SW, BLACKSBURG, VA, 24060",73616450,"L"
869568,"800 DRIPPING SPRINGS RANCH ROAD","DRIPPING SPRINGS","TX",78620,30.1694531530001,-98.021654091,68,"800 DRIPPING SPRINGS RANCH ROAD, DRIPPING SPRINGS, TX, 78620","Match","Exact","800 DRIPPING SPRINGS RANCH RD, DRIPPING SPRINGS, TX, 78620",63846232,"R"
869569,"800 DUNAWAY","WAXAHACHIE","TX",75165,32.379086719,-96.8557524129999,69,"800 DUNAWAY, WAXAHACHIE, TX, 75165","Match","Non_Exact","800 DUNAWAY ST, WAXAHACHIE, TX, 75165",103450811,"R"
869570,"800 DURHAM COURT","SOUTHLAKE","TX",76092,32.9312884500001,-97.1408534019999,70,"800 DURHAM COURT, SOUTHLAKE, TX, 76092","Match","Exact","800 DURHAM CT, SOUTHLAKE, TX, 76092",102089014,"L"
869571,"800 DURHAM STREET","LA HABRA","CA",90631,33.922608414,-117.948905624,71,"800 DURHAM STREET, LA HABRA, CA, 90631","Match","Exact","800 DURHAM ST, LA HABRA, CA, 90631",144005361,"L"
869572,"800 E 149TH 1B","BRONX","NY",10455,NA,NA,72,"800 E 149TH 1B, BRONX, NY, 10455","No_Match",NA,NA,NA,NA
869573,"800 E 149TH ST 1B","BRONX","NY",10455,40.812679904,-73.9064021519999,73,"800 E 149TH ST 1B, BRONX, NY, 10455","Match","Non_Exact","800 E 149TH ST, BRONX, NY, 10455",80300912,"R"
869574,"800 E 15TH STREET UNIT 309","PLANO","TX",75074,33.0196868680001,-96.7042426369999,74,"800 E 15TH STREET UNIT 309, PLANO, TX, 75074","Match","Non_Exact","800 E 15TH ST, PLANO, TX, 75074",123489764,"R"
869575,"800 E 2ND ST APT 206","NEWBERG","OR",97132,45.299456106,-122.9711181,75,"800 E 2ND ST APT 206, NEWBERG, OR, 97132","Match","Non_Exact","800 E 2ND ST, NEWBERG, OR, 97132",156499643,"L"
869576,"800 E 2ND ST","EDMOND","OK",73034,35.6527707390001,-97.4671830619999,76,"800 E 2ND ST, EDMOND, OK, 73034","Match","Exact","800 E 2ND ST, EDMOND, OK, 73034",606126328,"R"
869577,"800 E 3RD ST","PLANKINTON","SD",57368,43.7160009720001,-98.474041144,77,"800 E 3RD ST, PLANKINTON, SD, 57368","Match","Exact","800 E 3RD ST, PLANKINTON, SD, 57368",199170783,"L"
869578,"800 E 96TH STREET","BLOOMINGTON","MN",55420,44.8298940350001,-93.2630863099999,78,"800 E 96TH STREET, BLOOMINGTON, MN, 55420","Match","Exact","800 E 96TH ST, BLOOMINGTON, MN, 55420",43596423,"L"
869579,"800 E ABRAMS ST","ARLINGTON","TX",76018,NA,NA,79,"800 E ABRAMS ST, ARLINGTON, TX, 76018","No_Match",NA,NA,NA,NA
869580,"800 E ATWATER AVE","BLOOMINGTON","IN",47405,39.163128784,-86.523910207,80,"800 E ATWATER AVE, BLOOMINGTON, IN, 47405","Match","Exact","800 E ATWATER AVE, BLOOMINGTON, IN, 47405",42323837,"R"
869581,"800 E BOBIER DR APT N2","VISTA","CA",92084,33.217303757,-117.231743709,81,"800 E BOBIER DR APT N2, VISTA, CA, 92084","Match","Non_Exact","800 E BOBIER DR, VISTA, CA, 92084",195712746,"L"
869582,"800 E CAMPBELL RD","RICHARDSON","TX",75081,32.975299594,-96.711555344,82,"800 E CAMPBELL RD, RICHARDSON, TX, 75081","Match","Exact","800 E CAMPBELL RD, RICHARDSON, TX, 75081",103212937,"R"
869583,"800 E CATHEDRAL RD","PHILADELPHIA","PA",19128,40.0650962510001,-75.237029987,83,"800 E CATHEDRAL RD, PHILADELPHIA, PA, 19128","Match","Exact","800 CATHEDRAL RD, PHILADELPHIA, PA, 19128",131393329,"L"
869584,"800 E CENTER AVE","MELROSE","NM",88124,34.4312074050001,-103.620300132,84,"800 E CENTER AVE, MELROSE, NM, 88124","Match","Exact","800 E CENTER AVE, MELROSE, NM, 88124",163758011,"R"
869585,"800 E CITY HALL AVE UNIT 800","NORFOLK","VA",23510,36.8469466760001,-76.285197709,85,"800 E CITY HALL AVE UNIT 800, NORFOLK, VA, 23510","Match","Non_Exact","800 E CITY HALL AVE, NORFOLK, VA, 23510",640855318,"L"
869586,"800 E CLINTON AVE","ATWATER","CA",95301,37.344443794,-120.586630615,86,"800 E CLINTON AVE, ATWATER, CA, 95301","Match","Exact","800 E CLINTON AVE, ATWATER, CA, 95301",125314427,"R"
869587,"800 E COUNTRY CLUB DRIVE","YUMA","AZ",85365,32.6706264910001,-114.611819102,87,"800 E COUNTRY CLUB DRIVE, YUMA, AZ, 85365","Match","Exact","800 E COUNTRY CLUB DR, YUMA, AZ, 85365",636472251,"R"
869588,"800 E CURRY RD - 3083","TEMPE","AZ",85281,33.440282246,-111.927907627,88,"800 E CURRY RD - 3083, TEMPE, AZ, 85281","Match","Non_Exact","800 E CURRY RD, TEMPE, AZ, 85281",128226136,"L"
869589,"800 E FRANKLIN ST","NEWBERG","OR",97132,45.303564577,-122.971478745,89,"800 E FRANKLIN ST, NEWBERG, OR, 97132","Match","Exact","800 E FRANKLIN ST, NEWBERG, OR, 97132",156499486,"L"
869590,"800 E HALL OF FAME AVE 121","STILLWATER","OK",74075,NA,NA,90,"800 E HALL OF FAME AVE 121, STILLWATER, OK, 74075","Tie",NA,NA,NA,NA
869591,"800 E HALL OF FAME AVE APT 511","STILLWATER","OK",74075,NA,NA,91,"800 E HALL OF FAME AVE APT 511, STILLWATER, OK, 74075","Tie",NA,NA,NA,NA
869592,"800 E HALL OF FAME AVE APT 922-B","STILLWATER","OK",74075,NA,NA,92,"800 E HALL OF FAME AVE APT 922-B, STILLWATER, OK, 74075","Tie",NA,NA,NA,NA
869593,"800 E HULL ROAD","HOPE","MI",48628,43.763901133,-84.33584934,93,"800 E HULL ROAD, HOPE, MI, 48628","Match","Exact","800 E HULL RD, HOPE, MI, 48628",81189851,"L"
869594,"800 E JEFFERSON ST","FRANKLIN","IN",46131,39.481040717,-86.045422397,94,"800 E JEFFERSON ST, FRANKLIN, IN, 46131","Match","Exact","800 E JEFFERSON ST, FRANKLIN, IN, 46131",114638443,"L"
869595,"800 E KIRKWOOD AVE","BLOOMINGTON","IN",47405,39.166537136,-86.5275795909999,95,"800 E KIRKWOOD AVE, BLOOMINGTON, IN, 47405","Match","Non_Exact","800 E KIRKWOOD AVE, BLOOMINGTON, IN, 47408",42323814,"R"
869596,"800 E MAIN ST","HOGANSVILLE","GA",30230,33.170080829,-84.906514051,96,"800 E MAIN ST, HOGANSVILLE, GA, 30230","Match","Exact","800 E MAIN ST, HOGANSVILLE, GA, 30230",1765373,"R"
869597,"800 E MAIN STREET","HOGANSVILLE","GA",30230,33.170080829,-84.906514051,97,"800 E MAIN STREET, HOGANSVILLE, GA, 30230","Match","Exact","800 E MAIN ST, HOGANSVILLE, GA, 30230",1765373,"R"
869598,"800 E NORTHWEST HIGHWAY STE 109","MOUNT PROSPECT","IL",60056,42.058626981,-87.92578287,98,"800 E NORTHWEST HIGHWAY STE 109, MOUNT PROSPECT, IL, 60056","Match","Non_Exact","800 E NORTHWEST HWY, MOUNT PROSPECT, IL, 60056",111720836,"L"
869599,"800 E OCEAN BLVD  STE 710","LONG BEACH","CA",90802,NA,NA,99,"800 E OCEAN BLVD  STE 710, LONG BEACH, CA, 90802","Tie",NA,NA,NA,NA
869600,"800 E OCEAN BLVD UNIT 1402","LONG BEACH","CA",90802,NA,NA,100,"800 E OCEAN BLVD UNIT 1402, LONG BEACH, CA, 90802","Tie",NA,NA,NA,NA
869601,"800 E RIVERA AVENUE","CALEXICO","CA",92231,NA,NA,101,"800 E RIVERA AVENUE, CALEXICO, CA, 92231","No_Match",NA,NA,NA,NA
869602,"800 E SCHUSTER AVE","EL PASO","TX",79902,31.7731914680001,-106.491325081,102,"800 E SCHUSTER AVE, EL PASO, TX, 79902","Match","Exact","800 E SCHUSTER AVE, EL PASO, TX, 79902",189408770,"R"
869603,"800 E SOUTH ST - STE 603","ALVIN","TX",77511,NA,NA,103,"800 E SOUTH ST - STE 603, ALVIN, TX, 77511","Tie",NA,NA,NA,NA
869604,"800 E SPRING ST APT Y-1","COOKEVILLE","TN",38501,36.1594968750001,-85.489275596,104,"800 E SPRING ST APT Y-1, COOKEVILLE, TN, 38501","Match","Non_Exact","800 E SPRING ST, COOKEVILLE, TN, 38501",639477288,"R"
869605,"800 E SPRINT STREET PP2","COOKEVILLE","TN",38501,NA,NA,105,"800 E SPRINT STREET PP2, COOKEVILLE, TN, 38501","No_Match",NA,NA,NA,NA
869606,"800 E SPRINT STREET W4","COOKEVILLE","TN",38501,NA,NA,106,"800 E SPRINT STREET W4, COOKEVILLE, TN, 38501","No_Match",NA,NA,NA,NA
869607,"800 E SUMMIT ST","KENT","OH",44240,41.146784509,-81.346176836,107,"800 E SUMMIT ST, KENT, OH, 44240","Match","Exact","800 E SUMMIT ST, KENT, OH, 44240",137524141,"R"
869608,"800 E UNAKA AVE","JOHNSON CITY","TN",37601,36.3297959710001,-82.3492319549999,108,"800 E UNAKA AVE, JOHNSON CITY, TN, 37601","Match","Exact","800 E UNAKA AVE, JOHNSON CITY, TN, 37601",127924046,"R"
869609,"800 E VIRGINIA BEACH BLVD","NORFOLK","VA",23504,NA,NA,109,"800 E VIRGINIA BEACH BLVD, NORFOLK, VA, 23504","No_Match",NA,NA,NA,NA
869610,"800 E WASHINGTON STREET STE F","GREENVILLE","SC",29601,NA,NA,110,"800 E WASHINGTON STREET STE F, GREENVILLE, SC, 29601","Tie",NA,NA,NA,NA
869611,"800 E WEBSTER ST","COLEMAN","MI",48618,43.7534212990001,-84.5837498349999,111,"800 E WEBSTER ST, COLEMAN, MI, 48618","Match","Exact","800 E WEBSTER ST, COLEMAN, MI, 48618",81189299,"L"
869612,"800 E WILSON STREET","BATAVIA","IL",60510,41.851320468,-88.2931003739999,112,"800 E WILSON STREET, BATAVIA, IL, 60510","Match","Exact","800 E WILSON ST, BATAVIA, IL, 60510",119512209,"R"
869613,"800 EAST 20TH","CHEYENNE","WY",82009,NA,NA,113,"800 EAST 20TH, CHEYENNE, WY, 82009","No_Match",NA,NA,NA,NA
869614,"800 EAST 21ST STREET NORTH","WICHITA","KS",67214,37.7226019980001,-97.335475047,114,"800 EAST 21ST STREET NORTH, WICHITA, KS, 67214","Match","Exact","800 E 21ST ST N, WICHITA, KS, 67214",115634456,"L"
869615,"800 EAST 21ST STREET","HIBBING","MN",55746,47.426229795,-92.933129405,115,"800 EAST 21ST STREET, HIBBING, MN, 55746","Match","Exact","800 E 21ST ST, HIBBING, MN, 55746",163166583,"R"
869616,"800 EAST 78TH STREET","CHICAGO","IL",60619,41.7531173030001,-87.6051964919999,116,"800 EAST 78TH STREET, CHICAGO, IL, 60619","Match","Exact","800 E 78TH ST, CHICAGO, IL, 60619",616793494,"L"
869617,"800 EAST 7TH STREET","WASHINGTON","IA",52353,41.305372579,-91.682995714,117,"800 EAST 7TH STREET, WASHINGTON, IA, 52353","Match","Exact","800 E 7TH ST, WASHINGTON, IA, 52353",84182210,"R"
869618,"800 EAST ASH LANE 1221","EULESS","TX",76039,32.8595938880001,-97.069405177,118,"800 EAST ASH LANE 1221, EULESS, TX, 76039","Match","Exact","800 E ASH LN, EULESS, TX, 76039",102143798,"R"
869619,"800 EAST AVENUE APT 2","ROCHESTER","NY",14607,NA,NA,119,"800 EAST AVENUE APT 2, ROCHESTER, NY, 14607","No_Match",NA,NA,NA,NA
869620,"800 EAST CANAL STREET","RICHMOND","VA",23219,37.5369629100001,-77.438820436,120,"800 EAST CANAL STREET, RICHMOND, VA, 23219","Match","Exact","800 E CANAL ST, RICHMOND, VA, 23219",201540555,"L"
869621,"800 EAST CHARLESTON  27","PALO ALTO","CA",94303,37.421928646,-122.105263488,121,"800 EAST CHARLESTON  27, PALO ALTO, CA, 94303","Match","Non_Exact","800 E CHARLESTON RD, PALO ALTO, CA, 94303",122953587,"R"
869622,"800 EAST CHARLESTON 27","PALO ALTO","CA",94303,37.421928646,-122.105263488,122,"800 EAST CHARLESTON 27, PALO ALTO, CA, 94303","Match","Non_Exact","800 E CHARLESTON RD, PALO ALTO, CA, 94303",122953587,"R"
869623,"800 EAST COURT ST","FLINT","MI",48503,43.0165205070001,-83.6790587949999,123,"800 EAST COURT ST, FLINT, MI, 48503","Match","Exact","800 E COURT ST, FLINT, MI, 48503",69569003,"R"
869624,"800 EAST D STREET","IRON MOUNTAIN","MI",49801,45.8155133290001,-88.055011044,124,"800 EAST D STREET, IRON MOUNTAIN, MI, 49801","Match","Exact","800 E D ST, IRON MOUNTAIN, MI, 49801",170158894,"R"
869625,"800 EAST EUCLID","MONMOUTH","IL",61462,40.9171039440001,-90.6388395009999,125,"800 EAST EUCLID, MONMOUTH, IL, 61462","Match","Non_Exact","800 E EUCLID AVE, MONMOUTH, IL, 61462",5503036,"R"
869626,"800 EAST FRANKLIN","NEWBERG","OR",97132,45.30356491,-122.971495759,126,"800 EAST FRANKLIN, NEWBERG, OR, 97132","Match","Non_Exact","800 E FRANKLIN ST, NEWBERG, OR, 97132",156499486,"L"
869627,"800 EAST HILLTOP","FLASTAFF","AZ",86001,35.1961065610001,-111.639632221,127,"800 EAST HILLTOP, FLASTAFF, AZ, 86001","Match","Non_Exact","800 E HILLTOP AVE, FLAGSTAFF, AZ, 86001",188953339,"L"
869628,"800 EAST LIBERTY STREET APT 3-D","FARMINGTON","MO",63640,37.780216647,-90.411675122,128,"800 EAST LIBERTY STREET APT 3-D, FARMINGTON, MO, 63640","Match","Exact","800 E LIBERTY ST, FARMINGTON, MO, 63640",62393697,"R"
869629,"800 EAST MAIN STREET","AVON PARK","FL",33825,NA,NA,129,"800 EAST MAIN STREET, AVON PARK, FL, 33825","No_Match",NA,NA,NA,NA
869630,"800 EAST MCKINLEY DR","BATON ROUGE","LA",70802,30.4237524760001,-91.174785465,130,"800 EAST MCKINLEY DR, BATON ROUGE, LA, 70802","Match","Non_Exact","800 E MCKINLEY ST, BATON ROUGE, LA, 70802",92203783,"R"
869631,"800 EAST NORTHWEST HWY RM 713","PALATINE","IL",60074,42.1024408870001,-88.024053006,131,"800 EAST NORTHWEST HWY RM 713, PALATINE, IL, 60074","Match","Exact","800 E NORTHWEST HWY, PALATINE, IL, 60074",111696855,"L"
869632,"800 EAST STREET","SIDNEY","IA",51652,40.747547158,-95.64404304,132,"800 EAST STREET, SIDNEY, IA, 51652","Match","Exact","800 EAST ST, SIDNEY, IA, 51652",9906892,"L"
869633,"800 ED HATT DR","KAUFMAN","TX",75142,NA,NA,133,"800 ED HATT DR, KAUFMAN, TX, 75142","No_Match",NA,NA,NA,NA
869634,"800 EDGEROVE AVE","STATEN ISLAND","NY",10312,NA,NA,134,"800 EDGEROVE AVE, STATEN ISLAND, NY, 10312","No_Match",NA,NA,NA,NA
869635,"800 EDGEWOOD DRIVE","SHEFFIELD","AL",35660,34.73639308,-87.727366836,135,"800 EDGEWOOD DRIVE, SHEFFIELD, AL, 35660","Match","Exact","800 EDGEWOOD DR, SHEFFIELD, AL, 35660",40758602,"R"
869636,"800 EDMONTON CR","GOSE CREEK","SC",29445,33.03018222,-80.0637272339999,136,"800 EDMONTON CR, GOSE CREEK, SC, 29445","Match","Non_Exact","800 EDMONTON CIR, GOOSE CREEK, SC, 29445",100753056,"R"
869637,"800 EL CERRITO DR APT 3","RIVERSIDE","CA",92506,33.959934821,-117.327622459,137,"800 EL CERRITO DR APT 3, RIVERSIDE, CA, 92506","Match","Non_Exact","800 EL CERRITO DR, RIVERSIDE, CA, 92507",195078285,"L"
869638,"800 ELGIN RD UNIT 1401","EVANSTON","IL",60201,42.0510853710001,-87.6826153919999,138,"800 ELGIN RD UNIT 1401, EVANSTON, IL, 60201","Match","Exact","800 ELGIN RD, EVANSTON, IL, 60201",637908535,"L"
869639,"800 ELGIN ROAD UNIT 602","EVANSTON","IL",60201,42.0510853710001,-87.6826153919999,139,"800 ELGIN ROAD UNIT 602, EVANSTON, IL, 60201","Match","Exact","800 ELGIN RD, EVANSTON, IL, 60201",637908535,"L"
869640,"800 ELGIN UNIT 1003","EVANSTON","IL",60201,42.0510853710001,-87.6826153919999,140,"800 ELGIN UNIT 1003, EVANSTON, IL, 60201","Match","Non_Exact","800 ELGIN RD, EVANSTON, IL, 60201",637908535,"L"
869641,"800 ELM CREST AVE","BOONSBORO","MD",21713,39.4984732200001,-77.6654427619999,141,"800 ELM CREST AVE, BOONSBORO, MD, 21713","Match","Exact","800 ELM CREST AVE, BOONSBORO, MD, 21713",60779044,"R"
869642,"800 ELM ST","LUDLOW","KY",41016,39.087911649,-84.557192023,142,"800 ELM ST, LUDLOW, KY, 41016","Match","Exact","800 ELM ST, LUDLOW, KY, 41016",103874199,"R"
869643,"800 ELMIRA AVENUE","DURHAM","NC",27707,35.9629137210001,-78.9006910959999,143,"800 ELMIRA AVENUE, DURHAM, NC, 27707","Match","Exact","800 ELMIRA AVE, DURHAM, NC, 27707",71741026,"R"
869644,"800 ENDO TR","HARKER HEIGHTS","TX",76548,31.0731040480001,-97.632761441,144,"800 ENDO TR, HARKER HEIGHTS, TX, 76548","Match","Non_Exact","800 END O TRL, HARKER HEIGHTS, TX, 76548",146168761,"R"
869645,"800 ENERGY CENTER BLVD 117","NORTHPORT","AL",35473,NA,NA,145,"800 ENERGY CENTER BLVD 117, NORTHPORT, AL, 35473","No_Match",NA,NA,NA,NA
869646,"800 ENERGY CENTER BLVD 2006","NORTHPORT","AL",35473,NA,NA,146,"800 ENERGY CENTER BLVD 2006, NORTHPORT, AL, 35473","No_Match",NA,NA,NA,NA
869647,"800 ENERGY CENTER BLVD 4605","NORTHPORT","AL",35473,NA,NA,147,"800 ENERGY CENTER BLVD 4605, NORTHPORT, AL, 35473","No_Match",NA,NA,NA,NA
869648,"800 ENVOY CIR","LOUISVILLE","KY",40299,NA,NA,148,"800 ENVOY CIR, LOUISVILLE, KY, 40299","No_Match",NA,NA,NA,NA
869649,"800 ESSEX STREET","BANGOR","ME",4401,44.827979537,-68.7711475149999,149,"800 ESSEX STREET, BANGOR, ME, 4401","Match","Exact","800 ESSEX ST, BANGOR, ME, 04401",123653850,"L"
869650,"800 EUCLID STREET NW","WASHINGTON","DC",20001,38.924088779,-77.023487645,150,"800 EUCLID STREET NW, WASHINGTON, DC, 20001","Match","Exact","800 EUCLID ST NW, WASHINGTON, DC, 20001",76224365,"L"
869651,"800 EVERGREEN DRIVE 313","BURNSVILLE","MN",55337,44.748734799,-93.264020231,151,"800 EVERGREEN DRIVE 313, BURNSVILLE, MN, 55337","Match","Exact","800 EVERGREEN DR, BURNSVILLE, MN, 55337",37904298,"R"
869652,"800 FAIRMONT AVE","JAMESTOWN","NY",14701,42.0972985870001,-79.284302128,152,"800 FAIRMONT AVE, JAMESTOWN, NY, 14701","Match","Non_Exact","800 FAIRMOUNT AVE, JAMESTOWN, NY, 14701",120751463,"R"
869653,"800 FAIRVIEW AVE APT 5","ARCADIA","CA",91007,34.1287296020001,-118.058233647,153,"800 FAIRVIEW AVE APT 5, ARCADIA, CA, 91007","Match","Exact","800 FAIRVIEW AVE, ARCADIA, CA, 91007",141644347,"L"
869654,"800 FALLS CHURCH RD","CHARLOTTE","NC",28270,35.1407709650001,-80.751228757,154,"800 FALLS CHURCH RD, CHARLOTTE, NC, 28270","Match","Exact","800 FALLS CHURCH RD, CHARLOTTE, NC, 28270",70523596,"R"
869655,"800 FALLSCHURCH RD","CHARLOTTE","NC",28270,35.1407709650001,-80.751228757,155,"800 FALLSCHURCH RD, CHARLOTTE, NC, 28270","Match","Non_Exact","800 FALLS CHURCH RD, CHARLOTTE, NC, 28270",70523596,"R"
869656,"800 FANNING MILL RD","STEWARTSVILLE","NJ",8886,40.684340257,-75.1280399089999,156,"800 FANNING MILL RD, STEWARTSVILLE, NJ, 8886","Match","Exact","800 FANNING MILL RD, STEWARTSVILLE, NJ, 08886",98104097,"R"
869657,"800 FELLOWSHIP ROAD","CHESTER SPRINGS","PA",19425,40.114633682,-75.677080167,157,"800 FELLOWSHIP ROAD, CHESTER SPRINGS, PA, 19425","Match","Exact","800 FELLOWSHIP RD, CHESTER SPRINGS, PA, 19425",179550676,"R"
869658,"800 FERNDALE LANE","CRESCENT CITY","CA",95531,41.7799014010001,-124.170883057,158,"800 FERNDALE LANE, CRESCENT CITY, CA, 95531","Match","Exact","800 FERNDALE LN, CRESCENT CITY, CA, 95531",113173423,"R"
869659,"800 FINSBURY STREET","DURHAM","NC",27703,35.881165255,-78.864816537,159,"800 FINSBURY STREET, DURHAM, NC, 27703","Match","Exact","800 FINSBURY ST, DURHAM, NC, 27703",641664239,"R"
869660,"800 FIRST TERRACE","LANSING","KS",66043,39.238579137,-94.8985704569999,160,"800 FIRST TERRACE, LANSING, KS, 66043","Match","Exact","800 1ST TER, LANSING, KS, 66043",636612799,"R"
869661,"800 FLAMINGO DRIVE","RAPID CITY","SD",57701,44.1216878330001,-103.227481138,161,"800 FLAMINGO DRIVE, RAPID CITY, SD, 57701","Match","Exact","800 FLAMINGO DR, RAPID CITY, SD, 57701",205526039,"R"
869662,"800 FLINT COURT","WOODSTOCK","GA",30188,34.1161840130001,-84.476138052,162,"800 FLINT COURT, WOODSTOCK, GA, 30188","Match","Exact","800 FLINT CT, WOODSTOCK, GA, 30188",68846407,"R"
869663,"800 FLORIDA AVE NE","WASHINGTON","DC",20002,38.905040167,-76.99552855,163,"800 FLORIDA AVE NE, WASHINGTON, DC, 20002","Match","Exact","800 FLORIDA AVE NE, WASHINGTON, DC, 20002",76229752,"L"
869664,"800 FLORIDA AVE","NE","DC",20002,NA,NA,164,"800 FLORIDA AVE, NE, DC, 20002","No_Match",NA,NA,NA,NA
869665,"800 FLORIDA AVENUE NE","WASHINGTON","DC",20002,38.905040167,-76.99552855,165,"800 FLORIDA AVENUE NE, WASHINGTON, DC, 20002","Match","Exact","800 FLORIDA AVE NE, WASHINGTON, DC, 20002",76229752,"L"
869666,"800 FLORIDA AVENUE","BRISTOL","TN",37620,36.5888108660001,-82.166216398,166,"800 FLORIDA AVENUE, BRISTOL, TN, 37620","Match","Exact","800 FLORIDA AVE, BRISTOL, TN, 37620",127838642,"L"
869667,"800 FLORIDA BLVD","NEPTUNE BEACH","FL",32266,30.3142115530001,-81.404432865,167,"800 FLORIDA BLVD, NEPTUNE BEACH, FL, 32266","Match","Exact","800 FLORIDA BLVD, NEPTUNE BEACH, FL, 32266",83907763,"R"
869668,"800 FM 741 SOUTH","FORNEY","TX",75126,NA,NA,168,"800 FM 741 SOUTH, FORNEY, TX, 75126","No_Match",NA,NA,NA,NA
869669,"800 FOREST ACRES DR","TARBORO","NC",27886,35.912619508,-77.533020678,169,"800 FOREST ACRES DR, TARBORO, NC, 27886","Match","Exact","800 FOREST ACRES DR, TARBORO, NC, 27886",90178380,"L"
869670,"800 FOREST AVE 6H","WESTFIELD","NJ",7090,40.65305062,-74.367233453,170,"800 FOREST AVE 6H, WESTFIELD, NJ, 7090","Match","Exact","800 FOREST AVE, WESTFIELD, NJ, 07090",60603427,"R"
869671,"800 FOREST AVENUE","WESTFIELD","NJ",7090,40.65305062,-74.367233453,171,"800 FOREST AVENUE, WESTFIELD, NJ, 7090","Match","Exact","800 FOREST AVE, WESTFIELD, NJ, 07090",60603427,"R"
869672,"800 FORREST STREET NW","ATLANTA","GA",30318,33.796143042,-84.4141073279999,172,"800 FORREST STREET NW, ATLANTA, GA, 30318","Match","Exact","800 FORREST ST NW, ATLANTA, GA, 30318",17401564,"L"
869673,"800 FORT NEGLEY BLVD","NASHVILLE","TN",37203,36.1469105680001,-86.7762689799999,173,"800 FORT NEGLEY BLVD, NASHVILLE, TN, 37203","Match","Exact","800 FORT NEGLEY BLVD, NASHVILLE, TN, 37203",97223125,"R"
869674,"800 FRANTZ","MULLENS","WV",25882,37.5858859840001,-81.389100103,174,"800 FRANTZ, MULLENS, WV, 25882","Match","Non_Exact","800 FRANTZ AVE, MULLENS, WV, 25882",78877018,"L"
869675,"800 FREEMAN ST APT 2","BRONX","NY",10459,40.830335254,-73.897459031,175,"800 FREEMAN ST APT 2, BRONX, NY, 10459","Match","Exact","800 FREEMAN ST, BRONX, NY, 10459",80302049,"R"
869676,"800 FRONT ST","NATCHITOCHES","LA",71457,NA,NA,176,"800 FRONT ST, NATCHITOCHES, LA, 71457","No_Match",NA,NA,NA,NA
869677,"800 FRUTA RD","RIO RANCHO","NM",87124,35.2711242560001,-106.68164622,177,"800 FRUTA RD, RIO RANCHO, NM, 87124","Match","Non_Exact","800 FRUTA RD NE, RIO RANCHO, NM, 87124",193996139,"R"
869678,"800 GESSNER SUITE 110","HOUSTON","TX",77024,29.775823168,-95.5444478479999,178,"800 GESSNER SUITE 110, HOUSTON, TX, 77024","Match","Non_Exact","800 GESSNER DR, HOUSTON, TX, 77024",96552937,"R"
869679,"800 GIBSON DR APT 534","ROSEVILLE","CA",95678,38.7800180450001,-121.283187471,179,"800 GIBSON DR APT 534, ROSEVILLE, CA, 95678","Match","Exact","800 GIBSON DR, ROSEVILLE, CA, 95678",106814433,"L"
869680,"800 GIBSON DR APT 535","ROSEVILLE","CA",95678,38.7800180450001,-121.283187471,180,"800 GIBSON DR APT 535, ROSEVILLE, CA, 95678","Match","Exact","800 GIBSON DR, ROSEVILLE, CA, 95678",106814433,"L"
869681,"800 GIBSON DR","ROSEVILLE","CA",95678,38.7800180450001,-121.283187471,181,"800 GIBSON DR, ROSEVILLE, CA, 95678","Match","Exact","800 GIBSON DR, ROSEVILLE, CA, 95678",106814433,"L"
869682,"800 GIBSON DRIVE APT 918","ROSEVILLE","CA",95678,38.7800180450001,-121.283187471,182,"800 GIBSON DRIVE APT 918, ROSEVILLE, CA, 95678","Match","Exact","800 GIBSON DR, ROSEVILLE, CA, 95678",106814433,"L"
869683,"800 GIBSON DRIVE STE 924","ROSEVILLE","CA",NA,38.7800180450001,-121.283187471,183,"800 GIBSON DRIVE STE 924, ROSEVILLE, CA, ","Match","Exact","800 GIBSON DR, ROSEVILLE, CA, 95678",106814433,"L"
869684,"800 GLYNN OAKS DR","CLARKSTON","GA",30021,33.8021302430001,-84.2440306989999,184,"800 GLYNN OAKS DR, CLARKSTON, GA, 30021","Match","Exact","800 GLYNN OAKS DR, CLARKSTON, GA, 30021",611253156,"L"
869685,"800 GOULLON CT","LOUISVILLE","KY",40204,38.240877878,-85.7353332449999,185,"800 GOULLON CT, LOUISVILLE, KY, 40204","Match","Exact","800 GOULLON CT, LOUISVILLE, KY, 40204",619884563,"L"
869686,"800 GOVERNORS DR","PIERRE","SD",57501,NA,NA,186,"800 GOVERNORS DR, PIERRE, SD, 57501","No_Match",NA,NA,NA,NA
869687,"800 GRANT AVENUE","COLLINGSWOOD","NJ",8107,39.9111819730001,-75.087293546,187,"800 GRANT AVENUE, COLLINGSWOOD, NJ, 8107","Match","Exact","800 GRANT AVE, COLLINGSWOOD, NJ, 08107",134348399,"L"
869688,"800 GREEN BROOK DR","ALLEN","TX",75002,33.1045207610001,-96.652288507,188,"800 GREEN BROOK DR, ALLEN, TX, 75002","Match","Exact","800 GREEN BROOK DR, ALLEN, TX, 75002",123495034,"R"
869689,"800 GREEN BROOK DRIVE","ALLEN","TX",75002,33.1045207610001,-96.652288507,189,"800 GREEN BROOK DRIVE, ALLEN, TX, 75002","Match","Exact","800 GREEN BROOK DR, ALLEN, TX, 75002",123495034,"R"
869690,"800 GREEN LEAF CIRCLE","WAUSAU","WI",54401,44.9727556170001,-89.688293329,190,"800 GREEN LEAF CIRCLE, WAUSAU, WI, 54401","Match","Exact","800 GREEN LEAF CIR, WAUSAU, WI, 54401",117143192,"R"
869691,"800 GREENHAVEN DR APT 5P","GREENSBORO","NC",27406,NA,NA,191,"800 GREENHAVEN DR APT 5P, GREENSBORO, NC, 27406","Tie",NA,NA,NA,NA
869692,"800 GREENWOOD AVENUE","BROOKLYN","NY",11218,40.652164456,-73.97388896,192,"800 GREENWOOD AVENUE, BROOKLYN, NY, 11218","Match","Exact","800 GREENWOOD AVE, BROOKLYN, NY, 11218",59080558,"R"
869693,"800 GREYSTONE COURT APT 105","FREDERICKSBURG","VA",22401,NA,NA,193,"800 GREYSTONE COURT APT 105, FREDERICKSBURG, VA, 22401","No_Match",NA,NA,NA,NA
869694,"800 GRIFFIN STREET","MACKINAW CITY","MI",49701,NA,NA,194,"800 GRIFFIN STREET, MACKINAW CITY, MI, 49701","No_Match",NA,NA,NA,NA
869695,"800 GUNNISON AVE","LAKE CITY","CO",81235,38.0347222940001,-107.312918816,195,"800 GUNNISON AVE, LAKE CITY, CO, 81235","Match","Non_Exact","800 GUNNISON ST, LAKE CITY, CO, 81235",91685497,"R"
869696,"800 HAHN DRIVE","SHAKOPEE","MN",55379,44.734925543,-93.53770106,196,"800 HAHN DRIVE, SHAKOPEE, MN, 55379","Match","Exact","800 HAHN DR, SHAKOPEE, MN, 55379",606957932,"R"
869697,"800 HALL ST","ELY","NV",89301,39.2433913040001,-114.893552786,197,"800 HALL ST, ELY, NV, 89301","Match","Exact","800 HALL ST, ELY, NV, 89301",188266128,"R"
869698,"800 HALL STREET","ELY","NV",89301,39.2433913040001,-114.893552786,198,"800 HALL STREET, ELY, NV, 89301","Match","Exact","800 HALL ST, ELY, NV, 89301",188266128,"R"
869699,"800 HANCOCK STREET - 3C","BROOKLYN","NY",11233,40.685498162,-73.924211624,199,"800 HANCOCK STREET - 3C, BROOKLYN, NY, 11233","Match","Exact","800 HANCOCK ST, BROOKLYN, NY, 11233",634254873,"R"
869700,"800 HANSGEN MORGAN RD","WHEELERSBURG","OH",45694,38.7761748180001,-82.829599423,200,"800 HANSGEN MORGAN RD, WHEELERSBURG, OH, 45694","Match","Exact","800 HANSGEN MORGAN RD, WHEELERSBURG, OH, 45694",55111668,"R"
869701,"800 HARMONS CREEK ROAD","CAMDEN","TN",38320,NA,NA,201,"800 HARMONS CREEK ROAD, CAMDEN, TN, 38320","No_Match",NA,NA,NA,NA
869702,"800 HASTON DRIVE","TRUSSVILLE","AL",35173,NA,NA,202,"800 HASTON DRIVE, TRUSSVILLE, AL, 35173","No_Match",NA,NA,NA,NA
869703,"800 HAUSMAN ROAD","ALLENTOWN","PA",18104,40.593340916,-75.5589230319999,203,"800 HAUSMAN ROAD, ALLENTOWN, PA, 18104","Match","Exact","800 HAUSMAN RD, ALLENTOWN, PA, 18104",637488193,"R"
869704,"800 HEARTWOOD LANE","BAYFIELD","CO",81122,37.2327377670001,-107.622960652,204,"800 HEARTWOOD LANE, BAYFIELD, CO, 81122","Match","Exact","800 HEARTWOOD LN, BAYFIELD, CO, 81122",91727576,"R"
869705,"800 HEATH STREET APT 81","GREENVILLE","NC",27834,35.604343166,-77.3458907529999,205,"800 HEATH STREET APT 81, GREENVILLE, NC, 27834","Match","Non_Exact","800 HEATH ST, GREENVILLE, NC, 27858",80011675,"L"
869706,"800 HERITAGE OAKS DR","ANGLETON","TX",77515,29.171006683,-95.451474407,206,"800 HERITAGE OAKS DR, ANGLETON, TX, 77515","Match","Exact","800 HERITAGE OAKS DR, ANGLETON, TX, 77515",116626764,"R"
869707,"800 HICKORY SHOALS RD NW","MARIETTA","GA",30064,33.974975102,-84.6805245739999,207,"800 HICKORY SHOALS RD NW, MARIETTA, GA, 30064","Match","Non_Exact","800 HICKORY SHOALS RD, MARIETTA, GA, 30064",618316672,"R"
869708,"800 HIGH MEADOW COURT","LEWISVILLE","TX",75077,33.051429263,-97.0175765879999,208,"800 HIGH MEADOW COURT, LEWISVILLE, TX, 75077","Match","Exact","800 HIGH MEADOW CT, LEWISVILLE, TX, 75077",103427973,"R"
869709,"800 HIGHLAND STREET","DOTHAN","AL",36301,31.1937295590001,-85.3889352159999,209,"800 HIGHLAND STREET, DOTHAN, AL, 36301","Match","Exact","800 HIGHLAND ST, DOTHAN, AL, 36301",101216013,"R"
869710,"800 HILL AVE","DELAND","FL",32720,NA,NA,210,"800 HILL AVE, DELAND, FL, 32720","No_Match",NA,NA,NA,NA
869711,"800 HILLSBORO DRIVE","SILVER SPRING","MD",20902,39.040523605,-77.0239176059999,211,"800 HILLSBORO DRIVE, SILVER SPRING, MD, 20902","Match","Exact","800 HILLSBORO DR, SILVER SPRING, MD, 20902",62064570,"L"
869712,"800 HILLSDALE AVE APT328","SAN JOSE","CA",95136,37.2788096780001,-121.868793603,212,"800 HILLSDALE AVE APT328, SAN JOSE, CA, 95136","Match","Exact","800 HILLSDALE AVE, SAN JOSE, CA, 95136",618192366,"L"
869713,"800 HILLSDALE AVENUE","SAN JOSE","CA",95136,37.2788096780001,-121.868793603,213,"800 HILLSDALE AVENUE, SAN JOSE, CA, 95136","Match","Exact","800 HILLSDALE AVE, SAN JOSE, CA, 95136",618192366,"L"
869714,"800 HISTORIC GOLDSBORO BLVD","SANFORD","FL",32771,NA,NA,214,"800 HISTORIC GOLDSBORO BLVD, SANFORD, FL, 32771","No_Match",NA,NA,NA,NA
869715,"800 HOLMAN RD","MOBERLY","MO",65270,39.4256457640001,-92.4571245669999,215,"800 HOLMAN RD, MOBERLY, MO, 65270","Match","Exact","800 HOLMAN RD, MOBERLY, MO, 65270",23794999,"R"
869716,"800 HOLT GROVE CT","NASHVILLE","TN",37211,36.011342735,-86.726141323,216,"800 HOLT GROVE CT, NASHVILLE, TN, 37211","Match","Exact","800 HOLT GROVE CT, NASHVILLE, TN, 37211",97221124,"R"
869717,"800 HOWARD BAKER JR AVENUE","KNOXVILLE","TN",37915,NA,NA,217,"800 HOWARD BAKER JR AVENUE, KNOXVILLE, TN, 37915","No_Match",NA,NA,NA,NA
869718,"800 HWY 184","EARLE","AR",72331,35.2941439840001,-90.517732779,218,"800 HWY 184, EARLE, AR, 72331","Match","Non_Exact","800 STATE HWY 184, EARLE, AR, 72331",607587506,"L"
869719,"800 HWY 361","GABBS","NV",89409,NA,NA,219,"800 HWY 361, GABBS, NV, 89409","No_Match",NA,NA,NA,NA
869720,"800 IMM STREET","WAUSAU, WI","WI",54401,44.9407629040001,-89.644872698,220,"800 IMM STREET, WAUSAU, WI, WI, 54401","Match","Non_Exact","800 IMM ST, WAUSAU, WI, 54401",117138295,"R"
869721,"800 INDIAN SPRINGS ROAD","CHAPEL HILL","NC",27514,35.9237906710001,-79.029559563,221,"800 INDIAN SPRINGS ROAD, CHAPEL HILL, NC, 27514","Match","Exact","800 INDIAN SPRINGS RD, CHAPEL HILL, NC, 27514",618066291,"R"
869722,"800 ISLAND POINTE LN","CHAPIN","SC",29036,34.081153306,-81.380519432,222,"800 ISLAND POINTE LN, CHAPIN, SC, 29036","Match","Non_Exact","800 ISLAND POINT LN, CHAPIN, SC, 29036",70077893,"L"
869723,"800 ISLER STREET","GOLDSBORO","NC",27530,35.3718539720001,-77.993519078,223,"800 ISLER STREET, GOLDSBORO, NC, 27530","Match","Exact","800 ISLER ST, GOLDSBORO, NC, 27530",14404106,"L"
869724,"800 J STREET SUITE 534","SACRAMENTO","CA",95814,38.580992759,-121.496018553,224,"800 J STREET SUITE 534, SACRAMENTO, CA, 95814","Match","Exact","800 J ST, SACRAMENTO, CA, 95814",133323345,"R"
869725,"800 JACKSON ST APT 608","HOBOKEN","NJ",7030,40.745853846,-74.03901952,225,"800 JACKSON ST APT 608, HOBOKEN, NJ, 7030","Match","Exact","800 JACKSON ST, HOBOKEN, NJ, 07030",59605363,"L"
869726,"800 JACKSON ST","DALLAS","TX",75202,32.777911553,-96.8046320189999,226,"800 JACKSON ST, DALLAS, TX, 75202","Match","Exact","800 JACKSON ST, DALLAS, TX, 75202",102910055,"R"
869727,"800 JACKSON STR","ROANOKE RAPIDS","NC",27870,36.459698082,-77.6566639549999,227,"800 JACKSON STR, ROANOKE RAPIDS, NC, 27870","Match","Exact","800 JACKSON ST, ROANOKE RAPIDS, NC, 27870",56742790,"R"
869728,"800 JACKSON","CINCINNATI","OH",45215,39.245453954,-84.4601468829999,228,"800 JACKSON, CINCINNATI, OH, 45215","Match","Non_Exact","800 JACKSON ST, CINCINNATI, OH, 45215",103926581,"L"
869729,"800 JADESTONE CIRCLE","ORLANDO","FL",32828,28.5534121100001,-81.1868635179999,229,"800 JADESTONE CIRCLE, ORLANDO, FL, 32828","Match","Exact","800 JADESTONE CIR, ORLANDO, FL, 32828",94371018,"R"
869730,"800 JAMAICA AVE APT 1","RENO","NV",89502,39.47750726,-119.781030142,230,"800 JAMAICA AVE APT 1, RENO, NV, 89502","Match","Exact","800 JAMAICA AVE, RENO, NV, 89502",107108297,"R"
869731,"800 JEFFERSON SE","BONDURANT","IA",50035,41.696177414,-93.454627978,231,"800 JEFFERSON SE, BONDURANT, IA, 50035","Match","Non_Exact","800 JEFFERSON AVE SE, BONDURANT, IA, 50035",604923542,"L"
869732,"800 JEFFERSON ST APT 1407","SEATTLE","WA",98104,47.6043174180001,-122.325357349,232,"800 JEFFERSON ST APT 1407, SEATTLE, WA, 98104","Match","Exact","800 JEFFERSON ST, SEATTLE, WA, 98104",186590028,"L"
869733,"800 JEFFERSON STREET SUITE 1705","SEATTLE","WA",98104,47.6043174180001,-122.325357349,233,"800 JEFFERSON STREET SUITE 1705, SEATTLE, WA, 98104","Match","Exact","800 JEFFERSON ST, SEATTLE, WA, 98104",186590028,"L"
869734,"800 JEREMIAH LN","OTTAWA","IL",61350,41.3175571130001,-88.846933752,234,"800 JEREMIAH LN, OTTAWA, IL, 61350","Match","Exact","800 JEREMIAH LN, OTTAWA, IL, 61350",8621562,"L"
869735,"800 JOHN CARLYLE STREET APT 218","ALEXANDRIA","VA",22314,38.799129599,-77.0622189159999,235,"800 JOHN CARLYLE STREET APT 218, ALEXANDRIA, VA, 22314","Match","Exact","800 JOHN CARLYLE ST, ALEXANDRIA, VA, 22314",641049266,"L"
869736,"800 JOHNSON CEDAR ROAD","WEST BRANCH","IA",52358,41.680721863,-91.366282805,236,"800 JOHNSON CEDAR ROAD, WEST BRANCH, IA, 52358","Match","Non_Exact","800 JOHNSON CEDAR RD NE, WEST BRANCH, IA, 52358",643004130,"L"
869737,"800 JOSEPH E BOONE BLVD NW","ATLANTA","GA",30314,NA,NA,237,"800 JOSEPH E BOONE BLVD NW, ATLANTA, GA, 30314","No_Match",NA,NA,NA,NA
869738,"800 JULIEN DUBUQUE DRIVE","DUBUQUE","IA",52004,42.470360364,-90.662634414,238,"800 JULIEN DUBUQUE DRIVE, DUBUQUE, IA, 52004","Match","Non_Exact","800 JULIEN DUBUQUE DR, DUBUQUE, IA, 52003",636486444,"L"
869739,"800 KATIE LANE","CORRALITOS","CA",95076,37.0091032280001,-121.796116784,239,"800 KATIE LANE, CORRALITOS, CA, 95076","Match","Exact","800 KATIE LN, CORRALITOS, CA, 95076",125518544,"L"
869740,"800 KEARNY AVE 2R","KEARNY","NJ",7032,40.7793914170001,-74.140433518,240,"800 KEARNY AVE 2R, KEARNY, NJ, 7032","Match","Exact","800 KEARNY AVE, KEARNY, NJ, 07032",59600682,"R"
869741,"800 KENDRICK CREEK RD","KINGSPORT","TN",37663,NA,NA,241,"800 KENDRICK CREEK RD, KINGSPORT, TN, 37663","No_Match",NA,NA,NA,NA
869742,"800 KILBRENNAN LAKE ROAD","TROY","MT",59935,48.4940439550001,-115.897899679,242,"800 KILBRENNAN LAKE ROAD, TROY, MT, 59935","Match","Exact","800 KILBRENNAN LAKE RD, TROY, MT, 59935",169657000,"R"
869743,"800 KING FARM BLVD STE 500","ROCKVILLE","MD",20850,NA,NA,243,"800 KING FARM BLVD STE 500, ROCKVILLE, MD, 20850","No_Match",NA,NA,NA,NA
869744,"800 KING FARM BLVD STE 500","ROCVILLE","MD",20850,NA,NA,244,"800 KING FARM BLVD STE 500, ROCVILLE, MD, 20850","No_Match",NA,NA,NA,NA
869745,"800 KINGS HIGHWAY N - STE 307","CHERRY HILL","NJ",8034,NA,NA,245,"800 KINGS HIGHWAY N - STE 307, CHERRY HILL, NJ, 8034","Tie",NA,NA,NA,NA
869746,"800 KOSTNER AVENUE","MATTERSON","IL",60443,41.511671156,-87.72224178,246,"800 KOSTNER AVENUE, MATTERSON, IL, 60443","Match","Non_Exact","800 KOSTNER AVE, MATTESON, IL, 60443",605675225,"R"
869747,"800 LAFAYETTE RD","CLARKSVILLE","TN",37042,36.5756996380001,-87.4330034449999,247,"800 LAFAYETTE RD, CLARKSVILLE, TN, 37042","Match","Exact","800 LAFAYETTE RD, CLARKSVILLE, TN, 37042",31834796,"R"
869748,"800 LAKESHORE DRIVE NO 293941","BIRMINGHAM","AL",35229,NA,NA,248,"800 LAKESHORE DRIVE NO 293941, BIRMINGHAM, AL, 35229","No_Match",NA,NA,NA,NA
869749,"800 LAKESHORE DRIVE","BIRMINGHAM","AL",35229,33.461402075,-86.793961092,249,"800 LAKESHORE DRIVE, BIRMINGHAM, AL, 35229","Match","Non_Exact","800 LAKESHORE DR, BIRMINGHAM, AL, 35209",638589353,"L"
869750,"800 LAMOKA DRIVE","ODENTON","MD",21113,39.063155319,-76.70554161,250,"800 LAMOKA DRIVE, ODENTON, MD, 21113","Match","Exact","800 LAMOKA DR, ODENTON, MD, 21113",68216499,"R"
869751,"800 LANCASTER AVE - VILLANOVA","VILLANOVA","PA",19085,NA,NA,251,"800 LANCASTER AVE - VILLANOVA, VILLANOVA, PA, 19085","No_Match",NA,NA,NA,NA
869752,"800 LANCASTER AVE T-2","BERWYN","PA",19312,40.046415423,-75.445026797,252,"800 LANCASTER AVE T-2, BERWYN, PA, 19312","Match","Exact","800 LANCASTER AVE, BERWYN, PA, 19312",179498793,"L"
869753,"800 LAPIS LN","EUREKA SPRINGS","AK",72632,NA,NA,253,"800 LAPIS LN, EUREKA SPRINGS, AK, 72632","No_Match",NA,NA,NA,NA
869754,"800 LARAMIE AVENUE","GLENVIEW","IL",60025,NA,NA,254,"800 LARAMIE AVENUE, GLENVIEW, IL, 60025","No_Match",NA,NA,NA,NA
869755,"800 LAURAMM AVENUE","TALLMADGE","OH",44278,41.097626464,-81.411320111,255,"800 LAURAMM AVENUE, TALLMADGE, OH, 44278","Match","Non_Exact","800 LAURANN AVE, TALLMADGE, OH, 44278",61352767,"R"
869756,"800 LAUREL SPRINGS DRIVE APT 823","DURHAM","NC",27713,35.9130501750001,-78.931205215,256,"800 LAUREL SPRINGS DRIVE APT 823, DURHAM, NC, 27713","Match","Exact","800 LAUREL SPRINGS DR, DURHAM, NC, 27713",625041935,"L"
869757,"800 LAZY CREEK DRIVE","ROCKLIN","CA",95765,38.835830507,-121.271440598,257,"800 LAZY CREEK DRIVE, ROCKLIN, CA, 95765","Match","Exact","800 LAZY CREEK DR, ROCKLIN, CA, 95765",645206836,"R"
869758,"800 LEBLANC ROAD","DUSON","LA",70529,30.1231792080001,-92.142241438,258,"800 LEBLANC ROAD, DUSON, LA, 70529","Match","Exact","800 LEBLANC RD, DUSON, LA, 70529",85608886,"L"
869759,"800 LEE ROAD 621","OPELIKA","AL",36804,32.595824587,-85.3498744089999,259,"800 LEE ROAD 621, OPELIKA, AL, 36804","Match","Exact","800 LEE ROAD 621, OPELIKA, AL, 36804",1583321,"R"
869760,"800 LENORA ST SUITE 803","SEATTLE","WA",98121,47.6165431850001,-122.337831214,260,"800 LENORA ST SUITE 803, SEATTLE, WA, 98121","Match","Exact","800 LENORA ST, SEATTLE, WA, 98121",186583900,"L"
869761,"800 LEXINGTON ST APT 22","NORMAN","OK",73069,35.240216581,-97.4540322729999,261,"800 LEXINGTON ST APT 22, NORMAN, OK, 73069","Match","Exact","800 LEXINGTON ST, NORMAN, OK, 73069",99917486,"R"
869762,"800 LIBERTY PIKE","FRANKLIN","TN",37064,35.929074508,-86.846741203,262,"800 LIBERTY PIKE, FRANKLIN, TN, 37064","Match","Exact","800 LIBERTY PIKE, FRANKLIN, TN, 37064",607911556,"R"
869763,"800 LIBERTY","ASHLAND","OR",97520,42.1822495260001,-122.703288533,263,"800 LIBERTY, ASHLAND, OR, 97520","Match","Non_Exact","800 LIBERTY ST, ASHLAND, OR, 97520",649913259,"R"
869764,"800 LINCOLN GLEN DR","BUENA PARK","CA",90620,33.8307076930001,-118.013992092,264,"800 LINCOLN GLEN DR, BUENA PARK, CA, 90620","Match","Exact","800 LINCOLN GLEN, BUENA PARK, CA, 90620",624013139,"L"
869765,"800 LINDA LEDESMA RD","ANTHONY","NM",88021,32.022167129,-106.604694017,265,"800 LINDA LEDESMA RD, ANTHONY, NM, 88021","Match","Exact","800 LINDA LEDESMA RD, ANTHONY, NM, 88021",189557301,"L"
869766,"800 LINDEN ST","DOTHAN","AL",36303,31.233485434,-85.400687379,266,"800 LINDEN ST, DOTHAN, AL, 36303","Match","Exact","800 LINDEN ST, DOTHAN, AL, 36303",101214639,"R"
869767,"800 LINDEN STREET","SCRANTON","PA",18510,41.406844047,-75.658773245,267,"800 LINDEN STREET, SCRANTON, PA, 18510","Match","Non_Exact","800 LINDEN ST, SCRANTON, PA, 18503",139327701,"R"
869768,"800 LINK DR SE","PINE CITY","MN",55063,45.8201662320001,-92.956320138,268,"800 LINK DR SE, PINE CITY, MN, 55063","Match","Exact","800 LINK DR SE, PINE CITY, MN, 55063",163115895,"L"
869769,"800 LIVINGSTON BLVD SUITE 2B","GAYLORD","MI",49735,NA,NA,269,"800 LIVINGSTON BLVD SUITE 2B, GAYLORD, MI, 49735","No_Match",NA,NA,NA,NA
869770,"800 LIVINGSTON","GAYLORD","MI",49735,NA,NA,270,"800 LIVINGSTON, GAYLORD, MI, 49735","No_Match",NA,NA,NA,NA
869771,"800 LOCH ALSH AVE","FORT WASHINGTON","PA",19034,40.153101555,-75.201152065,271,"800 LOCH ALSH AVE, FORT WASHINGTON, PA, 19034","Match","Exact","800 LOCH ALSH AVE, FORT WASHINGTON, PA, 19034",645857366,"L"
869772,"800 LOCH ALSH AVENUE","FORT WASHINGTON","PA",19034,40.153101555,-75.201152065,272,"800 LOCH ALSH AVENUE, FORT WASHINGTON, PA, 19034","Match","Exact","800 LOCH ALSH AVE, FORT WASHINGTON, PA, 19034",645857366,"L"
869773,"800 LOCUST ST SHERMAN HALL 107","JEFFERSON CITY","MO",65101,38.5627609040001,-92.165463763,273,"800 LOCUST ST SHERMAN HALL 107, JEFFERSON CITY, MO, 65101","Match","Exact","800 LOCUST ST, JEFFERSON CITY, MO, 65101",639464695,"L"
869774,"800 LONE OAK ROAD","SAINT PAUL","MN",55116,44.847901338,-93.12657699,274,"800 LONE OAK ROAD, SAINT PAUL, MN, 55116","Match","Non_Exact","800 LONE OAK RD, SAINT PAUL, MN, 55121",641373318,"R"
869775,"800 LONGVIEW DR EXTENSION","FAYETTEVILLE","NC",28311,NA,NA,275,"800 LONGVIEW DR EXTENSION, FAYETTEVILLE, NC, 28311","No_Match",NA,NA,NA,NA
869776,"800 LOUISIANA BLVD NE","ALBUQUERQUE","NM",87108,35.0874035430001,-106.568634199,276,"800 LOUISIANA BLVD NE, ALBUQUERQUE, NM, 87108","Match","Non_Exact","800 LOUISIANA BLVD NE, ALBUQUERQUE, NM, 87110",206717552,"R"
869777,"800 LUCINDA AVENUE","BELLEVILLE","IL",62221,38.525805658,-89.9723860299999,277,"800 LUCINDA AVENUE, BELLEVILLE, IL, 62221","Match","Exact","800 LUCINDA AVE, BELLEVILLE, IL, 62221",107842602,"R"
869778,"800 LUMMIS ROAD","SUFFOLK","VA",23437,36.6834588200001,-76.712123805,278,"800 LUMMIS ROAD, SUFFOLK, VA, 23437","Match","Exact","800 LUMMIS RD, SUFFOLK, VA, 23437",624415507,"R"
869779,"800 M ST SE","WASHINGTON","DC",20003,38.8764810690001,-76.994871054,279,"800 M ST SE, WASHINGTON, DC, 20003","Match","Exact","800 M ST SE, WASHINGTON, DC, 20003",76230741,"L"
869780,"800 MAC LN SE","OLYMPIA","WA",98513,47.048720588,-122.749532301,280,"800 MAC LN SE, OLYMPIA, WA, 98513","Match","Exact","800 MAC LN SE, OLYMPIA, WA, 98513",624520381,"L"
869781,"800 MADISION STREET","OAKLAND","CA",94607,37.797446587,-122.26663187,281,"800 MADISION STREET, OAKLAND, CA, 94607","Match","Non_Exact","800 MADISON ST, OAKLAND, CA, 94607",124997252,"R"
869782,"800 MADISON ST","ONALASKA","WI",54650,43.8862048610001,-91.228011378,282,"800 MADISON ST, ONALASKA, WI, 54650","Match","Exact","800 MADISON ST, ONALASKA, WI, 54650",51010785,"R"
869783,"800 MADISON STREET","OAKLAND","CA",94607,37.797446587,-122.26663187,283,"800 MADISON STREET, OAKLAND, CA, 94607","Match","Exact","800 MADISON ST, OAKLAND, CA, 94607",124997252,"R"
869784,"800 MAGEE DR 212","BROOKHAVEN","MS",39601,31.576324302,-90.4707005019999,284,"800 MAGEE DR 212, BROOKHAVEN, MS, 39601","Match","Exact","800 MAGEE DR, BROOKHAVEN, MS, 39601",612485825,"R"
869785,"800 MAGEE","BROOKHAVEN","MS",39601,31.576324302,-90.4707005019999,285,"800 MAGEE, BROOKHAVEN, MS, 39601","Match","Non_Exact","800 MAGEE DR, BROOKHAVEN, MS, 39601",612485825,"R"
869786,"800 MAGNOLIA AVE SUITE 1500","ORLANDO","FL",32803,28.5550359110001,-81.376884569,286,"800 MAGNOLIA AVE SUITE 1500, ORLANDO, FL, 32803","Match","Exact","800 MAGNOLIA AVE, ORLANDO, FL, 32803",645596799,"L"
869787,"800 MAIN ST","CONCORD","MA",1742,42.45559172,-71.3767721039999,287,"800 MAIN ST, CONCORD, MA, 1742","Match","Exact","800 MAIN ST, CONCORD, MA, 01742",86844232,"R"
869788,"800 MAIN ST","VANCOUVER","WA",98660,45.627282603,-122.671648497,288,"800 MAIN ST, VANCOUVER, WA, 98660","Match","Exact","800 MAIN ST, VANCOUVER, WA, 98660",158325718,"L"
869789,"800 MALIBU DRIVE APT 303","WEST PALM BEACH","FL",33401,NA,NA,289,"800 MALIBU DRIVE APT 303, WEST PALM BEACH, FL, 33401","No_Match",NA,NA,NA,NA
869790,"800 MALLARD AVE","DENTON","TX",76210,NA,NA,290,"800 MALLARD AVE, DENTON, TX, 76210","No_Match",NA,NA,NA,NA
869791,"800 MALLARD WAY","SHERMAN","IL",62684,39.8876239840001,-89.6052300489999,291,"800 MALLARD WAY, SHERMAN, IL, 62684","Match","Exact","800 MALLARD WAY, SHERMAN, IL, 62684",97352897,"L"
869792,"800 MAPLE STREET","ANITA","IA",50020,41.4509977320001,-94.7663189209999,292,"800 MAPLE STREET, ANITA, IA, 50020","Match","Exact","800 MAPLE ST, ANITA, IA, 50020",61594628,"L"
869793,"800 MARION PUGH DRIVE SUITE 2324","COLLEGE STATION","TX",77840,30.5978616680001,-96.337336165,293,"800 MARION PUGH DRIVE SUITE 2324, COLLEGE STATION, TX, 77840","Match","Exact","800 MARION PUGH DR, COLLEGE STATION, TX, 77840",21845505,"L"
869794,"800 MARKET STREET SUITE 500","ST LOUIS","MO",63101,38.6262545070001,-90.19339772,294,"800 MARKET STREET SUITE 500, ST LOUIS, MO, 63101","Match","Exact","800 MARKET ST, SAINT LOUIS, MO, 63101",107605756,"L"
869795,"800 MARKET STREET SUITE 500","ST. LOUIS","MO",63101,38.6262545070001,-90.19339772,295,"800 MARKET STREET SUITE 500, ST. LOUIS, MO, 63101","Match","Exact","800 MARKET ST, SAINT LOUIS, MO, 63101",107605756,"L"
869796,"800 MARKET STREET","ST LOUIS","MO",63101,38.6262545070001,-90.19339772,296,"800 MARKET STREET, ST LOUIS, MO, 63101","Match","Exact","800 MARKET ST, SAINT LOUIS, MO, 63101",107605756,"L"
869797,"800 MARKLEY ROAD","CINCINNATI","OH",45230,39.0603102640001,-84.362104876,297,"800 MARKLEY ROAD, CINCINNATI, OH, 45230","Match","Exact","800 MARKLEY RD, CINCINNATI, OH, 45230",103952317,"R"
869798,"800 MCCANN ROAD","SPRINGDALE","AR",72758,36.2995599700001,-94.10621772,298,"800 MCCANN ROAD, SPRINGDALE, AR, 72758","Match","Non_Exact","800 MCCANN RD, ROGERS, AR, 72758",641795967,"L"
869799,"800 MCINTIRE STREET","BOULDER","CO",80303,40.0026981230001,-105.233785141,299,"800 MCINTIRE STREET, BOULDER, CO, 80303","Match","Exact","800 MCINTIRE ST, BOULDER, CO, 80303",188163363,"R"
869800,"800 MEGAN DRIVE","CRANBERRY TWP","PA",16066,40.687301104,-80.128820224,300,"800 MEGAN DRIVE, CRANBERRY TWP, PA, 16066","Match","Exact","800 MEGAN DR, CRANBERRY TOWNSHIP, PA, 16066",52685113,"R"
869801,"800 MERCEDES ST","BENBROOK","TX",76126,32.678940756,-97.457044603,301,"800 MERCEDES ST, BENBROOK, TX, 76126","Match","Exact","800 MERCEDES ST, BENBROOK, TX, 76126",101879205,"R"
869802,"800 MERCEDES","BENBROOK","TX",76126,32.678940756,-97.457044603,302,"800 MERCEDES, BENBROOK, TX, 76126","Match","Non_Exact","800 MERCEDES ST, BENBROOK, TX, 76126",101879205,"R"
869803,"800 MERCY DRIVE SUITE 4","ORLANDO","FL",32808,28.5528091840001,-81.430413459,303,"800 MERCY DRIVE SUITE 4, ORLANDO, FL, 32808","Match","Exact","800 MERCY DR, ORLANDO, FL, 32808",94380647,"L"
869804,"800 MERCY DRIVE","COUNCIL BLUFFS","IA",51503,41.2674507580001,-95.840503095,304,"800 MERCY DRIVE, COUNCIL BLUFFS, IA, 51503","Match","Exact","800 MERCY DR, COUNCIL BLUFFS, IA, 51503",43930707,"L"
869805,"800 MERE POINT RD","BRUNSWICK","ME",4011,43.8485440540001,-69.9964296379999,305,"800 MERE POINT RD, BRUNSWICK, ME, 4011","Match","Exact","800 MERE POINT RD, BRUNSWICK, ME, 04011",78054166,"R"
869806,"800 MEYER LANE APT 28","REDONDO BEACH","CA",90278,33.86054669,-118.369863401,306,"800 MEYER LANE APT 28, REDONDO BEACH, CA, 90278","Match","Exact","800 MEYER LN, REDONDO BEACH, CA, 90278",142665751,"R"
869807,"800 MIDDLEFIELD HILL COURT","CARY","NC",27519,35.8183233780001,-78.890650594,307,"800 MIDDLEFIELD HILL COURT, CARY, NC, 27519","Match","Exact","800 MIDDLEFIELD HILL CT, CARY, NC, 27519",612813402,"R"
869808,"800 MILLER RIDGE LANE","YELLVILLE","AR",72687,36.3315901610001,-92.729569388,308,"800 MILLER RIDGE LANE, YELLVILLE, AR, 72687","Match","Exact","800 MILLER RIDGE LN, YELLVILLE, AR, 72687",648458856,"L"
869809,"800 MIMOSA DRIVE","ADAMSVILLE","AL",35005,33.596003045,-86.9240043899999,309,"800 MIMOSA DRIVE, ADAMSVILLE, AL, 35005","Match","Exact","800 MIMOSA DR, ADAMSVILLE, AL, 35005",81620293,"L"
869810,"800 MINNEHAHA AVE E STE 370","ST PAUL","MN",55106,44.963038785,-93.067498289,310,"800 MINNEHAHA AVE E STE 370, ST PAUL, MN, 55106","Match","Exact","800 MINNEHAHA AVE E, SAINT PAUL, MN, 55106",97650902,"R"
869811,"800 MINOR STREET","SAN JANCINTO","CA",92583,33.7780573050001,-116.953099177,311,"800 MINOR STREET, SAN JANCINTO, CA, 92583","Match","Non_Exact","800 MINOR ST, SAN JACINTO, CA, 92583",609002077,"L"
869812,"800 MONROE STREET","LA PORTE CITY","IA",50651,42.310723093,-92.188581981,312,"800 MONROE STREET, LA PORTE CITY, IA, 50651","Match","Non_Exact","800 MONROE, LA PORTE CITY, IA, 50651",77246101,"R"
869813,"800 MORNINGSIDE DR","FULLERTON","CA",92835,33.8989821340001,-117.913640435,313,"800 MORNINGSIDE DR, FULLERTON, CA, 92835","Match","Exact","800 MORNINGSIDE DR, FULLERTON, CA, 92835",144124204,"L"
869814,"800 MORNINGSIDE DRIVE","FULLERTON","CA",92835,33.8989821340001,-117.913640435,314,"800 MORNINGSIDE DRIVE, FULLERTON, CA, 92835","Match","Exact","800 MORNINGSIDE DR, FULLERTON, CA, 92835",144124204,"L"
869815,"800 MOSELEY DRIVE","STOCKBIRDGE","GA",30281,33.5590589080001,-84.154176664,315,"800 MOSELEY DRIVE, STOCKBIRDGE, GA, 30281","Match","Non_Exact","800 MOSELEY DR, STOCKBRIDGE, GA, 30281",23211917,"L"
869816,"800 MOSELEY DRIVE","STOCKBRIDGE","GA",30281,33.5590589080001,-84.154176664,316,"800 MOSELEY DRIVE, STOCKBRIDGE, GA, 30281","Match","Exact","800 MOSELEY DR, STOCKBRIDGE, GA, 30281",23211917,"L"
869817,"800 MOTLEY ROAD","HOPKINS","SC",29016,33.9375294220001,-80.8469845829999,317,"800 MOTLEY ROAD, HOPKINS, SC, 29016","Match","Non_Exact","800 MOTLEY RD, HOPKINS, SC, 29061",71853132,"R"
869818,"800 MOUNT AUBURN STREET","WATERTOWN","MA",2472,42.3741602110001,-71.1513290569999,318,"800 MOUNT AUBURN STREET, WATERTOWN, MA, 2472","Match","Exact","800 MOUNT AUBURN ST, WATERTOWN, MA, 02472",623836272,"L"
869819,"800 MOUNT CARMEL DRIVE","ALEXANDRIA","MN",56308,45.9837676940001,-95.363871231,319,"800 MOUNT CARMEL DRIVE, ALEXANDRIA, MN, 56308","Match","Non_Exact","800 MOUNT CARMEL DR NE, ALEXANDRIA, MN, 56308",204664603,"R"
869820,"800 MOUNTAIN ROAD NE","ALBUQUERQUE","NM",87102,35.094056403,-106.637570524,320,"800 MOUNTAIN ROAD NE, ALBUQUERQUE, NM, 87102","Match","Exact","800 MOUNTAIN RD NE, ALBUQUERQUE, NM, 87102",634815193,"R"
869821,"800 MYRTLE ST NE APT E","ATLANTA","GA",30308,33.7764469410001,-84.379888737,321,"800 MYRTLE ST NE APT E, ATLANTA, GA, 30308","Match","Exact","800 MYRTLE ST NE, ATLANTA, GA, 30308",17343729,"L"
869822,"800 N 2ND ST PMB 143","PHILADELPHIA","PA",19123,39.9630467000001,-75.140942089,322,"800 N 2ND ST PMB 143, PHILADELPHIA, PA, 19123","Match","Non_Exact","800 N 2ND ST, PHILADELPHIA, PA, 19123",131423124,"L"
869823,"800 N 3RD ST","CLINTON","IA",52732,41.852859423,-90.1893093579999,323,"800 N 3RD ST, CLINTON, IA, 52732","Match","Exact","800 N 3RD ST, CLINTON, IA, 52732",16807900,"L"
869824,"800 N 74TH ST","PARAGOULD","AR",72450,36.0772600830001,-90.582632301,324,"800 N 74TH ST, PARAGOULD, AR, 72450","Match","Exact","800 N 74TH ST, PARAGOULD, AR, 72450",47066111,"R"
869825,"800 N 8TH ST UNIT 333","SAN JOSE","CA",95112,NA,NA,325,"800 N 8TH ST UNIT 333, SAN JOSE, CA, 95112","Tie",NA,NA,NA,NA
869826,"800 N BLUE MOUND ROAD","FORT WORTH","TX",76131,32.8692182020001,-97.342398628,326,"800 N BLUE MOUND ROAD, FORT WORTH, TX, 76131","Match","Exact","800 N BLUE MOUND RD, FORT WORTH, TX, 76131",642822636,"R"
869827,"800 N BROADWAY ST","ALBANY","IN",47320,40.3056538760001,-85.239768017,327,"800 N BROADWAY ST, ALBANY, IN, 47320","Match","Exact","800 N BROADWAY ST, ALBANY, IN, 47320",30831598,"L"
869828,"800 N CAMPBELL AVE","BELOIT","KS",67420,39.466347333,-98.1076400169999,328,"800 N CAMPBELL AVE, BELOIT, KS, 67420","Match","Exact","800 N CAMPBELL AVE, BELOIT, KS, 67420",148303609,"R"
869829,"800 N CHESTNUT STREET","LITCHFIELD","IL",62056,39.1810823390001,-89.6482468149999,329,"800 N CHESTNUT STREET, LITCHFIELD, IL, 62056","Match","Exact","800 N CHESTNUT ST, LITCHFIELD, IL, 62056",99438512,"R"
869830,"800 N DOWNING ST","PIQUA","OH",45356,40.1539446150001,-84.242516887,330,"800 N DOWNING ST, PIQUA, OH, 45356","Match","Exact","800 N DOWNING ST, PIQUA, OH, 45356",135303968,"R"
869831,"800 N DOWNING","PIQUA","OH",45356,40.1539446150001,-84.242516887,331,"800 N DOWNING, PIQUA, OH, 45356","Match","Non_Exact","800 N DOWNING ST, PIQUA, OH, 45356",135303968,"R"
869832,"800 N EAST ST","EATON RAPIDS","MI",48827,42.520864117,-84.645894649,332,"800 N EAST ST, EATON RAPIDS, MI, 48827","Match","Exact","800 N EAST ST, EATON RAPIDS, MI, 48827",12036395,"R"
869833,"800 N ELM STREET","LUMBERTON","NC",28358,34.6226374300001,-79.0084963859999,333,"800 N ELM STREET, LUMBERTON, NC, 28358","Match","Exact","800 N ELM ST, LUMBERTON, NC, 28358",49140634,"R"
869834,"800 N GERMAN ST","NEW ULM","MN",56073,44.3218983780001,-94.465096127,334,"800 N GERMAN ST, NEW ULM, MN, 56073","Match","Exact","800 N GERMAN ST, NEW ULM, MN, 56073",28568669,"R"
869835,"800 N GLEBE ROAD","ARLINGTON","VA",22203,38.8800789480001,-77.1141256779999,335,"800 N GLEBE ROAD, ARLINGTON, VA, 22203","Match","Non_Exact","800 S GLEBE RD, ARLINGTON, VA, 22203",650276988,"R"
869836,"800 N HILL AVE","DELAND","FL",32720,NA,NA,336,"800 N HILL AVE, DELAND, FL, 32720","No_Match",NA,NA,NA,NA
869837,"800 N HILL AVE","DELAND","FL",32724,29.016836616,-81.282510985,337,"800 N HILL AVE, DELAND, FL, 32724","Match","Non_Exact","800 S HILL AVE, DELAND, FL, 32724",94591161,"L"
869838,"800 N HOLLISTON AVE","PASADENA","CA",91104,34.159573612,-118.123004193,338,"800 N HOLLISTON AVE, PASADENA, CA, 91104","Match","Exact","800 N HOLLISTON AVE, PASADENA, CA, 91104",141629045,"R"
869839,"800 N HWY D","WEBB CITY","MO",64870,NA,NA,339,"800 N HWY D, WEBB CITY, MO, 64870","No_Match",NA,NA,NA,NA
869840,"800 N HWY D","WEBB CITY","MO",NA,NA,NA,340,"800 N HWY D, WEBB CITY, MO, ","No_Match",NA,NA,NA,NA
869841,"800 N INTERSTATE 69E","BROWNSVILLE","TX",78521,NA,NA,341,"800 N INTERSTATE 69E, BROWNSVILLE, TX, 78521","No_Match",NA,NA,NA,NA
869842,"800 N JAMES","SPARTA","IL",62286,38.1307504540001,-89.70753487,342,"800 N JAMES, SPARTA, IL, 62286","Match","Non_Exact","800 N JAMES ST, SPARTA, IL, 62286",95173349,"R"
869843,"800 N LISMORE CT","NEWPORT NEWS","VA",23602,37.1161645120001,-76.4745956089999,343,"800 N LISMORE CT, NEWPORT NEWS, VA, 23602","Match","Exact","800 N LISMORE CT, NEWPORT NEWS, VA, 23602",103814990,"R"
869844,"800 N MAIN STE 110","MCALLEN","TX",78501,NA,NA,344,"800 N MAIN STE 110, MCALLEN, TX, 78501","No_Match",NA,NA,NA,NA
869845,"800 N MAIN STREET","DERMOTT","AR",71638,33.516826097,-91.436330886,345,"800 N MAIN STREET, DERMOTT, AR, 71638","Match","Non_Exact","800 S MAIN ST, DERMOTT, AR, 71638",69037704,"L"
869846,"800 N MARIA AVE","REDONDO BEACH","CA",90277,33.8538843360001,-118.386212455,346,"800 N MARIA AVE, REDONDO BEACH, CA, 90277","Match","Exact","800 N MARIA AVE, REDONDO BEACH, CA, 90277",141583508,"R"
869847,"800 N MIAMI AVE APT 1207","MIAMI","FL",33136,NA,NA,347,"800 N MIAMI AVE APT 1207, MIAMI, FL, 33136","No_Match",NA,NA,NA,NA
869848,"800 N MICHIGAN AVE APT 2202","CHICAGO","IL",60611,41.8968055180001,-87.624234964,348,"800 N MICHIGAN AVE APT 2202, CHICAGO, IL, 60611","Match","Non_Exact","800 N MICHIGAN AVE, CHICAGO, IL, 60611",111768939,"L"
869849,"800 N OKLAHOMA APT 2303","OKLAHOMA CITY","OK",73104,NA,NA,349,"800 N OKLAHOMA APT 2303, OKLAHOMA CITY, OK, 73104","No_Match",NA,NA,NA,NA
869850,"800 N PALM AVE","MT PLEASANT","IA",52641,40.975255421,-91.544697642,350,"800 N PALM AVE, MT PLEASANT, IA, 52641","Match","Exact","800 N PALM AVE, MOUNT PLEASANT, IA, 52641",16095800,"R"
869851,"800 N POPLAR STREET","CASPER","WY",82601,42.8585235310001,-106.333041336,351,"800 N POPLAR STREET, CASPER, WY, 82601","Match","Exact","800 N POPLAR ST, CASPER, WY, 82601",149022654,"L"
869852,"800 N PRAIRIE STREET","BATAVIA","IL",60510,41.859326626,-88.301534435,352,"800 N PRAIRIE STREET, BATAVIA, IL, 60510","Match","Exact","800 N PRAIRIE ST, BATAVIA, IL, 60510",119532915,"R"
869853,"800 N SHORELINE BLVD STE 800S","CORPUS CHRISTI","TX",78401,NA,NA,353,"800 N SHORELINE BLVD STE 800S, CORPUS CHRISTI, TX, 78401","No_Match",NA,NA,NA,NA
869854,"800 N SMITH RD APT 3J","BLOOMINGTON","IN",47408,39.171492071,-86.481437011,354,"800 N SMITH RD APT 3J, BLOOMINGTON, IN, 47408","Match","Non_Exact","800 N SMITH RD, BLOOMINGTON, IN, 47408",647309670,"R"
869855,"800 N SMITH RD APT J3","BLOOMINGTON","IN",47408,39.171492071,-86.481437011,355,"800 N SMITH RD APT J3, BLOOMINGTON, IN, 47408","Match","Non_Exact","800 N SMITH RD, BLOOMINGTON, IN, 47408",647309670,"R"
869856,"800 N STATE COLLEGE BLVD- MCBE","FULLERTON","CA",92382,NA,NA,356,"800 N STATE COLLEGE BLVD- MCBE, FULLERTON, CA, 92382","No_Match",NA,NA,NA,NA
869857,"800 N STATE COLLEGE BLVD","FULLERTON","CA",92831,33.863060536,-117.889445799,357,"800 N STATE COLLEGE BLVD, FULLERTON, CA, 92831","Match","Non_Exact","800 S STATE COLLEGE BLVD, FULLERTON, CA, 92831",144026059,"L"
869858,"800 N TAMIAMI TRAIL UNIT 1104","SARASOTA","FL",34236,NA,NA,358,"800 N TAMIAMI TRAIL UNIT 1104, SARASOTA, FL, 34236","Tie",NA,NA,NA,NA
869859,"800 N TREE DR","COLLIERVILLE","TN",38017,35.0684536520001,-89.68840083,359,"800 N TREE DR, COLLIERVILLE, TN, 38017","Match","Exact","800 N TREE DR, COLLIERVILLE, TN, 38017",72969656,"R"
869860,"800 N VERDUGO RD","GLENDALE","CA",91206,34.1567402950001,-118.237233277,360,"800 N VERDUGO RD, GLENDALE, CA, 91206","Match","Exact","800 N VERDUGO RD, GLENDALE, CA, 91206",142730451,"R"
869861,"800 N WALNUT STREET","LUMBERTON","NC",28358,34.622385659,-79.005987999,361,"800 N WALNUT STREET, LUMBERTON, NC, 28358","Match","Exact","800 N WALNUT ST, LUMBERTON, NC, 28358",49154226,"R"
869862,"800 N WALNUT STREET","WILMINGTON","DE",19801,39.742404568,-75.546492319,362,"800 N WALNUT STREET, WILMINGTON, DE, 19801","Match","Exact","800 N WALNUT ST, WILMINGTON, DE, 19801",187258106,"R"
869863,"800 N WILLIAM STREET","GOLDSBORO","NC",27530,35.3923608360001,-77.9893278069999,363,"800 N WILLIAM STREET, GOLDSBORO, NC, 27530","Match","Exact","800 N WILLIAM ST, GOLDSBORO, NC, 27530",14403549,"R"
869864,"800 NE 12TH AVE APT G234","HOMESTEAD","FL",33030,NA,NA,364,"800 NE 12TH AVE APT G234, HOMESTEAD, FL, 33030","Tie",NA,NA,NA,NA
869865,"800 NE 194TH TERR","SMITHVILLE","MO",64089,39.4458003560001,-94.566174224,365,"800 NE 194TH TERR, SMITHVILLE, MO, 64089","Match","Exact","800 NE 194TH TER, SMITHVILLE, MO, 64089",89782658,"R"
869866,"800 NE 61ST ST","GLADSTONE","MO",64118,39.2042146480001,-94.570827741,366,"800 NE 61ST ST, GLADSTONE, MO, 64118","Match","Exact","800 NE 61ST ST, GLADSTONE, MO, 64118",89755989,"L"
869867,"800 NE 61ST STREET","GLADSTONE","MO",64118,39.2042146480001,-94.570827741,367,"800 NE 61ST STREET, GLADSTONE, MO, 64118","Match","Exact","800 NE 61ST ST, GLADSTONE, MO, 64118",89755989,"L"
869868,"800 NE 67TH ST APT 408","SEATTLE","TN",98115,NA,NA,368,"800 NE 67TH ST APT 408, SEATTLE, TN, 98115","No_Match",NA,NA,NA,NA
869869,"800 NE QUINCE AVE","REDMOND","OR",97756,44.29857128,-121.160300083,369,"800 NE QUINCE AVE, REDMOND, OR, 97756","Match","Exact","800 NE QUINCE AVE, REDMOND, OR, 97756",627476891,"R"
869870,"800 NE TENNEY ROAD SUITE 110-100","VANCOUVER","WA",98685,NA,NA,370,"800 NE TENNEY ROAD SUITE 110-100, VANCOUVER, WA, 98685","No_Match",NA,NA,NA,NA
869871,"800 NETHERCLIFFE HALL ROARD","GREAT FALLS","VA",22066,38.9826280510001,-77.2625995929999,371,"800 NETHERCLIFFE HALL ROARD, GREAT FALLS, VA, 22066","Match","Non_Exact","800 NETHERCLIFFE HALL RD, GREAT FALLS, VA, 22066",75960521,"L"
869872,"800 NEW JERSEY AVENUE SE APT 927","WASHINGTON","DC",20003,38.880066443,-77.005445005,372,"800 NEW JERSEY AVENUE SE APT 927, WASHINGTON, DC, 20003","Match","Non_Exact","800 NEW JERSEY AVE SE, WASHINGTON, DC, 20003",76227170,"L"
869873,"800 NEW JERSEY AVENUE SE","WASHINGTON","DC",20003,38.880066443,-77.005445005,373,"800 NEW JERSEY AVENUE SE, WASHINGTON, DC, 20003","Match","Exact","800 NEW JERSEY AVE SE, WASHINGTON, DC, 20003",76227170,"L"
869874,"800 NIAGARA AVE  APT 320","NIAGARA FALLS","NY",14305,43.1072371010001,-79.055106957,374,"800 NIAGARA AVE  APT 320, NIAGARA FALLS, NY, 14305","Match","Exact","800 NIAGARA AVE, NIAGARA FALLS, NY, 14305",48683557,"L"
869875,"800 NICHOLAS PL","RAHWAY","NJ",7065,40.6095217610001,-74.291863297,375,"800 NICHOLAS PL, RAHWAY, NJ, 7065","Match","Exact","800 NICHOLAS PL, RAHWAY, NJ, 07065",60562066,"L"
869876,"800 NICKLAUS DR","RIO RANCHO","NM",87124,35.2446812410001,-106.683126771,376,"800 NICKLAUS DR, RIO RANCHO, NM, 87124","Match","Non_Exact","800 NICKLAUS DR SE, RIO RANCHO, NM, 87124",194020367,"R"
869877,"800 NO LAST CHANCE GULCH SUITE 101","HELENA","MT",59601,46.595394314,-112.034238904,377,"800 NO LAST CHANCE GULCH SUITE 101, HELENA, MT, 59601","Match","Non_Exact","800 N LAST CHANCE GULCH, HELENA, MT, 59601",202349400,"L"
869878,"800 NORTH 440 EAST","LOGAL","UT",84321,41.7470629060001,-111.845825561,378,"800 NORTH 440 EAST, LOGAL, UT, 84321","Match","Non_Exact","800 N 440 W, LOGAN, UT, 84321",640991751,"L"
869879,"800 NORTH 48TH STREET  UNIT 21","PHILADELPHIIA","PA",19139,39.9664285900001,-75.21667216,379,"800 NORTH 48TH STREET  UNIT 21, PHILADELPHIIA, PA, 19139","Match","Non_Exact","800 N 48TH ST, PHILADELPHIA, PA, 19139",131398891,"L"
869880,"800 NORTH 48TH STREET UNIT 8","PHILADELPHIA","PA",19139,39.9664285900001,-75.21667216,380,"800 NORTH 48TH STREET UNIT 8, PHILADELPHIA, PA, 19139","Match","Exact","800 N 48TH ST, PHILADELPHIA, PA, 19139",131398891,"L"
869881,"800 NORTH 9TH","OQUAWKA","IL",61469,NA,NA,381,"800 NORTH 9TH, OQUAWKA, IL, 61469","No_Match",NA,NA,NA,NA
869882,"800 NORTH BORAD","ELIZABETH","NJ",7208,NA,NA,382,"800 NORTH BORAD, ELIZABETH, NJ, 7208","No_Match",NA,NA,NA,NA
869883,"800 NORTH BORAD","ELIZABTH","NJ",7208,NA,NA,383,"800 NORTH BORAD, ELIZABTH, NJ, 7208","No_Match",NA,NA,NA,NA
869884,"800 NORTH BORD BLK 1 APT2","ELIZABTH","NJ",7208,NA,NA,384,"800 NORTH BORD BLK 1 APT2, ELIZABTH, NJ, 7208","No_Match",NA,NA,NA,NA
869885,"800 NORTH C ST","INDIANOLA","IA",50125,41.367531635,-93.564996503,385,"800 NORTH C ST, INDIANOLA, IA, 50125","Match","Exact","800 N C ST, INDIANOLA, IA, 50125",83763783,"L"
869886,"800 NORTH CAPITOL AVENUE","INDIANAPOLIS","IN",46204,39.7781406290001,-86.161296744,386,"800 NORTH CAPITOL AVENUE, INDIANAPOLIS, IN, 46204","Match","Exact","800 N CAPITOL AVE, INDIANAPOLIS, IN, 46204",108027255,"L"
869887,"800 NORTH COURT","GREENWOOD","MS",38930,33.530526735,-90.205360636,387,"800 NORTH COURT, GREENWOOD, MS, 38930","Match","Non_Exact","800 N COURT ST, GREENWOOD, MS, 38930",624972004,"R"
869888,"800 NORTH EAST QUINCE AVENUE","REDMOND","OR",97756,NA,NA,388,"800 NORTH EAST QUINCE AVENUE, REDMOND, OR, 97756","No_Match",NA,NA,NA,NA
869889,"800 NORTH FARISH STREET","JACKSON","MS",39207,32.308580379,-90.188638625,389,"800 NORTH FARISH STREET, JACKSON, MS, 39207","Match","Non_Exact","800 N FARISH ST, JACKSON, MS, 39202",65371039,"R"
869890,"800 NORTH GLEBE ROAD","ARLINGTON","VA",22203,38.8800694820001,-77.114107377,390,"800 NORTH GLEBE ROAD, ARLINGTON, VA, 22203","Match","Non_Exact","800 S GLEBE RD, ARLINGTON, VA, 22203",650276988,"R"
869891,"800 NORTH JEFFERSON","HOBBS","NM",88241,NA,NA,391,"800 NORTH JEFFERSON, HOBBS, NM, 88241","No_Match",NA,NA,NA,NA
869892,"800 NORTH MAGNOLIA AVE","ORLANDO","FL",32803,28.5550359110001,-81.376884569,392,"800 NORTH MAGNOLIA AVE, ORLANDO, FL, 32803","Match","Non_Exact","800 MAGNOLIA AVE, ORLANDO, FL, 32803",645596799,"L"
869893,"800 NORTH MAGNOLIA AVENUE STE 1500","ORLANDO","FL",32803,28.5550359110001,-81.376884569,393,"800 NORTH MAGNOLIA AVENUE STE 1500, ORLANDO, FL, 32803","Match","Non_Exact","800 MAGNOLIA AVE, ORLANDO, FL, 32803",645596799,"L"
869894,"800 NORTH MAIN STREET","TARBORO","NC",27886,35.900550202,-77.536729247,394,"800 NORTH MAIN STREET, TARBORO, NC, 27886","Match","Exact","800 N MAIN ST, TARBORO, NC, 27886",90178759,"L"
869895,"800 NORTH MANGUM STREET","DURHAM","NC",27701,36.001289404,-78.8953836649999,395,"800 NORTH MANGUM STREET, DURHAM, NC, 27701","Match","Exact","800 N MANGUM ST, DURHAM, NC, 27701",71741644,"R"
869896,"800 NORTH MAPLES AVE","FAIRBORN","OH",45324,NA,NA,396,"800 NORTH MAPLES AVE, FAIRBORN, OH, 45324","No_Match",NA,NA,NA,NA
869897,"800 NORTH RAINBOW SUITE 204","LAS VEGAS","NV",89107,36.180503378,-115.242287146,397,"800 NORTH RAINBOW SUITE 204, LAS VEGAS, NV, 89107","Match","Non_Exact","800 N RAINBOW BLVD, LAS VEGAS, NV, 89107",638295847,"R"
869898,"800 NORTH STATE COLLEGE BLVD","FULLERTON","CA",92834,NA,NA,398,"800 NORTH STATE COLLEGE BLVD, FULLERTON, CA, 92834","No_Match",NA,NA,NA,NA
869899,"800 NORTH W STREET","INDIANOLA","IA",50125,41.367902525,-93.593650482,399,"800 NORTH W STREET, INDIANOLA, IA, 50125","Match","Exact","800 N W ST, INDIANOLA, IA, 50125",600390189,"R"
869900,"800 NORTHGATE COURT","OFALLON","MO",62269,NA,NA,400,"800 NORTHGATE COURT, OFALLON, MO, 62269","No_Match",NA,NA,NA,NA
869901,"800 NORTHWEST HWY UNIT 100","MOUNT PROSPECT","IL",60056,42.058626981,-87.92578287,401,"800 NORTHWEST HWY UNIT 100, MOUNT PROSPECT, IL, 60056","Match","Non_Exact","800 E NORTHWEST HWY, MOUNT PROSPECT, IL, 60056",111720836,"L"
869902,"800 NOTTINGHAM BLVD","WEST PALM BEACH","FL",33405,26.673921965,-80.061042419,402,"800 NOTTINGHAM BLVD, WEST PALM BEACH, FL, 33405","Match","Exact","800 NOTTINGHAM BLVD, WEST PALM BEACH, FL, 33405",115280279,"L"
869903,"800 NW 119TH ST","OKLAHOMA CITY","OK",73114,35.5912449850001,-97.526465435,403,"800 NW 119TH ST, OKLAHOMA CITY, OK, 73114","Match","Exact","800 NW 119TH ST, OKLAHOMA CITY, OK, 73114",646801597,"L"
869904,"800 NW 18 AVE","GAINESVILLE","FL",32609,29.6681393470001,-82.333319043,404,"800 NW 18 AVE, GAINESVILLE, FL, 32609","Match","Exact","800 NW 18TH AVE, GAINESVILLE, FL, 32609",6806400,"R"
869905,"800 NW 19TH AVE APT D","GAINESVILLE","FL",32609,29.6694155000001,-82.332967472,405,"800 NW 19TH AVE APT D, GAINESVILLE, FL, 32609","Match","Non_Exact","800 NW 19TH AVE, GAINESVILLE, FL, 32609",647842257,"R"
869906,"800 NW 28 COURT","WILTON MANORS","FL",33311,26.1618818150001,-80.1536941859999,406,"800 NW 28 COURT, WILTON MANORS, FL, 33311","Match","Exact","800 NW 28TH CT, WILTON MANORS, FL, 33311",114720395,"L"
869907,"800 NW 28TH COURT","WILTON MANORS","FL",33311,26.1618818150001,-80.1536941859999,407,"800 NW 28TH COURT, WILTON MANORS, FL, 33311","Match","Exact","800 NW 28TH CT, WILTON MANORS, FL, 33311",114720395,"L"
869908,"800 NW 62ND AVENUE SUITE 490","MIAMI","FL",33126,NA,NA,408,"800 NW 62ND AVENUE SUITE 490, MIAMI, FL, 33126","No_Match",NA,NA,NA,NA
869909,"800 NW 99TH ST","VANCOUVER","WA",98665,45.6928874720001,-122.678473711,409,"800 NW 99TH ST, VANCOUVER, WA, 98665","Match","Exact","800 NW 99TH ST, VANCOUVER, WA, 98665",158321159,"R"
869910,"800 NW CLIFFORD STREET","PULLMAN","WA",99163,46.736771488,-117.18564822,410,"800 NW CLIFFORD STREET, PULLMAN, WA, 99163","Match","Exact","800 NW CLIFFORD ST, PULLMAN, WA, 99163",173294400,"R"
869911,"800 OAK STREET","FLINT","MI",48503,43.011051105,-83.6933508129999,411,"800 OAK STREET, FLINT, MI, 48503","Match","Exact","800 OAK ST, FLINT, MI, 48503",69568004,"R"
869912,"800 OAKSDALE","RENTON","WA",98057,NA,NA,412,"800 OAKSDALE, RENTON, WA, 98057","No_Match",NA,NA,NA,NA
869913,"800 OCALA ROAD SUITE 300 - 215","TALLAHASSEE","FL",32304,30.4490551010001,-84.317169592,413,"800 OCALA ROAD SUITE 300 - 215, TALLAHASSEE, FL, 32304","Match","Non_Exact","800 N OCALA RD, TALLAHASSEE, FL, 32304",82886955,"R"
869914,"800 OCALA ROAD SUITE 300-109","TALLAHASSEE","FL",32304,30.4490551010001,-84.317169592,414,"800 OCALA ROAD SUITE 300-109, TALLAHASSEE, FL, 32304","Match","Non_Exact","800 N OCALA RD, TALLAHASSEE, FL, 32304",82886955,"R"
869915,"800 OLD DAWSON ROAD","ALBANY","GA",31707,NA,NA,415,"800 OLD DAWSON ROAD, ALBANY, GA, 31707","No_Match",NA,NA,NA,NA
869916,"800 OLD GRIFFIN RD","DALLAS","GA",30157,33.924936281,-84.767196718,416,"800 OLD GRIFFIN RD, DALLAS, GA, 30157","Match","Exact","800 OLD GRIFFIN RD, DALLAS, GA, 30157",618944484,"L"
869917,"800 OLIVE DRIVE","SILVER SPRING","MD",20905,39.110619893,-76.993671789,417,"800 OLIVE DRIVE, SILVER SPRING, MD, 20905","Match","Exact","800 OLIVE DR, SILVER SPRING, MD, 20905",62072391,"L"
869918,"800 OLIVE ST APT 1106","ST LOUIS","MO",63101,38.628549175,-90.1924676689999,418,"800 OLIVE ST APT 1106, ST LOUIS, MO, 63101","Match","Exact","800 OLIVE ST, SAINT LOUIS, MO, 63101",653883975,"L"
869919,"800 OLIVE ST APT 922","SAINT LOUIS","MO",63101,38.628549175,-90.1924676689999,419,"800 OLIVE ST APT 922, SAINT LOUIS, MO, 63101","Match","Exact","800 OLIVE ST, SAINT LOUIS, MO, 63101",653883975,"L"
869920,"800 OLIVE STREET APT 615","SAINT LOUIS","MO",63101,38.628549175,-90.1924676689999,420,"800 OLIVE STREET APT 615, SAINT LOUIS, MO, 63101","Match","Exact","800 OLIVE ST, SAINT LOUIS, MO, 63101",653883975,"L"
869921,"800 OLIVE STREET","SAINT LOUIS","MO",63101,38.628549175,-90.1924676689999,421,"800 OLIVE STREET, SAINT LOUIS, MO, 63101","Match","Exact","800 OLIVE ST, SAINT LOUIS, MO, 63101",653883975,"L"
869922,"800 ORLEANS ROAD","HARWICH","MA",2645,41.686889261,-70.0674468719999,422,"800 ORLEANS ROAD, HARWICH, MA, 2645","Match","Exact","800 ORLEANS RD, HARWICH, MA, 02645",642662133,"L"
869923,"800 OSPREY LN","CLARKDALE","AZ",86324,34.761681824,-112.034785747,423,"800 OSPREY LN, CLARKDALE, AZ, 86324","Match","Exact","800 OSPREY LN, CLARKDALE, AZ, 86324",159503173,"R"
869924,"800 PACIFIC AVE STE 208","LONG BEACH","CA",90813,33.7765921160001,-118.193704715,424,"800 PACIFIC AVE STE 208, LONG BEACH, CA, 90813","Match","Exact","800 PACIFIC AVE, LONG BEACH, CA, 90813",649775076,"R"
869925,"800 PAGE STREET APT 108","COLUMBIA","KY",42728,NA,NA,425,"800 PAGE STREET APT 108, COLUMBIA, KY, 42728","No_Match",NA,NA,NA,NA
869926,"800 PALISADE AVE 22D","FORT LEE","NJ",7024,40.8297579750001,-73.979846905,426,"800 PALISADE AVE 22D, FORT LEE, NJ, 7024","Match","Exact","800 PALISADE AVE, FORT LEE, NJ, 07024",64392383,"R"
869927,"800 PALMER DR","MIDDLEVILLE","MI",49333,42.6654647130001,-85.518265814,427,"800 PALMER DR, MIDDLEVILLE, MI, 49333","Match","Exact","800 PALMER DR, MIDDLEVILLE, MI, 49333",617918924,"R"
869928,"800 PALO VERDE","BARSTOW","CA",92311,34.8794276150001,-117.014807245,428,"800 PALO VERDE, BARSTOW, CA, 92311","Match","Non_Exact","800 PALO VERDE DR, BARSTOW, CA, 92311",144558513,"L"
869929,"800 PARK AVE PENTHOUSE 5D","FORT LEE","NJ",7024,40.8523236280001,-73.967345958,429,"800 PARK AVE PENTHOUSE 5D, FORT LEE, NJ, 7024","Match","Exact","800 PARK AVE, FORT LEE, NJ, 07024",650669422,"R"
869930,"800 PARK AVE","FORT LEE","NJ",7024,40.8523236280001,-73.967345958,430,"800 PARK AVE, FORT LEE, NJ, 7024","Match","Exact","800 PARK AVE, FORT LEE, NJ, 07024",650669422,"R"
869931,"800 PARK AVENUE SUITE P","MURFREESBORO","TN",37129,35.8386637770001,-86.3979338569999,431,"800 PARK AVENUE SUITE P, MURFREESBORO, TN, 37129","Match","Exact","800 PARK AVE, MURFREESBORO, TN, 37129",59030517,"L"
869932,"800 PARK STREET BOX 247","PERU","NE",68421,40.4814863330001,-95.734182123,432,"800 PARK STREET BOX 247, PERU, NE, 68421","Match","Exact","800 PARK ST, PERU, NE, 68421",32466427,"L"
869933,"800 PARKER AVE","FALLS CHURCH","VA",22046,38.8877931010001,-77.1858779459999,433,"800 PARKER AVE, FALLS CHURCH, VA, 22046","Match","Exact","800 PARKER AVE, FALLS CHURCH, VA, 22046",75978509,"R"
869934,"800 PARKER SQUARE SUITE 215E","FLOWER MOUND","TX",75028,NA,NA,434,"800 PARKER SQUARE SUITE 215E, FLOWER MOUND, TX, 75028","No_Match",NA,NA,NA,NA
869935,"800 PARKVIEW ST","JONESBORO","AR",72401,35.820053828,-90.715490587,435,"800 PARKVIEW ST, JONESBORO, AR, 72401","Match","Exact","800 PARKVIEW ST, JONESBORO, AR, 72401",46910083,"R"
869936,"800 PARKWOOD DRIVE","JOLIET","IL",60432,41.540982404,-88.02544983,436,"800 PARKWOOD DRIVE, JOLIET, IL, 60432","Match","Exact","800 PARKWOOD DR, JOLIET, IL, 60432",111546687,"R"
869937,"800 PATRICIA","WACO","TX",76705,NA,NA,437,"800 PATRICIA, WACO, TX, 76705","No_Match",NA,NA,NA,NA
869938,"800 PEACEFUL GLEN RD","CHARLOTTE","NC",28273,35.128130056,-80.904845214,438,"800 PEACEFUL GLEN RD, CHARLOTTE, NC, 28273","Match","Exact","800 PEACEFUL GLEN RD, CHARLOTTE, NC, 28273",70484472,"R"
869939,"800 PECONIC STREET APT 255B","RONKONKOMA","NY",11779,40.8010306040001,-73.121506486,439,"800 PECONIC STREET APT 255B, RONKONKOMA, NY, 11779","Match","Exact","800 PECONIC ST, RONKONKOMA, NY, 11779",113992758,"R"
869940,"800 PENNYPACKER COURT","GREER","SC",29650,34.931556062,-82.247898999,440,"800 PENNYPACKER COURT, GREER, SC, 29650","Match","Exact","800 PENNYPACKER CT, GREER, SC, 29650",624691978,"R"
869941,"800 PENSINGER ROAD","GREENCASTLE","PA",17225,39.7454109490001,-77.710133836,441,"800 PENSINGER ROAD, GREENCASTLE, PA, 17225","Match","Exact","800 PENSINGER RD, GREENCASTLE, PA, 17225",60103446,"R"
869942,"800 PINE ST","EMMAUS","PA",18049,NA,NA,442,"800 PINE ST, EMMAUS, PA, 18049","No_Match",NA,NA,NA,NA
869943,"800 PIONEER AVE","REDLANDS","CA",92374,NA,NA,443,"800 PIONEER AVE, REDLANDS, CA, 92374","Tie",NA,NA,NA,NA
869944,"800 PLAINFIELD PIKE","NORTH SCITUATE","RI",2857,41.791792967,-71.625514843,444,"800 PLAINFIELD PIKE, NORTH SCITUATE, RI, 2857","Match","Exact","800 PLAINFIELD PIKE, NORTH SCITUATE, RI, 02857",47445995,"L"
869945,"800 PLEASANT STREET APT 1402","NEW BEDFORD","MA",2740,41.6373882090001,-70.927299095,445,"800 PLEASANT STREET APT 1402, NEW BEDFORD, MA, 2740","Match","Exact","800 PLEASANT ST, NEW BEDFORD, MA, 02740",46800328,"R"
869946,"800 PLEASANT VIEW RD","CHANHASSEN","MN",55317,44.8881377230001,-93.542777958,446,"800 PLEASANT VIEW RD, CHANHASSEN, MN, 55317","Match","Exact","800 PLEASANT VIEW RD, CHANHASSEN, MN, 55317",235839724,"R"
869947,"800 POFF SCHOOL ROAD","RINER","VA",24149,37.045921632,-80.3789334319999,447,"800 POFF SCHOOL ROAD, RINER, VA, 24149","Match","Exact","800 POFF SCHOOL RD, RINER, VA, 24149",649998556,"L"
869948,"800 POINT VISTA DRIVE STE 518","HICKORY CREEK","TX",75065,NA,NA,448,"800 POINT VISTA DRIVE STE 518, HICKORY CREEK, TX, 75065","No_Match",NA,NA,NA,NA
869949,"800 POLY PLACE ROOM 5-218","BROOKLYN","NY",11209,NA,NA,449,"800 POLY PLACE ROOM 5-218, BROOKLYN, NY, 11209","No_Match",NA,NA,NA,NA
869950,"800 POPLAR GROVE STREET","BALTIMORE","MD",21216,39.297228288,-76.6650900769999,450,"800 POPLAR GROVE STREET, BALTIMORE, MD, 21216","Match","Exact","800 POPLAR GROVE ST, BALTIMORE, MD, 21216",206465934,"L"
869951,"800 PORTOFINO DRIVE","ARLINGTON","TX",76016,32.745151767,-97.1583375389999,451,"800 PORTOFINO DRIVE, ARLINGTON, TX, 76016","Match","Non_Exact","800 PORTOFINO DR, ARLINGTON, TX, 76012",102137195,"L"
869952,"800 POST OAK BLVD","HOUSTON","TX",77056,29.753636108,-95.457868089,452,"800 POST OAK BLVD, HOUSTON, TX, 77056","Match","Exact","800 POST OAK BLVD, HOUSTON, TX, 77056",96624608,"R"
869953,"800 PRINCETON ROAD","GREENVILLE","DE",19807,39.7610383040001,-75.589129331,453,"800 PRINCETON ROAD, GREENVILLE, DE, 19807","Match","Exact","800 PRINCETON RD, GREENVILLE, DE, 19807",187254535,"R"
869954,"800 PRITCHARD AVE EXT C-2","CHAPEL HILL","NC",27516,NA,NA,454,"800 PRITCHARD AVE EXT C-2, CHAPEL HILL, NC, 27516","No_Match",NA,NA,NA,NA
869955,"800 PRITCHARD AVE EXT E8","CHAPEL HILL","NC",27516,NA,NA,455,"800 PRITCHARD AVE EXT E8, CHAPEL HILL, NC, 27516","No_Match",NA,NA,NA,NA
869956,"800 PRITCHETT RD","DOUGLASVILLE","GA",30134,NA,NA,456,"800 PRITCHETT RD, DOUGLASVILLE, GA, 30134","No_Match",NA,NA,NA,NA
869957,"800 PRIVATE ROAD 1485","HICO","TX",76457,32.0333242670001,-97.993798774,457,"800 PRIVATE ROAD 1485, HICO, TX, 76457","Match","Non_Exact","800 PVT RD 1485, HICO, TX, 76457",642857685,"R"
869958,"800 PROPRIETORS RD","WORTHINGTON","OH",43085,40.0900358640001,-83.004019791,458,"800 PROPRIETORS RD, WORTHINGTON, OH, 43085","Match","Exact","800 PROPRIETORS RD, WORTHINGTON, OH, 43085",218686159,"R"
869959,"800 PRUDENTIAL DRIVE","JACKSONVILLE","FL",32207,30.31627902,-81.664236557,459,"800 PRUDENTIAL DRIVE, JACKSONVILLE, FL, 32207","Match","Exact","800 PRUDENTIAL DR, JACKSONVILLE, FL, 32207",83899929,"R"
869960,"800 PUEBLO AVE","BAY POINT","CA",94565,NA,NA,460,"800 PUEBLO AVE, BAY POINT, CA, 94565","No_Match",NA,NA,NA,NA
869961,"800 PUNTA GORDA STREET","EAST MCKEESPORT","PA",15035,40.385665719,-79.806119532,461,"800 PUNTA GORDA STREET, EAST MCKEESPORT, PA, 15035","Match","Exact","800 PUNTA GORDA ST, E MCKEESPORT, PA, 15035",617246755,"R"
869962,"800 QUAKER LANE","WARWICK","RI",2816,NA,NA,462,"800 QUAKER LANE, WARWICK, RI, 2816","No_Match",NA,NA,NA,NA
869963,"800 QUEEN ANNES","NOLENSVILLE","TN",37135,35.967904618,-86.685617323,463,"800 QUEEN ANNES, NOLENSVILLE, TN, 37135","Match","Non_Exact","800 QUEEN ANNES CT, NOLENSVILLE, TN, 37135",642266648,"L"
869964,"800 QUEEN AVE N","MINNEAPOLIS","MN",55411,44.986241385,-93.309654581,464,"800 QUEEN AVE N, MINNEAPOLIS, MN, 55411","Match","Exact","800 QUEEN AVE N, MINNEAPOLIS, MN, 55411",43623569,"R"
869965,"800 RAINBOW BLVD/ SUITE 208","LAS VEGAS","NV",89107,NA,NA,465,"800 RAINBOW BLVD/ SUITE 208, LAS VEGAS, NV, 89107","No_Match",NA,NA,NA,NA
869966,"800 RANSOM RD","DALLAS","PA",18612,41.359343623,-75.918462454,466,"800 RANSOM RD, DALLAS, PA, 18612","Match","Exact","800 RANSOM RD, DALLAS, PA, 18612",636338947,"L"
869967,"800 REDWOOD HIGHWAY SUITE 136","MILL VALLEY","CA",94941,NA,NA,467,"800 REDWOOD HIGHWAY SUITE 136, MILL VALLEY, CA, 94941","No_Match",NA,NA,NA,NA
869968,"800 REMBRANT CIRCLE","IRWIN","PA",15642,NA,NA,468,"800 REMBRANT CIRCLE, IRWIN, PA, 15642","No_Match",NA,NA,NA,NA
869969,"800 RESEARCH DR","WOODLAND PARK","CO",80863,39.013538854,-105.063765336,469,"800 RESEARCH DR, WOODLAND PARK, CO, 80863","Match","Exact","800 RESEARCH DR, WOODLAND PARK, CO, 80863",647342597,"R"
869970,"800 REVOLUTION MILL DRIVE APT 206","GREENSBORO","NC",27405,36.099755691,-79.7787498769999,470,"800 REVOLUTION MILL DRIVE APT 206, GREENSBORO, NC, 27405","Match","Exact","800 REVOLUTION MILL DR, GREENSBORO, NC, 27405",131114869,"R"
869971,"800 RIO BRAVO DR","HASLET","TX",76052,32.9878476170001,-97.3750359649999,471,"800 RIO BRAVO DR, HASLET, TX, 76052","Match","Exact","800 RIO BRAVO DR, HASLET, TX, 76052",619873716,"R"
869972,"800 RIO GRANDE","AUSTIN","TX",78701,30.271883093,-97.748784491,472,"800 RIO GRANDE, AUSTIN, TX, 78701","Match","Non_Exact","800 RIO GRANDE ST, AUSTIN, TX, 78701",63943181,"L"
869973,"800 RIVANNA RIVER REACH","CHESAPEAKE","VA",23320,36.7452358030001,-76.2690589919999,473,"800 RIVANNA RIVER REACH, CHESAPEAKE, VA, 23320","Match","Exact","800 RIVANNA RIVER REACH, CHESAPEAKE, VA, 23320",644734037,"L"
869974,"800 RIVERSIDE DRIVE 1G","NEW YORK","NY",10032,40.8349795350001,-73.946831789,474,"800 RIVERSIDE DRIVE 1G, NEW YORK, NY, 10032","Match","Exact","800 RIVERSIDE DR, NEW YORK, NY, 10032",59655442,"R"
869975,"800 RIVERSIDE DRIVE","NEW YORK","NY",10032,40.8349795350001,-73.946831789,475,"800 RIVERSIDE DRIVE, NEW YORK, NY, 10032","Match","Exact","800 RIVERSIDE DR, NEW YORK, NY, 10032",59655442,"R"
869976,"800 RIVERSIDE STREET","MORA","MN",55051,45.872698755,-93.304886713,476,"800 RIVERSIDE STREET, MORA, MN, 55051","Match","Exact","800 RIVERSIDE ST, MORA, MN, 55051",163036753,"R"
869977,"800 ROCKAWAY AVE APT 1D","VALLEY STREAM","NY",11581,40.6543373100001,-73.69777161,477,"800 ROCKAWAY AVE APT 1D, VALLEY STREAM, NY, 11581","Match","Exact","800 ROCKAWAY AVE, VALLEY STREAM, NY, 11581",147832304,"R"
869978,"800 ROCKMEAD STE 175","KINGWOOD","TX",77339,30.053324871,-95.2426294699999,478,"800 ROCKMEAD STE 175, KINGWOOD, TX, 77339","Match","Non_Exact","800 ROCKMEAD DR, KINGWOOD, TX, 77339",653235081,"L"
869979,"800 ROCKWOOD LN","ESTES PARK","CO",80517,40.3304780650001,-105.512220481,479,"800 ROCKWOOD LN, ESTES PARK, CO, 80517","Match","Exact","800 ROCKWOOD LN, ESTES PARK, CO, 80517",188541689,"R"
869980,"800 ROOSEVELT","IRVINE","CA",92620,NA,NA,480,"800 ROOSEVELT, IRVINE, CA, 92620","No_Match",NA,NA,NA,NA
869981,"800 ROSE ST","LEXINGTON","KY",40507,38.032825616,-84.5068348359999,481,"800 ROSE ST, LEXINGTON, KY, 40507","Match","Non_Exact","800 ROSE ST, LEXINGTON, KY, 40506",618018847,"L"
869982,"800 ROSE ST","LEXINGTON","KY",40536,38.032825616,-84.5068348359999,482,"800 ROSE ST, LEXINGTON, KY, 40536","Match","Non_Exact","800 ROSE ST, LEXINGTON, KY, 40506",618018847,"L"
869983,"800 ROSE STREET","LEXINGTON","KY",40506,38.032825616,-84.5068348359999,483,"800 ROSE STREET, LEXINGTON, KY, 40506","Match","Exact","800 ROSE ST, LEXINGTON, KY, 40506",618018847,"L"
869984,"800 ROSS AVE 3107","DALLAS","TX",75202,32.7815730940001,-96.8059313269999,484,"800 ROSS AVE 3107, DALLAS, TX, 75202","Match","Exact","800 ROSS AVE, DALLAS, TX, 75202",647957154,"L"
869985,"800 ROSS AVE APT 5139","DALLAS","TX",75202,32.7815730940001,-96.8059313269999,485,"800 ROSS AVE APT 5139, DALLAS, TX, 75202","Match","Exact","800 ROSS AVE, DALLAS, TX, 75202",647957154,"L"
869986,"800 ROSS AVENUE 5103","DALLAS","TX",75202,32.7815730940001,-96.8059313269999,486,"800 ROSS AVENUE 5103, DALLAS, TX, 75202","Match","Exact","800 ROSS AVE, DALLAS, TX, 75202",647957154,"L"
869987,"800 ROUNDTOP CT APT 2A","BALTIMORE","MD",21093,39.423970223,-76.6356377279999,487,"800 ROUNDTOP CT APT 2A, BALTIMORE, MD, 21093","Match","Non_Exact","800 ROUNDTOP CT, LUTHERVILLE TIMONIUM, MD, 21093",191470899,"L"
869988,"800 ROUTE 63","WESTMORELAND","NH",3467,42.9604014870001,-72.442950105,488,"800 ROUTE 63, WESTMORELAND, NH, 3467","Match","Non_Exact","800 STATE RTE 63, WESTMORELAND, NH, 03467",124077580,"L"
869989,"800 ROXBURY ST","SEATTLE","WA",98118,NA,NA,489,"800 ROXBURY ST, SEATTLE, WA, 98118","No_Match",NA,NA,NA,NA
869990,"800 ROYAL COURT","MANSFIELD","TX",76063,NA,NA,490,"800 ROYAL COURT, MANSFIELD, TX, 76063","No_Match",NA,NA,NA,NA
869991,"800 RVERSIDE DRIVE","NEW YORK","NY",10032,40.8349795350001,-73.946831789,491,"800 RVERSIDE DRIVE, NEW YORK, NY, 10032","Match","Non_Exact","800 RIVERSIDE DR, NEW YORK, NY, 10032",59655442,"R"
869992,"800 S  CATALPA ST","PINE BLUFF","AR",71603,34.221936972,-92.033632744,492,"800 S  CATALPA ST, PINE BLUFF, AR, 71603","Match","Exact","800 S CATALPA ST, PINE BLUFF, AR, 71603",2549689,"R"
869993,"800 S 13TH AVE - 3RD FL","MAYWOOD","IL",60153,41.880025769,-87.848832192,493,"800 S 13TH AVE - 3RD FL, MAYWOOD, IL, 60153","Match","Non_Exact","800 S 13TH AVE, MAYWOOD, IL, 60153",605142362,"R"
869994,"800 S 15TH ST UNIT 1803","SEBRING","OH",44672,NA,NA,494,"800 S 15TH ST UNIT 1803, SEBRING, OH, 44672","Tie",NA,NA,NA,NA
869995,"800 S 15TH STREET","HENDERSON","ND",68371,NA,NA,495,"800 S 15TH STREET, HENDERSON, ND, 68371","No_Match",NA,NA,NA,NA
869996,"800 S 15TH STREET","HENDERSON","NE",68371,40.7772949500001,-97.809921211,496,"800 S 15TH STREET, HENDERSON, NE, 68371","Match","Exact","800 S 15TH ST, HENDERSON, NE, 68371",636315673,"R"
869997,"800 S 16TH ST","VERNON","AZ",85940,NA,NA,497,"800 S 16TH ST, VERNON, AZ, 85940","No_Match",NA,NA,NA,NA
869998,"800 S 1ST AVE","COATESVILLE","PA",19320,39.9736123370001,-75.8195105739999,498,"800 S 1ST AVE, COATESVILLE, PA, 19320","Match","Non_Exact","800 S 1ST AVE, COATESVILLE, PA, 19320",653370314,"R"
869999,"800 S 2ND ST","FAIRFIELD","IA",52556,41.000118769,-91.965091244,499,"800 S 2ND ST, FAIRFIELD, IA, 52556","Match","Exact","800 S 2ND ST, FAIRFIELD, IA, 52556",84421257,"L"
870000,"800 S 4TH STREET 1205","LOUISVILLE","KY",40203,38.244056761,-85.7587423099999,500,"800 S 4TH STREET 1205, LOUISVILLE, KY, 40203","Match","Non_Exact","800 S 4TH ST, LOUISVILLE, KY, 40203",96845718,"R"
