"ID","Address","City","State","Zip","lat","long","id","input_address","match_indicator","match_type","matched_address","tiger_line_id","tiger_side"
385001,"2350 W STATE ST","WEST BRANCH","MI",48661,44.284545327,-84.220631134,1,"2350 W STATE ST, WEST BRANCH, MI, 48661","Match","Non_Exact","2350 STATE RD, WEST BRANCH, MI, 48661",161345669,"L"
385002,"2350 WANKEL WAY","OXNARD","CA",93030,34.216873794,-119.14564744,2,"2350 WANKEL WAY, OXNARD, CA, 93030","Match","Exact","2350 WANKEL WAY, OXNARD, CA, 93030",110017334,"L"
385003,"2350 WASHINGTON PL NE APT 446","WASHINGTON","DC",20018,NA,NA,3,"2350 WASHINGTON PL NE APT 446, WASHINGTON, DC, 20018","No_Match",NA,NA,NA,NA
385004,"2350 WASHINGTON PLACE NE APT 526","WASHINGTON","DC",20018,NA,NA,4,"2350 WASHINGTON PLACE NE APT 526, WASHINGTON, DC, 20018","No_Match",NA,NA,NA,NA
385005,"2350 WASHINGTON ST","SAN FRANCISCO","CA",94115,37.791909581,-122.431929949,5,"2350 WASHINGTON ST, SAN FRANCISCO, CA, 94115","Match","Exact","2350 WASHINGTON ST, SAN FRANCISCO, CA, 94115",192279961,"R"
385006,"2350 WEST JOPPA ROAD","LUTHERVILLE","MD",21093,39.418990116,-76.6688151179999,6,"2350 WEST JOPPA ROAD, LUTHERVILLE, MD, 21093","Match","Exact","2350 W JOPPA RD, LUTHERVILLE, MD, 21093",638011653,"R"
385007,"2350 WESTCREEK APT 1313","HOUSTON","TX",77027,29.743357593,-95.454807162,7,"2350 WESTCREEK APT 1313, HOUSTON, TX, 77027","Match","Non_Exact","2350 WESTCREEK LN, HOUSTON, TX, 77027",650094412,"R"
385008,"2350 WILEY CANYON ROAD","VALENCIA","CA",91355,NA,NA,8,"2350 WILEY CANYON ROAD, VALENCIA, CA, 91355","No_Match",NA,NA,NA,NA
385009,"2350 WINCHESTER BLVD","CAMPBELL","CA",95008,37.2796347120001,-121.94969083,9,"2350 WINCHESTER BLVD, CAMPBELL, CA, 95008","Match","Exact","2350 WINCHESTER BLVD, CAMPBELL, CA, 95008",123181046,"L"
385010,"2350 WOODCREST DR","WOODBURY","MN",55129,44.9148701820001,-92.884073292,10,"2350 WOODCREST DR, WOODBURY, MN, 55129","Match","Exact","2350 WOODCREST DR, WOODBURY, MN, 55129",615268202,"R"
385011,"2350","LAKE ANGELUS","MI",48326,NA,NA,11,"2350, LAKE ANGELUS, MI, 48326","No_Match",NA,NA,NA,NA
385012,"23500 CLOVERLAWN","OAK PARK","MI",48237,42.4636617300001,-83.188592179,12,"23500 CLOVERLAWN, OAK PARK, MI, 48237","Match","Non_Exact","23500 CLOVERLAWN ST, OAK PARK, MI, 48237",69741256,"R"
385013,"23500 CLUBHOUSE DRIVE","LAGUNA NIGUEL","CA",92677,33.51232731,-117.718487903,13,"23500 CLUBHOUSE DRIVE, LAGUNA NIGUEL, CA, 92677","Match","Exact","23500 CLUBHOUSE DR, LAGUNA NIGUEL, CA, 92677",144070099,"L"
385014,"23500 DOVER ROAD","MIDDLEBURG","VA",20117,38.968712554,-77.763986851,14,"23500 DOVER ROAD, MIDDLEBURG, VA, 20117","Match","Exact","23500 DOVER RD, MIDDLEBURG, VA, 20117",62360290,"R"
385015,"23500 KELLY RD","EASTPOINTE","MI",48201,42.469596956,-82.9266987839999,15,"23500 KELLY RD, EASTPOINTE, MI, 48201","Match","Non_Exact","23500 KELLY RD, EASTPOINTE, MI, 48021",110735847,"R"
385016,"23500 NORTHWESTERN HIGHWAY","SOUTHFIELD","MI",48075,42.462622165,-83.2260981109999,16,"23500 NORTHWESTERN HIGHWAY, SOUTHFIELD, MI, 48075","Match","Exact","23500 NORTHWESTERN HWY, SOUTHFIELD, MI, 48075",69824178,"R"
385017,"23500 ROUTE 957","COLUMBUS","PA",16405,41.9447847550001,-79.5621380279999,17,"23500 ROUTE 957, COLUMBUS, PA, 16405","Match","Non_Exact","23500 STATE RTE 957, COLUMBUS, PA, 16405",627396206,"L"
385018,"23500 SE GOLD RD","EAGLE CREEK","OR",97022,45.3544958730001,-122.296488465,18,"23500 SE GOLD RD, EAGLE CREEK, OR, 97022","Match","Exact","23500 SE GOLD RD, EAGLE CREEK, OR, 97022",157897735,"R"
385019,"23500 THE OLD RD SPC 16","NEWHALL","CA",91321,34.348323915,-118.534387456,19,"23500 THE OLD RD SPC 16, NEWHALL, CA, 91321","Match","Non_Exact","23500 THE OLD RD, NEWHALL, CA, 91321",141855658,"R"
385020,"23501 82 ST","SALEM","WI",53168,42.5583010080001,-88.0923896849999,20,"23501 82 ST, SALEM, WI, 53168","Match","Exact","23501 82ND ST, SALEM, WI, 53168",79811496,"L"
385021,"23501 CHEYENNE CANYON DRIVE","QUAIL VALLEY","CA",92587,33.694883342,-117.249186054,21,"23501 CHEYENNE CANYON DRIVE, QUAIL VALLEY, CA, 92587","Match","Exact","23501 CHEYENNE CANYON DR, QUAIL VALLEY, CA, 92587",608995076,"R"
385022,"23501 CINCO RANCH BLVD H120-352","KATY","TX",77494,29.7439138870001,-95.77387509,22,"23501 CINCO RANCH BLVD H120-352, KATY, TX, 77494","Match","Exact","23501 CINCO RANCH BLVD, KATY, TX, 77494",642469176,"L"
385023,"23501 CINCO RANCH BLVD SUITE H120","KATY","TX",77494,29.7439138870001,-95.77387509,23,"23501 CINCO RANCH BLVD SUITE H120, KATY, TX, 77494","Match","Exact","23501 CINCO RANCH BLVD, KATY, TX, 77494",642469176,"L"
385024,"23501 CLARK STREET","PLAINFIELD","IL",60586,41.589082868,-88.189192217,24,"23501 CLARK STREET, PLAINFIELD, IL, 60586","Match","Exact","23501 CLARK ST, PLAINFIELD, IL, 60586",111534045,"R"
385025,"23501 DOLOROSA ST STE 100A","WOODLAND HILLS","CA",91367,34.1701034700001,-118.638093923,25,"23501 DOLOROSA ST STE 100A, WOODLAND HILLS, CA, 91367","Match","Exact","23501 DOLOROSA ST, WOODLAND HILLS, CA, 91367",141723443,"R"
385026,"23501 DOLOROSA ST","WOODLAND HILLS","CA",91367,34.1701034700001,-118.638093923,26,"23501 DOLOROSA ST, WOODLAND HILLS, CA, 91367","Match","Exact","23501 DOLOROSA ST, WOODLAND HILLS, CA, 91367",141723443,"R"
385027,"23501 KINGS ROAD","CRESCO","IA",52136,43.3417905850001,-92.109370527,27,"23501 KINGS ROAD, CRESCO, IA, 52136","Match","Exact","23501 KINGS RD, CRESCO, IA, 52136",27406875,"L"
385028,"23501 S 690 RD","WYANDOTTE","OK",74370,36.6758259580001,-94.64337955,28,"23501 S 690 RD, WYANDOTTE, OK, 74370","Match","Exact","23501 S 690 RD, WYANDOTTE, OK, 74370",612020441,"L"
385029,"23501 SKY VIEW TERRACE","LOS GATOS","CA",95033,37.126294812,-121.954084306,29,"23501 SKY VIEW TERRACE, LOS GATOS, CA, 95033","Match","Exact","23501 SKY VIEW TER, LOS GATOS, CA, 95033",606003972,"L"
385030,"23501 W CLARK ST","PLAINFIELD","IL",60586,NA,NA,30,"23501 W CLARK ST, PLAINFIELD, IL, 60586","Tie",NA,NA,NA,NA
385031,"23502 EDMONDS WAY B306","EDMONDS","WA",98026,47.786551022,-122.353615318,31,"23502 EDMONDS WAY B306, EDMONDS, WA, 98026","Match","Exact","23502 EDMONDS WAY, EDMONDS, WA, 98026",624895415,"R"
385032,"23503 LAKEWIND PARK LANE","RICHMOND","TX",77407,29.6967434790001,-95.7686989869999,32,"23503 LAKEWIND PARK LANE, RICHMOND, TX, 77407","Match","Exact","23503 LAKEWIND PARK LN, RICHMOND, TX, 77407",635756648,"R"
385033,"23503 LINDSAY DR","LEONARDTOWN","MD",20650,38.3127525030001,-76.639826521,33,"23503 LINDSAY DR, LEONARDTOWN, MD, 20650","Match","Exact","23503 LINDSAY DR, LEONARDTOWN, MD, 20650",628660281,"L"
385034,"23503 SW EUCALYPTUS TER","SHERWOOD","OR",97140,45.3495878160001,-122.846353338,34,"23503 SW EUCALYPTUS TER, SHERWOOD, OR, 97140","Match","Exact","23503 SW EUCALYPTUS TER, SHERWOOD, OR, 97140",158217720,"L"
385035,"23504 RIDGE LINE ROAD","DIAMOND BAR","CA",91765,33.9903701490001,-117.809545799,35,"23504 RIDGE LINE ROAD, DIAMOND BAR, CA, 91765","Match","Exact","23504 RIDGE LINE RD, DIAMOND BAR, CA, 91765",142792126,"R"
385036,"23505 HWY W","PAYNESVILLE","MO",63336,NA,NA,36,"23505 HWY W, PAYNESVILLE, MO, 63336","No_Match",NA,NA,NA,NA
385037,"23506 BRECKENRIDGE DALE LN","SPRING","TX",77373,30.0639988410001,-95.367557195,37,"23506 BRECKENRIDGE DALE LN, SPRING, TX, 77373","Match","Non_Exact","23506 BRECKINRIDGE DALE LN, SPRING, TX, 77373",645001727,"L"
385038,"23506 HEATHER KNOLLS DR","NEWHALL","CA",91321,34.371802249,-118.542001738,38,"23506 HEATHER KNOLLS DR, NEWHALL, CA, 91321","Match","Non_Exact","23506 HEATHER KNOLLS PL, NEWHALL, CA, 91321",141537742,"R"
385039,"23506 KAREN PL","MURRIETA","CA",92562,33.573347535,-117.243033547,39,"23506 KAREN PL, MURRIETA, CA, 92562","Match","Exact","23506 KAREN PL, MURRIETA, CA, 92562",608994388,"R"
385040,"23506 UMBRELLA PINE DR","TOMBALL","TX",77375,NA,NA,40,"23506 UMBRELLA PINE DR, TOMBALL, TX, 77375","No_Match",NA,NA,NA,NA
385041,"23506 WHISPERING WILLOW DR","SPRING","TX",77373,30.049067484,-95.398393174,41,"23506 WHISPERING WILLOW DR, SPRING, TX, 77373","Match","Exact","23506 WHISPERING WILLOW DR, SPRING, TX, 77373",96042178,"R"
385042,"23507 KAREN PL","MURRIETA","CA",92562,33.5732693350001,-117.243015556,42,"23507 KAREN PL, MURRIETA, CA, 92562","Match","Exact","23507 KAREN PL, MURRIETA, CA, 92562",608994388,"L"
385043,"23508 BONAIR ST","DEARBORN HEIGHTS","MI",48127,42.332648224,-83.2670009129999,43,"23508 BONAIR ST, DEARBORN HEIGHTS, MI, 48127","Match","Exact","23508 BONAIR ST, DEARBORN HEIGHTS, MI, 48127",95503290,"R"
385044,"23508 PAM COURT","EUCLID","OH",44123,NA,NA,44,"23508 PAM COURT, EUCLID, OH, 44123","No_Match",NA,NA,NA,NA
385045,"23508 PURITAN PLACE","DAMASCUS","MD",20872,39.2425167980001,-77.2115898009999,45,"23508 PURITAN PLACE, DAMASCUS, MD, 20872","Match","Exact","23508 PURITAN PL, DAMASCUS, MD, 20872",62097593,"L"
385046,"23508 W 58TH ST","SHAWNEE","KS",66226,39.02451762,-94.8592027879999,46,"23508 W 58TH ST, SHAWNEE, KS, 66226","Match","Exact","23508 W 58TH ST, SHAWNEE, KS, 66226",640604691,"R"
385047,"23509 SE 254TH STREET","MAPLE VALLEY","WA",98038,47.3728282270001,-122.026597443,47,"23509 SE 254TH STREET, MAPLE VALLEY, WA, 98038","Match","Exact","23509 SE 254TH ST, MAPLE VALLEY, WA, 98038",186923604,"R"
385048,"2351 25TH ST SE","WASHINGTON, DC","DC",20020,38.8599948340001,-76.96991809,48,"2351 25TH ST SE, WASHINGTON, DC, DC, 20020","Match","Exact","2351 25TH ST SE, WASHINGTON, DC, 20020",76232766,"R"
385049,"2351 ANNAPOLIS ROAD","BALTIMORE","MD",21230,39.262384399,-76.6343903549999,49,"2351 ANNAPOLIS ROAD, BALTIMORE, MD, 21230","Match","Exact","2351 ANNAPOLIS RD, BALTIMORE, MD, 21230",206422260,"L"
385050,"2351 APPLEWOOD LANE","SANTA ROSA VALLEY","CA",93012,34.237942408,-118.904334419,50,"2351 APPLEWOOD LANE, SANTA ROSA VALLEY, CA, 93012","Match","Exact","2351 APPLEWOOD LN, SANTA ROSA VALLEY, CA, 93012",110092924,"R"
385051,"2351 BLAKE WAY","OCOEE","FL",34761,28.5814854600001,-81.506295632,51,"2351 BLAKE WAY, OCOEE, FL, 34761","Match","Exact","2351 BLAKE WAY, OCOEE, FL, 34761",94347021,"R"
385052,"2351 CEDAR DR","LAWRENCEVILLE","GA",30043,34.027511281,-83.997575747,52,"2351 CEDAR DR, LAWRENCEVILLE, GA, 30043","Match","Exact","2351 CEDAR DR, LAWRENCEVILLE, GA, 30043",88943805,"R"
385053,"2351 CLARK TRAIL","GRANDE PRAIRIE","TX",75052,32.648639528,-97.038879808,53,"2351 CLARK TRAIL, GRANDE PRAIRIE, TX, 75052","Match","Non_Exact","2351 CLARK TRL, GRAND PRAIRIE, TX, 75052",617668020,"L"
385054,"2351 CLARKSON RD","CHESTERFIELD","MO",63017,38.627716863,-90.5802209409999,54,"2351 CLARKSON RD, CHESTERFIELD, MO, 63017","Match","Exact","2351 CLARKSON RD, CHESTERFIELD, MO, 63017",100110237,"R"
385055,"2351 COMMERCIAL DR","WAUPACA","WI",54981,44.336248853,-89.0267957519999,55,"2351 COMMERCIAL DR, WAUPACA, WI, 54981","Match","Exact","2351 COMMERCIAL DR, WAUPACA, WI, 54981",639696171,"R"
385056,"2351 CORNELL CIR","MCDONOUGH","GA",30253,33.4491827260001,-84.186290481,56,"2351 CORNELL CIR, MCDONOUGH, GA, 30253","Match","Exact","2351 CORNELL CIR, MCDONOUGH, GA, 30253",619916177,"R"
385057,"2351 COUNTY RD H","CUBA CITY","WI",53807,NA,NA,57,"2351 COUNTY RD H, CUBA CITY, WI, 53807","No_Match",NA,NA,NA,NA
385058,"2351 CTY RD 10","ALPINE","NY",14805,42.347753379,-76.755406436,58,"2351 CTY RD 10, ALPINE, NY, 14805","Match","Exact","2351 CO RD 10, ALPINE, NY, 14805",18193962,"L"
385059,"2351 DALTON PARK","RIVERDALE","GA",30296,33.556370234,-84.466264176,59,"2351 DALTON PARK, RIVERDALE, GA, 30296","Match","Exact","2351 DALTON PARK, RIVERDALE, GA, 30296",625040883,"R"
385060,"2351 DUNHILL AVE","MIRAMAR","FL",33025,25.988697449,-80.267529715,60,"2351 DUNHILL AVE, MIRAMAR, FL, 33025","Match","Exact","2351 DUNHILL AVE, MIRAMAR, FL, 33025",114770559,"R"
385061,"2351 E COUNTY ROAD  NUM 2505","VERSAILLES","IN",47042,NA,NA,61,"2351 E COUNTY ROAD  NUM 2505, VERSAILLES, IN, 47042","No_Match",NA,NA,NA,NA
385062,"2351 EAST GLENOAKS BOULEVARD","GLENDALE","CA",91206,34.1496086440001,-118.214190337,62,"2351 EAST GLENOAKS BOULEVARD, GLENDALE, CA, 91206","Match","Exact","2351 E GLENOAKS BLVD, GLENDALE, CA, 91206",141613214,"L"
385063,"2351 EAST OAKMONT DRIVVVE","IDAHO FALLS","ID",83404,43.3974498200001,-111.986424741,63,"2351 EAST OAKMONT DRIVVVE, IDAHO FALLS, ID, 83404","Match","Non_Exact","2351 E OAKMONT DR, IDAHO FALLS, ID, 83404",119129200,"L"
385064,"2351 EASTRIDGE DRIVE","FAIRFIELD TOWNSHIP","OH",45011,39.412904611,-84.5259971039999,64,"2351 EASTRIDGE DRIVE, FAIRFIELD TOWNSHIP, OH, 45011","Match","Exact","2351 EASTRIDGE DR, FAIRFIELD TOWNSHIP, OH, 45011",113790795,"R"
385065,"2351 EISENHOWER AVE APT 2414","ALEXANDRIA","VA",22314,38.801144428,-77.0707265839999,65,"2351 EISENHOWER AVE APT 2414, ALEXANDRIA, VA, 22314","Match","Exact","2351 EISENHOWER AVE, ALEXANDRIA, VA, 22314",641049864,"R"
385066,"2351 EISENHOWER AVE APT 617","ALEXANDRIA","VA",22314,38.801144428,-77.0707265839999,66,"2351 EISENHOWER AVE APT 617, ALEXANDRIA, VA, 22314","Match","Exact","2351 EISENHOWER AVE, ALEXANDRIA, VA, 22314",641049864,"R"
385067,"2351 EISENHOWER AVENUE APT 2107","ALEXANDRIA","VA",22314,38.801144428,-77.0707265839999,67,"2351 EISENHOWER AVENUE APT 2107, ALEXANDRIA, VA, 22314","Match","Exact","2351 EISENHOWER AVE, ALEXANDRIA, VA, 22314",641049864,"R"
385068,"2351 ETIWANDA AVE","SAN DIEGO","CA",92107,32.7488800790001,-117.236905783,68,"2351 ETIWANDA AVE, SAN DIEGO, CA, 92107","Match","Non_Exact","2351 ETIWANDA ST, SAN DIEGO, CA, 92107",195339462,"R"
385069,"2351 FERD LANE","PORT ALLEN","LA",70767,30.5008977000001,-91.307602188,69,"2351 FERD LANE, PORT ALLEN, LA, 70767","Match","Exact","2351 FERD LN, PORT ALLEN, LA, 70767",92297891,"R"
385070,"2351 FERN PLACE","TAMPA","FL",33604,28.00559265,-82.48300517,70,"2351 FERN PLACE, TAMPA, FL, 33604","Match","Exact","2351 FERN PL, TAMPA, FL, 33604",104516302,"R"
385071,"2351 FM 1502","DETROIT","TX",75436,33.680903508,-95.337174241,71,"2351 FM 1502, DETROIT, TX, 75436","Match","Exact","2351 FM 1502, DETROIT, TX, 75436",653215748,"L"
385072,"2351 GREEN POND RD","JACKSON","SC",29831,33.3748333940001,-81.7639451909999,72,"2351 GREEN POND RD, JACKSON, SC, 29831","Match","Exact","2351 GREEN POND RD, JACKSON, SC, 29831",652907785,"R"
385073,"2351 HAMILTON RD","ALAMOGORDO","NM",88310,32.8626598990001,-105.962920168,73,"2351 HAMILTON RD, ALAMOGORDO, NM, 88310","Match","Exact","2351 HAMILTON RD, ALAMOGORDO, NM, 88310",617833518,"R"
385074,"2351 HOBART AVENUE SW","SEATTLE","WA",98116,47.5834707050001,-122.398983806,74,"2351 HOBART AVENUE SW, SEATTLE, WA, 98116","Match","Exact","2351 HOBART AVE SW, SEATTLE, WA, 98116",186660412,"R"
385075,"2351 LOCUST ST","DENVER","CO",80207,39.751613772,-104.913991826,75,"2351 LOCUST ST, DENVER, CO, 80207","Match","Exact","2351 LOCUST ST, DENVER, CO, 80207",177312348,"L"
385076,"2351 LONGTOWN RD E","BLYTHEWOOD","SC",29016,34.193282342,-80.9309931499999,76,"2351 LONGTOWN RD E, BLYTHEWOOD, SC, 29016","Match","Exact","2351 LONGTOWN RD E, BLYTHEWOOD, SC, 29016",647373744,"L"
385077,"2351 MANCKE DR","ROCK HILL","SC",29732,34.963339352,-81.0624525709999,77,"2351 MANCKE DR, ROCK HILL, SC, 29732","Match","Exact","2351 MANCKE DR, ROCK HILL, SC, 29732",19817639,"R"
385078,"2351 MASONWOOD WAY","ROUND ROCK","TX",78681,30.5346128830001,-97.7283590489999,78,"2351 MASONWOOD WAY, ROUND ROCK, TX, 78681","Match","Exact","2351 MASONWOOD WAY, ROUND ROCK, TX, 78681",126484446,"L"
385079,"2351 MATHIS STREET","MANDEVILLE","LA",70448,30.3629981940001,-90.0694285599999,79,"2351 MATHIS STREET, MANDEVILLE, LA, 70448","Match","Exact","2351 MATHIS ST, MANDEVILLE, LA, 70448",111238506,"R"
385080,"2351 MILLS BEND","DECATUR","GA",30034,33.708485662,-84.293498233,80,"2351 MILLS BEND, DECATUR, GA, 30034","Match","Exact","2351 MILLS BEND, DECATUR, GA, 30034",23382002,"R"
385081,"2351 MONROE DRIVE","BIRMINGHAM","AL",35242,33.571538939,-86.6295405659999,81,"2351 MONROE DRIVE, BIRMINGHAM, AL, 35242","Match","Non_Exact","2351 MONROE DR, BIRMINGHAM, AL, 35210",81589608,"R"
385082,"2351 MORGANTON BLVD","LENOIR","NC",28645,35.893602007,-81.57158699,82,"2351 MORGANTON BLVD, LENOIR, NC, 28645","Match","Non_Exact","2351 MORGANTON BLVD SW, LENOIR, NC, 28645",45853915,"R"
385083,"2351 MORNING DEW DR","BREA","CA",92821,33.9246670570001,-117.867494407,83,"2351 MORNING DEW DR, BREA, CA, 92821","Match","Non_Exact","2351 E MORNINGDEW DR, BREA, CA, 92821",144124151,"R"
385084,"2351 NEWBOLD AVE","BRONX","NY",10462,40.8339967840001,-73.8467553789999,84,"2351 NEWBOLD AVE, BRONX, NY, 10462","Match","Exact","2351 NEWBOLD AVE, BRONX, NY, 10462",80305651,"L"
385085,"2351 NORTHHILL ST","SELMA","CA",93662,36.586712434,-119.616480289,85,"2351 NORTHHILL ST, SELMA, CA, 93662","Match","Exact","2351 NORTHHILL ST, SELMA, CA, 93662",197636737,"L"
385086,"2351 NOTTOWAY LANE","VIRGINIA","TX",23456,NA,NA,86,"2351 NOTTOWAY LANE, VIRGINIA, TX, 23456","No_Match",NA,NA,NA,NA
385087,"2351 NW 63 TERRACE","SUNRISE","FL",33313,26.155375996,-80.234329632,87,"2351 NW 63 TERRACE, SUNRISE, FL, 33313","Match","Exact","2351 NW 63RD TER, SUNRISE, FL, 33313",114704545,"L"
385088,"2351 NW WESTOVER ROAD SUITE 310","PORTLAND","OR",97210,NA,NA,88,"2351 NW WESTOVER ROAD SUITE 310, PORTLAND, OR, 97210","No_Match",NA,NA,NA,NA
385089,"2351 OAK HAMMOCK RESERVE BLVD","KISSIMMEE","FL",34746,NA,NA,89,"2351 OAK HAMMOCK RESERVE BLVD, KISSIMMEE, FL, 34746","No_Match",NA,NA,NA,NA
385090,"2351 OLD LAGUARDO ROAD E","LEBANON","TN",37087,36.263055079,-86.4386126699999,90,"2351 OLD LAGUARDO ROAD E, LEBANON, TN, 37087","Match","Exact","2351 OLD LAGUARDO RD E, LEBANON, TN, 37087",636667824,"R"
385091,"2351 PLEASANT DRIVE","LONGWOOD","FL",32779,28.6929312230001,-81.428237876,91,"2351 PLEASANT DRIVE, LONGWOOD, FL, 32779","Match","Exact","2351 PLEASANT DR, LONGWOOD, FL, 32779",93735041,"R"
385092,"2351 PRINCETON DRIVE","SAN BRUNO","CA",94066,37.6187403540001,-122.432782682,92,"2351 PRINCETON DRIVE, SAN BRUNO, CA, 94066","Match","Exact","2351 PRINCETON DR, SAN BRUNO, CA, 94066",192372910,"L"
385093,"2351 RAWNSDALE ROAD","DAYTON","OH",45440,39.673306569,-84.122146992,93,"2351 RAWNSDALE ROAD, DAYTON, OH, 45440","Match","Exact","2351 RAWNSDALE RD, DAYTON, OH, 45440",143584868,"L"
385094,"2351 ROCKY POINT CT","SAN LEANDRO","CA",94579,37.6760526670001,-122.160533988,94,"2351 ROCKY POINT CT, SAN LEANDRO, CA, 94579","Match","Exact","2351 ROCKY POINT CT, SAN LEANDRO, CA, 94579",125073183,"R"
385095,"2351 S COLUMBINE ST","DENVER","CO",80210,39.673901002,-104.956530881,95,"2351 S COLUMBINE ST, DENVER, CO, 80210","Match","Exact","2351 S COLUMBINE ST, DENVER, CO, 80210",177340545,"R"
385096,"2351 S HIGHWAY 174","RIO VISTA","TX",76093,32.198860003,-97.3779223289999,96,"2351 S HIGHWAY 174, RIO VISTA, TX, 76093","Match","Non_Exact","2351 STATE HWY 174, RIO VISTA, TX, 76093",160538687,"L"
385097,"2351 S VRAIN STREET","DENVER","CO",80219,39.6746827060001,-105.045861449,97,"2351 S VRAIN STREET, DENVER, CO, 80219","Match","Exact","2351 S VRAIN ST, DENVER, CO, 80219",177328746,"R"
385098,"2351 SANDY LANE","ALPENA","MI",49707,45.0854018040001,-83.4792920049999,98,"2351 SANDY LANE, ALPENA, MI, 49707","Match","Exact","2351 SANDY LN, ALPENA, MI, 49707",135790557,"L"
385099,"2351 SAWMILL RD","MARIETTA","GA",30064,33.8896545430001,-84.622229654,99,"2351 SAWMILL RD, MARIETTA, GA, 30064","Match","Exact","2351 SAWMILL RD, MARIETTA, GA, 30064",17173538,"L"
385100,"2351 SENATOR COURT","LOUISVILLE","CO",80027,39.993177582,-105.140296113,100,"2351 SENATOR COURT, LOUISVILLE, CO, 80027","Match","Exact","2351 SENATOR CT, LOUISVILLE, CO, 80027",188165718,"L"
385101,"2351 SHELLY CT","SHELBY TWP","MI",48314,42.626847932,-83.08717065,101,"2351 SHELLY CT, SHELBY TWP, MI, 48314","Match","Non_Exact","2351 SHELLY CT, SHELBY TOWNSHIP, MI, 48317",110712488,"R"
385102,"2351 STANLEY AVENUE","SIGNAL HILL","CA",90755,33.799970306,-118.162377655,102,"2351 STANLEY AVENUE, SIGNAL HILL, CA, 90755","Match","Exact","2351 STANLEY AVE, SIGNAL HILL, CA, 90755",142672551,"L"
385103,"2351 SUNNY HILL ROAD","LAWRENCEVILLE","GA",30043,34.0532095130001,-83.9553707809999,103,"2351 SUNNY HILL ROAD, LAWRENCEVILLE, GA, 30043","Match","Exact","2351 SUNNY HILL RD, LAWRENCEVILLE, GA, 30043",88879335,"R"
385104,"2351 SUNSET BLVD  STE 170 NUM 437","ROCKLIN","CA",95765,38.7979664220001,-121.266845965,104,"2351 SUNSET BLVD  STE 170 NUM 437, ROCKLIN, CA, 95765","Match","Exact","2351 SUNSET BLVD, ROCKLIN, CA, 95765",633818196,"L"
385105,"2351 SUNSET BLVD - SUITE 170-209","ROCKLIN","CA",95765,38.7979664220001,-121.266845965,105,"2351 SUNSET BLVD - SUITE 170-209, ROCKLIN, CA, 95765","Match","Exact","2351 SUNSET BLVD, ROCKLIN, CA, 95765",633818196,"L"
385106,"2351 SUNSET BLVD PMB 170-905","ROCKLIN","CA",95765,38.7979664220001,-121.266845965,106,"2351 SUNSET BLVD PMB 170-905, ROCKLIN, CA, 95765","Match","Exact","2351 SUNSET BLVD, ROCKLIN, CA, 95765",633818196,"L"
385107,"2351 SUNSET BLVD STE 170 NUM 437","ROCKLIN","CA",95765,38.7979664220001,-121.266845965,107,"2351 SUNSET BLVD STE 170 NUM 437, ROCKLIN, CA, 95765","Match","Exact","2351 SUNSET BLVD, ROCKLIN, CA, 95765",633818196,"L"
385108,"2351 SUNSET BLVD STE 170-143","ROCKLIN","CA",95765,38.7979664220001,-121.266845965,108,"2351 SUNSET BLVD STE 170-143, ROCKLIN, CA, 95765","Match","Exact","2351 SUNSET BLVD, ROCKLIN, CA, 95765",633818196,"L"
385109,"2351 SUNSET BLVD STE 170-504","ROCKLIN","CA",95765,38.7979664220001,-121.266845965,109,"2351 SUNSET BLVD STE 170-504, ROCKLIN, CA, 95765","Match","Exact","2351 SUNSET BLVD, ROCKLIN, CA, 95765",633818196,"L"
385110,"2351 SUNSET BLVD SUITE 170-846","ROCKLIN","CA",95765,38.7979664220001,-121.266845965,110,"2351 SUNSET BLVD SUITE 170-846, ROCKLIN, CA, 95765","Match","Exact","2351 SUNSET BLVD, ROCKLIN, CA, 95765",633818196,"L"
385111,"2351 SW 16TH COURT","MIAMI","FL",33145,25.748208011,-80.220844482,111,"2351 SW 16TH COURT, MIAMI, FL, 33145","Match","Exact","2351 SW 16TH CT, MIAMI, FL, 33145",116018994,"L"
385112,"2351 TIMBERBROOK TRACE","MARIETTA","GA",30066,34.0532383400001,-84.484007691,112,"2351 TIMBERBROOK TRACE, MARIETTA, GA, 30066","Match","Exact","2351 TIMBERBROOK TRCE, MARIETTA, GA, 30066",624643442,"L"
385113,"2351 TIMBERLAKE CIR","ALLEN","TX",75013,33.1394579190001,-96.673408227,113,"2351 TIMBERLAKE CIR, ALLEN, TX, 75013","Match","Non_Exact","2351 N TIMBERLAKE CIR, ALLEN, TX, 75013",625671226,"R"
385114,"2351 VILLAGE AT BEXLEY DR","COLUMBUS","OH",43209,39.937704755,-82.932563654,114,"2351 VILLAGE AT BEXLEY DR, COLUMBUS, OH, 43209","Match","Exact","2351 VILLAGE AT BEXLEY DR, COLUMBUS, OH, 43209",624270803,"L"
385115,"2351 W 153RD","BROOMFIELD","CO",80023,39.9749882690001,-105.015406413,115,"2351 W 153RD, BROOMFIELD, CO, 80023","Match","Non_Exact","2351 W 153RD PL, BROOMFIELD, CO, 80023",177397267,"L"
385116,"2351 W ATLANTIC BLVD - 669 513","POMPANO BEACH","FL",33066,NA,NA,116,"2351 W ATLANTIC BLVD - 669 513, POMPANO BEACH, FL, 33066","No_Match",NA,NA,NA,NA
385117,"2351 W ATLANTIC BLVD UNIT 669271","POMPANO BEACH","FL",33069,NA,NA,117,"2351 W ATLANTIC BLVD UNIT 669271, POMPANO BEACH, FL, 33069","No_Match",NA,NA,NA,NA
385118,"2351 W CLEVELAND AVENUE SUITE 314","MADERA","CA",93637,36.974592439,-120.087196619,118,"2351 W CLEVELAND AVENUE SUITE 314, MADERA, CA, 93637","Match","Non_Exact","2351 W CLEVELAND AVE, MADERA, CA, 93637",102361255,"R"
385119,"2351 W LOMA LINDA AVE","FRESNO","CA",93711,36.8462342190001,-119.83435233,119,"2351 W LOMA LINDA AVE, FRESNO, CA, 93711","Match","Exact","2351 W LOMA LINDA AVE, FRESNO, CA, 93711",197613642,"L"
385120,"2351 W NORTHWEST HWY STE 3145","DALLAS","TX",75220,NA,NA,120,"2351 W NORTHWEST HWY STE 3145, DALLAS, TX, 75220","No_Match",NA,NA,NA,NA
385121,"2351 W SPRING ST","LIMA","OH",45805,40.737936968,-84.150408619,121,"2351 W SPRING ST, LIMA, OH, 45805","Match","Exact","2351 W SPRING ST, LIMA, OH, 45805",35565448,"L"
385122,"2351 W WILSON AVE APT 101","CHICAGO","IL",60625,41.964876137,-87.688225755,122,"2351 W WILSON AVE APT 101, CHICAGO, IL, 60625","Match","Non_Exact","2351 W WILSON AVE, CHICAGO, IL, 60625",605153584,"L"
385123,"2351 WALDEN VIEW LANE","LINCOLN","CA",95648,38.8591097020001,-121.258622241,123,"2351 WALDEN VIEW LANE, LINCOLN, CA, 95648","Match","Exact","2351 WALDEN VIEW LN, LINCOLN, CA, 95648",633818485,"R"
385124,"2351 WEST ATLANTIC BOULEVARD /8343","POMPANO BEACH","FL",33066,NA,NA,124,"2351 WEST ATLANTIC BOULEVARD /8343, POMPANO BEACH, FL, 33066","No_Match",NA,NA,NA,NA
385125,"2351 WESTGATE CIRCLE","COLUMBIA","TN",38401,35.611011702,-87.148069936,125,"2351 WESTGATE CIRCLE, COLUMBIA, TN, 38401","Match","Non_Exact","2351 WESTGATE CT, COLUMBIA, TN, 38401",645114759,"L"
385126,"23510 CANYON GOLF ROAD UNIT 405","SAN ANTONIO","TX",78258,29.658803355,-98.4798414909999,126,"23510 CANYON GOLF ROAD UNIT 405, SAN ANTONIO, TX, 78258","Match","Exact","23510 CANYON GOLF RD, SAN ANTONIO, TX, 78258",101740838,"R"
385127,"23510 COPPER DRIVE","PLAINFIELD","IL",60544,41.622670527,-88.190950699,127,"23510 COPPER DRIVE, PLAINFIELD, IL, 60544","Match","Exact","23510 COPPER DR, PLAINFIELD, IL, 60544",111533949,"L"
385128,"23510 E BROADWAY AVE","LIBERTY LAKE","WA",99019,47.6636990800001,-117.08879396,128,"23510 E BROADWAY AVE, LIBERTY LAKE, WA, 99019","Match","Exact","23510 E BROADWAY AVE, LIBERTY LAKE, WA, 99019",189906306,"L"
385129,"23510 N HATCH ROAD","COLBERT","WA",99005,47.87300056,-117.40063752,129,"23510 N HATCH ROAD, COLBERT, WA, 99005","Match","Exact","23510 N HATCH RD, COLBERT, WA, 99005",189904731,"R"
385130,"23511 ALISO CREEK","ALISO VIEJO","CA",92656,33.5869190550001,-117.719894692,130,"23511 ALISO CREEK, ALISO VIEJO, CA, 92656","Match","Non_Exact","23511 ALISO CREEK RD, ALISO VIEJO, CA, 92656",612186465,"R"
385131,"23511 BAINFORD COURT","KATY","TX",77494,29.7273506180001,-95.77403524,131,"23511 BAINFORD COURT, KATY, TX, 77494","Match","Exact","23511 BAINFORD CT, KATY, TX, 77494",624814824,"R"
385132,"23511 CHAGRIN BLVD 516","BEACHWOOD","OH",44122,41.4644845450001,-81.5131447799999,132,"23511 CHAGRIN BLVD 516, BEACHWOOD, OH, 44122","Match","Exact","23511 CHAGRIN BLVD, BEACHWOOD, OH, 44122",61135261,"L"
385133,"23511 CHAGRIN BLVD APT 319","BEACHWOOD","OH",44122,41.4644845450001,-81.5131447799999,133,"23511 CHAGRIN BLVD APT 319, BEACHWOOD, OH, 44122","Match","Exact","23511 CHAGRIN BLVD, BEACHWOOD, OH, 44122",61135261,"L"
385134,"23511 CHAGRIN BLVD APT E319","BEACHWOOD","OH",44122,41.4644845450001,-81.5131447799999,134,"23511 CHAGRIN BLVD APT E319, BEACHWOOD, OH, 44122","Match","Exact","23511 CHAGRIN BLVD, BEACHWOOD, OH, 44122",61135261,"L"
385135,"23511 CHAGRIN BLVD","BEACHWOOD","OH",44122,41.4644845450001,-81.5131447799999,135,"23511 CHAGRIN BLVD, BEACHWOOD, OH, 44122","Match","Exact","23511 CHAGRIN BLVD, BEACHWOOD, OH, 44122",61135261,"L"
385136,"23511 CLAY AVE","PORT CHARLOTTE","FL",33954,27.026282187,-82.058182092,136,"23511 CLAY AVE, PORT CHARLOTTE, FL, 33954","Match","Exact","23511 CLAY AVE, PORT CHARLOTTE, FL, 33954",4287161,"L"
385137,"23511 DEANHURST","CLINTON TWP","MI",48035,42.5430058370001,-82.8716717889999,137,"23511 DEANHURST, CLINTON TWP, MI, 48035","Match","Non_Exact","23511 DEANHURST ST, CLINTON TOWNSHIP, MI, 48035",640453071,"L"
385138,"23511 SONOMA VALLEY DR","MAGNOLIA","TX",77355,30.1046105190001,-95.703225281,138,"23511 SONOMA VALLEY DR, MAGNOLIA, TX, 77355","Match","Exact","23511 SONOMA VALLEY DR, MAGNOLIA, TX, 77355",641117906,"R"
385139,"23513 17TH AVE W","BOTHELL","WA",98021,47.7850002770001,-122.255669577,139,"23513 17TH AVE W, BOTHELL, WA, 98021","Match","Exact","23513 17 AVE W, BOTHELL, WA, 98021",608920602,"R"
385140,"23513 HIGHWAY D","CALIFORNIA","MO",65018,NA,NA,140,"23513 HIGHWAY D, CALIFORNIA, MO, 65018","No_Match",NA,NA,NA,NA
385141,"23513 LAKEVIEW TERRACE","SPRINGDALE","AR",72764,36.2245615410001,-94.010885663,141,"23513 LAKEVIEW TERRACE, SPRINGDALE, AR, 72764","Match","Exact","23513 LAKEVIEW TER, SPRINGDALE, AR, 72764",49058380,"L"
385142,"23513 LAKEVIEW TERRRACE","SPRINGDALE","AR",72764,36.2245615410001,-94.010885663,142,"23513 LAKEVIEW TERRRACE, SPRINGDALE, AR, 72764","Match","Non_Exact","23513 LAKEVIEW TER, SPRINGDALE, AR, 72764",49058380,"L"
385143,"23514 55TH AVE S","KENT","WA",98032,47.3913090770001,-122.265717926,143,"23514 55TH AVE S, KENT, WA, 98032","Match","Exact","23514 55TH AVE S, KENT, WA, 98032",186966609,"L"
385144,"23514 CLEARPOOL PLACE","HARBOR CITY","CA",90710,33.8113699040001,-118.301432255,144,"23514 CLEARPOOL PLACE, HARBOR CITY, CA, 90710","Match","Exact","23514 CLEARPOOL PL, HARBOR CITY, CA, 90710",141669086,"R"
385145,"23514 P STREET","ELKHORN","NE",68022,41.20426846,-96.2837068169999,145,"23514 P STREET, ELKHORN, NE, 68022","Match","Exact","23514 P ST, ELKHORN, NE, 68022",624334992,"L"
385146,"23514 TAFT CT","MURRIETA","CA",92562,33.5890445680001,-117.224611592,146,"23514 TAFT CT, MURRIETA, CA, 92562","Match","Exact","23514 TAFT CT, MURRIETA, CA, 92562",195088210,"R"
385147,"23514 VALDERAMA LANE","SORRENTO","FL",32776,28.8495350810001,-81.566089963,147,"23514 VALDERAMA LANE, SORRENTO, FL, 32776","Match","Exact","23514 VALDERAMA LN, SORRENTO, FL, 32776",617493714,"R"
385148,"23515 LYONS AVE 107","VALENCIA","CA",91355,NA,NA,148,"23515 LYONS AVE 107, VALENCIA, CA, 91355","No_Match",NA,NA,NA,NA
385149,"23515 LYONS AVE UNIT 265","VALENCIA","CA",91355,NA,NA,149,"23515 LYONS AVE UNIT 265, VALENCIA, CA, 91355","No_Match",NA,NA,NA,NA
385150,"23515 LYONS AVENUE APT 282","VALENCIA","CA",91355,NA,NA,150,"23515 LYONS AVENUE APT 282, VALENCIA, CA, 91355","No_Match",NA,NA,NA,NA
385151,"23515 MONETA AVE","CARSON","CA",90745,33.8111158660001,-118.281178222,151,"23515 MONETA AVE, CARSON, CA, 90745","Match","Exact","23515 MONETA AVE, CARSON, CA, 90745",141670100,"R"
385152,"23515 NE NOVELTY HILL RD STE B221","REDMOND","WA",98053,47.7000702510001,-122.025994638,152,"23515 NE NOVELTY HILL RD STE B221, REDMOND, WA, 98053","Match","Non_Exact","23515 NE NOVELTY HILL RD, REDMOND, WA, 98053",641258994,"R"
385153,"23515 SE 111TH ST","ISSAQUAH","WA",98027,47.5028631000001,-122.025697426,153,"23515 SE 111TH ST, ISSAQUAH, WA, 98027","Match","Exact","23515 SE 111TH ST, ISSAQUAH, WA, 98027",186639883,"L"
385154,"23515 SE 282ND PL","MAPLE VALLEY","WA",98038,47.3490122110001,-122.028382767,154,"23515 SE 282ND PL, MAPLE VALLEY, WA, 98038","Match","Exact","23515 SE 282ND PL, MAPLE VALLEY, WA, 98038",186923502,"L"
385155,"23515 VALLEY VIEW DRIVE","SOUTHFIELD","MI",48033,42.465889041,-83.273826765,155,"23515 VALLEY VIEW DRIVE, SOUTHFIELD, MI, 48033","Match","Exact","23515 VALLEY VIEW DR, SOUTHFIELD, MI, 48033",69732581,"L"
385156,"23515 VALLEY VIEW","SOUTHFIELD","MI",48033,42.465889041,-83.273826765,156,"23515 VALLEY VIEW, SOUTHFIELD, MI, 48033","Match","Non_Exact","23515 VALLEY VIEW DR, SOUTHFIELD, MI, 48033",69732581,"L"
385157,"23516 WILSON AVE","DEARBORN","MI",48128,42.3198970010001,-83.266274106,157,"23516 WILSON AVE, DEARBORN, MI, 48128","Match","Exact","23516 WILSON AVE, DEARBORN, MI, 48128",95433133,"R"
385158,"23518 25TH DR SE","BOTHELL","WA",98012,47.7848575890001,-122.199904686,158,"23518 25TH DR SE, BOTHELL, WA, 98012","Match","Non_Exact","23518 25TH DR SE, BOTHELL, WA, 98021",650201108,"R"
385159,"23518 JOHN T REID PARKWAY","SCOTTSBORO","AL",35768,34.654770564,-86.023361522,159,"23518 JOHN T REID PARKWAY, SCOTTSBORO, AL, 35768","Match","Exact","23518 JOHN T REID PKWY, SCOTTSBORO, AL, 35768",58025966,"L"
385160,"23518 W 54TH TERRACE","SHAWNEE","KS",66226,39.029712343,-94.8592307709999,160,"23518 W 54TH TERRACE, SHAWNEE, KS, 66226","Match","Exact","23518 54TH TER, SHAWNEE, KS, 66226",91330319,"L"
385161,"2352 7TH AVENUE  3RD FLOOR","NEW YORK","NY",10030,40.817007317,-73.942468221,161,"2352 7TH AVENUE  3RD FLOOR, NEW YORK, NY, 10030","Match","Exact","2352 7TH AVE, NEW YORK, NY, 10030",59656398,"L"
385162,"2352 ALEXANDRIA DR SUITE 100","LEXINGTON","KY",40504,38.0203215610001,-84.551595988,162,"2352 ALEXANDRIA DR SUITE 100, LEXINGTON, KY, 40504","Match","Exact","2352 ALEXANDRIA DR, LEXINGTON, KY, 40504",31934542,"L"
385163,"2352 ARLENE DR","SANTA CLARA","CA",95050,37.345551899,-121.966586606,163,"2352 ARLENE DR, SANTA CLARA, CA, 95050","Match","Exact","2352 ARLENE DR, SANTA CLARA, CA, 95050",122899407,"L"
385164,"2352 ARLINGTON POINTE WAY","KENNESAW","GA",30152,34.008449682,-84.6352172969999,164,"2352 ARLINGTON POINTE WAY, KENNESAW, GA, 30152","Match","Non_Exact","2352 ARLINGTON POINT WAY NW, KENNESAW, GA, 30152",614170112,"L"
385165,"2352 AUDREY MANOR CT","WALDORF","MD",20603,38.647850738,-76.9978800919999,165,"2352 AUDREY MANOR CT, WALDORF, MD, 20603","Match","Exact","2352 AUDREY MANOR CT, WALDORF, MD, 20603",614118349,"L"
385166,"2352 BACHMAN PATH","THE VILLAGES","FL",32162,28.8809944980001,-82.014797777,166,"2352 BACHMAN PATH, THE VILLAGES, FL, 32162","Match","Exact","2352 BACHMAN PATH, THE VILLAGES, FL, 32162",641355996,"L"
385167,"2352 BANBURY CIRCLE APT 1F","WARRENVILLE HEIGHTS","OH",44118,NA,NA,167,"2352 BANBURY CIRCLE APT 1F, WARRENVILLE HEIGHTS, OH, 44118","No_Match",NA,NA,NA,NA
385168,"2352 BARKWOOD PASS","CLEARWATER","FL",33763,28.0076910700001,-82.743908549,168,"2352 BARKWOOD PASS, CLEARWATER, FL, 33763","Match","Exact","2352 BARKWOOD PASS, CLEARWATER, FL, 33763",124667042,"L"
385169,"2352 BECKETT DR","EL DORADO HILLS","CA",95762,38.6758658420001,-121.030983072,169,"2352 BECKETT DR, EL DORADO HILLS, CA, 95762","Match","Exact","2352 BECKETT DR, EL DORADO HILLS, CA, 95762",619538483,"R"
385170,"2352 BENTLEY AVENUE","SANTA MARIA","CA",93458,34.9851411700001,-120.44952643,170,"2352 BENTLEY AVENUE, SANTA MARIA, CA, 93458","Match","Exact","2352 BENTLEY AVE, SANTA MARIA, CA, 93458",616216131,"R"
385171,"2352 BLACKRIDGE DRIVE","HOOVER","AL",35244,33.3224008720001,-86.868267773,171,"2352 BLACKRIDGE DRIVE, HOOVER, AL, 35244","Match","Exact","2352 BLACKRIDGE DR, HOOVER, AL, 35244",650216611,"R"
385172,"2352 BUSH AVE E","MAPLEWOOD","MN",55109,44.9648502110001,-93.000716186,172,"2352 BUSH AVE E, MAPLEWOOD, MN, 55109","Match","Non_Exact","2352 BUSH AVE E, MAPLEWOOD, MN, 55119",638323484,"R"
385173,"2352 DOVEDALE DRIVE","GREENVILLE","NC",27834,35.5819836310001,-77.423364936,173,"2352 DOVEDALE DRIVE, GREENVILLE, NC, 27834","Match","Exact","2352 DOVEDALE DR, GREENVILLE, NC, 27834",636030097,"R"
385174,"2352 E 225 S","WINAMAC","IN",46996,41.022784517,-86.558518122,174,"2352 E 225 S, WINAMAC, IN, 46996","Match","Exact","2352 E 225 S, WINAMAC, IN, 46996",15482276,"R"
385175,"2352 E 38TH ST","DES MOINES","IA",50317,41.6163457530001,-93.541825702,175,"2352 E 38TH ST, DES MOINES, IA, 50317","Match","Exact","2352 E 38TH ST, DES MOINES, IA, 50317",65829634,"L"
385176,"2352 GREENBRIER DRIVE","HINTON","WV",25951,37.651911354,-80.846896585,176,"2352 GREENBRIER DRIVE, HINTON, WV, 25951","Match","Exact","2352 GREENBRIER DR, HINTON, WV, 25951",648204405,"R"
385177,"2352 HEAVNER ROAD","LINCOLNTON","NC",28092,35.460882332,-81.2121037219999,177,"2352 HEAVNER ROAD, LINCOLNTON, NC, 28092","Match","Exact","2352 HEAVNER RD, LINCOLNTON, NC, 28092",69542700,"L"
385178,"2352 HENPECK LANE","FRANKLIN","TN",37064,35.872668973,-86.856953796,178,"2352 HENPECK LANE, FRANKLIN, TN, 37064","Match","Exact","2352 HENPECK LN, FRANKLIN, TN, 37064",653608069,"R"
385179,"2352 HIGHWAY 16 EAST","CANTON","MS",39046,NA,NA,179,"2352 HIGHWAY 16 EAST, CANTON, MS, 39046","No_Match",NA,NA,NA,NA
385180,"2352 HORIZON VIEW COURT","VALPARAISO","IN",46385,41.486196551,-87.089461759,180,"2352 HORIZON VIEW COURT, VALPARAISO, IN, 46385","Match","Non_Exact","2352 HORIZON VIEW CIR, VALPARAISO, IN, 46385",119929451,"R"
385181,"2352 LAKESHORE DR","CABOT","AR",72023,34.939248476,-92.0487544919999,181,"2352 LAKESHORE DR, CABOT, AR, 72023","Match","Non_Exact","2352 LAKESHORE LN, CABOT, AR, 72023",647420881,"L"
385182,"2352 MARAIS STREET","NEW ORLEANS","LA",70117,29.9697806610001,-90.052963413,182,"2352 MARAIS STREET, NEW ORLEANS, LA, 70117","Match","Exact","2352 MARAIS ST, NEW ORLEANS, LA, 70117",191716636,"R"
385183,"2352 MARCA PLACE","CARLSBAD","CA",92009,33.0812240010001,-117.257862036,183,"2352 MARCA PLACE, CARLSBAD, CA, 92009","Match","Exact","2352 MARCA PL, CARLSBAD, CA, 92009",195292432,"L"
385184,"2352 N 200TH RD","EDGERTON","KS",66021,38.767819172,-95.064653929,184,"2352 N 200TH RD, EDGERTON, KS, 66021","Match","Exact","2352 N 200 RD, EDGERTON, KS, 66021",625453660,"L"
385185,"2352 N 58 ST","SEATTLE","WA",98103,47.670868178,-122.329749658,185,"2352 N 58 ST, SEATTLE, WA, 98103","Match","Exact","2352 N 58TH ST, SEATTLE, WA, 98103",186580636,"L"
385186,"2352 N 800 E","MONTEVIEW","ID",83435,43.9646574670001,-112.536190615,186,"2352 N 800 E, MONTEVIEW, ID, 83435","Match","Exact","2352 N 800 E, MONTEVIEW, ID, 83435",119310192,"R"
385187,"2352 N CLIFTON AVE","CHICAGO","IL",60614,41.92446993,-87.6572237889999,187,"2352 N CLIFTON AVE, CHICAGO, IL, 60614","Match","Exact","2352 N CLIFTON AVE, CHICAGO, IL, 60614",111764491,"L"
385188,"2352 N INDIANA AVENUE","LOS ANGELES","CA",90032,34.0714076940001,-118.192662626,188,"2352 N INDIANA AVENUE, LOS ANGELES, CA, 90032","Match","Non_Exact","2352 N INDIANA ST, LOS ANGELES, CA, 90032",141623440,"R"
385189,"2352 NW 116 TER","CORAL SPRINGS","FL",33065,26.260659601,-80.281148248,189,"2352 NW 116 TER, CORAL SPRINGS, FL, 33065","Match","Exact","2352 NW 116TH TER, CORAL SPRINGS, FL, 33065",114689460,"L"
385190,"2352 OLD HICKORY LANE","LEXINGTON","KY",40515,37.9578178300001,-84.4701042729999,190,"2352 OLD HICKORY LANE, LEXINGTON, KY, 40515","Match","Exact","2352 OLD HICKORY LN, LEXINGTON, KY, 40515",31934344,"R"
385191,"2352 PARC CHATEAU DRIVE","LITHONIA","GA",30058,33.71733742,-84.111218634,191,"2352 PARC CHATEAU DRIVE, LITHONIA, GA, 30058","Match","Exact","2352 PARC CHATEAU DR, LITHONIA, GA, 30058",23375638,"L"
385192,"2352 PARSONAGE WOODS LANE","MT. PLEASANT","SC",29466,32.886917334,-79.8046308149999,192,"2352 PARSONAGE WOODS LANE, MT. PLEASANT, SC, 29466","Match","Exact","2352 PARSONAGE WOODS LN, MOUNT PLEASANT, SC, 29466",108897862,"R"
385193,"2352 PARSONAGE WOODS LN","MOUNT PLEASANT","SC",29466,32.886917334,-79.8046308149999,193,"2352 PARSONAGE WOODS LN, MOUNT PLEASANT, SC, 29466","Match","Exact","2352 PARSONAGE WOODS LN, MOUNT PLEASANT, SC, 29466",108897862,"R"
385194,"2352 RAEBURN TERRACE","CINCINNATI","OH",45223,39.174720634,-84.5609984129999,194,"2352 RAEBURN TERRACE, CINCINNATI, OH, 45223","Match","Exact","2352 RAEBURN TER, CINCINNATI, OH, 45223",103920898,"R"
385195,"2352 ROCK DRIVE","POINCIANA","FL",34759,28.040733373,-81.517645113,195,"2352 ROCK DRIVE, POINCIANA, FL, 34759","Match","Exact","2352 ROCK DR, POINCIANA, FL, 34759",104870850,"R"
385196,"2352 SEASIDE CT","SAN DIEGO","CA",92107,32.7494485550001,-117.237724975,196,"2352 SEASIDE CT, SAN DIEGO, CA, 92107","Match","Non_Exact","2352 SEASIDE ST, SAN DIEGO, CA, 92107",612857686,"L"
385197,"2352 SEVEN PINES DR","SAINT LOUIS","MO",63146,38.7085514,-90.4793837569999,197,"2352 SEVEN PINES DR, SAINT LOUIS, MO, 63146","Match","Exact","2352 SEVEN PINES DR, SAINT LOUIS, MO, 63146",100194898,"R"
385198,"2352 SPRUCE SHADOWS LANE","RALEIGH","NC",27614,35.936398851,-78.565664173,198,"2352 SPRUCE SHADOWS LANE, RALEIGH, NC, 27614","Match","Exact","2352 SPRUCE SHADOWS LN, RALEIGH, NC, 27614",72664417,"R"
385199,"2352 STEEPLE CHASE","SHELBYVILLE","IN",46176,39.558796774,-85.77675343,199,"2352 STEEPLE CHASE, SHELBYVILLE, IN, 46176","Match","Exact","2352 STEEPLE CHASE, SHELBYVILLE, IN, 46176",635532357,"L"
385200,"2352 SW 30TH","REDMOND","OR",97756,44.2541673090001,-121.203081088,200,"2352 SW 30TH, REDMOND, OR, 97756","Match","Non_Exact","2352 SW 30TH ST, REDMOND, OR, 97756",152547992,"L"
385201,"2352 TALL WOODS TRAIL","KELLER","TX",76262,32.9558776860001,-97.1899505119999,201,"2352 TALL WOODS TRAIL, KELLER, TX, 76262","Match","Exact","2352 TALL WOODS TRL, KELLER, TX, 76262",102119114,"L"
385202,"2352 TANGLEWOOD BROOK LANE","BIRMINGHAM","AL",35243,33.4362274650001,-86.769957107,202,"2352 TANGLEWOOD BROOK LANE, BIRMINGHAM, AL, 35243","Match","Exact","2352 TANGLEWOOD BROOK LN, BIRMINGHAM, AL, 35243",81621174,"R"
385203,"2352 TANGLEWOOD CT","AURORA","IL",60506,41.75618719,-88.373986509,203,"2352 TANGLEWOOD CT, AURORA, IL, 60506","Match","Exact","2352 TANGLEWOOD CT, AURORA, IL, 60506",119513609,"R"
385204,"2352 TRAVIS PINES DRIVE","AUGUSTA","GA",30906,33.3659783640001,-82.065235322,204,"2352 TRAVIS PINES DRIVE, AUGUSTA, GA, 30906","Match","Exact","2352 TRAVIS PINES DR, AUGUSTA, GA, 30906",55642577,"L"
385205,"2352 TURNER AVE NE","SOLON","IA",52333,41.7618041210001,-91.456152588,205,"2352 TURNER AVE NE, SOLON, IA, 52333","Match","Exact","2352 TURNER AVE NE, SOLON, IA, 52333",652698790,"R"
385206,"2352 ULMER RD","ULMER","SC",29849,33.076013238,-81.171320415,206,"2352 ULMER RD, ULMER, SC, 29849","Match","Exact","2352 ULMER RD, ULMER, SC, 29849",636584415,"L"
385207,"2352 VALLEY VIEW ROAD","NARVON","PA",17555,40.1475352740001,-75.9508208079999,207,"2352 VALLEY VIEW ROAD, NARVON, PA, 17555","Match","Exact","2352 VALLEY VIEW RD, NARVON, PA, 17555",179672729,"R"
385208,"2352 W LONGHORN PL","CHANDLER","AZ",85286,33.2861604070001,-111.882317174,208,"2352 W LONGHORN PL, CHANDLER, AZ, 85286","Match","Exact","2352 W LONGHORN PL, CHANDLER, AZ, 85286",128327067,"L"
385209,"2352 W MULBERRY","SAN ANTONIO","TX",78201,29.4588811460001,-98.5382680609999,209,"2352 W MULBERRY, SAN ANTONIO, TX, 78201","Match","Non_Exact","2352 W MULBERRY AVE, SAN ANTONIO, TX, 78201",101512658,"L"
385210,"2352 WABASH CIRCLE","SPARKS","NV",89434,39.5479134780001,-119.709084361,210,"2352 WABASH CIRCLE, SPARKS, NV, 89434","Match","Exact","2352 WABASH CIR, SPARKS, NV, 89434",107061000,"R"
385211,"2352 WALDEN SQUARE","SAN JOSE","CA",95124,37.279504908,-121.916622079,211,"2352 WALDEN SQUARE, SAN JOSE, CA, 95124","Match","Exact","2352 WALDEN SQ, SAN JOSE, CA, 95124",122906685,"L"
385212,"23520 110TH PLACE SE","KENT","WA",98031,47.3925896370001,-122.194273803,212,"23520 110TH PLACE SE, KENT, WA, 98031","Match","Exact","23520 110TH PL SE, KENT, WA, 98031",186635234,"L"
385213,"23520 BROKEN LANCE LANE","LIBERTY LAKE","WA",99019,NA,NA,213,"23520 BROKEN LANCE LANE, LIBERTY LAKE, WA, 99019","No_Match",NA,NA,NA,NA
385214,"23520 CALIFA STREET","WOODLAND HILLS","CA",91367,34.1773285400001,-118.639580128,214,"23520 CALIFA STREET, WOODLAND HILLS, CA, 91367","Match","Exact","23520 CALIFA ST, WOODLAND HILLS, CA, 91367",141723164,"L"
385215,"23520 EAST SHARP CT","LIBERTY LAKE","WA",99019,47.668956651,-117.0884733,215,"23520 EAST SHARP CT, LIBERTY LAKE, WA, 99019","Match","Exact","23520 E SHARP CT, LIBERTY LAKE, WA, 99019",189906329,"R"
385216,"23520 WELLINGTON AVE","DENHAM SPRINGS","LA",70726,30.413058409,-90.899200472,216,"23520 WELLINGTON AVE, DENHAM SPRINGS, LA, 70726","Match","Exact","23520 WELLINGTON AVE, DENHAM SPRINGS, LA, 70726",612915035,"L"
385217,"23521 DEZIEL ST","ST CLAIR SHORES","MI",48082,42.5377170830001,-82.874029445,217,"23521 DEZIEL ST, ST CLAIR SHORES, MI, 48082","Match","Exact","23521 DEZIEL ST, SAINT CLAIR SHORES, MI, 48082",110684095,"L"
385218,"23521 INDIAN DIVIDE COVE","SPICEWOOD","TX",78669,30.392384744,-98.082111219,218,"23521 INDIAN DIVIDE COVE, SPICEWOOD, TX, 78669","Match","Exact","23521 INDIAN DIVIDE COVE, SPICEWOOD, TX, 78669",63992461,"R"
385219,"23521 PARKLAWN ST","OAK PARK","MI",48237,42.4635921880001,-83.187574911,219,"23521 PARKLAWN ST, OAK PARK, MI, 48237","Match","Exact","23521 PARKLAWN ST, OAK PARK, MI, 48237",69741257,"L"
385220,"23521 VIA MURILLO","MISSION VIEJO","CA",92692,33.6226408260001,-117.642062765,220,"23521 VIA MURILLO, MISSION VIEJO, CA, 92692","Match","Exact","23521 VIA MURILLO, MISSION VIEJO, CA, 92692",144066745,"R"
385221,"23523 HIGH MEADOW ESTATES","MONTGOMERY","TX",77316,30.2791805740001,-95.717161645,221,"23523 HIGH MEADOW ESTATES, MONTGOMERY, TX, 77316","Match","Non_Exact","23523 HIGH MEADOW ESTATES DR, MONTGOMERY, TX, 77316",641117782,"L"
385222,"23523 TAMARACK ROAD","HOWARD CITY","MI",49329,NA,NA,222,"23523 TAMARACK ROAD, HOWARD CITY, MI, 49329","No_Match",NA,NA,NA,NA
385223,"23524 MAPLE ST","NEWHALL","CA",91321,34.3692941040001,-118.543055477,223,"23524 MAPLE ST, NEWHALL, CA, 91321","Match","Exact","23524 MAPLE ST, NEWHALL, CA, 91321",142711402,"R"
385224,"23524 STABLEWOOD CIRCLE","PASS CHRISTIAN","MS",39571,30.394591609,-89.236402845,224,"23524 STABLEWOOD CIRCLE, PASS CHRISTIAN, MS, 39571","Match","Exact","23524 STABLEWOOD CIR, PASS CHRISTIAN, MS, 39571",648392544,"R"
385225,"23525 BEAR CREEK RD","BEND","OR",97701,44.0512061970001,-121.146814751,225,"23525 BEAR CREEK RD, BEND, OR, 97701","Match","Exact","23525 BEAR CREEK RD, BEND, OR, 97701",152558466,"L"
385226,"23525 VALLEY VIEW DRIVE","SOUTHFIELD","MI",48033,42.465855946,-83.274032558,226,"23525 VALLEY VIEW DRIVE, SOUTHFIELD, MI, 48033","Match","Exact","23525 VALLEY VIEW DR, SOUTHFIELD, MI, 48033",69732581,"L"
385227,"23526 82ND AVE SE","WOODINVILLE","WA",98072,47.783083769,-122.12291179,227,"23526 82ND AVE SE, WOODINVILLE, WA, 98072","Match","Exact","23526 82ND AVE SE, WOODINVILLE, WA, 98072",608920778,"R"
385228,"23526 PUBLIC HOUSE ROAD","CLARKSBURG","MD",20871,39.2413913080001,-77.2778357509999,228,"23526 PUBLIC HOUSE ROAD, CLARKSBURG, MD, 20871","Match","Non_Exact","23526 PUB HOUSE RD, CLARKSBURG, MD, 20871",650644190,"L"
385229,"23526 TAYLOR VALLEY RD","DAMASCUS","VA",24236,36.6246533500001,-81.7171831599999,229,"23526 TAYLOR VALLEY RD, DAMASCUS, VA, 24236","Match","Exact","23526 TAYLOR VALLEY RD, DAMASCUS, VA, 24236",154356139,"R"
385230,"23527 STYLES STREET","WOODLAND HILLS","CA",91367,34.1839385230001,-118.639796111,230,"23527 STYLES STREET, WOODLAND HILLS, CA, 91367","Match","Exact","23527 STYLES ST, WOODLAND HILLS, CA, 91367",141723104,"R"
385231,"23527 SUMMERGLEN PLACE","VALENCIA","CA",91354,34.452409936,-118.547498186,231,"23527 SUMMERGLEN PLACE, VALENCIA, CA, 91354","Match","Exact","23527 SUMMERGLEN PL, VALENCIA, CA, 91354",142670836,"L"
385232,"23527 WESTWOOD RD","WESTLAKE","OH",44145,41.4497471220001,-81.880266784,232,"23527 WESTWOOD RD, WESTLAKE, OH, 44145","Match","Exact","23527 WESTWOOD RD, WESTLAKE, OH, 44145",647787628,"L"
385233,"23527 WICK RD","TAYLOR","MI",48180,42.2411070220001,-83.263874022,233,"23527 WICK RD, TAYLOR, MI, 48180","Match","Exact","23527 WICK RD, TAYLOR, MI, 48180",95437206,"L"
385234,"23527 WILLOW CREEK DR","TOMBALL","TX",77375,30.1021657750001,-95.550986461,234,"23527 WILLOW CREEK DR, TOMBALL, TX, 77375","Match","Exact","23527 WILLOW CREEK DR, TOMBALL, TX, 77375",96587804,"L"
385235,"23528 MADISON AVE","MURRIETA","CA",92562,33.5850599080001,-117.230674866,235,"23528 MADISON AVE, MURRIETA, CA, 92562","Match","Exact","23528 MADISON AVE, MURRIETA, CA, 92562",194846324,"R"
385236,"23528 SE 243RD PL","MAPLE VALLEY","WA",98038,47.383569677,-122.027718252,236,"23528 SE 243RD PL, MAPLE VALLEY, WA, 98038","Match","Exact","23528 SE 243RD PL, MAPLE VALLEY, WA, 98038",635621157,"L"
385237,"23529 101ST AVE N","PORT BYRON","IL",61275,41.622294115,-90.296088347,237,"23529 101ST AVE N, PORT BYRON, IL, 61275","Match","Exact","23529 101ST AVE N, PORT BYRON, IL, 61275",9218491,"L"
385238,"23529 E 28TH STREET","QUEEN CREEK","AZ",85142,NA,NA,238,"23529 E 28TH STREET, QUEEN CREEK, AZ, 85142","No_Match",NA,NA,NA,NA
385239,"2353 13TH ST DR NE","HICKORY","NC",28601,35.7613193280001,-81.3126171979999,239,"2353 13TH ST DR NE, HICKORY, NC, 28601","Match","Non_Exact","2353 13TH ST NE, HICKORY, NC, 28601",45920393,"L"
385240,"2353 19TH ST","SARASOTA","FL",34234,27.3537199620001,-82.523183466,240,"2353 19TH ST, SARASOTA, FL, 34234","Match","Exact","2353 19TH ST, SARASOTA, FL, 34234",16349814,"L"
385241,"2353 ANNAPOLIS ROAD","BALTIMORE","MD",21230,39.2623602100001,-76.634405171,241,"2353 ANNAPOLIS ROAD, BALTIMORE, MD, 21230","Match","Exact","2353 ANNAPOLIS RD, BALTIMORE, MD, 21230",206422260,"L"
385242,"2353 ARMOR DRIVE","DUNEDIN","FL",34698,28.0445997300001,-82.7668252,242,"2353 ARMOR DRIVE, DUNEDIN, FL, 34698","Match","Non_Exact","2353 ARMOUR DR, DUNEDIN, FL, 34698",124664978,"R"
385243,"2353 AVENUE M APT 17","HUNTSVILLE","TX",77340,30.706791385,-95.553646245,243,"2353 AVENUE M APT 17, HUNTSVILLE, TX, 77340","Match","Exact","2353 AVE M, HUNTSVILLE, TX, 77340",22220691,"R"
385244,"2353 BASCOM CORNER RD","RISING SUN","IN",47040,38.908863072,-84.9685158089999,244,"2353 BASCOM CORNER RD, RISING SUN, IN, 47040","Match","Exact","2353 BASCOM CORNER RD, RISING SUN, IN, 47040",76884379,"L"
385245,"2353 BOSTON ST","PHILADELPHIA","PA",19125,39.9790910070001,-75.124706944,245,"2353 BOSTON ST, PHILADELPHIA, PA, 19125","Match","Non_Exact","2353 E BOSTON ST, PHILADELPHIA, PA, 19125",131425443,"L"
385246,"2353 BROOKE WILLOW ROAD","KNOXILLE","TN",37932,35.938613004,-84.178145533,246,"2353 BROOKE WILLOW ROAD, KNOXILLE, TN, 37932","Match","Non_Exact","2353 BROOKE WILLOW BLVD, KNOXVILLE, TN, 37932",624432716,"L"
385247,"2353 COOPER ROAD","GRAHAM","NC",27253,36.028376103,-79.37533717,247,"2353 COOPER ROAD, GRAHAM, NC, 27253","Match","Exact","2353 COOPER RD, GRAHAM, NC, 27253",71672673,"R"
385248,"2353 CRESTLINE BLVD NW","OLYMPIA","WA",98502,47.067910145,-122.921395796,248,"2353 CRESTLINE BLVD NW, OLYMPIA, WA, 98502","Match","Exact","2353 CRESTLINE BLVD NW, OLYMPIA, WA, 98502",180980183,"L"
385249,"2353 CULBRETH ROAD","FAYETTEVILLE","NC",28301,34.9783240100001,-78.762119056,249,"2353 CULBRETH ROAD, FAYETTEVILLE, NC, 28301","Match","Non_Exact","2353 CULBRETH RD, FAYETTEVILLE, NC, 28312",64271376,"L"
385250,"2353 CULBRETH ROAD","FAYETTEVILLE","NC",28312,34.9783240100001,-78.762119056,250,"2353 CULBRETH ROAD, FAYETTEVILLE, NC, 28312","Match","Exact","2353 CULBRETH RD, FAYETTEVILLE, NC, 28312",64271376,"L"
385251,"2353 DEAN STREET","BROOKLYN","NY",11233,40.6746955470001,-73.9097886979999,251,"2353 DEAN STREET, BROOKLYN, NY, 11233","Match","Exact","2353 DEAN ST, BROOKLYN, NY, 11233",59083857,"L"
385252,"2353 E ELLENDALE AVE","DALLAS","OR",97338,44.928253011,-123.273056448,252,"2353 E ELLENDALE AVE, DALLAS, OR, 97338","Match","Exact","2353 E ELLENDALE AVE, DALLAS, OR, 97338",155771661,"L"
385253,"2353 E VALLEY ROAD","MONTECITO","CA",93108,NA,NA,253,"2353 E VALLEY ROAD, MONTECITO, CA, 93108","No_Match",NA,NA,NA,NA
385254,"2353 EASTERN CANAL","VENICE","CA",90291,33.9855846090001,-118.464237554,254,"2353 EASTERN CANAL, VENICE, CA, 90291","Match","Exact","2353 EASTERN CANAL, VENICE, CA, 90291",141576520,"R"
385255,"2353 EISENER DRIVE","JACKSONVILLE","FL",32218,30.443294919,-81.685006496,255,"2353 EISENER DRIVE, JACKSONVILLE, FL, 32218","Match","Non_Exact","2353 EISNER DR, JACKSONVILLE, FL, 32218",633762611,"R"
385256,"2353 FORDS FERRY ROAD","MARION","KY",42064,37.371412778,-88.074809791,256,"2353 FORDS FERRY ROAD, MARION, KY, 42064","Match","Exact","2353 FORDS FERRY RD, MARION, KY, 42064",11393840,"L"
385257,"2353 GRIMWOOD RD","TONEY","AL",35773,34.9022462930001,-86.663643397,257,"2353 GRIMWOOD RD, TONEY, AL, 35773","Match","Exact","2353 GRIMWOOD RD, TONEY, AL, 35773",58202019,"L"
385258,"2353 KERR DR","VIRGINIA BEACH","VA",23545,36.7602177850001,-75.99341882,258,"2353 KERR DR, VIRGINIA BEACH, VA, 23545","Match","Non_Exact","2353 KERR DR, VIRGINIA BCH, VA, 23454",122287898,"R"
385259,"2353 KINOOLE","HILO","HI",96720,19.68015552,-155.068733388,259,"2353 KINOOLE, HILO, HI, 96720","Match","Non_Exact","2353 KINOOLE ST, HILO, HI, 96720",614315720,"R"
385260,"2353 LANGDALE AVE","LOS ANGELES","CA",90041,34.130162704,-118.218006169,260,"2353 LANGDALE AVE, LOS ANGELES, CA, 90041","Match","Exact","2353 LANGDALE AVE, LOS ANGELES, CA, 90041",624107831,"R"
385261,"2353 LITTLE FEATHER AVENUE","SIMI VALLEY","CA",93063,NA,NA,261,"2353 LITTLE FEATHER AVENUE, SIMI VALLEY, CA, 93063","No_Match",NA,NA,NA,NA
385262,"2353 LONE OAK LANE","VISTA","CA",92084,33.1813993650001,-117.196768443,262,"2353 LONE OAK LANE, VISTA, CA, 92084","Match","Exact","2353 LONE OAK LN, VISTA, CA, 92084",195376003,"R"
385263,"2353 LOTAFUN AVE","WINTER PARK","FL",32798,NA,NA,263,"2353 LOTAFUN AVE, WINTER PARK, FL, 32798","No_Match",NA,NA,NA,NA
385264,"2353 MCCAULEY COURT","COLUMBUS","OH",43220,40.0642264520001,-83.080199545,264,"2353 MCCAULEY COURT, COLUMBUS, OH, 43220","Match","Exact","2353 MCCAULEY CT, COLUMBUS, OH, 43220",218698695,"R"
385265,"2353 MISSION ROAD","TALLAHASSEE","FL",32304,30.4527826140001,-84.324789304,265,"2353 MISSION ROAD, TALLAHASSEE, FL, 32304","Match","Exact","2353 MISSION RD, TALLAHASSEE, FL, 32304",82883728,"L"
385266,"2353 MOSLEY ST","WAYNESBORO","VA",22980,38.0812580950001,-78.905664744,266,"2353 MOSLEY ST, WAYNESBORO, VA, 22980","Match","Exact","2353 MOSLEY ST, WAYNESBORO, VA, 22980",98870635,"L"
385267,"2353 MULUNDY WAY","LEXINGTON","KY",40511,38.0962384420001,-84.526212723,267,"2353 MULUNDY WAY, LEXINGTON, KY, 40511","Match","Exact","2353 MULUNDY WAY, LEXINGTON, KY, 40511",618016119,"R"
385268,"2353 MURPHY RD","ARANSAS PASS","TX",78336,27.95777517,-97.144188137,268,"2353 MURPHY RD, ARANSAS PASS, TX, 78336","Match","Exact","2353 MURPHY RD, ARANSAS PASS, TX, 78336",83259175,"L"
385269,"2353 N 2ND AVE","UPLAND","CA",91784,34.148997223,-117.647960098,269,"2353 N 2ND AVE, UPLAND, CA, 91784","Match","Exact","2353 N 2ND AVE, UPLAND, CA, 91784",144674306,"L"
385270,"2353 N FIELD ST APT 331","DALLAS","TX",75201,32.788877444,-96.806956842,270,"2353 N FIELD ST APT 331, DALLAS, TX, 75201","Match","Non_Exact","2353 N FIELD ST, DALLAS, TX, 75201",103228635,"L"
385271,"2353 N FIELD STREET SUITE 816","DALLAS","TX",75201,32.788877444,-96.806956842,271,"2353 N FIELD STREET SUITE 816, DALLAS, TX, 75201","Match","Non_Exact","2353 N FIELD ST, DALLAS, TX, 75201",103228635,"L"
385272,"2353 NORTHERN OAK DRIVE","BRASELTON","GA",30517,34.1088261290001,-83.847542641,272,"2353 NORTHERN OAK DRIVE, BRASELTON, GA, 30517","Match","Exact","2353 NORTHERN OAK DR, BRASELTON, GA, 30517",653492945,"L"
385273,"2353 OREGON ST","NORTH BEND","OR",97459,43.400479058,-124.2448562,273,"2353 OREGON ST, NORTH BEND, OR, 97459","Match","Non_Exact","2353 OREGON AVE, NORTH BEND, OR, 97459",136984909,"R"
385274,"2353 PARK AVE APT 3","CINCINNATI","OH",45206,39.1244203960001,-84.486361403,274,"2353 PARK AVE APT 3, CINCINNATI, OH, 45206","Match","Exact","2353 PARK AVE, CINCINNATI, OH, 45206",103926443,"L"
385275,"2353 RAINY LAKE ST","WAKE FOREST","NC",27587,35.9087187000001,-78.509420169,275,"2353 RAINY LAKE ST, WAKE FOREST, NC, 27587","Match","Exact","2353 RAINY LAKE ST, WAKE FOREST, NC, 27587",612816674,"L"
385276,"2353 RICE BLVD","HOUSTON","TX",77005,29.7174689930001,-95.41378381,276,"2353 RICE BLVD, HOUSTON, TX, 77005","Match","Exact","2353 RICE BLVD, HOUSTON, TX, 77005",96063842,"L"
385277,"2353 SCHOOL AVE","MEMPHIS","TN",38112,NA,NA,277,"2353 SCHOOL AVE, MEMPHIS, TN, 38112","No_Match",NA,NA,NA,NA
385278,"2353 SIDDENS ROAD","GLASGOW","KY",42141,36.961631686,-86.013170718,278,"2353 SIDDENS ROAD, GLASGOW, KY, 42141","Match","Exact","2353 SIDDENS RD, GLASGOW, KY, 42141",29539430,"L"
385279,"2353 SOUTH 39TH STREET","ST. LOUIS","MO",63110,38.6085685030001,-90.246343611,279,"2353 SOUTH 39TH STREET, ST. LOUIS, MO, 63110","Match","Exact","2353 S 39TH ST, SAINT LOUIS, MO, 63110",605123663,"R"
385280,"2353 SOUTH WOLFSNARE CT","VIRGINIA BEACH","VA",23454,NA,NA,280,"2353 SOUTH WOLFSNARE CT, VIRGINIA BEACH, VA, 23454","Tie",NA,NA,NA,NA
385281,"2353 STEWART RD","RINGGOLD","GA",30736,34.9487311950001,-84.9987745989999,281,"2353 STEWART RD, RINGGOLD, GA, 30736","Match","Exact","2353 STEWART RD, RINGGOLD, GA, 30736",66703087,"R"
385282,"2353 W GRAND BLVD","DETROIT","MI",48208,42.3609872230001,-83.0985537829999,282,"2353 W GRAND BLVD, DETROIT, MI, 48208","Match","Exact","2353 W GRAND BLVD, DETROIT, MI, 48208",95740513,"L"
385283,"2353 W JACKSON BLVD","CHICAGO","IL",60612,41.8775544710001,-87.685635469,283,"2353 W JACKSON BLVD, CHICAGO, IL, 60612","Match","Exact","2353 W JACKSON BLVD, CHICAGO, IL, 60612",605089802,"L"
385284,"2353 WEST DELHI","ANN ARBOR","MI",48103,42.3147530790001,-83.820199319,284,"2353 WEST DELHI, ANN ARBOR, MI, 48103","Match","Non_Exact","2353 W DELHI RD, ANN ARBOR, MI, 48103",650937625,"L"
385285,"2353 WEST GRAND BOULEVARD","DETROIT","MI",48208,42.3609775940001,-83.098579889,285,"2353 WEST GRAND BOULEVARD, DETROIT, MI, 48208","Match","Exact","2353 W GRAND BLVD, DETROIT, MI, 48208",95740513,"L"
385286,"2353 YOUNGMAN AVENUE","ST. PAUL","MN",55116,44.9007407510001,-93.163028336,286,"2353 YOUNGMAN AVENUE, ST. PAUL, MN, 55116","Match","Non_Exact","2353 W YOUNGMAN AVE, SAINT PAUL, MN, 55116",97647422,"R"
385287,"23530 SHADY LANE","FORT BRAGG","CA",95437,39.4811944460001,-123.779054523,287,"23530 SHADY LANE, FORT BRAGG, CA, 95437","Match","Exact","23530 SHADY LN, FORT BRAGG, CA, 95437",67257156,"L"
385288,"23530 VICTORY BLVD","WOODLAND HILLS","CA",91367,34.1865317090001,-118.639659154,288,"23530 VICTORY BLVD, WOODLAND HILLS, CA, 91367","Match","Exact","23530 VICTORY BLVD, WOODLAND HILLS, CA, 91367",642867416,"L"
385289,"23531 MEADOWLARK ST","OAK PARK","MI",48237,42.46430408,-83.15996846,289,"23531 MEADOWLARK ST, OAK PARK, MI, 48237","Match","Exact","23531 MEADOWLARK ST, OAK PARK, MI, 48237",69742270,"L"
385290,"23531 SUNSET VW","SORRENTO","FL",32776,28.7996308080001,-81.562920885,290,"23531 SUNSET VW, SORRENTO, FL, 32776","Match","Exact","23531 SUNSET VW, SORRENTO, FL, 32776",94151084,"R"
385291,"23531 V ROAD","HOLTON","KS",66436,39.4702256910001,-95.644953974,291,"23531 V ROAD, HOLTON, KS, 66436","Match","Exact","23531 V RD, HOLTON, KS, 66436",10121323,"L"
385292,"23531 WILDWOOD","OAK PARK","MI",48237,42.4637223880001,-83.195588271,292,"23531 WILDWOOD, OAK PARK, MI, 48237","Match","Non_Exact","23531 WILDWOOD ST, OAK PARK, MI, 48237",69778698,"L"
385293,"23533 US HWY 322","COCHRANTON","PA",16314,41.54481944,-80.0907167029999,293,"23533 US HWY 322, COCHRANTON, PA, 16314","Match","Exact","23533 US HWY 322, COCHRANTON, PA, 16314",98593549,"L"
385294,"23534 RANCH ROAD","BEACHWOOD","OH",44122,41.490892488,-81.513316269,294,"23534 RANCH ROAD, BEACHWOOD, OH, 44122","Match","Exact","23534 RANCH RD, BEACHWOOD, OH, 44122",61126087,"R"
385295,"23535 OAKSIDE BLVD","LUTZ","FL",33559,28.1808160690001,-82.427147653,295,"23535 OAKSIDE BLVD, LUTZ, FL, 33559","Match","Exact","23535 OAKSIDE BLVD, LUTZ, FL, 33559",86376547,"R"
385296,"23535 PALOMINO DR 197","DIAMOND BAR","CA",91765,34.0230994780001,-117.809055195,296,"23535 PALOMINO DR 197, DIAMOND BAR, CA, 91765","Match","Exact","23535 PALOMINO DR, DIAMOND BAR, CA, 91765",141730437,"L"
385297,"23535 PALOMINO DR STE 258","DIAMOND BAR","CA",91765,34.0230994780001,-117.809055195,297,"23535 PALOMINO DR STE 258, DIAMOND BAR, CA, 91765","Match","Exact","23535 PALOMINO DR, DIAMOND BAR, CA, 91765",141730437,"L"
385298,"23535 SILVERWOOD ST","MURRIETA","CA",92562,33.565648433,-117.248402311,298,"23535 SILVERWOOD ST, MURRIETA, CA, 92562","Match","Exact","23535 SILVERWOOD ST, MURRIETA, CA, 92562",195088394,"R"
385299,"23537 69TH AVE","CADOTT","WI",54727,44.9439572860001,-91.194962427,299,"23537 69TH AVE, CADOTT, WI, 54727","Match","Exact","23537 69TH AVE, CADOTT, WI, 54727",78921873,"L"
385300,"23539 BAYLEAF DR","SPRING","TX",77373,30.050305576,-95.397120037,300,"23539 BAYLEAF DR, SPRING, TX, 77373","Match","Exact","23539 BAYLEAF DR, SPRING, TX, 77373",96042241,"L"
385301,"23539 CR 150","TINA","MO",64682,39.542939291,-93.503395744,301,"23539 CR 150, TINA, MO, 64682","Match","Exact","23539 CR 150, TINA, MO, 64682",20820090,"R"
385302,"23539 FISHMARKET RD","TECUMSEH","OK",74873,35.2237860990001,-97.124084726,302,"23539 FISHMARKET RD, TECUMSEH, OK, 74873","Match","Exact","23539 FISHMARKET RD, TECUMSEH, OK, 74873",650750008,"L"
385303,"23539 KING","CLINTON TOWNSHIP","MI",48035,42.563111431,-82.877351178,303,"23539 KING, CLINTON TOWNSHIP, MI, 48035","Match","Non_Exact","23539 KING DR, CLINTON TOWNSHIP, MI, 48035",110700504,"L"
385304,"23539 W MANOR DR","GENOA","OH",43430,NA,NA,304,"23539 W MANOR DR, GENOA, OH, 43430","No_Match",NA,NA,NA,NA
385305,"2354 248TH ST","LOMITA","CA",90717,33.799691475,-118.324115438,305,"2354 248TH ST, LOMITA, CA, 90717","Match","Non_Exact","2354 W 248TH ST, LOMITA, CA, 90717",141666285,"L"
385306,"2354 51ST AVE","SACRAMENTO","CA",95822,38.505921942,-121.484696749,306,"2354 51ST AVE, SACRAMENTO, CA, 95822","Match","Exact","2354 51ST AVE, SACRAMENTO, CA, 95822",133326662,"R"
385307,"2354 BRANDINI DR","DUBLIN","CA",94568,37.7231711540001,-121.847308484,307,"2354 BRANDINI DR, DUBLIN, CA, 94568","Match","Exact","2354 BRANDINI DR, DUBLIN, CA, 94568",640791253,"L"
385308,"2354 BYRNES DR","COLUMBIA","SC",29229,34.02213018,-81.003564458,308,"2354 BYRNES DR, COLUMBIA, SC, 29229","Match","Non_Exact","2354 BYRNES DR, COLUMBIA, SC, 29204",71821433,"R"
385309,"2354 CHEYENNE BLVD APT 9","TOLEDO","OH",43614,41.597124787,-83.668547191,309,"2354 CHEYENNE BLVD APT 9, TOLEDO, OH, 43614","Match","Non_Exact","2354 CHEYNNE BLVD, TOLEDO, OH, 43614",33952563,"L"
385310,"2354 COMBINE STREET","EAST WENATCHEE","WA",98802,47.4443797070001,-120.266148785,310,"2354 COMBINE STREET, EAST WENATCHEE, WA, 98802","Match","Exact","2354 COMBINE ST, EAST WENATCHEE, WA, 98802",628963554,"L"
385311,"2354 ELLINGTON RD","SOUTH WINDSOR","CT",6074,41.8398466530001,-72.534932022,311,"2354 ELLINGTON RD, SOUTH WINDSOR, CT, 6074","Match","Exact","2354 ELLINGTON RD, SOUTH WINDSOR, CT, 06074",3520922,"L"
385312,"2354 FAIRWAY","HIGH RIDGE","MO",63049,38.467966389,-90.514508905,312,"2354 FAIRWAY, HIGH RIDGE, MO, 63049","Match","Exact","2354 FAIRWAY, HIGH RIDGE, MO, 63049",62808394,"L"
385313,"2354 FISHER DR","LOGANVILLE","GA",30052,33.863533551,-83.85309674,313,"2354 FISHER DR, LOGANVILLE, GA, 30052","Match","Exact","2354 FISHER DR, LOGANVILLE, GA, 30052",77621758,"R"
385314,"2354 GREEN FORREST DRIVE","DECATUR","GA",30032,33.721686119,-84.26134143,314,"2354 GREEN FORREST DRIVE, DECATUR, GA, 30032","Match","Exact","2354 GREEN FORREST DR, DECATUR, GA, 30032",23370644,"L"
385315,"2354 GREEN ST","WASHINGTON","DC",20020,38.861671976,-76.981420477,315,"2354 GREEN ST, WASHINGTON, DC, 20020","Match","Non_Exact","2354 GREEN ST SE, WASHINGTON, DC, 20020",76231223,"L"
385316,"2354 GROVE AVE UNIT 30","SAN DIEGO","CA",92154,32.572814797,-117.082264,316,"2354 GROVE AVE UNIT 30, SAN DIEGO, CA, 92154","Match","Exact","2354 GROVE AVE, SAN DIEGO, CA, 92154",195686133,"L"
385317,"2354 HARRISON AVENUE","BALDWIN","NY",11510,40.653230466,-73.608588232,317,"2354 HARRISON AVENUE, BALDWIN, NY, 11510","Match","Exact","2354 HARRISON AVE, BALDWIN, NY, 11510",147630151,"R"
385318,"2354 JOHNSON MILL RD PO BOX 851","NORTH BRANCH","MI",48461,43.1917865200001,-83.260241284,318,"2354 JOHNSON MILL RD PO BOX 851, NORTH BRANCH, MI, 48461","Match","Exact","2354 JOHNSON MILL RD, NORTH BRANCH, MI, 48461",110468642,"R"
385319,"2354 KENYA","THE VILLAGES","FL",32162,28.8765173800001,-81.968736069,319,"2354 KENYA, THE VILLAGES, FL, 32162","Match","Non_Exact","2354 KENYA ST, THE VILLAGES, FL, 32162",627457905,"R"
385320,"2354 KIMBERLY CT","CARLSBAD","CA",92008,33.1707617380001,-117.324734841,320,"2354 KIMBERLY CT, CARLSBAD, CA, 92008","Match","Exact","2354 KIMBERLY CT, CARLSBAD, CA, 92008",195425192,"L"
385321,"2354 MASSEY LANE","DECATUR","GA",30033,33.829836791,-84.292151513,321,"2354 MASSEY LANE, DECATUR, GA, 30033","Match","Exact","2354 MASSEY LN, DECATUR, GA, 30033",23394534,"R"
385322,"2354 N WILMINGTON AVENUE","COMPTON","CA",90222,33.913744222,-118.239061093,322,"2354 N WILMINGTON AVENUE, COMPTON, CA, 90222","Match","Exact","2354 N WILMINGTON AVE, COMPTON, CA, 90222",141674757,"R"
385323,"2354 NE HOTSPUR LANE","LINCOLN CITY","OR",97367,NA,NA,323,"2354 NE HOTSPUR LANE, LINCOLN CITY, OR, 97367","No_Match",NA,NA,NA,NA
385324,"2354 NORTH VERITY PARKWAY","MIDDLETOWN","OH",45042,39.526692806,-84.3834253919999,324,"2354 NORTH VERITY PARKWAY, MIDDLETOWN, OH, 45042","Match","Exact","2354 N VERITY PKWY, MIDDLETOWN, OH, 45042",604762342,"R"
385325,"2354 OHIO AVE","CINCINNATI","OH",45219,39.1250172220001,-84.5160835679999,325,"2354 OHIO AVE, CINCINNATI, OH, 45219","Match","Exact","2354 OHIO AVE, CINCINNATI, OH, 45219",103925056,"R"
385326,"2354 OHIO AVENUE","CINCINNATI","OH",45219,39.1250172220001,-84.5160835679999,326,"2354 OHIO AVENUE, CINCINNATI, OH, 45219","Match","Exact","2354 OHIO AVE, CINCINNATI, OH, 45219",103925056,"R"
385327,"2354 OKALINA AVNUE","WINSTON-SALEM","NC",27105,36.11900547,-80.2429435179999,327,"2354 OKALINA AVNUE, WINSTON-SALEM, NC, 27105","Match","Exact","2354 OKALINA AVE, WINSTON SALEM, NC, 27105",84609258,"L"
385328,"2354 PIONEER RD","CHIPLEY","FL",32428,30.631332324,-85.602134695,328,"2354 PIONEER RD, CHIPLEY, FL, 32428","Match","Exact","2354 PIONEER RD, CHIPLEY, FL, 32428",647508395,"L"
385329,"2354 RANA ROAD","GRAND JUNCTION","CO",81507,39.064363772,-108.61484809,329,"2354 RANA ROAD, GRAND JUNCTION, CO, 81507","Match","Exact","2354 RANA RD, GRAND JCT, CO, 81507",611649671,"R"
385330,"2354 ROBERTS LN","FLORENCE","AL",35630,34.8343730930001,-87.689893005,330,"2354 ROBERTS LN, FLORENCE, AL, 35630","Match","Exact","2354 ROBERTS LN, FLORENCE, AL, 35630",609089615,"L"
385331,"2354 S STATE STREET","WEST JORDAN","UT",84115,40.7195591440001,-111.888235803,331,"2354 S STATE STREET, WEST JORDAN, UT, 84115","Match","Non_Exact","2354 S STATE ST, S SALT LAKE, UT, 84115",176078551,"R"
385332,"2354 SEAMIST CIRCLE","SEABROOK","TX",77586,29.584837066,-95.030948963,332,"2354 SEAMIST CIRCLE, SEABROOK, TX, 77586","Match","Exact","2354 SEAMIST CIR, SEABROOK, TX, 77586",96550971,"L"
385333,"2354 SEQUOIA GROVE ST","WALDORF","MD",20601,38.647565349,-76.91546676,333,"2354 SEQUOIA GROVE ST, WALDORF, MD, 20601","Match","Exact","2354 SEQUOIA GROVE ST, WALDORF, MD, 20601",635832934,"L"
385334,"2354 SHADOWOOD DRIVE","CONYERS","GA",30094,33.642093748,-84.065903062,334,"2354 SHADOWOOD DRIVE, CONYERS, GA, 30094","Match","Non_Exact","2354 SHADOWOOD DR SW, CONYERS, GA, 30094",23740409,"L"
385335,"2354 SHROPSHIRE DRIVE","STOCKTON","CA",95209,38.033195527,-121.341851778,335,"2354 SHROPSHIRE DRIVE, STOCKTON, CA, 95209","Match","Exact","2354 SHROPSHIRE DR, STOCKTON, CA, 95209",133875294,"R"
385336,"2354 THROUGHDRED AVE","AKRON","OH",44281,NA,NA,336,"2354 THROUGHDRED AVE, AKRON, OH, 44281","No_Match",NA,NA,NA,NA
385337,"2354 W RIVERSIDE ST","CHANDLER","AZ",85248,33.2575491420001,-111.879254751,337,"2354 W RIVERSIDE ST, CHANDLER, AZ, 85248","Match","Exact","2354 W RIVERSIDE ST, CHANDLER, AZ, 85248",646719899,"L"
385338,"2354 WEST CREEK DRIVE","FRISCO","TX",75033,33.1645327310001,-96.870326839,338,"2354 WEST CREEK DRIVE, FRISCO, TX, 75033","Match","Exact","2354 W CREEK DR, FRISCO, TX, 75033",103418539,"R"
385339,"2354 WESTMINSTER DR","MODESTO","CA",95355,37.655248516,-120.953721331,339,"2354 WESTMINSTER DR, MODESTO, CA, 95355","Match","Exact","2354 WESTMINSTER DR, MODESTO, CA, 95355",102606599,"R"
385340,"23540 DAVID DR C114","NORTH OLMSTED","OH",44070,41.4299689860001,-81.882322094,340,"23540 DAVID DR C114, NORTH OLMSTED, OH, 44070","Match","Exact","23540 DAVID DR, NORTH OLMSTED, OH, 44070",61139510,"R"
385341,"23540 GARDNER","OAK PARK","MI",48237,42.4644102830001,-83.189658723,341,"23540 GARDNER, OAK PARK, MI, 48237","Match","Non_Exact","23540 GARDNER ST, OAK PARK, MI, 48237",69741254,"R"
385342,"23540 SENECA","OAK PARK","MI",48237,42.464219175,-83.168478248,342,"23540 SENECA, OAK PARK, MI, 48237","Match","Non_Exact","23540 SENECA ST, OAK PARK, MI, 48237",69742080,"R"
385343,"23540 WILEY CANYON RD APT 112","VALENCIA","CA",91355,34.3911877240001,-118.546041489,343,"23540 WILEY CANYON RD APT 112, VALENCIA, CA, 91355","Match","Exact","23540 WILEY CANYON RD, VALENCIA, CA, 91355",142828473,"R"
385344,"23541 27TH PL W","BRIER","WA",98036,47.784813824,-122.268675017,344,"23541 27TH PL W, BRIER, WA, 98036","Match","Exact","23541 27TH PL W, BRIER, WA, 98036",187757682,"R"
385345,"23541 OLD WAGON ROAD","ESCONDIDO","CA",92027,33.1428456510001,-116.98038584,345,"23541 OLD WAGON ROAD, ESCONDIDO, CA, 92027","Match","Exact","23541 OLD WAGON RD, ESCONDIDO, CA, 92027",645489807,"L"
385346,"23545 CRENSHAW BLVD STE 102A","TORRANCE","CA",90505,33.812397155,-118.328034895,346,"23545 CRENSHAW BLVD STE 102A, TORRANCE, CA, 90505","Match","Exact","23545 CRENSHAW BLVD, TORRANCE, CA, 90505",141666204,"R"
385347,"23545 CRENSHAW BLVD","TORRANCE","CA",90505,33.812397155,-118.328034895,347,"23545 CRENSHAW BLVD, TORRANCE, CA, 90505","Match","Exact","23545 CRENSHAW BLVD, TORRANCE, CA, 90505",141666204,"R"
385348,"23545 NW SKYLINE BLVD","NORTH PLAINS","OR",97133,45.691096707,-122.913944312,348,"23545 NW SKYLINE BLVD, NORTH PLAINS, OR, 97133","Match","Exact","23545 NW SKYLINE BLVD, NORTH PLAINS, OR, 97133",642878785,"L"
385349,"23545 VICTORY BLVD - 26","WEST HILLS","CA",91307,34.186577465,-118.640821364,349,"23545 VICTORY BLVD - 26, WEST HILLS, CA, 91307","Match","Exact","23545 VICTORY BLVD, WEST HILLS, CA, 91307",141723092,"R"
385350,"23546 CHEYENNE CANYON RD","CANYON LAKE","CA",92587,33.694698384,-117.24840456,350,"23546 CHEYENNE CANYON RD, CANYON LAKE, CA, 92587","Match","Non_Exact","23546 CHEYENNE CANYON DR, CANYON LAKE, CA, 92587",608995076,"L"
385351,"23546 FOREST HAVEN WAY","CLACKSBURG","MD",20871,39.241990592,-77.268551373,351,"23546 FOREST HAVEN WAY, CLACKSBURG, MD, 20871","Match","Non_Exact","23546 FOREST HAVEN WAY, CLARKSBURG, MD, 20871",640168197,"L"
385352,"23546 FOREST HAVEN WAY","CLACKSBURG","MD",20874,NA,NA,352,"23546 FOREST HAVEN WAY, CLACKSBURG, MD, 20874","No_Match",NA,NA,NA,NA
385353,"23546 FOREST HAVEN WAY","CLARKSBURG","MD",20871,39.241990592,-77.268551373,353,"23546 FOREST HAVEN WAY, CLARKSBURG, MD, 20871","Match","Exact","23546 FOREST HAVEN WAY, CLARKSBURG, MD, 20871",640168197,"L"
385354,"23546 SILVERHAWK PL","VALENCIA","CA",91354,34.450233139,-118.547956663,354,"23546 SILVERHAWK PL, VALENCIA, CA, 91354","Match","Exact","23546 SILVERHAWK PL, VALENCIA, CA, 91354",141855391,"L"
385355,"23547 N MEADOW LANE","BARRINGTON","IL",60010,42.205737669,-88.1871275,355,"23547 N MEADOW LANE, BARRINGTON, IL, 60010","Match","Exact","23547 N MEADOW LN, BARRINGTON, IL, 60010",119630807,"L"
385356,"23547 QUAIL HOLLOW","WESTLAKE","OH",44145,41.4521739990001,-81.8817900889999,356,"23547 QUAIL HOLLOW, WESTLAKE, OH, 44145","Match","Exact","23547 QUAIL HOLLOW, WESTLAKE, OH, 44145",61147044,"R"
385357,"23548 CALABASAS ROAD 206 E","CALABASAS","CA",91302,34.155681632,-118.643450426,357,"23548 CALABASAS ROAD 206 E, CALABASAS, CA, 91302","Match","Exact","23548 CALABASAS RD, CALABASAS, CA, 91302",142046241,"R"
385358,"23548 W MOON SHADOWS DR","MALIBU","CA",NA,NA,NA,358,"23548 W MOON SHADOWS DR, MALIBU, CA, ","No_Match",NA,NA,NA,NA
385359,"23549 WAGNER LANE","LAWRENCEBURG","IN",47025,39.2118408440001,-84.847379689,359,"23549 WAGNER LANE, LAWRENCEBURG, IN, 47025","Match","Exact","23549 WAGNER LN, LAWRENCEBURG, IN, 47025",224036373,"R"
385360,"2354B MINOR AVE E","SEATTLE","WA",98102,47.640432821,-122.328346248,360,"2354B MINOR AVE E, SEATTLE, WA, 98102","Match","Exact","2354 MINOR AVE E, SEATTLE, WA, 98102",186583460,"R"
385361,"2355 14TH AVE N","ST PETERSBURG","FL",33713,27.785609692,-82.6646381369999,361,"2355 14TH AVE N, ST PETERSBURG, FL, 33713","Match","Exact","2355 14TH AVE N, SAINT PETERSBURG, FL, 33713",124705223,"R"
385362,"2355 16TH AVENUE","VERO BEACH","FL",32960,27.6429911750001,-80.401318827,362,"2355 16TH AVENUE, VERO BEACH, FL, 32960","Match","Exact","2355 16TH AVE, VERO BEACH, FL, 32960",610946770,"L"
385363,"2355 255TH","DEWITT","IA",52742,41.8074704680001,-90.6323374679999,363,"2355 255TH, DEWITT, IA, 52742","Match","Non_Exact","2355 255TH ST, DE WITT, IA, 52742",16804347,"L"
385364,"2355 27TH ST-2","ASTORIA","NY",11105,40.7749159530001,-73.916583362,364,"2355 27TH ST-2, ASTORIA, NY, 11105","Match","Non_Exact","2355 27TH ST, ASTORIA, NY, 11105",652213328,"L"
385365,"2355 A OAHU AVENUE","HONOLULU","HI",96822,21.3055386450001,-157.819179997,365,"2355 A OAHU AVENUE, HONOLULU, HI, 96822","Match","Exact","2355 OAHU AVE, HONOLULU, HI, 96822",639061064,"R"
385366,"2355 ABBEYVILLE RD","VALLEY CITY","OH",44280,41.2099490800001,-81.8965946979999,366,"2355 ABBEYVILLE RD, VALLEY CITY, OH, 44280","Match","Exact","2355 ABBEYVILLE RD, VALLEY CITY, OH, 44280",58678202,"L"
385367,"2355 ALAMANCE DR","AMISSVILLE","VA",20106,38.6670183320001,-77.94549187,367,"2355 ALAMANCE DR, AMISSVILLE, VA, 20106","Match","Exact","2355 ALAMANCE DR, AMISSVILLE, VA, 20106",29856785,"R"
385368,"2355 ANAMANDA CLOSE","NORCROSS","GA",30071,33.9283450880001,-84.2029113739999,368,"2355 ANAMANDA CLOSE, NORCROSS, GA, 30071","Match","Exact","2355 ANAMANDA CLOSE, NORCROSS, GA, 30071",88929951,"R"
385369,"2355 AUSTIN HWY APT 715","SAN ANTONIO","TX",78218,29.508280245,-98.410528794,369,"2355 AUSTIN HWY APT 715, SAN ANTONIO, TX, 78218","Match","Exact","2355 AUSTIN HWY, SAN ANTONIO, TX, 78218",101546646,"L"
385370,"2355 BIRDEI STREET","OCEANSIDE","CA",92056,33.1883183730001,-117.312772315,370,"2355 BIRDEI STREET, OCEANSIDE, CA, 92056","Match","Non_Exact","2355 BIRDIE ST, OCEANSIDE, CA, 92056",195380297,"L"
385371,"2355 BIRDEI STREET","VISTA","CA",92083,NA,NA,371,"2355 BIRDEI STREET, VISTA, CA, 92083","No_Match",NA,NA,NA,NA
385372,"2355 BOULDER CLIFF WAY","ATLANTA","GA",30316,33.7192823010001,-84.32010179,372,"2355 BOULDER CLIFF WAY, ATLANTA, GA, 30316","Match","Non_Exact","2355 BOULDERCLIFF WAY, ATLANTA, GA, 30316",637248975,"R"
385373,"2355 BRAVENDER RD","WILLIAMSTON","MI",48895,42.6572359690001,-84.29649934,373,"2355 BRAVENDER RD, WILLIAMSTON, MI, 48895","Match","Exact","2355 BRAVENDER RD, WILLIAMSTON, MI, 48895",17507442,"R"
385374,"2355 CENTER RD","NOVATO","CA",94947,38.111859661,-122.610217028,374,"2355 CENTER RD, NOVATO, CA, 94947","Match","Exact","2355 CENTER RD, NOVATO, CA, 94947",192756935,"L"
385375,"2355 CENTERVILLE RD 12371","TALLAHASSEE","FL",32308,30.4808320610001,-84.232516314,375,"2355 CENTERVILLE RD 12371, TALLAHASSEE, FL, 32308","Match","Exact","2355 CENTERVILLE RD, TALLAHASSEE, FL, 32308",82863452,"R"
385376,"2355 CHALYBEATE RD","BEDFORD","PA",15522,40.0718242840001,-78.499330357,376,"2355 CHALYBEATE RD, BEDFORD, PA, 15522","Match","Exact","2355 CHALYBEATE RD, BEDFORD, PA, 15522",50167031,"L"
385377,"2355 CHARLIE BROOKS ROAD","MONCURE","NC",27559,35.6765029650001,-79.1476186309999,377,"2355 CHARLIE BROOKS ROAD, MONCURE, NC, 27559","Match","Exact","2355 CHARLIE BROOKS RD, MONCURE, NC, 27559",71381549,"L"
385378,"2355 COMPTON PLACE","SUWANEE","GA",30024,34.0094231910001,-84.048101549,378,"2355 COMPTON PLACE, SUWANEE, GA, 30024","Match","Non_Exact","2355 COMPTON PL NW, SUWANEE, GA, 30024",88920420,"L"
385379,"2355 COUNTY ROAD 55","CENTRE","AL",35960,34.1037804170001,-85.698992221,379,"2355 COUNTY ROAD 55, CENTRE, AL, 35960","Match","Exact","2355 CO RD 55, CENTRE, AL, 35960",30236205,"L"
385380,"2355 CR 226","FLORENCE","TX",76527,30.851205543,-97.820751079,380,"2355 CR 226, FLORENCE, TX, 76527","Match","Exact","2355 CO RD 226, FLORENCE, TX, 76527",641270722,"L"
385381,"2355 CRANE AVENUE","WESLEY","IA",50483,43.105125543,-93.930900328,381,"2355 CRANE AVENUE, WESLEY, IA, 50483","Match","Exact","2355 CRANE AVE, WESLEY, IA, 50483",7403619,"L"
385382,"2355 DANNY LN","FARMERS BRANCH","TX",75234,NA,NA,382,"2355 DANNY LN, FARMERS BRANCH, TX, 75234","No_Match",NA,NA,NA,NA
385383,"2355 DIAMOND D DR","BEAUMONT","TX",77713,30.053881372,-94.2835999339999,383,"2355 DIAMOND D DR, BEAUMONT, TX, 77713","Match","Exact","2355 DIAMOND D DR, BEAUMONT, TX, 77713",624753031,"L"
385384,"2355 DIVISION AVE S","GRAND RAPDIS","MI",49507,42.921273037,-85.666386642,384,"2355 DIVISION AVE S, GRAND RAPDIS, MI, 49507","Match","Non_Exact","2355 DIVISION AVE S, GRAND RAPIDS, MI, 49507",12459475,"R"
385385,"2355 DUNWOODY CROSSING APARTMENT C","ATLANTA","GA",30338,33.921610233,-84.291198676,385,"2355 DUNWOODY CROSSING APARTMENT C, ATLANTA, GA, 30338","Match","Exact","2355 DUNWOODY CROSSING, ATLANTA, GA, 30338",23412881,"R"
385386,"2355 E 12TH STREET","BROOKLYN","NY",11229,40.5923593250001,-73.95909756,386,"2355 E 12TH STREET, BROOKLYN, NY, 11229","Match","Exact","2355 E 12TH ST, BROOKLYN, NY, 11229",652211701,"L"
385387,"2355 E CAMELBACK ROAD SUITE 250","PHOENIX","AZ",85016,33.5093054490001,-112.031541812,387,"2355 E CAMELBACK ROAD SUITE 250, PHOENIX, AZ, 85016","Match","Non_Exact","2355 E CAMELBACK RD, PHOENIX, AZ, 85016",128209857,"R"
385388,"2355 E MONROE","SPRINGFIELD","MO",65802,37.200447866,-93.24906906,388,"2355 E MONROE, SPRINGFIELD, MO, 65802","Match","Non_Exact","2355 E MONROE ST, SPRINGFIELD, MO, 65802",76694855,"L"
385389,"2355 EAST CEDAR RIDGE ROAD","TISHOMINGO","OK",73460,34.2595860540001,-96.611084418,389,"2355 EAST CEDAR RIDGE ROAD, TISHOMINGO, OK, 73460","Match","Exact","2355 E CEDAR RIDGE RD, TISHOMINGO, OK, 73460",635494807,"R"
385390,"2355 ELLSWORTH DRIVE","CLARKSVILLE","TN",37043,36.5099873410001,-87.2653370259999,390,"2355 ELLSWORTH DRIVE, CLARKSVILLE, TN, 37043","Match","Exact","2355 ELLSWORTH DR, CLARKSVILLE, TN, 37043",635025307,"R"
385391,"2355 ENGLISH AVE","INDIANAPOLIS","IN",46201,39.759769369,-86.122231001,391,"2355 ENGLISH AVE, INDIANAPOLIS, IN, 46201","Match","Exact","2355 ENGLISH AVE, INDIANAPOLIS, IN, 46201",652688517,"R"
385392,"2355 EVALLEY PAKWY","ESCONDIDO","CA",92027,NA,NA,392,"2355 EVALLEY PAKWY, ESCONDIDO, CA, 92027","No_Match",NA,NA,NA,NA
385393,"2355 FAIRVIEW AVENUE SUITE 281","ROSEVILLE","MN",55113,NA,NA,393,"2355 FAIRVIEW AVENUE SUITE 281, ROSEVILLE, MN, 55113","No_Match",NA,NA,NA,NA
385394,"2355 FAIRWAY WOOD","CASTLE ROCK","CO",80109,39.3898376270001,-104.885969526,394,"2355 FAIRWAY WOOD, CASTLE ROCK, CO, 80109","Match","Non_Exact","2355 FAIRWAY WOOD CIR, CASTLE ROCK, CO, 80109",624651572,"L"
385395,"2355 GLACIER PL","DAVIS","CA",95616,38.560086185,-121.78038912,395,"2355 GLACIER PL, DAVIS, CA, 95616","Match","Exact","2355 GLACIER PL, DAVIS, CA, 95616",625291159,"L"
385396,"2355 GREELEY RD","BROOKVILLE","PA",15825,41.2233883430001,-79.07455297,396,"2355 GREELEY RD, BROOKVILLE, PA, 15825","Match","Exact","2355 GREELEY RD, BROOKVILLE, PA, 15825",66431377,"L"
385397,"2355 HALKIRK STREET SOUTH","COLUMBUS","OH",43229,40.06467037,-82.955659257,397,"2355 HALKIRK STREET SOUTH, COLUMBUS, OH, 43229","Match","Exact","2355 HALKIRK ST S, COLUMBUS, OH, 43229",218659251,"L"
385398,"2355 HARRISON","BEAUMONT","TX",77702,30.0897441720001,-94.121641653,398,"2355 HARRISON, BEAUMONT, TX, 77702","Match","Non_Exact","2355 HARRISON AVE, BEAUMONT, TX, 77702",73853664,"L"
385399,"2355 HEATHERGLEN DR","MAUMEE","OH",43537,41.598236587,-83.7034805449999,399,"2355 HEATHERGLEN DR, MAUMEE, OH, 43537","Match","Non_Exact","2355 HEATHERNGLEN DR, MAUMEE, OH, 43537",33930241,"L"
385400,"2355 HILLVIEW STREET","PITTSBURGH","PA",NA,40.3789034770001,-79.996437262,400,"2355 HILLVIEW STREET, PITTSBURGH, PA, ","Match","Exact","2355 HILLVIEW ST, PITTSBURGH, PA, 15234",607616776,"L"
385401,"2355 JACKSONBURG RD","HAMILTON","OH",45011,39.450805109,-84.5302163279999,401,"2355 JACKSONBURG RD, HAMILTON, OH, 45011","Match","Exact","2355 JACKSONBURG RD, HAMILTON, OH, 45011",640818506,"L"
385402,"2355 KIESEL AVENUE","OGDEN","UT",84401,41.2239978530001,-111.971540172,402,"2355 KIESEL AVENUE, OGDEN, UT, 84401","Match","Exact","2355 KIESEL AVE, OGDEN, UT, 84401",627576446,"R"
385403,"2355 KLINE CT","UNION","NJ",7083,40.698904269,-74.286512525,403,"2355 KLINE CT, UNION, NJ, 7083","Match","Exact","2355 KLINE CT, UNION, NJ, 07083",60571511,"R"
385404,"2355 LANCASTER DR-1","SAN PABLO","CA",94806,37.973200117,-122.340825359,404,"2355 LANCASTER DR-1, SAN PABLO, CA, 94806","Match","Non_Exact","2355 LANCASTER DR, SAN PABLO, CA, 94806",617628320,"L"
385405,"2355 LEBANON RD 16107","FRISCO","TX",75034,33.120875794,-96.8673481339999,405,"2355 LEBANON RD 16107, FRISCO, TX, 75034","Match","Exact","2355 LEBANON RD, FRISCO, TX, 75034",638655141,"R"
385406,"2355 LEBANON RD APT 3203","FRISCO","TX",75034,33.120875794,-96.8673481339999,406,"2355 LEBANON RD APT 3203, FRISCO, TX, 75034","Match","Exact","2355 LEBANON RD, FRISCO, TX, 75034",638655141,"R"
385407,"2355 LEBANON RD NO 16107","FRISCO","TX",75034,33.120875794,-96.8673481339999,407,"2355 LEBANON RD NO 16107, FRISCO, TX, 75034","Match","Non_Exact","2355 LEBANON RD, FRISCO, TX, 75034",638655141,"R"
385408,"2355 LEVANTE ST","CARLSABAD","CA",92008,33.0845802320001,-117.257449793,408,"2355 LEVANTE ST, CARLSABAD, CA, 92008","Match","Non_Exact","2355 LEVANTE ST, CARLSBAD, CA, 92009",195292420,"R"
385409,"2355 LINCOLN RD","LAS VEGAS","NV",89115,36.2021146920001,-115.084717773,409,"2355 LINCOLN RD, LAS VEGAS, NV, 89115","Match","Exact","2355 LINCOLN RD, LAS VEGAS, NV, 89115",201874006,"L"
385410,"2355 LONG BEACH BLVD STE 406","LONG BEACH","CA",90806,33.8000151320001,-118.189367663,410,"2355 LONG BEACH BLVD STE 406, LONG BEACH, CA, 90806","Match","Exact","2355 LONG BEACH BLVD, LONG BEACH, CA, 90806",141686882,"L"
385411,"2355 MAERE ROAD","WRENSHALL","MN",55797,46.600018398,-92.3642855369999,411,"2355 MAERE ROAD, WRENSHALL, MN, 55797","Match","Exact","2355 MAERE RD, WRENSHALL, MN, 55797",612126626,"L"
385412,"2355 MAKANANI DR","HONOLULU","HI",96817,21.3359101300001,-157.86166342,412,"2355 MAKANANI DR, HONOLULU, HI, 96817","Match","Exact","2355 MAKANANI DR, HONOLULU, HI, 96817",607826809,"L"
385413,"2355 MATTHEW COURT","MONROE","GA",30655,33.777702977,-83.770934584,413,"2355 MATTHEW COURT, MONROE, GA, 30655","Match","Non_Exact","2355 MATTHEW CIR, MONROE, GA, 30655",77624459,"L"
385414,"2355 MIDDLE RIVERS RD","ST. LOUIS","MO",63136,38.7299461810001,-90.246678488,414,"2355 MIDDLE RIVERS RD, ST. LOUIS, MO, 63136","Match","Non_Exact","2355 MIDDLE RIVER RD, SAINT LOUIS, MO, 63136",617838334,"L"
385415,"2355 MOORE ROAD","MILL SPRING","NC",28756,35.282727526,-82.079753489,415,"2355 MOORE ROAD, MILL SPRING, NC, 28756","Match","Exact","2355 MOORE RD, MILL SPRING, NC, 28756",44314030,"L"
385416,"2355 N 17TH STREET","MILWAUKEE","WI",NA,NA,NA,416,"2355 N 17TH STREET, MILWAUKEE, WI, ","Tie",NA,NA,NA,NA
385417,"2355 N BADER RD","ASTORIA","IL",61501,40.221135084,-90.3598635339999,417,"2355 N BADER RD, ASTORIA, IL, 61501","Match","Exact","2355 N BADER RD, ASTORIA, IL, 61501",636381928,"R"
385418,"2355 N DALE ST APT 11","ROSEVILLE","MN",55113,45.0121083870001,-93.126230532,418,"2355 N DALE ST APT 11, ROSEVILLE, MN, 55113","Match","Non_Exact","2355 DALE ST N, ROSEVILLE, MN, 55113",97642800,"L"
385419,"2355 N RUSSET ST","PORTLAND","OR",97217,45.5777820170001,-122.690817635,419,"2355 N RUSSET ST, PORTLAND, OR, 97217","Match","Exact","2355 N RUSSET ST, PORTLAND, OR, 97217",157495464,"R"
385420,"2355 N RUSSET STREET","PORTLAND","OR",97217,45.5777820170001,-122.690817635,420,"2355 N RUSSET STREET, PORTLAND, OR, 97217","Match","Exact","2355 N RUSSET ST, PORTLAND, OR, 97217",157495464,"R"
385421,"2355 N TAYLOR","CLEVELAND HEIGHTS","OH",44112,NA,NA,421,"2355 N TAYLOR, CLEVELAND HEIGHTS, OH, 44112","No_Match",NA,NA,NA,NA
385422,"2355 NE OCEAN BLVD APT 39A","STUART","FL",34996,NA,NA,422,"2355 NE OCEAN BLVD APT 39A, STUART, FL, 34996","Tie",NA,NA,NA,NA
385423,"2355 NORTH HIGHWAY 360 APT 1031","GRAND PRAIRIE","TX",75010,NA,NA,423,"2355 NORTH HIGHWAY 360 APT 1031, GRAND PRAIRIE, TX, 75010","No_Match",NA,NA,NA,NA
385424,"2355 NORTH HIGHWAY 360 APT 1124","GRAND PRAIRIE","TX",75050,32.790261324,-97.058315851,424,"2355 NORTH HIGHWAY 360 APT 1124, GRAND PRAIRIE, TX, 75050","Match","Non_Exact","2355 N STATE HWY 360, GRAND PRAIRIE, TX, 75050",650123791,"L"
385425,"2355 NW 15TH ST","REDMOND","OR",97756,44.297716892,-121.183978271,425,"2355 NW 15TH ST, REDMOND, OR, 97756","Match","Exact","2355 NW 15TH ST, REDMOND, OR, 97756",152548201,"R"
385426,"2355 NW TULIP WAY","JENSEN BEACJ","FL",34957,27.2347883470001,-80.256349491,426,"2355 NW TULIP WAY, JENSEN BEACJ, FL, 34957","Match","Non_Exact","2355 NW TULIP WAY, JENSEN BEACH, FL, 34957",614130917,"L"
385427,"2355 OAK RIDGE COURT","DECATUR","GA",30032,NA,NA,427,"2355 OAK RIDGE COURT, DECATUR, GA, 30032","No_Match",NA,NA,NA,NA
385428,"2355 OLIVE AVE   APT C","LONG BEACH","CA",90806,33.799882961,-118.182844112,428,"2355 OLIVE AVE   APT C, LONG BEACH, CA, 90806","Match","Non_Exact","2355 N OLIVE AVE, LONG BEACH, CA, 90806",141687104,"L"
385429,"2355 PENNSYLVANIA AVE","RIVERSIDE","CA",92507,33.96824107,-117.360547185,429,"2355 PENNSYLVANIA AVE, RIVERSIDE, CA, 92507","Match","Exact","2355 PENNSYLVANIA AVE, RIVERSIDE, CA, 92507",194742916,"R"
385430,"2355 PLAYERS POND LANE","RESTON","VA",20191,38.9453886040001,-77.387928541,430,"2355 PLAYERS POND LANE, RESTON, VA, 20191","Match","Exact","2355 PLAYERS POND LN, RESTON, VA, 20191",76024212,"L"
385431,"2355 RED ROCK ST 103","LAS VEGAS","NV",89146,NA,NA,431,"2355 RED ROCK ST 103, LAS VEGAS, NV, 89146","No_Match",NA,NA,NA,NA
385432,"2355 REDMAN RD","SAINT LOUIS","MO",63136,38.7826273000001,-90.244377782,432,"2355 REDMAN RD, SAINT LOUIS, MO, 63136","Match","Exact","2355 REDMAN RD, SAINT LOUIS, MO, 63136",100148295,"R"
385433,"2355 RICHARD AVE","ROCKFORD","IL",61108,42.2419138480001,-89.040504848,433,"2355 RICHARD AVE, ROCKFORD, IL, 61108","Match","Exact","2355 RICHARD AVE, ROCKFORD, IL, 61108",49260847,"R"
385434,"2355 RIVERIA DR","DELRAY BEACH","FL",33445,26.4813820950001,-80.098776243,434,"2355 RIVERIA DR, DELRAY BEACH, FL, 33445","Match","Non_Exact","2355 RIVIERA DR, DELRAY BEACH, FL, 33445",648308876,"L"
385435,"2355 RIVERWOOD LOOP","BOSSIER CITY","LA",71111,32.541821983,-93.719052776,435,"2355 RIVERWOOD LOOP, BOSSIER CITY, LA, 71111","Match","Non_Exact","2355 RIVERWOOD CIR, BOSSIER CITY, LA, 71111",108508219,"R"
385436,"2355 ROSSMERE ST","COLORADO SPGS","CO",80919,38.9224531680001,-104.869567725,436,"2355 ROSSMERE ST, COLORADO SPGS, CO, 80919","Match","Exact","2355 ROSSMERE ST, COLORADO SPRINGS, CO, 80919",105529945,"L"
385437,"2355 ROUTE 100","OREFIELD","PA",18069,40.607308468,-75.6436466769999,437,"2355 ROUTE 100, OREFIELD, PA, 18069","Match","Exact","2355 RTE 100, OREFIELD, PA, 18069",80753848,"R"
385438,"2355 RUE DES ALVEOLES","LAVAL",NA,NA,NA,NA,438,"2355 RUE DES ALVEOLES, LAVAL, , ","No_Match",NA,NA,NA,NA
385439,"2355 RUTLAND STREET","OPA LOCKA","FL",33054,25.9052686320001,-80.238881842,439,"2355 RUTLAND STREET, OPA LOCKA, FL, 33054","Match","Exact","2355 RUTLAND ST, OPA LOCKA, FL, 33054",116032474,"R"
385440,"2355 S BELLIN RD","IDAHO FALLS","ID",83402,43.476677792,-112.08302119,440,"2355 S BELLIN RD, IDAHO FALLS, ID, 83402","Match","Exact","2355 S BELLIN RD, IDAHO FALLS, ID, 83402",642907708,"R"
385441,"2355 S BUS HWY 65","HOLLISTER","MD",65672,NA,NA,441,"2355 S BUS HWY 65, HOLLISTER, MD, 65672","No_Match",NA,NA,NA,NA
385442,"2355 SCENIC HIGHWAY","PENSACOLA","FL",32503,30.4415135260001,-87.173761789,442,"2355 SCENIC HIGHWAY, PENSACOLA, FL, 32503","Match","Exact","2355 SCENIC HWY, PENSACOLA, FL, 32503",93223469,"L"
385443,"2355 SE YOUNG ROAD","SAINT JOSEPH","MO",64504,39.6969600130001,-94.8281525089999,443,"2355 SE YOUNG ROAD, SAINT JOSEPH, MO, 64504","Match","Exact","2355 SE YOUNG RD, SAINT JOSEPH, MO, 64504",15972359,"L"
385444,"2355 SORENTRUE AVE","NORTH CHARLESTON","SC",29405,32.8484950530001,-79.9844995729999,444,"2355 SORENTRUE AVE, NORTH CHARLESTON, SC, 29405","Match","Exact","2355 SORENTRUE AVE, N CHARLESTON, SC, 29405",108802231,"R"
385445,"2355 SOUTH HADDEN ROAD","MAZON","IL",60444,41.24894454,-88.457913853,445,"2355 SOUTH HADDEN ROAD, MAZON, IL, 60444","Match","Exact","2355 S HADDEN RD, MAZON, IL, 60444",54460882,"L"
385446,"2355 SOUTH RIPPLE PATH","CRYSTAL RIVER","FL",34429,28.826987602,-82.666789509,446,"2355 SOUTH RIPPLE PATH, CRYSTAL RIVER, FL, 34429","Match","Exact","2355 S RIPPLE PATH, CRYSTAL RIVER, FL, 34429",610739720,"R"
385447,"2355 SOUTHERN BLVD - APT 4C","BRONX","NY",10460,40.8523653600001,-73.8819590529999,447,"2355 SOUTHERN BLVD - APT 4C, BRONX, NY, 10460","Match","Exact","2355 SOUTHERN BLVD, BRONX, NY, 10460",80301622,"L"
385448,"2355 SOUTHGATE HILLS DR","ST GEORGE","UT",84770,37.0681164970001,-113.593716775,448,"2355 SOUTHGATE HILLS DR, ST GEORGE, UT, 84770","Match","Exact","2355 SOUTHGATE HILLS DR, SAINT GEORGE, UT, 84770",607569277,"L"
385449,"2355 STAHL CT","GOLD RIVER","CA",95670,38.617939042,-121.249447112,449,"2355 STAHL CT, GOLD RIVER, CA, 95670","Match","Exact","2355 STAHL CT, GOLD RIVER, CA, 95670",133409685,"R"
385450,"2355 STALLION RUN","SAN ANTONIO","TX",78259,29.6139410210001,-98.453969066,450,"2355 STALLION RUN, SAN ANTONIO, TX, 78259","Match","Exact","2355 STALLION RUN, SAN ANTONIO, TX, 78259",101582504,"R"
385451,"2355 STATE ROAD 111","NEW ALBANY","IN",47150,38.308523408,-85.843399746,451,"2355 STATE ROAD 111, NEW ALBANY, IN, 47150","Match","Non_Exact","2355 STATE ST, NEW ALBANY, IN, 47150",635563091,"L"
385452,"2355 STERLING CREEK PKWY","OVIEDO","FL",32766,28.6374338320001,-81.1412090809999,452,"2355 STERLING CREEK PKWY, OVIEDO, FL, 32766","Match","Exact","2355 STERLING CREEK PKWY, OVIEDO, FL, 32766",617968087,"R"
385453,"2355 SUMTER DRIVE","GARNER","NC",27529,35.5891247860001,-78.564191117,453,"2355 SUMTER DRIVE, GARNER, NC, 27529","Match","Exact","2355 SUMTER DR, GARNER, NC, 27529",26545707,"L"
385454,"2355 SUNNY MEADOW DRIVE","KRONENWETTER","WI",54455,44.841678797,-89.59821327,454,"2355 SUNNY MEADOW DRIVE, KRONENWETTER, WI, 54455","Match","Exact","2355 SUNNY MEADOW DR, KRONENWETTER, WI, 54455",117163583,"R"
385455,"2355 SW 28TH ST 80D","OKEECHOBEE","FL",34974,27.218069719,-80.851587184,455,"2355 SW 28TH ST 80D, OKEECHOBEE, FL, 34974","Match","Non_Exact","2355 SW 28TH ST, OKEECHOBEE, FL, 34974",647944500,"R"
385456,"2355 TALL OAK DRIVE","CANTONMENT","FL",32533,30.5787719620001,-87.3331471939999,456,"2355 TALL OAK DRIVE, CANTONMENT, FL, 32533","Match","Exact","2355 TALL OAK DR, CANTONMENT, FL, 32533",617456775,"L"
385457,"2355 TRAIL DRIVE","EVANSVILLE","IN",47711,38.0000839580001,-87.519771409,457,"2355 TRAIL DRIVE, EVANSVILLE, IN, 47711","Match","Exact","2355 TRAIL DR, EVANSVILLE, IN, 47711",39784427,"R"
385458,"2355 TWELVESTONES DRIVE","ROSWELL","GA",30076,33.999912222,-84.291117355,458,"2355 TWELVESTONES DRIVE, ROSWELL, GA, 30076","Match","Exact","2355 TWELVESTONES DR, ROSWELL, GA, 30076",17373718,"R"
385459,"2355 US ROUTE 2","NORTH HERO","VT",5474,44.800185953,-73.292090495,459,"2355 US ROUTE 2, NORTH HERO, VT, 5474","Match","Non_Exact","2355 US HWY 2, NORTH HERO, VT, 05474",136613620,"L"
385460,"2355 VIA MARIPOSA WEST UNIT 2E","LAGUNA WOODS","CA",92637,33.614148868,-117.721000612,460,"2355 VIA MARIPOSA WEST UNIT 2E, LAGUNA WOODS, CA, 92637","Match","Exact","2355 VIA MARIPOSA W, LAGUNA WOODS, CA, 92637",144062434,"L"
385461,"2355 W 111TH PLACE","CHICAGO","IL",60643,41.690804244,-87.680161523,461,"2355 W 111TH PLACE, CHICAGO, IL, 60643","Match","Exact","2355 W 111TH PL, CHICAGO, IL, 60643",111822557,"L"
385462,"2355 W 7400 N","PRESTON","ID",83263,42.2310776900001,-111.937943981,462,"2355 W 7400 N, PRESTON, ID, 83263","Match","Exact","2355 W 7400 N, PRESTON, ID, 83263",167532383,"R"
385463,"2355 W CANOPY LN","ANAHEIM","CA",92801,33.830989292,-117.964435282,463,"2355 W CANOPY LN, ANAHEIM, CA, 92801","Match","Exact","2355 CANOPY LN, ANAHEIM, CA, 92801",630204187,"L"
385464,"2355 W JACKSON BLVD","CHICAGO","IL",60612,41.8775531850001,-87.685833347,464,"2355 W JACKSON BLVD, CHICAGO, IL, 60612","Match","Exact","2355 W JACKSON BLVD, CHICAGO, IL, 60612",605089803,"L"
385465,"2355 W KATHLEEN RD","PHOENIX","AZ",85023,33.6297576760001,-112.110523264,465,"2355 W KATHLEEN RD, PHOENIX, AZ, 85023","Match","Exact","2355 W KATHLEEN RD, PHOENIX, AZ, 85023",128180899,"L"
385466,"2355 W MICHIGAN AVE E29","PENSACOLA","FL",32526,NA,NA,466,"2355 W MICHIGAN AVE E29, PENSACOLA, FL, 32526","Tie",NA,NA,NA,NA
385467,"2355 W MICHIGAN AVE","PENSACOLA","FL",32526,30.460657054,-87.280444109,467,"2355 W MICHIGAN AVE, PENSACOLA, FL, 32526","Match","Exact","2355 W MICHIGAN AVE, PENSACOLA, FL, 32526",93249625,"L"
385468,"2355 WATERWHEEL RD","EMMETT","ID",83617,43.886330887,-116.464805264,468,"2355 WATERWHEEL RD, EMMETT, ID, 83617","Match","Exact","2355 WATERWHEEL RD, EMMETT, ID, 83617",647467933,"L"
385469,"2355 WEST BENNETT AVE","FRESNO","CA",93728,NA,NA,469,"2355 WEST BENNETT AVE, FRESNO, CA, 93728","No_Match",NA,NA,NA,NA
385470,"2355 WEST BRANCH ROAD","STATE COLLEGE","PA",16801,40.766709172,-77.841153654,470,"2355 WEST BRANCH ROAD, STATE COLLEGE, PA, 16801","Match","Exact","2355 W BRANCH RD, STATE COLLEGE, PA, 16801",630277236,"R"
385471,"2355 WESTWOOD BLVD 332","LOS ANGELES","CA",90064,34.0411557240001,-118.429388791,471,"2355 WESTWOOD BLVD 332, LOS ANGELES, CA, 90064","Match","Exact","2355 WESTWOOD BLVD, LOS ANGELES, CA, 90064",141569960,"R"
385472,"2355 WESTWOOD BLVD 578","LOS ANGELES","CA",90064,34.0411557240001,-118.429388791,472,"2355 WESTWOOD BLVD 578, LOS ANGELES, CA, 90064","Match","Exact","2355 WESTWOOD BLVD, LOS ANGELES, CA, 90064",141569960,"R"
385473,"2355 WESTWOOD BLVD NUM 832","LOS ANGELES","CA",90064,34.0411557240001,-118.429388791,473,"2355 WESTWOOD BLVD NUM 832, LOS ANGELES, CA, 90064","Match","Exact","2355 WESTWOOD BLVD, LOS ANGELES, CA, 90064",141569960,"R"
385474,"2355 WESTWOOD BLVD SUITE 604","LOS ANGELES","CA",90034,34.0411557240001,-118.429388791,474,"2355 WESTWOOD BLVD SUITE 604, LOS ANGELES, CA, 90034","Match","Non_Exact","2355 WESTWOOD BLVD, LOS ANGELES, CA, 90064",141569960,"R"
385475,"2355 WESTWOOD BOULEVARD - UNIT 512","LOS ANGELES","CA",90064,34.0411557240001,-118.429388791,475,"2355 WESTWOOD BOULEVARD - UNIT 512, LOS ANGELES, CA, 90064","Match","Exact","2355 WESTWOOD BLVD, LOS ANGELES, CA, 90064",141569960,"R"
385476,"2355 WESTWOOD BOULEVARD SUITE 325","LOS ANGELES","CA",90064,34.0411557240001,-118.429388791,476,"2355 WESTWOOD BOULEVARD SUITE 325, LOS ANGELES, CA, 90064","Match","Exact","2355 WESTWOOD BLVD, LOS ANGELES, CA, 90064",141569960,"R"
385477,"2355 WILLIAMS CREEK ROAD","ONEIDA","TN",37841,NA,NA,477,"2355 WILLIAMS CREEK ROAD, ONEIDA, TN, 37841","No_Match",NA,NA,NA,NA
385478,"2355 WILSON CREEK CIR","AURORA","IL",60503,41.710112183,-88.2626169219999,478,"2355 WILSON CREEK CIR, AURORA, IL, 60503","Match","Exact","2355 WILSON CREEK CIR, AURORA, IL, 60503",611656153,"R"
385479,"2355 WILSON CREEK CIR","AURORA","TX",60503,NA,NA,479,"2355 WILSON CREEK CIR, AURORA, TX, 60503","No_Match",NA,NA,NA,NA
385480,"2355 YOLANDA AVE","SPRINGFIELD","OR",97477,44.0723913730001,-122.99091252,480,"2355 YOLANDA AVE, SPRINGFIELD, OR, 97477","Match","Exact","2355 YOLANDA AVE, SPRINGFIELD, OR, 97477",178230760,"R"
385481,"23550 DENTON APT 151","CLINTON TWP","MI",48036,42.5715228620001,-82.878619156,481,"23550 DENTON APT 151, CLINTON TWP, MI, 48036","Match","Non_Exact","23550 DENTON ST, CLINTON TOWNSHIP, MI, 48036",110683191,"R"
385482,"23550 DENTON ST APT 150","CLINTON TOWNSHIP","MI",48036,42.5715228620001,-82.878619156,482,"23550 DENTON ST APT 150, CLINTON TOWNSHIP, MI, 48036","Match","Exact","23550 DENTON ST, CLINTON TOWNSHIP, MI, 48036",110683191,"R"
385483,"23550 MORROW RD","HILLMAN","MI",49746,45.1814130600001,-83.9230201669999,483,"23550 MORROW RD, HILLMAN, MI, 49746","Match","Exact","23550 MORROW RD, HILLMAN, MI, 49746",135961744,"L"
385484,"23550 SW 214 PL","HOMESTEAD","FL",33031,25.546776387,-80.5405799869999,484,"23550 SW 214 PL, HOMESTEAD, FL, 33031","Match","Exact","23550 SW 214TH PL, HOMESTEAD, FL, 33031",116083228,"R"
385485,"23551 394TH AVE","WOONSOCKET","SD",57385,43.974631834,-98.331650462,485,"23551 394TH AVE, WOONSOCKET, SD, 57385","Match","Exact","23551 394TH AVE, WOONSOCKET, SD, 57385",199206360,"L"
385486,"23551 PENNSYLVANIA AVENUE","SAN BENITO","TX",78586,26.114999181,-97.645580873,486,"23551 PENNSYLVANIA AVENUE, SAN BENITO, TX, 78586","Match","Exact","23551 PENNSYLVANIA AVE, SAN BENITO, TX, 78586",640589143,"R"
385487,"23551 SUMMIT DRIVE","CALABASAS","CA",91302,34.129712242,-118.64251755,487,"23551 SUMMIT DRIVE, CALABASAS, CA, 91302","Match","Exact","23551 SUMMIT DR, CALABASAS, CA, 91302",142041872,"L"
385488,"23552 NEWHALL AVE","NEWHALL","CA",91321,34.3682001670001,-118.510601442,488,"23552 NEWHALL AVE, NEWHALL, CA, 91321","Match","Exact","23552 NEWHALL AVE, NEWHALL, CA, 91321",141799829,"L"
385489,"23552 SOUTH WALKER RD","DENHAM SPRINGS","LA",70726,NA,NA,489,"23552 SOUTH WALKER RD, DENHAM SPRINGS, LA, 70726","No_Match",NA,NA,NA,NA
385490,"23553 EAGLES NEST RD","ANTIOCH","IL",60002,42.4492698670001,-88.092688761,490,"23553 EAGLES NEST RD, ANTIOCH, IL, 60002","Match","Exact","23553 EAGLES NEST RD, ANTIOCH, IL, 60002",649610087,"L"
385491,"23553 SOUTH BALD HILL ROAD","TAHLEQUAH","OK",74464,35.832795597,-94.9852852609999,491,"23553 SOUTH BALD HILL ROAD, TAHLEQUAH, OK, 74464","Match","Exact","23553 S BALD HILL RD, TAHLEQUAH, OK, 74464",53643172,"L"
385492,"23554 NORWAY LAKE ROAD","UNDERWOOD","MN",56586,46.3058694050001,-95.883129525,492,"23554 NORWAY LAKE ROAD, UNDERWOOD, MN, 56586","Match","Exact","23554 NORWAY LAKE RD, UNDERWOOD, MN, 56586",168319535,"R"
385493,"23555 SW 113 PLACE","HOMESTEAD","FL",33032,25.548288659,-80.3748473699999,493,"23555 SW 113 PLACE, HOMESTEAD, FL, 33032","Match","Exact","23555 SW 113TH PL, HOMESTEAD, FL, 33032",632014745,"L"
385494,"23556 PINHOOK ROAD","MENDON","MI",49072,42.020800627,-85.49520412,494,"23556 PINHOOK ROAD, MENDON, MI, 49072","Match","Exact","23556 PINHOOK RD, MENDON, MI, 49072",15329863,"R"
385495,"23557 INDEE BLVD","INDEPENDENCE","WI",54747,44.368009306,-91.4188070709999,495,"23557 INDEE BLVD, INDEPENDENCE, WI, 54747","Match","Exact","23557 INDEE BLVD, INDEPENDENCE, WI, 54747",635595886,"R"
385496,"23558 ULYSSES ST N E","EAST BETHEL","MN",55005,45.3968454050001,-93.2372401709999,496,"23558 ULYSSES ST N E, EAST BETHEL, MN, 55005","Match","Exact","23558 ULYSSES ST NE, EAST BETHEL, MN, 55005",97531214,"L"
385497,"23558","ULYSSES ST N .E","MN",55005,NA,NA,497,"23558, ULYSSES ST N .E, MN, 55005","No_Match",NA,NA,NA,NA
385498,"23559 COUNTY ROAD 23","GREENBUSH","MN",56726,48.738224819,-96.2949092599999,498,"23559 COUNTY ROAD 23, GREENBUSH, MN, 56726","Match","Exact","23559 CO RD 23, GREENBUSH, MN, 56726",176600187,"L"
385499,"23559 ROSEMEADOW COURT","MORENO VALLEY","CA",92557,33.9621852390001,-117.253309021,499,"23559 ROSEMEADOW COURT, MORENO VALLEY, CA, 92557","Match","Non_Exact","23559 ROSE MEADOW CT, MORENO VALLEY, CA, 92557",194820186,"L"
385500,"2355B RIVER OAKS DRIVE","JACKSON","MS",39211,32.3885849760001,-90.1066770739999,500,"2355B RIVER OAKS DRIVE, JACKSON, MS, 39211","Match","Non_Exact","2355 RIVER OAKS BLVD, JACKSON, MS, 39211",65374280,"R"
