"ID","Address","City","State","Zip","lat","long","id","input_address","match_indicator","match_type","matched_address","tiger_line_id","tiger_side"
616001,"4212 HAMILTON AVE","BALTIMORE","MD",21206,39.341637086,-76.5449095289999,1,"4212 HAMILTON AVE, BALTIMORE, MD, 21206","Match","Exact","4212 HAMILTON AVE, BALTIMORE, MD, 21206",206411643,"L"
616002,"4212 HARCA ST","EAGLE RIVER","AK",99577,61.258528138,-149.303087697,2,"4212 HARCA ST, EAGLE RIVER, AK, 99577","Match","Exact","4212 HARCA ST, EAGLE RIVER, AK, 99577",190825526,"L"
616003,"4212 HIDDEN POND TRAIL NE","PRIOR LAKE","MN",55372,44.73224893,-93.4353241749999,3,"4212 HIDDEN POND TRAIL NE, PRIOR LAKE, MN, 55372","Match","Exact","4212 HIDDEN POND TRL NE, PRIOR LAKE, MN, 55372",38156492,"L"
616004,"4212 INDIGO OAK COURT","SAN JOSE","CA",95121,37.2962334600001,-121.798394111,4,"4212 INDIGO OAK COURT, SAN JOSE, CA, 95121","Match","Exact","4212 INDIGO OAK CT, SAN JOSE, CA, 95121",615526043,"L"
616005,"4212 INMAN COURT","FT. WORTH","TX",76109,32.68439685,-97.3886887309999,5,"4212 INMAN COURT, FT. WORTH, TX, 76109","Match","Exact","4212 INMAN CT, FORT WORTH, TX, 76109",101949802,"R"
616006,"4212 J STREET","SAN DIEGO","CA",92102,32.7096687060001,-117.104387041,6,"4212 J STREET, SAN DIEGO, CA, 92102","Match","Exact","4212 J ST, SAN DIEGO, CA, 92102",195348965,"L"
616007,"4212 JEFFERSON ST NE","COLUMBIA HEIGHTS","MN",55421,45.04488093,-93.255077265,7,"4212 JEFFERSON ST NE, COLUMBIA HEIGHTS, MN, 55421","Match","Exact","4212 JEFFERSON ST NE, COLUMBIA HEIGHTS, MN, 55421",97488171,"L"
616008,"4212 KAYLA CIRCLE","CHATTANOOGA","TN",37406,35.07860011,-85.211361299,8,"4212 KAYLA CIRCLE, CHATTANOOGA, TN, 37406","Match","Exact","4212 KAYLA CIR, CHATTANOOGA, TN, 37406",627248861,"R"
616009,"4212 KILDAIRE AVENUE","ORLANDO","FL",32812,28.5067909160001,-81.332973209,9,"4212 KILDAIRE AVENUE, ORLANDO, FL, 32812","Match","Exact","4212 KILDAIRE AVE, ORLANDO, FL, 32812",94287913,"R"
616010,"4212 KYLIE PL","MOORE","OK",73160,35.296312341,-97.477789979,10,"4212 KYLIE PL, MOORE, OK, 73160","Match","Exact","4212 KYLIE PL, MOORE, OK, 73160",99959151,"L"
616011,"4212 LAFAYETTE ST APT 1012","DALLAS","TX",75204,32.8031855140001,-96.785827522,11,"4212 LAFAYETTE ST APT 1012, DALLAS, TX, 75204","Match","Exact","4212 LAFAYETTE ST, DALLAS, TX, 75204",102910742,"R"
616012,"4212 LYNN TERR","NORTH RICHLAND HILLS","TX",76180,32.8251926730001,-97.209348478,12,"4212 LYNN TERR, NORTH RICHLAND HILLS, TX, 76180","Match","Exact","4212 LYNN TER, NORTH RICHLAND HILLS, TX, 76180",101865300,"R"
616013,"4212 MACKENZIE DR","MOORE","OK",73160,35.299729014,-97.480517543,13,"4212 MACKENZIE DR, MOORE, OK, 73160","Match","Non_Exact","4212 MCKENZIE DR, MOORE, OK, 73160",614978707,"L"
616014,"4212 MARY AVENUE","BALTIMORE","MD",21206,39.3438188540001,-76.540997773,14,"4212 MARY AVENUE, BALTIMORE, MD, 21206","Match","Exact","4212 MARY AVE, BALTIMORE, MD, 21206",206429541,"L"
616015,"4212 MCCARTNEY DRIVE","BELLEVUE","NE",68123,NA,NA,15,"4212 MCCARTNEY DRIVE, BELLEVUE, NE, 68123","No_Match",NA,NA,NA,NA
616016,"4212 MEDICAL APT 602","SAN ANTONIO","TX",78229,29.515385397,-98.566542214,16,"4212 MEDICAL APT 602, SAN ANTONIO, TX, 78229","Match","Non_Exact","4212 MEDICAL DR, SAN ANTONIO, TX, 78229",650121614,"L"
616017,"4212 MERRYFIELD","DAYTON","OH",45416,39.7987802010001,-84.258204994,17,"4212 MERRYFIELD, DAYTON, OH, 45416","Match","Non_Exact","4212 MERRYFIELD AVE, DAYTON, OH, 45416",143564959,"L"
616018,"4212 MIDDLE OAKS DRIVE APT 206","RALEIGH","NC",27615,35.8467156350001,-78.561581233,18,"4212 MIDDLE OAKS DRIVE APT 206, RALEIGH, NC, 27615","Match","Non_Exact","4212 MIDDLE OAKS DR, RALEIGH, NC, 27616",208349303,"R"
616019,"4212 MILL GROVE LANE","SMYRNA","GA",30082,33.8467301530001,-84.5614772659999,19,"4212 MILL GROVE LANE, SMYRNA, GA, 30082","Match","Non_Exact","4212 MILL GROVE LN SW, SMYRNA, GA, 30082",17231085,"L"
616020,"4212 MISTY RIDGE DR","HAYMARKET","VA",20169,38.8658192890001,-77.662463461,20,"4212 MISTY RIDGE DR, HAYMARKET, VA, 20169","Match","Exact","4212 MISTY RIDGE DR, HAYMARKET, VA, 20169",76502957,"L"
616021,"4212 MOUNTAIN VIEW DR","ISLAND PARK","ID",83429,44.6490014680001,-111.308335718,21,"4212 MOUNTAIN VIEW DR, ISLAND PARK, ID, 83429","Match","Exact","4212 MOUNTAIN VIEW DR, ISLAND PARK, ID, 83429",119217923,"R"
616022,"4212 N 149TH ST","OMAHA","NE",68116,41.2974389510001,-96.147968979,22,"4212 N 149TH ST, OMAHA, NE, 68116","Match","Exact","4212 N 149TH ST, OMAHA, NE, 68116",636295591,"L"
616023,"4212 N 57TH STREET","PHOENIX","AZ",85031,NA,NA,23,"4212 N 57TH STREET, PHOENIX, AZ, 85031","Tie",NA,NA,NA,NA
616024,"4212 N PERSHING AVE STE A22","STOCKTON","CA",95207,37.984257278,-121.31984155,24,"4212 N PERSHING AVE STE A22, STOCKTON, CA, 95207","Match","Non_Exact","4212 N PERSHING AVE, STOCKTON, CA, 95207",133847322,"R"
616025,"4212 NARBETH AVE","RICHMOND","VA",23234,37.466435819,-77.473574288,25,"4212 NARBETH AVE, RICHMOND, VA, 23234","Match","Exact","4212 NARBETH AVE, RICHMOND, VA, 23234",201545506,"R"
616026,"4212 NE 123RD AVE","VANCOUVER","WA",98682,45.6523379480001,-122.546317145,26,"4212 NE 123RD AVE, VANCOUVER, WA, 98682","Match","Exact","4212 NE 123RD AVE, VANCOUVER, WA, 98682",158363027,"R"
616027,"4212 NE 123RD AVE","VANCOUVER","WA",98684,45.6523379480001,-122.546317145,27,"4212 NE 123RD AVE, VANCOUVER, WA, 98684","Match","Non_Exact","4212 NE 123RD AVE, VANCOUVER, WA, 98682",158363027,"R"
616028,"4212 NE 28TH AVE","PORTLAND","OR",97212,45.553762992,-122.636898817,28,"4212 NE 28TH AVE, PORTLAND, OR, 97212","Match","Non_Exact","4212 NE 28TH AVE, PORTLAND, OR, 97211",157506313,"R"
616029,"4212 NE BRIARWOOD DR","ANKENY","IA",50021,41.7659852680001,-93.586227808,29,"4212 NE BRIARWOOD DR, ANKENY, IA, 50021","Match","Exact","4212 NE BRIARWOOD DR, ANKENY, IA, 50021",640383181,"L"
616030,"4212 NEAL CT","LINDEN","MI",48451,42.830746317,-83.755790963,30,"4212 NEAL CT, LINDEN, MI, 48451","Match","Exact","4212 NEAL CT, LINDEN, MI, 48451",617723904,"L"
616031,"4212 NEW TOWN AVE","WILLIAMSBURG","VA",32188,37.2787770780001,-76.743442041,31,"4212 NEW TOWN AVE, WILLIAMSBURG, VA, 32188","Match","Non_Exact","4212 NEW TOWN AVE, WILLIAMSBURG, VA, 23188",618666820,"R"
616032,"4212 OAKLAND AVE","MINNEAPOLIS","MN",55407,44.9266147210001,-93.2663216079999,32,"4212 OAKLAND AVE, MINNEAPOLIS, MN, 55407","Match","Non_Exact","4212 OAKLAND AVE S, MINNEAPOLIS, MN, 55407",43634422,"R"
616033,"4212 OAKLAND AVENUE","MINNEAPOLIS","MN",55407,44.9266147210001,-93.2663216079999,33,"4212 OAKLAND AVENUE, MINNEAPOLIS, MN, 55407","Match","Non_Exact","4212 OAKLAND AVE S, MINNEAPOLIS, MN, 55407",43634422,"R"
616034,"4212 OAKLAND AVENUE","MINNEAPOLIS","MN",55448,NA,NA,34,"4212 OAKLAND AVENUE, MINNEAPOLIS, MN, 55448","No_Match",NA,NA,NA,NA
616035,"4212 OLD COLUMBIA PIKE","ANNANDALE","VA",22003,38.832117876,-77.164016652,35,"4212 OLD COLUMBIA PIKE, ANNANDALE, VA, 22003","Match","Exact","4212 OLD COLUMBIA PIKE, ANNANDALE, VA, 22003",652323478,"R"
616036,"4212 OTTER STREET","PHILADELPHIA","PA",19104,39.971042509,-75.2087761619999,36,"4212 OTTER STREET, PHILADELPHIA, PA, 19104","Match","Exact","4212 OTTER ST, PHILADELPHIA, PA, 19104",131403077,"L"
616037,"4212 PARK PLACE CIR","ELLENWOOD","GA",30294,33.6566079180001,-84.2237095679999,37,"4212 PARK PLACE CIR, ELLENWOOD, GA, 30294","Match","Exact","4212 PARK PLACE CIR, ELLENWOOD, GA, 30294",23388622,"R"
616038,"4212 PHOENIX ST","AMES","IA",50014,42.0299700320001,-93.675862461,38,"4212 PHOENIX ST, AMES, IA, 50014","Match","Exact","4212 PHOENIX ST, AMES, IA, 50014",65945635,"L"
616039,"4212 PINE LN","ALEXANDRIA","VA",22312,38.8324723280001,-77.155553964,39,"4212 PINE LN, ALEXANDRIA, VA, 22312","Match","Exact","4212 PINE LN, ALEXANDRIA, VA, 22312",76061334,"R"
616040,"4212 QUARRY LAKE DRIVE APT 301","HENRICO","VA",23233,37.660597119,-77.6248216559999,40,"4212 QUARRY LAKE DRIVE APT 301, HENRICO, VA, 23233","Match","Exact","4212 QUARRY LAKE DR, HENRICO, VA, 23233",643663945,"R"
616041,"4212 ROAD 215","HILLSDALE","WY",82060,41.2144089240001,-104.480100298,41,"4212 ROAD 215, HILLSDALE, WY, 82060","Match","Exact","4212 RD 215, HILLSDALE, WY, 82060",635844911,"R"
616042,"4212 RUE DARTAGGAN","STONE MOUNTAIN","GA",30083,33.784851696,-84.217308492,42,"4212 RUE DARTAGGAN, STONE MOUNTAIN, GA, 30083","Match","Non_Exact","4212 RUE DARTAGNAN, STONE MOUNTAIN, GA, 30083",23371529,"L"
616043,"4212 S BEDFORD DR","CHANDLER","AZ",85249,33.2451877290001,-111.821196589,43,"4212 S BEDFORD DR, CHANDLER, AZ, 85249","Match","Exact","4212 S BEDFORD DR, CHANDLER, AZ, 85249",626684927,"R"
616044,"4212 S GREGORY ST","TACOMA","WA",98409,47.2272755480001,-122.494075507,44,"4212 S GREGORY ST, TACOMA, WA, 98409","Match","Exact","4212 S GREGORY ST, TACOMA, WA, 98409",184709139,"L"
616045,"4212 S SANDUSKY AVE","TULSA","OK",74135,36.1016077690001,-95.927422954,45,"4212 S SANDUSKY AVE, TULSA, OK, 74135","Match","Exact","4212 S SANDUSKY AVE, TULSA, OK, 74135",166450149,"R"
616046,"4212 S SANDUSKY","TULSA","OK",74135,36.1016077690001,-95.927422954,46,"4212 S SANDUSKY, TULSA, OK, 74135","Match","Non_Exact","4212 S SANDUSKY AVE, TULSA, OK, 74135",166450149,"R"
616047,"4212 SAN FELIPE STE 227","HOUSTON","TX",77027,29.7466585940001,-95.448452791,47,"4212 SAN FELIPE STE 227, HOUSTON, TX, 77027","Match","Non_Exact","4212 SAN FELIPE ST, HOUSTON, TX, 77027",96620677,"R"
616048,"4212 SAN FELIPE","HOUSTON","TX",77027,29.7466585940001,-95.448452791,48,"4212 SAN FELIPE, HOUSTON, TX, 77027","Match","Non_Exact","4212 SAN FELIPE ST, HOUSTON, TX, 77027",96620677,"R"
616049,"4212 SHELL STREET","CAPITAL HEIGHTS","MD",20743,38.8710169170001,-76.934602039,49,"4212 SHELL STREET, CAPITAL HEIGHTS, MD, 20743","Match","Non_Exact","4212 SHELL ST, CAPITOL HGTS, MD, 20743",76312814,"L"
616050,"4212 SOONER COURT","EDMOND","OK",73034,35.6697866710001,-97.42537601,50,"4212 SOONER COURT, EDMOND, OK, 73034","Match","Exact","4212 SOONER CT, EDMOND, OK, 73034",100409210,"R"
616051,"4212 SOUTHPORT TRACE DR","INDIANAPOLIS","IN",46237,39.678199653,-86.095263973,51,"4212 SOUTHPORT TRACE DR, INDIANAPOLIS, IN, 46237","Match","Exact","4212 SOUTHPORT TRACE DR, INDIANAPOLIS, IN, 46237",627787299,"L"
616052,"4212 STRAWBERRY PARK DR","SAN JOSE","CA",95129,37.3107587280001,-121.977789861,52,"4212 STRAWBERRY PARK DR, SAN JOSE, CA, 95129","Match","Exact","4212 STRAWBERRY PARK DR, SAN JOSE, CA, 95129",122900670,"L"
616053,"4212 SW CAMDEN RIDGE DR","ANKENY","IA",50023,41.729594095,-93.6559877399999,53,"4212 SW CAMDEN RIDGE DR, ANKENY, IA, 50023","Match","Exact","4212 SW CAMDEN RIDGE DR, ANKENY, IA, 50023",653236759,"R"
616054,"4212 TAGLE ST","EDINBURG","TX",78541,26.3438055550001,-98.166516563,54,"4212 TAGLE ST, EDINBURG, TX, 78541","Match","Exact","4212 TAGLE ST, EDINBURG, TX, 78541",71495385,"L"
616055,"4212 TETON ST","MARRERO","LA",70072,29.8430030420001,-90.103783397,55,"4212 TETON ST, MARRERO, LA, 70072","Match","Exact","4212 TETON ST, MARRERO, LA, 70072",93510002,"R"
616056,"4212 TORREY LANE UNIT 404","ARLINGTON","TX",76017,NA,NA,56,"4212 TORREY LANE UNIT 404, ARLINGTON, TX, 76017","No_Match",NA,NA,NA,NA
616057,"4212 UNIVERSITY WAY NE","SEATTLE","WA",98105,47.6585805710001,-122.31319196,57,"4212 UNIVERSITY WAY NE, SEATTLE, WA, 98105","Match","Exact","4212 UNIVERSITY WAY NE, SEATTLE, WA, 98105",186586963,"R"
616058,"4212 VISTA DEL RIO WAY 8","OCEANSIDE","CA",92057,33.2283308180001,-117.31317399,58,"4212 VISTA DEL RIO WAY 8, OCEANSIDE, CA, 92057","Match","Exact","4212 VISTA DEL RIO WAY, OCEANSIDE, CA, 92057",195284783,"L"
616059,"4212 VISTA DEL RIO WAY UNIT 6","OCEANSIDE","CA",92057,33.2283308180001,-117.31317399,59,"4212 VISTA DEL RIO WAY UNIT 6, OCEANSIDE, CA, 92057","Match","Exact","4212 VISTA DEL RIO WAY, OCEANSIDE, CA, 92057",195284783,"L"
616060,"4212 VISTA VERDE DR","AUSTIN","TX",78732,30.3784394400001,-97.877614409,60,"4212 VISTA VERDE DR, AUSTIN, TX, 78732","Match","Exact","4212 VISTA VERDE DR, AUSTIN, TX, 78732",641746394,"R"
616061,"4212 W 132ND STREET- APT B","HAWTHORNE","CA",90250,NA,NA,61,"4212 W 132ND STREET- APT B, HAWTHORNE, CA, 90250","No_Match",NA,NA,NA,NA
616062,"4212 W 42ND ST","EDINA","MN",55416,44.926964667,-93.335211056,62,"4212 W 42ND ST, EDINA, MN, 55416","Match","Non_Exact","4212 W 42ND ST, EDINA, MN, 55416",43627862,"R"
616063,"4212 W DOUGLAS AVE","VISALIA","CA",93277,NA,NA,63,"4212 W DOUGLAS AVE, VISALIA, CA, 93277","No_Match",NA,NA,NA,NA
616064,"4212 W MELROSE ST","CHICAGO","IL",60641,41.9399418510001,-87.732424926,64,"4212 W MELROSE ST, CHICAGO, IL, 60641","Match","Exact","4212 W MELROSE ST, CHICAGO, IL, 60641",605219767,"R"
616065,"4212 WEST 64TH STREET","INGLEWOOD","CA",90302,33.9816972150001,-118.347753103,65,"4212 WEST 64TH STREET, INGLEWOOD, CA, 90302","Match","Exact","4212 W 64TH ST, INGLEWOOD, CA, 90302",141653944,"L"
616066,"4212 WHITACRE ROAD","FAIRFAX","VA",22032,38.8339624060001,-77.2773771339999,66,"4212 WHITACRE ROAD, FAIRFAX, VA, 22032","Match","Exact","4212 WHITACRE RD, FAIRFAX, VA, 22032",76060813,"R"
616067,"4212 WILLIAMSBURG RD","CINCINNATI","OH",45215,39.2165625260001,-84.4812019519999,67,"4212 WILLIAMSBURG RD, CINCINNATI, OH, 45215","Match","Exact","4212 WILLIAMSBURG RD, CINCINNATI, OH, 45215",103923676,"L"
616068,"4212 WYNBOROUGH LN","CHARLOTTE","NC",28262,35.352066887,-80.781791573,68,"4212 WYNBOROUGH LN, CHARLOTTE, NC, 28262","Match","Non_Exact","4212 WYNBOROUGH LN, CHARLOTTE, NC, 28269",70523704,"L"
616069,"42121 SAN JOSE DRIVE","SAN JACINTO","CA",92583,33.8007545630001,-116.927216689,69,"42121 SAN JOSE DRIVE, SAN JACINTO, CA, 92583","Match","Exact","42121 SAN JOSE DR, SAN JACINTO, CA, 92583",195085850,"R"
616070,"42123 N 3RD ST","PHOENIX","AZ",85086,33.867075282,-112.069691742,70,"42123 N 3RD ST, PHOENIX, AZ, 85086","Match","Non_Exact","42123 N 3RD ST, PHOENIX, AZ, 85086",128410762,"L"
616071,"42123 N 3RD STREET","PHOENIX","AZ",85086,33.867075282,-112.069691742,71,"42123 N 3RD STREET, PHOENIX, AZ, 85086","Match","Non_Exact","42123 N 3RD ST, PHOENIX, AZ, 85086",128410762,"L"
616072,"42124 NOLEN COURT","LEESBURG","VA",20175,39.0373886780001,-77.544868801,72,"42124 NOLEN COURT, LEESBURG, VA, 20175","Match","Exact","42124 NOLEN CT, LEESBURG, VA, 20175",624151989,"L"
616073,"42127 HOLDEN CREEK LANE","SPRINGFIELD","OR",97478,44.0944328250001,-122.704649039,73,"42127 HOLDEN CREEK LANE, SPRINGFIELD, OR, 97478","Match","Exact","42127 HOLDEN CREEK LN, SPRINGFIELD, OR, 97478",178201861,"L"
616074,"4213 18TH STREET NW","WASHINGTON","DC",20011,38.942073194,-77.041264763,74,"4213 18TH STREET NW, WASHINGTON, DC, 20011","Match","Exact","4213 18TH ST NW, WASHINGTON, DC, 20011",76222382,"R"
616075,"4213 219TH ST SE","BOTHELL","WA",98021,47.799520016,-122.176384386,75,"4213 219TH ST SE, BOTHELL, WA, 98021","Match","Exact","4213 219TH ST SE, BOTHELL, WA, 98021",652692358,"R"
616076,"4213 56TH AVENUE","BLANDENSBURG","MD",20710,38.9412627570001,-76.92104713,76,"4213 56TH AVENUE, BLANDENSBURG, MD, 20710","Match","Non_Exact","4213 56TH AVE, BLADENSBURG, MD, 20710",76307133,"R"
616077,"4213 ADELINE LANE","MONROE","LA",71201,32.56422515,-92.1124262179999,77,"4213 ADELINE LANE, MONROE, LA, 71201","Match","Exact","4213 ADELINE LN, MONROE, LA, 71201",642340063,"L"
616078,"4213 AMHERST LANE","GRAND PRAIRIE","TX",75052,32.6666629420001,-97.043927316,78,"4213 AMHERST LANE, GRAND PRAIRIE, TX, 75052","Match","Exact","4213 AMHERST LN, GRAND PRAIRIE, TX, 75052",101957358,"R"
616079,"4213 ARBUTUS DR","RALEIGH","NC",27612,35.8389294250001,-78.6983555259999,79,"4213 ARBUTUS DR, RALEIGH, NC, 27612","Match","Exact","4213 ARBUTUS DR, RALEIGH, NC, 27612",72500237,"L"
616080,"4213 ASHLAND CITY HWY","NASHVILLE","TN",37218,36.2029675630001,-86.850354895,80,"4213 ASHLAND CITY HWY, NASHVILLE, TN, 37218","Match","Exact","4213 ASHLAND CITY HWY, NASHVILLE, TN, 37218",97178376,"R"
616081,"4213 BAYWATCH DR","ROWLETT","TX",75088,32.879886422,-96.562819466,81,"4213 BAYWATCH DR, ROWLETT, TX, 75088","Match","Exact","4213 BAYWATCH DR, ROWLETT, TX, 75088",103168180,"L"
616082,"4213 BELMAR AVE","BALTIMORE","MD",21206,39.3519513950001,-76.5325864279999,82,"4213 BELMAR AVE, BALTIMORE, MD, 21206","Match","Exact","4213 BELMAR AVE, BALTIMORE, MD, 21206",206412056,"R"
616083,"4213 BROOKS STREET NE 204","WASHINGTON","DC",20019,38.893810837,-76.942159047,83,"4213 BROOKS STREET NE 204, WASHINGTON, DC, 20019","Match","Exact","4213 BROOKS ST NE, WASHINGTON, DC, 20019",76233178,"R"
616084,"4213 CANBERRA DR","WICHITA FALLS","TX",76308,33.873422826,-98.551270643,84,"4213 CANBERRA DR, WICHITA FALLS, TX, 76308","Match","Exact","4213 CANBERRA DR, WICHITA FALLS, TX, 76308",169842103,"L"
616085,"4213 CHERRY ORCHARD CT","BLOOMINGTON","IN",47403,39.1547670100001,-86.5891686309999,85,"4213 CHERRY ORCHARD CT, BLOOMINGTON, IN, 47403","Match","Non_Exact","4213 W CHERRY ORCHARD CT, BLOOMINGTON, IN, 47403",42320778,"L"
616086,"4213 CLAUD ROAD","ECLECTIC","AL",36024,32.584162614,-86.0671326149999,86,"4213 CLAUD ROAD, ECLECTIC, AL, 36024","Match","Exact","4213 CLAUD RD, ECLECTIC, AL, 36024",1395248,"R"
616087,"4213 CONCORDIA LANE SE","LACEY","WA",98503,47.004703132,-122.830764431,87,"4213 CONCORDIA LANE SE, LACEY, WA, 98503","Match","Exact","4213 CONCORDIA LN SE, LACEY, WA, 98503",180967191,"L"
616088,"4213 CORDELL COVE","FORT WAYNE","IN",46845,41.2069580410001,-85.0926643559999,88,"4213 CORDELL COVE, FORT WAYNE, IN, 46845","Match","Exact","4213 CORDELL COVE, FORT WAYNE, IN, 46845",606522565,"L"
616089,"4213 EAST TEMPLE HEIGHTS RD","TAMPA","FL",33617,28.03621359,-82.411839936,89,"4213 EAST TEMPLE HEIGHTS RD, TAMPA, FL, 33617","Match","Exact","4213 E TEMPLE HEIGHTS RD, TAMPA, FL, 33617",104531613,"R"
616090,"4213 EDITH LANE UNIT A","GREENSBORO","NC",27409,36.062702003,-79.888981305,90,"4213 EDITH LANE UNIT A, GREENSBORO, NC, 27409","Match","Exact","4213 EDITH LN, GREENSBORO, NC, 27409",131109002,"L"
616091,"4213 FAIRWOOD PLACE","MIDLAND","TX",79707,32.046903209,-102.148581214,91,"4213 FAIRWOOD PLACE, MIDLAND, TX, 79707","Match","Exact","4213 FAIRWOOD PL, MIDLAND, TX, 79707",139597328,"L"
616092,"4213 FARA BINDO AVE","MODESTO","CA",95355,37.6632051130001,-120.916753566,92,"4213 FARA BINDO AVE, MODESTO, CA, 95355","Match","Non_Exact","4213 FARA BIUNDO DR, MODESTO, CA, 95355",102629333,"L"
616093,"4213 FELLOWSHIP RD STE C","TUCKER","GA",30084,33.8532810070001,-84.218267789,93,"4213 FELLOWSHIP RD STE C, TUCKER, GA, 30084","Match","Exact","4213 FELLOWSHIP RD, TUCKER, GA, 30084",23363527,"R"
616094,"4213 FELLOWSHIP RD STE C1","TUCKER","GA",30084,33.8532810070001,-84.218267789,94,"4213 FELLOWSHIP RD STE C1, TUCKER, GA, 30084","Match","Exact","4213 FELLOWSHIP RD, TUCKER, GA, 30084",23363527,"R"
616095,"4213 FILTER PLANT ROAD","FORT COLLINS","CO",80512,40.648474548,-105.190083006,95,"4213 FILTER PLANT ROAD, FORT COLLINS, CO, 80512","Match","Non_Exact","4213 FILTER PLANT RD, BELLVUE, CO, 80512",188621695,"L"
616096,"4213 FM 902","HOWE","TX",75459,33.5168844830001,-96.559445571,96,"4213 FM 902, HOWE, TX, 75459","Match","Exact","4213 FM 902, HOWE, TX, 75459",643015062,"L"
616097,"4213 GLENMAWR AVE","COLUMBUS","OH",43224,40.0508573970001,-82.996690287,97,"4213 GLENMAWR AVE, COLUMBUS, OH, 43224","Match","Exact","4213 GLENMAWR AVE, COLUMBUS, OH, 43224",218697076,"L"
616098,"4213 GREEN VIEW DR","DENAIR","CA",95316,37.531388215,-120.800223997,98,"4213 GREEN VIEW DR, DENAIR, CA, 95316","Match","Non_Exact","4213 GREENVIEW DR, DENAIR, CA, 95316",102597207,"R"
616099,"4213 GROVE AVENUE APT 1","RICHMOND","VA",23221,37.563412391,-77.4953911109999,99,"4213 GROVE AVENUE APT 1, RICHMOND, VA, 23221","Match","Exact","4213 GROVE AVE, RICHMOND, VA, 23221",201534724,"L"
616100,"4213 HERRERA COURT","RANDALLSTOWN","MD",21133,39.383674479,-76.841005364,100,"4213 HERRERA COURT, RANDALLSTOWN, MD, 21133","Match","Exact","4213 HERRERA CT, RANDALLSTOWN, MD, 21133",632191547,"L"
616101,"4213 HERRERA CT","RANDALLSTOWN","MD",21133,39.383674479,-76.841005364,101,"4213 HERRERA CT, RANDALLSTOWN, MD, 21133","Match","Exact","4213 HERRERA CT, RANDALLSTOWN, MD, 21133",632191547,"L"
616102,"4213 HIGHLAND PARK DR","COLUMBIA","SC",29204,34.0555154360001,-80.994749024,102,"4213 HIGHLAND PARK DR, COLUMBIA, SC, 29204","Match","Exact","4213 HIGHLAND PARK DR, COLUMBIA, SC, 29204",71846762,"L"
616103,"4213 HILTON AVE NE","ALBUQUERQUE","NM",87110,35.127738666,-106.597627131,103,"4213 HILTON AVE NE, ALBUQUERQUE, NM, 87110","Match","Exact","4213 HILTON AVE NE, ALBUQUERQUE, NM, 87110",206712401,"L"
616104,"4213 JUSTIN LANE","DEER PARK","TX",77536,29.674203977,-95.114421024,104,"4213 JUSTIN LANE, DEER PARK, TX, 77536","Match","Non_Exact","4213 JUSTIN, DEER PARK, TX, 77536",96106402,"L"
616105,"4213 JUSTIN LANE","LA PORTE","TX",77532,NA,NA,105,"4213 JUSTIN LANE, LA PORTE, TX, 77532","No_Match",NA,NA,NA,NA
616106,"4213 LEE BLVD","LEHIGH ACRES","FL",33971,26.6168653600001,-81.708455844,106,"4213 LEE BLVD, LEHIGH ACRES, FL, 33971","Match","Exact","4213 LEE BLVD, LEHIGH ACRES, FL, 33971",650026609,"L"
616107,"4213 LEO LANE","LOUISVILLE","KY",40299,38.1844701270001,-85.573286595,107,"4213 LEO LANE, LOUISVILLE, KY, 40299","Match","Exact","4213 LEO LN, LOUISVILLE, KY, 40299",96866777,"L"
616108,"4213 LOCH RAVEN BLVD","BALTIMORE","MD",21228,39.341759439,-76.592989216,108,"4213 LOCH RAVEN BLVD, BALTIMORE, MD, 21228","Match","Non_Exact","4213 LOCH RAVEN BLVD, BALTIMORE, MD, 21218",206430431,"L"
616109,"4213 LORI LANE","BAY CITY","TX",77414,28.9608479250001,-95.9855770199999,109,"4213 LORI LANE, BAY CITY, TX, 77414","Match","Exact","4213 LORI LN, BAY CITY, TX, 77414",648194643,"R"
616110,"4213 LORION DRIVE","ROCKWALL","TX",75087,32.9753298370001,-96.450593762,110,"4213 LORION DRIVE, ROCKWALL, TX, 75087","Match","Exact","4213 LORION DR, ROCKWALL, TX, 75087",648409587,"L"
616111,"4213 MARBELLA DRIVE","FLOWER MOUND","TX",75022,33.0318842950001,-97.095731431,111,"4213 MARBELLA DRIVE, FLOWER MOUND, TX, 75022","Match","Exact","4213 MARBELLA DR, FLOWER MOUND, TX, 75022",103409802,"L"
616112,"4213 MILLER ROAD","ST JOSEPH","MO",64505,39.8042826430001,-94.824667894,112,"4213 MILLER ROAD, ST JOSEPH, MO, 64505","Match","Exact","4213 MILLER RD, SAINT JOSEPH, MO, 64505",15978763,"R"
616113,"4213 MOONBEAM WAY","SNELLVILLE","GA",30039,33.8064423610001,-84.054701101,113,"4213 MOONBEAM WAY, SNELLVILLE, GA, 30039","Match","Exact","4213 MOONBEAM WAY, SNELLVILLE, GA, 30039",624250753,"R"
616114,"4213 N LIONS AVE","BROKEN ARROW","OK",74012,36.093370873,-95.7998901779999,114,"4213 N LIONS AVE, BROKEN ARROW, OK, 74012","Match","Exact","4213 N LIONS AVE, BROKEN ARROW, OK, 74012",166500070,"R"
616115,"4213 N WOODBURN ST","SHOREWOOD","WI",53211,43.091903813,-87.893541101,115,"4213 N WOODBURN ST, SHOREWOOD, WI, 53211","Match","Exact","4213 N WOODBURN ST, SHOREWOOD, WI, 53211",77743173,"L"
616116,"4213 NW 21ST ST","OKLAHOMA CITY","OK",73107,35.4916480370001,-97.5948323169999,116,"4213 NW 21ST ST, OKLAHOMA CITY, OK, 73107","Match","Exact","4213 NW 21ST ST, OKLAHOMA CITY, OK, 73107",100391599,"R"
616117,"4213 OCTAN ST","NORTH LAS VEGAS","NV",89032,NA,NA,117,"4213 OCTAN ST, NORTH LAS VEGAS, NV, 89032","No_Match",NA,NA,NA,NA
616118,"4213 OXFORD MILL ROAD","WAXHAW","NC",28173,34.9646316220001,-80.732553764,118,"4213 OXFORD MILL ROAD, WAXHAW, NC, 28173","Match","Exact","4213 OXFORD MILL RD, WAXHAW, NC, 28173",650599827,"L"
616119,"4213 PALLISTER DR","CLEVELAND","OH",44105,41.4563987780001,-81.661285758,119,"4213 PALLISTER DR, CLEVELAND, OH, 44105","Match","Exact","4213 PALLISTER DR, CLEVELAND, OH, 44105",61117910,"L"
616120,"4213 PARKVIEW TERRACE LANE","DICKINSON","TX",77539,29.4359741960001,-95.104382249,120,"4213 PARKVIEW TERRACE LANE, DICKINSON, TX, 77539","Match","Exact","4213 PARKVIEW TERRACE LN, DICKINSON, TX, 77539",619913834,"L"
616121,"4213 PEBBLE GARDEN WAY","BIRMINGHAM","AL",35235,33.6313922860001,-86.648492967,121,"4213 PEBBLE GARDEN WAY, BIRMINGHAM, AL, 35235","Match","Exact","4213 PEBBLE GARDEN WAY, BIRMINGHAM, AL, 35235",81656716,"L"
616122,"4213 PINE HEIGHTS DR NE","ATLANTA","GA",30324,33.8292803950001,-84.3575636689999,122,"4213 PINE HEIGHTS DR NE, ATLANTA, GA, 30324","Match","Non_Exact","4213 PINE HEIGHTS DR, ATLANTA, GA, 30324",624900473,"L"
616123,"4213 RACCOON LOOP","NEW PORT RICHEY","FL",34653,28.220230741,-82.6746441289999,123,"4213 RACCOON LOOP, NEW PORT RICHEY, FL, 34653","Match","Exact","4213 RACCOON LOOP, NEW PORT RICHEY, FL, 34653",86350672,"L"
616124,"4213 S BRANDON","SEATTLE","WA",98118,47.5534002260001,-122.280551918,124,"4213 S BRANDON, SEATTLE, WA, 98118","Match","Non_Exact","4213 S BRANDON ST, SEATTLE, WA, 98118",239763215,"R"
616125,"4213 S MCCLUNG DR","LOS ANGELES","CA",90008,34.0079447530001,-118.334076334,125,"4213 S MCCLUNG DR, LOS ANGELES, CA, 90008","Match","Exact","4213 MCCLUNG DR, LOS ANGELES, CA, 90008",647682075,"R"
616126,"4213 SCENIC MOUNTAIN DR","SNELLVILLE","GA",30039,33.8405000430001,-84.075501806,126,"4213 SCENIC MOUNTAIN DR, SNELLVILLE, GA, 30039","Match","Non_Exact","4213 SCENIC MOUNTAIN DR SW, SNELLVILLE, GA, 30039",88904298,"R"
616127,"4213 SHASTA CIRCLE","CLOVER","SC",29710,35.123364103,-81.211130827,127,"4213 SHASTA CIRCLE, CLOVER, SC, 29710","Match","Exact","4213 SHASTA CIR, CLOVER, SC, 29710",628038686,"L"
616128,"4213 SOUTH 78TH STREET","GREENFIELD","WI",53220,42.9684949140001,-88.010968334,128,"4213 SOUTH 78TH STREET, GREENFIELD, WI, 53220","Match","Exact","4213 S 78TH ST, GREENFIELD, WI, 53220",77748031,"R"
616129,"4213 SOUTH CENTER BLVD APT B21","TUKWILA","WA",98188,47.4659658690001,-122.280817078,129,"4213 SOUTH CENTER BLVD APT B21, TUKWILA, WA, 98188","Match","Non_Exact","4213 SOUTHCENTER BLVD, TUKWILA, WA, 98188",239773510,"R"
616130,"4213 SUMMERDALE DRIVE","TAMPA","FL",33624,28.103817114,-82.514594093,130,"4213 SUMMERDALE DRIVE, TAMPA, FL, 33624","Match","Exact","4213 SUMMERDALE DR, TAMPA, FL, 33624",104509993,"R"
616131,"4213 SWAN FOREST DRIVE","CARROLLTON","TX",75010,33.0254929710001,-96.8940646899999,131,"4213 SWAN FOREST DRIVE, CARROLLTON, TX, 75010","Match","Exact","4213 SWAN FOREST DR, CARROLLTON, TX, 75010",641535652,"L"
616132,"4213 TYLER AVE","MCALLEN","TX",78503,26.1898276430001,-98.2705052109999,132,"4213 TYLER AVE, MCALLEN, TX, 78503","Match","Exact","4213 TYLER AVE, MCALLEN, TX, 78503",632843257,"L"
616133,"4213 VERMONT AVE","BALTIMORE","MD",21229,NA,NA,133,"4213 VERMONT AVE, BALTIMORE, MD, 21229","No_Match",NA,NA,NA,NA
616134,"4213 VICTORIA LAKES DR W","JACKSONVILLE","FL",32226,30.483629512,-81.573387539,134,"4213 VICTORIA LAKES DR W, JACKSONVILLE, FL, 32226","Match","Non_Exact","4213 VICTORIA LAKES DR, JACKSONVILLE, FL, 32226",647389383,"R"
616135,"4213 VINEYARD RIDGE DRIVE","ZEBULON","NC",27597,35.858481096,-78.327988574,135,"4213 VINEYARD RIDGE DRIVE, ZEBULON, NC, 27597","Match","Exact","4213 VINEYARD RIDGE DR, ZEBULON, NC, 27597",646926012,"L"
616136,"4213 WANDERING CREEK","CORPUS CHRISTI","TX",78410,27.8464473060001,-97.5954503089999,136,"4213 WANDERING CREEK, CORPUS CHRISTI, TX, 78410","Match","Non_Exact","4213 WANDERING CREEK DR, CORPUS CHRISTI, TX, 78410",178511320,"R"
616137,"4213 WEST 90TH PLACE","HOMETOWN","IL",60456,41.7282286010001,-87.726869261,137,"4213 WEST 90TH PLACE, HOMETOWN, IL, 60456","Match","Exact","4213 W 90TH PL, HOMETOWN, IL, 60456",111875693,"L"
616138,"4213 WOODBLUFF DRIVE","MESQUITE","TX",75150,32.8218090890001,-96.600843743,138,"4213 WOODBLUFF DRIVE, MESQUITE, TX, 75150","Match","Exact","4213 WOODBLUFF DR, MESQUITE, TX, 75150",102933192,"R"
616139,"42130 SUTTERS LANE","NORTHVILLE TOWNSHIP","MI",48168,42.403938231,-83.4577880699999,139,"42130 SUTTERS LANE, NORTHVILLE TOWNSHIP, MI, 48168","Match","Non_Exact","42130 SUTTERS LN, NORTHVILLE, MI, 48168",95405520,"R"
616140,"42130 US HWY 96S","BUNA","TX",77612,NA,NA,140,"42130 US HWY 96S, BUNA, TX, 77612","No_Match",NA,NA,NA,NA
616141,"42131 260TH ST","REMSEN","IA",51050,42.6778232230001,-95.9948289229999,141,"42131 260TH ST, REMSEN, IA, 51050","Match","Exact","42131 260TH ST, REMSEN, IA, 51050",93325688,"R"
616142,"42135 RUBICON CIRCLE","TEMECULA","CA",92591,33.5115809440001,-117.130948091,142,"42135 RUBICON CIRCLE, TEMECULA, CA, 92591","Match","Exact","42135 RUBICON CIR, TEMECULA, CA, 92591",194826269,"L"
616143,"42135 W CENTENNIAL CT","MARICOPA","AZ",85139,33.0508665790001,-112.020374676,143,"42135 W CENTENNIAL CT, MARICOPA, AZ, 85139","Match","Non_Exact","42135 CENTENNIAL CT, MARICOPA, AZ, 85138",627563905,"R"
616144,"42138 DOWNEY ROAD","SLIDELL","LA",70461,30.2322596700001,-89.698901244,144,"42138 DOWNEY ROAD, SLIDELL, LA, 70461","Match","Exact","42138 DOWNEY RD, SLIDELL, LA, 70461",634173653,"L"
616145,"4214 11TH AVE NE","SEATTLE","WA",98105,47.658888695,-122.316631651,145,"4214 11TH AVE NE, SEATTLE, WA, 98105","Match","Exact","4214 11TH AVE NE, SEATTLE, WA, 98105",637901264,"R"
616146,"4214 2ND STREET NW UNIT 3","WASHINGTON","DC",20011,38.942431039,-77.013734391,146,"4214 2ND STREET NW UNIT 3, WASHINGTON, DC, 20011","Match","Exact","4214 2ND ST NW, WASHINGTON, DC, 20011",76223939,"L"
616147,"4214 38TH STREET NW","WASHINGTON","DC",20016,38.944053947,-77.0746122469999,147,"4214 38TH STREET NW, WASHINGTON, DC, 20016","Match","Exact","4214 38TH ST NW, WASHINGTON, DC, 20016",76220483,"L"
616148,"4214 39TH AVENUE COURT NW","GIG HARBOR","WA",98335,47.296275511,-122.592220829,148,"4214 39TH AVENUE COURT NW, GIG HARBOR, WA, 98335","Match","Exact","4214 39TH AVENUE CT NW, GIG HARBOR, WA, 98335",184676152,"L"
616149,"4214 41ST AVE NW","HACKENSACK","MN",56452,46.9542006840001,-94.5027463489999,149,"4214 41ST AVE NW, HACKENSACK, MN, 56452","Match","Non_Exact","4214 41ST ST NW, HACKENSACK, MN, 56452",612349338,"R"
616150,"4214 58TH ST CT NW","GIG HARBOR","WA",98335,47.310938257,-122.59592163,150,"4214 58TH ST CT NW, GIG HARBOR, WA, 98335","Match","Exact","4214 58TH STREET CT NW, GIG HARBOR, WA, 98335",184641954,"R"
616151,"4214 AUTUMN HILL DR","STONE MOUNTAIN","GA",30083,33.759670891,-84.216490547,151,"4214 AUTUMN HILL DR, STONE MOUNTAIN, GA, 30083","Match","Exact","4214 AUTUMN HILL DR, STONE MOUNTAIN, GA, 30083",23389592,"L"
616152,"4214 AVENUE D","AUSTIN","TX",78751,30.305979504,-97.731323695,152,"4214 AVENUE D, AUSTIN, TX, 78751","Match","Exact","4214 AVE D, AUSTIN, TX, 78751",63953685,"R"
616153,"4214 BAYSTONE CT","ROWLETT","TX",75088,32.8785999780001,-96.5630103999999,153,"4214 BAYSTONE CT, ROWLETT, TX, 75088","Match","Exact","4214 BAYSTONE CT, ROWLETT, TX, 75088",103173528,"L"
616154,"4214 BETHEL CHURCH RD L32","COLUMBIA","SC",29206,34.030384896,-80.978004364,154,"4214 BETHEL CHURCH RD L32, COLUMBIA, SC, 29206","Match","Exact","4214 BETHEL CHURCH RD, COLUMBIA, SC, 29206",604768084,"R"
616155,"4214 BLOOMINGDALE DR","HILLSBOROUGH","NJ",8844,NA,NA,155,"4214 BLOOMINGDALE DR, HILLSBOROUGH, NJ, 8844","No_Match",NA,NA,NA,NA
616156,"4214 BOUNDARY STREET","SAN DIEGO","CA",92104,32.7542059840001,-117.125267777,156,"4214 BOUNDARY STREET, SAN DIEGO, CA, 92104","Match","Exact","4214 BOUNDARY ST, SAN DIEGO, CA, 92104",195345750,"L"
616157,"4214 CANDLER AVENUE","SPRING HILL","FL",34609,28.4931658680001,-82.528247247,157,"4214 CANDLER AVENUE, SPRING HILL, FL, 34609","Match","Exact","4214 CANDLER AVE, SPRING HILL, FL, 34609",85447431,"R"
616158,"4214 CANIPE LANE","CHARLOTTE","NC",28269,35.3513163690001,-80.815294852,158,"4214 CANIPE LANE, CHARLOTTE, NC, 28269","Match","Non_Exact","4214 CANIPE DR, CHARLOTTE, NC, 28269",70543921,"R"
616159,"4214 CARRINGTON DR","GARLAND","TX",75043,32.85849125,-96.566364592,159,"4214 CARRINGTON DR, GARLAND, TX, 75043","Match","Exact","4214 CARRINGTON DR, GARLAND, TX, 75043",103241526,"L"
616160,"4214 CATALPA LN","AMARILLO","TX",79110,35.141134541,-101.884809067,160,"4214 CATALPA LN, AMARILLO, TX, 79110","Match","Exact","4214 CATALPA LN, AMARILLO, TX, 79110",182658236,"R"
616161,"4214 CHAMBERLAYNE APT D","RICHMOND","VA",23227,37.5920346070001,-77.448661504,161,"4214 CHAMBERLAYNE APT D, RICHMOND, VA, 23227","Match","Non_Exact","4214 CHAMBERLAYNE AVE, RICHMOND, VA, 23227",610882429,"L"
616162,"4214 COMMON CIRCLE","VICKSBURG","MS",39180,NA,NA,162,"4214 COMMON CIRCLE, VICKSBURG, MS, 39180","No_Match",NA,NA,NA,NA
616163,"4214 DUNSMUIR AVENUE","OAKLAND","CA",94619,37.7955541970001,-122.189535215,163,"4214 DUNSMUIR AVENUE, OAKLAND, CA, 94619","Match","Exact","4214 DUNSMUIR AVE, OAKLAND, CA, 94619",125004743,"R"
616164,"4214 E FREDERICK AVE","SPOKANE","WA",99217,47.6857477200001,-117.348441109,164,"4214 E FREDERICK AVE, SPOKANE, WA, 99217","Match","Exact","4214 E FREDERICK AVE, SPOKANE, WA, 99217",189884151,"R"
616165,"4214 EADS STREET NE","WASHINGTON","DC",20019,38.8959421930001,-76.942119346,165,"4214 EADS STREET NE, WASHINGTON, DC, 20019","Match","Exact","4214 EADS ST NE, WASHINGTON, DC, 20019",76233172,"L"
616166,"4214 EL RANCHO DRIVE","ALLISON PARK","PA",15101,40.5721913740001,-79.9691642989999,166,"4214 EL RANCHO DRIVE, ALLISON PARK, PA, 15101","Match","Exact","4214 EL RANCHO DR, ALLISON PARK, PA, 15101",51608625,"L"
616167,"4214 ELDERBUSH CIRCLE","GREENSBORO","NC",27405,36.1751284420001,-79.701430877,167,"4214 ELDERBUSH CIRCLE, GREENSBORO, NC, 27405","Match","Exact","4214 ELDERBUSH CIR, GREENSBORO, NC, 27405",131119565,"R"
616168,"4214 ENFIELD AVE","SKOKIE","IL",60076,42.04168007,-87.733103353,168,"4214 ENFIELD AVE, SKOKIE, IL, 60076","Match","Exact","4214 ENFIELD AVE, SKOKIE, IL, 60076",111739310,"R"
616169,"4214 FIRENZE DR","BOSSIER CITY","LA",71111,32.535438566,-93.663107704,169,"4214 FIRENZE DR, BOSSIER CITY, LA, 71111","Match","Exact","4214 FIRENZE DR, BOSSIER CITY, LA, 71111",651775385,"R"
616170,"4214 FOX CREEK","MOUNT VERNON","IL",62864,38.3212462010001,-88.942865854,170,"4214 FOX CREEK, MOUNT VERNON, IL, 62864","Match","Non_Exact","4214 FOX CREEK RD, MOUNT VERNON, IL, 62864",92887171,"L"
616171,"4214 GRAY STREET PO BOX 526","COLLEGE STATION","AR",72053,34.706055324,-92.223946214,171,"4214 GRAY STREET PO BOX 526, COLLEGE STATION, AR, 72053","Match","Non_Exact","4214 GRAY RD, COLLEGE STA, AR, 72053",83602682,"R"
616172,"4214 GUNTHER AVE","BRONX","NY",10466,40.894249114,-73.849902486,172,"4214 GUNTHER AVE, BRONX, NY, 10466","Match","Exact","4214 GUNTHER AVE, BRONX, NY, 10466",80297608,"R"
616173,"4214 HWY 5","BENTON","AR",72019,34.6017363670001,-92.614223223,173,"4214 HWY 5, BENTON, AR, 72019","Match","Non_Exact","4214 STATE HWY 5, BENTON, AR, 72019",645756135,"L"
616174,"4214 IBERVILLE ST","NEW ORLEANS","LA",70119,29.976731795,-90.101623386,174,"4214 IBERVILLE ST, NEW ORLEANS, LA, 70119","Match","Exact","4214 IBERVILLE ST, NEW ORLEANS, LA, 70119",191706808,"L"
616175,"4214 LAWNDALE AVENUE","CHICAGO","IL",60618,41.957762507,-87.720387753,175,"4214 LAWNDALE AVENUE, CHICAGO, IL, 60618","Match","Non_Exact","4214 N LAWNDALE AVE, CHICAGO, IL, 60618",111756373,"L"
616176,"4214 LEAFLOCK LN","FULSHEAR","TX",77441,NA,NA,176,"4214 LEAFLOCK LN, FULSHEAR, TX, 77441","No_Match",NA,NA,NA,NA
616177,"4214 MIDDLEBROOK STREET","FAIRFAX","VA",22032,38.8323163900001,-77.26465038,177,"4214 MIDDLEBROOK STREET, FAIRFAX, VA, 22032","Match","Exact","4214 MIDDLEBROOK ST, FAIRFAX, VA, 22032",75970489,"R"
616178,"4214 N 490 E","PROVO","UT",84604,40.2895213300001,-111.650052201,178,"4214 N 490 E, PROVO, UT, 84604","Match","Exact","4214 N 490 E, PROVO, UT, 84604",134240175,"R"
616179,"4214 N 490","PROVO","UT",84604,40.2895213300001,-111.650052201,179,"4214 N 490, PROVO, UT, 84604","Match","Non_Exact","4214 N 490 E, PROVO, UT, 84604",134240175,"R"
616180,"4214 N DELLROSE CIRCLE","WICHITA","KS",67220,37.760208344,-97.281469241,180,"4214 N DELLROSE CIRCLE, WICHITA, KS, 67220","Match","Exact","4214 N DELLROSE CIR, WICHITA, KS, 67220",115716002,"R"
616181,"4214 N PULASKI RD APT 1W","CHICAGO","IL",60641,41.957633957,-87.7277390689999,181,"4214 N PULASKI RD APT 1W, CHICAGO, IL, 60641","Match","Non_Exact","4214 N PULASKI RD, CHICAGO, IL, 60641",605187221,"L"
616182,"4214 N RIVERVIEW RD","JOHNSBURG","IL",60051,42.3885279470001,-88.223164117,182,"4214 N RIVERVIEW RD, JOHNSBURG, IL, 60051","Match","Non_Exact","4214 RIVERVIEW DR, JOHNSBURG, IL, 60051",119814670,"L"
616183,"4214 N WASHINGTON","SPOKANE","WA",99205,NA,NA,183,"4214 N WASHINGTON, SPOKANE, WA, 99205","No_Match",NA,NA,NA,NA
616184,"4214 NE 25TH AVE","PORTLAND","OR",97211,45.5537857620001,-122.639941838,184,"4214 NE 25TH AVE, PORTLAND, OR, 97211","Match","Exact","4214 NE 25TH AVE, PORTLAND, OR, 97211",157505984,"R"
616185,"4214 NW 21ST TERRACE","OKLAHOMA CITY","OK",73107,35.4909537350001,-97.5943755389999,185,"4214 NW 21ST TERRACE, OKLAHOMA CITY, OK, 73107","Match","Exact","4214 NW 21ST TER, OKLAHOMA CITY, OK, 73107",100391602,"L"
616186,"4214 OAK BEACH ROAD","BABYLON","NY",11702,NA,NA,186,"4214 OAK BEACH ROAD, BABYLON, NY, 11702","No_Match",NA,NA,NA,NA
616187,"4214 PARKWOOD DR","SAN ANTONIO","TX",78218,29.481628019,-98.411057409,187,"4214 PARKWOOD DR, SAN ANTONIO, TX, 78218","Match","Exact","4214 PARKWOOD DR, SAN ANTONIO, TX, 78218",101530378,"R"
616188,"4214 PAUGER ST","NEW ORLEANS","LA",70122,30.0009602490001,-90.063010645,188,"4214 PAUGER ST, NEW ORLEANS, LA, 70122","Match","Exact","4214 PAUGER ST, NEW ORLEANS, LA, 70122",191708885,"L"
616189,"4214 PEBBLE GARDEN WAY","BIRMINGHAM","AL",35235,33.6314024480001,-86.64845346,189,"4214 PEBBLE GARDEN WAY, BIRMINGHAM, AL, 35235","Match","Exact","4214 PEBBLE GARDEN WAY, BIRMINGHAM, AL, 35235",81656716,"R"
616190,"4214 REDBIRD LN","JOSHUA","TX",76058,32.4324984740001,-97.382522136,190,"4214 REDBIRD LN, JOSHUA, TX, 76058","Match","Exact","4214 REDBIRD LN, JOSHUA, TX, 76058",650496137,"R"
616191,"4214 ROOSEVELT WAY NE","SEATTLE","WA",98105,47.6591615520001,-122.317749287,191,"4214 ROOSEVELT WAY NE, SEATTLE, WA, 98105","Match","Exact","4214 ROOSEVELT WAY NE, SEATTLE, WA, 98105",186586917,"R"
616192,"4214 ROXTON","AMARILLO","TX",79109,35.165828365,-101.913752472,192,"4214 ROXTON, AMARILLO, TX, 79109","Match","Non_Exact","4214 ROXTON DR, AMARILLO, TX, 79109",182652848,"R"
616193,"4214 RUE DE VALEUR PLACE","BAKER","LA",70714,30.576205481,-91.158365442,193,"4214 RUE DE VALEUR PLACE, BAKER, LA, 70714","Match","Exact","4214 RUE DE VALEUR PL, BAKER, LA, 70714",92178257,"R"
616194,"4214 S ST LAWRENCE AVE 2","CHICAGO","IL",60653,41.8180477270001,-87.6116791649999,194,"4214 S ST LAWRENCE AVE 2, CHICAGO, IL, 60653","Match","Non_Exact","4214 S SAINT LAWRENCE AVE, CHICAGO, IL, 60653",111770745,"R"
616195,"4214 SAINT ELIZABETH DRIVE","KENNER","LA",70065,30.042211912,-90.276088768,195,"4214 SAINT ELIZABETH DRIVE, KENNER, LA, 70065","Match","Exact","4214 SAINT ELIZABETH DR, KENNER, LA, 70065",93490819,"L"
616196,"4214 SANDY SHORES DRIVE","LUTZ","FL",33558,28.1581547640001,-82.5090683289999,196,"4214 SANDY SHORES DRIVE, LUTZ, FL, 33558","Match","Exact","4214 SANDY SHORES DR, LUTZ, FL, 33558",633397019,"R"
616197,"4214 SAWMILL TRACE DRIVE","CHARLOTTE","NC",28213,35.2914182440001,-80.688775683,197,"4214 SAWMILL TRACE DRIVE, CHARLOTTE, NC, 28213","Match","Exact","4214 SAWMILL TRACE DR, CHARLOTTE, NC, 28213",70562595,"R"
616198,"4214 SCOTLAND DRIVE","GRAND PRAIRIE","TX",75052,32.6668396920001,-97.049313494,198,"4214 SCOTLAND DRIVE, GRAND PRAIRIE, TX, 75052","Match","Exact","4214 SCOTLAND DR, GRAND PRAIRIE, TX, 75052",101914257,"R"
616199,"4214 SOUTH CALHOUN ST","FORT WAYNE","IN",46807,41.046669637,-85.1372004259999,199,"4214 SOUTH CALHOUN ST, FORT WAYNE, IN, 46807","Match","Exact","4214 S CALHOUN ST, FORT WAYNE, IN, 46807",6382472,"R"
616200,"4214 STEEPLEHILL DR NW","KENNESAW","GA",30144,34.0563950280001,-84.628148934,200,"4214 STEEPLEHILL DR NW, KENNESAW, GA, 30144","Match","Exact","4214 STEEPLEHILL DR NW, KENNESAW, GA, 30144",17226927,"R"
616201,"4214 STILMORE RD","SOUTH EUCLID","OH",44121,41.5071438000001,-81.5292952839999,201,"4214 STILMORE RD, SOUTH EUCLID, OH, 44121","Match","Exact","4214 STILMORE RD, SOUTH EUCLID, OH, 44121",61125682,"R"
616202,"4214 STONEWALL ST","HOUSTON","TX",77020,29.7734297810001,-95.328137063,202,"4214 STONEWALL ST, HOUSTON, TX, 77020","Match","Exact","4214 STONEWALL ST, HOUSTON, TX, 77020",96585487,"R"
616203,"4214 STONEY KNOLL LANE","KATY","TX",77494,29.7282149370001,-95.815496366,203,"4214 STONEY KNOLL LANE, KATY, TX, 77494","Match","Exact","4214 STONEY KNOLL LN, KATY, TX, 77494",627559164,"R"
616204,"4214 SUDBURY RD","CHARLOTTE","NC",28205,35.221443869,-80.755160281,204,"4214 SUDBURY RD, CHARLOTTE, NC, 28205","Match","Exact","4214 SUDBURY RD, CHARLOTTE, NC, 28205",70492094,"R"
616205,"4214 SUNSET DR W","UNIVERSITY PLACE","WA",98466,47.218431158,-122.545136002,205,"4214 SUNSET DR W, UNIVERSITY PLACE, WA, 98466","Match","Exact","4214 SUNSET DR W, UNIVERSITY PLACE, WA, 98466",184657863,"R"
616206,"4214 TAMARISK CT","LAWRENCE","KS",66047,38.9379338890001,-95.2951365179999,206,"4214 TAMARISK CT, LAWRENCE, KS, 66047","Match","Exact","4214 TAMARISK CT, LAWRENCE, KS, 66047",17709910,"R"
616207,"4214 THREE OAKS DRIVE","TROY","MI",48908,NA,NA,207,"4214 THREE OAKS DRIVE, TROY, MI, 48908","No_Match",NA,NA,NA,NA
616208,"4214 TYLERGATE DR","HOUSTON","TX",77373,30.0449191820001,-95.36983265,208,"4214 TYLERGATE DR, HOUSTON, TX, 77373","Match","Non_Exact","4214 TYLERGATE DR, SPRING, TX, 77373",96042728,"L"
616209,"4214 VERONIA COURT","INDIANAPOLIS","IN",46235,39.833777889,-86.007372048,209,"4214 VERONIA COURT, INDIANAPOLIS, IN, 46235","Match","Non_Exact","4214 VERONA CT, INDIANAPOLIS, IN, 46235",646598928,"L"
616210,"4214 W WENDOVER AVE UNIT 1047","GREENSBORO","NC",27407,36.0587507450001,-79.886116312,210,"4214 W WENDOVER AVE UNIT 1047, GREENSBORO, NC, 27407","Match","Non_Exact","4214 W WENDOVER AVE, GREENSBORO, NC, 27407",131095750,"R"
616211,"4214 WEST MLK HIGHWAY 80","TUSKEGEE","AL",36083,32.3985526450001,-85.7450273919999,211,"4214 WEST MLK HIGHWAY 80, TUSKEGEE, AL, 36083","Match","Exact","4214 W MARTIN LUTHER KING HWY, TUSKEGEE, AL, 36083",652560983,"R"
616212,"4214 WOODFIN DR","DALLAS","TX",75220,32.871181823,-96.837837286,212,"4214 WOODFIN DR, DALLAS, TX, 75220","Match","Exact","4214 WOODFIN DR, DALLAS, TX, 75220",103205329,"R"
616213,"4214 YUMA DRIVE","MADISON","WI",53711,43.045753432,-89.448388031,213,"4214 YUMA DRIVE, MADISON, WI, 53711","Match","Exact","4214 YUMA DR, MADISON, WI, 53711",49468269,"R"
616214,"42140 BLACK HILLS PL","ALDIE","VA",20105,38.9284340930001,-77.544941907,214,"42140 BLACK HILLS PL, ALDIE, VA, 20105","Match","Exact","42140 BLACK HILLS PL, ALDIE, VA, 20105",218898637,"L"
616215,"42141 GRADY TERRACE","ALDIE","VA",20105,38.904937708,-77.545668166,215,"42141 GRADY TERRACE, ALDIE, VA, 20105","Match","Exact","42141 GRADY TER, ALDIE, VA, 20105",641128407,"R"
616216,"42142 VILLANOVA","STERLING HEIGHTS","MI",48313,42.60598213,-82.9747198429999,216,"42142 VILLANOVA, STERLING HEIGHTS, MI, 48313","Match","Exact","42142 VILLANOVA, STERLING HEIGHTS, MI, 48313",110696943,"R"
616217,"4215 11TH PLACE SW","VERO BEACH","FL",32968,27.5829019350001,-80.428694912,217,"4215 11TH PLACE SW, VERO BEACH, FL, 32968","Match","Exact","4215 11TH PL SW, VERO BEACH, FL, 32968",120318185,"R"
616218,"4215 12TH AVE","SACRAMENTO","CA",95817,38.541194325,-121.457585682,218,"4215 12TH AVE, SACRAMENTO, CA, 95817","Match","Exact","4215 12TH AVE, SACRAMENTO, CA, 95817",133327210,"L"
616219,"4215 131ST STREET","HAMILTON","MI",49419,42.642665289,-85.9583290799999,219,"4215 131ST STREET, HAMILTON, MI, 49419","Match","Non_Exact","4215 131ST AVE, HAMILTON, MI, 49419",11438736,"L"
616220,"4215 132ND STREET","WEEPING WATER","NE",68463,40.86306854,-96.12095687,220,"4215 132ND STREET, WEEPING WATER, NE, 68463","Match","Exact","4215 132ND ST, WEEPING WATER, NE, 68463",10365572,"R"
616221,"4215 13TH PLACE NE","WASHINGTON","DC",20017,38.9408650570001,-76.9871292889999,221,"4215 13TH PLACE NE, WASHINGTON, DC, 20017","Match","Exact","4215 13TH PL NE, WASHINGTON, DC, 20017",76228350,"R"
616222,"4215 175TH ST NORTHEAST","ST. CHARLES","MN",55972,44.0652248430001,-92.129175371,222,"4215 175TH ST NORTHEAST, ST. CHARLES, MN, 55972","Match","Non_Exact","4215 175TH AVE NE, SAINT CHARLES, MN, 55972",612115503,"R"
616223,"4215 28TH COURT","VERO BEACH","FL",32967,27.6697678520001,-80.414028848,223,"4215 28TH COURT, VERO BEACH, FL, 32967","Match","Exact","4215 28TH CT, VERO BEACH, FL, 32967",120304088,"L"
616224,"4215 42ND ST","DES MOINES","IA",50310,41.6369180410001,-93.674973829,224,"4215 42ND ST, DES MOINES, IA, 50310","Match","Exact","4215 42ND ST, DES MOINES, IA, 50310",65814082,"R"
616225,"4215 7TH AVE N","GREAT FALLS","MT",59405,47.5126985150001,-111.23345438,225,"4215 7TH AVE N, GREAT FALLS, MT, 59405","Match","Exact","4215 7TH AVE N, GREAT FALLS, MT, 59405",202227736,"L"
616226,"4215 ALMHERST LN","ROCKFORD","IL",61109,NA,NA,226,"4215 ALMHERST LN, ROCKFORD, IL, 61109","No_Match",NA,NA,NA,NA
616227,"4215 ANNAS RETREAT 177","ST THOMAS","VI",802,NA,NA,227,"4215 ANNAS RETREAT 177, ST THOMAS, VI, 802","No_Match",NA,NA,NA,NA
616228,"4215 AVENUE A","AUSTIN","TX",78751,30.3073184960001,-97.734025975,228,"4215 AVENUE A, AUSTIN, TX, 78751","Match","Exact","4215 AVE A, AUSTIN, TX, 78751",63945499,"R"
616229,"4215 BLACK OAK COURT","NEW ALBANY","IN",47150,38.3588383480001,-85.812244569,229,"4215 BLACK OAK COURT, NEW ALBANY, IN, 47150","Match","Exact","4215 BLACK OAK CT, NEW ALBANY, IN, 47150",89551147,"L"
616230,"4215 BONAPARTE COURT","TUCKER","GA",30084,33.8788874910001,-84.2148026629999,230,"4215 BONAPARTE COURT, TUCKER, GA, 30084","Match","Exact","4215 BONAPARTE CT, TUCKER, GA, 30084",23363381,"R"
616231,"4215 CALLAWAN CT","POWDER SPRINGS","GA",30127,33.884573059,-84.678855023,231,"4215 CALLAWAN CT, POWDER SPRINGS, GA, 30127","Match","Exact","4215 CALLAWAN CT, POWDER SPGS, GA, 30127",17236638,"R"
616232,"4215 CLOUD AVE","CLEVELAND","OH",44113,41.471460145,-81.7147404089999,232,"4215 CLOUD AVE, CLEVELAND, OH, 44113","Match","Exact","4215 CLOUD AVE, CLEVELAND, OH, 44113",638863070,"L"
616233,"4215 CORRIENTE PL","BOULDER","CO",80301,40.0458417020001,-105.255300219,233,"4215 CORRIENTE PL, BOULDER, CO, 80301","Match","Exact","4215 CORRIENTE PL, BOULDER, CO, 80301",188160884,"R"
616234,"4215 DAVID COX ROAD","CHARLOTTE","NC",28269,35.3381713210001,-80.801581986,234,"4215 DAVID COX ROAD, CHARLOTTE, NC, 28269","Match","Exact","4215 DAVID COX RD, CHARLOTTE, NC, 28269",611248859,"L"
616235,"4215 DURANT ROAD","VALRICO","FL",33596,27.908296711,-82.227521891,235,"4215 DURANT ROAD, VALRICO, FL, 33596","Match","Exact","4215 DURANT RD, VALRICO, FL, 33596",104560498,"R"
616236,"4215 E OVERLOOK DRIVE","SAN DIEGO","CA",92115,32.7531694740001,-117.069449485,236,"4215 E OVERLOOK DRIVE, SAN DIEGO, CA, 92115","Match","Exact","4215 E OVERLOOK DR, SAN DIEGO, CA, 92115",195351135,"R"
616237,"4215 EAGLE RIDGE DR","ARLINGTON","TX",76016,32.680012301,-97.173976715,237,"4215 EAGLE RIDGE DR, ARLINGTON, TX, 76016","Match","Exact","4215 EAGLE RIDGE DR, ARLINGTON, TX, 76016",101946315,"L"
616238,"4215 EAST CAPITOL STREET SE","WASHINGTON","DC",20019,38.889711398,-76.940788512,238,"4215 EAST CAPITOL STREET SE, WASHINGTON, DC, 20019","Match","Exact","4215 E CAPITOL ST SE, WASHINGTON, DC, 20019",641520608,"L"
616239,"4215 ENGLEWOOD ST","METAIRIE","LA",70001,29.989761055,-90.176122575,239,"4215 ENGLEWOOD ST, METAIRIE, LA, 70001","Match","Exact","4215 ENGLEWOOD ST, METAIRIE, LA, 70001",93534022,"R"
616240,"4215 EUCLID AVE","KANSAS CITY","MO",64130,39.0499294640001,-94.560839151,240,"4215 EUCLID AVE, KANSAS CITY, MO, 64130","Match","Exact","4215 EUCLID AVE, KANSAS CITY, MO, 64130",91451911,"L"
616241,"4215 FM 1128 RD","PEARLAND","TX",77584,29.5247549210001,-95.330427089,241,"4215 FM 1128 RD, PEARLAND, TX, 77584","Match","Exact","4215 FM 1128 RD, PEARLAND, TX, 77584",116630309,"R"
616242,"4215 FORTUNE POINT","ATLANTA","GA",30349,33.638727595,-84.610839692,242,"4215 FORTUNE POINT, ATLANTA, GA, 30349","Match","Exact","4215 FORTUNE PT, ATLANTA, GA, 30349",627062399,"R"
616243,"4215 FREDRICKSBURG DRIVE","COLLEGE PARK","GA",30337,NA,NA,243,"4215 FREDRICKSBURG DRIVE, COLLEGE PARK, GA, 30337","No_Match",NA,NA,NA,NA
616244,"4215 GERYVILLE PK","PENNSBURG","PA",18073,40.345805693,-75.457591957,244,"4215 GERYVILLE PK, PENNSBURG, PA, 18073","Match","Non_Exact","4215 GERYVILLE PIKE, PENNSBURG, PA, 18073",652467736,"L"
616245,"4215 GLENCOE AVE APT 218","MARINA DEL REY","CA",90292,33.988392676,-118.441383676,245,"4215 GLENCOE AVE APT 218, MARINA DEL REY, CA, 90292","Match","Exact","4215 GLENCOE AVE, MARINA DEL REY, CA, 90292",648858788,"R"
616246,"4215 HATHAWAY DRIVE","GRAND PRAIRIE","TX",75052,32.667832483,-97.04844485,246,"4215 HATHAWAY DRIVE, GRAND PRAIRIE, TX, 75052","Match","Exact","4215 HATHAWAY DR, GRAND PRAIRIE, TX, 75052",101930882,"R"
616247,"4215 INDIAN RIPPLE ROAD","BEAVERCREEK","OH",45440,39.695740572,-84.093234692,247,"4215 INDIAN RIPPLE ROAD, BEAVERCREEK, OH, 45440","Match","Exact","4215 INDIAN RIPPLE RD, BEAVERCREEK, OH, 45440",143398955,"L"
616248,"4215 J L SMITH PARKWAY STE 19 231","HIRAM","GA",30141,NA,NA,248,"4215 J L SMITH PARKWAY STE 19 231, HIRAM, GA, 30141","No_Match",NA,NA,NA,NA
616249,"4215 JUNIUS STREET","DALLAS","TX",75246,32.793810406,-96.774890134,249,"4215 JUNIUS STREET, DALLAS, TX, 75246","Match","Exact","4215 JUNIUS ST, DALLAS, TX, 75246",102911178,"L"
616250,"4215 KENWOOD AVE","64110","MO",64110,39.0505380610001,-94.578310825,250,"4215 KENWOOD AVE, 64110, MO, 64110","Match","Non_Exact","4215 KENWOOD AVE, KANSAS CITY, MO, 64110",91447872,"L"
616251,"4215 LAVENDER LANE","BOWIE","MD",20720,38.948227887,-76.8219305269999,251,"4215 LAVENDER LANE, BOWIE, MD, 20720","Match","Exact","4215 LAVENDER LN, BOWIE, MD, 20720",635445813,"R"
616252,"4215 LITTLE ROAD","ARLINGTON","TX",76016,32.6806874210001,-97.194002688,252,"4215 LITTLE ROAD, ARLINGTON, TX, 76016","Match","Exact","4215 LITTLE RD, ARLINGTON, TX, 76016",101949339,"L"
616253,"4215 LOUISVILLE RD","FRANKFORT","KY",40601,38.1618596640001,-84.969288467,253,"4215 LOUISVILLE RD, FRANKFORT, KY, 40601","Match","Exact","4215 LOUISVILLE RD, FRANKFORT, KY, 40601",97056272,"R"
616254,"4215 LOWELL DR","PIKESVILLE","MD",21208,39.3631964890001,-76.716144863,254,"4215 LOWELL DR, PIKESVILLE, MD, 21208","Match","Exact","4215 LOWELL DR, PIKESVILLE, MD, 21208",191469062,"L"
616255,"4215 MADERA CREEK LN","KATY","TX",77494,29.722637541,-95.835622875,255,"4215 MADERA CREEK LN, KATY, TX, 77494","Match","Exact","4215 MADERA CREEK LN, KATY, TX, 77494",642955097,"R"
616256,"4215 MATTHEWS LANE","KENSINGTON","MD",20895,39.025053562,-77.0812815,256,"4215 MATTHEWS LANE, KENSINGTON, MD, 20895","Match","Exact","4215 MATTHEWS LN, KENSINGTON, MD, 20895",62061609,"R"
616257,"4215 MCDONALD RD","CHANDLERSVILLE","OH",43727,39.89260468,-81.8291767379999,257,"4215 MCDONALD RD, CHANDLERSVILLE, OH, 43727","Match","Exact","4215 MCDONALD RD, CHANDLERSVILLE, OH, 43727",45586889,"L"
616258,"4215 MCDONALD RD","CHANDLERVILLE","OH",43727,39.89260468,-81.8291767379999,258,"4215 MCDONALD RD, CHANDLERVILLE, OH, 43727","Match","Non_Exact","4215 MCDONALD RD, CHANDLERSVILLE, OH, 43727",45586889,"L"
616259,"4215 MEREDITH DRIVE","VALDOSTA","GA",31605,30.8863739510001,-83.2366362769999,259,"4215 MEREDITH DRIVE, VALDOSTA, GA, 31605","Match","Exact","4215 MEREDITH DR, VALDOSTA, GA, 31605",647606589,"L"
616260,"4215 N 75TH AVE","PHOENIX","AZ",85033,33.497040767,-112.220515172,260,"4215 N 75TH AVE, PHOENIX, AZ, 85033","Match","Exact","4215 N 75TH AVE, PHOENIX, AZ, 85033",128193751,"R"
616261,"4215 N MAJOR DR APT 1716","BEAUMONT","TX",77713,30.115981463,-94.190124382,261,"4215 N MAJOR DR APT 1716, BEAUMONT, TX, 77713","Match","Non_Exact","4215 N MAJOR DR, BEAUMONT, TX, 77713",645777925,"L"
616262,"4215 N MCDONALD RD","SPOKANE VALLEY","WA",99216,47.6950884280001,-117.229139721,262,"4215 N MCDONALD RD, SPOKANE VALLEY, WA, 99216","Match","Exact","4215 N MCDONALD RD, SPOKANE VALLEY, WA, 99216",189888245,"L"
616263,"4215 N MICHIGAN AVE","PORTLAND","OR",97217,45.554079174,-122.676592444,263,"4215 N MICHIGAN AVE, PORTLAND, OR, 97217","Match","Exact","4215 N MICHIGAN AVE, PORTLAND, OR, 97217",157497929,"L"
616264,"4215 N SUNFLOWER AVE","COVINA","CA",91724,34.090194253,-117.846430318,264,"4215 N SUNFLOWER AVE, COVINA, CA, 91724","Match","Exact","4215 N SUNFLOWER AVE, COVINA, CA, 91724",642190681,"R"
616265,"4215 NAPA OAK DR APT 203","CHARLOTTE","NC",28216,NA,NA,265,"4215 NAPA OAK DR APT 203, CHARLOTTE, NC, 28216","No_Match",NA,NA,NA,NA
616266,"4215 NC HWY 210","SMITHFIELD","NC",27577,35.501220158,-78.428493005,266,"4215 NC HWY 210, SMITHFIELD, NC, 27577","Match","Non_Exact","4215 STATE HWY 210, SMITHFIELD, NC, 27577",639652569,"L"
616267,"4215 NEW HAMSPHIRE AVE","WASHINGTON","DC",20001,NA,NA,267,"4215 NEW HAMSPHIRE AVE, WASHINGTON, DC, 20001","No_Match",NA,NA,NA,NA
616268,"4215 NORTH MAJOR DRIVE 1610","BEAUMONT","TX",77713,30.1159690260001,-94.190123808,268,"4215 NORTH MAJOR DRIVE 1610, BEAUMONT, TX, 77713","Match","Exact","4215 N MAJOR DR, BEAUMONT, TX, 77713",645777925,"L"
616269,"4215 OAKRIDGE DR","WINSTON SALEM","NC",27105,36.145058734,-80.2019771939999,269,"4215 OAKRIDGE DR, WINSTON SALEM, NC, 27105","Match","Non_Exact","4215 OAK RIDGE DR, WINSTON SALEM, NC, 27105",84643547,"R"
616270,"4215 OLEANDER","NORRIDGE","IL",60706,41.9563516870001,-87.815829283,270,"4215 OLEANDER, NORRIDGE, IL, 60706","Match","Non_Exact","4215 OLEANDER AVE, NORRIDGE, IL, 60706",111747299,"R"
616271,"4215 OSBORNE ROAD","HURLOCK","MD",21643,38.6112794570001,-75.8873761579999,271,"4215 OSBORNE ROAD, HURLOCK, MD, 21643","Match","Exact","4215 OSBORNE RD, HURLOCK, MD, 21643",99671520,"R"
616272,"4215 OWL ST","MONROE","LA",71203,32.514548178,-92.0687351139999,272,"4215 OWL ST, MONROE, LA, 71203","Match","Exact","4215 OWL ST, MONROE, LA, 71203",161086979,"L"
616273,"4215 PRINCESS ANNE COURT","LORAIN","OH",44052,41.4321870640001,-82.1833914159999,273,"4215 PRINCESS ANNE COURT, LORAIN, OH, 44052","Match","Exact","4215 PRINCESS ANNE CT, LORAIN, OH, 44052",55404948,"L"
616274,"4215 QUAD CITY STREET APT 8102","FORT WORTH","TX",76155,32.82446507,-97.053050082,274,"4215 QUAD CITY STREET APT 8102, FORT WORTH, TX, 76155","Match","Exact","4215 QUAD CITY ST, FORT WORTH, TX, 76155",643226030,"R"
616275,"4215 RAYMAR AVE","BALTIMORE","MD",21206,39.333184547,-76.5567531679999,275,"4215 RAYMAR AVE, BALTIMORE, MD, 21206","Match","Exact","4215 RAYMAR AVE, BALTIMORE, MD, 21206",206411433,"R"
616276,"4215 S 140TH RD","BOLIVAR","MO",65613,NA,NA,276,"4215 S 140TH RD, BOLIVAR, MO, 65613","No_Match",NA,NA,NA,NA
616277,"4215 S 30TH ST APT G245","TACOMA","WA",98409,47.274876776,-122.493348716,277,"4215 S 30TH ST APT G245, TACOMA, WA, 98409","Match","Non_Exact","4215 30TH ST, TACOMA, WA, 98407",184644596,"R"
616278,"4215 S CLAIBORNE AVE","NEW ORLEANS","LA",70125,29.940568741,-90.101334029,278,"4215 S CLAIBORNE AVE, NEW ORLEANS, LA, 70125","Match","Exact","4215 S CLAIBORNE AVE, NEW ORLEANS, LA, 70125",191711508,"R"
616279,"4215 S CROSSCREEK DR","CHANDLER","AZ",85249,33.243563253,-111.820299259,279,"4215 S CROSSCREEK DR, CHANDLER, AZ, 85249","Match","Exact","4215 S CROSSCREEK DR, CHANDLER, AZ, 85249",128855221,"L"
616280,"4215 S MARIGOLD AVE","SIOUX FALLS","SD",57110,43.5063520680001,-96.666495859,280,"4215 S MARIGOLD AVE, SIOUX FALLS, SD, 57110","Match","Exact","4215 S MARIGOLD AVE, SIOUX FALLS, SD, 57110",640677174,"L"
616281,"4215 S PURSLANE DR","HOMOSASSA","FL",34448,28.7999585630001,-82.59556701,281,"4215 S PURSLANE DR, HOMOSASSA, FL, 34448","Match","Exact","4215 S PURSLANE DR, HOMOSASSA, FL, 34448",86239390,"L"
616282,"4215 SAND ROAD","FERRISBURGH","VT",5456,44.2117614530001,-73.308398181,282,"4215 SAND ROAD, FERRISBURGH, VT, 5456","Match","Exact","4215 SAND RD, FERRISBURGH, VT, 05456",136448546,"L"
616283,"4215 SHADY RIV","MISSOURI CITY","TX",77459,29.5594561070001,-95.570155906,283,"4215 SHADY RIV, MISSOURI CITY, TX, 77459","Match","Exact","4215 SHADY RIVER, MISSOURI CITY, TX, 77459",78335484,"L"
616284,"4215 SHERIDAN AVE UNIT 4","MIAMI BEACH","FL",33140,25.8149958160001,-80.127365928,284,"4215 SHERIDAN AVE UNIT 4, MIAMI BEACH, FL, 33140","Match","Exact","4215 SHERIDAN AVE, MIAMI BEACH, FL, 33140",116009479,"R"
616285,"4215 SOUTH COUNTY ROAD 49","SLOCOMB","AL",36375,31.095772314,-85.515488631,285,"4215 SOUTH COUNTY ROAD 49, SLOCOMB, AL, 36375","Match","Exact","4215 S CO RD 49, SLOCOMB, AL, 36375",651702465,"R"
616286,"4215 SOUTHWEST","CHICAGO","IL",60456,NA,NA,286,"4215 SOUTHWEST, CHICAGO, IL, 60456","No_Match",NA,NA,NA,NA
616287,"4215 SPRING ST","OMAHA","NE",68105,41.2306126140001,-95.976108762,287,"4215 SPRING ST, OMAHA, NE, 68105","Match","Exact","4215 SPRING ST, OMAHA, NE, 68105",116983961,"L"
616288,"4215 STUDIO LN","GREENSBORO","NC",27407,36.0329466160001,-79.870741104,288,"4215 STUDIO LN, GREENSBORO, NC, 27407","Match","Exact","4215 STUDIO LN, GREENSBORO, NC, 27407",131062786,"L"
616289,"4215 SUZANNE DR","PALO ALTO","CA",94306,37.406768809,-122.124478946,289,"4215 SUZANNE DR, PALO ALTO, CA, 94306","Match","Exact","4215 SUZANNE DR, PALO ALTO, CA, 94306",123006937,"L"
616290,"4215 SWEDEN DR","HERMITAGE","TN",37076,36.203311813,-86.6179750969999,290,"4215 SWEDEN DR, HERMITAGE, TN, 37076","Match","Exact","4215 SWEDEN DR, HERMITAGE, TN, 37076",97199122,"R"
616291,"4215 TESOTA DRIVE","LAS CRUCES","NM",88011,32.2733250860001,-106.724469471,291,"4215 TESOTA DRIVE, LAS CRUCES, NM, 88011","Match","Exact","4215 TESOTA DR, LAS CRUCES, NM, 88011",612733270,"L"
616292,"4215 TIERRA REJADA ROAD - PMB 145","MOORPARK","CA",93021,NA,NA,292,"4215 TIERRA REJADA ROAD - PMB 145, MOORPARK, CA, 93021","No_Match",NA,NA,NA,NA
616293,"4215 TWO RIVERS LANE","FRANKLIN","TN",37069,35.964599509,-86.9237632529999,293,"4215 TWO RIVERS LANE, FRANKLIN, TN, 37069","Match","Exact","4215 TWO RIVERS LN, FRANKLIN, TN, 37069",624939592,"R"
616294,"4215 TYLER AVE","EL MONTE","CA",91731,34.0835158690001,-118.031291291,294,"4215 TYLER AVE, EL MONTE, CA, 91731","Match","Exact","4215 TYLER AVE, EL MONTE, CA, 91731",141648998,"L"
616295,"4215 UNION SQUARE BLVD APT 430","PALM BEACH GARDENS","FL",33410,26.835661358,-80.10430645,295,"4215 UNION SQUARE BLVD APT 430, PALM BEACH GARDENS, FL, 33410","Match","Exact","4215 UNION SQUARE BLVD, PALM BEACH GARDENS, FL, 33410",115263802,"L"
616296,"4215 VIEWMONT DR","RALEIGH","NC",27610,35.7419263470001,-78.5787832139999,296,"4215 VIEWMONT DR, RALEIGH, NC, 27610","Match","Exact","4215 VIEWMONT DR, RALEIGH, NC, 27610",72654647,"R"
616297,"4215 W IRVINGTON RD","TUCSON","AZ",85746,32.1628321210001,-111.054870833,297,"4215 W IRVINGTON RD, TUCSON, AZ, 85746","Match","Exact","4215 W IRVINGTON RD, TUCSON, AZ, 85746",636093400,"L"
616298,"4215 W WESTEND AVE","CHICAGO","IL",60624,41.8832922940001,-87.731318732,298,"4215 W WESTEND AVE, CHICAGO, IL, 60624","Match","Non_Exact","4215 W WEST END AVE, CHICAGO, IL, 60624",605080441,"L"
616299,"4215 W WESTEND ST","CHICAGO","IL",60624,NA,NA,299,"4215 W WESTEND ST, CHICAGO, IL, 60624","No_Match",NA,NA,NA,NA
616300,"4215 WASHINGTON ST","MIDAND","MI",48642,43.6363136960001,-84.21694029,300,"4215 WASHINGTON ST, MIDAND, MI, 48642","Match","Non_Exact","4215 WASHINGTON ST, MIDLAND, MI, 48642",81193102,"L"
616301,"4215 WAYSIDE STREAM LN","HOUSTON","TX",77048,29.605756564,-95.352734496,301,"4215 WAYSIDE STREAM LN, HOUSTON, TX, 77048","Match","Exact","4215 WAYSIDE STREAM LN, HOUSTON, TX, 77048",636880672,"R"
616302,"4215 WHIPPOORWILL RD","HOLT","FL",32564,30.6743781870001,-86.755142969,302,"4215 WHIPPOORWILL RD, HOLT, FL, 32564","Match","Non_Exact","4215 WHIPPOORWILL DR, HOLT, FL, 32564",74437542,"R"
616303,"4215 WIDENER STREET","PUEBLO","CO",81008,38.3171229000001,-104.640117389,303,"4215 WIDENER STREET, PUEBLO, CO, 81008","Match","Exact","4215 WIDENER ST, PUEBLO, CO, 81008",105064931,"L"
616304,"4215 WILD COUNTRY COURT","DOUGLASVILLE","GA",30135,33.7144795620001,-84.7138827809999,304,"4215 WILD COUNTRY COURT, DOUGLASVILLE, GA, 30135","Match","Exact","4215 WILD COUNTRY CT, DOUGLASVILLE, GA, 30135",619876467,"L"
616305,"4215 WIREGRASS DRIVE","FORT MILL","SC",29707,34.9629160740001,-80.811521327,305,"4215 WIREGRASS DRIVE, FORT MILL, SC, 29707","Match","Exact","4215 WIREGRASS DR, FORT MILL, SC, 29707",627941319,"L"
616306,"4215 WOODLAWN AVENUE","BALTIMORE","MD",21206,NA,NA,306,"4215 WOODLAWN AVENUE, BALTIMORE, MD, 21206","No_Match",NA,NA,NA,NA
616307,"4215 WOODMONT DRIVE","HOUSTON","TX",77045,29.635870831,-95.441614514,307,"4215 WOODMONT DRIVE, HOUSTON, TX, 77045","Match","Exact","4215 WOODMONT DR, HOUSTON, TX, 77045",96040909,"L"
616308,"4215 WYOMING","SAINT LOUS","MO",63166,NA,NA,308,"4215 WYOMING, SAINT LOUS, MO, 63166","No_Match",NA,NA,NA,NA
616309,"4215-237 ANNAS RETREAT","ST THOMAS","VI",802,NA,NA,309,"4215-237 ANNAS RETREAT, ST THOMAS, VI, 802","No_Match",NA,NA,NA,NA
616310,"4215-90 ANNAS RETREAT","CHARLOTTE AMALIE","VI",802,NA,NA,310,"4215-90 ANNAS RETREAT, CHARLOTTE AMALIE, VI, 802","No_Match",NA,NA,NA,NA
616311,"4215-90 ANNAS RETREAT","ST THOMAS","VI",802,NA,NA,311,"4215-90 ANNAS RETREAT, ST THOMAS, VI, 802","No_Match",NA,NA,NA,NA
616312,"42150 STARLIGHT DRIVE","COARSEGOLD","CA",93614,37.2019698280001,-119.776806467,312,"42150 STARLIGHT DRIVE, COARSEGOLD, CA, 93614","Match","Exact","42150 STARLIGHT DR, COARSEGOLD, CA, 93614",102329743,"L"
616313,"42150 SUMMER LANE","LANCASTER","CA",93535,34.6486057270001,-118.227938446,313,"42150 SUMMER LANE, LANCASTER, CA, 93535","Match","Non_Exact","42150 SUMMER LN, LANCASTER, CA, 93536",632191114,"L"
616314,"42151 S 33600 RD","MORRISON","OK",73061,NA,NA,314,"42151 S 33600 RD, MORRISON, OK, 73061","No_Match",NA,NA,NA,NA
616315,"42151 WEST ARVADA COURT","MARICOPA","AZ",85138,33.0498729980001,-112.020805439,315,"42151 WEST ARVADA COURT, MARICOPA, AZ, 85138","Match","Exact","42151 W ARVADA CT, MARICOPA, AZ, 85138",627948400,"R"
616316,"42152 SILFER PUFFS DR","QUARTZ HILL","CA",93536,34.647679495,-118.256689775,316,"42152 SILFER PUFFS DR, QUARTZ HILL, CA, 93536","Match","Non_Exact","42152 SILVER PUFFS DR, QUARTZ HILL, CA, 93536",142676437,"L"
616317,"42154 YOKUM RD","PONCHATOULA","LA",70454,30.465604555,-90.433776521,317,"42154 YOKUM RD, PONCHATOULA, LA, 70454","Match","Exact","42154 YOKUM RD, PONCHATOULA, LA, 70454",639238742,"R"
616318,"42155 GRISBY CT","CHANTILLY","VA",20152,38.884975395,-77.54558066,318,"42155 GRISBY CT, CHANTILLY, VA, 20152","Match","Exact","42155 GRISBY CT, CHANTILLY, VA, 20152",642437198,"R"
616319,"42158 170TH STREET","DELAVAN","MN",56023,43.7318382670001,-94.024129536,319,"42158 170TH STREET, DELAVAN, MN, 56023","Match","Exact","42158 170TH ST, DELAVAN, MN, 56023",28624307,"R"
616320,"42158 PATUXENT DR","MECHANICSVILLE","MD",20659,38.415750603,-76.616758487,320,"42158 PATUXENT DR, MECHANICSVILLE, MD, 20659","Match","Exact","42158 PATUXENT DR, MECHANICSVILLE, MD, 20659",36632729,"R"
616321,"42158 PATUXENT DRIVE","MECHANICSVILLE","MD",20659,38.415750603,-76.616758487,321,"42158 PATUXENT DRIVE, MECHANICSVILLE, MD, 20659","Match","Exact","42158 PATUXENT DR, MECHANICSVILLE, MD, 20659",36632729,"R"
616322,"4215A GANNETT ST","SAINT LOUIS","MO",63116,38.583331593,-90.265100939,322,"4215A GANNETT ST, SAINT LOUIS, MO, 63116","Match","Exact","4215 GANNETT ST, SAINT LOUIS, MO, 63116",107600025,"R"
616323,"4216 135TH AVE SE","BELLEVUE","WA",98006,47.5698160520001,-122.16032114,323,"4216 135TH AVE SE, BELLEVUE, WA, 98006","Match","Exact","4216 135TH AVE SE, BELLEVUE, WA, 98006",186698384,"L"
616324,"4216 15TH ST","RACINE","WI",53405,42.713807509,-87.830020675,324,"4216 15TH ST, RACINE, WI, 53405","Match","Exact","4216 15TH ST, RACINE, WI, 53405",77909179,"R"
616325,"4216 174TH PL NW","STANWOOD","WA",98292,48.154316115,-122.289883513,325,"4216 174TH PL NW, STANWOOD, WA, 98292","Match","Exact","4216 174TH PL NW, STANWOOD, WA, 98292",187738412,"R"
616326,"4216 26TH STREET","KENOSHA","WI",53144,NA,NA,326,"4216 26TH STREET, KENOSHA, WI, 53144","No_Match",NA,NA,NA,NA
616327,"4216 29TH AVE W","SEATTLE","WA",98199,47.65783681,-122.394962946,327,"4216 29TH AVE W, SEATTLE, WA, 98199","Match","Exact","4216 29TH AVE W, SEATTLE, WA, 98199",186659274,"R"
616328,"4216 50TH AVENUE 1F","WOODSIDE","NY",11377,NA,NA,328,"4216 50TH AVENUE 1F, WOODSIDE, NY, 11377","No_Match",NA,NA,NA,NA
616329,"4216 AVIS ROAD","NEW ALBANY","OH",43054,40.0574289570001,-82.795903475,329,"4216 AVIS ROAD, NEW ALBANY, OH, 43054","Match","Exact","4216 AVIS RD, NEW ALBANY, OH, 43054",218697424,"R"
616330,"4216 BINGHAM ST","DEARBORN","MI",48126,42.318979031,-83.1736286239999,330,"4216 BINGHAM ST, DEARBORN, MI, 48126","Match","Exact","4216 BINGHAM ST, DEARBORN, MI, 48126",95444591,"R"
616331,"4216 BOWMAN ROAD APT F5","LITTLE ROCK","AR",72210,34.7161753190001,-92.409071242,331,"4216 BOWMAN ROAD APT F5, LITTLE ROCK, AR, 72210","Match","Exact","4216 BOWMAN RD, LITTLE ROCK, AR, 72210",642520716,"R"
616332,"4216 BRIARBEND ROAD","DALLAS","TX",75287,33.0057217130001,-96.838746978,332,"4216 BRIARBEND ROAD, DALLAS, TX, 75287","Match","Exact","4216 BRIARBEND RD, DALLAS, TX, 75287",123483396,"R"
616333,"4216 BRIARWOOD ROAD","LOUISVILLE","KY",40207,38.2470107520001,-85.6421049269999,333,"4216 BRIARWOOD ROAD, LOUISVILLE, KY, 40207","Match","Exact","4216 BRIARWOOD RD, LOUISVILLE, KY, 40207",641320069,"R"
616334,"4216 CAPSTONE DR","CARROLLTON","TX",75010,33.024996893,-96.9039248449999,334,"4216 CAPSTONE DR, CARROLLTON, TX, 75010","Match","Exact","4216 CAPSTONE DR, CARROLLTON, TX, 75010",103381913,"R"
616335,"4216 CHASEBROOK LANE","WAXHAW","NC",28173,34.940104261,-80.783758884,335,"4216 CHASEBROOK LANE, WAXHAW, NC, 28173","Match","Exact","4216 CHASEBROOK LN, WAXHAW, NC, 28173",645549507,"R"
616336,"4216 CHEYENNE COURT","SCHENKSVILLE","PA",18078,40.6767894340001,-75.608502764,336,"4216 CHEYENNE COURT, SCHENKSVILLE, PA, 18078","Match","Non_Exact","4216 CHEYENNE CT, SCHNECKSVILLE, PA, 18078",80793970,"R"
616337,"4216 COLLIS AVENUE","LOS ANGELES","CA",90032,34.094737379,-118.180980814,337,"4216 COLLIS AVENUE, LOS ANGELES, CA, 90032","Match","Exact","4216 COLLIS AVE, LOS ANGELES, CA, 90032",141623172,"R"
616338,"4216 COVENTRY GREEN CIRCLE","WILLIAMSVILLE","NY",14221,42.9593976290001,-78.691806765,338,"4216 COVENTRY GREEN CIRCLE, WILLIAMSVILLE, NY, 14221","Match","Exact","4216 COVENTRY GREEN CIR, WILLIAMSVILLE, NY, 14221",653465084,"L"
616339,"4216 CREEK VIEW DR","BENTON","AR",72105,NA,NA,339,"4216 CREEK VIEW DR, BENTON, AR, 72105","No_Match",NA,NA,NA,NA
616340,"4216 CROWN KNOLL CIR","FLOWER MOUND","TX",75028,33.0435096680001,-97.092434424,340,"4216 CROWN KNOLL CIR, FLOWER MOUND, TX, 75028","Match","Exact","4216 CROWN KNOLL CIR, FLOWER MOUND, TX, 75028",103379374,"R"
616341,"4216 DESDEMONA WAY","LEXINGTON","KY",40514,37.991794526,-84.5808114229999,341,"4216 DESDEMONA WAY, LEXINGTON, KY, 40514","Match","Exact","4216 DESDEMONA WAY, LEXINGTON, KY, 40514",31952442,"L"
616342,"4216 DON CARLOS","LOS ANGELES","CA",90008,34.0089762170001,-118.356049787,342,"4216 DON CARLOS, LOS ANGELES, CA, 90008","Match","Non_Exact","4216 DON CARLOS DR, LOS ANGELES, CA, 90008",141601461,"L"
616343,"4216 DONWAY DRIVE NE","ALEXANDRIA","MN",56308,45.910353849,-95.315789041,343,"4216 DONWAY DRIVE NE, ALEXANDRIA, MN, 56308","Match","Non_Exact","4216 DONWAY DR, ALEXANDRIA, MN, 56308",606994310,"R"
616344,"4216 E 600 N","ALEXANDRIA","IN",46001,40.1939353270001,-85.588192641,344,"4216 E 600 N, ALEXANDRIA, IN, 46001","Match","Exact","4216 E 600 N, ALEXANDRIA, IN, 46001",31117331,"L"
616345,"4216 E WINDSOR AVE","PHOENIX","AZ",85008,33.47806668,-111.991095833,345,"4216 E WINDSOR AVE, PHOENIX, AZ, 85008","Match","Exact","4216 E WINDSOR AVE, PHOENIX, AZ, 85008",128223659,"L"
616346,"4216 EAST GEER STREET","DURHAM","NC",27704,36.058900416,-78.7897685139999,346,"4216 EAST GEER STREET, DURHAM, NC, 27704","Match","Exact","4216 E GEER ST, DURHAM, NC, 27704",71748295,"R"
616347,"4216 ELLIS DRIVE","LITTLE RIVER","SC",29566,33.8755906910001,-78.617139788,347,"4216 ELLIS DRIVE, LITTLE RIVER, SC, 29566","Match","Exact","4216 ELLIS DR, LITTLE RIVER, SC, 29566",29051087,"L"
616348,"4216 ELMGREEN DR","ROANOKE","TX",76262,33.0111768680001,-97.2642128699999,348,"4216 ELMGREEN DR, ROANOKE, TX, 76262","Match","Exact","4216 ELMGREEN DR, ROANOKE, TX, 76262",614163114,"R"
616349,"4216 EVERGREEN LANE SUITE 136","ANNANDALE","VA",22003,38.833571433,-77.187177111,349,"4216 EVERGREEN LANE SUITE 136, ANNANDALE, VA, 22003","Match","Exact","4216 EVERGREEN LN, ANNANDALE, VA, 22003",638227030,"R"
616350,"4216 FARM RD","MOORE","OK",73160,35.2961086450001,-97.479464788,350,"4216 FARM RD, MOORE, OK, 73160","Match","Exact","4216 FARM RD, MOORE, OK, 73160",636151109,"L"
616351,"4216 FILTER PLANT ROAD","BELLVUE","CO",80512,40.648539774,-105.190054038,351,"4216 FILTER PLANT ROAD, BELLVUE, CO, 80512","Match","Exact","4216 FILTER PLANT RD, BELLVUE, CO, 80512",188621695,"R"
616352,"4216 FLORENCE BOULEVARD","OMAHA","NE",68110,41.2973617330001,-95.942162807,352,"4216 FLORENCE BOULEVARD, OMAHA, NE, 68110","Match","Exact","4216 FLORENCE BLVD, OMAHA, NE, 68110",116987058,"L"
616353,"4216 GENESSE ST","KANSAS CITY","MO",64111,39.0517783170001,-94.605262841,353,"4216 GENESSE ST, KANSAS CITY, MO, 64111","Match","Non_Exact","4216 GENESSEE ST, KANSAS CITY, MO, 64111",91446540,"R"
616354,"4216 GRANT MARTIN DR","CHARLOTTE","NC",28208,35.250410657,-80.909025485,354,"4216 GRANT MARTIN DR, CHARLOTTE, NC, 28208","Match","Exact","4216 GRANT MARTIN DR, CHARLOTTE, NC, 28208",648376933,"R"
616355,"4216 GRAYSON PLACE","DECATUR","GA",30030,33.7807899910001,-84.277088879,355,"4216 GRAYSON PLACE, DECATUR, GA, 30030","Match","Exact","4216 GRAYSON PL, DECATUR, GA, 30030",619382287,"L"
616356,"4216 HAMILTON-CLEVES RD","FAIRFIELD","OH",45014,39.3142741730001,-84.648166899,356,"4216 HAMILTON-CLEVES RD, FAIRFIELD, OH, 45014","Match","Non_Exact","4216 HAMILTON CLEVES RD, FAIRFIELD, OH, 45014",613729019,"L"
616357,"4216 HEALD COURT","DENAIR","CA",95316,37.5168393500001,-120.800331739,357,"4216 HEALD COURT, DENAIR, CA, 95316","Match","Exact","4216 HEALD CT, DENAIR, CA, 95316",614140179,"R"
616358,"4216 HILARIA WAY","NEWPORT BEACH","CA",92663,33.627938672,-117.929249531,358,"4216 HILARIA WAY, NEWPORT BEACH, CA, 92663","Match","Exact","4216 HILARIA WAY, NEWPORT BEACH, CA, 92663",144046796,"R"
616359,"4216 HYDE PARK DR","CHARLOTTE","NC",28216,35.315320485,-80.8620908079999,359,"4216 HYDE PARK DR, CHARLOTTE, NC, 28216","Match","Exact","4216 HYDE PARK DR, CHARLOTTE, NC, 28216",70471482,"R"
616360,"4216 INVERRARY DRIVE","LIVERPOOL","NY",13090,43.1631404760001,-76.220886693,360,"4216 INVERRARY DRIVE, LIVERPOOL, NY, 13090","Match","Exact","4216 INVERRARY DR, LIVERPOOL, NY, 13090",46562459,"R"
616361,"4216 J STREET","PHILADELPHIA","PA",19124,40.011630041,-75.1060313899999,361,"4216 J STREET, PHILADELPHIA, PA, 19124","Match","Exact","4216 J ST, PHILADELPHIA, PA, 19124",131427139,"L"
616362,"4216 JACKSON DRIVE","HERMANTOWN","MN",55811,46.8149073960001,-92.247907767,362,"4216 JACKSON DRIVE, HERMANTOWN, MN, 55811","Match","Exact","4216 JACKSON DR, HERMANTOWN, MN, 55811",612822218,"L"
616363,"4216 KILBOURNE RD","COLUMBIA","SC",29206,34.002406541,-80.979104519,363,"4216 KILBOURNE RD, COLUMBIA, SC, 29206","Match","Exact","4216 KILBOURNE RD, COLUMBIA, SC, 29206",71824661,"R"
616364,"4216 KILBOURNE ROAD","COLUMBIA","SC",29206,34.002406541,-80.979104519,364,"4216 KILBOURNE ROAD, COLUMBIA, SC, 29206","Match","Exact","4216 KILBOURNE RD, COLUMBIA, SC, 29206",71824661,"R"
616365,"4216 LANDS END LANE","LEESBURG","FL",34748,28.775158855,-81.882816818,365,"4216 LANDS END LANE, LEESBURG, FL, 34748","Match","Exact","4216 LANDS END LN, LEESBURG, FL, 34748",640795308,"R"
616366,"4216 LARCHMONT STREET","DALLAS","TX",75205,32.8432643790001,-96.80775123,366,"4216 LARCHMONT STREET, DALLAS, TX, 75205","Match","Exact","4216 LARCHMONT ST, DALLAS, TX, 75205",102906538,"R"
616367,"4216 LAVACA DR","PLANO","TX",75074,33.0334155300001,-96.646758456,367,"4216 LAVACA DR, PLANO, TX, 75074","Match","Exact","4216 LAVACA DR, PLANO, TX, 75074",210523751,"L"
616368,"4216 LEO LANE UNIT 1C","PALM BEACH GARDENS","FL",33410,NA,NA,368,"4216 LEO LANE UNIT 1C, PALM BEACH GARDENS, FL, 33410","No_Match",NA,NA,NA,NA
616369,"4216 LEO LANE UNIT 1E","RIVIERA BEACH","FL",33410,26.7924705930001,-80.102872835,369,"4216 LEO LANE UNIT 1E, RIVIERA BEACH, FL, 33410","Match","Exact","4216 LEO LN, RIVIERA BEACH, FL, 33410",647652279,"L"
616370,"4216 LOCH HARBOUR LANE","RALEIGH","NC",27606,35.7654695620001,-78.712802269,370,"4216 LOCH HARBOUR LANE, RALEIGH, NC, 27606","Match","Exact","4216 LOCH HARBOUR LN, RALEIGH, NC, 27606",72618888,"R"
616371,"4216 MAIN STREET","ELK HORN","IA",51531,41.5927191050001,-95.059981839,371,"4216 MAIN STREET, ELK HORN, IA, 51531","Match","Exact","4216 MAIN ST, ELK HORN, IA, 51531",61805937,"R"
616372,"4216 MAJESTIC LANE APT L","INDIANAPOLIS","IN",46254,39.8311594410001,-86.274919656,372,"4216 MAJESTIC LANE APT L, INDIANAPOLIS, IN, 46254","Match","Exact","4216 MAJESTIC LN, INDIANAPOLIS, IN, 46254",108069940,"L"
616373,"4216 MALTA PLACE","CHARLOTTE","NC",28215,35.2387555970001,-80.752321762,373,"4216 MALTA PLACE, CHARLOTTE, NC, 28215","Match","Exact","4216 MALTA PL, CHARLOTTE, NC, 28215",70482047,"R"
616374,"4216 MARY ELLEN AVE APT 2","STUDIO CITY","CA",91604,34.1464998760001,-118.419783151,374,"4216 MARY ELLEN AVE APT 2, STUDIO CITY, CA, 91604","Match","Exact","4216 MARY ELLEN AVE, STUDIO CITY, CA, 91604",141565246,"R"
616375,"4216 MILLBRANCH ROAD","MEMPHIS","TN",38116,35.03352583,-90.007509466,375,"4216 MILLBRANCH ROAD, MEMPHIS, TN, 38116","Match","Exact","4216 MILLBRANCH RD, MEMPHIS, TN, 38116",72919045,"L"
616376,"4216 MORRELL ST","SAN DIEGO","CA",92109,32.7968368350001,-117.232107179,376,"4216 MORRELL ST, SAN DIEGO, CA, 92109","Match","Exact","4216 MORRELL ST, SAN DIEGO, CA, 92109",612858460,"L"
616377,"4216 MYLAN ROAD","RICHMOND","VA",23223,37.5720770570001,-77.3600386699999,377,"4216 MYLAN ROAD, RICHMOND, VA, 23223","Match","Exact","4216 MYLAN RD, RICHMOND, VA, 23223",106671826,"L"
616378,"4216 N MARINGO DR","SPOKANE","WA",99212,47.695288718,-117.295858672,378,"4216 N MARINGO DR, SPOKANE, WA, 99212","Match","Exact","4216 N MARINGO DR, SPOKANE, WA, 99212",636699518,"R"
616379,"4216 N TERRAVIEW DR","APPLETON","WI",54913,44.3036639360001,-88.396353821,379,"4216 N TERRAVIEW DR, APPLETON, WI, 54913","Match","Exact","4216 TERRAVIEW DR, APPLETON, WI, 54913",74921308,"L"
616380,"4216 N WINCHESTER APT 3","CHICAGO","IL",60613,NA,NA,380,"4216 N WINCHESTER APT 3, CHICAGO, IL, 60613","No_Match",NA,NA,NA,NA
616381,"4216 NORBECK ROAD","ROCKVILLE","MD",20853,39.1038687970001,-77.0880206259999,381,"4216 NORBECK ROAD, ROCKVILLE, MD, 20853","Match","Exact","4216 NORBECK RD, ROCKVILLE, MD, 20853",642722711,"L"
616382,"4216 NORTH CHURCHWAY APT 7","LOUISVILLE","KY",40207,NA,NA,382,"4216 NORTH CHURCHWAY APT 7, LOUISVILLE, KY, 40207","No_Match",NA,NA,NA,NA
616383,"4216 NW 146TH TERRACE","OKLAHOMA CITY","OK",73134,35.619855822,-97.596398978,383,"4216 NW 146TH TERRACE, OKLAHOMA CITY, OK, 73134","Match","Exact","4216 NW 146TH TER, OKLAHOMA CITY, OK, 73134",100438138,"L"
616384,"4216 NW 8TH CT","ANKENY","IA",50023,41.7384403620001,-93.6548299629999,384,"4216 NW 8TH CT, ANKENY, IA, 50023","Match","Exact","4216 NW 8TH CT, ANKENY, IA, 50023",627544589,"R"
616385,"4216 OAKCREST AVE","MEMPHIS","TN",38128,35.228719101,-89.922068565,385,"4216 OAKCREST AVE, MEMPHIS, TN, 38128","Match","Exact","4216 OAKCREST AVE, MEMPHIS, TN, 38128",72899069,"L"
616386,"4216 PACIFIC HWY NUM 10292","TORRANCE","CA",90505,NA,NA,386,"4216 PACIFIC HWY NUM 10292, TORRANCE, CA, 90505","No_Match",NA,NA,NA,NA
616387,"4216 PARKWOOD AVE","MANTUA","OH",44255,41.3006390520001,-81.241437705,387,"4216 PARKWOOD AVE, MANTUA, OH, 44255","Match","Exact","4216 PARKWOOD AVE, MANTUA, OH, 44255",137533638,"R"
616388,"4216 PEACHWAY DRIVE","DURHAM","NC",27705,35.966917811,-78.991453967,388,"4216 PEACHWAY DRIVE, DURHAM, NC, 27705","Match","Exact","4216 PEACHWAY DR, DURHAM, NC, 27705",71756115,"L"
616389,"4216 PEPPERVINE TRL","GREENSBORO","NC",NA,36.136559935,-79.809691562,389,"4216 PEPPERVINE TRL, GREENSBORO, NC, ","Match","Exact","4216 PEPPERVINE TRL, GREENSBORO, NC, 27455",131131698,"R"
616390,"4216 PRINCESS ANNE CT","LORAIN","OH",44052,41.4321808660001,-82.1834061169999,390,"4216 PRINCESS ANNE CT, LORAIN, OH, 44052","Match","Exact","4216 PRINCESS ANNE CT, LORAIN, OH, 44052",55404948,"R"
616391,"4216 QUANDERS PROMISE DRIVE","BOWIE","MD",20720,38.9482729060001,-76.786326091,391,"4216 QUANDERS PROMISE DRIVE, BOWIE, MD, 20720","Match","Exact","4216 QUANDERS PROMISE DR, BOWIE, MD, 20720",76416207,"R"
616392,"4216 QUEEN MARY DRIVE","OLNEY","MD",20832,39.144647994,-77.077201696,392,"4216 QUEEN MARY DRIVE, OLNEY, MD, 20832","Match","Exact","4216 QUEEN MARY DR, OLNEY, MD, 20832",62071476,"L"
616393,"4216 RED MAPLE CT","BURTONSVILLE","MD",20866,39.105452171,-76.9228305359999,393,"4216 RED MAPLE CT, BURTONSVILLE, MD, 20866","Match","Exact","4216 RED MAPLE CT, BURTONSVILLE, MD, 20866",624463682,"L"
616394,"4216 RIDGEWAY DR","PLAINVIEW","TX",79072,34.2092194520001,-101.753811055,394,"4216 RIDGEWAY DR, PLAINVIEW, TX, 79072","Match","Exact","4216 RIDGEWAY DR, PLAINVIEW, TX, 79072",185706608,"R"
616395,"4216 ROAMING DRIVE","KNOXVILLE","TN",37912,35.989659826,-83.974602951,395,"4216 ROAMING DRIVE, KNOXVILLE, TN, 37912","Match","Non_Exact","4216 ROAMING RD, KNOXVILLE, TN, 37912",42614038,"L"
616396,"4216 S 61 AVENUE","OMAHA","NE",68117,41.2180927690001,-96.008438932,396,"4216 S 61 AVENUE, OMAHA, NE, 68117","Match","Exact","4216 S 61ST AVE, OMAHA, NE, 68117",116982125,"R"
616397,"4216 S DERBIGNY ST","NEW ORLEANS","LA",70125,29.9415096120001,-90.101437441,397,"4216 S DERBIGNY ST, NEW ORLEANS, LA, 70125","Match","Exact","4216 S DERBIGNY ST, NEW ORLEANS, LA, 70125",191711501,"L"
616398,"4216 S MANHATTAN AVE APT 214","TAMPA","FL",33611,27.9038860270001,-82.518441761,398,"4216 S MANHATTAN AVE APT 214, TAMPA, FL, 33611","Match","Non_Exact","4216 S MANHATTAN AVE, TAMPA, FL, 33611",104638166,"L"
616399,"4216 S MOONEY BLVD NUM 339","VISALIA","CA",93277,36.292239006,-119.31353705,399,"4216 S MOONEY BLVD NUM 339, VISALIA, CA, 93277","Match","Exact","4216 MOONEY BLVD, VISALIA, CA, 93277",641098106,"L"
616400,"4216 S MOONEY BLVD PMB 279","VISALIA","CA",93277,36.292239006,-119.31353705,400,"4216 S MOONEY BLVD PMB 279, VISALIA, CA, 93277","Match","Exact","4216 MOONEY BLVD, VISALIA, CA, 93277",641098106,"L"
616401,"4216 S MOONEY BLVD SUITE 244","VISALIA","CA",93277,36.292239006,-119.31353705,401,"4216 S MOONEY BLVD SUITE 244, VISALIA, CA, 93277","Match","Exact","4216 MOONEY BLVD, VISALIA, CA, 93277",641098106,"L"
616402,"4216 SELKIRK DR W","FORT WORTH","TX",76109,32.678811319,-97.383860096,402,"4216 SELKIRK DR W, FORT WORTH, TX, 76109","Match","Exact","4216 SELKIRK DR W, FORT WORTH, TX, 76109",101882365,"R"
616403,"4216 SPANISH BROOM AVE NW","ALBUQUERQUE","NM",87120,35.155180849,-106.684797064,403,"4216 SPANISH BROOM AVE NW, ALBUQUERQUE, NM, 87120","Match","Exact","4216 SPANISH BROOM AVE NW, ALBUQUERQUE, NM, 87120",636708839,"L"
616404,"4216 STILLWATER DRIVE","DULUTH","GA",30096,33.942109809,-84.140110893,404,"4216 STILLWATER DRIVE, DULUTH, GA, 30096","Match","Exact","4216 STILLWATER DR, DULUTH, GA, 30096",645847531,"R"
616405,"4216 STURGEON RD","STOCKTON","CA",95219,38.0332384340001,-121.366108454,405,"4216 STURGEON RD, STOCKTON, CA, 95219","Match","Exact","4216 STURGEON RD, STOCKTON, CA, 95219",133878702,"L"
616406,"4216 SW 240 RD","TUSKAHOMA","OK",74574,34.7103217120001,-95.39650431,406,"4216 SW 240 RD, TUSKAHOMA, OK, 74574","Match","Exact","4216 SW 240 RD, TUSKAHOMA, OK, 74574",80588323,"L"
616407,"4216 TATUM ST","LITTLE ROCK","AR",72204,34.715064312,-92.371022706,407,"4216 TATUM ST, LITTLE ROCK, AR, 72204","Match","Exact","4216 TATUM ST, LITTLE ROCK, AR, 72204",83502028,"R"
616408,"4216 THE STRAND","MANHATTAN BEACH","CA",90266,33.9036301,-118.421191783,408,"4216 THE STRAND, MANHATTAN BEACH, CA, 90266","Match","Exact","4216 THE STRAND, MANHATTAN BEACH, CA, 90266",141580156,"R"
616409,"4216 VALLEJO STREET","DENVER","CO",80211,39.774390688,-105.013514608,409,"4216 VALLEJO STREET, DENVER, CO, 80211","Match","Exact","4216 VALLEJO ST, DENVER, CO, 80211",177301129,"R"
616410,"4216 W 21ST","GARY","IN",46404,NA,NA,410,"4216 W 21ST, GARY, IN, 46404","Tie",NA,NA,NA,NA
616411,"4216 W ARLINGTON RD","BLOOMINGTON","IN",47404,NA,NA,411,"4216 W ARLINGTON RD, BLOOMINGTON, IN, 47404","No_Match",NA,NA,NA,NA
616412,"4216 W JEFFERSON BLVD","LOS ANGELES","CA",90016,34.0255536940001,-118.341945566,412,"4216 W JEFFERSON BLVD, LOS ANGELES, CA, 90016","Match","Exact","4216 W JEFFERSON BLVD, LOS ANGELES, CA, 90016",141601909,"L"
616413,"4216 WATERTRACE DR","LEXINGTON","KY",40515,37.964539044,-84.511883629,413,"4216 WATERTRACE DR, LEXINGTON, KY, 40515","Match","Exact","4216 WATERTRACE DR, LEXINGTON, KY, 40515",31938709,"L"
616414,"4216 WEBB RD","RAVENNA","OH",44266,41.221392818,-81.243309611,414,"4216 WEBB RD, RAVENNA, OH, 44266","Match","Exact","4216 WEBB RD, RAVENNA, OH, 44266",137543734,"R"
616415,"4216 WELLS STREET","WEIRTON","WV",26062,40.3916198200001,-80.5978889099999,415,"4216 WELLS STREET, WEIRTON, WV, 26062","Match","Exact","4216 WELLS ST, WEIRTON, WV, 26062",54997080,"L"
616416,"4216 WEST JACARANDA AVE","BURBANK","CA",91505,34.1584700280001,-118.348784369,416,"4216 WEST JACARANDA AVE, BURBANK, CA, 91505","Match","Non_Exact","4216 JACARANDA AVE, BURBANK, CA, 91505",142726069,"L"
616417,"4216 WHITEHURST DR","WILMINGTON","NC",28409,34.164875329,-77.87085188,417,"4216 WHITEHURST DR, WILMINGTON, NC, 28409","Match","Exact","4216 WHITEHURST DR, WILMINGTON, NC, 28409",152749384,"R"
616418,"4216 WIDHOFF LANE","CINCINNATI","OH",45236,NA,NA,418,"4216 WIDHOFF LANE, CINCINNATI, OH, 45236","No_Match",NA,NA,NA,NA
616419,"4216 WINDSOR PKWY","DALLAS","TX",75205,32.8422146730001,-96.807766976,419,"4216 WINDSOR PKWY, DALLAS, TX, 75205","Match","Exact","4216 WINDSOR PKWY, DALLAS, TX, 75205",102906540,"R"
616420,"42160 A STREET","MURRIETA","CA",92562,33.5524037340001,-117.219607375,420,"42160 A STREET, MURRIETA, CA, 92562","Match","Exact","42160 A ST, MURRIETA, CA, 92562",647403074,"R"
616421,"42160 ROSCOMMON","NORTHVILLE","MI",48167,42.4423066320001,-83.4616611289999,421,"42160 ROSCOMMON, NORTHVILLE, MI, 48167","Match","Non_Exact","42160 ROSCOMMON ST, NORTHVILLE, MI, 48167",69720129,"R"
616422,"42163 WARWICK FARM PL","ALDIE","VA",20105,38.895440846,-77.546396626,422,"42163 WARWICK FARM PL, ALDIE, VA, 20105","Match","Exact","42163 WARWICK FARM PL, ALDIE, VA, 20105",645696960,"L"
616423,"42165 MILES CRESTON RD N","DAVENPORT","WA",99122,47.877738612,-118.323060158,423,"42165 MILES CRESTON RD N, DAVENPORT, WA, 99122","Match","Exact","42165 MILES CRESTON RD N, DAVENPORT, WA, 99122",651964882,"L"
616424,"42165 MOHAVE ROSE DRIVE","LANCASTER","CA",93534,34.6482920670001,-118.256016196,424,"42165 MOHAVE ROSE DRIVE, LANCASTER, CA, 93534","Match","Non_Exact","42165 MOHAVE ROSE DR, LANCASTER, CA, 93536",647649899,"R"
616425,"42166 SD HWY 28","WILLOW LAKE","SD",57278,44.631170904,-97.786172802,425,"42166 SD HWY 28, WILLOW LAKE, SD, 57278","Match","Non_Exact","42166 STATE HWY 28, WILLOW LAKE, SD, 57278",201139911,"R"
616426,"4217  YATES ST APT H","METAIRIE","LA",70001,29.995061982,-90.177076718,426,"4217  YATES ST APT H, METAIRIE, LA, 70001","Match","Exact","4217 YATES ST, METAIRIE, LA, 70001",93533990,"R"
616427,"4217 15TH AVE APT E3","BROOKLYN","NY",11204,40.636161057,-73.983754322,427,"4217 15TH AVE APT E3, BROOKLYN, NY, 11204","Match","Non_Exact","4217 15TH AVE, BROOKLYN, NY, 11219",59080662,"L"
616428,"4217 16TH AVENUE","BROOKLYN","NY",11204,40.6348304740001,-73.981551424,428,"4217 16TH AVENUE, BROOKLYN, NY, 11204","Match","Exact","4217 16TH AVE, BROOKLYN, NY, 11204",59080670,"L"
616429,"4217 74TH STREET","URBANDALE","IA",50322,41.6369692810001,-93.720128844,429,"4217 74TH STREET, URBANDALE, IA, 50322","Match","Exact","4217 74TH ST, URBANDALE, IA, 50322",65775797,"R"
616430,"4217 APPLEGATE DR","SACRAMENTO","CA",95826,38.541419137,-121.361354243,430,"4217 APPLEGATE DR, SACRAMENTO, CA, 95826","Match","Exact","4217 APPLEGATE DR, SACRAMENTO, CA, 95826",133376970,"R"
616431,"4217 APPLEGATE DRIVE","SACRAMENTO","CA",95826,38.541419137,-121.361354243,431,"4217 APPLEGATE DRIVE, SACRAMENTO, CA, 95826","Match","Exact","4217 APPLEGATE DR, SACRAMENTO, CA, 95826",133376970,"R"
616432,"4217 APPLETON STREET","CINCINNATI","OH",45209,39.154804224,-84.42892376,432,"4217 APPLETON STREET, CINCINNATI, OH, 45209","Match","Exact","4217 APPLETON ST, CINCINNATI, OH, 45209",103931034,"L"
616433,"4217 AUTUMN COURT","SHEBOYGAN","WI",53081,43.708222365,-87.7420732099999,433,"4217 AUTUMN COURT, SHEBOYGAN, WI, 53081","Match","Exact","4217 AUTUMN CT, SHEBOYGAN, WI, 53081",79507972,"R"
616434,"4217 BAYMEADOWS ROAD SUITE 1","JACKSONVILLE","FL",32217,30.218847381,-81.6098180939999,434,"4217 BAYMEADOWS ROAD SUITE 1, JACKSONVILLE, FL, 32217","Match","Exact","4217 BAYMEADOWS RD, JACKSONVILLE, FL, 32217",83919925,"L"
616435,"4217 BEGONIA DRIVE","BOWIE","MD",20720,38.9490233660001,-76.821584415,435,"4217 BEGONIA DRIVE, BOWIE, MD, 20720","Match","Exact","4217 BEGONIA DR, BOWIE, MD, 20720",76416065,"R"
616436,"4217 BOWEN","TOLEDO","OH",43613,41.6951912580001,-83.6105881999999,436,"4217 BOWEN, TOLEDO, OH, 43613","Match","Non_Exact","4217 BOWEN RD, TOLEDO, OH, 43613",33932483,"L"
616437,"4217 BRISTOL PLACE NW","CONCORD","NC",28027,35.4312956310001,-80.648121483,437,"4217 BRISTOL PLACE NW, CONCORD, NC, 28027","Match","Exact","4217 BRISTOL PL NW, CONCORD, NC, 28027",24911455,"L"
616438,"4217 BUCKMAN ROAD","ALEXANDRIA","VA",22309,38.7328586150001,-77.1055378569999,438,"4217 BUCKMAN ROAD, ALEXANDRIA, VA, 22309","Match","Exact","4217 BUCKMAN RD, ALEXANDRIA, VA, 22309",75990146,"L"
616439,"4217 CANYON TRAILS DR","WICHITA FALL","TX",76309,33.8963723630001,-98.551354551,439,"4217 CANYON TRAILS DR, WICHITA FALL, TX, 76309","Match","Non_Exact","4217 CANYON TRAILS DR, WICHITA FALLS, TX, 76309",169853493,"L"
616440,"4217 CHAPEL RD","NOTTINGHAM","MD",21236,39.4118452800001,-76.462436915,440,"4217 CHAPEL RD, NOTTINGHAM, MD, 21236","Match","Exact","4217 CHAPEL RD, NOTTINGHAM, MD, 21236",191532539,"R"
616441,"4217 CHELTINGHAM LN SE","SMYRNA","GA",30082,33.8500428200001,-84.5298812349999,441,"4217 CHELTINGHAM LN SE, SMYRNA, GA, 30082","Match","Exact","4217 CHELTINGHAM LN SE, SMYRNA, GA, 30082",17250617,"L"
616442,"4217 CLEAR FORK","CORPUS CHRISTI","TX",78410,27.862069578,-97.651851887,442,"4217 CLEAR FORK, CORPUS CHRISTI, TX, 78410","Match","Non_Exact","4217 CLEAR FORK DR, CORPUS CHRISTI, TX, 78410",178540397,"L"
616443,"4217 CYCLONE DR","BAKERSFIELD","CA",93313,35.293750002,-119.049785628,443,"4217 CYCLONE DR, BAKERSFIELD, CA, 93313","Match","Exact","4217 CYCLONE DR, BAKERSFIELD, CA, 93313",109115983,"R"
616444,"4217 DEVONBRIDGE STREET","CHARLOTTE","NC",28269,35.308061073,-80.825111852,444,"4217 DEVONBRIDGE STREET, CHARLOTTE, NC, 28269","Match","Non_Exact","4217 DEVONBRIDGE LN, CHARLOTTE, NC, 28269",70553322,"R"
616445,"4217 DUDLEY RD","MANTUA","OH",44255,41.2662410360001,-81.241193272,445,"4217 DUDLEY RD, MANTUA, OH, 44255","Match","Exact","4217 DUDLEY RD, MANTUA, OH, 44255",137543589,"L"
616446,"4217 E MUIRWOOD DRIVE","PHOENIX","AZ",85048,33.3022881680001,-111.992787497,446,"4217 E MUIRWOOD DRIVE, PHOENIX, AZ, 85048","Match","Exact","4217 E MUIRWOOD DR, PHOENIX, AZ, 85048",128319843,"R"
616447,"4217 E12 APARTMENT 8","SIOUX FALLS","SD",57103,NA,NA,447,"4217 E12 APARTMENT 8, SIOUX FALLS, SD, 57103","No_Match",NA,NA,NA,NA
616448,"4217 EDWARD HYDE PLACE","WILMINGTON","NC",28405,34.3008201980001,-77.8834543,448,"4217 EDWARD HYDE PLACE, WILMINGTON, NC, 28405","Match","Exact","4217 EDWARD HYDE PL, WILMINGTON, NC, 28405",152742727,"R"
616449,"4217 FIELDSTONE WAY","BIRMINGHAM","AL",35215,33.6397146150001,-86.662900221,449,"4217 FIELDSTONE WAY, BIRMINGHAM, AL, 35215","Match","Exact","4217 FIELDSTONE WAY, BIRMINGHAM, AL, 35215",623915612,"R"
616450,"4217 GRANADA AVE","BALTIMORE","MD",21215,39.3351783250001,-76.687039036,450,"4217 GRANADA AVE, BALTIMORE, MD, 21215","Match","Exact","4217 GRANADA AVE, BALTIMORE, MD, 21215",206430791,"R"
616451,"4217 GRANDVILLE BLVD","NASHVILLE","TN",37207,36.2801370760001,-86.7728682279999,451,"4217 GRANDVILLE BLVD, NASHVILLE, TN, 37207","Match","Exact","4217 GRANDVILLE BLVD, NASHVILLE, TN, 37207",97181751,"R"
616452,"4217 HOOHANA STREET","LIHUE","HI",96766,21.994390579,-159.352341246,452,"4217 HOOHANA STREET, LIHUE, HI, 96766","Match","Exact","4217 HOOHANA ST, LIHUE, HI, 96766",203392445,"L"
616453,"4217 KRIS LINE DR","WATERLOO","IA",50701,42.45367709,-92.398676612,453,"4217 KRIS LINE DR, WATERLOO, IA, 50701","Match","Exact","4217 KRIS LINE DR, WATERLOO, IA, 50701",77251064,"L"
616454,"4217 LAKE STONE TRAIL","FORT WORTH","TX",76123,32.6225069910001,-97.3850528579999,454,"4217 LAKE STONE TRAIL, FORT WORTH, TX, 76123","Match","Exact","4217 LAKE STONE TRL, FORT WORTH, TX, 76123",638655783,"L"
616455,"4217 LOCKWOOD DRIVE","WILMINGTON","NC",28405,34.256262538,-77.884484223,455,"4217 LOCKWOOD DRIVE, WILMINGTON, NC, 28405","Match","Exact","4217 LOCKWOOD DR, WILMINGTON, NC, 28405",152732700,"L"
616456,"4217 MEADOW VALLEY DRIVE","MEMPHIS","TN",38141,35.0333670370001,-89.83393374,456,"4217 MEADOW VALLEY DRIVE, MEMPHIS, TN, 38141","Match","Non_Exact","4217 MEADOW VALLEY DR E, MEMPHIS, TN, 38141",72953767,"R"
616457,"4217 MERCED CIRCLE","ANTIOCH","CA",94531,37.9849537970001,-121.760906717,457,"4217 MERCED CIRCLE, ANTIOCH, CA, 94531","Match","Exact","4217 MERCED CIR, ANTIOCH, CA, 94531",192085345,"R"
616458,"4217 MERIDIAN AVE N","SEATTLE","WA",98103,47.6582097690001,-122.333792173,458,"4217 MERIDIAN AVE N, SEATTLE, WA, 98103","Match","Exact","4217 MERIDIAN AVE N, SEATTLE, WA, 98103",186582979,"L"
616459,"4217 MOUNT TAYLOR DRIVE","SANTA ROSA","CA",95404,38.4236383620001,-122.674082341,459,"4217 MOUNT TAYLOR DRIVE, SANTA ROSA, CA, 95404","Match","Exact","4217 MOUNT TAYLOR DR, SANTA ROSA, CA, 95404",67475083,"L"
616460,"4217 N 78TH ST","MILWAUKEE","WI",53218,43.0941778860001,-88.010365791,460,"4217 N 78TH ST, MILWAUKEE, WI, 53218","Match","Non_Exact","4217 N 78TH ST, MILWAUKEE, WI, 53222",77730259,"L"
616461,"4217 N WOODBURN STREET","SHOREWOOD","WI",53211,43.0919717410001,-87.8935399759999,461,"4217 N WOODBURN STREET, SHOREWOOD, WI, 53211","Match","Exact","4217 N WOODBURN ST, SHOREWOOD, WI, 53211",77743173,"L"
616462,"4217 NAGLE STREET","BRYAN","TX",77801,30.6267029320001,-96.3505485379999,462,"4217 NAGLE STREET, BRYAN, TX, 77801","Match","Exact","4217 NAGLE ST, BRYAN, TX, 77801",21815916,"L"
616463,"4217 NATIVE DANCER DR","EDMOND","OK",73025,35.6980601720001,-97.49037053,463,"4217 NATIVE DANCER DR, EDMOND, OK, 73025","Match","Exact","4217 NATIVE DANCER DR, EDMOND, OK, 73025",617259320,"L"
616464,"4217 NATIVE DANCER DRIVE","BAKERSFIELD","CA",93312,35.3991429530001,-119.127096922,464,"4217 NATIVE DANCER DRIVE, BAKERSFIELD, CA, 93312","Match","Exact","4217 NATIVE DANCER DR, BAKERSFIELD, CA, 93312",109148820,"R"
616465,"4217 NE 30TH AVE","PORTLAND","OR",97211,45.553776397,-122.634884364,465,"4217 NE 30TH AVE, PORTLAND, OR, 97211","Match","Exact","4217 NE 30TH AVE, PORTLAND, OR, 97211",157506349,"L"
616466,"4217 NE 50TH ST","KANSAS CITY","MO",64119,39.1854520200001,-94.530151302,466,"4217 NE 50TH ST, KANSAS CITY, MO, 64119","Match","Exact","4217 NE 50TH ST, KANSAS CITY, MO, 64119",89758427,"R"
616467,"4217 NW 34TH TERR","GAINESVILLE","FL",32601,NA,NA,467,"4217 NW 34TH TERR, GAINESVILLE, FL, 32601","No_Match",NA,NA,NA,NA
616468,"4217 OAKSBURY LANE","ROLLING MEADOWS","IL",60008,42.079390151,-88.033681811,468,"4217 OAKSBURY LANE, ROLLING MEADOWS, IL, 60008","Match","Exact","4217 OAKSBURY LN, ROLLING MDWS, IL, 60008",111873054,"R"
616469,"4217 OCONNER RD","FLINT","MI",48504,43.0666437340001,-83.750791353,469,"4217 OCONNER RD, FLINT, MI, 48504","Match","Exact","4217 OCONNER RD, FLINT, MI, 48504",69563335,"L"
616470,"4217 PASADA LANE","ROUND ROCK","TX",78681,30.5466580780001,-97.734953665,470,"4217 PASADA LANE, ROUND ROCK, TX, 78681","Match","Exact","4217 PASADA LN, ROUND ROCK, TX, 78681",126484436,"L"
616471,"4217 PRELUDE STREET","RALEIGH","NC",27616,35.870320516,-78.516171468,471,"4217 PRELUDE STREET, RALEIGH, NC, 27616","Match","Exact","4217 PRELUDE ST, RALEIGH, NC, 27616",619711153,"R"
616472,"4217 PUTAH CREEK ROAD","WINTERS","CA",95694,38.4973748150001,-121.987972712,472,"4217 PUTAH CREEK ROAD, WINTERS, CA, 95694","Match","Exact","4217 PUTAH CREEK RD, WINTERS, CA, 95694",192585399,"L"
616473,"4217 RIDGEWAY CT SE APT B","RIO RANCHO","NM",87124,35.253988845,-106.651866844,473,"4217 RIDGEWAY CT SE APT B, RIO RANCHO, NM, 87124","Match","Non_Exact","4217 RIDGEWAY CT, RIO RANCHO, NM, 87124",632509205,"R"
616474,"4217 ROSE AVENUE","WESTERN SPRINGS","IL",60558,41.8126140160001,-87.909703534,474,"4217 ROSE AVENUE, WESTERN SPRINGS, IL, 60558","Match","Exact","4217 ROSE AVE, WESTERN SPRINGS, IL, 60558",111789024,"L"
616475,"4217 S 19TH ST","PHOENIX","AZ",85040,33.40785981,-112.041366025,475,"4217 S 19TH ST, PHOENIX, AZ, 85040","Match","Exact","4217 S 19TH ST, PHOENIX, AZ, 85040",128215870,"L"
616476,"4217 S 19TH STREET","PHOENIX","AZ",85040,33.40785981,-112.041366025,476,"4217 S 19TH STREET, PHOENIX, AZ, 85040","Match","Exact","4217 S 19TH ST, PHOENIX, AZ, 85040",128215870,"L"
616477,"4217 S RAYMOND AVE","LOS ANGELES","CA",90037,34.006932179,-118.298025183,477,"4217 S RAYMOND AVE, LOS ANGELES, CA, 90037","Match","Exact","4217 RAYMOND AVE, LOS ANGELES, CA, 90037",141607741,"R"
616478,"4217 S SULGROVE AVE","SPRINGFIELD","MO",65804,37.135039396,-93.228769093,478,"4217 S SULGROVE AVE, SPRINGFIELD, MO, 65804","Match","Exact","4217 SULGROVE AVE, SPRINGFIELD, MO, 65804",76695421,"L"
616479,"4217 S WEBSTER ST","SEATTLE","WA",98118,47.535202939,-122.280111636,479,"4217 S WEBSTER ST, SEATTLE, WA, 98118","Match","Exact","4217 S WEBSTER ST, SEATTLE, WA, 98118",186596731,"R"
616480,"4217 SE VIRGINIA COURT","TOPEKA","KS",66609,38.991357087,-95.66459702,480,"4217 SE VIRGINIA COURT, TOPEKA, KS, 66609","Match","Exact","4217 SE VIRGINIA CT, TOPEKA, KS, 66609",17892518,"R"
616481,"4217 SHOREGATE DRIVE","GARLAND","TX",75043,NA,NA,481,"4217 SHOREGATE DRIVE, GARLAND, TX, 75043","No_Match",NA,NA,NA,NA
616482,"4217 SKEFFINGTON CT","SOUTHPORT","NC",28465,33.9524581380001,-78.0778376819999,482,"4217 SKEFFINGTON CT, SOUTHPORT, NC, 28465","Match","Non_Exact","4217 SKEFFINGTON CT, SOUTHPORT, NC, 28461",649184404,"L"
616483,"4217 SOUTHCENTER BLVD APT 1","TUKWILA","WA",98188,47.4659683460001,-122.280776827,483,"4217 SOUTHCENTER BLVD APT 1, TUKWILA, WA, 98188","Match","Exact","4217 SOUTHCENTER BLVD, TUKWILA, WA, 98188",239773510,"R"
616484,"4217 STILWELL DR","REX","GA",30273,33.5863177960001,-84.25643364,484,"4217 STILWELL DR, REX, GA, 30273","Match","Exact","4217 STILWELL DR, REX, GA, 30273",645822451,"L"
616485,"4217 STILWELL DRIVE","REX","GA",30273,33.5863177960001,-84.25643364,485,"4217 STILWELL DRIVE, REX, GA, 30273","Match","Exact","4217 STILWELL DR, REX, GA, 30273",645822451,"L"
616486,"4217 STONEWALL DRIVE","ORLANDO","FL",32812,28.490836643,-81.333378373,486,"4217 STONEWALL DRIVE, ORLANDO, FL, 32812","Match","Exact","4217 STONEWALL DR, ORLANDO, FL, 32812",637419661,"L"
616487,"4217 SUNNYVIEW","4217 SUNNYVIEW","MO",63128,NA,NA,487,"4217 SUNNYVIEW, 4217 SUNNYVIEW, MO, 63128","No_Match",NA,NA,NA,NA
616488,"4217 SW 20 ST","HOLLYWOOD","FL",33023,25.9927291550001,-80.1856236409999,488,"4217 SW 20 ST, HOLLYWOOD, FL, 33023","Match","Exact","4217 SW 20TH ST, HOLLYWOOD, FL, 33023",114735279,"R"
616489,"4217 SW 20 STREET","HOLLYWOOD","FL",33023,25.9927291550001,-80.1856236409999,489,"4217 SW 20 STREET, HOLLYWOOD, FL, 33023","Match","Exact","4217 SW 20TH ST, HOLLYWOOD, FL, 33023",114735279,"R"
616490,"4217 TACKETT COURT","SALIDA","CA",95368,37.6989016520001,-121.080216365,490,"4217 TACKETT COURT, SALIDA, CA, 95368","Match","Exact","4217 TACKETT CT, SALIDA, CA, 95368",102627093,"L"
616491,"4217 VIEWPOINT TRAIL","ELLENWOOD","GA",30294,33.6548015430001,-84.251538736,491,"4217 VIEWPOINT TRAIL, ELLENWOOD, GA, 30294","Match","Exact","4217 VIEWPOINT TRL, ELLENWOOD, GA, 30294",23399920,"L"
616492,"4217 VINCENT TERRACE","HALTOM CITY","TX",76137,32.8581131020001,-97.283231423,492,"4217 VINCENT TERRACE, HALTOM CITY, TX, 76137","Match","Exact","4217 VINCENT TER, HALTOM CITY, TX, 76137",101919155,"L"
616493,"4217 W WASHINGTON BLVD","CHICAGO","IL",60624,41.8819745260001,-87.731150327,493,"4217 W WASHINGTON BLVD, CHICAGO, IL, 60624","Match","Exact","4217 W WASHINGTON BLVD, CHICAGO, IL, 60624",111758559,"L"
616494,"4217 WHITE HERON POINT","PORTSMOUTH","VA",23703,36.884787198,-76.3949583689999,494,"4217 WHITE HERON POINT, PORTSMOUTH, VA, 23703","Match","Exact","4217 WHITE HERON PT, PORTSMOUTH, VA, 23703",122197564,"L"
616495,"4217 WILDROSE CT","HANNIBAL","MO",63401,39.7258088560001,-91.4101773799999,495,"4217 WILDROSE CT, HANNIBAL, MO, 63401","Match","Non_Exact","4217 WILDROSE, HANNIBAL, MO, 63401",35340091,"R"
616496,"4217 YORK RD","SOUTH BEND","IN",46614,41.6322908490001,-86.227266618,496,"4217 YORK RD, SOUTH BEND, IN, 46614","Match","Exact","4217 YORK RD, SOUTH BEND, IN, 46614",8057943,"R"
616497,"4217","EVERGREEN LANE","VA",22003,NA,NA,497,"4217, EVERGREEN LANE, VA, 22003","No_Match",NA,NA,NA,NA
616498,"42170 FULLERTON ROAD","MURRIETA","CA",92562,33.562996949,-117.227825301,498,"42170 FULLERTON ROAD, MURRIETA, CA, 92562","Match","Exact","42170 FULLERTON RD, MURRIETA, CA, 92562",638573567,"R"
616499,"42171 CASTLE RIDGE SQUARE","ASHBURN","VA",20148,38.970959624,-77.542794343,499,"42171 CASTLE RIDGE SQUARE, ASHBURN, VA, 20148","Match","Exact","42171 CASTLE RIDGE SQ, ASHBURN, VA, 20148",641121229,"L"
616500,"42171 CO HWY 53","NEW YORK MILLS","MN",56567,46.573837192,-95.448692283,500,"42171 CO HWY 53, NEW YORK MILLS, MN, 56567","Match","Exact","42171 CO HWY 53, NEW YORK MILLS, MN, 56567",168328103,"L"
