"ID","Address","City","State","Zip","lat","long","id","input_address","match_indicator","match_type","matched_address","tiger_line_id","tiger_side"
767001,"614 BELL ST","HAMPTON","VA",23661,37.0150731730001,-76.3720451889999,1,"614 BELL ST, HAMPTON, VA, 23661","Match","Exact","614 BELL ST, HAMPTON, VA, 23661",103808466,"R"
767002,"614 BELL STREET","MUNISING","MI",49862,46.4024003500001,-86.645017658,2,"614 BELL STREET, MUNISING, MI, 49862","Match","Non_Exact","614 BELL AVE, MUNISING, MI, 49862",181901821,"R"
767003,"614 BELLINGRATH LANE","SLIDELL","LA",70458,30.2916700960001,-89.750635578,3,"614 BELLINGRATH LANE, SLIDELL, LA, 70458","Match","Exact","614 BELLINGRATH LN, SLIDELL, LA, 70458",611483857,"L"
767004,"614 BELMONT AVE","HALEDON","NJ",7508,40.943955692,-74.186008608,4,"614 BELMONT AVE, HALEDON, NJ, 7508","Match","Exact","614 BELMONT AVE, HALEDON, NJ, 07508",65275713,"L"
767005,"614 BEYER DRIVE","BAY ST LOUIS","MS",39520,30.3222043110001,-89.346794814,5,"614 BEYER DRIVE, BAY ST LOUIS, MS, 39520","Match","Exact","614 BEYER DR, BAY SAINT LOUIS, MS, 39520",111139939,"L"
767006,"614 BISCAYNE DR","FAYETTEVILLE","NC",28301,35.1026218270001,-78.869326568,6,"614 BISCAYNE DR, FAYETTEVILLE, NC, 28301","Match","Exact","614 BISCAYNE DR, FAYETTEVILLE, NC, 28301",64254422,"R"
767007,"614 BOBWHITE LN","NEW LENOX","IL",60451,41.482245488,-87.9757527359999,7,"614 BOBWHITE LN, NEW LENOX, IL, 60451","Match","Exact","614 BOBWHITE LN, NEW LENOX, IL, 60451",111630931,"R"
767008,"614 BOSLEY AVE","TOWSON","MD",21204,39.4028232200001,-76.608341965,8,"614 BOSLEY AVE, TOWSON, MD, 21204","Match","Exact","614 BOSLEY AVE, TOWSON, MD, 21204",191539772,"L"
767009,"614 BOSTWICK DR","VIDALIA","GA",30474,32.2013364760001,-82.431487885,9,"614 BOSTWICK DR, VIDALIA, GA, 30474","Match","Exact","614 BOSTWICK DR, VIDALIA, GA, 30474",4770879,"L"
767010,"614 BOUND TREE ROAD","CONTOOCOOK","NH",3229,43.2215502220001,-71.744344019,10,"614 BOUND TREE ROAD, CONTOOCOOK, NH, 3229","Match","Exact","614 BOUND TREE RD, CONTOOCOOK, NH, 03229",633246922,"L"
767011,"614 BOWMAN ROAD","WISCONSIN DELLS","WI",53965,43.6248977400001,-89.7661908279999,11,"614 BOWMAN ROAD, WISCONSIN DELLS, WI, 53965","Match","Exact","614 BOWMAN RD, WISCONSIN DELLS, WI, 53965",73328114,"R"
767012,"614 BRIDGEPORT LANE","FOSTER CITY","CA",94404,37.545792632,-122.26860741,12,"614 BRIDGEPORT LANE, FOSTER CITY, CA, 94404","Match","Exact","614 BRIDGEPORT LN, FOSTER CITY, CA, 94404",192380857,"R"
767013,"614 BROADWAY","EAST ALTON","IL",62024,38.882782091,-90.106987724,13,"614 BROADWAY, EAST ALTON, IL, 62024","Match","Exact","614 BROADWAY, EAST ALTON, IL, 62024",107684517,"R"
767014,"614 BROWN ST","PERU","IA",50222,41.2266176270001,-93.932637938,14,"614 BROWN ST, PERU, IA, 50222","Match","Exact","614 BROWN ST, PERU, IA, 50222",647432780,"R"
767015,"614 BURCHSHIRE LN","WYLIE","TX",75098,33.0133018700001,-96.549909422,15,"614 BURCHSHIRE LN, WYLIE, TX, 75098","Match","Exact","614 BURCHSHIRE LN, WYLIE, TX, 75098",123529608,"R"
767016,"614 CALLAHAN DRIVE","JERMYN","PA",18433,NA,NA,16,"614 CALLAHAN DRIVE, JERMYN, PA, 18433","No_Match",NA,NA,NA,NA
767017,"614 CAMBRIA STREET","PORTAGE","PA",15946,40.386939145,-78.6744208549999,17,"614 CAMBRIA STREET, PORTAGE, PA, 15946","Match","Exact","614 CAMBRIA ST, PORTAGE, PA, 15946",605240779,"L"
767018,"614 CAPITAL AVENUE","BRIDGEPORT","CT",6606,41.195930941,-73.2021748729999,18,"614 CAPITAL AVENUE, BRIDGEPORT, CT, 6606","Match","Non_Exact","614 CAPITOL AVE, BRIDGEPORT, CT, 06606",3223487,"R"
767019,"614 CARMAN DRIVE","MANCHESTER","MO",63021,NA,NA,19,"614 CARMAN DRIVE, MANCHESTER, MO, 63021","No_Match",NA,NA,NA,NA
767020,"614 CARNATION DR","BILLINGS","MO",65610,37.07138042,-93.431188644,20,"614 CARNATION DR, BILLINGS, MO, 65610","Match","Exact","614 CARNATION DR, BILLINGS, MO, 65610",99848943,"R"
767021,"614 CARNATIONS DR","BILLINGS","MO",65610,37.07138042,-93.431188644,21,"614 CARNATIONS DR, BILLINGS, MO, 65610","Match","Non_Exact","614 CARNATION DR, BILLINGS, MO, 65610",99848943,"R"
767022,"614 CEDAR AVE","ST. CHARLES","IL",60174,41.9153206780001,-88.3078523199999,22,"614 CEDAR AVE, ST. CHARLES, IL, 60174","Match","Exact","614 CEDAR AVE, SAINT CHARLES, IL, 60174",119507386,"L"
767023,"614 CEDARCREST DR","BRIELLE","NJ",8730,40.1098658880001,-74.0522452129999,23,"614 CEDARCREST DR, BRIELLE, NJ, 8730","Match","Exact","614 CEDARCREST DR, BRIELLE, NJ, 08730",90468068,"L"
767024,"614 CEDARWOOD AVENUE","MILFORD","DE",19963,38.904486875,-75.4201830539999,24,"614 CEDARWOOD AVENUE, MILFORD, DE, 19963","Match","Exact","614 CEDARWOOD AVE, MILFORD, DE, 19963",106115601,"R"
767025,"614 CENTERBROOK","ROUND ROCK","TX",78665,30.571900462,-97.6816062,25,"614 CENTERBROOK, ROUND ROCK, TX, 78665","Match","Non_Exact","614 CENTERBROOK PL, ROUND ROCK, TX, 78665",619962507,"L"
767026,"614 CHEROKEE RD","CHARLOTTE","NC",28207,35.194984746,-80.820951555,26,"614 CHEROKEE RD, CHARLOTTE, NC, 28207","Match","Exact","614 CHEROKEE RD, CHARLOTTE, NC, 28207",70488230,"R"
767027,"614 CHINABERRY RD","MONROEVILLE","PA",15146,40.4483179260001,-79.7725910949999,27,"614 CHINABERRY RD, MONROEVILLE, PA, 15146","Match","Exact","614 CHINABERRY RD, MONROEVILLE, PA, 15146",51668962,"R"
767028,"614 CHRISTINE ST","PHILADELPHIA","MS",39350,32.7863849880001,-89.125558564,28,"614 CHRISTINE ST, PHILADELPHIA, MS, 39350","Match","Exact","614 CHRISTINE ST, PHILADELPHIA, MS, 39350",157770985,"R"
767029,"614 CHRYSLER DR APT 301","DETROIT","MI",48207,42.3338139050001,-83.0360446569999,29,"614 CHRYSLER DR APT 301, DETROIT, MI, 48207","Match","Exact","614 CHRYSLER DR, DETROIT, MI, 48207",95714984,"R"
767030,"614 CHURCH STREET","SANDPOINT","ID",83864,48.2740161360001,-116.555806634,30,"614 CHURCH STREET, SANDPOINT, ID, 83864","Match","Exact","614 CHURCH ST, SANDPOINT, ID, 83864",169476298,"R"
767031,"614 CIDER PRESS  LOOP","JOPPA","MD",21085,39.417293613,-76.354429209,31,"614 CIDER PRESS  LOOP, JOPPA, MD, 21085","Match","Exact","614 CIDER PRESS LOOP, JOPPA, MD, 21085",606806806,"R"
767032,"614 CIRCLEWOOD DRIVE","PARADISE","CA",95969,39.7439075140001,-121.629520251,32,"614 CIRCLEWOOD DRIVE, PARADISE, CA, 95969","Match","Exact","614 CIRCLEWOOD DR, PARADISE, CA, 95969",68416092,"R"
767033,"614 CORPORATE WAY 3-M","VALLEY COTTAGE","NY",10989,41.12923872,-73.943873488,33,"614 CORPORATE WAY 3-M, VALLEY COTTAGE, NY, 10989","Match","Exact","614 CORPORATE WAY, VALLEY COTTAGE, NY, 10989",124619460,"L"
767034,"614 CORRAL STR","MOLALLA","OR",97038,45.1543404120001,-122.5860935,34,"614 CORRAL STR, MOLALLA, OR, 97038","Match","Non_Exact","614 CORRAL CT, MOLALLA, OR, 97038",157945988,"L"
767035,"614 CORWIN CT","BEAR","DE",19701,39.619002686,-75.673724195,35,"614 CORWIN CT, BEAR, DE, 19701","Match","Exact","614 CORWIN CT, BEAR, DE, 19701",606262372,"R"
767036,"614 COUNTY ROAD","LUBEC","ME",4652,44.8266873200001,-67.043493801,36,"614 COUNTY ROAD, LUBEC, ME, 4652","Match","Exact","614 COUNTY RD, LUBEC, ME, 04652",124247111,"R"
767037,"614 COVENTRY LANE","SOMMERSET","NJ",8873,40.4484188640001,-74.5276455489999,37,"614 COVENTRY LANE, SOMMERSET, NJ, 8873","Match","Non_Exact","614 COVENTRY LN, SOMERSET, NJ, 08873",635270424,"L"
767038,"614 CRESTON AVENUE","DES MOINES","IA",50315,41.559966204,-93.62252813,38,"614 CRESTON AVENUE, DES MOINES, IA, 50315","Match","Exact","614 CRESTON AVE, DES MOINES, IA, 50315",65785997,"L"
767039,"614 CROWS NEST COURT","VIRGINIA BEACH","VA",23462,36.8566263070001,-76.170677864,39,"614 CROWS NEST COURT, VIRGINIA BEACH, VA, 23462","Match","Exact","614 CROWS NEST CT, VA BCH, VA, 23462",122301321,"R"
767040,"614 DAHLIA WAY","ACWORTH","GA",30102,34.063093716,-84.568354917,40,"614 DAHLIA WAY, ACWORTH, GA, 30102","Match","Exact","614 DAHLIA WAY, ACWORTH, GA, 30102",17215656,"L"
767041,"614 DAY STREET","DECORAH","IA",52101,43.29902658,-91.783608487,41,"614 DAY STREET, DECORAH, IA, 52101","Match","Exact","614 DAY ST, DECORAH, IA, 52101",27524711,"R"
767042,"614 DEL CIRCLE","LOWELL","AR",72745,36.2635084660001,-94.1315992949999,42,"614 DEL CIRCLE, LOWELL, AR, 72745","Match","Exact","614 DEL CIR, LOWELL, AR, 72745",47878838,"R"
767043,"614 DELAWARE ST SE APT 606W","MINNEAPOLIS","MN",55455,44.9725465820001,-93.229363221,43,"614 DELAWARE ST SE APT 606W, MINNEAPOLIS, MN, 55455","Match","Exact","614 DELAWARE ST SE, MINNEAPOLIS, MN, 55455",43638343,"R"
767044,"614 DEPOT","MERIDIAN","TX",76665,31.9221026930001,-97.64469235,44,"614 DEPOT, MERIDIAN, TX, 76665","Match","Exact","614 DEPOT, MERIDIAN, TX, 76665",158580695,"L"
767045,"614 DIVISION ST","BURLINGTON","IA",52601,40.8073728360001,-91.107492668,45,"614 DIVISION ST, BURLINGTON, IA, 52601","Match","Exact","614 DIVISION ST, BURLINGTON, IA, 52601",5542148,"R"
767046,"614 DOCKERY RD","RAEFORD","NC",28376,NA,NA,46,"614 DOCKERY RD, RAEFORD, NC, 28376","No_Match",NA,NA,NA,NA
767047,"614 DUFF DRIVE","WINTER GARDEN","FL",34787,28.5307629430001,-81.584023778,47,"614 DUFF DRIVE, WINTER GARDEN, FL, 34787","Match","Exact","614 DUFF DR, WINTER GARDEN, FL, 34787",634028584,"L"
767048,"614 DUNCAN AVE","MODESTO","CA",95354,37.653163568,-120.98642863,48,"614 DUNCAN AVE, MODESTO, CA, 95354","Match","Exact","614 DUNCAN AVE, MODESTO, CA, 95354",102604809,"R"
767049,"614 DUPONT STREET","CHESTER","PA",19013,39.858008517,-75.355885003,49,"614 DUPONT STREET, CHESTER, PA, 19013","Match","Exact","614 DUPONT ST, CHESTER, PA, 19013",134881768,"L"
767050,"614 E 101ST STREET","CHICAGO","IL",60628,41.7110608400001,-87.608031492,50,"614 E 101ST STREET, CHICAGO, IL, 60628","Match","Exact","614 E 101ST ST, CHICAGO, IL, 60628",605518663,"L"
767051,"614 E 24TH ST","PATERSON","NJ",7514,40.919519232,-74.150174707,51,"614 E 24TH ST, PATERSON, NJ, 7514","Match","Exact","614 E 24TH ST, PATERSON, NJ, 07514",65264440,"R"
767052,"614 E 2ND STREET","PANA","IL",62557,39.387923599,-89.074085971,52,"614 E 2ND STREET, PANA, IL, 62557","Match","Exact","614 E 2ND ST, PANA, IL, 62557",99314178,"R"
767053,"614 E 4010 S","SALT LAKE CITY","UT",84107,40.684595335,-111.873869764,53,"614 E 4010 S, SALT LAKE CITY, UT, 84107","Match","Exact","614 E 4010 S, SALT LAKE CITY, UT, 84107",176079806,"R"
767054,"614 E 4TH AVE","BRISTOW","OK",74010,35.8308018290001,-96.3831723499999,54,"614 E 4TH AVE, BRISTOW, OK, 74010","Match","Exact","614 E 4TH AVE, BRISTOW, OK, 74010",165853092,"L"
767055,"614 E 7TH AVENUE","SLC",NA,NA,40.777358255,-111.871069411,55,"614 E 7TH AVENUE, SLC, , ","Match","Exact","614 E 7TH AVE, SLC, UT, 84103",176067881,"R"
767056,"614 E COURT STREET","VIROQUA","WI",54665,43.556296531,-90.882311471,56,"614 E COURT STREET, VIROQUA, WI, 54665","Match","Exact","614 E COURT ST, VIROQUA, WI, 54665",48628376,"L"
767057,"614 E EMMA AVE STE 113","SPRINGDALE","AR",72764,NA,NA,57,"614 E EMMA AVE STE 113, SPRINGDALE, AR, 72764","Tie",NA,NA,NA,NA
767058,"614 E EMMA AVE STE M414","SPRINGDALE","AR",72764,NA,NA,58,"614 E EMMA AVE STE M414, SPRINGDALE, AR, 72764","Tie",NA,NA,NA,NA
767059,"614 E EMMA STREET SUITE 203","SPRINGDALE","AR",72764,NA,NA,59,"614 E EMMA STREET SUITE 203, SPRINGDALE, AR, 72764","No_Match",NA,NA,NA,NA
767060,"614 E HIGH RIDGE LN","ALPINE","UT",84004,40.44403799,-111.76817109,60,"614 E HIGH RIDGE LN, ALPINE, UT, 84004","Match","Exact","614 HIGH RIDGE LN, ALPINE, UT, 84004",227058316,"R"
767061,"614 E HIGHWAY 50","CLERMONT","FL",34761,NA,NA,61,"614 E HIGHWAY 50, CLERMONT, FL, 34761","No_Match",NA,NA,NA,NA
767062,"614 E HWY 50 244","CLERMONT","FL",34711,28.551344946,-81.76547411,62,"614 E HWY 50 244, CLERMONT, FL, 34711","Match","Non_Exact","614 STATE RD 50, CLERMONT, FL, 34711",94103891,"R"
767063,"614 E LEMOYNE AVE","LOMBARD","IL",60148,41.903640056,-88.002314072,63,"614 E LEMOYNE AVE, LOMBARD, IL, 60148","Match","Non_Exact","614 E LE MOYNE AVE, LOMBARD, IL, 60148",112524481,"L"
767064,"614 E MADISON ST","CRANDON","WI",54520,45.569474841,-88.89637649,64,"614 E MADISON ST, CRANDON, WI, 54520","Match","Exact","614 E MADISON ST, CRANDON, WI, 54520",170275135,"R"
767065,"614 E NORTH AVE","EFFINGHAM","IL",62401,39.1301653150001,-88.5339961299999,65,"614 E NORTH AVE, EFFINGHAM, IL, 62401","Match","Exact","614 E NORTH AVE, EFFINGHAM, IL, 62401",94758689,"L"
767066,"614 E OAKWOOD BLVD","CHICAGO","IL",60653,41.822699362,-87.611363103,66,"614 E OAKWOOD BLVD, CHICAGO, IL, 60653","Match","Exact","614 E OAKWOOD BLVD, CHICAGO, IL, 60653",111770735,"L"
767067,"614 E RANDOLPH","KIRKSVILLE","MO",63501,40.1871457120001,-92.577734176,67,"614 E RANDOLPH, KIRKSVILLE, MO, 63501","Match","Non_Exact","614 E RANDOLPH ST, KIRKSVILLE, MO, 63501",24762286,"L"
767068,"614 E STATE RD 50 STE 136","CLERMONT","FL",34711,28.551344946,-81.76547411,68,"614 E STATE RD 50 STE 136, CLERMONT, FL, 34711","Match","Exact","614 STATE RD 50, CLERMONT, FL, 34711",94103891,"R"
767069,"614 E VERDUGO -210","BURBANK","CA",91501,NA,NA,69,"614 E VERDUGO -210, BURBANK, CA, 91501","No_Match",NA,NA,NA,NA
767070,"614 E VERDUGO- 210","BURBANK","CA",91501,NA,NA,70,"614 E VERDUGO- 210, BURBANK, CA, 91501","No_Match",NA,NA,NA,NA
767071,"614 E VERDUGO-210","BURBANK","CA",91501,NA,NA,71,"614 E VERDUGO-210, BURBANK, CA, 91501","No_Match",NA,NA,NA,NA
767072,"614 EARL","PUEBLO WEST","CO",81007,NA,NA,72,"614 EARL, PUEBLO WEST, CO, 81007","No_Match",NA,NA,NA,NA
767073,"614 EAST 51 STREET","HIALEAH","FL",33013,25.868999737,-80.270369241,73,"614 EAST 51 STREET, HIALEAH, FL, 33013","Match","Exact","614 E 51ST ST, HIALEAH, FL, 33013",115997885,"R"
767074,"614 EAST 51 STREET","MIAMI LAKES","FL",33013,25.868999737,-80.270369241,74,"614 EAST 51 STREET, MIAMI LAKES, FL, 33013","Match","Non_Exact","614 E 51ST ST, HIALEAH, FL, 33013",115997885,"R"
767075,"614 EAST AUSTIN STREET","MULESHOE","TX",79347,34.230248982,-102.718882101,75,"614 EAST AUSTIN STREET, MULESHOE, TX, 79347","Match","Exact","614 E AUSTIN ST, MULESHOE, TX, 79347",163970334,"R"
767076,"614 EAST C STREET","IRON MOUNTAIN","MI",49801,45.81648936,-88.0590703459999,76,"614 EAST C STREET, IRON MOUNTAIN, MI, 49801","Match","Exact","614 E C ST, IRON MOUNTAIN, MI, 49801",170158862,"R"
767077,"614 EAST HAMPTON PLACE","CANTON","GA",30115,34.2509746650001,-84.349159078,77,"614 EAST HAMPTON PLACE, CANTON, GA, 30115","Match","Exact","614 E HAMPTON PL, CANTON, GA, 30115",625712479,"L"
767078,"614 EAST HIGHWAY 50 NUMBER 127","CLERMONT","FL",34711,NA,NA,78,"614 EAST HIGHWAY 50 NUMBER 127, CLERMONT, FL, 34711","No_Match",NA,NA,NA,NA
767079,"614 EAST HWY 50 244","CLERMONT","FL",34711,NA,NA,79,"614 EAST HWY 50 244, CLERMONT, FL, 34711","No_Match",NA,NA,NA,NA
767080,"614 EAST LITTLE CREEK RD","NORFOLK","VA",23505,36.916585474,-76.255303666,80,"614 EAST LITTLE CREEK RD, NORFOLK, VA, 23505","Match","Exact","614 E LITTLE CREEK RD, NORFOLK, VA, 23505",613336305,"L"
767081,"614 EAST MANCHESTER BOULEVARD","IINGLEWOOD","CA",90301,33.9605050650001,-118.347020601,81,"614 EAST MANCHESTER BOULEVARD, IINGLEWOOD, CA, 90301","Match","Non_Exact","614 E MANCHESTER BLVD, INGLEWOOD, CA, 90301",141655302,"R"
767082,"614 EAST MANCHESTER BOULEVARD","INGLEWOOD","CA",90301,33.9605050650001,-118.347020601,82,"614 EAST MANCHESTER BOULEVARD, INGLEWOOD, CA, 90301","Match","Exact","614 E MANCHESTER BLVD, INGLEWOOD, CA, 90301",141655302,"R"
767083,"614 EAST MANCHESTER BOULEVARD","INGLEWOOF","CA",90301,33.9605050650001,-118.347020601,83,"614 EAST MANCHESTER BOULEVARD, INGLEWOOF, CA, 90301","Match","Non_Exact","614 E MANCHESTER BLVD, INGLEWOOD, CA, 90301",141655302,"R"
767084,"614 EAST MOLER AVE","MARTINSBURG","WV",25401,39.464612151,-77.950757131,84,"614 EAST MOLER AVE, MARTINSBURG, WV, 25401","Match","Non_Exact","614 E MOLER AVE, MARTINSBURG, WV, 25404",607673850,"L"
767085,"614 EAST MULBERRY STREET APT 3","BLOOMINGTON","IL",61701,40.4838185520001,-88.984221933,85,"614 EAST MULBERRY STREET APT 3, BLOOMINGTON, IL, 61701","Match","Exact","614 E MULBERRY ST, BLOOMINGTON, IL, 61701",20547673,"L"
767086,"614 ELAINE ST","CLEARWATER","KS",67026,37.506886298,-97.499646102,86,"614 ELAINE ST, CLEARWATER, KS, 67026","Match","Exact","614 ELAINE ST, CLEARWATER, KS, 67026",115697556,"L"
767087,"614 ELLIOTT ST NE  APT 1A","WASHINGTON","DC",20002,38.897633839,-76.986513999,87,"614 ELLIOTT ST NE  APT 1A, WASHINGTON, DC, 20002","Match","Exact","614 ELLIOTT ST NE, WASHINGTON, DC, 20002",76230321,"L"
767088,"614 ELM ST","MINNEAPOLIS","KS",67467,39.1266211810001,-97.704824827,88,"614 ELM ST, MINNEAPOLIS, KS, 67467","Match","Exact","614 ELM ST, MINNEAPOLIS, KS, 67467",148344403,"R"
767089,"614 ELM STREET","PAWNEE","OK",74058,36.334445041,-96.804267075,89,"614 ELM STREET, PAWNEE, OK, 74058","Match","Exact","614 ELM ST, PAWNEE, OK, 74058",166310353,"R"
767090,"614 ELMWOOD AVE","GADSDEN","AL",35903,34.004658481,-85.9861129399999,90,"614 ELMWOOD AVE, GADSDEN, AL, 35903","Match","Exact","614 ELMWOOD AVE, GADSDEN, AL, 35903",66772239,"L"
767091,"614 EMERSON STREET NE","WASHINGTON","DC",20017,38.950053047,-76.997577481,91,"614 EMERSON STREET NE, WASHINGTON, DC, 20017","Match","Exact","614 EMERSON ST NE, WASHINGTON, DC, 20017",76228160,"L"
767092,"614 EXECUTIVE CENTER DRIVE APT 4205","WEST PALM BEACH","FL",33401,26.710928289,-80.076394872,92,"614 EXECUTIVE CENTER DRIVE APT 4205, WEST PALM BEACH, FL, 33401","Match","Exact","614 EXECUTIVE CENTER DR, WEST PALM BEACH, FL, 33401",649884695,"L"
767093,"614 FERN HILL RD","BRISTOL","CT",6010,41.70101191,-72.93753115,93,"614 FERN HILL RD, BRISTOL, CT, 6010","Match","Exact","614 FERN HILL RD, BRISTOL, CT, 06010",623929607,"R"
767094,"614 FERRIS STREET SW","ATLANTA","GA",30310,33.7384191460001,-84.4538989709999,94,"614 FERRIS STREET SW, ATLANTA, GA, 30310","Match","Exact","614 FERRIS ST SW, ATLANTA, GA, 30310",17341057,"L"
767095,"614 FIRST STREET","SCOTIA","CA",95565,40.4823376410001,-124.101028098,95,"614 FIRST STREET, SCOTIA, CA, 95565","Match","Exact","614 1ST ST, SCOTIA, CA, 95565",113039359,"L"
767096,"614 FLAT ROCK DR","PAULDING","OH",45879,41.13885342,-84.5736725099999,96,"614 FLAT ROCK DR, PAULDING, OH, 45879","Match","Non_Exact","614 FLATROCK DR, PAULDING, OH, 45879",6711706,"L"
767097,"614 FLATBUSH AVE APT 1R","BROOKLYN","NY",11225,40.6584404770001,-73.96049267,97,"614 FLATBUSH AVE APT 1R, BROOKLYN, NY, 11225","Match","Exact","614 FLATBUSH AVE, BROOKLYN, NY, 11225",59078555,"R"
767098,"614 FLATBUSH AVENUE","BROOKLYN","NY",11225,40.6584404770001,-73.96049267,98,"614 FLATBUSH AVENUE, BROOKLYN, NY, 11225","Match","Exact","614 FLATBUSH AVE, BROOKLYN, NY, 11225",59078555,"R"
767099,"614 FM 850 WEST","OVERTON","TX",75684,32.262902008,-94.871753831,99,"614 FM 850 WEST, OVERTON, TX, 75684","Match","Non_Exact","614 FM 850, OVERTON, TX, 75684",79628908,"L"
767100,"614 FOX HUNT CIRCLE","LONGWOOD","FL",32750,28.727594937,-81.356072734,100,"614 FOX HUNT CIRCLE, LONGWOOD, FL, 32750","Match","Exact","614 FOX HUNT CIR, LONGWOOD, FL, 32750",93771515,"L"
767101,"614 FRANKLIN ST","JOHNSTOWN","PA",15901,40.3193684710001,-78.9172583979999,101,"614 FRANKLIN ST, JOHNSTOWN, PA, 15901","Match","Exact","614 FRANKLIN ST, JOHNSTOWN, PA, 15901",50231174,"R"
767102,"614 GALER ST UNIT 429","SEATTLE","WA",98109,47.632329504,-122.344627346,102,"614 GALER ST UNIT 429, SEATTLE, WA, 98109","Match","Exact","614 GALER ST, SEATTLE, WA, 98109",187041384,"L"
767103,"614 GATELY TERRACE","MADISON","WI",53711,43.0529537090001,-89.4455467619999,103,"614 GATELY TERRACE, MADISON, WI, 53711","Match","Exact","614 GATELY TER, MADISON, WI, 53711",49469624,"R"
767104,"614 GEORGIA STREET","SAN MARCOS","TX",78666,29.870953838,-97.9439137799999,104,"614 GEORGIA STREET, SAN MARCOS, TX, 78666","Match","Exact","614 GEORGIA ST, SAN MARCOS, TX, 78666",63813404,"L"
767105,"614 GLENWOOD STREET","EMMAUS","PA",18049,40.550871896,-75.482288652,105,"614 GLENWOOD STREET, EMMAUS, PA, 18049","Match","Exact","614 GLENWOOD ST, EMMAUS, PA, 18049",80770779,"R"
767106,"614 GLOVER STREET","EUSTIS","FL",32726,NA,NA,106,"614 GLOVER STREET, EUSTIS, FL, 32726","No_Match",NA,NA,NA,NA
767107,"614 GOLFVIEW ROAD","SPRINGFIELD","PA",19064,39.940415494,-75.338791014,107,"614 GOLFVIEW ROAD, SPRINGFIELD, PA, 19064","Match","Exact","614 GOLFVIEW RD, SPRINGFIELD, PA, 19064",134874343,"L"
767108,"614 GREEN STREET","CENTRALIA","MO",65240,39.2040551430001,-92.141634166,108,"614 GREEN STREET, CENTRALIA, MO, 65240","Match","Non_Exact","614 GREEN AVE, CENTRALIA, MO, 65240",23476599,"R"
767109,"614 GULPH ROAD","WAYNE","PA",19087,40.0919517820001,-75.428027894,109,"614 GULPH ROAD, WAYNE, PA, 19087","Match","Exact","614 GULPH RD, WAYNE, PA, 19087",179498387,"R"
767110,"614 HAMMERSHIRE ROAD","OWINGS MILLS","MD",21117,39.4429708220001,-76.7956972659999,110,"614 HAMMERSHIRE ROAD, OWINGS MILLS, MD, 21117","Match","Exact","614 HAMMERSHIRE RD, OWINGS MILLS, MD, 21117",191465480,"L"
767111,"614 HARDING BLVD","COTTER","AR",72626,36.27301821,-92.53374089,111,"614 HARDING BLVD, COTTER, AR, 72626","Match","Exact","614 HARDING BLVD, COTTER, AR, 72626",2950069,"R"
767112,"614 HARRIS STREET","JUNEAU","AK",99801,58.3040579570001,-134.408197849,112,"614 HARRIS STREET, JUNEAU, AK, 99801","Match","Exact","614 HARRIS ST, JUNEAU, AK, 99801",190964343,"R"
767113,"614 HERONS NEST COURT","ORLANDO","FL",32825,28.5533854880001,-81.224550135,113,"614 HERONS NEST COURT, ORLANDO, FL, 32825","Match","Exact","614 HERONS NEST CT, ORLANDO, FL, 32825",94340672,"L"
767114,"614 HICKORY STREET","FENTON","MI",48430,42.7992021050001,-83.711314976,114,"614 HICKORY STREET, FENTON, MI, 48430","Match","Exact","614 HICKORY ST, FENTON, MI, 48430",69580078,"L"
767115,"614 HIGH ST","LESLIE","AR",72645,35.829224567,-92.556053092,115,"614 HIGH ST, LESLIE, AR, 72645","Match","Exact","614 HIGH ST, LESLIE, AR, 72645",2226994,"L"
767116,"614 HIGHLANDER DRIVE","RIVERSIDE","CA",92507,33.9838254800001,-117.325041952,116,"614 HIGHLANDER DRIVE, RIVERSIDE, CA, 92507","Match","Exact","614 HIGHLANDER DR, RIVERSIDE, CA, 92507",194746502,"L"
767117,"614 HOBCAW BLUFF DRIVE","MT. PLEASANT","SC",29464,32.8336833750001,-79.861630673,117,"614 HOBCAW BLUFF DRIVE, MT. PLEASANT, SC, 29464","Match","Exact","614 HOBCAW BLUFF DR, MOUNT PLEASANT, SC, 29464",108829411,"L"
767118,"614 HOKULANI STREET","HONOLULU","HI",96825,NA,NA,118,"614 HOKULANI STREET, HONOLULU, HI, 96825","No_Match",NA,NA,NA,NA
767119,"614 HORICON STREET","HORICON","WI",53032,43.4465714070001,-88.647022971,119,"614 HORICON STREET, HORICON, WI, 53032","Match","Exact","614 HORICON ST, HORICON, WI, 53032",53553083,"R"
767120,"614 JEFFERSON STREET NE","MINNEAPOLIS","MN",55413,44.9954653010001,-93.2549972049999,120,"614 JEFFERSON STREET NE, MINNEAPOLIS, MN, 55413","Match","Exact","614 JEFFERSON ST NE, MINNEAPOLIS, MN, 55413",43632832,"L"
767121,"614 JENNY WREN","VAN BUREN","AR",72956,35.454384459,-94.368993863,121,"614 JENNY WREN, VAN BUREN, AR, 72956","Match","Non_Exact","614 JENNY WREN ST, VAN BUREN, AR, 72956",53490499,"R"
767122,"614 KEARNEYWOOD STREET","LAKELAND","FL",33803,28.0137096350001,-81.9513153619999,122,"614 KEARNEYWOOD STREET, LAKELAND, FL, 33803","Match","Non_Exact","614 KERNEYWOOD ST, LAKELAND, FL, 33803",104811319,"L"
767123,"614 KEMP CEMETERY ROAD","WEWAHITCHKA","FL",32465,30.151829047,-85.300056755,123,"614 KEMP CEMETERY ROAD, WEWAHITCHKA, FL, 32465","Match","Exact","614 KEMP CEMETERY RD, WEWAHITCHKA, FL, 32465",605023430,"R"
767124,"614 KENSINGTONE DR","DUNCANVILLE","TX",75137,32.6466721780001,-96.928883468,124,"614 KENSINGTONE DR, DUNCANVILLE, TX, 75137","Match","Non_Exact","614 KENSINGTON DR, DUNCANVILLE, TX, 75137",102941875,"L"
767125,"614 KING STREET","SELMA","AL",36701,32.4098848570001,-87.032235069,125,"614 KING STREET, SELMA, AL, 36701","Match","Exact","614 KING ST, SELMA, AL, 36701",1284015,"R"
767126,"614 KINGFISHER","AUSTIN","TX",78748,NA,NA,126,"614 KINGFISHER, AUSTIN, TX, 78748","No_Match",NA,NA,NA,NA
767127,"614 LAFAYETTE AVENUE   APT  F","MIDDLETOWN","OH",45044,39.494009879,-84.414439869,127,"614 LAFAYETTE AVENUE   APT  F, MIDDLETOWN, OH, 45044","Match","Exact","614 LAFAYETTE AVE, MIDDLETOWN, OH, 45044",113815782,"R"
767128,"614 LAFAYETTE BLVD","WILMINGTON","DE",19801,39.7413130690001,-75.557349659,128,"614 LAFAYETTE BLVD, WILMINGTON, DE, 19801","Match","Exact","614 LAFAYETTE BLVD, WILMINGTON, DE, 19801",187301765,"L"
767129,"614 LAKEWOODE CIRCLE WEST","DELRAY BEACH","FL",33445,NA,NA,129,"614 LAKEWOODE CIRCLE WEST, DELRAY BEACH, FL, 33445","No_Match",NA,NA,NA,NA
767130,"614 LAMPLIGHT DR","DELAWARE","OH",43015,40.3196329420001,-83.107757689,130,"614 LAMPLIGHT DR, DELAWARE, OH, 43015","Match","Exact","614 LAMPLIGHT DR, DELAWARE, OH, 43015",24612547,"R"
767131,"614 LANIER AVE","ROCKY POINT","NC",28457,34.455702436,-77.891991945,131,"614 LANIER AVE, ROCKY POINT, NC, 28457","Match","Exact","614 LANIER AVE, ROCKY POINT, NC, 28457",14144376,"R"
767132,"614 LAUREL ROAD","ATHENS","TX",75751,32.194614927,-95.8472663049999,132,"614 LAUREL ROAD, ATHENS, TX, 75751","Match","Exact","614 LAUREL RD, ATHENS, TX, 75751",125803701,"L"
767133,"614 LESTER RD","FAYETTEVILLE","GA",30215,33.417533216,-84.503145439,133,"614 LESTER RD, FAYETTEVILLE, GA, 30215","Match","Exact","614 LESTER RD, FAYETTEVILLE, GA, 30215",75948759,"R"
767134,"614 LESTER ROAD","FAYETTEVILLE","GA",30215,33.417533216,-84.503145439,134,"614 LESTER ROAD, FAYETTEVILLE, GA, 30215","Match","Exact","614 LESTER RD, FAYETTEVILLE, GA, 30215",75948759,"R"
767135,"614 LEWIS STREET","BREWTON","AL",36426,31.1254077340001,-87.061336754,135,"614 LEWIS STREET, BREWTON, AL, 36426","Match","Exact","614 LEWIS ST, BREWTON, AL, 36426",1942906,"R"
767136,"614 LIBERTY LANE","MADISON","VA",22727,38.3596953260001,-78.20998136,136,"614 LIBERTY LANE, MADISON, VA, 22727","Match","Exact","614 LIBERTY LN, MADISON, VA, 22727",653497802,"L"
767137,"614 LINCOLN PLACE","BROOKLYN","NY",11216,40.67121252,-73.9561087439999,137,"614 LINCOLN PLACE, BROOKLYN, NY, 11216","Match","Exact","614 LINCOLN PL, BROOKLYN, NY, 11216",59079377,"R"
767138,"614 LITTLE RIVER RD","NORMAN","OK",73071,35.271263624,-97.431455345,138,"614 LITTLE RIVER RD, NORMAN, OK, 73071","Match","Exact","614 LITTLE RIVER RD, NORMAN, OK, 73071",99929656,"R"
767139,"614 LONGFELLOW STREET NW APT 102","WASHINGTON","DC",20011,38.957476645,-77.021303022,139,"614 LONGFELLOW STREET NW APT 102, WASHINGTON, DC, 20011","Match","Exact","614 LONGFELLOW ST NW, WASHINGTON, DC, 20011",76223345,"L"
767140,"614 LYNN ST APT 207","DANVILLE","VA",24541,36.5840646240001,-79.38711476,140,"614 LYNN ST APT 207, DANVILLE, VA, 24541","Match","Exact","614 LYNN ST, DANVILLE, VA, 24541",56589936,"R"
767141,"614 MACDONOUGH ST","BROOKLYN","NY",11233,40.6835249960001,-73.921829224,141,"614 MACDONOUGH ST, BROOKLYN, NY, 11233","Match","Exact","614 MACDONOUGH ST, BROOKLYN, NY, 11233",59082887,"R"
767142,"614 MAGNOLIA","BOWLING GREEN","KY",42103,36.9862477290001,-86.424564141,142,"614 MAGNOLIA, BOWLING GREEN, KY, 42103","Match","Non_Exact","614 MAGNOLIA ST, BOWLING GREEN, KY, 42103",636632738,"R"
767143,"614 MAIN STREET","OSAGE","IA",50461,43.28407961,-92.812520364,143,"614 MAIN STREET, OSAGE, IA, 50461","Match","Exact","614 MAIN ST, OSAGE, IA, 50461",7470646,"L"
767144,"614 MANOR STREET","COLUMBIA","PA",17512,40.027182075,-76.492199494,144,"614 MANOR STREET, COLUMBIA, PA, 17512","Match","Exact","614 MANOR ST, COLUMBIA, PA, 17512",179679905,"L"
767145,"614 MANOR VIEW LN","WEST NEWTON","PA",15089,40.21949526,-79.7718847949999,145,"614 MANOR VIEW LN, WEST NEWTON, PA, 15089","Match","Non_Exact","614 MANORVIEW LN, WEST NEWTON, PA, 15089",52994301,"R"
767146,"614 MAPLE AVE","HARVEY","LA",70058,29.906077769,-90.073291775,146,"614 MAPLE AVE, HARVEY, LA, 70058","Match","Exact","614 MAPLE AVE, HARVEY, LA, 70058",631888003,"R"
767147,"614 MARION HILL LANE","RUSKIN","FL",33570,27.7285470890001,-82.4412343879999,147,"614 MARION HILL LANE, RUSKIN, FL, 33570","Match","Exact","614 MARION HILL LN, RUSKIN, FL, 33570",624780169,"L"
767148,"614 MARTIN ST","STEILACOOM","WA",98388,47.169612676,-122.605033656,148,"614 MARTIN ST, STEILACOOM, WA, 98388","Match","Exact","614 MARTIN ST, STEILACOOM, WA, 98388",184617663,"R"
767149,"614 MELISSA LN","GARLAND","TX",75040,32.9333091670001,-96.623846758,149,"614 MELISSA LN, GARLAND, TX, 75040","Match","Exact","614 MELISSA LN, GARLAND, TX, 75040",102926428,"L"
767150,"614 MERRIMACRIDGE LANE","SPRING","TX",77373,30.094011439,-95.422605678,150,"614 MERRIMACRIDGE LANE, SPRING, TX, 77373","Match","Non_Exact","614 MERRIMAC RIDGE LN, SPRING, TX, 77373",638592670,"L"
767151,"614 MERRITT AVENUE","NASHVILLE","TN",37203,36.1398245980001,-86.76991634,151,"614 MERRITT AVENUE, NASHVILLE, TN, 37203","Match","Exact","614 MERRITT AVE, NASHVILLE, TN, 37203",606384220,"R"
767152,"614 MONROE STREET","PELLA","IA",50219,41.4142311260001,-92.9144955739999,152,"614 MONROE STREET, PELLA, IA, 50219","Match","Exact","614 MONROE ST, PELLA, IA, 50219",89473206,"R"
767153,"614 MOSS WAY","PALISADE","CO",81521,39.111367322,-108.360986294,153,"614 MOSS WAY, PALISADE, CO, 81521","Match","Non_Exact","614 MOSS WAY, PALISADE, CO, 81526",636861625,"R"
767154,"614 N 12TH STREET","ADEL","IA",50003,41.622061591,-94.023152215,154,"614 N 12TH STREET, ADEL, IA, 50003","Match","Exact","614 N 12TH ST, ADEL, IA, 50003",65630843,"R"
767155,"614 N 2ND STREET","LAVALE","MD",21502,39.654666895,-78.815005323,155,"614 N 2ND STREET, LAVALE, MD, 21502","Match","Exact","614 N 2ND ST, LAVALE, MD, 21502",123311246,"L"
767156,"614 N BRADFORD ST","DOVER","DE",19904,39.170393339,-75.530450801,156,"614 N BRADFORD ST, DOVER, DE, 19904","Match","Exact","614 N BRADFORD ST, DOVER, DE, 19904",635420274,"L"
767157,"614 N CEDAR","CRESTON","IA",50801,41.063629156,-94.35164169,157,"614 N CEDAR, CRESTON, IA, 50801","Match","Non_Exact","614 N CEDAR ST, CRESTON, IA, 50801",75232155,"L"
767158,"614 N FLAMINGO DRIVE","SEABROOK","TX",77586,29.5860606210001,-94.9998104429999,158,"614 N FLAMINGO DRIVE, SEABROOK, TX, 77586","Match","Exact","614 N FLAMINGO DR, SEABROOK, TX, 77586",96117189,"L"
767159,"614 N JEFFERSON ST","MUNCIE","IN",47305,40.198314528,-85.3841495569999,159,"614 N JEFFERSON ST, MUNCIE, IN, 47305","Match","Exact","614 N JEFFERSON ST, MUNCIE, IN, 47305",30836410,"R"
767160,"614 N JUNIATA STREET","BLUE GRASS","IA",52726,41.514159824,-90.7669545479999,160,"614 N JUNIATA STREET, BLUE GRASS, IA, 52726","Match","Exact","614 N JUNIATA ST, BLUE GRASS, IA, 52726",122724381,"L"
767161,"614 N LAST CHANCE GULCH","HELENA","MT",59601,46.5921622970001,-112.036801968,161,"614 N LAST CHANCE GULCH, HELENA, MT, 59601","Match","Exact","614 N LAST CHANCE GULCH, HELENA, MT, 59601",202349595,"L"
767162,"614 N MAIN ST","PAYNE","OH",45880,41.0864996550001,-84.726738336,162,"614 N MAIN ST, PAYNE, OH, 45880","Match","Exact","614 N MAIN ST, PAYNE, OH, 45880",6717825,"R"
767163,"614 N MURRAY AVE","ANDERSON","SC",29625,34.5088298270001,-82.6530685119999,163,"614 N MURRAY AVE, ANDERSON, SC, 29625","Match","Exact","614 N MURRAY AVE, ANDERSON, SC, 29625",25451242,"R"
767164,"614 N PINOS ALTOS ST","SILVER CITY","NM",88961,32.7728054040001,-108.278299382,164,"614 N PINOS ALTOS ST, SILVER CITY, NM, 88961","Match","Non_Exact","614 N PINOS ALTOS ST, SILVER CITY, NM, 88061",192654359,"R"
767165,"614 NAKOMI DR","LEXINGTON","KY",40503,38.0092739310001,-84.5433836559999,165,"614 NAKOMI DR, LEXINGTON, KY, 40503","Match","Exact","614 NAKOMI DR, LEXINGTON, KY, 40503",31920130,"L"
767166,"614 NE 4TH ST","OKLAHOMA CITY","OK",73104,35.4715262500001,-97.501422077,166,"614 NE 4TH ST, OKLAHOMA CITY, OK, 73104","Match","Exact","614 NE 4TH ST, OKLAHOMA CITY, OK, 73104",635617690,"R"
767167,"614 NEVADA ST STE 1","REDLANDS","CA",92373,34.0662109850001,-117.217449934,167,"614 NEVADA ST STE 1, REDLANDS, CA, 92373","Match","Exact","614 NEVADA ST, REDLANDS, CA, 92373",614817677,"R"
767168,"614 NEWTOWN RD","VILLANOVA","PA",19085,40.0293372300001,-75.368107616,168,"614 NEWTOWN RD, VILLANOVA, PA, 19085","Match","Exact","614 NEWTOWN RD, VILLANOVA, PA, 19085",648091777,"R"
767169,"614 NORTH 17TH STREET","HARRISBURG","PA",17103,40.2722942440001,-76.867154534,169,"614 NORTH 17TH STREET, HARRISBURG, PA, 17103","Match","Exact","614 N 17TH ST, HARRISBURG, PA, 17103",70818053,"L"
767170,"614 NORTH 18150 WEST","FAIRFIELD","UT",84013,NA,NA,170,"614 NORTH 18150 WEST, FAIRFIELD, UT, 84013","No_Match",NA,NA,NA,NA
767171,"614 NORTH QUEEN STREET","DURHAM","NC",27701,35.9975775890001,-78.893986804,171,"614 NORTH QUEEN STREET, DURHAM, NC, 27701","Match","Exact","614 N QUEEN ST, DURHAM, NC, 27701",71741691,"R"
767172,"614 NW 12TH TERRACE","BOCA RATON","FL",33427,26.3561245270001,-80.111811873,172,"614 NW 12TH TERRACE, BOCA RATON, FL, 33427","Match","Non_Exact","614 NW 12TH TER, BOCA RATON, FL, 33486",115302318,"R"
767173,"614 NW 13TH ST APT 24","BOCA RATON","FL",33486,26.362526545,-80.098766132,173,"614 NW 13TH ST APT 24, BOCA RATON, FL, 33486","Match","Non_Exact","614 NW 13TH ST, BOCA RATON, FL, 33486",115551410,"L"
767174,"614 NW 5TH AVE","BATTLE GROUND","WA",98604,45.784923839,-122.543048402,174,"614 NW 5TH AVE, BATTLE GROUND, WA, 98604","Match","Exact","614 NW 5TH AVE, BATTLE GROUND, WA, 98604",158315952,"R"
767175,"614 NW MIRADOR PL","CORVALLIS","OR",97330,44.599298242,-123.255273625,175,"614 NW MIRADOR PL, CORVALLIS, OR, 97330","Match","Exact","614 MIRADOR PL, CORVALLIS, OR, 97330",624309612,"R"
767176,"614 OAKVEIW DR","NEWBERN","TN",38059,NA,NA,176,"614 OAKVEIW DR, NEWBERN, TN, 38059","No_Match",NA,NA,NA,NA
767177,"614 OAKVIEW RD","HIGH POINT","NC",27265,36.0007070070001,-80.0171232599999,177,"614 OAKVIEW RD, HIGH POINT, NC, 27265","Match","Exact","614 OAKVIEW RD, HIGH POINT, NC, 27265",640600606,"R"
767178,"614 OAKWOOD AVE","JACKSON","NJ",8527,40.123019775,-74.3912038079999,178,"614 OAKWOOD AVE, JACKSON, NJ, 8527","Match","Exact","614 OAKWOOD AVE, JACKSON, NJ, 08527",203695024,"L"
767179,"614 ORANGEWOOD DRIVE","CONROE","TX",77302,30.252747651,-95.449954696,179,"614 ORANGEWOOD DRIVE, CONROE, TX, 77302","Match","Exact","614 ORANGEWOOD DR, CONROE, TX, 77302",79281632,"R"
767180,"614 OVER HILL DR","WOODSTOCK","GA",30189,34.1175935750001,-84.533131533,180,"614 OVER HILL DR, WOODSTOCK, GA, 30189","Match","Non_Exact","614 OVERHILL DR, WOODSTOCK, GA, 30189",68842604,"R"
767181,"614 OVERDELL DRIVE","SUGAR LAND","TX",77479,29.5991677810001,-95.6580366269999,181,"614 OVERDELL DRIVE, SUGAR LAND, TX, 77479","Match","Exact","614 OVERDELL DR, SUGAR LAND, TX, 77479",617955467,"R"
767182,"614 PARAKEET COURT","KISSIMMEE","FL",34759,28.1034610790001,-81.462047226,182,"614 PARAKEET COURT, KISSIMMEE, FL, 34759","Match","Exact","614 PARAKEET CT, KISSIMMEE, FL, 34759",636403567,"R"
767183,"614 PARK AVE","SANDERSVILLE","GA",31082,32.973685775,-82.8064788249999,183,"614 PARK AVE, SANDERSVILLE, GA, 31082","Match","Exact","614 PARK AVE, SANDERSVILLE, GA, 31082",16759979,"L"
767184,"614 PARK STREET","MAYFIELD","PA",18433,41.535257281,-75.5330446529999,184,"614 PARK STREET, MAYFIELD, PA, 18433","Match","Exact","614 PARK ST, MAYFIELD, PA, 18433",139339740,"L"
767185,"614 PARKMAN AVE","SELMA","AL",36701,32.4089319080001,-87.027313979,185,"614 PARKMAN AVE, SELMA, AL, 36701","Match","Exact","614 PARKMAN AVE, SELMA, AL, 36701",1284059,"R"
767186,"614 PARKVIEW DRIVE","CARROLL","IA",51401,42.0703188090001,-94.856610234,186,"614 PARKVIEW DRIVE, CARROLL, IA, 51401","Match","Exact","614 PARKVIEW DR, CARROLL, IA, 51401",68630127,"L"
767187,"614 PARKWAY AVENUE","INDIANAPOLIS","IN",46203,39.7489727670001,-86.1481005539999,187,"614 PARKWAY AVENUE, INDIANAPOLIS, IN, 46203","Match","Exact","614 PARKWAY AVE, INDIANAPOLIS, IN, 46203",652688694,"L"
767188,"614 PEACHTREE VILLAGE","HACKETTSTOWN","NJ",7840,40.844283133,-74.815626428,188,"614 PEACHTREE VILLAGE, HACKETTSTOWN, NJ, 7840","Match","Non_Exact","614 PEACH TREE RD, HACKETTSTOWN, NJ, 07840",60460354,"L"
767189,"614 PEAR","DUMAS","TX",79029,35.8768503630001,-101.955232367,189,"614 PEAR, DUMAS, TX, 79029","Match","Non_Exact","614 PEAR AVE, DUMAS, TX, 79029",164658232,"R"
767190,"614 PENDLETON HILL RD","VOLUNTOWN","CT",6384,NA,NA,190,"614 PENDLETON HILL RD, VOLUNTOWN, CT, 6384","No_Match",NA,NA,NA,NA
767191,"614 PINE AVE","COOKEVILLE","TN",38501,36.1719337000001,-85.51756104,191,"614 PINE AVE, COOKEVILLE, TN, 38501","Match","Exact","614 PINE AVE, COOKEVILLE, TN, 38501",25140957,"L"
767192,"614 RENEE","DESOTO","TX",75115,32.5995457710001,-96.846296416,192,"614 RENEE, DESOTO, TX, 75115","Match","Non_Exact","614 RENEE LN, DESOTO, TX, 75115",103187171,"R"
767193,"614 RESERVOIR STREET","HOLDEN","MA",1520,42.3296350620001,-71.876737427,193,"614 RESERVOIR STREET, HOLDEN, MA, 1520","Match","Exact","614 RESERVOIR ST, HOLDEN, MA, 01520",40101805,"L"
767194,"614 REVA RIDGE DRIVE","STAFFORD","TX",77477,29.607508619,-95.544595403,194,"614 REVA RIDGE DRIVE, STAFFORD, TX, 77477","Match","Exact","614 REVA RIDGE, STAFFORD, TX, 77477",78268407,"R"
767195,"614 RIDGE ROCK LN","DUNCANVILLE","TX",75116,32.67252087,-96.921776439,195,"614 RIDGE ROCK LN, DUNCANVILLE, TX, 75116","Match","Exact","614 RIDGE ROCK LN, DUNCANVILLE, TX, 75116",102989624,"L"
767196,"614 RIPLEY PL","WESTFIELD","NJ",7090,40.649166866,-74.338319842,196,"614 RIPLEY PL, WESTFIELD, NJ, 7090","Match","Exact","614 RIPLEY PL, WESTFIELD, NJ, 07090",60573696,"R"
767197,"614 RIVERSIDE DRIVE","CRANFORD","NH",7016,NA,NA,197,"614 RIVERSIDE DRIVE, CRANFORD, NH, 7016","No_Match",NA,NA,NA,NA
767198,"614 ROUNDSTONE DRIVE","WELDON SPRING","MO",63304,38.716047616,-90.6204141549999,198,"614 ROUNDSTONE DRIVE, WELDON SPRING, MO, 63304","Match","Exact","614 ROUNDSTONE DR, WELDON SPRING, MO, 63304",100088899,"L"
767199,"614 RUTGERS","LANCASTER","TX",75134,32.6141855130001,-96.766114084,199,"614 RUTGERS, LANCASTER, TX, 75134","Match","Non_Exact","614 RUTGERS DR, LANCASTER, TX, 75134",102989993,"R"
767200,"614 S 1 ST APT 317","AUSTIN","TX",78704,NA,NA,200,"614 S 1 ST APT 317, AUSTIN, TX, 78704","No_Match",NA,NA,NA,NA
767201,"614 S 4TH ST UNIT 113","PHILADELPHIA","PA",19147,NA,NA,201,"614 S 4TH ST UNIT 113, PHILADELPHIA, PA, 19147","No_Match",NA,NA,NA,NA
767202,"614 S 4TH STREET SUITE 118","PHLADELPHIA","PA",19147,NA,NA,202,"614 S 4TH STREET SUITE 118, PHLADELPHIA, PA, 19147","No_Match",NA,NA,NA,NA
767203,"614 S COURT ST","MEDINA","OH",44256,41.130732106,-81.864022225,203,"614 S COURT ST, MEDINA, OH, 44256","Match","Exact","614 S COURT ST, MEDINA, OH, 44256",615679129,"L"
767204,"614 S EAGLESON RD","BOISE","ID",83705,NA,NA,204,"614 S EAGLESON RD, BOISE, ID, 83705","Tie",NA,NA,NA,NA
767205,"614 S MAIN ST","ABERDEEN","SD",57401,45.4588459670001,-98.4880622109999,205,"614 S MAIN ST, ABERDEEN, SD, 57401","Match","Exact","614 S MAIN ST, ABERDEEN, SD, 57401",200795786,"L"
767206,"614 S MAIN ST","WASHINGTON","IL",61571,40.6966524380001,-89.406817555,206,"614 S MAIN ST, WASHINGTON, IL, 61571","Match","Exact","614 S MAIN ST, WASHINGTON, IL, 61571",608200021,"R"
767207,"614 S SANBORN","CHAMBERLAIN","SD",57325,43.805564443,-99.332514885,207,"614 S SANBORN, CHAMBERLAIN, SD, 57325","Match","Non_Exact","614 S SANBORN ST, CHAMBERLAIN, SD, 57325",199147689,"L"
767208,"614 S STAFFORD ST","ARLINGTON","VA",22204,38.8632476450001,-77.1050179649999,208,"614 S STAFFORD ST, ARLINGTON, VA, 22204","Match","Exact","614 S STAFFORD ST, ARLINGTON, VA, 22204",76470146,"R"
767209,"614 S STREET APT B","SACRAMENTO","CA",95811,38.5717404270001,-121.502797213,209,"614 S STREET APT B, SACRAMENTO, CA, 95811","Match","Exact","614 S ST, SACRAMENTO, CA, 95811",133321883,"R"
767210,"614 SAN VICENTE BLVD G","SANTA MONICA","CA",90402,NA,NA,210,"614 SAN VICENTE BLVD G, SANTA MONICA, CA, 90402","No_Match",NA,NA,NA,NA
767211,"614 SANDERS STREET","INDIANAPOLIS","IN",46203,39.7505517810001,-86.1481329219999,211,"614 SANDERS STREET, INDIANAPOLIS, IN, 46203","Match","Exact","614 SANDERS ST, INDIANAPOLIS, IN, 46203",108051982,"L"
767212,"614 SANDERSON AVE","OLYPHANT","PA",18447,41.4617231760001,-75.605294998,212,"614 SANDERSON AVE, OLYPHANT, PA, 18447","Match","Exact","614 SANDERSON AVE, OLYPHANT, PA, 18447",618243497,"R"
767213,"614 SCHROEDERS AVE","BROOKLYN","NY",11239,40.6560319320001,-73.870313395,213,"614 SCHROEDERS AVE, BROOKLYN, NY, 11239","Match","Exact","614 SCHROEDERS AVE, BROOKLYN, NY, 11239",648691459,"R"
767214,"614 SCHWALEN CT","HUDSON","WI",54016,44.9494463870001,-92.632026412,214,"614 SCHWALEN CT, HUDSON, WI, 54016","Match","Non_Exact","614 SCHWALEN DR, HUDSON, WI, 54016",618428948,"R"
767215,"614 SE 24TH AVE","HILLSBORO","OR",97123,45.5160604550001,-122.958139968,215,"614 SE 24TH AVE, HILLSBORO, OR, 97123","Match","Exact","614 SE 24TH AVE, HILLSBORO, OR, 97123",158179183,"L"
767216,"614 SE COURT AVE","PENDLETON","OR",97801,45.6740111770001,-118.781438781,216,"614 SE COURT AVE, PENDLETON, OR, 97801","Match","Exact","614 SE COURT AVE, PENDLETON, OR, 97801",170404430,"L"
767217,"614 SE TORNHILL DR","PORT SAINT LUCIE","FL",34983,NA,NA,217,"614 SE TORNHILL DR, PORT SAINT LUCIE, FL, 34983","No_Match",NA,NA,NA,NA
767218,"614 SEA HEADRIG","CIBOLO","TX",78108,29.577098845,-98.239326765,218,"614 SEA HEADRIG, CIBOLO, TX, 78108","Match","Non_Exact","614 SEA HEADRIG DR, CIBOLO, TX, 78108",629685939,"R"
767219,"614 SEQUOYAH STREET","SALLISAW","OK",74955,35.471627616,-94.780895137,219,"614 SEQUOYAH STREET, SALLISAW, OK, 74955","Match","Non_Exact","614 SEQUOYAH AVE, SALLISAW, OK, 74955",650931384,"R"
767220,"614 SHADWELL DRIVE","SAN ANTONIO","TX",78228,29.468785661,-98.550924027,220,"614 SHADWELL DRIVE, SAN ANTONIO, TX, 78228","Match","Exact","614 SHADWELL DR, SAN ANTONIO, TX, 78228",101511920,"L"
767221,"614 SHAWNEE","LOUISVILLE","OH",44641,40.8226140790001,-81.2565581229999,221,"614 SHAWNEE, LOUISVILLE, OH, 44641","Match","Non_Exact","614 SHAWNEE CIR, LOUISVILLE, OH, 44641",64708122,"R"
767222,"614 SILVERLEAF DRIVE","LEXINGTON","KY",40505,38.060482747,-84.4451321559999,222,"614 SILVERLEAF DRIVE, LEXINGTON, KY, 40505","Match","Exact","614 SILVERLEAF DR, LEXINGTON, KY, 40505",31926502,"R"
767223,"614 SMITHDALE DRIVE APT A","RALEIGH","NC",27606,35.7716932330001,-78.7144928399999,223,"614 SMITHDALE DRIVE APT A, RALEIGH, NC, 27606","Match","Exact","614 SMITHDALE DR, RALEIGH, NC, 27606",72500942,"L"
767224,"614 SOUTH BROAD STREET","ELIZABETH","NJ",7202,40.6498565650001,-74.2161638269999,224,"614 SOUTH BROAD STREET, ELIZABETH, NJ, 7202","Match","Exact","614 S BROAD ST, ELIZABETH, NJ, 07202",60579983,"L"
767225,"614 SOUTH CHAMPION AVENUE","COLUMBUS","OH",43205,39.9528192650001,-82.9698355259999,225,"614 SOUTH CHAMPION AVENUE, COLUMBUS, OH, 43205","Match","Exact","614 S CHAMPION AVE, COLUMBUS, OH, 43205",135580717,"L"
767226,"614 SOUTH FASHION BLVD","HAHNVILLE","LA",70057,NA,NA,226,"614 SOUTH FASHION BLVD, HAHNVILLE, LA, 70057","No_Match",NA,NA,NA,NA
767227,"614 SOUTH JACKSON","SEATTLE","WA",98104,47.5991944310001,-122.32593592,227,"614 SOUTH JACKSON, SEATTLE, WA, 98104","Match","Non_Exact","614 S JACKSON ST, SEATTLE, WA, 98104",186590164,"L"
767228,"614 SOUTH TROY -206","ROYAL OAK","MI",48067,42.485421682,-83.141750617,228,"614 SOUTH TROY -206, ROYAL OAK, MI, 48067","Match","Non_Exact","614 S TROY ST, ROYAL OAK, MI, 48067",69815979,"R"
767229,"614 SOUTH WASHINGTON STREET NO 7","CRAWFORDSVILLE","IN",47933,40.0351080070001,-86.901398654,229,"614 SOUTH WASHINGTON STREET NO 7, CRAWFORDSVILLE, IN, 47933","Match","Non_Exact","614 S WASHINGTON ST, CRAWFORDSVILLE, IN, 47933",29355432,"R"
767230,"614 SOUTHHAVEN DRIVE","MANKATO","MN",56001,44.139735144,-93.962712435,230,"614 SOUTHHAVEN DRIVE, MANKATO, MN, 56001","Match","Exact","614 SOUTHHAVEN DR, MANKATO, MN, 56001",28102075,"R"
767231,"614 SOUTHWIND DRIVE","MICHIGAN CITY","IN",46360,41.6722649480001,-86.9000063889999,231,"614 SOUTHWIND DRIVE, MICHIGAN CITY, IN, 46360","Match","Exact","614 SOUTHWIND DR, MICHIGAN CITY, IN, 46360",15412135,"L"
767232,"614 STATE ST","BANGOR","ME",4401,44.811728068,-68.743316323,232,"614 STATE ST, BANGOR, ME, 4401","Match","Exact","614 STATE ST, BANGOR, ME, 04401",639477634,"L"
767233,"614 STILL CREEK LN","GAITHERSBURG","MD",20878,39.1135695250001,-77.229114377,233,"614 STILL CREEK LN, GAITHERSBURG, MD, 20878","Match","Exact","614 STILL CREEK LN, GAITHERSBURG, MD, 20878",62109177,"R"
767234,"614 STONEBRIDGE CIRCLE","SAVANNAH","GA",31406,NA,NA,234,"614 STONEBRIDGE CIRCLE, SAVANNAH, GA, 31406","Tie",NA,NA,NA,NA
767235,"614 SULLIVAN LANE","UNIVERSITY PARK","IL",60484,41.4393250520001,-87.680866329,235,"614 SULLIVAN LANE, UNIVERSITY PARK, IL, 60484","Match","Exact","614 SULLIVAN LN, UNIVERSITY PARK, IL, 60484",607937540,"R"
767236,"614 SUNRISE WAY","BRANCHBURG","NJ",8853,40.5327315220001,-74.742907394,236,"614 SUNRISE WAY, BRANCHBURG, NJ, 8853","Match","Exact","614 SUNRISE WAY, BRANCHBURG, NJ, 08853",59952339,"R"
767237,"614 SUPERIOR AVE SUITE 1108","CLEVELAND","OH",44113,41.4978518390001,-81.6971947759999,237,"614 SUPERIOR AVE SUITE 1108, CLEVELAND, OH, 44113","Match","Non_Exact","614 W SUPERIOR AVE, CLEVELAND, OH, 44113",61108971,"R"
767238,"614 SUZANNE DRIVE","AMITE","LA",70422,30.736671465,-90.515236886,238,"614 SUZANNE DRIVE, AMITE, LA, 70422","Match","Exact","614 SUZANNE DR, AMITE, LA, 70422",75764443,"R"
767239,"614 SW 136TH ST","BURIEN","WA",98166,47.4812154140001,-122.342209826,239,"614 SW 136TH ST, BURIEN, WA, 98166","Match","Exact","614 SW 136TH ST, BURIEN, WA, 98166",239765414,"R"
767240,"614 SW 19TH","SEMINOLE","TX",79360,32.712513734,-102.666806422,240,"614 SW 19TH, SEMINOLE, TX, 79360","Match","Non_Exact","614 SW 19TH ST, SEMINOLE, TX, 79360",139493317,"L"
767241,"614 SW MORNINGSIDE RD","TOPEKA","KS",66606,39.058112786,-95.73791593,241,"614 SW MORNINGSIDE RD, TOPEKA, KS, 66606","Match","Exact","614 SW MORNINGSIDE RD, TOPEKA, KS, 66606",17885924,"L"
767242,"614 SW TWIG AVE","PORT SAINT LUCIE","FL",34983,27.2996166250001,-80.3664060569999,242,"614 SW TWIG AVE, PORT SAINT LUCIE, FL, 34983","Match","Exact","614 SW TWIG AVE, PORT ST LUCIE, FL, 34983",120151066,"L"
767243,"614 SWEET CREEK DRIVE","INDIANAPOLIS","IN",46254,39.7610684380001,-85.995318928,243,"614 SWEET CREEK DRIVE, INDIANAPOLIS, IN, 46254","Match","Non_Exact","614 SWEET CREEK DR, INDIANAPOLIS, IN, 46239",108040573,"R"
767244,"614 TALIPUT PALM PLACE","HENDERSON","NV",89011,36.0656921890001,-115.030225382,244,"614 TALIPUT PALM PLACE, HENDERSON, NV, 89011","Match","Exact","614 TALIPUT PALM PL, HENDERSON, NV, 89011",627026435,"R"
767245,"614 TAMMY DRIVE","TARBORO","NC",27886,35.9184039740001,-77.540664813,245,"614 TAMMY DRIVE, TARBORO, NC, 27886","Match","Exact","614 TAMMY DR, TARBORO, NC, 27886",636598395,"R"
767246,"614 TATEM STREET","SAVANNAH","GA",31405,32.0353810300001,-81.12312339,246,"614 TATEM STREET, SAVANNAH, GA, 31405","Match","Exact","614 TATEM ST, SAVANNAH, GA, 31405",6172673,"R"
767247,"614 TETON CIRCLE","SUFFOLK","VA",23435,36.8429213200001,-76.4611276529999,247,"614 TETON CIRCLE, SUFFOLK, VA, 23435","Match","Exact","614 TETON CIR, SUFFOLK, VA, 23435",625225787,"R"
767248,"614 THURSTON AVE","PENDER","NE",68047,42.1088050820001,-96.7135824979999,248,"614 THURSTON AVE, PENDER, NE, 68047","Match","Exact","614 THURSTON AVE, PENDER, NE, 68047",193827635,"L"
767249,"614 TREES CT","CEDAR HILL","TX",75104,32.6127835950001,-96.956194682,249,"614 TREES CT, CEDAR HILL, TX, 75104","Match","Exact","614 TREES CT, CEDAR HILL, TX, 75104",102997788,"R"
767250,"614 UNDERHILL AVE","BRONX","NY",10473,NA,NA,250,"614 UNDERHILL AVE, BRONX, NY, 10473","Tie",NA,NA,NA,NA
767251,"614 UNION AVENUE","CHICAGO HEIGHTS","IL",60411,41.520083497,-87.6332701269999,251,"614 UNION AVENUE, CHICAGO HEIGHTS, IL, 60411","Match","Exact","614 UNION AVE, CHICAGO HEIGHTS, IL, 60411",616796070,"R"
767252,"614 VALLEY RUN","BEAR","DE",19701,39.604678355,-75.722201705,252,"614 VALLEY RUN, BEAR, DE, 19701","Match","Exact","614 VALLEY RUN, BEAR, DE, 19701",187277001,"L"
767253,"614 VENABLE AVENUE","BALTIMORE","MD",21218,39.3290880750001,-76.608042209,253,"614 VENABLE AVENUE, BALTIMORE, MD, 21218","Match","Exact","614 VENABLE AVE, BALTIMORE, MD, 21218",206409258,"L"
767254,"614 VINTAGE WAY","BRANDON","FL",33511,27.9129535120001,-82.2915166879999,254,"614 VINTAGE WAY, BRANDON, FL, 33511","Match","Exact","614 VINTAGE WAY, BRANDON, FL, 33511",624804327,"L"
767255,"614 W 27TH ST","VANCOUVER","WA",98660,45.640966624,-122.677125645,255,"614 W 27TH ST, VANCOUVER, WA, 98660","Match","Exact","614 W 27TH ST, VANCOUVER, WA, 98660",158321971,"R"
767256,"614 W 4TH ST","MCNABB","IL",61335,41.1783379940001,-89.211916106,256,"614 W 4TH ST, MCNABB, IL, 61335","Match","Non_Exact","614 W 4TH ST, MC NABB, IL, 61335",8892902,"R"
767257,"614 W 8TH STREET","KEARNEY","NE",68845,40.681901274,-99.09074348,257,"614 W 8TH STREET, KEARNEY, NE, 68845","Match","Exact","614 W 8TH ST, KEARNEY, NE, 68845",137860897,"L"
767258,"614 W BROADWAY","CENTRALIA","IL",62801,38.5293069910001,-89.1437516839999,258,"614 W BROADWAY, CENTRALIA, IL, 62801","Match","Exact","614 W BROADWAY, CENTRALIA, IL, 62801",604825250,"R"
767259,"614 w fieldstone ct","andover","KS",67002,37.73271951,-97.141253951,259,"614 w fieldstone ct, andover, KS, 67002","Match","Exact","614 FIELDSTONE CT, ANDOVER, KS, 67002",627536867,"R"
767260,"614 W FIELDSTONE CT","andover","KS",67002,37.73271951,-97.141253951,260,"614 W FIELDSTONE CT, andover, KS, 67002","Match","Exact","614 FIELDSTONE CT, ANDOVER, KS, 67002",627536867,"R"
767261,"614 W MADISON","HASTINGS","MI",49058,42.642253963,-85.295378484,261,"614 W MADISON, HASTINGS, MI, 49058","Match","Non_Exact","614 W MADISON ST, HASTINGS, MI, 49058",10505400,"L"
767262,"614 W MAIN ST 103","DURHAM","NC",27701,35.9980877890001,-78.906012329,262,"614 W MAIN ST 103, DURHAM, NC, 27701","Match","Non_Exact","614 W MAIN ST, DURHAM, NC, 27701",71739529,"R"
767263,"614 W MAIN ST","CARRBORO","NC",27510,35.9138640100001,-79.080140861,263,"614 W MAIN ST, CARRBORO, NC, 27510","Match","Exact","614 W MAIN ST, CARRBORO, NC, 27510",72407027,"L"
767264,"614 W PROVIDENCE ROAD 1ST FLR","ALDAN","PA",19018,NA,NA,264,"614 W PROVIDENCE ROAD 1ST FLR, ALDAN, PA, 19018","Tie",NA,NA,NA,NA
767265,"614 WALCOTT WAY","CARY","NC",27519,35.813767279,-78.854749715,265,"614 WALCOTT WAY, CARY, NC, 27519","Match","Exact","614 WALCOTT WAY, CARY, NC, 27519",636580838,"L"
767266,"614 WALKER LANE","LUCAS","TX",75002,33.0890605070001,-96.58424483,266,"614 WALKER LANE, LUCAS, TX, 75002","Match","Exact","614 WALKER LN, LUCAS, TX, 75002",618114844,"R"
767267,"614 WARREN STREET","GREENSBORO","NC",27403,36.066464249,-79.818944712,267,"614 WARREN STREET, GREENSBORO, NC, 27403","Match","Exact","614 WARREN ST, GREENSBORO, NC, 27403",131032021,"R"
767268,"614 WASATCH WAY","TOOELE","UT",84074,40.5377270700001,-112.282222814,268,"614 WASATCH WAY, TOOELE, UT, 84074","Match","Exact","614 WASATCH WAY, TOOELE, UT, 84074",155391244,"L"
767269,"614 WASHINGTON AVE","MEDIA","PA",19063,39.9102910660001,-75.385163937,269,"614 WASHINGTON AVE, MEDIA, PA, 19063","Match","Exact","614 WASHINGTON AVE, MEDIA, PA, 19063",134870976,"R"
767270,"614 WAYNE AVE","NEW HYDE PARK","NY",11040,40.7286480510001,-73.6884930319999,270,"614 WAYNE AVE, NEW HYDE PARK, NY, 11040","Match","Exact","614 WAYNE AVE, NEW HYDE PARK, NY, 11040",147666887,"R"
767271,"614 WEBB ROAD","ELKINS PARK","PA",19027,40.072545248,-75.1332384789999,271,"614 WEBB ROAD, ELKINS PARK, PA, 19027","Match","Exact","614 WEBB RD, ELKINS PARK, PA, 19027",135094249,"L"
767272,"614 WEBSTER ST","HANOVER","MA",6756,NA,NA,272,"614 WEBSTER ST, HANOVER, MA, 6756","No_Match",NA,NA,NA,NA
767273,"614 WELCH AVE","MADISON","WI",53704,43.091260038,-89.3387034679999,273,"614 WELCH AVE, MADISON, WI, 53704","Match","Exact","614 WELCH AVE, MADISON, WI, 53704",49474315,"R"
767274,"614 WELSCH AVE","MADISON","WI",53704,NA,NA,274,"614 WELSCH AVE, MADISON, WI, 53704","No_Match",NA,NA,NA,NA
767275,"614 WELSCH AVE","MADISON","WI",53705,NA,NA,275,"614 WELSCH AVE, MADISON, WI, 53705","No_Match",NA,NA,NA,NA
767276,"614 WEST 12TH STREET","CHESTER","PA",19013,39.8516164340001,-75.3726227029999,276,"614 WEST 12TH STREET, CHESTER, PA, 19013","Match","Exact","614 W 12TH ST, CHESTER, PA, 19013",134871825,"R"
767277,"614 WEST 157TH STREET APT 6C","NEW YORK","NY",10032,40.8344084400001,-73.945684509,277,"614 WEST 157TH STREET APT 6C, NEW YORK, NY, 10032","Match","Exact","614 W 157TH ST, NEW YORK, NY, 10032",59655441,"L"
767278,"614 WEST 5TH STREET","COFFEYVILLE","KS",67337,37.0392598930001,-95.624189553,278,"614 WEST 5TH STREET, COFFEYVILLE, KS, 67337","Match","Exact","614 W 5TH ST, COFFEYVILLE, KS, 67337",13790626,"R"
767279,"614 WEST 5TH","COFFEYVILLE","KS",67337,37.0392598930001,-95.624189553,279,"614 WEST 5TH, COFFEYVILLE, KS, 67337","Match","Non_Exact","614 W 5TH ST, COFFEYVILLE, KS, 67337",13790626,"R"
767280,"614 WEST CLAY STREET","THOMASVILLE","GA",31792,30.8366361860001,-83.991192151,280,"614 WEST CLAY STREET, THOMASVILLE, GA, 31792","Match","Exact","614 W CLAY ST, THOMASVILLE, GA, 31792",83103197,"L"
767281,"614 WEST SUPERIOR AVE","CLEVELAND","OH",44113,41.4978518390001,-81.6971947759999,281,"614 WEST SUPERIOR AVE, CLEVELAND, OH, 44113","Match","Exact","614 W SUPERIOR AVE, CLEVELAND, OH, 44113",61108971,"R"
767282,"614 WEST SUPERIOR AVENUE SUITE 1108","CLEVELAND","OH",44113,41.4978518390001,-81.6971947759999,282,"614 WEST SUPERIOR AVENUE SUITE 1108, CLEVELAND, OH, 44113","Match","Exact","614 W SUPERIOR AVE, CLEVELAND, OH, 44113",61108971,"R"
767283,"614 WEST WALSH BLVD","VANDALIA","MO",63382,39.3030982120001,-91.4892336349999,283,"614 WEST WALSH BLVD, VANDALIA, MO, 63382","Match","Exact","614 W WALSH BLVD, VANDALIA, MO, 63382",34292504,"R"
767284,"614 WESTCHESTER AVE","ROCHESTER","NY",14609,43.1734536180001,-77.546992215,284,"614 WESTCHESTER AVE, ROCHESTER, NY, 14609","Match","Exact","614 WESTCHESTER AVE, ROCHESTER, NY, 14609",14542360,"L"
767285,"614 WILSON COURT","DUNCANVILLE","TX",75137,32.6453030210001,-96.897545515,285,"614 WILSON COURT, DUNCANVILLE, TX, 75137","Match","Exact","614 WILSON CT, DUNCANVILLE, TX, 75137",102943330,"R"
767286,"614 WINDSOR","LAWRENCEVILLE","VA",23868,36.7615190380001,-77.853499949,286,"614 WINDSOR, LAWRENCEVILLE, VA, 23868","Match","Non_Exact","614 WINDSOR AVE, LAWRENCEVILLE, VA, 23868",54022094,"R"
767287,"614 WOODLAND AVE","MT HOLLY SPRINGS","PA",17065,40.128113882,-77.18809486,287,"614 WOODLAND AVE, MT HOLLY SPRINGS, PA, 17065","Match","Exact","614 WOODLAND AVE, MT HOLLY SPGS, PA, 17065",647960365,"L"
767288,"614 WOODLAND AVENUE","AVON BY THE SEA","NJ",7717,40.193787979,-74.021492484,288,"614 WOODLAND AVENUE, AVON BY THE SEA, NJ, 7717","Match","Exact","614 WOODLAND AVE, AVON BY SEA, NJ, 07717",90510306,"R"
767289,"614 WOODSIDE AVE","HAMILTON","NJ",8620,40.179269505,-74.658604106,289,"614 WOODSIDE AVE, HAMILTON, NJ, 8620","Match","Exact","614 WOODSIDE AVE, HAMILTON, NJ, 08620",60185351,"L"
767290,"614 WRIGHT AVENUE","RICHLAND","WA",99352,46.2735598960001,-119.297476174,290,"614 WRIGHT AVENUE, RICHLAND, WA, 99352","Match","Exact","614 WRIGHT AVE, RICHLAND, WA, 99352",174987935,"R"
767291,"614 WYNNWOOD ROAD","PHILADELPHIA","PA",19151,39.972328546,-75.2460568069999,291,"614 WYNNWOOD ROAD, PHILADELPHIA, PA, 19151","Match","Non_Exact","614 WYNNEWOOD RD, PHILADELPHIA, PA, 19151",640220451,"L"
767292,"614 YELLOWSTONE","HARTFORD","WI",53027,43.334764846,-88.370425381,292,"614 YELLOWSTONE, HARTFORD, WI, 53027","Match","Non_Exact","614 YELLOWSTONE DR, HARTFORD, WI, 53027",617447043,"R"
767293,"614 YONTO DRIVE","GROVETOWN","GA",30813,33.471643971,-82.221314133,293,"614 YONTO DRIVE, GROVETOWN, GA, 30813","Match","Exact","614 YONTO DR, GROVETOWN, GA, 30813",619681382,"L"
767294,"614 YOUNGS MILL RD","LAGRANGE","GA",30241,33.0643909300001,-85.0090220009999,294,"614 YOUNGS MILL RD, LAGRANGE, GA, 30241","Match","Exact","614 YOUNGS MILL RD, LAGRANGE, GA, 30241",647897478,"R"
767295,"614 ZSCHOKKE","HIGHLAND","IL",62249,38.744240588,-89.676528941,295,"614 ZSCHOKKE, HIGHLAND, IL, 62249","Match","Non_Exact","614 ZSCHOKKE ST, HIGHLAND, IL, 62249",107674768,"L"
767296,"6140 84TH AVE N","PINELLAS PARK","FL",33781,27.8479124850001,-82.719208766,296,"6140 84TH AVE N, PINELLAS PARK, FL, 33781","Match","Non_Exact","6140 84TH AVE, PINELLAS PARK, FL, 33781",124695286,"L"
767297,"6140 AVERY DR APT 6107","FORT WORTH","TX",76132,32.673419939,-97.4197109839999,297,"6140 AVERY DR APT 6107, FORT WORTH, TX, 76132","Match","Exact","6140 AVERY DR, FORT WORTH, TX, 76132",619869348,"R"
767298,"6140 AVERY DR APT 6301","FORT WORTH","TX",76132,32.673419939,-97.4197109839999,298,"6140 AVERY DR APT 6301, FORT WORTH, TX, 76132","Match","Exact","6140 AVERY DR, FORT WORTH, TX, 76132",619869348,"R"
767299,"6140 BEECH FORK DRIVE","OTWAY","OH",45657,38.8561963500001,-83.250714826,299,"6140 BEECH FORK DRIVE, OTWAY, OH, 45657","Match","Non_Exact","6140 BEECH FORK RD, OTWAY, OH, 45657",635521571,"L"
767300,"6140 BRIGGLE AVE SW","EAST SPARTA","OH",44626,40.7192149160001,-81.382453331,300,"6140 BRIGGLE AVE SW, EAST SPARTA, OH, 44626","Match","Exact","6140 BRIGGLE AVE SW, EAST SPARTA, OH, 44626",630041414,"L"
767301,"6140 BROOK DR","FALLS CHURCH","VA",22044,38.866453554,-77.146727246,301,"6140 BROOK DR, FALLS CHURCH, VA, 22044","Match","Exact","6140 BROOK DR, FALLS CHURCH, VA, 22044",645108920,"R"
767302,"6140 BURLEIGH PLACE","NOBLESVILE","IN",46062,40.0052544260001,-86.064047274,302,"6140 BURLEIGH PLACE, NOBLESVILE, IN, 46062","Match","Non_Exact","6140 BURLEIGH PL, NOBLESVILLE, IN, 46062",640742904,"L"
767303,"6140 CAMINITO DEL OESTE","SAN DIEGO","CA",92111,NA,NA,303,"6140 CAMINITO DEL OESTE, SAN DIEGO, CA, 92111","No_Match",NA,NA,NA,NA
767304,"6140 CARL SANDBURG CIR","SACRAMENTO","CA",95842,38.6816865860001,-121.356040276,304,"6140 CARL SANDBURG CIR, SACRAMENTO, CA, 95842","Match","Exact","6140 CARL SANDBURG CIR, SACRAMENTO, CA, 95842",133332228,"R"
767305,"6140 CARTERSVILLE HWY","DALLAS","GA",30132,34.0057579140001,-84.866280208,305,"6140 CARTERSVILLE HWY, DALLAS, GA, 30132","Match","Exact","6140 CARTERSVILLE HWY, DALLAS, GA, 30132",642893143,"R"
767306,"6140 CATHARINE STREET","PHILADELPHIA","PA",19143,39.951281006,-75.2458696149999,306,"6140 CATHARINE STREET, PHILADELPHIA, PA, 19143","Match","Exact","6140 CATHARINE ST, PHILADELPHIA, PA, 19143",131397665,"L"
767307,"6140 CHAPMAN STREET","COCOA","FL",32927,28.46260224,-80.8268421289999,307,"6140 CHAPMAN STREET, COCOA, FL, 32927","Match","Exact","6140 CHAPMAN ST, COCOA, FL, 32927",93913820,"R"
767308,"6140 CHESTNUT DRIVE","SEDALIA","MO",65301,38.6912399170001,-93.301752704,308,"6140 CHESTNUT DRIVE, SEDALIA, MO, 65301","Match","Exact","6140 CHESTNUT DR, SEDALIA, MO, 65301",54721358,"R"
767309,"6140 CHRISTOPHER TERRACE","REX","GA",30273,33.586441892,-84.2626427009999,309,"6140 CHRISTOPHER TERRACE, REX, GA, 30273","Match","Exact","6140 CHRISTOPHER TER, REX, GA, 30273",627394289,"R"
767310,"6140 CLARK LAKE DRVE","TRINITY","FL",34655,28.248438235,-82.652582851,310,"6140 CLARK LAKE DRVE, TRINITY, FL, 34655","Match","Exact","6140 CLARK LAKE DR, TRINITY, FL, 34655",617794275,"R"
767311,"6140 CO RD 843","DAWSON","AL",35963,34.3244934750001,-85.924949893,311,"6140 CO RD 843, DAWSON, AL, 35963","Match","Exact","6140 CO RD 843, DAWSON, AL, 35963",99147982,"L"
767312,"6140 CONCORD HILL LANE","MINNETONKA","MN",55345,44.892471205,-93.5166258,312,"6140 CONCORD HILL LANE, MINNETONKA, MN, 55345","Match","Exact","6140 CONCORD HILL LN, MINNETONKA, MN, 55345",43838190,"R"
767313,"6140 DEER RUN CIRCLE","SANDIA","TX",78383,27.93683251,-97.823157271,313,"6140 DEER RUN CIRCLE, SANDIA, TX, 78383","Match","Exact","6140 DEER RUN CIR, SANDIA, TX, 78383",178543161,"L"
767314,"6140 DREXEL APT 110","CHICAGO","IL",60637,NA,NA,314,"6140 DREXEL APT 110, CHICAGO, IL, 60637","No_Match",NA,NA,NA,NA
767315,"6140 E COLUMBIA AVE","PHILADELPHIA","PA",19151,39.980879058,-75.24440075,315,"6140 E COLUMBIA AVE, PHILADELPHIA, PA, 19151","Match","Non_Exact","6140 W COLUMBIA AVE, PHILADELPHIA, PA, 19151",131397194,"L"
767316,"6140 EARLY AUTUMN DR","CENTREVILLE","VA",20120,38.837679548,-77.455646143,316,"6140 EARLY AUTUMN DR, CENTREVILLE, VA, 20120","Match","Exact","6140 EARLY AUTUMN DR, CENTREVILLE, VA, 20120",76025837,"L"
767317,"6140 EAST HWY 20","LUCERNE","CA",95458,NA,NA,317,"6140 EAST HWY 20, LUCERNE, CA, 95458","No_Match",NA,NA,NA,NA
767318,"6140 FAIRWOOD LN","ACWORTH","GA",30101,NA,NA,318,"6140 FAIRWOOD LN, ACWORTH, GA, 30101","No_Match",NA,NA,NA,NA
767319,"6140 FENWOOD","WOODLAND HILLS","CA",91367,34.1818500950001,-118.634105762,319,"6140 FENWOOD, WOODLAND HILLS, CA, 91367","Match","Non_Exact","6140 FENWOOD AVE, WOODLAND HILLS, CA, 91367",141723213,"R"
767320,"6140 FOUNTAIN POINTE","GRAND BLANC","MI",48439,42.94168476,-83.6078970409999,320,"6140 FOUNTAIN POINTE, GRAND BLANC, MI, 48439","Match","Exact","6140 FOUNTAIN POINTE, GRAND BLANC, MI, 48439",648293892,"L"
767321,"6140 HIGHWAY 6 290","MISSOURI CITY","TX",77459,29.565455279,-95.564250536,321,"6140 HIGHWAY 6 290, MISSOURI CITY, TX, 77459","Match","Non_Exact","6140 STATE HWY 6, MISSOURI CITY, TX, 77459",227762516,"L"
767322,"6140 HIGHWAY 6 SUITE 114","MISSOURI CITY","TX",77459,29.565455279,-95.564250536,322,"6140 HIGHWAY 6 SUITE 114, MISSOURI CITY, TX, 77459","Match","Non_Exact","6140 STATE HWY 6, MISSOURI CITY, TX, 77459",227762516,"L"
767323,"6140 HIGHWAY 6 SUITE 155","MISSOURI CITY","TX",77459,29.565455279,-95.564250536,323,"6140 HIGHWAY 6 SUITE 155, MISSOURI CITY, TX, 77459","Match","Non_Exact","6140 STATE HWY 6, MISSOURI CITY, TX, 77459",227762516,"L"
767324,"6140 HOLLYWOOD BLVD","LOS ANGELES","CA",90028,34.1016391530001,-118.323355764,324,"6140 HOLLYWOOD BLVD, LOS ANGELES, CA, 90028","Match","Exact","6140 HOLLYWOOD BLVD, LOS ANGELES, CA, 90028",141597068,"L"
767325,"6140 HORSESHOE BAR ROAD","LOOMIS","CA",95650,38.817993105,-121.190337308,325,"6140 HORSESHOE BAR ROAD, LOOMIS, CA, 95650","Match","Exact","6140 HORSESHOE BAR RD, LOOMIS, CA, 95650",636418096,"L"
767326,"6140 HWY 6 PMB 183","MISSOURI CITY","TX",77459,29.565455279,-95.564250536,326,"6140 HWY 6 PMB 183, MISSOURI CITY, TX, 77459","Match","Non_Exact","6140 STATE HWY 6, MISSOURI CITY, TX, 77459",227762516,"L"
767327,"6140 HWY 6 PMB 183","MISSOURI CITY","TX",77549,NA,NA,327,"6140 HWY 6 PMB 183, MISSOURI CITY, TX, 77549","No_Match",NA,NA,NA,NA
767328,"6140 HWY 6 STE 72","MISSOURI CITY","TX",77459,29.565455279,-95.564250536,328,"6140 HWY 6 STE 72, MISSOURI CITY, TX, 77459","Match","Non_Exact","6140 STATE HWY 6, MISSOURI CITY, TX, 77459",227762516,"L"
767329,"6140 HWY 6 SUITE - 205","MISSOURI CITY","TX",77459,29.565455279,-95.564250536,329,"6140 HWY 6 SUITE - 205, MISSOURI CITY, TX, 77459","Match","Non_Exact","6140 STATE HWY 6, MISSOURI CITY, TX, 77459",227762516,"L"
767330,"6140 LAKEVIEW FORREST DR","GLOUSTER","OH",45732,39.5179551250001,-82.0428872109999,330,"6140 LAKEVIEW FORREST DR, GLOUSTER, OH, 45732","Match","Exact","6140 LAKEVIEW FORREST DR, GLOUSTER, OH, 45732",45429268,"L"
767331,"6140 LAMAR AVE S","COTTAGE GROVE","MN",55016,44.860594656,-92.883258848,331,"6140 LAMAR AVE S, COTTAGE GROVE, MN, 55016","Match","Exact","6140 LAMAR AVE S, COTTAGE GROVE, MN, 55016",97830261,"R"
767332,"6140 LINGBERGH AVE","PHILADELPHIA","PA",19142,NA,NA,332,"6140 LINGBERGH AVE, PHILADELPHIA, PA, 19142","No_Match",NA,NA,NA,NA
767333,"6140 MARGARET STREET","ASHLAND","KY",41102,38.439169103,-82.709310993,333,"6140 MARGARET STREET, ASHLAND, KY, 41102","Match","Exact","6140 MARGARET ST, ASHLAND, KY, 41102",151045309,"L"
767334,"6140 MT OLIVET CRES","MIDDLE VILLAGE","NY",11379,NA,NA,334,"6140 MT OLIVET CRES, MIDDLE VILLAGE, NY, 11379","No_Match",NA,NA,NA,NA
767335,"6140 NE ALDER STREET APT V","HILLSBORO","OR",97124,45.529827858,-122.918174343,335,"6140 NE ALDER STREET APT V, HILLSBORO, OR, 97124","Match","Non_Exact","6140 NE ALDER ST, HILLSBORO, OR, 97124",158237443,"R"
767336,"6140 NORFLEET RD","KANSAS CITY","MO",64133,39.0099653250001,-94.4307976119999,336,"6140 NORFLEET RD, KANSAS CITY, MO, 64133","Match","Exact","6140 NORFLEET RD, KANSAS CITY, MO, 64133",91467418,"R"
767337,"6140 NORTH 165TH STREET","OMAHA","NE",68116,41.31373252,-96.171809427,337,"6140 NORTH 165TH STREET, OMAHA, NE, 68116","Match","Exact","6140 N 165TH ST, OMAHA, NE, 68116",117018651,"L"
767338,"6140 OAK SUMMIT LANE","GARDENDALE","AL",35071,33.6852958540001,-86.852126241,338,"6140 OAK SUMMIT LANE, GARDENDALE, AL, 35071","Match","Exact","6140 OAK SUMMIT LN, GARDENDALE, AL, 35071",630205160,"R"
767339,"6140 OLD WASHINGTON ROAD","SYKESVILLE","MD",21784,39.406018649,-77.0167817669999,339,"6140 OLD WASHINGTON ROAD, SYKESVILLE, MD, 21784","Match","Exact","6140 OLD WASHINGTON RD, SYKESVILLE, MD, 21784",61752085,"R"
767340,"6140 PARADISE PT DR","MIAMI","FL",33157,25.62977535,-80.293016995,340,"6140 PARADISE PT DR, MIAMI, FL, 33157","Match","Exact","6140 PARADISE POINT DR, MIAMI, FL, 33157",116280743,"R"
767341,"6140 QUINNWOOD LANE NORTH","PLYMOUTH","MN",55422,45.064769922,-93.439874776,341,"6140 QUINNWOOD LANE NORTH, PLYMOUTH, MN, 55422","Match","Non_Exact","6140 QUINWOOD LN N, PLYMOUTH, MN, 55442",43816379,"L"
767342,"6140 RICHARDSON LANE NW","OLYMPIA","WA",98502,47.0891188360001,-123.009968327,342,"6140 RICHARDSON LANE NW, OLYMPIA, WA, 98502","Match","Exact","6140 RICHARDSON LN NW, OLYMPIA, WA, 98502",649697412,"L"
767343,"6140 RICHARDSON LANE","OLYMPI","WA",98502,47.0891188360001,-123.009968327,343,"6140 RICHARDSON LANE, OLYMPI, WA, 98502","Match","Non_Exact","6140 RICHARDSON LN NW, OLYMPIA, WA, 98502",649697412,"L"
767344,"6140 RICHARDSON LANE","OLYMPIA","WA",98502,47.0891188360001,-123.009968327,344,"6140 RICHARDSON LANE, OLYMPIA, WA, 98502","Match","Non_Exact","6140 RICHARDSON LN NW, OLYMPIA, WA, 98502",649697412,"L"
767345,"6140 S EDGEWATER DR","BELOIT","WI",53511,42.5906442450001,-89.029485968,345,"6140 S EDGEWATER DR, BELOIT, WI, 53511","Match","Exact","6140 S EDGEWATER DR, BELOIT, WI, 53511",49865684,"L"
767346,"6140 S KNOX","CHICAGO","IL",60629,41.7813393800001,-87.738720639,346,"6140 S KNOX, CHICAGO, IL, 60629","Match","Non_Exact","6140 S KNOX AVE, CHICAGO, IL, 60629",111800370,"R"
767347,"6140 SENECA ST","ELMA","NY",14059,42.822028194,-78.681855114,347,"6140 SENECA ST, ELMA, NY, 14059","Match","Exact","6140 SENECA ST, ELMA, NY, 14059",48308750,"R"
767348,"6140 SHIRL STREET","SALT LAKE CITY","UT",84123,40.640025968,-111.932042991,348,"6140 SHIRL STREET, SALT LAKE CITY, UT, 84123","Match","Exact","6140 SHIRL ST, SALT LAKE CITY, UT, 84123",176110381,"L"
767349,"6140 SOUTHLAKE DRIVE","PARKVILLE","MO",64152,39.205549046,-94.668881911,349,"6140 SOUTHLAKE DRIVE, PARKVILLE, MO, 64152","Match","Exact","6140 SOUTHLAKE DR, PARKVILLE, MO, 64152",650197848,"L"
767350,"6140 STONERIDGE MALL ROAD SUITE 500","PLEASANTON","CA",94588,NA,NA,350,"6140 STONERIDGE MALL ROAD SUITE 500, PLEASANTON, CA, 94588","No_Match",NA,NA,NA,NA
767351,"6140 TOPSAIL RD","LADY LAKE","FL",32159,28.9302682920001,-81.85256631,351,"6140 TOPSAIL RD, LADY LAKE, FL, 32159","Match","Exact","6140 TOPSAIL RD, LADY LAKE, FL, 32159",94143892,"L"
767352,"6140 TULIP DR","WESLEY CHAPEL","FL",33544,28.2468658880001,-82.378881381,352,"6140 TULIP DR, WESLEY CHAPEL, FL, 33544","Match","Exact","6140 TULIP DR, WESLEY CHAPEL, FL, 33544",86370249,"R"
767353,"6140 W OAKLAND PARK BLVD","SUNRISE","FL",33313,26.164685756,-80.230053498,353,"6140 W OAKLAND PARK BLVD, SUNRISE, FL, 33313","Match","Exact","6140 W OAKLAND PARK BLVD, SUNRISE, FL, 33313",637117208,"R"
767354,"6140 WATER MARK DR","CUMMING","GA",30040,34.269953598,-84.1436630919999,354,"6140 WATER MARK DR, CUMMING, GA, 30040","Match","Exact","6140 WATER MARK DR, CUMMING, GA, 30040",627583905,"R"
767355,"6140-B NALON COURT","SPEEDWAY","IN",46224,39.7974778130001,-86.268367725,355,"6140-B NALON COURT, SPEEDWAY, IN, 46224","Match","Exact","6140 NALON CT, SPEEDWAY, IN, 46224",108017930,"R"
767356,"61403 E DEAD WOOD TRAIL","ORACLE","AZ",85623,32.5937082090001,-110.907676979,356,"61403 E DEAD WOOD TRAIL, ORACLE, AZ, 85623","Match","Exact","61403 E DEAD WOOD TRL, ORACLE, AZ, 85623",645226714,"R"
767357,"6140S 189TH AVE","OMAHA","NE",68135,41.195844363,-96.2108142009999,357,"6140S 189TH AVE, OMAHA, NE, 68135","Match","Non_Exact","6140 S 189TH AVE, OMAHA, NE, 68135",623776425,"R"
767358,"6141 11TH ROAD NORTH","ARLINGTON","VA",22205,38.880188466,-77.147833899,358,"6141 11TH ROAD NORTH, ARLINGTON, VA, 22205","Match","Exact","6141 11TH RD N, ARLINGTON, VA, 22205",76467311,"R"
767359,"6141 BECKETT STATION COURT","WEST CHESTER","OH",45069,39.34769304,-84.4195367849999,359,"6141 BECKETT STATION COURT, WEST CHESTER, OH, 45069","Match","Exact","6141 BECKETT STATION CT, WEST CHESTER, OH, 45069",113810060,"L"
767360,"6141 CLIFTON AVE EXT","JACKSONVILLE","FL",32211,30.325267894,-81.602560261,360,"6141 CLIFTON AVE EXT, JACKSONVILLE, FL, 32211","Match","Non_Exact","6141 CLIFTON AVE EXD, JACKSONVILLE, FL, 32211",83903255,"L"
767361,"6141 CRIMSON OAK DR","LAKESIDE","AZ",85929,34.1958185570001,-110.023858271,361,"6141 CRIMSON OAK DR, LAKESIDE, AZ, 85929","Match","Exact","6141 CRIMSON OAK DR, LAKESIDE, AZ, 85929",172512219,"R"
767362,"6141 DELOACHE AVE","DALLAS","TX",75225,32.870724785,-96.800770074,362,"6141 DELOACHE AVE, DALLAS, TX, 75225","Match","Exact","6141 DELOACHE AVE, DALLAS, TX, 75225",103205435,"L"
767363,"6141 EAGLE CAVE DR","MCFARLAND","WI",53558,43.0302549090001,-89.271943886,363,"6141 EAGLE CAVE DR, MCFARLAND, WI, 53558","Match","Exact","6141 EAGLE CAVE DR, MCFARLAND, WI, 53558",646950926,"L"
767364,"6141 HENTHORNE DRIVE","MAUMEE","OH",43537,41.607987935,-83.686426583,364,"6141 HENTHORNE DRIVE, MAUMEE, OH, 43537","Match","Exact","6141 HENTHORNE DR, MAUMEE, OH, 43537",33930204,"R"
767365,"6141 HESBY WAY","SACRAMENTO","CA",95823,38.4706998,-121.431085265,365,"6141 HESBY WAY, SACRAMENTO, CA, 95823","Match","Exact","6141 HESBY WAY, SACRAMENTO, CA, 95823",133377855,"R"
767366,"6141 HOLLYWOOD STREET","JUPITER","FL",33458,26.895050978,-80.1298721489999,366,"6141 HOLLYWOOD STREET, JUPITER, FL, 33458","Match","Exact","6141 HOLLYWOOD ST, JUPITER, FL, 33458",115262706,"L"
767367,"6141 INDIAN TRAIL","WEST CHESTER","OH",45069,39.3583375810001,-84.417903985,367,"6141 INDIAN TRAIL, WEST CHESTER, OH, 45069","Match","Exact","6141 INDIAN TRL, WEST CHESTER, OH, 45069",113804779,"L"
767368,"6141 N BALTIMORE AVE","GLADSTONE","MO",64118,39.2061066360001,-94.582723943,368,"6141 N BALTIMORE AVE, GLADSTONE, MO, 64118","Match","Exact","6141 N BALTIMORE AVE, GLADSTONE, MO, 64118",89755663,"R"
767369,"6141 N POMONA RD","TUCSON","AZ",85704,32.31838687,-110.999609625,369,"6141 N POMONA RD, TUCSON, AZ, 85704","Match","Exact","6141 N POMONA RD, TUCSON, AZ, 85704",121165180,"L"
767370,"6141 N WEST AVE NO 110","FRESNO","CA",93711,NA,NA,370,"6141 N WEST AVE NO 110, FRESNO, CA, 93711","No_Match",NA,NA,NA,NA
767371,"6141 OLIVIA","POCATELLO","ID",83204,42.81384798,-112.401746488,371,"6141 OLIVIA, POCATELLO, ID, 83204","Match","Exact","6141 OLIVIA, POCATELLO, ID, 83204",623970506,"L"
767372,"6141 QUEENE ANNE COURT","NORCROSS","GA",30093,33.8904891920001,-84.193540194,372,"6141 QUEENE ANNE COURT, NORCROSS, GA, 30093","Match","Non_Exact","6141 QUEEN ANNE CT, NORCROSS, GA, 30093",88893705,"L"
767373,"6141 ROUTE191","CRESCO","PA",18326,NA,NA,373,"6141 ROUTE191, CRESCO, PA, 18326","No_Match",NA,NA,NA,NA
767374,"6141 S MICHIGAN AVENUE","CHICAGO","IL",60653,41.782917151,-87.622152716,374,"6141 S MICHIGAN AVENUE, CHICAGO, IL, 60653","Match","Non_Exact","6141 S MICHIGAN AVE, CHICAGO, IL, 60637",605542062,"L"
767375,"6141 SUNRIDGE DR","CINCINATI","OH",45224,39.20114492,-84.528987522,375,"6141 SUNRIDGE DR, CINCINATI, OH, 45224","Match","Non_Exact","6141 SUNRIDGE DR, CINCINNATI, OH, 45224",103923313,"L"
767376,"6141 SW 18TH WAY","BUSHNELL","FL",33513,28.667360199,-82.135327592,376,"6141 SW 18TH WAY, BUSHNELL, FL, 33513","Match","Exact","6141 SW 18TH WAY, BUSHNELL, FL, 33513",624431302,"R"
767377,"6141 SW 37 STREET APT 2109","MIRAMAR","FL",33023,25.9761801670001,-80.209368957,377,"6141 SW 37 STREET APT 2109, MIRAMAR, FL, 33023","Match","Non_Exact","6141 SW 37TH ST, MIRAMAR, FL, 33023",114753556,"R"
767378,"6141 SW SOUTHWOOD DRIVE","PORTLAND","OR",97219,45.42958485,-122.739793115,378,"6141 SW SOUTHWOOD DRIVE, PORTLAND, OR, 97219","Match","Exact","6141 SW SOUTHWOOD DR, PORTLAND, OR, 97219",157908684,"R"
767379,"6141 W SHANNON ST",NA,NA,NA,NA,NA,379,"6141 W SHANNON ST, , , ","No_Match",NA,NA,NA,NA
767380,"6141 W SHANNON STREET","CHANDLER","AZ",85226,33.318346805,-111.94774691,380,"6141 W SHANNON STREET, CHANDLER, AZ, 85226","Match","Exact","6141 W SHANNON ST, CHANDLER, AZ, 85226",128777685,"R"
767381,"6141 WEST 39TH","TULSA","OK",74107,36.107118346,-96.061305072,381,"6141 WEST 39TH, TULSA, OK, 74107","Match","Non_Exact","6141 W 39TH ST, TULSA, OK, 74107",166432909,"R"
767382,"61412 DEBRA STREET","JEFFERSON CITY","MO",65109,NA,NA,382,"61412 DEBRA STREET, JEFFERSON CITY, MO, 65109","No_Match",NA,NA,NA,NA
767383,"61413 LIME QUARRY RD","ENTERPRISE","ID",97828,NA,NA,383,"61413 LIME QUARRY RD, ENTERPRISE, ID, 97828","No_Match",NA,NA,NA,NA
767384,"61413 LIME QUARRY","ENTERPRISE","OR",97828,45.3936118600001,-117.338147108,384,"61413 LIME QUARRY, ENTERPRISE, OR, 97828","Match","Non_Exact","61413 LIME QUARRY RD, ENTERPRISE, OR, 97828",612064696,"R"
767385,"61414 ORION DRIVE","BEND","OR",97702,44.029974279,-121.270022438,385,"61414 ORION DRIVE, BEND, OR, 97702","Match","Exact","61414 ORION DR, BEND, OR, 97702",618608501,"R"
767386,"61417 E 319 ROAD","GROVE","OK",74344,36.5548275290001,-94.785688017,386,"61417 E 319 ROAD, GROVE, OK, 74344","Match","Exact","61417 E 319 RD, GROVE, OK, 74344",636925119,"L"
767387,"6142 ARBOR LINKS RD","LITHONIA","GA",30087,33.759152333,-84.138278687,387,"6142 ARBOR LINKS RD, LITHONIA, GA, 30087","Match","Non_Exact","6142 ARBOR LINKS RD, LITHONIA, GA, 30058",637664601,"R"
767388,"6142 COLEMAN","DEARNORN","MI",48126,42.3340793830001,-83.193671641,388,"6142 COLEMAN, DEARNORN, MI, 48126","Match","Non_Exact","6142 COLEMAN ST, DEARBORN, MI, 48126",95443630,"R"
767389,"6142 DOUGLAS AVE","RACINE","WI",53402,42.801724392,-87.824515516,389,"6142 DOUGLAS AVE, RACINE, WI, 53402","Match","Exact","6142 DOUGLAS AVE, RACINE, WI, 53402",77935218,"L"
767390,"6142 E 550 S","ELWOOD","IN",46036,40.225997211,-85.896512515,390,"6142 E 550 S, ELWOOD, IN, 46036","Match","Exact","6142 E 550 S, ELWOOD, IN, 46036",635537484,"L"
767391,"6142 FOREST KNOLL LN","LIBERTY TOWNSHIP","OH",45011,39.401083102,-84.4738972869999,391,"6142 FOREST KNOLL LN, LIBERTY TOWNSHIP, OH, 45011","Match","Exact","6142 FOREST KNOLL LN, LIBERTY TWP, OH, 45011",113819057,"R"
767392,"6142 HAVERFORD AVE","PHILADELPHIA","PA",19151,39.9714927960001,-75.2419821569999,392,"6142 HAVERFORD AVE, PHILADELPHIA, PA, 19151","Match","Exact","6142 HAVERFORD AVE, PHILADELPHIA, PA, 19151",131397419,"L"
767393,"6142 HAVERFORD AVENUE","PHILADELPHIA","PA",19151,39.9714927960001,-75.2419821569999,393,"6142 HAVERFORD AVENUE, PHILADELPHIA, PA, 19151","Match","Exact","6142 HAVERFORD AVE, PHILADELPHIA, PA, 19151",131397419,"L"
767394,"6142 HWY DD","HOUSTON","MO",65483,37.2716368390001,-91.9036418269999,394,"6142 HWY DD, HOUSTON, MO, 65483","Match","Exact","6142 HWY DD, HOUSTON, MO, 65483",649140182,"R"
767395,"6142 INVERNESS DR","ROMULUS","MI",48174,42.2620999960001,-83.369368739,395,"6142 INVERNESS DR, ROMULUS, MI, 48174","Match","Exact","6142 INVERNESS DR, ROMULUS, MI, 48174",617763304,"L"
767396,"6142 KILRENNY DR","LOVELAND","OH",45140,39.213070401,-84.2732133489999,396,"6142 KILRENNY DR, LOVELAND, OH, 45140","Match","Exact","6142 KILRENNY DR, LOVELAND, OH, 45140",118444567,"L"
767397,"6142 MARVIN STREET","NORTH LAS VEGAS","NV",89031,36.2721784610001,-115.171578682,397,"6142 MARVIN STREET, NORTH LAS VEGAS, NV, 89031","Match","Exact","6142 MARVIN ST, N LAS VEGAS, NV, 89031",201930781,"R"
767398,"6142 N ROXBORO ROAD","DURHAM","NC",27712,36.112063828,-78.905644513,398,"6142 N ROXBORO ROAD, DURHAM, NC, 27712","Match","Exact","6142 ROXBORO RD, DURHAM, NC, 27712",624160137,"R"
767399,"6142 N ST RD 7 APT 208","COCONUT CREEK","FL",33073,NA,NA,399,"6142 N ST RD 7 APT 208, COCONUT CREEK, FL, 33073","No_Match",NA,NA,NA,NA
767400,"6142 NORTH LA VENTANA AVE","FRESNO","CA",93723,36.825134615,-119.914758932,400,"6142 NORTH LA VENTANA AVE, FRESNO, CA, 93723","Match","Exact","6142 N LA VENTANA AVE, FRESNO, CA, 93723",619143252,"R"
767401,"6142 OVERHILL DR","LOUISVILLE","KY",40229,38.1158982250001,-85.673033667,401,"6142 OVERHILL DR, LOUISVILLE, KY, 40229","Match","Exact","6142 OVERHILL DR, LOUISVILLE, KY, 40229",96859547,"R"
767402,"6142 OXFORD ROAD NORTH","SHAKOPEE","MN",55379,44.780561936,-93.4404752679999,402,"6142 OXFORD ROAD NORTH, SHAKOPEE, MN, 55379","Match","Exact","6142 OXFORD RD N, SHAKOPEE, MN, 55379",38156485,"R"
767403,"6142 POLK ST","NEW PORT RICHEY","FL",34653,28.2483514080001,-82.708583979,403,"6142 POLK ST, NEW PORT RICHEY, FL, 34653","Match","Exact","6142 POLK ST, NEW PORT RICHEY, FL, 34653",86403123,"R"
767404,"6142 PRINCETON AVENUE","MORROW","GA",30260,33.5863076210001,-84.326304828,404,"6142 PRINCETON AVENUE, MORROW, GA, 30260","Match","Exact","6142 PRINCETON AVE, MORROW, GA, 30260",23338681,"L"
767405,"6142 REX DR","DALLAS","TX",75230,32.8990692890001,-96.801415051,405,"6142 REX DR, DALLAS, TX, 75230","Match","Exact","6142 REX DR, DALLAS, TX, 75230",102901434,"R"
767406,"6142 S HOBART AVE","LOS ANGELES","CA",90047,33.983920133,-118.307843159,406,"6142 S HOBART AVE, LOS ANGELES, CA, 90047","Match","Non_Exact","6142 S HOBART BLVD, LOS ANGELES, CA, 90047",141658218,"L"
767407,"6142 S WOOD","CHICAGO","IL",60636,41.7822339200001,-87.66913862,407,"6142 S WOOD, CHICAGO, IL, 60636","Match","Non_Exact","6142 S WOOD ST, CHICAGO, IL, 60636",111805671,"R"
767408,"6142 SALGE DR","FORT WAYNE","IN",46835,41.1378399880001,-85.069961425,408,"6142 SALGE DR, FORT WAYNE, IN, 46835","Match","Exact","6142 SALGE DR, FORT WAYNE, IN, 46835",6384499,"R"
767409,"6142 SAND HILLS CIR","LAKE WORTH","FL",33463,26.5829103300001,-80.12210828,409,"6142 SAND HILLS CIR, LAKE WORTH, FL, 33463","Match","Exact","6142 SAND HILLS CIR, LAKE WORTH, FL, 33463",115581277,"L"
767410,"6142 STAGS LEAP WAY","FRANKLIN","TN",37064,35.845623075,-86.756482902,410,"6142 STAGS LEAP WAY, FRANKLIN, TN, 37064","Match","Exact","6142 STAGS LEAP WAY, FRANKLIN, TN, 37064",643561591,"L"
767411,"6142 TENNYSON DRIVE","BATON ROUGE","LA",70817,30.3969224750001,-91.026231039,411,"6142 TENNYSON DRIVE, BATON ROUGE, LA, 70817","Match","Exact","6142 TENNYSON DR, BATON ROUGE, LA, 70817",92194990,"R"
767412,"6142 TODDS POINT RD","CAMBRIDGE","MD",21613,38.6179371600001,-76.242757866,412,"6142 TODDS POINT RD, CAMBRIDGE, MD, 21613","Match","Exact","6142 TODDS POINT RD, CAMBRIDGE, MD, 21613",99692097,"L"
767413,"6142 URSWICK TER","DOUGLASVILLE","GA",30135,33.6692414240001,-84.7814449259999,413,"6142 URSWICK TER, DOUGLASVILLE, GA, 30135","Match","Exact","6142 URSWICK TER, DOUGLASVILLE, GA, 30135",619841910,"L"
767414,"6142 VAN GORDON ST","ARVADA","CO",80004,39.8082417140001,-105.135349833,414,"6142 VAN GORDON ST, ARVADA, CO, 80004","Match","Exact","6142 VAN GORDON ST, ARVADA, CO, 80004",177284572,"R"
767415,"6142 VAN GORDON","ARVADA","CO",80004,39.8082417140001,-105.135349833,415,"6142 VAN GORDON, ARVADA, CO, 80004","Match","Non_Exact","6142 VAN GORDON ST, ARVADA, CO, 80004",177284572,"R"
767416,"6142 W CR 225 N","GREENCASTLE","IN",46135,39.6940439520001,-86.957993824,416,"6142 W CR 225 N, GREENCASTLE, IN, 46135","Match","Exact","6142 W CO RD 225 N, GREENCASTLE, IN, 46135",50103050,"L"
767417,"6142 W LINDA LANE","CHANDLER","AZ",85226,33.3167219050001,-111.948500167,417,"6142 W LINDA LANE, CHANDLER, AZ, 85226","Match","Exact","6142 W LINDA LN, CHANDLER, AZ, 85226",128777674,"L"
767418,"6142 WHISKEY CREEK DR- APT 617","FORT MYERS","FL",33919,26.558533934,-81.888851077,418,"6142 WHISKEY CREEK DR- APT 617, FORT MYERS, FL, 33919","Match","Non_Exact","6142 WHISKEY CREEK DR, FORT MYERS, FL, 33919",639989081,"R"
767419,"6142 WHITESTONE RD","JACKSON","MS",39206,32.393957356,-90.1717304589999,419,"6142 WHITESTONE RD, JACKSON, MS, 39206","Match","Exact","6142 WHITESTONE RD, JACKSON, MS, 39206",648603856,"R"
767420,"6142 WOODLARK DRIVE","CINCINNATI","OH",45230,39.0772555940001,-84.389866844,420,"6142 WOODLARK DRIVE, CINCINNATI, OH, 45230","Match","Exact","6142 WOODLARK DR, CINCINNATI, OH, 45230",103962005,"R"
767421,"61422 BENNETT RD","AMITE","LA",70422,30.7489148940001,-90.536963672,421,"61422 BENNETT RD, AMITE, LA, 70422","Match","Exact","61422 BENNETT RD, AMITE, LA, 70422",75747864,"R"
767422,"6143 186TH ST","FRESH MEADOWS","NY",11365,NA,NA,422,"6143 186TH ST, FRESH MEADOWS, NY, 11365","No_Match",NA,NA,NA,NA
767423,"6143 44TH COURT E","BRADENTON","FL",34203,27.435242406,-82.5061113519999,423,"6143 44TH COURT E, BRADENTON, FL, 34203","Match","Exact","6143 44TH CT E, BRADENTON, FL, 34203",629920004,"L"
767424,"6143 BRIDGESTONE CIR","DUBLIN","CA",94568,37.7242856190001,-121.871110286,424,"6143 BRIDGESTONE CIR, DUBLIN, CA, 94568","Match","Exact","6143 BRIDGESTONE CIR, DUBLIN, CA, 94568",125079019,"L"
767425,"6143 CAMPFIRE","COLUMBIA","MD",21045,39.2035315420001,-76.8315359869999,425,"6143 CAMPFIRE, COLUMBIA, MD, 21045","Match","Non_Exact","6143 CAMPFIRE CT, COLUMBIA, MD, 21045",158921030,"L"
767426,"6143 CHABOT ROAD","OAKLAND","CA",94618,37.84789741,-122.25003175,426,"6143 CHABOT ROAD, OAKLAND, CA, 94618","Match","Exact","6143 CHABOT RD, OAKLAND, CA, 94618",606046453,"L"
767427,"6143 GRAYS AVE","PHILADELPHIA","PA",19142,39.926712674,-75.226993409,427,"6143 GRAYS AVE, PHILADELPHIA, PA, 19142","Match","Exact","6143 GRAYS AVE, PHILADELPHIA, PA, 19142",131409180,"R"
767428,"6143 JERICHO TURNPIKE STE 206","COMMACK","NY",11325,40.8420086680001,-73.302500294,428,"6143 JERICHO TURNPIKE STE 206, COMMACK, NY, 11325","Match","Non_Exact","6143 JERICHO TPKE, COMMACK, NY, 11725",113981421,"L"
767429,"6143 LODI SPRINGFIELD RD","WAUNAKEE","WI",53597,43.1934423020001,-89.54920373,429,"6143 LODI SPRINGFIELD RD, WAUNAKEE, WI, 53597","Match","Exact","6143 LODI SPRINGFIELD RD, WAUNAKEE, WI, 53597",49539509,"L"
767430,"6143 LUDINGTON DR","HOUSTON","TX",77035,29.6502414600001,-95.498549444,430,"6143 LUDINGTON DR, HOUSTON, TX, 77035","Match","Exact","6143 LUDINGTON DR, HOUSTON, TX, 77035",96598870,"L"
767431,"6143 N COLONIAL","FRESNO","CA",93704,36.8253968970001,-119.803285762,431,"6143 N COLONIAL, FRESNO, CA, 93704","Match","Non_Exact","6143 N COLONIAL AVE, FRESNO, CA, 93704",197572274,"L"
767432,"6143 NE SHERBORNE","HILLSBORO","OR",97124,45.5260389920001,-122.917986587,432,"6143 NE SHERBORNE, HILLSBORO, OR, 97124","Match","Non_Exact","6143 NE SHERBORNE ST, HILLSBORO, OR, 97124",641910770,"L"
767433,"6143 S NEWPORT STREET","CENTENNIAL","CO",80111,39.6049586880001,-104.909437894,433,"6143 S NEWPORT STREET, CENTENNIAL, CO, 80111","Match","Exact","6143 S NEWPORT ST, CENTENNIAL, CO, 80111",177346420,"R"
767434,"6143 SCHOCHARY ROAD","NEW TRIPOLI","PA",18066,40.663979962,-75.7534133509999,434,"6143 SCHOCHARY ROAD, NEW TRIPOLI, PA, 18066","Match","Exact","6143 SCHOCHARY RD, NEW TRIPOLI, PA, 18066",80798465,"R"
767435,"6143 SHAMROCK CIRCLE","FREDERICK","CO",80531,40.0922978840001,-104.92273481,435,"6143 SHAMROCK CIRCLE, FREDERICK, CO, 80531","Match","Non_Exact","6143 SHAMROCK CIR, FREDERICK, CO, 80530",188754444,"R"
767436,"6143 VALLEY FORGE DRIVE","HOUSTON","TX",77057,29.7535451950001,-95.491273031,436,"6143 VALLEY FORGE DRIVE, HOUSTON, TX, 77057","Match","Exact","6143 VALLEY FORGE DR, HOUSTON, TX, 77057",96030773,"L"
767437,"6143","STERLING","MI",48659,NA,NA,437,"6143, STERLING, MI, 48659","No_Match",NA,NA,NA,NA
767438,"61439 ROCK BLUFF LN","BEND","OR",97702,44.03104431,-121.322856908,438,"61439 ROCK BLUFF LN, BEND, OR, 97702","Match","Exact","61439 ROCK BLUFF LN, BEND, OR, 97702",152579620,"R"
767439,"6144 44TH COURT E","BRADENTON","FL",34203,27.435206695,-82.506124071,439,"6144 44TH COURT E, BRADENTON, FL, 34203","Match","Exact","6144 44TH CT E, BRADENTON, FL, 34203",629920004,"R"
767440,"6144 56TH AVENUE","MASPETH","NY",11378,NA,NA,440,"6144 56TH AVENUE, MASPETH, NY, 11378","No_Match",NA,NA,NA,NA
767441,"6144 9TH AVE CIRCLE NE","BRADENTON","FL",34212,NA,NA,441,"6144 9TH AVE CIRCLE NE, BRADENTON, FL, 34212","Tie",NA,NA,NA,NA
767442,"6144 CANYON PKWY","MCFARLAND","WI",53558,43.027657924,-89.272359642,442,"6144 CANYON PKWY, MCFARLAND, WI, 53558","Match","Exact","6144 CANYON PKWY, MCFARLAND, WI, 53558",649023320,"R"
767443,"6144 CATHWICK DRIVE","MCCALLA","AL",35111,33.3312872290001,-87.008275372,443,"6144 CATHWICK DRIVE, MCCALLA, AL, 35111","Match","Non_Exact","6144 CATHWICK DR, MC CALLA, AL, 35111",636983405,"L"
767444,"6144 CILANTRO DRIVE","ALEXANDRIA","VA",22310,38.7713829840001,-77.1496218779999,444,"6144 CILANTRO DRIVE, ALEXANDRIA, VA, 22310","Match","Exact","6144 CILANTRO DR, ALEXANDRIA, VA, 22310",647372587,"L"
767445,"6144 COLUMBIA ST","HASLETT","MI",48840,42.760572332,-84.408963392,445,"6144 COLUMBIA ST, HASLETT, MI, 48840","Match","Exact","6144 COLUMBIA ST, HASLETT, MI, 48840",17505867,"R"
767446,"6144 COLUMBIA","HASLETT","MI",48840,42.760572332,-84.408963392,446,"6144 COLUMBIA, HASLETT, MI, 48840","Match","Non_Exact","6144 COLUMBIA ST, HASLETT, MI, 48840",17505867,"R"
767447,"6144 E 52ND STREET","TULSA","OK",74135,36.087915175,-95.906751317,447,"6144 E 52ND STREET, TULSA, OK, 74135","Match","Exact","6144 E 52ND ST, TULSA, OK, 74135",166452171,"R"
767448,"6144 FM 1650","GILMER","TX",75645,32.691752378,-94.844515585,448,"6144 FM 1650, GILMER, TX, 75645","Match","Exact","6144 FM 1650, GILMER, TX, 75645",147609745,"L"
767449,"6144 GATEWAY CTR PMB 333","KILGORE","TX",75662,NA,NA,449,"6144 GATEWAY CTR PMB 333, KILGORE, TX, 75662","No_Match",NA,NA,NA,NA
767450,"6144 HARPERS DAIRY LOOP ROAD","BESSEMER","AL",35022,33.3268920360001,-86.980215018,450,"6144 HARPERS DAIRY LOOP ROAD, BESSEMER, AL, 35022","Match","Exact","6144 HARPERS DAIRY LOOP, BESSEMER, AL, 35022",627966692,"L"
767451,"6144 HOLLER HAVEN","BULVERDE","TX",78163,NA,NA,451,"6144 HOLLER HAVEN, BULVERDE, TX, 78163","No_Match",NA,NA,NA,NA
767452,"6144 LANDERS COURT","EL RENO","OK",73036,35.403952051,-97.841433862,452,"6144 LANDERS COURT, EL RENO, OK, 73036","Match","Exact","6144 LANDERS CT, EL RENO, OK, 73036",650652596,"L"
767453,"6144 LANMAN","WATERFORD","MI",48329,42.685072124,-83.410885503,453,"6144 LANMAN, WATERFORD, MI, 48329","Match","Non_Exact","6144 LANMAN DR, WATERFORD, MI, 48329",69694671,"R"
767454,"6144 N ISLAND VIEW LN","IRONS","MI",49644,44.077072817,-85.988476181,454,"6144 N ISLAND VIEW LN, IRONS, MI, 49644","Match","Exact","6144 N ISLAND VIEW LN, IRONS, MI, 49644",150195004,"R"
767455,"6144 NW 66TH WAY","PARKLAND","FL",33067,26.3060545750001,-80.217332498,455,"6144 NW 66TH WAY, PARKLAND, FL, 33067","Match","Exact","6144 NW 66TH WAY, PARKLAND, FL, 33067",114738195,"R"
767456,"6144 NW EAST DEVILLE CIRCLE","PORT SAINT LUCIE","FL",34986,27.344133578,-80.394117685,456,"6144 NW EAST DEVILLE CIRCLE, PORT SAINT LUCIE, FL, 34986","Match","Exact","6144 NW EAST DEVILLE CIR, PORT ST LUCIE, FL, 34986",120179844,"R"
767457,"6144 PARKWAY DRIVE","BALTIMORE","MD",21212,39.368516562,-76.6017410319999,457,"6144 PARKWAY DRIVE, BALTIMORE, MD, 21212","Match","Exact","6144 PARKWAY DR, BALTIMORE, MD, 21212",206408277,"L"
767458,"6144 RHONE DR","CHARLOTTE","NC",28226,35.127866463,-80.786064391,458,"6144 RHONE DR, CHARLOTTE, NC, 28226","Match","Exact","6144 RHONE DR, CHARLOTTE, NC, 28226",70493003,"R"
767459,"6144 RHONE DRIVE","CHARLOTTE","NC",28226,35.127866463,-80.786064391,459,"6144 RHONE DRIVE, CHARLOTTE, NC, 28226","Match","Exact","6144 RHONE DR, CHARLOTTE, NC, 28226",70493003,"R"
767460,"6144 S GREENWOOD AVE","CHICAGO","IL",60637,41.783283769,-87.599511158,460,"6144 S GREENWOOD AVE, CHICAGO, IL, 60637","Match","Exact","6144 S GREENWOOD AVE, CHICAGO, IL, 60637",111771810,"R"
767461,"6144 SHERMANS VALLEY ROAD","LOYSVILLE","PA",17047,40.351088718,-77.4737161469999,461,"6144 SHERMANS VALLEY ROAD, LOYSVILLE, PA, 17047","Match","Exact","6144 SHERMANS VALLEY RD, LOYSVILLE, PA, 17047",637466648,"R"
767462,"6144 W AVENUE K2","LANCASTER","CA",93536,34.672580451,-118.239514773,462,"6144 W AVENUE K2, LANCASTER, CA, 93536","Match","Exact","6144 W AVE K2, LANCASTER, CA, 93536",627280414,"L"
767463,"6144 W WYANDOTTE RD","MAUMEE","OH",43537,41.6071805620001,-83.687212954,463,"6144 W WYANDOTTE RD, MAUMEE, OH, 43537","Match","Exact","6144 W WYANDOTTE RD, MAUMEE, OH, 43537",33953508,"L"
767464,"6144 WINDLASS CIRCLE","BOYNTON BEACH","FL",33472,26.5493129340001,-80.143201287,464,"6144 WINDLASS CIRCLE, BOYNTON BEACH, FL, 33472","Match","Exact","6144 WINDLASS CIR, BOYNTON BEACH, FL, 33472",115489109,"L"
767465,"6144 WINTON ST","DALLAS","TX",75214,32.8356642960001,-96.760009189,465,"6144 WINTON ST, DALLAS, TX, 75214","Match","Exact","6144 WINTON ST, DALLAS, TX, 75214",102918458,"R"
767466,"61440 HATCHER RD","BELMONT","OH",43718,39.9844783030001,-81.018812302,466,"61440 HATCHER RD, BELMONT, OH, 43718","Match","Exact","61440 HATCHER RD, BELMONT, OH, 43718",36207987,"L"
767467,"61440 LOWER MATTSON RD","COOS BAY","OR",97420,43.295596678,-124.13858471,467,"61440 LOWER MATTSON RD, COOS BAY, OR, 97420","Match","Exact","61440 LOWER MATTSON RD, COOS BAY, OR, 97420",137021195,"R"
767468,"61440 RICHFIELD STREET","SOUTH LYON","MI",48178,42.4959325730001,-83.6562738869999,468,"61440 RICHFIELD STREET, SOUTH LYON, MI, 48178","Match","Exact","61440 RICHFIELD ST, SOUTH LYON, MI, 48178",69806483,"R"
767469,"61445 SE 27TH STREET UNIT 38","BEND","OR",97702,44.030960371,-121.26376331,469,"61445 SE 27TH STREET UNIT 38, BEND, OR, 97702","Match","Exact","61445 27TH ST, BEND, OR, 97702",152584892,"L"
767470,"61447 NIGHT OWL LANE","MADISON LAKE","MN",56063,44.209926421,-93.829654907,470,"61447 NIGHT OWL LANE, MADISON LAKE, MN, 56063","Match","Exact","61447 NIGHT OWL LN, MADISON LAKE, MN, 56063",28106799,"L"
767471,"6144A FM70","BISHOP","TX",78343,NA,NA,471,"6144A FM70, BISHOP, TX, 78343","No_Match",NA,NA,NA,NA
767472,"6144D S GREENWOOD AVE","CHICAGO","IL",60637,41.783298109,-87.5995114739999,472,"6144D S GREENWOOD AVE, CHICAGO, IL, 60637","Match","Exact","6144 S GREENWOOD AVE, CHICAGO, IL, 60637",111771810,"R"
767473,"6145 ADAM DR","MARRERO","LA",70072,29.883025903,-90.109128929,473,"6145 ADAM DR, MARRERO, LA, 70072","Match","Exact","6145 ADAM DR, MARRERO, LA, 70072",648091023,"L"
767474,"6145 ADAM DRIVE","MARRERO","LA",70072,29.883025903,-90.109128929,474,"6145 ADAM DRIVE, MARRERO, LA, 70072","Match","Exact","6145 ADAM DR, MARRERO, LA, 70072",648091023,"L"
767475,"6145 AMBLEWOOD DRIVE","JACKSON","MS",39213,32.39133851,-90.205080274,475,"6145 AMBLEWOOD DRIVE, JACKSON, MS, 39213","Match","Exact","6145 AMBLEWOOD DR, JACKSON, MS, 39213",611216139,"R"
767476,"6145 BLACK WALNUT WAY","SOBIESKI","WI",54171,44.711567561,-88.0732299759999,476,"6145 BLACK WALNUT WAY, SOBIESKI, WI, 54171","Match","Exact","6145 BLACK WALNUT WAY, SOBIESKI, WI, 54171",618436729,"L"
767477,"6145 BROADWAY SUITE 20","DENVER","CO",80022,NA,NA,477,"6145 BROADWAY SUITE 20, DENVER, CO, 80022","No_Match",NA,NA,NA,NA
767478,"6145 BROADWAY SUITE 20","DENVER","CO",80211,NA,NA,478,"6145 BROADWAY SUITE 20, DENVER, CO, 80211","No_Match",NA,NA,NA,NA
767479,"6145 BROOKWOOD VALLEY CIRCLE","ATLANTA","GA",30309,33.810107783,-84.3885564449999,479,"6145 BROOKWOOD VALLEY CIRCLE, ATLANTA, GA, 30309","Match","Non_Exact","6145 BROOKWOOD VALLEY CIR NE, ATLANTA, GA, 30309",651707743,"R"
767480,"6145 CENTER DRIVE","HELENA","MT",59602,46.661783217,-112.013444093,480,"6145 CENTER DRIVE, HELENA, MT, 59602","Match","Exact","6145 CENTER DR, HELENA, MT, 59602",202381870,"R"
767481,"6145 CUMMINGS COURT","GLADSTONE","OR",97027,45.3883696460001,-122.599452946,481,"6145 CUMMINGS COURT, GLADSTONE, OR, 97027","Match","Exact","6145 CUMMINGS CT, GLADSTONE, OR, 97027",157926832,"L"
767482,"6145 DELMAR","FAIRWAY","KS",66205,39.017894606,-94.634738273,482,"6145 DELMAR, FAIRWAY, KS, 66205","Match","Non_Exact","6145 DELMAR ST, FAIRWAY, KS, 66205",91274183,"L"
767483,"6145 E ADOBE PL","TUCSON","AZ",85712,32.2479914910001,-110.860228377,483,"6145 E ADOBE PL, TUCSON, AZ, 85712","Match","Exact","6145 E ADOBE PL, TUCSON, AZ, 85712",121180631,"L"
767484,"6145 FLEETWOOD DRIVE","BATON ROUGE","LA",70817,30.394298549,-90.992292218,484,"6145 FLEETWOOD DRIVE, BATON ROUGE, LA, 70817","Match","Exact","6145 FLEETWOOD DR, BATON ROUGE, LA, 70817",92196877,"L"
767485,"6145 GLEN OAK DR","FLOWERY BRANCH","GA",30542,34.1615116030001,-83.949267976,485,"6145 GLEN OAK DR, FLOWERY BRANCH, GA, 30542","Match","Exact","6145 GLEN OAK DR, FLOWERY BR, GA, 30542",652835052,"L"
767486,"6145 GLEN OAK DR","FLOWERY BRANCK","GA",30542,34.1615116030001,-83.949267976,486,"6145 GLEN OAK DR, FLOWERY BRANCK, GA, 30542","Match","Non_Exact","6145 GLEN OAK DR, FLOWERY BRANCH, GA, 30542",652835052,"L"
767487,"6145 HORSESHOE HOLLOW LN","MOUNTAIN GREEN","UT",84050,NA,NA,487,"6145 HORSESHOE HOLLOW LN, MOUNTAIN GREEN, UT, 84050","No_Match",NA,NA,NA,NA
767488,"6145 LAURAL GREEN","FREDERICK","CO",80530,40.0903810450001,-104.926439194,488,"6145 LAURAL GREEN, FREDERICK, CO, 80530","Match","Non_Exact","6145 LAUREL GRN, FREDERICK, CO, 80530",631840580,"R"
767489,"6145 LIEBIG AVENUE APT 2N","BRONX","NY",10471,40.9104206980001,-73.901241677,489,"6145 LIEBIG AVENUE APT 2N, BRONX, NY, 10471","Match","Exact","6145 LIEBIG AVE, BRONX, NY, 10471",80295756,"L"
767490,"6145 MACBETH DRIVE","BALTIMORE","MD",21239,39.3685665780001,-76.597570594,490,"6145 MACBETH DRIVE, BALTIMORE, MD, 21239","Match","Exact","6145 MACBETH DR, BALTIMORE, MD, 21239",206447315,"R"
767491,"6145 MARSDEN STREET","PHILADELPHIA","PA",19135,40.0195027090001,-75.057213465,491,"6145 MARSDEN STREET, PHILADELPHIA, PA, 19135","Match","Exact","6145 MARSDEN ST, PHILADELPHIA, PA, 19135",131435096,"R"
767492,"6145 MESITA DRIVE","SAN DIEGO","CA",92115,32.767732111,-117.066137054,492,"6145 MESITA DRIVE, SAN DIEGO, CA, 92115","Match","Exact","6145 MESITA DR, SAN DIEGO, CA, 92115",195323589,"R"
767493,"6145 NORTH MERIDIAN STREET","INDIANAPOLIS","IN",46208,39.8677657270001,-86.155361208,493,"6145 NORTH MERIDIAN STREET, INDIANAPOLIS, IN, 46208","Match","Exact","6145 N MERIDIAN ST, INDIANAPOLIS, IN, 46208",652688984,"R"
767494,"6145 NW HELMSDALE WAY","PORT ST LUCIE","FL",34983,27.3580376510001,-80.363679245,494,"6145 NW HELMSDALE WAY, PORT ST LUCIE, FL, 34983","Match","Exact","6145 NW HELMSDALE WAY, PORT ST LUCIE, FL, 34983",619604576,"R"
767495,"6145 QUAIL 834","EL PASO","TX",79924,31.9029466270001,-106.394603928,495,"6145 QUAIL 834, EL PASO, TX, 79924","Match","Non_Exact","6145 QUAIL AVE, EL PASO, TX, 79924",189365690,"L"
767496,"6145 S CARPENTER APT 2","CHICAGO","IL",60621,NA,NA,496,"6145 S CARPENTER APT 2, CHICAGO, IL, 60621","No_Match",NA,NA,NA,NA
767497,"6145 S CARPENTER ST APT 1","CHICAGO","IL",60621,41.7822053560001,-87.6509157529999,497,"6145 S CARPENTER ST APT 1, CHICAGO, IL, 60621","Match","Non_Exact","6145 S CARPENTER ST, CHICAGO, IL, 60621",605487416,"L"
767498,"6145 S PENNY LN","GONZALES","LA",70737,30.173518895,-90.9141476569999,498,"6145 S PENNY LN, GONZALES, LA, 70737","Match","Exact","6145 S PENNY LN, GONZALES, LA, 70737",115039479,"L"
767499,"6145 SANDY BOTTOM DR","FULTON","IL",61252,41.8883994780001,-90.1277929729999,499,"6145 SANDY BOTTOM DR, FULTON, IL, 61252","Match","Exact","6145 SANDY BOTTOM DR, FULTON, IL, 61252",48982120,"R"
767500,"6145 SPRING MTN RD STE 101","LAS VEGAS","NV",89146,36.125453308,-115.225930431,500,"6145 SPRING MTN RD STE 101, LAS VEGAS, NV, 89146","Match","Exact","6145 SPRING MOUNTAIN RD, LAS VEGAS, NV, 89146",201862885,"L"
