"ID","Address","City","State","Zip","lat","long","id","input_address","match_indicator","match_type","matched_address","tiger_line_id","tiger_side"
331001,"209 SHOREVIEW DRIVE","PANAMA CITY","FL",32404,30.2397294090001,-85.597796397,1,"209 SHOREVIEW DRIVE, PANAMA CITY, FL, 32404","Match","Exact","209 SHOREVIEW DR, PANAMA CITY, FL, 32404",648207130,"R"
331002,"209 SHOREWOOD COURT","COLUMBIA","SC",29212,34.0915123360001,-81.223926186,2,"209 SHOREWOOD COURT, COLUMBIA, SC, 29212","Match","Exact","209 SHOREWOOD CT, COLUMBIA, SC, 29212",70088493,"L"
331003,"209 SILVERADO STRET","BOLINGBROOK","IL",60490,41.693340296,-88.147261777,3,"209 SILVERADO STRET, BOLINGBROOK, IL, 60490","Match","Non_Exact","209 SILVERADO ST, BOLINGBROOK, IL, 60490",111583179,"R"
331004,"209 SILVERADO","LA VERNIA","TX",78121,NA,NA,4,"209 SILVERADO, LA VERNIA, TX, 78121","No_Match",NA,NA,NA,NA
331005,"209 SIR BRINE DR","LEWISVILLE","TX",75056,33.055967002,-96.901891053,5,"209 SIR BRINE DR, LEWISVILLE, TX, 75056","Match","Exact","209 SIR BRINE DR, LEWISVILLE, TX, 75056",624810134,"L"
331006,"209 SIR WALTER RALEIGH DR","KILL DEVIL HILLS","NC",27948,36.0229075680001,-75.7211224,6,"209 SIR WALTER RALEIGH DR, KILL DEVIL HILLS, NC, 27948","Match","Exact","209 SIR WALTER RALEIGH DR, KILL DEVIL HILLS, NC, 27948",81308294,"R"
331007,"209 SKYCREST","BORGER","TX",79007,35.6455522850001,-101.449463854,7,"209 SKYCREST, BORGER, TX, 79007","Match","Non_Exact","209 SKYCREST ST, BORGER, TX, 79007",185358091,"R"
331008,"209 SKYLINE DR","TROPHY CLUB","TX",76262,33.0048182510001,-97.16994522,8,"209 SKYLINE DR, TROPHY CLUB, TX, 76262","Match","Exact","209 SKYLINE DR, TROPHY CLUB, TX, 76262",635758683,"L"
331009,"209 SKYLINE DRIVE","TROPHY CLUB","TX",76262,33.0048182510001,-97.16994522,9,"209 SKYLINE DRIVE, TROPHY CLUB, TX, 76262","Match","Exact","209 SKYLINE DR, TROPHY CLUB, TX, 76262",635758683,"L"
331010,"209 SLADE DRIVE","LONGWOD","FL",32750,28.701577983,-81.3696245739999,10,"209 SLADE DRIVE, LONGWOD, FL, 32750","Match","Non_Exact","209 SLADE DR, LONGWOOD, FL, 32750",647533018,"L"
331011,"209 SLADE DRIVE","LONGWOOD","FL",32750,28.701577983,-81.3696245739999,11,"209 SLADE DRIVE, LONGWOOD, FL, 32750","Match","Exact","209 SLADE DR, LONGWOOD, FL, 32750",647533018,"L"
331012,"209 SNOW BIRD DRIVE","HAMPTON","GA",30228,33.461282091,-84.273313964,12,"209 SNOW BIRD DRIVE, HAMPTON, GA, 30228","Match","Exact","209 SNOW BIRD DR, HAMPTON, GA, 30228",648227820,"L"
331013,"209 SO 16TH STREET","HOT SPRINGS","SD",57747,43.4286287510001,-103.48059045,13,"209 SO 16TH STREET, HOT SPRINGS, SD, 57747","Match","Exact","209 S 16TH ST, HOT SPRINGS, SD, 57747",174180736,"R"
331014,"209 SOLAR DRIVE","OSKALOOSA","IA",52577,41.297572218,-92.620389271,14,"209 SOLAR DRIVE, OSKALOOSA, IA, 52577","Match","Exact","209 SOLAR DR, OSKALOOSA, IA, 52577",89386734,"L"
331015,"209 SOMERSET DRIVE","GERMANTOWN HILLS","IL",61548,40.770655414,-89.464339981,15,"209 SOMERSET DRIVE, GERMANTOWN HILLS, IL, 61548","Match","Exact","209 SOMERSET DR, GERMANTOWN HILLS, IL, 61548",633851631,"R"
331016,"209 SOUTH 3RD STREET","CENTERVILLE","IN",47330,39.816571427,-84.991644787,16,"209 SOUTH 3RD STREET, CENTERVILLE, IN, 47330","Match","Exact","209 S 3RD ST, CENTERVILLE, IN, 47330",31324715,"R"
331017,"209 SOUTH 4TH STREET","LARAMIE","WY",82073,NA,NA,17,"209 SOUTH 4TH STREET, LARAMIE, WY, 82073","Tie",NA,NA,NA,NA
331018,"209 SOUTH 5TH STREET","NASHVILLE","TN",37206,36.171766742,-86.76470183,18,"209 SOUTH 5TH STREET, NASHVILLE, TN, 37206","Match","Exact","209 S 5TH ST, NASHVILLE, TN, 37206",606393569,"L"
331019,"209 SOUTH AUSTIN","DE LEON","TN",76444,NA,NA,19,"209 SOUTH AUSTIN, DE LEON, TN, 76444","No_Match",NA,NA,NA,NA
331020,"209 SOUTH AUSTIN","DE LEON","TX",76444,32.1081871860001,-98.538382977,20,"209 SOUTH AUSTIN, DE LEON, TX, 76444","Match","Non_Exact","209 S AUSTIN ST, DE LEON, TX, 76444",158635196,"R"
331021,"209 SOUTH DAVIS","BEVERLY SHORES","IN",46301,41.68361122,-86.987977869,21,"209 SOUTH DAVIS, BEVERLY SHORES, IN, 46301","Match","Non_Exact","209 S DAVIS ST, BEVERLY SHORES, IN, 46301",119907286,"R"
331022,"209 SOUTH EMERALD","CARBONDALE","MO",62901,NA,NA,22,"209 SOUTH EMERALD, CARBONDALE, MO, 62901","No_Match",NA,NA,NA,NA
331023,"209 SOUTH FRANKLIN DRIVE","FLORENCE","SC",29501,34.1938261400001,-79.7851482569999,23,"209 SOUTH FRANKLIN DRIVE, FLORENCE, SC, 29501","Match","Exact","209 S FRANKLIN DR, FLORENCE, SC, 29501",28878020,"R"
331024,"209 SOUTH FREMONT","LAWTON","MI",49065,42.1665291910001,-85.843452465,24,"209 SOUTH FREMONT, LAWTON, MI, 49065","Match","Non_Exact","209 S FREMONT ST, LAWTON, MI, 49065",34756719,"R"
331025,"209 SOUTH GROVE STREET APT 205","YPSILANTI","MI",48190,42.2365156550001,-83.6037680159999,25,"209 SOUTH GROVE STREET APT 205, YPSILANTI, MI, 48190","Match","Non_Exact","209 S GROVE ST, YPSILANTI, MI, 48198",26021818,"L"
331026,"209 SOUTH GROVE STREET","TARRYTOWN","NY",10591,41.0697971770001,-73.859301938,26,"209 SOUTH GROVE STREET, TARRYTOWN, NY, 10591","Match","Exact","209 S GROVE ST, TARRYTOWN, NY, 10591",139731072,"R"
331027,"209 SOUTH JACKSON STREET","SABINA","OH",45169,39.4868844600001,-83.632153893,27,"209 SOUTH JACKSON STREET, SABINA, OH, 45169","Match","Exact","209 S JACKSON ST, SABINA, OH, 45169",146849530,"L"
331028,"209 SOUTH LAKE STREET NUM F","LEESBURG","FL",34748,28.809872694,-81.866916736,28,"209 SOUTH LAKE STREET NUM F, LEESBURG, FL, 34748","Match","Exact","209 S LAKE ST, LEESBURG, FL, 34748",94099444,"L"
331029,"209 SOUTH MAIN ST","HACKSNSACK","NJ",7601,40.8723599590001,-74.045739198,29,"209 SOUTH MAIN ST, HACKSNSACK, NJ, 7601","Match","Non_Exact","209 S MAIN ST, HACKENSACK, NJ, 07601",64393687,"R"
331030,"209 SOUTH MAIN STREET","ST MARYS","OH",45885,40.5410242880001,-84.389539234,30,"209 SOUTH MAIN STREET, ST MARYS, OH, 45885","Match","Exact","209 S MAIN ST, SAINT MARYS, OH, 45885",36420678,"L"
331031,"209 SOUTH MARKET ST","MECHANICSBURG","PA",17055,40.211073196,-77.006900115,31,"209 SOUTH MARKET ST, MECHANICSBURG, PA, 17055","Match","Exact","209 S MARKET ST, MECHANICSBURG, PA, 17055",60986005,"L"
331032,"209 SOUTH MIDLAND ST","GOLDSMITH","TX",79741,31.9796760520001,-102.613136672,32,"209 SOUTH MIDLAND ST, GOLDSMITH, TX, 79741","Match","Non_Exact","209 MIDLAND ST, GOLDSMITH, TX, 79741",139421403,"L"
331033,"209 SOUTH MIDLAND STREET","GOLDSMITH","TX",79741,31.9796760520001,-102.613136672,33,"209 SOUTH MIDLAND STREET, GOLDSMITH, TX, 79741","Match","Non_Exact","209 MIDLAND ST, GOLDSMITH, TX, 79741",139421403,"L"
331034,"209 SOUTH OAK PARK AVE APT 201","OAK PARK","IL",60302,41.884799624,-87.7944080249999,34,"209 SOUTH OAK PARK AVE APT 201, OAK PARK, IL, 60302","Match","Exact","209 S OAK PARK AVE, OAK PARK, IL, 60302",111753003,"R"
331035,"209 SOUTH PLEASANT","BRADFORD","VT",5033,43.9899237810001,-72.132306225,35,"209 SOUTH PLEASANT, BRADFORD, VT, 5033","Match","Non_Exact","209 S PLEASANT ST, BRADFORD, VT, 05033",181148357,"R"
331036,"209 SOUTH PRAIRE AVENUE","ARLINGTON HEIGHTS","IL",60005,42.0615519940001,-87.9713662359999,36,"209 SOUTH PRAIRE AVENUE, ARLINGTON HEIGHTS, IL, 60005","Match","Non_Exact","209 S PRAIRIE AVE, ARLINGTON HEIGHTS, IL, 60005",649695277,"L"
331037,"209 SOUTH QUEEN STREET","MAIZE","KS",67101,NA,NA,37,"209 SOUTH QUEEN STREET, MAIZE, KS, 67101","No_Match",NA,NA,NA,NA
331038,"209 SOUTH ROAD FPG UNION RM 3506","CHAPEL HILL","NC",27599,35.909344129,-79.048462518,38,"209 SOUTH ROAD FPG UNION RM 3506, CHAPEL HILL, NC, 27599","Match","Non_Exact","209 SOUTH RD, CHAPEL HILL, NC, 27514",72380382,"L"
331039,"209 SOUTH ST CHARLES AVENUE","JOPLIN","MO",64801,37.089694976,-94.49369734,39,"209 SOUTH ST CHARLES AVENUE, JOPLIN, MO, 64801","Match","Exact","209 S SAINT CHARLES AVE, JOPLIN, MO, 64801",66149085,"L"
331040,"209 SOUTH ST","ATHOL","MA",1331,42.591511891,-72.235883912,40,"209 SOUTH ST, ATHOL, MA, 1331","Match","Exact","209 SOUTH ST, ATHOL, MA, 01331",39989952,"R"
331041,"209 SOUTH STATE STREET","NORTH VERNON","IN",47265,39.001563751,-85.624346991,41,"209 SOUTH STATE STREET, NORTH VERNON, IN, 47265","Match","Exact","209 S STATE ST, NORTH VERNON, IN, 47265",30113686,"L"
331042,"209 SOUTH STEPHANIE ST B116","HENDERSON","NV",89012,36.0206190280001,-115.04732613,42,"209 SOUTH STEPHANIE ST B116, HENDERSON, NV, 89012","Match","Exact","209 S STEPHANIE ST, HENDERSON, NV, 89012",201956143,"L"
331043,"209 SOUTH WASHINGTON","HILLSBORO","KS",67063,38.351776768,-97.2032717279999,43,"209 SOUTH WASHINGTON, HILLSBORO, KS, 67063","Match","Non_Exact","209 S WASHINGTON ST, HILLSBORO, KS, 67063",120687962,"L"
331044,"209 SOUTHWEST BROAD STREET","HOXIE","AR",72433,36.051544381,-90.975534759,44,"209 SOUTHWEST BROAD STREET, HOXIE, AR, 72433","Match","Exact","209 SW BROAD ST, HOXIE, AR, 72433",79043851,"L"
331045,"209 SPECTACULAR BID DRIVE","HVRE DE GRACE","MD",21078,39.5498709290001,-76.134118526,45,"209 SPECTACULAR BID DRIVE, HVRE DE GRACE, MD, 21078","Match","Exact","209 SPECTACULAR BID DR, HVRE DE GRACE, MD, 21078",191686862,"R"
331046,"209 SPRING CREEK LANE","SANDY SPRINGS","GA",30350,33.9734139820001,-84.361799111,46,"209 SPRING CREEK LANE, SANDY SPRINGS, GA, 30350","Match","Exact","209 SPRING CREEK LN, SANDY SPRINGS, GA, 30350",17381396,"R"
331047,"209 SPRING CREEK ROAD","BARRINGTON HILLS","IL",60010,42.168739547,-88.2231960459999,47,"209 SPRING CREEK ROAD, BARRINGTON HILLS, IL, 60010","Match","Non_Exact","209 SPRING CREEK RD, BARRINGTON, IL, 60010",119849409,"R"
331048,"209 SPRING ST","HARDY","AR",72542,36.31664684,-91.482742403,48,"209 SPRING ST, HARDY, AR, 72542","Match","Non_Exact","209 N SPRING ST, HARDY, AR, 72542",33266944,"L"
331049,"209 SPRINGLAWN DRIVE","LANCASTER","PA",17601,40.05631242,-76.353713308,49,"209 SPRINGLAWN DRIVE, LANCASTER, PA, 17601","Match","Exact","209 SPRINGLAWN DR, LANCASTER, PA, 17601",179685541,"R"
331050,"209 SPRINGVIEW DR","GRAY","TN",37615,NA,NA,50,"209 SPRINGVIEW DR, GRAY, TN, 37615","No_Match",NA,NA,NA,NA
331051,"209 ST LUKES LN","SMYRNA","TN",37167,35.976656496,-86.53965936,51,"209 ST LUKES LN, SMYRNA, TN, 37167","Match","Exact","209 SAINT LUKES LN, SMYRNA, TN, 37167",636648395,"L"
331052,"209 STATE HWY 1","GRAYSON","KY",41143,38.366837317,-82.935425381,52,"209 STATE HWY 1, GRAYSON, KY, 41143","Match","Non_Exact","209 N STATE HWY 1, GRAYSON, KY, 41143",39594648,"L"
331053,"209 STEAMBOAT DR","COPPELL","TX",75019,32.962319155,-96.997331147,53,"209 STEAMBOAT DR, COPPELL, TX, 75019","Match","Exact","209 STEAMBOAT DR, COPPELL, TX, 75019",636336296,"L"
331054,"209 STEAMBOAT DRIVE","DODGE CITY","KS",67801,37.791568607,-100.019304714,54,"209 STEAMBOAT DRIVE, DODGE CITY, KS, 67801","Match","Exact","209 STEAMBOAT DR, DODGE CITY, KS, 67801",645780531,"R"
331055,"209 STEELE ST","RANGELY","CO",81648,40.0859431600001,-108.797255953,55,"209 STEELE ST, RANGELY, CO, 81648","Match","Exact","209 STEELE ST, RANGELY, CO, 81648",125994704,"L"
331056,"209 STEPHANIE LANE APT 31","INDIANAPOLIS","IN",46227,39.7219837050001,-86.15483032,56,"209 STEPHANIE LANE APT 31, INDIANAPOLIS, IN, 46227","Match","Exact","209 STEPHANIE LN, INDIANAPOLIS, IN, 46227",108053248,"R"
331057,"209 STEPHENS AVE","NATCHITOCHES","LA",71457,31.7592856140001,-93.083047337,57,"209 STEPHENS AVE, NATCHITOCHES, LA, 71457","Match","Exact","209 STEPHENS AVE, NATCHITOCHES, LA, 71457",13364300,"L"
331058,"209 STEVENS AVE","BUFFALO","NY",14215,42.9197745110001,-78.825365902,58,"209 STEVENS AVE, BUFFALO, NY, 14215","Match","Exact","209 STEVENS AVE, BUFFALO, NY, 14215",48296676,"R"
331059,"209 STILLWATER AVE","ORONO","ME",4473,NA,NA,59,"209 STILLWATER AVE, ORONO, ME, 4473","No_Match",NA,NA,NA,NA
331060,"209 STONE HOUSE DR","LIBERTY HILL","TX",78642,30.758134028,-97.931989389,60,"209 STONE HOUSE DR, LIBERTY HILL, TX, 78642","Match","Exact","209 STONE HOUSE DR, LIBERTY HILL, TX, 78642",641093167,"L"
331061,"209 STONEBURG DR","DUSON","LA",70529,30.185677953,-92.1703379209999,61,"209 STONEBURG DR, DUSON, LA, 70529","Match","Exact","209 STONEBURG DR, DUSON, LA, 70529",643271861,"R"
331062,"209 STONEDALE WAY","ANTIOCH","TN",37013,36.0478328450001,-86.615261392,62,"209 STONEDALE WAY, ANTIOCH, TN, 37013","Match","Exact","209 STONEDALE WAY, ANTIOCH, TN, 37013",97229370,"L"
331063,"209 STONEY BRANCH ROAD","NEW BERN","NC",28562,35.2207846750001,-77.166847269,63,"209 STONEY BRANCH ROAD, NEW BERN, NC, 28562","Match","Exact","209 STONEY BRANCH RD, NEW BERN, NC, 28562",34124650,"L"
331064,"209 STOWE WAY","SHARPSBURG","GA",30277,33.4573991180001,-84.6302671179999,64,"209 STOWE WAY, SHARPSBURG, GA, 30277","Match","Exact","209 STOWE WAY, SHARPSBURG, GA, 30277",627301311,"R"
331065,"209 STRONG DRIVE","COLLIERVILLE","TN",38017,35.061969306,-89.66891193,65,"209 STRONG DRIVE, COLLIERVILLE, TN, 38017","Match","Exact","209 STRONG DR, COLLIERVILLE, TN, 38017",72951323,"R"
331066,"209 SULKY CIRCLE","WILMINGTON","DE",19810,39.8303025800001,-75.529630798,66,"209 SULKY CIRCLE, WILMINGTON, DE, 19810","Match","Exact","209 SULKY CI, WILMINGTON, DE, 19810",605784702,"R"
331067,"209 SUNNY MEADE LANE","MADISON","WI",53713,43.0419924450001,-89.385802347,67,"209 SUNNY MEADE LANE, MADISON, WI, 53713","Match","Exact","209 SUNNY MEADE LN, MADISON, WI, 53713",49473604,"L"
331068,"209 SW 10TH AVENUE","CAPE CORAL","FL",33991,26.647860366,-81.994839375,68,"209 SW 10TH AVENUE, CAPE CORAL, FL, 33991","Match","Exact","209 SW 10TH AVE, CAPE CORAL, FL, 33991",118006332,"R"
331069,"209 SW 4TH ST","ANDREWS","TX",79714,32.316496731,-102.55095409,69,"209 SW 4TH ST, ANDREWS, TX, 79714","Match","Exact","209 SW 4TH ST, ANDREWS, TX, 79714",139077023,"R"
331070,"209 SW F STREET","BENTONVILLE","AR",72712,36.371249194,-94.216860017,70,"209 SW F STREET, BENTONVILLE, AR, 72712","Match","Exact","209 SW F ST, BENTONVILLE, AR, 72712",47832084,"L"
331071,"209 SW PLEASANT ST","ANKENY","IA",50023,41.73056919,-93.604561342,71,"209 SW PLEASANT ST, ANKENY, IA, 50023","Match","Exact","209 SW PLEASANT ST, ANKENY, IA, 50023",65778463,"L"
331072,"209 SWEET AVENUE","BUFFALO","NY",14212,42.8957530770001,-78.8335620409999,72,"209 SWEET AVENUE, BUFFALO, NY, 14212","Match","Exact","209 SWEET AVE, BUFFALO, NY, 14212",48300616,"R"
331073,"209 SWEETWATER LANDING DR","NORTH AUGUSTA","SC",29860,33.5945579990001,-81.952645779,73,"209 SWEETWATER LANDING DR, NORTH AUGUSTA, SC, 29860","Match","Non_Exact","209 SWEETWATER RD, NORTH AUGUSTA, SC, 29860",55839815,"L"
331074,"209 SYCAMORE FARM ROAD","MACON","NC",27551,36.4555599490001,-78.068639316,74,"209 SYCAMORE FARM ROAD, MACON, NC, 27551","Match","Exact","209 SYCAMORE FARM RD, MACON, NC, 27551",54110082,"R"
331075,"209 TAFT LANE","DEWEY","OK",74029,36.7812671680001,-95.942843513,75,"209 TAFT LANE, DEWEY, OK, 74029","Match","Non_Exact","209 S TAFT LN, DEWEY, OK, 74029",18705573,"R"
331076,"209 TAFT STREET SW","ATLANTA","GA",30315,33.7104771850001,-84.396077156,76,"209 TAFT STREET SW, ATLANTA, GA, 30315","Match","Exact","209 TAFT ST SW, ATLANTA, GA, 30315",17346731,"R"
331077,"209 TALISMAN DR  APT B","FOLSOM","CA",95630,38.680334268,-121.152704586,77,"209 TALISMAN DR  APT B, FOLSOM, CA, 95630","Match","Exact","209 TALISMAN DR, FOLSOM, CA, 95630",133358404,"L"
331078,"209 TAREYTON DR","ITHACA","NY",14850,42.4720329620001,-76.459773915,78,"209 TAREYTON DR, ITHACA, NY, 14850","Match","Exact","209 TAREYTON DR, ITHACA, NY, 14850",18858253,"R"
331079,"209 TAVISH TRAIL","LAKEWAY","TX",78738,30.352178543,-98.0109588129999,79,"209 TAVISH TRAIL, LAKEWAY, TX, 78738","Match","Exact","209 TAVISH TRL, LAKEWAY, TX, 78738",641936375,"R"
331080,"209 TAYLOR ST","PIEDMONT","AL",36272,33.9302035310001,-85.603341868,80,"209 TAYLOR ST, PIEDMONT, AL, 36272","Match","Exact","209 TAYLOR ST, PIEDMONT, AL, 36272",66531159,"L"
331081,"209 TEA PARTY TRL","DOVER","DE",19901,39.171980068,-75.502906445,81,"209 TEA PARTY TRL, DOVER, DE, 19901","Match","Exact","209 TEA PARTY TRL, DOVER, DE, 19901",639568465,"R"
331082,"209 THE COURTYARDS","WASHINGTON","NC",27889,NA,NA,82,"209 THE COURTYARDS, WASHINGTON, NC, 27889","No_Match",NA,NA,NA,NA
331083,"209 THORNWOOD DR","MISSION","TX",78574,26.2334002220001,-98.3205423649999,83,"209 THORNWOOD DR, MISSION, TX, 78574","Match","Exact","209 THORNWOOD DR, MISSION, TX, 78574",71552788,"L"
331084,"209 THREE TRACK MOUNTAIN RD","WARNERVILLE","NY",12187,42.637885452,-74.49970293,84,"209 THREE TRACK MOUNTAIN RD, WARNERVILLE, NY, 12187","Match","Exact","209 THREE TRACK MOUNTAIN RD, WARNERVILLE, NY, 12187",635893119,"L"
331085,"209 THREE TRACK MOUNTAIN ROAD","WARNERVILLE","NY",12187,42.637885452,-74.49970293,85,"209 THREE TRACK MOUNTAIN ROAD, WARNERVILLE, NY, 12187","Match","Exact","209 THREE TRACK MOUNTAIN RD, WARNERVILLE, NY, 12187",635893119,"L"
331086,"209 THUNDERBIRD TERRACE","STROUDSBURG","PA",18360,40.9993494670001,-75.408196565,86,"209 THUNDERBIRD TERRACE, STROUDSBURG, PA, 18360","Match","Exact","209 THUNDERBIRD TER, STROUDSBURG, PA, 18360",136764421,"L"
331087,"209 TIMBER LN","LA GRANGE PARK","IL",60526,41.843364852,-87.870799875,87,"209 TIMBER LN, LA GRANGE PARK, IL, 60526","Match","Exact","209 TIMBER LN, LA GRANGE PARK, IL, 60526",111875232,"L"
331088,"209 TIMBER PINES DRIVE","DEFIANCE","MO",63341,38.6849945660001,-90.827419961,88,"209 TIMBER PINES DRIVE, DEFIANCE, MO, 63341","Match","Exact","209 TIMBER PINES DR, DEFIANCE, MO, 63341",100066618,"R"
331089,"209 TIMBERWOOD DRIVE","FORT COLLINS","CO",80525,NA,NA,89,"209 TIMBERWOOD DRIVE, FORT COLLINS, CO, 80525","No_Match",NA,NA,NA,NA
331090,"209 TINDER BOX LN","MARLTON","NJ",8053,39.9020523550001,-74.9433387239999,90,"209 TINDER BOX LN, MARLTON, NJ, 8053","Match","Exact","209 TINDER BOX LN, MARLTON, NJ, 08053",134036424,"L"
331091,"209 TONER ST","KEWANNA","IN",46939,NA,NA,91,"209 TONER ST, KEWANNA, IN, 46939","Tie",NA,NA,NA,NA
331092,"209 TOPEKA COURT","STOCKBRIDGE","GA",30281,33.543885129,-84.1428389499999,92,"209 TOPEKA COURT, STOCKBRIDGE, GA, 30281","Match","Exact","209 TOPEKA CT, STOCKBRIDGE, GA, 30281",619916595,"R"
331093,"209 TRAILSIDE LANE","LEXINGTON","SC",30269,34.0082829950001,-81.3186277679999,93,"209 TRAILSIDE LANE, LEXINGTON, SC, 30269","Match","Non_Exact","209 TRAILSIDE LN, LEXINGTON, SC, 29072",645305531,"L"
331094,"209 TRAILVIEW DR","CARY","NC",27513,35.7783414150001,-78.840033923,94,"209 TRAILVIEW DR, CARY, NC, 27513","Match","Exact","209 TRAILVIEW DR, CARY, NC, 27513",72590030,"L"
331095,"209 TROJAN TERRACE","HOT SPRINGS","AR",71913,34.471803188,-93.071237407,95,"209 TROJAN TERRACE, HOT SPRINGS, AR, 71913","Match","Exact","209 TROJAN TER, HOT SPRINGS, AR, 71913",22735682,"R"
331096,"209 TRYON PLACE","PARAMUS","NJ",7652,40.9618242780001,-74.062513338,96,"209 TRYON PLACE, PARAMUS, NJ, 7652","Match","Exact","209 TRYON PL, PARAMUS, NJ, 07652",64378086,"L"
331097,"209 TURKEY MTN RD","EL PASO","AR",72045,NA,NA,97,"209 TURKEY MTN RD, EL PASO, AR, 72045","No_Match",NA,NA,NA,NA
331098,"209 TURNBERRY DRIVE","THORNDALE","PA",19372,39.996481788,-75.76724863,98,"209 TURNBERRY DRIVE, THORNDALE, PA, 19372","Match","Exact","209 TURNBERRY DR, THORNDALE, PA, 19372",636456550,"R"
331099,"209 TURNSTONE ROAD","STOCKBRIDGE","GA",30281,33.505987985,-84.248019187,99,"209 TURNSTONE ROAD, STOCKBRIDGE, GA, 30281","Match","Exact","209 TURNSTONE RD, STOCKBRIDGE, GA, 30281",629879233,"R"
331100,"209 TWP ROAD 1185","IRONTON","OH",45638,38.5360699500001,-82.6548706139999,100,"209 TWP ROAD 1185, IRONTON, OH, 45638","Match","Exact","209 TWP RD 1185, IRONTON, OH, 45638",55010335,"L"
331101,"209 TYSON DR","FALLS CHURCH","VA",22046,38.8795424900001,-77.161322562,101,"209 TYSON DR, FALLS CHURCH, VA, 22046","Match","Exact","209 TYSON DR, FALLS CHURCH, VA, 22046",624917796,"L"
331102,"209 UNDERHILL AVE 5-D","BROOKLYN","NY",11236,40.675054301,-73.966694311,102,"209 UNDERHILL AVE 5-D, BROOKLYN, NY, 11236","Match","Non_Exact","209 UNDERHILL AVE, BROOKLYN, NY, 11238",59078413,"L"
331103,"209 UNDERHILL AVE","BROOKLYN","NY",11236,40.675054301,-73.966694311,103,"209 UNDERHILL AVE, BROOKLYN, NY, 11236","Match","Non_Exact","209 UNDERHILL AVE, BROOKLYN, NY, 11238",59078413,"L"
331104,"209 UNION JACK CIRCLE","BIRMINGHAM","AL",35214,33.5382124500001,-86.88886633,104,"209 UNION JACK CIRCLE, BIRMINGHAM, AL, 35214","Match","Exact","209 UNION JACK CIR, BIRMINGHAM, AL, 35214",81550955,"R"
331105,"209 UNIT STREET","PROVIDENCE","RI",2909,41.830838424,-71.454596013,105,"209 UNIT STREET, PROVIDENCE, RI, 2909","Match","Exact","209 UNIT ST, PROVIDENCE, RI, 02909",47459189,"R"
331106,"209 VARNERS HOLLOW RD","BERWICK","PA",18603,41.0923673520001,-76.2068260839999,106,"209 VARNERS HOLLOW RD, BERWICK, PA, 18603","Match","Exact","209 VARNERS HOLLOW RD, BERWICK, PA, 18603",639937317,"R"
331107,"209 VARSITY DRIVE","ORTONVILLE","MI",48462,42.8451636880001,-83.4478792,107,"209 VARSITY DRIVE, ORTONVILLE, MI, 48462","Match","Exact","209 VARSITY DR, ORTONVILLE, MI, 48462",69813226,"L"
331108,"209 VERNON STREET","ROSEVILLE","CA",95678,38.74976567,-121.283006491,108,"209 VERNON STREET, ROSEVILLE, CA, 95678","Match","Exact","209 VERNON ST, ROSEVILLE, CA, 95678",624909293,"L"
331109,"209 VIA COLORIN","PALOS VERDES ESTATES","CA",90274,33.8015423480001,-118.360719827,109,"209 VIA COLORIN, PALOS VERDES ESTATES, CA, 90274","Match","Exact","209 VIA COLORIN, PALOS VERDES ESTATES, CA, 90274",141665462,"R"
331110,"209 VINE STREET","MITCHELLVILLE","AR",71639,33.9047991,-91.4990265709999,110,"209 VINE STREET, MITCHELLVILLE, AR, 71639","Match","Non_Exact","209 VINE ST, DUMAS, AR, 71639",25894346,"L"
331111,"209 VINEYARD DRIVE","SAN JOSE","CA",95119,37.230266822,-121.784027114,111,"209 VINEYARD DRIVE, SAN JOSE, CA, 95119","Match","Exact","209 VINEYARD DR, SAN JOSE, CA, 95119",122999880,"R"
331112,"209 VIOLET DRIVE","ROMEOVILLE","IL",60446,41.6162591360001,-88.1336400229999,112,"209 VIOLET DRIVE, ROMEOVILLE, IL, 60446","Match","Exact","209 VIOLET DR, ROMEOVILLE, IL, 60446",111614289,"R"
331113,"209 W  DUNCANNON ST","PHILADELPHIA","PA",19120,40.0297144580001,-75.127030352,113,"209 W  DUNCANNON ST, PHILADELPHIA, PA, 19120","Match","Non_Exact","209 W DUNCANNON AVE, PHILADELPHIA, PA, 19120",131419538,"R"
331114,"209 W 14TH STREET","CLAY CITY","IN",47841,39.270469113,-87.11443696,114,"209 W 14TH STREET, CLAY CITY, IN, 47841","Match","Exact","209 W 14TH ST, CLAY CITY, IN, 47841",41754902,"L"
331115,"209 W 1ST STREET","SUMNER","IA",50674,NA,NA,115,"209 W 1ST STREET, SUMNER, IA, 50674","Tie",NA,NA,NA,NA
331116,"209 W 2ND ST STE 321","FORT WORTH","TX",76102,NA,NA,116,"209 W 2ND ST STE 321, FORT WORTH, TX, 76102","Tie",NA,NA,NA,NA
331117,"209 W 2ND ST STE 368","FORT WORTH","TX",76102,NA,NA,117,"209 W 2ND ST STE 368, FORT WORTH, TX, 76102","Tie",NA,NA,NA,NA
331118,"209 W 2ND ST SUITE 321","FO","TX",76102,NA,NA,118,"209 W 2ND ST SUITE 321, FO, TX, 76102","Tie",NA,NA,NA,NA
331119,"209 W 2ND ST SUITE 321","FORT WORTH","TX",76102,NA,NA,119,"209 W 2ND ST SUITE 321, FORT WORTH, TX, 76102","Tie",NA,NA,NA,NA
331120,"209 W 3RD AVE","COLUMBUS","OH",43201,39.983619785,-83.010713561,120,"209 W 3RD AVE, COLUMBUS, OH, 43201","Match","Exact","209 W 3RD AVE, COLUMBUS, OH, 43201",135575284,"L"
331121,"209 W 4TH","SEDGWICK","KS",67135,NA,NA,121,"209 W 4TH, SEDGWICK, KS, 67135","No_Match",NA,NA,NA,NA
331122,"209 W 7TH ST","HARTFORD","SD",57033,43.6292472370001,-96.94882452,122,"209 W 7TH ST, HARTFORD, SD, 57033","Match","Exact","209 W 7TH ST, HARTFORD, SD, 57033",34963612,"R"
331123,"209 W 8TH PLACE","HOBART","IN",46342,NA,NA,123,"209 W 8TH PLACE, HOBART, IN, 46342","No_Match",NA,NA,NA,NA
331124,"209 W ALICANTE ROAD","SANTA FE","NM",87505,35.665460007,-105.946433825,124,"209 W ALICANTE ROAD, SANTA FE, NM, 87505","Match","Exact","209 W ALICANTE RD, SANTA FE, NM, 87505",169378750,"R"
331125,"209 W BEAUREGARD","SAN ANGELO","TX",76903,31.4613334540001,-100.440624712,125,"209 W BEAUREGARD, SAN ANGELO, TX, 76903","Match","Non_Exact","209 W BEAUREGARD AVE, SAN ANGELO, TX, 76903",190682825,"L"
331126,"209 W BRIER CIRCLE","FRESNO","CA",93711,36.8611239430001,-119.794522702,126,"209 W BRIER CIRCLE, FRESNO, CA, 93711","Match","Exact","209 W BRIER CIR, FRESNO, CA, 93711",197643049,"R"
331127,"209 W CANNON ST","LAFAYETTE","CO",80026,39.996248226,-105.091933289,127,"209 W CANNON ST, LAFAYETTE, CO, 80026","Match","Exact","209 W CANNON ST, LAFAYETTE, CO, 80026",188167022,"R"
331128,"209 W CENTRAL ST","SPRINGFIELD","MN",56987,44.2389331000001,-94.9793206159999,128,"209 W CENTRAL ST, SPRINGFIELD, MN, 56987","Match","Non_Exact","209 W CENTRAL ST, SPRINGFIELD, MN, 56087",28570281,"L"
331129,"209 W CRITTENDEN ST","HOMER","IL",61849,40.0314629320001,-87.95955701,129,"209 W CRITTENDEN ST, HOMER, IL, 61849","Match","Exact","209 W CRITTENDEN ST, HOMER, IL, 61849",8802260,"L"
331130,"209 W D ST","NEWTON","NC",28658,35.6607270390001,-81.2257558909999,130,"209 W D ST, NEWTON, NC, 28658","Match","Exact","209 W D ST, NEWTON, NC, 28658",45909830,"L"
331131,"209 W FOURTH ST","VAN WERT","OH",45891,40.87596038,-84.584568711,131,"209 W FOURTH ST, VAN WERT, OH, 45891","Match","Exact","209 4TH ST, VAN WERT, OH, 45891",6743169,"R"
331132,"209 W FRANKLIN AVE","MYERSTOWN","PA",17067,40.3813881610001,-76.311934886,132,"209 W FRANKLIN AVE, MYERSTOWN, PA, 17067","Match","Exact","209 W FRANKLIN AVE, MYERSTOWN, PA, 17067",80670070,"L"
331133,"209 W G AVE","NORTH LITTLE ROCK","AR",72116,34.7891701670001,-92.261818783,133,"209 W G AVE, NORTH LITTLE ROCK, AR, 72116","Match","Exact","209 W G AVE, N LITTLE ROCK, AR, 72116",83568744,"R"
331134,"209 W GARFIELD","GETTYSBURG","SD",57442,45.0135542450001,-99.9573478569999,134,"209 W GARFIELD, GETTYSBURG, SD, 57442","Match","Non_Exact","209 W GARFIELD AVE, GETTYSBURG, SD, 57442",198465606,"R"
331135,"209 W INDIANA AVE","URBANA","IL",61801,40.1028555460001,-88.209825193,135,"209 W INDIANA AVE, URBANA, IL, 61801","Match","Exact","209 INDIANA AVE, URBANA, IL, 61801",8813306,"L"
331136,"209 W LILY STREET","HARTFORD","AL",36344,NA,NA,136,"209 W LILY STREET, HARTFORD, AL, 36344","No_Match",NA,NA,NA,NA
331137,"209 W MADISON ST","GIRARD","IL",62640,39.4454382700001,-89.779386205,137,"209 W MADISON ST, GIRARD, IL, 62640","Match","Exact","209 W MADISON ST, GIRARD, IL, 62640",628706998,"L"
331138,"209 W MAIN ST STE 107","GRAND PRAIRIE","TX",75050,NA,NA,138,"209 W MAIN ST STE 107, GRAND PRAIRIE, TX, 75050","Tie",NA,NA,NA,NA
331139,"209 W MAIN ST","ADA","OK",74820,34.774504694,-96.676726539,139,"209 W MAIN ST, ADA, OK, 74820","Match","Non_Exact","209 E MAIN ST, ADA, OK, 74820",58486603,"L"
331140,"209 W MAIN ST","BOISE","ID",83702,NA,NA,140,"209 W MAIN ST, BOISE, ID, 83702","Tie",NA,NA,NA,NA
331141,"209 W MAIN ST","FINCASTLE","VA",24090,37.4986190650001,-79.880842571,141,"209 W MAIN ST, FINCASTLE, VA, 24090","Match","Exact","209 W MAIN ST, FINCASTLE, VA, 24090",62464838,"L"
331142,"209 W MAIN ST","PRINCETON","KY",42445,37.109302149,-87.883516722,142,"209 W MAIN ST, PRINCETON, KY, 42445","Match","Exact","209 W MAIN ST, PRINCETON, KY, 42445",10647008,"L"
331143,"209 W MAPLE","TUTTLE","OK",73089,35.2887420600001,-97.814856508,143,"209 W MAPLE, TUTTLE, OK, 73089","Match","Non_Exact","209 W MAPLE ST, TUTTLE, OK, 73089",15221805,"R"
331144,"209 W MARTIN","COFFEYVILLE","KS",67337,37.0454913510001,-95.617494032,144,"209 W MARTIN, COFFEYVILLE, KS, 67337","Match","Non_Exact","209 W MARTIN ST, COFFEYVILLE, KS, 67337",13790440,"L"
331145,"209 W MCKINLEY","SAPULPA","OK",74066,35.9940382290001,-96.116962286,145,"209 W MCKINLEY, SAPULPA, OK, 74066","Match","Non_Exact","209 W MCKINLEY AVE, SAPULPA, OK, 74066",165898832,"L"
331146,"209 W MECHANIC ST","FROSTBURG","MD",21532,39.6614151590001,-78.933298571,146,"209 W MECHANIC ST, FROSTBURG, MD, 21532","Match","Exact","209 W MECHANIC ST, FROSTBURG, MD, 21532",123309216,"R"
331147,"209 W MORRISON STREET","FAYETTE","MO",65248,39.1452099150001,-92.68476462,147,"209 W MORRISON STREET, FAYETTE, MO, 65248","Match","Exact","209 W MORRISON ST, FAYETTE, MO, 65248",23106623,"R"
331148,"209 W ORCHARD","MILWAUKEE","WI",53215,NA,NA,148,"209 W ORCHARD, MILWAUKEE, WI, 53215","No_Match",NA,NA,NA,NA
331149,"209 W SANDSTONE","LLANO","TX",78643,30.7492685930001,-98.677302995,149,"209 W SANDSTONE, LLANO, TX, 78643","Match","Non_Exact","209 W SANDSTONE ST, LLANO, TX, 78643",182243988,"R"
331150,"209 W TAFT ST","STOUGHTON","WI",53589,42.922422404,-89.222251448,150,"209 W TAFT ST, STOUGHTON, WI, 53589","Match","Exact","209 W TAFT ST, STOUGHTON, WI, 53589",49481654,"L"
331151,"209 W TRISH KNIGHT ST","WEST PLAINS","MO",65775,36.729661435,-91.853813198,151,"209 W TRISH KNIGHT ST, WEST PLAINS, MO, 65775","Match","Exact","209 W TRISH KNIGHT ST, WEST PLAINS, MO, 65775",33313741,"R"
331152,"209 W WASHINGTON AVE UPPER","ROSLYN","WA",98941,NA,NA,152,"209 W WASHINGTON AVE UPPER, ROSLYN, WA, 98941","Tie",NA,NA,NA,NA
331153,"209 W WATAUGA AVE","DUNN","NC",28334,NA,NA,153,"209 W WATAUGA AVE, DUNN, NC, 28334","Tie",NA,NA,NA,NA
331154,"209 W224 HIGHWAY","WELLINGTON","MO",64067,NA,NA,154,"209 W224 HIGHWAY, WELLINGTON, MO, 64067","No_Match",NA,NA,NA,NA
331155,"209 W224 HIGHWAY","WELLINGTON","MO",64097,NA,NA,155,"209 W224 HIGHWAY, WELLINGTON, MO, 64097","No_Match",NA,NA,NA,NA
331156,"209 WAGNER ST","WATER VALLEY","MS",38965,34.1520948610001,-89.632864346,156,"209 WAGNER ST, WATER VALLEY, MS, 38965","Match","Exact","209 WAGNER ST, WATER VALLEY, MS, 38965",610250298,"L"
331157,"209 WALCOTT WAY","CARY","NC",27519,35.810705478,-78.8578474399999,157,"209 WALCOTT WAY, CARY, NC, 27519","Match","Exact","209 WALCOTT WAY, CARY, NC, 27519",72614930,"L"
331158,"209 WALKER HOLLOW ROAD","FLINTSTONE","GA",30725,34.8840961330001,-85.350532643,158,"209 WALKER HOLLOW ROAD, FLINTSTONE, GA, 30725","Match","Exact","209 WALKER HOLLOW RD, FLINTSTONE, GA, 30725",637419706,"L"
331159,"209 WALNUT STREET","NEWPORT","AR",72112,35.6052977620001,-91.2826334869999,159,"209 WALNUT STREET, NEWPORT, AR, 72112","Match","Exact","209 WALNUT ST, NEWPORT, AR, 72112",69426130,"L"
331160,"209 WALNUT STREET","NUTLEY","NJ",7110,40.8163806410001,-74.145078513,160,"209 WALNUT STREET, NUTLEY, NJ, 7110","Match","Exact","209 WALNUT ST, NUTLEY, NJ, 07110",635757741,"L"
331161,"209 WASHINGTON AVE","CHATHAM","NJ",7928,40.7302061010001,-74.395715119,161,"209 WASHINGTON AVE, CHATHAM, NJ, 7928","Match","Exact","209 WASHINGTON AVE, CHATHAM, NJ, 07928",60450311,"L"
331162,"209 WASHINGTON AVENUE","CHESTERTOWN","MD",21620,39.2139798320001,-76.0663245389999,162,"209 WASHINGTON AVENUE, CHESTERTOWN, MD, 21620","Match","Exact","209 WASHINGTON AVE, CHESTERTOWN, MD, 21620",647797277,"R"
331163,"209 WASHINGTON AVENUE","MELLEN","WI",54546,46.322191683,-90.662208037,163,"209 WASHINGTON AVENUE, MELLEN, WI, 54546","Match","Exact","209 WASHINGTON AVE, MELLEN, WI, 54546",165360487,"R"
331164,"209 WASHINGTON ROAD","BARRINGTON","RI",2806,41.7466078460001,-71.341413448,164,"209 WASHINGTON ROAD, BARRINGTON, RI, 2806","Match","Exact","209 WASHINGTON RD, BARRINGTON, RI, 02806",46478998,"R"
331165,"209 WASHINGTON STREET","BLOOMFIELD","NJ",7003,40.793008227,-74.205165082,165,"209 WASHINGTON STREET, BLOOMFIELD, NJ, 7003","Match","Exact","209 WASHINGTON ST, BLOOMFIELD, NJ, 07003",643202810,"R"
331166,"209 WASHINGTON STREET","MARIETTA","OH",45750,39.4217374400001,-81.4599635069999,166,"209 WASHINGTON STREET, MARIETTA, OH, 45750","Match","Exact","209 WASHINGTON ST, MARIETTA, OH, 45750",623978971,"L"
331167,"209 WATER ST","CHARDON","OH",44024,41.580935965,-81.2058076549999,167,"209 WATER ST, CHARDON, OH, 44024","Match","Exact","209 WATER ST, CHARDON, OH, 44024",137434427,"R"
331168,"209 WB MCLEAN DR","CAPE CARTERET","NC",28584,NA,NA,168,"209 WB MCLEAN DR, CAPE CARTERET, NC, 28584","No_Match",NA,NA,NA,NA
331169,"209 WENDY DR","WHITEHOUSE","TX",75791,32.228904786,-95.251994941,169,"209 WENDY DR, WHITEHOUSE, TX, 75791","Match","Exact","209 WENDY DR, WHITEHOUSE, TX, 75791",141289674,"R"
331170,"209 WENNER ST","WELLINGTON","OH",44090,41.17138599,-82.224410479,170,"209 WENNER ST, WELLINGTON, OH, 44090","Match","Exact","209 WENNER ST, WELLINGTON, OH, 44090",55423703,"R"
331171,"209 WEST 118TH STREET","NEW YORK","NY",10026,40.804629318,-73.951799524,171,"209 WEST 118TH STREET, NEW YORK, NY, 10026","Match","Exact","209 W 118TH ST, NEW YORK, NY, 10026",59657682,"R"
331172,"209 WEST 15TH AVE","ALTOONA","PA",16601,40.535782119,-78.398046939,172,"209 WEST 15TH AVE, ALTOONA, PA, 16601","Match","Exact","209 W 15TH AVE, ALTOONA, PA, 16601",49734425,"R"
331173,"209 WEST 1ST HIGH ST","CENTRAL CITY","CO",80427,39.802124303,-105.51391932,173,"209 WEST 1ST HIGH ST, CENTRAL CITY, CO, 80427","Match","Exact","209 W 1ST HIGH ST, CENTRAL CITY, CO, 80427",186480995,"R"
331174,"209 WEST 1ST ST","OSHKOSH","NE",69154,41.403504474,-102.345679888,174,"209 WEST 1ST ST, OSHKOSH, NE, 69154","Match","Exact","209 W 1ST ST, OSHKOSH, NE, 69154",136550007,"R"
331175,"209 WEST 21ST STREET","WILMINGTON","DE",19802,39.754284157,-75.5422893269999,175,"209 WEST 21ST STREET, WILMINGTON, DE, 19802","Match","Exact","209 W 21ST ST, WILMINGTON, DE, 19802",187258839,"R"
331176,"209 WEST 2ND ST 337","FORT WORTH","TX",76102,32.7553299740001,-97.332894749,176,"209 WEST 2ND ST 337, FORT WORTH, TX, 76102","Match","Exact","209 W 2ND ST, FORT WORTH, TX, 76102",101884693,"L"
331177,"209 WEST 2ND STREET BOX 190","FORT WORTH","TX",76102,32.7553299740001,-97.332894749,177,"209 WEST 2ND STREET BOX 190, FORT WORTH, TX, 76102","Match","Exact","209 W 2ND ST, FORT WORTH, TX, 76102",101884693,"L"
331178,"209 WEST 3RD ST","LAMONI","IA",50140,40.621676656,-93.934577974,178,"209 WEST 3RD ST, LAMONI, IA, 50140","Match","Exact","209 W 3RD ST, LAMONI, IA, 50140",75267118,"R"
331179,"209 WEST 5TH STREET","BOSTON","MA",2127,42.336398145,-71.050726873,179,"209 WEST 5TH STREET, BOSTON, MA, 2127","Match","Exact","209 W 5TH ST, BOSTON, MA, 02127",85712703,"R"
331180,"209 WEST 6 TH","KENNETT","MO",63857,36.231978231,-90.0577228179999,180,"209 WEST 6 TH, KENNETT, MO, 63857","Match","Non_Exact","209 W 6TH ST, KENNETT, MO, 63857",38799934,"R"
331181,"209 WEST 6TH STREET","KENNETT","MO",63857,36.231978231,-90.0577228179999,181,"209 WEST 6TH STREET, KENNETT, MO, 63857","Match","Exact","209 W 6TH ST, KENNETT, MO, 63857",38799934,"R"
331182,"209 WEST ASH ST","COBDEN","IL",62920,NA,NA,182,"209 WEST ASH ST, COBDEN, IL, 62920","Tie",NA,NA,NA,NA
331183,"209 WEST BAYVIEW AVE","PLEASANTVILLE","NJ",8232,39.388258869,-74.531251454,183,"209 WEST BAYVIEW AVE, PLEASANTVILLE, NJ, 8232","Match","Exact","209 W BAYVIEW AVE, PLEASANTVILLE, NJ, 08232",635295681,"L"
331184,"209 WEST CHURCH STREET","BENSON","NC",27504,35.3833102400001,-78.549061213,184,"209 WEST CHURCH STREET, BENSON, NC, 27504","Match","Exact","209 W CHURCH ST, BENSON, NC, 27504",26527792,"L"
331185,"209 WEST CORNELL","SAGINAW","MI",48604,43.477244431,-83.9181823979999,185,"209 WEST CORNELL, SAGINAW, MI, 48604","Match","Non_Exact","209 W CORNELL ST, SAGINAW, MI, 48604",80210233,"L"
331186,"209 WEST FOURTH ST","SUMNER","IA",50674,42.8503176850001,-92.099177223,186,"209 WEST FOURTH ST, SUMNER, IA, 50674","Match","Exact","209 W 4TH ST, SUMNER, IA, 50674",77344665,"L"
331187,"209 WEST GROCHELL","EAST HELENA","MT",59635,NA,NA,187,"209 WEST GROCHELL, EAST HELENA, MT, 59635","No_Match",NA,NA,NA,NA
331188,"209 WEST HARDAWAY AVENUE","UNION SPRINGS","AL",36089,32.1445303730001,-85.7194876029999,188,"209 WEST HARDAWAY AVENUE, UNION SPRINGS, AL, 36089","Match","Non_Exact","209 HARDAWAY AVE, UNION SPRINGS, AL, 36089",68999351,"L"
331189,"209 WEST HARDIN","PINE BLUFF","AR",71601,NA,NA,189,"209 WEST HARDIN, PINE BLUFF, AR, 71601","No_Match",NA,NA,NA,NA
331190,"209 WEST HARDING STREET","PINE BLUFF","AR",71601,34.2127360800001,-92.004963291,190,"209 WEST HARDING STREET, PINE BLUFF, AR, 71601","Match","Non_Exact","209 W HARDING AVE, PINE BLUFF, AR, 71601",2552081,"R"
331191,"209 WEST MAIN STREET","DANVILLE","KY",40422,37.6457775110001,-84.771694214,191,"209 WEST MAIN STREET, DANVILLE, KY, 40422","Match","Exact","209 W MAIN ST, DANVILLE, KY, 40422",32479043,"R"
331192,"209 WEST MAIN STREET","WESTFIELD","IN",46074,40.042727219,-86.129818811,192,"209 WEST MAIN STREET, WESTFIELD, IN, 46074","Match","Exact","209 W MAIN ST, WESTFIELD, IN, 46074",650440034,"R"
331193,"209 WEST SHERMAN AVE","EDISON","NJ",8820,40.6016397560001,-74.3417519289999,193,"209 WEST SHERMAN AVE, EDISON, NJ, 8820","Match","Exact","209 W SHERMAN AVE, EDISON, NJ, 08820",60331355,"L"
331194,"209 WEST STREET","NORTH ATTLEBORO","MA",2760,41.99276038,-71.340024131,194,"209 WEST STREET, NORTH ATTLEBORO, MA, 2760","Match","Exact","209 WEST ST, NORTH ATTLEBORO, MA, 02760",46744919,"L"
331195,"209 WEST SYLVESTER AVE","CHRISTOPHER","IL",62822,37.975307937,-89.054876984,195,"209 WEST SYLVESTER AVE, CHRISTOPHER, IL, 62822","Match","Exact","209 W SYLVESTER AVE, CHRISTOPHER, IL, 62822",92934090,"R"
331196,"209 WEST WHITEMAN STREET","YELLOW SPRINGS","OH",45387,39.8022440760001,-83.8941459179999,196,"209 WEST WHITEMAN STREET, YELLOW SPRINGS, OH, 45387","Match","Exact","209 W WHITEMAN ST, YELLOW SPGS, OH, 45387",143410704,"R"
331197,"209 WESTCHESTER AVE","HUNTSVILLE","AL",35801,34.7030902010001,-86.570865371,197,"209 WESTCHESTER AVE, HUNTSVILLE, AL, 35801","Match","Non_Exact","209 WESTCHESTER AVE SW, HUNTSVILLE, AL, 35801",58121105,"L"
331198,"209 WESTWOOD DR","TALLAHASSEE","FL",32304,30.4626188940001,-84.320611017,198,"209 WESTWOOD DR, TALLAHASSEE, FL, 32304","Match","Exact","209 WESTWOOD DR, TALLAHASSEE, FL, 32304",618798672,"L"
331199,"209 WEYLAND LANE","GRAND PRAIRIE","TX",75052,32.6566761120001,-97.009101313,199,"209 WEYLAND LANE, GRAND PRAIRIE, TX, 75052","Match","Exact","209 WEYLAND LN, GRAND PRAIRIE, TX, 75052",102981442,"R"
331200,"209 WHISPERING WINDS DRIVE","LEXINGTON","SC",29072,33.9757046660001,-81.2135800139999,200,"209 WHISPERING WINDS DRIVE, LEXINGTON, SC, 29072","Match","Exact","209 WHISPERING WINDS DR, LEXINGTON, SC, 29072",70071494,"L"
331201,"209 WHITE HAWK","VENORE","TN",37885,35.619976362,-84.260164284,201,"209 WHITE HAWK, VENORE, TN, 37885","Match","Non_Exact","209 WHITE HAWK DR, VONORE, TN, 37885",612110370,"R"
331202,"209 WHITE OAK DRIVE","SLIPPERY ROCK","PA",16057,41.0797750180001,-80.06239999,202,"209 WHITE OAK DRIVE, SLIPPERY ROCK, PA, 16057","Match","Exact","209 WHITE OAK DR, SLIPPERY ROCK, PA, 16057",646947634,"L"
331203,"209 WHITE ROCK","CIBOLO","TX",78108,29.595370044,-98.243858333,203,"209 WHITE ROCK, CIBOLO, TX, 78108","Match","Exact","209 WHITE ROCK, CIBOLO, TX, 78108",647085462,"R"
331204,"209 WHITEDEER","PRUDENVILLE","MI",48624,NA,NA,204,"209 WHITEDEER, PRUDENVILLE, MI, 48624","No_Match",NA,NA,NA,NA
331205,"209 WHITEHALL AVE","GEORGETOWN","SC",29440,33.3062346,-79.2998608899999,205,"209 WHITEHALL AVE, GEORGETOWN, SC, 29440","Match","Exact","209 WHITEHALL AVE, GEORGETOWN, SC, 29440",29004252,"R"
331206,"209 WILBUR ST","ENGLEWOOD","NJ",7631,40.895059416,-73.98485217,206,"209 WILBUR ST, ENGLEWOOD, NJ, 7631","Match","Exact","209 WILBUR ST, ENGLEWOOD, NJ, 07631",64373010,"R"
331207,"209 WILD ROSE ROAD","WILLISTON","SC",29853,33.4322612510001,-81.4482167209999,207,"209 WILD ROSE ROAD, WILLISTON, SC, 29853","Match","Exact","209 WILD ROSE RD, WILLISTON, SC, 29853",19083460,"R"
331208,"209 WILDERNESS ROAD","CAVE CITY","KY",42127,37.1432105050001,-86.034679039,208,"209 WILDERNESS ROAD, CAVE CITY, KY, 42127","Match","Non_Exact","209 WILDERNESS TRL, CAVE CITY, KY, 42127",29520504,"R"
331209,"209 WILKES ST","LAGRANGE","GA",30241,33.0315221760001,-85.036977431,209,"209 WILKES ST, LAGRANGE, GA, 30241","Match","Non_Exact","209 WILKES ST, LAGRANGE, GA, 30240",1775072,"L"
331210,"209 WILLIAM DUFFIE ROAD","COLUMBIA","SC",29203,34.1257449070001,-81.0000220009999,210,"209 WILLIAM DUFFIE ROAD, COLUMBIA, SC, 29203","Match","Exact","209 WILLIAM DUFFIE RD, COLUMBIA, SC, 29203",71837725,"R"
331211,"209 WILLOW CRST","CIBOLO","TX",78108,29.600079479,-98.2531367019999,211,"209 WILLOW CRST, CIBOLO, TX, 78108","Match","Exact","209 WILLOW CRST, CIBOLO, TX, 78108",629682215,"L"
331212,"209 WILLOW LANE","THERESA","WI",53091,43.52158666,-88.4547547069999,212,"209 WILLOW LANE, THERESA, WI, 53091","Match","Exact","209 WILLOW LN, THERESA, WI, 53091",635656664,"L"
331213,"209 WINDMILL ST","PROVIDENCE","RI",2904,41.859517618,-71.417696575,213,"209 WINDMILL ST, PROVIDENCE, RI, 2904","Match","Exact","209 WINDMILL ST, PROVIDENCE, RI, 02904",645437056,"R"
331214,"209 WINDSOR WAY","CENTRAL POINT","OR",97502,42.383304982,-122.922223888,214,"209 WINDSOR WAY, CENTRAL POINT, OR, 97502","Match","Exact","209 WINDSOR WAY, CENTRAL POINT, OR, 97502",155562285,"R"
331215,"209 WOLFE AVENUE","COLORADO SPRINGS","CO",80905,38.804599045,-104.842869576,215,"209 WOLFE AVENUE, COLORADO SPRINGS, CO, 80905","Match","Exact","209 WOLFE AVE, COLORADO SPRINGS, CO, 80905",105562139,"R"
331216,"209 WOODCOCK DR","GIRARD","PA",16417,42.0064885790001,-80.31088879,216,"209 WOODCOCK DR, GIRARD, PA, 16417","Match","Exact","209 WOODCOCK DR, GIRARD, PA, 16417",117505270,"R"
331217,"209 WOODGROVE DR","MADISON","AL",35758,NA,NA,217,"209 WOODGROVE DR, MADISON, AL, 35758","No_Match",NA,NA,NA,NA
331218,"209 WOODHILL RD","DANVILLE","PA",17821,NA,NA,218,"209 WOODHILL RD, DANVILLE, PA, 17821","No_Match",NA,NA,NA,NA
331219,"209 WOODLAND AVENUE","WILLARD","OH",44890,41.0582739770001,-82.728797766,219,"209 WOODLAND AVENUE, WILLARD, OH, 44890","Match","Exact","209 WOODLAND AVE, WILLARD, OH, 44890",12602674,"L"
331220,"209 WOODRIDGE BLVD","MANDEVILLE","LA",70471,30.4023808950001,-90.121095971,220,"209 WOODRIDGE BLVD, MANDEVILLE, LA, 70471","Match","Exact","209 WOODRIDGE BLVD, MANDEVILLE, LA, 70471",639184311,"R"
331221,"209 WOODROW CENTER","KINGSBURY","TX",78638,29.6701561450001,-97.783609513,221,"209 WOODROW CENTER, KINGSBURY, TX, 78638","Match","Non_Exact","209 WOODROW CENTER RD, KINGSBURY, TX, 78638",54821170,"R"
331222,"209 WOODSCAPE DRIVE","ALBANY","NY",12203,42.673746656,-73.8374601099999,222,"209 WOODSCAPE DRIVE, ALBANY, NY, 12203","Match","Exact","209 WOODSCAPE DR, ALBANY, NY, 12203",18324516,"R"
331223,"209 WOODSTOCK LN","CRANSTON","RI",2920,41.770566091,-71.4608397979999,223,"209 WOODSTOCK LN, CRANSTON, RI, 2920","Match","Exact","209 WOODSTOCK LN, CRANSTON, RI, 02920",47470683,"R"
331224,"209 WOODVALE STREET","HOUSTON","TX",77012,29.7248062570001,-95.287472935,224,"209 WOODVALE STREET, HOUSTON, TX, 77012","Match","Exact","209 WOODVALE ST, HOUSTON, TX, 77012",96083637,"L"
331225,"209 WORTH STREET","CORRY","PA",16407,41.9216635980001,-79.6514831599999,225,"209 WORTH STREET, CORRY, PA, 16407","Match","Exact","209 WORTH ST, CORRY, PA, 16407",117484816,"L"
331226,"209 WYATT DRIVE","GOLDSBORO","NC",27534,35.4202534520001,-77.889495648,226,"209 WYATT DRIVE, GOLDSBORO, NC, 27534","Match","Exact","209 WYATT DR, GOLDSBORO, NC, 27534",14414068,"L"
331227,"209 YARNALL STREET","CHESTER","PA",19013,39.8353610200001,-75.3816946809999,227,"209 YARNALL STREET, CHESTER, PA, 19013","Match","Exact","209 YARNALL ST, CHESTER, PA, 19013",134890135,"R"
331228,"209 YORK STREET","BROOKLYN","NY",11201,40.7013520620001,-73.982533799,228,"209 YORK STREET, BROOKLYN, NY, 11201","Match","Exact","209 YORK ST, BROOKLYN, NY, 11201",59077402,"L"
331229,"209 YOUNG RD","FAIRFAX","SC",29827,32.9226528820001,-81.2909838479999,229,"209 YOUNG RD, FAIRFAX, SC, 29827","Match","Exact","209 YOUNG RD, FAIRFAX, SC, 29827",19045372,"L"
331230,"209 YVY GROVE LANE","COLLIERVILLE","TN",38017,35.1494205750001,-89.586135183,230,"209 YVY GROVE LANE, COLLIERVILLE, TN, 38017","Match","Non_Exact","209 GROVE RD, COLLIERVILLE, TN, 38017",72697061,"R"
331231,"209 ZION RD","WALHALLA","SC",29691,34.7704941260001,-83.097371661,231,"209 ZION RD, WALHALLA, SC, 29691","Match","Exact","209 ZION RD, WALHALLA, SC, 29691",25635609,"R"
331232,"209-03 36TH AVENUE","BAYSIDE","NY",11361,40.7664696470001,-73.7783998589999,232,"209-03 36TH AVENUE, BAYSIDE, NY, 11361","Match","Exact","209-3 36TH AVE, BAYSIDE, NY, 11361",59703149,"L"
331233,"209-10 23RD AVENUE","BAYSIDE","NY",11360,40.778874144,-73.782607818,233,"209-10 23RD AVENUE, BAYSIDE, NY, 11360","Match","Exact","209-10 23RD AVE, BAYSIDE, NY, 11360",635482288,"R"
331234,"209-10 41ST AVENUE -2F","BAYSIDE","NY",11361,40.763067273,-73.776373276,234,"209-10 41ST AVENUE -2F, BAYSIDE, NY, 11361","Match","Exact","209-10 41ST AVE, BAYSIDE, NY, 11361",59703182,"R"
331235,"209-14 82ND AVENUE","HOLLIS HILLS","NY",11427,40.730911201,-73.76047252,235,"209-14 82ND AVENUE, HOLLIS HILLS, NY, 11427","Match","Non_Exact","209 82ND AVE, BELLEROSE MANOR, NY, 11427",59716197,"R"
331236,"209-15 18TH AVENUE APT 5K","BROOKLYN","NY",11360,40.7817185230001,-73.78414391,236,"209-15 18TH AVENUE APT 5K, BROOKLYN, NY, 11360","Match","Non_Exact","209-15 18TH AVE, BAYSIDE, NY, 11360",641263939,"L"
331237,"209-15 27TH AVENUE","BAYSIDE","NY",11360,40.7761074210001,-73.781981559,237,"209-15 27TH AVENUE, BAYSIDE, NY, 11360","Match","Exact","209-15 27TH AVE, BAYSIDE, NY, 11360",59702589,"L"
331238,"209-20 JAMAICA AVE - PO BOX 28011","QUEENS VILLAGE","NY",11428,NA,NA,238,"209-20 JAMAICA AVE - PO BOX 28011, QUEENS VILLAGE, NY, 11428","No_Match",NA,NA,NA,NA
331239,"209-21 26TH AVENUE","BAYSIDE","NY",11360,40.7768543230001,-73.782185963,239,"209-21 26TH AVENUE, BAYSIDE, NY, 11360","Match","Exact","209-21 26TH AVE, BAYSIDE, NY, 11360",59702582,"L"
331240,"209-30 86TH DRIVE 2A","QUEENS VILLAGE","NY",11427,40.7240501650001,-73.758421524,240,"209-30 86TH DRIVE 2A, QUEENS VILLAGE, NY, 11427","Match","Exact","209-30 86TH DR, QUEENS VILLAGE, NY, 11427",59730477,"R"
331241,"209-33  3C 26TH AVE","BAYSIDE","NY",11360,NA,NA,241,"209-33  3C 26TH AVE, BAYSIDE, NY, 11360","No_Match",NA,NA,NA,NA
331242,"209-35 111 ROAD","QUEENS VILLAGE","NY",11429,40.7059608770001,-73.746085224,242,"209-35 111 ROAD, QUEENS VILLAGE, NY, 11429","Match","Exact","209-35 111TH RD, QUEENS VILLAGE, NY, 11429",59718028,"L"
331243,"209-45 112TH AVENUE","QUEENS VILLAGE","NY",11429,40.7053983590001,-73.745569283,243,"209-45 112TH AVENUE, QUEENS VILLAGE, NY, 11429","Match","Exact","209-45 112TH AVE, QUEENS VILLAGE, NY, 11429",59718032,"L"
331244,"209","KIHEI","HI",96753,NA,NA,244,"209, KIHEI, HI, 96753","No_Match",NA,NA,NA,NA
331245,"209","PORTSMOUTH","VA",23701,NA,NA,245,"209, PORTSMOUTH, VA, 23701","No_Match",NA,NA,NA,NA
331246,"209","WEST PALM BEACH","FL",33401,NA,NA,246,"209, WEST PALM BEACH, FL, 33401","No_Match",NA,NA,NA,NA
331247,"2090 1/2 ABBOTT STREET","SAN DIEGO","CA",92107,32.7511661070001,-117.250013885,247,"2090 1/2 ABBOTT STREET, SAN DIEGO, CA, 92107","Match","Exact","2090 ABBOTT ST, SAN DIEGO, CA, 92107",612855624,"L"
331248,"2090 69TH AVE S","ST PETERSBURG","FL",33712,27.7055283340001,-82.660439308,248,"2090 69TH AVE S, ST PETERSBURG, FL, 33712","Match","Exact","2090 69TH AVE S, SAINT PETERSBURG, FL, 33712",124711369,"L"
331249,"2090 ALKIRE ST","GOLDEN","CO",80401,39.7484828720001,-105.147520653,249,"2090 ALKIRE ST, GOLDEN, CO, 80401","Match","Exact","2090 ALKIRE ST, GOLDEN, CO, 80401",177285776,"R"
331250,"2090 ARTHUR ST","EUGENE","OR",97405,44.0367706390001,-123.124187149,250,"2090 ARTHUR ST, EUGENE, OR, 97405","Match","Exact","2090 ARTHUR ST, EUGENE, OR, 97405",178166139,"R"
331251,"2090 AUGUSTA","WESTON","FL",33326,26.0930458510001,-80.3730628389999,251,"2090 AUGUSTA, WESTON, FL, 33326","Match","Exact","2090 AUGUSTA, WESTON, FL, 33326",114775648,"R"
331252,"2090 AVINITY LOOP","CHARLOTTESVILLE","VA",22904,37.994543944,-78.500462155,252,"2090 AVINITY LOOP, CHARLOTTESVILLE, VA, 22904","Match","Non_Exact","2090 AVINITY LOOP, CHARLOTTESVILLE, VA, 22902",640878246,"R"
331253,"2090 BAKER RD 304-125","KENNESAW","GA",30144,34.0503150770001,-84.6129071619999,253,"2090 BAKER RD 304-125, KENNESAW, GA, 30144","Match","Exact","2090 BAKER RD, KENNESAW, GA, 30144",17241473,"R"
331254,"2090 BAKER RD SUITE 304-171","KENNESAW","GA",30144,34.0503150770001,-84.6129071619999,254,"2090 BAKER RD SUITE 304-171, KENNESAW, GA, 30144","Match","Exact","2090 BAKER RD, KENNESAW, GA, 30144",17241473,"R"
331255,"2090 BAKER ROAD SUITE 304 - 178","KENNESAW","GA",30144,34.0503150770001,-84.6129071619999,255,"2090 BAKER ROAD SUITE 304 - 178, KENNESAW, GA, 30144","Match","Exact","2090 BAKER RD, KENNESAW, GA, 30144",17241473,"R"
331256,"2090 BLUE MOUNDS","MOUNT HOREB","WI",53572,NA,NA,256,"2090 BLUE MOUNDS, MOUNT HOREB, WI, 53572","No_Match",NA,NA,NA,NA
331257,"2090 BRINK ALY","ORLANDO","FL",32828,28.5707514160001,-81.330897737,257,"2090 BRINK ALY, ORLANDO, FL, 32828","Match","Non_Exact","2090 BRINK ALY, ORLANDO, FL, 32814",640909364,"L"
331258,"2090 BROADWAY ST - SUITE A","BEAUMONT","TX",77701,30.0848658030001,-94.116656271,258,"2090 BROADWAY ST - SUITE A, BEAUMONT, TX, 77701","Match","Exact","2090 BROADWAY ST, BEAUMONT, TX, 77701",73854089,"R"
331259,"2090 CERRITO AVE","LONG BEACH","CA",90806,NA,NA,259,"2090 CERRITO AVE, LONG BEACH, CA, 90806","No_Match",NA,NA,NA,NA
331260,"2090 CORMORANT LANE","SUAMICO","WI",54313,44.626632552,-88.0678828649999,260,"2090 CORMORANT LANE, SUAMICO, WI, 54313","Match","Exact","2090 CORMORANT LN, SUAMICO, WI, 54313",148117104,"R"
331261,"2090 CUTTER POINT DRIVE APT 107","CLOVER","NC",29710,NA,NA,261,"2090 CUTTER POINT DRIVE APT 107, CLOVER, NC, 29710","No_Match",NA,NA,NA,NA
331262,"2090 DEL LAGO CIRCLE NW","KENNESAW","GA",30152,34.0010633480001,-84.609013814,262,"2090 DEL LAGO CIRCLE NW, KENNESAW, GA, 30152","Match","Non_Exact","2090 DEL LAGO CIR, KENNESAW, GA, 30152",637529138,"L"
331263,"2090 DELLWOOD PL","DECATUR","GA",30032,33.7300532730001,-84.2749797229999,263,"2090 DELLWOOD PL, DECATUR, GA, 30032","Match","Exact","2090 DELLWOOD PL, DECATUR, GA, 30032",23370453,"L"
331264,"2090 E 3RD STREET","BROOKLYN","NY",11223,40.598911704,-73.968979554,264,"2090 E 3RD STREET, BROOKLYN, NY, 11223","Match","Exact","2090 E 3RD ST, BROOKLYN, NY, 11223",59090904,"R"
331265,"2090 EAST MAIN STREET","VENTURA","CA",93001,34.2777389820001,-119.268922284,265,"2090 EAST MAIN STREET, VENTURA, CA, 93001","Match","Exact","2090 E MAIN ST, VENTURA, CA, 93001",109951669,"R"
331266,"2090 FARM DISTRICT RD","FERNLEY","NV",89408,39.585512146,-119.20232981,266,"2090 FARM DISTRICT RD, FERNLEY, NV, 89408","Match","Exact","2090 FARM DISTRICT RD, FERNLEY, NV, 89408",635741940,"R"
331267,"2090 FOSTER DRIVE","CUMMING","GA",30040,34.24211433,-84.1145926569999,267,"2090 FOSTER DRIVE, CUMMING, GA, 30040","Match","Exact","2090 FOSTER DR, CUMMING, GA, 30040",70195599,"R"
331268,"2090 GLASS RD","LENOIR","NC",28645,35.944400353,-81.642376181,268,"2090 GLASS RD, LENOIR, NC, 28645","Match","Exact","2090 GLASS RD, LENOIR, NC, 28645",45872501,"L"
331269,"2090 HANALIMA ST APT W103","LIHUE","HI",96766,21.9614199960001,-159.387166513,269,"2090 HANALIMA ST APT W103, LIHUE, HI, 96766","Match","Exact","2090 HANALIMA ST, LIHUE, HI, 96766",647675537,"L"
331270,"2090 HANCOCK ROAD","WILLIAMSTOWN","MA",1267,42.626439315,-73.280038248,270,"2090 HANCOCK ROAD, WILLIAMSTOWN, MA, 1267","Match","Exact","2090 HANCOCK RD, WILLIAMSTOWN, MA, 01267",3963498,"R"
331271,"2090 HERITAGE PARKWAY NUMBER 122","WOODLAND","CA",95776,38.648619593,-121.744087632,271,"2090 HERITAGE PARKWAY NUMBER 122, WOODLAND, CA, 95776","Match","Exact","2090 HERITAGE PKWY, WOODLAND, CA, 95776",629278792,"R"
331272,"2090 HIDDEN DRIVE","BATH","PA",18014,40.802733819,-75.372239827,272,"2090 HIDDEN DRIVE, BATH, PA, 18014","Match","Exact","2090 HIDDEN DR, BATH, PA, 18014",136870477,"L"
331273,"2090 HIGHVIEW COURT 7","RENO","NV",89512,39.551925415,-119.793955032,273,"2090 HIGHVIEW COURT 7, RENO, NV, 89512","Match","Exact","2090 HIGHVIEW CT, RENO, NV, 89512",107076205,"L"
331274,"2090 JERICHO RD","NEW BLOOMFIELD","PA",17068,40.409393558,-77.184741006,274,"2090 JERICHO RD, NEW BLOOMFIELD, PA, 17068","Match","Exact","2090 JERICHO RD, NEW BLOOMFIELD, PA, 17068",61084135,"L"
331275,"2090 KINGS ROAD","EAGAN","MN",55122,44.782993821,-93.212595515,275,"2090 KINGS ROAD, EAGAN, MN, 55122","Match","Exact","2090 KINGS RD, EAGAN, MN, 55122",653521947,"L"
331276,"2090 KINGS WAY","CORONA","CA",92883,NA,NA,276,"2090 KINGS WAY, CORONA, CA, 92883","No_Match",NA,NA,NA,NA
331277,"2090 LAND ROAD","JAMISON","PA",18929,40.2544285640001,-75.097566608,277,"2090 LAND ROAD, JAMISON, PA, 18929","Match","Exact","2090 LAND RD, JAMISON, PA, 18929",134750379,"L"
331278,"2090 LAWRENCEVILLE SUWANEE RD STE A","SUWANEE","GA",30024,34.0018625490001,-84.040124955,278,"2090 LAWRENCEVILLE SUWANEE RD STE A, SUWANEE, GA, 30024","Match","Exact","2090 LAWRENCEVILLE SUWANEE RD, SUWANEE, GA, 30024",638649910,"R"
331279,"2090 LAWRENCEVILLE-SUWANEE ROAD","SUWANEE","GA",30024,34.0018625490001,-84.040124955,279,"2090 LAWRENCEVILLE-SUWANEE ROAD, SUWANEE, GA, 30024","Match","Non_Exact","2090 LAWRENCEVILLE SUWANEE RD, SUWANEE, GA, 30024",638649910,"R"
331280,"2090 LONGFELLOW","BEAUMONT","TX",77701,NA,NA,280,"2090 LONGFELLOW, BEAUMONT, TX, 77701","No_Match",NA,NA,NA,NA
331281,"2090 LUVESTA CT","BERTHOUD","CO",81513,40.328594867,-105.138318136,281,"2090 LUVESTA CT, BERTHOUD, CO, 81513","Match","Non_Exact","2090 LUVESTA CT, BERTHOUD, CO, 80513",188610674,"R"
331282,"2090 MAIN ST APT 268","SAN DIEGO","CA",92113,32.696928438,-117.143562485,282,"2090 MAIN ST APT 268, SAN DIEGO, CA, 92113","Match","Exact","2090 MAIN ST, SAN DIEGO, CA, 92113",195347923,"L"
331283,"2090 MARTINHO AVE","TULARE","CA",93274,36.2237239090001,-119.376016451,283,"2090 MARTINHO AVE, TULARE, CA, 93274","Match","Exact","2090 MARTINHO AVE, TULARE, CA, 93274",202816557,"R"
331284,"2090 MISTYHILL DRIVE","CINCINNATI","OH",45240,39.276644187,-84.558534671,284,"2090 MISTYHILL DRIVE, CINCINNATI, OH, 45240","Match","Exact","2090 MISTYHILL DR, CINCINNATI, OH, 45240",103942830,"R"
331285,"2090 MOORE RD","SOUTH ROYALTON","VT",5068,43.7663459250001,-72.509874827,285,"2090 MOORE RD, SOUTH ROYALTON, VT, 5068","Match","Exact","2090 MOORE RD, S ROYALTON, VT, 05068",640417854,"R"
331286,"2090 MORRIS AVE","BRONX","NY",10452,40.8545710990001,-73.904304688,286,"2090 MORRIS AVE, BRONX, NY, 10452","Match","Non_Exact","2090 MORRIS AVE, BRONX, NY, 10453",80300954,"R"
331287,"2090 OLD AIRPORT RD","NUNNELLY","TN",37137,NA,NA,287,"2090 OLD AIRPORT RD, NUNNELLY, TN, 37137","No_Match",NA,NA,NA,NA
331288,"2090 OLD GEORGIAN TERRACE","ATLANTA","GA",30318,33.8125411500001,-84.481436074,288,"2090 OLD GEORGIAN TERRACE, ATLANTA, GA, 30318","Match","Exact","2090 OLD GEORGIAN TER, ATLANTA, GA, 30318",634083767,"L"
331289,"2090 palmbay rd ne","palmbay","FL",32905,NA,NA,289,"2090 palmbay rd ne, palmbay, FL, 32905","No_Match",NA,NA,NA,NA
331290,"2090 palmbay rd ne","PALMBAY","FL",32905,28.0350014740001,-80.612080416,290,"2090 palmbay rd ne, PALMBAY, FL, 32905","Match","Non_Exact","2090 PALM BAY RD NE, PALM BAY, FL, 32905",93924875,"L"
331291,"2090 PARKER RANCH RD","ATLANTA","GA",30316,33.70656767,-84.3049617619999,291,"2090 PARKER RANCH RD, ATLANTA, GA, 30316","Match","Non_Exact","2090 PARKER RANCH RD SE, ATLANTA, GA, 30316",652433247,"L"
331292,"2090 PAULINE BLVD APT 1B","ANN ARBOR","MI",48103,42.2678283560001,-83.775156959,292,"2090 PAULINE BLVD APT 1B, ANN ARBOR, MI, 48103","Match","Exact","2090 PAULINE BLVD, ANN ARBOR, MI, 48103",26012519,"R"
331293,"2090 PEBBLE DR","ALAMO","CA",94507,37.850310888,-122.015943579,293,"2090 PEBBLE DR, ALAMO, CA, 94507","Match","Exact","2090 PEBBLE DR, ALAMO, CA, 94507",607851651,"L"
331294,"2090 PENNINGTN GAP DR","MEMPHIS","TN",38106,NA,NA,294,"2090 PENNINGTN GAP DR, MEMPHIS, TN, 38106","No_Match",NA,NA,NA,NA
331295,"2090 ROAD 124","CHEYENNE","WY",82009,NA,NA,295,"2090 ROAD 124, CHEYENNE, WY, 82009","No_Match",NA,NA,NA,NA
331296,"2090 ROUTE 68","ZELIENOPLE","PA",16063,40.7726235960001,-80.074270159,296,"2090 ROUTE 68, ZELIENOPLE, PA, 16063","Match","Non_Exact","2090 STATE RTE 68, ZELIENOPLE, PA, 16063",52681355,"R"
331297,"2090 ROYAL CT","MOHAVE VALLEY","AZ",86440,34.911888365,-114.576019918,297,"2090 ROYAL CT, MOHAVE VALLEY, AZ, 86440","Match","Non_Exact","2090 E ROYAL CT, MOHAVE VALLEY, AZ, 86440",624903841,"L"
331298,"2090 RUBENS WAY 102","OAKLEY","CA",94561,37.9903762910001,-121.689492704,298,"2090 RUBENS WAY 102, OAKLEY, CA, 94561","Match","Exact","2090 RUBENS WAY, OAKLEY, CA, 94561",627607752,"L"
331299,"2090 S QUINTERO STREET","AURORA","CO",80013,39.6778117420001,-104.786696914,299,"2090 S QUINTERO STREET, AURORA, CO, 80013","Match","Exact","2090 S QUINTERO ST, AURORA, CO, 80013",177357416,"L"
331300,"2090 SANDY LANE","RICHMOND","VA",23223,NA,NA,300,"2090 SANDY LANE, RICHMOND, VA, 23223","No_Match",NA,NA,NA,NA
331301,"2090 SAWBURY BLVD","COLUMBUS","OH",43235,40.1134886930001,-83.0715783589999,301,"2090 SAWBURY BLVD, COLUMBUS, OH, 43235","Match","Exact","2090 SAWBURY BLVD, COLUMBUS, OH, 43235",218687469,"R"
331302,"2090 SE 11TH STREET","WEST DES MOINES","IA",50265,41.540140195,-93.71777714,302,"2090 SE 11TH STREET, WEST DES MOINES, IA, 50265","Match","Exact","2090 SE 11TH ST, W DES MOINES, IA, 50265",65851889,"L"
331303,"2090 SE OXFORD DR","WAUKEE","IA",50263,41.591728302,-93.868144021,303,"2090 SE OXFORD DR, WAUKEE, IA, 50263","Match","Exact","2090 SE OXFORD DR, WAUKEE, IA, 50263",641379509,"L"
331304,"2090 SE WILLOWBROOK DR","WAUKEE","IA",50263,NA,NA,304,"2090 SE WILLOWBROOK DR, WAUKEE, IA, 50263","No_Match",NA,NA,NA,NA
331305,"2090 SHERRILLTOWN ROAD","WATERTOWN","TN",37184,36.0505011170001,-86.208687772,305,"2090 SHERRILLTOWN ROAD, WATERTOWN, TN, 37184","Match","Exact","2090 SHERRILLTOWN RD, WATERTOWN, TN, 37184",636667656,"L"
331306,"2090 SOUTHDOWN COURT","XENIA","OH",45385,39.7313054890001,-83.967013535,306,"2090 SOUTHDOWN COURT, XENIA, OH, 45385","Match","Exact","2090 SOUTHDOWN CT, XENIA, OH, 45385",619616908,"R"
331307,"2090 STANLEY STREET","NEW BRITAIN","CT",6053,41.70067204,-72.774710134,307,"2090 STANLEY STREET, NEW BRITAIN, CT, 6053","Match","Exact","2090 STANLEY ST, NEW BRITAIN, CT, 06053",3510005,"L"
331308,"2090 STATE ROUTE 61","MARENGO","OH",43334,40.429163723,-82.824755351,308,"2090 STATE ROUTE 61, MARENGO, OH, 43334","Match","Exact","2090 STATE RTE 61, MARENGO, OH, 43334",12753072,"L"
331309,"2090 STATE ROUTE 85 EAST","ISLAND","KY",42350,NA,NA,309,"2090 STATE ROUTE 85 EAST, ISLAND, KY, 42350","No_Match",NA,NA,NA,NA
331310,"2090 SUNDANCE PARKWAY","BRAUNFELS","TX",78130,29.736780584,-98.0921541819999,310,"2090 SUNDANCE PARKWAY, BRAUNFELS, TX, 78130","Match","Non_Exact","2090 SUNDANCE PKWY, NEW BRAUNFELS, TX, 78130",641470096,"R"
331311,"2090 TERRYS MOUNTAIN ROAD","MARTINSVILLE","VA",24112,36.7340320700001,-79.839723126,311,"2090 TERRYS MOUNTAIN ROAD, MARTINSVILLE, VA, 24112","Match","Exact","2090 TERRYS MOUNTAIN RD, MARTINSVILLE, VA, 24112",55538450,"R"
331312,"2090 TUSSAHAW CROSSING","MCDONOUGH","GA",30252,33.4236095790001,-84.13477869,312,"2090 TUSSAHAW CROSSING, MCDONOUGH, GA, 30252","Match","Exact","2090 TUSSAHAW CROSSING, MCDONOUGH, GA, 30252",629894068,"R"
331313,"2090 VIA LAS CUMBRES 3","SAN DIEGO","CA",92111,32.7802966030001,-117.17903053,313,"2090 VIA LAS CUMBRES 3, SAN DIEGO, CA, 92111","Match","Exact","2090 VIA LAS CUMBRES, SAN DIEGO, CA, 92111",195713717,"L"
331314,"2090 WALDO ROAD","TWO HARBORS","MN",55616,47.081512924,-91.68869669,314,"2090 WALDO ROAD, TWO HARBORS, MN, 55616","Match","Exact","2090 WALDO RD, TWO HARBORS, MN, 55616",194219620,"L"
331315,"2090 WEATHER CIRCLE","CONYERS","GA",30094,NA,NA,315,"2090 WEATHER CIRCLE, CONYERS, GA, 30094","No_Match",NA,NA,NA,NA
331316,"2090","MEMPHIS","TN",38106,NA,NA,316,"2090, MEMPHIS, TN, 38106","No_Match",NA,NA,NA,NA
331317,"20900 ALAMINOS DRIVE","SANTA CLARITA","CA",91350,34.451628843,-118.501120346,317,"20900 ALAMINOS DRIVE, SANTA CLARITA, CA, 91350","Match","Exact","20900 ALAMINOS DR, SANTA CLARITA, CA, 91350",141519542,"R"
331318,"20900 CALLE CRYSTAL  LN","N FT MERS","FL",33917,26.766712544,-81.892016079,318,"20900 CALLE CRYSTAL  LN, N FT MERS, FL, 33917","Match","Non_Exact","20900 CALLE CRISTAL LN, N FORT MYERS, FL, 33917",618989687,"L"
331319,"20900 CORSAIR BLVD","HAYWARD","CA",94545,37.6572357420001,-122.125493278,319,"20900 CORSAIR BLVD, HAYWARD, CA, 94545","Match","Exact","20900 CORSAIR BLVD, HAYWARD, CA, 94545",125067239,"L"
331320,"20900 FM 1093 ROAD  APT 14104","RICHMOND","TX",77407,NA,NA,320,"20900 FM 1093 ROAD  APT 14104, RICHMOND, TX, 77407","No_Match",NA,NA,NA,NA
331321,"20900 GLADIOLA ST NW","CEDAR","MN",55011,45.348254341,-93.3408666939999,321,"20900 GLADIOLA ST NW, CEDAR, MN, 55011","Match","Exact","20900 GLADIOLA ST NW, CEDAR, MN, 55011",97528876,"L"
331322,"20900 HAVANT WAY","PFLUGERVILLE","TX",78660,30.4869341260001,-97.568629474,322,"20900 HAVANT WAY, PFLUGERVILLE, TX, 78660","Match","Exact","20900 HAVANT WAY, PFLUGERVILLE, TX, 78660",623925698,"L"
331323,"20900 HOMESTEAD RD APT 79G","CUPERTINO","CA",95014,37.3375768290001,-122.040257902,323,"20900 HOMESTEAD RD APT 79G, CUPERTINO, CA, 95014","Match","Non_Exact","20900 W HOMESTEAD RD, CUPERTINO, CA, 95014",650284368,"L"
331324,"20900 NE 30TH AVENUE 410","AVENTURA","FL",33180,25.9691235280001,-80.1417546119999,324,"20900 NE 30TH AVENUE 410, AVENTURA, FL, 33180","Match","Non_Exact","20900 NE 30TH AVE, AVENTURA, FL, 33180",116255540,"L"
331325,"20900 W HAMILTON ST","BUCKEYE","AZ",85396,33.4782242640001,-112.508951774,325,"20900 W HAMILTON ST, BUCKEYE, AZ, 85396","Match","Exact","20900 W HAMILTON ST, BUCKEYE, AZ, 85396",627861042,"R"
331326,"20901 CORINTH ROAD","OLYMPIA FIELDS","IL",60461,41.5095584970001,-87.683334838,326,"20901 CORINTH ROAD, OLYMPIA FIELDS, IL, 60461","Match","Exact","20901 CORINTH RD, OLYMPIA FIELDS, IL, 60461",111710447,"L"
331327,"20901 E 13TH TERRACE","INDEPENDENCE","MO",64057,39.0875827410001,-94.332265089,327,"20901 E 13TH TERRACE, INDEPENDENCE, MO, 64057","Match","Exact","20901 E 13TH TER, INDEPENDENCE, MO, 64057",91471267,"R"
331328,"20901 HAGUE RD","NOBLESVILLE","IN",46062,40.091079747,-86.033364395,328,"20901 HAGUE RD, NOBLESVILLE, IN, 46062","Match","Exact","20901 HAGUE RD, NOBLESVILLE, IN, 46062",29326419,"L"
331329,"20901 NW 187TH STREET","MIAMI","FL",33056,NA,NA,329,"20901 NW 187TH STREET, MIAMI, FL, 33056","No_Match",NA,NA,NA,NA
331330,"20901 OLD SANTA CRUZ HWY","LOS GATOS","CA",95033,NA,NA,330,"20901 OLD SANTA CRUZ HWY, LOS GATOS, CA, 95033","No_Match",NA,NA,NA,NA
331331,"20901 QUEENS PARK LN","HUNTINGTON BCH","CA",92646,33.659059386,-117.958478068,331,"20901 QUEENS PARK LN, HUNTINGTON BCH, CA, 92646","Match","Exact","20901 QUEENS PARK LN, HUNTINGTON BEACH, CA, 92646",144045100,"R"
331332,"20901 SAN SIMEON WAY APT301","MIAMI","FL",33179,25.9672042500001,-80.1909218279999,332,"20901 SAN SIMEON WAY APT301, MIAMI, FL, 33179","Match","Exact","20901 SAN SIMEON WAY, MIAMI, FL, 33179",650828243,"L"
331333,"20901 SW 117 AVE","MIAMI","FL",33177,25.572509956,-80.377188502,333,"20901 SW 117 AVE, MIAMI, FL, 33177","Match","Exact","20901 SW 117TH AVE, MIAMI, FL, 33177",633341412,"L"
331334,"20901 W COUNTY RD 80 C","LIVERMORE","CO",80536,40.928190752,-105.54642994,334,"20901 W COUNTY RD 80 C, LIVERMORE, CO, 80536","Match","Non_Exact","20901 W CO RD 80C, LIVERMORE, CO, 80536",637536100,"L"
331335,"20902 67TH AVE NE PMB 380","ARLINGTON","WA",98223,48.1852107820001,-122.136702235,335,"20902 67TH AVE NE PMB 380, ARLINGTON, WA, 98223","Match","Exact","20902 67TH AVE NE, ARLINGTON, WA, 98223",187822287,"R"
331336,"20902 DEAUVILLE DRIVE","SPRING","TX",77388,30.065635677,-95.470006637,336,"20902 DEAUVILLE DRIVE, SPRING, TX, 77388","Match","Exact","20902 DEAUVILLE DR, SPRING, TX, 77388",96170207,"L"
331337,"20902 E CRESTLINE CIRCLE","CENTENNIAL","CO",80015,39.6181216530001,-104.744308108,337,"20902 E CRESTLINE CIRCLE, CENTENNIAL, CO, 80015","Match","Exact","20902 E CRESTLINE CIR, CENTENNIAL, CO, 80015",177405116,"L"
331338,"20902 HANFORD DRIVE","CUPERTINO","CA",95014,37.328007088,-122.038904534,338,"20902 HANFORD DRIVE, CUPERTINO, CA, 95014","Match","Exact","20902 HANFORD DR, CUPERTINO, CA, 95014",122938137,"L"
331339,"20902 JENKINS WAY","LAKEVILLE","MN",55044,44.646309622,-93.2724597499999,339,"20902 JENKINS WAY, LAKEVILLE, MN, 55044","Match","Exact","20902 JENKINS WAY, LAKEVILLE, MN, 55044",37924826,"R"
331340,"20903 RUNNYMEADE TERRICE 422","ASHBURN","VA",20147,39.0373490490001,-77.470902698,340,"20903 RUNNYMEADE TERRICE 422, ASHBURN, VA, 20147","Match","Non_Exact","20903 RUNNYMEADE TER, ASHBURN, VA, 20147",642574689,"L"
331341,"20903 TRENTON VALLEY LANE","KATY","TX",77449,29.8280469200001,-95.737381082,341,"20903 TRENTON VALLEY LANE, KATY, TX, 77449","Match","Exact","20903 TRENTON VALLEY LN, KATY, TX, 77449",624812708,"R"
331342,"20904  S 1500 PR SW","PROSSER","WA",99350,46.1856555350001,-119.806837172,342,"20904  S 1500 PR SW, PROSSER, WA, 99350","Match","Exact","20904 S 1500 PR SW, PROSSER, WA, 99350",607020168,"R"
331343,"20904 124TH AVE SE","KENT","WA",98031,47.4149522710001,-122.176411998,343,"20904 124TH AVE SE, KENT, WA, 98031","Match","Exact","20904 124TH AVE SE, KENT, WA, 98031",187008627,"L"
331344,"20904 79TH AVE E","SPANAWAY","WA",98387,47.0668217420001,-122.32541698,344,"20904 79TH AVE E, SPANAWAY, WA, 98387","Match","Exact","20904 79TH AVE E, SPANAWAY, WA, 98387",184681352,"L"
331345,"20904 CONCORD GREEN DRIVE E","BOCA RATON","FL",33433,26.3660626980001,-80.177980751,345,"20904 CONCORD GREEN DRIVE E, BOCA RATON, FL, 33433","Match","Exact","20904 CONCORD GREEN DR E, BOCA RATON, FL, 33433",115574899,"L"
331346,"20904 E 32ND ST S","BROKEN ARROW","OK",74014,36.117601317,-95.743835868,346,"20904 E 32ND ST S, BROKEN ARROW, OK, 74014","Match","Exact","20904 E 32ND ST S, BROKEN ARROW, OK, 74014",83177264,"R"
331347,"20904 E CRESTLINE OL","CENTENNIAL","CO",80015,NA,NA,347,"20904 E CRESTLINE OL, CENTENNIAL, CO, 80015","No_Match",NA,NA,NA,NA
331348,"20904 E CRESTLINE PL","CENTENNIAL","CO",80015,39.617450676,-104.744529222,348,"20904 E CRESTLINE PL, CENTENNIAL, CO, 80015","Match","Exact","20904 E CRESTLINE PL, CENTENNIAL, CO, 80015",177360552,"R"
331349,"20904-5446","SILVER SPRING","MD",20910,NA,NA,349,"20904-5446, SILVER SPRING, MD, 20910","No_Match",NA,NA,NA,NA
331350,"20905 70TH AVE W","EDMONDS","WA",98026,47.8090883420001,-122.327431474,350,"20905 70TH AVE W, EDMONDS, WA, 98026","Match","Exact","20905 70TH AVE W, EDMONDS, WA, 98026",187794131,"L"
331351,"20905 82ND PL SE","SNOHOMISH","WA",98290,47.9213379930001,-121.951213042,351,"20905 82ND PL SE, SNOHOMISH, WA, 98290","Match","Exact","20905 82ND PL SE, SNOHOMISH, WA, 98290",606938821,"R"
331352,"20905 HOT SPRINGS ROAD","SKY VALLEY","CA",92241,33.9030640300001,-116.35371807,352,"20905 HOT SPRINGS ROAD, SKY VALLEY, CA, 92241","Match","Non_Exact","20905 HOT SPRINGS RD, DESERT HOT SPRINGS, CA, 92241",638572062,"L"
331353,"20905 SHAWNEETOWN ROAD","THOMPSONVILLE","IL",62890,37.920664156,-88.7695651019999,353,"20905 SHAWNEETOWN ROAD, THOMPSONVILLE, IL, 62890","Match","Exact","20905 SHAWNEETOWN RD, THOMPSONVILLE, IL, 62890",92942679,"R"
331354,"20906 83RD ST CT E","BONNEY LAKE","WA",98391,47.1815479900001,-122.152552577,354,"20906 83RD ST CT E, BONNEY LAKE, WA, 98391","Match","Exact","20906 83RD STREET CT E, BONNEY LAKE, WA, 98391",184650423,"R"
331355,"20906 PEARL HARVEST","SAN ANTONIO","TX",78259,29.6353644440001,-98.404693394,355,"20906 PEARL HARVEST, SAN ANTONIO, TX, 78259","Match","Exact","20906 PEARL HARVEST, SAN ANTONIO, TX, 78259",619987147,"L"
331356,"20906 REFUGE CREEK DRIVE","CYPRESS","TX",77433,30.0322383970001,-95.749621382,356,"20906 REFUGE CREEK DRIVE, CYPRESS, TX, 77433","Match","Exact","20906 REFUGE CREEK, CYPRESS, TX, 77433",638594127,"R"
331357,"20906 STUBBS RD","LAURINBURG","NC",28352,34.844844886,-79.391781591,357,"20906 STUBBS RD, LAURINBURG, NC, 28352","Match","Exact","20906 STUBBS RD, LAURINBURG, NC, 28352",639833914,"L"
331358,"20907 AMIE AVENUE","TORRANCE","CA",90503,33.8402613430001,-118.34931971,358,"20907 AMIE AVENUE, TORRANCE, CA, 90503","Match","Exact","20907 AMIE AVE, TORRANCE, CA, 90503",142756640,"R"
331359,"20907 BRACEWELL ROAD","BEDIAS","TX",77831,30.775901049,-95.912970098,359,"20907 BRACEWELL ROAD, BEDIAS, TX, 77831","Match","Exact","20907 BRACEWELL RD, BEDIAS, TX, 77831",21903610,"L"
331360,"20907 CACTUS PEAK","SAN ANTONIO","TX",78258,29.6364992920001,-98.461549932,360,"20907 CACTUS PEAK, SAN ANTONIO, TX, 78258","Match","Exact","20907 CACTUS PEAK, SAN ANTONIO, TX, 78258",101741012,"L"
331361,"20907 E 34TH ST S","BROKEN ARROWS","OK",74014,36.114971031,-95.743599252,361,"20907 E 34TH ST S, BROKEN ARROWS, OK, 74014","Match","Non_Exact","20907 E 34TH ST S, BROKEN ARROW, OK, 74014",639220599,"L"
331362,"20907 GAULT STREET","CANOGA PARK","CA",91303,34.1992250320001,-118.588735387,362,"20907 GAULT STREET, CANOGA PARK, CA, 91303","Match","Exact","20907 GAULT ST, CANOGA PARK, CA, 91303",141535250,"R"
331363,"20907 MAPLE VILLAGE DRIVE","CYPRESS","TX",77433,29.997370317,-95.7453932,363,"20907 MAPLE VILLAGE DRIVE, CYPRESS, TX, 77433","Match","Exact","20907 MAPLE VILLAGE DR, CYPRESS, TX, 77433",96161634,"L"
331364,"20908 HUCKABEE BEND","PFLUGERVILLE","TX",78660,30.4878920950001,-97.573528879,364,"20908 HUCKABEE BEND, PFLUGERVILLE, TX, 78660","Match","Exact","20908 HUCKABEE BEND, PFLUGERVILLE, TX, 78660",641833283,"R"
331365,"20908 KEENEY MILL ROAD","FREELAND","MD",21053,39.6970379410001,-76.718757115,365,"20908 KEENEY MILL ROAD, FREELAND, MD, 21053","Match","Exact","20908 KEENEY MILL RD, FREELAND, MD, 21053",647299064,"L"
331366,"20908 N HIGHWAY 41","RATHDRUM","ID",83858,47.858489267,-116.854657908,366,"20908 N HIGHWAY 41, RATHDRUM, ID, 83858","Match","Non_Exact","20908 STATE HWY 41, RATHDRUM, ID, 83858",192930794,"R"
331367,"20909 CEMETARY RD","PRINCEVILLE","IL",61559,NA,NA,367,"20909 CEMETARY RD, PRINCEVILLE, IL, 61559","No_Match",NA,NA,NA,NA
331368,"20909 E 51ST PLACE","DENVER","CO",80249,39.7897960220001,-104.744759406,368,"20909 E 51ST PLACE, DENVER, CO, 80249","Match","Exact","20909 E 51ST PL, DENVER, CO, 80249",617525859,"L"
331369,"20909 EAST 51ST PLACE","DENVER","CO",80249,39.7897975490001,-104.744770097,369,"20909 EAST 51ST PLACE, DENVER, CO, 80249","Match","Exact","20909 E 51ST PL, DENVER, CO, 80249",617525859,"L"
331370,"20909 F STREET","ELKHORN","NE",68022,41.2192926110001,-96.241442932,370,"20909 F STREET, ELKHORN, NE, 68022","Match","Exact","20909 F ST, ELKHORN, NE, 68022",646677139,"R"
331371,"20909 HUMPHREYS POINT ROAD","ROCK HALL","MD",21661,39.159832878,-76.253026628,371,"20909 HUMPHREYS POINT ROAD, ROCK HALL, MD, 21661","Match","Exact","20909 HUMPHREYS POINT RD, ROCK HALL, MD, 21661",68351601,"L"
331372,"20909 JONATHAN DRIVE","STRONGSVILLE","OH",44149,41.3434119410001,-81.857871476,372,"20909 JONATHAN DRIVE, STRONGSVILLE, OH, 44149","Match","Exact","20909 JONATHAN DR, STRONGSVILLE, OH, 44149",61131046,"R"
331373,"20909 KINGFISH TER","CUTLER BAY","FL",33189,25.57272478,-80.34646771,373,"20909 KINGFISH TER, CUTLER BAY, FL, 33189","Match","Exact","20909 KINGFISH TER, CUTLER BAY, FL, 33189",116086360,"L"
331374,"20909 MONARCH LANE","HUNTINGTON BEACH","CA",92646,NA,NA,374,"20909 MONARCH LANE, HUNTINGTON BEACH, CA, 92646","No_Match",NA,NA,NA,NA
331375,"20909 N 39TH WAY","PHOENIX","AZ",85050,33.6765070000001,-111.996901777,375,"20909 N 39TH WAY, PHOENIX, AZ, 85050","Match","Exact","20909 N 39TH WAY, PHOENIX, AZ, 85050",128875349,"R"
331376,"20909 N 39TH WAY","PHOEONIX","AZ",85050,33.6765044580001,-111.996901832,376,"20909 N 39TH WAY, PHOEONIX, AZ, 85050","Match","Non_Exact","20909 N 39TH WAY, PHOENIX, AZ, 85050",128875349,"R"
331377,"20909 PARTHENIA STREET APT 14","CANOGA PARK","CA",91304,34.228208948,-118.588844828,377,"20909 PARTHENIA STREET APT 14, CANOGA PARK, CA, 91304","Match","Exact","20909 PARTHENIA ST, CANOGA PARK, CA, 91304",141533064,"R"
331378,"20909 SE MAIN","GRESHAM","OR",97030,45.5140488210001,-122.448392122,378,"20909 SE MAIN, GRESHAM, OR, 97030","Match","Non_Exact","20909 SE MAIN DR, GRESHAM, OR, 97030",157528057,"L"
331379,"20909 W 96TH TER","LENEXA","KS",66220,38.952611694,-94.827655673,379,"20909 W 96TH TER, LENEXA, KS, 66220","Match","Exact","20909 W 96TH TER, LENEXA, KS, 66220",91315047,"L"
331380,"2090A","SUWANEE","GA",30024,NA,NA,380,"2090A, SUWANEE, GA, 30024","No_Match",NA,NA,NA,NA
331381,"2091 15TH AVE","SACRAMENTO","CA",95822,38.5374172940001,-121.490628151,381,"2091 15TH AVE, SACRAMENTO, CA, 95822","Match","Exact","2091 15TH AVE, SACRAMENTO, CA, 95822",133325924,"L"
331382,"2091 23RD ST SW","LARGO","FL",33774,27.8978657050001,-82.81098429,382,"2091 23RD ST SW, LARGO, FL, 33774","Match","Exact","2091 23RD ST SW, LARGO, FL, 33774",124673192,"L"
331383,"2091 23RD ST W","LARGO","FL",33774,27.8978657050001,-82.81098429,383,"2091 23RD ST W, LARGO, FL, 33774","Match","Non_Exact","2091 23RD ST SW, LARGO, FL, 33774",124673192,"L"
331384,"2091 23RD STREET SW","LARGO","FL",33774,27.8978657050001,-82.81098429,384,"2091 23RD STREET SW, LARGO, FL, 33774","Match","Exact","2091 23RD ST SW, LARGO, FL, 33774",124673192,"L"
331385,"2091 CHALET DRIVE","ROCHESTER HILLS","MI",48309,42.677712093,-83.17449863,385,"2091 CHALET DRIVE, ROCHESTER HILLS, MI, 48309","Match","Exact","2091 CHALET DR, ROCHESTER HILLS, MI, 48309",69772644,"L"
331386,"2091 CLAVEY RD","HIGHLAND PARK","IL",60035,42.159603465,-87.8217891529999,386,"2091 CLAVEY RD, HIGHLAND PARK, IL, 60035","Match","Exact","2091 CLAVEY RD, HIGHLAND PARK, IL, 60035",640090363,"R"
331387,"2091 DAMPTON DRIVE","FRISCO","TX",75033,33.1840226410001,-96.8706645949999,387,"2091 DAMPTON DRIVE, FRISCO, TX, 75033","Match","Exact","2091 DAMPTON DR, FRISCO, TX, 75033",614125616,"R"
331388,"2091 DEEP CREEK ROAD","DEWY ROSE","GA",30634,34.149708812,-82.965530931,388,"2091 DEEP CREEK ROAD, DEWY ROSE, GA, 30634","Match","Exact","2091 DEEP CREEK RD, DEWY ROSE, GA, 30634",22962377,"L"
331389,"2091 E DETROIT ST","CHANDLER","AZ",85225,33.3088532620001,-111.805325194,389,"2091 E DETROIT ST, CHANDLER, AZ, 85225","Match","Exact","2091 E DETROIT ST, CHANDLER, AZ, 85225",128864956,"R"
331390,"2091 E GLACIER RD","HAYDEN","ID",83835,47.8210449150001,-116.762298891,390,"2091 E GLACIER RD, HAYDEN, ID, 83835","Match","Exact","2091 E GLACIER RD, HAYDEN, ID, 83835",653186647,"R"
331391,"2091 FM 600","HASKELL","TX",79521,33.105293385,-99.6964500399999,391,"2091 FM 600, HASKELL, TX, 79521","Match","Exact","2091 FM 600, HASKELL, TX, 79521",185492055,"R"
331392,"2091 FORDHAM LANE","BROADVIEW HTS","OH",44147,41.2808329550001,-81.672319358,392,"2091 FORDHAM LANE, BROADVIEW HTS, OH, 44147","Match","Exact","2091 FORDHAM LN, BROADVIEW HEIGHTS, OH, 44147",625005946,"R"
331393,"2091 FORREST DR","ALLEGAN","MI",49010,42.5705723020001,-85.800188245,393,"2091 FORREST DR, ALLEGAN, MI, 49010","Match","Exact","2091 FORREST DR, ALLEGAN, MI, 49010",11419560,"L"
331394,"2091 GLESS AVENUE","UNION","NJ",7083,40.702094484,-74.267698879,394,"2091 GLESS AVENUE, UNION, NJ, 7083","Match","Exact","2091 GLESS AVE, UNION, NJ, 07083",60571805,"R"
331395,"2091 GRAND BOULEVARD","SCHENECTADY","NY",12309,42.811259179,-73.9002272719999,395,"2091 GRAND BOULEVARD, SCHENECTADY, NY, 12309","Match","Exact","2091 GRAND BLVD, SCHENECTADY, NY, 12309",637574871,"L"
331396,"2091 GREENS CROSSING ROAD","CASSVILLE","NY",13318,42.9611841400001,-75.27706074,396,"2091 GREENS CROSSING ROAD, CASSVILLE, NY, 13318","Match","Exact","2091 GREENS CROSSING RD, CASSVILLE, NY, 13318",171579918,"L"
331397,"2091 HIGHWAY 171","STONEWALL","LA",71078,NA,NA,397,"2091 HIGHWAY 171, STONEWALL, LA, 71078","No_Match",NA,NA,NA,NA
331398,"2091 HIGHWAY 31","HYATTVILLE","WY",82428,44.2537097200001,-107.615257871,398,"2091 HIGHWAY 31, HYATTVILLE, WY, 82428","Match","Non_Exact","2091 STATE HWY 31, HYATTVILLE, WY, 82428",605634311,"R"
331399,"2091 JANE LANE","SOUTHSIDE","AL",35907,33.927698966,-86.038539456,399,"2091 JANE LANE, SOUTHSIDE, AL, 35907","Match","Exact","2091 JANE LN, SOUTHSIDE, AL, 35907",606338292,"R"
331400,"2091 LIBERTY COURT NW","ATLANTA","GA",30318,33.8177541960001,-84.441903797,400,"2091 LIBERTY COURT NW, ATLANTA, GA, 30318","Match","Non_Exact","2091 LIBERTY CT, ATLANTA, GA, 30318",636130401,"L"
331401,"2091 MALLARD CREST","LITHONIA","GA",30058,33.7277650090001,-84.1627457879999,401,"2091 MALLARD CREST, LITHONIA, GA, 30058","Match","Exact","2091 MALLARD CRST, LITHONIA, GA, 30058",23378659,"R"
331402,"2091 MANHATTAN DRIVE","CARSON CITY","NV",89703,39.171182909,-119.788994606,402,"2091 MANHATTAN DRIVE, CARSON CITY, NV, 89703","Match","Exact","2091 MANHATTAN DR, CARSON CITY, NV, 89703",199516715,"L"
331403,"2091 MEADOWDALE","FLINT","TX",75762,NA,NA,403,"2091 MEADOWDALE, FLINT, TX, 75762","No_Match",NA,NA,NA,NA
331404,"2091 MISSISSIPPI DRIVE","XENIA","OH",45385,39.668583669,-83.970501782,404,"2091 MISSISSIPPI DRIVE, XENIA, OH, 45385","Match","Exact","2091 MISSISSIPPI DR, XENIA, OH, 45385",143378771,"L"
331405,"2091 N 4TH STREET","COLUMBUS","OH",43201,40.0060200790001,-82.998324757,405,"2091 N 4TH STREET, COLUMBUS, OH, 43201","Match","Exact","2091 N 4TH ST, COLUMBUS, OH, 43201",218681964,"L"
331406,"2091 N BONITA LN","CASA GRANDE","AZ",85122,NA,NA,406,"2091 N BONITA LN, CASA GRANDE, AZ, 85122","No_Match",NA,NA,NA,NA
331407,"2091 N LOFGREN ROAD","ROLLING PRAIRIE","IN",46371,41.635819342,-86.655304061,407,"2091 N LOFGREN ROAD, ROLLING PRAIRIE, IN, 46371","Match","Exact","2091 N LOFGREN RD, ROLLING PR, IN, 46371",15404264,"R"
331408,"2091 NOSTRAND AVE","BROOKLYN","NY",11210,40.6345924130001,-73.947827511,408,"2091 NOSTRAND AVE, BROOKLYN, NY, 11210","Match","Exact","2091 NOSTRAND AVE, BROOKLYN, NY, 11210",59081735,"L"
331409,"2091 NOTTINGHAM","CASPER","WY",82609,42.829080376,-106.278649193,409,"2091 NOTTINGHAM, CASPER, WY, 82609","Match","Non_Exact","2091 NOTTINGHAM DR, CASPER, WY, 82609",149025957,"L"
331410,"2091 NW 190 AVE","PEMBROKE PINES","FL",33029,26.0209255440001,-80.4017297349999,410,"2091 NW 190 AVE, PEMBROKE PINES, FL, 33029","Match","Exact","2091 NW 190TH AVE, PEMBROKE PINES, FL, 33029",114781510,"R"
331411,"2091 NW 21 TERRACE APT 107","STUART","FL",34994,27.2311304790001,-80.2807181159999,411,"2091 NW 21 TERRACE APT 107, STUART, FL, 34994","Match","Non_Exact","2091 NW 21ST TER, STUART, FL, 34994",120451004,"R"
331412,"2091 NW 96TH TER UNIT 13E","LIGHTHOUSE POINT","FL",33064,NA,NA,412,"2091 NW 96TH TER UNIT 13E, LIGHTHOUSE POINT, FL, 33064","No_Match",NA,NA,NA,NA
331413,"2091 NW 96TH TER UNIT 13E","PEMBROKE PINES","FL",NA,NA,NA,413,"2091 NW 96TH TER UNIT 13E, PEMBROKE PINES, FL, ","Tie",NA,NA,NA,NA
331414,"2091 NW 96TH TER","PEMBROKE PINES","FL",33024,26.0263831770001,-80.274557403,414,"2091 NW 96TH TER, PEMBROKE PINES, FL, 33024","Match","Exact","2091 NW 96TH TER, PEMBROKE PINES, FL, 33024",114754189,"L"
331415,"2091 PINEHURST AVENUE","SAINT PAUL","MN",55116,44.9188742420001,-93.188675938,415,"2091 PINEHURST AVENUE, SAINT PAUL, MN, 55116","Match","Non_Exact","2091 W PINEHURST AVE, SAINT PAUL, MN, 55116",97639597,"R"
331416,"2091 PORTSMOUTH DR","EL DORADO HILLS","CA",95762,38.722790692,-121.08138152,416,"2091 PORTSMOUTH DR, EL DORADO HILLS, CA, 95762","Match","Exact","2091 PORTSMOUTH DR, EL DORADO HILLS, CA, 95762",639938415,"R"
331417,"2091 POWERS FARRY RD APARTMENT D","MARIETTA","GA",30067,33.901755828,-84.450360356,417,"2091 POWERS FARRY RD APARTMENT D, MARIETTA, GA, 30067","Match","Non_Exact","2091 POWERS FERRY RD SE, MARIETTA, GA, 30067",17252970,"L"
331418,"2091 RICH STREET","HAVRE","MT",59501,48.5439068330001,-109.717821032,418,"2091 RICH STREET, HAVRE, MT, 59501","Match","Non_Exact","2091 RICH ST W, HAVRE, MT, 59501",653871885,"R"
331419,"2091 RIO VISTA DRIVE","FALLBROOK","CA",92028,33.308579874,-117.213892505,419,"2091 RIO VISTA DRIVE, FALLBROOK, CA, 92028","Match","Exact","2091 RIO VISTA DR, FALLBROOK, CA, 92028",195287416,"R"
331420,"2091 RONALD REAGAN BLVD","ALTAMONTE SPRINGS","FL",32701,28.670662301,-81.356535661,420,"2091 RONALD REAGAN BLVD, ALTAMONTE SPRINGS, FL, 32701","Match","Non_Exact","2091 S RONALD REAGAN BLVD, ALTAMONTE SPRINGS, FL, 32701",93743252,"L"
331421,"2091 S BROADWAY","GRAND JUNCTION","CO",81507,39.0921406860001,-108.657322051,421,"2091 S BROADWAY, GRAND JUNCTION, CO, 81507","Match","Exact","2091 BROADWAY, GRAND JCT, CO, 81507",122430307,"R"
331422,"2091 S MARTINGALE RD","GILBERT","AZ",85295,33.312522626,-111.716794879,422,"2091 S MARTINGALE RD, GILBERT, AZ, 85295","Match","Exact","2091 S MARTINGALE RD, GILBERT, AZ, 85295",601668159,"L"
331423,"2091 S MILEDGE AVE UNIT B44","ATHENS","GA",30605,33.9239266000001,-83.378459049,423,"2091 S MILEDGE AVE UNIT B44, ATHENS, GA, 30605","Match","Non_Exact","2091 S MILLEDGE AVE, ATHENS, GA, 30605",642557334,"L"
331424,"2091 SCHOOL HOUSE LANE","AURORA","IL",60506,41.7596799040001,-88.365389885,424,"2091 SCHOOL HOUSE LANE, AURORA, IL, 60506","Match","Exact","2091 SCHOOL HOUSE LN, AURORA, IL, 60506",119549550,"L"
331425,"2091 SOUTH RONALD REAGAN BLVD","ALTAMONTE SPRINGS","FL",32701,28.670662301,-81.356535661,425,"2091 SOUTH RONALD REAGAN BLVD, ALTAMONTE SPRINGS, FL, 32701","Match","Exact","2091 S RONALD REAGAN BLVD, ALTAMONTE SPRINGS, FL, 32701",93743252,"L"
331426,"2091 SOUTH RONALD REAGAN","ALTAMONTE","FL",32701,28.670662301,-81.356535661,426,"2091 SOUTH RONALD REAGAN, ALTAMONTE, FL, 32701","Match","Non_Exact","2091 S RONALD REAGAN BLVD, ALTAMONTE SPRINGS, FL, 32701",93743252,"L"
331427,"2091 SULLIVAN LN","BARDSTOWN","KY",40004,37.8791961970001,-85.501090623,427,"2091 SULLIVAN LN, BARDSTOWN, KY, 40004","Match","Exact","2091 SULLIVAN LN, BARDSTOWN, KY, 40004",35139094,"L"
331428,"2091 TUNDRA CIRCLE","ERIE","CO",80516,40.0141465740001,-105.010338805,428,"2091 TUNDRA CIRCLE, ERIE, CO, 80516","Match","Exact","2091 TUNDRA CIR, ERIE, CO, 80516",614124466,"L"
331429,"2091 VAUGHAN RD","BENTON","MS",39039,32.7999491910001,-90.174590434,429,"2091 VAUGHAN RD, BENTON, MS, 39039","Match","Exact","2091 VAUGHAN RD, BENTON, MS, 39039",152204409,"L"
331430,"2091 WEST RIVERVIEW STREET","DECATUR","IL",62522,39.8356633980001,-88.991203259,430,"2091 WEST RIVERVIEW STREET, DECATUR, IL, 62522","Match","Exact","2091 W RIVERVIEW ST, DECATUR, IL, 62522",20758871,"L"
331431,"2091 WOODLAKE DRIVE","BENTON","LA",71006,32.658843201,-93.694065737,431,"2091 WOODLAKE DRIVE, BENTON, LA, 71006","Match","Exact","2091 WOODLAKE DR, BENTON, LA, 71006",108533177,"L"
331432,"20910 12TH AVE W","LYNNWOOD","WA",98036,47.8086266010001,-122.249449941,432,"20910 12TH AVE W, LYNNWOOD, WA, 98036","Match","Exact","20910 12TH AVE W, LYNNWOOD, WA, 98036",608923927,"L"
331433,"20910 FOXWOOD GLEN","HUMBLE","TX",77338,30.024044673,-95.314374086,433,"20910 FOXWOOD GLEN, HUMBLE, TX, 77338","Match","Non_Exact","20910 FOXWOOD GLEN LN, HUMBLE, TX, 77338",633572196,"L"
331434,"20911 CARAQUET CT","SPRING","TX",77386,NA,NA,434,"20911 CARAQUET CT, SPRING, TX, 77386","No_Match",NA,NA,NA,NA
331435,"20911 CHIPPOAKS FOREST CIRCLE","STERLING","VA",20165,39.036610662,-77.358614958,435,"20911 CHIPPOAKS FOREST CIRCLE, STERLING, VA, 20165","Match","Exact","20911 CHIPPOAKS FOREST CIR, STERLING, VA, 20165",62334804,"L"
331436,"20911 EARL STREET SUITE 260","TORRANCE","CA",90503,33.840342783,-118.358021992,436,"20911 EARL STREET SUITE 260, TORRANCE, CA, 90503","Match","Exact","20911 EARL ST, TORRANCE, CA, 90503",241243167,"R"
331437,"20911 MARSHFIELD CIRCLE","ALBANY","MN",56307,45.584532503,-94.5398456409999,437,"20911 MARSHFIELD CIRCLE, ALBANY, MN, 56307","Match","Exact","20911 MARSHFIELD CIR, ALBANY, MN, 56307",107438221,"R"
331438,"20911 SOUTH DENKER AVE","TORRANCE","CA",90501,33.8397253970001,-118.303924681,438,"20911 SOUTH DENKER AVE, TORRANCE, CA, 90501","Match","Non_Exact","20911 DENKER AVE, TORRANCE, CA, 90501",141668459,"R"
331439,"20912 W 53RD ST","SHAWNEE","KS",66218,39.0321863360001,-94.828906197,439,"20912 W 53RD ST, SHAWNEE, KS, 66218","Match","Exact","20912 W 53RD ST, SHAWNEE, KS, 66218",91356565,"L"
331440,"20913 RESERVE FALLS TER  APT-404","STERLING","VA",20165,39.0434017040001,-77.4201776519999,440,"20913 RESERVE FALLS TER  APT-404, STERLING, VA, 20165","Match","Exact","20913 RESERVE FALLS TER, STERLING, VA, 20165",218912605,"R"
331441,"20913 ROSABAY PLACE","GERMANTOWN","MD",20874,39.19933517,-77.270679166,441,"20913 ROSABAY PLACE, GERMANTOWN, MD, 20874","Match","Non_Exact","20913 ROSEBAY PL, GERMANTOWN, MD, 20874",62096257,"R"
331442,"20913 SW WILLAPA CT","TUALATIN","OR",97062,45.368552519,-122.774548541,442,"20913 SW WILLAPA CT, TUALATIN, OR, 97062","Match","Exact","20913 SW WILLAPA CT, TUALATIN, OR, 97062",158192951,"R"
331443,"20914 BAKE PARKWAY 106","LAKE FOREST","CA",92630,33.658786605,-117.699819915,443,"20914 BAKE PARKWAY 106, LAKE FOREST, CA, 92630","Match","Exact","20914 BAKE PKWY, LAKE FOREST, CA, 92630",609042273,"R"
331444,"20914 EDGEBASTON CT","HOUSTON","TX",77073,29.9981002800001,-95.4160635329999,444,"20914 EDGEBASTON CT, HOUSTON, TX, 77073","Match","Exact","20914 EDGEBASTON CT, HOUSTON, TX, 77073",630544294,"R"
331445,"20914 HAMACA CT","BOCA RATON","FL",33433,26.3658541560001,-80.144526468,445,"20914 HAMACA CT, BOCA RATON, FL, 33433","Match","Exact","20914 HAMACA CT, BOCA RATON, FL, 33433",115575141,"L"
331446,"20914 WEST 58TH STREET","SHAWNEE","KS",66218,39.0234722700001,-94.827436489,446,"20914 WEST 58TH STREET, SHAWNEE, KS, 66218","Match","Exact","20914 W 58TH ST, SHAWNEE, KS, 66218",91356589,"L"
331447,"20915  SE LANSING LANE","DAMASCUS","OR",97089,45.4194728030001,-122.446840074,447,"20915  SE LANSING LANE, DAMASCUS, OR, 97089","Match","Exact","20915 SE LANSING LN, DAMASCUS, OR, 97089",157977529,"L"
331448,"20915 CHATAM RIDGE","WESTFIELD","IN",46074,NA,NA,448,"20915 CHATAM RIDGE, WESTFIELD, IN, 46074","No_Match",NA,NA,NA,NA
331449,"20915 SW 143RD COURT","MIAMI","FL",33032,NA,NA,449,"20915 SW 143RD COURT, MIAMI, FL, 33032","No_Match",NA,NA,NA,NA
331450,"20916 AVENIDA AMAPOLA","LAKE FOREST","CA",92630,33.659357168,-117.690915471,450,"20916 AVENIDA AMAPOLA, LAKE FOREST, CA, 92630","Match","Exact","20916 AVE AMAPOLA, LAKE FOREST, CA, 92630",144111640,"R"
331451,"20916 BLUE BUSH CT","BEND","OR",97701,44.091103188,-121.278511398,451,"20916 BLUE BUSH CT, BEND, OR, 97701","Match","Exact","20916 BLUE BUSH CT, BEND, OR, 97701",611089877,"L"
331452,"20916 N CAMPER RD","RATHDRUM","ID",83858,47.8610981,-116.851582337,452,"20916 N CAMPER RD, RATHDRUM, ID, 83858","Match","Exact","20916 N CAMPER RD, RATHDRUM, ID, 83858",192944197,"R"
331453,"209168 COUNTY HWY 15","FERGUS FALLS","MN",56537,NA,NA,453,"209168 COUNTY HWY 15, FERGUS FALLS, MN, 56537","No_Match",NA,NA,NA,NA
331454,"20917 SE 12TH ST","SAMMAMISH","WA",98075,47.599051747,-122.058201555,454,"20917 SE 12TH ST, SAMMAMISH, WA, 98075","Match","Exact","20917 SE 12TH ST, SAMMAMISH, WA, 98075",186699043,"R"
331455,"20917 STREIT RD","HARVARD","IL",60033,42.3856980910001,-88.600569552,455,"20917 STREIT RD, HARVARD, IL, 60033","Match","Exact","20917 STREIT RD, HARVARD, IL, 60033",635509835,"R"
331456,"20918 1ST AVENUE SOUTH","DES MOINES","WA",98198,47.4145209060001,-122.334997026,456,"20918 1ST AVENUE SOUTH, DES MOINES, WA, 98198","Match","Exact","20918 1ST AVE S, DES MOINES, WA, 98198",186625704,"L"
331457,"20918 BOTSFORD DR APT 7","FARMINGTON HILLS","MI",48336,42.444494482,-83.324150672,457,"20918 BOTSFORD DR APT 7, FARMINGTON HILLS, MI, 48336","Match","Exact","20918 BOTSFORD DR, FARMINGTON HILLS, MI, 48336",69824470,"R"
331458,"20918 HIGHWAY 49","BLACK","MO",63625,NA,NA,458,"20918 HIGHWAY 49, BLACK, MO, 63625","No_Match",NA,NA,NA,NA
331459,"20918 WHITEHAVEN BLUFF TRAIL","KATY","TX",77449,NA,NA,459,"20918 WHITEHAVEN BLUFF TRAIL, KATY, TX, 77449","No_Match",NA,NA,NA,NA
331460,"20918 YOUNG MEADOWS WAY","KATY","TX",77449,29.8662527290001,-95.726559282,460,"20918 YOUNG MEADOWS WAY, KATY, TX, 77449","Match","Exact","20918 YOUNG MEADOWS WAY, KATY, TX, 77449",624656687,"L"
331461,"20918 YOUNG MEADOWS WAY","SANDBERG","TX",77449,29.8662527290001,-95.726559282,461,"20918 YOUNG MEADOWS WAY, SANDBERG, TX, 77449","Match","Non_Exact","20918 YOUNG MEADOWS WAY, KATY, TX, 77449",624656687,"L"
331462,"20919 ARCADIA DRIVE","BRISTOL","IN",46507,41.7227407940001,-85.8694634839999,462,"20919 ARCADIA DRIVE, BRISTOL, IN, 46507","Match","Exact","20919 ARCADIA DR, BRISTOL, IN, 46507",7772448,"L"
331463,"20919 BIRNAMWOOD APT 1112","HUMBLE","TX",77338,30.014731813,-95.3636034359999,463,"20919 BIRNAMWOOD APT 1112, HUMBLE, TX, 77338","Match","Non_Exact","20919 BIRNAMWOOD BLVD, HUMBLE, TX, 77338",645209355,"L"
331464,"20919 BIRNAMWOOD BLVD","HUMBLE","TX",77338,30.014731813,-95.3636034359999,464,"20919 BIRNAMWOOD BLVD, HUMBLE, TX, 77338","Match","Exact","20919 BIRNAMWOOD BLVD, HUMBLE, TX, 77338",645209355,"L"
331465,"20919 BIRNAMWOOD","HUMBLE","TX",77338,30.014731813,-95.3636034359999,465,"20919 BIRNAMWOOD, HUMBLE, TX, 77338","Match","Non_Exact","20919 BIRNAMWOOD BLVD, HUMBLE, TX, 77338",645209355,"L"
331466,"20919 BLOOMFIELD AVE 51","LAKEWOOD","CA",90715,33.8398989990001,-118.063361004,466,"20919 BLOOMFIELD AVE 51, LAKEWOOD, CA, 90715","Match","Exact","20919 BLOOMFIELD AVE, LAKEWOOD, CA, 90715",642866952,"R"
331467,"20919 KING DAVID","BEND","OR",97702,44.025683965,-121.278242381,467,"20919 KING DAVID, BEND, OR, 97702","Match","Non_Exact","20919 KING DAVID AVE, BEND, OR, 97702",152562768,"L"
331468,"20919 QUINT AVENUE NORTH","SCANDIA","MN",55073,45.2490594870001,-92.762253039,468,"20919 QUINT AVENUE NORTH, SCANDIA, MN, 55073","Match","Exact","20919 QUINT AVE N, SCANDIA, MN, 55073",97806976,"L"
331469,"20919 VERNE AVE","LAKEWOOD","CA",90715,33.8399446650001,-118.066797218,469,"20919 VERNE AVE, LAKEWOOD, CA, 90715","Match","Exact","20919 VERNE AVE, LAKEWOOD, CA, 90715",642863547,"R"
331470,"20919 W 65TH TERRACE","SHAWNEE","KS",66218,39.0102708360001,-94.8285030649999,470,"20919 W 65TH TERRACE, SHAWNEE, KS, 66218","Match","Exact","20919 W 65TH TER, SHAWNEE, KS, 66218",91267931,"L"
331471,"2092 ALBERT CIRCLE","WILMINGTON","NC",28403,34.2219040360001,-77.8952810499999,471,"2092 ALBERT CIRCLE, WILMINGTON, NC, 28403","Match","Exact","2092 ALBERT CIR, WILMINGTON, NC, 28403",640609415,"L"
331472,"2092 BAUGHMAN RD","JEANNETTE","PA",15644,40.368369941,-79.606425781,472,"2092 BAUGHMAN RD, JEANNETTE, PA, 15644","Match","Exact","2092 BAUGHMAN RD, JEANNETTE, PA, 15644",636647627,"L"
331473,"2092 BISHOP DRIVE","CHARLESTON","SC",29414,32.821971836,-80.0514338799999,473,"2092 BISHOP DRIVE, CHARLESTON, SC, 29414","Match","Exact","2092 BISHOP DR, CHARLESTON, SC, 29414",647151288,"R"
331474,"2092 BRECONRIDGE DRIVE","MARIETTA","GA",30064,33.913502658,-84.6134466779999,474,"2092 BRECONRIDGE DRIVE, MARIETTA, GA, 30064","Match","Exact","2092 BRECONRIDGE DR, MARIETTA, GA, 30064",17217616,"R"
331475,"2092 CHANCERY DR","LOVELAND","CO",80538,40.4113763070001,-105.047135159,475,"2092 CHANCERY DR, LOVELAND, CO, 80538","Match","Exact","2092 CHANCERY DR, LOVELAND, CO, 80538",188537530,"R"
331476,"2092 DAVIS BRIDGE RD","PARKTON","NC",28371,34.9372422530001,-79.042136654,476,"2092 DAVIS BRIDGE RD, PARKTON, NC, 28371","Match","Exact","2092 DAVIS BRIDGE RD, PARKTON, NC, 28371",608094835,"R"
331477,"2092 DEAUVILLE","LEXINGTON","KY",40504,38.054930531,-84.548582715,477,"2092 DEAUVILLE, LEXINGTON, KY, 40504","Match","Non_Exact","2092 DEAUVILLE DR, LEXINGTON, KY, 40504",31945450,"L"
331478,"2092 EAST NATIONAL PIKE","SCENERY HILL","PA",15360,40.0888872940001,-80.077078866,478,"2092 EAST NATIONAL PIKE, SCENERY HILL, PA, 15360","Match","Exact","2092 E NATIONAL PIKE, SCENERY HILL, PA, 15360",52811237,"R"
331479,"2092 FAIRWAYS LN","ROSEVILLE","MN",55113,45.0044749150001,-93.199446098,479,"2092 FAIRWAYS LN, ROSEVILLE, MN, 55113","Match","Exact","2092 FAIRWAYS LN, ROSEVILLE, MN, 55113",97666717,"R"
331480,"2092 JEWETT DR","COLUMBUS","OH",43229,40.097237573,-82.960480903,480,"2092 JEWETT DR, COLUMBUS, OH, 43229","Match","Exact","2092 JEWETT DR, COLUMBUS, OH, 43229",135570480,"L"
331481,"2092 JEWETT DRIVE","COLUMBUS","OH",43229,40.097237573,-82.960480903,481,"2092 JEWETT DRIVE, COLUMBUS, OH, 43229","Match","Exact","2092 JEWETT DR, COLUMBUS, OH, 43229",135570480,"L"
331482,"2092 KNIGHTS BRIDGE","CINCINNATI","OH",45244,39.0901473490001,-84.3191880049999,482,"2092 KNIGHTS BRIDGE, CINCINNATI, OH, 45244","Match","Non_Exact","2092 KNIGHTSBRIDGE DR, CINCINNATI, OH, 45244",103941127,"R"
331483,"2092 LAMONT NW","GRAND RAPIDS","MI",49544,NA,NA,483,"2092 LAMONT NW, GRAND RAPIDS, MI, 49544","No_Match",NA,NA,NA,NA
331484,"2092 LAUREN LANE","MEMPHIS","TN",38134,35.182529672,-89.829736877,484,"2092 LAUREN LANE, MEMPHIS, TN, 38134","Match","Non_Exact","2092 LAUREN LN, MEMPHIS, TN, 38133",72945381,"L"
331485,"2092 LAWLEY","DETROIT","MI",48212,42.40860264,-83.0736304599999,485,"2092 LAWLEY, DETROIT, MI, 48212","Match","Non_Exact","2092 LAWLEY ST, DETROIT, MI, 48212",95464718,"R"
331486,"2092 LIBERTYVILLE ROAD","FAIRFIELD","IA",52556,40.9883373640001,-91.969395096,486,"2092 LIBERTYVILLE ROAD, FAIRFIELD, IA, 52556","Match","Exact","2092 LIBERTYVILLE RD, FAIRFIELD, IA, 52556",616254564,"R"
331487,"2092 LINCOLNSHIRE DR","BEAVERCREEK","OH",45434,39.7264574810001,-84.0121618479999,487,"2092 LINCOLNSHIRE DR, BEAVERCREEK, OH, 45434","Match","Exact","2092 LINCOLNSHIRE DR, BEAVERCREEK, OH, 45434",641021774,"R"
331488,"2092 LONG RIFLE RIDGE RD","NEBO","NC",28761,35.755712293,-81.911045166,488,"2092 LONG RIFLE RIDGE RD, NEBO, NC, 28761","Match","Exact","2092 LONG RIFLE RIDGE RD, NEBO, NC, 28761",642247763,"R"
331489,"2092 MANGO GLEN","VISTA","CA",92084,33.2101611360001,-117.200248916,489,"2092 MANGO GLEN, VISTA, CA, 92084","Match","Exact","2092 MANGO GLEN, VISTA, CA, 92084",195752467,"L"
331490,"2092 NW 90TH STREET","CLIVE","IA",50325,41.6121537710001,-93.741904887,490,"2092 NW 90TH STREET, CLIVE, IA, 50325","Match","Exact","2092 NW 90TH ST, CLIVE, IA, 50325",65776260,"L"
331491,"2092 RODMAN BLVD","GALLATIN","TN",37066,36.360538515,-86.483555049,491,"2092 RODMAN BLVD, GALLATIN, TN, 37066","Match","Exact","2092 RODMAN BLVD, GALLATIN, TN, 37066",635425082,"L"
331492,"2092 SAN VINCENTE AVE","LONG BEACH","CA",90815,NA,NA,492,"2092 SAN VINCENTE AVE, LONG BEACH, CA, 90815","No_Match",NA,NA,NA,NA
331493,"2092 SCENIC HWY SUITE A","SNELLVILLE","GA",30078,33.8655992400001,-84.016626388,493,"2092 SCENIC HWY SUITE A, SNELLVILLE, GA, 30078","Match","Exact","2092 SCENIC HWY, SNELLVILLE, GA, 30078",638059250,"R"
331494,"2092 SIX MILE ROAD","CRYSTAL SPRINGS","MS",39059,31.9700201360001,-90.303233238,494,"2092 SIX MILE ROAD, CRYSTAL SPRINGS, MS, 39059","Match","Exact","2092 SIX MILE RD, CRYSTAL SPGS, MS, 39059",629611276,"L"
331495,"2092 STATE HWY 173 S","DEVINE","TX",78016,29.0983581730001,-98.869569108,495,"2092 STATE HWY 173 S, DEVINE, TX, 78016","Match","Exact","2092 STATE HWY 173 S, DEVINE, TX, 78016",102810373,"L"
331496,"2092 TANGLEWOOD WAY NE","ST PETERSBURG","FL",33703,27.8350583550001,-82.608292444,496,"2092 TANGLEWOOD WAY NE, ST PETERSBURG, FL, 33703","Match","Non_Exact","2092 TANGLEWOOD WAY NE, SAINT PETERSBURG, FL, 33702",124712708,"R"
331497,"2092 TURKEY CREEK ROAD","GLENMORA","LA",71433,30.9686067050001,-92.5588560419999,497,"2092 TURKEY CREEK ROAD, GLENMORA, LA, 71433","Match","Exact","2092 TURKEY CREEK RD, GLENMORA, LA, 71433",11789244,"R"
331498,"2092 W QUEENS WAY","HANFORD","CA",93230,36.346165855,-119.680309683,498,"2092 W QUEENS WAY, HANFORD, CA, 93230","Match","Exact","2092 W QUEENS WAY, HANFORD, CA, 93230",619911245,"R"
331499,"2092 WALDO WAY","DINUBA","CA",93618,36.534254511,-119.372534228,499,"2092 WALDO WAY, DINUBA, CA, 93618","Match","Exact","2092 WALDO WAY, DINUBA, CA, 93618",627968819,"L"
331500,"2092 WERNER STREET","MARQUETTE","MI",49855,46.5515112900001,-87.431977612,500,"2092 WERNER STREET, MARQUETTE, MI, 49855","Match","Exact","2092 WERNER ST, MARQUETTE, MI, 49855",182034645,"L"
