"ID","Address","City","State","Zip","lat","long","id","input_address","match_indicator","match_type","matched_address","tiger_line_id","tiger_side"
688501,"5081 27TH TERRACE N","ST PETERSBURG","FL",33710,NA,NA,1,"5081 27TH TERRACE N, ST PETERSBURG, FL, 33710","No_Match",NA,NA,NA,NA
688502,"5081 ARCH ST","MAPLE HTS","OH",44132,41.4222988340001,-81.55409761,2,"5081 ARCH ST, MAPLE HTS, OH, 44132","Match","Non_Exact","5081 ARCH ST, MAPLE HEIGHTS, OH, 44137",61129283,"L"
688503,"5081 BINGS WAY","HOUSE SPRINGS","MO",63051,38.397810571,-90.591640759,3,"5081 BINGS WAY, HOUSE SPRINGS, MO, 63051","Match","Exact","5081 BINGS WAY, HOUSE SPRINGS, MO, 63051",649560197,"L"
688504,"5081 DURBAN COURT","SAN JOSE","CA",95138,37.283196279,-121.776459234,4,"5081 DURBAN COURT, SAN JOSE, CA, 95138","Match","Exact","5081 DURBAN CT, SAN JOSE, CA, 95138",123010168,"L"
688505,"5081 EDGEWOOD DRIVE","MOUNDS VIEW","MN",55112,45.0950805940001,-93.203666112,5,"5081 EDGEWOOD DRIVE, MOUNDS VIEW, MN, 55112","Match","Exact","5081 EDGEWOOD DR, MOUNDS VIEW, MN, 55112",97634119,"L"
688506,"5081 ELM GROVE RD","BELTON","TX",76513,31.004903325,-97.461580874,6,"5081 ELM GROVE RD, BELTON, TX, 76513","Match","Exact","5081 ELM GROVE RD, BELTON, TX, 76513",146147257,"R"
688507,"5081 FLAMINGO CIRCLE","HUNTINGTON BEACH","CA",92649,33.7334492530001,-118.040470544,7,"5081 FLAMINGO CIRCLE, HUNTINGTON BEACH, CA, 92649","Match","Exact","5081 FLAMINGO CIR, HUNTINGTON BEACH, CA, 92649",144013974,"L"
688508,"5081 FOXBRIDGE CIRCLE NORTH APT 153","CLEARWATER","FL",33760,27.921347016,-82.702714289,8,"5081 FOXBRIDGE CIRCLE NORTH APT 153, CLEARWATER, FL, 33760","Match","Exact","5081 FOXBRIDGE CIR N, CLEARWATER, FL, 33760",649851210,"R"
688509,"5081 HAMPTON ROAD","CLEMMONS","NC",27012,35.9810305500001,-80.3679030919999,9,"5081 HAMPTON ROAD, CLEMMONS, NC, 27012","Match","Exact","5081 HAMPTON RD, CLEMMONS, NC, 27012",653462591,"L"
688510,"5081 HUNTERS PATH","SOMERSET","CA",95684,38.5999640790001,-120.653097573,10,"5081 HUNTERS PATH, SOMERSET, CA, 95684","Match","Exact","5081 HUNTERS PATH, SOMERSET, CA, 95684",133045697,"R"
688511,"5081 KINGS CAMP RD","ACWORTH","GA",30102,34.1147958240001,-84.691083454,11,"5081 KINGS CAMP RD, ACWORTH, GA, 30102","Match","Non_Exact","5081 KINGS CAMP RD SE, ACWORTH, GA, 30102",606327419,"L"
688512,"5081 LAKEWOOD DRIVE","SHALLOTTE","NC",28470,33.945817875,-78.427810643,12,"5081 LAKEWOOD DRIVE, SHALLOTTE, NC, 28470","Match","Non_Exact","5081 LAKEWOOD DR SW, SHALLOTTE, NC, 28470",153189022,"R"
688513,"5081 PORT ROYAL RD","SPRING HILL","TN",37174,35.747128753,-86.903003932,13,"5081 PORT ROYAL RD, SPRING HILL, TN, 37174","Match","Exact","5081 PORT ROYAL RD, SPRING HILL, TN, 37174",26904673,"L"
688514,"5081 SE BOBCAT LANE","PORT ORCHARD","WA",98367,47.458172485,-122.582266354,14,"5081 SE BOBCAT LANE, PORT ORCHARD, WA, 98367","Match","Exact","5081 SE BOBCAT LN, PORT ORCHARD, WA, 98367",187666308,"L"
688515,"5081 VERBENA DR","ACWORTH","GA",30102,34.068286422,-84.5683134989999,15,"5081 VERBENA DR, ACWORTH, GA, 30102","Match","Exact","5081 VERBENA DR, ACWORTH, GA, 30102",17225890,"R"
688516,"5081 WILL BROWN ROAD","SPRING HILL","TN",37174,35.6982278790001,-86.845986612,16,"5081 WILL BROWN ROAD, SPRING HILL, TN, 37174","Match","Exact","5081 WILL BROWN RD, SPRING HILL, TN, 37174",26888309,"R"
688517,"5081 WINCHESTER ROAD","LEXINGTON","KY",40509,38.0289703600001,-84.333510997,17,"5081 WINCHESTER ROAD, LEXINGTON, KY, 40509","Match","Exact","5081 WINCHESTER RD, LEXINGTON, KY, 40509",31929304,"L"
688518,"5081","PLANTATION","FL",33317,NA,NA,18,"5081, PLANTATION, FL, 33317","No_Match",NA,NA,NA,NA
688519,"50816 DEER RUN TRAIL","ELKHART","IN",46514,41.755988492,-85.9529537609999,19,"50816 DEER RUN TRAIL, ELKHART, IN, 46514","Match","Exact","50816 DEER RUN TRL, ELKHART, IN, 46514",617486693,"R"
688520,"50819 CHESAPEAKE DR","NOVI","MI",48374,42.472399997,-83.552998246,20,"50819 CHESAPEAKE DR, NOVI, MI, 48374","Match","Exact","50819 CHESAPEAKE DR, NOVI, MI, 48374",627104605,"L"
688521,"5082 BARRINGTON CIRCLE","SARASOTA","FL",34234,27.3766455260001,-82.551969754,21,"5082 BARRINGTON CIRCLE, SARASOTA, FL, 34234","Match","Exact","5082 BARRINGTON CIR, SARASOTA, FL, 34234",16428258,"R"
688522,"5082 CORNELL AVE","HUNTINGTON BEACH","CA",92649,NA,NA,22,"5082 CORNELL AVE, HUNTINGTON BEACH, CA, 92649","No_Match",NA,NA,NA,NA
688523,"5082 CORO RD","MEMPHIS","TN",38109,35.0092959520001,-90.117102156,23,"5082 CORO RD, MEMPHIS, TN, 38109","Match","Exact","5082 CORO RD, MEMPHIS, TN, 38109",72896855,"L"
688524,"5082 CR 132","WILDWOOD","FL",34785,28.880065879,-82.018814764,24,"5082 CR 132, WILDWOOD, FL, 34785","Match","Exact","5082 CO RD 132, WILDWOOD, FL, 34785",652544910,"L"
688525,"5082 E 200 N","FLORA","IN",46929,40.5759120330001,-86.4283533559999,25,"5082 E 200 N, FLORA, IN, 46929","Match","Exact","5082 E 200 N, FLORA, IN, 46929",27049406,"R"
688526,"5082 E HAMPDEN AVENUE SUITE 201","DENVER","CO",80222,NA,NA,26,"5082 E HAMPDEN AVENUE SUITE 201, DENVER, CO, 80222","No_Match",NA,NA,NA,NA
688527,"5082 E HAMPDEN AVENUE","DENVER","CO",80222,39.6530440020001,-104.928123541,27,"5082 E HAMPDEN AVENUE, DENVER, CO, 80222","Match","Exact","5082 E HAMPDEN AVE, DENVER, CO, 80222",652265417,"R"
688528,"5082 EAST HAMPDEN AVE SUITE 286","DENVER","CO",80222,NA,NA,28,"5082 EAST HAMPDEN AVE SUITE 286, DENVER, CO, 80222","No_Match",NA,NA,NA,NA
688529,"5082 GERTRUDE DRIVE","MEMPHIS","TN",38125,35.0098397040001,-89.811259487,29,"5082 GERTRUDE DRIVE, MEMPHIS, TN, 38125","Match","Exact","5082 GERTRUDE DR, MEMPHIS, TN, 38125",618710750,"L"
688530,"5082 GOULD CIR","CASTLE ROCK","CO",80109,39.3875886170001,-104.915443404,30,"5082 GOULD CIR, CASTLE ROCK, CO, 80109","Match","Exact","5082 GOULD CIR, CASTLE ROCK, CO, 80109",641116457,"R"
688531,"5082 HAPPY VALLEY ROAD","SEQUIM","WA",98382,48.054198797,-123.124640104,31,"5082 HAPPY VALLEY ROAD, SEQUIM, WA, 98382","Match","Exact","5082 HAPPY VALLEY RD, SEQUIM, WA, 98382",150852837,"L"
688532,"5082 KARRIKER CT","FT. MILL","SC",29707,35.018304121,-80.861638861,32,"5082 KARRIKER CT, FT. MILL, SC, 29707","Match","Exact","5082 KARRIKER CT, FORT MILL, SC, 29707",633775047,"R"
688533,"5082 NEWTON ROAD","ORCHARD PARK","NY",14127,42.7210368180001,-78.795527587,33,"5082 NEWTON ROAD, ORCHARD PARK, NY, 14127","Match","Exact","5082 NEWTON RD, ORCHARD PARK, NY, 14127",48310776,"L"
688534,"5082 PONDEROSA FARM RD","GAINESVILLE","GA",30507,34.18194106,-83.824410627,34,"5082 PONDEROSA FARM RD, GAINESVILLE, GA, 30507","Match","Exact","5082 PONDEROSA FARM RD, GAINESVILLE, GA, 30507",98255855,"L"
688535,"5082 QUITMAN STREET","DENVER","CO",80211,39.788854488,-105.040411673,35,"5082 QUITMAN STREET, DENVER, CO, 80211","Match","Non_Exact","5082 QUITMAN ST, DENVER, CO, 80212",177298385,"R"
688536,"5082 RENMILL DRIVE","HILLIARD","OH",43026,40.0040661100001,-83.144664076,36,"5082 RENMILL DRIVE, HILLIARD, OH, 43026","Match","Exact","5082 RENMILL DR, HILLIARD, OH, 43026",135629984,"R"
688537,"5082 S FERN COURT","CHANDLER","AZ",85248,33.231384539,-111.852187135,37,"5082 S FERN COURT, CHANDLER, AZ, 85248","Match","Exact","5082 S FERN CT, CHANDLER, AZ, 85248",128797503,"R"
688538,"5082 SOUTH GRAPE ST","DENVER","CO",80211,NA,NA,38,"5082 SOUTH GRAPE ST, DENVER, CO, 80211","No_Match",NA,NA,NA,NA
688539,"5082 TERRELL LN","SHEFFIELD VILLAGE","OH",44054,NA,NA,39,"5082 TERRELL LN, SHEFFIELD VILLAGE, OH, 44054","No_Match",NA,NA,NA,NA
688540,"5082 WEST SCOTT DRIVE","GREENWOOD","IN",46142,39.624270273,-86.199790268,40,"5082 WEST SCOTT DRIVE, GREENWOOD, IN, 46142","Match","Exact","5082 W SCOTT DR, GREENWOOD, IN, 46142",606996936,"R"
688541,"50820 MARSHA LANE","NEW BALTIMORE","MI",48047,42.6838628180001,-82.727842986,41,"50820 MARSHA LANE, NEW BALTIMORE, MI, 48047","Match","Exact","50820 MARSHA LN, NEW BALTIMORE, MI, 48047",640453339,"L"
688542,"50826 NORTHSTAR WAY","NORTHVILLE","MI",48168,42.4127857400001,-83.545194814,42,"50826 NORTHSTAR WAY, NORTHVILLE, MI, 48168","Match","Exact","50826 NORTHSTAR WAY, NORTHVILLE, MI, 48168",617695139,"R"
688543,"5083 BEDFORD","DETROIT","MI",48224,42.4027091890001,-82.941431704,43,"5083 BEDFORD, DETROIT, MI, 48224","Match","Exact","5083 BEDFORD, DETROIT, MI, 48224",95487185,"L"
688544,"5083 CABANNE AVENUE","ST. LOUIS","MO",63113,38.656417375,-90.2655516729999,44,"5083 CABANNE AVENUE, ST. LOUIS, MO, 63113","Match","Exact","5083 CABANNE AVE, SAINT LOUIS, MO, 63113",107593193,"R"
688545,"5083 CR 630","SHUBUTA","MS",39360,31.9475170690001,-88.577976683,45,"5083 CR 630, SHUBUTA, MS, 39360","Match","Exact","5083 CO RD 630, SHUBUTA, MS, 39360",612383116,"R"
688546,"5083 CRAWFORDSVILLE DRIVE","PORT CHARLOTTE","FL",33948,26.9570091370001,-82.148173481,46,"5083 CRAWFORDSVILLE DRIVE, PORT CHARLOTTE, FL, 33948","Match","Exact","5083 CRAWFORDSVILLE DR, PORT CHARLOTTE, FL, 33948",4301645,"R"
688547,"5083 E COUNTY ROAD 9S","MONTE VISTA","CO",81144,NA,NA,47,"5083 E COUNTY ROAD 9S, MONTE VISTA, CO, 81144","No_Match",NA,NA,NA,NA
688548,"5083 FOREST RD","MENTOR","OH",44060,41.7335554520001,-81.320047588,48,"5083 FOREST RD, MENTOR, OH, 44060","Match","Exact","5083 FOREST RD, MENTOR, OH, 44060",137461997,"L"
688549,"5083 MAGGIE DRIVE","STONE MOUNTAIN","GA",30087,33.8187547900001,-84.102629244,49,"5083 MAGGIE DRIVE, STONE MOUNTAIN, GA, 30087","Match","Non_Exact","5083 MAGGIE DR SW, STONE MOUNTAIN, GA, 30087",88887986,"R"
688550,"5083 MIDDLE CREEK RD","BURLINGTON","KY",41005,38.992814304,-84.788589126,50,"5083 MIDDLE CREEK RD, BURLINGTON, KY, 41005","Match","Exact","5083 MIDDLE CREEK RD, BURLINGTON, KY, 41005",640554648,"R"
688551,"5083 MIDDLECREEK RD","BURLINGTON","KY",41005,38.992814304,-84.788589126,51,"5083 MIDDLECREEK RD, BURLINGTON, KY, 41005","Match","Non_Exact","5083 MIDDLE CREEK RD, BURLINGTON, KY, 41005",640554648,"R"
688552,"5083 MILLER RD","FLINT","MI",48507,42.9751693200001,-83.774918084,52,"5083 MILLER RD, FLINT, MI, 48507","Match","Exact","5083 MILLER RD, FLINT, MI, 48507",617950158,"L"
688553,"5083 OVERLOOK POINT","HAMBURG","NY",14075,42.7495255800001,-78.8783927329999,53,"5083 OVERLOOK POINT, HAMBURG, NY, 14075","Match","Exact","5083 OVERLOOK PT, HAMBURG, NY, 14075",48293600,"L"
688554,"5083 PLANTATION CT","MASON","OH",45040,39.339646304,-84.312900987,54,"5083 PLANTATION CT, MASON, OH, 45040","Match","Exact","5083 PLANTATION CT, MASON, OH, 45040",159030896,"R"
688555,"5083 S WANDA GRAY AVE","SPRINGFIELD","MO",65810,37.122704062,-93.3234413069999,55,"5083 S WANDA GRAY AVE, SPRINGFIELD, MO, 65810","Match","Exact","5083 S WANDA GRAY AVE, SPRINGFIELD, MO, 65810",76693792,"R"
688556,"5083 ST CHARLES PLACE","CARMEL","IN",46033,39.94544582,-86.082057904,56,"5083 ST CHARLES PLACE, CARMEL, IN, 46033","Match","Exact","5083 SAINT CHARLES PL, CARMEL, IN, 46033",29315105,"L"
688557,"5083 VILLAGE FOUNTAIN PL","CENTREVILLE","VA",20120,NA,NA,57,"5083 VILLAGE FOUNTAIN PL, CENTREVILLE, VA, 20120","No_Match",NA,NA,NA,NA
688558,"5083","LACEY","WA",98509,NA,NA,58,"5083, LACEY, WA, 98509","No_Match",NA,NA,NA,NA
688559,"5084 64TH STREET","SACRAMENTO","CA",95820,38.5287505140001,-121.429461685,59,"5084 64TH STREET, SACRAMENTO, CA, 95820","Match","Exact","5084 64TH ST, SACRAMENTO, CA, 95820",652064598,"R"
688560,"5084 ATLANTIC VIEW","ST AUGUSTINE","FL",32080,29.8018264560001,-81.262081182,60,"5084 ATLANTIC VIEW, ST AUGUSTINE, FL, 32080","Match","Exact","5084 ATLANTIC VW, SAINT AUGUSTINE, FL, 32080",651760514,"R"
688561,"5084 COURTNEYS CORNER ROAD","SUMMERDUCK","VA",22742,38.495968045,-77.7140576209999,61,"5084 COURTNEYS CORNER ROAD, SUMMERDUCK, VA, 22742","Match","Non_Exact","5084 COURTNEYS CORNER RD, SUMERDUCK, VA, 22742",146296515,"L"
688562,"5084 DALY BLVD","FLINT","MI",48506,43.070600858,-83.615348061,62,"5084 DALY BLVD, FLINT, MI, 48506","Match","Exact","5084 DALY BLVD, FLINT, MI, 48506",69570078,"R"
688563,"5084 DE ZAVALA","SAN ANTONIO","TX",78249,29.565478996,-98.584603858,63,"5084 DE ZAVALA, SAN ANTONIO, TX, 78249","Match","Non_Exact","5084 DE ZAVALA RD, SAN ANTONIO, TX, 78249",650069532,"R"
688564,"5084 DONOVAN STREET","FRANKLIN","TN",37064,35.920864958,-86.916390221,64,"5084 DONOVAN STREET, FRANKLIN, TN, 37064","Match","Exact","5084 DONOVAN ST, FRANKLIN, TN, 37064",648013600,"R"
688565,"5084 DORSEY HALL DRIVE","ELLICOTT","MD",21042,39.2431802520001,-76.8350636879999,65,"5084 DORSEY HALL DRIVE, ELLICOTT, MD, 21042","Match","Non_Exact","5084 DORSEY HALL DR, ELLICOTT CITY, MD, 21042",614149203,"L"
688566,"5084 EASTON DRIVE","TUSCALOOSA","AL",35405,33.147635791,-87.470482249,66,"5084 EASTON DRIVE, TUSCALOOSA, AL, 35405","Match","Exact","5084 EASTON DR, TUSCALOOSA, AL, 35405",82245524,"L"
688567,"5084 KENSINGTON AVE","DETROIT","MI",48224,42.4048271820001,-82.935712612,67,"5084 KENSINGTON AVE, DETROIT, MI, 48224","Match","Non_Exact","5084 KENSINGTON, DETROIT, MI, 48224",95487259,"R"
688568,"5084 KENSINGTON","DETROIT","MI",48224,42.4048271820001,-82.935712612,68,"5084 KENSINGTON, DETROIT, MI, 48224","Match","Exact","5084 KENSINGTON, DETROIT, MI, 48224",95487259,"R"
688569,"5084 RIVER CHASE RIDGE","WINSTON SALEM","NC",27104,36.081359289,-80.362499306,69,"5084 RIVER CHASE RIDGE, WINSTON SALEM, NC, 27104","Match","Exact","5084 RIVER CHASE RIDGE, WINSTON SALEM, NC, 27104",84602434,"L"
688570,"5084 SE MARINER GARDEN CIR","STUART","FL",34997,NA,NA,70,"5084 SE MARINER GARDEN CIR, STUART, FL, 34997","No_Match",NA,NA,NA,NA
688571,"5084 SPORTSCRAFT DR","DAYTON","OH",45414,39.8216480310001,-84.161879138,71,"5084 SPORTSCRAFT DR, DAYTON, OH, 45414","Match","Exact","5084 SPORTSCRAFT DR, DAYTON, OH, 45414",143573351,"R"
688572,"5084 ZIMMERMAN LANE","LENA","WI",54139,44.8567833380001,-88.070554944,72,"5084 ZIMMERMAN LANE, LENA, WI, 54139","Match","Non_Exact","5084 ZIMMERMAN RD, LENA, WI, 54139",170324883,"R"
688573,"50840 PARSONS DR","SHELBY TWP","MI",48317,42.6668768120001,-83.0714907299999,73,"50840 PARSONS DR, SHELBY TWP, MI, 48317","Match","Exact","50840 PARSONS DR, SHELBY TOWNSHIP, MI, 48317",110732104,"R"
688574,"50841 OLD DOVER LANE","GRANGER","IN",46530,41.754544949,-86.2033162019999,74,"50841 OLD DOVER LANE, GRANGER, IN, 46530","Match","Exact","50841 OLD DOVER LN, GRANGER, IN, 46530",8059246,"L"
688575,"50842 CR 665","PAW PAW","MI",49079,42.23381067,-85.898215971,75,"50842 CR 665, PAW PAW, MI, 49079","Match","Exact","50842 CO RD 665, PAW PAW, MI, 49079",34755901,"L"
688576,"5085  FIVE FORK TRICKUM DR SW","LILBURN","GA",30047,NA,NA,76,"5085  FIVE FORK TRICKUM DR SW, LILBURN, GA, 30047","No_Match",NA,NA,NA,NA
688577,"5085 540TH ST SE","LONE TREE","IA",52755,41.5400505580001,-91.436254476,77,"5085 540TH ST SE, LONE TREE, IA, 52755","Match","Exact","5085 540TH ST SE, LONE TREE, IA, 52755",84492802,"L"
688578,"5085 ASHBURY PARK DR  APT 103","LAKELAND","FL",33805,NA,NA,78,"5085 ASHBURY PARK DR  APT 103, LAKELAND, FL, 33805","No_Match",NA,NA,NA,NA
688579,"5085 BAYSHORE DR","NAPLES","FL",34112,26.106564023,-81.7702858659999,79,"5085 BAYSHORE DR, NAPLES, FL, 34112","Match","Exact","5085 BAYSHORE DR, NAPLES, FL, 34112",115140335,"L"
688580,"5085 BULLSEYE  CT","CLINTON","MT",59825,46.822559599,-113.812086736,80,"5085 BULLSEYE  CT, CLINTON, MT, 59825","Match","Exact","5085 BULLSEYE CT, CLINTON, MT, 59825",205265785,"R"
688581,"5085 CAMEO TERRACE","PERRY HALL","MD",21128,39.4037044610001,-76.442046193,81,"5085 CAMEO TERRACE, PERRY HALL, MD, 21128","Match","Exact","5085 CAMEO TER, PERRY HALL, MD, 21128",637503434,"R"
688582,"5085 DAIS ROAD","REMBERT","SC",29128,34.064502395,-80.49342316,82,"5085 DAIS ROAD, REMBERT, SC, 29128","Match","Exact","5085 DAIS RD, REMBERT, SC, 29128",647233477,"R"
688583,"5085 E SUNVALLEY DR","LAS VEGAS","NV",89122,36.104842601,-115.062343476,83,"5085 E SUNVALLEY DR, LAS VEGAS, NV, 89122","Match","Non_Exact","5085 E SUN VALLEY DR, LAS VEGAS, NV, 89122",201878782,"R"
688584,"5085 ECR 134","BLYTHEVILLE","AR",72315,NA,NA,84,"5085 ECR 134, BLYTHEVILLE, AR, 72315","No_Match",NA,NA,NA,NA
688585,"5085 HALF ROUND ROAD","OSWEGO","IL",60543,NA,NA,85,"5085 HALF ROUND ROAD, OSWEGO, IL, 60543","No_Match",NA,NA,NA,NA
688586,"5085 JOHNSON STREET","KNOX","IN",46534,NA,NA,86,"5085 JOHNSON STREET, KNOX, IN, 46534","No_Match",NA,NA,NA,NA
688587,"5085 MCDOUGAL RD","DEER PARK","WA",99006,47.9241735530001,-117.605847696,87,"5085 MCDOUGAL RD, DEER PARK, WA, 99006","Match","Exact","5085 MCDOUGAL RD, DEER PARK, WA, 99006",174851447,"R"
688588,"5085 ORANGE AVENUE","SAN DIEGO","CA",92115,32.753049289,-117.085027403,88,"5085 ORANGE AVENUE, SAN DIEGO, CA, 92115","Match","Exact","5085 ORANGE AVE, SAN DIEGO, CA, 92115",612876080,"R"
688589,"5085 PARAGON DR","NEW LEXINGTON","OH",43764,39.7103209740001,-82.235149662,89,"5085 PARAGON DR, NEW LEXINGTON, OH, 43764","Match","Exact","5085 PARAGON DR, NEW LEXINGTON, OH, 43764",37367819,"L"
688590,"5085 RHOADS AVENUE D","SANTA BARBARA","CA",93111,34.42679479,-119.801299164,90,"5085 RHOADS AVENUE D, SANTA BARBARA, CA, 93111","Match","Exact","5085 RHOADS AVE, SANTA BARBARA, CA, 93111",108602543,"L"
688591,"5085 SHEFFIELD DR","EMPORIA","VA",23847,NA,NA,91,"5085 SHEFFIELD DR, EMPORIA, VA, 23847","No_Match",NA,NA,NA,NA
688592,"5085 STARRY SKY WAY","PARKER","CO",80134,39.4358524310001,-104.794312026,92,"5085 STARRY SKY WAY, PARKER, CO, 80134","Match","Exact","5085 STARRY SKY WAY, PARKER, CO, 80134",627316002,"R"
688593,"5085 TOWERING OAKS DRIVE","MARRERO","LA",70072,29.8717209930001,-90.101859511,93,"5085 TOWERING OAKS DRIVE, MARRERO, LA, 70072","Match","Non_Exact","5085 TOWERING OAKS AVE, MARRERO, LA, 70072",648090997,"R"
688594,"50858 E WYMER LAKE ROAD","FRAZEE","MN",56544,46.7012341490001,-95.710701683,94,"50858 E WYMER LAKE ROAD, FRAZEE, MN, 56544","Match","Exact","50858 E WYMER LAKE RD, FRAZEE, MN, 56544",168329501,"R"
688595,"5086 CANAL STREET","MILTON","FL",32570,30.6168114270001,-87.0393058289999,95,"5086 CANAL STREET, MILTON, FL, 32570","Match","Exact","5086 CANAL ST, MILTON, FL, 32570",74590198,"R"
688596,"5086 CANNON BLUFF DRIVE","WOODBRIDGE","VA",22192,38.70634576,-77.366107488,96,"5086 CANNON BLUFF DRIVE, WOODBRIDGE, VA, 22192","Match","Exact","5086 CANNON BLUFF DR, WOODBRIDGE, VA, 22192",207159348,"L"
688597,"5086 CHESNUT MTN RD","PALO PINTO","TX",76484,32.6532721950001,-98.2264178779999,97,"5086 CHESNUT MTN RD, PALO PINTO, TX, 76484","Match","Exact","5086 CHESNUT MOUNTAIN RD, PALO PINTO, TX, 76484",158859706,"L"
688598,"5086 CLEARWATER DR","TIMBERVILLE","VA",22853,38.6430263820001,-78.778377388,98,"5086 CLEARWATER DR, TIMBERVILLE, VA, 22853","Match","Exact","5086 CLEARWATER DR, TIMBERVILLE, VA, 22853",634315279,"L"
688599,"5086 KENMORE STREET","SPRING HILL","FL",34608,28.5033374020001,-82.537276501,99,"5086 KENMORE STREET, SPRING HILL, FL, 34608","Match","Exact","5086 KENMORE ST, SPRING HILL, FL, 34608",85424319,"L"
688600,"5086 LAMBETH CT NW","ACWORTH","GA",30101,34.0751620280001,-84.6628408349999,100,"5086 LAMBETH CT NW, ACWORTH, GA, 30101","Match","Non_Exact","5086 LAMBETH CT, ACWORTH, GA, 30101",17202523,"R"
688601,"5086 MARVIN DRIVE","SPRING LAKE","NC",28390,35.2544265490001,-78.94588977,101,"5086 MARVIN DRIVE, SPRING LAKE, NC, 28390","Match","Exact","5086 MARVIN DR, SPRING LAKE, NC, 28390",71984361,"L"
688602,"5086 OSBORNE CIRCLE","DUBLIN","CA",94568,37.7140624560001,-121.8692028,102,"5086 OSBORNE CIRCLE, DUBLIN, CA, 94568","Match","Non_Exact","5086 OSBORNE CT, DUBLIN, CA, 94568",651671757,"L"
688603,"5086 REIGATE COURT","FREDERICK","MD",21703,39.3714914490001,-77.437412654,103,"5086 REIGATE COURT, FREDERICK, MD, 21703","Match","Exact","5086 REIGATE CT, FREDERICK, MD, 21703",60748146,"L"
688604,"5086 S AMHERST HWY","MADISON HEIGHTS","VA",24572,37.431689508,-79.12313074,104,"5086 S AMHERST HWY, MADISON HEIGHTS, VA, 24572","Match","Exact","5086 S AMHERST HWY, MADISON HEIGHTS, VA, 24572",159108599,"R"
688605,"5086 WATERLOO RD","ATWATER","OH",44201,41.029518114,-81.2092428729999,105,"5086 WATERLOO RD, ATWATER, OH, 44201","Match","Exact","5086 WATERLOO RD, ATWATER, OH, 44201",649984475,"R"
688606,"50860 LEMPKE","NEW BALTIMORE","MI",48047,42.6749419130001,-82.745769174,106,"50860 LEMPKE, NEW BALTIMORE, MI, 48047","Match","Non_Exact","50860 LEMPKE ST, NEW BALTIMORE, MI, 48047",110666889,"R"
688607,"5087 BRIAN RIDGE ROAD","ARLINGTON","TN",38002,35.264745127,-89.6382278519999,107,"5087 BRIAN RIDGE ROAD, ARLINGTON, TN, 38002","Match","Exact","5087 BRIAN RIDGE RD, ARLINGTON, TN, 38002",637523133,"R"
688608,"5087 BROAD RUN CHURCH ROAD","WARRENTON","VA",20187,38.7643297770001,-77.713910902,108,"5087 BROAD RUN CHURCH ROAD, WARRENTON, VA, 20187","Match","Exact","5087 BROAD RUN CHURCH RD, WARRENTON, VA, 20187",146270406,"R"
688609,"5087 DYCUS ST","MEMPHIS","TN",38116,35.009579966,-90.024019728,109,"5087 DYCUS ST, MEMPHIS, TN, 38116","Match","Exact","5087 DYCUS ST, MEMPHIS, TN, 38116",72922583,"R"
688610,"5087 ECHO SHIRE AVENUE","LAS VEGAS","NV",89141,35.984695801,-115.210479756,110,"5087 ECHO SHIRE AVENUE, LAS VEGAS, NV, 89141","Match","Exact","5087 ECHO SHIRE AVE, LAS VEGAS, NV, 89141",632842232,"L"
688611,"5087 EDGEWATER DRIVE","ORLANDO","FL",32860,28.6050804160001,-81.4087783259999,111,"5087 EDGEWATER DRIVE, ORLANDO, FL, 32860","Match","Non_Exact","5087 EDGEWATER DR, ORLANDO, FL, 32810",637904961,"R"
688612,"5087 FARRIS CREEK CT","COLORADO SPRINGS","CO",80924,38.9667024730001,-104.734152229,112,"5087 FARRIS CREEK CT, COLORADO SPRINGS, CO, 80924","Match","Exact","5087 FARRIS CREEK CT, COLORADO SPRINGS, CO, 80924",610690384,"R"
688613,"5087 NORTH GALENA ROAD","SUNBURY","OH",43074,40.337039154,-82.919606855,113,"5087 NORTH GALENA ROAD, SUNBURY, OH, 43074","Match","Exact","5087 N GALENA RD, SUNBURY, OH, 43074",24587058,"R"
688614,"5087 PENRYN CT","LAS VEGAS","NV",89139,36.041261107,-115.210961024,114,"5087 PENRYN CT, LAS VEGAS, NV, 89139","Match","Non_Exact","5087 W PENRYN CT, LAS VEGAS, NV, 89139",624793673,"L"
688615,"5087 ROCKWOOD DR","GRAND BLANC","MI",48439,42.9576605990001,-83.6742895469999,115,"5087 ROCKWOOD DR, GRAND BLANC, MI, 48439","Match","Exact","5087 ROCKWOOD DR, GRAND BLANC, MI, 48439",69589073,"L"
688616,"5087 SHEELLBARK COURT","GROVEPORT","OH",43125,39.8702532250001,-82.8684830509999,116,"5087 SHEELLBARK COURT, GROVEPORT, OH, 43125","Match","Non_Exact","5087 SHELLBARK CT, GROVEPORT, OH, 43125",218666075,"R"
688617,"5087 SHERWOOD ROAD","BETHEL PARK","PA",15102,40.3339778260001,-80.03714404,117,"5087 SHERWOOD ROAD, BETHEL PARK, PA, 15102","Match","Exact","5087 SHERWOOD RD, BETHEL PARK, PA, 15102",51657250,"L"
688618,"5087 SUNBURST LANE","CHARLOTTE","NC",28213,35.3002318200001,-80.6749661549999,118,"5087 SUNBURST LANE, CHARLOTTE, NC, 28213","Match","Exact","5087 SUNBURST LN, CHARLOTTE, NC, 28213",634070953,"R"
688619,"5088 ABBINGTON WAY","BELMONT","NC",28012,35.282286883,-81.054123176,119,"5088 ABBINGTON WAY, BELMONT, NC, 28012","Match","Exact","5088 ABBINGTON WAY, BELMONT, NC, 28012",627771452,"R"
688620,"5088 ALTA CANYADA ROAD","LA CANADA","CA",91011,34.219336003,-118.210528312,120,"5088 ALTA CANYADA ROAD, LA CANADA, CA, 91011","Match","Exact","5088 ALTA CANYADA RD, LA CANADA, CA, 91011",141590626,"R"
688621,"5088 ANACOSTIA DRIVE","PLAINFIELD","IN",46168,39.687802275,-86.425755947,121,"5088 ANACOSTIA DRIVE, PLAINFIELD, IN, 46168","Match","Exact","5088 ANACOSTIA DR, PLAINFIELD, IN, 46168",646584576,"R"
688622,"5088 ARCTIC PLACE","RANCHO CUCAMONGA","CA",91739,34.162079625,-117.524752366,122,"5088 ARCTIC PLACE, RANCHO CUCAMONGA, CA, 91739","Match","Exact","5088 ARCTIC PL, ETIWANDA, CA, 91739",614813324,"L"
688623,"5088 ARTIC PL","RANCHO CUCAMONGA","CA",91739,NA,NA,123,"5088 ARTIC PL, RANCHO CUCAMONGA, CA, 91739","No_Match",NA,NA,NA,NA
688624,"5088 BOULDER PATH","BALLSTON SPA","NY",12020,43.0410691860001,-73.868992916,124,"5088 BOULDER PATH, BALLSTON SPA, NY, 12020","Match","Non_Exact","5088 BOULDER, BALLSTON SPA, NY, 12020",641134226,"L"
688625,"5088 CAMINO PLAYA ACAPULCO","SAN DIEGO","CA",92124,NA,NA,125,"5088 CAMINO PLAYA ACAPULCO, SAN DIEGO, CA, 92124","No_Match",NA,NA,NA,NA
688626,"5088 CROWNCHASE PARKWAY","HOOVER","AL",35244,NA,NA,126,"5088 CROWNCHASE PARKWAY, HOOVER, AL, 35244","No_Match",NA,NA,NA,NA
688627,"5088 JULIANA STREET","SIMI VALLEY","CA",93063,34.277500172,-118.693423388,127,"5088 JULIANA STREET, SIMI VALLEY, CA, 93063","Match","Exact","5088 JULIANA ST, SIMI VALLEY, CA, 93063",110044691,"R"
688628,"5088 LACKAWANNA BLVD","N CHARLESTON","SC",29405,32.885976188,-79.995820335,128,"5088 LACKAWANNA BLVD, N CHARLESTON, SC, 29405","Match","Exact","5088 LACKAWANNA BLVD, N CHARLESTON, SC, 29405",108799332,"L"
688629,"5088 OVALO","LAGUNA WOODS","CA",92637,33.6159051490001,-117.746709148,129,"5088 OVALO, LAGUNA WOODS, CA, 92637","Match","Exact","5088 OVALO, LAGUNA WOODS, CA, 92637",144061815,"R"
688630,"5088 PURDY CREEK RD","HORNELL","NY",14843,42.2467336380001,-77.6939671969999,130,"5088 PURDY CREEK RD, HORNELL, NY, 14843","Match","Exact","5088 PURDY CREEK RD, HORNELL, NY, 14843",14714640,"R"
688631,"5088 WEST 16TH STREET","SPEEDWAY","IN",46224,39.7873298100001,-86.2471587799999,131,"5088 WEST 16TH STREET, SPEEDWAY, IN, 46224","Match","Exact","5088 W 16TH ST, SPEEDWAY, IN, 46224",107978644,"R"
688632,"50880 33RD ST","PAW PAW","MI",49079,42.2339843620001,-85.872296864,132,"50880 33RD ST, PAW PAW, MI, 49079","Match","Exact","50880 33RD ST, PAW PAW, MI, 49079",624043405,"L"
688633,"50880 SEADEN","CHESTERFIELD","MI",48047,42.672919404,-82.8014676779999,133,"50880 SEADEN, CHESTERFIELD, MI, 48047","Match","Non_Exact","50880 SEADEN DR, CHESTERFIELD, MI, 48047",110665919,"R"
688634,"5089 ERSNT CT","ORLANDO","FL",32819,NA,NA,134,"5089 ERSNT CT, ORLANDO, FL, 32819","No_Match",NA,NA,NA,NA
688635,"5089 GENEW ROAD","FLOODWOOD","MN",55736,46.8788282800001,-92.885082773,135,"5089 GENEW ROAD, FLOODWOOD, MN, 55736","Match","Exact","5089 GENEW RD, FLOODWOOD, MN, 55736",163237044,"L"
688636,"5089 GOVERNMENT BLVD APT 725","MOBILE","AL",36693,30.6112376090001,-88.161070119,136,"5089 GOVERNMENT BLVD APT 725, MOBILE, AL, 36693","Match","Exact","5089 GOVERNMENT BLVD, MOBILE, AL, 36693",61933579,"R"
688637,"5089 GOVERNMENT STREET","MOBILE","AL",36693,30.6112376090001,-88.161070119,137,"5089 GOVERNMENT STREET, MOBILE, AL, 36693","Match","Non_Exact","5089 GOVERNMENT BLVD, MOBILE, AL, 36693",61933579,"R"
688638,"5089 ISLAND VIEW DRIVE","OSHKOSH","WI",54901,44.091772491,-88.488415134,138,"5089 ISLAND VIEW DRIVE, OSHKOSH, WI, 54901","Match","Exact","5089 ISLAND VIEW DR, OSHKOSH, WI, 54901",74496785,"L"
688639,"5089 JOHNSTOWN ROAD","NEW ALBANY","OH",43054,40.059076045,-82.835115864,139,"5089 JOHNSTOWN ROAD, NEW ALBANY, OH, 43054","Match","Non_Exact","5089 E JOHNSTOWN RD, NEW ALBANY, OH, 43054",646879960,"L"
688640,"5089 LEMONS RD","FORT WORTH","TX",76140,32.586451073,-97.249987193,140,"5089 LEMONS RD, FORT WORTH, TX, 76140","Match","Exact","5089 LEMONS RD, FORT WORTH, TX, 76140",102129525,"L"
688641,"5089 MAUNALANI CIRCLE","HONOLULU","HI",96816,21.298105756,-157.787401106,141,"5089 MAUNALANI CIRCLE, HONOLULU, HI, 96816","Match","Exact","5089 MAUNALANI CIR, HONOLULU, HI, 96816",203258800,"R"
688642,"5089 S 175TH CIR","OMAHA","NE",68135,41.2062000110001,-96.187757012,142,"5089 S 175TH CIR, OMAHA, NE, 68135","Match","Exact","5089 S 175TH CIR, OMAHA, NE, 68135",117002260,"L"
688643,"5089 S MEADOW LARK DRIVE","CASTLE ROCK","CO",80109,39.41167935,-104.912544169,143,"5089 S MEADOW LARK DRIVE, CASTLE ROCK, CO, 80109","Match","Exact","5089 S MEADOW LARK DR, CASTLE ROCK, CO, 80109",130821507,"R"
688644,"5089 S STRATHMORE STATION DR","ROGERS","AR",72758,36.290267451,-94.210727858,144,"5089 S STRATHMORE STATION DR, ROGERS, AR, 72758","Match","Exact","5089 S STRATHMORE STATION DR, ROGERS, AR, 72758",47879720,"R"
688645,"5089 STAPETON TERRACE","FREDERICK","MD",21703,NA,NA,145,"5089 STAPETON TERRACE, FREDERICK, MD, 21703","No_Match",NA,NA,NA,NA
688646,"5089 STATE RD Y","DE SOTO","MO",63020,NA,NA,146,"5089 STATE RD Y, DE SOTO, MO, 63020","No_Match",NA,NA,NA,NA
688647,"5089 STATE ROUTE 12","ELMA","WA",98541,NA,NA,147,"5089 STATE ROUTE 12, ELMA, WA, 98541","No_Match",NA,NA,NA,NA
688648,"5089 UPPER FALLS CT","LAS VEGAS","NV",89141,36.000325483,-115.209949496,148,"5089 UPPER FALLS CT, LAS VEGAS, NV, 89141","Match","Non_Exact","5089 W UPPER FALLS CT, LAS VEGAS, NV, 89141",626606800,"L"
688649,"5089 W COLONIAL COURT","GREENFIELD","WI",53220,42.9769614100001,-87.977757245,149,"5089 W COLONIAL COURT, GREENFIELD, WI, 53220","Match","Exact","5089 COLONIAL CT, GREENFIELD, WI, 53220",639196591,"L"
688650,"5089 WATERMAN BLVD","SAINT LOUIS","MO",63108,38.6484696300001,-90.2669108549999,150,"5089 WATERMAN BLVD, SAINT LOUIS, MO, 63108","Match","Exact","5089 WATERMAN BLVD, SAINT LOUIS, MO, 63108",618275780,"R"
688651,"50890 PINE MEADOWS CT","GRANGER","IN",46530,41.754912103,-86.077342742,151,"50890 PINE MEADOWS CT, GRANGER, IN, 46530","Match","Exact","50890 PINE MEADOWS CT, GRANGER, IN, 46530",8071399,"R"
688652,"50890 TOWNSHIP ROAD 910","CLARINGTON","OH",43915,NA,NA,152,"50890 TOWNSHIP ROAD 910, CLARINGTON, OH, 43915","No_Match",NA,NA,NA,NA
688653,"50895 SW PATTON VALLEY RD","GASTON","OR",97119,45.438281556,-123.19995605,153,"50895 SW PATTON VALLEY RD, GASTON, OR, 97119","Match","Exact","50895 SW PATTON VALLEY RD, GASTON, OR, 97119",158174054,"L"
688654,"508A 16TH STREET APT 3","BROOKLYN","NY",11215,40.659035626,-73.977563667,154,"508A 16TH STREET APT 3, BROOKLYN, NY, 11215","Match","Exact","508 16TH ST, BROOKLYN, NY, 11215",59078295,"R"
688655,"508A CEASAR STREET","GRANITE QUARRY","NC",28072,NA,NA,155,"508A CEASAR STREET, GRANITE QUARRY, NC, 28072","No_Match",NA,NA,NA,NA
688656,"509 1/2 E GREEN ST APT 4","CHAMPAIGN","IL",61820,40.110282672,-88.23180553,156,"509 1/2 E GREEN ST APT 4, CHAMPAIGN, IL, 61820","Match","Exact","509 E GREEN ST, CHAMPAIGN, IL, 61820",8812025,"R"
688657,"509 1/2 WARD AVENUE","OCEAN SPRINGS","MS",39564,30.410133322,-88.821193872,157,"509 1/2 WARD AVENUE, OCEAN SPRINGS, MS, 39564","Match","Exact","509 WARD AVE, OCEAN SPRINGS, MS, 39564",89258400,"L"
688658,"509 12TH AVE CT","MILTON","WA",98354,47.253581588,-122.317756648,158,"509 12TH AVE CT, MILTON, WA, 98354","Match","Exact","509 12TH AVENUE CT, MILTON, WA, 98354",184678951,"R"
688659,"509 13TH ST STE 7","MODESTO","CA",95307,37.637971926,-120.991879162,159,"509 13TH ST STE 7, MODESTO, CA, 95307","Match","Non_Exact","509 13TH ST, MODESTO, CA, 95354",102604936,"L"
688660,"509 16TH AVE W","EVELETH","MN",55734,47.4557101730001,-92.5763749019999,160,"509 16TH AVE W, EVELETH, MN, 55734","Match","Exact","509 16TH AVE W, EVELETH, MN, 55734",612821687,"R"
688661,"509 1ST STREET","BUCHANAN","VT",24066,NA,NA,161,"509 1ST STREET, BUCHANAN, VT, 24066","No_Match",NA,NA,NA,NA
688662,"509 23RD AVENUE","COUNCIL BLUFFS","IA",50401,41.2393123940001,-95.852785587,162,"509 23RD AVENUE, COUNCIL BLUFFS, IA, 50401","Match","Non_Exact","509 23RD AVE, COUNCIL BLUFFS, IA, 51501",43925831,"L"
688663,"509 23RD ST NE","SALEM","OR",97301,44.9380167300001,-123.010328305,163,"509 23RD ST NE, SALEM, OR, 97301","Match","Exact","509 23RD ST NE, SALEM, OR, 97301",156250489,"L"
688664,"509 2ND ST","ST LAWRENCEBURG","TN",38464,35.2442518600001,-87.322153876,164,"509 2ND ST, ST LAWRENCEBURG, TN, 38464","Match","Non_Exact","509 2ND ST, LAWRENCEBURG, TN, 38464",26834848,"L"
688665,"509 33RD STREET SE","WASHINGTON","DC",20019,38.882752424,-76.959814684,165,"509 33RD STREET SE, WASHINGTON, DC, 20019","Match","Exact","509 33RD ST SE, WASHINGTON, DC, 20019",76231911,"R"
688666,"509 3RD ST","TOWANDA","PA",18848,41.765039631,-76.445617451,166,"509 3RD ST, TOWANDA, PA, 18848","Match","Exact","509 3RD ST, TOWANDA, PA, 18848",176961476,"R"
688667,"509 3RD ST","TRENTON","ND",58853,48.0715117240001,-103.842723498,167,"509 3RD ST, TRENTON, ND, 58853","Match","Exact","509 3RD ST, TRENTON, ND, 58853",649259607,"L"
688668,"509 4 AVE NW","KENMARE","ND",58746,48.6757585840001,-102.088775632,168,"509 4 AVE NW, KENMARE, ND, 58746","Match","Exact","509 4TH AVE NW, KENMARE, ND, 58746",200496935,"L"
688669,"509 48TH AVENUE APT 7G","LONG ISLAND CITY","NY",11101,NA,NA,169,"509 48TH AVENUE APT 7G, LONG ISLAND CITY, NY, 11101","No_Match",NA,NA,NA,NA
688670,"509 49TH AVENUE","BELLWOOD","IL",60104,41.8828601390001,-87.893038385,170,"509 49TH AVENUE, BELLWOOD, IL, 60104","Match","Exact","509 49TH AVE, BELLWOOD, IL, 60104",111726766,"L"
688671,"509 4TH AVE SOUTH","JACKSONVILLE","FL",32250,30.2840500040001,-81.3934194,171,"509 4TH AVE SOUTH, JACKSONVILLE, FL, 32250","Match","Exact","509 4TH AVE S, JACKSONVILLE, FL, 32250",83923828,"R"
688672,"509 4TH ST NW","INDEPENDENCE","IA",50644,42.471354869,-91.899411495,172,"509 4TH ST NW, INDEPENDENCE, IA, 50644","Match","Exact","509 4TH ST NW, INDEPENDENCE, IA, 50644",101137598,"L"
688673,"509 55TH ST","LUBBOCK","TX",79404,33.544202157,-101.841025255,173,"509 55TH ST, LUBBOCK, TX, 79404","Match","Exact","509 55TH ST, LUBBOCK, TX, 79404",185255669,"L"
688674,"509 5TH STREET","OSAWATOMIE","KS",66064,NA,NA,174,"509 5TH STREET, OSAWATOMIE, KS, 66064","No_Match",NA,NA,NA,NA
688675,"509 6TH AVE NE","CROSBY","MN",56441,46.487093035,-93.941888857,175,"509 6TH AVE NE, CROSBY, MN, 56441","Match","Exact","509 6TH AVE NE, CROSBY, MN, 56441",162818171,"R"
688676,"509 9TH ST","EVANSTON","WY",82930,41.2646458950001,-110.967879635,176,"509 9TH ST, EVANSTON, WY, 82930","Match","Exact","509 9TH ST, EVANSTON, WY, 82930",606026853,"R"
688677,"509 ACACIA AVE","SEBASTIAN","FL",32958,27.8007910440001,-80.483104348,177,"509 ACACIA AVE, SEBASTIAN, FL, 32958","Match","Exact","509 ACACIA AVE, SEBASTIAN, FL, 32958",120329488,"L"
688678,"509 AFFIRMED AVE","MIDLAND","TX",79705,32.0520216800001,-102.092048536,178,"509 AFFIRMED AVE, MIDLAND, TX, 79705","Match","Exact","509 AFFIRMED AVE, MIDLAND, TX, 79705",618364513,"R"
688679,"509 AMY CIRCLE","BRYANT","AR",72022,34.586662502,-92.496543641,179,"509 AMY CIRCLE, BRYANT, AR, 72022","Match","Exact","509 AMY CIR, BRYANT, AR, 72022",24221484,"R"
688680,"509 ARBOR LAKE DRIVE","CRESTVIEW","FL",32536,30.7704867950001,-86.575136427,180,"509 ARBOR LAKE DRIVE, CRESTVIEW, FL, 32536","Match","Exact","509 ARBOR LAKE DR, CRESTVIEW, FL, 32536",651735369,"L"
688681,"509 ARCOLA DRIVE","COLUMBIA","SC",29172,34.1262066040001,-80.900785974,181,"509 ARCOLA DRIVE, COLUMBIA, SC, 29172","Match","Non_Exact","509 ARCOLA DR, COLUMBIA, SC, 29223",71870462,"R"
688682,"509 ARLINGTON AVE","LAKEWOOD","NJ",8701,NA,NA,182,"509 ARLINGTON AVE, LAKEWOOD, NJ, 8701","Tie",NA,NA,NA,NA
688683,"509 ARMSTRONG AVE","APOLLO","PA",15613,40.585444212,-79.5651140959999,183,"509 ARMSTRONG AVE, APOLLO, PA, 15613","Match","Exact","509 ARMSTRONG AVE, APOLLO, PA, 15613",52474580,"L"
688684,"509 ARNIES LOOP","CAPE CHARLES","VA",23310,37.2527863230001,-76.002945274,184,"509 ARNIES LOOP, CAPE CHARLES, VA, 23310","Match","Exact","509 ARNIES LOOP, CAPE CHARLES, VA, 23310",199488426,"R"
688685,"509 ASH STREET","MORRISON","MO",65061,38.671016019,-91.5638607819999,185,"509 ASH STREET, MORRISON, MO, 65061","Match","Exact","509 ASH ST, MORRISON, MO, 65061",45237277,"L"
688686,"509 ASTOR CIR","NORFOLK","VA",23505,36.9119723750001,-76.258012212,186,"509 ASTOR CIR, NORFOLK, VA, 23505","Match","Exact","509 ASTOR CIR, NORFOLK, VA, 23505",122134245,"R"
688687,"509 ASTOR COURT","DOTHAN","AL",36301,31.1852772840001,-85.397561568,187,"509 ASTOR COURT, DOTHAN, AL, 36301","Match","Exact","509 ASTOR CT, DOTHAN, AL, 36301",101222936,"R"
688688,"509 AVELLINO ISLES UNIT 37101","NAPLES","FL",34119,26.233942095,-81.7255065579999,188,"509 AVELLINO ISLES UNIT 37101, NAPLES, FL, 34119","Match","Non_Exact","509 AVELLINO ISLES CIR, NAPLES, FL, 34119",619701941,"R"
688689,"509 AVON BELDEN RD","AVON LAKE","OH",44133,41.4924297160001,-82.018957239,189,"509 AVON BELDEN RD, AVON LAKE, OH, 44133","Match","Non_Exact","509 AVON BELDEN RD, AVON LAKE, OH, 44012",55410298,"L"
688690,"509 B COVERDELL LEGISLATIVE BUILDIN","ATLANTA","GA",30334,NA,NA,190,"509 B COVERDELL LEGISLATIVE BUILDIN, ATLANTA, GA, 30334","No_Match",NA,NA,NA,NA
688691,"509 B MINOR ST","SENECA","SC",29678,34.6720069400001,-82.972114255,191,"509 B MINOR ST, SENECA, SC, 29678","Match","Exact","509 B MINOR ST, SENECA, SC, 29678",638937699,"R"
688692,"509 B WILLIAM REUBEN DR","ENDICOTT","NY",13760,42.116828679,-76.042600821,192,"509 B WILLIAM REUBEN DR, ENDICOTT, NY, 13760","Match","Exact","509 WILLIAM REUBEN DR, ENDICOTT, NY, 13760",46337645,"L"
688693,"509 BALDWIN ROAD","SUMMIT","NY",12175,42.5563491250001,-74.587844745,193,"509 BALDWIN ROAD, SUMMIT, NY, 12175","Match","Exact","509 BALDWIN RD, SUMMIT, NY, 12175",649868783,"L"
688694,"509 BARBARA DRIVE","EAST NORRITON","PA",19403,40.15057216,-75.336167095,194,"509 BARBARA DRIVE, EAST NORRITON, PA, 19403","Match","Exact","509 BARBARA DR, EAST NORRITON, PA, 19403",135074410,"R"
688695,"509 BARCELONA DR","SATSUMA","AL",36572,30.8671196020001,-88.036704329,195,"509 BARCELONA DR, SATSUMA, AL, 36572","Match","Exact","509 BARCELONA DR, SATSUMA, AL, 36572",61866313,"L"
688696,"509 BARNARD STREET","SAVANNAH","GA",31401,32.0706399690001,-81.097505429,196,"509 BARNARD STREET, SAVANNAH, GA, 31401","Match","Exact","509 BARNARD ST, SAVANNAH, GA, 31401",6175447,"R"
688697,"509 BARNSIDE LANE","CINCINNATI","OH",45233,39.1192328600001,-84.689100744,197,"509 BARNSIDE LANE, CINCINNATI, OH, 45233","Match","Exact","509 BARNSIDE LN, CINCINNATI, OH, 45233",645417037,"R"
688698,"509 BAYFIELD DRIVE","WILMINGTON","NC",28411,34.285076685,-77.786213903,198,"509 BAYFIELD DRIVE, WILMINGTON, NC, 28411","Match","Exact","509 BAYFIELD DR, WILMINGTON, NC, 28411",609938354,"L"
688699,"509 BEALL STREET","CUMBERLAND","MD",21502,39.6484239010001,-78.774126274,199,"509 BEALL STREET, CUMBERLAND, MD, 21502","Match","Exact","509 BEALL ST, CUMBERLAND, MD, 21502",123312395,"R"
688700,"509 BELAIR AVE","MERRITT ISLAND","FL",32953,28.3675495300001,-80.6894244649999,200,"509 BELAIR AVE, MERRITT ISLAND, FL, 32953","Match","Exact","509 BELAIR AVE, MERRITT ISLAND, FL, 32953",93897756,"R"
688701,"509 BELLEMEAD CR","AVONDALE","PA",19311,39.8050394790001,-75.800368428,201,"509 BELLEMEAD CR, AVONDALE, PA, 19311","Match","Exact","509 BELLEMEAD CIR, AVONDALE, PA, 19311",179530472,"L"
688702,"509 BELMONT CIRCLE","WAKE FOREST","NC",27587,36.03728283,-78.5592575009999,202,"509 BELMONT CIRCLE, WAKE FOREST, NC, 27587","Match","Exact","509 BELMONT CIR, WAKE FOREST, NC, 27587",611854904,"L"
688703,"509 BELOIT AVE UNIT 1","FOREST PARK","IL",60130,41.877382821,-87.811952906,203,"509 BELOIT AVE UNIT 1, FOREST PARK, IL, 60130","Match","Exact","509 BELOIT AVE, FOREST PARK, IL, 60130",111754593,"R"
688704,"509 BIRCH DRIVE","FREDERICKSBURG","IA",50630,42.959656485,-92.200420293,204,"509 BIRCH DRIVE, FREDERICKSBURG, IA, 50630","Match","Exact","509 BIRCH DR, FREDERICKSBURG, IA, 50630",9735242,"R"
688705,"509 BIRDSELL STREET","SOUTH BEND","IN",46628,41.6813943770001,-86.273240523,205,"509 BIRDSELL STREET, SOUTH BEND, IN, 46628","Match","Exact","509 BIRDSELL ST, SOUTH BEND, IN, 46628",8087213,"L"
688706,"509 BLACK DIAMOND DRIVE","RIO VISTA","CA",94571,38.184490199,-121.706779159,206,"509 BLACK DIAMOND DRIVE, RIO VISTA, CA, 94571","Match","Exact","509 BLACK DIAMOND DR, RIO VISTA, CA, 94571",192595912,"R"
688707,"509 BLACK DIAMOND RD","PORT ANGELE","WA",98363,48.1068132190001,-123.45474566,207,"509 BLACK DIAMOND RD, PORT ANGELE, WA, 98363","Match","Non_Exact","509 BLACK DIAMOND RD, PORT ANGELES, WA, 98363",623984974,"R"
688708,"509 BLACK DIAMOND RD","PORT ANGELES","WA",98363,48.1068132190001,-123.45474566,208,"509 BLACK DIAMOND RD, PORT ANGELES, WA, 98363","Match","Exact","509 BLACK DIAMOND RD, PORT ANGELES, WA, 98363",623984974,"R"
688709,"509 BLACKBURN CT","SEVEN FIELDS","PA",16046,40.6787359510001,-80.06461605,209,"509 BLACKBURN CT, SEVEN FIELDS, PA, 16046","Match","Exact","509 BLACKBURN CT, SEVEN FIELDS, PA, 16046",52685056,"L"
688710,"509 BOLSON DRIVE","OCONOMOWOC","WI",53066,43.0987069350001,-88.492642511,210,"509 BOLSON DRIVE, OCONOMOWOC, WI, 53066","Match","Exact","509 BOLSON DR, OCONOMOWOC, WI, 53066",53826773,"L"
688711,"509 BORDEN RD","LEXINGTON","VA",24450,37.7899454860001,-79.4512879069999,211,"509 BORDEN RD, LEXINGTON, VA, 24450","Match","Exact","509 BORDEN RD, LEXINGTON, VA, 24450",63117838,"R"
688712,"509 BOULEVARD DR SO","AMORY","MS",38821,33.9824479280001,-88.4777633159999,212,"509 BOULEVARD DR SO, AMORY, MS, 38821","Match","Exact","509 BOULEVARD DR S, AMORY, MS, 38821",611766583,"R"
688713,"509 BOUNDARY AVENUE","HANOVER","PA",17331,39.79255089,-76.983698991,213,"509 BOUNDARY AVENUE, HANOVER, PA, 17331","Match","Exact","509 BOUNDARY AVE, HANOVER, PA, 17331",88710267,"L"
688714,"509 BRANCH CROSSING DRIVE","COVINGTON","LA",70435,30.502404837,-90.098899928,214,"509 BRANCH CROSSING DRIVE, COVINGTON, LA, 70435","Match","Exact","509 BRANCH CROSSING DR, COVINGTON, LA, 70435",111321819,"L"
688715,"509 BRANCH VALLEY DRIVE","DALLAS","GA",30132,34.021524759,-84.762876685,215,"509 BRANCH VALLEY DRIVE, DALLAS, GA, 30132","Match","Exact","509 BRANCH VALLEY DR, DALLAS, GA, 30132",618959921,"L"
688716,"509 BRAND LANE 72","STAFFORD","TX",77477,29.6201955110001,-95.5779846249999,216,"509 BRAND LANE 72, STAFFORD, TX, 77477","Match","Exact","509 BRAND LN, STAFFORD, TX, 77477",78348567,"R"
688717,"509 BRIARWOOD DR","WHITEHALL","OH",43213,39.9658043900001,-82.872380009,217,"509 BRIARWOOD DR, WHITEHALL, OH, 43213","Match","Exact","509 BRIARWOOD DR, WHITEHALL, OH, 43213",218680348,"R"
688718,"509 BRINGERHOFF","SANTA MONICA","CA",93101,NA,NA,218,"509 BRINGERHOFF, SANTA MONICA, CA, 93101","No_Match",NA,NA,NA,NA
688719,"509 BROAD LEAF DRIVE","MCKINNEY","TX",75070,NA,NA,219,"509 BROAD LEAF DRIVE, MCKINNEY, TX, 75070","No_Match",NA,NA,NA,NA
688720,"509 BROAD ST","TATAMY","PA",18085,40.7402332940001,-75.2541281649999,220,"509 BROAD ST, TATAMY, PA, 18085","Match","Exact","509 BROAD ST, TATAMY, PA, 18085",136881103,"L"
688721,"509 BROADWAY","PATERSON","NJ",7514,40.9183891920001,-74.1524477789999,221,"509 BROADWAY, PATERSON, NJ, 7514","Match","Non_Exact","509 BROADWAY AVE, PATERSON, NJ, 07514",65264443,"L"
688722,"509 BROOKDALE DR","ALAMOGORDO","NM",88220,32.879516643,-105.955846011,222,"509 BROOKDALE DR, ALAMOGORDO, NM, 88220","Match","Non_Exact","509 BROOKDALE DR, ALAMOGORDO, NM, 88310",639194036,"L"
688723,"509 BROOKNEEL","ST CHARLES","MO",63304,38.7311170020001,-90.685644321,223,"509 BROOKNEEL, ST CHARLES, MO, 63304","Match","Non_Exact","509 BROOKNEAL DR, SAINT CHARLES, MO, 63304",100048910,"R"
688724,"509 BROWN CIRCLE DRIVE","OSAWATOMIE","KS",66064,38.4965110050001,-94.9630991129999,224,"509 BROWN CIRCLE DRIVE, OSAWATOMIE, KS, 66064","Match","Exact","509 BROWN CIRCLE DR, OSAWATOMIE, KS, 66064",85216217,"R"
688725,"509 BRUNSWICK AVE","EMPORIA","VA",23847,36.687488785,-77.551051951,225,"509 BRUNSWICK AVE, EMPORIA, VA, 23847","Match","Exact","509 BRUNSWICK AVE, EMPORIA, VA, 23847",54236607,"L"
688726,"509 BUCKINGHAM PLACE","DESOTO","TX",75115,32.5820393280001,-96.859574298,226,"509 BUCKINGHAM PLACE, DESOTO, TX, 75115","Match","Exact","509 BUCKINGHAM PL, DESOTO, TX, 75115",103186191,"R"
688727,"509 BUTLER RD","FOREST CITY","NC",28043,35.328411101,-81.892804149,227,"509 BUTLER RD, FOREST CITY, NC, 28043","Match","Exact","509 BUTLER RD, FOREST CITY, NC, 28043",636316783,"R"
688728,"509 CAMINO DE NEVADA","BISBEE","AZ",85603,NA,NA,228,"509 CAMINO DE NEVADA, BISBEE, AZ, 85603","No_Match",NA,NA,NA,NA
688729,"509 CANDACE COURT","EULESS","TX",76039,32.873240905,-97.0908037309999,229,"509 CANDACE COURT, EULESS, TX, 76039","Match","Exact","509 CANDACE CT, EULESS, TX, 76039",101869052,"L"
688730,"509 CARAWAY CT","ST JOHNS","FL",32259,30.1070288990001,-81.609966244,230,"509 CARAWAY CT, ST JOHNS, FL, 32259","Match","Exact","509 CARAWAY CT, SAINT JOHNS, FL, 32259",92608401,"L"
688731,"509 CARLISLE WAY","NORFOLK","VA",23505,36.9041125420001,-76.284481403,231,"509 CARLISLE WAY, NORFOLK, VA, 23505","Match","Exact","509 CARLISLE WAY, NORFOLK, VA, 23505",122133416,"L"
688732,"509 CAROLINA WOODS DR","Myrtle Beach","SC",29588,33.6285353330001,-79.065977633,232,"509 CAROLINA WOODS DR, Myrtle Beach, SC, 29588","Match","Exact","509 CAROLINA WOODS DR, MYRTLE BEACH, SC, 29588",627542828,"R"
688733,"509 CAROLINE ST","TEMPLE TERRACE","FL",33617,28.04480074,-82.389785855,233,"509 CAROLINE ST, TEMPLE TERRACE, FL, 33617","Match","Non_Exact","509 CAROLYNE ST, TEMPLE TER, FL, 33617",104532535,"R"
688734,"509 CARRIAGE LANE","LEBANON","TN",37087,36.2496354210001,-86.328677924,234,"509 CARRIAGE LANE, LEBANON, TN, 37087","Match","Exact","509 CARRIAGE LN, LEBANON, TN, 37087",650641446,"L"
688735,"509 CARY WOODS CIR","CARY","IL",60013,42.198599013,-88.237092648,235,"509 CARY WOODS CIR, CARY, IL, 60013","Match","Exact","509 CARY WOODS CIR, CARY, IL, 60013",119872200,"L"
688736,"509 CASSWAY","CHESAPEAKE","VA",23323,NA,NA,236,"509 CASSWAY, CHESAPEAKE, VA, 23323","No_Match",NA,NA,NA,NA
688737,"509 CASTLE DRIVE APT D","BALTIMORE","MD",21212,39.372327393,-76.607342005,237,"509 CASTLE DRIVE APT D, BALTIMORE, MD, 21212","Match","Exact","509 CASTLE DR, BALTIMORE, MD, 21212",191474094,"R"
688738,"509 CATTAIL CIRCLE","GARDENDALE","AL",35071,33.693972423,-86.827754789,238,"509 CATTAIL CIRCLE, GARDENDALE, AL, 35071","Match","Exact","509 CATTAIL CIR, GARDENDALE, AL, 35071",81562974,"R"
688739,"509 CEDAR ARBOR COURT","ST. AUGUSTINE","FL",32084,29.9230337220001,-81.350770776,239,"509 CEDAR ARBOR COURT, ST. AUGUSTINE, FL, 32084","Match","Exact","509 CEDAR ARBOR CT, SAINT AUGUSTINE, FL, 32084",637540878,"L"
688740,"509 CEDAR AVENUE","KNOXVILLE","TN",37917,35.998733391,-83.938593751,240,"509 CEDAR AVENUE, KNOXVILLE, TN, 37917","Match","Exact","509 CEDAR AVE, KNOXVILLE, TN, 37917",42617542,"L"
688741,"509 CEDAR HILL ROAD","FAR ROCKAWAY","NY",11691,40.602772266,-73.7389281769999,241,"509 CEDAR HILL ROAD, FAR ROCKAWAY, NY, 11691","Match","Exact","509 CEDAR HILL RD, FAR ROCKAWAY, NY, 11691",59730587,"L"
688742,"509 CEDAR LANE","ORANGEBURG","SC",29115,33.473825715,-80.90046405,242,"509 CEDAR LANE, ORANGEBURG, SC, 29115","Match","Non_Exact","509 CEDAR LN SW, ORANGEBURG, SC, 29115",19215995,"R"
688743,"509 CEDARWOOD CT","BARBERTON","OH",44203,40.99656479,-81.5967661889999,243,"509 CEDARWOOD CT, BARBERTON, OH, 44203","Match","Exact","509 CEDARWOOD CT, BARBERTON, OH, 44203",625491611,"R"
688744,"509 CHAMBERS AVE","RED LODGE","MT",59068,45.192491278,-109.241887723,244,"509 CHAMBERS AVE, RED LODGE, MT, 59068","Match","Non_Exact","509 N CHAMBERS AVE, RED LODGE, MT, 59068",180407803,"L"
688745,"509 CHARLES","NEWTON","IL",62448,38.9860731860001,-88.1585120079999,245,"509 CHARLES, NEWTON, IL, 62448","Match","Non_Exact","509 CHARLES ST, NEWTON, IL, 62448",27004130,"R"
688746,"509 CHESTER PLACE","POMONA","CA",91768,34.0659761260001,-117.759508121,246,"509 CHESTER PLACE, POMONA, CA, 91768","Match","Non_Exact","509 W CHESTER PL, POMONA, CA, 91768",141733615,"R"
688747,"509 CHICAGO AVE SW PO BOX 297","RED LAKE FALLS","MN",56750,47.879009728,-96.278816921,247,"509 CHICAGO AVE SW PO BOX 297, RED LAKE FALLS, MN, 56750","Match","Exact","509 CHICAGO AVE SW, RED LAKE FALLS, MN, 56750",203165131,"R"
688748,"509 CHRISTIAN STREET","VIVIAN","LA",71802,NA,NA,248,"509 CHRISTIAN STREET, VIVIAN, LA, 71802","No_Match",NA,NA,NA,NA
688749,"509 CHURCH STREET","LAFAYETTE","TN",37083,36.52527761,-86.036543361,249,"509 CHURCH STREET, LAFAYETTE, TN, 37083","Match","Exact","509 CHURCH ST, LAFAYETTE, TN, 37083",29696813,"L"
688750,"509 CINTILLA PL","BISBEE","AZ",85603,31.3925660240001,-109.923514329,250,"509 CINTILLA PL, BISBEE, AZ, 85603","Match","Exact","509 CINTILLA PL, BISBEE, AZ, 85603",120905792,"R"
688751,"509 CLAYDELLE AVE","EL CAJON","CA",92020,32.7899159140001,-116.958789078,251,"509 CLAYDELLE AVE, EL CAJON, CA, 92020","Match","Exact","509 CLAYDELLE AVE, EL CAJON, CA, 92020",195329400,"L"
688752,"509 CLINTON AVE","PLAINFIELD","NJ",7063,40.5984470600001,-74.439778525,252,"509 CLINTON AVE, PLAINFIELD, NJ, 7063","Match","Exact","509 CLINTON AVE, PLAINFIELD, NJ, 07063",60602371,"L"
688753,"509 COLGATE COURT","BENSALEM","PA",19020,40.1103505950001,-74.9109229319999,253,"509 COLGATE COURT, BENSALEM, PA, 19020","Match","Exact","509 COLGATE CT, BENSALEM, PA, 19020",134759358,"L"
688754,"509 CONNER CREEK DRIVE","FISHERS","IN",46038,39.9564504630001,-86.037102039,254,"509 CONNER CREEK DRIVE, FISHERS, IN, 46038","Match","Exact","509 CONNER CREEK DR, FISHERS, IN, 46038",29334458,"R"
688755,"509 COPHER CT","EUILESS","TX",76040,32.830139909,-97.0755220629999,255,"509 COPHER CT, EUILESS, TX, 76040","Match","Non_Exact","509 COPHER CT, EULESS, TX, 76040",101874775,"L"
688756,"509 COPHER CT","EULESS","TX",76040,32.830139909,-97.0755220629999,256,"509 COPHER CT, EULESS, TX, 76040","Match","Exact","509 COPHER CT, EULESS, TX, 76040",101874775,"L"
688757,"509 CORAL REEF LANE","GLENN HEIGHTS","TX",75154,32.564868,-96.868078789,257,"509 CORAL REEF LANE, GLENN HEIGHTS, TX, 75154","Match","Exact","509 CORAL REEF LN, GLENN HEIGHTS, TX, 75154",103279779,"L"
688758,"509 CORAL WAY","DELRAY BEACH","FL",33445,26.469962348,-80.1017776319999,258,"509 CORAL WAY, DELRAY BEACH, FL, 33445","Match","Exact","509 CORAL WAY, DELRAY BEACH, FL, 33445",115312043,"L"
688759,"509 CORLEW CT","CHESAPEAKE","VA",23320,36.7402557780001,-76.2526299739999,259,"509 CORLEW CT, CHESAPEAKE, VA, 23320","Match","Exact","509 CORLEW CT, CHESAPEAKE, VA, 23320",624285296,"L"
688760,"509 CORNERSTONE ST","LYNCHBURG","VA",24502,37.3457234850001,-79.2258102229999,260,"509 CORNERSTONE ST, LYNCHBURG, VA, 24502","Match","Exact","509 CORNERSTONE ST, LYNCHBURG, VA, 24502",651945853,"L"
688761,"509 COUNTRY CLUB DRIVE","STOCKBRIDGE","GA",30281,33.515470839,-84.218980444,261,"509 COUNTRY CLUB DRIVE, STOCKBRIDGE, GA, 30281","Match","Exact","509 COUNTRY CLUB DR, STOCKBRIDGE, GA, 30281",640024688,"R"
688762,"509 COUNTY RD 23","RIDGWAY","CO",81432,38.084964083,-107.708096194,262,"509 COUNTY RD 23, RIDGWAY, CO, 81432","Match","Exact","509 CO RD 23, RIDGWAY, CO, 81432",91865272,"L"
688763,"509 CR 115","HICKORY RIDGE","AR",72347,35.392211284,-91.0289918839999,263,"509 CR 115, HICKORY RIDGE, AR, 72347","Match","Exact","509 CO RD 115, HICKORY RIDGE, AR, 72347",69171719,"R"
688764,"509 CR 129","SAN AUGUSTINE","TX",75972,31.5503996030001,-94.032324355,264,"509 CR 129, SAN AUGUSTINE, TX, 75972","Match","Exact","509 CR 129, SAN AUGUSTINE, TX, 75972",72670187,"L"
688765,"509 CR 236A","CAMERON","TX",76520,NA,NA,265,"509 CR 236A, CAMERON, TX, 76520","No_Match",NA,NA,NA,NA
688766,"509 CREEKVIEW CT","DESOTO","TX",75115,32.5957503860001,-96.877147615,266,"509 CREEKVIEW CT, DESOTO, TX, 75115","Match","Exact","509 CREEKVIEW CT, DESOTO, TX, 75115",650698949,"R"
688767,"509 CROWNWOOD CT","EDGEWOOD","MD",21040,39.4202743880001,-76.310422552,267,"509 CROWNWOOD CT, EDGEWOOD, MD, 21040","Match","Exact","509 CROWNWOOD CT, EDGEWOOD, MD, 21040",191644495,"R"
688768,"509 CYPRESS AVE","SAN JOSE","CA",95117,37.318258219,-121.959789867,268,"509 CYPRESS AVE, SAN JOSE, CA, 95117","Match","Non_Exact","509 S CYPRESS AVE, SAN JOSE, CA, 95117",122997320,"R"
688769,"509 D COVERDELL LEGISLATIVE BUILDIN","ATLATNA","GA",30334,NA,NA,269,"509 D COVERDELL LEGISLATIVE BUILDIN, ATLATNA, GA, 30334","No_Match",NA,NA,NA,NA
688770,"509 DAVIE ROAD","CARRBORO","NC",27510,35.9104270180001,-79.084192005,270,"509 DAVIE ROAD, CARRBORO, NC, 27510","Match","Exact","509 DAVIE RD, CARRBORO, NC, 27510",72378309,"R"
688771,"509 DELAWARE ST UNIT 504","KANSAS CITY","MO",64105,39.1079643830001,-94.5840422429999,271,"509 DELAWARE ST UNIT 504, KANSAS CITY, MO, 64105","Match","Exact","509 DELAWARE ST, KANSAS CITY, MO, 64105",91444939,"L"
688772,"509 DELAWARE","KANSAS CITY","MO",64108,NA,NA,272,"509 DELAWARE, KANSAS CITY, MO, 64108","No_Match",NA,NA,NA,NA
688773,"509 DINGE BAY DR","ROUND ROCK","TX",78664,30.4905820020001,-97.603931014,273,"509 DINGE BAY DR, ROUND ROCK, TX, 78664","Match","Non_Exact","509 DING BAY DR, ROUND ROCK, TX, 78664",619970957,"R"
688774,"509 DOGWOOD CT","FUQUAY VARINA","NC",27526,NA,NA,274,"509 DOGWOOD CT, FUQUAY VARINA, NC, 27526","No_Match",NA,NA,NA,NA
688775,"509 DOLPHIN POINT CT","N LAS VEGAS","NV",89081,36.252754171,-115.133896204,275,"509 DOLPHIN POINT CT, N LAS VEGAS, NV, 89081","Match","Non_Exact","509 E DOLPHIN POINT CT, N LAS VEGAS, NV, 89081",624344496,"L"
688776,"509 DORSEYVILLE ROAD","FOX CHAPEL,","PA",15238,40.5243545920001,-79.9122615589999,276,"509 DORSEYVILLE ROAD, FOX CHAPEL,, PA, 15238","Match","Non_Exact","509 DORSEYVILLE RD, BLAWNOX, PA, 15238",636373219,"L"
688777,"509 DOUBLETREE CT","RICHLAND","WA",99354,46.3138590450001,-119.274099993,277,"509 DOUBLETREE CT, RICHLAND, WA, 99354","Match","Exact","509 DOUBLETREE CT, RICHLAND, WA, 99354",174986702,"L"
688778,"509 DOVE HAVEN","ROUND ROCK","TX",78664,30.5057178180001,-97.670049164,278,"509 DOVE HAVEN, ROUND ROCK, TX, 78664","Match","Non_Exact","509 DOVE HAVEN DR, ROUND ROCK, TX, 78664",126423708,"R"
688779,"509 DRIFTWOOD","LOWELL","AR",72745,36.2657003850001,-94.1910419599999,279,"509 DRIFTWOOD, LOWELL, AR, 72745","Match","Non_Exact","509 DRIFTWOOD ST, LOWELL, AR, 72745",614093868,"R"
688780,"509 DUNBAR STREET","WACO","TX",76705,31.5776549450001,-97.138743699,280,"509 DUNBAR STREET, WACO, TX, 76705","Match","Non_Exact","509 DUNBAR ST, WACO, TX, 76704",146735410,"R"
688781,"509 DUNSTAN RD","ELDON","MO",65026,38.3464016990001,-92.592828122,281,"509 DUNSTAN RD, ELDON, MO, 65026","Match","Non_Exact","509 DUNSTAN DR, ELDON, MO, 65026",640207241,"L"
688782,"509 DUNWOODY COURT","FRANKLIN","TN",37069,35.949595489,-86.8649380849999,282,"509 DUNWOODY COURT, FRANKLIN, TN, 37069","Match","Exact","509 DUNWOODY CT, FRANKLIN, TN, 37069",73123551,"L"
688783,"509 E 10TH STREET","MCCAMEY","TX",79752,31.1299592070001,-102.21687727,283,"509 E 10TH STREET, MCCAMEY, TX, 79752","Match","Exact","509 E 10TH ST, MCCAMEY, TX, 79752",186090627,"L"
688784,"509 E 25TH ST N","NEWTON","IA",50208,41.7037299090001,-93.021016561,284,"509 E 25TH ST N, NEWTON, IA, 50208","Match","Exact","509 E 25TH ST N, NEWTON, IA, 50208",89425813,"L"
688785,"509 E 30TH ST","DAVENPORT","IA",52803,41.5509792350001,-90.567975265,285,"509 E 30TH ST, DAVENPORT, IA, 52803","Match","Exact","509 E 30TH ST, DAVENPORT, IA, 52803",624628800,"R"
688786,"509 E 38TH ST","AUSTIN","TX",78705,30.298632141,-97.729651497,286,"509 E 38TH ST, AUSTIN, TX, 78705","Match","Exact","509 E 38TH ST, AUSTIN, TX, 78705",63945614,"R"
688787,"509 E 38TH STREET","AUSTIN","TX",78705,30.298632141,-97.729651497,287,"509 E 38TH STREET, AUSTIN, TX, 78705","Match","Exact","509 E 38TH ST, AUSTIN, TX, 78705",63945614,"R"
688788,"509 E 3RD ST","BROOKLYN","NY",11218,40.6393847310001,-73.9766372719999,288,"509 E 3RD ST, BROOKLYN, NY, 11218","Match","Exact","509 E 3RD ST, BROOKLYN, NY, 11218",59080618,"L"
688789,"509 E 3RD STREET","BROOKLYN","NY",11218,40.6393847310001,-73.9766372719999,289,"509 E 3RD STREET, BROOKLYN, NY, 11218","Match","Exact","509 E 3RD ST, BROOKLYN, NY, 11218",59080618,"L"
688790,"509 E 41 ST","AUSTIN","TX",78751,30.301818699,-97.726705838,290,"509 E 41 ST, AUSTIN, TX, 78751","Match","Exact","509 E 41ST ST, AUSTIN, TX, 78751",63945894,"R"
688791,"509 E 4TH AVE","RITZVILLE","WA",99169,47.128389456,-118.370987182,291,"509 E 4TH AVE, RITZVILLE, WA, 99169","Match","Exact","509 E 4TH AVE, RITZVILLE, WA, 99169",181845354,"L"
688792,"509 E 75TH ST - 2ND FL","CHICAGO","IL",60619,41.758454376,-87.612285417,292,"509 E 75TH ST - 2ND FL, CHICAGO, IL, 60619","Match","Non_Exact","509 E 75TH ST, CHICAGO, IL, 60619",111772577,"R"
688793,"509 E 75TH ST FL 2","CHICAGO","IL",60619,41.758454376,-87.612285417,293,"509 E 75TH ST FL 2, CHICAGO, IL, 60619","Match","Non_Exact","509 E 75TH ST, CHICAGO, IL, 60619",111772577,"R"
688794,"509 E 75TH STREET","CHICAGO","IL",60619,41.758454376,-87.612285417,294,"509 E 75TH STREET, CHICAGO, IL, 60619","Match","Exact","509 E 75TH ST, CHICAGO, IL, 60619",111772577,"R"
688795,"509 E ASHLEY STREET","SILOAM SPRINGS","AR",72761,36.1868335340001,-94.5378993859999,295,"509 E ASHLEY STREET, SILOAM SPRINGS, AR, 72761","Match","Exact","509 E ASHLEY ST, SILOAM SPRINGS, AR, 72761",47829411,"L"
688796,"509 E ATKINSON","BUTLER","MO",64730,NA,NA,296,"509 E ATKINSON, BUTLER, MO, 64730","No_Match",NA,NA,NA,NA
688797,"509 E ATLANTC BLVD","OCEAN CITY","NJ",8226,39.2920003890001,-74.55625448,297,"509 E ATLANTC BLVD, OCEAN CITY, NJ, 8226","Match","Non_Exact","509 E ATLANTIC BLVD, OCEAN CITY, NJ, 08226",174343577,"R"
688798,"509 E AVE D","ROSEBUD","TX",76570,31.0778899200001,-96.9711546779999,298,"509 E AVE D, ROSEBUD, TX, 76570","Match","Exact","509 AVE D, ROSEBUD, TX, 76570",636347107,"R"
688799,"509 E BEECH AVE","MCALLEN","TX",78501,NA,NA,299,"509 E BEECH AVE, MCALLEN, TX, 78501","Tie",NA,NA,NA,NA
688800,"509 E BRIDGE ST","BLACKWELL","OK",74631,36.8032541270001,-97.276572142,300,"509 E BRIDGE ST, BLACKWELL, OK, 74631","Match","Non_Exact","509 E BRIDGE AVE, BLACKWELL, OK, 74631",115887628,"L"
688801,"509 E CAPITOL STREET","JACKSON","MS",39201,32.299440933,-90.181536696,301,"509 E CAPITOL STREET, JACKSON, MS, 39201","Match","Exact","509 E CAPITOL ST, JACKSON, MS, 39201",65372651,"R"
688802,"509 E ELGIN","BROKEN ARROW","OK",74012,36.0554359700001,-95.785132361,302,"509 E ELGIN, BROKEN ARROW, OK, 74012","Match","Non_Exact","509 E ELGIN ST, BROKEN ARROW, OK, 74012",166458989,"R"
688803,"509 E ELLICOTT ST","TAMPA","FL",33603,27.991048705,-82.455084748,303,"509 E ELLICOTT ST, TAMPA, FL, 33603","Match","Exact","509 E ELLICOTT ST, TAMPA, FL, 33603",104522247,"R"
688804,"509 E ELLICOTT STREET","TAMPA","FL",33603,27.991048705,-82.455084748,304,"509 E ELLICOTT STREET, TAMPA, FL, 33603","Match","Exact","509 E ELLICOTT ST, TAMPA, FL, 33603",104522247,"R"
688805,"509 E HARRISON AVE","COEUR D'ALENE","ID",83814,47.6862283520001,-116.778559277,305,"509 E HARRISON AVE, COEUR D'ALENE, ID, 83814","Match","Non_Exact","509 E HARRISON AVE, COEUR D ALENE, ID, 83814",192948100,"R"
688806,"509 E HARRISON AVENUE","COEUR D'ALENE","ID",83814,47.6862283520001,-116.778559277,306,"509 E HARRISON AVENUE, COEUR D'ALENE, ID, 83814","Match","Non_Exact","509 E HARRISON AVE, COEUR D ALENE, ID, 83814",192948100,"R"
688807,"509 E JACKSON ST NORT","SAPULPA","OK",74066,NA,NA,307,"509 E JACKSON ST NORT, SAPULPA, OK, 74066","No_Match",NA,NA,NA,NA
688808,"509 E LANCASTER BLVD UNIT 7","LANCASTER","CA",93535,34.696795013,-118.12104923,308,"509 E LANCASTER BLVD UNIT 7, LANCASTER, CA, 93535","Match","Non_Exact","509 E LANCASTER BLVD, LANCASTER, CA, 93535",640126385,"L"
688809,"509 E MAIN ST","GENEVA","OH",44041,41.8082679250001,-80.939361671,309,"509 E MAIN ST, GENEVA, OH, 44041","Match","Exact","509 E MAIN ST, GENEVA, OH, 44041",117311397,"L"
688810,"509 E NORTH STREET","ZEBULON","NC",27597,35.8267451130001,-78.309571267,310,"509 E NORTH STREET, ZEBULON, NC, 27597","Match","Exact","509 E NORTH ST, ZEBULON, NC, 27597",72487768,"L"
688811,"509 E PARK","HOLSTEIN","IA",51025,42.486356248,-95.5377655249999,311,"509 E PARK, HOLSTEIN, IA, 51025","Match","Non_Exact","509 E PARK ST, HOLSTEIN, IA, 51025",82824445,"L"
688812,"509 E PIUTE AVE","PHOENIX","AZ",85024,33.6633056690001,-112.067985214,312,"509 E PIUTE AVE, PHOENIX, AZ, 85024","Match","Exact","509 E PIUTE AVE, PHOENIX, AZ, 85024",128182245,"R"
688813,"509 E RENO PL","BROKEN ARROW","OK",74012,36.0695593410001,-95.784037475,313,"509 E RENO PL, BROKEN ARROW, OK, 74012","Match","Exact","509 E RENO PL, BROKEN ARROW, OK, 74012",650171348,"R"
688814,"509 E SAMPLE AVE","FRESNO","CA",93710,36.8274910160001,-119.77860254,314,"509 E SAMPLE AVE, FRESNO, CA, 93710","Match","Exact","509 E SAMPLE AVE, FRESNO, CA, 93710",197573300,"R"
688815,"509 E SELWAY DR","HOMEDALE","ID",83628,43.6252463530001,-116.94421262,315,"509 E SELWAY DR, HOMEDALE, ID, 83628","Match","Exact","509 E SELWAY DR, HOMEDALE, ID, 83628",118571828,"R"
688816,"509 E VILLAGE DR","BIGFORK","MT",59911,48.1234488640001,-114.043017741,316,"509 E VILLAGE DR, BIGFORK, MT, 59911","Match","Exact","509 E VILLAGE DR, BIGFORK, MT, 59911",204112472,"L"
688817,"509 E VINEYARD AVE","LIVERMORE","CA",94550,37.6459774370001,-121.792371334,317,"509 E VINEYARD AVE, LIVERMORE, CA, 94550","Match","Exact","509 E VINEYARD AVE, LIVERMORE, CA, 94550",606337816,"L"
688818,"509 EAST 6TH STREET","ALTA","IA",51002,42.6693584130001,-95.29875129,318,"509 EAST 6TH STREET, ALTA, IA, 51002","Match","Exact","509 E 6TH ST, ALTA, IA, 51002",77377639,"R"
688819,"509 EAST 77TH ST APT 5N","NEW YORK","NY",10075,40.769990911,-73.951177085,319,"509 EAST 77TH ST APT 5N, NEW YORK, NY, 10075","Match","Exact","509 E 77TH ST, NEW YORK, NY, 10075",59658401,"L"
688820,"509 EAST BELLAMINE STREET APT 7","JOLIET","IL",60435,NA,NA,320,"509 EAST BELLAMINE STREET APT 7, JOLIET, IL, 60435","No_Match",NA,NA,NA,NA
688821,"509 EAST BELLARMINE DRIVE","JOLIET","IL",60436,NA,NA,321,"509 EAST BELLARMINE DRIVE, JOLIET, IL, 60436","No_Match",NA,NA,NA,NA
688822,"509 EAST BROAD STREET","WESTFIELD","NJ",7090,40.655576565,-74.344103387,322,"509 EAST BROAD STREET, WESTFIELD, NJ, 7090","Match","Exact","509 E BROAD ST, WESTFIELD, NJ, 07090",60566990,"L"
688823,"509 EAST CENTER STREET","LEXINGTON","NC",27292,35.817922326,-80.247392067,323,"509 EAST CENTER STREET, LEXINGTON, NC, 27292","Match","Exact","509 E CENTER ST, LEXINGTON, NC, 27292",20217507,"R"
688824,"509 EAST DUNN ROAD","NEW CARLISLE","IN",46552,41.701587208,-86.5010622459999,324,"509 EAST DUNN ROAD, NEW CARLISLE, IN, 46552","Match","Exact","509 E DUNN RD, NEW CARLISLE, IN, 46552",638716056,"R"
688825,"509 EAST EXETER STREET","GLADSTONE","OR",97027,45.383148362,-122.588240106,325,"509 EAST EXETER STREET, GLADSTONE, OR, 97027","Match","Exact","509 E EXETER ST, GLADSTONE, OR, 97027",157917425,"R"
688826,"509 EAST HOLMES","JANESVILLE","WI",53545,42.68196003,-89.0148591769999,326,"509 EAST HOLMES, JANESVILLE, WI, 53545","Match","Non_Exact","509 E HOLMES ST, JANESVILLE, WI, 53545",49854050,"L"
688827,"509 EAST LAKE ROAD","FITZWILLIAM","NH",3447,42.7340969620001,-72.149291241,327,"509 EAST LAKE ROAD, FITZWILLIAM, NH, 3447","Match","Exact","509 E LAKE RD, FITZWILLIAM, NH, 03447",124065576,"R"
688828,"509 EAST LYDIA LANE","PHOENIX","AZ",86042,33.3874988430001,-112.066880197,328,"509 EAST LYDIA LANE, PHOENIX, AZ, 86042","Match","Non_Exact","509 E LYDIA LN, PHOENIX, AZ, 85042",243999771,"R"
688829,"509 EAST MAIN ST","WARSAW","KY",41095,38.7865291200001,-84.894402081,329,"509 EAST MAIN ST, WARSAW, KY, 41095","Match","Exact","509 E MAIN ST, WARSAW, KY, 41095",95286590,"L"
688830,"509 EAST MAIN STREET","CANTON","PA",17724,41.6565467410001,-76.843741197,330,"509 EAST MAIN STREET, CANTON, PA, 17724","Match","Exact","509 E MAIN ST, CANTON, PA, 17724",176964207,"R"
688831,"509 EAST NINTH ST","PITTSBURG","KS",66762,37.41605078,-94.6988195069999,331,"509 EAST NINTH ST, PITTSBURG, KS, 66762","Match","Exact","509 E 9TH ST, PITTSBURG, KS, 66762",33423075,"R"
688832,"509 EAST PLYMOUTH AVENUE","GOSHEN","IN",46526,41.5755500120001,-85.827097166,332,"509 EAST PLYMOUTH AVENUE, GOSHEN, IN, 46526","Match","Exact","509 E PLYMOUTH AVE, GOSHEN, IN, 46526",604685874,"L"
688833,"509 EAST STEWART AVENUE","OPP","AL",36467,31.2862820930001,-86.248121461,333,"509 EAST STEWART AVENUE, OPP, AL, 36467","Match","Exact","509 E STEWART AVE, OPP, AL, 36467",1855880,"R"
688834,"509 EAST THIRD ST","SOUTH BOSTON","MA",2127,42.3364242930001,-71.039237129,334,"509 EAST THIRD ST, SOUTH BOSTON, MA, 2127","Match","Exact","509 E 3RD ST, SOUTH BOSTON, MA, 02127",85713891,"R"
688835,"509 EDLON PARK","CAMBRIDGE","MD",21613,38.577156329,-76.0902299209999,335,"509 EDLON PARK, CAMBRIDGE, MD, 21613","Match","Non_Exact","509 EDLON PARK DR, CAMBRIDGE, MD, 21613",642128382,"L"
688836,"509 EDWARDS COURT","SUISUN CITY","CA",94585,38.2425593,-122.008582631,336,"509 EDWARDS COURT, SUISUN CITY, CA, 94585","Match","Exact","509 EDWARDS CT, SUISUN CITY, CA, 94585",192551746,"R"
688837,"509 EL BETHEL RD","GAFFNEY","SC",29340,34.932018455,-81.6067894669999,337,"509 EL BETHEL RD, GAFFNEY, SC, 29340","Match","Non_Exact","509 ELBETHEL RD, GAFFNEY, SC, 29340",18985149,"L"
688838,"509 ELBETHEL RD","GAFFNEY","SC",29340,34.932018455,-81.6067894669999,338,"509 ELBETHEL RD, GAFFNEY, SC, 29340","Match","Exact","509 ELBETHEL RD, GAFFNEY, SC, 29340",18985149,"L"
688839,"509 ELM ROAD","BARRINGTON","IL",60010,42.1631397470001,-88.129368622,339,"509 ELM ROAD, BARRINGTON, IL, 60010","Match","Exact","509 ELM RD, BARRINGTON, IL, 60010",119635281,"R"
688840,"509 ELM ST","RICHLAND","PA",17087,40.3620656310001,-76.264105673,340,"509 ELM ST, RICHLAND, PA, 17087","Match","Exact","509 ELM ST, RICHLAND, PA, 17087",639692877,"L"
688841,"509 ELM ST","SCHLESWIG","IA",51461,42.1632896030001,-95.432318158,341,"509 ELM ST, SCHLESWIG, IA, 51461","Match","Exact","509 ELM ST, SCHLESWIG, IA, 51461",82258336,"L"
688842,"509 ELM STREET SUITE 306","DALLAS","TX",75202,32.7795823640001,-96.807969661,342,"509 ELM STREET SUITE 306, DALLAS, TX, 75202","Match","Exact","509 ELM ST, DALLAS, TX, 75202",102909561,"L"
688843,"509 ELMWOOD COURT","KALAMAZOO","MI",49007,42.2960524850001,-85.595018647,343,"509 ELMWOOD COURT, KALAMAZOO, MI, 49007","Match","Exact","509 ELMWOOD CT, KALAMAZOO, MI, 49007",642921087,"R"
688844,"509 EMBER DRIVE","DURHAM","NC",27703,35.964596869,-78.806092094,344,"509 EMBER DRIVE, DURHAM, NC, 27703","Match","Exact","509 EMBER DR, DURHAM, NC, 27703",614176625,"L"
688845,"509 ENERGY CENTER BLVD SUITE 803","NORTHPORT","AL",35473,33.2402754500001,-87.552201789,345,"509 ENERGY CENTER BLVD SUITE 803, NORTHPORT, AL, 35473","Match","Exact","509 ENERGY CENTER BLVD, NORTHPORT, AL, 35473",82224384,"R"
688846,"509 EVERGREEN CT","BENSALEM","PA",19020,40.0956914330001,-74.9404266729999,346,"509 EVERGREEN CT, BENSALEM, PA, 19020","Match","Exact","509 EVERGREEN CT, BENSALEM, PA, 19020",134788190,"R"
688847,"509 F STREET","FLORESVILLE","TX",78114,29.1267521790001,-98.159711113,347,"509 F STREET, FLORESVILLE, TX, 78114","Match","Exact","509 F ST, FLORESVILLE, TX, 78114",54879838,"L"
688848,"509 FAIRCHILD ST","MEDICAL LAKE","WA",99022,47.6525434750001,-117.657710652,348,"509 FAIRCHILD ST, MEDICAL LAKE, WA, 99022","Match","Non_Exact","509 S FAIRCHILD ST, MEDICAL LAKE, WA, 99022",189855719,"R"
688849,"509 FAIRHOPE AVE 27","FAIRHOPE","AL",36532,30.523019162,-87.897512396,349,"509 FAIRHOPE AVE 27, FAIRHOPE, AL, 36532","Match","Exact","509 FAIRHOPE AVE, FAIRHOPE, AL, 36532",131649778,"L"
688850,"509 FIFTH ST PO BOX 84","DARLINGTON","PA",16115,NA,NA,350,"509 FIFTH ST PO BOX 84, DARLINGTON, PA, 16115","No_Match",NA,NA,NA,NA
688851,"509 FIRST ST","BRUCEVILLE","TX",76630,31.33157054,-97.235124335,351,"509 FIRST ST, BRUCEVILLE, TX, 76630","Match","Exact","509 1ST ST, BRUCEVILLE, TX, 76630",648767149,"R"
688852,"509 FIRST STREET","BARABOO","WI",53913,43.467981186,-89.7357100899999,352,"509 FIRST STREET, BARABOO, WI, 53913","Match","Exact","509 1ST ST, BARABOO, WI, 53913",86534460,"R"
688853,"509 FLAMINGO DR","W, PALM BEACH","FL",33401,26.696247274,-80.055910276,353,"509 FLAMINGO DR, W, PALM BEACH, FL, 33401","Match","Exact","509 FLAMINGO DR, WEST PALM BEACH, FL, 33401",115528322,"R"
688854,"509 FLOURNOY DRIVE","AUSTIN","TX",78745,30.2032259060001,-97.782162839,354,"509 FLOURNOY DRIVE, AUSTIN, TX, 78745","Match","Exact","509 FLOURNOY DR, AUSTIN, TX, 78745",63949414,"L"
688855,"509 FM 3375","RIESEL","TX",76682,31.3834820800001,-96.8387394709999,355,"509 FM 3375, RIESEL, TX, 76682","Match","Exact","509 FM 3375, RIESEL, TX, 76682",636347292,"L"
688856,"509 FORDLAND AVE","LA VERNE","CA",91750,34.1112422100001,-117.791369459,356,"509 FORDLAND AVE, LA VERNE, CA, 91750","Match","Exact","509 FORDLAND AVE, LA VERNE, CA, 91750",141726629,"L"
688857,"509 FOREST RD","PERKASIE","PA",18944,40.3635781200001,-75.2232374979999,357,"509 FOREST RD, PERKASIE, PA, 18944","Match","Exact","509 FOREST RD, PERKASIE, PA, 18944",624493330,"L"
688858,"509 FORESTON PLACE","WEBSTER GROVES","MO",63119,38.5765818580001,-90.3713434539999,358,"509 FORESTON PLACE, WEBSTER GROVES, MO, 63119","Match","Exact","509 FORESTON PL, WEBSTER GROVES, MO, 63119",100138786,"R"
688859,"509 FOUNTAIN AVE","GEORGETOWN","KY",40324,38.2049812860001,-84.550339102,359,"509 FOUNTAIN AVE, GEORGETOWN, KY, 40324","Match","Exact","509 FOUNTAIN AVE, GEORGETOWN, KY, 40324",41232263,"L"
688860,"509 FOX APT29","EL PASO","TX",79905,31.7658621900001,-106.435284611,360,"509 FOX APT29, EL PASO, TX, 79905","Match","Non_Exact","509 FOX PL, EL PASO, TX, 79905",189345075,"R"
688861,"509 FOX RUN DRIVE","COLUMBIA","SC",29229,NA,NA,361,"509 FOX RUN DRIVE, COLUMBIA, SC, 29229","No_Match",NA,NA,NA,NA
688862,"509 FOXGLOVE WAY","STAFFORD","VA",22554,38.444374484,-77.4335713999999,362,"509 FOXGLOVE WAY, STAFFORD, VA, 22554","Match","Exact","509 FOXGLOVE WAY, STAFFORD, VA, 22554",652158567,"L"
688863,"509 FOXHUNTER ST","FORT WORTH","TX",76131,NA,NA,363,"509 FOXHUNTER ST, FORT WORTH, TX, 76131","No_Match",NA,NA,NA,NA
688864,"509 FRANKLIN STREET","SPRINGVILLE","NY",14141,42.514930674,-78.678397924,364,"509 FRANKLIN STREET, SPRINGVILLE, NY, 14141","Match","Exact","509 FRANKLIN ST, SPRINGVILLE, NY, 14141",613979220,"R"
688865,"509 GARDENDALE","MONTGOMERY","AL",36110,32.4149146080001,-86.2731671609999,365,"509 GARDENDALE, MONTGOMERY, AL, 36110","Match","Non_Exact","509 GARDENDALE DR, MONTGOMERY, AL, 36110",1468647,"R"
688866,"509 GARTRELL ST","ASHLAND","KY",41101,38.4479483810001,-82.6147075929999,366,"509 GARTRELL ST, ASHLAND, KY, 41101","Match","Exact","509 GARTRELL ST, ASHLAND, KY, 41101",151048622,"L"
688867,"509 GARY LANE","SHERIDAN","AR",72150,34.295991433,-92.406630735,367,"509 GARY LANE, SHERIDAN, AR, 72150","Match","Exact","509 GARY LN, SHERIDAN, AR, 72150",2492947,"R"
688868,"509 GATESHEAD S","ELK GROVE VILLAGE","IL",60007,NA,NA,368,"509 GATESHEAD S, ELK GROVE VILLAGE, IL, 60007","Tie",NA,NA,NA,NA
688869,"509 GAYNFAIR TERRACE","ARROYO GRANDE","CA",93420,35.110296234,-120.594611225,369,"509 GAYNFAIR TERRACE, ARROYO GRANDE, CA, 93420","Match","Exact","509 GAYNFAIR TER, ARROYO GRANDE, CA, 93420",645354227,"R"
688870,"509 GILBERT ST","RAYNE","LA",70578,30.2258263350001,-92.265559001,370,"509 GILBERT ST, RAYNE, LA, 70578","Match","Exact","509 GILBERT ST, RAYNE, LA, 70578",88303783,"R"
688871,"509 GLENWOOD AVE APT 1302","RALEIGH","NC",27603,35.786863834,-78.647238543,371,"509 GLENWOOD AVE APT 1302, RALEIGH, NC, 27603","Match","Exact","509 GLENWOOD AVE, RALEIGH, NC, 27603",72503497,"L"
688872,"509 GOLDEN CREEK DR","ROUND ROCK","TX",78665,30.5164138380001,-97.6266851779999,372,"509 GOLDEN CREEK DR, ROUND ROCK, TX, 78665","Match","Exact","509 GOLDEN CREEK DR, ROUND ROCK, TX, 78665",617770229,"R"
688873,"509 GOSS AVE","LEESBURG","FL",34748,28.8156477630001,-81.861835922,373,"509 GOSS AVE, LEESBURG, FL, 34748","Match","Exact","509 GOSS AVE, LEESBURG, FL, 34748",94155954,"L"
688874,"509 GRADY STREET","THOMASVILLE","GA",31792,30.8299752120001,-83.9668648529999,374,"509 GRADY STREET, THOMASVILLE, GA, 31792","Match","Exact","509 GRADY ST, THOMASVILLE, GA, 31792",83103370,"R"
688875,"509 GRAVEL PIKE","COLLEGEVILLE","PA",19426,40.2187404760001,-75.4536288749999,375,"509 GRAVEL PIKE, COLLEGEVILLE, PA, 19426","Match","Exact","509 GRAVEL PIKE, COLLEGEVILLE, PA, 19426",605629005,"L"
688876,"509 GREEN RIVER RD","CHESNEE","SC",29325,35.052393341,-81.874786703,376,"509 GREEN RIVER RD, CHESNEE, SC, 29325","Match","Non_Exact","509 GREEN RIVER RD, CHESNEE, SC, 29323",19485022,"R"
688877,"509 GREENBOROUGH DRIVE","LAKE WALES","FL",33853,27.911268121,-81.580677174,377,"509 GREENBOROUGH DRIVE, LAKE WALES, FL, 33853","Match","Non_Exact","509 GREENBROUGH DR, LAKE WALES, FL, 33853",636405687,"R"
688878,"509 GREENBRIAR DR","NORTH AUGUSTA","SC",29860,33.554910685,-81.958772887,378,"509 GREENBRIAR DR, NORTH AUGUSTA, SC, 29860","Match","Exact","509 GREENBRIAR DR, NORTH AUGUSTA, SC, 29860",65001120,"R"
688879,"509 GREENBRIER DRIVE","SILVER SPRING","MD",20910,39.0018706610001,-77.019171265,379,"509 GREENBRIER DRIVE, SILVER SPRING, MD, 20910","Match","Exact","509 GREENBRIER DR, SILVER SPRING, MD, 20910",62068066,"R"
688880,"509 GREENTOWN ROAD","TRENTON","NC",28585,35.069301572,-77.384679454,380,"509 GREENTOWN ROAD, TRENTON, NC, 28585","Match","Exact","509 GREENTOWN RD, TRENTON, NC, 28585",13860217,"R"
688881,"509 GREENWOOD AVENUE","CLARKSVILLE","TN",37040,36.523051616,-87.3479595859999,381,"509 GREENWOOD AVENUE, CLARKSVILLE, TN, 37040","Match","Exact","509 GREENWOOD AVE, CLARKSVILLE, TN, 37040",31815215,"L"
688882,"509 GULLEY STREET","FARMERVILLE","LA",71241,32.7783770450001,-92.401745722,382,"509 GULLEY STREET, FARMERVILLE, LA, 71241","Match","Exact","509 GULLEY ST, FARMERVILLE, LA, 71241",150042125,"L"
688883,"509 GULLEY","FARMERVILLE","LA",71241,32.7783770450001,-92.401745722,383,"509 GULLEY, FARMERVILLE, LA, 71241","Match","Non_Exact","509 GULLEY ST, FARMERVILLE, LA, 71241",150042125,"L"
688884,"509 HALSEY AVENUE UNIT 2","PITTSBURGH","PA",15221,40.419959851,-79.8488286159999,384,"509 HALSEY AVENUE UNIT 2, PITTSBURGH, PA, 15221","Match","Exact","509 HALSEY AVE, PITTSBURGH, PA, 15221",51670045,"R"
688885,"509 HANLEY ST","PLAINFIELD","IN",46168,39.7102492390001,-86.3910760639999,385,"509 HANLEY ST, PLAINFIELD, IN, 46168","Match","Exact","509 HANLEY ST, PLAINFIELD, IN, 46168",89200387,"R"
688886,"509 HANNA ROAD","BEL AIR","MD",21014,39.5112330330001,-76.346134928,386,"509 HANNA ROAD, BEL AIR, MD, 21014","Match","Exact","509 HANNA RD, BEL AIR, MD, 21014",191655045,"R"
688887,"509 HANSON ROAD","DURHAM","NC",27713,35.9412035650001,-78.915501867,387,"509 HANSON ROAD, DURHAM, NC, 27713","Match","Exact","509 HANSON RD, DURHAM, NC, 27713",618107065,"L"
688888,"509 HARBOR RD","MILLVILLE","DE",19967,38.5538939400001,-75.105546351,388,"509 HARBOR RD, MILLVILLE, DE, 19967","Match","Non_Exact","509 HARBOR RD, MILLVILLE, DE, 19970",106098170,"L"
688889,"509 HARBOUR DRIVE","PALMAYRA","NJ",8065,NA,NA,389,"509 HARBOUR DRIVE, PALMAYRA, NJ, 8065","No_Match",NA,NA,NA,NA
688890,"509 HARNED AVENUE","MIAMI","OK",74354,36.8863846730001,-94.883960388,390,"509 HARNED AVENUE, MIAMI, OK, 74354","Match","Non_Exact","509 HARNED ST, MIAMI, OK, 74354",56279327,"L"
688891,"509 HARRIET STREET","FLINT","MI",48504,43.0327158420001,-83.697129412,391,"509 HARRIET STREET, FLINT, MI, 48504","Match","Non_Exact","509 HARRIET ST, FLINT, MI, 48505",69567685,"L"
688892,"509 HARRIET STREET","FLINT","MI",48505,43.0327158420001,-83.697129412,392,"509 HARRIET STREET, FLINT, MI, 48505","Match","Exact","509 HARRIET ST, FLINT, MI, 48505",69567685,"L"
688893,"509 HARRISON AVE","PANAMA CITY","FL",32401,30.157307084,-85.660384451,393,"509 HARRISON AVE, PANAMA CITY, FL, 32401","Match","Exact","509 HARRISON AVE, PANAMA CITY, FL, 32401",7029348,"L"
688894,"509 HAVEN CT","SELLERSVILLE","PA",18960,40.3544368890001,-75.2954074529999,394,"509 HAVEN CT, SELLERSVILLE, PA, 18960","Match","Exact","509 HAVEN CT, SELLERSVILLE, PA, 18960",134733905,"L"
688895,"509 HAZLETT AVE APT A","BALTIMORE","MD",21229,39.277346654,-76.6983593859999,395,"509 HAZLETT AVE APT A, BALTIMORE, MD, 21229","Match","Exact","509 HAZLETT AVE, BALTIMORE, MD, 21229",206412834,"L"
688896,"509 HEATH LANE","COPPELL","TX",75019,32.9564005510001,-97.005601715,396,"509 HEATH LANE, COPPELL, TX, 75019","Match","Exact","509 HEATH LN, COPPELL, TX, 75019",625001111,"R"
688897,"509 HEATHER GLEN DR","WINTER HAVEN","FL",33884,27.9791715010001,-81.6582719369999,397,"509 HEATHER GLEN DR, WINTER HAVEN, FL, 33884","Match","Exact","509 HEATHER GLEN DR, WINTER HAVEN, FL, 33884",104895978,"L"
688898,"509 HERON WALK SE","SAMMAMISH","WA",98074,NA,NA,398,"509 HERON WALK SE, SAMMAMISH, WA, 98074","No_Match",NA,NA,NA,NA
688899,"509 HICKORY ST","STATESVILLE","NC",28677,35.7912091320001,-80.900725033,399,"509 HICKORY ST, STATESVILLE, NC, 28677","Match","Exact","509 HICKORY ST, STATESVILLE, NC, 28677",45985889,"L"
688900,"509 HIDDEN HARBOUR DR","INDIAN ROCKS BEACH","FL",33785,27.891942837,-82.846720771,400,"509 HIDDEN HARBOUR DR, INDIAN ROCKS BEACH, FL, 33785","Match","Exact","509 HIDDEN HARBOUR DR, INDIAN ROCKS BEACH, FL, 33785",124749703,"R"
688901,"509 HIDDEN LOOP DRIVE","SOMERSET","KY",42503,37.022310239,-84.643936482,401,"509 HIDDEN LOOP DRIVE, SOMERSET, KY, 42503","Match","Exact","509 HIDDEN LOOP DR, SOMERSET, KY, 42503",39100819,"R"
688902,"509 HIGH RIDGE DR","DURHAM","NC",27701,35.9585882160001,-78.930989971,402,"509 HIGH RIDGE DR, DURHAM, NC, 27701","Match","Non_Exact","509 HIGH RIDGE DR, DURHAM, NC, 27707",71770569,"L"
688903,"509 HIGHLAND MEADOWS DRIVE","SPARTA","WI",54656,43.9486469190001,-90.831437168,403,"509 HIGHLAND MEADOWS DRIVE, SPARTA, WI, 54656","Match","Exact","509 HIGHLAND MEADOWS DR, SPARTA, WI, 54656",51080860,"R"
688904,"509 HIGHLAND MEADOWS","SPARTA","WI",54656,43.9486469190001,-90.831437168,404,"509 HIGHLAND MEADOWS, SPARTA, WI, 54656","Match","Non_Exact","509 HIGHLAND MEADOWS DR, SPARTA, WI, 54656",51080860,"R"
688905,"509 HIGHLAND STREET","LEXINGTON","MO",64067,39.182290316,-93.8910179659999,405,"509 HIGHLAND STREET, LEXINGTON, MO, 64067","Match","Non_Exact","509 HIGHLAND AVE, LEXINGTON, MO, 64067",20931889,"L"
688906,"509 HILLSIDE AVE","TAHLEUAH","OK",74464,35.917387322,-94.952816922,406,"509 HILLSIDE AVE, TAHLEUAH, OK, 74464","Match","Non_Exact","509 HILLSIDE AVE, TAHLEQUAH, OK, 74464",636811649,"R"
688907,"509 HILLSIDE DRIVE","ROCK PORT","MO",64482,40.412742574,-95.508016413,407,"509 HILLSIDE DRIVE, ROCK PORT, MO, 64482","Match","Exact","509 HILLSIDE DR, ROCK PORT, MO, 64482",10324370,"L"
688908,"509 HILLTOP COURT","TAFT","CA",93268,35.131800459,-119.481153263,408,"509 HILLTOP COURT, TAFT, CA, 93268","Match","Exact","509 HILLTOP CT, TAFT, CA, 93268",109134764,"R"
688909,"509 HOCHUNK PLAZA N","WINNEBAGO","NE",68071,NA,NA,409,"509 HOCHUNK PLAZA N, WINNEBAGO, NE, 68071","No_Match",NA,NA,NA,NA
688910,"509 HOPE CIRCLE","IMMOKALEE","FL",34142,26.402109555,-81.42486359,410,"509 HOPE CIRCLE, IMMOKALEE, FL, 34142","Match","Exact","509 HOPE CIR, IMMOKALEE, FL, 34142",115171727,"L"
688911,"509 HORIZON DR","TIPTON","IA",52772,41.7787792020001,-91.121142933,411,"509 HORIZON DR, TIPTON, IA, 52772","Match","Exact","509 HORIZON DR, TIPTON, IA, 52772",16708732,"R"
688912,"509 HWY 567","CARSON","NM",87517,36.364362859,-105.807260939,412,"509 HWY 567, CARSON, NM, 87517","Match","Non_Exact","509 STATE HWY 567, CARSON, NM, 87517",159929855,"R"
688913,"509 HWY Y","WINFIELD","MO",63389,NA,NA,413,"509 HWY Y, WINFIELD, MO, 63389","No_Match",NA,NA,NA,NA
688914,"509 INDIAN WELLS CIRCLE","LEXINGTON","NC",27295,35.8076000340001,-80.318701521,414,"509 INDIAN WELLS CIRCLE, LEXINGTON, NC, 27295","Match","Exact","509 INDIAN WELLS CIR, LEXINGTON, NC, 27295",20207990,"R"
688915,"509 IRONWOOD DRIVE","HARTFORD","SD",57033,43.626664529,-96.93120942,415,"509 IRONWOOD DRIVE, HARTFORD, SD, 57033","Match","Exact","509 IRONWOOD DR, HARTFORD, SD, 57033",34987877,"L"
688916,"509 ISLAND WALK WEST","MT. PLEASANT","SC",29464,32.854769968,-79.861892502,416,"509 ISLAND WALK WEST, MT. PLEASANT, SC, 29464","Match","Exact","509 ISLAND WALK W, MOUNT PLEASANT, SC, 29464",108876865,"L"
688917,"509 IVANHOE AVENUE","NORTHFIELD","MN",55057,44.466167683,-93.167149093,417,"509 IVANHOE AVENUE, NORTHFIELD, MN, 55057","Match","Exact","509 IVANHOE AVE, NORTHFIELD, MN, 55057",645514751,"L"
688918,"509 JEFFERSON STREET","LAFAYETTE","LA",70501,30.225497725,-92.018529434,418,"509 JEFFERSON STREET, LAFAYETTE, LA, 70501","Match","Exact","509 JEFFERSON ST, LAFAYETTE, LA, 70501",85616015,"L"
688919,"509 JENKINS RANCH RD","DURANGO","CO",81301,37.2894744120001,-107.842749483,419,"509 JENKINS RANCH RD, DURANGO, CO, 81301","Match","Exact","509 JENKINS RANCH RD, DURANGO, CO, 81301",91730258,"L"
688920,"509 KANSAS AVE","HIAWATHA","KS",66434,39.8581024760001,-95.5342496929999,420,"509 KANSAS AVE, HIAWATHA, KS, 66434","Match","Exact","509 KANSAS AVE, HIAWATHA, KS, 66434",9768544,"L"
688921,"509 KATHIE DRIVE","CLOVIS","NM",88101,34.422148271,-103.21237101,421,"509 KATHIE DRIVE, CLOVIS, NM, 88101","Match","Exact","509 KATHIE DR, CLOVIS, NM, 88101",163759555,"L"
688922,"509 KATHY DR","DESOTO","TX",75115,32.602708712,-96.866575923,422,"509 KATHY DR, DESOTO, TX, 75115","Match","Exact","509 KATHY DR, DESOTO, TX, 75115",102953489,"R"
688923,"509 KAWAILOA RD","KAILUA","HI",96734,21.3948420570001,-157.72429768,423,"509 KAWAILOA RD, KAILUA, HI, 96734","Match","Exact","509 KAWAILOA RD, KAILUA, HI, 96734",203240319,"R"
688924,"509 KAYS LANDING DR","SANFORD","FL",32771,28.7953144570001,-81.306734723,424,"509 KAYS LANDING DR, SANFORD, FL, 32771","Match","Exact","509 KAYS LANDING DR, SANFORD, FL, 32771",618451866,"R"
688925,"509 KELVINGTON DRIVE","ANNA","TX",75409,33.3540819360001,-96.557225522,425,"509 KELVINGTON DRIVE, ANNA, TX, 75409","Match","Exact","509 KELVINGTON DR, ANNA, TX, 75409",642935313,"R"
688926,"509 KENDALL CT","FRANKLIN","TN",37069,35.9653974720001,-86.8915388519999,426,"509 KENDALL CT, FRANKLIN, TN, 37069","Match","Exact","509 KENDALL CT, FRANKLIN, TN, 37069",73120023,"R"
688927,"509 KENNEDY ST","AMA","LA",70031,29.940411205,-90.29458393,427,"509 KENNEDY ST, AMA, LA, 70031","Match","Exact","509 KENNEDY ST, AMA, LA, 70031",635284353,"L"
688928,"509 KENNEDY","ALMA","NE",68920,40.102451488,-99.366054843,428,"509 KENNEDY, ALMA, NE, 68920","Match","Non_Exact","509 KENNEDY AVE, ALMA, NE, 68920",138069470,"L"
688929,"509 KESSLER BLVD W DR","INDIANAPOLIS","IN",46228,NA,NA,429,"509 KESSLER BLVD W DR, INDIANAPOLIS, IN, 46228","No_Match",NA,NA,NA,NA
688930,"509 KIRKLEY DR","JACKSON","MS",39206,32.367005631,-90.180186448,430,"509 KIRKLEY DR, JACKSON, MS, 39206","Match","Exact","509 KIRKLEY DR, JACKSON, MS, 39206",65360253,"L"
688931,"509 KNIGHTSBRIDGE RD","SUMTER","SC",29150,33.887163527,-80.352806856,431,"509 KNIGHTSBRIDGE RD, SUMTER, SC, 29150","Match","Exact","509 KNIGHTSBRIDGE RD, SUMTER, SC, 29150",202670269,"R"
688932,"509 LAFAYETTE STREET","EUTAW","AL",35462,32.8386711970001,-87.895683375,432,"509 LAFAYETTE STREET, EUTAW, AL, 35462","Match","Exact","509 LAFAYETTE ST, EUTAW, AL, 35462",9642998,"L"
688933,"509 LAFAYETTE","GRAND HAVEN","MI",49417,43.0598965460001,-86.227268542,433,"509 LAFAYETTE, GRAND HAVEN, MI, 49417","Match","Non_Exact","509 LAFAYETTE ST, GRAND HAVEN, MI, 49417",71084442,"L"
688934,"509 LAKE ROAD","DYERSBURG","TN",38024,36.037220345,-89.393256843,434,"509 LAKE ROAD, DYERSBURG, TN, 38024","Match","Exact","509 LAKE RD, DYERSBURG, TN, 38024",40651832,"L"
688935,"509 LAKESHORE PT","LIVINGSTON","TX",77351,NA,NA,435,"509 LAKESHORE PT, LIVINGSTON, TX, 77351","No_Match",NA,NA,NA,NA
688936,"509 LARGOVISTA DRIVE","WINTER GARDEN","FL",34787,28.544200598,-81.633704344,436,"509 LARGOVISTA DRIVE, WINTER GARDEN, FL, 34787","Match","Exact","509 LARGOVISTA DR, WINTER GARDEN, FL, 34787",639772154,"L"
688937,"509 LAUREL RIDGE ROAD","NORTH CHARLESTON","SC",29418,32.900619577,-80.094509202,437,"509 LAUREL RIDGE ROAD, NORTH CHARLESTON, SC, 29418","Match","Exact","509 LAUREL RIDGE RD, N CHARLESTON, SC, 29418",178466304,"L"
688938,"509 LAURELWOOD RD","BURLESON","TX",76028,32.4981247690001,-97.365371861,438,"509 LAURELWOOD RD, BURLESON, TX, 76028","Match","Exact","509 LAURELWOOD RD, BURLESON, TX, 76028",103539281,"R"
688939,"509 LAWN DR","TIPTON","MO",65081,38.65574694,-92.7922098449999,439,"509 LAWN DR, TIPTON, MO, 65081","Match","Exact","509 LAWN DR, TIPTON, MO, 65081",34481331,"L"
688940,"509 LAWRENCE DRIVE","SPRINGFIELD","PA",19064,39.932776366,-75.356778322,440,"509 LAWRENCE DRIVE, SPRINGFIELD, PA, 19064","Match","Exact","509 LAWRENCE DR, SPRINGFIELD, PA, 19064",134878808,"L"
688941,"509 LAWRENCE STREET","CORPUS CHRISTI","TX",78401,27.795459845,-97.395353359,441,"509 LAWRENCE STREET, CORPUS CHRISTI, TX, 78401","Match","Exact","509 LAWRENCE ST, CORPUS CHRISTI, TX, 78401",178516603,"L"
688942,"509 LENA COURT","FRONT ROYAL","VA",22630,38.926653329,-78.168820792,442,"509 LENA COURT, FRONT ROYAL, VA, 22630","Match","Exact","509 LENA CT, FRONT ROYAL, VA, 22630",159079685,"R"
688943,"509 LENA DRIVE","SOUTH HAVEN","MI",49090,42.4143276770001,-86.2674213349999,443,"509 LENA DRIVE, SOUTH HAVEN, MI, 49090","Match","Exact","509 LENA DR, SOUTH HAVEN, MI, 49090",34759924,"L"
688944,"509 LENKENANN DR","CINCINNATI","OH",45255,39.0558055120001,-84.308807174,444,"509 LENKENANN DR, CINCINNATI, OH, 45255","Match","Exact","509 LENKENANN DR, CINCINNATI, OH, 45255",118446214,"L"
688945,"509 LEY ST","AVILLA","IN",46710,41.3717313920001,-85.2356507979999,445,"509 LEY ST, AVILLA, IN, 46710","Match","Exact","509 LEY ST, AVILLA, IN, 46710",614017847,"L"
688946,"509 LINCOLN DRIVE","ROCKY MOUNT","NC",27801,35.9173957610001,-77.792291904,446,"509 LINCOLN DRIVE, ROCKY MOUNT, NC, 27801","Match","Exact","509 LINCOLN DR, ROCKY MOUNT, NC, 27801",90176543,"R"
688947,"509 LINCOLNSHIRE DR","SYCAMORE","IL",60178,41.9813262340001,-88.678370004,447,"509 LINCOLNSHIRE DR, SYCAMORE, IL, 60178","Match","Exact","509 LINCOLNSHIRE DR, SYCAMORE, IL, 60178",52260114,"L"
688948,"509 LINDA ANN","GRAY","LA",70359,29.6829349990001,-90.775000187,448,"509 LINDA ANN, GRAY, LA, 70359","Match","Non_Exact","509 LINDA ANN AVE, GRAY, LA, 70359",639182383,"L"
688949,"509 LINDEN AVE","GRASS VALLEY","CA",95945,39.2209342630001,-121.065336447,449,"509 LINDEN AVE, GRASS VALLEY, CA, 95945","Match","Exact","509 LINDEN AVE, GRASS VALLEY, CA, 95945",106533750,"L"
688950,"509 LINDEN AVENUE","WILMETTE","IL",60091,42.0737779400001,-87.6940053499999,450,"509 LINDEN AVENUE, WILMETTE, IL, 60091","Match","Exact","509 LINDEN AVE, WILMETTE, IL, 60091",111742741,"L"
688951,"509 LINDEN CIRCLE","CHARLESTON","SC",29407,32.7825504420001,-80.00157868,451,"509 LINDEN CIRCLE, CHARLESTON, SC, 29407","Match","Exact","509 LINDEN CIR, CHARLESTON, SC, 29407",108902236,"R"
688952,"509 LOCUST ST","SWEETWATER","TX",79556,32.4735857690001,-100.409314791,452,"509 LOCUST ST, SWEETWATER, TX, 79556","Match","Exact","509 LOCUST ST, SWEETWATER, TX, 79556",186308077,"L"
688953,"509 LONDONTOWN RD","EDGEWATER","MD",21037,38.9340921950001,-76.549662145,453,"509 LONDONTOWN RD, EDGEWATER, MD, 21037","Match","Exact","509 LONDONTOWN RD, EDGEWATER, MD, 21037",68200074,"R"
688954,"509 LOWER HERITAGE WAY","FARMINGTON","MN",55042,44.624422345,-93.143876812,454,"509 LOWER HERITAGE WAY, FARMINGTON, MN, 55042","Match","Non_Exact","509 LOWER HERITAGE WAY, FARMINGTON, MN, 55024",37927977,"L"
688955,"509 MADISON AVE","NEW YORK","NY",10022,40.7595833770001,-73.9743291779999,455,"509 MADISON AVE, NEW YORK, NY, 10022","Match","Exact","509 MADISON AVE, NEW YORK, NY, 10022",59657215,"R"
688956,"509 MAGNA DRIVE","DURHAM","NC",27703,36.006498768,-78.811279193,456,"509 MAGNA DRIVE, DURHAM, NC, 27703","Match","Exact","509 MAGNA DR, DURHAM, NC, 27703",614673726,"R"
688957,"509 MAIN STREET","EAST MACHIAS","ME",4630,44.73740086,-67.390504127,457,"509 MAIN STREET, EAST MACHIAS, ME, 4630","Match","Exact","509 MAIN ST, EAST MACHIAS, ME, 04630",612328850,"L"
688958,"509 MAIN STREET","EVANSTON","IL",60202,42.033945025,-87.6782348,458,"509 MAIN STREET, EVANSTON, IL, 60202","Match","Exact","509 MAIN ST, EVANSTON, IL, 60202",616790039,"R"
688959,"509 MAIN STREET","RED HILL","PA",18076,40.396898204,-75.49633834,459,"509 MAIN STREET, RED HILL, PA, 18076","Match","Non_Exact","509 MAIN ST, RED HILL, PA, 18073",135060257,"R"
688960,"509 MAJORS RD","VAN ALSTYNE","TX",75495,33.424638842,-96.639542503,460,"509 MAJORS RD, VAN ALSTYNE, TX, 75495","Match","Exact","509 MAJORS RD, VAN ALSTYNE, TX, 75495",63385351,"L"
688961,"509 MALIBU DR","VIRGINIA BEACH","VA",23452,36.8478216070001,-76.096051781,461,"509 MALIBU DR, VIRGINIA BEACH, VA, 23452","Match","Exact","509 MALIBU DR, VA BCH, VA, 23452",122266656,"L"
688962,"509 MANHATTAN AVENUE","NEW YORK","NY",10027,40.8083265380001,-73.954420425,462,"509 MANHATTAN AVENUE, NEW YORK, NY, 10027","Match","Exact","509 MANHATTAN AVE, NEW YORK, NY, 10027",59656091,"L"
688963,"509 MAPAUS AVE","SAVANNAH","GA",31401,32.0527195540001,-81.09551206,463,"509 MAPAUS AVE, SAVANNAH, GA, 31401","Match","Non_Exact","509 MAUPAS AVE, SAVANNAH, GA, 31401",6176239,"R"
688964,"509 MAPLE COVE LANE NW","MADISON","AL",35757,34.771361143,-86.739178656,464,"509 MAPLE COVE LANE NW, MADISON, AL, 35757","Match","Exact","509 MAPLE COVE LN NW, MADISON, AL, 35757",648025613,"L"
688965,"509 MAPLE COVE LANE","MADISON","AL",35757,34.771361143,-86.739178656,465,"509 MAPLE COVE LANE, MADISON, AL, 35757","Match","Non_Exact","509 MAPLE COVE LN NW, MADISON, AL, 35757",648025613,"L"
688966,"509 MAPLE DRIVE","SPRINGDALE","AR",72764,36.1804795150001,-94.1353837889999,466,"509 MAPLE DRIVE, SPRINGDALE, AR, 72764","Match","Exact","509 MAPLE DR, SPRINGDALE, AR, 72764",639303391,"L"
688967,"509 MARCEL DRIVE","HARRISBURG","PA",17109,40.29742975,-76.8471010169999,467,"509 MARCEL DRIVE, HARRISBURG, PA, 17109","Match","Exact","509 MARCEL DR, HARRISBURG, PA, 17109",70819977,"R"
688968,"509 MARTIN LUTHER KIND JR BLVD","TRENTON","NJ",8618,NA,NA,468,"509 MARTIN LUTHER KIND JR BLVD, TRENTON, NJ, 8618","No_Match",NA,NA,NA,NA
688969,"509 MAURICE ST","MALVERN","AR",72104,34.3738505480001,-92.797267878,469,"509 MAURICE ST, MALVERN, AR, 72104","Match","Exact","509 MAURICE ST, MALVERN, AR, 72104",650034900,"R"
688970,"509 MAYBERRY AVE","MISSION","TX",78572,NA,NA,470,"509 MAYBERRY AVE, MISSION, TX, 78572","No_Match",NA,NA,NA,NA
688971,"509 MAYFLOWER COURT","FORT WALTON BEACH","FL",32547,30.4387151490001,-86.6186333589999,471,"509 MAYFLOWER COURT, FORT WALTON BEACH, FL, 32547","Match","Exact","509 MAYFLOWER CT, FORT WALTON BEACH, FL, 32547",74390680,"L"
688972,"509 MEADOW BROOK ROAD 325","ROCHESTER","MI",48309,NA,NA,472,"509 MEADOW BROOK ROAD 325, ROCHESTER, MI, 48309","No_Match",NA,NA,NA,NA
688973,"509 MEADOW LANE","ELDORADO","AR",71730,33.249918198,-92.670604455,473,"509 MEADOW LANE, ELDORADO, AR, 71730","Match","Non_Exact","509 MEADOW LN, EL DORADO, AR, 71730",28178879,"R"
688974,"509 MEADOW LEA DRIVE","AUSTIN","TX",78745,30.1894925070001,-97.7887918489999,474,"509 MEADOW LEA DRIVE, AUSTIN, TX, 78745","Match","Exact","509 MEADOW LEA DR, AUSTIN, TX, 78745",63949481,"L"
688975,"509 MESA VIEW DRIVE","ARROYO GRANDE","CA",93420,35.082487056,-120.585010024,475,"509 MESA VIEW DRIVE, ARROYO GRANDE, CA, 93420","Match","Exact","509 MESA VIEW DR, ARROYO GRANDE, CA, 93420",645319328,"R"
688976,"509 MIDDLE STREET","PRAIRIE DU ROCHER","IL",62277,38.0813858060001,-90.0967990409999,476,"509 MIDDLE STREET, PRAIRIE DU ROCHER, IL, 62277","Match","Exact","509 MIDDLE ST, PR DU ROCHER, IL, 62277",95170302,"L"
688977,"509 MILLHOUSE ROAD","CASTLE HAYNE","NC",28429,34.336949437,-77.880794979,477,"509 MILLHOUSE ROAD, CASTLE HAYNE, NC, 28429","Match","Exact","509 MILLHOUSE RD, CASTLE HAYNE, NC, 28429",152732315,"L"
688978,"509 MILLIGAN DRIVE","STONE MOUNTAIN","GA",30083,33.7907334430001,-84.240005415,478,"509 MILLIGAN DRIVE, STONE MOUNTAIN, GA, 30083","Match","Exact","509 MILLIGAN DR, STONE MOUNTAIN, GA, 30083",23369953,"R"
688979,"509 MILO ST","FORT ATKINSON","WI",53538,42.9227442440001,-88.8420681969999,479,"509 MILO ST, FORT ATKINSON, WI, 53538","Match","Exact","509 MILO ST, FORT ATKINSON, WI, 53538",53216473,"R"
688980,"509 MINOR STREET","GAINESBORO","TN",38562,36.356686004,-85.657966704,480,"509 MINOR STREET, GAINESBORO, TN, 38562","Match","Exact","509 MINOR ST, GAINESBORO, TN, 38562",25107844,"L"
688981,"509 MOBILE WAY","VANCOUVER","WA",98664,45.6174410140001,-122.596473033,481,"509 MOBILE WAY, VANCOUVER, WA, 98664","Match","Exact","509 MOBILE WAY, VANCOUVER, WA, 98664",158328330,"L"
688982,"509 MOCKINGBIRD LANE","FILLMORE","CA",93015,34.400685266,-118.929974627,482,"509 MOCKINGBIRD LANE, FILLMORE, CA, 93015","Match","Exact","509 MOCKINGBIRD LN, FILLMORE, CA, 93015",110052692,"R"
688983,"509 MOCKINGBIRD LANE","WEATHERFORD","TX",76086,32.7429099060001,-97.811457508,483,"509 MOCKINGBIRD LANE, WEATHERFORD, TX, 76086","Match","Exact","509 MOCKINGBIRD LN, WEATHERFORD, TX, 76086",103579893,"L"
688984,"509 MONROE STREET","FAIRBANKS","AK",99701,64.8499815750001,-147.716672642,484,"509 MONROE STREET, FAIRBANKS, AK, 99701","Match","Exact","509 MONROE ST, FAIRBANKS, AK, 99701",190893669,"L"
688985,"509 MONTROSE DR","ROMEOVILLE","IL",60446,41.6479431060001,-88.09431876,485,"509 MONTROSE DR, ROMEOVILLE, IL, 60446","Match","Exact","509 MONTROSE DR, ROMEOVILLE, IL, 60446",111535876,"R"
688986,"509 MOROE ST","TRENTON","MO",64683,NA,NA,486,"509 MOROE ST, TRENTON, MO, 64683","No_Match",NA,NA,NA,NA
688987,"509 MOSLEY COURT","CHESTER","PA",19013,39.840069946,-75.381879774,487,"509 MOSLEY COURT, CHESTER, PA, 19013","Match","Exact","509 MOSLEY CT, CHESTER, PA, 19013",648986935,"R"
688988,"509 MOSS LANDING","ANTIOCH","TN",37013,36.076959969,-86.6161180889999,488,"509 MOSS LANDING, ANTIOCH, TN, 37013","Match","Non_Exact","509 MOSS LANDING DR, ANTIOCH, TN, 37013",97200114,"L"
688989,"509 MULBERRY BLVD","CENTERVILLE","IN",47330,39.8132029430001,-84.986906984,489,"509 MULBERRY BLVD, CENTERVILLE, IN, 47330","Match","Exact","509 MULBERRY BLVD, CENTERVILLE, IN, 47330",31324815,"R"
688990,"509 MULBERRY STREET","MONROEVILLE","IN",46773,40.9691947160001,-84.8680088529999,490,"509 MULBERRY STREET, MONROEVILLE, IN, 46773","Match","Exact","509 MULBERRY ST, MONROEVILLE, IN, 46773",647257523,"R"
688991,"509 MULBERRY","POMEROY","OH",45769,39.03846243,-82.043538736,491,"509 MULBERRY, POMEROY, OH, 45769","Match","Non_Exact","509 MULBERRY AVE, POMEROY, OH, 45769",101273785,"R"
688992,"509 N 190TH STREET","SHORELINE","WA",98133,47.7668409080001,-122.35299272,492,"509 N 190TH STREET, SHORELINE, WA, 98133","Match","Exact","509 N 190TH ST, SHORELINE, WA, 98133",640611830,"R"
688993,"509 N 3RD STREET","DECATUR","IN",46733,40.834752763,-84.9264872369999,493,"509 N 3RD STREET, DECATUR, IN, 46733","Match","Exact","509 N 3RD ST, DECATUR, IN, 46733",6490777,"L"
688994,"509 N 3RD STREET","POLK CITY","IA",50226,41.777433532,-93.709548419,494,"509 N 3RD STREET, POLK CITY, IA, 50226","Match","Exact","509 N 3RD ST, POLK CITY, IA, 50226",65773177,"L"
688995,"509 N 9TH STREET","MITCHELL","IN",47446,38.736851341,-86.4776567009999,495,"509 N 9TH STREET, MITCHELL, IN, 47446","Match","Exact","509 N 9TH ST, MITCHELL, IN, 47446",42076526,"L"
688996,"509 N ALMOND WAY","BANNING","CA",92220,33.9299442970001,-116.866904105,496,"509 N ALMOND WAY, BANNING, CA, 92220","Match","Exact","509 ALMOND WAY, BANNING, CA, 92220",194688709,"L"
688997,"509 N AVON CT","OSWEGO","IL",60543,41.7125067630001,-88.316725815,497,"509 N AVON CT, OSWEGO, IL, 60543","Match","Exact","509 N AVON CT, OSWEGO, IL, 60543",54496921,"L"
688998,"509 N BRYAN AVE","CARTERVILLE","IL",62918,37.765988801,-89.0788936819999,498,"509 N BRYAN AVE, CARTERVILLE, IL, 62918","Match","Exact","509 BRYAN AVE, CARTERVILLE, IL, 62918",6036457,"L"
688999,"509 N CLEVELAND AVE","FT MEADE","FL",33841,27.7579107940001,-81.7960216,499,"509 N CLEVELAND AVE, FT MEADE, FL, 33841","Match","Exact","509 N CLEVELAND AVE, FORT MEADE, FL, 33841",104834077,"R"
689000,"509 N COAST HIGHWAY","OCEANSIDE","CA",92054,33.198594137,-117.381798192,500,"509 N COAST HIGHWAY, OCEANSIDE, CA, 92054","Match","Exact","509 N COAST HWY, OCEANSIDE, CA, 92054",195280207,"L"
