"ID","Address","City","State","Zip","lat","long","id","input_address","match_indicator","match_type","matched_address","tiger_line_id","tiger_side"
684001,"5038 SYCAMORE STREET","BATON ROUGE","LA",70805,30.494988054,-91.140093542,1,"5038 SYCAMORE STREET, BATON ROUGE, LA, 70805","Match","Exact","5038 SYCAMORE ST, BATON ROUGE, LA, 70805",92181157,"R"
684002,"5038 TAFT HIGHWAY","SIGNAL MOUNTAIN","TN",37377,35.1865865560001,-85.3476681659999,2,"5038 TAFT HIGHWAY, SIGNAL MOUNTAIN, TN, 37377","Match","Exact","5038 TAFT HWY, SIGNAL MOUNTAIN, TN, 37377",652102464,"R"
684003,"5038 THORNWOOD DRIVE","WESTERVILLE","OH",43082,40.1773760510001,-82.927571649,3,"5038 THORNWOOD DRIVE, WESTERVILLE, OH, 43082","Match","Exact","5038 THORNWOOD DR, WESTERVILLE, OH, 43082",213002155,"R"
684004,"5038 TULE DR","TOPOCK","AZ",86436,NA,NA,4,"5038 TULE DR, TOPOCK, AZ, 86436","No_Match",NA,NA,NA,NA
684005,"5038 W 179TH STREET","COUNTRY CLUB HILLS","IL",60478,41.565744259,-87.739651989,5,"5038 W 179TH STREET, COUNTRY CLUB HILLS, IL, 60478","Match","Exact","5038 179TH ST, COUNTRY CLUB HILLS, IL, 60478",641667379,"R"
684006,"5038 W 58TH PL","LOS ANGELES","CA",90056,33.9864994440001,-118.365731993,6,"5038 W 58TH PL, LOS ANGELES, CA, 90056","Match","Exact","5038 W 58TH PL, LOS ANGELES, CA, 90056",141653512,"L"
684007,"5038 W STRONG ST","CHICAGO","IL",60630,41.9707018140001,-87.753710712,7,"5038 W STRONG ST, CHICAGO, IL, 60630","Match","Exact","5038 W STRONG ST, CHICAGO, IL, 60630",111755071,"R"
684008,"5038 W WHITE DIAMOND WAY","WEST VALLEY CITY","UT",84120,40.700938593,-112.011740045,8,"5038 W WHITE DIAMOND WAY, WEST VALLEY CITY, UT, 84120","Match","Exact","5038 WHITE DIAMOND WAY, WEST VALLEY CITY, UT, 84120",604582800,"R"
684009,"5038 WEBER ROAD","MOHNTON","PA",19540,40.234104185,-75.968551939,9,"5038 WEBER ROAD, MOHNTON, PA, 19540","Match","Exact","5038 WEBER RD, MOHNTON, PA, 19540",80481357,"R"
684010,"5038 WILDWOOD RD","MARYVILLE","TN",37804,35.7965440830001,-83.8585447309999,10,"5038 WILDWOOD RD, MARYVILLE, TN, 37804","Match","Exact","5038 WILDWOOD RD, MARYVILLE, TN, 37804",89834622,"L"
684011,"5038 WILSON LANE","BRIDGMAN","MI",49106,41.9284583520001,-86.574195811,11,"5038 WILSON LANE, BRIDGMAN, MI, 49106","Match","Exact","5038 WILSON LN, BRIDGMAN, MI, 49106",119988406,"L"
684012,"5038 WISE BIRD DRIVE","WINDERMERE","FL",34786,28.492364589,-81.588598163,12,"5038 WISE BIRD DRIVE, WINDERMERE, FL, 34786","Match","Exact","5038 WISE BIRD DR, WINDERMERE, FL, 34786",631798562,"R"
684013,"5039 11 STREET NE","WASHINGTON DC","DC",20017,38.951140287,-76.9916828409999,13,"5039 11 STREET NE, WASHINGTON DC, DC, 20017","Match","Exact","5039 11TH ST NE, WASHINGTON, DC, 20017",76228115,"R"
684014,"5039 17TH AVE S","MINNEAPOLIS","MN",55417,44.9117279550001,-93.249863752,14,"5039 17TH AVE S, MINNEAPOLIS, MN, 55417","Match","Exact","5039 17TH AVE S, MINNEAPOLIS, MN, 55417",43639321,"L"
684015,"5039 8TH AVE NE 3","SEATTLE","WA",98105,47.665352469,-122.319547923,15,"5039 8TH AVE NE 3, SEATTLE, WA, 98105","Match","Exact","5039 8TH AVE NE, SEATTLE, WA, 98105",186583309,"L"
684016,"5039 8TH AVE NE 4","SEATTLE","WA",98105,47.665352469,-122.319547923,16,"5039 8TH AVE NE 4, SEATTLE, WA, 98105","Match","Exact","5039 8TH AVE NE, SEATTLE, WA, 98105",186583309,"L"
684017,"5039 8TH AVE NE 5","SEATTLE","WA",98105,47.665352469,-122.319547923,17,"5039 8TH AVE NE 5, SEATTLE, WA, 98105","Match","Exact","5039 8TH AVE NE, SEATTLE, WA, 98105",186583309,"L"
684018,"5039 ASHBROOK CIR","HIGHLANDS RANCH","CO",80130,39.5309550220001,-104.928126671,18,"5039 ASHBROOK CIR, HIGHLANDS RANCH, CO, 80130","Match","Exact","5039 ASHBROOK CIR, HIGHLANDS RANCH, CO, 80130",130833007,"R"
684019,"5039 BROADWAY","GARY","IN",46409,41.5254472390001,-87.33606105,19,"5039 BROADWAY, GARY, IN, 46409","Match","Exact","5039 BROADWAY, GARY, IN, 46409",606315296,"L"
684020,"5039 CORTE TIARA","CAMARILLO","CA",91780,34.231059121,-119.006404379,20,"5039 CORTE TIARA, CAMARILLO, CA, 91780","Match","Non_Exact","5039 CORTE TIARA, CAMARILLO, CA, 93012",110052882,"L"
684021,"5039 ELMWOOD ST","TRINITY","NC",27370,35.88050679,-79.987127981,21,"5039 ELMWOOD ST, TRINITY, NC, 27370","Match","Exact","5039 ELMWOOD ST, TRINITY, NC, 27370",20415784,"R"
684022,"5039 ESTONIAN DR","FAIRBURN","GA",30213,33.618424792,-84.62431924,22,"5039 ESTONIAN DR, FAIRBURN, GA, 30213","Match","Exact","5039 ESTONIAN DR, FAIRBURN, GA, 30213",628094346,"L"
684023,"5039 GOLDENROD LN","LINCOLN","NE",68512,40.7630598800001,-96.689362334,23,"5039 GOLDENROD LN, LINCOLN, NE, 68512","Match","Exact","5039 GOLDENROD LN, LINCOLN, NE, 68512",28256192,"R"
684024,"5039 GUNTHER STREET","CAPITOL HEIGHTS","MD",20743,NA,NA,24,"5039 GUNTHER STREET, CAPITOL HEIGHTS, MD, 20743","No_Match",NA,NA,NA,NA
684025,"5039 HAMILTON WOLFE RD - 2312","SAN ANTONIO","TX",78229,29.5210464940001,-98.585649588,25,"5039 HAMILTON WOLFE RD - 2312, SAN ANTONIO, TX, 78229","Match","Exact","5039 HAMILTON WOLFE RD, SAN ANTONIO, TX, 78229",641655600,"R"
684026,"5039 HAMILTON WOLFE ROAD APT 1405","SAN ANTONIO","TX",78229,29.5210464940001,-98.585649588,26,"5039 HAMILTON WOLFE ROAD APT 1405, SAN ANTONIO, TX, 78229","Match","Exact","5039 HAMILTON WOLFE RD, SAN ANTONIO, TX, 78229",641655600,"R"
684027,"5039 MERION COURT","MAYSLANDING","NJ",8330,39.456475282,-74.670537141,27,"5039 MERION COURT, MAYSLANDING, NJ, 8330","Match","Non_Exact","5039 MERION CT, MAYS LANDING, NJ, 08330",202506739,"R"
684028,"5039 N KEELER AVENUE","CHICAGO","IL",60630,41.9728535840001,-87.733084473,28,"5039 N KEELER AVENUE, CHICAGO, IL, 60630","Match","Exact","5039 N KEELER AVE, CHICAGO, IL, 60630",605169952,"R"
684029,"5039 NORTE DEL SOL LANE","NORTH LAS VEGAS","NV",89031,36.2515482910001,-115.165864609,29,"5039 NORTE DEL SOL LANE, NORTH LAS VEGAS, NV, 89031","Match","Exact","5039 NORTE DEL SOL LN, N LAS VEGAS, NV, 89031",201909419,"L"
684030,"5039 RIVERSEDGE ROAD","LOUISVILLE","MT",37777,NA,NA,30,"5039 RIVERSEDGE ROAD, LOUISVILLE, MT, 37777","No_Match",NA,NA,NA,NA
684031,"5039 RIVERSEDGE ROAD","LOUISVILLE","TN",37777,NA,NA,31,"5039 RIVERSEDGE ROAD, LOUISVILLE, TN, 37777","No_Match",NA,NA,NA,NA
684032,"5039 ROLLING ROCK CT","COLUMBUS","OH",43229,40.0724248450001,-82.954697336,32,"5039 ROLLING ROCK CT, COLUMBUS, OH, 43229","Match","Exact","5039 ROLLING ROCK CT, COLUMBUS, OH, 43229",135707168,"R"
684033,"5039 S 37TH STREET","ST LOUIS","MO",63116,38.5737206480001,-90.253066688,33,"5039 S 37TH STREET, ST LOUIS, MO, 63116","Match","Exact","5039 S 37TH ST, SAINT LOUIS, MO, 63116",107601765,"R"
684034,"5039 S MICHIGAN COURT","LITTLETON","CO",80123,39.625800289,-105.037788668,34,"5039 S MICHIGAN COURT, LITTLETON, CO, 80123","Match","Exact","5039 S MICHIGAN CT, LITTLETON, CO, 80123",177335216,"R"
684035,"5039 SADDE CREEK CIRCLE","ELLENWOOD","GA",30294,33.6146060130001,-84.276536134,35,"5039 SADDE CREEK CIRCLE, ELLENWOOD, GA, 30294","Match","Non_Exact","5039 SADDLE CREEK CIR, ELLENWOOD, GA, 30294",629829315,"L"
684036,"5039 SADDLE CREEK CIRCLE","ELLENWOOD","GA",30294,33.6146060130001,-84.276536134,36,"5039 SADDLE CREEK CIRCLE, ELLENWOOD, GA, 30294","Match","Exact","5039 SADDLE CREEK CIR, ELLENWOOD, GA, 30294",629829315,"L"
684037,"5039 SILVER CHARM TERRACE","WESLEY CHAPEL","FL",33544,28.230299782,-82.3828438739999,37,"5039 SILVER CHARM TERRACE, WESLEY CHAPEL, FL, 33544","Match","Exact","5039 SILVER CHARM TER, WESLEY CHAPEL, FL, 33544",86400460,"R"
684038,"5039 TIMBER TRAIL DRIVE","MOUNT JULIET","TN",37122,36.2133748470001,-86.5082538779999,38,"5039 TIMBER TRAIL DRIVE, MOUNT JULIET, TN, 37122","Match","Exact","5039 TIMBER TRAIL DR, MOUNT JULIET, TN, 37122",630119290,"L"
684039,"5039 W BROAD ST","SUGAR HILL","GA",30518,34.1075011570001,-84.036555967,39,"5039 W BROAD ST, SUGAR HILL, GA, 30518","Match","Exact","5039 W BROAD ST, SUGAR HILL, GA, 30518",88913176,"R"
684040,"5039 W MURRAY DR","DIXON","IL",61021,41.9137856310001,-89.438956124,40,"5039 W MURRAY DR, DIXON, IL, 61021","Match","Exact","5039 W MURRAY DR, DIXON, IL, 61021",52331358,"R"
684041,"5039 WALDEN LANE","BRUNSWICK","OH",44212,41.2442002290001,-81.868952228,41,"5039 WALDEN LANE, BRUNSWICK, OH, 44212","Match","Exact","5039 WALDEN LN, BRUNSWICK, OH, 44212",614146233,"L"
684042,"5039 WALROND AVENUE","KANSAS CITY","MO",64130,39.0345832720001,-94.5477650559999,42,"5039 WALROND AVENUE, KANSAS CITY, MO, 64130","Match","Exact","5039 WALROND AVE, KANSAS CITY, MO, 64130",91452651,"L"
684043,"5039 WHITES FERRY RD","WEST MONROE","LA",71291,32.558696293,-92.158116767,43,"5039 WHITES FERRY RD, WEST MONROE, LA, 71291","Match","Exact","5039 WHITES FERRY RD, WEST MONROE, LA, 71291",161082557,"L"
684044,"50392 WOODSTOCK DRIVE","MITCHELL","NE",69357,41.9421055830001,-103.787438096,44,"50392 WOODSTOCK DRIVE, MITCHELL, NE, 69357","Match","Exact","50392 WOODSTOCK DR, MITCHELL, NE, 69357",160052943,"L"
684045,"50398 ROAD 426","OAKHURST","CA",95344,37.3116228660001,-119.629054822,45,"50398 ROAD 426, OAKHURST, CA, 95344","Match","Non_Exact","50398 RD 426, OAKHURST, CA, 93644",102327958,"L"
684046,"50399 216TH STREET","LAKE CRYSTAL","MN",56055,44.1666338160001,-94.252508703,46,"50399 216TH STREET, LAKE CRYSTAL, MN, 56055","Match","Exact","50399 216TH ST, LAKE CRYSTAL, MN, 56055",28113112,"L"
684047,"503B CAROLYN AVE","AUSTIN","TX",78705,30.2968886410001,-97.730822141,47,"503B CAROLYN AVE, AUSTIN, TX, 78705","Match","Exact","503 CAROLYN AVE, AUSTIN, TX, 78705",63945758,"R"
684048,"504 1/2 35TH ST","NEWPORT BEACH","CA",92663,33.6180188160001,-117.931639398,48,"504 1/2 35TH ST, NEWPORT BEACH, CA, 92663","Match","Exact","504 35TH ST, NEWPORT BEACH, CA, 92663",144047050,"R"
684049,"504 11TH AVE S","ONALASKA","WI",54650,43.879088864,-91.221033141,49,"504 11TH AVE S, ONALASKA, WI, 54650","Match","Exact","504 11TH AVE S, ONALASKA, WI, 54650",51033239,"R"
684050,"504 11TH ST W","ASHLAND","WI",54806,46.5816644010001,-90.8812012829999,50,"504 11TH ST W, ASHLAND, WI, 54806","Match","Exact","504 11TH ST W, ASHLAND, WI, 54806",607928960,"R"
684051,"504 11TH STREET","HERMOSA BEACH","CA",90254,33.8624465440001,-118.395731889,51,"504 11TH STREET, HERMOSA BEACH, CA, 90254","Match","Exact","504 11TH ST, HERMOSA BEACH, CA, 90254",141583120,"L"
684052,"504 12TH STREET","BROOKLYN","NY",11215,40.6635866240001,-73.979984209,52,"504 12TH STREET, BROOKLYN, NY, 11215","Match","Exact","504 12TH ST, BROOKLYN, NY, 11215",59078266,"R"
684053,"504 13TH AVE N","SARTELL","MN",56307,45.626898973,-94.2352304679999,53,"504 13TH AVE N, SARTELL, MN, 56307","Match","Non_Exact","504 13TH AVE N, SARTELL, MN, 56377",611977614,"L"
684054,"504 14 AVE S","COLD SPRING","MN",56320,45.4496832030001,-94.445279966,54,"504 14 AVE S, COLD SPRING, MN, 56320","Match","Exact","504 14TH AVE S, COLD SPRING, MN, 56320",649529084,"L"
684055,"504 1ST STREET","PANA","IL",62557,39.389447595,-89.075401034,55,"504 1ST STREET, PANA, IL, 62557","Match","Exact","504 1ST ST, PANA, IL, 62557",99314135,"R"
684056,"504 21ST AVENUE","EAST MOLINE","IL",61244,41.5106944120001,-90.450054906,56,"504 21ST AVENUE, EAST MOLINE, IL, 61244","Match","Exact","504 21ST AVE, EAST MOLINE, IL, 61244",9214537,"R"
684057,"504 21ST DRIVE","SNOHOMISH","WA",98290,47.9372703560001,-122.085993824,57,"504 21ST DRIVE, SNOHOMISH, WA, 98290","Match","Exact","504 21ST DR, SNOHOMISH, WA, 98290",652815638,"R"
684058,"504 2ND AVE NW","POCAHONTAS","IA",50574,42.7344315980001,-94.6763758979999,58,"504 2ND AVE NW, POCAHONTAS, IA, 50574","Match","Exact","504 2ND AVE NW, POCAHONTAS, IA, 50574",77480946,"L"
684059,"504 2ND AVE SE","RONAN","MT",59864,47.5249196550001,-114.094387857,59,"504 2ND AVE SE, RONAN, MT, 59864","Match","Exact","504 2ND AVE SE, RONAN, MT, 59864",206890956,"R"
684060,"504 2ND STREET","DURANT","IA",52747,41.5978841670001,-90.913834655,60,"504 2ND STREET, DURANT, IA, 52747","Match","Exact","504 2ND ST, DURANT, IA, 52747",16706396,"R"
684061,"504 3RD ST","MANILLA","IA",51454,41.888580968,-95.234820827,61,"504 3RD ST, MANILLA, IA, 51454","Match","Exact","504 3RD ST, MANILLA, IA, 51454",82271476,"R"
684062,"504 5TH AVENUE NORTH","PRINCETON","MN",55371,45.575853561,-93.5800848649999,62,"504 5TH AVENUE NORTH, PRINCETON, MN, 55371","Match","Exact","504 5TH AVE N, PRINCETON, MN, 55371",163060262,"R"
684063,"504 5TH ST","MUKILTEO","WA",98275,47.9442855660001,-122.305902383,63,"504 5TH ST, MUKILTEO, WA, 98275","Match","Exact","504 5TH ST, MUKILTEO, WA, 98275",187739250,"L"
684064,"504 5TH STREET","JUNEAU","AK",99801,58.3035266890001,-134.407145251,64,"504 5TH STREET, JUNEAU, AK, 99801","Match","Exact","504 5TH ST, JUNEAU, AK, 99801",190964357,"L"
684065,"504 6TH AVENUE NW","DODGE CENTER","MN",55927,44.032749537,-92.8635124529999,65,"504 6TH AVENUE NW, DODGE CENTER, MN, 55927","Match","Exact","504 6TH AVE NW, DODGE CENTER, MN, 55927",31419898,"R"
684066,"504 7TH AVE N","ST CLOUD","MN",56301,45.5546944540001,-94.157402115,66,"504 7TH AVE N, ST CLOUD, MN, 56301","Match","Non_Exact","504 7TH AVE S, SAINT CLOUD, MN, 56301",107415448,"L"
684067,"504 8TH AVE SW","DYERSVILLE","IA",52040,42.4783443810001,-91.13105488,67,"504 8TH AVE SW, DYERSVILLE, IA, 52040","Match","Exact","504 8TH AVE SW, DYERSVILLE, IA, 52040",16915358,"L"
684068,"504 8TH ST","HENDERON","KY",42420,37.8460592660001,-87.582355793,68,"504 8TH ST, HENDERON, KY, 42420","Match","Non_Exact","504 8TH ST, HENDERSON, KY, 42420",57917262,"L"
684069,"504 8TH STREET","NEW CUMBERLAND","PA",17070,40.228026927,-76.875168991,69,"504 8TH STREET, NEW CUMBERLAND, PA, 17070","Match","Exact","504 8TH ST, NEW CUMBERLAND, PA, 17070",60964332,"L"
684070,"504 ACADIA COURT","GARNER","NC",27529,35.643873721,-78.534954338,70,"504 ACADIA COURT, GARNER, NC, 27529","Match","Exact","504 ACADIA CT, GARNER, NC, 27529",26545579,"R"
684071,"504 AIRPORT ROAD","BRECKENRIDGE","CO",80424,NA,NA,71,"504 AIRPORT ROAD, BRECKENRIDGE, CO, 80424","No_Match",NA,NA,NA,NA
684072,"504 ALLEN HARRIS DR","YORKTOWN","VA",23692,37.1921805160001,-76.482247967,72,"504 ALLEN HARRIS DR, YORKTOWN, VA, 23692","Match","Exact","504 ALLEN HARRIS DR, YORKTOWN, VA, 23692",103786692,"R"
684073,"504 AMMONITE COURT","ARLINGTON","TX",76002,32.62106092,-97.1062344489999,73,"504 AMMONITE COURT, ARLINGTON, TX, 76002","Match","Exact","504 AMMONITE CT, ARLINGTON, TX, 76002",102188206,"L"
684074,"504 ANGEL LEA","CARL JUNCTION","MO",64834,37.172271897,-94.551503308,74,"504 ANGEL LEA, CARL JUNCTION, MO, 64834","Match","Non_Exact","504 ANGEL LEA DR, CARL JUNCTION, MO, 64834",66173229,"R"
684075,"504 ANNABEL AVENUE","BALTIMORE","MD",21225,39.2378107930001,-76.6031417309999,75,"504 ANNABEL AVENUE, BALTIMORE, MD, 21225","Match","Exact","504 ANNABEL AVE, BALTIMORE, MD, 21225",206423128,"L"
684076,"504 APPLE TREE LANE","MOORE","OK",73160,35.296224183,-97.474053393,76,"504 APPLE TREE LANE, MOORE, OK, 73160","Match","Exact","504 APPLE TREE LN, MOORE, OK, 73160",648745887,"R"
684077,"504 ARNOLD ST","PHILADELPHIA","PA",19111,40.081983248,-75.077152056,77,"504 ARNOLD ST, PHILADELPHIA, PA, 19111","Match","Exact","504 ARNOLD ST, PHILADELPHIA, PA, 19111",131441681,"R"
684078,"504 ASPEN CT","MIDDLETOWN","DE",19709,39.520771638,-75.712656064,78,"504 ASPEN CT, MIDDLETOWN, DE, 19709","Match","Exact","504 ASPEN CT, MIDDLETOWN, DE, 19709",187276826,"R"
684079,"504 ASPEN PLACE","EVERGREEN","CO",80439,39.6598682760001,-105.421434888,79,"504 ASPEN PLACE, EVERGREEN, CO, 80439","Match","Exact","504 ASPEN PL, EVERGREEN, CO, 80439",179820609,"L"
684080,"504 AUTH ROAD 200","SUITLAND","MD",20746,NA,NA,80,"504 AUTH ROAD 200, SUITLAND, MD, 20746","No_Match",NA,NA,NA,NA
684081,"504 AVANT AVE C","SARASOTA","FL",34232,27.340374507,-82.469124562,81,"504 AVANT AVE C, SARASOTA, FL, 34232","Match","Exact","504 AVANT AVE, SARASOTA, FL, 34232",16355752,"R"
684082,"504 BALTIC AVE PO BOX 214","CASPIAN","MI",49915,46.0636227970001,-88.6240964679999,82,"504 BALTIC AVE PO BOX 214, CASPIAN, MI, 49915","Match","Exact","504 BALTIC AVE, CASPIAN, MI, 49915",165182001,"R"
684083,"504 BARBIE LANE","INDIANAPOLIS","IN",46280,39.9393937410001,-86.1498846659999,83,"504 BARBIE LANE, INDIANAPOLIS, IN, 46280","Match","Non_Exact","504 BARBEE LN, INDIANAPOLIS, IN, 46280",29294277,"L"
684084,"504 BARLOW DR","PORTSMOUTH","VA",23707,36.8462059620001,-76.341786498,84,"504 BARLOW DR, PORTSMOUTH, VA, 23707","Match","Exact","504 BARLOW DR, PORTSMOUTH, VA, 23707",122197335,"L"
684085,"504 BARLOW DRIVE","PORTSMOUTH","VA",23707,36.8462059620001,-76.341786498,85,"504 BARLOW DRIVE, PORTSMOUTH, VA, 23707","Match","Exact","504 BARLOW DR, PORTSMOUTH, VA, 23707",122197335,"L"
684086,"504 BARNETT DR","CEDAR FALLS","IA",50613,42.5341966720001,-92.47592696,86,"504 BARNETT DR, CEDAR FALLS, IA, 50613","Match","Exact","504 BARNETT DR, CEDAR FALLS, IA, 50613",77247532,"L"
684087,"504 BARONNE STREET","HELENA","AL",35080,33.286016499,-86.859567639,87,"504 BARONNE STREET, HELENA, AL, 35080","Match","Exact","504 BARONNE ST, HELENA, AL, 35080",82088382,"R"
684088,"504 BEACHVIEW DRIVE","SAINT SIMONS ISLAND","GA",31522,31.1361353410001,-81.3847773539999,88,"504 BEACHVIEW DRIVE, SAINT SIMONS ISLAND, GA, 31522","Match","Exact","504 BEACHVIEW DR, ST SIMONS ISLAND, GA, 31522",9135301,"R"
684089,"504 BELL AVE","SCOTT CITY","MO",63780,37.222180693,-89.517574885,89,"504 BELL AVE, SCOTT CITY, MO, 63780","Match","Exact","504 BELL AVE, SCOTT CITY, MO, 63780",38942770,"R"
684090,"504 BELLEVUE PLACE","AUSTIN","TX",78705,30.291818327,-97.7339143949999,90,"504 BELLEVUE PLACE, AUSTIN, TX, 78705","Match","Exact","504 BELLEVUE PL, AUSTIN, TX, 78705",63945747,"L"
684091,"504 BELLS HOLLOW COURT","CHESAPEAKE","VA",23322,36.706734812,-76.2780430729999,91,"504 BELLS HOLLOW COURT, CHESAPEAKE, VA, 23322","Match","Exact","504 BELLS HOLLOW CT, CHESAPEAKE, VA, 23322",624982091,"R"
684092,"504 BELLVIEW DR","HEBER SPRINGS","AR",72543,35.5206625660001,-92.024621645,92,"504 BELLVIEW DR, HEBER SPRINGS, AR, 72543","Match","Exact","504 BELLVIEW DR, HEBER SPRINGS, AR, 72543",43184507,"L"
684093,"504 BENTWOOD DR","FT WASHINGTON","GA",20744,NA,NA,93,"504 BENTWOOD DR, FT WASHINGTON, GA, 20744","No_Match",NA,NA,NA,NA
684094,"504 BENTWOOD DR","FT WASHINGTON","MD",20744,NA,NA,94,"504 BENTWOOD DR, FT WASHINGTON, MD, 20744","No_Match",NA,NA,NA,NA
684095,"504 BETHANY COURT","WESTMINSTER","MD",21157,39.588995654,-76.9423089479999,95,"504 BETHANY COURT, WESTMINSTER, MD, 21157","Match","Exact","504 BETHANY CT, WESTMINSTER, MD, 21157",61753527,"L"
684096,"504 BETHEL STREET","PARKERSBURG","IA",50665,42.576398081,-92.788355678,96,"504 BETHEL STREET, PARKERSBURG, IA, 50665","Match","Exact","504 BETHEL ST, PARKERSBURG, IA, 50665",9611435,"L"
684097,"504 BEULAH ROAD","IPENN HLLS","PA",15235,40.456525512,-79.844213326,97,"504 BEULAH ROAD, IPENN HLLS, PA, 15235","Match","Non_Exact","504 BEULAH RD, PENN HILLS, PA, 15235",51667244,"R"
684098,"504 BIRCHWOOD DR","HIGH POINT","NC",27262,35.978330785,-80.024891141,98,"504 BIRCHWOOD DR, HIGH POINT, NC, 27262","Match","Exact","504 BIRCHWOOD DR, HIGH POINT, NC, 27262",131037943,"R"
684099,"504 BISHOP AVENUE","LAPORTE CITY","IA",50651,42.311740462,-92.191222693,99,"504 BISHOP AVENUE, LAPORTE CITY, IA, 50651","Match","Non_Exact","504 BISHOP AVE, LA PORTE CITY, IA, 50651",77246073,"R"
684100,"504 BLACKBURN DRIVE","MARTINEZ","GA",30907,33.534155906,-82.079097184,100,"504 BLACKBURN DRIVE, MARTINEZ, GA, 30907","Match","Exact","504 BLACKBURN DR, MARTINEZ, GA, 30907",636780109,"L"
684101,"504 BLACKSNAKE RD","ELKTON","MD",21921,39.6761386800001,-75.8751534479999,101,"504 BLACKSNAKE RD, ELKTON, MD, 21921","Match","Exact","504 BLACKSNAKE RD, ELKTON, MD, 21921",207854330,"R"
684102,"504 BLAINE ST","BANGOR","PA",18013,40.877636996,-75.192007733,102,"504 BLAINE ST, BANGOR, PA, 18013","Match","Exact","504 BLAINE ST, BANGOR, PA, 18013",136909027,"L"
684103,"504 BLICK DRIVE","SILVER SPRING","MD",20904,39.060292802,-77.002146168,103,"504 BLICK DRIVE, SILVER SPRING, MD, 20904","Match","Exact","504 BLICK DR, SILVER SPRING, MD, 20904",62089437,"L"
684104,"504 BLOUNT POINT ROAD","NEWPORT NEWS","VA",23606,37.0640633620001,-76.5132822159999,104,"504 BLOUNT POINT ROAD, NEWPORT NEWS, VA, 23606","Match","Exact","504 BLOUNT POINT RD, NEWPORT NEWS, VA, 23606",103753962,"R"
684105,"504 BOHLEBER DR","CARMI","IL",62821,38.079853331,-88.166403756,105,"504 BOHLEBER DR, CARMI, IL, 62821","Match","Exact","504 BOHLEBER DR, CARMI, IL, 62821",38204007,"R"
684106,"504 BOULEVARD STREET","SYRACUSE","NY",13211,43.09435495,-76.141259336,106,"504 BOULEVARD STREET, SYRACUSE, NY, 13211","Match","Exact","504 BOULEVARD ST, SYRACUSE, NY, 13211",46568962,"R"
684107,"504 BOUNTY DRIVE","POPLAR GROVE","IL",61065,42.361071387,-88.8622509309999,107,"504 BOUNTY DRIVE, POPLAR GROVE, IL, 61065","Match","Non_Exact","504 BOUNTY DR NE, POPLAR GROVE, IL, 61065",92158001,"R"
684108,"504 BRANARD ST","HOUSTON","TX",77006,29.7371192460001,-95.385582945,108,"504 BRANARD ST, HOUSTON, TX, 77006","Match","Exact","504 BRANARD ST, HOUSTON, TX, 77006",96070782,"R"
684109,"504 BRICKER DRIVE","WASHINGTON","MD",20744,38.713338541,-77.0002598259999,109,"504 BRICKER DRIVE, WASHINGTON, MD, 20744","Match","Non_Exact","504 BRICKER DR, FORT WASHINGTON, MD, 20744",642142852,"L"
684110,"504 BRIGHTON LANE","DYER","IN",46311,41.4761312540001,-87.516173266,110,"504 BRIGHTON LANE, DYER, IN, 46311","Match","Exact","504 BRIGHTON LN, DYER, IN, 46311",98450331,"R"
684111,"504 BRISTOL LN","BRUNSWICK","OH",44212,41.263002521,-81.795715305,111,"504 BRISTOL LN, BRUNSWICK, OH, 44212","Match","Exact","504 BRISTOL LN, BRUNSWICK, OH, 44212",58683140,"L"
684112,"504 BROOKSTONE WAY","LOUISVILLE","KY",40223,38.250595242,-85.548108908,112,"504 BROOKSTONE WAY, LOUISVILLE, KY, 40223","Match","Non_Exact","504 BROOK STONE WAY, LOUISVILLE, KY, 40223",96894746,"L"
684113,"504 BROOKWOOD BLVD","BIRMINGHAM","AL",35209,33.4685997120001,-86.775807626,113,"504 BROOKWOOD BLVD, BIRMINGHAM, AL, 35209","Match","Exact","504 BROOKWOOD BLVD, BIRMINGHAM, AL, 35209",81715491,"R"
684114,"504 BRYN MAWR","FORNEY","TX",75126,32.7371438930001,-96.468279181,114,"504 BRYN MAWR, FORNEY, TX, 75126","Match","Exact","504 BRYN MAWR, FORNEY, TX, 75126",619913032,"L"
684115,"504 BUCKSTONE GARTH","ABINGDON","MD",21009,39.4765647740001,-76.329127155,115,"504 BUCKSTONE GARTH, ABINGDON, MD, 21009","Match","Exact","504 BUCKSTONE GARTH, ABINGDON, MD, 21009",191654631,"R"
684116,"504 BUNKHOUSE COURT","TEMPLE","GA",30179,33.7378162270001,-85.001752266,116,"504 BUNKHOUSE COURT, TEMPLE, GA, 30179","Match","Exact","504 BUNKHOUSE CT, TEMPLE, GA, 30179",624586036,"L"
684117,"504 BYRD AVENUE","AVON PARK","FL",33825,27.602019598,-81.508316411,117,"504 BYRD AVENUE, AVON PARK, FL, 33825","Match","Non_Exact","504 N BYRD AVE, AVON PARK, FL, 33825",4627183,"R"
684118,"504 CABRILLO AVE","SANTA CRUZ","CA",95065,37.002191511,-121.97635598,118,"504 CABRILLO AVE, SANTA CRUZ, CA, 95065","Match","Exact","504 CABRILLO AVE, SANTA CRUZ, CA, 95065",125516156,"R"
684119,"504 CAMARK","CAMDEN","AR",71701,NA,NA,119,"504 CAMARK, CAMDEN, AR, 71701","No_Match",NA,NA,NA,NA
684120,"504 CAMPUS OAKS CT","LAS VEGAS","NV",89183,35.9965717600001,-115.152302751,120,"504 CAMPUS OAKS CT, LAS VEGAS, NV, 89183","Match","Exact","504 CAMPUS OAKS CT, LAS VEGAS, NV, 89183",201996644,"L"
684121,"504 CARPENTER AVE","FRANKLIN","MO",65250,39.01197538,-92.755115098,121,"504 CARPENTER AVE, FRANKLIN, MO, 65250","Match","Exact","504 CARPENTER AVE, FRANKLIN, MO, 65250",23111963,"R"
684122,"504 CARTWRIGHT TRL","MCHENRY","IL",60050,42.3326184570001,-88.309252472,122,"504 CARTWRIGHT TRL, MCHENRY, IL, 60050","Match","Exact","504 CARTWRIGHT TRL, MCHENRY, IL, 60050",119868798,"R"
684123,"504 CATLIN DRIVE","RICHMOND HEIGHTS","OH",44143,41.5482788900001,-81.51268143,123,"504 CATLIN DRIVE, RICHMOND HEIGHTS, OH, 44143","Match","Exact","504 CATLIN DR, RICHMOND HEIGHTS, OH, 44143",61170527,"R"
684124,"504 CAUSEY ROAD","LIZELLA","GA",31052,NA,NA,124,"504 CAUSEY ROAD, LIZELLA, GA, 31052","No_Match",NA,NA,NA,NA
684125,"504 CENTENNIAL BLVD UNIT 1783","VOORHEES","NJ",8043,39.857271085,-74.94963868,125,"504 CENTENNIAL BLVD UNIT 1783, VOORHEES, NJ, 8043","Match","Exact","504 CENTENNIAL BLVD, VOORHEES, NJ, 08043",134363575,"L"
684126,"504 CHANDLER HARPER DRIVE","PORTSMOUTH","VA",23701,36.8089535330001,-76.3907235629999,126,"504 CHANDLER HARPER DRIVE, PORTSMOUTH, VA, 23701","Match","Exact","504 CHANDLER HARPER DR, PORTSMOUTH, VA, 23701",122190833,"R"
684127,"504 CHAPEL COURT","EAGAN","MN",55122,44.8419533270001,-93.11051832,127,"504 CHAPEL COURT, EAGAN, MN, 55122","Match","Non_Exact","504 CHAPEL CT, EAGAN, MN, 55121",37909666,"L"
684128,"504 CHARLES ST","SPENCER","NC",28159,35.6994419210001,-80.42476557,128,"504 CHARLES ST, SPENCER, NC, 28159","Match","Exact","504 CHARLES ST, SPENCER, NC, 28159",25270077,"R"
684129,"504 CHATHAM AVE","DANVILLE","VA",24541,36.5659289290001,-79.4124500459999,129,"504 CHATHAM AVE, DANVILLE, VA, 24541","Match","Exact","504 CHATHAM AVE, DANVILLE, VA, 24541",56663566,"R"
684130,"504 CHESTNUT","COLORADO CITY","TX",79512,32.3921134890001,-100.864251537,130,"504 CHESTNUT, COLORADO CITY, TX, 79512","Match","Non_Exact","504 CHESTNUT ST, COLORADO CITY, TX, 79512",183126230,"R"
684131,"504 CHIQUITA ROAD","SANTA BARBARA","CA",93101,34.4310043350001,-119.68062765,131,"504 CHIQUITA ROAD, SANTA BARBARA, CA, 93101","Match","Non_Exact","504 CHIQUITA RD, SANTA BARBARA, CA, 93103",108605711,"R"
684132,"504 CLAIBORNE AVE","FREDERICKSBURG","VA",22405,38.308952182,-77.447877803,132,"504 CLAIBORNE AVE, FREDERICKSBURG, VA, 22405","Match","Exact","504 CLAIBORNE AVE, FREDERICKSBURG, VA, 22405",638645510,"R"
684133,"504 CLIFTON HEIGHTS ROAD","NEWPORT","TN",37821,35.9728370060001,-83.1792223799999,133,"504 CLIFTON HEIGHTS ROAD, NEWPORT, TN, 37821","Match","Exact","504 CLIFTON HEIGHTS RD, NEWPORT, TN, 37821",132771316,"L"
684134,"504 CLINTON AVE APT 4","BROOKLYN","NY",11238,40.6831460940001,-73.966832492,134,"504 CLINTON AVE APT 4, BROOKLYN, NY, 11238","Match","Exact","504 CLINTON AVE, BROOKLYN, NY, 11238",59077989,"R"
684135,"504 CLINTON AVE","BROOKLYN","NY",11238,40.6831460940001,-73.966832492,135,"504 CLINTON AVE, BROOKLYN, NY, 11238","Match","Exact","504 CLINTON AVE, BROOKLYN, NY, 11238",59077989,"R"
684136,"504 CLOUDMONT","OSCEOLA","IN",46561,41.6697627140001,-86.0911302,136,"504 CLOUDMONT, OSCEOLA, IN, 46561","Match","Non_Exact","504 CLOUDMONT DR, OSCEOLA, IN, 46561",617316880,"L"
684137,"504 CLOVER CT","ALLEN","TX",75002,33.09459493,-96.6359004289999,137,"504 CLOVER CT, ALLEN, TX, 75002","Match","Exact","504 CLOVER CT, ALLEN, TX, 75002",123516757,"R"
684138,"504 COBB CROSSING SE","SMYRNA","GA",30080,33.835109662,-84.490785155,138,"504 COBB CROSSING SE, SMYRNA, GA, 30080","Match","Exact","504 COBB CROSSING SE, SMYRNA, GA, 30080",17231759,"L"
684139,"504 COLLEGE STREET APT 2S","GRAND RAPIDS","MI",49503,NA,NA,139,"504 COLLEGE STREET APT 2S, GRAND RAPIDS, MI, 49503","No_Match",NA,NA,NA,NA
684140,"504 COLONY CIRCLE NORTH","WILMINGTON","NC",28409,34.172149146,-77.87975506,140,"504 COLONY CIRCLE NORTH, WILMINGTON, NC, 28409","Match","Exact","504 COLONY CIR N, WILMINGTON, NC, 28409",640609178,"L"
684141,"504 COMPROMISE STREET","KENNER","LA",70062,29.9748775420001,-90.2445437059999,141,"504 COMPROMISE STREET, KENNER, LA, 70062","Match","Exact","504 COMPROMISE ST, KENNER, LA, 70062",635297471,"R"
684142,"504 CONNECTICUT ST","BUFFALO","NY",14213,42.9083065070001,-78.882887449,142,"504 CONNECTICUT ST, BUFFALO, NY, 14213","Match","Exact","504 CONNECTICUT ST, BUFFALO, NY, 14213",48289253,"L"
684143,"504 COTTONWOOD DRIVE","HARRISBURG","SD",57032,43.427270895,-96.715984803,143,"504 COTTONWOOD DRIVE, HARRISBURG, SD, 57032","Match","Exact","504 COTTONWOOD DR, HARRISBURG, SD, 57032",617121149,"R"
684144,"504 COUNTY FARM RD","MONTICELLO","IL",61856,40.0180372620001,-88.656344197,144,"504 COUNTY FARM RD, MONTICELLO, IL, 61856","Match","Exact","504 COUNTY FARM RD, MONTICELLO, IL, 61856",8552486,"R"
684145,"504 COUNTY ROAD 3102","GREENVILLE","TX",75402,33.1259571840001,-96.040943183,145,"504 COUNTY ROAD 3102, GREENVILLE, TX, 75402","Match","Exact","504 CO RD 3102, GREENVILLE, TX, 75402",42866344,"L"
684146,"504 COUNTY ROAD 676","QUITMAN","MS",39355,32.05064638,-88.681415715,146,"504 COUNTY ROAD 676, QUITMAN, MS, 39355","Match","Exact","504 CO RD 676, QUITMAN, MS, 39355",647768383,"L"
684147,"504 CR 59","GUFFEY","CO",80820,38.8008157130001,-105.482377108,147,"504 CR 59, GUFFEY, CO, 80820","Match","Exact","504 CO RD 59, GUFFEY, CO, 80820",108479707,"R"
684148,"504 CRAGIN PARK DR","LAS VEGAS","NV",89107,36.165793294,-115.196471022,148,"504 CRAGIN PARK DR, LAS VEGAS, NV, 89107","Match","Exact","504 CRAGIN PARK DR, LAS VEGAS, NV, 89107",201864557,"R"
684149,"504 CREEK RD","JEFFERSONVILLE","IN",47130,38.31450549,-85.696820601,149,"504 CREEK RD, JEFFERSONVILLE, IN, 47130","Match","Exact","504 CREEK RD, JEFFERSONVILLE, IN, 47130",64880237,"L"
684150,"504 CRESCENT DRIVE","MATTOON","IL",61938,39.4792078420001,-88.34296303,150,"504 CRESCENT DRIVE, MATTOON, IL, 61938","Match","Exact","504 CRESCENT DR, MATTOON, IL, 61938",5427996,"L"
684151,"504 CROSBY RD","CATONSVILLE","MD",21228,39.2983872720001,-76.75684897,151,"504 CROSBY RD, CATONSVILLE, MD, 21228","Match","Exact","504 CROSBY RD, CATONSVILLE, MD, 21228",191483012,"L"
684152,"504 CROTON FALLS RD","CARMEL","NY",10512,41.3683562900001,-73.689645898,152,"504 CROTON FALLS RD, CARMEL, NY, 10512","Match","Exact","504 CROTON FALLS RD, CARMEL, NY, 10512",139690185,"R"
684153,"504 CULLODEN COURT","GREENSBURG","PA",15601,NA,NA,153,"504 CULLODEN COURT, GREENSBURG, PA, 15601","No_Match",NA,NA,NA,NA
684154,"504 D ST","HURLEY","NM",88043,32.705587205,-108.130897982,154,"504 D ST, HURLEY, NM, 88043","Match","Exact","504 D ST, HURLEY, NM, 88043",192662516,"R"
684155,"504 DAHLIA CT","NEWPORT NEWS","VA",23608,37.1533869260001,-76.551145987,155,"504 DAHLIA CT, NEWPORT NEWS, VA, 23608","Match","Exact","504 DAHLIA CT, NEWPORT NEWS, VA, 23608",103813243,"R"
684156,"504 DAILEYS CREEK DRIVE","MCDONOUGH","GA",30253,33.476497663,-84.186966209,156,"504 DAILEYS CREEK DRIVE, MCDONOUGH, GA, 30253","Match","Exact","504 DAILEYS CREEK DR, MCDONOUGH, GA, 30253",23196346,"R"
684157,"504 DAKAR","SANDSTON","VA",23510,NA,NA,157,"504 DAKAR, SANDSTON, VA, 23510","No_Match",NA,NA,NA,NA
684158,"504 DARLINGTON AVENUE","GREENVILLE","SC",29609,34.8883401520001,-82.411069669,158,"504 DARLINGTON AVENUE, GREENVILLE, SC, 29609","Match","Exact","504 DARLINGTON AVE, GREENVILLE, SC, 29609",38298476,"R"
684159,"504 DAY STREET","DECORAH","IA",52101,43.2998863130001,-91.7836049059999,159,"504 DAY STREET, DECORAH, IA, 52101","Match","Exact","504 DAY ST, DECORAH, IA, 52101",27524712,"R"
684160,"504 DEER PARK","RAYNE","LA",70578,30.3034954450001,-92.237129963,160,"504 DEER PARK, RAYNE, LA, 70578","Match","Non_Exact","504 DEER PARK LN, RAYNE, LA, 70578",652863362,"R"
684161,"504 DEERCLIFF RD","AVON","CT",6001,41.7663280990001,-72.80366947,161,"504 DEERCLIFF RD, AVON, CT, 6001","Match","Exact","504 DEERCLIFF RD, AVON, CT, 06001",604907610,"L"
684162,"504 DEPOT","MERIDIAN","TX",76665,31.923254318,-97.647986413,162,"504 DEPOT, MERIDIAN, TX, 76665","Match","Non_Exact","504 DEPOT ST, MERIDIAN, TX, 76665",158580680,"L"
684163,"504 DERBY DRIVE","YORK","AL",36925,32.4924548450001,-88.299958908,163,"504 DERBY DRIVE, YORK, AL, 36925","Match","Exact","504 DERBY DR, YORK, AL, 36925",656315,"L"
684164,"504 DEREK AVENUE","ELIZABETHTOWN","KY",42701,37.727762297,-85.851311021,164,"504 DEREK AVENUE, ELIZABETHTOWN, KY, 42701","Match","Exact","504 DEREK AVE, ELIZABETHTOWN, KY, 42701",34646466,"L"
684165,"504 DOGWOOD TR","DESOTO","TX",75115,32.582972156,-96.8404792589999,165,"504 DOGWOOD TR, DESOTO, TX, 75115","Match","Exact","504 DOGWOOD TRL, DESOTO, TX, 75115",103186390,"L"
684166,"504 DONNELLY STREET","DURYEA","PA",18642,41.347836634,-75.7578440629999,166,"504 DONNELLY STREET, DURYEA, PA, 18642","Match","Exact","504 DONNELLY ST, DURYEA, PA, 18642",636341093,"R"
684167,"504 DORIS AVE","JACKSONVILLE","NC",28540,34.778910899,-77.432644228,167,"504 DORIS AVE, JACKSONVILLE, NC, 28540","Match","Exact","504 DORIS AVE, JACKSONVILLE, NC, 28540",14010969,"R"
684168,"504 DORIS DR","MITCHELL","SD",57301,43.7055515060001,-97.993863592,168,"504 DORIS DR, MITCHELL, SD, 57301","Match","Non_Exact","504 DORIS CT, MITCHELL, SD, 57301",200665305,"L"
684169,"504 DOUGLAS DR","GIBSON CITY","IL",61843,40.4708860640001,-88.379800374,169,"504 DOUGLAS DR, GIBSON CITY, IL, 61843","Match","Non_Exact","504 DOUGLAS DR, GIBSON CITY, IL, 60936",630345975,"L"
684170,"504 DOUGLAS HOOK RD","CHEPACHET","RI",2814,41.9250451820001,-71.6313559869999,170,"504 DOUGLAS HOOK RD, CHEPACHET, RI, 2814","Match","Exact","504 DOUGLAS HOOK RD, CHEPACHET, RI, 02814",640289922,"R"
684171,"504 DOWNING ST","NSB","FL",32168,29.0229983720001,-80.9251155489999,171,"504 DOWNING ST, NSB, FL, 32168","Match","Non_Exact","504 DOWNING ST, NEW SMYRNA, FL, 32168",639408871,"L"
684172,"504 DROLMAND DR","RALEIGH","NC",27615,35.885701973,-78.6403995429999,172,"504 DROLMAND DR, RALEIGH, NC, 27615","Match","Non_Exact","504 DROLMOND DR, RALEIGH, NC, 27615",72638779,"R"
684173,"504 DUFOUR STREET","SANTA CRUZ","CA",95060,36.9628797830001,-122.040722136,173,"504 DUFOUR STREET, SANTA CRUZ, CA, 95060","Match","Exact","504 DUFOUR ST, SANTA CRUZ, CA, 95060",125508316,"R"
684174,"504 DUPONT AVE","DUPONT","WA",98327,47.09822611,-122.629972214,174,"504 DUPONT AVE, DUPONT, WA, 98327","Match","Exact","504 DUPONT AVE, DUPONT, WA, 98327",184652287,"L"
684175,"504 E 234 STREET","BRONX","NY",10470,40.8972283370001,-73.864070081,175,"504 E 234 STREET, BRONX, NY, 10470","Match","Exact","504 E 234TH ST, BRONX, NY, 10470",80296892,"R"
684176,"504 E 28TH ST","SIOUX FALLS","SD",57105,43.527563091,-96.720910759,176,"504 E 28TH ST, SIOUX FALLS, SD, 57105","Match","Exact","504 E 28TH ST, SIOUX FALLS, SD, 57105",34973127,"L"
684177,"504 E 3RD STREET","CLE ELUM","WA",98922,47.195837936,-120.930396598,177,"504 E 3RD STREET, CLE ELUM, WA, 98922","Match","Exact","504 E 3RD ST, CLE ELUM, WA, 98922",157197906,"L"
684178,"504 E 9TH ST","PEABODY","KS",66866,38.1745403130001,-97.101368577,178,"504 E 9TH ST, PEABODY, KS, 66866","Match","Exact","504 E 9TH ST, PEABODY, KS, 66866",648634128,"L"
684179,"504 E ARMORY AVENUE/RM 121/MC504","CHAMPAIGN","IL",61820,NA,NA,179,"504 E ARMORY AVENUE/RM 121/MC504, CHAMPAIGN, IL, 61820","No_Match",NA,NA,NA,NA
684180,"504 E BLOOMINGTON STREET","IOWA CITY","IA",52245,41.6646543730001,-91.528487184,180,"504 E BLOOMINGTON STREET, IOWA CITY, IA, 52245","Match","Exact","504 E BLOOMINGTON ST, IOWA CITY, IA, 52245",84495416,"L"
684181,"504 E BROADWAY ST","EL DORADO","MO",64744,37.8776633410001,-94.0173222719999,181,"504 E BROADWAY ST, EL DORADO, MO, 64744","Match","Non_Exact","504 E BROADWAY ST, EL DORADO SPRINGS, MO, 64744",44897924,"L"
684182,"504 E CASWELL","COMPTON","CA",90220,NA,NA,182,"504 E CASWELL, COMPTON, CA, 90220","No_Match",NA,NA,NA,NA
684183,"504 E HILLSDALE STREET","INGLEWOOD","CA",90302,33.9769135720001,-118.352190973,183,"504 E HILLSDALE STREET, INGLEWOOD, CA, 90302","Match","Exact","504 E HILLSDALE ST, INGLEWOOD, CA, 90302",141654837,"R"
684184,"504 E HILLSIDE AVE","DES MOINES","IA",50315,41.570443836,-93.606454866,184,"504 E HILLSIDE AVE, DES MOINES, IA, 50315","Match","Exact","504 E HILLSIDE AVE, DES MOINES, IA, 50315",65853420,"L"
684185,"504 E HYNES AVE","ONEILL","NE",68763,42.464972914,-98.645958266,185,"504 E HYNES AVE, ONEILL, NE, 68763","Match","Exact","504 E HYNES AVE, ONEILL, NE, 68763",167144553,"R"
684186,"504 E LOCUST STREET","NEVADA","MO",64772,37.840746483,-94.351370312,186,"504 E LOCUST STREET, NEVADA, MO, 64772","Match","Exact","504 E LOCUST ST, NEVADA, MO, 64772",44992078,"L"
684187,"504 E MAYFAIR LN","HARTFORD CITY","IN",47348,40.465527652,-85.362515876,187,"504 E MAYFAIR LN, HARTFORD CITY, IN, 47348","Match","Exact","504 E MAYFAIR LN, HARTFORD CITY, IN, 47348",94925741,"R"
684188,"504 E MELROSE AVE","BLOOMINGTON","IN",47401,39.1493203300001,-86.528258654,188,"504 E MELROSE AVE, BLOOMINGTON, IN, 47401","Match","Exact","504 MELROSE AVE, BLOOMINGTON, IN, 47401",42334789,"R"
684189,"504 E POTTER AVE UPPER","MILWAUKEE","WI",53207,42.995981898,-87.9023666849999,189,"504 E POTTER AVE UPPER, MILWAUKEE, WI, 53207","Match","Non_Exact","504 E POTTER AVE, MILWAUKEE, WI, 53207",77753443,"L"
684190,"504 E REPUBLICAN ST","SEATTLE","WA",98122,47.6231413620001,-122.325163898,190,"504 E REPUBLICAN ST, SEATTLE, WA, 98122","Match","Non_Exact","504 E REPUBLICAN ST, SEATTLE, WA, 98102",186584189,"L"
684191,"504 E ROSS ST","ROCKWALL","TX",75087,32.9230973370001,-96.45702083,191,"504 E ROSS ST, ROCKWALL, TX, 75087","Match","Exact","504 E ROSS ST, ROCKWALL, TX, 75087",123780260,"R"
684192,"504 E SCHOOL","ROSE HILL","KS",67133,37.5558515970001,-97.127403296,192,"504 E SCHOOL, ROSE HILL, KS, 67133","Match","Non_Exact","504 E SCHOOL ST, ROSE HILL, KS, 67133",32275820,"R"
684193,"504 E TROPICAL WAY","PLANTATION","FL",33317,26.113966781,-80.2347359079999,193,"504 E TROPICAL WAY, PLANTATION, FL, 33317","Match","Exact","504 E TROPICAL WAY, PLANTATION, FL, 33317",114705180,"L"
684194,"504 E WATSON STREET","GARNAVILLO","IA",52049,42.870902304,-91.2315260459999,194,"504 E WATSON STREET, GARNAVILLO, IA, 52049","Match","Exact","504 E WATSON ST, GARNAVILLO, IA, 52049",48478071,"R"
684195,"504 E13TH STREET","NEW YORK","NY",10009,NA,NA,195,"504 E13TH STREET, NEW YORK, NY, 10009","No_Match",NA,NA,NA,NA
684196,"504 EAST 150TH STREET","EAST CHICAGO","IN",46312,41.622801721,-87.466053442,196,"504 EAST 150TH STREET, EAST CHICAGO, IN, 46312","Match","Exact","504 E 150TH ST, EAST CHICAGO, IN, 46312",98419654,"L"
684197,"504 EAST 1ST AVE","ROSELLE","NJ",7203,40.66169412,-74.251747659,197,"504 EAST 1ST AVE, ROSELLE, NJ, 7203","Match","Exact","504 E 1ST AVE, ROSELLE, NJ, 07203",60573629,"R"
684198,"504 EAST 3RD ST","OWASSO","OK",74055,36.2686792960001,-95.85043997,198,"504 EAST 3RD ST, OWASSO, OK, 74055","Match","Exact","504 E 3RD ST, OWASSO, OK, 74055",166434246,"R"
684199,"504 EAST 3RD STREET","CLE ELUM","WA",98922,47.1958430120001,-120.930436785,199,"504 EAST 3RD STREET, CLE ELUM, WA, 98922","Match","Exact","504 E 3RD ST, CLE ELUM, WA, 98922",157197906,"L"
684200,"504 EAST 9TH ST","ROME","GA",30161,34.2413071820001,-85.15814004,200,"504 EAST 9TH ST, ROME, GA, 30161","Match","Exact","504 E 9TH ST, ROME, GA, 30161",30677137,"R"
684201,"504 EAST 9TH STREET","ROME","GA",30161,34.2413071820001,-85.15814004,201,"504 EAST 9TH STREET, ROME, GA, 30161","Match","Exact","504 E 9TH ST, ROME, GA, 30161",30677137,"R"
684202,"504 EAST FIRST","DUMAS","TX",79029,35.8653437410001,-101.966967928,202,"504 EAST FIRST, DUMAS, TX, 79029","Match","Non_Exact","504 E 1ST ST, DUMAS, TX, 79029",164659662,"R"
684203,"504 EAST LEVEE ST","BROWNSVILLE","TX",78520,25.9050825050001,-97.5037834459999,203,"504 EAST LEVEE ST, BROWNSVILLE, TX, 78520","Match","Exact","504 E LEVEE ST, BROWNSVILLE, TX, 78520",89965650,"R"
684204,"504 EAST MONTANA","LEWISTOWN","MT",59457,47.0719691720001,-109.422695425,204,"504 EAST MONTANA, LEWISTOWN, MT, 59457","Match","Non_Exact","504 E MONTANA ST, LEWISTOWN, MT, 59457",170590535,"R"
684205,"504 EAST MORGAN ST","TARPON","FL",34689,28.1403997240001,-82.750270837,205,"504 EAST MORGAN ST, TARPON, FL, 34689","Match","Non_Exact","504 E MORGAN ST, TARPON SPNGS, FL, 34689",124661041,"R"
684206,"504 EAST SECOND ST","CROWLEY","LA",70526,30.2127217440001,-92.367116643,206,"504 EAST SECOND ST, CROWLEY, LA, 70526","Match","Exact","504 E 2ND ST, CROWLEY, LA, 70526",88304151,"R"
684207,"504 EAST VANCE STREET PO BOX 158","MURFREESBORO","NC",27855,36.441594475,-77.0954435899999,207,"504 EAST VANCE STREET PO BOX 158, MURFREESBORO, NC, 27855","Match","Exact","504 E VANCE ST, MURFREESBORO, NC, 27855",56779063,"R"
684208,"504 EDNEY RIDGE ROAD","GREENSBORO","NC",27408,36.110566824,-79.840845899,208,"504 EDNEY RIDGE ROAD, GREENSBORO, NC, 27408","Match","Exact","504 EDNEY RIDGE RD, GREENSBORO, NC, 27408",131028017,"R"
684209,"504 ELI PLACE","BRICK","NJ",8723,40.052679735,-74.1467349059999,209,"504 ELI PLACE, BRICK, NJ, 8723","Match","Exact","504 ELI PL, BRICK, NJ, 08723",203725434,"R"
684210,"504 ELIZABETH ST","CINCINNATI","OH",45203,39.1061637490001,-84.522597682,210,"504 ELIZABETH ST, CINCINNATI, OH, 45203","Match","Exact","504 ELIZABETH ST, CINCINNATI, OH, 45203",103935454,"R"
684211,"504 ELM STREET","NAVASOTA","TX",77868,30.3882603010001,-96.080487308,211,"504 ELM STREET, NAVASOTA, TX, 77868","Match","Exact","504 ELM ST, NAVASOTA, TX, 77868",21894785,"L"
684212,"504 ELMONT TERRACE","NASHVILLE","TN",37211,36.0148323990001,-86.714828289,212,"504 ELMONT TERRACE, NASHVILLE, TN, 37211","Match","Exact","504 ELMONT TER, NASHVILLE, TN, 37211",97221741,"R"
684213,"504 EMILY DRIVE","LAKESIDE","TX",76108,32.816813913,-97.492361755,213,"504 EMILY DRIVE, LAKESIDE, TX, 76108","Match","Exact","504 EMILY DR, LAKESIDE, TX, 76108",101850422,"L"
684214,"504 ENCLAVE CT","SEVERNA PARK","MD",21146,39.083233745,-76.586491865,214,"504 ENCLAVE CT, SEVERNA PARK, MD, 21146","Match","Non_Exact","504 ENCLAVE TRL, SEVERNA PARK, MD, 21146",68202759,"L"
684215,"504 ERICKSON COURT","JOPPA","MD",21085,39.424269995,-76.357161603,215,"504 ERICKSON COURT, JOPPA, MD, 21085","Match","Exact","504 ERICKSON CT, JOPPA, MD, 21085",191643071,"R"
684216,"504 ESPLANADE","REDONDO BEACH","CA",90277,33.8352060940001,-118.389141643,216,"504 ESPLANADE, REDONDO BEACH, CA, 90277","Match","Exact","504 ESPLANADE, REDONDO BEACH, CA, 90277",141583990,"L"
684217,"504 EUCLID AVE","LORAIN","OH",44052,41.47794724,-82.1386699939999,217,"504 EUCLID AVE, LORAIN, OH, 44052","Match","Exact","504 EUCLID AVE, LORAIN, OH, 44052",55403861,"R"
684218,"504 EVELYN RD","ROCK SPRINGS","WY",82901,41.691325621,-109.284883227,218,"504 EVELYN RD, ROCK SPRINGS, WY, 82901","Match","Exact","504 EVELYN RD, ROCK SPRINGS, WY, 82901",618326300,"L"
684219,"504 EWING DRIVE","NASHVILLE","TN",37207,36.2315088450001,-86.790775904,219,"504 EWING DRIVE, NASHVILLE, TN, 37207","Match","Exact","504 EWING DR, NASHVILLE, TN, 37207",97184264,"L"
684220,"504 FARM VIEW","UNIVERSITY PARK","IL",60484,NA,NA,220,"504 FARM VIEW, UNIVERSITY PARK, IL, 60484","Tie",NA,NA,NA,NA
684221,"504 FITCH","ODESSA","TX",79761,31.8465725940001,-102.348065868,221,"504 FITCH, ODESSA, TX, 79761","Match","Non_Exact","504 FITCH AVE, ODESSA, TX, 79761",139431520,"R"
684222,"504 FORREST CIRCLE APT 528","WALTERBORO","SC",29488,32.9152967050001,-80.679493701,222,"504 FORREST CIRCLE APT 528, WALTERBORO, SC, 29488","Match","Non_Exact","504 FOREST CIR, WALTERBORO, SC, 29488",649759407,"L"
684223,"504 FORREST DRIVE","OKOLONA","MS",38860,33.994215351,-88.751105073,223,"504 FORREST DRIVE, OKOLONA, MS, 38860","Match","Exact","504 FORREST DR, OKOLONA, MS, 38860",76931119,"L"
684224,"504 FOUR MILE CREEK ROAD","COOLVILLE","OH",45723,39.1895988430001,-81.8023828249999,224,"504 FOUR MILE CREEK ROAD, COOLVILLE, OH, 45723","Match","Exact","504 FOUR MILE CREEK RD, COOLVILLE, OH, 45723",37092347,"R"
684225,"504 FOWLKES ST","SEALY","TX",77474,29.7786783130001,-96.1556442789999,225,"504 FOWLKES ST, SEALY, TX, 77474","Match","Exact","504 FOWLKES ST, SEALY, TX, 77474",41813462,"R"
684226,"504 FREEMONT","MANHATTAN","KS",66502,39.183548204,-96.563541438,226,"504 FREEMONT, MANHATTAN, KS, 66502","Match","Non_Exact","504 FREMONT ST, MANHATTAN, KS, 66502",27794454,"R"
684227,"504 FRESH POND ROAD","PONTE VEDRA BEACH","FL",32082,30.1871483150001,-81.385189566,227,"504 FRESH POND ROAD, PONTE VEDRA BEACH, FL, 32082","Match","Exact","504 FRESH POND RD, PONTE VEDRA BEACH, FL, 32082",642881513,"L"
684228,"504 FRISCO STREET","MONETT","MO",65708,36.9229851420001,-93.9288058079999,228,"504 FRISCO STREET, MONETT, MO, 65708","Match","Non_Exact","504 FRISCO AVE, MONETT, MO, 65708",49356193,"L"
684229,"504 FT WORTH","WICHITA FALLS","TX",76301,33.900944521,-98.480604614,229,"504 FT WORTH, WICHITA FALLS, TX, 76301","Match","Non_Exact","504 FORT WORTH ST, WICHITA FALLS, TX, 76301",169845094,"L"
684230,"504 GAILLARDIA WAY NW","ACWORTH","GA",30102,34.06317725,-84.5726362629999,230,"504 GAILLARDIA WAY NW, ACWORTH, GA, 30102","Match","Non_Exact","504 GAILLARDIA WAY, ACWORTH, GA, 30102",642622163,"R"
684231,"504 GAILLARDIA WAY","ACWORTH","GA",30102,34.06317725,-84.5726362629999,231,"504 GAILLARDIA WAY, ACWORTH, GA, 30102","Match","Exact","504 GAILLARDIA WAY, ACWORTH, GA, 30102",642622163,"R"
684232,"504 GARDEN DR","MOUNT JULIET","TN",37122,36.164360732,-86.4924197349999,232,"504 GARDEN DR, MOUNT JULIET, TN, 37122","Match","Exact","504 GARDEN DR, MOUNT JULIET, TN, 37122",625628258,"R"
684233,"504 GARDEN DRIVE","MT JULIET","TN",37122,36.164360732,-86.4924197349999,233,"504 GARDEN DRIVE, MT JULIET, TN, 37122","Match","Exact","504 GARDEN DR, MOUNT JULIET, TN, 37122",625628258,"R"
684234,"504 GARFIELD AVENUE","FOLCROFT","PA",19032,39.8980396740001,-75.27716981,234,"504 GARFIELD AVENUE, FOLCROFT, PA, 19032","Match","Exact","504 GARFIELD AVE, FOLCROFT, PA, 19032",134885234,"R"
684235,"504 GH BAKER DR","URBANA","IL",61801,40.132747615,-88.202403201,235,"504 GH BAKER DR, URBANA, IL, 61801","Match","Non_Exact","504 G H BAKER DR, URBANA, IL, 61801",8837035,"L"
684236,"504 GIRARD BLVD SE","ALBUQUERQUE","NM",87106,35.073510766,-106.613285761,236,"504 GIRARD BLVD SE, ALBUQUERQUE, NM, 87106","Match","Exact","504 GIRARD BLVD SE, ALBUQUERQUE, NM, 87106",206710116,"L"
684237,"504 GLENHAVEN DRIVE","LONGVIEW","TX",75601,32.512669413,-94.746312016,237,"504 GLENHAVEN DRIVE, LONGVIEW, TX, 75601","Match","Exact","504 GLENHAVEN DR, LONGVIEW, TX, 75601",141108975,"L"
684238,"504 GLENN AVE","LEHIGH ACRES","FL",33972,26.618399245,-81.605075932,238,"504 GLENN AVE, LEHIGH ACRES, FL, 33972","Match","Exact","504 GLENN AVE, LEHIGH ACRES, FL, 33972",117989517,"R"
684239,"504 GRANITE AVENUE","RICHMOND","VA",23266,37.576476701,-77.515010176,239,"504 GRANITE AVENUE, RICHMOND, VA, 23266","Match","Non_Exact","504 GRANITE AVE, RICHMOND, VA, 23226",201557146,"L"
684240,"504 GRANT DR","GETTYSBURG","PA",17325,39.8161248860001,-77.177888851,240,"504 GRANT DR, GETTYSBURG, PA, 17325","Match","Exact","504 GRANT DR, GETTYSBURG, PA, 17325",60864019,"R"
684241,"504 GREENBERRY DRIVE","CANTONMENT","FL",32533,30.6060520390001,-87.310162975,241,"504 GREENBERRY DRIVE, CANTONMENT, FL, 32533","Match","Exact","504 GREENBERRY DR, CANTONMENT, FL, 32533",93306503,"L"
684242,"504 GREENWOOD AVE","MICHIGAN CITY","IN",46360,41.702419837,-86.889305925,242,"504 GREENWOOD AVE, MICHIGAN CITY, IN, 46360","Match","Exact","504 GREENWOOD AVE, MICHIGAN CITY, IN, 46360",15411269,"L"
684243,"504 GREGORY LANE","ACWORTH","GA",30102,34.0818495830001,-84.579055989,243,"504 GREGORY LANE, ACWORTH, GA, 30102","Match","Exact","504 GREGORY LN, ACWORTH, GA, 30102",68863128,"R"
684244,"504 GRINNELL COURT","BEAR","DE",19701,39.5723635090001,-75.665426671,244,"504 GRINNELL COURT, BEAR, DE, 19701","Match","Exact","504 GRINNELL CT, BEAR, DE, 19701",638029092,"R"
684245,"504 GROVE","BALDWIN CITY","KS",66006,38.775991925,-95.184835494,245,"504 GROVE, BALDWIN CITY, KS, 66006","Match","Non_Exact","504 GROVE ST, BALDWIN CITY, KS, 66006",638359856,"R"
684246,"504 GURDON STREET","BRIDGEPORT","CT",6606,41.2048350850001,-73.2028052329999,246,"504 GURDON STREET, BRIDGEPORT, CT, 6606","Match","Exact","504 GURDON ST, BRIDGEPORT, CT, 06606",3223091,"R"
684247,"504 HADDINGTON LANE","O'FALLON","IL",62269,38.6032538090001,-89.871789538,247,"504 HADDINGTON LANE, O'FALLON, IL, 62269","Match","Non_Exact","504 HADDINGTON LN, O FALLON, IL, 62269",627510625,"R"
684248,"504 HALSEY STREET","BROOKLYN","NY",11233,40.683611725,-73.934119454,248,"504 HALSEY STREET, BROOKLYN, NY, 11233","Match","Exact","504 HALSEY ST, BROOKLYN, NY, 11233",59082768,"R"
684249,"504 HAMMOND ST","SALISBURY","MD",21804,38.377178729,-75.5802544009999,249,"504 HAMMOND ST, SALISBURY, MD, 21804","Match","Exact","504 HAMMOND ST, SALISBURY, MD, 21804",114447626,"L"
684250,"504 HARLAN WISE DR","SAINT JOSEPH","IL",61873,40.1068657480001,-88.033378306,250,"504 HARLAN WISE DR, SAINT JOSEPH, IL, 61873","Match","Exact","504 HARLAN WISE DR, SAINT JOSEPH, IL, 61873",653193301,"L"
684251,"504 HART DRIVE","EL CAJON","CA",92020,32.811524268,-116.9562015,251,"504 HART DRIVE, EL CAJON, CA, 92020","Match","Non_Exact","504 HART DR, EL CAJON, CA, 92021",195752108,"L"
684252,"504 HAWTHORNE STREET","SMITHVILLE","MO",64089,39.3936260890001,-94.579165701,252,"504 HAWTHORNE STREET, SMITHVILLE, MO, 64089","Match","Exact","504 HAWTHORNE ST, SMITHVILLE, MO, 64089",89749673,"L"
684253,"504 HAYES ST","BETHLEHEM","PA",18015,40.609445604,-75.365997083,253,"504 HAYES ST, BETHLEHEM, PA, 18015","Match","Exact","504 HAYES ST, BETHLEHEM, PA, 18015",136885356,"R"
684254,"504 HAYES STREET","BETHLEHEM","PA",18015,40.609445604,-75.365997083,254,"504 HAYES STREET, BETHLEHEM, PA, 18015","Match","Exact","504 HAYES ST, BETHLEHEM, PA, 18015",136885356,"R"
684255,"504 HEARD AVE","AUGUSTA","GA",30904,33.4818765860001,-82.005806131,255,"504 HEARD AVE, AUGUSTA, GA, 30904","Match","Exact","504 HEARD AVE, AUGUSTA, GA, 30904",55638486,"R"
684256,"504 HEDGES ST APT 2","TIFFIN","OH",44883,41.1045578810001,-83.172461293,256,"504 HEDGES ST APT 2, TIFFIN, OH, 44883","Match","Exact","504 HEDGES ST, TIFFIN, OH, 44883",12966631,"L"
684257,"504 HEIDISH DRIVE","COMMERCIAL POINT","OH",43116,39.7647098580001,-83.059323481,257,"504 HEIDISH DRIVE, COMMERCIAL POINT, OH, 43116","Match","Non_Exact","504 HIEDISH DR, COMMERCIAL POINT, OH, 43116",652096377,"R"
684258,"504 HENDON COURT","SUNNYVALE","CA",94087,37.342657967,-122.029202523,258,"504 HENDON COURT, SUNNYVALE, CA, 94087","Match","Exact","504 HENDON CT, SUNNYVALE, CA, 94087",122938967,"R"
684259,"504 HEWITT AVE","ROSEBURG","OR",97470,43.239385407,-123.351037399,259,"504 HEWITT AVE, ROSEBURG, OR, 97470","Match","Exact","504 HEWITT AVE, ROSEBURG, OR, 97470",636075259,"R"
684260,"504 HICKOK AVE","UNIVERSITY PARK","IL",60484,41.4368960580001,-87.671284239,260,"504 HICKOK AVE, UNIVERSITY PARK, IL, 60484","Match","Exact","504 HICKOK AVE, UNIVERSITY PARK, IL, 60484",111552619,"L"
684261,"504 HIGH RIDGE DRIVE","DURHAM","NC",27707,35.9585248750001,-78.930942336,261,"504 HIGH RIDGE DRIVE, DURHAM, NC, 27707","Match","Exact","504 HIGH RIDGE DR, DURHAM, NC, 27707",71770569,"R"
684262,"504 HIGH ST","COLFAX","WI",54730,45.0025391190001,-91.725579362,262,"504 HIGH ST, COLFAX, WI, 54730","Match","Exact","504 HIGH ST, COLFAX, WI, 54730",78985592,"R"
684263,"504 HIGH ST","PEWAUKEE","WI",53072,43.0896733480001,-88.266835441,263,"504 HIGH ST, PEWAUKEE, WI, 53072","Match","Exact","504 HIGH ST, PEWAUKEE, WI, 53072",53857757,"L"
684264,"504 HIGH STREET","LAFAYETTE","NC",37083,NA,NA,264,"504 HIGH STREET, LAFAYETTE, NC, 37083","No_Match",NA,NA,NA,NA
684265,"504 HIGHLAND AVE","S ABINGTON TWP","PA",18411,41.475600419,-75.6736830849999,265,"504 HIGHLAND AVE, S ABINGTON TWP, PA, 18411","Match","Exact","504 HIGHLAND AVE, SOUTH ABINGTON TOWNSHIP, PA, 18411",139352360,"R"
684266,"504 HIGHLAND AVENUE","WESTVILLE","NJ",8093,39.875125483,-75.132933938,266,"504 HIGHLAND AVENUE, WESTVILLE, NJ, 8093","Match","Exact","504 HIGHLAND AVE, WESTVILLE, NJ, 08093",134583630,"L"
684267,"504 HIGHVIEW DRIVE","BELLEFONTAINE","OH",43311,40.354030342,-83.740159585,267,"504 HIGHVIEW DRIVE, BELLEFONTAINE, OH, 43311","Match","Exact","504 HIGHVIEW DR, BELLEFONTAINE, OH, 43311",52178557,"R"
684268,"504 HILL STREET","ATLANTA","GA",30312,33.7384778840001,-84.379227099,268,"504 HILL STREET, ATLANTA, GA, 30312","Match","Exact","504 HILL ST, ATLANTA, GA, 30312",17432605,"L"
684269,"504 HILL STREET","HOLLY SPRINGS","MS",38635,34.778456174,-89.430022201,269,"504 HILL STREET, HOLLY SPRINGS, MS, 38635","Match","Exact","504 HILL ST, HOLLY SPRINGS, MS, 38635",72837317,"L"
684270,"504 HILLTOP PLACE DR","FARMINGTON","MO",63640,37.761168803,-90.4195492169999,270,"504 HILLTOP PLACE DR, FARMINGTON, MO, 63640","Match","Exact","504 HILLTOP PLACE DR, FARMINGTON, MO, 63640",642007009,"R"
684271,"504 HOGAN CT","ROSEVILLE","CA",95678,38.767855137,-121.281271408,271,"504 HOGAN CT, ROSEVILLE, CA, 95678","Match","Exact","504 HOGAN CT, ROSEVILLE, CA, 95678",106764079,"L"
684272,"504 HOLDERNESS ST SW","ATLANTA","GA",30310,33.7411936280001,-84.427152263,272,"504 HOLDERNESS ST SW, ATLANTA, GA, 30310","Match","Exact","504 HOLDERNESS ST SW, ATLANTA, GA, 30310",17342561,"L"
684273,"504 HOLLYBROOK DRIVE","HARRISVILLE","WV",26362,NA,NA,273,"504 HOLLYBROOK DRIVE, HARRISVILLE, WV, 26362","No_Match",NA,NA,NA,NA
684274,"504 HONEYSUCKLE LANE","NATIONAL CITY","CA",91950,32.690205652,-117.067381022,274,"504 HONEYSUCKLE LANE, NATIONAL CITY, CA, 91950","Match","Exact","504 HONEYSUCKLE LN, NATIONAL CITY, CA, 91950",195353108,"R"
684275,"504 HOPPER STREET","NEW ALBANY","MS",38652,34.4852232470001,-89.003808146,275,"504 HOPPER STREET, NEW ALBANY, MS, 38652","Match","Exact","504 HOPPER ST, NEW ALBANY, MS, 38652",76605787,"L"
684276,"504 HWY 13","HELENA","AL",35080,33.221492041,-87.01593481,276,"504 HWY 13, HELENA, AL, 35080","Match","Non_Exact","504 CO RD 13, HELENA, AL, 35080",82111417,"L"
684277,"504 HWY 31","HELENA","AL",35080,NA,NA,277,"504 HWY 31, HELENA, AL, 35080","No_Match",NA,NA,NA,NA
684278,"504 HYMAN ROAD","SWANSEA","SC",29160,33.761616782,-81.030042878,278,"504 HYMAN ROAD, SWANSEA, SC, 29160","Match","Exact","504 HYMAN RD, SWANSEA, SC, 29160",70088622,"R"
684279,"504 IBERIA STREET","NEW IBERIA","LA",70560,30.002799301,-91.8226719259999,279,"504 IBERIA STREET, NEW IBERIA, LA, 70560","Match","Exact","504 IBERIA ST, NEW IBERIA, LA, 70560",85363125,"L"
684280,"504 INDIAN TRAIL","OTTUMWA","IA",52501,41.0491039930001,-92.3993103779999,280,"504 INDIAN TRAIL, OTTUMWA, IA, 52501","Match","Non_Exact","504 INDIAN TRAIL RD, OTTUMWA, IA, 52501",89616900,"L"
684281,"504 INWOOD LN","INDIAN HARBOUR BEACH","FL",32937,28.156044937,-80.602190712,281,"504 INWOOD LN, INDIAN HARBOUR BEACH, FL, 32937","Match","Exact","504 INWOOD LN, INDIAN HARBOUR BEACH, FL, 32937",93954590,"R"
684282,"504 ISLAND PINES DRIVE","PORT ROYAL","SC",29935,32.383967253,-80.702894237,282,"504 ISLAND PINES DRIVE, PORT ROYAL, SC, 29935","Match","Exact","504 ISLAND PINES, PORT ROYAL, SC, 29935",87622046,"L"
684283,"504 JANETTE AVE","ROANOKE","VA",24016,37.2585226900001,-79.9509339259999,283,"504 JANETTE AVE, ROANOKE, VA, 24016","Match","Non_Exact","504 JANETTE AVE SW, ROANOKE, VA, 24016",62909873,"L"
684284,"504 JASON DR","MONROE","LA",71202,32.4414210050001,-92.08984443,284,"504 JASON DR, MONROE, LA, 71202","Match","Exact","504 JASON DR, MONROE, LA, 71202",161089068,"R"
684285,"504 JEFFERSON AVENUE","CHARLES TOWN","WV",25414,39.2845656440001,-77.849049248,285,"504 JEFFERSON AVENUE, CHARLES TOWN, WV, 25414","Match","Exact","504 JEFFERSON AVE, CHARLES TOWN, WV, 25414",123421737,"R"
684286,"504 JEFFERSON CHASE ST","ATLANTA","GA",30354,33.6652662430001,-84.382690213,286,"504 JEFFERSON CHASE ST, ATLANTA, GA, 30354","Match","Non_Exact","504 JEFFERSON CHASE ST SE, ATLANTA, GA, 30354",636187415,"R"
684287,"504 JEFFERSON ST","PALMYRA","NJ",8065,40.0039852960001,-75.033665134,287,"504 JEFFERSON ST, PALMYRA, NJ, 8065","Match","Exact","504 JEFFERSON ST, PALMYRA, NJ, 08065",134024612,"L"
684288,"504 JIMLOT ST","KERENS","TX",75144,32.13618595,-96.2251863,288,"504 JIMLOT ST, KERENS, TX, 75144","Match","Exact","504 JIMLOT ST, KERENS, TX, 75144",183900276,"R"
684289,"504 JONESHAVEN DRIVE","FUQUAY-VARINA","NC",27526,35.5671152670001,-78.79222498,289,"504 JONESHAVEN DRIVE, FUQUAY-VARINA, NC, 27526","Match","Exact","504 JONESHAVEN DR, FUQUAY VARINA, NC, 27526",612828156,"R"
684290,"504 K CT","KALONA","IA",52247,41.4936137440001,-91.704617906,290,"504 K CT, KALONA, IA, 52247","Match","Non_Exact","504 K CR, KALONA, IA, 52247",634391190,"L"
684291,"504 KAE COURT","MOLALLA","OR",97038,45.152654925,-122.586578601,291,"504 KAE COURT, MOLALLA, OR, 97038","Match","Exact","504 KAE CT, MOLALLA, OR, 97038",157901851,"L"
684292,"504 KELSEY CIRCLE","CROOKS","SD",57020,43.6556924500001,-96.81533826,292,"504 KELSEY CIRCLE, CROOKS, SD, 57020","Match","Exact","504 KELSEY CR, CROOKS, SD, 57020",624542278,"L"
684293,"504 KENILWORTH DRIVE","BIRMINGHAM","AL",35209,33.4662903780001,-86.804417513,293,"504 KENILWORTH DRIVE, BIRMINGHAM, AL, 35209","Match","Exact","504 KENILWORTH DR, BIRMINGHAM, AL, 35209",81581601,"R"
684294,"504 KENNELWOODS DR","ELVERSON","PA",19520,40.1515399960001,-75.8326760799999,294,"504 KENNELWOODS DR, ELVERSON, PA, 19520","Match","Exact","504 KENNELWOODS DR, ELVERSON, PA, 19520",179526646,"L"
684295,"504 KING JAMES LANE","GASTONIA","NC",28056,35.225941619,-81.0976848669999,295,"504 KING JAMES LANE, GASTONIA, NC, 28056","Match","Exact","504 KING JAMES LN, GASTONIA, NC, 28056",70451691,"R"
684296,"504 KING STREET","BENNETTSVILLE","SC",29512,34.610530408,-79.689231605,296,"504 KING STREET, BENNETTSVILLE, SC, 29512","Match","Exact","504 KING ST, BENNETTSVILLE, SC, 29512",25850716,"L"
684297,"504 KINGS LAKE DRIVE","MCKINNEY","TX",75070,33.191527734,-96.7020660759999,297,"504 KINGS LAKE DRIVE, MCKINNEY, TX, 75070","Match","Non_Exact","504 KINGS LAKE DR, MCKINNEY, TX, 75072",619909593,"L"
684298,"504 KIRKCALDY WAY","ABINGDON","MD",21009,39.479574083,-76.330019017,298,"504 KIRKCALDY WAY, ABINGDON, MD, 21009","Match","Exact","504 KIRKCALDY WAY, ABINGDON, MD, 21009",627575362,"R"
684299,"504 KNOX","WEST HELENA","AR",72390,34.535488405,-90.649933253,299,"504 KNOX, WEST HELENA, AR, 72390","Match","Exact","504 KNOX, WEST HELENA, AR, 72390",12306211,"R"
684300,"504 LACEBARK DR","ATHENS","GA",30605,33.8939546600001,-83.30494558,300,"504 LACEBARK DR, ATHENS, GA, 30605","Match","Exact","504 LACEBARK DR, ATHENS, GA, 30605",614138482,"R"
684301,"504 LAKE BRIDGE LANE 1521","APOPKA","FL",32703,28.6698535850001,-81.4707526029999,301,"504 LAKE BRIDGE LANE 1521, APOPKA, FL, 32703","Match","Exact","504 LAKE BRIDGE LN, APOPKA, FL, 32703",606073634,"R"
684302,"504 LAKE SIDE DRIVE","GEORGETOWN","TX",78628,30.617667603,-97.800564429,302,"504 LAKE SIDE DRIVE, GEORGETOWN, TX, 78628","Match","Exact","504 LAKE SIDE DR, GEORGETOWN, TX, 78628",126478085,"R"
684303,"504 LANGHORNE AVENUE","RICHMOND","VA",23222,37.59408842,-77.431378942,303,"504 LANGHORNE AVENUE, RICHMOND, VA, 23222","Match","Exact","504 LANGHORNE AVE, RICHMOND, VA, 23222",106649084,"L"
684304,"504 LARKSPUR AVENUE","PORTAGE","MI",49002,42.19509436,-85.584086597,304,"504 LARKSPUR AVENUE, PORTAGE, MI, 49002","Match","Exact","504 LARKSPUR AVE, PORTAGE, MI, 49002",12231092,"R"
684305,"504 LATANIA PALM DRIVE","INDIALANTIC","FL",32903,28.1110139470001,-80.5816417199999,305,"504 LATANIA PALM DRIVE, INDIALANTIC, FL, 32903","Match","Exact","504 LATANIA PALM DR, INDIALANTIC, FL, 32903",93905990,"R"
684306,"504 LAUREL DRIVE","ATCHISON","KS",66002,39.5855282250001,-95.1185773349999,306,"504 LAUREL DRIVE, ATCHISON, KS, 66002","Match","Exact","504 LAUREL DR, ATCHISON, KS, 66002",635725783,"R"
684307,"504 LAUREL LANE","NEWLAND","NC",28657,36.1328009220001,-81.93900017,307,"504 LAUREL LANE, NEWLAND, NC, 28657","Match","Exact","504 LAUREL LN, NEWLAND, NC, 28657",36766353,"L"
684308,"504 LAUTERBACH STREET","FROSTPROFO","FL",33843,27.736299912,-81.53755628,308,"504 LAUTERBACH STREET, FROSTPROFO, FL, 33843","Match","Non_Exact","504 LAUTERBACH ST, FROSTPROOF, FL, 33843",104836332,"L"
684309,"504 LEANNE WAY","FRANKLIN","TN",37069,35.9530189130001,-86.906646743,309,"504 LEANNE WAY, FRANKLIN, TN, 37069","Match","Exact","504 LEANNE WAY, FRANKLIN, TN, 37069",641165767,"R"
684310,"504 LEBANON STREET","MELROSE","MA",2176,42.4572846390001,-71.061324919,310,"504 LEBANON STREET, MELROSE, MA, 2176","Match","Exact","504 LEBANON ST, MELROSE, MA, 02176",86871666,"L"
684311,"504 LEDBETTER RD","SHELBYVILLE","TN",37160,35.483750926,-86.401669662,311,"504 LEDBETTER RD, SHELBYVILLE, TN, 37160","Match","Exact","504 LEDBETTER RD, SHELBYVILLE, TN, 37160",58860881,"L"
684312,"504 LEGACY DRIVE","CASSELBERRY","FL",32707,NA,NA,312,"504 LEGACY DRIVE, CASSELBERRY, FL, 32707","No_Match",NA,NA,NA,NA
684313,"504 LEGION RD","WANATAH","IN",46390,41.426445228,-86.902287358,313,"504 LEGION RD, WANATAH, IN, 46390","Match","Exact","504 LEGION RD, WANATAH, IN, 46390",15422044,"L"
684314,"504 LIBERTY AVENUE","JERSEY CITY","NJ",7307,40.7538726810001,-74.05419483,314,"504 LIBERTY AVENUE, JERSEY CITY, NJ, 7307","Match","Exact","504 LIBERTY AVE, JERSEY CITY, NJ, 07307",59597439,"R"
684315,"504 LINDBERGH DR S","LITTLE FALLS","MN",56345,45.9728676280001,-94.371336178,315,"504 LINDBERGH DR S, LITTLE FALLS, MN, 56345","Match","Exact","504 LINDBERGH DR S, LITTLE FALLS, MN, 56345",167394935,"L"
684316,"504 LOCUST AVE","WAYNESBORO","VA",22980,38.0662243530001,-78.8982107579999,316,"504 LOCUST AVE, WAYNESBORO, VA, 22980","Match","Exact","504 LOCUST AVE, WAYNESBORO, VA, 22980",98807044,"R"
684317,"504 LONGVIEW DR","MEMPHIS","TN",38106,35.0905432800001,-90.04623636,317,"504 LONGVIEW DR, MEMPHIS, TN, 38106","Match","Exact","504 LONGVIEW DR, MEMPHIS, TN, 38106",72908130,"L"
684318,"504 LORIMER STREET","BROOKLYN","NY",11211,40.712064265,-73.949029486,318,"504 LORIMER STREET, BROOKLYN, NY, 11211","Match","Exact","504 LORIMER ST, BROOKLYN, NY, 11211",59076828,"R"
684319,"504 LOUISE STREET","SACRAMENTO","CA",95811,38.59456608,-121.481411712,319,"504 LOUISE STREET, SACRAMENTO, CA, 95811","Match","Exact","504 LOUISE ST, SACRAMENTO, CA, 95811",133323489,"R"
684320,"504 LOVELAND PLACE","ST JOHNS","FL",32259,30.105431907,-81.594593167,320,"504 LOVELAND PLACE, ST JOHNS, FL, 32259","Match","Exact","504 LOVELAND PL, SAINT JOHNS, FL, 32259",92603430,"R"
684321,"504 MADISON STREET","NEW ALBANY","MS",38652,34.496673866,-89.0023962779999,321,"504 MADISON STREET, NEW ALBANY, MS, 38652","Match","Exact","504 MADISON ST, NEW ALBANY, MS, 38652",76596787,"R"
684322,"504 MAGNOLIA ST","WRENS","GA",30833,33.2060906070001,-82.3760053829999,322,"504 MAGNOLIA ST, WRENS, GA, 30833","Match","Exact","504 MAGNOLIA ST, WRENS, GA, 30833",89051948,"R"
684323,"504 MAIN ST","SALMON","ID",83467,45.1758518300001,-113.89447757,323,"504 MAIN ST, SALMON, ID, 83467","Match","Exact","504 MAIN ST, SALMON, ID, 83467",135496923,"R"
684324,"504 MAIN STREET","OREGON CITY","OR",97045,45.3567383560001,-122.609942911,324,"504 MAIN STREET, OREGON CITY, OR, 97045","Match","Exact","504 MAIN ST, OREGON CITY, OR, 97045",157976476,"R"
684325,"504 MANCHESTER DR","CHICAGO HEIGHTS","IL",60411,41.5222986850001,-87.64147912,325,"504 MANCHESTER DR, CHICAGO HEIGHTS, IL, 60411","Match","Non_Exact","504 MANCHESTER DR N, CHICAGO HEIGHTS, IL, 60411",111713647,"R"
684326,"504 MANDALAY DRIVE","HATTIESBURG","MS",39402,31.3142604230001,-89.3432930279999,326,"504 MANDALAY DRIVE, HATTIESBURG, MS, 39402","Match","Exact","504 MANDALAY DR, HATTIESBURG, MS, 39402",323795,"L"
684327,"504 MAPLE RIDGE ST","ANN ARBOR","MI",48103,42.2850922800001,-83.760080796,327,"504 MAPLE RIDGE ST, ANN ARBOR, MI, 48103","Match","Exact","504 MAPLE RIDGE, ANN ARBOR, MI, 48103",26014169,"R"
684328,"504 MAPLE ST","MURRAY","KY",42071,36.6098704240001,-88.303124419,328,"504 MAPLE ST, MURRAY, KY, 42071","Match","Exact","504 MAPLE ST, MURRAY, KY, 42071",31709029,"R"
684329,"504 MARK LANE","WANTAGH","NY",11793,40.712306375,-73.501702784,329,"504 MARK LANE, WANTAGH, NY, 11793","Match","Exact","504 MARK LN, WANTAGH, NY, 11793",147645167,"R"
684330,"504 MARSHALL CT","IRVING","TX",75060,32.809224559,-96.956826531,330,"504 MARSHALL CT, IRVING, TX, 75060","Match","Exact","504 MARSHALL CT, IRVING, TX, 75060",617055061,"R"
684331,"504 MARTENS DRIVE","LAREDO","TX",78041,27.5623014120001,-99.4781999959999,331,"504 MARTENS DRIVE, LAREDO, TX, 78041","Match","Non_Exact","504 MARTENS RD, LAREDO, TX, 78041",21669049,"L"
684332,"504 MCANULTY","GOLDEN","IL",62339,40.11215244,-91.02441774,332,"504 MCANULTY, GOLDEN, IL, 62339","Match","Non_Exact","504 MCANULTY ST, GOLDEN, IL, 62339",35075203,"R"
684333,"504 MCCLEGE AVE","HERMINIE","PA",15637,NA,NA,333,"504 MCCLEGE AVE, HERMINIE, PA, 15637","No_Match",NA,NA,NA,NA
684334,"504 MCCORMICK DRIVE","VICTORIA","TX",77904,28.923174852,-97.072977732,334,"504 MCCORMICK DRIVE, VICTORIA, TX, 77904","Match","Exact","504 MCCORMICK DR, VICTORIA, TX, 77904",44571866,"L"
684335,"504 MCKINLEY STREET","WAUPUN","WI",53963,43.6288314500001,-88.743317813,335,"504 MCKINLEY STREET, WAUPUN, WI, 53963","Match","Exact","504 MCKINLEY ST, WAUPUN, WI, 53963",53536976,"R"
684336,"504 MEARS ROAD","COTOPAXI","CO",81223,38.2731201130001,-105.547990508,336,"504 MEARS ROAD, COTOPAXI, CO, 81223","Match","Exact","504 MEARS RD, COTOPAXI, CO, 81223",612594578,"R"
684337,"504 MERANCAS CT","MATTHEWS","NC",28105,35.110239893,-80.707709569,337,"504 MERANCAS CT, MATTHEWS, NC, 28105","Match","Exact","504 MERANCAS CT, MATTHEWS, NC, 28105",623953346,"R"
684338,"504 MERTIE","PALACIOS","TX",77465,28.7183526490001,-96.216809982,338,"504 MERTIE, PALACIOS, TX, 77465","Match","Non_Exact","504 MERTIE AVE, PALACIOS, TX, 77465",83288101,"R"
684339,"504 MESA ROAD","ARDMORE","OK",73401,34.21642258,-97.118982752,339,"504 MESA ROAD, ARDMORE, OK, 73401","Match","Exact","504 MESA RD, ARDMORE, OK, 73401",647930610,"L"
684340,"504 MIDDLE STREET APT 3","PORTSMOUTH","NH",3801,43.069663812,-70.7643079809999,340,"504 MIDDLE STREET APT 3, PORTSMOUTH, NH, 3801","Match","Exact","504 MIDDLE ST, PORTSMOUTH, NH, 03801",113666821,"R"
684341,"504 MILL STREET","JASPER","IN",47546,38.39071706,-86.928913415,341,"504 MILL STREET, JASPER, IN, 47546","Match","Exact","504 MILL ST, JASPER, IN, 47546",7888669,"R"
684342,"504 MILTON AVENUE","SPRINGFIELD","IL",62702,39.8066338080001,-89.610849242,342,"504 MILTON AVENUE, SPRINGFIELD, IL, 62702","Match","Non_Exact","504 N MILTON AVE, SPRINGFIELD, IL, 62702",97343784,"R"
684343,"504 MISSION DR","NEWBERG","OR",97132,45.3075618060001,-122.974469433,343,"504 MISSION DR, NEWBERG, OR, 97132","Match","Exact","504 MISSION DR, NEWBERG, OR, 97132",156505945,"R"
684344,"504 MOHAVE AVE","PARKER","AZ",85344,NA,NA,344,"504 MOHAVE AVE, PARKER, AZ, 85344","Tie",NA,NA,NA,NA
684345,"504 MOLLY COURT","EDGEWOOD,","MD",21040,39.434633224,-76.268143901,345,"504 MOLLY COURT, EDGEWOOD,, MD, 21040","Match","Exact","504 MOLLY CT, EDGEWOOD, MD, 21040",191660992,"L"
684346,"504 MONROE STREET","CHAPEL HILL","NC",27516,35.8958833350001,-79.0607083,346,"504 MONROE STREET, CHAPEL HILL, NC, 27516","Match","Exact","504 MONROE ST, CHAPEL HILL, NC, 27516",72379015,"L"
684347,"504 MOOREFIELD ROAD SW","VIENNA","VA",22180,38.889047131,-77.2719613369999,347,"504 MOOREFIELD ROAD SW, VIENNA, VA, 22180","Match","Exact","504 MOOREFIELD RD SW, VIENNA, VA, 22180",75968851,"L"
684348,"504 MYRTLE AVENUE APT 8K","BROOKLYN","NY",11205,40.693536276,-73.9647757079999,348,"504 MYRTLE AVENUE APT 8K, BROOKLYN, NY, 11205","Match","Exact","504 MYRTLE AVE, BROOKLYN, NY, 11205",59077894,"R"
684349,"504 N 19TH STREET","PHILADELPHIA","PA",19130,39.9627546470001,-75.1695380099999,349,"504 N 19TH STREET, PHILADELPHIA, PA, 19130","Match","Exact","504 N 19TH ST, PHILADELPHIA, PA, 19130",131406157,"L"
684350,"504 N 22ND STREET","NEDERLAND","TX",77627,29.9697948260001,-93.9995629639999,350,"504 N 22ND STREET, NEDERLAND, TX, 77627","Match","Exact","504 22ND ST, NEDERLAND, TX, 77627",73860218,"R"
684351,"504 N 40TH ST","MUSKOGEE","OK",74401,35.7596355360001,-95.411617058,351,"504 N 40TH ST, MUSKOGEE, OK, 74401","Match","Exact","504 N 40TH ST, MUSKOGEE, OK, 74401",636558504,"R"
684352,"504 N 6TH ST","WOLFFORTH","TX",79382,NA,NA,352,"504 N 6TH ST, WOLFFORTH, TX, 79382","Tie",NA,NA,NA,NA
684353,"504 N 7TH ST","GARFIELD","WA",99130,47.0102173510001,-117.145342634,353,"504 N 7TH ST, GARFIELD, WA, 99130","Match","Exact","504 7TH ST, GARFIELD, WA, 99130",649956452,"R"
684354,"504 N 850 W","SPRINGVILLE","UT",84663,NA,NA,354,"504 N 850 W, SPRINGVILLE, UT, 84663","Tie",NA,NA,NA,NA
684355,"504 N 9TH STREET","SELAH","WA",98942,46.6590162200001,-120.541000467,355,"504 N 9TH STREET, SELAH, WA, 98942","Match","Exact","504 N 9TH ST, SELAH, WA, 98942",184933231,"L"
684356,"504 N CLAYBERG ST","BESSEMER","MI",49911,46.485021675,-90.0471382439999,356,"504 N CLAYBERG ST, BESSEMER, MI, 49911","Match","Exact","504 N CLAYBERG ST, BESSEMER, MI, 49911",164954530,"L"
684357,"504 N COLLEGE DR","KEENE","TX",76059,32.3894519180001,-97.3265044519999,357,"504 N COLLEGE DR, KEENE, TX, 76059","Match","Non_Exact","504 S COLLEGE DR, KEENE, TX, 76059",649639500,"R"
684358,"504 N DRIFTWOOD AVE","MARIETTA","OK",73448,NA,NA,358,"504 N DRIFTWOOD AVE, MARIETTA, OK, 73448","No_Match",NA,NA,NA,NA
684359,"504 N HIGHWAY 30","DUNLAP","IA",51529,41.8591159760001,-95.6008635159999,359,"504 N HIGHWAY 30, DUNLAP, IA, 51529","Match","Exact","504 N HWY 30, DUNLAP, IA, 51529",130978049,"L"
684360,"504 N HILLS DRIVE","CHESAPEAKE","VA",23320,36.7383196540001,-76.2128118909999,360,"504 N HILLS DRIVE, CHESAPEAKE, VA, 23320","Match","Exact","504 N HILLS DR, CHESAPEAKE, VA, 23320",121782312,"R"
684361,"504 N KIMBALL","EXCELSIOR SPRINGS","MO",64024,39.3456712030001,-94.231229808,361,"504 N KIMBALL, EXCELSIOR SPRINGS, MO, 64024","Match","Non_Exact","504 N KIMBALL AVE, EXCELSIOR SPRINGS, MO, 64024",89753286,"L"
684362,"504 N LUCAS STREET","PIERCE","NE",68767,42.202780375,-97.528625253,362,"504 N LUCAS STREET, PIERCE, NE, 68767","Match","Exact","504 N LUCAS ST, PIERCE, NE, 68767",161748527,"R"
684363,"504 N MAIN STREET","MULBERRY","IN",46058,40.3500137240001,-86.665038538,363,"504 N MAIN STREET, MULBERRY, IN, 46058","Match","Exact","504 N MAIN ST, MULBERRY, IN, 46058",27226195,"L"
684364,"504 N PARK RD","TIFFIN","IA",52340,41.698110581,-91.6471423519999,364,"504 N PARK RD, TIFFIN, IA, 52340","Match","Non_Exact","504 S PARK RD, TIFFIN, IA, 52340",84506151,"R"
684365,"504 N RANGE ST","OBLONG","IL",62449,39.0060843420001,-87.909018969,365,"504 N RANGE ST, OBLONG, IL, 62449","Match","Exact","504 N RANGE ST, OBLONG, IL, 62449",26966240,"L"
684366,"504 N ROWLEY","MITCHELL","SD",57301,43.71358895,-98.026974061,366,"504 N ROWLEY, MITCHELL, SD, 57301","Match","Non_Exact","504 N ROWLEY ST, MITCHELL, SD, 57301",200658124,"R"
684367,"504 N THOMPSON STREET","VILLE PLATTE","LA",70586,30.695832442,-92.282727096,367,"504 N THOMPSON STREET, VILLE PLATTE, LA, 70586","Match","Exact","504 N THOMPSON ST, VILLE PLATTE, LA, 70586",13191005,"L"
684368,"504 N TRINITY STREET","DECATUR","TX",76234,33.2379193080001,-97.5864195569999,368,"504 N TRINITY STREET, DECATUR, TX, 76234","Match","Exact","504 N TRINITY ST, DECATUR, TX, 76234",103665115,"R"
684369,"504 N VERMILION STREET","DANVILLE","IL",61832,40.13344262,-87.630087164,369,"504 N VERMILION STREET, DANVILLE, IL, 61832","Match","Exact","504 N VERMILION ST, DANVILLE, IL, 61832",65998919,"L"
684370,"504 N VERNON ST","PRINCETON","IL",61356,41.379960967,-89.4638007999999,370,"504 N VERNON ST, PRINCETON, IL, 61356","Match","Exact","504 N VERNON ST, PRINCETON, IL, 61356",8477097,"L"
684371,"504 N WOODLAND DR","THOMPSON","ND",58278,47.778130108,-97.1039087789999,371,"504 N WOODLAND DR, THOMPSON, ND, 58278","Match","Exact","504 N WOODLAND DR, THOMPSON, ND, 58278",171291336,"L"
684372,"504 NARA VISA","FRITCH","TX",79036,35.643866298,-101.584442074,372,"504 NARA VISA, FRITCH, TX, 79036","Match","Non_Exact","504 NARA VISA LN, FRITCH, TX, 79036",641272442,"L"
684373,"504 NE 15TH ST","FT. LAUDERDALE","FL",33301,26.145809786,-80.139482136,373,"504 NE 15TH ST, FT. LAUDERDALE, FL, 33301","Match","Non_Exact","504 NE 15TH ST, FT LAUDERDALE, FL, 33304",114722189,"R"
684374,"504 NORMANCREST COURT","CARY","NC",27519,35.778110052,-78.854006593,374,"504 NORMANCREST COURT, CARY, NC, 27519","Match","Exact","504 NORMANCREST CT, CARY, NC, 27519",612824232,"R"
684375,"504 NORMANCREST CT","CARY","NC",27519,35.778110052,-78.854006593,375,"504 NORMANCREST CT, CARY, NC, 27519","Match","Exact","504 NORMANCREST CT, CARY, NC, 27519",612824232,"R"
684376,"504 NORTH ALLISON STREET","GREENCASTLE","PA",17225,39.7956217280001,-77.721149429,376,"504 NORTH ALLISON STREET, GREENCASTLE, PA, 17225","Match","Exact","504 N ALLISON ST, GREENCASTLE, PA, 17225",633040886,"L"
684377,"504 NORTH BROADWAY","REDONDO BEACH","CA",90277,33.8470424280001,-118.391344155,377,"504 NORTH BROADWAY, REDONDO BEACH, CA, 90277","Match","Exact","504 N BROADWAY, REDONDO BEACH, CA, 90277",141583524,"R"
684378,"504 NORTH DOMINIC AVENUE","SIOUX FALLS","SD",57108,43.551268169,-96.813201255,378,"504 NORTH DOMINIC AVENUE, SIOUX FALLS, SD, 57108","Match","Non_Exact","504 N DOMINIC AVE, SIOUX FALLS, SD, 57107",640214238,"R"
684379,"504 NORTH HILLS DR","CHESAPEAKE","VA",23320,36.7382525900001,-76.2128198889999,379,"504 NORTH HILLS DR, CHESAPEAKE, VA, 23320","Match","Exact","504 N HILLS DR, CHESAPEAKE, VA, 23320",121782312,"R"
684380,"504 NORTH SECOND STREET","ELGIN","NE",68636,41.987613927,-98.08464632,380,"504 NORTH SECOND STREET, ELGIN, NE, 68636","Match","Non_Exact","504 2ND ST, ELGIN, NE, 68636",635737700,"L"
684381,"504 NORTHAMPTON RD","SENECA","SC",29672,34.707091791,-82.956732535,381,"504 NORTHAMPTON RD, SENECA, SC, 29672","Match","Exact","504 NORTHAMPTON RD, SENECA, SC, 29672",25644173,"R"
684382,"504 NORTON AVENUE","KANSAS CITY","MO",64124,39.107348234,-94.5340690789999,382,"504 NORTON AVENUE, KANSAS CITY, MO, 64124","Match","Exact","504 NORTON AVE, KANSAS CITY, MO, 64124",91450446,"R"
684383,"504 NORTON DR","SATSUMA","AL",36572,30.8724912970001,-88.037091651,383,"504 NORTON DR, SATSUMA, AL, 36572","Match","Exact","504 NORTON DR, SATSUMA, AL, 36572",61866307,"R"
684384,"504 NW 155TH CIRCLE","EDMOND","OK",73013,35.6293462740001,-97.5234039329999,384,"504 NW 155TH CIRCLE, EDMOND, OK, 73013","Match","Exact","504 NW 155TH CIR, EDMOND, OK, 73013",624931540,"R"
684385,"504 NW 1ST AVE","FORT LAUDERDALE","FL",33301,NA,NA,385,"504 NW 1ST AVE, FORT LAUDERDALE, FL, 33301","Tie",NA,NA,NA,NA
684386,"504 NW 4TH ST","OKEECHOBEE","FL",34972,NA,NA,386,"504 NW 4TH ST, OKEECHOBEE, FL, 34972","Tie",NA,NA,NA,NA
684387,"504 NW 6TH STREET","OKEECHOBEE","FL",34972,NA,NA,387,"504 NW 6TH STREET, OKEECHOBEE, FL, 34972","Tie",NA,NA,NA,NA
684388,"504 NW 89TH STREET","GAINESVILLE","FL",32607,29.6573905380001,-82.43680796,388,"504 NW 89TH STREET, GAINESVILLE, FL, 32607","Match","Exact","504 NW 89TH ST, GAINESVILLE, FL, 32607",6803010,"L"
684389,"504 OAK DRIVE","ACCOKEEK","MD",20607,38.67628577,-77.000262918,389,"504 OAK DRIVE, ACCOKEEK, MD, 20607","Match","Exact","504 OAK DR, ACCOKEEK, MD, 20607",76321891,"L"
684390,"504 ODD RD","GHENT","WV",25843,37.6099420100001,-81.126487556,390,"504 ODD RD, GHENT, WV, 25843","Match","Exact","504 ODD RD, GHENT, WV, 25843",78850606,"L"
684391,"504 OLD LEXINGTON AVENUE","CHAPIN","SC",29036,34.1566475230001,-81.349661715,391,"504 OLD LEXINGTON AVENUE, CHAPIN, SC, 29036","Match","Exact","504 LEXINGTON AVE, CHAPIN, SC, 29036",640548004,"R"
684392,"504 ORR STREET","CHATTANOOGA","TN",37405,35.0665379930001,-85.2966346329999,392,"504 ORR STREET, CHATTANOOGA, TN, 37405","Match","Exact","504 ORR ST, CHATTANOOGA, TN, 37405",616176960,"R"
684393,"504 OTT DR","NEW FRANKLIN","OH",44216,40.923330171,-81.5540453999999,393,"504 OTT DR, NEW FRANKLIN, OH, 44216","Match","Exact","504 OTT DR, NEW FRANKLIN, OH, 44216",61373186,"L"
684394,"504 OWENDALE DR","ANTIOCH","TN",37013,36.0786347120001,-86.622125189,394,"504 OWENDALE DR, ANTIOCH, TN, 37013","Match","Exact","504 OWENDALE DR, ANTIOCH, TN, 37013",97200006,"R"
684395,"504 OXFORD BLVD","PITTTSBURGH","PA",15243,40.370626836,-80.0779890049999,395,"504 OXFORD BLVD, PITTTSBURGH, PA, 15243","Match","Non_Exact","504 OXFORD BLVD, PITTSBURGH, PA, 15243",51935081,"R"
684396,"504 PAGE STREET","BERRYVI","VA",22611,39.1547664400001,-77.972749574,396,"504 PAGE STREET, BERRYVI, VA, 22611","Match","Non_Exact","504 PAGE ST, BERRYVILLE, VA, 22611",223513666,"R"
684397,"504 PANCOAST STREET","DICKSON CITY","PA",18519,41.467283508,-75.61437054,397,"504 PANCOAST STREET, DICKSON CITY, PA, 18519","Match","Exact","504 PANCOAST ST, DICKSON CITY, PA, 18519",139329820,"R"
684398,"504 PARISH PLACE","COPPELL","TX",75019,32.959317637,-96.999971771,398,"504 PARISH PLACE, COPPELL, TX, 75019","Match","Exact","504 PARISH PL, COPPELL, TX, 75019",102884680,"L"
684399,"504 PARK AVENUE","HOOVER","AL",35226,33.4042752010001,-86.855019383,399,"504 PARK AVENUE, HOOVER, AL, 35226","Match","Exact","504 PARK AVE, HOOVER, AL, 35226",629101491,"L"
684400,"504 PARK BLVD","MILLBRAE","CA",94030,37.609569494,-122.408761143,400,"504 PARK BLVD, MILLBRAE, CA, 94030","Match","Exact","504 PARK BLVD, MILLBRAE, CA, 94030",192374251,"R"
684401,"504 PARK ST","TAFT","TX",78390,27.9814746870001,-97.3929171189999,401,"504 PARK ST, TAFT, TX, 78390","Match","Exact","504 PARK ST, TAFT, TX, 78390",36324017,"L"
684402,"504 PARKVIEW LANE","COLLINSVILLE","IL",62234,38.66163956,-89.9932598779999,402,"504 PARKVIEW LANE, COLLINSVILLE, IL, 62234","Match","Non_Exact","504 PARKVIEW DR, COLLINSVILLE, IL, 62234",107693758,"L"
684403,"504 PATRICK AVENUE","RICHMOND","VA",23222,37.5797771200001,-77.424814977,403,"504 PATRICK AVENUE, RICHMOND, VA, 23222","Match","Exact","504 PATRICK AVE, RICHMOND, VA, 23222",201539916,"L"
684404,"504 PATTY DRIVE","BRADFORD","OH",45308,40.133228489,-84.426724112,404,"504 PATTY DRIVE, BRADFORD, OH, 45308","Match","Exact","504 PATTY DR, BRADFORD, OH, 45308",207644195,"L"
684405,"504 PEARL ST","DENVER","CO",80203,39.724279133,-104.979924434,405,"504 PEARL ST, DENVER, CO, 80203","Match","Exact","504 PEARL ST, DENVER, CO, 80203",177331438,"R"
684406,"504 PEARL STREET","VEVAY","IN",47043,38.751912341,-85.06570477,406,"504 PEARL STREET, VEVAY, IN, 47043","Match","Exact","504 PEARL ST, VEVAY, IN, 47043",65108836,"R"
684407,"504 PENNINGTON ST","ELIZABETH","NJ",7202,40.6631112640001,-74.2316928,407,"504 PENNINGTON ST, ELIZABETH, NJ, 7202","Match","Exact","504 PENNINGTON ST, ELIZABETH, NJ, 07202",60578100,"L"
684408,"504 PHEASANT RUN CT","RICHMOND","KY",40475,37.8115250270001,-84.3200521529999,408,"504 PHEASANT RUN CT, RICHMOND, KY, 40475","Match","Exact","504 PHEASANT RUN CT, RICHMOND, KY, 40475",31999078,"R"
684409,"504 PHIFFER STREET","CAMDEN","NJ",8105,NA,NA,409,"504 PHIFFER STREET, CAMDEN, NJ, 8105","No_Match",NA,NA,NA,NA
684410,"504 PINE RIDGE TRAIL","BIRMINGHAM","AL",35213,33.496629994,-86.747272478,410,"504 PINE RIDGE TRAIL, BIRMINGHAM, AL, 35213","Match","Exact","504 PINE RIDGE TRL, BIRMINGHAM, AL, 35213",81645352,"L"
684411,"504 PINTO CIR","WELLINGTON","FL",33414,26.6737153510001,-80.2686620389999,411,"504 PINTO CIR, WELLINGTON, FL, 33414","Match","Non_Exact","504 PINTO CT, WELLINGTON, FL, 33414",115317811,"R"
684412,"504 POPLAR AVE","NEW CUMBERLAND","PA",17070,40.2245082380001,-76.871717119,412,"504 POPLAR AVE, NEW CUMBERLAND, PA, 17070","Match","Exact","504 POPLAR AVE, NEW CUMBERLAND, PA, 17070",60945563,"L"
684413,"504 PORT ROYALE WAY","EULESS","TX",76039,32.8406463050001,-97.0745957569999,413,"504 PORT ROYALE WAY, EULESS, TX, 76039","Match","Exact","504 PORT ROYALE WAY, EULESS, TX, 76039",102185921,"R"
684414,"504 PORTLAND AVENUE","MORRISON","IL",61270,41.803128803,-89.964559586,414,"504 PORTLAND AVENUE, MORRISON, IL, 61270","Match","Exact","504 PORTLAND AVE, MORRISON, IL, 61270",48964938,"R"
684415,"504 POST OAK COURT","CLAYTON","NC",27527,35.6860021950001,-78.409483113,415,"504 POST OAK COURT, CLAYTON, NC, 27527","Match","Exact","504 POST OAK CT, CLAYTON, NC, 27527",26542098,"R"
684416,"504 POST OAK ST W","INGRAM","TX",78025,NA,NA,416,"504 POST OAK ST W, INGRAM, TX, 78025","No_Match",NA,NA,NA,NA
684417,"504 POWERS CT","LONGVIEW","TX",75605,32.533962397,-94.7537696269999,417,"504 POWERS CT, LONGVIEW, TX, 75605","Match","Exact","504 POWERS CT, LONGVIEW, TX, 75605",623904993,"L"
684418,"504 PRAIRIE ST","MT HOREB","WI",53572,43.0009598250001,-89.732264481,418,"504 PRAIRIE ST, MT HOREB, WI, 53572","Match","Exact","504 PRAIRIE ST, MOUNT HOREB, WI, 53572",49495680,"R"
684419,"504 PRINCETON RD","SUFFOLK","VA",23434,36.7261951080001,-76.602791514,419,"504 PRINCETON RD, SUFFOLK, VA, 23434","Match","Exact","504 PRINCETON RD, SUFFOLK, VA, 23434",122226324,"R"
684420,"504 PUTNAM AVE","ZANESVILLE","OH",43701,39.9312706360001,-82.007089416,420,"504 PUTNAM AVE, ZANESVILLE, OH, 43701","Match","Exact","504 PUTNAM AVE, ZANESVILLE, OH, 43701",45595774,"R"
684421,"504 QUAIL RIDGE DRIVE","TRAVERSE CITY","MI",49686,44.7697469440001,-85.580656259,421,"504 QUAIL RIDGE DRIVE, TRAVERSE CITY, MI, 49686","Match","Exact","504 QUAIL RIDGE DR, TRAVERSE CITY, MI, 49686",145514812,"R"
684422,"504 QUINCE COURT","LAPLATA","MD",20646,38.5362540830001,-76.961359137,422,"504 QUINCE COURT, LAPLATA, MD, 20646","Match","Non_Exact","504 QUINCE CT, LA PLATA, MD, 20646",25395598,"R"
684423,"504 RACINE STREET","WATERFORD","WI",53185,42.765266727,-88.217988887,423,"504 RACINE STREET, WATERFORD, WI, 53185","Match","Exact","504 RACINE ST, WATERFORD, WI, 53185",77903893,"L"
684424,"504 RAGING RIVER RD","CEDAR PARK","TX",78613,30.5168379090001,-97.755706894,424,"504 RAGING RIVER RD, CEDAR PARK, TX, 78613","Match","Exact","504 RAGING RIVER RD, CEDAR PARK, TX, 78613",648863056,"L"
684425,"504 RAMON STREET","DEL RIO","TX",78840,29.357884074,-100.886359227,425,"504 RAMON STREET, DEL RIO, TX, 78840","Match","Exact","504 RAMON ST, DEL RIO, TX, 78840",173575733,"L"
684426,"504 RAMPART WAY","OXON HILL","MD",20745,38.7800186710001,-77.0119027229999,426,"504 RAMPART WAY, OXON HILL, MD, 20745","Match","Exact","504 RAMPART WAY, OXON HILL, MD, 20745",648096365,"R"
684427,"504 RAMSEY BAY","CARVER","MN",55315,44.7452309820001,-93.640267292,427,"504 RAMSEY BAY, CARVER, MN, 55315","Match","Exact","504 RAMSEY BAY, CARVER, MN, 55315",43509656,"L"
684428,"504 READY ST","SAINT MARYS","GA",31558,30.7260074280001,-81.5456215889999,428,"504 READY ST, SAINT MARYS, GA, 31558","Match","Exact","504 READY ST, SAINT MARYS, GA, 31558",125701341,"R"
684429,"504 RED BIRD LANE","HARPERS FERRY","WV",25425,39.233318028,-77.8036902279999,429,"504 RED BIRD LANE, HARPERS FERRY, WV, 25425","Match","Exact","504 RED BIRD LN, HARPERS FERRY, WV, 25425",605602913,"R"
684430,"504 RED OAK DRIVE","COPPERAS COVE","TX",76522,31.1095828250001,-97.893930762,430,"504 RED OAK DRIVE, COPPERAS COVE, TX, 76522","Match","Exact","504 RED OAK DR, COPPERAS COVE, TX, 76522",146571000,"L"
684431,"504 REDBIRD RUN","TIFFIN","IA",52340,41.7096626750001,-91.6706331949999,431,"504 REDBIRD RUN, TIFFIN, IA, 52340","Match","Exact","504 REDBIRD RUN, TIFFIN, IA, 52340",84506072,"L"
684432,"504 REDWOOD BLVD STE 320","NOVATO","CA",94947,38.076937517,-122.552071765,432,"504 REDWOOD BLVD STE 320, NOVATO, CA, 94947","Match","Exact","504 REDWOOD BLVD, NOVATO, CA, 94947",192761182,"L"
684433,"504 RENAISSANCE COURT","CHESAPEAKE","VA",23320,36.7411991650001,-76.261590645,433,"504 RENAISSANCE COURT, CHESAPEAKE, VA, 23320","Match","Exact","504 RENAISSANCE CT, CHESAPEAKE, VA, 23320",632007380,"L"
684434,"504 RIDGE PARK CT","RAYMOND","MS",39154,32.222828824,-90.3398572199999,434,"504 RIDGE PARK CT, RAYMOND, MS, 39154","Match","Exact","504 RIDGE PARK CT, RAYMOND, MS, 39154",65381061,"L"
684435,"504 RIDGEWOOD ROAD","FRANKLIN","TN",37064,35.8604165410001,-86.863027858,435,"504 RIDGEWOOD ROAD, FRANKLIN, TN, 37064","Match","Exact","504 RIDGEWOOD RD, FRANKLIN, TN, 37064",73116550,"L"
684436,"504 RIVER DRIVE","NORTH SIOUX CITY","SD",57049,42.5248502640001,-96.486587334,436,"504 RIVER DRIVE, NORTH SIOUX CITY, SD, 57049","Match","Exact","504 RIVER DR, NORTH SIOUX CITY, SD, 57049",176350783,"R"
684437,"504 RIVER STREET","MINNEAPOLIS","MN",55401,44.989443679,-93.271076251,437,"504 RIVER STREET, MINNEAPOLIS, MN, 55401","Match","Exact","504 RIVER ST, MINNEAPOLIS, MN, 55401",640006891,"R"
684438,"504 RIVERSIDE DRIVE","BURLEY","ID",83318,42.516945121,-113.695299494,438,"504 RIVERSIDE DRIVE, BURLEY, ID, 83318","Match","Exact","504 RIVERSIDE DR, BURLEY, ID, 83318",105306599,"R"
684439,"504 RIVERSIDE DRIVE","MANCHESTER","TN",37355,35.4786472820001,-86.095673308,439,"504 RIVERSIDE DRIVE, MANCHESTER, TN, 37355","Match","Exact","504 RIVERSIDE DR, MANCHESTER, TN, 37355",58227259,"R"
684440,"504 RIVERVIEW CT","DEFOREST","WI",53532,43.241653457,-89.354515314,440,"504 RIVERVIEW CT, DEFOREST, WI, 53532","Match","Exact","504 RIVERVIEW CT, DEFOREST, WI, 53532",49502181,"R"
684441,"504 ROLLING HILLS DRIVE","NEWNAN","GA",30263,33.3981661980001,-84.804855002,441,"504 ROLLING HILLS DRIVE, NEWNAN, GA, 30263","Match","Exact","504 ROLLING HILLS DR, NEWNAN, GA, 30263",650655992,"R"
684442,"504 ROMAN DR","STEVENSVILLE","MT",59870,46.5871135950001,-114.014088632,442,"504 ROMAN DR, STEVENSVILLE, MT, 59870","Match","Exact","504 ROMAN DR, STEVENSVILLE, MT, 59870",153538046,"L"
684443,"504 ROSARIO PL NE","RENTON","WA",98059,47.490586986,-122.137231838,443,"504 ROSARIO PL NE, RENTON, WA, 98059","Match","Exact","504 ROSARIO PL NE, RENTON, WA, 98059",627794446,"L"
684444,"504 RUCKER ROAD","MURFREESBORO","TN",37127,35.752066315,-86.390857443,444,"504 RUCKER ROAD, MURFREESBORO, TN, 37127","Match","Exact","504 RUCKER RD, MURFREESBORO, TN, 37127",636320111,"L"
684445,"504 RUTLEDGE COURT","EDGEWATER","NJ",7020,40.808341704,-73.983199085,445,"504 RUTLEDGE COURT, EDGEWATER, NJ, 7020","Match","Exact","504 RUTLEDGE CT, EDGEWATER, NJ, 07020",64417264,"R"
684446,"504 RYAN COURT","EUREKA","CA",95503,40.7559128080001,-124.175261945,446,"504 RYAN COURT, EUREKA, CA, 95503","Match","Exact","504 RYAN CT, EUREKA, CA, 95503",640834882,"L"
684447,"504 S 11TH AVENUE W","NEWTON","IA",50208,41.6903620150001,-93.059368589,447,"504 S 11TH AVENUE W, NEWTON, IA, 50208","Match","Exact","504 S 11TH AVE W, NEWTON, IA, 50208",89425142,"R"
684448,"504 S 12TH ST","NEWARK","NJ",7103,40.7367944210001,-74.203957144,448,"504 S 12TH ST, NEWARK, NJ, 7103","Match","Exact","504 S 12TH ST, NEWARK, NJ, 07103",641287589,"L"
684449,"504 S 12TH STREET","LAGRANDE","OR",97850,45.3076032770001,-118.086444163,449,"504 S 12TH STREET, LAGRANDE, OR, 97850","Match","Non_Exact","504 S 12TH ST, LA GRANDE, OR, 97850",138855158,"L"
684450,"504 S 1ST ST","VAN BUREN","IN",46991,40.6138590690001,-85.504887017,450,"504 S 1ST ST, VAN BUREN, IN, 46991","Match","Exact","504 S 1ST ST, VAN BUREN, IN, 46991",647598169,"L"
684451,"504 S 260TH STREET","PITTSBURG","KS",66762,37.4531335930001,-94.6308127899999,451,"504 S 260TH STREET, PITTSBURG, KS, 66762","Match","Exact","504 S 260TH ST, PITTSBURG, KS, 66762",33444240,"R"
684452,"504 S 45TH STREET","PHILADELPHIA","PA",19104,39.9501516240001,-75.2127488959999,452,"504 S 45TH STREET, PHILADELPHIA, PA, 19104","Match","Exact","504 S 45TH ST, PHILADELPHIA, PA, 19104",131399817,"R"
684453,"504 S 62ND STREET","BROKEN ARROW","OK",74014,36.04828974,-95.7113916,453,"504 S 62ND STREET, BROKEN ARROW, OK, 74014","Match","Exact","504 S 62ND ST, BROKEN ARROW, OK, 74014",83171380,"L"
684454,"504 S 68TH PLACE","SPRINGFIELD","OR",97478,NA,NA,454,"504 S 68TH PLACE, SPRINGFIELD, OR, 97478","Tie",NA,NA,NA,NA
684455,"504 S 9TH AVENUE","MAYWOOD","IL",60153,41.883307437,-87.844006743,455,"504 S 9TH AVENUE, MAYWOOD, IL, 60153","Match","Exact","504 S 9TH AVE, MAYWOOD, IL, 60153",111748612,"R"
684456,"504 S ANTELOPE","TILDEN","NE",68781,42.0431708850001,-97.835368514,456,"504 S ANTELOPE, TILDEN, NE, 68781","Match","Non_Exact","504 ANTELOPE ST, TILDEN, NE, 68781",161675076,"L"
684457,"504 S BAILEY","HOBART","OK",73651,35.0229843540001,-99.102391295,457,"504 S BAILEY, HOBART, OK, 73651","Match","Non_Exact","504 S BAILEY ST, HOBART, OK, 73651",125597822,"R"
684458,"504 S BEACON LANE","ROUND LAKE","IL",60073,42.3384117260001,-88.0957718669999,458,"504 S BEACON LANE, ROUND LAKE, IL, 60073","Match","Exact","504 S BEACON LN, ROUND LAKE, IL, 60073",645520627,"L"
684459,"504 S BELTLINE BLVD B15","COLUMBIA","SC",29205,33.9906396920001,-80.980509632,459,"504 S BELTLINE BLVD B15, COLUMBIA, SC, 29205","Match","Exact","504 BELTLINE BLVD, COLUMBIA, SC, 29205",622597989,"R"
684460,"504 S CLEM","WINCHESTER","IN",47394,40.167811134,-84.989159542,460,"504 S CLEM, WINCHESTER, IN, 47394","Match","Non_Exact","504 S CLEM AVE, WINCHESTER, IN, 47394",31211164,"L"
684461,"504 S CLOSNER BLVD","EDINBURG","TX",78539,NA,NA,461,"504 S CLOSNER BLVD, EDINBURG, TX, 78539","No_Match",NA,NA,NA,NA
684462,"504 S DOUGLAS","BELLEVILLE","IL",62220,38.508915551,-89.964865754,462,"504 S DOUGLAS, BELLEVILLE, IL, 62220","Match","Non_Exact","504 S DOUGLAS AVE, BELLEVILLE, IL, 62220",107843141,"L"
684463,"504 S EDGEWORTH AVE","ROYAL OAK","MI",48067,42.4864194150001,-83.119893411,463,"504 S EDGEWORTH AVE, ROYAL OAK, MI, 48067","Match","Exact","504 S EDGEWORTH AVE, ROYAL OAK, MI, 48067",69746894,"R"
684464,"504 S ELIDA ST","WINNEBAGO","IL",61088,42.260758523,-89.2412752719999,464,"504 S ELIDA ST, WINNEBAGO, IL, 61088","Match","Exact","504 S ELIDA ST, WINNEBAGO, IL, 61088",650613137,"R"
684465,"504 S FLORENCE STREET","MAXTON","NC",28364,34.7319707520001,-79.3534053769999,465,"504 S FLORENCE STREET, MAXTON, NC, 28364","Match","Exact","504 S FLORENCE ST, MAXTON, NC, 28364",49133250,"L"
684466,"504 S JEFFERSON","WINCHESTER","TN",37398,35.1826884290001,-86.1090038739999,466,"504 S JEFFERSON, WINCHESTER, TN, 37398","Match","Non_Exact","504 S JEFFERSON ST, WINCHESTER, TN, 37398",639913278,"L"
684467,"504 S MAIN ST","RISING STAR","TX",76471,NA,NA,467,"504 S MAIN ST, RISING STAR, TX, 76471","Tie",NA,NA,NA,NA
684468,"504 S MERIDIAN","REDKEY","IN",47373,40.3447986400001,-85.149771571,468,"504 S MERIDIAN, REDKEY, IN, 47373","Match","Non_Exact","504 S MERIDIAN ST, REDKEY, IN, 47373",45043893,"L"
684469,"504 S PARK CIRCLE","CROOKS","SD",57020,43.656877283,-96.806301481,469,"504 S PARK CIRCLE, CROOKS, SD, 57020","Match","Non_Exact","504 PARK DR, CROOKS, SD, 57020",34987504,"L"
684470,"504 S PINE ST","ZEIGLER","IL",62999,37.89500206,-89.0554479639999,470,"504 S PINE ST, ZEIGLER, IL, 62999","Match","Exact","504 S PINE ST, ZEIGLER, IL, 62999",92934730,"R"
684471,"504 S SELKIRK STREET","SCHALLER","IA",51053,42.4948966490001,-95.291897927,471,"504 S SELKIRK STREET, SCHALLER, IA, 51053","Match","Exact","504 S SELKIRK ST, SCHALLER, IA, 51053",77498275,"L"
684472,"504 S WEST STREET","ANGOLA","IN",46703,41.6304379520001,-85.001478022,472,"504 S WEST STREET, ANGOLA, IN, 46703","Match","Exact","504 S WEST ST, ANGOLA, IN, 46703",7712486,"L"
684473,"504 SAGE DR","GALENA PARK","TX",77547,29.7361729840001,-95.251888138,473,"504 SAGE DR, GALENA PARK, TX, 77547","Match","Exact","504 SAGE DR, GALENA PARK, TX, 77547",96086212,"R"
684474,"504 SALT WIND COURT","PONTE VEDRA BEACH","FL",32082,29.9812399140001,-81.315069678,474,"504 SALT WIND COURT, PONTE VEDRA BEACH, FL, 32082","Match","Non_Exact","504 SALT WIND CT E, PONTE VEDRA BEACH, FL, 32082",92603635,"L"
684475,"504 SANDS DRIVE","ALBANY","GA",31705,31.5703302680001,-84.132226736,475,"504 SANDS DRIVE, ALBANY, GA, 31705","Match","Exact","504 SANDS DR, ALBANY, GA, 31705",638959366,"L"
684476,"504 SANTA FE DR","FAYETTEVILLE","NC",28303,35.093455529,-78.9771037049999,476,"504 SANTA FE DR, FAYETTEVILLE, NC, 28303","Match","Exact","504 SANTA FE DR, FAYETTEVILLE, NC, 28303",64194625,"R"
684477,"504 SARAH STREET","STROUDSBURG","PA",18360,40.987837729,-75.192939274,477,"504 SARAH STREET, STROUDSBURG, PA, 18360","Match","Exact","504 SARAH ST, STROUDSBURG, PA, 18360",136768621,"L"
684478,"504 SARATOGA","HAZELWOOD","MO",63042,38.783012102,-90.3632977679999,478,"504 SARATOGA, HAZELWOOD, MO, 63042","Match","Non_Exact","504 SARATOGA LN, HAZELWOOD, MO, 63042",100118791,"L"
684479,"504 SARDIS DRIVE","BOAZ","AL",35956,34.1751933630001,-86.133514807,479,"504 SARDIS DRIVE, BOAZ, AL, 35956","Match","Exact","504 SARDIS DR, BOAZ, AL, 35956",66787144,"R"
684480,"504 SAUNDERS STREET","CARTHAGE","NC",28327,35.341160862,-79.412592257,480,"504 SAUNDERS STREET, CARTHAGE, NC, 28327","Match","Exact","504 SAUNDERS ST, CARTHAGE, NC, 28327",20290069,"L"
684481,"504 SE 2ND STREET","BRYANT","AR",72022,34.5931876760001,-92.484465071,481,"504 SE 2ND STREET, BRYANT, AR, 72022","Match","Exact","504 SE 2ND ST, BRYANT, AR, 72022",24222621,"R"
684482,"504 SE FULLERTON STREET","BENTONVILLE","AR",72721,36.366441954,-94.1636050449999,482,"504 SE FULLERTON STREET, BENTONVILLE, AR, 72721","Match","Non_Exact","504 SE FULLERTON ST, BENTONVILLE, AR, 72712",635480190,"R"
684483,"504 SENA DRIVE","METAIRIE","LA",70005,29.999554807,-90.135394815,483,"504 SENA DRIVE, METAIRIE, LA, 70005","Match","Exact","504 SENA DR, METAIRIE, LA, 70005",93503813,"L"
684484,"504 SENECA KNOLL CT","GREAT FALLS","VA",22066,39.0295618480001,-77.33936633,484,"504 SENECA KNOLL CT, GREAT FALLS, VA, 22066","Match","Exact","504 SENECA KNOLL CT, GREAT FALLS, VA, 22066",76009767,"L"
684485,"504 SGT HARRISON BROWN STREET","PRICHARD","AL",36610,30.7401003730001,-88.10049129,485,"504 SGT HARRISON BROWN STREET, PRICHARD, AL, 36610","Match","Exact","504 SGT HARRISON BROWN ST, PRICHARD, AL, 36610",636104498,"R"
684486,"504 SHADOW GROVE CT","LUTZ","FL",33548,28.1415715530001,-82.469185824,486,"504 SHADOW GROVE CT, LUTZ, FL, 33548","Match","Exact","504 SHADOW GROVE CT, LUTZ, FL, 33548",104563502,"R"
684487,"504 SHAWSHEEN ST","TEWKSBURY","MA",1876,42.5875065480001,-71.205260578,487,"504 SHAWSHEEN ST, TEWKSBURY, MA, 1876","Match","Exact","504 SHAWSHEEN ST, TEWKSBURY, MA, 01876",87116124,"L"
684488,"504 SHORE DR E","OLDSMAR","FL",34677,28.0192192120001,-82.664738562,488,"504 SHORE DR E, OLDSMAR, FL, 34677","Match","Exact","504 SHORE DR E, OLDSMAR, FL, 34677",124800221,"R"
684489,"504 SHOUP AVE LOFT 240","IDAHO FALLS","ID",83402,43.493172724,-112.038905358,489,"504 SHOUP AVE LOFT 240, IDAHO FALLS, ID, 83402","Match","Exact","504 SHOUP AVE, IDAHO FALLS, ID, 83402",119118679,"R"
684490,"504 SISK AVE","OXFORD","MS",38655,34.3731333000001,-89.504957587,490,"504 SISK AVE, OXFORD, MS, 38655","Match","Exact","504 SISK AVE, OXFORD, MS, 38655",76962648,"L"
684491,"504 SIVERS ROAD","GLENWOOD","IA",51534,41.0539882730001,-95.7314080419999,491,"504 SIVERS ROAD, GLENWOOD, IA, 51534","Match","Exact","504 SIVERS RD, GLENWOOD, IA, 51534",10166466,"L"
684492,"504 SIXTH AVENUE EAST","POLSON","MT",59860,47.690221396,-114.156084116,492,"504 SIXTH AVENUE EAST, POLSON, MT, 59860","Match","Exact","504 6TH AVE E, POLSON, MT, 59860",206887835,"L"
684493,"504 SIXTH STREET","FRANKLIN","LA",70538,29.7869860870001,-91.508610341,493,"504 SIXTH STREET, FRANKLIN, LA, 70538","Match","Exact","504 6TH ST, FRANKLIN, LA, 70538",651759867,"R"
684494,"504 SKYVIEW DRIVE","MONTEVALLO","AL",35115,NA,NA,494,"504 SKYVIEW DRIVE, MONTEVALLO, AL, 35115","No_Match",NA,NA,NA,NA
684495,"504 SOUTH 2ND","FAIRFIELD","IA",52556,41.0024371160001,-91.965079184,495,"504 SOUTH 2ND, FAIRFIELD, IA, 52556","Match","Non_Exact","504 S 2ND ST, FAIRFIELD, IA, 52556",84429979,"L"
684496,"504 SOUTH 5TH STREET","MIDLOTHIAN","TX",76065,32.478794889,-96.9977174319999,496,"504 SOUTH 5TH STREET, MIDLOTHIAN, TX, 76065","Match","Exact","504 S 5TH ST, MIDLOTHIAN, TX, 76065",636444645,"L"
684497,"504 SOUTH BRAY STREET","NEW CARLISLE","IN",46552,41.6999854860001,-86.5120094059999,497,"504 SOUTH BRAY STREET, NEW CARLISLE, IN, 46552","Match","Non_Exact","504 BRAY ST, NEW CARLISLE, IN, 46552",8089101,"R"
684498,"504 SOUTH DOUGLASS","ELK POINT","SD",57025,NA,NA,498,"504 SOUTH DOUGLASS, ELK POINT, SD, 57025","No_Match",NA,NA,NA,NA
684499,"504 SOUTH HILL BLVD UNIT D","DALY CITY","CA",94014,NA,NA,499,"504 SOUTH HILL BLVD UNIT D, DALY CITY, CA, 94014","No_Match",NA,NA,NA,NA
684500,"504 SOUTH JEFFERSON STREET","WINCHESTER","TN",37398,35.18270549,-86.1090234389999,500,"504 SOUTH JEFFERSON STREET, WINCHESTER, TN, 37398","Match","Exact","504 S JEFFERSON ST, WINCHESTER, TN, 37398",639913278,"L"
