"ID","Address","City","State","Zip","lat","long","id","input_address","match_indicator","match_type","matched_address","tiger_line_id","tiger_side"
315501,"202 GOVERNMENT STREET","MOBILE","AL",36602,30.6897503270001,-88.0422186979999,1,"202 GOVERNMENT STREET, MOBILE, AL, 36602","Match","Exact","202 GOVERNMENT ST, MOBILE, AL, 36602",61868112,"R"
315502,"202 GRAND AVE","MARYSVILLE","OH",43040,40.2401158650001,-83.381175431,2,"202 GRAND AVE, MARYSVILLE, OH, 43040","Match","Exact","202 GRAND AVE, MARYSVILLE, OH, 43040",135344156,"R"
315503,"202 GRANDY DRIVE","LIVERPOOL","NY",13088,43.1044773090001,-76.193382205,3,"202 GRANDY DRIVE, LIVERPOOL, NY, 13088","Match","Exact","202 GRANDY DR, LIVERPOOL, NY, 13088",46564539,"R"
315504,"202 GRANITE STREET","ROCKPORT","MA",1966,42.682193032,-70.6298142539999,4,"202 GRANITE STREET, ROCKPORT, MA, 1966","Match","Exact","202 GRANITE ST, ROCKPORT, MA, 01966",86662567,"R"
315505,"202 GRAPE STREET","LEESPORT","PA",19533,NA,NA,5,"202 GRAPE STREET, LEESPORT, PA, 19533","No_Match",NA,NA,NA,NA
315506,"202 GREEN BRIAR DR","MAGNOLIA","TX",77355,30.177082157,-95.826221837,6,"202 GREEN BRIAR DR, MAGNOLIA, TX, 77355","Match","Non_Exact","202 GREENBRIAR DR, MAGNOLIA, TX, 77355",78358382,"R"
315507,"202 GREEN PALM COURT","SAINT AUGUSTINE","FL",32086,29.7776627540001,-81.323229151,7,"202 GREEN PALM COURT, SAINT AUGUSTINE, FL, 32086","Match","Exact","202 GREEN PALM CT, SAINT AUGUSTINE, FL, 32086",650444741,"R"
315508,"202 GREEN STREET APT 22","BROOKLYN","NY",11222,40.7338736890001,-73.953414584,8,"202 GREEN STREET APT 22, BROOKLYN, NY, 11222","Match","Exact","202 GREEN ST, BROOKLYN, NY, 11222",59076263,"R"
315509,"202 GREEN STREET","EDWARDSVILLE","PA",18704,41.2639724650001,-75.912203948,9,"202 GREEN STREET, EDWARDSVILLE, PA, 18704","Match","Exact","202 GREEN ST, EDWARDSVILLE, PA, 18704",80912967,"L"
315510,"202 GREENBRIAR CIR NORTH","DAPHNE","AL",36526,NA,NA,10,"202 GREENBRIAR CIR NORTH, DAPHNE, AL, 36526","No_Match",NA,NA,NA,NA
315511,"202 GREENBRIAR ESTATES DRIVE","ST. LOUIS","MO",63122,38.5748449820001,-90.459362662,11,"202 GREENBRIAR ESTATES DRIVE, ST. LOUIS, MO, 63122","Match","Exact","202 GREENBRIAR ESTATES DR, SAINT LOUIS, MO, 63122",649641965,"L"
315512,"202 GREENLAWN DRIVE","SAN ANTONIO","TX",78201,29.48104225,-98.5306739389999,12,"202 GREENLAWN DRIVE, SAN ANTONIO, TX, 78201","Match","Exact","202 GREENLAWN DR, SAN ANTONIO, TX, 78201",101512054,"L"
315513,"202 GREENLAWN","SAN ANTONIO","TX",78201,29.48104225,-98.5306739389999,13,"202 GREENLAWN, SAN ANTONIO, TX, 78201","Match","Non_Exact","202 GREENLAWN DR, SAN ANTONIO, TX, 78201",101512054,"L"
315514,"202 GREENWOOD AVE","SEEKONK","MA",2771,41.839677732,-71.320300731,14,"202 GREENWOOD AVE, SEEKONK, MA, 2771","Match","Exact","202 GREENWOOD AVE, SEEKONK, MA, 02771",645272454,"L"
315515,"202 GRISSOM DR","ELK CITY","OK",73644,35.3797751130001,-99.404601465,15,"202 GRISSOM DR, ELK CITY, OK, 73644","Match","Exact","202 GRISSOM DR, ELK CITY, OK, 73644",151545424,"L"
315516,"202 GULF","LAMAR","MO",64759,37.505733809,-94.277097215,16,"202 GULF, LAMAR, MO, 64759","Match","Non_Exact","202 GULF ST, LAMAR, MO, 64759",99036796,"R"
315517,"202 HAMILTON DR","HACKETTSTOWN","NJ",7840,40.8592457120001,-74.8359134689999,17,"202 HAMILTON DR, HACKETTSTOWN, NJ, 7840","Match","Exact","202 HAMILTON DR, HACKETTSTOWN, NJ, 07840",98091653,"L"
315518,"202 HAMILTON DRIVE","HACKETTSTOWN","NJ",7840,40.8592457120001,-74.8359134689999,18,"202 HAMILTON DRIVE, HACKETTSTOWN, NJ, 7840","Match","Exact","202 HAMILTON DR, HACKETTSTOWN, NJ, 07840",98091653,"L"
315519,"202 HAMILTON HALL MC2811","NEW YORK","NY",10027,NA,NA,19,"202 HAMILTON HALL MC2811, NEW YORK, NY, 10027","No_Match",NA,NA,NA,NA
315520,"202 HAMILTON ST","CAMBRIDGE","MA",2139,42.359810387,-71.108681283,20,"202 HAMILTON ST, CAMBRIDGE, MA, 2139","Match","Exact","202 HAMILTON ST, CAMBRIDGE, MA, 02139",86869787,"L"
315521,"202 HAMLIN STREET","BYRON","GA",31008,32.6622924640001,-83.7578088,21,"202 HAMLIN STREET, BYRON, GA, 31008","Match","Exact","202 HAMLIN ST, BYRON, GA, 31008",93721308,"R"
315522,"202 HAMPTON LEE CT APT 2A","CARY","NC",27513,35.821754094,-78.782781187,22,"202 HAMPTON LEE CT APT 2A, CARY, NC, 27513","Match","Exact","202 HAMPTON LEE CT, CARY, NC, 27513",72653889,"R"
315523,"202 HAMPTON LEE CT APT 2C","CARY","NC",27513,35.821754094,-78.782781187,23,"202 HAMPTON LEE CT APT 2C, CARY, NC, 27513","Match","Exact","202 HAMPTON LEE CT, CARY, NC, 27513",72653889,"R"
315524,"202 HANCOCK AVENUE","ODEM","TX",78370,27.9413644370001,-97.593213721,24,"202 HANCOCK AVENUE, ODEM, TX, 78370","Match","Exact","202 HANCOCK AVE, ODEM, TX, 78370",36323468,"L"
315525,"202 HANNA STREET","HAMPTON","SC",29924,32.8722894790001,-81.091534778,25,"202 HANNA STREET, HAMPTON, SC, 29924","Match","Exact","202 HANNA ST, HAMPTON, SC, 29924",33109885,"R"
315526,"202 HARBER DRIVE","COLUMBIA","SC",29229,34.174630988,-80.882579409,26,"202 HARBER DRIVE, COLUMBIA, SC, 29229","Match","Non_Exact","202 HARBOR DR, COLUMBIA, SC, 29229",638983510,"R"
315527,"202 HARTSFIELD RD","HARTSFIELD","GA",31756,31.217238637,-83.971571834,27,"202 HARTSFIELD RD, HARTSFIELD, GA, 31756","Match","Exact","202 HARTSFIELD RD, HARTSFIELD, GA, 31756",84232752,"R"
315528,"202 HAWAII CR","UNION CITY","CA",94587,37.58875598,-122.048539711,28,"202 HAWAII CR, UNION CITY, CA, 94587","Match","Exact","202 HAWAII CIR, UNION CITY, CA, 94587",125025221,"L"
315529,"202 HAWKINS AVE","CHURCH HILL","TN",37642,36.5218795540001,-82.6946990549999,29,"202 HAWKINS AVE, CHURCH HILL, TN, 37642","Match","Exact","202 HAWKINS AVE, CHURCH HILL, TN, 37642",42415231,"R"
315530,"202 HAWTHORNE AVENUE","NEWARK","NJ",7102,NA,NA,30,"202 HAWTHORNE AVENUE, NEWARK, NJ, 7102","No_Match",NA,NA,NA,NA
315531,"202 HAZEL DR","APOLLO","PA",15613,40.594527321,-79.531320307,31,"202 HAZEL DR, APOLLO, PA, 15613","Match","Exact","202 HAZEL DR, APOLLO, PA, 15613",52480057,"L"
315532,"202 HEATHER GLEN DR","HUNTSVILLE","AL",35806,34.807713629,-86.6857847909999,32,"202 HEATHER GLEN DR, HUNTSVILLE, AL, 35806","Match","Exact","202 HEATHER GLEN DR, HUNTSVILLE, AL, 35806",614126247,"R"
315533,"202 HEDGEWOOD","WAXAHACHIE","TX",75165,32.4371477970001,-96.8330289519999,33,"202 HEDGEWOOD, WAXAHACHIE, TX, 75165","Match","Non_Exact","202 HEDGEWOOD DR, WAXAHACHIE, TX, 75165",624279921,"R"
315534,"202 HELEN ST","MIDLAND","MI",48640,43.6231585210001,-84.2343188569999,34,"202 HELEN ST, MIDLAND, MI, 48640","Match","Exact","202 HELEN ST, MIDLAND, MI, 48640",81196141,"R"
315535,"202 HERMOSA AVE","OAKLAND","CA",94618,37.84041539,-122.230974333,35,"202 HERMOSA AVE, OAKLAND, CA, 94618","Match","Exact","202 HERMOSA AVE, OAKLAND, CA, 94618",124999859,"L"
315536,"202 HERONS COVE","CARROLLTON","VA",23314,NA,NA,36,"202 HERONS COVE, CARROLLTON, VA, 23314","No_Match",NA,NA,NA,NA
315537,"202 HERRING COURT","NAGS HEAD","NC",29759,35.9471718950001,-75.624274805,37,"202 HERRING COURT, NAGS HEAD, NC, 29759","Match","Non_Exact","202 HERRING CT, NAGS HEAD, NC, 27959",81302890,"L"
315538,"202 HICKORY LN","MORGANVILLE","NJ",7751,40.350818427,-74.262819716,38,"202 HICKORY LN, MORGANVILLE, NJ, 7751","Match","Exact","202 HICKORY LN, MORGANVILLE, NJ, 07751",90500183,"R"
315539,"202 HICKORY RD","JACKSON","GA",30233,33.178729941,-84.0324283699999,39,"202 HICKORY RD, JACKSON, GA, 30233","Match","Exact","202 HICKORY RD, JACKSON, GA, 30233",624671598,"R"
315540,"202 HIGH CREEK DRIVE","ROSWELL","GA",30076,34.027407542,-84.323921833,40,"202 HIGH CREEK DRIVE, ROSWELL, GA, 30076","Match","Exact","202 HIGH CREEK DR, ROSWELL, GA, 30076",636350495,"L"
315541,"202 HIGH RIDGE DR","SANFORD","NC",27330,35.4724911710001,-79.199488037,41,"202 HIGH RIDGE DR, SANFORD, NC, 27330","Match","Exact","202 HIGH RIDGE DR, SANFORD, NC, 27330",640630203,"R"
315542,"202 HIGHLAND AVE","MOORE","MT",59464,46.9775118260001,-109.692032631,42,"202 HIGHLAND AVE, MOORE, MT, 59464","Match","Non_Exact","202 HIGHLAND, MOORE, MT, 59464",170574239,"L"
315543,"202 HIGHLAND PARK PLAZA","COVINGTON","LA",70433,30.4583293750001,-90.133659727,43,"202 HIGHLAND PARK PLAZA, COVINGTON, LA, 70433","Match","Exact","202 HIGHLAND PARK PLZ, COVINGTON, LA, 70433",111338003,"L"
315544,"202 HILL COUNTY RD 1136","RIO VISTA","TX",76093,NA,NA,44,"202 HILL COUNTY RD 1136, RIO VISTA, TX, 76093","No_Match",NA,NA,NA,NA
315545,"202 HILL STREET","LOUISVILLE","MS",39339,33.1117299700001,-89.070685709,45,"202 HILL STREET, LOUISVILLE, MS, 39339","Match","Exact","202 HILL ST, LOUISVILLE, MS, 39339",918448,"L"
315546,"202 HILLIARD T MOORE AVE","LAWNSIDE","NJ",8045,NA,NA,46,"202 HILLIARD T MOORE AVE, LAWNSIDE, NJ, 8045","No_Match",NA,NA,NA,NA
315547,"202 HILLSIDE DRIVE","COUNCIL GORVE","KS",66846,38.6647387150001,-96.503368059,47,"202 HILLSIDE DRIVE, COUNCIL GORVE, KS, 66846","Match","Non_Exact","202 HILLSIDE DR, COUNCIL GROVE, KS, 66846",88180311,"L"
315548,"202 HILLTOP DRIVE","NYACK","NY",10960,41.1114457640001,-73.923221876,48,"202 HILLTOP DRIVE, NYACK, NY, 10960","Match","Exact","202 HILLTOP DR, NYACK, NY, 10960",124600311,"R"
315549,"202 HINTON BLVD","MANNFORD","OK",74044,NA,NA,49,"202 HINTON BLVD, MANNFORD, OK, 74044","Tie",NA,NA,NA,NA
315550,"202 HOBBINS DRIVE","DUBLIN","GA",31021,32.5668545,-82.916608732,50,"202 HOBBINS DRIVE, DUBLIN, GA, 31021","Match","Exact","202 HOBBINS DR, DUBLIN, GA, 31021",100651784,"L"
315551,"202 HOFFMAN DRIVE","TALLAHASSEE","FL",32312,30.4813517000001,-84.284343033,51,"202 HOFFMAN DRIVE, TALLAHASSEE, FL, 32312","Match","Exact","202 HOFFMAN DR, TALLAHASSEE, FL, 32312",82849204,"R"
315552,"202 HOFFMAN DRIVE","TALLAHASSSEE","FL",32312,30.4813517000001,-84.284343033,52,"202 HOFFMAN DRIVE, TALLAHASSSEE, FL, 32312","Match","Non_Exact","202 HOFFMAN DR, TALLAHASSEE, FL, 32312",82849204,"R"
315553,"202 HOLBROOK ROAD","HOLBROOK","NY",11741,40.828679633,-73.081191362,53,"202 HOLBROOK ROAD, HOLBROOK, NY, 11741","Match","Exact","202 HOLBROOK RD, HOLBROOK, NY, 11741",634256144,"L"
315554,"202 HOLLEY ST","THIBODAUX","LA",70301,29.788050893,-90.842424771,54,"202 HOLLEY ST, THIBODAUX, LA, 70301","Match","Non_Exact","202 HOLLY ST, THIBODAUX, LA, 70301",92329038,"L"
315555,"202 HOLLY STREET","ST SIMONS ISLAND","GA",31522,31.1898866220001,-81.378441606,55,"202 HOLLY STREET, ST SIMONS ISLAND, GA, 31522","Match","Exact","202 HOLLY ST, ST SIMONS ISLAND, GA, 31522",9133627,"R"
315556,"202 HOLMES ST","PALESTINE","TX",75803,31.7427293260001,-95.6639488879999,56,"202 HOLMES ST, PALESTINE, TX, 75803","Match","Exact","202 HOLMES ST, PALESTINE, TX, 75803",74656585,"R"
315557,"202 HOMESTEAD AVENUE","ALBANY","NY",12206,42.6746866400001,-73.792086951,57,"202 HOMESTEAD AVENUE, ALBANY, NY, 12206","Match","Exact","202 HOMESTEAD AVE, ALBANY, NY, 12206",18360416,"L"
315558,"202 HOOVER MASON RD","MOUNT PLEASANT","TN",38474,35.551805114,-87.190316443,58,"202 HOOVER MASON RD, MOUNT PLEASANT, TN, 38474","Match","Exact","202 HOOVER MASON RD, MOUNT PLEASANT, TN, 38474",605866023,"L"
315559,"202 HOOVER MASON RD","MOUNT PLEASNAT","TN",38474,35.551805114,-87.190316443,59,"202 HOOVER MASON RD, MOUNT PLEASNAT, TN, 38474","Match","Non_Exact","202 HOOVER MASON RD, MOUNT PLEASANT, TN, 38474",605866023,"L"
315560,"202 HOPE STREET","GREENVILLE","SC",29601,34.8426915690001,-82.3947375399999,60,"202 HOPE STREET, GREENVILLE, SC, 29601","Match","Exact","202 HOPE ST, GREENVILLE, SC, 29601",38301102,"R"
315561,"202 HOPWOOD COOLSPRING RD","HOPWOOD","PA",15445,39.8778509200001,-79.691528147,61,"202 HOPWOOD COOLSPRING RD, HOPWOOD, PA, 15445","Match","Exact","202 HOPWOOD COOLSPRING RD, HOPWOOD, PA, 15445",51136766,"R"
315562,"202 HOUSTON DRIVE","PETERSBURG","WV",26847,NA,NA,62,"202 HOUSTON DRIVE, PETERSBURG, WV, 26847","No_Match",NA,NA,NA,NA
315563,"202 HOWLAND AVE","CARY","NC",27513,35.786377171,-78.79735692,63,"202 HOWLAND AVE, CARY, NC, 27513","Match","Exact","202 HOWLAND AVE, CARY, NC, 27513",72497237,"R"
315564,"202 HUNTCLIFF VILLAGE CT","ATLANTA","GA",30345,33.99942263,-84.350991081,64,"202 HUNTCLIFF VILLAGE CT, ATLANTA, GA, 30345","Match","Non_Exact","202 HUNTCLIFF VILLAGE CT, ATLANTA, GA, 30350",610198486,"R"
315565,"202 HUNTCLIFF VILLAGE CT","ATLANTA","GA",30350,33.99942263,-84.350991081,65,"202 HUNTCLIFF VILLAGE CT, ATLANTA, GA, 30350","Match","Exact","202 HUNTCLIFF VILLAGE CT, ATLANTA, GA, 30350",610198486,"R"
315566,"202 HUNTER RIDGE LN","PEACHTREE CORNERS","GA",30092,33.941913793,-84.246599558,66,"202 HUNTER RIDGE LN, PEACHTREE CORNERS, GA, 30092","Match","Exact","202 HUNTER RIDGE LN, PEACHTREE CORNERS, GA, 30092",624900542,"R"
315567,"202 HWY 19 NORTH","MERIDIAN","MS",39304,NA,NA,67,"202 HWY 19 NORTH, MERIDIAN, MS, 39304","No_Match",NA,NA,NA,NA
315568,"202 IANNELLI RD","CLARKSBORO","NJ",8020,39.8134054560001,-75.224776537,68,"202 IANNELLI RD, CLARKSBORO, NJ, 8020","Match","Exact","202 IANNELLI RD, CLARKSBORO, NJ, 08020",649335927,"R"
315569,"202 INDIAN HILL TRAIL","GLASTONBURY","CT",6033,41.7371926320001,-72.525894522,69,"202 INDIAN HILL TRAIL, GLASTONBURY, CT, 6033","Match","Exact","202 INDIAN HILL TRL, GLASTONBURY, CT, 06033",3525186,"R"
315570,"202 INDUSTRIAL PARK","JACKSON","MN",56143,NA,NA,70,"202 INDUSTRIAL PARK, JACKSON, MN, 56143","No_Match",NA,NA,NA,NA
315571,"202 IRVAN ST","MURRAY","KY",42071,36.6081332030001,-88.318831394,71,"202 IRVAN ST, MURRAY, KY, 42071","Match","Exact","202 IRVAN ST, MURRAY, KY, 42071",647396134,"L"
315572,"202 ISLAND CIRCLE","SARASOTA","FL",34242,27.273899279,-82.559393132,72,"202 ISLAND CIRCLE, SARASOTA, FL, 34242","Match","Exact","202 ISLAND CIR, SARASOTA, FL, 34242",16348680,"R"
315573,"202 JACKSON AVE","TULARE","CA",93274,36.2333245520001,-119.347057738,73,"202 JACKSON AVE, TULARE, CA, 93274","Match","Exact","202 JACKSON AVE, TULARE, CA, 93274",202816522,"R"
315574,"202 JAMES ZIMMERMAN","HAMPSHIRE","TN",38461,35.5598196830001,-87.337077417,74,"202 JAMES ZIMMERMAN, HAMPSHIRE, TN, 38461","Match","Non_Exact","202 JAMES ZIMMERMAN RD, HAMPSHIRE, TN, 38461",26753456,"R"
315575,"202 JAMESTOWN OAKS DRIVE","JAMESTOWN","NC",27282,35.982624377,-79.925933415,75,"202 JAMESTOWN OAKS DRIVE, JAMESTOWN, NC, 27282","Match","Exact","202 JAMESTOWN OAKS DR, JAMESTOWN, NC, 27282",131098345,"R"
315576,"202 JANANNA DR","BERCA","OH",44017,41.352953691,-81.866307733,76,"202 JANANNA DR, BERCA, OH, 44017","Match","Non_Exact","202 JANANNA DR, BEREA, OH, 44017",61130824,"R"
315577,"202 JANE STREET","WEST HELENA","AR",72390,34.536310031,-90.657847348,77,"202 JANE STREET, WEST HELENA, AR, 72390","Match","Exact","202 JANE ST, WEST HELENA, AR, 72390",12306201,"L"
315578,"202 JARRELL ROAD","ELLABELL","GA",31308,32.190368467,-81.4260791899999,78,"202 JARRELL ROAD, ELLABELL, GA, 31308","Match","Exact","202 JARRELL RD, ELLABELL, GA, 31308",6094618,"L"
315579,"202 JEANETTE LANCASTER W","CHARLOTTESVILLE","VA",22903,NA,NA,79,"202 JEANETTE LANCASTER W, CHARLOTTESVILLE, VA, 22903","No_Match",NA,NA,NA,NA
315580,"202 JEFFERSON AVE","DESOTO","TX",75115,32.5996921820001,-96.854730531,80,"202 JEFFERSON AVE, DESOTO, TX, 75115","Match","Exact","202 JEFFERSON AVE, DESOTO, TX, 75115",102953749,"R"
315581,"202 JESSICA LANE","DAYVILLE","CT",6241,41.841484188,-71.9070614839999,81,"202 JESSICA LANE, DAYVILLE, CT, 6241","Match","Exact","202 JESSICA LN, DAYVILLE, CT, 06241",623946454,"R"
315582,"202 JESTER LANE","KATHLEEN","GA",31047,32.517790679,-83.667309621,82,"202 JESTER LANE, KATHLEEN, GA, 31047","Match","Exact","202 JESTER LN, KATHLEEN, GA, 31047",618737040,"R"
315583,"202 JOE SAYERS RD","ELGIN","TX",78621,NA,NA,83,"202 JOE SAYERS RD, ELGIN, TX, 78621","Tie",NA,NA,NA,NA
315584,"202 JOHN ALLEN STREET","VICKSBURG","MS",39180,32.325238669,-90.8730779809999,84,"202 JOHN ALLEN STREET, VICKSBURG, MS, 39180","Match","Exact","202 JOHN ALLEN ST, VICKSBURG, MS, 39180",71294199,"L"
315585,"202 JOHN DEERE DR","GOLDSBORO","NC",27530,35.4373258370001,-78.047313609,85,"202 JOHN DEERE DR, GOLDSBORO, NC, 27530","Match","Exact","202 JOHN DEERE DR, GOLDSBORO, NC, 27530",605718209,"R"
315586,"202 JOSEPH E LOWERY BLVD NW","ATLANTA","GA",30314,33.749533903,-84.417521813,86,"202 JOSEPH E LOWERY BLVD NW, ATLANTA, GA, 30314","Match","Non_Exact","202 JOSEPH E LOWERY BLVD, ATLANTA, GA, 30314",17342643,"L"
315587,"202 JULIAN ST","LAKE DALLAS","TX",75065,33.1262905140001,-97.019293015,87,"202 JULIAN ST, LAKE DALLAS, TX, 75065","Match","Exact","202 JULIAN ST, LAKE DALLAS, TX, 75065",103375349,"R"
315588,"202 JUNCTION RD APT 204","MADISON","WI",53717,43.062262268,-89.5274960689999,88,"202 JUNCTION RD APT 204, MADISON, WI, 53717","Match","Exact","202 JUNCTION RD, MADISON, WI, 53717",49487949,"L"
315589,"202 K ST CLAIR CIRCLE","YORKTOWN","VA",23693,NA,NA,89,"202 K ST CLAIR CIRCLE, YORKTOWN, VA, 23693","Tie",NA,NA,NA,NA
315590,"202 K STREET SW","WASHINGTON","DC",20024,38.8784037820001,-77.013455515,90,"202 K STREET SW, WASHINGTON, DC, 20024","Match","Exact","202 K ST SW, WASHINGTON, DC, 20024",76227084,"L"
315591,"202 KENWOOD AVENUE","WILMINGTON","NC",28405,34.240881147,-77.916814604,91,"202 KENWOOD AVENUE, WILMINGTON, NC, 28405","Match","Exact","202 KENWOOD AVE, WILMINGTON, NC, 28405",152742369,"R"
315592,"202 KERMIT STANTON AVENUE","SHELBY","MS",38774,33.95242009,-90.771761864,92,"202 KERMIT STANTON AVENUE, SHELBY, MS, 38774","Match","Non_Exact","202 KERMIT STANTON RD, SHELBY, MS, 38774",858002,"L"
315593,"202 KILARNEY RD","SUMMERVILLE","SC",29483,33.0317426730001,-80.231633288,93,"202 KILARNEY RD, SUMMERVILLE, SC, 29483","Match","Exact","202 KILARNEY RD, SUMMERVILLE, SC, 29483",178482613,"R"
315594,"202 KNOXHILL ROAD","PONCE DE LEON","FL",32455,30.683748984,-85.9749291639999,94,"202 KNOXHILL ROAD, PONCE DE LEON, FL, 32455","Match","Non_Exact","202 KNOX HILL RD, PONCE DE LEON, FL, 32455",32996854,"L"
315595,"202 LA FORET DRIVE","MORGANTON","NC",28655,35.748898232,-81.7531541659999,95,"202 LA FORET DRIVE, MORGANTON, NC, 28655","Match","Exact","202 LA FORET DR, MORGANTON, NC, 28655",37181923,"L"
315596,"202 LA MESA LANE","GEORGETOWN","TX",78628,30.6369756830001,-97.712585588,96,"202 LA MESA LANE, GEORGETOWN, TX, 78628","Match","Exact","202 LA MESA LN, GEORGETOWN, TX, 78628",126531596,"R"
315597,"202 LAFAYETTE WOODS DR","HOUMA","LA",70363,29.5849742660001,-90.656848236,97,"202 LAFAYETTE WOODS DR, HOUMA, LA, 70363","Match","Non_Exact","202 LAFAYETTE WOODS BLVD, HOUMA, LA, 70363",92069038,"R"
315598,"202 LAFORET DRIVE","MORGANTON","NC",28655,NA,NA,98,"202 LAFORET DRIVE, MORGANTON, NC, 28655","No_Match",NA,NA,NA,NA
315599,"202 LAIRDS DRIVE","COPPEL","TX",75019,32.9918607170001,-96.999705553,99,"202 LAIRDS DRIVE, COPPEL, TX, 75019","Match","Non_Exact","202 LAIRDS DR, COPPELL, TX, 75019",103411166,"L"
315600,"202 LAKE CARMEL COURT","HUNTSVILLE","AL",35811,34.8053615000001,-86.4791456899999,100,"202 LAKE CARMEL COURT, HUNTSVILLE, AL, 35811","Match","Exact","202 LAKE CARMEL CT, HUNTSVILLE, AL, 35811",58145265,"L"
315601,"202 LAKE PINE DR","CARY","NC",27511,35.7696010110001,-78.79317402,101,"202 LAKE PINE DR, CARY, NC, 27511","Match","Exact","202 LAKE PINE DR, CARY, NC, 27511",208360482,"L"
315602,"202 LAKE POINT DRIVE APT 206","OAKLAND PARK","FL",33309,NA,NA,102,"202 LAKE POINT DRIVE APT 206, OAKLAND PARK, FL, 33309","No_Match",NA,NA,NA,NA
315603,"202 LAKE ROAD","POULTNEY","VT",5764,43.5017328390001,-73.2082474389999,103,"202 LAKE ROAD, POULTNEY, VT, 5764","Match","Non_Exact","202 OLD LAKE RD, POULTNEY, VT, 05764",641174489,"L"
315604,"202 LAKEVIEW AVE","CRESCENT CITY","FL",32112,29.439204692,-81.5086443009999,104,"202 LAKEVIEW AVE, CRESCENT CITY, FL, 32112","Match","Exact","202 LAKEVIEW AVE, CRESCENT CITY, FL, 32112",86062937,"R"
315605,"202 LAKEVIEW AVENUE","CRESCENT CITY","FL",32112,29.439204692,-81.5086443009999,105,"202 LAKEVIEW AVENUE, CRESCENT CITY, FL, 32112","Match","Exact","202 LAKEVIEW AVE, CRESCENT CITY, FL, 32112",86062937,"R"
315606,"202 LAKEVIEW DR","CLUTE","TX",77531,29.0222704120001,-95.414514101,106,"202 LAKEVIEW DR, CLUTE, TX, 77531","Match","Exact","202 LAKEVIEW DR, CLUTE, TX, 77531",647823375,"L"
315607,"202 LAKEVIEW HEIGHTS","HOWARD","OH",43028,40.424046838,-82.360511958,107,"202 LAKEVIEW HEIGHTS, HOWARD, OH, 43028","Match","Non_Exact","202 LAKEVIEW HEIGHTS DR, HOWARD, OH, 43028",24618431,"L"
315608,"202 LAKOTA ROAD","WOODSTOCK","VT",5091,43.680191393,-72.5988408119999,108,"202 LAKOTA ROAD, WOODSTOCK, VT, 5091","Match","Exact","202 LAKOTA RD, WOODSTOCK, VT, 05091",139263735,"L"
315609,"202 LALO PLACE","KAHULUI","HI",96732,20.8830121170001,-156.458540284,109,"202 LALO PLACE, KAHULUI, HI, 96732","Match","Non_Exact","202 LALO ST, KAHULUI, HI, 96732",85101497,"R"
315610,"202 LANDINGS DRIVE","AMHERST","NY",14228,43.0409323390001,-78.764479518,110,"202 LANDINGS DRIVE, AMHERST, NY, 14228","Match","Exact","202 LANDINGS DR, AMHERST, NY, 14228",645592799,"R"
315611,"202 LANDS END RD","MOREHEAD CITY","NC",28557,34.726629417,-76.8100865179999,111,"202 LANDS END RD, MOREHEAD CITY, NC, 28557","Match","Exact","202 LANDS END RD, MOREHEAD CITY, NC, 28557",33860578,"R"
315612,"202 LANE DRIVE","CLARKDALE","MS",38614,NA,NA,112,"202 LANE DRIVE, CLARKDALE, MS, 38614","No_Match",NA,NA,NA,NA
315613,"202 LAURAL OAKS","BOSSIER CITY","LA",71111,32.561088931,-93.720721213,113,"202 LAURAL OAKS, BOSSIER CITY, LA, 71111","Match","Non_Exact","202 LAUREL OAKS, BOSSIER CITY, LA, 71111",624314567,"L"
315614,"202 LAURENS ST","CHESTER","GA",31012,32.3965099820001,-83.154164129,114,"202 LAURENS ST, CHESTER, GA, 31012","Match","Exact","202 LAURENS ST, CHESTER, GA, 31012",9513941,"R"
315615,"202 LAURENS WAY","CHAPEL HILL","NC",27516,35.956398161,-79.068145325,115,"202 LAURENS WAY, CHAPEL HILL, NC, 27516","Match","Exact","202 LAURENS WAY, CHAPEL HILL, NC, 27516",72417756,"R"
315616,"202 LAVERNE LANE","MONTICELLO","KY",42633,NA,NA,116,"202 LAVERNE LANE, MONTICELLO, KY, 42633","No_Match",NA,NA,NA,NA
315617,"202 LEE CARTER DRIVE","JOHNSON CITY","TN",37601,36.3857970350001,-82.38771353,117,"202 LEE CARTER DRIVE, JOHNSON CITY, TN, 37601","Match","Exact","202 LEE CARTER DR, JOHNSON CITY, TN, 37601",127945741,"R"
315618,"202 LEWIS AVE","LAWRENCEVILLE","IL",62439,38.7351469920001,-87.6958443509999,118,"202 LEWIS AVE, LAWRENCEVILLE, IL, 62439","Match","Exact","202 LEWIS AVE, LAWRENCEVILLE, IL, 62439",29666653,"R"
315619,"202 LEWIS DR UNIT 1203","CAROLINA BEACH","NC",28428,34.0506679330001,-77.892590582,119,"202 LEWIS DR UNIT 1203, CAROLINA BEACH, NC, 28428","Match","Exact","202 LEWIS DR, CAROLINA BCH, NC, 28428",152744700,"R"
315620,"202 LIFE SCIENCES BLD-- LSU","BATON ROUGE","LA",70803,NA,NA,120,"202 LIFE SCIENCES BLD-- LSU, BATON ROUGE, LA, 70803","No_Match",NA,NA,NA,NA
315621,"202 LINCOLN DRIVE","READING","PA",19606,40.298525361,-75.83998473,121,"202 LINCOLN DRIVE, READING, PA, 19606","Match","Exact","202 LINCOLN DR, READING, PA, 19606",638501935,"L"
315622,"202 LINCOLN ST","BATHGATE","ND",58216,48.879438673,-97.474732667,122,"202 LINCOLN ST, BATHGATE, ND, 58216","Match","Exact","202 LINCOLN ST, BATHGATE, ND, 58216",196153038,"L"
315623,"202 LINCOLN STREEET","KENNETT SQUARE","PA",19348,39.8470569500001,-75.715789694,123,"202 LINCOLN STREEET, KENNETT SQUARE, PA, 19348","Match","Non_Exact","202 LINCOLN ST, KENNETT SQUARE, PA, 19348",179542761,"R"
315624,"202 LINDA DR","VICKSBURG","MS",39180,32.2393947940001,-90.909681488,124,"202 LINDA DR, VICKSBURG, MS, 39180","Match","Exact","202 LINDA DR, VICKSBURG, MS, 39180",71296719,"R"
315625,"202 LINDEN AVE","TOWSON","MD",21286,39.3964063380001,-76.596868507,125,"202 LINDEN AVE, TOWSON, MD, 21286","Match","Exact","202 LINDEN AVE, TOWSON, MD, 21286",191473872,"L"
315626,"202 LIONS GATE DRIVE","CARY","NC",27518,35.726260338,-78.790864576,126,"202 LIONS GATE DRIVE, CARY, NC, 27518","Match","Exact","202 LIONS GATE DR, CARY, NC, 27518",72566808,"R"
315627,"202 LIPPITT ST UNIT 3","PROVIDENCE","RI",2906,41.837284878,-71.402347918,127,"202 LIPPITT ST UNIT 3, PROVIDENCE, RI, 2906","Match","Exact","202 LIPPITT ST, PROVIDENCE, RI, 02906",47463910,"L"
315628,"202 LIPPITT ST","PROVIDENCE","RI",2906,41.837284878,-71.402347918,128,"202 LIPPITT ST, PROVIDENCE, RI, 2906","Match","Exact","202 LIPPITT ST, PROVIDENCE, RI, 02906",47463910,"L"
315629,"202 LOCUST LANE","KITTANNING","PA",16201,40.832692696,-79.540283541,129,"202 LOCUST LANE, KITTANNING, PA, 16201","Match","Exact","202 LOCUST LN, KITTANNING, PA, 16201",52463497,"L"
315630,"202 LOCUST LN","KITTANNING","PA",16201,40.832692696,-79.540283541,130,"202 LOCUST LN, KITTANNING, PA, 16201","Match","Exact","202 LOCUST LN, KITTANNING, PA, 16201",52463497,"L"
315631,"202 LONG STREET","PROSPERITY","SC",29127,34.20174022,-81.530458502,131,"202 LONG STREET, PROSPERITY, SC, 29127","Match","Exact","202 LONG ST, PROSPERITY, SC, 29127",45382897,"L"
315632,"202 LOUIS RD","JOLIET","IL",60433,41.4932689670001,-88.074678338,132,"202 LOUIS RD, JOLIET, IL, 60433","Match","Exact","202 LOUIS RD, JOLIET, IL, 60433",111543351,"R"
315633,"202 LOWE CIRCLE","RICHLAND","MS",39218,32.22835273,-90.158037652,133,"202 LOWE CIRCLE, RICHLAND, MS, 39218","Match","Exact","202 LOWE CIR, RICHLAND, MS, 39218",614935290,"R"
315634,"202 LUCKY CLOVER LANE","HUTTO","TX",78634,30.530925048,-97.543588375,134,"202 LUCKY CLOVER LANE, HUTTO, TX, 78634","Match","Exact","202 LUCKY CLOVER LN, HUTTO, TX, 78634",647877500,"R"
315635,"202 MACDONOUGH ST","BROOKLYN","NY",11216,40.6815975810001,-73.938590168,135,"202 MACDONOUGH ST, BROOKLYN, NY, 11216","Match","Exact","202 MACDONOUGH ST, BROOKLYN, NY, 11216",59079287,"R"
315636,"202 MACEDONIA RD","FRANKLIN","KY",42134,36.720428376,-86.5670815679999,136,"202 MACEDONIA RD, FRANKLIN, KY, 42134","Match","Exact","202 MACEDONIA RD, FRANKLIN, KY, 42134",29599799,"L"
315637,"202 MAGNOLIA ST","UKIAH","CA",95482,39.1609881360001,-123.211567092,137,"202 MAGNOLIA ST, UKIAH, CA, 95482","Match","Exact","202 MAGNOLIA ST, UKIAH, CA, 95482",67266918,"L"
315638,"202 MAIN ROAD","CARMEL","ME",4419,44.808625713,-68.98282317,138,"202 MAIN ROAD, CARMEL, ME, 4419","Match","Exact","202 MAIN RD, CARMEL, ME, 04419",651218859,"R"
315639,"202 MAIN STREET","FORT YATES","ND",58538,46.0864464320001,-100.629746559,139,"202 MAIN STREET, FORT YATES, ND, 58538","Match","Exact","202 MAIN ST, FORT YATES, ND, 58538",197231933,"R"
315640,"202 MAIN STREET","PEMBROKE","NC",28372,NA,NA,140,"202 MAIN STREET, PEMBROKE, NC, 28372","No_Match",NA,NA,NA,NA
315641,"202 MAPLE AVENUE","FARMINGTON","ME",4938,44.6648672210001,-70.1375832149999,141,"202 MAPLE AVENUE, FARMINGTON, ME, 4938","Match","Exact","202 MAPLE AVE, FARMINGTON, ME, 04938",651236726,"L"
315642,"202 MAPLE HILL DR","WOODBRIDGE","NJ",7095,40.5540582360001,-74.301412651,142,"202 MAPLE HILL DR, WOODBRIDGE, NJ, 7095","Match","Exact","202 MAPLE HILL DR, WOODBRIDGE, NJ, 07095",60343960,"R"
315643,"202 MAPLE ST","CORNISH","ME",4020,43.8026954490001,-70.824687647,143,"202 MAPLE ST, CORNISH, ME, 4020","Match","Exact","202 MAPLE ST, CORNISH, ME, 04020",92748987,"R"
315644,"202 MARIBETH","WHITE OAK","TX",75693,NA,NA,144,"202 MARIBETH, WHITE OAK, TX, 75693","No_Match",NA,NA,NA,NA
315645,"202 MARKET ST","APALACHICOLA","FL",32320,NA,NA,145,"202 MARKET ST, APALACHICOLA, FL, 32320","No_Match",NA,NA,NA,NA
315646,"202 MARKET STREET","VIENNA","MD",21869,38.483280203,-75.8276496409999,146,"202 MARKET STREET, VIENNA, MD, 21869","Match","Exact","202 MARKET ST, VIENNA, MD, 21869",99655278,"R"
315647,"202 MARSH HAWK DR","FOLSOM","CA",95630,38.6492545460001,-121.146410779,147,"202 MARSH HAWK DR, FOLSOM, CA, 95630","Match","Exact","202 MARSH HAWK DR, FOLSOM, CA, 95630",133425661,"L"
315648,"202 MARSHALL DR","CHARLESTOWN","IN",47111,38.446631553,-85.671041557,148,"202 MARSHALL DR, CHARLESTOWN, IN, 47111","Match","Exact","202 MARSHALL DR, CHARLESTOWN, IN, 47111",64879459,"R"
315649,"202 MARSHALL ST","ELIZABETH","NJ",7206,40.6489212160001,-74.1920218659999,149,"202 MARSHALL ST, ELIZABETH, NJ, 7206","Match","Exact","202 MARSHALL ST, ELIZABETH, NJ, 07206",60580402,"L"
315650,"202 MARTA STREET","COLLEGE STATION","TX",77845,30.573236427,-96.3104080209999,150,"202 MARTA STREET, COLLEGE STATION, TX, 77845","Match","Exact","202 MARTA ST, COLLEGE STATION, TX, 77845",21846070,"R"
315651,"202 MARTHA DR","WINNSBORO","TX",75494,32.946758603,-95.2984217699999,151,"202 MARTHA DR, WINNSBORO, TX, 75494","Match","Exact","202 MARTHA DR, WINNSBORO, TX, 75494",43000209,"R"
315652,"202 MARY STREET","WINTER GARDEN","FL",34787,28.572146316,-81.571866508,152,"202 MARY STREET, WINTER GARDEN, FL, 34787","Match","Exact","202 MARY ST, WINTER GARDEN, FL, 34787",94354153,"L"
315653,"202 MARYLAND DRIVE","LULING","LA",70070,29.9075083480001,-90.361114437,153,"202 MARYLAND DRIVE, LULING, LA, 70070","Match","Exact","202 MARYLAND DR, LULING, LA, 70070",635158776,"R"
315654,"202 MASON STREET 12","BRANDON","FL",33511,27.9350156460001,-82.283798982,154,"202 MASON STREET 12, BRANDON, FL, 33511","Match","Exact","202 MASON ST, BRANDON, FL, 33511",650348806,"L"
315655,"202 MATTAWOMAN WAY","ACCOKEEK","MD",20607,38.656535842,-77.01219072,155,"202 MATTAWOMAN WAY, ACCOKEEK, MD, 20607","Match","Exact","202 MATTAWOMAN WAY, ACCOKEEK, MD, 20607",76418176,"R"
315656,"202 MAYACA COURT","WOODSTOCK","GA",30188,34.102458498,-84.471102044,156,"202 MAYACA COURT, WOODSTOCK, GA, 30188","Match","Exact","202 MAYACA CT, WOODSTOCK, GA, 30188",634105579,"R"
315657,"202 MCBEE AVENUE","EASLEY","SC",29640,34.8225324650001,-82.598103723,157,"202 MCBEE AVENUE, EASLEY, SC, 29640","Match","Exact","202 MCBEE AVE, EASLEY, SC, 29640",26168417,"R"
315658,"202 MCCASKILL DR","JACKSON","GA",30233,33.2882780680001,-83.954407418,158,"202 MCCASKILL DR, JACKSON, GA, 30233","Match","Exact","202 MCCASKILL DR, JACKSON, GA, 30233",23299965,"L"
315659,"202 MEADOWBROOK AVE","WANAQUE","NJ",7465,41.055826433,-74.2778931139999,159,"202 MEADOWBROOK AVE, WANAQUE, NJ, 7465","Match","Exact","202 MEADOWBROOK AVE, WANAQUE, NJ, 07465",65256160,"L"
315660,"202 MELODY LANE","AKRON","OH",44319,40.9743478190001,-81.5272550019999,160,"202 MELODY LANE, AKRON, OH, 44319","Match","Exact","202 MELODY LN, AKRON, OH, 44319",642176173,"R"
315661,"202 MERIDIAN SCHOOL RD","INDIANAPOLIS","IN",46217,39.6496026030001,-86.153496972,161,"202 MERIDIAN SCHOOL RD, INDIANAPOLIS, IN, 46217","Match","Non_Exact","202 MERIDIAN SCHOOL RD, INDIANAPOLIS, IN, 46227",108070486,"L"
315662,"202 MERRYWOOD DRIVE","STATESBORO","GA",30458,32.4149761260001,-81.767599789,162,"202 MERRYWOOD DRIVE, STATESBORO, GA, 30458","Match","Exact","202 MERRYWOOD DR, STATESBORO, GA, 30458",6116857,"L"
315663,"202 MESEROLE ST APT 4","BROOKLYN","NY",11206,40.70829022,-73.9409730469999,163,"202 MESEROLE ST APT 4, BROOKLYN, NY, 11206","Match","Exact","202 MESEROLE ST, BROOKLYN, NY, 11206",59077275,"R"
315664,"202 MICHAEL DRIVE","GRETNA","NE",68028,41.1434111250001,-96.2399823869999,164,"202 MICHAEL DRIVE, GRETNA, NE, 68028","Match","Exact","202 MICHAEL DR, GRETNA, NE, 68028",28465996,"L"
315665,"202 MILDRED AVENUE","MAPLE SHADE","NJ",8052,39.946582601,-74.991123649,165,"202 MILDRED AVENUE, MAPLE SHADE, NJ, 8052","Match","Exact","202 MILDRED AVE, MAPLE SHADE, NJ, 08052",134027341,"R"
315666,"202 MILL CREEK DRIVE","PANAMA CITY","FL",32409,30.371656177,-85.6765695989999,166,"202 MILL CREEK DRIVE, PANAMA CITY, FL, 32409","Match","Exact","202 MILL CREEK DR, PANAMA CITY, FL, 32409",646697225,"R"
315667,"202 MILLER ST","LIVE OAK","FL",32064,30.279217427,-82.984580654,167,"202 MILLER ST, LIVE OAK, FL, 32064","Match","Non_Exact","202 MILLER ST SE, LIVE OAK, FL, 32064",41090737,"L"
315668,"202 MILLER STREET","LEXINGTON","VA",24450,37.777856845,-79.438766534,168,"202 MILLER STREET, LEXINGTON, VA, 24450","Match","Exact","202 MILLER ST, LEXINGTON, VA, 24450",63109468,"R"
315669,"202 MILLERS LANDING WAY","LYMAN","SC",29365,34.9961167860001,-82.1993962449999,169,"202 MILLERS LANDING WAY, LYMAN, SC, 29365","Match","Exact","202 MILLERS LANDING WAY, LYMAN, SC, 29365",651611758,"R"
315670,"202 MILLSTONE WAY","BONAIRE","GA",31005,32.5715743530001,-83.6437739839999,170,"202 MILLSTONE WAY, BONAIRE, GA, 31005","Match","Exact","202 MILLSTONE WAY, BONAIRE, GA, 31005",628092429,"R"
315671,"202 MILLVILLE STREET","MENDON","MA",1756,42.067208142,-71.566825315,171,"202 MILLVILLE STREET, MENDON, MA, 1756","Match","Exact","202 MILLVILLE ST, MENDON, MA, 01756",40070131,"R"
315672,"202 MIMOSA DRIVE","GAFFNEY","SC",29341,35.093827371,-81.659325528,172,"202 MIMOSA DRIVE, GAFFNEY, SC, 29341","Match","Exact","202 MIMOSA DR, GAFFNEY, SC, 29341",18987968,"R"
315673,"202 MISTY GROVES CIRCLE","MORRISVILLE","NC",27560,35.818198223,-78.8326638089999,173,"202 MISTY GROVES CIRCLE, MORRISVILLE, NC, 27560","Match","Non_Exact","202 MISTY GROVE CIR, MORRISVILLE, NC, 27560",208359981,"R"
315674,"202 MITCHELL DRIVE","EXTON","PA",19341,40.049789515,-75.652365285,174,"202 MITCHELL DRIVE, EXTON, PA, 19341","Match","Non_Exact","202 MITCHELL RD, EXTON, PA, 19341",179487207,"R"
315675,"202 MONTANA TRAIL","BROWNS MILLS","NJ",8015,39.9211496620001,-74.567041702,175,"202 MONTANA TRAIL, BROWNS MILLS, NJ, 8015","Match","Exact","202 MONTANA TRL, BROWNS MILLS, NJ, 08015",134047577,"R"
315676,"202 MOORELAND AVE","HARRODSBURG","KY",40330,37.758464422,-84.844978415,176,"202 MOORELAND AVE, HARRODSBURG, KY, 40330","Match","Exact","202 MOORELAND AVE, HARRODSBURG, KY, 40330",32608394,"L"
315677,"202 MORNINGSIDE DR","WAVERLY","OH",45690,39.130552563,-82.977340505,177,"202 MORNINGSIDE DR, WAVERLY, OH, 45690","Match","Exact","202 MORNINGSIDE DR, WAVERLY, OH, 45690",55059580,"L"
315678,"202 MORNINGSTAR WAY","BALL GROUND","GA",30107,34.3314150640001,-84.389379753,178,"202 MORNINGSTAR WAY, BALL GROUND, GA, 30107","Match","Non_Exact","202 MORNING STAR WAY W, BALL GROUND, GA, 30107",629451999,"L"
315679,"202 MOSS ROSE LN","LAKE JACKSON","TN",77566,NA,NA,179,"202 MOSS ROSE LN, LAKE JACKSON, TN, 77566","No_Match",NA,NA,NA,NA
315680,"202 MOTLOW COLLEGE RD","WARTRACE","TN",37183,35.3927424870001,-86.281075387,180,"202 MOTLOW COLLEGE RD, WARTRACE, TN, 37183","Match","Exact","202 MOTLOW COLLEGE RD, WARTRACE, TN, 37183",58469745,"L"
315681,"202 MUNTZ ROAD","ROCHESTER","PA",15074,40.7648583170001,-80.161624408,181,"202 MUNTZ ROAD, ROCHESTER, PA, 15074","Match","Exact","202 MUNTZ RD, ROCHESTER, PA, 15074",52576186,"R"
315682,"202 N 11TH STREET","ERWIN","NC",28339,35.3297091920001,-78.672754705,182,"202 N 11TH STREET, ERWIN, NC, 28339","Match","Exact","202 N 11TH ST, ERWIN, NC, 28339",71961816,"L"
315683,"202 N 12TH ST","HIAWATHA","KS",66434,39.854103986,-95.545837858,183,"202 N 12TH ST, HIAWATHA, KS, 66434","Match","Exact","202 N 12TH ST, HIAWATHA, KS, 66434",9768625,"L"
315684,"202 N 12TH","HIAWATHA","KS",66434,39.854103986,-95.545837858,184,"202 N 12TH, HIAWATHA, KS, 66434","Match","Non_Exact","202 N 12TH ST, HIAWATHA, KS, 66434",9768625,"L"
315685,"202 N 16TH ST","NEW CASTLE","IN",47362,39.9322319410001,-85.365132538,185,"202 N 16TH ST, NEW CASTLE, IN, 47362","Match","Exact","202 N 16TH ST, NEW CASTLE, IN, 47362",29983959,"R"
315686,"202 N 38TH ST","HATTIESBURG","MS",39401,31.327524629,-89.345575025,186,"202 N 38TH ST, HATTIESBURG, MS, 39401","Match","Non_Exact","202 N 38TH AVE, HATTIESBURG, MS, 39401",323769,"L"
315687,"202 N 3RD ST","RACINE","OH",45771,38.9707297800001,-81.916860285,187,"202 N 3RD ST, RACINE, OH, 45771","Match","Exact","202 3RD ST, RACINE, OH, 45771",101266626,"L"
315688,"202 N 6TH ST","MASCOUTAH","IL",62258,38.49235657,-89.806632413,188,"202 N 6TH ST, MASCOUTAH, IL, 62258","Match","Exact","202 N 6TH ST, MASCOUTAH, IL, 62258",639242957,"R"
315689,"202 N ALLEN DR SUITE E","ALLEN","TX",75013,NA,NA,189,"202 N ALLEN DR SUITE E, ALLEN, TX, 75013","Tie",NA,NA,NA,NA
315690,"202 N ALLEN DRIVE SUITE F","ALLEN","TX",75013,NA,NA,190,"202 N ALLEN DRIVE SUITE F, ALLEN, TX, 75013","Tie",NA,NA,NA,NA
315691,"202 N ASHE AVE","DUNN","NC",28334,35.315774076,-78.621239599,191,"202 N ASHE AVE, DUNN, NC, 28334","Match","Exact","202 N ASHE AVE, DUNN, NC, 28334",71991007,"R"
315692,"202 N AVE 64","LOS ANGELES","CA",90042,34.1154977,-118.180823308,192,"202 N AVE 64, LOS ANGELES, CA, 90042","Match","Exact","202 N AVE 64, LOS ANGELES, CA, 90042",141615374,"R"
315693,"202 N AXTEL","MILFORD","IL",60953,40.629552699,-87.6964280299999,193,"202 N AXTEL, MILFORD, IL, 60953","Match","Non_Exact","202 N AXTEL ST, MILFORD, IL, 60953",90757216,"L"
315694,"202 N BRIDGE ST","CHIPPEWA FALLS","WI",54729,44.936419502,-91.3924346909999,194,"202 N BRIDGE ST, CHIPPEWA FALLS, WI, 54729","Match","Exact","202 N BRIDGE ST, CHIPPEWA FALLS, WI, 54729",78924414,"L"
315695,"202 N CEDAR AVE SUITE 1","OWATONNA","MN",55060,NA,NA,195,"202 N CEDAR AVE SUITE 1, OWATONNA, MN, 55060","Tie",NA,NA,NA,NA
315696,"202 N CHEMSFORD","Wichita","KS",67230,NA,NA,196,"202 N CHEMSFORD, Wichita, KS, 67230","No_Match",NA,NA,NA,NA
315697,"202 N CHRISTOPHER BLVD","ROBINSON","IL",62454,NA,NA,197,"202 N CHRISTOPHER BLVD, ROBINSON, IL, 62454","No_Match",NA,NA,NA,NA
315698,"202 N COMMERCIAL ST","KINCAID","KS",66039,38.084456548,-95.154449469,198,"202 N COMMERCIAL ST, KINCAID, KS, 66039","Match","Exact","202 N COMMERCIAL ST, KINCAID, KS, 66039",10468193,"L"
315699,"202 N DELAVAN AVE","MARGATE","NJ",8402,39.3343294380001,-74.499138401,199,"202 N DELAVAN AVE, MARGATE, NJ, 8402","Match","Non_Exact","202 N DELAVAN AVE, MARGATE CITY, NJ, 08402",202487480,"L"
315700,"202 N GAYLORD AVE","LUDINGTON","MI",49431,43.956686113,-86.454924316,200,"202 N GAYLORD AVE, LUDINGTON, MI, 49431","Match","Exact","202 N GAYLORD AVE, LUDINGTON, MI, 49431",148053072,"R"
315701,"202 N HAMILTON ST APT 2","MADISON","WI",53703,NA,NA,201,"202 N HAMILTON ST APT 2, MADISON, WI, 53703","Tie",NA,NA,NA,NA
315702,"202 N HARBOUR CITY BLVD STE 101","MELBOURNE","FL",32934,NA,NA,202,"202 N HARBOUR CITY BLVD STE 101, MELBOURNE, FL, 32934","No_Match",NA,NA,NA,NA
315703,"202 N HICKMAN ST","PUXICO","MO",63960,36.9505054370001,-90.157045368,203,"202 N HICKMAN ST, PUXICO, MO, 63960","Match","Exact","202 N HICKMAN ST, PUXICO, MO, 63960",35370417,"R"
315704,"202 N HOUSTON ST","WHARTON","TX",77488,29.3122090900001,-96.100762983,204,"202 N HOUSTON ST, WHARTON, TX, 77488","Match","Exact","202 N HOUSTON ST, WHARTON, TX, 77488",42488026,"R"
315705,"202 N JAMES CAMPBELL BLVD","COLUMBIA","TN",38401,35.6271124400001,-87.042921414,205,"202 N JAMES CAMPBELL BLVD, COLUMBIA, TN, 38401","Match","Exact","202 N JAMES CAMPBELL BLVD, COLUMBIA, TN, 38401",605859976,"R"
315706,"202 N JOHNSON ST","AKRON","IN",46910,41.0395059080001,-86.026055856,206,"202 N JOHNSON ST, AKRON, IN, 46910","Match","Exact","202 JOHNSON ST, AKRON, IN, 46910",7843772,"L"
315707,"202 N KALAMAZOO ST","WHITE PIGEON","MI",49099,41.7992746370001,-85.6431806849999,207,"202 N KALAMAZOO ST, WHITE PIGEON, MI, 49099","Match","Exact","202 N KALAMAZOO ST, WHITE PIGEON, MI, 49099",15316799,"R"
315708,"202 N KANSAS AVENUE NO 302","TOPEKA","KS",66603,NA,NA,208,"202 N KANSAS AVENUE NO 302, TOPEKA, KS, 66603","No_Match",NA,NA,NA,NA
315709,"202 N LEXINGTON RD","GILMER","TX",75755,NA,NA,209,"202 N LEXINGTON RD, GILMER, TX, 75755","No_Match",NA,NA,NA,NA
315710,"202 N LIBERTY ST","ALBION","IA",50005,42.112473181,-92.988627047,210,"202 N LIBERTY ST, ALBION, IA, 50005","Match","Exact","202 N LIBERTY ST, ALBION, IA, 50005",90920206,"L"
315711,"202 N LOCUST STREET","FAYETTEVILLE","AR",72701,36.064899161,-94.163010717,211,"202 N LOCUST STREET, FAYETTEVILLE, AR, 72701","Match","Non_Exact","202 N LOCUST AVE, FAYETTEVILLE, AR, 72701",49045622,"R"
315712,"202 N MAGNOLIA AVE","SOUTH PITTSBURGH","TN",37380,NA,NA,212,"202 N MAGNOLIA AVE, SOUTH PITTSBURGH, TN, 37380","Tie",NA,NA,NA,NA
315713,"202 N MAIN ST","DEWITT","AR",72042,34.2964924500001,-91.335022253,213,"202 N MAIN ST, DEWITT, AR, 72042","Match","Exact","202 N MAIN ST, DEWITT, AR, 72042",11966522,"R"
315714,"202 N MAIN STREET","MOUNT CARROLL","IL",61053,42.0995941300001,-89.9788268629999,214,"202 N MAIN STREET, MOUNT CARROLL, IL, 61053","Match","Exact","202 N MAIN ST, MOUNT CARROLL, IL, 61053",27679458,"L"
315715,"202 N MAIN","NASH","OK",73761,NA,NA,215,"202 N MAIN, NASH, OK, 73761","No_Match",NA,NA,NA,NA
315716,"202 N MALINCHE AVE","LAREDO","TX",78043,27.497493164,-99.475228622,216,"202 N MALINCHE AVE, LAREDO, TX, 78043","Match","Exact","202 N MALINCHE AVE, LAREDO, TX, 78043",21673868,"L"
315717,"202 N MASSACHUSETTS AVE","LAKELAND","FL",33801,28.0455491160001,-81.954167105,217,"202 N MASSACHUSETTS AVE, LAKELAND, FL, 33801","Match","Exact","202 N MASSACHUSETTS AVE, LAKELAND, FL, 33801",104810487,"L"
315718,"202 N MASSACHUSETTS AVENUE","LAKELAND","FL",33801,28.0455491160001,-81.954167105,218,"202 N MASSACHUSETTS AVENUE, LAKELAND, FL, 33801","Match","Exact","202 N MASSACHUSETTS AVE, LAKELAND, FL, 33801",104810487,"L"
315719,"202 N NORTHFIELD","MEDIAPOLIS","IA",52637,41.008740957,-91.160391744,219,"202 N NORTHFIELD, MEDIAPOLIS, IA, 52637","Match","Non_Exact","202 N NORTHFIELD ST, MEDIAPOLIS, IA, 52637",5534835,"R"
315720,"202 N OXFORD AVE","LOS ANGELES","CA",90004,34.07502127,-118.307923968,220,"202 N OXFORD AVE, LOS ANGELES, CA, 90004","Match","Exact","202 N OXFORD AVE, LOS ANGELES, CA, 90004",141603348,"R"
315721,"202 N PAUL DRIVE","SIBLEY","MO",64088,NA,NA,221,"202 N PAUL DRIVE, SIBLEY, MO, 64088","No_Match",NA,NA,NA,NA
315722,"202 N RACE ST APT 407","URBANA","IL",61801,NA,NA,222,"202 N RACE ST APT 407, URBANA, IL, 61801","Tie",NA,NA,NA,NA
315723,"202 N ROCK RD APT 805","WICHITA","KS",67205,NA,NA,223,"202 N ROCK RD APT 805, WICHITA, KS, 67205","No_Match",NA,NA,NA,NA
315724,"202 N ROCK RD APT 805","WICHITA","KS",67206,NA,NA,224,"202 N ROCK RD APT 805, WICHITA, KS, 67206","No_Match",NA,NA,NA,NA
315725,"202 N SALEM AVE 2B","ARLINGTON HEIGHTS","IL",60005,42.0847775290001,-87.992658787,225,"202 N SALEM AVE 2B, ARLINGTON HEIGHTS, IL, 60005","Match","Non_Exact","202 N SALEM AVE, ARLINGTON HEIGHTS, IL, 60005",111715704,"L"
315726,"202 N STUYVESANT ST","MERRILL","WI",54452,45.1828044970001,-89.680281612,226,"202 N STUYVESANT ST, MERRILL, WI, 54452","Match","Exact","202 N STUYVESANT ST, MERRILL, WI, 54452",201782656,"L"
315727,"202 N THIRD STREET","DREW","MS",38737,33.812707962,-90.536639065,227,"202 N THIRD STREET, DREW, MS, 38737","Match","Exact","202 N THIRD ST, DREW, MS, 38737",2726923,"R"
315728,"202 N TIMBER ST","KNOXVILLE","IL",61448,40.909284776,-90.283504017,228,"202 N TIMBER ST, KNOXVILLE, IL, 61448","Match","Exact","202 N TIMBER ST, KNOXVILLE, IL, 61448",9040492,"L"
315729,"202 N WALLACE BLVD","YPSILANTI","MI",48197,42.2428598710001,-83.6324932799999,229,"202 N WALLACE BLVD, YPSILANTI, MI, 48197","Match","Exact","202 N WALLACE BLVD, YPSILANTI, MI, 48197",636264183,"L"
315730,"202 N WALNUT","ELK POINT","SD",57025,42.684587945,-96.6783320069999,230,"202 N WALNUT, ELK POINT, SD, 57025","Match","Non_Exact","202 WALNUT ST, ELK POINT, SD, 57025",176346008,"R"
315731,"202 NANTUCKET AVE","VICTORIA","TX",77904,28.8538195130001,-96.9740146569999,231,"202 NANTUCKET AVE, VICTORIA, TX, 77904","Match","Exact","202 NANTUCKET AVE, VICTORIA, TX, 77904",649875435,"R"
315732,"202 NAUTIQUE COURT","ANDERSON","SC",29625,NA,NA,232,"202 NAUTIQUE COURT, ANDERSON, SC, 29625","No_Match",NA,NA,NA,NA
315733,"202 NE 65TH ST","GLADSTONE","MO",64118,39.2118306130001,-94.578238493,233,"202 NE 65TH ST, GLADSTONE, MO, 64118","Match","Exact","202 NE 65TH ST, GLADSTONE, MO, 64118",89755818,"L"
315734,"202 NE 8TH AVE","OCALA","FL",34470,29.1885768720001,-82.1299031839999,234,"202 NE 8TH AVE, OCALA, FL, 34470","Match","Exact","202 NE 8TH AVE, OCALA, FL, 34470",116830956,"L"
315735,"202 NELSON LANE","MIDDLESBORO","KY",40965,NA,NA,235,"202 NELSON LANE, MIDDLESBORO, KY, 40965","No_Match",NA,NA,NA,NA
315736,"202 NEW STREET","EATONTON","GA",31024,33.31985812,-83.375094573,236,"202 NEW STREET, EATONTON, GA, 31024","Match","Exact","202 NEW ST, EATONTON, GA, 31024",16670728,"R"
315737,"202 NEWPORT CENTER DR STE 11-127","NEWPORT BEACH","CA",92660,33.612670704,-117.874837044,237,"202 NEWPORT CENTER DR STE 11-127, NEWPORT BEACH, CA, 92660","Match","Exact","202 NEWPORT CENTER DR, NEWPORT BEACH, CA, 92660",144050375,"R"
315738,"202 NEWTONMORE RD","GREENVILLE","SC",29615,34.8773077010001,-82.304159199,238,"202 NEWTONMORE RD, GREENVILLE, SC, 29615","Match","Exact","202 NEWTONMORE RD, GREENVILLE, SC, 29615",38309464,"R"
315739,"202 NICHOLAS PKWY E","CAPE CORAL","FL",33990,26.6324108490001,-81.970658457,239,"202 NICHOLAS PKWY E, CAPE CORAL, FL, 33990","Match","Exact","202 NICHOLAS PKWY E, CAPE CORAL, FL, 33990",647953456,"R"
315740,"202 NICHOLSON DR","COLONIAL BEACH","VA",22443,38.200152556,-76.9548149399999,240,"202 NICHOLSON DR, COLONIAL BEACH, VA, 22443","Match","Exact","202 NICHOLSON DR, COLONIAL BCH, VA, 22443",22163343,"R"
315741,"202 NICHOLSON RD","KELSO","WA",98626,46.177836359,-122.899446824,241,"202 NICHOLSON RD, KELSO, WA, 98626","Match","Exact","202 NICHOLSON RD, KELSO, WA, 98626",184510778,"R"
315742,"202 NOBLE AVE APT 1","BRIDGEPORT","CT",6608,41.1841522760001,-73.1846598669999,242,"202 NOBLE AVE APT 1, BRIDGEPORT, CT, 6608","Match","Exact","202 NOBLE AVE, BRIDGEPORT, CT, 06608",3225117,"L"
315743,"202 NORTH 6TH STREET","KINGFISHER","OK",73750,35.862109708,-97.931403127,243,"202 NORTH 6TH STREET, KINGFISHER, OK, 73750","Match","Exact","202 N 6TH ST, KINGFISHER, OK, 73750",121891542,"L"
315744,"202 NORTH APPLE STREET","SHICKLEY","NE",68436,40.4162995,-97.720462055,244,"202 NORTH APPLE STREET, SHICKLEY, NE, 68436","Match","Exact","202 N APPLE ST, SHICKLEY, NE, 68436",39378221,"R"
315745,"202 NORTH BEECH STREET","DYESS","AR",72330,35.5911880130001,-90.2163735729999,245,"202 NORTH BEECH STREET, DYESS, AR, 72330","Match","Exact","202 N BEECH ST, DYESS, AR, 72330",47227872,"L"
315746,"202 NORTH BLACK STREET","BOZEMAN","MT",59715,45.6814804860001,-111.035763411,246,"202 NORTH BLACK STREET, BOZEMAN, MT, 59715","Match","Non_Exact","202 N BLACK AVE, BOZEMAN, MT, 59715",163497975,"R"
315747,"202 NORTH BROBST STREET","KNOXVILLE","IA",50138,41.319947068,-93.1031736469999,247,"202 NORTH BROBST STREET, KNOXVILLE, IA, 50138","Match","Exact","202 N BROBST ST, KNOXVILLE, IA, 50138",89478641,"R"
315748,"202 NORTH CHERRY STREET","SHICKLEY","NE",68436,40.416274328,-97.7259225029999,248,"202 NORTH CHERRY STREET, SHICKLEY, NE, 68436","Match","Exact","202 N CHERRY ST, SHICKLEY, NE, 68436",39377872,"R"
315749,"202 NORTH EUCLID AVENUE","WESTFIELD","NJ",7090,40.6573173900001,-74.347381828,249,"202 NORTH EUCLID AVENUE, WESTFIELD, NJ, 7090","Match","Exact","202 N EUCLID AVE, WESTFIELD, NJ, 07090",60582325,"R"
315750,"202 NORTH HARRISON","PHILO","IL",61864,40.008208461,-88.15793358,250,"202 NORTH HARRISON, PHILO, IL, 61864","Match","Non_Exact","202 N HARRISON ST, PHILO, IL, 61864",8814898,"L"
315751,"202 NORTH MAGNOLIA STREET","TOMPKINSVILLE","KY",42167,36.700192008,-85.691992378,251,"202 NORTH MAGNOLIA STREET, TOMPKINSVILLE, KY, 42167","Match","Exact","202 N MAGNOLIA ST, TOMPKINSVILLE, KY, 42167",29556642,"R"
315752,"202 NORTH ROAD","HARWINTON","CT",6791,41.785224113,-73.059803749,252,"202 NORTH ROAD, HARWINTON, CT, 6791","Match","Exact","202 NORTH RD, HARWINTON, CT, 06791",611507706,"R"
315753,"202 NORTH SIXTH STREET","CONNELLSVILLE","PA",15425,NA,NA,253,"202 NORTH SIXTH STREET, CONNELLSVILLE, PA, 15425","Tie",NA,NA,NA,NA
315754,"202 NORTH SPOONER ST","MADISON","WI",53726,43.071040571,-89.416721309,254,"202 NORTH SPOONER ST, MADISON, WI, 53726","Match","Exact","202 N SPOONER ST, MADISON, WI, 53726",49469172,"L"
315755,"202 NORTH THOMAS DRIVE STE 2","SHREVEPORT","LA",71107,32.538558374,-93.763426341,255,"202 NORTH THOMAS DRIVE STE 2, SHREVEPORT, LA, 71107","Match","Exact","202 N THOMAS DR, SHREVEPORT, LA, 71107",604719721,"R"
315756,"202 NORTH THOMAS","SHREVEPORT","LA",71107,32.538558374,-93.763426341,256,"202 NORTH THOMAS, SHREVEPORT, LA, 71107","Match","Non_Exact","202 N THOMAS DR, SHREVEPORT, LA, 71107",604719721,"R"
315757,"202 NORTH WALNUT","ELK POINT","SD",57025,NA,NA,257,"202 NORTH WALNUT, ELK POINT, SD, 57025","No_Match",NA,NA,NA,NA
315758,"202 NORTH YORK","MARTINSVILLE","IL",62442,39.3357627400001,-87.88378485,258,"202 NORTH YORK, MARTINSVILLE, IL, 62442","Match","Non_Exact","202 N YORK ST, MARTINSVILLE, IL, 62442",5644752,"R"
315759,"202 NORTHPOINTE DRIVE","CENTERVILLE","GA",31028,32.633555147,-83.6912136299999,259,"202 NORTHPOINTE DRIVE, CENTERVILLE, GA, 31028","Match","Exact","202 NORTHPOINTE DR, CENTERVILLE, GA, 31028",605915847,"R"
315760,"202 NORTHRIDGE AVE","BOLINGBROOK","IL",60440,41.7018819840001,-88.0627916399999,260,"202 NORTHRIDGE AVE, BOLINGBROOK, IL, 60440","Match","Exact","202 NORTHRIDGE AVE, BOLINGBROOK, IL, 60440",111544081,"L"
315761,"202 NORTHRIDGE CT","LINDSBORG","KS",67456,38.5840905430001,-97.6773085,261,"202 NORTHRIDGE CT, LINDSBORG, KS, 67456","Match","Exact","202 NORTHRIDGE CT, LINDSBORG, KS, 67456",142867952,"R"
315762,"202 NORTHRIDGE","BOLINGBROOK","IL",60440,41.7018819840001,-88.0627916399999,262,"202 NORTHRIDGE, BOLINGBROOK, IL, 60440","Match","Non_Exact","202 NORTHRIDGE AVE, BOLINGBROOK, IL, 60440",111544081,"L"
315763,"202 NORWOOD AVE","NINETY SIX","SC",29666,34.1717223810001,-82.014836182,263,"202 NORWOOD AVE, NINETY SIX, SC, 29666","Match","Exact","202 NORWOOD AVE, NINETY SIX, SC, 29666",50807578,"L"
315764,"202 NW 135TH WAY UNIT 45-310","PLANTATION","FL",33325,26.1217744730001,-80.329685802,264,"202 NW 135TH WAY UNIT 45-310, PLANTATION, FL, 33325","Match","Non_Exact","202 NW 135TH WAY, PLANTATION, FL, 33325",114697684,"R"
315765,"202 NW 3RD CT","SUBLIMITY","OR",97385,44.832461783,-122.79577642,265,"202 NW 3RD CT, SUBLIMITY, OR, 97385","Match","Exact","202 NW 3RD CT, SUBLIMITY, OR, 97385",156232751,"R"
315766,"202 NW 9TH AVE","FT LAUDERDALE FL","FL",33311,26.123921309,-80.153525255,266,"202 NW 9TH AVE, FT LAUDERDALE FL, FL, 33311","Match","Non_Exact","202 NW 9TH AVE, FORT LAUDERDALE, FL, 33311",114722619,"R"
315767,"202 OAK LANE","TERRE HILL","PA",17581,40.1549510410001,-76.0488034049999,267,"202 OAK LANE, TERRE HILL, PA, 17581","Match","Exact","202 OAK LN, TERRE HILL, PA, 17581",641516788,"L"
315768,"202 OAK PINE DRIVE","APEX","NC",27502,35.726744723,-78.879964351,268,"202 OAK PINE DRIVE, APEX, NC, 27502","Match","Exact","202 OAK PINE DR, APEX, NC, 27502",72606881,"R"
315769,"202 OAKBANK ROAD","BAKERSFIELD","CA",93304,35.357507727,-119.037774354,269,"202 OAKBANK ROAD, BAKERSFIELD, CA, 93304","Match","Exact","202 OAKBANK RD, BAKERSFIELD, CA, 93304",109088625,"R"
315770,"202 OLD GOBEY RD","LANCING","TN",37770,36.1274537470001,-84.6134370999999,270,"202 OLD GOBEY RD, LANCING, TN, 37770","Match","Exact","202 GOBEY RD, LANCING, TN, 37770",26300124,"L"
315771,"202 OLD LAKESIDE DRIVE","YORKTOWN","VA",23692,NA,NA,271,"202 OLD LAKESIDE DRIVE, YORKTOWN, VA, 23692","Tie",NA,NA,NA,NA
315772,"202 OLD MAIN STREET","BRADENTON","FL",34205,27.4989686280001,-82.573409197,272,"202 OLD MAIN STREET, BRADENTON, FL, 34205","Match","Exact","202 OLD MAIN ST, BRADENTON, FL, 34205",16234410,"R"
315773,"202 OLD MILL LANE","HAMPSHIRE","IL",60140,42.0898464270001,-88.527491375,273,"202 OLD MILL LANE, HAMPSHIRE, IL, 60140","Match","Exact","202 OLD MILL LN, HAMPSHIRE, IL, 60140",119585596,"L"
315774,"202 OLD NINETY SIX HWY","GREENWOOD","SC",29646,NA,NA,274,"202 OLD NINETY SIX HWY, GREENWOOD, SC, 29646","Tie",NA,NA,NA,NA
315775,"202 OLD ROCHESTER ROAD","SOMERSWORTH","NH",3878,43.241481623,-70.90763923,275,"202 OLD ROCHESTER ROAD, SOMERSWORTH, NH, 3878","Match","Exact","202 OLD ROCHESTER RD, SOMERSWORTH, NH, 03878",647312883,"L"
315776,"202 OLD VILLAGE LANE","BETHEL PARK","PA",15067,40.3052741860001,-80.0428915049999,276,"202 OLD VILLAGE LANE, BETHEL PARK, PA, 15067","Match","Non_Exact","202 OLD VILLAGE LN, BETHEL PARK, PA, 15102",607670966,"R"
315777,"202 OLDBRICH RD","HARVARD","IL",60033,NA,NA,277,"202 OLDBRICH RD, HARVARD, IL, 60033","No_Match",NA,NA,NA,NA
315778,"202 OLDUVAI BLVD","TUSKEGEE","AL",36083,32.3968386720001,-85.74287272,278,"202 OLDUVAI BLVD, TUSKEGEE, AL, 36083","Match","Exact","202 OLDUVAI BLVD, TUSKEGEE, AL, 36083",69136649,"R"
315779,"202 ORCHARD DRIVE","LITTLE HOCKING","OH",45742,39.2726299610001,-81.688281434,279,"202 ORCHARD DRIVE, LITTLE HOCKING, OH, 45742","Match","Exact","202 ORCHARD DR, LITTLE HOCKING, OH, 45742",615789823,"L"
315780,"202 OVERLOOK TRL","CLEMMONS","NC",27012,35.9848802590001,-80.3263241239999,280,"202 OVERLOOK TRL, CLEMMONS, NC, 27012","Match","Exact","202 OVERLOOK TRL, CLEMMONS, NC, 27012",651394533,"R"
315781,"202 OXFORD ST","HARTFORD","CT",6105,41.7699619480001,-72.713840096,281,"202 OXFORD ST, HARTFORD, CT, 6105","Match","Exact","202 OXFORD ST, HARTFORD, CT, 06105",3494097,"R"
315782,"202 OXFORDSHIRE LANE","CHAPEL HILL","NC",27517,35.8956403460001,-78.978617712,282,"202 OXFORDSHIRE LANE, CHAPEL HILL, NC, 27517","Match","Exact","202 OXFORDSHIRE LN, CHAPEL HILL, NC, 27517",618111302,"R"
315783,"202 PADDINGTON PLACE","CANTON","GA",30115,34.155664642,-84.4684760769999,283,"202 PADDINGTON PLACE, CANTON, GA, 30115","Match","Exact","202 PADDINGTON PL, CANTON, GA, 30115",68840956,"R"
315784,"202 PAIUTE STREET","CARSON CITY","NV",89703,39.138332833,-119.771196673,284,"202 PAIUTE STREET, CARSON CITY, NV, 89703","Match","Exact","202 PAIUTE ST, CARSON CITY, NV, 89703",199518152,"R"
315785,"202 PALM AVE","WATSONVILLE","CA",95076,36.9166692520001,-121.758359074,285,"202 PALM AVE, WATSONVILLE, CA, 95076","Match","Exact","202 PALM AVE, WATSONVILLE, CA, 95076",125513367,"R"
315786,"202 PARK AVENUE","COLLEGEVILLE","PA",19426,40.182755995,-75.456905934,286,"202 PARK AVENUE, COLLEGEVILLE, PA, 19426","Match","Exact","202 PARK AVE, COLLEGEVILLE, PA, 19426",135068162,"L"
315787,"202 PARK AVENUE","MIDLAND PARK","NJ",7432,41.001632552,-74.146342111,287,"202 PARK AVENUE, MIDLAND PARK, NJ, 7432","Match","Exact","202 PARK AVE, MIDLAND PARK, NJ, 07432",64402946,"R"
315788,"202 PARK DR","EVERSON","WA",98247,48.9208572900001,-122.349864203,288,"202 PARK DR, EVERSON, WA, 98247","Match","Exact","202 PARK DR, EVERSON, WA, 98247",183761373,"R"
315789,"202 PARK STREET","LEWISTON","ME",4240,44.0926057500001,-70.213690962,289,"202 PARK STREET, LEWISTON, ME, 4240","Match","Exact","202 PARK ST, LEWISTON, ME, 04240",77961665,"L"
315790,"202 PARK STREET","SPEARVILLE","KS",67876,37.8462908910001,-99.760455093,290,"202 PARK STREET, SPEARVILLE, KS, 67876","Match","Exact","202 PARK ST, SPEARVILLE, KS, 67876",206562273,"R"
315791,"202 PARKLAND AVENUE","PLENTYWOOD","MT",59254,48.7821255800001,-104.558160222,291,"202 PARKLAND AVENUE, PLENTYWOOD, MT, 59254","Match","Exact","202 PARKLAND AVE, PLENTYWOOD, MT, 59254",611065591,"L"
315792,"202 PARKLAND","PLENTYWOOD","MT",59254,48.7821255800001,-104.558160222,292,"202 PARKLAND, PLENTYWOOD, MT, 59254","Match","Non_Exact","202 PARKLAND AVE, PLENTYWOOD, MT, 59254",611065591,"L"
315793,"202 PARKMAN GRANT DR","CARY","NC",27519,35.8179104110001,-78.888439916,293,"202 PARKMAN GRANT DR, CARY, NC, 27519","Match","Exact","202 PARKMAN GRANT DR, CARY, NC, 27519",638344758,"R"
315794,"202 PATTISON ST","YORK","PA",17403,39.965148663,-76.712277332,294,"202 PATTISON ST, YORK, PA, 17403","Match","Exact","202 PATTISON ST, YORK, PA, 17403",88731916,"R"
315795,"202 PAWNEE DRIVE","ENTERPRISE","AL",36330,31.3457252260001,-85.861776047,295,"202 PAWNEE DRIVE, ENTERPRISE, AL, 36330","Match","Exact","202 PAWNEE DR, ENTERPRISE, AL, 36330",99557070,"R"
315796,"202 PEACEFUL HAVEN WAY","HUTTO","TX",78634,30.529860354,-97.5428660159999,296,"202 PEACEFUL HAVEN WAY, HUTTO, TX, 78634","Match","Exact","202 PEACEFUL HAVEN WAY, HUTTO, TX, 78634",619963276,"R"
315797,"202 PEARCE CREEK DR","EARLEVILLE","MD",21919,39.438083869,-75.9540003549999,297,"202 PEARCE CREEK DR, EARLEVILLE, MD, 21919","Match","Exact","202 PEARCE CREEK DR, EARLEVILLE, MD, 21919",207856698,"L"
315798,"202 PEARL DR","GREENVILLE","NC",27834,35.571567309,-77.422255746,298,"202 PEARL DR, GREENVILLE, NC, 27834","Match","Exact","202 PEARL DR, GREENVILLE, NC, 27834",80010650,"L"
315799,"202 PEBBLEBROOKE WALK","CANTON","GA",30115,34.2231364630001,-84.437037096,299,"202 PEBBLEBROOKE WALK, CANTON, GA, 30115","Match","Exact","202 PEBBLEBROOKE WALK, CANTON, GA, 30115",624486285,"R"
315800,"202 PENDLETON ROAD","DAVIS","WV",26260,NA,NA,300,"202 PENDLETON ROAD, DAVIS, WV, 26260","No_Match",NA,NA,NA,NA
315801,"202 PENNSYLVANIA AVE","HOLTON","KS",66436,39.4608293310001,-95.734738395,301,"202 PENNSYLVANIA AVE, HOLTON, KS, 66436","Match","Exact","202 PENNSYLVANIA AVE, HOLTON, KS, 66436",10121074,"R"
315802,"202 PHEASANT HOLLOW DR","PLAINSBORO","NJ",8536,40.336499658,-74.56587153,302,"202 PHEASANT HOLLOW DR, PLAINSBORO, NJ, 8536","Match","Exact","202 PHEASANT HOLLOW DR, PLAINSBORO, NJ, 08536",60339772,"L"
315803,"202 PINE STREET NW 201","ATLANTA","GA",30313,33.767818343,-84.393629346,303,"202 PINE STREET NW 201, ATLANTA, GA, 30313","Match","Exact","202 PINE ST NW, ATLANTA, GA, 30313",618351926,"L"
315804,"202 PINEVIEW STREET","EASTMAN","GA",31027,32.536492992,-82.861486943,304,"202 PINEVIEW STREET, EASTMAN, GA, 31027","Match","Non_Exact","202 PINEVIEW ST, DUBLIN, GA, 31027",100654693,"L"
315805,"202 PINEWOOD DRIVE","GAFFNEY","SC",29340,35.0602335830001,-81.6626027619999,305,"202 PINEWOOD DRIVE, GAFFNEY, SC, 29340","Match","Non_Exact","202 PINEWOOD ST, GAFFNEY, SC, 29340",18988936,"R"
315806,"202 PLEASANT STREET","YARMOUTH","ME",4096,43.7899777800001,-70.1755918389999,306,"202 PLEASANT STREET, YARMOUTH, ME, 4096","Match","Exact","202 PLEASANT ST, YARMOUTH, ME, 04096",626977164,"L"
315807,"202 POINT EAST DRIVE","NASHVILLE","TN",37216,36.233155799,-86.723951601,307,"202 POINT EAST DRIVE, NASHVILLE, TN, 37216","Match","Exact","202 POINT EAST DR, NASHVILLE, TN, 37216",606377678,"R"
315808,"202 PRAIRIE COURT","QUAKERTOWN","PA",18951,40.4515402100001,-75.3410539719999,308,"202 PRAIRIE COURT, QUAKERTOWN, PA, 18951","Match","Exact","202 PRAIRIE CT, QUAKERTOWN, PA, 18951",617904975,"R"
315809,"202 PRESTON PINES DR","CARY","NC",27513,35.8035175000001,-78.8412640449999,309,"202 PRESTON PINES DR, CARY, NC, 27513","Match","Exact","202 PRESTON PINES DR, CARY, NC, 27513",72571106,"R"
315810,"202 PRINZ DR","SAN ANTONIO","TX",78213,29.527040991,-98.515008139,310,"202 PRINZ DR, SAN ANTONIO, TX, 78213","Match","Exact","202 PRINZ DR, SAN ANTONIO, TX, 78213",101494052,"R"
315811,"202 PRIVATE ROAD 90","IRONTON","OH",45638,NA,NA,311,"202 PRIVATE ROAD 90, IRONTON, OH, 45638","No_Match",NA,NA,NA,NA
315812,"202 PURSLEY DR","ANGLETON","TX",77515,29.1931375510001,-95.393979743,312,"202 PURSLEY DR, ANGLETON, TX, 77515","Match","Exact","202 PURSLEY DR, ANGLETON, TX, 77515",116596039,"R"
315813,"202 QUAIL HOLLOW","DICKSON","TN",37055,36.00813866,-87.31619719,313,"202 QUAIL HOLLOW, DICKSON, TN, 37055","Match","Non_Exact","202 QUAIL CT, DICKSON, TN, 37055",72757787,"L"
315814,"202 QUEEN MARIE COURT","UPPER MARLBORO","MD",20774,38.888757581,-76.713698568,314,"202 QUEEN MARIE COURT, UPPER MARLBORO, MD, 20774","Match","Exact","202 QUEEN MARIE CT, UPPER MARLBORO, MD, 20774",76394910,"R"
315815,"202 QUINCY STREET","LAKELAND","FL",33815,28.0541535,-81.958437671,315,"202 QUINCY STREET, LAKELAND, FL, 33815","Match","Exact","202 QUINCY ST, LAKELAND, FL, 33815",104810095,"L"
315816,"202 RAILROAD AVENUE","RIFLE","CO",81650,39.5306819250001,-107.783246756,316,"202 RAILROAD AVENUE, RIFLE, CO, 81650","Match","Exact","202 RAILROAD AVE, RIFLE, CO, 81650",105806299,"R"
315817,"202 RAILROAD BED PIKE","SUMMERTOWN","TN",38483,35.4337088460001,-87.348353158,317,"202 RAILROAD BED PIKE, SUMMERTOWN, TN, 38483","Match","Exact","202 RAILROAD BED PIKE, SUMMERTOWN, TN, 38483",636661778,"L"
315818,"202 RAINBOW DR","MARSHALL","MN",56258,44.451704374,-95.802819369,318,"202 RAINBOW DR, MARSHALL, MN, 56258","Match","Exact","202 RAINBOW DR, MARSHALL, MN, 56258",38524223,"L"
315819,"202 RAYMOND ST","NEWTON","MS",39345,32.3271037230001,-89.154677737,319,"202 RAYMOND ST, NEWTON, MS, 39345","Match","Exact","202 RAYMOND ST, NEWTON, MS, 39345",4886127,"R"
315820,"202 RED OAK","BOERNE","TX",78006,NA,NA,320,"202 RED OAK, BOERNE, TX, 78006","Tie",NA,NA,NA,NA
315821,"202 REMINGTON DRIVE","DOTHAN","AL",36303,31.2782696190001,-85.374339333,321,"202 REMINGTON DRIVE, DOTHAN, AL, 36303","Match","Exact","202 REMINGTON DR, DOTHAN, AL, 36303",101222434,"R"
315822,"202 RENAISSANCE CT","CHATTANOOGA","TN",37419,35.018859279,-85.405714098,322,"202 RENAISSANCE CT, CHATTANOOGA, TN, 37419","Match","Exact","202 RENAISSANCE CT, CHATTANOOGA, TN, 37419",632203127,"L"
315823,"202 RETAMA AVE","TAFT","TX",78390,27.975599039,-97.388144849,323,"202 RETAMA AVE, TAFT, TX, 78390","Match","Exact","202 RETAMA AVE, TAFT, TX, 78390",36324376,"L"
315824,"202 REVELEY AVE","LAKEWOOD","OH",44107,NA,NA,324,"202 REVELEY AVE, LAKEWOOD, OH, 44107","No_Match",NA,NA,NA,NA
315825,"202 REYNARD DRIVE","LANDENBERG","PA",19350,39.7302580900001,-75.799929364,325,"202 REYNARD DRIVE, LANDENBERG, PA, 19350","Match","Exact","202 REYNARD DR, LANDENBERG, PA, 19350",179502158,"R"
315826,"202 RICE MEADOW CIRCLE","COLUMBIA","SC",29229,34.1563530440001,-80.91604058,326,"202 RICE MEADOW CIRCLE, COLUMBIA, SC, 29229","Match","Exact","202 RICE MEADOW CIR, COLUMBIA, SC, 29229",636777929,"L"
315827,"202 RICHARD CORE","PEARL","MS",39208,32.253097139,-90.138250807,327,"202 RICHARD CORE, PEARL, MS, 39208","Match","Non_Exact","202 RICHARD COVE, PEARL, MS, 39208",605236385,"L"
315828,"202 RIDGE AVE","GREENCASTLE","PA",17225,NA,NA,328,"202 RIDGE AVE, GREENCASTLE, PA, 17225","Tie",NA,NA,NA,NA
315829,"202 RIDGE ST","NEWARK","NJ",7104,40.759507764,-74.176467723,329,"202 RIDGE ST, NEWARK, NJ, 7104","Match","Exact","202 RIDGE ST, NEWARK, NJ, 07104",63494792,"L"
315830,"202 RIDGELEA DRIVE","WILLIAMSTOWN","KY",41097,38.654486977,-84.5690851689999,330,"202 RIDGELEA DRIVE, WILLIAMSTOWN, KY, 41097","Match","Exact","202 RIDGELEA DR, WILLIAMSTOWN, KY, 41097",103852283,"R"
315831,"202 RILEY AVE","OGDEN","KS",66517,39.116707536,-96.708693403,331,"202 RILEY AVE, OGDEN, KS, 66517","Match","Exact","202 RILEY AVE, OGDEN, KS, 66517",611733537,"L"
315832,"202 RIVER CT NE","ROCHESTER","MN",55906,44.0564572050001,-92.460252687,332,"202 RIVER CT NE, ROCHESTER, MN, 55906","Match","Exact","202 RIVER CT NE, ROCHESTER, MN, 55906",30563499,"L"
315833,"202 RIVER DRIVE","BLOOMFIELD","IN",47424,39.029085363,-86.943714278,333,"202 RIVER DRIVE, BLOOMFIELD, IN, 47424","Match","Exact","202 RIVER DR, BLOOMFIELD, IN, 47424",39306694,"L"
315834,"202 RIVER RIDGE PT","LITTLE ROCK","AR",72227,34.792246198,-92.384084731,334,"202 RIVER RIDGE PT, LITTLE ROCK, AR, 72227","Match","Exact","202 RIVER RIDGE PT, LITTLE ROCK, AR, 72227",83569965,"R"
315835,"202 RIVER ROAD","E JOHNSON","VT",5656,NA,NA,335,"202 RIVER ROAD, E JOHNSON, VT, 5656","Tie",NA,NA,NA,NA
315836,"202 RIVERRIDGE WAY","MCDONOUGH","GA",30252,NA,NA,336,"202 RIVERRIDGE WAY, MCDONOUGH, GA, 30252","No_Match",NA,NA,NA,NA
315837,"202 RIVERVIEW AVENUE","RIDLEY PARK","PA",19078,39.873625421,-75.322529237,337,"202 RIVERVIEW AVENUE, RIDLEY PARK, PA, 19078","Match","Exact","202 RIVERVIEW AVE, RIDLEY PARK, PA, 19078",134882667,"L"
315838,"202 ROCHDALE ROAD","POUGHKEEPSIE","NY",12603,41.7162463930001,-73.8512877439999,338,"202 ROCHDALE ROAD, POUGHKEEPSIE, NY, 12603","Match","Exact","202 ROCHDALE RD, POUGHKEEPSIE, NY, 12603",4169231,"L"
315839,"202 ROCKDALE RD","CARNESVILLE","GA",30521,NA,NA,339,"202 ROCKDALE RD, CARNESVILLE, GA, 30521","No_Match",NA,NA,NA,NA
315840,"202 ROCKWOOD PLACE","SUFFOLK","VA",23435,36.8796783930001,-76.41667389,340,"202 ROCKWOOD PLACE, SUFFOLK, VA, 23435","Match","Exact","202 ROCKWOOD PL, SUFFOLK, VA, 23435",636669930,"R"
315841,"202 RODEO DR","EUNICE","LA",70535,30.4222375690001,-92.4743680079999,341,"202 RODEO DR, EUNICE, LA, 70535","Match","Exact","202 RODEO DR, EUNICE, LA, 70535",88295093,"R"
315842,"202 ROOSEVELT ST","PAOLI","IN",47454,38.5525829150001,-86.45775248,342,"202 ROOSEVELT ST, PAOLI, IN, 47454","Match","Exact","202 ROOSEVELT ST, PAOLI, IN, 47454",635002028,"L"
315843,"202 ROSEMEADE PL SW","LEESBURG","VA",20175,39.1130849830001,-77.578769165,343,"202 ROSEMEADE PL SW, LEESBURG, VA, 20175","Match","Exact","202 ROSEMEADE PL SW, LEESBURG, VA, 20175",62331707,"R"
315844,"202 ROUNDABOUT DRIVE","TRUSSVILLE","AL",35173,33.617670016,-86.622977371,344,"202 ROUNDABOUT DRIVE, TRUSSVILLE, AL, 35173","Match","Exact","202 ROUNDABOUT DR, TRUSSVILLE, AL, 35173",81613093,"R"
315845,"202 ROYALLSPRINGS PARKWAY","O'FALLON","MO",63368,38.7645188480001,-90.704644973,345,"202 ROYALLSPRINGS PARKWAY, O'FALLON, MO, 63368","Match","Non_Exact","202 ROYALLSPRINGS PKWY, O FALLON, MO, 63368",100048258,"R"
315846,"202 RUIDOSO DR","LAFAYETTE","LA",70503,30.1422889350001,-92.09700115,346,"202 RUIDOSO DR, LAFAYETTE, LA, 70503","Match","Exact","202 RUIDOSO DR, LAFAYETTE, LA, 70503",624254759,"L"
315847,"202 RUMFORD STREET","CONCORD","NH",3301,43.2175830320001,-71.55000031,347,"202 RUMFORD STREET, CONCORD, NH, 3301","Match","Exact","202 RUMFORD ST, CONCORD, NH, 03301",647578964,"R"
315848,"202 RUSSELL STREET","WINTERS","CA",95694,38.5198879640001,-121.9714417,348,"202 RUSSELL STREET, WINTERS, CA, 95694","Match","Exact","202 RUSSELL ST, WINTERS, CA, 95694",67695044,"R"
315849,"202 S 4TH ST","COPPERAS COVE","TX",76522,31.1230861770001,-97.900215039,349,"202 S 4TH ST, COPPERAS COVE, TX, 76522","Match","Exact","202 4TH ST, COPPERAS COVE, TX, 76522",146565143,"R"
315850,"202 S 4TH ST","OSBORNE","KS",67473,39.436512029,-98.700402815,350,"202 S 4TH ST, OSBORNE, KS, 67473","Match","Exact","202 S 4TH ST, OSBORNE, KS, 67473",149890250,"R"
315851,"202 S 4TH ST","SMITHFIELD","NC",27577,35.509253399,-78.345400706,351,"202 S 4TH ST, SMITHFIELD, NC, 27577","Match","Exact","202 S 4TH ST, SMITHFIELD, NC, 27577",26525547,"L"
315852,"202 S 4TH STREET","COPPERAS COVE","TX",76522,31.1230861770001,-97.900215039,352,"202 S 4TH STREET, COPPERAS COVE, TX, 76522","Match","Exact","202 4TH ST, COPPERAS COVE, TX, 76522",146565143,"R"
315853,"202 S 4TH STREET","SMITHFIELD","NC",27577,35.509253399,-78.345400706,353,"202 S 4TH STREET, SMITHFIELD, NC, 27577","Match","Exact","202 S 4TH ST, SMITHFIELD, NC, 27577",26525547,"L"
315854,"202 S 4TH","COPPERAS COVE","TX",76522,31.123085874,-97.900215212,354,"202 S 4TH, COPPERAS COVE, TX, 76522","Match","Non_Exact","202 4TH ST, COPPERAS COVE, TX, 76522",146565143,"R"
315855,"202 S 8TH ST","MOREHEAD CITY","NC",28557,34.7203155870001,-76.712748053,355,"202 S 8TH ST, MOREHEAD CITY, NC, 28557","Match","Exact","202 S 8TH ST, MOREHEAD CITY, NC, 28557",33862018,"L"
315856,"202 S ADAMS","OLDS","IA",52647,41.132772925,-91.547464034,356,"202 S ADAMS, OLDS, IA, 52647","Match","Non_Exact","202 S ADAMS ST, OLDS, IA, 52647",16081928,"R"
315857,"202 S BARNES DR APT D","GARLAND","TX",75042,NA,NA,357,"202 S BARNES DR APT D, GARLAND, TX, 75042","Tie",NA,NA,NA,NA
315858,"202 S BRIGHT HILL ROAD","SMITHVILLE","TN",37166,35.958306931,-85.810624215,358,"202 S BRIGHT HILL ROAD, SMITHVILLE, TN, 37166","Match","Non_Exact","202 BRIGHT HILL ST, SMITHVILLE, TN, 37166",34196626,"R"
315859,"202 S BROADWAY AVE SUITE 223","URBANA","IL",61801,NA,NA,359,"202 S BROADWAY AVE SUITE 223, URBANA, IL, 61801","Tie",NA,NA,NA,NA
315860,"202 S BROADWAY ST","HASTINGS","MI",49058,42.647803572,-85.2906449399999,360,"202 S BROADWAY ST, HASTINGS, MI, 49058","Match","Exact","202 S BROADWAY ST, HASTINGS, MI, 49058",10505218,"L"
315861,"202 S CALEDONIA RD","LAURINBURG","NC",28352,34.773529271,-79.4561678869999,361,"202 S CALEDONIA RD, LAURINBURG, NC, 28352","Match","Exact","202 S CALEDONIA RD, LAURINBURG, NC, 28352",25790974,"R"
315862,"202 S CEADAR STREET","ROCKSPRINGS","TX",78880,30.01458526,-100.212656405,362,"202 S CEADAR STREET, ROCKSPRINGS, TX, 78880","Match","Non_Exact","202 S CEDAR ST, ROCKSPRINGS, TX, 78880",173404152,"R"
315863,"202 S CHARLES ST","PLYMOUTH","IL",62327,40.2901416810001,-90.919249135,363,"202 S CHARLES ST, PLYMOUTH, IL, 62327","Match","Non_Exact","202 S CHARLES ST, PLYMOUTH, IL, 62367",5327883,"L"
315864,"202 S COLLEGE STREET","HARRODSBURG","KY",40330,37.7611607150001,-84.84575761,364,"202 S COLLEGE STREET, HARRODSBURG, KY, 40330","Match","Exact","202 S COLLEGE ST, HARRODSBURG, KY, 40330",32608008,"L"
315865,"202 S COOPER ST","MEMPHIS","TN",38104,35.1323723670001,-89.9904410239999,365,"202 S COOPER ST, MEMPHIS, TN, 38104","Match","Exact","202 S COOPER ST, MEMPHIS, TN, 38104",72912705,"L"
315866,"202 S COUNTRY MANOR LANE","ALPINE","UT",84004,40.450502715,-111.756758619,366,"202 S COUNTRY MANOR LANE, ALPINE, UT, 84004","Match","Exact","202 S COUNTRY MANOR LN, ALPINE, UT, 84004",134261333,"R"
315867,"202 S DIVISION ST","SUFFOLK","VA",23434,36.7237331790001,-76.569038329,367,"202 S DIVISION ST, SUFFOLK, VA, 23434","Match","Exact","202 S DIVISION ST, SUFFOLK, VA, 23434",122227591,"L"
315868,"202 S ELGIN AVE","TULSA","OK",74120,36.155907213,-95.986801036,368,"202 S ELGIN AVE, TULSA, OK, 74120","Match","Exact","202 S ELGIN AVE, TULSA, OK, 74120",166437976,"R"
315869,"202 S ELGIN","TULSA","OK",74120,36.155907213,-95.986801036,369,"202 S ELGIN, TULSA, OK, 74120","Match","Non_Exact","202 S ELGIN AVE, TULSA, OK, 74120",166437976,"R"
315870,"202 S ELM STREET","ROGERS","TX",76569,30.931625696,-97.230486897,370,"202 S ELM STREET, ROGERS, TX, 76569","Match","Exact","202 ELM ST, ROGERS, TX, 76569",146154968,"R"
315871,"202 S ENGISH HILL LANE","HILLSBOROUGH","NC",27278,36.087357594,-79.086838953,371,"202 S ENGISH HILL LANE, HILLSBOROUGH, NC, 27278","Match","Non_Exact","202 S ENGLISH HILL LN, HILLSBOROUGH, NC, 27278",72416665,"L"
315872,"202 S ESPANADE WAY","STAFFORD","TX",77477,NA,NA,372,"202 S ESPANADE WAY, STAFFORD, TX, 77477","No_Match",NA,NA,NA,NA
315873,"202 S ESPLANADE WAY","STAFFORD","TX",77477,29.617632273,-95.570162297,373,"202 S ESPLANADE WAY, STAFFORD, TX, 77477","Match","Exact","202 S ESPLANADE WAY, STAFFORD, TX, 77477",78294836,"L"
315874,"202 S FAIRWAY STREET","HENRIETTA","TX",76365,33.811921113,-98.179952048,374,"202 S FAIRWAY STREET, HENRIETTA, TX, 76365","Match","Exact","202 S FAIRWAY ST, HENRIETTA, TX, 76365",169780244,"L"
315875,"202 S FIRST  STREET","OREGON","IL",61061,42.013069552,-89.328787389,375,"202 S FIRST  STREET, OREGON, IL, 61061","Match","Exact","202 S 1ST ST, OREGON, IL, 61061",52320959,"L"
315876,"202 S FIRST STREET","OREGON","IL",61061,42.013069552,-89.328787389,376,"202 S FIRST STREET, OREGON, IL, 61061","Match","Exact","202 S 1ST ST, OREGON, IL, 61061",52320959,"L"
315877,"202 S FOURTH ST","CHAMPAIGN","IL",61820,40.1149406870001,-88.233512183,377,"202 S FOURTH ST, CHAMPAIGN, IL, 61820","Match","Exact","202 S 4TH ST, CHAMPAIGN, IL, 61820",8842928,"L"
315878,"202 S FRANCES ST","BROWNSTOWN","IN",47220,38.8792370520001,-86.0469456819999,378,"202 S FRANCES ST, BROWNSTOWN, IN, 47220","Match","Non_Exact","202 S FRANCIS ST, BROWNSTOWN, IN, 47220",31250979,"L"
315879,"202 S GOLDEN OAK DRIVE","TEXAS CITY","TX",77591,29.381638588,-94.9970552199999,379,"202 S GOLDEN OAK DRIVE, TEXAS CITY, TX, 77591","Match","Exact","202 GOLDEN OAK DR, TEXAS CITY, TX, 77591",96742188,"R"
315880,"202 S HICKORY ST","SUMMERVILLE","SC",29483,33.021947663,-80.18191201,380,"202 S HICKORY ST, SUMMERVILLE, SC, 29483","Match","Exact","202 S HICKORY ST, SUMMERVILLE, SC, 29483",178459337,"L"
315881,"202 S HIGH ST","JAMESTOWN","IN",46147,39.924704766,-86.6289697939999,381,"202 S HIGH ST, JAMESTOWN, IN, 46147","Match","Exact","202 S HIGH ST, JAMESTOWN, IN, 46147",610969475,"L"
315882,"202 S JOHNSON","ALVIN","TX",77511,29.422656675,-95.2506691849999,382,"202 S JOHNSON, ALVIN, TX, 77511","Match","Non_Exact","202 S JOHNSON ST, ALVIN, TX, 77511",116576906,"L"
315883,"202 S LAKEWOOD AVE","NORTHLAKE","IL",60164,41.903347771,-87.901626353,383,"202 S LAKEWOOD AVE, NORTHLAKE, IL, 60164","Match","Exact","202 S LAKEWOOD AVE, NORTHLAKE, IL, 60164",111726401,"R"
315884,"202 S MADISON AVE","LA GRANGE","IL",60525,41.810470422,-87.870986949,384,"202 S MADISON AVE, LA GRANGE, IL, 60525","Match","Exact","202 S MADISON AVE, LA GRANGE, IL, 60525",111790288,"R"
315885,"202 S MAIN ST","DANVILLE","IA",52623,40.864436723,-91.314606699,385,"202 S MAIN ST, DANVILLE, IA, 52623","Match","Exact","202 S MAIN ST, DANVILLE, IA, 52623",5537626,"R"
315886,"202 S MAIN STREET","NECEDAH","WA",54646,NA,NA,386,"202 S MAIN STREET, NECEDAH, WA, 54646","No_Match",NA,NA,NA,NA
315887,"202 S MAIN STREET","NECEDAH","WI",54646,44.0253946030001,-90.0721531569999,387,"202 S MAIN STREET, NECEDAH, WI, 54646","Match","Exact","202 S MAIN ST, NECEDAH, WI, 54646",50960689,"R"
315888,"202 S MAIN","GREENFIELD","IN",46140,39.855693323,-85.769993706,388,"202 S MAIN, GREENFIELD, IN, 46140","Match","Non_Exact","202 S MAIN ST, GREENFIELD, IN, 46140",31072264,"L"
315889,"202 S MAPLE ST","FRONTENAC","KS",66763,37.453681384,-94.702682866,389,"202 S MAPLE ST, FRONTENAC, KS, 66763","Match","Non_Exact","202 MAPLE, FRONTENAC, KS, 66763",33422522,"L"
315890,"202 S MASON ST","MIDDLE POINT","OH",45863,40.8533769210001,-84.447863212,390,"202 S MASON ST, MIDDLE POINT, OH, 45863","Match","Exact","202 S MASON ST, MIDDLE POINT, OH, 45863",632858136,"L"
315891,"202 S MCQUARRIE","WAGONER","OK",74467,35.9579039280001,-95.3664893709999,391,"202 S MCQUARRIE, WAGONER, OK, 74467","Match","Non_Exact","202 S MCQUARRIE AVE, WAGONER, OK, 74467",83144207,"L"
315892,"202 S MEADOWHILL LANE","MAHOMET","IL",61853,NA,NA,392,"202 S MEADOWHILL LANE, MAHOMET, IL, 61853","Tie",NA,NA,NA,NA
315893,"202 S MINNESOTA ST","LAKEFIELD","MN",56150,43.6729247970001,-95.1734199319999,393,"202 S MINNESOTA ST, LAKEFIELD, MN, 56150","Match","Exact","202 MINNESOTA ST, LAKEFIELD, MN, 56150",9938857,"L"
315894,"202 S MOCK ST","PRAIRIE GROVE","AR",72753,35.9737520830001,-94.317396802,394,"202 S MOCK ST, PRAIRIE GROVE, AR, 72753","Match","Exact","202 S MOCK ST, PRAIRIE GROVE, AR, 72753",49098620,"L"
315895,"202 S MONROE ST","TINGLEY","IA",50863,40.851393769,-94.19391761,395,"202 S MONROE ST, TINGLEY, IA, 50863","Match","Exact","202 MONROE ST, TINGLEY, IA, 50863",81400657,"R"
315896,"202 S MONROE STREET","ALBION","MI",49224,42.2449070060001,-84.7500520299999,396,"202 S MONROE STREET, ALBION, MI, 49224","Match","Exact","202 S MONROE ST, ALBION, MI, 49224",11734443,"R"
315897,"202 S NEVADA ST E","OCEANSIDE","CA",92054,33.195422873,-117.375708253,397,"202 S NEVADA ST E, OCEANSIDE, CA, 92054","Match","Non_Exact","202 S NEVADA ST, OCEANSIDE, CA, 92054",195280636,"L"
315898,"202 S PALM AVE","HOWEY IN THE HILLS","FL",34737,28.7127323400001,-81.77240403,398,"202 S PALM AVE, HOWEY IN THE HILLS, FL, 34737","Match","Exact","202 S PALM AVE, HOWEY IN THE HILLS, FL, 34737",94101458,"R"
315899,"202 S PETTIGREW STREET","RALEIGH","NC",27610,35.777505772,-78.620795142,399,"202 S PETTIGREW STREET, RALEIGH, NC, 27610","Match","Exact","202 S PETTIGREW ST, RALEIGH, NC, 27610",72508977,"R"
315900,"202 S RANGE STREET","OBLONG","IL",62449,39.000789185,-87.9089030979999,400,"202 S RANGE STREET, OBLONG, IL, 62449","Match","Exact","202 S RANGE ST, OBLONG, IL, 62449",26973890,"L"
315901,"202 S RAYMOND AVE 606","PASADENA","PA",91105,NA,NA,401,"202 S RAYMOND AVE 606, PASADENA, PA, 91105","No_Match",NA,NA,NA,NA
315902,"202 S RIDGLEY STREET","ALGONA","IA",50511,43.067299346,-94.2416260479999,402,"202 S RIDGLEY STREET, ALGONA, IA, 50511","Match","Exact","202 S RIDGLEY ST, ALGONA, IA, 50511",9845039,"L"
315903,"202 S STATE ST","WHITE PIGEON","MI",49099,41.796611453,-85.6468476429999,403,"202 S STATE ST, WHITE PIGEON, MI, 49099","Match","Exact","202 S STATE ST, WHITE PIGEON, MI, 49099",15316855,"L"
315904,"202 S STELLAR PARKWAY","CHANDLER","AZ",85226,33.2995417290001,-111.91877942,404,"202 S STELLAR PARKWAY, CHANDLER, AZ, 85226","Match","Exact","202 S STELLAR PKWY, CHANDLER, AZ, 85226",128937187,"R"
315905,"202 S TAMA STREET","ROCK RAPIDS","IA",51246,43.4306412130001,-96.165666342,405,"202 S TAMA STREET, ROCK RAPIDS, IA, 51246","Match","Exact","202 S TAMA ST, ROCK RAPIDS, IA, 51246",30198713,"R"
315906,"202 S THIRD STREET","UNON STAR","MO",64494,39.978931049,-94.5965032239999,406,"202 S THIRD STREET, UNON STAR, MO, 64494","Match","Non_Exact","202 S 3RD ST, UNION STAR, MO, 64494",17815370,"L"
315907,"202 S THOMASON ST","WILLIS","TX",77378,30.4226523310001,-95.480480415,407,"202 S THOMASON ST, WILLIS, TX, 77378","Match","Exact","202 S THOMASON ST, WILLIS, TX, 77378",79274183,"L"
315908,"202 S VINE ST","CRAWFORDSVILLE","IN",47933,40.04043391,-86.919650216,408,"202 S VINE ST, CRAWFORDSVILLE, IN, 47933","Match","Exact","202 S VINE ST, CRAWFORDSVILLE, IN, 47933",29351828,"R"
315909,"202 S WASHINGTON","CERRO GORDO","IL",61818,39.8886333230001,-88.734983255,409,"202 S WASHINGTON, CERRO GORDO, IL, 61818","Match","Non_Exact","202 S WASHINGTON ST, CERRO GORDO, IL, 61818",8549093,"R"
315910,"202 S WOODMONT DR","JOPLIN","MO",64801,37.0891930110001,-94.467440187,410,"202 S WOODMONT DR, JOPLIN, MO, 64801","Match","Exact","202 S WOODMONT DR, JOPLIN, MO, 64801",66158385,"L"
315911,"202 SACATON LN","ANIMAS","NM",88020,32.2541508790001,-108.845057851,411,"202 SACATON LN, ANIMAS, NM, 88020","Match","Exact","202 SACATON LN, ANIMAS, NM, 88020",137569394,"L"
315912,"202 SAM DAVIS DRIVE","SPRINGFIELD","TN",37172,36.476241079,-86.862079133,412,"202 SAM DAVIS DRIVE, SPRINGFIELD, TN, 37172","Match","Exact","202 SAM DAVIS DR, SPRINGFIELD, TN, 37172",97440677,"R"
315913,"202 SAN SABA","RICHWOOD","TX",77531,29.062031683,-95.410822292,413,"202 SAN SABA, RICHWOOD, TX, 77531","Match","Non_Exact","202 SAN SABA ST, RICHWOOD, TX, 77531",116579996,"L"
315914,"202 SAN VICENTE BLVD APT 10","SANTA MONICA","CA",90402,NA,NA,414,"202 SAN VICENTE BLVD APT 10, SANTA MONICA, CA, 90402","No_Match",NA,NA,NA,NA
315915,"202 SANDPIPER DR","PORTLAND","TX",78374,27.8802596400001,-97.305290739,415,"202 SANDPIPER DR, PORTLAND, TX, 78374","Match","Exact","202 SANDPIPER DR, PORTLAND, TX, 78374",36331986,"R"
315916,"202 SANDSTONE DRIVE","TAYLORS","SC",29687,34.9129959580001,-82.356560703,416,"202 SANDSTONE DRIVE, TAYLORS, SC, 29687","Match","Exact","202 SANDSTONE DR, TAYLORS, SC, 29687",38349838,"L"
315917,"202 SANDY DRIVE","MONCKS CORNER","SC",29461,33.2053106020001,-80.011764684,417,"202 SANDY DRIVE, MONCKS CORNER, SC, 29461","Match","Exact","202 SANDY DR, MONCKS CORNER, SC, 29461",100736649,"R"
315918,"202 SANGER AVENUE","WATERVILLE","NY",13480,42.9259824150001,-75.383691354,418,"202 SANGER AVENUE, WATERVILLE, NY, 13480","Match","Exact","202 SANGER AVE, WATERVILLE, NY, 13480",171519006,"L"
315919,"202 SANTA FE TRAIL","LITTLE ROCK","AR",72205,34.7548917560001,-92.381299752,419,"202 SANTA FE TRAIL, LITTLE ROCK, AR, 72205","Match","Exact","202 SANTA FE TRL, LITTLE ROCK, AR, 72205",83501191,"L"
315920,"202 SARAH DR","ASHLAND","MO",65010,38.768977056,-92.260003661,420,"202 SARAH DR, ASHLAND, MO, 65010","Match","Exact","202 SARAH DR, ASHLAND, MO, 65010",639709745,"R"
315921,"202 SARATOGA","GEORGETOWN","KY",40324,38.1903487430001,-84.556042614,421,"202 SARATOGA, GEORGETOWN, KY, 40324","Match","Non_Exact","202 SARATOGA CT, GEORGETOWN, KY, 40324",41232419,"L"
315922,"202 SARAZEN MEADOW WAY","CARY","NC",27513,35.8083279160001,-78.844172801,422,"202 SARAZEN MEADOW WAY, CARY, NC, 27513","Match","Exact","202 SARAZEN MEADOW WAY, CARY, NC, 27513",72588030,"L"
315923,"202 SE 4TH ST","WASHINGTON","IN",47501,38.6550746450001,-87.170874107,423,"202 SE 4TH ST, WASHINGTON, IN, 47501","Match","Exact","202 SE 4TH ST, WASHINGTON, IN, 47501",32075145,"R"
315924,"202 SECOND ST","MALDEN","IL",61337,41.4272738550001,-89.3677528219999,424,"202 SECOND ST, MALDEN, IL, 61337","Match","Exact","202 SECOND ST, MALDEN, IL, 61337",8478023,"R"
315925,"202 SECRETARIAT DR","MADISONVILLE","LA",70447,30.4533168570001,-90.1832798029999,425,"202 SECRETARIAT DR, MADISONVILLE, LA, 70447","Match","Exact","202 SECRETARIAT DR, MADISONVILLE, LA, 70447",618116003,"R"
315926,"202 SECRETARIAT DRIVE","MADISONVILLE","LA",70447,30.4533168570001,-90.1832798029999,426,"202 SECRETARIAT DRIVE, MADISONVILLE, LA, 70447","Match","Exact","202 SECRETARIAT DR, MADISONVILLE, LA, 70447",618116003,"R"
315927,"202 SECTION LINE ROAD","COMO","MS",38619,34.506295003,-89.933480962,427,"202 SECTION LINE ROAD, COMO, MS, 38619","Match","Exact","202 SECTION LINE RD, COMO, MS, 38619",80082850,"R"
315928,"202 SELROSE LANE","SANTA BARBARA","CA",93109,NA,NA,428,"202 SELROSE LANE, SANTA BARBARA, CA, 93109","No_Match",NA,NA,NA,NA
315929,"202 SHADOWS LAWN DRIVE","ATHENS","TN",37303,35.4507304480001,-84.572946228,429,"202 SHADOWS LAWN DRIVE, ATHENS, TN, 37303","Match","Exact","202 SHADOWS LAWN DR, ATHENS, TN, 37303",647288664,"L"
315930,"202 SHADOWWOOD COURT","LOVELAND","OH",45140,39.253881676,-84.30010436,430,"202 SHADOWWOOD COURT, LOVELAND, OH, 45140","Match","Exact","202 SHADOWWOOD CT, LOVELAND, OH, 45140",103946195,"L"
315931,"202 SHAHAN DRIVE","SHADY SHORES","TX",76208,33.159769108,-97.031976696,431,"202 SHAHAN DRIVE, SHADY SHORES, TX, 76208","Match","Exact","202 SHAHAN DR, SHADY SHORES, TX, 76208",103346122,"R"
315932,"202 SHARECROPPER RD","HOLCOMB","KS",67851,37.981715437,-100.973814628,432,"202 SHARECROPPER RD, HOLCOMB, KS, 67851","Match","Exact","202 SHARECROPPER RD, HOLCOMB, KS, 67851",145420467,"L"
315933,"202 SHEBAL AVE","HARRISBURG","SD",57032,43.429688373,-96.7108614649999,433,"202 SHEBAL AVE, HARRISBURG, SD, 57032","Match","Exact","202 SHEBAL AVE, HARRISBURG, SD, 57032",653294747,"L"
315934,"202 SHERRILL STREET","HARTSELLE","AL",35640,34.437533617,-86.931933162,434,"202 SHERRILL STREET, HARTSELLE, AL, 35640","Match","Non_Exact","202 SHERRILL ST SW, HARTSELLE, AL, 35640",97105729,"L"
315935,"202 SHORE DRIVE","OCEAN SPRINGS","MS",39564,NA,NA,435,"202 SHORE DRIVE, OCEAN SPRINGS, MS, 39564","No_Match",NA,NA,NA,NA
315936,"202 SILVER MAPLE LANE","PILOT","VA",24138,37.023841329,-80.320762697,436,"202 SILVER MAPLE LANE, PILOT, VA, 24138","Match","Exact","202 SILVER MAPLE LN, PILOT, VA, 24138",642348333,"L"
315937,"202 SILVER SAGE DRIVE","DEL RIO","TX",78840,29.41220094,-100.918910816,437,"202 SILVER SAGE DRIVE, DEL RIO, TX, 78840","Match","Exact","202 SILVER SAGE DR, DEL RIO, TX, 78840",633986345,"L"
315938,"202 SILVERY PINE AVE","WYLIE","TX",75098,33.0165514030001,-96.583461633,438,"202 SILVERY PINE AVE, WYLIE, TX, 75098","Match","Exact","202 SILVERY PINE AVE, WYLIE, TX, 75098",643002565,"R"
315939,"202 SILVERY PNE AVE","WYLIE","TX",75098,33.0165514030001,-96.583461633,439,"202 SILVERY PNE AVE, WYLIE, TX, 75098","Match","Non_Exact","202 SILVERY PINE AVE, WYLIE, TX, 75098",643002565,"R"
315940,"202 SIMBELYN DR","NASHVILLE","NC",27856,35.9702063030001,-77.957446625,440,"202 SIMBELYN DR, NASHVILLE, NC, 27856","Match","Exact","202 SIMBELYN DR, NASHVILLE, NC, 27856",90380977,"L"
315941,"202 SMALLEY ROAD","BRANDON","VT",5733,43.8043198920001,-73.067333816,441,"202 SMALLEY ROAD, BRANDON, VT, 5733","Match","Exact","202 SMALLEY RD, BRANDON, VT, 05733",138977810,"L"
315942,"202 SO MAIN STREET","HOLLAND","NY",14080,42.6378231960001,-78.5364754839999,442,"202 SO MAIN STREET, HOLLAND, NY, 14080","Match","Exact","202 S MAIN ST, HOLLAND, NY, 14080",48278503,"R"
315943,"202 SOUTH 2ND AVE","HOLCOMB","IL",61043,42.0622926610001,-89.09757228,443,"202 SOUTH 2ND AVE, HOLCOMB, IL, 61043","Match","Exact","202 S 2ND AVE, HOLCOMB, IL, 61043",651286999,"R"
315944,"202 SOUTH 6TH STREET","CHICKASHA","OK",73018,35.049823517,-97.939768456,444,"202 SOUTH 6TH STREET, CHICKASHA, OK, 73018","Match","Exact","202 S 6TH ST, CHICKASHA, OK, 73018",15213859,"L"
315945,"202 SOUTH 7TH AVENUE","POCATELLO","ID",83201,42.8669968730001,-112.44051768,445,"202 SOUTH 7TH AVENUE, POCATELLO, ID, 83201","Match","Exact","202 S 7TH AVE, POCATELLO, ID, 83201",204352010,"L"
315946,"202 SOUTH 7TH STREET","PINETOPS","NC",27864,35.791524866,-77.6416206759999,446,"202 SOUTH 7TH STREET, PINETOPS, NC, 27864","Match","Exact","202 S 7TH ST, PINETOPS, NC, 27864",90181195,"L"
315947,"202 SOUTH BELL AVE","STREETMAN","TX",75859,NA,NA,447,"202 SOUTH BELL AVE, STREETMAN, TX, 75859","No_Match",NA,NA,NA,NA
315948,"202 SOUTH BEND DR","DURHAM","NC",27713,35.885016944,-78.942856077,448,"202 SOUTH BEND DR, DURHAM, NC, 27713","Match","Exact","202 S BEND DR, DURHAM, NC, 27713",632156146,"L"
315949,"202 SOUTH BROAD WAY","BALTIMORE","MD",21030,39.289098874,-76.5938015469999,449,"202 SOUTH BROAD WAY, BALTIMORE, MD, 21030","Match","Non_Exact","202 S BROADWAY, BALTIMORE, MD, 21231",639169306,"R"
315950,"202 SOUTH CLAREMONT AVE","SAN JOSE","CA",95127,37.3711647980001,-121.818252442,450,"202 SOUTH CLAREMONT AVE, SAN JOSE, CA, 95127","Match","Exact","202 S CLAREMONT AVE, SAN JOSE, CA, 95127",123004588,"R"
315951,"202 SOUTH COLLEGE STREET APT 18","PIKEVILLE","KY",41501,37.4747628100001,-82.52530689,451,"202 SOUTH COLLEGE STREET APT 18, PIKEVILLE, KY, 41501","Match","Exact","202 S COLLEGE ST, PIKEVILLE, KY, 41501",636633994,"R"
315952,"202 SOUTH DIXON STREET SUITE 201","GAINESVILLE","TX",76240,33.6235264200001,-97.145317289,452,"202 SOUTH DIXON STREET SUITE 201, GAINESVILLE, TX, 76240","Match","Exact","202 S DIXON ST, GAINESVILLE, TX, 76240",151322524,"R"
315953,"202 SOUTH DONLEE DRIVE","SAINT GEORGE","UT",84770,37.10506407,-113.595519943,453,"202 SOUTH DONLEE DRIVE, SAINT GEORGE, UT, 84770","Match","Exact","202 S DONLEE DR, SAINT GEORGE, UT, 84770",166186981,"L"
315954,"202 SOUTH FULTON","TEXAS CITY","TX",77591,29.381321112,-94.989830045,454,"202 SOUTH FULTON, TEXAS CITY, TX, 77591","Match","Non_Exact","202 S FULTON ST, TEXAS CITY, TX, 77591",96687706,"L"
315955,"202 SOUTH JOHNSON","ALVIN","TX",77511,29.422671296,-95.250669714,455,"202 SOUTH JOHNSON, ALVIN, TX, 77511","Match","Non_Exact","202 S JOHNSON ST, ALVIN, TX, 77511",116576906,"L"
315956,"202 SOUTH JONES ST","ANAMOSA","IA",52205,42.106533885,-91.293276878,456,"202 SOUTH JONES ST, ANAMOSA, IA, 52205","Match","Exact","202 S JONES ST, ANAMOSA, IA, 52205",16518600,"L"
315957,"202 SOUTH LAKE DRIVE","CAPE MAY POINT","NJ",8204,NA,NA,457,"202 SOUTH LAKE DRIVE, CAPE MAY POINT, NJ, 8204","No_Match",NA,NA,NA,NA
315958,"202 SOUTH LAKE DRIVE","CAPE MAY POINT","NJ",8212,38.934360828,-74.9657245229999,458,"202 SOUTH LAKE DRIVE, CAPE MAY POINT, NJ, 8212","Match","Exact","202 S LAKE DR, CAPE MAY POINT, NJ, 08212",174330995,"L"
315959,"202 SOUTH LAKE DRIVE","WATERTOWN","SD",57201,44.924856408,-97.1764751109999,459,"202 SOUTH LAKE DRIVE, WATERTOWN, SD, 57201","Match","Exact","202 S LAKE DR, WATERTOWN, SD, 57201",639751874,"L"
315960,"202 SOUTH OXFORD ST APT 3","BROOKLYN","NY",11217,40.683857452,-73.972975146,460,"202 SOUTH OXFORD ST APT 3, BROOKLYN, NY, 11217","Match","Exact","202 S OXFORD ST, BROOKLYN, NY, 11217",59099021,"R"
315961,"202 SOUTH OXFORD STREET","BROOKLYN","NY",11217,40.683857452,-73.972975146,461,"202 SOUTH OXFORD STREET, BROOKLYN, NY, 11217","Match","Exact","202 S OXFORD ST, BROOKLYN, NY, 11217",59099021,"R"
315962,"202 SOUTH ROUTE 73","BLUE ANCHOR","NJ",8037,NA,NA,462,"202 SOUTH ROUTE 73, BLUE ANCHOR, NJ, 8037","No_Match",NA,NA,NA,NA
315963,"202 SOUTH RUNNELS","STREETMAN","TX",75859,NA,NA,463,"202 SOUTH RUNNELS, STREETMAN, TX, 75859","No_Match",NA,NA,NA,NA
315964,"202 SOUTH SANFORD AVE","SANFORD","FL",32771,28.8106369120001,-81.2649701679999,464,"202 SOUTH SANFORD AVE, SANFORD, FL, 32771","Match","Exact","202 S SANFORD AVE, SANFORD, FL, 32771",93749955,"R"
315965,"202 SOUTH WASHINGTON ST","BUTLER","PA",16001,40.859731648,-79.8969469359999,465,"202 SOUTH WASHINGTON ST, BUTLER, PA, 16001","Match","Exact","202 S WASHINGTON ST, BUTLER, PA, 16001",52653831,"L"
315966,"202 SOUTH WOODMONT DRIVE","JOPLIN","MO",64801,37.089205441,-94.467439828,466,"202 SOUTH WOODMONT DRIVE, JOPLIN, MO, 64801","Match","Exact","202 S WOODMONT DR, JOPLIN, MO, 64801",66158385,"L"
315967,"202 SOUTHAMPTON DR NW","CONCORD","NC",28027,35.430882383,-80.613067851,467,"202 SOUTHAMPTON DR NW, CONCORD, NC, 28027","Match","Exact","202 SOUTHAMPTON DR NW, CONCORD, NC, 28027",24924329,"L"
315968,"202 SOUTHWEST RAILROAD STREET","HOPEDALE","IL",61747,40.4193652110001,-89.4141822019999,468,"202 SOUTHWEST RAILROAD STREET, HOPEDALE, IL, 61747","Match","Exact","202 SW RAILROAD ST, HOPEDALE, IL, 61747",22493346,"L"
315969,"202 SOVEREIGN DR","MURFREESBORO","TN",37128,35.8459088640001,-86.509878994,469,"202 SOVEREIGN DR, MURFREESBORO, TN, 37128","Match","Exact","202 SOVEREIGN DR, MURFREESBORO, TN, 37128",59035614,"R"
315970,"202 SPRING CREST DR","SALISBURY","MD",21804,38.330351072,-75.600959244,470,"202 SPRING CREST DR, SALISBURY, MD, 21804","Match","Exact","202 SPRING CREST DR, SALISBURY, MD, 21804",114494816,"L"
315971,"202 STAGE ROAD","CHESTERFIELD","NH",3443,42.8816376390001,-72.491390376,471,"202 STAGE ROAD, CHESTERFIELD, NH, 3443","Match","Exact","202 STAGE RD, CHESTERFIELD, NH, 03443",124050118,"L"
315972,"202 STATE PARK ROAD","TROUTMAN","NC",28166,35.678537636,-80.9048357889999,472,"202 STATE PARK ROAD, TROUTMAN, NC, 28166","Match","Exact","202 STATE PARK RD, TROUTMAN, NC, 28166",624486081,"L"
315973,"202 STATION AVE","DALY CITY","CA",94014,37.691384499,-122.469008445,473,"202 STATION AVE, DALY CITY, CA, 94014","Match","Exact","202 STATION AVE, DALY CITY, CA, 94014",635879208,"R"
315974,"202 STATION HOUSE RD","NEW BERN","NC",28562,34.9683429990001,-76.9744145879999,474,"202 STATION HOUSE RD, NEW BERN, NC, 28562","Match","Exact","202 STATION HOUSE RD, NEW BERN, NC, 28562",651671544,"R"
315975,"202 STEEPLE DRIVE","SHARVEST","AL",35749,34.8467358300001,-86.738761433,475,"202 STEEPLE DRIVE, SHARVEST, AL, 35749","Match","Non_Exact","202 STEEPLE DR, HARVEST, AL, 35749",58159032,"L"
315976,"202 STEPNEY PLACE","NARBERTH","PA",19072,40.0125324570001,-75.265923936,476,"202 STEPNEY PLACE, NARBERTH, PA, 19072","Match","Exact","202 STEPNEY PL, NARBERTH, PA, 19072",634981145,"L"
315977,"202 STONE RIVER WAY","TAYLORS","SC",29687,34.9321943210001,-82.2982810079999,477,"202 STONE RIVER WAY, TAYLORS, SC, 29687","Match","Exact","202 STONE RIVER WAY, TAYLORS, SC, 29687",38328791,"R"
315978,"202 STOVE AVENUE","STATEN ISLAND","NY",10306,40.5827099790001,-74.099048495,478,"202 STOVE AVENUE, STATEN ISLAND, NY, 10306","Match","Non_Exact","202 STOBE AVE, STATEN ISLAND, NY, 10306",59868375,"R"
315979,"202 SUNNYBROOK DRIVE","NORTH SYRACUSE,","NY",13212,43.1424445170001,-76.123869605,479,"202 SUNNYBROOK DRIVE, NORTH SYRACUSE,, NY, 13212","Match","Exact","202 SUNNYBROOK DR, N SYRACUSE, NY, 13212",46567624,"R"
315980,"202 SUNNYCREST RD","SYRACUSE","NY",13206,43.0614509280001,-76.113333299,480,"202 SUNNYCREST RD, SYRACUSE, NY, 13206","Match","Exact","202 SUNNYCREST RD, SYRACUSE, NY, 13206",46572707,"R"
315981,"202 SUNRISE CIRCLE","RICE","TX",75155,32.2361586640001,-96.5035423589999,481,"202 SUNRISE CIRCLE, RICE, TX, 75155","Match","Non_Exact","202 SUNRISE DR, RICE, TX, 75155",183917718,"L"
315982,"202 SUNSET DR NORTH","PELICAN ISLAND","NJ",8751,39.9436156830001,-74.0876731829999,482,"202 SUNSET DR NORTH, PELICAN ISLAND, NJ, 8751","Match","Non_Exact","202 SUNSET DR N, SEASIDE HGTS, NJ, 08751",636225433,"L"
315983,"202 SW 9TH COURT","DELRAY BEACH","FL",33444,26.4477926770001,-80.075555236,483,"202 SW 9TH COURT, DELRAY BEACH, FL, 33444","Match","Exact","202 SW 9TH CT, DELRAY BEACH, FL, 33444",115291217,"L"
315984,"202 SW BROWN ST","VERNDALE","MN",56481,46.3964466850001,-95.01579219,484,"202 SW BROWN ST, VERNDALE, MN, 56481","Match","Exact","202 SW BROWN ST, VERNDALE, MN, 56481",168423290,"R"
315985,"202 SW BRWON ST","VERNDALE","MN",56481,46.3964466850001,-95.01579219,485,"202 SW BRWON ST, VERNDALE, MN, 56481","Match","Non_Exact","202 SW BROWN ST, VERNDALE, MN, 56481",168423290,"R"
315986,"202 SW HERITAGE LN","ANKENY","IA",50023,41.716788755,-93.602734066,486,"202 SW HERITAGE LN, ANKENY, IA, 50023","Match","Exact","202 SW HERITAGE LN, ANKENY, IA, 50023",649068530,"L"
315987,"202 SW HERITAGE","ANKENY","IA",50023,41.716788755,-93.602734066,487,"202 SW HERITAGE, ANKENY, IA, 50023","Match","Non_Exact","202 SW HERITAGE LN, ANKENY, IA, 50023",649068530,"L"
315988,"202 SWALLOWTAIL LANE","MADISON","AL",35757,34.760751785,-86.7701609759999,488,"202 SWALLOWTAIL LANE, MADISON, AL, 35757","Match","Exact","202 SWALLOWTAIL LN, MADISON, AL, 35757",636440506,"L"
315989,"202 SWARTHMORE AVENUE","GAITHERSBURG","MD",20877,39.1264856450001,-77.1777037109999,489,"202 SWARTHMORE AVENUE, GAITHERSBURG, MD, 20877","Match","Exact","202 SWARTHMORE AVE, GAITHERSBURG, MD, 20877",62092581,"L"
315990,"202 SYCAMORE DRIVE","CEDAR PARK","TX",78613,30.502621662,-97.834065132,490,"202 SYCAMORE DRIVE, CEDAR PARK, TX, 78613","Match","Exact","202 SYCAMORE DR, CEDAR PARK, TX, 78613",647874226,"L"
315991,"202 SYCAMORE STREET","MEDWAY","OH",45341,39.8829220470001,-84.01052791,491,"202 SYCAMORE STREET, MEDWAY, OH, 45341","Match","Exact","202 SYCAMORE ST, MEDWAY, OH, 45341",636708928,"L"
315992,"202 SYDNEY DRIVE","DUDLEY","NC",28333,35.320803283,-78.02058678,492,"202 SYDNEY DRIVE, DUDLEY, NC, 28333","Match","Exact","202 SYDNEY DR, DUDLEY, NC, 28333",14423603,"L"
315993,"202 SYLVAN WAY","LA HONDA","CA",94020,NA,NA,493,"202 SYLVAN WAY, LA HONDA, CA, 94020","No_Match",NA,NA,NA,NA
315994,"202 TAHOMA DRIVE","LEXINGTON","KY",40503,38.0126523370001,-84.5112727489999,494,"202 TAHOMA DRIVE, LEXINGTON, KY, 40503","Match","Non_Exact","202 TAHOMA RD, LEXINGTON, KY, 40503",31923116,"R"
315995,"202 TALENT AVE","TALENT","OR",97540,42.2439559040001,-122.786390337,495,"202 TALENT AVE, TALENT, OR, 97540","Match","Exact","202 TALENT AVE, TALENT, OR, 97540",649913138,"L"
315996,"202 TANGLE DR","JAMESTOWN","NC",27282,36.01940805,-79.9338321289999,496,"202 TANGLE DR, JAMESTOWN, NC, 27282","Match","Exact","202 TANGLE DR, JAMESTOWN, NC, 27282",131042455,"R"
315997,"202 TARHEEL DR","MOUNT OLIVE","NC",28365,35.2080775380001,-78.045847807,497,"202 TARHEEL DR, MOUNT OLIVE, NC, 28365","Match","Exact","202 TARHEEL DR, MOUNT OLIVE, NC, 28365",647189731,"L"
315998,"202 TAYLOR AVE","EASTON","PA",18042,40.707359039,-75.202993874,498,"202 TAYLOR AVE, EASTON, PA, 18042","Match","Exact","202 TAYLOR AVE, EASTON, PA, 18042",136883787,"L"
315999,"202 TEJAS COURT","SPRINGTOWN","TX",76082,33.013976046,-97.7830798319999,499,"202 TEJAS COURT, SPRINGTOWN, TX, 76082","Match","Non_Exact","202 TEJAS TRL, SPRINGTOWN, TX, 76082",618206979,"R"
316000,"202 THAYER STREET","LITTLE ROCK","AR",72205,34.7494015930001,-92.300934027,500,"202 THAYER STREET, LITTLE ROCK, AR, 72205","Match","Exact","202 THAYER ST, LITTLE ROCK, AR, 72205",83508907,"R"
