"ID","Address","City","State","Zip","lat","long","id","input_address","match_indicator","match_type","matched_address","tiger_line_id","tiger_side"
980001,"PO BOX 246","ROCHESTER","WI",53167,NA,NA,1,"PO BOX 246, ROCHESTER, WI, 53167","No_Match",NA,NA,NA,NA
980002,"PO BOX 246","RUMNEY","NH",3266,NA,NA,2,"PO BOX 246, RUMNEY, NH, 3266","No_Match",NA,NA,NA,NA
980003,"PO BOX 246","TOPEKA","IN",46571,NA,NA,3,"PO BOX 246, TOPEKA, IN, 46571","No_Match",NA,NA,NA,NA
980004,"PO BOX 246","TYBEE","GA",31328,NA,NA,4,"PO BOX 246, TYBEE, GA, 31328","No_Match",NA,NA,NA,NA
980005,"PO BOX 246","WEST PARIS","ME",4289,NA,NA,5,"PO BOX 246, WEST PARIS, ME, 4289","No_Match",NA,NA,NA,NA
980006,"PO BOX 246","WINFIELD","IL",60190,NA,NA,6,"PO BOX 246, WINFIELD, IL, 60190","No_Match",NA,NA,NA,NA
980007,"PO BOX 2460","GLEN ROSE","TX",76043,NA,NA,7,"PO BOX 2460, GLEN ROSE, TX, 76043","No_Match",NA,NA,NA,NA
980008,"PO BOX 2460","S PADRE ISLAND","TX",78597,NA,NA,8,"PO BOX 2460, S PADRE ISLAND, TX, 78597","No_Match",NA,NA,NA,NA
980009,"PO BOX 2460","SEGUIN","TX",28156,NA,NA,9,"PO BOX 2460, SEGUIN, TX, 28156","No_Match",NA,NA,NA,NA
980010,"PO BOX 24608","EUGENE","OR",97402,NA,NA,10,"PO BOX 24608, EUGENE, OR, 97402","No_Match",NA,NA,NA,NA
980011,"PO BOX 2461","PASCAGOULA","MS",39568,NA,NA,11,"PO BOX 2461, PASCAGOULA, MS, 39568","No_Match",NA,NA,NA,NA
980012,"PO BOX 2461","TEHACHAPI","CA",93561,NA,NA,12,"PO BOX 2461, TEHACHAPI, CA, 93561","No_Match",NA,NA,NA,NA
980013,"PO BOX 2462","RIALTO","CA",92377,NA,NA,13,"PO BOX 2462, RIALTO, CA, 92377","No_Match",NA,NA,NA,NA
980014,"PO BOX 246223","SACRAMENTO","CA",95824,NA,NA,14,"PO BOX 246223, SACRAMENTO, CA, 95824","No_Match",NA,NA,NA,NA
980015,"PO BOX 246285","SACRAMENTO","CA",95820,NA,NA,15,"PO BOX 246285, SACRAMENTO, CA, 95820","No_Match",NA,NA,NA,NA
980016,"PO BOX 24631","MINNEAPOLIS","MN",55410,NA,NA,16,"PO BOX 24631, MINNEAPOLIS, MN, 55410","No_Match",NA,NA,NA,NA
980017,"PO BOX 24638","HOUSTON","TX",77229,NA,NA,17,"PO BOX 24638, HOUSTON, TX, 77229","No_Match",NA,NA,NA,NA
980018,"PO BOX 2465","FLORISSANT","MO",63032,NA,NA,18,"PO BOX 2465, FLORISSANT, MO, 63032","No_Match",NA,NA,NA,NA
980019,"PO BOX 2465","LITTLETON","CO",80161,NA,NA,19,"PO BOX 2465, LITTLETON, CO, 80161","No_Match",NA,NA,NA,NA
980020,"PO BOX 2465","SEQUIM","WA",98382,NA,NA,20,"PO BOX 2465, SEQUIM, WA, 98382","No_Match",NA,NA,NA,NA
980021,"PO BOX 24664","FORT WORTH","TX",76124,NA,NA,21,"PO BOX 24664, FORT WORTH, TX, 76124","No_Match",NA,NA,NA,NA
980022,"PO BOX 2467","CRESTED BUTTE","CO",81224,NA,NA,22,"PO BOX 2467, CRESTED BUTTE, CO, 81224","No_Match",NA,NA,NA,NA
980023,"PO BOX 2467","EUREKA","MT",59917,NA,NA,23,"PO BOX 2467, EUREKA, MT, 59917","No_Match",NA,NA,NA,NA
980024,"PO BOX 2467","LIVERMORE","CA",94551,NA,NA,24,"PO BOX 2467, LIVERMORE, CA, 94551","No_Match",NA,NA,NA,NA
980025,"PO BOX 2467","MADISON","MS",39130,NA,NA,25,"PO BOX 2467, MADISON, MS, 39130","No_Match",NA,NA,NA,NA
980026,"PO BOX 24672 CADMAN PLAZA","BROOKLYN","NY",11202,NA,NA,26,"PO BOX 24672 CADMAN PLAZA, BROOKLYN, NY, 11202","No_Match",NA,NA,NA,NA
980027,"PO BOX 2468","BLUE RIDGE","GA",30513,NA,NA,27,"PO BOX 2468, BLUE RIDGE, GA, 30513","No_Match",NA,NA,NA,NA
980028,"PO BOX 2468","BRENHAM","TX",77834,NA,NA,28,"PO BOX 2468, BRENHAM, TX, 77834","No_Match",NA,NA,NA,NA
980029,"PO BOX 2468","LAGRANGE","GA",30230,NA,NA,29,"PO BOX 2468, LAGRANGE, GA, 30230","No_Match",NA,NA,NA,NA
980030,"PO BOX 2469","MCCALL","ID",83638,NA,NA,30,"PO BOX 2469, MCCALL, ID, 83638","No_Match",NA,NA,NA,NA
980031,"PO BOX 2469","VICTORIA","TX",77902,NA,NA,31,"PO BOX 2469, VICTORIA, TX, 77902","No_Match",NA,NA,NA,NA
980032,"PO BOX 24696","AVONDALE","AZ",85392,NA,NA,32,"PO BOX 24696, AVONDALE, AZ, 85392","No_Match",NA,NA,NA,NA
980033,"PO BOX 24696","TEMPE","AZ",85285,NA,NA,33,"PO BOX 24696, TEMPE, AZ, 85285","No_Match",NA,NA,NA,NA
980034,"PO BOX 247","ADAMS","WI",53910,NA,NA,34,"PO BOX 247, ADAMS, WI, 53910","No_Match",NA,NA,NA,NA
980035,"PO BOX 247","ALTAVILLE","CA",95221,NA,NA,35,"PO BOX 247, ALTAVILLE, CA, 95221","No_Match",NA,NA,NA,NA
980036,"PO BOX 247","AUBURN","GA",30011,NA,NA,36,"PO BOX 247, AUBURN, GA, 30011","No_Match",NA,NA,NA,NA
980037,"PO BOX 247","AVANT","OK",74001,NA,NA,37,"PO BOX 247, AVANT, OK, 74001","No_Match",NA,NA,NA,NA
980038,"PO BOX 247","BLANCHARD","ID",83804,NA,NA,38,"PO BOX 247, BLANCHARD, ID, 83804","No_Match",NA,NA,NA,NA
980039,"PO BOX 247","CENTENNIAL","WY",82055,NA,NA,39,"PO BOX 247, CENTENNIAL, WY, 82055","No_Match",NA,NA,NA,NA
980040,"PO BOX 247","DANBY","VT",5739,NA,NA,40,"PO BOX 247, DANBY, VT, 5739","No_Match",NA,NA,NA,NA
980041,"PO BOX 247","DE SOTO","MO",63020,NA,NA,41,"PO BOX 247, DE SOTO, MO, 63020","No_Match",NA,NA,NA,NA
980042,"PO BOX 247","DECATUR","AR",72722,NA,NA,42,"PO BOX 247, DECATUR, AR, 72722","No_Match",NA,NA,NA,NA
980043,"PO BOX 247","EL CAMPO","TX",77437,NA,NA,43,"PO BOX 247, EL CAMPO, TX, 77437","No_Match",NA,NA,NA,NA
980044,"PO BOX 247","EVAN MILLS","NY",13637,NA,NA,44,"PO BOX 247, EVAN MILLS, NY, 13637","No_Match",NA,NA,NA,NA
980045,"PO BOX 247","HALLIDAY","ND",58636,NA,NA,45,"PO BOX 247, HALLIDAY, ND, 58636","No_Match",NA,NA,NA,NA
980046,"PO BOX 247","HARRISON","AR",72602,NA,NA,46,"PO BOX 247, HARRISON, AR, 72602","No_Match",NA,NA,NA,NA
980047,"PO BOX 247","HOOPLE","ND",58243,NA,NA,47,"PO BOX 247, HOOPLE, ND, 58243","No_Match",NA,NA,NA,NA
980048,"PO BOX 247","JUNTURA","OR",97911,NA,NA,48,"PO BOX 247, JUNTURA, OR, 97911","No_Match",NA,NA,NA,NA
980049,"PO BOX 247","KEARNY","AZ",85137,NA,NA,49,"PO BOX 247, KEARNY, AZ, 85137","No_Match",NA,NA,NA,NA
980050,"PO BOX 247","METUCHEN","NJ",8840,NA,NA,50,"PO BOX 247, METUCHEN, NJ, 8840","No_Match",NA,NA,NA,NA
980051,"PO BOX 247","MONTICELLO","GA",31064,NA,NA,51,"PO BOX 247, MONTICELLO, GA, 31064","No_Match",NA,NA,NA,NA
980052,"PO BOX 247","MURPHYS","CA",95247,NA,NA,52,"PO BOX 247, MURPHYS, CA, 95247","No_Match",NA,NA,NA,NA
980053,"PO BOX 247","ONSTED","MI",49265,NA,NA,53,"PO BOX 247, ONSTED, MI, 49265","No_Match",NA,NA,NA,NA
980054,"PO BOX 247","PALMYRA","MO",63461,NA,NA,54,"PO BOX 247, PALMYRA, MO, 63461","No_Match",NA,NA,NA,NA
980055,"PO BOX 247","PORT GIBSON","MS",39150,NA,NA,55,"PO BOX 247, PORT GIBSON, MS, 39150","No_Match",NA,NA,NA,NA
980056,"PO BOX 247","SHELTER ISLAND","NY",11964,NA,NA,56,"PO BOX 247, SHELTER ISLAND, NY, 11964","No_Match",NA,NA,NA,NA
980057,"PO BOX 247","SILETZ","OR",97380,NA,NA,57,"PO BOX 247, SILETZ, OR, 97380","No_Match",NA,NA,NA,NA
980058,"PO BOX 247","SYLVAN BEACH","NY",13157,NA,NA,58,"PO BOX 247, SYLVAN BEACH, NY, 13157","No_Match",NA,NA,NA,NA
980059,"PO BOX 247","WHITE BIRD","ID",83554,NA,NA,59,"PO BOX 247, WHITE BIRD, ID, 83554","No_Match",NA,NA,NA,NA
980060,"PO BOX 247","YELLVILLE","AR",72687,NA,NA,60,"PO BOX 247, YELLVILLE, AR, 72687","No_Match",NA,NA,NA,NA
980061,"PO BOX 24708","OAKLAND","CA",94623,NA,NA,61,"PO BOX 24708, OAKLAND, CA, 94623","No_Match",NA,NA,NA,NA
980062,"PO BOX 2472","TRUCKEE","CA",96161,NA,NA,62,"PO BOX 2472, TRUCKEE, CA, 96161","No_Match",NA,NA,NA,NA
980063,"PO BOX 24722","TAMPA","FL",33623,NA,NA,63,"PO BOX 24722, TAMPA, FL, 33623","No_Match",NA,NA,NA,NA
980064,"PO BOX 2473","ATHENS","TX",75751,NA,NA,64,"PO BOX 2473, ATHENS, TX, 75751","No_Match",NA,NA,NA,NA
980065,"PO BOX 2473","CHINO HILLS","CA",91709,NA,NA,65,"PO BOX 2473, CHINO HILLS, CA, 91709","No_Match",NA,NA,NA,NA
980066,"PO BOX 2473","MARTINSBURG","WV",25402,NA,NA,66,"PO BOX 2473, MARTINSBURG, WV, 25402","No_Match",NA,NA,NA,NA
980067,"PO BOX 2474","PASCAGOULA","MS",39569,NA,NA,67,"PO BOX 2474, PASCAGOULA, MS, 39569","No_Match",NA,NA,NA,NA
980068,"PO BOX 2474","WHEATON","MD",20915,NA,NA,68,"PO BOX 2474, WHEATON, MD, 20915","No_Match",NA,NA,NA,NA
980069,"PO BOX 247412","COLUMBUS","OH",43224,NA,NA,69,"PO BOX 247412, COLUMBUS, OH, 43224","No_Match",NA,NA,NA,NA
980070,"PO BOX 24742","CHRISTIANSTED","VI",824,NA,NA,70,"PO BOX 24742, CHRISTIANSTED, VI, 824","No_Match",NA,NA,NA,NA
980071,"PO BOX 2475","FARMINGTON HILLS","MI",48333,NA,NA,71,"PO BOX 2475, FARMINGTON HILLS, MI, 48333","No_Match",NA,NA,NA,NA
980072,"PO BOX 2475","MONTEREY","CA",93942,NA,NA,72,"PO BOX 2475, MONTEREY, CA, 93942","No_Match",NA,NA,NA,NA
980073,"PO BOX 2475","WOODBRIDGE","VA",22195,NA,NA,73,"PO BOX 2475, WOODBRIDGE, VA, 22195","No_Match",NA,NA,NA,NA
980074,"PO BOX 2476","GRANBURY","TX",76048,NA,NA,74,"PO BOX 2476, GRANBURY, TX, 76048","No_Match",NA,NA,NA,NA
980075,"PO BOX 2477","RANCHO CUCAMONGA","CA",91729,NA,NA,75,"PO BOX 2477, RANCHO CUCAMONGA, CA, 91729","No_Match",NA,NA,NA,NA
980076,"PO BOX 2478","BLAIRSVILLE","GA",30514,NA,NA,76,"PO BOX 2478, BLAIRSVILLE, GA, 30514","No_Match",NA,NA,NA,NA
980077,"PO BOX 2478","BRIDGEVIEW","IL",60455,NA,NA,77,"PO BOX 2478, BRIDGEVIEW, IL, 60455","No_Match",NA,NA,NA,NA
980078,"PO BOX 2479","DAVIDSON","NC",28036,NA,NA,78,"PO BOX 2479, DAVIDSON, NC, 28036","No_Match",NA,NA,NA,NA
980079,"PO BOX 24795","RALEIGH","NC",27611,NA,NA,79,"PO BOX 24795, RALEIGH, NC, 27611","No_Match",NA,NA,NA,NA
980080,"PO BOX 248 ST BONAVENTURE","ST BONAVENTURE","NY",14778,NA,NA,80,"PO BOX 248 ST BONAVENTURE, ST BONAVENTURE, NY, 14778","No_Match",NA,NA,NA,NA
980081,"PO BOX 248","BADIN","NC",28009,NA,NA,81,"PO BOX 248, BADIN, NC, 28009","No_Match",NA,NA,NA,NA
980082,"PO BOX 248","BOMOSEEN","VT",5732,NA,NA,82,"PO BOX 248, BOMOSEEN, VT, 5732","No_Match",NA,NA,NA,NA
980083,"PO BOX 248","CANISTOTA","SD",57012,NA,NA,83,"PO BOX 248, CANISTOTA, SD, 57012","No_Match",NA,NA,NA,NA
980084,"PO BOX 248","CANISTOTA","SD",57030,NA,NA,84,"PO BOX 248, CANISTOTA, SD, 57030","No_Match",NA,NA,NA,NA
980085,"PO BOX 248","DIXON","NM",87527,NA,NA,85,"PO BOX 248, DIXON, NM, 87527","No_Match",NA,NA,NA,NA
980086,"PO BOX 248","DOUSMAN","WI",53118,NA,NA,86,"PO BOX 248, DOUSMAN, WI, 53118","No_Match",NA,NA,NA,NA
980087,"PO BOX 248","EDGEMONT","SD",57735,NA,NA,87,"PO BOX 248, EDGEMONT, SD, 57735","No_Match",NA,NA,NA,NA
980088,"PO BOX 248","EMMITSBURG","MD",21727,NA,NA,88,"PO BOX 248, EMMITSBURG, MD, 21727","No_Match",NA,NA,NA,NA
980089,"PO BOX 248","GREEN COVE SPRINGS","FL",32043,NA,NA,89,"PO BOX 248, GREEN COVE SPRINGS, FL, 32043","No_Match",NA,NA,NA,NA
980090,"PO BOX 248","LACROSSE","WA",99143,NA,NA,90,"PO BOX 248, LACROSSE, WA, 99143","No_Match",NA,NA,NA,NA
980091,"PO BOX 248","LAKE GENEVA","FL",32160,NA,NA,91,"PO BOX 248, LAKE GENEVA, FL, 32160","No_Match",NA,NA,NA,NA
980092,"PO BOX 248","MALTA","MT",59538,NA,NA,92,"PO BOX 248, MALTA, MT, 59538","No_Match",NA,NA,NA,NA
980093,"PO BOX 248","MARION","AR",72364,NA,NA,93,"PO BOX 248, MARION, AR, 72364","No_Match",NA,NA,NA,NA
980094,"PO BOX 248","MAYFLOWER","AR",72106,NA,NA,94,"PO BOX 248, MAYFLOWER, AR, 72106","No_Match",NA,NA,NA,NA
980095,"PO BOX 248","MELFA","VA",23410,NA,NA,95,"PO BOX 248, MELFA, VA, 23410","No_Match",NA,NA,NA,NA
980096,"PO BOX 248","MONTEZUMA","NM",87731,NA,NA,96,"PO BOX 248, MONTEZUMA, NM, 87731","No_Match",NA,NA,NA,NA
980097,"PO BOX 248","ORELAND","PA",19075,NA,NA,97,"PO BOX 248, ORELAND, PA, 19075","No_Match",NA,NA,NA,NA
980098,"PO BOX 248","RATON","NM",87740,NA,NA,98,"PO BOX 248, RATON, NM, 87740","No_Match",NA,NA,NA,NA
980099,"PO BOX 248","SALUDA","NC",28773,NA,NA,99,"PO BOX 248, SALUDA, NC, 28773","No_Match",NA,NA,NA,NA
980100,"PO BOX 248","SEASIDE","OR",97138,NA,NA,100,"PO BOX 248, SEASIDE, OR, 97138","No_Match",NA,NA,NA,NA
980101,"PO BOX 248","SELLS","AZ",85634,NA,NA,101,"PO BOX 248, SELLS, AZ, 85634","No_Match",NA,NA,NA,NA
980102,"PO BOX 248","SILVERTON","CO",81433,NA,NA,102,"PO BOX 248, SILVERTON, CO, 81433","No_Match",NA,NA,NA,NA
980103,"PO BOX 248","SOUTH EGREMONT","MA",1258,NA,NA,103,"PO BOX 248, SOUTH EGREMONT, MA, 1258","No_Match",NA,NA,NA,NA
980104,"PO BOX 248","SURRY","VA",23883,NA,NA,104,"PO BOX 248, SURRY, VA, 23883","No_Match",NA,NA,NA,NA
980105,"PO BOX 248","SYCAMORE","OH",44882,NA,NA,105,"PO BOX 248, SYCAMORE, OH, 44882","No_Match",NA,NA,NA,NA
980106,"PO BOX 248","TIETON","WA",98947,NA,NA,106,"PO BOX 248, TIETON, WA, 98947","No_Match",NA,NA,NA,NA
980107,"PO BOX 248","TOMBSTONE","AZ",85638,NA,NA,107,"PO BOX 248, TOMBSTONE, AZ, 85638","No_Match",NA,NA,NA,NA
980108,"PO BOX 2480","CORRALES","NM",87048,NA,NA,108,"PO BOX 2480, CORRALES, NM, 87048","No_Match",NA,NA,NA,NA
980109,"PO BOX 2480","HOWELL","MI",48844,NA,NA,109,"PO BOX 2480, HOWELL, MI, 48844","No_Match",NA,NA,NA,NA
980110,"PO BOX 24801","ROCHESTER","NY",14624,NA,NA,110,"PO BOX 24801, ROCHESTER, NY, 14624","No_Match",NA,NA,NA,NA
980111,"PO BOX 2481","BURLINGTON","NC",27216,NA,NA,111,"PO BOX 2481, BURLINGTON, NC, 27216","No_Match",NA,NA,NA,NA
980112,"PO BOX 248138","CLEVELAND","OH",44124,NA,NA,112,"PO BOX 248138, CLEVELAND, OH, 44124","No_Match",NA,NA,NA,NA
980113,"PO BOX 2482","FORT RILEY","KS",66442,NA,NA,113,"PO BOX 2482, FORT RILEY, KS, 66442","No_Match",NA,NA,NA,NA
980114,"PO BOX 2482","ORANGE","CA",92859,NA,NA,114,"PO BOX 2482, ORANGE, CA, 92859","No_Match",NA,NA,NA,NA
980115,"PO BOX 248215","COLUMBUS","OH",43224,NA,NA,115,"PO BOX 248215, COLUMBUS, OH, 43224","No_Match",NA,NA,NA,NA
980116,"PO BOX 248256","COLUMBUS","OH",43224,NA,NA,116,"PO BOX 248256, COLUMBUS, OH, 43224","No_Match",NA,NA,NA,NA
980117,"PO BOX 2483","ORANGE PARK","FL",84721,NA,NA,117,"PO BOX 2483, ORANGE PARK, FL, 84721","No_Match",NA,NA,NA,NA
980118,"PO BOX 2484","MANDEVILLE","LA",70470,NA,NA,118,"PO BOX 2484, MANDEVILLE, LA, 70470","No_Match",NA,NA,NA,NA
980119,"PO BOX 24842","WINSTON SALEM","NC",27114,NA,NA,119,"PO BOX 24842, WINSTON SALEM, NC, 27114","No_Match",NA,NA,NA,NA
980120,"PO BOX 2485","WEST COVINA","CA",91793,NA,NA,120,"PO BOX 2485, WEST COVINA, CA, 91793","No_Match",NA,NA,NA,NA
980121,"PO BOX 248574","COLUMBUS","OH",43224,NA,NA,121,"PO BOX 248574, COLUMBUS, OH, 43224","No_Match",NA,NA,NA,NA
980122,"PO BOX 2486","BISMARCK","ND",58502,NA,NA,122,"PO BOX 2486, BISMARCK, ND, 58502","No_Match",NA,NA,NA,NA
980123,"PO BOX 2486","LAUREL","MS",39442,NA,NA,123,"PO BOX 2486, LAUREL, MS, 39442","No_Match",NA,NA,NA,NA
980124,"PO BOX 2486","MAMMOTH LAKES","CA",93546,NA,NA,124,"PO BOX 2486, MAMMOTH LAKES, CA, 93546","No_Match",NA,NA,NA,NA
980125,"PO BOX 24885","FORT WORTH","TX",76124,NA,NA,125,"PO BOX 24885, FORT WORTH, TX, 76124","No_Match",NA,NA,NA,NA
980126,"PO BOX 2489","SAN MARCOS","TX",78667,NA,NA,126,"PO BOX 2489, SAN MARCOS, TX, 78667","No_Match",NA,NA,NA,NA
980127,"PO BOX 248977","CORAL GABLES","FL",33124,NA,NA,127,"PO BOX 248977, CORAL GABLES, FL, 33124","No_Match",NA,NA,NA,NA
980128,"PO BOX 249","BOISE CITY","OK",73933,NA,NA,128,"PO BOX 249, BOISE CITY, OK, 73933","No_Match",NA,NA,NA,NA
980129,"PO BOX 249","BROOKDALE","CA",95007,NA,NA,129,"PO BOX 249, BROOKDALE, CA, 95007","No_Match",NA,NA,NA,NA
980130,"PO BOX 249","CASSTOWN","OH",45312,NA,NA,130,"PO BOX 249, CASSTOWN, OH, 45312","No_Match",NA,NA,NA,NA
980131,"PO BOX 249","CENTEREACH","NY",11720,NA,NA,131,"PO BOX 249, CENTEREACH, NY, 11720","No_Match",NA,NA,NA,NA
980132,"PO BOX 249","CHELSEA","AL",35043,NA,NA,132,"PO BOX 249, CHELSEA, AL, 35043","No_Match",NA,NA,NA,NA
980133,"PO BOX 249","DRAKESBORO","KY",42337,NA,NA,133,"PO BOX 249, DRAKESBORO, KY, 42337","No_Match",NA,NA,NA,NA
980134,"PO BOX 249","ELIZABETHTON","TN",37644,NA,NA,134,"PO BOX 249, ELIZABETHTON, TN, 37644","No_Match",NA,NA,NA,NA
980135,"PO BOX 249","EWING","VA",24248,NA,NA,135,"PO BOX 249, EWING, VA, 24248","No_Match",NA,NA,NA,NA
980136,"PO BOX 249","GOODRICH","MI",48438,NA,NA,136,"PO BOX 249, GOODRICH, MI, 48438","No_Match",NA,NA,NA,NA
980137,"PO BOX 249","HAYES","VA",23072,NA,NA,137,"PO BOX 249, HAYES, VA, 23072","No_Match",NA,NA,NA,NA
980138,"PO BOX 249","HONOKAA","HI",96727,NA,NA,138,"PO BOX 249, HONOKAA, HI, 96727","No_Match",NA,NA,NA,NA
980139,"PO BOX 249","JOHN DAY","OR",97845,NA,NA,139,"PO BOX 249, JOHN DAY, OR, 97845","No_Match",NA,NA,NA,NA
980140,"PO BOX 249","JOHNSON CITY","TX",78636,NA,NA,140,"PO BOX 249, JOHNSON CITY, TX, 78636","No_Match",NA,NA,NA,NA
980141,"PO BOX 249","LAGUNA BEACH","CA",92652,NA,NA,141,"PO BOX 249, LAGUNA BEACH, CA, 92652","No_Match",NA,NA,NA,NA
980142,"PO BOX 249","LAURINBURG","NC",28353,NA,NA,142,"PO BOX 249, LAURINBURG, NC, 28353","No_Match",NA,NA,NA,NA
980143,"PO BOX 249","LILONGWE, MALAWI",NA,NA,NA,NA,143,"PO BOX 249, LILONGWE, MALAWI, , ","No_Match",NA,NA,NA,NA
980144,"PO BOX 249","PAULDEN","AZ",86334,NA,NA,144,"PO BOX 249, PAULDEN, AZ, 86334","No_Match",NA,NA,NA,NA
980145,"PO BOX 249","WAINSCOTT","NY",11975,NA,NA,145,"PO BOX 249, WAINSCOTT, NY, 11975","No_Match",NA,NA,NA,NA
980146,"PO BOX 2490","GLEN ALLEN","VA",23058,NA,NA,146,"PO BOX 2490, GLEN ALLEN, VA, 23058","No_Match",NA,NA,NA,NA
980147,"PO BOX 2494","LAURELL","MS",39442,NA,NA,147,"PO BOX 2494, LAURELL, MS, 39442","No_Match",NA,NA,NA,NA
980148,"PO BOX 2494","PALMER","AK",99645,NA,NA,148,"PO BOX 2494, PALMER, AK, 99645","No_Match",NA,NA,NA,NA
980149,"PO BOX 2495","BLUE RIDGE","GA",NA,NA,NA,149,"PO BOX 2495, BLUE RIDGE, GA, ","No_Match",NA,NA,NA,NA
980150,"PO BOX 24953","BROOKLYN","NY",11202,NA,NA,150,"PO BOX 24953, BROOKLYN, NY, 11202","No_Match",NA,NA,NA,NA
980151,"PO BOX 2497","CARMEL","CA",93921,NA,NA,151,"PO BOX 2497, CARMEL, CA, 93921","No_Match",NA,NA,NA,NA
980152,"PO BOX 2498","BROKEN ARROW","OK",74013,NA,NA,152,"PO BOX 2498, BROKEN ARROW, OK, 74013","No_Match",NA,NA,NA,NA
980153,"PO BOX 2498","DAPHNE","AL",36526,NA,NA,153,"PO BOX 2498, DAPHNE, AL, 36526","No_Match",NA,NA,NA,NA
980154,"PO BOX 2498","HONOLULU","HI",96804,NA,NA,154,"PO BOX 2498, HONOLULU, HI, 96804","No_Match",NA,NA,NA,NA
980155,"PO BOX 2498","SOUTH BEND","IN",46680,NA,NA,155,"PO BOX 2498, SOUTH BEND, IN, 46680","No_Match",NA,NA,NA,NA
980156,"PO BOX 25  754 FIR","UNION","OR",97883,NA,NA,156,"PO BOX 25  754 FIR, UNION, OR, 97883","No_Match",NA,NA,NA,NA
980157,"PO BOX 25","ANIMAS","NM",88020,NA,NA,157,"PO BOX 25, ANIMAS, NM, 88020","No_Match",NA,NA,NA,NA
980158,"PO BOX 25","ANMORE","WV",26323,NA,NA,158,"PO BOX 25, ANMORE, WV, 26323","No_Match",NA,NA,NA,NA
980159,"PO BOX 25","BAYFIELD","CO",81122,NA,NA,159,"PO BOX 25, BAYFIELD, CO, 81122","No_Match",NA,NA,NA,NA
980160,"PO BOX 25","BOGUE","KS",67625,NA,NA,160,"PO BOX 25, BOGUE, KS, 67625","No_Match",NA,NA,NA,NA
980161,"PO BOX 25","BRILLION","WI",54110,NA,NA,161,"PO BOX 25, BRILLION, WI, 54110","No_Match",NA,NA,NA,NA
980162,"PO BOX 25","CARDIFF","CA",92007,NA,NA,162,"PO BOX 25, CARDIFF, CA, 92007","No_Match",NA,NA,NA,NA
980163,"PO BOX 25","CHARDON","OH",44024,NA,NA,163,"PO BOX 25, CHARDON, OH, 44024","No_Match",NA,NA,NA,NA
980164,"PO BOX 25","COLGATE","WI",53017,NA,NA,164,"PO BOX 25, COLGATE, WI, 53017","No_Match",NA,NA,NA,NA
980165,"PO BOX 25","CORFU","NY",14036,NA,NA,165,"PO BOX 25, CORFU, NY, 14036","No_Match",NA,NA,NA,NA
980166,"PO BOX 25","DEPAUVILLE","NY",13632,NA,NA,166,"PO BOX 25, DEPAUVILLE, NY, 13632","No_Match",NA,NA,NA,NA
980167,"PO BOX 25","DILLIONGHAM","AK",99576,NA,NA,167,"PO BOX 25, DILLIONGHAM, AK, 99576","No_Match",NA,NA,NA,NA
980168,"PO BOX 25","HASKELL","OK",74436,NA,NA,168,"PO BOX 25, HASKELL, OK, 74436","No_Match",NA,NA,NA,NA
980169,"PO BOX 25","JACKSON","TN",38362,NA,NA,169,"PO BOX 25, JACKSON, TN, 38362","No_Match",NA,NA,NA,NA
980170,"PO BOX 25","MACON","GA",31202,NA,NA,170,"PO BOX 25, MACON, GA, 31202","No_Match",NA,NA,NA,NA
980171,"PO BOX 25","MCCUTCHENVILLE","OH",44844,NA,NA,171,"PO BOX 25, MCCUTCHENVILLE, OH, 44844","No_Match",NA,NA,NA,NA
980172,"PO BOX 25","MCHENRY","MD",21541,NA,NA,172,"PO BOX 25, MCHENRY, MD, 21541","No_Match",NA,NA,NA,NA
980173,"PO BOX 25","MONTGOMERYVILLE","PA",18936,NA,NA,173,"PO BOX 25, MONTGOMERYVILLE, PA, 18936","No_Match",NA,NA,NA,NA
980174,"PO BOX 25","MORRIS","NY",13808,NA,NA,174,"PO BOX 25, MORRIS, NY, 13808","No_Match",NA,NA,NA,NA
980175,"PO BOX 25","MOUNTAIN REST","SC",29664,NA,NA,175,"PO BOX 25, MOUNTAIN REST, SC, 29664","No_Match",NA,NA,NA,NA
980176,"PO BOX 25","MOYERS","OK",74557,NA,NA,176,"PO BOX 25, MOYERS, OK, 74557","No_Match",NA,NA,NA,NA
980177,"PO BOX 25","NEON","KY",41840,NA,NA,177,"PO BOX 25, NEON, KY, 41840","No_Match",NA,NA,NA,NA
980178,"PO BOX 25","OAKFIELD","TN",38362,NA,NA,178,"PO BOX 25, OAKFIELD, TN, 38362","No_Match",NA,NA,NA,NA
980179,"PO BOX 25","OAKWOOD","VA",24631,NA,NA,179,"PO BOX 25, OAKWOOD, VA, 24631","No_Match",NA,NA,NA,NA
980180,"PO BOX 25","PHILIPSBURG","MT",59858,NA,NA,180,"PO BOX 25, PHILIPSBURG, MT, 59858","No_Match",NA,NA,NA,NA
980181,"PO BOX 25","POINT","TX",75472,NA,NA,181,"PO BOX 25, POINT, TX, 75472","No_Match",NA,NA,NA,NA
980182,"PO BOX 25","ROSCOE","MT",59071,NA,NA,182,"PO BOX 25, ROSCOE, MT, 59071","No_Match",NA,NA,NA,NA
980183,"PO BOX 25","SAINT GEORGE","KS",66535,NA,NA,183,"PO BOX 25, SAINT GEORGE, KS, 66535","No_Match",NA,NA,NA,NA
980184,"PO BOX 25","SCOBEY","MT",59263,NA,NA,184,"PO BOX 25, SCOBEY, MT, 59263","No_Match",NA,NA,NA,NA
980185,"PO BOX 25","SHILOH","NJ",8353,NA,NA,185,"PO BOX 25, SHILOH, NJ, 8353","No_Match",NA,NA,NA,NA
980186,"PO BOX 25","SHLIOH","NJ",8353,NA,NA,186,"PO BOX 25, SHLIOH, NJ, 8353","No_Match",NA,NA,NA,NA
980187,"PO BOX 25","STRAFFORD","NH",3815,NA,NA,187,"PO BOX 25, STRAFFORD, NH, 3815","No_Match",NA,NA,NA,NA
980188,"PO BOX 25","SYLVAN BEACH","NY",13157,NA,NA,188,"PO BOX 25, SYLVAN BEACH, NY, 13157","No_Match",NA,NA,NA,NA
980189,"PO BOX 25","VERMILLION","SD",57069,NA,NA,189,"PO BOX 25, VERMILLION, SD, 57069","No_Match",NA,NA,NA,NA
980190,"PO BOX 25","WINTER PARK","CO",80482,NA,NA,190,"PO BOX 25, WINTER PARK, CO, 80482","No_Match",NA,NA,NA,NA
980191,"PO BOX 25","WOODBOURNE","NY",12788,NA,NA,191,"PO BOX 25, WOODBOURNE, NY, 12788","No_Match",NA,NA,NA,NA
980192,"PO BOX 25","WYALUSING","PA",18853,NA,NA,192,"PO BOX 25, WYALUSING, PA, 18853","No_Match",NA,NA,NA,NA
980193,"PO BOX 250 -554 RAMEY STATION","AGUADILLA","PR",604,NA,NA,193,"PO BOX 250 -554 RAMEY STATION, AGUADILLA, PR, 604","No_Match",NA,NA,NA,NA
980194,"PO BOX 250-286","BROOKLYN","NY",11225,NA,NA,194,"PO BOX 250-286, BROOKLYN, NY, 11225","No_Match",NA,NA,NA,NA
980195,"PO BOX 250","ASHTON","CA",20861,NA,NA,195,"PO BOX 250, ASHTON, CA, 20861","No_Match",NA,NA,NA,NA
980196,"PO BOX 250","AUBURN","NY",13021,NA,NA,196,"PO BOX 250, AUBURN, NY, 13021","No_Match",NA,NA,NA,NA
980197,"PO BOX 250","BEMIDJI","MN",56601,NA,NA,197,"PO BOX 250, BEMIDJI, MN, 56601","No_Match",NA,NA,NA,NA
980198,"PO BOX 250","BEVERLY","WV",26253,NA,NA,198,"PO BOX 250, BEVERLY, WV, 26253","No_Match",NA,NA,NA,NA
980199,"PO BOX 250","BLOOMINGTON","TX",77951,NA,NA,199,"PO BOX 250, BLOOMINGTON, TX, 77951","No_Match",NA,NA,NA,NA
980200,"PO BOX 250","CLAYTON","OK",74536,NA,NA,200,"PO BOX 250, CLAYTON, OK, 74536","No_Match",NA,NA,NA,NA
980201,"PO BOX 250","DALLAS CENTER","IA",50063,NA,NA,201,"PO BOX 250, DALLAS CENTER, IA, 50063","No_Match",NA,NA,NA,NA
980202,"PO BOX 250","DELBARTON","WV",25670,NA,NA,202,"PO BOX 250, DELBARTON, WV, 25670","No_Match",NA,NA,NA,NA
980203,"PO BOX 250","GRANT CITY","MO",64456,NA,NA,203,"PO BOX 250, GRANT CITY, MO, 64456","No_Match",NA,NA,NA,NA
980204,"PO BOX 250","HAWTHORN","PA",16230,NA,NA,204,"PO BOX 250, HAWTHORN, PA, 16230","No_Match",NA,NA,NA,NA
980205,"PO BOX 250","HOLLAND","IN",47541,NA,NA,205,"PO BOX 250, HOLLAND, IN, 47541","No_Match",NA,NA,NA,NA
980206,"PO BOX 250","KUALAPUU","HI",96757,NA,NA,206,"PO BOX 250, KUALAPUU, HI, 96757","No_Match",NA,NA,NA,NA
980207,"PO BOX 250","MAHNOMEN","MN",56557,NA,NA,207,"PO BOX 250, MAHNOMEN, MN, 56557","No_Match",NA,NA,NA,NA
980208,"PO BOX 250","MILFORD","NY",13807,NA,NA,208,"PO BOX 250, MILFORD, NY, 13807","No_Match",NA,NA,NA,NA
980209,"PO BOX 250","ORANGEBURG","SC",29115,NA,NA,209,"PO BOX 250, ORANGEBURG, SC, 29115","No_Match",NA,NA,NA,NA
980210,"PO BOX 250","ROYSE CITY","TX",75189,NA,NA,210,"PO BOX 250, ROYSE CITY, TX, 75189","No_Match",NA,NA,NA,NA
980211,"PO BOX 250","SEAVIEW","WA",98644,NA,NA,211,"PO BOX 250, SEAVIEW, WA, 98644","No_Match",NA,NA,NA,NA
980212,"PO BOX 250","SIDNEY","MT",59270,NA,NA,212,"PO BOX 250, SIDNEY, MT, 59270","No_Match",NA,NA,NA,NA
980213,"PO BOX 250","THERMOPOLIS","WY",82443,NA,NA,213,"PO BOX 250, THERMOPOLIS, WY, 82443","No_Match",NA,NA,NA,NA
980214,"PO BOX 250","TOMBSTONE","AZ",85638,NA,NA,214,"PO BOX 250, TOMBSTONE, AZ, 85638","No_Match",NA,NA,NA,NA
980215,"PO BOX 250","VERNON","TX",76385,NA,NA,215,"PO BOX 250, VERNON, TX, 76385","No_Match",NA,NA,NA,NA
980216,"PO BOX 250","WATFORD CITY","ND",58854,NA,NA,216,"PO BOX 250, WATFORD CITY, ND, 58854","No_Match",NA,NA,NA,NA
980217,"PO BOX 2500","CLARKESVILLE","GA",30523,NA,NA,217,"PO BOX 2500, CLARKESVILLE, GA, 30523","No_Match",NA,NA,NA,NA
980218,"PO BOX 2500","MENLO PARK","CA",94026,NA,NA,218,"PO BOX 2500, MENLO PARK, CA, 94026","No_Match",NA,NA,NA,NA
980219,"PO BOX 250014","WEST BLOOMFIELD","MI",48325,NA,NA,219,"PO BOX 250014, WEST BLOOMFIELD, MI, 48325","No_Match",NA,NA,NA,NA
980220,"PO BOX 250021","ATLANTA","GA",30325,NA,NA,220,"PO BOX 250021, ATLANTA, GA, 30325","No_Match",NA,NA,NA,NA
980221,"PO BOX 250028","FRANKLIN","MI",48025,NA,NA,221,"PO BOX 250028, FRANKLIN, MI, 48025","No_Match",NA,NA,NA,NA
980222,"PO BOX 250037","LITTLE ROCK","AR",72205,NA,NA,222,"PO BOX 250037, LITTLE ROCK, AR, 72205","No_Match",NA,NA,NA,NA
980223,"PO BOX 250091","WEST BLOOMFIELD","MI",48325,NA,NA,223,"PO BOX 250091, WEST BLOOMFIELD, MI, 48325","No_Match",NA,NA,NA,NA
980224,"PO BOX 250096","LITTLE ROCK","AR",72225,NA,NA,224,"PO BOX 250096, LITTLE ROCK, AR, 72225","No_Match",NA,NA,NA,NA
980225,"PO BOX 2501 153 CENTRAL AVE","WESTFIELD","NJ",7090,40.6513811250001,-74.346724448,225,"PO BOX 2501 153 CENTRAL AVE, WESTFIELD, NJ, 7090","Match","Exact","153 CENTRAL AVE, WESTFIELD, NJ, 07090",60568311,"L"
980226,"PO BOX 2501","BALTIMORE","MD",21215,NA,NA,226,"PO BOX 2501, BALTIMORE, MD, 21215","No_Match",NA,NA,NA,NA
980227,"PO BOX 2501","CONWAY","SC",29528,NA,NA,227,"PO BOX 2501, CONWAY, SC, 29528","No_Match",NA,NA,NA,NA
980228,"PO BOX 2501","KALISPELL","MT",59903,NA,NA,228,"PO BOX 2501, KALISPELL, MT, 59903","No_Match",NA,NA,NA,NA
980229,"PO BOX 2501","STANWOOD","WA",98282,NA,NA,229,"PO BOX 2501, STANWOOD, WA, 98282","No_Match",NA,NA,NA,NA
980230,"PO BOX 25011","CHARLOTTE","NC",28229,NA,NA,230,"PO BOX 25011, CHARLOTTE, NC, 28229","No_Match",NA,NA,NA,NA
980231,"PO BOX 25012","BALTIMORE","MD",21229,NA,NA,231,"PO BOX 25012, BALTIMORE, MD, 21229","No_Match",NA,NA,NA,NA
980232,"PO BOX 25012","SAN MATEO","CA",94402,NA,NA,232,"PO BOX 25012, SAN MATEO, CA, 94402","No_Match",NA,NA,NA,NA
980233,"PO BOX 25013","FEDERAL WAY","WA",98093,NA,NA,233,"PO BOX 25013, FEDERAL WAY, WA, 98093","No_Match",NA,NA,NA,NA
980234,"PO BOX 25013","LAKELAND","FL",33802,NA,NA,234,"PO BOX 25013, LAKELAND, FL, 33802","No_Match",NA,NA,NA,NA
980235,"PO BOX 25014","SCOTT AFB","IL",62225,NA,NA,235,"PO BOX 25014, SCOTT AFB, IL, 62225","No_Match",NA,NA,NA,NA
980236,"PO BOX 250179","BROOKLYN","NY",11225,NA,NA,236,"PO BOX 250179, BROOKLYN, NY, 11225","No_Match",NA,NA,NA,NA
980237,"PO BOX 2502","SALT LAKE CITY","UT",84110,NA,NA,237,"PO BOX 2502, SALT LAKE CITY, UT, 84110","No_Match",NA,NA,NA,NA
980238,"PO BOX 2502","STOW","OH",44224,NA,NA,238,"PO BOX 2502, STOW, OH, 44224","No_Match",NA,NA,NA,NA
980239,"PO BOX 250311","FRANKLIN","MI",48025,NA,NA,239,"PO BOX 250311, FRANKLIN, MI, 48025","No_Match",NA,NA,NA,NA
980240,"PO BOX 250335","PLANO","TX",75025,NA,NA,240,"PO BOX 250335, PLANO, TX, 75025","No_Match",NA,NA,NA,NA
980241,"PO BOX 2504","INGLEWOOD","CA",90305,NA,NA,241,"PO BOX 2504, INGLEWOOD, CA, 90305","No_Match",NA,NA,NA,NA
980242,"PO BOX 2504","KEALAKEKUA","HI",96750,NA,NA,242,"PO BOX 2504, KEALAKEKUA, HI, 96750","No_Match",NA,NA,NA,NA
980243,"PO BOX 2504","SUN CITY","CA",92586,NA,NA,243,"PO BOX 2504, SUN CITY, CA, 92586","No_Match",NA,NA,NA,NA
980244,"PO BOX 2504","TUCKER","GA",30085,NA,NA,244,"PO BOX 2504, TUCKER, GA, 30085","No_Match",NA,NA,NA,NA
980245,"PO BOX 2504","WLIMINGTON","NC",28402,NA,NA,245,"PO BOX 2504, WLIMINGTON, NC, 28402","No_Match",NA,NA,NA,NA
980246,"PO BOX 250455","PLANO","TX",75025,NA,NA,246,"PO BOX 250455, PLANO, TX, 75025","No_Match",NA,NA,NA,NA
980247,"PO BOX 250483","PLANO","TX",75025,NA,NA,247,"PO BOX 250483, PLANO, TX, 75025","No_Match",NA,NA,NA,NA
980248,"PO BOX 250485","PLANO","TX",75025,NA,NA,248,"PO BOX 250485, PLANO, TX, 75025","No_Match",NA,NA,NA,NA
980249,"PO BOX 2505","CODY","WY",82414,NA,NA,249,"PO BOX 2505, CODY, WY, 82414","No_Match",NA,NA,NA,NA
980250,"PO BOX 2505","EDINBURG","TX",78540,NA,NA,250,"PO BOX 2505, EDINBURG, TX, 78540","No_Match",NA,NA,NA,NA
980251,"PO BOX 2505","FRISCO","CO",80443,NA,NA,251,"PO BOX 2505, FRISCO, CO, 80443","No_Match",NA,NA,NA,NA
980252,"PO BOX 2505","LONDON","KY",40743,NA,NA,252,"PO BOX 2505, LONDON, KY, 40743","No_Match",NA,NA,NA,NA
980253,"PO BOX 2505","REIDSVILLE","GA",30453,NA,NA,253,"PO BOX 2505, REIDSVILLE, GA, 30453","No_Match",NA,NA,NA,NA
980254,"PO BOX 25051","PORTLAND","OR",97298,NA,NA,254,"PO BOX 25051, PORTLAND, OR, 97298","No_Match",NA,NA,NA,NA
980255,"PO BOX 25053","DURHAM","NC",27702,NA,NA,255,"PO BOX 25053, DURHAM, NC, 27702","No_Match",NA,NA,NA,NA
980256,"PO BOX 2506","HELENDALE","CA",92342,NA,NA,256,"PO BOX 2506, HELENDALE, CA, 92342","No_Match",NA,NA,NA,NA
980257,"PO BOX 2506","VENTURA","CA",93001,NA,NA,257,"PO BOX 2506, VENTURA, CA, 93001","No_Match",NA,NA,NA,NA
980258,"PO BOX 250611","ATLANTA","GA",30325,NA,NA,258,"PO BOX 250611, ATLANTA, GA, 30325","No_Match",NA,NA,NA,NA
980259,"PO BOX 250666","MILWAUKEE","WI",53225,NA,NA,259,"PO BOX 250666, MILWAUKEE, WI, 53225","No_Match",NA,NA,NA,NA
980260,"PO BOX 250688","BROOKLYN","NY",11225,NA,NA,260,"PO BOX 250688, BROOKLYN, NY, 11225","No_Match",NA,NA,NA,NA
980261,"PO BOX 2507","MERCED","CA",95344,NA,NA,261,"PO BOX 2507, MERCED, CA, 95344","No_Match",NA,NA,NA,NA
980262,"PO BOX 2507","PETALUMA","CA",94953,NA,NA,262,"PO BOX 2507, PETALUMA, CA, 94953","No_Match",NA,NA,NA,NA
980263,"PO BOX 2507","SEBASTOPOL","CA",95472,NA,NA,263,"PO BOX 2507, SEBASTOPOL, CA, 95472","No_Match",NA,NA,NA,NA
980264,"PO BOX 25071","CHRISTIANSTED","VI",824,NA,NA,264,"PO BOX 25071, CHRISTIANSTED, VI, 824","No_Match",NA,NA,NA,NA
980265,"PO BOX 250722","NEW YORK","NY",10025,NA,NA,265,"PO BOX 250722, NEW YORK, NY, 10025","No_Match",NA,NA,NA,NA
980266,"PO BOX 25073","SAN BERNARDINO","CA",92406,NA,NA,266,"PO BOX 25073, SAN BERNARDINO, CA, 92406","No_Match",NA,NA,NA,NA
980267,"PO BOX 250747","PLANO","TX",75025,NA,NA,267,"PO BOX 250747, PLANO, TX, 75025","No_Match",NA,NA,NA,NA
980268,"PO BOX 250781","PLANO","TX",75025,NA,NA,268,"PO BOX 250781, PLANO, TX, 75025","No_Match",NA,NA,NA,NA
980269,"PO BOX 2508","POTSDAM","OH",45361,NA,NA,269,"PO BOX 2508, POTSDAM, OH, 45361","No_Match",NA,NA,NA,NA
980270,"PO BOX 25080","SCOTT AIR FORCE BASE","IL",62225,NA,NA,270,"PO BOX 25080, SCOTT AIR FORCE BASE, IL, 62225","No_Match",NA,NA,NA,NA
980271,"PO BOX 25086","HONOLULU","HI",96825,NA,NA,271,"PO BOX 25086, HONOLULU, HI, 96825","No_Match",NA,NA,NA,NA
980272,"PO BOX 250914","LITTLE ROCK","AR",72225,NA,NA,272,"PO BOX 250914, LITTLE ROCK, AR, 72225","No_Match",NA,NA,NA,NA
980273,"PO BOX 250953","LITTLE ROCK","AR",72225,NA,NA,273,"PO BOX 250953, LITTLE ROCK, AR, 72225","No_Match",NA,NA,NA,NA
980274,"PO BOX 251","CAMPTONVILLE","CA",95922,NA,NA,274,"PO BOX 251, CAMPTONVILLE, CA, 95922","No_Match",NA,NA,NA,NA
980275,"PO BOX 251","CAPE VINCENT","NY",13618,NA,NA,275,"PO BOX 251, CAPE VINCENT, NY, 13618","No_Match",NA,NA,NA,NA
980276,"PO BOX 251","CATLETT","VA",20119,NA,NA,276,"PO BOX 251, CATLETT, VA, 20119","No_Match",NA,NA,NA,NA
980277,"PO BOX 251","CHELSEA","VT",5038,NA,NA,277,"PO BOX 251, CHELSEA, VT, 5038","No_Match",NA,NA,NA,NA
980278,"PO BOX 251","DILLINGHAM","AK",99576,NA,NA,278,"PO BOX 251, DILLINGHAM, AK, 99576","No_Match",NA,NA,NA,NA
980279,"PO BOX 251","EL GRANADA","CA",94018,NA,NA,279,"PO BOX 251, EL GRANADA, CA, 94018","No_Match",NA,NA,NA,NA
980280,"PO BOX 251","ENFIELD","NC",27823,NA,NA,280,"PO BOX 251, ENFIELD, NC, 27823","No_Match",NA,NA,NA,NA
980281,"PO BOX 251","FERNWOOD","ID",83830,NA,NA,281,"PO BOX 251, FERNWOOD, ID, 83830","No_Match",NA,NA,NA,NA
980282,"PO BOX 251","FOND DU LAC","WI",54936,NA,NA,282,"PO BOX 251, FOND DU LAC, WI, 54936","No_Match",NA,NA,NA,NA
980283,"PO BOX 251","GROVELAND","IL",61535,NA,NA,283,"PO BOX 251, GROVELAND, IL, 61535","No_Match",NA,NA,NA,NA
980284,"PO BOX 251","HENEFER","UT",84033,NA,NA,284,"PO BOX 251, HENEFER, UT, 84033","No_Match",NA,NA,NA,NA
980285,"PO BOX 251","HIAWASSEE","GA",30546,NA,NA,285,"PO BOX 251, HIAWASSEE, GA, 30546","No_Match",NA,NA,NA,NA
980286,"PO BOX 251","JUSTIN","TX",76247,NA,NA,286,"PO BOX 251, JUSTIN, TX, 76247","No_Match",NA,NA,NA,NA
980287,"PO BOX 251","KINGSTON","ID",83839,NA,NA,287,"PO BOX 251, KINGSTON, ID, 83839","No_Match",NA,NA,NA,NA
980288,"PO BOX 251","LA VETA","CO",81055,NA,NA,288,"PO BOX 251, LA VETA, CO, 81055","No_Match",NA,NA,NA,NA
980289,"PO BOX 251","OOLOGAH","OK",74053,NA,NA,289,"PO BOX 251, OOLOGAH, OK, 74053","No_Match",NA,NA,NA,NA
980290,"PO BOX 251","OURAY","CO",81427,NA,NA,290,"PO BOX 251, OURAY, CO, 81427","No_Match",NA,NA,NA,NA
980291,"PO BOX 251","PARSONS","KS",67357,NA,NA,291,"PO BOX 251, PARSONS, KS, 67357","No_Match",NA,NA,NA,NA
980292,"PO BOX 251","PEARSALL","TX",78061,NA,NA,292,"PO BOX 251, PEARSALL, TX, 78061","No_Match",NA,NA,NA,NA
980293,"PO BOX 251","PECOS","TX",79772,NA,NA,293,"PO BOX 251, PECOS, TX, 79772","No_Match",NA,NA,NA,NA
980294,"PO BOX 251","RICHLAND CENTER","WI",53581,NA,NA,294,"PO BOX 251, RICHLAND CENTER, WI, 53581","No_Match",NA,NA,NA,NA
980295,"PO BOX 251","SILVER LAKE","NY",14549,NA,NA,295,"PO BOX 251, SILVER LAKE, NY, 14549","No_Match",NA,NA,NA,NA
980296,"PO BOX 251","STOCKDALE","TX",78160,NA,NA,296,"PO BOX 251, STOCKDALE, TX, 78160","No_Match",NA,NA,NA,NA
980297,"PO BOX 251","TOLEDO","IA",52342,NA,NA,297,"PO BOX 251, TOLEDO, IA, 52342","No_Match",NA,NA,NA,NA
980298,"PO BOX 251","VALLEY","WA",99181,NA,NA,298,"PO BOX 251, VALLEY, WA, 99181","No_Match",NA,NA,NA,NA
980299,"PO BOX 251","WHITE SALMON","WA",98672,NA,NA,299,"PO BOX 251, WHITE SALMON, WA, 98672","No_Match",NA,NA,NA,NA
980300,"PO BOX 251","WORTHINGTON","WV",26591,NA,NA,300,"PO BOX 251, WORTHINGTON, WV, 26591","No_Match",NA,NA,NA,NA
980301,"PO BOX 251","WRENTHAM","MA",2093,NA,NA,301,"PO BOX 251, WRENTHAM, MA, 2093","No_Match",NA,NA,NA,NA
980302,"PO BOX 251","YONKERS","NY",10704,NA,NA,302,"PO BOX 251, YONKERS, NY, 10704","No_Match",NA,NA,NA,NA
980303,"PO BOX 25101","ST CROIX","VI",824,NA,NA,303,"PO BOX 25101, ST CROIX, VI, 824","No_Match",NA,NA,NA,NA
980304,"PO BOX 2511","FORT WORTH","TX",76097,NA,NA,304,"PO BOX 2511, FORT WORTH, TX, 76097","No_Match",NA,NA,NA,NA
980305,"PO BOX 2511","FRISCO","TX",75034,NA,NA,305,"PO BOX 2511, FRISCO, TX, 75034","No_Match",NA,NA,NA,NA
980306,"PO BOX 251141","WOODBURY","MN",55125,NA,NA,306,"PO BOX 251141, WOODBURY, MN, 55125","No_Match",NA,NA,NA,NA
980307,"PO BOX 2512","CORPUS CHRISTI","TX",78403,NA,NA,307,"PO BOX 2512, CORPUS CHRISTI, TX, 78403","No_Match",NA,NA,NA,NA
980308,"PO BOX 2512","HOMER","AK",99603,NA,NA,308,"PO BOX 2512, HOMER, AK, 99603","No_Match",NA,NA,NA,NA
980309,"PO BOX 25138","DURHAM","NC",27702,NA,NA,309,"PO BOX 25138, DURHAM, NC, 27702","No_Match",NA,NA,NA,NA
980310,"PO BOX 2514","BUFFALO","NY",14240,NA,NA,310,"PO BOX 2514, BUFFALO, NY, 14240","No_Match",NA,NA,NA,NA
980311,"PO BOX 25143","ST. LOUIS","MO",63125,NA,NA,311,"PO BOX 25143, ST. LOUIS, MO, 63125","No_Match",NA,NA,NA,NA
980312,"PO BOX 2515","ORANGEBURG","SC",29116,NA,NA,312,"PO BOX 2515, ORANGEBURG, SC, 29116","No_Match",NA,NA,NA,NA
980313,"PO BOX 25153","RICHMOND","VA",23260,NA,NA,313,"PO BOX 25153, RICHMOND, VA, 23260","No_Match",NA,NA,NA,NA
980314,"PO BOX 2516","MOUNTAIN VIEW","AR",72560,NA,NA,314,"PO BOX 2516, MOUNTAIN VIEW, AR, 72560","No_Match",NA,NA,NA,NA
980315,"PO BOX 2516","VASHON","WA",98070,NA,NA,315,"PO BOX 2516, VASHON, WA, 98070","No_Match",NA,NA,NA,NA
980316,"PO BOX 25165","DENVER","CO",80225,NA,NA,316,"PO BOX 25165, DENVER, CO, 80225","No_Match",NA,NA,NA,NA
980317,"PO BOX 2517","CINNAMINSON","NJ",8077,NA,NA,317,"PO BOX 2517, CINNAMINSON, NJ, 8077","No_Match",NA,NA,NA,NA
980318,"PO BOX 2517","PALATKA","FL",32178,NA,NA,318,"PO BOX 2517, PALATKA, FL, 32178","No_Match",NA,NA,NA,NA
980319,"PO BOX 25172","FORT WORTH","TX",76124,NA,NA,319,"PO BOX 25172, FORT WORTH, TX, 76124","No_Match",NA,NA,NA,NA
980320,"PO BOX 25179","SAN MATEO","CA",94402,NA,NA,320,"PO BOX 25179, SAN MATEO, CA, 94402","No_Match",NA,NA,NA,NA
980321,"PO BOX 2518","CAVE JUNCTION","OR",97523,NA,NA,321,"PO BOX 2518, CAVE JUNCTION, OR, 97523","No_Match",NA,NA,NA,NA
980322,"PO BOX 2518","PLAINFIELD","NJ",7060,NA,NA,322,"PO BOX 2518, PLAINFIELD, NJ, 7060","No_Match",NA,NA,NA,NA
980323,"PO BOX 2519","SURF CITY","NC",28445,NA,NA,323,"PO BOX 2519, SURF CITY, NC, 28445","No_Match",NA,NA,NA,NA
980324,"PO BOX 251903","LITTLE ROCK","AR",72225,NA,NA,324,"PO BOX 251903, LITTLE ROCK, AR, 72225","No_Match",NA,NA,NA,NA
980325,"PO BOX 251912","LOS ANGELES","CA",90025,NA,NA,325,"PO BOX 251912, LOS ANGELES, CA, 90025","No_Match",NA,NA,NA,NA
980326,"PO BOX 251956","LITTLE ROCK","AR",72225,NA,NA,326,"PO BOX 251956, LITTLE ROCK, AR, 72225","No_Match",NA,NA,NA,NA
980327,"PO BOX 252","ANGLETON","TX",77516,NA,NA,327,"PO BOX 252, ANGLETON, TX, 77516","No_Match",NA,NA,NA,NA
980328,"PO BOX 252","ARTESIA","NM",88211,NA,NA,328,"PO BOX 252, ARTESIA, NM, 88211","No_Match",NA,NA,NA,NA
980329,"PO BOX 252","AUBURN","GA",30011,NA,NA,329,"PO BOX 252, AUBURN, GA, 30011","No_Match",NA,NA,NA,NA
980330,"PO BOX 252","BELMONT","OH",43718,NA,NA,330,"PO BOX 252, BELMONT, OH, 43718","No_Match",NA,NA,NA,NA
980331,"PO BOX 252","BUTTERFIELD","MN",56120,NA,NA,331,"PO BOX 252, BUTTERFIELD, MN, 56120","No_Match",NA,NA,NA,NA
980332,"PO BOX 252","CLYDE","TX",79510,NA,NA,332,"PO BOX 252, CLYDE, TX, 79510","No_Match",NA,NA,NA,NA
980333,"PO BOX 252","COLLBRAN","CO",81624,NA,NA,333,"PO BOX 252, COLLBRAN, CO, 81624","No_Match",NA,NA,NA,NA
980334,"PO BOX 252","DES ARC","AR",72040,NA,NA,334,"PO BOX 252, DES ARC, AR, 72040","No_Match",NA,NA,NA,NA
980335,"PO BOX 252","ELKADER","IA",52043,NA,NA,335,"PO BOX 252, ELKADER, IA, 52043","No_Match",NA,NA,NA,NA
980336,"PO BOX 252","EUSTACE","TX",75124,NA,NA,336,"PO BOX 252, EUSTACE, TX, 75124","No_Match",NA,NA,NA,NA
980337,"PO BOX 252","FREELAND","MI",48623,NA,NA,337,"PO BOX 252, FREELAND, MI, 48623","No_Match",NA,NA,NA,NA
980338,"PO BOX 252","GYPSUM","CO",81637,NA,NA,338,"PO BOX 252, GYPSUM, CO, 81637","No_Match",NA,NA,NA,NA
980339,"PO BOX 252","HUDSONVILLE","MI",49426,NA,NA,339,"PO BOX 252, HUDSONVILLE, MI, 49426","No_Match",NA,NA,NA,NA
980340,"PO BOX 252","IDAHO CITY","ID",83631,NA,NA,340,"PO BOX 252, IDAHO CITY, ID, 83631","No_Match",NA,NA,NA,NA
980341,"PO BOX 252","KURTISTOWN","HI",96760,NA,NA,341,"PO BOX 252, KURTISTOWN, HI, 96760","No_Match",NA,NA,NA,NA
980342,"PO BOX 252","LAFAYETTE","OR",97127,NA,NA,342,"PO BOX 252, LAFAYETTE, OR, 97127","No_Match",NA,NA,NA,NA
980343,"PO BOX 252","LENA","MS",39094,NA,NA,343,"PO BOX 252, LENA, MS, 39094","No_Match",NA,NA,NA,NA
980344,"PO BOX 252","MASCOTTE","FL",34753,NA,NA,344,"PO BOX 252, MASCOTTE, FL, 34753","No_Match",NA,NA,NA,NA
980345,"PO BOX 252","MASSILLON","OH",44646,NA,NA,345,"PO BOX 252, MASSILLON, OH, 44646","No_Match",NA,NA,NA,NA
980346,"PO BOX 252","MATLACHA","FL",33993,NA,NA,346,"PO BOX 252, MATLACHA, FL, 33993","No_Match",NA,NA,NA,NA
980347,"PO BOX 252","MELROSE","FL",32666,NA,NA,347,"PO BOX 252, MELROSE, FL, 32666","No_Match",NA,NA,NA,NA
980348,"PO BOX 252","MONROE CITY","IN",47557,NA,NA,348,"PO BOX 252, MONROE CITY, IN, 47557","No_Match",NA,NA,NA,NA
980349,"PO BOX 252","MONTGOMERY","NY",12549,NA,NA,349,"PO BOX 252, MONTGOMERY, NY, 12549","No_Match",NA,NA,NA,NA
980350,"PO BOX 252","MOOREFIELD","WV",26836,NA,NA,350,"PO BOX 252, MOOREFIELD, WV, 26836","No_Match",NA,NA,NA,NA
980351,"PO BOX 252","NEW STRAITSVILLE","OH",43766,NA,NA,351,"PO BOX 252, NEW STRAITSVILLE, OH, 43766","No_Match",NA,NA,NA,NA
980352,"PO BOX 252","PAGO PAGO","AS",96799,NA,NA,352,"PO BOX 252, PAGO PAGO, AS, 96799","No_Match",NA,NA,NA,NA
980353,"PO BOX 252","PHILOMONT","VA",20131,NA,NA,353,"PO BOX 252, PHILOMONT, VA, 20131","No_Match",NA,NA,NA,NA
980354,"PO BOX 252","POTTSVILLE","AR",72858,NA,NA,354,"PO BOX 252, POTTSVILLE, AR, 72858","No_Match",NA,NA,NA,NA
980355,"PO BOX 252","ST JOHN","VI",831,NA,NA,355,"PO BOX 252, ST JOHN, VI, 831","No_Match",NA,NA,NA,NA
980356,"PO BOX 252","TREMONTON","UT",84337,NA,NA,356,"PO BOX 252, TREMONTON, UT, 84337","No_Match",NA,NA,NA,NA
980357,"PO BOX 252","WILLOW CREEK","MT",59760,NA,NA,357,"PO BOX 252, WILLOW CREEK, MT, 59760","No_Match",NA,NA,NA,NA
980358,"PO BOX 252","WOLFEBORO","NH",3894,NA,NA,358,"PO BOX 252, WOLFEBORO, NH, 3894","No_Match",NA,NA,NA,NA
980359,"PO BOX 25203","CHARLOTTE","NC",28229,NA,NA,359,"PO BOX 25203, CHARLOTTE, NC, 28229","No_Match",NA,NA,NA,NA
980360,"PO BOX 2521","BENTONVILLE","AR",72712,NA,NA,360,"PO BOX 2521, BENTONVILLE, AR, 72712","No_Match",NA,NA,NA,NA
980361,"PO BOX 2521","TWIN FALLS","ID",83303,NA,NA,361,"PO BOX 2521, TWIN FALLS, ID, 83303","No_Match",NA,NA,NA,NA
980362,"PO BOX 25211","FRESNO","CA",93729,NA,NA,362,"PO BOX 25211, FRESNO, CA, 93729","No_Match",NA,NA,NA,NA
980363,"PO BOX 25213","COLUMBIA","SC",29224,NA,NA,363,"PO BOX 25213, COLUMBIA, SC, 29224","No_Match",NA,NA,NA,NA
980364,"PO BOX 252176","LOS ANGELES","CA",90025,NA,NA,364,"PO BOX 252176, LOS ANGELES, CA, 90025","No_Match",NA,NA,NA,NA
980365,"PO BOX 2522","FORT LAUDERDALE","FL",33301,NA,NA,365,"PO BOX 2522, FORT LAUDERDALE, FL, 33301","No_Match",NA,NA,NA,NA
980366,"PO BOX 2522","FREEPORT","TX",77542,NA,NA,366,"PO BOX 2522, FREEPORT, TX, 77542","No_Match",NA,NA,NA,NA
980367,"PO BOX 2524","SANDPOINT","ID",83864,NA,NA,367,"PO BOX 2524, SANDPOINT, ID, 83864","No_Match",NA,NA,NA,NA
980368,"PO BOX 25240","SAN MATEO","CA",94402,NA,NA,368,"PO BOX 25240, SAN MATEO, CA, 94402","No_Match",NA,NA,NA,NA
980369,"PO BOX 2525","BURLINGTON","MA",1888,NA,NA,369,"PO BOX 2525, BURLINGTON, MA, 1888","No_Match",NA,NA,NA,NA
980370,"PO BOX 2525","THOMPSON FALLS","MT",59873,NA,NA,370,"PO BOX 2525, THOMPSON FALLS, MT, 59873","No_Match",NA,NA,NA,NA
980371,"PO BOX 2525","WOBURN","MA",1864,NA,NA,371,"PO BOX 2525, WOBURN, MA, 1864","No_Match",NA,NA,NA,NA
980372,"PO BOX 2525","WOBURN","MA",1888,NA,NA,372,"PO BOX 2525, WOBURN, MA, 1888","No_Match",NA,NA,NA,NA
980373,"PO BOX 2526","CAVE JUNCTION","OR",97523,NA,NA,373,"PO BOX 2526, CAVE JUNCTION, OR, 97523","No_Match",NA,NA,NA,NA
980374,"PO BOX 2526","MCKINNEY","TX",75070,NA,NA,374,"PO BOX 2526, MCKINNEY, TX, 75070","No_Match",NA,NA,NA,NA
980375,"PO BOX 25260","PORTLAND","OR",97298,NA,NA,375,"PO BOX 25260, PORTLAND, OR, 97298","No_Match",NA,NA,NA,NA
980376,"PO BOX 2528","BUSHNELL","FL",33513,NA,NA,376,"PO BOX 2528, BUSHNELL, FL, 33513","No_Match",NA,NA,NA,NA
980377,"PO BOX 25286","NAIROBI","NY",0,NA,NA,377,"PO BOX 25286, NAIROBI, NY, 0","No_Match",NA,NA,NA,NA
980378,"PO BOX 252863","WEST BLOOMFIELD","MI",48322,NA,NA,378,"PO BOX 252863, WEST BLOOMFIELD, MI, 48322","No_Match",NA,NA,NA,NA
980379,"PO BOX 2529","VISALIA","CA",93279,NA,NA,379,"PO BOX 2529, VISALIA, CA, 93279","No_Match",NA,NA,NA,NA
980380,"PO BOX 25293","RICHMOND","VA",23260,NA,NA,380,"PO BOX 25293, RICHMOND, VA, 23260","No_Match",NA,NA,NA,NA
980381,"PO BOX 253","BEARSVILLE","NY",12409,NA,NA,381,"PO BOX 253, BEARSVILLE, NY, 12409","No_Match",NA,NA,NA,NA
980382,"PO BOX 253","BELMONT","CA",94002,NA,NA,382,"PO BOX 253, BELMONT, CA, 94002","No_Match",NA,NA,NA,NA
980383,"PO BOX 253","BURRTON","KS",67020,NA,NA,383,"PO BOX 253, BURRTON, KS, 67020","No_Match",NA,NA,NA,NA
980384,"PO BOX 253","CARMEL","ME",4419,NA,NA,384,"PO BOX 253, CARMEL, ME, 4419","No_Match",NA,NA,NA,NA
980385,"PO BOX 253","CHOKIO","MN",56221,NA,NA,385,"PO BOX 253, CHOKIO, MN, 56221","No_Match",NA,NA,NA,NA
980386,"PO BOX 253","CHOWCHILLA","CA",93610,NA,NA,386,"PO BOX 253, CHOWCHILLA, CA, 93610","No_Match",NA,NA,NA,NA
980387,"PO BOX 253","COTTAGEVILLE","WV",25239,NA,NA,387,"PO BOX 253, COTTAGEVILLE, WV, 25239","No_Match",NA,NA,NA,NA
980388,"PO BOX 253","ENGLEWOOD","TN",37329,NA,NA,388,"PO BOX 253, ENGLEWOOD, TN, 37329","No_Match",NA,NA,NA,NA
980389,"PO BOX 253","ENGLEWOOD","TN",NA,NA,NA,389,"PO BOX 253, ENGLEWOOD, TN, ","No_Match",NA,NA,NA,NA
980390,"PO BOX 253","FORT PECK","MT",59223,NA,NA,390,"PO BOX 253, FORT PECK, MT, 59223","No_Match",NA,NA,NA,NA
980391,"PO BOX 253","GRUNDY","VA",24614,NA,NA,391,"PO BOX 253, GRUNDY, VA, 24614","No_Match",NA,NA,NA,NA
980392,"PO BOX 253","HALEYVILLE","AL",35565,NA,NA,392,"PO BOX 253, HALEYVILLE, AL, 35565","No_Match",NA,NA,NA,NA
980393,"PO BOX 253","HOLUALOA","HI",96725,NA,NA,393,"PO BOX 253, HOLUALOA, HI, 96725","No_Match",NA,NA,NA,NA
980394,"PO BOX 253","HOWE","IN",46746,NA,NA,394,"PO BOX 253, HOWE, IN, 46746","No_Match",NA,NA,NA,NA
980395,"PO BOX 253","IDANHA","OR",97350,NA,NA,395,"PO BOX 253, IDANHA, OR, 97350","No_Match",NA,NA,NA,NA
980396,"PO BOX 253","JEFFREY","WV",25114,NA,NA,396,"PO BOX 253, JEFFREY, WV, 25114","No_Match",NA,NA,NA,NA
980397,"PO BOX 253","JENKS","OK",74037,NA,NA,397,"PO BOX 253, JENKS, OK, 74037","No_Match",NA,NA,NA,NA
980398,"PO BOX 253","KYLE","SD",57752,NA,NA,398,"PO BOX 253, KYLE, SD, 57752","No_Match",NA,NA,NA,NA
980399,"PO BOX 253","LACROSSE","VA",23950,NA,NA,399,"PO BOX 253, LACROSSE, VA, 23950","No_Match",NA,NA,NA,NA
980400,"PO BOX 253","MADDOCK","ND",58348,NA,NA,400,"PO BOX 253, MADDOCK, ND, 58348","No_Match",NA,NA,NA,NA
980401,"PO BOX 253","MEMPHIS","MI",48041,NA,NA,401,"PO BOX 253, MEMPHIS, MI, 48041","No_Match",NA,NA,NA,NA
980402,"PO BOX 253","NORTH ZULCH","TX",77872,NA,NA,402,"PO BOX 253, NORTH ZULCH, TX, 77872","No_Match",NA,NA,NA,NA
980403,"PO BOX 253","SANTA","ID",83866,NA,NA,403,"PO BOX 253, SANTA, ID, 83866","No_Match",NA,NA,NA,NA
980404,"PO BOX 253","SEASIDE","CA",93955,NA,NA,404,"PO BOX 253, SEASIDE, CA, 93955","No_Match",NA,NA,NA,NA
980405,"PO BOX 253","SIIMMS","TX",75574,NA,NA,405,"PO BOX 253, SIIMMS, TX, 75574","No_Match",NA,NA,NA,NA
980406,"PO BOX 253","SIMMS","TX",75574,NA,NA,406,"PO BOX 253, SIMMS, TX, 75574","No_Match",NA,NA,NA,NA
980407,"PO BOX 253","SYCAMORE","OH",44882,NA,NA,407,"PO BOX 253, SYCAMORE, OH, 44882","No_Match",NA,NA,NA,NA
980408,"PO BOX 253","WASCO","OR",97065,NA,NA,408,"PO BOX 253, WASCO, OR, 97065","No_Match",NA,NA,NA,NA
980409,"PO BOX 253","WINONA LAKE","IN",46590,NA,NA,409,"PO BOX 253, WINONA LAKE, IN, 46590","No_Match",NA,NA,NA,NA
980410,"PO BOX 25303","DURHAM","NC",27702,NA,NA,410,"PO BOX 25303, DURHAM, NC, 27702","No_Match",NA,NA,NA,NA
980411,"PO BOX 2531","EAST HAMPTON","NY",11937,NA,NA,411,"PO BOX 2531, EAST HAMPTON, NY, 11937","No_Match",NA,NA,NA,NA
980412,"PO BOX 2531","KALAMAZOO","MI",49003,NA,NA,412,"PO BOX 2531, KALAMAZOO, MI, 49003","No_Match",NA,NA,NA,NA
980413,"PO BOX 2531","WALLA WALLA","WA",99362,NA,NA,413,"PO BOX 2531, WALLA WALLA, WA, 99362","No_Match",NA,NA,NA,NA
980414,"PO BOX 25311","GLADSTONE","MO",64119,NA,NA,414,"PO BOX 25311, GLADSTONE, MO, 64119","No_Match",NA,NA,NA,NA
980415,"PO BOX 25313","EUGENE","OR",97402,NA,NA,415,"PO BOX 25313, EUGENE, OR, 97402","No_Match",NA,NA,NA,NA
980416,"PO BOX 2532","SEWARD","AK",99664,NA,NA,416,"PO BOX 2532, SEWARD, AK, 99664","No_Match",NA,NA,NA,NA
980417,"PO BOX 2532","SOUTH PADRE ISLAND","TX",78597,NA,NA,417,"PO BOX 2532, SOUTH PADRE ISLAND, TX, 78597","No_Match",NA,NA,NA,NA
980418,"PO BOX 25325","FRESNO","CA",93729,NA,NA,418,"PO BOX 25325, FRESNO, CA, 93729","No_Match",NA,NA,NA,NA
980419,"PO BOX 25325","FRESNO","CO",93729,NA,NA,419,"PO BOX 25325, FRESNO, CO, 93729","No_Match",NA,NA,NA,NA
980420,"PO BOX 2533","HONOLULU","HI",96804,NA,NA,420,"PO BOX 2533, HONOLULU, HI, 96804","No_Match",NA,NA,NA,NA
980421,"PO BOX 2534","CLEVELAND","TN",37320,NA,NA,421,"PO BOX 2534, CLEVELAND, TN, 37320","No_Match",NA,NA,NA,NA
980422,"PO BOX 2534","RICHMOND HILL","GA",31324,NA,NA,422,"PO BOX 2534, RICHMOND HILL, GA, 31324","No_Match",NA,NA,NA,NA
980423,"PO BOX 2535","CULVER CITY","CA",90231,NA,NA,423,"PO BOX 2535, CULVER CITY, CA, 90231","No_Match",NA,NA,NA,NA
980424,"PO BOX 2536","ORLAND PARK","IL",60462,NA,NA,424,"PO BOX 2536, ORLAND PARK, IL, 60462","No_Match",NA,NA,NA,NA
980425,"PO BOX 2536","STATESBORO","GA",30459,NA,NA,425,"PO BOX 2536, STATESBORO, GA, 30459","No_Match",NA,NA,NA,NA
980426,"PO BOX 25361","FRESNO","CA",93729,NA,NA,426,"PO BOX 25361, FRESNO, CA, 93729","No_Match",NA,NA,NA,NA
980427,"PO BOX 254","BIG BAY","MI",49808,NA,NA,427,"PO BOX 254, BIG BAY, MI, 49808","No_Match",NA,NA,NA,NA
980428,"PO BOX 254","BISHOP","TX",78343,NA,NA,428,"PO BOX 254, BISHOP, TX, 78343","No_Match",NA,NA,NA,NA
980429,"PO BOX 254","CANAAN","VT",5903,NA,NA,429,"PO BOX 254, CANAAN, VT, 5903","No_Match",NA,NA,NA,NA
980430,"PO BOX 254","CANNON BEACH","OR",97110,NA,NA,430,"PO BOX 254, CANNON BEACH, OR, 97110","No_Match",NA,NA,NA,NA
980431,"PO BOX 254","CHINOOK","WA",98614,NA,NA,431,"PO BOX 254, CHINOOK, WA, 98614","No_Match",NA,NA,NA,NA
980432,"PO BOX 254","CIMARRON","NM",87714,NA,NA,432,"PO BOX 254, CIMARRON, NM, 87714","No_Match",NA,NA,NA,NA
980433,"PO BOX 254","CLARINDA","IA",51632,NA,NA,433,"PO BOX 254, CLARINDA, IA, 51632","No_Match",NA,NA,NA,NA
980434,"PO BOX 254","EUTAW","AL",35462,NA,NA,434,"PO BOX 254, EUTAW, AL, 35462","No_Match",NA,NA,NA,NA
980435,"PO BOX 254","FUQUAY-VARINA","NC",27526,NA,NA,435,"PO BOX 254, FUQUAY-VARINA, NC, 27526","No_Match",NA,NA,NA,NA
980436,"PO BOX 254","GUTHRIE","OK",73044,NA,NA,436,"PO BOX 254, GUTHRIE, OK, 73044","No_Match",NA,NA,NA,NA
980437,"PO BOX 254","HARPSWELL","ME",4079,NA,NA,437,"PO BOX 254, HARPSWELL, ME, 4079","No_Match",NA,NA,NA,NA
980438,"PO BOX 254","LINTON","ND",58552,NA,NA,438,"PO BOX 254, LINTON, ND, 58552","No_Match",NA,NA,NA,NA
980439,"PO BOX 254","LORMAN","MS",39096,NA,NA,439,"PO BOX 254, LORMAN, MS, 39096","No_Match",NA,NA,NA,NA
980440,"PO BOX 254","MANHEIM","PA",17545,NA,NA,440,"PO BOX 254, MANHEIM, PA, 17545","No_Match",NA,NA,NA,NA
980441,"PO BOX 254","MONTREAL","MO",65591,NA,NA,441,"PO BOX 254, MONTREAL, MO, 65591","No_Match",NA,NA,NA,NA
980442,"PO BOX 254","NORTH BEND","WA",98045,NA,NA,442,"PO BOX 254, NORTH BEND, WA, 98045","No_Match",NA,NA,NA,NA
980443,"PO BOX 254","OKAY","OK",74446,NA,NA,443,"PO BOX 254, OKAY, OK, 74446","No_Match",NA,NA,NA,NA
980444,"PO BOX 254","OLNEY SPRINGS","CO",81062,NA,NA,444,"PO BOX 254, OLNEY SPRINGS, CO, 81062","No_Match",NA,NA,NA,NA
980445,"PO BOX 254","OPHEIM","MT",59250,NA,NA,445,"PO BOX 254, OPHEIM, MT, 59250","No_Match",NA,NA,NA,NA
980446,"PO BOX 254","PRINCESS ANNE","MD",21853,NA,NA,446,"PO BOX 254, PRINCESS ANNE, MD, 21853","No_Match",NA,NA,NA,NA
980447,"PO BOX 254","RAEFORD","NC",28376,NA,NA,447,"PO BOX 254, RAEFORD, NC, 28376","No_Match",NA,NA,NA,NA
980448,"PO BOX 254","TALPA","TX",76882,NA,NA,448,"PO BOX 254, TALPA, TX, 76882","No_Match",NA,NA,NA,NA
980449,"PO BOX 254","TENAFLY","NJ",7670,NA,NA,449,"PO BOX 254, TENAFLY, NJ, 7670","No_Match",NA,NA,NA,NA
980450,"PO BOX 254","UNDERHILL","VT",5489,NA,NA,450,"PO BOX 254, UNDERHILL, VT, 5489","No_Match",NA,NA,NA,NA
980451,"PO BOX 254","WESTBROOKVILLE","NY",12785,NA,NA,451,"PO BOX 254, WESTBROOKVILLE, NY, 12785","No_Match",NA,NA,NA,NA
980452,"PO BOX 2540","EL CENTRO","CA",92243,NA,NA,452,"PO BOX 2540, EL CENTRO, CA, 92243","No_Match",NA,NA,NA,NA
980453,"PO BOX 2540","EL CENTRO","CA",92244,NA,NA,453,"PO BOX 2540, EL CENTRO, CA, 92244","No_Match",NA,NA,NA,NA
980454,"PO BOX 25423","BARRIGADA","GU",96921,NA,NA,454,"PO BOX 25423, BARRIGADA, GU, 96921","No_Match",NA,NA,NA,NA
980455,"PO BOX 2543","RANCHO SANTA FE","CA",92067,NA,NA,455,"PO BOX 2543, RANCHO SANTA FE, CA, 92067","No_Match",NA,NA,NA,NA
980456,"PO BOX 254351","PATRICK AFB","FL",23925,NA,NA,456,"PO BOX 254351, PATRICK AFB, FL, 23925","No_Match",NA,NA,NA,NA
980457,"PO BOX 25463","SCOTTSDALE","AZ",85331,NA,NA,457,"PO BOX 25463, SCOTTSDALE, AZ, 85331","No_Match",NA,NA,NA,NA
980458,"PO BOX 25476","RICHMOND","VA",23260,NA,NA,458,"PO BOX 25476, RICHMOND, VA, 23260","No_Match",NA,NA,NA,NA
980459,"PO BOX 25484","CHRISTIANSTED","VI",824,NA,NA,459,"PO BOX 25484, CHRISTIANSTED, VI, 824","No_Match",NA,NA,NA,NA
980460,"PO BOX 25489","PRESCOTT","AZ",86312,NA,NA,460,"PO BOX 25489, PRESCOTT, AZ, 86312","No_Match",NA,NA,NA,NA
980461,"PO BOX 255","ADAMS CENTER","NY",13606,NA,NA,461,"PO BOX 255, ADAMS CENTER, NY, 13606","No_Match",NA,NA,NA,NA
980462,"PO BOX 255","ANTLERS","OK",74523,NA,NA,462,"PO BOX 255, ANTLERS, OK, 74523","No_Match",NA,NA,NA,NA
980463,"PO BOX 255","BELINGTON","WV",26350,NA,NA,463,"PO BOX 255, BELINGTON, WV, 26350","No_Match",NA,NA,NA,NA
980464,"PO BOX 255","BELLE FOURCHE","SD",57717,NA,NA,464,"PO BOX 255, BELLE FOURCHE, SD, 57717","No_Match",NA,NA,NA,NA
980465,"PO BOX 255","BLADENSBURG","MD",20710,NA,NA,465,"PO BOX 255, BLADENSBURG, MD, 20710","No_Match",NA,NA,NA,NA
980466,"PO BOX 255","BONHAM","TX",75418,NA,NA,466,"PO BOX 255, BONHAM, TX, 75418","No_Match",NA,NA,NA,NA
980467,"PO BOX 255","CAREY","ID",83320,NA,NA,467,"PO BOX 255, CAREY, ID, 83320","No_Match",NA,NA,NA,NA
980468,"PO BOX 255","COAL CITY","WV",25823,NA,NA,468,"PO BOX 255, COAL CITY, WV, 25823","No_Match",NA,NA,NA,NA
980469,"PO BOX 255","CONWAY","NC",27820,NA,NA,469,"PO BOX 255, CONWAY, NC, 27820","No_Match",NA,NA,NA,NA
980470,"PO BOX 255","DOLGEVILLE","NY",13329,NA,NA,470,"PO BOX 255, DOLGEVILLE, NY, 13329","No_Match",NA,NA,NA,NA
980471,"PO BOX 255","EAGLE NEST","NM",87718,NA,NA,471,"PO BOX 255, EAGLE NEST, NM, 87718","No_Match",NA,NA,NA,NA
980472,"PO BOX 255","EPHRATA","PA",17522,NA,NA,472,"PO BOX 255, EPHRATA, PA, 17522","No_Match",NA,NA,NA,NA
980473,"PO BOX 255","GILBERTOWN","AL",36908,NA,NA,473,"PO BOX 255, GILBERTOWN, AL, 36908","No_Match",NA,NA,NA,NA
980474,"PO BOX 255","GLASFORD","IL",61533,NA,NA,474,"PO BOX 255, GLASFORD, IL, 61533","No_Match",NA,NA,NA,NA
980475,"PO BOX 255","HARMONY","RI",2829,NA,NA,475,"PO BOX 255, HARMONY, RI, 2829","No_Match",NA,NA,NA,NA
980476,"PO BOX 255","HARTFIELD","VA",23071,NA,NA,476,"PO BOX 255, HARTFIELD, VA, 23071","No_Match",NA,NA,NA,NA
980477,"PO BOX 255","HERMISTON","OR",97838,NA,NA,477,"PO BOX 255, HERMISTON, OR, 97838","No_Match",NA,NA,NA,NA
980478,"PO BOX 255","HITCHCOCK","TX",77563,NA,NA,478,"PO BOX 255, HITCHCOCK, TX, 77563","No_Match",NA,NA,NA,NA
980479,"PO BOX 255","MIDLAND","SD",57552,NA,NA,479,"PO BOX 255, MIDLAND, SD, 57552","No_Match",NA,NA,NA,NA
980480,"PO BOX 255","NAVAJO","NM",87328,NA,NA,480,"PO BOX 255, NAVAJO, NM, 87328","No_Match",NA,NA,NA,NA
980481,"PO BOX 255","PELICAN RAPIDS","MN",56572,NA,NA,481,"PO BOX 255, PELICAN RAPIDS, MN, 56572","No_Match",NA,NA,NA,NA
980482,"PO BOX 255","REMSEN","IA",51050,NA,NA,482,"PO BOX 255, REMSEN, IA, 51050","No_Match",NA,NA,NA,NA
980483,"PO BOX 255","RIDGWAY","CO",81432,NA,NA,483,"PO BOX 255, RIDGWAY, CO, 81432","No_Match",NA,NA,NA,NA
980484,"PO BOX 255","SULPHUR SPRINGS","AR",72768,NA,NA,484,"PO BOX 255, SULPHUR SPRINGS, AR, 72768","No_Match",NA,NA,NA,NA
980485,"PO BOX 255","THERESA","NY",13691,NA,NA,485,"PO BOX 255, THERESA, NY, 13691","No_Match",NA,NA,NA,NA
980486,"PO BOX 255","VIDALIA","GA",30475,NA,NA,486,"PO BOX 255, VIDALIA, GA, 30475","No_Match",NA,NA,NA,NA
980487,"PO BOX 255","WOLF POINT","MT",59201,NA,NA,487,"PO BOX 255, WOLF POINT, MT, 59201","No_Match",NA,NA,NA,NA
980488,"PO BOX 2550","OAK BLUFFS","MA",2557,NA,NA,488,"PO BOX 2550, OAK BLUFFS, MA, 2557","No_Match",NA,NA,NA,NA
980489,"PO BOX 2550","WALDPORT","OR",97394,NA,NA,489,"PO BOX 2550, WALDPORT, OR, 97394","No_Match",NA,NA,NA,NA
980490,"PO BOX 255095","SACRAMENTO","CA",95865,NA,NA,490,"PO BOX 255095, SACRAMENTO, CA, 95865","No_Match",NA,NA,NA,NA
980491,"PO BOX 2552","GRASS VALLEY","CA",95945,NA,NA,491,"PO BOX 2552, GRASS VALLEY, CA, 95945","No_Match",NA,NA,NA,NA
980492,"PO BOX 2552","SOLDOTNA","AK",99669,NA,NA,492,"PO BOX 2552, SOLDOTNA, AK, 99669","No_Match",NA,NA,NA,NA
980493,"PO BOX 2552","WEAVERVILLE","CA",96093,NA,NA,493,"PO BOX 2552, WEAVERVILLE, CA, 96093","No_Match",NA,NA,NA,NA
980494,"PO BOX 2553","MCCALL","ID",83638,NA,NA,494,"PO BOX 2553, MCCALL, ID, 83638","No_Match",NA,NA,NA,NA
980495,"PO BOX 2554","ASHEVILLE","NC",28804,NA,NA,495,"PO BOX 2554, ASHEVILLE, NC, 28804","No_Match",NA,NA,NA,NA
980496,"PO BOX 2554","NAPA","CA",94558,NA,NA,496,"PO BOX 2554, NAPA, CA, 94558","No_Match",NA,NA,NA,NA
980497,"PO BOX 2554","NYSSA","OR",97913,NA,NA,497,"PO BOX 2554, NYSSA, OR, 97913","No_Match",NA,NA,NA,NA
980498,"PO BOX 2556","SPRING","TX",77383,NA,NA,498,"PO BOX 2556, SPRING, TX, 77383","No_Match",NA,NA,NA,NA
980499,"PO BOX 25563","SALT LAKE CITY","UT",84125,NA,NA,499,"PO BOX 25563, SALT LAKE CITY, UT, 84125","No_Match",NA,NA,NA,NA
980500,"PO BOX 2557","BURLESON","TX",76097,NA,NA,500,"PO BOX 2557, BURLESON, TX, 76097","No_Match",NA,NA,NA,NA
