"ID","Address","City","State","Zip","lat","long","id","input_address","match_indicator","match_type","matched_address","tiger_line_id","tiger_side"
539501,"35 KARENS LANE","ENGLEWOOD CLIFFS","NJ",7632,40.8863832540001,-73.956385074,1,"35 KARENS LANE, ENGLEWOOD CLIFFS, NJ, 7632","Match","Exact","35 KARENS LN, ENGLEWOOD CLIFFS, NJ, 07632",64375744,"R"
539502,"35 KEELSON DR","WARETOWN","NJ",8758,39.8021327540001,-74.183528247,2,"35 KEELSON DR, WARETOWN, NJ, 8758","Match","Exact","35 KEELSON DR, WARETOWN, NJ, 08758",203751759,"R"
539503,"35 KELLOGG STREET 2ND FLOOR","WESTFIELD","MA",1085,42.1281295360001,-72.752502004,3,"35 KELLOGG STREET 2ND FLOOR, WESTFIELD, MA, 1085","Match","Exact","35 KELLOGG ST, WESTFIELD, MA, 01085",4019946,"R"
539504,"35 KELLOGG STREET","WESTFIELD","MA",1085,42.1281295360001,-72.752502004,4,"35 KELLOGG STREET, WESTFIELD, MA, 1085","Match","Exact","35 KELLOGG ST, WESTFIELD, MA, 01085",4019946,"R"
539505,"35 KENNARD ST","WESTBROOK","ME",4092,43.6821109850001,-70.370022363,5,"35 KENNARD ST, WESTBROOK, ME, 4092","Match","Exact","35 KENNARD ST, WESTBROOK, ME, 04092",78023389,"R"
539506,"35 KENNEDY CT","LANCASTER","NY",14086,42.9236399000001,-78.674376385,6,"35 KENNEDY CT, LANCASTER, NY, 14086","Match","Exact","35 KENNEDY CT, LANCASTER, NY, 14086",48306969,"R"
539507,"35 KENNETH ST APT C1","WEST HAVEN","CT",6516,41.275292725,-72.971635952,7,"35 KENNETH ST APT C1, WEST HAVEN, CT, 6516","Match","Exact","35 KENNETH ST, W HAVEN, CT, 06516",627241389,"L"
539508,"35 KENSINGTON ST","NEWTON","MA",2460,42.3548094980001,-71.216326743,8,"35 KENSINGTON ST, NEWTON, MA, 2460","Match","Exact","35 KENSINGTON ST, NEWTON, MA, 02460",86863898,"R"
539509,"35 KENSINGTON ST","NEWTONVILLE","MA",2460,42.3548094980001,-71.216326743,9,"35 KENSINGTON ST, NEWTONVILLE, MA, 2460","Match","Exact","35 KENSINGTON ST, NEWTONVILLE, MA, 02460",86863898,"R"
539510,"35 KENT COURT APT 11","DALY CITY","CA",94015,37.6694823820001,-122.478659835,10,"35 KENT COURT APT 11, DALY CITY, CA, 94015","Match","Exact","35 KENT CT, DALY CITY, CA, 94015",192368966,"R"
539511,"35 KILLINGTON COURT","RENO","NV",89511,39.395721225,-119.780076826,11,"35 KILLINGTON COURT, RENO, NV, 89511","Match","Exact","35 KILLINGTON CT, RENO, NV, 89511",107075251,"R"
539512,"35 KIND STREET SUITE 3","BURLINGTON","VT",5401,NA,NA,12,"35 KIND STREET SUITE 3, BURLINGTON, VT, 5401","No_Match",NA,NA,NA,NA
539513,"35 KINGFISHER COURT","TRABUCO CANYON","CA",92679,33.583602037,-117.595621531,13,"35 KINGFISHER COURT, TRABUCO CANYON, CA, 92679","Match","Exact","35 KINGFISHER CT, TRABUCO CANYON, CA, 92679",144420447,"R"
539514,"35 KINGFISHER COURTH","TRABUCO CANYON","CA",92679,33.585226585,-117.597969859,14,"35 KINGFISHER COURTH, TRABUCO CANYON, CA, 92679","Match","Exact","35 KINGFISHER, TRABUCO CANYON, CA, 92679",144399026,"L"
539515,"35 KINGS HIGHWAY EAST","HADDONFIELD","NJ",8033,39.89660623,-75.0349008869999,15,"35 KINGS HIGHWAY EAST, HADDONFIELD, NJ, 8033","Match","Exact","35 KINGS HWY E, HADDONFIELD, NJ, 08033",647273836,"L"
539516,"35 KIPP STREET","CHAPPAQUA","NY",10514,41.1639658060001,-73.779694795,16,"35 KIPP STREET, CHAPPAQUA, NY, 10514","Match","Exact","35 KIPP ST, CHAPPAQUA, NY, 10514",139839950,"R"
539517,"35 KIRKLAND DR","CABOT","AR",72023,35.021421149,-92.07808911,17,"35 KIRKLAND DR, CABOT, AR, 72023","Match","Exact","35 KIRKLAND DR, CABOT, AR, 72023",79717151,"L"
539518,"35 KOLAS COURT","MIDDLETOWN","NJ",7748,40.421517211,-74.130493716,18,"35 KOLAS COURT, MIDDLETOWN, NJ, 7748","Match","Exact","35 KOLAS CT, MIDDLETOWN, NJ, 07748",90477065,"R"
539519,"35 KURT ROAD","PITTSFORD","NY",14534,43.0503189120001,-77.4750573279999,19,"35 KURT ROAD, PITTSFORD, NY, 14534","Match","Exact","35 KURT RD, PITTSFORD, NY, 14534",14547624,"L"
539520,"35 LA COSTA DR","ANNANDALE","NJ",8801,40.630847569,-74.8898265879999,20,"35 LA COSTA DR, ANNANDALE, NJ, 8801","Match","Non_Exact","35 LACOSTA DR, ANNANDALE, NJ, 08801",628608838,"L"
539521,"35 LA SORDINA","RANCHO SANTA MARG.","CA",92688,33.656329425,-117.620294994,21,"35 LA SORDINA, RANCHO SANTA MARG., CA, 92688","Match","Exact","35 LA SORDINA, RANCHO SANTA MARGARITA, CA, 92688",144393593,"L"
539522,"35 LAKE FOREST PARKWAY","LANCASTER","NY",14086,42.871304364,-78.6710974439999,22,"35 LAKE FOREST PARKWAY, LANCASTER, NY, 14086","Match","Exact","35 LAKE FOREST PKWY, LANCASTER, NY, 14086",48336493,"L"
539523,"35 LAKE MARIE DRIVE","GRAFTON","WV",26354,39.288771814,-79.9850299289999,23,"35 LAKE MARIE DRIVE, GRAFTON, WV, 26354","Match","Exact","35 LAKE MARIE DR, GRAFTON, WV, 26354",607286044,"R"
539524,"35 LAKE ROAD","ANDOVER","CT",6232,41.722053138,-72.367712978,24,"35 LAKE ROAD, ANDOVER, CT, 6232","Match","Exact","35 LAKE RD, ANDOVER, CT, 06232",57010428,"L"
539525,"35 LAKE SHORE BLVD","STAFFORD SPGS","CT",6076,42.000945303,-72.2598036969999,25,"35 LAKE SHORE BLVD, STAFFORD SPGS, CT, 6076","Match","Exact","35 LAKE SHORE BLVD, STAFFORD SPGS, CT, 06076",635611537,"R"
539526,"35 LAKEBIRCH DRIVE","COVINGTON","GA",30016,33.611054231,-83.9626795249999,26,"35 LAKEBIRCH DRIVE, COVINGTON, GA, 30016","Match","Exact","35 LAKEBIRCH DR, COVINGTON, GA, 30016",23627724,"L"
539527,"35 LAKEVIEW ROAD","NEW ROCHELLE","NY",10804,40.941901117,-73.801122052,27,"35 LAKEVIEW ROAD, NEW ROCHELLE, NY, 10804","Match","Exact","35 LAKEVIEW RD, NEW ROCHELLE, NY, 10804",139807161,"L"
539528,"35 LANCASTER COUNTY ROAD","HARVARD","MA",1451,42.528679465,-71.5835550629999,28,"35 LANCASTER COUNTY ROAD, HARVARD, MA, 1451","Match","Exact","35 LANCASTER COUNTY RD, HARVARD, MA, 01451",40077775,"R"
539529,"35 LANCASTER COUNTY ROAD","HARVRAD","MA",1451,42.528679465,-71.5835550629999,29,"35 LANCASTER COUNTY ROAD, HARVRAD, MA, 1451","Match","Non_Exact","35 LANCASTER COUNTY RD, HARVARD, MA, 01451",40077775,"R"
539530,"35 LANCASTER STREET","LEOMINSTER","MA",1453,42.5229866770001,-71.757536172,30,"35 LANCASTER STREET, LEOMINSTER, MA, 1453","Match","Exact","35 LANCASTER ST, LEOMINSTER, MA, 01453",40095715,"R"
539531,"35 LANSDOWNE ST","CAMBRIDGE","MA",2139,42.360969423,-71.099246879,31,"35 LANSDOWNE ST, CAMBRIDGE, MA, 2139","Match","Non_Exact","35 LANDSDOWNE ST, CAMBRIDGE, MA, 02139",86870164,"R"
539532,"35 LAPHAM FARM ROAD","PASCOAG","RI",2859,41.947405996,-71.6894105229999,32,"35 LAPHAM FARM ROAD, PASCOAG, RI, 2859","Match","Exact","35 LAPHAM FARM RD, PASCOAG, RI, 02859",649405420,"R"
539533,"35 LAWRENCE AVE","BOSTON","MA",2121,42.3125631360001,-71.077910565,33,"35 LAWRENCE AVE, BOSTON, MA, 2121","Match","Exact","35 LAWRENCE AVE, BOSTON, MA, 02121",85724456,"R"
539534,"35 LAWRENCE ROAD","GRAY","ME",4039,43.853698476,-70.3574016709999,34,"35 LAWRENCE ROAD, GRAY, ME, 4039","Match","Exact","35 LAWRENCE RD, GRAY, ME, 04039",625618923,"L"
539535,"35 LAWTON STREET APT 3","BROOKLYN","NY",11221,40.695172052,-73.9306832629999,35,"35 LAWTON STREET APT 3, BROOKLYN, NY, 11221","Match","Exact","35 LAWTON ST, BROOKLYN, NY, 11221",59082574,"L"
539536,"35 LAZY ACRES RD","NORTH CHITTENDEN","VT",5763,43.7578739370001,-72.992361477,36,"35 LAZY ACRES RD, NORTH CHITTENDEN, VT, 5763","Match","Exact","35 LAZY ACRES RD, NORTH CHITTENDEN, VT, 05763",138977412,"L"
539537,"35 LEADER ROAD SE","MARIETTA","GA",30008,33.926584688,-84.553510422,37,"35 LEADER ROAD SE, MARIETTA, GA, 30008","Match","Non_Exact","35 LEADER RD SW, MARIETTA, GA, 30008",17247956,"L"
539538,"35 LEDGEWOOD LN","BLUE HILL","ME",4614,44.36551795,-68.5568389859999,38,"35 LEDGEWOOD LN, BLUE HILL, ME, 4614","Match","Exact","35 LEDGEWOOD LN, BLUE HILL, ME, 04614",645514503,"L"
539539,"35 LEE RD 2216","SMITH STATION","AL",36877,32.5194773760001,-85.075305096,39,"35 LEE RD 2216, SMITH STATION, AL, 36877","Match","Non_Exact","35 LEE ROAD 2216, SMITHS STATION, AL, 36877",650699651,"L"
539540,"35 LEGACY DR NO 4","THREE FORKS","MT",59752,NA,NA,40,"35 LEGACY DR NO 4, THREE FORKS, MT, 59752","No_Match",NA,NA,NA,NA
539541,"35 LENAPE TRL","MEDFORD","NJ",8055,39.8625197000001,-74.809337216,41,"35 LENAPE TRL, MEDFORD, NJ, 8055","Match","Exact","35 LENAPE TRL, MEDFORD, NJ, 08055",134039167,"L"
539542,"35 LENIHAN LANE","EAST GREENWICH","RI",2818,41.6399297720001,-71.534489176,42,"35 LENIHAN LANE, EAST GREENWICH, RI, 2818","Match","Exact","35 LENIHAN LN, EAST GREENWICH, RI, 02818",649733855,"R"
539543,"35 LEXINGTON RUN","HORSEHEADS","NY",14845,42.183257752,-76.892497738,43,"35 LEXINGTON RUN, HORSEHEADS, NY, 14845","Match","Exact","35 LEXINGTON RUN, HORSEHEADS, NY, 14845",18538370,"L"
539544,"35 LIBBY AVE","WESTBROOK","ME",4092,43.67367718,-70.34920376,44,"35 LIBBY AVE, WESTBROOK, ME, 4092","Match","Exact","35 LIBBY AVE, WESTBROOK, ME, 04092",78023717,"R"
539545,"35 LIBERTY ROAD","MARSHFIELD","MA",2050,42.100732151,-70.6830097499999,45,"35 LIBERTY ROAD, MARSHFIELD, MA, 2050","Match","Exact","35 LIBERTY RD, MARSHFIELD, MA, 02050",87471761,"R"
539546,"35 LIGHTHOUSE WAY DRIVE","SALEM","SC",29676,34.836909092,-82.9095427949999,46,"35 LIGHTHOUSE WAY DRIVE, SALEM, SC, 29676","Match","Exact","35 LIGHTHOUSE WAY DR, SALEM, SC, 29676",25668545,"L"
539547,"35 LILLEY CT","WAVERLY HALL","GA",31831,32.6290127400001,-84.75173449,47,"35 LILLEY CT, WAVERLY HALL, GA, 31831","Match","Exact","35 LILLEY CT, WAVERLY HALL, GA, 31831",648288382,"L"
539548,"35 LINCOLN AVE APT 231","METUCHEN","NJ",8840,40.534578143,-74.358212006,48,"35 LINCOLN AVE APT 231, METUCHEN, NJ, 8840","Match","Exact","35 LINCOLN AVE, METUCHEN, NJ, 08840",60288286,"L"
539549,"35 LINCOLN DRIVE","ROCKY POINT","NY",11778,40.953755695,-72.92833978,49,"35 LINCOLN DRIVE, ROCKY POINT, NY, 11778","Match","Exact","35 LINCOLN DR, ROCKY POINT, NY, 11778",114011538,"L"
539550,"35 LINCOLN ROAD","NEWTON","MA",2458,42.3559223890001,-71.199392352,50,"35 LINCOLN ROAD, NEWTON, MA, 2458","Match","Exact","35 LINCOLN RD, NEWTON, MA, 02458",86864362,"R"
539551,"35 LINCOLN ST","MILLVILLE","MA",1529,42.0278597380001,-71.576437574,51,"35 LINCOLN ST, MILLVILLE, MA, 1529","Match","Exact","35 LINCOLN ST, MILLVILLE, MA, 01529",40040730,"R"
539552,"35 LINCOLN STREET","DEDHAM","MA",2026,42.239628269,-71.1554627199999,52,"35 LINCOLN STREET, DEDHAM, MA, 2026","Match","Exact","35 LINCOLN ST, DEDHAM, MA, 02026",87246435,"R"
539553,"35 LINDEN AVE STE 510","LONG BEACH","CA",90802,33.767376207,-118.186365531,53,"35 LINDEN AVE STE 510, LONG BEACH, CA, 90802","Match","Exact","35 LINDEN AVE, LONG BEACH, CA, 90802",141694475,"L"
539554,"35 LINDEN BLVD SUITE F7","BROOKLYN","NY",11226,40.652234213,-73.9576522839999,54,"35 LINDEN BLVD SUITE F7, BROOKLYN, NY, 11226","Match","Exact","35 LINDEN BLVD, BROOKLYN, NY, 11226",59081355,"L"
539555,"35 LINDSLEY AVE","KINGSTON","NY",12401,41.926650683,-73.9719775459999,55,"35 LINDSLEY AVE, KINGSTON, NY, 12401","Match","Exact","35 LINDSLEY AVE, KINGSTON, NY, 12401",41880115,"R"
539556,"35 LITTLE JOHN DR","MEDFORD","NJ",8055,39.865400445,-74.827353369,56,"35 LITTLE JOHN DR, MEDFORD, NJ, 8055","Match","Exact","35 LITTLE JOHN DR, MEDFORD, NJ, 08055",134063823,"R"
539557,"35 LOCKE MILL DRIVE","LITCHFIELD","NH",3052,42.8446928220001,-71.4365782689999,57,"35 LOCKE MILL DRIVE, LITCHFIELD, NH, 3052","Match","Exact","35 LOCKE MILL DR, LITCHFIELD, NH, 03052",113549603,"R"
539558,"35 LOCUST ST","BROOKLYN","NY",11206,40.6990890820001,-73.937731341,58,"35 LOCUST ST, BROOKLYN, NY, 11206","Match","Exact","35 LOCUST ST, BROOKLYN, NY, 11206",59079053,"L"
539559,"35 LOG ST UNIT 3G","MANCHESTER","NH",3102,42.9795717280001,-71.476296858,59,"35 LOG ST UNIT 3G, MANCHESTER, NH, 3102","Match","Exact","35 LOG ST, MANCHESTER, NH, 03102",113579464,"L"
539560,"35 LOGANBERRY CIR","VALDOSTA","GA",31602,30.857764936,-83.304319719,60,"35 LOGANBERRY CIR, VALDOSTA, GA, 31602","Match","Exact","35 LOGANBERRY CIR, VALDOSTA, GA, 31602",87728264,"R"
539561,"35 LONDONDERRY DRIVE","FLEMINGTON","NJ",8822,40.4937140000001,-74.849754554,61,"35 LONDONDERRY DRIVE, FLEMINGTON, NJ, 8822","Match","Exact","35 LONDONDERRY DR, FLEMINGTON, NJ, 08822",60013744,"L"
539562,"35 LONG GREEN COURT","SILVER SPRINGS","MD",20906,39.089357889,-77.031086721,62,"35 LONG GREEN COURT, SILVER SPRINGS, MD, 20906","Match","Exact","35 LONG GREEN CT, SILVER SPRING, MD, 20906",62063372,"L"
539563,"35 LONGITUDE DRIVE","MOUNT VERNON","OH",43050,40.4167680370001,-82.485647436,63,"35 LONGITUDE DRIVE, MOUNT VERNON, OH, 43050","Match","Exact","35 LONGITUDE DR, MOUNT VERNON, OH, 43050",24628446,"L"
539564,"35 LONGVIEW AVE","DANBURY","CT",6811,41.4446609240001,-73.432357542,64,"35 LONGVIEW AVE, DANBURY, CT, 6811","Match","Exact","35 LONGVIEW AVE, DANBURY, CT, 06811",3231140,"R"
539565,"35 LONGWORTH AVE","BROCKTON","MA",2301,42.0511675490001,-71.011615729,65,"35 LONGWORTH AVE, BROCKTON, MA, 2301","Match","Exact","35 LONGWORTH AVE, BROCKTON, MA, 02301",87457129,"L"
539566,"35 LOOKER ST","HILLSIDE","NJ",7205,40.6893004940001,-74.2162711679999,66,"35 LOOKER ST, HILLSIDE, NJ, 7205","Match","Exact","35 LOOKER ST, HILLSIDE, NJ, 07205",60577793,"R"
539567,"35 LOS CEDROS","NOVATO","CA",94947,38.1037756110001,-122.60934792,67,"35 LOS CEDROS, NOVATO, CA, 94947","Match","Non_Exact","35 LOS CEDROS DR, NOVATO, CA, 94947",192757066,"L"
539568,"35 LOUISE DRIVE","SPRINGBORO","OH",45066,39.5439065420001,-84.254995777,68,"35 LOUISE DRIVE, SPRINGBORO, OH, 45066","Match","Exact","35 LOUISE DR, SPRINGBORO, OH, 45066",649160322,"R"
539569,"35 LOWELL ST","PORTLAND","ME",4102,43.6550918780001,-70.283975961,69,"35 LOWELL ST, PORTLAND, ME, 4102","Match","Exact","35 LOWELL ST, PORTLAND, ME, 04102",78027156,"R"
539570,"35 LOWER LUTHER ROAD","LUTHER","MT",59068,45.303054929,-109.394667707,70,"35 LOWER LUTHER ROAD, LUTHER, MT, 59068","Match","Exact","35 LOWER LUTHER RD, LUTHER, MT, 59068",180417775,"R"
539571,"35 LOWRY DR","WILMINGTON","DE",19805,39.745561579,-75.6137024989999,71,"35 LOWRY DR, WILMINGTON, DE, 19805","Match","Exact","35 LOWRY DR, WILMINGTON, DE, 19805",187254063,"L"
539572,"35 LUNDA STREET APT 2","WALTHAM","MA",2451,42.3776745600001,-71.255282786,72,"35 LUNDA STREET APT 2, WALTHAM, MA, 2451","Match","Exact","35 LUNDA ST, WALTHAM, MA, 02451",87106379,"R"
539573,"35 LUNNEY CT","SPRING VALLEY","NY",10977,41.101390897,-74.0582428769999,73,"35 LUNNEY CT, SPRING VALLEY, NY, 10977","Match","Exact","35 LUNNEY CT, SPRING VALLEY, NY, 10977",124614234,"R"
539574,"35 LYNN DR","HAWTHORN WOODS","IL",60047,NA,NA,74,"35 LYNN DR, HAWTHORN WOODS, IL, 60047","No_Match",NA,NA,NA,NA
539575,"35 MABLE RAMSEY RD","LUMBERTON","MS",39455,NA,NA,75,"35 MABLE RAMSEY RD, LUMBERTON, MS, 39455","No_Match",NA,NA,NA,NA
539576,"35 MACARTHUR ROAD","NATICK","MA",1760,42.297908018,-71.334333022,76,"35 MACARTHUR ROAD, NATICK, MA, 1760","Match","Exact","35 MACARTHUR RD, NATICK, MA, 01760",86852586,"R"
539577,"35 MACK HILL ROAD","MARLOW","NH",3456,43.1161699840001,-72.2106760149999,77,"35 MACK HILL ROAD, MARLOW, NH, 3456","Match","Non_Exact","35 MOCK HILL RD, MARLOW, NH, 03456",124071189,"R"
539578,"35 MACKAY AVE","WALDWICK","NJ",7463,41.0194523660001,-74.1196852799999,78,"35 MACKAY AVE, WALDWICK, NJ, 7463","Match","Exact","35 MACKAY AVE, WALDWICK, NJ, 07463",64409652,"L"
539579,"35 MADISON AVE PO BOX 673","ANTWERP","NY",13608,44.1932200470001,-75.610446772,79,"35 MADISON AVE PO BOX 673, ANTWERP, NY, 13608","Match","Exact","35 MADISON AVE, ANTWERP, NY, 13608",154235256,"R"
539580,"35 MADISON AVENUE","BALA CYNWYD","PA",19004,40.0239050320001,-75.238313488,80,"35 MADISON AVENUE, BALA CYNWYD, PA, 19004","Match","Exact","35 MADISON AVE, BALA CYNWYD, PA, 19004",135090747,"L"
539581,"35 MADISON STREET","WARRENTON","VA",20186,38.7043686150001,-77.78908165,81,"35 MADISON STREET, WARRENTON, VA, 20186","Match","Exact","35 MADISON ST, WARRENTON, VA, 20186",146258558,"R"
539582,"35 MAGNUM DRIVE","TURNER","ME",4282,44.260384398,-70.267802285,82,"35 MAGNUM DRIVE, TURNER, ME, 4282","Match","Exact","35 MAGNUM DR, TURNER, ME, 04282",77972288,"L"
539583,"35 MAHOPAC DR","BEAR","DE",19701,39.6208525650001,-75.7070246389999,83,"35 MAHOPAC DR, BEAR, DE, 19701","Match","Exact","35 MAHOPAC DR, BEAR, DE, 19701",187281338,"L"
539584,"35 MAIN ST EXTENSION APT 1","HARWICH","MA",2645,NA,NA,84,"35 MAIN ST EXTENSION APT 1, HARWICH, MA, 2645","No_Match",NA,NA,NA,NA
539585,"35 MAIN ST NUM 1501","BELCHERTOWN","MA",1007,42.2792318570001,-72.402822589,85,"35 MAIN ST NUM 1501, BELCHERTOWN, MA, 1007","Match","Exact","35 MAIN ST, BELCHERTOWN, MA, 01007",624235618,"R"
539586,"35 MAIN ST","ST GEORGE","ME",4860,43.966141226,-69.210368902,86,"35 MAIN ST, ST GEORGE, ME, 4860","Match","Exact","35 MAIN ST, SAINT GEORGE, ME, 04860",75552131,"L"
539587,"35 MAIN STREET","DARBY","PA",19023,39.916403098,-75.248380917,87,"35 MAIN STREET, DARBY, PA, 19023","Match","Exact","35 MAIN ST, DARBY, PA, 19023",134886867,"R"
539588,"35 MANCHESTER ST","NASHUA","NH",3060,NA,NA,88,"35 MANCHESTER ST, NASHUA, NH, 3060","No_Match",NA,NA,NA,NA
539589,"35 MANDOLIN LANE","WILLINGBORO","NJ",8046,40.0283961600001,-74.8917853199999,89,"35 MANDOLIN LANE, WILLINGBORO, NJ, 8046","Match","Exact","35 MANDOLIN LN, WILLINGBORO, NJ, 08046",134058326,"L"
539590,"35 MANOR HOUSE LN","DOBBS FERRY","NY",10522,41.0110541070001,-73.8618313819999,90,"35 MANOR HOUSE LN, DOBBS FERRY, NY, 10522","Match","Exact","35 MANOR HOUSE LN, DOBBS FERRY, NY, 10522",645856409,"R"
539591,"35 MAPLE AVENUE","WOODRIDGE","NY",12789,41.7120602160001,-74.572827236,91,"35 MAPLE AVENUE, WOODRIDGE, NY, 12789","Match","Exact","35 MAPLE AVE, WOODRIDGE, NY, 12789",636405073,"L"
539592,"35 MAPLE DR","FACTORYVILLE","PA",18419,41.506278491,-75.833827695,92,"35 MAPLE DR, FACTORYVILLE, PA, 18419","Match","Exact","35 MAPLE DR, FACTORYVILLE, PA, 18419",612270078,"L"
539593,"35 MAPLE DRIVE","LINDENHURST","NY",11757,40.7092203170001,-73.386804884,93,"35 MAPLE DRIVE, LINDENHURST, NY, 11757","Match","Exact","35 MAPLE DR, LINDENHURST, NY, 11757",113971767,"L"
539594,"35 MAPLEWOOD COURT","BALDWIN","NY",11510,40.6796949100001,-73.601721283,94,"35 MAPLEWOOD COURT, BALDWIN, NY, 11510","Match","Exact","35 MAPLEWOOD CT, BALDWIN, NY, 11510",147821488,"R"
539595,"35 MAPLEWOOD","BINGHAMTON","NY",13901,42.196530151,-75.846411351,95,"35 MAPLEWOOD, BINGHAMTON, NY, 13901","Match","Non_Exact","35 MAPLEWOOD DR, BINGHAMTON, NY, 13901",46336214,"L"
539596,"35 MARCH LANE","WESTBURY","NY",11590,40.7418924460001,-73.557719697,96,"35 MARCH LANE, WESTBURY, NY, 11590","Match","Exact","35 MARCH LN, WESTBURY, NY, 11590",147632233,"R"
539597,"35 MARLIN ROAD","CENTEREACH","NY",11720,40.87365808,-73.069168878,97,"35 MARLIN ROAD, CENTEREACH, NY, 11720","Match","Exact","35 MARLIN RD, CENTEREACH, NY, 11720",114002304,"L"
539598,"35 MARQUISE OAKS PLACE","THE WOODLANDS","TX",77382,30.2046030670001,-95.567736495,98,"35 MARQUISE OAKS PLACE, THE WOODLANDS, TX, 77382","Match","Exact","35 MARQUISE OAKS PL, THE WOODLANDS, TX, 77382",614131031,"L"
539599,"35 MARYHILL MUSEUM DRIVE","GOLDENDALE","WA",98620,45.679446043,-120.863108364,99,"35 MARYHILL MUSEUM DRIVE, GOLDENDALE, WA, 98620","Match","Exact","35 MARYHILL MUSEUM DR, GOLDENDALE, WA, 98620",175646594,"R"
539600,"35 MARYNUK RD","GUILFORD","VT",5301,42.7331423460001,-72.612212787,100,"35 MARYNUK RD, GUILFORD, VT, 5301","Match","Exact","35 MARYNUK RD, GUILFORD, VT, 05301",627260482,"L"
539601,"35 MAXSON AVENUE","FREEPORT","NY",11520,40.662950585,-73.594199972,101,"35 MAXSON AVENUE, FREEPORT, NY, 11520","Match","Exact","35 MAXSON AVE, FREEPORT, NY, 11520",147631262,"L"
539602,"35 MAXWELL AVE","GENEVA","NY",14456,42.875206217,-76.9937657,102,"35 MAXWELL AVE, GENEVA, NY, 14456","Match","Exact","35 MAXWELL AVE, GENEVA, NY, 14456",13469840,"R"
539603,"35 MAYFAIR DRIVE","WEST ORANGE","NJ",7052,40.8190591520001,-74.258917971,103,"35 MAYFAIR DRIVE, WEST ORANGE, NJ, 7052","Match","Exact","35 MAYFAIR DR, WEST ORANGE, NJ, 07052",63495454,"R"
539604,"35 MAYFIELD TERR","EAST LYME","CT",6333,41.384830391,-72.2168783179999,104,"35 MAYFIELD TERR, EAST LYME, CT, 6333","Match","Exact","35 MAYFIELD TER, EAST LYME, CT, 06333",56859681,"R"
539605,"35 MCCABE STREET","DARTMOUTH","MA",2748,41.6163629100001,-70.9440262219999,105,"35 MCCABE STREET, DARTMOUTH, MA, 2748","Match","Exact","35 MCCABE ST, DARTMOUTH, MA, 02748",623641082,"L"
539606,"35 MCKEE CIRCLE","NORTH LITTLE ROCK","AR",72116,34.8035388550001,-92.219541072,106,"35 MCKEE CIRCLE, NORTH LITTLE ROCK, AR, 72116","Match","Exact","35 MCKEE CIR, N LITTLE ROCK, AR, 72116",83553542,"L"
539607,"35 MCKINLEY AVENUE","HAWTHORNE","NJ",7506,40.9515511180001,-74.156087828,107,"35 MCKINLEY AVENUE, HAWTHORNE, NJ, 7506","Match","Exact","35 MCKINLEY AVE, HAWTHORNE, NJ, 07506",65263668,"R"
539608,"35 MCNULTY DRIVE","NEW MILFORD","CT",6776,41.6504714610001,-73.389196092,108,"35 MCNULTY DRIVE, NEW MILFORD, CT, 6776","Match","Exact","35 MCNULTY DR, NEW MILFORD, CT, 06776",637134826,"R"
539609,"35 MEADOW DRIVE","GILBERTSVILLE","PA",19525,40.309295589,-75.6291630329999,109,"35 MEADOW DRIVE, GILBERTSVILLE, PA, 19525","Match","Exact","35 MEADOW DR, GILBERTSVILLE, PA, 19525",605642908,"R"
539610,"35 MEADOW LANE","WHEELING","WV",26003,40.057530205,-80.675082775,110,"35 MEADOW LANE, WHEELING, WV, 26003","Match","Exact","35 MEADOW LN, WHEELING, WV, 26003",38090911,"R"
539611,"35 MEADOW RIDGE DRIVE","CORTE MADERA","CA",94925,37.9101464550001,-122.505916589,111,"35 MEADOW RIDGE DRIVE, CORTE MADERA, CA, 94925","Match","Exact","35 MEADOW RIDGE DR, CORTE MADERA, CA, 94925",605803218,"R"
539612,"35 MEADOW RUE","EDWARDSVILLE","IL",62025,38.7852206220001,-89.947168472,112,"35 MEADOW RUE, EDWARDSVILLE, IL, 62025","Match","Non_Exact","35 MEADOW RUE DR, EDWARDSVILLE, IL, 62025",107706071,"L"
539613,"35 MEADOWLARK DRIVE","WATCHUNG","NJ",7069,40.646703211,-74.436608521,113,"35 MEADOWLARK DRIVE, WATCHUNG, NJ, 7069","Match","Exact","35 MEADOWLARK DR, WATCHUNG, NJ, 07069",628634435,"L"
539614,"35 MEADOWLARK LANE","HIGHLAND","IL",62249,38.7382832100001,-89.658356839,114,"35 MEADOWLARK LANE, HIGHLAND, IL, 62249","Match","Exact","35 MEADOWLARK LN, HIGHLAND, IL, 62249",107732856,"L"
539615,"35 MEADOWRIDGE DRIVE","FAIRFIELD","CT",6484,41.3310992240001,-73.1248453269999,115,"35 MEADOWRIDGE DRIVE, FAIRFIELD, CT, 6484","Match","Non_Exact","35 MEADOWRIDGE DR, SHELTON, CT, 06484",624521464,"R"
539616,"35 MEDICAL CENTER PARKWAY","AUGUSTA","ME",4330,NA,NA,116,"35 MEDICAL CENTER PARKWAY, AUGUSTA, ME, 4330","No_Match",NA,NA,NA,NA
539617,"35 MELROSE AVE","TRY","NC",28782,35.2071749780001,-82.239651943,117,"35 MELROSE AVE, TRY, NC, 28782","Match","Non_Exact","35 MELROSE AVE, TRYON, NC, 28782",635644465,"R"
539618,"35 MELROSE AVE","TRYON","NC",28782,35.2071749780001,-82.239651943,118,"35 MELROSE AVE, TRYON, NC, 28782","Match","Exact","35 MELROSE AVE, TRYON, NC, 28782",635644465,"R"
539619,"35 MERCER ST","NEW YORK","NY",10013,40.721133007,-74.001556595,119,"35 MERCER ST, NEW YORK, NY, 10013","Match","Exact","35 MERCER ST, NEW YORK, NY, 10013",59660296,"L"
539620,"35 MEREDITH STREET","SPRINGFIELD","MA",1104,NA,NA,120,"35 MEREDITH STREET, SPRINGFIELD, MA, 1104","No_Match",NA,NA,NA,NA
539621,"35 MERRICK ROAD","FARMINGDALE","NJ",7727,40.205601126,-74.206108149,121,"35 MERRICK ROAD, FARMINGDALE, NJ, 7727","Match","Exact","35 MERRICK RD, FARMINGDALE, NJ, 07727",90505831,"L"
539622,"35 MERSEREAU AVE","MT. VERNON","NY",10553,40.9165369180001,-73.821057248,122,"35 MERSEREAU AVE, MT. VERNON, NY, 10553","Match","Exact","35 MERSEREAU AVE, MOUNT VERNON, NY, 10553",139842603,"R"
539623,"35 MICHEAL PLACE","SPARKS","NV",89441,39.6508736550001,-119.694261406,123,"35 MICHEAL PLACE, SPARKS, NV, 89441","Match","Non_Exact","35 MICHAEL PL, SPARKS, NV, 89441",107075881,"R"
539624,"35 MIDDLE ROAD","NARRAGANSETT","RI",2882,41.394452449,-71.472545592,124,"35 MIDDLE ROAD, NARRAGANSETT, RI, 2882","Match","Exact","35 MIDDLE RD, NARRAGANSETT, RI, 02882",58906981,"L"
539625,"35 MIDPARK LANE","LADUE","MO",63124,38.6374808260001,-90.388367939,125,"35 MIDPARK LANE, LADUE, MO, 63124","Match","Non_Exact","35 MIDPARK LN, CLAYTON, MO, 63124",100131903,"R"
539626,"35 MIDPARK LANE","SAINT LOUIS","MO",63124,38.6374808260001,-90.388367939,126,"35 MIDPARK LANE, SAINT LOUIS, MO, 63124","Match","Exact","35 MIDPARK LN, SAINT LOUIS, MO, 63124",100131903,"R"
539627,"35 MIDPARK LANE","ST LOUIS","MO",63124,38.6374808260001,-90.388367939,127,"35 MIDPARK LANE, ST LOUIS, MO, 63124","Match","Exact","35 MIDPARK LN, SAINT LOUIS, MO, 63124",100131903,"R"
539628,"35 MIDWAY FARMS LANE","LANCASTER","PA",17602,40.0395686950001,-76.243951818,128,"35 MIDWAY FARMS LANE, LANCASTER, PA, 17602","Match","Exact","35 MIDWAY FARMS LN, LANCASTER, PA, 17602",617105713,"L"
539629,"35 MILL STONE CIRCLE","STAMFORD","CT",6903,41.127104403,-73.587031955,129,"35 MILL STONE CIRCLE, STAMFORD, CT, 6903","Match","Exact","35 MILL STONE CIR, STAMFORD, CT, 06903",3257579,"R"
539630,"35 MINTER LANE","RIVERTON","WY",82501,43.067185054,-108.407246164,130,"35 MINTER LANE, RIVERTON, WY, 82501","Match","Exact","35 MINTER LN, RIVERTON, WY, 82501",645503499,"L"
539631,"35 MITCHELL BLVD SUITE 6","SAN RAFAEL","CA",94903,38.0170311580001,-122.53891072,131,"35 MITCHELL BLVD SUITE 6, SAN RAFAEL, CA, 94903","Match","Exact","35 MITCHELL BLVD, SAN RAFAEL, CA, 94903",192762421,"L"
539632,"35 MITCHELL BLVD SUITE 6","SONOMA","CA",95476,NA,NA,132,"35 MITCHELL BLVD SUITE 6, SONOMA, CA, 95476","No_Match",NA,NA,NA,NA
539633,"35 MOLLY CIRCLE","SINKING SPRING","PA",19608,NA,NA,133,"35 MOLLY CIRCLE, SINKING SPRING, PA, 19608","No_Match",NA,NA,NA,NA
539634,"35 MONAHAN LANE","NAUGATUCK","CT",6770,41.510098198,-73.0283067139999,134,"35 MONAHAN LANE, NAUGATUCK, CT, 6770","Match","Exact","35 MONAHAN LN, NAUGATUCK, CT, 06770",627399084,"R"
539635,"35 MONMOUTH AVE","N MIDDLETOWN","NJ",7748,40.44402803,-74.116388757,135,"35 MONMOUTH AVE, N MIDDLETOWN, NJ, 7748","Match","Exact","35 MONMOUTH AVE, NORTH MIDDLETOWN, NJ, 07748",90468934,"L"
539636,"35 MONROE PLACE","STATEN ISLAND","NY",10314,40.599779321,-74.126355119,136,"35 MONROE PLACE, STATEN ISLAND, NY, 10314","Match","Exact","35 MONROE PL, STATEN ISLAND, NY, 10314",59876524,"R"
539637,"35 MONROE ST","SHREWSBURY","MA",1545,42.2881593160001,-71.719180545,137,"35 MONROE ST, SHREWSBURY, MA, 1545","Match","Exact","35 MONROE ST, SHREWSBURY, MA, 01545",40016144,"L"
539638,"35 MONTGOMERY STREET 16G","NEW YORK","NY",10002,40.7130244520001,-73.9850405879999,138,"35 MONTGOMERY STREET 16G, NEW YORK, NY, 10002","Match","Exact","35 MONTGOMERY ST, NEW YORK, NY, 10002",59663657,"L"
539639,"35 MONTY MARTIN ROAD","CLARKSDALE","MS",36614,NA,NA,139,"35 MONTY MARTIN ROAD, CLARKSDALE, MS, 36614","No_Match",NA,NA,NA,NA
539640,"35 MORAY LANE","SEWELLL","NJ",8080,39.714365973,-75.0736351149999,140,"35 MORAY LANE, SEWELLL, NJ, 8080","Match","Non_Exact","35 MORAY LN, SEWELL, NJ, 08080",632593333,"R"
539641,"35 MORIN CIRCLE","WEST HENRIETTA","NY",14586,43.027938351,-77.666102124,141,"35 MORIN CIRCLE, WEST HENRIETTA, NY, 14586","Match","Exact","35 MORIN CIR, W HENRIETTA, NY, 14586",14581086,"L"
539642,"35 MORTON STREET","SPRINGFIELD","MA",1119,42.1296772810001,-72.526549817,142,"35 MORTON STREET, SPRINGFIELD, MA, 1119","Match","Exact","35 MORTON ST, SPRINGFIELD, MA, 01119",632997749,"L"
539643,"35 MORTON","SPRINGFIELD","MA",1119,42.1296772810001,-72.526549817,143,"35 MORTON, SPRINGFIELD, MA, 1119","Match","Non_Exact","35 MORTON ST, SPRINGFIELD, MA, 01119",632997749,"L"
539644,"35 MOUNT MORRIS PARK WEST 2D","NEW YORK","NY",10027,40.805848155,-73.9447250379999,144,"35 MOUNT MORRIS PARK WEST 2D, NEW YORK, NY, 10027","Match","Exact","35 MOUNT MORRIS PARK W, NEW YORK, NY, 10027",59656440,"L"
539645,"35 MOUNTAIN CIRCLE NORTH","WEST MILFORD","NJ",7480,41.117457947,-74.3504332109999,145,"35 MOUNTAIN CIRCLE NORTH, WEST MILFORD, NJ, 7480","Match","Non_Exact","35 MOUNTAIN CIR, WEST MILFORD, NJ, 07480",65274303,"L"
539646,"35 MOUNTAIN WAY","WEST ORANGE","NJ",7052,40.76291673,-74.264815856,146,"35 MOUNTAIN WAY, WEST ORANGE, NJ, 7052","Match","Exact","35 MOUNTAIN WAY, WEST ORANGE, NJ, 07052",63460889,"R"
539647,"35 MT LAUREL ROAD","HAINSPORT","NJ",8063,NA,NA,147,"35 MT LAUREL ROAD, HAINSPORT, NJ, 8063","No_Match",NA,NA,NA,NA
539648,"35 MUNROE ST","SHREWSBURY","MA",1545,NA,NA,148,"35 MUNROE ST, SHREWSBURY, MA, 1545","No_Match",NA,NA,NA,NA
539649,"35 MYRTLE AVE","FITCHBURG","MA",1420,42.58294871,-71.790854037,149,"35 MYRTLE AVE, FITCHBURG, MA, 1420","Match","Exact","35 MYRTLE AVE, FITCHBURG, MA, 01420",40075798,"L"
539650,"35 MYRTLE AVENUE","HAVERTOWN","PA",19083,39.9732352460001,-75.2850563109999,150,"35 MYRTLE AVENUE, HAVERTOWN, PA, 19083","Match","Exact","35 MYRTLE AVE, HAVERTOWN, PA, 19083",134898707,"R"
539651,"35 N 300 W STE 346","PROVO","UT",84601,NA,NA,151,"35 N 300 W STE 346, PROVO, UT, 84601","No_Match",NA,NA,NA,NA
539652,"35 N 400 W","HYRUM","UT",84319,41.635066282,-111.866369531,152,"35 N 400 W, HYRUM, UT, 84319","Match","Exact","35 N 400 W, HYRUM, UT, 84319",155094687,"L"
539653,"35 N 5TH ST FL2","NEWARK","NJ",7107,40.7490986270001,-74.191504938,153,"35 N 5TH ST FL2, NEWARK, NJ, 7107","Match","Exact","35 5TH ST, NEWARK, NJ, 07107",63465672,"R"
539654,"35 N BEDFORD STREET APT 4","ARLINGTON","VA",22201,NA,NA,154,"35 N BEDFORD STREET APT 4, ARLINGTON, VA, 22201","No_Match",NA,NA,NA,NA
539655,"35 N BLUFF CREEK CIR","THE WOODLANDS","TX",77382,NA,NA,155,"35 N BLUFF CREEK CIR, THE WOODLANDS, TX, 77382","Tie",NA,NA,NA,NA
539656,"35 N CEDAR AVE NO 3","MONTROSE","CO",81401,38.486931326,-107.866623029,156,"35 N CEDAR AVE NO 3, MONTROSE, CO, 81401","Match","Non_Exact","35 CEDAR AVE, MONTROSE, CO, 81401",122540964,"L"
539657,"35 N CHATSWORTH AVE","LARCHMONT","NY",10538,40.9383543490001,-73.765490391,157,"35 N CHATSWORTH AVE, LARCHMONT, NY, 10538","Match","Exact","35 N CHATSWORTH AVE, LARCHMONT, NY, 10538",139751904,"L"
539658,"35 N CHATSWORTH AVENUE","LARCHMONT","NY",10538,40.9383543490001,-73.765490391,158,"35 N CHATSWORTH AVENUE, LARCHMONT, NY, 10538","Match","Exact","35 N CHATSWORTH AVE, LARCHMONT, NY, 10538",139751904,"L"
539659,"35 N HIGHLAND AVENUE","LANSDOWNE","PA",19050,39.940084364,-75.2709989429999,159,"35 N HIGHLAND AVENUE, LANSDOWNE, PA, 19050","Match","Exact","35 N HIGHLAND AVE, LANSDOWNE, PA, 19050",134877919,"R"
539660,"35 N MOORE STREET APT 3B","NEW YORK","NY",10013,40.7030017800001,-74.01245625,160,"35 N MOORE STREET APT 3B, NEW YORK, NY, 10013","Match","Non_Exact","35 MOORE ST, NEW YORK, NY, 10004",59660668,"L"
539661,"35 N MORGAN ST","PORTLAND","OR",97217,45.5744374710001,-122.667565134,161,"35 N MORGAN ST, PORTLAND, OR, 97217","Match","Exact","35 N MORGAN ST, PORTLAND, OR, 97217",157502179,"R"
539662,"35 N OAK PLAZA","SIOUX FALLS","SD",57110,43.566771224,-96.6619298689999,162,"35 N OAK PLAZA, SIOUX FALLS, SD, 57110","Match","Non_Exact","35 N OAK PL, SIOUX FALLS, SD, 57110",635589015,"L"
539663,"35 N ORCHARD AVE","WAUKEGAN","IL",60085,42.360220473,-87.8612492999999,163,"35 N ORCHARD AVE, WAUKEGAN, IL, 60085","Match","Exact","35 N ORCHARD AVE, WAUKEGAN, IL, 60085",119641569,"R"
539664,"35 N PARRAMORE ST","ORLANDO","FL",32805,NA,NA,164,"35 N PARRAMORE ST, ORLANDO, FL, 32805","No_Match",NA,NA,NA,NA
539665,"35 N RAYMOND AVE 214","PASADENA","CA",91103,34.146466107,-118.148903667,165,"35 N RAYMOND AVE 214, PASADENA, CA, 91103","Match","Non_Exact","35 N RAYMOND AVE, PASADENA, CA, 91103",652037561,"L"
539666,"35 N SAGINAW STREET","PONTIAC","MI",48342,42.637856981,-83.292343054,166,"35 N SAGINAW STREET, PONTIAC, MI, 48342","Match","Exact","35 N SAGINAW ST, PONTIAC, MI, 48342",69705525,"L"
539667,"35 N SATSUMA DR","PROVIDENCE","UT",84332,41.7071627,-111.804265893,167,"35 N SATSUMA DR, PROVIDENCE, UT, 84332","Match","Exact","35 N SATSUMA DR, PROVIDENCE, UT, 84332",155095624,"L"
539668,"35 N SPRING LANE","PHOENIXVILLE","PA",19460,NA,NA,168,"35 N SPRING LANE, PHOENIXVILLE, PA, 19460","Tie",NA,NA,NA,NA
539669,"35 NAMPAUGH ROAD","PUTNAM VALLEY","NY",10579,41.402373304,-73.8432270759999,169,"35 NAMPAUGH ROAD, PUTNAM VALLEY, NY, 10579","Match","Exact","35 NAMPAUGH RD, PUTNAM VALLEY, NY, 10579",633881391,"R"
539670,"35 NANCY LANE","DOWNINGTOWN","PA",19335,39.9996612830001,-75.733630644,170,"35 NANCY LANE, DOWNINGTOWN, PA, 19335","Match","Exact","35 NANCY LN, DOWNINGTOWN, PA, 19335",642921426,"L"
539671,"35 NANETTE DR","NEWNAN","GA",30265,33.413416226,-84.687631497,171,"35 NANETTE DR, NEWNAN, GA, 30265","Match","Exact","35 NANETTE DR, NEWNAN, GA, 30265",9339826,"R"
539672,"35 NANTUCKET DR","PALM COAST","FL",32137,29.625166585,-81.196831636,172,"35 NANTUCKET DR, PALM COAST, FL, 32137","Match","Exact","35 NANTUCKET DR, PALM COAST, FL, 32137",636361413,"L"
539673,"35 NAPLES AVE","BELLEVILLE","NJ",7109,40.784066716,-74.1820542579999,173,"35 NAPLES AVE, BELLEVILLE, NJ, 7109","Match","Exact","35 NAPLES AVE, BELLEVILLE, NJ, 07109",63480758,"L"
539674,"35 NATHAN DR","CLINTON","MA",1510,42.4252936180001,-71.673279145,174,"35 NATHAN DR, CLINTON, MA, 1510","Match","Exact","35 NATHAN DR, CLINTON, MA, 01510",40115584,"R"
539675,"35 NE 67TH ST","OKLAHOMA CITY","OK",73105,35.540051819,-97.5114622569999,175,"35 NE 67TH ST, OKLAHOMA CITY, OK, 73105","Match","Exact","35 NE 67TH ST, OKLAHOMA CITY, OK, 73105",100395462,"L"
539676,"35 NELSON DRIVE","EXTER","RI",2822,41.593827907,-71.594902196,176,"35 NELSON DRIVE, EXTER, RI, 2822","Match","Non_Exact","35 NELSON DR, EXETER, RI, 02822",624000568,"R"
539677,"35 NELSON ST","CAZENOVIA","NY",13035,42.928060024,-75.845756831,177,"35 NELSON ST, CAZENOVIA, NY, 13035","Match","Exact","35 NELSON ST, CAZENOVIA, NY, 13035",46497393,"R"
539678,"35 NEW RD","SALISBURY","NH",3268,43.4018261190001,-71.718103376,178,"35 NEW RD, SALISBURY, NH, 3268","Match","Exact","35 NEW RD, SALISBURY, NH, 03268",626977705,"L"
539679,"35 NEWBURY PARK","NEEDHAM","MA",2492,42.277114457,-71.2140443549999,179,"35 NEWBURY PARK, NEEDHAM, MA, 2492","Match","Exact","35 NEWBURY PARK, NEEDHAM, MA, 02492",87242567,"R"
539680,"35 NEWELL CT","AMHERST","MA",1002,42.377680019,-72.512334999,180,"35 NEWELL CT, AMHERST, MA, 1002","Match","Exact","35 NEWELL CT, AMHERST, MA, 01002",39844601,"L"
539681,"35 NORMA DRIVE","LOON LAKE","NY",12989,44.5496117700001,-74.0535230839999,181,"35 NORMA DRIVE, LOON LAKE, NY, 12989","Match","Exact","35 NORMA DR, LOON LAKE, NY, 12989",632190982,"L"
539682,"35 NORTH BERWICK DRIVE","SAVANNAH","GA",31406,31.998494883,-81.137903271,182,"35 NORTH BERWICK DRIVE, SAVANNAH, GA, 31406","Match","Exact","35 N BERWICK DR, SAVANNAH, GA, 31406",636154118,"L"
539683,"35 NORTH DEBONAIR CT","PAGOSA SPRINGS","CO",81147,NA,NA,183,"35 NORTH DEBONAIR CT, PAGOSA SPRINGS, CO, 81147","No_Match",NA,NA,NA,NA
539684,"35 NORTH GREAT RD","LINCOLN","MA",1773,42.4525044760001,-71.302548719,184,"35 NORTH GREAT RD, LINCOLN, MA, 1773","Match","Exact","35 N GREAT RD, LINCOLN, MA, 01773",86845517,"R"
539685,"35 NORTH HILLS DRIVE","RISING SUN","MD",21911,39.708200704,-76.06322004,185,"35 NORTH HILLS DRIVE, RISING SUN, MD, 21911","Match","Exact","35 N HILLS DR, RISING SUN, MD, 21911",207858423,"L"
539686,"35 NORTH IDLEWILD APT 1","MEMPPHIS","TN",38104,35.138286443,-90.001055217,186,"35 NORTH IDLEWILD APT 1, MEMPPHIS, TN, 38104","Match","Non_Exact","35 N IDLEWILD ST, MEMPHIS, TN, 38104",72912351,"L"
539687,"35 NORTH JACKSON AVENUE","BROWNSVILLE","TN",38012,35.594504713,-89.2610842619999,187,"35 NORTH JACKSON AVENUE, BROWNSVILLE, TN, 38012","Match","Exact","35 N JACKSON AVE, BROWNSVILLE, TN, 38012",618080660,"L"
539688,"35 NORTH ROAD","WHITE PLAINS","NY",10603,41.054814402,-73.7803885449999,188,"35 NORTH ROAD, WHITE PLAINS, NY, 10603","Match","Exact","35 NORTH RD, WHITE PLAINS, NY, 10603",139738502,"R"
539689,"35 NORTH ROBY ROAD","MADISON","WI",53726,43.0692742420001,-89.4190995179999,189,"35 NORTH ROBY ROAD, MADISON, WI, 53726","Match","Exact","35 N ROBY RD, MADISON, WI, 53726",49530273,"R"
539690,"35 NORTHAM AVE","SAN CARLOS","CA",94070,37.5071075500001,-122.273657626,190,"35 NORTHAM AVE, SAN CARLOS, CA, 94070","Match","Exact","35 NORTHAM AVE, SAN CARLOS, CA, 94070",192382039,"L"
539691,"35 NORTHAM","SAN CARLOS","CA",94070,37.5071075500001,-122.273657626,191,"35 NORTHAM, SAN CARLOS, CA, 94070","Match","Non_Exact","35 NORTHAM AVE, SAN CARLOS, CA, 94070",192382039,"L"
539692,"35 NORTHHAMPTON","BOSTON","MA",2118,NA,NA,192,"35 NORTHHAMPTON, BOSTON, MA, 2118","No_Match",NA,NA,NA,NA
539693,"35 NORWAY ROAD","BANGOR","ME",4401,44.7979699050001,-68.7992462349999,193,"35 NORWAY ROAD, BANGOR, ME, 4401","Match","Exact","35 NORWAY RD, BANGOR, ME, 04401",638072941,"R"
539694,"35 NORWICH","PLEASANT RIDGE","MI",48069,42.4706018850001,-83.1505436259999,194,"35 NORWICH, PLEASANT RIDGE, MI, 48069","Match","Non_Exact","35 NORWICH RD, PLEASANT RDG, MI, 48069",629087673,"L"
539695,"35 NOTTINGHAM ROAD","CLINTON CRS.","NY",12514,41.839797235,-73.75681767,195,"35 NOTTINGHAM ROAD, CLINTON CRS., NY, 12514","Match","Non_Exact","35 NOTTINGHAM RD, CLINTON CORS, NY, 12514",619931273,"L"
539696,"35 NOYES RD","LONDONDERRY","NH",3053,42.909519076,-71.380708532,196,"35 NOYES RD, LONDONDERRY, NH, 3053","Match","Exact","35 NOYES RD, LONDONDERRY, NH, 03053",113694754,"R"
539697,"35 NOYES STREET","WARWICK","RI",2886,41.69883966,-71.430161949,197,"35 NOYES STREET, WARWICK, RI, 2886","Match","Exact","35 NOYES ST, WARWICK, RI, 02886",159148143,"R"
539698,"35 NW 161 STREET","MIAMI","FL",33169,25.92257233,-80.200955388,198,"35 NW 161 STREET, MIAMI, FL, 33169","Match","Exact","35 NW 161ST ST, MIAMI, FL, 33169",116031048,"R"
539699,"35 NW 168 STREET","NORTH MIAMI BEACH","FL",33169,25.928986003,-80.201123535,199,"35 NW 168 STREET, NORTH MIAMI BEACH, FL, 33169","Match","Exact","35 NW 168TH ST, N MIAMI BEACH, FL, 33169",116030987,"R"
539700,"35 NW 195ST","MIAMI","FL",33169,NA,NA,200,"35 NW 195ST, MIAMI, FL, 33169","No_Match",NA,NA,NA,NA
539701,"35 NW 195TH STREET","MIAMI","FL",33169,25.9536057450001,-80.202067642,201,"35 NW 195TH STREET, MIAMI, FL, 33169","Match","Exact","35 NW 195TH ST, MIAMI, FL, 33169",116030419,"R"
539702,"35 NW 44 STREET","MIAMI","FL",33127,25.8159868590001,-80.1962837039999,202,"35 NW 44 STREET, MIAMI, FL, 33127","Match","Exact","35 NW 44TH ST, MIAMI, FL, 33127",116007513,"R"
539703,"35 OAK RIDGE RD","BETHEL","CT",6801,NA,NA,203,"35 OAK RIDGE RD, BETHEL, CT, 6801","Tie",NA,NA,NA,NA
539704,"35 OAK STREET","INDIAN ORCHARD","MA",1151,42.15935405,-72.5031705439999,204,"35 OAK STREET, INDIAN ORCHARD, MA, 1151","Match","Exact","35 OAK ST, INDIAN ORCHARD, MA, 01151",4024715,"L"
539705,"35 OAKDALE RD","STAMFORD","CT",6906,41.07265935,-73.514524083,205,"35 OAKDALE RD, STAMFORD, CT, 6906","Match","Exact","35 OAKDALE RD, STAMFORD, CT, 06906",3246631,"R"
539706,"35 OAKLAND HILLS PL","ROTONDA WEST","FL",33947,26.8886893110001,-82.291305071,206,"35 OAKLAND HILLS PL, ROTONDA WEST, FL, 33947","Match","Exact","35 OAKLAND HILLS PL, ROTONDA WEST, FL, 33947",4295611,"R"
539707,"35 OAKRIDGE ESTATES RD","DANVILLE","WV",25053,NA,NA,207,"35 OAKRIDGE ESTATES RD, DANVILLE, WV, 25053","No_Match",NA,NA,NA,NA
539708,"35 OAKWOOD DRIVE","MONROE","LA",71203,32.556662961,-92.0598301219999,208,"35 OAKWOOD DRIVE, MONROE, LA, 71203","Match","Exact","35 OAKWOOD DR, MONROE, LA, 71203",645469562,"L"
539709,"35 OAKWOOD DRIVE","WILLIAMSON","WV",25661,NA,NA,209,"35 OAKWOOD DRIVE, WILLIAMSON, WV, 25661","No_Match",NA,NA,NA,NA
539710,"35 OCEAN AVENUE","VALLEY STREAM","NY",11580,40.6750425970001,-73.727157059,210,"35 OCEAN AVENUE, VALLEY STREAM, NY, 11580","Match","Exact","35 OCEAN AVE, VALLEY STREAM, NY, 11580",59699075,"R"
539711,"35 OCEAN PATHWAY APT 1","OCEAN GROVE","NJ",7756,40.2139258830001,-74.004420169,211,"35 OCEAN PATHWAY APT 1, OCEAN GROVE, NJ, 7756","Match","Exact","35 OCEAN PATHWAY, OCEAN GROVE, NJ, 07756",90465050,"R"
539712,"35 OKALA ROAD","WEYMOUTH","MA",2189,42.221489741,-70.916318539,212,"35 OKALA ROAD, WEYMOUTH, MA, 2189","Match","Exact","35 OKALA RD, WEYMOUTH, MA, 02189",87253520,"R"
539713,"35 OLD CEDAR VILLAGE","BRIDGEWATER","MA",2188,NA,NA,213,"35 OLD CEDAR VILLAGE, BRIDGEWATER, MA, 2188","No_Match",NA,NA,NA,NA
539714,"35 OLD DUDLEY ROAD","OXFORD","MA",1540,NA,NA,214,"35 OLD DUDLEY ROAD, OXFORD, MA, 1540","Tie",NA,NA,NA,NA
539715,"35 OLD FIELDS RD","CHILMARK","MA",2535,41.3651952010001,-70.6707333099999,215,"35 OLD FIELDS RD, CHILMARK, MA, 2535","Match","Non_Exact","35 OLD FIELDS PATH, CHILMARK, MA, 02535",639672333,"R"
539716,"35 OLD MILL RD","KANE","PA",16735,41.6457465890001,-78.8122879109999,216,"35 OLD MILL RD, KANE, PA, 16735","Match","Exact","35 OLD MILL RD, KANE, PA, 16735",122644677,"R"
539717,"35 OLD POST ROAD","FREEHOLD","NJ",7728,40.2238832420001,-74.278782629,217,"35 OLD POST ROAD, FREEHOLD, NJ, 7728","Match","Exact","35 OLD POST RD, FREEHOLD, NJ, 07728",90448458,"R"
539718,"35 OLD TOWN TRAIL","NARRAGANSETT","RI",2882,41.4802817440001,-71.433292416,218,"35 OLD TOWN TRAIL, NARRAGANSETT, RI, 2882","Match","Exact","35 OLD TOWN TRL, NARRAGANSETT, RI, 02882",58906112,"R"
539719,"35 OLDFIELDS RD","SOUTH BERWICK","ME",3908,43.211567003,-70.8089279009999,219,"35 OLDFIELDS RD, SOUTH BERWICK, ME, 3908","Match","Exact","35 OLDFIELDS RD, SOUTH BERWICK, ME, 03908",92788600,"R"
539720,"35 OLDS STREET","NORTH ADAMS","MA",1247,42.6988941760001,-73.1447881029999,220,"35 OLDS STREET, NORTH ADAMS, MA, 1247","Match","Exact","35 OLDS ST, NORTH ADAMS, MA, 01247",3915260,"R"
539721,"35 ORCHARD STREET","WILLIAMS BAY","WI",53191,42.576168087,-88.548953544,221,"35 ORCHARD STREET, WILLIAMS BAY, WI, 53191","Match","Exact","35 ORCHARD ST, WILLIAMS BAY, WI, 53191",53669544,"R"
539722,"35 OREGON AVE","MOUNT LAUREL","NJ",8054,39.9321265840001,-74.9656805449999,222,"35 OREGON AVE, MOUNT LAUREL, NJ, 8054","Match","Exact","35 OREGON AVE, MOUNT LAUREL, NJ, 08054",134056891,"R"
539723,"35 OVERHILL ROAD","BALA CYNWYD","PA",19004,40.0156594640001,-75.2359697379999,223,"35 OVERHILL ROAD, BALA CYNWYD, PA, 19004","Match","Exact","35 OVERHILL RD, BALA CYNWYD, PA, 19004",135091360,"L"
539724,"35 OXEN LANE","BLUFFTON","SC",29910,32.29579088,-80.8701287329999,224,"35 OXEN LANE, BLUFFTON, SC, 29910","Match","Exact","35 OXEN LN, BLUFFTON, SC, 29910",649915011,"L"
539725,"35 PADDOCK PLACE","NEWBURGH","NY",12550,41.518684056,-74.083079551,225,"35 PADDOCK PLACE, NEWBURGH, NY, 12550","Match","Exact","35 PADDOCK PL, NEWBURGH, NY, 12550",124411559,"L"
539726,"35 PAERDEGAT 3RD ST","BROOKLYN","NY",11236,40.6318102010001,-73.9110756119999,226,"35 PAERDEGAT 3RD ST, BROOKLYN, NY, 11236","Match","Exact","35 PAERDEGAT 3RD ST, BROOKLYN, NY, 11236",59086495,"L"
539727,"35 PALLADIO WAY","NEWNAN","GA",30263,33.4027890890001,-84.79977784,227,"35 PALLADIO WAY, NEWNAN, GA, 30263","Match","Exact","35 PALLADIO WAY, NEWNAN, GA, 30263",9343905,"R"
539728,"35 PALOMA HTS  202","COLORADO SPRINGS","CO",80921,39.0308899510001,-104.827268156,228,"35 PALOMA HTS  202, COLORADO SPRINGS, CO, 80921","Match","Exact","35 PALOMA HTS, COLORADO SPRINGS, CO, 80921",625136190,"R"
539729,"35 PANORAMA LANE","CODY","WY",82414,44.44291214,-109.181658194,229,"35 PANORAMA LANE, CODY, WY, 82414","Match","Exact","35 PANORAMA LN, CODY, WY, 82414",612519736,"L"
539730,"35 PARK AVE","SUFFERN","NY",10901,41.1142907560001,-74.1519432859999,230,"35 PARK AVE, SUFFERN, NY, 10901","Match","Exact","35 PARK AVE, SUFFERN, NY, 10901",124601705,"R"
539731,"35 PARK AVENUE","NEW YORK","NY",10016,40.748251849,-73.980478391,231,"35 PARK AVENUE, NEW YORK, NY, 10016","Match","Exact","35 PARK AVE, NEW YORK, NY, 10016",59654421,"R"
539732,"35 PARK LANE RD","NEW MILFORD","CT",6776,41.594916922,-73.406494064,232,"35 PARK LANE RD, NEW MILFORD, CT, 6776","Match","Exact","35 PARK LANE RD, NEW MILFORD, CT, 06776",611473275,"L"
539733,"35 PARK LANE","HOOKSETT","NH",3106,NA,NA,233,"35 PARK LANE, HOOKSETT, NH, 3106","No_Match",NA,NA,NA,NA
539734,"35 PARKMAN","DORCHESTER","MA",2122,NA,NA,234,"35 PARKMAN, DORCHESTER, MA, 2122","Tie",NA,NA,NA,NA
539735,"35 PARKS RD","PLYMOUTH","MA",2360,41.9777359030001,-70.6958885779999,235,"35 PARKS RD, PLYMOUTH, MA, 2360","Match","Exact","35 PARK RD, PLYMOUTH, MA, 02360",87511841,"L"
539736,"35 PARKWOOD ST","ALBANY","NY",12208,42.6559398570001,-73.792530153,236,"35 PARKWOOD ST, ALBANY, NY, 12208","Match","Exact","35 PARKWOOD ST, ALBANY, NY, 12208",18308659,"L"
539737,"35 PARTRIDGE HOLLOW ROAD","VASSALBORO","ME",4989,44.4219051330001,-69.617521476,237,"35 PARTRIDGE HOLLOW ROAD, VASSALBORO, ME, 4989","Match","Non_Exact","35 PARTRIDGE HOLLOW DR, VASSALBORO, ME, 04989",631616023,"L"
539738,"35 PATRICK LANE","BRANFORD","CT",6406,NA,NA,238,"35 PATRICK LANE, BRANFORD, CT, 6406","No_Match",NA,NA,NA,NA
539739,"35 PATTERSON RD - UNIT 464333","LAWRENCEVILLE","GA",30042,NA,NA,239,"35 PATTERSON RD - UNIT 464333, LAWRENCEVILLE, GA, 30042","No_Match",NA,NA,NA,NA
539740,"35 PATTERSON RD SUITE 465293","LAWRENCEVILLE","GA",30042,NA,NA,240,"35 PATTERSON RD SUITE 465293, LAWRENCEVILLE, GA, 30042","No_Match",NA,NA,NA,NA
539741,"35 PATTERSON ROAD 464907","LAWRENCEVILLE","GA",30042,NA,NA,241,"35 PATTERSON ROAD 464907, LAWRENCEVILLE, GA, 30042","No_Match",NA,NA,NA,NA
539742,"35 PATTERSON ROAD UNIT 464065","LAWRENCEVILLE","GA",30042,NA,NA,242,"35 PATTERSON ROAD UNIT 464065, LAWRENCEVILLE, GA, 30042","No_Match",NA,NA,NA,NA
539743,"35 PATTON DRIVE","SOMERSET","NJ",8873,40.4999951610001,-74.4950589169999,243,"35 PATTON DRIVE, SOMERSET, NJ, 8873","Match","Exact","35 PATTON DR, SOMERSET, NJ, 08873",59942213,"L"
539744,"35 PEARL STREET SUITE 301","NEW BRITAIN","CT",6051,41.6630962030001,-72.778704789,244,"35 PEARL STREET SUITE 301, NEW BRITAIN, CT, 6051","Match","Exact","35 PEARL ST, NEW BRITAIN, CT, 06051",3511288,"R"
539745,"35 PEGASUS DRIVE","TINTON FALLS","NJ",7724,40.316576856,-74.1061781499999,245,"35 PEGASUS DRIVE, TINTON FALLS, NJ, 7724","Match","Exact","35 PEGASUS DR, TINTON FALLS, NJ, 07724",601178037,"L"
539746,"35 PEMBROKE COURT","BAYSHORE","NY",11706,40.741256165,-73.25773011,246,"35 PEMBROKE COURT, BAYSHORE, NY, 11706","Match","Non_Exact","35 PEMBROOKE CT, BAY SHORE, NY, 11706",113995737,"L"
539747,"35 PERRY ROAD","ORANGE","MA",1364,42.5644125050001,-72.2755071129999,247,"35 PERRY ROAD, ORANGE, MA, 1364","Match","Exact","35 PERRY RD, ORANGE, MA, 01364",39921306,"L"
539748,"35 PETTEBONE STREET","SWOYERSVILLE","PA",18704,41.290930949,-75.892681532,248,"35 PETTEBONE STREET, SWOYERSVILLE, PA, 18704","Match","Exact","35 PETTEBONE ST, SWOYERSVILLE, PA, 18704",80910931,"R"
539749,"35 PHIL COURT","MCDONOUGH","GA",30252,33.466859115,-84.0679558959999,249,"35 PHIL COURT, MCDONOUGH, GA, 30252","Match","Exact","35 PHIL CT, MCDONOUGH, GA, 30252",23192148,"L"
539750,"35 PHYLLIS DRIVE","PATCHOGUE","NY",11772,40.7692690420001,-72.996407882,250,"35 PHYLLIS DRIVE, PATCHOGUE, NY, 11772","Match","Exact","35 PHYLLIS DR, PATCHOGUE, NY, 11772",114013313,"R"
539751,"35 PIERCE DRIVE","NOVATO","CA",94947,38.0851441300001,-122.57373169,251,"35 PIERCE DRIVE, NOVATO, CA, 94947","Match","Exact","35 PIERCE DR, NOVATO, CA, 94947",192760910,"L"
539752,"35 PIKES HILL ROAD","STERLING","MA",1564,42.4247562400001,-71.8272722359999,252,"35 PIKES HILL ROAD, STERLING, MA, 1564","Match","Exact","35 PIKES HILL RD, STERLING, MA, 01564",40059459,"L"
539753,"35 PILGRIM VILLAGE ROAD UNIT 1202","TAUNTON","MA",2780,41.886862707,-71.061726177,253,"35 PILGRIM VILLAGE ROAD UNIT 1202, TAUNTON, MA, 2780","Match","Exact","35 PILGRIM VILLAGE RD, TAUNTON, MA, 02780",46810968,"L"
539754,"35 PILLSBURY PASTURE RD","KINGSTON","NH",3848,42.8700626930001,-71.075929442,254,"35 PILLSBURY PASTURE RD, KINGSTON, NH, 3848","Match","Exact","35 PILLSBURY PASTURE RD, KINGSTON, NH, 03848",113709749,"R"
539755,"35 PINCKNEY STREET","BOSTON","MA",2114,42.358877143,-71.066359112,255,"35 PINCKNEY STREET, BOSTON, MA, 2114","Match","Exact","35 PINCKNEY ST, BOSTON, MA, 02114",85728189,"R"
539756,"35 PINE HILL ROAD","CHELMSFORD","MA",1824,42.5990981740001,-71.371948555,256,"35 PINE HILL ROAD, CHELMSFORD, MA, 1824","Match","Exact","35 PINE HILL RD, CHELMSFORD, MA, 01824",646857330,"R"
539757,"35 PINE HILL ROAD","SOUTHBOROUGH","MA",1772,42.316984065,-71.4889191509999,257,"35 PINE HILL ROAD, SOUTHBOROUGH, MA, 1772","Match","Exact","35 PINE HILL RD, SOUTHBOROUGH, MA, 01772",40104907,"L"
539758,"35 PINE ST","SCHERERVILLE","IN",46375,41.5222962600001,-87.48450516,258,"35 PINE ST, SCHERERVILLE, IN, 46375","Match","Exact","35 PINE ST, SCHERERVILLE, IN, 46375",98422436,"R"
539759,"35 PINE STREET","PETERSBURG","WV",26847,38.9957093900001,-79.120951396,259,"35 PINE STREET, PETERSBURG, WV, 26847","Match","Exact","35 PINE ST, PETERSBURG, WV, 26847",56032346,"R"
539760,"35 PINE","SUSANVILLE","CA",96130,NA,NA,260,"35 PINE, SUSANVILLE, CA, 96130","No_Match",NA,NA,NA,NA
539761,"35 PINEHURST COURT","PHOENXIVILLE","PA",19460,40.098574345,-75.4942565649999,261,"35 PINEHURST COURT, PHOENXIVILLE, PA, 19460","Match","Non_Exact","35 PINEHURST CT, PHOENIXVILLE, PA, 19460",179513933,"R"
539762,"35 PINEHURST DR","WAREHAM","MA",2571,41.7484129330001,-70.7125850689999,262,"35 PINEHURST DR, WAREHAM, MA, 2571","Match","Exact","35 PINEHURST DR, WAREHAM, MA, 02571",87455151,"L"
539763,"35 PINEVALE AVE","READING","MA",1867,42.5145925780001,-71.105174679,263,"35 PINEVALE AVE, READING, MA, 1867","Match","Exact","35 PINEVALE AVE, READING, MA, 01867",86903011,"R"
539764,"35 PIPING ROCK CIRCLE","SARATOGA","NY",12866,43.0702398980001,-73.7389707,264,"35 PIPING ROCK CIRCLE, SARATOGA, NY, 12866","Match","Non_Exact","35 PIPING ROCK CIR, SARATOGA SPGS, NY, 12866",18815067,"L"
539765,"35 PLYMOUTH ST","PITTSFIELD","MA",1201,42.441583764,-73.283942382,265,"35 PLYMOUTH ST, PITTSFIELD, MA, 1201","Match","Exact","35 PLYMOUTH ST, PITTSFIELD, MA, 01201",3920217,"L"
539766,"35 POMEROY DR","CRYSTAL LAKE","IL",60014,42.240111895,-88.3282549529999,266,"35 POMEROY DR, CRYSTAL LAKE, IL, 60014","Match","Non_Exact","35 POMEROY AVE, CRYSTAL LAKE, IL, 60014",119819905,"R"
539767,"35 POND ST","REHOBOTH","MA",2769,41.8388802310001,-71.265288325,267,"35 POND ST, REHOBOTH, MA, 2769","Match","Exact","35 POND ST, REHOBOTH, MA, 02769",46817232,"R"
539768,"35 POPLAR AVENUE","POMPTON PLAINS","NJ",7444,40.9668216680001,-74.299181532,268,"35 POPLAR AVENUE, POMPTON PLAINS, NJ, 7444","Match","Exact","35 POPLAR AVE, POMPTON PLAINS, NJ, 07444",60427846,"L"
539769,"35 POQUITO RD","SHALIMAR","FL",32579,30.4549026220001,-86.579005357,269,"35 POQUITO RD, SHALIMAR, FL, 32579","Match","Exact","35 POQUITO RD, SHALIMAR, FL, 32579",74392030,"L"
539770,"35 PRAIRIE WAY","RENO","NV",89506,39.7659977960001,-119.832113189,270,"35 PRAIRIE WAY, RENO, NV, 89506","Match","Exact","35 PRAIRIE WAY, RENO, NV, 89506",107082834,"L"
539771,"35 PRATT ST","LOWELL","MA",1851,42.634555146,-71.351107176,271,"35 PRATT ST, LOWELL, MA, 1851","Match","Non_Exact","35 PRATT AVE, LOWELL, MA, 01851",87109353,"R"
539772,"35 PRICEWOODS LANE","SAINT LOUIS","MO",63132,38.6632314490001,-90.3631259809999,272,"35 PRICEWOODS LANE, SAINT LOUIS, MO, 63132","Match","Exact","35 PRICEWOODS LN, SAINT LOUIS, MO, 63132",100174592,"R"
539773,"35 PRINCESS AVENUE","MARLTON","NJ",8053,39.90143706,-74.930075197,273,"35 PRINCESS AVENUE, MARLTON, NJ, 8053","Match","Exact","35 PRINCESS AVE, MARLTON, NJ, 08053",134036672,"L"
539774,"35 PRINCETON DRIVE","SYOSSET","NY",11791,40.7862417420001,-73.513230979,274,"35 PRINCETON DRIVE, SYOSSET, NY, 11791","Match","Exact","35 PRINCETON DR, SYOSSET, NY, 11791",147838361,"R"
539775,"35 PROCTOR RD","TOWNSEND","MA",1469,42.6572695130001,-71.6615223319999,275,"35 PROCTOR RD, TOWNSEND, MA, 1469","Match","Exact","35 PROCTOR RD, TOWNSEND, MA, 01469",86839193,"R"
539776,"35 PROSPECT AVE","BASKING RIDGE","NJ",7920,40.7030457720001,-74.5447135379999,276,"35 PROSPECT AVE, BASKING RIDGE, NJ, 7920","Match","Exact","35 PROSPECT AVE, BASKING RIDGE, NJ, 07920",59947978,"R"
539777,"35 PROSPECT HILL RD","BRANFORD","CT",6405,41.260228843,-72.745633229,277,"35 PROSPECT HILL RD, BRANFORD, CT, 6405","Match","Exact","35 PROSPECT HILL RD, BRANFORD, CT, 06405",635591525,"R"
539778,"35 PROSPECT PARK WEST APT 9D","BROOKLYN","NY",11215,40.6702093710001,-73.972174971,278,"35 PROSPECT PARK WEST APT 9D, BROOKLYN, NY, 11215","Match","Exact","35 PROSPECT PARK W, BROOKLYN, NY, 11215",59078253,"R"
539779,"35 PROSPECT STREET","ESSEX JUNCTION","VT",5452,44.4950637310001,-73.1153990719999,279,"35 PROSPECT STREET, ESSEX JUNCTION, VT, 5452","Match","Exact","35 PROSPECT ST, ESSEX JCT, VT, 05452",135845442,"R"
539780,"35 PULASKI ROAD","WHITEHOUSE STATION","NJ",8889,NA,NA,280,"35 PULASKI ROAD, WHITEHOUSE STATION, NJ, 8889","No_Match",NA,NA,NA,NA
539781,"35 PURITAN ROAD","SWAMPSCOTT","MA",1907,42.467286937,-70.907812408,281,"35 PURITAN ROAD, SWAMPSCOTT, MA, 1907","Match","Exact","35 PURITAN RD, SWAMPSCOTT, MA, 01907",86647733,"R"
539782,"35 PUTNEY ROAD","DUNBARTON","NH",3046,NA,NA,282,"35 PUTNEY ROAD, DUNBARTON, NH, 3046","No_Match",NA,NA,NA,NA
539783,"35 QUAIL LANE","OATMAN","AZ",86433,NA,NA,283,"35 QUAIL LANE, OATMAN, AZ, 86433","No_Match",NA,NA,NA,NA
539784,"35 QUAIL RUN RD","VALLEY VIEW","TX",76272,33.5195818930001,-97.063536186,284,"35 QUAIL RUN RD, VALLEY VIEW, TX, 76272","Match","Exact","35 QUAIL RUN RD, VALLEY VIEW, TX, 76272",639883674,"R"
539785,"35 QUAIL RUN","WARREN","NJ",7059,40.611402108,-74.5103278879999,285,"35 QUAIL RUN, WARREN, NJ, 7059","Match","Exact","35 QUAIL RUN, WARREN, NJ, 07059",59998988,"R"
539786,"35 QUEENS COURT","PINEHURST","NC",28374,35.175844996,-79.496060201,286,"35 QUEENS COURT, PINEHURST, NC, 28374","Match","Exact","35 QUEENS CT, PINEHURST, NC, 28374",20300755,"R"
539787,"35 QUINN STREET","PATERSON","NJ",7501,40.9107828780001,-74.184222549,287,"35 QUINN STREET, PATERSON, NJ, 7501","Match","Exact","35 QUINN ST, PATERSON, NJ, 07501",65262869,"L"
539788,"35 QUINTANA DRIVE","GALVESTON","TX",77554,29.251463669,-94.8714415379999,288,"35 QUINTANA DRIVE, GALVESTON, TX, 77554","Match","Exact","35 QUINTANA DR, GALVESTON, TX, 77554",96735357,"R"
539789,"35 RADCLIFFE DRIVE","PALM COAST","FL",32164,29.5170771430001,-81.225599126,289,"35 RADCLIFFE DRIVE, PALM COAST, FL, 32164","Match","Exact","35 RADCLIFFE DR, PALM COAST, FL, 32164",94951522,"R"
539790,"35 RAILWAY","HANCOCK","ME",4640,NA,NA,290,"35 RAILWAY, HANCOCK, ME, 4640","No_Match",NA,NA,NA,NA
539791,"35 RAINER STREET","MELVILLE","NY",11747,40.801585436,-73.402643709,291,"35 RAINER STREET, MELVILLE, NY, 11747","Match","Exact","35 RAINER ST, MELVILLE, NY, 11747",113967509,"L"
539792,"35 RAKER ROAD","POUGHKEEPSIE","NY",12603,41.6451760960001,-73.897798683,292,"35 RAKER ROAD, POUGHKEEPSIE, NY, 12603","Match","Exact","35 RAKER RD, POUGHKEEPSIE, NY, 12603",4228489,"L"
539793,"35 RAMAPO ROAD","POMPTON PLAINS","NJ",7444,40.9761951290001,-74.299604851,293,"35 RAMAPO ROAD, POMPTON PLAINS, NJ, 7444","Match","Exact","35 RAMAPO RD, POMPTON PLAINS, NJ, 07444",60427798,"L"
539794,"35 RANCHWOOD LANE","DAYTON","TX",77535,30.073766929,-94.8838900389999,294,"35 RANCHWOOD LANE, DAYTON, TX, 77535","Match","Exact","35 RANCHWOOD LN, DAYTON, TX, 77535",635775695,"R"
539795,"35 RANDOLPH ST","PETERSTOWN","WV",24963,37.429812785,-80.781952202,295,"35 RANDOLPH ST, PETERSTOWN, WV, 24963","Match","Exact","35 RANDOLPH ST, PETERSTOWN, WV, 24963",246499031,"R"
539796,"35 RAOD 1499","LA PLATA","NM",87419,36.871145708,-108.201519175,296,"35 RAOD 1499, LA PLATA, NM, 87419","Match","Non_Exact","35 RD 1499, LA PLATA, NM, 87418",611566439,"L"
539797,"35 RAYMOND AVE","RUTHERFORD","NJ",7070,40.8401950300001,-74.1132172379999,297,"35 RAYMOND AVE, RUTHERFORD, NJ, 7070","Match","Exact","35 RAYMOND AVE, RUTHERFORD, NJ, 07070",64394213,"L"
539798,"35 REBECCA CT","SMYRNA","DE",19977,39.2543431940001,-75.6061986029999,298,"35 REBECCA CT, SMYRNA, DE, 19977","Match","Exact","35 REBECCA CT, SMYRNA, DE, 19977",601698455,"L"
539799,"35 REDBRICK ROAD","ORCHARD PARK","NY",14127,42.7378998030001,-78.700379305,299,"35 REDBRICK ROAD, ORCHARD PARK, NY, 14127","Match","Exact","35 REDBRICK RD, ORCHARD PARK, NY, 14127",604660440,"R"
539800,"35 REDFORD KELLEY LN","PHIPPSBURG","ME",4562,43.7877771350001,-69.8166098849999,300,"35 REDFORD KELLEY LN, PHIPPSBURG, ME, 4562","Match","Exact","35 REDFORD KELLEY LN, PHIPPSBURG, ME, 04562",641508369,"R"
539801,"35 REED STREET","SPRINGFIELD","VT",5156,43.2955875600001,-72.476054714,301,"35 REED STREET, SPRINGFIELD, VT, 5156","Match","Exact","35 REED ST, SPRINGFIELD, VT, 05156",139248154,"R"
539802,"35 REGOLA DR","IRWIN","PA",15642,40.377879153,-79.6604157959999,302,"35 REGOLA DR, IRWIN, PA, 15642","Match","Exact","35 REGOLA DR, IRWIN, PA, 15642",52996456,"L"
539803,"35 REYNOLDS AVE","REHOBOTH","MA",2769,41.9010724780001,-71.194278577,303,"35 REYNOLDS AVE, REHOBOTH, MA, 2769","Match","Exact","35 REYNOLDS AVE, REHOBOTH, MA, 02769",46759054,"L"
539804,"35 RICKHAVEN DR","COLLINSVILLE","IL",62234,NA,NA,304,"35 RICKHAVEN DR, COLLINSVILLE, IL, 62234","No_Match",NA,NA,NA,NA
539805,"35 RIDGEWAY BLVD","BAY SHORE","NY",11706,40.72161306,-73.2744699739999,305,"35 RIDGEWAY BLVD, BAY SHORE, NY, 11706","Match","Exact","35 RIDGEWAY BLVD, BAY SHORE, NY, 11706",114041225,"L"
539806,"35 RIDGWEWAY AVENUE","HILLSIDE","NJ",7205,NA,NA,306,"35 RIDGWEWAY AVENUE, HILLSIDE, NJ, 7205","No_Match",NA,NA,NA,NA
539807,"35 RIVER CREST DRIVE","LITTLE EGG HARBOR TW","NJ",8087,39.582920028,-74.3581782099999,307,"35 RIVER CREST DRIVE, LITTLE EGG HARBOR TW, NJ, 8087","Match","Exact","35 RIVER CREST DR, LITTLE EGG HARBOR TWP, NJ, 08087",203710958,"R"
539808,"35 RIVER DR S APT 1512","JERSEY CITY","NJ",7310,40.727586026,-74.0320485999999,308,"35 RIVER DR S APT 1512, JERSEY CITY, NJ, 7310","Match","Exact","35 RIVER DR S, JERSEY CITY, NJ, 07310",645564320,"R"
539809,"35 RIVER RIDGE ROAD","PLYMOUTH","NH",3264,43.7660408360001,-71.707170272,309,"35 RIVER RIDGE ROAD, PLYMOUTH, NH, 3264","Match","Exact","35 RIVER RIDGE RD, PLYMOUTH, NH, 03264",145699218,"L"
539810,"35 RIVER WOOD LOOP","CHICO","CA",95926,39.7402605350001,-121.881573325,310,"35 RIVER WOOD LOOP, CHICO, CA, 95926","Match","Exact","35 RIVER WOOD LOOP, CHICO, CA, 95926",633909210,"L"
539811,"35 RIVERSIDE DRIVE","RIDGEFIELD","CT",6877,41.3072556010001,-73.46237672,311,"35 RIVERSIDE DRIVE, RIDGEFIELD, CT, 6877","Match","Exact","35 RIVERSIDE DR, RIDGEFIELD, CT, 06877",3262315,"L"
539812,"35 RIVERVIEW AVE","WEST DEPTFORD","NJ",8086,39.8477851600001,-75.175580896,312,"35 RIVERVIEW AVE, WEST DEPTFORD, NJ, 8086","Match","Exact","35 RIVERVIEW AVE, WEST DEPTFORD, NJ, 08086",636220730,"L"
539813,"35 ROAD 2965","AZTEC","NM",87410,36.8445080380001,-107.978623073,313,"35 ROAD 2965, AZTEC, NM, 87410","Match","Exact","35 RD 2965, AZTEC, NM, 87410",127433526,"L"
539814,"35 ROBERTS LANE","COVINGTON","GA",30014,33.636307883,-83.836783942,314,"35 ROBERTS LANE, COVINGTON, GA, 30014","Match","Exact","35 ROBERTS LN, COVINGTON, GA, 30014",23614225,"R"
539815,"35 ROBERTS LANE","WEST HARTFORD","CT",6107,41.7567792420001,-72.762745002,315,"35 ROBERTS LANE, WEST HARTFORD, CT, 6107","Match","Exact","35 ROBERTS LN, WEST HARTFORD, CT, 06107",3493352,"R"
539816,"35 ROBERTSON RD","WEST ORANGE","NJ",7052,40.80306431,-74.2543774,316,"35 ROBERTSON RD, WEST ORANGE, NJ, 7052","Match","Exact","35 ROBERTSON RD, WEST ORANGE, NJ, 07052",63460643,"R"
539817,"35 ROBINS NEST LN","HOOPA","CA",95546,NA,NA,317,"35 ROBINS NEST LN, HOOPA, CA, 95546","No_Match",NA,NA,NA,NA
539818,"35 ROBINWOOD RD","DEDHAM","MA",2026,42.2292147260001,-71.179468426,318,"35 ROBINWOOD RD, DEDHAM, MA, 2026","Match","Exact","35 ROBINWOOD RD, DEDHAM, MA, 02026",87244008,"R"
539819,"35 ROCHELLE TERRANCE APT","MOUNT VERNON","NY",10550,40.918119973,-73.83935145,319,"35 ROCHELLE TERRANCE APT, MOUNT VERNON, NY, 10550","Match","Non_Exact","35 ROCHELLE TER, MOUNT VERNON, NY, 10550",139746978,"R"
539820,"35 ROCK POINTE LNAE","WARRENTON","VA",20186,38.7229232560001,-77.790969811,320,"35 ROCK POINTE LNAE, WARRENTON, VA, 20186","Match","Non_Exact","35 ROCK POINTE LN, WARRENTON, VA, 20186",641422964,"R"
539821,"35 ROCKWOOD AVENUE","CRANSTON","RI",2920,41.7931914770001,-71.4792074059999,321,"35 ROCKWOOD AVENUE, CRANSTON, RI, 2920","Match","Exact","35 ROCKWOOD AVE, CRANSTON, RI, 02920",47482040,"R"
539822,"35 ROLLING HILLS CIRCLE","DENTON","TX",76205,33.170476281,-97.1305671869999,322,"35 ROLLING HILLS CIRCLE, DENTON, TX, 76205","Match","Exact","35 ROLLING HILLS CIR, DENTON, TX, 76205",103406169,"R"
539823,"35 ROLPH ST","SAN FRANCISCO","CA",94112,37.715494688,-122.440956068,323,"35 ROLPH ST, SAN FRANCISCO, CA, 94112","Match","Exact","35 ROLPH ST, SAN FRANCISCO, CA, 94112",192286528,"L"
539824,"35 ROOSEVELT DRIVE","EDISON","NJ",8837,40.545142422,-74.33911047,324,"35 ROOSEVELT DRIVE, EDISON, NJ, 8837","Match","Exact","35 ROOSEVELT DR, EDISON, NJ, 08837",60305225,"R"
539825,"35 ROSCOE COURT","ESSEX JUNCTION","VT",5452,44.4937308400001,-73.1195750209999,325,"35 ROSCOE COURT, ESSEX JUNCTION, VT, 5452","Match","Exact","35 ROSCOE CT, ESSEX JCT, VT, 05452",135856878,"R"
539826,"35 ROSE PLACE","SAN DIEGO","CA",92115,NA,NA,326,"35 ROSE PLACE, SAN DIEGO, CA, 92115","No_Match",NA,NA,NA,NA
539827,"35 ROSEDALE AVE","HAVERHILL","MA",1830,42.8078565590001,-71.102886774,327,"35 ROSEDALE AVE, HAVERHILL, MA, 1830","Match","Exact","35 ROSEDALE AVE, HAVERHILL, MA, 01830",86748508,"L"
539828,"35 ROSELAWN AVENUE","EAST ST LOUIS","IL",62204,38.5939417980001,-90.001848303,328,"35 ROSELAWN AVENUE, EAST ST LOUIS, IL, 62204","Match","Non_Exact","35 ROSELAWN AVE, E SAINT LOUIS, IL, 62208",107840217,"L"
539829,"35 ROSLYN CT","PORT JEFFERSON","NY",11777,40.949085326,-73.0444772869999,329,"35 ROSLYN CT, PORT JEFFERSON, NY, 11777","Match","Exact","35 ROSLYN CT, PORT JEFFERSON, NY, 11777",114002615,"L"
539830,"35 ROSLYN PLACE","VAUXHALL","NJ",7088,40.7195714480001,-74.280240802,330,"35 ROSLYN PLACE, VAUXHALL, NJ, 7088","Match","Non_Exact","35 ROSELYN PL, VAUXHALL, NJ, 07088",60570974,"L"
539831,"35 ROSS AVE","HACKENSACK","NJ",7601,40.897332702,-74.0410998099999,331,"35 ROSS AVE, HACKENSACK, NJ, 7601","Match","Exact","35 ROSS AVE, HACKENSACK, NJ, 07601",64386034,"L"
539832,"35 ROSSEVELT AVE","EDISON","NJ",8873,40.483634554,-74.511329512,332,"35 ROSSEVELT AVE, EDISON, NJ, 8873","Match","Non_Exact","35 ROOSEVELT AVE, SOMERSET, NJ, 08873",59988219,"R"
539833,"35 ROTERHAM DRIVE","CLAYTON","NC",27527,35.664518333,-78.3574682569999,333,"35 ROTERHAM DRIVE, CLAYTON, NC, 27527","Match","Exact","35 ROTERHAM DR, CLAYTON, NC, 27527",646664276,"L"
539834,"35 ROWE STREET APT 2","ROSLINDALE","MA",2131,42.283409734,-71.120429438,334,"35 ROWE STREET APT 2, ROSLINDALE, MA, 2131","Match","Exact","35 ROWE ST, ROSLINDALE, MA, 02131",639988860,"R"
539835,"35 ROYALSTON RD","PHILLIPSTON","MA",1331,42.57429848,-72.130923708,335,"35 ROYALSTON RD, PHILLIPSTON, MA, 1331","Match","Exact","35 ROYALSTON RD, PHILLIPSTON, MA, 01331",647973788,"L"
539836,"35 RT 94","VERNON","NJ",7462,41.174239969,-74.547915458,336,"35 RT 94, VERNON, NJ, 7462","Match","Non_Exact","35 STATE RTE 94, VERNON, NJ, 07462",98010515,"L"
539837,"35 RUE PASCAL","PARIS, FRANCE","FL",75013,NA,NA,337,"35 RUE PASCAL, PARIS, FRANCE, FL, 75013","No_Match",NA,NA,NA,NA
539838,"35 RUGBY RD","BUFFALO","NY",14216,42.9455979700001,-78.859433114,338,"35 RUGBY RD, BUFFALO, NY, 14216","Match","Exact","35 RUGBY RD, BUFFALO, NY, 14216",48289510,"R"
539839,"35 RUMSTICK ROAD","BARRINGTON","RI",2806,41.7336594600001,-71.3027787139999,339,"35 RUMSTICK ROAD, BARRINGTON, RI, 2806","Match","Exact","35 RUMSTICK RD, BARRINGTON, RI, 02806",46479762,"R"
539840,"35 RUSSELL RD","AUBURN","CA",95603,38.91542458,-121.059779729,340,"35 RUSSELL RD, AUBURN, CA, 95603","Match","Exact","35 RUSSELL RD, AUBURN, CA, 95603",106779024,"R"
539841,"35 RUTLAND SQUARE 1","BOSTON","MA",2118,42.341897331,-71.078392164,341,"35 RUTLAND SQUARE 1, BOSTON, MA, 2118","Match","Exact","35 RUTLAND SQ, BOSTON, MA, 02118",85728127,"R"
539842,"35 S 700 W","LEBANON","IN",46052,40.0389762140001,-86.600870801,342,"35 S 700 W, LEBANON, IN, 46052","Match","Exact","35 S 700 W, LEBANON, IN, 46052",610981547,"R"
539843,"35 S BOLDEN HILL ROAD","GUY","AR",72061,NA,NA,343,"35 S BOLDEN HILL ROAD, GUY, AR, 72061","No_Match",NA,NA,NA,NA
539844,"35 S CLERMONT STREET","DENVER","CO",80246,39.7156492190001,-104.935123838,344,"35 S CLERMONT STREET, DENVER, CO, 80246","Match","Exact","35 S CLERMONT ST, DENVER, CO, 80246",177338715,"R"
539845,"35 S FAIRVIEW AVE","LIBERTY","MO",64068,NA,NA,345,"35 S FAIRVIEW AVE, LIBERTY, MO, 64068","Tie",NA,NA,NA,NA
539846,"35 S GARNET RD","GILBERT","AZ",85296,33.3492892740001,-111.758189366,346,"35 S GARNET RD, GILBERT, AZ, 85296","Match","Exact","35 S GARNET RD, GILBERT, AZ, 85296",128809193,"L"
539847,"35 S HARRISON ST","BEVERLY HILLS","FL",34465,28.9202299460001,-82.456788417,347,"35 S HARRISON ST, BEVERLY HILLS, FL, 34465","Match","Exact","35 S HARRISON ST, BEVERLY HILLS, FL, 34465",610752967,"L"
539848,"35 S JACKSON STREET APT B","WINDER","GA",30680,33.98873551,-83.723177778,348,"35 S JACKSON STREET APT B, WINDER, GA, 30680","Match","Non_Exact","35 S JACKSON ST, WINDER, GA, 30680",77583843,"L"
539849,"35 S JUNE STREET","DAYTON","OH",45403,39.762228694,-84.170249207,349,"35 S JUNE STREET, DAYTON, OH, 45403","Match","Exact","35 S JUNE ST, DAYTON, OH, 45403",143574277,"R"
539850,"35 S LINCOLN AVE","WASHIINGTON","NJ",7882,40.7569140520001,-74.980887046,350,"35 S LINCOLN AVE, WASHIINGTON, NJ, 7882","Match","Non_Exact","35 S LINCOLN AVE, WASHINGTON, NJ, 07882",647614475,"L"
539851,"35 S MILLICK ST","PHILADELPHIA","PA",19139,39.9610570740001,-75.242206229,351,"35 S MILLICK ST, PHILADELPHIA, PA, 19139","Match","Exact","35 S MILLICK ST, PHILADELPHIA, PA, 19139",131397689,"L"
539852,"35 S POINSETTIA TER","CRYSTAL RIVER","FL",34429,28.8614083410001,-82.584286294,352,"35 S POINSETTIA TER, CRYSTAL RIVER, FL, 34429","Match","Exact","35 S POINSETTIA TER, CRYSTAL RIVER, FL, 34429",86201006,"L"
539853,"35 S RUSSELL CT","GOLDEN","CO",80401,39.7162012750001,-105.188209791,353,"35 S RUSSELL CT, GOLDEN, CO, 80401","Match","Exact","35 S RUSSELL CT, GOLDEN, CO, 80401",177732483,"R"
539854,"35 S SAINT CLAIR ST","DAYTON","OH",45402,39.7598283930001,-84.1882219519999,354,"35 S SAINT CLAIR ST, DAYTON, OH, 45402","Match","Exact","35 S SAINT CLAIR ST, DAYTON, OH, 45402",143615582,"R"
539855,"35 S SUMMIT ST","INDIANAPOLIS","IN",46204,39.766393314,-86.132157397,355,"35 S SUMMIT ST, INDIANAPOLIS, IN, 46204","Match","Non_Exact","35 S SUMMIT ST, INDIANAPOLIS, IN, 46201",108052135,"L"
539856,"35 S SUMMIT","INDIANAPOLIS","IN",46204,NA,NA,356,"35 S SUMMIT, INDIANAPOLIS, IN, 46204","No_Match",NA,NA,NA,NA
539857,"35 SACHEM WAY","EAST FALMOUTH","MA",2536,41.571629236,-70.5371396099999,357,"35 SACHEM WAY, EAST FALMOUTH, MA, 2536","Match","Non_Exact","35 SACHEM DR, EAST FALMOUTH, MA, 02536",121572928,"L"
539858,"35 SACHS ROAD","NOTTINGHAM","NH",3290,43.078774724,-71.163089681,358,"35 SACHS ROAD, NOTTINGHAM, NH, 3290","Match","Exact","35 SACHS RD, NOTTINGHAM, NH, 03290",113709906,"R"
539859,"35 SADDLE WAY","CHESTERFIELD","NJ",8515,40.1371602460001,-74.657813268,359,"35 SADDLE WAY, CHESTERFIELD, NJ, 8515","Match","Exact","35 SADDLE WAY, CHESTERFIELD, NJ, 08515",617537921,"L"
539860,"35 SADLER WAY","GREENVILLE","SC",29607,34.8181227090001,-82.26196993,360,"35 SADLER WAY, GREENVILLE, SC, 29607","Match","Exact","35 SADLER WAY, GREENVILLE, SC, 29607",632186877,"L"
539861,"35 SAGECREST CIRCLE","ENOLA","PA",17025,40.2868160850001,-77.032202855,361,"35 SAGECREST CIRCLE, ENOLA, PA, 17025","Match","Non_Exact","35 SAGE CREST CIR, ENOLA, PA, 17025",640718963,"R"
539862,"35 SAILING ROAD","WEST HAVEN","CT",6516,NA,NA,362,"35 SAILING ROAD, WEST HAVEN, CT, 6516","No_Match",NA,NA,NA,NA
539863,"35 SAINT GEORGE COURT","PLEASANT HILL","CA",94523,37.975456777,-122.08892363,363,"35 SAINT GEORGE COURT, PLEASANT HILL, CA, 94523","Match","Exact","35 ST GEORGE CT, PLEASANT HILL, CA, 94523",192047022,"R"
539864,"35 SALFORD WAY","TELFORD","PA",18969,40.321420942,-75.407210284,364,"35 SALFORD WAY, TELFORD, PA, 18969","Match","Exact","35 SALFORD WAY, TELFORD, PA, 18969",605638086,"L"
539865,"35 SALTER STREET","SPRINGFIELD","NJ",7081,40.711662932,-74.316487653,365,"35 SALTER STREET, SPRINGFIELD, NJ, 7081","Match","Exact","35 SALTER ST, SPRINGFIELD, NJ, 07081",629178797,"L"
539866,"35 SAN JACINTO","GALVESTON","TX",77550,29.3121402310001,-94.767989636,366,"35 SAN JACINTO, GALVESTON, TX, 77550","Match","Non_Exact","35 SAN JACINTO DR, GALVESTON, TX, 77550",96680809,"L"
539867,"35 SAN JOAQUIN PLACE","NOVATO","CA",94947,38.106515481,-122.615379613,367,"35 SAN JOAQUIN PLACE, NOVATO, CA, 94947","Match","Exact","35 SAN JOAQUIN PL, NOVATO, CA, 94947",192777391,"L"
539868,"35 SAND DUNE TRAIL","OCRACOKE","NC",27960,35.1116916760001,-75.970826932,368,"35 SAND DUNE TRAIL, OCRACOKE, NC, 27960","Match","Exact","35 SAND DUNE TRL, OCRACOKE, NC, 27960",625161486,"L"
539869,"35 SAND HILL RD","WEATOGUE","CT",6089,41.847747907,-72.818875604,369,"35 SAND HILL RD, WEATOGUE, CT, 6089","Match","Exact","35 SAND HILL RD, WEATOGUE, CT, 06089",646609534,"L"
539870,"35 SANLUN LAKES","HAMPTON","GA",23666,NA,NA,370,"35 SANLUN LAKES, HAMPTON, GA, 23666","No_Match",NA,NA,NA,NA
539871,"35 SAPPINGTON ACRES DR","SAINT LOUIS","MO",63126,38.5292920890001,-90.3708493729999,371,"35 SAPPINGTON ACRES DR, SAINT LOUIS, MO, 63126","Match","Exact","35 SAPPINGTON ACRES DR, SAINT LOUIS, MO, 63126",100182563,"L"
539872,"35 SATINWOOD LANE","BRIARCLIFF MANOR","NY",10514,41.140575605,-73.8201925449999,372,"35 SATINWOOD LANE, BRIARCLIFF MANOR, NY, 10514","Match","Non_Exact","35 SATINWOOD LN, BRIARCLIFF MANOR, NY, 10510",139780452,"L"
539873,"35 SAUNDERS ROAD","NORWOOD","MA",2062,42.1854800790001,-71.2094505479999,373,"35 SAUNDERS ROAD, NORWOOD, MA, 2062","Match","Exact","35 SAUNDERS RD, NORWOOD, MA, 02062",87254804,"R"
539874,"35 SAVANNAH CIRCLE","COVINGTON","GA",30016,33.521498728,-83.948895965,374,"35 SAVANNAH CIRCLE, COVINGTON, GA, 30016","Match","Exact","35 SAVANNAH CIR, COVINGTON, GA, 30016",23638329,"L"
539875,"35 SAVANNAH TRAIL","EUBANK","KY",42567,NA,NA,375,"35 SAVANNAH TRAIL, EUBANK, KY, 42567","No_Match",NA,NA,NA,NA
539876,"35 SAWMILL RD","WALPOLE","MA",2081,42.152445008,-71.235721035,376,"35 SAWMILL RD, WALPOLE, MA, 2081","Match","Exact","35 SAWMILL RD, WALPOLE, MA, 02081",87284458,"R"
539877,"35 SAWTELLE RD","JAFFREY","NH",3452,42.822522129,-72.048303706,377,"35 SAWTELLE RD, JAFFREY, NH, 3452","Match","Exact","35 SAWTELLE RD, JAFFREY, NH, 03452",124086119,"R"
539878,"35 SCARLET DRIVE","FREEHOLD","NJ",7728,40.257481662,-74.2381147729999,378,"35 SCARLET DRIVE, FREEHOLD, NJ, 7728","Match","Exact","35 SCARLET DR, FREEHOLD, NJ, 07728",647654537,"R"
539879,"35 SCHAPPET TERRACE","LANSDOWNE","PA",19050,39.937437833,-75.266845475,379,"35 SCHAPPET TERRACE, LANSDOWNE, PA, 19050","Match","Exact","35 SCHAPPET TER, LANSDOWNE, PA, 19050",134878049,"L"
539880,"35 SCITUATE AVE","SCITUATE","MA",2066,42.206017618,-70.7300860089999,380,"35 SCITUATE AVE, SCITUATE, MA, 2066","Match","Exact","35 SCITUATE AVE, SCITUATE, MA, 02066",636134912,"L"
539881,"35 SCOTT AVE","DEER PARK","NY",11729,40.747069722,-73.313587919,381,"35 SCOTT AVE, DEER PARK, NY, 11729","Match","Exact","35 SCOTT AVE, DEER PARK, NY, 11729",113992971,"R"
539882,"35 SE 9TH STREET","MIAMI","FL",33131,25.7654651460001,-80.1928959209999,382,"35 SE 9TH STREET, MIAMI, FL, 33131","Match","Exact","35 SE 9TH ST, MIAMI, FL, 33131",116018691,"L"
539883,"35 SE","MIAMI","FL",33131,NA,NA,383,"35 SE, MIAMI, FL, 33131","No_Match",NA,NA,NA,NA
539884,"35 SEA COLONY DRIVE","SANTA MONICA","CA",90405,33.997669224,-118.482157743,384,"35 SEA COLONY DRIVE, SANTA MONICA, CA, 90405","Match","Exact","35 SEA COLONY DR, SANTA MONICA, CA, 90405",141559930,"R"
539885,"35 SEABROOK DRIVE","EAST PROVIDENCE","RI",2914,41.803603229,-71.367778669,385,"35 SEABROOK DRIVE, EAST PROVIDENCE, RI, 2914","Match","Exact","35 SEABROOK DR, E PROVIDENCE, RI, 02914",47474936,"L"
539886,"35 SEAMAN ROAD","WEST ORANGE","NJ",7052,40.8128964530001,-74.248458953,386,"35 SEAMAN ROAD, WEST ORANGE, NJ, 7052","Match","Exact","35 SEAMAN RD, WEST ORANGE, NJ, 07052",635758033,"L"
539887,"35 SECOND AVE","PORT JEFFERSON","NY",11777,40.93856464,-73.048626543,387,"35 SECOND AVE, PORT JEFFERSON, NY, 11777","Match","Exact","35 2ND AVE, PORT JEFFERSON, NY, 11777",114002564,"L"
539888,"35 SECOND ST","PEQUANNOCK","NJ",7440,40.949440033,-74.294817757,388,"35 SECOND ST, PEQUANNOCK, NJ, 7440","Match","Exact","35 2ND ST, PEQUANNOCK, NJ, 07440",60428899,"L"
539889,"35 SECOND ST","WALDEN","NY",12586,41.565251447,-74.1970974389999,389,"35 SECOND ST, WALDEN, NY, 12586","Match","Exact","35 2ND ST, WALDEN, NY, 12586",124431628,"R"
539890,"35 SEHRIDAN STREET NW","WASHINGTON","DC",20011,38.9664260480001,-77.009678636,390,"35 SEHRIDAN STREET NW, WASHINGTON, DC, 20011","Match","Non_Exact","35 SHERIDAN ST NW, WASHINGTON, DC, 20011",76222116,"R"
539891,"35 SETTLERS WAY","TEWKSBURY","MA",1876,42.6043292680001,-71.2451175849999,391,"35 SETTLERS WAY, TEWKSBURY, MA, 1876","Match","Exact","35 SETTLERS WAY, TEWKSBURY, MA, 01876",645277716,"R"
539892,"35 SEVENTH STREET","GARDEN CITY PARK","NY",11040,40.7437620210001,-73.669221642,392,"35 SEVENTH STREET, GARDEN CITY PARK, NY, 11040","Match","Exact","35 7TH ST, GARDEN CITY PARK, NY, 11040",147671127,"L"
539893,"35 SEVERANCE CIRCLE","CLEVELAND HTS","OH",44118,NA,NA,393,"35 SEVERANCE CIRCLE, CLEVELAND HTS, OH, 44118","No_Match",NA,NA,NA,NA
539894,"35 SHADY BROOK RD","OCEANA","WV",24870,37.676590649,-81.619116801,394,"35 SHADY BROOK RD, OCEANA, WV, 24870","Match","Exact","35 SHADY BROOK RD, OCEANA, WV, 24870",78872477,"L"
539895,"35 SHADYBROOK ROAD","OCEANA","WV",24870,37.676590649,-81.619116801,395,"35 SHADYBROOK ROAD, OCEANA, WV, 24870","Match","Non_Exact","35 SHADY BROOK RD, OCEANA, WV, 24870",78872477,"L"
539896,"35 SHAG BARK ROAD","SOUTH WINDSOR","CT",6074,41.8414691580001,-72.5392904129999,396,"35 SHAG BARK ROAD, SOUTH WINDSOR, CT, 6074","Match","Non_Exact","35 SHAGBARK RD, SOUTH WINDSOR, CT, 06074",3520926,"L"
539897,"35 SHAROT STREET","CARTERET","NJ",7008,40.5821116540001,-74.217827749,397,"35 SHAROT STREET, CARTERET, NJ, 7008","Match","Exact","35 SHAROT ST, CARTERET, NJ, 07008",60290697,"L"
539898,"35 SHEFFIELD ROAD","ROSLINDALE","MA",2131,42.2902327900001,-71.134117943,398,"35 SHEFFIELD ROAD, ROSLINDALE, MA, 2131","Match","Exact","35 SHEFFIELD RD, ROSLINDALE, MA, 02131",85703473,"R"
539899,"35 SHELLY ROAD","MERIDEN","CT",6451,41.5271376270001,-72.8541145359999,399,"35 SHELLY ROAD, MERIDEN, CT, 6451","Match","Non_Exact","35 SHELLEY RD, MERIDEN, CT, 06451",3722881,"R"
539900,"35 SHERWOOD LANE","MARLBOROUGH","CT",6447,41.627499512,-72.468557064,400,"35 SHERWOOD LANE, MARLBOROUGH, CT, 6447","Match","Exact","35 SHERWOOD LN, MARLBOROUGH, CT, 06447",604942618,"R"
539901,"35 SHIPYRAD LANE","PEMBROKE","MA",2359,42.1077660020001,-70.804385985,401,"35 SHIPYRAD LANE, PEMBROKE, MA, 2359","Match","Non_Exact","35 SHIPYARD LN, PEMBROKE, MA, 02359",87467197,"R"
539902,"35 SHIRLEY PARK ROAD","GOFFSTOWN","NH",3045,43.0164030490001,-71.584023626,402,"35 SHIRLEY PARK ROAD, GOFFSTOWN, NH, 3045","Match","Exact","35 SHIRLEY PARK RD, GOFFSTOWN, NH, 03045",113545311,"L"
539903,"35 SIGNAL HILL ROAD SOUTH","WILTON","CT",6897,41.206661087,-73.4577886979999,403,"35 SIGNAL HILL ROAD SOUTH, WILTON, CT, 6897","Match","Non_Exact","35 SIGNAL HILL RD, WILTON, CT, 06897",3259497,"L"
539904,"35 SIGNAL HILL ROAD","WILTON","CT",6897,41.206661087,-73.4577886979999,404,"35 SIGNAL HILL ROAD, WILTON, CT, 6897","Match","Exact","35 SIGNAL HILL RD, WILTON, CT, 06897",3259497,"L"
539905,"35 SIGNOR ROAD","PERU","NY",12972,44.541256022,-73.5716803459999,405,"35 SIGNOR ROAD, PERU, NY, 12972","Match","Exact","35 SIGNOR RD, PERU, NY, 12972",136072976,"R"
539906,"35 SILVERTON DR","COVINGTON","GA",30016,33.5090490320001,-84.010717947,406,"35 SILVERTON DR, COVINGTON, GA, 30016","Match","Exact","35 SILVERTON DR, COVINGTON, GA, 30016",23638424,"L"
539907,"35 SIMMONS DRIVE","DUXBURY","MA",2332,NA,NA,407,"35 SIMMONS DRIVE, DUXBURY, MA, 2332","No_Match",NA,NA,NA,NA
539908,"35 SKYLINE DR","BLAIRSVILLE","GA",30512,34.8399324970001,-84.0055169509999,408,"35 SKYLINE DR, BLAIRSVILLE, GA, 30512","Match","Exact","35 SKYLINE DR, BLAIRSVILLE, GA, 30512",624717826,"L"
539909,"35 SKYVIEW LANE","NEW CANAAN","CT",6840,41.1248641990001,-73.523259434,409,"35 SKYVIEW LANE, NEW CANAAN, CT, 6840","Match","Exact","35 SKYVIEW LN, NEW CANAAN, CT, 06840",3274875,"R"
539910,"35 SLATER ST","REHOBOTH","MA",2769,41.908654611,-71.2219083799999,410,"35 SLATER ST, REHOBOTH, MA, 2769","Match","Exact","35 SLATER ST, REHOBOTH, MA, 02769",46758761,"L"
539911,"35 SLOCUM RD","BEACON","NY",12508,41.483580906,-73.974152434,411,"35 SLOCUM RD, BEACON, NY, 12508","Match","Exact","35 SLOCUM RD, BEACON, NY, 12508",653455248,"R"
539912,"35 SMITH ST","GLEN HEAD","NE",11545,NA,NA,412,"35 SMITH ST, GLEN HEAD, NE, 11545","No_Match",NA,NA,NA,NA
539913,"35 SMITH ST","GLEN HEAD","NY",11545,40.830183741,-73.633469294,413,"35 SMITH ST, GLEN HEAD, NY, 11545","Match","Exact","35 SMITH ST, GLEN HEAD, NY, 11545",147662197,"L"
539914,"35 SMITH STREET","GLEN HEAD","NY",11545,40.830183741,-73.633469294,414,"35 SMITH STREET, GLEN HEAD, NY, 11545","Match","Exact","35 SMITH ST, GLEN HEAD, NY, 11545",147662197,"L"
539915,"35 SNOWDEN AVE","OSSINING","NY",10562,41.1663146880001,-73.865564198,415,"35 SNOWDEN AVE, OSSINING, NY, 10562","Match","Exact","35 SNOWDEN AVE, OSSINING, NY, 10562",139766553,"L"
539916,"35 SNOWDEN AVENUE","OSSINING","NY",10562,41.1663146880001,-73.865564198,416,"35 SNOWDEN AVENUE, OSSINING, NY, 10562","Match","Exact","35 SNOWDEN AVE, OSSINING, NY, 10562",139766553,"L"
539917,"35 SO 7TH STREET","YOUNGWOOD","PA",15697,40.2407262200001,-79.581606902,417,"35 SO 7TH STREET, YOUNGWOOD, PA, 15697","Match","Exact","35 S 7TH ST, YOUNGWOOD, PA, 15697",52974607,"L"
539918,"35 SOBRABORA DRIVE","SANTA FE","NM",87508,35.5941155730001,-105.994723054,418,"35 SOBRABORA DRIVE, SANTA FE, NM, 87508","Match","Non_Exact","35 SOBRADORA DR, SANTA FE, NM, 87508",169428462,"L"
539919,"35 SOUHEGAN STREET UNIT 2","MILFORD","NH",3055,42.8359162960001,-71.643448006,419,"35 SOUHEGAN STREET UNIT 2, MILFORD, NH, 3055","Match","Exact","35 SOUHEGAN ST, MILFORD, NH, 03055",113560505,"R"
539920,"35 SOUTH 31ST ST","WYANDANCH","NY",11798,40.74421139,-73.372391584,420,"35 SOUTH 31ST ST, WYANDANCH, NY, 11798","Match","Exact","35 S 31ST ST, WYANDANCH, NY, 11798",113971430,"R"
539921,"35 SOUTH 31ST STREET","WYANDANCH","NY",11798,40.74421139,-73.372391584,421,"35 SOUTH 31ST STREET, WYANDANCH, NY, 11798","Match","Exact","35 S 31ST ST, WYANDANCH, NY, 11798",113971430,"R"
539922,"35 SOUTH 60TH STREET","PHILADELPHIA","PA",19139,39.961045165,-75.240939999,422,"35 SOUTH 60TH STREET, PHILADELPHIA, PA, 19139","Match","Exact","35 S 60TH ST, PHILADELPHIA, PA, 19139",131397724,"L"
539923,"35 SOUTH CARIBOU ROAD","FORT FAIRFIELD","ME",4742,46.786586673,-67.852499318,423,"35 SOUTH CARIBOU ROAD, FORT FAIRFIELD, ME, 4742","Match","Exact","35 S CARIBOU RD, FORT FAIRFIELD, ME, 04742",123797308,"L"
539924,"35 SOUTH MAIN ST","WEST MILTON","OH",45383,39.9618507760001,-84.3289873479999,424,"35 SOUTH MAIN ST, WEST MILTON, OH, 45383","Match","Exact","35 S MAIN ST, WEST MILTON, OH, 45383",135296260,"R"
539925,"35 SOUTH MAIN STREET","MONTGOMERY","PA",17752,41.1700319380001,-76.8765933989999,425,"35 SOUTH MAIN STREET, MONTGOMERY, PA, 17752","Match","Exact","35 S MAIN ST, MONTGOMERY, PA, 17752",59449813,"L"
539926,"35 SOUTH POTOMAC ST","BALTIMORE","MD",21224,39.291862431,-76.574761081,426,"35 SOUTH POTOMAC ST, BALTIMORE, MD, 21224","Match","Exact","35 S POTOMAC ST, BALTIMORE, MD, 21224",206425193,"L"
539927,"35 SOUTH SHORE DRIVE","SPRINGFIELD","MA",1118,42.1040475620001,-72.535079896,427,"35 SOUTH SHORE DRIVE, SPRINGFIELD, MA, 1118","Match","Exact","35 S SHORE DR, SPRINGFIELD, MA, 01118",4036929,"R"
539928,"35 SOUTH STREET","BIDDEFORD","ME",4005,43.4926520330001,-70.459440518,428,"35 SOUTH STREET, BIDDEFORD, ME, 4005","Match","Exact","35 SOUTH ST, BIDDEFORD, ME, 04005",92741665,"R"
539929,"35 SOUTH THIRD ST","SHAMOKIN","PA",17872,40.7869054170001,-76.5628526899999,429,"35 SOUTH THIRD ST, SHAMOKIN, PA, 17872","Match","Exact","35 S 3RD ST, SHAMOKIN, PA, 17872",48060783,"R"
539930,"35 SOUTHGATE ROAD","LOUDONVILLE","NY",12211,42.7227528610001,-73.776893107,430,"35 SOUTHGATE ROAD, LOUDONVILLE, NY, 12211","Match","Exact","35 SOUTHGATE RD, LOUDONVILLE, NY, 12211",18306694,"R"
539931,"35 SPLIT TIMBER PLACE","RIVERSIDE","CT",6878,41.0549309400001,-73.577465586,431,"35 SPLIT TIMBER PLACE, RIVERSIDE, CT, 6878","Match","Exact","35 SPLIT TIMBER PL, RIVERSIDE, CT, 06878",3244103,"R"
539932,"35 SPOONER STREET","FLORAL PARK","NY",11001,40.7282076910001,-73.702240203,432,"35 SPOONER STREET, FLORAL PARK, NY, 11001","Match","Exact","35 SPOONER ST, FLORAL PARK, NY, 11001",147666360,"L"
539933,"35 SPRING HILL ROAD","BELCHERTOWN","MA",1007,42.309550947,-72.393870721,433,"35 SPRING HILL ROAD, BELCHERTOWN, MA, 1007","Match","Exact","35 SPRING HILL RD, BELCHERTOWN, MA, 01007",646644249,"L"
539934,"35 SPRING STREET APT A","WILLIAMSTOWN","MA",1267,42.7111320970001,-73.204052571,434,"35 SPRING STREET APT A, WILLIAMSTOWN, MA, 1267","Match","Exact","35 SPRING ST, WILLIAMSTOWN, MA, 01267",3950880,"L"
539935,"35 SPYGLASS DRIVE","LITTLETON","CO",80123,39.59366885,-105.044040176,435,"35 SPYGLASS DRIVE, LITTLETON, CO, 80123","Match","Exact","35 SPYGLASS DR, LITTLETON, CO, 80123",177405602,"R"
539936,"35 ST JOHNS PLACE APT A1","BROOKLYN","NY",11217,NA,NA,436,"35 ST JOHNS PLACE APT A1, BROOKLYN, NY, 11217","No_Match",NA,NA,NA,NA
539937,"35 ST JOSEPHS WAY","SCHUYLKILL HAVEN","PA",17972,40.5903529130001,-76.200819939,437,"35 ST JOSEPHS WAY, SCHUYLKILL HAVEN, PA, 17972","Match","Non_Exact","35 ST JOSEPH'S WAY, SCHUYLKILL HAVEN, PA, 17972",624675129,"R"
539938,"35 ST JOSEPHS","SAN FRANCISCO","CA",94115,37.779711949,-122.441033963,438,"35 ST JOSEPHS, SAN FRANCISCO, CA, 94115","Match","Non_Exact","35 ST JOSEPHS AVE, SAN FRANCISCO, CA, 94115",192283255,"L"
539939,"35 STACEY CIRCLE","CONCORD","MA",1742,42.448514898,-71.4089350259999,439,"35 STACEY CIRCLE, CONCORD, MA, 1742","Match","Exact","35 STACEY CIR, CONCORD, MA, 01742",86843961,"R"
539940,"35 STANDISH STREET","CAMBRIDGE","MA",2138,42.3822671730001,-71.139146696,440,"35 STANDISH STREET, CAMBRIDGE, MA, 2138","Match","Exact","35 STANDISH ST, CAMBRIDGE, MA, 02138",86892130,"R"
539941,"35 STANWYCK ROAD","MOUNT LAUREL","NJ",8054,39.924246076,-74.8901516179999,441,"35 STANWYCK ROAD, MOUNT LAUREL, NJ, 8054","Match","Exact","35 STANWYCK RD, MOUNT LAUREL, NJ, 08054",134062005,"R"
539942,"35 STAPLEFORD DR","FALMOUTH","ME",4105,43.7172792960001,-70.2755771989999,442,"35 STAPLEFORD DR, FALMOUTH, ME, 4105","Match","Exact","35 STAPLEFORD DR, FALMOUTH, ME, 04105",78055907,"R"
539943,"35 STATE HOSPITAL DRIVE","BANGOR","ME",4401,44.8022506500001,-68.7694220819999,443,"35 STATE HOSPITAL DRIVE, BANGOR, ME, 4401","Match","Non_Exact","35 STATE ST, BANGOR, ME, 04401",123628552,"R"
539944,"35 STERLING ST","EAST PROVIDENCE","RI",2914,41.8118983750001,-71.369185203,444,"35 STERLING ST, EAST PROVIDENCE, RI, 2914","Match","Exact","35 STERLING ST, E PROVIDENCE, RI, 02914",47474564,"R"
539945,"35 STEVENSON ROAD","EAST HAMPTON","CT",6424,41.593152478,-72.494164353,445,"35 STEVENSON ROAD, EAST HAMPTON, CT, 6424","Match","Exact","35 STEVENSON RD, EAST HAMPTON, CT, 06424",113880268,"L"
539946,"35 STOCKBRIDGE AVENUE","ATHERTON","CA",94027,37.4639846920001,-122.209331873,446,"35 STOCKBRIDGE AVENUE, ATHERTON, CA, 94027","Match","Exact","35 STOCKBRIDGE AVE, ATHERTON, CA, 94027",192364182,"L"
539947,"35 STONE CASTLE DRIVE","FOND DU LAC","WI",54935,43.7455686590001,-88.441354502,447,"35 STONE CASTLE DRIVE, FOND DU LAC, WI, 54935","Match","Exact","35 STONE CASTLE DR, FOND DU LAC, WI, 54935",638707098,"R"
539948,"35 STONE CREEK DR","LEMONT","IL",60439,41.685034332,-87.923220419,448,"35 STONE CREEK DR, LEMONT, IL, 60439","Match","Exact","35 STONE CREEK DR, LEMONT, IL, 60439",112204739,"R"
539949,"35 STONEGATE LANE","STREAMWOOD","IL",60107,42.0338680360001,-88.1785339749999,449,"35 STONEGATE LANE, STREAMWOOD, IL, 60107","Match","Non_Exact","35 STONE GATE LN, STREAMWOOD, IL, 60107",112384323,"L"
539950,"35 STONEHENGE CIRCLE APT 12","BALTIMORE","MD",21208,39.3880785280001,-76.707976502,450,"35 STONEHENGE CIRCLE APT 12, BALTIMORE, MD, 21208","Match","Exact","35 STONEHENGE CIR, BALTIMORE, MD, 21208",191468091,"L"
539951,"35 STONEWALL CIRCLE","WESTMORELAND","NH",3467,42.9358587470001,-72.386422137,451,"35 STONEWALL CIRCLE, WESTMORELAND, NH, 3467","Match","Exact","35 STONEWALL CIR, WESTMORELAND, NH, 03467",124087811,"R"
539952,"35 STORNOWAYE ST","CHAPPAQUA","NY",10514,41.165366009,-73.7479162779999,452,"35 STORNOWAYE ST, CHAPPAQUA, NY, 10514","Match","Exact","35 STORNOWAYE ST, CHAPPAQUA, NY, 10514",139811220,"R"
539953,"35 STRATFORD HALLOW","MONSON","MA",1057,NA,NA,453,"35 STRATFORD HALLOW, MONSON, MA, 1057","No_Match",NA,NA,NA,NA
539954,"35 STYVESANT AVE","NEWARK","NJ",7106,40.7452086710001,-74.2291870769999,454,"35 STYVESANT AVE, NEWARK, NJ, 7106","Match","Non_Exact","35 STUYVESANT AVE, NEWARK, NJ, 07106",63463913,"R"
539955,"35 SUGAR MAPLE LANE","LAFAYETTE HILL","PA",19444,40.082115335,-75.272002984,455,"35 SUGAR MAPLE LANE, LAFAYETTE HILL, PA, 19444","Match","Exact","35 SUGAR MAPLE LN, LAFAYETTE HILL, PA, 19444",135130388,"L"
539956,"35 SULTAN AVE","CAPITAL HEIGHTS","MD",20743,38.8864667880001,-76.911041176,456,"35 SULTAN AVE, CAPITAL HEIGHTS, MD, 20743","Match","Non_Exact","35 SULTAN AVE, CAPITOL HGTS, MD, 20743",76313350,"R"
539957,"35 SUMMIT AVENUE APT 3H","PORT CHESTER","NY",10573,41.003078085,-73.6729291,457,"35 SUMMIT AVENUE APT 3H, PORT CHESTER, NY, 10573","Match","Exact","35 SUMMIT AVE, PORT CHESTER, NY, 10573",139762217,"R"
539958,"35 SUNDANCE COURT","MATTESON","IL",60443,41.5269248440001,-87.719052437,458,"35 SUNDANCE COURT, MATTESON, IL, 60443","Match","Exact","35 SUNDANCE CT, MATTESON, IL, 60443",112225405,"R"
539959,"35 SUNRIDGE CT E","RENO","NV",89511,39.3430903030001,-119.862061668,459,"35 SUNRIDGE CT E, RENO, NV, 89511","Match","Exact","35 SUNRIDGE CT E, RENO, NV, 89511",107075785,"L"
539960,"35 SUNRISE LN","CASCADE","MT",59421,47.280042585,-111.706142948,460,"35 SUNRISE LN, CASCADE, MT, 59421","Match","Exact","35 SUNRISE LN, CASCADE, MT, 59421",202247099,"L"
539961,"35 SUNSET COURT","CRANBERRY TWP","PA",16066,40.720264365,-80.130056414,461,"35 SUNSET COURT, CRANBERRY TWP, PA, 16066","Match","Exact","35 SUNSET CT, CRANBERRY TOWNSHIP, PA, 16066",52691381,"L"
539962,"35 SUNSET DR","SEBEC","MA",4481,NA,NA,462,"35 SUNSET DR, SEBEC, MA, 4481","No_Match",NA,NA,NA,NA
539963,"35 SUNSET HILL","COVINGTON TWP","PA",18424,NA,NA,463,"35 SUNSET HILL, COVINGTON TWP, PA, 18424","Tie",NA,NA,NA,NA
539964,"35 SUPREME DRIVE","LILLINGTON","NC",27546,35.431896269,-78.806056617,464,"35 SUPREME DRIVE, LILLINGTON, NC, 27546","Match","Exact","35 SUPREME DR, LILLINGTON, NC, 27546",71995272,"R"
539965,"35 SUSSEX ST","BUFFALO","NY",14215,42.9272382290001,-78.827527698,465,"35 SUSSEX ST, BUFFALO, NY, 14215","Match","Exact","35 SUSSEX ST, BUFFALO, NY, 14215",48296640,"R"
539966,"35 SUTTON PLACE APT 6C","NEW YORK","NY",10022,40.7581699400001,-73.960076788,466,"35 SUTTON PLACE APT 6C, NEW YORK, NY, 10022","Match","Exact","35 SUTTON PL, NEW YORK, NY, 10022",59657627,"R"
539967,"35 SW MCKINLEY AVENUE APT 1","BEND","OR",97702,NA,NA,467,"35 SW MCKINLEY AVENUE APT 1, BEND, OR, 97702","Tie",NA,NA,NA,NA
539968,"35 SWEET HEART MOUNTAIN","CANTON","CT",6019,41.814853483,-72.934437024,468,"35 SWEET HEART MOUNTAIN, CANTON, CT, 6019","Match","Non_Exact","35 SWEETHEART MOUNTAIN RD, CANTON, CT, 06019",632498003,"L"
539969,"35 SYCAMORE DRIVE","EAST MORICHES","NY",11940,40.8181674590001,-72.774512709,469,"35 SYCAMORE DRIVE, EAST MORICHES, NY, 11940","Match","Exact","35 SYCAMORE DR, EAST MORICHES, NY, 11940",635319248,"R"
539970,"35 SYMMES DRIVE","MANALAPAN","NJ",7726,40.2893172710001,-74.319398988,470,"35 SYMMES DRIVE, MANALAPAN, NJ, 7726","Match","Non_Exact","35 SYMMES RD, MANALAPAN, NJ, 07726",90500003,"L"
539971,"35 TAFT AVE","STATEN ISLAND","NY",10301,40.6410163100001,-74.0842545,471,"35 TAFT AVE, STATEN ISLAND, NY, 10301","Match","Exact","35 TAFT AVE, STATEN ISLAND, NY, 10301",59878835,"R"
539972,"35 TAMARACK RD","PITTSFIELD","MA",1201,42.4294178100001,-73.271153878,472,"35 TAMARACK RD, PITTSFIELD, MA, 1201","Match","Exact","35 TAMARACK RD, PITTSFIELD, MA, 01201",3961410,"L"
539973,"35 TANAGER RD","MOUNT VERNON","KY",40403,NA,NA,473,"35 TANAGER RD, MOUNT VERNON, KY, 40403","No_Match",NA,NA,NA,NA
539974,"35 TANAGER RD","MOUNT VERNON","KY",40456,NA,NA,474,"35 TANAGER RD, MOUNT VERNON, KY, 40456","No_Match",NA,NA,NA,NA
539975,"35 TANNER PARKWAY","CANON CITY","CO",81212,38.3987364340001,-105.261006668,475,"35 TANNER PARKWAY, CANON CITY, CO, 81212","Match","Exact","35 TANNER PKWY, CANON CITY, CO, 81212",108313866,"R"
539976,"35 TAYLOR ROAD","ACTON","MA",1720,42.4794154140001,-71.438501887,476,"35 TAYLOR ROAD, ACTON, MA, 1720","Match","Exact","35 TAYLOR RD, ACTON, MA, 01720",86842647,"R"
539977,"35 TAYLORS TURN","HATTIESBURG","MS",39402,31.283506769,-89.3966020519999,477,"35 TAYLORS TURN, HATTIESBURG, MS, 39402","Match","Exact","35 TAYLORS TURN, HATTIESBURG, MS, 39402",505074,"R"
539978,"35 TEMPLE STREET","MEDWAY","MA",2053,42.152492126,-71.4223633559999,478,"35 TEMPLE STREET, MEDWAY, MA, 2053","Match","Exact","35 TEMPLE ST, MEDWAY, MA, 02053",635370336,"L"
539979,"35 TENNIS COURT","BROOKLYN","NY",11226,40.648542707,-73.9617274679999,479,"35 TENNIS COURT, BROOKLYN, NY, 11226","Match","Exact","35 TENNIS CT, BROOKLYN, NY, 11226",59080986,"L"
539980,"35 TENTMILL LANE APT C","PIKESVILLE","MD",21208,39.36256659,-76.753088684,480,"35 TENTMILL LANE APT C, PIKESVILLE, MD, 21208","Match","Exact","35 TENTMILL LN, PIKESVILLE, MD, 21208",191498523,"L"
539981,"35 TERLAND LAND","REED POINT","MT",59069,45.724699392,-109.692840495,481,"35 TERLAND LAND, REED POINT, MT, 59069","Match","Non_Exact","35 TERLAND RD, REED POINT, MT, 59069",633892647,"R"
539982,"35 TERRACE GARDENS","WALLINGFORD","CT",6492,41.4386121730001,-72.8314170789999,482,"35 TERRACE GARDENS, WALLINGFORD, CT, 6492","Match","Exact","35 TER GARDENS, WALLINGFORD, CT, 06492",647244366,"L"
539983,"35 TERRY LANE EAST","WAREHAM","MA",2571,41.7444902190001,-70.7304907979999,483,"35 TERRY LANE EAST, WAREHAM, MA, 2571","Match","Exact","35 TERRY LN E, WAREHAM, MA, 02571",87456610,"R"
539984,"35 TERRY ROAD","EAST HARTFORD","CT",6108,41.777995532,-72.614743424,484,"35 TERRY ROAD, EAST HARTFORD, CT, 6108","Match","Exact","35 TERRY RD, EAST HARTFORD, CT, 06108",3496093,"R"
539985,"35 TERRY TERRACE","CARROLLTON","GA",30117,33.60718274,-85.0943780379999,485,"35 TERRY TERRACE, CARROLLTON, GA, 30117","Match","Exact","35 TERRY TER, CARROLLTON, GA, 30117",17131986,"R"
539986,"35 THARP AVE SUITE A","WATSONVILLE","CA",95076,36.9213091,-121.74868878,486,"35 THARP AVE SUITE A, WATSONVILLE, CA, 95076","Match","Exact","35 THARP AVE, WATSONVILLE, CA, 95076",125514169,"L"
539987,"35 THAYER AVENUE","BROCKTON","MA",2301,42.0536663080001,-71.01281491,487,"35 THAYER AVENUE, BROCKTON, MA, 2301","Match","Exact","35 THAYER AVE, BROCKTON, MA, 02301",87445179,"R"
539988,"35 THOMAS ROAD","BERKLEY","MA",2779,41.8212602510001,-71.089783395,488,"35 THOMAS ROAD, BERKLEY, MA, 2779","Match","Exact","35 THOMAS RD, BERKLEY, MA, 02779",46778378,"L"
539989,"35 THOMASTON ST","HARTFORD","CT",6112,41.7928920190001,-72.696206837,489,"35 THOMASTON ST, HARTFORD, CT, 6112","Match","Exact","35 THOMASTON ST, HARTFORD, CT, 06112",3488876,"L"
539990,"35 THREE MILE DRIVE","KALISPELL","MT",59904,48.211411565,-114.333168966,490,"35 THREE MILE DRIVE, KALISPELL, MT, 59904","Match","Non_Exact","35 THREE MILE DR, KALISPELL, MT, 59901",640981604,"R"
539991,"35 TICKLE ROAD","WESTPORT","MA",2790,41.6440552190001,-71.118513342,491,"35 TICKLE ROAD, WESTPORT, MA, 2790","Match","Exact","35 TICKLE RD, WESTPORT, MA, 02790",46762364,"L"
539992,"35 TIFFANY DRIVE","LIVINGSTON","NJ",7039,40.7990334620001,-74.301120634,492,"35 TIFFANY DRIVE, LIVINGSTON, NJ, 7039","Match","Exact","35 TIFFANY DR, LIVINGSTON, NJ, 07039",63458605,"L"
539993,"35 TILFORD RD","SOMERDALE","NJ",8083,39.839900733,-75.0309406599999,493,"35 TILFORD RD, SOMERDALE, NJ, 8083","Match","Exact","35 TILFORD RD, SOMERDALE, NJ, 08083",134356822,"L"
539994,"35 TIMBER LANE","AUSTIN","AR",72007,34.9828844680001,-91.976136359,494,"35 TIMBER LANE, AUSTIN, AR, 72007","Match","Exact","35 TIMBER LN, AUSTIN, AR, 72007",649670685,"R"
539995,"35 TIMBER RIDGE CIRCLE","ARKADELPHIA","AR",71923,34.131334677,-93.073653339,495,"35 TIMBER RIDGE CIRCLE, ARKADELPHIA, AR, 71923","Match","Exact","35 TIMBER RIDGE CIR, ARKADELPHIA, AR, 71923",10558516,"L"
539996,"35 TIMBERIDGE DRIVE","LAKE WYLIE","SC",29710,35.109086609,-81.0687709439999,496,"35 TIMBERIDGE DRIVE, LAKE WYLIE, SC, 29710","Match","Exact","35 TIMBERIDGE DR, LAKE WYLIE, SC, 29710",644361992,"R"
539997,"35 TIMBERLINE DRIVE","WAYNE","NJ",7470,40.9434533130001,-74.2659154739999,497,"35 TIMBERLINE DRIVE, WAYNE, NJ, 7470","Match","Exact","35 TIMBERLINE DR, WAYNE, NJ, 07470",65268800,"L"
539998,"35 TINGLEY RD PO BOX 520","BROOKSIDE","NJ",7926,NA,NA,498,"35 TINGLEY RD PO BOX 520, BROOKSIDE, NJ, 7926","No_Match",NA,NA,NA,NA
539999,"35 TODD STREET","HAMDEN","CT",6518,41.4249310930001,-72.9079897829999,499,"35 TODD STREET, HAMDEN, CT, 6518","Match","Exact","35 TODD ST, HAMDEN, CT, 06518",651699921,"R"
540000,"35 TORONTO DRIVE","BRICK","NJ",8723,40.0143706690001,-74.088145615,500,"35 TORONTO DRIVE, BRICK, NJ, 8723","Match","Exact","35 TORONTO DR, BRICK, NJ, 08723",640451696,"R"
