"ID","Address","City","State","Zip","lat","long","id","input_address","match_indicator","match_type","matched_address","tiger_line_id","tiger_side"
238501,"166 MARSHFIELD FLATS RD","MARSHFIELD","ME",4654,44.733891246,-67.505100365,1,"166 MARSHFIELD FLATS RD, MARSHFIELD, ME, 4654","Match","Exact","166 MARSHFIELD FLATS RD, MARSHFIELD, ME, 04654",124235102,"L"
238502,"166 MCLAUGHLIN DR","WOODBURN","OR",97071,45.144837662,-122.865869221,2,"166 MCLAUGHLIN DR, WOODBURN, OR, 97071","Match","Exact","166 MCLAUGHLIN DR, WOODBURN, OR, 97071",156267740,"L"
238503,"166 MEADOW VIEW DRIVE","MIDDLETOWN","NY",10940,41.4338219690001,-74.399871345,3,"166 MEADOW VIEW DRIVE, MIDDLETOWN, NY, 10940","Match","Exact","166 MEADOW VIEW DR, MIDDLETOWN, NY, 10940",650051350,"R"
238504,"166 MERCER STREET SUITE 6B","NEW YORK","NY",10012,40.7253952070001,-73.9979377029999,4,"166 MERCER STREET SUITE 6B, NEW YORK, NY, 10012","Match","Exact","166 MERCER ST, NEW YORK, NY, 10012",59653752,"R"
238505,"166 MERMAID LANE","BRONX","NY",10473,40.8082906280001,-73.8544601369999,5,"166 MERMAID LANE, BRONX, NY, 10473","Match","Exact","166 MERMAID LN, BRONX, NY, 10473",632047913,"R"
238506,"166 MICKLER DRIVE","LADSON","SC",29456,32.9711643480001,-80.1446959849999,6,"166 MICKLER DRIVE, LADSON, SC, 29456","Match","Exact","166 MICKLER DR, LADSON, SC, 29456",178460399,"R"
238507,"166 MIDLAND AVENUE","BRONXVILLE","NY",10708,40.944499997,-73.824979836,7,"166 MIDLAND AVENUE, BRONXVILLE, NY, 10708","Match","Exact","166 MIDLAND AVE, BRONXVILLE, NY, 10708",139842522,"R"
238508,"166 MILLTOWN RD","SPRINGFIELD","NJ",7081,40.698584209,-74.317228272,8,"166 MILLTOWN RD, SPRINGFIELD, NJ, 7081","Match","Exact","166 MILLTOWN RD, SPRINGFIELD, NJ, 07081",60569287,"R"
238509,"166 MILLTOWN ROAD","SPRINGFIELD","NJ",7081,40.698584209,-74.317228272,9,"166 MILLTOWN ROAD, SPRINGFIELD, NJ, 7081","Match","Exact","166 MILLTOWN RD, SPRINGFIELD, NJ, 07081",60569287,"R"
238510,"166 MIRACLE FARM ROAD","STONY POINT","NC",28678,35.816873377,-81.038463972,10,"166 MIRACLE FARM ROAD, STONY POINT, NC, 28678","Match","Exact","166 MIRACLE FARM RD, STONY POINT, NC, 28678",46023831,"R"
238511,"166 MITCHELL ROAD","MAPLESVILLE","AL",36750,NA,NA,11,"166 MITCHELL ROAD, MAPLESVILLE, AL, 36750","No_Match",NA,NA,NA,NA
238512,"166 MONFREDO STREET","RUTHERFORDTON","NC",28139,35.364604641,-81.9602800279999,12,"166 MONFREDO STREET, RUTHERFORDTON, NC, 28139","Match","Exact","166 MONFREDO ST, RUTHERFORDTON, NC, 28139",636059912,"L"
238513,"166 MOONLIGHT DR","MURPHY","TX",75094,32.991800331,-96.6067687729999,13,"166 MOONLIGHT DR, MURPHY, TX, 75094","Match","Exact","166 MOONLIGHT DR, MURPHY, TX, 75094",642968480,"R"
238514,"166 MYRTLE AVE","NEWARK","OH",43055,40.091866279,-82.428932533,14,"166 MYRTLE AVE, NEWARK, OH, 43055","Match","Exact","166 MYRTLE AVE, NEWARK, OH, 43055",640520200,"R"
238515,"166 N DITHRIDGE STREET APT 2H","PITTSBURGH","PA",15213,NA,NA,15,"166 N DITHRIDGE STREET APT 2H, PITTSBURGH, PA, 15213","Tie",NA,NA,NA,NA
238516,"166 N ECKOFF ST","ORANGE","CA",92869,NA,NA,16,"166 N ECKOFF ST, ORANGE, CA, 92869","No_Match",NA,NA,NA,NA
238517,"166 N MANSFIELD","LOS ANGELES","CA",90036,34.074528474,-118.340769709,17,"166 N MANSFIELD, LOS ANGELES, CA, 90036","Match","Non_Exact","166 N MANSFIELD AVE, LOS ANGELES, CA, 90036",141599672,"R"
238518,"166 N SABIN ST","ST DAVID","AZ",85630,31.9083440590001,-110.264582428,18,"166 N SABIN ST, ST DAVID, AZ, 85630","Match","Exact","166 N SABIN ST, SAINT DAVID, AZ, 85630",120976829,"L"
238519,"166 NACOOCHEE WAY","CANTON","GA",30114,34.1821560340001,-84.518151654,19,"166 NACOOCHEE WAY, CANTON, GA, 30114","Match","Exact","166 NACOOCHEE WAY, CANTON, GA, 30114",629392803,"R"
238520,"166 NE 54 STREET","MIAMI","FL",33137,25.8253617140001,-80.1925264,20,"166 NE 54 STREET, MIAMI, FL, 33137","Match","Exact","166 NE 54TH ST, MIAMI, FL, 33137",116007319,"R"
238521,"166 NEW BOSTON ROAD","BEDFORD","NH",3110,42.9693427240001,-71.535741802,21,"166 NEW BOSTON ROAD, BEDFORD, NH, 3110","Match","Exact","166 NEW BOSTON RD, BEDFORD, NH, 03110",113558692,"R"
238522,"166 NICHOLS ROAD","OMAK","WA",98841,48.438557862,-119.507839756,22,"166 NICHOLS ROAD, OMAK, WA, 98841","Match","Exact","166 NICHOLS RD, OMAK, WA, 98841",641258087,"L"
238523,"166 NOLLIE ROAD","MYRTLE BEACH","SC",29588,33.697377165,-78.972446079,23,"166 NOLLIE ROAD, MYRTLE BEACH, SC, 29588","Match","Exact","166 NOLLIE RD, MYRTLE BEACH, SC, 29588",607428382,"R"
238524,"166 NORMANDY","LA CANADA","CA",91011,34.182458582,-118.176407592,24,"166 NORMANDY, LA CANADA, CA, 91011","Match","Non_Exact","166 NORMANDY LN, LA CANADA, CA, 91011",141804094,"L"
238525,"166 NORTH ECKHOFF STREET","ORANGE","CA",92868,33.7891706770001,-117.875009178,25,"166 NORTH ECKHOFF STREET, ORANGE, CA, 92868","Match","Exact","166 N ECKHOFF ST, ORANGE, CA, 92868",144041177,"L"
238526,"166 NORTHSHORES DRIVE","SENECA","SC",29672,34.8191532610001,-82.9359923009999,26,"166 NORTHSHORES DRIVE, SENECA, SC, 29672","Match","Exact","166 NORTHSHORES DR, SENECA, SC, 29672",617667760,"R"
238527,"166 NOTTINGHAM DRIVE","LEXINGTON","NC",27299,35.760109288,-80.3841503739999,27,"166 NOTTINGHAM DRIVE, LEXINGTON, NC, 27299","Match","Non_Exact","166 NOTTINGHAM DR, LINWOOD, NC, 27299",20204997,"R"
238528,"166 NUTMEG DRIVE","RUSTON","LA",71270,32.505678705,-92.682005928,28,"166 NUTMEG DRIVE, RUSTON, LA, 71270","Match","Exact","166 NUTMEG DR, RUSTON, LA, 71270",639534500,"R"
238529,"166 OAK RIDGE DRIVE","EDEN","NC",27288,36.479577007,-79.733935994,29,"166 OAK RIDGE DRIVE, EDEN, NC, 27288","Match","Exact","166 OAK RIDGE DR, EDEN, NC, 27288",636802631,"R"
238530,"166 OBERG COURT","MOUNTAIN VIEW","CA",94043,37.3910377220001,-122.057417096,30,"166 OBERG COURT, MOUNTAIN VIEW, CA, 94043","Match","Exact","166 OBERG CT, MOUNTAIN VIEW, CA, 94043",627318281,"R"
238531,"166 OLD BROOKFIELD ROAD UNIT 29 1","DANBURY","CT",6811,41.4213962650001,-73.421753915,31,"166 OLD BROOKFIELD ROAD UNIT 29 1, DANBURY, CT, 6811","Match","Non_Exact","166 OLD BROOKFIELD RD, DANBURY, CT, 06811",3233076,"R"
238532,"166 OLD ENTERPRISE ROAD","UPPER MARLBORO","MD",20774,38.8955081870001,-76.792024333,32,"166 OLD ENTERPRISE ROAD, UPPER MARLBORO, MD, 20774","Match","Exact","166 OLD ENTERPRISE RD, UPPER MARLBORO, MD, 20774",76393519,"L"
238533,"166 OLD FARM RD","CENTRAL CITY","PA",15924,40.035869264,-78.774334757,33,"166 OLD FARM RD, CENTRAL CITY, PA, 15924","Match","Non_Exact","166 OLD FARM RD, CENTRAL CITY, PA, 15926",634501235,"L"
238534,"166 OLENTANGY STREET","COLUMBUS","OH",43202,40.020148738,-83.008083053,34,"166 OLENTANGY STREET, COLUMBUS, OH, 43202","Match","Exact","166 OLENTANGY ST, COLUMBUS, OH, 43202",218654911,"L"
238535,"166 OSBOURNE LANE","DOVER","DE",19904,39.237622892,-75.5959630679999,35,"166 OSBOURNE LANE, DOVER, DE, 19904","Match","Exact","166 OSBOURNE LN, DOVER, DE, 19904",601698516,"R"
238536,"166 OSBOURNE LN","DOVER","DE",19904,39.237622892,-75.5959630679999,36,"166 OSBOURNE LN, DOVER, DE, 19904","Match","Exact","166 OSBOURNE LN, DOVER, DE, 19904",601698516,"R"
238537,"166 OTTAWA ST","REGINA",NA,NA,NA,NA,37,"166 OTTAWA ST, REGINA, , ","No_Match",NA,NA,NA,NA
238538,"166 OUAQUAGA ROAD","BINGHAMTON","NY",13904,42.1373298020001,-75.727357846,38,"166 OUAQUAGA ROAD, BINGHAMTON, NY, 13904","Match","Exact","166 OUAQUAGA RD, BINGHAMTON, NY, 13904",46358607,"R"
238539,"166 OXFORD RANCH ROAD","WAXAHACHIE","TX",75167,NA,NA,39,"166 OXFORD RANCH ROAD, WAXAHACHIE, TX, 75167","No_Match",NA,NA,NA,NA
238540,"166 PALOS VERDES","WHITE SALMON","WA",98672,45.7341781390001,-121.505178055,40,"166 PALOS VERDES, WHITE SALMON, WA, 98672","Match","Exact","166 PALOS VERDES, WHITE SALMON, WA, 98672",608008620,"R"
238541,"166 PEPPER DRIVE","LOS ALTOS","CA",94022,37.377291944,-122.110391724,41,"166 PEPPER DRIVE, LOS ALTOS, CA, 94022","Match","Exact","166 PEPPER DR, LOS ALTOS, CA, 94022",122954170,"R"
238542,"166 PINE AVE","DUMAS","TX",79029,35.8678922240001,-101.968128717,42,"166 PINE AVE, DUMAS, TX, 79029","Match","Exact","166 PINE AVE, DUMAS, TX, 79029",164659607,"R"
238543,"166 PINE CREEK AVENUE","FAIRFIELD","CT",6824,41.120979945,-73.26788594,43,"166 PINE CREEK AVENUE, FAIRFIELD, CT, 6824","Match","Exact","166 PINE CREEK AVE, FAIRFIELD, CT, 06824",3252409,"R"
238544,"166 PINE KNOB TRAIL","OTTO","NC",28763,35.0237508550001,-83.354536202,44,"166 PINE KNOB TRAIL, OTTO, NC, 28763","Match","Exact","166 PINE KNOB TRL, OTTO, NC, 28763",35521264,"R"
238545,"166 PINE STREET","APPOMATTOX","VA",24522,37.3529030180001,-78.817845451,45,"166 PINE STREET, APPOMATTOX, VA, 24522","Match","Exact","166 PINE ST, APPOMATTOX, VA, 24522",197927846,"R"
238546,"166 PINEWOOD AVE","PINEVILLE","LA",71360,31.352785883,-92.3559446529999,46,"166 PINEWOOD AVE, PINEVILLE, LA, 71360","Match","Exact","166 PINEWOOD AVE, PINEVILLE, LA, 71360",11813771,"R"
238547,"166 PINEWOOD AVENUE","STATEN ISLAND","NY",10306,40.5701832990001,-74.135111766,47,"166 PINEWOOD AVENUE, STATEN ISLAND, NY, 10306","Match","Exact","166 PINEWOOD AVE, STATEN ISLAND, NY, 10306",59885163,"L"
238548,"166 PITRE STREET","HOUMA","LA",70363,29.6015656430001,-90.705299601,48,"166 PITRE STREET, HOUMA, LA, 70363","Match","Exact","166 PITRE ST, HOUMA, LA, 70363",92061725,"R"
238549,"166 PLACID AVE","STRATFORD","CT",6615,41.180692558,-73.133586226,49,"166 PLACID AVE, STRATFORD, CT, 6615","Match","Exact","166 PLACID AVE, STRATFORD, CT, 06615",3267124,"R"
238550,"166 PLAISTOW ROAD","PLAISTOW","NH",3865,42.850894381,-71.103485926,50,"166 PLAISTOW ROAD, PLAISTOW, NH, 3865","Match","Exact","166 PLAISTOW RD, PLAISTOW, NH, 03865",627238986,"L"
238551,"166 POPLAR CREEK DRIVE","SPARTANBURG","SC",29303,34.9828288160001,-81.93715807,51,"166 POPLAR CREEK DRIVE, SPARTANBURG, SC, 29303","Match","Exact","166 POPLAR CREEK DR, SPARTANBURG, SC, 29303",19478668,"R"
238552,"166 PORTOBELLO RD","RADCLIFF","KY",40160,37.786646342,-85.916833034,52,"166 PORTOBELLO RD, RADCLIFF, KY, 40160","Match","Exact","166 PORTOBELLO RD, RADCLIFF, KY, 40160",619895764,"L"
238553,"166 PRESTON ST","RISGEFIELD PK","NJ",7660,40.8592193200001,-74.0195167859999,53,"166 PRESTON ST, RISGEFIELD PK, NJ, 7660","Match","Non_Exact","166 PRESTON ST, RIDGEFIELD PARK, NJ, 07660",64397859,"L"
238554,"166 PRIVATE ROAD 1147","LIBERTY","TX",77575,29.9468484860001,-94.7067122459999,54,"166 PRIVATE ROAD 1147, LIBERTY, TX, 77575","Match","Non_Exact","166 PVT RD 1147, LIBERTY, TX, 77575",24123789,"L"
238555,"166 PROPHETS PKWY","SANTA ROSA BEACH","FL",32459,30.354495028,-86.098788325,55,"166 PROPHETS PKWY, SANTA ROSA BEACH, FL, 32459","Match","Exact","166 PROPHETS PKWY, SANTA ROSA BEACH, FL, 32459",32998361,"R"
238556,"166 QUAIL CREEK DR","ROXBORO","NC",27574,36.3610430090001,-79.01525548,56,"166 QUAIL CREEK DR, ROXBORO, NC, 27574","Match","Exact","166 QUAIL CREEK DR, ROXBORO, NC, 27574",637475246,"R"
238557,"166 RALPH AVENUE","BROOKLYN","NY",11233,40.6842083060001,-73.922975964,57,"166 RALPH AVENUE, BROOKLYN, NY, 11233","Match","Exact","166 RALPH AVE, BROOKLYN, NY, 11233",59082864,"R"
238558,"166 RANCH TRAIL WEST","WILLIAMSVILLE","NY",14221,42.996893157,-78.751052471,58,"166 RANCH TRAIL WEST, WILLIAMSVILLE, NY, 14221","Match","Exact","166 RANCH TRL W, WILLIAMSVILLE, NY, 14221",48298380,"L"
238559,"166 RESEARCH RD","GREENBELT","MD",20770,39.013528368,-76.878580061,59,"166 RESEARCH RD, GREENBELT, MD, 20770","Match","Exact","166 RESEARCH RD, GREENBELT, MD, 20770",624197136,"R"
238560,"166 RESEARCH ROAD","GREENBELT","MD",20770,39.013528368,-76.878580061,60,"166 RESEARCH ROAD, GREENBELT, MD, 20770","Match","Exact","166 RESEARCH RD, GREENBELT, MD, 20770",624197136,"R"
238561,"166 RIDGEWAY DR","COLLEGE STATION","TX",77845,30.5621553880001,-96.318174359,61,"166 RIDGEWAY DR, COLLEGE STATION, TX, 77845","Match","Exact","166 RIDGEWAY DR, COLLEGE STATION, TX, 77845",21826035,"L"
238562,"166 RIDGEWOOD AVE 166","RIDGEWOOD","NJ",7450,NA,NA,62,"166 RIDGEWOOD AVE 166, RIDGEWOOD, NJ, 7450","Tie",NA,NA,NA,NA
238563,"166 ROCKY ROAD","DE QUEEN","AR",71832,34.090445006,-94.440999182,63,"166 ROCKY ROAD, DE QUEEN, AR, 71832","Match","Exact","166 ROCKY RD, DE QUEEN, AR, 71832",645951772,"L"
238564,"166 ROSEHILL DRIVE WEST","TALLAHASSEE","FL",32312,30.537922672,-84.271805359,64,"166 ROSEHILL DRIVE WEST, TALLAHASSEE, FL, 32312","Match","Exact","166 ROSEHILL DR W, TALLAHASSEE, FL, 32312",82867426,"R"
238565,"166 ROSEWOOD DR","WAPPINGERS FALLS","NY",12590,41.5654166590001,-73.8723389149999,65,"166 ROSEWOOD DR, WAPPINGERS FALLS, NY, 12590","Match","Exact","166 ROSEWOOD DR, WAPPINGERS FALLS, NY, 12590",4228345,"R"
238566,"166 ROUTE 50","OCEAN VIEW","NJ",8230,39.2317980350001,-74.707456866,66,"166 ROUTE 50, OCEAN VIEW, NJ, 8230","Match","Non_Exact","166 STATE RTE 50, OCEAN VIEW, NJ, 08230",645213122,"L"
238567,"166 ROY COURT CIRCLE","ROYAL PALM BEACH","FL",33411,26.726442757,-80.2295024589999,67,"166 ROY COURT CIRCLE, ROYAL PALM BEACH, FL, 33411","Match","Non_Exact","166 ROYCOURT CIR, ROYAL PALM BEACH, FL, 33411",115579793,"R"
238568,"166 ROYAL DRIVE","BRICK","NJ",8723,40.0324361240001,-74.120620125,68,"166 ROYAL DRIVE, BRICK, NJ, 8723","Match","Exact","166 ROYAL DR, BRICK, NJ, 08723",635804672,"L"
238569,"166 RUNNING PINE RD","BOONE","NC",28607,36.176053258,-81.5619399939999,69,"166 RUNNING PINE RD, BOONE, NC, 28607","Match","Exact","166 RUNNING PINE RD, BOONE, NC, 28607",234437168,"L"
238570,"166 S COEUR D ALENE ST APT D307","SPOKANE","WA",99201,47.654902539,-117.449277643,70,"166 S COEUR D ALENE ST APT D307, SPOKANE, WA, 99201","Match","Non_Exact","166 S COEUR D ALENE ST, SPOKANE, WA, 99201",189875513,"R"
238571,"166 S DOMER","WALNUT","CA",91789,34.014347351,-117.862175752,71,"166 S DOMER, WALNUT, CA, 91789","Match","Non_Exact","166 S DOMMER AVE, WALNUT, CA, 91789",141728560,"L"
238572,"166 S HAYWORTH","LOS ANGELES","CA",90048,34.0728722000001,-118.362604389,72,"166 S HAYWORTH, LOS ANGELES, CA, 90048","Match","Non_Exact","166 S HAYWORTH AVE, LOS ANGELES, CA, 90048",141598333,"L"
238573,"166 S LONG BEACH BLVD","COMPTON","CA",90221,33.8953694740001,-118.207922412,73,"166 S LONG BEACH BLVD, COMPTON, CA, 90221","Match","Exact","166 S LONG BEACH BLVD, COMPTON, CA, 90221",141678654,"L"
238574,"166 SADDLE WAY DR","BLOWING ROCK","NC",28605,36.1723930840001,-81.6859017309999,74,"166 SADDLE WAY DR, BLOWING ROCK, NC, 28605","Match","Exact","166 SADDLE WAY DR, BLOWING ROCK, NC, 28605",234432333,"R"
238575,"166 SAINT JAMES PLACE","BROOKLYN","NY",11238,40.6853060180001,-73.964165499,75,"166 SAINT JAMES PLACE, BROOKLYN, NY, 11238","Match","Exact","166 ST JAMES PL, BROOKLYN, NY, 11238",59077965,"R"
238576,"166 SALTON STALL AVENUE","NEW HAVEN","CT",6513,41.3047342400001,-72.900900344,76,"166 SALTON STALL AVENUE, NEW HAVEN, CT, 6513","Match","Non_Exact","166 SALTONSTALL AVE, NEW HAVEN, CT, 06513",648617269,"L"
238577,"166 SANTA ALICIA DRIVE APT 20","ROHNERT PARK","CA",94928,38.341492868,-122.708895964,77,"166 SANTA ALICIA DRIVE APT 20, ROHNERT PARK, CA, 94928","Match","Exact","166 SANTA ALICIA DR, ROHNERT PARK, CA, 94928",67533446,"L"
238578,"166 SAPODILLA DRIVE","ISLAMORADA","FL",33036,24.862159965,-80.723425274,78,"166 SAPODILLA DRIVE, ISLAMORADA, FL, 33036","Match","Exact","166 SAPODILLA DR, ISLAMORADA, FL, 33036",116468287,"R"
238579,"166 SAWMILL ROAD","LAKE KATRINE","NY",12449,41.9919174070001,-74.00042431,79,"166 SAWMILL ROAD, LAKE KATRINE, NY, 12449","Match","Exact","166 SAWMILL RD, LAKE KATRINE, NY, 12449",41932933,"L"
238580,"166 SCOTT DRIVE","ATLANTIC BEACH","NY",11509,40.588296304,-73.710042448,80,"166 SCOTT DRIVE, ATLANTIC BEACH, NY, 11509","Match","Exact","166 SCOTT DR, ATLANTIC BEACH, NY, 11509",147679223,"R"
238581,"166 SE CALERMO CIRCLE","PORT ST. L UCIE","FL",34984,NA,NA,81,"166 SE CALERMO CIRCLE, PORT ST. L UCIE, FL, 34984","No_Match",NA,NA,NA,NA
238582,"166 SEQUOYAH VIEW DRIVE","OAKLAND","CA",94605,37.760299178,-122.138681795,82,"166 SEQUOYAH VIEW DRIVE, OAKLAND, CA, 94605","Match","Exact","166 SEQUOYAH VIEW DR, OAKLAND, CA, 94605",125011066,"R"
238583,"166 SHADY GROVE CHURCH RD","FOXWORTH","MS",39483,31.1749074840001,-89.934711603,83,"166 SHADY GROVE CHURCH RD, FOXWORTH, MS, 39483","Match","Exact","166 SHADY GROVE CHURCH RD, FOXWORTH, MS, 39483",203476611,"R"
238584,"166 SHANNON AVE","MOUNT JACKSON","VA",22842,38.7444401120001,-78.640518363,84,"166 SHANNON AVE, MOUNT JACKSON, VA, 22842","Match","Exact","166 SHANNON AVE, MOUNT JACKSON, VA, 22842",55932003,"R"
238585,"166 SHERBORNE RD","LUCASVILLE","OH",45648,38.9123983750001,-82.904331918,85,"166 SHERBORNE RD, LUCASVILLE, OH, 45648","Match","Exact","166 SHERBORNE RD, LUCASVILLE, OH, 45648",55117105,"R"
238586,"166 SHERMAN ST","ASHLAND","OR",97520,42.191512684,-122.706692427,86,"166 SHERMAN ST, ASHLAND, OR, 97520","Match","Exact","166 SHERMAN ST, ASHLAND, OR, 97520",155521844,"R"
238587,"166 SHERWOOD DRIVE","DANVILLE","VA",24540,36.6052060430001,-79.396575916,87,"166 SHERWOOD DRIVE, DANVILLE, VA, 24540","Match","Exact","166 SHERWOOD DR, DANVILLE, VA, 24540",56589651,"R"
238588,"166 SIGMAN RD","SOUTHPORT","NC",28461,34.0386437240001,-78.051662565,88,"166 SIGMAN RD, SOUTHPORT, NC, 28461","Match","Exact","166 SIGMAN RD, SOUTHPORT, NC, 28461",153132513,"L"
238589,"166 SIMMONS ROAD","EAST HARTFORD","CT",6118,41.7687931,-72.618838491,89,"166 SIMMONS ROAD, EAST HARTFORD, CT, 6118","Match","Exact","166 SIMMONS RD, EAST HARTFORD, CT, 06118",633067453,"R"
238590,"166 SMITH AVE","ELIZABETHTON","TN",37643,36.3729367230001,-82.229141498,90,"166 SMITH AVE, ELIZABETHTON, TN, 37643","Match","Exact","166 SMITH AVE, ELIZABETHTON, TN, 37643",43055584,"R"
238591,"166 SMITH LN","ANNANDALE","MN",55302,NA,NA,91,"166 SMITH LN, ANNANDALE, MN, 55302","No_Match",NA,NA,NA,NA
238592,"166 SMITH ST 3B","BROOKLYN","NY",11201,40.6860358490001,-73.990942215,92,"166 SMITH ST 3B, BROOKLYN, NY, 11201","Match","Exact","166 SMITH ST, BROOKLYN, NY, 11201",59075265,"R"
238593,"166 SMITH STREET","DENDRON","VA",23839,37.0411215460001,-76.9432188919999,93,"166 SMITH STREET, DENDRON, VA, 23839","Match","Exact","166 SMITH ST, DENDRON, VA, 23839",168450789,"L"
238594,"166 SMITHS WINDING LANE","PIKEVILLE","NC",27863,35.4680041610001,-77.9481564929999,94,"166 SMITHS WINDING LANE, PIKEVILLE, NC, 27863","Match","Exact","166 SMITHS WINDING LN, PIKEVILLE, NC, 27863",14423595,"R"
238595,"166 SNELLING AVE S","SAINT PAUL","MN",55105,44.936437143,-93.1669984329999,95,"166 SNELLING AVE S, SAINT PAUL, MN, 55105","Match","Exact","166 SNELLING AVE S, SAINT PAUL, MN, 55105",97645809,"L"
238596,"166 SOUTH 4TH STREET","BROOKLYN","NY",11211,40.711319454,-73.961355469,96,"166 SOUTH 4TH STREET, BROOKLYN, NY, 11211","Match","Exact","166 S 4TH ST, BROOKLYN, NY, 11211",59076090,"R"
238597,"166 SOUTH 9TH ST","BROOKLYN","NY",11211,40.708480278,-73.962125659,97,"166 SOUTH 9TH ST, BROOKLYN, NY, 11211","Match","Exact","166 S 9TH ST, BROOKLYN, NY, 11211",59076152,"R"
238598,"166 SOUTH GARDNER","LOS ANGELES","CO",90036,NA,NA,98,"166 SOUTH GARDNER, LOS ANGELES, CO, 90036","No_Match",NA,NA,NA,NA
238599,"166 SOUTH HOLMAN WAY","GOLDEN","CO",80401,39.713168653,-105.162978395,99,"166 SOUTH HOLMAN WAY, GOLDEN, CO, 80401","Match","Exact","166 S HOLMAN WAY, GOLDEN, CO, 80401",648203078,"R"
238600,"166 SOUTH LOGAN STREET - APT 304","DENVER","CO",80209,39.7135270800001,-104.982812598,100,"166 SOUTH LOGAN STREET - APT 304, DENVER, CO, 80209","Match","Exact","166 S LOGAN ST, DENVER, CO, 80209",177331627,"L"
238601,"166 SOUTH MANNING BOULEVARD","ALBANY","NY",12208,42.662667012,-73.8005885119999,101,"166 SOUTH MANNING BOULEVARD, ALBANY, NY, 12208","Match","Exact","166 S MANNING BLVD, ALBANY, NY, 12208",18352998,"R"
238602,"166 SOUTH ST","HARTFORD","CT",6114,41.7350328410001,-72.6784664159999,102,"166 SOUTH ST, HARTFORD, CT, 6114","Match","Exact","166 SOUTH ST, HARTFORD, CT, 06114",3516010,"R"
238603,"166 SOUTHMOOR SHORES DRIVE","ST MARYS","OH",45885,40.515841268,-84.430249655,103,"166 SOUTHMOOR SHORES DRIVE, ST MARYS, OH, 45885","Match","Non_Exact","166 SOUTHMOOR SHORE DR, SAINT MARYS, OH, 45885",36460373,"L"
238604,"166 SPRING VALLEY CIRCLE","STOCKBRIDGE","GA",30281,33.5627138020001,-84.215759796,104,"166 SPRING VALLEY CIRCLE, STOCKBRIDGE, GA, 30281","Match","Exact","166 SPRING VALLEY CIR, STOCKBRIDGE, GA, 30281",23211962,"L"
238605,"166 ST CHARLES AVE","BILOXI","MS",39530,30.396559718,-88.930299427,105,"166 ST CHARLES AVE, BILOXI, MS, 39530","Match","Exact","166 ST CHARLES AVE, BILOXI, MS, 39530",111384206,"R"
238606,"166 STAFFORD ROAD","HAZEL GREEN","AL",35750,34.945150261,-86.6509373929999,106,"166 STAFFORD ROAD, HAZEL GREEN, AL, 35750","Match","Exact","166 STAFFORD RD, HAZEL GREEN, AL, 35750",58193407,"R"
238607,"166 STALLION","IRVINE","CA",92602,33.73384509,-117.746195012,107,"166 STALLION, IRVINE, CA, 92602","Match","Exact","166 STALLION, IRVINE, CA, 92602",649291077,"R"
238608,"166 STANFORD CT","IRVINE","CA",92612,33.6547810960001,-117.842324725,108,"166 STANFORD CT, IRVINE, CA, 92612","Match","Exact","166 STANFORD CT, IRVINE, CA, 92612",649777712,"R"
238609,"166 STANTON ST","RAHWAY","NJ",7065,40.602877645,-74.284817516,109,"166 STANTON ST, RAHWAY, NJ, 7065","Match","Exact","166 STANTON ST, RAHWAY, NJ, 07065",60562415,"L"
238610,"166 STEVENS LANE","GLASTONBURY","CT",6033,41.6966533130001,-72.601111295,110,"166 STEVENS LANE, GLASTONBURY, CT, 6033","Match","Exact","166 STEVENS LN, GLASTONBURY, CT, 06033",3496691,"R"
238611,"166 STEVENS LANE","GLASTONUBRY","CT",6033,41.6966533130001,-72.601111295,111,"166 STEVENS LANE, GLASTONUBRY, CT, 6033","Match","Non_Exact","166 STEVENS LN, GLASTONBURY, CT, 06033",3496691,"R"
238612,"166 STEWART WAY","MONROE","OH",45050,39.4341278270001,-84.36106079,112,"166 STEWART WAY, MONROE, OH, 45050","Match","Exact","166 STEWART WAY, MONROE, OH, 45050",113818284,"L"
238613,"166 STH NARDO AVE","SOLANA BEACH","CA",92075,NA,NA,113,"166 STH NARDO AVE, SOLANA BEACH, CA, 92075","Tie",NA,NA,NA,NA
238614,"166 STRATHMOOR CROSSING","DAYTON","OH",45429,39.6953097000001,-84.1709714369999,114,"166 STRATHMOOR CROSSING, DAYTON, OH, 45429","Match","Exact","166 STRATHMOOR CROSSING, DAYTON, OH, 45429",143599815,"L"
238615,"166 SUNNYBROOK RD","GLEN EYLLN","IL",60137,41.852442893,-88.0455685169999,115,"166 SUNNYBROOK RD, GLEN EYLLN, IL, 60137","Match","Non_Exact","166 SUNNYBROOK RD, GLEN ELLYN, IL, 60137",112601491,"R"
238616,"166 SUSSMANS ST","GREENSBORO","NC",27406,36.0516939460001,-79.792593145,116,"166 SUSSMANS ST, GREENSBORO, NC, 27406","Match","Exact","166 SUSSMANS ST, GREENSBORO, NC, 27406",131033655,"R"
238617,"166 TAYLOR DENTON LANE","HARVEST","AL",35749,34.822815308,-86.67970108,117,"166 TAYLOR DENTON LANE, HARVEST, AL, 35749","Match","Exact","166 TAYLOR DENTON LN, HARVEST, AL, 35749",58194249,"L"
238618,"166 TERRACE STREET 209","BOSTON","MA",2120,42.327149438,-71.098612697,118,"166 TERRACE STREET 209, BOSTON, MA, 2120","Match","Exact","166 TERRACE ST, BOSTON, MA, 02120",85699030,"L"
238619,"166 THOMPSON LANE","PORTLAND","TN",39148,36.4883153280001,-86.564201353,119,"166 THOMPSON LANE, PORTLAND, TN, 39148","Match","Non_Exact","166 THOMPSON LN, PORTLAND, TN, 37148",636668878,"R"
238620,"166 THROOP AVE APT 3B","BROOKLYN","NY",11206,40.699276099,-73.944162824,120,"166 THROOP AVE APT 3B, BROOKLYN, NY, 11206","Match","Exact","166 THROOP AVE, BROOKLYN, NY, 11206",59078969,"R"
238621,"166 TOLEDO WAY","MELBOURNE","FL",32955,28.220037801,-80.671342226,121,"166 TOLEDO WAY, MELBOURNE, FL, 32955","Match","Non_Exact","166 TOLEDO WAY, VIERA, FL, 32955",93926499,"R"
238622,"166 TRAMWAY CIR","ANGIER","NC",27501,35.5265956530001,-78.60865237,122,"166 TRAMWAY CIR, ANGIER, NC, 27501","Match","Exact","166 TRAMWAY CIR, ANGIER, NC, 27501",646640287,"R"
238623,"166 TRINITY PLACE","WEST HEMPSTEAD","NY",11552,40.7085241890001,-73.644422489,123,"166 TRINITY PLACE, WEST HEMPSTEAD, NY, 11552","Match","Exact","166 TRINITY PL, W HEMPSTEAD, NY, 11552",147673482,"R"
238624,"166 TRUAX RD","AMSTERDAM","NY",12010,42.925848569,-74.150264772,124,"166 TRUAX RD, AMSTERDAM, NY, 12010","Match","Exact","166 TRUAX RD, AMSTERDAM, NY, 12010",18624427,"R"
238625,"166 UPLAND RD","SHARON","MA",2067,42.1241823710001,-71.196440803,125,"166 UPLAND RD, SHARON, MA, 2067","Match","Exact","166 UPLAND RD, SHARON, MA, 02067",87262225,"R"
238626,"166 UPLAND ROAD","SHARON","MA",2067,42.1241823710001,-71.196440803,126,"166 UPLAND ROAD, SHARON, MA, 2067","Match","Exact","166 UPLAND RD, SHARON, MA, 02067",87262225,"R"
238627,"166 V F W DR APT 1A","WATKINSVILLE","GA",30677,33.8649803710001,-83.4193807249999,127,"166 V F W DR APT 1A, WATKINSVILLE, GA, 30677","Match","Non_Exact","166 VFW DR, WATKINSVILLE, GA, 30677",633250975,"L"
238628,"166 VALLEY ST","PROVIDENCE","RI",2909,41.820824885,-71.440285919,128,"166 VALLEY ST, PROVIDENCE, RI, 2909","Match","Exact","166 VALLEY ST, PROVIDENCE, RI, 02909",47460453,"L"
238629,"166 VALLEY STREET","PROVIDENCE","RI",2907,NA,NA,129,"166 VALLEY STREET, PROVIDENCE, RI, 2907","No_Match",NA,NA,NA,NA
238630,"166 W 75TH ST APARTMENT 608","NEW YORK","NY",10023,40.780350422,-73.9797153649999,130,"166 W 75TH ST APARTMENT 608, NEW YORK, NY, 10023","Match","Non_Exact","166 W 75TH ST, NEW YORK, NY, 10023",650080792,"L"
238631,"166 W 8TH ST","BAYONNE","NJ",7002,40.656626745,-74.13233818,131,"166 W 8TH ST, BAYONNE, NJ, 7002","Match","Exact","166 W 8TH ST, BAYONNE, NJ, 07002",59602317,"L"
238632,"166 W ANGUS RD","SAN TAN VALLEY","AZ",85143,33.198632214,-111.567549156,132,"166 W ANGUS RD, SAN TAN VALLEY, AZ, 85143","Match","Exact","166 W ANGUS RD, SAN TAN VALLEY, AZ, 85143",627631733,"L"
238633,"166 W BODIE STREET","ROSEBURG","OR",97471,43.2196817340001,-123.385959148,133,"166 W BODIE STREET, ROSEBURG, OR, 97471","Match","Exact","166 W BODIE ST, ROSEBURG, OR, 97471",137231562,"L"
238634,"166 W CR 1100 N","BRAZIL","IN",47834,39.5470688230001,-87.110811933,134,"166 W CR 1100 N, BRAZIL, IN, 47834","Match","Exact","166 W CO RD 1100 N, BRAZIL, IN, 47834",41742963,"R"
238635,"166 W CRYSTAL LAKE AVE","CRYSTAL LAKE","IL",60014,42.241056352,-88.3275865529999,135,"166 W CRYSTAL LAKE AVE, CRYSTAL LAKE, IL, 60014","Match","Exact","166 W CRYSTAL LAKE AVE, CRYSTAL LAKE, IL, 60014",119819904,"L"
238636,"166 W FAIRMONT PLACE","MOUNT PROSPECT","IL",60056,42.094507181,-87.94088594,136,"166 W FAIRMONT PLACE, MOUNT PROSPECT, IL, 60056","Match","Exact","166 W FAIRMONT PL, MOUNT PROSPECT, IL, 60056",111847080,"L"
238637,"166 W FREDRICK ST","MILLERSVILLE","PA",17551,39.9960139240001,-76.361500233,137,"166 W FREDRICK ST, MILLERSVILLE, PA, 17551","Match","Non_Exact","166 W FREDERICK ST, MILLERSVILLE, PA, 17551",179663604,"L"
238638,"166 W INTERLAKEN RD","FAIRMONT","MN",56031,43.611959465,-94.463466752,138,"166 W INTERLAKEN RD, FAIRMONT, MN, 56031","Match","Exact","166 INTERLAKEN RD, FAIRMONT, MN, 56031",9979095,"L"
238639,"166 W MAIN ST","ENON","OH",45323,39.8775635810001,-83.9386247579999,139,"166 W MAIN ST, ENON, OH, 45323","Match","Exact","166 W MAIN ST, ENON, OH, 45323",135022459,"R"
238640,"166 W PROSCPECT STREET","PITTSBURGH","PA",15205,NA,NA,140,"166 W PROSCPECT STREET, PITTSBURGH, PA, 15205","No_Match",NA,NA,NA,NA
238641,"166 WALLACE HILL ROAD","FRANCONIA","NH",3580,44.231707038,-71.743584594,141,"166 WALLACE HILL ROAD, FRANCONIA, NH, 3580","Match","Exact","166 WALLACE HILL RD, FRANCONIA, NH, 03580",145674673,"R"
238642,"166 WALNUR ROAD","LANDENBERG","PA",19350,NA,NA,142,"166 WALNUR ROAD, LANDENBERG, PA, 19350","No_Match",NA,NA,NA,NA
238643,"166 WALSER LANE","LEXINGTON","NC",27295,35.879160557,-80.307520475,143,"166 WALSER LANE, LEXINGTON, NC, 27295","Match","Exact","166 WALSER LN, LEXINGTON, NC, 27295",604809563,"R"
238644,"166 WALSTON LANE","CAMDEN","NC",27921,36.2728816310001,-76.1032751779999,144,"166 WALSTON LANE, CAMDEN, NC, 27921","Match","Exact","166 WALSTON LN, CAMDEN, NC, 27921",120630466,"R"
238645,"166 WATSONTOWN NEW FREEDOM ROAD","BERLIN","NJ",8009,39.7915803770001,-74.9560427329999,145,"166 WATSONTOWN NEW FREEDOM ROAD, BERLIN, NJ, 8009","Match","Exact","166 WATSONTOWN NEW FREEDOM RD, BERLIN, NJ, 08009",134420335,"R"
238646,"166 WAYPOINT DR","LANCASTER","PA",17603,40.0072128040001,-76.335309934,146,"166 WAYPOINT DR, LANCASTER, PA, 17603","Match","Exact","166 WAYPOINT DR, LANCASTER, PA, 17603",649499325,"L"
238647,"166 WEST PARKSIDE DR","SHAWNEE HILLS","OH",43065,40.1582845500001,-83.1378073289999,147,"166 WEST PARKSIDE DR, SHAWNEE HILLS, OH, 43065","Match","Exact","166 W PARKSIDE DR, SHAWNEE HILLS, OH, 43065",213002451,"R"
238648,"166 WHITEFOORD AVE","ATLANTA","GA",30307,33.7581901250001,-84.3419777989999,148,"166 WHITEFOORD AVE, ATLANTA, GA, 30307","Match","Non_Exact","166 WHITEFOORD AVE NE, ATLANTA, GA, 30307",23377414,"L"
238649,"166 WHITEFOORD AVENUE NE","ATLANTA","GA",30307,33.7581901250001,-84.3419777989999,149,"166 WHITEFOORD AVENUE NE, ATLANTA, GA, 30307","Match","Exact","166 WHITEFOORD AVE NE, ATLANTA, GA, 30307",23377414,"L"
238650,"166 WILLIAMSBURG WAY","WINDER","GA",30680,34.008886599,-83.7216698249999,150,"166 WILLIAMSBURG WAY, WINDER, GA, 30680","Match","Exact","166 WILLIAMSBURG WAY, WINDER, GA, 30680",653485391,"L"
238651,"166 WILSON STREET","MARLBOROUGH","MA",1752,42.3531669110001,-71.508523012,151,"166 WILSON STREET, MARLBOROUGH, MA, 1752","Match","Exact","166 WILSON ST, MARLBOROUGH, MA, 01752",645365854,"R"
238652,"166 WINDTREE STREET","TORRINGTON","CT",6790,41.8243961470001,-73.0850155859999,152,"166 WINDTREE STREET, TORRINGTON, CT, 6790","Match","Exact","166 WINDTREE ST, TORRINGTON, CT, 06790",3104203,"R"
238653,"166 WINDWARD WAY","PORT HAYWOOD,","VA",23138,37.3665998640001,-76.3310080809999,153,"166 WINDWARD WAY, PORT HAYWOOD,, VA, 23138","Match","Exact","166 WINDWARD WAY, PORT HAYWOOD, VA, 23138",199450472,"R"
238654,"166 WINTERGREEN TRAIL","SPRING","TX",77382,30.2092259880001,-95.5328701879999,154,"166 WINTERGREEN TRAIL, SPRING, TX, 77382","Match","Exact","166 WINTERGREEN TRL, SPRING, TX, 77382",79319591,"R"
238655,"166 WITHERSPOON ST STE 2","PRINCETON","NJ",8542,40.3542407910001,-74.6617287079999,155,"166 WITHERSPOON ST STE 2, PRINCETON, NJ, 8542","Match","Exact","166 WITHERSPOON ST, PRINCETON, NJ, 08542",617910296,"L"
238656,"166 WORCESTER","DETROIT","MI",48260,NA,NA,156,"166 WORCESTER, DETROIT, MI, 48260","No_Match",NA,NA,NA,NA
238657,"166 WYNDHAM HILL ROAD","MIDDLETOWN","RI",2842,41.513528783,-71.262752748,157,"166 WYNDHAM HILL ROAD, MIDDLETOWN, RI, 2842","Match","Exact","166 WYNDHAM HILL RD, MIDDLETOWN, RI, 02842",47362122,"L"
238658,"166 WYNNBROOKE DRIVE","CARROLLTON","GA",30116,33.5412524430001,-85.029147945,158,"166 WYNNBROOKE DRIVE, CARROLLTON, GA, 30116","Match","Exact","166 WYNNBROOKE DR, CARROLLTON, GA, 30116",17126989,"L"
238659,"166 ZIEGLER RD","SCOTLAND","CT",6264,NA,NA,159,"166 ZIEGLER RD, SCOTLAND, CT, 6264","No_Match",NA,NA,NA,NA
238660,"166-02 17TH AVE","WHITESTONE","NY",11357,40.7827885560001,-73.7968778979999,160,"166-02 17TH AVE, WHITESTONE, NY, 11357","Match","Exact","166-2 17TH AVE, WHITESTONE, NY, 11357",59701844,"R"
238661,"166-05 HIGH LAND AVENUE APT 8G","JAMAICA","NY",11432,40.7111675840001,-73.797299218,161,"166-05 HIGH LAND AVENUE APT 8G, JAMAICA, NY, 11432","Match","Non_Exact","166-5 HIGHLAND AVE, JAMAICA, NY, 11432",59712075,"L"
238662,"166-05 HIGHLAND AVE APT 6A","JAMAICA","NY",11432,40.7111675840001,-73.797299218,162,"166-05 HIGHLAND AVE APT 6A, JAMAICA, NY, 11432","Match","Exact","166-5 HIGHLAND AVE, JAMAICA, NY, 11432",59712075,"L"
238663,"166-07 43RD AVE","FLUSHING","NY",11358,40.7584506630001,-73.800348001,163,"166-07 43RD AVE, FLUSHING, NY, 11358","Match","Exact","166-7 43RD AVE, FLUSHING, NY, 11358",59702341,"L"
238664,"166-11 24TH ROAD","WHITESTONE","NY",11357,40.775133673,-73.7977061409999,164,"166-11 24TH ROAD, WHITESTONE, NY, 11357","Match","Exact","166-11 24TH RD, WHITESTONE, NY, 11357",59702057,"L"
238665,"166-12 UNION TURNPIKE","FRESH MEADOWS","NY",11366,40.72237799,-73.8018190719999,165,"166-12 UNION TURNPIKE, FRESH MEADOWS, NY, 11366","Match","Exact","166-12 UNION TPKE, FRESH MEADOWS, NY, 11366",59711845,"R"
238666,"166-14 140TH AVE","JAMAICA","NY",11432,40.67071392,-73.7734790709999,166,"166-14 140TH AVE, JAMAICA, NY, 11432","Match","Non_Exact","166 140TH AVE, JAMAICA, NY, 11434",59719583,"R"
238667,"166-25 12TH AVE","WHITESTONE","NY",11357,40.7914024900001,-73.796566233,167,"166-25 12TH AVE, WHITESTONE, NY, 11357","Match","Exact","166-25 12TH AVE, WHITESTONE, NY, 11357",59701781,"L"
238668,"166-25 12TH AVENUE 2B","WHITESTONE","NY",11357,40.7914024900001,-73.796566233,168,"166-25 12TH AVENUE 2B, WHITESTONE, NY, 11357","Match","Exact","166-25 12TH AVE, WHITESTONE, NY, 11357",59701781,"L"
238669,"166-27 26TH AVENUE","FLUSHING","NY",11358,40.7730046780001,-73.797935732,169,"166-27 26TH AVENUE, FLUSHING, NY, 11358","Match","Exact","166-27 26TH AVE, FLUSHING, NY, 11358",59702113,"L"
238670,"166-33 89TH AVENUE  9C","JAMAICA","NY",11432,40.708259958,-73.7949029019999,170,"166-33 89TH AVENUE  9C, JAMAICA, NY, 11432","Match","Exact","166-33 89TH AVE, JAMAICA, NY, 11432",59712146,"L"
238671,"166-34A 137TH AVE","JAMAICA","NY",11434,NA,NA,171,"166-34A 137TH AVE, JAMAICA, NY, 11434","Tie",NA,NA,NA,NA
238672,"166","COLLEGE STATION","TX",77845,NA,NA,172,"166, COLLEGE STATION, TX, 77845","No_Match",NA,NA,NA,NA
238673,"166","KING GEORGE","VA",22485,NA,NA,173,"166, KING GEORGE, VA, 22485","No_Match",NA,NA,NA,NA
238674,"166","MCGAHEYSVILLE","VA",22840,NA,NA,174,"166, MCGAHEYSVILLE, VA, 22840","No_Match",NA,NA,NA,NA
238675,"1660 12TH AVE","SEATTLE","WA",98122,47.6159533210001,-122.316857299,175,"1660 12TH AVE, SEATTLE, WA, 98122","Match","Exact","1660 12TH AVE, SEATTLE, WA, 98122",186587557,"R"
238676,"1660 135TH STREET","LARCHWOOD","IA",51241,43.4548391070001,-96.455229937,176,"1660 135TH STREET, LARCHWOOD, IA, 51241","Match","Exact","1660 135TH ST, LARCHWOOD, IA, 51241",30197398,"R"
238677,"1660 21ST RD N 3","ARLINGTON","VA",22209,38.899496019,-77.0789572639999,177,"1660 21ST RD N 3, ARLINGTON, VA, 22209","Match","Exact","1660 21ST RD N, ARLINGTON, VA, 22209",76470719,"L"
238678,"1660 31ST STREET S","ST PETERSBURG","FL",33712,27.754227562,-82.675228626,178,"1660 31ST STREET S, ST PETERSBURG, FL, 33712","Match","Exact","1660 31ST ST S, SAINT PETERSBURG, FL, 33712",124705774,"L"
238679,"1660 ANDOVER WAY","PETALUMA","CA",94954,38.270406043,-122.649968118,179,"1660 ANDOVER WAY, PETALUMA, CA, 94954","Match","Exact","1660 ANDOVER WAY, PETALUMA, CA, 94954",67531165,"L"
238680,"1660 BANNON CREEK DR","SACRAMENTO","CA",95833,38.617637399,-121.499581878,180,"1660 BANNON CREEK DR, SACRAMENTO, CA, 95833","Match","Exact","1660 BANNON CREEK DR, SACRAMENTO, CA, 95833",133320156,"R"
238681,"1660 BARNES MILL ROAD","MARIETTA",NA,NA,33.971947394,-84.504148774,181,"1660 BARNES MILL ROAD, MARIETTA, , ","Match","Exact","1660 BARNES MILL RD, MARIETTA, GA, 30062",17200850,"R"
238682,"1660 BIG BEND DRIVE","LEWSVILLE","TX",75077,33.0666153550001,-97.041876246,182,"1660 BIG BEND DRIVE, LEWSVILLE, TX, 75077","Match","Non_Exact","1660 BIG BEND DR, LEWISVILLE, TX, 75077",103388371,"L"
238683,"1660 BRIGID LANE","ARCATA","CA",95521,40.852241877,-124.068446355,183,"1660 BRIGID LANE, ARCATA, CA, 95521","Match","Exact","1660 BRIGID LN, ARCATA, CA, 95521",113021523,"R"
238684,"1660 CAMDEN COURT","REDLANDS","CA",92374,34.078379295,-117.157060191,184,"1660 CAMDEN COURT, REDLANDS, CA, 92374","Match","Exact","1660 CAMDEN CT, REDLANDS, CA, 92374",650153134,"L"
238685,"1660 CAMINO BELLO LN","EL PASO","TX",79902,31.783683818,-106.484560908,185,"1660 CAMINO BELLO LN, EL PASO, TX, 79902","Match","Exact","1660 CAMINO BELLO LN, EL PASO, TX, 79902",189408784,"R"
238686,"1660 CAMINO OLMO - D","THOUSAND OAKS","CA",91320,NA,NA,186,"1660 CAMINO OLMO - D, THOUSAND OAKS, CA, 91320","No_Match",NA,NA,NA,NA
238687,"1660 CELEBRITY","FLORISSANT","MO",63303,NA,NA,187,"1660 CELEBRITY, FLORISSANT, MO, 63303","No_Match",NA,NA,NA,NA
238688,"1660 CHATTANOOGA VALLEY RD","FLINTSTONE","GA",30725,34.892814865,-85.3509575749999,188,"1660 CHATTANOOGA VALLEY RD, FLINTSTONE, GA, 30725","Match","Non_Exact","1660 OLD CHATTANOOGA VALLEY RD, FLINTSTONE, GA, 30725",66719036,"L"
238689,"1660 CHERY BLOSSOM LANE APT 101","WINSTON SALEM","NC",27127,36.0191902870001,-80.2631894739999,189,"1660 CHERY BLOSSOM LANE APT 101, WINSTON SALEM, NC, 27127","Match","Non_Exact","1660 CHERRY BLOSSOM LN, WINSTON SALEM, NC, 27127",627582965,"L"
238690,"1660 CHESTNUT STREET","BOWLING GREEN","KY",42101,36.982676569,-86.452869242,190,"1660 CHESTNUT STREET, BOWLING GREEN, KY, 42101","Match","Exact","1660 CHESTNUT ST, BOWLING GREEN, KY, 42101",28005812,"R"
238691,"1660 COLONIAL MANOR DR","LANCASTER","PA",17603,40.0265956480001,-76.345861704,191,"1660 COLONIAL MANOR DR, LANCASTER, PA, 17603","Match","Exact","1660 COLONIAL MANOR DR, LANCASTER, PA, 17603",179663455,"L"
238692,"1660 CORTLAND STREET","DERUYTER","NY",13052,42.7568532970001,-75.88633472,192,"1660 CORTLAND STREET, DERUYTER, NY, 13052","Match","Non_Exact","1660 CORTLAND ST, DE RUYTER, NY, 13052",46499602,"R"
238693,"1660 CR 2270","CLEVELAND","TX",77327,30.308923067,-94.9646558759999,193,"1660 CR 2270, CLEVELAND, TX, 77327","Match","Exact","1660 CO RD 2270, CLEVELAND, TX, 77327",24105372,"R"
238694,"1660 CYPRESS PT","PAHRUMP","NV",89048,36.1785386290001,-115.982533543,194,"1660 CYPRESS PT, PAHRUMP, NV, 89048","Match","Non_Exact","1660 CYPRESS POINT CT, PAHRUMP, NV, 89048",140579238,"L"
238695,"1660 DARTMOUTH COURT","NAPERVILLE","IL",60565,41.740386588,-88.101008658,195,"1660 DARTMOUTH COURT, NAPERVILLE, IL, 60565","Match","Exact","1660 DARTMOUTH CT, NAPERVILLE, IL, 60565",112538205,"R"
238696,"1660 DARTMOUTH CT","NAPERVILLE","IL",60565,41.740386588,-88.101008658,196,"1660 DARTMOUTH CT, NAPERVILLE, IL, 60565","Match","Exact","1660 DARTMOUTH CT, NAPERVILLE, IL, 60565",112538205,"R"
238697,"1660 DEVON","YPSILANTI","MI",48197,NA,NA,197,"1660 DEVON, YPSILANTI, MI, 48197","No_Match",NA,NA,NA,NA
238698,"1660 DOGWOOD DR SE","CONYERS","GA",30013,33.6452231110001,-83.9913478729999,198,"1660 DOGWOOD DR SE, CONYERS, GA, 30013","Match","Exact","1660 DOGWOOD DR SE, CONYERS, GA, 30013",642558368,"L"
238699,"1660 DREW CIR UNIT 32","DAVIS","CA",95618,38.538172994,-121.726876689,199,"1660 DREW CIR UNIT 32, DAVIS, CA, 95618","Match","Exact","1660 DREW CIR, DAVIS, CA, 95618",67701494,"L"
238700,"1660 DUKE STREET","ALEXANDRIA","VA",22314,38.8041483310001,-77.05894704,200,"1660 DUKE STREET, ALEXANDRIA, VA, 22314","Match","Exact","1660 DUKE ST, ALEXANDRIA, VA, 22314",638934536,"R"
238701,"1660 E 90TH ST","PEABODY","KS",66866,38.203309217,-97.087040998,201,"1660 E 90TH ST, PEABODY, KS, 66866","Match","Exact","1660 90TH ST, PEABODY, KS, 66866",120700883,"R"
238702,"1660 E BROPHY LAKE RD NW","A","MN",56308,NA,NA,202,"1660 E BROPHY LAKE RD NW, A, MN, 56308","No_Match",NA,NA,NA,NA
238703,"1660 E COTTONWOOD ST","COTTONWOOD","AZ",86326,34.7286280180001,-112.008837573,203,"1660 E COTTONWOOD ST, COTTONWOOD, AZ, 86326","Match","Exact","1660 E COTTONWOOD ST, COTTONWOOD, AZ, 86326",159452936,"L"
238704,"1660 EAST 2450 NORTH","NORTH LOGAN","UT",84341,NA,NA,204,"1660 EAST 2450 NORTH, NORTH LOGAN, UT, 84341","No_Match",NA,NA,NA,NA
238705,"1660 EAST NIGHTINGALE LANE","GILBERT","AZ",85298,33.258831689,-111.753992829,205,"1660 EAST NIGHTINGALE LANE, GILBERT, AZ, 85298","Match","Exact","1660 E NIGHTINGALE LN, GILBERT, AZ, 85298",625684067,"L"
238706,"1660 EAST RICHMOND AVENUE","FRESNO","CA",93720,36.8580017780001,-119.753538182,206,"1660 EAST RICHMOND AVENUE, FRESNO, CA, 93720","Match","Exact","1660 E RICHMOND AVE, FRESNO, CA, 93720",197599773,"L"
238707,"1660 EL CAMINO VERDE DRIVE","LINCOLN","CA",95648,38.9068249050001,-121.322678654,207,"1660 EL CAMINO VERDE DRIVE, LINCOLN, CA, 95648","Match","Exact","1660 EL CAMINO VERDE DR, LINCOLN, CA, 95648",106800055,"L"
238708,"1660 FIRE LANE DRIVE","GREEN BAY","WI",54311,44.4707420180001,-87.991724437,208,"1660 FIRE LANE DRIVE, GREEN BAY, WI, 54311","Match","Exact","1660 FIRE LANE DR, GREEN BAY, WI, 54311",148107580,"L"
238709,"1660 FOREST AVENUE","PASADENA","CA",91103,34.175051243,-118.162471343,209,"1660 FOREST AVENUE, PASADENA, CA, 91103","Match","Exact","1660 FOREST AVE, PASADENA, CA, 91103",141627517,"R"
238710,"1660 FOREST CREEK DRIVE","BLUE BELL","PA",19422,40.162486642,-75.319857621,210,"1660 FOREST CREEK DRIVE, BLUE BELL, PA, 19422","Match","Exact","1660 FOREST CREEK DR, BLUE BELL, PA, 19422",135130897,"L"
238711,"1660 FREISMAN RD","LIVERMORE","CA",94551,37.6986971950001,-121.848126358,211,"1660 FREISMAN RD, LIVERMORE, CA, 94551","Match","Exact","1660 FREISMAN RD, LIVERMORE, CA, 94551",125052497,"R"
238712,"1660 FULTON AVENUE","BROOKLYN","NY",11213,40.6795327310001,-73.933812201,212,"1660 FULTON AVENUE, BROOKLYN, NY, 11213","Match","Non_Exact","1660 FULTON ST, BROOKLYN, NY, 11213",59079315,"R"
238713,"1660 FULTON STREET RM 6BB","BROOKYLN","NY",11213,40.6795327310001,-73.933812201,213,"1660 FULTON STREET RM 6BB, BROOKYLN, NY, 11213","Match","Non_Exact","1660 FULTON ST, BROOKLYN, NY, 11213",59079315,"R"
238714,"1660 FULTON STREET RM 6JJ","BROOKLYN","NY",11213,40.6795327310001,-73.933812201,214,"1660 FULTON STREET RM 6JJ, BROOKLYN, NY, 11213","Match","Exact","1660 FULTON ST, BROOKLYN, NY, 11213",59079315,"R"
238715,"1660 GILSTRAP LANE NW","ATLANTA","GA",30318,33.810061074,-84.448564228,215,"1660 GILSTRAP LANE NW, ATLANTA, GA, 30318","Match","Exact","1660 GILSTRAP LN NW, ATLANTA, GA, 30318",618350042,"L"
238716,"1660 GROVE ST APT33","DENVER","CO",80204,39.743454738,-105.02680599,216,"1660 GROVE ST APT33, DENVER, CO, 80204","Match","Exact","1660 GROVE ST, DENVER, CO, 80204",177301545,"R"
238717,"1660 HARVEST","DOUGLASVILLE","GA",30134,33.761324427,-84.8224276879999,217,"1660 HARVEST, DOUGLASVILLE, GA, 30134","Match","Non_Exact","1660 HARVEST HL, DOUGLASVILLE, GA, 30134",618477209,"R"
238718,"1660 HASTINGS COURT","YUBA CITY","CA",95991,39.1008031310001,-121.623482472,218,"1660 HASTINGS COURT, YUBA CITY, CA, 95991","Match","Exact","1660 HASTINGS CT, YUBA CITY, CA, 95991",68583680,"L"
238719,"1660 HASTINGS DRIVE","FORT COLLINS","CO",80526,40.551006151,-105.107433124,219,"1660 HASTINGS DRIVE, FORT COLLINS, CO, 80526","Match","Exact","1660 HASTINGS DR, FORT COLLINS, CO, 80526",188490731,"R"
238720,"1660 HINES LAKEVIEW DR","CUMBERLAND","WI",54829,45.53707532,-92.033285717,220,"1660 HINES LAKEVIEW DR, CUMBERLAND, WI, 54829","Match","Exact","1660 HINES LAKEVIEW DR, CUMBERLAND, WI, 54829",126303822,"R"
238721,"1660 HOOKER OAK AVENUE","CHICO","CA",95926,39.751743162,-121.809578933,221,"1660 HOOKER OAK AVENUE, CHICO, CA, 95926","Match","Exact","1660 HOOKER OAK AVE, CHICO, CA, 95926",68473426,"L"
238722,"1660 HOTEL CIR N STE 330","SAN DIEGO","CA",92108,NA,NA,222,"1660 HOTEL CIR N STE 330, SAN DIEGO, CA, 92108","No_Match",NA,NA,NA,NA
238723,"1660 HOTEL CIR N STE 500","SAN DIEGO","CA",92108,NA,NA,223,"1660 HOTEL CIR N STE 500, SAN DIEGO, CA, 92108","No_Match",NA,NA,NA,NA
238724,"1660 HOTEL CR NORTH  SUITE 725","SAN DIEGO","CA",92108,NA,NA,224,"1660 HOTEL CR NORTH  SUITE 725, SAN DIEGO, CA, 92108","No_Match",NA,NA,NA,NA
238725,"1660 HOTEL CR NORTH SUITE 725","SAN DIEGO","CA",92108,NA,NA,225,"1660 HOTEL CR NORTH SUITE 725, SAN DIEGO, CA, 92108","No_Match",NA,NA,NA,NA
238726,"1660 HUMBOLDT ROAD SUITE 6","CHICO","CA",95928,39.7363800030001,-121.812240068,226,"1660 HUMBOLDT ROAD SUITE 6, CHICO, CA, 95928","Match","Exact","1660 HUMBOLDT RD, CHICO, CA, 95928",68472881,"L"
238727,"1660 KATY GAP RD APT 20103","KATY","TX",77494,29.766806807,-95.7810603029999,227,"1660 KATY GAP RD APT 20103, KATY, TX, 77494","Match","Exact","1660 KATY GAP RD, KATY, TX, 77494",650116912,"R"
238728,"1660 KATY GAP ROAD","KATY","TX",77494,29.766806807,-95.7810603029999,228,"1660 KATY GAP ROAD, KATY, TX, 77494","Match","Exact","1660 KATY GAP RD, KATY, TX, 77494",650116912,"R"
238729,"1660 KOAIA CT","HONOLULU","HI",96818,21.336949641,-157.904104383,229,"1660 KOAIA CT, HONOLULU, HI, 96818","Match","Exact","1660 KOAIA CT, HONOLULU, HI, 96818",203336107,"R"
238730,"1660 LACHINE DR","SUNNYVALE","CA",94087,37.3388908530001,-122.045118447,230,"1660 LACHINE DR, SUNNYVALE, CA, 94087","Match","Exact","1660 LACHINE DR, SUNNYVALE, CA, 94087",122937929,"L"
238731,"1660 LILLY LANE  UNIT 8","DAVENPORT","IA",52807,41.5836583340001,-90.552538849,231,"1660 LILLY LANE  UNIT 8, DAVENPORT, IA, 52807","Match","Exact","1660 LILLY LN, DAVENPORT, IA, 52807",650855670,"L"
238732,"1660 LOCKE ROAD","MILLINGTON","TN",38053,35.306708429,-90.016866191,232,"1660 LOCKE ROAD, MILLINGTON, TN, 38053","Match","Exact","1660 LOCKE RD, MILLINGTON, TN, 38053",72897082,"R"
238733,"1660 LONGEST DRIVE","FRANKLIN","IN",46131,39.482870631,-86.029281759,233,"1660 LONGEST DRIVE, FRANKLIN, IN, 46131","Match","Exact","1660 LONGEST DR, FRANKLIN, IN, 46131",114651354,"L"
238734,"1660 MALCOLM POINT DRIVE","WINTERGARDEN","FL",34787,NA,NA,234,"1660 MALCOLM POINT DRIVE, WINTERGARDEN, FL, 34787","No_Match",NA,NA,NA,NA
238735,"1660 MALCOM POINT DRIVE","WINTERGARDEN","FL",34787,NA,NA,235,"1660 MALCOM POINT DRIVE, WINTERGARDEN, FL, 34787","No_Match",NA,NA,NA,NA
238736,"1660 MAN O WAR","HOPE MILLS","NC",28348,34.9228165440001,-78.89559839,236,"1660 MAN O WAR, HOPE MILLS, NC, 28348","Match","Non_Exact","1660 MAN O WAR DR, HOPE MILLS, NC, 28348",646702294,"R"
238737,"1660 MANTON","CATON","MI",48187,42.317445493,-83.46328657,237,"1660 MANTON, CATON, MI, 48187","Match","Non_Exact","1660 MANTON BLVD, CANTON, MI, 48187",95409296,"R"
238738,"1660 MATT LEONARD DRIVE SW","BIRMINGHAM","AL",35211,33.4613383270001,-86.858859152,238,"1660 MATT LEONARD DRIVE SW, BIRMINGHAM, AL, 35211","Match","Exact","1660 MATT LEONARD DR SW, BIRMINGHAM, AL, 35211",81559495,"R"
238739,"1660 MCCORD HILL ROAD","WELLSBURG","WV",26070,40.2350833420001,-80.622487545,239,"1660 MCCORD HILL ROAD, WELLSBURG, WV, 26070","Match","Exact","1660 MCCORD HILL RD, WELLSBURG, WV, 26070",54990229,"R"
238740,"1660 MEMORY LANE","ARROYO GRANDE","CA",93420,35.15932975,-120.603413513,240,"1660 MEMORY LANE, ARROYO GRANDE, CA, 93420","Match","Exact","1660 MEMORY LN, ARROYO GRANDE, CA, 93420",631772615,"R"
238741,"1660 MINERAL LANE","BENNETTSVILLE","SC",29512,34.581905057,-79.7344488429999,241,"1660 MINERAL LANE, BENNETTSVILLE, SC, 29512","Match","Exact","1660 MINERAL LN, BENNETTSVILLE, SC, 29512",640410046,"R"
238742,"1660 N 2600 W","LEHI","UT",84043,40.4080869430001,-111.890840881,242,"1660 N 2600 W, LEHI, UT, 84043","Match","Exact","1660 N 2600 W, LEHI, UT, 84043",134264549,"R"
238743,"1660 N WOODLAWN ST","WHEATON","IL",60187,41.8805148120001,-88.124994509,243,"1660 N WOODLAWN ST, WHEATON, IL, 60187","Match","Exact","1660 N WOODLAWN ST, WHEATON, IL, 60187",645416560,"L"
238744,"1660 NE 146 ST","MIAMI","FL",33181,25.910196345,-80.165917571,244,"1660 NE 146 ST, MIAMI, FL, 33181","Match","Exact","1660 NE 146TH ST, MIAMI, FL, 33181",116036439,"R"
238745,"1660 NE 150TH ST 202","NORTH MIAMI BEACH","FL",33181,25.913781366,-80.165913148,245,"1660 NE 150TH ST 202, NORTH MIAMI BEACH, FL, 33181","Match","Non_Exact","1660 NE 150TH ST, N MIAMI BEACH, FL, 33181",116036429,"R"
238746,"1660 NORTH MAITLAND AVE","MAITLAND","FL",32751,28.6401411520001,-81.364969849,246,"1660 NORTH MAITLAND AVE, MAITLAND, FL, 32751","Match","Exact","1660 N MAITLAND AVE, MAITLAND, FL, 32751",94275279,"R"
238747,"1660 NW ELIZA COURT","ALBANY","OR",97321,NA,NA,247,"1660 NW ELIZA COURT, ALBANY, OR, 97321","No_Match",NA,NA,NA,NA
238748,"1660 OAK PLACE BLVD APT 101","HENRICO","VA",23231,NA,NA,248,"1660 OAK PLACE BLVD APT 101, HENRICO, VA, 23231","No_Match",NA,NA,NA,NA
238749,"1660 OAKPOINTE DRIVE","WACONIA","MN",55387,44.827355561,-93.814352759,249,"1660 OAKPOINTE DRIVE, WACONIA, MN, 55387","Match","Exact","1660 OAKPOINTE DR, WACONIA, MN, 55387",235835463,"L"
238750,"1660 OLD MANDEVILLE LN","MANDEVILLE","LA",70448,30.3660420210001,-90.039049126,250,"1660 OLD MANDEVILLE LN, MANDEVILLE, LA, 70448","Match","Exact","1660 OLD MANDEVILLE LN, MANDEVILLE, LA, 70448",636969524,"L"
238751,"1660 PAPAGO DR","LAKE HAVASU CITY","AZ",86403,34.4848912410001,-114.346185719,251,"1660 PAPAGO DR, LAKE HAVASU CITY, AZ, 86403","Match","Exact","1660 PAPAGO DR, LAKE HAVASU CITY, AZ, 86403",651111064,"R"
238752,"1660 PARKVIEW CT","GARNET VALLEY","PA",19060,39.8359755920001,-75.483788529,252,"1660 PARKVIEW CT, GARNET VALLEY, PA, 19060","Match","Exact","1660 PARKVIEW CT, GARNET VALLEY, PA, 19060",624746151,"L"
238753,"1660 PAYTEN DRIVE","NEWTOWN","PA",18940,NA,NA,253,"1660 PAYTEN DRIVE, NEWTOWN, PA, 18940","No_Match",NA,NA,NA,NA
238754,"1660 PEACHTREE ST APT 5302","ATLANTA","GA",30309,33.7985965070001,-84.391390078,254,"1660 PEACHTREE ST APT 5302, ATLANTA, GA, 30309","Match","Non_Exact","1660 PEACHTREE ST NW, ATLANTA, GA, 30309",638967791,"L"
238755,"1660 PEACHTREE ST NW APT 4409","ATLANTA","GA",30309,33.7985965070001,-84.391390078,255,"1660 PEACHTREE ST NW APT 4409, ATLANTA, GA, 30309","Match","Exact","1660 PEACHTREE ST NW, ATLANTA, GA, 30309",638967791,"L"
238756,"1660 PEACHTREE STREET NW UNIT 6208","ATLANTA","GA",30309,33.7985965070001,-84.391390078,256,"1660 PEACHTREE STREET NW UNIT 6208, ATLANTA, GA, 30309","Match","Exact","1660 PEACHTREE ST NW, ATLANTA, GA, 30309",638967791,"L"
238757,"1660 POLI ST","VENTURA","CA",93001,34.281233593,-119.275005994,257,"1660 POLI ST, VENTURA, CA, 93001","Match","Exact","1660 POLI ST, VENTURA, CA, 93001",109951218,"R"
238758,"1660 PRACHTREE STREET NW  6215","ATLANTA","GA",30309,NA,NA,258,"1660 PRACHTREE STREET NW  6215, ATLANTA, GA, 30309","No_Match",NA,NA,NA,NA
238759,"1660 RACHFILED TRAIL","ROMEOVILLE","IL",60446,41.6064282200001,-88.141518849,259,"1660 RACHFILED TRAIL, ROMEOVILLE, IL, 60446","Match","Non_Exact","1660 RICHFIELD TRL, ROMEOVILLE, IL, 60446",639731529,"L"
238760,"1660 RAILROAD GRADE RD","BUCKHANNON","WV",26201,38.9032070960001,-80.211086123,260,"1660 RAILROAD GRADE RD, BUCKHANNON, WV, 26201","Match","Exact","1660 RAILROAD GRADE RD, BUCKHANNON, WV, 26201",636677022,"R"
238761,"1660 REDBUD CIRCLE","NORTH LIBERTY","IA",52317,41.7678738720001,-91.589121528,261,"1660 REDBUD CIRCLE, NORTH LIBERTY, IA, 52317","Match","Exact","1660 REDBUD CIR, NORTH LIBERTY, IA, 52317",617543615,"R"
238762,"1660 RENAISSANCE COMMONS BLVD 2203","BOYNTON BEACH","FL",33426,26.5429290710001,-80.0881350509999,262,"1660 RENAISSANCE COMMONS BLVD 2203, BOYNTON BEACH, FL, 33426","Match","Exact","1660 RENAISSANCE COMMONS BLVD, BOYNTON BEACH, FL, 33426",640264981,"L"
238763,"1660 RENAISSANCE COMMONS BLVD","BOYTON BEACH","FL",33426,26.5429290710001,-80.0881350509999,263,"1660 RENAISSANCE COMMONS BLVD, BOYTON BEACH, FL, 33426","Match","Non_Exact","1660 RENAISSANCE COMMONS BLVD, BOYNTON BEACH, FL, 33426",640264981,"L"
238764,"1660 RENAISSANCE COMMONS UNIT 2618","BOYNTON BEACH","FL",33426,26.5429290710001,-80.0881350509999,264,"1660 RENAISSANCE COMMONS UNIT 2618, BOYNTON BEACH, FL, 33426","Match","Non_Exact","1660 RENAISSANCE COMMONS BLVD, BOYNTON BEACH, FL, 33426",640264981,"L"
238765,"1660 RINGLING BLVD","SARASOTA","FL",34236,27.334943395,-82.5373809439999,265,"1660 RINGLING BLVD, SARASOTA, FL, 34236","Match","Exact","1660 RINGLING BLVD, SARASOTA, FL, 34236",16348002,"R"
238766,"1660 ROCK SPRINGS LANE","WOODSTOCK","GA",30188,34.122116697,-84.4107205619999,266,"1660 ROCK SPRINGS LANE, WOODSTOCK, GA, 30188","Match","Exact","1660 ROCK SPRINGS LN, WOODSTOCK, GA, 30188",68856230,"R"
238767,"1660 ROSEMARY DRIVE","CASTLE ROCK","CO",10192,39.3887805900001,-104.880341013,267,"1660 ROSEMARY DRIVE, CASTLE ROCK, CO, 10192","Match","Non_Exact","1660 ROSEMARY DR, CASTLE ROCK, CO, 80109",636172335,"R"
238768,"1660 S 52ND ST","WEST MILWAUKEE","WI",53214,43.012952768,-87.9780075739999,268,"1660 S 52ND ST, WEST MILWAUKEE, WI, 53214","Match","Exact","1660 S 52ND ST, W MILWAUKEE, WI, 53214",77734524,"L"
238769,"1660 S ALBION ST STE 712","DENVER","CT",80222,NA,NA,269,"1660 S ALBION ST STE 712, DENVER, CT, 80222","No_Match",NA,NA,NA,NA
238770,"1660 S ALBION SUITE 309","DENVER","CO",80222,NA,NA,270,"1660 S ALBION SUITE 309, DENVER, CO, 80222","No_Match",NA,NA,NA,NA
238771,"1660 S ALMA SCHOOL RD STE 226","MESA","AZ",85210,33.3844189550001,-111.857450165,271,"1660 S ALMA SCHOOL RD STE 226, MESA, AZ, 85210","Match","Non_Exact","1660 S ALMA SCHOOL RD, MESA, AZ, 85210",128788753,"R"
238772,"1660 S BUTTERNUT","WICHITA","KS",67230,37.6635957350001,-97.163758346,272,"1660 S BUTTERNUT, WICHITA, KS, 67230","Match","Non_Exact","1660 S BUTTERNUT DR, WICHITA, KS, 67230",647582459,"L"
238773,"1660 S CITY VIEW TRAIL","PRESCOTT","AZ",86303,34.5179299490001,-112.498204091,273,"1660 S CITY VIEW TRAIL, PRESCOTT, AZ, 86303","Match","Exact","1660 S CITY VIEW TRL, PRESCOTT, AZ, 86303",608167647,"L"
238774,"1660 S HIGHWAY 100 SUITE 100 A","ST LOUIS PARK","MN",55416,NA,NA,274,"1660 S HIGHWAY 100 SUITE 100 A, ST LOUIS PARK, MN, 55416","No_Match",NA,NA,NA,NA
238775,"1660 S STETSON COURT","APACHE JUNCTION","AZ",85119,33.4000748020001,-111.5445925,275,"1660 S STETSON COURT, APACHE JUNCTION, AZ, 85119","Match","Exact","1660 STETSON CT, APACHE JUNCTION, AZ, 85119",129254011,"L"
238776,"1660 SHAMROCK AVENUE","UPLAND","CA",91784,34.1238470340001,-117.666150286,276,"1660 SHAMROCK AVENUE, UPLAND, CA, 91784","Match","Exact","1660 SHAMROCK AVE, UPLAND, CA, 91784",144669894,"R"
238777,"1660 SOUTH AMPHLETT BLVD - STE 245","SAN MATEO","CA",94402,37.558545086,-122.301644805,277,"1660 SOUTH AMPHLETT BLVD - STE 245, SAN MATEO, CA, 94402","Match","Exact","1660 S AMPHLETT BLVD, SAN MATEO, CA, 94402",192379441,"R"
238778,"1660 SOUTH COLUMBIAN WAY","SEATTLE","WA",98108,47.562120221,-122.311219206,278,"1660 SOUTH COLUMBIAN WAY, SEATTLE, WA, 98108","Match","Exact","1660 S COLUMBIAN WAY, SEATTLE, WA, 98108",637888671,"R"
238779,"1660 SOUTH EXTENSION","CHEBOYGAN","MI",49721,45.4918544990001,-84.6098257359999,279,"1660 SOUTH EXTENSION, CHEBOYGAN, MI, 49721","Match","Non_Exact","1660 S EXTENSION RD, CHEBOYGAN, MI, 49721",134529704,"L"
238780,"1660 SOUTH LA REINA WAY","PALM SPRINGS","CA",92264,NA,NA,280,"1660 SOUTH LA REINA WAY, PALM SPRINGS, CA, 92264","No_Match",NA,NA,NA,NA
238781,"1660 SOUTH STATE ROAD 2","VALPARAISO","IN",46385,41.4508604430001,-87.0731310469999,281,"1660 SOUTH STATE ROAD 2, VALPARAISO, IN, 46385","Match","Exact","1660 S STATE RD 2, VALPARAISO, IN, 46385",119914231,"R"
238782,"1660 SOUTHEAST BLVD","EVANSVILLE","IN",47714,37.9654335980001,-87.5352466699999,282,"1660 SOUTHEAST BLVD, EVANSVILLE, IN, 47714","Match","Exact","1660 SOUTHEAST BLVD, EVANSVILLE, IN, 47714",39785580,"L"
238783,"1660 SPRINGHILL AVENUE","MOBILE","AL",36604,30.6923547160001,-88.074645572,283,"1660 SPRINGHILL AVENUE, MOBILE, AL, 36604","Match","Non_Exact","1660 SPRING HILL AVE, MOBILE, AL, 36604",614406718,"L"
238784,"1660 ST LAWRENCE DRIVE","NICEVILLE","FL",32578,30.4972067850001,-86.444649472,284,"1660 ST LAWRENCE DRIVE, NICEVILLE, FL, 32578","Match","Exact","1660 SAINT LAWRENCE DR, NICEVILLE, FL, 32578",624343242,"L"
238785,"1660 STEPHENS DRIVE","WAYNE","PA",19087,40.090318826,-75.4290614929999,285,"1660 STEPHENS DRIVE, WAYNE, PA, 19087","Match","Exact","1660 STEPHENS DR, WAYNE, PA, 19087",179513256,"L"
238786,"1660 SUMMERHOUSE LANE STE 601","SARASOTA","FL",34242,27.260283191,-82.538588693,286,"1660 SUMMERHOUSE LANE STE 601, SARASOTA, FL, 34242","Match","Non_Exact","1660 SUMMER HOUSE LN, SARASOTA, FL, 34242",624693374,"L"
238787,"1660 TALL TIMBER DRIVE","TYLER","TX",75703,32.2423370450001,-95.3369206679999,287,"1660 TALL TIMBER DRIVE, TYLER, TX, 75703","Match","Exact","1660 TALL TIMBER DR, TYLER, TX, 75703",141284433,"R"
238788,"1660 TOPPING AVE APT 3B","BRONX","MA",10457,NA,NA,288,"1660 TOPPING AVE APT 3B, BRONX, MA, 10457","No_Match",NA,NA,NA,NA
238789,"1660 TOPPING AVE APT 3B","BRONX","NY",10457,40.843349979,-73.905886605,289,"1660 TOPPING AVE APT 3B, BRONX, NY, 10457","Match","Exact","1660 TOPPING AVE, BRONX, NY, 10457",80301189,"R"
238790,"1660 TORO DRIVE","BULLHEAD CITY","AZ",86442,35.11045848,-114.587439548,290,"1660 TORO DRIVE, BULLHEAD CITY, AZ, 86442","Match","Exact","1660 TORO DR, BULLHEAD CITY, AZ, 86442",190317174,"R"
238791,"1660 TOWNSHIP ROAD 500N","STRONGHURST","IL",61480,NA,NA,291,"1660 TOWNSHIP ROAD 500N, STRONGHURST, IL, 61480","No_Match",NA,NA,NA,NA
238792,"1660 TROY AVENUE","BROOKLYN","NY",11234,40.6315344490001,-73.934048143,292,"1660 TROY AVENUE, BROOKLYN, NY, 11234","Match","Exact","1660 TROY AVE, BROOKLYN, NY, 11234",652210241,"R"
238793,"1660 UNION ST APT B2","BROOKLYN","NY",11213,40.667948865,-73.9335406019999,293,"1660 UNION ST APT B2, BROOKLYN, NY, 11213","Match","Exact","1660 UNION ST, BROOKLYN, NY, 11213",59079784,"R"
238794,"1660 UNION STREET STE D-2","BROOKLYN","NY",11213,40.667948865,-73.9335406019999,294,"1660 UNION STREET STE D-2, BROOKLYN, NY, 11213","Match","Exact","1660 UNION ST, BROOKLYN, NY, 11213",59079784,"R"
238795,"1660 UNIVERSITY AVE","SAN JOSE","CA",95126,37.3331586890001,-121.930250162,295,"1660 UNIVERSITY AVE, SAN JOSE, CA, 95126","Match","Exact","1660 UNIVERSITY AVE, SAN JOSE, CA, 95126",618194499,"L"
238796,"1660 VALENTINE DR","CEDAR RAPIDS","IA",52302,42.080395605,-91.590447313,296,"1660 VALENTINE DR, CEDAR RAPIDS, IA, 52302","Match","Non_Exact","1660 VALENTINE DR, MARION, IA, 52302",17049037,"L"
238797,"1660 VALLEY FORGE CT","BROOKFIELD","WI",53045,43.053792437,-88.164841224,297,"1660 VALLEY FORGE CT, BROOKFIELD, WI, 53045","Match","Exact","1660 VALLEY FORGE CT, BROOKFIELD, WI, 53045",53836383,"L"
238798,"1660 VAN BUREN DRIVE","NORTH BRUNSWICK","NJ",8902,40.442028339,-74.4649383839999,298,"1660 VAN BUREN DRIVE, NORTH BRUNSWICK, NJ, 8902","Match","Exact","1660 VAN BUREN DR, N BRUNSWICK, NJ, 08902",60264958,"L"
238799,"1660 W 13TH","JUNCTION CITY","OR",97448,44.225351903,-123.218913259,299,"1660 W 13TH, JUNCTION CITY, OR, 97448","Match","Non_Exact","1660 W 13TH AVE, JUNCTION CITY, OR, 97448",178229990,"R"
238800,"1660 W 146TH ST 6","GARDENA","CA",90247,33.898990079,-118.306747918,300,"1660 W 146TH ST 6, GARDENA, CA, 90247","Match","Non_Exact","1660 W 146TH ST, GARDENA, CA, 90247",142754379,"L"
238801,"1660 W ANTELOPE STE 225","LAYTON","UT",84041,NA,NA,301,"1660 W ANTELOPE STE 225, LAYTON, UT, 84041","No_Match",NA,NA,NA,NA
238802,"1660 W MAPLE ST","FAYETTEVILLE","AR",72701,36.070565021,-94.183398116,302,"1660 W MAPLE ST, FAYETTEVILLE, AR, 72701","Match","Exact","1660 W MAPLE ST, FAYETTEVILLE, AR, 72701",49045008,"R"
238803,"1660 W MINNEHAHA AVENUE","SAINT PAUL","MN",55104,44.962856925,-93.170563859,303,"1660 W MINNEHAHA AVENUE, SAINT PAUL, MN, 55104","Match","Exact","1660 W MINNEHAHA AVE, SAINT PAUL, MN, 55104",97641290,"L"
238804,"1660 WALDROP ROAD","LAWRENCEVILLE","GA",30043,34.046472916,-83.970297956,304,"1660 WALDROP ROAD, LAWRENCEVILLE, GA, 30043","Match","Exact","1660 WALDROP RD, LAWRENCEVILLE, GA, 30043",652435233,"R"
238805,"1660 WEST 220TH STREET APT 4","TORRANCE","CA",90501,33.827939546,-118.307897099,305,"1660 WEST 220TH STREET APT 4, TORRANCE, CA, 90501","Match","Non_Exact","1660 220TH ST, TORRANCE, CA, 90501",141668550,"L"
238806,"1660 WILKINSON WAY","SMYRNA","GA",30080,33.874224102,-84.504255428,306,"1660 WILKINSON WAY, SMYRNA, GA, 30080","Match","Exact","1660 WILKINSON WAY, SMYRNA, GA, 30080",17244162,"R"
238807,"1660 WINCHESTER DR","BLUE BELL","PA",19422,40.156730571,-75.3172138199999,307,"1660 WINCHESTER DR, BLUE BELL, PA, 19422","Match","Exact","1660 WINCHESTER DR, BLUE BELL, PA, 19422",135074519,"L"
238808,"1660 WINCHESTER ROAD","LYNDHURST","OH",44124,41.5146782570001,-81.48719998,308,"1660 WINCHESTER ROAD, LYNDHURST, OH, 44124","Match","Exact","1660 WINCHESTER RD, LYNDHURST, OH, 44124",61134111,"R"
238809,"16600 BAY CLUB DR","CLERMONT","FL",34711,28.5324151950001,-81.680693305,309,"16600 BAY CLUB DR, CLERMONT, FL, 34711","Match","Exact","16600 BAY CLUB DR, CLERMONT, FL, 34711",94160481,"R"
238810,"16600 CENTER WAY","GUERNEVILLE","CA",95446,38.4986440860001,-123.002419365,310,"16600 CENTER WAY, GUERNEVILLE, CA, 95446","Match","Exact","16600 CENTER WAY, GUERNEVILLE, CA, 95446",67451330,"R"
238811,"16600 DOWNEY AVE SPC 96","PARAMOUNT","CA",90723,33.88351937,-118.151306633,311,"16600 DOWNEY AVE SPC 96, PARAMOUNT, CA, 90723","Match","Exact","16600 DOWNEY AVE, PARAMOUNT, CA, 90723",142774057,"L"
238812,"16600 E PHILLIPS LN","ENGLEWOOD","CO",80112,39.5663368,-104.795248349,312,"16600 E PHILLIPS LN, ENGLEWOOD, CO, 80112","Match","Exact","16600 E PHILLIPS LN, ENGLEWOOD, CO, 80112",177541479,"R"
238813,"16600 FALLS CITY ROAD","DALLAS","OR",97338,44.8559105510001,-123.370066806,313,"16600 FALLS CITY ROAD, DALLAS, OR, 97338","Match","Exact","16600 FALLS CITY RD, DALLAS, OR, 97338",155783796,"L"
238814,"16600 HARWOOD OAKS COURT-302","DUMFRIES","VA",22026,38.591978065,-77.309490056,314,"16600 HARWOOD OAKS COURT-302, DUMFRIES, VA, 22026","Match","Non_Exact","16600 HARWOOD OAKS CT, DUMFRIES, VA, 22026",619954692,"R"
238815,"16600 HOLLOW TREE LANE","WELLINGTON","FL",33470,26.64390875,-80.308544967,315,"16600 HOLLOW TREE LANE, WELLINGTON, FL, 33470","Match","Exact","16600 HOLLOW TREE LN, WELLINGTON, FL, 33470",115532084,"L"
238816,"16600 LIBERTY CIRCLE APT 1N","ORLAND PARK","IL",60467,41.5884343450001,-87.859320897,316,"16600 LIBERTY CIRCLE APT 1N, ORLAND PARK, IL, 60467","Match","Exact","16600 LIBERTY CIR, ORLAND PARK, IL, 60467",644233448,"L"
238817,"16600 MONTEREY RD NUM 1767","MORGAN HILL","CA",95037,NA,NA,317,"16600 MONTEREY RD NUM 1767, MORGAN HILL, CA, 95037","No_Match",NA,NA,NA,NA
238818,"16600 N ANCHOROM ROAD","HALLSVILLE","MO",65255,39.1474769010001,-92.2540728439999,318,"16600 N ANCHOROM ROAD, HALLSVILLE, MO, 65255","Match","Exact","16600 N ANCHOROM RD, HALLSVILLE, MO, 65255",648056549,"R"
238819,"16600 N LEAF LAKE ROAD","LAKE PARK","MN",56554,46.801045989,-96.0569082219999,319,"16600 N LEAF LAKE ROAD, LAKE PARK, MN, 56554","Match","Exact","16600 N LEAF LAKE RD, LAKE PARK, MN, 56554",167946059,"L"
238820,"16600 N THOMPSON PEAK PKWY UNIT 201","SCOTTSDALE","AZ",85260,33.636790456,-111.860795988,320,"16600 N THOMPSON PEAK PKWY UNIT 201, SCOTTSDALE, AZ, 85260","Match","Non_Exact","16600 N THOMPSON PEAK PKWY, SCOTTSDALE, AZ, 85260",243917695,"L"
238821,"16600 NE 102ND AVE","BATTLEGROUND","WA",98604,45.7420741760001,-122.568319097,321,"16600 NE 102ND AVE, BATTLEGROUND, WA, 98604","Match","Non_Exact","16600 NE 102ND AVE, BATTLE GROUND, WA, 98604",651945965,"L"
238822,"16600 NE 32ND ST","VANCOUVER","WA",98682,45.6452960250001,-122.501196432,322,"16600 NE 32ND ST, VANCOUVER, WA, 98682","Match","Exact","16600 NE 32ND ST, VANCOUVER, WA, 98682",158368910,"L"
238823,"16600 NW 112TH COURT","REDDICK","FL",32686,29.384429847,-82.309865313,323,"16600 NW 112TH COURT, REDDICK, FL, 32686","Match","Exact","16600 NW 112TH CT, REDDICK, FL, 32686",116840780,"L"
238824,"16600 S TILSON RD","RUDYARD","MI",49780,46.2655157900001,-84.592618694,324,"16600 S TILSON RD, RUDYARD, MI, 49780","Match","Exact","16600 S TILSON RD, RUDYARD, MI, 49780",130551349,"L"
238825,"16600 WESTMORELAND","DETROIT","MI",48219,42.410671221,-83.235324248,325,"16600 WESTMORELAND, DETROIT, MI, 48219","Match","Non_Exact","16600 WESTMORELAND RD, DETROIT, MI, 48219",95733272,"R"
238826,"16601 2ND ST S","LAKELAND","MN",55043,44.946059575,-92.7697831789999,326,"16601 2ND ST S, LAKELAND, MN, 55043","Match","Exact","16601 2ND ST S, LAKELAND, MN, 55043",625083087,"L"
238827,"16601 EAST 47TH STREET","TULSA","OK",74134,36.0968415230001,-95.7929939049999,327,"16601 EAST 47TH STREET, TULSA, OK, 74134","Match","Exact","16601 E 47TH ST, TULSA, OK, 74134",630272869,"L"
238828,"16601 FLOTILLA WAY","WOODBRIDGE",NA,NA,38.590436518,-77.2938582949999,328,"16601 FLOTILLA WAY, WOODBRIDGE, , ","Match","Exact","16601 FLOTILLA WAY, WOODBRIDGE, VA, 22191",207141606,"R"
238829,"16601 MEADOWVALE AVENUE","CEVELAND","OH",44128,41.4346467510001,-81.564032421,329,"16601 MEADOWVALE AVENUE, CEVELAND, OH, 44128","Match","Non_Exact","16601 MEADOWVALE AVE, CLEVELAND, OH, 44128",61127836,"L"
238830,"16601 N 12TH ST APT 1017","PHOENIX","AZ",85022,33.637372537,-112.0568298,330,"16601 N 12TH ST APT 1017, PHOENIX, AZ, 85022","Match","Non_Exact","16601 N 12TH ST, PHOENIX, AZ, 85022",243967887,"R"
238831,"16601 NIGHTHAWK LANE","SAN DIEGO","CA",92127,NA,NA,331,"16601 NIGHTHAWK LANE, SAN DIEGO, CA, 92127","No_Match",NA,NA,NA,NA
238832,"16601 NORTH 12TH STREET","PHOENIX","AZ",85022,33.637372537,-112.0568298,332,"16601 NORTH 12TH STREET, PHOENIX, AZ, 85022","Match","Exact","16601 N 12TH ST, PHOENIX, AZ, 85022",243967887,"R"
238833,"16601 NORTH 12TH STREET/3101","PHOENIX","AZ",85022,33.637372537,-112.0568298,333,"16601 NORTH 12TH STREET/3101, PHOENIX, AZ, 85022","Match","Non_Exact","16601 N 12TH ST, PHOENIX, AZ, 85022",243967887,"R"
238834,"16601 PALM COAST CT APT 627","TAMPA","FL",33647,28.113924926,-82.384583643,334,"16601 PALM COAST CT APT 627, TAMPA, FL, 33647","Match","Exact","16601 PALM COAST CT, TAMPA, FL, 33647",104628042,"L"
238835,"16601 PANYARD RD","UPPER MARLBORO","MD",20772,NA,NA,335,"16601 PANYARD RD, UPPER MARLBORO, MD, 20772","No_Match",NA,NA,NA,NA
238836,"16601 PLEASANT COLONY DRIVE","UPPER MARLBORO","MD",20774,38.8908203890001,-76.718782752,336,"16601 PLEASANT COLONY DRIVE, UPPER MARLBORO, MD, 20774","Match","Exact","16601 PLEASANT COLONY DR, UPPER MARLBORO, MD, 20774",639345074,"R"
238837,"16601 RANCH ROAD","OKLAHOMA CITY","OK",73026,35.3033742800001,-97.38476488,337,"16601 RANCH ROAD, OKLAHOMA CITY, OK, 73026","Match","Non_Exact","16601 RANCH RD, NORMAN, OK, 73026",240936747,"R"
238838,"16601 SCENIC CIRCLE","FORNEY","TX",75126,32.7959558630001,-96.4344044489999,338,"16601 SCENIC CIRCLE, FORNEY, TX, 75126","Match","Exact","16601 SCENIC CIR, FORNEY, TX, 75126",649983943,"L"
238839,"16601 TIREMAN STREET","DETROIT","MI",48228,42.350712419,-83.208444366,339,"16601 TIREMAN STREET, DETROIT, MI, 48228","Match","Exact","16601 TIREMAN ST, DETROIT, MI, 48228",95440279,"L"
238840,"16601 TIREMAN","DETROIT","MI",48228,42.350712419,-83.208444366,340,"16601 TIREMAN, DETROIT, MI, 48228","Match","Non_Exact","16601 TIREMAN ST, DETROIT, MI, 48228",95440279,"L"
238841,"16601 WINTERWOODS CT","ROCKVILLE","MD",20853,39.12789883,-77.0945703959999,341,"16601 WINTERWOODS CT, ROCKVILLE, MD, 20853","Match","Exact","16601 WINTERWOODS CT, ROCKVILLE, MD, 20853",62089678,"R"
238842,"16602 139TH AVE E STE C","PUYALLUP","WA",98374,47.1050683030001,-122.245026062,342,"16602 139TH AVE E STE C, PUYALLUP, WA, 98374","Match","Exact","16602 139TH AVE E, PUYALLUP, WA, 98374",184742141,"R"
238843,"16602 BLENHEIM DRIVE","LUTZ","FL",33549,28.1091724950001,-82.452964745,343,"16602 BLENHEIM DRIVE, LUTZ, FL, 33549","Match","Exact","16602 BLENHEIM DR, LUTZ, FL, 33549",104618033,"L"
238844,"16602 COLONY TERRACE DRIVE","SUGAR LAND","TX",77479,29.584997849,-95.6221398329999,344,"16602 COLONY TERRACE DRIVE, SUGAR LAND, TX, 77479","Match","Exact","16602 COLONY TERRACE DR, SUGAR LAND, TX, 77479",78288679,"L"
238845,"16602 COUGAR FALL CT","SPRING","TX",77379,30.01095036,-95.5342178929999,345,"16602 COUGAR FALL CT, SPRING, TX, 77379","Match","Non_Exact","16602 COUGAR FALLS CT, SPRING, TX, 77379",623852342,"R"
238846,"16602 COUGAR FALLS CT","SPRING","TX",77379,30.01095036,-95.5342178929999,346,"16602 COUGAR FALLS CT, SPRING, TX, 77379","Match","Exact","16602 COUGAR FALLS CT, SPRING, TX, 77379",623852342,"R"
238847,"16602 COUNTY ROAD 26","TYLER","TX",75707,32.351303665,-95.130121123,347,"16602 COUNTY ROAD 26, TYLER, TX, 75707","Match","Exact","16602 CO RD 26, TYLER, TX, 75707",141276845,"R"
238848,"16602 ELBRIDGE LANE","BOWIE","MD",20716,NA,NA,348,"16602 ELBRIDGE LANE, BOWIE, MD, 20716","No_Match",NA,NA,NA,NA
238849,"16602 FOREST LAKE","NORTHVILLE","MI",48168,NA,NA,349,"16602 FOREST LAKE, NORTHVILLE, MI, 48168","Tie",NA,NA,NA,NA
238850,"16602 LAKE PRINCE LANE","HOUSTON","TX",77044,29.9642680420001,-95.1630189969999,350,"16602 LAKE PRINCE LANE, HOUSTON, TX, 77044","Match","Exact","16602 LAKE PRINCE LN, HOUSTON, TX, 77044",645132625,"L"
238851,"16602 N 33RD AVE","PHOENIX","AZ",85053,33.636717343,-112.128431116,351,"16602 N 33RD AVE, PHOENIX, AZ, 85053","Match","Exact","16602 N 33RD AVE, PHOENIX, AZ, 85053",128180554,"L"
238852,"16602 N PROFIT CIRCLE  APT 101","NAMPA","ID",83687,43.614581582,-116.518687738,352,"16602 N PROFIT CIRCLE  APT 101, NAMPA, ID, 83687","Match","Non_Exact","16602 N PROFIT CIR, NAMPA, ID, 83687",627762535,"L"
238853,"16602 N ROTHROCK RD","PROSSER","WA",99350,46.2384997560001,-119.706311319,353,"16602 N ROTHROCK RD, PROSSER, WA, 99350","Match","Exact","16602 N ROTHROCK RD, PROSSER, WA, 99350",175006198,"L"
238854,"16602 QUAIL PARK DR","MISSOURI CITY","TX",77489,29.5861496470001,-95.51794826,354,"16602 QUAIL PARK DR, MISSOURI CITY, TX, 77489","Match","Exact","16602 QUAIL PARK DR, MISSOURI CITY, TX, 77489",78271129,"L"
238855,"16602 SUTTERS RUN LANE","HUNTERSVILLE","NC",28078,35.4399714690001,-80.853555978,355,"16602 SUTTERS RUN LANE, HUNTERSVILLE, NC, 28078","Match","Exact","16602 SUTTERS RUN LN, HUNTERSVILLE, NC, 28078",70551472,"L"
238856,"16602 TORRINGTON COURT","SPRING","TX",77379,30.023691302,-95.510013917,356,"16602 TORRINGTON COURT, SPRING, TX, 77379","Match","Exact","16602 TORRINGTON CT, SPRING, TX, 77379",96170185,"R"
238857,"16602 W 61ST PL","ARVADA","CO",80403,39.8088326070001,-105.186193535,357,"16602 W 61ST PL, ARVADA, CO, 80403","Match","Exact","16602 W 61ST PL, ARVADA, CO, 80403",177753966,"L"
238858,"16602 WILLOW RUN","SAN ANTONIO","TX",78247,29.5905424900001,-98.363244896,358,"16602 WILLOW RUN, SAN ANTONIO, TX, 78247","Match","Non_Exact","16602 WILLOW RUN ST, SAN ANTONIO, TX, 78247",101501400,"L"
238859,"16603 107TH PLACE NE","BOTHELL","WA",98011,47.7482767050001,-122.198465421,359,"16603 107TH PLACE NE, BOTHELL, WA, 98011","Match","Exact","16603 107TH PL NE, BOTHELL, WA, 98011",647904362,"R"
238860,"16603 10TH AVE CT E","SPANAWAY","WA",98387,47.1059438410001,-122.416550902,360,"16603 10TH AVE CT E, SPANAWAY, WA, 98387","Match","Exact","16603 10TH AVENUE CT E, SPANAWAY, WA, 98387",184742021,"L"
238861,"16603 CHESTNUT GREEN PLACE","LOUISVILLE","KY",40245,NA,NA,361,"16603 CHESTNUT GREEN PLACE, LOUISVILLE, KY, 40245","No_Match",NA,NA,NA,NA
238862,"16603 HAMILTON PARK","CYPRESS","TX",77429,29.9713969860001,-95.6731770599999,362,"16603 HAMILTON PARK, CYPRESS, TX, 77429","Match","Non_Exact","16603 HAMILTON PARK DR, CYPRESS, TX, 77429",627714905,"R"
238863,"16603 LESURE","DETROIT","MI",48235,42.4127219420001,-83.181745115,363,"16603 LESURE, DETROIT, MI, 48235","Match","Non_Exact","16603 LESURE ST, DETROIT, MI, 48235",95424824,"L"
238864,"16603 MILLAN DE AVILA","TAMPA","FL",33613,28.1083017670001,-82.479033317,364,"16603 MILLAN DE AVILA, TAMPA, FL, 33613","Match","Exact","16603 MILLAN DE AVILA, TAMPA, FL, 33613",104511020,"R"
238865,"16603 NE 39TH WAY APT S1055","BELLEVUE","WA",98052,NA,NA,365,"16603 NE 39TH WAY APT S1055, BELLEVUE, WA, 98052","No_Match",NA,NA,NA,NA
238866,"16603 S SWIRLING CLOUD COURT","CYPRESS","TX",77433,30.014708854,-95.756834006,366,"16603 S SWIRLING CLOUD COURT, CYPRESS, TX, 77433","Match","Exact","16603 S SWIRLING CLOUD CT, CYPRESS, TX, 77433",637069988,"R"
238867,"16603 SAGAMORE BRIDGE","DELRAY BEACH","FL",33446,26.4290893780001,-80.183281425,367,"16603 SAGAMORE BRIDGE, DELRAY BEACH, FL, 33446","Match","Non_Exact","16603 SAGAMORE BRIDGE WAY, DELRAY BEACH, FL, 33446",648337639,"R"
238868,"16604 BROADWING PLACE","CHARLOTTE","NC",28278,35.07547386,-80.9937135609999,368,"16604 BROADWING PLACE, CHARLOTTE, NC, 28278","Match","Exact","16604 BROADWING PL, CHARLOTTE, NC, 28278",634132118,"R"
238869,"16604 E 41ST STREET S","INDEPENDENCE","MO",64055,39.045637911,-94.385123182,369,"16604 E 41ST STREET S, INDEPENDENCE, MO, 64055","Match","Exact","16604 E 41ST ST S, INDEPENDENCE, MO, 64055",91470782,"L"
238870,"16604 EAST 504 ROAD","JAY","OK",74346,36.287544342,-94.7129537819999,370,"16604 EAST 504 ROAD, JAY, OK, 74346","Match","Exact","16604 E 504 RD, JAY, OK, 74346",613663704,"R"
238871,"16604 MILITARY RD","SEATAC","WA",98188,47.454469999,-122.280598609,371,"16604 MILITARY RD, SEATAC, WA, 98188","Match","Non_Exact","16604 MILITARY RD S, SEATAC, WA, 98188",187005734,"L"
238872,"16604 PEACH ST","BOWIE","MD",20716,38.912225112,-76.7168736849999,372,"16604 PEACH ST, BOWIE, MD, 20716","Match","Exact","16604 PEACH ST, BOWIE, MD, 20716",642143115,"L"
238873,"16605 88TH ST SE","SNOHOMISH","WA",98290,47.917172953,-122.009717321,373,"16605 88TH ST SE, SNOHOMISH, WA, 98290","Match","Exact","16605 88TH ST SE, SNOHOMISH, WA, 98290",187767129,"L"
238874,"16605 BABLER VIEW DRIVE","WILDWOOD","MO",63011,38.593702093,-90.628141516,374,"16605 BABLER VIEW DRIVE, WILDWOOD, MO, 63011","Match","Exact","16605 BABLER VIEW DR, WILDWOOD, MO, 63011",100179683,"L"
238875,"16605 BRADBURY CIRCLE","EDMOND","OK",73012,35.639732737,-97.53701826,375,"16605 BRADBURY CIRCLE, EDMOND, OK, 73012","Match","Exact","16605 BRADBURY CIR, EDMOND, OK, 73012",606066815,"L"
238876,"16605 CARRIBEAN BREEZE WAY","CLERMONT","FL",34714,28.3495970170001,-81.678860497,376,"16605 CARRIBEAN BREEZE WAY, CLERMONT, FL, 34714","Match","Non_Exact","16605 CARIBBEAN BREEZE WAY, CLERMONT, FL, 34714",94217000,"L"
238877,"16605 E AVE OF THE FOUNTAINS 18566","FOUNTAIN HILLS","AZ",85268,33.60503039,-111.721235044,377,"16605 E AVE OF THE FOUNTAINS 18566, FOUNTAIN HILLS, AZ, 85268","Match","Non_Exact","16605 E AVE OF THE FOUNTAINS, FOUNTAIN HILLS, AZ, 85268",128190756,"L"
238878,"16605 HUNTERS RIDGE","FULTON","IL",61252,41.824145618,-90.147788502,378,"16605 HUNTERS RIDGE, FULTON, IL, 61252","Match","Non_Exact","16605 HUNTER'S RIDGE RD, FULTON, IL, 61252",646826364,"L"
238879,"16605 OAK SHADE ROAD","RIXEYVILLE","VA",22737,38.599405104,-77.9500859789999,379,"16605 OAK SHADE ROAD, RIXEYVILLE, VA, 22737","Match","Exact","16605 OAK SHADE RD, RIXEYVILLE, VA, 22737",29853835,"L"
238880,"16605 PINNACKE OEAJ CT","RIVERSIDE","CA",92503,NA,NA,380,"16605 PINNACKE OEAJ CT, RIVERSIDE, CA, 92503","No_Match",NA,NA,NA,NA
238881,"16605 REDLAND RD","DERWOOD","MD",20855,39.128430655,-77.149574781,381,"16605 REDLAND RD, DERWOOD, MD, 20855","Match","Exact","16605 REDLAND RD, DERWOOD, MD, 20855",62052268,"R"
238882,"16605 SUNNY HOLLOW ROAD","EDMOND","OK",73012,35.639635002,-97.523838142,382,"16605 SUNNY HOLLOW ROAD, EDMOND, OK, 73012","Match","Exact","16605 SUNNY HOLLOW RD, EDMOND, OK, 73012",100436889,"L"
238883,"16605 WEST ROAD","OBERLIN","OH",44074,41.2432159620001,-82.1801973939999,383,"16605 WEST ROAD, OBERLIN, OH, 44074","Match","Exact","16605 WEST RD, OBERLIN, OH, 44074",55412044,"L"
238884,"16606 48TH AVE W B104","LYNNWOOD","WA",98037,47.8482929630001,-122.298120941,384,"16606 48TH AVE W B104, LYNNWOOD, WA, 98037","Match","Exact","16606 48TH AVE W, LYNNWOOD, WA, 98037",608929718,"R"
238885,"16606 BARKER MARSH DR","CYPRESS","TX",77429,29.9861217960001,-95.680234141,385,"16606 BARKER MARSH DR, CYPRESS, TX, 77429","Match","Exact","16606 BARKER MARSH DR, CYPRESS, TX, 77429",629612066,"L"
238886,"16606 BLENHEIM DR","LUTZ","FL",33549,28.10918703,-82.452910158,386,"16606 BLENHEIM DR, LUTZ, FL, 33549","Match","Exact","16606 BLENHEIM DR, LUTZ, FL, 33549",104618033,"L"
238887,"16606 CYPRESS MARSH CT","CYPRESS","TX",77429,29.9846724560001,-95.679873919,387,"16606 CYPRESS MARSH CT, CYPRESS, TX, 77429","Match","Exact","16606 CYPRESS MARSH CT, CYPRESS, TX, 77429",641891478,"R"
238888,"16606 FOOTHILL DR","TAMPA","FL",33624,28.109172684,-82.5329858599999,388,"16606 FOOTHILL DR, TAMPA, FL, 33624","Match","Exact","16606 FOOTHILL DR, TAMPA, FL, 33624",104509565,"L"
238889,"16606 FOOTHILL DRIVE","TAMPA","FL",33624,28.109172684,-82.5329858599999,389,"16606 FOOTHILL DRIVE, TAMPA, FL, 33624","Match","Exact","16606 FOOTHILL DR, TAMPA, FL, 33624",104509565,"L"
238890,"16606 FRANCES STREET","OMAHA","NE",68130,41.2400919610001,-96.174573467,390,"16606 FRANCES STREET, OMAHA, NE, 68130","Match","Exact","16606 FRANCES ST, OMAHA, NE, 68130",116966581,"R"
238891,"16606 HOWARD CIRCLE","OMAHA","NE",68118,41.253582174,-96.173543625,391,"16606 HOWARD CIRCLE, OMAHA, NE, 68118","Match","Exact","16606 HOWARD CIR, OMAHA, NE, 68118",116992298,"R"
238892,"16606 LEAVENWORTH STREET","OMAHA","NE",68118,41.250976268,-96.173297728,392,"16606 LEAVENWORTH STREET, OMAHA, NE, 68118","Match","Exact","16606 LEAVENWORTH ST, OMAHA, NE, 68118",116992309,"L"
238893,"16606 NEW MARKET LANE","HOUSTON","TX",77083,NA,NA,393,"16606 NEW MARKET LANE, HOUSTON, TX, 77083","No_Match",NA,NA,NA,NA
238894,"16606 PEACH STREET","BOWIE","MD",20716,38.912223345,-76.716798564,394,"16606 PEACH STREET, BOWIE, MD, 20716","Match","Exact","16606 PEACH ST, BOWIE, MD, 20716",642143115,"L"
238895,"16606 QUAIL RUN","MISSOURI CITY","TX",77489,29.5860282100001,-95.514916559,395,"16606 QUAIL RUN, MISSOURI CITY, TX, 77489","Match","Non_Exact","16606 QUAIL RUN DR, MISSOURI CITY, TX, 77489",78271149,"L"
238896,"16606 SADDLE CLUB RD","WESTON","FL",33326,26.11650874,-80.376086468,396,"16606 SADDLE CLUB RD, WESTON, FL, 33326","Match","Exact","16606 SADDLE CLUB RD, WESTON, FL, 33326",114776153,"R"
238897,"16606 SPRING MILL ROAD","WESTFIELD","IN",46074,40.027820988,-86.164943508,397,"16606 SPRING MILL ROAD, WESTFIELD, IN, 46074","Match","Exact","16606 SPRING MILL RD, WESTFIELD, IN, 46074",645018800,"L"
238898,"16607 BLANCO STE 1505","SAN ANTONIO","TX",78232,29.589580214,-98.513302149,398,"16607 BLANCO STE 1505, SAN ANTONIO, TX, 78232","Match","Non_Exact","16607 BLANCO RD, SAN ANTONIO, TX, 78232",621907960,"L"
238899,"16607 BLUE VISTA DR","HOUSTON","TX",77095,29.9428701680001,-95.6695770059999,399,"16607 BLUE VISTA DR, HOUSTON, TX, 77095","Match","Exact","16607 BLUE VISTA DR, HOUSTON, TX, 77095",96571837,"L"
238900,"16607 E BROOKPORT ST","COVINA","CA",91722,NA,NA,400,"16607 E BROOKPORT ST, COVINA, CA, 91722","No_Match",NA,NA,NA,NA
238901,"16607 HOLLAND AVE","SOUTH HOLLAND","IL",60473,41.593402569,-87.609467792,401,"16607 HOLLAND AVE, SOUTH HOLLAND, IL, 60473","Match","Exact","16607 HOLLAND AVE, SOUTH HOLLAND, IL, 60473",111778826,"L"
238902,"16607 MCKINLEY","BELTON","MO",64012,38.8223875830001,-94.498113769,402,"16607 MCKINLEY, BELTON, MO, 64012","Match","Non_Exact","16607 MCKINLEY ST, BELTON, MO, 64012",100918405,"L"
238903,"16607 S PARKWOOD ST","OLATHE","KS",66062,38.827083198,-94.7909141,403,"16607 S PARKWOOD ST, OLATHE, KS, 66062","Match","Exact","16607 S PARKWOOD ST, OLATHE, KS, 66062",645788832,"R"
238904,"16607 SOUTH LIND ROAD","OLATHE","KS",66062,38.8270337640001,-94.792771046,404,"16607 SOUTH LIND ROAD, OLATHE, KS, 66062","Match","Exact","16607 S LIND RD, OLATHE, KS, 66062",619898466,"L"
238905,"16607 SW 81ST TERRACE","MIAMI","FL",33193,25.6900253700001,-80.46120717,405,"16607 SW 81ST TERRACE, MIAMI, FL, 33193","Match","Exact","16607 SW 81ST TER, MIAMI, FL, 33193",625215105,"R"
238906,"16607 WILSONS CREEK LANE","HOUSTON","TX",77083,29.6788070750001,-95.677611725,406,"16607 WILSONS CREEK LANE, HOUSTON, TX, 77083","Match","Exact","16607 WILSONS CREEK LN, HOUSTON, TX, 77083",624719036,"R"
238907,"16607 WOODHAVEN DRIVE","ATHENS","AL",35613,34.797350545,-86.859769403,407,"16607 WOODHAVEN DRIVE, ATHENS, AL, 35613","Match","Exact","16607 WOODHAVEN DR, ATHENS, AL, 35613",625000532,"R"
238908,"16608 ALGONQUIN STREET","HUNTINGTON BEACH","CA",92649,33.7210407220001,-118.050144494,408,"16608 ALGONQUIN STREET, HUNTINGTON BEACH, CA, 92649","Match","Exact","16608 ALGONQUIN ST, HUNTINGTON BEACH, CA, 92649",144013620,"L"
238909,"16608 HOFF ROAD KPN","LAKEBAY","WA",98349,47.267830013,-122.760173492,409,"16608 HOFF ROAD KPN, LAKEBAY, WA, 98349","Match","Non_Exact","16608 HOFF RD NW, LAKEBAY, WA, 98349",184615405,"R"
238910,"16608 LAKE HEATHER DRIVE","TAMPA","FL",33618,28.107093295,-82.495081838,410,"16608 LAKE HEATHER DRIVE, TAMPA, FL, 33618","Match","Exact","16608 LAKE HEATHER DR, TAMPA, FL, 33618",104580054,"R"
238911,"16609 PLEASANT COLONY DR","UPPER MARLBORO","MD",20774,38.891681211,-76.716648613,411,"16609 PLEASANT COLONY DR, UPPER MARLBORO, MD, 20774","Match","Exact","16609 PLEASANT COLONY DR, UPPER MARLBORO, MD, 20774",632045241,"R"
238912,"16609 SOUTH FINCH","HARVEY","IL",60426,NA,NA,412,"16609 SOUTH FINCH, HARVEY, IL, 60426","No_Match",NA,NA,NA,NA
238913,"16609 YAKIMA ST NW","ANDOVER","MN",55304,45.271655104,-93.396802674,413,"16609 YAKIMA ST NW, ANDOVER, MN, 55304","Match","Exact","16609 YAKIMA ST NW, ANDOVER, MN, 55304",97480336,"R"
238914,"16609 YAKIMA STREET NW","ANOKA",NA,NA,45.271655104,-93.396802674,414,"16609 YAKIMA STREET NW, ANOKA, , ","Match","Exact","16609 YAKIMA ST NW, ANOKA, MN, 55304",97480336,"R"
238915,"1660B BELLATRIX DR","SAN DIEGO","CA",92126,32.8904024980001,-117.118247233,415,"1660B BELLATRIX DR, SAN DIEGO, CA, 92126","Match","Exact","1660 BELLATRIX DR, SAN DIEGO, CA, 92126",195319552,"R"
238916,"1660B LAGOMAR HALL 901 STANGE RD","AMES","IA",50011,42.0290407850001,-93.644615866,416,"1660B LAGOMAR HALL 901 STANGE RD, AMES, IA, 50011","Match","Non_Exact","901 STANGE RD, AMES, IA, 50014",649979365,"L"
238917,"1661 207TH AVE","EAST BETHEL","MN",55011,45.3450807460001,-93.2302752579999,417,"1661 207TH AVE, EAST BETHEL, MN, 55011","Match","Non_Exact","1661 207TH AVE NE, EAST BETHEL, MN, 55011",97488478,"L"
238918,"1661 ALBION","DENVER","CO",80220,39.742634283,-104.938947901,418,"1661 ALBION, DENVER, CO, 80220","Match","Non_Exact","1661 ALBION ST, DENVER, CO, 80220",177311318,"L"
238919,"1661 ASHBURY LN","ROMEOVILLE","IL",60446,41.616638526,-88.142328933,419,"1661 ASHBURY LN, ROMEOVILLE, IL, 60446","Match","Exact","1661 ASHBURY LN, ROMEOVILLE, IL, 60446",111613933,"L"
238920,"1661 BAY POINT DRIVE","VIRGINIA BEACH","VA",23454,36.893322798,-76.036486125,420,"1661 BAY POINT DRIVE, VIRGINIA BEACH, VA, 23454","Match","Exact","1661 BAY POINT DR, VIRGINIA BCH, VA, 23454",122261145,"L"
238921,"1661 BEANE RD","MOXEE","WA",98936,46.5386119500001,-120.313357781,421,"1661 BEANE RD, MOXEE, WA, 98936","Match","Exact","1661 BEANE RD, MOXEE, WA, 98936",184939959,"L"
238922,"1661 BENTON RD","BOSSIER CITY","LA",71111,32.5340612140001,-93.72035863,422,"1661 BENTON RD, BOSSIER CITY, LA, 71111","Match","Exact","1661 BENTON RD, BOSSIER CITY, LA, 71111",618237991,"L"
238923,"1661 BROADWAY","LUBBOCK","TX",79401,33.5844725650001,-101.854098881,423,"1661 BROADWAY, LUBBOCK, TX, 79401","Match","Non_Exact","1661 BROADWAY ST, LUBBOCK, TX, 79401",185254329,"L"
238924,"1661 BUSH AVENUE","LAKELAND","FL",33805,28.0671742760001,-81.9704625259999,424,"1661 BUSH AVENUE, LAKELAND, FL, 33805","Match","Exact","1661 BUSH AVE, LAKELAND, FL, 33805",104807240,"R"
238925,"1661 CANADY POND RD","HOPE MILLS","NC",28348,34.8809956050001,-78.913089596,425,"1661 CANADY POND RD, HOPE MILLS, NC, 28348","Match","Exact","1661 CANADY POND RD, HOPE MILLS, NC, 28348",64239225,"R"
238926,"1661 CARPENTER DR","TROY","MI",48098,42.5804437990001,-83.1801385049999,426,"1661 CARPENTER DR, TROY, MI, 48098","Match","Exact","1661 CARPENTER DR, TROY, MI, 48098",69763069,"L"
238927,"1661 COLONIAL WAY","FREDERICK","MD",21701,39.428560535,-77.4355735519999,427,"1661 COLONIAL WAY, FREDERICK, MD, 21701","Match","Non_Exact","1661 COLONIAL WAY, FREDERICK, MD, 21702",60748851,"L"
238928,"1661 COOK ST APT 104","DENVER","CO",80206,39.7430435680001,-104.947680473,428,"1661 COOK ST APT 104, DENVER, CO, 80206","Match","Exact","1661 COOK ST, DENVER, CO, 80206",177311046,"L"
238929,"1661 COPPER RUN WAY","BOWLING GREEN","KY",42101,36.9841507790001,-86.4977998589999,429,"1661 COPPER RUN WAY, BOWLING GREEN, KY, 42101","Match","Exact","1661 COPPER RUN WAY, BOWLING GREEN, KY, 42101",640431816,"L"
238930,"1661 COUGER AVE","NORFOLK","VA",23518,36.922044462,-76.229818071,430,"1661 COUGER AVE, NORFOLK, VA, 23518","Match","Non_Exact","1661 COUGAR AVE, NORFOLK, VA, 23518",122125048,"R"
238931,"1661 COUNTY RD 207","VALLEY VIEW","TX",76272,33.5149410600001,-97.201219817,431,"1661 COUNTY RD 207, VALLEY VIEW, TX, 76272","Match","Exact","1661 CO RD 207, VALLEY VIEW, TX, 76272",604735676,"R"
238932,"1661 DEVON WAY","VIRGINIA BEACH","VA",23456,36.7861656050001,-76.135170906,432,"1661 DEVON WAY, VIRGINIA BEACH, VA, 23456","Match","Exact","1661 DEVON WAY, VA BCH, VA, 23456",122280580,"L"
238933,"1661 DINWIDDIE COURT","PETERSBURG","VA",23803,37.2027205730001,-77.431057725,433,"1661 DINWIDDIE COURT, PETERSBURG, VA, 23803","Match","Exact","1661 DINWIDDIE CT, PETERSBURG, VA, 23803",630127588,"L"
238934,"1661 DREISBACH DRIVE","AKRON","OH",44320,41.0610795210001,-81.586816356,434,"1661 DREISBACH DRIVE, AKRON, OH, 44320","Match","Exact","1661 DREISBACH DR, AKRON, OH, 44320",61342627,"R"
238935,"1661 DUNLAP DRIVE","KEY WEST","FL",33040,24.56644642,-81.7593502029999,435,"1661 DUNLAP DRIVE, KEY WEST, FL, 33040","Match","Exact","1661 DUNLAP DR, KEY WEST, FL, 33040",116482716,"L"
238936,"1661 E HIGHLAND RD","WAXAHACHIE","TX",75167,32.4899544150001,-96.842445719,436,"1661 E HIGHLAND RD, WAXAHACHIE, TX, 75167","Match","Exact","1661 E HIGHLAND RD, WAXAHACHIE, TX, 75167",647955262,"L"
238937,"1661 E MILKY WAY","GILBERT","AZ",85295,33.313700436,-111.753630198,437,"1661 E MILKY WAY, GILBERT, AZ, 85295","Match","Exact","1661 E MILKY WAY, GILBERT, AZ, 85295",128810582,"L"
238938,"1661 E QUEEN AVE","SPOKANE","WA",99207,47.7038561190001,-117.385460329,438,"1661 E QUEEN AVE, SPOKANE, WA, 99207","Match","Exact","1661 E QUEEN AVE, SPOKANE, WA, 99207",189878261,"L"
238939,"1661 EAGLE BEND","WESTON","FL",33327,26.1254304,-80.417286017,439,"1661 EAGLE BEND, WESTON, FL, 33327","Match","Exact","1661 EAGLE BEND, WESTON, FL, 33327",114803068,"L"
238940,"1661 EARLHAM DR","DAYTON","OH",45406,39.7755802990001,-84.233234247,440,"1661 EARLHAM DR, DAYTON, OH, 45406","Match","Exact","1661 EARLHAM DR, DAYTON, OH, 45406",143567057,"R"
238941,"1661 ENGLEWOOD AVE","ST PAUL","MN",55104,44.9640754860001,-93.171098418,441,"1661 ENGLEWOOD AVE, ST PAUL, MN, 55104","Match","Exact","1661 ENGLEWOOD AVE, SAINT PAUL, MN, 55104",97641279,"R"
238942,"1661 FATIO RD","DELAND","FL",32720,28.9993128040001,-81.335910321,442,"1661 FATIO RD, DELAND, FL, 32720","Match","Exact","1661 FATIO RD, DELAND, FL, 32720",612320006,"R"
238943,"1661 FERRY ST APT 5","EUGENE","OR",97401,44.0415715760001,-123.085177598,443,"1661 FERRY ST APT 5, EUGENE, OR, 97401","Match","Exact","1661 FERRY ST, EUGENE, OR, 97401",178170873,"L"
238944,"1661 FOREST AVE 145","CHICO","CA",95928,39.736711358,-121.803718996,444,"1661 FOREST AVE 145, CHICO, CA, 95928","Match","Exact","1661 FOREST AVE, CHICO, CA, 95928",68428235,"L"
238945,"1661 GEORGETOWN WAY","SALINAS","CA",93906,NA,NA,445,"1661 GEORGETOWN WAY, SALINAS, CA, 93906","No_Match",NA,NA,NA,NA
238946,"1661 GOTLAND DR","CARMEL","IN",46032,39.9868370250001,-86.191154747,446,"1661 GOTLAND DR, CARMEL, IN, 46032","Match","Exact","1661 GOTLAND DR, CARMEL, IN, 46032",640718269,"L"
238947,"1661 GREENBRIAR DR APT 3526","SHAUMBURG","IL",60173,42.0277643150001,-88.0375604829999,447,"1661 GREENBRIAR DR APT 3526, SHAUMBURG, IL, 60173","Match","Non_Exact","1661 E GREENBRIAR DR, SCHAUMBURG, IL, 60173",111878711,"R"
238948,"1661 HIGHWAY 24","NEWPORT","NC",28570,34.732873252,-76.880234442,448,"1661 HIGHWAY 24, NEWPORT, NC, 28570","Match","Non_Exact","1661 STATE HWY 24, NEWPORT, NC, 28570",33859348,"R"
238949,"1661 HOPKINS","BERKELEY","CA",94707,37.8825598010001,-122.280149439,449,"1661 HOPKINS, BERKELEY, CA, 94707","Match","Non_Exact","1661 HOPKINS ST, BERKELEY, CA, 94707",617280874,"L"
238950,"1661 HUNT AVENUE","BRONX","NY",10462,40.8435406310001,-73.864525821,450,"1661 HUNT AVENUE, BRONX, NY, 10462","Match","Exact","1661 HUNT AVE, BRONX, NY, 10462",80304633,"L"
238951,"1661 HUNTERS LANE","NASHVILLE","TN",37207,36.286996856,-86.775907811,451,"1661 HUNTERS LANE, NASHVILLE, TN, 37207","Match","Exact","1661 HUNTERS LN, NASHVILLE, TN, 37207",633341176,"L"
238952,"1661 INCA DR","LARAMIE","WY",82072,41.3259945770001,-105.548533308,452,"1661 INCA DR, LARAMIE, WY, 82072","Match","Exact","1661 INCA DR, LARAMIE, WY, 82072",168748617,"R"
238953,"1661 INTERNATIONAL DR","MEMPHIS","TN",38120,35.102980718,-89.848350567,453,"1661 INTERNATIONAL DR, MEMPHIS, TN, 38120","Match","Exact","1661 INTERNATIONAL DR, MEMPHIS, TN, 38120",638169474,"L"
238954,"1661 INTERNATIONAL DRIVE SUITE 400","MEMPHIS","TN",38120,35.102980718,-89.848350567,454,"1661 INTERNATIONAL DRIVE SUITE 400, MEMPHIS, TN, 38120","Match","Exact","1661 INTERNATIONAL DR, MEMPHIS, TN, 38120",638169474,"L"
238955,"1661 INTERNATIONAL PLACE DR STE 400","MEMPHIS","TN",38120,35.102980718,-89.848350567,455,"1661 INTERNATIONAL PLACE DR STE 400, MEMPHIS, TN, 38120","Match","Non_Exact","1661 INTERNATIONAL DR, MEMPHIS, TN, 38120",638169474,"L"
238956,"1661 INTERNATIONAL PLACE DR","MEMPHIS","TN",38120,35.102980718,-89.848350567,456,"1661 INTERNATIONAL PLACE DR, MEMPHIS, TN, 38120","Match","Non_Exact","1661 INTERNATIONAL DR, MEMPHIS, TN, 38120",638169474,"L"
238957,"1661 JACKSON SQUARE NW","ATLANTA","GA",30318,NA,NA,457,"1661 JACKSON SQUARE NW, ATLANTA, GA, 30318","No_Match",NA,NA,NA,NA
238958,"1661 JOHNSON LANE","MCKINLEYVILLE","CA",95519,40.9692639360001,-124.09980455,458,"1661 JOHNSON LANE, MCKINLEYVILLE, CA, 95519","Match","Exact","1661 JOHNSON LN, MCKINLEYVILLE, CA, 95519",113023962,"L"
238959,"1661 LA PALMA DRIVE","FENTON","MO",63026,38.526848058,-90.46636201,459,"1661 LA PALMA DRIVE, FENTON, MO, 63026","Match","Exact","1661 LA PALMA DR, FENTON, MO, 63026",100177291,"L"
238960,"1661 LA PALMA","FENTON","MO",63026,38.526848058,-90.46636201,460,"1661 LA PALMA, FENTON, MO, 63026","Match","Non_Exact","1661 LA PALMA DR, FENTON, MO, 63026",100177291,"L"
238961,"1661 LEFT FORK LONG FORK","VIRGIE","KY",41572,NA,NA,461,"1661 LEFT FORK LONG FORK, VIRGIE, KY, 41572","No_Match",NA,NA,NA,NA
238962,"1661 LINCOLN AVENUE","LAKEWOOD","OH",44107,41.480324201,-81.794574552,462,"1661 LINCOLN AVENUE, LAKEWOOD, OH, 44107","Match","Exact","1661 LINCOLN AVE, LAKEWOOD, OH, 44107",653490814,"L"
238963,"1661 LONGWOOD DRIVE","NORFOLK","VA",23508,36.8887973610001,-76.314511806,463,"1661 LONGWOOD DRIVE, NORFOLK, VA, 23508","Match","Exact","1661 LONGWOOD DR, NORFOLK, VA, 23508",122131326,"L"
238964,"1661 LYNWOOD DR","CONCORD","CA",94521,37.9778589380001,-121.983873156,464,"1661 LYNWOOD DR, CONCORD, CA, 94521","Match","Exact","1661 LYNWOOD DR, CONCORD, CA, 94521",192058621,"R"
238965,"1661 MANDARIN DRIVE","CINCINNATI","OH",45240,39.291418922,-84.543075492,465,"1661 MANDARIN DRIVE, CINCINNATI, OH, 45240","Match","Exact","1661 MANDARIN DR, CINCINNATI, OH, 45240",103948215,"L"
238966,"1661 MAPLE AVENUE","FAYETTEVILLE","WV",25840,NA,NA,466,"1661 MAPLE AVENUE, FAYETTEVILLE, WV, 25840","No_Match",NA,NA,NA,NA
238967,"1661 MAPLE VIEW WAY","KNOXVILLE","TN",37918,36.0206870260001,-83.94495123,467,"1661 MAPLE VIEW WAY, KNOXVILLE, TN, 37918","Match","Exact","1661 MAPLE VIEW WAY, KNOXVILLE, TN, 37918",604667341,"L"
238968,"1661 MOUNT PARAN ROAD","ATLANTA","GA",30327,33.867425746,-84.430679254,468,"1661 MOUNT PARAN ROAD, ATLANTA, GA, 30327","Match","Non_Exact","1661 MOUNT PARAN RD NW, ATLANTA, GA, 30327",17383169,"R"
238969,"1661 N DORGENOIS STREET","NEW ORLEANS","LA",70117,29.979416745,-90.072931752,469,"1661 N DORGENOIS STREET, NEW ORLEANS, LA, 70117","Match","Non_Exact","1661 N DORGENOIS ST, NEW ORLEANS, LA, 70119",191709118,"L"
238970,"1661 N OLD BURR OAK CT","NIXA","MO",65714,37.075929617,-93.367248074,470,"1661 N OLD BURR OAK CT, NIXA, MO, 65714","Match","Exact","1661 N OLD BURR OAK CT, NIXA, MO, 65714",616624188,"L"
238971,"1661 NELSON DR","SANTA CLARA","CA",95054,37.3997534320001,-121.957444311,471,"1661 NELSON DR, SANTA CLARA, CA, 95054","Match","Exact","1661 NELSON DR, SANTA CLARA, CA, 95054",122959247,"R"
238972,"1661 NOIR LANE","CANTONMENT","FL",32533,30.673970088,-87.382260033,472,"1661 NOIR LANE, CANTONMENT, FL, 32533","Match","Exact","1661 NOIR LN, CANTONMENT, FL, 32533",93248175,"L"
238973,"1661 OLD COUNTRY ROAD SUITE 307","RIVERHEAD","NY",11901,40.9243684850001,-72.7024326769999,473,"1661 OLD COUNTRY ROAD SUITE 307, RIVERHEAD, NY, 11901","Match","Non_Exact","1661 OLD COUNTRY RD, RIVERHEAD, NY, 11901",114023783,"R"
238974,"1661 OLD HENDERSON RD","COLUMBUS","OH",43220,40.0527642800001,-83.064141316,474,"1661 OLD HENDERSON RD, COLUMBUS, OH, 43220","Match","Exact","1661 OLD HENDERSON RD, COLUMBUS, OH, 43220",637393685,"L"
238975,"1661 OLD OAK COURT","PROSPER","TX",75078,33.2560353860001,-96.8029193899999,475,"1661 OLD OAK COURT, PROSPER, TX, 75078","Match","Exact","1661 OLD OAK CT, PROSPER, TX, 75078",648130579,"R"
238976,"1661 OTOE STREET","LINCOLN","NE",68502,40.7837611780001,-96.697790582,476,"1661 OTOE STREET, LINCOLN, NE, 68502","Match","Exact","1661 OTOE ST, LINCOLN, NE, 68502",28255062,"R"
238977,"1661 OVERLOOK ROAD","LONGWOOD","FL",32750,28.722988145,-81.365706087,477,"1661 OVERLOOK ROAD, LONGWOOD, FL, 32750","Match","Exact","1661 OVERLOOK RD, LONGWOOD, FL, 32750",93736782,"L"
238978,"1661 PARK RD NW APT 205","WASHINGTON","DC",20010,38.932203013,-77.03785809,478,"1661 PARK RD NW APT 205, WASHINGTON, DC, 20010","Match","Exact","1661 PARK RD NW, WASHINGTON, DC, 20010",76222850,"R"
238979,"1661 PAYNE AVE E","SAINT PAUL","MN",55106,NA,NA,479,"1661 PAYNE AVE E, SAINT PAUL, MN, 55106","No_Match",NA,NA,NA,NA
238980,"1661 PINE STREET SUITE 537","SAN FRANCISCO","CA",94209,37.7892790990001,-122.423151089,480,"1661 PINE STREET SUITE 537, SAN FRANCISCO, CA, 94209","Match","Non_Exact","1661 PINE ST, SAN FRANCISCO, CA, 94109",192280135,"L"
238981,"1661 PINEOLA AVE","KINGSPORT","TN",37664,36.531154218,-82.532822492,481,"1661 PINEOLA AVE, KINGSPORT, TN, 37664","Match","Exact","1661 PINEOLA AVE, KINGSPORT, TN, 37664",127829948,"R"
238982,"1661 RAYMOND AVE STE 265","FULLERTON","CA",92831,33.8872487130001,-117.907609205,482,"1661 RAYMOND AVE STE 265, FULLERTON, CA, 92831","Match","Non_Exact","1661 N RAYMOND AVE, FULLERTON, CA, 92831",144008889,"L"
238983,"1661 REMBRANDT DRIVE","DARDENNE PRAIRIE","MO",63368,38.7693885510001,-90.729296032,483,"1661 REMBRANDT DRIVE, DARDENNE PRAIRIE, MO, 63368","Match","Exact","1661 REMBRANDT DR, DARDENNE PRAIRIE, MO, 63368",100056080,"R"
238984,"1661 RINGLING BLVD UNIT 75","SARASOTA","FL",34230,27.3349543590001,-82.53701932,484,"1661 RINGLING BLVD UNIT 75, SARASOTA, FL, 34230","Match","Exact","1661 RINGLING BLVD, SARASOTA, FL, 34230",16348002,"L"
238985,"1661 RIVERS BEND CIR","WAUWATOSA","WI",53226,NA,NA,485,"1661 RIVERS BEND CIR, WAUWATOSA, WI, 53226","No_Match",NA,NA,NA,NA
238986,"1661 RIVERSIDE AVE APT 112","JACKSONVILLE","FL",32204,30.3113038830001,-81.6801691209999,486,"1661 RIVERSIDE AVE APT 112, JACKSONVILLE, FL, 32204","Match","Exact","1661 RIVERSIDE AVE, JACKSONVILLE, FL, 32204",83896806,"R"
238987,"1661 RIVERSIDE AVENUE 426","JACKSONVILLE","FL",32204,30.3113038830001,-81.6801691209999,487,"1661 RIVERSIDE AVENUE 426, JACKSONVILLE, FL, 32204","Match","Exact","1661 RIVERSIDE AVE, JACKSONVILLE, FL, 32204",83896806,"R"
238988,"1661 ROBIN HILL CT","CHARLOTTESVILLE","VA",22901,38.081722873,-78.458870484,488,"1661 ROBIN HILL CT, CHARLOTTESVILLE, VA, 22901","Match","Exact","1661 ROBIN HILL CT, CHARLOTTESVILLE, VA, 22901",83370353,"R"
238989,"1661 S APOLLO DR","CHANDLER","AZ",NA,33.2818540600001,-111.874221884,489,"1661 S APOLLO DR, CHANDLER, AZ, ","Match","Exact","1661 S APOLLO DR, CHANDLER, AZ, 85286",128369543,"L"
238990,"1661 S BELLE AVENUE","CORONA","CA",92882,33.8642355710001,-117.570961518,490,"1661 S BELLE AVENUE, CORONA, CA, 92882","Match","Exact","1661 S BELLE AVE, CORONA, CA, 92882",194777868,"L"
238991,"1661 S STUART ST","DENVER","CA",80219,NA,NA,491,"1661 S STUART ST, DENVER, CA, 80219","No_Match",NA,NA,NA,NA
238992,"1661 S STUART ST","DENVER","CO",80219,39.6865606970001,-105.043215616,492,"1661 S STUART ST, DENVER, CO, 80219","Match","Exact","1661 S STUART ST, DENVER, CO, 80219",177327178,"R"
238993,"1661 SAUSALITO DRIVE","HOLLISTER","CA",95023,36.8304477620001,-121.371554426,493,"1661 SAUSALITO DRIVE, HOLLISTER, CA, 95023","Match","Exact","1661 SAUSALITO DR, HOLLISTER, CA, 95023",125446976,"R"
238994,"1661 SHORT STREET","BERKELEY","CA",94702,37.8751405130001,-122.28341116,494,"1661 SHORT STREET, BERKELEY, CA, 94702","Match","Exact","1661 SHORT ST, BERKELEY, CA, 94702",124993497,"L"
238995,"1661 STATE HWY U","BURFORDVILLE","MO",63739,37.332544382,-89.8393536359999,495,"1661 STATE HWY U, BURFORDVILLE, MO, 63739","Match","Exact","1661 STATE HWY U, BURFORDVILLE, MO, 63739",35199249,"R"
238996,"1661 STONEGATE CT","HASTINGS","MN",55033,44.725116002,-92.888596996,496,"1661 STONEGATE CT, HASTINGS, MN, 55033","Match","Exact","1661 STONEGATE CT, HASTINGS, MN, 55033",37941422,"L"
238997,"1661 SUTHERLAND LANE","AUBURN","AL",36830,32.6440972340001,-85.5166124679999,497,"1661 SUTHERLAND LANE, AUBURN, AL, 36830","Match","Exact","1661 SUTHERLAND LN, AUBURN, AL, 36830",618564660,"R"
238998,"1661 SYKES RD","MEBANE","NC",27302,36.053688267,-79.27677428,498,"1661 SYKES RD, MEBANE, NC, 27302","Match","Exact","1661 SYKES RD, MEBANE, NC, 27302",650216043,"L"
238999,"1661 TAYLOR RD","MANCHESTER","TN",37355,35.49999202,-86.027844881,499,"1661 TAYLOR RD, MANCHESTER, TN, 37355","Match","Exact","1661 TAYLOR RD, MANCHESTER, TN, 37355",605349714,"R"
239000,"1661 UNION PORT ROAD","BRONX","NY",10462,40.8427586130001,-73.865472277,500,"1661 UNION PORT ROAD, BRONX, NY, 10462","Match","Non_Exact","1661 UNIONPORT RD, BRONX, NY, 10462",652209492,"L"
