"ID","Address","City","State","Zip","lat","long","id","input_address","match_indicator","match_type","matched_address","tiger_line_id","tiger_side"
235001,"1640 LONG PLAINS ROAD","BUXTON","ME",4093,43.623841618,-70.485131258,1,"1640 LONG PLAINS ROAD, BUXTON, ME, 4093","Match","Exact","1640 LONG PLAINS RD, BUXTON, ME, 04093",641950850,"R"
235002,"1640 LUDINGTON LANE","LA JOLLA","CA",92037,32.8477566490001,-117.264434674,2,"1640 LUDINGTON LANE, LA JOLLA, CA, 92037","Match","Exact","1640 LUDINGTON LN, LA JOLLA, CA, 92037",195298537,"L"
235003,"1640 MANSE RD","PAHRUMP","NV",89048,36.1463364800001,-115.981060022,3,"1640 MANSE RD, PAHRUMP, NV, 89048","Match","Exact","1640 MANSE RD, PAHRUMP, NV, 89048",140579809,"L"
235004,"1640 MAPLE AVE 404","EVANSTON","IL",60201,42.0479245080001,-87.685136698,4,"1640 MAPLE AVE 404, EVANSTON, IL, 60201","Match","Exact","1640 MAPLE AVE, EVANSTON, IL, 60201",112373965,"L"
235005,"1640 MAPLE AVE","EVANSTON","IL",60201,42.0479245080001,-87.685136698,5,"1640 MAPLE AVE, EVANSTON, IL, 60201","Match","Exact","1640 MAPLE AVE, EVANSTON, IL, 60201",112373965,"L"
235006,"1640 MARKS ST","KISSIMMEE","FL",34746,28.258829265,-81.453451405,6,"1640 MARKS ST, KISSIMMEE, FL, 34746","Match","Exact","1640 MARKS ST, KISSIMMEE, FL, 34746",176680092,"R"
235007,"1640 MARTHA TERRACE","ROCKVILLE","MD",20852,39.0579416370001,-77.1342192289999,7,"1640 MARTHA TERRACE, ROCKVILLE, MD, 20852","Match","Exact","1640 MARTHA TER, ROCKVILLE, MD, 20852",62055849,"L"
235008,"1640 MC 3408","JEFFERSON","TX",75657,NA,NA,8,"1640 MC 3408, JEFFERSON, TX, 75657","No_Match",NA,NA,NA,NA
235009,"1640 MERMENTAU STREET","MT. PLEASANT","SC",29466,32.8905060590001,-79.783958592,9,"1640 MERMENTAU STREET, MT. PLEASANT, SC, 29466","Match","Exact","1640 MERMENTAU ST, MOUNT PLEASANT, SC, 29466",652156652,"L"
235010,"1640 MONROE ST APT D","MADISON","WI",53711,43.066447263,-89.414793617,10,"1640 MONROE ST APT D, MADISON, WI, 53711","Match","Exact","1640 MONROE ST, MADISON, WI, 53711",49469271,"R"
235011,"1640 N 167TH ST","SHORELINE","WA",98133,47.7505391700001,-122.338499918,11,"1640 N 167TH ST, SHORELINE, WA, 98133","Match","Exact","1640 N 167TH ST, SHORELINE, WA, 98133",239771414,"R"
235012,"1640 N ALBANY AVE","CHICAGO","IL",60647,41.9112154640001,-87.7045546969999,12,"1640 N ALBANY AVE, CHICAGO, IL, 60647","Match","Exact","1640 N ALBANY AVE, CHICAGO, IL, 60647",605045422,"L"
235013,"1640 N BURLING UNIT A","CHICAGO","IL",60614,NA,NA,13,"1640 N BURLING UNIT A, CHICAGO, IL, 60614","No_Match",NA,NA,NA,NA
235014,"1640 N CATALINA","WASILLA","AK",99654,61.5971984820001,-149.380737556,14,"1640 N CATALINA, WASILLA, AK, 99654","Match","Non_Exact","1640 N CATALINA DR, WASILLA, AK, 99654",191046296,"R"
235015,"1640 N FORMOSA AVE APT 19","LOS ANGELES","CA",90046,34.1006035130001,-118.346756884,15,"1640 N FORMOSA AVE APT 19, LOS ANGELES, CA, 90046","Match","Non_Exact","1640 N FORMOSA AVE, LOS ANGELES, CA, 90046",141817577,"R"
235016,"1640 NE 164TH STREET","NORTH MIAMI BEACH","FL",33162,25.9269014720001,-80.16733705,16,"1640 NE 164TH STREET, NORTH MIAMI BEACH, FL, 33162","Match","Exact","1640 NE 164TH ST, N MIAMI BEACH, FL, 33162",116036041,"R"
235017,"1640 NE 172 PLACE","CITRA","FL",32667,29.3991693770001,-82.116160237,17,"1640 NE 172 PLACE, CITRA, FL, 32667","Match","Non_Exact","1640 NE 172ND PL, CITRA, FL, 32113",116703581,"L"
235018,"1640 NE ODELL AVE","ROSEBURG","OR",97470,43.214429484,-123.337990763,18,"1640 NE ODELL AVE, ROSEBURG, OR, 97470","Match","Exact","1640 NE ODELL AVE, ROSEBURG, OR, 97470",137187508,"R"
235019,"1640 NELEIGH DR","LAS CRUCES","NM",88007,32.32146649,-106.796935488,19,"1640 NELEIGH DR, LAS CRUCES, NM, 88007","Match","Exact","1640 NELEIGH DR, LAS CRUCES, NM, 88007",623987041,"R"
235020,"1640 NORTH DIXIE HIGHWAY APT 9","FORT LAUDERDALE","FL",33305,26.1483888870001,-80.133565049,20,"1640 NORTH DIXIE HIGHWAY APT 9, FORT LAUDERDALE, FL, 33305","Match","Exact","1640 N DIXIE HWY, FORT LAUDERDALE, FL, 33305",114722289,"R"
235021,"1640 NORTH WATER STREET","MILWAUKEE","WI",53202,43.0526432410001,-87.9050796289999,21,"1640 NORTH WATER STREET, MILWAUKEE, WI, 53202","Match","Exact","1640 N WATER ST, MILWAUKEE, WI, 53202",647203188,"R"
235022,"1640 NOTTINGHAM DRIVE","MARRERO","LA",70072,29.88052193,-90.089514892,22,"1640 NOTTINGHAM DRIVE, MARRERO, LA, 70072","Match","Exact","1640 NOTTINGHAM DR, MARRERO, LA, 70072",625654575,"R"
235023,"1640 NW 109TH STREET","CLIVE","IA",50325,41.605782462,-93.769146768,23,"1640 NW 109TH STREET, CLIVE, IA, 50325","Match","Exact","1640 NW 109TH ST, CLIVE, IA, 50325",65798496,"L"
235024,"1640 NW 197TH STREET","MIAMI","FL",33169,NA,NA,24,"1640 NW 197TH STREET, MIAMI, FL, 33169","No_Match",NA,NA,NA,NA
235025,"1640 OAKBROOK DRIVE","JACKSON","MS",39212,32.2634393230001,-90.328363662,25,"1640 OAKBROOK DRIVE, JACKSON, MS, 39212","Match","Non_Exact","1640 OAK BROOK DR, JACKSON, MS, 39212",65363151,"R"
235026,"1640 OAKWOOD DRIVE W202","PENN VALLEY","PA",19072,40.039855281,-75.255895515,26,"1640 OAKWOOD DRIVE W202, PENN VALLEY, PA, 19072","Match","Exact","1640 OAKWOOD DR, PENN VALLEY, PA, 19072",650150302,"L"
235027,"1640 OCEAN AVE APT 5M","BROOKLYN","NY",11230,40.6221284580001,-73.955718857,27,"1640 OCEAN AVE APT 5M, BROOKLYN, NY, 11230","Match","Exact","1640 OCEAN AVE, BROOKLYN, NY, 11230",634254275,"R"
235028,"1640 OJEDA ROAD","VISTA","CA",92084,33.235901819,-117.213976497,28,"1640 OJEDA ROAD, VISTA, CA, 92084","Match","Exact","1640 OJEDA RD, VISTA, CA, 92084",195712984,"L"
235029,"1640 PAXTON DR SW","LIBURN","GA",30047,33.8393234820001,-84.0738472689999,29,"1640 PAXTON DR SW, LIBURN, GA, 30047","Match","Non_Exact","1640 PAXTON DR SW, LILBURN, GA, 30047",646935737,"R"
235030,"1640 PILIPP WAY","SHAKOPEE","MN",55379,NA,NA,30,"1640 PILIPP WAY, SHAKOPEE, MN, 55379","No_Match",NA,NA,NA,NA
235031,"1640 PINE NEEDLE LANE","FERNDALE","WA",98248,48.9330945770001,-122.571737537,31,"1640 PINE NEEDLE LANE, FERNDALE, WA, 98248","Match","Exact","1640 PINE NEEDLE LN, FERNDALE, WA, 98248",624518786,"L"
235032,"1640 PINE NEEDLE LN","FERNDALE","WA",98248,48.9330945770001,-122.571737537,32,"1640 PINE NEEDLE LN, FERNDALE, WA, 98248","Match","Exact","1640 PINE NEEDLE LN, FERNDALE, WA, 98248",624518786,"L"
235033,"1640 POWERS FERRY ROAD SUITE 19-20","MARIETTA","GA",30067,33.9144612320001,-84.465452102,33,"1640 POWERS FERRY ROAD SUITE 19-20, MARIETTA, GA, 30067","Match","Exact","1640 POWERS FERRY RD, MARIETTA, GA, 30067",653446894,"R"
235034,"1640 POWERS FERRY ROAD","MARIETTA","GA",30067,33.9144612320001,-84.465452102,34,"1640 POWERS FERRY ROAD, MARIETTA, GA, 30067","Match","Exact","1640 POWERS FERRY RD, MARIETTA, GA, 30067",653446894,"R"
235035,"1640 PRESIDENT STREET","BROOKLYN","NY",11213,40.6671179030001,-73.933201824,35,"1640 PRESIDENT STREET, BROOKLYN, NY, 11213","Match","Exact","1640 PRESIDENT ST, BROOKLYN, NY, 11213",59079780,"R"
235036,"1640 RAINBOW RD","WASHINGTON","KS",66968,39.806490205,-97.030089072,36,"1640 RAINBOW RD, WASHINGTON, KS, 66968","Match","Exact","1640 RAINBOW RD, WASHINGTON, KS, 66968",11576324,"R"
235037,"1640 RANCHESTER DR","SAINT LOUIS","MO",63005,NA,NA,37,"1640 RANCHESTER DR, SAINT LOUIS, MO, 63005","No_Match",NA,NA,NA,NA
235038,"1640 REDWOOD WAY","UPLAND","CA",91784,34.120514918,-117.677886034,38,"1640 REDWOOD WAY, UPLAND, CA, 91784","Match","Non_Exact","1640 REDWOOD WAY, UPLAND, CA, 91786",144669615,"R"
235039,"1640 RIVERSHYRE PARKWAY NORTHEAST","LAWRENCEVILLE","GA",30043,33.990656663,-84.002328967,39,"1640 RIVERSHYRE PARKWAY NORTHEAST, LAWRENCEVILLE, GA, 30043","Match","Exact","1640 RIVERSHYRE PKWY NE, LAWRENCEVILLE, GA, 30043",88920739,"L"
235040,"1640 RIVERSHYRE PKWY","LAWRENCEVILLE","GA",30043,33.990656663,-84.002328967,40,"1640 RIVERSHYRE PKWY, LAWRENCEVILLE, GA, 30043","Match","Non_Exact","1640 RIVERSHYRE PKWY NE, LAWRENCEVILLE, GA, 30043",88920739,"L"
235041,"1640 ROSEWOOD WAY","COLUSA","CA",95932,39.198853662,-122.004446268,41,"1640 ROSEWOOD WAY, COLUSA, CA, 95932","Match","Exact","1640 ROSEWOOD WAY, COLUSA, CA, 95932",67132191,"L"
235042,"1640 ROUNDWYCK LANE","POWELL","OH",43065,40.1700046810001,-83.057627649,42,"1640 ROUNDWYCK LANE, POWELL, OH, 43065","Match","Exact","1640 ROUNDWYCK LN, POWELL, OH, 43065",24599551,"L"
235043,"1640 S  SCENIC HWY","FROSTPROOF","FL",33843,27.699756,-81.531790498,43,"1640 S  SCENIC HWY, FROSTPROOF, FL, 33843","Match","Exact","1640 S SCENIC HWY, FROSTPROOF, FL, 33843",623957492,"L"
235044,"1640 S ARMSTRONG","FAYETTEVILLE","AR",72701,36.0464596580001,-94.137830476,44,"1640 S ARMSTRONG, FAYETTEVILLE, AR, 72701","Match","Non_Exact","1640 S ARMSTRONG AVE, FAYETTEVILLE, AR, 72701",49094947,"L"
235045,"1640 S ARMSTRONG","SPRINGDALE","AR",72701,NA,NA,45,"1640 S ARMSTRONG, SPRINGDALE, AR, 72701","No_Match",NA,NA,NA,NA
235046,"1640 S CLAUDINA WAY","ANAHEIM","CA",92805,33.807342276,-117.901588979,46,"1640 S CLAUDINA WAY, ANAHEIM, CA, 92805","Match","Exact","1640 S CLAUDINA WAY, ANAHEIM, CA, 92805",641382989,"R"
235047,"1640 S MARY AVE","SUNNYVALE","CA",94087,37.339549096,-122.050026539,47,"1640 S MARY AVE, SUNNYVALE, CA, 94087","Match","Exact","1640 S MARY AVE, SUNNYVALE, CA, 94087",122937608,"L"
235048,"1640 S PULASKI ROAD","CHICAG","IL",60623,41.8581667990001,-87.724944076,48,"1640 S PULASKI ROAD, CHICAG, IL, 60623","Match","Non_Exact","1640 S PULASKI RD, CHICAGO, IL, 60623",605093235,"R"
235049,"1640 S SEPULVEDA BLVD STE 400","LOS ANGELES","CA",90025,34.048571634,-118.445072,49,"1640 S SEPULVEDA BLVD STE 400, LOS ANGELES, CA, 90025","Match","Non_Exact","1640 S SEPULVEDA BLVD, LOS ANGELES, CA, 90025",640415687,"L"
235050,"1640 S STAFFORD STREET","ARLINGTON","VA",22204,38.852462755,-77.0985015689999,50,"1640 S STAFFORD STREET, ARLINGTON, VA, 22204","Match","Exact","1640 S STAFFORD ST, ARLINGTON, VA, 22204",76471407,"R"
235051,"1640 SAINTSBURY DRIVE","LAS VEGAS","NV",89144,36.189469198,-115.332260419,51,"1640 SAINTSBURY DRIVE, LAS VEGAS, NV, 89144","Match","Exact","1640 SAINTSBURY DR, LAS VEGAS, NV, 89144",201985495,"R"
235052,"1640 SHADOW RIDGE CT","BELLEVILLE","IL",62221,38.531847312,-89.974365902,52,"1640 SHADOW RIDGE CT, BELLEVILLE, IL, 62221","Match","Exact","1640 SHADOW RIDGE CT, BELLEVILLE, IL, 62221",107932881,"L"
235053,"1640 SOUTH LINCOLN STREET","DENVER","CO",80210,39.6867992730001,-104.986286886,53,"1640 SOUTH LINCOLN STREET, DENVER, CO, 80210","Match","Exact","1640 S LINCOLN ST, DENVER, CO, 80210",177331357,"L"
235054,"1640 STARFISH STREET","KISSIMMEE","FL",34744,28.2828568830001,-81.377521367,54,"1640 STARFISH STREET, KISSIMMEE, FL, 34744","Match","Exact","1640 STARFISH ST, KISSIMMEE, FL, 34744",176675472,"R"
235055,"1640 STEINHART AVE","REDONDO BEACH","CA",90278,33.869792755,-118.386710598,55,"1640 STEINHART AVE, REDONDO BEACH, CA, 90278","Match","Exact","1640 STEINHART AVE, REDONDO BEACH, CA, 90278",141582927,"R"
235056,"1640 STONE PINE DR","GASTONIA","NC",28056,35.1723992020001,-81.126813961,56,"1640 STONE PINE DR, GASTONIA, NC, 28056","Match","Exact","1640 STONE PINE DR, GASTONIA, NC, 28056",70412375,"R"
235057,"1640 STONINGTON CIRCLE","NORTH WALES","PA",19455,40.2131796960001,-75.245676132,57,"1640 STONINGTON CIRCLE, NORTH WALES, PA, 19455","Match","Non_Exact","1640 STONINGTON CIR, NORTH WALES, PA, 19454",135112542,"L"
235058,"1640 SUNNY CREEK STREET SE","GRAND RAPIDS","MI",49508,42.8720515160001,-85.6242877609999,58,"1640 SUNNY CREEK STREET SE, GRAND RAPIDS, MI, 49508","Match","Exact","1640 SUNNY CREEK ST SE, GRAND RAPIDS, MI, 49508",12465556,"R"
235059,"1640 SW 11TH STREET","MIAMI","FL",33135,25.763292219,-80.221278167,59,"1640 SW 11TH STREET, MIAMI, FL, 33135","Match","Exact","1640 SW 11TH ST, MIAMI, FL, 33135",116016643,"L"
235060,"1640 TAFT","BERKELEY","IL",60130,NA,NA,60,"1640 TAFT, BERKELEY, IL, 60130","No_Match",NA,NA,NA,NA
235061,"1640 UPPER PIG PEN ROAD","BURNSVILLE","NC",28714,NA,NA,61,"1640 UPPER PIG PEN ROAD, BURNSVILLE, NC, 28714","No_Match",NA,NA,NA,NA
235062,"1640 US HIGHWAY 52","DECORAH","IA",52101,NA,NA,62,"1640 US HIGHWAY 52, DECORAH, IA, 52101","No_Match",NA,NA,NA,NA
235063,"1640 US HWY 412 E","BEECH BLUFF","TN",38313,35.7093991470001,-88.616232343,63,"1640 US HWY 412 E, BEECH BLUFF, TN, 38313","Match","Exact","1640 US HWY 412 E, BEECH BLUFF, TN, 38313",21317487,"R"
235064,"1640 VALLEY OAK COURT","CASTLE ROCK","CO",80104,39.355053694,-104.83748137,64,"1640 VALLEY OAK COURT, CASTLE ROCK, CO, 80104","Match","Exact","1640 VALLEY OAK CT, CASTLE ROCK, CO, 80104",604917258,"L"
235065,"1640 VALLEY QUAIL DRIVE","RIVER FALLS","WI",54022,44.8595942540001,-92.6459553459999,65,"1640 VALLEY QUAIL DRIVE, RIVER FALLS, WI, 54022","Match","Exact","1640 VALLEY QUAIL DR, RIVER FALLS, WI, 54022",95883668,"R"
235066,"1640 W BROADWAY","MESA","AZ",85202,33.407607516,-111.867207513,66,"1640 W BROADWAY, MESA, AZ, 85202","Match","Non_Exact","1640 W BROADWAY RD, MESA, AZ, 85202",128234419,"R"
235067,"1640 W DIVISION STREET APT 308","CHICAGO","IL",60622,41.903326463,-87.669109379,67,"1640 W DIVISION STREET APT 308, CHICAGO, IL, 60622","Match","Non_Exact","1640 W DIVISION ST, CHICAGO, IL, 60622",605045038,"R"
235068,"1640 W HILLSIDE DRIVE","YUMA","AZ",85364,32.7020908750001,-114.641062462,68,"1640 W HILLSIDE DRIVE, YUMA, AZ, 85364","Match","Non_Exact","1640 W HILLSIDE PL, YUMA, AZ, 85364",129646565,"R"
235069,"1640 W KLAMATH","TUCSON","AZ",85704,32.3041100410001,-111.00050609,69,"1640 W KLAMATH, TUCSON, AZ, 85704","Match","Non_Exact","1640 W KLAMATH DR, TUCSON, AZ, 85704",121165881,"R"
235070,"1640 W OAKLAND PARK BLVD UNIT 303","FORT LAUDERDALE","FL",33311,NA,NA,70,"1640 W OAKLAND PARK BLVD UNIT 303, FORT LAUDERDALE, FL, 33311","No_Match",NA,NA,NA,NA
235071,"1640 W SHERWIN AVE APT3B","CHICAGO","IL",60626,42.0149169310001,-87.671206153,71,"1640 W SHERWIN AVE APT3B, CHICAGO, IL, 60626","Match","Non_Exact","1640 W SHERWIN AVE, CHICAGO, IL, 60626",112386826,"R"
235072,"1640 W STONES CROSSING","GREENWOOD","IN",46143,39.577792501,-86.1544721,72,"1640 W STONES CROSSING, GREENWOOD, IN, 46143","Match","Non_Exact","1640 W STONES CROSSING RD, GREENWOOD, IN, 46143",619219215,"L"
235073,"1640 WEIGLE DR","MARRERO","LA",70072,29.8835183300001,-90.108213118,73,"1640 WEIGLE DR, MARRERO, LA, 70072","Match","Non_Exact","1640 WEIGEL DR, MARRERO, LA, 70072",93508372,"R"
235074,"1640 WEINREICH CT","FOLSOM","CA",95630,38.6815315960001,-121.117130814,74,"1640 WEINREICH CT, FOLSOM, CA, 95630","Match","Exact","1640 WEINREICH CT, FOLSOM, CA, 95630",133444212,"L"
235075,"1640 WEST 115TH STREETER","CHICAGO","IL",60643,41.6848003490001,-87.6631753779999,75,"1640 WEST 115TH STREETER, CHICAGO, IL, 60643","Match","Non_Exact","1640 W 115TH ST, CHICAGO, IL, 60643",111823670,"R"
235076,"1640 WEST 23 STREET","JACKSONVILLE","FL",32209,30.3580154200001,-81.683692809,76,"1640 WEST 23 STREET, JACKSONVILLE, FL, 32209","Match","Exact","1640 W 23RD ST, JACKSONVILLE, FL, 32209",83955101,"L"
235077,"1640 WEST FIVE MILE PARKWAY","DALLAS","TX",75224,32.6986835710001,-96.847710999,77,"1640 WEST FIVE MILE PARKWAY, DALLAS, TX, 75224","Match","Exact","1640 W FIVE MILE PKWY, DALLAS, TX, 75224",102947410,"L"
235078,"1640 WHITE OAK VISTA DR","ARLINGTON","VA",22204,NA,NA,78,"1640 WHITE OAK VISTA DR, ARLINGTON, VA, 22204","No_Match",NA,NA,NA,NA
235079,"1640 WILSON STREET","EUGENE","OR",97402,44.0424129720001,-123.131242999,79,"1640 WILSON STREET, EUGENE, OR, 97402","Match","Exact","1640 WILSON ST, EUGENE, OR, 97402",178165779,"R"
235080,"1640 WINSHIRE CV","ALPHARETTA","GA",30004,34.1192614290001,-84.231449308,80,"1640 WINSHIRE CV, ALPHARETTA, GA, 30004","Match","Exact","1640 WINSHIRE COVE, ALPHARETTA, GA, 30004",629554155,"R"
235081,"1640 WISCONSIN AVENUE NW","WASHINGTON","DC",20007,38.9116579980001,-77.065594808,81,"1640 WISCONSIN AVENUE NW, WASHINGTON, DC, 20007","Match","Exact","1640 WISCONSIN AVE NW, WASHINGTON, DC, 20007",76221241,"L"
235082,"1640 WISCONSIN AVENUE","WASHINGTON","DC",20007,38.9116579980001,-77.065594808,82,"1640 WISCONSIN AVENUE, WASHINGTON, DC, 20007","Match","Non_Exact","1640 WISCONSIN AVE NW, WASHINGTON, DC, 20007",76221241,"L"
235083,"1640 WISCONSIN STREET","RIVER FALLS","WI",54002,44.84052101,-92.6271986529999,83,"1640 WISCONSIN STREET, RIVER FALLS, WI, 54002","Match","Non_Exact","1640 WISCONSIN ST, RIVER FALLS, WI, 54022",95864855,"L"
235084,"1640 WOODCREST DRIVE","DAYTONA BEACH","FL",32119,29.1691341430001,-81.0414662319999,84,"1640 WOODCREST DRIVE, DAYTONA BEACH, FL, 32119","Match","Exact","1640 WOODCREST DR, DAYTONA BEACH, FL, 32119",640806234,"R"
235085,"1640 WOODSFORD ROAD NW","KENNESAW","GA",30152,33.9944043520001,-84.600989399,85,"1640 WOODSFORD ROAD NW, KENNESAW, GA, 30152","Match","Exact","1640 WOODSFORD RD NW, KENNESAW, GA, 30152",17238786,"L"
235086,"1640 WORCESTER RD APT 431D","FRAMINGHAM","MA",1702,42.2959806900001,-71.4741449589999,86,"1640 WORCESTER RD APT 431D, FRAMINGHAM, MA, 1702","Match","Exact","1640 WORCESTER RD, FRAMINGHAM, MA, 01702",608962621,"R"
235087,"1640 YEAGER RD","ROYERSFORD","PA",19468,40.1742187470001,-75.5117508339999,87,"1640 YEAGER RD, ROYERSFORD, PA, 19468","Match","Exact","1640 YEAGER RD, ROYERSFORD, PA, 19468",135126481,"L"
235088,"1640","GUNTERSVILLE","AL",35976,NA,NA,88,"1640, GUNTERSVILLE, AL, 35976","No_Match",NA,NA,NA,NA
235089,"16400 BROWN ROAD","CENTRAL","LA",70714,30.603256706,-91.087922046,89,"16400 BROWN ROAD, CENTRAL, LA, 70714","Match","Non_Exact","16400 BROWN RD, BAKER, LA, 70714",92209258,"R"
235090,"16400 CHATTANOOGA LN","WOODBRIDGE","VA",22191,38.597455107,-77.2777923799999,90,"16400 CHATTANOOGA LN, WOODBRIDGE, VA, 22191","Match","Exact","16400 CHATTANOOGA LN, WOODBRIDGE, VA, 22191",635834653,"L"
235091,"16400 GLYNN ROAD","CLEVELAND HEIGHTS","OH",44112,41.5294682250001,-81.564190872,91,"16400 GLYNN ROAD, CLEVELAND HEIGHTS, OH, 44112","Match","Exact","16400 GLYNN RD, CLEVELAND HEIGHTS, OH, 44112",61179041,"R"
235092,"16400 HAVELOCK WAY","LAKEVILLE","MN",55044,44.7116271830001,-93.231519785,92,"16400 HAVELOCK WAY, LAKEVILLE, MN, 55044","Match","Exact","16400 HAVELOCK WAY, LAKEVILLE, MN, 55044",37925116,"L"
235093,"16400 INDIAN RIDGE CIRCLE","HUNTSVILLE","AL",35803,34.5872921050001,-86.540384542,93,"16400 INDIAN RIDGE CIRCLE, HUNTSVILLE, AL, 35803","Match","Non_Exact","16400 INDIAN RIDGE CIR SE, HUNTSVILLE, AL, 35803",627504532,"R"
235094,"16400 KENSINGTON DR","SUGARLAND","TX",77479,29.596817124,-95.629567273,94,"16400 KENSINGTON DR, SUGARLAND, TX, 77479","Match","Non_Exact","16400 KENSINGTON BLVD, SUGAR LAND, TX, 77479",617957566,"R"
235095,"16400 LEDGEMOUNT LANE NO 702","ADDISON","TX",75001,32.9735967610001,-96.827485708,95,"16400 LEDGEMOUNT LANE NO 702, ADDISON, TX, 75001","Match","Non_Exact","16400 LEDGEMONT LN, ADDISON, TX, 75001",102970899,"R"
235096,"16400 MILES AVE","CLEVELAND","OH",44128,41.440421927,-81.565914188,96,"16400 MILES AVE, CLEVELAND, OH, 44128","Match","Exact","16400 MILES AVE, CLEVELAND, OH, 44128",61127807,"R"
235097,"16400 NE LAS BILAS CT STE 4","PORTLAND","OR",97230,NA,NA,97,"16400 NE LAS BILAS CT STE 4, PORTLAND, OR, 97230","No_Match",NA,NA,NA,NA
235098,"16400 NORTH PARK DRIVE","SOUTHFIELD","MI",48075,42.456011646,-83.211126481,98,"16400 NORTH PARK DRIVE, SOUTHFIELD, MI, 48075","Match","Non_Exact","16400 N PARK PL, SOUTHFIELD, MI, 48075",630369737,"R"
235099,"16400 NW 2 AVENUE  STE 102","MIAMI","FL",33169,25.925266988,-80.204244901,99,"16400 NW 2 AVENUE  STE 102, MIAMI, FL, 33169","Match","Non_Exact","16400 NW 2ND AVE, MIAMI, FL, 33169",116031031,"L"
235100,"16400 NW 2 AVENUE STE 102","MIAMI","FL",33169,25.925266988,-80.204244901,100,"16400 NW 2 AVENUE STE 102, MIAMI, FL, 33169","Match","Non_Exact","16400 NW 2ND AVE, MIAMI, FL, 33169",116031031,"L"
235101,"16400 SE 95TH COURT","SUMMERFIELD","FL",34491,28.9832827970001,-81.995189683,101,"16400 SE 95TH COURT, SUMMERFIELD, FL, 34491","Match","Exact","16400 SE 95TH CT, SUMMERFIELD, FL, 34491",116697474,"L"
235102,"16400 ST HWY 21W","DOUGLASS","TX",75943,NA,NA,102,"16400 ST HWY 21W, DOUGLASS, TX, 75943","No_Match",NA,NA,NA,NA
235103,"16400 STATE HWY 21 WEST","DOUGLASS","TX",75943,31.6708593180001,-94.899276892,103,"16400 STATE HWY 21 WEST, DOUGLASS, TX, 75943","Match","Non_Exact","16400 STATE HWY 21, DOUGLASS, TX, 75943",635329453,"R"
235104,"16400 UPTON RD LOT 171","EAST LANSING","MI",48823,42.7779729580001,-84.3984264549999,104,"16400 UPTON RD LOT 171, EAST LANSING, MI, 48823","Match","Exact","16400 UPTON RD, EAST LANSING, MI, 48823",17300371,"R"
235105,"16400 US HWY 331S SUITE B2 -155","FREEPORT","FL",32439,NA,NA,105,"16400 US HWY 331S SUITE B2 -155, FREEPORT, FL, 32439","No_Match",NA,NA,NA,NA
235106,"16400 US HWY 331S SUITE B2 -282","FREEPORT","FL",32439,NA,NA,106,"16400 US HWY 331S SUITE B2 -282, FREEPORT, FL, 32439","No_Match",NA,NA,NA,NA
235107,"16400 W HWY 318","WILLISTON","FL",32696,29.3948150890001,-82.39386323,107,"16400 W HWY 318, WILLISTON, FL, 32696","Match","Exact","16400 W HWY 318, WILLISTON, FL, 32696",649831204,"R"
235108,"16400 W OLD BALTIMORE RD","BOYDS","MD",20841,39.2197592640001,-77.34143425,108,"16400 W OLD BALTIMORE RD, BOYDS, MD, 20841","Match","Exact","16400 W OLD BALTIMORE RD, BOYDS, MD, 20841",62045069,"R"
235109,"16400 W SALA LANE","HAUSER","ID",83854,47.7826246210001,-117.007846517,109,"16400 W SALA LANE, HAUSER, ID, 83854","Match","Exact","16400 W SALA LN, HAUSER, ID, 83854",644423614,"R"
235110,"16400 WEST DIXIE HIGHWAY","NORTH MIAMI BEACH","FL",33160,25.927228751,-80.1559893529999,110,"16400 WEST DIXIE HIGHWAY, NORTH MIAMI BEACH, FL, 33160","Match","Exact","16400 W DIXIE HWY, N MIAMI BEACH, FL, 33160",116291486,"L"
235111,"16400 WEST DIXIE HWY UNIT 1074","NORTH MIAMI BEACH","FL",33160,25.927228751,-80.1559893529999,111,"16400 WEST DIXIE HWY UNIT 1074, NORTH MIAMI BEACH, FL, 33160","Match","Exact","16400 W DIXIE HWY, N MIAMI BEACH, FL, 33160",116291486,"L"
235112,"16400 WILKERSON PLACE","BRANDYWINE","MD",20613,38.5717816210001,-76.75229002,112,"16400 WILKERSON PLACE, BRANDYWINE, MD, 20613","Match","Exact","16400 WILKERSON PL, BRANDYWINE, MD, 20613",25418021,"R"
235113,"164000 STATE HWY 21 WEST","DOUGLASS","TX",75943,NA,NA,113,"164000 STATE HWY 21 WEST, DOUGLASS, TX, 75943","No_Match",NA,NA,NA,NA
235114,"16401 BARCICA LANE","CORNELIUS","NC",28031,35.443093441,-80.899615231,114,"16401 BARCICA LANE, CORNELIUS, NC, 28031","Match","Exact","16401 BARCICA LN, CORNELIUS, NC, 28031",70530770,"L"
235115,"16401 BLATT BLVD  205","WESTON","FL",33326,26.121185553,-80.370954,115,"16401 BLATT BLVD  205, WESTON, FL, 33326","Match","Exact","16401 BLATT BLVD, WESTON, FL, 33326",114697034,"L"
235116,"16401 CASTILE AVE","PANAMA CITY BEACH","FL",32413,30.2253635280001,-85.880822802,116,"16401 CASTILE AVE, PANAMA CITY BEACH, FL, 32413","Match","Exact","16401 CASTILE AVE, PANAMA CITY BEACH, FL, 32413",7020084,"L"
235117,"16401 E A BASIN AVE","BUCKLEY AFB","CO",80011,NA,NA,117,"16401 E A BASIN AVE, BUCKLEY AFB, CO, 80011","No_Match",NA,NA,NA,NA
235118,"16401 FALLBROOK DRIVE","FARMINGTON","MN",55024,44.711461322,-93.18749442,118,"16401 FALLBROOK DRIVE, FARMINGTON, MN, 55024","Match","Exact","16401 FALLBROOK DR, FARMINGTON, MN, 55024",635775240,"R"
235119,"16401 FERNWAY RD","SHAKER HEIGHTS","OH",44120,41.4713775110001,-81.566353237,119,"16401 FERNWAY RD, SHAKER HEIGHTS, OH, 44120","Match","Exact","16401 FERNWAY RD, SHAKER HEIGHTS, OH, 44120",61127369,"L"
235120,"16401 FM 2208","HARLETON","TX",75651,32.663658329,-94.568363502,120,"16401 FM 2208, HARLETON, TX, 75651","Match","Exact","16401 FM 2208, HARLETON, TX, 75651",648216846,"L"
235121,"16401 FOCH BLVD APT 1E","JAMAICA","NY",11434,NA,NA,121,"16401 FOCH BLVD APT 1E, JAMAICA, NY, 11434","No_Match",NA,NA,NA,NA
235122,"16401 N 40TH STREET","PHOENIX","AZ",85032,33.636035163,-111.996112739,122,"16401 N 40TH STREET, PHOENIX, AZ, 85032","Match","Exact","16401 N 40TH ST, PHOENIX, AZ, 85032",128260094,"R"
235123,"16401 NW 37TH AVE","MIAMI GARDENS","FL",33054,25.91944612,-80.260388776,123,"16401 NW 37TH AVE, MIAMI GARDENS, FL, 33054","Match","Exact","16401 NW 37TH AVE, MIAMI GARDENS, FL, 33054",638113510,"R"
235124,"16401 S LONE SAGUARO RD","SAHUARITA","AZ",85629,31.9465245270001,-111.118763072,124,"16401 S LONE SAGUARO RD, SAHUARITA, AZ, 85629","Match","Exact","16401 S LONE SAGUARO RD, SAHUARITA, AZ, 85629",121239791,"L"
235125,"16401 SUNNY GLEN AVE","CLEVELAND","OH",44128,41.4290204550001,-81.5659985789999,125,"16401 SUNNY GLEN AVE, CLEVELAND, OH, 44128","Match","Exact","16401 SUNNY GLEN AVE, CLEVELAND, OH, 44128",61171579,"R"
235126,"16401 SW 30TH ST","MIRAMAR","FL",33027,25.981309437,-80.36321291,126,"16401 SW 30TH ST, MIRAMAR, FL, 33027","Match","Exact","16401 SW 30TH ST, MIRAMAR, FL, 33027",114818951,"R"
235127,"16401 US HWY 231","TITUS","AL",36080,32.6586143120001,-86.2495104989999,127,"16401 US HWY 231, TITUS, AL, 36080","Match","Exact","16401 US HWY 231, TITUS, AL, 36080",635633759,"L"
235128,"16402 BARRYKNOLL WAY","GRANGER","IN",46530,41.7600239060001,-86.18663739,128,"16402 BARRYKNOLL WAY, GRANGER, IN, 46530","Match","Exact","16402 BARRYKNOLL WAY, GRANGER, IN, 46530",8059430,"L"
235129,"16402 CEDAR SAGE DR","HOUSTON","TX",77095,29.943715464,-95.6638176879999,129,"16402 CEDAR SAGE DR, HOUSTON, TX, 77095","Match","Exact","16402 CEDAR SAGE DR, HOUSTON, TX, 77095",635279621,"R"
235130,"16402 FALLS ROAD","MONKTON","MD",21111,39.5731976920001,-76.611659445,130,"16402 FALLS ROAD, MONKTON, MD, 21111","Match","Exact","16402 FALLS RD, MONKTON, MD, 21111",191496060,"R"
235131,"16402 LONDON AVENUE","BATON ROUGE","LA",70818,30.478486924,-91.006379403,131,"16402 LONDON AVENUE, BATON ROUGE, LA, 70818","Match","Non_Exact","16402 LONDON AVE, BATON ROUGE, LA, 70819",92194238,"R"
235132,"16402 N 31ST STREET  UNIT 139","PHOENIX","AZ",85032,33.6354221030001,-112.015634163,132,"16402 N 31ST STREET  UNIT 139, PHOENIX, AZ, 85032","Match","Non_Exact","16402 N 31ST ST, PHOENIX, AZ, 85032",128943930,"L"
235133,"16402 NE 33RD STREET","VANCOUVER","WA",98682,45.6458641310001,-122.503965399,133,"16402 NE 33RD STREET, VANCOUVER, WA, 98682","Match","Exact","16402 NE 33RD ST, VANCOUVER, WA, 98682",158352893,"R"
235134,"16402 OLD STONE CROSSING DRIVE","CHARLOTTE","NC",28213,35.2907939670001,-80.687399345,134,"16402 OLD STONE CROSSING DRIVE, CHARLOTTE, NC, 28213","Match","Exact","16402 OLD STONE CROSSING DR, CHARLOTTE, NC, 28213",70562579,"R"
235135,"16402 SE PEAR STREET","BLOUNTSTOWN","FL",32424,30.4374889960001,-85.0450632989999,135,"16402 SE PEAR STREET, BLOUNTSTOWN, FL, 32424","Match","Non_Exact","16402 S PEAR ST, BLOUNTSTOWN, FL, 32424",624568414,"L"
235136,"16402 TYRONE AVE","KENT CITY","MI",49330,43.2644743210001,-85.731967401,136,"16402 TYRONE AVE, KENT CITY, MI, 49330","Match","Exact","16402 TYRONE AVE, KENT CITY, MI, 49330",642599576,"R"
235137,"16402 WEST WILLOW DRIVE","SPRING LAKE","MI",49456,43.10009333,-86.194513774,137,"16402 WEST WILLOW DRIVE, SPRING LAKE, MI, 49456","Match","Exact","16402 W WILLOW DR, SPRING LAKE, MI, 49456",624806006,"R"
235138,"16403 ALEXANDER PLACE","CERRITOS","CA",90703,33.8828627170001,-118.045077387,138,"16403 ALEXANDER PLACE, CERRITOS, CA, 90703","Match","Exact","16403 ALEXANDER PL, CERRITOS, CA, 90703",141753480,"R"
235139,"16403 EMERALD AVENUE","HARVEY","IL",60426,41.591668665,-87.635199706,139,"16403 EMERALD AVENUE, HARVEY, IL, 60426","Match","Exact","16403 EMERALD AVE, HARVEY, IL, 60426",111712400,"L"
235140,"16403 EMERALD","HARVEY","IL",60426,41.591668665,-87.635199706,140,"16403 EMERALD, HARVEY, IL, 60426","Match","Non_Exact","16403 EMERALD AVE, HARVEY, IL, 60426",111712400,"L"
235141,"16403 LEEDSWELL LANE","HOUSTON","TX",77084,29.866877872,-95.655116893,141,"16403 LEEDSWELL LANE, HOUSTON, TX, 77084","Match","Exact","16403 LEEDSWELL LN, HOUSTON, TX, 77084",96563927,"R"
235142,"16403 MEADOWBROOK LANE","CERRITOS","CA",90703,33.8821406590001,-118.065643981,142,"16403 MEADOWBROOK LANE, CERRITOS, CA, 90703","Match","Exact","16403 MEADOWBROOK LN, CERRITOS, CA, 90703",141753212,"R"
235143,"16403 OLD MILL ROAD","LEWES","DE",19958,38.759556812,-75.1892892829999,143,"16403 OLD MILL ROAD, LEWES, DE, 19958","Match","Exact","16403 OLD MILL RD, LEWES, DE, 19958",106125555,"R"
235144,"16403 ROYAL HORSE","SELMA","TX",78154,29.589332067,-98.3324591529999,144,"16403 ROYAL HORSE, SELMA, TX, 78154","Match","Exact","16403 ROYAL HORSE, SELMA, TX, 78154",617254374,"L"
235145,"16403 SE 23RD ST","BELLEVUE","WA",98008,47.590121525,-122.120261074,145,"16403 SE 23RD ST, BELLEVUE, WA, 98008","Match","Exact","16403 SE 23RD ST, BELLEVUE, WA, 98008",186614863,"R"
235146,"16403 SIGNATURE COURT","ROCKVILLE","MD",20853,39.1247314980001,-77.075352381,146,"16403 SIGNATURE COURT, ROCKVILLE, MD, 20853","Match","Exact","16403 SIGNATURE CT, ROCKVILLE, MD, 20853",62124294,"R"
235147,"16403 WILLOWBANK RD","TOMBALL","TX",77377,30.003555148,-95.613134061,147,"16403 WILLOWBANK RD, TOMBALL, TX, 77377","Match","Non_Exact","16403 WILLOWBANK DR, TOMBALL, TX, 77377",96145214,"L"
235148,"16404 BIRKDALE DRIVE","ODESSA","FL",33556,28.1073779010001,-82.643301815,148,"16404 BIRKDALE DRIVE, ODESSA, FL, 33556","Match","Exact","16404 BIRKDALE DR, ODESSA, FL, 33556",104567203,"R"
235149,"16404 BREAKWATER DRIVE","HUMBLE","TX",77346,NA,NA,149,"16404 BREAKWATER DRIVE, HUMBLE, TX, 77346","No_Match",NA,NA,NA,NA
235150,"16404 EDDINGER ROAD","BOWIE","MD",20716,38.934049536,-76.7238924389999,150,"16404 EDDINGER ROAD, BOWIE, MD, 20716","Match","Exact","16404 EDDINGER RD, BOWIE, MD, 20716",76352757,"L"
235151,"16404 HART ROAD","MONTVILLE","OH",44064,41.624250004,-81.0577101119999,151,"16404 HART ROAD, MONTVILLE, OH, 44064","Match","Exact","16404 HART RD, MONTVILLE, OH, 44064",137436537,"L"
235152,"16404 KNOX STREET","OVERLAND PARK","KS",66085,38.8309490990001,-94.701126699,152,"16404 KNOX STREET, OVERLAND PARK, KS, 66085","Match","Exact","16404 KNOX ST, OVERLAND PARK, KS, 66085",641623111,"R"
235153,"16404 MILLAN DEAVILLA","TAMPA","FL",33613,28.1094686860001,-82.482636782,153,"16404 MILLAN DEAVILLA, TAMPA, FL, 33613","Match","Non_Exact","16404 MILLAN DE AVILA, TAMPA, FL, 33613",652506212,"L"
235154,"16404 NE 110TH STREET","REDMOND","WA",98052,47.6983574710001,-122.120858413,154,"16404 NE 110TH STREET, REDMOND, WA, 98052","Match","Exact","16404 NE 110TH ST, REDMOND, WA, 98052",186610226,"L"
235155,"16405 12POINT75 LANE","GARDEN","MI",49835,NA,NA,155,"16405 12POINT75 LANE, GARDEN, MI, 49835","No_Match",NA,NA,NA,NA
235156,"16405 61ST AVE N","PLYMOUTH","MN",55446,45.0652701560001,-93.487860322,156,"16405 61ST AVE N, PLYMOUTH, MN, 55446","Match","Exact","16405 61ST AVE N, PLYMOUTH, MN, 55446",648305323,"R"
235157,"16405 BETTY LANE","SOUTH HOLLAND","IL",60473,41.597662341,-87.6028267679999,157,"16405 BETTY LANE, SOUTH HOLLAND, IL, 60473","Match","Exact","16405 BETTY LN, SOUTH HOLLAND, IL, 60473",649696587,"L"
235158,"16405 CAMINITO VECINOS UNIT 152","SAN DIEGO","CA",92128,NA,NA,158,"16405 CAMINITO VECINOS UNIT 152, SAN DIEGO, CA, 92128","No_Match",NA,NA,NA,NA
235159,"16405 COLIMA RD","HACIENDA HTS","CA",91745,NA,NA,159,"16405 COLIMA RD, HACIENDA HTS, CA, 91745","No_Match",NA,NA,NA,NA
235160,"16405 COLLINSON","EASTPOINTE","MI",48021,42.454696105,-82.9525269659999,160,"16405 COLLINSON, EASTPOINTE, MI, 48021","Match","Non_Exact","16405 COLLINSON AVE, EASTPOINTE, MI, 48021",110679494,"L"
235161,"16405 CORNUTA AVE APT 1","BELLFLOWER","CA",90706,33.884921364,-118.119805334,161,"16405 CORNUTA AVE APT 1, BELLFLOWER, CA, 90706","Match","Exact","16405 CORNUTA AVE, BELLFLOWER, CA, 90706",142794793,"R"
235162,"16405 HIGHWAY 62","CHARLESTOWN","IN",47111,38.4833843550001,-85.5863337649999,162,"16405 HIGHWAY 62, CHARLESTOWN, IN, 47111","Match","Non_Exact","16405 N HWY 62, CHARLESTOWN, IN, 47111",641436290,"R"
235163,"16405 HILLSIDE AVENUE","JAMAICA","NY",11432,NA,NA,163,"16405 HILLSIDE AVENUE, JAMAICA, NY, 11432","No_Match",NA,NA,NA,NA
235164,"16405 NE 95TH STREET APT 202","REDMOND","WA",98052,47.685675363,-122.120808185,164,"16405 NE 95TH STREET APT 202, REDMOND, WA, 98052","Match","Non_Exact","16405 NE 95TH ST, REDMOND, WA, 98052",186610535,"L"
235165,"16405 SE MERGANSER CT","PORTLAND","OR",97267,45.4042643820001,-122.590608019,165,"16405 SE MERGANSER CT, PORTLAND, OR, 97267","Match","Exact","16405 SE MERGANSER CT, PORTLAND, OR, 97267",641417503,"R"
235166,"16405 STILLHOUSE HOLLW COURT","PROSPER","TX",75078,33.2387307750001,-96.850431268,166,"16405 STILLHOUSE HOLLW COURT, PROSPER, TX, 75078","Match","Non_Exact","16405 STILLHOUSE HOLLOW CT, PROSPER, TX, 75078",614147542,"R"
235167,"16405 SW NIGHTHAWK DR","BEAVERTON","OR",97007,45.4390517200001,-122.846036691,167,"16405 SW NIGHTHAWK DR, BEAVERTON, OR, 97007","Match","Exact","16405 SW NIGHTHAWK DR, BEAVERTON, OR, 97007",158202624,"R"
235168,"16406 CLOVER LODGE COURT","SUGAR LAND","TX",77498,29.6508091750001,-95.665640466,168,"16406 CLOVER LODGE COURT, SUGAR LAND, TX, 77498","Match","Exact","16406 CLOVER LODGE CT, SUGAR LAND, TX, 77498",78281891,"R"
235169,"16406 EDDINGER ROAD","BOWIE","MD",20716,38.934035867,-76.723875457,169,"16406 EDDINGER ROAD, BOWIE, MD, 20716","Match","Exact","16406 EDDINGER RD, BOWIE, MD, 20716",76352757,"L"
235170,"16406 PORT O CALL","CROSBY","TX",77532,29.9196346910001,-95.0791714819999,170,"16406 PORT O CALL, CROSBY, TX, 77532","Match","Non_Exact","16406 PORT O CALL ST, CROSBY, TX, 77532",96554388,"R"
235171,"16406 RIVERS REACH BLVD","PARRISH","FL",34219,27.5256698310001,-82.374000533,171,"16406 RIVERS REACH BLVD, PARRISH, FL, 34219","Match","Exact","16406 RIVERS REACH BLVD, PARRISH, FL, 34219",627945550,"R"
235172,"16406 ROLLING TREE ROAD","ACCOKEEK","MD",20607,38.6642419400001,-77.0069861759999,172,"16406 ROLLING TREE ROAD, ACCOKEEK, MD, 20607","Match","Exact","16406 ROLLING TREE RD, ACCOKEEK, MD, 20607",76302795,"L"
235173,"16407 3TH AVE S UNIT 6","SPANAWAY","WA",98387,NA,NA,173,"16407 3TH AVE S UNIT 6, SPANAWAY, WA, 98387","No_Match",NA,NA,NA,NA
235174,"16407 APRIL FALLS TR","HOUSTON","TX",NA,29.680451971,-95.672664616,174,"16407 APRIL FALLS TR, HOUSTON, TX, ","Match","Exact","16407 APRIL FALLS TRL, HOUSTON, TX, 77083",78334592,"L"
235175,"16407 APRIL FALLS TRAIL","HOUSTON","TX",77083,29.680451971,-95.672664616,175,"16407 APRIL FALLS TRAIL, HOUSTON, TX, 77083","Match","Exact","16407 APRIL FALLS TRL, HOUSTON, TX, 77083",78334592,"L"
235176,"16407 HERMITAGE AVE","MARKHAM","IL",60428,41.59164888,-87.6595151879999,176,"16407 HERMITAGE AVE, MARKHAM, IL, 60428","Match","Exact","16407 HERMITAGE AVE, MARKHAM, IL, 60428",111706012,"L"
235177,"16407 PARALEE COVE","AUSTIN","TX",78717,30.5030286350001,-97.740779241,177,"16407 PARALEE COVE, AUSTIN, TX, 78717","Match","Exact","16407 PARALEE COVE, AUSTIN, TX, 78717",126439601,"L"
235178,"16407 ROCKGATE DR","AUSTIN","TX",78717,30.5038047790001,-97.7453609789999,178,"16407 ROCKGATE DR, AUSTIN, TX, 78717","Match","Exact","16407 ROCKGATE DR, AUSTIN, TX, 78717",126446499,"R"
235179,"16407 SE 46TH STREET","ISSAQUAH","WA",98006,47.5631145660001,-122.120159097,179,"16407 SE 46TH STREET, ISSAQUAH, WA, 98006","Match","Non_Exact","16407 46TH ST, BELLEVUE, WA, 98006",187080882,"R"
235180,"16407 W ASH LANE","LOCKPORT","IL",60441,NA,NA,180,"16407 W ASH LANE, LOCKPORT, IL, 60441","Tie",NA,NA,NA,NA
235181,"16407 W WOODLANDS AVE","GOODYEAR","AZ",85338,33.4495195170001,-112.411938687,181,"16407 W WOODLANDS AVE, GOODYEAR, AZ, 85338","Match","Exact","16407 W WOODLANDS AVE, GOODYEAR, AZ, 85338",128849923,"L"
235182,"16407 WILLOW PARK DR","TOMBALL","TX",77377,30.009442377,-95.610014061,182,"16407 WILLOW PARK DR, TOMBALL, TX, 77377","Match","Non_Exact","16407 WILLOWPARK DR, TOMBALL, TX, 77377",96002789,"R"
235183,"16407 WILLOWPARK DR","TOMBALL","TX",77377,30.009442377,-95.610014061,183,"16407 WILLOWPARK DR, TOMBALL, TX, 77377","Match","Exact","16407 WILLOWPARK DR, TOMBALL, TX, 77377",96002789,"R"
235184,"16408 AVILA BLVD","TAMPA","FL",33613,28.105419398,-82.472453393,184,"16408 AVILA BLVD, TAMPA, FL, 33613","Match","Exact","16408 AVILA BLVD, TAMPA, FL, 33613",104573636,"R"
235185,"16408 EGRET CROSSING LANE","LITHIA","FL",33547,27.8433066900001,-82.207474035,185,"16408 EGRET CROSSING LANE, LITHIA, FL, 33547","Match","Exact","16408 EGRET CROSSING LN, LITHIA, FL, 33547",641546959,"R"
235186,"16408 GARRETT ROAD","HARLINGEN","TX",78552,26.1707506170001,-97.75945692,186,"16408 GARRETT ROAD, HARLINGEN, TX, 78552","Match","Exact","16408 GARRETT RD, HARLINGEN, TX, 78552",89987133,"R"
235187,"16408 GRAND AVENUE","BELLFLOWER","CA",90706,33.8849694470001,-118.112950579,187,"16408 GRAND AVENUE, BELLFLOWER, CA, 90706","Match","Exact","16408 GRAND AVE, BELLFLOWER, CA, 90706",142795179,"L"
235188,"16408 MOUNT CALVERT ROAD","UPPER MARLBORO","MD",20746,38.7800043610001,-76.721376699,188,"16408 MOUNT CALVERT ROAD, UPPER MARLBORO, MD, 20746","Match","Non_Exact","16408 MOUNT CALVERT RD, UPPER MARLBORO, MD, 20772",649784304,"R"
235189,"16408 MOUNT CALVERT ROAD","UPPER MARLBORO","MD",20772,38.7800043610001,-76.721376699,189,"16408 MOUNT CALVERT ROAD, UPPER MARLBORO, MD, 20772","Match","Exact","16408 MOUNT CALVERT RD, UPPER MARLBORO, MD, 20772",649784304,"R"
235190,"16408 NE 104TH ST","REDMOND","WA",98052,47.692910897,-122.120786134,190,"16408 NE 104TH ST, REDMOND, WA, 98052","Match","Exact","16408 NE 104TH ST, REDMOND, WA, 98052",640611909,"L"
235191,"16408 PLUMAGE EAGLE STREET","WOODBRIDGE","VA",22191,38.5969822370001,-77.305635012,191,"16408 PLUMAGE EAGLE STREET, WOODBRIDGE, VA, 22191","Match","Exact","16408 PLUMAGE EAGLE ST, WOODBRIDGE, VA, 22191",632945337,"L"
235192,"16408 WESTDALE AVENUE","CLEVELAND","OH",44135,41.4390530580001,-81.8125579869999,192,"16408 WESTDALE AVENUE, CLEVELAND, OH, 44135","Match","Exact","16408 WESTDALE AVE, CLEVELAND, OH, 44135",61102369,"R"
235193,"16409 14TH AVENUE COURT EAST","Spanaway","WA",98387,47.107125647,-122.409848449,193,"16409 14TH AVENUE COURT EAST, Spanaway, WA, 98387","Match","Exact","16409 14TH AVENUE CT E, SPANAWAY, WA, 98387",184714257,"L"
235194,"16409 CAMDEN AVENUE","OMAHA","NE",68116,41.305871639,-96.170967086,194,"16409 CAMDEN AVENUE, OMAHA, NE, 68116","Match","Exact","16409 CAMDEN AVE, OMAHA, NE, 68116",617718533,"L"
235195,"16409 GLEN LAKES DRIVE","LOUISVILLE","KY",40245,38.2413045850001,-85.451239401,195,"16409 GLEN LAKES DRIVE, LOUISVILLE, KY, 40245","Match","Exact","16409 GLEN LAKES DR, LOUISVILLE, KY, 40245",648010466,"R"
235196,"16409 GOVERNOR GREEN STE 104","BOWIE","MD",20716,NA,NA,196,"16409 GOVERNOR GREEN STE 104, BOWIE, MD, 20716","No_Match",NA,NA,NA,NA
235197,"16409 MEADOWBROOK LN","CERRITOS","CA",90703,33.882109847,-118.06564377,197,"16409 MEADOWBROOK LN, CERRITOS, CA, 90703","Match","Exact","16409 MEADOWBROOK LN, CERRITOS, CA, 90703",141753212,"R"
235198,"16409 W M28","BRIMLEY","MI",49715,46.375602837,-84.7025094649999,198,"16409 W M28, BRIMLEY, MI, 49715","Match","Non_Exact","16409 W M 28, BRIMLEY, MI, 49715",130559604,"R"
235199,"16409 WEST SWEEDLER ROAD","MANHATTAN","IL",60442,41.420595276,-88.011486645,199,"16409 WEST SWEEDLER ROAD, MANHATTAN, IL, 60442","Match","Exact","16409 W SWEEDLER RD, MANHATTAN, IL, 60442",111640870,"R"
235200,"1641 3RD AVE APT 18J","NEW YORK","NY",10128,40.782532331,-73.9512657669999,200,"1641 3RD AVE APT 18J, NEW YORK, NY, 10128","Match","Exact","1641 3RD AVE, NEW YORK, NY, 10128",59657956,"R"
235201,"1641 65TH ST B2","BROOKLYN","NY",11204,40.6213721390001,-73.993875838,201,"1641 65TH ST B2, BROOKLYN, NY, 11204","Match","Exact","1641 65TH ST, BROOKLYN, NY, 11204",59088290,"L"
235202,"1641 65TH STREET B2","BROOKLYN","NY",11204,40.6213721390001,-73.993875838,202,"1641 65TH STREET B2, BROOKLYN, NY, 11204","Match","Exact","1641 65TH ST, BROOKLYN, NY, 11204",59088290,"L"
235203,"1641 8TH STREET","MIAMI BEACH","FL",33139,NA,NA,203,"1641 8TH STREET, MIAMI BEACH, FL, 33139","No_Match",NA,NA,NA,NA
235204,"1641 A NORTH FAYETTEVILLE ST","ASHEBORO","NC",27203,35.742290489,-79.8081638479999,204,"1641 A NORTH FAYETTEVILLE ST, ASHEBORO, NC, 27203","Match","Exact","1641 N FAYETTEVILLE ST, ASHEBORO, NC, 27203",20407590,"L"
235205,"1641 BRAID HILLS DRIVE","PASADENA","MD",21122,39.126509969,-76.501783314,205,"1641 BRAID HILLS DRIVE, PASADENA, MD, 21122","Match","Exact","1641 BRAID HILLS DR, PASADENA, MD, 21122",606954006,"L"
235206,"1641 BRISTOL PLACE","ORANGE PARK","FL",32073,30.1602160780001,-81.729432701,206,"1641 BRISTOL PLACE, ORANGE PARK, FL, 32073","Match","Exact","1641 BRISTOL PL, ORANGE PARK, FL, 32073",636340085,"L"
235207,"1641 C STREET SE","WASHINGTON","DC",20003,38.885350036,-76.981600117,207,"1641 C STREET SE, WASHINGTON, DC, 20003","Match","Exact","1641 C ST SE, WASHINGTON, DC, 20003",76230939,"R"
235208,"1641 CLIFTON TER NE","ATLANTA","GA",30307,33.7716248080001,-84.333117183,208,"1641 CLIFTON TER NE, ATLANTA, GA, 30307","Match","Exact","1641 CLIFTON TER NE, ATLANTA, GA, 30307",23365057,"R"
235209,"1641 CORLISS ROAD","RAINELLE","WV",26962,38.0286117740001,-80.875348839,209,"1641 CORLISS ROAD, RAINELLE, WV, 26962","Match","Non_Exact","1641 CORLISS RD, RAINELLE, WV, 25962",75119797,"L"
235210,"1641 COVINGTON ST","BALTIMORE","MD",21230,39.271416883,-76.606590022,210,"1641 COVINGTON ST, BALTIMORE, MD, 21230","Match","Exact","1641 COVINGTON ST, BALTIMORE, MD, 21230",206421923,"L"
235211,"1641 CREEK WOOD","MIDLOTHIAN","TX",76065,32.462860273,-96.972216993,211,"1641 CREEK WOOD, MIDLOTHIAN, TX, 76065","Match","Non_Exact","1641 CREEK WOOD DR, MIDLOTHIAN, TX, 76065",103470251,"R"
235212,"1641 DARBYTOWN ROAD","RICHMOND","VA",23231,37.5063858600001,-77.384042522,212,"1641 DARBYTOWN ROAD, RICHMOND, VA, 23231","Match","Exact","1641 DARBYTOWN RD, RICHMOND, VA, 23231",106650788,"R"
235213,"1641 DAVIS STREET REAR","MUSKEGON","MI",49441,43.222737196,-86.2726888569999,213,"1641 DAVIS STREET REAR, MUSKEGON, MI, 49441","Match","Exact","1641 DAVIS ST, MUSKEGON, MI, 49441",77649867,"R"
235214,"1641 E 59TH STREET","KANSAS CITY","MO",64110,39.01968945,-94.56674743,214,"1641 E 59TH STREET, KANSAS CITY, MO, 64110","Match","Exact","1641 E 59TH ST, KANSAS CITY, MO, 64110",91452513,"R"
235215,"1641 E 80TH AVE N","BELLE PLAINE","KS",67013,NA,NA,215,"1641 E 80TH AVE N, BELLE PLAINE, KS, 67013","No_Match",NA,NA,NA,NA
235216,"1641 EAST 24 STREET","BROOKLYN","NY",11229,40.610469316,-73.949603114,216,"1641 EAST 24 STREET, BROOKLYN, NY, 11229","Match","Exact","1641 E 24TH ST, BROOKLYN, NY, 11229",59090159,"L"
235217,"1641 EAST 91ST PLACE","CHICAGO","IL",60617,41.7287364760001,-87.583674805,217,"1641 EAST 91ST PLACE, CHICAGO, IL, 60617","Match","Exact","1641 E 91ST PL, CHICAGO, IL, 60617",605548882,"R"
235218,"1641 EDEN PARK DRIVE APARTMENT 8","HAMILTON","OH",45013,39.432082748,-84.5947663809999,218,"1641 EDEN PARK DRIVE APARTMENT 8, HAMILTON, OH, 45013","Match","Exact","1641 EDEN PARK DR, HAMILTON, OH, 45013",640817037,"R"
235219,"1641 EDGEWOOD DRIVE","WINONA","MN",55987,44.0476028240001,-91.682058163,219,"1641 EDGEWOOD DRIVE, WINONA, MN, 55987","Match","Non_Exact","1641 EDGEWOOD RD, WINONA, MN, 55987",31671816,"L"
235220,"1641 HARPSWELL NECK RD","HARPSWELL","ME",4079,43.7565783210001,-70.012280166,220,"1641 HARPSWELL NECK RD, HARPSWELL, ME, 4079","Match","Exact","1641 HARPSWELL NECK RD, HARPSWELL, ME, 04079",635470801,"R"
235221,"1641 HARTS GRAVEL ROAD","BLUFFS","IL",62621,39.7618326800001,-90.465645152,221,"1641 HARTS GRAVEL ROAD, BLUFFS, IL, 62621","Match","Exact","1641 HARTS GRAVEL RD, BLUFFS, IL, 62621",81447096,"L"
235222,"1641 HARVARD YARD MAIL","CAMBRIDGE","MA",2138,NA,NA,222,"1641 HARVARD YARD MAIL, CAMBRIDGE, MA, 2138","No_Match",NA,NA,NA,NA
235223,"1641 HECKSCHER AVENUE","BAY SHORE","NY",11706,40.757155755,-73.2682469009999,223,"1641 HECKSCHER AVENUE, BAY SHORE, NY, 11706","Match","Exact","1641 HECKSCHER AVE, BAY SHORE, NY, 11706",113983240,"L"
235224,"1641 HEDGEROW DR","VIRGINA BEACH","VA",23455,36.8975579290001,-76.178168823,224,"1641 HEDGEROW DR, VIRGINA BEACH, VA, 23455","Match","Non_Exact","1641 HEDGEROW DR, VIRGINIA BCH, VA, 23455",122258491,"L"
235225,"1641 HIGHRIDGE CIRCLE","COLUMBIA","MO",65203,38.937152724,-92.363286318,225,"1641 HIGHRIDGE CIRCLE, COLUMBIA, MO, 65203","Match","Exact","1641 HIGHRIDGE CIR, COLUMBIA, MO, 65203",617532372,"R"
235226,"1641 HIGHWAY 104","QUINCY","IL",62305,39.9332698740001,-91.192002852,226,"1641 HIGHWAY 104, QUINCY, IL, 62305","Match","Non_Exact","1641 STATE RTE 104, QUINCY, IL, 62305",35092801,"R"
235227,"1641 HOBART STREET NW","WASHINGTON","DC",20009,38.9279081120001,-77.0383447089999,227,"1641 HOBART STREET NW, WASHINGTON, DC, 20009","Match","Exact","1641 HOBART ST NW, WASHINGTON, DC, 20009",632575807,"R"
235228,"1641 HORSESHOE RD","APPOMATTOX","VA",23960,37.3918812580001,-78.829194431,228,"1641 HORSESHOE RD, APPOMATTOX, VA, 23960","Match","Non_Exact","1641 HORSESHOE RD, APPOMATTOX, VA, 24522",197925810,"L"
235229,"1641 HORSESHOE RD","APPOMATTOX","VA",24522,37.3918812580001,-78.829194431,229,"1641 HORSESHOE RD, APPOMATTOX, VA, 24522","Match","Exact","1641 HORSESHOE RD, APPOMATTOX, VA, 24522",197925810,"L"
235230,"1641 HWY 113 NORTH","CROSSETT","AR",71646,NA,NA,230,"1641 HWY 113 NORTH, CROSSETT, AR, 71646","No_Match",NA,NA,NA,NA
235231,"1641 HWY OO","FREDERICKTOWN","MO",63645,NA,NA,231,"1641 HWY OO, FREDERICKTOWN, MO, 63645","Tie",NA,NA,NA,NA
235232,"1641 KEARNEY AVE","SIMI VALLEY","CA",93065,34.262967997,-118.76698562,232,"1641 KEARNEY AVE, SIMI VALLEY, CA, 93065","Match","Exact","1641 KEARNEY AVE, SIMI VALLEY, CA, 93065",109970779,"L"
235233,"1641 KREMER AVENUE","RACINE","WI",53402,42.779085035,-87.800768665,233,"1641 KREMER AVENUE, RACINE, WI, 53402","Match","Exact","1641 KREMER AVE, RACINE, WI, 53402",77905815,"L"
235234,"1641 LAKE ELLA DRIVE","TALLAHASSEE","FL",32303,30.4612155450001,-84.277940327,234,"1641 LAKE ELLA DRIVE, TALLAHASSEE, FL, 32303","Match","Exact","1641 LAKE ELLA DR, TALLAHASSEE, FL, 32303",82850557,"R"
235235,"1641 LAPORTE DRIVE","ROSEVILLE","CA",95747,38.771789943,-121.319789932,235,"1641 LAPORTE DRIVE, ROSEVILLE, CA, 95747","Match","Exact","1641 LAPORTE DR, ROSEVILLE, CA, 95747",106809069,"L"
235236,"1641 LEBLANC","LINCOLN PARK","MI",48146,42.226984079,-83.1878802849999,236,"1641 LEBLANC, LINCOLN PARK, MI, 48146","Match","Non_Exact","1641 LEBLANC ST, LINCOLN PARK, MI, 48146",95451437,"L"
235237,"1641 LINDEN STREET","ALLENTOWN","PA",18102,40.598157798,-75.492322802,237,"1641 LINDEN STREET, ALLENTOWN, PA, 18102","Match","Exact","1641 LINDEN ST, ALLENTOWN, PA, 18102",80769481,"R"
235238,"1641 LOOKOUT DRIVE","OXNARD","CA",93035,34.183919164,-119.212350852,238,"1641 LOOKOUT DRIVE, OXNARD, CA, 93035","Match","Exact","1641 LOOKOUT DR, OXNARD, CA, 93035",110115628,"R"
235239,"1641 LYDIA AV","ELMONT","NY",11003,40.6916000360001,-73.7007927,239,"1641 LYDIA AV, ELMONT, NY, 11003","Match","Exact","1641 LYDIA AVE, ELMONT, NY, 11003",147669256,"L"
235240,"1641 LYNDI LN","SARATOGA SPRINGS","UT",84045,40.3921845140001,-111.929749145,240,"1641 LYNDI LN, SARATOGA SPRINGS, UT, 84045","Match","Exact","1641 LYNDI LN, SARATOGA SPRINGS, UT, 84045",601208984,"R"
235241,"1641 MARLIN SPRINGS ROAD","BIRMINGHAM","AL",35215,33.6290328050001,-86.708822571,241,"1641 MARLIN SPRINGS ROAD, BIRMINGHAM, AL, 35215","Match","Exact","1641 MARLIN SPRINGS RD, BIRMINGHAM, AL, 35215",651799890,"R"
235242,"1641 MAYFAIR RD","FORT MYERS","FL",33919,NA,NA,242,"1641 MAYFAIR RD, FORT MYERS, FL, 33919","Tie",NA,NA,NA,NA
235243,"1641 MIDDLE BRIDGE ROAD","BOWLING GREEN","KY",42103,36.9439407890001,-86.389547853,243,"1641 MIDDLE BRIDGE ROAD, BOWLING GREEN, KY, 42103","Match","Exact","1641 MIDDLE BRIDGE RD, BOWLING GREEN, KY, 42103",28018816,"L"
235244,"1641 MIDDLETON STREET","ORANGEBURG","SC",29115,33.4950052340001,-80.868998887,244,"1641 MIDDLETON STREET, ORANGEBURG, SC, 29115","Match","Exact","1641 MIDDLETON ST, ORANGEBURG, SC, 29115",19217335,"L"
235245,"1641 MUNGER RD","BAY CITY","MI",48708,43.5222934170001,-83.843197752,245,"1641 MUNGER RD, BAY CITY, MI, 48708","Match","Exact","1641 MUNGER RD, BAY CITY, MI, 48708",80225625,"R"
235246,"1641 N 500 WEST","LA PORTE","IN",46350,41.632086508,-86.7967169199999,246,"1641 N 500 WEST, LA PORTE, IN, 46350","Match","Exact","1641 N 500 W, LA PORTE, IN, 46350",638498798,"R"
235247,"1641 N MEMORIAL DR APT 231","LANCASTER","OH",43130,39.7314616670001,-82.61534977,247,"1641 N MEMORIAL DR APT 231, LANCASTER, OH, 43130","Match","Non_Exact","1641 N MEMORIAL DR, LANCASTER, OH, 43130",37221958,"L"
235248,"1641 N MILWAUKEE AVE SUITE 7","LIBERTYVILLE","IL",60048,42.3028140060001,-87.9580840839999,248,"1641 N MILWAUKEE AVE SUITE 7, LIBERTYVILLE, IL, 60048","Match","Non_Exact","1641 N MILWAUKEE AVE, LIBERTYVILLE, IL, 60048",649609529,"R"
235249,"1641 N OAKLAND AVE APT 10","FAYETTEVILLE","AR",72703,36.0842199350001,-94.17297008,249,"1641 N OAKLAND AVE APT 10, FAYETTEVILLE, AR, 72703","Match","Non_Exact","1641 N OAKLAND AVE, FAYETTEVILLE, AR, 72703",49044962,"L"
235250,"1641 NIGHTFALL DR","CLERMONT","FL",34711,28.557792288,-81.726481183,250,"1641 NIGHTFALL DR, CLERMONT, FL, 34711","Match","Exact","1641 NIGHTFALL DR, CLERMONT, FL, 34711",94170504,"R"
235251,"1641 NW 29TH CT","MIAMI","FL",33125,25.7896598080001,-80.242626217,251,"1641 NW 29TH CT, MIAMI, FL, 33125","Match","Non_Exact","1641 NW 29TH CT, MIAMI, FL, 33125",116011353,"R"
235252,"1641 OAK KNOLL CIR","ATLANTA","GA",30316,NA,NA,252,"1641 OAK KNOLL CIR, ATLANTA, GA, 30316","No_Match",NA,NA,NA,NA
235253,"1641 OMAREST DR","COLUMBIA","SC",29210,34.0383464490001,-81.080556916,253,"1641 OMAREST DR, COLUMBIA, SC, 29210","Match","Exact","1641 OMAREST DR, COLUMBIA, SC, 29210",71817773,"L"
235254,"1641 PALOLO AVE","HONOLULU","HI",96816,21.292985093,-157.800982424,254,"1641 PALOLO AVE, HONOLULU, HI, 96816","Match","Exact","1641 PALOLO AVE, HONOLULU, HI, 96816",624601369,"R"
235255,"1641 PATERSON AVE","WHITING","NJ",8759,NA,NA,255,"1641 PATERSON AVE, WHITING, NJ, 8759","No_Match",NA,NA,NA,NA
235256,"1641 PICKWICK LN","GLENVIEW","IL",60026,42.0848481580001,-87.837012153,256,"1641 PICKWICK LN, GLENVIEW, IL, 60026","Match","Exact","1641 PICKWICK LN, GLENVIEW, IL, 60026",112387077,"R"
235257,"1641 REGENTS STREET","STATHAM","GA",30666,33.9426910550001,-83.589435636,257,"1641 REGENTS STREET, STATHAM, GA, 30666","Match","Exact","1641 REGENTS ST, STATHAM, GA, 30666",600585599,"L"
235258,"1641 RENSSELAER RD","TEANECK","NJ",7666,40.904508225,-73.992277305,258,"1641 RENSSELAER RD, TEANECK, NJ, 7666","Match","Exact","1641 RENSSELAER RD, TEANECK, NJ, 07666",64372750,"R"
235259,"1641 RIVERGARDEN DR","BULLHEAD CITY","CA",86442,NA,NA,259,"1641 RIVERGARDEN DR, BULLHEAD CITY, CA, 86442","No_Match",NA,NA,NA,NA
235260,"1641 RODMAN STREET","HOLLYWOOD","FL",33020,26.0014839300001,-80.139574089,260,"1641 RODMAN STREET, HOLLYWOOD, FL, 33020","Match","Exact","1641 RODMAN ST, HOLLYWOOD, FL, 33020",114732691,"R"
235261,"1641 ROSEDALE STREET NE","WASHINGTON","DC",20002,38.897404298,-76.981195585,261,"1641 ROSEDALE STREET NE, WASHINGTON, DC, 20002","Match","Exact","1641 ROSEDALE ST NE, WASHINGTON, DC, 20002",76230426,"R"
235262,"1641 ROUTE 100","BARTO","PA",19504,40.409204152,-75.580683188,262,"1641 ROUTE 100, BARTO, PA, 19504","Match","Non_Exact","1641 STATE RTE 100, BARTO, PA, 19504",80391848,"L"
235263,"1641 ROUTE 112 SUITE B","MEDFORD","NY",11763,40.797679053,-73.006046021,263,"1641 ROUTE 112 SUITE B, MEDFORD, NY, 11763","Match","Non_Exact","1641 STATE RTE 112, MEDFORD, NY, 11763",114245421,"R"
235264,"1641 ROUTE 197","WOODSTOCK","CT",6281,NA,NA,264,"1641 ROUTE 197, WOODSTOCK, CT, 6281","No_Match",NA,NA,NA,NA
235265,"1641 RUSHING RIVER ROAD","NORTH LAS VEGAS","NV",89031,36.264109627,-115.163780197,265,"1641 RUSHING RIVER ROAD, NORTH LAS VEGAS, NV, 89031","Match","Exact","1641 RUSHING RIVER RD, N LAS VEGAS, NV, 89031",201909572,"L"
235266,"1641 RUSTLING PINES BLVD","MIDWAY","FL",32343,30.5055993560001,-84.48233435,266,"1641 RUSTLING PINES BLVD, MIDWAY, FL, 32343","Match","Exact","1641 RUSTLING PINES BLVD, MIDWAY, FL, 32343",629898151,"L"
235267,"1641 S CATHAY PL","TUCSON","AZ",85748,32.202019663,-110.778901917,267,"1641 S CATHAY PL, TUCSON, AZ, 85748","Match","Exact","1641 S CATHAY PL, TUCSON, AZ, 85748",121188973,"L"
235268,"1641 S SPRINGFIELD AVENUE","CHICAGO","IL",60623,41.8576949220001,-87.72241837,268,"1641 S SPRINGFIELD AVENUE, CHICAGO, IL, 60623","Match","Exact","1641 S SPRINGFIELD AVE, CHICAGO, IL, 60623",604998948,"L"
235269,"1641 S TOWNE AVENUE","POMONA","CA",91766,34.0420442380001,-117.740840445,269,"1641 S TOWNE AVENUE, POMONA, CA, 91766","Match","Exact","1641 S TOWNE AVE, POMONA, CA, 91766",141735371,"R"
235270,"1641 SANDLE WOOD DR","WEATHERFORD","TX",76087,32.7785233430001,-97.721190131,270,"1641 SANDLE WOOD DR, WEATHERFORD, TX, 76087","Match","Exact","1641 SANDLE WOOD DR, WEATHERFORD, TX, 76087",651963228,"R"
235271,"1641 SCARLET OAK DR","JASPER","IN",47546,38.38838393,-86.962420188,271,"1641 SCARLET OAK DR, JASPER, IN, 47546","Match","Exact","1641 SCARLET OAK DR, JASPER, IN, 47546",7883500,"R"
235272,"1641 SE 51ST AVE","PORTLAND","OR",97215,45.511145071,-122.610222226,272,"1641 SE 51ST AVE, PORTLAND, OR, 97215","Match","Exact","1641 SE 51ST AVE, PORTLAND, OR, 97215",639091724,"R"
235273,"1641 SE PORT SAINT LUCIE BLVD","PORT SAINT LUCIE","FL",34952,27.271239285,-80.30175399,273,"1641 SE PORT SAINT LUCIE BLVD, PORT SAINT LUCIE, FL, 34952","Match","Exact","1641 SE PORT ST LUCIE BLVD, PORT ST LUCIE, FL, 34952",610713318,"L"
235274,"1641 SO CORNING STREET","LA","CA",90035,34.0486151440001,-118.378199115,274,"1641 SO CORNING STREET, LA, CA, 90035","Match","Exact","1641 S CORNING ST, LOS ANGELES, CA, 90035",141573126,"R"
235275,"1641 SOUTH EAST STREET","AMHERST","MA",1002,42.3221203460001,-72.4945060969999,275,"1641 SOUTH EAST STREET, AMHERST, MA, 1002","Match","Exact","1641 S EAST ST, AMHERST, MA, 01002",39859307,"R"
235276,"1641 SOUTH HILL AVENUE","FALLBROOK","CA",92028,33.3630846230001,-117.253691337,276,"1641 SOUTH HILL AVENUE, FALLBROOK, CA, 92028","Match","Exact","1641 S HILL AVE, FALLBROOK, CA, 92028",195420743,"R"
235277,"1641 SPARKLEBERRY LN","JOHNS ISLAND","SC",29455,32.748380636,-80.056411371,277,"1641 SPARKLEBERRY LN, JOHNS ISLAND, SC, 29455","Match","Exact","1641 SPARKLEBERRY LN, JOHNS ISLAND, SC, 29455",651598974,"L"
235278,"1641 SPARKLING CT","DUNEDIN","FL",34698,28.045467918,-82.761911463,278,"1641 SPARKLING CT, DUNEDIN, FL, 34698","Match","Exact","1641 SPARKLING CT, DUNEDIN, FL, 34698",639460532,"L"
235279,"1641 STANWOOD AVE","ATLANTA","GA",30317,33.752169356,-84.333611761,279,"1641 STANWOOD AVE, ATLANTA, GA, 30317","Match","Non_Exact","1641 STANWOOD AVE SE, ATLANTA, GA, 30317",23402067,"R"
235280,"1641 STONEFELD PL","PARKER","CO",80134,NA,NA,280,"1641 STONEFELD PL, PARKER, CO, 80134","No_Match",NA,NA,NA,NA
235281,"1641 SUGARPINE DRIVE","MIDDLBURG","FL",32068,30.120015596,-81.815679491,281,"1641 SUGARPINE DRIVE, MIDDLBURG, FL, 32068","Match","Non_Exact","1641 SUGARPINE DR, MIDDLEBURG, FL, 32068",83834794,"R"
235282,"1641 SUGARPINE DRIVE","MIDDLEBURG","FL",32068,30.120015596,-81.815679491,282,"1641 SUGARPINE DRIVE, MIDDLEBURG, FL, 32068","Match","Exact","1641 SUGARPINE DR, MIDDLEBURG, FL, 32068",83834794,"R"
235283,"1641 SUMMIT LAKE AVE","CRESTON","IA",50801,41.065119366,-94.394704871,283,"1641 SUMMIT LAKE AVE, CRESTON, IA, 50801","Match","Exact","1641 SUMMIT LAKE AVE, CRESTON, IA, 50801",75239158,"R"
235284,"1641 SUNSET CLIFFS BLVD APT NO 6","SAN DIEGO","CA",92107,32.7403927400001,-117.251313596,284,"1641 SUNSET CLIFFS BLVD APT NO 6, SAN DIEGO, CA, 92107","Match","Exact","1641 SUNSET CLIFFS BLVD, SAN DIEGO, CA, 92107",612882742,"R"
235285,"1641 SW PENROSE AVE","PORT SAINT LUCIE","FL",34953,27.23963881,-80.398116677,285,"1641 SW PENROSE AVE, PORT SAINT LUCIE, FL, 34953","Match","Exact","1641 SW PENROSE AVE, PORT ST LUCIE, FL, 34953",120143123,"L"
235286,"1641 SW PENROSE AVE","PORT ST LUCIE","FL",34953,27.23963881,-80.398116677,286,"1641 SW PENROSE AVE, PORT ST LUCIE, FL, 34953","Match","Exact","1641 SW PENROSE AVE, PORT ST LUCIE, FL, 34953",120143123,"L"
235287,"1641 SWALLOW WAY","HERCULES","CA",94547,38.0050383220001,-122.267181706,287,"1641 SWALLOW WAY, HERCULES, CA, 94547","Match","Exact","1641 SWALLOW WAY, HERCULES, CA, 94547",192034341,"L"
235288,"1641 SYCAMORE DRIVE","OAKLEY","CA",94561,37.9868916990001,-121.639863174,288,"1641 SYCAMORE DRIVE, OAKLEY, CA, 94561","Match","Exact","1641 SYCAMORE DR, OAKLEY, CA, 94561",629259889,"L"
235289,"1641 THIRD AVENUE STE 24H","NEW YORK","NY",10128,40.782532331,-73.9512657669999,289,"1641 THIRD AVENUE STE 24H, NEW YORK, NY, 10128","Match","Exact","1641 3RD AVE, NEW YORK, NY, 10128",59657956,"R"
235290,"1641 TIBURN DRIVE","HOLLISTER","CA",95023,36.831182036,-121.372016284,290,"1641 TIBURN DRIVE, HOLLISTER, CA, 95023","Match","Non_Exact","1641 TIBURON DR, HOLLISTER, CA, 95023",125446974,"R"
235291,"1641 TORI LANE","VINELAND","NJ",8361,39.4593311570001,-74.966194107,291,"1641 TORI LANE, VINELAND, NJ, 8361","Match","Exact","1641 TORI LN, VINELAND, NJ, 08361",174125576,"L"
235292,"1641 UPPER COVE RD","MATHIAS","WV",26812,38.8688565580001,-78.842241066,292,"1641 UPPER COVE RD, MATHIAS, WV, 26812","Match","Exact","1641 UPPER COVE RD, MATHIAS, WV, 26812",55496877,"R"
235293,"1641 VALLEY BROOK RD","MILLBROOK","AL",36054,32.4538858810001,-86.365352767,293,"1641 VALLEY BROOK RD, MILLBROOK, AL, 36054","Match","Exact","1641 VALLEY BROOK RD, MILLBROOK, AL, 36054",600653798,"R"
235294,"1641 W 99TH STREET","CHICAGO","IL",60643,41.7139348160001,-87.664197128,294,"1641 W 99TH STREET, CHICAGO, IL, 60643","Match","Exact","1641 W 99TH ST, CHICAGO, IL, 60643",111823074,"L"
235295,"1641 W BALMORAL AVE","CHICAGO","IL",60640,41.9797963410001,-87.6712387329999,295,"1641 W BALMORAL AVE, CHICAGO, IL, 60640","Match","Exact","1641 W BALMORAL AVE, CHICAGO, IL, 60640",605174561,"L"
235296,"1641 W FIREFLY","HAYSVILLE","KS",67060,37.554263866,-97.371586674,296,"1641 W FIREFLY, HAYSVILLE, KS, 67060","Match","Exact","1641 FIREFLY, HAYSVILLE, KS, 67060",115703845,"R"
235297,"1641 W MAIN ST  STE 218","ALHAMBRA","CA",91801,34.0915333410001,-118.14130015,297,"1641 W MAIN ST  STE 218, ALHAMBRA, CA, 91801","Match","Non_Exact","1641 W MAIN ST, ALHAMBRA, CA, 91801",141636244,"R"
235298,"1641 W MAIN ST STE 218","ALHAMBRA","CA",91801,34.0915333410001,-118.14130015,298,"1641 W MAIN ST STE 218, ALHAMBRA, CA, 91801","Match","Non_Exact","1641 W MAIN ST, ALHAMBRA, CA, 91801",141636244,"R"
235299,"1641 W MAIN ST SUITE 408","ALHAMBRA","CA",91801,34.0915333410001,-118.14130015,299,"1641 W MAIN ST SUITE 408, ALHAMBRA, CA, 91801","Match","Non_Exact","1641 W MAIN ST, ALHAMBRA, CA, 91801",141636244,"R"
235300,"1641 W VIRGINIA AVE NE APT 1","WASHINGTON","DC",20002,38.9090471370001,-76.987390288,300,"1641 W VIRGINIA AVE NE APT 1, WASHINGTON, DC, 20002","Match","Non_Exact","1641 WEST VIRGINIA AVE NE, WASHINGTON, DC, 20002",76230090,"R"
235301,"1641 WENONAH AVENUE","BERWYN","IL",60402,41.856834104,-87.7999979159999,301,"1641 WENONAH AVENUE, BERWYN, IL, 60402","Match","Exact","1641 WENONAH AVE, BERWYN, IL, 60402",605120923,"L"
235302,"1641 WEST 34TH STREET","RIVIERA BEACH","FL",33404,26.790421816,-80.081184245,302,"1641 WEST 34TH STREET, RIVIERA BEACH, FL, 33404","Match","Exact","1641 W 34TH ST, RIVIERA BEACH, FL, 33404",115267700,"L"
235303,"1641 WEST BLVD","BERKLEY","MI",48072,42.495509123,-83.172932593,303,"1641 WEST BLVD, BERKLEY, MI, 48072","Match","Exact","1641 WEST BLVD, BERKLEY, MI, 48072",630362145,"L"
235304,"1641 WEST MUNGER ROAD","BAY CITY","MI",48708,43.5222934170001,-83.843197752,304,"1641 WEST MUNGER ROAD, BAY CITY, MI, 48708","Match","Exact","1641 W MUNGER RD, BAY CITY, MI, 48708",80225625,"R"
235305,"1641 WEST PCH UNIT 17","WILMINGTON","CA",90744,NA,NA,305,"1641 WEST PCH UNIT 17, WILMINGTON, CA, 90744","No_Match",NA,NA,NA,NA
235306,"1641 WEST SUNSET AVE","DECATUR","IL",62522,39.8347328520001,-88.984999891,306,"1641 WEST SUNSET AVE, DECATUR, IL, 62522","Match","Exact","1641 W SUNSET AVE, DECATUR, IL, 62522",20743635,"L"
235307,"1641 WILLIAM HAPTON WAY","MT. PLEASANT","SC",29466,32.8921825140001,-79.7855020389999,307,"1641 WILLIAM HAPTON WAY, MT. PLEASANT, SC, 29466","Match","Exact","1641 WILLIAM HAPTON WAY, MOUNT PLEASANT, SC, 29466",635787914,"L"
235308,"1641 WILLOWBROOK","JENISON","MI",49428,42.923525381,-85.823058569,308,"1641 WILLOWBROOK, JENISON, MI, 49428","Match","Non_Exact","1641 WILLOWBROOK DR, JENISON, MI, 49428",71082419,"R"
235309,"1641 WOODS TRAIL","EIGHT MILE","AL",36613,30.795636874,-88.1222107299999,309,"1641 WOODS TRAIL, EIGHT MILE, AL, 36613","Match","Exact","1641 WOODS TRL, EIGHT MILE, AL, 36613",61848017,"R"
235310,"16410 84TH ST NE D116","LAKE STEVENS","WA",98258,48.0719854450001,-122.011532451,310,"16410 84TH ST NE D116, LAKE STEVENS, WA, 98258","Match","Exact","16410 84TH ST NE, LAKE STEVENS, WA, 98258",187766099,"R"
235311,"16410 BLANCO KEY","SAN ANTONIO","TX",78247,29.5842631410001,-98.403681364,311,"16410 BLANCO KEY, SAN ANTONIO, TX, 78247","Match","Exact","16410 BLANCO KY, SAN ANTONIO, TX, 78247",101577684,"R"
235312,"16410 COLTS BAY","SELMA","TX",78154,29.588544159,-98.3348147889999,312,"16410 COLTS BAY, SELMA, TX, 78154","Match","Exact","16410 COLTS BAY, SELMA, TX, 78154",617261384,"R"
235313,"16410 FERNWAY","SHAKER HTS.","OH",44120,41.4713668030001,-81.566285201,313,"16410 FERNWAY, SHAKER HTS., OH, 44120","Match","Non_Exact","16410 FERNWAY RD, SHAKER HEIGHTS, OH, 44120",61127369,"R"
235314,"16410 HARRIS AVE","BELTON","MO",64012,38.8258583670001,-94.5006600899999,314,"16410 HARRIS AVE, BELTON, MO, 64012","Match","Exact","16410 HARRIS AVE, BELTON, MO, 64012",100924672,"L"
235315,"16410 INGLEWOOD RD NE","KENMORE","WA",98028,47.747497518,-122.259139261,315,"16410 INGLEWOOD RD NE, KENMORE, WA, 98028","Match","Exact","16410 INGLEWOOD RD NE, KENMORE, WA, 98028",239770258,"R"
235316,"16410 MAHAN RD","HOUSTON","TX",77068,30.0130895880001,-95.470882626,316,"16410 MAHAN RD, HOUSTON, TX, 77068","Match","Exact","16410 MAHAN RD, HOUSTON, TX, 77068",96008840,"R"
235317,"16410 MIAMI DRIVE APT 308","NORTH MIAMI BEACH","FL",33162,25.927118095,-80.167526631,317,"16410 MIAMI DRIVE APT 308, NORTH MIAMI BEACH, FL, 33162","Match","Exact","16410 MIAMI DR, N MIAMI BEACH, FL, 33162",116056813,"R"
235318,"16410 MUIRFIELD DR","ODESSA","FL",33556,NA,NA,318,"16410 MUIRFIELD DR, ODESSA, FL, 33556","No_Match",NA,NA,NA,NA
235319,"16410 N 2ND DR","PHOENIX","AZ",85023,33.6349333800001,-112.07789344,319,"16410 N 2ND DR, PHOENIX, AZ, 85023","Match","Exact","16410 N 2ND DR, PHOENIX, AZ, 85023",646901873,"L"
235320,"16410 S HOUGHTON RD APT 7","VAIL","AZ",85641,31.957862844,-110.772678273,320,"16410 S HOUGHTON RD APT 7, VAIL, AZ, 85641","Match","Non_Exact","16410 S HOUGHTON RD, VAIL, AZ, 85641",650753943,"L"
235321,"16410 SCHOOL ST","SOUTH HOLLAND","IL",60473,41.597069768,-87.60188386,321,"16410 SCHOOL ST, SOUTH HOLLAND, IL, 60473","Match","Exact","16410 SCHOOL ST, SOUTH HOLLAND, IL, 60473",111869632,"R"
235322,"16410 STEERAGE CIRCLE","WOODBRIDGE","VA",22191,38.5964926620001,-77.2953597489999,322,"16410 STEERAGE CIRCLE, WOODBRIDGE, VA, 22191","Match","Exact","16410 STEERAGE CIR, WOODBRIDGE, VA, 22191",619941618,"R"
235323,"16410 SW 101 AVENUE","MIAMI","FL",33157,25.617098764,-80.356652401,323,"16410 SW 101 AVENUE, MIAMI, FL, 33157","Match","Exact","16410 SW 101ST AVE, MIAMI, FL, 33157",115983460,"R"
235324,"16410 WAYCREEK RD","HOUSTON","TX",77068,30.0119008360001,-95.474144311,324,"16410 WAYCREEK RD, HOUSTON, TX, 77068","Match","Exact","16410 WAYCREEK RD, HOUSTON, TX, 77068",96008757,"R"
235325,"16411 APPLEGATE DR","FONTANA","CA",92337,34.045784629,-117.446940147,325,"16411 APPLEGATE DR, FONTANA, CA, 92337","Match","Non_Exact","16411 APPLE GATE DR, FONTANA, CA, 92337",144969288,"R"
235326,"16411 CYPRESS VALLEY DR","CYPRESS","TX",77429,29.980889527,-95.6757423719999,326,"16411 CYPRESS VALLEY DR, CYPRESS, TX, 77429","Match","Exact","16411 CYPRESS VALLEY DR, CYPRESS, TX, 77429",96162174,"L"
235327,"16411 ELYSIAN LN","BOWIE","MD",20716,38.9415296620001,-76.7221636469999,327,"16411 ELYSIAN LN, BOWIE, MD, 20716","Match","Exact","16411 ELYSIAN LN, BOWIE, MD, 20716",76352773,"R"
235328,"16411 GOVERNOR BRIDGE ROAD 305","BOWIE","MD",20716,NA,NA,328,"16411 GOVERNOR BRIDGE ROAD 305, BOWIE, MD, 20716","No_Match",NA,NA,NA,NA
235329,"16411 PEMOAK DRIVE","SAN ANRTONIO","TX",78240,29.538438479,-98.6106125159999,329,"16411 PEMOAK DRIVE, SAN ANRTONIO, TX, 78240","Match","Non_Exact","16411 PEMOAK DR, SAN ANTONIO, TX, 78240",101576923,"L"
235330,"16411 QUIET CREEK COURT","CHESTERFIELD","MO",63005,38.638331475,-90.597544875,330,"16411 QUIET CREEK COURT, CHESTERFIELD, MO, 63005","Match","Exact","16411 QUIET CREEK CT, CHESTERFIELD, MO, 63005",100109887,"R"
235331,"16411 STAR CANYON COURT","CYPRESS","TX",77433,29.9984189310001,-95.672643787,331,"16411 STAR CANYON COURT, CYPRESS, TX, 77433","Match","Non_Exact","16411 STAR CANYON CT, CYPRESS, TX, 77429",627722823,"L"
235332,"16412 GLENDALE COURT","WESTFIELD","IN",46074,40.026676664,-86.105969729,332,"16412 GLENDALE COURT, WESTFIELD, IN, 46074","Match","Exact","16412 GLENDALE CT, WESTFIELD, IN, 46074",231600683,"R"
235333,"16412 NW 15TH STREET","PEMBROKE PINES","FL",33208,26.021276394,-80.3642060779999,333,"16412 NW 15TH STREET, PEMBROKE PINES, FL, 33208","Match","Non_Exact","16412 NW 15TH ST, PEMBROKE PNES, FL, 33028",114781731,"L"
235334,"16412 S IRVINGTON AVE","BIXBY","OK",74008,35.9255804110001,-95.912674023,334,"16412 S IRVINGTON AVE, BIXBY, OK, 74008","Match","Exact","16412 S IRVINGTON AVE, BIXBY, OK, 74008",166505941,"L"
235335,"16412 S WABASH","SOUTH HOLLAND","IL",60473,41.5967759490001,-87.61501085,335,"16412 S WABASH, SOUTH HOLLAND, IL, 60473","Match","Non_Exact","16412 WABASH AVE, SOUTH HOLLAND, IL, 60473",111778780,"R"
235336,"16412 STILLHOUSE HOLLOW COURT","PROSPER","TX",75078,33.238727726,-96.8503345079999,336,"16412 STILLHOUSE HOLLOW COURT, PROSPER, TX, 75078","Match","Exact","16412 STILLHOUSE HOLLOW CT, PROSPER, TX, 75078",614147542,"L"
235337,"16412 SW 101 TER","MIAMI","FL",33196,25.6717039270001,-80.46366876,337,"16412 SW 101 TER, MIAMI, FL, 33196","Match","Exact","16412 SW 101ST TER, MIAMI, FL, 33196",116090598,"L"
235338,"16413 E DINUBA AVE","REEDLEY","CA",93654,36.5899392470001,-119.494689402,338,"16413 E DINUBA AVE, REEDLEY, CA, 93654","Match","Exact","16413 E DINUBA AVE, REEDLEY, CA, 93654",197593573,"R"
235339,"16413 E POWERS AVE","CENTENNIAL","CO",80015,39.614615551,-104.7981877,339,"16413 E POWERS AVE, CENTENNIAL, CO, 80015","Match","Exact","16413 E POWERS AVE, CENTENNIAL, CO, 80015",177359468,"L"
235340,"16413 ELBERTA","CLEVELAND","OH",44128,41.434209477,-81.5658407989999,340,"16413 ELBERTA, CLEVELAND, OH, 44128","Match","Non_Exact","16413 ELBERTA AVE, CLEVELAND, OH, 44128",61127830,"L"
235341,"16413 JASPAR ST NW","RAMSEY","MN",55303,45.2723637820001,-93.444890877,341,"16413 JASPAR ST NW, RAMSEY, MN, 55303","Match","Exact","16413 JASPAR ST NW, RAMSEY, MN, 55303",642712512,"R"
235342,"16413 JASPER ST NW","RAMSEY","MN",55303,45.2723637820001,-93.444890877,342,"16413 JASPER ST NW, RAMSEY, MN, 55303","Match","Non_Exact","16413 JASPAR ST NW, RAMSEY, MN, 55303",642712512,"R"
235343,"16413 MANDERSON ST","OMAHA","NE",68116,41.2930776100001,-96.171378131,343,"16413 MANDERSON ST, OMAHA, NE, 68116","Match","Exact","16413 MANDERSON ST, OMAHA, NE, 68116",640437017,"L"
235344,"16413 SW 28 COURT","MIRAMAR","FL",33027,25.9831773220001,-80.363627483,344,"16413 SW 28 COURT, MIRAMAR, FL, 33027","Match","Exact","16413 SW 28TH CT, MIRAMAR, FL, 33027",114818938,"L"
235345,"16413 W MCKINLEY ST","GOODYEAR","AZ",85338,33.4543859720001,-112.411541799,345,"16413 W MCKINLEY ST, GOODYEAR, AZ, 85338","Match","Exact","16413 W MCKINLEY ST, GOODYEAR, AZ, 85338",128849975,"L"
235346,"16414 CORNUTA AVE UNIT 3","BELLFLOWER","CA",90700,33.884805117,-118.11979041,346,"16414 CORNUTA AVE UNIT 3, BELLFLOWER, CA, 90700","Match","Non_Exact","16414 CORNUTA AVE, BELLFLOWER, CA, 90706",142794795,"L"
235347,"16414 LAKE CHURCH DR","ODESSA","FL",33556,28.1065059950001,-82.59623076,347,"16414 LAKE CHURCH DR, ODESSA, FL, 33556","Match","Exact","16414 LAKE CHURCH DR, ODESSA, FL, 33556",653170251,"L"
235348,"16414 NE 244TH ST","BATTLE GROUND","WA",98604,45.7993168770001,-122.502129959,348,"16414 NE 244TH ST, BATTLE GROUND, WA, 98604","Match","Exact","16414 NE 244TH ST, BATTLE GROUND, WA, 98604",158350503,"R"
235349,"16414 QUAIL MEADOW CT","MISSOURI CITY","TX",77489,29.5874524720001,-95.5115808529999,349,"16414 QUAIL MEADOW CT, MISSOURI CITY, TX, 77489","Match","Exact","16414 QUAIL MEADOW CT, MISSOURI CITY, TX, 77489",78283532,"L"
235350,"16414 SOUTH LOTUS DRIVE","CLEVELAND","OH",44128,41.445243243,-81.565796973,350,"16414 SOUTH LOTUS DRIVE, CLEVELAND, OH, 44128","Match","Exact","16414 S LOTUS DR, CLEVELAND, OH, 44128",61127799,"R"
235351,"16415 29TH PL SW","BURIEN","WA",98166,47.4553484400001,-122.369742167,351,"16415 29TH PL SW, BURIEN, WA, 98166","Match","Exact","16415 29TH PL SW, BURIEN, WA, 98166",186717000,"R"
235352,"16415 ADDISON RD STE 550","ADDISON","TX",75001,32.973378102,-96.8303455129999,352,"16415 ADDISON RD STE 550, ADDISON, TX, 75001","Match","Exact","16415 ADDISON RD, ADDISON, TX, 75001",102999932,"L"
235353,"16415 BORIO DR","CREST HILL","IL",60403,41.585782081,-88.115818116,353,"16415 BORIO DR, CREST HILL, IL, 60403","Match","Exact","16415 BORIO DR, CREST HILL, IL, 60403",111633993,"L"
235354,"16415 CALLAHAN RD","RENO","NV",89511,39.355211281,-119.816717071,354,"16415 CALLAHAN RD, RENO, NV, 89511","Match","Exact","16415 CALLAHAN RD, RENO, NV, 89511",629045212,"L"
235355,"16415 COMUS ROAD","CLARKSBURG","MD",20871,NA,NA,355,"16415 COMUS ROAD, CLARKSBURG, MD, 20871","No_Match",NA,NA,NA,NA
235356,"16415 EGO","EASTPOINTE","MI",48021,42.4529132280001,-82.95238475,356,"16415 EGO, EASTPOINTE, MI, 48021","Match","Non_Exact","16415 EGO AVE, EASTPOINTE, MI, 48021",110679500,"L"
235357,"16415 GOVERNOR BRIDGE RD APT 304","BOWIE","MD",20716,NA,NA,357,"16415 GOVERNOR BRIDGE RD APT 304, BOWIE, MD, 20716","No_Match",NA,NA,NA,NA
235358,"16415 KETTLEBROOK LN","HOUSTON","TX",77049,29.810124499,-95.138152989,358,"16415 KETTLEBROOK LN, HOUSTON, TX, 77049","Match","Exact","16415 KETTLEBROOK LN, HOUSTON, TX, 77049",633576272,"L"
235359,"16415 NE 13TH STREET","BELLEVUE","WA",98008,47.620877191,-122.120576163,359,"16415 NE 13TH STREET, BELLEVUE, WA, 98008","Match","Non_Exact","16415 NE 13TH ST, BELLEVUE, WA, 98008",186611787,"R"
235360,"16415 NE 148TH STREET","WOODINVILLE","WA",98072,47.73470286,-122.120410139,360,"16415 NE 148TH STREET, WOODINVILLE, WA, 98072","Match","Exact","16415 NE 148TH ST, WOODINVILLE, WA, 98072",186932156,"R"
235361,"16415 NE 68TH ST","VANCOUVER","WA",98682,45.6726222080001,-122.502563932,361,"16415 NE 68TH ST, VANCOUVER, WA, 98682","Match","Exact","16415 NE 68TH ST, VANCOUVER, WA, 98682",636886039,"R"
235362,"16415 STEWART AVE","ORLAND PARK","IL",60467,41.5912061180001,-87.8851354669999,362,"16415 STEWART AVE, ORLAND PARK, IL, 60467","Match","Exact","16415 STUART AVE, ORLAND PARK, IL, 60467",639815287,"L"
235363,"16416  NE 22ND STREET","VANCOUVER WA","WA",98684,45.6387084830001,-122.503085473,363,"16416  NE 22ND STREET, VANCOUVER WA, WA, 98684","Match","Non_Exact","16416 NE 22ND ST, VANCOUVER, WA, 98684",158360838,"L"
235364,"16416  NE 22ND STREET","VANCOUVER","WA",98684,45.6387084830001,-122.503085473,364,"16416  NE 22ND STREET, VANCOUVER, WA, 98684","Match","Exact","16416 NE 22ND ST, VANCOUVER, WA, 98684",158360838,"L"
235365,"16416 3RD DR SE","BOTHELL","WA",98012,47.8485461990001,-122.227001243,365,"16416 3RD DR SE, BOTHELL, WA, 98012","Match","Exact","16416 3RD DR SE, BOTHELL, WA, 98012",187759500,"L"
235366,"16416 CHERRY CREST CIRCLE","CERRITOS","CA",90703,33.8820018810001,-118.069613931,366,"16416 CHERRY CREST CIRCLE, CERRITOS, CA, 90703","Match","Exact","16416 CHERRY CREST CIR, CERRITOS, CA, 90703",141744075,"L"
235367,"16416 E GLENVIEW PL","FOUNTAIN HILLS","AZ",85268,NA,NA,367,"16416 E GLENVIEW PL, FOUNTAIN HILLS, AZ, 85268","No_Match",NA,NA,NA,NA
235368,"16416 LASSEN STREET","NORTH HILLS","CA",91343,34.2501773270001,-118.489800683,368,"16416 LASSEN STREET, NORTH HILLS, CA, 91343","Match","Exact","16416 LASSEN ST, NORTH HILLS, CA, 91343",141544443,"L"
235369,"16416 PALOMINO PLACE APT 204","CANYON COUNTRY","CA",91387,34.4336971430001,-118.42225693,369,"16416 PALOMINO PLACE APT 204, CANYON COUNTRY, CA, 91387","Match","Exact","16416 PALOMINO PL, CANYON COUNTRY, CA, 91387",141834186,"L"
235370,"16417 262ND ROAD","ATCHISON","KS",66002,39.5207830410001,-95.182879417,370,"16417 262ND ROAD, ATCHISON, KS, 66002","Match","Exact","16417 262ND RD, ATCHISON, KS, 66002",10066699,"L"
235371,"16417 AP TUBBS RD","SOUTH PRAIRIE","WA",98321,NA,NA,371,"16417 AP TUBBS RD, SOUTH PRAIRIE, WA, 98321","No_Match",NA,NA,NA,NA
235372,"16417 CR 325","BUENA VISTA","CO",81211,38.7522977020001,-106.171027939,372,"16417 CR 325, BUENA VISTA, CO, 81211","Match","Exact","16417 CO RD 325, BUENA VISTA, CO, 81211",627317587,"R"
235373,"16417 DEBRA LN","CERRITOS","CA",90703,33.8814907340001,-118.101257532,373,"16417 DEBRA LN, CERRITOS, CA, 90703","Match","Exact","16417 DEBRA LN, CERRITOS, CA, 90703",141742851,"L"
235374,"164176","FORT WORTH","TX",76161,NA,NA,374,"164176, FORT WORTH, TX, 76161","No_Match",NA,NA,NA,NA
235375,"16418 BAMBOO STREET","LA PUENTE","CA",91744,34.0157743010001,-117.942238329,375,"16418 BAMBOO STREET, LA PUENTE, CA, 91744","Match","Exact","16418 BAMBOO ST, LA PUENTE, CA, 91744",142781682,"R"
235376,"16418 BULLOCK RD","WOODFORD","VA",22580,NA,NA,376,"16418 BULLOCK RD, WOODFORD, VA, 22580","No_Match",NA,NA,NA,NA
235377,"16418 EVANS ST","SOUTH HOLLAND","IL",60473,41.596317356,-87.6006087109999,377,"16418 EVANS ST, SOUTH HOLLAND, IL, 60473","Match","Non_Exact","16418 EVANS AVE, SOUTH HOLLAND, IL, 60473",111869635,"R"
235378,"16418 HIDDEN MEADOW LANE","HAMILTON","VA",20158,39.1657442590001,-77.649639198,378,"16418 HIDDEN MEADOW LANE, HAMILTON, VA, 20158","Match","Exact","16418 HIDDEN MEADOW LN, HAMILTON, VA, 20158",62350833,"L"
235379,"16418 LAKESTONE DR","TOMBALL","TX",77377,30.0095856500001,-95.609225311,379,"16418 LAKESTONE DR, TOMBALL, TX, 77377","Match","Exact","16418 LAKESTONE DR, TOMBALL, TX, 77377",96002791,"R"
235380,"16418 LAMBOURNE RD","MIDLOTHIAN","VA",23112,37.475413114,-77.7163920679999,380,"16418 LAMBOURNE RD, MIDLOTHIAN, VA, 23112","Match","Exact","16418 LAMBOURNE RD, MIDLOTHIAN, VA, 23112",642995477,"R"
235381,"16418 N COBBLESTONE LANE","FOUNTAIN HILLS","AZ",85268,33.635815452,-111.740832714,381,"16418 N COBBLESTONE LANE, FOUNTAIN HILLS, AZ, 85268","Match","Exact","16418 N COBBLESTONE LN, FOUNTAIN HILLS, AZ, 85268",128190440,"L"
235382,"16418 N TAMARAC LN","NINE MILE FALLS","WA",99026,47.80714758,-117.581110985,382,"16418 N TAMARAC LN, NINE MILE FALLS, WA, 99026","Match","Exact","16418 N TAMARAC LN, NINE MILE FALLS, WA, 99026",174852958,"L"
235383,"16418 PATRICIA WAY","GRASS VALLEY","CA",95949,39.1072596130001,-121.063346259,383,"16418 PATRICIA WAY, GRASS VALLEY, CA, 95949","Match","Exact","16418 PATRICIA WAY, GRASS VALLEY, CA, 95949",106538858,"R"
235384,"16418 TAUTON VALE ROAD","LOUISVILLE","KY",40245,38.262109163,-85.447587964,384,"16418 TAUTON VALE ROAD, LOUISVILLE, KY, 40245","Match","Non_Exact","16418 TAUNTON VALE RD, LOUISVILLE, KY, 40245",618512069,"L"
235385,"16418 W ASH LANE","LOCKPORT","IL",60441,NA,NA,385,"16418 W ASH LANE, LOCKPORT, IL, 60441","Tie",NA,NA,NA,NA
235386,"16419 28TH DR SE","BOTHELL","WA",98012,47.8488429780001,-122.194317632,386,"16419 28TH DR SE, BOTHELL, WA, 98012","Match","Exact","16419 28TH DR SE, BOTHELL, WA, 98012",187761030,"R"
235387,"16419 CANBERRA COURT","HACIENDA HEIGHTS","CA",91745,33.983203686,-117.95216593,387,"16419 CANBERRA COURT, HACIENDA HEIGHTS, CA, 91745","Match","Exact","16419 CANBERRA CT, HACIENDA HTS, CA, 91745",141756441,"L"
235388,"16419 N ELDRIDGE PKWY UNIT B","TOMBALL","TX",77377,NA,NA,388,"16419 N ELDRIDGE PKWY UNIT B, TOMBALL, TX, 77377","No_Match",NA,NA,NA,NA
235389,"16419 RED OAK DRIVE","MISSOURI CITY","TX",77489,29.633067877,-95.536575392,389,"16419 RED OAK DRIVE, MISSOURI CITY, TX, 77489","Match","Exact","16419 RED OAK DR, MISSOURI CITY, TX, 77489",96352393,"R"
235390,"16419 SE 260TH ST","COVINGTON","WA",98042,47.3685585090001,-122.122204435,390,"16419 SE 260TH ST, COVINGTON, WA, 98042","Match","Exact","16419 SE 260TH ST, COVINGTON, WA, 98042",628023792,"R"
235391,"16419 SPRUCE WAY","LYNNWOOD","WA",98037,47.8498961620001,-122.284726476,391,"16419 SPRUCE WAY, LYNNWOOD, WA, 98037","Match","Exact","16419 SPRUCE WAY, LYNNWOOD, WA, 98037",608929253,"L"
235392,"1642 11TH ST","CUYAHOGA FALLS","OH",44221,41.127871005,-81.496550745,392,"1642 11TH ST, CUYAHOGA FALLS, OH, 44221","Match","Exact","1642 11TH ST, CUYAHOGA FALLS, OH, 44221",633566117,"L"
235393,"1642 16TH STREET SE","WASHINGTON","DC",20020,38.870180765,-76.982213106,393,"1642 16TH STREET SE, WASHINGTON, DC, 20020","Match","Exact","1642 16TH ST SE, WASHINGTON, DC, 20020",76231135,"L"
235394,"1642 2ND STREET","LUBBOCK","TX",79416,33.5960168620001,-101.853730077,394,"1642 2ND STREET, LUBBOCK, TX, 79416","Match","Non_Exact","1642 2ND ST, LUBBOCK, TX, 79401",185247362,"R"
235395,"1642 42ND AVE","SAN FRANCISCO","CA",94122,37.7560572130001,-122.50130858,395,"1642 42ND AVE, SAN FRANCISCO, CA, 94122","Match","Exact","1642 42ND AVE, SAN FRANCISCO, CA, 94122",192276982,"L"
235396,"1642 AMANDA CT","STOCKTON","CA",95209,38.0343035110001,-121.332834875,396,"1642 AMANDA CT, STOCKTON, CA, 95209","Match","Exact","1642 AMANDA CT, STOCKTON, CA, 95209",133867572,"L"
235397,"1642 ANDREW ST","UNION","NJ",7083,40.7130395880001,-74.262503113,397,"1642 ANDREW ST, UNION, NJ, 7083","Match","Exact","1642 ANDREW ST, UNION, NJ, 07083",60571325,"L"
235398,"1642 BAKER STREET","COSTA MESA","CA",92626,33.6808473180001,-117.924372578,398,"1642 BAKER STREET, COSTA MESA, CA, 92626","Match","Exact","1642 BAKER ST, COSTA MESA, CA, 92626",144045857,"R"
235399,"1642 BARNHART RD","COLUMBIA","SC",29204,34.0520439790001,-80.988686903,399,"1642 BARNHART RD, COLUMBIA, SC, 29204","Match","Exact","1642 BARNHART RD, COLUMBIA, SC, 29204",71822983,"R"
235400,"1642 BURLINGAME AVE SW","WYOMING","MI",49509,42.934251126,-85.706203167,400,"1642 BURLINGAME AVE SW, WYOMING, MI, 49509","Match","Exact","1642 BURLINGAME AVE SW, WYOMING, MI, 49509",652807579,"L"
235401,"1642 CANYON OAKS CIRCLE","BOUNTIFUL","UT",84010,40.872824189,-111.854050405,401,"1642 CANYON OAKS CIRCLE, BOUNTIFUL, UT, 84010","Match","Exact","1642 CANYON OAKS CIR, BOUNTIFUL, UT, 84010",155325327,"L"
235402,"1642 CARA LOOP","ANCHORAGE","AK",99515,61.101772021,-149.850831126,402,"1642 CARA LOOP, ANCHORAGE, AK, 99515","Match","Exact","1642 CARA LOOP, ANCHORAGE, AK, 99515",190801046,"R"
235403,"1642 DILLON RD","MAPLE GLEN","PA",19002,40.1645495160001,-75.174356473,403,"1642 DILLON RD, MAPLE GLEN, PA, 19002","Match","Exact","1642 DILLON RD, MAPLE GLEN, PA, 19002",135078673,"L"
235404,"1642 DOWNS DRIVE","CALUMET CITY","IL",60409,41.6318265940001,-87.565951962,404,"1642 DOWNS DRIVE, CALUMET CITY, IL, 60409","Match","Exact","1642 DOWNS DR, CALUMET CITY, IL, 60409",605715254,"R"
235405,"1642 E 218 ST","CARSON","CA",90745,33.830046442,-118.243189638,405,"1642 E 218 ST, CARSON, CA, 90745","Match","Exact","1642 E 218TH ST, CARSON, CA, 90745",142697802,"R"
235406,"1642 E 218 STREET","CARSON","CA",90745,33.830046442,-118.243189638,406,"1642 E 218 STREET, CARSON, CA, 90745","Match","Exact","1642 E 218TH ST, CARSON, CA, 90745",142697802,"R"
235407,"1642 E CULVER B","Phoenix","AZ",85006,NA,NA,407,"1642 E CULVER B, Phoenix, AZ, 85006","No_Match",NA,NA,NA,NA
235408,"1642 E CULVER","PHOENIX","AZ",85006,33.462814044,-112.04671202,408,"1642 E CULVER, PHOENIX, AZ, 85006","Match","Non_Exact","1642 E CULVER ST, PHOENIX, AZ, 85006",128349253,"L"
235409,"1642 EAGLES WATCH WAY","TALLAHASSEE","FL",32312,30.596111288,-84.245478674,409,"1642 EAGLES WATCH WAY, TALLAHASSEE, FL, 32312","Match","Exact","1642 EAGLES WATCH WAY, TALLAHASSEE, FL, 32312",653174362,"L"
235410,"1642 EAST 10TH STREET","BROOKLYN","NY",11223,40.608933888,-73.963199324,410,"1642 EAST 10TH STREET, BROOKLYN, NY, 11223","Match","Exact","1642 E 10TH ST, BROOKLYN, NY, 11223",642653845,"R"
235411,"1642 EAST 13TH STREET","BROOKLYN","NY",11229,40.6092470990001,-73.960271193,411,"1642 EAST 13TH STREET, BROOKLYN, NY, 11229","Match","Exact","1642 E 13TH ST, BROOKLYN, NY, 11229",59089871,"R"
235412,"1642 EAST SAHUARO BLOSSOM PLACE","TUCSON","AZ",85718,32.349130422,-110.947305423,412,"1642 EAST SAHUARO BLOSSOM PLACE, TUCSON, AZ, 85718","Match","Exact","1642 E SAHUARO BLOSSOM PL, TUCSON, AZ, 85718",618219876,"R"
235413,"1642 ELM STREET","YOUNGSTOWN","OH",44505,41.1218817760001,-80.645356546,413,"1642 ELM STREET, YOUNGSTOWN, OH, 44505","Match","Exact","1642 ELM ST, YOUNGSTOWN, OH, 44505",64609305,"L"
235414,"1642 FORGE POND ROAD","BRICK","NJ",8724,40.074384933,-74.139420311,414,"1642 FORGE POND ROAD, BRICK, NJ, 8724","Match","Exact","1642 FORGE POND RD, BRICK, NJ, 08724",203794158,"L"
235415,"1642 FORT UNION BLVD","COTTONWOOD HEIGHTS","UT",84121,40.6252380720001,-111.844955298,415,"1642 FORT UNION BLVD, COTTONWOOD HEIGHTS, UT, 84121","Match","Exact","1642 FORT UNION BLVD, COTTONWOOD HEIGHTS, UT, 84121",641067621,"R"
235416,"1642 FRANKLIN AVE","COLUMBUS","OH",43205,39.9612709640001,-82.955945561,416,"1642 FRANKLIN AVE, COLUMBUS, OH, 43205","Match","Exact","1642 FRANKLIN AVE, COLUMBUS, OH, 43205",218680236,"L"
235417,"1642 FURNACE DRIVE","GLEN BURNIE","MD",21060,39.182138895,-76.5874458389999,417,"1642 FURNACE DRIVE, GLEN BURNIE, MD, 21060","Match","Exact","1642 FURNACE DR, GLEN BURNIE, MD, 21060",68207986,"L"
235418,"1642 GARDEN VALLEY DR","WILDWOOD","MO",63038,38.612142459,-90.648272971,418,"1642 GARDEN VALLEY DR, WILDWOOD, MO, 63038","Match","Exact","1642 GARDEN VALLEY DR, WILDWOOD, MO, 63038",100189000,"R"
235419,"1642 GREAT HIGHWAY","SAN FRANCISCO","CA",94122,37.755734402,-122.5087954,419,"1642 GREAT HIGHWAY, SAN FRANCISCO, CA, 94122","Match","Exact","1642 GREAT HWY, SAN FRANCISCO, CA, 94122",192276906,"L"
235420,"1642 HIGHLAND LANE","ANDOVER","KS",67002,37.678689709,-97.1179181259999,420,"1642 HIGHLAND LANE, ANDOVER, KS, 67002","Match","Exact","1642 HIGHLAND LN, ANDOVER, KS, 67002",32285732,"L"
235421,"1642 IRVING STREET","WASHINGTON","DC",20010,38.928769753,-77.0383357969999,421,"1642 IRVING STREET, WASHINGTON, DC, 20010","Match","Non_Exact","1642 IRVING ST NW, WASHINGTON, DC, 20010",76222899,"L"
235422,"1642 JOHNSON ROAD","ATLANTA","GA",30306,33.7859813800001,-84.440006941,422,"1642 JOHNSON ROAD, ATLANTA, GA, 30306","Match","Non_Exact","1642 JOHNSON RD, ATLANTA, GA, 30318",640546846,"L"
235423,"1642 KENDRICK DR APARTMENT H","KISSIMMEE","FL",34741,28.3226303930001,-81.4226808669999,423,"1642 KENDRICK DR APARTMENT H, KISSIMMEE, FL, 34741","Match","Exact","1642 KENDRICK DR, KISSIMMEE, FL, 34741",176701014,"R"
235424,"1642 KENWELL","SAN DIEGO","CA",92139,32.686643971,-117.065319947,424,"1642 KENWELL, SAN DIEGO, CA, 92139","Match","Non_Exact","1642 KENWELL ST, SAN DIEGO, CA, 92139",195676021,"R"
235425,"1642 MAIN STREET STE 1","ATCHISON","KS",66002,39.560953657,-95.140804707,425,"1642 MAIN STREET STE 1, ATCHISON, KS, 66002","Match","Exact","1642 MAIN ST, ATCHISON, KS, 66002",10061136,"L"
235426,"1642 MATSON DR","SAN JOSE","CA",95124,37.2654271110001,-121.905423035,426,"1642 MATSON DR, SAN JOSE, CA, 95124","Match","Exact","1642 MATSON DR, SAN JOSE, CA, 95124",122999302,"L"
235427,"1642 MCCULLOCH BLVD N 185","LAKE HAVASU CITY","AZ",86403,34.4703389200001,-114.349299071,427,"1642 MCCULLOCH BLVD N 185, LAKE HAVASU CITY, AZ, 86403","Match","Exact","1642 MCCULLOCH BLVD N, LAKE HAVASU CITY, AZ, 86403",190282447,"R"
235428,"1642 MORTON STREET","LINCOLN","NE",68521,40.864094267,-96.6955777759999,428,"1642 MORTON STREET, LINCOLN, NE, 68521","Match","Exact","1642 MORTON ST, LINCOLN, NE, 68521",28298182,"L"
235429,"1642 MURPHY PARKWAY","EAGAN","MN",55122,44.812386986,-93.183819225,429,"1642 MURPHY PARKWAY, EAGAN, MN, 55122","Match","Exact","1642 MURPHY PKWY, EAGAN, MN, 55122",37934254,"R"
235430,"1642 N 16TH ST","MILWAUKEE","WI",53205,43.0518940680001,-87.9328071899999,430,"1642 N 16TH ST, MILWAUKEE, WI, 53205","Match","Exact","1642 N 16TH ST, MILWAUKEE, WI, 53205",77741053,"R"
235431,"1642 N 21 S HIGHWAY 281","HOISINGTON","KS",67544,NA,NA,431,"1642 N 21 S HIGHWAY 281, HOISINGTON, KS, 67544","No_Match",NA,NA,NA,NA
235432,"1642 N CENTRAL AVE","CHICAGO","IL",60639,41.91047353,-87.765550197,432,"1642 N CENTRAL AVE, CHICAGO, IL, 60639","Match","Exact","1642 N CENTRAL AVE, CHICAGO, IL, 60639",605039759,"L"
235433,"1642 N NASHVILLE AVE","CHICAGO","PA",60707,NA,NA,433,"1642 N NASHVILLE AVE, CHICAGO, PA, 60707","No_Match",NA,NA,NA,NA
235434,"1642 NE 147 STREET","MIAMI","FL",33181,25.911077452,-80.1666253939999,434,"1642 NE 147 STREET, MIAMI, FL, 33181","Match","Exact","1642 NE 147TH ST, MIAMI, FL, 33181",116036437,"R"
235435,"1642 NE 63RD AVE","HILLSBORO","OR",97124,45.5363555010001,-122.915417969,435,"1642 NE 63RD AVE, HILLSBORO, OR, 97124","Match","Exact","1642 NE 63RD AVE, HILLSBORO, OR, 97124",158228258,"L"
235436,"1642 NEW HIGHWAY 52 E","WESTMORELAND","TN",37186,36.5646351820001,-86.2728096119999,436,"1642 NEW HIGHWAY 52 E, WESTMORELAND, TN, 37186","Match","Exact","1642 NEW HIGHWAY 52 E, WESTMORELAND, TN, 37186",648053803,"R"
235437,"1642 NORTH PENNINGTON DR","CHANDLER","AZ",85224,33.329594145,-111.871276371,437,"1642 NORTH PENNINGTON DR, CHANDLER, AZ, 85224","Match","Exact","1642 N PENNINGTON DR, CHANDLER, AZ, 85224",128271943,"R"
235438,"1642 NORTH VINE STREET","CHICAGO","IL",60614,41.9117362310001,-87.6443847529999,438,"1642 NORTH VINE STREET, CHICAGO, IL, 60614","Match","Exact","1642 N VINE ST, CHICAGO, IL, 60614",111767229,"L"
235439,"1642 NW 11 AVE","FT LAUDERDALE","FL",33311,26.148088547,-80.155991483,439,"1642 NW 11 AVE, FT LAUDERDALE, FL, 33311","Match","Exact","1642 NW 11TH AVE, FORT LAUDERDALE, FL, 33311",114720566,"R"
235440,"1642 OAK PARK LANE","HELENA","AL",35080,33.298986943,-86.909172444,440,"1642 OAK PARK LANE, HELENA, AL, 35080","Match","Exact","1642 OAK PARK LN, HELENA, AL, 35080",221555711,"R"
235441,"1642 OAKHURST ROAD","ALBERT LEA","MN",56007,43.659562925,-93.3907829999999,441,"1642 OAKHURST ROAD, ALBERT LEA, MN, 56007","Match","Exact","1642 OAKHURST RD, ALBERT LEA, MN, 56007",639954635,"L"
235442,"1642 OLD SILO HILL ROAD","MT.STERLING","KY",40353,38.07841654,-83.9576529679999,442,"1642 OLD SILO HILL ROAD, MT.STERLING, KY, 40353","Match","Non_Exact","1642 OLD SILO HILL, MT STERLING, KY, 40353",627849359,"R"
235443,"1642 OXFORD ROAD","LAWRENCE","KS",66044,38.962502638,-95.25608046,443,"1642 OXFORD ROAD, LAWRENCE, KS, 66044","Match","Exact","1642 OXFORD RD, LAWRENCE, KS, 66044",639138699,"R"
235444,"1642 PARK HILL DRIVE","GAINESVILLE","GA",30501,34.3253392890001,-83.815456553,444,"1642 PARK HILL DRIVE, GAINESVILLE, GA, 30501","Match","Exact","1642 PARK HILL DR, GAINESVILLE, GA, 30501",601603213,"R"
235445,"1642 PINE PLACE","CLEARWATER","FL",33755,27.995517669,-82.7696249639999,445,"1642 PINE PLACE, CLEARWATER, FL, 33755","Match","Exact","1642 PINE PL, CLEARWATER, FL, 33755",124667628,"R"
235446,"1642 PINON GLEN","COLORADO SPRINGS","CO",80919,38.905408955,-104.855065673,446,"1642 PINON GLEN, COLORADO SPRINGS, CO, 80919","Match","Non_Exact","1642 PINON GLEN CIR, COLORADO SPRINGS, CO, 80919",105568169,"L"
235447,"1642 POES STREET","ANAHEIM","CA",92804,NA,NA,447,"1642 POES STREET, ANAHEIM, CA, 92804","No_Match",NA,NA,NA,NA
235448,"1642 PRESIDENT ST","BROOKLYN","NY",11213,40.667114014,-73.9331314249999,448,"1642 PRESIDENT ST, BROOKLYN, NY, 11213","Match","Exact","1642 PRESIDENT ST, BROOKLYN, NY, 11213",59079780,"R"
235449,"1642 PRESIDENT STREET","BROOKLYN","NY",11213,40.667114014,-73.9331314249999,449,"1642 PRESIDENT STREET, BROOKLYN, NY, 11213","Match","Exact","1642 PRESIDENT ST, BROOKLYN, NY, 11213",59079780,"R"
235450,"1642 PROSPECT ST","BELMONT","CA",94002,37.511616915,-122.272258561,450,"1642 PROSPECT ST, BELMONT, CA, 94002","Match","Exact","1642 PROSPECT ST, BELMONT, CA, 94002",631729069,"R"
235451,"1642 R STREET NW","WASHINGTON","DC",20009,38.912604872,-77.037379433,451,"1642 R STREET NW, WASHINGTON, DC, 20009","Match","Exact","1642 R ST NW, WASHINGTON, DC, 20009",76223113,"L"
235452,"1642 RIVER OAKS DRIVE","JACKSONS GAP","AL",36861,32.8691927090001,-85.892551726,452,"1642 RIVER OAKS DRIVE, JACKSONS GAP, AL, 36861","Match","Exact","1642 RIVER OAKS DR, JACKSONS GAP, AL, 36861",1694952,"L"
235453,"1642 S 61ST AVE","CICERO","IL",60302,41.857439856,-87.776368609,453,"1642 S 61ST AVE, CICERO, IL, 60302","Match","Non_Exact","1642 S 61ST AVE, CICERO, IL, 60804",111794993,"R"
235454,"1642 S SEDGEWICK ST","WICHITA","KS",67213,37.665099706,-97.369813563,454,"1642 S SEDGEWICK ST, WICHITA, KS, 67213","Match","Non_Exact","1642 S SEDGWICK ST, WICHITA, KS, 67213",115643725,"L"
235455,"1642 S US HIGHWAY 1","OAK HILL","FL",32759,28.7932963330001,-80.882215329,455,"1642 S US HIGHWAY 1, OAK HILL, FL, 32759","Match","Exact","1642 US HWY 1, OAK HILL, FL, 32759",94514778,"L"
235456,"1642 SMOKEHOUSE DRIVE","CORDOVA","TN",38016,35.1700879040001,-89.78876952,456,"1642 SMOKEHOUSE DRIVE, CORDOVA, TN, 38016","Match","Exact","1642 SMOKEHOUSE DR, CORDOVA, TN, 38016",72945573,"L"
235457,"1642 SOMERSET DRIVE","MOUNT PLEASANT","MI",48858,43.5875799770001,-84.755474076,457,"1642 SOMERSET DRIVE, MOUNT PLEASANT, MI, 48858","Match","Exact","1642 SOMERSET DR, MOUNT PLEASANT, MI, 48858",110223984,"R"
235458,"1642 SOUTH OGDEN DRIVE","LOS ANGELES","CA",90019,34.0463414180001,-118.365792056,458,"1642 SOUTH OGDEN DRIVE, LOS ANGELES, CA, 90019","Match","Exact","1642 S OGDEN DR, LOS ANGELES, CA, 90019",141600684,"L"
235459,"1642 SPAINHOUR MILL ROAD","PINNACLE","NC",27043,36.2651352130001,-80.4452158669999,459,"1642 SPAINHOUR MILL ROAD, PINNACLE, NC, 27043","Match","Exact","1642 SPAINHOUR MILL RD, PINNACLE, NC, 27043",56340094,"L"
235460,"1642 STAR BRIGHT DR","CHEYENNE","WY",82009,41.236613226,-105.001085327,460,"1642 STAR BRIGHT DR, CHEYENNE, WY, 82009","Match","Exact","1642 STAR BRIGHT DR, CHEYENNE, WY, 82009",632578002,"L"
235461,"1642 STATE HIGHWAY 78","JACKSONVILLE","IL",62650,39.7619062250001,-90.229077046,461,"1642 STATE HIGHWAY 78, JACKSONVILLE, IL, 62650","Match","Non_Exact","1642 STATE HWY 78 N, JACKSONVILLE, IL, 62650",81429815,"R"
235462,"1642 STONEGATE WAY","SNELLVILLE","GA",30078,33.8715471140001,-84.034082552,462,"1642 STONEGATE WAY, SNELLVILLE, GA, 30078","Match","Non_Exact","1642 STONEGATE WAY SW, SNELLVILLE, GA, 30078",88919878,"R"
235463,"1642 STRAYFOX CROSSING","EDMOND","OK",73012,35.69406537,-97.542083406,463,"1642 STRAYFOX CROSSING, EDMOND, OK, 73012","Match","Exact","1642 STRAYFOX CROSSING, EDMOND, OK, 73012",617274486,"R"
235464,"1642 SUMMER RUN DR UNIT 12","FLORISSAN","MO",63033,38.7730418240001,-90.2933234659999,464,"1642 SUMMER RUN DR UNIT 12, FLORISSAN, MO, 63033","Match","Non_Exact","1642 SUMMER RUN DR, FLORISSANT, MO, 63033",635054162,"R"
235465,"1642 SW 18TH AVENUE","MIAMI","FL",33145,25.75733926,-80.224293648,465,"1642 SW 18TH AVENUE, MIAMI, FL, 33145","Match","Exact","1642 SW 18TH AVE, MIAMI, FL, 33145",116016605,"R"
235466,"1642 SW FILBERT LN","DALLAS","OR",97338,44.9284254940001,-123.341627577,466,"1642 SW FILBERT LN, DALLAS, OR, 97338","Match","Exact","1642 FILBERT LN, DALLAS, OR, 97338",155786217,"R"
235467,"1642 SW TAMARACK ST","MCMINNVILLE","OR",97128,45.2043838160001,-123.22034301,467,"1642 SW TAMARACK ST, MCMINNVILLE, OR, 97128","Match","Exact","1642 SW TAMARACK ST, MCMINNVILLE, OR, 97128",156508386,"L"
235468,"1642 TASSEL FERN AVE","LAS VEGAS","NV",89183,36.011370678,-115.129175989,468,"1642 TASSEL FERN AVE, LAS VEGAS, NV, 89183","Match","Exact","1642 TASSEL FERN AVE, LAS VEGAS, NV, 89183",202001887,"L"
235469,"1642 TATE RD","MELBOURNE","AR",72556,36.0241011310001,-91.878474457,469,"1642 TATE RD, MELBOURNE, AR, 72556","Match","Exact","1642 TATE RD, MELBOURNE, AR, 72556",2104874,"L"
235470,"1642 TAZWELL DRIVE","LEXINGTON","KY",40504,38.043737677,-84.5376155719999,470,"1642 TAZWELL DRIVE, LEXINGTON, KY, 40504","Match","Exact","1642 TAZWELL DR, LEXINGTON, KY, 40504",31919317,"L"
235471,"1642 US HWY 90 W","CASTROVILLE","TX",78009,29.348819446,-98.8945862909999,471,"1642 US HWY 90 W, CASTROVILLE, TX, 78009","Match","Non_Exact","1642 US HWY 90, CASTROVILLE, TX, 78009",102805645,"R"
235472,"1642 VALLEYVIEW AVENUE","VAN METER","IA",50261,41.416158125,-93.847865548,472,"1642 VALLEYVIEW AVENUE, VAN METER, IA, 50261","Match","Exact","1642 VALLEYVIEW AVE, VAN METER, IA, 50261",75199550,"L"
235473,"1642 VERMONT AVE","LANSING","MI",48906,42.752256066,-84.5345912129999,473,"1642 VERMONT AVE, LANSING, MI, 48906","Match","Exact","1642 VERMONT AVE, LANSING, MI, 48906",17497824,"R"
235474,"1642 VINE ST APT 2","TOLEDO","OH",45202,39.1143598100001,-84.516296031,474,"1642 VINE ST APT 2, TOLEDO, OH, 45202","Match","Non_Exact","1642 VINE ST, CINCINNATI, OH, 45202",103935816,"R"
235475,"1642 VINE STREET APT 2","CINCINNATI","OH",45202,39.1143598100001,-84.516296031,475,"1642 VINE STREET APT 2, CINCINNATI, OH, 45202","Match","Exact","1642 VINE ST, CINCINNATI, OH, 45202",103935816,"R"
235476,"1642 W 75TH PLACE","CHICAGO","IL",60620,41.7570881250001,-87.665938421,476,"1642 W 75TH PLACE, CHICAGO, IL, 60620","Match","Exact","1642 W 75TH PL, CHICAGO, IL, 60620",111820925,"R"
235477,"1642 W BATAVIA RD","AVON PARK","FL",33825,27.602105753,-81.525516457,477,"1642 W BATAVIA RD, AVON PARK, FL, 33825","Match","Exact","1642 W BATAVIA RD, AVON PARK, FL, 33825",4627160,"R"
235478,"1642 W JULIEANNE","PORTERVILLE","CA",93257,36.090467781,-119.054678695,478,"1642 W JULIEANNE, PORTERVILLE, CA, 93257","Match","Non_Exact","1642 JULIEANN AVE, PORTERVILLE, CA, 93257",607568395,"R"
235479,"1642 W MAIN STREER","COTTAGE GROVE","OR",97424,NA,NA,479,"1642 W MAIN STREER, COTTAGE GROVE, OR, 97424","No_Match",NA,NA,NA,NA
235480,"1642 W POPLAR STREET","STOCKTON","CA",95203,37.95782998,-121.315674666,480,"1642 W POPLAR STREET, STOCKTON, CA, 95203","Match","Exact","1642 W POPLAR ST, STOCKTON, CA, 95203",133848737,"L"
235481,"1642 WEST 146TH STREET","GARDENA","CA",90247,33.8989897800001,-118.306182187,481,"1642 WEST 146TH STREET, GARDENA, CA, 90247","Match","Exact","1642 W 146TH ST, GARDENA, CA, 90247",142754377,"L"
235482,"1642 WEST UNIVERSITY AVE","GAINESVILLE","FL",32603,29.6520714550001,-82.3439463559999,482,"1642 WEST UNIVERSITY AVE, GAINESVILLE, FL, 32603","Match","Exact","1642 W UNIVERSITY AVE, GAINESVILLE, FL, 32603",6806266,"R"
235483,"1642 WESTWAY DRIVE","CHARLESTON","SC",29412,32.7100302970001,-79.963088507,483,"1642 WESTWAY DRIVE, CHARLESTON, SC, 29412","Match","Exact","1642 WESTWAY DR, CHARLESTON, SC, 29412",108901224,"R"
235484,"1642 WILLOMORE STREET","GREENSBORO","NC",27403,36.0480000370001,-79.813721981,484,"1642 WILLOMORE STREET, GREENSBORO, NC, 27403","Match","Exact","1642 WILLOMORE ST, GREENSBORO, NC, 27403",131032299,"R"
235485,"1642 WISCONSIN AVENUE","RACINE","WI",53403,42.711818726,-87.783625577,485,"1642 WISCONSIN AVENUE, RACINE, WI, 53403","Match","Exact","1642 WISCONSIN AVE, RACINE, WI, 53403",77934769,"R"
235486,"16420 BUTLER AVE","OMAHA","NE",68116,41.3007246230001,-96.171995882,486,"16420 BUTLER AVE, OMAHA, NE, 68116","Match","Exact","16420 BUTLER AVE, OMAHA, NE, 68116",635155501,"L"
235487,"16420 BUTLER AVENUE","OMAHA","NE",68116,41.3007246230001,-96.171995882,487,"16420 BUTLER AVENUE, OMAHA, NE, 68116","Match","Exact","16420 BUTLER AVE, OMAHA, NE, 68116",635155501,"L"
235488,"16420 COWAN ROAD","SANTA FE","TX",77517,29.4081089970001,-95.147136712,488,"16420 COWAN ROAD, SANTA FE, TX, 77517","Match","Exact","16420 COWAN RD, SANTA FE, TX, 77517",96723401,"L"
235489,"16420 CROSS CREEK ROAD","BOWLING GREEN","OH",43402,41.437512294,-83.71780123,489,"16420 CROSS CREEK ROAD, BOWLING GREEN, OH, 43402","Match","Exact","16420 CROSS CREEK RD, BOWLING GREEN, OH, 43402",38727132,"L"
235490,"16420 EIDER STREET","BOWIE","MD",20716,38.9409642000001,-76.722557743,490,"16420 EIDER STREET, BOWIE, MD, 20716","Match","Exact","16420 EIDER ST, BOWIE, MD, 20716",76352763,"L"
235491,"16420 FITZPATRIC CT STE 257","LA MIRADA","CA",90638,33.9109664200001,-117.981385873,491,"16420 FITZPATRIC CT STE 257, LA MIRADA, CA, 90638","Match","Non_Exact","16420 FITZPATRICK CT, LA MIRADA, CA, 90638",142849314,"L"
235492,"16420 GARETT ROAD","HARLINGEN","TX",78552,26.17075164,-97.759278466,492,"16420 GARETT ROAD, HARLINGEN, TX, 78552","Match","Non_Exact","16420 GARRETT RD, HARLINGEN, TX, 78552",89987133,"R"
235493,"16420 HWY 1","SAN SIMEON","CA",93452,NA,NA,493,"16420 HWY 1, SAN SIMEON, CA, 93452","No_Match",NA,NA,NA,NA
235494,"16420 N THOMPSON PEAK PKWY","SCOTTSDALE","AZ",85260,33.635369516,-111.860443964,494,"16420 N THOMPSON PEAK PKWY, SCOTTSDALE, AZ, 85260","Match","Exact","16420 N THOMPSON PEAK PKWY, SCOTTSDALE, AZ, 85260",243917694,"L"
235495,"16420 NORTH 63RD STREET","SCOTTSDALE","AZ",85254,33.63586157,-111.944759056,495,"16420 NORTH 63RD STREET, SCOTTSDALE, AZ, 85254","Match","Exact","16420 N 63RD ST, SCOTTSDALE, AZ, 85254",128188080,"L"
235496,"16420 PENICK RD","WALLER","TX",77484,30.0079685050001,-95.931990202,496,"16420 PENICK RD, WALLER, TX, 77484","Match","Exact","16420 PENICK RD, WALLER, TX, 77484",78354390,"R"
235497,"16420 PLUMAGE EAGLE STREET","WOODBRIDGE","VA",22191,38.597038023,-77.305090848,497,"16420 PLUMAGE EAGLE STREET, WOODBRIDGE, VA, 22191","Match","Exact","16420 PLUMAGE EAGLE ST, WOODBRIDGE, VA, 22191",632945337,"L"
235498,"16420 SE MCGILLIVRAY STE 103 BX 508","VANCOUVER","WA",98683,NA,NA,498,"16420 SE MCGILLIVRAY STE 103 BX 508, VANCOUVER, WA, 98683","No_Match",NA,NA,NA,NA
235499,"16420 SE MCGILLIVRAY STE 103","VANCOUVER","WA",98683,NA,NA,499,"16420 SE MCGILLIVRAY STE 103, VANCOUVER, WA, 98683","No_Match",NA,NA,NA,NA
235500,"16420 TIMBER COVE ST","HUDSON","CO",80642,39.9950843500001,-104.615153707,500,"16420 TIMBER COVE ST, HUDSON, CO, 80642","Match","Exact","16420 TIMBER COVE ST, HUDSON, CO, 80642",627573385,"L"
