"ID","Address","City","State","Zip","lat","long","id","input_address","match_indicator","match_type","matched_address","tiger_line_id","tiger_side"
798001,"665 WASHINGTON STREET PH261","BOSTON","MA",2111,NA,NA,1,"665 WASHINGTON STREET PH261, BOSTON, MA, 2111","No_Match",NA,NA,NA,NA
798002,"665 WEST 300 SOUTH","PRICE","UT",84501,NA,NA,2,"665 WEST 300 SOUTH, PRICE, UT, 84501","Tie",NA,NA,NA,NA
798003,"665 WEST MARINE COVE DRIVE/166","SAINT AUGUSTINE","FL",32080,NA,NA,3,"665 WEST MARINE COVE DRIVE/166, SAINT AUGUSTINE, FL, 32080","No_Match",NA,NA,NA,NA
798004,"665 WEST SAN JOSE AVENUE","CLAREMONT","CA",91711,34.0830881540001,-117.724984239,4,"665 WEST SAN JOSE AVENUE, CLAREMONT, CA, 91711","Match","Exact","665 W SAN JOSE AVE, CLAREMONT, CA, 91711",142791444,"R"
798005,"665 WILLIS AVE","SOUTH HEMPSTEAD","NY",11550,40.6820329120001,-73.6164166249999,5,"665 WILLIS AVE, SOUTH HEMPSTEAD, NY, 11550","Match","Non_Exact","665 WILLIS ST, S HEMPSTEAD, NY, 11550",147629075,"L"
798006,"665 WILLSHIRE LANE","MURRELLS INLET","SC",29576,33.5838910140001,-79.05020058,6,"665 WILLSHIRE LANE, MURRELLS INLET, SC, 29576","Match","Non_Exact","665 WILSHIRE LN, MURRELLS INLET, SC, 29576",630964978,"L"
798007,"665 WINDERMERE DRIVE","CULPEPER","VA",22701,38.4769309700001,-78.020467245,7,"665 WINDERMERE DRIVE, CULPEPER, VA, 22701","Match","Exact","665 WINDERMERE DR, CULPEPER, VA, 22701",632945610,"L"
798008,"665 WINTER HILL LANE","LEXINGTON","KY",40509,37.995266428,-84.412033825,8,"665 WINTER HILL LANE, LEXINGTON, KY, 40509","Match","Exact","665 WINTER HILL LN, LEXINGTON, KY, 40509",649433435,"R"
798009,"665 WOOD VALLY TRACE","ROSWELL","GA",30076,34.02287843,-84.297360102,9,"665 WOOD VALLY TRACE, ROSWELL, GA, 30076","Match","Exact","665 WOOD VALLEY TRCE, ROSWELL, GA, 30076",17361809,"R"
798010,"665 WOODGATE LANE","SUNRISE","FL",33326,26.1113159880001,-80.3562924079999,10,"665 WOODGATE LANE, SUNRISE, FL, 33326","Match","Exact","665 WOODGATE LN, SUNRISE, FL, 33326",114794836,"R"
798011,"665 YORKLAND WAY","KNOXVILLE","TN",37923,35.9090612950001,-84.060142129,11,"665 YORKLAND WAY, KNOXVILLE, TN, 37923","Match","Exact","665 YORKLAND WAY, KNOXVILLE, TN, 37923",604624198,"R"
798012,"665 ZIPPERER ROAD","GUYTON","GA",31312,32.227107733,-81.2994474239999,12,"665 ZIPPERER ROAD, GUYTON, GA, 31312","Match","Exact","665 ZIPPERER RD, GUYTON, GA, 31312",628069495,"L"
798013,"6650 AHERN CT","INDIANAPOLIS","IN",46268,39.8773096950001,-86.2109726689999,13,"6650 AHERN CT, INDIANAPOLIS, IN, 46268","Match","Exact","6650 AHERN CT, INDIANAPOLIS, IN, 46268",108039684,"L"
798014,"6650 APALACHEE PKWY","TALLAHASSEE","FL",32311,30.4213997590001,-84.164361458,14,"6650 APALACHEE PKWY, TALLAHASSEE, FL, 32311","Match","Exact","6650 APALACHEE PKWY, TALLAHASSEE, FL, 32311",82857694,"L"
798015,"6650 AQUEDUCT AVE","VAN NUYS","CA",91406,34.1914195860001,-118.473794353,15,"6650 AQUEDUCT AVE, VAN NUYS, CA, 91406","Match","Exact","6650 AQUEDUCT AVE, VAN NUYS, CA, 91406",141560023,"R"
798016,"6650 AVALON DRIVE SE","CALEDONIA","MI",49316,42.8441356320001,-85.602809182,16,"6650 AVALON DRIVE SE, CALEDONIA, MI, 49316","Match","Non_Exact","6650 AVALON DR, CALEDONIA, MI, 49316",633710495,"R"
798017,"6650 BOWIE RD","JACKSONVILLE","FL",32219,30.430505887,-81.754069113,17,"6650 BOWIE RD, JACKSONVILLE, FL, 32219","Match","Exact","6650 BOWIE RD, JACKSONVILLE, FL, 32219",83989731,"L"
798018,"6650 BRANCH DRIVE","REX","GA",30273,33.5728812880001,-84.2797140439999,18,"6650 BRANCH DRIVE, REX, GA, 30273","Match","Exact","6650 BRANCH DR, REX, GA, 30273",23317988,"L"
798019,"6650 BROWNING RD SUITE M-22A","PENNSAUKEN","NJ",8109,39.935958226,-75.069728013,19,"6650 BROWNING RD SUITE M-22A, PENNSAUKEN, NJ, 8109","Match","Exact","6650 BROWNING RD, PENNSAUKEN, NJ, 08109",134343513,"L"
798020,"6650 COMMONS DRIVE SUITE C","PRINCE GEORGE","VA",23875,37.221728135,-77.2908453639999,20,"6650 COMMONS DRIVE SUITE C, PRINCE GEORGE, VA, 23875","Match","Exact","6650 COMMONS DR, PRINCE GEORGE, VA, 23875",54183874,"R"
798021,"6650 CORPORATE CENTER PARKWAY 212","JACKSONVILLE","FL",32216,30.255605831,-81.599982712,21,"6650 CORPORATE CENTER PARKWAY 212, JACKSONVILLE, FL, 32216","Match","Exact","6650 CORPORATE CENTER PKWY, JACKSONVILLE, FL, 32216",646787771,"L"
798022,"6650 CORPORATE CENTER PKWY UNIT 604","JACKSONVILLE","FL",32216,30.255605831,-81.599982712,22,"6650 CORPORATE CENTER PKWY UNIT 604, JACKSONVILLE, FL, 32216","Match","Exact","6650 CORPORATE CENTER PKWY, JACKSONVILLE, FL, 32216",646787771,"L"
798023,"6650 DUNNVILLE WAY","HOLLISTER","CA",95023,36.947275919,-121.410563557,23,"6650 DUNNVILLE WAY, HOLLISTER, CA, 95023","Match","Non_Exact","6650 DUNNEVILLE WAY, HOLLISTER, CA, 95023",125455363,"R"
798024,"6650 E 7000 N ROAD","GRANT PARK","IL",60940,NA,NA,24,"6650 E 7000 N ROAD, GRANT PARK, IL, 60940","No_Match",NA,NA,NA,NA
798025,"6650 E RUSSELL APT 273","LAS VEGAS","NV",89122,NA,NA,25,"6650 E RUSSELL APT 273, LAS VEGAS, NV, 89122","No_Match",NA,NA,NA,NA
798026,"6650 E STATE ROAD 162","SANTA CLAUS","IN",47579,NA,NA,26,"6650 E STATE ROAD 162, SANTA CLAUS, IN, 47579","No_Match",NA,NA,NA,NA
798027,"6650 E WT HARRIS BLVD A","CHARLOTTE","NC",28215,35.229645722,-80.7278342549999,27,"6650 E WT HARRIS BLVD A, CHARLOTTE, NC, 28215","Match","Non_Exact","6650 E WT HARRIS BLVD, CHARLOTTE, NC, 28215",635863295,"L"
798028,"6650 FM 1467 N","BLANKET","TX",76432,NA,NA,28,"6650 FM 1467 N, BLANKET, TX, 76432","No_Match",NA,NA,NA,NA
798029,"6650 FM 1467N","BLANKET","TX",76430,NA,NA,29,"6650 FM 1467N, BLANKET, TX, 76430","No_Match",NA,NA,NA,NA
798030,"6650 FRANKLIN AVE 509","LOS ANGELES","CA",90028,34.105185137,-118.334869224,30,"6650 FRANKLIN AVE 509, LOS ANGELES, CA, 90028","Match","Exact","6650 FRANKLIN AVE, LOS ANGELES, CA, 90028",638619335,"L"
798031,"6650 FRANKLIN UNIT 509","LOS ANGELES","CA",90028,34.105185137,-118.334869224,31,"6650 FRANKLIN UNIT 509, LOS ANGELES, CA, 90028","Match","Non_Exact","6650 FRANKLIN AVE, LOS ANGELES, CA, 90028",638619335,"L"
798032,"6650 KANSAS AVE","HAMMOND","IN",46323,41.5927871150001,-87.448278907,32,"6650 KANSAS AVE, HAMMOND, IN, 46323","Match","Exact","6650 KANSAS AVE, HAMMOND, IN, 46323",606333629,"R"
798033,"6650 KIRKLEY AVE","MCLEAN","VA",22101,38.9152170630001,-77.1745027429999,33,"6650 KIRKLEY AVE, MCLEAN, VA, 22101","Match","Exact","6650 KIRKLEY AVE, MCLEAN, VA, 22101",75963598,"R"
798034,"6650 LEBLEU ROAD","LAKE CHARLES","LA",70615,30.279845278,-93.075948749,34,"6650 LEBLEU ROAD, LAKE CHARLES, LA, 70615","Match","Non_Exact","6650 LEBLEU LN, LAKE CHARLES, LA, 70615",624153818,"R"
798035,"6650 LUSK BLVD STE B203","SAN DIEGO","CA",92121,32.900973311,-117.205115919,35,"6650 LUSK BLVD STE B203, SAN DIEGO, CA, 92121","Match","Exact","6650 LUSK BLVD, SAN DIEGO, CA, 92121",645308426,"L"
798036,"6650 METROPOLITAN ST","COLORADO SPRINGS","CO",80911,38.7350037740001,-104.703072865,36,"6650 METROPOLITAN ST, COLORADO SPRINGS, CO, 80911","Match","Exact","6650 METROPOLITAN ST, COLORADO SPRINGS, CO, 80911",610759590,"R"
798037,"6650 METROPOLITAN ST","COLORADO","CO",80911,38.7350037740001,-104.703072865,37,"6650 METROPOLITAN ST, COLORADO, CO, 80911","Match","Non_Exact","6650 METROPOLITAN ST, COLORADO SPRINGS, CO, 80911",610759590,"R"
798038,"6650 N S8TH AVE","PARKLAND","FL",33067,NA,NA,38,"6650 N S8TH AVE, PARKLAND, FL, 33067","No_Match",NA,NA,NA,NA
798039,"6650 PRUE RD UNIT 1114","SAN ANTONIO","TX",78240,29.544635353,-98.616844795,39,"6650 PRUE RD UNIT 1114, SAN ANTONIO, TX, 78240","Match","Exact","6650 PRUE RD, SAN ANTONIO, TX, 78240",648245855,"L"
798040,"6650 PRUE RD","SAN ANTONIO","TX",78240,29.544635353,-98.616844795,40,"6650 PRUE RD, SAN ANTONIO, TX, 78240","Match","Exact","6650 PRUE RD, SAN ANTONIO, TX, 78240",648245855,"L"
798041,"6650 PRUTZMAN RD APT 210C","BEAUMONT","TX",77706,30.0768717240001,-94.1742729119999,41,"6650 PRUTZMAN RD APT 210C, BEAUMONT, TX, 77706","Match","Exact","6650 PRUTZMAN RD, BEAUMONT, TX, 77706",636448423,"R"
798042,"6650 RANKIN ROAD","HUMBLE","TX",77396,29.9673593680001,-95.290158219,42,"6650 RANKIN ROAD, HUMBLE, TX, 77396","Match","Exact","6650 RANKIN RD, HUMBLE, TX, 77396",96046147,"R"
798043,"6650 RIVERS AVE STE 100","CHARLESTON","SC",29406,NA,NA,43,"6650 RIVERS AVE STE 100, CHARLESTON, SC, 29406","No_Match",NA,NA,NA,NA
798044,"6650 RIVERS AVENUE SUITE 100","CHARLESTON","SC",29406,32.917901799,-80.0280952219999,44,"6650 RIVERS AVENUE SUITE 100, CHARLESTON, SC, 29406","Match","Exact","6650 RIVERS AVE, CHARLESTON, SC, 29406",647988814,"L"
798045,"6650 ROCKISLAND RD  APT 201","SPRING FIELD","VA",22150,38.7704788400001,-77.1757529069999,45,"6650 ROCKISLAND RD  APT 201, SPRING FIELD, VA, 22150","Match","Non_Exact","6650 ROCK ISLAND RD, SPRINGFIELD, VA, 22150",76040316,"L"
798046,"6650 ROSEBUSH LANE","INDIANAPOLIS","IN",46237,39.655011141,-86.051064088,46,"6650 ROSEBUSH LANE, INDIANAPOLIS, IN, 46237","Match","Exact","6650 ROSEBUSH LN, INDIANAPOLIS, IN, 46237",108029806,"L"
798047,"6650 S NASH WAY","CHANDLERS","AZ",85249,33.210041968,-111.797145262,47,"6650 S NASH WAY, CHANDLERS, AZ, 85249","Match","Non_Exact","6650 S NASH WAY, CHANDLER, AZ, 85249",128855323,"R"
798048,"6650 S SANDHILL RD APT 114","LAS VEGAS","NV",89120,36.0699613400001,-115.091726611,48,"6650 S SANDHILL RD APT 114, LAS VEGAS, NV, 89120","Match","Non_Exact","6650 S SANDHILL RD, LAS VEGAS, NV, 89120",201879151,"L"
798049,"6650 S SHERIDAN BLVD","LITTLETON","CO",80123,39.5959375850001,-105.053685361,49,"6650 S SHERIDAN BLVD, LITTLETON, CO, 80123","Match","Exact","6650 S SHERIDAN BLVD, LITTLETON, CO, 80123",635725183,"L"
798050,"6650 S UNIVERSITY AV APT 1A","CHICAGO","IL",60637,41.7740949560001,-87.598496032,50,"6650 S UNIVERSITY AV APT 1A, CHICAGO, IL, 60637","Match","Non_Exact","6650 S UNIVERSITY AVE, CHICAGO, IL, 60637",111774195,"R"
798051,"6650 SPRINGSIDE AVENUE","DOWNERS GROVE","IL",60516,41.7667690440001,-88.023273579,51,"6650 SPRINGSIDE AVENUE, DOWNERS GROVE, IL, 60516","Match","Exact","6650 SPRINGSIDE AVE, DOWNERS GROVE, IL, 60516",112539680,"R"
798052,"6650 STOFFER ROAD","BELLVILLE","OH",44813,40.576540273,-82.4842373609999,52,"6650 STOFFER ROAD, BELLVILLE, OH, 44813","Match","Exact","6650 STOFFER RD, BELLVILLE, OH, 44813",12828604,"L"
798053,"6650 SUGARLOAF PKWY STE 700","DULUTH","GA",30097,34.000432247,-84.09470035,53,"6650 SUGARLOAF PKWY STE 700, DULUTH, GA, 30097","Match","Exact","6650 SUGARLOAF PKWY, DULUTH, GA, 30097",88958900,"L"
798054,"6650 SUMMER COVE DR","RIVERVIEW","FL",33578,27.8858539940001,-82.325462181,54,"6650 SUMMER COVE DR, RIVERVIEW, FL, 33578","Match","Exact","6650 SUMMER COVE DR, RIVERVIEW, FL, 33578",104615450,"L"
798055,"6650 SW 79TH AVENUE","MIAMI","FL",33143,25.707660386,-80.32214929,55,"6650 SW 79TH AVENUE, MIAMI, FL, 33143","Match","Exact","6650 SW 79TH AVE, MIAMI, FL, 33143",115977082,"R"
798056,"6650 TRAIL OAKS LOOP S","SPRINGDALE","AR",72762,NA,NA,56,"6650 TRAIL OAKS LOOP S, SPRINGDALE, AR, 72762","No_Match",NA,NA,NA,NA
798057,"6650 VERNON AVE S","MINNEAPOLIS","MN",55436,44.892893175,-93.392778612,57,"6650 VERNON AVE S, MINNEAPOLIS, MN, 55436","Match","Exact","6650 VERNON AVE S, MINNEAPOLIS, MN, 55436",43840240,"R"
798058,"6650 W BELDEN APT 523N","CHICAGO","IL",60707,NA,NA,58,"6650 W BELDEN APT 523N, CHICAGO, IL, 60707","No_Match",NA,NA,NA,NA
798059,"6650 W BELDEN AVE","CHICAGO","IL",60707,41.9211971780001,-87.792043104,59,"6650 W BELDEN AVE, CHICAGO, IL, 60707","Match","Exact","6650 W BELDEN AVE, CHICAGO, IL, 60707",111752373,"L"
798060,"6650 W STATE ST UNIT D170","WAUWATOSA","WI",53213,43.045615458,-87.995683597,60,"6650 W STATE ST UNIT D170, WAUWATOSA, WI, 53213","Match","Non_Exact","6650 W STATE ST, WAUWATOSA, WI, 53213",649046585,"R"
798061,"6650 W STATE STREET D264","WAUWATOSA","WI",53213,43.045615458,-87.995683597,61,"6650 W STATE STREET D264, WAUWATOSA, WI, 53213","Match","Non_Exact","6650 W STATE ST, WAUWATOSA, WI, 53213",649046585,"R"
798062,"6651 67TH AVEE N APT109","BROOKLYN PARK","MN",55428,NA,NA,62,"6651 67TH AVEE N APT109, BROOKLYN PARK, MN, 55428","No_Match",NA,NA,NA,NA
798063,"6651 BLACKWELL ROAD","WARRENTON","VA",20187,38.759769287,-77.779539926,63,"6651 BLACKWELL ROAD, WARRENTON, VA, 20187","Match","Exact","6651 BLACKWELL RD, WARRENTON, VA, 20187",146293596,"R"
798064,"6651 BRAHMAN RD","LAS CRUCES","NM",88012,32.4227417700001,-106.631645451,64,"6651 BRAHMAN RD, LAS CRUCES, NM, 88012","Match","Exact","6651 BRAHMAN RD, LAS CRUCES, NM, 88012",612707228,"L"
798065,"6651 CONWAY COURT","OAK FOREST","IL",60473,41.6258581880001,-87.784075606,65,"6651 CONWAY COURT, OAK FOREST, IL, 60473","Match","Non_Exact","6651 CONWAY CT, OAK FOREST, IL, 60452",641704771,"R"
798066,"6651 CONWAY CT","OAK FOREST","IL",60452,41.6258581880001,-87.784075606,66,"6651 CONWAY CT, OAK FOREST, IL, 60452","Match","Exact","6651 CONWAY CT, OAK FOREST, IL, 60452",641704771,"R"
798067,"6651 CRESTINE DR","JASKSONVILLE","FL",32211,NA,NA,67,"6651 CRESTINE DR, JASKSONVILLE, FL, 32211","No_Match",NA,NA,NA,NA
798068,"6651 DIAMOND WING COURT","SPARKS","NE",89431,NA,NA,68,"6651 DIAMOND WING COURT, SPARKS, NE, 89431","No_Match",NA,NA,NA,NA
798069,"6651 DIAMOND WING COURT","SPARKS","NV",89431,39.6142805480001,-119.683492429,69,"6651 DIAMOND WING COURT, SPARKS, NV, 89431","Match","Non_Exact","6651 DIAMOND WING CT, SPARKS, NV, 89436",107080063,"L"
798070,"6651 HEDGLINE DR","BEDFORD","OH",44146,41.3758398000001,-81.495236543,70,"6651 HEDGLINE DR, BEDFORD, OH, 44146","Match","Non_Exact","6651 HEDGELINE DR, BEDFORD, OH, 44146",61152229,"R"
798071,"6651 KENWOOD AVE","KANSAS CITY","MO",64131,39.006900021,-94.581000338,71,"6651 KENWOOD AVE, KANSAS CITY, MO, 64131","Match","Exact","6651 KENWOOD AVE, KANSAS CITY, MO, 64131",91454597,"L"
798072,"6651 KIRKVILLE ROAD","EAST SYRACUSE","NY",13057,43.0766809890001,-76.060168276,72,"6651 KIRKVILLE ROAD, EAST SYRACUSE, NY, 13057","Match","Exact","6651 KIRKVILLE RD, EAST SYRACUSE, NY, 13057",46575074,"L"
798073,"6651 MAIN ST SUITE 1020","HOUSTON","TX",77030,29.708264103,-95.403439911,73,"6651 MAIN ST SUITE 1020, HOUSTON, TX, 77030","Match","Exact","6651 MAIN ST, HOUSTON, TX, 77030",96065125,"L"
798074,"6651 MANOLETA DRIVE","LITHONIA","GA",30038,33.6868680760001,-84.119207188,74,"6651 MANOLETA DRIVE, LITHONIA, GA, 30038","Match","Exact","6651 MANOLETA DR, LITHONIA, GA, 30038",23376293,"R"
798075,"6651 N ONARGA","CHICAGO","IL",60631,42.0012429120001,-87.81107131,75,"6651 N ONARGA, CHICAGO, IL, 60631","Match","Non_Exact","6651 N ONARGA AVE, CHICAGO, IL, 60631",111733818,"R"
798076,"6651 NORTH 20TH STREET","PHILADELPHIA","PA",19138,40.0555332180001,-75.151170468,76,"6651 NORTH 20TH STREET, PHILADELPHIA, PA, 19138","Match","Exact","6651 N 20TH ST, PHILADELPHIA, PA, 19138",131413342,"R"
798077,"6651 RIVERSIDE ROAD","BROOKLYN","MI",49230,42.1170731300001,-84.293319337,77,"6651 RIVERSIDE ROAD, BROOKLYN, MI, 49230","Match","Exact","6651 RIVERSIDE RD, BROOKLYN, MI, 49230",17611056,"R"
798078,"6651 S GARTH AVENUE","LOS ANGELES","CA",90056,33.9790797860001,-118.376013863,78,"6651 S GARTH AVENUE, LOS ANGELES, CA, 90056","Match","Exact","6651 S GARTH AVE, LOS ANGELES, CA, 90056",142688131,"R"
798079,"6651 S GREENSBORO PIKE","KNIGHTSTOWN","IN",46148,39.8344586210001,-85.511579518,79,"6651 S GREENSBORO PIKE, KNIGHTSTOWN, IN, 46148","Match","Exact","6651 S GREENSBORO PIKE, KNIGHTSTOWN, IN, 46148",29996354,"L"
798080,"6651 SPENCER FOREST COVE","MEMPHIS","TN",38141,35.0049485600001,-89.840506548,80,"6651 SPENCER FOREST COVE, MEMPHIS, TN, 38141","Match","Non_Exact","6651 SPENCER FOREST COVE W, MEMPHIS, TN, 38141",72943120,"L"
798081,"6651 STILLINGTON DRIVE","LIBERTY TOWNSHIP","OH",45011,39.384732033,-84.416996097,81,"6651 STILLINGTON DRIVE, LIBERTY TOWNSHIP, OH, 45011","Match","Exact","6651 STILLINGTON DR, LIBERTY TWP, OH, 45011",113816191,"L"
798082,"6651 TIDEWATER LANE","WILMINGTON","NC",28403,34.222300703,-77.829135681,82,"6651 TIDEWATER LANE, WILMINGTON, NC, 28403","Match","Exact","6651 TIDEWATER LN, WILMINGTON, NC, 28403",152738156,"R"
798083,"6651 TWIG PLACE APT F","INDIANAPOLIS","IN",46221,39.667573643,-86.2496354,83,"6651 TWIG PLACE APT F, INDIANAPOLIS, IN, 46221","Match","Exact","6651 TWIG PL, INDIANAPOLIS, IN, 46221",645039461,"L"
798084,"6651 VILLAGE DRIVE","CASPER","WY",82604,42.8225264490001,-106.422399038,84,"6651 VILLAGE DRIVE, CASPER, WY, 82604","Match","Exact","6651 VILLAGE DR, CASPER, WY, 82604",648481067,"L"
798085,"6651 W GREGORY","CHICAGO","IL",60656,41.9821304490001,-87.794774795,85,"6651 W GREGORY, CHICAGO, IL, 60656","Match","Non_Exact","6651 W GREGORY ST, CHICAGO, IL, 60656",605833567,"L"
798086,"6651 W VISTA BONITA DR","GLENDALE","AZ",85310,33.6968756790001,-112.201377837,86,"6651 W VISTA BONITA DR, GLENDALE, AZ, 85310","Match","Exact","6651 VISTA BONITA DR, GLENDALE, AZ, 85310",243923041,"R"
798087,"6651 WELLINGTON DRIVE","RAPID CITY","SD",57702,44.0193345100001,-103.24128591,87,"6651 WELLINGTON DRIVE, RAPID CITY, SD, 57702","Match","Exact","6651 WELLINGTON DR, RAPID CITY, SD, 57702",205529005,"R"
798088,"66516 NE SISKIYOU CT","PORTLAND","OR",97230,NA,NA,88,"66516 NE SISKIYOU CT, PORTLAND, OR, 97230","No_Match",NA,NA,NA,NA
798089,"6652 CHAPLIN DRIVE","COLORADO SPRINGS","CO",80925,NA,NA,89,"6652 CHAPLIN DRIVE, COLORADO SPRINGS, CO, 80925","No_Match",NA,NA,NA,NA
798090,"6652 EAGLE POINTE DR N APT 3B","INDIANAPOLIS","IN",46254,39.837456086,-86.27725815,90,"6652 EAGLE POINTE DR N APT 3B, INDIANAPOLIS, IN, 46254","Match","Exact","6652 EAGLE POINTE DR N, INDIANAPOLIS, IN, 46254",108034802,"R"
798091,"6652 HEATHROW AVENUE","FONTANA","CA",92336,34.133088404,-117.466781605,91,"6652 HEATHROW AVENUE, FONTANA, CA, 92336","Match","Exact","6652 HEATHROW AVE, FONTANA, CA, 92336",145000717,"L"
798092,"6652 HOLLYWOOD BLVD","HOLLYWOOD","CA",90028,34.1015630300001,-118.335161107,92,"6652 HOLLYWOOD BLVD, HOLLYWOOD, CA, 90028","Match","Exact","6652 HOLLYWOOD BLVD, HOLLYWOOD, CA, 90028",141594783,"L"
798093,"6652 HOLLYWOOD BOULEVARD","HOLLYWOOD","CA",90028,34.1015630300001,-118.335161107,93,"6652 HOLLYWOOD BOULEVARD, HOLLYWOOD, CA, 90028","Match","Exact","6652 HOLLYWOOD BLVD, HOLLYWOOD, CA, 90028",141594783,"L"
798094,"6652 HOULTON CIRCLE","LAKE WORTH","FL",33467,26.584719536,-80.150718924,94,"6652 HOULTON CIRCLE, LAKE WORTH, FL, 33467","Match","Exact","6652 HOULTON CIR, LAKE WORTH, FL, 33467",115558146,"R"
798095,"6652 N COLUMBIA BLVD","PORTLAND","OR",97203,45.5953056490001,-122.7309969,95,"6652 N COLUMBIA BLVD, PORTLAND, OR, 97203","Match","Exact","6652 N COLUMBIA BLVD, PORTLAND, OR, 97203",157493610,"L"
798096,"6652 N ISABELLA RD","ROSEBUSH","MI",48878,43.7382961330001,-84.7476950239999,96,"6652 N ISABELLA RD, ROSEBUSH, MI, 48878","Match","Exact","6652 N ISABELLA RD, ROSEBUSH, MI, 48878",110216733,"R"
798097,"6652 NORWOOD AVE","ALLEN PARK","MI",48101,42.2598549100001,-83.2181310839999,97,"6652 NORWOOD AVE, ALLEN PARK, MI, 48101","Match","Exact","6652 NORWOOD AVE, ALLEN PARK, MI, 48101",95446811,"R"
798098,"6652 NW 57 STREET","TAMARAC","FL",33319,26.1949758220001,-80.23918114,98,"6652 NW 57 STREET, TAMARAC, FL, 33319","Match","Non_Exact","6652 NW 57TH ST, TAMARAC, FL, 33351",114702805,"L"
798099,"6652 PALAMINO CIRCLE","YORBA LINDA","CA",92886,33.866149265,-117.787085722,99,"6652 PALAMINO CIRCLE, YORBA LINDA, CA, 92886","Match","Exact","6652 PALAMINO CIR, YORBA LINDA, CA, 92886",144033102,"L"
798100,"6652 PEACHTREE INDUSTRIAL BLVD APTB","ATLANTA","GA",30360,33.9262373380001,-84.27598377,100,"6652 PEACHTREE INDUSTRIAL BLVD APTB, ATLANTA, GA, 30360","Match","Exact","6652 PEACHTREE INDUSTRIAL BLVD, ATLANTA, GA, 30360",23389484,"L"
798101,"6652 S LIZA LANE","WEST JORDAN","UT",84081,40.6296957650001,-112.043214239,101,"6652 S LIZA LANE, WEST JORDAN, UT, 84081","Match","Exact","6652 LIZA LN, WEST JORDAN, UT, 84081",639164640,"L"
798102,"6652 TRILLIUM LANE SE","SALEM","OR",97306,44.857837836,-123.050953629,102,"6652 TRILLIUM LANE SE, SALEM, OR, 97306","Match","Exact","6652 TRILLIUM LN SE, SALEM, OR, 97306",156249611,"L"
798103,"66527 M43","BANGOR","MI",49013,42.336388764,-86.192345883,103,"66527 M43, BANGOR, MI, 49013","Match","Non_Exact","66527 M 43, BANGOR, MI, 49013",34749690,"L"
798104,"6652A MARMADUKE AVE","SAINT LOUIS","MO",63139,38.6111100540001,-90.301463548,104,"6652A MARMADUKE AVE, SAINT LOUIS, MO, 63139","Match","Exact","6652 MARMADUKE AVE, SAINT LOUIS, MO, 63139",107606978,"L"
798105,"6652A MARMADUKE AVENUE","SAINT LOUIS","MO",63139,38.6111100540001,-90.301463548,105,"6652A MARMADUKE AVENUE, SAINT LOUIS, MO, 63139","Match","Exact","6652 MARMADUKE AVE, SAINT LOUIS, MO, 63139",107606978,"L"
798106,"6653 CELIA AVE","BATON ROUGE","LA",70811,30.5541897410001,-91.123018652,106,"6653 CELIA AVE, BATON ROUGE, LA, 70811","Match","Exact","6653 CELIA AVE, BATON ROUGE, LA, 70811",92186366,"L"
798107,"6653 CELIA AVENUE","BATON ROUGE","LA",70811,30.5541897410001,-91.123018652,107,"6653 CELIA AVENUE, BATON ROUGE, LA, 70811","Match","Exact","6653 CELIA AVE, BATON ROUGE, LA, 70811",92186366,"L"
798108,"6653 E RHODES ST","MESA","AZ",85215,33.476290798,-111.686260108,108,"6653 E RHODES ST, MESA, AZ, 85215","Match","Exact","6653 E RHODES ST, MESA, AZ, 85215",128820060,"L"
798109,"6653 EAST RUSSELL STREET","MESA","AZ",85215,33.475807451,-111.685895469,109,"6653 EAST RUSSELL STREET, MESA, AZ, 85215","Match","Exact","6653 E RUSSELL ST, MESA, AZ, 85215",128820055,"L"
798110,"6653 LOOKOUT ROAD A204","BOULDER","CO",80301,40.0727955240001,-105.198719728,110,"6653 LOOKOUT ROAD A204, BOULDER, CO, 80301","Match","Exact","6653 LOOKOUT RD, BOULDER, CO, 80301",645401481,"L"
798111,"6653 MARBELLA LANE","NAPLES","FL",34105,26.196577076,-81.7471967659999,111,"6653 MARBELLA LANE, NAPLES, FL, 34105","Match","Exact","6653 MARBELLA LN, NAPLES, FL, 34105",619123600,"L"
798112,"6653 MCKINNEY RANCH PKWY 17201","MCKINNEY","TX",75070,33.1548775700001,-96.700913762,112,"6653 MCKINNEY RANCH PKWY 17201, MCKINNEY, TX, 75070","Match","Exact","6653 MCKINNEY RANCH PKWY, MCKINNEY, TX, 75070",648463203,"R"
798113,"6653 MONTECITO BLVD","SANTA ROSA","CA",95409,38.4759811110001,-122.672002267,113,"6653 MONTECITO BLVD, SANTA ROSA, CA, 95409","Match","Exact","6653 MONTECITO BLVD, SANTA ROSA, CA, 95409",604964090,"L"
798114,"6653 OAKTON AVE","HAYMARKET","VA",20169,38.811596067,-77.668291559,114,"6653 OAKTON AVE, HAYMARKET, VA, 20169","Match","Exact","6653 OAKTON AVE, HAYMARKET, VA, 20169",632552461,"R"
798115,"6653 OLD IRONSIDE LANE","DELAWARE","OH",43015,40.200318103,-83.032345385,115,"6653 OLD IRONSIDE LANE, DELAWARE, OH, 43015","Match","Exact","6653 OLD IRONSIDE LN, DELAWARE, OH, 43015",619929472,"L"
798116,"6653 S SNOWDEN RD","LIBERTY","IN",47353,39.535951088,-84.9443468969999,116,"6653 S SNOWDEN RD, LIBERTY, IN, 47353","Match","Exact","6653 S SNOWDEN RD, LIBERTY, IN, 47353",39283435,"R"
798117,"6653 W SEASCAPE WAY","TUCSON","AZ",85757,32.121370816,-111.107505884,117,"6653 W SEASCAPE WAY, TUCSON, AZ, 85757","Match","Exact","6653 W SEASCAPE WAY, TUCSON, AZ, 85757",606829188,"R"
798118,"6653 WOODCHUCK HILL RD","JAMESVILLE","NY",13078,43.013224382,-76.060910538,118,"6653 WOODCHUCK HILL RD, JAMESVILLE, NY, 13078","Match","Exact","6653 WOODCHUCK HILL RD, JAMESVILLE, NY, 13078",46575734,"L"
798119,"6654 BEAR RIDGE ROAD","LOCKPORT","NY",14094,43.1013284320001,-78.7483232289999,119,"6654 BEAR RIDGE ROAD, LOCKPORT, NY, 14094","Match","Exact","6654 BEAR RIDGE RD, LOCKPORT, NY, 14094",48692363,"R"
798120,"6654 CHESAPEAKE DR","MEMPHIS","TN",38141,35.027688164,-89.8415968629999,120,"6654 CHESAPEAKE DR, MEMPHIS, TN, 38141","Match","Exact","6654 CHESAPEAKE DR, MEMPHIS, TN, 38141",72930686,"L"
798121,"6654 COSSA ROAD","CARTHAGE","MS",39051,NA,NA,121,"6654 COSSA ROAD, CARTHAGE, MS, 39051","No_Match",NA,NA,NA,NA
798122,"6654 EAST 128TH STREET SOUTH","BIXBY","OK",74008,35.977844675,-95.902869369,122,"6654 EAST 128TH STREET SOUTH, BIXBY, OK, 74008","Match","Exact","6654 E 128TH ST S, BIXBY, OK, 74008",650452874,"R"
798123,"6654 GASS RD","SAN ANTONIO","TX",78253,29.4993028480001,-98.7592387939999,123,"6654 GASS RD, SAN ANTONIO, TX, 78253","Match","Exact","6654 GASS RD, SAN ANTONIO, TX, 78253",101729889,"R"
798124,"6654 HIGHWAY 952","JACKSON","LA",70748,30.9243797710001,-91.137441414,124,"6654 HIGHWAY 952, JACKSON, LA, 70748","Match","Exact","6654 HWY 952, JACKSON, LA, 70748",75680317,"R"
798125,"6654 N MOZART","CHICAGO","IL",60645,42.002192316,-87.700987595,125,"6654 N MOZART, CHICAGO, IL, 60645","Match","Non_Exact","6654 N MOZART ST, CHICAGO, IL, 60645",111744520,"L"
798126,"6654 TOWN BLUFF DR","DALLAS","TX",75248,32.955007019,-96.795624126,126,"6654 TOWN BLUFF DR, DALLAS, TX, 75248","Match","Exact","6654 TOWN BLUFF DR, DALLAS, TX, 75248",102900398,"R"
798127,"6654 TOWN BLUFF DRIVE","DALLAS","TX",75248,32.955007019,-96.795624126,127,"6654 TOWN BLUFF DRIVE, DALLAS, TX, 75248","Match","Exact","6654 TOWN BLUFF DR, DALLAS, TX, 75248",102900398,"R"
798128,"6654 W SHELBY STREET","MILWAUKEE","WI",53223,43.137318141,-87.995270419,128,"6654 W SHELBY STREET, MILWAUKEE, WI, 53223","Match","Exact","6654 W SHELBY ST, MILWAUKEE, WI, 53223",77725933,"R"
798129,"6654 W WOOD RIDGE DR","JANESVILLE","WI",53548,42.7404105680001,-89.133102578,129,"6654 W WOOD RIDGE DR, JANESVILLE, WI, 53548","Match","Exact","6654 W WOOD RIDGE DR, JANESVILLE, WI, 53548",49865374,"R"
798130,"6654 WANDERING WAY","NORCROSS","GA",30093,33.88223766,-84.192884116,130,"6654 WANDERING WAY, NORCROSS, GA, 30093","Match","Exact","6654 WANDERING WAY, NORCROSS, GA, 30093",632696718,"R"
798131,"6654 WINDER OAKS BLVD","ORLANDO","FL",32819,28.492344185,-81.472448161,131,"6654 WINDER OAKS BLVD, ORLANDO, FL, 32819","Match","Exact","6654 WINDER OAKS BLVD, ORLANDO, FL, 32819",94402586,"R"
798132,"6654 WOODVINE DR","CHELSEA","MI",48118,42.3839152560001,-83.999165878,132,"6654 WOODVINE DR, CHELSEA, MI, 48118","Match","Exact","6654 WOODVINE DR, CHELSEA, MI, 48118",627601606,"L"
798133,"6654 XERXES PLACE N","BROOKLYN CENTER","MN",55430,45.0756832610001,-93.319414221,133,"6654 XERXES PLACE N, BROOKLYN CENTER, MN, 55430","Match","Exact","6654 XERXES PL N, BROOKLYN CENTER, MN, 55430",43829982,"L"
798134,"6655  100TH AVE NORTH","PINELLAS PARK","FL",33782,27.862434754,-82.729916154,134,"6655  100TH AVE NORTH, PINELLAS PARK, FL, 33782","Match","Non_Exact","6655 100TH AVE, PINELLAS PARK, FL, 33782",124687393,"R"
798135,"6655 24TH","SACRAMENTO","CA",95822,38.505079605,-121.482846431,135,"6655 24TH, SACRAMENTO, CA, 95822","Match","Non_Exact","6655 24TH ST, SACRAMENTO, CA, 95822",133417849,"L"
798136,"6655 AMETRINE COURT","MIRA LOMA","CA",91752,33.9673966010001,-117.542257214,136,"6655 AMETRINE COURT, MIRA LOMA, CA, 91752","Match","Exact","6655 AMETRINE CT, MIRA LOMA, CA, 91752",627217144,"R"
798137,"6655 ARAPAHOE ROAD UNIT A","BOULDER","CO",80303,40.0146744900001,-105.197349993,137,"6655 ARAPAHOE ROAD UNIT A, BOULDER, CO, 80303","Match","Exact","6655 ARAPAHOE RD, BOULDER, CO, 80303",220751121,"L"
798138,"6655 CANYON WAY DRIVE","HOUSTON","TX",77086,29.932258523,-95.484138603,138,"6655 CANYON WAY DRIVE, HOUSTON, TX, 77086","Match","Exact","6655 CANYON WAY DR, HOUSTON, TX, 77086",96011619,"R"
798139,"6655 CHAPEL XING","WILLIAMSBURG","VA",23188,37.3443092960001,-76.7703203729999,139,"6655 CHAPEL XING, WILLIAMSBURG, VA, 23188","Match","Exact","6655 CHAPEL CROSSING, WILLIAMSBURG, VA, 23188",615841417,"L"
798140,"6655 CR 203","CLYDE","TX",79510,NA,NA,140,"6655 CR 203, CLYDE, TX, 79510","No_Match",NA,NA,NA,NA
798141,"6655 DESEO","IRVING","TX",75039,32.8994105140001,-96.938262739,141,"6655 DESEO, IRVING, TX, 75039","Match","Exact","6655 DESEO, IRVING, TX, 75039",617055083,"L"
798142,"6655 ERSHIG RD","BOW","WA",98232,48.550158756,-122.378612029,142,"6655 ERSHIG RD, BOW, WA, 98232","Match","Exact","6655 ERSHIG RD, BOW, WA, 98232",183642257,"R"
798143,"6655 GRAHAM CIR","CITRUS HEIGHTS","CA",95610,38.6869876120001,-121.28613805,143,"6655 GRAHAM CIR, CITRUS HEIGHTS, CA, 95610","Match","Exact","6655 GRAHAM CIR, CITRUS HEIGHTS, CA, 95610",133344216,"R"
798144,"6655 HILLCROFT SUITE 225","HOUSTON","TX",77081,29.7083470750001,-95.4930888649999,144,"6655 HILLCROFT SUITE 225, HOUSTON, TX, 77081","Match","Non_Exact","6655 HILLCROFT ST, HOUSTON, TX, 77081",96031808,"L"
798145,"6655 HWY 105","BEAUMONT","TX",77708,30.133254031,-94.1792314039999,145,"6655 HWY 105, BEAUMONT, TX, 77708","Match","Non_Exact","6655 STATE HWY 105, BEAUMONT, TX, 77708",73849392,"L"
798146,"6655 JACKSON RD LOT 428","ANN ARBOR","MI",48103,42.2915623040001,-83.860017107,146,"6655 JACKSON RD LOT 428, ANN ARBOR, MI, 48103","Match","Exact","6655 JACKSON RD, ANN ARBOR, MI, 48103",26026495,"L"
798147,"6655 JACKSON ROAD 558","ANN ARBOR","MI",48103,42.2915623040001,-83.860017107,147,"6655 JACKSON ROAD 558, ANN ARBOR, MI, 48103","Match","Exact","6655 JACKSON RD, ANN ARBOR, MI, 48103",26026495,"L"
798148,"6655 JACKSON ROAD UNIT 827","ANN ARBOR","MI",48103,42.2915623040001,-83.860017107,148,"6655 JACKSON ROAD UNIT 827, ANN ARBOR, MI, 48103","Match","Exact","6655 JACKSON RD, ANN ARBOR, MI, 48103",26026495,"L"
798149,"6655 JACKSON ROAD UNIT 827","ANN ARBORR","MI",48103,42.2915623040001,-83.860017107,149,"6655 JACKSON ROAD UNIT 827, ANN ARBORR, MI, 48103","Match","Non_Exact","6655 JACKSON RD, ANN ARBOR, MI, 48103",26026495,"L"
798150,"6655 KEENTOWN ROAD","DUETTE","FL",34219,27.5721704260001,-82.137566017,150,"6655 KEENTOWN ROAD, DUETTE, FL, 34219","Match","Exact","6655 KEENTOWN RD, DUETTE, FL, 34219",16274506,"L"
798151,"6655 KESSLER FREDRICK RD","TIPP CITY","OH",45371,NA,NA,151,"6655 KESSLER FREDRICK RD, TIPP CITY, OH, 45371","No_Match",NA,NA,NA,NA
798152,"6655 LANDMOR DR","GREENWELL SPRINGS","LA",70739,30.514792465,-90.9942192569999,152,"6655 LANDMOR DR, GREENWELL SPRINGS, LA, 70739","Match","Exact","6655 LANDMOR DR, GREENWELL SPRINGS, LA, 70739",92187951,"R"
798153,"6655 LONDON ST","HOUSTON","TX",77021,29.691636826,-95.3517498319999,153,"6655 LONDON ST, HOUSTON, TX, 77021","Match","Exact","6655 LONDON ST, HOUSTON, TX, 77021",96089109,"L"
798154,"6655 LUDINGTON","HOUSTON","TX",77035,29.651400177,-95.5072601369999,154,"6655 LUDINGTON, HOUSTON, TX, 77035","Match","Non_Exact","6655 LUDINGTON DR, HOUSTON, TX, 77035",96598916,"R"
798155,"6655 MAJESTIC PEARL PL","NORTH LAS VEGAS","NV",89084,36.282060705,-115.149795866,155,"6655 MAJESTIC PEARL PL, NORTH LAS VEGAS, NV, 89084","Match","Exact","6655 MAJESTIC PEARL PL, N LAS VEGAS, NV, 89084",201990028,"R"
798156,"6655 MARTINIQUE WAY","VERO BEACH","FL",32967,NA,NA,156,"6655 MARTINIQUE WAY, VERO BEACH, FL, 32967","No_Match",NA,NA,NA,NA
798157,"6655 N CANYON CREST DR  UNIT 9152","TUCSON","AZ",85750,32.3279095980001,-110.854581807,157,"6655 N CANYON CREST DR  UNIT 9152, TUCSON, AZ, 85750","Match","Non_Exact","6655 N CANYON CREST DR, TUCSON, AZ, 85750",121382737,"L"
798158,"6655 N CANYON CREST DR UNIT 5229","TUCSON","AZ",85750,32.3279095980001,-110.854581807,158,"6655 N CANYON CREST DR UNIT 5229, TUCSON, AZ, 85750","Match","Non_Exact","6655 N CANYON CREST DR, TUCSON, AZ, 85750",121382737,"L"
798159,"6655 N CANYON CREST","TUCSON","AZ",85705,NA,NA,159,"6655 N CANYON CREST, TUCSON, AZ, 85705","No_Match",NA,NA,NA,NA
798160,"6655 NASHVILLE HWY","BAXTER","TN",38544,NA,NA,160,"6655 NASHVILLE HWY, BAXTER, TN, 38544","No_Match",NA,NA,NA,NA
798161,"6655 NE 12TH AVE","PLEASANT HILL","IA",50327,41.600619581,-93.474920304,161,"6655 NE 12TH AVE, PLEASANT HILL, IA, 50327","Match","Exact","6655 NE 12TH AVE, PLEASANT HILL, IA, 50327",649437924,"L"
798162,"6655 NW 105TH","MALCOLM","NE",68402,40.8782357740001,-96.8628786689999,162,"6655 NW 105TH, MALCOLM, NE, 68402","Match","Non_Exact","6655 NW 105TH ST, MALCOLM, NE, 68402",653356584,"R"
798163,"6655 OBISPO AVE STE 279","LONG BEACH","CA",90805,33.8756913710001,-118.155652184,163,"6655 OBISPO AVE STE 279, LONG BEACH, CA, 90805","Match","Non_Exact","6655 N OBISPO AVE, LONG BEACH, CA, 90805",141698644,"L"
798164,"6655 OBISPO AVE UNIT 256","LONG BEACH","CA",90805,33.8756913710001,-118.155652184,164,"6655 OBISPO AVE UNIT 256, LONG BEACH, CA, 90805","Match","Non_Exact","6655 N OBISPO AVE, LONG BEACH, CA, 90805",141698644,"L"
798165,"6655 OSCAR CIR","ELK GROVE","CA",95757,38.3881155350001,-121.427761978,165,"6655 OSCAR CIR, ELK GROVE, CA, 95757","Match","Exact","6655 OSCAR CIR, ELK GROVE, CA, 95757",133444280,"L"
798166,"6655 PINETREE LANE","MIAMI BEACH","FL",33141,25.8478009670001,-80.1276256579999,166,"6655 PINETREE LANE, MIAMI BEACH, FL, 33141","Match","Exact","6655 PINETREE LN, MIAMI BEACH, FL, 33141",116008726,"R"
798167,"6655 POST ROAD","DUBLIN","OH",43016,40.1070407280001,-83.1698567289999,167,"6655 POST ROAD, DUBLIN, OH, 43016","Match","Exact","6655 POST RD, DUBLIN, OH, 43016",218661497,"L"
798168,"6655 RIDGE RD","PARMA","OH",44129,41.383287146,-81.734666254,168,"6655 RIDGE RD, PARMA, OH, 44129","Match","Exact","6655 RIDGE RD, PARMA, OH, 44129",61107495,"L"
798169,"6655 RUTLAND STREET","PHILADELPHIA","PA",19149,40.0421582660001,-75.0735716089999,169,"6655 RUTLAND STREET, PHILADELPHIA, PA, 19149","Match","Exact","6655 RUTLAND ST, PHILADELPHIA, PA, 19149",131416150,"R"
798170,"6655 S CODDINGTON AVE","LINCOLN","NE",68523,40.7493787450001,-96.7494784949999,170,"6655 S CODDINGTON AVE, LINCOLN, NE, 68523","Match","Exact","6655 S CODDINGTON AVE, LINCOLN, NE, 68523",28264910,"R"
798171,"6655 S CODDINGTON","LINCOLN","NE",68523,40.7493787450001,-96.7494784949999,171,"6655 S CODDINGTON, LINCOLN, NE, 68523","Match","Non_Exact","6655 S CODDINGTON AVE, LINCOLN, NE, 68523",28264910,"R"
798172,"6655 SILVERMOUND DR","MENTOR","OH",44060,41.690498704,-81.3690045769999,172,"6655 SILVERMOUND DR, MENTOR, OH, 44060","Match","Exact","6655 SILVERMOUND DR, MENTOR, OH, 44060",137472175,"L"
798173,"6655 SILVERMOUND","MENTOR","OH",44060,41.690498704,-81.3690045769999,173,"6655 SILVERMOUND, MENTOR, OH, 44060","Match","Non_Exact","6655 SILVERMOUND DR, MENTOR, OH, 44060",137472175,"L"
798174,"6655 SPRING MIST CT","MASON","OH",45040,39.319454632,-84.344935011,174,"6655 SPRING MIST CT, MASON, OH, 45040","Match","Exact","6655 SPRING MIST CT, MASON, OH, 45040",159036658,"R"
798175,"6655 TRAQUAIR PL","DUBLIN","OH",43016,40.087814893,-83.16874446,175,"6655 TRAQUAIR PL, DUBLIN, OH, 43016","Match","Exact","6655 TRAQUAIR PL, DUBLIN, OH, 43016",218673575,"R"
798176,"6655 TRAQUAIR PLACE","DUBLIN","OH",43016,40.087814893,-83.16874446,176,"6655 TRAQUAIR PLACE, DUBLIN, OH, 43016","Match","Exact","6655 TRAQUAIR PL, DUBLIN, OH, 43016",218673575,"R"
798177,"6655 W JEWELL AVE STE 203","LAKEWOOD","CO",80232,39.68221121,-105.071137402,177,"6655 W JEWELL AVE STE 203, LAKEWOOD, CO, 80232","Match","Non_Exact","6655 W JEWELL AVE, LAKEWOOD, CO, 80232",177801752,"R"
798178,"6655 W JEWELL AVE SUITE 111","LAKEWOOD","CO",80232,39.68221121,-105.071137402,178,"6655 W JEWELL AVE SUITE 111, LAKEWOOD, CO, 80232","Match","Non_Exact","6655 W JEWELL AVE, LAKEWOOD, CO, 80232",177801752,"R"
798179,"6655 W SAHARA AVE STE B200","LAS VEGAS","NV",89146,36.143955513,-115.237365189,179,"6655 W SAHARA AVE STE B200, LAS VEGAS, NV, 89146","Match","Non_Exact","6655 W SAHARA AVE, LAS VEGAS, NV, 89146",635958774,"R"
798180,"6656 DELAWARE BEND","FAIRBURN","GA",30213,33.5757564520001,-84.636141014,180,"6656 DELAWARE BEND, FAIRBURN, GA, 30213","Match","Exact","6656 DELAWARE BND, FAIRBURN, GA, 30213",629548512,"R"
798181,"6656 GUNNELL CT","ORLANDO","FL",32809,28.46359462,-81.3812952499999,181,"6656 GUNNELL CT, ORLANDO, FL, 32809","Match","Exact","6656 GUNNELL CT, ORLANDO, FL, 32809",94290866,"R"
798182,"6656 MAJESTIC PEARL PL","NORTH LAS VEGAS","NV",89084,36.28207251,-115.149763339,182,"6656 MAJESTIC PEARL PL, NORTH LAS VEGAS, NV, 89084","Match","Exact","6656 MAJESTIC PEARL PL, N LAS VEGAS, NV, 89084",201990028,"L"
798183,"6656 NORTH 80TH PL","SCOTTSDALE","AZ",85250,33.5339279450001,-111.908072219,183,"6656 NORTH 80TH PL, SCOTTSDALE, AZ, 85250","Match","Exact","6656 N 80TH PL, SCOTTSDALE, AZ, 85250",128229197,"L"
798184,"6656 SAN MIGUEL RD","BONITA","CA",91902,32.6815891320001,-116.991134021,184,"6656 SAN MIGUEL RD, BONITA, CA, 91902","Match","Exact","6656 SAN MIGUEL RD, BONITA, CA, 91902",195704248,"R"
798185,"6656 WYNNE AVENUE","RESEDA","CA",91335,34.191093133,-118.529907961,185,"6656 WYNNE AVENUE, RESEDA, CA, 91335","Match","Exact","6656 WYNNE AVE, RESEDA, CA, 91335",640416282,"R"
798186,"6657 AUDUBON TRACE","WEST PALM BEACH","FL",33412,26.779173085,-80.2126145569999,186,"6657 AUDUBON TRACE, WEST PALM BEACH, FL, 33412","Match","Non_Exact","6657 AUDUBON TRCE W, WEST PALM BEACH, FL, 33412",115338057,"R"
798187,"6657 BLOSSONWOOD DRIVE","ST LOUIS","MO",63033,38.7974384450001,-90.234926432,187,"6657 BLOSSONWOOD DRIVE, ST LOUIS, MO, 63033","Match","Non_Exact","6657 BLOSSOM WOOD DR, FLORISSANT, MO, 63033",100148458,"R"
798188,"6657 CHERRY AVENUE","BAKERSFIELD","CA",93314,35.4218713390001,-119.243049572,188,"6657 CHERRY AVENUE, BAKERSFIELD, CA, 93314","Match","Exact","6657 CHERRY AVE, BAKERSFIELD, CA, 93314",109562967,"L"
798189,"6657 COOK HILLS RD","BURLESON","TX",76028,32.5194159370001,-97.23010156,189,"6657 COOK HILLS RD, BURLESON, TX, 76028","Match","Exact","6657 COOK HILLS RD, BURLESON, TX, 76028",103556878,"R"
798190,"6657 DELAWARE BEND","FAIRBURN","GA",30213,33.5757758140001,-84.6361538789999,190,"6657 DELAWARE BEND, FAIRBURN, GA, 30213","Match","Exact","6657 DELAWARE BND, FAIRBURN, GA, 30213",629548512,"L"
798191,"6657 E STATE ROAD 32","UNION CITY","IN",47390,40.178439729,-84.849389462,191,"6657 E STATE ROAD 32, UNION CITY, IN, 47390","Match","Exact","6657 STATE RD 32, UNION CITY, IN, 47390",31226138,"R"
798192,"6657 EL COLEGIO RD APT 22","GOLETA","CA",93117,34.4173000370001,-119.860350909,192,"6657 EL COLEGIO RD APT 22, GOLETA, CA, 93117","Match","Exact","6657 EL COLEGIO RD, GOLETA, CA, 93117",108600737,"L"
798193,"6657 ETTERLEE DRIVE","STONE MOUNTAIN","GA",30087,33.7685773920001,-84.1171244929999,193,"6657 ETTERLEE DRIVE, STONE MOUNTAIN, GA, 30087","Match","Exact","6657 ETTERLEE DR, STONE MOUNTAIN, GA, 30087",23394850,"R"
798194,"6657 FIELDER RD","REX","GA",30273,33.5730456480001,-84.290519011,194,"6657 FIELDER RD, REX, GA, 30273","Match","Exact","6657 FIELDER RD, REX, GA, 30273",653474716,"R"
798195,"6657 FIELDER","REX","GA",30273,33.5730456480001,-84.290519011,195,"6657 FIELDER, REX, GA, 30273","Match","Non_Exact","6657 FIELDER RD, REX, GA, 30273",653474716,"R"
798196,"6657 MATILIJA AVE","VAN NUYS","CA",91405,34.191379156,-118.4334399,196,"6657 MATILIJA AVE, VAN NUYS, CA, 91405","Match","Exact","6657 MATILIJA AVE, VAN NUYS, CA, 91405",141561241,"L"
798197,"6657 MERRY LANE","HOUSTON","TX",77023,29.7188692720001,-95.311565634,197,"6657 MERRY LANE, HOUSTON, TX, 77023","Match","Exact","6657 MERRY LN, HOUSTON, TX, 77023",96082728,"L"
798198,"6657 MIRA BEAU DRIVE","NEWARK","CA",94556,37.543314202,-122.049824343,198,"6657 MIRA BEAU DRIVE, NEWARK, CA, 94556","Match","Non_Exact","6657 MIRABEAU DR, NEWARK, CA, 94560",125027208,"R"
798199,"6657 MONTICELLO LANE","MEMPHIS","TN",38115,35.0591451380001,-89.840547982,199,"6657 MONTICELLO LANE, MEMPHIS, TN, 38115","Match","Exact","6657 MONTICELLO LN, MEMPHIS, TN, 38115",72969437,"R"
798200,"6657 RIVERSIDE DR","TINLEY PARK","IL",60477,NA,NA,200,"6657 RIVERSIDE DR, TINLEY PARK, IL, 60477","No_Match",NA,NA,NA,NA
798201,"6657 S BENTON","KANSAS CITY","MO",64132,39.005952929,-94.552981449,201,"6657 S BENTON, KANSAS CITY, MO, 64132","Match","Non_Exact","6657 S BENTON AVE, KANSAS CITY, MO, 64132",91456786,"L"
798202,"6657 S GALLUP STREET","LITTLETON","CO",80120,39.595874215,-105.002336323,202,"6657 S GALLUP STREET, LITTLETON, CO, 80120","Match","Exact","6657 S GALLUP ST, LITTLETON, CO, 80120",177336686,"R"
798203,"6657 VIRGINIA PARKWAY SUITE 100","MCKINNEY","TX",75071,NA,NA,203,"6657 VIRGINIA PARKWAY SUITE 100, MCKINNEY, TX, 75071","No_Match",NA,NA,NA,NA
798204,"6657 VIRGINIA PARKWAY","MCKINNEY","TX",75071,NA,NA,204,"6657 VIRGINIA PARKWAY, MCKINNEY, TX, 75071","No_Match",NA,NA,NA,NA
798205,"6658 BARTMER AVE","ST LOUIS","MO",63130,38.6648313680001,-90.305857084,205,"6658 BARTMER AVE, ST LOUIS, MO, 63130","Match","Exact","6658 BARTMER AVE, SAINT LOUIS, MO, 63130",100152137,"L"
798206,"6658 BLUE POND BLVD E","SYLVANIA","AL",35988,NA,NA,206,"6658 BLUE POND BLVD E, SYLVANIA, AL, 35988","No_Match",NA,NA,NA,NA
798207,"6658 E 10TH ST","INDIANAPOLIS","IN",46219,39.7817131360001,-86.052448364,207,"6658 E 10TH ST, INDIANAPOLIS, IN, 46219","Match","Exact","6658 E 10TH ST, INDIANAPOLIS, IN, 46219",108003483,"L"
798208,"6658 JUDY LANE","RIVERDALE","GA",30296,33.5725795130001,-84.457568292,208,"6658 JUDY LANE, RIVERDALE, GA, 30296","Match","Exact","6658 JUDY LN, RIVERDALE, GA, 30296",646184744,"L"
798209,"6658 LAKE STREET","MOBILE","AL",36618,30.721438172,-88.197897357,209,"6658 LAKE STREET, MOBILE, AL, 36618","Match","Exact","6658 LAKE ST, MOBILE, AL, 36618",61846682,"R"
798210,"6658 LINCOLN DRIVE","PHILADELPHIA","PA",19119,40.044317044,-75.193225275,210,"6658 LINCOLN DRIVE, PHILADELPHIA, PA, 19119","Match","Exact","6658 LINCOLN DR, PHILADELPHIA, PA, 19119",131394613,"L"
798211,"6658 M-33","ONAWAY","MI",49765,NA,NA,211,"6658 M-33, ONAWAY, MI, 49765","No_Match",NA,NA,NA,NA
798212,"6658 MILLER SHADOW LN","SUGAR LAND","TX",77479,29.5275156340001,-95.565366334,212,"6658 MILLER SHADOW LN, SUGAR LAND, TX, 77479","Match","Exact","6658 MILLER SHADOW LN, SUGAR LAND, TX, 77479",646470079,"R"
798213,"6658 NORTH 56TH STREET","MILWAUKEE","WI",53223,43.138683573,-87.981953865,213,"6658 NORTH 56TH STREET, MILWAUKEE, WI, 53223","Match","Exact","6658 N 56TH ST, MILWAUKEE, WI, 53223",77726520,"R"
798214,"6658 NOWHERE ROAD","HULL","GA",30646,34.076894845,-83.3509868679999,214,"6658 NOWHERE ROAD, HULL, GA, 30646","Match","Exact","6658 NOWHERE RD, HULL, GA, 30646",5015295,"R"
798215,"6658 NW 4TH AVE","OCALA","FL",34475,29.2558366490001,-82.139542417,215,"6658 NW 4TH AVE, OCALA, FL, 34475","Match","Exact","6658 NW 4TH AVE, OCALA, FL, 34475",116707346,"L"
798216,"6658 OLD HWY 64 E","HAYESVILLE","NC",28904,NA,NA,216,"6658 OLD HWY 64 E, HAYESVILLE, NC, 28904","Tie",NA,NA,NA,NA
798217,"6658 PHEASANT RUN","CIRCLE PINES","MN",55014,45.1465627600001,-93.087348977,217,"6658 PHEASANT RUN, CIRCLE PINES, MN, 55014","Match","Exact","6658 PHEASANT RUN, CIRCLE PINES, MN, 55014",97493024,"R"
798218,"6658 RD 123","BROADWATER","NE",69125,41.478163098,-102.867967891,218,"6658 RD 123, BROADWATER, NE, 69125","Match","Exact","6658 RD 123, BROADWATER, NE, 69125",136720105,"L"
798219,"6658 REBECCA LOU LANE","LITHONIA","GA",30058,33.7518428180001,-84.1194483799999,219,"6658 REBECCA LOU LANE, LITHONIA, GA, 30058","Match","Exact","6658 REBECCA LOU LN, LITHONIA, GA, 30058",615312634,"L"
798220,"6658 RIDGEWAY DRIVE","MOORESVILLE","IN",46158,39.5814007290001,-86.304622296,220,"6658 RIDGEWAY DRIVE, MOORESVILLE, IN, 46158","Match","Exact","6658 RIDGEWAY DR, MOORESVILLE, IN, 46158",43558107,"L"
798221,"6658 ROAD 123","BROADWATER","NE",69125,41.478163098,-102.867967891,221,"6658 ROAD 123, BROADWATER, NE, 69125","Match","Exact","6658 RD 123, BROADWATER, NE, 69125",136720105,"L"
798222,"6658 S MINERVA","CHICAGE","IL",60637,41.7739792570001,-87.597277832,222,"6658 S MINERVA, CHICAGE, IL, 60637","Match","Non_Exact","6658 S MINERVA AVE, CHICAGO, IL, 60637",111774199,"R"
798223,"6658 STATE ROUTE 45","BRITSTOLVILLE","OH",44402,41.3992801430001,-80.8690530109999,223,"6658 STATE ROUTE 45, BRITSTOLVILLE, OH, 44402","Match","Non_Exact","6658 STATE RTE 45, BRISTOLVILLE, OH, 44402",117422348,"L"
798224,"6658 SUMMIT CITY RD","KINGSLEY","MI",49649,44.589599779,-85.5158486,224,"6658 SUMMIT CITY RD, KINGSLEY, MI, 49649","Match","Exact","6658 SUMMIT CITY RD, KINGSLEY, MI, 49649",145523586,"L"
798225,"6658 THORNTON AVE","NEWARK","CA",94560,37.532043034,-122.034492946,225,"6658 THORNTON AVE, NEWARK, CA, 94560","Match","Exact","6658 THORNTON AVE, NEWARK, CA, 94560",618777605,"L"
798226,"6658 TITIAN AVENUE","BATON ROUGE","LA",70806,30.4559752910001,-91.121820773,226,"6658 TITIAN AVENUE, BATON ROUGE, LA, 70806","Match","Exact","6658 TITIAN AVE, BATON ROUGE, LA, 70806",92189246,"R"
798227,"66582 EAST BAY DRIVE","NORTH BEND","OR",97459,43.4273337880001,-124.20257639,227,"66582 EAST BAY DRIVE, NORTH BEND, OR, 97459","Match","Exact","66582 E BAY DR, NORTH BEND, OR, 97459",137022829,"L"
798228,"6659 62ND AVE NW","BERTHOLD","ND",58718,NA,NA,228,"6659 62ND AVE NW, BERTHOLD, ND, 58718","No_Match",NA,NA,NA,NA
798229,"6659 ADRIATIC WAY","GREEN ACRES","FL",33413,26.685239805,-80.14226963,229,"6659 ADRIATIC WAY, GREEN ACRES, FL, 33413","Match","Exact","6659 ADRIATIC WAY, GREEN ACRES, FL, 33413",636846021,"R"
798230,"6659 ADRIATIC WAY","GREENACRES","FL",33413,26.685239805,-80.14226963,230,"6659 ADRIATIC WAY, GREENACRES, FL, 33413","Match","Exact","6659 ADRIATIC WAY, GREENACRES, FL, 33413",636846021,"R"
798231,"6659 BRAEMAR AVE S","NOBLESVILLE","IN",46062,NA,NA,231,"6659 BRAEMAR AVE S, NOBLESVILLE, IN, 46062","No_Match",NA,NA,NA,NA
798232,"6659 BROKEN ARROW ROAD","FORT MYERS","FL",33912,26.508430348,-81.8442194849999,232,"6659 BROKEN ARROW ROAD, FORT MYERS, FL, 33912","Match","Exact","6659 BROKEN ARROW RD, FORT MYERS, FL, 33912",118039468,"R"
798233,"6659 COLDSTREAM DR","NEW MARKET","MD",21774,39.4116122790001,-77.310055075,233,"6659 COLDSTREAM DR, NEW MARKET, MD, 21774","Match","Exact","6659 COLDSTREAM DR, NEW MARKET, MD, 21774",647320492,"R"
798234,"6659 COLTON RD","LAFAYETTE","NY",13084,NA,NA,234,"6659 COLTON RD, LAFAYETTE, NY, 13084","No_Match",NA,NA,NA,NA
798235,"6659 CRENSHAW DR","PARMA HEIGHTS","OH",44130,41.3834984650001,-81.766505971,235,"6659 CRENSHAW DR, PARMA HEIGHTS, OH, 44130","Match","Exact","6659 CRENSHAW DR, PARMA HEIGHTS, OH, 44130",61104326,"L"
798236,"6659 E WHISPERING MESQUITE TRL","SCOTTSDALE","AZ",85266,33.7979673890001,-111.937868001,236,"6659 E WHISPERING MESQUITE TRL, SCOTTSDALE, AZ, 85266","Match","Exact","6659 E WHISPERING MESQUITE TRL, SCOTTSDALE, AZ, 85266",128585269,"R"
798237,"6659 EAST MEADOWLARK LANE","PARADISE VALLEY","AZ",85253,33.5402897610001,-111.936917805,237,"6659 EAST MEADOWLARK LANE, PARADISE VALLEY, AZ, 85253","Match","Exact","6659 E MEADOWLARK LN, PARADISE VALLEY, AZ, 85253",128920900,"R"
798238,"6659 EDMONTON AVE","SAN DIEGO","CA",92122,32.858643622,-117.202320846,238,"6659 EDMONTON AVE, SAN DIEGO, CA, 92122","Match","Exact","6659 EDMONTON AVE, SAN DIEGO, CA, 92122",195302175,"R"
798239,"6659 FERNWOOD DR","LISLE","IL",60532,41.764208459,-88.104980348,239,"6659 FERNWOOD DR, LISLE, IL, 60532","Match","Exact","6659 FERNWOOD DR, LISLE, IL, 60532",112733717,"R"
798240,"6659 FISHER RIDGE RD","LIBERTY","WV",25124,38.61758688,-81.717142713,240,"6659 FISHER RIDGE RD, LIBERTY, WV, 25124","Match","Exact","6659 FISHER RIDGE RD, LIBERTY, WV, 25124",649985594,"R"
798241,"6659 JERMAR LN NW","SEABECK","WA",98380,47.625133003,-122.891448092,241,"6659 JERMAR LN NW, SEABECK, WA, 98380","Match","Exact","6659 JERMAR LN NW, SEABECK, WA, 98380",187653657,"L"
798242,"6659 LIBERTY CT","LIBERTY TWP","OH",45044,39.3809366,-84.369557464,242,"6659 LIBERTY CT, LIBERTY TWP, OH, 45044","Match","Exact","6659 LIBERTY CT, LIBERTY TOWNSHIP, OH, 45044",113810455,"L"
798243,"6659 LIBERTY PARK DR","LIBERTY TWP","OH",45044,39.384030453,-84.38984835,243,"6659 LIBERTY PARK DR, LIBERTY TWP, OH, 45044","Match","Exact","6659 LIBERTY PARK DR, LIBERTY TOWNSHIP, OH, 45044",113808849,"L"
798244,"6659 PAXTON GUINEA RD","LOVELAND","OH",45140,39.2308691870001,-84.24209182,244,"6659 PAXTON GUINEA RD, LOVELAND, OH, 45140","Match","Exact","6659 PAXTON GUINEA RD, LOVELAND, OH, 45140",118466750,"L"
798245,"6659 PIPESTONE RD","EAU CLAIRE","MI",49111,41.9970780130001,-86.3169581069999,245,"6659 PIPESTONE RD, EAU CLAIRE, MI, 49111","Match","Exact","6659 PIPESTONE RD, EAU CLAIRE, MI, 49111",119976246,"R"
798246,"6659 RIVERVIEW RD","RIVERTON","WY",82501,43.0410050610001,-108.508383738,246,"6659 RIVERVIEW RD, RIVERTON, WY, 82501","Match","Exact","6659 RIVERVIEW RD, RIVERTON, WY, 82501",148474719,"L"
798247,"6659 SCHAEFER RD 155","DEARBORN","MI",48126,42.3394980800001,-83.176665063,247,"6659 SCHAEFER RD 155, DEARBORN, MI, 48126","Match","Exact","6659 SCHAEFER RD, DEARBORN, MI, 48126",95443907,"L"
798248,"6659 VACHON CT","BLOOMFIELD HILLS","MI",48301,42.5424536260001,-83.2997857399999,248,"6659 VACHON CT, BLOOMFIELD HILLS, MI, 48301","Match","Exact","6659 VACHON CT, BLOOMFIELD HILLS, MI, 48301",69795853,"L"
798249,"6659 WASHINGTON AVE APT 1W","ST. LOUIS","MO",63130,38.6548846370001,-90.30669227,249,"6659 WASHINGTON AVE APT 1W, ST. LOUIS, MO, 63130","Match","Exact","6659 WASHINGTON AVE, SAINT LOUIS, MO, 63130",100153260,"R"
798250,"6659 WEST MILL ROAD","MILWAUKEE","WI",53218,43.134038264,-87.995226256,250,"6659 WEST MILL ROAD, MILWAUKEE, WI, 53218","Match","Exact","6659 W MILL RD, MILWAUKEE, WI, 53218",633435596,"L"
798251,"6659 WINDSONG","SAN BERNARDINO","CA",92407,NA,NA,251,"6659 WINDSONG, SAN BERNARDINO, CA, 92407","No_Match",NA,NA,NA,NA
798252,"666 27TH AVENUE 1","SAN FRANCISCO","CA",94121,37.77686542,-122.486642768,252,"666 27TH AVENUE 1, SAN FRANCISCO, CA, 94121","Match","Exact","666 27TH AVE, SAN FRANCISCO, CA, 94121",192277313,"L"
798253,"666 60TH ST","BROOKLYN","NY",11220,40.637291573,-74.012541503,253,"666 60TH ST, BROOKLYN, NY, 11220","Match","Exact","666 60TH ST, BROOKLYN, NY, 11220",59094598,"R"
798254,"666 BROADWAY","NEW YORK","NY",10012,40.727257539,-73.995219401,254,"666 BROADWAY, NEW YORK, NY, 10012","Match","Exact","666 BROADWAY, NEW YORK, NY, 10012",59653875,"R"
798255,"666 DAVIS COURT","CROWN POINT","IN",46307,41.408769067,-87.3763690179999,255,"666 DAVIS COURT, CROWN POINT, IN, 46307","Match","Non_Exact","666 DAVIS CIR, CROWN POINT, IN, 46307",606280815,"R"
798256,"666 DUNDEE ROAD SUITE 308","NORTHBROOK","IL",60062,42.137945825,-87.7953846359999,256,"666 DUNDEE ROAD SUITE 308, NORTHBROOK, IL, 60062","Match","Exact","666 DUNDEE RD, NORTHBROOK, IL, 60062",111839960,"R"
798257,"666 E 141 ST STREET","BRONX","NJ",10454,NA,NA,257,"666 E 141 ST STREET, BRONX, NJ, 10454","No_Match",NA,NA,NA,NA
798258,"666 EAST 59TH ST","BROOKLYN","NY",11234,40.6379216340001,-73.920230612,258,"666 EAST 59TH ST, BROOKLYN, NY, 11234","Match","Exact","666 E 59TH ST, BROOKLYN, NY, 11234",59086071,"R"
798259,"666 EAST SIDE AVENUE","ATLANTA","GA",30316,33.7355689620001,-84.339945272,259,"666 EAST SIDE AVENUE, ATLANTA, GA, 30316","Match","Non_Exact","666 E SIDE AVE SE, ATLANTA, GA, 30316",23365720,"L"
798260,"666 EASTLAND AVE","AKRON","OH",44305,41.082262427,-81.470506476,260,"666 EASTLAND AVE, AKRON, OH, 44305","Match","Exact","666 EASTLAND AVE, AKRON, OH, 44305",61351081,"L"
798261,"666 ELM ST","BUFFALO","NY",14263,42.897958676,-78.865192465,261,"666 ELM ST, BUFFALO, NY, 14263","Match","Non_Exact","666 ELM ST, BUFFALO, NY, 14203",48290938,"R"
798262,"666 FENTON STREET","SAN JOSE","CA",95127,37.3851336230001,-121.833110293,262,"666 FENTON STREET, SAN JOSE, CA, 95127","Match","Exact","666 FENTON ST, SAN JOSE, CA, 95127",122964827,"R"
798263,"666 FRANKLIN STREET","DANVILLE","VA",24541,36.578843152,-79.388801899,263,"666 FRANKLIN STREET, DANVILLE, VA, 24541","Match","Exact","666 FRANKLIN ST, DANVILLE, VA, 24541",56590297,"R"
798264,"666 GRAND AVENUE SUITE 2000","DES MOINES","IA",50309,41.58758011,-93.6261001889999,264,"666 GRAND AVENUE SUITE 2000, DES MOINES, IA, 50309","Match","Exact","666 GRAND AVE, DES MOINES, IA, 50309",65782856,"L"
798265,"666 GREEN VALLEY CIRCLE STE 216","CULVER CITY","CA",90230,NA,NA,265,"666 GREEN VALLEY CIRCLE STE 216, CULVER CITY, CA, 90230","No_Match",NA,NA,NA,NA
798266,"666 GREENWICH APT 523","NY","NY",10014,40.7322183480001,-74.007697048,266,"666 GREENWICH APT 523, NY, NY, 10014","Match","Non_Exact","666 GREENWICH ST, NEW YORK, NY, 10014",59659878,"L"
798267,"666 GREENWICH ST APT 519","NEW YORK","NY",10014,40.7322183480001,-74.007697048,267,"666 GREENWICH ST APT 519, NEW YORK, NY, 10014","Match","Exact","666 GREENWICH ST, NEW YORK, NY, 10014",59659878,"L"
798268,"666 GREENWICH STREET APT 310","NEW YORK","NY",10014,40.7322183480001,-74.007697048,268,"666 GREENWICH STREET APT 310, NEW YORK, NY, 10014","Match","Exact","666 GREENWICH ST, NEW YORK, NY, 10014",59659878,"L"
798269,"666 GREENWICH STREET APT 558","NEW YORK","NY",10014,40.7322183480001,-74.007697048,269,"666 GREENWICH STREET APT 558, NEW YORK, NY, 10014","Match","Exact","666 GREENWICH ST, NEW YORK, NY, 10014",59659878,"L"
798270,"666 GROVE STREET","RIDGEWOOD","NJ",7450,40.9652726840001,-74.0987792609999,270,"666 GROVE STREET, RIDGEWOOD, NJ, 7450","Match","Exact","666 GROVE ST, RIDGEWOOD, NJ, 07450",64377225,"R"
798271,"666 HANCOCK STREET APT 1F","BROOKLYN","NY",11233,40.6849892650001,-73.92864221,271,"666 HANCOCK STREET APT 1F, BROOKLYN, NY, 11233","Match","Exact","666 HANCOCK ST, BROOKLYN, NY, 11233",652210778,"R"
798272,"666 HENDRICKS AVE","LOS ANGELES","CA",90022,34.019749168,-118.13918488,272,"666 HENDRICKS AVE, LOS ANGELES, CA, 90022","Match","Non_Exact","666 S HENDRICKS AVE, LOS ANGELES, CA, 90022",141639138,"L"
798273,"666 HOUSTON AVENUE APT 406","TAKOMA PARK","MD",20912,38.990423757,-77.004224725,273,"666 HOUSTON AVENUE APT 406, TAKOMA PARK, MD, 20912","Match","Exact","666 HOUSTON AVE, TAKOMA PARK, MD, 20912",639109406,"L"
798274,"666 JUNE STREET","CINCINNATI","OH",45206,39.1283641850001,-84.495210444,274,"666 JUNE STREET, CINCINNATI, OH, 45206","Match","Exact","666 JUNE ST, CINCINNATI, OH, 45206",103926018,"L"
798275,"666 MACDONOUGH ST  APT1","BROOKLYN","NY",11233,40.683788588,-73.9195154299999,275,"666 MACDONOUGH ST  APT1, BROOKLYN, NY, 11233","Match","Exact","666 MACDONOUGH ST, BROOKLYN, NY, 11233",642653807,"R"
798276,"666 MILL ST UNIT C2","BELLEVILLE","NJ",7109,40.7912386360001,-74.1762360499999,276,"666 MILL ST UNIT C2, BELLEVILLE, NJ, 7109","Match","Exact","666 MILL ST, BELLEVILLE, NJ, 07109",63494738,"R"
798277,"666 MOUNT PARAN ROAD NW","ATLANTA","GA",30327,33.882623849,-84.40795873,277,"666 MOUNT PARAN ROAD NW, ATLANTA, GA, 30327","Match","Exact","666 MOUNT PARAN RD NW, ATLANTA, GA, 30327",17334245,"L"
798278,"666 N KEIM STREET","POTTSTOWN","PA",19464,40.250898471,-75.620735885,278,"666 N KEIM STREET, POTTSTOWN, PA, 19464","Match","Exact","666 N KEIM ST, POTTSTOWN, PA, 19464",135062946,"R"
798279,"666 NE 125TH STREET SUITE 238","NORTH MIAMI","FL",33161,25.890337871,-80.185098356,279,"666 NE 125TH STREET SUITE 238, NORTH MIAMI, FL, 33161","Match","Non_Exact","666 NE 125TH ST, NORTH MIAMI, FL, 33161",116034504,"R"
798280,"666 NELSON RD","GEORGETOWN","SC",29440,NA,NA,280,"666 NELSON RD, GEORGETOWN, SC, 29440","No_Match",NA,NA,NA,NA
798281,"666 NEWARK AVE","JERSEY CITY","NJ",7306,40.7344786690001,-74.058953316,281,"666 NEWARK AVE, JERSEY CITY, NJ, 7306","Match","Exact","666 NEWARK AVE, JERSEY CITY, NJ, 07306",59605060,"R"
798282,"666 OLD COUNTRY ROAD 7TH FLOOR","GARDEN CITY","NY",11530,NA,NA,282,"666 OLD COUNTRY ROAD 7TH FLOOR, GARDEN CITY, NY, 11530","No_Match",NA,NA,NA,NA
798283,"666 PARKER ST APT 204","DETROIT","MI",48214,42.352497553,-82.99440634,283,"666 PARKER ST APT 204, DETROIT, MI, 48214","Match","Exact","666 PARKER ST, DETROIT, MI, 48214",95716103,"R"
798284,"666 PROSPECT STREET APT 706","HONOLULU","HI",96813,21.3094431750001,-157.849503372,284,"666 PROSPECT STREET APT 706, HONOLULU, HI, 96813","Match","Exact","666 PROSPECT ST, HONOLULU, HI, 96813",203258120,"L"
798285,"666 S BLUFF ST LOT 790","SOUTH BELOIT","IL",61080,42.486132877,-89.051717819,285,"666 S BLUFF ST LOT 790, SOUTH BELOIT, IL, 61080","Match","Non_Exact","666 S BLUFF ST, SOUTH BELOIT, IL, 61080",49275438,"L"
798286,"666 S PEARL ST APT 2","DENVER","CO",80209,39.7267069260001,-104.979928454,286,"666 S PEARL ST APT 2, DENVER, CO, 80209","Match","Non_Exact","666 PEARL ST, DENVER, CO, 80203",177331434,"R"
798287,"666 SOUTH 880 WEST UNIT 6","PROVO","UT",84601,40.2246564230001,-111.673980115,287,"666 SOUTH 880 WEST UNIT 6, PROVO, UT, 84601","Match","Exact","666 S 880 W, PROVO, UT, 84601",134254747,"R"
798288,"666 ST NICHOLAS APT 5B","HARLEM","NY",10030,NA,NA,288,"666 ST NICHOLAS APT 5B, HARLEM, NY, 10030","No_Match",NA,NA,NA,NA
798289,"666 SYLVANER WAY","FREMONT","CA",94539,37.467568468,-121.90819632,289,"666 SYLVANER WAY, FREMONT, CA, 94539","Match","Exact","666 SYLVANER WAY, FREMONT, CA, 94539",125042574,"L"
798290,"666 TOMI LEA STREET","LOS ALTOS","CA",94024,37.392842068,-122.116271017,290,"666 TOMI LEA STREET, LOS ALTOS, CA, 94024","Match","Non_Exact","666 TOMI LEA ST, LOS ALTOS, CA, 94022",122953066,"L"
798291,"666 VAN EMBURGH AVE","TWP OF WASHINGTON","NJ",7676,40.996664939,-74.074722529,291,"666 VAN EMBURGH AVE, TWP OF WASHINGTON, NJ, 7676","Match","Exact","666 VAN EMBURGH AVE, TOWNSHIP OF WASHINGTON, NJ, 07676",64417885,"L"
798292,"666 W 188TH STREET 6D","NEW YORK","NY",10040,40.8543248500001,-73.93205484,292,"666 W 188TH STREET 6D, NEW YORK, NY, 10040","Match","Non_Exact","666 W 188TH ST, NEW YORK, NY, 10040",59659032,"L"
798293,"666 W GERMANTOWN PIKE APT 2413","PLYMOUTH MEETING","PA",19462,40.1203167800001,-75.2873903509999,293,"666 W GERMANTOWN PIKE APT 2413, PLYMOUTH MEETING, PA, 19462","Match","Non_Exact","666 W GERMANTOWN PIKE, PLYMOUTH MEETING, PA, 19462",605623862,"R"
798294,"666 WEST END AVE 8RS","NEW YORK","NY",10025,40.792957829,-73.9748740809999,294,"666 WEST END AVE 8RS, NEW YORK, NY, 10025","Match","Exact","666 W END AVE, NEW YORK, NY, 10025",59656695,"R"
798295,"666 WEST END AVE APT 2J","NEW YORK","NY",10025,40.792957829,-73.9748740809999,295,"666 WEST END AVE APT 2J, NEW YORK, NY, 10025","Match","Exact","666 W END AVE, NEW YORK, NY, 10025",59656695,"R"
798296,"666 WEST END AVE","NEW YORK","NY",10025,40.792957829,-73.9748740809999,296,"666 WEST END AVE, NEW YORK, NY, 10025","Match","Exact","666 W END AVE, NEW YORK, NY, 10025",59656695,"R"
798297,"666 WEST END AVENUE -21A","NEW YORK","NY",10025,40.792957829,-73.9748740809999,297,"666 WEST END AVENUE -21A, NEW YORK, NY, 10025","Match","Exact","666 W END AVE, NEW YORK, NY, 10025",59656695,"R"
798298,"666 YORKTOWN PLACE","PARAMUS","NJ",7652,40.970517811,-74.089896123,298,"666 YORKTOWN PLACE, PARAMUS, NJ, 7652","Match","Exact","666 YORKTOWN PL, PARAMUS, NJ, 07652",64377408,"R"
798299,"6660 AVON LAKE RD","MEDINA","OH",44256,41.0923686940001,-82.024371394,299,"6660 AVON LAKE RD, MEDINA, OH, 44256","Match","Exact","6660 AVON LAKE RD, MEDINA, OH, 44256",635557018,"L"
798300,"6660 BISCAYNE BLVD","MIAMI","FL",33138,25.8370307100001,-80.184200803,300,"6660 BISCAYNE BLVD, MIAMI, FL, 33138","Match","Exact","6660 BISCAYNE BLVD, MIAMI, FL, 33138",629019904,"R"
798301,"6660 BRAINARD AVENUE","COUNTRYSIDE","IL",60525,41.770440717,-87.877384408,301,"6660 BRAINARD AVENUE, COUNTRYSIDE, IL, 60525","Match","Non_Exact","6660 S BRAINARD AVE, COUNTRYSIDE, IL, 60525",111867528,"R"
798302,"6660 CAMBRIDGE STREET","BATON ROUGE","LA",70807,30.510717331,-91.162294142,302,"6660 CAMBRIDGE STREET, BATON ROUGE, LA, 70807","Match","Exact","6660 CAMBRIDGE ST, BATON ROUGE, LA, 70807",92179937,"R"
798303,"6660 CR 510","BAYFIELD","CO",81122,37.1990480970001,-107.665106328,303,"6660 CR 510, BAYFIELD, CO, 81122","Match","Exact","6660 CO RD 510, BAYFIELD, CO, 81122",91711101,"R"
798304,"6660 CREEKSTONE LANE","GRAND RAPIDS","MI",49548,42.8423974240001,-85.673329245,304,"6660 CREEKSTONE LANE, GRAND RAPIDS, MI, 49548","Match","Non_Exact","6660 CREEKSTONE LN SW, GRAND RAPIDS, MI, 49548",12471735,"L"
798305,"6660 DELMONICO DR SUITE D 272","COLORADO SPRINGS","CO",80919,NA,NA,305,"6660 DELMONICO DR SUITE D 272, COLORADO SPRINGS, CO, 80919","No_Match",NA,NA,NA,NA
798306,"6660 DOUBLETREE AVENUE SUITE 8","COLUMBUS","OH",43229,40.1015296840001,-82.987126218,306,"6660 DOUBLETREE AVENUE SUITE 8, COLUMBUS, OH, 43229","Match","Exact","6660 DOUBLETREE AVE, COLUMBUS, OH, 43229",135569945,"R"
798307,"6660 HAZELNUT CIRCLE","EAST SYRACUSE","NY",13057,43.101525763,-76.0623283529999,307,"6660 HAZELNUT CIRCLE, EAST SYRACUSE, NY, 13057","Match","Exact","6660 HAZELNUT CIR, EAST SYRACUSE, NY, 13057",640508474,"R"
798308,"6660 MABLETON PKWY  SE 2107","MABLETON","GA",30126,33.7918466150001,-84.557163864,308,"6660 MABLETON PKWY  SE 2107, MABLETON, GA, 30126","Match","Exact","6660 MABLETON PKWY SE, MABLETON, GA, 30126",616602569,"R"
798309,"6660 N DAMEN AVE APT 3E","CHICAGO","IL",60645,42.0024257470001,-87.6802883829999,309,"6660 N DAMEN AVE APT 3E, CHICAGO, IL, 60645","Match","Non_Exact","6660 N DAMEN AVE, CHICAGO, IL, 60645",111891784,"L"
798310,"6660 NE BAYVIEW BLVD","BAINBRIDGE ISLAND","WA",98110,47.673166199,-122.5614734,310,"6660 NE BAYVIEW BLVD, BAINBRIDGE ISLAND, WA, 98110","Match","Exact","6660 NE BAYVIEW BLVD, BAINBRIDGE ISLAND, WA, 98110",187666965,"R"
798311,"6660 NW 4 CT","PLANTATION","FL",33317,26.1275581690001,-80.236958385,311,"6660 NW 4 CT, PLANTATION, FL, 33317","Match","Exact","6660 NW 4TH CT, PLANTATION, FL, 33317",114753162,"L"
798312,"6660 QUILEN RD","SHREVEPORT","LA",71108,32.447940493,-93.793198567,312,"6660 QUILEN RD, SHREVEPORT, LA, 71108","Match","Exact","6660 QUILEN RD, SHREVEPORT, LA, 71108",57488513,"R"
798313,"6660 S CALVARY LANE","HEREFORD","AZ",85615,NA,NA,313,"6660 S CALVARY LANE, HEREFORD, AZ, 85615","No_Match",NA,NA,NA,NA
798314,"6660 S SAN FERNANDO RD","TUCSON","AZ",85756,32.1310849970001,-110.973363402,314,"6660 S SAN FERNANDO RD, TUCSON, AZ, 85756","Match","Non_Exact","6660 S SAN FERNANDO AVE, TUCSON, AZ, 85756",121185721,"R"
798315,"6660 S STAR RIDGE PL","TUCSON","AZ",85757,32.1302952450001,-111.121949278,315,"6660 S STAR RIDGE PL, TUCSON, AZ, 85757","Match","Exact","6660 S STAR RIDGE PL, TUCSON, AZ, 85757",618983390,"R"
798316,"6660 SE 5TH STREET APT1","DES MOINES","IA",50315,41.523149216,-93.606437597,316,"6660 SE 5TH STREET APT1, DES MOINES, IA, 50315","Match","Non_Exact","6660 SE 5TH ST, DES MOINES, IA, 50315",65851493,"R"
798317,"6660 TECH CENTER DRIVE","COLORADO SPRINGS","CO",80919,NA,NA,317,"6660 TECH CENTER DRIVE, COLORADO SPRINGS, CO, 80919","No_Match",NA,NA,NA,NA
798318,"6660 VERSAILLES RD","LAKEVIEW","NY",14085,42.704689897,-78.934110017,318,"6660 VERSAILLES RD, LAKEVIEW, NY, 14085","Match","Non_Exact","6660 VERSAILLES RD, LAKE VIEW, NY, 14085",48293061,"R"
798319,"6660 VINSON","MACON","GA",31204,NA,NA,319,"6660 VINSON, MACON, GA, 31204","No_Match",NA,NA,NA,NA
798320,"6660 WASHINGTON","ROMULUS","MI",48185,NA,NA,320,"6660 WASHINGTON, ROMULUS, MI, 48185","No_Match",NA,NA,NA,NA
798321,"66609 PHEASANT RUN","LINO LAKES","MN",55014,NA,NA,321,"66609 PHEASANT RUN, LINO LAKES, MN, 55014","No_Match",NA,NA,NA,NA
798322,"6661 GILES ROAD 205","PAPILLION","NE",68133,41.1762113030001,-96.015367033,322,"6661 GILES ROAD 205, PAPILLION, NE, 68133","Match","Exact","6661 GILES RD, PAPILLION, NE, 68133",629114067,"L"
798323,"6661 GREEN BRANCH DRIVE UNIT 1","CENTERVILLE","OH",45459,NA,NA,323,"6661 GREEN BRANCH DRIVE UNIT 1, CENTERVILLE, OH, 45459","No_Match",NA,NA,NA,NA
798324,"6661 OLD PORTER RD","PORTAGE","IN",46368,41.5940713190001,-87.157575505,324,"6661 OLD PORTER RD, PORTAGE, IN, 46368","Match","Exact","6661 OLD PORTER RD, PORTAGE, IN, 46368",119908812,"R"
798325,"6661 OLD PORTER ROAD","PORTAGE","IN",46368,41.5940713190001,-87.157575505,325,"6661 OLD PORTER ROAD, PORTAGE, IN, 46368","Match","Exact","6661 OLD PORTER RD, PORTAGE, IN, 46368",119908812,"R"
798326,"6661 S PLEASANT GROVE ROAD","INVERNESS","FL",34452,28.7673157200001,-82.3529025029999,326,"6661 S PLEASANT GROVE ROAD, INVERNESS, FL, 34452","Match","Exact","6661 S PLEASANT GROVE RD, INVERNESS, FL, 34452",610733399,"R"
798327,"6661 SMUCKER DRIVE","WESTFIELD CENTER","OH",44251,41.034417795,-81.929272808,327,"6661 SMUCKER DRIVE, WESTFIELD CENTER, OH, 44251","Match","Exact","6661 SMUCKER DR, WESTFIELD CENTER, OH, 44251",58692518,"L"
798328,"6661 STATE RT 194","COLFAX","WA",99111,46.7582029330001,-117.444205806,328,"6661 STATE RT 194, COLFAX, WA, 99111","Match","Exact","6661 STATE RTE 194, COLFAX, WA, 99111",610903581,"R"
798329,"6661 WITHERS COURT","MOBILE","AL",36618,30.722643029,-88.197788413,329,"6661 WITHERS COURT, MOBILE, AL, 36618","Match","Exact","6661 WITHERS CT, MOBILE, AL, 36618",61846719,"L"
798330,"66610 KIRKWOOD HTS RD","BELLAIRE","OH",43906,NA,NA,330,"66610 KIRKWOOD HTS RD, BELLAIRE, OH, 43906","No_Match",NA,NA,NA,NA
798331,"66610 YUCCA DRIVE","DESERT HOT SPRINGS","CA",92240,33.9745376720001,-116.499035676,331,"66610 YUCCA DRIVE, DESERT HOT SPRINGS, CA, 92240","Match","Exact","66610 YUCCA DR, DESERT HOT SPRINGS, CA, 92240",651720059,"R"
798332,"6662 CHAPMAN AVE","GARDEN GROVE","CA",92845,33.788389572,-118.017078057,332,"6662 CHAPMAN AVE, GARDEN GROVE, CA, 92845","Match","Non_Exact","6662 W CHAPMAN AVE, GARDEN GROVE, CA, 92845",144004254,"R"
798333,"6662 COVERED BRIDGE TRL","SUN PRAIRIE","WI",53590,43.213623173,-89.251523498,333,"6662 COVERED BRIDGE TRL, SUN PRAIRIE, WI, 53590","Match","Exact","6662 COVERED BRIDGE TRL, SUN PRAIRIE, WI, 53590",647095369,"R"
798334,"6662 DEBRA LU WAY","SPRINGFIELD","VA",22150,38.773853912,-77.159637064,334,"6662 DEBRA LU WAY, SPRINGFIELD, VA, 22150","Match","Exact","6662 DEBRA LU WAY, SPRINGFIELD, VA, 22150",76040694,"L"
798335,"6662 ETTERLEE DRIVE","STONE MOUNTAIN","GA",30087,33.768587197,-84.117008389,335,"6662 ETTERLEE DRIVE, STONE MOUNTAIN, GA, 30087","Match","Exact","6662 ETTERLEE DR, STONE MOUNTAIN, GA, 30087",23394850,"L"
798336,"6662 GRAYSTONE LANE","SAN JOSE","CA",95120,37.222053563,-121.848714622,336,"6662 GRAYSTONE LANE, SAN JOSE, CA, 95120","Match","Exact","6662 GRAYSTONE LN, SAN JOSE, CA, 95120",123179801,"R"
798337,"6662 MARBLE ST","WEST RICHLAND","WA",99353,46.2902026090001,-119.37460489,337,"6662 MARBLE ST, WEST RICHLAND, WA, 99353","Match","Exact","6662 MARBLE ST, WEST RICHLAND, WA, 99353",653052648,"R"
798338,"6662 NORTH 54TH STREET","MILWAUKEE","WI",53223,43.138919447,-87.979461965,338,"6662 NORTH 54TH STREET, MILWAUKEE, WI, 53223","Match","Exact","6662 N 54TH ST, MILWAUKEE, WI, 53223",77726534,"R"
798339,"6662 PLAZA RIDGE RD","SAN DIEGO","CA",92114,32.6893661190001,-117.053305082,339,"6662 PLAZA RIDGE RD, SAN DIEGO, CA, 92114","Match","Exact","6662 PLAZA RIDGE RD, SAN DIEGO, CA, 92114",195353780,"L"
798340,"6662 WAVERLY ST","KANSAS CITY","KS",66104,39.1310892880001,-94.7330079769999,340,"6662 WAVERLY ST, KANSAS CITY, KS, 66104","Match","Non_Exact","6662 WAVERLY AVE, KANSAS CITY, KS, 66104",91133471,"R"
798341,"66629 INDIAN HILLS WAY","SALOME","AZ",85348,33.7593735070001,-113.616451586,341,"66629 INDIAN HILLS WAY, SALOME, AZ, 85348","Match","Exact","66629 INDIAN HILLS WAY, SALOME, AZ, 85348",129742855,"L"
798342,"6663 ALANA PL","LIBERTY TWP","OH",45011,NA,NA,342,"6663 ALANA PL, LIBERTY TWP, OH, 45011","Tie",NA,NA,NA,NA
798343,"6663 HALL AVE","MADISON","OH",44057,41.8344440860001,-81.049015826,343,"6663 HALL AVE, MADISON, OH, 44057","Match","Exact","6663 HALL AVE, MADISON, OH, 44057",137468058,"R"
798344,"6663 HEARTWOOD DR","OAKLAND","CA",94611,37.8340236980001,-122.202056716,344,"6663 HEARTWOOD DR, OAKLAND, CA, 94611","Match","Exact","6663 HEARTWOOD DR, OAKLAND, CA, 94611",633926189,"L"
798345,"6663 LONG BEACH","LONG BEACH","CA",90805,33.8754389430001,-118.203095464,345,"6663 LONG BEACH, LONG BEACH, CA, 90805","Match","Non_Exact","6663 LONG BEACH BLVD, LONG BEACH, CA, 90805",142650972,"L"
798346,"6663 SW BEAVERTON HILLSDALE HWY 212","PORTLAND","OR",97225,45.487053485,-122.744457512,346,"6663 SW BEAVERTON HILLSDALE HWY 212, PORTLAND, OR, 97225","Match","Non_Exact","6663 SW BEAVERTON-HILLSDALE HWY, PORTLAND, OR, 97225",634871688,"R"
798347,"6663 SW BEAVERTON HILLSDALE HWY","BEAVERTON","OR",97225,45.487053485,-122.744457512,347,"6663 SW BEAVERTON HILLSDALE HWY, BEAVERTON, OR, 97225","Match","Non_Exact","6663 SW BEAVERTON-HILLSDALE HWY, PORTLAND, OR, 97225",634871688,"R"
798348,"6663 W HOWARD","NILES","IL",60714,42.0191435620001,-87.7929173269999,348,"6663 W HOWARD, NILES, IL, 60714","Match","Non_Exact","6663 W HOWARD ST, NILES, IL, 60714",111735966,"L"
798349,"6663 WARRINER WAY","CANAL WINCHESTER","OH",43110,39.8660905140001,-82.821028164,349,"6663 WARRINER WAY, CANAL WINCHESTER, OH, 43110","Match","Exact","6663 WARRINER WAY, CANAL WINCHESTER, OH, 43110",218640869,"R"
798350,"6663 WILLOW SPRINGS","BATON ROUGE","LA",70811,30.5234483570001,-91.123763684,350,"6663 WILLOW SPRINGS, BATON ROUGE, LA, 70811","Match","Non_Exact","6663 WILLOW SPRINGS AVE, BATON ROUGE, LA, 70811",617552438,"L"
798351,"66635 CASA GRANDE DRIVE","DESERT HOT SPRINGS","CA",92240,33.9818429540001,-116.498859164,351,"66635 CASA GRANDE DRIVE, DESERT HOT SPRINGS, CA, 92240","Match","Exact","66635 CASA GRANDE DR, DESERT HOT SPRINGS, CA, 92240",194690552,"L"
798352,"6664 CENTER ROAD PO BOX 366","VALLEY CITY","OH",44280,41.2375866720001,-81.927029154,352,"6664 CENTER ROAD PO BOX 366, VALLEY CITY, OH, 44280","Match","Exact","6664 CENTER RD, VALLEY CITY, OH, 44280",636550288,"R"
798353,"6664 COTTONWOOD KNOLL","WEST BLOOMFIELD","MI",48322,42.54054087,-83.346918869,353,"6664 COTTONWOOD KNOLL, WEST BLOOMFIELD, MI, 48322","Match","Exact","6664 COTTONWOOD KNOLL, W BLOOMFIELD, MI, 48322",69727157,"R"
798354,"6664 GLENROSE LANE","MAUMEE","OH",43537,41.598389948,-83.700727899,354,"6664 GLENROSE LANE, MAUMEE, OH, 43537","Match","Exact","6664 GLENROSE LN, MAUMEE, OH, 43537",33930249,"L"
798355,"6664 SHAWBUTTE ST","POLAND","OH",44514,41.021124281,-80.594860852,355,"6664 SHAWBUTTE ST, POLAND, OH, 44514","Match","Exact","6664 SHAWBUTTE ST, POLAND, OH, 44514",64600436,"R"
798356,"6664 SOUTH PARKEDGE CIRCLE","FRANKLIN","WI",53132,42.9244874820001,-88.040705752,356,"6664 SOUTH PARKEDGE CIRCLE, FRANKLIN, WI, 53132","Match","Non_Exact","6664 PARKEDGE CIR, FRANKLIN, WI, 53132",612193432,"L"
798357,"6664 SUNSET PARK","REX","GA",30273,33.5726826540001,-84.2688093259999,357,"6664 SUNSET PARK, REX, GA, 30273","Match","Exact","6664 SUNSET PARK, REX, GA, 30273",649998524,"L"
798358,"6664 TIMOTHY LAKE ROAD","E STROUDSBURG","PA",18302,41.109575598,-75.061355425,358,"6664 TIMOTHY LAKE ROAD, E STROUDSBURG, PA, 18302","Match","Exact","6664 TIMOTHY LAKE RD, E STROUDSBURG, PA, 18302",136762139,"R"
798359,"6664 W FAIRMONT AVE","FRESNO","CA",93723,36.805821015,-119.909949061,359,"6664 W FAIRMONT AVE, FRESNO, CA, 93723","Match","Exact","6664 W FAIRMONT AVE, FRESNO, CA, 93723",619120746,"R"
798360,"6664 W FAIRMONT","FRESNO","CA",93723,36.805821015,-119.909949061,360,"6664 W FAIRMONT, FRESNO, CA, 93723","Match","Non_Exact","6664 W FAIRMONT AVE, FRESNO, CA, 93723",619120746,"R"
798361,"66641 16TH STREET","SOUTH HAVEN","MI",49090,42.36066092,-86.193148516,361,"66641 16TH STREET, SOUTH HAVEN, MI, 49090","Match","Non_Exact","66641 16TH AVE, SOUTH HAVEN, MI, 49090",34774671,"R"
798362,"6665 146TH ROAD N","PALM BEACH GARDENS","FL",33418,26.89176553,-80.139383622,362,"6665 146TH ROAD N, PALM BEACH GARDENS, FL, 33418","Match","Exact","6665 146TH RD N, PALM BEACH GARDENS, FL, 33418",115262712,"L"
798363,"6665 ANCHOR LOOP APT 203","BRADENTON","FL",34212,27.5049676040001,-82.475295183,363,"6665 ANCHOR LOOP APT 203, BRADENTON, FL, 34212","Match","Exact","6665 ANCHOR LOOP, BRADENTON, FL, 34212",633729695,"R"
798364,"6665 CHASE ST","BEAUMONT","TX",77708,30.1385222260001,-94.179815891,364,"6665 CHASE ST, BEAUMONT, TX, 77708","Match","Exact","6665 CHASE ST, BEAUMONT, TX, 77708",623939322,"L"
798365,"6665 EDINBOROUGH","WEST BLOOMFIELD","MI",48322,42.5395235550001,-83.350090231,365,"6665 EDINBOROUGH, WEST BLOOMFIELD, MI, 48322","Match","Non_Exact","6665 EDINBOROUGH DR, W BLOOMFIELD, MI, 48322",69727110,"L"
798366,"6665 ENSIGN RD","ENNIS","TX",75119,32.2506276440001,-96.605628208,366,"6665 ENSIGN RD, ENNIS, TX, 75119","Match","Exact","6665 ENSIGN RD, ENNIS, TX, 75119",651347938,"L"
798367,"6665 ESTATE VIEW DR S","BLACKLICK","OH",43004,40.0048151930001,-82.831347287,367,"6665 ESTATE VIEW DR S, BLACKLICK, OH, 43004","Match","Exact","6665 ESTATE VIEW DR S, BLACKLICK, OH, 43004",218487710,"R"
798368,"6665 FRIENDSWAY DRIVE","FORT WORTH","TX",76137,32.863466155,-97.308589083,368,"6665 FRIENDSWAY DRIVE, FORT WORTH, TX, 76137","Match","Exact","6665 FRIENDSWAY DR, FORT WORTH, TX, 76137",619872709,"L"
798369,"6665 KALUA ROAD","BOULDER","CO",80301,40.0563134110001,-105.198110786,369,"6665 KALUA ROAD, BOULDER, CO, 80301","Match","Exact","6665 KALUA RD, BOULDER, CO, 80301",220752138,"L"
798370,"6665 KNIGHT ARNOLD RD EXT APT 3","MEMPHIS","TN",20019,35.060156309,-89.84166062,370,"6665 KNIGHT ARNOLD RD EXT APT 3, MEMPHIS, TN, 20019","Match","Non_Exact","6665 KNIGHT ARNOLD RD EXD, MEMPHIS, TN, 38115",72969425,"R"
798371,"6665 LAKE PARK DRIVE","SACRAMENTO","CA",95831,38.5058848800001,-121.517260076,371,"6665 LAKE PARK DRIVE, SACRAMENTO, CA, 95831","Match","Exact","6665 LAKE PARK DR, SACRAMENTO, CA, 95831",133323005,"L"
798372,"6665 MCLEAN DRIVE","MCLEAN","VA",22101,38.9311139640001,-77.1700731719999,372,"6665 MCLEAN DRIVE, MCLEAN, VA, 22101","Match","Exact","6665 MCLEAN DR, MCLEAN, VA, 22101",76046840,"R"
798373,"6665 MISSION GORGE RD","SAN DIEGO","CA",92120,32.7944112800001,-117.096707543,373,"6665 MISSION GORGE RD, SAN DIEGO, CA, 92120","Match","Exact","6665 MISSION GORGE RD, SAN DIEGO, CA, 92120",195321916,"R"
798374,"6665 NORTH OCEAN BLVD","OCEAN RIDGE","FL",33435,26.5345950710001,-80.047226254,374,"6665 NORTH OCEAN BLVD, OCEAN RIDGE, FL, 33435","Match","Exact","6665 N OCEAN BLVD, OCEAN RIDGE, FL, 33435",115296573,"R"
798375,"6665 POND APPLE ROAD","BOCA RATON","FL",33433,26.363525903,-80.1478534779999,375,"6665 POND APPLE ROAD, BOCA RATON, FL, 33433","Match","Exact","6665 POND APPLE RD, BOCA RATON, FL, 33433",115575062,"R"
798376,"6665 WINCHESTER ROAD","CARROLL","OH",43112,39.7994674510001,-82.720603302,376,"6665 WINCHESTER ROAD, CARROLL, OH, 43112","Match","Non_Exact","6665 WINCHESTER RD NW, CARROLL, OH, 43112",37229940,"L"
798377,"6666 BARRETT RD","GENEVA","OH",44041,41.6896738450001,-80.990754277,377,"6666 BARRETT RD, GENEVA, OH, 44041","Match","Exact","6666 BARRETT RD, GENEVA, OH, 44041",117316917,"L"
798378,"6666 CHIMNEY ROCK APT 60","HOUSTON","TX",77081,29.7080789230001,-95.4762985,378,"6666 CHIMNEY ROCK APT 60, HOUSTON, TX, 77081","Match","Non_Exact","6666 CHIMNEY ROCK RD, HOUSTON, TX, 77081",96609430,"R"
798379,"6666 FERGUSON DR","COMMERCE","CA",90040,34.008168595,-118.129055158,379,"6666 FERGUSON DR, COMMERCE, CA, 90040","Match","Non_Exact","6666 FERGUSON DR, COMMERCE, CA, 90022",142848459,"R"
798380,"6666 GREEN VALLEY CIRCLE STE 216","CULVER CITY","CA",90230,33.9790057590001,-118.385455356,380,"6666 GREEN VALLEY CIRCLE STE 216, CULVER CITY, CA, 90230","Match","Exact","6666 GREEN VALLEY CIR, CULVER CITY, CA, 90230",141794980,"L"
798381,"6666 GREEN VALLEY CIRCLE","CULVER CITY","CA",90230,33.9790057590001,-118.385455356,381,"6666 GREEN VALLEY CIRCLE, CULVER CITY, CA, 90230","Match","Exact","6666 GREEN VALLEY CIR, CULVER CITY, CA, 90230",141794980,"L"
798382,"6666 HARWIN DR SUITE 340","HOUSTON","TX",77036,29.719742952,-95.499660252,382,"6666 HARWIN DR SUITE 340, HOUSTON, TX, 77036","Match","Exact","6666 HARWIN DR, HOUSTON, TX, 77036",96614574,"R"
798383,"6666 HILLGROVE DR","SAN DIEGO","CA",92120,32.781212968,-117.053597426,383,"6666 HILLGROVE DR, SAN DIEGO, CA, 92120","Match","Exact","6666 HILLGROVE DR, SAN DIEGO, CA, 92120",195323680,"L"
798384,"6666 LS ISLAND ROAD","GLOUCESTER","VA",23061,37.3906330630001,-76.467564861,384,"6666 LS ISLAND ROAD, GLOUCESTER, VA, 23061","Match","Non_Exact","6666 LS ISLAND LN, GLOUCESTER, VA, 23061",168223630,"L"
798385,"6666 MULBERRY CIRCLE EAST","CHANHASSEN","MN",55317,44.883145142,-93.552506589,385,"6666 MULBERRY CIRCLE EAST, CHANHASSEN, MN, 55317","Match","Exact","6666 MULBERRY CIR E, CHANHASSEN, MN, 55317",43499900,"R"
798386,"6666 N SNOWFLAKE DR","FLAGSTAFF","AZ",86004,35.2395240230001,-111.574365291,386,"6666 N SNOWFLAKE DR, FLAGSTAFF, AZ, 86004","Match","Exact","6666 N SNOWFLAKE DR, FLAGSTAFF, AZ, 86004",188863003,"L"
798387,"6666 OAKLAND CT","NEWBURGH","IN",47630,37.992801292,-87.3713403629999,387,"6666 OAKLAND CT, NEWBURGH, IN, 47630","Match","Exact","6666 OAKLAND CT, NEWBURGH, IN, 47630",32217381,"L"
798388,"6666 ODANA RD STE 375","MADISON","WI",53719,43.0563613580001,-89.495929406,388,"6666 ODANA RD STE 375, MADISON, WI, 53719","Match","Exact","6666 ODANA RD, MADISON, WI, 53719",49536540,"R"
798389,"6666 ODANA ROAD SUITE 221","MADISON","WI",53719,43.0563613580001,-89.495929406,389,"6666 ODANA ROAD SUITE 221, MADISON, WI, 53719","Match","Exact","6666 ODANA RD, MADISON, WI, 53719",49536540,"R"
798390,"6666 PARKSHADOW CT NE","KEIZER","OR",97303,45.016099077,-123.016415731,390,"6666 PARKSHADOW CT NE, KEIZER, OR, 97303","Match","Exact","6666 PARKSHADOW CT NE, KEIZER, OR, 97303",156267897,"R"
798391,"6666 RIDGE AVENUE","PHILADELPHIA","PA",19128,40.0407512880001,-75.224800446,391,"6666 RIDGE AVENUE, PHILADELPHIA, PA, 19128","Match","Exact","6666 RIDGE AVE, PHILADELPHIA, PA, 19128",131393673,"L"
798392,"6666 SPEAR STREET","SHELBURNE","VT",5482,NA,NA,392,"6666 SPEAR STREET, SHELBURNE, VT, 5482","No_Match",NA,NA,NA,NA
798393,"6666 W MICHAEL PL","MICHIGAN CITY","IN",46360,41.6703151730001,-86.829225943,393,"6666 W MICHAEL PL, MICHIGAN CITY, IN, 46360","Match","Exact","6666 MICHAEL PL, MICHIGAN CITY, IN, 46360",15414213,"L"
798394,"6666 W WASHINGTON AVENUE APT 390","LAS VEGAS","NV",87107,NA,NA,394,"6666 W WASHINGTON AVENUE APT 390, LAS VEGAS, NV, 87107","No_Match",NA,NA,NA,NA
798395,"66664  180TH STREET","DARWIN","MN",55324,45.0084180100001,-94.4266445659999,395,"66664  180TH STREET, DARWIN, MN, 55324","Match","Exact","66664 180TH ST, DARWIN, MN, 55324",36985732,"L"
798396,"66665 FRY CT","HOMER","AK",99603,59.6819714390001,-151.643743048,396,"66665 FRY CT, HOMER, AK, 99603","Match","Exact","66665 FRY CT, HOMER, AK, 99603",627243698,"R"
798397,"6667 ARGONNE BOULEVARD","NEW ORLEANS","LA",70124,30.011106827,-90.1018075819999,397,"6667 ARGONNE BOULEVARD, NEW ORLEANS, LA, 70124","Match","Exact","6667 ARGONNE BLVD, NEW ORLEANS, LA, 70124",191733682,"L"
798398,"6667 COUNTY ROAD 214","KEYSTONE HEIGHTS","FL",32656,29.742278636,-82.016689882,398,"6667 COUNTY ROAD 214, KEYSTONE HEIGHTS, FL, 32656","Match","Exact","6667 CO RD 214, KEYSTONE HEIGHTS, FL, 32656",606128861,"R"
798399,"6667 HILLBRIAR DRIVE","DALLAS","TX",75248,32.9533785100001,-96.795472209,399,"6667 HILLBRIAR DRIVE, DALLAS, TX, 75248","Match","Exact","6667 HILLBRIAR DR, DALLAS, TX, 75248",102900409,"L"
798400,"6667 KENNEDY AVE","CINCINNATI","OH",45213,39.1905958850001,-84.4150168899999,400,"6667 KENNEDY AVE, CINCINNATI, OH, 45213","Match","Exact","6667 KENNEDY AVE, CINCINNATI, OH, 45213",103931857,"L"
798401,"6667 SNYDER RD","BERRIEN SPRINGS","MI",49103,41.928150261,-86.297005992,401,"6667 SNYDER RD, BERRIEN SPRINGS, MI, 49103","Match","Exact","6667 SNYDER RD, BERRIEN SPRINGS, MI, 49103",119985798,"L"
798402,"66671 SAN MARCUS","DESERT HOT SPRINGS","CA",92240,33.972884617,-116.498436615,402,"66671 SAN MARCUS, DESERT HOT SPRINGS, CA, 92240","Match","Non_Exact","66671 SAN MARCUS RD, DESERT HOT SPRINGS, CA, 92240",194690601,"L"
798403,"66674 E HWY 26","WELCHES","OR",97067,45.3532604480001,-121.979282903,403,"66674 E HWY 26, WELCHES, OR, 97067","Match","Non_Exact","66674 US HWY 26, WELCHES, OR, 97067",157958088,"L"
798404,"6668 APPLERIDGE DR","YOUNGSTOWN","OH",44512,41.0293350630001,-80.642644713,404,"6668 APPLERIDGE DR, YOUNGSTOWN, OH, 44512","Match","Exact","6668 APPLERIDGE DR, YOUNGSTOWN, OH, 44512",64599124,"R"
798405,"6668 ASPERN DRIVE","ELKRIDGE","MD",21075,39.187995044,-76.786979031,405,"6668 ASPERN DRIVE, ELKRIDGE, MD, 21075","Match","Exact","6668 ASPERN DR, ELKRIDGE, MD, 21075",158927820,"L"
798406,"6668 AVENUE M","BROOKLYN","NY",11234,40.623279515,-73.9148249849999,406,"6668 AVENUE M, BROOKLYN, NY, 11234","Match","Exact","6668 AVE M, BROOKLYN, NY, 11234",59102365,"R"
798407,"6668 AVIGNON BLVD","FALLS CHURCH","VA",22043,38.911091721,-77.1751206929999,407,"6668 AVIGNON BLVD, FALLS CHURCH, VA, 22043","Match","Exact","6668 AVIGNON BLVD, FALLS CHURCH, VA, 22043",76038725,"R"
798408,"6668 BALBOA CIRCLE","OCEAN SPRINGS","MS",39564,30.4375085520001,-88.823430703,408,"6668 BALBOA CIRCLE, OCEAN SPRINGS, MS, 39564","Match","Exact","6668 BALBOA CIR, OCEAN SPRINGS, MS, 39564",89257687,"L"
798409,"6668 BARTON","DETROIT","MI",48210,42.34909686,-83.138519635,409,"6668 BARTON, DETROIT, MI, 48210","Match","Non_Exact","6668 BARTON ST, DETROIT, MI, 48210",95471028,"R"
798410,"6668 CHERRY LEAF CT","MASON","OH",45040,39.382876524,-84.333714651,410,"6668 CHERRY LEAF CT, MASON, OH, 45040","Match","Exact","6668 CHERRY LEAF CT, MASON, OH, 45040",159050985,"R"
798411,"6668 E 126TH ST S","BIXBY","OK",74008,35.9811710440001,-95.902518027,411,"6668 E 126TH ST S, BIXBY, OK, 74008","Match","Exact","6668 E 126TH ST S, BIXBY, OK, 74008",624484556,"L"
798412,"6668 EDGEWOOD DR NW","ALBUQUERQUE","NM",87107,35.1545958620001,-106.634014921,412,"6668 EDGEWOOD DR NW, ALBUQUERQUE, NM, 87107","Match","Exact","6668 EDGEWOOD DR NW, ALBUQUERQUE, NM, 87107",206703471,"R"
798413,"6668 RUTHERFORD DRIVE","MACUNGIE","PA",18062,40.536619853,-75.5783356539999,413,"6668 RUTHERFORD DRIVE, MACUNGIE, PA, 18062","Match","Exact","6668 RUTHERFORD DR, MACUNGIE, PA, 18062",627010307,"L"
798414,"6668 S CODY LANE","WEST JORDAN","UT",84084,40.629844774,-111.956271238,414,"6668 S CODY LANE, WEST JORDAN, UT, 84084","Match","Exact","6668 S CODY LN, WEST JORDAN, UT, 84084",176075358,"R"
798415,"6668 SOUTH GARNET WAY","CHANDLER","AZ",85249,33.2092333630001,-111.757319125,415,"6668 SOUTH GARNET WAY, CHANDLER, AZ, 85249","Match","Exact","6668 S GARNET WAY, CHANDLER, AZ, 85249",128873477,"R"
798416,"6668 SPRINGDALE","CINCINNATI","OH",45247,39.2175307260001,-84.661980106,416,"6668 SPRINGDALE, CINCINNATI, OH, 45247","Match","Non_Exact","6668 SPRINGDALE RD, CINCINNATI, OH, 45247",103965997,"R"
798417,"6668 STAUNTON TURNPIKE","DAVISVILLE","WV",26142,39.198510362,-81.4546794359999,417,"6668 STAUNTON TURNPIKE, DAVISVILLE, WV, 26142","Match","Non_Exact","6668 STAUNTON AVE, DAVISVILLE, WV, 26142",90904709,"R"
798418,"6668 W 350 S","EDINBURGH","IN",46124,39.473715031,-85.90573361,418,"6668 W 350 S, EDINBURGH, IN, 46124","Match","Exact","6668 W 350 S, EDINBURGH, IN, 46124",33213560,"L"
798419,"6668 W PASEO CELESTIAL","SAHARITA","AZ",85629,NA,NA,419,"6668 W PASEO CELESTIAL, SAHARITA, AZ, 85629","No_Match",NA,NA,NA,NA
798420,"66687  180TH STREET","DARWIN","MN",55324,45.00840644,-94.424904124,420,"66687  180TH STREET, DARWIN, MN, 55324","Match","Exact","66687 180TH ST, DARWIN, MN, 55324",36985733,"R"
798421,"66687 180TH STREET","DARWIN","MN",55324,45.00840644,-94.424904124,421,"66687 180TH STREET, DARWIN, MN, 55324","Match","Exact","66687 180TH ST, DARWIN, MN, 55324",36985733,"R"
798422,"6669 BON BAY DRIVE","MILTON","FL",32583,30.5213618230001,-87.04365245,422,"6669 BON BAY DRIVE, MILTON, FL, 32583","Match","Exact","6669 BON BAY DR, MILTON, FL, 32583",74604063,"R"
798423,"6669 BRENTRIDGE LANE","LAMBERTVILLE","MI",48144,41.7362029390001,-83.619629505,423,"6669 BRENTRIDGE LANE, LAMBERTVILLE, MI, 48144","Match","Non_Exact","6669 BRENTRIDGE, LAMBERTVILLE, MI, 48144",647563239,"L"
798424,"6669 HAWKSNEST CT","WESTERVILLE","OH",43082,40.1733286460001,-82.915834479,424,"6669 HAWKSNEST CT, WESTERVILLE, OH, 43082","Match","Exact","6669 HAWKSNEST CT, WESTERVILLE, OH, 43082",213002823,"L"
798425,"6669 JACKSON FIELDS CT","CENTREVILLE","VA",20121,38.8207954170001,-77.450434408,425,"6669 JACKSON FIELDS CT, CENTREVILLE, VA, 20121","Match","Exact","6669 JACKSON FIELDS CT, CENTREVILLE, VA, 20121",618801969,"L"
798426,"6669 KODIAK DR","CANAL WINCHESTER","OH",43110,39.8619409080001,-82.822998758,426,"6669 KODIAK DR, CANAL WINCHESTER, OH, 43110","Match","Exact","6669 KODIAK DR, CANAL WINCHESTER, OH, 43110",644744405,"L"
798427,"6669 LA JOLLA DR","RIVERSIDE","CA",92504,33.9514640670001,-117.426954309,427,"6669 LA JOLLA DR, RIVERSIDE, CA, 92504","Match","Exact","6669 LA JOLLA DR, RIVERSIDE, CA, 92504",194739361,"R"
798428,"6669 LAKE CHARLENE DR","PENSACOLA","FL",32506,30.408522673,-87.302721365,428,"6669 LAKE CHARLENE DR, PENSACOLA, FL, 32506","Match","Exact","6669 LAKE CHARLENE DR, PENSACOLA, FL, 32506",93215627,"R"
798429,"6669 MINES RD","WARREN","OH",44484,41.2100293240001,-80.737173748,429,"6669 MINES RD, WARREN, OH, 44484","Match","Non_Exact","6669 MINES RD SE, WARREN, OH, 44484",117420296,"R"
798430,"6669 OVERLOOK RIDGE","ATLANTA","GA",30349,33.6389362560001,-84.605629763,430,"6669 OVERLOOK RIDGE, ATLANTA, GA, 30349","Match","Exact","6669 OVERLOOK RIDGE, ATLANTA, GA, 30349",628099618,"L"
798431,"6669 PARMA PARK BLVD","PARMA HTS","OH",44129,41.3823104690001,-81.7757836979999,431,"6669 PARMA PARK BLVD, PARMA HTS, OH, 44129","Match","Non_Exact","6669 PARMA PARK BLVD, PARMA HEIGHTS, OH, 44130",61104290,"L"
798432,"6669 S 76TH STREET","GREENDALE","WI",53129,42.9252334600001,-88.008965611,432,"6669 S 76TH STREET, GREENDALE, WI, 53129","Match","Exact","6669 S 76TH ST, GREENDALE, WI, 53129",77749677,"R"
798433,"6669 SETTLEMENT RD","GILLETT","WI",54124,44.9187693430001,-88.47924245,433,"6669 SETTLEMENT RD, GILLETT, WI, 54124","Match","Exact","6669 SETTLEMENT RD, GILLETT, WI, 54124",170321594,"L"
798434,"6669-3 LOOKOUT LODGE LN","NORTH LAS VEGAS","NV",89031,36.284166973,-115.185420024,434,"6669-3 LOOKOUT LODGE LN, NORTH LAS VEGAS, NV, 89031","Match","Non_Exact","6669 LOOKOUT LODGE LN, N LAS VEGAS, NV, 89084",613021282,"L"
798435,"666W GERMANTOWN PIKE APT 1221","PLYMOUTH","PA",19462,NA,NA,435,"666W GERMANTOWN PIKE APT 1221, PLYMOUTH, PA, 19462","No_Match",NA,NA,NA,NA
798436,"667 2ND AVE SW","FOREST LAKE","MN",55025,NA,NA,436,"667 2ND AVE SW, FOREST LAKE, MN, 55025","No_Match",NA,NA,NA,NA
798437,"667 33RD STREET","RICHMOND","CA",94804,37.9408137140001,-122.336296961,437,"667 33RD STREET, RICHMOND, CA, 94804","Match","Exact","667 33RD ST, RICHMOND, CA, 94804",652197229,"L"
798438,"667 4TH AVE","SAN FRANCISCO","CA",94118,37.7761291470001,-122.461785574,438,"667 4TH AVE, SAN FRANCISCO, CA, 94118","Match","Exact","667 4TH AVE, SAN FRANCISCO, CA, 94118",192281924,"R"
798439,"667 AVERY ROAD","SAINT PAULS","NC",28384,34.7571897340001,-78.906598446,439,"667 AVERY ROAD, SAINT PAULS, NC, 28384","Match","Exact","667 AVERY RD, SAINT PAULS, NC, 28384",640069076,"R"
798440,"667 B ST","CRESCENT CITY","CA",95531,41.7517705830001,-124.205560648,440,"667 B ST, CRESCENT CITY, CA, 95531","Match","Exact","667 B ST, CRESCENT CITY, CA, 95531",113161967,"R"
798441,"667 BABBITT RD","EUCLID","OH",44123,41.6005300790001,-81.518767579,441,"667 BABBITT RD, EUCLID, OH, 44123","Match","Exact","667 BABBITT RD, EUCLID, OH, 44123",61108436,"L"
798442,"667 BAYFIELD","ROCKTON","IL",61072,42.4602447350001,-89.030420039,442,"667 BAYFIELD, ROCKTON, IL, 61072","Match","Non_Exact","667 BAYFIELD RD, ROCKTON, IL, 61072",640218594,"L"
798443,"667 BEATY DIRVE","CLEVELAND","TN",37312,NA,NA,443,"667 BEATY DIRVE, CLEVELAND, TN, 37312","No_Match",NA,NA,NA,NA
798444,"667 BEAVER RUN TRACE","MCDONOUGH","GA",30253,33.4492631320001,-84.163223309,444,"667 BEAVER RUN TRACE, MCDONOUGH, GA, 30253","Match","Exact","667 BEAVER RUN TRCE, MCDONOUGH, GA, 30253",23202190,"R"
798445,"667 BELLMORE AVE","EAST MEADOW","NY",11554,40.702166849,-73.564921063,445,"667 BELLMORE AVE, EAST MEADOW, NY, 11554","Match","Exact","667 BELLMORE AVE, EAST MEADOW, NY, 11554",147634343,"L"
798446,"667 BENEDICTINE TERRACE","SEBASTIAN","FL",32958,27.768664997,-80.489730283,446,"667 BENEDICTINE TERRACE, SEBASTIAN, FL, 32958","Match","Exact","667 BENEDICTINE TER, SEBASTIAN, FL, 32958",120297514,"L"
798447,"667 BISHOP RD","HIGHLAND HEIGHTS","OH",44143,41.546088216,-81.478418757,447,"667 BISHOP RD, HIGHLAND HEIGHTS, OH, 44143","Match","Exact","667 BISHOP RD, HIGHLAND HEIGHTS, OH, 44143",61149697,"L"
798448,"667 BRASS CASTLE RD","BELVIDERE","NJ",7823,40.7980400390001,-75.0354945879999,448,"667 BRASS CASTLE RD, BELVIDERE, NJ, 7823","Match","Exact","667 BRASS CASTLE RD, BELVIDERE, NJ, 07823",98101087,"L"
798449,"667 BROMLEY","BROMLEY","KY",41017,NA,NA,449,"667 BROMLEY, BROMLEY, KY, 41017","No_Match",NA,NA,NA,NA
798450,"667 BROOKFIELD LANE","ROANOKE","VA",24012,37.346156868,-79.855377366,450,"667 BROOKFIELD LANE, ROANOKE, VA, 24012","Match","Exact","667 BROOKFIELD LN, ROANOKE, VA, 24012",62456262,"R"
798451,"667 CARLYLE AVENUE","FRANKLIN SQUARE","NY",11010,40.6922923480001,-73.670106661,451,"667 CARLYLE AVENUE, FRANKLIN SQUARE, NY, 11010","Match","Exact","667 CARLYLE AVE, FRANKLIN SQUARE, NY, 11010",147674042,"L"
798452,"667 COATES LANE","KING OF PRUSSIA","PA",19406,40.0978934500001,-75.3433812919999,452,"667 COATES LANE, KING OF PRUSSIA, PA, 19406","Match","Exact","667 COATES LN, KING OF PRUSSIA, PA, 19406",647904905,"R"
798453,"667 COLLFIELD AVE","STATEN ISLAND","NY",10314,40.6064950590001,-74.143962412,453,"667 COLLFIELD AVE, STATEN ISLAND, NY, 10314","Match","Exact","667 COLLFIELD AVE, STATEN ISLAND, NY, 10314",59871602,"L"
798454,"667 COLLINGWOOD DR","DECATUR","GA",30032,33.777313335,-84.233749417,454,"667 COLLINGWOOD DR, DECATUR, GA, 30032","Match","Exact","667 COLLINGWOOD DR, DECATUR, GA, 30032",23370104,"R"
798455,"667 CONNER ST","DETROIT","MI",48221,42.3644233970001,-82.9553678509999,455,"667 CONNER ST, DETROIT, MI, 48221","Match","Non_Exact","667 CONNER ST, DETROIT, MI, 48215",95486047,"L"
798456,"667 DUNHAM HILL ROAD","WOODSTOCK","VT",5091,43.5927701620001,-72.5071051429999,456,"667 DUNHAM HILL ROAD, WOODSTOCK, VT, 5091","Match","Exact","667 DUNHAM HILL RD, WOODSTOCK, VT, 05091",139240517,"L"
798457,"667 E BIG BEAVER RD","TROY","MI",48083,42.562969669,-83.13458056,457,"667 E BIG BEAVER RD, TROY, MI, 48083","Match","Exact","667 E BIG BEAVER RD, TROY, MI, 48083",630333262,"L"
798458,"667 E BIG VEAVER ROAD","TROY","MI",48083,42.562969669,-83.13458056,458,"667 E BIG VEAVER ROAD, TROY, MI, 48083","Match","Non_Exact","667 E BIG BEAVER RD, TROY, MI, 48083",630333262,"L"
798459,"667 E COLLEGE AVE","WESTERVILLE","OH",43081,40.125534482,-82.9085028919999,459,"667 E COLLEGE AVE, WESTERVILLE, OH, 43081","Match","Exact","667 E COLLEGE AVE, WESTERVILLE, OH, 43081",218687775,"R"
798460,"667 E KING ST","NEWTON","AL",36352,NA,NA,460,"667 E KING ST, NEWTON, AL, 36352","No_Match",NA,NA,NA,NA
798461,"667 E WARREN AVE","LONGWOOD","FL",32750,28.7002415430001,-81.3347277139999,461,"667 E WARREN AVE, LONGWOOD, FL, 32750","Match","Exact","667 E WARREN AVE, LONGWOOD, FL, 32750",93787266,"L"
798462,"667 EAST MAIN STREET","BREVARD","NC",28712,35.226556316,-82.7272124089999,462,"667 EAST MAIN STREET, BREVARD, NC, 28712","Match","Exact","667 E MAIN ST, BREVARD, NC, 28712",633828747,"R"
798463,"667 EDGEGLEN DRIVE","DALLAS","TX",75217,32.7217224390001,-96.659700867,463,"667 EDGEGLEN DRIVE, DALLAS, TX, 75217","Match","Exact","667 EDGEGLEN DR, DALLAS, TX, 75217",102961737,"L"
798464,"667 ELSMERE PARK","LEXINGTON","KY",40508,38.0560047220001,-84.487356359,464,"667 ELSMERE PARK, LEXINGTON, KY, 40508","Match","Exact","667 ELSMERE PARK, LEXINGTON, KY, 40508",31921954,"L"
798465,"667 FAIRVIEW RD","MCCLURE","PA",17841,40.7282955270001,-77.3234817279999,465,"667 FAIRVIEW RD, MCCLURE, PA, 17841","Match","Non_Exact","667 FAIRVIEW RD, MC CLURE, PA, 17841",47791856,"R"
798466,"667 FLAGSTAFF DR","MONTGOMERY","AL",36109,32.368466755,-86.223195937,466,"667 FLAGSTAFF DR, MONTGOMERY, AL, 36109","Match","Exact","667 FLAGSTAFF DR, MONTGOMERY, AL, 36109",641819571,"R"
798467,"667 FRONTIER RD","SWEETWATER","TN",37874,35.5541056500001,-84.4557774049999,467,"667 FRONTIER RD, SWEETWATER, TN, 37874","Match","Exact","667 FRONTIER RD, SWEETWATER, TN, 37874",85298369,"R"
798468,"667 GENMOORE DR","EVANSVILLE","IN",47715,NA,NA,468,"667 GENMOORE DR, EVANSVILLE, IN, 47715","No_Match",NA,NA,NA,NA
798469,"667 GLENWOOD AVE SE","ATLANTA","GA",30312,33.7422978160001,-84.3657218389999,469,"667 GLENWOOD AVE SE, ATLANTA, GA, 30312","Match","Exact","667 GLENWOOD AVE SE, ATLANTA, GA, 30312",17357575,"R"
798470,"667 GRANT 43","SHERIDAN","AR",72150,34.301638842,-92.444089135,470,"667 GRANT 43, SHERIDAN, AR, 72150","Match","Exact","667 GRANT 43, SHERIDAN, AR, 72150",645662233,"L"
798471,"667 HARMON RD","HOPKINS","SC",29061,33.9647533260001,-80.838265094,471,"667 HARMON RD, HOPKINS, SC, 29061","Match","Exact","667 HARMON RD, HOPKINS, SC, 29061",71871689,"R"
798472,"667 HARRIET AVE","SHOREVIEW","MN",55126,45.046685638,-93.1285185249999,472,"667 HARRIET AVE, SHOREVIEW, MN, 55126","Match","Exact","667 HARRIET AVE, SHOREVIEW, MN, 55126",97642547,"R"
798473,"667 HASTINGS CIRCLE WEST","MEMPHIS","TN",38107,35.1585727900001,-90.0271984949999,473,"667 HASTINGS CIRCLE WEST, MEMPHIS, TN, 38107","Match","Exact","667 HASTINGS CIR W, MEMPHIS, TN, 38107",72950773,"L"
798474,"667 HERITAGE CT","FRIDAY HARBOR","WA",98250,48.52962906,-123.014947363,474,"667 HERITAGE CT, FRIDAY HARBOR, WA, 98250","Match","Exact","667 HERITAGE CT, FRIDAY HARBOR, WA, 98250",652014748,"L"
798475,"667 HILLARY FARM RD","HUDSON","WI",54016,44.9613099320001,-92.626910451,475,"667 HILLARY FARM RD, HUDSON, WI, 54016","Match","Exact","667 HILLARY FARM RD, HUDSON, WI, 54016",110919017,"R"
798476,"667 HILLBURN ROAD","COTTON VALLEY","LA",71018,32.856462435,-93.3997035099999,476,"667 HILLBURN ROAD, COTTON VALLEY, LA, 71018","Match","Non_Exact","667 HILBURN RD, COTTON VALLEY, LA, 71018",73391287,"R"
798477,"667 HUYETT RD","CHARLES TOWN","WV",25414,39.261990364,-77.909385874,477,"667 HUYETT RD, CHARLES TOWN, WV, 25414","Match","Exact","667 HUYETT RD, CHARLES TOWN, WV, 25414",123428347,"R"
798478,"667 KEEPSAKE ROAD","GREENWOOD","IN",46143,39.605505282,-86.053380023,478,"667 KEEPSAKE ROAD, GREENWOOD, IN, 46143","Match","Non_Exact","667 KEEPSAKE RUN, GREENWOOD, IN, 46143",648369153,"L"
798479,"667 MAIN STREET","PRINCETON","ME",4668,45.2017584660001,-67.520514506,479,"667 MAIN STREET, PRINCETON, ME, 4668","Match","Exact","667 MAIN ST, PRINCETON, ME, 04668",124251975,"R"
798480,"667 MANHATTAN AVE","BROOKLYN","NY",11222,40.7247272170001,-73.951339584,480,"667 MANHATTAN AVE, BROOKLYN, NY, 11222","Match","Exact","667 MANHATTAN AVE, BROOKLYN, NY, 11222",59076417,"L"
798481,"667 MATTHEW PL","RICHARDSON","TX",75081,32.941886932,-96.7337291859999,481,"667 MATTHEW PL, RICHARDSON, TX, 75081","Match","Exact","667 MATTHEW PL, RICHARDSON, TX, 75081",639632722,"R"
798482,"667 MELANIE STREET","JESUP","GA",31545,31.6145383950001,-81.905537631,482,"667 MELANIE STREET, JESUP, GA, 31545","Match","Exact","667 MELANIE ST, JESUP, GA, 31545",4835771,"R"
798483,"667 MERIDIAN CIRCLE APT E","COLD SPRING","KY",41076,39.0049444410001,-84.437852166,483,"667 MERIDIAN CIRCLE APT E, COLD SPRING, KY, 41076","Match","Exact","667 MERIDIAN CIR, COLD SPRING, KY, 41076",647703384,"R"
798484,"667 MING LAKE DRIVE","WASHINGTON","MO",63090,38.5258058260001,-90.9244327499999,484,"667 MING LAKE DRIVE, WASHINGTON, MO, 63090","Match","Exact","667 MING LAKE DR, WASHINGTON, MO, 63090",624977843,"R"
798485,"667 N 34TH ST","PHILADELPHIA","PA",19103,39.965882053,-75.191938745,485,"667 N 34TH ST, PHILADELPHIA, PA, 19103","Match","Non_Exact","667 N 34TH ST, PHILADELPHIA, PA, 19104",131403686,"R"
798486,"667 N COVE DR","WEBSTER","NY",14580,43.229715947,-77.5227437679999,486,"667 N COVE DR, WEBSTER, NY, 14580","Match","Exact","667 N COVE DR, WEBSTER, NY, 14580",14551953,"L"
798487,"667 N COVE","WEBSTER","NY",14580,43.229715947,-77.5227437679999,487,"667 N COVE, WEBSTER, NY, 14580","Match","Non_Exact","667 N COVE DR, WEBSTER, NY, 14580",14551953,"L"
798488,"667 N GALLERY DRIVE","EATON RAPIDS","MI",48827,42.503637063,-84.66551028,488,"667 N GALLERY DRIVE, EATON RAPIDS, MI, 48827","Match","Exact","667 N GALLERY DR, EATON RAPIDS, MI, 48827",12040795,"R"
798489,"667 N WAYNE ST","KENTON","OH",43326,40.65663155,-83.606265906,489,"667 N WAYNE ST, KENTON, OH, 43326","Match","Exact","667 N WAYNE ST, KENTON, OH, 43326",36524551,"R"
798490,"667 OAKLAND PL","BRONX","NY",10457,40.8475516980001,-73.889794044,490,"667 OAKLAND PL, BRONX, NY, 10457","Match","Exact","667 OAKLAND PL, BRONX, NY, 10457",80301536,"L"
798491,"667 OFARRELL STREET APARTMENT 2","SAN FRANCISCO","CA",94109,37.78543524,-122.415745241,491,"667 OFARRELL STREET APARTMENT 2, SAN FRANCISCO, CA, 94109","Match","Exact","667 OFARRELL ST, SAN FRANCISCO, CA, 94109",192280716,"L"
798492,"667 OLD SWEDE ROAD","DOUGLASSVILLE","PA",19518,40.280234503,-75.723703262,492,"667 OLD SWEDE ROAD, DOUGLASSVILLE, PA, 19518","Match","Exact","667 OLD SWEDE RD, DOUGLASSVILLE, PA, 19518",653374884,"L"
798493,"667 OLYMPUS BLVD","PORT LUDLOW","WA",98365,47.949955715,-122.68288882,493,"667 OLYMPUS BLVD, PORT LUDLOW, WA, 98365","Match","Exact","667 OLYMPUS BLVD, PORT LUDLOW, WA, 98365",626988332,"L"
798494,"667 OWL CREEK COURT","POWDER SPRINGS","GA",30127,33.9707180980001,-84.712825353,494,"667 OWL CREEK COURT, POWDER SPRINGS, GA, 30127","Match","Exact","667 OWL CREEK CT, POWDER SPGS, GA, 30127",17219320,"L"
798495,"667 PATTERSON MILL ROAD","BARNWELL","SC",29812,33.233699104,-81.406660557,495,"667 PATTERSON MILL ROAD, BARNWELL, SC, 29812","Match","Exact","667 PATTERSON MILL RD, BARNWELL, SC, 29812",19078717,"R"
798496,"667 PHILLIPS RD","SAINT JOSEPH","LA",71366,NA,NA,496,"667 PHILLIPS RD, SAINT JOSEPH, LA, 71366","No_Match",NA,NA,NA,NA
798497,"667 PLEASANT HILL ROAD","MORGANTOWN","WV",26508,39.6249649330001,-79.897075953,497,"667 PLEASANT HILL ROAD, MORGANTOWN, WV, 26508","Match","Exact","667 PLEASANT HILL RD, MORGANTOWN, WV, 26508",50772928,"L"
798498,"667 REAL AVENUE","NEWMAN","CA",95360,37.3227115060001,-121.027183607,498,"667 REAL AVENUE, NEWMAN, CA, 95360","Match","Exact","667 REAL AVE, NEWMAN, CA, 95360",102648069,"R"
798499,"667 RIDGE RD","GEORGETOWN","PA",15043,40.4808105930001,-80.499269641,499,"667 RIDGE RD, GEORGETOWN, PA, 15043","Match","Exact","667 RIDGE RD, GEORGETOWN, PA, 15043",52574869,"R"
798500,"667 ROUTE 114","SOUTH SUTTON","NH",2373,NA,NA,500,"667 ROUTE 114, SOUTH SUTTON, NH, 2373","No_Match",NA,NA,NA,NA
