"ID","Address","City","State","Zip","lat","long","id","input_address","match_indicator","match_type","matched_address","tiger_line_id","tiger_side"
774501,"62345 AULT","BELMONT","OH",43718,39.9969162530001,-81.0133985429999,1,"62345 AULT, BELMONT, OH, 43718","Match","Non_Exact","62345 AULT RD, BELMONT, OH, 43718",36238655,"R"
774502,"6235 29TH ST NW","WASHINGTON","DC",20015,38.9713525430001,-77.057925153,2,"6235 29TH ST NW, WASHINGTON, DC, 20015","Match","Exact","6235 29TH ST NW, WASHINGTON, DC, 20015",639337037,"R"
774503,"6235 3RD ST","HOLTON","MI",49425,43.414244711,-86.0872702999999,3,"6235 3RD ST, HOLTON, MI, 49425","Match","Exact","6235 3RD ST, HOLTON, MI, 49425",633211748,"R"
774504,"6235 5TH AVE APT B14","PITTSBURGH","PA",15232,40.4527467,-79.9217732069999,4,"6235 5TH AVE APT B14, PITTSBURGH, PA, 15232","Match","Exact","6235 5TH AVE, PITTSBURGH, PA, 15232",51646709,"L"
774505,"6235 AFTON PLACE","LOS ANGELES","CA",90028,34.09528942,-118.325031433,5,"6235 AFTON PLACE, LOS ANGELES, CA, 90028","Match","Exact","6235 AFTON PL, LOS ANGELES, CA, 90028",141599832,"R"
774506,"6235 BRIGHTON DRIVE","NORTH OLMSTED","OH",44070,41.4000155950001,-81.951361304,6,"6235 BRIGHTON DRIVE, NORTH OLMSTED, OH, 44070","Match","Exact","6235 BRIGHTON DR, NORTH OLMSTED, OH, 44070",61138249,"L"
774507,"6235 BUIST AVE","PHILADELPHIA","PA",19142,39.92348385,-75.2254604939999,7,"6235 BUIST AVE, PHILADELPHIA, PA, 19142","Match","Exact","6235 BUIST AVE, PHILADELPHIA, PA, 19142",131409564,"R"
774508,"6235 CARDIFF ST","PHILADELPHIA","PA",19149,40.0302003910001,-75.066307878,8,"6235 CARDIFF ST, PHILADELPHIA, PA, 19149","Match","Exact","6235 CARDIFF ST, PHILADELPHIA, PA, 19149",131428649,"R"
774509,"6235 CEDAR CROSSING LAND","CINCINNATI","OH",45230,39.064570109,-84.387857576,9,"6235 CEDAR CROSSING LAND, CINCINNATI, OH, 45230","Match","Non_Exact","6235 CEDAR CROSSING LN, CINCINNATI, OH, 45230",103953209,"L"
774510,"6235 CHAPS VIEW","FOUNTAIN","CO",80817,38.543674975,-104.714316263,10,"6235 CHAPS VIEW, FOUNTAIN, CO, 80817","Match","Exact","6235 CHAPS VW, FOUNTAIN, CO, 80817",647972560,"L"
774511,"6235 CROFTON DRIVE","ALPHARETTA","GA",30005,34.119858618,-84.1944290659999,11,"6235 CROFTON DRIVE, ALPHARETTA, GA, 30005","Match","Exact","6235 CROFTON DR, ALPHARETTA, GA, 30005",646213543,"L"
774512,"6235 CROWDERS CIRCLE","VALE","NC",28168,35.525762166,-81.394582892,12,"6235 CROWDERS CIRCLE, VALE, NC, 28168","Match","Exact","6235 CROWDERS CIR, VALE, NC, 28168",69535218,"L"
774513,"6235 DESTREHAN DRIVE","DENHAM SPRINGS","LA",70820,30.37959514,-91.200479783,13,"6235 DESTREHAN DRIVE, DENHAM SPRINGS, LA, 70820","Match","Non_Exact","6235 DESTREHAN DR, BATON ROUGE, LA, 70820",92199874,"R"
774514,"6235 E CHARTER OAK RD","SCOTTSDALE","AZ",85254,33.5994462190001,-111.946089195,14,"6235 E CHARTER OAK RD, SCOTTSDALE, AZ, 85254","Match","Exact","6235 E CHARTER OAK RD, SCOTTSDALE, AZ, 85254",128188506,"R"
774515,"6235 E SPRING ST 315","LONG BEACH","CA",90808,33.8105024540001,-118.111130029,15,"6235 E SPRING ST 315, LONG BEACH, CA, 90808","Match","Non_Exact","6235 E SPRING ST, LONG BEACH, CA, 90808",142853315,"L"
774516,"6235 E TERRACE COURT DRIVE","MONTGOMERY","IN",47558,38.659166601,-87.051501289,16,"6235 E TERRACE COURT DRIVE, MONTGOMERY, IN, 47558","Match","Exact","6235 E TERRACE COURT DR, MONTGOMERY, IN, 47558",648362334,"R"
774517,"6235 EDEN ROAD","AURORA","IN",47001,39.0383924430001,-84.934488529,17,"6235 EDEN ROAD, AURORA, IN, 47001","Match","Non_Exact","6235 EDEN DR, AURORA, IN, 47001",76883176,"L"
774518,"6235 FIFTH AVE APT B13","PITTSBURGH","PA",15232,40.4527467,-79.9217732069999,18,"6235 FIFTH AVE APT B13, PITTSBURGH, PA, 15232","Match","Exact","6235 5TH AVE, PITTSBURGH, PA, 15232",51646709,"L"
774519,"6235 HAMILTON BLVD STE 105","ALLENTOWN","PA",18106,NA,NA,19,"6235 HAMILTON BLVD STE 105, ALLENTOWN, PA, 18106","No_Match",NA,NA,NA,NA
774520,"6235 HIGHWAY 91","WALSONTONBURG","NC",27888,35.549188945,-77.6852173839999,20,"6235 HIGHWAY 91, WALSONTONBURG, NC, 27888","Match","Non_Exact","6235 HWY 91, WALSTONBURG, NC, 27888",636537070,"L"
774521,"6235 HILL ST","DUNSMUIR","CA",96025,41.204248068,-122.274966149,21,"6235 HILL ST, DUNSMUIR, CA, 96025","Match","Exact","6235 HILL ST, DUNSMUIR, CA, 96025",113249506,"L"
774522,"6235 HINCHCLIFF ROAD","MONTGOMERY","AL",36117,32.3913062450001,-86.192919063,22,"6235 HINCHCLIFF ROAD, MONTGOMERY, AL, 36117","Match","Exact","6235 HINCHCLIFF RD, MONTGOMERY, AL, 36117",1472923,"L"
774523,"6235 HOMEWORTH ROAD","HOMEWORTH","OH",44634,40.811007574,-81.072962495,23,"6235 HOMEWORTH ROAD, HOMEWORTH, OH, 44634","Match","Exact","6235 HOMEWORTH RD, HOMEWORTH, OH, 44634",605059770,"R"
774524,"6235 INGRAM RD","SAN ANTONIO","TX",78238,29.466357897,-98.6070339029999,24,"6235 INGRAM RD, SAN ANTONIO, TX, 78238","Match","Exact","6235 INGRAM RD, SAN ANTONIO, TX, 78238",640505132,"R"
774525,"6235 LAKE AVENUE","ORCHARD PARK","NY",14127,42.7963690980001,-78.759560037,25,"6235 LAKE AVENUE, ORCHARD PARK, NY, 14127","Match","Exact","6235 LAKE AVE, ORCHARD PARK, NY, 14127",48310525,"R"
774526,"6235 LAKE ELLA RD","CRESTVIEW","FL",32539,30.822029216,-86.432688193,26,"6235 LAKE ELLA RD, CRESTVIEW, FL, 32539","Match","Exact","6235 LAKE ELLA RD, CRESTVIEW, FL, 32539",625257866,"R"
774527,"6235 LANDOVER CIRCLE","MORROW","GA",30260,33.5846424910001,-84.307625586,27,"6235 LANDOVER CIRCLE, MORROW, GA, 30260","Match","Exact","6235 LANDOVER CIR, MORROW, GA, 30260",625941787,"R"
774528,"6235 LEAWOOD DRIVE","HUBER HEIGHTS","OH",45424,39.8591516290001,-84.124303571,28,"6235 LEAWOOD DRIVE, HUBER HEIGHTS, OH, 45424","Match","Exact","6235 LEAWOOD DR, HUBER HEIGHTS, OH, 45424",143629908,"L"
774529,"6235 LIMEKILN PIKE","PHILADELPHIA","PA",19126,40.0492754860001,-75.1523259149999,29,"6235 LIMEKILN PIKE, PHILADELPHIA, PA, 19126","Match","Non_Exact","6235 LIMEKILN PIKE, PHILADELPHIA, PA, 19141",131440419,"R"
774530,"6235 LYNN RD","SALISBURY","NC",28144,35.7071203740001,-80.598717844,30,"6235 LYNN RD, SALISBURY, NC, 28144","Match","Non_Exact","6235 LYNN RD, SALISBURY, NC, 28147",25281389,"L"
774531,"6235 MCCOMMAS BLVD","DALLAS","TX",75214,32.8292923550001,-96.7585891859999,31,"6235 MCCOMMAS BLVD, DALLAS, TX, 75214","Match","Exact","6235 MCCOMMAS BLVD, DALLAS, TX, 75214",102918570,"L"
774532,"6235 N ELLENDALE AVE","FRESNO","CA",93722,36.8247643060001,-119.8889451,32,"6235 N ELLENDALE AVE, FRESNO, CA, 93722","Match","Exact","6235 N ELLENDALE AVE, FRESNO, CA, 93722",197615553,"L"
774533,"6235 N SIXTH AVE","GLENDALE","AZ",85301,NA,NA,33,"6235 N SIXTH AVE, GLENDALE, AZ, 85301","No_Match",NA,NA,NA,NA
774534,"6235 NORTH COUNTY RD 13","LOVELAND","CO",80538,40.457332643,-105.058374488,34,"6235 NORTH COUNTY RD 13, LOVELAND, CO, 80538","Match","Exact","6235 N CO RD 13, LOVELAND, CO, 80538",188616276,"L"
774535,"6235 NORTH KAVANAGH","FRESNO","CA",93711,36.82655098,-119.838276976,35,"6235 NORTH KAVANAGH, FRESNO, CA, 93711","Match","Non_Exact","6235 N KAVANAGH AVE, FRESNO, CA, 93711",197566742,"L"
774536,"6235 NW 2 AVE APT E","MIAMI","FL",33150,NA,NA,36,"6235 NW 2 AVE APT E, MIAMI, FL, 33150","No_Match",NA,NA,NA,NA
774537,"6235 OAK POINT ESTATES","LORAIN","OH",44053,41.4212191400001,-82.242794639,37,"6235 OAK POINT ESTATES, LORAIN, OH, 44053","Match","Exact","6235 OAK POINT ESTS, LORAIN, OH, 44053",55422936,"L"
774538,"6235 OLD CONNELLY AVE","CONNELLY SPRINGS","NC",28612,35.738671707,-81.5183063059999,38,"6235 OLD CONNELLY AVE, CONNELLY SPRINGS, NC, 28612","Match","Exact","6235 OLD CONNELLY AVE, CONNELLY SPRINGS, NC, 28612",37181565,"R"
774539,"6235 PARKWOOD RD","MENTOR","OH",44060,41.70151772,-81.360139567,39,"6235 PARKWOOD RD, MENTOR, OH, 44060","Match","Exact","6235 PARKWOOD RD, MENTOR, OH, 44060",137461795,"L"
774540,"6235 RADIANT DR","SAN JOSE","CA",95123,37.2325757560001,-121.827747972,40,"6235 RADIANT DR, SAN JOSE, CA, 95123","Match","Exact","6235 RADIANT DR, SAN JOSE, CA, 95123",122925362,"R"
774541,"6235 RAVINE FOREST DR","CUMMING","GA",30040,34.16412798,-84.200749462,41,"6235 RAVINE FOREST DR, CUMMING, GA, 30040","Match","Exact","6235 RAVINE FOREST DR, CUMMING, GA, 30040",647938985,"R"
774542,"6235 ROSEWOOD","MISSION","KS",66205,39.015710454,-94.646030775,42,"6235 ROSEWOOD, MISSION, KS, 66205","Match","Exact","6235 ROSEWOOD, MISSION, KS, 66205",91296455,"L"
774543,"6235 ROSLIN CT","PLEASANTON","CA",94588,37.683893878,-121.905313996,43,"6235 ROSLIN CT, PLEASANTON, CA, 94588","Match","Exact","6235 ROSLIN CT, PLEASANTON, CA, 94588",125017562,"R"
774544,"6235 S KNOX AVE UNIT H","CHICAGO","IL",60629,41.779791765,-87.7386588429999,44,"6235 S KNOX AVE UNIT H, CHICAGO, IL, 60629","Match","Non_Exact","6235 S KNOX AVE, CHICAGO, IL, 60629",605302916,"L"
774545,"6235 S MONITOR","CHICAGO","IL",60638,41.7787657650001,-87.7678532319999,45,"6235 S MONITOR, CHICAGO, IL, 60638","Match","Non_Exact","6235 S MONITOR AVE, CHICAGO, IL, 60638",605292710,"L"
774546,"6235 S WOLCOTT AVE","CHICAGO","IL",60635,NA,NA,46,"6235 S WOLCOTT AVE, CHICAGO, IL, 60635","No_Match",NA,NA,NA,NA
774547,"6235 SHALLOWFORD ROAD","LEWISVILLE","NC",27023,36.1004419980001,-80.4126583779999,47,"6235 SHALLOWFORD ROAD, LEWISVILLE, NC, 27023","Match","Exact","6235 SHALLOWFORD RD, LEWISVILLE, NC, 27023",84599267,"R"
774548,"6235 SOUTH DAMEN AVE","CHICAGO","IL",60636,41.7806552800001,-87.6739273589999,48,"6235 SOUTH DAMEN AVE, CHICAGO, IL, 60636","Match","Exact","6235 S DAMEN AVE, CHICAGO, IL, 60636",605482246,"L"
774549,"6235 SOUTHPOINT","DALLAS","TX",75248,32.9765085860001,-96.798832198,49,"6235 SOUTHPOINT, DALLAS, TX, 75248","Match","Non_Exact","6235 SOUTHPOINT DR, DALLAS, TX, 75248",102896036,"L"
774550,"6235 STRAIGHT GUT RD","LAFAYETTE","GA",30728,34.748303456,-85.276902024,50,"6235 STRAIGHT GUT RD, LAFAYETTE, GA, 30728","Match","Non_Exact","6235 STRAIGHT GUT RD, LA FAYETTE, GA, 30728",638263122,"R"
774551,"6235 SURREY CT","ANDERSON","IN",46013,40.050669558,-85.639110879,51,"6235 SURREY CT, ANDERSON, IN, 46013","Match","Exact","6235 SURREY CT, ANDERSON, IN, 46013",31130783,"L"
774552,"6235 SW 135TH ST","PINECREST","FL",33156,25.646236549,-80.294326804,52,"6235 SW 135TH ST, PINECREST, FL, 33156","Match","Exact","6235 SW 135TH ST, PINECREST, FL, 33156",115987335,"R"
774553,"6235 SW 57TH STREET","SOUTH MIAMI","FL",33143,25.717750854,-80.2947856659999,53,"6235 SW 57TH STREET, SOUTH MIAMI, FL, 33143","Match","Exact","6235 SW 57TH ST, SOUTH MIAMI, FL, 33143",115978668,"R"
774554,"6235 TOWER DR","HUDSON","FL",34667,28.3459497050001,-82.710753128,54,"6235 TOWER DR, HUDSON, FL, 34667","Match","Exact","6235 TOWER DR, HUDSON, FL, 34667",86393137,"L"
774555,"6235 TURFWAY DRIVE","CUMMING","GA",30040,34.1715038730001,-84.175752668,55,"6235 TURFWAY DRIVE, CUMMING, GA, 30040","Match","Exact","6235 TURFWAY DR, CUMMING, GA, 30040",618445656,"L"
774556,"6235 VENTURE CT","SLATINGTON","PA",18080,40.7083781270001,-75.617206467,56,"6235 VENTURE CT, SLATINGTON, PA, 18080","Match","Exact","6235 VENTURE CT, SLATINGTON, PA, 18080",80785620,"R"
774557,"6235 W 155TH PLACE","OVERLAND PARK","KS",66223,38.847830077,-94.6592029129999,57,"6235 W 155TH PLACE, OVERLAND PARK, KS, 66223","Match","Exact","6235 W 155TH PL, OVERLAND PARK, KS, 66223",91332871,"L"
774558,"6235 W 400 S","RUSSIAVILLE","IN",46979,NA,NA,58,"6235 W 400 S, RUSSIAVILLE, IN, 46979","No_Match",NA,NA,NA,NA
774559,"6235 W CUNNINGHAM DRIVE","COLUMBIA","MO",65201,38.9721128690001,-92.4285752229999,59,"6235 W CUNNINGHAM DRIVE, COLUMBIA, MO, 65201","Match","Non_Exact","6235 W CUNNINGHAM DR, COLUMBIA, MO, 65202",640912717,"L"
774560,"6235 WARDS CANYON ROAD","CLIFTON","AZ",85533,33.0170548830001,-109.248091661,60,"6235 WARDS CANYON ROAD, CLIFTON, AZ, 85533","Match","Non_Exact","6235 WARD CANYON RD, CLIFTON, AZ, 85533",137412061,"L"
774561,"6235 WEST 200 NORTH","SHIPSHEWANA","IN",46565,41.6696042200001,-85.545824184,61,"6235 WEST 200 NORTH, SHIPSHEWANA, IN, 46565","Match","Exact","6235 W 200 N, SHIPSHEWANA, IN, 46565",8196961,"L"
774562,"6235 WILCHESTER LN","BEAUMONT","TX",77706,30.0902023240001,-94.1678198339999,62,"6235 WILCHESTER LN, BEAUMONT, TX, 77706","Match","Exact","6235 WILCHESTER LN, BEAUMONT, TX, 77706",73851897,"L"
774563,"6235","CHICAGO","IL",60636,NA,NA,63,"6235, CHICAGO, IL, 60636","No_Match",NA,NA,NA,NA
774564,"62350 MORRIS RETREAT ROAD","AMITE","LA",70442,30.772652598,-90.34786365,64,"62350 MORRIS RETREAT ROAD, AMITE, LA, 70442","Match","Non_Exact","62350 MORRIS RETREAT RD, AMITE, LA, 70422",75773973,"L"
774565,"62354 PRAIRIE AVE","CASSOPOLIS","MI",49031,41.891823946,-85.993479427,65,"62354 PRAIRIE AVE, CASSOPOLIS, MI, 49031","Match","Exact","62354 PRAIRIE AVE, CASSOPOLIS, MI, 49031",22569472,"L"
774566,"62354 PRAIRIE AVE","CASSOPOLOS","MI",49031,41.891823946,-85.993479427,66,"62354 PRAIRIE AVE, CASSOPOLOS, MI, 49031","Match","Non_Exact","62354 PRAIRIE AVE, CASSOPOLIS, MI, 49031",22569472,"L"
774567,"6236 AMBER BLUFF CREST","RALEIGH","NC",27616,35.8461743510001,-78.5403833509999,67,"6236 AMBER BLUFF CREST, RALEIGH, NC, 27616","Match","Exact","6236 AMBER BLUFF CRST, RALEIGH, NC, 27616",612819827,"R"
774568,"6236 BRISA DEL MAR","EL PASO","TX",79912,31.861222228,-106.529875819,68,"6236 BRISA DEL MAR, EL PASO, TX, 79912","Match","Non_Exact","6236 BRISA DEL MAR DR, EL PASO, TX, 79912",642833900,"R"
774569,"6236 CUESTA PL NW","ALBUQUERQUE","NM",87120,35.151604079,-106.711064553,69,"6236 CUESTA PL NW, ALBUQUERQUE, NM, 87120","Match","Exact","6236 CUESTA PL NW, ALBUQUERQUE, NM, 87120",206698648,"L"
774570,"6236 FOX CHASE","PENDLETON","IN",46064,40.011554292,-85.788462607,70,"6236 FOX CHASE, PENDLETON, IN, 46064","Match","Exact","6236 FOX CHASE, PENDLETON, IN, 46064",31123752,"R"
774571,"6236 LUDLOW  STREET","PHILADELPHIA","PA",19150,39.961771786,-75.245665241,71,"6236 LUDLOW  STREET, PHILADELPHIA, PA, 19150","Match","Non_Exact","6236 LUDLOW ST, PHILADELPHIA, PA, 19139",131397588,"L"
774572,"6236 MAGNOLIA STREET","PHILADELPHIA","PA",19144,40.04667964,-75.1758290079999,72,"6236 MAGNOLIA STREET, PHILADELPHIA, PA, 19144","Match","Exact","6236 MAGNOLIA ST, PHILADELPHIA, PA, 19144",131395495,"L"
774573,"6236 MARAVIAN DR","LOUISVILLE","KY",40258,38.164284378,-85.8710318029999,73,"6236 MARAVIAN DR, LOUISVILLE, KY, 40258","Match","Exact","6236 MARAVIAN DR, LOUISVILLE, KY, 40258",96922204,"L"
774574,"6236 MARYLAND DRIVE","LOS ANGELES","CA",90048,34.06680758,-118.363555394,74,"6236 MARYLAND DRIVE, LOS ANGELES, CA, 90048","Match","Exact","6236 MARYLAND DR, LOS ANGELES, CA, 90048",647546666,"L"
774575,"6236 MERCEDES AVE","DALLAS","TX",75214,32.827899281,-96.758670653,75,"6236 MERCEDES AVE, DALLAS, TX, 75214","Match","Exact","6236 MERCEDES AVE, DALLAS, TX, 75214",102918596,"R"
774576,"6236 N 41ST DR","PHOENIX","AZ",85019,33.528571852,-112.148003109,76,"6236 N 41ST DR, PHOENIX, AZ, 85019","Match","Exact","6236 N 41ST DR, PHOENIX, AZ, 85019",128198504,"L"
774577,"6236 NE 18TH AVENUE","PORTLAND","OR",97211,45.5679099560001,-122.647004048,77,"6236 NE 18TH AVENUE, PORTLAND, OR, 97211","Match","Exact","6236 NE 18TH AVE, PORTLAND, OR, 97211",157502734,"R"
774578,"6236 OSCAR COURT","WOODBRIDGE","VA",22193,38.669502838,-77.39377799,78,"6236 OSCAR COURT, WOODBRIDGE, VA, 22193","Match","Exact","6236 OSCAR CT, WOODBRIDGE, VA, 22193",76523120,"L"
774579,"6236 OSCAR CT","WOODBRIDGE","VA",22193,38.669502838,-77.39377799,79,"6236 OSCAR CT, WOODBRIDGE, VA, 22193","Match","Exact","6236 OSCAR CT, WOODBRIDGE, VA, 22193",76523120,"L"
774580,"6236 PASEO COLINA","CARLSBAD","CA",92009,33.124316444,-117.244797823,80,"6236 PASEO COLINA, CARLSBAD, CA, 92009","Match","Non_Exact","6236 PSO COLINA, CARLSBAD, CA, 92009",195455405,"L"
774581,"6236 RED CEDAR DR","MONTGOMERY","AL",36108,32.32383343,-86.442630137,81,"6236 RED CEDAR DR, MONTGOMERY, AL, 36108","Match","Exact","6236 RED CEDAR DR, MONTGOMERY, AL, 36108",1504801,"R"
774582,"6236 S DIXIE HWY","ERIE","MI",48133,41.731983257,-83.530892148,82,"6236 S DIXIE HWY, ERIE, MI, 48133","Match","Exact","6236 S DIXIE HWY, ERIE, MI, 48133",640415742,"R"
774583,"6236 S GREENWOOD","CHICAGO","IL",60637,41.7817500030001,-87.599477113,83,"6236 S GREENWOOD, CHICAGO, IL, 60637","Match","Non_Exact","6236 S GREENWOOD AVE, CHICAGO, IL, 60637",605501590,"R"
774584,"6236 SOUTH 107TH STREET","OMAHA","NE",68127,41.1961158010001,-96.080627447,84,"6236 SOUTH 107TH STREET, OMAHA, NE, 68127","Match","Exact","6236 S 107TH ST, OMAHA, NE, 68127",116973907,"R"
774585,"6236 SOUTH COUNTY ROAD 25 WEST","VERSAILLES","IN",47042,38.9820273,-85.2640663289999,85,"6236 SOUTH COUNTY ROAD 25 WEST, VERSAILLES, IN, 47042","Match","Exact","6236 S CO RD 25 W, VERSAILLES, IN, 47042",31514008,"L"
774586,"6236 TERRA ROSA CIR","BOYNTON BEACH","FL",33472,26.5396167220001,-80.141085253,86,"6236 TERRA ROSA CIR, BOYNTON BEACH, FL, 33472","Match","Exact","6236 TERRA ROSA CIR, BOYNTON BEACH, FL, 33472",115489182,"R"
774587,"6236 W 156TH","OVERLAND PARK","KS",66223,NA,NA,87,"6236 W 156TH, OVERLAND PARK, KS, 66223","Tie",NA,NA,NA,NA
774588,"6236 W 59TH ST","CHICAGO","IL",60638,41.7850853320001,-87.7780395409999,88,"6236 W 59TH ST, CHICAGO, IL, 60638","Match","Exact","6236 W 59TH ST, CHICAGO, IL, 60638",111797178,"R"
774589,"6236 W OREGON AVE","GLENDALE","AZ",85301,33.5138291820001,-112.193967586,89,"6236 W OREGON AVE, GLENDALE, AZ, 85301","Match","Exact","6236 W OREGON AVE, GLENDALE, AZ, 85301",128277158,"R"
774590,"6236 W PINEDALE CIR","CRYSTAL RIVER","FL",34429,28.87451143,-82.537904163,90,"6236 W PINEDALE CIR, CRYSTAL RIVER, FL, 34429","Match","Exact","6236 W PINEDALE CIR, CRYSTAL RIVER, FL, 34429",86198203,"L"
774591,"6236 WADSWORTH AVE","HIGHLAND","CA",92346,34.140463018,-117.233163745,91,"6236 WADSWORTH AVE, HIGHLAND, CA, 92346","Match","Exact","6236 WADSWORTH AVE, HIGHLAND, CA, 92346",144661022,"R"
774592,"6236 WESTWICK PLACE","LEWIS CENTER","OH",43035,40.186504158,-82.977595499,92,"6236 WESTWICK PLACE, LEWIS CENTER, OH, 43035","Match","Exact","6236 WESTWICK PL, LEWIS CENTER, OH, 43035",24593199,"R"
774593,"62368 JIG ROAD","MONTROSE","CO",81401,38.526072044,-107.924505871,93,"62368 JIG ROAD, MONTROSE, CO, 81401","Match","Exact","62368 JIG RD, MONTROSE, CO, 81401",122557294,"L"
774594,"6237 13TH AVE NORTH","SAINT PETERSBURG","FL",33710,27.7844672580001,-82.721422016,94,"6237 13TH AVE NORTH, SAINT PETERSBURG, FL, 33710","Match","Exact","6237 13TH AVE N, SAINT PETERSBURG, FL, 33710",124698449,"R"
774595,"6237 21ST CENTURY DRIVE","CHARLESTOWN","IN",47111,38.393174464,-85.71359251,95,"6237 21ST CENTURY DRIVE, CHARLESTOWN, IN, 47111","Match","Exact","6237 21ST CENTURY DR, CHARLESTOWN, IN, 47111",649706364,"L"
774596,"6237 CANDICE RD","CHRISTOVAL","TX",76935,31.172985204,-100.520915799,96,"6237 CANDICE RD, CHRISTOVAL, TX, 76935","Match","Exact","6237 CANDICE RD, CHRISTOVAL, TX, 76935",190691470,"L"
774597,"6237 CANVASBACK LN","ORLANDO","FL",32810,28.623974134,-81.474725162,97,"6237 CANVASBACK LN, ORLANDO, FL, 32810","Match","Exact","6237 CANVASBACK LN, ORLANDO, FL, 32810",94311373,"R"
774598,"6237 CYPRESS AVE","PORTAGE","MI",49024,42.2268410840001,-85.620657603,98,"6237 CYPRESS AVE, PORTAGE, MI, 49024","Match","Non_Exact","6237 CYPRESS ST, PORTAGE, MI, 49024",12239223,"L"
774599,"6237 DEGRACE DR","WAKE FOREST","NC",26587,35.953168786,-78.470942867,99,"6237 DEGRACE DR, WAKE FOREST, NC, 26587","Match","Non_Exact","6237 DEGRACE DR, WAKE FOREST, NC, 27587",72601087,"L"
774600,"6237 DELANCEY STREET","PHILADELPHIA","PA",19143,39.9566081190001,-75.246738726,100,"6237 DELANCEY STREET, PHILADELPHIA, PA, 19143","Match","Exact","6237 DELANCEY ST, PHILADELPHIA, PA, 19143",131397582,"R"
774601,"6237 E CLINTON TRL","EATON RAPIDS","MI",48827,42.5309176440001,-84.7133103899999,101,"6237 E CLINTON TRL, EATON RAPIDS, MI, 48827","Match","Exact","6237 E CLINTON TRL, EATON RAPIDS, MI, 48827",12036083,"R"
774602,"6237 E STAR VALLEY RD","MESA","AZ",85215,33.483620053,-111.696625795,102,"6237 E STAR VALLEY RD, MESA, AZ, 85215","Match","Non_Exact","6237 E STAR VALLEY ST, MESA, AZ, 85215",128776455,"R"
774603,"6237 EMPRESS CT","SAN JOSE","CA",95129,37.302053491,-122.013504446,103,"6237 EMPRESS CT, SAN JOSE, CA, 95129","Match","Exact","6237 EMPRESS CT, SAN JOSE, CA, 95129",122940869,"R"
774604,"6237 FIELDING STREET","CHINO","CA",91710,33.992923971,-117.668868235,104,"6237 FIELDING STREET, CHINO, CA, 91710","Match","Exact","6237 FIELDING ST, CHINO, CA, 91710",650996708,"L"
774605,"6237 HUNTER ST","VENTURA","CA",93003,34.2790211650001,-119.211265369,105,"6237 HUNTER ST, VENTURA, CA, 93003","Match","Exact","6237 HUNTER ST, VENTURA, CA, 93003",109953344,"L"
774606,"6237 LA FLEUR DRIVE","SHREVEPORT","LA",71119,32.4732821000001,-93.868632221,106,"6237 LA FLEUR DRIVE, SHREVEPORT, LA, 71119","Match","Exact","6237 LA FLEUR DR, SHREVEPORT, LA, 71119",57430049,"L"
774607,"6237 LAKE HUBBARD PKWY","GARLAND","TX",75043,32.8585201000001,-96.539597337,107,"6237 LAKE HUBBARD PKWY, GARLAND, TX, 75043","Match","Exact","6237 LAKE HUBBARD PKWY, GARLAND, TX, 75043",103240055,"L"
774608,"6237 LINDA VISTA LANE","CHARLOTTE","NC",28216,35.315768937,-80.872078334,108,"6237 LINDA VISTA LANE, CHARLOTTE, NC, 28216","Match","Exact","6237 LINDA VISTA LN, CHARLOTTE, NC, 28216",70471491,"L"
774609,"6237 MORTON STREET","PHILADELPHIA","PA",19144,40.0459221520001,-75.17715015,109,"6237 MORTON STREET, PHILADELPHIA, PA, 19144","Match","Exact","6237 MORTON ST, PHILADELPHIA, PA, 19144",131395480,"R"
774610,"6237 NORTH 17TH STREET","PHILADELPHIA","PA",19141,40.048717347,-75.147531465,110,"6237 NORTH 17TH STREET, PHILADELPHIA, PA, 19141","Match","Exact","6237 N 17TH ST, PHILADELPHIA, PA, 19141",131413845,"R"
774611,"6237 PONTIAC ST","SAN DIEGO","CA",92115,32.7685247910001,-117.065613363,111,"6237 PONTIAC ST, SAN DIEGO, CA, 92115","Match","Exact","6237 PONTIAC ST, SAN DIEGO, CA, 92115",195323593,"R"
774612,"6237 POUNDHEAD ROAD","NEW VIENNA","OH",45159,NA,NA,112,"6237 POUNDHEAD ROAD, NEW VIENNA, OH, 45159","No_Match",NA,NA,NA,NA
774613,"6237 ROXBOROUGH DRIVE","ROXBOROUGH","CO",80125,39.452632496,-105.072294651,113,"6237 ROXBOROUGH DRIVE, ROXBOROUGH, CO, 80125","Match","Exact","6237 ROXBOROUGH DR, ROXBOROUGH, CO, 80125",636172543,"R"
774614,"6237 S ALBANY AVE","CHICAGO","IL",60629,41.7802979050001,-87.700727828,114,"6237 S ALBANY AVE, CHICAGO, IL, 60629","Match","Exact","6237 S ALBANY AVE, CHICAGO, IL, 60629",605307272,"L"
774615,"6237 SUSSEX DR","DUBLIN","CA",94568,37.7090837470001,-121.908725604,115,"6237 SUSSEX DR, DUBLIN, CA, 94568","Match","Exact","6237 SUSSEX DR, DUBLIN, CA, 94568",606121819,"R"
774616,"6237 SW 21 STREET","MIRAMAR","FL",33023,25.991738926,-80.212061306,116,"6237 SW 21 STREET, MIRAMAR, FL, 33023","Match","Exact","6237 SW 21ST ST, MIRAMAR, FL, 33023",114734507,"R"
774617,"6237 TIDEWATER TRAIL","CHURCH VIEW","VA",23032,37.679514479,-76.679076123,117,"6237 TIDEWATER TRAIL, CHURCH VIEW, VA, 23032","Match","Exact","6237 TIDEWATER TRL, CHURCH VIEW, VA, 23032",640040703,"R"
774618,"6237 VANOWEN CT","LAS VEGAS","NV",89113,36.0752155000001,-115.260170909,118,"6237 VANOWEN CT, LAS VEGAS, NV, 89113","Match","Exact","6237 VANOWEN CT, LAS VEGAS, NV, 89113",650682696,"R"
774619,"6237 WEST HILTON ROAD","SAPULPA","OK",74066,36.024590807,-96.0622589609999,119,"6237 WEST HILTON ROAD, SAPULPA, OK, 74066","Match","Non_Exact","6237 HILTON RD, SAPULPA, OK, 74066",649296568,"L"
774620,"6237HICKORYLANECIRCLE","UNION CITY","GA",30291,NA,NA,120,"6237HICKORYLANECIRCLE, UNION CITY, GA, 30291","No_Match",NA,NA,NA,NA
774621,"6238 ANSCHUTZ LANE","EGG HARBOR","WI",54209,44.974125315,-87.2326156399999,121,"6238 ANSCHUTZ LANE, EGG HARBOR, WI, 54209","Match","Exact","6238 ANSCHUTZ LN, EGG HARBOR, WI, 54209",167258637,"R"
774622,"6238 BLUFF FOREST DR","ST LOUIS","MO",63129,38.450075525,-90.295391287,122,"6238 BLUFF FOREST DR, ST LOUIS, MO, 63129","Match","Exact","6238 BLUFF FOREST DR, SAINT LOUIS, MO, 63129",629001014,"R"
774623,"6238 COUNTY RD 41","FLORENCE","AL",35633,34.8633444880001,-87.732863671,123,"6238 COUNTY RD 41, FLORENCE, AL, 35633","Match","Exact","6238 CO RD 41, FLORENCE, AL, 35633",41319242,"R"
774624,"6238 CYPRESS DR","MT.MORRIS","MI",48458,43.0961250020001,-83.703478581,124,"6238 CYPRESS DR, MT.MORRIS, MI, 48458","Match","Exact","6238 CYPRESS DR, MOUNT MORRIS, MI, 48458",69565546,"R"
774625,"6238 GREEN OAKS DR","CHRISTOVAL","TX",76935,31.186489812,-100.51916317,125,"6238 GREEN OAKS DR, CHRISTOVAL, TX, 76935","Match","Exact","6238 GREEN OAKS DR, CHRISTOVAL, TX, 76935",608001516,"R"
774626,"6238 INVERURIE DR W","DUBLIN","OH",43017,40.149483192,-83.159707985,126,"6238 INVERURIE DR W, DUBLIN, OH, 43017","Match","Exact","6238 INVERURIE DR W, DUBLIN, OH, 43017",24589123,"R"
774627,"6238 LUNN WOODS WAY","LAKELAND","FL",33811,27.9522006350001,-81.986544926,127,"6238 LUNN WOODS WAY, LAKELAND, FL, 33811","Match","Exact","6238 LUNN WOODS WAY, LAKELAND, FL, 33811",104852764,"R"
774628,"6238 N 11TH STREET","PHILADELPHIA","PA",19141,40.047466704,-75.137597813,128,"6238 N 11TH STREET, PHILADELPHIA, PA, 19141","Match","Exact","6238 N 11TH ST, PHILADELPHIA, PA, 19141",131414001,"L"
774629,"6238 N ATWOOD RD","WILLCOX","AZ",85643,32.337221931,-109.927014034,129,"6238 N ATWOOD RD, WILLCOX, AZ, 85643","Match","Exact","6238 ATWOOD RD, WILLCOX, AZ, 85643",120930694,"L"
774630,"6238 N ATWOOD ROAD","WILLCOX","AZ",85643,32.337221931,-109.927014034,130,"6238 N ATWOOD ROAD, WILLCOX, AZ, 85643","Match","Exact","6238 ATWOOD RD, WILLCOX, AZ, 85643",120930694,"L"
774631,"6238 NE 21ST","PORTLAND","OR",97211,45.5678406580001,-122.644538587,131,"6238 NE 21ST, PORTLAND, OR, 97211","Match","Non_Exact","6238 NE 21ST AVE, PORTLAND, OR, 97211",639090607,"R"
774632,"6238 NORTH 11TH STREET","PHILADELPHIA","PA",19141,40.047455821,-75.137596749,132,"6238 NORTH 11TH STREET, PHILADELPHIA, PA, 19141","Match","Exact","6238 N 11TH ST, PHILADELPHIA, PA, 19141",131414001,"L"
774633,"6238 OWENS CHAPEL RD","SPRINGFIELD","TN",37172,NA,NA,133,"6238 OWENS CHAPEL RD, SPRINGFIELD, TN, 37172","No_Match",NA,NA,NA,NA
774634,"6238 RANDOMWOOD DRIVE","SCHENECTADY","NY",12303,42.746812651,-73.933097988,134,"6238 RANDOMWOOD DRIVE, SCHENECTADY, NY, 12303","Match","Exact","6238 RANDOMWOOD DR, SCHENECTADY, NY, 12303",18333473,"R"
774635,"6238 RED CANYON DRIVE - UNIT  G","HIGHLANDS RANCH","CO",80130,39.5561341920001,-104.913108877,135,"6238 RED CANYON DRIVE - UNIT  G, HIGHLANDS RANCH, CO, 80130","Match","Exact","6238 RED CANYON DR, HIGHLANDS RANCH, CO, 80130",130852031,"L"
774636,"6238 RIVIERA CIRCLE","LONG BEACH","CA",90815,NA,NA,136,"6238 RIVIERA CIRCLE, LONG BEACH, CA, 90815","No_Match",NA,NA,NA,NA
774637,"6238 SW 22ND STREET","MIRAMAR","GA",33023,NA,NA,137,"6238 SW 22ND STREET, MIRAMAR, GA, 33023","No_Match",NA,NA,NA,NA
774638,"6238 W MAYA DR","PHOENIX","AZ",85083,33.728673627,-112.19312979,138,"6238 W MAYA DR, PHOENIX, AZ, 85083","Match","Exact","6238 W MAYA DR, PHOENIX, AZ, 85083",128863092,"R"
774639,"6238 YELLOWSTONE","CHEYENNE","WY",82009,41.1765316130001,-104.828588771,139,"6238 YELLOWSTONE, CHEYENNE, WY, 82009","Match","Non_Exact","6238 YELLOWSTONE RD, CHEYENNE, WY, 82009",160168753,"L"
774640,"6239 AUBURN DRIVE APT 7318","RIVERDALE","GA",30249,33.5856955360001,-84.453809045,140,"6239 AUBURN DRIVE APT 7318, RIVERDALE, GA, 30249","Match","Non_Exact","6239 AUBURN DR, RIVERDALE, GA, 30296",23325591,"R"
774641,"6239 BARBERRY HOLLOW","COLUMBUS","OH",43213,39.957177442,-82.831817816,141,"6239 BARBERRY HOLLOW, COLUMBUS, OH, 43213","Match","Exact","6239 BARBERRY HOLLOW, COLUMBUS, OH, 43213",135594607,"R"
774642,"6239 BEECH RD","ORMA","WV",25268,38.732209572,-81.150810806,142,"6239 BEECH RD, ORMA, WV, 25268","Match","Exact","6239 BEECH RD, ORMA, WV, 25268",49941012,"R"
774643,"6239 BLUE RIDGE BLVD","RAYTOWN","MO",64133,39.0095331320001,-94.461730044,143,"6239 BLUE RIDGE BLVD, RAYTOWN, MO, 64133","Match","Exact","6239 BLUE RIDGE BLVD, RAYTOWN, MO, 64133",91466686,"L"
774644,"6239 CARSON HILLS AVE","LAS VEGAS","NV",89139,36.036766523,-115.228623947,144,"6239 CARSON HILLS AVE, LAS VEGAS, NV, 89139","Match","Exact","6239 CARSON HILLS AVE, LAS VEGAS, NV, 89139",202002865,"L"
774645,"6239 CLYMER CIRCLE","FORT COLLINS","CO",80528,40.500111185,-105.032760908,145,"6239 CLYMER CIRCLE, FORT COLLINS, CO, 80528","Match","Exact","6239 CLYMER CIR, FORT COLLINS, CO, 80528",188596247,"R"
774646,"6239 CR 315","BUFFALO","TX",75831,NA,NA,146,"6239 CR 315, BUFFALO, TX, 75831","No_Match",NA,NA,NA,NA
774647,"6239 E 123RD DRIVE","BRIGHTON","CO",80602,39.920905759,-104.914336038,147,"6239 E 123RD DRIVE, BRIGHTON, CO, 80602","Match","Exact","6239 E 123RD DR, BRIGHTON, CO, 80602",177412109,"L"
774648,"6239 E BROWN RD","MESA","AZ",85205,33.437373585,-111.697360801,148,"6239 E BROWN RD, MESA, AZ, 85205","Match","Exact","6239 E BROWN RD, MESA, AZ, 85205",128267840,"R"
774649,"6239 EDGEWATER DR STE A1","ORLANDO","FL",32810,28.613945388,-81.421182431,149,"6239 EDGEWATER DR STE A1, ORLANDO, FL, 32810","Match","Exact","6239 EDGEWATER DR, ORLANDO, FL, 32810",94311580,"R"
774650,"6239 EDGEWATER DRIVE SUITE V1","ORLANDO","FL",32810,28.613945388,-81.421182431,150,"6239 EDGEWATER DRIVE SUITE V1, ORLANDO, FL, 32810","Match","Exact","6239 EDGEWATER DR, ORLANDO, FL, 32810",94311580,"R"
774651,"6239 GENERAL DIAZ ST","NEW ORLEANS","LA",70124,30.003263874,-90.104902452,151,"6239 GENERAL DIAZ ST, NEW ORLEANS, LA, 70124","Match","Exact","6239 GENERAL DIAZ ST, NEW ORLEANS, LA, 70124",191733543,"R"
774652,"6239 HOWE DRIVE","FAIRWAY","KS",66205,39.0162282520001,-94.629026644,152,"6239 HOWE DRIVE, FAIRWAY, KS, 66205","Match","Exact","6239 HOWE DR, FAIRWAY, KS, 66205",91274357,"L"
774653,"6239 JEANE STREET","DALLAS","TX",75217,32.7270784950001,-96.714044631,153,"6239 JEANE STREET, DALLAS, TX, 75217","Match","Exact","6239 JEANE ST, DALLAS, TX, 75217",102957642,"L"
774654,"6239 JOSEPHINE RD","NORTON","VA",24273,36.9279000930001,-82.667915433,154,"6239 JOSEPHINE RD, NORTON, VA, 24273","Match","Exact","6239 JOSEPHINE RD, NORTON, VA, 24273",83464148,"L"
774655,"6239 LARCHWOOD AVE","PHILADELPHIA","PA",19143,39.954572818,-75.247204633,155,"6239 LARCHWOOD AVE, PHILADELPHIA, PA, 19143","Match","Exact","6239 LARCHWOOD AVE, PHILADELPHIA, PA, 19143",131397630,"R"
774656,"6239 MAJESTY LN","HOUSTON","TX",77085,29.628948585,-95.476647564,156,"6239 MAJESTY LN, HOUSTON, TX, 77085","Match","Exact","6239 MAJESTY LN, HOUSTON, TX, 77085",96573659,"L"
774657,"6239 MARSHALL BAY CIRCLE","GROVE CITY","OH",43123,39.8327119160001,-83.021539052,157,"6239 MARSHALL BAY CIRCLE, GROVE CITY, OH, 43123","Match","Exact","6239 MARSHALL BAY CIR, GROVE CITY, OH, 43123",218639272,"R"
774658,"6239 PAISLEY POINTE","WHITESTOWN","IN",46075,39.991975472,-86.3511841709999,158,"6239 PAISLEY POINTE, WHITESTOWN, IN, 46075","Match","Non_Exact","6239 PAISLEY PT, WHITESTOWN, IN, 46075",610980729,"R"
774659,"6239 PARKDALE","DALLAS","TX",75227,32.7720520870001,-96.7127035349999,159,"6239 PARKDALE, DALLAS, TX, 75227","Match","Non_Exact","6239 PARKDALE DR, DALLAS, TX, 75227",102924267,"L"
774660,"6239 PIEDRA NEGRAS CT","KATY","TX",77450,29.711745738,-95.733494741,160,"6239 PIEDRA NEGRAS CT, KATY, TX, 77450","Match","Exact","6239 PIEDRA NEGRAS CT, KATY, TX, 77450",78324771,"R"
774661,"6239 SILVER WOOD DR","MORROW","OH",45152,39.343873058,-84.1990464199999,161,"6239 SILVER WOOD DR, MORROW, OH, 45152","Match","Exact","6239 SILVER WOOD DR, MORROW, OH, 45152",159050426,"L"
774662,"6239 SOUTH RICHMOND AVENUE","TULSA","OK",74136,36.07243592,-95.92798311,162,"6239 SOUTH RICHMOND AVENUE, TULSA, OK, 74136","Match","Exact","6239 S RICHMOND AVE, TULSA, OK, 74136",166451502,"R"
774663,"6239 SOUTH RICHMOND","TULSA","OK",74136,36.07243592,-95.92798311,163,"6239 SOUTH RICHMOND, TULSA, OK, 74136","Match","Non_Exact","6239 S RICHMOND AVE, TULSA, OK, 74136",166451502,"R"
774664,"6239 SPRINGLAKE DRIVE","HAMILTON","OH",45011,39.399743352,-84.5010222719999,164,"6239 SPRINGLAKE DRIVE, HAMILTON, OH, 45011","Match","Non_Exact","6239 SPRING LAKE DR, HAMILTON, OH, 45011",113820214,"L"
774665,"6239 VILLA ROSA WAY","TYLER","TX",75707,NA,NA,165,"6239 VILLA ROSA WAY, TYLER, TX, 75707","No_Match",NA,NA,NA,NA
774666,"62390 RAILROAD STREET/PO BOX 21","SAN ARDO","CA",93450,NA,NA,166,"62390 RAILROAD STREET/PO BOX 21, SAN ARDO, CA, 93450","No_Match",NA,NA,NA,NA
774667,"623A PASEO BELLA MONTANA","SAN LUIS OBISPO","CA",93405,35.298301151,-120.675344629,167,"623A PASEO BELLA MONTANA, SAN LUIS OBISPO, CA, 93405","Match","Non_Exact","623 PSO BELLA MONTANA, SAN LUIS OBISPO, CA, 93405",601463215,"L"
774668,"624 1/2 G AVE APT A","GRUNDY CENTER","IA",50638,42.3614787610001,-92.771690507,168,"624 1/2 G AVE APT A, GRUNDY CENTER, IA, 50638","Match","Exact","624 G AVE, GRUNDY CENTER, IA, 50638",77411030,"L"
774669,"624 1/2 N RIVERFRONT DRIVE","MANKATO","MN",56001,44.172393179,-93.998003065,169,"624 1/2 N RIVERFRONT DRIVE, MANKATO, MN, 56001","Match","Exact","624 N RIVERFRONT DR, MANKATO, MN, 56001",28100051,"L"
774670,"624 1/2 STREET","REDDING","CA",96001,NA,NA,170,"624 1/2 STREET, REDDING, CA, 96001","No_Match",NA,NA,NA,NA
774671,"624 13TH AVE SOUTH","ST. PETERSBURG","FL",33701,NA,NA,171,"624 13TH AVE SOUTH, ST. PETERSBURG, FL, 33701","No_Match",NA,NA,NA,NA
774672,"624 17TH ST N","MOORHEAD","MN",56560,46.8816521300001,-96.75267845,172,"624 17TH ST N, MOORHEAD, MN, 56560","Match","Exact","624 17TH ST N, MOORHEAD, MN, 56560",168029820,"R"
774673,"624 234TH AVE SE","SAMMAMISH","WA",98074,47.6041905340001,-122.027107626,173,"624 234TH AVE SE, SAMMAMISH, WA, 98074","Match","Exact","624 234TH AVE SE, SAMMAMISH, WA, 98074",651612301,"R"
774674,"624 24TH STREET","ARLINGTON","VA",22202,38.852341956,-77.0559043549999,174,"624 24TH STREET, ARLINGTON, VA, 22202","Match","Non_Exact","624 24TH ST S, ARLINGTON, VA, 22202",76472223,"L"
774675,"624 29TH ST","NEWPORT NEWS","VA",23607,36.9843039630001,-76.4218930229999,175,"624 29TH ST, NEWPORT NEWS, VA, 23607","Match","Exact","624 29TH ST, NEWPORT NEWS, VA, 23607",103746268,"R"
774676,"624 29TH STREET","NEWPORT NEWS","VA",23607,36.9843039630001,-76.4218930229999,176,"624 29TH STREET, NEWPORT NEWS, VA, 23607","Match","Exact","624 29TH ST, NEWPORT NEWS, VA, 23607",103746268,"R"
774677,"624 34TH STREET NE","CONOVER","NC",28613,35.731224035,-81.264855223,177,"624 34TH STREET NE, CONOVER, NC, 28613","Match","Exact","624 34TH ST NE, CONOVER, NC, 28613",45926406,"R"
774678,"624 36TH STREET","WEST PALM BEACH","FL",33407,26.745852659,-80.0570116869999,178,"624 36TH STREET, WEST PALM BEACH, FL, 33407","Match","Exact","624 36TH ST, WEST PALM BEACH, FL, 33407",115277327,"L"
774679,"624 3RD AVE N","JACKSONVILLE BEACH","FL",32250,30.29131048,-81.396170204,179,"624 3RD AVE N, JACKSONVILLE BEACH, FL, 32250","Match","Exact","624 3RD AVE N, JACKSONVILLE BEACH, FL, 32250",83923351,"L"
774680,"624 43RD STREET","WEST PALM BEACH","FL",33407,26.7514556520001,-80.056924011,180,"624 43RD STREET, WEST PALM BEACH, FL, 33407","Match","Exact","624 43RD ST, WEST PALM BEACH, FL, 33407",115277306,"L"
774681,"624 4TH STREET","HUDSON","WI",54016,44.976270911,-92.753968772,181,"624 4TH STREET, HUDSON, WI, 54016","Match","Exact","624 4TH ST, HUDSON, WI, 54016",110908267,"L"
774682,"624 56TH ST","DES MOINES","IA",50312,41.5875112520001,-93.6937674869999,182,"624 56TH ST, DES MOINES, IA, 50312","Match","Exact","624 56TH ST, DES MOINES, IA, 50312",65823138,"L"
774683,"624 5TH AVE","BARABOO","WI",53913,43.4719469620001,-89.7516386679999,183,"624 5TH AVE, BARABOO, WI, 53913","Match","Exact","624 5TH AVE, BARABOO, WI, 53913",86547757,"R"
774684,"624 7TH AVENUE SE","DYERSVILLE","IA",52040,42.479224349,-91.117337677,184,"624 7TH AVENUE SE, DYERSVILLE, IA, 52040","Match","Exact","624 7TH AVE SE, DYERSVILLE, IA, 52040",16899958,"L"
774685,"624 7TH STREET SW","ROCHESTER","MN",55902,44.015945469,-92.4718798869999,185,"624 7TH STREET SW, ROCHESTER, MN, 55902","Match","Exact","624 7TH ST SW, ROCHESTER, MN, 55902",30552930,"L"
774686,"624 A LAUREL ST","READING","PA",19602,40.3275884980001,-75.9251370819999,186,"624 A LAUREL ST, READING, PA, 19602","Match","Exact","624 LAUREL ST, READING, PA, 19602",80383254,"R"
774687,"624 A STREET SE REAR","WASHINGTON","DC",20003,38.8886854470001,-76.9977983589999,187,"624 A STREET SE REAR, WASHINGTON, DC, 20003","Match","Exact","624 A ST SE, WASHINGTON, DC, 20003",76230023,"L"
774688,"624 ABNEY ROAD","ROANOKE","VA",24012,37.32769432,-79.953347918,188,"624 ABNEY ROAD, ROANOKE, VA, 24012","Match","Non_Exact","624 ABNEY RD NW, ROANOKE, VA, 24012",62929218,"L"
774689,"624 ANDALUCIA DR","SOLEDAD","CA",93960,36.4316847010001,-121.321787686,189,"624 ANDALUCIA DR, SOLEDAD, CA, 93960","Match","Exact","624 ANDALUCIA DR, SOLEDAD, CA, 93960",196836292,"R"
774690,"624 ANTIOCH AVENUE UNIT 2","FORT LAUDERDALE","FL",33304,26.1315696520001,-80.1077849919999,190,"624 ANTIOCH AVENUE UNIT 2, FORT LAUDERDALE, FL, 33304","Match","Exact","624 ANTIOCH AVE, FORT LAUDERDALE, FL, 33304",114726311,"R"
774691,"624 ARCADE WAY","DRESHER","PA",19025,NA,NA,191,"624 ARCADE WAY, DRESHER, PA, 19025","No_Match",NA,NA,NA,NA
774692,"624 ARCHER STREET","MONTEREY","CA",93940,36.611603524,-121.90610668,192,"624 ARCHER STREET, MONTEREY, CA, 93940","Match","Exact","624 ARCHER ST, MONTEREY, CA, 93940",196814427,"R"
774693,"624 ASHFIELD","RICHARDSON","TX",75081,32.9314952180001,-96.716640252,193,"624 ASHFIELD, RICHARDSON, TX, 75081","Match","Non_Exact","624 ASHFIELD ST, RICHARDSON, TX, 75081",639618103,"R"
774694,"624 BALLENTINE AVE","MARION","OH",43302,40.599215583,-83.124120481,194,"624 BALLENTINE AVE, MARION, OH, 43302","Match","Exact","624 BALLENTINE AVE, MARION, OH, 43302",12710133,"R"
774695,"624 BANBURY RD","FARRAGUT","TN",37934,35.8604046140001,-84.165010385,195,"624 BANBURY RD, FARRAGUT, TN, 37934","Match","Exact","624 BANBURY RD, FARRAGUT, TN, 37934",42672443,"R"
774696,"624 BARRYMORE COVE","SOUTHAVEN","MS",38672,34.9102728610001,-89.979349599,196,"624 BARRYMORE COVE, SOUTHAVEN, MS, 38672","Match","Exact","624 BARRYMORE COVE, SOUTHAVEN, MS, 38672",624644746,"L"
774697,"624 BARTOLOME DE LAS CASAS  BO OBRE","SAN JUAN","PR",915,NA,NA,197,"624 BARTOLOME DE LAS CASAS  BO OBRE, SAN JUAN, PR, 915","No_Match",NA,NA,NA,NA
774698,"624 BAY HAVEN COVE","BILOXI","MS",39532,30.42472315,-88.958848707,198,"624 BAY HAVEN COVE, BILOXI, MS, 39532","Match","Exact","624 BAY HAVEN COVE, BILOXI, MS, 39532",111419323,"R"
774699,"624 BEACHY ROAD","ACCIDENT","MD",21520,39.592250279,-79.2654047999999,199,"624 BEACHY ROAD, ACCIDENT, MD, 21520","Match","Exact","624 BEACHY RD, ACCIDENT, MD, 21520",74197456,"R"
774700,"624 BEECH SPRINGS RD","HERTFORD","NC",27944,36.2279910460001,-76.5269957579999,200,"624 BEECH SPRINGS RD, HERTFORD, NC, 27944","Match","Exact","624 BEECH SPRINGS RD, HERTFORD, NC, 27944",18406357,"R"
774701,"624 BELLAIRE AVE","AMBLER","PA",19002,40.1495630410001,-75.210771501,201,"624 BELLAIRE AVE, AMBLER, PA, 19002","Match","Exact","624 BELLAIRE AVE, AMBLER, PA, 19002",639286335,"L"
774702,"624 BELLWOOD AVE","BELLWOOD","IL",60104,41.881287914,-87.878313674,202,"624 BELLWOOD AVE, BELLWOOD, IL, 60104","Match","Exact","624 BELLWOOD AVE, BELLWOOD, IL, 60104",111728033,"R"
774703,"624 BELMORROW DRIVE","CHARLOTTE","NC",28214,35.3013648960001,-80.9491687949999,203,"624 BELMORROW DRIVE, CHARLOTTE, NC, 28214","Match","Exact","624 BELMORROW DR, CHARLOTTE, NC, 28214",70473691,"L"
774704,"624 BENNETT RD","LINDEN","IN",47955,40.219008079,-86.9143133859999,204,"624 BENNETT RD, LINDEN, IN, 47955","Match","Exact","624 BENNETT RD, LINDEN, IN, 47955",639702153,"L"
774705,"624 BENT OAK DRIVE","COLUMBUS","NC",28722,35.234973903,-82.1655500849999,205,"624 BENT OAK DRIVE, COLUMBUS, NC, 28722","Match","Non_Exact","624 BENT OAK RD, COLUMBUS, NC, 28722",44319596,"L"
774706,"624 BETTES WAY APT 221","CHESAPEAKE","VA",23320,36.745821898,-76.259285201,206,"624 BETTES WAY APT 221, CHESAPEAKE, VA, 23320","Match","Non_Exact","624 BETTE'S WAY, CHESAPEAKE, VA, 23320",624285303,"R"
774707,"624 BLODGETTS LANE","JACKSONVILLE","FL",32206,30.3349382370001,-81.645046932,207,"624 BLODGETTS LANE, JACKSONVILLE, FL, 32206","Match","Exact","624 BLODGETTS LN, JACKSONVILLE, FL, 32206",83985536,"R"
774708,"624 BOARS HEAD DRIVE","PORT ORANGE","FL",32127,29.098221037,-80.994845966,208,"624 BOARS HEAD DRIVE, PORT ORANGE, FL, 32127","Match","Exact","624 BOARS HEAD DR, PORT ORANGE, FL, 32127",94529947,"L"
774709,"624 BOYSENBERRY WAY","OCEANSIDE","CA",92057,33.2496497650001,-117.27681542,209,"624 BOYSENBERRY WAY, OCEANSIDE, CA, 92057","Match","Exact","624 BOYSENBERRY WAY, OCEANSIDE, CA, 92057",195431100,"L"
774710,"624 BRIERWOOD","MOBERLY","MO",65270,39.4113301580001,-92.463182774,210,"624 BRIERWOOD, MOBERLY, MO, 65270","Match","Non_Exact","624 BRIERWOOD DR, MOBERLY, MO, 65270",23801777,"R"
774711,"624 BURCHER ROAD","NEWPORT NEWS","VA",23606,37.0804143170001,-76.520170343,211,"624 BURCHER ROAD, NEWPORT NEWS, VA, 23606","Match","Exact","624 BURCHER RD, NEWPORT NEWS, VA, 23606",103751639,"L"
774712,"624 BURLINGTON DR","MONTGOMERY","AL",36117,32.39378334,-86.1958640189999,212,"624 BURLINGTON DR, MONTGOMERY, AL, 36117","Match","Exact","624 BURLINGTON DR, MONTGOMERY, AL, 36117",1487694,"R"
774713,"624 C STREET NE","WASHINGTON","DC",20002,38.893590384,-76.997796022,213,"624 C STREET NE, WASHINGTON, DC, 20002","Match","Exact","624 C ST NE, WASHINGTON, DC, 20002",76229966,"L"
774714,"624 CEDAR FIELD LANE","WEST COLUMBIA","SC",29170,33.940915838,-81.1673519569999,214,"624 CEDAR FIELD LANE, WEST COLUMBIA, SC, 29170","Match","Exact","624 CEDAR FIELD LN, WEST COLUMBIA, SC, 29170",640548318,"R"
774715,"624 CENTER ROAD","HINCKLEY","OH",44233,41.2396734590001,-81.708473263,215,"624 CENTER ROAD, HINCKLEY, OH, 44233","Match","Exact","624 CENTER RD, HINCKLEY, OH, 44233",58678581,"R"
774716,"624 CENTER ST","SMITHTON","PA",15479,40.153246661,-79.7418871849999,216,"624 CENTER ST, SMITHTON, PA, 15479","Match","Exact","624 CENTER ST, SMITHTON, PA, 15479",52999017,"R"
774717,"624 CHAPLIN STREET SE","WASHINGTON","DC",20019,38.880499446,-76.940523635,217,"624 CHAPLIN STREET SE, WASHINGTON, DC, 20019","Match","Exact","624 CHAPLIN ST SE, WASHINGTON, DC, 20019",76233692,"L"
774718,"624 CHARBONNET ST","NEW ORLEANS","LA",70117,29.9559478350001,-90.0154464569999,218,"624 CHARBONNET ST, NEW ORLEANS, LA, 70117","Match","Exact","624 CHARBONNET ST, NEW ORLEANS, LA, 70117",191718585,"L"
774719,"624 CHASTAIN PLACE","MARIETTA","GA",30066,34.0377146700001,-84.536761513,219,"624 CHASTAIN PLACE, MARIETTA, GA, 30066","Match","Exact","624 CHASTAIN PL, MARIETTA, GA, 30066",17230293,"L"
774720,"624 CHATFIELD CV","SOUTHAVEN","MS",38672,34.9094110190001,-89.9793503659999,220,"624 CHATFIELD CV, SOUTHAVEN, MS, 38672","Match","Exact","624 CHATFIELD COVE, SOUTHAVEN, MS, 38672",624644722,"L"
774721,"624 CHOCOLATE CITY ROAD","ESTILL","SC",29918,32.7378934180001,-81.1265930179999,221,"624 CHOCOLATE CITY ROAD, ESTILL, SC, 29918","Match","Exact","624 CHOCOLATE CITY RD, ESTILL, SC, 29918",33119488,"R"
774722,"624 CHURCH STREET","LUDLOW","KY",41016,39.0887655110001,-84.55218149,222,"624 CHURCH STREET, LUDLOW, KY, 41016","Match","Exact","624 CHURCH ST, LUDLOW, KY, 41016",103893661,"R"
774723,"624 CLARENCE AVE","OAKPARK","IL",60304,41.8774784020001,-87.79049091,223,"624 CLARENCE AVE, OAKPARK, IL, 60304","Match","Non_Exact","624 CLARENCE AVE, OAK PARK, IL, 60304",111754747,"L"
774724,"624 CLIFTON AVENUE","LAKEWOOD","NJ",8701,40.096321763,-74.215398804,224,"624 CLIFTON AVENUE, LAKEWOOD, NJ, 8701","Match","Exact","624 CLIFTON AVE, LAKEWOOD, NJ, 08701",203723523,"L"
774725,"624 COLLEGE ST","SULPHUR SPRINGS","TX",75482,33.137710509,-95.591062643,225,"624 COLLEGE ST, SULPHUR SPRINGS, TX, 75482","Match","Exact","624 COLLEGE ST, SULPHUR SPRINGS, TX, 75482",42786506,"L"
774726,"624 COLMAR CT","DANVILE","CA",94506,37.795070508,-121.891495527,226,"624 COLMAR CT, DANVILE, CA, 94506","Match","Non_Exact","624 COLMAR CT, DANVILLE, CA, 94506",624638191,"R"
774727,"624 CONGRESS AVE","INDIANAPOLIS","IN",46208,39.812257437,-86.170904513,227,"624 CONGRESS AVE, INDIANAPOLIS, IN, 46208","Match","Exact","624 CONGRESS AVE, INDIANAPOLIS, IN, 46208",107986477,"R"
774728,"624 COTTAGE STREET","NEW BEDFORD","MA",2740,41.647642196,-70.935440515,228,"624 COTTAGE STREET, NEW BEDFORD, MA, 2740","Match","Exact","624 COTTAGE ST, NEW BEDFORD, MA, 02740",46752927,"R"
774729,"624 COUNTY RD 43","HEFLIN","AL",36264,33.5793624410001,-85.4427657419999,229,"624 COUNTY RD 43, HEFLIN, AL, 36264","Match","Non_Exact","624 CO HWY 43, HEFLIN, AL, 36264",30369741,"R"
774730,"624 CRANSTON RD","BELOIT","WI",53511,42.532318753,-89.034815873,230,"624 CRANSTON RD, BELOIT, WI, 53511","Match","Exact","624 CRANSTON RD, BELOIT, WI, 53511",49857206,"R"
774731,"624 CREEK DR","MENLO PARK","CA",94025,37.4463343900001,-122.172430882,231,"624 CREEK DR, MENLO PARK, CA, 94025","Match","Exact","624 CREEK DR, MENLO PARK, CA, 94025",192365618,"R"
774732,"624 CUMBERLAND DRIVE","BURLESON","TX",76134,32.5483796390001,-97.3507671959999,232,"624 CUMBERLAND DRIVE, BURLESON, TX, 76134","Match","Non_Exact","624 CUMBERLAND DR, BURLESON, TX, 76028",103516633,"L"
774733,"624 DADE LANE","RICHMOND HEIGHTS","OH",44143,41.5461155410001,-81.519173628,233,"624 DADE LANE, RICHMOND HEIGHTS, OH, 44143","Match","Exact","624 DADE LN, RICHMOND HEIGHTS, OH, 44143",61159116,"L"
774734,"624 DAINGERFIELD","PITTSBURG","TX",75686,32.9992332370001,-94.951488121,234,"624 DAINGERFIELD, PITTSBURG, TX, 75686","Match","Non_Exact","624 DAINGERFIELD ST, PITTSBURG, TX, 75686",83206091,"L"
774735,"624 DECATUR AVENUE","BROOKSVILLE","FL",34601,28.5501070280001,-82.396628084,235,"624 DECATUR AVENUE, BROOKSVILLE, FL, 34601","Match","Exact","624 DECATUR AVE, BROOKSVILLE, FL, 34601",85464647,"L"
774736,"624 DELK LANE","COLUMBIA","TN",38401,35.645840084,-86.990789885,236,"624 DELK LANE, COLUMBIA, TN, 38401","Match","Exact","624 DELK LN, COLUMBIA, TN, 38401",647613131,"R"
774737,"624 E 222ND ST APT 2C","BRONX","NY",10467,40.8863897590001,-73.863836447,237,"624 E 222ND ST APT 2C, BRONX, NY, 10467","Match","Non_Exact","624 E 222ND ST, BRONX, NY, 10467",652207396,"R"
774738,"624 E 3RD AVENUE","SALT LAKE CITY","UT",84103,40.772827842,-111.870781154,238,"624 E 3RD AVENUE, SALT LAKE CITY, UT, 84103","Match","Exact","624 E 3RD AVE, SALT LAKE CITY, UT, 84103",176067922,"R"
774739,"624 E ARCHER ST","TULSA","OK",74120,36.159728871,-95.9862475309999,239,"624 E ARCHER ST, TULSA, OK, 74120","Match","Exact","624 E ARCHER ST, TULSA, OK, 74120",166437944,"R"
774740,"624 E BOXWOOD LN","AZUSA","CA",91702,34.1433338050001,-117.898289593,240,"624 E BOXWOOD LN, AZUSA, CA, 91702","Match","Exact","624 BOXWOOD LN, AZUSA, CA, 91702",614347547,"L"
774741,"624 E CAMINO COLEGIO","SANTA MARIA","CA",93454,NA,NA,241,"624 E CAMINO COLEGIO, SANTA MARIA, CA, 93454","No_Match",NA,NA,NA,NA
774742,"624 E COLLEGE ST","MEDFORD","WI",54451,45.129951125,-90.336348559,242,"624 E COLLEGE ST, MEDFORD, WI, 54451","Match","Exact","624 COLLEGE ST, MEDFORD, WI, 54451",607308076,"R"
774743,"624 E COUNTY LINE ROAD","LAKEWOOD","NJ",8701,40.1051067770001,-74.203950645,243,"624 E COUNTY LINE ROAD, LAKEWOOD, NJ, 8701","Match","Exact","624 E COUNTY LINE RD, LAKEWOOD, NJ, 08701",635807479,"R"
774744,"624 E GUILFORD STREET","LEBANON","PA",17046,NA,NA,244,"624 E GUILFORD STREET, LEBANON, PA, 17046","Tie",NA,NA,NA,NA
774745,"624 E LINCOLN AVE","MUSKEGON HEIGHTS","MI",49444,43.1952761580001,-86.228506184,245,"624 E LINCOLN AVE, MUSKEGON HEIGHTS, MI, 49444","Match","Exact","624 LINCOLN AVE, MUSKEGON HEIGHTS, MI, 49444",77654061,"L"
774746,"624 E LONGDEN AVENUE","ARCADIA","CA",91006,34.1143204050001,-118.018062184,246,"624 E LONGDEN AVENUE, ARCADIA, CA, 91006","Match","Exact","624 E LONGDEN AVE, ARCADIA, CA, 91006",141645716,"R"
774747,"624 E MAIN ST","ROCK HILL","SC",29730,34.9208711910001,-81.017080659,247,"624 E MAIN ST, ROCK HILL, SC, 29730","Match","Exact","624 E MAIN ST, ROCK HILL, SC, 29730",19792087,"R"
774748,"624 E MORNING GLORY DRIVE","PAGOSA SPRINGS","CO",81147,37.333772111,-107.1379748,248,"624 E MORNING GLORY DRIVE, PAGOSA SPRINGS, CO, 81147","Match","Exact","624 E MORNING GLORY DR, PAGOSA SPRINGS, CO, 81147",127332064,"L"
774749,"624 E TURMONT ST","CARSON","CA",90746,33.8495440510001,-118.263947975,249,"624 E TURMONT ST, CARSON, CA, 90746","Match","Exact","624 E TURMONT ST, CARSON, CA, 90746",141680509,"R"
774750,"624 EAST 20TH STREET","NEW YORK","NY",10009,40.7328947240001,-73.97515376,250,"624 EAST 20TH STREET, NEW YORK, NY, 10009","Match","Exact","624 E 20TH ST, NEW YORK, NY, 10009",59654649,"R"
774751,"624 EAST 23RD STREET","PATERSON","NJ",7514,40.9191944630001,-74.1511905139999,251,"624 EAST 23RD STREET, PATERSON, NJ, 7514","Match","Exact","624 E 23RD ST, PATERSON, NJ, 07514",65264442,"R"
774752,"624 EAST 26TH STREET","PATERSON","NJ",7504,40.9170702770001,-74.148779078,252,"624 EAST 26TH STREET, PATERSON, NJ, 7504","Match","Exact","624 E 26TH ST, PATERSON, NJ, 07504",651867390,"R"
774753,"624 EAST 2ND STREET APT 2","BOSTON","MA",2127,42.337277821,-71.037921425,253,"624 EAST 2ND STREET APT 2, BOSTON, MA, 2127","Match","Exact","624 E 2ND ST, BOSTON, MA, 02127",85722180,"L"
774754,"624 EAST AVE","TALLMADGE","OH",44278,41.1009817070001,-81.418148996,254,"624 EAST AVE, TALLMADGE, OH, 44278","Match","Exact","624 EAST AVE, TALLMADGE, OH, 44278",61352729,"R"
774755,"624 EAST BEALE STREET","KINGMAN","AZ",86401,NA,NA,255,"624 EAST BEALE STREET, KINGMAN, AZ, 86401","Tie",NA,NA,NA,NA
774756,"624 EAST FOREST AVE","LA PORTE","TX",77571,29.621857361,-95.015967138,256,"624 EAST FOREST AVE, LA PORTE, TX, 77571","Match","Non_Exact","624 FOREST AVE, LA PORTE, TX, 77571",96116807,"L"
774757,"624 EAST FROM STREET","DANVILLE","PA",17821,NA,NA,257,"624 EAST FROM STREET, DANVILLE, PA, 17821","No_Match",NA,NA,NA,NA
774758,"624 EAST FRONT STREET","DANVILLE","PA",17821,40.9565119700001,-76.61186779,258,"624 EAST FRONT STREET, DANVILLE, PA, 17821","Match","Exact","624 E FRONT ST, DANVILLE, PA, 17821",59193560,"L"
774759,"624 EAST LAKE SHORE DRIVE","CULVER","IN",46511,41.2188080400001,-86.418640612,259,"624 EAST LAKE SHORE DRIVE, CULVER, IN, 46511","Match","Exact","624 E LAKE SHORE DR, CULVER, IN, 46511",7648186,"R"
774760,"624 EAST MAIN ST","GROVE CITY","PA",16127,41.161492036,-80.0942343689999,260,"624 EAST MAIN ST, GROVE CITY, PA, 16127","Match","Non_Exact","624 W MAIN ST, GROVE CITY, PA, 16127",605382722,"L"
774761,"624 EASTVIEW CIR","YUKON","OK",73099,35.5031587550001,-97.7180052689999,261,"624 EASTVIEW CIR, YUKON, OK, 73099","Match","Exact","624 EASTVIEW CIR, YUKON, OK, 73099",613795974,"R"
774762,"624 EDDINGS OINT ROAD","ST. HELENA ISLAND","SC",29920,NA,NA,262,"624 EDDINGS OINT ROAD, ST. HELENA ISLAND, SC, 29920","No_Match",NA,NA,NA,NA
774763,"624 EDGEBROOK AVE","KELLER","TX",76248,32.9221531580001,-97.189909772,263,"624 EDGEBROOK AVE, KELLER, TX, 76248","Match","Exact","624 EDGEBROOK AVE, KELLER, TX, 76248",102106805,"L"
774764,"624 EDGEWOOD","CORSICANA","TX",75110,32.1143306550001,-96.4880460319999,264,"624 EDGEWOOD, CORSICANA, TX, 75110","Match","Non_Exact","624 EDGEWOOD AVE, CORSICANA, TX, 75110",183885573,"L"
774765,"624 ELM DR","PETALUMA","CA",94952,38.24057084,-122.658270712,265,"624 ELM DR, PETALUMA, CA, 94952","Match","Exact","624 ELM DR, PETALUMA, CA, 94952",67516821,"L"
774766,"624 ELM ST","MINDEN","LA",71055,32.6223316310001,-93.280194092,266,"624 ELM ST, MINDEN, LA, 71055","Match","Exact","624 ELM ST, MINDEN, LA, 71055",73395767,"R"
774767,"624 ELMDALE ROAD","TOLEDO","OH",43609,41.628542963,-83.6163184169999,267,"624 ELMDALE ROAD, TOLEDO, OH, 43609","Match","Exact","624 ELMDALE RD, TOLEDO, OH, 43609",33955216,"R"
774768,"624 ELYSIAN AVE","MORGANTOWN","WV",26501,39.616433477,-79.966239193,268,"624 ELYSIAN AVE, MORGANTOWN, WV, 26501","Match","Exact","624 ELYSIAN AVE, MORGANTOWN, WV, 26501",50746702,"L"
774769,"624 ESTRELLA AVENUE","ARCADIA","CA",91007,34.116394003,-118.052098954,269,"624 ESTRELLA AVENUE, ARCADIA, CA, 91007","Match","Exact","624 ESTRELLA AVE, ARCADIA, CA, 91007",141644717,"L"
774770,"624 EVANS DRIVE","MILFORD","DE",19963,38.8880237230001,-75.4179253679999,270,"624 EVANS DRIVE, MILFORD, DE, 19963","Match","Exact","624 EVANS DR, MILFORD, DE, 19963",106077214,"R"
774771,"624 FAIRBLUFF DRIVE","HOPE MILLS","NC",28348,34.975449289,-78.916839184,271,"624 FAIRBLUFF DRIVE, HOPE MILLS, NC, 28348","Match","Exact","624 FAIRBLUFF DR, HOPE MILLS, NC, 28348",64261010,"R"
774772,"624 FAIRMONT PL","ABERDEEN","WA",98520,46.9922235340001,-123.817770367,272,"624 FAIRMONT PL, ABERDEEN, WA, 98520","Match","Exact","624 FAIRMONT PL, ABERDEEN, WA, 98520",180581466,"L"
774773,"624 FAIRWAY DRIVE","LAPLACE","LA",70068,30.0835924790001,-90.4844907579999,273,"624 FAIRWAY DRIVE, LAPLACE, LA, 70068","Match","Non_Exact","624 FAIRWAY DR, LA PLACE, LA, 70068",93694190,"L"
774774,"624 FARRAGUT PLACE NE","WASHINGTON","DC",20017,38.951271073,-76.9975096869999,274,"624 FARRAGUT PLACE NE, WASHINGTON, DC, 20017","Match","Exact","624 FARRAGUT PL NE, WASHINGTON, DC, 20017",76228095,"L"
774775,"624 FERN STREET","NEW ORLEANS","LA",70118,29.9419999680001,-90.1322864919999,275,"624 FERN STREET, NEW ORLEANS, LA, 70118","Match","Exact","624 FERN ST, NEW ORLEANS, LA, 70118",191701388,"L"
774776,"624 FOSS AVE","DREXEL HILL","PA",19026,39.9501157940001,-75.298427894,276,"624 FOSS AVE, DREXEL HILL, PA, 19026","Match","Exact","624 FOSS AVE, DREXEL HILL, PA, 19026",134876341,"L"
774777,"624 FREDERICK STREET","READING","PA",19608,40.3076569730001,-75.992790343,277,"624 FREDERICK STREET, READING, PA, 19608","Match","Exact","624 FREDERICK ST, READING, PA, 19608",635113520,"R"
774778,"624 FRENCH ST","SANTA ANA","CA",92701,33.75011765,-117.864556894,278,"624 FRENCH ST, SANTA ANA, CA, 92701","Match","Exact","624 FRENCH ST, SANTA ANA, CA, 92701",144042098,"L"
774779,"624 GALVIN AVE","ROSELLE","NJ",7203,40.658289401,-74.247186627,279,"624 GALVIN AVE, ROSELLE, NJ, 7203","Match","Exact","624 GALVIN AVE, ROSELLE, NJ, 07203",60576773,"R"
774780,"624 GAYNELL DR","HOUMA","LA",70364,29.6314187140001,-90.739632339,280,"624 GAYNELL DR, HOUMA, LA, 70364","Match","Exact","624 GAYNELL DR, HOUMA, LA, 70364",92049610,"R"
774781,"624 GAYNELL DRIVE","HOUMA","LA",70363,29.6314187140001,-90.739632339,281,"624 GAYNELL DRIVE, HOUMA, LA, 70363","Match","Non_Exact","624 GAYNELL DR, HOUMA, LA, 70364",92049610,"R"
774782,"624 GENERAL TAYLOR","NEW ORLEANS","LA",70115,29.9187222210001,-90.0942793689999,282,"624 GENERAL TAYLOR, NEW ORLEANS, LA, 70115","Match","Non_Exact","624 GENERAL TAYLOR ST, NEW ORLEANS, LA, 70115",191713243,"L"
774783,"624 GRABRUCK","DANVILLE","KY",40422,37.654388162,-84.744522433,283,"624 GRABRUCK, DANVILLE, KY, 40422","Match","Non_Exact","624 GRABRUCK ST, DANVILLE, KY, 40422",32488888,"R"
774784,"624 GRAN KAYMEN WAY","APOLLO BEACH","FL",33572,27.7688343990001,-82.410570661,284,"624 GRAN KAYMEN WAY, APOLLO BEACH, FL, 33572","Match","Exact","624 GRAN KAYMEN WAY, APOLLO BEACH, FL, 33572",104495643,"L"
774785,"624 GROVER STREET","WARRENSBURG","MO",64093,38.761480346,-93.728057203,285,"624 GROVER STREET, WARRENSBURG, MO, 64093","Match","Exact","624 GROVER ST, WARRENSBURG, MO, 64093",95341656,"L"
774786,"624 GUNBY RD","MARIETTA","GA",30067,33.9343676280001,-84.447641808,286,"624 GUNBY RD, MARIETTA, GA, 30067","Match","Exact","624 GUNBY RD, MARIETTA, GA, 30067",17187040,"L"
774787,"624 HAMILTON AVE","LORAIN","OH",44052,41.4638373070001,-82.18130027,287,"624 HAMILTON AVE, LORAIN, OH, 44052","Match","Exact","624 HAMILTON AVE, LORAIN, OH, 44052",55404415,"R"
774788,"624 HAY MARKET LANE","TUSCALOOSA","AL",35405,33.115727301,-87.5451963199999,288,"624 HAY MARKET LANE, TUSCALOOSA, AL, 35405","Match","Exact","624 HAY MARKET LN, TUSCALOOSA, AL, 35405",82222075,"L"
774789,"624 HAZELHURST AVE","MERION STATION","PA",19066,39.997398923,-75.253745377,289,"624 HAZELHURST AVE, MERION STATION, PA, 19066","Match","Exact","624 HAZELHURST AVE, MERION STA, PA, 19066",135091045,"L"
774790,"624 HOT SHOT LANE","MCQUEENY","TX",78123,29.5974312220001,-98.036930779,290,"624 HOT SHOT LANE, MCQUEENY, TX, 78123","Match","Non_Exact","624 HOT SHOT LN, MCQUEENEY, TX, 78123",54844858,"L"
774791,"624 HURON BLVD APT 105 SE","MINNEAPOLIS","MN",55414,44.969881458,-93.222937299,291,"624 HURON BLVD APT 105 SE, MINNEAPOLIS, MN, 55414","Match","Non_Exact","624 HURON BLVD SE, MINNEAPOLIS, MN, 55414",640440854,"R"
774792,"624 IDLEWOOD LANE","KNOXVILLE","TN",37923,35.907143585,-84.0598184569999,292,"624 IDLEWOOD LANE, KNOXVILLE, TN, 37923","Match","Exact","624 IDLEWOOD LN, KNOXVILLE, TN, 37923",42614915,"L"
774793,"624 ILLINOIS ST","GARY","IN",46402,41.5995765220001,-87.3160898679999,293,"624 ILLINOIS ST, GARY, IN, 46402","Match","Exact","624 ILLINOIS ST, GARY, IN, 46402",98427279,"R"
774794,"624 INDIAN OAK LANE UNIT 105","OAK PARK","CA",91377,34.183238686,-118.765845948,294,"624 INDIAN OAK LANE UNIT 105, OAK PARK, CA, 91377","Match","Exact","624 INDIAN OAK LN, OAK PARK, CA, 91377",110019882,"L"
774795,"624 ISLE OF PALMS DRIVE","FORT LAUDERDALE","FL",33301,26.1156432020001,-80.116126105,295,"624 ISLE OF PALMS DRIVE, FORT LAUDERDALE, FL, 33301","Match","Exact","624 ISLE OF PALMS DR, FORT LAUDERDALE, FL, 33301",114821504,"L"
774796,"624 JEFFERSON AVE","SCRANTON","PA",18510,41.4114577940001,-75.655598636,296,"624 JEFFERSON AVE, SCRANTON, PA, 18510","Match","Exact","624 JEFFERSON AVE, SCRANTON, PA, 18510",139327527,"R"
774797,"624 JETTY DRIVE","CHATHAM","IL",62629,39.6958959460001,-89.7178793579999,297,"624 JETTY DRIVE, CHATHAM, IL, 62629","Match","Exact","624 JETTY DR, CHATHAM, IL, 62629",625836006,"L"
774798,"624 JIMWOOD DR","VINE GROVE","KY",40175,37.8139641010001,-85.9715643489999,298,"624 JIMWOOD DR, VINE GROVE, KY, 40175","Match","Exact","624 JIMWOOD DR, VINE GROVE, KY, 40175",34634454,"R"
774799,"624 JOHNSON AVENUE","ELIZABETHTON","TN",37643,36.3422748340001,-82.214169713,299,"624 JOHNSON AVENUE, ELIZABETHTON, TN, 37643","Match","Exact","624 JOHNSON AVE, ELIZABETHTON, TN, 37643",43042548,"R"
774800,"624 JULIA STREET","NEW ORLEANS","LA",70130,29.9457831570001,-90.071098557,300,"624 JULIA STREET, NEW ORLEANS, LA, 70130","Match","Exact","624 JULIA ST, NEW ORLEANS, LA, 70130",191714300,"L"
774801,"624 KAHN DRIVE","PIKESVILLE","MD",21208,39.3612674340001,-76.7270004109999,301,"624 KAHN DRIVE, PIKESVILLE, MD, 21208","Match","Exact","624 KAHN DR, PIKESVILLE, MD, 21208",191468521,"R"
774802,"624 KENBROOK DRIVE","SILVER SPRING","MD",20902,39.0392004890001,-77.021116793,302,"624 KENBROOK DRIVE, SILVER SPRING, MD, 20902","Match","Exact","624 KENBROOK DR, SILVER SPRING, MD, 20902",62064804,"L"
774803,"624 KENOVA CHASE","LEXINGTON","KY",40511,38.097010008,-84.5369075419999,303,"624 KENOVA CHASE, LEXINGTON, KY, 40511","Match","Non_Exact","624 KENOVA TRCE, LEXINGTON, KY, 40511",31954800,"L"
774804,"624 KING AVE","NEWARK","OH",43055,40.074525486,-82.42125379,304,"624 KING AVE, NEWARK, OH, 43055","Match","Exact","624 KING AVE, NEWARK, OH, 43055",61506982,"R"
774805,"624 KING GEORGE DRIVE APT 221","FORT WORTH","TX",76112,32.765386736,-97.242315854,305,"624 KING GEORGE DRIVE APT 221, FORT WORTH, TX, 76112","Match","Exact","624 KING GEORGE DR, FORT WORTH, TX, 76112",101897367,"L"
774806,"624 KINGS VIEW COURT","HAMPTON","VA",23669,37.0599403890001,-76.3110930889999,306,"624 KINGS VIEW COURT, HAMPTON, VA, 23669","Match","Exact","624 KINGS VIEW CT, HAMPTON, VA, 23669",103760256,"R"
774807,"624 KIVA AVE","AZTEC","NM",87410,NA,NA,307,"624 KIVA AVE, AZTEC, NM, 87410","No_Match",NA,NA,NA,NA
774808,"624 KOCH AVE","CAPE GIRARDEAU","MO",63703,37.2977897320001,-89.544787156,308,"624 KOCH AVE, CAPE GIRARDEAU, MO, 63703","Match","Exact","624 KOCH AVE, CAPE GIRARDEAU, MO, 63703",35183158,"R"
774809,"624 KUNTZ POINT","BULVERDE","TX",78163,29.7809311870001,-98.49688766,309,"624 KUNTZ POINT, BULVERDE, TX, 78163","Match","Exact","624 KUNTZ PT, BULVERDE, TX, 78163",72281453,"R"
774810,"624 LAKE ARTESIA LANE","FUQUAY VARINA","NC",27526,35.5738399040001,-78.752363928,310,"624 LAKE ARTESIA LANE, FUQUAY VARINA, NC, 27526","Match","Exact","624 LAKE ARTESIA LN, FUQUAY VARINA, NC, 27526",612826156,"L"
774811,"624 LAMAR AVE","CHARLOTTE","NC",28204,35.2171277780001,-80.818182881,311,"624 LAMAR AVE, CHARLOTTE, NC, 28204","Match","Exact","624 LAMAR AVE, CHARLOTTE, NC, 28204",70517660,"R"
774812,"624 LAMBERD AVENUE","JOHNSTOWN","PA",15904,40.293362201,-78.8691592709999,312,"624 LAMBERD AVENUE, JOHNSTOWN, PA, 15904","Match","Exact","624 LAMBERD AVE, JOHNSTOWN, PA, 15904",50234081,"R"
774813,"624 LARK CT","CONCORD","NC",28027,NA,NA,313,"624 LARK CT, CONCORD, NC, 28027","No_Match",NA,NA,NA,NA
774814,"624 LAURA LANE","GRAND PRAIRIE","TX",75052,32.668992675,-97.012752437,314,"624 LAURA LANE, GRAND PRAIRIE, TX, 75052","Match","Exact","624 LAURA LN, GRAND PRAIRIE, TX, 75052",103005284,"R"
774815,"624 LEE ST","PERTH AMBOY","NJ",8861,40.5238368070001,-74.284015498,315,"624 LEE ST, PERTH AMBOY, NJ, 8861","Match","Exact","624 LEE ST, PERTH AMBOY, NJ, 08861",60280712,"R"
774816,"624 LEE ST","SULPHUR SPRINGS","TX",75482,33.1195722030001,-95.6079116929999,316,"624 LEE ST, SULPHUR SPRINGS, TX, 75482","Match","Exact","624 LEE ST, SULPHUR SPRINGS, TX, 75482",42788477,"L"
774817,"624 LEEWARD AVE","BEACHWOOD","NJ",8731,NA,NA,317,"624 LEEWARD AVE, BEACHWOOD, NJ, 8731","No_Match",NA,NA,NA,NA
774818,"624 LEGACY PRIDE DRIVE","HERNDON","VA",20170,38.9662399000001,-77.3868021169999,318,"624 LEGACY PRIDE DRIVE, HERNDON, VA, 20170","Match","Exact","624 LEGACY PRIDE DR, HERNDON, VA, 20170",76046086,"R"
774819,"624 LEILA COURT","WEST CARROLLTON","OH",45449,39.657512119,-84.261936099,319,"624 LEILA COURT, WEST CARROLLTON, OH, 45449","Match","Exact","624 LEILA CT, WEST CARROLLTON, OH, 45449",143592119,"R"
774820,"624 LIMONA ROAD","BRANDON","FL",33510,27.9483091290001,-82.304184086,320,"624 LIMONA ROAD, BRANDON, FL, 33510","Match","Exact","624 LIMONA RD, BRANDON, FL, 33510",104542799,"L"
774821,"624 LINCOLN AVE APARTMENT 6","SPRINGDALE","PA",15144,40.5403594220001,-79.783158049,321,"624 LINCOLN AVE APARTMENT 6, SPRINGDALE, PA, 15144","Match","Exact","624 LINCOLN AVE, SPRINGDALE, PA, 15144",641833768,"R"
774822,"624 LODGEPOLE STREET","GRAND JUNCTION","CO",81504,39.0947276730001,-108.48305533,322,"624 LODGEPOLE STREET, GRAND JUNCTION, CO, 81504","Match","Exact","624 LODGEPOLE ST, GRAND JCT, CO, 81504",636074531,"L"
774823,"624 LOUISE STREET","MANSFIELD","LA",71052,32.0330612810001,-93.691833058,323,"624 LOUISE STREET, MANSFIELD, LA, 71052","Match","Exact","624 LOUISE ST, MANSFIELD, LA, 71052",67642981,"L"
774824,"624 LUCAS DRIVE","LAFAYETTE","CA",94549,37.8698644680001,-122.092633702,324,"624 LUCAS DRIVE, LAFAYETTE, CA, 94549","Match","Exact","624 LUCAS DR, LAFAYETTE, CA, 94549",192052172,"R"
774825,"624 MABLE STREET","WINONA","MS",38967,NA,NA,325,"624 MABLE STREET, WINONA, MS, 38967","No_Match",NA,NA,NA,NA
774826,"624 MAIN ST","GOODING","ID",83330,42.9392757740001,-114.712855226,326,"624 MAIN ST, GOODING, ID, 83330","Match","Exact","624 MAIN ST, GOODING, ID, 83330",118500558,"R"
774827,"624 MAIN ST","OLEAN","NY",14760,42.091084133,-78.426232237,327,"624 MAIN ST, OLEAN, NY, 14760","Match","Exact","624 MAIN ST, OLEAN, NY, 14760",122031318,"R"
774828,"624 MAIN STREET","BROCKTON","MA",2301,42.072831283,-71.018778184,328,"624 MAIN STREET, BROCKTON, MA, 2301","Match","Exact","624 MAIN ST, BROCKTON, MA, 02301",87444243,"L"
774829,"624 MAIN","GOODLAND","KS",67735,39.3530349870001,-101.711788613,329,"624 MAIN, GOODLAND, KS, 67735","Match","Non_Exact","624 MAIN AVE, GOODLAND, KS, 67735",146652650,"L"
774830,"624 MAJOR AVE","MINTO","ND",58261,48.2934169320001,-97.379524971,330,"624 MAJOR AVE, MINTO, ND, 58261","Match","Exact","624 MAJOR AVE, MINTO, ND, 58261",171948917,"L"
774831,"624 MANSFIELD ROAD","BALTIMORE","MD",21221,39.308248823,-76.45116308,331,"624 MANSFIELD ROAD, BALTIMORE, MD, 21221","Match","Exact","624 MANSFIELD RD, BALTIMORE, MD, 21221",191531005,"R"
774832,"624 MAPLE AVE","GLADEWATER","TX",75647,32.5431014490001,-94.948364939,332,"624 MAPLE AVE, GLADEWATER, TX, 75647","Match","Non_Exact","624 W MAPLE AVE, GLADEWATER, TX, 75647",141112759,"L"
774833,"624 MARKHAM DRIVE","SLIDELL","LA",70458,30.2502320830001,-89.780668664,333,"624 MARKHAM DRIVE, SLIDELL, LA, 70458","Match","Exact","624 MARKHAM DR, SLIDELL, LA, 70458",111266246,"R"
774834,"624 MARTIN STREET","WEST MONROE","LA",71292,32.4643996120001,-92.1735668109999,334,"624 MARTIN STREET, WEST MONROE, LA, 71292","Match","Exact","624 MARTIN ST, WEST MONROE, LA, 71292",616289985,"R"
774835,"624 MASONIC AVE","ALBANY","CA",94706,37.8956223170001,-122.295249343,335,"624 MASONIC AVE, ALBANY, CA, 94706","Match","Exact","624 MASONIC AVE, ALBANY, CA, 94706",124992025,"R"
774836,"624 MATSON HILL ROAD","SOUTH GLASTONBURY","CT",6073,41.6515623000001,-72.5701022269999,336,"624 MATSON HILL ROAD, SOUTH GLASTONBURY, CT, 6073","Match","Exact","624 MATSON HILL RD, S GLASTONBURY, CT, 06073",3535391,"R"
774837,"624 MERMAID AVENUE","BEACHWOOD","NJ",8722,39.930192279,-74.192910587,337,"624 MERMAID AVENUE, BEACHWOOD, NJ, 8722","Match","Exact","624 MERMAID AVE, BEACHWOOD, NJ, 08722",203730585,"R"
774838,"624 MICHIGAN AVE","STEVENS POINT","WI",54481,44.529263476,-89.564591244,338,"624 MICHIGAN AVE, STEVENS POINT, WI, 54481","Match","Exact","624 MICHIGAN AVE, STEVENS POINT, WI, 54481",126794253,"L"
774839,"624 MILITARY TRAIL","DEERFIELD BEACH","FL",33442,26.3096569140001,-80.126859306,339,"624 MILITARY TRAIL, DEERFIELD BEACH, FL, 33442","Match","Non_Exact","624 S MILITARY TRL, DEERFIELD BEACH, FL, 33442",640937861,"L"
774840,"624 MILL STREET","REEDSVILLE","WI",54230,44.1552883950001,-87.960522586,340,"624 MILL STREET, REEDSVILLE, WI, 54230","Match","Exact","624 MILL ST, REEDSVILLE, WI, 54230",147955842,"L"
774841,"624 MOFFETT BRANCH ROAD","CHURCHVILLE","VA",24421,38.2476095850001,-79.105923483,341,"624 MOFFETT BRANCH ROAD, CHURCHVILLE, VA, 24421","Match","Exact","624 MOFFETT BRANCH RD, CHURCHVILLE, VA, 24421",213460343,"L"
774842,"624 MORGAN ST","DICKSON CITY","PA",18519,41.4574378200001,-75.626164828,342,"624 MORGAN ST, DICKSON CITY, PA, 18519","Match","Exact","624 MORGAN ST, DICKSON CITY, PA, 18519",606751819,"R"
774843,"624 MORRISIDE DRIVE","SAN ANTONIO","TX",78239,NA,NA,343,"624 MORRISIDE DRIVE, SAN ANTONIO, TX, 78239","No_Match",NA,NA,NA,NA
774844,"624 MOULTON AVE","LOS ANGELES","CA",90031,34.065470535,-118.219162751,344,"624 MOULTON AVE, LOS ANGELES, CA, 90031","Match","Exact","624 MOULTON AVE, LOS ANGELES, CA, 90031",141622284,"L"
774845,"624 MOULTRIE ST","SAN FRANCISCO","CA",94110,37.7368919100001,-122.41598824,345,"624 MOULTRIE ST, SAN FRANCISCO, CA, 94110","Match","Exact","624 MOULTRIE ST, SAN FRANCISCO, CA, 94110",192288692,"R"
774846,"624 N 32ND STREET APT 3","PHILADELPHIA","PA",19104,39.9651402690001,-75.188857156,346,"624 N 32ND STREET APT 3, PHILADELPHIA, PA, 19104","Match","Non_Exact","624 N 32ND ST, PHILADELPHIA, PA, 19104",131403726,"L"
774847,"624 N 34TH STREET","WACO","TX",76710,31.53725518,-97.163038767,347,"624 N 34TH STREET, WACO, TX, 76710","Match","Exact","624 N 34TH ST, WACO, TX, 76710",146744177,"L"
774848,"624 N 7TH","WAKEENEY","KS",67672,39.0321729460001,-99.880984524,348,"624 N 7TH, WAKEENEY, KS, 67672","Match","Non_Exact","624 N 7TH ST, WAKEENEY, KS, 67672",150102173,"R"
774849,"624 N BENTON WAY","LOS ANGELES","CA",90026,34.0762520540001,-118.273558705,349,"624 N BENTON WAY, LOS ANGELES, CA, 90026","Match","Exact","624 N BENTON WAY, LOS ANGELES, CA, 90026",141604866,"R"
774850,"624 N CASCADE AVE","COLORADO SPRINGS","CO",80903,38.8425881040001,-104.824766658,350,"624 N CASCADE AVE, COLORADO SPRINGS, CO, 80903","Match","Exact","624 N CASCADE AVE, COLORADO SPRINGS, CO, 80903",610725596,"L"
774851,"624 N FARR RD","SPOKANE VALLEY","WA",99206,47.6631679170001,-117.274744862,351,"624 N FARR RD, SPOKANE VALLEY, WA, 99206","Match","Exact","624 N FARR RD, SPOKANE VALLEY, WA, 99206",189886517,"R"
774852,"624 N GREY PEBBLE PL","EAGLE","ID",83616,43.7004883660001,-116.357912602,352,"624 N GREY PEBBLE PL, EAGLE, ID, 83616","Match","Exact","624 N GREY PEBBLE PL, EAGLE, ID, 83616",117943752,"R"
774853,"624 N L ST","TACOMA","WA",98403,47.2615555940001,-122.459571214,353,"624 N L ST, TACOMA, WA, 98403","Match","Exact","624 N L ST, TACOMA, WA, 98403",184646179,"L"
774854,"624 N LOTUS","MIDWEST CITY","OK",73130,35.4740295890001,-97.3565702609999,354,"624 N LOTUS, MIDWEST CITY, OK, 73130","Match","Non_Exact","624 N LOTUS AVE, MIDWEST CITY, OK, 73130",100416849,"R"
774855,"624 N RIDGEWOOD ROAD","TARBORO","NC",27886,35.87486118,-77.526833046,355,"624 N RIDGEWOOD ROAD, TARBORO, NC, 27886","Match","Exact","624 N RIDGEWOOD RD, TARBORO, NC, 27886",90195594,"L"
774856,"624 NORTH 32ND STREET","MILWAUKEE","WI",53208,43.0378691920001,-87.953989844,356,"624 NORTH 32ND STREET, MILWAUKEE, WI, 53208","Match","Exact","624 N 32ND ST, MILWAUKEE, WI, 53208",77740037,"R"
774857,"624 NORTH BROADWAY","BALTIMORE","MD",21205,39.297607999,-76.594381031,357,"624 NORTH BROADWAY, BALTIMORE, MD, 21205","Match","Exact","624 N BROADWAY, BALTIMORE, MD, 21205",206423731,"L"
774858,"624 NORTH OLYMPIA","NEW ORLEANS","LA",70119,29.9822550150001,-90.1022723249999,358,"624 NORTH OLYMPIA, NEW ORLEANS, LA, 70119","Match","Non_Exact","624 N OLYMPIA ST, NEW ORLEANS, LA, 70119",191706133,"R"
774859,"624 NORTH SPRUCE","OTTAWA","KS",66067,38.6254160550001,-95.2562849669999,359,"624 NORTH SPRUCE, OTTAWA, KS, 66067","Match","Non_Exact","624 N SPRUCE ST, OTTAWA, KS, 66067",10610536,"R"
774860,"624 NORTH VERMONT AVE UNIT A","GLENDORA","CA",91741,34.145927246,-117.866709554,360,"624 NORTH VERMONT AVE UNIT A, GLENDORA, CA, 91741","Match","Exact","624 N VERMONT AVE, GLENDORA, CA, 91741",141798557,"R"
774861,"624 NORTHFIELD RD","LITITZ","PA",17543,40.12292969,-76.346790765,361,"624 NORTHFIELD RD, LITITZ, PA, 17543","Match","Exact","624 NORTHFIELD RD, LITITZ, PA, 17543",179689695,"R"
774862,"624 NORTHGATE DRIVE","WINSTEAD","MN",55395,44.9737325230001,-94.049312517,362,"624 NORTHGATE DRIVE, WINSTEAD, MN, 55395","Match","Non_Exact","624 NORTHGATE DR, WINSTED, MN, 55395",36825160,"L"
774863,"624 NW CONGRESS STREET","BEND","OR",97703,44.0580514420001,-121.318709298,363,"624 NW CONGRESS STREET, BEND, OR, 97703","Match","Exact","624 NW CONGRESS ST, BEND, OR, 97703",152553917,"R"
774864,"624 NYE AVENUE","IRVINGTON","NJ",7111,40.725131409,-74.231464256,364,"624 NYE AVENUE, IRVINGTON, NJ, 7111","Match","Exact","624 NYE AVE, IRVINGTON, NJ, 07111",63464607,"L"
774865,"624 OLD PETERSBURG RD","LYNNVILLE","IN",47619,38.203913232,-87.3016953979999,365,"624 OLD PETERSBURG RD, LYNNVILLE, IN, 47619","Match","Exact","624 PETERSBURG RD, LYNNVILLE, IN, 47619",32203772,"R"
774866,"624 PALMER STREET","JAMESTOWN","NY",14701,42.090880461,-79.259101916,366,"624 PALMER STREET, JAMESTOWN, NY, 14701","Match","Exact","624 PALMER ST, JAMESTOWN, NY, 14701",120751933,"R"
774867,"624 PANORAMA POINT","LEXINGTON","SC",29072,34.0254952510001,-81.3326476239999,367,"624 PANORAMA POINT, LEXINGTON, SC, 29072","Match","Exact","624 PANORAMA PT, LEXINGTON, SC, 29072",640811914,"R"
774868,"624 PARKWAY","MAMARONECK","NY",10543,NA,NA,368,"624 PARKWAY, MAMARONECK, NY, 10543","No_Match",NA,NA,NA,NA
774869,"624 PARRISH STREET","UHRICHSVILLE","OH",44683,40.394254575,-81.348441142,369,"624 PARRISH STREET, UHRICHSVILLE, OH, 44683","Match","Exact","624 PARRISH ST, UHRICHSVILLE, OH, 44683",612282242,"L"
774870,"624 PARROTT DR","SAN MATEO","CA",94402,37.5529437010001,-122.335422707,370,"624 PARROTT DR, SAN MATEO, CA, 94402","Match","Exact","624 PARROTT DR, SAN MATEO, CA, 94402",192378111,"R"
774871,"624 PERTH AVE","FLOSSMOOR","IL",60422,41.5512003440001,-87.6775893939999,371,"624 PERTH AVE, FLOSSMOOR, IL, 60422","Match","Exact","624 PERTH AVE, FLOSSMOOR, IL, 60422",111709481,"R"
774872,"624 PINELAND AVE","BELLEAIR","FL",33756,27.9255205310001,-82.8098198599999,372,"624 PINELAND AVE, BELLEAIR, FL, 33756","Match","Exact","624 PINELAND AVE, BELLEAIR, FL, 33756",124671255,"L"
774873,"624 PINEY CREEK","BELLVILLE","TX",77418,30.027141698,-96.291055559,373,"624 PINEY CREEK, BELLVILLE, TX, 77418","Match","Non_Exact","624 PINEY CREEK RD, BELLVILLE, TX, 77418",639192027,"L"
774874,"624 PITT STREET","SOUTH PLAINFIELD","NJ",7080,40.575211648,-74.418810997,374,"624 PITT STREET, SOUTH PLAINFIELD, NJ, 7080","Match","Exact","624 PITT ST, S PLAINFIELD, NJ, 07080",647266016,"R"
774875,"624 PLEASANT ST","STOUGHTON","MA",2072,42.1367556000001,-71.086473441,375,"624 PLEASANT ST, STOUGHTON, MA, 2072","Match","Exact","624 PLEASANT ST, STOUGHTON, MA, 02072",642665509,"L"
774876,"624 PLEASANT VALLEY ROAD","BERNE","NY",12009,42.6465503140001,-74.1198858549999,376,"624 PLEASANT VALLEY ROAD, BERNE, NY, 12009","Match","Non_Exact","624 PLEASANT VALLEY RD, BERNE, NY, 12023",18333086,"R"
774877,"624 POND CREEK ROAD","SWEETWATER","TN",37874,35.6498271190001,-84.476318285,377,"624 POND CREEK ROAD, SWEETWATER, TN, 37874","Match","Exact","624 POND CREEK RD, SWEETWATER, TN, 37874",612108226,"R"
774878,"624 PONDVIEW DR","ANTIOCH","IL",60002,42.4930723750001,-88.104655011,378,"624 PONDVIEW DR, ANTIOCH, IL, 60002","Match","Exact","624 PONDVIEW DR, ANTIOCH, IL, 60002",119759209,"L"
774879,"624 PRICE AVENUE","DURHAM","NC",27703,35.9793278980001,-78.898033765,379,"624 PRICE AVENUE, DURHAM, NC, 27703","Match","Non_Exact","624 PRICE AVE, DURHAM, NC, 27701",71742665,"R"
774880,"624 PROSPECT STREET","ABERDEEN","NJ",7735,NA,NA,380,"624 PROSPECT STREET, ABERDEEN, NJ, 7735","No_Match",NA,NA,NA,NA
774881,"624 PROVIDENCE CIRCLE","CLOVIS","NM",88101,34.4175643730001,-103.169550652,381,"624 PROVIDENCE CIRCLE, CLOVIS, NM, 88101","Match","Exact","624 PROVIDENCE CIR, CLOVIS, NM, 88101",651409411,"L"
774882,"624 RAMAPO ROAD","TEANECK","NJ",7666,40.8967528920001,-74.024342868,382,"624 RAMAPO ROAD, TEANECK, NJ, 7666","Match","Exact","624 RAMAPO RD, TEANECK, NJ, 07666",64388530,"L"
774883,"624 RANDOLPH STREET","CINNAMINSON","NJ",8077,NA,NA,383,"624 RANDOLPH STREET, CINNAMINSON, NJ, 8077","No_Match",NA,NA,NA,NA
774884,"624 REDWOOD","TROY","MI",48083,42.5397759460001,-83.122506744,384,"624 REDWOOD, TROY, MI, 48083","Match","Non_Exact","624 REDWOOD DR, TROY, MI, 48083",69744471,"R"
774885,"624 REMBRANDT STREET","BAKERSFIELD","CA",93306,35.369775109,-118.955293089,385,"624 REMBRANDT STREET, BAKERSFIELD, CA, 93306","Match","Exact","624 REMBRANDT ST, BAKERSFIELD, CA, 93306",650743037,"R"
774886,"624 RENAISSANCE POINTE UNIT 207","ALTAMONTE SPRINGS","FL",32714,28.646122012,-81.4175555639999,386,"624 RENAISSANCE POINTE UNIT 207, ALTAMONTE SPRINGS, FL, 32714","Match","Exact","624 RENAISSANCE POINTE, ALTAMONTE SPRINGS, FL, 32714",650289584,"L"
774887,"624 RICHARDS AVE","BAKERSFIELD","CA",93307,35.36354026,-118.956426609,387,"624 RICHARDS AVE, BAKERSFIELD, CA, 93307","Match","Exact","624 RICHARDS AVE, BAKERSFIELD, CA, 93307",109096744,"L"
774888,"624 RIDGEVIEW DR","LONDON","KY",40741,37.130289873,-84.102848174,388,"624 RIDGEVIEW DR, LONDON, KY, 40741","Match","Exact","624 RIDGEVIEW DR, LONDON, KY, 40741",98743768,"L"
774889,"624 ROSSMORE AVENUE","PITTSBURGH","PA",15226,40.396137299,-80.0201644759999,389,"624 ROSSMORE AVENUE, PITTSBURGH, PA, 15226","Match","Exact","624 ROSSMORE AVE, PITTSBURGH, PA, 15226",51637698,"R"
774890,"624 S 17TH ST","SAGINAW","MI",48601,43.42295016,-83.913843164,390,"624 S 17TH ST, SAGINAW, MI, 48601","Match","Exact","624 S 17TH ST, SAGINAW, MI, 48601",80212974,"L"
774891,"624 S 200TH STREET","DES MOINES","WA",98198,47.42309426,-122.326603458,391,"624 S 200TH STREET, DES MOINES, WA, 98198","Match","Exact","624 S 200TH ST, DES MOINES, WA, 98198",187004624,"L"
774892,"624 S 350 E","BURLEY","ID",83318,42.4414390430001,-113.724642857,392,"624 S 350 E, BURLEY, ID, 83318","Match","Exact","624 S 350 E, BURLEY, ID, 83318",105282382,"L"
774893,"624 S 3600 W","OGDEN","UT",84404,41.2540307410001,-112.067350118,393,"624 S 3600 W, OGDEN, UT, 84404","Match","Exact","624 S 3600 W, OGDEN, UT, 84404",653303001,"L"
774894,"624 S 3RD AVE","CANTON","IL",61520,40.548072065,-90.0303644099999,394,"624 S 3RD AVE, CANTON, IL, 61520","Match","Exact","624 S 3RD AVE, CANTON, IL, 61520",15554557,"L"
774895,"624 S 6TH STREET","OKEMAH","OK",74859,35.4252628180001,-96.307327186,395,"624 S 6TH STREET, OKEMAH, OK, 74859","Match","Exact","624 S 6TH ST, OKEMAH, OK, 74859",107366494,"R"
774896,"624 S BRADY APT 206","DEARBORN","MI",48124,NA,NA,396,"624 S BRADY APT 206, DEARBORN, MI, 48124","No_Match",NA,NA,NA,NA
774897,"624 S BRADY","DEARBORN","MI",48124,42.310825987,-83.241612565,397,"624 S BRADY, DEARBORN, MI, 48124","Match","Non_Exact","624 S BRADY ST, DEARBORN, MI, 48124",95440761,"R"
774898,"624 S CHARLES AVE UNIT B","NAPERVILLE","IL",60540,41.763508261,-88.128486502,398,"624 S CHARLES AVE UNIT B, NAPERVILLE, IL, 60540","Match","Non_Exact","624 S CHARLES AVE, NAPERVILLE, IL, 60540",112536841,"L"
774899,"624 S FLOWER STREET","INGLEWOOD","CA",90301,33.956332495,-118.346940112,399,"624 S FLOWER STREET, INGLEWOOD, CA, 90301","Match","Exact","624 S FLOWER ST, INGLEWOOD, CA, 90301",141655335,"L"
774900,"624 S GRAND AVE SUITE 2000","LOS ANGELES","CA",90017,34.0481599120001,-118.255794616,400,"624 S GRAND AVE SUITE 2000, LOS ANGELES, CA, 90017","Match","Non_Exact","624 S GRAND AVE, LOS ANGELES, CA, 90017",141617204,"L"
774901,"624 S GRAND AVENUE SUITE 2420","LOS ANGELES","CA",90017,34.0481599120001,-118.255794616,401,"624 S GRAND AVENUE SUITE 2420, LOS ANGELES, CA, 90017","Match","Non_Exact","624 S GRAND AVE, LOS ANGELES, CA, 90017",141617204,"L"
774902,"624 S GRAND AVENUE","CLERMONT","FL",34711,28.556215535,-81.739870122,402,"624 S GRAND AVENUE, CLERMONT, FL, 34711","Match","Non_Exact","624 GRAND HWY, CLERMONT, FL, 34711",649805699,"L"
774903,"624 S HENNEY RD","GUTHRIE","OK",73044,35.871449592,-97.2825825419999,403,"624 S HENNEY RD, GUTHRIE, OK, 73044","Match","Exact","624 HENNEY RD, GUTHRIE, OK, 73044",121975736,"R"
774904,"624 S MILITARY TRAIL","DEERFIELD BEACH","FL",33442,26.3096552280001,-80.1268591159999,404,"624 S MILITARY TRAIL, DEERFIELD BEACH, FL, 33442","Match","Exact","624 S MILITARY TRL, DEERFIELD BEACH, FL, 33442",640937861,"L"
774905,"624 SALEM AVE","ROLLA","MO",65401,37.9464742100001,-91.763583932,405,"624 SALEM AVE, ROLLA, MO, 65401","Match","Exact","624 SALEM AVE, ROLLA, MO, 65401",45075275,"L"
774906,"624 SE 38TH STREET","OWATONNA","MN",55060,44.0371695650001,-93.223963555,406,"624 SE 38TH STREET, OWATONNA, MN, 55060","Match","Exact","624 SE 38TH ST, OWATONNA, MN, 55060",38171181,"R"
774907,"624 SEAMAN DRIVE","FLORENCE","NJ",8518,40.115866673,-74.8146343769999,407,"624 SEAMAN DRIVE, FLORENCE, NJ, 8518","Match","Exact","624 SEAMAN DR, FLORENCE, NJ, 08518",648574447,"R"
774908,"624 SEARS ROAD","NAHUNTA","GA",31553,31.1685830390001,-82.00993335,408,"624 SEARS ROAD, NAHUNTA, GA, 31553","Match","Exact","624 SEARS RD, NAHUNTA, GA, 31553",639903181,"R"
774909,"624 SIX FLAGS DR","ARLINGTIN","TX",76011,32.7484044510001,-97.068748021,409,"624 SIX FLAGS DR, ARLINGTIN, TX, 76011","Match","Non_Exact","624 SIX FLAGS DR, ARLINGTON, TX, 76011",101912798,"L"
774910,"624 SIX FLAGS DR","ARLINGTON","TX",76011,32.7484044510001,-97.068748021,410,"624 SIX FLAGS DR, ARLINGTON, TX, 76011","Match","Exact","624 SIX FLAGS DR, ARLINGTON, TX, 76011",101912798,"L"
774911,"624 SMOOT ST","LAGRANGE","GA",30241,33.027664058,-85.017785101,411,"624 SMOOT ST, LAGRANGE, GA, 30241","Match","Exact","624 SMOOT ST, LAGRANGE, GA, 30241",1770875,"L"
774912,"624 SOUTH 43RD","LOUISVILLE","KY",40210,NA,NA,412,"624 SOUTH 43RD, LOUISVILLE, KY, 40210","No_Match",NA,NA,NA,NA
774913,"624 SOUTH ASPEN COURT","ST PETER","MN",56082,44.3131858180001,-93.972988943,413,"624 SOUTH ASPEN COURT, ST PETER, MN, 56082","Match","Exact","624 S ASPEN CT, SAINT PETER, MN, 56082",28697878,"R"
774914,"624 SOUTH DENVER AVE SUITE 300","TULSA","OK",74119,36.1490176550001,-95.992979385,414,"624 SOUTH DENVER AVE SUITE 300, TULSA, OK, 74119","Match","Exact","624 S DENVER AVE, TULSA, OK, 74119",166437665,"R"
774915,"624 SOUTH FAYETTEVILLE STREET","ASHEBORO","NC",27203,35.6999168940001,-79.8148542719999,415,"624 SOUTH FAYETTEVILLE STREET, ASHEBORO, NC, 27203","Match","Exact","624 S FAYETTEVILLE ST, ASHEBORO, NC, 27203",20406090,"L"
774916,"624 SOUTH GRAND AVENUE 2420","LOS ANGELES","CA",90017,34.048192328,-118.255764901,416,"624 SOUTH GRAND AVENUE 2420, LOS ANGELES, CA, 90017","Match","Exact","624 S GRAND AVE, LOS ANGELES, CA, 90017",141617204,"L"
774917,"624 SOUTH LINE STREET","CHESANING","MI",48616,43.180422079,-84.1194331359999,417,"624 SOUTH LINE STREET, CHESANING, MI, 48616","Match","Exact","624 S LINE ST, CHESANING, MI, 48616",80204821,"L"
774918,"624 SOUTH MAIN STREET","CHATHAM","VA",24531,36.8122913500001,-79.3945230959999,418,"624 SOUTH MAIN STREET, CHATHAM, VA, 24531","Match","Exact","624 S MAIN ST, CHATHAM, VA, 24531",56631635,"L"
774919,"624 SOUTHERNESS DRIVE","TOWNSEND","DE",19734,39.410185321,-75.634855156,419,"624 SOUTHERNESS DRIVE, TOWNSEND, DE, 19734","Match","Exact","624 SOUTHERNESS DR, TOWNSEND, DE, 19734",605776639,"R"
774920,"624 SOUTHERNESS","TOWNSEND","DE",19734,39.410185321,-75.634855156,420,"624 SOUTHERNESS, TOWNSEND, DE, 19734","Match","Non_Exact","624 SOUTHERNESS DR, TOWNSEND, DE, 19734",605776639,"R"
774921,"624 SPICE TRADER APT F","ORLANDO","FL",32818,28.5490073080001,-81.493674087,421,"624 SPICE TRADER APT F, ORLANDO, FL, 32818","Match","Non_Exact","624 SPICE TRADER WAY, ORLANDO, FL, 32818",640936084,"R"
774922,"624 SQUIRREL HILL DR","BOARDMAN","OH",44512,41.015249323,-80.68093657,422,"624 SQUIRREL HILL DR, BOARDMAN, OH, 44512","Match","Exact","624 SQUIRREL HILL DR, BOARDMAN, OH, 44512",64598525,"R"
774923,"624 STATE ST","PETOSKEY","MI",49770,45.3718362440001,-84.9510501519999,423,"624 STATE ST, PETOSKEY, MI, 49770","Match","Exact","624 STATE ST, PETOSKEY, MI, 49770",133984683,"L"
774924,"624 SUMNER AVE","SPRINGFIELD","MA",1108,42.086945755,-72.553958799,424,"624 SUMNER AVE, SPRINGFIELD, MA, 1108","Match","Exact","624 SUMNER AVE, SPRINGFIELD, MA, 01108",4036436,"L"
774925,"624 SW 9TH ST","DELRAY BEACH","FL",33444,26.448463218,-80.079428628,425,"624 SW 9TH ST, DELRAY BEACH, FL, 33444","Match","Exact","624 SW 9TH ST, DELRAY BEACH, FL, 33444",115291201,"L"
774926,"624 SWANCROFT LANE","MATTHEWS","NC",28105,35.1106723560001,-80.745769394,426,"624 SWANCROFT LANE, MATTHEWS, NC, 28105","Match","Exact","624 SWANCROFT LN, MATTHEWS, NC, 28105",616535404,"L"
774927,"624 TALON COURT","ARNOLD","MD",21012,39.0367121240001,-76.4691098869999,427,"624 TALON COURT, ARNOLD, MD, 21012","Match","Exact","624 TALON CT, ARNOLD, MD, 21012",68193213,"R"
774928,"624 TERRACE HILLS DRIVE","SALT LAKE CITY","UT",84103,40.7834116430001,-111.860948479,428,"624 TERRACE HILLS DRIVE, SALT LAKE CITY, UT, 84103","Match","Exact","624 TERRACE HILLS DR, SALT LAKE CITY, UT, 84103",176133099,"R"
774929,"624 THOMSON ST","FLINT","MI",48503,43.0186800170001,-83.680969067,429,"624 THOMSON ST, FLINT, MI, 48503","Match","Exact","624 THOMSON ST, FLINT, MI, 48503",69568895,"R"
774930,"624 THORN AVE","EL PASO","TX",79912,31.8557486490001,-106.569140046,430,"624 THORN AVE, EL PASO, TX, 79912","Match","Exact","624 THORN AVE, EL PASO, TX, 79912",189334511,"R"
774931,"624 TRAIL AVENUE","FREDERICK","MD",21701,39.4224388580001,-77.4132659589999,431,"624 TRAIL AVENUE, FREDERICK, MD, 21701","Match","Exact","624 TRAIL AVE, FREDERICK, MD, 21701",60672531,"R"
774932,"624 TYVOLA RD STE 103-339","CHARLOTTE","NC",28217,35.163906947,-80.8851192129999,432,"624 TYVOLA RD STE 103-339, CHARLOTTE, NC, 28217","Match","Exact","624 TYVOLA RD, CHARLOTTE, NC, 28217",647271783,"R"
774933,"624 TYVOLA RD STE 103","CHARLOTTE","NC",28217,35.163906947,-80.8851192129999,433,"624 TYVOLA RD STE 103, CHARLOTTE, NC, 28217","Match","Exact","624 TYVOLA RD, CHARLOTTE, NC, 28217",647271783,"R"
774934,"624 TYVOLA RD STE 162","CHARLOTTE","NC",28217,35.163906947,-80.8851192129999,434,"624 TYVOLA RD STE 162, CHARLOTTE, NC, 28217","Match","Exact","624 TYVOLA RD, CHARLOTTE, NC, 28217",647271783,"R"
774935,"624 TYVOLA RD","CHARLOTTE","NC",28217,35.163906947,-80.8851192129999,435,"624 TYVOLA RD, CHARLOTTE, NC, 28217","Match","Exact","624 TYVOLA RD, CHARLOTTE, NC, 28217",647271783,"R"
774936,"624 TYVOLA ROAD STE 103 322","CHARLOTTE","NC",28217,35.163906947,-80.8851192129999,436,"624 TYVOLA ROAD STE 103 322, CHARLOTTE, NC, 28217","Match","Exact","624 TYVOLA RD, CHARLOTTE, NC, 28217",647271783,"R"
774937,"624 UPLAND ROAD","WEST PALM BEACH","FL",33401,26.6931245860001,-80.056720159,437,"624 UPLAND ROAD, WEST PALM BEACH, FL, 33401","Match","Exact","624 UPLAND RD, WEST PALM BEACH, FL, 33401",115528403,"L"
774938,"624 VANDERBILT AVENUE","BROOKLYN","NY",11238,40.6775975470001,-73.9688890049999,438,"624 VANDERBILT AVENUE, BROOKLYN, NY, 11238","Match","Exact","624 VANDERBILT AVE, BROOKLYN, NY, 11238",59078396,"R"
774939,"624 VASHON STREET","PORT ANGELES","WA",98362,48.10261117,-123.431917297,439,"624 VASHON STREET, PORT ANGELES, WA, 98362","Match","Exact","624 VASHON ST, PORT ANGELES, WA, 98362",150850285,"R"
774940,"624 W 11TH AVENUE","OSHKOSH","WI",54901,44.0084334310001,-88.5533693199999,440,"624 W 11TH AVENUE, OSHKOSH, WI, 54901","Match","Non_Exact","624 W 11TH AVE, OSHKOSH, WI, 54902",74489846,"R"
774941,"624 W 11TH ST","LONG BEACH","CA",90813,33.7801648170001,-118.200016322,441,"624 W 11TH ST, LONG BEACH, CA, 90813","Match","Exact","624 W 11TH ST, LONG BEACH, CA, 90813",141692913,"L"
774942,"624 W 2ND ST","WASHINGTON","NC",27889,35.546618213,-77.061726344,442,"624 W 2ND ST, WASHINGTON, NC, 27889","Match","Exact","624 W 2ND ST, WASHINGTON, NC, 27889",67953388,"R"
774943,"624 W 38TH STREET","INDIANAPOLIS","IN",46208,39.8248574350001,-86.1698810569999,443,"624 W 38TH STREET, INDIANAPOLIS, IN, 46208","Match","Exact","624 W 38TH ST, INDIANAPOLIS, IN, 46208",107986390,"R"
774944,"624 W 90TH STREETS","LOS ANGELES","CA",90044,33.955076466,-118.285379948,444,"624 W 90TH STREETS, LOS ANGELES, CA, 90044","Match","Non_Exact","624 W 90TH ST, LOS ANGELES, CA, 90044",142661764,"L"
774945,"624 W BEVERLY DRIVE","OXNARD","CA",93030,34.206019374,-119.184118056,445,"624 W BEVERLY DRIVE, OXNARD, CA, 93030","Match","Exact","624 W BEVERLY DR, OXNARD, CA, 93030",110115974,"L"
774946,"624 W CLARK ST","NASHVILLE","AR",71852,33.9445648550001,-93.8540034499999,446,"624 W CLARK ST, NASHVILLE, AR, 71852","Match","Exact","624 W CLARK ST, NASHVILLE, AR, 71852",73577930,"R"
774947,"624 W NEVADA AVENUE","HOMEDALE","ID",83628,43.624485802,-116.94508092,447,"624 W NEVADA AVENUE, HOMEDALE, ID, 83628","Match","Exact","624 W NEVADA AVE, HOMEDALE, ID, 83628",118568797,"L"
774948,"624 W OAKDALE AVE APT GRD","CHICAGO","IL",60657,41.9355337200001,-87.6450725779999,448,"624 W OAKDALE AVE APT GRD, CHICAGO, IL, 60657","Match","Non_Exact","624 W OAKDALE AVE, CHICAGO, IL, 60657",111766840,"R"
774949,"624 W VERDINE","SULPHUR","LA",70663,30.2383220180001,-93.382513315,449,"624 W VERDINE, SULPHUR, LA, 70663","Match","Non_Exact","624 W VERDINE ST, SULPHUR, LA, 70663",640620919,"R"
774950,"624 W WALNUT STREET","ROGERS","AR",72756,36.3333740790001,-94.122840303,450,"624 W WALNUT STREET, ROGERS, AR, 72756","Match","Exact","624 W WALNUT ST, ROGERS, AR, 72756",47834747,"L"
774951,"624 W WOODFIELD CT","GREEN VALLEY","AZ",85614,31.8881687190001,-110.999882475,451,"624 W WOODFIELD CT, GREEN VALLEY, AZ, 85614","Match","Exact","624 W WOODFIELD CT, GREEN VALLEY, AZ, 85614",121229407,"R"
774952,"624 WACO STREET","CHARLOTTE","NC",28204,35.208273224,-80.8329863019999,452,"624 WACO STREET, CHARLOTTE, NC, 28204","Match","Exact","624 WACO ST, CHARLOTTE, NC, 28204",70487664,"R"
774953,"624 WALNUT ST","MONONGAH","WV",26554,39.4642914400001,-80.221008046,453,"624 WALNUT ST, MONONGAH, WV, 26554","Match","Exact","624 WALNUT ST, MONONGAH, WV, 26554",51439761,"R"
774954,"624 WALNUT STREET","LANSDALE","PA",19446,40.246966817,-75.280926483,454,"624 WALNUT STREET, LANSDALE, PA, 19446","Match","Exact","624 WALNUT ST, LANSDALE, PA, 19446",135073446,"L"
774955,"624 WASHINGTON AVE","MONTGOMERY","AL",36130,32.3764968030001,-86.300752249,455,"624 WASHINGTON AVE, MONTGOMERY, AL, 36130","Match","Exact","624 WASHINGTON AVE, MONTGOMERY, AL, 36130",1543756,"R"
774956,"624 WATERWOOD","MESQUITE","TX",75181,32.729741081,-96.5963318679999,456,"624 WATERWOOD, MESQUITE, TX, 75181","Match","Non_Exact","624 WATERWOOD LN, MESQUITE, TX, 75181",103168872,"L"
774957,"624 WEINBERER RD","PONCHATOULA","LA",70454,NA,NA,457,"624 WEINBERER RD, PONCHATOULA, LA, 70454","No_Match",NA,NA,NA,NA
774958,"624 WEST 57TH STREET","ASHTABULA","OH",44004,41.8566537900001,-80.788762887,458,"624 WEST 57TH STREET, ASHTABULA, OH, 44004","Match","Exact","624 W 57TH ST, ASHTABULA, OH, 44004",117313562,"L"
774959,"624 WEST 5TH STREET","DAVENPORT","IA",52801,41.5246674270001,-90.581883787,459,"624 WEST 5TH STREET, DAVENPORT, IA, 52801","Match","Exact","624 W 5TH ST, DAVENPORT, IA, 52801",122707474,"R"
774960,"624 WEST CLARK","NASHVILLE","AR",71852,33.944564804,-93.8540003969999,460,"624 WEST CLARK, NASHVILLE, AR, 71852","Match","Non_Exact","624 W CLARK ST, NASHVILLE, AR, 71852",73577930,"R"
774961,"624 WEST NORTH","MADRID","IA",50156,41.8779255200001,-93.827597119,461,"624 WEST NORTH, MADRID, IA, 50156","Match","Non_Exact","624 W NORTH ST, MADRID, IA, 50156",653207210,"L"
774962,"624 WEST ROLLER COASTER RD","TUCON","AZ",85704,32.3097324350001,-110.980361506,462,"624 WEST ROLLER COASTER RD, TUCON, AZ, 85704","Match","Non_Exact","624 W ROLLER COASTER RD, TUCSON, AZ, 85704",637330978,"R"
774963,"624 WEST VERMONT AVE","ANAHEIM","CA",92805,33.8213676510001,-117.917483043,463,"624 WEST VERMONT AVE, ANAHEIM, CA, 92805","Match","Exact","624 W VERMONT AVE, ANAHEIM, CA, 92805",639051032,"L"
774964,"624 WESTONRIDGE COURT","WILDWOOD","MO",63021,38.567220881,-90.598399886,464,"624 WESTONRIDGE COURT, WILDWOOD, MO, 63021","Match","Exact","624 WESTONRIDGE CT, WILDWOOD, MO, 63021",100188068,"R"
774965,"624 WESTPORT ROAD","KANSAS CITY","MO",64111,39.0515625570001,-94.594528592,465,"624 WESTPORT ROAD, KANSAS CITY, MO, 64111","Match","Exact","624 WESTPORT RD, KANSAS CITY, MO, 64111",91446882,"R"
774966,"624 WHITE ROCK ST","DELAWARE","OH",43015,40.3011168260001,-83.1028961389999,466,"624 WHITE ROCK ST, DELAWARE, OH, 43015","Match","Exact","624 WHITE ROCK ST, DELAWARE, OH, 43015",212997615,"R"
774967,"624 WILLIAM HILTON PKWY","HILTON HEAD ISLAND","SC",29928,32.195597134,-80.7037587999999,467,"624 WILLIAM HILTON PKWY, HILTON HEAD ISLAND, SC, 29928","Match","Exact","624 WILLIAM HILTON PKWY, HILTON HEAD ISLAND, SC, 29928",636607256,"L"
774968,"624 WINDING BLUFF WAY","CLARKSVILLE","TN",37040,36.602918747,-87.3208395519999,468,"624 WINDING BLUFF WAY, CLARKSVILLE, TN, 37040","Match","Exact","624 WINDING BLUFF WAY, CLARKSVILLE, TN, 37040",633796985,"L"
774969,"624 WOODSON LN","GARDNER","KS",66030,38.8014999740001,-94.901206772,469,"624 WOODSON LN, GARDNER, KS, 66030","Match","Exact","624 WOODSON LN, GARDNER, KS, 66030",91331710,"R"
774970,"624 WYTHE AVE APT 1","BROOKLYN","NY",11249,40.704131009,-73.9655537639999,470,"624 WYTHE AVE APT 1, BROOKLYN, NY, 11249","Match","Exact","624 WYTHE AVE, BROOKLYN, NY, 11249",59100845,"R"
774971,"624 YOSEMITE TRAIL","MESQUITE","TX",75149,32.7768111300001,-96.587460634,471,"624 YOSEMITE TRAIL, MESQUITE, TX, 75149","Match","Exact","624 YOSEMITE TRL, MESQUITE, TX, 75149",103165542,"R"
774972,"624","BRONSTON","KY",42518,NA,NA,472,"624, BRONSTON, KY, 42518","No_Match",NA,NA,NA,NA
774973,"624","KANSAS CITY","MO",64113,NA,NA,473,"624, KANSAS CITY, MO, 64113","No_Match",NA,NA,NA,NA
774974,"6240 144TH AVE","HOLLAND","MI",49423,42.739601947,-86.1605790149999,474,"6240 144TH AVE, HOLLAND, MI, 49423","Match","Exact","6240 144TH AVE, HOLLAND, MI, 49423",11431552,"L"
774975,"6240 ALABAMA PATH","CICERO","NY",13039,43.1906861840001,-76.089054474,475,"6240 ALABAMA PATH, CICERO, NY, 13039","Match","Exact","6240 ALABAMA PATH, CICERO, NY, 13039",46597204,"R"
774976,"6240 ANTOINE 140","HOUSTON","TX",77091,29.856379894,-95.473316192,476,"6240 ANTOINE 140, HOUSTON, TX, 77091","Match","Non_Exact","6240 ANTOINE DR, HOUSTON, TX, 77091",653857245,"R"
774977,"6240 BARRY AVE","ANCHORAGE","AK",99507,61.1347398020001,-149.76565399,477,"6240 BARRY AVE, ANCHORAGE, AK, 99507","Match","Exact","6240 BARRY AVE, ANCHORAGE, AK, 99507",190810870,"R"
774978,"6240 BRASSIE AVE","WESTERVILLE","OH",43081,40.094764228,-82.850158863,478,"6240 BRASSIE AVE, WESTERVILLE, OH, 43081","Match","Exact","6240 BRASSIE AVE, WESTERVILLE, OH, 43081",641137592,"R"
774979,"6240 BUCKINGHAM CIRCLE","CUMMING","GA",30040,34.177495628,-84.2129050619999,479,"6240 BUCKINGHAM CIRCLE, CUMMING, GA, 30040","Match","Exact","6240 BUCKINGHAM CIR, CUMMING, GA, 30040",70195938,"R"
774980,"6240 CHASE DRIVE","MENTOR","OH",44060,41.701622071,-81.367922914,480,"6240 CHASE DRIVE, MENTOR, OH, 44060","Match","Exact","6240 CHASE DR, MENTOR, OH, 44060",137471536,"R"
774981,"6240 CHURCH ROAD","FERNALE","WA",98248,48.867638395,-122.616628262,481,"6240 CHURCH ROAD, FERNALE, WA, 98248","Match","Non_Exact","6240 CHURCH RD, FERNDALE, WA, 98248",614080733,"R"
774982,"6240 COLLEGE ROAD","OLIVE BRANCH","MS",38654,34.918493083,-89.879610436,482,"6240 COLLEGE ROAD, OLIVE BRANCH, MS, 38654","Match","Exact","6240 COLLEGE RD, OLIVE BRANCH, MS, 38654",91844926,"R"
774983,"6240 COUNTY RD 120 APT NO 320","ST CLOUD","MN",56303,45.586525608,-94.2355458489999,483,"6240 COUNTY RD 120 APT NO 320, ST CLOUD, MN, 56303","Match","Exact","6240 CO RD 120, SAINT CLOUD, MN, 56303",611979659,"R"
774984,"6240 DECATUR ST","OMAHA","ND",68104,NA,NA,484,"6240 DECATUR ST, OMAHA, ND, 68104","No_Match",NA,NA,NA,NA
774985,"6240 DON ZAREMBO AVE","LAS VEGAS","NV",89108,NA,NA,485,"6240 DON ZAREMBO AVE, LAS VEGAS, NV, 89108","No_Match",NA,NA,NA,NA
774986,"6240 DUFFIELD ROAD","FLUSHING","MI",48433,43.095469737,-83.912098165,486,"6240 DUFFIELD ROAD, FLUSHING, MI, 48433","Match","Exact","6240 DUFFIELD RD, FLUSHING, MI, 48433",650907273,"L"
774987,"6240 E CALLE DEL MEDIA","SCOTTSDALE","AZ",85251,33.496534534,-111.946741747,487,"6240 E CALLE DEL MEDIA, SCOTTSDALE, AZ, 85251","Match","Non_Exact","6240 E CLL DEL MEDIA, SCOTTSDALE, AZ, 85251",128222394,"L"
774988,"6240 GODDESS CT","SAN JOSE","CA",95129,37.3028590230001,-122.013535115,488,"6240 GODDESS CT, SAN JOSE, CA, 95129","Match","Exact","6240 GODDESS CT, SAN JOSE, CA, 95129",122940851,"L"
774989,"6240 GREEN MOUNTAIN LANE","CLERMONT","GA",30527,34.4729843750001,-83.7776288589999,489,"6240 GREEN MOUNTAIN LANE, CLERMONT, GA, 30527","Match","Exact","6240 GREEN MOUNTAIN LN, CLERMONT, GA, 30527",98283989,"R"
774990,"6240 JACOBS RIDGE NE","CRANDALL","IN",47114,38.289278446,-86.050742282,490,"6240 JACOBS RIDGE NE, CRANDALL, IN, 47114","Match","Non_Exact","6240 JACOB'S RIDGE NE, CRANDALL, IN, 47114",633909725,"R"
774991,"6240 KIEMAN DR","CARMICHAEL","CA",95608,NA,NA,491,"6240 KIEMAN DR, CARMICHAEL, CA, 95608","No_Match",NA,NA,NA,NA
774992,"6240 LAKESHORE DR","DALLAS","TX",75214,32.8191172310001,-96.757532289,492,"6240 LAKESHORE DR, DALLAS, TX, 75214","Match","Exact","6240 LAKESHORE DR, DALLAS, TX, 75214",102918652,"R"
774993,"6240 LANSDOWNE CIR","BOYNTON BEACH","FL",33472,26.543841076,-80.1459906429999,493,"6240 LANSDOWNE CIR, BOYNTON BEACH, FL, 33472","Match","Exact","6240 LANSDOWNE CIR, BOYNTON BEACH, FL, 33472",115577339,"R"
774994,"6240 LANSDOWNE CIRCLE","BOYNTON BEACH","FL",33472,26.543841076,-80.1459906429999,494,"6240 LANSDOWNE CIRCLE, BOYNTON BEACH, FL, 33472","Match","Exact","6240 LANSDOWNE CIR, BOYNTON BEACH, FL, 33472",115577339,"R"
774995,"6240 N 63AVE APT 134","GLENDALE","AZ",85301,NA,NA,495,"6240 N 63AVE APT 134, GLENDALE, AZ, 85301","No_Match",NA,NA,NA,NA
774996,"6240 N SAN GABRIEL BLVD UNIT 6","SAN GABRIEL","CA",91775,34.112352978,-118.09113443,496,"6240 N SAN GABRIEL BLVD UNIT 6, SAN GABRIEL, CA, 91775","Match","Non_Exact","6240 N SAN GABRIEL BLVD, SAN GABRIEL, CA, 91775",142736414,"R"
774997,"6240 NORTH SACRAMENTO AVENUE UNIT 1","CHICAGO","IL",60659,41.9946643060001,-87.704404605,497,"6240 NORTH SACRAMENTO AVENUE UNIT 1, CHICAGO, IL, 60659","Match","Exact","6240 N SACRAMENTO AVE, CHICAGO, IL, 60659",111744614,"L"
774998,"6240 NORTH SACRAMENTO AVENUE","CHICAGO","IL",60659,41.9946643060001,-87.704404605,498,"6240 NORTH SACRAMENTO AVENUE, CHICAGO, IL, 60659","Match","Exact","6240 N SACRAMENTO AVE, CHICAGO, IL, 60659",111744614,"L"
774999,"6240 NORTH SACRAMENTO UNIT 1","CHICAGO","IL",60659,41.9946643060001,-87.704404605,499,"6240 NORTH SACRAMENTO UNIT 1, CHICAGO, IL, 60659","Match","Non_Exact","6240 N SACRAMENTO AVE, CHICAGO, IL, 60659",111744614,"L"
775000,"6240 OBEAH COURT NE","RIO RANCHO","NM",87144,35.308696614,-106.608198443,500,"6240 OBEAH COURT NE, RIO RANCHO, NM, 87144","Match","Exact","6240 OBEAH CT NE, RIO RANCHO, NM, 87144",194018420,"L"
