"ID","Address","City","State","Zip","lat","long","id","input_address","match_indicator","match_type","matched_address","tiger_line_id","tiger_side"
560001,"3703 9TH ST CT NE","HICKORY","NC",28601,35.7839303740001,-81.3093536219999,1,"3703 9TH ST CT NE, HICKORY, NC, 28601","Match","Exact","3703 9TH ST CT NE, HICKORY, NC, 28601",650607702,"R"
560002,"3703 ACACIA GROVE WAY","SAN DIEGO","CA",92113,32.6923248150001,-117.114363979,2,"3703 ACACIA GROVE WAY, SAN DIEGO, CA, 92113","Match","Exact","3703 ACACIA GROVE WAY, SAN DIEGO, CA, 92113",612871349,"R"
560003,"3703 ALSACE","HOUSTON","TX",77021,29.6992601380001,-95.363534927,3,"3703 ALSACE, HOUSTON, TX, 77021","Match","Non_Exact","3703 ALSACE ST, HOUSTON, TX, 77021",96072635,"L"
560004,"3703 ALTA MONTE AVE NE","ALBUQUERQUE","NM",87110,35.119304503,-106.602620025,4,"3703 ALTA MONTE AVE NE, ALBUQUERQUE, NM, 87110","Match","Exact","3703 ALTA MONTE AVE NE, ALBUQUERQUE, NM, 87110",206709669,"L"
560005,"3703 ANTELOPE COURT NE","CEDAR RAPIDS","IA",52402,42.0169797390001,-91.693117445,5,"3703 ANTELOPE COURT NE, CEDAR RAPIDS, IA, 52402","Match","Non_Exact","3703 ANTELOPE TRL NE, CEDAR RAPIDS, IA, 52402",17019550,"R"
560006,"3703 BALFOUR","DETROIT","MI",48224,42.390646023,-82.940665157,6,"3703 BALFOUR, DETROIT, MI, 48224","Match","Non_Exact","3703 BALFOUR RD, DETROIT, MI, 48224",95488883,"L"
560007,"3703 BALLARD VISTA COURT","SMITHFIELD","KY",40068,38.3624157360001,-85.3273122699999,7,"3703 BALLARD VISTA COURT, SMITHFIELD, KY, 40068","Match","Exact","3703 BALLARD VISTA CT, SMITHFIELD, KY, 40068",624264555,"R"
560008,"3703 BELLE AVE","BALTIMORE","MD",21215,39.3335650970001,-76.6758797589999,8,"3703 BELLE AVE, BALTIMORE, MD, 21215","Match","Exact","3703 BELLE AVE, BALTIMORE, MD, 21215",206405649,"L"
560009,"3703 BIG DIPPER DRIVE","FORT COLLINS","CO",80528,40.5123136880001,-105.007950993,9,"3703 BIG DIPPER DRIVE, FORT COLLINS, CO, 80528","Match","Exact","3703 BIG DIPPER DR, FORT COLLINS, CO, 80528",188585244,"R"
560010,"3703 BIRCH VILLA DR","KINGWOOD","TX",77345,30.0629248180001,-95.1821968259999,10,"3703 BIRCH VILLA DR, KINGWOOD, TX, 77345","Match","Exact","3703 BIRCH VILLA DR, KINGWOOD, TX, 77345",96155355,"R"
560011,"3703 BIRMI DRIVE","DURHAM","NC",27713,35.9301211490001,-78.895444218,11,"3703 BIRMI DRIVE, DURHAM, NC, 27713","Match","Exact","3703 BIRMI DR, DURHAM, NC, 27713",71763092,"L"
560012,"3703 BLACKBERRY CIRCLE","MISSOURI CITY","TX",77459,29.532044779,-95.52072672,12,"3703 BLACKBERRY CIRCLE, MISSOURI CITY, TX, 77459","Match","Exact","3703 BLACKBERRY CIR, MISSOURI CITY, TX, 77459",78271507,"R"
560013,"3703 BLACKBERRY COURT","MISSOURI CITY","TX",77459,29.532044779,-95.52072672,13,"3703 BLACKBERRY COURT, MISSOURI CITY, TX, 77459","Match","Non_Exact","3703 BLACKBERRY CIR, MISSOURI CITY, TX, 77459",78271507,"R"
560014,"3703 BRACKNELL FOREST DR","GROVEPORT","OH",43215,39.8993003850001,-82.88551824,14,"3703 BRACKNELL FOREST DR, GROVEPORT, OH, 43215","Match","Non_Exact","3703 BRACKNELL FOREST DR, GROVEPORT, OH, 43125",623907794,"R"
560015,"3703 BRYCE AVE","FORT WORTH","TX",79107,32.7398065530001,-97.372261728,15,"3703 BRYCE AVE, FORT WORTH, TX, 79107","Match","Non_Exact","3703 BRYCE AVE, FT WORTH, TX, 76107",101884085,"L"
560016,"3703 BULLOCK CT","ANACORTES","WA",98221,48.4919852830001,-122.629225664,16,"3703 BULLOCK CT, ANACORTES, WA, 98221","Match","Exact","3703 BULLOCK CT, ANACORTES, WA, 98221",183661606,"R"
560017,"3703 BURTON ST SE","GRAND RAPIDS","MI",49546,42.926967158,-85.576648846,17,"3703 BURTON ST SE, GRAND RAPIDS, MI, 49546","Match","Exact","3703 BURTON ST SE, GRAND RAPIDS, MI, 49546",12468352,"L"
560018,"3703 BURTON STREET SE","GRAND RAPIDS","MI",49546,42.926967158,-85.576648846,18,"3703 BURTON STREET SE, GRAND RAPIDS, MI, 49546","Match","Exact","3703 BURTON ST SE, GRAND RAPIDS, MI, 49546",12468352,"L"
560019,"3703 CANTATA DRIVE","GREENVILLE","NC",27858,35.575973021,-77.352846122,19,"3703 CANTATA DRIVE, GREENVILLE, NC, 27858","Match","Exact","3703 CANTATA DR, GREENVILLE, NC, 27858",635604896,"R"
560020,"3703 CARPENTER ST SE","WASHINGTON","DC",20020,38.8700446230001,-76.952187061,20,"3703 CARPENTER ST SE, WASHINGTON, DC, 20020","Match","Exact","3703 CARPENTER ST SE, WASHINGTON, DC, 20020",76233720,"R"
560021,"3703 CONNECTICUT ST","ST LOUIS","MO",63116,38.6002354280001,-90.244833625,21,"3703 CONNECTICUT ST, ST LOUIS, MO, 63116","Match","Exact","3703 CONNECTICUT ST, SAINT LOUIS, MO, 63116",605128553,"R"
560022,"3703 COYOTE CIRCLE","CLAYTON","CA",94517,37.9541873480001,-121.933508889,22,"3703 COYOTE CIRCLE, CLAYTON, CA, 94517","Match","Exact","3703 COYOTE CIR, CLAYTON, CA, 94517",192097588,"R"
560023,"3703 DENVILLE TRACE SW","ATLANTA","GA",30331,33.7122896930001,-84.502714393,23,"3703 DENVILLE TRACE SW, ATLANTA, GA, 30331","Match","Non_Exact","3703 DENVILLE TRCE, ATLANTA, GA, 30331",647356605,"L"
560024,"3703 DENVILLE TRACE","ATLANTA","GA",30331,33.7122896930001,-84.502714393,24,"3703 DENVILLE TRACE, ATLANTA, GA, 30331","Match","Exact","3703 DENVILLE TRCE, ATLANTA, GA, 30331",647356605,"L"
560025,"3703 DULWICK DRIVE","SILVER SPRING","MD",20906,39.105769202,-77.075158533,25,"3703 DULWICK DRIVE, SILVER SPRING, MD, 20906","Match","Exact","3703 DULWICK DR, SILVER SPRING, MD, 20906",62109270,"R"
560026,"3703 DUSTIN TRAIL","DALWORTHINGTON","TX",76016,32.6866010360001,-97.1627579679999,26,"3703 DUSTIN TRAIL, DALWORTHINGTON, TX, 76016","Match","Non_Exact","3703 DUSTIN TRL, DALWORTHINGTON GARDENS, TX, 76016",102111813,"L"
560027,"3703 E GLENROSA AVE","PHOENIX","AZ",85018,33.498370541,-112.0017583,27,"3703 E GLENROSA AVE, PHOENIX, AZ, 85018","Match","Exact","3703 E GLENROSA AVE, PHOENIX, AZ, 85018",128323599,"R"
560028,"3703 E HARTSON AVE","SPOKANE","WA",99202,47.650007702,-117.356178036,28,"3703 E HARTSON AVE, SPOKANE, WA, 99202","Match","Exact","3703 E HARTSON AVE, SPOKANE, WA, 99202",189882375,"L"
560029,"3703 ECHO MOUNTAIN","HOUSTON","TX",77345,NA,NA,29,"3703 ECHO MOUNTAIN, HOUSTON, TX, 77345","No_Match",NA,NA,NA,NA
560030,"3703 EDGEWATER DRIVE","HAZEL CREST","IL",60429,41.5547632660001,-87.706961153,30,"3703 EDGEWATER DRIVE, HAZEL CREST, IL, 60429","Match","Exact","3703 EDGEWATER DR, HAZEL CREST, IL, 60429",112207210,"R"
560031,"3703 ELDORADO PARKWAY","FRISCO","TX",75033,33.178158894,-96.858944319,31,"3703 ELDORADO PARKWAY, FRISCO, TX, 75033","Match","Exact","3703 ELDORADO PKWY, FRISCO, TX, 75033",638534356,"R"
560032,"3703 ELDORADO PKWY","FRISCO","TX",75033,33.178158894,-96.858944319,32,"3703 ELDORADO PKWY, FRISCO, TX, 75033","Match","Exact","3703 ELDORADO PKWY, FRISCO, TX, 75033",638534356,"R"
560033,"3703 ELLAMONT ROAD","BALTIMORE","MD",21215,39.327533837,-76.6675307519999,33,"3703 ELLAMONT ROAD, BALTIMORE, MD, 21215","Match","Exact","3703 ELLAMONT RD, BALTIMORE, MD, 21215",206406467,"R"
560034,"3703 FAIRFIELD DR","MARYVILLE","TN",37804,35.7711445830001,-83.873767704,34,"3703 FAIRFIELD DR, MARYVILLE, TN, 37804","Match","Exact","3703 FAIRFIELD DR, MARYVILLE, TN, 37804",89835442,"R"
560035,"3703 FOREST CT","GRAND PRAIRIE","TX",75052,32.6837871170001,-97.0019315229999,35,"3703 FOREST CT, GRAND PRAIRIE, TX, 75052","Match","Exact","3703 FOREST CT, GRAND PRAIRIE, TX, 75052",617667503,"R"
560036,"3703 FOXFIELD LANE","FAIRFAX","VA",22033,38.8947490530001,-77.4143681429999,36,"3703 FOXFIELD LANE, FAIRFAX, VA, 22033","Match","Exact","3703 FOXFIELD LN, FAIRFAX, VA, 22033",76010319,"R"
560037,"3703 GREY OWL COVE","FRANKLIN","OH",45005,39.4886862320001,-84.267988783,37,"3703 GREY OWL COVE, FRANKLIN, OH, 45005","Match","Exact","3703 GREY OWL COVE, FRANKLIN, OH, 45005",617730765,"L"
560038,"3703 GRIZZLY BLUFFS ROAD","FERDALE","CA",95536,40.5668764380001,-124.208188316,38,"3703 GRIZZLY BLUFFS ROAD, FERDALE, CA, 95536","Match","Non_Exact","3703 GRIZZLY BLUFF RD, FERNDALE, CA, 95536",112996242,"L"
560039,"3703 HALEY CT","WILMINGTON","DE",19808,NA,NA,39,"3703 HALEY CT, WILMINGTON, DE, 19808","No_Match",NA,NA,NA,NA
560040,"3703 HAMOR COURT","RANDALLSTOWN","MD",21133,39.374610712,-76.7967452789999,40,"3703 HAMOR COURT, RANDALLSTOWN, MD, 21133","Match","Exact","3703 HAMOR CT, RANDALLSTOWN, MD, 21133",191466160,"R"
560041,"3703 HICKORY HILL DR","GREENSBORO","NC",27410,36.08974705,-79.8459264429999,41,"3703 HICKORY HILL DR, GREENSBORO, NC, 27410","Match","Exact","3703 HICKORY HILL DR, GREENSBORO, NC, 27410",131028621,"L"
560042,"3703 KIMBLE ROAD","BALTIMORE","MD",21218,39.3331718060001,-76.6010827389999,42,"3703 KIMBLE ROAD, BALTIMORE, MD, 21218","Match","Exact","3703 KIMBLE RD, BALTIMORE, MD, 21218",206409363,"R"
560043,"3703 LAMPPOST PLACE","PEARLAND","TX",77584,29.539080664,-95.317081353,43,"3703 LAMPPOST PLACE, PEARLAND, TX, 77584","Match","Exact","3703 LAMPPOST PL, PEARLAND, TX, 77584",614113377,"L"
560044,"3703 LAZY CREEK DRIVE","TYLER","TX",75709,32.308041286,-95.2582946379999,44,"3703 LAZY CREEK DRIVE, TYLER, TX, 75709","Match","Non_Exact","3703 LAZY CREEK DR, TYLER, TX, 75707",141274051,"R"
560045,"3703 MARIELENE CIRCLE","COLLEGE STATION","TX",77845,30.5674752370001,-96.3022402129999,45,"3703 MARIELENE CIRCLE, COLLEGE STATION, TX, 77845","Match","Exact","3703 MARIELENE CIR, COLLEGE STATION, TX, 77845",21830321,"R"
560046,"3703 MARTY ST","MEMPHIS","TN",38109,35.0474138970001,-90.057938727,46,"3703 MARTY ST, MEMPHIS, TN, 38109","Match","Exact","3703 MARTY ST, MEMPHIS, TN, 38109",72909394,"R"
560047,"3703 MOHAWK DR","LAGRANGE","KY",40031,38.3591488640001,-85.4309538319999,47,"3703 MOHAWK DR, LAGRANGE, KY, 40031","Match","Exact","3703 MOHAWK DR, LAGRANGE, KY, 40031",130935124,"R"
560048,"3703 MONTGOMERY WAY","SMYRNA","TN",37167,35.9537520210001,-86.580148735,48,"3703 MONTGOMERY WAY, SMYRNA, TN, 37167","Match","Exact","3703 MONTGOMERY WAY, SMYRNA, TN, 37167",617752091,"L"
560049,"3703 MOSS TREE ROAD","HOUSTON","TX",77043,29.827099117,-95.573169706,49,"3703 MOSS TREE ROAD, HOUSTON, TX, 77043","Match","Exact","3703 MOSS TREE RD, HOUSTON, TX, 77043",96295645,"R"
560050,"3703 N 15TH ST","MILWAUKEE","WI",53206,43.0848602890001,-87.929685773,50,"3703 N 15TH ST, MILWAUKEE, WI, 53206","Match","Exact","3703 N 15TH ST, MILWAUKEE, WI, 53206",77738687,"L"
560051,"3703 N 40TH ST","MILWAUKEE","WI",53216,43.0844828680001,-87.963132904,51,"3703 N 40TH ST, MILWAUKEE, WI, 53216","Match","Exact","3703 N 40TH ST, MILWAUKEE, WI, 53216",77731708,"L"
560052,"3703 N WASHINGTON BLVD","INDIANAPOLIS","IN",46205,39.8236323630001,-86.1521074629999,52,"3703 N WASHINGTON BLVD, INDIANAPOLIS, IN, 46205","Match","Exact","3703 N WASHINGTON BLVD, INDIANAPOLIS, IN, 46205",640863560,"R"
560053,"3703 NE 16TH PLACE","OCALA","FL",34470,29.203179006,-82.085337129,53,"3703 NE 16TH PLACE, OCALA, FL, 34470","Match","Exact","3703 NE 16TH PL, OCALA, FL, 34470",635797417,"L"
560054,"3703 NE EASTLAKE DR","LAWTON","OK",73507,34.6249675880001,-98.346724539,54,"3703 NE EASTLAKE DR, LAWTON, OK, 73507","Match","Exact","3703 NE EASTLAKE DR, LAWTON, OK, 73507",616464573,"R"
560055,"3703 NORMANDY ROAD","SHAKER HEIGHTS","OH",44120,41.4592971230001,-81.5566637489999,55,"3703 NORMANDY ROAD, SHAKER HEIGHTS, OH, 44120","Match","Exact","3703 NORMANDY RD, SHAKER HEIGHTS, OH, 44120",61128763,"L"
560056,"3703 OKERSTROM ROAD","HERMANTOWN","MN",55811,46.7788567910001,-92.185269255,56,"3703 OKERSTROM ROAD, HERMANTOWN, MN, 55811","Match","Exact","3703 OKERSTROM RD, HERMANTOWN, MN, 55811",163209185,"L"
560057,"3703 OLD MOBILE HWY","PASCAGOULA","MS",39581,30.368343242,-88.523642728,57,"3703 OLD MOBILE HWY, PASCAGOULA, MS, 39581","Match","Non_Exact","3703 OLD MOBILE AVE, PASCAGOULA, MS, 39581",640016884,"L"
560058,"3703 ORA ST","EDINBURG","TX",78539,26.2949047920001,-98.205345128,58,"3703 ORA ST, EDINBURG, TX, 78539","Match","Non_Exact","3703 W ORA ST, EDINBURG, TX, 78539",627197080,"R"
560059,"3703 PACES PARK CIR SE","SMYRNA","GA",30008,33.8625370390001,-84.490517486,59,"3703 PACES PARK CIR SE, SMYRNA, GA, 30008","Match","Non_Exact","3703 PACES PARK CIR SE, SMYRNA, GA, 30080",618319575,"L"
560060,"3703 PARKWAY PLACE","YAKIMA","WA",98902,46.5869140180001,-120.558462461,60,"3703 PARKWAY PLACE, YAKIMA, WA, 98902","Match","Exact","3703 PARKWAY PL, YAKIMA, WA, 98902",184935256,"R"
560061,"3703 PENNINGTON DRIVE","MISSOURI","TX",77459,29.500458838,-95.525705067,61,"3703 PENNINGTON DRIVE, MISSOURI, TX, 77459","Match","Non_Exact","3703 PENNINGTON CT, MISSOURI CITY, TX, 77459",78298916,"R"
560062,"3703 PINE STREET","JACKSONVILLE","FL",32205,30.2936113420001,-81.7059072279999,62,"3703 PINE STREET, JACKSONVILLE, FL, 32205","Match","Exact","3703 PINE ST, JACKSONVILLE, FL, 32205",83913468,"R"
560063,"3703 PINHORN DR","BRIDGEWATER","NJ",7921,NA,NA,63,"3703 PINHORN DR, BRIDGEWATER, NJ, 7921","No_Match",NA,NA,NA,NA
560064,"3703 PITT PLACE","PHILADELPHIA","PA",19114,40.0686280130001,-74.983504071,64,"3703 PITT PLACE, PHILADELPHIA, PA, 19114","Match","Exact","3703 PITT PL, PHILADELPHIA, PA, 19114",131434179,"R"
560065,"3703 QUAKER LAKE ST","NORTH LAS VEGAS","NV",89031,36.2265114150001,-115.186143446,65,"3703 QUAKER LAKE ST, NORTH LAS VEGAS, NV, 89031","Match","Non_Exact","3703 QUAKER LAKE ST, N LAS VEGAS, NV, 89032",201991487,"L"
560066,"3703 RAVEN CT","MANVEL","TX",77578,29.529555615,-95.3686039199999,66,"3703 RAVEN CT, MANVEL, TX, 77578","Match","Exact","3703 RAVEN CT, MANVEL, TX, 77578",116643350,"L"
560067,"3703 ROSELAND ST APT 8","HOUSTON","TX",77006,29.7395591640001,-95.389871391,67,"3703 ROSELAND ST APT 8, HOUSTON, TX, 77006","Match","Exact","3703 ROSELAND ST, HOUSTON, TX, 77006",96064652,"L"
560068,"3703 S ATLANTIC AVE UNIT 407","DAYTONA BEACH","FL",32118,29.14558541,-80.966147316,68,"3703 S ATLANTIC AVE UNIT 407, DAYTONA BEACH, FL, 32118","Match","Non_Exact","3703 S ATLANTIC AVE, DAYTONA BEACH, FL, 32118",633640271,"L"
560069,"3703 S EDMUNDS 170","SEATTLE","WA",98118,NA,NA,69,"3703 S EDMUNDS 170, SEATTLE, WA, 98118","No_Match",NA,NA,NA,NA
560070,"3703 S EDMUNDS STREET STE 229","SEATTLE","WA",98118,47.558646922,-122.28607335,70,"3703 S EDMUNDS STREET STE 229, SEATTLE, WA, 98118","Match","Non_Exact","3703 S EDMUNDS ST, SEATTLE, WA, 98118",239763180,"R"
560071,"3703 S XENIA STREET","DENVER","CO",80237,39.6490529920001,-104.88576671,71,"3703 S XENIA STREET, DENVER, CO, 80237","Match","Exact","3703 S XENIA ST, DENVER, CO, 80237",177344028,"R"
560072,"3703 SEWARD AVE","ROCKFORD","IL",61108,42.239073714,-89.038042374,72,"3703 SEWARD AVE, ROCKFORD, IL, 61108","Match","Exact","3703 SEWARD AVE, ROCKFORD, IL, 61108",647227564,"L"
560073,"3703 SHARON AVE","GREENSBORO","NC",27405,36.129802908,-79.7570274719999,73,"3703 SHARON AVE, GREENSBORO, NC, 27405","Match","Exact","3703 SHARON AVE, GREENSBORO, NC, 27405",131034437,"L"
560074,"3703 SUMMIT LOOP","WILLIAMSBURG","VA",23188,NA,NA,74,"3703 SUMMIT LOOP, WILLIAMSBURG, VA, 23188","No_Match",NA,NA,NA,NA
560075,"3703 TARRYTOWN WAY","DECATUR","GA",30034,33.6735570660001,-84.2293455289999,75,"3703 TARRYTOWN WAY, DECATUR, GA, 30034","Match","Exact","3703 TARRYTOWN WAY, DECATUR, GA, 30034",23373330,"R"
560076,"3703 TAYLORSVILLE RD STE 222","LOUISVILLE","KY",40220,38.2209965070001,-85.644775452,76,"3703 TAYLORSVILLE RD STE 222, LOUISVILLE, KY, 40220","Match","Exact","3703 TAYLORSVILLE RD, LOUISVILLE, KY, 40220",613507958,"L"
560077,"3703 TERRACE HILL DRIVE 101","LOUISVILLE","KY",40245,38.287937184,-85.4996905249999,77,"3703 TERRACE HILL DRIVE 101, LOUISVILLE, KY, 40245","Match","Exact","3703 TERRACE HILL DR, LOUISVILLE, KY, 40245",96978637,"R"
560078,"3703 THORNGATE DR","MASON","OH",45040,39.3830202500001,-84.292715132,78,"3703 THORNGATE DR, MASON, OH, 45040","Match","Exact","3703 THORNGATE DR, MASON, OH, 45040",159042461,"R"
560079,"3703 TRAILWOOD DRIVE","RICHARDSON","TX",75082,33.0021064430001,-96.659357524,79,"3703 TRAILWOOD DRIVE, RICHARDSON, TX, 75082","Match","Exact","3703 TRAILWOOD DR, RICHARDSON, TX, 75082",123558972,"L"
560080,"3703 UPSHUR STREET","BRENTWOOD","MD",20722,38.9434597440001,-76.957848966,80,"3703 UPSHUR STREET, BRENTWOOD, MD, 20722","Match","Exact","3703 UPSHUR ST, BRENTWOOD, MD, 20722",76304632,"R"
560081,"3703 VERBENA CT","PASCO","WA",99301,46.270240163,-119.138673532,81,"3703 VERBENA CT, PASCO, WA, 99301","Match","Exact","3703 VERBENA CT, PASCO, WA, 99301",175258188,"L"
560082,"3703 W WOOD ST","ROGERS","AR",72756,36.341057059,-94.1701186449999,82,"3703 W WOOD ST, ROGERS, AR, 72756","Match","Exact","3703 W WOOD ST, ROGERS, AR, 72756",47849909,"L"
560083,"3703 W WOOLARD RD","COLBERT","WA",99003,47.845345288,-117.461287612,83,"3703 W WOOLARD RD, COLBERT, WA, 99003","Match","Non_Exact","3703 W WOOLARD RD, COLBERT, WA, 99005",189852885,"R"
560084,"3703 WALNUT AVE SW","SEATTLE","WA",98116,47.5711283200001,-122.383587723,84,"3703 WALNUT AVE SW, SEATTLE, WA, 98116","Match","Exact","3703 WALNUT AVE SW, SEATTLE, WA, 98116",186660992,"R"
560085,"3703 WEST ROSE CITY ROAD","WEST BRANCH","MI",48661,44.420792642,-84.276423049,85,"3703 WEST ROSE CITY ROAD, WEST BRANCH, MI, 48661","Match","Exact","3703 W ROSE CITY RD, WEST BRANCH, MI, 48661",161356630,"R"
560086,"37030 COLBY AVE","BARSTOW","CA",92311,34.9229527690001,-117.027411431,86,"37030 COLBY AVE, BARSTOW, CA, 92311","Match","Exact","37030 COLBY AVE, BARSTOW, CA, 92311",144715621,"L"
560087,"37037 COULTER PINE DR","MENTONE","CA",92359,NA,NA,87,"37037 COULTER PINE DR, MENTONE, CA, 92359","No_Match",NA,NA,NA,NA
560088,"37037 OLIVE ST","NEWARK","CA",94560,37.5306237300001,-122.034672921,88,"37037 OLIVE ST, NEWARK, CA, 94560","Match","Exact","37037 OLIVE ST, NEWARK, CA, 94560",125028313,"R"
560089,"3703A N 45TH ST","SHEBOYGAN","WI",53083,43.783720938,-87.7659690469999,89,"3703A N 45TH ST, SHEBOYGAN, WI, 53083","Match","Exact","3703 N 45TH ST, SHEBOYGAN, WI, 53083",79494786,"R"
560090,"3704 16TH AVE E","PALMETTO","FL",34221,27.547184106,-82.548290295,90,"3704 16TH AVE E, PALMETTO, FL, 34221","Match","Exact","3704 16TH AVE E, PALMETTO, FL, 34221",16242163,"R"
560091,"3704 215TH ST","MATTESON","IL",60443,41.498396717,-87.705569974,91,"3704 215TH ST, MATTESON, IL, 60443","Match","Exact","3704 215TH ST, MATTESON, IL, 60443",111708394,"R"
560092,"3704 25TH STREET SE","PUYALLUP","WA",98374,47.1558057880001,-122.26081938,92,"3704 25TH STREET SE, PUYALLUP, WA, 98374","Match","Exact","3704 25TH ST SE, PUYALLUP, WA, 98374",184636739,"L"
560093,"3704 7TH ST S","ARLINGTON","VA",22204,38.864659707,-77.096676198,93,"3704 7TH ST S, ARLINGTON, VA, 22204","Match","Exact","3704 7TH ST S, ARLINGTON, VA, 22204",76470222,"L"
560094,"3704 9TH STREET","ROCK ISLAND","IL",61201,41.4742127660001,-90.586750582,94,"3704 9TH STREET, ROCK ISLAND, IL, 61201","Match","Exact","3704 9TH ST, ROCK ISLAND, IL, 61201",9207990,"R"
560095,"3704 ASHCROFT DRIVE","WINTERVILLE","NC",28590,35.562420532,-77.367138795,95,"3704 ASHCROFT DRIVE, WINTERVILLE, NC, 28590","Match","Exact","3704 ASHCROFT DR, WINTERVILLE, NC, 28590",638300322,"R"
560096,"3704 ASKEW","KANSAS CITY","MO",64128,39.0584544000001,-94.541886489,96,"3704 ASKEW, KANSAS CITY, MO, 64128","Match","Non_Exact","3704 ASKEW AVE, KANSAS CITY, MO, 64128",91452177,"R"
560097,"3704 AVALON TRAIL","CINCINNATI","OH",45036,39.3919261390001,-84.2814535859999,97,"3704 AVALON TRAIL, CINCINNATI, OH, 45036","Match","Non_Exact","3704 AVALON TRL, MASON, OH, 45036",159052070,"L"
560098,"3704 AVE L","BROOKLYN","NY",11210,40.62273277,-73.939227569,98,"3704 AVE L, BROOKLYN, NY, 11210","Match","Exact","3704 AVE L, BROOKLYN, NY, 11210",59090330,"R"
560099,"3704 BLACKWATER RD","CLINTON","MD",20735,38.710219352,-76.9438243,99,"3704 BLACKWATER RD, CLINTON, MD, 20735","Match","Exact","3704 BLACKWATER RD, CLINTON, MD, 20735",76317459,"L"
560100,"3704 BRANT WAY","ANTIOCH","CA",94509,37.9828789910001,-121.848424189,100,"3704 BRANT WAY, ANTIOCH, CA, 94509","Match","Exact","3704 BRANT WAY, ANTIOCH, CA, 94509",192113836,"R"
560101,"3704 BRUTON ROAD","PLANT CITY","FL",33565,28.1090116940001,-82.168324951,101,"3704 BRUTON ROAD, PLANT CITY, FL, 33565","Match","Exact","3704 BRUTON RD, PLANT CITY, FL, 33565",104586589,"L"
560102,"3704 BUNYAN CIRCLE","LAGO VISTA","TX",78645,30.431024096,-97.9980180329999,102,"3704 BUNYAN CIRCLE, LAGO VISTA, TX, 78645","Match","Exact","3704 BUNYAN CIR, LAGO VISTA, TX, 78645",64003096,"R"
560103,"3704 CALLE CASTANO NE","ALBUQUERQUE","NM",87111,35.123584658,-106.494297065,103,"3704 CALLE CASTANO NE, ALBUQUERQUE, NM, 87111","Match","Non_Exact","3704 CLL CASTANO NE, ALBUQUERQUE, NM, 87111",206736450,"R"
560104,"3704 CANCION STREET","GREENVILLE","NC",27858,35.577005006,-77.352419411,104,"3704 CANCION STREET, GREENVILLE, NC, 27858","Match","Exact","3704 CANCION ST, GREENVILLE, NC, 27858",630190243,"L"
560105,"3704 CHANDLER DRIVE","FT WASHINGTON","MD",20744,38.7763156840001,-76.9437123829999,105,"3704 CHANDLER DRIVE, FT WASHINGTON, MD, 20744","Match","Exact","3704 CHANDLER DR, FT WASHINGTON, MD, 20744",76316709,"L"
560106,"3704 CHIMNEY RIDGE PL","DURHAM","NC",27713,35.926995069,-78.9384458609999,106,"3704 CHIMNEY RIDGE PL, DURHAM, NC, 27713","Match","Exact","3704 CHIMNEY RIDGE PL, DURHAM, NC, 27713",71755713,"L"
560107,"3704 CREST DRIVE","ANNANDALE","VA",22003,38.843739623,-77.198071811,107,"3704 CREST DRIVE, ANNANDALE, VA, 22003","Match","Exact","3704 CREST DR, ANNANDALE, VA, 22003",75980063,"R"
560108,"3704 CROSSGATE CIRCLE","MANHATTAN","KS",66503,39.1702288290001,-96.617597362,108,"3704 CROSSGATE CIRCLE, MANHATTAN, KS, 66503","Match","Exact","3704 CROSSGATE CIR, MANHATTAN, KS, 66503",27806453,"L"
560109,"3704 CROWNOVER ST","AUSTIN","TX",78702,30.2340250230001,-97.5858603459999,109,"3704 CROWNOVER ST, AUSTIN, TX, 78702","Match","Non_Exact","3704 CROWNOVER ST, AUSTIN, TX, 78725",63981672,"L"
560110,"3704 CRYSTAL CREEK DR","KNIGHTDALE","NC",27545,35.7495809650001,-78.512844217,110,"3704 CRYSTAL CREEK DR, KNIGHTDALE, NC, 27545","Match","Exact","3704 CRYSTAL CREEK DR, KNIGHTDALE, NC, 27545",72600207,"R"
560111,"3704 CYPRESS AVE","KANSAS CITY","MO",64128,39.0581224420001,-94.531521843,111,"3704 CYPRESS AVE, KANSAS CITY, MO, 64128","Match","Exact","3704 CYPRESS AVE, KANSAS CITY, MO, 64128",91505535,"R"
560112,"3704 DORADO CT","MODESTO","CA",95356,37.691934336,-120.989172868,112,"3704 DORADO CT, MODESTO, CA, 95356","Match","Exact","3704 DORADO CT, MODESTO, CA, 95356",102600397,"R"
560113,"3704 DRESAGE LANE","FLOWER MOUND","TX",75022,33.0238244080001,-97.0871628309999,113,"3704 DRESAGE LANE, FLOWER MOUND, TX, 75022","Match","Exact","3704 DRESAGE LN, FLOWER MOUND, TX, 75022",103378032,"R"
560114,"3704 DUNKELD DRIVE","NORTH LITTLE ROCK","AR",72116,34.8011897430001,-92.22942532,114,"3704 DUNKELD DRIVE, NORTH LITTLE ROCK, AR, 72116","Match","Exact","3704 DUNKELD DR, N LITTLE ROCK, AR, 72116",83551018,"R"
560115,"3704 E MANDAN DR","SIERRA VISTA","AZ",85650,31.475573523,-110.261153332,115,"3704 E MANDAN DR, SIERRA VISTA, AZ, 85650","Match","Exact","3704 E MANDAN DR, SIERRA VISTA, AZ, 85650",120987738,"R"
560116,"3704 E PARIS STREET","TAMPA","FL",33610,28.0026794560001,-82.418038238,116,"3704 E PARIS STREET, TAMPA, FL, 33610","Match","Exact","3704 E PARIS ST, TAMPA, FL, 33610",104533662,"L"
560117,"3704 EAST 23RD ROAD","ALVA","FL",33920,26.683872218,-81.5793167269999,117,"3704 EAST 23RD ROAD, ALVA, FL, 33920","Match","Non_Exact","3704 E 23RD ST, ALVA, FL, 33920",117985242,"L"
560118,"3704 EDISON AVE","SACRAMENTO","CA",95821,38.63404903,-121.378150086,118,"3704 EDISON AVE, SACRAMENTO, CA, 95821","Match","Exact","3704 EDISON AVE, SACRAMENTO, CA, 95821",133333066,"R"
560119,"3704 ELM CREST LANE","BOWIE","MD",20716,38.9401205180001,-76.7206614309999,119,"3704 ELM CREST LANE, BOWIE, MD, 20716","Match","Non_Exact","3704 ELMCREST LN, BOWIE, MD, 20716",76351829,"L"
560120,"3704 ELMORA AVENUE","BALTIMORE","MD",21213,39.3160998120001,-76.566701602,120,"3704 ELMORA AVENUE, BALTIMORE, MD, 21213","Match","Exact","3704 ELMORA AVE, BALTIMORE, MD, 21213",206435740,"L"
560121,"3704 FAIRWAY DRIVE","JEFFERSON CITY","MO",65109,38.5767667420001,-92.258992559,121,"3704 FAIRWAY DRIVE, JEFFERSON CITY, MO, 65109","Match","Exact","3704 FAIRWAY DR, JEFFERSON CITY, MO, 65109",34418242,"L"
560122,"3704 FOSSIL TREE LN","KELLER","TX",76244,32.892759706,-97.304365075,122,"3704 FOSSIL TREE LN, KELLER, TX, 76244","Match","Exact","3704 FOSSIL TREE LN, KELLER, TX, 76244",652049672,"R"
560123,"3704 FRINGE TREE PL","LOUISVILLE","KY",40241,38.2960013970001,-85.57024305,123,"3704 FRINGE TREE PL, LOUISVILLE, KY, 40241","Match","Exact","3704 FRINGE TREE PL, LOUISVILLE, KY, 40241",96889048,"R"
560124,"3704 GALE ROAD","GRANVILLE","OH",43023,40.0352336,-82.574614608,124,"3704 GALE ROAD, GRANVILLE, OH, 43023","Match","Exact","3704 GALE RD, GRANVILLE, OH, 43023",61531194,"L"
560125,"3704 GALENA HILL","ROUND ROCK","TX",78613,NA,NA,125,"3704 GALENA HILL, ROUND ROCK, TX, 78613","No_Match",NA,NA,NA,NA
560126,"3704 GARDEAU RD","PERRY","NY",14530,42.711613646,-77.995927539,126,"3704 GARDEAU RD, PERRY, NY, 14530","Match","Exact","3704 GARDEAU RD, PERRY, NY, 14530",48881875,"L"
560127,"3704 GENESEE CT","VIRGINIA BEACH","VA",23456,36.7744532400001,-76.109639049,127,"3704 GENESEE CT, VIRGINIA BEACH, VA, 23456","Match","Exact","3704 GENESEE CT, VA BCH, VA, 23456",122268154,"L"
560128,"3704 GREEN STREET","CLAYMONT","DE",19703,39.8046562490001,-75.461412562,128,"3704 GREEN STREET, CLAYMONT, DE, 19703","Match","Exact","3704 GREEN ST, CLAYMONT, DE, 19703",648845541,"R"
560129,"3704 GREY OWL COVE","FRANKLIMN","OH",45005,39.4886928120001,-84.268006879,129,"3704 GREY OWL COVE, FRANKLIMN, OH, 45005","Match","Non_Exact","3704 GREY OWL COVE, FRANKLIN, OH, 45005",617730765,"R"
560130,"3704 GREY OWL COVE","FRANKLIN","OH",45005,39.4886928120001,-84.268006879,130,"3704 GREY OWL COVE, FRANKLIN, OH, 45005","Match","Exact","3704 GREY OWL COVE, FRANKLIN, OH, 45005",617730765,"R"
560131,"3704 GREYMONT DRIVE","SAN DIEGO","CA",95136,37.2773511940001,-121.852730347,131,"3704 GREYMONT DRIVE, SAN DIEGO, CA, 95136","Match","Non_Exact","3704 GREYMONT DR, SAN JOSE, CA, 95136",123177483,"L"
560132,"3704 HERBIN ST","GREENSBORO","NC",27407,36.0144399010001,-79.858250013,132,"3704 HERBIN ST, GREENSBORO, NC, 27407","Match","Exact","3704 HERBIN ST, GREENSBORO, NC, 27407",629891955,"R"
560133,"3704 HIGHLAND VIEW DRIVE","AUSITN","TX",78731,30.345726266,-97.7612496,133,"3704 HIGHLAND VIEW DRIVE, AUSITN, TX, 78731","Match","Non_Exact","3704 HIGHLAND VIEW DR, AUSTIN, TX, 78731",63928934,"R"
560134,"3704 HIGHLAND VIEW DRIVE","AUSTIN","TX",78731,30.345726266,-97.7612496,134,"3704 HIGHLAND VIEW DRIVE, AUSTIN, TX, 78731","Match","Exact","3704 HIGHLAND VIEW DR, AUSTIN, TX, 78731",63928934,"R"
560135,"3704 INDEPENDENCE PLACE","ROCKLIN","CA",95677,38.801658853,-121.228597513,135,"3704 INDEPENDENCE PLACE, ROCKLIN, CA, 95677","Match","Exact","3704 INDEPENDENCE PL, ROCKLIN, CA, 95677",608088106,"L"
560136,"3704 INDIANPIPE CIRCLE","COLORADO SPRINGS","CO",80918,38.894181508,-104.762091856,136,"3704 INDIANPIPE CIRCLE, COLORADO SPRINGS, CO, 80918","Match","Exact","3704 INDIANPIPE CIR, COLORADO SPRINGS, CO, 80918",105516162,"L"
560137,"3704 IVANHOE DRIVE","TEMPLE","TX",76502,31.0699916030001,-97.395071017,137,"3704 IVANHOE DRIVE, TEMPLE, TX, 76502","Match","Exact","3704 IVANHOE DR, TEMPLE, TX, 76502",146227487,"R"
560138,"3704 JUAN ALDAMA CT SE","RIO RANCHO","NM",87124,35.2493371830001,-106.65106674,138,"3704 JUAN ALDAMA CT SE, RIO RANCHO, NM, 87124","Match","Exact","3704 JUAN ALDAMA CT SE, RIO RANCHO, NM, 87124",193996799,"R"
560139,"3704 KEARNEY AVE","MEMPHIS","TN",38111,35.1122796650001,-89.938994577,139,"3704 KEARNEY AVE, MEMPHIS, TN, 38111","Match","Exact","3704 KEARNEY AVE, MEMPHIS, TN, 38111",72919790,"L"
560140,"3704 LAKOTA RD","ALEXANDRIA","VA",22303,38.7931890030001,-77.096077599,140,"3704 LAKOTA RD, ALEXANDRIA, VA, 22303","Match","Exact","3704 LAKOTA RD, ALEXANDRIA, VA, 22303",75988689,"R"
560141,"3704 LEAK LN","LOOMIS","CA",95650,38.819975598,-121.150286978,141,"3704 LEAK LN, LOOMIS, CA, 95650","Match","Exact","3704 LEAK LN, LOOMIS, CA, 95650",106807079,"L"
560142,"3704 LINDEN DR","ALVARADO","TX",76017,32.651118834,-97.1674589199999,142,"3704 LINDEN DR, ALVARADO, TX, 76017","Match","Non_Exact","3704 LINDEN DR, ARLINGTON, TX, 76017",101928669,"L"
560143,"3704 MADISON AVENUE","LINCOLN","NE",68504,40.8403045760001,-96.667833039,143,"3704 MADISON AVENUE, LINCOLN, NE, 68504","Match","Exact","3704 MADISON AVE, LINCOLN, NE, 68504",28253650,"L"
560144,"3704 MANDALAY DRIVE","TROTWOOOD","OH",45416,39.80234325,-84.2716095609999,144,"3704 MANDALAY DRIVE, TROTWOOOD, OH, 45416","Match","Non_Exact","3704 MANDALAY DR, TROTWOOD, OH, 45416",143564724,"R"
560145,"3704 MEINING RD","BERTHOUD","CO",80513,40.2815190740001,-105.145148863,145,"3704 MEINING RD, BERTHOUD, CO, 80513","Match","Exact","3704 MEINING RD, BERTHOUD, CO, 80513",188574078,"L"
560146,"3704 MILLSTONE RUN","AUGUSTA","GA",30906,33.3860691150001,-82.038848294,146,"3704 MILLSTONE RUN, AUGUSTA, GA, 30906","Match","Exact","3704 MILLSTONE RUN, AUGUSTA, GA, 30906",55649808,"L"
560147,"3704 MOSS SIDE AVENUE","RICHMOND","VA",23222,37.5832401150001,-77.4418145609999,147,"3704 MOSS SIDE AVENUE, RICHMOND, VA, 23222","Match","Exact","3704 MOSS SIDE AVE, RICHMOND, VA, 23222",201534113,"L"
560148,"3704 MT HAYDEN CT","MONTROSE","CO",81403,38.4420049080001,-107.887979175,148,"3704 MT HAYDEN CT, MONTROSE, CO, 81403","Match","Exact","3704 MOUNT HAYDEN CT, MONTROSE, CO, 81403",122571275,"R"
560149,"3704 MYSTIC COURT","OLNEY","MD",20832,39.1287061190001,-77.0754563639999,149,"3704 MYSTIC COURT, OLNEY, MD, 20832","Match","Exact","3704 MYSTIC CT, OLNEY, MD, 20832",62097275,"L"
560150,"3704 MYSTIC CT","OLNEY","MD",20832,39.1287061190001,-77.0754563639999,150,"3704 MYSTIC CT, OLNEY, MD, 20832","Match","Exact","3704 MYSTIC CT, OLNEY, MD, 20832",62097275,"L"
560151,"3704 N 2544 E","TWIN FALLS","ID",83301,42.5352962440001,-114.546497998,151,"3704 N 2544 E, TWIN FALLS, ID, 83301","Match","Exact","3704 N 2544 E, TWIN FALLS, ID, 83301",118774340,"R"
560152,"3704 N 31ST STREET","TAMPA","FL",33610,27.9789207800001,-82.425497688,152,"3704 N 31ST STREET, TAMPA, FL, 33610","Match","Exact","3704 N 31ST ST, TAMPA, FL, 33610",104564265,"L"
560153,"3704 N 7TH ST","CLINTON","IA",52732,NA,NA,153,"3704 N 7TH ST, CLINTON, IA, 52732","No_Match",NA,NA,NA,NA
560154,"3704 N CHARLES ST APT 206","BALTIMORE","MD",21218,39.3338377250001,-76.618045813,154,"3704 N CHARLES ST APT 206, BALTIMORE, MD, 21218","Match","Non_Exact","3704 N CHARLES ST, BALTIMORE, MD, 21218",206408632,"L"
560155,"3704 N GLENWOOD AVE","MUNCIE","IN",47304,40.222955401,-85.4037597079999,155,"3704 N GLENWOOD AVE, MUNCIE, IN, 47304","Match","Exact","3704 N GLENWOOD AVE, MUNCIE, IN, 47304",30833980,"R"
560156,"3704 N SHADY CREEK DR","ARLINGTON","TX",76013,32.729228972,-97.166426454,156,"3704 N SHADY CREEK DR, ARLINGTON, TX, 76013","Match","Non_Exact","3704 SHADY CREEK DR S, ARLINGTON, TX, 76013",101918167,"R"
560157,"3704 N SHADYCREEK DR","ARLINGTON","TX",76013,NA,NA,157,"3704 N SHADYCREEK DR, ARLINGTON, TX, 76013","Tie",NA,NA,NA,NA
560158,"3704 NW 63RD STREET","KANSAS CITY","MO",64151,39.208625069,-94.623011248,158,"3704 NW 63RD STREET, KANSAS CITY, MO, 64151","Match","Exact","3704 NW 63RD ST, KANSAS CITY, MO, 64151",39694318,"R"
560159,"3704 OAK GROVE DR","MIDWEST CITY","OK",73110,35.477313328,-97.403050086,159,"3704 OAK GROVE DR, MIDWEST CITY, OK, 73110","Match","Exact","3704 OAK GROVE DR, MIDWEST CITY, OK, 73110",100414273,"R"
560160,"3704 OAKHURST DRIVE","HOLIDAY","FL",34691,28.212507182,-82.746713675,160,"3704 OAKHURST DRIVE, HOLIDAY, FL, 34691","Match","Exact","3704 OAKHURST DR, HOLIDAY, FL, 34691",86349430,"R"
560161,"3704 OAKRIDGE CIR","EDMOND","OK",73034,35.6550832570001,-97.4324338,161,"3704 OAKRIDGE CIR, EDMOND, OK, 73034","Match","Exact","3704 OAKRIDGE CIR, EDMOND, OK, 73034",633222049,"R"
560162,"3704 PEACHTREE CIR","MANHATTAN","KS",66503,39.173665908,-96.619233148,162,"3704 PEACHTREE CIR, MANHATTAN, KS, 66503","Match","Exact","3704 PEACHTREE CIR, MANHATTAN, KS, 66503",27809154,"L"
560163,"3704 PIMLICO COURT","HAMILTON","OH",45011,39.370969222,-84.497216838,163,"3704 PIMLICO COURT, HAMILTON, OH, 45011","Match","Exact","3704 PIMLICO CT, HAMILTON, OH, 45011",113798626,"L"
560164,"3704 POCAHONTAS AVE","CINCINNATI","OH",45227,39.143027338,-84.3685007989999,164,"3704 POCAHONTAS AVE, CINCINNATI, OH, 45227","Match","Exact","3704 POCAHONTAS AVE, CINCINNATI, OH, 45227",103939543,"R"
560165,"3704 QUEENSWOOD PLACE","GARLAND","TX",75040,32.9514655620001,-96.631951006,165,"3704 QUEENSWOOD PLACE, GARLAND, TX, 75040","Match","Exact","3704 QUEENSWOOD PL, GARLAND, TX, 75040",102971160,"L"
560166,"3704 RACQUET CT","PLANO","TX",75023,33.061271177,-96.765803652,166,"3704 RACQUET CT, PLANO, TX, 75023","Match","Exact","3704 RACQUET CT, PLANO, TX, 75023",123485972,"R"
560167,"3704 RALSTON CREEK COURT","PEARLAND","TX",77584,NA,NA,167,"3704 RALSTON CREEK COURT, PEARLAND, TX, 77584","No_Match",NA,NA,NA,NA
560168,"3704 RANCHWOOD ROAD","ORLANDO","FL",32808,28.590843029,-81.46496759,168,"3704 RANCHWOOD ROAD, ORLANDO, FL, 32808","Match","Exact","3704 RANCHWOOD RD, ORLANDO, FL, 32808",94268902,"L"
560169,"3704 RD 96","PASCO","WA",99301,46.2621072600001,-119.216369965,169,"3704 RD 96, PASCO, WA, 99301","Match","Non_Exact","3704 N RD 96, PASCO, WA, 99301",624275663,"L"
560170,"3704 RED WING COURT","WINSTON SALEM","NC",27106,36.127393211,-80.3445601769999,170,"3704 RED WING COURT, WINSTON SALEM, NC, 27106","Match","Non_Exact","3704 REDWING CT, WINSTON SALEM, NC, 27106",84626201,"R"
560171,"3704 RICHELIEU DR","BIRMINGHAM","AL",35216,33.392569435,-86.7748654499999,171,"3704 RICHELIEU DR, BIRMINGHAM, AL, 35216","Match","Exact","3704 RICHELIEU DR, BIRMINGHAM, AL, 35216",81616656,"R"
560172,"3704 RICHMOND DRIVE","ETHEL","LA",70730,30.7745385870001,-91.165502627,172,"3704 RICHMOND DRIVE, ETHEL, LA, 70730","Match","Exact","3704 RICHMOND DR, ETHEL, LA, 70730",75691261,"R"
560173,"3704 RIDGE CT","CARLSBAD","CA",92010,33.1744541460001,-117.293334008,173,"3704 RIDGE CT, CARLSBAD, CA, 92010","Match","Exact","3704 RIDGE CT, CARLSBAD, CA, 92010",195452121,"L"
560174,"3704 RIVER ROAD","STERLING","IL",61081,NA,NA,174,"3704 RIVER ROAD, STERLING, IL, 61081","No_Match",NA,NA,NA,NA
560175,"3704 RIVERMONT RD","DURHAM","NC",27712,36.054702478,-78.971542352,175,"3704 RIVERMONT RD, DURHAM, NC, 27712","Match","Exact","3704 RIVERMONT RD, DURHAM, NC, 27712",71734596,"R"
560176,"3704 S LITTLEJOHN","FORT WORTH","TX",76105,32.719400218,-97.270817452,176,"3704 S LITTLEJOHN, FORT WORTH, TX, 76105","Match","Non_Exact","3704 S LITTLEJOHN AVE, FORT WORTH, TX, 76105",101897005,"R"
560177,"3704 S RIDGEWAY PL","SEATTLE","WA",98144,47.5769159760001,-122.286124385,177,"3704 S RIDGEWAY PL, SEATTLE, WA, 98144","Match","Exact","3704 S RIDGEWAY PL, SEATTLE, WA, 98144",186594831,"L"
560178,"3704 SEQUOIA AVE","BALTIMORE","MD",21215,39.331216795,-76.676816434,178,"3704 SEQUOIA AVE, BALTIMORE, MD, 21215","Match","Exact","3704 SEQUOIA AVE, BALTIMORE, MD, 21215",206405587,"R"
560179,"3704 SHARON ST","HARRISBURG","PA",17111,40.26256664,-76.828185929,179,"3704 SHARON ST, HARRISBURG, PA, 17111","Match","Exact","3704 SHARON ST, HARRISBURG, PA, 17111",70822001,"L"
560180,"3704 SIDES ST","PLAINVIEW","TX",79072,34.205766474,-101.748685318,180,"3704 SIDES ST, PLAINVIEW, TX, 79072","Match","Exact","3704 SIDES ST, PLAINVIEW, TX, 79072",185705742,"R"
560181,"3704 SONOMA DRIVE","RIVIERA BEACH","FL",33404,26.792298069,-80.0846523929999,181,"3704 SONOMA DRIVE, RIVIERA BEACH, FL, 33404","Match","Exact","3704 SONOMA DR, RIVIERA BEACH, FL, 33404",625000465,"L"
560182,"3704 SOUTH 170 COURT","OMAHA","NE",68130,41.2257581540001,-96.181140001,182,"3704 SOUTH 170 COURT, OMAHA, NE, 68130","Match","Exact","3704 S 170TH CT, OMAHA, NE, 68130",117011667,"L"
560183,"3704 STALCUP RD","FORT WORTH","TX",76119,32.710647039,-97.23791517,183,"3704 STALCUP RD, FORT WORTH, TX, 76119","Match","Exact","3704 STALCUP RD, FORT WORTH, TX, 76119",101899500,"R"
560184,"3704 STARLIGHT TRAIL","PLANO","TX",75023,33.04413993,-96.765322719,184,"3704 STARLIGHT TRAIL, PLANO, TX, 75023","Match","Exact","3704 STARLIGHT TRL, PLANO, TX, 75023",123521409,"L"
560185,"3704 TEXAS STREET","SAN DIEGO","CA",92104,32.7458172880001,-117.138979786,185,"3704 TEXAS STREET, SAN DIEGO, CA, 92104","Match","Exact","3704 TEXAS ST, SAN DIEGO, CA, 92104",195345402,"L"
560186,"3704 TIERRA VISTA PL NE","RIO RANCHO","NM",87124,35.2627744050001,-106.661997077,186,"3704 TIERRA VISTA PL NE, RIO RANCHO, NM, 87124","Match","Exact","3704 TIERRA VISTA PL NE, RIO RANCHO, NM, 87124",632506730,"L"
560187,"3704 TIMSON CT","AUSTIN","TX",78731,30.365823828,-97.751912822,187,"3704 TIMSON CT, AUSTIN, TX, 78731","Match","Exact","3704 TIMSON CT, AUSTIN, TX, 78731",63928103,"R"
560188,"3704 TUSTIN RD","ELLICOTT CITY","MD",21042,39.270143934,-76.8697817839999,188,"3704 TUSTIN RD, ELLICOTT CITY, MD, 21042","Match","Non_Exact","3704 TUSTIN DR, ELLICOTT CITY, MD, 21042",158922331,"R"
560189,"3704 TUSTIN ROAD","ELLICOTT CITY","MD",21042,39.270143934,-76.8697817839999,189,"3704 TUSTIN ROAD, ELLICOTT CITY, MD, 21042","Match","Non_Exact","3704 TUSTIN DR, ELLICOTT CITY, MD, 21042",158922331,"R"
560190,"3704 TWIN LAKES WAY","PLANO","TX",75093,33.0479869270001,-96.799495789,190,"3704 TWIN LAKES WAY, PLANO, TX, 75093","Match","Exact","3704 TWIN LAKES WAY, PLANO, TX, 75093",123532462,"R"
560191,"3704 ULMAN AV","NORT PORT","FL",34286,27.1104438840001,-82.187132001,191,"3704 ULMAN AV, NORT PORT, FL, 34286","Match","Non_Exact","3704 ULMAN AVE, NORTH PORT, FL, 34286",16375828,"L"
560192,"3704 VAUCLUSE DR APT 146","EULESS","TX",76040,32.8170397810001,-97.073567494,192,"3704 VAUCLUSE DR APT 146, EULESS, TX, 76040","Match","Exact","3704 VAUCLUSE DR, EULESS, TX, 76040",102110013,"L"
560193,"3704 W 850 N","BAINBRIDGE","IN",46105,39.7854012600001,-86.912302675,193,"3704 W 850 N, BAINBRIDGE, IN, 46105","Match","Non_Exact","3704 W CO RD 850 N, BAINBRIDGE, IN, 46105",50101988,"L"
560194,"3704 W LAKE DR","SEFFNER","FL",33584,NA,NA,194,"3704 W LAKE DR, SEFFNER, FL, 33584","No_Match",NA,NA,NA,NA
560195,"3704 WEATHERTLY DRIVE","DURHAM","NC",27703,NA,NA,195,"3704 WEATHERTLY DRIVE, DURHAM, NC, 27703","No_Match",NA,NA,NA,NA
560196,"3704 WELCOME AVENUE NORTH","CRYSTAL","MN",55422,45.0232334570001,-93.350765477,196,"3704 WELCOME AVENUE NORTH, CRYSTAL, MN, 55422","Match","Exact","3704 WELCOME AVE N, CRYSTAL, MN, 55422",43671208,"R"
560197,"3704 WEST 61 STREET","LOS ANGELES","CA",90043,33.984457718,-118.336944551,197,"3704 WEST 61 STREET, LOS ANGELES, CA, 90043","Match","Exact","3704 W 61ST ST, LOS ANGELES, CA, 90043",141654994,"L"
560198,"3704 WESTBROOK","NASHVILLE","TN",37205,36.1387761510001,-86.8303301029999,198,"3704 WESTBROOK, NASHVILLE, TN, 37205","Match","Non_Exact","3704 WESTBROOK AVE, NASHVILLE, TN, 37205",606819761,"R"
560199,"3704 WILLOW","NORTH LITTLE ROCK","AR",72118,NA,NA,199,"3704 WILLOW, NORTH LITTLE ROCK, AR, 72118","No_Match",NA,NA,NA,NA
560200,"3704 WIND MEADE ROAD","WAKE FOREST","NC",27587,35.910855908,-78.5122389319999,200,"3704 WIND MEADE ROAD, WAKE FOREST, NC, 27587","Match","Non_Exact","3704 WINDMEADE RD, WAKE FOREST, NC, 27587",646916546,"R"
560201,"3704 WINDRIDGE ROAD","VIRGINIA BEACH","VA",23452,36.806988817,-76.091964922,201,"3704 WINDRIDGE ROAD, VIRGINIA BEACH, VA, 23452","Match","Exact","3704 WINDRIDGE RD, VA BCH, VA, 23452",122268475,"L"
560202,"3704 ZINNIA AVE","MCALLEN","TX",78504,26.2546555320001,-98.253612367,202,"3704 ZINNIA AVE, MCALLEN, TX, 78504","Match","Exact","3704 ZINNIA AVE, MCALLEN, TX, 78504",71550113,"R"
560203,"3704","ORLANDO","FL",32808,NA,NA,203,"3704, ORLANDO, FL, 32808","No_Match",NA,NA,NA,NA
560204,"37041 S HOLLYGREEN DR","SADDLEBROOK","AZ",85739,32.5389448940001,-110.875267406,204,"37041 S HOLLYGREEN DR, SADDLEBROOK, AZ, 85739","Match","Non_Exact","37041 S HOLLYGREEN DR, SADDLEBROOKE, AZ, 85739",129240373,"L"
560205,"37044 OLD MILL CREEK RD","MENTONE","CA",92359,34.10179715,-116.996910862,205,"37044 OLD MILL CREEK RD, MENTONE, CA, 92359","Match","Exact","37044 OLD MILL CREEK RD, MENTONE, CA, 92359",145198685,"L"
560206,"37046","LAKE VILLA","IL",60046,NA,NA,206,"37046, LAKE VILLA, IL, 60046","No_Match",NA,NA,NA,NA
560207,"37049 TAIL FEATHER DR","NORTH RIDGEVILLE","OH",44039,41.397324542,-82.032593855,207,"37049 TAIL FEATHER DR, NORTH RIDGEVILLE, OH, 44039","Match","Exact","37049 TAIL FEATHER DR, N RIDGEVILLE, OH, 44039",652005509,"L"
560208,"3704B BUFFALO SPRINGS TRAIL","GEORGETOWN","TX",78628,30.672824253,-97.694966313,208,"3704B BUFFALO SPRINGS TRAIL, GEORGETOWN, TX, 78628","Match","Exact","3704 BUFFALO SPRINGS TRL, GEORGETOWN, TX, 78628",126475562,"L"
560209,"3705 10TH AVE","SAN DIEGO","CA",92103,32.7454800730001,-117.155261096,209,"3705 10TH AVE, SAN DIEGO, CA, 92103","Match","Exact","3705 10TH AVE, SAN DIEGO, CA, 92103",612883810,"L"
560210,"3705 164TH AVENUE CT E","LAKE TAPPS","WA",98391,47.2235451770001,-122.2103184,210,"3705 164TH AVENUE CT E, LAKE TAPPS, WA, 98391","Match","Exact","3705 164TH AVENUE CT E, LAKE TAPPS, WA, 98391",184709174,"L"
560211,"3705 25TH STREET APT 1","SAN FRANCISCO","CA",94110,37.7503567690001,-122.422930913,211,"3705 25TH STREET APT 1, SAN FRANCISCO, CA, 94110","Match","Exact","3705 25TH ST, SAN FRANCISCO, CA, 94110",192284954,"L"
560212,"3705 33RD STREET","LUBBOCK","TX",79410,33.5641769120001,-101.894505158,212,"3705 33RD STREET, LUBBOCK, TX, 79410","Match","Exact","3705 33RD ST, LUBBOCK, TX, 79410",185251376,"L"
560213,"3705 9TH STREET SW","LEHIGH ACRES","FL",33976,26.6049631700001,-81.6952550889999,213,"3705 9TH STREET SW, LEHIGH ACRES, FL, 33976","Match","Exact","3705 9TH ST SW, LEHIGH ACRES, FL, 33976",117987616,"R"
560214,"3705 AIRPORT CIRCLE NW","WILSON","NC",27896,35.7589485300001,-77.956899248,214,"3705 AIRPORT CIRCLE NW, WILSON, NC, 27896","Match","Non_Exact","3705 AIRPORT CIR, WILSON, NC, 27896",26730557,"L"
560215,"3705 ALBRITTON DR","DURHAM","NC",27705,35.9824384070001,-78.985634406,215,"3705 ALBRITTON DR, DURHAM, NC, 27705","Match","Exact","3705 ALBRITTON DR, DURHAM, NC, 27705",618107445,"L"
560216,"3705 ARCTIC BLVD - 1332","ANCHORAGE","AK",99503,61.187393081,-149.897944462,216,"3705 ARCTIC BLVD - 1332, ANCHORAGE, AK, 99503","Match","Exact","3705 ARCTIC BLVD, ANCHORAGE, AK, 99503",190797156,"L"
560217,"3705 ARCTIC BLVD 2196","ANCHORAGE","AK",99503,61.187393081,-149.897944462,217,"3705 ARCTIC BLVD 2196, ANCHORAGE, AK, 99503","Match","Exact","3705 ARCTIC BLVD, ANCHORAGE, AK, 99503",190797156,"L"
560218,"3705 ARCTIC BLVD BOX 415","ANCHORAGE","AK",99503,61.187393081,-149.897944462,218,"3705 ARCTIC BLVD BOX 415, ANCHORAGE, AK, 99503","Match","Exact","3705 ARCTIC BLVD, ANCHORAGE, AK, 99503",190797156,"L"
560219,"3705 ARCTIC BLVD UNIT 1873","ANCHORAGE","AK",99503,61.187393081,-149.897944462,219,"3705 ARCTIC BLVD UNIT 1873, ANCHORAGE, AK, 99503","Match","Exact","3705 ARCTIC BLVD, ANCHORAGE, AK, 99503",190797156,"L"
560220,"3705 ARDENNE COURT","COLLEGE STATION","TX",77845,30.5669572830001,-96.296069304,220,"3705 ARDENNE COURT, COLLEGE STATION, TX, 77845","Match","Exact","3705 ARDENNE CT, COLLEGE STATION, TX, 77845",21834594,"R"
560221,"3705 BEDFORD POINTE CT","WENTZVILLE","MO",63385,38.8626096680001,-90.884231846,221,"3705 BEDFORD POINTE CT, WENTZVILLE, MO, 63385","Match","Exact","3705 BEDFORD POINTE CT, WENTZVILLE, MO, 63385",100085225,"R"
560222,"3705 BELLE ARBOR CIRCLE","TITUSVILLE","FL",32780,28.570476091,-80.80692874,222,"3705 BELLE ARBOR CIRCLE, TITUSVILLE, FL, 32780","Match","Exact","3705 BELLE ARBOR CIR, TITUSVILLE, FL, 32780",93932822,"R"
560223,"3705 BIG BEAR LAKE DR","ARLINGTON","TX",76016,32.683154297,-97.218873012,223,"3705 BIG BEAR LAKE DR, ARLINGTON, TX, 76016","Match","Exact","3705 BIG BEAR LAKE DR, ARLINGTON, TX, 76016",101901530,"L"
560224,"3705 BULL RUN","MADISON","WI",53718,43.1819048300001,-89.286063269,224,"3705 BULL RUN, MADISON, WI, 53718","Match","Non_Exact","3705 BULL RUN DR, MADISON, WI, 53718",49495588,"R"
560225,"3705 CAREY STREET","SILVER SPRING","MD",20902,39.05477011,-77.074429647,225,"3705 CAREY STREET, SILVER SPRING, MD, 20902","Match","Exact","3705 CAREY ST, SILVER SPRING, MD, 20902",642990170,"R"
560226,"3705 CARSON AVENUE","COOPER CITY","FL",33026,26.039705203,-80.28923933,226,"3705 CARSON AVENUE, COOPER CITY, FL, 33026","Match","Non_Exact","3705 CARSON AVE, HOLLYWOOD, FL, 33026",114760816,"R"
560227,"3705 CARTER COURT","GRANITE FALLS","NC",28630,35.8420818010001,-81.405051117,227,"3705 CARTER COURT, GRANITE FALLS, NC, 28630","Match","Exact","3705 CARTER CT, GRANITE FALLS, NC, 28630",45862524,"R"
560228,"3705 CARTERS CORNER ROAD","SUNBURY","OH",43074,40.3027820300001,-82.879519897,228,"3705 CARTERS CORNER ROAD, SUNBURY, OH, 43074","Match","Non_Exact","3705 CARTER'S CORNER RD, SUNBURY, OH, 43074",24587178,"L"
560229,"3705 CASHEW WAY","ROCK HILL","SC",29732,34.9941110820001,-81.005356859,229,"3705 CASHEW WAY, ROCK HILL, SC, 29732","Match","Exact","3705 CASHEW WAY, ROCK HILL, SC, 29732",19818183,"R"
560230,"3705 CHARTWELL CT","ROCKFORD","IL",61114,NA,NA,230,"3705 CHARTWELL CT, ROCKFORD, IL, 61114","No_Match",NA,NA,NA,NA
560231,"3705 CHRISTIAN FLURY DRIVE","SILVER CITY","NM",88061,32.800869479,-108.281631805,231,"3705 CHRISTIAN FLURY DRIVE, SILVER CITY, NM, 88061","Match","Non_Exact","3705 CHRISTIAN FLURY RD, SILVER CITY, NM, 88061",192653842,"L"
560232,"3705 CIRCLE LANE","BETHEL","NC",27812,NA,NA,232,"3705 CIRCLE LANE, BETHEL, NC, 27812","No_Match",NA,NA,NA,NA
560233,"3705 COOPER BRANCH STREET","DENTON","TX",76209,NA,NA,233,"3705 COOPER BRANCH STREET, DENTON, TX, 76209","Tie",NA,NA,NA,NA
560234,"3705 CORTE BELLA HILL AVE","NORTH LAS VEGAS","NV",89081,36.263596062,-115.093753292,234,"3705 CORTE BELLA HILL AVE, NORTH LAS VEGAS, NV, 89081","Match","Non_Exact","3705 CORTE BELLA HILLS AVE, N LAS VEGAS, NV, 89081",626861609,"L"
560235,"3705 COUNTRY ROAD 266 N","HENDERSON","TX",75652,NA,NA,235,"3705 COUNTRY ROAD 266 N, HENDERSON, TX, 75652","No_Match",NA,NA,NA,NA
560236,"3705 CR 118","GIDDINGS","TX",78942,30.24656774,-96.899112474,236,"3705 CR 118, GIDDINGS, TX, 78942","Match","Exact","3705 CO RD 118, GIDDINGS, TX, 78942",643562956,"L"
560237,"3705 DENNIS LANE","WHITE BEAR LAKE","MN",55110,45.0533057760001,-93.008955876,237,"3705 DENNIS LANE, WHITE BEAR LAKE, MN, 55110","Match","Exact","3705 DENNIS LN, WHITE BEAR LAKE, MN, 55110",97651992,"L"
560238,"3705 DOYLE COURT","HOUSTON","TX",77007,NA,NA,238,"3705 DOYLE COURT, HOUSTON, TX, 77007","No_Match",NA,NA,NA,NA
560239,"3705 E BEAVER CREEK RD","RIM ROCK","AZ",86335,34.651045794,-111.783916217,239,"3705 E BEAVER CREEK RD, RIM ROCK, AZ, 86335","Match","Non_Exact","3705 E BEAVER CREEK RD, RIMROCK, AZ, 86335",159477299,"R"
560240,"3705 E KLIEFORTH AVENUE","CUDAHY","WI",53110,42.9341072940001,-87.856504678,240,"3705 E KLIEFORTH AVENUE, CUDAHY, WI, 53110","Match","Exact","3705 E KLIEFORTH AVE, CUDAHY, WI, 53110",77756487,"R"
560241,"3705 E MT VERNON","WICHITA","KS",67218,37.6573186690001,-97.292206498,241,"3705 E MT VERNON, WICHITA, KS, 67218","Match","Non_Exact","3705 E MOUNT VERNON ST, WICHITA, KS, 67218",115648474,"R"
560242,"3705 E RACQUET CLUB CIR","SALT LAKE CITY","UT",84121,NA,NA,242,"3705 E RACQUET CLUB CIR, SALT LAKE CITY, UT, 84121","No_Match",NA,NA,NA,NA
560243,"3705 EAGLE LAKE LANE NE","OLYMPIA","WA",98506,47.083580967,-122.851460781,243,"3705 EAGLE LAKE LANE NE, OLYMPIA, WA, 98506","Match","Exact","3705 EAGLE LAKE LN NE, OLYMPIA, WA, 98506",180983612,"R"
560244,"3705 EAST HENRY AVENUE","TAMPA","FL",33610,27.9997366750001,-82.418101376,244,"3705 EAST HENRY AVENUE, TAMPA, FL, 33610","Match","Exact","3705 E HENRY AVE, TAMPA, FL, 33610",104533697,"R"
560245,"3705 ENGINEERING DR","PEACHTREE CORNERS","GA",30092,33.9672590960001,-84.2278910329999,245,"3705 ENGINEERING DR, PEACHTREE CORNERS, GA, 30092","Match","Exact","3705 ENGINEERING DR, PEACHTREE CORNERS, GA, 30092",645856487,"L"
560246,"3705 FAIROAK DR","GRANITE CITY","IL",62040,NA,NA,246,"3705 FAIROAK DR, GRANITE CITY, IL, 62040","No_Match",NA,NA,NA,NA
560247,"3705 FERRA DRIVE","SILVER SPRING","MD",20906,39.049225988,-77.076657605,247,"3705 FERRA DRIVE, SILVER SPRING, MD, 20906","Match","Non_Exact","3705 FERRARA DR, SILVER SPRING, MD, 20906",62061852,"L"
560248,"3705 GLEENSTONE DRIVE","DURHAM","NC",27704,36.053001276,-78.8374616629999,248,"3705 GLEENSTONE DRIVE, DURHAM, NC, 27704","Match","Non_Exact","3705 GLENNSTONE DR, DURHAM, NC, 27704",71785809,"L"
560249,"3705 GROVE STREET","SKOKIE","IL",60076,42.0453553420001,-87.7206141459999,249,"3705 GROVE STREET, SKOKIE, IL, 60076","Match","Exact","3705 GROVE ST, SKOKIE, IL, 60076",111740185,"L"
560250,"3705 GUYTON RD","HOOVER","AL",35244,33.332898002,-86.889466053,250,"3705 GUYTON RD, HOOVER, AL, 35244","Match","Exact","3705 GUYTON RD, HOOVER, AL, 35244",81619864,"R"
560251,"3705 HAVEN AVENUE SUITE 109","MENLO PARK","CA",94025,37.486447626,-122.181302788,251,"3705 HAVEN AVENUE SUITE 109, MENLO PARK, CA, 94025","Match","Exact","3705 HAVEN AVE, MENLO PARK, CA, 94025",192361854,"L"
560252,"3705 HIGHWAY C","JEFFERSON CITY","MO",65109,NA,NA,252,"3705 HIGHWAY C, JEFFERSON CITY, MO, 65109","No_Match",NA,NA,NA,NA
560253,"3705 HILLSDALE DR","FLOWER MOUND","TX",75022,33.0200607720001,-97.086116617,253,"3705 HILLSDALE DR, FLOWER MOUND, TX, 75022","Match","Non_Exact","3705 HILLSDALE, FLOWER MOUND, TX, 75022",103416996,"R"
560254,"3705 HILSDALE DR","FLOWER MUND","TX",75022,33.0200607720001,-97.086116617,254,"3705 HILSDALE DR, FLOWER MUND, TX, 75022","Match","Non_Exact","3705 HILLSDALE, FLOWER MOUND, TX, 75022",103416996,"R"
560255,"3705 HOLZSCHUH ROAD","BLAND","MO",65014,38.3181691090001,-91.5591324439999,255,"3705 HOLZSCHUH ROAD, BLAND, MO, 65014","Match","Exact","3705 HOLZSCHUH RD, BLAND, MO, 65014",647414303,"L"
560256,"3705 INDIAN SPRINGS TRAIL","ARLINGTON","TX",76016,32.6897366490001,-97.1669186999999,256,"3705 INDIAN SPRINGS TRAIL, ARLINGTON, TX, 76016","Match","Exact","3705 INDIAN SPRING TRL, ARLINGTON, TX, 76016",638654356,"R"
560257,"3705 INGRAM DR","RALEIGH","NC",27604,35.8310007090001,-78.5922135439999,257,"3705 INGRAM DR, RALEIGH, NC, 27604","Match","Exact","3705 INGRAM DR, RALEIGH, NC, 27604",639416274,"L"
560258,"3705 IOWA ROAD","BRANDYWINE","MD",20613,38.609915517,-76.7723075329999,258,"3705 IOWA ROAD, BRANDYWINE, MD, 20613","Match","Exact","3705 IOWA RD, BRANDYWINE, MD, 20613",25419466,"L"
560259,"3705 J P DR","HAYS","KS",67601,38.8977340760001,-99.330931494,259,"3705 J P DR, HAYS, KS, 67601","Match","Exact","3705 J P DR, HAYS, KS, 67601",149821849,"L"
560260,"3705 KESSLER BLVD NORTH DRIVE","INDIANAPOLIS","IN",46222,39.8222616080001,-86.211332458,260,"3705 KESSLER BLVD NORTH DRIVE, INDIANAPOLIS, IN, 46222","Match","Exact","3705 KESSLER BLVD NORTH DR, INDIANAPOLIS, IN, 46222",108050897,"R"
560261,"3705 LAKEHURST DR","MEMPHIS","TN",38128,35.2270253180001,-89.907400879,261,"3705 LAKEHURST DR, MEMPHIS, TN, 38128","Match","Exact","3705 LAKEHURST DR, MEMPHIS, TN, 38128",72899145,"L"
560262,"3705 LAKEVIEW PKWY SUITE 215","ROWLETT","TX",75088,NA,NA,262,"3705 LAKEVIEW PKWY SUITE 215, ROWLETT, TX, 75088","No_Match",NA,NA,NA,NA
560263,"3705 LEE ROAD","SHAKER HEIGHTS","OH",44120,41.4586532820001,-81.564898883,263,"3705 LEE ROAD, SHAKER HEIGHTS, OH, 44120","Match","Exact","3705 LEE RD, SHAKER HEIGHTS, OH, 44120",61127407,"L"
560264,"3705 LIBBY LANE","YUBA CITY","CA",95993,39.142806986,-121.684706415,264,"3705 LIBBY LANE, YUBA CITY, CA, 95993","Match","Exact","3705 LIBBY LN, YUBA CITY, CA, 95993",619515728,"R"
560265,"3705 LOMA JACINTO","EL PASO","TX",79938,31.7995437700001,-106.217616546,265,"3705 LOMA JACINTO, EL PASO, TX, 79938","Match","Exact","3705 LOMA JACINTO, EL PASO, TX, 79938",642023898,"R"
560266,"3705 MALL OF GA BLVD","BUFORD","GA",30519,NA,NA,266,"3705 MALL OF GA BLVD, BUFORD, GA, 30519","No_Match",NA,NA,NA,NA
560267,"3705 MAPLE STREET","OMAHA","NE",68111,41.2847341840001,-95.9686239059999,267,"3705 MAPLE STREET, OMAHA, NE, 68111","Match","Exact","3705 MAPLE ST, OMAHA, NE, 68111",650424822,"L"
560268,"3705 MEADOWBRIDGE ROAD","RICHMOND","VA",23222,37.5822836790001,-77.423201074,268,"3705 MEADOWBRIDGE ROAD, RICHMOND, VA, 23222","Match","Exact","3705 MEADOWBRIDGE RD, RICHMOND, VA, 23222",645918378,"R"
560269,"3705 MEDICAL PARKWAY SUITE 570","AUSTIN","TX",78705,30.3051597090001,-97.7443110569999,269,"3705 MEDICAL PARKWAY SUITE 570, AUSTIN, TX, 78705","Match","Exact","3705 MEDICAL PKWY, AUSTIN, TX, 78705",63942424,"R"
560270,"3705 MIDLOTHIAN PLACE","WALDOF","MD",20602,38.6139590920001,-76.90083936,270,"3705 MIDLOTHIAN PLACE, WALDOF, MD, 20602","Match","Non_Exact","3705 MIDLOTHIAN PL, WALDORF, MD, 20602",25406418,"L"
560271,"3705 MIMOSA AVE","MEMPHIS","TN",38111,35.1388809750001,-89.937874715,271,"3705 MIMOSA AVE, MEMPHIS, TN, 38111","Match","Exact","3705 MIMOSA AVE, MEMPHIS, TN, 38111",72915889,"R"
560272,"3705 MORRISON ST","WASHINGTON","DC",20015,38.964006076,-77.0718821259999,272,"3705 MORRISON ST, WASHINGTON, DC, 20015","Match","Non_Exact","3705 MORRISON ST NW, WASHINGTON, DC, 20015",76219176,"R"
560273,"3705 N 13TH STREET","MILWAUKEE","WI",53206,43.0847794680001,-87.9272238569999,273,"3705 N 13TH STREET, MILWAUKEE, WI, 53206","Match","Exact","3705 N 13TH ST, MILWAUKEE, WI, 53206",77738750,"L"
560274,"3705 N AUDUBON ST","SPOKANE","WA",99205,47.691809483,-117.455402253,274,"3705 N AUDUBON ST, SPOKANE, WA, 99205","Match","Exact","3705 N AUDUBON ST, SPOKANE, WA, 99205",189871195,"L"
560275,"3705 N BEYER","SAGINAW","MI",48601,43.4619634740001,-83.7776684949999,275,"3705 N BEYER, SAGINAW, MI, 48601","Match","Non_Exact","3705 N BEYER RD, SAGINAW, MI, 48601",80233243,"L"
560276,"3705 N HIGHPOINT STREET","WICHITA","KS",67205,37.750747054,-97.442443757,276,"3705 N HIGHPOINT STREET, WICHITA, KS, 67205","Match","Non_Exact","3705 HIGH POINT ST, WICHITA, KS, 67205",627650010,"L"
560277,"3705 N HWY 97","BEND","OR",97701,44.0881712660001,-121.306073528,277,"3705 N HWY 97, BEND, OR, 97701","Match","Non_Exact","3705 N HWY 97, BEND, OR, 97703",152553046,"L"
560278,"3705 N ROCKY POINT DRIVE E","TAMPA","FL",33607,NA,NA,278,"3705 N ROCKY POINT DRIVE E, TAMPA, FL, 33607","No_Match",NA,NA,NA,NA
560279,"3705 N TRES LOMAS PL","TUCSON","AZ",85749,32.2748123860001,-110.795291837,279,"3705 N TRES LOMAS PL, TUCSON, AZ, 85749","Match","Exact","3705 N TRES LOMAS PL, TUCSON, AZ, 85749",121187321,"L"
560280,"3705 NORMAN SCOTT RD UNIT AS031","SAN DIEGO","CA",92136,32.6876781070001,-117.125237229,280,"3705 NORMAN SCOTT RD UNIT AS031, SAN DIEGO, CA, 92136","Match","Exact","3705 NORMAN SCOTT RD, SAN DIEGO, CA, 92136",195673716,"L"
560281,"3705 NORTH 44TH STREET","OMAHA","NE",68111,41.2924991790001,-95.978150714,281,"3705 NORTH 44TH STREET, OMAHA, NE, 68111","Match","Exact","3705 N 44TH ST, OMAHA, NE, 68111",116978230,"R"
560282,"3705 NW 84TH AVE BLDG 5A","SUNRISE","FL",33351,26.170981731,-80.2627439359999,282,"3705 NW 84TH AVE BLDG 5A, SUNRISE, FL, 33351","Match","Non_Exact","3705 NW 84TH AVE, SUNRISE, FL, 33351",638980619,"L"
560283,"3705 NW 84TH AVENUE APT 5A","SUNRISE","FL",33351,26.170981731,-80.2627439359999,283,"3705 NW 84TH AVENUE APT 5A, SUNRISE, FL, 33351","Match","Non_Exact","3705 NW 84TH AVE, SUNRISE, FL, 33351",638980619,"L"
560284,"3705 NW AVE BLDG 5A","SUNRISE","FL",33351,NA,NA,284,"3705 NW AVE BLDG 5A, SUNRISE, FL, 33351","No_Match",NA,NA,NA,NA
560285,"3705 OSBORNE DRIVE","SANDUSKY","OH",44870,41.4113142250001,-82.648102409,285,"3705 OSBORNE DRIVE, SANDUSKY, OH, 44870","Match","Non_Exact","3705 OSBORN ST, SANDUSKY, OH, 44870",55325461,"L"
560286,"3705 PARKWOOD DR","HOUSTON","TX",77021,29.7072944560001,-95.360593149,286,"3705 PARKWOOD DR, HOUSTON, TX, 77021","Match","Exact","3705 PARKWOOD DR, HOUSTON, TX, 77021",96072624,"L"
560287,"3705 PARSON AVE","NEW BERN","NC",28560,NA,NA,287,"3705 PARSON AVE, NEW BERN, NC, 28560","No_Match",NA,NA,NA,NA
560288,"3705 PEARL TRAIL","GARLAND","TX",75044,32.951105268,-96.666421127,288,"3705 PEARL TRAIL, GARLAND, TX, 75044","Match","Exact","3705 PEARL TRL, GARLAND, TX, 75044",623851910,"R"
560289,"3705 PILGRIM LANE","ALTUS","OK",73521,34.6776153340001,-99.323381562,289,"3705 PILGRIM LANE, ALTUS, OK, 73521","Match","Exact","3705 PILGRIM LN, ALTUS, OK, 73521",171826869,"L"
560290,"3705 PILGRIM LN","ALTUS","OK",73521,34.6776153340001,-99.323381562,290,"3705 PILGRIM LN, ALTUS, OK, 73521","Match","Exact","3705 PILGRIM LN, ALTUS, OK, 73521",171826869,"L"
560291,"3705 POINT PLEASANT RD","JACKSONVILLE","FL",32217,30.2287475030001,-81.617999802,291,"3705 POINT PLEASANT RD, JACKSONVILLE, FL, 32217","Match","Exact","3705 POINT PLEASANT RD, JACKSONVILLE, FL, 32217",83917141,"L"
560292,"3705 RAMSEY CIRCLE SW","ATLANTA","GA",30331,NA,NA,292,"3705 RAMSEY CIRCLE SW, ATLANTA, GA, 30331","No_Match",NA,NA,NA,NA
560293,"3705 RAPIDES ST","MONROE","LA",71201,32.541120392,-92.073000951,293,"3705 RAPIDES ST, MONROE, LA, 71201","Match","Non_Exact","3705 RAPIDES ST, MONROE, LA, 71203",161086383,"L"
560294,"3705 RASPE AVENUE","BALTIMORE","MD",21206,39.3509813900001,-76.543590595,294,"3705 RASPE AVENUE, BALTIMORE, MD, 21206","Match","Exact","3705 RASPE AVE, BALTIMORE, MD, 21206",206434713,"R"
560295,"3705 REED STREET","FORT WORTH","TX",76119,32.7104285130001,-97.2697439889999,295,"3705 REED STREET, FORT WORTH, TX, 76119","Match","Exact","3705 REED ST, FORT WORTH, TX, 76119",101898415,"L"
560296,"3705 ROCKY RIVER DR","CLEVELAND","OH",44017,41.4527045820001,-81.816159463,296,"3705 ROCKY RIVER DR, CLEVELAND, OH, 44017","Match","Non_Exact","3705 ROCKY RIVER DR, CLEVELAND, OH, 44111",61101989,"L"
560297,"3705 ROCKY RIVER DR","CLEVELAND","OH",44111,41.4527045820001,-81.816159463,297,"3705 ROCKY RIVER DR, CLEVELAND, OH, 44111","Match","Exact","3705 ROCKY RIVER DR, CLEVELAND, OH, 44111",61101989,"L"
560298,"3705 S 13TH STREET","NORFOLK","NE",68701,41.9888416960001,-97.426603496,298,"3705 S 13TH STREET, NORFOLK, NE, 68701","Match","Exact","3705 S 13TH ST, NORFOLK, NE, 68701",621924197,"R"
560299,"3705 S GEORGE MASON DR","FALLS CHURCH","VA",22041,38.8436025350001,-77.115666926,299,"3705 S GEORGE MASON DR, FALLS CHURCH, VA, 22041","Match","Exact","3705 S GEORGE MASON DR, FALLS CHURCH, VA, 22041",638223532,"L"
560300,"3705 S SHEPARDSVILLE RD","ST. JOHNS","MI",48879,42.9617203930001,-84.425050208,300,"3705 S SHEPARDSVILLE RD, ST. JOHNS, MI, 48879","Match","Exact","3705 S SHEPARDSVILLE RD, SAINT JOHNS, MI, 48879",17297658,"R"
560301,"3705 SAINT ANDREWS DRIVE","THE COLONY","TX",75056,33.089053371,-96.917116417,301,"3705 SAINT ANDREWS DRIVE, THE COLONY, TX, 75056","Match","Exact","3705 SAINT ANDREWS DR, THE COLONY, TX, 75056",103428988,"R"
560302,"3705 SE 172ND AVE","VANCOUVER","WA",98683,45.594231962,-122.495670145,302,"3705 SE 172ND AVE, VANCOUVER, WA, 98683","Match","Exact","3705 SE 172ND AVE, VANCOUVER, WA, 98683",158356233,"L"
560303,"3705 SE 3RD PLACE","CAPE CORAL","FL",33904,26.584089331,-81.967342725,303,"3705 SE 3RD PLACE, CAPE CORAL, FL, 33904","Match","Exact","3705 SE 3RD PL, CAPE CORAL, FL, 33904",118014019,"L"
560304,"3705 SEGO ROAD","WINNEMUCCA","NV",89445,40.9044057,-117.760150734,304,"3705 SEGO ROAD, WINNEMUCCA, NV, 89445","Match","Exact","3705 SEGO RD, WINNEMUCCA, NV, 89445",627264432,"R"
560305,"3705 SHEETS RD NW","LANCASTER","OH",43130,39.779213192,-82.626146964,305,"3705 SHEETS RD NW, LANCASTER, OH, 43130","Match","Exact","3705 SHEETS RD NW, LANCASTER, OH, 43130",37216998,"L"
560306,"3705 SOURWOOD CT","LOUISVILLE","KY",40220,38.2142515990001,-85.629196469,306,"3705 SOURWOOD CT, LOUISVILLE, KY, 40220","Match","Exact","3705 SOURWOOD CT, LOUISVILLE, KY, 40220",96857254,"L"
560307,"3705 SOUTH G STREET / NO 8988","TACOMA","WA",98419,47.224499517,-122.440632907,307,"3705 SOUTH G STREET / NO 8988, TACOMA, WA, 98419","Match","Non_Exact","3705 S G ST, TACOMA, WA, 98418",184625920,"L"
560308,"3705 STATE HWY 87N","HEMPHILL","TX",75948,NA,NA,308,"3705 STATE HWY 87N, HEMPHILL, TX, 75948","No_Match",NA,NA,NA,NA
560309,"3705 SUMPTER WAY","CARMEL","IN",46032,NA,NA,309,"3705 SUMPTER WAY, CARMEL, IN, 46032","No_Match",NA,NA,NA,NA
560310,"3705 SUNNY HILL DR","LOGANVILLE","GA",30052,33.779384436,-83.966631529,310,"3705 SUNNY HILL DR, LOGANVILLE, GA, 30052","Match","Exact","3705 SUNNY HILL DR, LOGANVILLE, GA, 30052",77627360,"R"
560311,"3705 SW 27TH ST","GAINESVILLE","FL",32608,29.6166699240001,-82.362535093,311,"3705 SW 27TH ST, GAINESVILLE, FL, 32608","Match","Exact","3705 SW 27TH ST, GAINESVILLE, FL, 32608",647859340,"R"
560312,"3705 TAIT TERRACE","NORFOLK","VA",23513,36.8705002780001,-76.244699527,312,"3705 TAIT TERRACE, NORFOLK, VA, 23513","Match","Exact","3705 TAIT TER, NORFOLK, VA, 23513",122124648,"R"
560313,"3705 TANYARD LN","HAYMARKET","VA",20169,38.877719658,-77.641044731,313,"3705 TANYARD LN, HAYMARKET, VA, 20169","Match","Exact","3705 TANYARD LN, HAYMARKET, VA, 20169",642417762,"L"
560314,"3705 TERRACE HILL DR APT 202","LOUISVILLE","KY",40245,38.287962925,-85.499716266,314,"3705 TERRACE HILL DR APT 202, LOUISVILLE, KY, 40245","Match","Exact","3705 TERRACE HILL DR, LOUISVILLE, KY, 40245",96978637,"R"
560315,"3705 THE GREAT DR","ATLANTA","GA",30349,33.654639165,-84.567060222,315,"3705 THE GREAT DR, ATLANTA, GA, 30349","Match","Exact","3705 THE GREAT DR, ATLANTA, GA, 30349",627634898,"R"
560316,"3705 THORNWALL CT NE","ELM CITY","NC",27822,35.7792532980001,-77.906655062,316,"3705 THORNWALL CT NE, ELM CITY, NC, 27822","Match","Non_Exact","3705 THORNWALL CT, ELM CITY, NC, 27822",652499616,"L"
560317,"3705 TIMBERLOCH TRAIL","SNELLVILLE","GA",30039,33.832330502,-84.047374867,317,"3705 TIMBERLOCH TRAIL, SNELLVILLE, GA, 30039","Match","Exact","3705 TIMBERLOCH TRL, SNELLVILLE, GA, 30039",88917106,"R"
560318,"3705 UPPER FINLEY ROAD","DYERSBURG","TN",38024,36.0486437320001,-89.444028305,318,"3705 UPPER FINLEY ROAD, DYERSBURG, TN, 38024","Match","Exact","3705 UPPER FINLEY RD, DYERSBURG, TN, 38024",40652376,"L"
560319,"3705 VALE VIEW DRIVE","ALLENTOWN","PA",18103,40.5699377560001,-75.529915912,319,"3705 VALE VIEW DRIVE, ALLENTOWN, PA, 18103","Match","Exact","3705 VALE VIEW DR, ALLENTOWN, PA, 18103",80823573,"R"
560320,"3705 VALENCIA COURT","FLOWER MOUND","TX",75022,33.018883757,-97.086905277,320,"3705 VALENCIA COURT, FLOWER MOUND, TX, 75022","Match","Exact","3705 VALENCIA CT, FLOWER MOUND, TX, 75022",641492614,"R"
560321,"3705 W PICO BLVD NUM 2574","LOS ANGELES","CA",90019,34.0473465640001,-118.32142287,321,"3705 W PICO BLVD NUM 2574, LOS ANGELES, CA, 90019","Match","Non_Exact","3705 W PICO BLVD, LOS ANGELES, CA, 90019",141605515,"R"
560322,"3705 W PICO BLVD PMB 21133","LOS ANGELES","CA",90019,34.0473465640001,-118.32142287,322,"3705 W PICO BLVD PMB 21133, LOS ANGELES, CA, 90019","Match","Non_Exact","3705 W PICO BLVD, LOS ANGELES, CA, 90019",141605515,"R"
560323,"3705 W PICO BLVD PMB 49878","LOS ANGELES","CA",90019,34.0473465640001,-118.32142287,323,"3705 W PICO BLVD PMB 49878, LOS ANGELES, CA, 90019","Match","Non_Exact","3705 W PICO BLVD, LOS ANGELES, CA, 90019",141605515,"R"
560324,"3705 W PICO BLVD UNIT 593","LOS ANGELES","CA",90018,NA,NA,324,"3705 W PICO BLVD UNIT 593, LOS ANGELES, CA, 90018","No_Match",NA,NA,NA,NA
560325,"3705 W PICO BLVD UNIT 593","LOS ANGELES","CA",90019,34.0473465640001,-118.32142287,325,"3705 W PICO BLVD UNIT 593, LOS ANGELES, CA, 90019","Match","Non_Exact","3705 W PICO BLVD, LOS ANGELES, CA, 90019",141605515,"R"
560326,"3705 WAGONEER DR","RENO","NV",89502,39.4806739840001,-119.760396651,326,"3705 WAGONEER DR, RENO, NV, 89502","Match","Exact","3705 WAGONEER DR, RENO, NV, 89502",107053365,"R"
560327,"3705 WAIALAE AVE STE 208","HONOLULU","HI",96816,21.2815694550001,-157.796750884,327,"3705 WAIALAE AVE STE 208, HONOLULU, HI, 96816","Match","Exact","3705 WAIALAE AVE, HONOLULU, HI, 96816",203242695,"R"
560328,"3705 WAIALAE AVENUE STE 208","HONOLULU","HI",96816,21.2815694550001,-157.796750884,328,"3705 WAIALAE AVENUE STE 208, HONOLULU, HI, 96816","Match","Exact","3705 WAIALAE AVE, HONOLULU, HI, 96816",203242695,"R"
560329,"3705 WALKERSPRINGS ROAD","JACKSON","AL",36545,NA,NA,329,"3705 WALKERSPRINGS ROAD, JACKSON, AL, 36545","No_Match",NA,NA,NA,NA
560330,"3705 WEST ALTGELD APT 2","CHICAGO","IL",60647,41.9263794980001,-87.719679395,330,"3705 WEST ALTGELD APT 2, CHICAGO, IL, 60647","Match","Non_Exact","3705 W ALTGELD ST, CHICAGO, IL, 60647",605188894,"L"
560331,"3705 WEST CASTLERIDGE","TEXARKANA","AR",71854,33.4580215390001,-94.015635088,331,"3705 WEST CASTLERIDGE, TEXARKANA, AR, 71854","Match","Non_Exact","3705 W CASTLERIDGE ST, TEXARKANA, AR, 71854",57284171,"R"
560332,"3705 WEST PICO BLVD SUITE 286","LOS ANGELES","CA",90019,34.047346486,-118.321422043,332,"3705 WEST PICO BLVD SUITE 286, LOS ANGELES, CA, 90019","Match","Exact","3705 W PICO BLVD, LOS ANGELES, CA, 90019",141605515,"R"
560333,"3705 WILCOX WAY","BAKERSFIELD","CA",93309,35.3210367180001,-119.086271001,333,"3705 WILCOX WAY, BAKERSFIELD, CA, 93309","Match","Exact","3705 WILCOX WAY, BAKERSFIELD, CA, 93309",109091076,"R"
560334,"3705 WILLOW STONE LANE","WAKE FOREST","NC",27587,35.9083550550001,-78.507690294,334,"3705 WILLOW STONE LANE, WAKE FOREST, NC, 27587","Match","Exact","3705 WILLOW STONE LN, WAKE FOREST, NC, 27587",639842825,"L"
560335,"3705-A CEDAR ST","AUSTIN","TX",78705,30.3006496090001,-97.73494747,335,"3705-A CEDAR ST, AUSTIN, TX, 78705","Match","Exact","3705 CEDAR ST, AUSTIN, TX, 78705",63945478,"R"
560336,"37052 LUMBERJACK LANE","CROSS LAKE","MN",56442,46.6899724350001,-94.1083092489999,336,"37052 LUMBERJACK LANE, CROSS LAKE, MN, 56442","Match","Non_Exact","37052 LUMBERJACK LN, CROSSLAKE, MN, 56442",162834992,"L"
560337,"37055 MURPHY WEBB AVE","PRAIRIEVILLE","LA",70769,NA,NA,337,"37055 MURPHY WEBB AVE, PRAIRIEVILLE, LA, 70769","No_Match",NA,NA,NA,NA
560338,"37055 N BOULDER VIEW DR","SCOTTSDALE","AZ",85262,33.8217950740001,-111.839795474,338,"37055 N BOULDER VIEW DR, SCOTTSDALE, AZ, 85262","Match","Exact","37055 N BOULDER VIEW DR, SCOTTSDALE, AZ, 85262",128859407,"R"
560339,"37057 S OAK ST","HILLIARD","FL",32046,30.6810914050001,-81.9162329389999,339,"37057 S OAK ST, HILLIARD, FL, 32046","Match","Exact","37057 S OAK ST, HILLIARD, FL, 32046",640085028,"R"
560340,"3705BEARWOOD DRIVE","INDIANAPOLIS","IN",46235,NA,NA,340,"3705BEARWOOD DRIVE, INDIANAPOLIS, IN, 46235","No_Match",NA,NA,NA,NA
560341,"3706 172ND ST SW","LYNNWOOD","WA",98037,47.8428958530001,-122.283296126,341,"3706 172ND ST SW, LYNNWOOD, WA, 98037","Match","Exact","3706 172ND ST SW, LYNNWOOD, WA, 98037",187794311,"L"
560342,"3706 19TH AVE S","GRAND FORKS","ND",58201,47.9014724670001,-97.0816549579999,342,"3706 19TH AVE S, GRAND FORKS, ND, 58201","Match","Exact","3706 19TH AVE S, GRAND FORKS, ND, 58201",171292705,"R"
560343,"3706 37TH STREET EXT","BEAVER FALLS","PA",15010,NA,NA,343,"3706 37TH STREET EXT, BEAVER FALLS, PA, 15010","No_Match",NA,NA,NA,NA
560344,"3706 47TH AVE CT NW","GIG HARBOR","WA",98335,47.2914249630001,-122.601737659,344,"3706 47TH AVE CT NW, GIG HARBOR, WA, 98335","Match","Exact","3706 47TH AVENUE CT NW, GIG HARBOR, WA, 98335",184642494,"L"
560345,"3706 64TH STREET EAST","TACOMA","WA",98443,47.1989419080001,-122.379679794,345,"3706 64TH STREET EAST, TACOMA, WA, 98443","Match","Exact","3706 64TH ST E, TACOMA, WA, 98443",653502514,"R"
560346,"3706 81ST STREET APT 5B","JACKSON HEIGHTS","NY",11372,NA,NA,346,"3706 81ST STREET APT 5B, JACKSON HEIGHTS, NY, 11372","No_Match",NA,NA,NA,NA
560347,"3706 ARMORY LANE","YORK","PA",17408,39.879089637,-76.794305344,347,"3706 ARMORY LANE, YORK, PA, 17408","Match","Exact","3706 ARMORY LN, YORK, PA, 17408",627158301,"L"
560348,"3706 ARTIC FOX DRIVE","FORT COLLINS","CO",80525,40.5360476490001,-105.036532403,348,"3706 ARTIC FOX DRIVE, FORT COLLINS, CO, 80525","Match","Non_Exact","3706 ARCTIC FOX DR, FORT COLLINS, CO, 80525",188494678,"R"
560349,"3706 BATHURST AVE","BAKERSFIELD","CA",93313,35.2769056290001,-119.044082845,349,"3706 BATHURST AVE, BAKERSFIELD, CA, 93313","Match","Exact","3706 BATHURST AVE, BAKERSFIELD, CA, 93313",109135025,"L"
560350,"3706 BELFAST AVE","CINCINNATI","OH",45236,39.219405658,-84.408430542,350,"3706 BELFAST AVE, CINCINNATI, OH, 45236","Match","Exact","3706 BELFAST AVE, CINCINNATI, OH, 45236",103931527,"L"
560351,"3706 BELHAVEN ROAD","BELTON","SC",29627,NA,NA,351,"3706 BELHAVEN ROAD, BELTON, SC, 29627","No_Match",NA,NA,NA,NA
560352,"3706 BELLVIEW","MOSS POINT","MS",39563,NA,NA,352,"3706 BELLVIEW, MOSS POINT, MS, 39563","Tie",NA,NA,NA,NA
560353,"3706 BRENTWOOD BLVD","JAX","FL",32206,30.361210113,-81.665002973,353,"3706 BRENTWOOD BLVD, JAX, FL, 32206","Match","Non_Exact","3706 BRENTWOOD BLVD, JACKSONVILLE, FL, 32206",640969544,"L"
560354,"3706 BUCKEYE LANE","HAYES","VA",23072,37.3123953640001,-76.524884137,354,"3706 BUCKEYE LANE, HAYES, VA, 23072","Match","Exact","3706 BUCKEYE LN, HAYES, VA, 23072",168201581,"R"
560355,"3706 CANDIA DRIVE","PUNTA GORDA","FL",33590,26.896437953,-82.0438433049999,355,"3706 CANDIA DRIVE, PUNTA GORDA, FL, 33590","Match","Non_Exact","3706 CANDIA DR, PUNTA GORDA, FL, 33950",647539432,"R"
560356,"3706 CANON GATE CIR","CARROLLTON","TX",75007,33.0120761800001,-96.8674896489999,356,"3706 CANON GATE CIR, CARROLLTON, TX, 75007","Match","Exact","3706 CANON GATE CIR, CARROLLTON, TX, 75007",103359609,"R"
560357,"3706 CATALINA STREET","PASCAGOULA","MS",39581,30.3720764350001,-88.51446885,357,"3706 CATALINA STREET, PASCAGOULA, MS, 39581","Match","Exact","3706 CATALINA ST, PASCAGOULA, MS, 39581",89254697,"R"
560358,"3706 CATHEDRAL LAKE DR","FRISCO","TX",75034,33.140255113,-96.856909716,358,"3706 CATHEDRAL LAKE DR, FRISCO, TX, 75034","Match","Exact","3706 CATHEDRAL LAKE DR, FRISCO, TX, 75034",646702314,"R"
560359,"3706 CATHEDRAL LAKE DRIVE","FRISCO","TX",75034,33.140255113,-96.856909716,359,"3706 CATHEDRAL LAKE DRIVE, FRISCO, TX, 75034","Match","Exact","3706 CATHEDRAL LAKE DR, FRISCO, TX, 75034",646702314,"R"
560360,"3706 CENTRAL AVE","GREENSBORO","NC",27401,36.077266729,-79.7453356409999,360,"3706 CENTRAL AVE, GREENSBORO, NC, 27401","Match","Exact","3706 CENTRAL AVE, GREENSBORO, NC, 27401",640600529,"R"
560361,"3706 COMPASS POINT AVE APT B","MERCED","CA",95348,NA,NA,361,"3706 COMPASS POINT AVE APT B, MERCED, CA, 95348","No_Match",NA,NA,NA,NA
560362,"3706 COUNTRY RD","PASADENA","TX",77505,29.6557970970001,-95.149323802,362,"3706 COUNTRY RD, PASADENA, TX, 77505","Match","Exact","3706 COUNTRY RD, PASADENA, TX, 77505",96129116,"L"
560363,"3706 COUNTY HIGHWAY W","CRANDON","WI",54520,NA,NA,363,"3706 COUNTY HIGHWAY W, CRANDON, WI, 54520","No_Match",NA,NA,NA,NA
560364,"3706 CRONDALL LANE","OWINGS MILLS","MD",21117,39.4340175150001,-76.779736719,364,"3706 CRONDALL LANE, OWINGS MILLS, MD, 21117","Match","Exact","3706 CRONDALL LN, OWINGS MILLS, MD, 21117",191552110,"R"
560365,"3706 CROYDON","CANTON","OH",44718,NA,NA,365,"3706 CROYDON, CANTON, OH, 44718","No_Match",NA,NA,NA,NA
560366,"3706 CYPRESS AVENUE","DALLAS","TX",75227,32.768728637,-96.661844426,366,"3706 CYPRESS AVENUE, DALLAS, TX, 75227","Match","Exact","3706 CYPRESS AVE, DALLAS, TX, 75227",640535491,"R"
560367,"3706 DELANEY  DR","JOLIET","IL",60435,41.5896024530001,-88.160887772,367,"3706 DELANEY  DR, JOLIET, IL, 60435","Match","Exact","3706 DELANEY DR, JOLIET, IL, 60435",617393057,"R"
560368,"3706 DELANEY DR","JOLIET","IL",60435,41.5896024530001,-88.160887772,368,"3706 DELANEY DR, JOLIET, IL, 60435","Match","Exact","3706 DELANEY DR, JOLIET, IL, 60435",617393057,"R"
560369,"3706 DENKENBERGER ROAD","KINGWOOD","WV",26537,39.480542138,-79.692528189,369,"3706 DENKENBERGER ROAD, KINGWOOD, WV, 26537","Match","Non_Exact","3706 DINKENBERGER RD, KINGWOOD, WV, 26537",652046908,"L"
560370,"3706 DINKENBERGER ROAD","KINGWOOD","WV",26537,39.480542138,-79.692528189,370,"3706 DINKENBERGER ROAD, KINGWOOD, WV, 26537","Match","Exact","3706 DINKENBERGER RD, KINGWOOD, WV, 26537",652046908,"L"
560371,"3706 DOYLE CT","MISSOURI CITY","TX",77459,29.5000639030001,-95.539448427,371,"3706 DOYLE CT, MISSOURI CITY, TX, 77459","Match","Exact","3706 DOYLE CT, MISSOURI CITY, TX, 77459",624926713,"L"
560372,"3706 DUNBAR ST","DALLAS","TX",75215,32.766419854,-96.7591623339999,372,"3706 DUNBAR ST, DALLAS, TX, 75215","Match","Exact","3706 DUNBAR ST, DALLAS, TX, 75215",102955462,"L"
560373,"3706 DUNBAR ST","KILLEEN","TX",75215,32.766419854,-96.7591623339999,373,"3706 DUNBAR ST, KILLEEN, TX, 75215","Match","Non_Exact","3706 DUNBAR ST, DALLAS, TX, 75215",102955462,"L"
560374,"3706 E STEIN RD","LASALLE","MI",48145,41.8543989140001,-83.460961137,374,"3706 E STEIN RD, LASALLE, MI, 48145","Match","Non_Exact","3706 E STEIN RD, LA SALLE, MI, 48145",40493375,"L"
560375,"3706 EAST OGLETHORPE HWY","HINESVILLE","GA",31313,31.840412664,-81.541109589,375,"3706 EAST OGLETHORPE HWY, HINESVILLE, GA, 31313","Match","Non_Exact","3706 OGLETHORPE HWY, HINESVILLE, GA, 31313",633399117,"R"
560376,"3706 EASTERN RD","NORTON","OH",44203,40.988547666,-81.6570831719999,376,"3706 EASTERN RD, NORTON, OH, 44203","Match","Exact","3706 EASTERN RD, NORTON, OH, 44203",635492765,"R"
560377,"3706 FABIANNA DRIVE","KILLEEN","TX",76549,31.0969080880001,-97.7909599389999,377,"3706 FABIANNA DRIVE, KILLEEN, TX, 76549","Match","Exact","3706 FABIANNA DR, KILLEEN, TX, 76549",146208582,"L"
560378,"3706 GAVIOTA PLACE","DAVIS","CA",95618,38.55894484,-121.706291352,378,"3706 GAVIOTA PLACE, DAVIS, CA, 95618","Match","Exact","3706 GAVIOTA PL, DAVIS, CA, 95618",67702866,"L"
560379,"3706 GREEN VALLEY ROAD","NEW ALBANY","IN",47150,38.334031349,-85.836533612,379,"3706 GREEN VALLEY ROAD, NEW ALBANY, IN, 47150","Match","Exact","3706 GREEN VALLEY RD, NEW ALBANY, IN, 47150",634506032,"R"
560380,"3706 GREENBROOK LN","FLINT","MI",48507,42.9896724930001,-83.707769788,380,"3706 GREENBROOK LN, FLINT, MI, 48507","Match","Exact","3706 GREENBROOK LN, FLINT, MI, 48507",69574508,"R"
560381,"3706 HATFIELD COVE SW","DECATUR","AL",35603,34.5306457130001,-87.0412714509999,381,"3706 HATFIELD COVE SW, DECATUR, AL, 35603","Match","Exact","3706 HATFIELD COVE SW, DECATUR, AL, 35603",616674591,"R"
560382,"3706 HEATHERBROOKE ROAD","BIRMINGHAM","AL",35242,33.425446295,-86.6985761339999,382,"3706 HEATHERBROOKE ROAD, BIRMINGHAM, AL, 35242","Match","Non_Exact","3706 HEATHERBROOKE PKWY, BIRMINGHAM, AL, 35242",624955394,"R"
560383,"3706 HUNTINGTON DR","BOUNTIFUL","UT",84010,40.849154465,-111.873925809,383,"3706 HUNTINGTON DR, BOUNTIFUL, UT, 84010","Match","Exact","3706 HUNTINGTON DR, BOUNTIFUL, UT, 84010",229355103,"L"
560384,"3706 KANTREL PLACE","VALRICO","FL",33596,27.8863743700001,-82.260257242,384,"3706 KANTREL PLACE, VALRICO, FL, 33596","Match","Exact","3706 KANTREL PL, VALRICO, FL, 33596",104545483,"R"
560385,"3706 KINGSFORD PL","VALRICO","FL",33596,27.8870043800001,-82.255709329,385,"3706 KINGSFORD PL, VALRICO, FL, 33596","Match","Exact","3706 KINGSFORD PL, VALRICO, FL, 33596",104545518,"R"
560386,"3706 KNIGHTS BRIDGE DR","ROWLETTE","TX",75088,32.894912241,-96.577045969,386,"3706 KNIGHTS BRIDGE DR, ROWLETTE, TX, 75088","Match","Non_Exact","3706 KNIGHTS BRIDGE DR, ROWLETT, TX, 75088",103173522,"L"
560387,"3706 LAKEWOOD RD","HUNTSVILLE","AL",35811,34.77255712,-86.582649385,387,"3706 LAKEWOOD RD, HUNTSVILLE, AL, 35811","Match","Non_Exact","3706 LAKEWOOD RD NW, HUNTSVILLE, AL, 35811",58116086,"R"
560388,"3706 LAMBERTON SQUARE APT 1531","SILVER SPRING","MD",20904,39.077805406,-76.934112052,388,"3706 LAMBERTON SQUARE APT 1531, SILVER SPRING, MD, 20904","Match","Non_Exact","3706 LAMBERTON SQUARE RD, SILVER SPRING, MD, 20904",62079911,"L"
560389,"3706 LITHIA RIDGE BLVD","VALRICO","FL",33596,27.882326311,-82.2245179669999,389,"3706 LITHIA RIDGE BLVD, VALRICO, FL, 33596","Match","Exact","3706 LITHIA RIDGE BLVD, VALRICO, FL, 33596",104599976,"L"
560390,"3706 LONGVIEW ROAD","LOUISVILLE","KY",40299,38.1918700940001,-85.585632609,390,"3706 LONGVIEW ROAD, LOUISVILLE, KY, 40299","Match","Exact","3706 LONGVIEW RD, LOUISVILLE, KY, 40299",96880746,"R"
560391,"3706 LORI ANN DR","BAILEY","NC",27807,35.786237988,-78.073345697,391,"3706 LORI ANN DR, BAILEY, NC, 27807","Match","Non_Exact","3706 LORI ANN RD, BAILEY, NC, 27807",90396552,"R"
560392,"3706 MAGNOLIA DR","GRAND PRAIRIE","TX",75052,32.6846593340001,-97.003915347,392,"3706 MAGNOLIA DR, GRAND PRAIRIE, TX, 75052","Match","Exact","3706 MAGNOLIA DR, GRAND PRAIRIE, TX, 75052",102937534,"R"
560393,"3706 MARMON AVE","GWYNN OAK","MD",21207,39.3356367980001,-76.700769748,393,"3706 MARMON AVE, GWYNN OAK, MD, 21207","Match","Exact","3706 MARMON AVE, GWYNN OAK, MD, 21207",206404223,"L"
560394,"3706 MEADOW GREEN DR","TAVARES","FL",32778,28.767691201,-81.739519504,394,"3706 MEADOW GREEN DR, TAVARES, FL, 32778","Match","Exact","3706 MEADOW GREEN DR, TAVARES, FL, 32778",94171435,"R"
560395,"3706 MEADOW GREEN DRIVE","TAVARES","FL",32778,28.767691201,-81.739519504,395,"3706 MEADOW GREEN DRIVE, TAVARES, FL, 32778","Match","Exact","3706 MEADOW GREEN DR, TAVARES, FL, 32778",94171435,"R"
560396,"3706 MERCER UNIVERSITY DR SUITE 38","MACON","GA",31204,32.8214829840001,-83.696799681,396,"3706 MERCER UNIVERSITY DR SUITE 38, MACON, GA, 31204","Match","Exact","3706 MERCER UNIVERSITY DR, MACON, GA, 31204",81083612,"L"
560397,"3706 MERCER UNIVERSITY DR","MACON","GA",31204,32.8214829840001,-83.696799681,397,"3706 MERCER UNIVERSITY DR, MACON, GA, 31204","Match","Exact","3706 MERCER UNIVERSITY DR, MACON, GA, 31204",81083612,"L"
560398,"3706 MILLSTONE WAY","CELINA","TX",75009,33.2744895180001,-96.808045081,398,"3706 MILLSTONE WAY, CELINA, TX, 75009","Match","Exact","3706 MILLSTONE WAY, CELINA, TX, 75009",642250430,"R"
560399,"3706 MONTREAL ST","BISMARCK","ND",58503,46.845543019,-100.789711526,399,"3706 MONTREAL ST, BISMARCK, ND, 58503","Match","Exact","3706 MONTREAL ST, BISMARCK, ND, 58503",198847641,"L"
560400,"3706 MONTROSE WAY","SAN RAMON","CA",94582,37.748454666,-121.893096583,400,"3706 MONTROSE WAY, SAN RAMON, CA, 94582","Match","Exact","3706 MONTROSE WAY, SAN RAMON, CA, 94582",624637570,"L"
560401,"3706 N 51ST BLVD","MILWAUKEE","WI",53216,43.0846348900001,-87.977157994,401,"3706 N 51ST BLVD, MILWAUKEE, WI, 53216","Match","Exact","3706 N 51ST BLVD, MILWAUKEE, WI, 53216",77731402,"R"
560402,"3706 N 5TH","DUNCAN","OK",73533,NA,NA,402,"3706 N 5TH, DUNCAN, OK, 73533","No_Match",NA,NA,NA,NA
560403,"3706 N LAKEWOOD AVE APT 3","CHICAGO","NC",60613,NA,NA,403,"3706 N LAKEWOOD AVE APT 3, CHICAGO, NC, 60613","No_Match",NA,NA,NA,NA
560404,"3706 N WAYNE","CHICAGO","IL",60613,41.9491874450001,-87.662867207,404,"3706 N WAYNE, CHICAGO, IL, 60613","Match","Non_Exact","3706 N WAYNE AVE, CHICAGO, IL, 60613",111762168,"L"
560405,"3706 NE 68TH AVENUE","PORTLAND","OR",97213,45.5497913770001,-122.59325988,405,"3706 NE 68TH AVENUE, PORTLAND, OR, 97213","Match","Exact","3706 NE 68TH AVE, PORTLAND, OR, 97213",157512808,"R"
560406,"3706 NORTH POST ROAD","OMAHA","NE",68112,41.3681463190001,-95.968093139,406,"3706 NORTH POST ROAD, OMAHA, NE, 68112","Match","Exact","3706 N POST RD, OMAHA, NE, 68112",116976980,"R"
560407,"3706 NORTH ROOSEVELT BLVD","KEY WEST","FL",33040,24.572220784,-81.7562821819999,407,"3706 NORTH ROOSEVELT BLVD, KEY WEST, FL, 33040","Match","Exact","3706 N ROOSEVELT BLVD, KEY WEST, FL, 33040",614229017,"L"
560408,"3706 NW 7TH PL","GAINESVILLE","FL",32607,29.658775387,-82.3789202789999,408,"3706 NW 7TH PL, GAINESVILLE, FL, 32607","Match","Non_Exact","3706 NW 7TH PL, GAINESVILLE, FL, 32607",6804088,"R"
560409,"3706 OAKRIDGE CIRCLE","GARLAND","TX",75040,32.9498556710001,-96.633302175,409,"3706 OAKRIDGE CIRCLE, GARLAND, TX, 75040","Match","Exact","3706 OAKRIDGE CIR, GARLAND, TX, 75040",102926014,"R"
560410,"3706 PEMBERTON AVENUE","HENRICO","VA",23222,37.577471137,-77.4018423209999,410,"3706 PEMBERTON AVENUE, HENRICO, VA, 23222","Match","Non_Exact","3706 PEMBERTON AVE, RICHMOND, VA, 23222",106678436,"L"
560411,"3706 PINE CHASE DR","PEARLAND","TX",77581,29.540288488,-95.23413905,411,"3706 PINE CHASE DR, PEARLAND, TX, 77581","Match","Exact","3706 PINE CHASE DR, PEARLAND, TX, 77581",116612110,"R"
560412,"3706 PINEBROOK DRIVE","DALLAS","GA",75241,NA,NA,412,"3706 PINEBROOK DRIVE, DALLAS, GA, 75241","No_Match",NA,NA,NA,NA
560413,"3706 RIVERWOOD CT","ALEXANDRIA","VA",22309,38.7062238720001,-77.096706474,413,"3706 RIVERWOOD CT, ALEXANDRIA, VA, 22309","Match","Exact","3706 RIVERWOOD CT, ALEXANDRIA, VA, 22309",75992967,"R"
560414,"3706 ROCKINGHAM ST","HOUSTON","TX",77051,29.6547475940001,-95.3697177929999,414,"3706 ROCKINGHAM ST, HOUSTON, TX, 77051","Match","Exact","3706 ROCKINGHAM ST, HOUSTON, TX, 77051",96088886,"R"
560415,"3706 ROYAL TROON","EAGLE MOUNTAIN","UT",84005,40.3663448730001,-111.97284224,415,"3706 ROYAL TROON, EAGLE MOUNTAIN, UT, 84005","Match","Exact","3706 ROYAL TROON, EAGLE MOUNTAIN, UT, 84005",627746413,"R"
560416,"3706 S WINCHESTER AVENUE","CHICAGO","IL",60609,41.8265740910001,-87.673972235,416,"3706 S WINCHESTER AVENUE, CHICAGO, IL, 60609","Match","Exact","3706 S WINCHESTER AVE, CHICAGO, IL, 60609",604981041,"R"
560417,"3706 SALEM WALK SUITE AG","NORTHBROOK","IL",60062,42.0906462,-87.873180323,417,"3706 SALEM WALK SUITE AG, NORTHBROOK, IL, 60062","Match","Exact","3706 SALEM WALK, NORTHBROOK, IL, 60062",111719235,"R"
560418,"3706 SAPULPA CIRCLE","CHATTANOOGA","TN",37406,35.073848889,-85.232073601,418,"3706 SAPULPA CIRCLE, CHATTANOOGA, TN, 37406","Match","Non_Exact","3706 SAPULPA DR, CHATTANOOGA, TN, 37406",59310111,"R"
560419,"3706 SAPULPA STREET","CHATTANOOGA","TN",37406,35.073848889,-85.232073601,419,"3706 SAPULPA STREET, CHATTANOOGA, TN, 37406","Match","Non_Exact","3706 SAPULPA DR, CHATTANOOGA, TN, 37406",59310111,"R"
560420,"3706 SARDIS COURT","COLUMBIA","MO",65203,38.937898003,-92.390955913,420,"3706 SARDIS COURT, COLUMBIA, MO, 65203","Match","Exact","3706 SARDIS CT, COLUMBIA, MO, 65203",23491771,"R"
560421,"3706 SETON HALL DRIVE","DECATUR","GA",30034,33.6723026560001,-84.239214411,421,"3706 SETON HALL DRIVE, DECATUR, GA, 30034","Match","Exact","3706 SETON HALL DR, DECATUR, GA, 30034",23373258,"L"
560422,"3706 SOUTH MAIN ST STE B","BLACKSBURG","VA",24060,37.185625944,-80.408615364,422,"3706 SOUTH MAIN ST STE B, BLACKSBURG, VA, 24060","Match","Exact","3706 S MAIN ST, BLACKSBURG, VA, 24060",73646923,"L"
560423,"3706 STILLMAN BLVD","TUSCALOOSA","AL",35405,33.2009048240001,-87.5849784929999,423,"3706 STILLMAN BLVD, TUSCALOOSA, AL, 35405","Match","Non_Exact","3706 STILLMAN BLVD, TUSCALOOSA, AL, 35401",82147084,"R"
560424,"3706 SUNNYSIDE ST","PENSACOLA","FL",32507,30.371411976,-87.320065633,424,"3706 SUNNYSIDE ST, PENSACOLA, FL, 32507","Match","Exact","3706 SUNNYSIDE ST, PENSACOLA, FL, 32507",93233688,"R"
560425,"3706 SW 52ND AVENUE","HOLLYWOOD","FL",33023,25.977043629,-80.194597997,425,"3706 SW 52ND AVENUE, HOLLYWOOD, FL, 33023","Match","Exact","3706 SW 52ND AVE, HOLLYWOOD, FL, 33023",650107611,"R"
560426,"3706 SW TOPEKA BLVD  STE 400","TOPEKA","KS",66609,38.9974151260001,-95.687671548,426,"3706 SW TOPEKA BLVD  STE 400, TOPEKA, KS, 66609","Match","Exact","3706 TOPEKA BLVD, TOPEKA, KS, 66609",642150011,"L"
560427,"3706 UNION RIDGE ROAD","BURLINGTON","NC",27217,NA,NA,427,"3706 UNION RIDGE ROAD, BURLINGTON, NC, 27217","No_Match",NA,NA,NA,NA
560428,"3706 UTAH PLACE","SAINT LOUIS","MO",63116,38.5973096490001,-90.245136133,428,"3706 UTAH PLACE, SAINT LOUIS, MO, 63116","Match","Non_Exact","3706 S UTAH PL, SAINT LOUIS, MO, 63116",107601169,"L"
560429,"3706 W 8TH AVE","BEAVER FALLS","PA",15010,40.7804637520001,-80.338801798,429,"3706 W 8TH AVE, BEAVER FALLS, PA, 15010","Match","Exact","3706 W 8TH AVE, BEAVER FALLS, PA, 15010",52555685,"R"
560430,"3706 W CHEROKEE ROAD","ROGERS","AR",72758,36.3152832970001,-94.171222922,430,"3706 W CHEROKEE ROAD, ROGERS, AR, 72758","Match","Exact","3706 W CHEROKEE RD, ROGERS, AR, 72758",646949455,"L"
560431,"3706 W JEFFERSON STREET","ORLANDO","FL",32805,28.544491319,-81.424374988,431,"3706 W JEFFERSON STREET, ORLANDO, FL, 32805","Match","Exact","3706 W JEFFERSON ST, ORLANDO, FL, 32805",94273373,"L"
560432,"3706 W LEHMAN CT","ROGERS","AR",72756,36.329697735,-94.171542049,432,"3706 W LEHMAN CT, ROGERS, AR, 72756","Match","Non_Exact","3706 LEHMAN CT, ROGERS, AR, 72758",47833770,"L"
560433,"3706 WERNER AVE","AUSTIN","TX",78722,30.2929992850001,-97.7175519629999,433,"3706 WERNER AVE, AUSTIN, TX, 78722","Match","Exact","3706 WERNER AVE, AUSTIN, TX, 78722",63946232,"L"
560434,"3706 WHILE OAK DR","HOPEWELL","VA",23860,NA,NA,434,"3706 WHILE OAK DR, HOPEWELL, VA, 23860","No_Match",NA,NA,NA,NA
560435,"3706 WILDHAWK","KATY","TX",77449,29.823923919,-95.705103933,435,"3706 WILDHAWK, KATY, TX, 77449","Match","Non_Exact","3706 WILDHAWK DR, KATY, TX, 77449",642187641,"R"
560436,"3706 WILLIAMS LANE","CHEVY CHASE","MD",20815,38.9839750520001,-77.072837696,436,"3706 WILLIAMS LANE, CHEVY CHASE, MD, 20815","Match","Exact","3706 WILLIAMS LN, CHEVY CHASE, MD, 20815",637334258,"L"
560437,"3706 WILLIAMSBURG DRIVE","GARLAND","TX",75043,32.869611934,-96.613224261,437,"3706 WILLIAMSBURG DRIVE, GARLAND, TX, 75043","Match","Exact","3706 WILLIAMSBURG DR, GARLAND, TX, 75043",102932602,"L"
560438,"3706","DALLAS","TX",75215,NA,NA,438,"3706, DALLAS, TX, 75215","No_Match",NA,NA,NA,NA
560439,"37062 AGNES WEBB AVE","PRAIRIEVILLE","LA",70769,30.3237018250001,-90.991460081,439,"37062 AGNES WEBB AVE, PRAIRIEVILLE, LA, 70769","Match","Exact","37062 AGNES WEBB AVE, PRAIRIEVILLE, LA, 70769",626671286,"L"
560440,"37063 SHASTA STREET","FREMONT","CA",94536,37.552837885,-122.015155117,440,"37063 SHASTA STREET, FREMONT, CA, 94536","Match","Exact","37063 SHASTA ST, FREMONT, CA, 94536",125028479,"R"
560441,"37068 EDGEMONT DR","MURRIETA","CA",92563,33.5822324310001,-117.105400131,441,"37068 EDGEMONT DR, MURRIETA, CA, 92563","Match","Exact","37068 EDGEMONT DR, MURRIETA, CA, 92563",609000028,"L"
560442,"37068 SHEEPSCOT RD","LEWES","DE",19958,38.723668768,-75.1909341259999,442,"37068 SHEEPSCOT RD, LEWES, DE, 19958","Match","Exact","37068 SHEEPSCOT RD, LEWES, DE, 19958",648962946,"R"
560443,"3707  87TH AVE SE","SNOHOMISH","WA",98290,47.9627031630001,-122.114342071,443,"3707  87TH AVE SE, SNOHOMISH, WA, 98290","Match","Exact","3707 87TH AVE SE, SNOHOMISH, WA, 98290",187777044,"L"
560444,"3707 11TH STREET W","LEHIGH ACRES","FL",33971,26.623364945,-81.69367651,444,"3707 11TH STREET W, LEHIGH ACRES, FL, 33971","Match","Exact","3707 11TH ST W, LEHIGH ACRES, FL, 33971",118065209,"L"
560445,"3707 231ST ST CT E","SPANAWAY","WA",98387,47.0464228930001,-122.380061986,445,"3707 231ST ST CT E, SPANAWAY, WA, 98387","Match","Exact","3707 231ST STREET CT E, SPANAWAY, WA, 98387",184700841,"L"
560446,"3707 39TH ST","LUBBOCK","TX",79413,33.5587942830001,-101.894538742,446,"3707 39TH ST, LUBBOCK, TX, 79413","Match","Exact","3707 39TH ST, LUBBOCK, TX, 79413",185251768,"L"
560447,"3707 52ND AVE SW","SEATTLE","WA",98116,47.5707840800001,-122.398537684,447,"3707 52ND AVE SW, SEATTLE, WA, 98116","Match","Exact","3707 52ND AVE SW, SEATTLE, WA, 98116",186969597,"L"
560448,"3707 5TH STREET","BALTIMORE","MD",21225,39.2354434040001,-76.6045414879999,448,"3707 5TH STREET, BALTIMORE, MD, 21225","Match","Exact","3707 5TH ST, BALTIMORE, MD, 21225",206423098,"L"
560449,"3707 87TH AVE SE","SNOHOMISH","WA",98290,47.9627031630001,-122.114342071,449,"3707 87TH AVE SE, SNOHOMISH, WA, 98290","Match","Exact","3707 87TH AVE SE, SNOHOMISH, WA, 98290",187777044,"L"
560450,"3707 ACORN WAY LN","SPRING","TX",77389,30.0868327700001,-95.4720984689999,450,"3707 ACORN WAY LN, SPRING, TX, 77389","Match","Exact","3707 ACORN WAY LN, SPRING, TX, 77389",96008022,"L"
560451,"3707 AVE M NW","WINTER HAVEN","FL",33880,28.0369242630001,-81.771521013,451,"3707 AVE M NW, WINTER HAVEN, FL, 33880","Match","Non_Exact","3707 AVE M NW, WINTER HAVEN, FL, 33881",104854608,"L"
560452,"3707 AVE M NW","WINTER HAVEN","FL",33881,28.0369242630001,-81.771521013,452,"3707 AVE M NW, WINTER HAVEN, FL, 33881","Match","Exact","3707 AVE M NW, WINTER HAVEN, FL, 33881",104854608,"L"
560453,"3707 BALLANTRAE WAY","FLOSSMOOR","IL",60422,41.536268926,-87.706633003,453,"3707 BALLANTRAE WAY, FLOSSMOOR, IL, 60422","Match","Exact","3707 BALLANTRAE WAY, FLOSSMOOR, IL, 60422",625112174,"L"
560454,"3707 BELLEFONTAINE","HOUSTON","TX",77025,29.7034815050001,-95.434065969,454,"3707 BELLEFONTAINE, HOUSTON, TX, 77025","Match","Non_Exact","3707 BELLEFONTAINE ST, HOUSTON, TX, 77025",96063543,"L"
560455,"3707 BERLIN STATION ROAD","DELAWARE","OH",43015,40.254053996,-82.9927487849999,455,"3707 BERLIN STATION ROAD, DELAWARE, OH, 43015","Match","Exact","3707 BERLIN STATION RD, DELAWARE, OH, 43015",24586657,"R"
560456,"3707 BIENVILLE BLVD","OCEAN SPRINGS","MS",39564,30.4104221920001,-88.768065308,456,"3707 BIENVILLE BLVD, OCEAN SPRINGS, MS, 39564","Match","Exact","3707 BIENVILLE BLVD, OCEAN SPRINGS, MS, 39564",642489038,"L"
560457,"3707 BIRCHWOOD DRIVE","KANSAS CITY","MO",64137,38.936636639,-94.546687849,457,"3707 BIRCHWOOD DRIVE, KANSAS CITY, MO, 64137","Match","Exact","3707 BIRCHWOOD DR, KANSAS CITY, MO, 64137",91457805,"R"
560458,"3707 BIRMI DRIVE","DURHAM","NC",27713,35.930114266,-78.895410355,458,"3707 BIRMI DRIVE, DURHAM, NC, 27713","Match","Exact","3707 BIRMI DR, DURHAM, NC, 27713",71763092,"L"
560459,"3707 BLAIR CIRCLE","GREENWOOD","MS",38930,NA,NA,459,"3707 BLAIR CIRCLE, GREENWOOD, MS, 38930","No_Match",NA,NA,NA,NA
560460,"3707 CASSANDRA DRIVE","TALLAHASSEE","FL",32309,30.514524685,-84.237135665,460,"3707 CASSANDRA DRIVE, TALLAHASSEE, FL, 32309","Match","Exact","3707 CASSANDRA DR, TALLAHASSEE, FL, 32309",82846192,"R"
560461,"3707 CEMETARY HILL RD","CARROLLTON","TX",75007,33.0120825280001,-96.89171049,461,"3707 CEMETARY HILL RD, CARROLLTON, TX, 75007","Match","Non_Exact","3707 CEMETERY HILL RD, CARROLLTON, TX, 75007",103416147,"L"
560462,"3707 CHALLENGER DR","WESTFIELD","IN",46062,40.036208984,-86.103234995,462,"3707 CHALLENGER DR, WESTFIELD, IN, 46062","Match","Exact","3707 CHALLENGER DR, WESTFIELD, IN, 46062",29333625,"R"
560463,"3707 CLOPTON ST","HUNTSVILLE","AL",35805,34.698808559,-86.612347225,463,"3707 CLOPTON ST, HUNTSVILLE, AL, 35805","Match","Non_Exact","3707 CLOPTON ST SW, HUNTSVILLE, AL, 35805",58120157,"L"
560464,"3707 COUNTY STREET 2964","BRADLEY","OK",73011,NA,NA,464,"3707 COUNTY STREET 2964, BRADLEY, OK, 73011","No_Match",NA,NA,NA,NA
560465,"3707 E WILSON DR","MOORESVILLE","IN",46158,NA,NA,465,"3707 E WILSON DR, MOORESVILLE, IN, 46158","Tie",NA,NA,NA,NA
560466,"3707 EAST PERKINS AVENUE","HURON","OH",44839,41.420351844,-82.638112064,466,"3707 EAST PERKINS AVENUE, HURON, OH, 44839","Match","Non_Exact","3707 PERKINS AVE, HURON, OH, 44839",55337902,"R"
560467,"3707 ELLERTON DRIVE","MIDLOTHIAN","VA",23113,37.550921343,-77.642360719,467,"3707 ELLERTON DRIVE, MIDLOTHIAN, VA, 23113","Match","Exact","3707 ELLERTON DR, MIDLOTHIAN, VA, 23113",616593567,"R"
560468,"3707 EVERGREEN ST SE","HUNTSVILLE","AL",35801,NA,NA,468,"3707 EVERGREEN ST SE, HUNTSVILLE, AL, 35801","No_Match",NA,NA,NA,NA
560469,"3707 FAIR OAKS","GRANITE CITY","IL",62040,38.728224353,-90.12141762,469,"3707 FAIR OAKS, GRANITE CITY, IL, 62040","Match","Non_Exact","3707 FAIROAKS DR, GRANITE CITY, IL, 62040",107682219,"L"
560470,"3707 GEORGE WASHINGTON RD","LAFAYETTE","IN",47909,40.362815083,-86.884559946,470,"3707 GEORGE WASHINGTON RD, LAFAYETTE, IN, 47909","Match","Exact","3707 GEORGE WASHINGTON RD, LAFAYETTE, IN, 47909",27315272,"R"
560471,"3707 GINGER CT","MANVEL","TX",77578,29.5296682530001,-95.367586182,471,"3707 GINGER CT, MANVEL, TX, 77578","Match","Exact","3707 GINGER CT, MANVEL, TX, 77578",116642225,"L"
560472,"3707 GOLDEN REEDS LN","JACKSONVILLE","FL",32224,30.2792893980001,-81.448710099,472,"3707 GOLDEN REEDS LN, JACKSONVILLE, FL, 32224","Match","Exact","3707 GOLDEN REEDS LN, JACKSONVILLE, FL, 32224",83961800,"R"
560473,"3707 HANA ROAD","EDISON","NJ",8817,40.53438247,-74.406918194,473,"3707 HANA ROAD, EDISON, NJ, 8817","Match","Exact","3707 HANA RD, EDISON, NJ, 08817",60289069,"L"
560474,"3707 HEWITT STREET","GREENSBORO","NC",27407,36.058263266,-79.855785893,474,"3707 HEWITT STREET, GREENSBORO, NC, 27407","Match","Exact","3707 HEWITT ST, GREENSBORO, NC, 27407",131028948,"L"
560475,"3707 HOLMES","KANSAS CITY","MO",64109,39.059955319,-94.5765603849999,475,"3707 HOLMES, KANSAS CITY, MO, 64109","Match","Non_Exact","3707 HOLMES ST, KANSAS CITY, MO, 64109",91447716,"L"
560476,"3707 KENTFIELD PL","VALRICO","FL",33596,27.887105951,-82.256812043,476,"3707 KENTFIELD PL, VALRICO, FL, 33596","Match","Exact","3707 KENTFIELD PL, VALRICO, FL, 33596",104545516,"L"
560477,"3707 KENTFIELD PL","VALRICO","FL",NA,27.887105951,-82.256812043,477,"3707 KENTFIELD PL, VALRICO, FL, ","Match","Exact","3707 KENTFIELD PL, VALRICO, FL, 33596",104545516,"L"
560478,"3707 LATROBE DRIVE","CHARLOTTE","NC",28211,35.195656897,-80.797184465,478,"3707 LATROBE DRIVE, CHARLOTTE, NC, 28211","Match","Exact","3707 LATROBE DR, CHARLOTTE, NC, 28211",70577650,"R"
560479,"3707 LEE HILL VILLAGE CIRC","FREDERICKSBURG","VA",22408,38.2274631550001,-77.463238228,479,"3707 LEE HILL VILLAGE CIRC, FREDERICKSBURG, VA, 22408","Match","Exact","3707 LEE HILL VILLAGE CIR, FREDERICKSBURG, VA, 22408",228785221,"L"
560480,"3707 LINCOLN RD","BLOOMFIELD HILLS","MI",48301,42.537092102,-83.2645520849999,480,"3707 LINCOLN RD, BLOOMFIELD HILLS, MI, 48301","Match","Exact","3707 LINCOLN RD, BLOOMFIELD HILLS, MI, 48301",69730080,"L"
560481,"3707 MAIN ST   STE A3","COLLEGE PARK","GA",30337,33.653929401,-84.449477982,481,"3707 MAIN ST   STE A3, COLLEGE PARK, GA, 30337","Match","Exact","3707 MAIN ST, COLLEGE PARK, GA, 30337",17348425,"R"
560482,"3707 MAIN STREET STE 103","COLLEGE PARK","GA",30337,33.653929401,-84.449477982,482,"3707 MAIN STREET STE 103, COLLEGE PARK, GA, 30337","Match","Exact","3707 MAIN ST, COLLEGE PARK, GA, 30337",17348425,"R"
560483,"3707 MAIN STREET SUITE 102","COLLEGE PARK","GA",30337,33.653929401,-84.449477982,483,"3707 MAIN STREET SUITE 102, COLLEGE PARK, GA, 30337","Match","Exact","3707 MAIN ST, COLLEGE PARK, GA, 30337",17348425,"R"
560484,"3707 MAIN STREET","COLLEGE PARK","GA",30337,33.653929401,-84.449477982,484,"3707 MAIN STREET, COLLEGE PARK, GA, 30337","Match","Exact","3707 MAIN ST, COLLEGE PARK, GA, 30337",17348425,"R"
560485,"3707 MAIN STREET/SUITE 22","COLLEGE PARK","GA",30337,33.653929401,-84.449477982,485,"3707 MAIN STREET/SUITE 22, COLLEGE PARK, GA, 30337","Match","Non_Exact","3707 MAIN ST, COLLEGE PARK, GA, 30337",17348425,"R"
560486,"3707 MAPLEWOOD STE 200","WICHITA FALLS","TX",76308,NA,NA,486,"3707 MAPLEWOOD STE 200, WICHITA FALLS, TX, 76308","No_Match",NA,NA,NA,NA
560487,"3707 MCKINLEY AVE","LAS VEGAS","NV",89121,36.121433057,-115.094882611,487,"3707 MCKINLEY AVE, LAS VEGAS, NV, 89121","Match","Exact","3707 MCKINLEY AVE, LAS VEGAS, NV, 89121",201935761,"R"
560488,"3707 MICAH CT","ELLENWOOD","GA",30294,33.6735939220001,-84.291179963,488,"3707 MICAH CT, ELLENWOOD, GA, 30294","Match","Exact","3707 MICAH CT, ELLENWOOD, GA, 30294",23399450,"L"
560489,"3707 MORGAN TRAIL DRIVE","CHESTERFIELD","VA",23832,37.457419741,-77.531314814,489,"3707 MORGAN TRAIL DRIVE, CHESTERFIELD, VA, 23832","Match","Exact","3707 MORGAN TRAIL DR, CHESTERFIELD, VA, 23832",201555576,"L"
560490,"3707 MORNINGSIDE VILLAGE LN","DORAVILLE","GA",30340,33.8979669880001,-84.230359175,490,"3707 MORNINGSIDE VILLAGE LN, DORAVILLE, GA, 30340","Match","Exact","3707 MORNINGSIDE VILLAGE LN, DORAVILLE, GA, 30340",23407234,"R"
560491,"3707 N 22ND STREET UNIT A","TAMPA","FL",33610,27.977924999,-82.434754852,491,"3707 N 22ND STREET UNIT A, TAMPA, FL, 33610","Match","Non_Exact","3707 N 22ND ST, TAMPA, FL, 33610",104523862,"R"
560492,"3707 N MANOR RD","FLAGSTAFF","AZ",86004,35.221049527,-111.601613293,492,"3707 N MANOR RD, FLAGSTAFF, AZ, 86004","Match","Exact","3707 N MANOR RD, FLAGSTAFF, AZ, 86004",188863246,"L"
560493,"3707 N MARSHALL WAY 4","SCOTTSDALE","AZ",85251,33.4906795630001,-111.928276154,493,"3707 N MARSHALL WAY 4, SCOTTSDALE, AZ, 85251","Match","Non_Exact","3707 N MARSHALL WAY, SCOTTSDALE, AZ, 85251",128222750,"R"
560494,"3707 NORTH 94TH STREET","MILWAUKEE","WI",53222,43.0839469200001,-88.029957251,494,"3707 NORTH 94TH STREET, MILWAUKEE, WI, 53222","Match","Exact","3707 N 94TH ST, MILWAUKEE, WI, 53222",77728174,"L"
560495,"3707 NORTHSAILS COURT","CONYERS","GA",30013,33.6176902340001,-83.985869008,495,"3707 NORTHSAILS COURT, CONYERS, GA, 30013","Match","Non_Exact","3707 NORTHSAILS CT SE, CONYERS, GA, 30013",614155278,"L"
560496,"3707 NUTHATCHER","INDIANAPOLIS","IN",46228,39.8670592030001,-86.224138199,496,"3707 NUTHATCHER, INDIANAPOLIS, IN, 46228","Match","Non_Exact","3707 NUTHATCHER DR, INDIANAPOLIS, IN, 46228",108028312,"L"
560497,"3707 NW 31RST AVE","CAMAS","WA",98607,NA,NA,497,"3707 NW 31RST AVE, CAMAS, WA, 98607","No_Match",NA,NA,NA,NA
560498,"3707 OSAGE STREET","DENVER","CO",80211,39.768216114,-105.005284085,498,"3707 OSAGE STREET, DENVER, CO, 80211","Match","Exact","3707 OSAGE ST, DENVER, CO, 80211",177303514,"L"
560499,"3707 PENWOOD PL","DUBLIN","CA",94568,37.72387243,-121.866486403,499,"3707 PENWOOD PL, DUBLIN, CA, 94568","Match","Exact","3707 PENWOOD PL, DUBLIN, CA, 94568",617284044,"R"
560500,"3707 PEREGRINE WAY","ELGIN","IL",60124,42.0569043340001,-88.401555311,500,"3707 PEREGRINE WAY, ELGIN, IL, 60124","Match","Exact","3707 PEREGRINE WAY, ELGIN, IL, 60124",601621885,"R"
