"ID","Address","City","State","Zip","lat","long","id","input_address","match_indicator","match_type","matched_address","tiger_line_id","tiger_side"
871501,"801 VIRGINIA ST","SHEPHERD","TX",77371,30.467599475,-94.993206428,1,"801 VIRGINIA ST, SHEPHERD, TX, 77371","Match","Exact","801 VIRGINIA ST, SHEPHERD, TX, 77371",24266117,"R"
871502,"801 W 12TH ST","OGDEN","UT",84404,NA,NA,2,"801 W 12TH ST, OGDEN, UT, 84404","Tie",NA,NA,NA,NA
871503,"801 W 1ST STREET","NOOKSACK","WA",98276,48.9306235920001,-122.32319471,3,"801 W 1ST STREET, NOOKSACK, WA, 98276","Match","Exact","801 W 1ST ST, NOOKSACK, WA, 98276",183788349,"R"
871504,"801 W 5TH ST APT 801","AUSTIN","TX",78703,30.269329441,-97.751061186,4,"801 W 5TH ST APT 801, AUSTIN, TX, 78703","Match","Non_Exact","801 W 5TH ST, AUSTIN, TX, 78703",63943323,"L"
871505,"801 W 5TH STREET 2503","AUSTIN","TX",78703,30.269329441,-97.751061186,5,"801 W 5TH STREET 2503, AUSTIN, TX, 78703","Match","Non_Exact","801 W 5TH ST, AUSTIN, TX, 78703",63943323,"L"
871506,"801 W 8TH STREET","ELLSWORTH","KS",67439,38.732810295,-98.219319572,6,"801 W 8TH STREET, ELLSWORTH, KS, 67439","Match","Non_Exact","801 E 8TH ST, ELLSWORTH, KS, 67439",132875555,"R"
871507,"801 W 9TH ST APT 2","WILMINGTON","DE",19801,NA,NA,7,"801 W 9TH ST APT 2, WILMINGTON, DE, 19801","Tie",NA,NA,NA,NA
871508,"801 W ARLINGTON ST","BANGOR","MI",49013,42.3089644400001,-86.121083132,8,"801 W ARLINGTON ST, BANGOR, MI, 49013","Match","Exact","801 W ARLINGTON ST, BANGOR, MI, 49013",34750621,"L"
871509,"801 W AVENUE D","GARLAND","TX",75040,32.9089827390001,-96.640350905,9,"801 W AVENUE D, GARLAND, TX, 75040","Match","Exact","801 W AVE D, GARLAND, TX, 75040",102926943,"R"
871510,"801 W BIRMINGHAM STREET","BROKEN ARROW","OK",74011,36.0063888760001,-95.799221109,10,"801 W BIRMINGHAM STREET, BROKEN ARROW, OK, 74011","Match","Exact","801 W BIRMINGHAM ST, BROKEN ARROW, OK, 74011",166498639,"R"
871511,"801 W CLOVERNOOK LANE","GLENDALE","WI",53217,43.1347342510001,-87.9190165539999,11,"801 W CLOVERNOOK LANE, GLENDALE, WI, 53217","Match","Exact","801 CLOVERNOOK LN, GLENDALE, WI, 53217",77764848,"L"
871512,"801 W COVINA BLVD SPC 169","SAN DIMAS","CA",91773,34.099484477,-117.822749616,12,"801 W COVINA BLVD SPC 169, SAN DIMAS, CA, 91773","Match","Non_Exact","801 W COVINA BLVD, SAN DIMAS, CA, 91773",638621205,"L"
871513,"801 W ESSEX AVE","KIRKWOOD","MO",63122,38.5890808340001,-90.4215946099999,13,"801 W ESSEX AVE, KIRKWOOD, MO, 63122","Match","Exact","801 W ESSEX AVE, KIRKWOOD, MO, 63122",100128961,"R"
871514,"801 W FARMLAND DRIVE","MAQUOKETA","IA",52060,42.058927511,-90.6817089689999,14,"801 W FARMLAND DRIVE, MAQUOKETA, IA, 52060","Match","Exact","801 W FARMLAND DR, MAQUOKETA, IA, 52060",16977682,"R"
871515,"801 W GORE BLVD","LAWTON","OK",73501,34.60913685,-98.400134162,15,"801 W GORE BLVD, LAWTON, OK, 73501","Match","Exact","801 W GORE BLVD, LAWTON, OK, 73501",15022901,"R"
871516,"801 W GRAND AVE","OAKLAND","CA",94607,37.813413633,-122.276059207,16,"801 W GRAND AVE, OAKLAND, CA, 94607","Match","Non_Exact","801 W GRAND, OAKLAND, CA, 94607",617287709,"R"
871517,"801 W HIGHLANDER AVE","LA HABRA","CA",90631,33.9354871900001,-117.954976874,17,"801 W HIGHLANDER AVE, LA HABRA, CA, 90631","Match","Exact","801 HIGHLANDER AVE, LA HABRA, CA, 90631",144004871,"R"
871518,"801 W KENSINGTON RD","MOUNT PROSPECT","IL",60056,42.0808027090001,-87.9465376639999,18,"801 W KENSINGTON RD, MOUNT PROSPECT, IL, 60056","Match","Exact","801 W KENSINGTON RD, MOUNT PROSPECT, IL, 60056",111719602,"L"
871519,"801 W MAIN ST","ODESSA","MO",64076,39.0007265150001,-93.963885879,19,"801 W MAIN ST, ODESSA, MO, 64076","Match","Exact","801 W MAIN ST, ODESSA, MO, 64076",20933879,"L"
871520,"801 W MAIN STREET","NAPONEE","NE",68960,40.0774520260001,-99.14167479,20,"801 W MAIN STREET, NAPONEE, NE, 68960","Match","Exact","801 W MAIN ST, NAPONEE, NE, 68960",137978702,"L"
871521,"801 W MULLAN TRIAL","DRUMMOND","MT",59832,NA,NA,21,"801 W MULLAN TRIAL, DRUMMOND, MT, 59832","No_Match",NA,NA,NA,NA
871522,"801 W PARK AVENUE","LINDENWOLD","NJ",8021,39.811570955,-75.003564441,22,"801 W PARK AVENUE, LINDENWOLD, NJ, 8021","Match","Exact","801 W PARK AVE, LINDENWOLD, NJ, 08021",134370550,"L"
871523,"801 W PARKLAND PARK","OAKLAND PARK","FL",33311,NA,NA,23,"801 W PARKLAND PARK, OAKLAND PARK, FL, 33311","No_Match",NA,NA,NA,NA
871524,"801 W PEORIA AVE","PHOENIX","AZ",85029,33.582181345,-112.084316759,24,"801 W PEORIA AVE, PHOENIX, AZ, 85029","Match","Exact","801 W PEORIA AVE, PHOENIX, AZ, 85029",128918445,"L"
871525,"801 W PLATT","MAQUOKETA","IA",52060,42.069056742,-90.674841466,25,"801 W PLATT, MAQUOKETA, IA, 52060","Match","Non_Exact","801 W PLATT ST, MAQUOKETA, IA, 52060",16966864,"R"
871526,"801 W RIVERSIDE SUITE 300","SPOKANE","WA",99201,NA,NA,26,"801 W RIVERSIDE SUITE 300, SPOKANE, WA, 99201","No_Match",NA,NA,NA,NA
871527,"801 W SOUTH ST","BREMEN","IN",46506,41.445569807,-86.1550462609999,27,"801 W SOUTH ST, BREMEN, IN, 46506","Match","Exact","801 W SOUTH ST, BREMEN, IN, 46506",7640047,"L"
871528,"801 W STOUT STREET APT 2","CHETEK","WI",54728,45.3158062460001,-91.658583483,28,"801 W STOUT STREET APT 2, CHETEK, WI, 54728","Match","Non_Exact","801 W STOUT ST, CHETEK, WI, 54728",126286143,"L"
871529,"801 W STOUT STREET APT 8","CHETEK","WI",54728,45.3158062460001,-91.658583483,29,"801 W STOUT STREET APT 8, CHETEK, WI, 54728","Match","Non_Exact","801 W STOUT ST, CHETEK, WI, 54728",126286143,"L"
871530,"801 W TAOS","HOBBS","NM",88240,32.7350062130001,-103.145149249,30,"801 W TAOS, HOBBS, NM, 88240","Match","Non_Exact","801 W TAOS ST, HOBBS, NM, 88240",132019137,"L"
871531,"801 W VILLAGE PARKWAY","LITCHFIELD PARK","AZ",85340,33.497054108,-112.370886421,31,"801 W VILLAGE PARKWAY, LITCHFIELD PARK, AZ, 85340","Match","Exact","801 W VILLAGE PKWY, LITCHFIELD PARK, AZ, 85340",243951867,"R"
871532,"801 W VOORHEES","DANVILLE","IL",61832,NA,NA,32,"801 W VOORHEES, DANVILLE, IL, 61832","No_Match",NA,NA,NA,NA
871533,"801 W WHITESIDE","SPRINGFEILD","MO",65807,37.175976974,-93.300668018,33,"801 W WHITESIDE, SPRINGFEILD, MO, 65807","Match","Non_Exact","801 W WHITESIDE ST, SPRINGFIELD, MO, 65807",76675503,"R"
871534,"801 W WIND DRIVE","IOWA CITY","IA",52246,NA,NA,34,"801 W WIND DRIVE, IOWA CITY, IA, 52246","No_Match",NA,NA,NA,NA
871535,"801 W7TH STREET","WILMINGTON","DE",19801,NA,NA,35,"801 W7TH STREET, WILMINGTON, DE, 19801","No_Match",NA,NA,NA,NA
871536,"801 WADSWORTH STREET APT 201B","TALLAHASSEE","FL",32304,30.4504222140001,-84.3048851249999,36,"801 WADSWORTH STREET APT 201B, TALLAHASSEE, FL, 32304","Match","Exact","801 WADSWORTH ST, TALLAHASSEE, FL, 32304",82849562,"R"
871537,"801 WALKER LANE","SPRINGFIELD","KY",40069,37.730635449,-85.260415198,37,"801 WALKER LANE, SPRINGFIELD, KY, 40069","Match","Exact","801 WALKER LN, SPRINGFIELD, KY, 40069",649090395,"R"
871538,"801 WARLEY DR","HYATTSVILLE","MD",20785,38.8990761110001,-76.861399617,38,"801 WARLEY DR, HYATTSVILLE, MD, 20785","Match","Exact","801 WARLEY DR, HYATTSVILLE, MD, 20785",76347732,"L"
871539,"801 WASHINGTON AVE N APT 114","MINNEAPOLIS","MN",55401,44.988919937,-93.27872207,39,"801 WASHINGTON AVE N APT 114, MINNEAPOLIS, MN, 55401","Match","Exact","801 WASHINGTON AVE N, MINNEAPOLIS, MN, 55401",43631521,"L"
871540,"801 WASHINGTON AVE N SUITE 200","MINNEAPOLIS","MN",55401,44.988919937,-93.27872207,40,"801 WASHINGTON AVE N SUITE 200, MINNEAPOLIS, MN, 55401","Match","Exact","801 WASHINGTON AVE N, MINNEAPOLIS, MN, 55401",43631521,"L"
871541,"801 WASHINGTON AVENUE","MINNEAPOLIS","MN",55401,44.988919937,-93.27872207,41,"801 WASHINGTON AVENUE, MINNEAPOLIS, MN, 55401","Match","Non_Exact","801 WASHINGTON AVE N, MINNEAPOLIS, MN, 55401",43631521,"L"
871542,"801 WEBSTER STREET","LEWISTON","ME",4240,44.080747353,-70.167752827,42,"801 WEBSTER STREET, LEWISTON, ME, 4240","Match","Exact","801 WEBSTER ST, LEWISTON, ME, 04240",77989869,"R"
871543,"801 WELSCH ROAD","DAHLGREN","VA",22448,NA,NA,43,"801 WELSCH ROAD, DAHLGREN, VA, 22448","No_Match",NA,NA,NA,NA
871544,"801 WESLEY RD","KNOXVILLE","TN",37909,35.9410618140001,-84.025505773,44,"801 WESLEY RD, KNOXVILLE, TN, 37909","Match","Exact","801 WESLEY RD, KNOXVILLE, TN, 37909",42615174,"L"
871545,"801 WEST 28TH STREET APT 26","SAN PEDRO","CA",90731,33.7189557740001,-118.294548297,45,"801 WEST 28TH STREET APT 26, SAN PEDRO, CA, 90731","Match","Exact","801 W 28TH ST, SAN PEDRO, CA, 90731",141690775,"L"
871546,"801 WEST BAY DRIVE SUITE 705","LARGO","FL",33770,27.916747575,-82.797410853,46,"801 WEST BAY DRIVE SUITE 705, LARGO, FL, 33770","Match","Exact","801 W BAY DR, LARGO, FL, 33770",613713916,"L"
871547,"801 WEST CARSON STREET","MUNCIE","IN",47303,40.2031260310001,-85.394533945,47,"801 WEST CARSON STREET, MUNCIE, IN, 47303","Match","Exact","801 W CARSON ST, MUNCIE, IN, 47303",30836123,"L"
871548,"801 WEST COLUMBIA STREET","PASCO","WA",99301,46.2281917970001,-119.097438334,48,"801 WEST COLUMBIA STREET, PASCO, WA, 99301","Match","Exact","801 W COLUMBIA ST, PASCO, WA, 99301",647702377,"R"
871549,"801 WEST COVINA BLVD SPC 169","SAN DIMAS","CA",91773,34.099484906,-117.822708415,49,"801 WEST COVINA BLVD SPC 169, SAN DIMAS, CA, 91773","Match","Exact","801 W COVINA BLVD, SAN DIMAS, CA, 91773",638621205,"L"
871550,"801 WEST EAGLE RIDGE STREET","SIOUX FALLS","SD",57108,43.4791968260001,-96.733881556,50,"801 WEST EAGLE RIDGE STREET, SIOUX FALLS, SD, 57108","Match","Exact","801 W EAGLE RIDGE ST, SIOUX FALLS, SD, 57108",636843441,"L"
871551,"801 WEST FIFTH ST 2705","AUSTIN","TX",78703,30.269329441,-97.751061186,51,"801 WEST FIFTH ST 2705, AUSTIN, TX, 78703","Match","Exact","801 W 5TH ST, AUSTIN, TX, 78703",63943323,"L"
871552,"801 WEST GALENA ST","BUTTE","MT",59701,46.011527862,-112.547695593,52,"801 WEST GALENA ST, BUTTE, MT, 59701","Match","Exact","801 W GALENA ST, BUTTE, MT, 59701",153586549,"R"
871553,"801 WEST HARDING ROAD","SPRINGFIELD","OH",45504,39.9471341660001,-83.8227537779999,53,"801 WEST HARDING ROAD, SPRINGFIELD, OH, 45504","Match","Exact","801 W HARDING RD, SPRINGFIELD, OH, 45504",135006010,"L"
871554,"801 WEST HIGHWAY 124","STURGEON","MO",65284,NA,NA,54,"801 WEST HIGHWAY 124, STURGEON, MO, 65284","No_Match",NA,NA,NA,NA
871555,"801 WEST MADISON STREET","WATERLOO","WI",53594,43.177356208,-89.007102784,55,"801 WEST MADISON STREET, WATERLOO, WI, 53594","Match","Exact","801 W MADISON ST, WATERLOO, WI, 53594",53236313,"L"
871556,"801 WEST MAIN ST","ROCHESTER","IL",62563,39.750687795,-89.545307403,56,"801 WEST MAIN ST, ROCHESTER, IL, 62563","Match","Exact","801 W MAIN ST, ROCHESTER, IL, 62563",606963006,"L"
871557,"801 WEST MAIN STREET","HILL CITY","KS",67642,39.3645386600001,-99.8520951199999,57,"801 WEST MAIN STREET, HILL CITY, KS, 67642","Match","Exact","801 W MAIN ST, HILL CITY, KS, 67642",203629788,"R"
871558,"801 WEST MAIN","KERRVILLE","TX",78028,30.0606185500001,-99.1557424809999,58,"801 WEST MAIN, KERRVILLE, TX, 78028","Match","Non_Exact","801 W MAIN ST, KERRVILLE, TX, 78028",176887294,"L"
871559,"801 WEST PINESTEAD ROAD","PENSACOLA","FL",32505,30.492974657,-87.268414477,59,"801 WEST PINESTEAD ROAD, PENSACOLA, FL, 32505","Match","Exact","801 W PINESTEAD RD, PENSACOLA, FL, 32505",93213063,"L"
871560,"801 WEST PLATTE AVENUE","FORT MORGAN","CO",80701,40.254019763,-103.811821461,60,"801 WEST PLATTE AVENUE, FORT MORGAN, CO, 80701","Match","Exact","801 W PLATTE AVE, FORT MORGAN, CO, 80701",190133680,"R"
871561,"801 WEST SCOTT ST","PENSACOLA","FL",32501,30.4373991570001,-87.228052049,61,"801 WEST SCOTT ST, PENSACOLA, FL, 32501","Match","Exact","801 W SCOTT ST, PENSACOLA, FL, 32501",93219849,"L"
871562,"801 WEST WASHINGTON STREET","HIGHLAND SPRINGS","VA",23075,37.546323403,-77.3138434109999,62,"801 WEST WASHINGTON STREET, HIGHLAND SPRINGS, VA, 23075","Match","Non_Exact","801 E WASHINGTON ST, HIGHLAND SPGS, VA, 23075",106654429,"R"
871563,"801 WESTOVER TER","GREENSBORO","NC",27407,36.0829675910001,-79.813223259,63,"801 WESTOVER TER, GREENSBORO, NC, 27407","Match","Non_Exact","801 WESTOVER TER, GREENSBORO, NC, 27408",131031455,"L"
871564,"801 WESTPARK","JOLIET","IL",60436,NA,NA,64,"801 WESTPARK, JOLIET, IL, 60436","No_Match",NA,NA,NA,NA
871565,"801 WESTVIEW DR","DYSART","IA",52224,42.1646880920001,-92.312368801,65,"801 WESTVIEW DR, DYSART, IA, 52224","Match","Exact","801 WESTVIEW DR, DYSART, IA, 52224",649149697,"L"
871566,"801 WHEATLAND LANE","BOLINGBROOK","IL",60440,41.6712869930001,-88.12783269,66,"801 WHEATLAND LANE, BOLINGBROOK, IL, 60440","Match","Non_Exact","801 WHEATLAND LN, BOLINGBROOK, IL, 60490",111583515,"R"
871567,"801 WHEELING AVE","CAMBRIDGE","OH",43725,40.0248138260001,-81.590244846,67,"801 WHEELING AVE, CAMBRIDGE, OH, 43725","Match","Exact","801 WHEELING AVE, CAMBRIDGE, OH, 43725",37649713,"R"
871568,"801 WHITBY AVE","YEADON","PA",19050,39.934246133,-75.2508028189999,68,"801 WHITBY AVE, YEADON, PA, 19050","Match","Exact","801 WHITBY AVE, YEADON, PA, 19050",134886712,"L"
871569,"801 WHITE PINE RD","WATERVILLE","IA",52170,43.1808057480001,-91.282200317,69,"801 WHITE PINE RD, WATERVILLE, IA, 52170","Match","Exact","801 WHITE PINE RD, WATERVILLE, IA, 52170",48231089,"R"
871570,"801 WHITE PINE ROAD","WATERVILLE","IA",52170,43.1808057480001,-91.282200317,70,"801 WHITE PINE ROAD, WATERVILLE, IA, 52170","Match","Exact","801 WHITE PINE RD, WATERVILLE, IA, 52170",48231089,"R"
871571,"801 WILLOPEN DRIVE/O-205","SOUTHAMPTON","PA",18966,40.180441371,-75.050192834,71,"801 WILLOPEN DRIVE/O-205, SOUTHAMPTON, PA, 18966","Match","Non_Exact","801 WILLOPENN DR, SOUTHAMPTON, PA, 18966",134758562,"R"
871572,"801 WILLOWEDGE COURT","KNIGHTDALE","NC",27545,35.776408007,-78.516625076,72,"801 WILLOWEDGE COURT, KNIGHTDALE, NC, 27545","Match","Exact","801 WILLOWEDGE CT, KNIGHTDALE, NC, 27545",72651106,"R"
871573,"801 WILLOWMIST CT","CARY","NC",27519,35.7999236470001,-78.8516613529999,73,"801 WILLOWMIST CT, CARY, NC, 27519","Match","Exact","801 WILLOWMIST CT, CARY, NC, 27519",612816656,"L"
871574,"801 WINSTON DR C-4","COOKEVILLE","TN",38506,36.130147148,-85.525560001,74,"801 WINSTON DR C-4, COOKEVILLE, TN, 38506","Match","Exact","801 WINSTON DR, COOKEVILLE, TN, 38506",25142574,"R"
871575,"801 WINTERS LANE APT 428","CANTONSVILLE","MD",21228,NA,NA,75,"801 WINTERS LANE APT 428, CANTONSVILLE, MD, 21228","No_Match",NA,NA,NA,NA
871576,"801 WISCONSIN STREET UNIT B","SAN FRANCISCO","CA",94107,37.757186437,-122.398917717,76,"801 WISCONSIN STREET UNIT B, SAN FRANCISCO, CA, 94107","Match","Exact","801 WISCONSIN ST, SAN FRANCISCO, CA, 94107",192289073,"L"
871577,"801 WITHERSPOON CT","MCDONOUGH","GA",30253,33.4657135140001,-84.1361479349999,77,"801 WITHERSPOON CT, MCDONOUGH, GA, 30253","Match","Exact","801 WITHERSPOON CT, MCDONOUGH, GA, 30253",619918207,"R"
871578,"801 WOODBERRY PLACE","DECATUR","GA",30034,33.6810914340001,-84.2331061629999,78,"801 WOODBERRY PLACE, DECATUR, GA, 30034","Match","Non_Exact","801 WOODBERRY PKWY, DECATUR, GA, 30034",645263640,"R"
871579,"801 WOODCROFT PARKWAY UNIT 1923","DURHAM","NC",27713,NA,NA,79,"801 WOODCROFT PARKWAY UNIT 1923, DURHAM, NC, 27713","Tie",NA,NA,NA,NA
871580,"801 WOODCROFT PARWAY UNIT 1923","DURHAM","NC",27713,NA,NA,80,"801 WOODCROFT PARWAY UNIT 1923, DURHAM, NC, 27713","No_Match",NA,NA,NA,NA
871581,"801 WOODLAND AVE","DULUTH","MN",55812,46.8143909770001,-92.078278301,81,"801 WOODLAND AVE, DULUTH, MN, 55812","Match","Exact","801 WOODLAND AVE, DULUTH, MN, 55812",163212341,"L"
871582,"801 WOODLAND HILLS DR","PHILADELPHIA","MS",39350,32.788983654,-89.104111239,82,"801 WOODLAND HILLS DR, PHILADELPHIA, MS, 39350","Match","Exact","801 WOODLAND HILLS DR, PHILADELPHIA, MS, 39350",157762291,"R"
871583,"801 WOODLEIGH AVE","HIGHLAND PARK","IL",60035,42.201834843,-87.819326188,83,"801 WOODLEIGH AVE, HIGHLAND PARK, IL, 60035","Match","Exact","801 WOODLEIGH AVE, HIGHLAND PARK, IL, 60035",119648067,"L"
871584,"801 WOODS ROAD","SOLVAY","NY",13209,43.0581881620001,-76.2108267,84,"801 WOODS ROAD, SOLVAY, NY, 13209","Match","Exact","801 WOODS RD, SOLVAY, NY, 13209",46564375,"L"
871585,"801 WORTHINGTON ST","BREA","CA",92821,33.932426908,-117.919565621,85,"801 WORTHINGTON ST, BREA, CA, 92821","Match","Exact","801 WORTHINGTON ST, BREA, CA, 92821",144006396,"L"
871586,"801 WRIGHT DRIVE","COLUMBIA","KY",42728,37.0952851050001,-85.298718478,86,"801 WRIGHT DRIVE, COLUMBIA, KY, 42728","Match","Exact","801 WRIGHT DR, COLUMBIA, KY, 42728",39044504,"L"
871587,"801 WRIGHT DRIVE","COLUMBUS","GA",31907,32.4610223670001,-84.916085532,87,"801 WRIGHT DRIVE, COLUMBUS, GA, 31907","Match","Exact","801 WRIGHT DR, COLUMBUS, GA, 31907",98940927,"L"
871588,"801 YALE DR","BARTLESVILLE","OK",74006,36.7436643280001,-95.923468654,88,"801 YALE DR, BARTLESVILLE, OK, 74006","Match","Exact","801 YALE DR, BARTLESVILLE, OK, 74006",18706939,"L"
871589,"801-12TH  STREET NORTH","PRINCETON","MN",55371,NA,NA,89,"801-12TH  STREET NORTH, PRINCETON, MN, 55371","No_Match",NA,NA,NA,NA
871590,"8010 180TH ST SE","SNOHOMISH","WA",98296,47.8338354810001,-122.124589742,90,"8010 180TH ST SE, SNOHOMISH, WA, 98296","Match","Exact","8010 180TH ST SE, SNOHOMISH, WA, 98296",653834550,"R"
871591,"8010 5 AVENUE","BROOKLYN","NY",11209,40.6256622020001,-74.0242060589999,91,"8010 5 AVENUE, BROOKLYN, NY, 11209","Match","Exact","8010 5TH AVE, BROOKLYN, NY, 11209",59098236,"R"
871592,"8010 ACTON ROAD","INDIANAPOLIS","IN",46259,39.6526055900001,-85.971101873,92,"8010 ACTON ROAD, INDIANAPOLIS, IN, 46259","Match","Exact","8010 ACTON RD, INDIANAPOLIS, IN, 46259",624495004,"R"
871593,"8010 ARCADIAN LANE","LAS VEGAS","NV",89147,NA,NA,93,"8010 ARCADIAN LANE, LAS VEGAS, NV, 89147","Tie",NA,NA,NA,NA
871594,"8010 ASHLEY CIRCLE DRIVE N","HOUSTON","TX",77071,29.645878156,-95.519791992,94,"8010 ASHLEY CIRCLE DRIVE N, HOUSTON, TX, 77071","Match","Exact","8010 ASHLEY CIRCLE DR N, HOUSTON, TX, 77071",96037432,"L"
871595,"8010 ASHLEY CIRCLE DRIVE","HOUSTON","TX",77071,NA,NA,95,"8010 ASHLEY CIRCLE DRIVE, HOUSTON, TX, 77071","Tie",NA,NA,NA,NA
871596,"8010 BAY HILL AVE","HEMET","CA",92545,33.748583941,-117.055196847,96,"8010 BAY HILL AVE, HEMET, CA, 92545","Match","Exact","8010 BAY HILL AVE, HEMET, CA, 92545",609002898,"R"
871597,"8010 BLAIR MILL WAY 403E","SILVER SPRING","MD",20910,38.9895605400001,-77.032736829,97,"8010 BLAIR MILL WAY 403E, SILVER SPRING, MD, 20910","Match","Non_Exact","8010 BLAIR MILL DR, SILVER SPRING, MD, 20910",62067914,"R"
871598,"8010 BLAIR MILL WAY","SILVER SPRING","MD",20910,38.9895605400001,-77.032736829,98,"8010 BLAIR MILL WAY, SILVER SPRING, MD, 20910","Match","Non_Exact","8010 BLAIR MILL DR, SILVER SPRING, MD, 20910",62067914,"R"
871599,"8010 BLAIR MILLE WAY","SILVERSPRING","MD",20910,38.9895605400001,-77.032736829,99,"8010 BLAIR MILLE WAY, SILVERSPRING, MD, 20910","Match","Non_Exact","8010 BLAIR MILL DR, SILVER SPRING, MD, 20910",62067914,"R"
871600,"8010 BRAESWOOD LANE","HOUSTON","TX",77071,NA,NA,100,"8010 BRAESWOOD LANE, HOUSTON, TX, 77071","No_Match",NA,NA,NA,NA
871601,"8010 CATHERINE AVE","PASADENA","MD",21122,39.1302606400001,-76.546025686,101,"8010 CATHERINE AVE, PASADENA, MD, 21122","Match","Exact","8010 CATHERINE AVE, PASADENA, MD, 21122",68164916,"R"
871602,"8010 CHESTNUT BLUE DR","CONVERSE","TX",78109,29.489162423,-98.325307633,102,"8010 CHESTNUT BLUE DR, CONVERSE, TX, 78109","Match","Exact","8010 CHESTNUT BLUE DR, CONVERSE, TX, 78109",101727468,"R"
871603,"8010 CHESTNUT HILLS","MORGANTOWN","WV",26505,39.6549561420001,-79.948449593,103,"8010 CHESTNUT HILLS, MORGANTOWN, WV, 26505","Match","Non_Exact","8010 CHESTNUT HILL, MORGANTOWN, WV, 26505",50762861,"L"
871604,"8010 CLUB MANOR DRIVE","RALEIGH","NC",27616,NA,NA,104,"8010 CLUB MANOR DRIVE, RALEIGH, NC, 27616","No_Match",NA,NA,NA,NA
871605,"8010 COWICHE CANYON RD","YAKIMA","WA",98908,46.6219614010001,-120.61426478,105,"8010 COWICHE CANYON RD, YAKIMA, WA, 98908","Match","Exact","8010 COWICHE CANYON RD, YAKIMA, WA, 98908",623967342,"L"
871606,"8010 E 300 S","AVILLA","IN",46710,41.3073796790001,-85.2680511889999,106,"8010 E 300 S, AVILLA, IN, 46710","Match","Exact","8010 E 300 S, AVILLA, IN, 46710",6591854,"L"
871607,"8010 EVANSTON VIEW DR APT T","HUNTERSVILLE","NC",28078,35.4481295050001,-80.885373665,107,"8010 EVANSTON VIEW DR APT T, HUNTERSVILLE, NC, 28078","Match","Non_Exact","8010 EVANSTON VIEW RD, HUNTERSVILLE, NC, 28078",640628965,"L"
871608,"8010 FUQUA STREET","HOUSTON","TX",77075,29.6117030500001,-95.277314345,108,"8010 FUQUA STREET, HOUSTON, TX, 77075","Match","Exact","8010 FUQUA ST, HOUSTON, TX, 77075",96094513,"R"
871609,"8010 GREENBELT STATION PARKWAY","GREENBELT","MD",20770,38.9995524080001,-76.917858144,109,"8010 GREENBELT STATION PARKWAY, GREENBELT, MD, 20770","Match","Exact","8010 GREENBELT STATION PKWY, GREENBELT, MD, 20770",648103370,"L"
871610,"8010 GREENBELT STATION PKWY 417","GREENBELT","MD",20770,38.9995524080001,-76.917858144,110,"8010 GREENBELT STATION PKWY 417, GREENBELT, MD, 20770","Match","Exact","8010 GREENBELT STATION PKWY, GREENBELT, MD, 20770",648103370,"L"
871611,"8010 GREENBRIAR CT","BURR RIDGE","IL",60527,41.744360124,-87.905077163,111,"8010 GREENBRIAR CT, BURR RIDGE, IL, 60527","Match","Exact","8010 GREENBRIAR CT, BURR RIDGE, IL, 60527",112220016,"R"
871612,"8010 HAMPTON BLVD APT 503","NORTH LAUDERDALE","FL",33068,26.2110300890001,-80.235457981,112,"8010 HAMPTON BLVD APT 503, NORTH LAUDERDALE, FL, 33068","Match","Exact","8010 HAMPTON BLVD, N LAUDERDALE, FL, 33068",640877130,"R"
871613,"8010 INDIAN HILL DR","HANAHAN","SC",29410,32.9450664180001,-80.018987411,113,"8010 INDIAN HILL DR, HANAHAN, SC, 29410","Match","Exact","8010 INDIAN HILL DR, HANAHAN, SC, 29410",645445699,"L"
871614,"8010 LUSCOMBE DRIVE","KNOXVILLE","TN",37919,35.909714679,-84.042124426,114,"8010 LUSCOMBE DRIVE, KNOXVILLE, TN, 37919","Match","Non_Exact","8010 LUSCOMBE DR NW, KNOXVILLE, TN, 37919",42615289,"L"
871615,"8010 MANDERLY PL","CONVERSE","TX",78109,29.5038589230001,-98.323784581,115,"8010 MANDERLY PL, CONVERSE, TX, 78109","Match","Exact","8010 MANDERLY PL, CONVERSE, TX, 78109",101580984,"L"
871616,"8010 N COUNTY ROAD 100 W","SEYMOUR","IN",47274,NA,NA,116,"8010 N COUNTY ROAD 100 W, SEYMOUR, IN, 47274","No_Match",NA,NA,NA,NA
871617,"8010 OLD CULTER ROAD","CORAL GABLES","FL",33143,NA,NA,117,"8010 OLD CULTER ROAD, CORAL GABLES, FL, 33143","No_Match",NA,NA,NA,NA
871618,"8010 OLD CUTLER ROAD","CORAL GABLES","FL",33143,25.697564573,-80.2657718359999,118,"8010 OLD CUTLER ROAD, CORAL GABLES, FL, 33143","Match","Exact","8010 OLD CUTLER RD, CORAL GABLES, FL, 33143",116019556,"R"
871619,"8010 PINES ROAD","SHREVEPORT","LA",71129,32.4263853570001,-93.857370848,119,"8010 PINES ROAD, SHREVEPORT, LA, 71129","Match","Exact","8010 PINES RD, SHREVEPORT, LA, 71129",57460253,"R"
871620,"8010 PINEWOOD CREST LANE","HUMBLE","TX",77346,30.0005401880001,-95.148987947,120,"8010 PINEWOOD CREST LANE, HUMBLE, TX, 77346","Match","Exact","8010 PINEWOOD CREST LN, HUMBLE, TX, 77346",96563576,"L"
871621,"8010 PINK AZALEA COURT","BALTIMORE","MD",21244,39.349796617,-76.780098585,121,"8010 PINK AZALEA COURT, BALTIMORE, MD, 21244","Match","Exact","8010 PINK AZALEA CT, BALTIMORE, MD, 21244",625004097,"L"
871622,"8010 PIONEER TRAIL DRIVE","SAN ANTONIO","TX",78244,29.498417805,-98.334817046,122,"8010 PIONEER TRAIL DRIVE, SAN ANTONIO, TX, 78244","Match","Exact","8010 PIONEER TRAIL DR, SAN ANTONIO, TX, 78244",101570628,"R"
871623,"8010 S BLACKSTONE AVE","CHICAGO","IL",60619,41.7493327020001,-87.588291575,123,"8010 S BLACKSTONE AVE, CHICAGO, IL, 60619","Match","Exact","8010 S BLACKSTONE AVE, CHICAGO, IL, 60619",111775141,"R"
871624,"8010 SAN TROPEZ CT","FONTANA","CA",92336,34.108187479,-117.496901855,124,"8010 SAN TROPEZ CT, FONTANA, CA, 92336","Match","Exact","8010 SAN TROPEZ CT, FONTANA, CA, 92336",144964606,"L"
871625,"8010 SEA HERO RUN","VERSAILLES","KY",40383,38.0375526600001,-84.712299865,125,"8010 SEA HERO RUN, VERSAILLES, KY, 40383","Match","Exact","8010 SEA HERO RUN, VERSAILLES, KY, 40383",38498033,"R"
871626,"8010 SHOREWOOD DR","CHARLOTTE","NC",28277,35.0945564720001,-80.783371728,126,"8010 SHOREWOOD DR, CHARLOTTE, NC, 28277","Match","Exact","8010 SHOREWOOD DR, CHARLOTTE, NC, 28277",70538844,"R"
871627,"8010 SOUTH 166TH STREET","OMAHA","NE",68136,41.179400629,-96.17512041,127,"8010 SOUTH 166TH STREET, OMAHA, NE, 68136","Match","Exact","8010 S 166TH ST, OMAHA, NE, 68136",217529903,"L"
871628,"8010 SOUTH COULTER","AMARILLO","TX",79119,35.12717422,-101.919929889,128,"8010 SOUTH COULTER, AMARILLO, TX, 79119","Match","Non_Exact","8010 S COULTER ST, AMARILLO, TX, 79119",182660644,"L"
871629,"8010 SUNPORT DR STE 120","ORLANDO","FL",32809,28.45028889,-81.373142934,129,"8010 SUNPORT DR STE 120, ORLANDO, FL, 32809","Match","Exact","8010 SUNPORT DR, ORLANDO, FL, 32809",637913584,"R"
871630,"8010 SUNPORT DRIVE SUITE 123","ORLANDO","FL",32809,28.45028889,-81.373142934,130,"8010 SUNPORT DRIVE SUITE 123, ORLANDO, FL, 32809","Match","Exact","8010 SUNPORT DR, ORLANDO, FL, 32809",637913584,"R"
871631,"8010 SW 5TH ST","NORTH LAUDERDALE","FL",33068,26.224043506,-80.235707982,131,"8010 SW 5TH ST, NORTH LAUDERDALE, FL, 33068","Match","Exact","8010 SW 5TH ST, N LAUDERDALE, FL, 33068",114691985,"L"
871632,"8010 TIMBER TRAIL","SANDERSON","FL",32087,NA,NA,132,"8010 TIMBER TRAIL, SANDERSON, FL, 32087","No_Match",NA,NA,NA,NA
871633,"8010 TIMS LANE","CLAREMORE","OK",74019,36.245385496,-95.6902898119999,133,"8010 TIMS LANE, CLAREMORE, OK, 74019","Match","Exact","8010 TIMS LN, CLAREMORE, OK, 74019",612072016,"R"
871634,"8010 VIA SARDINIA WAY 103","ESTERO","FL",33928,26.3999629940001,-81.806882996,134,"8010 VIA SARDINIA WAY 103, ESTERO, FL, 33928","Match","Exact","8010 VIA SARDINIA WAY, ESTERO, FL, 33928",618016950,"R"
871635,"8010 W 150TH STREET","OVERLAND PARK","KS",66223,38.856846895,-94.6824297589999,135,"8010 W 150TH STREET, OVERLAND PARK, KS, 66223","Match","Exact","8010 W 150TH ST, OVERLAND PARK, KS, 66223",91292458,"L"
871636,"8010 W MELVILL RD","CHENEY","WA",99004,NA,NA,136,"8010 W MELVILL RD, CHENEY, WA, 99004","No_Match",NA,NA,NA,NA
871637,"8010 WINDHAM LAKE WAY","INDIANAPOLIS","IN",46214,39.817675862,-86.302880494,137,"8010 WINDHAM LAKE WAY, INDIANAPOLIS, IN, 46214","Match","Exact","8010 WINDHAM LAKE WAY, INDIANAPOLIS, IN, 46214",108055505,"L"
871638,"8010 WITHROW CT","FAIR OAKS","CA",95628,38.654811495,-121.268187346,138,"8010 WITHROW CT, FAIR OAKS, CA, 95628","Match","Exact","8010 WITHROW CT, FAIR OAKS, CA, 95628",133426490,"L"
871639,"8010 WOODCREEK DRIVE","BRIDGEVILLE","PA",15017,40.3457642060001,-80.1452563239999,139,"8010 WOODCREEK DRIVE, BRIDGEVILLE, PA, 15017","Match","Non_Exact","8010 WOOD CREEK DR, BRIDGEVILLE, PA, 15017",51923486,"R"
871640,"8010 WOODWAY OAK CIRCLE APT 1615","MATTHEWS","NC",28105,35.1558561040001,-80.729544185,140,"8010 WOODWAY OAK CIRCLE APT 1615, MATTHEWS, NC, 28105","Match","Exact","8010 WOODWAY OAK CIR, MATTHEWS, NC, 28105",70557712,"R"
871641,"8010 WOODWAY OAK CIRCLE APT 1616","MATTHEWS","NC",28105,35.1558561040001,-80.729544185,141,"8010 WOODWAY OAK CIRCLE APT 1616, MATTHEWS, NC, 28105","Match","Exact","8010 WOODWAY OAK CIR, MATTHEWS, NC, 28105",70557712,"R"
871642,"8011 151 AVENUE","HOWARD BEACH","NY",11414,NA,NA,142,"8011 151 AVENUE, HOWARD BEACH, NY, 11414","No_Match",NA,NA,NA,NA
871643,"8011 308TH STREET S","ROY","WA",98580,NA,NA,143,"8011 308TH STREET S, ROY, WA, 98580","No_Match",NA,NA,NA,NA
871644,"8011 AL HWY 79 S","GUNTERSVILLE","AL",35976,NA,NA,144,"8011 AL HWY 79 S, GUNTERSVILLE, AL, 35976","No_Match",NA,NA,NA,NA
871645,"8011 ASPEN GLEN DR","LOUISVILLE","KY",40228,38.1271443750001,-85.613809923,145,"8011 ASPEN GLEN DR, LOUISVILLE, KY, 40228","Match","Exact","8011 ASPEN GLEN DR, LOUISVILLE, KY, 40228",96918926,"L"
871646,"8011 AUGUSTA PINES DRIVE APT 219","SPRING","TX",77389,30.1366682010001,-95.547722245,146,"8011 AUGUSTA PINES DRIVE APT 219, SPRING, TX, 77389","Match","Exact","8011 AUGUSTA PINES DR, SPRING, TX, 77389",641637237,"R"
871647,"8011 CANDLEGLOW LANE","LOUISVILLE","KY",40214,38.1357675410001,-85.782669453,147,"8011 CANDLEGLOW LANE, LOUISVILLE, KY, 40214","Match","Exact","8011 CANDLEGLOW LN, LOUISVILLE, KY, 40214",96849594,"L"
871648,"8011 CARTER ST APT 2605","OVERLAND PARK","KS",66204,38.984347986,-94.696968493,148,"8011 CARTER ST APT 2605, OVERLAND PARK, KS, 66204","Match","Exact","8011 CARTER ST, OVERLAND PARK, KS, 66204",650174243,"R"
871649,"8011 CATALINA ISLAND DRIVE","KATY","TX",77494,29.719427212,-95.7873720379999,149,"8011 CATALINA ISLAND DRIVE, KATY, TX, 77494","Match","Exact","8011 CATALINA ISLAND DR, KATY, TX, 77494",628012053,"L"
871650,"8011 CENTRAL AVE NE","ALBUQUERQUE","NM",87108,35.074722256,-106.558029533,150,"8011 CENTRAL AVE NE, ALBUQUERQUE, NM, 87108","Match","Non_Exact","8011 CENTRAL AVE, ALBUQUERQUE, NM, 87108",206717958,"L"
871651,"8011 CLINTON","LUBBOCK","TX",79424,33.5212487690001,-101.932668814,151,"8011 CLINTON, LUBBOCK, TX, 79424","Match","Non_Exact","8011 CLINTON AVE, LUBBOCK, TX, 79424",185252184,"L"
871652,"8011 CROSS RD","PINE BLUFF","AR",71603,34.141850907,-92.119611069,152,"8011 CROSS RD, PINE BLUFF, AR, 71603","Match","Exact","8011 CROSS RD, PINE BLUFF, AR, 71603",2565827,"R"
871653,"8011 DEERFIELD DRIVE","PARMA","OH",44129,41.397067662,-81.74005492,153,"8011 DEERFIELD DRIVE, PARMA, OH, 44129","Match","Exact","8011 DEERFIELD DR, PARMA, OH, 44129",61106743,"L"
871654,"8011 FALLS ROAD","TRUMANSBURG","NY",14886,42.5342538100001,-76.618779753,154,"8011 FALLS ROAD, TRUMANSBURG, NY, 14886","Match","Exact","8011 FALLS RD, TRUMANSBURG, NY, 14886",18869200,"L"
871655,"8011 HWY 79 SOUTH","GUNTERSVILLE","AL",35976,34.2582674670001,-86.384113456,155,"8011 HWY 79 SOUTH, GUNTERSVILLE, AL, 35976","Match","Non_Exact","8011 AL HIGHWAY 79 S, GUNTERSVILLE, AL, 35976",99227693,"R"
871656,"8011 JEFFERSON STREET","HUMMELSTOWN","PA",17036,40.270546768,-76.753817517,156,"8011 JEFFERSON STREET, HUMMELSTOWN, PA, 17036","Match","Exact","8011 JEFFERSON ST, HUMMELSTOWN, PA, 17036",639736661,"R"
871657,"8011 JEFFERSON STREET","HUMMELSTOWN","PA",NA,40.270546768,-76.753817517,157,"8011 JEFFERSON STREET, HUMMELSTOWN, PA, ","Match","Exact","8011 JEFFERSON ST, HUMMELSTOWN, PA, 17036",639736661,"R"
871658,"8011 KENDRICK CROSSING LANE","LOUISVILLE","KY",40291,38.1241176660001,-85.560591648,158,"8011 KENDRICK CROSSING LANE, LOUISVILLE, KY, 40291","Match","Exact","8011 KENDRICK CROSSING LN, LOUISVILLE, KY, 40291",96921888,"L"
871659,"8011 KNOLLWOOD CT","BRENTWOOD","TN",37027,NA,NA,159,"8011 KNOLLWOOD CT, BRENTWOOD, TN, 37027","No_Match",NA,NA,NA,NA
871660,"8011 MICHIGAN ST","NEW ORLEANS","LA",70128,30.0539214820001,-89.973545675,160,"8011 MICHIGAN ST, NEW ORLEANS, LA, 70128","Match","Exact","8011 MICHIGAN ST, NEW ORLEANS, LA, 70128",191720232,"R"
871661,"8011 NE 152ND AVE","VANCOUVER","WA",98682,45.6810557430001,-122.516298465,161,"8011 NE 152ND AVE, VANCOUVER, WA, 98682","Match","Exact","8011 NE 152ND AVE, VANCOUVER, WA, 98682",158346518,"R"
871662,"8011 NE FOURTH PLN BLVD APT F1 VA","VANCOUVER","WA",98662,NA,NA,162,"8011 NE FOURTH PLN BLVD APT F1 VA, VANCOUVER, WA, 98662","No_Match",NA,NA,NA,NA
871663,"8011 NEW HAVEN AVENUE","ST. LOUIS","MO",63123,38.5656043280001,-90.322918617,163,"8011 NEW HAVEN AVENUE, ST. LOUIS, MO, 63123","Match","Exact","8011 NEW HAVEN AVE, SAINT LOUIS, MO, 63123",100142011,"R"
871664,"8011 NORTH POINT BLVD","WINSTON SALEM","NC",27105,36.149269754,-80.2699099399999,164,"8011 NORTH POINT BLVD, WINSTON SALEM, NC, 27105","Match","Non_Exact","8011 N POINT BLVD, WINSTON SALEM, NC, 27106",84663394,"L"
871665,"8011 NW 20TH CT","SUNRISE","FL",33322,26.1505037040001,-80.251417121,165,"8011 NW 20TH CT, SUNRISE, FL, 33322","Match","Exact","8011 NW 20TH CT, SUNRISE, FL, 33322",114704194,"R"
871666,"8011 NW 21ST CT","SUNRISE","FL",33322,26.152156324,-80.251462762,166,"8011 NW 21ST CT, SUNRISE, FL, 33322","Match","Exact","8011 NW 21ST CT, SUNRISE, FL, 33322",114704170,"R"
871667,"8011 NW 46TH ST","OCALA","FL",34482,29.23492265,-82.25144589,167,"8011 NW 46TH ST, OCALA, FL, 34482","Match","Exact","8011 NW 46TH ST, OCALA, FL, 34482",116748427,"R"
871668,"8011 OAKWIND COURT","WESTERVILLE","OH",43081,40.128229735,-82.998941332,168,"8011 OAKWIND COURT, WESTERVILLE, OH, 43081","Match","Exact","8011 OAKWIND CT, WESTERVILLE, OH, 43081",135623449,"R"
871669,"8011 POSTOAK ROAD","POTOMAC","MD",20854,39.0525461400001,-77.166229098,169,"8011 POSTOAK ROAD, POTOMAC, MD, 20854","Match","Exact","8011 POSTOAK RD, POTOMAC, MD, 20854",62054190,"R"
871670,"8011 RAVENNA AVE NE","SEATTLE","WA",98115,47.686501406,-122.302452252,170,"8011 RAVENNA AVE NE, SEATTLE, WA, 98115","Match","Exact","8011 RAVENNA AVE NE, SEATTLE, WA, 98115",186991014,"L"
871671,"8011 S ABERDEEN","CHICAGO","IL",60620,41.7484083750001,-87.6512450659999,171,"8011 S ABERDEEN, CHICAGO, IL, 60620","Match","Non_Exact","8011 S ABERDEEN ST, CHICAGO, IL, 60620",111831462,"L"
871672,"8011 S CONSTANCE AVE","CHICAGO","IL",60617,41.7494293180001,-87.579995883,172,"8011 S CONSTANCE AVE, CHICAGO, IL, 60617","Match","Exact","8011 S CONSTANCE AVE, CHICAGO, IL, 60617",111775250,"L"
871673,"8011 S MARSHFEILD APT 1","CHICAGO","IL",60620,NA,NA,173,"8011 S MARSHFEILD APT 1, CHICAGO, IL, 60620","No_Match",NA,NA,NA,NA
871674,"8011 S MARSHFIELD AVE","CHICAGO","IL",60620,41.7482153440001,-87.6645864019999,174,"8011 S MARSHFIELD AVE, CHICAGO, IL, 60620","Match","Exact","8011 S MARSHFIELD AVE, CHICAGO, IL, 60620",111821305,"L"
871675,"8011 S MARSHFIELD","CHICAGO","IL",60620,41.7482153440001,-87.6645864019999,175,"8011 S MARSHFIELD, CHICAGO, IL, 60620","Match","Non_Exact","8011 S MARSHFIELD AVE, CHICAGO, IL, 60620",111821305,"L"
871676,"8011 SE 37TH PLACE","MERCER ISLAND","WA",98040,47.578063646,-122.232280513,176,"8011 SE 37TH PLACE, MERCER ISLAND, WA, 98040","Match","Exact","8011 SE 37TH PL, MERCER ISLAND, WA, 98040",186606146,"R"
871677,"8011 SENDERO RIDGE DR","BOERNE","TX",78015,29.7282567020001,-98.6398318239999,177,"8011 SENDERO RIDGE DR, BOERNE, TX, 78015","Match","Exact","8011 SENDERO RIDGE DR, BOERNE, TX, 78015",101574662,"R"
871678,"8011 SOUTHGATE BLVD APT L9","N LAUDERDALE","FL",33068,26.228297218,-80.2358328569999,178,"8011 SOUTHGATE BLVD APT L9, N LAUDERDALE, FL, 33068","Match","Exact","8011 SOUTHGATE BLVD, N LAUDERDALE, FL, 33068",114691881,"L"
871679,"8011 SPIEDEN LN","PASCO","WA",99301,46.2717037690001,-119.194273935,179,"8011 SPIEDEN LN, PASCO, WA, 99301","Match","Non_Exact","8011 SPIEDEN DR, PASCO, WA, 99301",175283399,"L"
871680,"8011 SW 127TH AVENUE","MIAMI","FL",33183,25.691833252,-80.402067749,180,"8011 SW 127TH AVENUE, MIAMI, FL, 33183","Match","Exact","8011 SW 127TH AVE, MIAMI, FL, 33183",115967592,"R"
871681,"8011 TWAIN HARTE ST","LAS VEGAS","NV",89139,36.044168466,-115.210876017,181,"8011 TWAIN HARTE ST, LAS VEGAS, NV, 89139","Match","Exact","8011 TWAIN HARTE ST, LAS VEGAS, NV, 89139",612989789,"R"
871682,"8011 TWINING OAKS LANE","SPRING","TX",77379,30.017078548,-95.5356230949999,182,"8011 TWINING OAKS LANE, SPRING, TX, 77379","Match","Exact","8011 TWINING OAKS LN, SPRING, TX, 77379",96007240,"R"
871683,"8011 WIGGINS MILL RD","LUCOMA","NC",27851,35.6426029020001,-78.082381514,183,"8011 WIGGINS MILL RD, LUCOMA, NC, 27851","Match","Non_Exact","8011 WIGGINS MILL RD, LUCAMA, NC, 27851",642914357,"R"
871684,"8012 148TH AVE SE","NEW CASTLE","WA",98059,47.5300831000001,-122.143271914,184,"8012 148TH AVE SE, NEW CASTLE, WA, 98059","Match","Non_Exact","8012 148TH AVE SE, NEWCASTLE, WA, 98059",187059736,"R"
871685,"8012 2ND STREET","WELLINGTON","CO",80549,40.701324834,-105.006317494,185,"8012 2ND STREET, WELLINGTON, CO, 80549","Match","Exact","8012 2ND ST, WELLINGTON, CO, 80549",188479375,"R"
871686,"8012 AVANTI WAY","LOUISVILLE","KY",40291,38.1472227680001,-85.6121230589999,186,"8012 AVANTI WAY, LOUISVILLE, KY, 40291","Match","Exact","8012 AVANTI WAY, LOUISVILLE, KY, 40291",96860442,"R"
871687,"8012 BELLEVIEW AVE","KANSAS CITY","MO",64114,38.9831832410001,-94.601618655,187,"8012 BELLEVIEW AVE, KANSAS CITY, MO, 64114","Match","Exact","8012 BELLEVIEW AVE, KANSAS CITY, MO, 64114",91454167,"R"
871688,"8012 BRIDGEWOOD COURT","FREDERICKSBURG","VA",22407,38.279593166,-77.611342962,188,"8012 BRIDGEWOOD COURT, FREDERICKSBURG, VA, 22407","Match","Exact","8012 BRIDGEWOOD CT, FREDERICKSBURG, VA, 22407",85019375,"R"
871689,"8012 BRONCO LANE","SHERWOOD","AR",72120,34.8279623220001,-92.2114675019999,189,"8012 BRONCO LANE, SHERWOOD, AR, 72120","Match","Exact","8012 BRONCO LN, SHERWOOD, AR, 72120",636168587,"R"
871690,"8012 CANTERBURY TERRACE","MCKINNEY","TX",75070,33.1824872230001,-96.720356892,190,"8012 CANTERBURY TERRACE, MCKINNEY, TX, 75070","Match","Non_Exact","8012 CANTERBURY TER, MCKINNEY, TX, 75072",123563080,"L"
871691,"8012 CAVALIER DR","PLANO","TX",75024,33.0864418740001,-96.776346313,191,"8012 CAVALIER DR, PLANO, TX, 75024","Match","Exact","8012 CAVALIER DR, PLANO, TX, 75024",123530744,"R"
871692,"8012 CHALET PLACE","SAN DIEGO","CA",92126,32.9111513870001,-117.150814651,192,"8012 CHALET PLACE, SAN DIEGO, CA, 92126","Match","Exact","8012 CHALET PL, SAN DIEGO, CA, 92126",195301008,"L"
871693,"8012 CLARK STATION ROAD","SEVERN","MD",21144,39.123048533,-76.684252965,193,"8012 CLARK STATION ROAD, SEVERN, MD, 21144","Match","Exact","8012 CLARK STATION RD, SEVERN, MD, 21144",68196584,"R"
871694,"8012 CORK BEND LANE","INDIANAPOLIS","IN",46239,39.7176657900001,-86.025633322,194,"8012 CORK BEND LANE, INDIANAPOLIS, IN, 46239","Match","Exact","8012 CORK BEND LN, INDIANAPOLIS, IN, 46239",641063606,"L"
871695,"8012 COUNTY ROAD 405","FULTON","MO",65251,38.767523533,-91.956246253,195,"8012 COUNTY ROAD 405, FULTON, MO, 65251","Match","Exact","8012 CO RD 405, FULTON, MO, 65251",34374811,"R"
871696,"8012 CRYSTAL HAVEN LN","LAS VEGAS","NV",89123,36.0437602260001,-115.149311184,196,"8012 CRYSTAL HAVEN LN, LAS VEGAS, NV, 89123","Match","Exact","8012 CRYSTAL HAVEN LN, LAS VEGAS, NV, 89123",201902865,"L"
871697,"8012 EAST 6TH AVENUE","ANCHORAGE","AK",99504,61.2169458130001,-149.730805404,197,"8012 EAST 6TH AVENUE, ANCHORAGE, AK, 99504","Match","Exact","8012 E 6TH AVE, ANCHORAGE, AK, 99504",605177963,"R"
871698,"8012 FIELDSTONE AVE NW","ALBUQUERQUE","NM",87120,35.1104920980001,-106.732118513,198,"8012 FIELDSTONE AVE NW, ALBUQUERQUE, NM, 87120","Match","Exact","8012 FIELDSTONE AVE NW, ALBUQUERQUE, NM, 87120",206749463,"L"
871699,"8012 FOREST RIDGE DR","TUSCALOOSA","AL",35405,33.1349876260001,-87.5597422279999,199,"8012 FOREST RIDGE DR, TUSCALOOSA, AL, 35405","Match","Exact","8012 FOREST RIDGE DR, TUSCALOOSA, AL, 35405",82153410,"R"
871700,"8012 FOUR QUARTER RD","ELLIOTT CITY","MD",21043,39.2533523180001,-76.785747451,200,"8012 FOUR QUARTER RD, ELLIOTT CITY, MD, 21043","Match","Non_Exact","8012 FOUR QUARTER RD, ELLICOTT CITY, MD, 21043",619084915,"L"
871701,"8012 GLAMMORGAN LANE","MATTHEWS","NC",28104,35.137473949,-80.63409967,201,"8012 GLAMMORGAN LANE, MATTHEWS, NC, 28104","Match","Non_Exact","8012 GLAMORGAN LN, MATTHEWS, NC, 28104",14198090,"L"
871702,"8012 GRASSMOUNT CT","RICHMOND","VA",23228,37.6432205890001,-77.5154212429999,202,"8012 GRASSMOUNT CT, RICHMOND, VA, 23228","Match","Exact","8012 GRASSMOUNT CT, RICHMOND, VA, 23228",106671990,"R"
871703,"8012 HAMMOND ROAD","CHELTENHAM","PA",19012,40.0678990930001,-75.107006451,203,"8012 HAMMOND ROAD, CHELTENHAM, PA, 19012","Match","Exact","8012 HAMMOND RD, CHELTENHAM, PA, 19012",135106576,"L"
871704,"8012 LANGLEY DR","GLEN ALLEN","VA",23060,37.650943139,-77.4761524629999,204,"8012 LANGLEY DR, GLEN ALLEN, VA, 23060","Match","Exact","8012 LANGLEY DR, GLEN ALLEN, VA, 23060",106662802,"R"
871705,"8012 LOCH LANE","COLUMBIA","SC",29223,34.0654035900001,-80.933936541,205,"8012 LOCH LANE, COLUMBIA, SC, 29223","Match","Exact","8012 LOCH LN, COLUMBIA, SC, 29223",71825702,"R"
871706,"8012 LOMA VERDE AVE","CANOGA PARK","CA",91304,34.216012618,-118.589599588,206,"8012 LOMA VERDE AVE, CANOGA PARK, CA, 91304","Match","Exact","8012 LOMA VERDE AVE, CANOGA PARK, CA, 91304",141533360,"R"
871707,"8012 MACARTHUR BLVD","CABIN JOHN","MD",20818,38.974975235,-77.164064223,207,"8012 MACARTHUR BLVD, CABIN JOHN, MD, 20818","Match","Exact","8012 MACARTHUR BLVD, CABIN JOHN, MD, 20818",62057336,"L"
871708,"8012 MORNING DOVE ROAD","RALEIGH","NC",27615,35.8876008990001,-78.6415240599999,208,"8012 MORNING DOVE ROAD, RALEIGH, NC, 27615","Match","Non_Exact","8012 MOURNING DOVE RD, RALEIGH, NC, 27615",72505156,"R"
871709,"8012 NAIRN CT","BAKERSFIELD","CA",93309,35.3390865210001,-119.090987307,209,"8012 NAIRN CT, BAKERSFIELD, CA, 93309","Match","Exact","8012 NAIRN CT, BAKERSFIELD, CA, 93309",109084883,"R"
871710,"8012 NATURE TRAIL","COLUMBUS","GA",31904,32.565507202,-84.976619893,210,"8012 NATURE TRAIL, COLUMBUS, GA, 31904","Match","Exact","8012 NATURE TRL, COLUMBUS, GA, 31904",625651069,"R"
871711,"8012 NORTH LOUDEN CROSSING CT","WINDSOR","CO",80528,40.471372967,-104.983155849,211,"8012 NORTH LOUDEN CROSSING CT, WINDSOR, CO, 80528","Match","Exact","8012 N LOUDEN CROSSING CT, WINDSOR, CO, 80528",188585474,"L"
871712,"8012 NW 125 TERRACE","PARKLAND","FL",33076,26.33033149,-80.292948575,212,"8012 NW 125 TERRACE, PARKLAND, FL, 33076","Match","Exact","8012 NW 125 TER, PARKLAND, FL, 33076",635434217,"L"
871713,"8012 NW 71ST ST","OKLAHOMA CITY","OK",73132,35.5444994640001,-97.655335491,213,"8012 NW 71ST ST, OKLAHOMA CITY, OK, 73132","Match","Exact","8012 NW 71ST ST, OKLAHOMA CITY, OK, 73132",650256054,"L"
871714,"8012 OLD MONROE ROAD","BASTROP","LA",71220,32.7417304370001,-91.9143920339999,214,"8012 OLD MONROE ROAD, BASTROP, LA, 71220","Match","Exact","8012 OLD MONROE RD, BASTROP, LA, 71220",651026910,"R"
871715,"8012 PICKARD AVE NE","ALBUQUERQUE","NM",87110,35.126730649,-106.554621088,215,"8012 PICKARD AVE NE, ALBUQUERQUE, NM, 87110","Match","Exact","8012 PICKARD AVE NE, ALBUQUERQUE, NM, 87110",206713696,"R"
871716,"8012 POPPY CT","JUNEAU","AK",99801,58.4076990790001,-134.590946514,216,"8012 POPPY CT, JUNEAU, AK, 99801","Match","Exact","8012 POPPY CT, JUNEAU, AK, 99801",624078822,"R"
871717,"8012 PRESERVATION DRIVE","INDIANAPOLIS","IN",46278,39.897673969,-86.3151944639999,217,"8012 PRESERVATION DRIVE, INDIANAPOLIS, IN, 46278","Match","Exact","8012 PRESERVATION DR, INDIANAPOLIS, IN, 46278",628835495,"R"
871718,"8012 RED RIVER RUN","NORTH RICHLAND HILLS","TX",76180,32.853099038,-97.2101640129999,218,"8012 RED RIVER RUN, NORTH RICHLAND HILLS, TX, 76180","Match","Exact","8012 RED RIVER RUN, NORTH RICHLAND HILLS, TX, 76180",617672297,"R"
871719,"8012 ROOSEVELT WAY NE","SEATTLE","WA",98115,47.6871263100001,-122.317551294,219,"8012 ROOSEVELT WAY NE, SEATTLE, WA, 98115","Match","Exact","8012 ROOSEVELT WAY NE, SEATTLE, WA, 98115",186585002,"R"
871720,"8012 S 53RD AVE","LAVEEN","AZ",85339,33.373140532,-112.172563939,220,"8012 S 53RD AVE, LAVEEN, AZ, 85339","Match","Exact","8012 S 53RD AVE, LAVEEN, AZ, 85339",244001032,"L"
871721,"8012 S VERMONT AVE APT 44","LOS ANGELES","CA",90044,33.9664643450001,-118.291436945,221,"8012 S VERMONT AVE APT 44, LOS ANGELES, CA, 90044","Match","Non_Exact","8012 S VERMONT AVE, LOS ANGELES, CA, 90044",241169804,"L"
871722,"8012 SAN JACINTO COURT","NORTH RICHLAND HILLS","TX",NA,32.843976277,-97.208736847,222,"8012 SAN JACINTO COURT, NORTH RICHLAND HILLS, TX, ","Match","Exact","8012 SAN JACINTO CT, NORTH RICHLAND HILLS, TX, 76180",102099365,"R"
871723,"8012 SPARROW COVE PL","SACRAMENTO","CA",95829,38.4668600420001,-121.313126776,223,"8012 SPARROW COVE PL, SACRAMENTO, CA, 95829","Match","Exact","8012 SPARROW COVE PL, SACRAMENTO, CA, 95829",133405785,"L"
871724,"8012 STATE RD 60","SELLERSBURG","IN",47172,38.377671202,-85.762890507,224,"8012 STATE RD 60, SELLERSBURG, IN, 47172","Match","Exact","8012 OLD STATE RD 60, SELLERSBURG, IN, 47172",64876745,"L"
871725,"8012 SUNSCAPE LANE","FORT WORTH","TX",76107,32.625585749,-97.401230431,225,"8012 SUNSCAPE LANE, FORT WORTH, TX, 76107","Match","Non_Exact","8012 SUNSCAPE LN, FT WORTH, TX, 76123",101926027,"L"
871726,"8012 TERRE BLEUE BOX 79","BONNE TERRE","MO",63628,37.9408256130001,-90.517493101,226,"8012 TERRE BLEUE BOX 79, BONNE TERRE, MO, 63628","Match","Non_Exact","8012 TERRE BLEUE DR, BONNE TERRE, MO, 63628",618312961,"R"
871727,"8012 TROTTERS CHASE","ELLICOTT CITY","MD",21043,39.211972433,-76.791302975,227,"8012 TROTTERS CHASE, ELLICOTT CITY, MD, 21043","Match","Exact","8012 TROTTERS CHASE, ELLICOTT CITY, MD, 21043",652565186,"L"
871728,"8012 TURNBERRY LANE","STANLEY","NC",28164,35.439312832,-80.964564636,228,"8012 TURNBERRY LANE, STANLEY, NC, 28164","Match","Exact","8012 TURNBERRY LN, STANLEY, NC, 28164",69537754,"L"
871729,"8012 VETERAN MEMORIAL HWY","VILLE PLATTE","LA",70586,30.7110281450001,-92.4279764679999,229,"8012 VETERAN MEMORIAL HWY, VILLE PLATTE, LA, 70586","Match","Exact","8012 VETERANS MEMORIAL HWY, VILLE PLATTE, LA, 70586",13189604,"L"
871730,"8012 W ARAPAHO CT","BOISE","ID",83714,43.667053007,-116.2876259,230,"8012 W ARAPAHO CT, BOISE, ID, 83714","Match","Exact","8012 W ARAPAHO CT, BOISE, ID, 83714",616498996,"R"
871731,"8012 W WINFIELD AVE","BATON ROUGE","LA",70802,NA,NA,231,"8012 W WINFIELD AVE, BATON ROUGE, LA, 70802","No_Match",NA,NA,NA,NA
871732,"8012 WRIGHTWOOD WAY","LITHIA SPRINGS","GA",30122,33.76095517,-84.6576034399999,232,"8012 WRIGHTWOOD WAY, LITHIA SPRINGS, GA, 30122","Match","Exact","8012 WRIGHTWOOD WAY, LITHIA SPGS, GA, 30122",618465046,"R"
871733,"80122 S EDWARDS RD","HERMISTON","OR",97838,45.8577073810001,-119.204797229,233,"80122 S EDWARDS RD, HERMISTON, OR, 97838","Match","Exact","80122 S EDWARDS RD, HERMISTON, OR, 97838",170426258,"L"
871734,"80122 S EDWARDS","HERMISTON","OR",97838,45.8577073810001,-119.204797229,234,"80122 S EDWARDS, HERMISTON, OR, 97838","Match","Non_Exact","80122 S EDWARDS RD, HERMISTON, OR, 97838",170426258,"L"
871735,"8013 - 110TH STREET","BLOOMINGTON","MN",55431,NA,NA,235,"8013 - 110TH STREET, BLOOMINGTON, MN, 55431","No_Match",NA,NA,NA,NA
871736,"8013 8TH ST","SURF CITY","NC",28445,34.446087925,-77.5130223159999,236,"8013 8TH ST, SURF CITY, NC, 28445","Match","Exact","8013 8TH ST, SURF CITY, NC, 28445",14001021,"L"
871737,"8013 ALLEN DALE DR","LANDOVER","DC",20785,NA,NA,237,"8013 ALLEN DALE DR, LANDOVER, DC, 20785","No_Match",NA,NA,NA,NA
871738,"8013 BALSAM TRACE","TRUSSVILLE","AL",35173,33.656796447,-86.553265878,238,"8013 BALSAM TRACE, TRUSSVILLE, AL, 35173","Match","Exact","8013 BALSAM TRCE, TRUSSVILLE, AL, 35173",81638802,"R"
871739,"8013 BELMONT AVE","LUBBOCK","TX",79424,33.5212978700001,-101.929690744,239,"8013 BELMONT AVE, LUBBOCK, TX, 79424","Match","Exact","8013 BELMONT AVE, LUBBOCK, TX, 79424",185252198,"L"
871740,"8013 CIMMARON RIDGE RD","LAS VEGAS","NV",89128,NA,NA,240,"8013 CIMMARON RIDGE RD, LAS VEGAS, NV, 89128","No_Match",NA,NA,NA,NA
871741,"8013 CLINTON AVE","LUBBOCK","TX",79424,33.521222858,-101.932668745,241,"8013 CLINTON AVE, LUBBOCK, TX, 79424","Match","Exact","8013 CLINTON AVE, LUBBOCK, TX, 79424",185252184,"L"
871742,"8013 COBBLESTONE","AUSTIN","TX",78735,30.2550291680001,-97.883090415,242,"8013 COBBLESTONE, AUSTIN, TX, 78735","Match","Exact","8013 COBBLESTONE, AUSTIN, TX, 78735",64016529,"L"
871743,"8013 DRAWBRIDGE RD","SMYRNA","GA",30080,33.8608996670001,-84.509249733,243,"8013 DRAWBRIDGE RD, SMYRNA, GA, 30080","Match","Exact","8013 DRAWBRIDGE RD, SMYRNA, GA, 30080",17181541,"R"
871744,"8013 E 127TH TERR","GRANDVIEW","MO",64030,38.8926158400001,-94.500310466,244,"8013 E 127TH TERR, GRANDVIEW, MO, 64030","Match","Exact","8013 127TH TER, GRANDVIEW, MO, 64030",91477721,"R"
871745,"8013 EDINBURGH LANE","TAKOMA PARK","MD",20912,38.988046448,-77.004197916,245,"8013 EDINBURGH LANE, TAKOMA PARK, MD, 20912","Match","Exact","8013 EDINBURGH LN, TAKOMA PARK, MD, 20912",62069424,"R"
871746,"8013 FLAMBEAU STREET","LAS VEGAS","NV",89131,36.306900354,-115.272025645,246,"8013 FLAMBEAU STREET, LAS VEGAS, NV, 89131","Match","Exact","8013 FLAMBEAU ST, LAS VEGAS, NV, 89131",612679935,"L"
871747,"8013 HILLERS RD","OKLAHOMA CITY","OK",73132,35.5518894680001,-97.6670677709999,247,"8013 HILLERS RD, OKLAHOMA CITY, OK, 73132","Match","Exact","8013 HILLERS RD, OKLAHOMA CITY, OK, 73132",646817940,"R"
871748,"8013 HOMEFIELD DRIVE","LANDOVER","MD",20785,38.8969676930001,-76.868400583,248,"8013 HOMEFIELD DRIVE, LANDOVER, MD, 20785","Match","Exact","8013 HOMEFIELD DR, LANDOVER, MD, 20785",624704785,"R"
871749,"8013 JADE DR SW","LAKEWOOD","WA",98498,47.188019228,-122.544110999,249,"8013 JADE DR SW, LAKEWOOD, WA, 98498","Match","Exact","8013 JADE DR SW, LAKEWOOD, WA, 98498",184621266,"R"
871750,"8013 LEEANDER ST","HOUSTON","TX",77012,29.7123789020001,-95.279363351,250,"8013 LEEANDER ST, HOUSTON, TX, 77012","Match","Non_Exact","8013 LEANDER ST, HOUSTON, TX, 77012",96085588,"L"
871751,"8013 LINGAY DRIVE","ALLISON PARK","PA",15101,40.555101639,-79.992408589,251,"8013 LINGAY DRIVE, ALLISON PARK, PA, 15101","Match","Exact","8013 LINGAY DR, ALLISON PARK, PA, 15101",636374271,"L"
871752,"8013 LLOYD ALLYNS WAY","RALEIGH","NC",27615,35.89245799,-78.65393684,252,"8013 LLOYD ALLYNS WAY, RALEIGH, NC, 27615","Match","Exact","8013 LLOYD ALLYNS WAY, RALEIGH, NC, 27615",612818910,"L"
871753,"8013 MEMPHIS ARLINGTON ROAD","BARTLETT","TN",38133,35.233794334,-89.7958003049999,253,"8013 MEMPHIS ARLINGTON ROAD, BARTLETT, TN, 38133","Match","Exact","8013 MEMPHIS ARLINGTON RD, BARTLETT, TN, 38133",647238415,"R"
871754,"8013 N WALNUT CREEK DRIVE","URBANDALE","IA",50322,41.6197938380001,-93.7289131919999,254,"8013 N WALNUT CREEK DRIVE, URBANDALE, IA, 50322","Match","Exact","8013 N WALNUT CREEK DR, URBANDALE, IA, 50322",65776354,"L"
871755,"8013 NOEL ST","ALEXANDRIA","VA",22309,38.7386733490001,-77.118201729,255,"8013 NOEL ST, ALEXANDRIA, VA, 22309","Match","Exact","8013 NOEL ST, ALEXANDRIA, VA, 22309",75986270,"L"
871756,"8013 OLEAN RD","HOLLAND","NY",14080,42.6628906550001,-78.5559305,256,"8013 OLEAN RD, HOLLAND, NY, 14080","Match","Exact","8013 OLEAN RD, HOLLAND, NY, 14080",48278431,"R"
871757,"8013 OLEAN ROAD","HOLLAND","NY",14080,42.6628906550001,-78.5559305,257,"8013 OLEAN ROAD, HOLLAND, NY, 14080","Match","Exact","8013 OLEAN RD, HOLLAND, NY, 14080",48278431,"R"
871758,"8013 PERRY CREEK RD","RALEIGH","NC",27616,35.8854137180001,-78.5533653909999,258,"8013 PERRY CREEK RD, RALEIGH, NC, 27616","Match","Exact","8013 PERRY CREEK RD, RALEIGH, NC, 27616",647279871,"L"
871759,"8013 S BYERS LN","STONEWOOD","WV",26301,39.244183992,-80.295457303,259,"8013 S BYERS LN, STONEWOOD, WV, 26301","Match","Non_Exact","8013 N BYERS LN, STONEWOOD, WV, 26301",53324540,"R"
871760,"8013 S HARPER","CHICAGO","IL",60619,NA,NA,260,"8013 S HARPER, CHICAGO, IL, 60619","No_Match",NA,NA,NA,NA
871761,"8013 SUNSTONE CIRCLE","PIKESVILLE","MD",21208,39.388146088,-76.7193526199999,261,"8013 SUNSTONE CIRCLE, PIKESVILLE, MD, 21208","Match","Exact","8013 SUNSTONE CIR, PIKESVILLE, MD, 21208",191507468,"L"
871762,"8013 TOSOMOCK LANE","HUNTERSVILLE","NC",28078,35.382376353,-80.794357217,262,"8013 TOSOMOCK LANE, HUNTERSVILLE, NC, 28078","Match","Exact","8013 TOSOMOCK LN, HUNTERSVILLE, NC, 28078",641593568,"L"
871763,"8013 W BECKTON","GARDEN CITY","ID",83714,43.6587285530001,-116.282687292,263,"8013 W BECKTON, GARDEN CITY, ID, 83714","Match","Non_Exact","8013 W BECKTON LN, GARDEN CITY, ID, 83714",117879557,"R"
871764,"8013 W CHURCHILL","NILES","IL",60714,42.0443880490001,-87.826250649,264,"8013 W CHURCHILL, NILES, IL, 60714","Match","Non_Exact","8013 W CHURCHILL AVE, NILES, IL, 60714",111731596,"L"
871765,"8013 WHITEHAWK HILL RD","CHARLOTTE","NC",28273,NA,NA,265,"8013 WHITEHAWK HILL RD, CHARLOTTE, NC, 28273","No_Match",NA,NA,NA,NA
871766,"8013 WOODED RIDGE DR","LOUISVILLE","KY",40214,38.1428253880001,-85.808129563,266,"8013 WOODED RIDGE DR, LOUISVILLE, KY, 40214","Match","Exact","8013 WOODED RIDGE DR, LOUISVILLE, KY, 40214",631711242,"L"
871767,"8014 230TH ST CT E","GRAHAM","WA",98338,47.0472939140001,-122.32314089,267,"8014 230TH ST CT E, GRAHAM, WA, 98338","Match","Exact","8014 230TH STREET CT E, GRAHAM, WA, 98338",645381330,"L"
871768,"8014 34TH AVE S","SEATTLE","WA",98118,47.5308435370001,-122.289364937,268,"8014 34TH AVE S, SEATTLE, WA, 98118","Match","Exact","8014 34TH AVE S, SEATTLE, WA, 98118",186670236,"L"
871769,"8014 361ST AVENUE NE","CARNATION","WA",98014,47.673115785,-121.856060666,269,"8014 361ST AVENUE NE, CARNATION, WA, 98014","Match","Exact","8014 361ST AVE NE, CARNATION, WA, 98014",186699497,"R"
871770,"8014 45TH AVE NE","SEATTLE","WA",98115,47.686955358,-122.27985907,270,"8014 45TH AVE NE, SEATTLE, WA, 98115","Match","Exact","8014 45TH AVE NE, SEATTLE, WA, 98115",653739137,"R"
871771,"8014 48TH PL SW","MUKILTEO","WA",98275,47.9253126180001,-122.299345206,271,"8014 48TH PL SW, MUKILTEO, WA, 98275","Match","Non_Exact","8014 48TH PL W, MUKILTEO, WA, 98275",608937353,"R"
871772,"8014 51ST AVENUE NORTH","NEW HOPE","MN",55428,45.0469436490001,-93.381708255,272,"8014 51ST AVENUE NORTH, NEW HOPE, MN, 55428","Match","Exact","8014 51ST AVE N, NEW HOPE, MN, 55428",43830509,"R"
871773,"8014 ASHLAND AVE","MANASSAS","VA",20109,38.782861015,-77.5044843329999,273,"8014 ASHLAND AVE, MANASSAS, VA, 20109","Match","Exact","8014 ASHLAND AVE, MANASSAS, VA, 20109",207149878,"R"
871774,"8014 AVANTI WAY","LOUISVILLE","KY",40291,38.1472173400001,-85.612074698,274,"8014 AVANTI WAY, LOUISVILLE, KY, 40291","Match","Exact","8014 AVANTI WAY, LOUISVILLE, KY, 40291",96860442,"R"
871775,"8014 BENT FORK PARK ST","RICHMOND","TX",77406,NA,NA,275,"8014 BENT FORK PARK ST, RICHMOND, TX, 77406","No_Match",NA,NA,NA,NA
871776,"8014 CLEANWATER CROSSING","HUMBLE","TX",77396,NA,NA,276,"8014 CLEANWATER CROSSING, HUMBLE, TX, 77396","No_Match",NA,NA,NA,NA
871777,"8014 COLLIVER DRIVE","MAYSVILLE","KY",41056,38.6052046900001,-83.744966313,277,"8014 COLLIVER DRIVE, MAYSVILLE, KY, 41056","Match","Exact","8014 COLLIVER DR, MAYSVILLE, KY, 41056",58606728,"L"
871778,"8014 COLONY CHASE CT","RICHMOND","TX",77407,NA,NA,278,"8014 COLONY CHASE CT, RICHMOND, TX, 77407","No_Match",NA,NA,NA,NA
871779,"8014 COMAL ST","HOUSTON","TX",77051,29.6754018990001,-95.3704442759999,279,"8014 COMAL ST, HOUSTON, TX, 77051","Match","Exact","8014 COMAL ST, HOUSTON, TX, 77051",96088430,"R"
871780,"8014 CUMING HWY SUITE 403-167","CANTON","GA",30115,34.25410014,-84.359531728,280,"8014 CUMING HWY SUITE 403-167, CANTON, GA, 30115","Match","Non_Exact","8014 CUMMING HWY, CANTON, GA, 30115",632660582,"R"
871781,"8014 CUMMING HWY","CANTON","GA",30115,34.25410014,-84.359531728,281,"8014 CUMMING HWY, CANTON, GA, 30115","Match","Exact","8014 CUMMING HWY, CANTON, GA, 30115",632660582,"R"
871782,"8014 ESCALON AVENUE","PASEDENA","MD",21122,39.1305786630001,-76.5534673289999,282,"8014 ESCALON AVENUE, PASEDENA, MD, 21122","Match","Non_Exact","8014 ESCALON AVE, PASADENA, MD, 21122",68198008,"L"
871783,"8014 GREGORY LANE","SCHENECTADY","NY",12303,42.7419408600001,-73.9370402769999,283,"8014 GREGORY LANE, SCHENECTADY, NY, 12303","Match","Exact","8014 GREGORY LN, SCHENECTADY, NY, 12303",18334356,"R"
871784,"8014 HWY 55 STE 405","GOLDEN VALLEY","MN",55427,NA,NA,284,"8014 HWY 55 STE 405, GOLDEN VALLEY, MN, 55427","No_Match",NA,NA,NA,NA
871785,"8014 N KEDVALE AVE","SKOKIE","IL",60076,42.026993265,-87.731792545,285,"8014 N KEDVALE AVE, SKOKIE, IL, 60076","Match","Exact","8014 KEDVALE AVE, SKOKIE, IL, 60076",605257322,"L"
871786,"8014 NE 103RD CT","VANCOUVER","WA",98662,45.6806992750001,-122.567533243,286,"8014 NE 103RD CT, VANCOUVER, WA, 98662","Match","Exact","8014 NE 103RD CT, VANCOUVER, WA, 98662",158362663,"L"
871787,"8014 NW 33RD STREET","BETHANY","OK",73008,35.5050561150001,-97.654887233,287,"8014 NW 33RD STREET, BETHANY, OK, 73008","Match","Exact","8014 NW 33RD ST, BETHANY, OK, 73008",100389287,"L"
871788,"8014 OLSON MEMORIAL HWY 55 STE 553","GOLDEN VALLEY","MN",55427,NA,NA,288,"8014 OLSON MEMORIAL HWY 55 STE 553, GOLDEN VALLEY, MN, 55427","No_Match",NA,NA,NA,NA
871789,"8014 PALM LAKE DR","ORLANDO","FL",32819,28.4773930690001,-81.493274533,289,"8014 PALM LAKE DR, ORLANDO, FL, 32819","Match","Exact","8014 PALM LAKE DR, ORLANDO, FL, 32819",94337358,"L"
871790,"8014 PATUXENT LANDING LOOP","LAUREL","MD",20724,NA,NA,290,"8014 PATUXENT LANDING LOOP, LAUREL, MD, 20724","No_Match",NA,NA,NA,NA
871791,"8014 PATUXENT LANDING LOOP","LAUREL","MD",20821,NA,NA,291,"8014 PATUXENT LANDING LOOP, LAUREL, MD, 20821","No_Match",NA,NA,NA,NA
871792,"8014 PINE HOLLOW DRIVE","MOUNT DORA","FL",32757,28.8249493910001,-81.6123972999999,292,"8014 PINE HOLLOW DRIVE, MOUNT DORA, FL, 32757","Match","Exact","8014 PINE HOLLOW DR, MOUNT DORA, FL, 32757",94153781,"R"
871793,"8014 SOUTH FM 565 ROAD","COVE","TX",77523,NA,NA,293,"8014 SOUTH FM 565 ROAD, COVE, TX, 77523","No_Match",NA,NA,NA,NA
871794,"8014 SOUTH ONEIDA CT","CENTENIAL","CO",80112,39.572280968,-104.909781466,294,"8014 SOUTH ONEIDA CT, CENTENIAL, CO, 80112","Match","Non_Exact","8014 S ONEIDA CT, CENTENNIAL, CO, 80112",177538163,"R"
871795,"8014 STATE ROAD 52","HUDSON","FL",34667,28.3312364290001,-82.68178782,295,"8014 STATE ROAD 52, HUDSON, FL, 34667","Match","Exact","8014 STATE RD 52, HUDSON, FL, 34667",640796029,"L"
871796,"8014 SUNSET CIR","GRANDVIEW","MO",64030,38.902705434,-94.498529224,296,"8014 SUNSET CIR, GRANDVIEW, MO, 64030","Match","Exact","8014 SUNSET CIR, GRANDVIEW, MO, 64030",91477707,"L"
871797,"8014 WARREN DR NW","GIG HARBOR","WA",98335,47.281318948,-122.646979008,297,"8014 WARREN DR NW, GIG HARBOR, WA, 98335","Match","Exact","8014 WARREN DR NW, GIG HARBOR, WA, 98335",184730974,"R"
871798,"8014 WHEELING PIKE","JONESBORO","IN",46938,40.4382416980001,-85.552496189,298,"8014 WHEELING PIKE, JONESBORO, IN, 46938","Match","Exact","8014 WHEELING PIKE, JONESBORO, IN, 46938",95018354,"L"
871799,"8014","GRAHAM","WA",98338,NA,NA,299,"8014, GRAHAM, WA, 98338","No_Match",NA,NA,NA,NA
871800,"80145 POLO RIDGE RD","WARRENTON","OR",97146,46.0592209390001,-123.918071742,300,"80145 POLO RIDGE RD, WARRENTON, OR, 97146","Match","Exact","80145 POLO RIDGE RD, WARRENTON, OR, 97146",651271503,"R"
871801,"8015 125TH STREET","SEMINOLE","FL",33772,27.8455294510001,-82.811675134,301,"8015 125TH STREET, SEMINOLE, FL, 33772","Match","Exact","8015 125TH ST, SEMINOLE, FL, 33772",124690369,"R"
871802,"8015 135TH PL NW","TULALIP","WA",98271,48.1171596280001,-122.342220993,302,"8015 135TH PL NW, TULALIP, WA, 98271","Match","Exact","8015 135TH PL NW, TULALIP, WA, 98271",187776044,"L"
871803,"8015 66TH STREET COURT","COTTAGE GROVE","MN",55016,44.854471366,-92.942632797,303,"8015 66TH STREET COURT, COTTAGE GROVE, MN, 55016","Match","Non_Exact","8015 66TH STREET CT S, COTTAGE GROVE, MN, 55016",97786378,"R"
871804,"8015 BANDERA STE 103","SAN ANTONIO","TX",78250,29.517448431,-98.636200738,304,"8015 BANDERA STE 103, SAN ANTONIO, TX, 78250","Match","Non_Exact","8015 BANDERA RD, SAN ANTONIO, TX, 78250",101737670,"L"
871805,"8015 BEARDSLEY AVENUE","BLACKLICK","OH",43004,40.01144322,-82.796170606,305,"8015 BEARDSLEY AVENUE, BLACKLICK, OH, 43004","Match","Exact","8015 BEARDSLEY AVE, BLACKLICK, OH, 43004",218700273,"L"
871806,"8015 CASTLEBERRY FARMS DR","GAINESVILLE","GA",30506,34.291344936,-84.001672804,306,"8015 CASTLEBERRY FARMS DR, GAINESVILLE, GA, 30506","Match","Exact","8015 CASTLEBERRY FARMS DR, GAINESVILLE, GA, 30506",70191142,"L"
871807,"8015 CEDAR GLENN RD","CHARLOTTE","NC",28212,35.1591144120001,-80.749183923,307,"8015 CEDAR GLENN RD, CHARLOTTE, NC, 28212","Match","Non_Exact","8015 CEDAR GLEN DR, CHARLOTTE, NC, 28212",70493381,"L"
871808,"8015 DOUGLAS AVENUE SE","SNOQUALMIE","WA",98065,47.528794003,-121.876901723,308,"8015 DOUGLAS AVENUE SE, SNOQUALMIE, WA, 98065","Match","Exact","8015 DOUGLAS AVE SE, SNOQUALMIE, WA, 98065",239779466,"L"
871809,"8015 EVERETT BASIN CT","LAS VEGAS","NV",89113,36.04248585,-115.255587315,309,"8015 EVERETT BASIN CT, LAS VEGAS, NV, 89113","Match","Exact","8015 EVERETT BASIN CT, LAS VEGAS, NV, 89113",612678012,"R"
871810,"8015 GANNON AVENUE","SAINT LOUIS","MO",63130,38.660974933,-90.344860209,310,"8015 GANNON AVENUE, SAINT LOUIS, MO, 63130","Match","Exact","8015 GANNON AVE, SAINT LOUIS, MO, 63130",100133289,"R"
871811,"8015 GLEN VALLEY DRIVE","HOUSTON","TX",77061,29.6779837030001,-95.275281612,311,"8015 GLEN VALLEY DRIVE, HOUSTON, TX, 77061","Match","Exact","8015 GLEN VALLEY DR, HOUSTON, TX, 77061",96092825,"L"
871812,"8015 GOOSE RIDGE ROAD","OWENS CROSS ROADS","AL",35763,NA,NA,312,"8015 GOOSE RIDGE ROAD, OWENS CROSS ROADS, AL, 35763","Tie",NA,NA,NA,NA
871813,"8015 GRASSLAND CT","FORT WAYNE","IN",46825,41.1539971060001,-85.107165875,313,"8015 GRASSLAND CT, FORT WAYNE, IN, 46825","Match","Exact","8015 GRASSLAND CT, FORT WAYNE, IN, 46825",6397428,"L"
871814,"8015 GUALT ST","AUSTIN","TX",78757,30.3521642790001,-97.7171371759999,314,"8015 GUALT ST, AUSTIN, TX, 78757","Match","Non_Exact","8015 GAULT ST, AUSTIN, TX, 78757",63931214,"R"
871815,"8015 HIGHSAW TRAIL","FRANKSTON","TX",75763,32.1339146610001,-95.4847421329999,315,"8015 HIGHSAW TRAIL, FRANKSTON, TX, 75763","Match","Exact","8015 HIGHSAW TRL, FRANKSTON, TX, 75763",125809400,"R"
871816,"8015 INTERNATIONAL DRIVE SUITE 523","ORLANDO","FL",32819,28.4496951190001,-81.47085349,316,"8015 INTERNATIONAL DRIVE SUITE 523, ORLANDO, FL, 32819","Match","Exact","8015 INTERNATIONAL DR, ORLANDO, FL, 32819",637914513,"L"
871817,"8015 LEHMAN RD","PIQUA","OH",45356,40.2276483050001,-84.285461024,317,"8015 LEHMAN RD, PIQUA, OH, 45356","Match","Exact","8015 LEHMAN RD, PIQUA, OH, 45356",52235100,"L"
871818,"8015 LOS PINOS BLVD","CORAL GABLES","FL",33143,25.697034199,-80.263831667,318,"8015 LOS PINOS BLVD, CORAL GABLES, FL, 33143","Match","Exact","8015 LOS PINOS BLVD, CORAL GABLES, FL, 33143",116019558,"L"
871819,"8015 MAPLE RUN LN","KNOXVILLE","TN",37919,35.8995002780001,-84.035807432,319,"8015 MAPLE RUN LN, KNOXVILLE, TN, 37919","Match","Exact","8015 MAPLE RUN LN, KNOXVILLE, TN, 37919",42664481,"R"
871820,"8015 MCGLOTHLIN ST","JACKSONVILLE","FL",32210,30.252469578,-81.782039056,320,"8015 MCGLOTHLIN ST, JACKSONVILLE, FL, 32210","Match","Exact","8015 MCGLOTHLIN ST, JACKSONVILLE, FL, 32210",83954252,"R"
871821,"8015 MORRELL LANE","DURHAM","NC",27713,35.9000514480001,-78.9543279929999,321,"8015 MORRELL LANE, DURHAM, NC, 27713","Match","Exact","8015 MORRELL LN, DURHAM, NC, 27713",640012061,"L"
871822,"8015 NW 8TH ST A-305","MIAMI","FL",33126,25.778187824,-80.3247984069999,322,"8015 NW 8TH ST A-305, MIAMI, FL, 33126","Match","Non_Exact","8015 NW 8TH ST, MIAMI, FL, 33126",116266738,"R"
871823,"8015 PACIFIC ST","OMAHA","NE",68114,41.248791349,-96.038459985,323,"8015 PACIFIC ST, OMAHA, NE, 68114","Match","Exact","8015 PACIFIC ST, OMAHA, NE, 68114",116980910,"L"
871824,"8015 PAPAYA DRIVE","RALEIGH","NC",27613,35.890357975,-78.724578779,324,"8015 PAPAYA DRIVE, RALEIGH, NC, 27613","Match","Exact","8015 PAPAYA DR, RALEIGH, NC, 27613",72604672,"L"
871825,"8015 PINE WOOD CT","BAYTOWN","TX",77523,29.812219973,-94.843248341,325,"8015 PINE WOOD CT, BAYTOWN, TX, 77523","Match","Exact","8015 PINE WOOD CT, BAYTOWN, TX, 77523",625184321,"R"
871826,"8015 PLUM ST","NEW ORLEANS","LA",70118,29.9474076750001,-90.1282290569999,326,"8015 PLUM ST, NEW ORLEANS, LA, 70118","Match","Exact","8015 PLUM ST, NEW ORLEANS, LA, 70118",191701451,"R"
871827,"8015 RAINEY AVE","SAN DIEGO","CA",91942,NA,NA,327,"8015 RAINEY AVE, SAN DIEGO, CA, 91942","No_Match",NA,NA,NA,NA
871828,"8015 RAVENS POINT","RICHMOND","TX",77406,29.6624541050001,-95.746733932,328,"8015 RAVENS POINT, RICHMOND, TX, 77406","Match","Non_Exact","8015 RAVENS POINT DR, RICHMOND, TX, 77406",625666886,"L"
871829,"8015 ROSWELL ROAD APT B","SANDY SPRINGS","GA",30350,33.9744199080001,-84.355144142,329,"8015 ROSWELL ROAD APT B, SANDY SPRINGS, GA, 30350","Match","Exact","8015 ROSWELL RD, SANDY SPRINGS, GA, 30350",609008671,"R"
871830,"8015 ROYAL BIRKDALE CIR","LAKEWOOD RANCH","FL",34202,27.3944403620001,-82.420440372,330,"8015 ROYAL BIRKDALE CIR, LAKEWOOD RANCH, FL, 34202","Match","Exact","8015 ROYAL BIRKDALE CIR, LAKEWOOD RCH, FL, 34202",16275899,"L"
871831,"8015 ROYAL BIRKDALE CIRCLE","LAKEWOOD RANCH","FL",34202,27.3944403620001,-82.420440372,331,"8015 ROYAL BIRKDALE CIRCLE, LAKEWOOD RANCH, FL, 34202","Match","Exact","8015 ROYAL BIRKDALE CIR, LAKEWOOD RCH, FL, 34202",16275899,"L"
871832,"8015 S JUSTINE ST","CHICAGO","IL",60620,41.748184646,-87.662156897,332,"8015 S JUSTINE ST, CHICAGO, IL, 60620","Match","Exact","8015 S JUSTINE ST, CHICAGO, IL, 60620",111821320,"L"
871833,"8015 S PAINTER AVENUE","WHITTIER","CA",90602,NA,NA,333,"8015 S PAINTER AVENUE, WHITTIER, CA, 90602","No_Match",NA,NA,NA,NA
871834,"8015 S PERRY","CHICAO","IL",60620,NA,NA,334,"8015 S PERRY, CHICAO, IL, 60620","No_Match",NA,NA,NA,NA
871835,"8015 S SAWYER AVE","CHICAGO","IL",60652,41.747591233,-87.703541661,335,"8015 S SAWYER AVE, CHICAGO, IL, 60652","Match","Exact","8015 S SAWYER AVE, CHICAGO, IL, 60652",111819904,"L"
871836,"8015 SHOAL CREEK BLVD SUITE 103","AUSTIN","TX",78757,30.36383728,-97.739678398,336,"8015 SHOAL CREEK BLVD SUITE 103, AUSTIN, TX, 78757","Match","Exact","8015 SHOAL CREEK BLVD, AUSTIN, TX, 78757",63929893,"R"
871837,"8015 SILVER GROVE","SAN ANTONIO","TX",78254,29.516000192,-98.7229345979999,337,"8015 SILVER GROVE, SAN ANTONIO, TX, 78254","Match","Exact","8015 SILVER GROVE, SAN ANTONIO, TX, 78254",619972335,"L"
871838,"8015 SOUTH PERRY","CHICAGO","IL",60621,NA,NA,338,"8015 SOUTH PERRY, CHICAGO, IL, 60621","No_Match",NA,NA,NA,NA
871839,"8015 SUNDOWN LANE","BARTLETT","TN",38133,35.219895665,-89.7949323289999,339,"8015 SUNDOWN LANE, BARTLETT, TN, 38133","Match","Exact","8015 SUNDOWN LN, BARTLETT, TN, 38133",72963992,"R"
871840,"8015 TIGER COVE","NAPLES","FL",34113,26.0844124660001,-81.6894748349999,340,"8015 TIGER COVE, NAPLES, FL, 34113","Match","Exact","8015 TIGER COVE, NAPLES, FL, 34113",115156457,"R"
871841,"8015 VANNESS WAY","INDIANAPOLIS","IN",46240,39.902364387,-86.1232151729999,341,"8015 VANNESS WAY, INDIANAPOLIS, IN, 46240","Match","Non_Exact","8015 VAN NESS WAY, INDIANAPOLIS, IN, 46240",108024868,"R"
871842,"8015 VIA HACIENDA","PALM BEACH GARDENS","FL",33418,26.790572619,-80.1104392089999,342,"8015 VIA HACIENDA, PALM BEACH GARDENS, FL, 33418","Match","Exact","8015 VIA HACIENDA, PALM BEACH GARDENS, FL, 33418",115354391,"R"
871843,"8015 W ALAMEDA AVENUE SUITE 70","LAKEWOOD","CO",80226,39.711022373,-105.086845287,343,"8015 W ALAMEDA AVENUE SUITE 70, LAKEWOOD, CO, 80226","Match","Non_Exact","8015 W ALAMEDA AVE, LAKEWOOD, CO, 80226",177320080,"R"
871844,"8015 W CENTER RD","OMAHA","NE",68124,41.2342710450001,-96.0372469279999,344,"8015 W CENTER RD, OMAHA, NE, 68124","Match","Exact","8015 W CENTER RD, OMAHA, NE, 68124",651331798,"R"
871845,"8015 WEST COUNTY ROAD 400 SOUTH","NORTH VERNON","IN",47265,38.9254864150001,-85.7592524949999,345,"8015 WEST COUNTY ROAD 400 SOUTH, NORTH VERNON, IN, 47265","Match","Exact","8015 W CO RD 400 S, NORTH VERNON, IN, 47265",30114969,"L"
871846,"8015 WOODED RIDGE DRIVE","LOUISVILLE","KY",40214,38.1428848520001,-85.8081603959999,346,"8015 WOODED RIDGE DRIVE, LOUISVILLE, KY, 40214","Match","Exact","8015 WOODED RIDGE DR, LOUISVILLE, KY, 40214",631711242,"L"
871847,"8015 ZAYAS DR","PASCO","WA",99301,46.2755354980001,-119.195312842,347,"8015 ZAYAS DR, PASCO, WA, 99301","Match","Exact","8015 ZAYAS DR, PASCO, WA, 99301",175257909,"L"
871848,"8016 188TH AVE SW","ROCHESTER","WA",98579,46.8155473570001,-123.051764335,348,"8016 188TH AVE SW, ROCHESTER, WA, 98579","Match","Exact","8016 188TH AVE SW, ROCHESTER, WA, 98579",180977403,"R"
871849,"8016 34TH AVENUE N","CRYSTAL","MN",55427,45.0181822810001,-93.382214816,349,"8016 34TH AVENUE N, CRYSTAL, MN, 55427","Match","Exact","8016 34TH AVE N, CRYSTAL, MN, 55427",43830747,"R"
871850,"8016 ADVANTAGE LANE","LANDOVER","MD",20785,38.89921666,-76.8685160539999,350,"8016 ADVANTAGE LANE, LANDOVER, MD, 20785","Match","Exact","8016 ADVANTAGE LN, LANDOVER, MD, 20785",624431286,"R"
871851,"8016 AGRON STREET","PARKVILLE","MO",64152,39.1996419820001,-94.663275519,351,"8016 AGRON STREET, PARKVILLE, MO, 64152","Match","Exact","8016 AGRON ST, PARKVILLE, MO, 64152",39707762,"L"
871852,"8016 CORTLAND","LOUISVILLE","KY",40228,38.1317070760001,-85.622317226,352,"8016 CORTLAND, LOUISVILLE, KY, 40228","Match","Non_Exact","8016 CORTLAND DR, LOUISVILLE, KY, 40228",96860982,"R"
871853,"8016 DERBY LANE","OWINGS MILLS","MD",21117,39.4025995440001,-76.758993322,353,"8016 DERBY LANE, OWINGS MILLS, MD, 21117","Match","Exact","8016 DERBY LN, OWINGS MILLS, MD, 21117",191501201,"L"
871854,"8016 DETROIT AVENUE APT 105","CLEVELAND","HI",44102,NA,NA,354,"8016 DETROIT AVENUE APT 105, CLEVELAND, HI, 44102","No_Match",NA,NA,NA,NA
871855,"8016 GABRIELS BEND DR","RALEIGH","NC",27612,35.877354714,-78.741601004,355,"8016 GABRIELS BEND DR, RALEIGH, NC, 27612","Match","Exact","8016 GABRIELS BEND DR, RALEIGH, NC, 27612",72615394,"R"
871856,"8016 LOCH LANE","COLUMBIA","SC",29223,34.0650367270001,-80.933887783,356,"8016 LOCH LANE, COLUMBIA, SC, 29223","Match","Exact","8016 LOCH LN, COLUMBIA, SC, 29223",71825817,"R"
871857,"8016 MARLYN CT SW","OLYMPIA","WA",98512,46.969802472,-122.977158581,357,"8016 MARLYN CT SW, OLYMPIA, WA, 98512","Match","Non_Exact","8016 MARILYN LN SW, OLYMPIA, WA, 98512",180965356,"L"
871858,"8016 MCGUIRE DRIVE","RALEIGH","NC",27616,35.8821911530001,-78.554492876,358,"8016 MCGUIRE DRIVE, RALEIGH, NC, 27616","Match","Exact","8016 MCGUIRE DR, RALEIGH, NC, 27616",612813607,"L"
871859,"8016 MCKENSTRY DRIVE","LAUREL","MD",20723,39.1505866250001,-76.8739533359999,359,"8016 MCKENSTRY DRIVE, LAUREL, MD, 20723","Match","Exact","8016 MCKENSTRY DR, LAUREL, MD, 20723",158925340,"R"
871860,"8016 N TOWER WAY","CITRUS SPRINGS","FL",34434,28.9800197800001,-82.472761384,360,"8016 N TOWER WAY, CITRUS SPRINGS, FL, 34434","Match","Exact","8016 N TOWER WAY, CITRUS SPRINGS, FL, 34434",86216331,"L"
871861,"8016 NW PLEASANT FORD RD","WEATHERBY LAKE","MO",64152,39.2405876300001,-94.697649683,361,"8016 NW PLEASANT FORD RD, WEATHERBY LAKE, MO, 64152","Match","Exact","8016 PLEASANT FORD RD, WEATHERBY LAKE, MO, 64152",647460188,"L"
871862,"8016 POULSON STREET","CITRUS HEIGHTS","CA",95610,38.69380147,-121.265678217,362,"8016 POULSON STREET, CITRUS HEIGHTS, CA, 95610","Match","Exact","8016 POULSON ST, CITRUS HEIGHTS, CA, 95610",133345023,"R"
871863,"8016 PRINCETON DRIVE","NAPLES","FL",34104,26.1516532910001,-81.704829092,363,"8016 PRINCETON DRIVE, NAPLES, FL, 34104","Match","Exact","8016 PRINCETON DR, NAPLES, FL, 34104",619115384,"L"
871864,"8016 RIDGECREST CIRCLE","BILOXI","MS",39532,30.4561522390001,-88.864016582,364,"8016 RIDGECREST CIRCLE, BILOXI, MS, 39532","Match","Exact","8016 RIDGECREST CIR, BILOXI, MS, 39532",89266390,"R"
871865,"8016 ROACH DR","AMARILLO","TX",79121,35.1781950700001,-101.936051971,365,"8016 ROACH DR, AMARILLO, TX, 79121","Match","Exact","8016 ROACH DR, AMARILLO, TX, 79121",182659877,"R"
871866,"8016 RUNNYMEADE DRIVE","FREDERICK","MD",21702,39.4530965960001,-77.423068407,366,"8016 RUNNYMEADE DRIVE, FREDERICK, MD, 21702","Match","Exact","8016 RUNNYMEADE DR, FREDERICK, MD, 21702",60671455,"L"
871867,"8016 S HALSTED STREET","CHICAGO","IL",60620,41.7484210440001,-87.643980734,367,"8016 S HALSTED STREET, CHICAGO, IL, 60620","Match","Exact","8016 S HALSTED ST, CHICAGO, IL, 60620",111831535,"R"
871868,"8016 S VINE WAY","CENTENNIAL","CO",80122,39.5711084230001,-104.96405771,368,"8016 S VINE WAY, CENTENNIAL, CO, 80122","Match","Exact","8016 S VINE WAY, CENTENNIAL, CO, 80122",646597879,"R"
871869,"8016 SOUTH NORMANDIE AVE","LOS ANGELES","CA",90044,33.965926677,-118.300233785,369,"8016 SOUTH NORMANDIE AVE, LOS ANGELES, CA, 90044","Match","Exact","8016 S NORMANDIE AVE, LOS ANGELES, CA, 90044",141658931,"L"
871870,"8016 SYCAMORE HILL LANE","RALEIGH","NC",27612,35.8802403610001,-78.743472786,370,"8016 SYCAMORE HILL LANE, RALEIGH, NC, 27612","Match","Exact","8016 SYCAMORE HILL LN, RALEIGH, NC, 27612",639840244,"R"
871871,"8016 W 19TH ST N","WICHITA","KS",67212,37.7191407870001,-97.4355326739999,371,"8016 W 19TH ST N, WICHITA, KS, 67212","Match","Exact","8016 W 19TH ST N, WICHITA, KS, 67212",115667336,"R"
871872,"8016 W CLAYTON DRIVE","PHOENIX","AZ",85033,33.501281519,-112.231831245,372,"8016 W CLAYTON DRIVE, PHOENIX, AZ, 85033","Match","Exact","8016 W CLAYTON DR, PHOENIX, AZ, 85033",128262845,"R"
871873,"8016 WEST VAN BECK AVENUE","MILWAUKEE","WI",53220,42.972799578,-88.013223005,373,"8016 WEST VAN BECK AVENUE, MILWAUKEE, WI, 53220","Match","Exact","8016 W VAN BECK AVE, MILWAUKEE, WI, 53220",77761028,"R"
871874,"8016 ZUNI RD NE SUITE F","ALBUQUERQUE","NM",87108,35.0727879840001,-106.558114824,374,"8016 ZUNI RD NE SUITE F, ALBUQUERQUE, NM, 87108","Match","Non_Exact","8016 ZUNI RD SE, ALBUQUERQUE, NM, 87108",206717959,"R"
871875,"8017 ABERDEEN ROAD","BETHESDA","MD",20814,38.9904178830001,-77.1152455599999,375,"8017 ABERDEEN ROAD, BETHESDA, MD, 20814","Match","Exact","8017 ABERDEEN RD, BETHESDA, MD, 20814",62058440,"R"
871876,"8017 AQUADALE DR","BOARDMAN","OH",44512,41.00501188,-80.667524855,376,"8017 AQUADALE DR, BOARDMAN, OH, 44512","Match","Exact","8017 AQUADALE DR, BOARDMAN, OH, 44512",64599184,"L"
871877,"8017 BARLOW RD","LANDOVER","DC",20785,NA,NA,377,"8017 BARLOW RD, LANDOVER, DC, 20785","No_Match",NA,NA,NA,NA
871878,"8017 BERWYN RD","SAN DIEGO","CA",92126,32.910869486,-117.151057879,378,"8017 BERWYN RD, SAN DIEGO, CA, 92126","Match","Exact","8017 BERWYN RD, SAN DIEGO, CA, 92126",195301014,"R"
871879,"8017 BEVERLY DRIVE","PRAIRIE VILLAGE","KS",66208,38.983890339,-94.655776315,379,"8017 BEVERLY DRIVE, PRAIRIE VILLAGE, KS, 66208","Match","Exact","8017 BEVERLY DR, PRAIRIE VLG, KS, 66208",91278300,"L"
871880,"8017 BUFORD COURT","RICHMOND","VA",23235,37.500773983,-77.545227223,380,"8017 BUFORD COURT, RICHMOND, VA, 23235","Match","Exact","8017 BUFORD CT, RICHMOND, VA, 23235",201533073,"R"
871881,"8017 CHEYENNE AVE","DOWNEY","CA",90242,33.9183584140001,-118.155377195,381,"8017 CHEYENNE AVE, DOWNEY, CA, 90242","Match","Exact","8017 CHEYENNE AVE, DOWNEY, CA, 90242",142773030,"L"
871882,"8017 E CHASE CT","NASHVILLE","TN",37221,36.0421327610001,-86.946003048,382,"8017 E CHASE CT, NASHVILLE, TN, 37221","Match","Exact","8017 E CHASE CT, NASHVILLE, TN, 37221",631962819,"L"
871883,"8017 GREGORY LANE","SCHENECTADY","NY",12303,42.7421413770001,-73.937120759,383,"8017 GREGORY LANE, SCHENECTADY, NY, 12303","Match","Exact","8017 GREGORY LN, SCHENECTADY, NY, 12303",18334357,"L"
871884,"8017 HAZELTIME DR","PLANO","TX",75025,33.0866620360001,-96.767127642,384,"8017 HAZELTIME DR, PLANO, TX, 75025","Match","Non_Exact","8017 HAZELTINE DR, PLANO, TX, 75025",123537980,"R"
871885,"8017 HUBBLE DRIVE","LANHAM","MD",20706,38.9953113130001,-76.8288368,385,"8017 HUBBLE DRIVE, LANHAM, MD, 20706","Match","Non_Exact","8017 HUBBLE LN, LANHAM, MD, 20706",651197567,"R"
871886,"8017 ILIFF DR","VIENNA","VA",22027,38.8910820150001,-77.2221856959999,386,"8017 ILIFF DR, VIENNA, VA, 22027","Match","Exact","8017 ILIFF DR, VIENNA, VA, 22027",75971580,"L"
871887,"8017 JEFFERSON HIGHWAY SUITE B4","BATON ROUGE","LA",70809,30.424674603,-91.104810393,387,"8017 JEFFERSON HIGHWAY SUITE B4, BATON ROUGE, LA, 70809","Match","Exact","8017 JEFFERSON HWY, BATON ROUGE, LA, 70809",637896447,"L"
871888,"8017 LABANA CT","CANTON","MI",48187,42.34296098,-83.505289419,388,"8017 LABANA CT, CANTON, MI, 48187","Match","Exact","8017 LABANA CT, CANTON, MI, 48187",95696212,"L"
871889,"8017 MOSS ROCK DR","FORT WORTH","TX",76123,32.626106679,-97.382130368,389,"8017 MOSS ROCK DR, FORT WORTH, TX, 76123","Match","Exact","8017 MOSS ROCK DR, FORT WORTH, TX, 76123",101926019,"R"
871890,"8017 MULEY","AUSTIN","TX",78759,30.414783222,-97.783612928,390,"8017 MULEY, AUSTIN, TX, 78759","Match","Non_Exact","8017 MULEY DR, AUSTIN, TX, 78759",63925783,"L"
871891,"8017 N MACARTHUR BLVD APT 2067","IRVING","TX",75063,32.9197433890001,-96.958687819,391,"8017 N MACARTHUR BLVD APT 2067, IRVING, TX, 75063","Match","Non_Exact","8017 N MACARTHUR BLVD, IRVING, TX, 75063",103245946,"L"
871892,"8017 N PADDOCK AVENUE","TAMPA","FL",33614,28.021964546,-82.489697483,392,"8017 N PADDOCK AVENUE, TAMPA, FL, 33614","Match","Exact","8017 N PADDOCK AVE, TAMPA, FL, 33614",104515105,"L"
871893,"8017 NE 86TH AVE","VANCOUVER","WA",98662,45.6801049920001,-122.584369143,393,"8017 NE 86TH AVE, VANCOUVER, WA, 98662","Match","Exact","8017 NE 86TH AVE, VANCOUVER, WA, 98662",158368315,"L"
871894,"8017 OHIO ST","DETROIT","MI",48204,42.352168158,-83.152663484,394,"8017 OHIO ST, DETROIT, MI, 48204","Match","Exact","8017 OHIO ST, DETROIT, MI, 48204",95443559,"L"
871895,"8017 PALOMINO PASS","RIVERDALE","GA",30274,33.537133554,-84.39621837,395,"8017 PALOMINO PASS, RIVERDALE, GA, 30274","Match","Exact","8017 PALOMINO PASS, RIVERDALE, GA, 30274",23331407,"R"
871896,"8017 PASEO AVELLANO","CARLSBAD","CA",92009,33.0748386220001,-117.250697363,396,"8017 PASEO AVELLANO, CARLSBAD, CA, 92009","Match","Non_Exact","8017 PSO AVELLANO, CARLSBAD, CA, 92009",195455952,"R"
871897,"8017 PINE RUN","DAPHNE","AL",36527,30.662750413,-87.877774326,397,"8017 PINE RUN, DAPHNE, AL, 36527","Match","Exact","8017 PINE RUN, DAPHNE, AL, 36527",653330954,"L"
871898,"8017 S STATE ROUTE 67","SYCAMORE","OH",44882,41.0088179430001,-83.121452239,398,"8017 S STATE ROUTE 67, SYCAMORE, OH, 44882","Match","Exact","8017 STATE RTE 67, SYCAMORE, OH, 44882",12976764,"R"
871899,"8017 SANDYWOOD LANE","BARTLETT","TN",38133,35.220717687,-89.796224856,399,"8017 SANDYWOOD LANE, BARTLETT, TN, 38133","Match","Exact","8017 SANDYWOOD LN, BARTLETT, TN, 38133",72963998,"R"
871900,"8017 SKYLARK DRIVE","COLUMBIA","SC",29209,33.961238118,-80.9180048599999,400,"8017 SKYLARK DRIVE, COLUMBIA, SC, 29209","Match","Exact","8017 SKYLARK DR, COLUMBIA, SC, 29209",71830797,"L"
871901,"8017 SPORT VIEW","LANDOVER","MD",20785,38.899081971,-76.867910175,401,"8017 SPORT VIEW, LANDOVER, MD, 20785","Match","Non_Exact","8017 SPORT VIEW RD, LANDOVER, MD, 20785",639593893,"L"
871902,"8017 STREAM SIDE COURT","FONTANA","CA",92336,34.1078971260001,-117.504028581,402,"8017 STREAM SIDE COURT, FONTANA, CA, 92336","Match","Non_Exact","8017 STREAMSIDE CT, FONTANA, CA, 92336",144708108,"R"
871903,"8017 W HATCHER ROAD","PEORIA","AZ",85345,33.570227806,-112.231631244,403,"8017 W HATCHER ROAD, PEORIA, AZ, 85345","Match","Exact","8017 W HATCHER RD, PEORIA, AZ, 85345",128415939,"R"
871904,"8018 BALSAM DR","WONDER LAKE","IL",60097,42.370625347,-88.354872385,404,"8018 BALSAM DR, WONDER LAKE, IL, 60097","Match","Exact","8018 BALSAM DR, WONDER LAKE, IL, 60097",647219370,"L"
871905,"8018 BEECH MEADOW LN","HOUSTON","TX",77083,29.691191229,-95.618986648,405,"8018 BEECH MEADOW LN, HOUSTON, TX, 77083","Match","Exact","8018 BEECH MEADOW LN, HOUSTON, TX, 77083",636884577,"R"
871906,"8018 CRAIGMONT","HUNTSVILLE","AL",35802,NA,NA,406,"8018 CRAIGMONT, HUNTSVILLE, AL, 35802","No_Match",NA,NA,NA,NA
871907,"8018 DUNCAN RANCH","RICHMOND","TX",77407,29.6860378800001,-95.737649048,407,"8018 DUNCAN RANCH, RICHMOND, TX, 77407","Match","Non_Exact","8018 DUNCAN RANCH LN, RICHMOND, TX, 77407",642961089,"R"
871908,"8018 E CREE LAKE DR S","KENDALLVILLE","IN",46755,41.503122789,-85.2702851499999,408,"8018 E CREE LAKE DR S, KENDALLVILLE, IN, 46755","Match","Exact","8018 E CREE LAKE DR S, KENDALLVILLE, IN, 46755",6596737,"R"
871909,"8018 E SANTA ANA CANYON RD","ANAHEIM","CA",92808,33.868511991,-117.751505156,409,"8018 E SANTA ANA CANYON RD, ANAHEIM, CA, 92808","Match","Exact","8018 E SANTA ANA CANYON RD, ANAHEIM, CA, 92808",651714631,"R"
871910,"8018 EAST B STREET","TACOMA","WA",98408,47.1842673940001,-122.428838907,410,"8018 EAST B STREET, TACOMA, WA, 98408","Match","Non_Exact","8018 E B ST, TACOMA, WA, 98404",184628811,"R"
871911,"8018 FOREST ASH","LIVE OAK","TX",78233,29.5397236260001,-98.3412726,411,"8018 FOREST ASH, LIVE OAK, TX, 78233","Match","Non_Exact","8018 FOREST ASH RD, LIVE OAK, TX, 78233",101545712,"R"
871912,"8018 FULMER DRIVE","KING GEORGE","VA",NA,NA,NA,412,"8018 FULMER DRIVE, KING GEORGE, VA, ","No_Match",NA,NA,NA,NA
871913,"8018 HIDDEN PARK LANE","SANDY","UT",84093,40.605605627,-111.844030748,413,"8018 HIDDEN PARK LANE, SANDY, UT, 84093","Match","Exact","8018 HIDDEN PARK LN, SANDY, UT, 84093",176146160,"R"
871914,"8018 JUNIPER CT","INDIAN TRAIL","NC",28079,35.1318632320001,-80.616665212,414,"8018 JUNIPER CT, INDIAN TRAIL, NC, 28079","Match","Exact","8018 JUNIPER CT, INDIAN TRAIL, NC, 28079",14198233,"R"
871915,"8018 KENILWORTH AVE","PARMA","OH",44129,41.414065565,-81.740347024,415,"8018 KENILWORTH AVE, PARMA, OH, 44129","Match","Exact","8018 KENILWORTH AVE, PARMA, OH, 44129",61106622,"R"
871916,"8018 MAHALA BLF","SAN ANTONIO","TX",78254,29.515358969,-98.752803875,416,"8018 MAHALA BLF, SAN ANTONIO, TX, 78254","Match","Exact","8018 MAHALA BLF, SAN ANTONIO, TX, 78254",645194872,"R"
871917,"8018 MEADOWS CT","FORT WAYNE","IN",46815,41.1072334850001,-85.037961761,417,"8018 MEADOWS CT, FORT WAYNE, IN, 46815","Match","Exact","8018 MEADOWS CT, FORT WAYNE, IN, 46815",6386201,"R"
871918,"8018 MOBUD DRIVE","HOUSTON","TX",77036,29.702393462,-95.526710938,418,"8018 MOBUD DRIVE, HOUSTON, TX, 77036","Match","Exact","8018 MOBUD DR, HOUSTON, TX, 77036",96031137,"R"
871919,"8018 MYRON RD","WAHPETON","ND",58075,46.248921323,-96.597071172,419,"8018 MYRON RD, WAHPETON, ND, 58075","Match","Exact","8018 MYRON RD, WAHPETON, ND, 58075",181269158,"L"
871920,"8018 NW 101 AVE","TAMARAC","FL",33321,26.2258705360001,-80.2871724789999,420,"8018 NW 101 AVE, TAMARAC, FL, 33321","Match","Exact","8018 NW 101ST AVE, TAMARAC, FL, 33321",608968990,"R"
871921,"8018 PRAIRIE FIELD DRIVE","SACRAMENTO","CA",95829,38.4665389400001,-121.31490974,421,"8018 PRAIRIE FIELD DRIVE, SACRAMENTO, CA, 95829","Match","Exact","8018 PRAIRIE FIELD DR, SACRAMENTO, CA, 95829",133405778,"R"
871922,"8018 S DANTE AVENUE","CHICAGO","IL",60619,41.7491972380001,-87.589430417,422,"8018 S DANTE AVENUE, CHICAGO, IL, 60619","Match","Exact","8018 S DANTE AVE, CHICAGO, IL, 60619",111775137,"R"
871923,"8018 S FAIRFIELD AVE","CHICAGO","IL",60652,41.7477209140001,-87.691350369,423,"8018 S FAIRFIELD AVE, CHICAGO, IL, 60652","Match","Exact","8018 S FAIRFIELD AVE, CHICAGO, IL, 60652",111820157,"R"
871924,"8018 S LAKERIDGE DRIVE","SEATTLE","WA",98178,47.503559194,-122.232277169,424,"8018 S LAKERIDGE DRIVE, SEATTLE, WA, 98178","Match","Non_Exact","8018 S LAKE RIDGE DR, SEATTLE, WA, 98178",186630309,"L"
871925,"8018 S MORGAN","CHICAGO","IL",60620,41.7483168260001,-87.648831682,425,"8018 S MORGAN, CHICAGO, IL, 60620","Match","Non_Exact","8018 S MORGAN ST, CHICAGO, IL, 60620",111831466,"R"
871926,"8018 S PEORIA","CHICAGO","IL",60620,41.748352997,-87.6464078079999,426,"8018 S PEORIA, CHICAGO, IL, 60620","Match","Non_Exact","8018 S PEORIA ST, CHICAGO, IL, 60620",111831519,"R"
871927,"8018 SONOMA POINTE DRIVE","COLUMBUS","GA",31909,32.549407585,-84.893096796,427,"8018 SONOMA POINTE DRIVE, COLUMBUS, GA, 31909","Match","Exact","8018 SONOMA POINTE DR, COLUMBUS, GA, 31909",636304148,"L"
871928,"8018 STATE STREET APT C","GARRETTSVILLE","OH",44231,41.286623305,-81.101003057,428,"8018 STATE STREET APT C, GARRETTSVILLE, OH, 44231","Match","Exact","8018 STATE ST, GARRETTSVILLE, OH, 44231",137549621,"R"
871929,"8018 THEOTA AVE","PARMA","OH",44129,41.413247061,-81.740371067,429,"8018 THEOTA AVE, PARMA, OH, 44129","Match","Exact","8018 THEOTA AVE, PARMA, OH, 44129",61106625,"R"
871930,"8018 W CAPITOL DRIVE SUITE 106","MILWAUKEE","WI",53222,43.089949559,-88.0127390709999,430,"8018 W CAPITOL DRIVE SUITE 106, MILWAUKEE, WI, 53222","Match","Non_Exact","8018 W CAPITOL DR, MILWAUKEE, WI, 53222",647210899,"R"
871931,"8018 W MCNAB RD","NORTH LAUDERDALE","FL",33068,26.208270342,-80.2256149689999,431,"8018 W MCNAB RD, NORTH LAUDERDALE, FL, 33068","Match","Exact","8018 W MCNAB RD, N LAUDERDALE, FL, 33068",649332866,"L"
871932,"8018 WEST 25TH STREET","ST LOUIS PARK","MN",55426,44.956285462,-93.3814506859999,432,"8018 WEST 25TH STREET, ST LOUIS PARK, MN, 55426","Match","Exact","8018 W 25TH ST, SAINT LOUIS PARK, MN, 55426",43831669,"R"
871933,"8018 WINGATE DRIVE","GLENNDALE","MD",20769,39.0018086440001,-76.815570952,433,"8018 WINGATE DRIVE, GLENNDALE, MD, 20769","Match","Non_Exact","8018 WINGATE DR, GLENN DALE, MD, 20769",639602028,"L"
871934,"8019 BLACKSTONE","CHICAGO","IL",60619,NA,NA,434,"8019 BLACKSTONE, CHICAGO, IL, 60619","No_Match",NA,NA,NA,NA
871935,"8019 CATTAIL CT","FREDERICK","MD",21701,39.4516673680001,-77.379083801,435,"8019 CATTAIL CT, FREDERICK, MD, 21701","Match","Non_Exact","8019 CAT TAIL CT, FREDERICK, MD, 21701",60698935,"R"
871936,"8019 CEDAR AVE","CLEVELAND","OH",44103,41.5000690580001,-81.631623296,436,"8019 CEDAR AVE, CLEVELAND, OH, 44103","Match","Exact","8019 CEDAR AVE, CLEVELAND, OH, 44103",61114098,"L"
871937,"8019 E SAN LUIS DR","ORANGE","CA",92869,33.7841129940001,-117.767517547,437,"8019 E SAN LUIS DR, ORANGE, CA, 92869","Match","Exact","8019 E SAN LUIS DR, ORANGE, CA, 92869",144125072,"L"
871938,"8019 FARMERS DRIVE","WEST POINT","VA",23181,37.5214456640001,-76.824218792,438,"8019 FARMERS DRIVE, WEST POINT, VA, 23181","Match","Exact","8019 FARMERS DR, WEST POINT, VA, 23181",106728177,"R"
871939,"8019 FIELDS ERTEL ROAD","CINCINNATI","OH",45269,39.2928225590001,-84.343160376,439,"8019 FIELDS ERTEL ROAD, CINCINNATI, OH, 45269","Match","Non_Exact","8019 FIELDS ERTEL RD, CINCINNATI, OH, 45249",642839283,"R"
871940,"8019 GABRIELS COURT","JESSUP","MD",20794,39.1633137110001,-76.795866046,440,"8019 GABRIELS COURT, JESSUP, MD, 20794","Match","Exact","8019 GABRIELS CT, JESSUP, MD, 20794",645268377,"L"
871941,"8019 GABRIELS CT","JESSUP","MD",20794,39.1633137110001,-76.795866046,441,"8019 GABRIELS CT, JESSUP, MD, 20794","Match","Exact","8019 GABRIELS CT, JESSUP, MD, 20794",645268377,"L"
871942,"8019 GOOSE RIDGE DRIVE SE","OWENS CROSS ROADS","AL",35763,NA,NA,442,"8019 GOOSE RIDGE DRIVE SE, OWENS CROSS ROADS, AL, 35763","Tie",NA,NA,NA,NA
871943,"8019 H WOLFF ST","WESTMINSTER","CO",80031,39.8422366830001,-105.048262832,443,"8019 H WOLFF ST, WESTMINSTER, CO, 80031","Match","Exact","8019 WOLFF ST, WESTMINSTER, CO, 80031",177371048,"R"
871944,"8019 JEAN COURT","PASADENA","MD",21122,39.1331279990001,-76.575933197,444,"8019 JEAN COURT, PASADENA, MD, 21122","Match","Exact","8019 JEAN CT, PASADENA, MD, 21122",618005692,"L"
871945,"8019 JORDAN COURT","CORAOPOLIS","PA",15108,40.4766345680001,-80.16028758,445,"8019 JORDAN COURT, CORAOPOLIS, PA, 15108","Match","Exact","8019 JORDAN CT, CORAOPOLIS, PA, 15108",617559904,"L"
871946,"8019 LANGDON STREET","PHILADELPHIA","PA",19152,40.0660736630001,-75.061727747,446,"8019 LANGDON STREET, PHILADELPHIA, PA, 19152","Match","Exact","8019 LANGDON ST, PHILADELPHIA, PA, 19152",652295797,"R"
871947,"8019 N HICKORY","KANSAS CITY","MO",64118,39.2393724730001,-94.594637973,447,"8019 N HICKORY, KANSAS CITY, MO, 64118","Match","Non_Exact","8019 N HICKORY ST, KANSAS CITY, MO, 64118",641591586,"L"
871948,"8019 NORMAN HOLLOWAY","HOUSTON","TX",77054,NA,NA,448,"8019 NORMAN HOLLOWAY, HOUSTON, TX, 77054","No_Match",NA,NA,NA,NA
871949,"8019 NW 126 TERRACE","PARKLAND","FL",33076,26.330488652,-80.293894354,449,"8019 NW 126 TERRACE, PARKLAND, FL, 33076","Match","Exact","8019 NW 126 TER, PARKLAND, FL, 33076",653214505,"L"
871950,"8019 PEBBLE CREEK LANE EAST","PONTE VEDRA BEACH","FL",32082,30.204864264,-81.396760715,450,"8019 PEBBLE CREEK LANE EAST, PONTE VEDRA BEACH, FL, 32082","Match","Exact","8019 PEBBLE CREEK LN E, PONTE VEDRA BEACH, FL, 32082",92596797,"L"
871951,"8019 PINE FALLS","HOUSTON","TX",77095,29.897268705,-95.644299346,451,"8019 PINE FALLS, HOUSTON, TX, 77095","Match","Non_Exact","8019 PINE FALLS DR, HOUSTON, TX, 77095",96015323,"R"
871952,"8019 S 117TH ST","SEATTLE","WA",98178,47.4980848590001,-122.232243947,452,"8019 S 117TH ST, SEATTLE, WA, 98178","Match","Exact","8019 S 117TH ST, SEATTLE, WA, 98178",186630390,"R"
871953,"8019 S EBERHART AVE","CHICAGO","IL",60619,41.7489020670001,-87.612429046,453,"8019 S EBERHART AVE, CHICAGO, IL, 60619","Match","Exact","8019 S EBERHART AVE, CHICAGO, IL, 60619",111772904,"L"
871954,"8019 S MEADOWVIEW CIR","TAMPA","FL",33625,28.0531530260001,-82.571703009,454,"8019 S MEADOWVIEW CIR, TAMPA, FL, 33625","Match","Exact","8019 S MEADOWVIEW CIR, TAMPA, FL, 33625",104609480,"R"
871955,"8019 S WASHTENAW","CHICAGO","IL",60652,NA,NA,455,"8019 S WASHTENAW, CHICAGO, IL, 60652","No_Match",NA,NA,NA,NA
871956,"8019 SHAMROCK DR","CONNELLY SPRINGS","NC",28612,35.7148503390001,-81.460556104,456,"8019 SHAMROCK DR, CONNELLY SPRINGS, NC, 28612","Match","Exact","8019 SHAMROCK DR, CONNELLY SPRINGS, NC, 28612",652161368,"R"
871957,"8019 SO 117TH ST","SEATTLE","WA",98178,47.498085001,-122.232252695,457,"8019 SO 117TH ST, SEATTLE, WA, 98178","Match","Exact","8019 S 117TH ST, SEATTLE, WA, 98178",186630390,"R"
871958,"8019 STATE STREET","RALSTON","NE",68127,41.202388985,-96.0385491009999,458,"8019 STATE STREET, RALSTON, NE, 68127","Match","Exact","8019 STATE ST, RALSTON, NE, 68127",116982400,"L"
871959,"8019 STONEHAVEN DRIVE","PARMA","MI",49269,42.2213872030001,-84.562095255,459,"8019 STONEHAVEN DRIVE, PARMA, MI, 49269","Match","Exact","8019 STONEHAVEN DR, PARMA, MI, 49269",17626387,"L"
871960,"8019 SUNNYVALE FOREST DR","HOUSTON","TX",77088,NA,NA,460,"8019 SUNNYVALE FOREST DR, HOUSTON, TX, 77088","No_Match",NA,NA,NA,NA
871961,"8019 W GRAND PKWY S SUITE 164","RICHMOND","TX",77407,29.661710226,-95.7376408279999,461,"8019 W GRAND PKWY S SUITE 164, RICHMOND, TX, 77407","Match","Non_Exact","8019 W GRAND PKWY S, RICHMOND, TX, 77407",648946414,"R"
871962,"8019B LAKE LOUISE","KODIAK","AK",99615,NA,NA,462,"8019B LAKE LOUISE, KODIAK, AK, 99615","Tie",NA,NA,NA,NA
871963,"801A GREEN SPRINGS ROAD","HANOVER","PA",17331,NA,NA,463,"801A GREEN SPRINGS ROAD, HANOVER, PA, 17331","Tie",NA,NA,NA,NA
871964,"801A MAIN STREET","TOMS RIVER","NJ",8753,39.9607212930001,-74.200037514,464,"801A MAIN STREET, TOMS RIVER, NJ, 8753","Match","Non_Exact","801 N MAIN ST, TOMS RIVER, NJ, 08753",203795146,"L"
871965,"801A MILLER","MT VERNON","TX",75457,33.1776942060001,-95.225435206,465,"801A MILLER, MT VERNON, TX, 75457","Match","Non_Exact","801 MILLER ST, MOUNT VERNON, TX, 75457",70360541,"R"
871966,"801A NORWOOD RD","SILVER SPRING","MD",20905,39.1205248540001,-77.023371561,466,"801A NORWOOD RD, SILVER SPRING, MD, 20905","Match","Exact","801 NORWOOD RD, SILVER SPRING, MD, 20905",636220257,"R"
871967,"801D LAWNDALE DRIVE","REIDSVILLE","NC",27320,36.3217454900001,-79.68234324,467,"801D LAWNDALE DRIVE, REIDSVILLE, NC, 27320","Match","Exact","801 LAWNDALE DR, REIDSVILLE, NC, 27320",56236579,"L"
871968,"801P LYNN STREET","CHARLOTTE","NC",28208,35.2554375190001,-80.894299174,468,"801P LYNN STREET, CHARLOTTE, NC, 28208","Match","Exact","801 LYNN ST, CHARLOTTE, NC, 28208",70581119,"L"
871969,"801WEST MADISON STREET","WATERLOO","WI",53594,NA,NA,469,"801WEST MADISON STREET, WATERLOO, WI, 53594","No_Match",NA,NA,NA,NA
871970,"802  N 46 ST","OMAHA",NA,NA,41.2668252920001,-95.983075599,470,"802  N 46 ST, OMAHA, , ","Match","Exact","802 N 46TH ST, OMAHA, NE, 68132",116978935,"L"
871971,"802 10TH AVE N 2","SAINT CLOUD","MN",56303,45.566324056,-94.1704495819999,471,"802 10TH AVE N 2, SAINT CLOUD, MN, 56303","Match","Exact","802 10TH AVE N, SAINT CLOUD, MN, 56303",107414906,"R"
871972,"802 10TH ST","BELOIT","WI",53511,42.505490722,-89.0491542349999,472,"802 10TH ST, BELOIT, WI, 53511","Match","Exact","802 10TH ST, BELOIT, WI, 53511",49856800,"L"
871973,"802 11TH AVE S UNIT A","MYRTLE BEACH","SC",29577,33.6821255340001,-78.903419073,473,"802 11TH AVE S UNIT A, MYRTLE BEACH, SC, 29577","Match","Exact","802 11TH AVE S, MYRTLE BEACH, SC, 29577",618469873,"R"
871974,"802 127TH STREET CT EAST","TACOMA","WA",98445,47.1411836280001,-122.417837243,474,"802 127TH STREET CT EAST, TACOMA, WA, 98445","Match","Exact","802 127TH ST CT E, TACOMA, WA, 98445",184742948,"R"
871975,"802 13TH AVE SO LOT 30 A","DENISON","IA",51442,42.0030994040001,-95.363008377,475,"802 13TH AVE SO LOT 30 A, DENISON, IA, 51442","Match","Exact","802 13TH AVE S, DENISON, IA, 51442",82261934,"L"
871976,"802 13TH AVE SO LOT 30","DENISON","IA",51442,42.0030994040001,-95.363008377,476,"802 13TH AVE SO LOT 30, DENISON, IA, 51442","Match","Exact","802 13TH AVE S, DENISON, IA, 51442",82261934,"L"
871977,"802 13TH STREET","CAWKER CITY","KS",67430,NA,NA,477,"802 13TH STREET, CAWKER CITY, KS, 67430","No_Match",NA,NA,NA,NA
871978,"802 17 AVE S E  - 508","MINOT","ND",58701,NA,NA,478,"802 17 AVE S E  - 508, MINOT, ND, 58701","Tie",NA,NA,NA,NA
871979,"802 1ST AVE EAST SUITE 201","PALMETTO","FL",34221,27.5185037740001,-82.562618216,479,"802 1ST AVE EAST SUITE 201, PALMETTO, FL, 34221","Match","Non_Exact","802 1ST AVE DR E, PALMETTO, FL, 34221",16272059,"L"
871980,"802 2ND AVE","NEBRASKA CITY","NE",68410,40.678469883,-95.855154957,480,"802 2ND AVE, NEBRASKA CITY, NE, 68410","Match","Exact","802 2ND AVE, NEBRASKA CITY, NE, 68410",10394728,"R"
871981,"802 3RD AVE S","COLUMBUS","MS",39703,NA,NA,481,"802 3RD AVE S, COLUMBUS, MS, 39703","No_Match",NA,NA,NA,NA
871982,"802 45TH ST NE 16-302","AUBURN","WA",98002,47.348153015,-122.221242663,482,"802 45TH ST NE 16-302, AUBURN, WA, 98002","Match","Exact","802 45TH ST NE, AUBURN, WA, 98002",239775417,"R"
871983,"802 45TH STREET NE APT 09-102","AUBURN","WA",98002,47.348153015,-122.221242663,483,"802 45TH STREET NE APT 09-102, AUBURN, WA, 98002","Match","Exact","802 45TH ST NE, AUBURN, WA, 98002",239775417,"R"
871984,"802 5TH STREET","NEW BRIGHTON","PA",15066,40.73997266,-80.31384768,484,"802 5TH STREET, NEW BRIGHTON, PA, 15066","Match","Exact","802 5TH ST, NEW BRIGHTON, PA, 15066",52559806,"R"
871985,"802 7TH STREET","SANTA MONICA","CA",90403,34.0267016720001,-118.501629776,485,"802 7TH STREET, SANTA MONICA, CA, 90403","Match","Exact","802 7TH ST, SANTA MONICA, CA, 90403",241239297,"R"
871986,"802 8TH AVENUE","NEW SMYRNA BEACH","FL",32169,29.0235098840001,-80.892848363,486,"802 8TH AVENUE, NEW SMYRNA BEACH, FL, 32169","Match","Exact","802 8TH AVE, NEW SMYRNA BEACH, FL, 32169",94534486,"L"
871987,"802 9TH AVENUE WEST","DICKINSON","ND",58601,46.8875495460001,-102.799044501,487,"802 9TH AVENUE WEST, DICKINSON, ND, 58601","Match","Exact","802 9TH AVE W, DICKINSON, ND, 58601",199272965,"R"
871988,"802 9TH AVENUE","BRACKENRIDGE","PA",15014,40.6076146770001,-79.747402659,488,"802 9TH AVENUE, BRACKENRIDGE, PA, 15014","Match","Exact","802 9TH AVE, BRACKENRIDGE, PA, 15014",51692564,"L"
871989,"802 A STREET","SCHUYLER","NE",68661,41.4444039620001,-97.0584833629999,489,"802 A STREET, SCHUYLER, NE, 68661","Match","Exact","802 A ST, SCHUYLER, NE, 68661",136044677,"R"
871990,"802 ALBERT STREET","NEW BRAUNFELS","TX",78130,NA,NA,490,"802 ALBERT STREET, NEW BRAUNFELS, TX, 78130","No_Match",NA,NA,NA,NA
871991,"802 AMBER COURT","ALLEN","TX",75002,33.085216211,-96.639351606,491,"802 AMBER COURT, ALLEN, TX, 75002","Match","Exact","802 AMBER CT, ALLEN, TX, 75002",210476698,"L"
871992,"802 ANDERSON STREET","CHARLOTTESVILLE","VA",22903,38.034904698,-78.489841193,492,"802 ANDERSON STREET, CHARLOTTESVILLE, VA, 22903","Match","Exact","802 ANDERSON ST, CHARLOTTESVILLE, VA, 22903",83369476,"L"
871993,"802 ANN ST","HARBOR SPRINGS","MI",49740,45.43710552,-84.995802665,493,"802 ANN ST, HARBOR SPRINGS, MI, 49740","Match","Exact","802 ANN ST, HARBOR SPRINGS, MI, 49740",133982358,"R"
871994,"802 APODACA HILL","SANTA FE","NM",87501,35.6735262810001,-105.910238118,494,"802 APODACA HILL, SANTA FE, NM, 87501","Match","Non_Exact","802 APODACA HILL ST, SANTA FE, NM, 87501",652664690,"R"
871995,"802 APT H WEST GLADYS STREET","SIKESTON","MO",63801,NA,NA,495,"802 APT H WEST GLADYS STREET, SIKESTON, MO, 63801","No_Match",NA,NA,NA,NA
871996,"802 ARBOR LAKE BLVD","HERMITAGE","TN",37076,36.163681298,-86.600420236,496,"802 ARBOR LAKE BLVD, HERMITAGE, TN, 37076","Match","Exact","802 ARBOR LAKE BV, HERMITAGE, TN, 37076",606811467,"R"
871997,"802 ARLINGTON AVE","CAMERON","WI",54822,45.407681579,-91.744292016,497,"802 ARLINGTON AVE, CAMERON, WI, 54822","Match","Exact","802 ARLINGTON AVE, CAMERON, WI, 54822",126283516,"L"
871998,"802 ASCHAM COURT","PEARL","MS",39208,32.3235275390001,-90.0430074239999,498,"802 ASCHAM COURT, PEARL, MS, 39208","Match","Exact","802 ASCHAM CT, PEARL, MS, 39208",649664872,"R"
871999,"802 ATHOL ST","SAN JUAN","TX",78589,26.1979778410001,-98.1645067699999,499,"802 ATHOL ST, SAN JUAN, TX, 78589","Match","Non_Exact","802 W ATHOL ST, SAN JUAN, TX, 78589",71504681,"R"
872000,"802 AUGUSTA AVE","WAUSAU","WI",54403,44.9754919380001,-89.619088934,500,"802 AUGUSTA AVE, WAUSAU, WI, 54403","Match","Exact","802 AUGUSTA AVE, WAUSAU, WI, 54403",117137123,"L"
