"ID","Address","City","State","Zip","lat","long","id","input_address","match_indicator","match_type","matched_address","tiger_line_id","tiger_side"
37501,"105-21 63RD ROAD","FOREST HILLS","NY",11375,40.7337952170001,-73.851965567,1,"105-21 63RD ROAD, FOREST HILLS, NY, 11375","Match","Exact","105-21 63RD RD, FOREST HILLS, NY, 11375",59705784,"L"
37502,"105-22 FLATLANDS 2ND STREET","BROOKLYN","NY",11236,NA,NA,2,"105-22 FLATLANDS 2ND STREET, BROOKLYN, NY, 11236","No_Match",NA,NA,NA,NA
37503,"105-24 63RD DR APT 1K","FOREST HILLS","NY",11375,40.7331312590001,-73.851526367,3,"105-24 63RD DR APT 1K, FOREST HILLS, NY, 11375","Match","Exact","105-24 63RD DR, FOREST HILLS, NY, 11375",59705786,"R"
37504,"105-28 65TH AVE","FOREST HILLS","NY",11375,40.7311599990001,-73.850422479,4,"105-28 65TH AVE, FOREST HILLS, NY, 11375","Match","Exact","105-28 65TH AVE, FOREST HILLS, NY, 11375",59705833,"R"
37505,"105-28 CROSSBAY BLVD","OZONE PARK","NY",11417,40.6795916770001,-73.844555226,5,"105-28 CROSSBAY BLVD, OZONE PARK, NY, 11417","Match","Exact","105-28 CROSSBAY BLVD, OZONE PARK, NY, 11417",641459419,"R"
37506,"105-29 93 STREET","OZONE ARK","NY",11417,40.679703943,-73.845645943,6,"105-29 93 STREET, OZONE ARK, NY, 11417","Match","Non_Exact","105 93RD ST, OZONE PARK, NY, 11417",59707698,"L"
37507,"105-36 93RD STREET","OZONE PARK","NY",11417,40.6795961810001,-73.8456082129999,7,"105-36 93RD STREET, OZONE PARK, NY, 11417","Match","Exact","105-36 93RD ST, OZONE PARK, NY, 11417",59707698,"R"
37508,"105-40 171ST STREET","JAMAICA","NY",11433,40.7011341300001,-73.7861559369999,8,"105-40 171ST STREET, JAMAICA, NY, 11433","Match","Exact","105-40 171ST ST, JAMAICA, NY, 11433",59714662,"R"
37509,"105-43 REMINGTON STREET","JAMAICA","NY",11435,40.6909701450001,-73.807943909,9,"105-43 REMINGTON STREET, JAMAICA, NY, 11435","Match","Exact","105-43 REMINGTON ST, JAMAICA, NY, 11435",59737827,"L"
37510,"105-55 62 DRIVE APT 3C","FORREST HILLS","NY",11375,40.7354394000001,-73.8517193449999,10,"105-55 62 DRIVE APT 3C, FORREST HILLS, NY, 11375","Match","Exact","105-55 62ND DR, FOREST HILLS, NY, 11375",59705780,"L"
37511,"105-69 FLATLANDS 1ST STREET","BROOKLYN","NY",11236,NA,NA,11,"105-69 FLATLANDS 1ST STREET, BROOKLYN, NY, 11236","No_Match",NA,NA,NA,NA
37512,"105-82 FLATLANDS 10TH STREET","BROOKLYN","NY",11236,NA,NA,12,"105-82 FLATLANDS 10TH STREET, BROOKLYN, NY, 11236","No_Match",NA,NA,NA,NA
37513,"105","BERKELEY","CA",94707,NA,NA,13,"105, BERKELEY, CA, 94707","No_Match",NA,NA,NA,NA
37514,"105","CIBOLO","TX",78108,NA,NA,14,"105, CIBOLO, TX, 78108","No_Match",NA,NA,NA,NA
37515,"105","CLEVELAND","TN",37323,NA,NA,15,"105, CLEVELAND, TN, 37323","No_Match",NA,NA,NA,NA
37516,"105","KELSO","WA",98626,NA,NA,16,"105, KELSO, WA, 98626","No_Match",NA,NA,NA,NA
37517,"105","MADISON","MS",39110,NA,NA,17,"105, MADISON, MS, 39110","No_Match",NA,NA,NA,NA
37518,"105","NEW STANTON","PA",15672,NA,NA,18,"105, NEW STANTON, PA, 15672","No_Match",NA,NA,NA,NA
37519,"105","SAVANNAH","GA",31419,NA,NA,19,"105, SAVANNAH, GA, 31419","No_Match",NA,NA,NA,NA
37520,"1050 14TH AVE SE","MINNEAPOLIS","MN",55414,44.989300669,-93.232030589,20,"1050 14TH AVE SE, MINNEAPOLIS, MN, 55414","Match","Exact","1050 14TH AVE SE, MINNEAPOLIS, MN, 55414",43740727,"R"
37521,"1050 15TH STREET EAST","BRADENTON","FL",34208,27.4897771980001,-82.546668998,21,"1050 15TH STREET EAST, BRADENTON, FL, 34208","Match","Exact","1050 15TH ST E, BRADENTON, FL, 34208",16259027,"R"
37522,"1050 20TH STREET STE 130","SACRAMENTO","CA",95811,38.575867449,-121.4802613,22,"1050 20TH STREET STE 130, SACRAMENTO, CA, 95811","Match","Exact","1050 20TH ST, SACRAMENTO, CA, 95811",133421947,"R"
37523,"1050 20TH STREET STE 130","SACRAMENTO",NA,NA,38.575867449,-121.4802613,23,"1050 20TH STREET STE 130, SACRAMENTO, , ","Match","Exact","1050 20TH ST, SACRAMENTO, CA, 95811",133421947,"R"
37524,"1050 20TH STREET SUITE 200","SACRAMENTO","CA",95811,38.575867449,-121.4802613,24,"1050 20TH STREET SUITE 200, SACRAMENTO, CA, 95811","Match","Exact","1050 20TH ST, SACRAMENTO, CA, 95811",133421947,"R"
37525,"1050 2ND STREET","WOODBURN","OR",97071,45.1476940250001,-122.852803035,25,"1050 2ND STREET, WOODBURN, OR, 97071","Match","Non_Exact","1050 N 2ND ST, WOODBURN, OR, 97071",156260211,"R"
37526,"1050 300TH STREET","PRIMROSE","NE",68655,41.625255544,-98.2771530219999,26,"1050 300TH STREET, PRIMROSE, NE, 68655","Match","Exact","1050 300TH ST, PRIMROSE, NE, 68655",161710262,"R"
37527,"1050 35TH LANE","PUEBLO","CO",81006,NA,NA,27,"1050 35TH LANE, PUEBLO, CO, 81006","No_Match",NA,NA,NA,NA
37528,"1050 3RD AV N L4","ST PETERSBURG","FL",33705,27.775165278,-82.648242943,28,"1050 3RD AV N L4, ST PETERSBURG, FL, 33705","Match","Exact","1050 3RD AVE N, SAINT PETERSBURG, FL, 33705",124781430,"L"
37529,"1050 45TH STREET","SACRAMENTO","CA",95819,38.567405073,-121.447594596,29,"1050 45TH STREET, SACRAMENTO, CA, 95819","Match","Exact","1050 45TH ST, SACRAMENTO, CA, 95819",133334806,"R"
37530,"1050 52ND AVE NE APT 116","FRIDLEY","MN",55421,45.0623852910001,-93.2456426859999,30,"1050 52ND AVE NE APT 116, FRIDLEY, MN, 55421","Match","Exact","1050 52ND AVE NE, FRIDLEY, MN, 55421",97519156,"R"
37531,"1050 5TH AVE APT 8F","NEW YORK","NY",10028,40.7815843970001,-73.9603686419999,31,"1050 5TH AVE APT 8F, NEW YORK, NY, 10028","Match","Exact","1050 5TH AVE, NEW YORK, NY, 10028",59661527,"R"
37532,"1050 7TH STREET APT 1001","OAKLAND","CA",94607,37.803494233,-122.286159116,32,"1050 7TH STREET APT 1001, OAKLAND, CA, 94607","Match","Exact","1050 7TH ST, OAKLAND, CA, 94607",635481415,"R"
37533,"1050 A BENNETT CIRCLE","HARRIMAN","TN",37748,NA,NA,33,"1050 A BENNETT CIRCLE, HARRIMAN, TN, 37748","No_Match",NA,NA,NA,NA
37534,"1050 AERONAUTICAL DR","KISSIMMEE","FL",34744,28.2812653340001,-81.349597112,34,"1050 AERONAUTICAL DR, KISSIMMEE, FL, 34744","Match","Exact","1050 AERONAUTICAL DR, KISSIMMEE, FL, 34744",176658342,"R"
37535,"1050 ANDERSON DRIVE","LIBERTY","SC",29657,34.7797364240001,-82.6761774829999,35,"1050 ANDERSON DRIVE, LIBERTY, SC, 29657","Match","Exact","1050 ANDERSON DR, LIBERTY, SC, 29657",26209600,"L"
37536,"1050 ANDERSON HWY","LIBERTY","SC",29657,34.7797364240001,-82.6761774829999,36,"1050 ANDERSON HWY, LIBERTY, SC, 29657","Match","Non_Exact","1050 ANDERSON DR, LIBERTY, SC, 29657",26209600,"L"
37537,"1050 APSEN BLVD","SPARTA","WI",54656,NA,NA,37,"1050 APSEN BLVD, SPARTA, WI, 54656","No_Match",NA,NA,NA,NA
37538,"1050 ARBOR LAKE WALK","HOSCHTON","GA",30548,34.0756106950001,-83.8091661569999,38,"1050 ARBOR LAKE WALK, HOSCHTON, GA, 30548","Match","Exact","1050 ARBOR LAKE WALK, HOSCHTON, GA, 30548",627408258,"R"
37539,"1050 ATHERTON LANE","WOODSTOCK","GA",30189,34.10772202,-84.574738408,39,"1050 ATHERTON LANE, WOODSTOCK, GA, 30189","Match","Exact","1050 ATHERTON LN, WOODSTOCK, GA, 30189",68841897,"R"
37540,"1050 AVENUE C","BAYONNE","NJ",7002,40.6842849860001,-74.104328951,40,"1050 AVENUE C, BAYONNE, NJ, 7002","Match","Exact","1050 AVE C, BAYONNE, NJ, 07002",59603118,"R"
37541,"1050 BAKERS FERRY ROAD","ELBERTON","GA",30635,34.083427611,-82.799188617,41,"1050 BAKERS FERRY ROAD, ELBERTON, GA, 30635","Match","Exact","1050 BAKERS FERRY RD, ELBERTON, GA, 30635",22963862,"R"
37542,"1050 BANE STREET LOT 25","SOUTH BOSTON","VA",24592,NA,NA,42,"1050 BANE STREET LOT 25, SOUTH BOSTON, VA, 24592","No_Match",NA,NA,NA,NA
37543,"1050 BAYSIDE LN","WESTON","FL",33326,26.1047576930001,-80.39732557,43,"1050 BAYSIDE LN, WESTON, FL, 33326","Match","Exact","1050 BAYSIDE LN, WESTON, FL, 33326",114775578,"R"
37544,"1050 BISHOP ST 106","HONOLULU","HI",96813,21.3091008260001,-157.860699987,44,"1050 BISHOP ST 106, HONOLULU, HI, 96813","Match","Exact","1050 BISHOP ST, HONOLULU, HI, 96813",203236014,"L"
37545,"1050 BRICKELL AVE APT 1002","MIAMI","FL",33131,25.7634478140001,-80.191410789,45,"1050 BRICKELL AVE APT 1002, MIAMI, FL, 33131","Match","Exact","1050 BRICKELL AVE, MIAMI, FL, 33131",650153821,"R"
37546,"1050 BRICKELL AVE UNIT 1804","BOCA RATON","FL",33131,25.7634478140001,-80.191410789,46,"1050 BRICKELL AVE UNIT 1804, BOCA RATON, FL, 33131","Match","Non_Exact","1050 BRICKELL AVE, MIAMI, FL, 33131",650153821,"R"
37547,"1050 BRICKELL AVE UNIT 1804","MIAMI","FL",33131,25.7634478140001,-80.191410789,47,"1050 BRICKELL AVE UNIT 1804, MIAMI, FL, 33131","Match","Exact","1050 BRICKELL AVE, MIAMI, FL, 33131",650153821,"R"
37548,"1050 BRIGHTWOOD COURT","WALNUT CREEK","CA",94598,37.9338891020001,-122.045293752,48,"1050 BRIGHTWOOD COURT, WALNUT CREEK, CA, 94598","Match","Exact","1050 BRIGHTWOOD CT, WALNUT CREEK, CA, 94598",192092486,"R"
37549,"1050 BRINDLEY HOLLOW ROAD","BUFFALO VALLEY","TN",38548,36.186865964,-85.784652941,49,"1050 BRINDLEY HOLLOW ROAD, BUFFALO VALLEY, TN, 38548","Match","Exact","1050 BRINDLEY HOLLOW RD, BUFFALO VALLEY, TN, 38548",605273827,"L"
37550,"1050 BROADWAY","CHESTERTON","IN",46304,41.6116204620001,-87.066702514,50,"1050 BROADWAY, CHESTERTON, IN, 46304","Match","Exact","1050 BROADWAY, CHESTERTON, IN, 46304",119910034,"R"
37551,"1050 BURLINGTON PIKE","FLORENCE","KY",41042,39.018726993,-84.686845369,51,"1050 BURLINGTON PIKE, FLORENCE, KY, 41042","Match","Exact","1050 BURLINGTON PIKE, FLORENCE, KY, 41042",81951035,"L"
37552,"1050 CALEB DRIVE","DYERSBURG","TN",38024,36.0443620940001,-89.4113461169999,52,"1050 CALEB DRIVE, DYERSBURG, TN, 38024","Match","Exact","1050 CALEB DR, DYERSBURG, TN, 38024",40659505,"R"
37553,"1050 CAMAS DR","PHILADELPHIA","PA",19115,40.0862861790001,-75.053392873,53,"1050 CAMAS DR, PHILADELPHIA, PA, 19115","Match","Exact","1050 CAMAS DR, PHILADELPHIA, PA, 19115",131441311,"R"
37554,"1050 CAMBRIDGE AVENUE","COLORADO SPRINGS","CO",80906,38.774002624,-104.780739008,54,"1050 CAMBRIDGE AVENUE, COLORADO SPRINGS, CO, 80906","Match","Exact","1050 CAMBRIDGE AVE, COLORADO SPRINGS, CO, 80906",105520450,"R"
37555,"1050 CEMETERY HILL RD","MONTGOMERY","PA",17752,41.159215278,-76.889224771,55,"1050 CEMETERY HILL RD, MONTGOMERY, PA, 17752","Match","Exact","1050 CEMETERY HILL RD, MONTGOMERY, PA, 17752",642608994,"R"
37556,"1050 CENTENNIAL DRIVE","TWIN FALLS","ID",83301,42.5805191170001,-114.446967448,56,"1050 CENTENNIAL DRIVE, TWIN FALLS, ID, 83301","Match","Exact","1050 CENTENNIAL DR, TWIN FALLS, ID, 83301",118773450,"L"
37557,"1050 CHARBONIER ROAD","FLORISSANT","MO",63031,38.8027238880001,-90.3486317639999,57,"1050 CHARBONIER ROAD, FLORISSANT, MO, 63031","Match","Exact","1050 CHARBONIER RD, FLORISSANT, MO, 63031",100118955,"L"
37558,"1050 CHERRY BLOSSOM LN","CLARKSVILLE","TN",37040,NA,NA,58,"1050 CHERRY BLOSSOM LN, CLARKSVILLE, TN, 37040","No_Match",NA,NA,NA,NA
37559,"1050 CHESTNUT ST","DARBY","PA",19023,39.9148299080001,-75.285494337,59,"1050 CHESTNUT ST, DARBY, PA, 19023","Match","Exact","1050 CHESTNUT ST, DARBY, PA, 19023",134884497,"L"
37560,"1050 CHEVRON CT","PASADENA","CA",91103,34.187941842,-118.169601874,60,"1050 CHEVRON CT, PASADENA, CA, 91103","Match","Exact","1050 CHEVRON CT, PASADENA, CA, 91103",638622103,"L"
37561,"1050 CHOATE CREEK ROAD","SAVANNAH","TN",38372,35.173581647,-88.128459827,61,"1050 CHOATE CREEK ROAD, SAVANNAH, TN, 38372","Match","Exact","1050 CHOATE CREEK RD, SAVANNAH, TN, 38372",21173929,"L"
37562,"1050 CHOCTAW STREET","JUPITER","FL",33458,NA,NA,62,"1050 CHOCTAW STREET, JUPITER, FL, 33458","No_Match",NA,NA,NA,NA
37563,"1050 CLAY HILL ROAD","CHAMBERSBURG","PA",17202,39.81923521,-77.674233697,63,"1050 CLAY HILL ROAD, CHAMBERSBURG, PA, 17202","Match","Exact","1050 CLAY HILL RD, CHAMBERSBURG, PA, 17202",60089330,"L"
37564,"1050 CONLON SE","GRAND RAPIDS","MI",49506,42.943287234,-85.604221761,64,"1050 CONLON SE, GRAND RAPIDS, MI, 49506","Match","Non_Exact","1050 CONLON AVE SE, GRAND RAPIDS, MI, 49506",12507219,"L"
37565,"1050 CONNECTICUT AVE NW STE 500","WASHINGTON","DC",20036,38.903153038,-77.039677942,65,"1050 CONNECTICUT AVE NW STE 500, WASHINGTON, DC, 20036","Match","Exact","1050 CONNECTICUT AVE NW, WASHINGTON, DC, 20036",76225642,"L"
37566,"1050 CONNECTICUT AVE NW SUITE 500","WASHINGTON","DC",20036,38.903153038,-77.039677942,66,"1050 CONNECTICUT AVE NW SUITE 500, WASHINGTON, DC, 20036","Match","Exact","1050 CONNECTICUT AVE NW, WASHINGTON, DC, 20036",76225642,"L"
37567,"1050 CONNECTICUT AVE NW","WASHINGTON","DC",20036,38.903153038,-77.039677942,67,"1050 CONNECTICUT AVE NW, WASHINGTON, DC, 20036","Match","Exact","1050 CONNECTICUT AVE NW, WASHINGTON, DC, 20036",76225642,"L"
37568,"1050 CONNECTICUT AVENUE","WASHINGTON","DC",20036,38.903153038,-77.039677942,68,"1050 CONNECTICUT AVENUE, WASHINGTON, DC, 20036","Match","Non_Exact","1050 CONNECTICUT AVE NW, WASHINGTON, DC, 20036",76225642,"L"
37569,"1050 CONNOLLY DRIVE  APT 203","ELKO","NV",89801,40.838809907,-115.795238665,69,"1050 CONNOLLY DRIVE  APT 203, ELKO, NV, 89801","Match","Exact","1050 CONNOLLY DR, ELKO, NV, 89801",638007352,"L"
37570,"1050 CONSTITUTION PARK BLVD","ROCK HILL","SC",29732,34.9399433250001,-81.040197356,70,"1050 CONSTITUTION PARK BLVD, ROCK HILL, SC, 29732","Match","Non_Exact","1050 CONSTITUTION BLVD, ROCK HILL, SC, 29732",19791241,"R"
37571,"1050 CORNWALLIS DRIVE","EASTON","PA",18040,40.719312329,-75.234322068,71,"1050 CORNWALLIS DRIVE, EASTON, PA, 18040","Match","Exact","1050 CORNWALLIS DR, EASTON, PA, 18040",136897486,"R"
37572,"1050 COUNTRY RANCH ROAD","DELEON SPRINGS","FL",32130,29.1208837190001,-81.329501732,72,"1050 COUNTRY RANCH ROAD, DELEON SPRINGS, FL, 32130","Match","Non_Exact","1050 COUNTRY RANCH RD, DE LEON SPRINGS, FL, 32130",94601422,"R"
37573,"1050 COUNTY RD 18","OXFORD","NY",13830,42.4979156910001,-75.6339904,73,"1050 COUNTY RD 18, OXFORD, NY, 13830","Match","Exact","1050 CO RD 18, OXFORD, NY, 13830",644990102,"R"
37574,"1050 COX ROAD","HUNTINGTOWN","MD",20639,38.6092990970001,-76.58983469,74,"1050 COX ROAD, HUNTINGTOWN, MD, 20639","Match","Exact","1050 COX RD, HUNTINGTOWN, MD, 20639",644928831,"R"
37575,"1050 CR 311","LEXINGTON","TX",78947,30.365324292,-97.159610901,75,"1050 CR 311, LEXINGTON, TX, 78947","Match","Exact","1050 CO RD 311, LEXINGTON, TX, 78947",39142841,"L"
37576,"1050 CROWN POINTE PARKWAY 500","ATLANTA","GA",30338,33.929988182,-84.346284747,76,"1050 CROWN POINTE PARKWAY 500, ATLANTA, GA, 30338","Match","Exact","1050 CROWN POINTE PKWY, ATLANTA, GA, 30338",23356064,"L"
37577,"1050 CROWN POINTE PARKWAY SUITE 410","ATLANTA","GA",30338,33.929988182,-84.346284747,77,"1050 CROWN POINTE PARKWAY SUITE 410, ATLANTA, GA, 30338","Match","Exact","1050 CROWN POINTE PKWY, ATLANTA, GA, 30338",23356064,"L"
37578,"1050 CROWN POINTE PKWY STE 500","ATLANTA","GA",30338,33.929988182,-84.346284747,78,"1050 CROWN POINTE PKWY STE 500, ATLANTA, GA, 30338","Match","Exact","1050 CROWN POINTE PKWY, ATLANTA, GA, 30338",23356064,"L"
37579,"1050 DALE ROAD","SCOOBA","MS",39358,32.8815957940001,-88.473447501,79,"1050 DALE ROAD, SCOOBA, MS, 39358","Match","Non_Exact","1050 DALE, SCOOBA, MS, 39358",607683289,"L"
37580,"1050 DALE ST SW","HUTCHINSON","MN",55350,44.8758709730001,-94.389764454,80,"1050 DALE ST SW, HUTCHINSON, MN, 55350","Match","Exact","1050 DALE ST SW, HUTCHINSON, MN, 55350",36818642,"L"
37581,"1050 DAYTON AVE","SAINT PAUL","MN",55104,44.9474228820001,-93.143022751,81,"1050 DAYTON AVE, SAINT PAUL, MN, 55104","Match","Exact","1050 DAYTON AVE, SAINT PAUL, MN, 55104",97646623,"L"
37582,"1050 DIVISION STREET","GENEVA","IL",60134,41.8981185320001,-88.283883112,82,"1050 DIVISION STREET, GENEVA, IL, 60134","Match","Exact","1050 DIVISION ST, GENEVA, IL, 60134",119542280,"R"
37583,"1050 DUNHILL DRIVE","MARIETTA","GA",30067,33.925085171,-84.459544568,83,"1050 DUNHILL DRIVE, MARIETTA, GA, 30067","Match","Exact","1050 DUNHILL DR, MARIETTA, GA, 30067",17186990,"L"
37584,"1050 E 140TH AVE N","MULVANE","KS",67110,37.464696632,-97.305616415,84,"1050 E 140TH AVE N, MULVANE, KS, 67110","Match","Exact","1050 E 140TH AVE N, MULVANE, KS, 67110",638603828,"R"
37585,"1050 E 1ST ST","PRINEVILLE","OR",97754,44.301171407,-120.835536418,85,"1050 E 1ST ST, PRINEVILLE, OR, 97754","Match","Exact","1050 E 1ST ST, PRINEVILLE, OR, 97754",152384687,"L"
37586,"1050 E 1ST STREET","PRINVILLE","OR",97754,44.301171407,-120.835548104,86,"1050 E 1ST STREET, PRINVILLE, OR, 97754","Match","Non_Exact","1050 E 1ST ST, PRINEVILLE, OR, 97754",152384687,"L"
37587,"1050 E 2ND STREET UNIT 234","EDMOND","OK",73034,35.652773703,-97.466382078,87,"1050 E 2ND STREET UNIT 234, EDMOND, OK, 73034","Match","Non_Exact","1050 E 2ND ST, EDMOND, OK, 73034",100408645,"R"
37588,"1050 E 535TH RD","MORRISVILLE","MO",65710,37.4746506430001,-93.447265065,88,"1050 E 535TH RD, MORRISVILLE, MO, 65710","Match","Exact","1050 E 535TH RD, MORRISVILLE, MO, 65710",23033800,"L"
37589,"1050 E 8TH STREET","TUCSON","AZ",85719,32.22498762,-110.95554557,89,"1050 E 8TH STREET, TUCSON, AZ, 85719","Match","Exact","1050 E 8TH ST, TUCSON, AZ, 85719",121171361,"R"
37590,"1050 E BLUEBIRD CT","HERNANDO","FL",34442,28.970494531,-82.416270904,90,"1050 E BLUEBIRD CT, HERNANDO, FL, 34442","Match","Exact","1050 E BLUEBIRD CT, HERNANDO, FL, 34442",86193329,"L"
37591,"1050 E CARVER RD","TEMPE","AZ",85284,33.3419323250001,-111.923436711,91,"1050 E CARVER RD, TEMPE, AZ, 85284","Match","Exact","1050 E CARVER RD, TEMPE, AZ, 85284",128965565,"L"
37592,"1050 E FLAMINGO RD 148","LAS VEGAS","NV",89119,36.1146995600001,-115.140935694,92,"1050 E FLAMINGO RD 148, LAS VEGAS, NV, 89119","Match","Non_Exact","1050 E FLAMINGO RD, LAS VEGAS, NV, 89119",201871128,"L"
37593,"1050 E GLADSTONE STREET","GLENDORA","CA",91740,34.1139215320001,-117.842404482,93,"1050 E GLADSTONE STREET, GLENDORA, CA, 91740","Match","Exact","1050 E GLADSTONE ST, GLENDORA, CA, 91740",141725392,"R"
37594,"1050 E IMPERIAL HWY APT A6","PLACENTIA","CA",92870,NA,NA,94,"1050 E IMPERIAL HWY APT A6, PLACENTIA, CA, 92870","No_Match",NA,NA,NA,NA
37595,"1050 E INDIAN VALLEY DRIVE","OZARK","MO",65721,37.055846806,-93.196431549,95,"1050 E INDIAN VALLEY DRIVE, OZARK, MO, 65721","Match","Exact","1050 E INDIAN VALLEY DR, OZARK, MO, 65721",227915770,"R"
37596,"1050 E SOUTHERN AVE","TEMPE","AZ",85282,33.392980874,-111.923930691,96,"1050 E SOUTHERN AVE, TEMPE, AZ, 85282","Match","Exact","1050 E SOUTHERN AVE, TEMPE, AZ, 85282",128232164,"L"
37597,"1050 EAST 35TH AVENUE","GARY","IN",46409,41.5547992850001,-87.323824337,97,"1050 EAST 35TH AVENUE, GARY, IN, 46409","Match","Exact","1050 E 35TH AVE, GARY, IN, 46409",98433578,"L"
37598,"1050 EAST 8TH STREET","TUCSON","AZ",85719,32.22498762,-110.955559317,98,"1050 EAST 8TH STREET, TUCSON, AZ, 85719","Match","Exact","1050 E 8TH ST, TUCSON, AZ, 85719",121171361,"R"
37599,"1050 EAST BLUFFS DR","FRANCIS","UT",84036,40.607774496,-111.254292826,99,"1050 EAST BLUFFS DR, FRANCIS, UT, 84036","Match","Non_Exact","1050 BLUFFS DR, FRANCIS, UT, 84036",607577785,"L"
37600,"1050 EAST CABANA CIR","MEMPHIS","TN",38107,35.1654983070001,-89.9878690909999,100,"1050 EAST CABANA CIR, MEMPHIS, TN, 38107","Match","Exact","1050 E CABANA CIR, MEMPHIS, TN, 38107",72912166,"R"
37601,"1050 EAST CACTUS AVE","LAS VEGAS","NV",89183,35.999124545,-115.138443465,101,"1050 EAST CACTUS AVE, LAS VEGAS, NV, 89183","Match","Exact","1050 E CACTUS AVE, LAS VEGAS, NV, 89183",624460139,"L"
37602,"1050 EAST DENVER","HOLYOKE","CO",80734,40.585673947,-102.287984734,102,"1050 EAST DENVER, HOLYOKE, CO, 80734","Match","Non_Exact","1050 E DENVER ST, HOLYOKE, CO, 80734",650284126,"R"
37603,"1050 EAST WALNUT ST APT 1","SPRINGFIELD","MO",65806,37.2066118380001,-93.2794419429999,103,"1050 EAST WALNUT ST APT 1, SPRINGFIELD, MO, 65806","Match","Exact","1050 E WALNUT ST, SPRINGFIELD, MO, 65806",76678311,"R"
37604,"1050 EDEN PRAIRIE WAY","MIDWAY","UT",84049,40.4955313470001,-111.490274265,104,"1050 EDEN PRAIRIE WAY, MIDWAY, UT, 84049","Match","Exact","1050 EDEN PRAIRIE WAY, MIDWAY, UT, 84049",625702304,"R"
37605,"1050 EMERSON ST","SHERIDAN","WY",82801,44.7870839550001,-106.951396905,105,"1050 EMERSON ST, SHERIDAN, WY, 82801","Match","Exact","1050 EMERSON ST, SHERIDAN, WY, 82801",147404795,"L"
37606,"1050 EUCLID PLACE","HUNTINGTON","WV",25701,38.412502767,-82.4331516729999,106,"1050 EUCLID PLACE, HUNTINGTON, WV, 25701","Match","Exact","1050 EUCLID PL, HUNTINGTON, WV, 25701",101317870,"L"
37607,"1050 EVENING STAR AVE SE","EAST CANTON","OH",44730,40.786087783,-81.2552783199999,107,"1050 EVENING STAR AVE SE, EAST CANTON, OH, 44730","Match","Exact","1050 EVENING STAR AVE SE, EAST CANTON, OH, 44730",64689182,"L"
37608,"1050 EVENING STAR AVENUE SE","EAST CANTON","OH",44730,40.786087783,-81.2552783199999,108,"1050 EVENING STAR AVENUE SE, EAST CANTON, OH, 44730","Match","Exact","1050 EVENING STAR AVE SE, EAST CANTON, OH, 44730",64689182,"L"
37609,"1050 FELSPAR STREET","SAN DIEGO","CA",92109,32.7985131,-117.251192452,109,"1050 FELSPAR STREET, SAN DIEGO, CA, 92109","Match","Exact","1050 FELSPAR ST, SAN DIEGO, CA, 92109",195299549,"L"
37610,"1050 FERRY ST APT 405A","EUGENE","OR",97401,44.047928305,-123.085166104,110,"1050 FERRY ST APT 405A, EUGENE, OR, 97401","Match","Exact","1050 FERRY ST, EUGENE, OR, 97401",178195812,"R"
37611,"1050 FIFTH AVENUE","NEW YORK","NY",10028,40.7815843970001,-73.9603686419999,111,"1050 FIFTH AVENUE, NEW YORK, NY, 10028","Match","Exact","1050 5TH AVE, NEW YORK, NY, 10028",59661527,"R"
37612,"1050 FLEMING DRIVE","PENSACOLA","FL",32514,30.5606006730001,-87.254268844,112,"1050 FLEMING DRIVE, PENSACOLA, FL, 32514","Match","Exact","1050 FLEMING DR, PENSACOLA, FL, 32514",93211054,"L"
37613,"1050 FLYNN ROAD","ROCHESTER","NY",14612,43.256723175,-77.7154875099999,113,"1050 FLYNN ROAD, ROCHESTER, NY, 14612","Match","Exact","1050 FLYNN RD, ROCHESTER, NY, 14612",14552254,"L"
37614,"1050 FORBES RD","FORT MILL","SC",29707,35.0619608210001,-80.898721326,114,"1050 FORBES RD, FORT MILL, SC, 29707","Match","Exact","1050 FORBES RD, FORT MILL, SC, 29707",641684289,"R"
37615,"1050 FOX ACRES STE 106","HAILEY","ID",83333,43.5160616430001,-114.295744145,115,"1050 FOX ACRES STE 106, HAILEY, ID, 83333","Match","Non_Exact","1050 FOX ACRES RD, HAILEY, ID, 83333",105238918,"R"
37616,"1050 GALLANT FOX CIRCLE SOUTH","JACKSONVILLE","FL",32218,30.477264512,-81.599726252,116,"1050 GALLANT FOX CIRCLE SOUTH, JACKSONVILLE, FL, 32218","Match","Exact","1050 GALLANT FOX CIR S, JACKSONVILLE, FL, 32218",83961108,"L"
37617,"1050 GARDEN ROAD","ORANGE","CT",6477,41.3094282440001,-73.054782335,117,"1050 GARDEN ROAD, ORANGE, CT, 6477","Match","Exact","1050 GARDEN RD, ORANGE, CT, 06477",651698722,"L"
37618,"1050 GEORGIA STREET A","IMPERIAL BEACH","CA",91932,32.5773557580001,-117.104456981,118,"1050 GEORGIA STREET A, IMPERIAL BEACH, CA, 91932","Match","Exact","1050 GEORGIA ST, IMPERIAL BEACH, CA, 91932",195355203,"R"
37619,"1050 GLENBROOK WAY","HENDERSONVILLE","TN",37075,36.331980625,-86.622069774,119,"1050 GLENBROOK WAY, HENDERSONVILLE, TN, 37075","Match","Exact","1050 GLENBROOK WAY, HENDERSONVILLE, TN, 37075",645569051,"R"
37620,"1050 GRANDVIEW DRIVE","IVINS","UT",84738,NA,NA,120,"1050 GRANDVIEW DRIVE, IVINS, UT, 84738","Tie",NA,NA,NA,NA
37621,"1050 GREAT RIVER RD","HARPERS FERRY","IA",52146,43.2182945220001,-91.14114258,121,"1050 GREAT RIVER RD, HARPERS FERRY, IA, 52146","Match","Exact","1050 GREAT RIVER RD, HARPERS FERRY, IA, 52146",48224942,"L"
37622,"1050 GREEN ST UNIT 1","SAN FRANCISCO","CA",94133,37.7985786940001,-122.416422197,122,"1050 GREEN ST UNIT 1, SAN FRANCISCO, CA, 94133","Match","Exact","1050 GREEN ST, SAN FRANCISCO, CA, 94133",652201041,"R"
37623,"1050 HANCOCK AVENUE","FRANKLIN SQUARE","NY",11010,40.6998956790001,-73.679802541,123,"1050 HANCOCK AVENUE, FRANKLIN SQUARE, NY, 11010","Match","Exact","1050 HANCOCK AVE, FRANKLIN SQUARE, NY, 11010",147669588,"R"
37624,"1050 HARVEST RIDGE COURT","GAHANNA","OH",43230,40.0156389210001,-82.84317592,124,"1050 HARVEST RIDGE COURT, GAHANNA, OH, 43230","Match","Exact","1050 HARVEST RIDGE CT, GAHANNA, OH, 43230",135746381,"L"
37625,"1050 HATCHERY RD","NATCHITOCHES","LA",71457,NA,NA,125,"1050 HATCHERY RD, NATCHITOCHES, LA, 71457","No_Match",NA,NA,NA,NA
37626,"1050 HENDRICKS STORE RD","MONETA","VA",24121,37.1628760950001,-79.635533406,126,"1050 HENDRICKS STORE RD, MONETA, VA, 24121","Match","Exact","1050 HENDRICKS STORE RD, MONETA, VA, 24121",651572118,"R"
37627,"1050 HENDRICKS STORE ROAD","MONENTA","VA",24121,37.1628760950001,-79.635533406,127,"1050 HENDRICKS STORE ROAD, MONENTA, VA, 24121","Match","Non_Exact","1050 HENDRICKS STORE RD, MONETA, VA, 24121",651572118,"R"
37628,"1050 HETH PLACE","WINCHESTER","VA",22601,39.182165206,-78.193975041,128,"1050 HETH PLACE, WINCHESTER, VA, 22601","Match","Exact","1050 HETH PL, WINCHESTER, VA, 22601",55609084,"L"
37629,"1050 HIGH VISTA TRAIL EAST","WEBSTER","NY",14580,NA,NA,129,"1050 HIGH VISTA TRAIL EAST, WEBSTER, NY, 14580","No_Match",NA,NA,NA,NA
37630,"1050 HIGHLAND ROAD","ITHACA","NY",14850,42.475624071,-76.494854193,130,"1050 HIGHLAND ROAD, ITHACA, NY, 14850","Match","Exact","1050 HIGHLAND RD, ITHACA, NY, 14850",18857026,"L"
37631,"1050 HIGHWAY 162","COVINGTON","GA",30016,33.540679321,-83.916779845,131,"1050 HIGHWAY 162, COVINGTON, GA, 30016","Match","Non_Exact","1050 STATE RTE 162, COVINGTON, GA, 30016",23614811,"L"
37632,"1050 HILLCREST DRIVE","EDEN","NC",27288,36.533343642,-79.73811474,132,"1050 HILLCREST DRIVE, EDEN, NC, 27288","Match","Exact","1050 HILLCREST DR, EDEN, NC, 27288",56225769,"R"
37633,"1050 HOE AVE APT 2D","BRONX","NY",10459,40.8241319960001,-73.890494885,133,"1050 HOE AVE APT 2D, BRONX, NY, 10459","Match","Exact","1050 HOE AVE, BRONX, NY, 10459",80302413,"R"
37634,"1050 HOLLOWAY RIDGE RD","SPRING CITY","TN",37381,35.72868957,-84.989071816,134,"1050 HOLLOWAY RIDGE RD, SPRING CITY, TN, 37381","Match","Exact","1050 HOLLOWAY RIDGE RD, SPRING CITY, TN, 37381",642996575,"R"
37635,"1050 HWY 162","COVINGTON","GA",30016,33.540679321,-83.916779845,135,"1050 HWY 162, COVINGTON, GA, 30016","Match","Non_Exact","1050 STATE RTE 162, COVINGTON, GA, 30016",23614811,"L"
37636,"1050 HWY 82 W","CROSSETT","AR",71635,NA,NA,136,"1050 HWY 82 W, CROSSETT, AR, 71635","No_Match",NA,NA,NA,NA
37637,"1050 INDIAN SUMMER CT","RENO","NV",89511,39.409637334,-119.816628355,137,"1050 INDIAN SUMMER CT, RENO, NV, 89511","Match","Exact","1050 INDIAN SUMMER CT, RENO, NV, 89511",107094278,"L"
37638,"1050 INDIGO DRIVE","LAS VEGAS","NV",89145,36.1602079620001,-115.318476073,138,"1050 INDIGO DRIVE, LAS VEGAS, NV, 89145","Match","Non_Exact","1050 INDIGO, LAS VEGAS, NV, 89145",201945963,"L"
37639,"1050 ISLAND AVE UNIT 710","SAN DIEGO","CA",92101,32.7104523250001,-117.155097331,139,"1050 ISLAND AVE UNIT 710, SAN DIEGO, CA, 92101","Match","Exact","1050 ISLAND AVE, SAN DIEGO, CA, 92101",195344649,"L"
37640,"1050 IVEY LANE","MCDONOUGH","GA",30253,33.4449195600001,-84.179604446,140,"1050 IVEY LANE, MCDONOUGH, GA, 30253","Match","Exact","1050 IVEY LN, MCDONOUGH, GA, 30253",634027995,"R"
37641,"1050 K STREET NW","WASHINGTON DC","DC",20001,38.902518974,-77.026520293,141,"1050 K STREET NW, WASHINGTON DC, DC, 20001","Match","Exact","1050 K ST NW, WASHINGTON, DC, 20001",76226152,"L"
37642,"1050 KINGSWELL AVE","BANNING","CA",92220,33.9341957730001,-116.933135187,142,"1050 KINGSWELL AVE, BANNING, CA, 92220","Match","Exact","1050 KINGSWELL AVE, BANNING, CA, 92220",194719417,"R"
37643,"1050 KLONDIKE ROAD","CINCINNATI","OH",45150,39.1655831510001,-84.2452540959999,143,"1050 KLONDIKE ROAD, CINCINNATI, OH, 45150","Match","Non_Exact","1050 KLONDYKE RD, MILFORD, OH, 45150",118445113,"L"
37644,"1050 LAKE CAROLYN PKWY APT2317","IRVING","TX",75039,32.8717682130001,-96.935151732,144,"1050 LAKE CAROLYN PKWY APT2317, IRVING, TX, 75039","Match","Exact","1050 LAKE CAROLYN PKWY, IRVING, TX, 75039",617054587,"L"
37645,"1050 LAKE CAROLYN PKWY","IRVING","TX",75039,32.8717682130001,-96.935151732,145,"1050 LAKE CAROLYN PKWY, IRVING, TX, 75039","Match","Exact","1050 LAKE CAROLYN PKWY, IRVING, TX, 75039",617054587,"L"
37646,"1050 LAKE WELBROOK DRIVE","ATHENS","GA",30606,33.897170483,-83.434065375,146,"1050 LAKE WELBROOK DRIVE, ATHENS, GA, 30606","Match","Exact","1050 LAKE WELBROOK DR, ATHENS, GA, 30606",632191561,"R"
37647,"1050 LAKEMONT DRIVE","BATON ROUGE","LA",70816,30.453050954,-91.01993828,147,"1050 LAKEMONT DRIVE, BATON ROUGE, LA, 70816","Match","Exact","1050 LAKEMONT DR, BATON ROUGE, LA, 70816",92194490,"R"
37648,"1050 LAKES DR STE 225","WEST COVINA","CA",91790,34.0705707280001,-117.924280559,148,"1050 LAKES DR STE 225, WEST COVINA, CA, 91790","Match","Exact","1050 LAKES DR, WEST COVINA, CA, 91790",142839193,"R"
37649,"1050 LAKES DRIVE SUITE 225","WEST COVINA","CA",91790,34.0705707280001,-117.924280559,149,"1050 LAKES DRIVE SUITE 225, WEST COVINA, CA, 91790","Match","Exact","1050 LAKES DR, WEST COVINA, CA, 91790",142839193,"R"
37650,"1050 LAKES DRIVE","WEST COVINA","CA",91790,34.0705707280001,-117.924280559,150,"1050 LAKES DRIVE, WEST COVINA, CA, 91790","Match","Exact","1050 LAKES DR, WEST COVINA, CA, 91790",142839193,"R"
37651,"1050 LARRABEE AVE SUITE 104 332","BELLINGHAM","WA",98225,48.7185050190001,-122.5039452,151,"1050 LARRABEE AVE SUITE 104 332, BELLINGHAM, WA, 98225","Match","Exact","1050 LARRABEE AVE, BELLINGHAM, WA, 98225",183773749,"R"
37652,"1050 LARRABEE AVE SUITE 104-344","BELLINGHAM","WA",98225,48.7185050190001,-122.5039452,152,"1050 LARRABEE AVE SUITE 104-344, BELLINGHAM, WA, 98225","Match","Exact","1050 LARRABEE AVE, BELLINGHAM, WA, 98225",183773749,"R"
37653,"1050 LENOX PARK BLVD APT 7313","ATLANTA","GA",30319,33.8508367360001,-84.347357325,153,"1050 LENOX PARK BLVD APT 7313, ATLANTA, GA, 30319","Match","Non_Exact","1050 LENOX PARK BLVD NE, ATLANTA, GA, 30319",23406444,"R"
37654,"1050 LESTER AVENUE SE","ATLANTA","GA",30316,33.725668528,-84.360703529,154,"1050 LESTER AVENUE SE, ATLANTA, GA, 30316","Match","Non_Exact","1050 LESTER AVE, ATLANTA, GA, 30316",649757280,"L"
37655,"1050 LINCOLN HILL RD","MARTINSVILLE","IN",46151,39.442049157,-86.418486893,155,"1050 LINCOLN HILL RD, MARTINSVILLE, IN, 46151","Match","Exact","1050 LINCOLN HILL RD, MARTINSVILLE, IN, 46151",651295418,"L"
37656,"1050 LOBO DRIVE","ELIZABETHTOWN","KY",42701,37.736699937,-85.9043410209999,156,"1050 LOBO DRIVE, ELIZABETHTOWN, KY, 42701","Match","Exact","1050 LOBO DR, ELIZABETHTOWN, KY, 42701",34633533,"R"
37657,"1050 LONG CREEK DRIVE","BOGART","GA",30622,NA,NA,157,"1050 LONG CREEK DRIVE, BOGART, GA, 30622","No_Match",NA,NA,NA,NA
37658,"1050 LONGMORE ST","MESA","AZ",85202,NA,NA,158,"1050 LONGMORE ST, MESA, AZ, 85202","No_Match",NA,NA,NA,NA
37659,"1050 LUHMANN TERRACE","SECAUCUS","NJ",7094,40.7990428840001,-74.053896121,159,"1050 LUHMANN TERRACE, SECAUCUS, NJ, 7094","Match","Non_Exact","1050 LUHMAN TER, SECAUCUS, NJ, 07094",59597055,"R"
37660,"1050 LUMPKIN BRANCH ROAD","MOUNTAIN CITY","TN",37683,36.4294200510001,-81.802739721,160,"1050 LUMPKIN BRANCH ROAD, MOUNTAIN CITY, TN, 37683","Match","Exact","1050 LUMPKIN BRANCH RD, MOUNTAIN CITY, TN, 37683",52075630,"L"
37661,"1050 MAGNOLIA DRIVE","MACON","GA",31217,32.8543175620001,-83.600826479,161,"1050 MAGNOLIA DRIVE, MACON, GA, 31217","Match","Exact","1050 MAGNOLIA DR, MACON, GA, 31217",81064516,"L"
37662,"1050 MAIN ST UNIT 24","E GREENWICH","RI",2818,41.65050877,-71.457653905,162,"1050 MAIN ST UNIT 24, E GREENWICH, RI, 2818","Match","Exact","1050 MAIN ST, EAST GREENWICH, RI, 02818",159151439,"L"
37663,"1050 MAIN STREET  APT 502","WORCESTER","MA",1603,42.245539137,-71.831132619,163,"1050 MAIN STREET  APT 502, WORCESTER, MA, 1603","Match","Exact","1050 MAIN ST, WORCESTER, MA, 01603",650050128,"R"
37664,"1050 MAIN STREET","WEST BARNSTABLE","MA",2668,41.707099832,-70.3690085169999,164,"1050 MAIN STREET, WEST BARNSTABLE, MA, 2668","Match","Exact","1050 MAIN ST, W BARNSTABLE, MA, 02668",121642882,"R"
37665,"1050 MAPLECHASE DR","LELAND","NC",28451,34.2155180350001,-78.03316198,165,"1050 MAPLECHASE DR, LELAND, NC, 28451","Match","Exact","1050 MAPLECHASE DR, LELAND, NC, 28451",153175844,"L"
37666,"1050 MARIETTA ST SUITE A","ATLANTA","GA",30318,33.779841445,-84.412127443,166,"1050 MARIETTA ST SUITE A, ATLANTA, GA, 30318","Match","Exact","1050 MARIETTA ST, ATLANTA, GA, 30318",17342014,"L"
37667,"1050 MARINA VILLAGE PARKWAY STE 203","ALAMEDA","CA",94501,37.7855087730001,-122.27202986,167,"1050 MARINA VILLAGE PARKWAY STE 203, ALAMEDA, CA, 94501","Match","Exact","1050 MARINA VILLAGE PKWY, ALAMEDA, CA, 94501",125065429,"L"
37668,"1050 MARSALA AVE","COLUMBUS","OH",43228,39.9719136950001,-83.152351332,168,"1050 MARSALA AVE, COLUMBUS, OH, 43228","Match","Exact","1050 MARSALA AVE, COLUMBUS, OH, 43228",641102274,"R"
37669,"1050 MAYFLOWER COURT","MARTINSVILLE","NJ",8836,40.5971050790001,-74.5337464739999,169,"1050 MAYFLOWER COURT, MARTINSVILLE, NJ, 8836","Match","Exact","1050 MAYFLOWER CT, MARTINSVILLE, NJ, 08836",59940239,"R"
37670,"1050 MCCALL LN","KNOXVILLE","TN",37920,35.9290419720001,-83.861726373,170,"1050 MCCALL LN, KNOXVILLE, TN, 37920","Match","Exact","1050 MCCALL LN, KNOXVILLE, TN, 37920",42659295,"R"
37671,"1050 MCKINLEY ST","BALDWIN","NY",11510,40.6350391880001,-73.6011526839999,171,"1050 MCKINLEY ST, BALDWIN, NY, 11510","Match","Exact","1050 MCKINLEY ST, BALDWIN, NY, 11510",147638348,"R"
37672,"1050 MEADOW LAKE DRIVE UNIT 13","VISTA","CA",92084,33.2107603810001,-117.227499596,172,"1050 MEADOW LAKE DRIVE UNIT 13, VISTA, CA, 92084","Match","Non_Exact","1050 MEADOWLAKE DR, VISTA, CA, 92084",640041518,"L"
37673,"1050 MEADOWCREST DRIVE","SHAVERTOWN","PA",18708,41.2835495410001,-75.962944061,173,"1050 MEADOWCREST DRIVE, SHAVERTOWN, PA, 18708","Match","Exact","1050 MEADOWCREST DR, SHAVERTOWN, PA, 18708",80910045,"R"
37674,"1050 MEDOC STREET","BOURBONNAIS","IL",60914,41.1761494190001,-87.897600901,174,"1050 MEDOC STREET, BOURBONNAIS, IL, 60914","Match","Exact","1050 MEDOC ST, BOURBONNAIS, IL, 60914",98372996,"L"
37675,"1050 MEDOC","BOURBONNAIS","IL",60914,41.1722384870001,-87.896861905,175,"1050 MEDOC, BOURBONNAIS, IL, 60914","Match","Exact","1050 MEDOC, BOURBONNAIS, IL, 60914",635784221,"L"
37676,"1050 MILL RUN","GREENFIELD","IN",46140,39.7964923280001,-85.754553223,176,"1050 MILL RUN, GREENFIELD, IN, 46140","Match","Non_Exact","1050 MILL RUN BLVD, GREENFIELD, IN, 46140",31080014,"L"
37677,"1050 MILL RUNN","GREENFIELD","IN",46140,39.7964923280001,-85.754553223,177,"1050 MILL RUNN, GREENFIELD, IN, 46140","Match","Non_Exact","1050 MILL RUN BLVD, GREENFIELD, IN, 46140",31080014,"L"
37678,"1050 MILLER SPRINGS ROAD","WRIGHTSVILLE","PA",17368,NA,NA,178,"1050 MILLER SPRINGS ROAD, WRIGHTSVILLE, PA, 17368","No_Match",NA,NA,NA,NA
37679,"1050 MINNEWAWA AVE APT 105","FRESNO","CA",93612,36.816817499,-119.708988197,179,"1050 MINNEWAWA AVE APT 105, FRESNO, CA, 93612","Match","Non_Exact","1050 MINNEWAWA AVE, CLOVIS, CA, 93612",197576947,"R"
37680,"1050 MISTER JOE WHITE AVE 9","MYRTLE BEACH","SC",29577,NA,NA,180,"1050 MISTER JOE WHITE AVE 9, MYRTLE BEACH, SC, 29577","No_Match",NA,NA,NA,NA
37681,"1050 MOHR LANE APT F","CONCORD","CA",94518,37.9459547290001,-122.046698974,181,"1050 MOHR LANE APT F, CONCORD, CA, 94518","Match","Exact","1050 MOHR LN, CONCORD, CA, 94518",192089256,"R"
37682,"1050 MONARCH ST STE 100","LEXINGTON","KY",40513,38.0211726050001,-84.554836267,182,"1050 MONARCH ST STE 100, LEXINGTON, KY, 40513","Match","Exact","1050 MONARCH ST, LEXINGTON, KY, 40513",31950392,"L"
37683,"1050 MOOREFIELD ROAD","DANBURY","NC",27016,36.4837603,-80.195844129,183,"1050 MOOREFIELD ROAD, DANBURY, NC, 27016","Match","Exact","1050 MOOREFIELD RD, DANBURY, NC, 27016",56328710,"L"
37684,"1050 MORGAN FORD ROAD","ST. LOUIS","MO",63116,NA,NA,184,"1050 MORGAN FORD ROAD, ST. LOUIS, MO, 63116","No_Match",NA,NA,NA,NA
37685,"1050 MORNING SIDE LANE","FORT LEE","NJ",7024,40.8368235680001,-73.9902628529999,185,"1050 MORNING SIDE LANE, FORT LEE, NJ, 7024","Match","Non_Exact","1050 MORNINGSIDE LN, FORT LEE, NJ, 07024",642697807,"R"
37686,"1050 MT HOLSTON ROAD","BLUFF CITY","TN",37618,36.460281315,-82.184903768,186,"1050 MT HOLSTON ROAD, BLUFF CITY, TN, 37618","Match","Exact","1050 MOUNT HOLSTON RD, BLUFF CITY, TN, 37618",127861995,"R"
37687,"1050 N 28TH AVE","BLAIR","NE",68008,41.5542971410001,-96.155783193,187,"1050 N 28TH AVE, BLAIR, NE, 68008","Match","Exact","1050 N 28TH AVE, BLAIR, NE, 68008",635811220,"R"
37688,"1050 N 9TH ST-13","COOLIDGE","AZ",85128,NA,NA,188,"1050 N 9TH ST-13, COOLIDGE, AZ, 85128","No_Match",NA,NA,NA,NA
37689,"1050 N BRITT APT E8","SILOAM SPRINGS","AR",72761,NA,NA,189,"1050 N BRITT APT E8, SILOAM SPRINGS, AR, 72761","No_Match",NA,NA,NA,NA
37690,"1050 N CARTER RD","DECATUR","GA",30030,33.7644412060001,-84.273993789,190,"1050 N CARTER RD, DECATUR, GA, 30030","Match","Exact","1050 N CARTER RD, DECATUR, GA, 30030",23369652,"L"
37691,"1050 N EDINBURGH AVE 103","LOS ANGELES","CA",90046,34.0898834050001,-118.363784355,191,"1050 N EDINBURGH AVE 103, LOS ANGELES, CA, 90046","Match","Non_Exact","1050 N EDINBURGH AVE, LOS ANGELES, CA, 90046",141598127,"R"
37692,"1050 N EDINBURGH AVE APT 109","WEST HOLLYWOOD","CA",90046,34.0898834050001,-118.363784355,192,"1050 N EDINBURGH AVE APT 109, WEST HOLLYWOOD, CA, 90046","Match","Non_Exact","1050 N EDINBURGH AVE, W HOLLYWOOD, CA, 90046",141598127,"R"
37693,"1050 N FLOWOOD DR","FLOWOOD","MS",39232,32.331529269,-90.10259795,193,"1050 N FLOWOOD DR, FLOWOOD, MS, 39232","Match","Exact","1050 N FLOWOOD DR, FLOWOOD, MS, 39232",617152826,"L"
37694,"1050 N HWY 360","GRAND PRAIRIE","TX",75050,32.7632466790001,-97.0629326009999,194,"1050 N HWY 360, GRAND PRAIRIE, TX, 75050","Match","Exact","1050 N HWY 360, GRAND PRAIRIE, TX, 75050",638742974,"R"
37695,"1050 N KEDVALE AVENUE","CHICAGO","IL",60651,41.899904894,-87.729917974,195,"1050 N KEDVALE AVENUE, CHICAGO, IL, 60651","Match","Exact","1050 N KEDVALE AVE, CHICAGO, IL, 60651",111759271,"L"
37696,"1050 N LYNHURST DR","SPEEDWAY","IN",46224,39.78113369,-86.250624411,196,"1050 N LYNHURST DR, SPEEDWAY, IN, 46224","Match","Exact","1050 N LYNHURST DR, SPEEDWAY, IN, 46224",107979529,"L"
37697,"1050 N MARIPOSA AVE UNIT 313","LOS ANGELES","CA",90029,34.0899823330001,-118.299178636,197,"1050 N MARIPOSA AVE UNIT 313, LOS ANGELES, CA, 90029","Match","Non_Exact","1050 N MARIPOSA AVE, LOS ANGELES, CA, 90029",141603278,"R"
37698,"1050 N MASON","CHICAGO","IL",60651,41.899443363,-87.774075383,198,"1050 N MASON, CHICAGO, IL, 60651","Match","Non_Exact","1050 N MASON AVE, CHICAGO, IL, 60651",605048690,"L"
37699,"1050 N MILLS AVE 295","CLAREMONT","CA",91711,NA,NA,199,"1050 N MILLS AVE 295, CLAREMONT, CA, 91711","Tie",NA,NA,NA,NA
37700,"1050 N MILLS AVE","CLAREMONT","CA",91711,34.1041062780001,-117.707105506,200,"1050 N MILLS AVE, CLAREMONT, CA, 91711","Match","Exact","1050 N MILLS AVE, CLAREMONT, CA, 91711",142791158,"R"
37701,"1050 N MONROE STREET","ARLINGTON","VA",22201,38.88536336,-77.104360022,201,"1050 N MONROE STREET, ARLINGTON, VA, 22201","Match","Exact","1050 N MONROE ST, ARLINGTON, VA, 22201",76475497,"L"
37702,"1050 N WILSON PL","PORTERVILLE","CA",93257,36.0843151330001,-119.046951862,202,"1050 N WILSON PL, PORTERVILLE, CA, 93257","Match","Exact","1050 N WILSON PL, PORTERVILLE, CA, 93257",202785764,"R"
37703,"1050 NE 11TH AVENUE","GAINESVILLE","FL",32601,29.6622204230001,-82.312084391,203,"1050 NE 11TH AVENUE, GAINESVILLE, FL, 32601","Match","Exact","1050 NE 11TH AVE, GAINESVILLE, FL, 32601",6809068,"L"
37704,"1050 NE 12TH AVE","GAINESVILLE","FL",32601,29.662922478,-82.3121277769999,204,"1050 NE 12TH AVE, GAINESVILLE, FL, 32601","Match","Exact","1050 NE 12TH AVE, GAINESVILLE, FL, 32601",6847008,"L"
37705,"1050 NE 173RD ST","NORTH MIAMI BEACH","FL",33162,25.9345317190001,-80.179114268,205,"1050 NE 173RD ST, NORTH MIAMI BEACH, FL, 33162","Match","Exact","1050 NE 173RD ST, N MIAMI BEACH, FL, 33162",116035424,"R"
37706,"1050 NE 177TH STREET","NORTH MIAMI BEACH","FL",33162,25.9385330100001,-80.1792837199999,206,"1050 NE 177TH STREET, NORTH MIAMI BEACH, FL, 33162","Match","Non_Exact","1050 NE 177TH TER, N MIAMI BEACH, FL, 33162",116035404,"R"
37707,"1050 NEROLY ROAD","OAKLEY","CA",94561,37.9689167270001,-121.719082466,207,"1050 NEROLY ROAD, OAKLEY, CA, 94561","Match","Exact","1050 NEROLY RD, OAKLEY, CA, 94561",627012625,"R"
37708,"1050 NEVADA STREET APT 111","RENO","NV",89503,39.537509157,-119.822180197,208,"1050 NEVADA STREET APT 111, RENO, NV, 89503","Match","Exact","1050 NEVADA ST, RENO, NV, 89503",640023581,"R"
37709,"1050 NEW JERSEY AVENUE NW 212","WASHINGTON","DC",20001,38.903137343,-77.013958836,209,"1050 NEW JERSEY AVENUE NW 212, WASHINGTON, DC, 20001","Match","Non_Exact","1050 NEW JERSEY AVE NW, WASHINGTON, DC, 20001",76226526,"L"
37710,"1050 NORTH 28TH","HUMBOLDT","TN",38343,35.827847992,-88.90053683,210,"1050 NORTH 28TH, HUMBOLDT, TN, 38343","Match","Non_Exact","1050 N 28TH AVE, HUMBOLDT, TN, 38343",40815453,"R"
37711,"1050 NORTH HIGHWAY 360 2019","GRAND PRAIRIE","TX",75050,32.763246392,-97.06293261,211,"1050 NORTH HIGHWAY 360 2019, GRAND PRAIRIE, TX, 75050","Match","Exact","1050 N HWY 360, GRAND PRAIRIE, TX, 75050",638742974,"R"
37712,"1050 NORTH HIGHWAY 360 H2096","GRAND PRAIRIE","TX",75050,32.763246392,-97.06293261,212,"1050 NORTH HIGHWAY 360 H2096, GRAND PRAIRIE, TX, 75050","Match","Exact","1050 N HWY 360, GRAND PRAIRIE, TX, 75050",638742974,"R"
37713,"1050 NORTH HILLS DR","DECATUR","GA",30033,33.8095984820001,-84.2867407109999,213,"1050 NORTH HILLS DR, DECATUR, GA, 30033","Match","Exact","1050 N HILLS DR, DECATUR, GA, 30033",23360527,"L"
37714,"1050 NORTH MILLS AVENUE BOX 918","CLAREMONT","CA",91711,NA,NA,214,"1050 NORTH MILLS AVENUE BOX 918, CLAREMONT, CA, 91711","Tie",NA,NA,NA,NA
37715,"1050 NORTH MILLS AVENUE","CLAREMONT","CA",91711,NA,NA,215,"1050 NORTH MILLS AVENUE, CLAREMONT, CA, 91711","Tie",NA,NA,NA,NA
37716,"1050 NORTH TAYLOR ST APT 508","ARLINGTON","VA",22201,38.8830411110001,-77.112817122,216,"1050 NORTH TAYLOR ST APT 508, ARLINGTON, VA, 22201","Match","Exact","1050 N TAYLOR ST, ARLINGTON, VA, 22201",76468850,"L"
37717,"1050 NW 114 AVE","LAUDERHILL","FL",33323,26.1365113640001,-80.30038058,217,"1050 NW 114 AVE, LAUDERHILL, FL, 33323","Match","Non_Exact","1050 NW 114TH AVE, FT LAUDERDALE, FL, 33323",114698108,"R"
37718,"1050 NW 114 AVE","PLANTATION","FL",33323,26.1365113640001,-80.30038058,218,"1050 NW 114 AVE, PLANTATION, FL, 33323","Match","Exact","1050 NW 114TH AVE, PLANTATION, FL, 33323",114698108,"R"
37719,"1050 NW 114TH AVE","PLANTATION","FL",33323,26.1365113640001,-80.30038058,219,"1050 NW 114TH AVE, PLANTATION, FL, 33323","Match","Exact","1050 NW 114TH AVE, PLANTATION, FL, 33323",114698108,"R"
37720,"1050 NW 155TH LN APT 306","MIAMI","FL",33169,25.917350694,-80.2158387759999,220,"1050 NW 155TH LN APT 306, MIAMI, FL, 33169","Match","Non_Exact","1050 NW 155TH LN, MIAMI, FL, 33169",641972668,"L"
37721,"1050 NW 25TH AVE","FORT LAUDERDALE","FL",33311,26.1378345410001,-80.175948429,221,"1050 NW 25TH AVE, FORT LAUDERDALE, FL, 33311","Match","Exact","1050 NW 25TH AVE, FORT LAUDERDALE, FL, 33311",114720265,"R"
37722,"1050 NW 34 ST","MIAMI","FL",33127,25.8080591560001,-80.2123755109999,222,"1050 NW 34 ST, MIAMI, FL, 33127","Match","Exact","1050 NW 34TH ST, MIAMI, FL, 33127",116005822,"L"
37723,"1050 NW 4TH ST","BOYNTON","FL",33435,26.536282559,-80.0699841219999,223,"1050 NW 4TH ST, BOYNTON, FL, 33435","Match","Non_Exact","1050 NW 4TH ST, BOYNTON BEACH, FL, 33435",115295773,"R"
37724,"1050 OGLEWOOD AVE","KNOXVILLE","TN",37917,35.995980429,-83.9272848379999,224,"1050 OGLEWOOD AVE, KNOXVILLE, TN, 37917","Match","Non_Exact","1050 OGLEWOOD AVE NE, KNOXVILLE, TN, 37917",42617888,"R"
37725,"1050 OGLEWOOD AVENUE","KNOXVILLE","TN",37917,35.995980429,-83.9272848379999,225,"1050 OGLEWOOD AVENUE, KNOXVILLE, TN, 37917","Match","Non_Exact","1050 OGLEWOOD AVE NE, KNOXVILLE, TN, 37917",42617888,"R"
37726,"1050 OLD NICHOLS ROAD","ISLANDIA","NY",11749,40.8103298670001,-73.159062647,226,"1050 OLD NICHOLS ROAD, ISLANDIA, NY, 11749","Match","Exact","1050 NICHOLS RD, ISLANDIA, NY, 11749",638203935,"R"
37727,"1050 PAJARITOS LANE","TAOS","NM",87571,NA,NA,227,"1050 PAJARITOS LANE, TAOS, NM, 87571","No_Match",NA,NA,NA,NA
37728,"1050 PARK AVENUE APT D","NEW YORK","NY",10028,40.7806435690001,-73.9568687459999,228,"1050 PARK AVENUE APT D, NEW YORK, NY, 10028","Match","Exact","1050 PARK AVE, NEW YORK, NY, 10028",59657844,"L"
37729,"1050 PARK AVENUE","SAN JOSE","CA",95126,37.3260951610001,-121.909862855,229,"1050 PARK AVENUE, SAN JOSE, CA, 95126","Match","Exact","1050 PARK AVE, SAN JOSE, CA, 95126",639653234,"L"
37730,"1050 PENNOYER AVE","GRAND HAVEN","MI",49417,43.0591051930001,-86.216917081,230,"1050 PENNOYER AVE, GRAND HAVEN, MI, 49417","Match","Exact","1050 PENNOYER AVE, GRAND HAVEN, MI, 49417",71085866,"L"
37731,"1050 PENNSYLVANIA AVE","MIAMI BEACH","FL",33139,25.781312874,-80.13401721,231,"1050 PENNSYLVANIA AVE, MIAMI BEACH, FL, 33139","Match","Exact","1050 PENNSYLVANIA AVE, MIAMI BEACH, FL, 33139",116020591,"L"
37732,"1050 POLI STREET","VENTURA","CA",93001,34.2821306490001,-119.284594575,232,"1050 POLI STREET, VENTURA, CA, 93001","Match","Exact","1050 POLI ST, VENTURA, CA, 93001",110025091,"R"
37733,"1050 PRYOR ROAD","BYRDSTOWN","TN",38549,36.573877354,-85.168703627,233,"1050 PRYOR ROAD, BYRDSTOWN, TN, 38549","Match","Exact","1050 PRYOR RD, BYRDSTOWN, TN, 38549",25131077,"R"
37734,"1050 PUTNAM AVE APT 3L","BROOKLYN","NY",11221,40.687500722,-73.919822202,234,"1050 PUTNAM AVE APT 3L, BROOKLYN, NY, 11221","Match","Exact","1050 PUTNAM AVE, BROOKLYN, NY, 11221",639492296,"R"
37735,"1050 QUEEN STREET STE 100","HONOLULU","HI",96814,21.2953764270001,-157.852447655,235,"1050 QUEEN STREET STE 100, HONOLULU, HI, 96814","Match","Exact","1050 QUEEN ST, HONOLULU, HI, 96814",203333726,"L"
37736,"1050 RAMSAY DR","LUCAS","TX",75002,33.0987663270001,-96.5751019429999,236,"1050 RAMSAY DR, LUCAS, TX, 75002","Match","Exact","1050 RAMSAY DR, LUCAS, TX, 75002",123567406,"R"
37737,"1050 RED LEAF DR","CHRISTIANSBURG","VA",24073,37.148745498,-80.4236104999999,237,"1050 RED LEAF DR, CHRISTIANSBURG, VA, 24073","Match","Non_Exact","1050 RED LEAF CT, CHRISTIANSBURG, VA, 24073",73636174,"L"
37738,"1050 REMOUNT ROAD BLDG 3107","CHARLESTON","SC",29406,32.90364759,-79.973769062,238,"1050 REMOUNT ROAD BLDG 3107, CHARLESTON, SC, 29406","Match","Exact","1050 REMOUNT RD, CHARLESTON, SC, 29406",605840974,"L"
37739,"1050 RINCON VILLA PLACE","ESCONDIDO","CA",92027,33.148247973,-117.079856688,239,"1050 RINCON VILLA PLACE, ESCONDIDO, CA, 92027","Match","Exact","1050 RINCON VILLA PL, ESCONDIDO, CA, 92027",195312482,"L"
37740,"1050 ROCK QUARRY RD APT 31","STOCKBRIDGE","GA",30281,33.523045967,-84.230519886,240,"1050 ROCK QUARRY RD APT 31, STOCKBRIDGE, GA, 30281","Match","Exact","1050 ROCK QUARRY RD, STOCKBRIDGE, GA, 30281",23203303,"L"
37741,"1050 ROSS RD","APOLLO","PA",15613,40.5691454560001,-79.488892608,241,"1050 ROSS RD, APOLLO, PA, 15613","Match","Exact","1050 ROSS RD, APOLLO, PA, 15613",625191192,"R"
37742,"1050 ROSS ROAD","APOLLO","PA",15613,40.5691454560001,-79.488892608,242,"1050 ROSS ROAD, APOLLO, PA, 15613","Match","Exact","1050 ROSS RD, APOLLO, PA, 15613",625191192,"R"
37743,"1050 ROUTE 47","RIO GRANDE","NJ",8242,39.0196086020001,-74.8883611859999,243,"1050 ROUTE 47, RIO GRANDE, NJ, 8242","Match","Non_Exact","1050 RTE 47 S, RIO GRANDE, NJ, 08242",174336584,"R"
37744,"1050 RUTH ST","PRESCOTT","AZ",86301,34.562697374,-112.476628976,244,"1050 RUTH ST, PRESCOTT, AZ, 86301","Match","Exact","1050 RUTH ST, PRESCOTT, AZ, 86301",608211021,"L"
37745,"1050 S 8TH ST APT 3","COOS BAY","OR",97420,NA,NA,245,"1050 S 8TH ST APT 3, COOS BAY, OR, 97420","Tie",NA,NA,NA,NA
37746,"1050 S ACADEMY BLVD SUITE 146B","COLORADO SPRINGS","CO",80910,38.8152767290001,-104.757549081,246,"1050 S ACADEMY BLVD SUITE 146B, COLORADO SPRINGS, CO, 80910","Match","Non_Exact","1050 S ACADEMY BLVD, COLORADO SPRINGS, CO, 80910",653325625,"R"
37747,"1050 S FLOWER ST 309","LOS ANGELES","CA",90014,NA,NA,247,"1050 S FLOWER ST 309, LOS ANGELES, CA, 90014","No_Match",NA,NA,NA,NA
37748,"1050 S FLOWER ST UNIT 218","LOS ANGELES","CA",90015,34.043635905,-118.263466572,248,"1050 S FLOWER ST UNIT 218, LOS ANGELES, CA, 90015","Match","Non_Exact","1050 S FLOWER ST, LOS ANGELES, CA, 90015",141618900,"L"
37749,"1050 S JEFF DAVIS PKWY SUITE 337","NEW ORLEANS","LA",70125,NA,NA,249,"1050 S JEFF DAVIS PKWY SUITE 337, NEW ORLEANS, LA, 70125","No_Match",NA,NA,NA,NA
37750,"1050 S JEFFERSON DAVIS PKWY STE 337","NEW ORLEANS","LA",70125,29.960207267,-90.102180588,250,"1050 S JEFFERSON DAVIS PKWY STE 337, NEW ORLEANS, LA, 70125","Match","Non_Exact","1050 S JEFFERSON DAVIS PKWY, NEW ORLEANS, LA, 70125",191707279,"L"
37751,"1050 S OGDEN DRIVE UNIT 1/2","LOS ANGELES","CA",90019,34.056174985,-118.362363568,251,"1050 S OGDEN DRIVE UNIT 1/2, LOS ANGELES, CA, 90019","Match","Non_Exact","1050 S OGDEN DR, LOS ANGELES, CA, 90019",141599196,"L"
37752,"1050 S RIMWOOD DRIVE","ANAHEIM","CA",92807,33.8319263990001,-117.754150304,252,"1050 S RIMWOOD DRIVE, ANAHEIM, CA, 92807","Match","Exact","1050 S RIMWOOD DR, ANAHEIM, CA, 92807",640211243,"L"
37753,"1050 S TERRACE RD","TEMPE","AZ",85281,33.417118228,-111.922805988,253,"1050 S TERRACE RD, TEMPE, AZ, 85281","Match","Exact","1050 S TERRACE RD, TEMPE, AZ, 85281",128231820,"R"
37754,"1050 SADDLEBROOK DRIVE","LUCAS","TX",75002,33.0989811200001,-96.598911501,254,"1050 SADDLEBROOK DRIVE, LUCAS, TX, 75002","Match","Exact","1050 SADDLEBROOK DR, LUCAS, TX, 75002",210518942,"L"
37755,"1050 SE WESTWOODS DR","WAUKEE","IA",50263,NA,NA,255,"1050 SE WESTWOODS DR, WAUKEE, IA, 50263","No_Match",NA,NA,NA,NA
37756,"1050 SEMINOLE DR","FORT LAUDERDALE","FL",33304,26.138272274,-80.1108406609999,256,"1050 SEMINOLE DR, FORT LAUDERDALE, FL, 33304","Match","Exact","1050 SEMINOLE DR, FORT LAUDERDALE, FL, 33304",637284910,"R"
37757,"1050 SEVEN OAKS LANE","MAMARONECK","NY",10543,40.929926304,-73.72745251,257,"1050 SEVEN OAKS LANE, MAMARONECK, NY, 10543","Match","Exact","1050 SEVEN OAKS LN, MAMARONECK, NY, 10543",139755611,"L"
37758,"1050 SHANKLIN ROAD","MAYSLICK","KY",41055,NA,NA,258,"1050 SHANKLIN ROAD, MAYSLICK, KY, 41055","No_Match",NA,NA,NA,NA
37759,"1050 SKYLINE DRIVE","ALEXANDER","AR",72002,NA,NA,259,"1050 SKYLINE DRIVE, ALEXANDER, AR, 72002","No_Match",NA,NA,NA,NA
37760,"1050 SOUTH 39TH STREET","SPRINGFIELD","OR",97478,44.0339612710001,-122.970553713,260,"1050 SOUTH 39TH STREET, SPRINGFIELD, OR, 97478","Match","Exact","1050 S 39TH ST, SPRINGFIELD, OR, 97478",605393080,"R"
37761,"1050 SOUTH FOSTER DRIVE","BATON ROUGE","LA",70806,30.4569968370001,-91.1393052559999,261,"1050 SOUTH FOSTER DRIVE, BATON ROUGE, LA, 70806","Match","Non_Exact","1050 N FOSTER DR, BATON ROUGE, LA, 70806",92184244,"R"
37762,"1050 SOUTH JEFFERSON","NEW ORLEANAS","LA",70125,NA,NA,262,"1050 SOUTH JEFFERSON, NEW ORLEANAS, LA, 70125","No_Match",NA,NA,NA,NA
37763,"1050 SOUTHRIDGE DR","DELPHOS","OH",45833,40.8282878700001,-84.352203088,263,"1050 SOUTHRIDGE DR, DELPHOS, OH, 45833","Match","Exact","1050 SOUTHRIDGE DR, DELPHOS, OH, 45833",6750262,"L"
37764,"1050 SPITLER PARK","MT. ZION","IL",62549,39.781198912,-88.856022901,264,"1050 SPITLER PARK, MT. ZION, IL, 62549","Match","Non_Exact","1050 SPITLER PARK DR, MT ZION, IL, 62549",20752240,"L"
37765,"1050 SPRING CREEK DR APT 202","LYNCHBURG","VA",24551,37.3700716280001,-79.255383641,265,"1050 SPRING CREEK DR APT 202, LYNCHBURG, VA, 24551","Match","Non_Exact","1050 SPRING CREEK DR, FOREST, VA, 24551",651789456,"L"
37766,"1050 SPRING CREEK DRIVE - 101","FOREST","VA",24551,37.3700716280001,-79.255383641,266,"1050 SPRING CREEK DRIVE - 101, FOREST, VA, 24551","Match","Exact","1050 SPRING CREEK DR, FOREST, VA, 24551",651789456,"L"
37767,"1050 STATE ST APT 417","NEW HAVEN","CT",6511,41.316696117,-72.907586943,267,"1050 STATE ST APT 417, NEW HAVEN, CT, 6511","Match","Exact","1050 STATE ST, NEW HAVEN, CT, 06511",641489737,"L"
37768,"1050 STATE STREET","NEW HAVEN","CT",6511,41.316696117,-72.907586943,268,"1050 STATE STREET, NEW HAVEN, CT, 6511","Match","Exact","1050 STATE ST, NEW HAVEN, CT, 06511",641489737,"L"
37769,"1050 STONEBROOK LANE","GASTONIA","NC",28056,35.2893701290001,-81.0860809229999,269,"1050 STONEBROOK LANE, GASTONIA, NC, 28056","Match","Exact","1050 STONEBROOK LN, GASTONIA, NC, 28056",633795610,"R"
37770,"1050 SUMMER GLEN DR","LAKELAND","FL",33880,28.0081347300001,-81.7657988459999,270,"1050 SUMMER GLEN DR, LAKELAND, FL, 33880","Match","Non_Exact","1050 SUMMER GLEN DR, WAHNETA, FL, 33880",653868201,"L"
37771,"1050 SUMMIT PARK","LEWISVILLE","TX",75067,33.0515365570001,-97.020168529,271,"1050 SUMMIT PARK, LEWISVILLE, TX, 75067","Match","Non_Exact","1050 SUMMIT PARK, LEWISVILLE, TX, 75077",103371538,"R"
37772,"1050 SUMMIT PARK","LEWISVILLE","TX",75077,33.0515365570001,-97.020168529,272,"1050 SUMMIT PARK, LEWISVILLE, TX, 75077","Match","Exact","1050 SUMMIT PARK, LEWISVILLE, TX, 75077",103371538,"R"
37773,"1050 SW 13TH PLACE","BOCA RATON","FL",33486,26.337043722,-80.106897363,273,"1050 SW 13TH PLACE, BOCA RATON, FL, 33486","Match","Exact","1050 SW 13TH PL, BOCA RATON, FL, 33486",115302785,"L"
37774,"1050 SW 6TH STREET","MIAMI","FL",33130,25.7677718460001,-80.2120556849999,274,"1050 SW 6TH STREET, MIAMI, FL, 33130","Match","Exact","1050 SW 6TH ST, MIAMI, FL, 33130",116016865,"L"
37775,"1050 SW 6TH","PORTLAND","OR",97204,45.516728883,-122.679859121,275,"1050 SW 6TH, PORTLAND, OR, 97204","Match","Non_Exact","1050 SW 6TH AVE, PORTLAND, OR, 97204",157499256,"L"
37776,"1050 SW E AVE APT 3","CORVALLIS","OR",97333,44.557231417,-123.270325376,276,"1050 SW E AVE APT 3, CORVALLIS, OR, 97333","Match","Non_Exact","1050 SW E AVE, CORVALLIS, OR, 97333",155847449,"R"
37777,"1050 SW LIBERTY AVE","PORT ST. LUCIE","FL",34953,27.238511246,-80.381036664,277,"1050 SW LIBERTY AVE, PORT ST. LUCIE, FL, 34953","Match","Exact","1050 SW LIBERTY AVE, PORT ST LUCIE, FL, 34953",120143604,"R"
37778,"1050 SW TIMIAN STREET","CORVALLIS","OR",97333,44.55592857,-123.305385614,278,"1050 SW TIMIAN STREET, CORVALLIS, OR, 97333","Match","Exact","1050 SW TIMIAN ST, CORVALLIS, OR, 97333",155847498,"L"
37779,"1050 TENDERFOOT DR","LARKSPUR","CO",80118,39.2479490060001,-104.905277757,279,"1050 TENDERFOOT DR, LARKSPUR, CO, 80118","Match","Exact","1050 TENDERFOOT DR, LARKSPUR, CO, 80118",130847202,"L"
37780,"1050 THOMAS RD","BEAUMONT","TX",77706,30.090667883,-94.149608533,280,"1050 THOMAS RD, BEAUMONT, TX, 77706","Match","Exact","1050 THOMAS RD, BEAUMONT, TX, 77706",73852605,"R"
37781,"1050 TIENKEN","ROCHESTER HILLS","MI",48306,NA,NA,281,"1050 TIENKEN, ROCHESTER HILLS, MI, 48306","No_Match",NA,NA,NA,NA
37782,"1050 TRACY","LANCASTER","TX",75134,32.608269867,-96.779236252,282,"1050 TRACY, LANCASTER, TX, 75134","Match","Non_Exact","1050 TRACY LN, LANCASTER, TX, 75134",102955122,"L"
37783,"1050 TREMONT ST APT 711","ROXBURY","MA",2120,42.336404273,-71.085674178,283,"1050 TREMONT ST APT 711, ROXBURY, MA, 2120","Match","Exact","1050 TREMONT ST, ROXBURY, MA, 02120",85700075,"L"
37784,"1050 TRINITY DRIVE","MENLO PARK","CA",94025,37.4258424020001,-122.213166896,284,"1050 TRINITY DRIVE, MENLO PARK, CA, 94025","Match","Exact","1050 TRINITY DR, MENLO PARK, CA, 94025",192397083,"R"
37785,"1050 TUSCALOOSA AVENUE","GADSDEN","AL",35901,34.0246318970001,-86.01497233,285,"1050 TUSCALOOSA AVENUE, GADSDEN, AL, 35901","Match","Exact","1050 TUSCALOOSA AVE, GADSDEN, AL, 35901",66771143,"L"
37786,"1050 TYNE BLVD","NASHVILLE","TN",37220,36.0804226980001,-86.795539573,286,"1050 TYNE BLVD, NASHVILLE, TN, 37220","Match","Exact","1050 TYNE BLVD, NASHVILLE, TN, 37220",97191447,"R"
37787,"1050 UPPER SCHOONER RD","NASHVILLE","IN",47448,39.1602143440001,-86.265311117,287,"1050 UPPER SCHOONER RD, NASHVILLE, IN, 47448","Match","Exact","1050 UPPER SCHOONER RD, NASHVILLE, IN, 47448",43528326,"L"
37788,"1050 US HWY 224","NOVA","OH",44859,41.029460617,-82.3323239919999,288,"1050 US HWY 224, NOVA, OH, 44859","Match","Exact","1050 US HWY 224, NOVA, OH, 44859",640079038,"R"
37789,"1050 VETO ST NW","GRAND RAPIDS","MI",49504,42.9645795870001,-85.693667053,289,"1050 VETO ST NW, GRAND RAPIDS, MI, 49504","Match","Exact","1050 VETO ST NW, GRAND RAPIDS, MI, 49504",12456214,"L"
37790,"1050 W 1045 S","CLEARFIELD","UT",84015,41.0986130060001,-112.046273653,290,"1050 W 1045 S, CLEARFIELD, UT, 84015","Match","Exact","1050 W 1045 S, CLEARFIELD, UT, 84015",155305432,"L"
37791,"1050 W 2ND","RIVIERA BEACH","FL",33404,NA,NA,291,"1050 W 2ND, RIVIERA BEACH, FL, 33404","No_Match",NA,NA,NA,NA
37792,"1050 W 8TH AVE","MESA","AZ",85210,33.400386435,-111.855460933,292,"1050 W 8TH AVE, MESA, AZ, 85210","Match","Non_Exact","1050 W 8TH AVE, MESA, AZ, 85210",128923264,"R"
37793,"1050 W ALAMEDA AVE","BURBANK","CA",91506,34.1631594360001,-118.313340117,293,"1050 W ALAMEDA AVE, BURBANK, CA, 91506","Match","Exact","1050 W ALAMEDA AVE, BURBANK, CA, 91506",241240112,"L"
37794,"1050 W BELL STREET","ARLINGTON","NE",68002,41.458472871,-96.360331695,294,"1050 W BELL STREET, ARLINGTON, NE, 68002","Match","Exact","1050 W BELL ST, ARLINGTON, NE, 68002",176757097,"L"
37795,"1050 W DEERPATH","LAKE FOREST","IL",60045,NA,NA,295,"1050 W DEERPATH, LAKE FOREST, IL, 60045","No_Match",NA,NA,NA,NA
37796,"1050 W GALLERIA DRIVE","HENDERSON","NV",89011,NA,NA,296,"1050 W GALLERIA DRIVE, HENDERSON, NV, 89011","No_Match",NA,NA,NA,NA
37797,"1050 W HOLT AVE","ONTARIO","CA",91762,34.063326784,-117.668717469,297,"1050 W HOLT AVE, ONTARIO, CA, 91762","Match","Non_Exact","1050 W HOLT BLVD, ONTARIO, CA, 91762",144672415,"R"
37798,"1050 W INDIANA ST","GLENWOOD","IL",60425,41.555996308,-87.638126974,298,"1050 W INDIANA ST, GLENWOOD, IL, 60425","Match","Exact","1050 INDIANA ST, GLENWOOD, IL, 60425",111712843,"L"
37799,"1050 W IOWA AVE","ST PAUL","MN",55117,44.9892221910001,-93.1446874109999,299,"1050 W IOWA AVE, ST PAUL, MN, 55117","Match","Exact","1050 W IOWA AVE, SAINT PAUL, MN, 55117",97641807,"L"
37800,"1050 W SPRING ST","BROWNSTOWN","IN",47220,38.884688295,-86.054370004,300,"1050 W SPRING ST, BROWNSTOWN, IN, 47220","Match","Exact","1050 W SPRING ST, BROWNSTOWN, IN, 47220",31262584,"L"
37801,"1050 W WATER STREET","BELLEFONTE","PA",16823,40.902753175,-77.794880372,301,"1050 W WATER STREET, BELLEFONTE, PA, 16823","Match","Exact","1050 W WATER ST, BELLEFONTE, PA, 16823",50360461,"R"
37802,"1050 WALNUT STREET STE 202","BOULDER","CO",80302,40.016475664,-105.281556809,302,"1050 WALNUT STREET STE 202, BOULDER, CO, 80302","Match","Exact","1050 WALNUT ST, BOULDER, CO, 80302",220750676,"R"
37803,"1050 WALNUT STREET SUITE 202","BOULDER","CO",80302,40.016475664,-105.281556809,303,"1050 WALNUT STREET SUITE 202, BOULDER, CO, 80302","Match","Exact","1050 WALNUT ST, BOULDER, CO, 80302",220750676,"R"
37804,"1050 WATERVIEW DRIVE","SOUTHOLD","NY",11971,41.0435015670001,-72.423358569,304,"1050 WATERVIEW DRIVE, SOUTHOLD, NY, 11971","Match","Exact","1050 WATERVIEW DR, SOUTHOLD, NY, 11971",643834677,"L"
37805,"1050 WAYNE AVENUE","CARLISLE","PA",17013,40.219672732,-77.1740184499999,305,"1050 WAYNE AVENUE, CARLISLE, PA, 17013","Match","Exact","1050 WAYNE AVE, CARLISLE, PA, 17013",60932811,"R"
37806,"1050 WESLEY DR","JACKSON","MS",39209,32.4590448700001,-90.289692116,306,"1050 WESLEY DR, JACKSON, MS, 39209","Match","Exact","1050 WESLEY DR, JACKSON, MS, 39209",65385890,"L"
37807,"1050 WEST 2ND STREET APT 5","RENO","NV",89503,39.524340554,-119.826755201,307,"1050 WEST 2ND STREET APT 5, RENO, NV, 89503","Match","Exact","1050 W 2ND ST, RENO, NV, 89503",107044706,"L"
37808,"1050 WEST BRISTOL ROAD","FLINT","MI",48507,42.973994212,-83.696424386,308,"1050 WEST BRISTOL ROAD, FLINT, MI, 48507","Match","Exact","1050 W BRISTOL RD, FLINT, MI, 48507",638721063,"R"
37809,"1050 WEST CAPITOL AVE 42","WEST SACRAMENTO","CA",95691,38.581601876,-121.522479405,309,"1050 WEST CAPITOL AVE 42, WEST SACRAMENTO, CA, 95691","Match","Exact","1050 W CAPITOL AVE, WEST SACRAMENTO, CA, 95691",67693433,"R"
37810,"1050 WEST GREENWOOD","JACKSONVILLE","IL",62650,39.7123644540001,-90.245146841,310,"1050 WEST GREENWOOD, JACKSONVILLE, IL, 62650","Match","Non_Exact","1050 W GREENWOOD AVE, JACKSONVILLE, IL, 62650",81432671,"R"
37811,"1050 WESTBURY SQUARE","BYRAM","MS",39212,32.243901199,-90.321803121,311,"1050 WESTBURY SQUARE, BYRAM, MS, 39212","Match","Exact","1050 WESTBURY SQ, BYRAM, MS, 39212",611223006,"L"
37812,"1050 WESTBURY SQUARE","JACKSON","MS",39212,32.243901199,-90.321803121,312,"1050 WESTBURY SQUARE, JACKSON, MS, 39212","Match","Exact","1050 WESTBURY SQ, JACKSON, MS, 39212",611223006,"L"
37813,"1050 WESTCHESTER ROAD","SOUTH PARK","PA",15219,40.300868554,-80.011774012,313,"1050 WESTCHESTER ROAD, SOUTH PARK, PA, 15219","Match","Non_Exact","1050 WESTCHESTER RD, SOUTH PARK, PA, 15129",51925538,"L"
37814,"1050 WESTLAKES DRIVE","BERWYN","PA",19312,40.062104321,-75.4716517269999,314,"1050 WESTLAKES DRIVE, BERWYN, PA, 19312","Match","Exact","1050 WESTLAKES DR, BERWYN, PA, 19312",640454333,"L"
37815,"1050 WESTMINSTER STREET","FITCHBURG","MA",1420,42.5610934050001,-71.854002119,315,"1050 WESTMINSTER STREET, FITCHBURG, MA, 1420","Match","Exact","1050 WESTMINSTER ST, FITCHBURG, MA, 01420",40101673,"R"
37816,"1050 WHEELER AVE 3S","BRONX","NY",10472,40.8248302320001,-73.8792402129999,316,"1050 WHEELER AVE 3S, BRONX, NY, 10472","Match","Exact","1050 WHEELER AVE, BRONX, NY, 10472",80303095,"R"
37817,"1050 WHISPERING PINES LANE SUITE G","GRASS VALLEY","CA",95945,39.222300262,-121.034489215,317,"1050 WHISPERING PINES LANE SUITE G, GRASS VALLEY, CA, 95945","Match","Exact","1050 WHISPERING PINES LN, GRASS VALLEY, CA, 95945",106561544,"L"
37818,"1050 WHITNEY RANCH 1423","HENDERSON","NV",89014,36.080270001,-115.053541194,318,"1050 WHITNEY RANCH 1423, HENDERSON, NV, 89014","Match","Non_Exact","1050 WHITNEY RANCH DR, HENDERSON, NV, 89014",201915522,"L"
37819,"1050 WHITNEY RANCH DR 3412","HENDERSON","NV",89014,36.080270001,-115.053541194,319,"1050 WHITNEY RANCH DR 3412, HENDERSON, NV, 89014","Match","Exact","1050 WHITNEY RANCH DR, HENDERSON, NV, 89014",201915522,"L"
37820,"1050 WHITNEY RANCH DRIVE APT 1012","HENDERSON","NV",89014,36.080270001,-115.053541194,320,"1050 WHITNEY RANCH DRIVE APT 1012, HENDERSON, NV, 89014","Match","Exact","1050 WHITNEY RANCH DR, HENDERSON, NV, 89014",201915522,"L"
37821,"1050 WILLIAMS ST","ROCKWALL","TX",75087,32.9364273260001,-96.444538127,321,"1050 WILLIAMS ST, ROCKWALL, TX, 75087","Match","Exact","1050 WILLIAMS ST, ROCKWALL, TX, 75087",123791789,"R"
37822,"1050 WILLOW BROOK DRIVE","ST. LOUIS","MO",63146,38.676996903,-90.411195503,322,"1050 WILLOW BROOK DRIVE, ST. LOUIS, MO, 63146","Match","Exact","1050 WILLOW BROOK DR, SAINT LOUIS, MO, 63146",628738497,"L"
37823,"1050 WILLOW CREST LANDING","AUSTELL","GA",30168,33.7953187300001,-84.5890983799999,323,"1050 WILLOW CREST LANDING, AUSTELL, GA, 30168","Match","Exact","1050 WILLOW CREST LNDG, AUSTELL, GA, 30168",614181343,"L"
37824,"1050 WILLOW ROAD","WINNETKA","IL",60093,42.1010845320001,-87.743352763,324,"1050 WILLOW ROAD, WINNETKA, IL, 60093","Match","Exact","1050 WILLOW RD, WINNETKA, IL, 60093",111737828,"L"
37825,"1050 WILLOW VIEW DR","ORONO","MN",55356,44.9976834880001,-93.585993064,325,"1050 WILLOW VIEW DR, ORONO, MN, 55356","Match","Exact","1050 WILLOW VIEW DR, ORONO, MN, 55356",43859180,"R"
37826,"1050 WILSHIRE BLVD NMB 517","LOS ANGELES","CA",90017,34.0521139260001,-118.262848194,326,"1050 WILSHIRE BLVD NMB 517, LOS ANGELES, CA, 90017","Match","Exact","1050 WILSHIRE BLVD, LOS ANGELES, CA, 90017",142732412,"L"
37827,"1050 WILSHIRE CIRCLE WEST","PEMBROKE PINES","FL",33027,26.0004354980001,-80.349551907,327,"1050 WILSHIRE CIRCLE WEST, PEMBROKE PINES, FL, 33027","Match","Exact","1050 WILSHIRE CIR W, PEMBROKE PINES, FL, 33027",114769764,"R"
37828,"1050 WYNDHAM DRIVE","HARRISONBURG","VA",22801,38.449566492,-78.8919229969999,328,"1050 WYNDHAM DRIVE, HARRISONBURG, VA, 22801","Match","Exact","1050 WYNDHAM DR, HARRISONBURG, VA, 22801",55762526,"L"
37829,"1050 YOSEMITE DRIVE","PACIFICA","CA",94044,37.5874566620001,-122.471153521,329,"1050 YOSEMITE DRIVE, PACIFICA, CA, 94044","Match","Exact","1050 YOSEMITE DR, PACIFICA, CA, 94044",192388609,"R"
37830,"1050-2 POPLAR SPRINGS CHURCH RD","SHELBY","NC",28152,35.256457622,-81.606313149,330,"1050-2 POPLAR SPRINGS CHURCH RD, SHELBY, NC, 28152","Match","Exact","1050 POPLAR SPRINGS CHURCH RD, SHELBY, NC, 28152",19328980,"L"
37831,"1050","LAWRENCEVILLE","GA",30044,NA,NA,331,"1050, LAWRENCEVILLE, GA, 30044","No_Match",NA,NA,NA,NA
37832,"10500 220TH STREET","QUEENS VILLAGE","NY",11429,NA,NA,332,"10500 220TH STREET, QUEENS VILLAGE, NY, 11429","No_Match",NA,NA,NA,NA
37833,"10500 221ST LN NE UNIT 201","REDMOND","WA",98053,47.691628354,-122.044560271,333,"10500 221ST LN NE UNIT 201, REDMOND, WA, 98053","Match","Exact","10500 221ST LN NE, REDMOND, WA, 98053",640962649,"L"
37834,"10500 47TH PLACE W","MUKILTEO","WA",98275,47.903758424,-122.29651012,334,"10500 47TH PLACE W, MUKILTEO, WA, 98275","Match","Exact","10500 47TH PL W, MUKILTEO, WA, 98275",187798247,"L"
37835,"10500 47TH PLACE W","MUKITLEO","WA",98275,47.903758424,-122.29651012,335,"10500 47TH PLACE W, MUKITLEO, WA, 98275","Match","Non_Exact","10500 47TH PL W, MUKILTEO, WA, 98275",187798247,"L"
37836,"10500 51ST AVE S APT 202","SEATTLE","WA",98178,47.506949938,-122.270116883,336,"10500 51ST AVE S APT 202, SEATTLE, WA, 98178","Match","Exact","10500 51ST AVE S, SEATTLE, WA, 98178",186626793,"L"
37837,"10500 BIT AND SPUR LANE","POTOMAC","MD",20854,39.017084057,-77.216201707,337,"10500 BIT AND SPUR LANE, POTOMAC, MD, 20854","Match","Exact","10500 BIT AND SPUR LN, POTOMAC, MD, 20854",62049456,"R"
37838,"10500 CALLE MERIDA NW","ALBUQUERQUE","NM",87114,35.2097026110001,-106.720610378,338,"10500 CALLE MERIDA NW, ALBUQUERQUE, NM, 87114","Match","Non_Exact","10500 CLL MERIDA NW, ALBUQUERQUE, NM, 87114",625695157,"R"
37839,"10500 CEDAR BREAKS VW","MKINNEY","TX",75070,NA,NA,339,"10500 CEDAR BREAKS VW, MKINNEY, TX, 75070","No_Match",NA,NA,NA,NA
37840,"10500 CLEAR LAKE LOOP 104","FORT MYERS","FL",33908,26.5197582260001,-81.9340483289999,340,"10500 CLEAR LAKE LOOP 104, FORT MYERS, FL, 33908","Match","Exact","10500 CLEAR LAKE LOOP, FORT MYERS, FL, 33908",118115656,"R"
37841,"10500 COUNTY ROAD 219","BROOKSMITH","TX",76827,31.4720976030001,-99.173300288,341,"10500 COUNTY ROAD 219, BROOKSMITH, TX, 76827","Match","Non_Exact","10500 CO RD 219, BROOKESMITH, TX, 76827",129449068,"L"
37842,"10500 COURSEY BOULEVARD","BATON ROUGE","LA",70816,30.4175677740001,-91.0678066999999,342,"10500 COURSEY BOULEVARD, BATON ROUGE, LA, 70816","Match","Exact","10500 COURSEY BLVD, BATON ROUGE, LA, 70816",619223903,"L"
37843,"10500 E 79TH ST","RAYTOWN","MO",64138,38.9792767960001,-94.458627432,343,"10500 E 79TH ST, RAYTOWN, MO, 64138","Match","Exact","10500 E 79TH ST, RAYTOWN, MO, 64138",91467109,"L"
37844,"10500 E BERKELEY SQUARE PKWY","WICHITA","KS",67206,37.7092881720001,-97.215618615,344,"10500 E BERKELEY SQUARE PKWY, WICHITA, KS, 67206","Match","Exact","10500 E BERKELEY SQUARE PKWY, WICHITA, KS, 67206",647583120,"L"
37845,"10500 E MAGUIRE RD","NOBLE","OK",73068,35.131357108,-97.287341047,345,"10500 E MAGUIRE RD, NOBLE, OK, 73068","Match","Exact","10500 MAGUIRE RD, NOBLE, OK, 73068",99924759,"R"
37846,"10500 FAIRMOUNT FALLS WAY","LOUISVILLE","KY",40291,38.1168541480001,-85.566332125,346,"10500 FAIRMOUNT FALLS WAY, LOUISVILLE, KY, 40291","Match","Exact","10500 FAIRMOUNT FALLS WAY, LOUISVILLE, KY, 40291",96919002,"R"
37847,"10500 FIRVIEW COURT","LOUISVILLE","KY",40299,38.1858687390001,-85.5632766149999,347,"10500 FIRVIEW COURT, LOUISVILLE, KY, 40299","Match","Exact","10500 FIRVIEW CT, LOUISVILLE, KY, 40299",96883788,"L"
37848,"10500 FOUNTAIN LAKE DR APT 222","STAFFORD","TX",77477,NA,NA,348,"10500 FOUNTAIN LAKE DR APT 222, STAFFORD, TX, 77477","No_Match",NA,NA,NA,NA
37849,"10500 FOUNTAIN LAKE DR","STAFFORD","TX",77477,NA,NA,349,"10500 FOUNTAIN LAKE DR, STAFFORD, TX, 77477","No_Match",NA,NA,NA,NA
37850,"10500 FREMONT AVE","LUBBOCK","TX",79423,33.4989336730001,-101.882438058,350,"10500 FREMONT AVE, LUBBOCK, TX, 79423","Match","Exact","10500 FREMONT AVE, LUBBOCK, TX, 79423",185274178,"R"
37851,"10500 LAKELINE MALL DR 2401","AUSTIN","TX",78717,30.4769755390001,-97.789387325,351,"10500 LAKELINE MALL DR 2401, AUSTIN, TX, 78717","Match","Exact","10500 LAKELINE MALL DR, AUSTIN, TX, 78717",641129765,"L"
37852,"10500 MERIDIAN AVE N A402","SEATTLE","WA",98133,47.7053663830001,-122.333927551,352,"10500 MERIDIAN AVE N A402, SEATTLE, WA, 98133","Match","Exact","10500 MERIDIAN AVE N, SEATTLE, WA, 98133",186579767,"R"
37853,"10500 N ARROWHEAD TRAFFICWAY","KANSAS CITY","MO",64155,39.283134085,-94.585259755,353,"10500 N ARROWHEAD TRAFFICWAY, KANSAS CITY, MO, 64155","Match","Exact","10500 ARROWHEAD TRFY, KANSAS CITY, MO, 64155",641591991,"L"
37854,"10500 NE 8TH ST - SUITE 301","BELLEVUE","WA",98004,47.6174282960001,-122.200329553,354,"10500 NE 8TH ST - SUITE 301, BELLEVUE, WA, 98004","Match","Non_Exact","10500 NE 8TH ST, BELLEVUE, WA, 98004",186605164,"L"
37855,"10500 NOYES ROAD","NORTH COLLINS","NY",14111,42.595836385,-78.942998014,355,"10500 NOYES ROAD, NORTH COLLINS, NY, 14111","Match","Non_Exact","10500 NOYES ST, NORTH COLLINS, NY, 14111",48312239,"R"
37856,"10500 NW 107TH CT","REDDICK","FL",32686,29.301474184,-82.296837458,356,"10500 NW 107TH CT, REDDICK, FL, 32686","Match","Exact","10500 NW 107TH CT, REDDICK, FL, 32686",116706051,"L"
37857,"10500 PINE HAVEN TERRACE","ROCKVILLE","MD",20852,39.030236524,-77.116934741,357,"10500 PINE HAVEN TERRACE, ROCKVILLE, MD, 20852","Match","Exact","10500 PINE HAVEN TER, ROCKVILLE, MD, 20852",62078267,"R"
37858,"10500 RIO WRANGLER PARKWAY","RENO","NV",89521,39.425682597,-119.71433838,358,"10500 RIO WRANGLER PARKWAY, RENO, NV, 89521","Match","Exact","10500 RIO WRANGLER PKWY, RENO, NV, 89521",632648583,"L"
37859,"10500 RIO WRANGLER PKWY","RENO","NV",89521,39.425682597,-119.71433838,359,"10500 RIO WRANGLER PKWY, RENO, NV, 89521","Match","Exact","10500 RIO WRANGLER PKWY, RENO, NV, 89521",632648583,"L"
37860,"10500 ROCVILLE PIKE UNIT 816","ROCKVILLE","MD",20852,NA,NA,360,"10500 ROCVILLE PIKE UNIT 816, ROCKVILLE, MD, 20852","No_Match",NA,NA,NA,NA
37861,"10500 S 4190 RD","CLAREMORE","OK",74017,36.4598476240001,-95.54324646,361,"10500 S 4190 RD, CLAREMORE, OK, 74017","Match","Exact","10500 S 4190 RD, CLAREMORE, OK, 74017",612075152,"L"
37862,"10500 S 587 RD","MIAMI","OK",74354,NA,NA,362,"10500 S 587 RD, MIAMI, OK, 74354","Tie",NA,NA,NA,NA
37863,"10500 S CLARE AVENUE","CLARE","MI",48617,43.8361356410001,-84.7682256699999,363,"10500 S CLARE AVENUE, CLARE, MI, 48617","Match","Exact","10500 S CLARE AVE, CLARE, MI, 48617",647732922,"L"
37864,"10500 S KEDVALE AVE","OAK LAWN","IL",60453,41.7020212900001,-87.7243898259999,364,"10500 S KEDVALE AVE, OAK LAWN, IL, 60453","Match","Exact","10500 KEDVALE AVE, OAK LAWN, IL, 60453",605316494,"R"
37865,"10500 S PROSPECT","CHICAGO","IL",60643,41.7029061380001,-87.661888348,365,"10500 S PROSPECT, CHICAGO, IL, 60643","Match","Non_Exact","10500 S PROSPECT AVE, CHICAGO, IL, 60643",111823117,"R"
37866,"10500 SHADOW RIDGE LANE APT 202","LOUISVILLE","KY",40241,38.318143397,-85.5564225259999,366,"10500 SHADOW RIDGE LANE APT 202, LOUISVILLE, KY, 40241","Match","Exact","10500 SHADOW RIDGE LN, LOUISVILLE, KY, 40241",96888721,"R"
37867,"10500 SOUTH LOCKWOOD","PERKINS","OK",74059,NA,NA,367,"10500 SOUTH LOCKWOOD, PERKINS, OK, 74059","No_Match",NA,NA,NA,NA
37868,"10500 SW 108TH AVE APT B213","MIAMI","FL",33176,25.6698699470001,-80.370124957,368,"10500 SW 108TH AVE APT B213, MIAMI, FL, 33176","Match","Non_Exact","10500 SW 108TH AVE, MIAMI, FL, 33176",116281373,"R"
37869,"10500 SW 146 ST","MIAMI","FL",33176,25.634012973,-80.364514873,369,"10500 SW 146 ST, MIAMI, FL, 33176","Match","Exact","10500 SW 146TH ST, MIAMI, FL, 33176",115982020,"L"
37870,"10500 SW 152 TERRACE","MIAMI","FL",33157,25.62802414,-80.366389216,370,"10500 SW 152 TERRACE, MIAMI, FL, 33157","Match","Non_Exact","10500 SW 152ND ST, MIAMI, FL, 33157",115982051,"L"
37871,"10500 TRAILMONT LN","CORDOVA","TN",38016,35.1615680370001,-89.7128945489999,371,"10500 TRAILMONT LN, CORDOVA, TN, 38016","Match","Exact","10500 TRAILMONT LN, CORDOVA, TN, 38016",72976028,"L"
37872,"10500 W OAKLAND PARK","SUNRISE","FL",33351,26.169512045,-80.293027572,372,"10500 W OAKLAND PARK, SUNRISE, FL, 33351","Match","Non_Exact","10500 W OAKLAND PARK BLVD, SUNRISE, FL, 33351",637115863,"R"
37873,"10500 WESTPHALIA RD","UPPER MARLBORO","MD",20774,38.845368738,-76.8248805109999,373,"10500 WESTPHALIA RD, UPPER MARLBORO, MD, 20774","Match","Exact","10500 WESTPHALIA RD, UPPER MARLBORO, MD, 20774",642143255,"L"
37874,"10500 WINGED ELM CIRCLE","MANASSAS","VA",20110,38.7276509370001,-77.498688333,374,"10500 WINGED ELM CIRCLE, MANASSAS, VA, 20110","Match","Exact","10500 WINGED ELM CIR, MANASSAS, VA, 20110",76520711,"L"
37875,"105000 DANKINS RD","RICHMOND","VA",23236,NA,NA,375,"105000 DANKINS RD, RICHMOND, VA, 23236","No_Match",NA,NA,NA,NA
37876,"10501 11TH AVE NW","SEATTLE","WA",98117,47.7053915770001,-122.370162253,376,"10501 11TH AVE NW, SEATTLE, WA, 98117","Match","Non_Exact","10501 11TH AVE NW, SEATTLE, WA, 98177",239771981,"L"
37877,"10501 28M ST NW","KEENE","ND",58847,NA,NA,377,"10501 28M ST NW, KEENE, ND, 58847","No_Match",NA,NA,NA,NA
37878,"10501 50TH AVE E","TACOMA","WA",98446,47.1608054690001,-122.362382708,378,"10501 50TH AVE E, TACOMA, WA, 98446","Match","Exact","10501 50TH AVE E, TACOMA, WA, 98446",184633285,"L"
37879,"10501 ALGER ROAD","HARROD","OH",45850,40.7028726680001,-83.908583235,379,"10501 ALGER ROAD, HARROD, OH, 45850","Match","Exact","10501 ALGER RD, HARROD, OH, 45850",209536728,"R"
37880,"10501 BELLEFONTAINE RD","BELLEFONTAINE","MO",63105,NA,NA,380,"10501 BELLEFONTAINE RD, BELLEFONTAINE, MO, 63105","No_Match",NA,NA,NA,NA
37881,"10501 BRANNON CV","AUSTIN","TX",78759,30.4088579890001,-97.762297963,381,"10501 BRANNON CV, AUSTIN, TX, 78759","Match","Exact","10501 BRANNON COVE, AUSTIN, TX, 78759",63927551,"R"
37882,"10501 BRIGHTFIELD LN","UPPER MARLBORO","MD",20772,38.78552926,-76.8274068279999,382,"10501 BRIGHTFIELD LN, UPPER MARLBORO, MD, 20772","Match","Exact","10501 BRIGHTFIELD LN, UPPER MARLBORO, MD, 20772",639242124,"R"
37883,"10501 CORPORATE DRIVE","FT. WAYNE","IN",46845,41.1798425430001,-85.1006983949999,383,"10501 CORPORATE DRIVE, FT. WAYNE, IN, 46845","Match","Exact","10501 CORPORATE DR, FORT WAYNE, IN, 46845",606518619,"R"
37884,"10501 COUNTY RD","MIDLAND","TX",79706,NA,NA,384,"10501 COUNTY RD, MIDLAND, TX, 79706","No_Match",NA,NA,NA,NA
37885,"10501 CRAWFORD FARMS DR","FORT WORTH","TX",76244,32.926760227,-97.2957466409999,385,"10501 CRAWFORD FARMS DR, FORT WORTH, TX, 76244","Match","Exact","10501 CRAWFORD FARMS DR, FORT WORTH, TX, 76244",637603946,"L"
37886,"10501 DOVE AVE","CLEVELAND","OH",44105,41.452286277,-81.6111811069999,386,"10501 DOVE AVE, CLEVELAND, OH, 44105","Match","Exact","10501 DOVE AVE, CLEVELAND, OH, 44105",61126345,"L"
37887,"10501 ELYS FORD ROAD","FREDERICKSBURG","VA",22407,38.356145204,-77.679411505,387,"10501 ELYS FORD ROAD, FREDERICKSBURG, VA, 22407","Match","Exact","10501 ELYS FORD RD, FREDERICKSBURG, VA, 22407",85027311,"R"
37888,"10501 FALL CREEK RD 10501","INDIANPOLIS","IN",NA,39.917431144,-85.981886794,388,"10501 FALL CREEK RD 10501, INDIANPOLIS, IN, ","Match","Non_Exact","10501 FALL CREEK RD, INDIANAPOLIS, IN, 46256",108011121,"R"
37889,"10501 FGCU BLVD S","FORT MYERS","FL",33965,26.4634571120001,-81.7773450079999,389,"10501 FGCU BLVD S, FORT MYERS, FL, 33965","Match","Non_Exact","10501 FGCU BLVD, FORT MYERS, FL, 33965",642657572,"R"
37890,"10501 FGCU BLVD S","FT MYERS","FL",33965,26.4634571120001,-81.7773450079999,390,"10501 FGCU BLVD S, FT MYERS, FL, 33965","Match","Non_Exact","10501 FGCU BLVD, FORT MYERS, FL, 33965",642657572,"R"
37891,"10501 FGCU BLVD","FORT MYERS","FL",33965,26.4634571120001,-81.7773450079999,391,"10501 FGCU BLVD, FORT MYERS, FL, 33965","Match","Exact","10501 FGCU BLVD, FORT MYERS, FL, 33965",642657572,"R"
37892,"10501 HONEYSUCKLE LN","MIDWEST CITY","OK",73130,35.44922389,-97.342479129,392,"10501 HONEYSUCKLE LN, MIDWEST CITY, OK, 73130","Match","Exact","10501 HONEYSUCKLE LN, MIDWEST CITY, OK, 73130",100429747,"R"
37893,"10501 JERI PL","OKLAHOMA CITY","OK",73162,35.577828626,-97.653309378,393,"10501 JERI PL, OKLAHOMA CITY, OK, 73162","Match","Exact","10501 JERI PL, OKLAHOMA CITY, OK, 73162",100386965,"R"
37894,"10501 LANDING WAY APT 441","MIAMISBURG","OH",45342,39.6007063170001,-84.232055127,394,"10501 LANDING WAY APT 441, MIAMISBURG, OH, 45342","Match","Exact","10501 LANDING WAY, MIAMISBURG, OH, 45342",645849457,"R"
37895,"10501 LONE TREE DRIVE","ANCHORAGE","AK",99507,61.125883091,-149.763419454,395,"10501 LONE TREE DRIVE, ANCHORAGE, AK, 99507","Match","Exact","10501 LONE TREE DR, ANCHORAGE, AK, 99507",190804070,"L"
37896,"10501 MEAKIN DRIVE","RALEIGH","NC",27614,35.9293241030001,-78.567315428,396,"10501 MEAKIN DRIVE, RALEIGH, NC, 27614","Match","Exact","10501 MEAKIN DR, RALEIGH, NC, 27614",612813000,"L"
37897,"10501 MILKWEED DRIVE","GREAT FALLS","VA",22066,39.013497859,-77.3107609739999,397,"10501 MILKWEED DRIVE, GREAT FALLS, VA, 22066","Match","Exact","10501 MILKWEED DR, GREAT FALLS, VA, 22066",75958181,"L"
37898,"10501 MORNINGLIGHT COURT","SOUTH LYON","MI",48178,42.4805752950001,-83.739073392,398,"10501 MORNINGLIGHT COURT, SOUTH LYON, MI, 48178","Match","Non_Exact","10501 MORNING LIGHT CT, SOUTH LYON, MI, 48178",619582930,"L"
37899,"10501 MOSSHEAD COVE","AUSTIN","TX",78730,30.3805684870001,-97.851108371,399,"10501 MOSSHEAD COVE, AUSTIN, TX, 78730","Match","Exact","10501 MOSSHEAD COVE, AUSTIN, TX, 78730",63924738,"L"
37900,"10501 MOUNTAIN GATE WAY","GLEN ALLEN","VA",23060,37.6604062050001,-77.486499234,400,"10501 MOUNTAIN GATE WAY, GLEN ALLEN, VA, 23060","Match","Exact","10501 MOUNTAIN GATE WAY, GLEN ALLEN, VA, 23060",106692324,"R"
37901,"10501 NE 41 ST","VANCOUVER","WA",98687,NA,NA,401,"10501 NE 41 ST, VANCOUVER, WA, 98687","No_Match",NA,NA,NA,NA
37902,"10501 O ST","LINCOLN","NE",68520,40.81310904,-96.571481825,402,"10501 O ST, LINCOLN, NE, 68520","Match","Exact","10501 O ST, LINCOLN, NE, 68520",650426643,"L"
37903,"10501 OAKLAND AVENUE","KANSAS CITY","MO",64134,38.933923615,-94.503252149,403,"10501 OAKLAND AVENUE, KANSAS CITY, MO, 64134","Match","Exact","10501 OAKLAND AVE, KANSAS CITY, MO, 64134",91466034,"L"
37904,"10501 OLD DAYTON","NEW LEBANON","OH",45345,39.7601286410001,-84.376886311,404,"10501 OLD DAYTON, NEW LEBANON, OH, 45345","Match","Non_Exact","10501 OLD DAYTON RD, NEW LEBANON, OH, 45345",143562080,"R"
37905,"10501 PECAN BRANCH","SCHERTZ","TX",78154,29.5326115830001,-98.252510948,405,"10501 PECAN BRANCH, SCHERTZ, TX, 78154","Match","Exact","10501 PECAN BRANCH, SCHERTZ, TX, 78154",645371935,"R"
37906,"10501 PLANK ROAD","SPOTSYLVANIA","VA",22553,38.3208635450001,-77.698828153,406,"10501 PLANK ROAD, SPOTSYLVANIA, VA, 22553","Match","Exact","10501 PLANK RD, SPOTSYLVANIA, VA, 22553",641115483,"R"
37907,"10501 PROVIDENCE DR","LOUISVILLE","KY",40291,38.1252027470001,-85.5824293049999,407,"10501 PROVIDENCE DR, LOUISVILLE, KY, 40291","Match","Exact","10501 PROVIDENCE DR, LOUISVILLE, KY, 40291",618511349,"R"
37908,"10501 RUNNING CEDAR LN APT 203","FREDERICKSBURG","VA",22407,38.2435280230001,-77.524017906,408,"10501 RUNNING CEDAR LN APT 203, FREDERICKSBURG, VA, 22407","Match","Exact","10501 RUNNING CEDAR LN, FREDERICKSBURG, VA, 22407",85018396,"R"
37909,"10501 S DR S","BURLINGTON","MI",49029,42.11046442,-85.09030222,409,"10501 S DR S, BURLINGTON, MI, 49029","Match","Exact","10501 S DR S, BURLINGTON, MI, 49029",11710710,"R"
37910,"10501 S MARTIN ST","CHICAGO","IL",60643,41.7030251990001,-87.656040881,410,"10501 S MARTIN ST, CHICAGO, IL, 60643","Match","Exact","10501 S MARTIN ST, CHICAGO, IL, 60643",618342979,"L"
37911,"10501 S WALNUT DR","TRAVERSE CITY","MI",49684,44.8251978340001,-85.691503537,411,"10501 S WALNUT DR, TRAVERSE CITY, MI, 49684","Match","Exact","10501 S WALNUT DR, TRAVERSE CITY, MI, 49684",145982071,"R"
37912,"10501 SHIVALIK CIRCLE","ANCHORAGE","AK",99507,61.1647037530001,-149.688865196,412,"10501 SHIVALIK CIRCLE, ANCHORAGE, AK, 99507","Match","Exact","10501 SHIVALIK CIR, ANCHORAGE, AK, 99507",649754655,"L"
37913,"10501 SUNNYSIDE RD","BRIDGEVILLE","DE",19933,38.753244754,-75.562163443,413,"10501 SUNNYSIDE RD, BRIDGEVILLE, DE, 19933","Match","Exact","10501 SUNNYSIDE RD, BRIDGEVILLE, DE, 19933",636205606,"L"
37914,"10501 SW 147TH CIRCLE","DUNNELLON","FL",34432,29.0643209130001,-82.368369424,414,"10501 SW 147TH CIRCLE, DUNNELLON, FL, 34432","Match","Exact","10501 SW 147TH CIR, DUNNELLON, FL, 34432",636477930,"R"
37915,"10501 SW 96 TERR","MIAMI","FL",33176,25.6796663600001,-80.365417107,415,"10501 SW 96 TERR, MIAMI, FL, 33176","Match","Exact","10501 SW 96TH TER, MIAMI, FL, 33176",115979583,"R"
37916,"10501 TAVAREZ CT","FISHERS","IN",46040,39.940782798,-85.902508852,416,"10501 TAVAREZ CT, FISHERS, IN, 46040","Match","Exact","10501 TAVAREZ CT, FISHERS, IN, 46040",29336929,"L"
37917,"10501 V 05 RD","RAPID RIVER","MI",49878,NA,NA,417,"10501 V 05 RD, RAPID RIVER, MI, 49878","No_Match",NA,NA,NA,NA
37918,"10501 VALLEY BLVD SUITE 1802","EL MONTE","CA",91731,34.0764462930001,-118.045065759,418,"10501 VALLEY BLVD SUITE 1802, EL MONTE, CA, 91731","Match","Exact","10501 VALLEY BLVD, EL MONTE, CA, 91731",241241933,"L"
37919,"10501 W 1ST ST","LA GRANDE","OR",97850,45.34090723,-118.050049422,419,"10501 W 1ST ST, LA GRANDE, OR, 97850","Match","Exact","10501 W 1ST ST, LA GRANDE, OR, 97850",644647452,"R"
37920,"10501 W 56TH ST TERRACE","SHAWNEE","KS",66203,39.0275692760001,-94.707874024,420,"10501 W 56TH ST TERRACE, SHAWNEE, KS, 66203","Match","Non_Exact","10501 W 56TH ST, SHAWNEE, KS, 66203",91326853,"L"
37921,"10501 W RINGER","WICHITA","KS",67209,NA,NA,421,"10501 W RINGER, WICHITA, KS, 67209","No_Match",NA,NA,NA,NA
37922,"10501 WICKENS ROAD","OAKTON","VA",22181,38.9134594710001,-77.309653654,422,"10501 WICKENS ROAD, OAKTON, VA, 22181","Match","Non_Exact","10501 WICKENS RD, VIENNA, VA, 22181",642598611,"L"
37923,"10501 WOOSTER DR","JACKSONVILLE","FL",32218,30.4268975160001,-81.6709829769999,423,"10501 WOOSTER DR, JACKSONVILLE, FL, 32218","Match","Exact","10501 WOOSTER DR, JACKSONVILLE, FL, 32218",83890594,"R"
37924,"10501 WRANGLER WAY","CORONA","CA",92883,33.7616127270001,-117.477023138,424,"10501 WRANGLER WAY, CORONA, CA, 92883","Match","Exact","10501 WRANGLER WAY, CORONA, CA, 92883",195078137,"R"
37925,"10501 WYLIE LANE","GLEN ALLEN","VA",23059,37.6683125700001,-77.465443855,425,"10501 WYLIE LANE, GLEN ALLEN, VA, 23059","Match","Exact","10501 WYLIE LN, GLEN ALLEN, VA, 23059",106666342,"L"
37926,"10501","INDIANPOLIS","IN",46256,NA,NA,426,"10501, INDIANPOLIS, IN, 46256","No_Match",NA,NA,NA,NA
37927,"10501FGCU BLVD SOUTH","FORT MYERS","FL",33965,NA,NA,427,"10501FGCU BLVD SOUTH, FORT MYERS, FL, 33965","No_Match",NA,NA,NA,NA
37928,"10502 1ST PL NE","LAKE STEVENS","WA",98258,47.9977441230001,-122.089534204,428,"10502 1ST PL NE, LAKE STEVENS, WA, 98258","Match","Exact","10502 1ST PL NE, LAKE STEVENS, WA, 98258",648622796,"R"
37929,"10502 ABRAMS DR","COLORADO SPRINGS","CO",80925,38.739382811,-104.631812322,429,"10502 ABRAMS DR, COLORADO SPRINGS, CO, 80925","Match","Exact","10502 ABRAMS DR, COLORADO SPRINGS, CO, 80925",646016609,"R"
37930,"10502 ASHEVILLE PINE CT","HARRISON","OH",45030,39.272115183,-84.796130031,430,"10502 ASHEVILLE PINE CT, HARRISON, OH, 45030","Match","Exact","10502 ASHEVILLE PINE CT, HARRISON, OH, 45030",103979959,"L"
37931,"10502 BOYETTE CREEK BLVD","RIVERVIEW","FL",33569,27.843336213,-82.267156723,431,"10502 BOYETTE CREEK BLVD, RIVERVIEW, FL, 33569","Match","Exact","10502 BOYETTE CREEK BLVD, RIVERVIEW, FL, 33569",104675383,"L"
37932,"10502 BRIAR FOREST DR","HOUSTON","TX",77042,29.7472873340001,-95.561216977,432,"10502 BRIAR FOREST DR, HOUSTON, TX, 77042","Match","Exact","10502 BRIAR FOREST DR, HOUSTON, TX, 77042",96619571,"L"
37933,"10502 CIRCLE ONE DR","FREDERICKSBURG","VA",22408,38.247601456,-77.490889302,433,"10502 CIRCLE ONE DR, FREDERICKSBURG, VA, 22408","Match","Exact","10502 CIRCLE ONE DR, FREDERICKSBURG, VA, 22408",85010816,"L"
37934,"10502 COLUMBIA FALLS DRIVE","BAKERSFIELD","CA",93312,35.418947039,-119.119367929,434,"10502 COLUMBIA FALLS DRIVE, BAKERSFIELD, CA, 93312","Match","Exact","10502 COLUMBIA FALLS DR, BAKERSFIELD, CA, 93312",109530844,"R"
37935,"10502 DRAKE HILL DRIVE","HUNTERSVILLE","NC",28078,35.406382335,-80.8333801269999,435,"10502 DRAKE HILL DRIVE, HUNTERSVILLE, NC, 28078","Match","Exact","10502 DRAKE HILL DR, HUNTERSVILLE, NC, 28078",641592971,"R"
37936,"10502 FLORAL DR","ADELPHI","MD",20783,39.026829741,-76.962329182,436,"10502 FLORAL DR, ADELPHI, MD, 20783","Match","Exact","10502 FLORAL DR, ADELPHI, MD, 20783",76323341,"L"
37937,"10502 FOUNTAIN LAKE DR APT 1518","STAFFORD","TX",77477,29.6390147710001,-95.5949959179999,437,"10502 FOUNTAIN LAKE DR APT 1518, STAFFORD, TX, 77477","Match","Exact","10502 FOUNTAIN LAKE DR, STAFFORD, TX, 77477",78348317,"R"
37938,"10502 FOUNTAIN LAKE DRIVE","STAFFORD","TX",77477,29.6390147710001,-95.5949959179999,438,"10502 FOUNTAIN LAKE DRIVE, STAFFORD, TX, 77477","Match","Exact","10502 FOUNTAIN LAKE DR, STAFFORD, TX, 77477",78348317,"R"
37939,"10502 GRANT RD STE 300","HOUSTON","TX",77070,29.9672817520001,-95.5763891079999,439,"10502 GRANT RD STE 300, HOUSTON, TX, 77070","Match","Exact","10502 GRANT RD, HOUSTON, TX, 77070",648896507,"L"
37940,"10502 HUDSON AVENUE","LUBBOCK","TX",79423,33.498908058,-101.886205083,440,"10502 HUDSON AVENUE, LUBBOCK, TX, 79423","Match","Exact","10502 HUDSON AVE, LUBBOCK, TX, 79423",185274163,"R"
37941,"10502 MEADOWRIDGE LANE","MITCHELLVILLE","MD",20721,38.935996819,-76.824486886,441,"10502 MEADOWRIDGE LANE, MITCHELLVILLE, MD, 20721","Match","Exact","10502 MEADOWRIDGE LN, MITCHELLVILLE, MD, 20721",76311093,"L"
37942,"10502 N 116TH LANE","YOUNGTOWN","AZ",85363,33.578080997,-112.310980999,442,"10502 N 116TH LANE, YOUNGTOWN, AZ, 85363","Match","Exact","10502 N 116TH LN, YOUNGTOWN, AZ, 85363",128870275,"L"
37943,"10502 N BUTTERFLY DR","DUNLAP","IL",61525,40.8149889920001,-89.652582256,443,"10502 N BUTTERFLY DR, DUNLAP, IL, 61525","Match","Exact","10502 N BUTTERFLY DR, DUNLAP, IL, 61525",617272453,"R"
37944,"10502 ORANGEWOOD AVE","GARDEN GROVE","CA",92840,33.7963352250001,-117.94989453,444,"10502 ORANGEWOOD AVE, GARDEN GROVE, CA, 92840","Match","Exact","10502 ORANGEWOOD AVE, GARDEN GROVE, CA, 92840",144024304,"R"
37945,"10502 ORANGEWOOD AVENUE","GARDEN GROVE","CA",92840,33.7963352250001,-117.94989453,445,"10502 ORANGEWOOD AVENUE, GARDEN GROVE, CA, 92840","Match","Exact","10502 ORANGEWOOD AVE, GARDEN GROVE, CA, 92840",144024304,"R"
37946,"10502 RIDGEWAY DR","N TUSTIN","CA",92705,33.776890103,-117.7832738,446,"10502 RIDGEWAY DR, N TUSTIN, CA, 92705","Match","Exact","10502 RIDGEWAY DR, NORTH TUSTIN, CA, 92705",144056409,"L"
37947,"10502 S NATHAN ST","JENKS","OK",74037,36.012223561,-96.018342221,447,"10502 S NATHAN ST, JENKS, OK, 74037","Match","Exact","10502 S NATHAN ST, JENKS, OK, 74037",646581592,"L"
37948,"10502 SAGEWIND","HOUSTON","TX",77089,29.597979498,-95.233412792,448,"10502 SAGEWIND, HOUSTON, TX, 77089","Match","Non_Exact","10502 SAGEWIND DR, HOUSTON, TX, 77089",96112920,"R"
37949,"10502 SOUTH CRENSHAW BLVD SUITE 4","INGLEWOOD","CA",90303,33.9392299850001,-118.326398052,449,"10502 SOUTH CRENSHAW BLVD SUITE 4, INGLEWOOD, CA, 90303","Match","Exact","10502 S CRENSHAW BLVD, INGLEWOOD, CA, 90303",141657150,"L"
37950,"10502 SOUTH CRENSHAW BLVD SUITE A","INGLEWOOD","CA",90303,33.9392299850001,-118.326398052,450,"10502 SOUTH CRENSHAW BLVD SUITE A, INGLEWOOD, CA, 90303","Match","Exact","10502 S CRENSHAW BLVD, INGLEWOOD, CA, 90303",141657150,"L"
37951,"10502 VINCENNES AVE","CHICAGO","IL",60643,41.7030043010001,-87.6574334599999,451,"10502 VINCENNES AVE, CHICAGO, IL, 60643","Match","Non_Exact","10502 S VINCENNES AVE, CHICAGO, IL, 60643",111823184,"R"
37952,"10503 ASHEVILLE CT","HARRISON","OH",45030,NA,NA,452,"10503 ASHEVILLE CT, HARRISON, OH, 45030","No_Match",NA,NA,NA,NA
37953,"10503 AUBINOE  FARM DR","BETHESDA","MD",20814,39.029214714,-77.125552461,453,"10503 AUBINOE  FARM DR, BETHESDA, MD, 20814","Match","Exact","10503 AUBINOE FARM DR, BETHESDA, MD, 20814",62117083,"R"
37954,"10503 AUBINOE FARM DR","BETHESDA","MD",20814,39.029214714,-77.125552461,454,"10503 AUBINOE FARM DR, BETHESDA, MD, 20814","Match","Exact","10503 AUBINOE FARM DR, BETHESDA, MD, 20814",62117083,"R"
37955,"10503 BASTILLE LN APT 105","ORLANDO","FL",32836,28.4042162550001,-81.533588293,455,"10503 BASTILLE LN APT 105, ORLANDO, FL, 32836","Match","Exact","10503 BASTILLE LN, ORLANDO, FL, 32836",611504950,"R"
37956,"10503 CARR RD","SAINT CHARLES","MI",48655,43.272958208,-84.1390296609999,456,"10503 CARR RD, SAINT CHARLES, MI, 48655","Match","Exact","10503 CARR RD, SAINT CHARLES, MI, 48655",80203222,"R"
37957,"10503 COUNTRY RIDGE DR","UPPER MARLBORO","MD",20774,38.7462552690001,-76.7802974379999,457,"10503 COUNTRY RIDGE DR, UPPER MARLBORO, MD, 20774","Match","Non_Exact","10503 COUNTRY RIDGE DR, UPPER MARLBORO, MD, 20772",76343782,"R"
37958,"10503 CRAM GULCH ROAD","YREKA","CA",96097,41.61256962,-122.577726606,458,"10503 CRAM GULCH ROAD, YREKA, CA, 96097","Match","Exact","10503 CRAM GULCH RD, YREKA, CA, 96097",633083760,"L"
37959,"10503 E STATE ROAD 54","BLOOMFIELD","IN",47424,39.043051113,-86.746682531,459,"10503 E STATE ROAD 54, BLOOMFIELD, IN, 47424","Match","Exact","10503 STATE RD 54, BLOOMFIELD, IN, 47424",39308302,"R"
37960,"10503 FIELDCREST ROAD","SISTER BAY","WI",54234,45.179794486,-87.13278124,460,"10503 FIELDCREST ROAD, SISTER BAY, WI, 54234","Match","Exact","10503 FIELDCREST RD, SISTER BAY, WI, 54234",634935883,"L"
37961,"10503 HWY 95","PAYETTE","ID",83661,44.0966910770001,-116.923333291,461,"10503 HWY 95, PAYETTE, ID, 83661","Match","Non_Exact","10503 US HWY 95, PAYETTE, ID, 83661",141424531,"L"
37962,"10503 MASTIN STREET APARTMENT D","OVERLAND PARK","KS",66212,38.9381813480001,-94.702225464,462,"10503 MASTIN STREET APARTMENT D, OVERLAND PARK, KS, 66212","Match","Exact","10503 MASTIN ST, OVERLAND PARK, KS, 66212",91290499,"L"
37963,"10503 MASTIN STREET APT D","OVERLAND PARK","KS",66212,38.9381813480001,-94.702225464,463,"10503 MASTIN STREET APT D, OVERLAND PARK, KS, 66212","Match","Exact","10503 MASTIN ST, OVERLAND PARK, KS, 66212",91290499,"L"
37964,"10503 N RICE RD","FRESNO","CA",93730,36.890294469,-119.777412812,464,"10503 N RICE RD, FRESNO, CA, 93730","Match","Exact","10503 N RICE RD, FRESNO, CA, 93730",197564127,"L"
37965,"10503 N WHITMAN AVE","FAIRFIELD","WA",99012,NA,NA,465,"10503 N WHITMAN AVE, FAIRFIELD, WA, 99012","No_Match",NA,NA,NA,NA
37966,"10503 NE 66TH ST","VANCOUVER","WA",98662,45.670901568,-122.564933168,466,"10503 NE 66TH ST, VANCOUVER, WA, 98662","Match","Exact","10503 NE 66TH ST, VANCOUVER, WA, 98662",158345787,"L"
37967,"10503 NE 88TH STREET","VANCOUVER","WA",98662,45.6865170450001,-122.563963997,467,"10503 NE 88TH STREET, VANCOUVER, WA, 98662","Match","Exact","10503 NE 88TH ST, VANCOUVER, WA, 98662",158361099,"L"
37968,"10503 PEORIA AVE","LUBBOCK","TX",79423,33.501182214,-101.902853977,468,"10503 PEORIA AVE, LUBBOCK, TX, 79423","Match","Exact","10503 PEORIA AVE, LUBBOCK, TX, 79423",185273995,"L"
37969,"10503 S AVENUE H","CHICAGO","IL",60617,41.7043796790001,-87.532857382,469,"10503 S AVENUE H, CHICAGO, IL, 60617","Match","Exact","10503 S AVE H, CHICAGO, IL, 60617",111782286,"L"
37970,"10503 S WESTERN AVE","LOS ANGELES","CA",90047,33.940841677,-118.309020347,470,"10503 S WESTERN AVE, LOS ANGELES, CA, 90047","Match","Exact","10503 S WESTERN AVE, LOS ANGELES, CA, 90047",642869830,"R"
37971,"10503 SAN TRAVASO DR","TAMPA","FL",33647,28.148050488,-82.315450442,471,"10503 SAN TRAVASO DR, TAMPA, FL, 33647","Match","Exact","10503 SAN TRAVASO DR, TAMPA, FL, 33647",104613888,"R"
37972,"10503 SEAVIEW AVE APT 2","BROOKLYN","NY",11236,40.6378026130001,-73.883536275,472,"10503 SEAVIEW AVE APT 2, BROOKLYN, NY, 11236","Match","Exact","10503 SEAVIEW AVE, BROOKLYN, NY, 11236",59087171,"L"
37973,"10503 W THUNDERBIRD BLVD SUIT 372","SUN CITY","AZ",85351,33.6049429670001,-112.285315787,473,"10503 W THUNDERBIRD BLVD SUIT 372, SUN CITY, AZ, 85351","Match","Non_Exact","10503 W THUNDERBIRD BLVD, SUN CITY, AZ, 85351",128318278,"L"
37974,"10503 WEIGAND AVE","LOS ANGELES","CA",90002,33.940498308,-118.229640021,474,"10503 WEIGAND AVE, LOS ANGELES, CA, 90002","Match","Exact","10503 WEIGAND AVE, LOS ANGELES, CA, 90002",142762345,"R"
37975,"10503","BLOOMFIELD","IN",47424,NA,NA,475,"10503, BLOOMFIELD, IN, 47424","No_Match",NA,NA,NA,NA
37976,"10504 AUTUMN CREEK PLACE","LOUISVILLE","KY",40229,38.0964508270001,-85.691254665,476,"10504 AUTUMN CREEK PLACE, LOUISVILLE, KY, 40229","Match","Exact","10504 AUTUMN CREEK PL, LOUISVILLE, KY, 40229",96882776,"L"
37977,"10504 BERRY COVE WAY","STOCKTON","CA",95219,38.0517716640001,-121.391207086,477,"10504 BERRY COVE WAY, STOCKTON, CA, 95219","Match","Exact","10504 BERRY COVE WAY, STOCKTON, CA, 95219",627392853,"R"
37978,"10504 BROWNIE DR","AUSTIN","TX",78753,30.3699585260001,-97.682957421,478,"10504 BROWNIE DR, AUSTIN, TX, 78753","Match","Exact","10504 BROWNIE DR, AUSTIN, TX, 78753",63934254,"L"
37979,"10504 CARROLL WOOD WAY","SAINT LOUIS","MO",63128,38.52384569,-90.366593532,479,"10504 CARROLL WOOD WAY, SAINT LOUIS, MO, 63128","Match","Exact","10504 CARROLL WOOD WAY, SAINT LOUIS, MO, 63128",100142456,"L"
37980,"10504 CASTILE RD APT 1B","HENRICO","VA",23238,37.594978973,-77.6037307239999,480,"10504 CASTILE RD APT 1B, HENRICO, VA, 23238","Match","Exact","10504 CASTILE RD, HENRICO, VA, 23238",106687514,"R"
37981,"10504 E 34TH ST","INDEPENDENCE","MO",64052,39.0606060420001,-94.4543555119999,481,"10504 E 34TH ST, INDEPENDENCE, MO, 64052","Match","Non_Exact","10504 E 34TH ST S, INDEPENDENCE, MO, 64052",91463110,"L"
37982,"10504 ESTES ROAD","YAKIMA","WA",98908,46.590640298,-120.656656352,482,"10504 ESTES ROAD, YAKIMA, WA, 98908","Match","Exact","10504 ESTES RD, YAKIMA, WA, 98908",636636243,"L"
37983,"10504 FM 512","WOLFE CITY","TX",75496,33.3560018200001,-96.066329783,483,"10504 FM 512, WOLFE CITY, TX, 75496","Match","Exact","10504 FM 512, WOLFE CITY, TX, 75496",42870656,"L"
37984,"10504 GENTIAN COURT","UPPER MARLBORO","MD",20772,38.7910395500001,-76.8239623649999,484,"10504 GENTIAN COURT, UPPER MARLBORO, MD, 20772","Match","Exact","10504 GENTIAN CT, UPPER MARLBORO, MD, 20772",636219618,"R"
37985,"10504 HEBER SPRINGS RD N","CONCORD","AR",72523,35.662781264,-91.859783648,485,"10504 HEBER SPRINGS RD N, CONCORD, AR, 72523","Match","Exact","10504 HEBER SPRINGS RD N, CONCORD, AR, 72523",43173232,"L"
37986,"10504 HIAWATHA DRIVE","WACO","TX",76712,31.4667829970001,-97.221629116,486,"10504 HIAWATHA DRIVE, WACO, TX, 76712","Match","Exact","10504 HIAWATHA DR, WACO, TX, 76712",146752459,"L"
37987,"10504 HOLY SPIRIT COURT","NEW PORT RICHEY","FL",34654,28.309514575,-82.6219368819999,487,"10504 HOLY SPIRIT COURT, NEW PORT RICHEY, FL, 34654","Match","Exact","10504 HOLY SPIRIT CT, NEW PORT RICHEY, FL, 34654",627966878,"L"
37988,"10504 INSLEY STREET","SILVER SPRING","MD",20902,39.0281901500001,-77.054021818,488,"10504 INSLEY STREET, SILVER SPRING, MD, 20902","Match","Exact","10504 INSLEY ST, SILVER SPRING, MD, 20902",62063920,"L"
37989,"10504 LOVE AVE NE","ALBUQUERQUE","NM",87112,35.092695405,-106.529427774,489,"10504 LOVE AVE NE, ALBUQUERQUE, NM, 87112","Match","Exact","10504 LOVE AVE NE, ALBUQUERQUE, NM, 87112",206719918,"R"
37990,"10504 N FOREST AVE","KANSAS CITY","MO",64155,39.284251705,-94.566029701,490,"10504 N FOREST AVE, KANSAS CITY, MO, 64155","Match","Exact","10504 N FOREST AVE, KANSAS CITY, MO, 64155",89776743,"L"
37991,"10504 NORTH EXPRESSWAR 281","EDIBURG","TX",78542,NA,NA,491,"10504 NORTH EXPRESSWAR 281, EDIBURG, TX, 78542","No_Match",NA,NA,NA,NA
37992,"10504 OAK CREEK DR","GREENVILLE","TX",75402,33.0694647890001,-96.090020814,492,"10504 OAK CREEK DR, GREENVILLE, TX, 75402","Match","Exact","10504 OAK CREEK DR, GREENVILLE, TX, 75402",647382350,"R"
37993,"10504 PLEASANT VALLEY RD","FRAZEYSBURG","OH",43822,40.204690666,-82.238211673,493,"10504 PLEASANT VALLEY RD, FRAZEYSBURG, OH, 43822","Match","Non_Exact","10504 PLEASANT VALLEY RD NE, FRAZEYSBURG, OH, 43822",61548506,"R"
37994,"10504 PRESIDENTIAL PARKWAY","UPPER MARLBORO","MD",20772,38.81987859,-76.834974863,494,"10504 PRESIDENTIAL PARKWAY, UPPER MARLBORO, MD, 20772","Match","Exact","10504 PRESIDENTIAL PKWY, UPPER MARLBORO, MD, 20772",648117706,"R"
37995,"10504 RAINER AVE SW","LAKEWOOD","WA",98499,47.1615618660001,-122.492625664,495,"10504 RAINER AVE SW, LAKEWOOD, WA, 98499","Match","Non_Exact","10504 RAINIER AVE SW, LAKEWOOD, WA, 98499",639247517,"R"
37996,"10504 RIVERS BEND LANE","POTOMAC","MD",20854,39.028192496,-77.2336650569999,496,"10504 RIVERS BEND LANE, POTOMAC, MD, 20854","Match","Exact","10504 RIVERS BEND LN, POTOMAC, MD, 20854",62120430,"L"
37997,"10504 SAWYER PLACE","LOUISVILLE","KY",40299,38.290449799,-85.557054384,497,"10504 SAWYER PLACE, LOUISVILLE, KY, 40299","Match","Non_Exact","10504 SAWYER PL, LOUISVILLE, KY, 40241",625125280,"R"
37998,"10504 VENTURA BOULEVARD","MACHESNEY PARK","IL",61115,42.372040934,-89.055218291,498,"10504 VENTURA BOULEVARD, MACHESNEY PARK, IL, 61115","Match","Exact","10504 VENTURA BLVD, MACHESNEY PARK, IL, 61115",636387633,"L"
37999,"10504 WEDD ST","OVERLAND PARK","KS",66212,38.938551648,-94.701018319,499,"10504 WEDD ST, OVERLAND PARK, KS, 66212","Match","Exact","10504 WEDD ST, OVERLAND PARK, KS, 66212",91276571,"R"
38000,"10505 39TH AVE N","PLYMOUTH","MN",55441,45.028029046,-93.4129645149999,500,"10505 39TH AVE N, PLYMOUTH, MN, 55441","Match","Exact","10505 39TH AVE N, PLYMOUTH, MN, 55441",43842095,"L"
