"ID","Address","City","State","Zip","lat","long","id","input_address","match_indicator","match_type","matched_address","tiger_line_id","tiger_side"
220501,"1595 BALKIN RD","TALLAHASSEE","FL",32305,30.3834398390001,-84.304891846,1,"1595 BALKIN RD, TALLAHASSEE, FL, 32305","Match","Exact","1595 BALKIN RD, TALLAHASSEE, FL, 32305",635797987,"L"
220502,"1595 BARTLETT RD","MEMPHIS","TN",38134,35.1691524710001,-89.8800488429999,2,"1595 BARTLETT RD, MEMPHIS, TN, 38134","Match","Exact","1595 BARTLETT RD, MEMPHIS, TN, 38134",72925289,"L"
220503,"1595 BARTLLETT RD","MEMPHIS","TN",38134,35.1691524710001,-89.8800488429999,3,"1595 BARTLLETT RD, MEMPHIS, TN, 38134","Match","Non_Exact","1595 BARTLETT RD, MEMPHIS, TN, 38134",72925289,"L"
220504,"1595 BETHLEHEM ROAD","ROCKMART","GA",30153,33.965268746,-85.1377047029999,4,"1595 BETHLEHEM ROAD, ROCKMART, GA, 30153","Match","Exact","1595 BETHLEHEM RD, ROCKMART, GA, 30153",625651613,"R"
220505,"1595 BLACKHAWK TRAIL","WHEELING","IL",60090,42.129209459,-87.956272027,5,"1595 BLACKHAWK TRAIL, WHEELING, IL, 60090","Match","Exact","1595 BLACKHAWK TRL, WHEELING, IL, 60090",111838206,"L"
220506,"1595 BOZEMAN DR","HENDERSON","NV",89012,36.026792061,-115.055172202,6,"1595 BOZEMAN DR, HENDERSON, NV, 89012","Match","Exact","1595 BOZEMAN DR, HENDERSON, NV, 89012",201926743,"L"
220507,"1595 BRYDEN ROAD","COLUMBUS","OH",43205,39.960229806,-82.9567553919999,7,"1595 BRYDEN ROAD, COLUMBUS, OH, 43205","Match","Exact","1595 BRYDEN RD, COLUMBUS, OH, 43205",135581954,"R"
220508,"1595 CHURCH AVENUE","JACKSONVILLE","AL",36265,NA,NA,8,"1595 CHURCH AVENUE, JACKSONVILLE, AL, 36265","No_Match",NA,NA,NA,NA
220509,"1595 CONSTITUTION DR","HENRICO","VA",23238,37.6102746330001,-77.590926075,9,"1595 CONSTITUTION DR, HENRICO, VA, 23238","Match","Exact","1595 CONSTITUTION DR, HENRICO, VA, 23238",106642898,"R"
220510,"1595 CONTINENTAL ST","BEAUMONT","TX",77706,30.0970550770001,-94.162041489,10,"1595 CONTINENTAL ST, BEAUMONT, TX, 77706","Match","Non_Exact","1595 CONTINENTAL LN, BEAUMONT, TX, 77706",73851855,"L"
220511,"1595 COUNTY SERVICES PARKWAY","MARIETTA","GA",30008,33.915194032,-84.582153193,11,"1595 COUNTY SERVICES PARKWAY, MARIETTA, GA, 30008","Match","Exact","1595 COUNTY SERVICES PKWY, MARIETTA, GA, 30008",638949250,"L"
220512,"1595 DETROIT AVE APT 206","CONCORD","CA",94520,37.9689758760001,-122.041801035,12,"1595 DETROIT AVE APT 206, CONCORD, CA, 94520","Match","Exact","1595 DETROIT AVE, CONCORD, CA, 94520",648370690,"L"
220513,"1595 DUSTY QUAIL RUN","BENSON","AZ",85602,32.01222863,-110.298699682,13,"1595 DUSTY QUAIL RUN, BENSON, AZ, 85602","Match","Non_Exact","1595 N DUSTY QUAIL RUN, BENSON, AZ, 85602",121026854,"L"
220514,"1595 E PEACOCK ST","MERIDIAN","ID",83642,43.5885834260001,-116.374677881,14,"1595 E PEACOCK ST, MERIDIAN, ID, 83642","Match","Exact","1595 E PEACOCK ST, MERIDIAN, ID, 83642",117889590,"L"
220515,"1595 EAST 18TH ST","BROOKLYN","NY",11230,40.6114211410001,-73.955865094,15,"1595 EAST 18TH ST, BROOKLYN, NY, 11230","Match","Exact","1595 E 18TH ST, BROOKLYN, NY, 11230",59090061,"L"
220516,"1595 EAST CRISAFULLI ROAD","MERRITT ISLAND","FL",32953,28.463563698,-80.6756854079999,16,"1595 EAST CRISAFULLI ROAD, MERRITT ISLAND, FL, 32953","Match","Exact","1595 E CRISAFULLI RD, MERRITT ISLAND, FL, 32953",93887154,"L"
220517,"1595 EDMONDSON TRAIL","ROCKWALL","TX",75087,32.9381686680001,-96.4765016969999,17,"1595 EDMONDSON TRAIL, ROCKWALL, TX, 75087","Match","Exact","1595 EDMONDSON TRL, ROCKWALL, TX, 75087",617953464,"L"
220518,"1595 ELIZABETH PLACE APT 4","CINCINNATI","OH",45237,39.177718014,-84.469281892,18,"1595 ELIZABETH PLACE APT 4, CINCINNATI, OH, 45237","Match","Exact","1595 ELIZABETH PL, CINCINNATI, OH, 45237",103928641,"R"
220519,"1595 HAWTHORNE AVE SE","SMYRNA","GA",30080,33.890608281,-84.5066421609999,19,"1595 HAWTHORNE AVE SE, SMYRNA, GA, 30080","Match","Exact","1595 HAWTHORNE AVE SE, SMYRNA, GA, 30080",17243833,"L"
220520,"1595 HODGES RD","SPARTA","MO",65753,36.9731570050001,-93.135766614,20,"1595 HODGES RD, SPARTA, MO, 65753","Match","Exact","1595 HODGES RD, SPARTA, MO, 65753",99848289,"L"
220521,"1595 HOFF COURT","O'FALLON","MO",63366,38.8195514280001,-90.7511001729999,21,"1595 HOFF COURT, O'FALLON, MO, 63366","Match","Non_Exact","1595 HOFF CT, O FALLON, MO, 63366",605536212,"R"
220522,"1595 HOOHULU STREET","PEARL CITY","HI",96782,21.4030830070001,-157.958702586,22,"1595 HOOHULU STREET, PEARL CITY, HI, 96782","Match","Exact","1595 HOOHULU ST, PEARL CITY, HI, 96782",203228711,"R"
220523,"1595 HWY A1A APT 401","SATELLITE BEACH","FL",32937,NA,NA,23,"1595 HWY A1A APT 401, SATELLITE BEACH, FL, 32937","No_Match",NA,NA,NA,NA
220524,"1595 JOHN CLARK RD","DOVER","DE",19904,39.1271707930001,-75.537005692,24,"1595 JOHN CLARK RD, DOVER, DE, 19904","Match","Exact","1595 JOHN CLARK RD, DOVER, DE, 19904",68096536,"R"
220525,"1595 JULIA ST","NEW SMYRNA BEACH","FL",32168,29.0219801050001,-80.940460409,25,"1595 JULIA ST, NEW SMYRNA BEACH, FL, 32168","Match","Exact","1595 JULIA ST, NEW SMYRNA BEACH, FL, 32168",643538269,"R"
220526,"1595 KUUIPO ST","LAHAINA","HI",96761,20.897833593,-156.682286157,26,"1595 KUUIPO ST, LAHAINA, HI, 96761","Match","Exact","1595 KUUIPO ST, LAHAINA, HI, 96761",85057305,"R"
220527,"1595 LAMPMAN RD","GOLD HILL","OR",97525,42.4320783520001,-123.069027024,27,"1595 LAMPMAN RD, GOLD HILL, OR, 97525","Match","Exact","1595 LAMPMAN RD, GOLD HILL, OR, 97525",155608403,"R"
220528,"1595 LAURANCEAE WAY","RIVERDALE","GA",30296,33.575890826,-84.44242153,28,"1595 LAURANCEAE WAY, RIVERDALE, GA, 30296","Match","Exact","1595 LAURANCEAE WAY, RIVERDALE, GA, 30296",23312281,"R"
220529,"1595 LOS OSOS VALLEY RD","LOS OSOS","CA",93402,35.3079488220001,-120.819647621,29,"1595 LOS OSOS VALLEY RD, LOS OSOS, CA, 93402","Match","Exact","1595 LOS OSOS VALLEY RD, LOS OSOS, CA, 93402",650964373,"L"
220530,"1595 MADISON 8500","HINDSVILLE","AR",72738,36.151448999,-93.835668063,30,"1595 MADISON 8500, HINDSVILLE, AR, 72738","Match","Exact","1595 MADISON 8500, HINDSVILLE, AR, 72738",48944531,"R"
220531,"1595 MADISON ST NE","SALEM","OR",97301,44.952263181,-123.013290908,31,"1595 MADISON ST NE, SALEM, OR, 97301","Match","Exact","1595 MADISON ST NE, SALEM, OR, 97301",156250222,"L"
220532,"1595 MARIETTA ST","CHESTERHILL","OH",43728,39.488572563,-81.8651354839999,32,"1595 MARIETTA ST, CHESTERHILL, OH, 43728","Match","Exact","1595 MARIETTA ST, CHESTERHILL, OH, 43728",45417757,"L"
220533,"1595 N LOS ROBLES AVE","PASADENA","CA",91104,34.1734189160001,-118.141659471,33,"1595 N LOS ROBLES AVE, PASADENA, CA, 91104","Match","Exact","1595 N LOS ROBLES AVE, PASADENA, CA, 91104",141628515,"L"
220534,"1595 NE 51 ST","POMPANO BEACH","FL",33064,26.2937131740001,-80.101951083,34,"1595 NE 51 ST, POMPANO BEACH, FL, 33064","Match","Exact","1595 NE 51ST ST, POMPANO BEACH, FL, 33064",114743178,"L"
220535,"1595 NEWMARK STREET","NORTH BEND","OR",97459,43.391601259,-124.233279474,35,"1595 NEWMARK STREET, NORTH BEND, OR, 97459","Match","Exact","1595 NEWMARK ST, NORTH BEND, OR, 97459",136984015,"L"
220536,"1595 NORTHROP ST","ST PAUL","MN",55108,44.989104275,-93.19436088,36,"1595 NORTHROP ST, ST PAUL, MN, 55108","Match","Exact","1595 NORTHROP ST, SAINT PAUL, MN, 55108",97670559,"L"
220537,"1595 NW 119TH STREET","MIAMI","FL",33167,25.8831861630001,-80.224475172,37,"1595 NW 119TH STREET, MIAMI, FL, 33167","Match","Exact","1595 NW 119TH ST, MIAMI, FL, 33167",116033100,"R"
220538,"1595 NW 7 AVENUE","POMPANO BEACH","FL",33060,26.249007012,-80.131791919,38,"1595 NW 7 AVENUE, POMPANO BEACH, FL, 33060","Match","Exact","1595 NW 7TH AVE, POMPANO BEACH, FL, 33060",114694283,"L"
220539,"1595 PAYNE STREET","TALLAHASSEE","FL",32303,30.4635074440001,-84.269237866,39,"1595 PAYNE STREET, TALLAHASSEE, FL, 32303","Match","Exact","1595 PAYNE ST, TALLAHASSEE, FL, 32303",623983663,"R"
220540,"1595 PEACHTREE PARKWAY 204-274","CUMMING","GA",30041,34.1218979220001,-84.1717043039999,40,"1595 PEACHTREE PARKWAY 204-274, CUMMING, GA, 30041","Match","Exact","1595 PEACHTREE PKWY, CUMMING, GA, 30041",638662613,"R"
220541,"1595 PEACHTREE PARKWAY","CUMMING","GA",30041,34.1218979220001,-84.1717043039999,41,"1595 PEACHTREE PARKWAY, CUMMING, GA, 30041","Match","Exact","1595 PEACHTREE PKWY, CUMMING, GA, 30041",638662613,"R"
220542,"1595 PEACHTREE PKWY SUITE 201-192","CUMMING","GA",30041,34.1218979220001,-84.1717043039999,42,"1595 PEACHTREE PKWY SUITE 201-192, CUMMING, GA, 30041","Match","Exact","1595 PEACHTREE PKWY, CUMMING, GA, 30041",638662613,"R"
220543,"1595 PEMBROOK","COEUR D ALENE","ID",83815,NA,NA,43,"1595 PEMBROOK, COEUR D ALENE, ID, 83815","No_Match",NA,NA,NA,NA
220544,"1595 PONTIAC PLACE","ATLANTA","GA",30315,33.7112960760001,-84.357027446,44,"1595 PONTIAC PLACE, ATLANTA, GA, 30315","Match","Non_Exact","1595 PONTIAC PL SE, ATLANTA, GA, 30315",17358615,"R"
220545,"1595 PRESIDENT AT APT 1","BROOKLYN","NY",11213,40.6672348050001,-73.93514808,45,"1595 PRESIDENT AT APT 1, BROOKLYN, NY, 11213","Match","Non_Exact","1595 PRESIDENT ST, BROOKLYN, NY, 11213",59079768,"L"
220546,"1595 PRESIDENT STREET","BROOKLYN","NY",11213,40.6672348050001,-73.93514808,46,"1595 PRESIDENT STREET, BROOKLYN, NY, 11213","Match","Exact","1595 PRESIDENT ST, BROOKLYN, NY, 11213",59079768,"L"
220547,"1595 PUEBLO","VIDOR","TX",77662,30.1057917590001,-93.987772487,47,"1595 PUEBLO, VIDOR, TX, 77662","Match","Non_Exact","1595 PUEBLO ST, VIDOR, TX, 77662",74029120,"L"
220548,"1595 RIVER RUN LN","DACULA","GA",30019,33.9164789610001,-83.8788471409999,48,"1595 RIVER RUN LN, DACULA, GA, 30019","Match","Exact","1595 RIVER RUN LN, DACULA, GA, 30019",628080663,"R"
220549,"1595 SHELBY AVE SUITE 210","ST. PAUL","MN",55104,NA,NA,49,"1595 SHELBY AVE SUITE 210, ST. PAUL, MN, 55104","No_Match",NA,NA,NA,NA
220550,"1595 SHEPARD AVE","HAMDEN","CT",6518,41.417047885,-72.9225038009999,50,"1595 SHEPARD AVE, HAMDEN, CT, 6518","Match","Exact","1595 SHEPARD AVE, HAMDEN, CT, 06518",627252466,"R"
220551,"1595 STABLE PARK CT","CORDOVA","TN",38016,35.1693001080001,-89.7735644969999,51,"1595 STABLE PARK CT, CORDOVA, TN, 38016","Match","Exact","1595 STABLE PARK CT, CORDOVA, TN, 38016",72965516,"R"
220552,"1595 SUN GAZER DR","ROCKLEDGE","FL",32955,28.271084365,-80.7139170629999,52,"1595 SUN GAZER DR, ROCKLEDGE, FL, 32955","Match","Exact","1595 SUN GAZER DR, ROCKLEDGE, FL, 32955",619179044,"R"
220553,"1595 SW PAINTED FORK RD","CEDAREDGE","CO",81413,38.8870605560001,-107.944871338,53,"1595 SW PAINTED FORK RD, CEDAREDGE, CO, 81413","Match","Exact","1595 SW PAINTED FORK RD, CEDAREDGE, CO, 81413",122394958,"R"
220554,"1595 TERN REST COVE","CORDOVA","TN",38016,35.1682340150001,-89.8070004369999,54,"1595 TERN REST COVE, CORDOVA, TN, 38016","Match","Exact","1595 TERN REST COVE, CORDOVA, TN, 38016",72954380,"L"
220555,"1595 VALCON PL","COLUMBUS","OH",43207,39.92790426,-82.952474958,55,"1595 VALCON PL, COLUMBUS, OH, 43207","Match","Exact","1595 VALCON PL, COLUMBUS, OH, 43207",135586216,"R"
220556,"1595 W HIGHLAND DR APT M114","JACKSON","MS",39204,32.289837074,-90.240267913,56,"1595 W HIGHLAND DR APT M114, JACKSON, MS, 39204","Match","Non_Exact","1595 W HIGHLAND DR, JACKSON, MS, 39204",611231448,"L"
220557,"1595 WEBB SUMMITT RD","BREMEN","OH",43107,NA,NA,57,"1595 WEBB SUMMITT RD, BREMEN, OH, 43107","No_Match",NA,NA,NA,NA
220558,"1595 WILSON AVE","ST PAUL","MN",55106,44.9541045350001,-93.03363114,58,"1595 WILSON AVE, ST PAUL, MN, 55106","Match","Exact","1595 WILSON AVE, SAINT PAUL, MN, 55106",97651907,"L"
220559,"1595 WOLFF STREET","DENVER","CO",80204,39.741970269,-105.048680498,59,"1595 WOLFF STREET, DENVER, CO, 80204","Match","Exact","1595 WOLFF ST, DENVER, CO, 80204",177300370,"L"
220560,"15950 132ND ST","LEMONT","IL",60439,41.6473542780001,-88.006587274,60,"15950 132ND ST, LEMONT, IL, 60439","Match","Exact","15950 132ND ST, LEMONT, IL, 60439",646432056,"R"
220561,"15950 BLACKWATER CT","TINLEY PARK","IL",60477,41.6004454160001,-87.812686462,61,"15950 BLACKWATER CT, TINLEY PARK, IL, 60477","Match","Exact","15950 BLACKWATER CT, TINLEY PARK, IL, 60477",112224708,"R"
220562,"15950 DERWOOD RD","BETHESDA","MD",20855,39.1169153500001,-77.160734959,62,"15950 DERWOOD RD, BETHESDA, MD, 20855","Match","Non_Exact","15950 DERWOOD RD, DERWOOD, MD, 20855",62051858,"L"
220563,"15950 GOLDEN MEADOW LANE","VICTORVILLE","CA",92394,34.539001451,-117.350019989,63,"15950 GOLDEN MEADOW LANE, VICTORVILLE, CA, 92394","Match","Exact","15950 GOLDEN MEADOW LN, VICTORVILLE, CA, 92394",636772768,"R"
220564,"15950 JUG ROAD","BURTON","OH",44021,41.4342741400001,-81.1177343639999,64,"15950 JUG ROAD, BURTON, OH, 44021","Match","Non_Exact","15950 JUG ST, BURTON, OH, 44021",137432310,"R"
220565,"15950 LEE HIGHWAY","CENTREVILLE","VA",20120,38.8248663700001,-77.500272254,65,"15950 LEE HIGHWAY, CENTREVILLE, VA, 20120","Match","Exact","15950 LEE HWY, CENTREVILLE, VA, 20120",76058602,"R"
220566,"15950 LOS REYES STREET","FOUNTAIN VALLEY","CA",92708,33.7317198530001,-117.943293761,66,"15950 LOS REYES STREET, FOUNTAIN VALLEY, CA, 92708","Match","Exact","15950 LOS REYES ST, FOUNTAIN VALLEY, CA, 92708",144037832,"L"
220567,"15950 N DALLAS PKWY","DALLS","TX",75248,32.967596886,-96.821278239,67,"15950 N DALLAS PKWY, DALLS, TX, 75248","Match","Non_Exact","15950 DALLAS PKWY, DALLAS, TX, 75248",103273872,"L"
220568,"15950 W CYNTHIA DRIVE","NEW BERLIN","WI",53146,42.965194185,-88.113211227,68,"15950 W CYNTHIA DRIVE, NEW BERLIN, WI, 53146","Match","Non_Exact","15950 W CYNTHIA DR, NEW BERLIN, WI, 53151",53823043,"L"
220569,"15950 WEST KENTUCKY HWY70","LIBERTY","KY",42539,NA,NA,69,"15950 WEST KENTUCKY HWY70, LIBERTY, KY, 42539","No_Match",NA,NA,NA,NA
220570,"15951 LIVE OAK CIR","ROSHARON","TX",77583,29.358401342,-95.454229458,70,"15951 LIVE OAK CIR, ROSHARON, TX, 77583","Match","Exact","15951 LIVE OAK CIR, ROSHARON, TX, 77583",653231006,"L"
220571,"15951 NW 18TH CT","MIAMI","FL",33054,NA,NA,71,"15951 NW 18TH CT, MIAMI, FL, 33054","No_Match",NA,NA,NA,NA
220572,"15951 PLEASANT GREEN CIRCLE","TOMBALL","TX",77377,30.0019644240001,-95.608267873,72,"15951 PLEASANT GREEN CIRCLE, TOMBALL, TX, 77377","Match","Exact","15951 PLEASANT GREEN CIR, TOMBALL, TX, 77377",624465374,"L"
220573,"15951 S CHESTER COURT","OLATHE","KS",66062,38.837095188,-94.793811437,73,"15951 S CHESTER COURT, OLATHE, KS, 66062","Match","Exact","15951 S CHESTER CT, OLATHE, KS, 66062",91322172,"L"
220574,"15951 S ELIZABETH PLACE","ARIZONA CITY","AZ",85123,32.735273068,-111.666300294,74,"15951 S ELIZABETH PLACE, ARIZONA CITY, AZ, 85123","Match","Exact","15951 S ELIZABETH PL, ARIZONA CITY, AZ, 85123",129192283,"L"
220575,"15951 S PARK","SOUTH HOLLAND","IL",60473,41.6060008910001,-87.607343688,75,"15951 S PARK, SOUTH HOLLAND, IL, 60473","Match","Non_Exact","15951 S PARK AVE, SOUTH HOLLAND, IL, 60473",111778710,"L"
220576,"15951 SHADY HILLS RD","SPRING HILL","FL",NA,28.389334347,-82.5511513879999,76,"15951 SHADY HILLS RD, SPRING HILL, FL, ","Match","Exact","15951 SHADY HILLS RD, SPRING HILL, FL, 34610",86363343,"L"
220577,"15951 W LARKSPUR DR","GOODYEAR","AZ",85338,33.4164602590001,-112.40183165,77,"15951 W LARKSPUR DR, GOODYEAR, AZ, 85338","Match","Exact","15951 W LARKSPUR DR, GOODYEAR, AZ, 85338",128849832,"L"
220578,"15952 235TH AVE","WEBSTER","IA",52355,41.43084571,-92.1512376379999,78,"15952 235TH AVE, WEBSTER, IA, 52355","Match","Exact","15952 235TH AVE, WEBSTER, IA, 52355",84540079,"R"
220579,"15952 CASCADE LANE","MONROE","WA",98272,47.852688695,-122.003060164,79,"15952 CASCADE LANE, MONROE, WA, 98272","Match","Non_Exact","15952 CASCADE LN SE, MONROE, WA, 98272",187807180,"R"
220580,"15952 HOMETOWN DRIVE","PLAINFIELD","IL",60544,41.593036028,-88.2166406979999,80,"15952 HOMETOWN DRIVE, PLAINFIELD, IL, 60544","Match","Non_Exact","15952 HOMETOWN DR, PLAINFIELD, IL, 60586",111619789,"R"
220581,"15952 N 173 Ave","Surprise",NA,NA,33.629902863,-112.431397212,81,"15952 N 173 Ave, Surprise, , ","Match","Exact","15952 N 173RD AVE, SURPRISE, AZ, 85388",243971656,"L"
220582,"15952 PLUMWOOD STREET","WESTMINSTER","CA",92683,33.7312727870001,-117.976826262,82,"15952 PLUMWOOD STREET, WESTMINSTER, CA, 92683","Match","Exact","15952 PLUMWOOD ST, WESTMINSTER, CA, 92683",144018233,"L"
220583,"15952 SW 5TH STREET","PEMBROKE PINES","FL",33027,26.0015115050001,-80.3599374249999,83,"15952 SW 5TH STREET, PEMBROKE PINES, FL, 33027","Match","Exact","15952 SW 5TH ST, PEMBROKE PINES, FL, 33027",636370120,"R"
220584,"15953 E 410 RD","CLAREMORE","OK",74017,36.423403373,-95.542234675,84,"15953 E 410 RD, CLAREMORE, OK, 74017","Match","Exact","15953 E 410 RD, CLAREMORE, OK, 74017",612087362,"R"
220585,"15953 HIGHWAY 119","BLACK HAWK","CO",80422,NA,NA,85,"15953 HIGHWAY 119, BLACK HAWK, CO, 80422","No_Match",NA,NA,NA,NA
220586,"15954 CENTRE PARK CIRCLE","HERNDON","VA",20171,NA,NA,86,"15954 CENTRE PARK CIRCLE, HERNDON, VA, 20171","No_Match",NA,NA,NA,NA
220587,"15954 JACKSON CREEK PKWY STE B436","MONUMENT","CO",80132,39.067593571,-104.850051771,87,"15954 JACKSON CREEK PKWY STE B436, MONUMENT, CO, 80132","Match","Exact","15954 JACKSON CREEK PKWY, MONUMENT, CO, 80132",610677092,"L"
220588,"15954 JACKSON CREEK PKWY STE B463","MONUMENT","CO",80132,39.067593571,-104.850051771,88,"15954 JACKSON CREEK PKWY STE B463, MONUMENT, CO, 80132","Match","Exact","15954 JACKSON CREEK PKWY, MONUMENT, CO, 80132",610677092,"L"
220589,"15954 W ACAPULCO LN","SURPRISE","AZ",85379,33.6228199490001,-112.403939807,89,"15954 W ACAPULCO LN, SURPRISE, AZ, 85379","Match","Exact","15954 W ACAPULCO LN, SURPRISE, AZ, 85379",128851415,"R"
220590,"15955 CANNELL RD","ROCKTON","IL",61072,42.484461024,-89.206349942,90,"15955 CANNELL RD, ROCKTON, IL, 61072","Match","Exact","15955 CANNELL RD, ROCKTON, IL, 61072",49246331,"R"
220591,"15955 FREDERICK RD 1520","ROCKVILLE","MD",20850,NA,NA,91,"15955 FREDERICK RD 1520, ROCKVILLE, MD, 20850","No_Match",NA,NA,NA,NA
220592,"15955 FREDERICK RD 2ND FLOOR","ROCKVILLE","MD",20855,NA,NA,92,"15955 FREDERICK RD 2ND FLOOR, ROCKVILLE, MD, 20855","No_Match",NA,NA,NA,NA
220593,"15955 FREDERICK ROAD APT 1223","ROCKVILLE","MD",20855,NA,NA,93,"15955 FREDERICK ROAD APT 1223, ROCKVILLE, MD, 20855","No_Match",NA,NA,NA,NA
220594,"15955 HIGHWAY 169","WINNEBAGO","MN",56098,43.7164862610001,-94.135066201,94,"15955 HIGHWAY 169, WINNEBAGO, MN, 56098","Match","Non_Exact","15955 US HWY 169, WINNEBAGO, MN, 56098",28620097,"L"
220595,"15955 LECLAIR AVE","OAK FOREST","IL",60452,NA,NA,95,"15955 LECLAIR AVE, OAK FOREST, IL, 60452","No_Match",NA,NA,NA,NA
220596,"15955 MARCELLA ST","SAN LEANDRO","CA",94578,37.70188921,-122.117256733,96,"15955 MARCELLA ST, SAN LEANDRO, CA, 94578","Match","Exact","15955 MARCELLA ST, SAN LEANDRO, CA, 94578",606826935,"R"
220597,"15956 E 14TH STREET APT 105","SAN LEANDRO","CA",94578,37.699281102,-122.119909501,97,"15956 E 14TH STREET APT 105, SAN LEANDRO, CA, 94578","Match","Non_Exact","15956 E 14TH ST, SAN LEANDRO, CA, 94578",615022500,"L"
220598,"15956 N MERIDIAN RD","AKRON","IA",46910,NA,NA,98,"15956 N MERIDIAN RD, AKRON, IA, 46910","No_Match",NA,NA,NA,NA
220599,"15956 OAK VALLEY TRL","HOMER GLEN","IL",60491,NA,NA,99,"15956 OAK VALLEY TRL, HOMER GLEN, IL, 60491","Tie",NA,NA,NA,NA
220600,"15956 ROUTE 38","MAPLE PARK","IL",60151,41.9076187650001,-88.640967421,100,"15956 ROUTE 38, MAPLE PARK, IL, 60151","Match","Non_Exact","15956 STATE RTE 38, MAPLE PARK, IL, 60151",52259584,"L"
220601,"15956 SW 81 ST","MIAMI","FL",33193,25.69082266,-80.4512221539999,101,"15956 SW 81 ST, MIAMI, FL, 33193","Match","Non_Exact","15956 SW 81ST ST, MIAMI, FL, 33193",116079265,"R"
220602,"15956 THRUSH LN","BEAVERTON","OR",97007,45.4356817520001,-122.841511613,102,"15956 THRUSH LN, BEAVERTON, OR, 97007","Match","Non_Exact","15956 SW THRUSH LN, BEAVERTON, OR, 97007",652098133,"L"
220603,"15957 KINDOM OAKS LANE","WALLER","TX",77484,30.0081885820001,-95.92577425,103,"15957 KINDOM OAKS LANE, WALLER, TX, 77484","Match","Non_Exact","15957 KINGDOM OAKS LN, WALLER, TX, 77484",652141517,"R"
220604,"15957 KINGDOM OAKS LANE","WALLER","TX",77484,30.0081885820001,-95.92577425,104,"15957 KINGDOM OAKS LANE, WALLER, TX, 77484","Match","Exact","15957 KINGDOM OAKS LN, WALLER, TX, 77484",652141517,"R"
220605,"15957 NORCREST ST","WHITTIER","CA",90603,NA,NA,105,"15957 NORCREST ST, WHITTIER, CA, 90603","No_Match",NA,NA,NA,NA
220606,"15957 PENNSYLVANIA","SOUTHFIELD","MI",48033,NA,NA,106,"15957 PENNSYLVANIA, SOUTHFIELD, MI, 48033","No_Match",NA,NA,NA,NA
220607,"15957 S CHESTER COURT","OLATHE","KS",66062,38.8370581400001,-94.793769196,107,"15957 S CHESTER COURT, OLATHE, KS, 66062","Match","Exact","15957 S CHESTER CT, OLATHE, KS, 66062",91322172,"L"
220608,"15957 TYEE RD","UMPQUA","OR",97486,43.4459582360001,-123.539602199,108,"15957 TYEE RD, UMPQUA, OR, 97486","Match","Exact","15957 TYEE RD, UMPQUA, OR, 97486",614060680,"R"
220609,"15958 NE 15TH ST","BELLEVUE","WA",98008,47.6232267830001,-122.128932467,109,"15958 NE 15TH ST, BELLEVUE, WA, 98008","Match","Exact","15958 NE 15TH ST, BELLEVUE, WA, 98008",651800926,"L"
220610,"15958 ROSE CIR","HARLINGEN","TX",78552,26.233473066,-97.768244646,110,"15958 ROSE CIR, HARLINGEN, TX, 78552","Match","Exact","15958 ROSE CIR, HARLINGEN, TX, 78552",632011583,"L"
220611,"15958 ROSE CIRCLE","HARLINGEN","TX",78550,26.233473066,-97.768244646,111,"15958 ROSE CIRCLE, HARLINGEN, TX, 78550","Match","Non_Exact","15958 ROSE CIR, HARLINGEN, TX, 78552",632011583,"L"
220612,"15959 DORSET ROAD","LAUREL","MD",20707,39.106837994,-76.876945318,112,"15959 DORSET ROAD, LAUREL, MD, 20707","Match","Exact","15959 DORSET RD, LAUREL, MD, 20707",76325367,"R"
220613,"15959 EL CENTRO ST","HESPERIA","CA",92345,34.390682423,-117.315121964,113,"15959 EL CENTRO ST, HESPERIA, CA, 92345","Match","Exact","15959 EL CENTRO ST, HESPERIA, CA, 92345",144590664,"L"
220614,"15959 N MORGAN LN","HAYDEN","ID",83835,47.814619717,-116.71186356,114,"15959 N MORGAN LN, HAYDEN, ID, 83835","Match","Exact","15959 N MORGAN LN, HAYDEN, ID, 83835",192956962,"L"
220615,"15959 SW 54 COURT","MIRAMAR","FL",33027,25.9574163230001,-80.3619554269999,115,"15959 SW 54 COURT, MIRAMAR, FL, 33027","Match","Exact","15959 SW 54TH CT, MIRAMAR, FL, 33027",647888238,"L"
220616,"15959 SW SUNDEW DR","TIGARD","OR",97223,45.422377549,-122.839652261,116,"15959 SW SUNDEW DR, TIGARD, OR, 97223","Match","Exact","15959 SW SUNDEW DR, TIGARD, OR, 97223",158216868,"L"
220617,"15959 SW SUNDEW DRIVE","TIGARD","CA",97223,NA,NA,117,"15959 SW SUNDEW DRIVE, TIGARD, CA, 97223","No_Match",NA,NA,NA,NA
220618,"1596 ALEXANDRIA COURT","MARIETTA","GA",30067,33.9144011290001,-84.4732861589999,118,"1596 ALEXANDRIA COURT, MARIETTA, GA, 30067","Match","Exact","1596 ALEXANDRIA CT, MARIETTA, GA, 30067",17248014,"R"
220619,"1596 BUCKEYE LANE","MYRTL BEACH","SC",29575,NA,NA,119,"1596 BUCKEYE LANE, MYRTL BEACH, SC, 29575","No_Match",NA,NA,NA,NA
220620,"1596 BUCKEYE LANE","MYRTLE BEACH","SC",29575,NA,NA,120,"1596 BUCKEYE LANE, MYRTLE BEACH, SC, 29575","No_Match",NA,NA,NA,NA
220621,"1596 CALKINS AVE","IDAHO FALLS","ID",83402,43.4835584620001,-112.036132725,121,"1596 CALKINS AVE, IDAHO FALLS, ID, 83402","Match","Exact","1596 CALKINS AVE, IDAHO FALLS, ID, 83402",119169473,"L"
220622,"1596 CARDIFF RD","COLUMBUS","OH",43221,40.0043213910001,-83.052380489,122,"1596 CARDIFF RD, COLUMBUS, OH, 43221","Match","Exact","1596 CARDIFF RD, COLUMBUS, OH, 43221",218690110,"R"
220623,"1596 CLEVELAND AVE APT 301","EAST POINT","GA",30344,33.679384553,-84.439982765,123,"1596 CLEVELAND AVE APT 301, EAST POINT, GA, 30344","Match","Exact","1596 CLEVELAND AVE, EAST POINT, GA, 30344",17412425,"L"
220624,"1596 E HINES HILL ROAD","HUDSON","OH",44236,41.2623618920001,-81.4572436179999,124,"1596 E HINES HILL ROAD, HUDSON, OH, 44236","Match","Exact","1596 E HINES HILL RD, HUDSON, OH, 44236",61364445,"R"
220625,"1596 EDMON WAY","RIVERSIDE","CA",92501,34.006861687,-117.374410754,125,"1596 EDMON WAY, RIVERSIDE, CA, 92501","Match","Exact","1596 EDMON WAY, RIVERSIDE, CA, 92501",618344367,"L"
220626,"1596 HIGHWAY 32","BOLIVAR","MO",65613,37.6069983990001,-93.345066689,126,"1596 HIGHWAY 32, BOLIVAR, MO, 65613","Match","Non_Exact","1596 STATE HWY 32, BOLIVAR, MO, 65613",615817095,"R"
220627,"1596 HIGHWAY 546","WEST MONROE","LA",71292,32.491402743,-92.262990888,127,"1596 HIGHWAY 546, WEST MONROE, LA, 71292","Match","Exact","1596 HWY 546, WEST MONROE, LA, 71292",648129718,"L"
220628,"1596 HONET WILKINSON ROAD","BALDWIN","FL",32234,NA,NA,128,"1596 HONET WILKINSON ROAD, BALDWIN, FL, 32234","No_Match",NA,NA,NA,NA
220629,"1596 HUDSON AVENUE","SAN FRANCISCO","CA",94124,37.739946757,-122.388084794,129,"1596 HUDSON AVENUE, SAN FRANCISCO, CA, 94124","Match","Exact","1596 HUDSON AVE, SAN FRANCISCO, CA, 94124",192289903,"R"
220630,"1596 HWY 92","OSKALOOSA","IA",52577,41.292079438,-92.766731764,130,"1596 HWY 92, OSKALOOSA, IA, 52577","Match","Non_Exact","1596 STATE HWY 92, OSKALOOSA, IA, 52577",89376648,"L"
220631,"1596 KIRKWOOD DRIVE","GENEVA","IL",60134,41.8915186930001,-88.277763625,131,"1596 KIRKWOOD DRIVE, GENEVA, IL, 60134","Match","Exact","1596 KIRKWOOD DR, GENEVA, IL, 60134",119529463,"L"
220632,"1596 LINCOLNSHIRE DRIVE","DELAND","FL",32724,28.9989378240001,-81.2526271949999,132,"1596 LINCOLNSHIRE DRIVE, DELAND, FL, 32724","Match","Exact","1596 LINCOLNSHIRE DR, DELAND, FL, 32724",612317658,"R"
220633,"1596 MEADOWLARK DR NE","KEIZER","OR",97303,45.012198185,-123.011095676,133,"1596 MEADOWLARK DR NE, KEIZER, OR, 97303","Match","Exact","1596 MEADOWLARK DR NE, KEIZER, OR, 97303",156245876,"R"
220634,"1596 NEW HOPE RD","NEEDHAM","AL",36915,31.9496473630001,-88.361123064,134,"1596 NEW HOPE RD, NEEDHAM, AL, 36915","Match","Exact","1596 NEW HOPE RD, NEEDHAM, AL, 36915",650955385,"L"
220635,"1596 NOLA ROAD","BROOKHAVEN","MS",39601,31.5772203700001,-90.388187997,135,"1596 NOLA ROAD, BROOKHAVEN, MS, 39601","Match","Non_Exact","1596 NOLA RD NE, BROOKHAVEN, MS, 39601",612485846,"R"
220636,"1596 ONANDAGE AVE","LAKEWOOD","OH",44107,NA,NA,136,"1596 ONANDAGE AVE, LAKEWOOD, OH, 44107","No_Match",NA,NA,NA,NA
220637,"1596 PEACE PLACE","COLUMBUS","OH",43209,39.9369204810001,-82.927577925,137,"1596 PEACE PLACE, COLUMBUS, OH, 43209","Match","Exact","1596 PEACE PL, COLUMBUS, OH, 43209",218678701,"L"
220638,"1596 PEBBLEBROOK TRAIL","SUN PRAIRIE","WI",53590,43.202865552,-89.2136751199999,138,"1596 PEBBLEBROOK TRAIL, SUN PRAIRIE, WI, 53590","Match","Exact","1596 PEBBLEBROOK TRL, SUN PRAIRIE, WI, 53590",49489881,"R"
220639,"1596 PINEBROOK PLACE","SANTA ROSA","CA",95403,38.451679862,-122.767978434,139,"1596 PINEBROOK PLACE, SANTA ROSA, CA, 95403","Match","Exact","1596 PINEBROOK PL, SANTA ROSA, CA, 95403",67516299,"L"
220640,"1596 PULLMAN AVE","ST PAUL","MN",55071,44.8366125380001,-92.9772168119999,140,"1596 PULLMAN AVE, ST PAUL, MN, 55071","Match","Non_Exact","1596 PULLMAN AVE, SAINT PAUL PARK, MN, 55071",97786477,"R"
220641,"1596 ROOSEVELT AVE","NORTH BRUNSWICK","NJ",8902,40.4478708880001,-74.4742463059999,141,"1596 ROOSEVELT AVE, NORTH BRUNSWICK, NJ, 8902","Match","Exact","1596 ROOSEVELT AVE, N BRUNSWICK, NJ, 08902",60318597,"L"
220642,"1596 ST MARKS AVE BSMT","BROOKLYN","NY",11233,40.673251142,-73.9142914569999,142,"1596 ST MARKS AVE BSMT, BROOKLYN, NY, 11233","Match","Exact","1596 ST MARKS AVE, BROOKLYN, NY, 11233",59083748,"R"
220643,"1596 STATE ROUTE 17B","WHITE LAKE","NY",12786,NA,NA,143,"1596 STATE ROUTE 17B, WHITE LAKE, NY, 12786","No_Match",NA,NA,NA,NA
220644,"1596 UNIONPORT ROAD UNIT 1H","BRONX","NY",10462,40.8406220030001,-73.8628742619999,144,"1596 UNIONPORT ROAD UNIT 1H, BRONX, NY, 10462","Match","Exact","1596 UNIONPORT RD, BRONX, NY, 10462",80304655,"R"
220645,"1596 W EXCHANGE ST","AKRON","OH",44313,41.106107959,-81.565103736,145,"1596 W EXCHANGE ST, AKRON, OH, 44313","Match","Exact","1596 W EXCHANGE ST, AKRON, OH, 44313",61338189,"L"
220646,"1596 WARING AVENUE","BRONX","NY",10469,40.8608376500001,-73.8400803879999,146,"1596 WARING AVENUE, BRONX, NY, 10469","Match","Exact","1596 WARING AVE, BRONX, NY, 10469",80304065,"R"
220647,"1596 WESTVALE DRIVE APT 2","FESTUS","MO",63028,38.2193622570001,-90.41240362,147,"1596 WESTVALE DRIVE APT 2, FESTUS, MO, 63028","Match","Exact","1596 WESTVALE DR, FESTUS, MO, 63028",62786372,"L"
220648,"1596 WHEELOCK RIDGE ROAD","SAINT PAUL","MN",55130,44.989191411,-93.081229203,148,"1596 WHEELOCK RIDGE ROAD, SAINT PAUL, MN, 55130","Match","Exact","1596 WHEELOCK RIDGE RD, SAINT PAUL, MN, 55130",97649990,"R"
220649,"1596 WORTHINGTON CLUB DR","WESTERVILLE","OH",43081,40.12687458,-82.974189328,149,"1596 WORTHINGTON CLUB DR, WESTERVILLE, OH, 43081","Match","Exact","1596 WORTHINGTON CLUB DR, WESTERVILLE, OH, 43081",218687646,"L"
220650,"1596 WORTHINGTON CLUB DRIVE","WESTERVILLE","OH",43081,40.12687458,-82.974189328,150,"1596 WORTHINGTON CLUB DRIVE, WESTERVILLE, OH, 43081","Match","Exact","1596 WORTHINGTON CLUB DR, WESTERVILLE, OH, 43081",218687646,"L"
220651,"15960 BREWSTER RD","MOUNDS","OK",74047,35.849092941,-95.908802652,151,"15960 BREWSTER RD, MOUNDS, OK, 74047","Match","Exact","15960 BREWSTER RD, MOUNDS, OK, 74047",604845338,"L"
220652,"15960 CLEARWATER DR","ELBERT","CO",80106,39.0639365540001,-104.586208214,152,"15960 CLEARWATER DR, ELBERT, CO, 80106","Match","Exact","15960 CLEARWATER DR, ELBERT, CO, 80106",610679120,"L"
220653,"15960 E ABERDEEN AVE","CENTENNIAL","CO",80016,39.607918048,-104.803438975,153,"15960 E ABERDEEN AVE, CENTENNIAL, CO, 80016","Match","Exact","15960 E ABERDEEN AVE, CENTENNIAL, CO, 80016",177541186,"R"
220654,"15960 FALCONS FIRE DR","WESTFIELD","IN",46074,40.019858565,-86.140918611,154,"15960 FALCONS FIRE DR, WESTFIELD, IN, 46074","Match","Exact","15960 FALCONS FIRE DR, WESTFIELD, IN, 46074",638724291,"R"
220655,"15960 K STREET APT 1","MOJAVE","CA",93501,35.053393693,-118.172588458,155,"15960 K STREET APT 1, MOJAVE, CA, 93501","Match","Exact","15960 K ST, MOJAVE, CA, 93501",108993335,"R"
220656,"15960 VETERANS MEMORIAL BLVD","NAPLES","FL",34110,26.302260281,-81.771039797,156,"15960 VETERANS MEMORIAL BLVD, NAPLES, FL, 34110","Match","Exact","15960 VETERANS MEMORIAL BLVD, NAPLES, FL, 34110",115212348,"L"
220657,"15961 BALTRAY WAY","FONTANA","CA",92336,34.141573431,-117.456639137,157,"15961 BALTRAY WAY, FONTANA, CA, 92336","Match","Exact","15961 BALTRAY WAY, FONTANA, CA, 92336",614815219,"R"
220658,"15961 BARLOW RD","LOXLEY","AL",36551,30.5892523320001,-87.751568451,158,"15961 BARLOW RD, LOXLEY, AL, 36551","Match","Exact","15961 BARLOW RD, LOXLEY, AL, 36551",131632709,"R"
220659,"15962 DORSET RD","LAUREL","MD",20707,39.109743361,-76.8740212129999,159,"15962 DORSET RD, LAUREL, MD, 20707","Match","Exact","15962 DORSET RD, LAUREL, MD, 20707",76333809,"L"
220660,"15962 NE 120TH ST","REDMOND","WA",98052,47.7076747400001,-122.125160354,160,"15962 NE 120TH ST, REDMOND, WA, 98052","Match","Exact","15962 NE 120TH ST, REDMOND, WA, 98052",650920669,"R"
220661,"15962 PALSHAW CT","CALDWELL","ID",83607,43.5993944580001,-116.712165474,161,"15962 PALSHAW CT, CALDWELL, ID, 83607","Match","Exact","15962 PALSHAW CT, CALDWELL, ID, 83607",625084539,"L"
220662,"15962 STORMY DR NE","SILVERTON","OR",97381,44.9879313700001,-122.734603273,162,"15962 STORMY DR NE, SILVERTON, OR, 97381","Match","Exact","15962 STORMY DR NE, SILVERTON, OR, 97381",652337067,"R"
220663,"15962W STATE HIGHWAY 27/70","STONE LAKE","WI",54876,NA,NA,163,"15962W STATE HIGHWAY 27/70, STONE LAKE, WI, 54876","No_Match",NA,NA,NA,NA
220664,"15963 MARCELLA ST","SAN LEANDRO","CA",94578,37.701820035,-122.117158915,164,"15963 MARCELLA ST, SAN LEANDRO, CA, 94578","Match","Exact","15963 MARCELLA ST, SAN LEANDRO, CA, 94578",606826935,"R"
220665,"15964 E 117TH AVE","COMMERCE CITY","CO",80022,39.910046263,-104.803311671,165,"15964 E 117TH AVE, COMMERCE CITY, CO, 80022","Match","Exact","15964 E 117TH AVE, COMMERCE CITY, CO, 80022",637707564,"R"
220666,"15964 LUDLOW LN","FONTANA","CA",92336,34.1408125770001,-117.456613209,166,"15964 LUDLOW LN, FONTANA, CA, 92336","Match","Exact","15964 LUDLOW LN, FONTANA, CA, 92336",614813958,"L"
220667,"15964 UPLANDER ST NW","ANDOVER","MN",55304,45.2598824880001,-93.3249721339999,167,"15964 UPLANDER ST NW, ANDOVER, MN, 55304","Match","Exact","15964 UPLANDER ST NW, ANDOVER, MN, 55304",97515862,"R"
220668,"15965 COUNTY ROAD C","NEW BAVARIA","OH",43548,NA,NA,168,"15965 COUNTY ROAD C, NEW BAVARIA, OH, 43548","No_Match",NA,NA,NA,NA
220669,"15965 IRONWOOD DR","DOLAN SPRINGS","AZ",86441,35.5881516000001,-114.269478004,169,"15965 IRONWOOD DR, DOLAN SPRINGS, AZ, 86441","Match","Non_Exact","15965 N IRONWOOD DR, DOLAN SPRINGS, AZ, 86441",618621290,"L"
220670,"15965 VIRGINIA CIRCLE","OMAHA","NE",68136,41.1753748460001,-96.1641318329999,170,"15965 VIRGINIA CIRCLE, OMAHA, NE, 68136","Match","Exact","15965 VIRGINIA CIR, OMAHA, NE, 68136",624461111,"R"
220671,"15966 AVENUE 327","IVANHOE","CA",93235,36.3832565440001,-119.216524406,171,"15966 AVENUE 327, IVANHOE, CA, 93235","Match","Exact","15966 AVE 327, IVANHOE, CA, 93235",202760713,"R"
220672,"15966 CHUMSTICK HWY","LEAVENWORTH","WA",98826,47.7099014670001,-120.637205615,172,"15966 CHUMSTICK HWY, LEAVENWORTH, WA, 98826","Match","Non_Exact","15966 CHUMSTICK RD, LEAVENWORTH, WA, 98826",605854614,"L"
220673,"15968 BUFFALO ROAD","CLAYTON","NC",27527,35.7249000510001,-78.3868958199999,173,"15968 BUFFALO ROAD, CLAYTON, NC, 27527","Match","Exact","15968 BUFFALO RD, CLAYTON, NC, 27527",651564352,"R"
220674,"15968 NW HECKMAN LN","PORTLAND","OR",97229,45.567811653,-122.841783455,174,"15968 NW HECKMAN LN, PORTLAND, OR, 97229","Match","Exact","15968 NW HECKMAN LN, PORTLAND, OR, 97229",641895518,"R"
220675,"15969 DOWNALL GREEN DRIVE","CHESTERFIELD","MO",63017,38.6168622230001,-90.583709936,175,"15969 DOWNALL GREEN DRIVE, CHESTERFIELD, MO, 63017","Match","Exact","15969 DOWNALL GREEN DR, CHESTERFIELD, MO, 63017",100173388,"L"
220676,"1597 BALTIMORE PIKE","CHADDS FORD","PA",19317,39.872631864,-75.5886470149999,176,"1597 BALTIMORE PIKE, CHADDS FORD, PA, 19317","Match","Exact","1597 BALTIMORE PIKE, CHADDS FORD, PA, 19317",615300880,"R"
220677,"1597 CENTRE ST","NEWTON HIGHLANDS","MA",2461,42.321209251,-71.203862058,177,"1597 CENTRE ST, NEWTON HIGHLANDS, MA, 2461","Match","Exact","1597 CENTRE ST, NEWTON HIGHLANDS, MA, 02461",86866101,"R"
220678,"1597 CORPORATE LANDING PARKWAY","VIRGINIA BEACH","VA",23454,36.7880160080001,-76.0092012009999,178,"1597 CORPORATE LANDING PARKWAY, VIRGINIA BEACH, VA, 23454","Match","Exact","1597 CORPORATE LANDING PKWY, VIRGINIA BCH, VA, 23454",122302203,"R"
220679,"1597 CORPORATE LANDING PKWY","VIRGINIA BEACH","VA",23454,36.7880160080001,-76.0092012009999,179,"1597 CORPORATE LANDING PKWY, VIRGINIA BEACH, VA, 23454","Match","Exact","1597 CORPORATE LANDING PKWY, VIRGINIA BCH, VA, 23454",122302203,"R"
220680,"1597 CYPRUS CT","RIVERDALE","GA",30296,33.561471022,-84.442937898,180,"1597 CYPRUS CT, RIVERDALE, GA, 30296","Match","Exact","1597 CYPRUS CT, RIVERDALE, GA, 30296",23312332,"R"
220681,"1597 DAWS RD","BLUE BELL","PA",19422,40.1569791860001,-75.3113298869999,181,"1597 DAWS RD, BLUE BELL, PA, 19422","Match","Exact","1597 DAWS RD, BLUE BELL, PA, 19422",135075842,"R"
220682,"1597 DEER CROSSING POINT","JONESBORO","GA",30236,33.5006517850001,-84.338958315,182,"1597 DEER CROSSING POINT, JONESBORO, GA, 30236","Match","Exact","1597 DEER CROSSING PT, JONESBORO, GA, 30236",640499792,"L"
220683,"1597 EAST 9350 SOUTH","SANDY","UT",84093,40.5813454190001,-111.845342301,183,"1597 EAST 9350 SOUTH, SANDY, UT, 84093","Match","Exact","1597 E 9350 S, SANDY, UT, 84093",176124942,"L"
220684,"1597 EDMONDSON TRAIL","ROCKWALL","TX",75087,32.938172368,-96.4766969139999,184,"1597 EDMONDSON TRAIL, ROCKWALL, TX, 75087","Match","Exact","1597 EDMONDSON TRL, ROCKWALL, TX, 75087",617953464,"L"
220685,"1597 FERNANDO DR","TALLAHASSEE","FL",32301,30.461365802,-84.274813002,185,"1597 FERNANDO DR, TALLAHASSEE, FL, 32301","Match","Non_Exact","1597 FERNANDO DR, TALLAHASSEE, FL, 32303",82853645,"R"
220686,"1597 GATEWAY","SIMI VALLEY","CA",93063,34.267393521,-118.664259848,186,"1597 GATEWAY, SIMI VALLEY, CA, 93063","Match","Non_Exact","1597 GATEWAY AVE, SIMI VALLEY, CA, 93063",110118426,"L"
220687,"1597 GRAND AVENUE","BALDWIN","NY",11510,40.670926509,-73.6105572229999,187,"1597 GRAND AVENUE, BALDWIN, NY, 11510","Match","Exact","1597 GRAND AVE, BALDWIN, NY, 11510",147629893,"L"
220688,"1597 HANFORD STREET","COLUMBUS","OH",43206,39.9349211050001,-82.952148245,188,"1597 HANFORD STREET, COLUMBUS, OH, 43206","Match","Exact","1597 HANFORD ST, COLUMBUS, OH, 43206",218558764,"L"
220689,"1597 JAMES AVE","ST PAUL","MN",55105,44.927896623,-93.1682601209999,189,"1597 JAMES AVE, ST PAUL, MN, 55105","Match","Non_Exact","1597 W JAMES AVE, SAINT PAUL, MN, 55105",97646150,"R"
220690,"1597 JANET PLACE","CHARLESTON","WV",25302,NA,NA,190,"1597 JANET PLACE, CHARLESTON, WV, 25302","No_Match",NA,NA,NA,NA
220691,"1597 KILCHURN RD","JACKSONVILLE","FL",32218,30.2855667470001,-81.841072814,191,"1597 KILCHURN RD, JACKSONVILLE, FL, 32218","Match","Non_Exact","1597 KLLCHURN RD, JACKSONVILLE, FL, 32221",646999824,"L"
220692,"1597 KILCHURN RD","JACKSONVILLE","FL",32221,30.2855667470001,-81.841072814,192,"1597 KILCHURN RD, JACKSONVILLE, FL, 32221","Match","Non_Exact","1597 KLLCHURN RD, JACKSONVILLE, FL, 32221",646999824,"L"
220693,"1597 LONE TREE RD","OROVILLE","CA",95965,39.4037063280001,-121.576563416,193,"1597 LONE TREE RD, OROVILLE, CA, 95965","Match","Exact","1597 LONE TREE RD, OROVILLE, CA, 95965",68450957,"R"
220694,"1597 LONGMOUNT","LAWRENCEVILLE","GA",30044,33.925745831,-84.026159881,194,"1597 LONGMOUNT, LAWRENCEVILLE, GA, 30044","Match","Non_Exact","1597 LONGMONT DR, LAWRENCEVILLE, GA, 30044",630308839,"L"
220695,"1597 N 39TH AVE","STONEPARK","IL",60165,41.8997630420001,-87.881152582,195,"1597 N 39TH AVE, STONEPARK, IL, 60165","Match","Non_Exact","1597 39TH AVE, STONE PARK, IL, 60165",111727374,"R"
220696,"1597 N CLEVELAND RD","LEXINGTON","KY",40509,37.9885743880001,-84.362438583,196,"1597 N CLEVELAND RD, LEXINGTON, KY, 40509","Match","Exact","1597 N CLEVELAND RD, LEXINGTON, KY, 40509",31929296,"R"
220697,"1597 N HIGHWAY 67","SEDALIA","CO",80135,39.3839563590001,-105.074362688,197,"1597 N HIGHWAY 67, SEDALIA, CO, 80135","Match","Exact","1597 N HWY 67, SEDALIA, CO, 80135",636172425,"L"
220698,"1597 NORTH ROAD","TROY","OH",45373,40.053700436,-84.229497314,198,"1597 NORTH ROAD, TROY, OH, 45373","Match","Exact","1597 NORTH RD, TROY, OH, 45373",135297232,"L"
220699,"1597 NORTHFIELD ROAD","BURLINGTON","NC",27217,NA,NA,199,"1597 NORTHFIELD ROAD, BURLINGTON, NC, 27217","No_Match",NA,NA,NA,NA
220700,"1597 PANOLA ROAD","ELLENWOOD","GA",30294,33.6241561080001,-84.230566956,200,"1597 PANOLA ROAD, ELLENWOOD, GA, 30294","Match","Exact","1597 PANOLA RD, ELLENWOOD, GA, 30294",23188153,"L"
220701,"1597 QUAIL LAKE DRIVE APT 205","WEST PALM BEACH","FL",33409,26.699771415,-80.1053000329999,201,"1597 QUAIL LAKE DRIVE APT 205, WEST PALM BEACH, FL, 33409","Match","Exact","1597 QUAIL LAKE DR, WEST PALM BEACH, FL, 33409",641073293,"L"
220702,"1597 S 1500 E","SALT LAKE CITY","UT",84105,40.735001491,-111.847955198,202,"1597 S 1500 E, SALT LAKE CITY, UT, 84105","Match","Exact","1597 S 1500 E, SALT LAKE CITY, UT, 84105",176080806,"L"
220703,"1597 S 161ST DR","GOODYEAR","AZ",85338,33.4315941150001,-112.406007229,203,"1597 S 161ST DR, GOODYEAR, AZ, 85338","Match","Exact","1597 S 161ST DR, GOODYEAR, AZ, 85338",619896843,"L"
220704,"1597 S FEDERAL HIGHWAY","BOYNTON BEACH","FL",33435,26.5147119600001,-80.0590006589999,204,"1597 S FEDERAL HIGHWAY, BOYNTON BEACH, FL, 33435","Match","Exact","1597 S FEDERAL HWY, BOYNTON BEACH, FL, 33435",115296995,"R"
220705,"1597 SHORE DR","SAN JOSE","CA",95131,37.373024322,-121.880152353,205,"1597 SHORE DR, SAN JOSE, CA, 95131","Match","Exact","1597 SHORE DR, SAN JOSE, CA, 95131",648527187,"L"
220706,"1597 TICONDEROGA DRIVE","SOUTHAVEN","MS",38671,34.990770614,-90.017733922,206,"1597 TICONDEROGA DRIVE, SOUTHAVEN, MS, 38671","Match","Exact","1597 TICONDEROGA DR, SOUTHAVEN, MS, 38671",91824104,"R"
220707,"1597 TUCIBDERIGA DRIVE","SOUTHHAVEN","MS",38671,NA,NA,207,"1597 TUCIBDERIGA DRIVE, SOUTHHAVEN, MS, 38671","No_Match",NA,NA,NA,NA
220708,"1597 TURRIFF WAY","SAN JOSE","CA",95132,37.401878852,-121.862549973,208,"1597 TURRIFF WAY, SAN JOSE, CA, 95132","Match","Exact","1597 TURRIFF WAY, SAN JOSE, CA, 95132",122962597,"L"
220709,"1597 TWIN OAK DR","MURFREESBORO","NC",37130,NA,NA,209,"1597 TWIN OAK DR, MURFREESBORO, NC, 37130","No_Match",NA,NA,NA,NA
220710,"1597 TWIN OAK DRIVE","MURFREESBORO","TN",37130,35.8674559630001,-86.337210265,210,"1597 TWIN OAK DRIVE, MURFREESBORO, TN, 37130","Match","Exact","1597 TWIN OAK DR, MURFREESBORO, TN, 37130",59043732,"L"
220711,"1597 W MOUNTAIN VIEW RD  5","PHOENIX","AZ",85021,33.574890876,-112.093214481,211,"1597 W MOUNTAIN VIEW RD  5, PHOENIX, AZ, 85021","Match","Non_Exact","1597 W MOUNTAIN VIEW RD, PHOENIX, AZ, 85021",128203311,"L"
220712,"1597 WASHINGTON ST  APT 501","BOSTON","MA",2118,42.338218634,-71.07458356,212,"1597 WASHINGTON ST  APT 501, BOSTON, MA, 2118","Match","Exact","1597 WASHINGTON ST, BOSTON, MA, 02118",85700792,"R"
220713,"1597 WILSON ST","BALDWIN","NY",11510,40.669324886,-73.614869676,213,"1597 WILSON ST, BALDWIN, NY, 11510","Match","Exact","1597 WILSON ST, BALDWIN, NY, 11510",147629598,"L"
220714,"15970 FALCONS FIRE DRIVE","WESTFIELD","IN",46074,40.020028713,-86.1409042619999,214,"15970 FALCONS FIRE DRIVE, WESTFIELD, IN, 46074","Match","Exact","15970 FALCONS FIRE DR, WESTFIELD, IN, 46074",638724291,"R"
220715,"15970 SOUTH SHIBELL CIRCLE","ARIZONA CITH","AZ",85123,32.734871942,-111.658241852,215,"15970 SOUTH SHIBELL CIRCLE, ARIZONA CITH, AZ, 85123","Match","Non_Exact","15970 S SHIBELL CIR, ARIZONA CITY, AZ, 85123",129192313,"L"
220716,"15970 SW 5TH STREET","PEMBROKE PINES","FL",33027,26.001406376,-80.360369034,216,"15970 SW 5TH STREET, PEMBROKE PINES, FL, 33027","Match","Exact","15970 SW 5TH ST, PEMBROKE PINES, FL, 33027",114790510,"R"
220717,"15971 LAKE AVE","GRAND HAVE","MI",49417,43.027597089,-86.1829377079999,217,"15971 LAKE AVE, GRAND HAVE, MI, 49417","Match","Non_Exact","15971 LAKE AVE, GRAND HAVEN, MI, 49417",71086223,"R"
220718,"15971 MELLEN LANE","JUPITER","FL",33478,NA,NA,218,"15971 MELLEN LANE, JUPITER, FL, 33478","No_Match",NA,NA,NA,NA
220719,"15971 MT OLIVE RD","GRASS VALLEY","CA",95945,39.146027519,-120.973847323,219,"15971 MT OLIVE RD, GRASS VALLEY, CA, 95945","Match","Exact","15971 MOUNT OLIVE RD, GRASS VALLEY, CA, 95945",106550105,"R"
220720,"15971 NE 19TH CT 101","NORTH MIAMI","FL",33162,25.9230246270001,-80.1612477259999,220,"15971 NE 19TH CT 101, NORTH MIAMI, FL, 33162","Match","Non_Exact","15971 NE 19TH CT, MIAMI, FL, 33162",116036332,"R"
220721,"15971 SPUNKY CANYON ROAD","GREEN VALLEY","CA",91390,34.617963418,-118.411133146,221,"15971 SPUNKY CANYON ROAD, GREEN VALLEY, CA, 91390","Match","Exact","15971 SPUNKY CANYON RD, GREEN VALLEY, CA, 91390",141518199,"R"
220722,"15971 SW 82ND STREET","MIAMI","FL",33193,25.6896458410001,-80.451504724,222,"15971 SW 82ND STREET, MIAMI, FL, 33193","Match","Exact","15971 SW 82ND ST, MIAMI, FL, 33193",116079338,"L"
220723,"15971 W MORNING GLORY RD","GOODYEAR","AZ",85338,33.4441868700001,-112.402276813,223,"15971 W MORNING GLORY RD, GOODYEAR, AZ, 85338","Match","Non_Exact","15971 W MORNING GLORY ST, GOODYEAR, AZ, 85338",128850605,"L"
220724,"15972 L STREET","MOJAVE","CA",93501,35.0538040870001,-118.17133217,224,"15972 L STREET, MOJAVE, CA, 93501","Match","Exact","15972 L ST, MOJAVE, CA, 93501",108993333,"R"
220725,"15972 MEREDITH AVE","OMAHA","NE",68116,41.2999585950001,-96.164305288,225,"15972 MEREDITH AVE, OMAHA, NE, 68116","Match","Exact","15972 MEREDITH AVE, OMAHA, NE, 68116",632507374,"L"
220726,"15972 OPAL MOUNTAIN PL","VICTORVILLE","CA",92394,34.539401131,-117.352322377,226,"15972 OPAL MOUNTAIN PL, VICTORVILLE, CA, 92394","Match","Exact","15972 OPAL MOUNTAIN PL, VICTORVILLE, CA, 92394",616134681,"L"
220727,"15972 RD 138","PAULDING","OH",45879,41.1356922320001,-84.515523356,227,"15972 RD 138, PAULDING, OH, 45879","Match","Exact","15972 RD 138, PAULDING, OH, 45879",6711094,"L"
220728,"15972 TREY HUGHES DRIVE","HARVEST","AL",35749,34.7869383010001,-86.7894189799999,228,"15972 TREY HUGHES DRIVE, HARVEST, AL, 35749","Match","Non_Exact","15972 TREY HUGHES DR NW, HARVEST, AL, 35749",95265288,"R"
220729,"15972 VIA PARO","SAN LORENZO","CA",94580,37.678570699,-122.130458187,229,"15972 VIA PARO, SAN LORENZO, CA, 94580","Match","Exact","15972 VIA PARO, SAN LORENZO, CA, 94580",125019264,"L"
220730,"15972 WHIPPOORWILL CIRCLE","LOXAHATCHEE","FL",33470,26.763450005,-80.2947054489999,230,"15972 WHIPPOORWILL CIRCLE, LOXAHATCHEE, FL, 33470","Match","Non_Exact","15972 WHIPPORWILL CIR, LOXAHATCHEE, FL, 33470",648465900,"R"
220731,"15973 SHARP RD","ROCKTON","IL",61072,42.4908938200001,-89.1670056299999,231,"15973 SHARP RD, ROCKTON, IL, 61072","Match","Exact","15973 SHARP RD, ROCKTON, IL, 61072",49246310,"R"
220732,"15975 LINDSEY LN NE","POULSBO","WA",98370,47.7063632630001,-122.603321116,232,"15975 LINDSEY LN NE, POULSBO, WA, 98370","Match","Exact","15975 LINDSEY LN NE, POULSBO, WA, 98370",187664037,"R"
220733,"15975 MCCLELLAND RD","FREDERICKTOWN","OH",43019,40.471106864,-82.6131510289999,233,"15975 MCCLELLAND RD, FREDERICKTOWN, OH, 43019","Match","Exact","15975 MCCLELLAND RD, FREDERICKTOWN, OH, 43019",24658254,"L"
220734,"15975 N BLUEBIRD DRIVE","EFFINGHAM","IL",62401,39.149156845,-88.625492746,234,"15975 N BLUEBIRD DRIVE, EFFINGHAM, IL, 62401","Match","Exact","15975 N BLUEBIRD DR, EFFINGHAM, IL, 62401",94757529,"L"
220735,"15975 RANCH HOUSE ROAD","CHINO HILLS","CA",91709,33.963675881,-117.756013038,235,"15975 RANCH HOUSE ROAD, CHINO HILLS, CA, 91709","Match","Exact","15975 RANCH HOUSE RD, CHINO HILLS, CA, 91709",144980934,"R"
220736,"15975 RICHARD COURT","MARION","IL",62959,37.761923446,-88.8653290729999,236,"15975 RICHARD COURT, MARION, IL, 62959","Match","Exact","15975 RICHARD CT, MARION, IL, 62959",624127559,"L"
220737,"15976 CAMINO CODORNIZ","SAN DIEGO","CA",92127,NA,NA,237,"15976 CAMINO CODORNIZ, SAN DIEGO, CA, 92127","No_Match",NA,NA,NA,NA
220738,"15976 STATE ROUTE 65","WAPAKONETA","OH",45895,40.583932442,-84.0855626649999,238,"15976 STATE ROUTE 65, WAPAKONETA, OH, 45895","Match","Exact","15976 STATE RTE 65, WAPAKONETA, OH, 45895",209200152,"R"
220739,"15976 W WIND CIR","SUNRISE","FL",33326,26.106974275,-80.361093894,239,"15976 W WIND CIR, SUNRISE, FL, 33326","Match","Exact","15976 W WIND CIR, SUNRISE, FL, 33326",114698540,"R"
220740,"15976 WHETSTONE DRIVE","BROOMFIELD","CO",80023,39.9851433430001,-105.040094257,240,"15976 WHETSTONE DRIVE, BROOMFIELD, CO, 80023","Match","Exact","15976 WHETSTONE DR, BROOMFIELD, CO, 80023",625452279,"L"
220741,"1597653RD AVE","CHIPPEWA FALLS","WI",54729,NA,NA,241,"1597653RD AVE, CHIPPEWA FALLS, WI, 54729","No_Match",NA,NA,NA,NA
220742,"15978 KETTINGTON ROAD","CHESTERFIELD","MO",63017,38.612232465,-90.584043209,242,"15978 KETTINGTON ROAD, CHESTERFIELD, MO, 63017","Match","Exact","15978 KETTINGTON RD, CHESTERFIELD, MO, 63017",100110300,"L"
220743,"15979 E TALL TIMBER LANE","PARKER","CO",80134,39.493717937,-104.803754134,243,"15979 E TALL TIMBER LANE, PARKER, CO, 80134","Match","Exact","15979 E TALL TIMBER LN, PARKER, CO, 80134",627316954,"L"
220744,"15979 HOWARD ST","OMAHA","NE",68118,41.2528859990001,-96.165870038,244,"15979 HOWARD ST, OMAHA, NE, 68118","Match","Exact","15979 HOWARD ST, OMAHA, NE, 68118",116966378,"R"
220745,"15979 N PENINSULA RD","WHITEHOUSE","TX",75791,32.246619079,-95.1961771749999,245,"15979 N PENINSULA RD, WHITEHOUSE, TX, 75791","Match","Exact","15979 N PENINSULA RD, WHITEHOUSE, TX, 75791",141295860,"R"
220746,"15979 NW WISMER ROAD","PORTLAND","OR",97229,45.5580935130001,-122.841503654,246,"15979 NW WISMER ROAD, PORTLAND, OR, 97229","Match","Non_Exact","15979 NW WISMER DR, PORTLAND, OR, 97229",158217542,"R"
220747,"15979 RICHMOND ROAD","CALLAO","VA",22435,37.9499941720001,-76.580501144,247,"15979 RICHMOND ROAD, CALLAO, VA, 22435","Match","Exact","15979 RICHMOND RD, CALLAO, VA, 22435",30959743,"L"
220748,"15979 W CHRISTY DR","SURPRISE","AZ",85379,33.5829463690001,-112.404078148,248,"15979 W CHRISTY DR, SURPRISE, AZ, 85379","Match","Exact","15979 W CHRISTY DR, SURPRISE, AZ, 85379",637536668,"R"
220749,"1598 12TH ST","OROVILLE","CA",95965,39.5119280490001,-121.591579732,249,"1598 12TH ST, OROVILLE, CA, 95965","Match","Exact","1598 12TH ST, OROVILLE, CA, 95965",68421487,"R"
220750,"1598 20TH AVE NE","SAUK RAPIDS","MN",56379,45.590116751,-94.123452871,250,"1598 20TH AVE NE, SAUK RAPIDS, MN, 56379","Match","Exact","1598 20TH AVE NE, SAUK RAPIDS, MN, 56379",635993187,"L"
220751,"1598 255TH STREET","REDDING","IA",50860,NA,NA,251,"1598 255TH STREET, REDDING, IA, 50860","No_Match",NA,NA,NA,NA
220752,"1598 BOULEVARD LORRAINE","ATLANTA","GA",30311,NA,NA,252,"1598 BOULEVARD LORRAINE, ATLANTA, GA, 30311","No_Match",NA,NA,NA,NA
220753,"1598 CALLE AVILA","CHULA VISTA","CA",91913,32.6203228640001,-116.985893146,253,"1598 CALLE AVILA, CHULA VISTA, CA, 91913","Match","Non_Exact","1598 CLL AVILA, CHULA VISTA, CA, 91913",645146599,"L"
220754,"1598 COLLINS ROAD","COLORADO SPRINGS","CO",80920,38.93824362,-104.794989292,254,"1598 COLLINS ROAD, COLORADO SPRINGS, CO, 80920","Match","Exact","1598 COLLINS RD, CO SPGS, CO, 80920",105509774,"L"
220755,"1598 COPPERFIELD PKWY","COLLEGE STATION","TX",77845,NA,NA,255,"1598 COPPERFIELD PKWY, COLLEGE STATION, TX, 77845","No_Match",NA,NA,NA,NA
220756,"1598 CREAMERY RD","CLIFFORD TWP","PA",18470,41.6478416840001,-75.602164408,256,"1598 CREAMERY RD, CLIFFORD TWP, PA, 18470","Match","Non_Exact","1598 CREAMERY RD, CLIFFORD TWP, PA, 18407",651812190,"L"
220757,"1598 DAHLIA LANE SW  APT 44-302","TUMWATER","WA",98512,47.01816353,-122.917637757,257,"1598 DAHLIA LANE SW  APT 44-302, TUMWATER, WA, 98512","Match","Exact","1598 DAHLIA LN SW, TUMWATER, WA, 98512",180965297,"L"
220758,"1598 DOONE RD","COLUMBUS","OH",43221,40.0034248440001,-83.052438603,258,"1598 DOONE RD, COLUMBUS, OH, 43221","Match","Exact","1598 DOONE RD, COLUMBUS, OH, 43221",218690113,"R"
220759,"1598 DUCK CREEK RD","LOST CREEK","WV",26385,39.178750214,-80.414334463,259,"1598 DUCK CREEK RD, LOST CREEK, WV, 26385","Match","Exact","1598 DUCK CREEK RD, LOST CREEK, WV, 26385",605659881,"L"
220760,"1598 FORREST AVE","DOVER","DE",19904,NA,NA,260,"1598 FORREST AVE, DOVER, DE, 19904","No_Match",NA,NA,NA,NA
220761,"1598 FRAZIER ROAD","ATLANTA","GA",30033,33.8289746390001,-84.265510636,261,"1598 FRAZIER ROAD, ATLANTA, GA, 30033","Match","Non_Exact","1598 FRAZIER RD, DECATUR, GA, 30033",23387614,"L"
220762,"1598 FRAZIER ROAD","DECATUR","GA",30033,33.8289746390001,-84.265510636,262,"1598 FRAZIER ROAD, DECATUR, GA, 30033","Match","Exact","1598 FRAZIER RD, DECATUR, GA, 30033",23387614,"L"
220763,"1598 GRANDWOOD TRAIL","ACWORTH","GA",30201,33.995556293,-84.717359283,263,"1598 GRANDWOOD TRAIL, ACWORTH, GA, 30201","Match","Non_Exact","1598 GRANDWOOD TRL, ACWORTH, GA, 30101",17215055,"L"
220764,"1598 HABRA COURT","CAMARILLO","CA",93010,34.230058227,-119.050438455,264,"1598 HABRA COURT, CAMARILLO, CA, 93010","Match","Exact","1598 HABRA CT, CAMARILLO, CA, 93010",109960036,"R"
220765,"1598 JUSTIN PLACE","MOUNTAINSIDE","NJ",7092,40.6695976930001,-74.374531858,265,"1598 JUSTIN PLACE, MOUNTAINSIDE, NJ, 7092","Match","Exact","1598 JUSTIN PL, MOUNTAINSIDE, NJ, 07092",642915536,"L"
220766,"1598 KOENE PLACE","WAILUKU","HI",96793,20.894551768,-156.496181581,266,"1598 KOENE PLACE, WAILUKU, HI, 96793","Match","Exact","1598 KOENE PL, WAILUKU, HI, 96793",85099808,"R"
220767,"1598 LAKELAND AVE","LAKEWOOD","OH",44107,41.480843663,-81.80621372,267,"1598 LAKELAND AVE, LAKEWOOD, OH, 44107","Match","Exact","1598 LAKELAND AVE, LAKEWOOD, OH, 44107",61179988,"R"
220768,"1598 MALL DRIVE","BENTON HARBOR","MI",49022,42.07902992,-86.42062559,268,"1598 MALL DRIVE, BENTON HARBOR, MI, 49022","Match","Exact","1598 MALL DR, BENTON HARBOR, MI, 49022",642922584,"R"
220769,"1598 MEADOW BLUFFS AVE","HENDERSON","NV",89014,36.064934996,-115.056712144,269,"1598 MEADOW BLUFFS AVE, HENDERSON, NV, 89014","Match","Exact","1598 MEADOW BLUFFS AVE, HENDERSON, NV, 89014",641500130,"L"
220770,"1598 MEADOW DRIVE","GREENVILLE","MS",38701,33.438011196,-91.033871913,270,"1598 MEADOW DRIVE, GREENVILLE, MS, 38701","Match","Non_Exact","1598 MEADOW DR, GREENVILLE, MS, 38703",1156232,"L"
220771,"1598 MILTON ROAD","NAPA","CA",94559,38.204789969,-122.310702796,271,"1598 MILTON ROAD, NAPA, CA, 94559","Match","Exact","1598 MILTON RD, NAPA, CA, 94559",67435066,"L"
220772,"1598 N COVE ST","UNION","OR",97883,45.2195003510001,-117.860325083,272,"1598 N COVE ST, UNION, OR, 97883","Match","Exact","1598 N COVE ST, UNION, OR, 97883",138844130,"L"
220773,"1598 N WOODLAND BLVD","DELAND","FL",32720,29.06003531,-81.3045584119999,273,"1598 N WOODLAND BLVD, DELAND, FL, 32720","Match","Exact","1598 N WOODLAND BLVD, DELAND, FL, 32720",646256491,"R"
220774,"1598 N WOODLAND BLVD","DELANDQ","FL",32720,29.060018938,-81.304558014,274,"1598 N WOODLAND BLVD, DELANDQ, FL, 32720","Match","Non_Exact","1598 N WOODLAND BLVD, DELAND, FL, 32720",646256491,"R"
220775,"1598 OAKLAWN LANE","YORBA LINDA","CA",92886,NA,NA,275,"1598 OAKLAWN LANE, YORBA LINDA, CA, 92886","No_Match",NA,NA,NA,NA
220776,"1598 OLD HARMONY RD","CONCORD","NC",28027,NA,NA,276,"1598 OLD HARMONY RD, CONCORD, NC, 28027","No_Match",NA,NA,NA,NA
220777,"1598 Old Highway 34","MOUNT PLEASANT","IA",52641,40.9804247920001,-91.60332583,277,"1598 Old Highway 34, MOUNT PLEASANT, IA, 52641","Match","Exact","1598 OLD HWY 34, MOUNT PLEASANT, IA, 52641",16095504,"L"
220778,"1598 OLD HWY 6","CROSS","SC",29436,33.3620393940001,-80.18549869,278,"1598 OLD HWY 6, CROSS, SC, 29436","Match","Exact","1598 OLD HWY 6, CROSS, SC, 29436",100734623,"R"
220779,"1598 RIVER CREST PKWY","RUTHERFORDTON","NC",28139,35.2923817390001,-82.0441660709999,279,"1598 RIVER CREST PKWY, RUTHERFORDTON, NC, 28139","Match","Exact","1598 RIVER CREST PKWY, RUTHERFORDTON, NC, 28139",625011569,"R"
220780,"1598 SAN GABRIEL AVE","DECATUR","GA",30032,33.7458368960001,-84.2688947519999,280,"1598 SAN GABRIEL AVE, DECATUR, GA, 30032","Match","Exact","1598 SAN GABRIEL AVE, DECATUR, GA, 30032",23404317,"L"
220781,"1598 SARATOGA LANE","GLENVIEW","IL",60026,42.083749389,-87.835215879,281,"1598 SARATOGA LANE, GLENVIEW, IL, 60026","Match","Exact","1598 SARATOGA LN, GLENVIEW, IL, 60026",647558927,"R"
220782,"1598 SOUTH BLANEY AVE","SAN JOSE","CA",95129,37.295408896,-122.0236945,282,"1598 SOUTH BLANEY AVE, SAN JOSE, CA, 95129","Match","Exact","1598 S BLANEY AVE, SAN JOSE, CA, 95129",641279244,"L"
220783,"1598 SOUTH ELGIN RD","GOLDEN VALLEY","AZ",86413,35.1823478680001,-114.29788961,283,"1598 SOUTH ELGIN RD, GOLDEN VALLEY, AZ, 86413","Match","Non_Exact","1598 ELGIN RD, GOLDEN VALLEY, AZ, 86413",190310112,"R"
220784,"1598 SPANGLER DRIVE","FLORISSANT","MO",63031,38.8377838500001,-90.3234794909999,284,"1598 SPANGLER DRIVE, FLORISSANT, MO, 63031","Match","Exact","1598 SPANGLER DR, FLORISSANT, MO, 63031",100116090,"R"
220785,"1598 SPRANGLER","ST. LOUIS","MO",63031,NA,NA,285,"1598 SPRANGLER, ST. LOUIS, MO, 63031","No_Match",NA,NA,NA,NA
220786,"1598 TREVOR DRIVE","CA","CA",95118,37.247714128,-121.902567541,286,"1598 TREVOR DRIVE, CA, CA, 95118","Match","Non_Exact","1598 TREVOR DR, SAN JOSE, CA, 95118",122946714,"L"
220787,"1598 UNIONPORT RD APT MH","BRONX","NY",10462,40.8407959030001,-73.863049851,287,"1598 UNIONPORT RD APT MH, BRONX, NY, 10462","Match","Exact","1598 UNIONPORT RD, BRONX, NY, 10462",80304655,"R"
220788,"1598 US HIGHWAY 84","MULSHOE","TX",79347,NA,NA,288,"1598 US HIGHWAY 84, MULSHOE, TX, 79347","Tie",NA,NA,NA,NA
220789,"1598 VALLEY CREST DR","SAN JOSE","CA",95131,37.3751890410001,-121.879452022,289,"1598 VALLEY CREST DR, SAN JOSE, CA, 95131","Match","Exact","1598 VALLEY CREST DR, SAN JOSE, CA, 95131",122991583,"R"
220790,"1598 W 1625 S","PRICE","UT",84501,39.5770418590001,-110.844836588,290,"1598 W 1625 S, PRICE, UT, 84501","Match","Exact","1598 W 1625 S, PRICE, UT, 84501",132822660,"R"
220791,"1598 WHITE OAK RD","STAMPING GROUND","KY",40379,38.2176320900001,-84.69486281,291,"1598 WHITE OAK RD, STAMPING GROUND, KY, 40379","Match","Exact","1598 WHITE OAK RD, STAMPING GROUND, KY, 40379",41236746,"R"
220792,"1598 WOODPARK DRIVE","COLORADO SPRINGS","CO",80951,38.8598950840001,-104.671661638,292,"1598 WOODPARK DRIVE, COLORADO SPRINGS, CO, 80951","Match","Exact","1598 WOODPARK DR, COLORADO SPRINGS, CO, 80951",627946225,"L"
220793,"1598 XANTHE WAY","MANTECA","CA",95336,37.8234217040001,-121.243656026,293,"1598 XANTHE WAY, MANTECA, CA, 95336","Match","Exact","1598 XANTHE WAY, MANTECA, CA, 95336",133881724,"R"
220794,"15981 COUNTY ROAD 49","COLD SPRING","MN",56320,45.4454723010001,-94.439436663,294,"15981 COUNTY ROAD 49, COLD SPRING, MN, 56320","Match","Exact","15981 CO RD 49, COLD SPRING, MN, 56320",635834576,"R"
220795,"15981 WILLIAMS PLACE","BROOMFIELD","CO",80023,39.98626776,-105.028566985,295,"15981 WILLIAMS PLACE, BROOMFIELD, CO, 80023","Match","Exact","15981 WILLIAMS PL, BROOMFIELD, CO, 80023",647257472,"L"
220796,"15981 YARNELL STREET NUMBER 261","SYLMAR","CA",91342,34.32162363,-118.479148625,296,"15981 YARNELL STREET NUMBER 261, SYLMAR, CA, 91342","Match","Exact","15981 YARNELL ST, SYLMAR, CA, 91342",141538522,"R"
220797,"15982 US HIGHWAY 10","LAKE PARK","MN",56554,46.877516115,-96.067304596,297,"15982 US HIGHWAY 10, LAKE PARK, MN, 56554","Match","Exact","15982 US HWY 10, LAKE PARK, MN, 56554",611261436,"L"
220798,"15983 100TH ST NE","PEMBINA","ND",58271,48.8616968640001,-97.210470126,298,"15983 100TH ST NE, PEMBINA, ND, 58271","Match","Exact","15983 100TH ST NE, PEMBINA, ND, 58271",649900000,"R"
220799,"15983 FIG LANE","ROGERS","AR",72756,36.316165966,-94.028966027,299,"15983 FIG LANE, ROGERS, AR, 72756","Match","Exact","15983 FIG LN, ROGERS, AR, 72756",47871511,"L"
220800,"15983 FORSYTHIA CIRCLE","DELRAY BEACH","FL",33484,26.4407668220001,-80.124378043,300,"15983 FORSYTHIA CIRCLE, DELRAY BEACH, FL, 33484","Match","Exact","15983 FORSYTHIA CIR, DELRAY BEACH, FL, 33484",115553793,"R"
220801,"15983 SW 138 PLACE","MIAMI","FL",33186,25.6190194920001,-80.4177067049999,301,"15983 SW 138 PLACE, MIAMI, FL, 33186","Match","Non_Exact","15983 SW 138TH PL, MIAMI, FL, 33177",116076802,"L"
220802,"15983 SW 85TH STREET","MIAMI","FL",33193,25.6865922550001,-80.451554485,302,"15983 SW 85TH STREET, MIAMI, FL, 33193","Match","Exact","15983 SW 85TH ST, MIAMI, FL, 33193",116079352,"L"
220803,"15984 S 296TH E AVE","COWETA","OK",74429,35.9315248070001,-95.646520075,303,"15984 S 296TH E AVE, COWETA, OK, 74429","Match","Exact","15984 S 296TH E AVE, COWETA, OK, 74429",83161781,"R"
220804,"15984 SW 100 LANE","MIAMI","FL",33196,25.6725679830001,-80.4551052579999,304,"15984 SW 100 LANE, MIAMI, FL, 33196","Match","Exact","15984 SW 100TH LN, MIAMI, FL, 33196",116262785,"L"
220805,"15985 195TH STREET EAST","HASTINGS","MN",55033,44.6653662370001,-92.791235753,305,"15985 195TH STREET EAST, HASTINGS, MN, 55033","Match","Exact","15985 195TH ST E, HASTINGS, MN, 55033",37939556,"L"
220806,"15985 WEST BARTLETT AVENUE","GOODYEAR","AZ",85338,33.423080628,-112.402320263,306,"15985 WEST BARTLETT AVENUE, GOODYEAR, AZ, 85338","Match","Exact","15985 W BARTLETT AVE, GOODYEAR, AZ, 85338",619896752,"R"
220807,"15985 WITTWER RD","SOUTH BELOIT","IL",61080,42.491366284,-89.07945339,307,"15985 WITTWER RD, SOUTH BELOIT, IL, 61080","Match","Exact","15985 WITTWER RD, SOUTH BELOIT, IL, 61080",619395659,"R"
220808,"15986 EUCLID AVENUE","EAST CLEVELAND","OH",44112,41.5428967010001,-81.568898041,308,"15986 EUCLID AVENUE, EAST CLEVELAND, OH, 44112","Match","Exact","15986 EUCLID AVE, EAST CLEVELAND, OH, 44112",61121730,"R"
220809,"15986 SW 13 STREET","PEMBROKE PINES","FL",33027,25.9960444430001,-80.3608642469999,309,"15986 SW 13 STREET, PEMBROKE PINES, FL, 33027","Match","Exact","15986 SW 13TH ST, PEMBROKE PINES, FL, 33027",114790475,"R"
220810,"15987 FURROW RD","LARKSPUR","CO",80118,39.130320876,-104.83047598,310,"15987 FURROW RD, LARKSPUR, CO, 80118","Match","Exact","15987 FURROW RD, LARKSPUR, CO, 80118",629799763,"L"
220811,"15987 LOMOND SHORE WEST","KENDALL","NY",14476,43.37261733,-78.0822613289999,311,"15987 LOMOND SHORE WEST, KENDALL, NY, 14476","Match","Exact","15987 LOMOND SHORE W, KENDALL, NY, 14476",624824045,"R"
220812,"15988 MOLINA DRIVE","VICTORVILLE","CA",92395,34.512007393,-117.315138807,312,"15988 MOLINA DRIVE, VICTORVILLE, CA, 92395","Match","Non_Exact","15988 MOLINO DR, VICTORVILLE, CA, 92395",144573852,"R"
220813,"15989 COVE LANE","MONTCLAIR","VA",22025,38.6065897400001,-77.344966326,313,"15989 COVE LANE, MONTCLAIR, VA, 22025","Match","Exact","15989 COVE LN, MONTCLAIR, VA, 22025",76509002,"L"
220814,"15989 KNOLLWOOD DRIVE","DEARBORN","MI",48210,42.303513212,-83.191620176,314,"15989 KNOLLWOOD DRIVE, DEARBORN, MI, 48210","Match","Non_Exact","15989 KNOLLWOOD DR, DEARBORN, MI, 48120",95504259,"L"
220815,"15989 N CR 2300 E","OAKLAND","IL",61943,39.6082015320001,-88.04506803,315,"15989 N CR 2300 E, OAKLAND, IL, 61943","Match","Exact","15989 N CO RD 2300 E, OAKLAND, IL, 61943",5455082,"L"
220816,"15989 PINE VALLEY DRIVE","NORTHVILLE","MI",48167,NA,NA,316,"15989 PINE VALLEY DRIVE, NORTHVILLE, MI, 48167","No_Match",NA,NA,NA,NA
220817,"1599 8TH ST SE","MINNEAPOLIS","MN",55414,44.9833303030001,-93.229965724,317,"1599 8TH ST SE, MINNEAPOLIS, MN, 55414","Match","Exact","1599 8TH ST SE, MINNEAPOLIS, MN, 55414",43836307,"L"
220818,"1599 A QUARRIER STREET","CHARLESON","WV",25311,NA,NA,318,"1599 A QUARRIER STREET, CHARLESON, WV, 25311","No_Match",NA,NA,NA,NA
220819,"1599 CLINE ROAD","SABINA","OH",45169,39.479319988,-83.5906582119999,319,"1599 CLINE ROAD, SABINA, OH, 45169","Match","Exact","1599 CLINE RD, SABINA, OH, 45169",146842054,"R"
220820,"1599 COVERNTRY LN","SHAKOPEE","MN",55379,NA,NA,320,"1599 COVERNTRY LN, SHAKOPEE, MN, 55379","No_Match",NA,NA,NA,NA
220821,"1599 CYPRESS LAKE ROAD","LAKE WALES","FL",33898,27.9178989260001,-81.483788647,321,"1599 CYPRESS LAKE ROAD, LAKE WALES, FL, 33898","Match","Exact","1599 CYPRESS LAKE RD, LAKE WALES, FL, 33898",104889677,"L"
220822,"1599 DON SIMON DRIVE","SUN PRAIRIE","WI",53590,43.1591833620001,-89.261894152,322,"1599 DON SIMON DRIVE, SUN PRAIRIE, WI, 53590","Match","Exact","1599 DON SIMON DR, SUN PRAIRIE, WI, 53590",633750230,"R"
220823,"1599 E BERETTA PLACE","CHANDLER","AZ",85286,33.286038741,-111.814103058,323,"1599 E BERETTA PLACE, CHANDLER, AZ, 85286","Match","Exact","1599 E BERETTA PL, CHANDLER, AZ, 85286",128854502,"R"
220824,"1599 E GATES STREET","COLUMBUS","OH",43206,39.935933452,-82.952037689,324,"1599 E GATES STREET, COLUMBUS, OH, 43206","Match","Exact","1599 E GATES ST, COLUMBUS, OH, 43206",135586191,"R"
220825,"1599 E HENRY LANE","OZARK","MO",65721,36.946994083,-93.256722162,325,"1599 E HENRY LANE, OZARK, MO, 65721","Match","Non_Exact","1601 E HENRY LN, OZARK, MO, 65721",99846070,"R"
220826,"1599 EAST WHITTEN STREET","CHANDLER","AZ",85225,33.2967967810001,-111.813097719,326,"1599 EAST WHITTEN STREET, CHANDLER, AZ, 85225","Match","Exact","1599 E WHITTEN ST, CHANDLER, AZ, 85225",128271573,"R"
220827,"1599 ENTERPRISE CIRCLE","PITTSBURG","CA",94565,38.02817996,-121.895356144,327,"1599 ENTERPRISE CIRCLE, PITTSBURG, CA, 94565","Match","Exact","1599 ENTERPRISE CIR, PITTSBURG, CA, 94565",645877858,"L"
220828,"1599 FM 60 E","SOMERVILLE","TX",77879,30.4007797030001,-96.551150638,328,"1599 FM 60 E, SOMERVILLE, TX, 77879","Match","Non_Exact","1599 FM 60, SOMERVILLE, TX, 77879",24808787,"L"
220829,"1599 FREETOWN ROAD","SANDERSVILLE","GA",31082,32.9415892280001,-82.703188228,329,"1599 FREETOWN ROAD, SANDERSVILLE, GA, 31082","Match","Exact","1599 FREETOWN RD, SANDERSVILLE, GA, 31082",649822740,"L"
220830,"1599 HAMBURG TURNPIKE","WAYNE","NJ",7470,NA,NA,330,"1599 HAMBURG TURNPIKE, WAYNE, NJ, 7470","No_Match",NA,NA,NA,NA
220831,"1599 HARTS MILL ROAD NE","BROOKHAVEN","GA",30319,33.9022074210001,-84.324096632,331,"1599 HARTS MILL ROAD NE, BROOKHAVEN, GA, 30319","Match","Exact","1599 HARTS MILL RD NE, BROOKHAVEN, GA, 30319",23356925,"R"
220832,"1599 HAYES ST UNIT 102","SAN FRANCISCO","CA",94117,37.774370462,-122.442619707,332,"1599 HAYES ST UNIT 102, SAN FRANCISCO, CA, 94117","Match","Exact","1599 HAYES ST, SAN FRANCISCO, CA, 94117",192283305,"L"
220833,"1599 INGLESIDE AVE","GWYNN OAK","MD",21207,39.3018681360001,-76.717558142,333,"1599 INGLESIDE AVE, GWYNN OAK, MD, 21207","Match","Exact","1599 INGLESIDE AVE, GWYNN OAK, MD, 21207",191570865,"R"
220834,"1599 KIMBLEWICK ROAD","POTOMAC","MD",20854,39.0607684450001,-77.176147704,334,"1599 KIMBLEWICK ROAD, POTOMAC, MD, 20854","Match","Exact","1599 KIMBLEWICK RD, POTOMAC, MD, 20854",62053945,"L"
220835,"1599 LEISURE WORLD","MESA","AZ",85206,33.4033414130001,-111.702285206,335,"1599 LEISURE WORLD, MESA, AZ, 85206","Match","Exact","1599 LEISURE WORLD, MESA, AZ, 85206",128252168,"L"
220836,"1599 MANCHESTER AVE","COLUMBUS","OH",43211,40.021903518,-82.968546944,336,"1599 MANCHESTER AVE, COLUMBUS, OH, 43211","Match","Exact","1599 MANCHESTER AVE, COLUMBUS, OH, 43211",135578207,"R"
220837,"1599 MOI STREET","WAHIAWA","HI",96786,NA,NA,337,"1599 MOI STREET, WAHIAWA, HI, 96786","No_Match",NA,NA,NA,NA
220838,"1599 MONTE VISTA AVENUE","CLAREMONT","CA",91711,34.112743003,-117.698441664,338,"1599 MONTE VISTA AVENUE, CLAREMONT, CA, 91711","Match","Exact","1599 MONTE VISTA AVE, CLAREMONT, CA, 91711",142791130,"L"
220839,"1599 MUNICIPAL ROAD","LEHIGHTON","PA",18235,40.7710258710001,-75.788083258,339,"1599 MUNICIPAL ROAD, LEHIGHTON, PA, 18235","Match","Exact","1599 MUNICIPAL RD, LEHIGHTON, PA, 18235",617836718,"R"
220840,"1599 NORTHWOOD DRIVE","INDIANAPOLIS","IN",46240,39.8990740620001,-86.1309607379999,340,"1599 NORTHWOOD DRIVE, INDIANAPOLIS, IN, 46240","Match","Exact","1599 NORTHWOOD DR, INDIANAPOLIS, IN, 46240",107983554,"R"
220841,"1599 NW 101","CLIVE","IA",50325,41.606030375,-93.757554611,341,"1599 NW 101, CLIVE, IA, 50325","Match","Non_Exact","1599 NW 101ST ST, CLIVE, IA, 50325",65774897,"R"
220842,"1599 NW 101ST","CLIVE","IA",50325,41.606030375,-93.757554611,342,"1599 NW 101ST, CLIVE, IA, 50325","Match","Non_Exact","1599 NW 101ST ST, CLIVE, IA, 50325",65774897,"R"
220843,"1599 PLEASANT WAY","PASADENA","CA",91105,34.13190331,-118.181313532,343,"1599 PLEASANT WAY, PASADENA, CA, 91105","Match","Exact","1599 PLEASANT WAY, PASADENA, CA, 91105",141614708,"R"
220844,"1599 POOR FARM ROAD","JACKSONVILLE","IL",62650,39.759454055,-90.266032033,344,"1599 POOR FARM ROAD, JACKSONVILLE, IL, 62650","Match","Exact","1599 POOR FARM RD, JACKSONVILLE, IL, 62650",81428720,"L"
220845,"1599 ROUTE 112 APT 11","PORT JEFFERSON STATI","NY",11776,NA,NA,345,"1599 ROUTE 112 APT 11, PORT JEFFERSON STATI, NY, 11776","No_Match",NA,NA,NA,NA
220846,"1599 ROUTE 122 APT 77","PORT JEFFERSON STAT","NY",11776,NA,NA,346,"1599 ROUTE 122 APT 77, PORT JEFFERSON STAT, NY, 11776","No_Match",NA,NA,NA,NA
220847,"1599 S BLANEY AVE","SAN JOSE","CA",95129,37.2954920110001,-122.023708477,347,"1599 S BLANEY AVE, SAN JOSE, CA, 95129","Match","Exact","1599 S BLANEY AVE, SAN JOSE, CA, 95129",641279244,"R"
220848,"1599 S ELM","BARTLESVILLE","OK",74003,NA,NA,348,"1599 S ELM, BARTLESVILLE, OK, 74003","No_Match",NA,NA,NA,NA
220849,"1599 STREAMWOOD DRIVE","POWDER SPRINGS","GA",30127,33.912524497,-84.647869704,349,"1599 STREAMWOOD DRIVE, POWDER SPRINGS, GA, 30127","Match","Exact","1599 STREAMWOOD DR, POWDER SPGS, GA, 30127",647807124,"L"
220850,"1599 SUNSET","BARTLETT","TN",38108,NA,NA,350,"1599 SUNSET, BARTLETT, TN, 38108","No_Match",NA,NA,NA,NA
220851,"1599 SUWANNEE COURT","SARASOTA","FL",34232,27.318370057,-82.477871131,351,"1599 SUWANNEE COURT, SARASOTA, FL, 34232","Match","Non_Exact","1599 SUWANEE CT, SARASOTA, FL, 34232",16378643,"L"
220852,"1599 VILLAGE ROUND DRIVE","PARK CITY","UT",84098,40.6866657940001,-111.541359157,352,"1599 VILLAGE ROUND DRIVE, PARK CITY, UT, 84098","Match","Exact","1599 VILLAGE ROUND DR, PARK CITY, UT, 84098",607539158,"L"
220853,"1599 W OLD MILL RD","LAKE FOREST","IL",60045,42.2110414790001,-87.886655122,353,"1599 W OLD MILL RD, LAKE FOREST, IL, 60045","Match","Exact","1599 W OLD MILL RD, LAKE FOREST, IL, 60045",119644311,"R"
220854,"1599 WEST SETTLEMENT ROAD","ROXBURY","NY",12474,42.2870190400001,-74.6139810779999,354,"1599 WEST SETTLEMENT ROAD, ROXBURY, NY, 12474","Match","Exact","1599 W SETTLEMENT RD, ROXBURY, NY, 12474",41565920,"L"
220855,"15990 NW 12TH LANE","OKEECHOBEE","FL",34972,27.3897044,-80.839849086,355,"15990 NW 12TH LANE, OKEECHOBEE, FL, 34972","Match","Non_Exact","15990 NW 12TH TER, OKEECHOBEE, FL, 34972",4921422,"R"
220856,"15990 S RANCHO SHAUARITA BLVD 150","SAHUARITA","AZ",85629,31.9598297320001,-110.983216229,356,"15990 S RANCHO SHAUARITA BLVD 150, SAHUARITA, AZ, 85629","Match","Non_Exact","15990 S RANCHO SAHUARITA BL, SAHUARITA, AZ, 85629",646165257,"R"
220857,"15991 6TH RD","PLYMOUTH","IN",46563,41.3904847590001,-86.367157315,357,"15991 6TH RD, PLYMOUTH, IN, 46563","Match","Exact","15991 6TH RD, PLYMOUTH, IN, 46563",7639237,"R"
220858,"15991 AVENUE 296","VISALIA","CA",93292,36.3266496140001,-119.22094471,358,"15991 AVENUE 296, VISALIA, CA, 93292","Match","Exact","15991 AVE 296, VISALIA, CA, 93292",650559130,"R"
220859,"15992 MEADOW OAK DRIVE","CHESTERFIELD","MO",63107,38.628507266,-90.571434396,359,"15992 MEADOW OAK DRIVE, CHESTERFIELD, MO, 63107","Match","Non_Exact","15992 MEADOW OAK DR, CHESTERFIELD, MO, 63017",100111011,"L"
220860,"15992 TROWBRIDGE ROAD","CHESTERFIELD","MO",63017,38.614239023,-90.5851085199999,360,"15992 TROWBRIDGE ROAD, CHESTERFIELD, MO, 63017","Match","Exact","15992 TROWBRIDGE RD, CHESTERFIELD, MO, 63017",100110297,"L"
220861,"15992 WINESPRINGS DRIVE","SAN DIEGO","CA",92127,32.9989609030001,-117.106169285,361,"15992 WINESPRINGS DRIVE, SAN DIEGO, CA, 92127","Match","Exact","15992 WINESPRINGS DR, SAN DIEGO, CA, 92127",612898006,"R"
220862,"15993 DEL LA ROSA","NAPLES","FL",34102,NA,NA,362,"15993 DEL LA ROSA, NAPLES, FL, 34102","No_Match",NA,NA,NA,NA
220863,"15993 S 2125 RD","FAIR PLAY","MO",65649,NA,NA,363,"15993 S 2125 RD, FAIR PLAY, MO, 65649","No_Match",NA,NA,NA,NA
220864,"15994 27TH AVENUE","CLEARLAKE","CA",95422,38.9419998020001,-122.61329271,364,"15994 27TH AVENUE, CLEARLAKE, CA, 95422","Match","Exact","15994 27TH AVE, CLEARLAKE, CA, 95422",67080367,"L"
220865,"15994 BLUE SKIES","LIVONIA","MI",48154,42.403058699,-83.4186994999999,365,"15994 BLUE SKIES, LIVONIA, MI, 48154","Match","Non_Exact","15994 BLUE SKIES DR, LIVONIA, MI, 48154",95699775,"R"
220866,"15994 HYLAND POINTE CT","APPLE VALLEY","MN",55124,44.7184276260001,-93.24394445,366,"15994 HYLAND POINTE CT, APPLE VALLEY, MN, 55124","Match","Exact","15994 HYLAND POINTE CT, APPLE VALLEY, MN, 55124",37941786,"R"
220867,"15994 S WOODSON DR","RAMONA","CA",92065,33.013916486,-116.961533166,367,"15994 S WOODSON DR, RAMONA, CA, 92065","Match","Exact","15994 S WOODSON DR, RAMONA, CA, 92065",195751917,"R"
220868,"15995 N BARKERS LANDING STE 307","HOUSTON","TX",77079,NA,NA,368,"15995 N BARKERS LANDING STE 307, HOUSTON, TX, 77079","No_Match",NA,NA,NA,NA
220869,"15995 OAKCREST CIRCLE","BROOKSVILLE","FL",34604,28.501936792,-82.475214595,369,"15995 OAKCREST CIRCLE, BROOKSVILLE, FL, 34604","Match","Exact","15995 OAKCREST CIR, BROOKSVILLE, FL, 34604",85447866,"R"
220870,"15995 SAVORY CIRCLE","PARKER","CO",80134,39.5109300180001,-104.803562387,370,"15995 SAVORY CIRCLE, PARKER, CO, 80134","Match","Exact","15995 SAVORY CIR, PARKER, CO, 80134",640937177,"R"
220871,"15995 SW 196 AVE","MIAMI","FL",33187,25.6206583900001,-80.5074324459999,371,"15995 SW 196 AVE, MIAMI, FL, 33187","Match","Exact","15995 SW 196TH AVE, MIAMI, FL, 33187",116082530,"R"
220872,"15996 E GEDDES DR","AURORA","CO",80016,39.5850673780001,-104.802617323,372,"15996 E GEDDES DR, AURORA, CO, 80016","Match","Exact","15996 E GEDDES DR, AURORA, CO, 80016",617960461,"R"
220873,"15996 NW BRUGGER ROAD","PORTLAND","OR",97229,45.5692379640001,-122.842141439,373,"15996 NW BRUGGER ROAD, PORTLAND, OR, 97229","Match","Exact","15996 NW BRUGGER RD, PORTLAND, OR, 97229",641895512,"L"
220874,"15996 SW 59TH AVENUE ROAD","OCALA","FL",34473,28.989143477,-82.2161246049999,374,"15996 SW 59TH AVENUE ROAD, OCALA, FL, 34473","Match","Exact","15996 SW 59TH AVENUE RD, OCALA, FL, 34473",116773475,"L"
220875,"15997 CR R","PIONEER","OH",43554,NA,NA,375,"15997 CR R, PIONEER, OH, 43554","No_Match",NA,NA,NA,NA
220876,"15997 SE TONG RD","DAMASCUS","OR",97089,45.4068960640001,-122.475472747,376,"15997 SE TONG RD, DAMASCUS, OR, 97089","Match","Exact","15997 SE TONG RD, DAMASCUS, OR, 97089",652660797,"R"
220877,"15998 NECHES","TYLER","TX",75704,32.357138122,-95.434632316,377,"15998 NECHES, TYLER, TX, 75704","Match","Non_Exact","15998 NECHES PKWY, TYLER, TX, 75704",141268128,"L"
220878,"15999 11 MILE RD APT 15","SOUTHFIELD","MI",48076,42.488301424,-83.206775979,378,"15999 11 MILE RD APT 15, SOUTHFIELD, MI, 48076","Match","Non_Exact","15999 W 11 MILE RD, SOUTHFIELD, MI, 48076",69739993,"L"
220879,"15999 MARIES RD 302","VIENNA","MO",65582,38.2346772180001,-91.82873818,379,"15999 MARIES RD 302, VIENNA, MO, 65582","Match","Exact","15999 MARIES ROAD 302, VIENNA, MO, 65582",45286518,"L"
220880,"15999 SIDNEY RD SW","PORT ORCHARD","WA",98367,47.4073158140001,-122.668744817,380,"15999 SIDNEY RD SW, PORT ORCHARD, WA, 98367","Match","Exact","15999 SIDNEY RD SW, PORT ORCHARD, WA, 98367",639423423,"R"
220881,"15999 SW 8TH AVE APT A 105","DELRAY BEACH","FL",33444,26.439790546,-80.081156554,381,"15999 SW 8TH AVE APT A 105, DELRAY BEACH, FL, 33444","Match","Non_Exact","15999 SW 8TH AVE, DELRAY BEACH, FL, 33444",115336416,"L"
220882,"15A BICKNELL STREET","QUINCY","MA",2169,NA,NA,382,"15A BICKNELL STREET, QUINCY, MA, 2169","Tie",NA,NA,NA,NA
220883,"15A COTTAGE ST","NORTHFIELD","NH",3276,NA,NA,383,"15A COTTAGE ST, NORTHFIELD, NH, 3276","Tie",NA,NA,NA,NA
220884,"15A FOLLY MILL TERRACE","SEABROOK","NH",3874,42.881245516,-70.876950774,384,"15A FOLLY MILL TERRACE, SEABROOK, NH, 3874","Match","Exact","15 FOLLY MILL TER, SEABROOK, NH, 03874",113708958,"R"
220885,"15A JACKMAN DRIVE","POUGHKEEPSIE","NY",12603,41.7059634500001,-73.9028782789999,385,"15A JACKMAN DRIVE, POUGHKEEPSIE, NY, 12603","Match","Exact","15 JACKMAN DR, POUGHKEEPSIE, NY, 12603",4178820,"L"
220886,"15A MOTTER DRIVE","PINE GROVE","PA",17963,40.5332534630001,-76.436287809,386,"15A MOTTER DRIVE, PINE GROVE, PA, 17963","Match","Exact","15 MOTTER DR, PINE GROVE, PA, 17963",70976583,"R"
220887,"15A PERKINS GLEN","EASTHAM","MA",2642,41.8058279860001,-69.976204009,387,"15A PERKINS GLEN, EASTHAM, MA, 2642","Match","Exact","15 PERKINS GLEN, EASTHAM, MA, 02642",121668037,"L"
220888,"15A PETERS STREET","STATEN ISLAND","NY",10314,NA,NA,388,"15A PETERS STREET, STATEN ISLAND, NY, 10314","No_Match",NA,NA,NA,NA
220889,"15A SECOND ST APT 8A","FRAMINGHAM","MA",1702,42.279384561,-71.3988629149999,389,"15A SECOND ST APT 8A, FRAMINGHAM, MA, 1702","Match","Exact","15 2ND ST, FRAMINGHAM, MA, 01702",87103066,"R"
220890,"15A SPRINGFIELD RD","OXFORD, UK",NA,NA,NA,NA,390,"15A SPRINGFIELD RD, OXFORD, UK, , ","No_Match",NA,NA,NA,NA
220891,"15B DEBS PL","BRONX","NY",10475,40.876390327,-73.8275129799999,391,"15B DEBS PL, BRONX, NY, 10475","Match","Exact","15 DEBS PL, BRONX, NY, 10475",609844338,"R"
220892,"15B SHARI DRIVE","SEYMORE","CT",6483,NA,NA,392,"15B SHARI DRIVE, SEYMORE, CT, 6483","Tie",NA,NA,NA,NA
220893,"15B WILLIAMS","TAUNTON","MA",2780,NA,NA,393,"15B WILLIAMS, TAUNTON, MA, 2780","Tie",NA,NA,NA,NA
220894,"15C 5100 HIGHBRIDGE STREET","FAYETTEVILLE","NY",13066,NA,NA,394,"15C 5100 HIGHBRIDGE STREET, FAYETTEVILLE, NY, 13066","No_Match",NA,NA,NA,NA
220895,"15D SOUTH COMMONS","LINCOLN","MA",1773,NA,NA,395,"15D SOUTH COMMONS, LINCOLN, MA, 1773","No_Match",NA,NA,NA,NA
220896,"15E 112 PLACE APT 5F","CHICAGO","IL",60628,NA,NA,396,"15E 112 PLACE APT 5F, CHICAGO, IL, 60628","Tie",NA,NA,NA,NA
220897,"15E GREENWAY PLAZA 16 G","HOUSTON","TX",77046,29.7324033130001,-95.4313076889999,397,"15E GREENWAY PLAZA 16 G, HOUSTON, TX, 77046","Match","Non_Exact","15 GREENWAY PLAZA DR, HOUSTON, TX, 77046",96062824,"L"
220898,"15F HICKORY HILL ROAD","WILLIAMSVILLE","NY",14221,42.9955114740001,-78.735410552,398,"15F HICKORY HILL ROAD, WILLIAMSVILLE, NY, 14221","Match","Exact","15 HICKORY HILL RD, WILLIAMSVILLE, NY, 14221",647630798,"R"
220899,"15K ASCENSION DRIVE","ASHEVILLE","NC",28806,35.595190116,-82.609884375,399,"15K ASCENSION DRIVE, ASHEVILLE, NC, 28806","Match","Exact","15 ASCENSION DR, ASHEVILLE, NC, 28806",639345787,"R"
220900,"15L ELWOOD DRIVE","DERRY","NH",3038,42.9290599660001,-71.305342224,400,"15L ELWOOD DRIVE, DERRY, NH, 3038","Match","Non_Exact","15 ELWOOD RD, DERRY, NH, 03038",113709560,"R"
220901,"15N502 PRAIRIE HILL CIR","HAMPSHIRE","IL",60140,42.0891029570001,-88.411649067,401,"15N502 PRAIRIE HILL CIR, HAMPSHIRE, IL, 60140","Match","Exact","15N502 PRAIRIE HILL CIR, HAMPSHIRE, IL, 60140",614093117,"L"
220902,"15O5 WESTHAVEN DRIVE","RALEIGH","NC",27607,NA,NA,402,"15O5 WESTHAVEN DRIVE, RALEIGH, NC, 27607","No_Match",NA,NA,NA,NA
220903,"15R ELWOOD DRIVE","DERRY","NH",3038,42.9290599660001,-71.305342224,403,"15R ELWOOD DRIVE, DERRY, NH, 3038","Match","Non_Exact","15 ELWOOD RD, DERRY, NH, 03038",113709560,"R"
220904,"15RIVER VISTA LANE","DANVILLE","PA",17821,NA,NA,404,"15RIVER VISTA LANE, DANVILLE, PA, 17821","No_Match",NA,NA,NA,NA
220905,"15TH STREET","PANAMA CITY","FL",32401,NA,NA,405,"15TH STREET, PANAMA CITY, FL, 32401","No_Match",NA,NA,NA,NA
220906,"15W 139TH APT 17J","NEW YORK","NY",10037,NA,NA,406,"15W 139TH APT 17J, NEW YORK, NY, 10037","No_Match",NA,NA,NA,NA
220907,"15W210 LEXINGTON STREET","ELMHURST","IL",60126,41.868229926,-87.925244666,407,"15W210 LEXINGTON STREET, ELMHURST, IL, 60126","Match","Exact","15W210 LEXINGTON ST, ELMHURST, IL, 60126",112548922,"R"
220908,"15W310 79TH STREET","BURR RIDGE","IL",60527,NA,NA,408,"15W310 79TH STREET, BURR RIDGE, IL, 60527","Tie",NA,NA,NA,NA
220909,"15W440 63RD ST","BURR RIDGE","IL",60527,NA,NA,409,"15W440 63RD ST, BURR RIDGE, IL, 60527","Tie",NA,NA,NA,NA
220910,"16 1/2 MONROE AVE","SHELBY","OH",44875,40.8780279860001,-82.655713105,410,"16 1/2 MONROE AVE, SHELBY, OH, 44875","Match","Exact","16 MONROE AVE, SHELBY, OH, 44875",12825573,"L"
220911,"16 1/2 WILSON STREET","WEST WARWICK","RI",2893,41.7230272850001,-71.496652279,411,"16 1/2 WILSON STREET, WEST WARWICK, RI, 2893","Match","Exact","16 WILSON ST, WEST WARWICK, RI, 02893",645268805,"L"
220912,"16 1283 MOHO ROAD","KURTISTOWN","HI",96760,NA,NA,412,"16 1283 MOHO ROAD, KURTISTOWN, HI, 96760","No_Match",NA,NA,NA,NA
220913,"16 25TH STREET NW","BARBERTON","OH",44203,41.0083538700001,-81.6314924449999,413,"16 25TH STREET NW, BARBERTON, OH, 44203","Match","Exact","16 25TH ST NW, BARBERTON, OH, 44203",61363261,"L"
220914,"16 2ND AVE SW BOX 473","GWINNER","ND",58040,46.2235536150001,-97.662736115,414,"16 2ND AVE SW BOX 473, GWINNER, ND, 58040","Match","Exact","16 2ND AVE SW, GWINNER, ND, 58040",199544216,"L"
220915,"16 2ND AVENUE APT 6C","NEW YORK","NY",10003,40.724228687,-73.990851107,415,"16 2ND AVENUE APT 6C, NEW YORK, NY, 10003","Match","Exact","16 2ND AVE, NEW YORK, NY, 10003",59664427,"R"
220916,"16 38TH PLACE","LONG BEACH","CA",90803,33.760176186,-118.148442553,416,"16 38TH PLACE, LONG BEACH, CA, 90803","Match","Exact","16 38TH PL, LONG BEACH, CA, 90803",141702026,"L"
220917,"16 3RD AVE E PO BOX 43","NEW LEIPZIG","ND",58562,46.37613035,-101.943901166,417,"16 3RD AVE E PO BOX 43, NEW LEIPZIG, ND, 58562","Match","Exact","16 3RD AVE E, NEW LEIPZIG, ND, 58562",197125227,"L"
220918,"16 6TH AVE NE","DEER RIVER","MN",56636,47.3384697550001,-93.794842423,418,"16 6TH AVE NE, DEER RIVER, MN, 56636","Match","Exact","16 6TH AVE NE, DEER RIVER, MN, 56636",162927333,"L"
220919,"16 A HOOD ROAD","SALEM","AL",36874,32.467997408,-85.21164247,419,"16 A HOOD ROAD, SALEM, AL, 36874","Match","Exact","16 HOOD RD, SALEM, AL, 36874",635511225,"L"
220920,"16 ABERNAKI WAY SUITE 506","WINOOSKI","VT",5404,NA,NA,420,"16 ABERNAKI WAY SUITE 506, WINOOSKI, VT, 5404","No_Match",NA,NA,NA,NA
220921,"16 ACORN LANE NE","CLEVELAND","TN",37312,35.186191207,-84.854935898,421,"16 ACORN LANE NE, CLEVELAND, TN, 37312","Match","Exact","16 ACORN LN NE, CLEVELAND, TN, 37312",57585437,"R"
220922,"16 ADAMS STREET","EDISON","NJ",8820,40.558554186,-74.3575371009999,422,"16 ADAMS STREET, EDISON, NJ, 8820","Match","Exact","16 ADAMS ST, EDISON, NJ, 08820",60272008,"R"
220923,"16 ADAMS WAY","LITTLE CHUTE","WI",54140,44.283838087,-88.3247207219999,423,"16 ADAMS WAY, LITTLE CHUTE, WI, 54140","Match","Exact","16 ADAMS WAY, LITTLE CHUTE, WI, 54140",74888366,"L"
220924,"16 ADMIRAL AVENUE","MANAHAWKIN","NJ",8050,39.7319194500001,-74.293099309,424,"16 ADMIRAL AVENUE, MANAHAWKIN, NJ, 8050","Match","Exact","16 ADMIRAL AVE, MANAHAWKIN, NJ, 08050",203704260,"L"
220925,"16 AINEY ROAD","KINGSLEY","PA",18826,41.74987105,-75.8073248119999,425,"16 AINEY ROAD, KINGSLEY, PA, 18826","Match","Exact","16 AINEY RD, KINGSLEY, PA, 18826",140069659,"R"
220926,"16 ALAMEDA DR","LITTL ROCK","AR",72204,34.726829792,-92.3486739529999,426,"16 ALAMEDA DR, LITTL ROCK, AR, 72204","Match","Non_Exact","16 ALAMEDA DR, LITTLE ROCK, AR, 72204",83505032,"R"
220927,"16 ALANA PLACE","MAKAWAO","HI",96768,20.844794843,-156.319477775,427,"16 ALANA PLACE, MAKAWAO, HI, 96768","Match","Exact","16 ALANA PL, MAKAWAO, HI, 96768",85070143,"R"
220928,"16 ALBA CIRCLE","NEWTON","MA",2458,42.348146543,-71.183415673,428,"16 ALBA CIRCLE, NEWTON, MA, 2458","Match","Exact","16 ALBA CIR, NEWTON, MA, 02458",86865283,"R"
220929,"16 ALBION STREET","HYDE PARK","MA",2136,42.2535221580001,-71.1154284899999,429,"16 ALBION STREET, HYDE PARK, MA, 2136","Match","Exact","16 ALBION ST, HYDE PARK, MA, 02136",85705385,"L"
220930,"16 ALCOA WAY","EDNA BAY","AK",99950,NA,NA,430,"16 ALCOA WAY, EDNA BAY, AK, 99950","No_Match",NA,NA,NA,NA
220931,"16 ALDEN STREET","BELCHERTOWN","MA",1007,42.207858243,-72.3791903539999,431,"16 ALDEN STREET, BELCHERTOWN, MA, 1007","Match","Non_Exact","16 ALDEN AVE, BELCHERTOWN, MA, 01007",39869669,"R"
220932,"16 ALDEN TERRACE","PLYMOUTH","MA",2360,41.96142494,-70.680344292,432,"16 ALDEN TERRACE, PLYMOUTH, MA, 2360","Match","Exact","16 ALDEN TER, PLYMOUTH, MA, 02360",87438132,"L"
220933,"16 ALDER BUSH","ROCHESTER","NY",14624,43.1096206010001,-77.748711207,433,"16 ALDER BUSH, ROCHESTER, NY, 14624","Match","Exact","16 ALDER BUSH, ROCHESTER, NY, 14624",638548021,"R"
220934,"16 ALDRICH AVENUE","AUBURN","NY",13021,42.9156361010001,-76.540817256,434,"16 ALDRICH AVENUE, AUBURN, NY, 13021","Match","Exact","16 ALDRICH AVE, AUBURN, NY, 13021",636409108,"L"
220935,"16 ALEXANDER DR","WASHINGTONVILLE","NY",10992,41.4327439360001,-74.154145507,435,"16 ALEXANDER DR, WASHINGTONVILLE, NY, 10992","Match","Exact","16 ALEXANDER DR, WASHINGTONVILLE, NY, 10992",124456134,"L"
220936,"16 ALEXANDER DRIVE","HAMPTON","VA",23664,37.0552220280001,-76.297805968,436,"16 ALEXANDER DRIVE, HAMPTON, VA, 23664","Match","Exact","16 ALEXANDER DR, HAMPTON, VA, 23664",103760511,"R"
220937,"16 ALGERNON ST","CORNWALL","NY",12518,41.442007007,-74.045204424,437,"16 ALGERNON ST, CORNWALL, NY, 12518","Match","Exact","16 ALGERNON ST, CORNWALL, NY, 12518",124412651,"L"
220938,"16 ALGONQUIN AVENUE","OCEANPORT","NJ",7757,40.322345727,-74.000995726,438,"16 ALGONQUIN AVENUE, OCEANPORT, NJ, 7757","Match","Exact","16 ALGONQUIN AVE, OCEANPORT, NJ, 07757",90460001,"L"
220939,"16 ALGONQUIN WAY","E. FREETOWN","MA",2717,41.745044701,-71.001524279,439,"16 ALGONQUIN WAY, E. FREETOWN, MA, 2717","Match","Exact","16 ALGONQUIN WAY, EAST FREETOWN, MA, 02717",46763901,"R"
220940,"16 ALLEN COURT","RAMSEY","NJ",7446,41.0754971280001,-74.150918723,440,"16 ALLEN COURT, RAMSEY, NJ, 7446","Match","Exact","16 ALLEN CT, RAMSEY, NJ, 07446",64400499,"R"
220941,"16 ALLEN PLACE","POUGHKEEPSIE","NY",12601,41.7059820970001,-73.917805394,441,"16 ALLEN PLACE, POUGHKEEPSIE, NY, 12601","Match","Exact","16 ALLEN PL, POUGHKEEPSIE, NY, 12601",4167882,"L"
220942,"16 ALLEN STREET","RUMSON","NJ",7760,40.3738931460001,-74.011542498,442,"16 ALLEN STREET, RUMSON, NJ, 7760","Match","Exact","16 ALLEN ST, RUMSON, NJ, 07760",90486959,"R"
220943,"16 ALMOND DRIVE","YERINGTON","NV",89447,39.0342132580001,-119.047356613,443,"16 ALMOND DRIVE, YERINGTON, NV, 89447","Match","Exact","16 ALMOND DR, YERINGTON, NV, 89447",140349353,"R"
220944,"16 ALTAMONT CT","MORRISTOWN","NJ",7960,40.7940365150001,-74.474432495,444,"16 ALTAMONT CT, MORRISTOWN, NJ, 7960","Match","Exact","16 ALTAMONT CT, MORRISTOWN, NJ, 07960",60443375,"L"
220945,"16 ALTAMOUNT DRIVE","ORINDA","CA",94563,37.851558546,-122.153659343,445,"16 ALTAMOUNT DRIVE, ORINDA, CA, 94563","Match","Exact","16 ALTAMOUNT DR, ORINDA, CA, 94563",192051099,"R"
220946,"16 AMARYLLIS DR","KEY WEST","FL",33040,24.5784981620001,-81.732649442,446,"16 AMARYLLIS DR, KEY WEST, FL, 33040","Match","Exact","16 AMARYLLIS DR, KEY WEST, FL, 33040",639077587,"L"
220947,"16 AMELIA OLIVE BRANCH ROAD","AMELIA","OH",45102,39.03887912,-84.230738989,447,"16 AMELIA OLIVE BRANCH ROAD, AMELIA, OH, 45102","Match","Exact","16 AMELIA OLIVE BRANCH RD, AMELIA, OH, 45102",653455017,"L"
220948,"16 AMELIA STREET","MONTCLAIR","NJ",7042,40.793834061,-74.2257133479999,448,"16 AMELIA STREET, MONTCLAIR, NJ, 7042","Match","Exact","16 AMELIA ST, MONTCLAIR, NJ, 07042",642387230,"L"
220949,"16 AMERICA ST APT C","CHICOPEE","MA",1013,42.163807793,-72.6204725979999,449,"16 AMERICA ST APT C, CHICOPEE, MA, 1013","Match","Exact","16 AMERICA ST, CHICOPEE, MA, 01013",4021134,"R"
220950,"16 AMHERST LANE","WAPPINGER FALLS","NY",12590,41.5777052180001,-73.940584888,450,"16 AMHERST LANE, WAPPINGER FALLS, NY, 12590","Match","Non_Exact","16 AMHERST LN, WAPPINGERS FALLS, NY, 12590",4161601,"R"
220951,"16 ANDERSON LANE","ROBBINSVILLE","NJ",8691,40.222788908,-74.617896781,451,"16 ANDERSON LANE, ROBBINSVILLE, NJ, 8691","Match","Exact","16 ANDERSON LN, ROBBINSVILLE, NJ, 08691",60206584,"R"
220952,"16 ANDREW WAY","NORTH TRURO","MA",2652,42.0203897820001,-70.069896939,452,"16 ANDREW WAY, NORTH TRURO, MA, 2652","Match","Exact","16 ANDREW WAY, NORTH TRURO, MA, 02652",627242238,"L"
220953,"16 ANN AVE","BATTLE CREEK","MI",49016,42.3309037180001,-85.1909798839999,453,"16 ANN AVE, BATTLE CREEK, MI, 49016","Match","Non_Exact","16 ANN AVE, BATTLE CREEK, MI, 49037",11713740,"R"
220954,"16 ANN DRIVE","ANGUILLA","MS",38721,32.9790631720001,-90.8292999929999,454,"16 ANN DRIVE, ANGUILLA, MS, 38721","Match","Exact","16 ANN DR, ANGUILLA, MS, 38721",89661891,"R"
220955,"16 ANNIE DRIVE","MATAWAN","NJ",7747,40.4232661570001,-74.285518574,455,"16 ANNIE DRIVE, MATAWAN, NJ, 7747","Match","Exact","16 ANNIE DR, MATAWAN, NJ, 07747",60303489,"R"
220956,"16 ANNIE J CIRCLE","MILFORD","MA",1757,42.157955805,-71.5445084739999,456,"16 ANNIE J CIRCLE, MILFORD, MA, 1757","Match","Exact","16 ANNIE J CIR, MILFORD, MA, 01757",40038036,"L"
220957,"16 ANTRIM ROAD","PEABODY","MA",1960,42.54704092,-71.011346365,457,"16 ANTRIM ROAD, PEABODY, MA, 1960","Match","Exact","16 ANTRIM RD, PEABODY, MA, 01960",86659240,"L"
220958,"16 APPLETREE CT","SOUTH BURLINGTON","VT",5403,44.4544140410001,-73.20684547,458,"16 APPLETREE CT, SOUTH BURLINGTON, VT, 5403","Match","Non_Exact","16 APPLE TREE CT, S BURLINGTON, VT, 05403",135841833,"L"
220959,"16 APRICOT ROAD","MENDELSON","NY",11766,40.9427219950001,-73.015807481,459,"16 APRICOT ROAD, MENDELSON, NY, 11766","Match","Non_Exact","16 APRICOT RD, MOUNT SINAI, NY, 11766",114236908,"L"
220960,"16 APRICOT ROAD","MOUNT SINAI","NY",11766,40.9427219950001,-73.015807481,460,"16 APRICOT ROAD, MOUNT SINAI, NY, 11766","Match","Exact","16 APRICOT RD, MOUNT SINAI, NY, 11766",114236908,"L"
220961,"16 ARBOR ROAD","SOUTH BURLINGTON","VT",5403,44.4715386,-73.1732328049999,461,"16 ARBOR ROAD, SOUTH BURLINGTON, VT, 5403","Match","Exact","16 ARBOR RD, S BURLINGTON, VT, 05403",135842373,"L"
220962,"16 ARDMORE STREET","BRAINTREE","MA",2184,42.22776364,-70.9680154709999,462,"16 ARDMORE STREET, BRAINTREE, MA, 2184","Match","Exact","16 ARDMORE ST, BRAINTREE, MA, 02184",87251374,"L"
220963,"16 ARGONNE CT","TEANECK","NJ",7666,40.899132256,-73.998764213,463,"16 ARGONNE CT, TEANECK, NJ, 7666","Match","Exact","16 ARGONNE CT, TEANECK, NJ, 07666",64372636,"R"
220964,"16 ARGYLE DRIVE","SHIRLEY","NY",11967,40.7512522160001,-72.880909075,464,"16 ARGYLE DRIVE, SHIRLEY, NY, 11967","Match","Exact","16 ARGYLE DR, SHIRLEY, NY, 11967",114023436,"L"
220965,"16 ARLENE DR","TUCKERTON","NJ",8087,39.620034548,-74.3832178869999,465,"16 ARLENE DR, TUCKERTON, NJ, 8087","Match","Exact","16 ARLENE DR, TUCKERTON, NJ, 08087",203709846,"L"
220966,"16 ARLINGTON CT","CHARLESTON","WV",25301,38.345895786,-81.629348119,466,"16 ARLINGTON CT, CHARLESTON, WV, 25301","Match","Exact","16 ARLINGTON CT, CHARLESTON, WV, 25301",78593624,"L"
220967,"16 ARNOLD PARK","ROCHESTER","NY",14607,43.153382746,-77.589750285,467,"16 ARNOLD PARK, ROCHESTER, NY, 14607","Match","Exact","16 ARNOLD PARK, ROCHESTER, NY, 14607",14540822,"R"
220968,"16 ARNOLD PLACE","NEW BEDFORD","MA",2740,41.63220978,-70.931958467,468,"16 ARNOLD PLACE, NEW BEDFORD, MA, 2740","Match","Exact","16 ARNOLD PL, NEW BEDFORD, MA, 02740",46753312,"R"
220969,"16 ARROWOOD DRIVE","BRIDGEPORT","WV",26330,39.3018616680001,-80.2733294769999,469,"16 ARROWOOD DRIVE, BRIDGEPORT, WV, 26330","Match","Exact","16 ARROWOOD DR, BRIDGEPORT, WV, 26330",53325642,"R"
220970,"16 ARTHUR AVENUE APT 2","CORTLAND","NY",13045,42.6056750540001,-76.182469302,470,"16 ARTHUR AVENUE APT 2, CORTLAND, NY, 13045","Match","Exact","16 ARTHUR AVE, CORTLAND, NY, 13045",45805363,"R"
220971,"16 ARTHUR ROAD","BRYN MAWR","PA",19010,40.025746919,-75.328708722,471,"16 ARTHUR ROAD, BRYN MAWR, PA, 19010","Match","Exact","16 ARTHUR RD, BRYN MAWR, PA, 19010",134906749,"L"
220972,"16 ASH ROAD","BRIARCLIFF MANOR","NY",10510,41.1447592150001,-73.8212595109999,472,"16 ASH ROAD, BRIARCLIFF MANOR, NY, 10510","Match","Exact","16 ASH RD, BRIARCLIFF MANOR, NY, 10510",139734576,"L"
220973,"16 ASHBOURNE RD","DARBY","PA",19023,39.920385482,-75.2703647709999,473,"16 ASHBOURNE RD, DARBY, PA, 19023","Match","Exact","16 ASHBOURNE RD, DARBY, PA, 19023",134884833,"R"
220974,"16 ASHFIELD LANE","BLYTHEWOOD","SC",29229,34.177865395,-80.913634569,474,"16 ASHFIELD LANE, BLYTHEWOOD, SC, 29229","Match","Non_Exact","16 ASHFIELD LN, BLYTHEWOOD, SC, 29016",71850258,"R"
220975,"16 ASHFORD DRIVE","AVON","CT",6001,41.7712896560001,-72.883738319,475,"16 ASHFORD DRIVE, AVON, CT, 6001","Match","Exact","16 ASHFORD DR, AVON, CT, 06001",3526959,"R"
220976,"16 ASHKIRK PL","NEWARK","DE",19702,39.61508675,-75.7045612759999,476,"16 ASHKIRK PL, NEWARK, DE, 19702","Match","Exact","16 ASHKIRK PL, NEWARK, DE, 19702",187292661,"L"
220977,"16 ASHLAND DRIVE","CHARLESTON","SC",29407,32.8005668550001,-79.999012541,477,"16 ASHLAND DRIVE, CHARLESTON, SC, 29407","Match","Exact","16 ASHLAND DR, CHARLESTON, SC, 29407",108803624,"R"
220978,"16 AUBURN STREET","FRAMINGHAM","MA",1701,NA,NA,478,"16 AUBURN STREET, FRAMINGHAM, MA, 1701","No_Match",NA,NA,NA,NA
220979,"16 AUTUMN COURT","NORTHFORD","CT",6472,41.360964305,-72.813776069,479,"16 AUTUMN COURT, NORTHFORD, CT, 6472","Match","Exact","16 AUTUMN CT, NORTHFORD, CT, 06472",624038809,"L"
220980,"16 AUTUMN GLEN CIRCLE","NASHUA","NH",3062,42.7187397380001,-71.502091633,480,"16 AUTUMN GLEN CIRCLE, NASHUA, NH, 3062","Match","Exact","16 AUTUMN GLEN CIR, NASHUA, NH, 03062",113585481,"L"
220981,"16 AVALON WOODS COURT","CAPE MAY COURT HOUSE","NJ",8210,39.1268482030001,-74.785334307,481,"16 AVALON WOODS COURT, CAPE MAY COURT HOUSE, NJ, 8210","Match","Exact","16 AVALON WOODS CT, CAPE MAY COURT HOUSE, NJ, 08210",174350831,"R"
220982,"16 AVON PLACE","ATHENS","OH",45701,39.338903741,-82.0747468499999,482,"16 AVON PLACE, ATHENS, OH, 45701","Match","Exact","16 AVON PL, ATHENS, OH, 45701",37098131,"L"
220983,"16 AVON STREET APT 1","LAWRENCE","MA",1841,42.714776812,-71.157232603,483,"16 AVON STREET APT 1, LAWRENCE, MA, 1841","Match","Exact","16 AVON ST, LAWRENCE, MA, 01841",86627256,"L"
220984,"16 AYE COURT","STATEN ISLAND","NY",10314,40.619602527,-74.167773492,484,"16 AYE COURT, STATEN ISLAND, NY, 10314","Match","Exact","16 AYE CT, STATEN ISLAND, NY, 10314",59870897,"R"
220985,"16 AZALEA DRIVE","SICKLERVILLE","NJ",8081,39.7347983770001,-75.014070304,485,"16 AZALEA DRIVE, SICKLERVILLE, NJ, 8081","Match","Exact","16 AZALEA DR, SICKLERVILLE, NJ, 08081",134423751,"L"
220986,"16 B LADSON STREET","GREENVILLE","SC",29605,34.83306457,-82.4085016879999,486,"16 B LADSON STREET, GREENVILLE, SC, 29605","Match","Exact","16 LADSON ST, GREENVILLE, SC, 29605",38300586,"R"
220987,"16 B MARINA ISLES BLVD","INDIAN HARBOUR BCH","FL",32937,28.1511907460001,-80.6051326419999,487,"16 B MARINA ISLES BLVD, INDIAN HARBOUR BCH, FL, 32937","Match","Exact","16 MARINA ISLES BLVD, INDIAN HARBOUR BEACH, FL, 32937",93921799,"L"
220988,"16 BAILEY DRIVE","MASSAPEQUA","NY",11758,40.697581176,-73.430571141,488,"16 BAILEY DRIVE, MASSAPEQUA, NY, 11758","Match","Exact","16 BAILEY DR, MASSAPEQUA, NY, 11758",147652763,"R"
220989,"16 BAILEY ROAD","KINGSTON 7",NA,NA,NA,NA,489,"16 BAILEY ROAD, KINGSTON 7, , ","No_Match",NA,NA,NA,NA
220990,"16 BAKER STREET","MOHEGAN LAKE","NY",10547,41.314787729,-73.8659864919999,490,"16 BAKER STREET, MOHEGAN LAKE, NY, 10547","Match","Exact","16 BAKER ST, MOHEGAN LAKE, NY, 10547",139768066,"R"
220991,"16 BALLOU RD","HOPEDALE","MA",1747,42.1236738370001,-71.550797045,491,"16 BALLOU RD, HOPEDALE, MA, 1747","Match","Exact","16 BALLOU RD, HOPEDALE, MA, 01747",636964604,"R"
220992,"16 BALTUSROL CT","COLUMBIA","SC",29223,34.0898516890001,-80.890867811,492,"16 BALTUSROL CT, COLUMBIA, SC, 29223","Match","Exact","16 BALTUSROL CT, COLUMBIA, SC, 29223",71860671,"R"
220993,"16 BANK STREET","NEW YORK","NY",10014,40.737044672,-74.002257964,493,"16 BANK STREET, NEW YORK, NY, 10014","Match","Exact","16 BANK ST, NEW YORK, NY, 10014",59659964,"L"
220994,"16 BAR D DRIVE","PALM DESERT","CA",92260,33.6860159280001,-116.405913656,494,"16 BAR D DRIVE, PALM DESERT, CA, 92260","Match","Exact","16 BAR D DR, PALM DESERT, CA, 92260",194771655,"R"
220995,"16 BARBARA ROAD","DANVERS","MA",1923,42.570348848,-70.925089035,495,"16 BARBARA ROAD, DANVERS, MA, 1923","Match","Exact","16 BARBARA RD, DANVERS, MA, 01923",86639663,"L"
220996,"16 BAREFOOT LANE","PALMYRA","VA",22963,37.9069745530001,-78.3058741309999,496,"16 BAREFOOT LANE, PALMYRA, VA, 22963","Match","Exact","16 BAREFOOT LN, PALMYRA, VA, 22963",73778354,"L"
220997,"16 BARLEY CIRCLE","BLOOMINGTON","IL",61704,40.4598750120001,-88.9448235409999,497,"16 BARLEY CIRCLE, BLOOMINGTON, IL, 61704","Match","Exact","16 BARLEY CIR, BLOOMINGTON, IL, 61704",20576414,"L"
220998,"16 BARLEY LN","SCARBOROUGH","ME",4074,43.620381922,-70.394091933,498,"16 BARLEY LN, SCARBOROUGH, ME, 4074","Match","Exact","16 BARLEY LN, SCARBOROUGH, ME, 04074",78072582,"L"
220999,"16 BARNARD DRIVE","SIMSBURY","CT",6070,41.8938490240001,-72.790102552,499,"16 BARNARD DRIVE, SIMSBURY, CT, 6070","Match","Exact","16 BARNARD DR, SIMSBURY, CT, 06070",3478948,"R"
221000,"16 BARNETT HILL RD","ALSTEAD","NH",3602,NA,NA,500,"16 BARNETT HILL RD, ALSTEAD, NH, 3602","No_Match",NA,NA,NA,NA
