"ID","Address","City","State","Zip","lat","long","id","input_address","match_indicator","match_type","matched_address","tiger_line_id","tiger_side"
273501,"18231 DELAWARE","REDFORD","MI",48240,42.421240481,-83.306507906,1,"18231 DELAWARE, REDFORD, MI, 48240","Match","Exact","18231 DELAWARE, REDFORD, MI, 48240",633516581,"L"
273502,"18231 EAST MAIN STREET","GALLIANO","LA",70354,29.428192068,-90.294216878,2,"18231 EAST MAIN STREET, GALLIANO, LA, 70354","Match","Exact","18231 E MAIN ST, GALLIANO, LA, 70354",92319323,"R"
273503,"18231 GERANIUM DR","BROWNSTOWN","MI",48173,42.0749383840001,-83.222351679,3,"18231 GERANIUM DR, BROWNSTOWN, MI, 48173","Match","Exact","18231 GERANIUM DR, BROWNSTOWN, MI, 48173",95691655,"L"
273504,"18231 INDIANA AVE","DETROIT","MI",48221,42.42457133,-83.1585686829999,4,"18231 INDIANA AVE, DETROIT, MI, 48221","Match","Exact","18231 INDIANA AVE, DETROIT, MI, 48221",95425515,"L"
273505,"18231 MARCELLA ROAD","CLEVELAND","OH",44119,41.5825039580001,-81.552025454,5,"18231 MARCELLA ROAD, CLEVELAND, OH, 44119","Match","Exact","18231 MARCELLA RD, CLEVELAND, OH, 44119",61107952,"L"
273506,"18232 COULTER PARKWAY","CORNELIUS","NC",28031,35.4614516180001,-80.8353635939999,6,"18232 COULTER PARKWAY, CORNELIUS, NC, 28031","Match","Exact","18232 COULTER PKWY, CORNELIUS, NC, 28031",631222997,"R"
273507,"18232 ERWIN STREET","TARZANA","CA",91335,34.183874706,-118.530568299,7,"18232 ERWIN STREET, TARZANA, CA, 91335","Match","Exact","18232 ERWIN ST, TARZANA, CA, 91335",642869973,"L"
273508,"18232 NW 27TH AVE  STE 221","MIAMI GARDENS","FL",33056,25.9401557950001,-80.245283147,8,"18232 NW 27TH AVE  STE 221, MIAMI GARDENS, FL, 33056","Match","Non_Exact","18232 NW 27TH AVE, MIAMI GARDENS, FL, 33056",639263032,"L"
273509,"18232 ROOSEVELT STREET NW","ELK RIVER","MN",55330,45.3015282000001,-93.538716374,9,"18232 ROOSEVELT STREET NW, ELK RIVER, MN, 55330","Match","Exact","18232 ROOSEVELT ST NW, ELK RIVER, MN, 55330",636241012,"R"
273510,"18232 WESTOVER DRIVE","SOUTH BEND","IN",46637,41.7308828800001,-86.221732587,10,"18232 WESTOVER DRIVE, SOUTH BEND, IN, 46637","Match","Exact","18232 WESTOVER DR, SOUTH BEND, IN, 46637",8053410,"L"
273511,"18233 BIRCHCREST","DETROIT","MI",48221,42.4248889080001,-83.1369844829999,11,"18233 BIRCHCREST, DETROIT, MI, 48221","Match","Non_Exact","18233 BIRCHCREST DR, DETROIT, MI, 48221",95461006,"L"
273512,"18233 BOB WHITE ROAD","WINDSOR","VA",23487,36.889073334,-76.673324216,12,"18233 BOB WHITE ROAD, WINDSOR, VA, 23487","Match","Exact","18233 BOB WHITE RD, WINDSOR, VA, 23487",198631829,"R"
273513,"18233 ROSE ST","GROVELAND","FL",34736,28.6120497680001,-81.845400048,13,"18233 ROSE ST, GROVELAND, FL, 34736","Match","Exact","18233 ROSE ST, GROVELAND, FL, 34736",94104845,"R"
273514,"18234 CAMINIO DEL MAR","SAN ANTONIO","TX",78257,NA,NA,14,"18234 CAMINIO DEL MAR, SAN ANTONIO, TX, 78257","No_Match",NA,NA,NA,NA
273515,"18234 CAMINO DEL MAR","SAN ANTONIO","TX",78257,NA,NA,15,"18234 CAMINO DEL MAR, SAN ANTONIO, TX, 78257","No_Match",NA,NA,NA,NA
273516,"18234 COYLE ST","DETROIT","MI",48235,42.4237200330001,-83.194734813,16,"18234 COYLE ST, DETROIT, MI, 48235","Match","Exact","18234 COYLE ST, DETROIT, MI, 48235",95424149,"R"
273517,"18234 COYLE","DETROIT","MI",48235,42.4237200330001,-83.194734813,17,"18234 COYLE, DETROIT, MI, 48235","Match","Non_Exact","18234 COYLE ST, DETROIT, MI, 48235",95424149,"R"
273518,"18234 E WILLOW OAK BEND DR","CYPRESS","TX",77433,29.949067584,-95.725873593,18,"18234 E WILLOW OAK BEND DR, CYPRESS, TX, 77433","Match","Exact","18234 E WILLOW OAK BEND DR, CYPRESS, TX, 77433",628046753,"R"
273519,"18234","SAN ANTONIO","TX",78257,NA,NA,19,"18234, SAN ANTONIO, TX, 78257","No_Match",NA,NA,NA,NA
273520,"18235 BURTON DRIVE","SOUTH BEND","IN",46637,41.7404122500001,-86.221505286,20,"18235 BURTON DRIVE, SOUTH BEND, IN, 46637","Match","Exact","18235 BURTON DR, SOUTH BEND, IN, 46637",8070281,"L"
273521,"18235 FREMONT AVE N","SHORELINE","WA",98133,47.761206042,-122.351185276,21,"18235 FREMONT AVE N, SHORELINE, WA, 98133","Match","Exact","18235 FREMONT AVE N, SHORELINE, WA, 98133",186573709,"L"
273522,"18235 NORTH 39TH DRIVE","GLENDALE","AZ",85308,33.6521793520001,-112.144580545,22,"18235 NORTH 39TH DRIVE, GLENDALE, AZ, 85308","Match","Exact","18235 N 39TH DR, GLENDALE, AZ, 85308",128420284,"R"
273523,"18235 NORTH 85TH DRIVE","PEORIA","AZ",85382,33.649726597,-112.242543875,23,"18235 NORTH 85TH DRIVE, PEORIA, AZ, 85382","Match","Exact","18235 N 85TH DR, PEORIA, AZ, 85382",128383861,"L"
273524,"18235 OLETA DRIVE","NORTH MIAMI BEACH","FL",33160,25.9440441400001,-80.151229234,24,"18235 OLETA DRIVE, NORTH MIAMI BEACH, FL, 33160","Match","Exact","18235 OLETA DR, N MIAMI BEACH, FL, 33160",116036619,"R"
273525,"18235 SHERMANWAY","RESEDA","CA",91335,NA,NA,25,"18235 SHERMANWAY, RESEDA, CA, 91335","No_Match",NA,NA,NA,NA
273526,"18235 SW DIVISION STREET","BEAVERTON","OR",97078,45.4808447340001,-122.864593179,26,"18235 SW DIVISION STREET, BEAVERTON, OR, 97078","Match","Exact","18235 SW DIVISION ST, BEAVERTON, OR, 97078",158183520,"R"
273527,"18235 WOODGATE ROAD","MONTROSE","CO",81401,38.4200904310001,-107.854061538,27,"18235 WOODGATE ROAD, MONTROSE, CO, 81401","Match","Non_Exact","18235 WOODGATE RD, MONTROSE, CO, 81403",634852731,"L"
273528,"18236 JAMES MADISON HIGHWAY","GORDONSVILLE","VA",22942,38.1572668900001,-78.170216093,28,"18236 JAMES MADISON HIGHWAY, GORDONSVILLE, VA, 22942","Match","Exact","18236 JAMES MADISON HWY, GORDONSVILLE, VA, 22942",29885527,"L"
273529,"18236 THAYER ST","BENNINGTON","NE",68007,41.3530130890001,-96.202236886,29,"18236 THAYER ST, BENNINGTON, NE, 68007","Match","Exact","18236 THAYER ST, BENNINGTON, NE, 68007",624442030,"L"
273530,"18237 HANK STREET","MEADVILLE","PA",16335,NA,NA,30,"18237 HANK STREET, MEADVILLE, PA, 16335","No_Match",NA,NA,NA,NA
273531,"18237 NW 40TH CT","MIAMI GARDENS","FL",33055,25.9395381090001,-80.266923434,31,"18237 NW 40TH CT, MIAMI GARDENS, FL, 33055","Match","Exact","18237 NW 40TH CT, MIAMI GARDENS, FL, 33055",116044254,"R"
273532,"18238 131ST CT NE","BOTHELL","WA",98011,47.7601102200001,-122.164262227,32,"18238 131ST CT NE, BOTHELL, WA, 98011","Match","Exact","18238 131ST CT NE, BOTHELL, WA, 98011",186599796,"R"
273533,"18238 AIDA COURT","HOME WOOD","IL",60430,41.5578917170001,-87.683963062,33,"18238 AIDA COURT, HOME WOOD, IL, 60430","Match","Non_Exact","18238 AIDA CT, HOMEWOOD, IL, 60430",605672097,"R"
273534,"18238 BEAVERDELL DR","TOMBALL","TX",77377,30.029396263,-95.61183528,34,"18238 BEAVERDELL DR, TOMBALL, TX, 77377","Match","Exact","18238 BEAVERDELL DR, TOMBALL, TX, 77377",96002708,"R"
273535,"18238 KENNA DRIVE","CLINTON TWSHP","MI",48035,42.5589311040001,-82.934563748,35,"18238 KENNA DRIVE, CLINTON TWSHP, MI, 48035","Match","Exact","18238 KENNA DR, CLINTON TOWNSHIP, MI, 48035",110725202,"R"
273536,"18238 SPRING COURT S","FRASER","MI",48026,42.525310135,-82.932456069,36,"18238 SPRING COURT S, FRASER, MI, 48026","Match","Exact","18238 SPRING CT S, FRASER, MI, 48026",110699442,"R"
273537,"18238 SW 3 ST","PEMBROKE PINES","FL",33029,26.003745381,-80.388465786,37,"18238 SW 3 ST, PEMBROKE PINES, FL, 33029","Match","Exact","18238 SW 3RD ST, PEMBROKE PINES, FL, 33029",114771476,"R"
273538,"18238 YOSEMITE RD","TUOLUMNE","CA",95379,NA,NA,38,"18238 YOSEMITE RD, TUOLUMNE, CA, 95379","No_Match",NA,NA,NA,NA
273539,"18239 DENBY","REDFORD","MI",48240,42.421228351,-83.3100555939999,39,"18239 DENBY, REDFORD, MI, 48240","Match","Exact","18239 DENBY, REDFORD, MI, 48240",95418957,"L"
273540,"18239 INGOMAR STREET","RESEDA","CA",91335,34.212028902,-118.530510553,40,"18239 INGOMAR STREET, RESEDA, CA, 91335","Match","Exact","18239 INGOMAR ST, RESEDA, CA, 91335",640425422,"R"
273541,"18239 PALADIN DRIVE","OLNEY","DC",20832,NA,NA,41,"18239 PALADIN DRIVE, OLNEY, DC, 20832","No_Match",NA,NA,NA,NA
273542,"18239 SILVER TIMBER CT","KATY","TX",77449,29.866624229,-95.686854508,42,"18239 SILVER TIMBER CT, KATY, TX, 77449","Match","Exact","18239 SILVER TIMBER CT, KATY, TX, 77449",624621511,"R"
273543,"18239 W 85TH DR","ARVADA","CO",80007,39.851988099,-105.206865813,43,"18239 W 85TH DR, ARVADA, CO, 80007","Match","Exact","18239 W 85TH DR, ARVADA, CO, 80007",645234893,"R"
273544,"1824 - 169TH AVE NE","BELLEVUE","WA",98008,NA,NA,44,"1824 - 169TH AVE NE, BELLEVUE, WA, 98008","No_Match",NA,NA,NA,NA
273545,"1824 126TH AVE","HOPKINS","MI",49328,42.609354189,-85.7238932819999,45,"1824 126TH AVE, HOPKINS, MI, 49328","Match","Exact","1824 126TH AVE, HOPKINS, MI, 49328",11420150,"L"
273546,"1824 16TH STREET APT 7","SANTA MONICA","CA",90404,34.0196179610001,-118.476789744,46,"1824 16TH STREET APT 7, SANTA MONICA, CA, 90404","Match","Exact","1824 16TH ST, SANTA MONICA, CA, 90404",141568662,"R"
273547,"1824 320TH ST","IVANHOE","MN",56142,44.5181040420001,-96.298566656,47,"1824 320TH ST, IVANHOE, MN, 56142","Match","Exact","1824 320TH ST, IVANHOE, MN, 56142",43969700,"L"
273548,"1824 6TH STREET NW","BIRMINGHAM","AL",35215,33.6372306310001,-86.700819285,48,"1824 6TH STREET NW, BIRMINGHAM, AL, 35215","Match","Exact","1824 6TH ST NW, BIRMINGHAM, AL, 35215",81567470,"L"
273549,"1824 7TH ST NE","WATERTOWN","SD",57201,44.9239323560001,-97.101145608,49,"1824 7TH ST NE, WATERTOWN, SD, 57201","Match","Exact","1824 7TH ST NE, WATERTOWN, SD, 57201",200744767,"R"
273550,"1824 7TH STREET","BEAVER FALLS","PA",15010,40.747837497,-80.332262198,50,"1824 7TH STREET, BEAVER FALLS, PA, 15010","Match","Exact","1824 7TH ST, BEAVER FALLS, PA, 15010",614399846,"R"
273551,"1824 ABSHIRE LANE","DALLAS","TX",75228,32.810400191,-96.683143883,51,"1824 ABSHIRE LANE, DALLAS, TX, 75228","Match","Exact","1824 ABSHIRE LN, DALLAS, TX, 75228",102924673,"R"
273552,"1824 ANDREW FARMS ROAD","WHITSETT","NC",27377,36.0453990140001,-79.629937462,52,"1824 ANDREW FARMS ROAD, WHITSETT, NC, 27377","Match","Exact","1824 ANDREW FARMS RD, WHITSETT, NC, 27377",131106019,"L"
273553,"1824 AUBURN AVENUE","NAPERVILLE","IL",60565,41.7389307460001,-88.0916810369999,53,"1824 AUBURN AVENUE, NAPERVILLE, IL, 60565","Match","Exact","1824 AUBURN AVE, NAPERVILLE, IL, 60565",112582240,"R"
273554,"1824 BALDWIN ROAD","JACKSONVILLE","IL",62650,39.7670037,-90.2603606009999,54,"1824 BALDWIN ROAD, JACKSONVILLE, IL, 62650","Match","Exact","1824 BALDWIN RD, JACKSONVILLE, IL, 62650",81439063,"L"
273555,"1824 BARONNE STREET APT 6","NEW ORLEANS","LA",70113,29.937979866,-90.079869103,55,"1824 BARONNE STREET APT 6, NEW ORLEANS, LA, 70113","Match","Exact","1824 BARONNE ST, NEW ORLEANS, LA, 70113",191714063,"L"
273556,"1824 BENSON AVENUE 1ST FL","BROOKLYN,","NY",11214,40.604569553,-74.004005809,56,"1824 BENSON AVENUE 1ST FL, BROOKLYN,, NY, 11214","Match","Exact","1824 BENSON AVE, BROOKLYN, NY, 11214",59088164,"R"
273557,"1824 BENTON RD","BOSSIER CITY","LA",71111,32.537018372,-93.721028556,57,"1824 BENTON RD, BOSSIER CITY, LA, 71111","Match","Exact","1824 BENTON RD, BOSSIER CITY, LA, 71111",108508317,"R"
273558,"1824 BLECK ROAD","VIRGIL","NY",13045,42.496430187,-76.175592099,58,"1824 BLECK ROAD, VIRGIL, NY, 13045","Match","Non_Exact","1824 BLECK RD, CORTLAND, NY, 13045",45817271,"R"
273559,"1824 BRONSON HILL ROAD","AVON","NY",14414,42.902509278,-77.6828249559999,59,"1824 BRONSON HILL ROAD, AVON, NY, 14414","Match","Exact","1824 BRONSON HILL RD, AVON, NY, 14414",14460374,"L"
273560,"1824 BURLEY LANE","ANNAPOLIS","MD",21409,39.003518216,-76.4483177499999,60,"1824 BURLEY LANE, ANNAPOLIS, MD, 21409","Match","Exact","1824 BURLEY LN, ANNAPOLIS, MD, 21409",68176240,"R"
273561,"1824 CALIFORNIA AVE","MODESTO","CA",5358,NA,NA,61,"1824 CALIFORNIA AVE, MODESTO, CA, 5358","No_Match",NA,NA,NA,NA
273562,"1824 CALIFORNIA AVE","MODESTO","CA",95358,37.631329916,-121.035790957,62,"1824 CALIFORNIA AVE, MODESTO, CA, 95358","Match","Exact","1824 CALIFORNIA AVE, MODESTO, CA, 95358",651605950,"L"
273563,"1824 CANDY LANE","CHESAPEAKE","VA",23321,36.8075876070001,-76.4157612019999,63,"1824 CANDY LANE, CHESAPEAKE, VA, 23321","Match","Exact","1824 CANDY LN, CHESAPEAKE, VA, 23321",121777545,"L"
273564,"1824 CANFIELD ROAD","PARK RIDGE","IL",60607,41.9875073800001,-87.822929125,64,"1824 CANFIELD ROAD, PARK RIDGE, IL, 60607","Match","Non_Exact","1824 CANFIELD RD, PARK RIDGE, IL, 60068",616887144,"L"
273565,"1824 CANON YEOMANS TRL","AUSTIN","TX",78748,30.159138919,-97.83226777,65,"1824 CANON YEOMANS TRL, AUSTIN, TX, 78748","Match","Exact","1824 CANON YEOMANS TRL, AUSTIN, TX, 78748",63999314,"L"
273566,"1824 CEDAR CREST DR","BIRMINGHAM","AL",35214,NA,NA,66,"1824 CEDAR CREST DR, BIRMINGHAM, AL, 35214","Tie",NA,NA,NA,NA
273567,"1824 CEDAR TREE DR","FORT WORTH","TX",76131,32.864548348,-97.3371643199999,67,"1824 CEDAR TREE DR, FORT WORTH, TX, 76131","Match","Exact","1824 CEDAR TREE DR, FORT WORTH, TX, 76131",101929750,"L"
273568,"1824 CHAISE DRIVE","CARSON CITY","NV",89703,39.17746219,-119.778259578,68,"1824 CHAISE DRIVE, CARSON CITY, NV, 89703","Match","Exact","1824 CHAISE DR, CARSON CITY, NV, 89703",199516896,"R"
273569,"1824 CHRISTOPHER DRIVE","CONYERS","GA",30094,33.617582262,-84.017206156,69,"1824 CHRISTOPHER DRIVE, CONYERS, GA, 30094","Match","Non_Exact","1824 CHRISTOPHER DR SE, CONYERS, GA, 30094",619876583,"R"
273570,"1824 CIRCLE B ROAD","PASO ROBLES","CA",93446,35.6554257330001,-120.660125871,70,"1824 CIRCLE B ROAD, PASO ROBLES, CA, 93446","Match","Exact","1824 CIRCLE B RD, PASO ROBLES, CA, 93446",109898357,"L"
273571,"1824 CLORINDI CIR NW","GIG HARBOR","WA",98335,47.2764637290001,-122.565774504,71,"1824 CLORINDI CIR NW, GIG HARBOR, WA, 98335","Match","Exact","1824 CLORINDI CIR NW, GIG HARBOR, WA, 98335",184760792,"L"
273572,"1824 COBB","KANKAKEE","IL",60901,41.1030123530001,-87.844872526,72,"1824 COBB, KANKAKEE, IL, 60901","Match","Non_Exact","1824 COBB BLVD, KANKAKEE, IL, 60901",639610485,"R"
273573,"1824 COLFAX ST","BLAIR","NE",68008,41.5407349160001,-96.1398910409999,73,"1824 COLFAX ST, BLAIR, NE, 68008","Match","Exact","1824 COLFAX ST, BLAIR, NE, 68008",176760972,"L"
273574,"1824 COMMANCHE TRAIL","LAKELAND","FL",33803,28.021489312,-81.958553084,74,"1824 COMMANCHE TRAIL, LAKELAND, FL, 33803","Match","Non_Exact","1824 COMANCHE TRL, LAKELAND, FL, 33803",104810978,"L"
273575,"1824 COTTON TREE COURT","FT. WALTON BEAH","FL",32547,30.448277809,-86.641326068,75,"1824 COTTON TREE COURT, FT. WALTON BEAH, FL, 32547","Match","Non_Exact","1824 COTTON TREE CT, FORT WALTON BEACH, FL, 32547",74447338,"R"
273576,"1824 CR700","CLEBURNE","TX",76031,32.3886881130001,-97.3511045989999,76,"1824 CR700, CLEBURNE, TX, 76031","Match","Exact","1824 CO RD 700, CLEBURNE, TX, 76031",640012722,"L"
273577,"1824 CRYSTAL","BENTON HARBOR","MI",49022,42.0965325280001,-86.414436215,77,"1824 CRYSTAL, BENTON HARBOR, MI, 49022","Match","Non_Exact","1824 CRYSTAL CT, BENTON HARBOR, MI, 49022",120002536,"R"
273578,"1824 D ST","ANTIOCH","CA",94509,38.004795798,-121.810025591,78,"1824 D ST, ANTIOCH, CA, 94509","Match","Exact","1824 D ST, ANTIOCH, CA, 94509",192032485,"R"
273579,"1824 DEERHAVEN LN NE 2","ROCHESTER","MN",55906,44.057348545,-92.440475447,79,"1824 DEERHAVEN LN NE 2, ROCHESTER, MN, 55906","Match","Exact","1824 DEERHAVEN LN NE, ROCHESTER, MN, 55906",612113794,"R"
273580,"1824 DEFOOR AVE APT 2210","ATLANTA","GA",30318,33.8048318830001,-84.423649149,80,"1824 DEFOOR AVE APT 2210, ATLANTA, GA, 30318","Match","Non_Exact","1824 DEFOOR AVE NW, ATLANTA, GA, 30318",17334996,"L"
273581,"1824 DEFOORS AVE APT 2210","ATLANTA","GA",30318,NA,NA,81,"1824 DEFOORS AVE APT 2210, ATLANTA, GA, 30318","No_Match",NA,NA,NA,NA
273582,"1824 DOMINION WAY","COLORADO SPRINGS","CO",80918,38.92358582,-104.793307827,82,"1824 DOMINION WAY, COLORADO SPRINGS, CO, 80918","Match","Exact","1824 DOMINION WAY, COLORADO SPRINGS, CO, 80918",610700635,"L"
273583,"1824 DOUGLAS ST","HOWE","TX",75459,33.5216610800001,-96.624622928,83,"1824 DOUGLAS ST, HOWE, TX, 75459","Match","Exact","1824 DOUGLAS ST, HOWE, TX, 75459",651003767,"R"
273584,"1824 DR DENNIS FOREMAN DRIVE","MAYS LANDING","NJ",8330,NA,NA,84,"1824 DR DENNIS FOREMAN DRIVE, MAYS LANDING, NJ, 8330","No_Match",NA,NA,NA,NA
273585,"1824 DUNSFORD ROAD","JACKSONVILLE","FL",32207,30.2940212120001,-81.645317787,85,"1824 DUNSFORD ROAD, JACKSONVILLE, FL, 32207","Match","Exact","1824 DUNSFORD RD, JACKSONVILLE, FL, 32207",83915262,"R"
273586,"1824 E 4TH STREET","FAYETTEVILLE","AR",72071,36.05766206,-94.1350682,86,"1824 E 4TH STREET, FAYETTEVILLE, AR, 72071","Match","Non_Exact","1824 E 4TH ST, FAYETTEVILLE, AR, 72701",49088169,"L"
273587,"1824 E COLUMBIA AVE","SPOKANE","WA",99208,47.7105136550001,-117.382586258,87,"1824 E COLUMBIA AVE, SPOKANE, WA, 99208","Match","Exact","1824 E COLUMBIA AVE, SPOKANE, WA, 99208",189878191,"R"
273588,"1824 E MAPLE AVE","MIDLAND","TX",79705,32.0259264950001,-102.057868371,88,"1824 E MAPLE AVE, MIDLAND, TX, 79705","Match","Exact","1824 E MAPLE AVE, MIDLAND, TX, 79705",139582612,"R"
273589,"1824 EAST EUCLID AVE","PHOENIX","CA",85042,NA,NA,89,"1824 EAST EUCLID AVE, PHOENIX, CA, 85042","No_Match",NA,NA,NA,NA
273590,"1824 EAST FAULKNER STREET","TYLER","TX",75701,32.3186911620001,-95.278423023,90,"1824 EAST FAULKNER STREET, TYLER, TX, 75701","Match","Exact","1824 E FAULKNER ST, TYLER, TX, 75701",141291950,"L"
273591,"1824 EDWARDS AVENUE","CEDAR FALLS","IA",50613,42.52118476,-92.4175635239999,91,"1824 EDWARDS AVENUE, CEDAR FALLS, IA, 50613","Match","Exact","1824 EDWARDS AVE, CEDAR FALLS, IA, 50613",77249443,"L"
273592,"1824 FALLOWFIELD AVENUE","PITTSBURGH","PA",15216,40.4067331840001,-80.023557539,92,"1824 FALLOWFIELD AVENUE, PITTSBURGH, PA, 15216","Match","Exact","1824 FALLOWFIELD AVE, PITTSBURGH, PA, 15216",51634284,"R"
273593,"1824 FARNDON AVE","LOS ALTOS","CA",94024,37.346894999,-122.067084682,93,"1824 FARNDON AVE, LOS ALTOS, CA, 94024","Match","Exact","1824 FARNDON AVE, LOS ALTOS, CA, 94024",122935788,"L"
273594,"1824 FOXDALE CT","CROFTON","MD",21114,39.0093150980001,-76.674162489,94,"1824 FOXDALE CT, CROFTON, MD, 21114","Match","Exact","1824 FOXDALE CT, CROFTON, MD, 21114",68213044,"R"
273595,"1824 GEORGIA AVE","LITTLE ROCK","AR",72207,34.768687334,-92.355989677,95,"1824 GEORGIA AVE, LITTLE ROCK, AR, 72207","Match","Exact","1824 GEORGIA AVE, LITTLE ROCK, AR, 72207",83503608,"L"
273596,"1824 GEORGIA RIDGE RD","ALMA","AR",72921,NA,NA,96,"1824 GEORGIA RIDGE RD, ALMA, AR, 72921","No_Match",NA,NA,NA,NA
273597,"1824 GERRITT STREET","PHILADELPHIA","PA",19146,39.9333996230001,-75.174767319,97,"1824 GERRITT STREET, PHILADELPHIA, PA, 19146","Match","Exact","1824 GERRITT ST, PHILADELPHIA, PA, 19146",131411081,"L"
273598,"1824 GINGER LANE","KLAMATH FALLS","OR",97601,42.243251636,-121.754146433,98,"1824 GINGER LANE, KLAMATH FALLS, OR, 97601","Match","Exact","1824 GINGER LN, KLAMATH FALLS, OR, 97601",156703718,"L"
273599,"1824 GREEN BERRY ROAD","JEFFERSON CITY","MO",65101,38.542568558,-92.169176638,99,"1824 GREEN BERRY ROAD, JEFFERSON CITY, MO, 65101","Match","Exact","1824 GREEN BERRY RD, JEFFERSON CITY, MO, 65101",34423336,"L"
273600,"1824 GREENLEESE","FREDERICK","MD",21701,39.4511587710001,-77.3711271609999,100,"1824 GREENLEESE, FREDERICK, MD, 21701","Match","Non_Exact","1824 GREENLEESE DR, FREDERICK, MD, 21701",608292151,"R"
273601,"1824 HARMONY STREET","NEW ORLEANS","LA",70115,29.9311581100001,-90.0904882,101,"1824 HARMONY STREET, NEW ORLEANS, LA, 70115","Match","Exact","1824 HARMONY ST, NEW ORLEANS, LA, 70115",191712673,"L"
273602,"1824 HITES CT","ORLANDO","FL",32818,28.563424717,-81.473105742,102,"1824 HITES CT, ORLANDO, FL, 32818","Match","Exact","1824 HITES CT, ORLANDO, FL, 32818",639251554,"L"
273603,"1824 HOLLIS AVENUE","NORTH AUGUSTA","SC",29841,33.527470877,-81.976247999,103,"1824 HOLLIS AVENUE, NORTH AUGUSTA, SC, 29841","Match","Exact","1824 HOLLIS AVE, NORTH AUGUSTA, SC, 29841",64984048,"L"
273604,"1824 HOLLYVIEW DRIVE","SAN RAMON","CA",94582,37.7781268250001,-121.919128391,104,"1824 HOLLYVIEW DRIVE, SAN RAMON, CA, 94582","Match","Exact","1824 HOLLYVIEW DR, SAN RAMON, CA, 94582",192115404,"R"
273605,"1824 HOWE LANE","MAPLE GLEN","PA",19002,40.1760658960001,-75.178571706,105,"1824 HOWE LANE, MAPLE GLEN, PA, 19002","Match","Exact","1824 HOWE LN, MAPLE GLEN, PA, 19002",135078530,"L"
273606,"1824 HURLEY AVE","FORT WORTH","TX",76110,32.7249993830001,-97.3425506569999,106,"1824 HURLEY AVE, FORT WORTH, TX, 76110","Match","Exact","1824 HURLEY AVE, FORT WORTH, TX, 76110",101885797,"R"
273607,"1824 JACK RABBIT WAY","LAS VEGAS","NV",89128,36.1933817,-115.263956999,107,"1824 JACK RABBIT WAY, LAS VEGAS, NV, 89128","Match","Exact","1824 JACK RABBIT WAY, LAS VEGAS, NV, 89128",201917341,"L"
273608,"1824 JASMINE DRIVE","OPELOUSAS","LA",70570,NA,NA,108,"1824 JASMINE DRIVE, OPELOUSAS, LA, 70570","No_Match",NA,NA,NA,NA
273609,"1824 JOHNSTON AVE","KITTANNING","PA",16201,40.840830985,-79.525458535,109,"1824 JOHNSTON AVE, KITTANNING, PA, 16201","Match","Exact","1824 JOHNSTON AVE, KITTANNING, PA, 16201",636452439,"R"
273610,"1824 KIMWOOD ST","TYLER","TX",75703,32.3040115850001,-95.279905496,110,"1824 KIMWOOD ST, TYLER, TX, 75703","Match","Non_Exact","1824 KIMWOOD LN, TYLER, TX, 75703",141274308,"L"
273611,"1824 KING COLLEGE RD UNIT C1","BRISTOL","TN",37620,36.584713343,-82.143084383,111,"1824 KING COLLEGE RD UNIT C1, BRISTOL, TN, 37620","Match","Exact","1824 KING COLLEGE RD, BRISTOL, TN, 37620",635440414,"R"
273612,"1824 KINGLET COURT","COSTA MESA","CA",92626,33.670248584,-117.932878867,112,"1824 KINGLET COURT, COSTA MESA, CA, 92626","Match","Exact","1824 KINGLET CT, COSTA MESA, CA, 92626",144045799,"R"
273613,"1824 KNOLLWOOD ROAD","LOUISVILLE","KY",40207,38.2797373600001,-85.648290253,113,"1824 KNOLLWOOD ROAD, LOUISVILLE, KY, 40207","Match","Exact","1824 KNOLLWOOD RD, LOUISVILLE, KY, 40207",96854394,"L"
273614,"1824 LA CROSSE STREET","LA CROSSE","WI",54601,43.818482428,-91.226978203,114,"1824 LA CROSSE STREET, LA CROSSE, WI, 54601","Match","Exact","1824 LA CROSSE ST, LA CROSSE, WI, 54601",647200104,"R"
273615,"1824 LAFITTE ST","LAPLACE","LA",70068,30.0825249270001,-90.483686748,115,"1824 LAFITTE ST, LAPLACE, LA, 70068","Match","Non_Exact","1824 LAFITTE ST, LA PLACE, LA, 70068",93694164,"L"
273616,"1824 LAKE GLEN TRAIL","MANSFIELD","TX",76063,32.6015533710001,-97.124428842,116,"1824 LAKE GLEN TRAIL, MANSFIELD, TX, 76063","Match","Exact","1824 LAKE GLEN TRL, MANSFIELD, TX, 76063",101962604,"L"
273617,"1824 LANCASTER ROAD","HOMEWOOD","AL",35209,33.4757174650001,-86.790767565,117,"1824 LANCASTER ROAD, HOMEWOOD, AL, 35209","Match","Exact","1824 LANCASTER RD, HOMEWOOD, AL, 35209",81717635,"L"
273618,"1824 LAUREL AVE","MANHATTAN BEACH","CA",90266,33.8915728750001,-118.40426698,118,"1824 LAUREL AVE, MANHATTAN BEACH, CA, 90266","Match","Exact","1824 LAUREL AVE, MANHATTAN BEACH, CA, 90266",141581643,"R"
273619,"1824 LIBERTY RD","CLARKLAKE","MI",49234,NA,NA,119,"1824 LIBERTY RD, CLARKLAKE, MI, 49234","Tie",NA,NA,NA,NA
273620,"1824 MACKINAW PL SE","SMYRNA","GA",30080,33.8712183280001,-84.501300766,120,"1824 MACKINAW PL SE, SMYRNA, GA, 30080","Match","Exact","1824 MACKINAW PL SE, SMYRNA, GA, 30080",17181770,"R"
273621,"1824 MANHATTEN STREET","MICHIGAN CITY","IN",46360,41.704366656,-86.901869741,121,"1824 MANHATTEN STREET, MICHIGAN CITY, IN, 46360","Match","Non_Exact","1824 MANHATTAN ST, MICHIGAN CITY, IN, 46360",15410838,"L"
273622,"1824 MARLIN DRIVE","AUBREY","TX",76227,33.22590554,-96.930445311,122,"1824 MARLIN DRIVE, AUBREY, TX, 76227","Match","Exact","1824 MARLIN DR, AUBREY, TX, 76227",632222208,"L"
273623,"1824 MCGRAW AVE 2E","BRONX","NY",10472,40.8341465730001,-73.865677639,123,"1824 MCGRAW AVE 2E, BRONX, NY, 10472","Match","Exact","1824 MCGRAW AVE, BRONX, NY, 10472",80304706,"R"
273624,"1824 METZEROTT ROAD PT 204","ADELPHI","MD",20783,39.003741609,-76.976092662,124,"1824 METZEROTT ROAD PT 204, ADELPHI, MD, 20783","Match","Exact","1824 METZEROTT RD, ADELPHI, MD, 20783",635445985,"L"
273625,"1824 MILFORD STREET","HOUSTON","TX",77098,29.728740632,-95.404882286,125,"1824 MILFORD STREET, HOUSTON, TX, 77098","Match","Exact","1824 MILFORD ST, HOUSTON, TX, 77098",96064264,"R"
273626,"1824 MOUNTAINSIDE DR","COTTONWOOD","AZ",86326,34.7289508550001,-112.04655428,126,"1824 MOUNTAINSIDE DR, COTTONWOOD, AZ, 86326","Match","Exact","1824 MOUNTAINSIDE DR, COTTONWOOD, AZ, 86326",627383151,"R"
273627,"1824 MYRTLE STREET","OAKLAND","CA",94607,37.811594799,-122.280876805,127,"1824 MYRTLE STREET, OAKLAND, CA, 94607","Match","Exact","1824 MYRTLE ST, OAKLAND, CA, 94607",606211072,"R"
273628,"1824 N CONCORD RD","INDEPENDENCE","MO",64058,39.1367192070001,-94.355400893,128,"1824 N CONCORD RD, INDEPENDENCE, MO, 64058","Match","Exact","1824 N CONCORD RD, INDEPENDENCE, MO, 64058",91530393,"R"
273629,"1824 N ELM ST","GREENSBORO","NC",27408,36.098880276,-79.788205369,129,"1824 N ELM ST, GREENSBORO, NC, 27408","Match","Exact","1824 N ELM ST, GREENSBORO, NC, 27408",623850719,"R"
273630,"1824 N MAIN ST","TULSA","OK",74016,NA,NA,130,"1824 N MAIN ST, TULSA, OK, 74016","No_Match",NA,NA,NA,NA
273631,"1824 N MASELLI COURT","VISALIA","CA",93291,36.3462065200001,-119.350783798,131,"1824 N MASELLI COURT, VISALIA, CA, 93291","Match","Exact","1824 N MASELLI CT, VISALIA, CA, 93291",202808409,"L"
273632,"1824 N MASELLI CT","VISALIA","CA",93291,36.3462065200001,-119.350783798,132,"1824 N MASELLI CT, VISALIA, CA, 93291","Match","Exact","1824 N MASELLI CT, VISALIA, CA, 93291",202808409,"L"
273633,"1824 N SPRUCE STREET","LITTLE ROCK","AR",72207,34.768301927,-92.326495102,133,"1824 N SPRUCE STREET, LITTLE ROCK, AR, 72207","Match","Exact","1824 N SPRUCE ST, LITTLE ROCK, AR, 72207",83504239,"L"
273634,"1824 N UMBERLAND WAY","ATLANTA","GA",30316,33.7228035680001,-84.313678425,134,"1824 N UMBERLAND WAY, ATLANTA, GA, 30316","Match","Non_Exact","1824 NORTHUMBERLAND WAY, ATLANTA, GA, 30316",619388021,"L"
273635,"1824 N UNIVERSITY AVE","PEMBROKE PINES","FL",33024,NA,NA,135,"1824 N UNIVERSITY AVE, PEMBROKE PINES, FL, 33024","No_Match",NA,NA,NA,NA
273636,"1824 N UNIVERSITY DR","PEMBROKE PINES","FL",33024,NA,NA,136,"1824 N UNIVERSITY DR, PEMBROKE PINES, FL, 33024","No_Match",NA,NA,NA,NA
273637,"1824 N WATERSHED AVE","STAR","ID",83669,43.7077982810001,-116.493944673,137,"1824 N WATERSHED AVE, STAR, ID, 83669","Match","Exact","1824 N WATERSHED AVE, STAR, ID, 83669",646809126,"L"
273638,"1824 NE 150TH AVENUE","PORTLAND","OR",97230,45.5364435230001,-122.506879192,138,"1824 NE 150TH AVENUE, PORTLAND, OR, 97230","Match","Exact","1824 NE 150TH AVE, PORTLAND, OR, 97230",157551324,"L"
273639,"1824 NE 54TH ST","OKLAHOMA CITY","OK",73111,35.5255932790001,-97.480404832,139,"1824 NE 54TH ST, OKLAHOMA CITY, OK, 73111","Match","Exact","1824 NE 54TH ST, OKLAHOMA CITY, OK, 73111",100411551,"R"
273640,"1824 NE 71ST ST","LINCOLN CITY","OR",97367,45.016413884,-124.007773404,140,"1824 NE 71ST ST, LINCOLN CITY, OR, 97367","Match","Exact","1824 NE 71ST ST, LINCOLN CITY, OR, 97367",155950468,"R"
273641,"1824 NE BURGUNDY CIRCLE","LEE'S SUMMIT","MO",64086,38.9448397210001,-94.3465618499999,141,"1824 NE BURGUNDY CIRCLE, LEE'S SUMMIT, MO, 64086","Match","Non_Exact","1824 NE BURGANDY CIR, LEES SUMMIT, MO, 64086",91517129,"R"
273642,"1824 NEW YORK AVENUE","BROOKLYN","NY",11210,40.6277530450001,-73.944149307,142,"1824 NEW YORK AVENUE, BROOKLYN, NY, 11210","Match","Exact","1824 NEW YORK AVE, BROOKLYN, NY, 11210",59082025,"R"
273643,"1824 NORMAN ROAD","ENID","OK",73703,36.365443134,-97.9003192769999,143,"1824 NORMAN ROAD, ENID, OK, 73703","Match","Exact","1824 NORMAN RD, ENID, OK, 73703",635853099,"R"
273644,"1824 NORTH AURORA AVE","EAST WENATCHEE","WA",98802,47.4327091170001,-120.295434716,144,"1824 NORTH AURORA AVE, EAST WENATCHEE, WA, 98802","Match","Exact","1824 N AURORA AVE, EAST WENATCHEE, WA, 98802",156884731,"R"
273645,"1824 NORTH JACKSON","MAGNOLIA","AR",71753,33.2838767470001,-93.234744093,145,"1824 NORTH JACKSON, MAGNOLIA, AR, 71753","Match","Non_Exact","1824 N JACKSON ST, MAGNOLIA, AR, 71753",10674503,"R"
273646,"1824 NORTHWOOD DRIVE","CLEARWATER","FL",33764,27.9401648670001,-82.7608068069999,146,"1824 NORTHWOOD DRIVE, CLEARWATER, FL, 33764","Match","Exact","1824 NORTHWOOD DR, CLEARWATER, FL, 33764",124717517,"L"
273647,"1824 NW 83RD STREET","MIAMI","FL",33147,25.8501153080001,-80.228145258,147,"1824 NW 83RD STREET, MIAMI, FL, 33147","Match","Exact","1824 NW 83RD ST, MIAMI, FL, 33147",116003845,"L"
273648,"1824 OAK FOREST DR W","CLEARWATER","FL",33759,27.9875584490001,-82.7124881729999,148,"1824 OAK FOREST DR W, CLEARWATER, FL, 33759","Match","Exact","1824 OAK FOREST DR W, CLEARWATER, FL, 33759",124683866,"L"
273649,"1824 OAKWOOD AVE","ARCADIA","CA",91006,34.1650333590001,-118.030579098,149,"1824 OAKWOOD AVE, ARCADIA, CA, 91006","Match","Exact","1824 OAKWOOD AVE, ARCADIA, CA, 91006",642870777,"R"
273650,"1824 OEHRLE ST","LOUISVILLE","KY",40216,38.1985828000001,-85.8058439329999,150,"1824 OEHRLE ST, LOUISVILLE, KY, 40216","Match","Non_Exact","1824 OEHRLE DR, LOUISVILLE, KY, 40216",96843312,"L"
273651,"1824 OLD FARM TRAIL","YOUNGSTOWN","OH",44515,NA,NA,151,"1824 OLD FARM TRAIL, YOUNGSTOWN, OH, 44515","No_Match",NA,NA,NA,NA
273652,"1824 OXFORD WAY","STOCKTON","CA",95204,37.969053726,-121.322503527,152,"1824 OXFORD WAY, STOCKTON, CA, 95204","Match","Exact","1824 OXFORD WAY, STOCKTON, CA, 95204",133847497,"L"
273653,"1824 PARKVIEW AVE APT 1","NORFOLK","VA",23503,36.937060757,-76.22549584,153,"1824 PARKVIEW AVE APT 1, NORFOLK, VA, 23503","Match","Exact","1824 PARKVIEW AVE, NORFOLK, VA, 23503",122141271,"L"
273654,"1824 PIEDMONT SCHOOL ROAD","DENTON","NC",27239,35.5978570790001,-80.0765739569999,154,"1824 PIEDMONT SCHOOL ROAD, DENTON, NC, 27239","Match","Exact","1824 PIEDMONT SCHOOL RD, DENTON, NC, 27239",20213474,"L"
273655,"1824 PINE ST","SPRINGFIELD","IL",62703,39.786206217,-89.6305986359999,155,"1824 PINE ST, SPRINGFIELD, IL, 62703","Match","Non_Exact","1824 E PINE ST, SPRINGFIELD, IL, 62703",97325876,"R"
273656,"1824 POWERS AVE","LEWISTON","ID",83501,46.3695308000001,-116.935554444,156,"1824 POWERS AVE, LEWISTON, ID, 83501","Match","Exact","1824 POWERS AVE, LEWISTON, ID, 83501",173136058,"R"
273657,"1824 POWERS AVENUE","LEWISTON","ID",83501,46.3695308000001,-116.935554444,157,"1824 POWERS AVENUE, LEWISTON, ID, 83501","Match","Exact","1824 POWERS AVE, LEWISTON, ID, 83501",173136058,"R"
273658,"1824 QUEENSBURY STREET","WEST FARGO","ND",58078,46.853453992,-96.894745228,158,"1824 QUEENSBURY STREET, WEST FARGO, ND, 58078","Match","Exact","1824 QUEENSBURY ST, WEST FARGO, ND, 58078",624718155,"R"
273659,"1824 RAINTREE","IMPERIAL","MO",63052,38.4008072070001,-90.3940271339999,159,"1824 RAINTREE, IMPERIAL, MO, 63052","Match","Non_Exact","1824 RAINTREE DR, IMPERIAL, MO, 63052",62782330,"L"
273660,"1824 REDWOOD AVENUE","PARKVILLE","MD",21234,39.392306611,-76.556787824,160,"1824 REDWOOD AVENUE, PARKVILLE, MD, 21234","Match","Exact","1824 REDWOOD AVE, PARKVILLE, MD, 21234",191476013,"L"
273661,"1824 ROBLE DRIVE SE","RIO RANCHO","NM",87124,35.227439335,-106.678399614,161,"1824 ROBLE DRIVE SE, RIO RANCHO, NM, 87124","Match","Exact","1824 ROBLE DR SE, RIO RANCHO, NM, 87124",193996545,"L"
273662,"1824 S 1066 W","LEXINGTON","IN",47138,38.710745117,-85.585260449,162,"1824 S 1066 W, LEXINGTON, IN, 47138","Match","Exact","1824 S 1066 W, LEXINGTON, IN, 47138",31393937,"L"
273663,"1824 S 1100 EAST","SALT LAKE CITY","UT",84105,40.7303928590001,-111.859610187,163,"1824 S 1100 EAST, SALT LAKE CITY, UT, 84105","Match","Exact","1824 S 1100 E, SALT LAKE CITY, UT, 84105",176080712,"R"
273664,"1824 S 32ND ST","KANSAS CITY","KS",66106,39.0669284590001,-94.6660072349999,164,"1824 S 32ND ST, KANSAS CITY, KS, 66106","Match","Exact","1824 S 32ND ST, KANSAS CITY, KS, 66106",91140260,"R"
273665,"1824 S HELEN AVE","ONTARIO","CA",91762,34.04010685,-117.679352369,165,"1824 S HELEN AVE, ONTARIO, CA, 91762","Match","Exact","1824 S HELEN AVE, ONTARIO, CA, 91762",144673387,"R"
273666,"1824 S IH 35 NUMBER 358","AUSTIN","TX",78704,NA,NA,166,"1824 S IH 35 NUMBER 358, AUSTIN, TX, 78704","No_Match",NA,NA,NA,NA
273667,"1824 S PERKINS COURT","SPRINGFIELD","IL",62703,NA,NA,167,"1824 S PERKINS COURT, SPRINGFIELD, IL, 62703","Tie",NA,NA,NA,NA
273668,"1824 S SAINT LOUIS AVE APT BSMT","CHICAGO","IL",60623,41.8564116490001,-87.712703065,168,"1824 S SAINT LOUIS AVE APT BSMT, CHICAGO, IL, 60623","Match","Non_Exact","1824 S ST LOUIS AVE, CHICAGO, IL, 60623",605095075,"R"
273669,"1824 S STREET NW APT 1","WASHINGTON","DC",20009,38.91408821,-77.042163563,169,"1824 S STREET NW APT 1, WASHINGTON, DC, 20009","Match","Exact","1824 S ST NW, WASHINGTON, DC, 20009",76222806,"L"
273670,"1824 S STREET NW APT 203","WASHINGTON","DC",20009,38.91408821,-77.042163563,170,"1824 S STREET NW APT 203, WASHINGTON, DC, 20009","Match","Exact","1824 S ST NW, WASHINGTON, DC, 20009",76222806,"L"
273671,"1824 SABAL PALM DR","MELBOURNE","FL",32934,28.138114527,-80.683315814,171,"1824 SABAL PALM DR, MELBOURNE, FL, 32934","Match","Exact","1824 SABAL PALM DR, MELBOURNE, FL, 32934",93933379,"L"
273672,"1824 SLATE AVE NW","ALBUQUERQUE","NM",87104,35.094143785,-106.667153303,172,"1824 SLATE AVE NW, ALBUQUERQUE, NM, 87104","Match","Exact","1824 SLATE AVE NW, ALBUQUERQUE, NM, 87104",206706116,"L"
273673,"1824 SNOWFIRE AVE","NORTH LAS VEGAS","NV",89032,36.233469455,-115.167734676,173,"1824 SNOWFIRE AVE, NORTH LAS VEGAS, NV, 89032","Match","Exact","1824 SNOWFIRE AVE, N LAS VEGAS, NV, 89032",201909194,"R"
273674,"1824 SOUTH CANALPORT","CHICAGO","IL",60616,41.8572101880001,-87.6408569989999,174,"1824 SOUTH CANALPORT, CHICAGO, IL, 60616","Match","Non_Exact","1824 S CANALPORT AVE, CHICAGO, IL, 60616",111827790,"R"
273675,"1824 SOUTH LAYTON BLVD","MILWAUKEE","WI",53215,43.0110783750001,-87.947831922,175,"1824 SOUTH LAYTON BLVD, MILWAUKEE, WI, 53215","Match","Exact","1824 S LAYTON BLVD, MILWAUKEE, WI, 53215",77740859,"L"
273676,"1824 SWEETSPIRE DR","NEW PORT RICHEY","FL",34655,28.183737658,-82.656236669,176,"1824 SWEETSPIRE DR, NEW PORT RICHEY, FL, 34655","Match","Non_Exact","1824 SWEETSPIRE LN, NEW PORT RICHEY, FL, 34655",629414704,"L"
273677,"1824 TOM BOLT","EL PASO","TX",79936,31.7663185600001,-106.311105318,177,"1824 TOM BOLT, EL PASO, TX, 79936","Match","Non_Exact","1824 TOM BOLT DR, EL PASO, TX, 79936",189407872,"R"
273678,"1824 TRIBUTE ROAD SUITE A","SACRAMENTO","CA",95815,NA,NA,178,"1824 TRIBUTE ROAD SUITE A, SACRAMENTO, CA, 95815","No_Match",NA,NA,NA,NA
273679,"1824 TWIN LAKES CIRCLE","LOVELAND","CA",80538,NA,NA,179,"1824 TWIN LAKES CIRCLE, LOVELAND, CA, 80538","No_Match",NA,NA,NA,NA
273680,"1824 VIENNA ROAD","SYLVAN BEACH","NY",13157,43.206002821,-75.72380451,180,"1824 VIENNA ROAD, SYLVAN BEACH, NY, 13157","Match","Exact","1824 VIENNA RD, SYLVAN BEACH, NY, 13157",171539814,"R"
273681,"1824 VILAS AVE","MADISON","WI",53711,43.0626230840001,-89.413510749,181,"1824 VILAS AVE, MADISON, WI, 53711","Match","Exact","1824 VILAS AVE, MADISON, WI, 53711",49469311,"R"
273682,"1824 W DAINTY LN","MERIDIAN","IN",83642,NA,NA,182,"1824 W DAINTY LN, MERIDIAN, IN, 83642","No_Match",NA,NA,NA,NA
273683,"1824 W SELDON WAY","PHOENIX","AZ",85021,33.561254343,-112.097560151,183,"1824 W SELDON WAY, PHOENIX, AZ, 85021","Match","Exact","1824 W SELDON WAY, PHOENIX, AZ, 85021",128918435,"R"
273684,"1824 WALKER AVENUE","MEMPHIS","TN",38114,35.1179886790001,-90.0009387109999,184,"1824 WALKER AVENUE, MEMPHIS, TN, 38114","Match","Exact","1824 WALKER AVE, MEMPHIS, TN, 38114",72916974,"L"
273685,"1824 WEST 22ND PLACE","CHICAGO","IL",60608,41.851471078,-87.6714010859999,185,"1824 WEST 22ND PLACE, CHICAGO, IL, 60608","Match","Exact","1824 W 22ND PL, CHICAGO, IL, 60608",641796390,"R"
273686,"1824 WEST EASTON PLACE","TULSA","OK",74127,36.1598606700001,-96.013013544,186,"1824 WEST EASTON PLACE, TULSA, OK, 74127","Match","Exact","1824 W EASTON PL, TULSA, OK, 74127",166434950,"L"
273687,"1824 WHITETAIL CIRCLE","ALTUS","OK",73521,34.669208558,-99.309105634,187,"1824 WHITETAIL CIRCLE, ALTUS, OK, 73521","Match","Non_Exact","1824 WHITE TAIL CIR, ALTUS, OK, 73521",637572213,"L"
273688,"1824 WINDFALL ROAD","OLEAN","NY",14760,42.0943204480001,-78.4051106109999,188,"1824 WINDFALL ROAD, OLEAN, NY, 14760","Match","Exact","1824 WINDFALL RD, OLEAN, NY, 14760",122064772,"L"
273689,"1824 WINDSOR BLVD","HOMEWOOD","AL",35209,33.469844881,-86.7905034029999,189,"1824 WINDSOR BLVD, HOMEWOOD, AL, 35209","Match","Exact","1824 WINDSOR BLVD, HOMEWOOD, AL, 35209",81581874,"L"
273690,"1824 WOLF ROAD","JUNCTION CITY","KS",66441,38.8608378010001,-96.926850999,190,"1824 WOLF ROAD, JUNCTION CITY, KS, 66441","Match","Exact","1824 WOLF RD, JUNCTION CITY, KS, 66441",88130439,"R"
273691,"1824 WOODLAKE ROAD","STAMPING GROUND","KY",40379,38.246851022,-84.703492135,191,"1824 WOODLAKE ROAD, STAMPING GROUND, KY, 40379","Match","Exact","1824 WOODLAKE RD, STAMPING GROUND, KY, 40379",41241124,"R"
273692,"1824 WOODVIEW DR","Alvarado","TX",76009,32.3849802880001,-97.25231732,192,"1824 WOODVIEW DR, Alvarado, TX, 76009","Match","Exact","1824 WOODVIEW DR, ALVARADO, TX, 76009",103554340,"L"
273693,"1824 YORKTOWN AVE","FORT COLLINS","CO",80526,40.553684413,-105.110240311,193,"1824 YORKTOWN AVE, FORT COLLINS, CO, 80526","Match","Exact","1824 YORKTOWN AVE, FORT COLLINS, CO, 80526",188490662,"R"
273694,"1824","LOUISVILLE","KY",40216,NA,NA,194,"1824, LOUISVILLE, KY, 40216","No_Match",NA,NA,NA,NA
273695,"18240 ARCHERS DRIVE","MONUMENT","CO",80132,39.0974978790001,-104.805860725,195,"18240 ARCHERS DRIVE, MONUMENT, CO, 80132","Match","Exact","18240 ARCHERS DR, MONUMENT, CO, 80132",647962815,"L"
273696,"18240 BRIGHTLINGSEA PL","SOUTH BEND","IN",46637,41.7288328700001,-86.223255147,196,"18240 BRIGHTLINGSEA PL, SOUTH BEND, IN, 46637","Match","Exact","18240 BRIGHTLINGSEA PL, SOUTH BEND, IN, 46637",8053404,"L"
273697,"18240 DELENKA LN","LAKE OSWEGO","OR",97034,45.394283209,-122.70266111,197,"18240 DELENKA LN, LAKE OSWEGO, OR, 97034","Match","Exact","18240 DELENKA LN, LAKE OSWEGO, OR, 97034",639112611,"R"
273698,"18240 E 104TH AVE","COMMERCE CITY","CO",80022,39.885538207,-104.790363602,198,"18240 E 104TH AVE, COMMERCE CITY, CO, 80022","Match","Exact","18240 E 104TH AVE, COMMERCE CITY, CO, 80022",177426428,"R"
273699,"18240 KENTUCKY","DETROIT","MI",48221,42.4246357910001,-83.159653992,199,"18240 KENTUCKY, DETROIT, MI, 48221","Match","Non_Exact","18240 KENTUCKY AVE, DETROIT, MI, 48221",95425513,"R"
273700,"18240 MC RD 23 1/2","DOLORES","CO",81323,NA,NA,200,"18240 MC RD 23 1/2, DOLORES, CO, 81323","No_Match",NA,NA,NA,NA
273701,"18240 MIDDLEBELT APT 104","LIVONIA","MI",48152,42.4198298470001,-83.335529231,201,"18240 MIDDLEBELT APT 104, LIVONIA, MI, 48152","Match","Non_Exact","18240 MIDDLEBELT RD, LIVONIA, MI, 48152",95418282,"R"
273702,"18240 NE RAINBOW LN","NEWBERG","OR",97132,45.313305411,-123.049354779,202,"18240 NE RAINBOW LN, NEWBERG, OR, 97132","Match","Exact","18240 NE RAINBOW LN, NEWBERG, OR, 97132",605477226,"R"
273703,"18240 PARADISE POINT DRIVE","TAMPA","FL",33647,28.147080927,-82.2900862069999,203,"18240 PARADISE POINT DRIVE, TAMPA, FL, 33647","Match","Exact","18240 PARADISE POINT DR, TAMPA, FL, 33647",631295065,"L"
273704,"18240 PARKSHORE DRIVE","NORTHVILLE","MI",48168,42.4155411890001,-83.525315023,204,"18240 PARKSHORE DRIVE, NORTHVILLE, MI, 48168","Match","Exact","18240 PARKSHORE DR, NORTHVILLE, MI, 48168",95734422,"L"
273705,"18240 SUPERIOR STREET","NORTHRIDGE","CA",91325,34.2463759140001,-118.530813431,205,"18240 SUPERIOR STREET, NORTHRIDGE, CA, 91325","Match","Exact","18240 SUPERIOR ST, NORTHRIDGE, CA, 91325",141541137,"L"
273706,"18240-A COUNTY ROAD 9","SUMMERDALE","AL",37580,30.4899522330001,-87.796408559,206,"18240-A COUNTY ROAD 9, SUMMERDALE, AL, 37580","Match","Non_Exact","18240 CO RD 9, SUMMERDALE, AL, 36580",131704223,"R"
273707,"18241 73RD AVENUE NE APT 309","KENMORE","WA",98028,47.760979208,-122.243743276,207,"18241 73RD AVENUE NE APT 309, KENMORE, WA, 98028","Match","Exact","18241 73RD AVE NE, KENMORE, WA, 98028",648604071,"L"
273708,"18241 AUTUMN VIEW DR","PRAIRIEVILLE","LA",70769,30.3296009910001,-90.928855961,208,"18241 AUTUMN VIEW DR, PRAIRIEVILLE, LA, 70769","Match","Exact","18241 AUTUMN VIEW DR, PRAIRIEVILLE, LA, 70769",115032842,"L"
273709,"18241 E FLORA PL UNIT A","AURORA","CO",80013,NA,NA,209,"18241 E FLORA PL UNIT A, AURORA, CO, 80013","No_Match",NA,NA,NA,NA
273710,"18241 FRIAR ST","TARZANA","CA",91335,34.1861247480001,-118.530772401,210,"18241 FRIAR ST, TARZANA, CA, 91335","Match","Exact","18241 FRIAR ST, TARZANA, CA, 91335",141554626,"L"
273711,"18241 JOSEPH DRIVE","ROCHESTER","WA",98579,46.823114321,-122.979210298,211,"18241 JOSEPH DRIVE, ROCHESTER, WA, 98579","Match","Non_Exact","18241 JOSEPH DR SW, ROCHESTER, WA, 98579",627422654,"L"
273712,"18241 SE MILL ST","PORTLAND","OR",97223,45.510497652,-122.475063228,212,"18241 SE MILL ST, PORTLAND, OR, 97223","Match","Non_Exact","18241 SE MILL ST, PORTLAND, OR, 97233",157527892,"L"
273713,"18242 BREWER RD","GRASS VALLEY","CA",95949,39.0966770970001,-121.052919464,213,"18242 BREWER RD, GRASS VALLEY, CA, 95949","Match","Exact","18242 BREWER RD, GRASS VALLEY, CA, 95949",106540369,"R"
273714,"18242 NE 96TH WAY UNIT 104","WOODINVILLE","WA",98072,NA,NA,214,"18242 NE 96TH WAY UNIT 104, WOODINVILLE, WA, 98072","No_Match",NA,NA,NA,NA
273715,"18243 LANGE STREET","LANSING","IL",60438,41.5628136110001,-87.528193744,215,"18243 LANGE STREET, LANSING, IL, 60438","Match","Exact","18243 LANGE ST, LANSING, IL, 60438",605713532,"L"
273716,"18244 EVENER WAY","EDEN PRAIRIE","MN",55346,44.867733947,-93.5092694149999,216,"18244 EVENER WAY, EDEN PRAIRIE, MN, 55346","Match","Exact","18244 EVENER WAY, EDEN PRAIRIE, MN, 55346",43845651,"R"
273717,"18244 S 65 HWY","MARSHALL","MO",65340,NA,NA,217,"18244 S 65 HWY, MARSHALL, MO, 65340","No_Match",NA,NA,NA,NA
273718,"18244 YELLOW SCHOOLHOUSE RD","ROUND HILL","VA",20141,39.1136597930001,-77.800847066,218,"18244 YELLOW SCHOOLHOUSE RD, ROUND HILL, VA, 20141","Match","Exact","18244 YELLOW SCHOOLHOUSE RD, ROUND HILL, VA, 20141",625050713,"R"
273719,"18245 45TH AVE S","SEATAC","WA",98188,47.439267998,-122.277499296,219,"18245 45TH AVE S, SEATAC, WA, 98188","Match","Exact","18245 45TH AVE S, SEATAC, WA, 98188",186627975,"R"
273720,"18245 MENDOZA AV","JORDAN","MN",55352,44.684610772,-93.6332868759999,220,"18245 MENDOZA AV, JORDAN, MN, 55352","Match","Exact","18245 MENDOZA AVE, JORDAN, MN, 55352",38139585,"L"
273721,"18245 PAULSON DR STE 104","PORT CHARLOTTE","FL",33954,27.016707793,-82.14645555,221,"18245 PAULSON DR STE 104, PORT CHARLOTTE, FL, 33954","Match","Exact","18245 PAULSON DR, PORT CHARLOTTE, FL, 33954",4329406,"R"
273722,"18245 PAULSON DRIVE","PORT CHARLOTTE","FL",33954,27.016707793,-82.14645555,222,"18245 PAULSON DRIVE, PORT CHARLOTTE, FL, 33954","Match","Exact","18245 PAULSON DR, PORT CHARLOTTE, FL, 33954",4329406,"R"
273723,"18246 CHICAGO AVE","LANSING","IL",60438,41.5634547330001,-87.544179995,223,"18246 CHICAGO AVE, LANSING, IL, 60438","Match","Exact","18246 CHICAGO AVE, LANSING, IL, 60438",605713468,"R"
273724,"18246 EXCHANGE AVE  APT 3","LANSING","IL",60438,41.5630395480001,-87.5516495589999,224,"18246 EXCHANGE AVE  APT 3, LANSING, IL, 60438","Match","Exact","18246 EXCHANGE AVE, LANSING, IL, 60438",605713205,"R"
273725,"18246 GARNET RD","CARLINVILLE","IL",62626,39.2634984040001,-89.871854478,225,"18246 GARNET RD, CARLINVILLE, IL, 62626","Match","Exact","18246 GARNET RD, CARLINVILLE, IL, 62626",625322843,"R"
273726,"18246 JUPITER LANDINGS DR","JUPITER","FL",33458,26.942906771,-80.1303655199999,226,"18246 JUPITER LANDINGS DR, JUPITER, FL, 33458","Match","Exact","18246 JUPITER LANDINGS DR, JUPITER, FL, 33458",115581908,"L"
273727,"18246 S GREENO RD","FAIRHOPE","AL",36532,30.4904826100001,-87.886214506,227,"18246 S GREENO RD, FAIRHOPE, AL, 36532","Match","Exact","18246 S GREENO RD, FAIRHOPE, AL, 36532",639743130,"R"
273728,"18246 SW 29TH STREET","MIRAMAR","FL",33029,25.980401758,-80.390321509,228,"18246 SW 29TH STREET, MIRAMAR, FL, 33029","Match","Exact","18246 SW 29TH ST, MIRAMAR, FL, 33029",114780981,"R"
273729,"18247 PARTHENIA ST UNIT 15","NORTHRIDGE","CA",91325,34.2286856870001,-118.530834882,229,"18247 PARTHENIA ST UNIT 15, NORTHRIDGE, CA, 91325","Match","Exact","18247 PARTHENIA ST, NORTHRIDGE, CA, 91325",141541268,"R"
273730,"18247 SW SMOKETTE LANE","BEAVERTON","OR",97003,45.510928069,-122.865141136,230,"18247 SW SMOKETTE LANE, BEAVERTON, OR, 97003","Match","Exact","18247 SW SMOKETTE LN, BEAVERTON, OR, 97003",605216743,"R"
273731,"18248 LAUDER","DETROIT","MI",48235,42.4239203560001,-83.1923039609999,231,"18248 LAUDER, DETROIT, MI, 48235","Match","Non_Exact","18248 LAUDER ST, DETROIT, MI, 48235",95424198,"R"
273732,"18248 N 93RD PL","SCOTTSDALE","AZ",85255,33.651058004,-111.879787976,232,"18248 N 93RD PL, SCOTTSDALE, AZ, 85255","Match","Exact","18248 N 93RD PL, SCOTTSDALE, AZ, 85255",243983244,"L"
273733,"18248 NORTH 93RD AVENUE","SCOTTSDALE","AZ",85255,33.6510515530001,-111.879785941,233,"18248 NORTH 93RD AVENUE, SCOTTSDALE, AZ, 85255","Match","Non_Exact","18248 N 93RD PL, SCOTTSDALE, AZ, 85255",243983244,"L"
273734,"18249 GARFIELD","REDFORD","MI",48240,42.421906216,-83.2895002449999,234,"18249 GARFIELD, REDFORD, MI, 48240","Match","Exact","18249 GARFIELD, REDFORD, MI, 48240",95419636,"L"
273735,"18249 SUN MAIDEN CT","SAN DIEGO","CA",92127,33.043021465,-117.089937829,235,"18249 SUN MAIDEN CT, SAN DIEGO, CA, 92127","Match","Exact","18249 SUN MAIDEN CT, SAN DIEGO, CA, 92127",195390522,"L"
273736,"1825 105TH STREET NW","RICE","MN",56367,45.7202544300001,-94.2011620599999,236,"1825 105TH STREET NW, RICE, MN, 56367","Match","Exact","1825 105TH ST NW, RICE, MN, 56367",647361825,"R"
273737,"1825 13TH STREET","GREELEY","CO",80631,40.4185282330001,-104.708310027,237,"1825 13TH STREET, GREELEY, CO, 80631","Match","Exact","1825 13TH ST, GREELEY, CO, 80631",188676363,"R"
273738,"1825 13TH STREET","PIERCE","CO",80631,40.4185282330001,-104.708310027,238,"1825 13TH STREET, PIERCE, CO, 80631","Match","Non_Exact","1825 13TH ST, GREELEY, CO, 80631",188676363,"R"
273739,"1825 177TH AVE NE","BELLEVUE","WA",98008,47.6263179530001,-122.103568834,239,"1825 177TH AVE NE, BELLEVUE, WA, 98008","Match","Exact","1825 177TH AVE NE, BELLEVUE, WA, 98008",623940939,"L"
273740,"1825 18TH AVE","SAN FRANCISCO","CA",94122,37.753755772,-122.475374905,240,"1825 18TH AVE, SAN FRANCISCO, CA, 94122","Match","Exact","1825 18TH AVE, SAN FRANCISCO, CA, 94122",192278157,"R"
273741,"1825 20TH RD","THAYER","KS",66776,37.3983328570001,-95.514111123,241,"1825 20TH RD, THAYER, KS, 66776","Match","Exact","1825 20TH RD, THAYER, KS, 66776",18417289,"L"
273742,"1825 220TH PLACE NE","SAMMAMISH","WA",98074,47.6259596990001,-122.045653604,242,"1825 220TH PLACE NE, SAMMAMISH, WA, 98074","Match","Exact","1825 220TH PL NE, SAMMAMISH, WA, 98074",186617626,"L"
273743,"1825 251ST PL NE","SAMMAMISH","WA",98075,NA,NA,243,"1825 251ST PL NE, SAMMAMISH, WA, 98075","No_Match",NA,NA,NA,NA
273744,"1825 30TH ST W","WILLISTON","ND",58801,48.17188946,-103.650085572,244,"1825 30TH ST W, WILLISTON, ND, 58801","Match","Exact","1825 30TH ST W, WILLISTON, ND, 58801",167740129,"L"
273745,"1825 34TH STREET NE","SAUK RAPIDS","MN",56379,45.6178856000001,-94.128012994,245,"1825 34TH STREET NE, SAUK RAPIDS, MN, 56379","Match","Exact","1825 34TH ST NE, SAUK RAPIDS, MN, 56379",637707889,"L"
273746,"1825 39TH AVE","VERO BEACH","FL",32960,27.635438777,-80.425565362,246,"1825 39TH AVE, VERO BEACH, FL, 32960","Match","Exact","1825 39TH AVE, VERO BEACH, FL, 32960",120316120,"L"
273747,"1825 3RD ST SE","MOULTRIE","GA",31768,31.155225842,-83.7848722689999,247,"1825 3RD ST SE, MOULTRIE, GA, 31768","Match","Exact","1825 3RD ST SE, MOULTRIE, GA, 31768",84234697,"R"
273748,"1825 7TH STREET NW APT 407","WASHINGTON","DC",20001,38.914513502,-77.021906239,248,"1825 7TH STREET NW APT 407, WASHINGTON, DC, 20001","Match","Exact","1825 7TH ST NW, WASHINGTON, DC, 20001",76224406,"R"
273749,"1825 7TH STREET NW","WASHINGTON","DC",20001,38.914513502,-77.021906239,249,"1825 7TH STREET NW, WASHINGTON, DC, 20001","Match","Exact","1825 7TH ST NW, WASHINGTON, DC, 20001",76224406,"R"
273750,"1825 8TH ST NW","WASHINGTON","DC",20001,38.914513486,-77.02293456,250,"1825 8TH ST NW, WASHINGTON, DC, 20001","Match","Exact","1825 8TH ST NW, WASHINGTON, DC, 20001",76224400,"R"
273751,"1825 8TH STREET N","JACKSONVILLE BEACH","FL",32250,NA,NA,251,"1825 8TH STREET N, JACKSONVILLE BEACH, FL, 32250","No_Match",NA,NA,NA,NA
273752,"1825 AFFIRMED CIRCLE","BOWLING GREEN","KY",42104,36.9217092370001,-86.4709921909999,252,"1825 AFFIRMED CIRCLE, BOWLING GREEN, KY, 42104","Match","Exact","1825 AFFIRMED CIR, BOWLING GREEN, KY, 42104",634020588,"R"
273753,"1825 ASHLAND ROAD","MANSFIELD","OH",44905,40.7918459970001,-82.448197744,253,"1825 ASHLAND ROAD, MANSFIELD, OH, 44905","Match","Exact","1825 ASHLAND RD, MANSFIELD, OH, 44905",615739909,"L"
273754,"1825 AVENIDA SAN LORENZO","FULLERTON","CA",92833,33.8952259590001,-117.954615439,254,"1825 AVENIDA SAN LORENZO, FULLERTON, CA, 92833","Match","Non_Exact","1825 W AVE SAN LORENZO, FULLERTON, CA, 92833",144008325,"R"
273755,"1825 AVIGNON LANE","MODESTO","CA",95356,37.7036008320001,-121.025475999,255,"1825 AVIGNON LANE, MODESTO, CA, 95356","Match","Exact","1825 AVIGNON LN, MODESTO, CA, 95356",102633610,"R"
273756,"1825 BAIRSFORD DRIVE","COLUMBUS","OH",43232,39.9402895160001,-82.8457184979999,256,"1825 BAIRSFORD DRIVE, COLUMBUS, OH, 43232","Match","Exact","1825 BAIRSFORD DR, COLUMBUS, OH, 43232",135593913,"R"
273757,"1825 BEACON RIDGE RD APT 101","CHARLOTTE","NC",28210,35.1590440800001,-80.8760546459999,257,"1825 BEACON RIDGE RD APT 101, CHARLOTTE, NC, 28210","Match","Exact","1825 BEACON RIDGE RD, CHARLOTTE, NC, 28210",70508794,"R"
273758,"1825 BEAUVOIR LAKE DRIVE","MONTGOMERY","AL",36117,32.3559063430001,-86.195549181,258,"1825 BEAUVOIR LAKE DRIVE, MONTGOMERY, AL, 36117","Match","Exact","1825 BEAUVOIR LAKE DR, MONTGOMERY, AL, 36117",1526434,"R"
273759,"1825 BEAVER ST","SANTA ROSA","CA",95405,38.4576204790001,-122.711631955,259,"1825 BEAVER ST, SANTA ROSA, CA, 95405","Match","Non_Exact","1825 BEAVER ST, SANTA ROSA, CA, 95404",67468769,"L"
273760,"1825 BELLAIRE DR","CASPER","WY",82604,42.8328523270001,-106.348315755,260,"1825 BELLAIRE DR, CASPER, WY, 82604","Match","Exact","1825 BELLAIRE DR, CASPER, WY, 82604",607716569,"L"
273761,"1825 BELLEVILLE ROAD","ROANOKE","VA",24015,37.260360104,-79.981429094,261,"1825 BELLEVILLE ROAD, ROANOKE, VA, 24015","Match","Non_Exact","1825 BELLEVILLE RD SW, ROANOKE, VA, 24015",62939081,"L"
273762,"1825 BEVERLY DR","LANCASTER","PA",17601,40.074649584,-76.305107777,262,"1825 BEVERLY DR, LANCASTER, PA, 17601","Match","Exact","1825 BEVERLY DR, LANCASTER, PA, 17601",179662243,"R"
273763,"1825 BOYD CT","CARROLLTON","TX",75010,33.0187360240001,-96.9409652699999,263,"1825 BOYD CT, CARROLLTON, TX, 75010","Match","Exact","1825 BOYD CT, CARROLLTON, TX, 75010",103383746,"L"
273764,"1825 BRANT BLVD","LINCOLN","NE",68502,NA,NA,264,"1825 BRANT BLVD, LINCOLN, NE, 68502","No_Match",NA,NA,NA,NA
273765,"1825 BRIAR CLIFF ROAD","RAINBOW CITY","AL",35906,33.903295681,-86.080395848,265,"1825 BRIAR CLIFF ROAD, RAINBOW CITY, AL, 35906","Match","Exact","1825 BRIAR CLIFF RD, RAINBOW CITY, AL, 35906",66768958,"L"
273766,"1825 BRIDGETOWN PK  APT 502","FEASTERVILLE","PA",19053,NA,NA,266,"1825 BRIDGETOWN PK  APT 502, FEASTERVILLE, PA, 19053","No_Match",NA,NA,NA,NA
273767,"1825 BURNT MILL RD","ROCKY MOUNT","NC",27804,35.9920196460001,-77.8128603009999,267,"1825 BURNT MILL RD, ROCKY MOUNT, NC, 27804","Match","Exact","1825 BURNT MILL RD, ROCKY MOUNT, NC, 27804",90398789,"R"
273768,"1825 CALLOWAY DRIVE NW","ATLANTA","GA",30314,33.757963467,-84.4465971559999,268,"1825 CALLOWAY DRIVE NW, ATLANTA, GA, 30314","Match","Exact","1825 CALLOWAY DR NW, ATLANTA, GA, 30314",17340304,"R"
273769,"1825 CANYON DRIVE APT 5","LOS ANGELES","CA",90028,34.102761419,-118.316115364,269,"1825 CANYON DRIVE APT 5, LOS ANGELES, CA, 90028","Match","Exact","1825 CANYON DR, LOS ANGELES, CA, 90028",141597147,"L"
273770,"1825 CAPITOL AVE 2A","SACRAMENTO","CA",95811,38.5739836760001,-121.483612987,270,"1825 CAPITOL AVE 2A, SACRAMENTO, CA, 95811","Match","Exact","1825 CAPITOL AVE, SACRAMENTO, CA, 95811",133324204,"L"
273771,"1825 CARDINAL DRIVE - APT 3","CHATHAM","IL",62629,39.697245014,-89.708825173,271,"1825 CARDINAL DRIVE - APT 3, CHATHAM, IL, 62629","Match","Exact","1825 CARDINAL DR, CHATHAM, IL, 62629",640037477,"R"
273772,"1825 CEDAR LAKE DR","ORLANDO","FL",32824,28.3542474500001,-81.34763351,272,"1825 CEDAR LAKE DR, ORLANDO, FL, 32824","Match","Exact","1825 CEDAR LAKE DR, ORLANDO, FL, 32824",634028360,"R"
273773,"1825 CHAPARRO","LAS CRUCES","NM",88001,32.2926934870001,-106.758654634,273,"1825 CHAPARRO, LAS CRUCES, NM, 88001","Match","Non_Exact","1825 CHAPARRO ST, LAS CRUCES, NM, 88001",189545827,"L"
273774,"1825 CHATFIELD DR","HIGH POINT","NC",27260,NA,NA,274,"1825 CHATFIELD DR, HIGH POINT, NC, 27260","No_Match",NA,NA,NA,NA
273775,"1825 CLEMENS WAY","LOMPOC","CA",93436,NA,NA,275,"1825 CLEMENS WAY, LOMPOC, CA, 93436","No_Match",NA,NA,NA,NA
273776,"1825 COMARRON  TRAIL","HURST","TX",76054,NA,NA,276,"1825 COMARRON  TRAIL, HURST, TX, 76054","No_Match",NA,NA,NA,NA
273777,"1825 COOK ROAD","CONYERS","GA",30054,NA,NA,277,"1825 COOK ROAD, CONYERS, GA, 30054","No_Match",NA,NA,NA,NA
273778,"1825 COURTLAND","PARK RIDGE","IL",60068,41.9879884060001,-87.8315762079999,278,"1825 COURTLAND, PARK RIDGE, IL, 60068","Match","Non_Exact","1825 COURTLAND AVE, PARK RIDGE, IL, 60068",111733567,"L"
273779,"1825 DAHLIA DR","CUMMING","GA",30040,NA,NA,279,"1825 DAHLIA DR, CUMMING, GA, 30040","No_Match",NA,NA,NA,NA
273780,"1825 DEANNA DR","APOPKA","FL",32703,28.678145833,-81.475273697,280,"1825 DEANNA DR, APOPKA, FL, 32703","Match","Exact","1825 DEANNA DR, APOPKA, FL, 32703",94262352,"L"
273781,"1825 DEL PASO ROAD","SACRAMENTO","CA",95815,38.656098811,-121.504680858,281,"1825 DEL PASO ROAD, SACRAMENTO, CA, 95815","Match","Non_Exact","1825 DEL PASO RD, SACRAMENTO, CA, 95835",133407864,"R"
273782,"1825 DEL PRADO DR","BROWNSVILLE","TX",78521,25.8794206170001,-97.4440749939999,282,"1825 DEL PRADO DR, BROWNSVILLE, TX, 78521","Match","Exact","1825 DEL PRADO DR, BROWNSVILLE, TX, 78521",89968737,"R"
273783,"1825 DELWOOD DRIVE","ABILENE","TX",79603,32.471255937,-99.774674056,283,"1825 DELWOOD DRIVE, ABILENE, TX, 79603","Match","Exact","1825 DELWOOD DR, ABILENE, TX, 79603",129956826,"R"
273784,"1825 DERBY LOOP DR","FAIRBURN","GA",30218,NA,NA,284,"1825 DERBY LOOP DR, FAIRBURN, GA, 30218","No_Match",NA,NA,NA,NA
273785,"1825 DINKEY ROAD","ANDREAS","PA",18211,NA,NA,285,"1825 DINKEY ROAD, ANDREAS, PA, 18211","No_Match",NA,NA,NA,NA
273786,"1825 DOGWOOD COURT","KOKOMO","IN",46902,40.4651130010001,-86.1178945469999,286,"1825 DOGWOOD COURT, KOKOMO, IN, 46902","Match","Non_Exact","1825 DOGWOOD DR, KOKOMO, IN, 46902",27268720,"R"
273787,"1825 DUNNWOOD WAY","OREGON","WI",53575,42.9439480670001,-89.30841771,287,"1825 DUNNWOOD WAY, OREGON, WI, 53575","Match","Exact","1825 DUNNWOOD WAY, OREGON, WI, 53575",49478033,"R"
273788,"1825 E 109TH AVE","TAMPA","FL",33612,28.0471806840001,-82.4390255769999,288,"1825 E 109TH AVE, TAMPA, FL, 33612","Match","Exact","1825 E 109TH AVE, TAMPA, FL, 33612",104518990,"R"
273789,"1825 E 16TH ST","KANSAS CITY","MO",64127,39.0930738260001,-94.559850073,289,"1825 E 16TH ST, KANSAS CITY, MO, 64127","Match","Non_Exact","1825 E 16TH TER, KANSAS CITY, MO, 64127",91449121,"R"
273790,"1825 E 29TH ST","MUNCIE","IN",47302,40.1602282360001,-85.365713023,290,"1825 E 29TH ST, MUNCIE, IN, 47302","Match","Exact","1825 E 29TH ST, MUNCIE, IN, 47302",635551827,"R"
273791,"1825 E BASSWOOD","MOUNT PROSPECT","IL",60056,42.0854877580001,-87.9021045649999,291,"1825 E BASSWOOD, MOUNT PROSPECT, IL, 60056","Match","Non_Exact","1825 E BASSWOOD LN, MOUNT PROSPECT, IL, 60056",111722156,"R"
273792,"1825 E BROADWAY APT 5","LONG BEACH","CA",90802,33.767479119,-118.1693501,292,"1825 E BROADWAY APT 5, LONG BEACH, CA, 90802","Match","Non_Exact","1825 E BROADWAY, LONG BEACH, CA, 90802",141701334,"L"
273793,"1825 E KENWOOD STREET","MESA","AZ",85203,33.453924714,-111.791913775,293,"1825 E KENWOOD STREET, MESA, AZ, 85203","Match","Exact","1825 E KENWOOD ST, MESA, AZ, 85203",128971477,"R"
273794,"1825 E STREET","WASHOUGAL","WA",98671,45.581105151,-122.352419042,294,"1825 E STREET, WASHOUGAL, WA, 98671","Match","Exact","1825 E ST, WASHOUGAL, WA, 98671",158345481,"L"
273795,"1825 EAST CNTY RD 1600","CARTHAGE","IL",62321,40.431276176,-91.158125107,295,"1825 EAST CNTY RD 1600, CARTHAGE, IL, 62321","Match","Exact","1825 E CO RD 1600, CARTHAGE, IL, 62321",5314349,"L"
273796,"1825 EAST MARSHALL ST APT 321","RICHMOND","VA",23223,37.536229238,-77.424052355,296,"1825 EAST MARSHALL ST APT 321, RICHMOND, VA, 23223","Match","Exact","1825 E MARSHALL ST, RICHMOND, VA, 23223",201541094,"R"
273797,"1825 EAST NORTHERN PARKWAY","BALTIMORE","MD",21239,39.3668014900001,-76.581985275,297,"1825 EAST NORTHERN PARKWAY, BALTIMORE, MD, 21239","Match","Exact","1825 E NORTHERN PKWY, BALTIMORE, MD, 21239",206447673,"L"
273798,"1825 EAST WEST RD HK 411A","HONOLULU","HI",96822,21.30064171,-157.814569538,298,"1825 EAST WEST RD HK 411A, HONOLULU, HI, 96822","Match","Non_Exact","1825 E WEST RD, HONOLULU, HI, 96848",203238093,"R"
273799,"1825 EDEN TERRACE","ROCK HILL","SC",29730,34.9575621830001,-81.004061263,299,"1825 EDEN TERRACE, ROCK HILL, SC, 29730","Match","Exact","1825 EDEN TER, ROCK HILL, SC, 29730",19791827,"L"
273800,"1825 ENON PINES DR","ATLANTA","GA",30331,33.702096904,-84.552805091,300,"1825 ENON PINES DR, ATLANTA, GA, 30331","Match","Non_Exact","1825 ENON PINES DR SW, ATLANTA, GA, 30331",17386038,"R"
273801,"1825 ESCOBAR","DELTONA","FL",32725,28.913708581,-81.2625899339999,301,"1825 ESCOBAR, DELTONA, FL, 32725","Match","Non_Exact","1825 ESCOBAR AVE, DELTONA, FL, 32725",94518908,"L"
273802,"1825 EVON LANE","SANTA ANA","CA",92706,33.76849206,-117.895138337,302,"1825 EVON LANE, SANTA ANA, CA, 92706","Match","Exact","1825 EVON LN, SANTA ANA, CA, 92706",144040142,"R"
273803,"1825 FAWN COURT","ARBOR VITAE","WI",54568,45.939450563,-89.6750973969999,303,"1825 FAWN COURT, ARBOR VITAE, WI, 54568","Match","Exact","1825 FAWN CT, ARBOR VITAE, WI, 54568",165547774,"L"
273804,"1825 FERNEY CREEK ROAD NW","WILLIS","VA",24380,36.904639461,-80.442150936,304,"1825 FERNEY CREEK ROAD NW, WILLIS, VA, 24380","Match","Exact","1825 FERNEY CREEK RD NW, WILLIS, VA, 24380",79782153,"L"
273805,"1825 FLOYD AVENUE","DELAND","CA",32720,NA,NA,305,"1825 FLOYD AVENUE, DELAND, CA, 32720","No_Match",NA,NA,NA,NA
273806,"1825 FM 2438","SEGUIN","TX",78155,29.582207705,-97.850501654,306,"1825 FM 2438, SEGUIN, TX, 78155","Match","Exact","1825 FM 2438, SEGUIN, TX, 78155",54822144,"R"
273807,"1825 FOGGY BOTTOM CT","SUNDERLAND","MD",20689,38.6541111120001,-76.571483395,307,"1825 FOGGY BOTTOM CT, SUNDERLAND, MD, 20689","Match","Exact","1825 FOGGY BOTTOM CT, SUNDERLAND, MD, 20689",635324057,"R"
273808,"1825 FOREST HILL DRIVE","BARTOW","FL",33830,27.915017865,-81.8382535279999,308,"1825 FOREST HILL DRIVE, BARTOW, FL, 33830","Match","Exact","1825 FOREST HILL DR, BARTOW, FL, 33830",646949263,"R"
273809,"1825 FORMOSA LN","MCDONOUGH","GA",30253,NA,NA,309,"1825 FORMOSA LN, MCDONOUGH, GA, 30253","No_Match",NA,NA,NA,NA
273810,"1825 FORT VIEW SUITE 101","1825 FORT VIEW SUITE","TX",78704,NA,NA,310,"1825 FORT VIEW SUITE 101, 1825 FORT VIEW SUITE, TX, 78704","No_Match",NA,NA,NA,NA
273811,"1825 FORT VIEW SUITE 101","AUSTIN","TX",78704,30.2302035970001,-97.785996434,311,"1825 FORT VIEW SUITE 101, AUSTIN, TX, 78704","Match","Non_Exact","1825 FORT VIEW RD, AUSTIN, TX, 78704",63943996,"L"
273812,"1825 FOSTER AVENUE 6J","BROOKLYN","NY",11230,40.6354883270001,-73.960158351,312,"1825 FOSTER AVENUE 6J, BROOKLYN, NY, 11230","Match","Exact","1825 FOSTER AVE, BROOKLYN, NY, 11230",642653691,"L"
273813,"1825 FRANKFORT AVENUE","LOUISVILLE","KY",40206,38.256463033,-85.7155988069999,313,"1825 FRANKFORT AVENUE, LOUISVILLE, KY, 40206","Match","Exact","1825 FRANKFORT AVE, LOUISVILLE, KY, 40206",96845609,"L"
273814,"1825 FREELAND ROAD","FREELAND","MD",21053,39.6925000350001,-76.708893669,314,"1825 FREELAND ROAD, FREELAND, MD, 21053","Match","Exact","1825 FREELAND RD, FREELAND, MD, 21053",191463800,"L"
273815,"1825 GALINDO","CONCORD","AZ",94520,NA,NA,315,"1825 GALINDO, CONCORD, AZ, 94520","No_Match",NA,NA,NA,NA
273816,"1825 GAME RIDGE ROAD","SMITHVILLE","TN",37166,35.950006972,-85.86267688,316,"1825 GAME RIDGE ROAD, SMITHVILLE, TN, 37166","Match","Exact","1825 GAME RIDGE RD, SMITHVILLE, TN, 37166",34196718,"L"
273817,"1825 GENERAL PERSHING APARTMENT 5","NEW ORLEANS","LA",70115,29.9288917810001,-90.101003068,317,"1825 GENERAL PERSHING APARTMENT 5, NEW ORLEANS, LA, 70115","Match","Non_Exact","1825 GENERAL PERSHING ST, NEW ORLEANS, LA, 70115",191711846,"R"
273818,"1825 GEORGES LANE","PHILADELPHIA","PA",19131,39.985187087,-75.229767607,318,"1825 GEORGES LANE, PHILADELPHIA, PA, 19131","Match","Exact","1825 GEORGES LN, PHILADELPHIA, PA, 19131",131398057,"R"
273819,"1825 GOSNOLD LANE","HAMPTON","VA",23665,37.100980151,-76.433946764,319,"1825 GOSNOLD LANE, HAMPTON, VA, 23665","Match","Exact","1825 GOSNOLD LN, HAMPTON, VA, 23665",641154912,"L"
273820,"1825 GRAND BAY DRIVE","VIRGINIA BEACH","VA",23546,36.7803585610001,-76.123517739,320,"1825 GRAND BAY DRIVE, VIRGINIA BEACH, VA, 23546","Match","Non_Exact","1825 GRAND BAY DR, VA BCH, VA, 23456",122287536,"L"
273821,"1825 GREAT WATER LANE","LAWRENCEVILLE","GA",30043,34.011233813,-83.945252297,321,"1825 GREAT WATER LANE, LAWRENCEVILLE, GA, 30043","Match","Exact","1825 GREAT WATER LN, LAWRENCEVILLE, GA, 30043",88959291,"R"
273822,"1825 GROVE POINT RD APT 314","SAVANNAH","GA",31419,31.98619882,-81.223887173,322,"1825 GROVE POINT RD APT 314, SAVANNAH, GA, 31419","Match","Exact","1825 GROVE POINT RD, SAVANNAH, GA, 31419",642062147,"L"
273823,"1825 GROVE POINT RD","SAVANNAH","GA",31319,31.98619882,-81.223887173,323,"1825 GROVE POINT RD, SAVANNAH, GA, 31319","Match","Non_Exact","1825 GROVE POINT RD, SAVANNAH, GA, 31419",642062147,"L"
273824,"1825 HACKETT CREEK","MCKINNEY","TX",75070,NA,NA,324,"1825 HACKETT CREEK, MCKINNEY, TX, 75070","No_Match",NA,NA,NA,NA
273825,"1825 HARBOUR BLUE STREET","RUSKIN","FL",33570,27.734351271,-82.409082052,325,"1825 HARBOUR BLUE STREET, RUSKIN, FL, 33570","Match","Exact","1825 HARBOUR BLUE ST, RUSKIN, FL, 33570",646593503,"R"
273826,"1825 HARTSFIELD RD","TALLAHASSEE","FL",32303,30.4730105,-84.31737435,326,"1825 HARTSFIELD RD, TALLAHASSEE, FL, 32303","Match","Exact","1825 HARTSFIELD RD, TALLAHASSEE, FL, 32303",82866270,"L"
273827,"1825 HAWKINS COURT","SARASOTA","FL",34236,27.333033959,-82.534189587,327,"1825 HAWKINS COURT, SARASOTA, FL, 34236","Match","Exact","1825 HAWKINS CT, SARASOTA, FL, 34236",16414788,"L"
273828,"1825 HEATHER COVE CT","HOUSTON","TX",77062,29.5883931820001,-95.145782851,328,"1825 HEATHER COVE CT, HOUSTON, TX, 77062","Match","Exact","1825 HEATHER COVE CT, HOUSTON, TX, 77062",96545133,"L"
273829,"1825 INDIGO","HOWARD","KS",67349,37.4317544350001,-96.2399853209999,329,"1825 INDIGO, HOWARD, KS, 67349","Match","Non_Exact","1825 INDIGO RD, HOWARD, KS, 67349",628618917,"R"
273830,"1825 ISLAND CREEK ROAD","HUDDLESTON","VA",24104,37.2431804760001,-79.401126188,330,"1825 ISLAND CREEK ROAD, HUDDLESTON, VA, 24104","Match","Exact","1825 ISLAND CREEK RD, HUDDLESTON, VA, 24104",636665015,"L"
273831,"1825 IVYSTONE DR","RICHMOND","VA",23238,37.613376767,-77.598597274,331,"1825 IVYSTONE DR, RICHMOND, VA, 23238","Match","Exact","1825 IVYSTONE DR, RICHMOND, VA, 23238",635749410,"L"
273832,"1825 JAMES HOWE RD","DALLAS","OR",97338,44.961121527,-123.343172063,332,"1825 JAMES HOWE RD, DALLAS, OR, 97338","Match","Exact","1825 JAMES HOWE RD, DALLAS, OR, 97338",155771454,"L"
273833,"1825 K ST SE","AUBURN","WA",98002,47.291588265,-122.216066914,333,"1825 K ST SE, AUBURN, WA, 98002","Match","Exact","1825 K ST SE, AUBURN, WA, 98002",186679552,"R"
273834,"1825 KEARNEY AVE","CASPER","WY",82604,42.831182294,-106.359013319,334,"1825 KEARNEY AVE, CASPER, WY, 82604","Match","Exact","1825 KEARNEY AVE, CASPER, WY, 82604",149021948,"L"
273835,"1825 KINGS ROAD","GERING","NE",69341,41.831916436,-103.671497185,335,"1825 KINGS ROAD, GERING, NE, 69341","Match","Exact","1825 KINGS RD, GERING, NE, 69341",160064183,"R"
273836,"1825 LAMPWICK PL","TOLEDO","OH",43614,NA,NA,336,"1825 LAMPWICK PL, TOLEDO, OH, 43614","No_Match",NA,NA,NA,NA
273837,"1825 LANGHAM FOREST BLVD","ORANGE","TX",77630,30.0714864400001,-93.9234392769999,337,"1825 LANGHAM FOREST BLVD, ORANGE, TX, 77630","Match","Exact","1825 LANGHAM FOREST BLVD, ORANGE, TX, 77630",74048734,"L"
273838,"1825 LEE HALL","SAN ANTONIO","TX",78201,29.4760640870001,-98.5247602599999,338,"1825 LEE HALL, SAN ANTONIO, TX, 78201","Match","Non_Exact","1825 LEE HALL ST, SAN ANTONIO, TX, 78201",101513303,"R"
273839,"1825 LIBERTY RD APT135","LEXINGTON","KY",40505,38.0324990390001,-84.458833243,339,"1825 LIBERTY RD APT135, LEXINGTON, KY, 40505","Match","Exact","1825 LIBERTY RD, LEXINGTON, KY, 40505",31947333,"L"
273840,"1825 LIBERTY ROAD APT 518","LEXINGTON","KY",40505,38.0324990390001,-84.458833243,340,"1825 LIBERTY ROAD APT 518, LEXINGTON, KY, 40505","Match","Exact","1825 LIBERTY RD, LEXINGTON, KY, 40505",31947333,"L"
273841,"1825 MADISON AVE 5H","NEW YORK","NY",10035,40.801793155,-73.94351986,341,"1825 MADISON AVE 5H, NEW YORK, NY, 10035","Match","Exact","1825 MADISON AVE, NEW YORK, NY, 10035",59658001,"R"
273842,"1825 MARKET CENTER BLVD 425","DALLAS","TX",75207,32.7946735790001,-96.823160269,342,"1825 MARKET CENTER BLVD 425, DALLAS, TX, 75207","Match","Exact","1825 MARKET CENTER BLVD, DALLAS, TX, 75207",102905168,"L"
273843,"1825 MARSHALL AVE","WILLIAMSPORT","PA",17701,41.293220988,-77.054604307,343,"1825 MARSHALL AVE, WILLIAMSPORT, PA, 17701","Match","Exact","1825 MARSHALL AVE, WILLIAMSPORT, PA, 17701",59482333,"R"
273844,"1825 MCENTIRE CIRCLE","CHATSWORTH","GA",30705,34.883855403,-84.7885410489999,344,"1825 MCENTIRE CIRCLE, CHATSWORTH, GA, 30705","Match","Exact","1825 MCENTIRE CIR, CHATSWORTH, GA, 30705",57116609,"R"
273845,"1825 MCLAUGHLIN RUN ROAD","UPPER ST CLAIR","PA",15241,40.335523589,-80.073612054,345,"1825 MCLAUGHLIN RUN ROAD, UPPER ST CLAIR, PA, 15241","Match","Exact","1825 MCLAUGHLIN RUN RD, UPPER SAINT CLAIR, PA, 15241",51656616,"L"
273846,"1825 MERCURY WAY","SACRAMENTO","CA",95864,38.597206704,-121.360818855,346,"1825 MERCURY WAY, SACRAMENTO, CA, 95864","Match","Exact","1825 MERCURY WAY, SACRAMENTO, CA, 95864",133339049,"L"
273847,"1825 MICHELTORENA STREET","LOS ANGELES","CA",90026,34.0933399470001,-118.272168142,347,"1825 MICHELTORENA STREET, LOS ANGELES, CA, 90026","Match","Exact","1825 MICHELTORENA ST, LOS ANGELES, CA, 90026",141615625,"L"
273848,"1825 MOHAWK DR","OWENSBORO","KY",42301,37.745210652,-87.1312117149999,348,"1825 MOHAWK DR, OWENSBORO, KY, 42301","Match","Exact","1825 MOHAWK DR, OWENSBORO, KY, 42301",37558735,"R"
273849,"1825 MORNINGSIDE TRAIL","ELBERTON","GA",30635,34.0692707540001,-82.8459885629999,349,"1825 MORNINGSIDE TRAIL, ELBERTON, GA, 30635","Match","Exact","1825 MORNINGSIDE TRL, ELBERTON, GA, 30635",22966176,"L"
273850,"1825 MOTT AVENUE","FAR ROCKAWAY","NY",11691,NA,NA,350,"1825 MOTT AVENUE, FAR ROCKAWAY, NY, 11691","No_Match",NA,NA,NA,NA
273851,"1825 MOUNTAIN DRIVE","MILLVILLE","NJ",8332,39.4050344240001,-74.9985287489999,351,"1825 MOUNTAIN DRIVE, MILLVILLE, NJ, 8332","Match","Exact","1825 MOUNTAIN DR, MILLVILLE, NJ, 08332",174115930,"R"
273852,"1825 MUNSTER AVENUE","SAINT PAUL","MN",55116,44.8998481150001,-93.17759633,352,"1825 MUNSTER AVENUE, SAINT PAUL, MN, 55116","Match","Exact","1825 MUNSTER AVE, SAINT PAUL, MN, 55116",97647353,"R"
273853,"1825 N MANSARD APT 2I","GRIFFITH","IN",46319,NA,NA,353,"1825 N MANSARD APT 2I, GRIFFITH, IN, 46319","No_Match",NA,NA,NA,NA
273854,"1825 N OLEANDER RD","AVON PARK","FL",33825,27.6209546900001,-81.522640748,354,"1825 N OLEANDER RD, AVON PARK, FL, 33825","Match","Non_Exact","1825 N OLEANDER DR, AVON PARK, FL, 33825",648547764,"L"
273855,"1825 N OLEANDER","AVON PARK","FL",33825,27.6209546900001,-81.522640748,355,"1825 N OLEANDER, AVON PARK, FL, 33825","Match","Non_Exact","1825 N OLEANDER DR, AVON PARK, FL, 33825",648547764,"L"
273856,"1825 N PARK AVE","MOUNT PROSPECT","IL",60056,NA,NA,356,"1825 N PARK AVE, MOUNT PROSPECT, IL, 60056","Tie",NA,NA,NA,NA
273857,"1825 N SALIERNO CT","VISALIA","CA",93291,36.3460921440001,-119.352210318,357,"1825 N SALIERNO CT, VISALIA, CA, 93291","Match","Exact","1825 N SALIERNO CT, VISALIA, CA, 93291",202808408,"R"
273858,"1825 N SHEFFORD CIRCLE","WICHITA","KS",67212,37.717162106,-97.4699188009999,358,"1825 N SHEFFORD CIRCLE, WICHITA, KS, 67212","Match","Exact","1825 N SHEFFORD CIR, WICHITA, KS, 67212",115667629,"R"
273859,"1825 N VERMONT NUM 29312","LOS ANGELES","CA",90027,NA,NA,359,"1825 N VERMONT NUM 29312, LOS ANGELES, CA, 90027","No_Match",NA,NA,NA,NA
273860,"1825 NE 50TH AVE","PORTLAND","OR",97213,45.535962043,-122.611942728,360,"1825 NE 50TH AVE, PORTLAND, OR, 97213","Match","Exact","1825 NE 50TH AVE, PORTLAND, OR, 97213",157512042,"L"
273861,"1825 NIMITZ DRIVE SUITE A","DE PERE","WI",54115,44.427790858,-88.1202466949999,361,"1825 NIMITZ DRIVE SUITE A, DE PERE, WI, 54115","Match","Exact","1825 NIMITZ DR, DE PERE, WI, 54115",640691626,"L"
273862,"1825 NORTH BELLFLOWER BOULEVARD","LONG BEACH","CA",90815,33.789062275,-118.124699583,362,"1825 NORTH BELLFLOWER BOULEVARD, LONG BEACH, CA, 90815","Match","Exact","1825 N BELLFLOWER BLVD, LONG BEACH, CA, 90815",141754915,"L"
273863,"1825 NORTH ROSE ST","BURBANK","CA",91505,34.1817691030001,-118.356555093,363,"1825 NORTH ROSE ST, BURBANK, CA, 91505","Match","Exact","1825 N ROSE ST, BURBANK, CA, 91505",142725259,"L"
273864,"1825 NORTHRIDGE DR","TERRELL","TX",75160,32.7614968880001,-96.271575207,364,"1825 NORTHRIDGE DR, TERRELL, TX, 75160","Match","Exact","1825 NORTHRIDGE DR, TERRELL, TX, 75160",635277960,"L"
273865,"1825 NW 30TH ST","OKLAHOMA CITY","OK",73118,35.5005434930001,-97.542576606,365,"1825 NW 30TH ST, OKLAHOMA CITY, OK, 73118","Match","Exact","1825 NW 30TH ST, OKLAHOMA CITY, OK, 73118",637605688,"R"
273866,"1825 NW 30TH STREET","OKLAHOMA CITY","OK",73118,35.5005434930001,-97.542576606,366,"1825 NW 30TH STREET, OKLAHOMA CITY, OK, 73118","Match","Exact","1825 NW 30TH ST, OKLAHOMA CITY, OK, 73118",637605688,"R"
273867,"1825 NW ARCADIA DRIVE","PULLMAN","WA",99163,46.7446134370001,-117.19134432,367,"1825 NW ARCADIA DRIVE, PULLMAN, WA, 99163","Match","Exact","1825 ARCADIA DR, PULLMAN, WA, 99163",173318986,"R"
273868,"1825 NW CORPORATE BLVD 110","BOCA RATON","FL",33431,26.370715719,-80.122296116,368,"1825 NW CORPORATE BLVD 110, BOCA RATON, FL, 33431","Match","Non_Exact","1825 NW CORPORATE BLVD, BOCA RATON, FL, 33431",115301905,"R"
273869,"1825 NW CORPORATE BLVD STE 110","BOCA RATON","FL",33431,26.370715719,-80.122296116,369,"1825 NW CORPORATE BLVD STE 110, BOCA RATON, FL, 33431","Match","Non_Exact","1825 NW CORPORATE BLVD, BOCA RATON, FL, 33431",115301905,"R"
273870,"1825 OCEAN BEACH BLVD","LONGVIEW","WA",98632,46.146397704,-122.938032033,370,"1825 OCEAN BEACH BLVD, LONGVIEW, WA, 98632","Match","Non_Exact","1825 OCEAN BEACH HWY, LONGVIEW, WA, 98632",607049803,"L"
273871,"1825 OKRA RD","FAIRFIELD","IA",52556,41.042380183,-91.90094153,371,"1825 OKRA RD, FAIRFIELD, IA, 52556","Match","Non_Exact","1825 OKRA BLVD, FAIRFIELD, IA, 52556",84430991,"R"
273872,"1825 OLD CONCORD SALISBURY RD","CONCORD","NC",28025,NA,NA,372,"1825 OLD CONCORD SALISBURY RD, CONCORD, NC, 28025","No_Match",NA,NA,NA,NA
273873,"1825 OLD REIDSVILLE-COLLINS ROAD","COLLINS","GA",30421,32.122803402,-82.097155274,373,"1825 OLD REIDSVILLE-COLLINS ROAD, COLLINS, GA, 30421","Match","Exact","1825 OLD REIDSVILLE-COLLINS RD, COLLINS, GA, 30421",4738662,"L"
273874,"1825 PADDOCK LANE","TURLOCK","CA",95382,37.509812267,-120.81775591,374,"1825 PADDOCK LANE, TURLOCK, CA, 95382","Match","Exact","1825 PADDOCK LN, TURLOCK, CA, 95382",102613316,"L"
273875,"1825 PALMCROFT DR NW","PHOENIX","AZ",85007,33.4681383120001,-112.085928098,375,"1825 PALMCROFT DR NW, PHOENIX, AZ, 85007","Match","Exact","1825 PALMCROFT DR NW, PHOENIX, AZ, 85007",128211358,"R"
273876,"1825 PALOMINO DRIVE","WEST COVINA","CA",91791,34.043909152,-117.906628645,376,"1825 PALOMINO DRIVE, WEST COVINA, CA, 91791","Match","Non_Exact","1825 PALOMINO, WEST COVINA, CA, 91791",142842513,"L"
273877,"1825 PARK AVENUE","NEW YORK","NY",10035,40.805237128,-73.938895648,377,"1825 PARK AVENUE, NEW YORK, NY, 10035","Match","Exact","1825 PARK AVE, NEW YORK, NY, 10035",59658081,"R"
273878,"1825 PARK BLVD","PALO ALTO","CA",94306,37.43131584,-122.149050924,378,"1825 PARK BLVD, PALO ALTO, CA, 94306","Match","Exact","1825 PARK BLVD, PALO ALTO, CA, 94306",122950851,"L"
273879,"1825 PARKER RD - APT 208","CONYERS","GA",30094,33.6425806600001,-84.0221560699999,379,"1825 PARKER RD - APT 208, CONYERS, GA, 30094","Match","Non_Exact","1825 PARKER RD SE, CONYERS, GA, 30094",622180210,"R"
273880,"1825 PARKER RD APT 1219","CONYERS","GA",30094,33.6425806600001,-84.0221560699999,380,"1825 PARKER RD APT 1219, CONYERS, GA, 30094","Match","Non_Exact","1825 PARKER RD SE, CONYERS, GA, 30094",622180210,"R"
273881,"1825 PARKER RD SE APT 312","CONYERS","GA",30094,33.6425806600001,-84.0221560699999,381,"1825 PARKER RD SE APT 312, CONYERS, GA, 30094","Match","Exact","1825 PARKER RD SE, CONYERS, GA, 30094",622180210,"R"
273882,"1825 PARKER RD SE","CONYERS","GA",30094,33.6425806600001,-84.0221560699999,382,"1825 PARKER RD SE, CONYERS, GA, 30094","Match","Exact","1825 PARKER RD SE, CONYERS, GA, 30094",622180210,"R"
273883,"1825 PARKER ROAD SE APT 1407","CONYERS","GA",30094,33.6425806600001,-84.0221560699999,383,"1825 PARKER ROAD SE APT 1407, CONYERS, GA, 30094","Match","Exact","1825 PARKER RD SE, CONYERS, GA, 30094",622180210,"R"
273884,"1825 PAVAS COURT","ROWLAND HEIGHTS","CA",91748,33.988140086,-117.910748126,384,"1825 PAVAS COURT, ROWLAND HEIGHTS, CA, 91748","Match","Exact","1825 PAVAS CT, ROWLAND HEIGHTS, CA, 91748",142801346,"L"
273885,"1825 PEACEFUL HILLS ROAD","DIAMOND BAR","CA",91789,33.9878672150001,-117.849728396,385,"1825 PEACEFUL HILLS ROAD, DIAMOND BAR, CA, 91789","Match","Exact","1825 PEACEFUL HILLS RD, DIAMOND BAR, CA, 91789",142677131,"L"
273886,"1825 PENNINGTON ROAD","PHILADELPHIA","PA",19151,39.976779654,-75.27032667,386,"1825 PENNINGTON ROAD, PHILADELPHIA, PA, 19151","Match","Exact","1825 PENNINGTON RD, PHILADELPHIA, PA, 19151",131392958,"R"
273887,"1825 PINEHURST DR","LEWISVILLE","NC",27023,36.066965716,-80.4330884349999,387,"1825 PINEHURST DR, LEWISVILLE, NC, 27023","Match","Exact","1825 PINEHURST DR, LEWISVILLE, NC, 27023",84599065,"R"
273888,"1825 PINETOWN RD","WELLSVILLE","PA",17365,40.090758297,-76.910330206,388,"1825 PINETOWN RD, WELLSVILLE, PA, 17365","Match","Exact","1825 PINETOWN RD, WELLSVILLE, PA, 17365",631834350,"R"
273889,"1825 PLEASANT VALLEY ROAD","FAIRMONT","WV",26554,39.4508063210001,-80.147020421,389,"1825 PLEASANT VALLEY ROAD, FAIRMONT, WV, 26554","Match","Exact","1825 PLEASANT VALLEY RD, FAIRMONT, WV, 26554",636677652,"R"
273890,"1825 PONCE DE LEON BLVD 618","MIAMI","FL",33134,25.755711686,-80.258846068,390,"1825 PONCE DE LEON BLVD 618, MIAMI, FL, 33134","Match","Exact","1825 PONCE DE LEON BLVD, MIAMI, FL, 33134",116010791,"L"
273891,"1825 PONCE DE LEON BLVD STE 52","CORAL CABLES","FL",33134,25.755711686,-80.258846068,391,"1825 PONCE DE LEON BLVD STE 52, CORAL CABLES, FL, 33134","Match","Non_Exact","1825 PONCE DE LEON BLVD, CORAL GABLES, FL, 33134",116010791,"L"
273892,"1825 PONCE DE LEON BLVD STE 52","CORAL GABLES","FL",33134,25.755711686,-80.258846068,392,"1825 PONCE DE LEON BLVD STE 52, CORAL GABLES, FL, 33134","Match","Exact","1825 PONCE DE LEON BLVD, CORAL GABLES, FL, 33134",116010791,"L"
273893,"1825 PONCE DE LEON BLVD UNIT 483","CORAL GABLES","FL",33134,25.755711686,-80.258846068,393,"1825 PONCE DE LEON BLVD UNIT 483, CORAL GABLES, FL, 33134","Match","Exact","1825 PONCE DE LEON BLVD, CORAL GABLES, FL, 33134",116010791,"L"
273894,"1825 PONCE DE LEON BLVD","CORAL GABLES","FL",33134,25.755711686,-80.258846068,394,"1825 PONCE DE LEON BLVD, CORAL GABLES, FL, 33134","Match","Exact","1825 PONCE DE LEON BLVD, CORAL GABLES, FL, 33134",116010791,"L"
273895,"1825 PONCE DE LEON BOULEVARD 366","CORAL GABLES","FL",33134,25.755711686,-80.258846068,395,"1825 PONCE DE LEON BOULEVARD 366, CORAL GABLES, FL, 33134","Match","Exact","1825 PONCE DE LEON BLVD, CORAL GABLES, FL, 33134",116010791,"L"
273896,"1825 PONIT VIEW","SPRING BRANCH","TX",78070,29.9421245950001,-98.3396508549999,396,"1825 PONIT VIEW, SPRING BRANCH, TX, 78070","Match","Non_Exact","1825 POINT VW, SPRING BRANCH, TX, 78070",72237961,"L"
273897,"1825 POPLAR LN SW","ALBUQUERQUE","NM",87105,35.0669749460001,-106.68411228,397,"1825 POPLAR LN SW, ALBUQUERQUE, NM, 87105","Match","Exact","1825 POPLAR LN SW, ALBUQUERQUE, NM, 87105",206773842,"R"
273898,"1825 POTEETE DRIVE","CONWAY","AR",72034,35.1045990320001,-92.493631643,398,"1825 POTEETE DRIVE, CONWAY, AR, 72034","Match","Non_Exact","1825 POTEETE ST, CONWAY, AR, 72034",627800173,"R"
273899,"1825 POWERS STREET","MCKEESPORT","PA",15132,40.3400057860001,-79.843329878,399,"1825 POWERS STREET, MCKEESPORT, PA, 15132","Match","Exact","1825 POWERS ST, MCKEESPORT, PA, 15132",51678262,"L"
273900,"1825 RAILROAD ST","HEARNE","TX",77859,30.8635255190001,-96.606085217,400,"1825 RAILROAD ST, HEARNE, TX, 77859","Match","Exact","1825 RAILROAD ST, HEARNE, TX, 77859",24687991,"R"
273901,"1825 RAMSEY AVE","CODY","WY",82414,NA,NA,401,"1825 RAMSEY AVE, CODY, WY, 82414","No_Match",NA,NA,NA,NA
273902,"1825 RED BUD ROAD","BOLINGBROOK","IL",60490,41.6937619970001,-88.151946862,402,"1825 RED BUD ROAD, BOLINGBROOK, IL, 60490","Match","Exact","1825 RED BUD RD, BOLINGBROOK, IL, 60490",111583109,"L"
273903,"1825 RESEARCH WAY","SALT LAKE CITY","UT",84119,NA,NA,403,"1825 RESEARCH WAY, SALT LAKE CITY, UT, 84119","No_Match",NA,NA,NA,NA
273904,"1825 RIVERCHASE LN","JUSTIN","TX",76247,33.040396727,-97.319406499,404,"1825 RIVERCHASE LN, JUSTIN, TX, 76247","Match","Exact","1825 RIVERCHASE LN, JUSTIN, TX, 76247",619865467,"L"
273905,"1825 RIVERSIDE DRIVE APT 3C","NEW YORK","NY",10034,40.865828132,-73.929546263,405,"1825 RIVERSIDE DRIVE APT 3C, NEW YORK, NY, 10034","Match","Exact","1825 RIVERSIDE DR, NEW YORK, NY, 10034",59658779,"L"
273906,"1825 RIVERSIDE DRIVE APT 6A","NEW YORK","NY",10034,40.865828132,-73.929546263,406,"1825 RIVERSIDE DRIVE APT 6A, NEW YORK, NY, 10034","Match","Exact","1825 RIVERSIDE DR, NEW YORK, NY, 10034",59658779,"L"
273907,"1825 ROBLE DRIVE","COLLEGE PARK","GA",30349,33.5960045900001,-84.449688059,407,"1825 ROBLE DRIVE, COLLEGE PARK, GA, 30349","Match","Exact","1825 ROBLE DR, COLLEGE PARK, GA, 30349",624711133,"R"
273908,"1825 ROSEDALE ST","HOUSTON","TX",77004,29.726067406,-95.378754999,408,"1825 ROSEDALE ST, HOUSTON, TX, 77004","Match","Exact","1825 ROSEDALE ST, HOUSTON, TX, 77004",96071363,"L"
273909,"1825 ROSLYN","GROSSE POINTE WOODS","MI",48236,42.4482006280001,-82.9040315139999,409,"1825 ROSLYN, GROSSE POINTE WOODS, MI, 48236","Match","Non_Exact","1825 ROSLYN RD, GROSSE POINTE WOODS, MI, 48236",95721001,"L"
273910,"1825 ROTUNDA CT","MYRTLE BEACH","SC",29588,33.6495256310001,-79.044481409,410,"1825 ROTUNDA CT, MYRTLE BEACH, SC, 29588","Match","Exact","1825 ROTUNDA CT, MYRTLE BEACH, SC, 29588",645296714,"L"
273911,"1825 RUSSELLL COURT","MIAMISBURG","OH",45342,39.608073894,-84.2455267189999,411,"1825 RUSSELLL COURT, MIAMISBURG, OH, 45342","Match","Non_Exact","1825 RUSSELL CT, MIAMISBURG, OH, 45342",613694402,"R"
273912,"1825 S 5TH ST APT 56","WACO","TX",76706,31.5421804050001,-97.115718003,412,"1825 S 5TH ST APT 56, WACO, TX, 76706","Match","Non_Exact","1825 S 5TH ST, WACO, TX, 76706",146738774,"R"
273913,"1825 S ASHLAND AVE 2ND FLR","CHICAGO","IL",60608,41.8570198730001,-87.66611553,413,"1825 S ASHLAND AVE 2ND FLR, CHICAGO, IL, 60608","Match","Non_Exact","1825 S ASHLAND AVE, CHICAGO, IL, 60608",111802905,"L"
273914,"1825 S BROOKSTONE VILLAGE DR 306","INDEPENDENCE","MO",64057,39.084175041,-94.370475498,414,"1825 S BROOKSTONE VILLAGE DR 306, INDEPENDENCE, MO, 64057","Match","Non_Exact","1825 S BROOKSTONE VILLAGE DR, INDEPENDENCE, MO, 64057",640228986,"R"
273915,"1825 S BROOKSTONE VILLAGE DR","INDEPENDENCE","MO",64057,39.084175041,-94.370475498,415,"1825 S BROOKSTONE VILLAGE DR, INDEPENDENCE, MO, 64057","Match","Exact","1825 S BROOKSTONE VILLAGE DR, INDEPENDENCE, MO, 64057",640228986,"R"
273916,"1825 S GREEN RD","SOUTH EUCLID","OH",44121,41.5107573070001,-81.519436202,416,"1825 S GREEN RD, SOUTH EUCLID, OH, 44121","Match","Exact","1825 S GREEN RD, SOUTH EUCLID, OH, 44121",61125745,"L"
273917,"1825 SAN JACINTO STREET 803","HOUSTON","TX",77002,NA,NA,417,"1825 SAN JACINTO STREET 803, HOUSTON, TX, 77002","No_Match",NA,NA,NA,NA
273918,"1825 SAN JOSE STREET","SAN LEANDRO","CA",94577,37.722933052,-122.143690586,418,"1825 SAN JOSE STREET, SAN LEANDRO, CA, 94577","Match","Exact","1825 SAN JOSE ST, SAN LEANDRO, CA, 94577",125012417,"R"
273919,"1825 SARATOGA STREET","BALTIMORE","MD",21223,39.2920222560001,-76.646366475,419,"1825 SARATOGA STREET, BALTIMORE, MD, 21223","Match","Non_Exact","1825 W SARATOGA ST, BALTIMORE, MD, 21223",206415288,"L"
273920,"1825 SAULTER ROAD","HOMEWOOD","AL",35209,33.4706925470001,-86.791712006,420,"1825 SAULTER ROAD, HOMEWOOD, AL, 35209","Match","Exact","1825 SAULTER RD, HOMEWOOD, AL, 35209",81581873,"R"
273921,"1825 SHARP LANE","DUNEDIN","FL",34698,NA,NA,421,"1825 SHARP LANE, DUNEDIN, FL, 34698","No_Match",NA,NA,NA,NA
273922,"1825 SHELBY DEESON ROAD","ROSEDALE","MS",38940,NA,NA,422,"1825 SHELBY DEESON ROAD, ROSEDALE, MS, 38940","No_Match",NA,NA,NA,NA
273923,"1825 SIX FLAGS DRIVE APT 717","AUSTELL","GA",30168,33.781130009,-84.5641404089999,423,"1825 SIX FLAGS DRIVE APT 717, AUSTELL, GA, 30168","Match","Non_Exact","1825 SIX FLAGS PKWY, AUSTELL, GA, 30168",645395398,"L"
273924,"1825 SONNET DRIVE","GRAPEVINE","TX",76051,32.960024252,-97.094598785,424,"1825 SONNET DRIVE, GRAPEVINE, TX, 76051","Match","Exact","1825 SONNET DR, GRAPEVINE, TX, 76051",101867937,"R"
273925,"1825 SOUTH 2600 EAST","SALT LAKE CITY","UT",84108,40.730434304,-111.816257312,425,"1825 SOUTH 2600 EAST, SALT LAKE CITY, UT, 84108","Match","Exact","1825 S 2600 E, SALT LAKE CITY, UT, 84108",176139497,"L"
273926,"1825 SOUTH 5TH STREETAPT 16","MINNEAPOLIS","MN",55454,44.9689091540001,-93.246425572,426,"1825 SOUTH 5TH STREETAPT 16, MINNEAPOLIS, MN, 55454","Match","Non_Exact","1825 S 5TH ST, MINNEAPOLIS, MN, 55454",43636992,"R"
273927,"1825 SOUTH CHANNEL DRIVE","HARSENS ISLAND","MI",48028,42.592936142,-82.550971821,427,"1825 SOUTH CHANNEL DRIVE, HARSENS ISLAND, MI, 48028","Match","Exact","1825 S CHANNEL DR, HARSENS ISLAND, MI, 48028",642516149,"R"
273928,"1825 ST ANDREWS DRIVE","MURFREESBORO","TN",37128,35.8268120390001,-86.454613523,428,"1825 ST ANDREWS DRIVE, MURFREESBORO, TN, 37128","Match","Exact","1825 SAINT ANDREWS DR, MURFREESBORO, TN, 37128",630038073,"R"
273929,"1825 ST JULIAN PL  4-1","COLUMBIA","SC",29204,34.019577731,-81.003612813,429,"1825 ST JULIAN PL  4-1, COLUMBIA, SC, 29204","Match","Exact","1825 SAINT JULIAN PL, COLUMBIA, SC, 29204",71821924,"L"
273930,"1825 ST JULIAN PLACE 2J","COLUMBIA","SC",29204,34.019577731,-81.003612813,430,"1825 ST JULIAN PLACE 2J, COLUMBIA, SC, 29204","Match","Exact","1825 SAINT JULIAN PL, COLUMBIA, SC, 29204",71821924,"L"
273931,"1825 STANCEL DRIVE","CLEARWATER","FL",33764,27.9459341130001,-82.761301051,431,"1825 STANCEL DRIVE, CLEARWATER, FL, 33764","Match","Exact","1825 STANCEL DR, CLEARWATER, FL, 33764",124675936,"R"
273932,"1825 STERIGERE","NORRISTOWN","PA",19401,NA,NA,432,"1825 STERIGERE, NORRISTOWN, PA, 19401","No_Match",NA,NA,NA,NA
273933,"1825 STRAND WAY","CORONADO","CA",92118,32.6777210220001,-117.173077821,433,"1825 STRAND WAY, CORONADO, CA, 92118","Match","Exact","1825 STRAND WAY, CORONADO, CA, 92118",195749445,"L"
273934,"1825 SW 152ND STREET","BURIEN","WA",98166,47.466698212,-122.357565891,434,"1825 SW 152ND STREET, BURIEN, WA, 98166","Match","Exact","1825 SW 152ND ST, BURIEN, WA, 98166",186623685,"L"
273935,"1825 SW 153 AVE","MIRAMAR","FL",33027,25.992309419,-80.354219596,435,"1825 SW 153 AVE, MIRAMAR, FL, 33027","Match","Exact","1825 SW 153RD AVE, MIRAMAR, FL, 33027",114818789,"L"
273936,"1825 SW 21ST AVE","MIAMI","FL",33145,25.754886331,-80.228260463,436,"1825 SW 21ST AVE, MIAMI, FL, 33145","Match","Exact","1825 SW 21ST AVE, MIAMI, FL, 33145",116016581,"L"
273937,"1825 SW 21ST AVENUE","MIAMI","FL",33145,25.754886331,-80.228260463,437,"1825 SW 21ST AVENUE, MIAMI, FL, 33145","Match","Exact","1825 SW 21ST AVE, MIAMI, FL, 33145",116016581,"L"
273938,"1825 SW 30TH STREET","MOORE","OK",73160,35.309827978,-97.5103114839999,438,"1825 SW 30TH STREET, MOORE, OK, 73160","Match","Exact","1825 SW 30TH ST, MOORE, OK, 73160",99938141,"L"
273939,"1825 SW BROADWAY","PORTLAND","OR",97201,45.5118264870001,-122.683702511,439,"1825 SW BROADWAY, PORTLAND, OR, 97201","Match","Exact","1825 SW BROADWAY, PORTLAND, OR, 97201",157500727,"R"
273940,"1825 SW WYNWOOD","PORTLAND","OR",97225,45.506906546,-122.811235274,440,"1825 SW WYNWOOD, PORTLAND, OR, 97225","Match","Non_Exact","1825 SW WYNWOOD AVE, PORTLAND, OR, 97225",158185251,"R"
273941,"1825 SWAN CAVE ROAD","CHADWICK","MO",65629,36.9297958670001,-93.023405999,441,"1825 SWAN CAVE ROAD, CHADWICK, MO, 65629","Match","Exact","1825 SWAN CAVE RD, CHADWICK, MO, 65629",99840613,"R"
273942,"1825 SWIFT AVENUE","NORTH KANSAS CITY","MO",64116,39.1404759260001,-94.57729102,442,"1825 SWIFT AVENUE, NORTH KANSAS CITY, MO, 64116","Match","Exact","1825 SWIFT AVE, N KANSAS CITY, MO, 64116",89775494,"R"
273943,"1825 T STREET NW STE 505","WASHINGTON","DC",20009,38.9155825130001,-77.042159542,443,"1825 T STREET NW STE 505, WASHINGTON, DC, 20009","Match","Exact","1825 T ST NW, WASHINGTON, DC, 20009",76222789,"R"
273944,"1825 TAHITI DR","COSTA MESA","CA",92626,33.676768426,-117.933055439,444,"1825 TAHITI DR, COSTA MESA, CA, 92626","Match","Exact","1825 TAHITI DR, COSTA MESA, CA, 92626",144045688,"L"
273945,"1825 TAHOE","TULARE","CA",93274,36.1803275350001,-119.315491414,445,"1825 TAHOE, TULARE, CA, 93274","Match","Non_Exact","1825 TAHOE AVE, TULARE, CA, 93274",202824833,"R"
273946,"1825 THOMAS DR APT A9","LAS CRUCES","NM",88001,32.296525192,-106.748981778,446,"1825 THOMAS DR APT A9, LAS CRUCES, NM, 88001","Match","Exact","1825 THOMAS DR, LAS CRUCES, NM, 88001",189546502,"L"
273947,"1825 TIMBER RIDGE WAY","SEVIERVILLE","TN",37876,35.791696324,-83.5027816429999,447,"1825 TIMBER RIDGE WAY, SEVIERVILLE, TN, 37876","Match","Exact","1825 TIMBER RIDGE WAY, SEVIERVILLE, TN, 37876",619589966,"R"
273948,"1825 TIVERTON ROAD","BLOOMFIELD HILLS","MI",48304,42.5862678770001,-83.2427400289999,448,"1825 TIVERTON ROAD, BLOOMFIELD HILLS, MI, 48304","Match","Exact","1825 TIVERTON RD, BLOOMFIELD HILLS, MI, 48304",69732885,"L"
273949,"1825 TORREY DR","ORLANDO","FL",32818,28.5621090380001,-81.4914482409999,449,"1825 TORREY DR, ORLANDO, FL, 32818","Match","Exact","1825 TORREY DR, ORLANDO, FL, 32818",94389636,"R"
273950,"1825 TRAILS END","YOUNG HARRIS","GA",30582,NA,NA,450,"1825 TRAILS END, YOUNG HARRIS, GA, 30582","No_Match",NA,NA,NA,NA
273951,"1825 UNIVERSITY BLVD SHELBY 121","BIRMINGHAM","AL",35294,33.503538577,-86.801501893,451,"1825 UNIVERSITY BLVD SHELBY 121, BIRMINGHAM, AL, 35294","Match","Non_Exact","1825 UNIVERSITY BLVD, BIRMINGHAM, AL, 35233",81576480,"R"
273952,"1825 UNIVERSITY BLVD","BIRMIGHAM","AL",35294,33.503538577,-86.801501893,452,"1825 UNIVERSITY BLVD, BIRMIGHAM, AL, 35294","Match","Non_Exact","1825 UNIVERSITY BLVD, BIRMINGHAM, AL, 35233",81576480,"R"
273953,"1825 VIOLA LANE","HELLERTOWN","PA",18055,40.568688502,-75.3511642729999,453,"1825 VIOLA LANE, HELLERTOWN, PA, 18055","Match","Exact","1825 VIOLA LN, HELLERTOWN, PA, 18055",136891827,"L"
273954,"1825 W 115TH ST UNIT 7","CHICAGO","IL",60643,41.684709705,-87.667197403,454,"1825 W 115TH ST UNIT 7, CHICAGO, IL, 60643","Match","Non_Exact","1825 W 115TH ST, CHICAGO, IL, 60643",605578841,"L"
273955,"1825 W 24TH AVENUE","EUGENE","OR",97405,44.0332680240001,-123.12133916,455,"1825 W 24TH AVENUE, EUGENE, OR, 97405","Match","Exact","1825 W 24TH AVE, EUGENE, OR, 97405",645546753,"R"
273956,"1825 W 64TH STREET","LOS ANGELES","CA",90047,33.981414316,-118.309588232,456,"1825 W 64TH STREET, LOS ANGELES, CA, 90047","Match","Exact","1825 W 64TH ST, LOS ANGELES, CA, 90047",141658316,"R"
273957,"1825 W 6TH ST","CHESTER","PA",19013,39.839646712,-75.383261348,457,"1825 W 6TH ST, CHESTER, PA, 19013","Match","Exact","1825 W 6TH ST, CHESTER, PA, 19013",605229751,"L"
273958,"1825 W 6TH STREET","CHESTER","PA",19013,39.839646712,-75.383261348,458,"1825 W 6TH STREET, CHESTER, PA, 19013","Match","Exact","1825 W 6TH ST, CHESTER, PA, 19013",605229751,"L"
273959,"1825 W 6TH STRTEET","CHESTER","PA",19013,NA,NA,459,"1825 W 6TH STRTEET, CHESTER, PA, 19013","No_Match",NA,NA,NA,NA
273960,"1825 W 7TH AVE","GARY","IN",46404,41.5983857750001,-87.359687686,460,"1825 W 7TH AVE, GARY, IN, 46404","Match","Exact","1825 W 7TH AVE, GARY, IN, 46404",98425811,"L"
273961,"1825 W A STREET","BELLEVILLE","IL",62226,38.5194881520001,-90.0036820299999,461,"1825 W A STREET, BELLEVILLE, IL, 62226","Match","Exact","1825 W A ST, BELLEVILLE, IL, 62226",107930718,"R"
273962,"1825 W HOOT OWL RD","INKOM","ID",83245,42.854431209,-112.255895756,462,"1825 W HOOT OWL RD, INKOM, ID, 83245","Match","Exact","1825 W HOOT OWL RD, INKOM, ID, 83245",204366119,"L"
273963,"1825 W SARATOGA STREET","BALTIMORE","MD",21223,39.2920221430001,-76.646369635,463,"1825 W SARATOGA STREET, BALTIMORE, MD, 21223","Match","Exact","1825 W SARATOGA ST, BALTIMORE, MD, 21223",206415288,"L"
273964,"1825 W WALNUT HILL LANE SUITE 106","IRVING","TX",75038,32.873681225,-96.9709292759999,464,"1825 W WALNUT HILL LANE SUITE 106, IRVING, TX, 75038","Match","Non_Exact","1825 W WALNUT HILL LN, IRVING, TX, 75038",102888019,"R"
273965,"1825 WALNUT HILL LANE","IRVING","TX",75038,32.873692647,-96.970929311,465,"1825 WALNUT HILL LANE, IRVING, TX, 75038","Match","Non_Exact","1825 W WALNUT HILL LN, IRVING, TX, 75038",102888019,"R"
273966,"1825 WATSON ROAD","HEMLOCK","MI",48626,43.39573899,-84.219572122,466,"1825 WATSON ROAD, HEMLOCK, MI, 48626","Match","Exact","1825 WATSON RD, HEMLOCK, MI, 48626",80201429,"R"
273967,"1825 WENONAH AVE","PEARISBURG","VA",24134,37.326709393,-80.7059619569999,467,"1825 WENONAH AVE, PEARISBURG, VA, 24134","Match","Exact","1825 WENONAH AVE, PEARISBURG, VA, 24134",46989331,"R"
273968,"1825 WEST 14TH 1/2 STREET","HOUSTON","TX",77008,29.7964180650001,-95.414680934,468,"1825 WEST 14TH 1/2 STREET, HOUSTON, TX, 77008","Match","Exact","1825 W 14TH 1/2 ST, HOUSTON, TX, 77008",96060046,"R"
273969,"1825 WEST AVENUE H4","LANCASTER","CA",93534,34.7152139840001,-118.164515636,469,"1825 WEST AVENUE H4, LANCASTER, CA, 93534","Match","Exact","1825 W AVE H4, LANCASTER, CA, 93534",141830849,"R"
273970,"1825 WEST RAY ROAD","CHANDLER","AZ",85224,33.3205866690001,-111.872403977,470,"1825 WEST RAY ROAD, CHANDLER, AZ, 85224","Match","Exact","1825 W RAY RD, CHANDLER, AZ, 85224",128804476,"L"
273971,"1825 WEST RAY ROAD","TEMPE","AZ",85224,33.3205866690001,-111.872403977,471,"1825 WEST RAY ROAD, TEMPE, AZ, 85224","Match","Non_Exact","1825 W RAY RD, CHANDLER, AZ, 85224",128804476,"L"
273972,"1825 WESTERN HILLS LANE","MASCOTTE","FL",34753,28.580639562,-81.878802932,472,"1825 WESTERN HILLS LANE, MASCOTTE, FL, 34753","Match","Exact","1825 WESTERN HILLS LN, MASCOTTE, FL, 34753",94210045,"R"
273973,"1825 WINDSOR BLVD","HOMEWOOD","AL",35209,33.4698279090001,-86.7905032579999,473,"1825 WINDSOR BLVD, HOMEWOOD, AL, 35209","Match","Exact","1825 WINDSOR BLVD, HOMEWOOD, AL, 35209",81581874,"R"
273974,"1825 WOOD ROAD","MCALESTER","OK",74501,34.908325946,-95.75524394,474,"1825 WOOD ROAD, MCALESTER, OK, 74501","Match","Exact","1825 WOOD RD, MCALESTER, OK, 74501",106271832,"R"
273975,"1825 WYOMING ST  APT8","MISSOULA","MT",59801,46.8719670840001,-114.024830182,475,"1825 WYOMING ST  APT8, MISSOULA, MT, 59801","Match","Exact","1825 WYOMING ST, MISSOULA, MT, 59801",640619605,"L"
273976,"1825 YOSEMITE  10","BIRMINGHAM","MI",48009,42.546188353,-83.197802064,476,"1825 YOSEMITE  10, BIRMINGHAM, MI, 48009","Match","Non_Exact","1825 YOSEMITE BLVD, BIRMINGHAM, MI, 48009",69737125,"L"
273977,"1825 YOSEMITE 10","BIRMINGHAM","MI",48009,42.546188353,-83.197802064,477,"1825 YOSEMITE 10, BIRMINGHAM, MI, 48009","Match","Non_Exact","1825 YOSEMITE BLVD, BIRMINGHAM, MI, 48009",69737125,"L"
273978,"18250 COLUMBINE ROAD","ESTERO","FL",33928,26.476337738,-81.81114007,478,"18250 COLUMBINE ROAD, ESTERO, FL, 33928","Match","Non_Exact","18250 COLUMBINE RD, ESTERO, FL, 33967",117978569,"L"
273979,"18250 GRANDVILLE AVE","DETROIT","MI",48219,42.4231371830001,-83.231955349,479,"18250 GRANDVILLE AVE, DETROIT, MI, 48219","Match","Exact","18250 GRANDVILLE AVE, DETROIT, MI, 48219",95421859,"R"
273980,"18250 GROTON ROAD","CLEVELAND","OH",44121,41.5489963320001,-81.5419724449999,480,"18250 GROTON ROAD, CLEVELAND, OH, 44121","Match","Exact","18250 GROTON RD, CLEVELAND, OH, 44121",61123991,"R"
273981,"18250 LATROBE ROAD","PLYMOUTH","CA",95669,38.4704611290001,-120.922107742,481,"18250 LATROBE ROAD, PLYMOUTH, CA, 95669","Match","Exact","18250 LATROBE RD, PLYMOUTH, CA, 95669",647843126,"R"
273982,"18250 MARSH LANE 611","DALLAS","TX",75287,NA,NA,482,"18250 MARSH LANE 611, DALLAS, TX, 75287","No_Match",NA,NA,NA,NA
273983,"18250 MARSH LANE","DALLAS","TX",75287,32.9996505990001,-96.855623591,483,"18250 MARSH LANE, DALLAS, TX, 75287","Match","Exact","18250 MARSH LN, DALLAS, TX, 75287",637043916,"R"
273984,"18250 N 25TH AVE  APT 3011","PHOENIX","AZ",85023,33.6526944240001,-112.111958944,484,"18250 N 25TH AVE  APT 3011, PHOENIX, AZ, 85023","Match","Non_Exact","18250 N 25TH AVE, PHOENIX, AZ, 85023",128353689,"L"
273985,"18250 N 25TH AVE 3040","PHOENIX","AZ",85023,33.6526944240001,-112.111958944,485,"18250 N 25TH AVE 3040, PHOENIX, AZ, 85023","Match","Non_Exact","18250 N 25TH AVE, PHOENIX, AZ, 85023",128353689,"L"
273986,"18250 PINE MEADOWS DR","THOMPSONVILLE","MI",49683,44.5022141970001,-85.97301762,486,"18250 PINE MEADOWS DR, THOMPSONVILLE, MI, 49683","Match","Exact","18250 PINE MEADOWS DR, THOMPSONVILLE, MI, 49683",146018671,"L"
273987,"18250 RYANWOOD","RIVERVIEW","MI",48193,42.1745689800001,-83.217061719,487,"18250 RYANWOOD, RIVERVIEW, MI, 48193","Match","Non_Exact","18250 RYANWOOD DR, RIVERVIEW, MI, 48193",95456627,"L"
273988,"18250 SE 42ND PL","MORRISTON","FL",32668,29.2684148290001,-82.4683093899999,488,"18250 SE 42ND PL, MORRISTON, FL, 32668","Match","Exact","18250 SE 42ND PL, MORRISTON, FL, 32668",649821059,"L"
273989,"18251 ROSCOE BLVD 103","NORTHRIDGE","CA",91325,34.2208152100001,-118.53067265,489,"18251 ROSCOE BLVD 103, NORTHRIDGE, CA, 91325","Match","Exact","18251 ROSCOE BLVD, NORTHRIDGE, CA, 91325",652033672,"R"
273990,"18251 STEINEGUL RD","ESCALON","CA",95320,37.7968037300001,-120.960011803,490,"18251 STEINEGUL RD, ESCALON, CA, 95320","Match","Exact","18251 STEINEGUL RD, ESCALON, CA, 95320",133904926,"R"
273991,"18251 THREE B FARM ROAD","ESTERO","FL",33928,26.424871963,-81.656057758,491,"18251 THREE B FARM ROAD, ESTERO, FL, 33928","Match","Exact","18251 THREE B FARM RD, ESTERO, FL, 33928",118084920,"L"
273992,"18252 OAKBROOK LN","RENO","NV",89508,39.6931974400001,-119.969801872,492,"18252 OAKBROOK LN, RENO, NV, 89508","Match","Exact","18252 OAKBROOK LN, RENO, NV, 89508",619800185,"R"
273993,"18253 DEEP FOREST AVENUE","BATON ROUGE","LA",70817,30.3995984760001,-90.984401759,493,"18253 DEEP FOREST AVENUE, BATON ROUGE, LA, 70817","Match","Exact","18253 DEEP FOREST AVE, BATON ROUGE, LA, 70817",92205337,"L"
273994,"18254 MEADOWOOD ST","LATHRUP VILLAGE","MI",48076,42.484600663,-83.225153178,494,"18254 MEADOWOOD ST, LATHRUP VILLAGE, MI, 48076","Match","Non_Exact","18254 MEADOWOOD AVE, LATHRUP VILLAGE, MI, 48076",69739725,"R"
273995,"18254 OAK DRIVE","DETROIT","MI",48221,42.425057635,-83.1383679049999,495,"18254 OAK DRIVE, DETROIT, MI, 48221","Match","Exact","18254 OAK DR, DETROIT, MI, 48221",95461004,"R"
273996,"18254 SPRINGFIELD AVE","HOMEWOOD","IL",60430,41.5588235160001,-87.711296289,496,"18254 SPRINGFIELD AVE, HOMEWOOD, IL, 60430","Match","Exact","18254 SPRINGFIELD AVE, HOMEWOOD, IL, 60430",112381199,"R"
273997,"18254 SPRINGFIELD","HOMEWOOD","IL",60430,41.5588235160001,-87.711296289,497,"18254 SPRINGFIELD, HOMEWOOD, IL, 60430","Match","Non_Exact","18254 SPRINGFIELD AVE, HOMEWOOD, IL, 60430",112381199,"R"
273998,"18254 W SUNNYSLOPE LANE","WADDELL","AZ",85355,33.5691166340001,-112.45197481,498,"18254 W SUNNYSLOPE LANE, WADDELL, AZ, 85355","Match","Exact","18254 SUNNYSLOPE LN, WADDELL, AZ, 85355",627705246,"L"
273999,"18255 E ALABAMA PL UNIT E","AURORA","CO",80017,39.6934843610001,-104.775043335,499,"18255 E ALABAMA PL UNIT E, AURORA, CO, 80017","Match","Non_Exact","18255 E ALABAMA PL, AURORA, CO, 80017",640595961,"L"
274000,"18255 N 21 PL NO 44","PHOENIX","AZ",85022,NA,NA,500,"18255 N 21 PL NO 44, PHOENIX, AZ, 85022","No_Match",NA,NA,NA,NA
