"ID","Address","City","State","Zip","lat","long","id","input_address","match_indicator","match_type","matched_address","tiger_line_id","tiger_side"
520501,"3310 LOUISIANA ST","HOUSTON","TX",77006,29.7423974160001,-95.380275152,1,"3310 LOUISIANA ST, HOUSTON, TX, 77006","Match","Exact","3310 LOUISIANA ST, HOUSTON, TX, 77006",96070756,"R"
520502,"3310 LOUISIANA STREET","HOUSTON","TX",77006,29.7423974160001,-95.380275152,2,"3310 LOUISIANA STREET, HOUSTON, TX, 77006","Match","Exact","3310 LOUISIANA ST, HOUSTON, TX, 77006",96070756,"R"
520503,"3310 MADERA AVE","LOS ANGELES","CA",90039,34.113407673,-118.257897285,3,"3310 MADERA AVE, LOS ANGELES, CA, 90039","Match","Exact","3310 MADERA AVE, LOS ANGELES, CA, 90039",141610688,"L"
520504,"3310 MAPLE SPRINGS LANE","KNOXVILLE","TN",37931,NA,NA,4,"3310 MAPLE SPRINGS LANE, KNOXVILLE, TN, 37931","Tie",NA,NA,NA,NA
520505,"3310 MARKRIDGE DR","RENO","NV",89509,39.491808889,-119.845257626,5,"3310 MARKRIDGE DR, RENO, NV, 89509","Match","Exact","3310 MARKRIDGE DR, RENO, NV, 89509",107044463,"L"
520506,"3310 MEADOWSIDE DRIVE","SUGAR LAND","TX",77478,29.6031016970001,-95.5964024519999,6,"3310 MEADOWSIDE DRIVE, SUGAR LAND, TX, 77478","Match","Exact","3310 MEADOWSIDE DR, SUGAR LAND, TX, 77478",78275881,"R"
520507,"3310 MEMPHIS AVENUE","NEDERLAND","TX",77627,29.9669953470001,-94.013410763,7,"3310 MEMPHIS AVENUE, NEDERLAND, TX, 77627","Match","Exact","3310 MEMPHIS AVE, NEDERLAND, TX, 77627",73859450,"R"
520508,"3310 MESA WAY","LAWRENCE","KS",66049,38.9725402970001,-95.2779897199999,8,"3310 MESA WAY, LAWRENCE, KS, 66049","Match","Exact","3310 MESA WAY, LAWRENCE, KS, 66049",17683272,"L"
520509,"3310 MORKEL DR","GODFREY","IL",62035,38.931969157,-90.200086793,9,"3310 MORKEL DR, GODFREY, IL, 62035","Match","Exact","3310 MORKEL DR, GODFREY, IL, 62035",107677593,"L"
520510,"3310 MOUNTAIN VIEW DR","VENUS","TX",76084,32.391473617,-97.0361605529999,10,"3310 MOUNTAIN VIEW DR, VENUS, TX, 76084","Match","Exact","3310 MOUNTAIN VIEW DR, VENUS, TX, 76084",624604577,"R"
520511,"3310 N DAVIDSON STREET STE 540","CHARLOTTE","NC",28205,35.2477526330001,-80.8044404939999,11,"3310 N DAVIDSON STREET STE 540, CHARLOTTE, NC, 28205","Match","Non_Exact","3310 N DAVIDSON ST, CHARLOTTE, NC, 28205",70480133,"R"
520512,"3310 N DAVISON ST APT 412","CHARLOTTE","NC",28205,NA,NA,12,"3310 N DAVISON ST APT 412, CHARLOTTE, NC, 28205","No_Match",NA,NA,NA,NA
520513,"3310 N GOOLIE ROAD","DONNA","TX",78537,26.1913677090001,-98.056491205,13,"3310 N GOOLIE ROAD, DONNA, TX, 78537","Match","Non_Exact","3310 GOLIE RD, DONNA, TX, 78537",71560483,"R"
520514,"3310 N LEISURE WORLD BLVD 101","SILVER SPRING","MD",20906,NA,NA,14,"3310 N LEISURE WORLD BLVD 101, SILVER SPRING, MD, 20906","Tie",NA,NA,NA,NA
520515,"3310 N LEISURE WORLD BLVD APT 621","SILVER SPRING","MD",20906,NA,NA,15,"3310 N LEISURE WORLD BLVD APT 621, SILVER SPRING, MD, 20906","Tie",NA,NA,NA,NA
520516,"3310 N WHITE SANDS BLVD","ALAMOGORDO","NM",88310,32.9357315670001,-105.964328464,16,"3310 N WHITE SANDS BLVD, ALAMOGORDO, NM, 88310","Match","Exact","3310 N WHITE SANDS BLVD, ALAMOGORDO, NM, 88310",132363687,"R"
520517,"3310 N36TH AVENUE","HOLLYWOOD","FL",33021,NA,NA,17,"3310 N36TH AVENUE, HOLLYWOOD, FL, 33021","No_Match",NA,NA,NA,NA
520518,"3310 NAKORA DRIVE","TAMPA","FL",33618,28.046547423,-82.497540026,18,"3310 NAKORA DRIVE, TAMPA, FL, 33618","Match","Exact","3310 NAKORA DR, TAMPA, FL, 33618",104514482,"L"
520519,"3310 NE 18TH STREET","FT LAUDERDALE","FL",33305,26.1521532560001,-80.102171524,19,"3310 NE 18TH STREET, FT LAUDERDALE, FL, 33305","Match","Exact","3310 NE 18TH ST, FORT LAUDERDALE, FL, 33305",114725755,"R"
520520,"3310 NEW BEDFORD DR","CORPUS CHRISTI","TX",78414,27.674697929,-97.375947308,20,"3310 NEW BEDFORD DR, CORPUS CHRISTI, TX, 78414","Match","Exact","3310 NEW BEDFORD DR, CORPUS CHRISTI, TX, 78414",178536172,"R"
520521,"3310 NEW CASTLE RD","LAFAYETTE","IN",47905,40.370997205,-86.8056176809999,21,"3310 NEW CASTLE RD, LAFAYETTE, IN, 47905","Match","Non_Exact","3310 NEWCASTLE RD, LAFAYETTE, IN, 47905",635609952,"R"
520522,"3310 NICHOLAS CT","IJAMSVILLE","MD",21754,39.3204844300001,-77.281662872,22,"3310 NICHOLAS CT, IJAMSVILLE, MD, 21754","Match","Exact","3310 NICHOLAS CT, IJAMSVILLE, MD, 21754",60703704,"L"
520523,"3310 NORTH 17TH AVENUE","PHOENIX","AZ",85015,33.4859575990001,-112.095716445,23,"3310 NORTH 17TH AVENUE, PHOENIX, AZ, 85015","Match","Exact","3310 N 17TH AVE, PHOENIX, AZ, 85015",128206061,"L"
520524,"3310 NORTH VALENCIA LANE","PHOENIX","AZ",85018,33.486107733,-111.960179344,24,"3310 NORTH VALENCIA LANE, PHOENIX, AZ, 85018","Match","Exact","3310 N VALENCIA LN, PHOENIX, AZ, 85018",128595077,"L"
520525,"3310 NORTHRUP AVE NW","ANNANDALE","MN",55302,45.200604239,-94.170249052,25,"3310 NORTHRUP AVE NW, ANNANDALE, MN, 55302","Match","Exact","3310 NORTHRUP AVE NW, ANNANDALE, MN, 55302",43995127,"R"
520526,"3310 NOSTRAND AVENUE APT 106","BROOKLYN","NY",11220,40.6035318740001,-73.9424835039999,26,"3310 NOSTRAND AVENUE APT 106, BROOKLYN, NY, 11220","Match","Non_Exact","3310 NOSTRAND AVE, BROOKLYN, NY, 11229",59090485,"R"
520527,"3310 NOTTINGHAM WAY","MADISON","WI",53713,43.031444935,-89.432446694,27,"3310 NOTTINGHAM WAY, MADISON, WI, 53713","Match","Exact","3310 NOTTINGHAM WAY, MADISON, WI, 53713",641005614,"L"
520528,"3310 OCEAN SHORE BLVD","ORMOND BEACH","FL",32176,29.3739430310001,-81.0783099189999,28,"3310 OCEAN SHORE BLVD, ORMOND BEACH, FL, 32176","Match","Exact","3310 OCEAN SHORE BLVD, ORMOND BEACH, FL, 32176",94519714,"L"
520529,"3310 OVERLAND DRIVE","ROSWELL","GA",30075,34.009670719,-84.3582126909999,29,"3310 OVERLAND DRIVE, ROSWELL, GA, 30075","Match","Non_Exact","3310 OVER LAND DR, ROSWELL, GA, 30075",17406499,"L"
520530,"3310 OVERLOOK RD","LARGO","FL",33770,27.9036856560001,-82.821101604,30,"3310 OVERLOOK RD, LARGO, FL, 33770","Match","Exact","3310 OVERLOOK RD, LARGO, FL, 33770",124672313,"L"
520531,"3310 PALM ST","HOUSTON","TX",77004,29.716097233,-95.365007357,31,"3310 PALM ST, HOUSTON, TX, 77004","Match","Exact","3310 PALM ST, HOUSTON, TX, 77004",96072474,"R"
520532,"3310 PAR ROAD","SEBRING","FL",33872,27.4791282310001,-81.499376608,32,"3310 PAR ROAD, SEBRING, FL, 33872","Match","Exact","3310 PAR RD, SEBRING, FL, 33872",4650807,"R"
520533,"3310 PARADISE DR","TIBURON","CA",94920,37.8918257510001,-122.455092053,33,"3310 PARADISE DR, TIBURON, CA, 94920","Match","Exact","3310 PARADISE DR, TIBURON, CA, 94920",192778075,"R"
520534,"3310 PARADISE DRIVE","TIBURON","CA",94920,37.8918257510001,-122.455092053,34,"3310 PARADISE DRIVE, TIBURON, CA, 94920","Match","Exact","3310 PARADISE DR, TIBURON, CA, 94920",192778075,"R"
520535,"3310 PAST PLACE NW","KENNESAW","GA",30152,33.9828515310001,-84.645097272,35,"3310 PAST PLACE NW, KENNESAW, GA, 30152","Match","Non_Exact","3310 PAST PL, KENNESAW, GA, 30152",614187175,"R"
520536,"3310 PIERSON DR","WILMINGTON","DE",19810,39.8145794100001,-75.538426418,36,"3310 PIERSON DR, WILMINGTON, DE, 19810","Match","Exact","3310 PIERSON DR, WILMINGTON, DE, 19810",187255952,"L"
520537,"3310 REHOBETH  CHURCH RD","GREENSBORO","NC",27406,36.0283832590001,-79.81954186,37,"3310 REHOBETH  CHURCH RD, GREENSBORO, NC, 27406","Match","Exact","3310 REHOBETH CHURCH RD, GREENSBORO, NC, 27406",131045872,"R"
520538,"3310 RENFRO AVENUE","CINCINNATI","OH",45220,39.144506289,-84.611657236,38,"3310 RENFRO AVENUE, CINCINNATI, OH, 45220","Match","Non_Exact","3310 RENFRO AVE, CINCINNATI, OH, 45211",103953158,"R"
520539,"3310 ROWAN ROAD SW","CONYERS","GA",30094,33.6013970920001,-84.053928285,39,"3310 ROWAN ROAD SW, CONYERS, GA, 30094","Match","Exact","3310 ROWAN RD SW, CONYERS, GA, 30094",23748830,"R"
520540,"3310 ROYAL COLWOOD CT","SUMTER","SC",29150,33.833091891,-80.361372063,40,"3310 ROYAL COLWOOD CT, SUMTER, SC, 29150","Match","Exact","3310 ROYAL COLWOOD CT, SUMTER, SC, 29150",202690779,"R"
520541,"3310 S OMAR AVENUE","TAMPA","FL",33629,27.915123958,-82.527661415,41,"3310 S OMAR AVENUE, TAMPA, FL, 33629","Match","Exact","3310 S OMAR AVE, TAMPA, FL, 33629",104644325,"L"
520542,"3310 SAINT ENGE DR NE","BEMIDJI","MN",56601,NA,NA,42,"3310 SAINT ENGE DR NE, BEMIDJI, MN, 56601","No_Match",NA,NA,NA,NA
520543,"3310 SAMUEL SHEPARD DRIVE","SAINT LOUIS","MO",63103,38.6386549160001,-90.226162732,43,"3310 SAMUEL SHEPARD DRIVE, SAINT LOUIS, MO, 63103","Match","Exact","3310 SAMUEL SHEPARD DR, SAINT LOUIS, MO, 63103",107597731,"L"
520544,"3310 SAN PABLO COURT","UNION CITY","CA",94587,37.593408745,-122.069579498,44,"3310 SAN PABLO COURT, UNION CITY, CA, 94587","Match","Exact","3310 SAN PABLO CT, UNION CITY, CA, 94587",606169835,"L"
520545,"3310 SE DIVISION ST","PORTLAND","OR",97202,45.504789998,-122.631286078,45,"3310 SE DIVISION ST, PORTLAND, OR, 97202","Match","Exact","3310 SE DIVISION ST, PORTLAND, OR, 97202",157509906,"R"
520546,"3310 SEAGULL DR","VICTORIA","TX",77901,28.796934573,-96.9684576939999,46,"3310 SEAGULL DR, VICTORIA, TX, 77901","Match","Exact","3310 SEAGULL DR, VICTORIA, TX, 77901",44561594,"L"
520547,"3310 SHADY GLEN","MISSOURI CITY","TX",77459,29.5776986060001,-95.5557858019999,47,"3310 SHADY GLEN, MISSOURI CITY, TX, 77459","Match","Non_Exact","3310 SHADY GLEN LN, MISSOURI CITY, TX, 77459",78269358,"L"
520548,"3310 SHANNON PARK DRIVE","FREDERICKSBURG","VA",22408,38.2701417660001,-77.450768664,48,"3310 SHANNON PARK DRIVE, FREDERICKSBURG, VA, 22408","Match","Exact","3310 SHANNON PARK DR, FREDERICKSBURG, VA, 22408",640914353,"L"
520549,"3310 SHEPHERD ST NW","NORTH CANTON","OH",44720,40.9314967330001,-81.4058592329999,49,"3310 SHEPHERD ST NW, NORTH CANTON, OH, 44720","Match","Exact","3310 SHEPHERD ST NW, NORTH CANTON, OH, 44720",652736698,"L"
520550,"3310 SOUTHERN DRIVE","EFLAND","NC",27243,36.0791620970001,-79.16632695,50,"3310 SOUTHERN DRIVE, EFLAND, NC, 27243","Match","Exact","3310 SOUTHERN DR, EFLAND, NC, 27243",72424287,"L"
520551,"3310 STEAMBOAT WAY APT 2","MUSCATINE","IA",52761,41.450267066,-91.0810951719999,51,"3310 STEAMBOAT WAY APT 2, MUSCATINE, IA, 52761","Match","Exact","3310 STEAMBOAT WAY, MUSCATINE, IA, 52761",650443333,"R"
520552,"3310 STEAMBOAY WAY APT 2","MUSCATINE","IA",52761,NA,NA,52,"3310 STEAMBOAY WAY APT 2, MUSCATINE, IA, 52761","No_Match",NA,NA,NA,NA
520553,"3310 STEEP CREEK RD","COVINTON","KY",41015,38.9265588480001,-84.494155381,53,"3310 STEEP CREEK RD, COVINTON, KY, 41015","Match","Non_Exact","3310 STEEP CREEK RD, COVINGTON, KY, 41015",210771601,"L"
520554,"3310 STRATHMORE PLACE","EUGENE","OR",97405,44.0364764230001,-123.142956535,54,"3310 STRATHMORE PLACE, EUGENE, OR, 97405","Match","Exact","3310 STRATHMORE PL, EUGENE, OR, 97405",178164494,"L"
520555,"3310 SUNFLOWER DR","PRESCOTT","AZ",86301,34.6048543270001,-112.461906515,55,"3310 SUNFLOWER DR, PRESCOTT, AZ, 86301","Match","Non_Exact","3310 SUNFLOWER DR, PRESCOTT, AZ, 86305",159508095,"L"
520556,"3310 TAMWORTH LANE","GASTONIA","NC",28052,35.2349817750001,-81.2390279529999,56,"3310 TAMWORTH LANE, GASTONIA, NC, 28052","Match","Exact","3310 TAMWORTH LN, GASTONIA, NC, 28052",70452344,"L"
520557,"3310 TRAVIS STREET","CLEVELAND","TN",37312,35.1955166270001,-84.8731221099999,57,"3310 TRAVIS STREET, CLEVELAND, TN, 37312","Match","Non_Exact","3310 TRAVIS ST NW, CLEVELAND, TN, 37312",57576666,"R"
520558,"3310 TROJAN RD","VENICE","FL",34293,27.0580995,-82.403394125,58,"3310 TROJAN RD, VENICE, FL, 34293","Match","Exact","3310 TROJAN RD, VENICE, FL, 34293",16373186,"R"
520559,"3310 VALLLEY BEND RD","ATLANTA","GA",30349,33.5775782260001,-84.491519884,59,"3310 VALLLEY BEND RD, ATLANTA, GA, 30349","Match","Non_Exact","3310 VALLEY BEND RD, ATLANTA, GA, 30349",17351379,"L"
520560,"3310 W 17TH ST","LOS ANGELES","CA",90019,34.0418112140001,-118.320279095,60,"3310 W 17TH ST, LOS ANGELES, CA, 90019","Match","Exact","3310 W 17TH ST, LOS ANGELES, CA, 90019",141605533,"L"
520561,"3310 W 64TH ST","CHICAGO","IL",60629,41.777104449,-87.705918375,61,"3310 W 64TH ST, CHICAGO, IL, 60629","Match","Exact","3310 W 64TH ST, CHICAGO, IL, 60629",111819408,"R"
520562,"3310 W BAKER LANE SUITE 300-834","AUSTIN","TX",78758,NA,NA,62,"3310 W BAKER LANE SUITE 300-834, AUSTIN, TX, 78758","No_Match",NA,NA,NA,NA
520563,"3310 W BETTY AVE","PAHRUMP","NV",89060,36.226605245,-116.069602568,63,"3310 W BETTY AVE, PAHRUMP, NV, 89060","Match","Exact","3310 W BETTY AVE, PAHRUMP, NV, 89060",140594243,"L"
520564,"3310 W BRAKER LANE SUITE 300-221","AUSTIN","TX",78758,NA,NA,64,"3310 W BRAKER LANE SUITE 300-221, AUSTIN, TX, 78758","No_Match",NA,NA,NA,NA
520565,"3310 W BRAKER LANE SUITE 300-834","AUSTIN","TX",78758,NA,NA,65,"3310 W BRAKER LANE SUITE 300-834, AUSTIN, TX, 78758","No_Match",NA,NA,NA,NA
520566,"3310 W BRAKER LANE SUITE 300-918","AUSTIN","TX",78758,NA,NA,66,"3310 W BRAKER LANE SUITE 300-918, AUSTIN, TX, 78758","No_Match",NA,NA,NA,NA
520567,"3310 W CALLE CEREZA","TUCSON","AZ",85741,32.3244614930001,-111.036313195,67,"3310 W CALLE CEREZA, TUCSON, AZ, 85741","Match","Non_Exact","3310 W CLL CEREZA, TUCSON, AZ, 85741",121159470,"R"
520568,"3310 W CALLE CERVEZA","TUCSON","AZ",85741,NA,NA,68,"3310 W CALLE CERVEZA, TUCSON, AZ, 85741","No_Match",NA,NA,NA,NA
520569,"3310 W CHIVE PL","TUCSON","AZ",85741,32.3209365750001,-111.035907301,69,"3310 W CHIVE PL, TUCSON, AZ, 85741","Match","Exact","3310 W CHIVE PL, TUCSON, AZ, 85741",121159479,"R"
520570,"3310 W COMMERCE ST","SAN ANTONIO","TX",78207,29.4287565860001,-98.533688819,70,"3310 W COMMERCE ST, SAN ANTONIO, TX, 78207","Match","Exact","3310 W COMMERCE ST, SAN ANTONIO, TX, 78207",101684475,"L"
520571,"3310 W PHELPS RD","PHOENIX","AZ",85053,33.638002741,-112.128690146,71,"3310 W PHELPS RD, PHOENIX, AZ, 85053","Match","Exact","3310 W PHELPS RD, PHOENIX, AZ, 85053",128176183,"L"
520572,"3310 WALKER GAMBLE","NEW ZION","SC",29111,33.82586681,-80.037568972,72,"3310 WALKER GAMBLE, NEW ZION, SC, 29111","Match","Non_Exact","3310 WALKER GAMBLE RD, NEW ZION, SC, 29111",71430128,"R"
520573,"3310 WARWOOD ROAD","LAKEWOOD","CA",90712,33.8363545670001,-118.154596108,73,"3310 WARWOOD ROAD, LAKEWOOD, CA, 90712","Match","Exact","3310 WARWOOD RD, LAKEWOOD, CA, 90712",642864950,"R"
520574,"3310 WENDELLS LN","ACCOKEEK","MD",20607,38.6976857670001,-76.949772821,74,"3310 WENDELLS LN, ACCOKEEK, MD, 20607","Match","Exact","3310 WENDELLS LN, ACCOKEEK, MD, 20607",638291676,"L"
520575,"3310 WEST 7TH STREET APT 20","HATTIESBURG","MS",39401,31.335797244,-89.338840276,75,"3310 WEST 7TH STREET APT 20, HATTIESBURG, MS, 39401","Match","Exact","3310 W 7TH ST, HATTIESBURG, MS, 39401",607639297,"L"
520576,"3310 WEST END AVE STE 500","NASHVILLE","TN",37203,36.140648496,-86.817684517,76,"3310 WEST END AVE STE 500, NASHVILLE, TN, 37203","Match","Exact","3310 W END AVE, NASHVILLE, TN, 37203",97189861,"R"
520577,"3310 WEST RIDGE PIKE","POTTSTOWN","PA",19464,40.242720422,-75.5564360609999,77,"3310 WEST RIDGE PIKE, POTTSTOWN, PA, 19464","Match","Exact","3310 W RIDGE PIKE, POTTSTOWN, PA, 19464",636463133,"R"
520578,"3310 WINSTON STREET","PIGEON FORGE","TN",37863,35.7920982680001,-83.549617326,78,"3310 WINSTON STREET, PIGEON FORGE, TN, 37863","Match","Exact","3310 WINSTON ST, PIGEON FORGE, TN, 37863",647221265,"L"
520579,"3310 WOODSIDE","DEARBORN","MI",48124,42.2874782480001,-83.2307894639999,79,"3310 WOODSIDE, DEARBORN, MI, 48124","Match","Non_Exact","3310 WOODSIDE ST, DEARBORN, MI, 48124",642520248,"R"
520580,"3310 YORK RD S APT B","SEATTLE","WA",98144,47.573384312,-122.287502706,80,"3310 YORK RD S APT B, SEATTLE, WA, 98144","Match","Exact","3310 YORK RD S, SEATTLE, WA, 98144",186682353,"R"
520581,"33100 CLEVELAND CLINIC BLVD","AVON","OH",44011,41.469111556,-81.988217307,81,"33100 CLEVELAND CLINIC BLVD, AVON, OH, 44011","Match","Exact","33100 CLEVELAND CLINIC BLVD, AVON, OH, 44011",650200419,"L"
520582,"33100 E HISTORIC COLUMBIA RIVER HWY","CORBETT","OR",97019,45.516652843,-122.322097202,82,"33100 E HISTORIC COLUMBIA RIVER HWY, CORBETT, OR, 97019","Match","Exact","33100 E HISTORIC COLUMBIA RIVER HWY, CORBETT, OR, 97019",647829108,"R"
520583,"33102 VAN DISSEL RD SE","VALLEY","WA",99181,NA,NA,83,"33102 VAN DISSEL RD SE, VALLEY, WA, 99181","No_Match",NA,NA,NA,NA
520584,"33104 CANOPY LN","LAKE ELSINORE","CA",92532,33.6571614110001,-117.245070172,84,"33104 CANOPY LN, LAKE ELSINORE, CA, 92532","Match","Exact","33104 CANOPY LN, LAKE ELSINORE, CA, 92532",608994549,"R"
520585,"33104 GRANDRIVER","FARMINGTON HILLS","MI",48336,NA,NA,85,"33104 GRANDRIVER, FARMINGTON HILLS, MI, 48336","No_Match",NA,NA,NA,NA
520586,"33105 28TH AVE SW","FEDERAL WAY","WA",98023,47.3057171070001,-122.369822169,86,"33105 28TH AVE SW, FEDERAL WAY, WA, 98023","Match","Exact","33105 28TH AVE SW, FEDERAL WAY, WA, 98023",186650954,"R"
520587,"33105 OLD SALISBURY ROAD","ALBEMARLE","NC",28001,35.3810170030001,-80.217930838,87,"33105 OLD SALISBURY ROAD, ALBEMARLE, NC, 28001","Match","Exact","33105 OLD SALISBURY RD, ALBEMARLE, NC, 28001",14077239,"L"
520588,"33109 SE OXBOW DR","GRESHAM","OR",97080,45.483171143,-122.325168359,88,"33109 SE OXBOW DR, GRESHAM, OR, 97080","Match","Exact","33109 SE OXBOW DR, GRESHAM, OR, 97080",633305308,"L"
520589,"33109 YUCCA STREET","TEMECULA","CA",92592,33.470999357,-117.081947605,89,"33109 YUCCA STREET, TEMECULA, CA, 92592","Match","Exact","33109 YUCCA ST, TEMECULA, CA, 92592",609003110,"L"
520590,"3310BARRE ROAD","OAKHAM","MA",1068,NA,NA,90,"3310BARRE ROAD, OAKHAM, MA, 1068","No_Match",NA,NA,NA,NA
520591,"3311 146TH CIRCLE","URBANDALE","IA",50323,41.6264661490001,-93.820289273,91,"3311 146TH CIRCLE, URBANDALE, IA, 50323","Match","Exact","3311 146TH CIR, URBANDALE, IA, 50323",65645962,"R"
520592,"3311 178TH AVE CT KPN","LAKEBAY","WA",98349,NA,NA,92,"3311 178TH AVE CT KPN, LAKEBAY, WA, 98349","No_Match",NA,NA,NA,NA
520593,"3311 22ND SUITE 221","WOODWARD","OK",73801,NA,NA,93,"3311 22ND SUITE 221, WOODWARD, OK, 73801","No_Match",NA,NA,NA,NA
520594,"3311 35TH ST","ROCK ISLAND","IL",61201,41.476598778,-90.551933192,94,"3311 35TH ST, ROCK ISLAND, IL, 61201","Match","Exact","3311 35TH ST, ROCK ISLAND, IL, 61201",9209064,"L"
520595,"3311 45TH AVE SOUTH","FARGO","ND",58104,46.8128134350001,-96.831707847,95,"3311 45TH AVE SOUTH, FARGO, ND, 58104","Match","Exact","3311 45TH AVE S, FARGO, ND, 58104",151461013,"R"
520596,"3311 48TH STREET","DES MOINES","IA",50310,41.6247259630001,-93.682856546,96,"3311 48TH STREET, DES MOINES, IA, 50310","Match","Exact","3311 48TH ST, DES MOINES, IA, 50310",65779196,"R"
520597,"3311 56TH AVE N","ST PETERSBURG","FL",33714,27.8229043650001,-82.67784116,97,"3311 56TH AVE N, ST PETERSBURG, FL, 33714","Match","Exact","3311 56TH AVE N, SAINT PETERSBURG, FL, 33714",124701920,"R"
520598,"3311 7TH STREET NW","ROCHESTER","MN",55901,44.033082203,-92.5129709729999,98,"3311 7TH STREET NW, ROCHESTER, MN, 55901","Match","Exact","3311 7TH ST NW, ROCHESTER, MN, 55901",30567062,"R"
520599,"3311 96TH AVENUE","WAUSAU","WI",54401,NA,NA,99,"3311 96TH AVENUE, WAUSAU, WI, 54401","No_Match",NA,NA,NA,NA
520600,"3311 ALICEMONT AVENUE","CINCINNATI","OH",45209,39.149423944,-84.423045402,100,"3311 ALICEMONT AVENUE, CINCINNATI, OH, 45209","Match","Exact","3311 ALICEMONT AVE, CINCINNATI, OH, 45209",103932956,"L"
520601,"3311 AMETHYST STREET","LOS ANGELES","CA",90032,34.0835479260001,-118.195794061,101,"3311 AMETHYST STREET, LOS ANGELES, CA, 90032","Match","Exact","3311 AMETHYST ST, LOS ANGELES, CA, 90032",141622988,"L"
520602,"3311 AVENUE Q APT 2","KEARNEY","NE",68847,40.708030503,-99.06141514,102,"3311 AVENUE Q APT 2, KEARNEY, NE, 68847","Match","Exact","3311 AVE Q, KEARNEY, NE, 68847",137838956,"R"
520603,"3311 BANDELL","HOUSTON","TX",77045,29.6419031460001,-95.42630611,103,"3311 BANDELL, HOUSTON, TX, 77045","Match","Non_Exact","3311 BANDELL DR, HOUSTON, TX, 77045",96552343,"R"
520604,"3311 BELGRADE STREET","PHILADELPHIA","PA",19134,39.9877429790001,-75.101536126,104,"3311 BELGRADE STREET, PHILADELPHIA, PA, 19134","Match","Exact","3311 BELGRADE ST, PHILADELPHIA, PA, 19134",131427631,"R"
520605,"3311 BEREDITH PLACE","CINCINNATI","OH",45213,39.1875244610001,-84.4246607709999,105,"3311 BEREDITH PLACE, CINCINNATI, OH, 45213","Match","Exact","3311 BEREDITH PL, CINCINNATI, OH, 45213",640627506,"R"
520606,"3311 BEVERLY BLVD  SUITE B","EVERETT","WA",98203,NA,NA,106,"3311 BEVERLY BLVD  SUITE B, EVERETT, WA, 98203","No_Match",NA,NA,NA,NA
520607,"3311 BIG COVE LN","LOUISVILLE","TN",37777,35.7951646760001,-84.11291521,107,"3311 BIG COVE LN, LOUISVILLE, TN, 37777","Match","Exact","3311 BIG COVE LN, LOUISVILLE, TN, 37777",89826055,"L"
520608,"3311 BIG SPRUCE DRIVE","KINGWOOD","TX",77339,30.069258389,-95.190155751,108,"3311 BIG SPRUCE DRIVE, KINGWOOD, TX, 77339","Match","Exact","3311 BIG SPRUCE DR, KINGWOOD, TX, 77339",96553928,"L"
520609,"3311 BIG SPRUCE","KINGWOOD","TX",77339,30.069258389,-95.190155751,109,"3311 BIG SPRUCE, KINGWOOD, TX, 77339","Match","Non_Exact","3311 BIG SPRUCE DR, KINGWOOD, TX, 77339",96553928,"L"
520610,"3311 BLUE ASH LANE","INDIANAPOLIS","IN",46239,39.7202632130001,-86.015158336,110,"3311 BLUE ASH LANE, INDIANAPOLIS, IN, 46239","Match","Exact","3311 BLUE ASH LN, INDIANAPOLIS, IN, 46239",108064618,"L"
520611,"3311 BRIGHTON ST","PORTSMOUTH","VA",23707,36.826104489,-76.341787535,111,"3311 BRIGHTON ST, PORTSMOUTH, VA, 23707","Match","Exact","3311 BRIGHTON ST, PORTSMOUTH, VA, 23707",122192468,"L"
520612,"3311 BROADMOOR DR","BRYAN","TX",77802,30.6676274590001,-96.344137385,112,"3311 BROADMOOR DR, BRYAN, TX, 77802","Match","Exact","3311 BROADMOOR DR, BRYAN, TX, 77802",635097977,"L"
520613,"3311 BUTLER PASS","SAN ANTONIO","TX",78223,29.3153230570001,-98.435328209,113,"3311 BUTLER PASS, SAN ANTONIO, TX, 78223","Match","Exact","3311 BUTLER PASS, SAN ANTONIO, TX, 78223",619996244,"R"
520614,"3311 CALLE DEL MAR","MELBOURNE","FL",32904,28.058456042,-80.6430049579999,114,"3311 CALLE DEL MAR, MELBOURNE, FL, 32904","Match","Non_Exact","3311 CLL DEL MAR, MELBOURNE, FL, 32904",93954159,"L"
520615,"3311 CANTAMAR CT","SAN JOSE","CA",95135,37.3115731280001,-121.7587297,115,"3311 CANTAMAR CT, SAN JOSE, CA, 95135","Match","Exact","3311 CANTAMAR CT, SAN JOSE, CA, 95135",123171256,"L"
520616,"3311 CHARDON WAY","VALDOSTA","GA",31602,30.898591202,-83.3202251499999,116,"3311 CHARDON WAY, VALDOSTA, GA, 31602","Match","Exact","3311 CHARDON WAY, VALDOSTA, GA, 31602",87730999,"L"
520617,"3311 CHARLESTON PL","DUNWOODY","GA",30338,33.923936521,-84.305020191,117,"3311 CHARLESTON PL, DUNWOODY, GA, 30338","Match","Exact","3311 CHARLESTON PL, DUNWOODY, GA, 30338",23394295,"R"
520618,"3311 CLARE DR APT 36","SAN ANGELO","TX",76904,31.436683347,-100.480902224,118,"3311 CLARE DR APT 36, SAN ANGELO, TX, 76904","Match","Exact","3311 CLARE DR, SAN ANGELO, TX, 76904",190686455,"R"
520619,"3311 COLE MILL RD","CHARLOTTE","NC",28270,35.0733061500001,-80.7429567519999,119,"3311 COLE MILL RD, CHARLOTTE, NC, 28270","Match","Exact","3311 COLE MILL RD, CHARLOTTE, NC, 28270",70553189,"R"
520620,"3311 COUNTY RD Y","CUSTER","WI",54423,NA,NA,120,"3311 COUNTY RD Y, CUSTER, WI, 54423","No_Match",NA,NA,NA,NA
520621,"3311 COUNTY ROAD 496","ISHPEMING","MI",49849,46.487762005,-87.761290759,121,"3311 COUNTY ROAD 496, ISHPEMING, MI, 49849","Match","Exact","3311 CO RD 496, ISHPEMING, MI, 49849",651729531,"L"
520622,"3311 CR 415","TYLER","TX",75704,32.386645313,-95.469022566,122,"3311 CR 415, TYLER, TX, 75704","Match","Exact","3311 CO RD 415, TYLER, TX, 75704",141263514,"L"
520623,"3311 CRESCENT DR","HUEYTOWN","AL",35023,33.4311974030001,-86.987202711,123,"3311 CRESCENT DR, HUEYTOWN, AL, 35023","Match","Exact","3311 CRESCENT DR, HUEYTOWN, AL, 35023",81547881,"L"
520624,"3311 DAYTONA DR","BISMARCK","ND",58503,46.8393614130001,-100.8091571,124,"3311 DAYTONA DR, BISMARCK, ND, 58503","Match","Exact","3311 DAYTONA DR, BISMARCK, ND, 58503",198879224,"R"
520625,"3311 DEER ROAD","WISCONSIN RAPIDS","WI",54494,44.344292905,-89.783620469,125,"3311 DEER ROAD, WISCONSIN RAPIDS, WI, 54494","Match","Exact","3311 DEER RD, WISCONSIN RAPIDS, WI, 54494",51290067,"L"
520626,"3311 DRAGON FLY STREET NORTH","LAS VEGAS","NV",89032,36.219474313,-115.184401472,126,"3311 DRAGON FLY STREET NORTH, LAS VEGAS, NV, 89032","Match","Non_Exact","3311 DRAGON FLY ST, N LAS VEGAS, NV, 89032",201976119,"L"
520627,"3311 DUNBROOKE DRIVE","BIRMINGHAM","AL",35243,33.472549384,-86.725679341,127,"3311 DUNBROOKE DRIVE, BIRMINGHAM, AL, 35243","Match","Exact","3311 DUNBROOKE DR, BIRMINGHAM, AL, 35243",81588959,"R"
520628,"3311 E CENTER RD","HASTINGS","MI",49058,42.6394802950001,-85.226102361,128,"3311 E CENTER RD, HASTINGS, MI, 49058","Match","Exact","3311 CENTER RD, HASTINGS, MI, 49058",642568378,"L"
520629,"3311 E DONORA CT","SPOKANE","WA",99223,47.5994128940001,-117.36228018,129,"3311 E DONORA CT, SPOKANE, WA, 99223","Match","Exact","3311 E DONORA CT, SPOKANE, WA, 99223",189883485,"L"
520630,"3311 E DRY CREEK RD","PHOENIX","AZ",85044,33.315197149,-112.01201553,130,"3311 E DRY CREEK RD, PHOENIX, AZ, 85044","Match","Exact","3311 E DRY CREEK RD, PHOENIX, AZ, 85044",128268421,"R"
520631,"3311 E HOUGHTON LAKE DR","HOUGHTON LAKE","MI",48629,44.3397137490001,-84.6604632089999,131,"3311 E HOUGHTON LAKE DR, HOUGHTON LAKE, MI, 48629","Match","Exact","3311 E HOUGHTON LAKE DR, HOUGHTON LAKE, MI, 48629",647936825,"L"
520632,"3311 EAST LEDBETTER DRIVE","DALLAS","TX",75216,32.699901524,-96.761082464,132,"3311 EAST LEDBETTER DRIVE, DALLAS, TX, 75216","Match","Non_Exact","3311 LEDBETTER DR, DALLAS, TX, 75216",102956757,"L"
520633,"3311 EASTWOOD DRIVE","FORT WAYNE","IN",46805,41.105500777,-85.097559818,133,"3311 EASTWOOD DRIVE, FORT WAYNE, IN, 46805","Match","Exact","3311 EASTWOOD DR, FORT WAYNE, IN, 46805",606512630,"L"
520634,"3311 ELM STREET APT 313","DALLAS","TX",75226,32.7858849470001,-96.777647881,134,"3311 ELM STREET APT 313, DALLAS, TX, 75226","Match","Exact","3311 ELM ST, DALLAS, TX, 75226",103198325,"L"
520635,"3311 ENDICOTT LANDE","PEARLAND","TX",77584,29.5376329440001,-95.359945909,135,"3311 ENDICOTT LANDE, PEARLAND, TX, 77584","Match","Non_Exact","3311 ENDICOTT LN, PEARLAND, TX, 77584",116611645,"R"
520636,"3311 FLORA AVENUE","KANSAS CITY","MO",64109,39.0663778730001,-94.565688009,136,"3311 FLORA AVENUE, KANSAS CITY, MO, 64109","Match","Exact","3311 FLORA AVE, KANSAS CITY, MO, 64109",91449809,"L"
520637,"3311 FLOWERY TRAIL RD","CHEWELAH","WA",99109,NA,NA,137,"3311 FLOWERY TRAIL RD, CHEWELAH, WA, 99109","No_Match",NA,NA,NA,NA
520638,"3311 FOREST HILL EAST RD","LA GRANGE","TX",78945,29.9324150210001,-96.822598514,138,"3311 FOREST HILL EAST RD, LA GRANGE, TX, 78945","Match","Exact","3311 FOREST HILL EAST RD, LA GRANGE, TX, 78945",42012692,"L"
520639,"3311 FULMAR DRIVE","ALBANY","GA",31721,31.611915077,-84.2364091279999,139,"3311 FULMAR DRIVE, ALBANY, GA, 31721","Match","Non_Exact","3311 FULMER DR, ALBANY, GA, 31721",84312017,"R"
520640,"3311 GILES PLACE APT 1H","BRONX","NY",10463,40.8787536610001,-73.89859675,140,"3311 GILES PLACE APT 1H, BRONX, NY, 10463","Match","Exact","3311 GILES PL, BRONX, NY, 10463",80296626,"L"
520641,"3311 GORDONIA CIR SE","SOUTHPORT","NC",28461,33.9411259720001,-78.1067852429999,141,"3311 GORDONIA CIR SE, SOUTHPORT, NC, 28461","Match","Exact","3311 GORDONIA CIR SE, SOUTHPORT, NC, 28461",153159921,"R"
520642,"3311 GUMWOOD AVE","MCALLEN","TX",78501,26.2133760150001,-98.2561924,142,"3311 GUMWOOD AVE, MCALLEN, TX, 78501","Match","Exact","3311 GUMWOOD AVE, MCALLEN, TX, 78501",71500401,"L"
520643,"3311 GUMWOOD DR","HYATTSVILLE","MD",20783,38.9795960860001,-76.958437461,143,"3311 GUMWOOD DR, HYATTSVILLE, MD, 20783","Match","Exact","3311 GUMWOOD DR, HYATTSVILLE, MD, 20783",76303947,"R"
520644,"3311 HARBOR BEACH DRIVE","LAKE WALES","FL",33859,27.854489162,-81.5828516019999,144,"3311 HARBOR BEACH DRIVE, LAKE WALES, FL, 33859","Match","Exact","3311 HARBOR BEACH DR, LAKE WALES, FL, 33859",642906739,"L"
520645,"3311 HASKINS RD","BONANZA","OR",97623,42.2565581590001,-121.457272291,145,"3311 HASKINS RD, BONANZA, OR, 97623","Match","Exact","3311 HASKINS RD, BONANZA, OR, 97623",614451210,"R"
520646,"3311 HIGHWAY 86","PIEDMONT","SC",29673,34.7277737270001,-82.531731435,146,"3311 HIGHWAY 86, PIEDMONT, SC, 29673","Match","Non_Exact","3311 STATE HWY 86, PIEDMONT, SC, 29673",25442454,"L"
520647,"3311 INGERSOLL AVE","DES MOINES","IA",50312,41.5862924840001,-93.6613278029999,147,"3311 INGERSOLL AVE, DES MOINES, IA, 50312","Match","Exact","3311 INGERSOLL AVE, DES MOINES, IA, 50312",65780826,"R"
520648,"3311 INNISBROOK DRIVE","LAKELAND","FL",33810,28.0847876020001,-81.9913862229999,148,"3311 INNISBROOK DRIVE, LAKELAND, FL, 33810","Match","Exact","3311 INNISBROOK DR, LAKELAND, FL, 33810",104893242,"L"
520649,"3311 JUDYTHE COURT","BRYAN","TX",77803,30.7183563350001,-96.388856548,149,"3311 JUDYTHE COURT, BRYAN, TX, 77803","Match","Exact","3311 JUDYTHE CT, BRYAN, TX, 77803",21828637,"L"
520650,"3311 KEYSTONE AVE APT 3","LOS ANGELES","CA",90034,34.027825331,-118.412638393,150,"3311 KEYSTONE AVE APT 3, LOS ANGELES, CA, 90034","Match","Exact","3311 KEYSTONE AVE, LOS ANGELES, CA, 90034",141573615,"R"
520651,"3311 KIMBALL AVE","MEMPHIS","TN",38111,35.094697685,-89.952470131,151,"3311 KIMBALL AVE, MEMPHIS, TN, 38111","Match","Exact","3311 KIMBALL AVE, MEMPHIS, TN, 38111",72919975,"R"
520652,"3311 KNOX AVENUE N","MINNEAPOLIS","MN",55412,45.0153056290001,-93.301920679,152,"3311 KNOX AVENUE N, MINNEAPOLIS, MN, 55412","Match","Exact","3311 KNOX AVE N, MINNEAPOLIS, MN, 55412",43622171,"L"
520653,"3311 LAKE CANYON CT","SUGAR LAND","TX",77498,29.628828952,-95.675013205,153,"3311 LAKE CANYON CT, SUGAR LAND, TX, 77498","Match","Exact","3311 LAKE CANYON CT, SUGAR LAND, TX, 77498",78334089,"R"
520654,"3311 LAKES OF KATY LANE","KATY","TX",77493,29.8218895750001,-95.847066973,154,"3311 LAKES OF KATY LANE, KATY, TX, 77493","Match","Exact","3311 LAKES OF KATY LN, KATY, TX, 77493",646647772,"R"
520655,"3311 LINDER GREEN DR","SPRING","TX",77386,30.132495711,-95.391386493,155,"3311 LINDER GREEN DR, SPRING, TX, 77386","Match","Exact","3311 LINDER GREEN DR, SPRING, TX, 77386",614128375,"R"
520656,"3311 LONGDALE STATION ROAD","CLIFTON FORGE","VA",24422,37.83166333,-79.772918854,156,"3311 LONGDALE STATION ROAD, CLIFTON FORGE, VA, 24422","Match","Exact","3311 LONGDALE STATION RD, CLIFTON FORGE, VA, 24422",62557134,"L"
520657,"3311 MAYNARD ROAD","SHAKER HEIGHTS","OH",44122,41.4690588600001,-81.548410911,157,"3311 MAYNARD ROAD, SHAKER HEIGHTS, OH, 44122","Match","Exact","3311 MAYNARD RD, SHAKER HEIGHTS, OH, 44122",61128932,"L"
520658,"3311 MCDILL ROAD","BRADENTON","FL",34207,27.4265136010001,-82.5944531979999,158,"3311 MCDILL ROAD, BRADENTON, FL, 34207","Match","Exact","3311 MCDILL RD, BRADENTON, FL, 34207",16239071,"R"
520659,"3311 MEADOW WOOD DRIVE","RICHARDSON","TX",75082,32.995433549,-96.651462765,159,"3311 MEADOW WOOD DRIVE, RICHARDSON, TX, 75082","Match","Exact","3311 MEADOW WOOD DR, RICHARDSON, TX, 75082",640567249,"L"
520660,"3311 MICHIGAN AVE","COLORADO SPGS","CO",80910,38.8259160010001,-104.770723574,160,"3311 MICHIGAN AVE, COLORADO SPGS, CO, 80910","Match","Exact","3311 MICHIGAN AVE, COLORADO SPRINGS, CO, 80910",105517873,"R"
520661,"3311 MONA DRIVE","NAVARRE","FL",32566,30.4549307360001,-86.9114659689999,161,"3311 MONA DRIVE, NAVARRE, FL, 32566","Match","Exact","3311 MONA DR, NAVARRE, FL, 32566",74560041,"L"
520662,"3311 MONMOUTH STREET","KNOXVILLE","TN",37917,36.0033901580001,-83.923885319,162,"3311 MONMOUTH STREET, KNOXVILLE, TN, 37917","Match","Non_Exact","3311 MONMOUTH ST NE, KNOXVILLE, TN, 37917",42617865,"L"
520663,"3311 MONTEREY CT NE","RENTON","WA",98056,47.521527039,-122.19186385,163,"3311 MONTEREY CT NE, RENTON, WA, 98056","Match","Exact","3311 MONTEREY CT NE, RENTON, WA, 98056",239782041,"L"
520664,"3311 N 22ND ST","PHILADELPHIA","PA",19140,40.0049883470001,-75.165517989,164,"3311 N 22ND ST, PHILADELPHIA, PA, 19140","Match","Exact","3311 N 22ND ST, PHILADELPHIA, PA, 19140",131402445,"R"
520665,"3311 N 40TH DRIVE","PHOENIX","AZ",85019,33.4859792620001,-112.146067907,165,"3311 N 40TH DRIVE, PHOENIX, AZ, 85019","Match","Exact","3311 N 40TH DR, PHOENIX, AZ, 85019",128323606,"R"
520666,"3311 N FRY RD","KATY","TX",77449,29.81875968,-95.720264834,166,"3311 N FRY RD, KATY, TX, 77449","Match","Exact","3311 FRY RD, KATY, TX, 77449",644652031,"L"
520667,"3311 NORTH RIDGE DRIVE","WACO","TX",76710,31.553428938,-97.210224731,167,"3311 NORTH RIDGE DRIVE, WACO, TX, 76710","Match","Exact","3311 N RIDGE DR, WACO, TX, 76710",630130421,"R"
520668,"3311 NW 182 STREET","MIAMI GARDENS","FL",33056,25.939605468,-80.2556949089999,168,"3311 NW 182 STREET, MIAMI GARDENS, FL, 33056","Match","Exact","3311 NW 182ND ST, MIAMI GARDENS, FL, 33056",116027738,"R"
520669,"3311 OAKMAN BLVD","DETROIT","MI",48206,42.382499002,-83.143743338,169,"3311 OAKMAN BLVD, DETROIT, MI, 48206","Match","Non_Exact","3311 OAKMAN BLVD, DETROIT, MI, 48238",95470196,"L"
520670,"3311 OLD COLONY ROAD","KALAMAZOO","MI",49008,42.258262948,-85.600152642,170,"3311 OLD COLONY ROAD, KALAMAZOO, MI, 49008","Match","Exact","3311 OLD COLONY RD, KALAMAZOO, MI, 49008",12229332,"L"
520671,"3311 PACIFIC COURT","LOUISVILLE","KY",40211,38.225269462,-85.810204842,171,"3311 PACIFIC COURT, LOUISVILLE, KY, 40211","Match","Exact","3311 PACIFIC CT, LOUISVILLE, KY, 40211",96836818,"R"
520672,"3311 PATTERSON RD","LIBERTY","MS",39645,31.1221507920001,-90.715338442,172,"3311 PATTERSON RD, LIBERTY, MS, 39645","Match","Exact","3311 PATTERSON RD, LIBERTY, MS, 39645",612205735,"L"
520673,"3311 PERRY HILL RD","WATERBURY","VT",5676,44.354547611,-72.699502203,173,"3311 PERRY HILL RD, WATERBURY, VT, 5676","Match","Exact","3311 PERRY HILL RD, WATERBURY, VT, 05676",136693384,"L"
520674,"3311 PINEVALE AVE","DISTRICT HEIGHTS","MD",20747,38.843597092,-76.8781251779999,174,"3311 PINEVALE AVE, DISTRICT HEIGHTS, MD, 20747","Match","Exact","3311 PINEVALE AVE, DISTRICT HEIGHTS, MD, 20747",76404775,"R"
520675,"3311 PRINCESS LN","DALLAS","TX",75229,32.892329471,-96.8670848259999,175,"3311 PRINCESS LN, DALLAS, TX, 75229","Match","Exact","3311 PRINCESS LN, DALLAS, TX, 75229",102898609,"L"
520676,"3311 RED JASPER","NORMAL","IL",61761,40.5306700200001,-88.92872976,176,"3311 RED JASPER, NORMAL, IL, 61761","Match","Non_Exact","3311 RED JASPER ST, NORMAL, IL, 61761",20572638,"L"
520677,"3311 RHODE ISLAND AVE 101","MOUNT RAINIER","MD",20712,38.935833206,-76.96194625,177,"3311 RHODE ISLAND AVE 101, MOUNT RAINIER, MD, 20712","Match","Exact","3311 RHODE ISLAND AVE, MOUNT RAINIER, MD, 20712",638665469,"L"
520678,"3311 RHODE ISLAND AVE 215","MOUNT RAINIER","MD",20712,38.935833206,-76.96194625,178,"3311 RHODE ISLAND AVE 215, MOUNT RAINIER, MD, 20712","Match","Exact","3311 RHODE ISLAND AVE, MOUNT RAINIER, MD, 20712",638665469,"L"
520679,"3311 RHODE ISLAND AVE APT 209","MOUNT RAINIER","MD",20712,38.935833206,-76.96194625,179,"3311 RHODE ISLAND AVE APT 209, MOUNT RAINIER, MD, 20712","Match","Exact","3311 RHODE ISLAND AVE, MOUNT RAINIER, MD, 20712",638665469,"L"
520680,"3311 RHODE ISLAND AVE APT 215","MT RAINIER","MD",20712,38.935833206,-76.96194625,180,"3311 RHODE ISLAND AVE APT 215, MT RAINIER, MD, 20712","Match","Exact","3311 RHODE ISLAND AVE, MOUNT RAINIER, MD, 20712",638665469,"L"
520681,"3311 RHODE ISLAND AVE UNIT 307","MT RANIER","MD",20712,38.935833206,-76.96194625,181,"3311 RHODE ISLAND AVE UNIT 307, MT RANIER, MD, 20712","Match","Non_Exact","3311 RHODE ISLAND AVE, MOUNT RAINIER, MD, 20712",638665469,"L"
520682,"3311 RHODE ISLAND AVE","MOUNT RAINIER","MD",20712,38.935833206,-76.96194625,182,"3311 RHODE ISLAND AVE, MOUNT RAINIER, MD, 20712","Match","Exact","3311 RHODE ISLAND AVE, MOUNT RAINIER, MD, 20712",638665469,"L"
520683,"3311 RHODE ISLANDE AVENUE APT 101","MT RAINIER","MD",20712,38.935833206,-76.96194625,183,"3311 RHODE ISLANDE AVENUE APT 101, MT RAINIER, MD, 20712","Match","Non_Exact","3311 RHODE ISLAND AVE, MOUNT RAINIER, MD, 20712",638665469,"L"
520684,"3311 RICHMOND AVE SUITE 307","HOUSTON","TX",77098,29.7339947770001,-95.426614262,184,"3311 RICHMOND AVE SUITE 307, HOUSTON, TX, 77098","Match","Exact","3311 RICHMOND AVE, HOUSTON, TX, 77098",96620788,"L"
520685,"3311 ROLL LANE","EAGAN","MN",55121,44.841456893,-93.117195446,185,"3311 ROLL LANE, EAGAN, MN, 55121","Match","Exact","3311 ROLL LN, EAGAN, MN, 55121",37909660,"R"
520686,"3311 ROSS LN","MANVEL","TX",77578,29.538802816,-95.3952777109999,186,"3311 ROSS LN, MANVEL, TX, 77578","Match","Exact","3311 ROSS LN, MANVEL, TX, 77578",641839947,"R"
520687,"3311 S GREENPARK DR","HOUSTON","TX",77082,29.726858683,-95.611082928,187,"3311 S GREENPARK DR, HOUSTON, TX, 77082","Match","Exact","3311 S GREENPARK DR, HOUSTON, TX, 77082",96021566,"L"
520688,"3311 SAINT ANN STREET","NEW ORLEANS","LA",70119,29.97577777,-90.0888787979999,188,"3311 SAINT ANN STREET, NEW ORLEANS, LA, 70119","Match","Exact","3311 SAINT ANN ST, NEW ORLEANS, LA, 70119",191707689,"R"
520689,"3311 SEVILLE ROAD","SEVILLE","OH",44273,41.0099470260001,-81.8066886569999,189,"3311 SEVILLE ROAD, SEVILLE, OH, 44273","Match","Exact","3311 SEVILLE RD, SEVILLE, OH, 44273",58693080,"L"
520690,"3311 SOUTH PERRY STREET","MONTGOMERY","AL",36105,32.346629405,-86.3065347259999,190,"3311 SOUTH PERRY STREET, MONTGOMERY, AL, 36105","Match","Exact","3311 S PERRY ST, MONTGOMERY, AL, 36105",1475038,"L"
520691,"3311 ST PAUL ST","DENVER","CO",80205,39.7634223410001,-104.95118846,191,"3311 ST PAUL ST, DENVER, CO, 80205","Match","Exact","3311 SAINT PAUL ST, DENVER, CO, 80205",177310479,"L"
520692,"3311 SUMMER GLEN DR","GROVE CITY","OH",43123,39.8689725990001,-83.091316745,192,"3311 SUMMER GLEN DR, GROVE CITY, OH, 43123","Match","Exact","3311 SUMMER GLEN DR, GROVE CITY, OH, 43123",218640072,"R"
520693,"3311 SW 1ST AVE","CAPE CORAL","FL",33914,26.590719505,-81.976092201,193,"3311 SW 1ST AVE, CAPE CORAL, FL, 33914","Match","Exact","3311 SW 1ST AVE, CAPE CORAL, FL, 33914",118012353,"L"
520694,"3311 SW HK DODGEN LOOP APT 243","TEMPLE","TX",76502,31.0840058140001,-97.3847834009999,194,"3311 SW HK DODGEN LOOP APT 243, TEMPLE, TX, 76502","Match","Non_Exact","3311 H K DODGEN LP, TEMPLE, TX, 76502",637920811,"R"
520695,"3311 THREAD NEEDLE RD W","AUGUSTA","GA",30907,NA,NA,195,"3311 THREAD NEEDLE RD W, AUGUSTA, GA, 30907","No_Match",NA,NA,NA,NA
520696,"3311 VALENTINE ROAD","LAPEER","MI",48446,43.1257350010001,-83.329802463,196,"3311 VALENTINE ROAD, LAPEER, MI, 48446","Match","Exact","3311 VALENTINE RD, LAPEER, MI, 48446",110470195,"L"
520697,"3311 W 3RD ST APT 208","LOS ANGELES","CA",90020,34.068994665,-118.288129218,197,"3311 W 3RD ST APT 208, LOS ANGELES, CA, 90020","Match","Non_Exact","3311 W 3RD ST, LOS ANGELES, CA, 90020",141604968,"R"
520698,"3311 W MADISON","FRESNO","CA",93722,NA,NA,198,"3311 W MADISON, FRESNO, CA, 93722","No_Match",NA,NA,NA,NA
520699,"3311 WARRENSVILLE CENTER RD APT 506","SHAKER HEIGHTS","OH",44122,41.469592886,-81.5362869309999,199,"3311 WARRENSVILLE CENTER RD APT 506, SHAKER HEIGHTS, OH, 44122","Match","Exact","3311 WARRENSVILLE CENTER RD, SHAKER HEIGHTS, OH, 44122",61128975,"L"
520700,"3311 WARRENSVILLE CTR RD STE 101","SHAKER HTS","OH",44122,41.469592886,-81.5362869309999,200,"3311 WARRENSVILLE CTR RD STE 101, SHAKER HTS, OH, 44122","Match","Exact","3311 WARRENSVILLE CENTER RD, SHAKER HEIGHTS, OH, 44122",61128975,"L"
520701,"3311 WARRENSVILLE CTR RD","SHAKER HTS","OH",44122,41.469592886,-81.5362869309999,201,"3311 WARRENSVILLE CTR RD, SHAKER HTS, OH, 44122","Match","Exact","3311 WARRENSVILLE CENTER RD, SHAKER HEIGHTS, OH, 44122",61128975,"L"
520702,"3311 WINTERGREEN DR","IOWA CITY","IA",52240,41.6411750500001,-91.485198022,202,"3311 WINTERGREEN DR, IOWA CITY, IA, 52240","Match","Exact","3311 WINTERGREEN DR, IOWA CITY, IA, 52240",617542098,"L"
520703,"3311 WOODS BLV","TYLER","TX",75762,32.3104906340001,-95.252219402,203,"3311 WOODS BLV, TYLER, TX, 75762","Match","Non_Exact","3311 WOODS BLVD, TYLER, TX, 75707",141311141,"R"
520704,"3311 WYNDHAM CIR APT 2194","ALEXANDRIA","VA",22302,38.835821159,-77.10194344,204,"3311 WYNDHAM CIR APT 2194, ALEXANDRIA, VA, 22302","Match","Exact","3311 WYNDHAM CIR, ALEXANDRIA, VA, 22302",76066720,"L"
520705,"3311 YUKON AVENUE SOUTH","ST LOUIS PARK","MN",55426,44.9437120790001,-93.387033698,205,"3311 YUKON AVENUE SOUTH, ST LOUIS PARK, MN, 55426","Match","Exact","3311 YUKON AVE S, SAINT LOUIS PARK, MN, 55426",43624813,"L"
520706,"3311 YUPON ST /412","HOUSTON","TX",77006,29.743240675,-95.395750804,206,"3311 YUPON ST /412, HOUSTON, TX, 77006","Match","Exact","3311 YUPON ST, HOUSTON, TX, 77006",96064443,"L"
520707,"33110 POKAGON HIGHWAY","NILES","MI",49120,41.9122082910001,-86.2065825619999,207,"33110 POKAGON HIGHWAY, NILES, MI, 49120","Match","Exact","33110 POKAGON HWY, NILES, MI, 49120",22573665,"R"
520708,"33111 STATE HWY 196","WILEY","CO",81092,38.143621469,-102.795516922,208,"33111 STATE HWY 196, WILEY, CO, 81092","Match","Exact","33111 STATE HWY 196, WILEY, CO, 81092",138185611,"L"
520709,"33112 FM 1577","SAN BENITO","TX",78586,26.0796673360001,-97.617983156,209,"33112 FM 1577, SAN BENITO, TX, 78586","Match","Exact","33112 FM 1577, SAN BENITO, TX, 78586",90000482,"R"
520710,"33112 TRAFALGAR SQUARE  APT 5","WESTLAND","MI",48186,42.307865076,-83.366281214,210,"33112 TRAFALGAR SQUARE  APT 5, WESTLAND, MI, 48186","Match","Exact","33112 TRAFALGAR SQ, WESTLAND, MI, 48186",95712325,"L"
520711,"33114 CHAD RD","LONE ROCK","WI",53556,43.1923036170001,-90.215356324,211,"33114 CHAD RD, LONE ROCK, WI, 53556","Match","Exact","33114 CHAD RD, LONE ROCK, WI, 53556",624992368,"L"
520712,"33117 POKAGON HWY","NILES","MI",49120,41.9121935160001,-86.2070409519999,212,"33117 POKAGON HWY, NILES, MI, 49120","Match","Exact","33117 POKAGON HWY, NILES, MI, 49120",22573665,"L"
520713,"331173 E 990 RD","WELLSTON","OK",74881,35.5793569150001,-97.09025141,213,"331173 E 990 RD, WELLSTON, OK, 74881","Match","Exact","331173 990 RD, WELLSTON, OK, 74881",143056539,"R"
520714,"33118 FAIRWAY DRIVE","YUCAIPA","CA",92399,34.0385180120001,-117.081817016,214,"33118 FAIRWAY DRIVE, YUCAIPA, CA, 92399","Match","Exact","33118 FAIRWAY DR, YUCAIPA, CA, 92399",649801791,"L"
520715,"33118 JENSEN LANE","UNDERWOOD","MN",56586,46.365528763,-95.7984580199999,215,"33118 JENSEN LANE, UNDERWOOD, MN, 56586","Match","Exact","33118 JENSEN LN, UNDERWOOD, MN, 56586",608673511,"L"
520716,"33118 WINDCREST ESTATES BLVD","MAGNOLIA","TX",77354,30.2286285370001,-95.569389427,216,"33118 WINDCREST ESTATES BLVD, MAGNOLIA, TX, 77354","Match","Non_Exact","33118 WIND CREST ESTATES BLVD, MAGNOLIA, TX, 77354",79318062,"R"
520717,"3312 14TH ST W","LEHIGH ACRES","FL",33971,26.6260220240001,-81.681644036,217,"3312 14TH ST W, LEHIGH ACRES, FL, 33971","Match","Exact","3312 14TH ST W, LEHIGH ACRES, FL, 33971",118091062,"L"
520718,"3312 19TH STREET CT EAST","BRADENTON","FL",34208,27.470325598,-82.540438802,218,"3312 19TH STREET CT EAST, BRADENTON, FL, 34208","Match","Exact","3312 19TH STREET CT E, BRADENTON, FL, 34208",16237087,"R"
520719,"3312 20TH AVENUE","ELK MOUND,","WI",54739,44.8713471140001,-91.603021935,219,"3312 20TH AVENUE, ELK MOUND,, WI, 54739","Match","Exact","3312 20TH AVE, ELK MOUND, WI, 54739",78922933,"L"
520720,"3312 22ND STREET NE","WASHINGTON","DC",20018,38.9313228610001,-76.9741834,220,"3312 22ND STREET NE, WASHINGTON, DC, 20018","Match","Exact","3312 22ND ST NE, WASHINGTON, DC, 20018",76229154,"L"
520721,"3312 22ND STREET","WASHINGTON","DC",20018,38.9313228610001,-76.9741834,221,"3312 22ND STREET, WASHINGTON, DC, 20018","Match","Non_Exact","3312 22ND ST NE, WASHINGTON, DC, 20018",76229154,"L"
520722,"3312 40TH LN NW","OLYMPIA","WA",98502,47.0902483350001,-122.949694476,222,"3312 40TH LN NW, OLYMPIA, WA, 98502","Match","Exact","3312 40TH LN NW, OLYMPIA, WA, 98502",180971586,"L"
520723,"3312 69TH AVE","OAKLAND","CA",94605,37.7708736640001,-122.175174813,223,"3312 69TH AVE, OAKLAND, CA, 94605","Match","Exact","3312 69TH AVE, OAKLAND, CA, 94605",606113365,"R"
520724,"3312 8TH AVE","BEAVER FALLS","PA",15010,40.7739990160001,-80.328602302,224,"3312 8TH AVE, BEAVER FALLS, PA, 15010","Match","Exact","3312 8TH AVE, BEAVER FALLS, PA, 15010",52556573,"R"
520725,"3312 ALBERMARLE DR","PASADENA","TX",77503,NA,NA,225,"3312 ALBERMARLE DR, PASADENA, TX, 77503","No_Match",NA,NA,NA,NA
520726,"3312 ASHMORE COURT","OLNEY","MD",20832,39.1389653800001,-77.066395977,226,"3312 ASHMORE COURT, OLNEY, MD, 20832","Match","Exact","3312 ASHMORE CT, OLNEY, MD, 20832",62071663,"L"
520727,"3312 ATLANTIC CIRCLE","NAPLES","FL",34119,26.2885493160001,-81.7126591799999,227,"3312 ATLANTIC CIRCLE, NAPLES, FL, 34119","Match","Exact","3312 ATLANTIC CIR, NAPLES, FL, 34119",646516116,"L"
520728,"3312 AUTUMN ASH CT","MODESTO","CA",95355,37.6859366520001,-120.954100534,228,"3312 AUTUMN ASH CT, MODESTO, CA, 95355","Match","Exact","3312 AUTUMN ASH CT, MODESTO, CA, 95355",614136142,"L"
520729,"3312 AVE SERRANT","DELRAY BEACH","FL",33445,26.470625238,-80.1069101149999,229,"3312 AVE SERRANT, DELRAY BEACH, FL, 33445","Match","Exact","3312 AVE SERRANT, DELRAY BEACH, FL, 33445",115336273,"L"
520730,"3312 AVENUE P","ROSENBURG","TX",77471,29.5502764180001,-95.792443765,230,"3312 AVENUE P, ROSENBURG, TX, 77471","Match","Non_Exact","3312 AVE P, ROSENBERG, TX, 77471",78339958,"R"
520731,"3312 BASTROP ST","HOUSTON","TX",77004,29.734164364,-95.366513728,231,"3312 BASTROP ST, HOUSTON, TX, 77004","Match","Exact","3312 BASTROP ST, HOUSTON, TX, 77004",96071962,"R"
520732,"3312 BATTLEFIELD MEMORIAL HIGHWAY","BEREA","KY",40475,37.6305573500001,-84.231823848,232,"3312 BATTLEFIELD MEMORIAL HIGHWAY, BEREA, KY, 40475","Match","Non_Exact","3312 BATTLEFIELD MEMORIAL HWY, BEREA, KY, 40403",31986961,"L"
520733,"3312 BAY VIEW CT","DELAFIELD","WI",53018,43.087641153,-88.3969911469999,233,"3312 BAY VIEW CT, DELAFIELD, WI, 53018","Match","Exact","3312 BAY VIEW CT, DELAFIELD, WI, 53018",53807731,"L"
520734,"3312 BLUE CREEK RD","LENOIR","NC",28645,35.973255759,-81.455589241,234,"3312 BLUE CREEK RD, LENOIR, NC, 28645","Match","Exact","3312 BLUE CREEK RD, LENOIR, NC, 28645",45845487,"R"
520735,"3312 BLUETT RD","ANN ARBOR","MI",48105,42.311823573,-83.693570498,235,"3312 BLUETT RD, ANN ARBOR, MI, 48105","Match","Exact","3312 BLUETT RD, ANN ARBOR, MI, 48105",26013925,"R"
520736,"3312 BRADFORD ROAD","CLEVELAND HEIGHTS","OH",44118,41.490839426,-81.560811571,236,"3312 BRADFORD ROAD, CLEVELAND HEIGHTS, OH, 44118","Match","Exact","3312 BRADFORD RD, CLEVELAND HEIGHTS, OH, 44118",61125254,"R"
520737,"3312 BRAMANTE TRAIL","STEGER","IL",60629,41.478155191,-87.621853152,237,"3312 BRAMANTE TRAIL, STEGER, IL, 60629","Match","Non_Exact","3312 BRAMANTI TRL, STEGER, IL, 60475",112216362,"L"
520738,"3312 BUCKHORN DR","LEXINGTON","KY",40515,37.979716615,-84.45311037,238,"3312 BUCKHORN DR, LEXINGTON, KY, 40515","Match","Exact","3312 BUCKHORN DR, LEXINGTON, KY, 40515",31933444,"R"
520739,"3312 BUCKHORN DRIVE","LEXINGTON","KY",40515,37.979716615,-84.45311037,239,"3312 BUCKHORN DRIVE, LEXINGTON, KY, 40515","Match","Exact","3312 BUCKHORN DR, LEXINGTON, KY, 40515",31933444,"R"
520740,"3312 BUSH RIVER ROAD","COLUMBIA","SC",29210,34.0387394270001,-81.138428539,240,"3312 BUSH RIVER ROAD, COLUMBIA, SC, 29210","Match","Exact","3312 BUSH RIVER RD, COLUMBIA, SC, 29210",70050091,"L"
520741,"3312 BYARS ROAD","MOODY","AL",35004,33.6041387870001,-86.483457275,241,"3312 BYARS ROAD, MOODY, AL, 35004","Match","Non_Exact","3312 BYARS DR, MOODY, AL, 35004",636437527,"R"
520742,"3312 CARAWAY COMMONS DR L3","JONESBORO","AR",72404,35.800485301,-90.6758461059999,242,"3312 CARAWAY COMMONS DR L3, JONESBORO, AR, 72404","Match","Exact","3312 CARAWAY COMMONS DR, JONESBORO, AR, 72404",46943000,"L"
520743,"3312 CASTLE CREST DRIVE","VESTAVIA HILLS","AL",35216,33.4133984790001,-86.7866806659999,243,"3312 CASTLE CREST DRIVE, VESTAVIA HILLS, AL, 35216","Match","Exact","3312 CASTLE CREST DR, VESTAVIA HILLS, AL, 35216",81583414,"L"
520744,"3312 CEDAR LANE","AMES","IA",50014,41.9909335070001,-93.649034389,244,"3312 CEDAR LANE, AMES, IA, 50014","Match","Exact","3312 CEDAR LN, AMES, IA, 50014",640741149,"L"
520745,"3312 CHARLIE TAYLOR RD","PLANT CITY","FL",33565,28.049762935,-82.072495251,245,"3312 CHARLIE TAYLOR RD, PLANT CITY, FL, 33565","Match","Exact","3312 CHARLIE TAYLOR RD, PLANT CITY, FL, 33565",616394287,"L"
520746,"3312 CHEROKEE DRIVE","SPRINGFIELD","OR",97478,44.0396742660001,-122.978714277,246,"3312 CHEROKEE DRIVE, SPRINGFIELD, OR, 97478","Match","Exact","3312 CHEROKEE DR, SPRINGFIELD, OR, 97478",178219506,"R"
520747,"3312 CLUB HOUSE DR","EDINBURG","TX",78542,26.3292850670001,-98.122193263,247,"3312 CLUB HOUSE DR, EDINBURG, TX, 78542","Match","Exact","3312 CLUB HOUSE DR, EDINBURG, TX, 78542",71527621,"L"
520748,"3312 COTTONWOOD","SAINT CHARLES","MO",63301,38.8215760210001,-90.4809728709999,248,"3312 COTTONWOOD, SAINT CHARLES, MO, 63301","Match","Non_Exact","3312 COTTONWOOD DR, SAINT CHARLES, MO, 63301",649665304,"R"
520749,"3312 CREDENZA ROAD","CHARLOTTE","NC",28208,35.2422983500001,-80.8846247549999,249,"3312 CREDENZA ROAD, CHARLOTTE, NC, 28208","Match","Exact","3312 CREDENZA RD, CHARLOTTE, NC, 28208",70476695,"R"
520750,"3312 CRESSWIND PARKWAY","GAINESVILLE","GA",30504,34.2820469280001,-83.889435285,250,"3312 CRESSWIND PARKWAY, GAINESVILLE, GA, 30504","Match","Exact","3312 CRESSWIND PKWY, GAINESVILLE, GA, 30504",645876808,"R"
520751,"3312 CROSHAW CT","TOANO","VA",23168,37.4226530770001,-76.802450284,251,"3312 CROSHAW CT, TOANO, VA, 23168","Match","Exact","3312 CROSHAW CT, TOANO, VA, 23168",618665903,"R"
520752,"3312 CROYDON RD","RICHMOND","VA",23223,37.567373876,-77.385008601,252,"3312 CROYDON RD, RICHMOND, VA, 23223","Match","Exact","3312 CROYDON RD, RICHMOND, VA, 23223",106650106,"L"
520753,"3312 CULLERS COURT","WOODBRIDGE","VA",22192,38.701446128,-77.310148908,253,"3312 CULLERS COURT, WOODBRIDGE, VA, 22192","Match","Exact","3312 CULLERS CT, WOODBRIDGE, VA, 22192",76517991,"R"
520754,"3312 DANZ FOREST DR","ROSEBUD","MO",63091,38.37475285,-91.3691744829999,254,"3312 DANZ FOREST DR, ROSEBUD, MO, 63091","Match","Exact","3312 DANZ FOREST DR, ROSEBUD, MO, 63091",635623791,"R"
520755,"3312 DARTMOUTH DR","PLANO","TX",75075,33.0127308570001,-96.7562904069999,255,"3312 DARTMOUTH DR, PLANO, TX, 75075","Match","Exact","3312 DARTMOUTH DR, PLANO, TX, 75075",123520913,"L"
520756,"3312 DREXEL ROAD","MONTGOMERY","AL",36106,32.3492765550001,-86.257408007,256,"3312 DREXEL ROAD, MONTGOMERY, AL, 36106","Match","Exact","3312 DREXEL RD, MONTGOMERY, AL, 36106",1544633,"R"
520757,"3312 E 15TH ST","MUNCIE","IN",47302,40.175645758,-85.348011177,257,"3312 E 15TH ST, MUNCIE, IN, 47302","Match","Exact","3312 E 15TH ST, MUNCIE, IN, 47302",30839284,"L"
520758,"3312 E NOLAN DR","CHANDLER","AZ",85249,33.2321353730001,-111.784158689,258,"3312 E NOLAN DR, CHANDLER, AZ, 85249","Match","Exact","3312 E NOLAN DR, CHANDLER, AZ, 85249",244004289,"L"
520759,"3312 EAST CAPITOL STREET NE","WASHINGTON","DC",20019,38.8899637710001,-76.959827049,259,"3312 EAST CAPITOL STREET NE, WASHINGTON, DC, 20019","Match","Exact","3312 E CAPITOL ST NE, WASHINGTON, DC, 20019",76231545,"L"
520760,"3312 EAST MAXWELL DRIVE","FOREST PARK","OK",73121,35.504089768,-97.455051887,260,"3312 EAST MAXWELL DRIVE, FOREST PARK, OK, 73121","Match","Exact","3312 E MAXWELL DR, FOREST PARK, OK, 73121",642069353,"R"
520761,"3312 EBNER COULEE ROAD","LA CROSSE","WI",54601,43.8072477470001,-91.206937872,261,"3312 EBNER COULEE ROAD, LA CROSSE, WI, 54601","Match","Exact","3312 EBNER COULEE RD, LA CROSSE, WI, 54601",51033174,"R"
520762,"3312 EDWARDS STREET","EAU CLAIRE","WI",54703,44.8560833110001,-91.471759078,262,"3312 EDWARDS STREET, EAU CLAIRE, WI, 54703","Match","Exact","3312 EDWARDS ST, EAU CLAIRE, WI, 54703",46065411,"L"
520763,"3312 FAIRLANE STREET","MIDLAND","MI",48642,43.628729354,-84.19900804,263,"3312 FAIRLANE STREET, MIDLAND, MI, 48642","Match","Exact","3312 FAIRLANE ST, MIDLAND, MI, 48642",81193335,"R"
520764,"3312 FALLIGANT AVENUE","THUNDERBOLT","GA",31404,32.025338918,-81.049928726,264,"3312 FALLIGANT AVENUE, THUNDERBOLT, GA, 31404","Match","Exact","3312 FALLIGANT AVE, THUNDERBOLT, GA, 31404",6211551,"L"
520765,"3312 FRANCIS DR","WYLIE","TX",75098,33.036615543,-96.5897447039999,265,"3312 FRANCIS DR, WYLIE, TX, 75098","Match","Exact","3312 FRANCIS DR, WYLIE, TX, 75098",619981974,"L"
520766,"3312 GLEN AVE","BALTIMORE","MD",21215,39.357575513,-76.684774918,266,"3312 GLEN AVE, BALTIMORE, MD, 21215","Match","Exact","3312 GLEN AVE, BALTIMORE, MD, 21215",206464889,"R"
520767,"3312 GRAND MESA DR","PLANO","TX",75025,33.0819070060001,-96.754885062,267,"3312 GRAND MESA DR, PLANO, TX, 75025","Match","Exact","3312 GRAND MESA DR, PLANO, TX, 75025",123548631,"R"
520768,"3312 GREEN RD","ANN ARBOR","MI",48105,42.3122586010001,-83.692789133,268,"3312 GREEN RD, ANN ARBOR, MI, 48105","Match","Exact","3312 GREEN RD, ANN ARBOR, MI, 48105",646690548,"R"
520769,"3312 HALL CT","DALLAS","TX",75219,32.8113627330001,-96.809022269,269,"3312 HALL CT, DALLAS, TX, 75219","Match","Exact","3312 HALL CT, DALLAS, TX, 75219",619141727,"L"
520770,"3312 HANNIBAL ST","BUTTE","MT",59701,45.9780289780001,-112.486810698,270,"3312 HANNIBAL ST, BUTTE, MT, 59701","Match","Exact","3312 HANNIBAL ST, BUTTE, MT, 59701",153589439,"R"
520771,"3312 HARVARD PLACE","BROOMFIELD","CO",80023,NA,NA,271,"3312 HARVARD PLACE, BROOMFIELD, CO, 80023","No_Match",NA,NA,NA,NA
520772,"3312 HENRY ROAD","ANNISTON","AL",36207,33.6459670940001,-85.786218822,272,"3312 HENRY ROAD, ANNISTON, AL, 36207","Match","Exact","3312 HENRY RD, ANNISTON, AL, 36207",66583036,"R"
520773,"3312 HOLLIS ST","MISSOULA","MT",59801,46.8396995480001,-114.004985209,273,"3312 HOLLIS ST, MISSOULA, MT, 59801","Match","Exact","3312 HOLLIS ST, MISSOULA, MT, 59801",205317039,"L"
520774,"3312 IDELWILD WAY","SAN DIEGO","CA",92117,32.828581593,-117.215893855,274,"3312 IDELWILD WAY, SAN DIEGO, CA, 92117","Match","Non_Exact","3312 IDLEWILD WAY, SAN DIEGO, CA, 92117",645489370,"L"
520775,"3312 JOSHUA LANE","NORTH TONAWANDA","NY",14120,43.082144274,-78.8623776439999,275,"3312 JOSHUA LANE, NORTH TONAWANDA, NY, 14120","Match","Exact","3312 JOSHUA LN, N TONAWANDA, NY, 14120",48697322,"R"
520776,"3312 KEITHSHIRE WAY","LEXINGTON","KY",40503,37.9957747190001,-84.5500640659999,276,"3312 KEITHSHIRE WAY, LEXINGTON, KY, 40503","Match","Exact","3312 KEITHSHIRE WAY, LEXINGTON, KY, 40503",31920194,"L"
520777,"3312 KENSINGTON AVE","PHILADELPHIA","PA",19134,39.9981033330001,-75.110465485,277,"3312 KENSINGTON AVE, PHILADELPHIA, PA, 19134","Match","Exact","3312 KENSINGTON AVE, PHILADELPHIA, PA, 19134",131421414,"L"
520778,"3312 LAKE AVE","BALTIMORE","MD",21213,39.3210861580001,-76.56933585,278,"3312 LAKE AVE, BALTIMORE, MD, 21213","Match","Exact","3312 LAKE AVE, BALTIMORE, MD, 21213",206424114,"L"
520779,"3312 LANCING CT","DULUTH","GA",30096,34.0017424850001,-84.13170489,279,"3312 LANCING CT, DULUTH, GA, 30096","Match","Exact","3312 LANCING CT, DULUTH, GA, 30096",88922387,"L"
520780,"3312 LANDOR RD","RALEIGH","NC",27609,35.826353264,-78.6418405159999,280,"3312 LANDOR RD, RALEIGH, NC, 27609","Match","Exact","3312 LANDOR RD, RALEIGH, NC, 27609",72535670,"R"
520781,"3312 LANIER AVENUE","COLUMBIA","SC",29205,33.9796149330001,-80.994685822,281,"3312 LANIER AVENUE, COLUMBIA, SC, 29205","Match","Exact","3312 LANIER AVE, COLUMBIA, SC, 29205",71828843,"R"
520782,"3312 LEADING POINT DR","HOUSTON","TX",77091,29.8416058980001,-95.429434565,282,"3312 LEADING POINT DR, HOUSTON, TX, 77091","Match","Exact","3312 LEADING POINT DR, HOUSTON, TX, 77091",645184931,"R"
520783,"3312 LEMONGRASS LANE","CHARLOTTE","NC",28214,35.3143405970001,-80.961046368,283,"3312 LEMONGRASS LANE, CHARLOTTE, NC, 28214","Match","Exact","3312 LEMONGRASS LN, CHARLOTTE, NC, 28214",612451410,"R"
520784,"3312 LYNROCK AVENUE","DUNDEE","FL",33838,28.013865094,-81.584573784,284,"3312 LYNROCK AVENUE, DUNDEE, FL, 33838","Match","Exact","3312 LYNROCK AVE, DUNDEE, FL, 33838",647131910,"L"
520785,"3312 MCCORMICK WOODS DRIVE","OCOEE","FL",34761,28.621221834,-81.5331260089999,285,"3312 MCCORMICK WOODS DRIVE, OCOEE, FL, 34761","Match","Exact","3312 MCCORMICK WOODS DR, OCOEE, FL, 34761",640927735,"R"
520786,"3312 MEMORY LANE","URBANA","IL",61802,40.0761289370001,-88.184666594,286,"3312 MEMORY LANE, URBANA, IL, 61802","Match","Exact","3312 MEMORY LN, URBANA, IL, 61802",653857583,"L"
520787,"3312 MEMPHIS DR","FAYETVILLE","NC",28311,35.149298307,-78.8939529629999,287,"3312 MEMPHIS DR, FAYETVILLE, NC, 28311","Match","Non_Exact","3312 MEMPHIS DR, FAYETTEVILLE, NC, 28311",646740042,"R"
520788,"3312 MENARD LN","EL PASO","TX",79936,31.788995953,-106.317484703,288,"3312 MENARD LN, EL PASO, TX, 79936","Match","Exact","3312 MENARD LN, EL PASO, TX, 79936",189348333,"R"
520789,"3312 MICHIGAN AVE","SOUTH GATE","CA",91106,33.942251922,-118.211413256,289,"3312 MICHIGAN AVE, SOUTH GATE, CA, 91106","Match","Non_Exact","3312 MICHIGAN AVE, SOUTH GATE, CA, 90280",141677549,"R"
520790,"3312 MILITARY DR","FALLS CHURCH","VA",22044,38.85693572,-77.1529757279999,290,"3312 MILITARY DR, FALLS CHURCH, VA, 22044","Match","Exact","3312 MILITARY DR, FALLS CHURCH, VA, 22044",75981565,"R"
520791,"3312 MONTANA DR","BISMRARCK","ND",58503,46.8420633480001,-100.747800911,291,"3312 MONTANA DR, BISMRARCK, ND, 58503","Match","Non_Exact","3312 MONTANA DR, BISMARCK, ND, 58503",632871805,"L"
520792,"3312 N LAKEHARBOR LN 101","BOISE","ID",83703,43.6503063280001,-116.252911611,292,"3312 N LAKEHARBOR LN 101, BOISE, ID, 83703","Match","Non_Exact","3312 N LAKEHARBOR LN, BOISE, ID, 83703",648301837,"R"
520793,"3312 N LAWNDALE AVE APT 2","CHICAGO","IL",60618,41.9414454920001,-87.7199199189999,293,"3312 N LAWNDALE AVE APT 2, CHICAGO, IL, 60618","Match","Non_Exact","3312 N LAWNDALE AVE, CHICAGO, IL, 60618",605226331,"L"
520794,"3312 N SUNSET AVE","FARMINGTON","NM",87401,36.758848786,-108.206072043,294,"3312 N SUNSET AVE, FARMINGTON, NM, 87401","Match","Exact","3312 SUNSET AVE, FARMINGTON, NM, 87401",127402201,"R"
520795,"3312 NE 123RD ST","SEATTLE","WA",98125,47.7173397810001,-122.292592939,295,"3312 NE 123RD ST, SEATTLE, WA, 98125","Match","Exact","3312 NE 123RD ST, SEATTLE, WA, 98125",186585800,"L"
520796,"3312 NORTHFIELD RD","DAYTON","OH",45415,39.844593493,-84.275171598,296,"3312 NORTHFIELD RD, DAYTON, OH, 45415","Match","Exact","3312 NORTHFIELD RD, DAYTON, OH, 45415",143561950,"L"
520797,"3312 NORTHSIDE DRIVE C100","MACON","GA",31210,32.89296333,-83.682047332,297,"3312 NORTHSIDE DRIVE C100, MACON, GA, 31210","Match","Exact","3312 NORTHSIDE DR, MACON, GA, 31210",81069934,"L"
520798,"3312 NW 50 ST","MIAMI","FL",33142,25.819892221,-80.2511128529999,298,"3312 NW 50 ST, MIAMI, FL, 33142","Match","Exact","3312 NW 50TH ST, MIAMI, FL, 33142",116001712,"L"
520799,"3312 OFFUTT RD","RANDALLSTOWN","MD",21133,39.363188354,-76.80327665,299,"3312 OFFUTT RD, RANDALLSTOWN, MD, 21133","Match","Exact","3312 OFFUTT RD, RANDALLSTOWN, MD, 21133",648399214,"L"
520800,"3312 OTTER CREEK DRIVE","LEXINGTON","KY",40515,37.9940819060001,-84.449548828,300,"3312 OTTER CREEK DRIVE, LEXINGTON, KY, 40515","Match","Exact","3312 OTTER CREEK DR, LEXINGTON, KY, 40515",31927867,"R"
520801,"3312 PARTRIDGE LANE","GAINESVILLE","GA",30506,34.359487394,-83.8555629539999,301,"3312 PARTRIDGE LANE, GAINESVILLE, GA, 30506","Match","Exact","3312 PARTRIDGE LN, GAINESVILLE, GA, 30506",98248390,"L"
520802,"3312 PECAN SHADOW WAY","MESQUITE","TX",75181,32.728405218,-96.538404425,302,"3312 PECAN SHADOW WAY, MESQUITE, TX, 75181","Match","Exact","3312 PECAN SHADOW WAY, MESQUITE, TX, 75181",627268953,"L"
520803,"3312 POMEROL DRIVE","WELLINGTON","FL",33414,26.647211355,-80.212899792,303,"3312 POMEROL DRIVE, WELLINGTON, FL, 33414","Match","Exact","3312 POMEROL DR, WELLINGTON, FL, 33414",648104003,"L"
520804,"3312 PRINCETON ROAD","KINGSPORT","TN",37660,36.487485115,-82.5884902239999,304,"3312 PRINCETON ROAD, KINGSPORT, TN, 37660","Match","Exact","3312 PRINCETON RD, KINGSPORT, TN, 37660",127827726,"L"
520805,"3312 RAILFENCE RD","FORT WORTH","TX",76119,32.6632083690001,-97.275156045,305,"3312 RAILFENCE RD, FORT WORTH, TX, 76119","Match","Exact","3312 RAILFENCE RD, FORT WORTH, TX, 76119",101902730,"R"
520806,"3312 REMINGTON RUN","TALLAHASSEE","FL",32312,30.501582425,-84.2880452749999,306,"3312 REMINGTON RUN, TALLAHASSEE, FL, 32312","Match","Exact","3312 REMINGTON RUN, TALLAHASSEE, FL, 32312",82884492,"R"
520807,"3312 RONDA DE LECHUSAS NW","ALBUQUERQUE","NM",87120,35.121046559,-106.718851034,307,"3312 RONDA DE LECHUSAS NW, ALBUQUERQUE, NM, 87120","Match","Exact","3312 RONDA DE LECHUSAS NW, ALBUQUERQUE, NM, 87120",206734930,"R"
520808,"3312 ROSEHILL TERRACE","WATERLOO","IA",50701,42.4683827330001,-92.371859381,308,"3312 ROSEHILL TERRACE, WATERLOO, IA, 50701","Match","Exact","3312 ROSEHILL TER, WATERLOO, IA, 50701",77251455,"R"
520809,"3312 SAW MILL ROAD","NEWTOWN SQUARE","PA",19073,40.0097249400001,-75.40197921,309,"3312 SAW MILL ROAD, NEWTOWN SQUARE, PA, 19073","Match","Non_Exact","3312 SAWMILL RD, NEWTOWN SQUARE, PA, 19073",134906343,"L"
520810,"3312 SE STALLINGS DRIVE","NACOGDOCHES","TX",75961,31.5796048290001,-94.636742964,310,"3312 SE STALLINGS DRIVE, NACOGDOCHES, TX, 75961","Match","Exact","3312 SE STALLINGS DR, NACOGDOCHES, TX, 75961",72437374,"R"
520811,"3312 SELKIRK DR","BURNSVILLE","MN",55337,44.79148417,-93.230074197,311,"3312 SELKIRK DR, BURNSVILLE, MN, 55337","Match","Exact","3312 SELKIRK DR, BURNSVILLE, MN, 55337",37905320,"L"
520812,"3312 SHELBURNE","BALTIMORE","MD",21208,39.371629614,-76.703280024,312,"3312 SHELBURNE, BALTIMORE, MD, 21208","Match","Non_Exact","3312 SHELBURNE RD, BALTIMORE, MD, 21208",206403899,"R"
520813,"3312 SILVER CREEK DRIVE","MESQUITE","TX",75181,32.7287883430001,-96.535690068,313,"3312 SILVER CREEK DRIVE, MESQUITE, TX, 75181","Match","Exact","3312 SILVER CREEK DR, MESQUITE, TX, 75181",636110648,"L"
520814,"3312 SKYCROFT DRIVE","ST ANTHONY","MN",55418,45.029644567,-93.21245343,314,"3312 SKYCROFT DRIVE, ST ANTHONY, MN, 55418","Match","Exact","3312 SKYCROFT DR, SAINT ANTHONY, MN, 55418",43637338,"L"
520815,"3312 SKYCROFT DRIVE","ST. ANTHONY","MN",55418,45.029644567,-93.21245343,315,"3312 SKYCROFT DRIVE, ST. ANTHONY, MN, 55418","Match","Exact","3312 SKYCROFT DR, SAINT ANTHONY, MN, 55418",43637338,"L"
520816,"3312 SOUTH COCHISE AVE","INDEPENDENCE","MO",64057,39.059341929,-94.362950263,316,"3312 SOUTH COCHISE AVE, INDEPENDENCE, MO, 64057","Match","Exact","3312 S COCHISE AVE, INDEPENDENCE, MO, 64057",637625815,"R"
520817,"3312 SOUTHERNLAND DRIVE","WACO","TX",76706,NA,NA,317,"3312 SOUTHERNLAND DRIVE, WACO, TX, 76706","No_Match",NA,NA,NA,NA
520818,"3312 STADLER DR","PICKERINGTON","OH",43147,39.9167050230001,-82.800866094,318,"3312 STADLER DR, PICKERINGTON, OH, 43147","Match","Exact","3312 STADLER DR, PICKERINGTON, OH, 43147",37234775,"L"
520819,"3312 STATE HWY LP 116","LIVINGSTON","TX",77351,NA,NA,319,"3312 STATE HWY LP 116, LIVINGSTON, TX, 77351","No_Match",NA,NA,NA,NA
520820,"3312 STATE ROUTE 7","FOWLER","OH",44418,41.309589916,-80.56842531,320,"3312 STATE ROUTE 7, FOWLER, OH, 44418","Match","Exact","3312 STATE RTE 7, FOWLER, OH, 44418",117430932,"L"
520821,"3312 SUMMIT STREET","OMAHA","NE",68112,41.324805107,-95.961653536,321,"3312 SUMMIT STREET, OMAHA, NE, 68112","Match","Exact","3312 SUMMIT ST, OMAHA, NE, 68112",116977487,"R"
520822,"3312 TARLETON WEST UNIT 7","DURHAM","NC",27707,35.9355536300001,-78.8953893679999,322,"3312 TARLETON WEST UNIT 7, DURHAM, NC, 27707","Match","Non_Exact","3312 TARLETON W, DURHAM, NC, 27713",618114469,"R"
520823,"3312 TENNIS HILL LANE","JACKSONVILLE","FL",32277,30.3600014560001,-81.5713134819999,323,"3312 TENNIS HILL LANE, JACKSONVILLE, FL, 32277","Match","Non_Exact","3312 TENNIS HILLS LN, JACKSONVILLE, FL, 32277",83959717,"R"
520824,"3312 TIMBERCREEK DR","LAWRENCEVILLE","GA",30044,33.939643533,-84.111279402,324,"3312 TIMBERCREEK DR, LAWRENCEVILLE, GA, 30044","Match","Non_Exact","3312 TIMBERCREEK DR NW, LAWRENCEVILLE, GA, 30044",88886071,"L"
520825,"3312 TOUCHSTONE ST","AUSTIN","TX",78723,30.2903736700001,-97.682672297,325,"3312 TOUCHSTONE ST, AUSTIN, TX, 78723","Match","Exact","3312 TOUCHSTONE ST, AUSTIN, TX, 78723",63953761,"L"
520826,"3312 VALDEZ DRIVE","DES MOINES","IA",50310,41.6376665500001,-93.6631295289999,326,"3312 VALDEZ DRIVE, DES MOINES, IA, 50310","Match","Exact","3312 VALDEZ DR, DES MOINES, IA, 50310",65804001,"L"
520827,"3312 VAN ALLEN CIRCLE","GREENSBORO","NC",27410,36.1269677430001,-79.9305718159999,327,"3312 VAN ALLEN CIRCLE, GREENSBORO, NC, 27410","Match","Exact","3312 VAN ALLEN CIR, GREENSBORO, NC, 27410",634095775,"L"
520828,"3312 VAN HORN APT 231","TRENTON","MI",48183,42.126578183,-83.2084401829999,328,"3312 VAN HORN APT 231, TRENTON, MI, 48183","Match","Non_Exact","3312 VAN HORN RD, TRENTON, MI, 48183",642521327,"R"
520829,"3312 VILLAGE GREEN CT","HARVEY","LA",70058,29.8596217360001,-90.047463981,329,"3312 VILLAGE GREEN CT, HARVEY, LA, 70058","Match","Exact","3312 VILLAGE GREEN CT, HARVEY, LA, 70058",651069153,"L"
520830,"3312 W 29TH AVENUE","ANCHORAGE","AK",99517,61.1943516310001,-149.944948785,330,"3312 W 29TH AVENUE, ANCHORAGE, AK, 99517","Match","Exact","3312 W 29TH AVE, ANCHORAGE, AK, 99517",190812519,"L"
520831,"3312 W 82ND ST","INGLEWOOD","CA",90305,33.9645280610001,-118.328890446,331,"3312 W 82ND ST, INGLEWOOD, CA, 90305","Match","Exact","3312 W 82ND ST, INGLEWOOD, CA, 90305",241109655,"L"
520832,"3312 W COUNTRY CLUB LANE","ALTOONA","WI",54720,44.80971716,-91.4649789269999,332,"3312 W COUNTRY CLUB LANE, ALTOONA, WI, 54720","Match","Exact","3312 COUNTRY CLUB LN, ALTOONA, WI, 54720",46068453,"R"
520833,"3312 W SHADOWLAWN AVE NE","ATLANTA","GA",30305,33.845004863,-84.37582709,333,"3312 W SHADOWLAWN AVE NE, ATLANTA, GA, 30305","Match","Exact","3312 W SHADOWLAWN AVE NE, ATLANTA, GA, 30305",17355548,"L"
520834,"3312 W WABANSIA","CHICAGO","IL",60647,41.9119041770001,-87.710271275,334,"3312 W WABANSIA, CHICAGO, IL, 60647","Match","Non_Exact","3312 W WABANSIA AVE, CHICAGO, IL, 60647",605055506,"R"
520835,"3312 WASHINGTON AVENUE","RACINE","WI",53405,42.718700723,-87.8187729269999,335,"3312 WASHINGTON AVENUE, RACINE, WI, 53405","Match","Exact","3312 WASHINGTON AVE, RACINE, WI, 53405",77909471,"R"
520836,"3312 WEST 30TH AVE","ANCHORAGE","AK",99517,61.1934535920001,-149.944926715,336,"3312 WEST 30TH AVE, ANCHORAGE, AK, 99517","Match","Exact","3312 W 30TH AVE, ANCHORAGE, AK, 99517",190794703,"L"
520837,"3312 WEST KNOXVILLE ST","BROKEN ARROW","OK",74012,36.0432087120001,-95.829707578,337,"3312 WEST KNOXVILLE ST, BROKEN ARROW, OK, 74012","Match","Exact","3312 W KNOXVILLE ST, BROKEN ARROW, OK, 74012",641500873,"L"
520838,"3312 WEST PASCO WAY","LAVEEN","AZ",85339,NA,NA,338,"3312 WEST PASCO WAY, LAVEEN, AZ, 85339","No_Match",NA,NA,NA,NA
520839,"3312 WEST TUSKEGEE CIRCLE","MONTGOMERY","AL",36108,NA,NA,339,"3312 WEST TUSKEGEE CIRCLE, MONTGOMERY, AL, 36108","No_Match",NA,NA,NA,NA
520840,"3312 WINTERGREEN DR E","SAGINAW","MI",48603,43.4551806260001,-84.006369765,340,"3312 WINTERGREEN DR E, SAGINAW, MI, 48603","Match","Exact","3312 WINTERGREEN DR E, SAGINAW, MI, 48603",80208495,"R"
520841,"3312 WOOD DALE RD","CHESTER","VA",23831,37.3670785850001,-77.431518043,341,"3312 WOOD DALE RD, CHESTER, VA, 23831","Match","Exact","3312 WOOD DALE RD, CHESTER, VA, 23831",201550900,"R"
520842,"33120 72ND AVE S","ROY","WA",98580,NA,NA,342,"33120 72ND AVE S, ROY, WA, 98580","No_Match",NA,NA,NA,NA
520843,"33120 LOCKE DR S","ROY","WA",98580,46.9569096500001,-122.530406309,343,"33120 LOCKE DR S, ROY, WA, 98580","Match","Exact","33120 LOCKE DR S, ROY, WA, 98580",648506436,"L"
520844,"33120 NANCY LANE","MENIFEE","CA",92584,33.640888127,-117.184261388,344,"33120 NANCY LANE, MENIFEE, CA, 92584","Match","Exact","33120 NANCY LN, MENIFEE, CA, 92584",194833621,"R"
520845,"33123 LAKE GARRISON ST","FREMONT","CA",94555,37.5852877470001,-122.054673721,345,"33123 LAKE GARRISON ST, FREMONT, CA, 94555","Match","Exact","33123 LAKE GARRISON ST, FREMONT, CA, 94555",125025136,"R"
520846,"33124 MAPLENUT","FARMINGTON","MI",48336,42.4506069980001,-83.374012963,346,"33124 MAPLENUT, FARMINGTON, MI, 48336","Match","Non_Exact","33124 MAPLENUT ST, FARMINGTON, MI, 48336",69725455,"R"
520847,"33126 ALASKA CT","WESTLAND","MI",48186,42.289981384,-83.365971165,347,"33126 ALASKA CT, WESTLAND, MI, 48186","Match","Exact","33126 ALASKA CT, WESTLAND, MI, 48186",95501661,"R"
520848,"33126 KIRBY","FARMINGTON","MI",48336,42.4441919270001,-83.373245599,348,"33126 KIRBY, FARMINGTON, MI, 48336","Match","Non_Exact","33126 KIRBY ST, FARMINGTON, MI, 48336",69725708,"R"
520849,"33126 SANDPIPER CT","NORTH RIDGEVILE","OH",44039,41.3599978780001,-81.9878421769999,349,"33126 SANDPIPER CT, NORTH RIDGEVILE, OH, 44039","Match","Non_Exact","33126 SANDPIPER CT, N RIDGEVILLE, OH, 44039",55425502,"L"
520850,"33129 LEWIS DRIVE","SLIDELL","LA",70460,30.316381501,-89.851319841,350,"33129 LEWIS DRIVE, SLIDELL, LA, 70460","Match","Exact","33129 LEWIS DR, SLIDELL, LA, 70460",645596143,"L"
520851,"3313 1/2 PROSPECT AVENUE","LA CRESCENTA","CA",91214,34.2280063910001,-118.251239497,351,"3313 1/2 PROSPECT AVENUE, LA CRESCENTA, CA, 91214","Match","Exact","3313 PROSPECT AVE, LA CRESCENTA, CA, 91214",141589283,"R"
520852,"3313 4TH AVE","RICHMOND","VA",23222,37.5705610810001,-77.411155805,352,"3313 4TH AVE, RICHMOND, VA, 23222","Match","Exact","3313 4TH AVE, RICHMOND, VA, 23222",645918531,"R"
520853,"3313 ABBOTSWOOD","HARVEY","LA",70058,29.880880291,-90.0793047189999,353,"3313 ABBOTSWOOD, HARVEY, LA, 70058","Match","Non_Exact","3313 ABBOTSWOOD DR, HARVEY, LA, 70058",93531339,"R"
520854,"3313 APPLEFORD DR","CHESTER","VA",23831,37.3305947700001,-77.425411416,354,"3313 APPLEFORD DR, CHESTER, VA, 23831","Match","Exact","3313 APPLEFORD DR, CHESTER, VA, 23831",201563575,"L"
520855,"3313 ARMSTEAD DRIVE","PORTSMOUTH","VA",23704,36.8196119690001,-76.3324480859999,355,"3313 ARMSTEAD DRIVE, PORTSMOUTH, VA, 23704","Match","Non_Exact","3313 ARMISTEAD DR, PORTSMOUTH, VA, 23704",122194138,"L"
520856,"3313 ARTESIA BL APT 7","TORRANCE","CA",90504,33.8729272840001,-118.331055492,356,"3313 ARTESIA BL APT 7, TORRANCE, CA, 90504","Match","Exact","3313 ARTESIA BLVD, TORRANCE, CA, 90504",615107768,"R"
520857,"3313 ASHER STREET","UPPER MARLBORO","MD",20772,38.841814884,-76.759668532,357,"3313 ASHER STREET, UPPER MARLBORO, MD, 20772","Match","Exact","3313 ASHER ST, UPPER MARLBORO, MD, 20772",639597277,"L"
520858,"3313 AUTUMN LEAF","TRAVERSE CITY","MI",49686,44.734545273,-85.500247954,358,"3313 AUTUMN LEAF, TRAVERSE CITY, MI, 49686","Match","Exact","3313 AUTUMN LEAF, TRAVERSE CITY, MI, 49686",614094187,"R"
520859,"3313 BESANA DRIVE","EL DORADO HILLS","CA",95762,38.6770798760001,-121.06631785,359,"3313 BESANA DRIVE, EL DORADO HILLS, CA, 95762","Match","Exact","3313 BESANA DR, EL DORADO HILLS, CA, 95762",133061573,"L"
520860,"3313 BLACKSTONE CT","RENO","NV",89509,39.508732971,-119.857904155,360,"3313 BLACKSTONE CT, RENO, NV, 89509","Match","Exact","3313 BLACKSTONE CT, RENO, NV, 89509",107072358,"R"
520861,"3313 BREAKERS COVE","BELTON","TX",76513,31.097780168,-97.4893544609999,361,"3313 BREAKERS COVE, BELTON, TX, 76513","Match","Exact","3313 BREAKERS COVE, BELTON, TX, 76513",648651644,"L"
520862,"3313 CALLE LA VETA","SAN CLEMENTE","CA",92672,33.450942207,-117.652746748,362,"3313 CALLE LA VETA, SAN CLEMENTE, CA, 92672","Match","Non_Exact","3313 CLL LA VETA, SAN CLEMENTE, CA, 92672",649769012,"L"
520863,"3313 COLFAX STREET","EVANSTON","IL",60201,42.060481565,-87.726438682,363,"3313 COLFAX STREET, EVANSTON, IL, 60201","Match","Exact","3313 COLFAX ST, EVANSTON, IL, 60201",605249409,"R"
520864,"3313 CROSS WINDS ROAD","CHARLOTTE","NC",28227,35.1789611830001,-80.7200191759999,364,"3313 CROSS WINDS ROAD, CHARLOTTE, NC, 28227","Match","Exact","3313 CROSS WINDS RD, CHARLOTTE, NC, 28227",70576538,"L"
520865,"3313 CRUM ROAD","BROOKSVILLE","FL",34604,28.4818379820001,-82.4199650859999,365,"3313 CRUM ROAD, BROOKSVILLE, FL, 34604","Match","Exact","3313 CRUM RD, BROOKSVILLE, FL, 34604",85445678,"R"
520866,"3313 DANIEL DRIVE","VIOLET","LA",70092,29.9156503250001,-89.892276876,366,"3313 DANIEL DRIVE, VIOLET, LA, 70092","Match","Exact","3313 DANIEL DR, VIOLET, LA, 70092",111188459,"R"
520867,"3313 DOGWOOD DR","LOUISVILLE","KY",40220,38.2154480840001,-85.638801018,367,"3313 DOGWOOD DR, LOUISVILLE, KY, 40220","Match","Exact","3313 DOGWOOD DR, LOUISVILLE, KY, 40220",96856659,"L"
520868,"3313 DUKE STREET","ALEXANDRIA","VA",22137,38.808276274,-77.087380114,368,"3313 DUKE STREET, ALEXANDRIA, VA, 22137","Match","Non_Exact","3313 DUKE ST, ALEXANDRIA, VA, 22314",638922628,"R"
520869,"3313 DUNCAN BRIDGE TRAIL","BUFORD","GA",30519,34.0865293590001,-83.893332436,369,"3313 DUNCAN BRIDGE TRAIL, BUFORD, GA, 30519","Match","Exact","3313 DUNCAN BRIDGE TRL, BUFORD, GA, 30519",88937666,"R"
520870,"3313 E CLEVELAND RD","MUSKEGON","MI",49444,43.193912411,-86.163006878,370,"3313 E CLEVELAND RD, MUSKEGON, MI, 49444","Match","Non_Exact","3313 E CLEVELAND AVE, MUSKEGON, MI, 49444",77666001,"R"
520871,"3313 E MAPLE MOUNTAIN DR","SAINT GEORGE","UT",84790,37.0488311130001,-113.514954371,371,"3313 E MAPLE MOUNTAIN DR, SAINT GEORGE, UT, 84790","Match","Exact","3313 E MAPLE MOUNTAIN DR, SAINT GEORGE, UT, 84790",651404962,"L"
520872,"3313 EAGLE WATCH DRIVE","WOODSTOCK","GA",30189,34.134970658,-84.565632882,372,"3313 EAGLE WATCH DRIVE, WOODSTOCK, GA, 30189","Match","Exact","3313 EAGLE WATCH DR, WOODSTOCK, GA, 30189",68863856,"R"
520873,"3313 EAST OAK STREET","SIOUX FALLS","SD",57103,43.5253955840001,-96.6845696299999,373,"3313 EAST OAK STREET, SIOUX FALLS, SD, 57103","Match","Exact","3313 E OAK ST, SIOUX FALLS, SD, 57103",34974825,"R"
520874,"3313 EDGEWATER TER","GAINESVILLE","GA",30501,34.34960828,-83.79747531,374,"3313 EDGEWATER TER, GAINESVILLE, GA, 30501","Match","Exact","3313 EDGEWATER TER, GAINESVILLE, GA, 30501",98267190,"R"
520875,"3313 EDWARDS DRIVE","PLANO","TX",75025,33.1024078250001,-96.756749788,375,"3313 EDWARDS DRIVE, PLANO, TX, 75025","Match","Exact","3313 EDWARDS DR, PLANO, TX, 75025",123556716,"L"
520876,"3313 FIELDS CT","LEXINGTON","KY",40515,37.9725854050001,-84.464189553,376,"3313 FIELDS CT, LEXINGTON, KY, 40515","Match","Exact","3313 FIELDS CT, LEXINGTON, KY, 40515",31928722,"L"
520877,"3313 FREDRICK CT","COLLEGE STATION","TX",77845,30.5732584880001,-96.312029076,377,"3313 FREDRICK CT, COLLEGE STATION, TX, 77845","Match","Exact","3313 FREDRICK CT, COLLEGE STATION, TX, 77845",21844907,"L"
520878,"3313 GLEN DEVON LN","BERKELEY LAKE","GA",30096,33.973323679,-84.191589678,378,"3313 GLEN DEVON LN, BERKELEY LAKE, GA, 30096","Match","Exact","3313 GLEN DEVON LN, BERKELEY LAKE, GA, 30096",88930409,"R"
520879,"3313 GLEN HELEEN RD","DAYTON","OH",45406,39.7951965460001,-84.2698376879999,379,"3313 GLEN HELEEN RD, DAYTON, OH, 45406","Match","Non_Exact","3313 GLEN HELEN RD, DAYTON, OH, 45406",143629885,"L"
520880,"3313 GRAMERCY","AMARILLO","TX",79106,35.1775209240001,-101.912735629,380,"3313 GRAMERCY, AMARILLO, TX, 79106","Match","Non_Exact","3313 GRAMERCY PKWY, AMARILLO, TX, 79106",182652373,"L"
520881,"3313 GULFVIEW DRIVE","HERNANDO BEACH","FL",34607,28.492463462,-82.660237388,381,"3313 GULFVIEW DRIVE, HERNANDO BEACH, FL, 34607","Match","Exact","3313 GULFVIEW DR, HERNANDO BEACH, FL, 34607",85437797,"R"
520882,"3313 HAMPTON POINT DRIVE APT B","SILVER SPRINGS","MD",20904,39.077514627,-76.940920567,382,"3313 HAMPTON POINT DRIVE APT B, SILVER SPRINGS, MD, 20904","Match","Exact","3313 HAMPTON POINT DR, SILVER SPRING, MD, 20904",62090034,"R"
520883,"3313 HAYLEY CT","RICHARDSON","TN",75082,NA,NA,383,"3313 HAYLEY CT, RICHARDSON, TN, 75082","No_Match",NA,NA,NA,NA
520884,"3313 HAYNES AVE","MIDLAND","TX",79707,32.0269963490001,-102.129636879,384,"3313 HAYNES AVE, MIDLAND, TX, 79707","Match","Exact","3313 HAYNES AVE, MIDLAND, TX, 79707",139578438,"L"
520885,"3313 HERITAGE LANE","FORT WORTH","TX",76140,32.6490792700001,-97.2742333749999,385,"3313 HERITAGE LANE, FORT WORTH, TX, 76140","Match","Exact","3313 HERITAGE LN, FORT WORTH, TX, 76140",101902861,"L"
520886,"3313 HIDALGO","IRVING","TX",75062,32.850305894,-96.938950457,386,"3313 HIDALGO, IRVING, TX, 75062","Match","Non_Exact","3313 HIDALGO ST, IRVING, TX, 75062",102988691,"L"
520887,"3313 KIRBY SMITH DRIVE","WILMINGTON","NC",28409,34.1852369490001,-77.88480537,387,"3313 KIRBY SMITH DRIVE, WILMINGTON, NC, 28409","Match","Exact","3313 KIRBY SMITH DR, WILMINGTON, NC, 28409",152751184,"R"
520888,"3313 KNOLLWOOD COURT","FAIRFIELD","CA",94534,38.288155639,-122.045099285,388,"3313 KNOLLWOOD COURT, FAIRFIELD, CA, 94534","Match","Exact","3313 KNOLLWOOD CT, FAIRFIELD, CA, 94534",192549308,"L"
520889,"3313 LAKE HEIGHTS DR","WACO","TX",76708,31.57440222,-97.189339516,389,"3313 LAKE HEIGHTS DR, WACO, TX, 76708","Match","Exact","3313 LAKE HEIGHTS DR, WACO, TX, 76708",146732600,"R"
520890,"3313 LAKE HEIGHTS DRIVE","WACO","TX",76708,31.57440222,-97.189339516,390,"3313 LAKE HEIGHTS DRIVE, WACO, TX, 76708","Match","Exact","3313 LAKE HEIGHTS DR, WACO, TX, 76708",146732600,"R"
520891,"3313 LAKE TRENTON DR","TRENTON","MO",64683,40.0825517910001,-93.579972089,391,"3313 LAKE TRENTON DR, TRENTON, MO, 64683","Match","Exact","3313 LAKE TRENTON DR, TRENTON, MO, 64683",17850234,"R"
520892,"3313 LAKELAND WAY","ELK GROVE","CA",95758,38.4131811930001,-121.465714008,392,"3313 LAKELAND WAY, ELK GROVE, CA, 95758","Match","Exact","3313 LAKELAND WAY, ELK GROVE, CA, 95758",133446018,"R"
520893,"3313 LITHIA PINECREST ROAD","VALRICO","FL",33596,27.8931999060001,-82.243411829,393,"3313 LITHIA PINECREST ROAD, VALRICO, FL, 33596","Match","Exact","3313 LITHIA PINECREST RD, VALRICO, FL, 33596",629639299,"L"
520894,"3313 LITTLE ACRE LANE","PLANT CITY","FL",33566,27.973253717,-82.066944542,394,"3313 LITTLE ACRE LANE, PLANT CITY, FL, 33566","Match","Exact","3313 LITTLE ACRE LN, PLANT CITY, FL, 33566",630010922,"R"
520895,"3313 MAIN STREET","MEXICO","NY",13114,43.459717927,-76.232677617,395,"3313 MAIN STREET, MEXICO, NY, 13114","Match","Exact","3313 MAIN ST, MEXICO, NY, 13114",57806434,"L"
520896,"3313 MALMAISON RD","KILLEEN","TN",76542,NA,NA,396,"3313 MALMAISON RD, KILLEEN, TN, 76542","No_Match",NA,NA,NA,NA
520897,"3313 MAYNARD CIRCLE","GAINESVILLE","GA",30506,34.358579402,-83.78902249,397,"3313 MAYNARD CIRCLE, GAINESVILLE, GA, 30506","Match","Exact","3313 MAYNARD CIR, GAINESVILLE, GA, 30506",98248391,"L"
520898,"3313 MCCLURE LANE","SEVIERVILLE","TN",37862,35.705328138,-83.664763098,398,"3313 MCCLURE LANE, SEVIERVILLE, TN, 37862","Match","Non_Exact","3313 MCCLURE WAY, SEVIERVILLE, TN, 37862",635466258,"L"
520899,"3313 MEDINA DR","JONESBORO","GA",30236,33.558264276,-84.283370366,399,"3313 MEDINA DR, JONESBORO, GA, 30236","Match","Exact","3313 MEDINA DR, JONESBORO, GA, 30236",642640643,"R"
520900,"3313 MERCHANTVILLE AVE","PENNSAUKEN","NJ",8109,39.953097148,-75.0551123929999,400,"3313 MERCHANTVILLE AVE, PENNSAUKEN, NJ, 8109","Match","Exact","3313 MERCHANTVILLE AVE, PENNSAUKEN, NJ, 08109",134344283,"R"
520901,"3313 MIMOSA DRIVE","NASHVILLE","TN",37211,36.0992648210001,-86.7266328169999,401,"3313 MIMOSA DRIVE, NASHVILLE, TN, 37211","Match","Exact","3313 MIMOSA DR, NASHVILLE, TN, 37211",97196673,"R"
520902,"3313 MORRIS BRIDGE RD","WESLEY CHAPEL","FL",33543,28.2054431610001,-82.2459117349999,402,"3313 MORRIS BRIDGE RD, WESLEY CHAPEL, FL, 33543","Match","Exact","3313 MORRIS BRIDGE RD, WESLEY CHAPEL, FL, 33543",86369138,"L"
520903,"3313 MOYE COURT","DULUTH","GA",30097,34.010047365,-84.115226368,403,"3313 MOYE COURT, DULUTH, GA, 30097","Match","Exact","3313 MOYE CT, DULUTH, GA, 30097",88947243,"R"
520904,"3313 N BAYVIEW LN","MCHENRY","IL",60051,42.3765125350001,-88.197215437,404,"3313 N BAYVIEW LN, MCHENRY, IL, 60051","Match","Exact","3313 N BAYVIEW LN, MCHENRY, IL, 60051",648558144,"L"
520905,"3313 N PARK RIDGE ST","WICHITA","KS",67205,37.742483889,-97.476568039,405,"3313 N PARK RIDGE ST, WICHITA, KS, 67205","Match","Exact","3313 N PARK RIDGE ST, WICHITA, KS, 67205",641681256,"R"
520906,"3313 NEEDLES DRIVE","ORLANDO","FL",32810,28.6323383930001,-81.420583789,406,"3313 NEEDLES DRIVE, ORLANDO, FL, 32810","Match","Exact","3313 NEEDLES DR, ORLANDO, FL, 32810",94330802,"R"
520907,"3313 NORTH MCCOLL ROAD","MCALLEN","TX",78501,26.2338821280001,-98.207323237,407,"3313 NORTH MCCOLL ROAD, MCALLEN, TX, 78501","Match","Exact","3313 N MCCOLL RD, MCALLEN, TX, 78501",607645615,"L"
520908,"3313 PATOUTVILLE ROAD","JEANERETTE","LA",70544,NA,NA,408,"3313 PATOUTVILLE ROAD, JEANERETTE, LA, 70544","No_Match",NA,NA,NA,NA
520909,"3313 PINE GROVE DR","HUNTSVILLE","MT",77340,NA,NA,409,"3313 PINE GROVE DR, HUNTSVILLE, MT, 77340","No_Match",NA,NA,NA,NA
520910,"3313 PINE GROVE","HUNTSVILLE","TX",77340,30.6801761930001,-95.5618570409999,410,"3313 PINE GROVE, HUNTSVILLE, TX, 77340","Match","Non_Exact","3313 PINE GROVE DR, HUNTSVILLE, TX, 77340",22204845,"R"
520911,"3313 RIDGE RD","DURHAM","NC",27705,35.9812326360001,-78.971615717,411,"3313 RIDGE RD, DURHAM, NC, 27705","Match","Exact","3313 RIDGE RD, DURHAM, NC, 27705",71737074,"L"
520912,"3313 RIDGE ROAD","HODGES","SC",29653,34.3026171920001,-82.21182153,412,"3313 RIDGE ROAD, HODGES, SC, 29653","Match","Exact","3313 RIDGE RD, HODGES, SC, 29653",50818979,"R"
520913,"3313 ROME CORNERS","GALENA","OH",43021,40.2118256200001,-82.9133159419999,413,"3313 ROME CORNERS, GALENA, OH, 43021","Match","Non_Exact","3313 ROME CORNERS RD, GALENA, OH, 43021",640603046,"L"
520914,"3313 ROYAL FERN WAY","BALTIMORE","MD",21244,39.350998137,-76.782661086,414,"3313 ROYAL FERN WAY, BALTIMORE, MD, 21244","Match","Exact","3313 ROYAL FERN WAY, BALTIMORE, MD, 21244",625004467,"L"
520915,"3313 ROYAL FERN WAY","WINDSOR MILL","MD",21244,39.350998137,-76.782661086,415,"3313 ROYAL FERN WAY, WINDSOR MILL, MD, 21244","Match","Exact","3313 ROYAL FERN WAY, WINDSOR MILL, MD, 21244",625004467,"L"
520916,"3313 S COCHISE AVE","INDEPENDENCE","MO",64057,39.059341149,-94.362936179,416,"3313 S COCHISE AVE, INDEPENDENCE, MO, 64057","Match","Exact","3313 S COCHISE AVE, INDEPENDENCE, MO, 64057",637625815,"L"
520917,"3313 S KIRKMAN RD APT 227","ORLANDO","FL",32811,28.5079223180001,-81.458889098,417,"3313 S KIRKMAN RD APT 227, ORLANDO, FL, 32811","Match","Non_Exact","3313 S KIRKMAN RD, ORLANDO, FL, 32811",647544852,"R"
520918,"3313 SALEM COURT","ROCHESTER HILLS","MI",48306,42.7042762660001,-83.199381213,418,"3313 SALEM COURT, ROCHESTER HILLS, MI, 48306","Match","Exact","3313 SALEM CT, ROCHESTER HILLS, MI, 48306",69708344,"R"
520919,"3313 SHADY CREEK RD","N CHESTERFIELD","VA",23234,37.453155543,-77.457058667,419,"3313 SHADY CREEK RD, N CHESTERFIELD, VA, 23234","Match","Exact","3313 SHADY CREEK RD, NORTH CHESTERFIELD, VA, 23234",201546597,"L"
520920,"3313 SMITH STREET","PARKERSBURG","WV",26104,39.276445886,-81.5025512999999,420,"3313 SMITH STREET, PARKERSBURG, WV, 26104","Match","Exact","3313 SMITH ST, PARKERSBURG, WV, 26104",90873445,"L"
520921,"3313 ST ANDREWS DRIVE","CHAMBERSBURG","PA",17202,39.9572300250001,-77.594296417,421,"3313 ST ANDREWS DRIVE, CHAMBERSBURG, PA, 17202","Match","Exact","3313 SAINT ANDREWS DR, CHAMBERSBURG, PA, 17202",60104374,"R"
520922,"3313 STERLING DR","CORPUS CHRISTI","TX",78414,27.675247466,-97.3781654109999,422,"3313 STERLING DR, CORPUS CHRISTI, TX, 78414","Match","Exact","3313 STERLING DR, CORPUS CHRISTI, TX, 78414",178535933,"L"
520923,"3313 STOCKTON DRIVE","FLORENCE","SC",29501,34.217204264,-79.84741816,423,"3313 STOCKTON DRIVE, FLORENCE, SC, 29501","Match","Exact","3313 STOCKTON DR, FLORENCE, SC, 29501",28896619,"L"
520924,"3313 TAHOE ROAD","LEXINGTON","KY",40515,37.980685275,-84.454975713,424,"3313 TAHOE ROAD, LEXINGTON, KY, 40515","Match","Exact","3313 TAHOE RD, LEXINGTON, KY, 40515",31928689,"L"
520925,"3313 TAMPA","HOUSTON","TX",77021,29.705688824,-95.371909864,425,"3313 TAMPA, HOUSTON, TX, 77021","Match","Non_Exact","3313 TAMPA ST, HOUSTON, TX, 77021",647560380,"L"
520926,"3313 TELLURIDE COURT","BAKERSFIELD","CA",93309,35.3243639,-119.085197716,426,"3313 TELLURIDE COURT, BAKERSFIELD, CA, 93309","Match","Exact","3313 TELLURIDE CT, BAKERSFIELD, CA, 93309",109091098,"R"
520927,"3313 TREE TOP PLACE","GAINESVILLE","GA",30507,34.2632283620001,-83.733674392,427,"3313 TREE TOP PLACE, GAINESVILLE, GA, 30507","Match","Exact","3313 TREE TOP PL, GAINESVILLE, GA, 30507",98262451,"L"
520928,"3313 TULIP DR","HAZEL CREST","IL",60429,41.5814741130001,-87.697386861,428,"3313 TULIP DR, HAZEL CREST, IL, 60429","Match","Exact","3313 TULIP DR, HAZEL CREST, IL, 60429",111704961,"L"
520929,"3313 W 1375 N","CEDAR CITY","UT",84721,37.7015363730001,-113.116160216,429,"3313 W 1375 N, CEDAR CITY, UT, 84721","Match","Exact","3313 W 1375 N, CEDAR CITY, UT, 84721",617579541,"R"
520930,"3313 W 66TH ST","CHICAGO","IL",60628,41.7734628260001,-87.7058721719999,430,"3313 W 66TH ST, CHICAGO, IL, 60628","Match","Non_Exact","3313 W 66TH ST, CHICAGO, IL, 60629",111816850,"L"
520931,"3313 W 76TH STREET","LOS ANGELES","CA",90043,33.9709012650001,-118.32987732,431,"3313 W 76TH STREET, LOS ANGELES, CA, 90043","Match","Exact","3313 W 76TH ST, LOS ANGELES, CA, 90043",141655487,"R"
520932,"3313 W 79TH ST","CHICAGO","IL",60652,41.7497441090001,-87.7058516129999,432,"3313 W 79TH ST, CHICAGO, IL, 60652","Match","Exact","3313 W 79TH ST, CHICAGO, IL, 60652",111817397,"L"
520933,"3313 W AVENUE N8","PALMDALE","CA",93551,34.623779552,-118.187624329,433,"3313 W AVENUE N8, PALMDALE, CA, 93551","Match","Exact","3313 W AVE N8, PALMDALE, CA, 93551",141523187,"L"
520934,"3313 W CACTUS WREN DR","PHOENIX","AZ",85051,33.539956524,-112.130536569,434,"3313 W CACTUS WREN DR, PHOENIX, AZ, 85051","Match","Exact","3313 W CACTUS WREN DR, PHOENIX, AZ, 85051",128197642,"L"
520935,"3313 W CHERRY LANE SUITE 538","MERIDIAN","ID",83642,43.619317999,-116.434793768,435,"3313 W CHERRY LANE SUITE 538, MERIDIAN, ID, 83642","Match","Non_Exact","3313 W CHERRY LN, MERIDIAN, ID, 83642",117914743,"R"
520936,"3313 W CHERRY LANE","GREAT FALLS","MT",59404,NA,NA,436,"3313 W CHERRY LANE, GREAT FALLS, MT, 59404","No_Match",NA,NA,NA,NA
520937,"3313 W NAPOLEON AVE","TAMPA","FL",33611,27.871483578,-82.499095632,437,"3313 W NAPOLEON AVE, TAMPA, FL, 33611","Match","Exact","3313 NAPOLEON AVE, TAMPA, FL, 33611",104529328,"R"
520938,"3313 WEST FOREST PARK AVE APT 2","BALTIMORE","MD",21216,39.3233212330001,-76.672269405,438,"3313 WEST FOREST PARK AVE APT 2, BALTIMORE, MD, 21216","Match","Exact","3313 W FOREST PARK AVE, BALTIMORE, MD, 21216",206405710,"L"
520939,"3313 WESTBOUROUGH LANE","CONYERS","GA",30094,33.5968968270001,-84.083912654,439,"3313 WESTBOUROUGH LANE, CONYERS, GA, 30094","Match","Exact","3313 WESTBOUROUGH LN, CONYERS, GA, 30094",614159998,"R"
520940,"3313 WINDWARD GATE LANE","BUFORD","GA",30519,34.109644313,-83.9004610229999,440,"3313 WINDWARD GATE LANE, BUFORD, GA, 30519","Match","Exact","3313 WINDWARD GATE LN, BUFORD, GA, 30519",88922592,"R"
520941,"3313 YORK RD","PORTLAND","MI",48875,42.8356754650001,-85.008491312,441,"3313 YORK RD, PORTLAND, MI, 48875","Match","Non_Exact","3313 E YORK RD, PORTLAND, MI, 48875",12151951,"R"
520942,"33133 JESS N RAY WAY","FRANKFORD","DE",19945,38.5334204480001,-75.191147972,442,"33133 JESS N RAY WAY, FRANKFORD, DE, 19945","Match","Exact","33133 JESS N RAY WAY, FRANKFORD, DE, 19945",649692175,"R"
520943,"33133 STATE HIGHWAY 249","PINEHURST","TX",77362,30.1453475110001,-95.661667188,443,"33133 STATE HIGHWAY 249, PINEHURST, TX, 77362","Match","Exact","33133 STATE HWY 249, PINEHURST, TX, 77362",79342305,"R"
520944,"33134 W SPEARMAN RD","HERMISTON","OR",97838,45.885944061,-119.198407027,444,"33134 W SPEARMAN RD, HERMISTON, OR, 97838","Match","Exact","33134 W SPEARMAN RD, HERMISTON, OR, 97838",170434198,"R"
520945,"3313A W CARY STREET","RICHMOND","VA",23221,37.5540337470001,-77.48315225,445,"3313A W CARY STREET, RICHMOND, VA, 23221","Match","Exact","3313 W CARY ST, RICHMOND, VA, 23221",201535855,"L"
520946,"3314 169TH AVE CT E","LAKE TAPPS","WA",98391,47.226851551,-122.202993387,446,"3314 169TH AVE CT E, LAKE TAPPS, WA, 98391","Match","Exact","3314 169TH AVENUE CT E, LAKE TAPPS, WA, 98391",640610778,"L"
520947,"3314 7TH AVENUE","BEAVER FALLS","PA",15010,40.7747115330001,-80.32771256,447,"3314 7TH AVENUE, BEAVER FALLS, PA, 15010","Match","Exact","3314 7TH AVE, BEAVER FALLS, PA, 15010",52556581,"R"
520948,"3314 ABINGDON RD","COLUMBIA","SC",29203,34.0311035350001,-81.0486609019999,448,"3314 ABINGDON RD, COLUMBIA, SC, 29203","Match","Exact","3314 ABINGDON RD, COLUMBIA, SC, 29203",71819884,"R"
520949,"3314 ANGELA LN","CHATTANOOGA","TN",37419,35.04322252,-85.3577460129999,449,"3314 ANGELA LN, CHATTANOOGA, TN, 37419","Match","Exact","3314 ANGELA LN, CHATTANOOGA, TN, 37419",59331471,"L"
520950,"3314 ARBOR ST","HOUSTON","TX",77004,29.7183140010001,-95.364031843,450,"3314 ARBOR ST, HOUSTON, TX, 77004","Match","Exact","3314 ARBOR ST, HOUSTON, TX, 77004",96072478,"R"
520951,"3314 ARNEL CT","WINTER PARK","FL",32792,28.619071487,-81.305924018,451,"3314 ARNEL CT, WINTER PARK, FL, 32792","Match","Exact","3314 ARNEL CT, WINTER PARK, FL, 32792",93745052,"R"
520952,"3314 ASKEW","HOUSTON","TX",77087,29.6994797620001,-95.312934136,452,"3314 ASKEW, HOUSTON, TX, 77087","Match","Non_Exact","3314 ASKEW ST, HOUSTON, TX, 77087",96082870,"R"
520953,"3314 BAKER STREET","LIVE OAK","CA",95953,39.2735786960001,-121.674318713,453,"3314 BAKER STREET, LIVE OAK, CA, 95953","Match","Non_Exact","3314 BAKER WAY, LIVE OAK, CA, 95953",618753729,"R"
520954,"3314 BIRNAMWOOD DR","COLORADO SPRINGS","CO",80920,38.9587194440001,-104.761113654,454,"3314 BIRNAMWOOD DR, COLORADO SPRINGS, CO, 80920","Match","Exact","3314 BIRNAMWOOD DR, CO SPGS, CO, 80920",612526764,"L"
520955,"3314 BIXBY WAY","STOCKTON","CA",95209,38.034303375,-121.358309876,455,"3314 BIXBY WAY, STOCKTON, CA, 95209","Match","Exact","3314 BIXBY WAY, STOCKTON, CA, 95209",133930857,"R"
520956,"3314 CAMROSE LN","BOISE","ID",83706,43.605866474,-116.22275111,456,"3314 CAMROSE LN, BOISE, ID, 83706","Match","Exact","3314 CAMROSE LN, BOISE, ID, 83706",117864413,"R"
520957,"3314 CANDLE STICK LN","KATY","TX",77494,29.7355513470001,-95.829418414,457,"3314 CANDLE STICK LN, KATY, TX, 77494","Match","Exact","3314 CANDLE STICK LN, KATY, TX, 77494",642949075,"L"
520958,"3314 CHESTNUT MOUNTAIN CIRCLE","VINTON","VA",24179,37.2782504240001,-79.8525538489999,458,"3314 CHESTNUT MOUNTAIN CIRCLE, VINTON, VA, 24179","Match","Exact","3314 CHESTNUT MOUNTAIN CIR, VINTON, VA, 24179",62927708,"R"
520959,"3314 CIRCLE DR","FLINT","MI",48507,42.9924062470001,-83.661606052,459,"3314 CIRCLE DR, FLINT, MI, 48507","Match","Exact","3314 CIRCLE DR, FLINT, MI, 48507",69575719,"R"
520960,"3314 CLARK LN","SOUTH PLAINFIELD","NJ",7080,40.581173801,-74.390704699,460,"3314 CLARK LN, SOUTH PLAINFIELD, NJ, 7080","Match","Exact","3314 CLARK LN, S PLAINFIELD, NJ, 07080",60261914,"R"
520961,"3314 CRICKWOOD DR","INDIANAPOLIS","IN",46268,39.890975934,-86.217425673,461,"3314 CRICKWOOD DR, INDIANAPOLIS, IN, 46268","Match","Exact","3314 CRICKWOOD DR, INDIANAPOLIS, IN, 46268",108037618,"L"
520962,"3314 CURTIS DR","SUITLAND","MD",20746,38.8494553640001,-76.947948281,462,"3314 CURTIS DR, SUITLAND, MD, 20746","Match","Exact","3314 CURTIS DR, SUITLAND, MD, 20746",608692337,"L"
520963,"3314 CYPRESS LANDING COURT","ROSENBERG","TX",77471,29.5431569780001,-95.791838834,463,"3314 CYPRESS LANDING COURT, ROSENBERG, TX, 77471","Match","Exact","3314 CYPRESS LANDING CT, ROSENBERG, TX, 77471",636826724,"R"
520964,"3314 DIAMOND CT","MURFREESBORO","TN",37127,35.7796063530001,-86.39579084,464,"3314 DIAMOND CT, MURFREESBORO, TN, 37127","Match","Exact","3314 DIAMOND CT, MURFREESBORO, TN, 37127",617751863,"R"
520965,"3314 DOREEN DRIVE","ELLENTON","FL",34222,27.54236595,-82.483219517,465,"3314 DOREEN DRIVE, ELLENTON, FL, 34222","Match","Exact","3314 DOREEN DR, ELLENTON, FL, 34222",16230433,"L"
520966,"3314 E KAEL ST","MESA","AZ",85213,33.454880229,-111.759583629,466,"3314 E KAEL ST, MESA, AZ, 85213","Match","Exact","3314 E KAEL ST, MESA, AZ, 85213",646902041,"L"
520967,"3314 E SAN PEDRO AVE","GILBERT","AZ",85234,33.370805245,-111.719638279,467,"3314 E SAN PEDRO AVE, GILBERT, AZ, 85234","Match","Exact","3314 E SAN PEDRO AVE, GILBERT, AZ, 85234",128794758,"L"
520968,"3314 E SAN PEDRO AVENUE","GILBERT","AZ",85234,33.370805245,-111.719638279,468,"3314 E SAN PEDRO AVENUE, GILBERT, AZ, 85234","Match","Exact","3314 E SAN PEDRO AVE, GILBERT, AZ, 85234",128794758,"L"
520969,"3314 FINN HALL 38TH ROAD","ROCK","MI",49880,46.086341985,-87.199161971,469,"3314 FINN HALL 38TH ROAD, ROCK, MI, 49880","Match","Exact","3314 FINN HALL 38TH RD, ROCK, MI, 49880",181958343,"L"
520970,"3314 GABALDON PL NW","ALBUQUERQUE","NM",87104,35.1065983890001,-106.687060662,470,"3314 GABALDON PL NW, ALBUQUERQUE, NM, 87104","Match","Exact","3314 GABALDON PL NW, ALBUQUERQUE, NM, 87104",206704714,"L"
520971,"3314 GOLF DRIVE","SAN JOSE","CA",95127,37.3850586090001,-121.835608391,471,"3314 GOLF DRIVE, SAN JOSE, CA, 95127","Match","Exact","3314 GOLF DR, SAN JOSE, CA, 95127",122964815,"R"
520972,"3314 HAMPTON POINT DRIVE APT B","SILVER SPRING","MD",20904,39.077225678,-76.940568379,472,"3314 HAMPTON POINT DRIVE APT B, SILVER SPRING, MD, 20904","Match","Exact","3314 HAMPTON POINT DR, SILVER SPRING, MD, 20904",62079921,"L"
520973,"3314 HEATHSTEAD PL","CHARLOTTE","NC",28210,35.1315699790001,-80.832836688,473,"3314 HEATHSTEAD PL, CHARLOTTE, NC, 28210","Match","Exact","3314 HEATHSTEAD PL, CHARLOTTE, NC, 28210",70505665,"L"
520974,"3314 HELEN","DETROIT","MI",48207,42.3623017680001,-83.0134150009999,474,"3314 HELEN, DETROIT, MI, 48207","Match","Non_Exact","3314 HELEN ST, DETROIT, MI, 48207",95483726,"R"
520975,"3314 HELSEY FUSSELMAN RD","SOUTHINGTON","OH",44470,41.2794642710001,-80.918197936,475,"3314 HELSEY FUSSELMAN RD, SOUTHINGTON, OH, 44470","Match","Non_Exact","3314 HELSLEY FUSSELMAN RD, SOUTHINGTON, OH, 44470",652739061,"L"
520976,"3314 HIGH PEAK VALLEY","VALDESE","NC",28690,35.718907551,-81.627959507,476,"3314 HIGH PEAK VALLEY, VALDESE, NC, 28690","Match","Exact","3314 HIGH PEAK VALLEY, VALDESE, NC, 28690",633605224,"L"
520977,"3314 JODI LN","DOVER","PA",17315,39.975816664,-76.829070658,477,"3314 JODI LN, DOVER, PA, 17315","Match","Exact","3314 JODI LN, DOVER, PA, 17315",88757743,"R"
520978,"3314 LERITZ LANE","EDGEWATER","MD",21037,38.925165425,-76.537645502,478,"3314 LERITZ LANE, EDGEWATER, MD, 21037","Match","Exact","3314 LERITZ LN, EDGEWATER, MD, 21037",68173326,"R"
520979,"3314 LIMERICK RD","EL PASO","TX",79925,31.7904021000001,-106.340715442,479,"3314 LIMERICK RD, EL PASO, TX, 79925","Match","Exact","3314 LIMERICK RD, EL PASO, TX, 79925",189364264,"R"
520980,"3314 MALLARD CLOSE","POMPANO BEACH","FL",33064,26.2721003190001,-80.142275618,480,"3314 MALLARD CLOSE, POMPANO BEACH, FL, 33064","Match","Exact","3314 MALLARD CLOSE, POMPANO BEACH, FL, 33064",114741039,"R"
520981,"3314 MAYBERRY LANDING DR","NORTHPORT","AL",35473,33.256037194,-87.589827239,481,"3314 MAYBERRY LANDING DR, NORTHPORT, AL, 35473","Match","Exact","3314 MAYBERRY LANDING DR, NORTHPORT, AL, 35473",82199428,"L"
520982,"3314 MILLBROOK ROAD","WILSON","NC",27896,NA,NA,482,"3314 MILLBROOK ROAD, WILSON, NC, 27896","No_Match",NA,NA,NA,NA
520983,"3314 MOUNT PLEASANT ST NW 5","WASHINGTON","DC",20010,38.933115764,-77.039931209,483,"3314 MOUNT PLEASANT ST NW 5, WASHINGTON, DC, 20010","Match","Exact","3314 MOUNT PLEASANT ST NW, WASHINGTON, DC, 20010",76222818,"L"
520984,"3314 N 124TH ST W","WICHITA","KS",67223,37.742786182,-97.486919697,484,"3314 N 124TH ST W, WICHITA, KS, 67223","Match","Exact","3314 N 124TH ST W, WICHITA, KS, 67223",636692055,"R"
520985,"3314 NIX ROAD","PHIL CAMPBELL","AL",35582,34.3570580750001,-87.715988253,485,"3314 NIX ROAD, PHIL CAMPBELL, AL, 35582","Match","Non_Exact","3314 NIX RD, PHIL CAMPBELL, AL, 35581",41255853,"L"
520986,"3314 NORTHSIDE DRIVE NO 81","KEY WEST","FL",33040,24.5689762120001,-81.763653107,486,"3314 NORTHSIDE DRIVE NO 81, KEY WEST, FL, 33040","Match","Non_Exact","3314 NORTHSIDE DR, KEY WEST, FL, 33040",612192503,"L"
520987,"3314 NW 23RD CT","LAUDERDALE LAKES","FL",33311,26.156094497,-80.191381781,487,"3314 NW 23RD CT, LAUDERDALE LAKES, FL, 33311","Match","Exact","3314 NW 23RD CT, LAUDERDALE LAKES, FL, 33311",114709214,"L"
520988,"3314 PARKWOOD AVENUE","TOLEDO","OH",43610,41.6826740240001,-83.557247166,488,"3314 PARKWOOD AVENUE, TOLEDO, OH, 43610","Match","Exact","3314 PARKWOOD AVE, TOLEDO, OH, 43610",33941212,"R"
520989,"3314 PAT COLE CT","MURFREESBORO","TN",37129,35.9141531540001,-86.419128327,489,"3314 PAT COLE CT, MURFREESBORO, TN, 37129","Match","Non_Exact","3314 PATCOLE CT, MURFREESBORO, TN, 37129",59039824,"R"
520990,"3314 PICKETT RD","DURHAM","NC",27705,35.9755575020001,-78.976541734,490,"3314 PICKETT RD, DURHAM, NC, 27705","Match","Exact","3314 PICKETT RD, DURHAM, NC, 27705",648745694,"R"
520991,"3314 POLLYDALE","SAN ANTONIO","TX",78223,29.3743583950001,-98.434610015,491,"3314 POLLYDALE, SAN ANTONIO, TX, 78223","Match","Non_Exact","3314 POLLYDALE AVE, SAN ANTONIO, TX, 78223",101720152,"R"
520992,"3314 PONDVIEW COURT","INDIANAPOLIS","IN",46268,39.8804693120001,-86.215525601,492,"3314 PONDVIEW COURT, INDIANAPOLIS, IN, 46268","Match","Exact","3314 PONDVIEW CT, INDIANAPOLIS, IN, 46268",108025548,"R"
520993,"3314 ROBERT TRENT JONES DR UNIT 205","ORLANDO","FL",32835,NA,NA,493,"3314 ROBERT TRENT JONES DR UNIT 205, ORLANDO, FL, 32835","No_Match",NA,NA,NA,NA
520994,"3314 ROBINWOOD DR","FORT WAYNE","IN",46806,41.0548211830001,-85.1190362259999,494,"3314 ROBINWOOD DR, FORT WAYNE, IN, 46806","Match","Exact","3314 ROBINWOOD DR, FORT WAYNE, IN, 46806",6383251,"R"
520995,"3314 ROYAL CARRIAGE","MONTGOMERY","AL",36116,32.333188293,-86.224857436,495,"3314 ROYAL CARRIAGE, MONTGOMERY, AL, 36116","Match","Non_Exact","3314 ROYAL CARRIAGE DR, MONTGOMERY, AL, 36116",1477004,"R"
520996,"3314 S 185TH AVE","OMAHA","NE",68130,41.228101866,-96.205328744,496,"3314 S 185TH AVE, OMAHA, NE, 68130","Match","Exact","3314 S 185TH AVE, OMAHA, NE, 68130",650083494,"R"
520997,"3314 S 28TH AVE","BOZEMAN","MT",59718,45.6452192570001,-111.074350315,497,"3314 S 28TH AVE, BOZEMAN, MT, 59718","Match","Exact","3314 S 28TH AVE, BOZEMAN, MT, 59718",636751531,"L"
520998,"3314 S 6920 W","WEST JORDAN","UT",84084,NA,NA,498,"3314 S 6920 W, WEST JORDAN, UT, 84084","No_Match",NA,NA,NA,NA
520999,"3314 SHADY GLEN LANE","MISSOURI CITY","TX",77458,29.5776973850001,-95.555818917,499,"3314 SHADY GLEN LANE, MISSOURI CITY, TX, 77458","Match","Non_Exact","3314 SHADY GLEN LN, MISSOURI CITY, TX, 77459",78269358,"L"
521000,"3314 SOUTH 73RD WEST AVENUE","TULSA","OK",74107,36.1151297960001,-96.074595072,500,"3314 SOUTH 73RD WEST AVENUE, TULSA, OK, 74107","Match","Exact","3314 S 73RD WEST AVE, TULSA, OK, 74107",166471631,"R"
