"ID","Address","City","State","Zip","lat","long","id","input_address","match_indicator","match_type","matched_address","tiger_line_id","tiger_side"
631501,"4381 DAVISON RD","BURTON","MI",48509,43.033078195,-83.620840866,1,"4381 DAVISON RD, BURTON, MI, 48509","Match","Exact","4381 DAVISON RD, BURTON, MI, 48509",69571150,"L"
631502,"4381 DEER SPRINGS DR","BELLEMONT","AZ",86015,35.2336311020001,-111.809367084,2,"4381 DEER SPRINGS DR, BELLEMONT, AZ, 86015","Match","Non_Exact","4381 DEER SPRINGS RD, BELLEMONT, AZ, 86015",189147727,"R"
631503,"4381 DUNNWOOD DR","EL DORADO HILLS","CA",95762,38.6450663530001,-121.080730661,3,"4381 DUNNWOOD DR, EL DORADO HILLS, CA, 95762","Match","Exact","4381 DUNNWOOD DR, EL DORADO HILLS, CA, 95762",618398014,"R"
631504,"4381 E DURHAM CIRCLE","STONE MOUNTAIN","GA",30083,33.767593817,-84.214988115,4,"4381 E DURHAM CIRCLE, STONE MOUNTAIN, GA, 30083","Match","Exact","4381 DURHAM CIR, STONE MOUNTAIN, GA, 30083",23371567,"R"
631505,"4381 GEM AVENUE","CASTRO VALLEY","CA",94546,37.697756369,-122.059305925,5,"4381 GEM AVENUE, CASTRO VALLEY, CA, 94546","Match","Exact","4381 GEM AVE, CASTRO VALLEY, CA, 94546",125016003,"R"
631506,"4381 GREENBUSH ROAD","CHARLOTTE","VT",5445,44.2881412340001,-73.25665895,6,"4381 GREENBUSH ROAD, CHARLOTTE, VT, 5445","Match","Exact","4381 GREENBUSH RD, CHARLOTTE, VT, 05445",135852967,"R"
631507,"4381 GUINEVERE LN","BARTLETT","TN",38135,35.2453543460001,-89.8512365839999,7,"4381 GUINEVERE LN, BARTLETT, TN, 38135","Match","Exact","4381 GUINEVERE LN, BARTLETT, TN, 38135",617979757,"R"
631508,"4381 KINGS WAY","MARIETTA","GA",30067,33.955328464,-84.425134245,8,"4381 KINGS WAY, MARIETTA, GA, 30067","Match","Exact","4381 KINGS WAY, MARIETTA, GA, 30067",17184005,"L"
631509,"4381 LOMA DE BRISAS","EL PASO","TX",79934,31.931695335,-106.44431165,9,"4381 LOMA DE BRISAS, EL PASO, TX, 79934","Match","Non_Exact","4381 LOMA DE BRISAS DR, EL PASO, TX, 79934",189369289,"R"
631510,"4381 QUAIL RIDGE WAY","PEACHTREE CORNERS","GA",30092,33.981077622,-84.252461134,10,"4381 QUAIL RIDGE WAY, PEACHTREE CORNERS, GA, 30092","Match","Exact","4381 QUAIL RIDGE WAY, PEACHTREE CORNERS, GA, 30092",88922705,"R"
631511,"4381 RAPTOR PLACE","SNELLVILLE","GA",30039,33.7761801290001,-84.040763483,11,"4381 RAPTOR PLACE, SNELLVILLE, GA, 30039","Match","Exact","4381 RAPTOR PL, SNELLVILLE, GA, 30039",628097559,"L"
631512,"4381 ROUTE 219","BROCKPORT","PA",15823,41.2542225870001,-78.738610497,12,"4381 ROUTE 219, BROCKPORT, PA, 15823","Match","Non_Exact","4381 US HWY 219, BROCKPORT, PA, 15823",157856949,"L"
631513,"4381 S PENNSYLVANIA AVE","ST FRANCIS","WI",53235,42.9645096850001,-87.879772415,13,"4381 S PENNSYLVANIA AVE, ST FRANCIS, WI, 53235","Match","Exact","4381 S PENNSYLVANIA AVE, SAINT FRANCIS, WI, 53235",77754634,"R"
631514,"4381 SHADOWLEAF COVE NORTH","MEMPHIS","TN",38128,35.245968405,-89.904787841,14,"4381 SHADOWLEAF COVE NORTH, MEMPHIS, TN, 38128","Match","Non_Exact","4381 SHADOW LEAF COVE N, MEMPHIS, TN, 38128",72964695,"L"
631515,"4381 SHADY GROVE RD","CABOOL","MO",65689,37.201126865,-92.0517719759999,15,"4381 SHADY GROVE RD, CABOOL, MO, 65689","Match","Exact","4381 SHADY GROVE RD, CABOOL, MO, 65689",26445512,"L"
631516,"4381 STRADALE LN","ANIWA","WI",54408,NA,NA,16,"4381 STRADALE LN, ANIWA, WI, 54408","No_Match",NA,NA,NA,NA
631517,"4381 SW STATE RT D","POLO","MO",64671,NA,NA,17,"4381 SW STATE RT D, POLO, MO, 64671","No_Match",NA,NA,NA,NA
631518,"4381 W FLAMINGO ROAD UNIT 16321","LAS VEGAS","NV",89103,36.1154299500001,-115.198303901,18,"4381 W FLAMINGO ROAD UNIT 16321, LAS VEGAS, NV, 89103","Match","Non_Exact","4381 W FLAMINGO RD, LAS VEGAS, NV, 89103",639403646,"R"
631519,"4381 W IRON MOUNTAIN DRIVE","SOUTH JORDAN","UT",84009,40.5591663550001,-111.995632906,19,"4381 W IRON MOUNTAIN DRIVE, SOUTH JORDAN, UT, 84009","Match","Exact","4381 W IRON MOUNTAIN DR, SOUTH JORDAN, UT, 84009",617913710,"L"
631520,"43810 TIPTON DR","STERLING HEIGHTS","MI",48313,42.616663428,-83.0069586669999,20,"43810 TIPTON DR, STERLING HEIGHTS, MI, 48313","Match","Exact","43810 TIPTON DR, STERLING HEIGHTS, MI, 48313",110660110,"L"
631521,"43815 CEDARCREST TRAIL","CAMBRIDGE","MN",55008,NA,NA,21,"43815 CEDARCREST TRAIL, CAMBRIDGE, MN, 55008","No_Match",NA,NA,NA,NA
631522,"43815 WATER BAY TERRACE","LEESBURG","VA",20176,39.1030138690001,-77.484396386,22,"43815 WATER BAY TERRACE, LEESBURG, VA, 20176","Match","Exact","43815 WATER BAY TER, LEESBURG, VA, 20176",62355760,"R"
631523,"4382 ALAMO ST","SIMI VALLEY","CA",93063,34.2862853560001,-118.70936638,23,"4382 ALAMO ST, SIMI VALLEY, CA, 93063","Match","Exact","4382 ALAMO ST, SIMI VALLEY, CA, 93063",110072153,"R"
631524,"4382 ENGLISH OAK COURT","MASON","OH",45040,39.3323923720001,-84.300451548,24,"4382 ENGLISH OAK COURT, MASON, OH, 45040","Match","Exact","4382 ENGLISH OAK CT, MASON, OH, 45040",633823378,"L"
631525,"4382 EUROPEAN JAUNT","WEST CHESTER","OH",45069,39.372521383,-84.4749320509999,25,"4382 EUROPEAN JAUNT, WEST CHESTER, OH, 45069","Match","Exact","4382 EUROPEAN JAUNT, WEST CHESTER, OH, 45069",604775756,"L"
631526,"4382 GREENBUSH ROAD","CHARLOTTE","VT",5445,44.288827203,-73.2567268239999,26,"4382 GREENBUSH ROAD, CHARLOTTE, VT, 5445","Match","Exact","4382 GREENBUSH RD, CHARLOTTE, VT, 05445",135857247,"L"
631527,"4382 HWY F62 E","REASNOR","IA",50232,41.580722183,-93.00086892,27,"4382 HWY F62 E, REASNOR, IA, 50232","Match","Exact","4382 HWY F62 E, REASNOR, IA, 50232",640023530,"R"
631528,"4382 LEEDS POINT CT","WEST CHESTER","OH",45069,39.3505427580001,-84.466924934,28,"4382 LEEDS POINT CT, WEST CHESTER, OH, 45069","Match","Exact","4382 LEEDS POINT CT, WEST CHESTER, OH, 45069",113814129,"R"
631529,"4382 LENOX DRIVE","BETHLEHEM","PA",18017,40.6797891910001,-75.400393728,29,"4382 LENOX DRIVE, BETHLEHEM, PA, 18017","Match","Exact","4382 LENOX DR, BETHLEHEM, PA, 18017",136897139,"R"
631530,"4382 MAUNT PUTMAN AVE","SAN DIEGO","CA",92117,32.820620116,-117.194016069,30,"4382 MAUNT PUTMAN AVE, SAN DIEGO, CA, 92117","Match","Non_Exact","4382 MOUNT PUTMAN AVE, SAN DIEGO, CA, 92117",195304757,"L"
631531,"4382 NOWLIN DR SE","SMYRNA","GA",30082,33.849169508,-84.536438526,31,"4382 NOWLIN DR SE, SMYRNA, GA, 30082","Match","Non_Exact","4382 NOWLIN DR, SMYRNA, GA, 30082",650663984,"R"
631532,"4382 REXWOOD  DRIVE - BUILDING 20","COLUMBUS","OH",43230,40.071999594,-82.8639457959999,32,"4382 REXWOOD  DRIVE - BUILDING 20, COLUMBUS, OH, 43230","Match","Exact","4382 REXWOOD DR, COLUMBUS, OH, 43230",218686510,"L"
631533,"4382 RUSTIC OAK LN","BRASELTON","GA",30517,34.156456034,-83.7836119849999,33,"4382 RUSTIC OAK LN, BRASELTON, GA, 30517","Match","Exact","4382 RUSTIC OAK LN, BRASELTON, GA, 30517",637390831,"L"
631534,"4382 STONERIDGE DR","FLINT","TX",75762,32.1864882670001,-95.325092693,34,"4382 STONERIDGE DR, FLINT, TX, 75762","Match","Exact","4382 STONERIDGE DR, FLINT, TX, 75762",141298085,"L"
631535,"4382 YUTAH ST APT 10","SAN DIEGO","CA",92104,NA,NA,35,"4382 YUTAH ST APT 10, SAN DIEGO, CA, 92104","No_Match",NA,NA,NA,NA
631536,"43822 STATE ROUTE 556","BEALLSVILLE","OH",43716,39.846043061,-81.022702059,36,"43822 STATE ROUTE 556, BEALLSVILLE, OH, 43716","Match","Exact","43822 STATE RTE 556, BEALLSVILLE, OH, 43716",606318265,"R"
631537,"43822 STATE ROUTE 556","BEALLVILLE","OH",43716,39.846043061,-81.022702059,37,"43822 STATE ROUTE 556, BEALLVILLE, OH, 43716","Match","Non_Exact","43822 STATE RTE 556, BEALLSVILLE, OH, 43716",606318265,"R"
631538,"43824 20TH STREET WEST   5162","LANCASTER","CA",93534,34.6792026680001,-118.165601611,38,"43824 20TH STREET WEST   5162, LANCASTER, CA, 93534","Match","Non_Exact","43824 20TH ST W, LANCASTER, CA, 93539",241248920,"R"
631539,"43825 BLOCK PLANT ROAD","RACINE","OH",45771,39.0377654430001,-81.977509862,39,"43825 BLOCK PLANT ROAD, RACINE, OH, 45771","Match","Non_Exact","43825 BLOCK PLANT, RACINE, OH, 45771",625193123,"R"
631540,"4383 BORDEN GRANT TRAIL","FAIRFIELD","VA",24435,37.8814441960001,-79.260561232,40,"4383 BORDEN GRANT TRAIL, FAIRFIELD, VA, 24435","Match","Exact","4383 BORDEN GRANT TRL, FAIRFIELD, VA, 24435",215049670,"L"
631541,"4383 CAHUENGA BLVD STE 101","TOLUCA LAKE","CA",91602,34.150045441,-118.36147413,41,"4383 CAHUENGA BLVD STE 101, TOLUCA LAKE, CA, 91602","Match","Exact","4383 CAHUENGA BLVD, TOLUCA LAKE, CA, 91602",141592170,"L"
631542,"4383 CALDER AVENUE","BEAUMONT","TX",77706,30.0863618830001,-94.149205239,42,"4383 CALDER AVENUE, BEAUMONT, TX, 77706","Match","Exact","4383 CALDER AVE, BEAUMONT, TX, 77706",73852707,"L"
631543,"4383 CARPENTER AVE","BRONX","NY",10466,40.899008838,-73.8573422439999,43,"4383 CARPENTER AVE, BRONX, NY, 10466","Match","Exact","4383 CARPENTER AVE, BRONX, NY, 10466",80296971,"L"
631544,"4383 CENTER ROAD","BRUNSWICK","OH",44212,41.238237424,-81.8436712499999,44,"4383 CENTER ROAD, BRUNSWICK, OH, 44212","Match","Exact","4383 CENTER RD, BRUNSWICK, OH, 44212",58684473,"R"
631545,"4383 CLOUDMONT DR","HOLLYWOOD","SC",29449,32.7692757090001,-80.143937319,45,"4383 CLOUDMONT DR, HOLLYWOOD, SC, 29449","Match","Exact","4383 CLOUDMONT DR, HOLLYWOOD, SC, 29449",605795803,"R"
631546,"4383 COLBURN DRIVE","SYRACUSE","NY",13215,43.0017990750001,-76.20646851,46,"4383 COLBURN DRIVE, SYRACUSE, NY, 13215","Match","Exact","4383 COLBURN DR, SYRACUSE, NY, 13215",46624898,"R"
631547,"4383 CR 210","BURNS","WY",82053,41.1441073500001,-104.449999065,47,"4383 CR 210, BURNS, WY, 82053","Match","Exact","4383 CO RD 210, BURNS, WY, 82053",160158105,"L"
631548,"4383 DEVONSHIRE DR","TROY","MI",48098,42.580819837,-83.178918881,48,"4383 DEVONSHIRE DR, TROY, MI, 48098","Match","Exact","4383 DEVONSHIRE DR, TROY, MI, 48098",69797550,"L"
631549,"4383 E FICUS WAY","GILBERT","AZ",85298,33.249770997,-111.694878222,49,"4383 E FICUS WAY, GILBERT, AZ, 85298","Match","Exact","4383 E FICUS WAY, GILBERT, AZ, 85298",642856760,"R"
631550,"4383 ESTATE DRIVE","BERTHOUD","CO",80513,40.2891360720001,-105.154751472,50,"4383 ESTATE DRIVE, BERTHOUD, CO, 80513","Match","Exact","4383 ESTATE DR, BERTHOUD, CO, 80513",188588290,"L"
631551,"4383 GIBSON","ST. LOUIS","MO",63110,38.6288157550001,-90.257415717,51,"4383 GIBSON, ST. LOUIS, MO, 63110","Match","Non_Exact","4383 GIBSON AVE, SAINT LOUIS, MO, 63110",107597039,"R"
631552,"4383 MELWOOD STREET","MEMPHIS","TN",38109,35.029217488,-90.084688389,52,"4383 MELWOOD STREET, MEMPHIS, TN, 38109","Match","Exact","4383 MELWOOD ST, MEMPHIS, TN, 38109",72907088,"R"
631553,"4383 NOBEL DRIVE UNIT 85","SAN DIEGO","CA",92122,32.867096625,-117.211589833,53,"4383 NOBEL DRIVE UNIT 85, SAN DIEGO, CA, 92122","Match","Exact","4383 NOBEL DR, SAN DIEGO, CA, 92122",195668500,"R"
631554,"4383 OREGON RD","SPRINGFIELD","TN",37172,36.5373522800001,-86.744209531,54,"4383 OREGON RD, SPRINGFIELD, TN, 37172","Match","Exact","4383 OREGON RD, SPRINGFIELD, TN, 37172",97437836,"R"
631555,"4383 RAILEY CREEK RD","GALENA","MO",NA,NA,NA,55,"4383 RAILEY CREEK RD, GALENA, MO, ","No_Match",NA,NA,NA,NA
631556,"4383 S 91ST E AVE","TULSA","OK",74145,36.1019596130001,-95.875679337,56,"4383 S 91ST E AVE, TULSA, OK, 74145","Match","Exact","4383 S 91ST EAST AVE, TULSA, OK, 74145",166453565,"L"
631557,"4383 TENNYSON STREET UNIT 2-G","DENVER","CO",80212,39.7762256990001,-105.043981389,57,"4383 TENNYSON STREET UNIT 2-G, DENVER, CO, 80212","Match","Exact","4383 TENNYSON ST, DENVER, CO, 80212",177299602,"L"
631558,"4383 THURGOOD ESTATES DRIVE","ELLENWOOD","GA",30273,33.6506815480001,-84.210105308,58,"4383 THURGOOD ESTATES DRIVE, ELLENWOOD, GA, 30273","Match","Non_Exact","4383 THURGOOD ESTATES DR, ELLENWOOD, GA, 30294",619379690,"R"
631559,"4383 WINNABOW ROAD","WINSTON SALEM","NC",27105,36.1541468350001,-80.187605821,59,"4383 WINNABOW ROAD, WINSTON SALEM, NC, 27105","Match","Exact","4383 WINNABOW RD, WINSTON SALEM, NC, 27105",84702292,"R"
631560,"43833 ELENA COURT","LANCASTER","CA",93536,34.679381924,-118.2349982,60,"43833 ELENA COURT, LANCASTER, CA, 93536","Match","Non_Exact","43833 ELENA ST, LANCASTER, CA, 93536",627014710,"L"
631561,"43834 W ELIZABETH AVE","MARICOPA","AZ",85138,33.053612738,-112.038959924,61,"43834 W ELIZABETH AVE, MARICOPA, AZ, 85138","Match","Exact","43834 W ELIZABETH AVE, MARICOPA, AZ, 85138",129256155,"R"
631562,"43835 WOODLAND BLVD","MATTAWAN","MI",49071,42.2601598410001,-85.788586504,62,"43835 WOODLAND BLVD, MATTAWAN, MI, 49071","Match","Exact","43835 WOODLAND BLVD, MATTAWAN, MI, 49071",617491172,"R"
631563,"43836 LABURNUM SQUARE","ASHBURN","VA",20147,39.0325392120001,-77.4861608529999,63,"43836 LABURNUM SQUARE, ASHBURN, VA, 20147","Match","Exact","43836 LABURNUM SQ, ASHBURN, VA, 20147",62332558,"R"
631564,"43837 ROBINDALE CT","ASHBURN","VA",20147,39.0524725550001,-77.484331762,64,"43837 ROBINDALE CT, ASHBURN, VA, 20147","Match","Exact","43837 ROBINDALE CT, ASHBURN, VA, 20147",62336083,"R"
631565,"43837 W BEDFORD DR","MARICOPA","AZ",85138,33.0744948230001,-112.038664438,65,"43837 W BEDFORD DR, MARICOPA, AZ, 85138","Match","Exact","43837 BEDFORD DR, MARICOPA, AZ, 85138",129254768,"L"
631566,"4384 ASHLAWN","FLINT","MI",48507,42.9629347650001,-83.7044203149999,66,"4384 ASHLAWN, FLINT, MI, 48507","Match","Non_Exact","4384 ASHLAWN DR, FLINT, MI, 48507",69575006,"R"
631567,"4384 E ASHLAN AVE UNIT 107","FRESNO","CA",93726,36.7941214840001,-119.751551574,67,"4384 E ASHLAN AVE UNIT 107, FRESNO, CA, 93726","Match","Non_Exact","4384 E ASHLAN AVE, FRESNO, CA, 93726",642741530,"R"
631568,"4384 E BROAD ST APT D","COLUMBUS","OH",43213,39.9750989020001,-82.8841051859999,68,"4384 E BROAD ST APT D, COLUMBUS, OH, 43213","Match","Non_Exact","4384 E BROAD ST, COLUMBUS, OH, 43213",218651623,"L"
631569,"4384 EAST ASHLAN SUITE 107","FRESNO","CA",93726,36.794121434,-119.751558827,69,"4384 EAST ASHLAN SUITE 107, FRESNO, CA, 93726","Match","Non_Exact","4384 E ASHLAN AVE, FRESNO, CA, 93726",642741530,"R"
631570,"4384 HOWE STREET","OAKLAND","CA",94611,37.8314424010001,-122.247425186,70,"4384 HOWE STREET, OAKLAND, CA, 94611","Match","Exact","4384 HOWE ST, OAKLAND, CA, 94611",125000611,"R"
631571,"4384 HUMMINGBIRD CIRCLE","FOLSOM","CA",95630,38.6270384630001,-121.111963214,71,"4384 HUMMINGBIRD CIRCLE, FOLSOM, CA, 95630","Match","Exact","4384 HUMMINGBIRD CIR, FOLSOM, CA, 95630",652029610,"L"
631572,"4384 JEFF COURT","CINCINNATI","OH",45241,39.2999066240001,-84.385899125,72,"4384 JEFF COURT, CINCINNATI, OH, 45241","Match","Exact","4384 JEFF CT, CINCINNATI, OH, 45241",113802063,"L"
631573,"4384 LUCILLE AVENUE","SOUTH EUCLID","OH",44121,41.5278096760001,-81.5217766009999,73,"4384 LUCILLE AVENUE, SOUTH EUCLID, OH, 44121","Match","Non_Exact","4384 LUCILLE RD, SOUTH EUCLID, OH, 44121",61124836,"R"
631574,"4384 PRINCETON KENLY RD","KENLY","NC",27542,35.531944873,-78.146539027,74,"4384 PRINCETON KENLY RD, KENLY, NC, 27542","Match","Exact","4384 PRINCETON KENLY RD, KENLY, NC, 27542",26557424,"L"
631575,"4384 STONE GATE WAY","EAST POINT","GA",30344,33.64035929,-84.49262134,75,"4384 STONE GATE WAY, EAST POINT, GA, 30344","Match","Exact","4384 STONE GATE WAY, EAST POINT, GA, 30344",609938448,"L"
631576,"4384 TAVISTOCK CIRCLE","ST. LOUIS","MO",63129,38.4974140740001,-90.3243698749999,76,"4384 TAVISTOCK CIRCLE, ST. LOUIS, MO, 63129","Match","Exact","4384 TAVISTOCK CIR, SAINT LOUIS, MO, 63129",645740118,"R"
631577,"4384 VIA PRESADA","SANTA BARBARA","CA",93110,34.433325558,-119.768225597,77,"4384 VIA PRESADA, SANTA BARBARA, CA, 93110","Match","Exact","4384 VIA PRESADA, SANTA BARBARA, CA, 93110",108602905,"R"
631578,"43840 FAIRHAVEN DR","PALM DESERT","CA",92260,33.729637344,-116.395612356,78,"43840 FAIRHAVEN DR, PALM DESERT, CA, 92260","Match","Exact","43840 FAIRHAVEN DR, PALM DESERT, CA, 92260",636773315,"L"
631579,"43843 5TH ST E","LANCASTER","CA",93535,34.67980119,-118.121331453,79,"43843 5TH ST E, LANCASTER, CA, 93535","Match","Exact","43843 5TH ST E, LANCASTER, CA, 93535",141833761,"R"
631580,"43843 DODGE TERRACE","ASHBURN","VA",20147,39.0281624240001,-77.48605238,80,"43843 DODGE TERRACE, ASHBURN, VA, 20147","Match","Exact","43843 DODGE TER, ASHBURN, VA, 20147",218905706,"R"
631581,"43844 STATE ROUTE 3","NATURAL BRIDGE","NY",13665,44.0692072000001,-75.4976283,81,"43844 STATE ROUTE 3, NATURAL BRIDGE, NY, 13665","Match","Exact","43844 STATE RTE 3, NATURAL BRG, NY, 13665",640626103,"R"
631582,"43844 W WADE DR","MARICOPA","AZ",85138,NA,NA,82,"43844 W WADE DR, MARICOPA, AZ, 85138","Tie",NA,NA,NA,NA
631583,"43845 THORNBERRY SQUARE UNIT 312","LANSDOWNE","VA",20176,39.075363677,-77.4827223739999,83,"43845 THORNBERRY SQUARE UNIT 312, LANSDOWNE, VA, 20176","Match","Exact","43845 THORNBERRY SQ, LANSDOWNE, VA, 20176",218959837,"L"
631584,"43847 CHADWICK TERRACE","ASHBURN","VA",20148,38.988167403,-77.4845257709999,84,"43847 CHADWICK TERRACE, ASHBURN, VA, 20148","Match","Exact","43847 CHADWICK TER, ASHBURN, VA, 20148",62353146,"L"
631585,"4385 109TH AVE","CLEAR LAKE","MN",55319,45.505988216,-93.938730327,85,"4385 109TH AVE, CLEAR LAKE, MN, 55319","Match","Exact","4385 109TH AVE, CLEAR LAKE, MN, 55319",97773235,"R"
631586,"4385 BEARTOOTH LANE","DOUGLASVILLE","GA",30135,33.685439989,-84.6815231259999,86,"4385 BEARTOOTH LANE, DOUGLASVILLE, GA, 30135","Match","Exact","4385 BEARTOOTH LN, DOUGLASVILLE, GA, 30135",618478483,"L"
631587,"4385 CADES POINTE","MARIETTA","GA",30066,34.0579381220001,-84.456169002,87,"4385 CADES POINTE, MARIETTA, GA, 30066","Match","Exact","4385 CADES POINTE, MARIETTA, GA, 30066",642999451,"L"
631588,"4385 CALICO DR S","FARGO","ND",58104,46.8382377950001,-96.8611768819999,88,"4385 CALICO DR S, FARGO, ND, 58104","Match","Exact","4385 CALICO DR S, FARGO, ND, 58104",633031189,"R"
631589,"4385 CANARD RD","ME",NA,NA,NA,NA,89,"4385 CANARD RD, ME, , ","No_Match",NA,NA,NA,NA
631590,"4385 DEESIDE DRIVE","BRIGHTON","MI",48116,NA,NA,90,"4385 DEESIDE DRIVE, BRIGHTON, MI, 48116","No_Match",NA,NA,NA,NA
631591,"4385 DURON PLACE","MABLETON","GA",30126,NA,NA,91,"4385 DURON PLACE, MABLETON, GA, 30126","No_Match",NA,NA,NA,NA
631592,"4385 HIGHWAY 22","SPARTA","GA",31087,33.2057734970001,-83.0777422309999,92,"4385 HIGHWAY 22, SPARTA, GA, 31087","Match","Non_Exact","4385 STATE RTE 22, SPARTA, GA, 31087",16558453,"L"
631593,"4385 LANTERMAN RD","AUSTINTOWN","OH",44515,41.1200315520001,-80.730394237,93,"4385 LANTERMAN RD, AUSTINTOWN, OH, 44515","Match","Exact","4385 LANTERMAN RD, AUSTINTOWN, OH, 44515",64619223,"L"
631594,"4385 LOWER ROSWELL RD","MARIETTA","GA",30068,33.963319084,-84.423685339,94,"4385 LOWER ROSWELL RD, MARIETTA, GA, 30068","Match","Exact","4385 LOWER ROSWELL RD, MARIETTA, GA, 30068",17183988,"L"
631595,"4385 MARIAVILLE ROAD","SCHENECTADY","NY",12306,42.8222116600001,-74.059522796,95,"4385 MARIAVILLE ROAD, SCHENECTADY, NY, 12306","Match","Exact","4385 MARIAVILLE RD, SCHENECTADY, NY, 12306",18023754,"L"
631596,"4385 MCCORD LIVSEY RD","SNELLVILLE","GA",30039,33.7725976,-84.04334249,96,"4385 MCCORD LIVSEY RD, SNELLVILLE, GA, 30039","Match","Exact","4385 MCCORD LIVSEY RD, SNELLVILLE, GA, 30039",645505600,"R"
631597,"4385 OAK AVE","LAKEPORT","CA",95453,39.0951479280001,-122.906243205,97,"4385 OAK AVE, LAKEPORT, CA, 95453","Match","Exact","4385 OAK AVE, LAKEPORT, CA, 95453",67066262,"L"
631598,"4385 OCEAN VIEW BLVD","MONTROSE","CA",91020,34.2143998710001,-118.227898473,98,"4385 OCEAN VIEW BLVD, MONTROSE, CA, 91020","Match","Exact","4385 OCEAN VIEW BLVD, MONTROSE, CA, 91020",640122247,"L"
631599,"4385 ORION LANE","EAGAN","MN",55123,44.798449625,-93.151215645,99,"4385 ORION LANE, EAGAN, MN, 55123","Match","Exact","4385 ORION LN, EAGAN, MN, 55123",37909144,"L"
631600,"4385 PECAN STREET","LOGANVILLE","GA",30052,NA,NA,100,"4385 PECAN STREET, LOGANVILLE, GA, 30052","No_Match",NA,NA,NA,NA
631601,"4385 ROCK VALLEY","FOREST","GA",30297,33.634352253,-84.345503133,101,"4385 ROCK VALLEY, FOREST, GA, 30297","Match","Non_Exact","4385 ROCK VALLEY DR, FOREST PARK, GA, 30297",638608880,"L"
631602,"4385 S 116TH STREET","GREENFIELD","WI",53228,42.9647304280001,-88.0577007489999,102,"4385 S 116TH STREET, GREENFIELD, WI, 53228","Match","Exact","4385 S 116TH ST, GREENFIELD, WI, 53228",77761703,"L"
631603,"4385 S KIRKMAN RD","ORLANDO","FL",32811,NA,NA,103,"4385 S KIRKMAN RD, ORLANDO, FL, 32811","No_Match",NA,NA,NA,NA
631604,"4385 SEBRING DR","WHITE LAKE","MI",48383,42.679439103,-83.523382574,104,"4385 SEBRING DR, WHITE LAKE, MI, 48383","Match","Non_Exact","4385 SEBRING RD, WHITE LAKE, MI, 48383",69801728,"R"
631605,"4385 SHORELINE DR N","KEIZER","OR",97303,44.9887445420001,-123.037360911,105,"4385 SHORELINE DR N, KEIZER, OR, 97303","Match","Exact","4385 SHORELINE DR N, KEIZER, OR, 97303",156267877,"L"
631606,"4385 TRAKE WAY","ELLENWOOD","GA",30294,NA,NA,106,"4385 TRAKE WAY, ELLENWOOD, GA, 30294","No_Match",NA,NA,NA,NA
631607,"4385 WASHINGTON RD","EVANS","GA",30809,33.5418419860001,-82.1352969279999,107,"4385 WASHINGTON RD, EVANS, GA, 30809","Match","Exact","4385 WASHINGTON RD, EVANS, GA, 30809",641056489,"R"
631608,"4385 WEST MAIN","ERIN","TN",37061,36.317035208,-87.699143325,108,"4385 WEST MAIN, ERIN, TN, 37061","Match","Non_Exact","4385 W MAIN ST, ERIN, TN, 37061",647545761,"L"
631609,"4385 WESTMINISTER","SAINT LOUIS","MO",63108,38.6456493680001,-90.251922725,109,"4385 WESTMINISTER, SAINT LOUIS, MO, 63108","Match","Non_Exact","4385 WESTMINSTER PL, SAINT LOUIS, MO, 63108",107596813,"R"
631610,"43853 17TH STREET EAST","LANCASTER","CA",93535,34.679977846,-118.099099982,110,"43853 17TH STREET EAST, LANCASTER, CA, 93535","Match","Exact","43853 17TH ST E, LANCASTER, CA, 93535",141832266,"L"
631611,"438548 STATE HWY 144","NASHOBA","OK",74558,NA,NA,111,"438548 STATE HWY 144, NASHOBA, OK, 74558","No_Match",NA,NA,NA,NA
631612,"43855 SPRING STREET","LANCASTER","CA",93536,34.679778261,-118.210858777,112,"43855 SPRING STREET, LANCASTER, CA, 93536","Match","Exact","43855 SPRING ST, LANCASTER, CA, 93536",630806618,"R"
631613,"43856 GOSHEN FARM CT","LEESBURG","VA",20176,39.081029034,-77.483335981,113,"43856 GOSHEN FARM CT, LEESBURG, VA, 20176","Match","Exact","43856 GOSHEN FARM CT, LEESBURG, VA, 20176",62356546,"L"
631614,"43858 MERRYOAK WAY","ASHBURN","VA",20147,39.052994707,-77.4831614289999,114,"43858 MERRYOAK WAY, ASHBURN, VA, 20147","Match","Exact","43858 MERRYOAK WAY, ASHBURN, VA, 20147",62336077,"L"
631615,"4386 BUELL RD","HOUSTON","MN",55943,43.784318044,-91.5214845149999,115,"4386 BUELL RD, HOUSTON, MN, 55943","Match","Exact","4386 BUELL RD, HOUSTON, MN, 55943",55793165,"L"
631616,"4386 DOUBLE OAK LANE","RHINELANDER","WI",54501,NA,NA,116,"4386 DOUBLE OAK LANE, RHINELANDER, WI, 54501","No_Match",NA,NA,NA,NA
631617,"4386 INDIAN TRAIL DRIVE","MEMPHIS","FL",38141,NA,NA,117,"4386 INDIAN TRAIL DRIVE, MEMPHIS, FL, 38141","No_Match",NA,NA,NA,NA
631618,"4386 INDIAN TRAIL DRIVE","MEMPHIS","TN",38141,35.0282450550001,-89.852542065,118,"4386 INDIAN TRAIL DRIVE, MEMPHIS, TN, 38141","Match","Exact","4386 INDIAN TRAIL DR, MEMPHIS, TN, 38141",72930514,"L"
631619,"4386 JERDON COURT","LAS VEGAS","NV",89129,36.240049899,-115.307936193,119,"4386 JERDON COURT, LAS VEGAS, NV, 89129","Match","Non_Exact","4386 JERDON, LAS VEGAS, NV, 89129",201905716,"R"
631620,"4386 JIB BOOM CT 2 E","FORT MYERS","FL",33919,26.551678591,-81.9130877539999,120,"4386 JIB BOOM CT 2 E, FORT MYERS, FL, 33919","Match","Exact","4386 JIB BOOM CT, FORT MYERS, FL, 33919",118025409,"L"
631621,"4386 LAIRD CIRCLE","SANTA CLARA","CA",95054,37.4006173490001,-121.948047382,121,"4386 LAIRD CIRCLE, SANTA CLARA, CA, 95054","Match","Exact","4386 LAIRD CIR, SANTA CLARA, CA, 95054",618163072,"R"
631622,"4386 LITTLE IDA BEACH RD NW","ALEXANDRIA","MN",56308,46.016127499,-95.442257202,122,"4386 LITTLE IDA BEACH RD NW, ALEXANDRIA, MN, 56308","Match","Exact","4386 LITTLE IDA BEACH RD NW, ALEXANDRIA, MN, 56308",204657859,"R"
631623,"4386 LITTLE IDA BEACH RD NW","ATEXANDRIA","MN",56308,46.016127499,-95.442257202,123,"4386 LITTLE IDA BEACH RD NW, ATEXANDRIA, MN, 56308","Match","Non_Exact","4386 LITTLE IDA BEACH RD NW, ALEXANDRIA, MN, 56308",204657859,"R"
631624,"4386 MARIVAL WAY","MASON","OH",45040,39.3657874530001,-84.295723901,124,"4386 MARIVAL WAY, MASON, OH, 45040","Match","Non_Exact","4386 MARIVAL, MASON, OH, 45040",159052626,"R"
631625,"4386 MIDDLE DALE AVE","WEST BLOODFIELD","KY",48323,NA,NA,125,"4386 MIDDLE DALE AVE, WEST BLOODFIELD, KY, 48323","No_Match",NA,NA,NA,NA
631626,"4386 MILLSTONE COURT","CHASKA","MN",55318,44.7974702400001,-93.620562268,126,"4386 MILLSTONE COURT, CHASKA, MN, 55318","Match","Exact","4386 MILLSTONE CT, CHASKA, MN, 55318",650245184,"L"
631627,"4386 MILNER RD W","BIRMINGHAM","AL",35242,33.418995174,-86.639670106,127,"4386 MILNER RD W, BIRMINGHAM, AL, 35242","Match","Exact","4386 MILNER RD W, BIRMINGHAM, AL, 35242",221524456,"L"
631628,"4386 MOBLEYS BRIDGE ROAD","GRIMESLAND","NC",27837,35.5654321580001,-77.2236809619999,128,"4386 MOBLEYS BRIDGE ROAD, GRIMESLAND, NC, 27837","Match","Exact","4386 MOBLEYS BRIDGE RD, GRIMESLAND, NC, 27837",638316995,"R"
631629,"4386 MONACO ST","SAN DIEGO","CA",92107,32.723427696,-117.253126928,129,"4386 MONACO ST, SAN DIEGO, CA, 92107","Match","Exact","4386 MONACO ST, SAN DIEGO, CA, 92107",195698746,"R"
631630,"4386 NE 16TH ST","DES MOINES","IA",50317,NA,NA,130,"4386 NE 16TH ST, DES MOINES, IA, 50317","No_Match",NA,NA,NA,NA
631631,"4386 NE 26TH ST","DES MOINES","IA",50317,41.639967879,-93.568730688,131,"4386 NE 26TH ST, DES MOINES, IA, 50317","Match","Exact","4386 NE 26TH ST, DES MOINES, IA, 50317",65788062,"L"
631632,"4386 RITA MAE DRIVE","FAIRFIELD","OH",45014,39.325610839,-84.579017408,132,"4386 RITA MAE DRIVE, FAIRFIELD, OH, 45014","Match","Exact","4386 RITA MAE DR, FAIRFIELD, OH, 45014",604772188,"R"
631633,"4386 ROCKLEDGE CT","DE PERE","WI",54115,44.4216231930001,-87.982318366,133,"4386 ROCKLEDGE CT, DE PERE, WI, 54115","Match","Exact","4386 ROCKLEDGE CT, DE PERE, WI, 54115",148105497,"R"
631634,"4386 S SAN ANGELO LN","FORT MOHAVE","AZ",86426,35.028936124,-114.581344505,134,"4386 S SAN ANGELO LN, FORT MOHAVE, AZ, 86426","Match","Exact","4386 SAN ANGELO LN, FORT MOHAVE, AZ, 86426",190346827,"L"
631635,"4386 SE DANICA CT","MILWAUKIE","OR",97267,45.416579169,-122.618031774,135,"4386 SE DANICA CT, MILWAUKIE, OR, 97267","Match","Exact","4386 DANICA CT, MILWAUKIE, OR, 97267",624586899,"R"
631636,"4386 SHATTALON DR","WINSTON SALEM","NC",27106,36.1491885880001,-80.335010789,136,"4386 SHATTALON DR, WINSTON SALEM, NC, 27106","Match","Exact","4386 SHATTALON DR, WINSTON SALEM, NC, 27106",84600511,"L"
631637,"4386 W OGDEN AVE","CHICAGO","IL",60623,41.847816752,-87.734052785,137,"4386 W OGDEN AVE, CHICAGO, IL, 60623","Match","Exact","4386 W OGDEN AVE, CHICAGO, IL, 60623",111798383,"R"
631638,"4386 WEST OGDEN AVE","CHICAGO","IL",60623,41.8478280570001,-87.734018444,138,"4386 WEST OGDEN AVE, CHICAGO, IL, 60623","Match","Exact","4386 W OGDEN AVE, CHICAGO, IL, 60623",111798383,"R"
631639,"4386 WESTMINSTER LANE","SANTA MARIA","CA",93455,34.876742516,-120.439615727,139,"4386 WESTMINSTER LANE, SANTA MARIA, CA, 93455","Match","Exact","4386 WESTMINSTER LN, SANTA MARIA, CA, 93455",108596821,"L"
631640,"43860 ROBINSON ROAD","LITTLE RIVER","AL",36550,NA,NA,140,"43860 ROBINSON ROAD, LITTLE RIVER, AL, 36550","No_Match",NA,NA,NA,NA
631641,"43864 E 27TH ST","LANCASTER","CA",93535,34.680128585,-118.081324067,141,"43864 E 27TH ST, LANCASTER, CA, 93535","Match","Non_Exact","43864 27TH ST E, LANCASTER, CA, 93535",141833091,"R"
631642,"43864 RIVERPOINT DRIVE","LEESBURG","VA",20176,39.0952693680001,-77.4945492639999,142,"43864 RIVERPOINT DRIVE, LEESBURG, VA, 20176","Match","Exact","43864 RIVERPOINT DR, LEESBURG, VA, 20176",638675598,"L"
631643,"43869 157TH ST","WALLACE","SD",57272,45.1083019430001,-97.434038968,143,"43869 157TH ST, WALLACE, SD, 57272","Match","Exact","43869 157TH ST, WALLACE, SD, 57272",200745903,"L"
631644,"43869 CHURCHILL GLEN DR","CHANTILLY","VA",20170,38.9037855870001,-77.481114991,144,"43869 CHURCHILL GLEN DR, CHANTILLY, VA, 20170","Match","Non_Exact","43869 CHURCHILL GLEN DR, CHANTILLY, VA, 20152",627006287,"R"
631645,"4387 BROADWAY STREET","LAKE WORTH","FL",33461,26.631145825,-80.110762751,145,"4387 BROADWAY STREET, LAKE WORTH, FL, 33461","Match","Exact","4387 BROADWAY ST, LAKE WORTH, FL, 33461",652504769,"R"
631646,"4387 CHERRY HILL DR","W BLOOMFIELD","MI",48323,42.5738984010001,-83.3718788799999,146,"4387 CHERRY HILL DR, W BLOOMFIELD, MI, 48323","Match","Exact","4387 CHERRY HILL DR, W BLOOMFIELD, MI, 48323",69721879,"R"
631647,"4387 FOXHOUND","MEMPHIS","TN",38141,35.02882164,-89.831992326,147,"4387 FOXHOUND, MEMPHIS, TN, 38141","Match","Non_Exact","4387 FOX HOUND, MEMPHIS, TN, 38141",72930745,"R"
631648,"4387 HAMILTON D","EAGAN","MN",55123,44.7978440960001,-93.1338457849999,148,"4387 HAMILTON D, EAGAN, MN, 55123","Match","Non_Exact","4387 HAMILTON DR, EAGAN, MN, 55123",37934969,"L"
631649,"4387 HAMILTON DR","EAGAN","MN",55123,44.7978440960001,-93.1338457849999,149,"4387 HAMILTON DR, EAGAN, MN, 55123","Match","Exact","4387 HAMILTON DR, EAGAN, MN, 55123",37934969,"L"
631650,"4387 LACLEDE AVENUE","ST. LOUIS","MO",63108,38.6387723240001,-90.254627725,150,"4387 LACLEDE AVENUE, ST. LOUIS, MO, 63108","Match","Exact","4387 LACLEDE AVE, SAINT LOUIS, MO, 63108",638702835,"R"
631651,"4387 LEEWOOD RD","STOW","OH",44224,41.1768568580001,-81.445833238,151,"4387 LEEWOOD RD, STOW, OH, 44224","Match","Exact","4387 LEEWOOD RD, STOW, OH, 44224",61370387,"R"
631652,"4387 LINCOLN AVE","ROLLING MEADOWS","IL",60008,42.091319281,-88.0377063669999,152,"4387 LINCOLN AVE, ROLLING MEADOWS, IL, 60008","Match","Exact","4387 LINCOLN AVE, ROLLING MDWS, IL, 60008",111696344,"L"
631653,"4387 N FENWAY CIRCLE","URDA","UT",84074,40.6081547690001,-112.31734303,153,"4387 N FENWAY CIRCLE, URDA, UT, 84074","Match","Non_Exact","4387 N FENWAY CIR, ERDA, UT, 84074",644979366,"L"
631654,"4387 RICHWOOD PLACE","MEMPHIS","TN",38125,35.028835563,-89.8133945179999,154,"4387 RICHWOOD PLACE, MEMPHIS, TN, 38125","Match","Exact","4387 RICHWOOD PL, MEMPHIS, TN, 38125",646707314,"L"
631655,"4387 STATE HIGHWAY 30A","FULTONVILLE","NY",12072,NA,NA,155,"4387 STATE HIGHWAY 30A, FULTONVILLE, NY, 12072","No_Match",NA,NA,NA,NA
631656,"4387 TOLL FREE RD","ATLANTA","GA",30311,NA,NA,156,"4387 TOLL FREE RD, ATLANTA, GA, 30311","No_Match",NA,NA,NA,NA
631657,"4387 UNION AVE","NETTLETON","MS",38858,34.1004311300001,-88.622380568,157,"4387 UNION AVE, NETTLETON, MS, 38858","Match","Exact","4387 UNION AVE, NETTLETON, MS, 38858",611051217,"L"
631658,"4387 W SWAMP RD 201","DOYLESTOWN","PA",18902,40.3302933320001,-75.132951659,158,"4387 W SWAMP RD 201, DOYLESTOWN, PA, 18902","Match","Non_Exact","4387 W SWAMP RD, DOYLESTOWN, PA, 18902",633341437,"L"
631659,"4387 WASHINGTON RD","LAKEVIEW","MI",48850,43.474097521,-85.172438729,159,"4387 WASHINGTON RD, LAKEVIEW, MI, 48850","Match","Exact","4387 WASHINGTON RD, LAKEVIEW, MI, 48850",110520712,"L"
631660,"4387 WEST ELK MEADOWS","WEST JORDAN","UT",84088,NA,NA,160,"4387 WEST ELK MEADOWS, WEST JORDAN, UT, 84088","No_Match",NA,NA,NA,NA
631661,"43870 CAMELLIA STREET","ASHBURN","VA",20147,39.05794152,-77.482373878,161,"43870 CAMELLIA STREET, ASHBURN, VA, 20147","Match","Exact","43870 CAMELLIA ST, ASHBURN, VA, 20147",635117206,"L"
631662,"43870 LABURNUM SQUARE","ASHBURN","VA",20147,39.0323696180001,-77.4867839349999,162,"43870 LABURNUM SQUARE, ASHBURN, VA, 20147","Match","Exact","43870 LABURNUM SQ, ASHBURN, VA, 20147",62332558,"R"
631663,"43870 MARIGOLD DRIVE","PALM DESERT","CA",92260,33.7296424200001,-116.372161128,163,"43870 MARIGOLD DRIVE, PALM DESERT, CA, 92260","Match","Exact","43870 MARIGOLD DR, PALM DESERT, CA, 92260",194815414,"L"
631664,"43872 ASHLAWN CT","ASHBURN","VA",20147,39.061835869,-77.483080651,164,"43872 ASHLAWN CT, ASHBURN, VA, 20147","Match","Exact","43872 ASHLAWN CT, ASHBURN, VA, 20147",625122135,"L"
631665,"438732 NORTHSHORE DRIVE","LAKE CITY","SD",57270,NA,NA,165,"438732 NORTHSHORE DRIVE, LAKE CITY, SD, 57270","No_Match",NA,NA,NA,NA
631666,"43874 143 ST","WEBSTER","SD",57274,NA,NA,166,"43874 143 ST, WEBSTER, SD, 57274","No_Match",NA,NA,NA,NA
631667,"43874 CAMELLIA ST","ASHBURN","VA",20147,39.057903272,-77.482294832,167,"43874 CAMELLIA ST, ASHBURN, VA, 20147","Match","Exact","43874 CAMELLIA ST, ASHBURN, VA, 20147",635117206,"L"
631668,"43875 WASHINGTON STREET STE G","PALM DESERT","CA",92211,33.7294801690001,-116.303887882,168,"43875 WASHINGTON STREET STE G, PALM DESERT, CA, 92211","Match","Exact","43875 WASHINGTON ST, PALM DESERT, CA, 92211",195045876,"R"
631669,"43875 WASHINGTON STREET","PALM DESERT","CA",92211,33.7294801690001,-116.303887882,169,"43875 WASHINGTON STREET, PALM DESERT, CA, 92211","Match","Exact","43875 WASHINGTON ST, PALM DESERT, CA, 92211",195045876,"R"
631670,"43875 WHEELER RD","BAY MINETTE","AL",36507,30.8647723880001,-87.799408102,170,"43875 WHEELER RD, BAY MINETTE, AL, 36507","Match","Exact","43875 WHEELER RD, BAY MINETTE, AL, 36507",131679146,"R"
631671,"43878 BUTTERNUT DR","TEMECULA","CA",92592,33.494185653,-117.141782577,171,"43878 BUTTERNUT DR, TEMECULA, CA, 92592","Match","Exact","43878 BUTTERNUT DR, TEMECULA, CA, 92592",194824940,"R"
631672,"4388 ALBANY STREET","ALBANY","NY",12205,42.727699762,-73.852786097,172,"4388 ALBANY STREET, ALBANY, NY, 12205","Match","Exact","4388 ALBANY ST, ALBANY, NY, 12205",18326399,"R"
631673,"4388 BLAKEWOOD DR","SHAKOPEE","MN",55379,44.773905616,-93.465029849,173,"4388 BLAKEWOOD DR, SHAKOPEE, MN, 55379","Match","Exact","4388 BLAKEWOOD DR, SHAKOPEE, MN, 55379",606966950,"R"
631674,"4388 BRAEBURN CT","BRIGHTON","MI",48116,42.5320606230001,-83.8643289409999,174,"4388 BRAEBURN CT, BRIGHTON, MI, 48116","Match","Exact","4388 BRAEBURN CT, BRIGHTON, MI, 48116",23555793,"R"
631675,"4388 CLAIREMONT MESA BLVD","SAN DIEGO","CA",92117,32.8343334310001,-117.198332332,175,"4388 CLAIREMONT MESA BLVD, SAN DIEGO, CA, 92117","Match","Exact","4388 CLAIREMONT MESA BLVD, SAN DIEGO, CA, 92117",195302651,"L"
631676,"4388 DELTA ST SUITE 3","SAN DIEGO","CA",92113,32.6889394400001,-117.100073386,176,"4388 DELTA ST SUITE 3, SAN DIEGO, CA, 92113","Match","Exact","4388 DELTA ST, SAN DIEGO, CA, 92113",195349555,"L"
631677,"4388 DELTA STREET SUITE 3","SAN DIEGO","CA",92113,32.6889394400001,-117.100073386,177,"4388 DELTA STREET SUITE 3, SAN DIEGO, CA, 92113","Match","Exact","4388 DELTA ST, SAN DIEGO, CA, 92113",195349555,"L"
631678,"4388 E SUNRISE DR","PHONEX","AZ",85044,33.3537804700001,-111.989493147,178,"4388 E SUNRISE DR, PHONEX, AZ, 85044","Match","Non_Exact","4388 E SUNRISE DR, PHOENIX, AZ, 85044",128235958,"R"
631679,"4388 EL CAMINO REAL UNIT 139","LOS ALTOS","CA",94022,37.4040612160001,-122.1176367,179,"4388 EL CAMINO REAL UNIT 139, LOS ALTOS, CA, 94022","Match","Exact","4388 EL CAMINO REAL, LOS ALTOS, CA, 94022",614027652,"R"
631680,"4388 HIGHPOINT BLVD","PRICHARD","AL",36613,30.749264317,-88.1610220219999,180,"4388 HIGHPOINT BLVD, PRICHARD, AL, 36613","Match","Exact","4388 HIGHPOINT BLVD, PRICHARD, AL, 36613",61848108,"R"
631681,"4388 IVY GLENN WAY","SMYRNA","GA",30082,33.8443561870001,-84.505059235,181,"4388 IVY GLENN WAY, SMYRNA, GA, 30082","Match","Non_Exact","4388 IVY GLEN WAY, SMYRNA, GA, 30082",17201587,"R"
631682,"4388 JARVIS RD","HILLSBORO","MO",63050,38.272545205,-90.513999733,182,"4388 JARVIS RD, HILLSBORO, MO, 63050","Match","Exact","4388 JARVIS RD, HILLSBORO, MO, 63050",607918247,"R"
631683,"4388 LAKE SHORE DRIVE APT A","WACO","TX",76710,31.559929192,-97.1971423959999,183,"4388 LAKE SHORE DRIVE APT A, WACO, TX, 76710","Match","Exact","4388 LAKE SHORE DR, WACO, TX, 76710",146732742,"L"
631684,"4388 LAWNWOOD COURT","LAS VEGAS","NV",89103,NA,NA,184,"4388 LAWNWOOD COURT, LAS VEGAS, NV, 89103","No_Match",NA,NA,NA,NA
631685,"4388 LAWRENCEVILLE HIGHWAY","TUCKER","GA",30084,33.8571581940001,-84.2068923909999,185,"4388 LAWRENCEVILLE HIGHWAY, TUCKER, GA, 30084","Match","Exact","4388 LAWRENCEVILLE HWY, TUCKER, GA, 30084",619386055,"L"
631686,"4388 NEEDLEGRASS DRIVE","FOLSOM","CA",95630,38.6294390670001,-121.112017568,186,"4388 NEEDLEGRASS DRIVE, FOLSOM, CA, 95630","Match","Exact","4388 NEEDLEGRASS DR, FOLSOM, CA, 95630",652029450,"L"
631687,"4388 SHAMROCK DR","ATLANTA","GA",30349,33.6336355940001,-84.5996528319999,187,"4388 SHAMROCK DR, ATLANTA, GA, 30349","Match","Exact","4388 SHAMROCK DR, ATLANTA, GA, 30349",643406365,"R"
631688,"4388 SNAPFINGER LAKE DR","DECATUR","GA",30034,33.694982951,-84.207396923,188,"4388 SNAPFINGER LAKE DR, DECATUR, GA, 30034","Match","Exact","4388 SNAPFINGER LAKE DR, DECATUR, GA, 30034",23382237,"R"
631689,"4388 SNAPFINGER LAKE DRIVE","DECATUR","GA",30034,33.694982951,-84.207396923,189,"4388 SNAPFINGER LAKE DRIVE, DECATUR, GA, 30034","Match","Exact","4388 SNAPFINGER LAKE DR, DECATUR, GA, 30034",23382237,"R"
631690,"4388 STONE GATE WAY","EAST POINT","GA",30344,33.6404755570001,-84.492590037,190,"4388 STONE GATE WAY, EAST POINT, GA, 30344","Match","Exact","4388 STONE GATE WAY, EAST POINT, GA, 30344",609938448,"L"
631691,"4388 TAFT CT","WOODBRIDGE","VA",22193,38.6261356810001,-77.342018174,191,"4388 TAFT CT, WOODBRIDGE, VA, 22193","Match","Exact","4388 TAFT CT, WOODBRIDGE, VA, 22193",76524501,"L"
631692,"43882 330TH ST","JEFFERS","MN",56145,44.0068949970001,-95.2016326729999,192,"43882 330TH ST, JEFFERS, MN, 56145","Match","Exact","43882 330TH ST, JEFFERS, MN, 56145",608388346,"L"
631693,"43885 LARINO CT","TEMECULA","CA",92592,33.489167369,-117.093442126,193,"43885 LARINO CT, TEMECULA, CA, 92592","Match","Exact","43885 LARINO CT, TEMECULA, CA, 92592",194869033,"L"
631694,"43887 CENTERGATE DRIVE","ASHBURN",NA,20148,38.998651362,-77.4840615269999,194,"43887 CENTERGATE DRIVE, ASHBURN, , 20148","Match","Exact","43887 CENTERGATE DR, ASHBURN, VA, 20148",645697718,"L"
631695,"4389 123RD STREET","PLEASANT PRAIRIE","WI",53158,42.499269983,-87.8580063909999,195,"4389 123RD STREET, PLEASANT PRAIRIE, WI, 53158","Match","Exact","4389 123RD ST, PLEASANT PRAIRIE, WI, 53158",79812314,"L"
631696,"4389 CINDY LANE","SYRACUSE","NY",13215,42.983683096,-76.175553136,196,"4389 CINDY LANE, SYRACUSE, NY, 13215","Match","Exact","4389 CINDY LN, SYRACUSE, NY, 13215",46577150,"L"
631697,"4389 CR 110","OXFORD","FL",34484,28.912792671,-82.031130902,197,"4389 CR 110, OXFORD, FL, 34484","Match","Exact","4389 CO RD 110, OXFORD, FL, 34484",618383837,"R"
631698,"4389 HWY 157","JUDSONIA","AR",72081,35.4470594430001,-91.6962944969999,198,"4389 HWY 157, JUDSONIA, AR, 72081","Match","Non_Exact","4389 STATE HWY 157, JUDSONIA, AR, 72081",82938469,"L"
631699,"4389 MALIA ST APT 439","HONOLULU","HI",96821,21.2805010210001,-157.783858448,199,"4389 MALIA ST APT 439, HONOLULU, HI, 96821","Match","Exact","4389 MALIA ST, HONOLULU, HI, 96821",203260737,"R"
631700,"4389 Marlborough Ct","Minnetonka","MN",55345,44.923920439,-93.493895138,200,"4389 Marlborough Ct, Minnetonka, MN, 55345","Match","Exact","4389 MARLBOROUGH CT, MINNETONKA, MN, 55345",43821343,"L"
631701,"4389 MEADOW GROVE","SHOW LOW","AZ",85901,34.2092707100001,-110.071587729,201,"4389 MEADOW GROVE, SHOW LOW, AZ, 85901","Match","Non_Exact","4389 MEADOW GROVE DR, SHOW LOW, AZ, 85901",172579172,"R"
631702,"4389 N SHASTA LOOP","EUGENE","OR",97405,44.0090317630001,-123.06778565,202,"4389 N SHASTA LOOP, EUGENE, OR, 97405","Match","Exact","4389 N SHASTA LOOP, EUGENE, OR, 97405",605401245,"R"
631703,"4389 NW HWY 270","WILBURTON","OK",74578,34.9128882210001,-95.391061067,203,"4389 NW HWY 270, WILBURTON, OK, 74578","Match","Non_Exact","4389 US HWY 270, WILBURTON, OK, 74578",80591272,"L"
631704,"4389 SAHARA DR NW","KENNESAW","GA",30144,34.061155485,-84.588311064,204,"4389 SAHARA DR NW, KENNESAW, GA, 30144","Match","Exact","4389 SAHARA DR NW, KENNESAW, GA, 30144",17214849,"L"
631705,"4389 TROUT DR SE","ST PETERSBURG","FL",33705,27.7292893600001,-82.628054606,205,"4389 TROUT DR SE, ST PETERSBURG, FL, 33705","Match","Exact","4389 TROUT DR SE, SAINT PETERSBURG, FL, 33705",124777585,"R"
631706,"4389 WARD DR","SALEM","OR",97305,44.9827916260001,-122.975067132,206,"4389 WARD DR, SALEM, OR, 97305","Match","Non_Exact","4389 WARD DR NE, SALEM, OR, 97305",156252261,"L"
631707,"4389 WATERVALE ROAD","MANLIUS","NY",13104,42.9842032440001,-75.992387332,207,"4389 WATERVALE ROAD, MANLIUS, NY, 13104","Match","Exact","4389 WATERVALE RD, MANLIUS, NY, 13104",46592963,"R"
631708,"4389","RIGBY","ID",83442,NA,NA,208,"4389, RIGBY, ID, 83442","No_Match",NA,NA,NA,NA
631709,"43897 JOHN MOSBY HIGHWAY","CHANTILLY","VA",20152,38.9154070050001,-77.4840704169999,209,"43897 JOHN MOSBY HIGHWAY, CHANTILLY, VA, 20152","Match","Exact","43897 JOHN MOSBY HWY, CHANTILLY, VA, 20152",627023518,"L"
631710,"43899 W MAGNOLIA RD","MARICOPA","AZ",85138,33.0566038200001,-112.039295557,210,"43899 W MAGNOLIA RD, MARICOPA, AZ, 85138","Match","Exact","43899 MAGNOLIA RD, MARICOPA, AZ, 85138",631817333,"L"
631711,"438A ELWOOD AVE","OAKLAND","CA",94610,37.814572576,-122.247554575,211,"438A ELWOOD AVE, OAKLAND, CA, 94610","Match","Exact","438 ELWOOD AVE, OAKLAND, CA, 94610",125000749,"L"
631712,"438C FAISON COURT","COLUMBIA","SC",29206,NA,NA,212,"438C FAISON COURT, COLUMBIA, SC, 29206","No_Match",NA,NA,NA,NA
631713,"439 1/2 76TH ST","LOS ANGELES","CA",90003,NA,NA,213,"439 1/2 76TH ST, LOS ANGELES, CA, 90003","Tie",NA,NA,NA,NA
631714,"439 1/2 ACACIA RD","SANTA PAULA","CA",93060,34.3388531470001,-119.082727802,214,"439 1/2 ACACIA RD, SANTA PAULA, CA, 93060","Match","Exact","439 ACACIA RD, SANTA PAULA, CA, 93060",110015414,"R"
631715,"439 17TH ST","SANTA MONICA","CA",90402,34.0382371110001,-118.496677174,215,"439 17TH ST, SANTA MONICA, CA, 90402","Match","Exact","439 17TH ST, SANTA MONICA, CA, 90402",141558939,"L"
631716,"439 42ND ST","COPIAGUE","NY",11726,40.697144322,-73.396384417,216,"439 42ND ST, COPIAGUE, NY, 11726","Match","Exact","439 42ND ST, COPIAGUE, NY, 11726",114232701,"L"
631717,"439 42ND STREET","BROOKLYN","NY",11232,40.650404129,-74.0069940769999,217,"439 42ND STREET, BROOKLYN, NY, 11232","Match","Exact","439 42ND ST, BROOKLYN, NY, 11232",59094745,"L"
631718,"439 ALONZO COURT","LAS VEGAS","NV",89123,36.0314233490001,-115.15363148,218,"439 ALONZO COURT, LAS VEGAS, NV, 89123","Match","Exact","439 ALONZO CT, LAS VEGAS, NV, 89123",201902730,"R"
631719,"439 ANGELL ROAD","NORTH PROVIDENCE","RI",2904,41.873668949,-71.448313879,219,"439 ANGELL ROAD, NORTH PROVIDENCE, RI, 2904","Match","Exact","439 ANGELL RD, N PROVIDENCE, RI, 02904",47479013,"R"
631720,"439 APOLLO ST","SIDNEY","OH",45365,40.314736044,-84.15190468,220,"439 APOLLO ST, SIDNEY, OH, 45365","Match","Exact","439 APOLLO ST, SIDNEY, OH, 45365",52219706,"R"
631721,"439 APPLEWOOD DRIVE","LODI","CA",95242,38.1401468450001,-121.315446927,221,"439 APPLEWOOD DRIVE, LODI, CA, 95242","Match","Exact","439 APPLEWOOD DR, LODI, CA, 95242",649671590,"L"
631722,"439 ASHFORD STREET FIRST FL","BROOKLYN","NY",11207,40.6713949800001,-73.884477051,222,"439 ASHFORD STREET FIRST FL, BROOKLYN, NY, 11207","Match","Exact","439 ASHFORD ST, BROOKLYN, NY, 11207",59085135,"L"
631723,"439 AUSTRALIAN CR","LAKE PARK","FL",33403,26.8023310630001,-80.062166761,223,"439 AUSTRALIAN CR, LAKE PARK, FL, 33403","Match","Exact","439 AUSTRALIAN CIR, LAKE PARK, FL, 33403",115527657,"R"
631724,"439 AVON AVENUE","CHARLOTTE","NC",28166,35.6962733840001,-80.898612058,224,"439 AVON AVENUE, CHARLOTTE, NC, 28166","Match","Non_Exact","439 AVON AVE, TROUTMAN, NC, 28166",45989016,"R"
631725,"439 AVON AVENUE","TROUTMAN","NC",28166,35.6962733840001,-80.898612058,225,"439 AVON AVENUE, TROUTMAN, NC, 28166","Match","Exact","439 AVON AVE, TROUTMAN, NC, 28166",45989016,"R"
631726,"439 AVONDALE DR","EAST YAPHANK","NY",11967,40.835623049,-72.877913448,226,"439 AVONDALE DR, EAST YAPHANK, NY, 11967","Match","Exact","439 AVONDALE DR, E YAPHANK, NY, 11967",114018439,"R"
631727,"439 B52 BLVD","KINDRED","ND",58051,46.645162606,-97.005605244,227,"439 B52 BLVD, KINDRED, ND, 58051","Match","Non_Exact","439 B52 BLVD E, KINDRED, ND, 58051",637400857,"R"
631728,"439 BAUNEG BEG HILL RD","NORTH BERWICK","ME",3906,43.396241752,-70.7940683909999,228,"439 BAUNEG BEG HILL RD, NORTH BERWICK, ME, 3906","Match","Exact","439 BAUNEG BEG HILL RD, NORTH BERWICK, ME, 03906",92738406,"L"
631729,"439 BEDFORD STREET","LEXINGTON","MA",2420,42.473836922,-71.248347324,229,"439 BEDFORD STREET, LEXINGTON, MA, 2420","Match","Exact","439 BEDFORD ST, LEXINGTON, MA, 02420",87156286,"R"
631730,"439 BEECH ST","LOS ANGELES","CA",90065,34.0909815000001,-118.217603131,230,"439 BEECH ST, LOS ANGELES, CA, 90065","Match","Exact","439 BEECH ST, LOS ANGELES, CA, 90065",141621628,"R"
631731,"439 BERKSHIRE PLACE","FAIRBURN","GA",30213,33.6263805880001,-84.611048089,231,"439 BERKSHIRE PLACE, FAIRBURN, GA, 30213","Match","Exact","439 BERKSHIRE PL, FAIRBURN, GA, 30213",625747616,"R"
631732,"439 BERKSHIRE RD","RIDGEWOOD","NJ",7450,40.9626201680001,-74.100477022,232,"439 BERKSHIRE RD, RIDGEWOOD, NJ, 7450","Match","Exact","439 BERKSHIRE RD, RIDGEWOOD, NJ, 07450",64377232,"R"
631733,"439 BOULDIN STREET","BALTIMORE","MD",21224,NA,NA,233,"439 BOULDIN STREET, BALTIMORE, MD, 21224","Tie",NA,NA,NA,NA
631734,"439 BOYNTON AVE","BERKELEY","CA",94707,37.9025854500001,-122.275732088,234,"439 BOYNTON AVE, BERKELEY, CA, 94707","Match","Exact","439 BOYNTON AVE, BERKELEY, CA, 94707",606078772,"L"
631735,"439 BROADWAY","NEWPORT","RI",2840,41.5023360070001,-71.3042224279999,235,"439 BROADWAY, NEWPORT, RI, 2840","Match","Exact","439 BROADWAY, NEWPORT, RI, 02840",47347117,"R"
631736,"439 BUCK ROAD","COLDWATER","MI",49036,41.8492266040001,-85.0586113849999,236,"439 BUCK ROAD, COLDWATER, MI, 49036","Match","Exact","439 BUCK RD, COLDWATER, MI, 49036",8213573,"R"
631737,"439 BURNS FARM RD","GRAFTON","WV",26354,39.3954014500001,-80.015468896,237,"439 BURNS FARM RD, GRAFTON, WV, 26354","Match","Exact","439 BURNS FARM RD, GRAFTON, WV, 26354",607282484,"L"
631738,"439 CALIGULA AVE","CORAL GABLES","FL",33146,25.7134240140001,-80.2620670379999,238,"439 CALIGULA AVE, CORAL GABLES, FL, 33146","Match","Exact","439 CALIGULA AVE, CORAL GABLES, FL, 33146",116014026,"R"
631739,"439 CARLOTTA DR","YOUNGSTOWN","OH",44504,41.130438767,-80.6572896819999,239,"439 CARLOTTA DR, YOUNGSTOWN, OH, 44504","Match","Exact","439 CARLOTTA DR, YOUNGSTOWN, OH, 44504",64593908,"L"
631740,"439 CARLOTTA DRIVE","YOUNGSTOWN","OH",44504,41.130438767,-80.6572896819999,240,"439 CARLOTTA DRIVE, YOUNGSTOWN, OH, 44504","Match","Exact","439 CARLOTTA DR, YOUNGSTOWN, OH, 44504",64593908,"L"
631741,"439 CASTLE WOOD DR","WHEATON","IL",60189,NA,NA,241,"439 CASTLE WOOD DR, WHEATON, IL, 60189","No_Match",NA,NA,NA,NA
631742,"439 CLOVER STREET","ELKHORN","WI",53121,42.6907268190001,-88.537297743,242,"439 CLOVER STREET, ELKHORN, WI, 53121","Match","Exact","439 CLOVER ST, ELKHORN, WI, 53121",607317628,"R"
631743,"439 COCONUT PALM WAY","DAVENPORT","FL",33897,28.334459322,-81.675982456,243,"439 COCONUT PALM WAY, DAVENPORT, FL, 33897","Match","Exact","439 COCONUT PALM WAY, DAVENPORT, FL, 33897",618498163,"L"
631744,"439 COLUSA AVENUE","EL CERRITO","CA",94530,37.905877079,-122.292167348,244,"439 COLUSA AVENUE, EL CERRITO, CA, 94530","Match","Exact","439 COLUSA AVE, EL CERRITO, CA, 94530",646602815,"L"
631745,"439 COOLEDGE STREET","OLD JEFFERSON","LA",70121,29.965072821,-90.141825529,245,"439 COOLEDGE STREET, OLD JEFFERSON, LA, 70121","Match","Non_Exact","439 COOLIDGE ST, JEFFERSON, LA, 70121",639852640,"R"
631746,"439 COUNTY ROAD 430","HILLSBORO","AL",35643,34.6096877580001,-87.16445853,246,"439 COUNTY ROAD 430, HILLSBORO, AL, 35643","Match","Exact","439 CO RD 430, HILLSBORO, AL, 35643",41389756,"L"
631747,"439 COUNTY ROAD 900 N","KEENES","IL",62851,38.3877971270001,-88.619979757,247,"439 COUNTY ROAD 900 N, KEENES, IL, 62851","Match","Exact","439 CO RD 900 N, KEENES, IL, 62851",39171539,"L"
631748,"439 CRESCENT ROAD","WYNCOTE","PA",19095,40.0923232330001,-75.148213095,248,"439 CRESCENT ROAD, WYNCOTE, PA, 19095","Match","Exact","439 CRESCENT RD, WYNCOTE, PA, 19095",135106310,"R"
631749,"439 CYPRESS","COLTON","CA",92324,NA,NA,249,"439 CYPRESS, COLTON, CA, 92324","No_Match",NA,NA,NA,NA
631750,"439 DARTMOUTH DR NE","ALBUQUERQUE","NM",87106,35.085118202,-106.612031423,250,"439 DARTMOUTH DR NE, ALBUQUERQUE, NM, 87106","Match","Exact","439 DARTMOUTH DR NE, ALBUQUERQUE, NM, 87106",206709973,"L"
631751,"439 DEERFIELD DRIVE","NORTH TONAWANDA","NY",14120,43.062111997,-78.8624587369999,251,"439 DEERFIELD DRIVE, NORTH TONAWANDA, NY, 14120","Match","Exact","439 DEERFIELD DR, N TONAWANDA, NY, 14120",48688684,"R"
631752,"439 DEL MEDIO AVE  APT 21","MOUNTAIN VIEW","CA",94040,37.4060290910001,-122.114379371,252,"439 DEL MEDIO AVE  APT 21, MOUNTAIN VIEW, CA, 94040","Match","Non_Exact","439 DEL MEDIO AVE, MOUNTAIN VIEW, CA, 94040",614028619,"L"
631753,"439 DIAMOND BRANCH RD","JOHNSONVILLE","SC",29555,33.8188830080001,-79.459872579,253,"439 DIAMOND BRANCH RD, JOHNSONVILLE, SC, 29555","Match","Exact","439 DIAMOND BRANCH RD, JOHNSONVILLE, SC, 29555",28874222,"L"
631754,"439 DOLLAR MILL ROAD","ATLANTA","GA",30331,33.7424607630001,-84.5259464769999,254,"439 DOLLAR MILL ROAD, ATLANTA, GA, 30331","Match","Non_Exact","439 DOLLAR MILL RD SW, ATLANTA, GA, 30331",17336534,"R"
631755,"439 E 43RD ST","BROOKLYN","NY",11203,40.644325925,-73.936374658,255,"439 E 43RD ST, BROOKLYN, NY, 11203","Match","Exact","439 E 43RD ST, BROOKLYN, NY, 11203",59081931,"L"
631756,"439 E ABERDEEN","INDEPENDENCE","MO",64055,39.075358538,-94.4092680809999,256,"439 E ABERDEEN, INDEPENDENCE, MO, 64055","Match","Non_Exact","439 ABERDEEN AVE, INDEPENDENCE, MO, 64055",91469485,"R"
631757,"439 E CUSSETA ST","DADEVILLE","AL",35010,32.8314870290001,-85.7584970139999,257,"439 E CUSSETA ST, DADEVILLE, AL, 35010","Match","Non_Exact","439 E CUSSETA ST, DADEVILLE, AL, 36853",1667577,"L"
631758,"439 E FOUNTAIN PLACE","MANITOU SPRINGS","CO",80829,38.857014957,-104.906862196,258,"439 E FOUNTAIN PLACE, MANITOU SPRINGS, CO, 80829","Match","Exact","439 E FOUNTAIN PL, MANITOU SPRINGS, CO, 80829",105506499,"L"
631759,"439 E PATTISON AVE","KENTON","OH",43326,40.6595268190001,-83.60334591,259,"439 E PATTISON AVE, KENTON, OH, 43326","Match","Exact","439 E PATTISON AVE, KENTON, OH, 43326",649421097,"R"
631760,"439 EAST 3RD STREET","BROOKLYN","NY",11218,40.641079076,-73.976958558,260,"439 EAST 3RD STREET, BROOKLYN, NY, 11218","Match","Exact","439 E 3RD ST, BROOKLYN, NY, 11218",59080520,"L"
631761,"439 EAST 7TH STREET","PORTLAND","IN",47371,40.425157432,-84.972485849,261,"439 EAST 7TH STREET, PORTLAND, IN, 47371","Match","Exact","439 E SEVENTH ST, PORTLAND, IN, 47371",45046661,"R"
631762,"439 EAST LEAH DAY COVE","DRAPER","UT",84020,40.4892964140001,-111.878626234,262,"439 EAST LEAH DAY COVE, DRAPER, UT, 84020","Match","Exact","439 E LEAH DAY COVE, DRAPER, UT, 84020",176131984,"L"
631763,"439 EAST LOWMAN ST","MULLINS","SC",29574,34.2027066860001,-79.243247593,263,"439 EAST LOWMAN ST, MULLINS, SC, 29574","Match","Exact","439 E LOWMAN ST, MULLINS, SC, 29574",28776794,"R"
631764,"439 EAST RANDOLPH ST","LEWISBURG","WV",24901,37.801649426,-80.4432790769999,264,"439 EAST RANDOLPH ST, LEWISBURG, WV, 24901","Match","Exact","439 E RANDOLPH ST, LEWISBURG, WV, 24901",74724714,"R"
631765,"439 EASTERN AVE","INDIANAPOLIS","IN",46201,39.773564767,-86.117657362,265,"439 EASTERN AVE, INDIANAPOLIS, IN, 46201","Match","Non_Exact","439 N EASTERN AVE, INDIANAPOLIS, IN, 46201",108000233,"R"
631766,"439 EDGEWOD DR","HIRAM","GA",30141,33.837871756,-84.809201606,266,"439 EDGEWOD DR, HIRAM, GA, 30141","Match","Non_Exact","439 EDGEWOOD DR, HIRAM, GA, 30141",207985868,"L"
631767,"439 ELDER ST","FAIRBURN","GA",30213,33.577622752,-84.583270018,267,"439 ELDER ST, FAIRBURN, GA, 30213","Match","Exact","439 ELDER ST, FAIRBURN, GA, 30213",17350347,"R"
631768,"439 ELEU PL","KIHEI","HI",96753,NA,NA,268,"439 ELEU PL, KIHEI, HI, 96753","No_Match",NA,NA,NA,NA
631769,"439 FAIRMONT ST","HARVEY","LA",70058,29.909412101,-90.07405972,269,"439 FAIRMONT ST, HARVEY, LA, 70058","Match","Exact","439 FAIRMONT ST, HARVEY, LA, 70058",93506659,"L"
631770,"439 FERNHILL LANE","WEST CHESTER","PA",19380,39.9758275140001,-75.572410502,270,"439 FERNHILL LANE, WEST CHESTER, PA, 19380","Match","Non_Exact","439 FERNHILL RD, WEST CHESTER, PA, 19380",179521092,"R"
631771,"439 FLEMING AVE","ROANOKE","VA",24012,37.310591109,-79.935096029,271,"439 FLEMING AVE, ROANOKE, VA, 24012","Match","Non_Exact","439 FLEMING AVE NE, ROANOKE, VA, 24012",62905100,"R"
631772,"439 FLORIDA COURT","YORK","NE",68467,40.85879219,-97.576192357,272,"439 FLORIDA COURT, YORK, NE, 68467","Match","Exact","439 FLORIDA CT, YORK, NE, 68467",150345846,"L"
631773,"439 FORESIDE ROAD","TOPSHAM","ME",4086,43.928157174,-69.912854738,273,"439 FORESIDE ROAD, TOPSHAM, ME, 4086","Match","Exact","439 FORESIDE RD, TOPSHAM, ME, 04086",608283201,"R"
631774,"439 FOREST AVE","SHREVEPORT","LA",71104,32.479978928,-93.738263122,274,"439 FOREST AVE, SHREVEPORT, LA, 71104","Match","Exact","439 FOREST AVE, SHREVEPORT, LA, 71104",57438190,"L"
631775,"439 FOREST AVENUE","SPARTANBURG","SC",29302,34.9323098,-81.9085813579999,275,"439 FOREST AVENUE, SPARTANBURG, SC, 29302","Match","Exact","439 FOREST AVE, SPARTANBURG, SC, 29302",19471543,"L"
631776,"439 FOURTH ST","HOLLISTER","CA",95023,36.8524986990001,-121.404196988,276,"439 FOURTH ST, HOLLISTER, CA, 95023","Match","Exact","439 4TH ST, HOLLISTER, CA, 95023",125464239,"L"
631777,"439 FOXGLOVE WAY","STAFFORD","VA",22554,38.4448883270001,-77.434653727,277,"439 FOXGLOVE WAY, STAFFORD, VA, 22554","Match","Exact","439 FOXGLOVE WAY, STAFFORD, VA, 22554",651964685,"L"
631778,"439 FREEDOM TRL","SPARTA","TN",38583,35.939676541,-85.4562225769999,278,"439 FREEDOM TRL, SPARTA, TN, 38583","Match","Exact","439 FREEDOM TRL, SPARTA, TN, 38583",34267228,"R"
631779,"439 GARY HILLS DRIVE","CLARKSVILLE","TN",37043,36.5109801500001,-87.314293262,279,"439 GARY HILLS DRIVE, CLARKSVILLE, TN, 37043","Match","Exact","439 GARY HILLS DR, CLARKSVILLE, TN, 37043",31829827,"L"
631780,"439 GEORGIANA DR","MIDDLETOWN","DE",19709,39.538047534,-75.661756177,280,"439 GEORGIANA DR, MIDDLETOWN, DE, 19709","Match","Exact","439 GEORGIANA DR, MIDDLETOWN, DE, 19709",624040836,"R"
631781,"439 GLEN ECHO RD","PHILADELPHIA","PA",19119,40.051837634,-75.1954343089999,281,"439 GLEN ECHO RD, PHILADELPHIA, PA, 19119","Match","Exact","439 GLEN ECHO RD, PHILADELPHIA, PA, 19119",131394411,"R"
631782,"439 GLENBROOK COURT N","OAKDALE","MN",55128,44.9554521760001,-92.978609738,282,"439 GLENBROOK COURT N, OAKDALE, MN, 55128","Match","Exact","439 GLENBROOK CT N, OAKDALE, MN, 55128",97796421,"R"
631783,"439 GORDON AVENUE","CALUMET CITY","IL",60409,41.6237187,-87.5359971829999,283,"439 GORDON AVENUE, CALUMET CITY, IL, 60409","Match","Exact","439 GORDON AVE, CALUMET CITY, IL, 60409",111783291,"L"
631784,"439 GRAND AVE  NO 226","BIG FORK","MT",59911,48.0652447640001,-114.080676824,284,"439 GRAND AVE  NO 226, BIG FORK, MT, 59911","Match","Non_Exact","439 GRAND AVE, BIGFORK, MT, 59911",204094752,"R"
631785,"439 GRAY FORK RD","MANCHESTER","KY",40962,37.1699923300001,-83.836979113,285,"439 GRAY FORK RD, MANCHESTER, KY, 40962","Match","Exact","439 GRAY FORK RD, MANCHESTER, KY, 40962",90841479,"L"
631786,"439 GUINESS PLACE","ROCK HILL","SC",29730,34.9314097720001,-81.076532594,286,"439 GUINESS PLACE, ROCK HILL, SC, 29730","Match","Exact","439 GUINESS PL, ROCK HILL, SC, 29730",19837785,"L"
631787,"439 H ST","SALIDA","CO",81201,38.534732772,-105.99671223,287,"439 H ST, SALIDA, CO, 81201","Match","Exact","439 H ST, SALIDA, CO, 81201",108244535,"R"
631788,"439 HAMILTON PKWY","EASLEY","SC",29607,34.7967470660001,-82.572768701,288,"439 HAMILTON PKWY, EASLEY, SC, 29607","Match","Non_Exact","439 HAMILTON PKWY, EASLEY, SC, 29642",26216131,"L"
631789,"439 HANSON BAYOU RD","SARASOTA","FL",34242,27.303881387,-82.554340016,289,"439 HANSON BAYOU RD, SARASOTA, FL, 34242","Match","Exact","439 HANSON BAYOU RD, SARASOTA, FL, 34242",16348222,"L"
631790,"439 HERITAGE DR","LURAY","VA",22835,38.6541661540001,-78.4726653229999,290,"439 HERITAGE DR, LURAY, VA, 22835","Match","Exact","439 HERITAGE DR, LURAY, VA, 22835",624607033,"R"
631791,"439 HIDDEN HOLE DR","LAS VEGAS","NV",89148,36.040169743,-115.292065805,291,"439 HIDDEN HOLE DR, LAS VEGAS, NV, 89148","Match","Exact","439 HIDDEN HOLE DR, LAS VEGAS, NV, 89148",627337219,"L"
631792,"439 HIGHGATE AVE","BUFFALO","NY",14215,42.948155984,-78.811441358,292,"439 HIGHGATE AVE, BUFFALO, NY, 14215","Match","Exact","439 HIGHGATE AVE, BUFFALO, NY, 14215",48296900,"R"
631793,"439 HOLIDAY ROAD","FRANKLIN","GA",30217,33.2336706,-85.104854648,293,"439 HOLIDAY ROAD, FRANKLIN, GA, 30217","Match","Non_Exact","439 HOLLIDAY DR, FRANKLIN, GA, 30217",9408949,"R"
631794,"439 HOLLY STREET","GRAPEVINE","TX",76051,32.9375387750001,-97.086096448,294,"439 HOLLY STREET, GRAPEVINE, TX, 76051","Match","Exact","439 HOLLY ST, GRAPEVINE, TX, 76051",102109896,"R"
631795,"439 HONEYSUCKLE DRIVE","ROCK SPRING","GA",30739,34.834279015,-85.231274878,295,"439 HONEYSUCKLE DRIVE, ROCK SPRING, GA, 30739","Match","Exact","439 HONEYSUCKLE DR, ROCK SPRING, GA, 30739",636331385,"L"
631796,"439 INDIAN AVENUE","PORTSMOUTH","RI",2871,41.5265695250001,-71.2310734869999,296,"439 INDIAN AVENUE, PORTSMOUTH, RI, 2871","Match","Exact","439 INDIAN AVE, PORTSMOUTH, RI, 02871",47361557,"R"
631797,"439 INTERNATIONAL BLVD","OAKLAND","CA",94606,37.796208531,-122.254339037,297,"439 INTERNATIONAL BLVD, OAKLAND, CA, 94606","Match","Exact","439 INTERNATIONAL BLVD, OAKLAND, CA, 94606",125001113,"R"
631798,"439 IRON STREET","EASTON","PA",18042,40.6786907700001,-75.224160904,298,"439 IRON STREET, EASTON, PA, 18042","Match","Exact","439 IRON ST, EASTON, PA, 18042",136883016,"R"
631799,"439 JACKSON STREET","WILD ROSE","WI",54984,44.179935028,-89.245151343,299,"439 JACKSON STREET, WILD ROSE, WI, 54984","Match","Exact","439 JACKSON ST, WILD ROSE, WI, 54984",73476387,"R"
631800,"439 KENNYTOWN ROAD","GREENEVILLE","TN",37745,36.2731852740001,-82.8586708189999,300,"439 KENNYTOWN ROAD, GREENEVILLE, TN, 37745","Match","Non_Exact","439 KENNEYTOWN RD, GREENEVILLE, TN, 37745",611351906,"L"
631801,"439 KEONIANA ST 1205","HONOLULU","HI",96815,21.2853768590001,-157.831879661,301,"439 KEONIANA ST 1205, HONOLULU, HI, 96815","Match","Exact","439 KEONIANA ST, HONOLULU, HI, 96815",203241716,"R"
631802,"439 KNIGHTSWOOD DR","APOPKA","FL",32712,28.7040303630001,-81.516528867,302,"439 KNIGHTSWOOD DR, APOPKA, FL, 32712","Match","Exact","439 KNIGHTSWOOD DR, APOPKA, FL, 32712",94368714,"L"
631803,"439 LAKE ST","EXCELSIOR","MN",55331,44.9039184470001,-93.5646929329999,303,"439 LAKE ST, EXCELSIOR, MN, 55331","Match","Exact","439 LAKE ST, EXCELSIOR, MN, 55331",43820130,"L"
631804,"439 LANCASTER ST","LEOMINSTER","MA",1453,42.5130166490001,-71.74361358,304,"439 LANCASTER ST, LEOMINSTER, MA, 1453","Match","Exact","439 LANCASTER ST, LEOMINSTER, MA, 01453",40030897,"R"
631805,"439 LAWNVIEW AVE","SPRINGFIELD","OH",45505,39.915385545,-83.762368706,305,"439 LAWNVIEW AVE, SPRINGFIELD, OH, 45505","Match","Exact","439 LAWNVIEW AVE, SPRINGFIELD, OH, 45505",135011732,"R"
631806,"439 LESLIE DRIVE","EDGERTON","WI",53534,42.8300316780001,-89.0861445039999,306,"439 LESLIE DRIVE, EDGERTON, WI, 53534","Match","Exact","439 LESLIE DR, EDGERTON, WI, 53534",635626805,"L"
631807,"439 LITTLE LANE","LULING","TX",78648,29.7601196200001,-97.653353297,307,"439 LITTLE LANE, LULING, TX, 78648","Match","Exact","439 LITTLE LN, LULING, TX, 78648",45543331,"R"
631808,"439 LS INGRAM RD","SPARTA","GA",31087,33.2671612830001,-82.9934281869999,308,"439 LS INGRAM RD, SPARTA, GA, 31087","Match","Non_Exact","439 L S INGRAM RD, SPARTA, GA, 31087",648050731,"L"
631809,"439 LYNWOOD AVENUE","HAMILTON","NJ",8629,40.225430933,-74.7276023319999,309,"439 LYNWOOD AVENUE, HAMILTON, NJ, 8629","Match","Exact","439 LYNWOOD AVE, HAMILTON, NJ, 08629",60181356,"R"
631810,"439 MACON STREET","BROOKLYN","NY",11233,40.682883184,-73.934042295,310,"439 MACON STREET, BROOKLYN, NY, 11233","Match","Exact","439 MACON ST, BROOKLYN, NY, 11233",59082770,"L"
631811,"439 MAIN STREET","HARWICH","MA",2645,41.688890234,-70.0973316779999,311,"439 MAIN STREET, HARWICH, MA, 2645","Match","Exact","439 MAIN ST, HARWICH, MA, 02645",121597942,"R"
631812,"439 MAPLE SHADE ROAD","CRANBERRY","PA",16319,41.3441167770001,-79.672190664,312,"439 MAPLE SHADE ROAD, CRANBERRY, PA, 16319","Match","Exact","439 MAPLE SHADE RD, CRANBERRY, PA, 16319",70745523,"L"
631813,"439 MCCOY COVE ROAD","BLACK MOUNTAIN","NC",28711,35.629255228,-82.3031041529999,313,"439 MCCOY COVE ROAD, BLACK MOUNTAIN, NC, 28711","Match","Exact","439 MCCOY COVE RD, BLACK MOUNTAIN, NC, 28711",607726646,"L"
631814,"439 MOCKINGBIRD LANE","SAINT ROSE","LA",70087,29.948477278,-90.3224231139999,314,"439 MOCKINGBIRD LANE, SAINT ROSE, LA, 70087","Match","Exact","439 MOCKINGBIRD LN, SAINT ROSE, LA, 70087",93618562,"R"
631815,"439 MORAN DRIVE","HIGHLAND VILLAGE","TX",75077,33.083972943,-97.0566721449999,315,"439 MORAN DRIVE, HIGHLAND VILLAGE, TX, 75077","Match","Exact","439 MORAN DR, HIGHLAND VILLAGE, TX, 75077",103428800,"R"
631816,"439 MURPHY ROAD","LOUISVILLE","MS",39339,33.1793239290001,-88.9565235699999,316,"439 MURPHY ROAD, LOUISVILLE, MS, 39339","Match","Exact","439 MURPHY RD, LOUISVILLE, MS, 39339",649664627,"R"
631817,"439 N 3RD ST","UPPER SANDUSKY","OH",43351,40.8332063220001,-83.2766449709999,317,"439 N 3RD ST, UPPER SANDUSKY, OH, 43351","Match","Exact","439 N 3RD ST, UPPER SANDUSKY, OH, 43351",13046461,"R"
631818,"439 N 4TH STREET","CHENEY","WA",99004,NA,NA,318,"439 N 4TH STREET, CHENEY, WA, 99004","Tie",NA,NA,NA,NA
631819,"439 N 9TH ST","SUNBURY","PA",17801,40.8647002370001,-76.783225499,319,"439 N 9TH ST, SUNBURY, PA, 17801","Match","Exact","439 N 9TH ST, SUNBURY, PA, 17801",48056673,"L"
631820,"439 N CHICOT STREET","LAKE VILLAGE","AR",71653,33.334140049,-91.283355972,320,"439 N CHICOT STREET, LAKE VILLAGE, AR, 71653","Match","Exact","439 N CHICOT ST, LAKE VILLAGE, AR, 71653",69031885,"L"
631821,"439 N MAIN ST","COLUMBIANA","OH",44408,40.895833748,-80.695266555,321,"439 N MAIN ST, COLUMBIANA, OH, 44408","Match","Exact","439 N MAIN ST, COLUMBIANA, OH, 44408",63657404,"L"
631822,"439 N MAIN ST","ROCKDALE","TX",76567,30.6577261470001,-97.0026458139999,322,"439 N MAIN ST, ROCKDALE, TX, 76567","Match","Exact","439 N MAIN ST, ROCKDALE, TX, 76567",25200325,"L"
631823,"439 N MAIN STREET","NASHVILLE","AR",71852,33.94778589,-93.847029687,323,"439 N MAIN STREET, NASHVILLE, AR, 71852","Match","Exact","439 N MAIN ST, NASHVILLE, AR, 71852",73571787,"L"
631824,"439 N PLATINA DR","DIAMOND BAR","CA",91765,34.0290470310001,-117.805436317,324,"439 N PLATINA DR, DIAMOND BAR, CA, 91765","Match","Exact","439 N PLATINA DR, DIAMOND BAR, CA, 91765",639059495,"L"
631825,"439 N SYCAMORE ST","MARTINSVILLE","IN",46151,39.430895111,-86.426083041,325,"439 N SYCAMORE ST, MARTINSVILLE, IN, 46151","Match","Exact","439 N SYCAMORE ST, MARTINSVILLE, IN, 46151",43563694,"R"
631826,"439 N UPPER ST","LEXINGTON","KY",40508,38.052522197,-84.490268612,326,"439 N UPPER ST, LEXINGTON, KY, 40508","Match","Exact","439 N UPPER ST, LEXINGTON, KY, 40508",31922056,"L"
631827,"439 N WASHINGTON","MOSES LAKE","WA",98837,47.1367079020001,-119.292164614,327,"439 N WASHINGTON, MOSES LAKE, WA, 98837","Match","Non_Exact","439 N WASHINGTON ST, MOSES LAKE, WA, 98837",157090601,"L"
631828,"439 NE ROYAL CT","PORTLAND","OR",97232,45.5258215330001,-122.625962121,328,"439 NE ROYAL CT, PORTLAND, OR, 97232","Match","Exact","439 NE ROYAL CT, PORTLAND, OR, 97232",157507592,"L"
631829,"439 NORTH FRANKLIN STREET","HOLBROOK","MA",2343,42.1673662690001,-71.006778841,329,"439 NORTH FRANKLIN STREET, HOLBROOK, MA, 2343","Match","Exact","439 N FRANKLIN ST, HOLBROOK, MA, 02343",87269311,"L"
631830,"439 NORTH NORTON AVE","LOS ANGELES","CA",90004,34.0792531660001,-118.317046159,330,"439 NORTH NORTON AVE, LOS ANGELES, CA, 90004","Match","Exact","439 N NORTON AVE, LOS ANGELES, CA, 90004",141603043,"L"
631831,"439 NORTH VINE ST","DESHLER","OH",43516,41.2129683810001,-83.903038803,331,"439 NORTH VINE ST, DESHLER, OH, 43516","Match","Exact","439 N VINE ST, DESHLER, OH, 43516",33802293,"L"
631832,"439 NW 46TH ST","MIAMI","FL",33127,25.817660022,-80.203095048,332,"439 NW 46TH ST, MIAMI, FL, 33127","Match","Exact","439 NW 46TH ST, MIAMI, FL, 33127",116007395,"R"
631833,"439 OLIVE AVE","LONG BEACH","CA",90802,33.772426169,-118.18239285,333,"439 OLIVE AVE, LONG BEACH, CA, 90802","Match","Exact","439 OLIVE AVE, LONG BEACH, CA, 90802",141694819,"L"
631834,"439 ORANGE ROAD","MONTCLAIR","NJ",7042,40.789172282,-74.2191553179999,334,"439 ORANGE ROAD, MONTCLAIR, NJ, 7042","Match","Exact","439 ORANGE RD, MONTCLAIR, NJ, 07042",63449843,"L"
631835,"439 ORCHARD HILL DRIVE","PALMYRA","PA",17078,40.318795161,-76.590949541,335,"439 ORCHARD HILL DRIVE, PALMYRA, PA, 17078","Match","Exact","439 ORCHARD HILL DR, PALMYRA, PA, 17078",80686284,"L"
631836,"439 PADDLE DR","CROWLEY","TX",76036,32.573197936,-97.3692212139999,336,"439 PADDLE DR, CROWLEY, TX, 76036","Match","Exact","439 PADDLE DR, CROWLEY, TX, 76036",648208429,"R"
631837,"439 PASADENA AVENUE","YOUNGSTOWN","OH",44507,41.0771199980001,-80.647300475,337,"439 PASADENA AVENUE, YOUNGSTOWN, OH, 44507","Match","Exact","439 PASADENA AVE, YOUNGSTOWN, OH, 44507",64596271,"R"
631838,"439 PAUL ROAD","ROCHESTER","NY",14624,43.1064155280001,-77.719648406,338,"439 PAUL ROAD, ROCHESTER, NY, 14624","Match","Exact","439 PAUL RD, ROCHESTER, NY, 14624",14558680,"L"
631839,"439 PETERS DR","OZARK","AL",36360,31.4320685540001,-85.658250669,339,"439 PETERS DR, OZARK, AL, 36360","Match","Exact","439 PETERS DR, OZARK, AL, 36360",99598288,"L"
631840,"439 PLANTAIN TERRACE","PEACHTREE CITY","GA",30269,33.389752437,-84.601181821,340,"439 PLANTAIN TERRACE, PEACHTREE CITY, GA, 30269","Match","Exact","439 PLANTAIN TER, PEACHTREE CITY, GA, 30269",75945902,"L"
631841,"439 QUEEN MARIE LANE","JACKSON","MS",39209,32.3426744560001,-90.266634428,341,"439 QUEEN MARIE LANE, JACKSON, MS, 39209","Match","Exact","439 QUEEN MARIE LN, JACKSON, MS, 39209",65364202,"L"
631842,"439 RANDOM RD","BALTIMORE","MD",21229,39.2802104830001,-76.699614262,342,"439 RANDOM RD, BALTIMORE, MD, 21229","Match","Exact","439 RANDOM RD, BALTIMORE, MD, 21229",206453110,"L"
631843,"439 RD 164","PINE BLUFFS","WY",82082,41.0699566910001,-104.064236792,343,"439 RD 164, PINE BLUFFS, WY, 82082","Match","Non_Exact","439 CO RD 164, PINE BLUFFS, WY, 82082",160161285,"R"
631844,"439 RIDGE AVENUE","ALLENTOWN","PA",18102,40.6121841720001,-75.460831991,344,"439 RIDGE AVENUE, ALLENTOWN, PA, 18102","Match","Exact","439 RIDGE AVE, ALLENTOWN, PA, 18102",80771465,"R"
631845,"439 RIVERVIEW AVE","SANFORD","FL",32771,28.8194781080001,-81.293986818,345,"439 RIVERVIEW AVE, SANFORD, FL, 32771","Match","Exact","439 RIVERVIEW AVE, SANFORD, FL, 32771",622116998,"R"
631846,"439 ROSEMARY LN","OXFORD","AL",36203,33.591492599,-85.9065682419999,346,"439 ROSEMARY LN, OXFORD, AL, 36203","Match","Exact","439 ROSEMARY LN, OXFORD, AL, 36203",66584188,"R"
631847,"439 RUNNING FOX DR W","COLUMBIA","SC",29223,34.098388845,-80.895311699,347,"439 RUNNING FOX DR W, COLUMBIA, SC, 29223","Match","Non_Exact","439 RUNNING FOX RD W, COLUMBIA, SC, 29223",71852671,"R"
631848,"439 RUNNING FOX ROAD W","COLUMBIA","SC",29223,34.098388845,-80.895311699,348,"439 RUNNING FOX ROAD W, COLUMBIA, SC, 29223","Match","Exact","439 RUNNING FOX RD W, COLUMBIA, SC, 29223",71852671,"R"
631849,"439 RUNNING FOX ROAD WEST","COLUMBIA","SC",29223,34.098388845,-80.895311699,349,"439 RUNNING FOX ROAD WEST, COLUMBIA, SC, 29223","Match","Exact","439 RUNNING FOX RD W, COLUMBIA, SC, 29223",71852671,"R"
631850,"439 S BUNCOMBE RD APT 436","GREER","SC",29650,34.93353984,-82.251968474,350,"439 S BUNCOMBE RD APT 436, GREER, SC, 29650","Match","Non_Exact","439 S BUNCOMBE RD, GREER, SC, 29650",653634705,"L"
631851,"439 S FLORIDA AVENUE","LAKELAND","FL",33801,28.040113956,-81.957183368,351,"439 S FLORIDA AVENUE, LAKELAND, FL, 33801","Match","Exact","439 S FLORIDA AVE, LAKELAND, FL, 33801",104810616,"R"
631852,"439 S FRANKLIN","LA GRANGE","TX",78945,29.903468849,-96.873757601,352,"439 S FRANKLIN, LA GRANGE, TX, 78945","Match","Non_Exact","439 S FRANKLIN ST, LA GRANGE, TX, 78945",41997843,"R"
631853,"439 S MONROE","TALLMADGE","OH",44278,41.0892927780001,-81.44134299,353,"439 S MONROE, TALLMADGE, OH, 44278","Match","Non_Exact","439 SOUTH AVE, TALLMADGE, OH, 44278",613702479,"L"
631854,"439 S SHELBURNE RD","SHELBUURNE","MA",1370,42.5817399850001,-72.651198589,354,"439 S SHELBURNE RD, SHELBUURNE, MA, 1370","Match","Non_Exact","439 S SHELBURNE RD, SHELBURNE FLS, MA, 01370",39927859,"R"
631855,"439 S STUART LN","PALATINE","IL",60067,42.1022500730001,-88.056293404,355,"439 S STUART LN, PALATINE, IL, 60067","Match","Exact","439 STUART LN, PALATINE, IL, 60067",111695962,"L"
631856,"439 S UNION ST UNIT 107","LAWRENCE","MA",1843,42.6915735010001,-71.153338633,356,"439 S UNION ST UNIT 107, LAWRENCE, MA, 1843","Match","Non_Exact","439 S UNION ST, LAWRENCE, MA, 01843",86628974,"R"
631857,"439 SE 39TH TERR","OKEECHOBEE","FL",34974,NA,NA,357,"439 SE 39TH TERR, OKEECHOBEE, FL, 34974","No_Match",NA,NA,NA,NA
631858,"439 SOUTH 1000 EAST","OREM","UT",84097,40.2888335540001,-111.671508831,358,"439 SOUTH 1000 EAST, OREM, UT, 84097","Match","Exact","439 S 1000 E, OREM, UT, 84097",134240566,"R"
631859,"439 SOUTH FLORIDA AVE STE 202","LAKELAND","FL",33806,28.0401202300001,-81.957183422,359,"439 SOUTH FLORIDA AVE STE 202, LAKELAND, FL, 33806","Match","Non_Exact","439 S FLORIDA AVE, LAKELAND, FL, 33801",104810616,"R"
631860,"439 SOUTH RALSTIN ROAD","WICHITA","KS",67209,37.6774361450001,-97.422004418,360,"439 SOUTH RALSTIN ROAD, WICHITA, KS, 67209","Match","Exact","439 S RALSTIN RD, WICHITA, KS, 67209",115706595,"R"
631861,"439 SOUTH SHELBURNE RD","SHELBURNE","MA",1370,42.5817399850001,-72.651198589,361,"439 SOUTH SHELBURNE RD, SHELBURNE, MA, 1370","Match","Non_Exact","439 S SHELBURNE RD, SHELBURNE FLS, MA, 01370",39927859,"R"
631862,"439 SOUTH SHELBURNE ROAD","SHELBURNE","MA",1370,42.5817399850001,-72.651198589,362,"439 SOUTH SHELBURNE ROAD, SHELBURNE, MA, 1370","Match","Non_Exact","439 S SHELBURNE RD, SHELBURNE FLS, MA, 01370",39927859,"R"
631863,"439 SPARROW DR","HERCULES","CA",94547,37.9996693300001,-122.265326627,363,"439 SPARROW DR, HERCULES, CA, 94547","Match","Exact","439 SPARROW DR, HERCULES, CA, 94547",192034397,"L"
631864,"439 SPOONER RD","CHEHALIS","WA",98532,46.635737873,-123.097061979,364,"439 SPOONER RD, CHEHALIS, WA, 98532","Match","Exact","439 SPOONER RD, CHEHALIS, WA, 98532",180739159,"L"
631865,"439 ST  LAWRENCE AVENUE","BRONX","NY",10473,40.81352973,-73.863046691,365,"439 ST  LAWRENCE AVENUE, BRONX, NY, 10473","Match","Exact","439 SAINT LAWRENCE AVE, BRONX, NY, 10473",80305126,"L"
631866,"439 ST LAWRENCE AVENUE","BRONX","NY",10473,40.81352973,-73.863046691,366,"439 ST LAWRENCE AVENUE, BRONX, NY, 10473","Match","Exact","439 SAINT LAWRENCE AVE, BRONX, NY, 10473",80305126,"L"
631867,"439 STATEST","OREM","UT",84058,NA,NA,367,"439 STATEST, OREM, UT, 84058","No_Match",NA,NA,NA,NA
631868,"439 SUMNER DRIVE","SAN ANTONIO","TX",78209,29.48808718,-98.439299762,368,"439 SUMNER DRIVE, SAN ANTONIO, TX, 78209","Match","Exact","439 SUMNER DR, SAN ANTONIO, TX, 78209",101529874,"L"
631869,"439 SUNBURY ST","MINERSVILLE","PA",17954,40.6918905040001,-76.2644961509999,369,"439 SUNBURY ST, MINERSVILLE, PA, 17954","Match","Exact","439 SUNBURY ST, MINERSVILLE, PA, 17954",70942755,"L"
631870,"439 SUNDANCE TRAIL","WEBSTER","NY",14580,43.2339125560001,-77.515291669,370,"439 SUNDANCE TRAIL, WEBSTER, NY, 14580","Match","Exact","439 SUNDANCE TRL, WEBSTER, NY, 14580",14564180,"R"
631871,"439 SUNSET ST","FAIRFIELD","TX",75840,31.7315347530001,-96.1791430649999,371,"439 SUNSET ST, FAIRFIELD, TX, 75840","Match","Non_Exact","439 SUNSET DR, FAIRFIELD, TX, 75840",88976774,"L"
631872,"439 SW CERESCO","BERLIN","WI",54923,43.96651043,-88.960897928,372,"439 SW CERESCO, BERLIN, WI, 54923","Match","Non_Exact","439 SW CERESCO ST, BERLIN, WI, 54923",73447659,"R"
631873,"439 TATE DRIVE","DESOTO","TX",75115,32.5786839260001,-96.865027394,373,"439 TATE DRIVE, DESOTO, TX, 75115","Match","Exact","439 TATE DR, DESOTO, TX, 75115",103186281,"R"
631874,"439 TORRY AVE","BRONX","NY",10473,40.8153956040001,-73.849295415,374,"439 TORRY AVE, BRONX, NY, 10473","Match","Exact","439 TORRY AVE, BRONX, NY, 10473",80306193,"L"
631875,"439 TRACY TERR","DES PLAINES","IL",60016,42.0634099170001,-87.911956544,375,"439 TRACY TERR, DES PLAINES, IL, 60016","Match","Exact","439 TRACY TER, DES PLAINES, IL, 60016",111720752,"R"
631876,"439 UNION ST","BROOKLYN","NY",11231,40.680488203,-73.990924794,376,"439 UNION ST, BROOKLYN, NY, 11231","Match","Exact","439 UNION ST, BROOKLYN, NY, 11231",59075314,"L"
631877,"439 VALENTINE STREET","HIGHLAND PARK","NJ",8904,40.4929606380001,-74.421518103,377,"439 VALENTINE STREET, HIGHLAND PARK, NJ, 8904","Match","Exact","439 VALENTINE ST, HIGHLAND PARK, NJ, 08904",60290364,"L"
631878,"439 VALLEY VIEW DRIVE","POYNETTE","WI",53955,43.3930894170001,-89.409901115,378,"439 VALLEY VIEW DRIVE, POYNETTE, WI, 53955","Match","Exact","439 VALLEY VIEW DR, POYNETTE, WI, 53955",73336660,"R"
631879,"439 VALLEY VIEW DRIVE","STONE MOUNTAIN","GA",30087,33.802868189,-84.0883510149999,379,"439 VALLEY VIEW DRIVE, STONE MOUNTAIN, GA, 30087","Match","Non_Exact","439 VALLEY VIEW DR SW, STONE MOUNTAIN, GA, 30087",88888226,"L"
631880,"439 VALLEY WAY","BRICK","NJ",8723,40.051330287,-74.155750382,380,"439 VALLEY WAY, BRICK, NJ, 8723","Match","Exact","439 VALLEY WAY, BRICK, NJ, 08723",640451028,"L"
631881,"439 VALLEYWOOD CIR","GOLDEN VALLEY","MN",55422,44.9832789500001,-93.352565539,381,"439 VALLEYWOOD CIR, GOLDEN VALLEY, MN, 55422","Match","Exact","439 VALLEYWOOD CIR, GOLDEN VALLEY, MN, 55422",43831865,"L"
631882,"439 VERANO DRIVE","SANTA BARBARA","CA",93110,34.4458578640001,-119.76043627,382,"439 VERANO DRIVE, SANTA BARBARA, CA, 93110","Match","Exact","439 VERANO DR, SANTA BARBARA, CA, 93110",108602849,"L"
631883,"439 VIA DE LEON","PLACENTIA","CA",92870,33.888791412,-117.85852129,383,"439 VIA DE LEON, PLACENTIA, CA, 92870","Match","Exact","439 VIA DE LEON, PLACENTIA, CA, 92870",143995272,"L"
631884,"439 VORALE AVENUE","SIMI VALLEY","CA",93065,34.267712381,-118.788729066,384,"439 VORALE AVENUE, SIMI VALLEY, CA, 93065","Match","Exact","439 VORALE AVE, SIMI VALLEY, CA, 93065",109967877,"L"
631885,"439 VT-114","EAST BURKE","VT",5832,NA,NA,385,"439 VT-114, EAST BURKE, VT, 5832","No_Match",NA,NA,NA,NA
631886,"439 W 105TH ST","LOS ANGELES","CA",90003,33.9410088000001,-118.281385185,386,"439 W 105TH ST, LOS ANGELES, CA, 90003","Match","Exact","439 W 105TH ST, LOS ANGELES, CA, 90003",141661782,"R"
631887,"439 W BALSAM DR","CHANDLER","AZ",85248,33.2577408990001,-111.848397556,387,"439 W BALSAM DR, CHANDLER, AZ, 85248","Match","Exact","439 W BALSAM DR, CHANDLER, AZ, 85248",614558368,"R"
631888,"439 W BROOKWOOD CT","PHONEIX","AZ",85048,33.3032304610001,-112.067280761,388,"439 W BROOKWOOD CT, PHONEIX, AZ, 85048","Match","Non_Exact","439 E BROOKWOOD CT, PHOENIX, AZ, 85048",128374945,"L"
631889,"439 W CARTER","CERRO GORDO","IL",61818,39.891966665,-88.739326297,389,"439 W CARTER, CERRO GORDO, IL, 61818","Match","Non_Exact","439 W CARTER ST, CERRO GORDO, IL, 61818",8549042,"R"
631890,"439 W CHESTNUT ST","COMPTON","IL",61318,41.694742628,-89.0874809319999,390,"439 W CHESTNUT ST, COMPTON, IL, 61318","Match","Exact","439 W CHESTNUT ST, COMPTON, IL, 61318",48755888,"L"
631891,"439 W GRAISBURY AVE","AUDUBON","NJ",8106,39.8878056510001,-75.077270748,391,"439 W GRAISBURY AVE, AUDUBON, NJ, 8106","Match","Exact","439 W GRAISBURY AVE, AUDUBON, NJ, 08106",134350311,"R"
631892,"439 W LAKE AVE NW","ATLANTA","GA",30318,33.7676076720001,-84.440933657,392,"439 W LAKE AVE NW, ATLANTA, GA, 30318","Match","Exact","439 W LAKE AVE NW, ATLANTA, GA, 30318",17340175,"R"
631893,"439 W LINCOLN AVE","MAGANOLIA","NJ",8049,39.855920176,-75.040340686,393,"439 W LINCOLN AVE, MAGANOLIA, NJ, 8049","Match","Non_Exact","439 LINCOLN AVE, MAGNOLIA, NJ, 08049",134356085,"R"
631894,"439 W MAIN STREET","JONESVILLE","NC",28642,36.236929117,-80.846202252,394,"439 W MAIN STREET, JONESVILLE, NC, 28642","Match","Exact","439 W MAIN ST, JONESVILLE, NC, 28642",652563166,"L"
631895,"439 W UNIVERSITY PKWY","JACKSON","TN",38305,35.690452963,-88.8412472809999,395,"439 W UNIVERSITY PKWY, JACKSON, TN, 38305","Match","Exact","439 W UNIVERSITY PKWY, JACKSON, TN, 38305",21327035,"R"
631896,"439 WASHINGTON ST UNIT 2","BRIGHTON","MA",2135,42.3490926750001,-71.157391746,396,"439 WASHINGTON ST UNIT 2, BRIGHTON, MA, 2135","Match","Exact","439 WASHINGTON ST, BRIGHTON, MA, 02135",85694859,"R"
631897,"439 WASHINGTON STREET","LAKE CHARLES","LA",70601,30.1667749980001,-93.22037025,397,"439 WASHINGTON STREET, LAKE CHARLES, LA, 70601","Match","Non_Exact","439 WASHINGTON ST, LAKE CHARLES, LA, 70605",88438522,"L"
631898,"439 WC BRASWELL ROAD","SELMA","NC",27576,35.4920688940001,-78.2287324019999,398,"439 WC BRASWELL ROAD, SELMA, NC, 27576","Match","Exact","439 WC BRASWELL RD, SELMA, NC, 27576",649384227,"R"
631899,"439 WEST 125TH STREET SUITE 6D","NEW YORK","NY",10027,40.812349409,-73.955365941,399,"439 WEST 125TH STREET SUITE 6D, NEW YORK, NY, 10027","Match","Exact","439 W 125TH ST, NEW YORK, NY, 10027",610217408,"R"
631900,"439 WEST ELLET STREET","PHILADELPHIA","PA",19119,40.050401939,-75.195464085,400,"439 WEST ELLET STREET, PHILADELPHIA, PA, 19119","Match","Exact","439 W ELLET ST, PHILADELPHIA, PA, 19119",131394529,"R"
631901,"439 WEST MAIN STREET","ROGERSVILLE","TN",37857,36.4047865900001,-83.011575271,401,"439 WEST MAIN STREET, ROGERSVILLE, TN, 37857","Match","Exact","439 W MAIN ST, ROGERSVILLE, TN, 37857",42393984,"L"
631902,"439 WESTBRIDGE DR","KNOXVILLE","TN",37919,35.9228883590001,-84.0186779639999,402,"439 WESTBRIDGE DR, KNOXVILLE, TN, 37919","Match","Exact","439 WESTBRIDGE DR, KNOXVILLE, TN, 37919",42663938,"L"
631903,"439 WESTWOOD SH CTR PMB 12","FAYETTEVILLE","NC",28314,NA,NA,403,"439 WESTWOOD SH CTR PMB 12, FAYETTEVILLE, NC, 28314","No_Match",NA,NA,NA,NA
631904,"439 WINSPEAR AVE","BUFFALO","NY",14215,42.9489121510001,-78.8099228889999,404,"439 WINSPEAR AVE, BUFFALO, NY, 14215","Match","Exact","439 WINSPEAR AVE, BUFFALO, NY, 14215",646079177,"R"
631905,"439 YAPA DR","SILVERTON","OR",97381,45.000726254,-122.771053989,405,"439 YAPA DR, SILVERTON, OR, 97381","Match","Exact","439 YAPA DR, SILVERTON, OR, 97381",156280796,"L"
631906,"4390 3ND ST","GRINNELL","IA",50112,NA,NA,406,"4390 3ND ST, GRINNELL, IA, 50112","No_Match",NA,NA,NA,NA
631907,"4390 ALBANY DRIVE UNIT 49","SAN JOSE","CA",95129,37.3213284440001,-121.980878538,407,"4390 ALBANY DRIVE UNIT 49, SAN JOSE, CA, 95129","Match","Exact","4390 ALBANY DR, SAN JOSE, CA, 95129",612151773,"L"
631908,"4390 BERNITA ST","WICHITA","KS",67217,37.6156717530001,-97.345791505,408,"4390 BERNITA ST, WICHITA, KS, 67217","Match","Exact","4390 BERNITA ST, WICHITA, KS, 67217",115646197,"L"
631909,"4390 CLEARWATER WAY 909","LEXINGTON","KY",40515,37.9623649260001,-84.4951241429999,409,"4390 CLEARWATER WAY 909, LEXINGTON, KY, 40515","Match","Exact","4390 CLEARWATER WAY, LEXINGTON, KY, 40515",31942131,"R"
631910,"4390 CLEARWATER WAY APT 101","LEXINGTON","KY",40515,37.9623649260001,-84.4951241429999,410,"4390 CLEARWATER WAY APT 101, LEXINGTON, KY, 40515","Match","Exact","4390 CLEARWATER WAY, LEXINGTON, KY, 40515",31942131,"R"
631911,"4390 CLEARWATER WAY APT 601","LEXINGTON","KY",40515,37.9623649260001,-84.4951241429999,411,"4390 CLEARWATER WAY APT 601, LEXINGTON, KY, 40515","Match","Exact","4390 CLEARWATER WAY, LEXINGTON, KY, 40515",31942131,"R"
631912,"4390 COUNTY RD 203","FALLS CITY","TX",78113,NA,NA,412,"4390 COUNTY RD 203, FALLS CITY, TX, 78113","No_Match",NA,NA,NA,NA
631913,"4390 CRESTLINE","ANN ARBOR","MI",48103,42.3408693370001,-83.820144568,413,"4390 CRESTLINE, ANN ARBOR, MI, 48103","Match","Non_Exact","4390 CRESTLINE DR, ANN ARBOR, MI, 48103",26011076,"R"
631914,"4390 E HARVARD AVE","DENVER","CO",80222,39.6707877850001,-104.936384795,414,"4390 E HARVARD AVE, DENVER, CO, 80222","Match","Exact","4390 E HARVARD AVE, DENVER, CO, 80222",177340931,"R"
631915,"4390 E SANTA CLARA DR","SAN TAN VALLEY","AZ",85140,33.1960030010001,-111.520633172,415,"4390 E SANTA CLARA DR, SAN TAN VALLEY, AZ, 85140","Match","Exact","4390 E SANTA CLARA DR, SAN TAN VALLEY, AZ, 85140",129345106,"L"
631916,"4390 EAST CLIFF ROAD","PORT CLINTON","OH",43452,41.5836716330001,-82.850200684,416,"4390 EAST CLIFF ROAD, PORT CLINTON, OH, 43452","Match","Exact","4390 E CLIFF RD, PORT CLINTON, OH, 43452",44062362,"R"
631917,"4390 ISLAND DR  WEST","SAGINAW","MI",48603,43.4718875560001,-84.050587492,417,"4390 ISLAND DR  WEST, SAGINAW, MI, 48603","Match","Exact","4390 ISLAND DR W, SAGINAW, MI, 48603",80242806,"R"
631918,"4390 ISLAND DR WEST","SAGINAW","MI",48603,43.4718875560001,-84.050587492,418,"4390 ISLAND DR WEST, SAGINAW, MI, 48603","Match","Exact","4390 ISLAND DR W, SAGINAW, MI, 48603",80242806,"R"
631919,"4390 ISLAND DRIVE","SAGINAW","MI",48603,43.4718875560001,-84.050587492,419,"4390 ISLAND DRIVE, SAGINAW, MI, 48603","Match","Non_Exact","4390 ISLAND DR W, SAGINAW, MI, 48603",80242806,"R"
631920,"4390 KENSON DRIVE","ALLISON PARK","PA",15101,40.5807525550001,-79.941022572,420,"4390 KENSON DRIVE, ALLISON PARK, PA, 15101","Match","Exact","4390 KENSON DR, ALLISON PARK, PA, 15101",51608941,"R"
631921,"4390 KING ST APT 1013","ALEXANDRIA","VA",22302,38.838474601,-77.1046168029999,421,"4390 KING ST APT 1013, ALEXANDRIA, VA, 22302","Match","Exact","4390 KING ST, ALEXANDRIA, VA, 22302",650111637,"L"
631922,"4390 KING ST UNIT 314","ALEXANDRIA","VA",22302,38.838474601,-77.1046168029999,422,"4390 KING ST UNIT 314, ALEXANDRIA, VA, 22302","Match","Exact","4390 KING ST, ALEXANDRIA, VA, 22302",650111637,"L"
631923,"4390 KING STREET APT 1507","ALEXANDRIA","VA",22302,38.838474601,-77.1046168029999,423,"4390 KING STREET APT 1507, ALEXANDRIA, VA, 22302","Match","Exact","4390 KING ST, ALEXANDRIA, VA, 22302",650111637,"L"
631924,"4390 KINSMAN ROAD","MESOPOTAMIA","OH",44439,NA,NA,424,"4390 KINSMAN ROAD, MESOPOTAMIA, OH, 44439","No_Match",NA,NA,NA,NA
631925,"4390 MAGNOLIA DRIVE","PERRY TOWNSHIP","OH",44081,41.7818798660001,-81.131833398,425,"4390 MAGNOLIA DRIVE, PERRY TOWNSHIP, OH, 44081","Match","Non_Exact","4390 MAGNOLIA DR, PERRY, OH, 44081",137458753,"L"
631926,"4390 MIDWAY ROAD","DULUTH","MN",55810,46.8280897120001,-92.280386305,426,"4390 MIDWAY ROAD, DULUTH, MN, 55810","Match","Non_Exact","4390 MIDWAY RD, DULUTH, MN, 55811",653425134,"L"
631927,"4390 NOWLIN DR SE","SMYRNA","GA",30082,33.8490760620001,-84.5364284469999,427,"4390 NOWLIN DR SE, SMYRNA, GA, 30082","Match","Non_Exact","4390 NOWLIN DR, SMYRNA, GA, 30082",650663984,"R"
631928,"4390 NW 36TH ST APT 204","LAUDERDALE LAKE","FL",33319,26.170828237,-80.208256814,428,"4390 NW 36TH ST APT 204, LAUDERDALE LAKE, FL, 33319","Match","Non_Exact","4390 NW 36TH ST, LAUDERDALE LAKES, FL, 33319",647871509,"R"
631929,"4390 ORANGE BERRY DR","GROVE CITY","OH",43123,39.873051536,-83.108734928,429,"4390 ORANGE BERRY DR, GROVE CITY, OH, 43123","Match","Non_Exact","4390 ORANGEBERRY DR, GROVE CITY, OH, 43123",641100480,"L"
631930,"4390 PASTURE COURT","WINSTON SALEM","NC",27101,36.126739537,-80.184210849,430,"4390 PASTURE COURT, WINSTON SALEM, NC, 27101","Match","Exact","4390 PASTURE CT, WINSTON SALEM, NC, 27101",650210032,"R"
631931,"4390 PATTERSON DRIVE UNIT 293","DIAMOND SPRINGS","CA",95619,38.6841917740001,-120.826115122,431,"4390 PATTERSON DRIVE UNIT 293, DIAMOND SPRINGS, CA, 95619","Match","Exact","4390 PATTERSON DR, DIAMOND SPRINGS, CA, 95619",642594311,"L"
631932,"4390 QUINBY DRIVE","ORCHARD PARK","NY",14127,NA,NA,432,"4390 QUINBY DRIVE, ORCHARD PARK, NY, 14127","No_Match",NA,NA,NA,NA
631933,"4390 RHINEHART LN","AUSTELL","GA",30106,33.851017294,-84.613158643,433,"4390 RHINEHART LN, AUSTELL, GA, 30106","Match","Exact","4390 RHINEHART LN, AUSTELL, GA, 30106",17235440,"L"
631934,"4390 ROAD 23","CONTINENTAL","OH",45831,41.115620629,-84.3046203339999,434,"4390 ROAD 23, CONTINENTAL, OH, 45831","Match","Exact","4390 RD 23, CONTINENTAL, OH, 45831",208942796,"L"
631935,"4390 ROHR RD","LAKE ORION","MI",48359,42.7169124070001,-83.329006802,435,"4390 ROHR RD, LAKE ORION, MI, 48359","Match","Exact","4390 ROHR RD, LAKE ORION, MI, 48359",69837868,"R"
631936,"4390 S RANGEWOOD WAY","MERIDIAN","ID",83642,43.5647361900001,-116.368208201,436,"4390 S RANGEWOOD WAY, MERIDIAN, ID, 83642","Match","Non_Exact","4390 S RANGEWOOD DR, MERIDIAN, ID, 83642",649027956,"R"
631937,"4390 STONE CREST DR","AUSTELL","GA",30106,33.845742466,-84.611801403,437,"4390 STONE CREST DR, AUSTELL, GA, 30106","Match","Non_Exact","4390 STONECREST DR SW, AUSTELL, GA, 30106",650715437,"R"
631938,"4390 SW APPLESEED RD","PORT SAINT LUCIE","FL",34953,27.2136482830001,-80.34267872,438,"4390 SW APPLESEED RD, PORT SAINT LUCIE, FL, 34953","Match","Exact","4390 SW APPLESEED RD, PORT ST LUCIE, FL, 34953",120170992,"R"
631939,"4390 SW PARKVIEW AVE","PORTLAND","OR",97225,45.4885284910001,-122.767204126,439,"4390 SW PARKVIEW AVE, PORTLAND, OR, 97225","Match","Exact","4390 SW PARKVIEW AVE, PORTLAND, OR, 97225",158187557,"L"
631940,"4390 SW PARKVIEW AVENUE","PORTLAND","OR",97225,45.4885284910001,-122.767204126,440,"4390 SW PARKVIEW AVENUE, PORTLAND, OR, 97225","Match","Exact","4390 SW PARKVIEW AVE, PORTLAND, OR, 97225",158187557,"L"
631941,"4390 TIMBERVIEW DR","FORT WORTH","TX",76140,32.623831201,-97.254874903,441,"4390 TIMBERVIEW DR, FORT WORTH, TX, 76140","Match","Exact","4390 TIMBERVIEW DR, FORT WORTH, TX, 76140",101903187,"L"
631942,"4390 TUNBRIDGE HILL RD","CLINTON","IL",61727,NA,NA,442,"4390 TUNBRIDGE HILL RD, CLINTON, IL, 61727","No_Match",NA,NA,NA,NA
631943,"4390 W ARABIAN TRAIL","FLAGSTAFF","AZ",86005,35.1766317660001,-111.710672309,443,"4390 W ARABIAN TRAIL, FLAGSTAFF, AZ, 86005","Match","Exact","4390 W ARABIAN TRL, FLAGSTAFF, AZ, 86005",650444009,"L"
631944,"4390 WELSH LANE APT 13","DALE CITY","VA",22193,38.643411787,-77.3412508659999,444,"4390 WELSH LANE APT 13, DALE CITY, VA, 22193","Match","Exact","4390 WELSH LN, DALE CITY, VA, 22193",76515084,"R"
631945,"4390 WESTGATE PKWY","DOTHAN","AL",36303,31.2712737470001,-85.3808670459999,445,"4390 WESTGATE PKWY, DOTHAN, AL, 36303","Match","Exact","4390 WESTGATE PKWY, DOTHAN, AL, 36303",101239956,"R"
631946,"4390 WHITNEY AVE","HAMDEN","CT",6518,41.4515987360001,-72.909088109,446,"4390 WHITNEY AVE, HAMDEN, CT, 6518","Match","Exact","4390 WHITNEY AVE, HAMDEN, CT, 06518",626221770,"L"
631947,"43902 IVY RUN","ELLENWOOD","GA",30294,NA,NA,447,"43902 IVY RUN, ELLENWOOD, GA, 30294","No_Match",NA,NA,NA,NA
631948,"43905 291ST STREET","MENNO","SD",57045,43.1693311070001,-97.418321949,448,"43905 291ST STREET, MENNO, SD, 57045","Match","Exact","43905 291ST ST, MENNO, SD, 57045",635539205,"R"
631949,"43905 HICKORY CORNER TERRACE","ASHBURN","VA",20147,39.063722979,-77.4827720709999,449,"43905 HICKORY CORNER TERRACE, ASHBURN, VA, 20147","Match","Exact","43905 HICKORY CORNER TER, ASHBURN, VA, 20147",630391542,"L"
631950,"43906 FABRIK AVE","LANCASTER","CA",93536,34.681497343,-118.17813558,450,"43906 FABRIK AVE, LANCASTER, CA, 93536","Match","Exact","43906 FABRIK AVE, LANCASTER, CA, 93536",141522730,"L"
631951,"43908 LOGANWOOD COURT","ASHBURN","VA",20147,39.013265253,-77.4819050259999,451,"43908 LOGANWOOD COURT, ASHBURN, VA, 20147","Match","Exact","43908 LOGANWOOD CT, ASHBURN, VA, 20147",62337077,"R"
631952,"4390B SHAW ST","FORT CAMPBELL","KY",42223,36.670605821,-87.471430733,452,"4390B SHAW ST, FORT CAMPBELL, KY, 42223","Match","Exact","4390 SHAW ST, FORT CAMPBELL, KY, 42223",11274902,"R"
631953,"4391  FAIRVIEW ROAD SUITE 105 A","INDIAN TRAIL","NC",28079,NA,NA,453,"4391  FAIRVIEW ROAD SUITE 105 A, INDIAN TRAIL, NC, 28079","No_Match",NA,NA,NA,NA
631954,"4391 33RD AVE S APT 206","FARGO","ND",58104,46.8298817350001,-96.8594428809999,454,"4391 33RD AVE S APT 206, FARGO, ND, 58104","Match","Exact","4391 33RD AVE S, FARGO, ND, 58104",151462890,"L"
631955,"4391 70TH AV N","PINELLAS PARK","FL",33781,27.8355659760001,-82.693572564,455,"4391 70TH AV N, PINELLAS PARK, FL, 33781","Match","Exact","4391 70TH AVE N, PINELLAS PARK, FL, 33781",124697094,"R"
631956,"4391 ALYSHEBA DRIVE","FARIIBURN","GA",30213,33.635430184,-84.631427206,456,"4391 ALYSHEBA DRIVE, FARIIBURN, GA, 30213","Match","Non_Exact","4391 ALYSHEBA DR, FAIRBURN, GA, 30213",653490829,"R"
631957,"4391 BEECHWOOD PLACE","CRISFIELD","MD",21817,38.003583597,-75.831766607,457,"4391 BEECHWOOD PLACE, CRISFIELD, MD, 21817","Match","Exact","4391 BEECHWOOD PL, CRISFIELD, MD, 21817",209670420,"L"
631958,"4391 BERKSHIRE STREET","DETROIT","MI",48224,42.396194683,-82.941889761,458,"4391 BERKSHIRE STREET, DETROIT, MI, 48224","Match","Exact","4391 BERKSHIRE ST, DETROIT, MI, 48224",95487223,"L"
631959,"4391 BIRCHWOOD DRIVE","LOVELAND","CO",80538,40.4371520060001,-105.086285647,459,"4391 BIRCHWOOD DRIVE, LOVELAND, CO, 80538","Match","Exact","4391 BIRCHWOOD DR, LOVELAND, CO, 80538",188536942,"R"
631960,"4391 CAMPBELLTON ROAD","ATLANTA","GA",30331,33.695815741,-84.531194869,460,"4391 CAMPBELLTON ROAD, ATLANTA, GA, 30331","Match","Exact","4391 CAMPBELLTON RD, ATLANTA, GA, 30331",17336356,"R"
631961,"4391 CEDAR ST","EUREKA","CA",95503,40.764113777,-124.140220988,461,"4391 CEDAR ST, EUREKA, CA, 95503","Match","Exact","4391 CEDAR ST, EUREKA, CA, 95503",645213801,"L"
631962,"4391 CR 117","DIME BOX","TX",77853,NA,NA,462,"4391 CR 117, DIME BOX, TX, 77853","No_Match",NA,NA,NA,NA
631963,"4391 DEERWOOD LANE","EVANS","GA",30809,33.561279918,-82.126238869,463,"4391 DEERWOOD LANE, EVANS, GA, 30809","Match","Exact","4391 DEERWOOD LN, EVANS, GA, 30809",55379906,"L"
631964,"4391 E 900 N","GREENFIELD","IN",46140,39.916006881,-85.7226841739999,464,"4391 E 900 N, GREENFIELD, IN, 46140","Match","Exact","4391 E 900 N, GREENFIELD, IN, 46140",31086357,"R"
631965,"4391 FAIRVIEW ROAD SUITE 105 A","INDIAN TRAIL","NC",28079,NA,NA,465,"4391 FAIRVIEW ROAD SUITE 105 A, INDIAN TRAIL, NC, 28079","No_Match",NA,NA,NA,NA
631966,"4391 IHU RD","KALAHEO","HI",96741,21.9085541470001,-159.530682915,466,"4391 IHU RD, KALAHEO, HI, 96741","Match","Exact","4391 IHU RD, KALAHEO, HI, 96741",614447030,"R"
631967,"4391 MIDDLESEX DR","SAN DIEGO","CA",92116,32.7728813420001,-117.100175271,467,"4391 MIDDLESEX DR, SAN DIEGO, CA, 92116","Match","Exact","4391 MIDDLESEX DR, SAN DIEGO, CA, 92116",195322247,"R"
631968,"4391 MIDDLESEX DRIVE","SAN DIEGO","CA",92116,32.7728813420001,-117.100175271,468,"4391 MIDDLESEX DRIVE, SAN DIEGO, CA, 92116","Match","Exact","4391 MIDDLESEX DR, SAN DIEGO, CA, 92116",195322247,"R"
631969,"4391 OLD MABRY RD","ROSWELL","GA",30075,NA,NA,469,"4391 OLD MABRY RD, ROSWELL, GA, 30075","Tie",NA,NA,NA,NA
631970,"4391 PACIFIC STREET","DETROIT","MI",48204,42.3579691250001,-83.1173689519999,470,"4391 PACIFIC STREET, DETROIT, MI, 48204","Match","Exact","4391 PACIFIC ST, DETROIT, MI, 48204",95472045,"L"
631971,"4391 PINEWOOD CT","BROWNSBURG","IN",46112,39.8267063170001,-86.412088024,471,"4391 PINEWOOD CT, BROWNSBURG, IN, 46112","Match","Non_Exact","4391 PINEWOOD DR, BROWNSBURG, IN, 46112",89197601,"R"
631972,"4391 RAINBOW AVENUE","WESTON","FL",33332,26.063443476,-80.4068527009999,472,"4391 RAINBOW AVENUE, WESTON, FL, 33332","Match","Exact","4391 RAINBOW AVE, WESTON, FL, 33332",114818359,"L"
631973,"4391 ROCKYFORD RD","VALDOSTA","GA",31601,30.7347176500001,-83.383400958,473,"4391 ROCKYFORD RD, VALDOSTA, GA, 31601","Match","Non_Exact","4391 ROCKY FORD RD, VALDOSTA, GA, 31601",87721501,"R"
631974,"4391 S CAROL JANE DRIVE","HOLLADAY","UT",84124,40.675978763,-111.825213627,474,"4391 S CAROL JANE DRIVE, HOLLADAY, UT, 84124","Match","Exact","4391 S CAROL JANE DR, HOLLADAY, UT, 84124",176084077,"L"
631975,"4391 SOUTHWEST 5TH TERRACE","CORAL GABLES","FL",33134,25.7664948120001,-80.26734655,475,"4391 SOUTHWEST 5TH TERRACE, CORAL GABLES, FL, 33134","Match","Exact","4391 SW 5TH TER, CORAL GABLES, FL, 33134",116010542,"R"
631976,"4391 SPENCER GROVE RD","WALKER","IA",52352,42.2841603590001,-91.792330336,476,"4391 SPENCER GROVE RD, WALKER, IA, 52352","Match","Non_Exact","4391 SPENCERS GROVE RD, WALKER, IA, 52352",600604833,"R"
631977,"4391 WINDMOOR DRIVE","KENNESAW","GA",30144,34.0595967730001,-84.5966355749999,477,"4391 WINDMOOR DRIVE, KENNESAW, GA, 30144","Match","Non_Exact","4391 WINDMOOR DR NW, KENNESAW, GA, 30144",17224903,"L"
631978,"4391 YARMOUTH COURT","YPSILANTI","MI",48197,42.2044530270001,-83.6719026279999,478,"4391 YARMOUTH COURT, YPSILANTI, MI, 48197","Match","Non_Exact","4391 YARMOUTH CROSSING, YPSILANTI, MI, 48197",26017538,"L"
631979,"43911 GLENHAZEL DR","ASHBURN","VA",20147,39.043595623,-77.4834822129999,479,"43911 GLENHAZEL DR, ASHBURN, VA, 20147","Match","Exact","43911 GLENHAZEL DR, ASHBURN, VA, 20147",62365553,"R"
631980,"43916 CHURCHILL GLEN DR","CHANTILLY","VA",20152,38.9032641470001,-77.4828802009999,480,"43916 CHURCHILL GLEN DR, CHANTILLY, VA, 20152","Match","Exact","43916 CHURCHILL GLEN DR, CHANTILLY, VA, 20152",625342029,"R"
631981,"43919 17 TH ST EAST","LANCASTER","CA",93535,34.6809560570001,-118.099105908,481,"43919 17 TH ST EAST, LANCASTER, CA, 93535","Match","Non_Exact","43919 17TH ST E, LANCASTER, CA, 93535",641236080,"L"
631982,"4392 BAKER RD","IRON","MN",55751,47.4341490740001,-92.644064128,482,"4392 BAKER RD, IRON, MN, 55751","Match","Exact","4392 BAKER RD, IRON, MN, 55751",163170832,"R"
631983,"4392 BELLWOOD CIRCLE","ATLANTA","GA",30349,33.6366913690001,-84.566730923,483,"4392 BELLWOOD CIRCLE, ATLANTA, GA, 30349","Match","Exact","4392 BELLWOOD CIR, ATLANTA, GA, 30349",627635770,"R"
631984,"4392 BRIX","FRESNO","CA",93722,NA,NA,484,"4392 BRIX, FRESNO, CA, 93722","No_Match",NA,NA,NA,NA
631985,"4392 BROOKSIDE STREET","IRVINE","CA",92604,33.700103445,-117.78324243,485,"4392 BROOKSIDE STREET, IRVINE, CA, 92604","Match","Exact","4392 BROOKSIDE ST, IRVINE, CA, 92604",144057805,"R"
631986,"4392 CANDACE RIDGE CT","GREENSBORO","NC",27406,36.0524956240001,-79.7062680609999,486,"4392 CANDACE RIDGE CT, GREENSBORO, NC, 27406","Match","Exact","4392 CANDACE RIDGE CT, GREENSBORO, NC, 27406",617536179,"R"
631987,"4392 FIESTA LANE","HOUSTON","TX",77004,29.7143016370001,-95.343591809,487,"4392 FIESTA LANE, HOUSTON, TX, 77004","Match","Exact","4392 FIESTA LN, HOUSTON, TX, 77004",96074241,"R"
631988,"4392 HAMILTON DRIVE","EAGAN","MN",55123,44.7978328900001,-93.1339334959999,488,"4392 HAMILTON DRIVE, EAGAN, MN, 55123","Match","Exact","4392 HAMILTON DR, EAGAN, MN, 55123",37934969,"R"
631989,"4392 HARVEST LANE","HOUSTON","TX",77004,29.715079669,-95.34329331,489,"4392 HARVEST LANE, HOUSTON, TX, 77004","Match","Exact","4392 HARVEST LN, HOUSTON, TX, 77004",96074236,"R"
631990,"4392 HUMMINGBIRD CIRCLE","FOLSOM","CA",95630,38.627302596,-121.111960212,490,"4392 HUMMINGBIRD CIRCLE, FOLSOM, CA, 95630","Match","Exact","4392 HUMMINGBIRD CIR, FOLSOM, CA, 95630",652029610,"L"
631991,"4392 LOUISIANA ROAD","OTTAWA","KS",66067,38.7021385790001,-95.297436126,491,"4392 LOUISIANA ROAD, OTTAWA, KS, 66067","Match","Exact","4392 LOUISIANA RD, OTTAWA, KS, 66067",10623007,"R"
631992,"4392 OAK GLEN","CAMDEN","MI",49232,41.7177233830001,-84.5638899319999,492,"4392 OAK GLEN, CAMDEN, MI, 49232","Match","Non_Exact","4392 OAK GLEN DR, CAMDEN, MI, 49232",8289857,"R"
631993,"4392 PRESTWICK CROSSING","WESTLAKE","OH",44145,41.425837976,-81.96815176,493,"4392 PRESTWICK CROSSING, WESTLAKE, OH, 44145","Match","Exact","4392 PRESTWICK CROSSING, WESTLAKE, OH, 44145",61144985,"L"
631994,"4392 S 11TH RD","FAIR PLAY","MO",65649,37.62237442,-93.6089856409999,494,"4392 S 11TH RD, FAIR PLAY, MO, 65649","Match","Exact","4392 S 11TH RD, FAIR PLAY, MO, 65649",23046026,"L"
631995,"4392 STANLEY CT","RIVERSIDE","CA",92501,34.01028562,-117.369499075,495,"4392 STANLEY CT, RIVERSIDE, CA, 92501","Match","Exact","4392 STANLEY CT, RIVERSIDE, CA, 92501",608993999,"L"
631996,"4392 STEINBECK WAY","AVE MARIA","FL",34142,26.3436520390001,-81.4294784259999,496,"4392 STEINBECK WAY, AVE MARIA, FL, 34142","Match","Exact","4392 STEINBECK WAY, AVE MARIA, FL, 34142",648661972,"L"
631997,"4392 SUBLIME TRAIL","ATLANTA","GA",30349,33.642722157,-84.5770772719999,497,"4392 SUBLIME TRAIL, ATLANTA, GA, 30349","Match","Exact","4392 SUBLIME TRL, ATLANTA, GA, 30349",627634810,"R"
631998,"4392","RIVERSIDE","CA",92501,NA,NA,498,"4392, RIVERSIDE, CA, 92501","No_Match",NA,NA,NA,NA
631999,"43920 DANYA LANE","LANCASTER","CA",93536,34.680847348,-118.190090765,499,"43920 DANYA LANE, LANCASTER, CA, 93536","Match","Exact","43920 DANYA LN, LANCASTER, CA, 93536",625220047,"R"
632000,"43920 GILLIAN AVE","LANCASTER","CA",93535,34.679852705,-118.111798916,500,"43920 GILLIAN AVE, LANCASTER, CA, 93535","Match","Non_Exact","43920 GILLAN AVE, LANCASTER, CA, 93535",141778922,"L"
