"ID","Address","City","State","Zip","lat","long","id","input_address","match_indicator","match_type","matched_address","tiger_line_id","tiger_side"
603001,"4106 VERDE VISTA COURT","ASHVILLE","NC",28805,35.5731081070001,-82.5114986,1,"4106 VERDE VISTA COURT, ASHVILLE, NC, 28805","Match","Non_Exact","4106 VERDE VISTA CIR, ASHEVILLE, NC, 28805",645368709,"R"
603002,"4106 W 16TH ST DRIVE","GREELEY","CO",80634,NA,NA,2,"4106 W 16TH ST DRIVE, GREELEY, CO, 80634","No_Match",NA,NA,NA,NA
603003,"4106 W 4875 S","ROY","UT",84067,41.1746806040001,-112.080004534,3,"4106 W 4875 S, ROY, UT, 84067","Match","Exact","4106 W 4875 S, ROY, UT, 84067",155716088,"L"
603004,"4106 WAIKIKI","SAN ANTONIO","TX",78218,29.4948746220001,-98.413688865,4,"4106 WAIKIKI, SAN ANTONIO, TX, 78218","Match","Non_Exact","4106 WAIKIKI DR, SAN ANTONIO, TX, 78218",101500156,"R"
603005,"4106 WALNUT ST APT 3F","PHILADELPHIA","PA",19104,39.9544372190001,-75.205265867,5,"4106 WALNUT ST APT 3F, PHILADELPHIA, PA, 19104","Match","Exact","4106 WALNUT ST, PHILADELPHIA, PA, 19104",131403854,"L"
603006,"4106 WEST 177TH STREET","COUNTRY CLUB HILLS","IL",60478,41.5679403660001,-87.716928031,6,"4106 WEST 177TH STREET, COUNTRY CLUB HILLS, IL, 60478","Match","Non_Exact","4106 177TH ST, COUNTRY CLUB HILLS, IL, 60478",112207410,"R"
603007,"4106 WEST LAKE MARY BLVD STE 215","LAKE MARY","FL",32746,28.756012873,-81.348528443,7,"4106 WEST LAKE MARY BLVD STE 215, LAKE MARY, FL, 32746","Match","Exact","4106 W LAKE MARY BLVD, LAKE MARY, FL, 32746",93798657,"R"
603008,"4106 WHISPERING LANE","ANNANDALE","VA",22003,38.8344009030001,-77.166868211,8,"4106 WHISPERING LANE, ANNANDALE, VA, 22003","Match","Exact","4106 WHISPERING LN, ANNANDALE, VA, 22003",75981026,"R"
603009,"4106 WHITE KESTREL DRIVE","RALEIGH","NC",27616,35.8677392810001,-78.5201124399999,9,"4106 WHITE KESTREL DRIVE, RALEIGH, NC, 27616","Match","Exact","4106 WHITE KESTREL DR, RALEIGH, NC, 27616",619091608,"R"
603010,"4106 YELLOW PINE LANE","ORLANDO","FL",32811,28.5007858920001,-81.456158616,10,"4106 YELLOW PINE LANE, ORLANDO, FL, 32811","Match","Exact","4106 YELLOW PINE LN, ORLANDO, FL, 32811",94273980,"R"
603011,"41067 GARDEN CT","GONZALES","LA",70737,30.2972095420001,-90.920163795,11,"41067 GARDEN CT, GONZALES, LA, 70737","Match","Exact","41067 GARDEN CT, GONZALES, LA, 70737",624248521,"R"
603012,"41067 TALONWOOD DR","BATON ROUGE","LA",70737,30.291035896,-90.91941739,12,"41067 TALONWOOD DR, BATON ROUGE, LA, 70737","Match","Non_Exact","41067 TALONWOOD DR, GONZALES, LA, 70737",651000646,"R"
603013,"41068 RIVEROCK LANE","PALMDALE","CA",93551,34.626738786,-118.213395225,13,"41068 RIVEROCK LANE, PALMDALE, CA, 93551","Match","Exact","41068 RIVEROCK LN, PALMDALE, CA, 93551",141843301,"R"
603014,"4106A LOMBARD AVENUE","FREMONT","CA",94536,37.5532819040001,-122.002129682,14,"4106A LOMBARD AVENUE, FREMONT, CA, 94536","Match","Exact","4106 LOMBARD AVE, FREMONT, CA, 94536",125029434,"L"
603015,"4107  DEERFIELD DRIVE","CONCORD","NC",28027,35.432323468,-80.6461225259999,15,"4107  DEERFIELD DRIVE, CONCORD, NC, 28027","Match","Non_Exact","4107 DEERFIELD DR NW, CONCORD, NC, 28027",24911459,"L"
603016,"4107 12 ST","LONG ISLAND CITY","NY",11101,NA,NA,16,"4107 12 ST, LONG ISLAND CITY, NY, 11101","No_Match",NA,NA,NA,NA
603017,"4107 12TH ST NE","WASHINGTON DC","DC",20017,38.9402372710001,-76.990224734,17,"4107 12TH ST NE, WASHINGTON DC, DC, 20017","Match","Exact","4107 12TH ST NE, WASHINGTON, DC, 20017",76228321,"R"
603018,"4107 214TH STREET SE","BOTHELL","WA",98021,47.803287083,-122.177879328,18,"4107 214TH STREET SE, BOTHELL, WA, 98021","Match","Exact","4107 214TH ST SE, BOTHELL, WA, 98021",648624096,"R"
603019,"4107 216TH PL SE","BOTHELL","WA",98021,47.8012638700001,-122.174535075,19,"4107 216TH PL SE, BOTHELL, WA, 98021","Match","Exact","4107 216TH PL SE, BOTHELL, WA, 98021",608923189,"R"
603020,"4107 21ST ST SW","LEHIGH ACRES","FL",33976,26.5931655520001,-81.7050441379999,20,"4107 21ST ST SW, LEHIGH ACRES, FL, 33976","Match","Exact","4107 21ST ST SW, LEHIGH ACRES, FL, 33976",118030740,"R"
603021,"4107 35TH AVE","SACRAMENTO","CA",95824,38.520919598,-121.459426711,21,"4107 35TH AVE, SACRAMENTO, CA, 95824","Match","Exact","4107 35TH AVE, SACRAMENTO, CA, 95824",133327761,"R"
603022,"4107 42 STREET","SUNNYSIDE","NY",11104,NA,NA,22,"4107 42 STREET, SUNNYSIDE, NY, 11104","No_Match",NA,NA,NA,NA
603023,"4107 47TH STREET","BLADENSBURG","MD",20710,38.9408084680001,-76.937980231,23,"4107 47TH STREET, BLADENSBURG, MD, 20710","Match","Exact","4107 47TH ST, BLADENSBURG, MD, 20710",639352285,"R"
603024,"4107 53RD ST","DES MOINES","IA",50310,41.635014616,-93.691387476,24,"4107 53RD ST, DES MOINES, IA, 50310","Match","Exact","4107 53RD ST, DES MOINES, IA, 50310",65779066,"R"
603025,"4107 AVENUE S","BROOKLYN","NY",11234,40.6121389420001,-73.9276555609999,25,"4107 AVENUE S, BROOKLYN, NY, 11234","Match","Exact","4107 AVENUE S, BROOKLYN, NY, 11234",59092482,"L"
603026,"4107 BAFFIN BAY RD","LEXINGOTN","KY",40515,37.969605718,-84.5272683539999,26,"4107 BAFFIN BAY RD, LEXINGOTN, KY, 40515","Match","Non_Exact","4107 BAFFIN BAY RD, LEXINGTON, KY, 40515",31924611,"R"
603027,"4107 BELLE GROVE","SAN ANTONIO","TX",78230,29.544722053,-98.565365012,27,"4107 BELLE GROVE, SAN ANTONIO, TX, 78230","Match","Exact","4107 BELLE GROVE, SAN ANTONIO, TX, 78230",101491108,"R"
603028,"4107 CHARLOTTE AVE","NASHVILLE","TN",37209,36.1524192160001,-86.8357311459999,28,"4107 CHARLOTTE AVE, NASHVILLE, TN, 37209","Match","Exact","4107 CHARLOTTE AVE, NASHVILLE, TN, 37209",97179404,"L"
603029,"4107 CHESTER DR","TYLER","TX",75701,32.3043510740001,-95.2891759299999,29,"4107 CHESTER DR, TYLER, TX, 75701","Match","Exact","4107 CHESTER DR, TYLER, TX, 75701",141272875,"R"
603030,"4107 COTTONWOOD ST","GRAND FORKS","ND",56721,47.880328745,-97.0325837569999,30,"4107 COTTONWOOD ST, GRAND FORKS, ND, 56721","Match","Non_Exact","4107 COTTONWOOD ST, GRAND FORKS, ND, 58201",171277304,"L"
603031,"4107 E BROUGHAM COURT","CHILLICOTHE","IL",61523,40.8827679930001,-89.528402568,31,"4107 E BROUGHAM COURT, CHILLICOTHE, IL, 61523","Match","Exact","4107 BROUGHAM CT, CHILLICOTHE, IL, 61523",8705019,"L"
603032,"4107 ELLICOTT STREET NW","WASHINGTON","DC",20016,38.9533212160001,-77.0805228249999,32,"4107 ELLICOTT STREET NW, WASHINGTON, DC, 20016","Match","Exact","4107 ELLICOTT ST NW, WASHINGTON, DC, 20016",76220282,"R"
603033,"4107 FALLGOLD PARKWAY N","BROOKLYN PARK","MN",55443,NA,NA,33,"4107 FALLGOLD PARKWAY N, BROOKLYN PARK, MN, 55443","No_Match",NA,NA,NA,NA
603034,"4107 FIESTA","HOBBS","NM",88240,32.744672914,-103.153263232,34,"4107 FIESTA, HOBBS, NM, 88240","Match","Non_Exact","4107 FIESTA DR, HOBBS, NM, 88240",132019205,"R"
603035,"4107 FLAGSTONE PINE LN","SPRING","TX",77386,30.092708497,-95.346982265,35,"4107 FLAGSTONE PINE LN, SPRING, TX, 77386","Match","Exact","4107 FLAGSTONE PINE LN, SPRING, TX, 77386",651270480,"L"
603036,"4107 FLOWERTON RD","BALTIMORE","MD",21229,39.2985199930001,-76.684501642,36,"4107 FLOWERTON RD, BALTIMORE, MD, 21229","Match","Exact","4107 FLOWERTON RD, BALTIMORE, MD, 21229",206453508,"L"
603037,"4107 GARTHWAITE AVENUE","LOS ANGELES","CA",90008,34.009414599,-118.323226525,37,"4107 GARTHWAITE AVENUE, LOS ANGELES, CA, 90008","Match","Exact","4107 GARTHWAITE AVE, LOS ANGELES, CA, 90008",642863683,"R"
603038,"4107 GOSNOLD AVENUE","NORFOLK","VA",23508,36.882067982,-76.2920752969999,38,"4107 GOSNOLD AVENUE, NORFOLK, VA, 23508","Match","Exact","4107 GOSNOLD AVE, NORFOLK, VA, 23508",122132160,"L"
603039,"4107 HERITAGE PLACE DRIVE","NORMAN","OK",73072,35.2207664850001,-97.502517002,39,"4107 HERITAGE PLACE DRIVE, NORMAN, OK, 73072","Match","Exact","4107 HERITAGE PLACE DR, NORMAN, OK, 73072",99907193,"L"
603040,"4107 HILL HAVEN PLACE","AUGUSTA","GA",30909,33.464470541,-82.137851476,40,"4107 HILL HAVEN PLACE, AUGUSTA, GA, 30909","Match","Exact","4107 HILL HAVEN PL, AUGUSTA, GA, 30909",648114938,"R"
603041,"4107 HILLSBORO RD","LOUISVILLE","KY",40207,38.242356699,-85.641018499,41,"4107 HILLSBORO RD, LOUISVILLE, KY, 40207","Match","Exact","4107 HILLSBORO RD, LOUISVILLE, KY, 40207",96856256,"L"
603042,"4107 HOLLY STREET","KANSAS CITY","MO",64111,39.05371024,-94.600774115,42,"4107 HOLLY STREET, KANSAS CITY, MO, 64111","Match","Exact","4107 HOLLY ST, KANSAS CITY, MO, 64111",91446648,"L"
603043,"4107 HOULDSWORTH DRIVE","CHARLOTTE","NC",28213,35.307016703,-80.68674062,43,"4107 HOULDSWORTH DRIVE, CHARLOTTE, NC, 28213","Match","Exact","4107 HOULDSWORTH DR, CHARLOTTE, NC, 28213",70627460,"L"
603044,"4107 HOUMA HIGHLANDS CT","HOUMA","LA",70360,29.597393015,-90.7598972279999,44,"4107 HOUMA HIGHLANDS CT, HOUMA, LA, 70360","Match","Exact","4107 HOUMA HIGHLANDS CT, HOUMA, LA, 70360",651067729,"L"
603045,"4107 HWY 923","JONESVILLE","LA",71343,31.6435652440001,-91.8886067619999,45,"4107 HWY 923, JONESVILLE, LA, 71343","Match","Non_Exact","4107 STATE RTE 923, JONESVILLE, LA, 71343",617598411,"R"
603046,"4107 LAYFAYETTE SUITE 2","FREDERICKSBURG","VA",22408,38.2601873560001,-77.492719103,46,"4107 LAYFAYETTE SUITE 2, FREDERICKSBURG, VA, 22408","Match","Non_Exact","4107 LAFAYETTE BLVD, FREDERICKSBURG, VA, 22408",85019774,"R"
603047,"4107 LOU ANNE LANE","HOUSTON","TX",77092,29.828746418,-95.4749747709999,47,"4107 LOU ANNE LANE, HOUSTON, TX, 77092","Match","Exact","4107 LOU ANNE LN, HOUSTON, TX, 77092",96027964,"L"
603048,"4107 MEDICAL DRIVE - 3108","SAN ANTONIO","TX",78239,29.5172758150001,-98.5632210369999,48,"4107 MEDICAL DRIVE - 3108, SAN ANTONIO, TX, 78239","Match","Non_Exact","4107 MEDICAL DR, SAN ANTONIO, TX, 78229",650120517,"R"
603049,"4107 MEDICAL PARKWAY SUITE 212","AUSTIN","TX",78756,30.310043605,-97.742636724,49,"4107 MEDICAL PARKWAY SUITE 212, AUSTIN, TX, 78756","Match","Exact","4107 MEDICAL PKWY, AUSTIN, TX, 78756",63929661,"R"
603050,"4107 N HIMES AVE","TAMPA","FL",33607,27.9763653430001,-82.501438341,50,"4107 N HIMES AVE, TAMPA, FL, 33607","Match","Exact","4107 N HIMES AVE, TAMPA, FL, 33607",104516509,"R"
603051,"4107 N HOWARD ST","SPOKANE","WA",99205,47.695579212,-117.420593503,51,"4107 N HOWARD ST, SPOKANE, WA, 99205","Match","Exact","4107 N HOWARD ST, SPOKANE, WA, 99205",189874325,"L"
603052,"4107 N RIVERS EDGE DR","JANESVILLE","WI",53548,42.730818909,-89.080508513,52,"4107 N RIVERS EDGE DR, JANESVILLE, WI, 53548","Match","Non_Exact","4107 N RIVER'S EDGE DR, JANESVILLE, WI, 53548",49864153,"L"
603053,"4107 NE 22 LN","HOMESTEAD","FL",33033,25.4908770600001,-80.415837502,53,"4107 NE 22 LN, HOMESTEAD, FL, 33033","Match","Exact","4107 NE 22ND LN, HOMESTEAD, FL, 33033",624333792,"L"
603054,"4107 NEW CASTLE DR","SYLVANIA","OH",43560,41.6924737080001,-83.702206019,54,"4107 NEW CASTLE DR, SYLVANIA, OH, 43560","Match","Non_Exact","4107 NEWCASTLE DR, SYLVANIA, OH, 43560",33927535,"L"
603055,"4107 NICOLES LANE","GROVETOWN","GA",30813,33.497417786,-82.1962635639999,55,"4107 NICOLES LANE, GROVETOWN, GA, 30813","Match","Exact","4107 NICOLES LN, GROVETOWN, GA, 30813",55386494,"R"
603056,"4107 OAKDALE AVENUE","AUGUSTA","GA",30906,33.352336334,-81.976687343,56,"4107 OAKDALE AVENUE, AUGUSTA, GA, 30906","Match","Exact","4107 OAKDALE AVE, AUGUSTA, GA, 30906",55630082,"R"
603057,"4107 OCTOBER RD","NORTH CHESTERFIELD","VA",23234,37.4569909790001,-77.4757593309999,57,"4107 OCTOBER RD, NORTH CHESTERFIELD, VA, 23234","Match","Exact","4107 OCTOBER RD, NORTH CHESTERFIELD, VA, 23234",201545577,"L"
603058,"4107 ORCHARD WAY","LOUISVILLE","KY",40210,38.201508183,-85.8297042359999,58,"4107 ORCHARD WAY, LOUISVILLE, KY, 40210","Match","Non_Exact","4107 ORCHARD WAY, LOUISVILLE, KY, 40216",96836956,"L"
603059,"4107 ORCHARD WAY","LOUISVILLE","KY",40216,38.201508183,-85.8297042359999,59,"4107 ORCHARD WAY, LOUISVILLE, KY, 40216","Match","Exact","4107 ORCHARD WAY, LOUISVILLE, KY, 40216",96836956,"L"
603060,"4107 OTISCO RD","MARIETTA","NY",13110,NA,NA,60,"4107 OTISCO RD, MARIETTA, NY, 13110","No_Match",NA,NA,NA,NA
603061,"4107 PACES FERRY ROAD","CHESTER","VA",23831,37.3701959260001,-77.446875787,61,"4107 PACES FERRY ROAD, CHESTER, VA, 23831","Match","Exact","4107 PACES FERRY RD, CHESTER, VA, 23831",201554757,"R"
603062,"4107 PEBBLEBROOK LANE","CHAMPAIGN","IL",61822,40.1282969910001,-88.313140241,62,"4107 PEBBLEBROOK LANE, CHAMPAIGN, IL, 61822","Match","Exact","4107 PEBBLEBROOK LN, CHAMPAIGN, IL, 61822",8858773,"L"
603063,"4107 PECOS ST","TEXARKANA","TX",75503,33.4575691050001,-94.0580373879999,63,"4107 PECOS ST, TEXARKANA, TX, 75503","Match","Non_Exact","4107 PECOS AVE, TEXARKANA, TX, 75503",57668647,"L"
603064,"4107 PINE GLEN ROAD","CORINTH","TX",76208,33.1469768440001,-97.0440791669999,64,"4107 PINE GLEN ROAD, CORINTH, TX, 76208","Match","Exact","4107 PINE GLEN RD, CORINTH, TX, 76208",218047933,"L"
603065,"4107 PUNTA ALTA DR","LOS ANGELES","CA",90008,34.0107143870001,-118.361968186,65,"4107 PUNTA ALTA DR, LOS ANGELES, CA, 90008","Match","Exact","4107 PUNTA ALTA DR, LOS ANGELES, CA, 90008",141601419,"R"
603066,"4107 RAINFLOWER COURT","FULSHEAR","TX",77441,29.722221204,-95.860702642,66,"4107 RAINFLOWER COURT, FULSHEAR, TX, 77441","Match","Exact","4107 RAINFLOWER CT, FULSHEAR, TX, 77441",648706236,"L"
603067,"4107 RIDGELAWN DR","MOBILE","AL",36608,30.6934880040001,-88.154173742,67,"4107 RIDGELAWN DR, MOBILE, AL, 36608","Match","Exact","4107 RIDGELAWN DR, MOBILE, AL, 36608",61888227,"L"
603068,"4107 ROCKY OAK CT","COLLEGE STATION","TX",77845,30.556428983,-96.269448191,68,"4107 ROCKY OAK CT, COLLEGE STATION, TX, 77845","Match","Exact","4107 ROCKY OAK CT, COLLEGE STATION, TX, 77845",640711590,"L"
603069,"4107 SHERMAN COURT","FORT COLLINS","CO",80525,40.530510867,-105.049649392,69,"4107 SHERMAN COURT, FORT COLLINS, CO, 80525","Match","Exact","4107 SHERMAN CT, FORT COLLINS, CO, 80525",188494633,"R"
603070,"4107 SHUMARD DRIVE","KILLEEN","TX",76542,31.0641535550001,-97.7078609979999,70,"4107 SHUMARD DRIVE, KILLEEN, TX, 76542","Match","Exact","4107 SHUMARD DR, KILLEEN, TX, 76542",146228274,"L"
603071,"4107 SIDEBURN ROAD","FAIRFAX","VA",22030,38.8415425690001,-77.303405136,71,"4107 SIDEBURN ROAD, FAIRFAX, VA, 22030","Match","Exact","4107 SIDEBURN RD, FAIRFAX, VA, 22030",641054380,"L"
603072,"4107 SOUTH LAGOON COURT","ST JAMES","NC",28461,33.945333009,-78.110416022,72,"4107 SOUTH LAGOON COURT, ST JAMES, NC, 28461","Match","Exact","4107 S LAGOON CT, SAINT JAMES, NC, 28461",153177845,"R"
603073,"4107 SOUTHERN AVENUE","BALTIMORE","MD",21206,39.3350883910001,-76.559302405,73,"4107 SOUTHERN AVENUE, BALTIMORE, MD, 21206","Match","Exact","4107 SOUTHERN AVE, BALTIMORE, MD, 21206",206465945,"R"
603074,"4107 STATE ROUTE 160","HIGHLAND","IL",62249,38.80621223,-89.6733223259999,74,"4107 STATE ROUTE 160, HIGHLAND, IL, 62249","Match","Exact","4107 STATE RTE 160, HIGHLAND, IL, 62249",647982860,"L"
603075,"4107 STONE POINT DR NE","ROCHESTER","MN",55906,44.065190865,-92.442671546,75,"4107 STONE POINT DR NE, ROCHESTER, MN, 55906","Match","Exact","4107 STONE POINT DR NE, ROCHESTER, MN, 55906",628029190,"L"
603076,"4107 SW SHADOW ROCK PL","CENTERTON","AR",72719,NA,NA,76,"4107 SW SHADOW ROCK PL, CENTERTON, AR, 72719","No_Match",NA,NA,NA,NA
603077,"4107 TAYLOR POND LAND","BEDFORD","MA",1730,42.513831258,-71.239740613,77,"4107 TAYLOR POND LAND, BEDFORD, MA, 1730","Match","Non_Exact","4107 TAYLOR POND LN, BEDFORD, MA, 01730",645282787,"R"
603078,"4107 THE OAKS DRIVE","RALEIGH","NC",27606,35.7656126250001,-78.7110339509999,78,"4107 THE OAKS DRIVE, RALEIGH, NC, 27606","Match","Exact","4107 THE OAKS DR, RALEIGH, NC, 27606",645540334,"R"
603079,"4107 TIDEWATER DR","HOUSTON","TX",77045,29.6336715520001,-95.439445891,79,"4107 TIDEWATER DR, HOUSTON, TX, 77045","Match","Exact","4107 TIDEWATER DR, HOUSTON, TX, 77045",96040921,"L"
603080,"4107 TOYAH AVE","HOUSTON","TX",77039,29.914276154,-95.333770573,80,"4107 TOYAH AVE, HOUSTON, TX, 77039","Match","Exact","4107 TOYAH AVE, HOUSTON, TX, 77039",96046364,"L"
603081,"4107 W 130TH STREET","CLEVELAND","OH",44135,41.4425319920001,-81.779794669,81,"4107 W 130TH STREET, CLEVELAND, OH, 44135","Match","Exact","4107 W 130TH ST, CLEVELAND, OH, 44135",61103308,"L"
603082,"4107 W BARCELONA ST","TAMPA","FL",33629,27.9219123010001,-82.512416012,82,"4107 W BARCELONA ST, TAMPA, FL, 33629","Match","Exact","4107 W BARCELONA ST, TAMPA, FL, 33629",104525672,"R"
603083,"4107 W CIRCLE DR NE","KALKASKA","MI",49646,44.7726806050001,-85.035486702,83,"4107 W CIRCLE DR NE, KALKASKA, MI, 49646","Match","Non_Exact","4107 W CIRCLE RD NE, KALKASKA, MI, 49646",145933057,"L"
603084,"4107 W NEWCOMB DR","SIOUX FALLS","SD",57106,43.538957683,-96.772742576,84,"4107 W NEWCOMB DR, SIOUX FALLS, SD, 57106","Match","Exact","4107 W NEWCOMB DR, SIOUX FALLS, SD, 57106",34982765,"L"
603085,"4107 W NORTH A STREET","TAMPA","FL",33609,27.945599616,-82.512218199,85,"4107 W NORTH A STREET, TAMPA, FL, 33609","Match","Exact","4107 W NORTH A ST, TAMPA, FL, 33609",104524931,"R"
603086,"4107 W NORTHGATE DR APT 718","IRVING","TX",75062,32.8571029340001,-97.0065877929999,86,"4107 W NORTHGATE DR APT 718, IRVING, TX, 75062","Match","Non_Exact","4107 W NORTHGATE DR, IRVING, TX, 75062",103236624,"L"
603087,"4107 W QUANTICO PL","BROKEN ARROW","OK",74011,NA,NA,87,"4107 W QUANTICO PL, BROKEN ARROW, OK, 74011","No_Match",NA,NA,NA,NA
603088,"4107 WESTFIELD DRIVE","DURHAM","NC",27705,36.0178228720001,-78.9646005609999,88,"4107 WESTFIELD DRIVE, DURHAM, NC, 27705","Match","Exact","4107 WESTFIELD DR, DURHAM, NC, 27705",71736731,"L"
603089,"4107 WILKENS AVENUE","BALTIMORE","MD",21229,39.2676655970001,-76.689902908,89,"4107 WILKENS AVENUE, BALTIMORE, MD, 21229","Match","Exact","4107 WILKENS AVE, BALTIMORE, MD, 21229",191515322,"L"
603090,"4107 WILLOW STREET APT 234","PITTSBURGH","PA",15201,40.471547135,-79.9640902949999,90,"4107 WILLOW STREET APT 234, PITTSBURGH, PA, 15201","Match","Exact","4107 WILLOW ST, PITTSBURGH, PA, 15201",51642258,"L"
603091,"4107 WIND RIVER DRIVE","DALLAS","TX",75216,32.694589991,-96.819180697,91,"4107 WIND RIVER DRIVE, DALLAS, TX, 75216","Match","Exact","4107 WIND RIVER DR, DALLAS, TX, 75216",102951163,"R"
603092,"41070 VERNION BLVD APT6E","LONG ISLAND CITY","NY",11101,NA,NA,92,"41070 VERNION BLVD APT6E, LONG ISLAND CITY, NY, 11101","No_Match",NA,NA,NA,NA
603093,"41071 HIGHWAY 49","OAKHURST","CA",93644,37.345566928,-119.714445621,93,"41071 HIGHWAY 49, OAKHURST, CA, 93644","Match","Exact","41071 HWY 49, OAKHURST, CA, 93644",102328189,"R"
603094,"4108 126TH TERRACE","SAVAGE","MN",55378,44.774629389,-93.3312614989999,94,"4108 126TH TERRACE, SAVAGE, MN, 55378","Match","Exact","4108 126TH TER, SAVAGE, MN, 55378",641696283,"R"
603095,"4108 17TH ST N","ST. PETERSBURG","FL",33714,27.809180058,-82.656076637,95,"4108 17TH ST N, ST. PETERSBURG, FL, 33714","Match","Exact","4108 17TH ST N, SAINT PETERSBURG, FL, 33714",124703921,"L"
603096,"4108 183RD PL SE","BOTHELL","WA",98012,47.8313199200001,-122.177173161,96,"4108 183RD PL SE, BOTHELL, WA, 98012","Match","Exact","4108 183RD PL SE, BOTHELL, WA, 98012",648234617,"R"
603097,"4108 25TH STREET","SAN FRANCISCO","CA",94114,37.7498189780001,-122.432043347,97,"4108 25TH STREET, SAN FRANCISCO, CA, 94114","Match","Exact","4108 25TH ST, SAN FRANCISCO, CA, 94114",192284798,"R"
603098,"4108 61ST ST E","TACOMA","WA",98443,47.2012723760001,-122.374544938,98,"4108 61ST ST E, TACOMA, WA, 98443","Match","Exact","4108 61ST ST E, TACOMA, WA, 98443",184631090,"R"
603099,"4108 87TH STREET","KENOSHA","WI",53142,42.547654788,-87.8568784189999,99,"4108 87TH STREET, KENOSHA, WI, 53142","Match","Exact","4108 87TH ST, KENOSHA, WI, 53142",79801382,"R"
603100,"4108 99TH ST WEST","BRADENTON","FL",34210,27.4651853240001,-82.6616926039999,100,"4108 99TH ST WEST, BRADENTON, FL, 34210","Match","Exact","4108 99TH ST W, BRADENTON, FL, 34210",16232036,"R"
603101,"4108 ABBOTSFORD ST","NORTH PORT","FL",34287,27.048464772,-82.2096795209999,101,"4108 ABBOTSFORD ST, NORTH PORT, FL, 34287","Match","Exact","4108 ABBOTSFORD ST, NORTH PORT, FL, 34287",16340258,"L"
603102,"4108 ALOHA DRIVE","ANDERSON","SC",29625,34.5591549980001,-82.699791462,102,"4108 ALOHA DRIVE, ANDERSON, SC, 29625","Match","Exact","4108 ALOHA DR, ANDERSON, SC, 29625",25449804,"R"
603103,"4108 AMELIA DRIVE","FREDERICKSBURG","VA",22408,38.2475655430001,-77.478221299,103,"4108 AMELIA DRIVE, FREDERICKSBURG, VA, 22408","Match","Exact","4108 AMELIA DR, FREDERICKSBURG, VA, 22408",85016750,"L"
603104,"4108 APPLE LEAF WAY","SUITLAND","MD",20746,38.83489001,-76.937937585,104,"4108 APPLE LEAF WAY, SUITLAND, MD, 20746","Match","Exact","4108 APPLE LEAF WAY, SUITLAND, MD, 20746",76418867,"L"
603105,"4108 ARBOR KEATS DR","SIMPSONVILLE","SC",29680,34.710812189,-82.2608256939999,105,"4108 ARBOR KEATS DR, SIMPSONVILLE, SC, 29680","Match","Exact","4108 ARBOR KEATS DR, SIMPSONVILLE, SC, 29680",649737241,"R"
603106,"4108 ASHINGTON DRIVE","BIRMINGHAM","AL",35242,33.436724826,-86.671549885,106,"4108 ASHINGTON DRIVE, BIRMINGHAM, AL, 35242","Match","Exact","4108 ASHINGTON DR, BIRMINGHAM, AL, 35242",221555052,"R"
603107,"4108 ASPEN DRIVE","WEST DES MOINES","IA",50265,41.5823033240001,-93.759864712,107,"4108 ASPEN DRIVE, WEST DES MOINES, IA, 50265","Match","Exact","4108 ASPEN DR, W DES MOINES, IA, 50265",65775103,"L"
603108,"4108 AUSTRINA DRIVE","SPARKS","NV",89436,39.618576725,-119.668598011,108,"4108 AUSTRINA DRIVE, SPARKS, NV, 89436","Match","Exact","4108 AUSTRINA DR, SPARKS, NV, 89436",600682331,"L"
603109,"4108 AUTUMN PATH","DENTON","TX",76208,33.18024238,-97.055192286,109,"4108 AUTUMN PATH, DENTON, TX, 76208","Match","Non_Exact","4108 AUTUMN PATH RD, DENTON, TX, 76208",640685643,"R"
603110,"4108 BALD EADLE COURT","RANDALLSTOWN","MD",21133,NA,NA,110,"4108 BALD EADLE COURT, RANDALLSTOWN, MD, 21133","No_Match",NA,NA,NA,NA
603111,"4108 BALD EAGLE COURT","RANDALLSTOWN","MD",21133,39.379368023,-76.773943872,111,"4108 BALD EAGLE COURT, RANDALLSTOWN, MD, 21133","Match","Exact","4108 BALD EAGLE CT, RANDALLSTOWN, MD, 21133",648406922,"L"
603112,"4108 BAYLOR","FORT WORTH","TX",76119,32.705493027,-97.264489014,112,"4108 BAYLOR, FORT WORTH, TX, 76119","Match","Non_Exact","4108 BAYLOR ST, FORT WORTH, TX, 76119",101898639,"R"
603113,"4108 BERRYBUSH DR","COLUMBUS","OH",43230,40.0642724080001,-82.910992904,113,"4108 BERRYBUSH DR, COLUMBUS, OH, 43230","Match","Exact","4108 BERRYBUSH DR, COLUMBUS, OH, 43230",218695550,"R"
603114,"4108 BLACKSNAKE DRIVE","TEMPLE HILLS","MD",20748,38.833827822,-76.971000838,114,"4108 BLACKSNAKE DRIVE, TEMPLE HILLS, MD, 20748","Match","Exact","4108 BLACKSNAKE DR, TEMPLE HILLS, MD, 20748",76312447,"L"
603115,"4108 BRANDYWINE DR","PHENIX CITY","AL",36869,32.435137522,-85.047900214,115,"4108 BRANDYWINE DR, PHENIX CITY, AL, 36869","Match","Exact","4108 BRANDYWINE DR, PHENIX CITY, AL, 36869",69277123,"R"
603116,"4108 BRANNOCKBURN PLACE","CHARLOTTE","NC",28211,NA,NA,116,"4108 BRANNOCKBURN PLACE, CHARLOTTE, NC, 28211","No_Match",NA,NA,NA,NA
603117,"4108 BRUSH HILL RD","NASHVILLE","TN",37216,36.2284752320001,-86.71267399,117,"4108 BRUSH HILL RD, NASHVILLE, TN, 37216","Match","Exact","4108 BRUSH HILL RD, NASHVILLE, TN, 37216",97194140,"R"
603118,"4108 CHARRON LN","WICHITA","KS",67220,37.7353727660001,-97.288481331,118,"4108 CHARRON LN, WICHITA, KS, 67220","Match","Non_Exact","4108 E CHARRON LN, WICHITA, KS, 67220",115635753,"L"
603119,"4108 CHERRYLAUREL LANE","WINSTON-SALEM","NC",27106,36.1351155400001,-80.3457568869999,119,"4108 CHERRYLAUREL LANE, WINSTON-SALEM, NC, 27106","Match","Exact","4108 CHERRYLAUREL LN, WINSTON SALEM, NC, 27106",84644041,"L"
603120,"4108 COMMONWEALTH AVENUE","TOLEDO","OH",43612,41.6939467460001,-83.580781636,120,"4108 COMMONWEALTH AVENUE, TOLEDO, OH, 43612","Match","Exact","4108 COMMONWEALTH AVE, TOLEDO, OH, 43612",33934073,"R"
603121,"4108 CREEK BEND CT","CORINTH","TX",76208,33.1517078430001,-97.0417052129999,121,"4108 CREEK BEND CT, CORINTH, TX, 76208","Match","Exact","4108 CREEK BEND CT, CORINTH, TX, 76208",218046355,"L"
603122,"4108 DEE ANN DRIVE","KOKOMO","IN",46902,40.4382213380001,-86.104681912,122,"4108 DEE ANN DRIVE, KOKOMO, IN, 46902","Match","Exact","4108 DEE ANN DR, KOKOMO, IN, 46902",27285245,"L"
603123,"4108 DILLEHAY DR","PARKER","TX",75002,33.055819613,-96.618441848,123,"4108 DILLEHAY DR, PARKER, TX, 75002","Match","Exact","4108 DILLEHAY DR, PARKER, TX, 75002",618114967,"R"
603124,"4108 DISHMAN ST","EDINBURG","TX",78542,26.289545533,-98.11930024,124,"4108 DISHMAN ST, EDINBURG, TX, 78542","Match","Exact","4108 DISHMAN ST, EDINBURG, TX, 78542",640275157,"R"
603125,"4108 DON LUIS DRIVE","LOS ANGELES","CA",90008,34.005970072,-118.341982033,125,"4108 DON LUIS DRIVE, LOS ANGELES, CA, 90008","Match","Exact","4108 DON LUIS DR, LOS ANGELES, CA, 90008",141602436,"L"
603126,"4108 DONERAIL DRIVE","PASADENA","TX",77503,29.6869764900001,-95.149616188,126,"4108 DONERAIL DRIVE, PASADENA, TX, 77503","Match","Exact","4108 DONERAIL DR, PASADENA, TX, 77503",96105553,"R"
603127,"4108 DOVER ROAD","RICHMOND","VA",23221,37.5551299040001,-77.496370242,127,"4108 DOVER ROAD, RICHMOND, VA, 23221","Match","Exact","4108 DOVER RD, RICHMOND, VA, 23221",616124478,"L"
603128,"4108 E OKARA","TAMPA","FL",33617,28.0370071830001,-82.414551053,128,"4108 E OKARA, TAMPA, FL, 33617","Match","Non_Exact","4108 E OKARA RD, TAMPA, FL, 33617",104622035,"L"
603129,"4108 EAST TONTO ST","PHOENIX","AZ",85044,33.331355961,-111.995532536,129,"4108 EAST TONTO ST, PHOENIX, AZ, 85044","Match","Exact","4108 E TONTO ST, PHOENIX, AZ, 85044",128368291,"L"
603130,"4108 EASTLAKE AVE","OAKLAND","CA",94602,37.7988892650001,-122.195600063,130,"4108 EASTLAKE AVE, OAKLAND, CA, 94602","Match","Exact","4108 EASTLAKE AVE, OAKLAND, CA, 94602",125004335,"R"
603131,"4108 EDISON STREET","SAN MATEO","CA",94403,37.5286570710001,-122.295114662,131,"4108 EDISON STREET, SAN MATEO, CA, 94403","Match","Exact","4108 EDISON ST, SAN MATEO, CA, 94403",192381248,"R"
603132,"4108 FASSETT CT","ELK GROVE","CA",95758,38.418768304,-121.457346326,132,"4108 FASSETT CT, ELK GROVE, CA, 95758","Match","Exact","4108 FASSETT CT, ELK GROVE, CA, 95758",133379461,"R"
603133,"4108 GREENWAY DR","DAVENPORT","IA",52804,41.535847376,-90.635352416,133,"4108 GREENWAY DR, DAVENPORT, IA, 52804","Match","Exact","4108 GREENWAY DR, DAVENPORT, IA, 52804",122704687,"R"
603134,"4108 GREENWOOD WAY","MANSFIELD","TX",76063,32.5824440160001,-97.071971425,134,"4108 GREENWOOD WAY, MANSFIELD, TX, 76063","Match","Exact","4108 GREENWOOD WAY, MANSFIELD, TX, 76063",629570549,"R"
603135,"4108 HAINES RD N","ST PETERSBURG","FL",33703,27.809511812,-82.653386052,135,"4108 HAINES RD N, ST PETERSBURG, FL, 33703","Match","Exact","4108 HAINES RD N, SAINT PETERSBURG, FL, 33703",124703958,"L"
603136,"4108 HAZELWOOD COURT","FAIRFAX","VA",22030,38.8560804420001,-77.3422840229999,136,"4108 HAZELWOOD COURT, FAIRFAX, VA, 22030","Match","Exact","4108 HAZELWOOD CT, FAIRFAX, VA, 22030",76062253,"R"
603137,"4108 HEARTHSTONE DR","SARASOTA","FL",34229,27.2161155250001,-82.4860411939999,137,"4108 HEARTHSTONE DR, SARASOTA, FL, 34229","Match","Non_Exact","4108 HEARTHSTONE DR, SARASOTA, FL, 34238",16425452,"L"
603138,"4108 HOLLY DRIVE","COLUMBIA","PA",17512,40.055201787,-76.4648499859999,138,"4108 HOLLY DRIVE, COLUMBIA, PA, 17512","Match","Exact","4108 HOLLY DR, COLUMBIA, PA, 17512",179658189,"L"
603139,"4108 HUBBELL AVE APT 64","DES MOINES","IA",50317,41.635317908,-93.532855467,139,"4108 HUBBELL AVE APT 64, DES MOINES, IA, 50317","Match","Exact","4108 HUBBELL AVE, DES MOINES, IA, 50317",65856354,"L"
603140,"4108 HUNTSMOOR LANE","WILSON","NC",27896,35.7690185770001,-77.951790633,140,"4108 HUNTSMOOR LANE, WILSON, NC, 27896","Match","Non_Exact","4108 HUNTSMOOR LN NW, WILSON, NC, 27896",630300639,"R"
603141,"4108 INLET CIRCLE","GREENACRES","FL",33463,26.6322704070001,-80.1353338119999,141,"4108 INLET CIRCLE, GREENACRES, FL, 33463","Match","Exact","4108 INLET CIR, GREENACRES, FL, 33463",115560500,"R"
603142,"4108 JEFFERSON CIRCLE SOUTH","ATLANTA","GA",30341,33.8875186920001,-84.315124026,142,"4108 JEFFERSON CIRCLE SOUTH, ATLANTA, GA, 30341","Match","Exact","4108 JEFFERSON CIR S, ATLANTA, GA, 30341",23401265,"L"
603143,"4108 KALISPELL LN","CHARLOTTE","NC",28269,35.3827880150001,-80.746890185,143,"4108 KALISPELL LN, CHARLOTTE, NC, 28269","Match","Exact","4108 KALISPELL LN, CHARLOTTE, NC, 28269",616614243,"L"
603144,"4108 KILLIGREW DRIVE","SALIDA","CA",95368,37.6978858840001,-121.087056733,144,"4108 KILLIGREW DRIVE, SALIDA, CA, 95368","Match","Exact","4108 KILLIGREW DR, SALIDA, CA, 95368",102622162,"R"
603145,"4108 KIRKMEADOW LN","DALLAS","TX",75287,33.0048803120001,-96.8414489,145,"4108 KIRKMEADOW LN, DALLAS, TX, 75287","Match","Exact","4108 KIRKMEADOW LN, DALLAS, TX, 75287",123483393,"R"
603146,"4108 LAKE GEORGE ROAD","WEST BRANCH","MI",48661,44.216483243,-84.247240624,146,"4108 LAKE GEORGE ROAD, WEST BRANCH, MI, 48661","Match","Exact","4108 LAKE GEORGE RD, WEST BRANCH, MI, 48661",161347539,"L"
603147,"4108 LARK DRIVE","MISSION","TX",75872,26.1888738220001,-98.377314814,147,"4108 LARK DRIVE, MISSION, TX, 75872","Match","Non_Exact","4108 LARK DR, MISSION, TX, 78572",627559562,"L"
603148,"4108 LB PROPST","CONOVER","NC",28613,35.7523192090001,-81.247682482,148,"4108 LB PROPST, CONOVER, NC, 28613","Match","Non_Exact","4108 LB PROPST DR, CONOVER, NC, 28613",45897566,"L"
603149,"4108 LOVELL AVE","FORT WORTH","TX",76107,32.7309180840001,-97.37893382,149,"4108 LOVELL AVE, FORT WORTH, TX, 76107","Match","Exact","4108 LOVELL AVE, FORT WORTH, TX, 76107",101884028,"R"
603150,"4108 MAIDSTONE PLACE","FORT WASHINGTON","MD",20744,38.798883646,-76.936041503,150,"4108 MAIDSTONE PLACE, FORT WASHINGTON, MD, 20744","Match","Exact","4108 MAIDSTONE PL, FT WASHINGTON, MD, 20744",76316523,"L"
603151,"4108 MALTA PL","CHARLOTTE","NC",28215,35.2396539440001,-80.7531299249999,151,"4108 MALTA PL, CHARLOTTE, NC, 28215","Match","Exact","4108 MALTA PL, CHARLOTTE, NC, 28215",70482045,"R"
603152,"4108 MAPLE STREET","OMAHA","NE",68111,41.284764018,-95.97421471,152,"4108 MAPLE STREET, OMAHA, NE, 68111","Match","Exact","4108 MAPLE ST, OMAHA, NE, 68111",116978798,"R"
603153,"4108 MARSH AVE","ROCKFORD","IL",61114,42.297762409,-89.035093788,153,"4108 MARSH AVE, ROCKFORD, IL, 61114","Match","Exact","4108 MARSH AVE, ROCKFORD, IL, 61114",49257810,"L"
603154,"4108 MAYFAIR WAY","PORTSMOUTH","VA",23703,36.880990196,-76.395445122,154,"4108 MAYFAIR WAY, PORTSMOUTH, VA, 23703","Match","Exact","4108 MAYFAIR WAY, PORTSMOUTH, VA, 23703",122197143,"R"
603155,"4108 MERRICK DRIVE","PEACHTREE CITY","GA",30269,33.3986620700001,-84.6035497409999,155,"4108 MERRICK DRIVE, PEACHTREE CITY, GA, 30269","Match","Exact","4108 MERRICK DR, PEACHTREE CITY, GA, 30269",647459277,"R"
603156,"4108 MONTICELLO GARDENS PL 201D","TAMPA","FL",33613,28.074201922,-82.414918762,156,"4108 MONTICELLO GARDENS PL 201D, TAMPA, FL, 33613","Match","Exact","4108 MONTICELLO GARDENS PL, TAMPA, FL, 33613",647459255,"R"
603157,"4108 N 6TH STREET","PHILADELPHIA","PA",19140,40.013952847,-75.137457691,157,"4108 N 6TH STREET, PHILADELPHIA, PA, 19140","Match","Exact","4108 N 6TH ST, PHILADELPHIA, PA, 19140",131417683,"L"
603158,"4108 N 94TH ST","WAUWATOSA","WI",53222,43.0918801610001,-88.0302268249999,158,"4108 N 94TH ST, WAUWATOSA, WI, 53222","Match","Exact","4108 N 94TH ST, WAUWATOSA, WI, 53222",77727777,"R"
603159,"4108 N ALBANY","CHICAGO","IL",60618,41.9560287310001,-87.705643837,159,"4108 N ALBANY, CHICAGO, IL, 60618","Match","Non_Exact","4108 N ALBANY AVE, CHICAGO, IL, 60618",111757156,"L"
603160,"4108 N HIGHLAND AVE","ARLINGTON HTS","IL",60004,42.150011991,-87.986362519,160,"4108 N HIGHLAND AVE, ARLINGTON HTS, IL, 60004","Match","Exact","4108 N HIGHLAND AVE, ARLINGTON HEIGHTS, IL, 60004",111836992,"L"
603161,"4108 N MONROE","PEORIA HEIGHTS","IL",61616,NA,NA,161,"4108 N MONROE, PEORIA HEIGHTS, IL, 61616","No_Match",NA,NA,NA,NA
603162,"4108 N WAINWRIGHT PL","OAK LAWN","IL",60453,41.693175926,-87.7232178639999,162,"4108 N WAINWRIGHT PL, OAK LAWN, IL, 60453","Match","Exact","4108 WAINWRIGHT PL, OAK LAWN, IL, 60453",111819039,"R"
603163,"4108 NAVAHO DRIVE","JOHNSON CITY","TN",37604,36.3729780830001,-82.407328362,163,"4108 NAVAHO DRIVE, JOHNSON CITY, TN, 37604","Match","Exact","4108 NAVAHO DR, JOHNSON CITY, TN, 37604",127937151,"R"
603164,"4108 NEWPORT BAY CT","GRANBURY","TX",76049,32.4113785320001,-97.712727155,164,"4108 NEWPORT BAY CT, GRANBURY, TX, 76049","Match","Exact","4108 NEWPORT BAY CT, GRANBURY, TX, 76049",158792528,"R"
603165,"4108 NIA DR","IRVING","TX",75038,NA,NA,165,"4108 NIA DR, IRVING, TX, 75038","No_Match",NA,NA,NA,NA
603166,"4108 NORCORSS DRIVE","PLANO","TX",75024,33.089090545,-96.77397852,166,"4108 NORCORSS DRIVE, PLANO, TX, 75024","Match","Non_Exact","4108 NORCROSS DR, PLANO, TX, 75024",123556987,"L"
603167,"4108 NORTH 6TH STREET","PHILADELPHIA","PA",19140,40.013950579,-75.137458179,167,"4108 NORTH 6TH STREET, PHILADELPHIA, PA, 19140","Match","Exact","4108 N 6TH ST, PHILADELPHIA, PA, 19140",131417683,"L"
603168,"4108 NORTH BARR AVENUE","OKLAHOMA CITY","OK",73122,35.512976345,-97.606193203,168,"4108 NORTH BARR AVENUE, OKLAHOMA CITY, OK, 73122","Match","Exact","4108 N BARR AVE, OKLAHOMA CITY, OK, 73122",100390943,"R"
603169,"4108 NORTH GREENVIEW AVENUE","CHICAGO","IL",60613,41.956452181,-87.667602383,169,"4108 NORTH GREENVIEW AVENUE, CHICAGO, IL, 60613","Match","Exact","4108 N GREENVIEW AVE, CHICAGO, IL, 60613",111761859,"L"
603170,"4108 OAK DR","VALDOSTA","GA",31605,30.892403755,-83.277103282,170,"4108 OAK DR, VALDOSTA, GA, 31605","Match","Exact","4108 OAK DR, VALDOSTA, GA, 31605",87714304,"R"
603171,"4108 OAK DRIVE","VALDOSTA","GA",31605,30.892403755,-83.277103282,171,"4108 OAK DRIVE, VALDOSTA, GA, 31605","Match","Exact","4108 OAK DR, VALDOSTA, GA, 31605",87714304,"R"
603172,"4108 PATTON ST","MILAN","TN",38358,35.92989277,-88.7662571239999,172,"4108 PATTON ST, MILAN, TN, 38358","Match","Exact","4108 PATTON ST, MILAN, TN, 38358",40824992,"R"
603173,"4108 PEACHTREE AVE","WILMINGTON","NC",28403,34.2130971510001,-77.8939856109999,173,"4108 PEACHTREE AVE, WILMINGTON, NC, 28403","Match","Exact","4108 PEACHTREE AVE, WILMINGTON, NC, 28403",152754271,"R"
603174,"4108 PEARSON DR","WESTFIELD","IN",46062,40.0522352690001,-86.098525264,174,"4108 PEARSON DR, WESTFIELD, IN, 46062","Match","Exact","4108 PEARSON DR, WESTFIELD, IN, 46062",639229271,"R"
603175,"4108 PERDIDO DRIVE APT H","MONTGOMERY","AL",36116,NA,NA,175,"4108 PERDIDO DRIVE APT H, MONTGOMERY, AL, 36116","No_Match",NA,NA,NA,NA
603176,"4108 PIPPO LANE","VACAVILLE","CA",95688,38.421351202,-121.997934409,176,"4108 PIPPO LANE, VACAVILLE, CA, 95688","Match","Exact","4108 PIPPO LN, VACAVILLE, CA, 95688",192584049,"R"
603177,"4108 POND CYPRESS CT","TALLAHASSEE","FL",32312,30.413956786,-84.346081703,177,"4108 POND CYPRESS CT, TALLAHASSEE, FL, 32312","Match","Non_Exact","4108 POND CYPRESS CT, TALLAHASSEE, FL, 32310",82875335,"R"
603178,"4108 PRAIRIE RIDGE ROAD","EAGAN","MN",55123,44.809624554,-93.111935997,178,"4108 PRAIRIE RIDGE ROAD, EAGAN, MN, 55123","Match","Exact","4108 PRAIRIE RIDGE RD, EAGAN, MN, 55123",37932089,"L"
603179,"4108 PRINCE ANDREW LANE","AUSTIN","TX",78730,30.359168246,-97.840925795,179,"4108 PRINCE ANDREW LANE, AUSTIN, TX, 78730","Match","Exact","4108 PRINCE ANDREW LN, AUSTIN, TX, 78730",64059234,"L"
603180,"4108 REGENT AVE N","MINNEAPOLIS","MN",55422,45.0299391190001,-93.3442510419999,180,"4108 REGENT AVE N, MINNEAPOLIS, MN, 55422","Match","Exact","4108 REGENT AVE N, MINNEAPOLIS, MN, 55422",617113554,"R"
603181,"4108 REGENT AVE N","ROBBINSDALE","MN",55422,45.0299391190001,-93.3442510419999,181,"4108 REGENT AVE N, ROBBINSDALE, MN, 55422","Match","Exact","4108 REGENT AVE N, ROBBINSDALE, MN, 55422",617113554,"R"
603182,"4108 RONIS ROAD","PIKESVILLE","MD",21208,39.357317945,-76.7334097679999,182,"4108 RONIS ROAD, PIKESVILLE, MD, 21208","Match","Exact","4108 RONIS RD, PIKESVILLE, MD, 21208",191468545,"L"
603183,"4108 S MARYLAND AVE","CHICAGO","IL",60653,41.820204018,-87.606088947,183,"4108 S MARYLAND AVE, CHICAGO, IL, 60653","Match","Exact","4108 S MARYLAND AVE, CHICAGO, IL, 60653",641798516,"L"
603184,"4108 STEWART AVE","WAUSAU","WI",54401,44.9554484760001,-89.688141888,184,"4108 STEWART AVE, WAUSAU, WI, 54401","Match","Exact","4108 STEWART AVE, WAUSAU, WI, 54401",117135331,"R"
603185,"4108 STONE TRACE DR","LAWRENCEBURG","KY",40342,38.043664748,-84.883813263,185,"4108 STONE TRACE DR, LAWRENCEBURG, KY, 40342","Match","Exact","4108 STONE TRACE DR, LAWRENCEBURG, KY, 40342",634142203,"R"
603186,"4108 STONEROOT DR","HILLIARD","OH",43026,40.038776834,-83.117212754,186,"4108 STONEROOT DR, HILLIARD, OH, 43026","Match","Exact","4108 STONEROOT DR, HILLIARD, OH, 43026",218656183,"L"
603187,"4108 SUMMER OAK DR","SMITHTON","IL",62285,38.368490277,-90.01852518,187,"4108 SUMMER OAK DR, SMITHTON, IL, 62285","Match","Exact","4108 SUMMER OAK DR, SMITHTON, IL, 62285",604570576,"L"
603188,"4108 SUMMERDALE DRIVE","TAMPA","FL",33624,28.10504409,-82.512316004,188,"4108 SUMMERDALE DRIVE, TAMPA, FL, 33624","Match","Exact","4108 SUMMERDALE DR, TAMPA, FL, 33624",104509997,"L"
603189,"4108 THROWBRIDGE RD","YORK","PA",17402,NA,NA,189,"4108 THROWBRIDGE RD, YORK, PA, 17402","No_Match",NA,NA,NA,NA
603190,"4108 TIMBERGLEN CIRCLE","MIDLAND","TX",79707,32.0491665690001,-102.147791087,190,"4108 TIMBERGLEN CIRCLE, MIDLAND, TX, 79707","Match","Exact","4108 TIMBERGLEN CIR, MIDLAND, TX, 79707",640787239,"L"
603191,"4108 VICTORY BLVD","STATEN ISLAND","NY",10314,40.591718143,-74.19062955,191,"4108 VICTORY BLVD, STATEN ISLAND, NY, 10314","Match","Exact","4108 VICTORY BLVD, STATEN ISLAND, NY, 10314",59870594,"L"
603192,"4108 W 21ST ST","CHICAGO","IL",60623,41.853466627,-87.727604518,192,"4108 W 21ST ST, CHICAGO, IL, 60623","Match","Exact","4108 W 21ST ST, CHICAGO, IL, 60623",111799076,"R"
603193,"4108 W 58TH PL","LOS ANGELES","CA",90043,33.9880079060001,-118.346334108,193,"4108 W 58TH PL, LOS ANGELES, CA, 90043","Match","Exact","4108 W 58TH PL, LOS ANGELES, CA, 90043",141654667,"L"
603194,"4108 W 6TH ST","DULUTH","MN",55807,46.7525903850001,-92.15590091,194,"4108 W 6TH ST, DULUTH, MN, 55807","Match","Exact","4108 W 6TH ST, DULUTH, MN, 55807",163213029,"L"
603195,"4108 W FRIENDLY AVE","GREENSBORO","NC",27410,36.0909126130001,-79.86003765,195,"4108 W FRIENDLY AVE, GREENSBORO, NC, 27410","Match","Exact","4108 W FRIENDLY AVE, GREENSBORO, NC, 27410",131090149,"R"
603196,"4108 W GRENSHAW 2","CHICAGO","IL",60624,NA,NA,196,"4108 W GRENSHAW 2, CHICAGO, IL, 60624","No_Match",NA,NA,NA,NA
603197,"4108 W GRENSHAW STREET","CHICAGO","IL",60644,41.867050142,-87.728015732,197,"4108 W GRENSHAW STREET, CHICAGO, IL, 60644","Match","Non_Exact","4108 W GRENSHAW ST, CHICAGO, IL, 60624",111798642,"R"
603198,"4108 W TWIN OAKS ST","BROKEN ARROW","OK",74011,36.011345185,-95.839782473,198,"4108 W TWIN OAKS ST, BROKEN ARROW, OK, 74011","Match","Exact","4108 W TWIN OAKS ST, BROKEN ARROW, OK, 74011",617314828,"R"
603199,"4108 WATERVILLE CT","RAPID CITY","SD",57702,44.019669063,-103.287998569,199,"4108 WATERVILLE CT, RAPID CITY, SD, 57702","Match","Exact","4108 WATERVILLE CT, RAPID CITY, SD, 57702",625443545,"R"
603200,"4108 WATKINS DR","RIVERSIDE","CA",92507,33.9725006800001,-117.316503456,200,"4108 WATKINS DR, RIVERSIDE, CA, 92507","Match","Exact","4108 WATKINS DR, RIVERSIDE, CA, 92507",194746597,"L"
603201,"4108 WEST DICKENS AVE","CHICAGO","IL",60639,41.9189685060001,-87.729398105,201,"4108 WEST DICKENS AVE, CHICAGO, IL, 60639","Match","Exact","4108 W DICKENS AVE, CHICAGO, IL, 60639",605188139,"R"
603202,"4108 WILLOW ROAD","BROOKLYN PARK","MN",55444,NA,NA,202,"4108 WILLOW ROAD, BROOKLYN PARK, MN, 55444","No_Match",NA,NA,NA,NA
603203,"4108 WOODHAVEN LANE","BOWIE","MD",20715,38.990703792,-76.755499045,203,"4108 WOODHAVEN LANE, BOWIE, MD, 20715","Match","Exact","4108 WOODHAVEN LN, BOWIE, MD, 20715",76311443,"L"
603204,"41086 MOONDANCER COURT","ALDIE","VA",20105,38.913323183,-77.582388166,204,"41086 MOONDANCER COURT, ALDIE, VA, 20105","Match","Exact","41086 MOONDANCER CT, ALDIE, VA, 20105",650623387,"L"
603205,"41088 ROBERTS ROAD","CHARLO","MT",59824,47.413825365,-114.226746956,205,"41088 ROBERTS ROAD, CHARLO, MT, 59824","Match","Exact","41088 ROBERTS RD, CHARLO, MT, 59824",624537999,"R"
603206,"4108AMELIA DR","FRED","VA",55408,NA,NA,206,"4108AMELIA DR, FRED, VA, 55408","No_Match",NA,NA,NA,NA
603207,"4109 17 MILE RD","STERLING HEIGHTS","MI",48310,42.579210586,-83.068956379,207,"4109 17 MILE RD, STERLING HEIGHTS, MI, 48310","Match","Exact","4109 17 MILE RD, STERLING HEIGHTS, MI, 48310",110667885,"L"
603208,"4109 21ST AVE","MISSOULA","MT",59801,46.834016836,-114.03051322,208,"4109 21ST AVE, MISSOULA, MT, 59801","Match","Non_Exact","4109 21ST AVE, MISSOULA, MT, 59803",205237766,"R"
603209,"4109 22ND AVE S","MINNEAPOLIS","MN",56071,44.928446352,-93.240988481,209,"4109 22ND AVE S, MINNEAPOLIS, MN, 56071","Match","Non_Exact","4109 22ND AVE S, MINNEAPOLIS, MN, 55407",43639259,"L"
603210,"4109 29TH ST","DES MOINES","IA",50310,41.6349693220001,-93.657694739,210,"4109 29TH ST, DES MOINES, IA, 50310","Match","Exact","4109 29TH ST, DES MOINES, IA, 50310",65779469,"R"
603211,"4109 41ST STREET","SUNNYSIDE","NY",11104,NA,NA,211,"4109 41ST STREET, SUNNYSIDE, NY, 11104","No_Match",NA,NA,NA,NA
603212,"4109 81ST STREET","URBANDALE","IA",50322,41.6347890420001,-93.729823271,212,"4109 81ST STREET, URBANDALE, IA, 50322","Match","Exact","4109 81ST ST, URBANDALE, IA, 50322",65855983,"R"
603213,"4109 ADELPHI LANE","AUSTIN","TX",78727,30.4234433670001,-97.718467603,213,"4109 ADELPHI LANE, AUSTIN, TX, 78727","Match","Exact","4109 ADELPHI LN, AUSTIN, TX, 78727",63926774,"L"
603214,"4109 AVENUE M","GALVESSTON","TX",77550,29.291904731,-94.811897661,214,"4109 AVENUE M, GALVESSTON, TX, 77550","Match","Non_Exact","4109 AVE M, GALVESTON, TX, 77550",96679351,"L"
603215,"4109 AVENUE M","GALVESTON","TX",77550,29.291904731,-94.811897661,215,"4109 AVENUE M, GALVESTON, TX, 77550","Match","Exact","4109 AVE M, GALVESTON, TX, 77550",96679351,"L"
603216,"4109 BAKMAN AVE","STUDIO CITY","CA",91602,34.143009174,-118.377880229,216,"4109 BAKMAN AVE, STUDIO CITY, CA, 91602","Match","Exact","4109 BAKMAN AVE, STUDIO CITY, CA, 91602",141566058,"L"
603217,"4109 BAYSIDE COURT APT 2D","ZION","IL",60099,42.4620382430001,-87.8716000809999,217,"4109 BAYSIDE COURT APT 2D, ZION, IL, 60099","Match","Exact","4109 BAYSIDE CT, ZION, IL, 60099",637317747,"R"
603218,"4109 BENJAMIN AVE APT 1","ROYAL OAK","MI",48073,42.5245427950001,-83.174937562,218,"4109 BENJAMIN AVE APT 1, ROYAL OAK, MI, 48073","Match","Exact","4109 BENJAMIN AVE, ROYAL OAK, MI, 48073",69784597,"L"
603219,"4109 BROADMOOR","THE COLONY","TX",75056,NA,NA,219,"4109 BROADMOOR, THE COLONY, TX, 75056","No_Match",NA,NA,NA,NA
603220,"4109 CAUSEWAY DRIVE","TAMPA","FL",33615,NA,NA,220,"4109 CAUSEWAY DRIVE, TAMPA, FL, 33615","No_Match",NA,NA,NA,NA
603221,"4109 CHAPEL ROAD","GASSAWAY","WV",26624,38.717858323,-80.76681052,221,"4109 CHAPEL ROAD, GASSAWAY, WV, 26624","Match","Exact","4109 CHAPEL RD, GASSAWAY, WV, 26624",635376472,"L"
603222,"4109 CLARKWAY","JACKSON","MI",49201,NA,NA,222,"4109 CLARKWAY, JACKSON, MI, 49201","No_Match",NA,NA,NA,NA
603223,"4109 COBSCOOK DR","DURHAM","NC",27707,35.935887845,-78.9693123599999,223,"4109 COBSCOOK DR, DURHAM, NC, 27707","Match","Exact","4109 COBSCOOK DR, DURHAM, NC, 27707",649325425,"L"
603224,"4109 CORTONA COURT","SAN JOSE","CA",95135,NA,NA,224,"4109 CORTONA COURT, SAN JOSE, CA, 95135","No_Match",NA,NA,NA,NA
603225,"4109 DELMAR DR","PRAIRIE VILLAGE","KS",66208,39.012875319,-94.632398284,225,"4109 DELMAR DR, PRAIRIE VILLAGE, KS, 66208","Match","Exact","4109 DELMAR DR, PRAIRIE VLG, KS, 66208",91278768,"L"
603226,"4109 E 12TH STREET","AUSTIN","WA",78721,NA,NA,226,"4109 E 12TH STREET, AUSTIN, WA, 78721","No_Match",NA,NA,NA,NA
603227,"4109 EASTBURY COURT","N CHARLESTON","SC",29405,32.9311584860001,-80.09689843,227,"4109 EASTBURY COURT, N CHARLESTON, SC, 29405","Match","Non_Exact","4109 EASTBURY CT, N CHARLESTON, SC, 29420",178466181,"L"
603228,"4109 ELDERON AVE","BALTIMORE","MD",21215,39.3417754880001,-76.687403316,228,"4109 ELDERON AVE, BALTIMORE, MD, 21215","Match","Exact","4109 ELDERON AVE, BALTIMORE, MD, 21215",206405138,"L"
603229,"4109 FALL RIDGE DRIVE","COLUMBIA","MO",65203,38.909094048,-92.380529245,229,"4109 FALL RIDGE DRIVE, COLUMBIA, MO, 65203","Match","Exact","4109 FALL RIDGE DR, COLUMBIA, MO, 65203",625571072,"R"
603230,"4109 FALLS ST","HOUSTON","TX",77026,29.7980839520001,-95.3305264539999,230,"4109 FALLS ST, HOUSTON, TX, 77026","Match","Exact","4109 FALLS ST, HOUSTON, TX, 77026",96076422,"L"
603231,"4109 FERGUSON DR  APT210","FORT WORTH","TX",76115,32.685817081,-97.345560032,231,"4109 FERGUSON DR  APT210, FORT WORTH, TX, 76115","Match","Exact","4109 FERGUSON DR, FORT WORTH, TX, 76115",648326086,"L"
603232,"4109 FIREFLY COURT","POCONO LAKE","PA",18347,NA,NA,232,"4109 FIREFLY COURT, POCONO LAKE, PA, 18347","No_Match",NA,NA,NA,NA
603233,"4109 FLORENCE WAY","GLENVIEW","IL",60025,42.068250736,-87.8549652519999,233,"4109 FLORENCE WAY, GLENVIEW, IL, 60025","Match","Exact","4109 FLORENCE WAY, GLENVIEW, IL, 60025",112368302,"L"
603234,"4109 FORREST RD","MT. JOY","PA",17552,40.0614985190001,-76.464652293,234,"4109 FORREST RD, MT. JOY, PA, 17552","Match","Exact","4109 FORREST RD, MOUNT JOY, PA, 17552",179700520,"L"
603235,"4109 GALLATIN RD","NASHVILLE","TN",37216,36.221635538,-86.726390242,235,"4109 GALLATIN RD, NASHVILLE, TN, 37216","Match","Non_Exact","4109 GALLATIN PIKE, NASHVILLE, TN, 37216",97194214,"L"
603236,"4109 GROVE RIDGE DRIVE","DURHAM","NC",27703,35.975348351,-78.812009138,236,"4109 GROVE RIDGE DRIVE, DURHAM, NC, 27703","Match","Exact","4109 GROVE RIDGE DR, DURHAM, NC, 27703",71759709,"L"
603237,"4109 HARVARD AVE","METAIRIE","LA",70006,30.0137726080001,-90.192539459,237,"4109 HARVARD AVE, METAIRIE, LA, 70006","Match","Exact","4109 HARVARD AVE, METAIRIE, LA, 70006",93497320,"R"
603238,"4109 HARVEST LN APT 6","TOLEDO","OH",43623,41.692991385,-83.632938123,238,"4109 HARVEST LN APT 6, TOLEDO, OH, 43623","Match","Exact","4109 HARVEST LN, TOLEDO, OH, 43623",33932222,"L"
603239,"4109 HENRY J MENNINGER WYND","RALEIGH","NC",27612,35.8347880270001,-78.7101001629999,239,"4109 HENRY J MENNINGER WYND, RALEIGH, NC, 27612","Match","Exact","4109 HENRY J MENNINGER WYND, RALEIGH, NC, 27612",72522726,"R"
603240,"4109 HIDDEN ENCLAVE LANE NW","KENNESAW","GA",30152,33.9943931510001,-84.6716565309999,240,"4109 HIDDEN ENCLAVE LANE NW, KENNESAW, GA, 30152","Match","Non_Exact","4109 HIDDEN ENCLAVE LN, KENNESAW, GA, 30152",642999309,"L"
603241,"4109 JOHNSON ST","HOLLYWOOD","FL",33021,26.0181235650001,-80.185276159,241,"4109 JOHNSON ST, HOLLYWOOD, FL, 33021","Match","Exact","4109 JOHNSON ST, HOLLYWOOD, FL, 33021",114717587,"R"
603242,"4109 LAKE COUNTY ROAD 307","COLORADO CITY","TX",79512,NA,NA,242,"4109 LAKE COUNTY ROAD 307, COLORADO CITY, TX, 79512","No_Match",NA,NA,NA,NA
603243,"4109 LOS ANGELES ST","HOUSTON","TX",77026,29.7978807550001,-95.327083827,243,"4109 LOS ANGELES ST, HOUSTON, TX, 77026","Match","Exact","4109 LOS ANGELES ST, HOUSTON, TX, 77026",96076479,"L"
603244,"4109 MEADOW BLUFF WAY","ROUND ROCK","TX",78665,30.566417614,-97.677281423,244,"4109 MEADOW BLUFF WAY, ROUND ROCK, TX, 78665","Match","Exact","4109 MEADOW BLUFF WAY, ROUND ROCK, TX, 78665",634023678,"L"
603245,"4109 MOUNTAINVIEW AVENUE SUITE 100","CHATTANOOGA","TN",37415,NA,NA,245,"4109 MOUNTAINVIEW AVENUE SUITE 100, CHATTANOOGA, TN, 37415","No_Match",NA,NA,NA,NA
603246,"4109 MULLIGAN CIRCLE","BLACKSHEAR","GA",31516,31.2715001,-82.2167923109999,246,"4109 MULLIGAN CIRCLE, BLACKSHEAR, GA, 31516","Match","Exact","4109 MULLIGAN CIR, BLACKSHEAR, GA, 31516",647808742,"R"
603247,"4109 N NARCISSUS AVE","TULSA","OK",74012,36.0931455850001,-95.807649521,247,"4109 N NARCISSUS AVE, TULSA, OK, 74012","Match","Non_Exact","4109 N NARCISSUS AVE, BROKEN ARROW, OK, 74012",166507019,"L"
603248,"4109 N NEWHALL STREET","SHOREWOOD","WI",53211,43.0917913330001,-87.8899344549999,248,"4109 N NEWHALL STREET, SHOREWOOD, WI, 53211","Match","Exact","4109 N NEWHALL ST, SHOREWOOD, WI, 53211",77743221,"L"
603249,"4109 NE 407TH AVE","WASHOUGAL","WA",98671,45.6525309570001,-122.254454484,249,"4109 NE 407TH AVE, WASHOUGAL, WA, 98671","Match","Exact","4109 NE 407TH AVE, WASHOUGAL, WA, 98671",158360506,"R"
603250,"4109 NE 407TH AVENUE","WASHOUGAL","WA",98671,45.6525309570001,-122.254454484,250,"4109 NE 407TH AVENUE, WASHOUGAL, WA, 98671","Match","Exact","4109 NE 407TH AVE, WASHOUGAL, WA, 98671",158360506,"R"
603251,"4109 OAK RIDGE DRIVE","WINSTON SALEM","NC",27105,36.145595519,-80.1993952459999,251,"4109 OAK RIDGE DRIVE, WINSTON SALEM, NC, 27105","Match","Exact","4109 OAK RIDGE DR, WINSTON SALEM, NC, 27105",84612834,"L"
603252,"4109 OBRIANT PL","GREENSBORO","NC",27410,36.136440001,-79.921426609,252,"4109 OBRIANT PL, GREENSBORO, NC, 27410","Match","Exact","4109 OBRIANT PL, GREENSBORO, NC, 27410",131082576,"R"
603253,"4109 OLD FARM DRIVE","CRESTWOOD","KY",40014,38.3327951580001,-85.429398565,253,"4109 OLD FARM DRIVE, CRESTWOOD, KY, 40014","Match","Exact","4109 OLD FARM DR, CRESTWOOD, KY, 40014",130932714,"L"
603254,"4109 OTISCO RD","MARIETTA","NY",13110,NA,NA,254,"4109 OTISCO RD, MARIETTA, NY, 13110","No_Match",NA,NA,NA,NA
603255,"4109 PALOMAR BLVD","LEXINGTON","KY",40513,38.002108569,-84.581164509,255,"4109 PALOMAR BLVD, LEXINGTON, KY, 40513","Match","Exact","4109 PALOMAR BLVD, LEXINGTON, KY, 40513",31931391,"L"
603256,"4109 PANTHER RIDGE LN","PLANO","TX",75074,33.0526752010001,-96.6478195,256,"4109 PANTHER RIDGE LN, PLANO, TX, 75074","Match","Exact","4109 PANTHER RIDGE LN, PLANO, TX, 75074",123553695,"L"
603257,"4109 PROVINCE DRIVE","CARROLLTON","TX",75007,33.023233239,-96.8696733309999,257,"4109 PROVINCE DRIVE, CARROLLTON, TX, 75007","Match","Exact","4109 PROVINCE DR, CARROLLTON, TX, 75007",103354407,"L"
603258,"4109 QUEENS GRANT ROAD","JAMESTOWN","NC",27282,36.009409089,-79.954193155,258,"4109 QUEENS GRANT ROAD, JAMESTOWN, NC, 27282","Match","Exact","4109 QUEENS GRANT RD, JAMESTOWN, NC, 27282",131078120,"L"
603259,"4109 RAMSEY ROAD","YUKON","OK",73099,35.5146999680001,-97.688304783,259,"4109 RAMSEY ROAD, YUKON, OK, 73099","Match","Exact","4109 RAMSEY RD, YUKON, OK, 73099",92575971,"L"
603260,"4109 RAVEN RIDGE DR","WILSON","NC",27896,35.7524219690001,-77.970596499,260,"4109 RAVEN RIDGE DR, WILSON, NC, 27896","Match","Non_Exact","4109 RAVEN RIDGE DR NW, WILSON, NC, 27896",26721334,"R"
603261,"4109 RIVERSTONE DR","SUWANNEE","GA",30024,34.0388737820001,-84.106472718,261,"4109 RIVERSTONE DR, SUWANNEE, GA, 30024","Match","Non_Exact","4109 RIVERSTONE DR, SUWANEE, GA, 30024",647945059,"R"
603262,"4109 S BROADWAY AVE","SPRINGFIELD","MO",65807,37.1396221480001,-93.3048441299999,262,"4109 S BROADWAY AVE, SPRINGFIELD, MO, 65807","Match","Exact","4109 S BROADWAY AVE, SPRINGFIELD, MO, 65807",76676818,"R"
603263,"4109 S GARFIELD ST","SPOKANE","WA",99203,47.616499031,-117.397715435,263,"4109 S GARFIELD ST, SPOKANE, WA, 99203","Match","Exact","4109 S GARFIELD ST, SPOKANE, WA, 99203",189881468,"L"
603264,"4109 S HARRISON ST","FORT WAYNE","IN",46807,41.0474079850001,-85.138800636,264,"4109 S HARRISON ST, FORT WAYNE, IN, 46807","Match","Exact","4109 S HARRISON ST, FORT WAYNE, IN, 46807",6382465,"L"
603265,"4109 S KY RT 321","HAGERHILL","KY",41222,37.785046574,-82.800613869,265,"4109 S KY RT 321, HAGERHILL, KY, 41222","Match","Exact","4109 STATE RTE 321, HAGERHILL, KY, 41222",33672375,"L"
603266,"4109 S ROME ST","AURORA","CO",80018,39.642469991,-104.730024707,266,"4109 S ROME ST, AURORA, CO, 80018","Match","Exact","4109 S ROME ST, AURORA, CO, 80018",177532837,"L"
603267,"4109 S STATELINE AVE","TEXARKANA","AR",71854,33.377807927,-94.043054949,267,"4109 S STATELINE AVE, TEXARKANA, AR, 71854","Match","Non_Exact","4109 S STATE LINE RD, TEXARKANA, AR, 71854",633343274,"R"
603268,"4109 S YAKIMA AVE","TACOMA","WA",98418,47.2197707820001,-122.443342427,268,"4109 S YAKIMA AVE, TACOMA, WA, 98418","Match","Exact","4109 S YAKIMA AVE, TACOMA, WA, 98418",184625915,"L"
603269,"4109 SCHILLER AVE","CLEVELAND","OH",44109,41.430542169,-81.712773254,269,"4109 SCHILLER AVE, CLEVELAND, OH, 44109","Match","Exact","4109 SCHILLER AVE, CLEVELAND, OH, 44109",61116154,"L"
603270,"4109 SE 89TH TERRACE","OKLAHOMA CITY","OK",73135,35.3772903390001,-97.4440033659999,270,"4109 SE 89TH TERRACE, OKLAHOMA CITY, OK, 73135","Match","Non_Exact","4109 SE 89TH ST, OKLAHOMA CITY, OK, 73135",624882164,"L"
603271,"4109 SE HOWE STREET","MILWAUKIE","OR",97222,45.452924943,-122.621109256,271,"4109 SE HOWE STREET, MILWAUKIE, OR, 97222","Match","Exact","4109 SE HOWE ST, MILWAUKIE, OR, 97222",157914498,"L"
603272,"4109 SE RURAL STREET","PORTLAND","OR",97202,45.4718981840001,-122.620823452,272,"4109 SE RURAL STREET, PORTLAND, OR, 97202","Match","Exact","4109 SE RURAL ST, PORTLAND, OR, 97202",157515522,"L"
603273,"4109 SHADY BROOK PASS","COLLEGE STATION","TX",77845,30.5262192370001,-96.290832988,273,"4109 SHADY BROOK PASS, COLLEGE STATION, TX, 77845","Match","Exact","4109 SHADY BROOK PASS, COLLEGE STATION, TX, 77845",650184899,"L"
603274,"4109 SONATA","HOWELL","MI",48843,42.6184129580001,-83.870030877,274,"4109 SONATA, HOWELL, MI, 48843","Match","Non_Exact","4109 SONATA DR, HOWELL, MI, 48843",614124167,"L"
603275,"4109 ST CHARLES BAY","SAN ANTONIO","TX",78229,29.5246558040001,-98.564932562,275,"4109 ST CHARLES BAY, SAN ANTONIO, TX, 78229","Match","Exact","4109 ST CHARLES BAY, SAN ANTONIO, TX, 78229",101757662,"R"
603276,"4109 T L FERGUSON DRIVE 217","FORT WORTH","TX",76115,32.685817081,-97.345560032,276,"4109 T L FERGUSON DRIVE 217, FORT WORTH, TX, 76115","Match","Exact","4109 FERGUSON DR, FORT WORTH, TX, 76115",648326086,"L"
603277,"4109 TARRANT TRACE CIRCLE","HIGH POINT","NC",27265,36.0405931620001,-79.9452404689999,277,"4109 TARRANT TRACE CIRCLE, HIGH POINT, NC, 27265","Match","Exact","4109 TARRANT TRACE CIR, HIGH POINT, NC, 27265",131098223,"R"
603278,"4109 TYNDRUM DRIVE","DURHAM","NC",27705,36.012650706,-78.9823875609999,278,"4109 TYNDRUM DRIVE, DURHAM, NC, 27705","Match","Exact","4109 TYNDRUM DR, DURHAM, NC, 27705",71756344,"R"
603279,"4109 TYNES DR","GARLAND","TX",75042,32.9270763650001,-96.694259356,279,"4109 TYNES DR, GARLAND, TX, 75042","Match","Exact","4109 TYNES DR, GARLAND, TX, 75042",102916016,"R"
603280,"4109 VALENCIA ROAD","CHESAPEAKE","VA",23321,36.8109304760001,-76.413704389,280,"4109 VALENCIA ROAD, CHESAPEAKE, VA, 23321","Match","Exact","4109 VALENCIA RD, CHESAPEAKE, VA, 23321",121768490,"R"
603281,"4109 VIA MARINA","MARINA DEL REY","CA",90092,33.9818418580001,-118.46039598,281,"4109 VIA MARINA, MARINA DEL REY, CA, 90092","Match","Non_Exact","4109 VIA MARINA, MARINA DEL REY, CA, 90292",650064806,"R"
603282,"4109 VILLAGE GREEN DR","IRVING","TX",75038,32.8589503530001,-96.979055779,282,"4109 VILLAGE GREEN DR, IRVING, TX, 75038","Match","Exact","4109 VILLAGE GREEN DR, IRVING, TX, 75038",103203062,"L"
603283,"4109 W 183RD ST","TORRANCE","CA",90504,33.8648327810001,-118.34601838,283,"4109 W 183RD ST, TORRANCE, CA, 90504","Match","Exact","4109 183RD ST, TORRANCE, CA, 90504",141664329,"R"
603284,"4109 W LYDIA LN","LEVEEN","AZ",85339,NA,NA,284,"4109 W LYDIA LN, LEVEEN, AZ, 85339","No_Match",NA,NA,NA,NA
603285,"4109 W WILCOX","CHICAGO","IL",60624,41.8788325140001,-87.7284261569999,285,"4109 W WILCOX, CHICAGO, IL, 60624","Match","Non_Exact","4109 W WILCOX ST, CHICAGO, IL, 60624",111765798,"L"
603286,"4109 WASHINGTON ST","BOSTON","MA",2131,42.289625287,-71.12474443,286,"4109 WASHINGTON ST, BOSTON, MA, 2131","Match","Exact","4109 WASHINGTON ST, BOSTON, MA, 02131",85741721,"R"
603287,"4109 WATERPROOF DRIVE","KILLEEN","TX",76549,31.101264245,-97.786988923,287,"4109 WATERPROOF DRIVE, KILLEEN, TX, 76549","Match","Exact","4109 WATERPROOF DR, KILLEEN, TX, 76549",146175808,"L"
603288,"4109 WEST SAN PEDRO STREET","TAMPA","FL",33629,27.917759419,-82.5125044609999,288,"4109 WEST SAN PEDRO STREET, TAMPA, FL, 33629","Match","Exact","4109 W SAN PEDRO ST, TAMPA, FL, 33629",104638927,"R"
603289,"4109 WOODBERRY STREET","UNIVERSITY PARK","MD",20782,38.976313637,-76.946247399,289,"4109 WOODBERRY STREET, UNIVERSITY PARK, MD, 20782","Match","Exact","4109 WOODBERRY ST, UNIVERSITY PARK, MD, 20782",76304906,"R"
603290,"4109 WOODCHUCK COURT","CINCINNATI","OH",45251,39.2403430360001,-84.609063658,290,"4109 WOODCHUCK COURT, CINCINNATI, OH, 45251","Match","Exact","4109 WOODCHUCK CT, CINCINNATI, OH, 45251",103915145,"R"
603291,"4109 WOODVIEW DRIVE","BETTENDORF","IA",52722,41.537461325,-90.476174767,291,"4109 WOODVIEW DRIVE, BETTENDORF, IA, 52722","Match","Exact","4109 WOODVIEW DR, BETTENDORF, IA, 52722",122717032,"R"
603292,"41090 AVENIDA VERDE","TEMECULA","CA",92591,33.523522148,-117.137225989,292,"41090 AVENIDA VERDE, TEMECULA, CA, 92591","Match","Exact","41090 AVE VERDE, TEMECULA, CA, 92591",194714852,"R"
603293,"41090 DRISCOLL TERRACE","FREMONT","CA",94539,37.5472226960001,-121.94267266,293,"41090 DRISCOLL TERRACE, FREMONT, CA, 94539","Match","Exact","41090 DRISCOLL TER, FREMONT, CA, 94539",617582881,"L"
603294,"41096 LAMBORN DRIVE","PAONIA","CO",81428,38.8592563780001,-107.589539601,294,"41096 LAMBORN DRIVE, PAONIA, CO, 81428","Match","Exact","41096 LAMBORN DR, PAONIA, CO, 81428",122361809,"R"
603295,"41098 RUSTLING OAK DRIVE","PRAIRIEVILLE","LA",70769,30.3089796420001,-90.9185667959999,295,"41098 RUSTLING OAK DRIVE, PRAIRIEVILLE, LA, 70769","Match","Exact","41098 RUSTLING OAK DR, PRAIRIEVILLE, LA, 70769",115043782,"L"
603296,"41099 W ARAVAIPA CANYON RD","WILLCOX","AZ",85643,32.8690495320001,-110.370294065,296,"41099 W ARAVAIPA CANYON RD, WILLCOX, AZ, 85643","Match","Exact","41099 ARAVAIPA CANYON RD, WILLCOX, AZ, 85643",128061239,"L"
603297,"410A CARROLL ST","ORANGE","NC",7050,NA,NA,297,"410A CARROLL ST, ORANGE, NC, 7050","No_Match",NA,NA,NA,NA
603298,"410A HANCOCK ST APT 2","BROOKLYN","NY",11216,40.683760869,-73.9393369869999,298,"410A HANCOCK ST APT 2, BROOKLYN, NY, 11216","Match","Exact","410 HANCOCK ST, BROOKLYN, NY, 11216",652211677,"R"
603299,"410BRYAN ST","SUMMERVILLE","SC",29483,NA,NA,299,"410BRYAN ST, SUMMERVILLE, SC, 29483","No_Match",NA,NA,NA,NA
603300,"410LIBERTY STREET","DURHAM","NC",27701,NA,NA,300,"410LIBERTY STREET, DURHAM, NC, 27701","No_Match",NA,NA,NA,NA
603301,"410N WESTERN AVE","MACOMB","IL",61455,NA,NA,301,"410N WESTERN AVE, MACOMB, IL, 61455","No_Match",NA,NA,NA,NA
603302,"410SUNRIDGE RD","BERKELEY SPRINGS","WV",25411,NA,NA,302,"410SUNRIDGE RD, BERKELEY SPRINGS, WV, 25411","No_Match",NA,NA,NA,NA
603303,"411 1/2 LAREINE AVE","BRADLEY BEACH","NJ",7720,40.2033314280001,-74.0128662389999,303,"411 1/2 LAREINE AVE, BRADLEY BEACH, NJ, 7720","Match","Exact","411 LAREINE AVE, BRADLEY BEACH, NJ, 07720",90464491,"L"
603304,"411 1/2 N GREEN ST","MORGANTON","NC",28655,35.7482011700001,-81.694350772,304,"411 1/2 N GREEN ST, MORGANTON, NC, 28655","Match","Exact","411 N GREEN ST, MORGANTON, NC, 28655",37160887,"L"
603305,"411 10TH AVE S","NAMPA","ID",83651,43.5778274620001,-116.564974041,305,"411 10TH AVE S, NAMPA, ID, 83651","Match","Exact","411 10TH AVE S, NAMPA, ID, 83651",122786958,"L"
603306,"411 10TH ST SW","WADENA","MN",56482,46.440687704,-95.152456932,306,"411 10TH ST SW, WADENA, MN, 56482","Match","Exact","411 10TH ST SW, WADENA, MN, 56482",168423002,"L"
603307,"411 11TH ST NW","MANDAN","ND",58554,46.8365896000001,-100.897547966,307,"411 11TH ST NW, MANDAN, ND, 58554","Match","Exact","411 11TH ST NW, MANDAN, ND, 58554",199014210,"L"
603308,"411 12TH AVE STE 200","SEATTLE","WA",98122,47.605353687,-122.31678926,308,"411 12TH AVE STE 200, SEATTLE, WA, 98122","Match","Exact","411 12TH AVE, SEATTLE, WA, 98122",186592608,"L"
603309,"411 14TH AVE N","SURFSIDE BEACH","SC",29575,33.6176513250001,-78.965845638,309,"411 14TH AVE N, SURFSIDE BEACH, SC, 29575","Match","Exact","411 14TH AVE N, SURFSIDE BCH, SC, 29575",636586470,"L"
603310,"411 188TH ST NE","SMITHVILLE","MO",64089,NA,NA,310,"411 188TH ST NE, SMITHVILLE, MO, 64089","No_Match",NA,NA,NA,NA
603311,"411 1ST AVE","GRINNELL","IA",50112,41.7388780360001,-92.731466843,311,"411 1ST AVE, GRINNELL, IA, 50112","Match","Exact","411 1ST AVE, GRINNELL, IA, 50112",89574267,"R"
603312,"411 1ST AVE","SELAH","WA",98942,NA,NA,312,"411 1ST AVE, SELAH, WA, 98942","No_Match",NA,NA,NA,NA
603313,"411 21ST AVE SOUTH","NASHVILLE","TN",37240,36.147697152,-86.799347852,313,"411 21ST AVE SOUTH, NASHVILLE, TN, 37240","Match","Exact","411 21ST AVE S, NASHVILLE, TN, 37240",606811130,"R"
603314,"411 21ST AVENUE SOUTH","NASHVILLE","TN",37240,36.147697152,-86.799347852,314,"411 21ST AVENUE SOUTH, NASHVILLE, TN, 37240","Match","Exact","411 21ST AVE S, NASHVILLE, TN, 37240",606811130,"R"
603315,"411 36TH ST UNIT 7393","FORT GORDON","GA",30905,NA,NA,315,"411 36TH ST UNIT 7393, FORT GORDON, GA, 30905","No_Match",NA,NA,NA,NA
603316,"411 37TH STREET","BROOKLYN","NY",11232,40.653536688,-74.0046215409999,316,"411 37TH STREET, BROOKLYN, NY, 11232","Match","Exact","411 37TH ST, BROOKLYN, NY, 11232",59093998,"L"
603317,"411 3RD AVENUE","NEWTOWN","PA",19073,39.9781092760001,-75.391261059,317,"411 3RD AVENUE, NEWTOWN, PA, 19073","Match","Non_Exact","411 3RD AVE, NEWTOWN SQ, PA, 19073",134867819,"L"
603318,"411 3RD ST W","VELVA","ND",58790,48.0612689430001,-100.932594162,318,"411 3RD ST W, VELVA, ND, 58790","Match","Exact","411 3RD ST W, VELVA, ND, 58790",199842900,"R"
603319,"411 43RD STREET","MOLINE","IL",61264,41.5118501760001,-90.477123314,319,"411 43RD STREET, MOLINE, IL, 61264","Match","Non_Exact","411 43RD ST, MOLINE, IL, 61265",9213576,"R"
603320,"411 48TH STREET","OAKLAND","CA",94609,37.834316421,-122.259169696,320,"411 48TH STREET, OAKLAND, CA, 94609","Match","Exact","411 48TH ST, OAKLAND, CA, 94609",125000108,"L"
603321,"411 4TH AVE","EAST NORTHPORT","NY",11731,40.869755039,-73.328085313,321,"411 4TH AVE, EAST NORTHPORT, NY, 11731","Match","Exact","411 4TH AVE, E NORTHPORT, NY, 11731",113965495,"L"
603322,"411 4TH STREET S","FISHER","MN",56723,47.797652226,-96.795702089,322,"411 4TH STREET S, FISHER, MN, 56723","Match","Exact","411 4TH ST S, FISHER, MN, 56723",171415758,"L"
603323,"411 4TH STREET","DANUBE","MN",56230,44.792122485,-95.102010798,323,"411 4TH STREET, DANUBE, MN, 56230","Match","Exact","411 4TH ST, DANUBE, MN, 56230",34052704,"L"
603324,"411 4TH STREET","MONESSEN","PA",15062,40.1587514880001,-79.884983377,324,"411 4TH STREET, MONESSEN, PA, 15062","Match","Exact","411 4TH ST, MONESSEN, PA, 15062",52958855,"R"
603325,"411 4TH","CASTLE ROCK","CO",80104,39.3733124070001,-104.858502693,325,"411 4TH, CASTLE ROCK, CO, 80104","Match","Non_Exact","411 4TH ST, CASTLE ROCK, CO, 80104",130851192,"L"
603326,"411 56TH STREET","DES MOINES","IA",50312,41.5833472520001,-93.6937513,326,"411 56TH STREET, DES MOINES, IA, 50312","Match","Exact","411 56TH ST, DES MOINES, IA, 50312",65853108,"R"
603327,"411 6TH STREET","CARROLLTON","KY",41008,38.678334905,-85.177799673,327,"411 6TH STREET, CARROLLTON, KY, 41008","Match","Exact","411 6TH ST, CARROLLTON, KY, 41008",65120096,"R"
603328,"411 6TH STREET","COLUMBUS","IN",47201,39.2044379280001,-85.920957782,328,"411 6TH STREET, COLUMBUS, IN, 47201","Match","Exact","411 6TH ST, COLUMBUS, IN, 47201",30970430,"R"
603329,"411 6TH STREET","TIFTON","GA",31794,NA,NA,329,"411 6TH STREET, TIFTON, GA, 31794","Tie",NA,NA,NA,NA
603330,"411 7TH AVENUE","FOX ISLAND","WA",98333,47.2640476890001,-122.631877105,330,"411 7TH AVENUE, FOX ISLAND, WA, 98333","Match","Exact","411 7TH AVE, FOX ISLAND, WA, 98333",638569895,"L"
603331,"411 7TH STREET NW APT 223","GRAND RAPIDS","MN",55744,47.2361133810001,-93.5389373629999,331,"411 7TH STREET NW APT 223, GRAND RAPIDS, MN, 55744","Match","Non_Exact","411 7TH AVE NW, GRAND RAPIDS, MN, 55744",162932294,"L"
603332,"411 82 TERRACE APT 1","MIAMI","FL",33141,25.867624474,-80.1232014139999,332,"411 82 TERRACE APT 1, MIAMI, FL, 33141","Match","Exact","411 82ND TER, MIAMI, FL, 33141",116009143,"R"
603333,"411 8TH STREET","WEST PALM BEACH","FL",33401,26.7207081500001,-80.0536579179999,333,"411 8TH STREET, WEST PALM BEACH, FL, 33401","Match","Exact","411 8TH ST, WEST PALM BEACH, FL, 33401",115528715,"R"
603334,"411 9TH STREET NORTH","WISCONSIN RAPIDS","WI",54494,44.3918380060001,-89.815806622,334,"411 9TH STREET NORTH, WISCONSIN RAPIDS, WI, 54494","Match","Exact","411 9TH ST N, WISCONSIN RAPIDS, WI, 54494",51285778,"L"
603335,"411 ABIGAIL ST","RIDGECREST","CA",93555,35.6164940420001,-117.690548755,335,"411 ABIGAIL ST, RIDGECREST, CA, 93555","Match","Non_Exact","411 ABIGAIL VST, RIDGECREST, CA, 93555",624423832,"R"
603336,"411 ADAMS STREET NW","WASHINGTON","DC",20001,NA,NA,336,"411 ADAMS STREET NW, WASHINGTON, DC, 20001","No_Match",NA,NA,NA,NA
603337,"411 ALEXANDER AVE 411 ALEXANDER AVE","LARKSPUR","CA",94939,37.9297280330001,-122.529353567,337,"411 ALEXANDER AVE 411 ALEXANDER AVE, LARKSPUR, CA, 94939","Match","Exact","411 ALEXANDER AVE, LARKSPUR, CA, 94939",192766120,"R"
603338,"411 ALEXANDER AVE","LARKSPUR","CA",94939,37.9297280330001,-122.529353567,338,"411 ALEXANDER AVE, LARKSPUR, CA, 94939","Match","Exact","411 ALEXANDER AVE, LARKSPUR, CA, 94939",192766120,"R"
603339,"411 ALEXANDER AVENUE","LARKSPUR","CA",94939,37.9297280330001,-122.529353567,339,"411 ALEXANDER AVENUE, LARKSPUR, CA, 94939","Match","Exact","411 ALEXANDER AVE, LARKSPUR, CA, 94939",192766120,"R"
603340,"411 ALEXIA LA","YORKTOWN","VA",23690,37.235811735,-76.534453594,340,"411 ALEXIA LA, YORKTOWN, VA, 23690","Match","Exact","411 ALEXIA LN, YORKTOWN, VA, 23690",103789339,"L"
603341,"411 ALLIANCE APT 7304","MANSFIELD","TX",75165,NA,NA,341,"411 ALLIANCE APT 7304, MANSFIELD, TX, 75165","No_Match",NA,NA,NA,NA
603342,"411 ANKENY ST","WATERLOO","IA",50703,42.512461484,-92.334739492,342,"411 ANKENY ST, WATERLOO, IA, 50703","Match","Exact","411 ANKENY ST, WATERLOO, IA, 50703",77252548,"L"
603343,"411 ANNETTE AVENUE","STEVENSVILLE","MD",21666,38.914692857,-76.3605873019999,343,"411 ANNETTE AVENUE, STEVENSVILLE, MD, 21666","Match","Exact","411 ANNETTE AVE, STEVENSVILLE, MD, 21666",68050813,"R"
603344,"411 ANNEX AVE APT C4","NASHVILLE","TN",37209,36.144247535,-86.889414765,344,"411 ANNEX AVE APT C4, NASHVILLE, TN, 37209","Match","Exact","411 ANNEX AVE, NASHVILLE, TN, 37209",97179597,"L"
603345,"411 ANNEX AVENUE C4","NASHVILLE","TN",37209,36.144247535,-86.889414765,345,"411 ANNEX AVENUE C4, NASHVILLE, TN, 37209","Match","Exact","411 ANNEX AVE, NASHVILLE, TN, 37209",97179597,"L"
603346,"411 ANSLEY COURT","MT PLEASANT","SC",29464,32.8342388410001,-79.8673452629999,346,"411 ANSLEY COURT, MT PLEASANT, SC, 29464","Match","Exact","411 ANSLEY CT, MOUNT PLEASANT, SC, 29464",108829405,"L"
603347,"411 ANTIOCH ROAD","FRANKLIN","GA",30217,33.3830050440001,-85.239970237,347,"411 ANTIOCH ROAD, FRANKLIN, GA, 30217","Match","Exact","411 ANTIOCH RD, FRANKLIN, GA, 30217",9414139,"R"
603348,"411 APOLLO DRIVE","MURFREESBORO","TN",37130,35.8374490750001,-86.361629426,348,"411 APOLLO DRIVE, MURFREESBORO, TN, 37130","Match","Exact","411 APOLLO DR, MURFREESBORO, TN, 37130",636575447,"R"
603349,"411 APPLE GROVE ROAD","SILVER SPRING","MD",20904,39.046385279,-77.0010318069999,349,"411 APPLE GROVE ROAD, SILVER SPRING, MD, 20904","Match","Exact","411 APPLE GROVE RD, SILVER SPRING, MD, 20904",641074657,"R"
603350,"411 ARGONNE DRIVE","DURHAM","NC",27704,36.0598323670001,-78.907965339,350,"411 ARGONNE DRIVE, DURHAM, NC, 27704","Match","Exact","411 ARGONNE DR, DURHAM, NC, 27704",71735726,"L"
603351,"411 ARKANSAS AVE","HERNDON","VA",20170,38.9622065680001,-77.3967599229999,351,"411 ARKANSAS AVE, HERNDON, VA, 20170","Match","Exact","411 ARKANSAS AVE, HERNDON, VA, 20170",75956502,"L"
603352,"411 ARNOLD LN","BROOKINGS","OR",97415,42.0532823080001,-124.295423437,352,"411 ARNOLD LN, BROOKINGS, OR, 97415","Match","Exact","411 ARNOLD LN, BROOKINGS, OR, 97415",137124745,"R"
603353,"411 ASHLAND AVENUE 5B","OAK PARK","IL",60305,41.8872110410001,-87.8161166419999,353,"411 ASHLAND AVENUE 5B, OAK PARK, IL, 60305","Match","Non_Exact","411 ASHLAND AVE, RIVER FOREST, IL, 60305",111749528,"R"
603354,"411 ATHENS STREET","SAN FRANCISCO","CA",94112,37.7213790540001,-122.42861671,354,"411 ATHENS STREET, SAN FRANCISCO, CA, 94112","Match","Exact","411 ATHENS ST, SAN FRANCISCO, CA, 94112",192287003,"L"
603355,"411 AUDREY ST","WHITEHOUSE","TX",75791,32.23137748,-95.220190873,355,"411 AUDREY ST, WHITEHOUSE, TX, 75791","Match","Exact","411 AUDREY ST, WHITEHOUSE, TX, 75791",141299385,"L"
603356,"411 AVON AVE N","AVON","MN",56310,45.6134838450001,-94.44948663,356,"411 AVON AVE N, AVON, MN, 56310","Match","Exact","411 AVON AVE N, AVON, MN, 56310",636253370,"L"
603357,"411 B AVE","COLUMBIA","SC",29169,33.9900012580001,-81.057254701,357,"411 B AVE, COLUMBIA, SC, 29169","Match","Non_Exact","411 B AVE, WEST COLUMBIA, SC, 29169",70056213,"L"
603358,"411 BANGS STREET","AURORA","IL",60505,41.747896256,-88.303015579,358,"411 BANGS STREET, AURORA, IL, 60505","Match","Exact","411 BANGS ST, AURORA, IL, 60505",640204565,"R"
603359,"411 BARROILHET AVE","SAN MATEO","CA",94402,37.5714047010001,-122.34851726,359,"411 BARROILHET AVE, SAN MATEO, CA, 94402","Match","Exact","411 BARROILHET AVE, SAN MATEO, CA, 94402",192376933,"L"
603360,"411 BASTROP DR","ALLEN","TX",75013,33.104116553,-96.7270973179999,360,"411 BASTROP DR, ALLEN, TX, 75013","Match","Exact","411 BASTROP DR, ALLEN, TX, 75013",627307490,"L"
603361,"411 BAYOU BLUE RD","HOUMA","LA",70364,NA,NA,361,"411 BAYOU BLUE RD, HOUMA, LA, 70364","No_Match",NA,NA,NA,NA
603362,"411 BAYOU BLUE ROAD","HOUMA","LA",70364,NA,NA,362,"411 BAYOU BLUE ROAD, HOUMA, LA, 70364","No_Match",NA,NA,NA,NA
603363,"411 BEACH AVENUE","CAPE MAY","NJ",8210,NA,NA,363,"411 BEACH AVENUE, CAPE MAY, NJ, 8210","No_Match",NA,NA,NA,NA
603364,"411 BEAVER DAM ROAD","SPRING MILLS","PA",16875,40.850612282,-77.523818305,364,"411 BEAVER DAM ROAD, SPRING MILLS, PA, 16875","Match","Exact","411 BEAVER DAM RD, SPRING MILLS, PA, 16875",632938522,"L"
603365,"411 BECKY ALLEN CIRCLE","RAINBOW CITY","AL",35906,33.9400708060001,-86.0514662589999,365,"411 BECKY ALLEN CIRCLE, RAINBOW CITY, AL, 35906","Match","Exact","411 BECKY ALLEN CIR, RAINBOW CITY, AL, 35906",66769829,"R"
603366,"411 BEEBE AVENUE","ELYRIA","OH",44035,41.384672483,-82.0813481759999,366,"411 BEEBE AVENUE, ELYRIA, OH, 44035","Match","Exact","411 BEEBE AVE, ELYRIA, OH, 44035",55409556,"R"
603367,"411 BILTMORE WAY","LAFAYETTE","LA",70508,30.1716461660001,-92.044712061,367,"411 BILTMORE WAY, LAFAYETTE, LA, 70508","Match","Exact","411 BILTMORE WAY, LAFAYETTE, LA, 70508",628653315,"L"
603368,"411 BLAINE STREET","CALDWELL","ID",83605,43.6676814960001,-116.692915697,368,"411 BLAINE STREET, CALDWELL, ID, 83605","Match","Exact","411 BLAINE ST, CALDWELL, ID, 83605",122780260,"R"
603369,"411 BLAIR AVE","ST PAUL","MN",55103,44.9611714970001,-93.117412862,369,"411 BLAIR AVE, ST PAUL, MN, 55103","Match","Non_Exact","411 W BLAIR AVE, SAINT PAUL, MN, 55103",97644161,"R"
603370,"411 BLUE HERONE BLVD","W VIERABEACH","FL",33404,NA,NA,370,"411 BLUE HERONE BLVD, W VIERABEACH, FL, 33404","No_Match",NA,NA,NA,NA
603371,"411 BLUEGRASS COURT","SMYRNA","TN",37167,35.9350090360001,-86.545907139,371,"411 BLUEGRASS COURT, SMYRNA, TN, 37167","Match","Exact","411 BLUEGRASS CT, SMYRNA, TN, 37167",59026208,"R"
603372,"411 BRAZOS 101","AUSTIN","TX",78701,30.2659876860001,-97.7420904589999,372,"411 BRAZOS 101, AUSTIN, TX, 78701","Match","Non_Exact","411 BRAZOS ST, AUSTIN, TX, 78701",63943465,"R"
603373,"411 BRAZOS STREET STE 99","AUSTIN","TX",78701,30.2659876860001,-97.7420904589999,373,"411 BRAZOS STREET STE 99, AUSTIN, TX, 78701","Match","Exact","411 BRAZOS ST, AUSTIN, TX, 78701",63943465,"R"
603374,"411 BRENTWOOD BLVD","ALTON","IL",62002,38.9137725900001,-90.177562258,374,"411 BRENTWOOD BLVD, ALTON, IL, 62002","Match","Exact","411 BRENTWOOD BLVD, ALTON, IL, 62002",640581144,"R"
603375,"411 BRICKINGHAM WAY","COLUMBIA","SC",29229,34.148150571,-80.902018915,375,"411 BRICKINGHAM WAY, COLUMBIA, SC, 29229","Match","Exact","411 BRICKINGHAM WAY, COLUMBIA, SC, 29229",632533100,"L"
603376,"411 BROADWAY AVE","DALLAS","TX",75212,NA,NA,376,"411 BROADWAY AVE, DALLAS, TX, 75212","No_Match",NA,NA,NA,NA
603377,"411 BROADWAY STREET","DIAGONAL","IA",50845,40.809546615,-94.3395317439999,377,"411 BROADWAY STREET, DIAGONAL, IA, 50845","Match","Exact","411 BROADWAY ST, DIAGONAL, IA, 50845",81400116,"R"
603378,"411 BROADWAY STREET","PETALUMA","CA",94952,38.2285766090001,-122.649593073,378,"411 BROADWAY STREET, PETALUMA, CA, 94952","Match","Exact","411 BROADWAY ST, PETALUMA, CA, 94952",67477695,"R"
603379,"411 BROADWAY","DIAGONAL","IA",50845,40.809546615,-94.3395317439999,379,"411 BROADWAY, DIAGONAL, IA, 50845","Match","Non_Exact","411 BROADWAY ST, DIAGONAL, IA, 50845",81400116,"R"
603380,"411 BRONX RIVER ROAD 3F","YONKERS","NY",10704,40.913264365,-73.8514251509999,380,"411 BRONX RIVER ROAD 3F, YONKERS, NY, 10704","Match","Exact","411 BRONX RIVER RD, YONKERS, NY, 10704",611228049,"L"
603381,"411 BROOKWOOD LANE","WHITE OAK","TX",75693,32.5414028070001,-94.869948737,381,"411 BROOKWOOD LANE, WHITE OAK, TX, 75693","Match","Non_Exact","411 W BROOKWOOD LN, WHITE OAK, TX, 75693",647935985,"R"
603382,"411 BROWNING ROAD","GAFFNEY","SC",29341,35.0733371590001,-81.6710109749999,382,"411 BROWNING ROAD, GAFFNEY, SC, 29341","Match","Exact","411 BROWNING RD, GAFFNEY, SC, 29341",19002515,"R"
603383,"411 BRUNEL ST","WAYCROSS","GA",31501,31.207814349,-82.3577004959999,383,"411 BRUNEL ST, WAYCROSS, GA, 31501","Match","Exact","411 BRUNEL ST, WAYCROSS, GA, 31501",5238040,"R"
603384,"411 BRUNEL STREET","WAYCROSS","GA",31501,31.207814349,-82.3577004959999,384,"411 BRUNEL STREET, WAYCROSS, GA, 31501","Match","Exact","411 BRUNEL ST, WAYCROSS, GA, 31501",5238040,"R"
603385,"411 BRUNSWICK DRIVE","TROY","NY",12180,42.7491826200001,-73.6398113549999,385,"411 BRUNSWICK DRIVE, TROY, NY, 12180","Match","Exact","411 BRUNSWICK DR, TROY, NY, 12180",635571755,"R"
603386,"411 BURDICK MEDBURY ROAD","NORWICH","NY",13815,42.5076825560001,-75.4535205339999,386,"411 BURDICK MEDBURY ROAD, NORWICH, NY, 13815","Match","Exact","411 BURDICK MEDBURY RD, NORWICH, NY, 13815",46450021,"L"
603387,"411 BUTLER STREET WAYCROSS","WAYCROSS","GA",31501,31.219181459,-82.3549100609999,387,"411 BUTLER STREET WAYCROSS, WAYCROSS, GA, 31501","Match","Exact","411 BUTLER ST, WAYCROSS, GA, 31501",5237240,"L"
603388,"411 CABRIOET COURT","MCDONOUGH","GA",30253,NA,NA,388,"411 CABRIOET COURT, MCDONOUGH, GA, 30253","No_Match",NA,NA,NA,NA
603389,"411 CAMDEN","SOUTH BEND","IN",46619,41.6712960740001,-86.291180287,389,"411 CAMDEN, SOUTH BEND, IN, 46619","Match","Non_Exact","411 CAMDEN ST, SOUTH BEND, IN, 46619",8086767,"R"
603390,"411 CAMELIA AVE W","CLAYTON","WI",54004,NA,NA,390,"411 CAMELIA AVE W, CLAYTON, WI, 54004","No_Match",NA,NA,NA,NA
603391,"411 CAMINO DE LA PLACITA","TAOS","NM",87571,NA,NA,391,"411 CAMINO DE LA PLACITA, TAOS, NM, 87571","No_Match",NA,NA,NA,NA
603392,"411 CAMPBELL AVE","CALUMET CITY","IL",60409,41.6267480880001,-87.5502448509999,392,"411 CAMPBELL AVE, CALUMET CITY, IL, 60409","Match","Exact","411 CAMPBELL AVE, CALUMET CITY, IL, 60409",605673188,"L"
603393,"411 CAMPBELL STREET","GLEN WHITE","WV",25849,NA,NA,393,"411 CAMPBELL STREET, GLEN WHITE, WV, 25849","No_Match",NA,NA,NA,NA
603394,"411 CARROLL ROAD","SOUTH WHITLEY","IN",46787,41.093624144,-85.623167736,394,"411 CARROLL ROAD, SOUTH WHITLEY, IN, 46787","Match","Non_Exact","411 E CARROLL RD, SOUTH WHITLEY, IN, 46787",640356907,"L"
603395,"411 CARTGATE CIRCLE","BLYTHEWOOD","SC",29016,34.1846159030001,-80.911266971,395,"411 CARTGATE CIRCLE, BLYTHEWOOD, SC, 29016","Match","Exact","411 CARTGATE CIR, BLYTHEWOOD, SC, 29016",604757837,"L"
603396,"411 CATHERINE AVE","WEST CARROLLTON","OH",45449,39.6784927530001,-84.249838127,396,"411 CATHERINE AVE, WEST CARROLLTON, OH, 45449","Match","Exact","411 CATHERINE AVE, WEST CARROLLTON, OH, 45449",143578660,"L"
603397,"411 CEDAR CLIFF RD","RICHMOND","IN",47374,39.8231056720001,-84.8464030489999,397,"411 CEDAR CLIFF RD, RICHMOND, IN, 47374","Match","Exact","411 CEDAR CLIFF RD, RICHMOND, IN, 47374",31327301,"R"
603398,"411 CEDAR LANE","REIDSVILLE","NC",27320,36.4024053630001,-79.706140389,398,"411 CEDAR LANE, REIDSVILLE, NC, 27320","Match","Exact","411 CEDAR LN, REIDSVILLE, NC, 27320",56214159,"R"
603399,"411 CENTER STREET","HORSEHEADS","NY",14845,42.165041677,-76.822912228,399,"411 CENTER STREET, HORSEHEADS, NY, 14845","Match","Exact","411 CENTER ST, HORSEHEADS, NY, 14845",18532226,"L"
603400,"411 CENTRAL AVENUE","WATKINS","MN",55389,NA,NA,400,"411 CENTRAL AVENUE, WATKINS, MN, 55389","No_Match",NA,NA,NA,NA
603401,"411 CHASEWAY DR","PIKE ROAD","AL",36064,32.3193488050001,-86.018675209,401,"411 CHASEWAY DR, PIKE ROAD, AL, 36064","Match","Exact","411 CHASEWAY DR, PIKE ROAD, AL, 36064",653610569,"L"
603402,"411 CHAUGA DRIVE","ANDERSON","SC",29626,34.4932483040001,-82.683208352,402,"411 CHAUGA DRIVE, ANDERSON, SC, 29626","Match","Exact","411 CHAUGA DR, ANDERSON, SC, 29626",25451951,"L"
603403,"411 CHERRY HILL COURT","LITHOPOLIS","OH",43236,39.807330762,-82.819532345,403,"411 CHERRY HILL COURT, LITHOPOLIS, OH, 43236","Match","Non_Exact","411 CHERRY HILL CT, LITHOPOLIS, OH, 43136",37247845,"L"
603404,"411 CHESTNUT HILL ROAD","YORK","PA",17402,39.924227285,-76.66104767,404,"411 CHESTNUT HILL ROAD, YORK, PA, 17402","Match","Exact","411 CHESTNUT HILL RD, YORK, PA, 17402",88753088,"R"
603405,"411 CHRISTOPHER AVENUE","GAITHERSBURG","MD",20879,39.1588877190001,-77.2120034559999,405,"411 CHRISTOPHER AVENUE, GAITHERSBURG, MD, 20879","Match","Exact","411 CHRISTOPHER AVE, GAITHERSBURG, MD, 20879",62105846,"L"
603406,"411 CHURCH STREET","MILLBORO","VA",24460,37.978635189,-79.604622897,406,"411 CHURCH STREET, MILLBORO, VA, 24460","Match","Exact","411 CHURCH ST, MILLBORO, VA, 24460",651924900,"R"
603407,"411 CHURCH STREET","SHEFFIELD","PA",16347,41.703355586,-79.02170946,407,"411 CHURCH STREET, SHEFFIELD, PA, 16347","Match","Exact","411 CHURCH ST, SHEFFIELD, PA, 16347",98683522,"L"
603408,"411 CITRONELLE DR","WOODSTOCK","GA",30188,34.093694489,-84.4807889479999,408,"411 CITRONELLE DR, WOODSTOCK, GA, 30188","Match","Exact","411 CITRONELLE DR, WOODSTOCK, GA, 30188",634105573,"L"
603409,"411 CLARK ROAD","GAINESVILLE","TX",76240,33.5439847370001,-97.060708429,409,"411 CLARK ROAD, GAINESVILLE, TX, 76240","Match","Exact","411 CLARK RD, GAINESVILLE, TX, 76240",604736264,"L"
603410,"411 CLATSOP","ASTORIA","OR",97103,46.17808495,-123.838874881,410,"411 CLATSOP, ASTORIA, OR, 97103","Match","Non_Exact","411 CLATSOP AVE, ASTORIA, OR, 97103",159221904,"L"
603411,"411 CLEVELAND STREET NUMBER 219","CLEARWATER","FL",33755,27.9655969180001,-82.800886839,411,"411 CLEVELAND STREET NUMBER 219, CLEARWATER, FL, 33755","Match","Exact","411 CLEVELAND ST, CLEARWATER, FL, 33755",613715525,"R"
603412,"411 CLOVERLEAF LN","WASHINGTON COURTHOUS","OH",43160,39.5404430450001,-83.4554140929999,412,"411 CLOVERLEAF LN, WASHINGTON COURTHOUS, OH, 43160","Match","Non_Exact","411 CLOVERLEAF LN, WASHINGTON COURT HOUSE, OH, 43160",119060970,"R"
603413,"411 COAL RUN RD","MARIETTA","OH",45750,39.3708045400001,-81.382277785,413,"411 COAL RUN RD, MARIETTA, OH, 45750","Match","Exact","411 COAL RUN RD, MARIETTA, OH, 45750",651584356,"R"
603414,"411 COLLEGE CIRCLE","STAUNTON","VA",24401,38.1722445020001,-79.053424591,414,"411 COLLEGE CIRCLE, STAUNTON, VA, 24401","Match","Exact","411 COLLEGE CIR, STAUNTON, VA, 24401",98813309,"L"
603415,"411 COLLIER RIDGE DRIVE","ATLANTA","GA",30318,33.7662093390001,-84.4766141549999,415,"411 COLLIER RIDGE DRIVE, ATLANTA, GA, 30318","Match","Non_Exact","411 COLLIER RIDGE DR NW, ATLANTA, GA, 30318",17339468,"R"
603416,"411 COLUMBUS AVENUE","BRILLION","WI",54110,44.1802141650001,-88.067363001,416,"411 COLUMBUS AVENUE, BRILLION, WI, 54110","Match","Exact","411 COLUMBUS AVE, BRILLION, WI, 54110",74780832,"L"
603417,"411 COPPER CREEK CIRCLE","POOLER","GA",31322,32.139509791,-81.2621812309999,417,"411 COPPER CREEK CIRCLE, POOLER, GA, 31322","Match","Exact","411 COPPER CREEK CIR, POOLER, GA, 31322",634549204,"L"
603418,"411 COUNTRY LANE CIRCLE","LANGHORNE","PA",19047,40.217112881,-74.921212779,418,"411 COUNTRY LANE CIRCLE, LANGHORNE, PA, 19047","Match","Exact","411 COUNTRY LANE CIR, LANGHORNE, PA, 19047",134711138,"L"
603419,"411 COUNTY ROAD 255","EGYPT","TX",77436,NA,NA,419,"411 COUNTY ROAD 255, EGYPT, TX, 77436","No_Match",NA,NA,NA,NA
603420,"411 COURT STREET","SAVANNAH","MO",64485,39.941077874,-94.8289728679999,420,"411 COURT STREET, SAVANNAH, MO, 64485","Match","Exact","411 COURT ST, SAVANNAH, MO, 64485",15923592,"R"
603421,"411 CREEKSIDE LANE","TRYON","NC",28722,35.2372124090001,-82.043109371,421,"411 CREEKSIDE LANE, TRYON, NC, 28722","Match","Non_Exact","411 CREEKSIDE LN, TRYON, NC, 28782",44324637,"L"
603422,"411 CROWN PARK AVENUE","GAITHERSBURG","MD",20878,39.1128843700001,-77.203742231,422,"411 CROWN PARK AVENUE, GAITHERSBURG, MD, 20878","Match","Exact","411 CROWN PARK AVE, GAITHERSBURG, MD, 20878",640672283,"R"
603423,"411 CURLEW ORCHARD RD","VICTOR","MT",59875,46.446881568,-114.169283185,423,"411 CURLEW ORCHARD RD, VICTOR, MT, 59875","Match","Exact","411 CURLEW ORCHARD RD, VICTOR, MT, 59875",153540994,"L"
603424,"411 D STREET APT 304","BOSTON","MA",2210,NA,NA,424,"411 D STREET APT 304, BOSTON, MA, 2210","No_Match",NA,NA,NA,NA
603425,"411 DAHLIA DRIVE","BRENTWOOD","TN",37027,36.029988739,-86.8514285969999,425,"411 DAHLIA DRIVE, BRENTWOOD, TN, 37027","Match","Exact","411 DAHLIA DR, BRENTWOOD, TN, 37027",73133038,"R"
603426,"411 DALLAS STREET","HIRAM","GA",30141,33.8809218810001,-84.763944793,426,"411 DALLAS STREET, HIRAM, GA, 30141","Match","Exact","411 DALLAS ST, HIRAM, GA, 30141",639817440,"L"
603427,"411 DAVIS RD","BIG SPRING","TX",79720,32.302055109,-101.463079342,427,"411 DAVIS RD, BIG SPRING, TX, 79720","Match","Non_Exact","411 E DAVIS RD, BIG SPRING, TX, 79720",182882981,"L"
603428,"411 DAY AVENUE","ROANOKE","VA",24016,37.2679604740001,-79.9486485319999,428,"411 DAY AVENUE, ROANOKE, VA, 24016","Match","Non_Exact","411 DAY AVE SW, ROANOKE, VA, 24016",62909773,"R"
603429,"411 DAYTON RD APT 226","CHAMPLIN","MN",55316,NA,NA,429,"411 DAYTON RD APT 226, CHAMPLIN, MN, 55316","No_Match",NA,NA,NA,NA
603430,"411 DEBRA DRIVE","BOTKINS","OH",45306,40.471570485,-84.184476404,430,"411 DEBRA DRIVE, BOTKINS, OH, 45306","Match","Exact","411 DEBRA DR, BOTKINS, OH, 45306",52216800,"L"
603431,"411 DEER RUN DRIVE","ARCHBALD","PA",18403,41.4915023130001,-75.566534345,431,"411 DEER RUN DRIVE, ARCHBALD, PA, 18403","Match","Exact","411 DEER RUN DR, ARCHBALD, PA, 18403",653365171,"R"
603432,"411 DELAWARE STREET","NEW CASTLE","DE",19720,39.6605980150001,-75.5650221989999,432,"411 DELAWARE STREET, NEW CASTLE, DE, 19720","Match","Exact","411 DELAWARE ST, NEW CASTLE, DE, 19720",187270659,"R"
603433,"411 DEWBERRY LN","COVE","TX",77523,29.81661173,-94.814964907,433,"411 DEWBERRY LN, COVE, TX, 77523","Match","Exact","411 DEWBERRY LN, COVE, TX, 77523",95963459,"R"
603434,"411 DICKERSON LANE","COLUMBUS","MS",39705,33.544423653,-88.429331602,434,"411 DICKERSON LANE, COLUMBUS, MS, 39705","Match","Exact","411 DICKERSON LN, COLUMBUS, MS, 39705",649522290,"R"
603435,"411 DICKEY COURT","SUISUN CITY","CA",94585,38.241039465,-122.008855384,435,"411 DICKEY COURT, SUISUN CITY, CA, 94585","Match","Exact","411 DICKEY CT, SUISUN CITY, CA, 94585",192545339,"R"
603436,"411 DISCOVERY RD","PORT TOWNSEND","WA",98368,48.1191837150001,-122.782069497,436,"411 DISCOVERY RD, PORT TOWNSEND, WA, 98368","Match","Exact","411 DISCOVERY RD, PORT TOWNSEND, WA, 98368",151991661,"L"
603437,"411 DODGE AVE","EVANSTON","IL",60202,42.0251891670001,-87.699480439,437,"411 DODGE AVE, EVANSTON, IL, 60202","Match","Exact","411 DODGE AVE, EVANSTON, IL, 60202",112365082,"R"
603438,"411 DOTSON DR","AMES","IA",50014,42.018831178,-93.6713665249999,438,"411 DOTSON DR, AMES, IA, 50014","Match","Exact","411 DOTSON DR, AMES, IA, 50014",627285935,"R"
603439,"411 DOUGLAS D ALLEY DRIVE","NEWARK","DE",19713,39.6527348660001,-75.74269953,439,"411 DOUGLAS D ALLEY DRIVE, NEWARK, DE, 19713","Match","Exact","411 DOUGLAS D ALLEY DR, NEWARK, DE, 19713",187274621,"R"
603440,"411 DOYLES LAKE ROAD","EMPORIA","VA",23847,36.683636054,-77.6757506179999,440,"411 DOYLES LAKE ROAD, EMPORIA, VA, 23847","Match","Exact","411 DOYLES LAKE RD, EMPORIA, VA, 23847",54048367,"L"
603441,"411 DOZIER STREET","PICAYUNE","MS",39466,30.529735553,-89.691975046,441,"411 DOZIER STREET, PICAYUNE, MS, 39466","Match","Exact","411 DOZIER ST, PICAYUNE, MS, 39466",111488594,"L"
603442,"411 DUNHAM MASSIE DRIVE","HAMPTON","VA",23669,37.054440221,-76.327992555,442,"411 DUNHAM MASSIE DRIVE, HAMPTON, VA, 23669","Match","Exact","411 DUNHAM MASSIE DR, HAMPTON, VA, 23669",103759540,"L"
603443,"411 E 11TH ST","ELLIS","KS",67637,38.935573628,-99.556009102,443,"411 E 11TH ST, ELLIS, KS, 67637","Match","Exact","411 E 11TH ST, ELLIS, KS, 67637",149801437,"R"
603444,"411 E 15TH STREET","NEWPORT BEACH","CA",92663,33.6194672250001,-117.909339896,444,"411 E 15TH STREET, NEWPORT BEACH, CA, 92663","Match","Exact","411 E 15TH ST, NEWPORT BEACH, CA, 92663",144049511,"L"
603445,"411 E 4TH STREET","LACROSSE","WA",99143,46.8119185890001,-117.87864531,445,"411 E 4TH STREET, LACROSSE, WA, 99143","Match","Exact","411 4TH ST, LACROSSE, WA, 99143",173289309,"R"
603446,"411 E 69TH STREET","TACOMA","WA",98404,47.1948281350001,-122.424776211,446,"411 E 69TH STREET, TACOMA, WA, 98404","Match","Exact","411 E 69TH ST, TACOMA, WA, 98404",184699464,"R"
603447,"411 E 6TH STREET","KANSAS CITY","MO",64106,39.1061804610001,-94.578726748,447,"411 E 6TH STREET, KANSAS CITY, MO, 64106","Match","Exact","411 E 6TH ST, KANSAS CITY, MO, 64106",91518875,"R"
603448,"411 E 78TH TERRACE","KANSAS CITY","MO",64131,38.9856,-94.584951798,448,"411 E 78TH TERRACE, KANSAS CITY, MO, 64131","Match","Exact","411 E 78TH TER, KANSAS CITY, MO, 64131",91455088,"R"
603449,"411 E BROOKWOOD CT","PHOENIX","AZ",85048,33.303465327,-112.067550897,449,"411 E BROOKWOOD CT, PHOENIX, AZ, 85048","Match","Exact","411 E BROOKWOOD CT, PHOENIX, AZ, 85048",128374945,"L"
603450,"411 E CHESTNUT ST","COATESVILLE","PA",19320,39.985170006,-75.817369126,450,"411 E CHESTNUT ST, COATESVILLE, PA, 19320","Match","Exact","411 E CHESTNUT ST, COATESVILLE, PA, 19320",179480945,"L"
603451,"411 E CHURCH ST","TARBORO","NC",27886,NA,NA,451,"411 E CHURCH ST, TARBORO, NC, 27886","Tie",NA,NA,NA,NA
603452,"411 E COLLEGE AVE","TALLAHASSEE","FL",32301,30.4407365000001,-84.277416463,452,"411 E COLLEGE AVE, TALLAHASSEE, FL, 32301","Match","Exact","411 E COLLEGE AVE, TALLAHASSEE, FL, 32301",82850817,"R"
603453,"411 E CONSTANCE RD","SUFFOLK","VA",23434,36.7392024440001,-76.5726267059999,453,"411 E CONSTANCE RD, SUFFOLK, VA, 23434","Match","Exact","411 E CONSTANCE RD, SUFFOLK, VA, 23434",122239066,"R"
603454,"411 E CORNELL DRIVE","TEMPE","AZ",85283,33.3718462890001,-111.932187918,454,"411 E CORNELL DRIVE, TEMPE, AZ, 85283","Match","Exact","411 E CORNELL DR, TEMPE, AZ, 85283",128237456,"R"
603455,"411 E ELM STREET","SYCAMORE","IL",60178,41.986758218,-88.679738932,455,"411 E ELM STREET, SYCAMORE, IL, 60178","Match","Exact","411 E ELM ST, SYCAMORE, IL, 60178",52258655,"R"
603456,"411 E ETTWEIN ST","18017","PA",18018,40.626747417,-75.368430153,456,"411 E ETTWEIN ST, 18017, PA, 18018","Match","Non_Exact","411 E ETTWEIN ST, BETHLEHEM, PA, 18018",136876737,"L"
603457,"411 E FRENCHMANS BEND ROAD","MONROE","LA",71203,32.6309327870001,-92.048196017,457,"411 E FRENCHMANS BEND ROAD, MONROE, LA, 71203","Match","Exact","411 E FRENCHMANS BEND RD, MONROE, LA, 71203",612356736,"L"
603458,"411 E FRONT","PLAINFIELD","NJ",7060,40.623508218,-74.4188435359999,458,"411 E FRONT, PLAINFIELD, NJ, 7060","Match","Non_Exact","411 E FRONT ST, PLAINFIELD, NJ, 07060",60560481,"L"
603459,"411 E GIBBSBORO RD APT 509","LINDENWOLD","NJ",8021,39.8191664230001,-74.9797724159999,459,"411 E GIBBSBORO RD APT 509, LINDENWOLD, NJ, 8021","Match","Non_Exact","411 E GIBBSBORO RD, LINDENWOLD, NJ, 08021",134379961,"R"
603460,"411 E GIBBSBORO RD","LINDENWOLD","NJ",8021,39.8191663850001,-74.979772445,460,"411 E GIBBSBORO RD, LINDENWOLD, NJ, 8021","Match","Exact","411 E GIBBSBORO RD, LINDENWOLD, NJ, 08021",134379961,"R"
603461,"411 E GRAND LAKE BLVD","WEST CHICAGO","IL",60185,41.8892767730001,-88.2016263469999,461,"411 E GRAND LAKE BLVD, WEST CHICAGO, IL, 60185","Match","Exact","411 E GRAND LAKE BLVD, WEST CHICAGO, IL, 60185",112516185,"L"
603462,"411 E HIGHWAY 67","DUNCANVILLE","TX",75137,32.631031702,-96.902799563,462,"411 E HIGHWAY 67, DUNCANVILLE, TX, 75137","Match","Exact","411 E HWY 67, DUNCANVILLE, TX, 75137",103189380,"L"
603463,"411 E INDIAN SCHOOL RD APT 1071","PHOENIX","AZ",85012,33.4947844370001,-112.067782531,463,"411 E INDIAN SCHOOL RD APT 1071, PHOENIX, AZ, 85012","Match","Non_Exact","411 E INDIAN SCHOOL RD, PHOENIX, AZ, 85012",637414758,"R"
603464,"411 E INDIAN SCHOOL RD UNIT 3016","PHOENIX","AZ",85012,33.4947844370001,-112.067782531,464,"411 E INDIAN SCHOOL RD UNIT 3016, PHOENIX, AZ, 85012","Match","Non_Exact","411 E INDIAN SCHOOL RD, PHOENIX, AZ, 85012",637414758,"R"
603465,"411 E INDIAN SCHOOL ROAD APT 1064","PHOENIX","AZ",85012,33.4947844370001,-112.067782531,465,"411 E INDIAN SCHOOL ROAD APT 1064, PHOENIX, AZ, 85012","Match","Non_Exact","411 E INDIAN SCHOOL RD, PHOENIX, AZ, 85012",637414758,"R"
603466,"411 E MAIN ST","LOOGOOTEE","IN",47553,38.6786951610001,-86.911181318,466,"411 E MAIN ST, LOOGOOTEE, IN, 47553","Match","Exact","411 E MAIN ST, LOOGOOTEE, IN, 47553",32107889,"L"
603467,"411 E MICHIGAN AVE","AU GRES","MI",48703,44.044850389,-83.6890432289999,467,"411 E MICHIGAN AVE, AU GRES, MI, 48703","Match","Exact","411 E MICHIGAN AVE, AU GRES, MI, 48703",160916736,"R"
603468,"411 E MISSION DR APT 4","ALHAMBRA","CA",91801,NA,NA,468,"411 E MISSION DR APT 4, ALHAMBRA, CA, 91801","No_Match",NA,NA,NA,NA
603469,"411 E MORGAN ST","BUNKER HILL","IL",62014,39.04569968,-89.949123092,469,"411 E MORGAN ST, BUNKER HILL, IL, 62014","Match","Exact","411 E MORGAN ST, BUNKER HILL, IL, 62014",97936933,"R"
603470,"411 E REDBUD DRIVE","PEARL RIVER","LA",70452,NA,NA,470,"411 E REDBUD DRIVE, PEARL RIVER, LA, 70452","No_Match",NA,NA,NA,NA
603471,"411 E TENNESSEE AVE","BESSEMER CITY","NC",28016,35.2756680040001,-81.279201799,471,"411 E TENNESSEE AVE, BESSEMER CITY, NC, 28016","Match","Exact","411 E TENNESSEE AVE, BESSEMER CITY, NC, 28016",70395848,"R"
603472,"411 E WASHINGTON STREET","SPRINGFIELD","IL",62701,39.801747203,-89.650459664,472,"411 E WASHINGTON STREET, SPRINGFIELD, IL, 62701","Match","Exact","411 E WASHINGTON ST, SPRINGFIELD, IL, 62701",97325146,"L"
603473,"411 E WHITTIER","ST FRANCIS","KS",67756,39.7772951100001,-101.797268027,473,"411 E WHITTIER, ST FRANCIS, KS, 67756","Match","Non_Exact","411 WHITTIER AVE, SAINT FRANCIS, KS, 67756",161415503,"L"
603474,"411 E WISCONSIN AVE STE 1000","MILWAUKEE","WI",53202,43.038735167,-87.906313901,474,"411 E WISCONSIN AVE STE 1000, MILWAUKEE, WI, 53202","Match","Non_Exact","411 E WISCONSIN AVE, MILWAUKEE, WI, 53202",77744673,"R"
603475,"411 E WISCONSIN AVE SUITE 1800","MILWAUKEE","WI",53202,43.038735167,-87.906313901,475,"411 E WISCONSIN AVE SUITE 1800, MILWAUKEE, WI, 53202","Match","Non_Exact","411 E WISCONSIN AVE, MILWAUKEE, WI, 53202",77744673,"R"
603476,"411 E WISCONSIN","MILWAUKEE","WI",53202,43.038735167,-87.906313901,476,"411 E WISCONSIN, MILWAUKEE, WI, 53202","Match","Non_Exact","411 E WISCONSIN AVE, MILWAUKEE, WI, 53202",77744673,"R"
603477,"411 EAGLE COVE DRIVE","FRIDAY HARBOR","WA",98250,48.4632987310001,-123.032846333,477,"411 EAGLE COVE DRIVE, FRIDAY HARBOR, WA, 98250","Match","Exact","411 EAGLE COVE DR, FRIDAY HARBOR, WA, 98250",639550347,"L"
603478,"411 EAGLE DR UNIT 1","AVON","CO",81620,39.616988124,-106.479775873,478,"411 EAGLE DR UNIT 1, AVON, CO, 81620","Match","Exact","411 EAGLE DR, AVON, CO, 81620",105742121,"L"
603479,"411 EAGLES WALK","GASTONIA","NC",28056,35.204783881,-81.171377596,479,"411 EAGLES WALK, GASTONIA, NC, 28056","Match","Exact","411 EAGLES WALK, GASTONIA, NC, 28056",70391041,"L"
603480,"411 EAST 10TH ST","NEW YORK","NY",10009,40.7257631530001,-73.977242758,480,"411 EAST 10TH ST, NEW YORK, NY, 10009","Match","Exact","411 E 10TH ST, NEW YORK, NY, 10009",59654730,"L"
603481,"411 EAST 35TH STREET","TEXARKANA","AR",71854,33.4566251530001,-94.038924693,481,"411 EAST 35TH STREET, TEXARKANA, AR, 71854","Match","Exact","411 E 35TH ST, TEXARKANA, AR, 71854",57274677,"L"
603482,"411 EAST 6TH STREET","WILTON","IA",52778,41.5909208300001,-91.012454466,482,"411 EAST 6TH STREET, WILTON, IA, 52778","Match","Exact","411 E 6TH ST, WILTON, IA, 52778",98999607,"L"
603483,"411 EAST 9TH STREET APT 2R","NEW YORK","NY",10009,40.72804674,-73.984500979,483,"411 EAST 9TH STREET APT 2R, NEW YORK, NY, 10009","Match","Exact","411 E 9TH ST, NEW YORK, NY, 10009",59654070,"L"
603484,"411 EAST CHARLOTTE AVENUE","PUNTA GORDA","FL",33950,26.935177809,-82.0432616589999,484,"411 EAST CHARLOTTE AVENUE, PUNTA GORDA, FL, 33950","Match","Exact","411 E CHARLOTTE AVE, PUNTA GORDA, FL, 33950",4306705,"R"
603485,"411 EAST CLAY STREET","GREENVILLE","MS",38701,33.3976610330001,-91.056882178,485,"411 EAST CLAY STREET, GREENVILLE, MS, 38701","Match","Exact","411 E CLAY ST, GREENVILLE, MS, 38701",1172807,"R"
603486,"411 EAST DRAKE AVENUE","ADDISON","IL",60101,41.9225073160001,-87.9791871259999,486,"411 EAST DRAKE AVENUE, ADDISON, IL, 60101","Match","Non_Exact","411 DRAKE AVE, ADDISON, IL, 60101",112542489,"R"
603487,"411 EAST EIGHTH STREET","WASHINGTON","MO",63090,38.5522527530001,-91.010658144,487,"411 EAST EIGHTH STREET, WASHINGTON, MO, 63090","Match","Exact","411 E 8TH ST, WASHINGTON, MO, 63090",99717673,"R"
603488,"411 EAST ELIZABETH","PASADENA","CA",91104,34.173520598,-118.141140416,488,"411 EAST ELIZABETH, PASADENA, CA, 91104","Match","Non_Exact","411 E ELIZABETH ST, PASADENA, CA, 91104",141628574,"L"
603489,"411 EAST FIRST STREET","WEATHERFORD","TX",76086,32.7697342280001,-97.792072585,489,"411 EAST FIRST STREET, WEATHERFORD, TX, 76086","Match","Exact","411 E 1ST ST, WEATHERFORD, TX, 76086",103575573,"R"
603490,"411 EAST INDIAN SCHOOL RD","PHOENIX","AZ",85012,33.494784441,-112.067783162,490,"411 EAST INDIAN SCHOOL RD, PHOENIX, AZ, 85012","Match","Exact","411 E INDIAN SCHOOL RD, PHOENIX, AZ, 85012",637414758,"R"
603491,"411 EAST JAY ROAD","JAY","ME",4239,44.521737269,-70.1524105239999,491,"411 EAST JAY ROAD, JAY, ME, 4239","Match","Exact","411 E JAY RD, JAY, ME, 04239",165306729,"R"
603492,"411 EAST MAIN STREET","RED BOILING SPRINGS","TN",37150,36.5302395040001,-85.8456241379999,492,"411 EAST MAIN STREET, RED BOILING SPRINGS, TN, 37150","Match","Exact","411 E MAIN ST, RED BOILING SPRINGS, TN, 37150",29693916,"L"
603493,"411 EAST MAIN STREET","STOYSTOWN","PA",15563,40.100309795,-78.9519017699999,493,"411 EAST MAIN STREET, STOYSTOWN, PA, 15563","Match","Exact","411 E MAIN ST, STOYSTOWN, PA, 15563",70237516,"R"
603494,"411 EAST MCALPINE STREET","NAVASOTA","TX",77868,NA,NA,494,"411 EAST MCALPINE STREET, NAVASOTA, TX, 77868","No_Match",NA,NA,NA,NA
603495,"411 EAST MOSSER STREET","ALLENTOWN","PA",18109,40.6051296680001,-75.4425725789999,495,"411 EAST MOSSER STREET, ALLENTOWN, PA, 18109","Match","Exact","411 E MOSSER ST, ALLENTOWN, PA, 18109",80798150,"L"
603496,"411 EAST SECOND STREET","OGALLALA","NE",69153,41.1261275270001,-101.715470784,496,"411 EAST SECOND STREET, OGALLALA, NE, 69153","Match","Exact","411 E 2ND ST, OGALLALA, NE, 69153",150952089,"L"
603497,"411 EAST WEISS STREET","TOPTON","PA",19562,NA,NA,497,"411 EAST WEISS STREET, TOPTON, PA, 19562","Tie",NA,NA,NA,NA
603498,"411 EDGECREST DR APT 2","HOMEWOOD","AL",35209,33.463244069,-86.8324055099999,498,"411 EDGECREST DR APT 2, HOMEWOOD, AL, 35209","Match","Exact","411 EDGECREST DR, HOMEWOOD, AL, 35209",81714993,"R"
603499,"411 EDGEWATER DR","CEDAR BLUFF","VA",24609,37.083679579,-81.7795719219999,499,"411 EDGEWATER DR, CEDAR BLUFF, VA, 24609","Match","Exact","411 EDGEWATER DR, CEDAR BLUFF, VA, 24609",47319463,"L"
603500,"411 EDWARD STREET","FARMINGTON","MO",63640,37.7731528420001,-90.417828673,500,"411 EDWARD STREET, FARMINGTON, MO, 63640","Match","Exact","411 EDWARD ST, FARMINGTON, MO, 63640",62383308,"R"
