"ID","Address","City","State","Zip","lat","long","id","input_address","match_indicator","match_type","matched_address","tiger_line_id","tiger_side"
748501,"5963 ROYAL COUNTRY DRIVE","ST LOUIS","MO",63129,38.4611858280001,-90.322652886,1,"5963 ROYAL COUNTRY DRIVE, ST LOUIS, MO, 63129","Match","Exact","5963 ROYAL COUNTRY DR, SAINT LOUIS, MO, 63129",100183328,"L"
748502,"5963 S FREEPORT ROAD","POLO","IL",61064,41.9309059780001,-89.628871596,2,"5963 S FREEPORT ROAD, POLO, IL, 61064","Match","Exact","5963 S FREEPORT RD, POLO, IL, 61064",650607215,"R"
748503,"5963 S RAILROAD ST","STAR CITY","IN",46985,40.970089821,-86.555766595,3,"5963 S RAILROAD ST, STAR CITY, IN, 46985","Match","Exact","5963 S RAILROAD ST, STAR CITY, IN, 46985",15485536,"L"
748504,"5963 SEVEN OAKS DRIVE","POWDER SPRINGS","GA",30127,33.9488200540001,-84.730939556,4,"5963 SEVEN OAKS DRIVE, POWDER SPRINGS, GA, 30127","Match","Exact","5963 SEVEN OAKS DR, POWDER SPGS, GA, 30127",17225118,"L"
748505,"5963 SUE ANN LANE","TERRELL","TX",75161,32.6497788350001,-96.201665613,5,"5963 SUE ANN LANE, TERRELL, TX, 75161","Match","Exact","5963 SUE ANN LN, TERRELL, TX, 75161",213251488,"L"
748506,"5963 SULLIVAN TRAIL","NAZARETH","PA",18064,40.7858295360001,-75.28074308,6,"5963 SULLIVAN TRAIL, NAZARETH, PA, 18064","Match","Exact","5963 SULLIVAN TRL, NAZARETH, PA, 18064",136868557,"L"
748507,"5963 SUNDANCE TRAIL NORTH","PORTAGE","IN",46368,41.5532765730001,-87.1846305019999,7,"5963 SUNDANCE TRAIL NORTH, PORTAGE, IN, 46368","Match","Non_Exact","5963 SUNDANCE TRL, PORTAGE, IN, 46368",119930334,"R"
748508,"5963 VALERIAN LN","ROCKVILLE","MD",20852,39.0321537070001,-77.120544437,8,"5963 VALERIAN LN, ROCKVILLE, MD, 20852","Match","Exact","5963 VALERIAN LN, ROCKVILLE, MD, 20852",62056550,"L"
748509,"5963 WALNUT CIRCLE","TOLEDO","OH",43615,41.6191457210001,-83.682281057,9,"5963 WALNUT CIRCLE, TOLEDO, OH, 43615","Match","Non_Exact","5963 WALNUT CIRCLE DR, TOLEDO, OH, 43615",33930426,"L"
748510,"5963 WHITEACRE ROAD","TOLEDO","OH",43615,41.687090954,-83.685194375,10,"5963 WHITEACRE ROAD, TOLEDO, OH, 43615","Match","Exact","5963 WHITEACRE RD, TOLEDO, OH, 43615",33928137,"L"
748511,"5963 WOLF CREEK DR","ATLANTA","GA",30349,33.665087768,-84.579268247,11,"5963 WOLF CREEK DR, ATLANTA, GA, 30349","Match","Exact","5963 WOLF CREEK DR, ATLANTA, GA, 30349",650783934,"R"
748512,"59637 CHEYENNE ROAD","BEND","OR",97702,43.9659515010001,-121.349929763,12,"59637 CHEYENNE ROAD, BEND, OR, 97702","Match","Exact","59637 CHEYENNE RD, BEND, OR, 97702",152528374,"L"
748513,"5964 DERWENT RD","POWHATAN","VA",23139,37.603531021,-78.072256903,13,"5964 DERWENT RD, POWHATAN, VA, 23139","Match","Exact","5964 DERWENT RD, POWHATAN, VA, 23139",73833451,"R"
748514,"5964 GRAND PAVILION WAY APT 220","ALEXANDRIA","VA",22303,38.7893942680001,-77.075082304,14,"5964 GRAND PAVILION WAY APT 220, ALEXANDRIA, VA, 22303","Match","Exact","5964 GRAND PAVILION WAY, ALEXANDRIA, VA, 22303",641118384,"R"
748515,"5964 LARSON ST","MUSKEGON","MI",49444,43.14433753,-86.1917873689999,15,"5964 LARSON ST, MUSKEGON, MI, 49444","Match","Non_Exact","5964 LARSON LN, MUSKEGON, MI, 49444",648227404,"R"
748516,"5964 MAPLEWOOD","MAYFIELD HTS","OH",44124,41.523569944,-81.4644980589999,16,"5964 MAPLEWOOD, MAYFIELD HTS, OH, 44124","Match","Non_Exact","5964 MAPLEWOOD RD, MAYFIELD HEIGHTS, OH, 44124",61133988,"R"
748517,"5964 N 400 E","GREENFIELD","IN",46140,39.87164712,-85.728677107,17,"5964 N 400 E, GREENFIELD, IN, 46140","Match","Exact","5964 N 400 E, GREENFIELD, IN, 46140",31081653,"L"
748518,"5964 N 500 W","PENNVILLE","IN",47369,40.523366867,-85.0765145239999,18,"5964 N 500 W, PENNVILLE, IN, 47369","Match","Exact","5964 N 500 W, PENNVILLE, IN, 47369",639130747,"L"
748519,"5964 PHEASANT DR","SHOREVIEW","MN",55126,45.1236180970001,-93.134505659,19,"5964 PHEASANT DR, SHOREVIEW, MN, 55126","Match","Exact","5964 PHEASANT DR, SHOREVIEW, MN, 55126",97634810,"L"
748520,"5964 PHEASANT DRIVE","SHOREVIEW","MN",55126,45.1236180970001,-93.134505659,20,"5964 PHEASANT DRIVE, SHOREVIEW, MN, 55126","Match","Exact","5964 PHEASANT DR, SHOREVIEW, MN, 55126",97634810,"L"
748521,"5964 RYAN ROAD","MEDINA","OH",44256,41.1112474510001,-81.883916318,21,"5964 RYAN ROAD, MEDINA, OH, 44256","Match","Exact","5964 RYAN RD, MEDINA, OH, 44256",614146520,"R"
748522,"5964 SOUTH CAYENNE DRIVE","TAYLORSVILLE","UT",84129,40.641906448,-111.961197672,22,"5964 SOUTH CAYENNE DRIVE, TAYLORSVILLE, UT, 84129","Match","Non_Exact","5964 W CAYENNE DR, TAYLORSVILLE, UT, 84129",176075175,"R"
748523,"5965 ARGONNE BLVD","NEW ORLEANS","LA",70124,29.998077939,-90.1034496949999,23,"5965 ARGONNE BLVD, NEW ORLEANS, LA, 70124","Match","Exact","5965 ARGONNE BLVD, NEW ORLEANS, LA, 70124",191733701,"R"
748524,"5965 CARTERS GROVE","NEW ALBANY","OH",43054,40.058849299,-82.832201929,24,"5965 CARTERS GROVE, NEW ALBANY, OH, 43054","Match","Exact","5965 CARTERS GROVE, NEW ALBANY, OH, 43054",218659706,"L"
748525,"5965 COUNTY ROAD 20","LEESBURG","AL",35983,34.137249205,-85.737804237,25,"5965 COUNTY ROAD 20, LEESBURG, AL, 35983","Match","Exact","5965 CO RD 20, LEESBURG, AL, 35983",30232894,"R"
748526,"5965 GAGE AVE","BELL GARDENS","CA",90201,33.9749008160001,-118.157920949,26,"5965 GAGE AVE, BELL GARDENS, CA, 90201","Match","Non_Exact","5965 E GAGE AVE, BELL GARDENS, CA, 90201",141695327,"L"
748527,"5965 GRAND PAVILION WAY 309","ALEXANDRIA","VA",22303,38.789393868,-77.0750682469999,27,"5965 GRAND PAVILION WAY 309, ALEXANDRIA, VA, 22303","Match","Exact","5965 GRAND PAVILION WAY, ALEXANDRIA, VA, 22303",641118384,"L"
748528,"5965 KEITH AVE","OAKLAND","CA",94618,37.8464505740001,-122.245842607,28,"5965 KEITH AVE, OAKLAND, CA, 94618","Match","Exact","5965 KEITH AVE, OAKLAND, CA, 94618",125075298,"R"
748529,"5965 KING ST","CHICAGO","IL",60621,NA,NA,29,"5965 KING ST, CHICAGO, IL, 60621","No_Match",NA,NA,NA,NA
748530,"5965 N CLARK ST","CHICAGO","IL",60660,41.9903037600001,-87.670002239,30,"5965 N CLARK ST, CHICAGO, IL, 60660","Match","Exact","5965 N CLARK ST, CHICAGO, IL, 60660",111745586,"R"
748531,"5965 N TURTLE CREEK DR","FAIRFIELD","OH",45014,39.3144512010001,-84.526803813,31,"5965 N TURTLE CREEK DR, FAIRFIELD, OH, 45014","Match","Exact","5965 N TURTLE CREEK DR, FAIRFIELD, OH, 45014",113801424,"L"
748532,"5965 NC HWY 39","SELMA","NC",27576,35.6514876840001,-78.254586451,32,"5965 NC HWY 39, SELMA, NC, 27576","Match","Non_Exact","5965 STATE HWY 39, SELMA, NC, 27576",638682648,"L"
748533,"5965 NW 72ND CT","PARKLAND","FL",33067,26.3203187120001,-80.2060382889999,33,"5965 NW 72ND CT, PARKLAND, FL, 33067","Match","Exact","5965 NW 72ND CT, PARKLAND, FL, 33067",114768731,"L"
748534,"5965 PALMILLA ST","NORTH LAS VEGAS","NV",89031,36.26788816,-115.201236263,34,"5965 PALMILLA ST, NORTH LAS VEGAS, NV, 89031","Match","Exact","5965 PALMILLA ST, N LAS VEGAS, NV, 89031",612678969,"L"
748535,"5965 PLEASANT FARM DR","BEAUFORT","SC",29906,32.409306917,-80.771928042,35,"5965 PLEASANT FARM DR, BEAUFORT, SC, 29906","Match","Exact","5965 PLEASANT FARM DR, BEAUFORT, SC, 29906",87604415,"L"
748536,"5965 PONCE DE LEON BLVD","CORAL GABLES","FL",33146,25.7084593770001,-80.2852857829999,36,"5965 PONCE DE LEON BLVD, CORAL GABLES, FL, 33146","Match","Exact","5965 PONCE DE LEON BLVD, CORAL GABLES, FL, 33146",116282791,"R"
748537,"5965 RAINBOW RIDGE ROAD","BILLINGS","MT",59101,45.691138821,-108.559112537,37,"5965 RAINBOW RIDGE ROAD, BILLINGS, MT, 59101","Match","Exact","5965 RAINBOW RIDGE RD, BILLINGS, MT, 59101",608048161,"R"
748538,"5965 S HARRISON DRIVE UNIT 4","LAS VEGAS","NV",89120,36.0813320500001,-115.112080379,38,"5965 S HARRISON DRIVE UNIT 4, LAS VEGAS, NV, 89120","Match","Exact","5965 HARRISON DR, LAS VEGAS, NV, 89120",201873084,"R"
748539,"5965 SQUIRREL PL NW","SEABECK","WA",98380,47.6153049660001,-122.892416227,39,"5965 SQUIRREL PL NW, SEABECK, WA, 98380","Match","Exact","5965 SQUIRREL PL NW, SEABECK, WA, 98380",187673798,"L"
748540,"5965 SUN DANCE TRAIL APT 201","PORTAGE","IN",46368,41.553289335,-87.1846289709999,40,"5965 SUN DANCE TRAIL APT 201, PORTAGE, IN, 46368","Match","Non_Exact","5965 SUNDANCE TRL, PORTAGE, IN, 46368",119930334,"R"
748541,"5965 SW 100TH STREET","MIAMI","FL",33156,25.678552612,-80.290013662,41,"5965 SW 100TH STREET, MIAMI, FL, 33156","Match","Exact","5965 SW 100TH ST, MIAMI, FL, 33156",115985754,"R"
748542,"5965 THOUSAND OAKS DR","PARKVILLE","MO",64152,39.202987294,-94.7460538939999,42,"5965 THOUSAND OAKS DR, PARKVILLE, MO, 64152","Match","Exact","5965 THOUSAND OAKS DR, PARKVILLE, MO, 64152",650197618,"L"
748543,"5965-5975 SW 8TH ST SUITE B","MIAMI","FL",33144,25.76342241,-80.2928353459999,43,"5965-5975 SW 8TH ST SUITE B, MIAMI, FL, 33144","Match","Non_Exact","5965 SW 8TH ST, MIAMI, FL, 33144",116246822,"R"
748544,"59655 HWY 1148 LOT 15","PLAQUEMINE","LA",70764,30.322757489,-91.281827858,44,"59655 HWY 1148 LOT 15, PLAQUEMINE, LA, 70764","Match","Non_Exact","59655 STATE RTE 1148, PLAQUEMINE, LA, 70764",85560127,"L"
748545,"5966 BALBOA STREET","OAKLAND","CA",94611,37.8318321680001,-122.199923207,45,"5966 BALBOA STREET, OAKLAND, CA, 94611","Match","Non_Exact","5966 BALBOA DR, OAKLAND, CA, 94611",125003661,"R"
748546,"5966 BALMORAL RD","MONTGOMERY","AL",36117,32.375326811,-86.202788033,46,"5966 BALMORAL RD, MONTGOMERY, AL, 36117","Match","Exact","5966 BALMORAL RD, MONTGOMERY, AL, 36117",1495101,"R"
748547,"5966 BLAVERLY DR","NEW ALBANY","OH",43054,40.0696678080001,-82.858959273,47,"5966 BLAVERLY DR, NEW ALBANY, OH, 43054","Match","Exact","5966 BLAVERLY DR, NEW ALBANY, OH, 43054",640028854,"R"
748548,"5966 DIXIE HWY","BRIDGEPORT","MI",48601,43.364919011,-83.8853856269999,48,"5966 DIXIE HWY, BRIDGEPORT, MI, 48601","Match","Non_Exact","5966 DIXIE HWY, SAGINAW, MI, 48601",80223452,"R"
748549,"5966 DIXIUE HWY","BRIDGEPORT","MI",48601,43.364919011,-83.8853856269999,49,"5966 DIXIUE HWY, BRIDGEPORT, MI, 48601","Match","Non_Exact","5966 DIXIE HWY, SAGINAW, MI, 48601",80223452,"R"
748550,"5966 HWY 162","HOLLYWOOD","SC",29449,32.7382293090001,-80.224977979,50,"5966 HWY 162, HOLLYWOOD, SC, 29449","Match","Non_Exact","5966 STATE HWY 162, HOLLYWOOD, SC, 29449",605771694,"L"
748551,"5966 JESSE JUDD RD","BANCROFT","WI",54921,44.323685491,-89.491025102,51,"5966 JESSE JUDD RD, BANCROFT, WI, 54921","Match","Non_Exact","5966 JESSIE JUDD RD, BANCROFT, WI, 54921",126841818,"R"
748552,"5966 LAKESIDE PLACE","TINLEY PARK","IL",60477,41.5865320560001,-87.764401816,52,"5966 LAKESIDE PLACE, TINLEY PARK, IL, 60477","Match","Exact","5966 LAKESIDE PL, TINLEY PARK, IL, 60477",111703079,"L"
748553,"5966 LICKTON PIKE","GOODLETTSVILLE","TN",37072,36.340257207,-86.771120923,53,"5966 LICKTON PIKE, GOODLETTSVILLE, TN, 37072","Match","Exact","5966 LICKTON PIKE, GOODLETTSVILLE, TN, 37072",97181671,"R"
748554,"5966 LOFLAND DRIVE","FRISCO","TX",75033,33.1816440920001,-96.834059219,54,"5966 LOFLAND DRIVE, FRISCO, TX, 75033","Match","Exact","5966 LOFLAND DR, FRISCO, TX, 75033",618746573,"R"
748555,"5966 RATHLIN LANE","CONCORD","NC",28027,35.3971347770001,-80.6782750959999,55,"5966 RATHLIN LANE, CONCORD, NC, 28027","Match","Non_Exact","5966 RATHLIN LN NW, CONCORD, NC, 28027",24922977,"L"
748556,"5966 REBEL RIDGE ST","SAN ANTONIO","TX",78247,29.591217167,-98.370583932,56,"5966 REBEL RIDGE ST, SAN ANTONIO, TX, 78247","Match","Exact","5966 REBEL RIDGE ST, SAN ANTONIO, TX, 78247",101501229,"R"
748557,"5966 RIVER OAKS DRIVE","FLOWERY BRANCH","GA",30542,34.2170341180001,-83.935394923,57,"5966 RIVER OAKS DRIVE, FLOWERY BRANCH, GA, 30542","Match","Exact","5966 RIVER OAKS DR, FLOWERY BR, GA, 30542",644041691,"R"
748558,"5966 S HELENA ST","CENTENNIAL","CO",80016,39.607237748,-104.807905433,58,"5966 S HELENA ST, CENTENNIAL, CO, 80016","Match","Exact","5966 S HELENA ST, CENTENNIAL, CO, 80016",177546425,"L"
748559,"5966 TYLER RD","DEALE","MD",20751,38.780617416,-76.547802232,59,"5966 TYLER RD, DEALE, MD, 20751","Match","Exact","5966 TYLER RD, DEALE, MD, 20751",68178744,"R"
748560,"5966 WANDA","ST LOUIS","MO",63116,38.57605855,-90.272548639,60,"5966 WANDA, ST LOUIS, MO, 63116","Match","Non_Exact","5966 WANDA AVE, SAINT LOUIS, MO, 63116",107600350,"L"
748561,"5967 AIRLINE RD","FRUITPORT","MI",49415,43.1436589560001,-86.155498367,61,"5967 AIRLINE RD, FRUITPORT, MI, 49415","Match","Exact","5967 AIRLINE RD, FRUITPORT, MI, 49415",77657848,"R"
748562,"5967 CANE RIDGE RD","CANE RIDGE","TN",37013,36.011179236,-86.639708163,62,"5967 CANE RIDGE RD, CANE RIDGE, TN, 37013","Match","Exact","5967 CANE RIDGE RD, CANE RIDGE, TN, 37013",97200962,"R"
748563,"5967 DUCKWEED ROAD","LAKE WORTH","FL",33449,26.589070771,-80.23573652,63,"5967 DUCKWEED ROAD, LAKE WORTH, FL, 33449","Match","Exact","5967 DUCKWEED RD, LAKE WORTH, FL, 33449",115577894,"L"
748564,"5967 GARNER ROAD","MABLETON","GA",30126,33.8091937030001,-84.5640655189999,64,"5967 GARNER ROAD, MABLETON, GA, 30126","Match","Exact","5967 GARNER RD, MABLETON, GA, 30126",17180558,"L"
748565,"5967 HEATH COURT","POLLOCK PINES","CA",95726,38.7576847220001,-120.598236853,65,"5967 HEATH COURT, POLLOCK PINES, CA, 95726","Match","Exact","5967 HEATH CT, POLLOCK PINES, CA, 95726",133051371,"L"
748566,"5967 HIGHLAND RD","HIGHLAND HTS","OH",44143,41.5524346920001,-81.46409963,66,"5967 HIGHLAND RD, HIGHLAND HTS, OH, 44143","Match","Exact","5967 HIGHLAND RD, HIGHLAND HEIGHTS, OH, 44143",638801742,"L"
748567,"5967 HIGHLAND RD","HIGHLAND HTS.","OH",44143,41.5524346920001,-81.46409963,67,"5967 HIGHLAND RD, HIGHLAND HTS., OH, 44143","Match","Exact","5967 HIGHLAND RD, HIGHLAND HEIGHTS, OH, 44143",638801742,"L"
748568,"5967 MARY JO LANE","NORCROSS","GA",30093,33.903410701,-84.193491229,68,"5967 MARY JO LANE, NORCROSS, GA, 30093","Match","Non_Exact","5967 MARYJO LN, NORCROSS, GA, 30093",615657212,"R"
748569,"5967 PRESTON VALLEY DR","DALLAS","TX",75240,32.9385435200001,-96.804903227,69,"5967 PRESTON VALLEY DR, DALLAS, TX, 75240","Match","Exact","5967 PRESTON VALLEY DR, DALLAS, TX, 75240",102900141,"L"
748570,"5967 S QUEMOY WAY","AURORA","CO",80015,39.6085052270001,-104.731012964,70,"5967 S QUEMOY WAY, AURORA, CO, 80015","Match","Exact","5967 S QUEMOY WAY, AURORA, CO, 80015",177541105,"R"
748571,"5967 SAVANNAH HWY","RAVENEL","SC",29470,32.779373505,-80.2314960429999,71,"5967 SAVANNAH HWY, RAVENEL, SC, 29470","Match","Exact","5967 SAVANNAH HWY, RAVENEL, SC, 29470",108902620,"R"
748572,"5967 TOURNAMENT DR","WATERVILLE","OH",43566,41.531679018,-83.719290216,72,"5967 TOURNAMENT DR, WATERVILLE, OH, 43566","Match","Exact","5967 TOURNAMENT DR, WATERVILLE, OH, 43566",33953224,"L"
748573,"5967 W ALLUVIAL AVE","FRESNO","CA",93722,36.8438553400001,-119.899252032,73,"5967 W ALLUVIAL AVE, FRESNO, CA, 93722","Match","Exact","5967 W ALLUVIAL AVE, FRESNO, CA, 93722",197614824,"L"
748574,"5967 W HALITE CT","COEUR D'ALENE","ID",83814,NA,NA,74,"5967 W HALITE CT, COEUR D'ALENE, ID, 83814","No_Match",NA,NA,NA,NA
748575,"5967 W IRMA LN","GLENDALE","AZ",85308,33.674689734,-112.18801271,75,"5967 W IRMA LN, GLENDALE, AZ, 85308","Match","Exact","5967 W IRMA LN, GLENDALE, AZ, 85308",128392013,"R"
748576,"5968 44TH AVE S","SEATTLE","WA",98118,47.548357395,-122.278128894,76,"5968 44TH AVE S, SEATTLE, WA, 98118","Match","Exact","5968 44TH AVE S, SEATTLE, WA, 98118",186596470,"L"
748577,"5968 HWY 20 SE","CARTERSVILLE","GA",30121,NA,NA,77,"5968 HWY 20 SE, CARTERSVILLE, GA, 30121","No_Match",NA,NA,NA,NA
748578,"5968 LENOX STREET","DETROIT","MI",48213,42.4000026630001,-82.970827608,78,"5968 LENOX STREET, DETROIT, MI, 48213","Match","Exact","5968 LENOX ST, DETROIT, MI, 48213",95468735,"R"
748579,"5968 LIGHTFOOT LANE","FRISCO","TX",75034,33.128749708,-96.8865754889999,79,"5968 LIGHTFOOT LANE, FRISCO, TX, 75034","Match","Non_Exact","5968 LIGHTFOOT LN, FRISCO, TX, 75036",642930324,"R"
748580,"5968 PLUMBAGO AVE","KEARNS","UT",84118,40.649103358,-112.033039511,80,"5968 PLUMBAGO AVE, KEARNS, UT, 84118","Match","Exact","5968 PLUMBAGO AVE, KEARNS, UT, 84118",176064508,"L"
748581,"5968 SCHRORDER RD D","MADISON","WI",53711,NA,NA,81,"5968 SCHRORDER RD D, MADISON, WI, 53711","No_Match",NA,NA,NA,NA
748582,"5968 WHISPER CRK BLVD","MILTON","FL",32570,30.652447485,-87.11951791,82,"5968 WHISPER CRK BLVD, MILTON, FL, 32570","Match","Exact","5968 WHISPER CREEK BLVD, MILTON, FL, 32570",638632514,"R"
748583,"5968 WOODBINE AVENUE","PHILADELPHIA","PA",19131,39.9871043250001,-75.244436869,83,"5968 WOODBINE AVENUE, PHILADELPHIA, PA, 19131","Match","Exact","5968 WOODBINE AVE, PHILADELPHIA, PA, 19131",131395976,"L"
748584,"5969 EAST NORTHWEST HWY APT 3085","DALLAS","TX",75231,32.8650131570001,-96.761230026,84,"5969 EAST NORTHWEST HWY APT 3085, DALLAS, TX, 75231","Match","Exact","5969 E NORTHWEST HWY, DALLAS, TX, 75231",102918054,"L"
748585,"5969 GOLDSTONE DRIVE","GROVE CITY","OH",43123,39.839720137,-83.045794401,85,"5969 GOLDSTONE DRIVE, GROVE CITY, OH, 43123","Match","Exact","5969 GOLDSTONE DR, GROVE CITY, OH, 43123",624117030,"L"
748586,"5969 HILLBROOK PLACE","DUBLIN","CA",94568,37.7207470060001,-121.874696876,86,"5969 HILLBROOK PLACE, DUBLIN, CA, 94568","Match","Exact","5969 HILLBROOK PL, DUBLIN, CA, 94568",606833818,"R"
748587,"5969 HILLSIDE DRIVE","FELTON","CA",95018,37.0475439750001,-122.078112091,87,"5969 HILLSIDE DRIVE, FELTON, CA, 95018","Match","Exact","5969 HILLSIDE DR, FELTON, CA, 95018",125503375,"L"
748588,"5969 JASPER RIDGE ST",":LAS VAGAS","NV",89130,NA,NA,88,"5969 JASPER RIDGE ST, :LAS VAGAS, NV, 89130","No_Match",NA,NA,NA,NA
748589,"5969 JASPER RIDGE ST","LAS VAGAS","NV",89130,36.267541382,-115.226085868,89,"5969 JASPER RIDGE ST, LAS VAGAS, NV, 89130","Match","Non_Exact","5969 JASPER RIDGE ST, LAS VEGAS, NV, 89130",641497521,"L"
748590,"5969 MAXFIELD COURT","MANASSAS","VA",20112,38.6758061850001,-77.38130167,90,"5969 MAXFIELD COURT, MANASSAS, VA, 20112","Match","Exact","5969 MAXFIELD CT, MANASSAS, VA, 20112",619940645,"L"
748591,"5969 MOONLIGHT CT","SEYMOUR","IN",47274,38.9807853770001,-85.8683420999999,91,"5969 MOONLIGHT CT, SEYMOUR, IN, 47274","Match","Exact","5969 MOONLIGHT CT, SEYMOUR, IN, 47274",645894930,"R"
748592,"5969 MYRTLE COURT","SIMI VALLEY","CA",93063,34.2712472170001,-118.674297488,92,"5969 MYRTLE COURT, SIMI VALLEY, CA, 93063","Match","Exact","5969 MYRTLE CT, SIMI VALLEY, CA, 93063",110090493,"L"
748593,"5969 NW ALFALFA DR","PORTLAND","OR",97229,45.562724335,-122.839873788,93,"5969 NW ALFALFA DR, PORTLAND, OR, 97229","Match","Exact","5969 NW ALFALFA DR, PORTLAND, OR, 97229",158223410,"R"
748594,"5969 SEARLE TERRACE","BETHESDA","MD",20816,38.965339258,-77.1197347139999,94,"5969 SEARLE TERRACE, BETHESDA, MD, 20816","Match","Non_Exact","5969 SEARL TER, BETHESDA, MD, 20816",62058776,"R"
748595,"59693 CALGARY LOOP","BEND","OR",97702,43.9688501090001,-121.19600534,95,"59693 CALGARY LOOP, BEND, OR, 97702","Match","Non_Exact","59693 CALGARY DR, BEND, OR, 97702",152528620,"L"
748596,"59699 BLUEBIRD CT","SOUTH BEND","IN",46628,41.625965427,-86.2767777459999,96,"59699 BLUEBIRD CT, SOUTH BEND, IN, 46628","Match","Non_Exact","59699 BLUEBIRD CT, SOUTH BEND, IN, 46614",8072245,"L"
748597,"596A CLOVER LN","ELIZABETHTOWN","KY",42701,37.7022806410001,-85.872727179,97,"596A CLOVER LN, ELIZABETHTOWN, KY, 42701","Match","Exact","596 CLOVER LN, ELIZABETHTOWN, KY, 42701",34622257,"L"
748598,"597 49TH AVE S","GRAND FORKS","ND",58201,47.8733661300001,-97.033879056,98,"597 49TH AVE S, GRAND FORKS, ND, 58201","Match","Exact","597 49TH AVE S, GRAND FORKS, ND, 58201",635566944,"L"
748599,"597 5TH ST NW","SOUTH HEART","ND",58655,46.868605535,-102.993321574,99,"597 5TH ST NW, SOUTH HEART, ND, 58655","Match","Exact","597 5TH ST NW, SOUTH HEART, ND, 58655",624437277,"L"
748600,"597 AVENUE OF FLAGS UNIT 201","BUELLTON","CA",93427,NA,NA,100,"597 AVENUE OF FLAGS UNIT 201, BUELLTON, CA, 93427","No_Match",NA,NA,NA,NA
748601,"597 BIG A RD","TOCCOA","GA",30577,34.5724409970001,-83.310423843,101,"597 BIG A RD, TOCCOA, GA, 30577","Match","Non_Exact","597 S BIG A RD, TOCCOA, GA, 30577",97843375,"R"
748602,"597 BROADWAY UNIT 4","SOMERVILLE","MA",2145,42.3986675410001,-71.1085141039999,102,"597 BROADWAY UNIT 4, SOMERVILLE, MA, 2145","Match","Exact","597 BROADWAY, SOMERVILLE, MA, 02145",86859061,"R"
748603,"597 BROADWAY","STATEN ISLAND","NY",10310,40.626041065,-74.114824429,103,"597 BROADWAY, STATEN ISLAND, NY, 10310","Match","Exact","597 BROADWAY, STATEN ISLAND, NY, 10310",59878208,"L"
748604,"597 BUCK DR","FAIRLESS HILLS","PA",19030,40.1677405250001,-74.851882476,104,"597 BUCK DR, FAIRLESS HILLS, PA, 19030","Match","Exact","597 BUCK DR, FAIRLESS HILLS, PA, 19030",134732563,"R"
748605,"597 CANTERBURY ROAD","BAY VILLAGE","OH",44140,41.4788247060001,-81.9112108259999,105,"597 CANTERBURY ROAD, BAY VILLAGE, OH, 44140","Match","Exact","597 CANTERBURY RD, BAY VILLAGE, OH, 44140",61149831,"L"
748606,"597 CIBOLA ST","NEEDLES","CA",92363,34.834384936,-114.60315144,106,"597 CIBOLA ST, NEEDLES, CA, 92363","Match","Exact","597 CIBOLA ST, NEEDLES, CA, 92363",144524297,"L"
748607,"597 COHANNET ST","TAUNTON","MA",2780,41.890974509,-71.108188201,107,"597 COHANNET ST, TAUNTON, MA, 2780","Match","Exact","597 COHANNET ST, TAUNTON, MA, 02780",46786258,"R"
748608,"597 COUNTY ROUTE 42","MASSENA","NY",13662,44.959811105,-74.8320575339999,108,"597 COUNTY ROUTE 42, MASSENA, NY, 13662","Match","Non_Exact","597 CO RD 42, MASSENA, NY, 13662",155157702,"L"
748609,"597 CUTCHEN LN APT 201","FAYETTEVILLE","NC",28314,35.059265302,-79.007333748,109,"597 CUTCHEN LN APT 201, FAYETTEVILLE, NC, 28314","Match","Exact","597 CUTCHEN LN, FAYETTEVILLE, NC, 28314",64227891,"L"
748610,"597 DAVIDSON STREET","MOBILE","AL",36603,30.700359802,-88.0571679779999,110,"597 DAVIDSON STREET, MOBILE, AL, 36603","Match","Exact","597 DAVIDSON ST, MOBILE, AL, 36603",61866985,"L"
748611,"597 E CANTEBRIA DR","GILBERT","AZ",85296,33.3341007060001,-111.776601799,111,"597 E CANTEBRIA DR, GILBERT, AZ, 85296","Match","Exact","597 E CANTEBRIA DR, GILBERT, AZ, 85296",128794295,"R"
748612,"597 EAST 139TH ST APT 3N","BRONX","NY",10454,40.8071399,-73.916125635,112,"597 EAST 139TH ST APT 3N, BRONX, NY, 10454","Match","Exact","597 E 139TH ST, BRONX, NY, 10454",80300801,"L"
748613,"597 EAST 60 SOUTH","AMERICAN FORK","UT",84003,40.375536933,-111.783413317,113,"597 EAST 60 SOUTH, AMERICAN FORK, UT, 84003","Match","Exact","597 E 60 S, AMERICAN FORK, UT, 84003",624752657,"L"
748614,"597 EMPIRE BLVD STE 4","BROOKLYN","NY",11213,40.664041846,-73.9423502129999,114,"597 EMPIRE BLVD STE 4, BROOKLYN, NY, 11213","Match","Exact","597 EMPIRE BLVD, BROOKLYN, NY, 11213",634254600,"L"
748615,"597 FIG AVENUE","CHULA VISTA","CA",91910,32.6295873560001,-117.081666808,115,"597 FIG AVENUE, CHULA VISTA, CA, 91910","Match","Exact","597 FIG AVE, CHULA VISTA, CA, 91910",195356048,"L"
748616,"597 FORBES TRAIL RD","GREENSBURG","PA",15601,40.3459335200001,-79.523337382,116,"597 FORBES TRAIL RD, GREENSBURG, PA, 15601","Match","Exact","597 FORBES TRAIL RD, GREENSBURG, PA, 15601",627741425,"L"
748617,"597 FRED KELLEY ROAD","ROME","GA",30161,34.2649762710001,-85.0787810099999,117,"597 FRED KELLEY ROAD, ROME, GA, 30161","Match","Non_Exact","597 FRED KELLEY RD NE, ROME, GA, 30161",30695495,"L"
748618,"597 GIDDING STREET UNIT 1","KELLEY","IA",50134,NA,NA,118,"597 GIDDING STREET UNIT 1, KELLEY, IA, 50134","No_Match",NA,NA,NA,NA
748619,"597 HAMILTON COURT","RIVER FALLS","WI",54022,44.8429469110001,-92.639441735,119,"597 HAMILTON COURT, RIVER FALLS, WI, 54022","Match","Exact","597 HAMILTON CT, RIVER FALLS, WI, 54022",95867838,"R"
748620,"597 HARDING RANCH RD","TROY","MT",59935,48.8344139340001,-115.683180457,120,"597 HARDING RANCH RD, TROY, MT, 59935","Match","Exact","597 HARDING RANCH RD, TROY, MT, 59935",636777642,"L"
748621,"597 HARMAN ROAD","HALIFAX","PA",17032,40.531223368,-76.7884862349999,121,"597 HARMAN ROAD, HALIFAX, PA, 17032","Match","Exact","597 HARMAN RD, HALIFAX, PA, 17032",70832930,"R"
748622,"597 HARRISON ST","WATERLOO","WI",53594,43.177961731,-88.9943348309999,122,"597 HARRISON ST, WATERLOO, WI, 53594","Match","Exact","597 HARRISON ST, WATERLOO, WI, 53594",53209300,"L"
748623,"597 HONEY CREEK WEST","BELLVILLE","OH",44813,40.5953568910001,-82.5313398279999,123,"597 HONEY CREEK WEST, BELLVILLE, OH, 44813","Match","Non_Exact","597 HONEY CREEK RD W, BELLVILLE, OH, 44813",207217609,"R"
748624,"597 HWY 181","CABOOL","MO",65689,37.0636496330001,-92.106732976,124,"597 HWY 181, CABOOL, MO, 65689","Match","Non_Exact","597 STATE RTE 181, CABOOL, MO, 65689",26469251,"L"
748625,"597 KINGSTON AVE","MAPLEWOOD","MN",55117,44.99372434,-93.074987079,125,"597 KINGSTON AVE, MAPLEWOOD, MN, 55117","Match","Exact","597 KINGSTON AVE, MAPLEWOOD, MN, 55117",97649978,"L"
748626,"597 LA SALLE  ST","ELGIN","IL",60123,42.0487013360001,-88.313177775,126,"597 LA SALLE  ST, ELGIN, IL, 60123","Match","Non_Exact","597 LA SALLE PL, ELGIN, IL, 60123",119501737,"L"
748627,"597 LAKEVIEW TERRACE SE","MABLETON","GA",30126,33.834051604,-84.5374457359999,127,"597 LAKEVIEW TERRACE SE, MABLETON, GA, 30126","Match","Non_Exact","597 LAKEVIEW TER, MABLETON, GA, 30126",624248537,"L"
748628,"597 MCDOWELL DR","CHESTER","SC",29706,34.70191348,-81.193596132,128,"597 MCDOWELL DR, CHESTER, SC, 29706","Match","Exact","597 MCDOWELL DR, CHESTER, SC, 29706",40563868,"L"
748629,"597 MORRIS STEVENS RD","MACON","GA",31217,32.929364671,-83.435130011,129,"597 MORRIS STEVENS RD, MACON, GA, 31217","Match","Exact","597 MORRIS STEVENS RD, MACON, GA, 31217",65483767,"R"
748630,"597 N DEAN ST","BUSHNELL","IL",61422,40.5545495550001,-90.509973201,130,"597 N DEAN ST, BUSHNELL, IL, 61422","Match","Exact","597 N DEAN ST, BUSHNELL, IL, 61422",5373704,"L"
748631,"597 N DEKUM APT 205","PORTLAND","OR",97217,NA,NA,131,"597 N DEKUM APT 205, PORTLAND, OR, 97217","No_Match",NA,NA,NA,NA
748632,"597 N PHILELPHIA ST","ANAHEIM","CA",92805,NA,NA,132,"597 N PHILELPHIA ST, ANAHEIM, CA, 92805","No_Match",NA,NA,NA,NA
748633,"597 N SAVANNAH DRIVE","JASPER","IN",47546,38.3864544190001,-86.986663826,133,"597 N SAVANNAH DRIVE, JASPER, IN, 47546","Match","Exact","597 SAVANNAH DR, JASPER, IN, 47546",608327338,"R"
748634,"597 NORTH LEAVITT RD","LEAVITTSBURG","OH",44430,41.2478068020001,-80.8773405909999,134,"597 NORTH LEAVITT RD, LEAVITTSBURG, OH, 44430","Match","Exact","597 N LEAVITT RD, LEAVITTSBURG, OH, 44430",117403563,"R"
748635,"597 OPENING HILL","MADISON","CT",6443,41.342115821,-72.638989747,135,"597 OPENING HILL, MADISON, CT, 6443","Match","Non_Exact","597 OPENING HILL RD, MADISON, CT, 06443",3709221,"L"
748636,"597 PARK AVE EAST","MANSFIELD","OH",44905,40.7581948060001,-82.491360135,136,"597 PARK AVE EAST, MANSFIELD, OH, 44905","Match","Exact","597 PARK AVE E, MANSFIELD, OH, 44905",207219370,"L"
748637,"597 PAT CRUZ LANE","EL PASO","TX",79932,31.874980459,-106.61214655,137,"597 PAT CRUZ LANE, EL PASO, TX, 79932","Match","Non_Exact","597 PAT CRUZ, EL PASO, TX, 79932",189428740,"L"
748638,"597 PIONEER ROAD NE","ARLINGTON","GA",39813,NA,NA,138,"597 PIONEER ROAD NE, ARLINGTON, GA, 39813","No_Match",NA,NA,NA,NA
748639,"597 PLEASANT HILL ROAD","HOOKSTOWN","PA",15050,40.55102592,-80.466832535,139,"597 PLEASANT HILL ROAD, HOOKSTOWN, PA, 15050","Match","Exact","597 PLEASANT HILL RD, HOOKSTOWN, PA, 15050",52552341,"R"
748640,"597 PRESBYTERIAN ROAD","MOORESVILLE","NC",28115,35.5200201750001,-80.8066052299999,140,"597 PRESBYTERIAN ROAD, MOORESVILLE, NC, 28115","Match","Exact","597 PRESBYTERIAN RD, MOORESVILLE, NC, 28115",46014938,"L"
748641,"597 PRESCOTT LN","GURNEE","IL",60031,42.3648299980001,-87.983971852,141,"597 PRESCOTT LN, GURNEE, IL, 60031","Match","Exact","597 PRESCOTT LN, GURNEE, IL, 60031",119755564,"L"
748642,"597 PRESTON TRAILS DR","PICKERINGTON","OH",43147,39.872722767,-82.775627051,142,"597 PRESTON TRAILS DR, PICKERINGTON, OH, 43147","Match","Exact","597 PRESTON TRAILS DR, PICKERINGTON, OH, 43147",37250253,"R"
748643,"597 PROSPECT PLACE","BROOKLYN","NY",11238,40.675159691,-73.956865326,143,"597 PROSPECT PLACE, BROOKLYN, NY, 11238","Match","Exact","597 PROSPECT PL, BROOKLYN, NY, 11238",59079334,"L"
748644,"597 PURDY RD","CALHOUN","LA",71225,32.527316462,-92.391702679,144,"597 PURDY RD, CALHOUN, LA, 71225","Match","Exact","597 PURDY RD, CALHOUN, LA, 71225",648100491,"L"
748645,"597 REYBURN ROAD","SHICKSHINNY","PA",18655,41.2235452130001,-76.156522963,145,"597 REYBURN ROAD, SHICKSHINNY, PA, 18655","Match","Exact","597 REYBURN RD, SHICKSHINNY, PA, 18655",80901031,"R"
748646,"597 RHEA WAY","LIVERMORE","CA",94550,37.660022725,-121.791129313,146,"597 RHEA WAY, LIVERMORE, CA, 94550","Match","Exact","597 RHEA WAY, LIVERMORE, CA, 94550",125081902,"R"
748647,"597 RIDGE AVE","SAINT LOUIS","MO",63119,38.5858083590001,-90.341379909,147,"597 RIDGE AVE, SAINT LOUIS, MO, 63119","Match","Exact","597 RIDGE AVE, SAINT LOUIS, MO, 63119",100141244,"L"
748648,"597 ROUND MOUNTAIN RD","WALNUT SHADE","MO",65771,36.781822827,-93.176743786,148,"597 ROUND MOUNTAIN RD, WALNUT SHADE, MO, 65771","Match","Exact","597 ROUND MOUNTAIN RD, WALNUT SHADE, MO, 65771",636259397,"L"
748649,"597 ROUND MOUNTAIN ROAD","WALNUT SHADE","MO",65771,36.781822827,-93.176743786,149,"597 ROUND MOUNTAIN ROAD, WALNUT SHADE, MO, 65771","Match","Exact","597 ROUND MOUNTAIN RD, WALNUT SHADE, MO, 65771",636259397,"L"
748650,"597 SANTA CLARA AVE","BERKELEY","CA",94707,37.897530896,-122.280637744,150,"597 SANTA CLARA AVE, BERKELEY, CA, 94707","Match","Exact","597 SANTA CLARA AVE, BERKELEY, CA, 94707",125067010,"L"
748651,"597 SE OAKRIDGE DRIVE","PORT SAINT LUCIE","FL",34984,27.2647087870001,-80.335983469,151,"597 SE OAKRIDGE DRIVE, PORT SAINT LUCIE, FL, 34984","Match","Non_Exact","597 SW OAKRIDGE DR, PORT ST LUCIE, FL, 34984",120153276,"L"
748652,"597 SEVEN MILE RIDGE ROAD","BURNSVILLE","NC",28714,35.835799235,-82.177129005,152,"597 SEVEN MILE RIDGE ROAD, BURNSVILLE, NC, 28714","Match","Exact","597 SEVEN MILE RIDGE RD, BURNSVILLE, NC, 28714",635550874,"R"
748653,"597 SIMMONS ROAD","RUSTON","LA",71270,32.587807959,-92.684575735,153,"597 SIMMONS ROAD, RUSTON, LA, 71270","Match","Exact","597 SIMMONS RD, RUSTON, LA, 71270",635832441,"R"
748654,"597 SLEEPY HOLLOW DRIVE","STURGEON BAY","WI",54235,44.6996088180001,-87.498400249,154,"597 SLEEPY HOLLOW DRIVE, STURGEON BAY, WI, 54235","Match","Exact","597 SLEEPY HOLLOW DR, STURGEON BAY, WI, 54235",167252084,"L"
748655,"597 SOUTH 5TH STREET","JESUP","GA",31545,31.6059690770001,-81.895256268,155,"597 SOUTH 5TH STREET, JESUP, GA, 31545","Match","Exact","597 S 5TH ST, JESUP, GA, 31545",4842321,"R"
748656,"597 STANFORD CT","IRVINE","CA",92612,33.6521239510001,-117.840163292,156,"597 STANFORD CT, IRVINE, CA, 92612","Match","Exact","597 STANFORD CT, IRVINE, CA, 92612",609042164,"L"
748657,"597 STATE STREET","PERTH AMBOY","NJ",8861,40.5184563550001,-74.26440397,157,"597 STATE STREET, PERTH AMBOY, NJ, 8861","Match","Exact","597 STATE ST, PERTH AMBOY, NJ, 08861",60281403,"L"
748658,"597 STONEBRIDGE","REXBURG","ID",83440,43.8385750250001,-111.771000566,158,"597 STONEBRIDGE, REXBURG, ID, 83440","Match","Non_Exact","597 STONEBRIDGE ST, REXBURG, ID, 83440",119117078,"R"
748659,"597 STREETER BROOK RD","LITTLE GENESEE","NY",14754,42.0244489680001,-78.2222260409999,159,"597 STREETER BROOK RD, LITTLE GENESEE, NY, 14754","Match","Exact","597 STREETER BROOK RD, LITTLE GENESEE, NY, 14754",641263250,"L"
748660,"597 SW 1601","HOLDEN","MO",64040,NA,NA,160,"597 SW 1601, HOLDEN, MO, 64040","No_Match",NA,NA,NA,NA
748661,"597 TIDELAND DRIVE","MIDWAY","GA",31320,NA,NA,161,"597 TIDELAND DRIVE, MIDWAY, GA, 31320","No_Match",NA,NA,NA,NA
748662,"597 TURNER DRIVE","BELFORD","NJ",7718,40.4122876340001,-74.089631987,162,"597 TURNER DRIVE, BELFORD, NJ, 7718","Match","Exact","597 TURNER DR, BELFORD, NJ, 07718",90470151,"L"
748663,"597 VILLAGE BLVD NORTH","BALDWINSVILLE","NY",13027,43.1293136370001,-76.312077492,163,"597 VILLAGE BLVD NORTH, BALDWINSVILLE, NY, 13027","Match","Non_Exact","597 VILLAGE BLVD S, BALDWINSVILLE, NY, 13027",46621669,"R"
748664,"597 WALWORTH DR","GALT","CA",95632,38.2700349,-121.284681955,164,"597 WALWORTH DR, GALT, CA, 95632","Match","Exact","597 WALWORTH DR, GALT, CA, 95632",133448728,"L"
748665,"597 WARKWICK STREET","BROOKLYN","NY",11207,NA,NA,165,"597 WARKWICK STREET, BROOKLYN, NY, 11207","No_Match",NA,NA,NA,NA
748666,"597 WARWICK STREET","BROOKLYN","NY",11207,40.668631858,-73.884618057,166,"597 WARWICK STREET, BROOKLYN, NY, 11207","Match","Exact","597 WARWICK ST, BROOKLYN, NY, 11207",59085187,"L"
748667,"597 WEST 11TH STREET","PANAMA CITY","FL",32401,30.167901526,-85.6671853509999,167,"597 WEST 11TH STREET, PANAMA CITY, FL, 32401","Match","Exact","597 W 11TH ST, PANAMA CITY, FL, 32401",7029203,"L"
748668,"597 WILLIAMS RD","SHREVEPORT","LA",71106,32.3611076240001,-93.700344439,168,"597 WILLIAMS RD, SHREVEPORT, LA, 71106","Match","Exact","597 WILLIAMS RD, SHREVEPORT, LA, 71106",57478063,"R"
748669,"597 WILLOWSIDE ROAD","SANTA ROSA","CA",95401,38.442728672,-122.806736019,169,"597 WILLOWSIDE ROAD, SANTA ROSA, CA, 95401","Match","Exact","597 WILLOWSIDE RD, SANTA ROSA, CA, 95401",604986359,"L"
748670,"597 WOODLAND DR","HOLLAND","MI",49424,42.8223223800001,-86.1322747039999,170,"597 WOODLAND DR, HOLLAND, MI, 49424","Match","Exact","597 WOODLAND DR, HOLLAND, MI, 49424",71074815,"L"
748671,"5970 ALLIGATOR LAKE SHORE WEST","SAINT CLOUD","FL",34771,28.239963453,-81.199623915,171,"5970 ALLIGATOR LAKE SHORE WEST, SAINT CLOUD, FL, 34771","Match","Exact","5970 ALLIGATOR LAKE SHORE W, SAINT CLOUD, FL, 34771",638653205,"R"
748672,"5970 AMSTERDAM ROAD","MANHATTAN","MT",59741,45.772652582,-111.303718522,172,"5970 AMSTERDAM ROAD, MANHATTAN, MT, 59741","Match","Exact","5970 AMSTERDAM RD, MANHATTAN, MT, 59741",163525493,"R"
748673,"5970 ANITA ROAD","CHICO","CA",95973,39.811136371,-121.9731505,173,"5970 ANITA ROAD, CHICO, CA, 95973","Match","Exact","5970 ANITA RD, CHICO, CA, 95973",68462596,"R"
748674,"5970 BUTTON WILLOW LANE","TALLAHASSEE","FL",32305,30.3617542150001,-84.2985848179999,174,"5970 BUTTON WILLOW LANE, TALLAHASSEE, FL, 32305","Match","Exact","5970 BUTTON WILLOW LN, TALLAHASSEE, FL, 32305",82863899,"L"
748675,"5970 CLARIDGE DR","RIVERSIDE","CA",92506,33.9433214750001,-117.339916913,175,"5970 CLARIDGE DR, RIVERSIDE, CA, 92506","Match","Exact","5970 CLARIDGE DR, RIVERSIDE, CA, 92506",194746921,"L"
748676,"5970 COUNTY ROAD 316","PALMYRA","MO",63461,39.8670736080001,-91.563489101,176,"5970 COUNTY ROAD 316, PALMYRA, MO, 63461","Match","Exact","5970 CO RD 316, PALMYRA, MO, 63461",35340844,"R"
748677,"5970 DARBY ROAD","CICERO","NY",13039,43.1586122780001,-76.106357868,177,"5970 DARBY ROAD, CICERO, NY, 13039","Match","Exact","5970 DARBY RD, CICERO, NY, 13039",46567887,"R"
748678,"5970 DUNDRIDGE DRIVE","PACE","FL",32571,NA,NA,178,"5970 DUNDRIDGE DRIVE, PACE, FL, 32571","No_Match",NA,NA,NA,NA
748679,"5970 DUSTIN TRAIL","FRISCO","TX",75034,33.1351486830001,-96.8350894229999,179,"5970 DUSTIN TRAIL, FRISCO, TX, 75034","Match","Exact","5970 DUSTIN TRL, FRISCO, TX, 75034",123563667,"R"
748680,"5970 E WASHBOARD RD","BLOOMFIELD","IN",47424,39.0603875730001,-86.83194109,180,"5970 E WASHBOARD RD, BLOOMFIELD, IN, 47424","Match","Exact","5970 E WASHBOARD RD, BLOOMFIELD, IN, 47424",39306424,"R"
748681,"5970 FAIRVIEW ROAD SUITE 412","CHARLOTTE","NC",28210,35.1512695910001,-80.840490566,181,"5970 FAIRVIEW ROAD SUITE 412, CHARLOTTE, NC, 28210","Match","Exact","5970 FAIRVIEW RD, CHARLOTTE, NC, 28210",652171699,"R"
748682,"5970 HAVILLAND LANE","RIVERSIDE","CA",92504,33.9556890170001,-117.433648595,182,"5970 HAVILLAND LANE, RIVERSIDE, CA, 92504","Match","Exact","5970 HAVILLAND LN, RIVERSIDE, CA, 92504",194739106,"L"
748683,"5970 LIMONITE BLVD","RIVERSIDE","CA",92509,33.9923417200001,-117.423531728,183,"5970 LIMONITE BLVD, RIVERSIDE, CA, 92509","Match","Non_Exact","5970 LIMONITE AVE, RIVERSIDE, CA, 92509",194739174,"L"
748684,"5970 MARZILLI ST NW","CANTON","OH",44718,40.836198691,-81.4611612749999,184,"5970 MARZILLI ST NW, CANTON, OH, 44718","Match","Non_Exact","5970 MARZILLI CIR NW, CANTON, OH, 44718",623848199,"L"
748685,"5970 NE 22ND TERRACE","FT LAUDERDALE","FL",33308,26.201979679,-80.111525091,185,"5970 NE 22ND TERRACE, FT LAUDERDALE, FL, 33308","Match","Exact","5970 NE 22ND TER, FORT LAUDERDALE, FL, 33308",114723882,"R"
748686,"5970 NORTH SALINE AVENUE","KANSAS CITY","MO",64151,39.2051572280001,-94.652509645,186,"5970 NORTH SALINE AVENUE, KANSAS CITY, MO, 64151","Match","Exact","5970 N SALINE AVE, KANSAS CITY, MO, 64151",628855627,"L"
748687,"5970 PENSACOLA BLVD","PENSACOLA","FL",32505,30.474075773,-87.247947484,187,"5970 PENSACOLA BLVD, PENSACOLA, FL, 32505","Match","Non_Exact","5970 PENSACOLA BLVD, PENSACOLA, FL, 32503",649932425,"R"
748688,"5970 SHADOW LAWN DRIVE","MORROW","OH",45152,39.344636242,-84.142530143,188,"5970 SHADOW LAWN DRIVE, MORROW, OH, 45152","Match","Exact","5970 SHADOW LAWN DR, MORROW, OH, 45152",159015354,"L"
748689,"5970 W 2ND STREET NUM 8","LOS ANGELES","CA",90036,34.0710226190001,-118.350362373,189,"5970 W 2ND STREET NUM 8, LOS ANGELES, CA, 90036","Match","Non_Exact","5970 W 2ND ST, LOS ANGELES, CA, 90036",141599125,"L"
748690,"5970 W COAL MINE AVENUE","LITTLETON","CO",80123,39.5952034750001,-105.06295385,190,"5970 W COAL MINE AVENUE, LITTLETON, CO, 80123","Match","Exact","5970 W COAL MINE AVE, LITTLETON, CO, 80123",640551283,"L"
748691,"5971 B GANNETE AVE","EWA BEACH","HI",96706,21.3241664970001,-157.974097104,191,"5971 B GANNETE AVE, EWA BEACH, HI, 96706","Match","Non_Exact","5971 GANNET AVE, EWA BEACH, HI, 96706",203230027,"R"
748692,"5971 BUR OAKS LANE","NAPLES","FL",34119,26.250005119,-81.726562713,192,"5971 BUR OAKS LANE, NAPLES, FL, 34119","Match","Exact","5971 BUR OAKS LN, NAPLES, FL, 34119",640429608,"L"
748693,"5971 COBBLESTONE CREEK TRAIL","ATLANTA","GA",30313,NA,NA,193,"5971 COBBLESTONE CREEK TRAIL, ATLANTA, GA, 30313","No_Match",NA,NA,NA,NA
748694,"5971 COBBLESTONE CREEK TRAIL","MABLETON","GA",30126,33.810560159,-84.53673016,194,"5971 COBBLESTONE CREEK TRAIL, MABLETON, GA, 30126","Match","Exact","5971 COBBLESTONE CREEK TRL, MABLETON, GA, 30126",618315259,"L"
748695,"5971 COBBLESTONE","ATLANTA","GA",30313,NA,NA,195,"5971 COBBLESTONE, ATLANTA, GA, 30313","No_Match",NA,NA,NA,NA
748696,"5971 E 100TH AVENUE","THORNTON","CO",80229,39.8780572740001,-104.919268148,196,"5971 E 100TH AVENUE, THORNTON, CO, 80229","Match","Exact","5971 E 100TH AVE, THORNTON, CO, 80229",653591914,"L"
748697,"5971 E EL MONTE WAY","FRESNO","CA",93727,36.735712257,-119.684036502,197,"5971 E EL MONTE WAY, FRESNO, CA, 93727","Match","Exact","5971 E EL MONTE WAY, FRESNO, CA, 93727",197586366,"L"
748698,"5971 LAKE CREST WAY APT 19","SACRAMENTO","CA",95822,38.5180311060001,-121.516173435,198,"5971 LAKE CREST WAY APT 19, SACRAMENTO, CA, 95822","Match","Exact","5971 LAKE CREST WAY, SACRAMENTO, CA, 95822",133322875,"L"
748699,"5971 N US HWY 287","ALVORD","TX",76225,33.34054387,-97.678136875,199,"5971 N US HWY 287, ALVORD, TX, 76225","Match","Exact","5971 US HWY 287, ALVORD, TX, 76225",653219144,"L"
748700,"5971 NORTH 23RD STREET","LINCOLN","NE",68521,40.873110409,-96.68673188,200,"5971 NORTH 23RD STREET, LINCOLN, NE, 68521","Match","Exact","5971 N 23RD ST, LINCOLN, NE, 68521",28282978,"L"
748701,"5971 PLEASANT HILL RD","ASHLAND","MS",38603,34.7625352110001,-89.1452018699999,201,"5971 PLEASANT HILL RD, ASHLAND, MS, 38603","Match","Exact","5971 PLEASANT HILL RD, ASHLAND, MS, 38603",649881405,"R"
748702,"5971 POWELLS LANDING RD","BURKE","VA",22015,38.789233698,-77.307118745,202,"5971 POWELLS LANDING RD, BURKE, VA, 22015","Match","Non_Exact","5971 POWELL'S LANDING RD, BURKE, VA, 22015",75973709,"L"
748703,"5971 S MOON DESERT DRIVE","TUCSON","AZ",85747,32.1432508780001,-110.761640099,203,"5971 S MOON DESERT DRIVE, TUCSON, AZ, 85747","Match","Exact","5971 S MOON DESERT DR, TUCSON, AZ, 85747",624581208,"L"
748704,"5971 THEODORE AVE","HAMILTON","OH",45011,39.406699884,-84.528275204,204,"5971 THEODORE AVE, HAMILTON, OH, 45011","Match","Exact","5971 THEODORE AVE, HAMILTON, OH, 45011",113790802,"R"
748705,"5971 TWYCKENHAM DRIVE","INDIANAPOLIS","IN",46236,39.8648051120001,-85.989802732,205,"5971 TWYCKENHAM DRIVE, INDIANAPOLIS, IN, 46236","Match","Exact","5971 TWYCKENHAM DR, INDIANAPOLIS, IN, 46236",108044334,"L"
748706,"5971 WEISS","SAGINAW","MI",48603,43.4441519270001,-84.0342532179999,206,"5971 WEISS, SAGINAW, MI, 48603","Match","Non_Exact","5971 WEISS ST, SAGINAW, MI, 48603",80223394,"L"
748707,"5971 WESTCHASE ST","ATLANTA","GA",30336,33.7230224140001,-84.578435081,207,"5971 WESTCHASE ST, ATLANTA, GA, 30336","Match","Exact","5971 WESTCHASE ST, ATLANTA, GA, 30336",629822434,"R"
748708,"5972 83RD PKWY N","MINNEAPOLIS","MN",55443,45.105329554,-93.357289661,208,"5972 83RD PKWY N, MINNEAPOLIS, MN, 55443","Match","Exact","5972 83RD PKWY N, MINNEAPOLIS, MN, 55443",43856113,"L"
748709,"5972 BENT PINE DR","ORLANDO","FL",32822,28.4732100910001,-81.3048609699999,209,"5972 BENT PINE DR, ORLANDO, FL, 32822","Match","Exact","5972 BENT PINE DR, ORLANDO, FL, 32822",606114488,"R"
748710,"5972 E PLACITA DE LAS LUCES","TUCSON","AZ",85750,NA,NA,210,"5972 E PLACITA DE LAS LUCES, TUCSON, AZ, 85750","No_Match",NA,NA,NA,NA
748711,"5972 MARSHALL AVE","BUENA PARK","CA",90621,33.873931702,-117.994812741,211,"5972 MARSHALL AVE, BUENA PARK, CA, 90621","Match","Exact","5972 MARSHALL AVE, BUENA PARK, CA, 90621",144009905,"L"
748712,"5972 MAXFIELD CT","MANASSAS","VA",20112,38.675795307,-77.3815111979999,212,"5972 MAXFIELD CT, MANASSAS, VA, 20112","Match","Exact","5972 MAXFIELD CT, MANASSAS, VA, 20112",619940645,"R"
748713,"5972 MAYFLOWER COURT","SAN JOSE","CA",95129,37.2949256380001,-122.009391861,213,"5972 MAYFLOWER COURT, SAN JOSE, CA, 95129","Match","Exact","5972 MAYFLOWER CT, SAN JOSE, CA, 95129",122942176,"L"
748714,"5972 MELSHIRE","DALLAS","TX",75230,32.914246027,-96.804828127,214,"5972 MELSHIRE, DALLAS, TX, 75230","Match","Non_Exact","5972 MELSHIRE DR, DALLAS, TX, 75230",103208320,"R"
748715,"5972 MONROE XIMG","ANTIOCH","TN",37013,NA,NA,215,"5972 MONROE XIMG, ANTIOCH, TN, 37013","No_Match",NA,NA,NA,NA
748716,"5972 SOUTH MACK CT","GILBERT","AZ",85298,33.241379974,-111.721638933,216,"5972 SOUTH MACK CT, GILBERT, AZ, 85298","Match","Exact","5972 S MACK CT, GILBERT, AZ, 85298",128878375,"L"
748717,"5972 SR 7","MADISON","IN",47520,38.824270504,-85.4712772669999,217,"5972 SR 7, MADISON, IN, 47520","Match","Non_Exact","5972 STATE RD 7, MADISON, IN, 47250",31392014,"R"
748718,"5972 TAPESTRY DRIVE","WOODBRIDGE","VA",22193,38.6695882660001,-77.385627472,218,"5972 TAPESTRY DRIVE, WOODBRIDGE, VA, 22193","Match","Exact","5972 TAPESTRY DR, WOODBRIDGE, VA, 22193",76531805,"R"
748719,"59724 CR 113","ELKHART","IN",46517,41.6273291540001,-85.9165647889999,219,"59724 CR 113, ELKHART, IN, 46517","Match","Exact","59724 CO RD 113, ELKHART, IN, 46517",641170037,"L"
748720,"5973 AVENIDA ENCINAS STE 110","CARLSBAD","CA",92008,33.1231045230001,-117.324839305,220,"5973 AVENIDA ENCINAS STE 110, CARLSBAD, CA, 92008","Match","Exact","5973 AVE ENCINAS, CARLSBAD, CA, 92008",637383847,"R"
748721,"5973 LOKELANI RD","KAPAA","HI",96746,22.0724818080001,-159.361379526,221,"5973 LOKELANI RD, KAPAA, HI, 96746","Match","Exact","5973 LOKELANI RD, KAPAA, HI, 96746",639060355,"R"
748722,"5973 NATALIE RD","CHINO HILLS","CA",91709,33.9378674270001,-117.674392357,222,"5973 NATALIE RD, CHINO HILLS, CA, 91709","Match","Exact","5973 NATALIE RD, CHINO HILLS, CA, 91709",649781947,"R"
748723,"5973 ORCHARD DRIVE","CINCINNATI","OH",45230,39.0797313310001,-84.394483146,223,"5973 ORCHARD DRIVE, CINCINNATI, OH, 45230","Match","Exact","5973 ORCHARD DR, CINCINNATI, OH, 45230",103974143,"R"
748724,"5973 S MAIN","LAS CRUCES","NM",88001,NA,NA,224,"5973 S MAIN, LAS CRUCES, NM, 88001","No_Match",NA,NA,NA,NA
748725,"59734 M-62","CASSOPOLIS","MI",49031,NA,NA,225,"59734 M-62, CASSOPOLIS, MI, 49031","No_Match",NA,NA,NA,NA
748726,"5974  BREEZEWOOD DR","CINCINNATI","OH",45248,NA,NA,226,"5974  BREEZEWOOD DR, CINCINNATI, OH, 45248","No_Match",NA,NA,NA,NA
748727,"5974 CHARLES D EVERS D","JACKSONVILLE","FL",32219,30.3916205400001,-81.740185223,227,"5974 CHARLES D EVERS D, JACKSONVILLE, FL, 32219","Match","Non_Exact","5974 CHARLES D EVERS DR, JACKSONVILLE, FL, 32219",83887623,"L"
748728,"5974 CR 47","AUBURN","IN",46706,41.3150309850001,-84.9640402809999,228,"5974 CR 47, AUBURN, IN, 46706","Match","Exact","5974 CO RD 47, AUBURN, IN, 46706",6517682,"L"
748729,"5974 EDGEWOOD DRIVE","MAYFIELD HEIGHTS","OH",44124,41.5286417560001,-81.4641513619999,229,"5974 EDGEWOOD DRIVE, MAYFIELD HEIGHTS, OH, 44124","Match","Non_Exact","5974 EDGEWOOD RD, MAYFIELD HEIGHTS, OH, 44124",61133980,"R"
748730,"5974 GRASSY ISLAND RD","MOUNT GILEAD","NC",27306,35.122744444,-79.988911378,230,"5974 GRASSY ISLAND RD, MOUNT GILEAD, NC, 27306","Match","Exact","5974 GRASSY ISLAND RD, MOUNT GILEAD, NC, 27306",13934562,"R"
748731,"5974 MAPLE ST","HANOVERTON","OH",44423,40.8153824710001,-80.898009155,231,"5974 MAPLE ST, HANOVERTON, OH, 44423","Match","Exact","5974 MAPLE ST, HANOVERTON, OH, 44423",63626693,"L"
748732,"5974 NW 35TH ST","WARR ACRES","OK",73122,35.506839158,-97.622485027,232,"5974 NW 35TH ST, WARR ACRES, OK, 73122","Match","Exact","5974 NW 35TH ST, WARR ACRES, OK, 73122",100422293,"R"
748733,"5974 RESPITE CT","DULUTH","GA",30097,34.062237012,-84.1857712729999,233,"5974 RESPITE CT, DULUTH, GA, 30097","Match","Exact","5974 RESPITE CT, DULUTH, GA, 30097",642677417,"L"
748734,"5974 S 1055 E","OGDEN","UT",84405,41.1534891060001,-111.956538626,234,"5974 S 1055 E, OGDEN, UT, 84405","Match","Exact","5974 1055 E, OGDEN, UT, 84405",155721104,"L"
748735,"5974 SORREL AVE","SAN JOSE","CA",95123,37.2405872670001,-121.825086658,235,"5974 SORREL AVE, SAN JOSE, CA, 95123","Match","Exact","5974 SORREL AVE, SAN JOSE, CA, 95123",122925236,"L"
748736,"5974 SW 59 STREET","SOUTH MIAMI","FL",33143,25.7157808160001,-80.2914362509999,236,"5974 SW 59 STREET, SOUTH MIAMI, FL, 33143","Match","Exact","5974 SW 59TH ST, SOUTH MIAMI, FL, 33143",115978697,"L"
748737,"5974 SW 59TH STREET","SOUTH MIAMI","FL",33143,25.7157808160001,-80.2914362509999,237,"5974 SW 59TH STREET, SOUTH MIAMI, FL, 33143","Match","Exact","5974 SW 59TH ST, SOUTH MIAMI, FL, 33143",115978697,"L"
748738,"5975 CALLAHAN WAY","PIEDMONT","OK",73078,35.7209985050001,-97.6779205669999,238,"5975 CALLAHAN WAY, PIEDMONT, OK, 73078","Match","Exact","5975 CALLAHAN WAY, PIEDMONT, OK, 73078",627819493,"R"
748739,"5975 CALLAWAY DR","BEAUMONT","TX",77706,NA,NA,239,"5975 CALLAWAY DR, BEAUMONT, TX, 77706","No_Match",NA,NA,NA,NA
748740,"5975 COUNTY ROAD 42 NE","ALEXANDRIA","MN",56308,45.954519577,-95.345276686,240,"5975 COUNTY ROAD 42 NE, ALEXANDRIA, MN, 56308","Match","Exact","5975 CO RD 42 NE, ALEXANDRIA, MN, 56308",204668184,"R"
748741,"5975 CREIGHTON WAY","SAN DIEGO","CA",92114,32.697277279,-117.068904657,241,"5975 CREIGHTON WAY, SAN DIEGO, CA, 92114","Match","Exact","5975 CREIGHTON WAY, SAN DIEGO, CA, 92114",195353072,"R"
748742,"5975 E SPEEDWAY BLVD","TUCSON","AZ",85712,32.2361557070001,-110.865109279,242,"5975 E SPEEDWAY BLVD, TUCSON, AZ, 85712","Match","Exact","5975 E SPEEDWAY BLVD, TUCSON, AZ, 85712",121180591,"L"
748743,"5975 EAST SPEEDWAY BLVD","TUCSON","AZ",85712,32.2361560620001,-110.865138441,243,"5975 EAST SPEEDWAY BLVD, TUCSON, AZ, 85712","Match","Exact","5975 E SPEEDWAY BLVD, TUCSON, AZ, 85712",121180591,"L"
748744,"5975 HILAMAN LANE","MCCONNELSVILLE","OH",43756,39.6894983190001,-81.891501838,244,"5975 HILAMAN LANE, MCCONNELSVILLE, OH, 43756","Match","Exact","5975 HILAMAN LN, MCCONNELSVILLE, OH, 43756",45418743,"L"
748745,"5975 LUDWIG RD","OXFORD","MI",48371,42.8842877540001,-83.3109327669999,245,"5975 LUDWIG RD, OXFORD, MI, 48371","Match","Exact","5975 LUDWIG RD, OXFORD, MI, 48371",110466008,"R"
748746,"5975 OAK VALLEY COURT","SANTA MARIA","CA",93455,34.8513548070001,-120.43806921,246,"5975 OAK VALLEY COURT, SANTA MARIA, CA, 93455","Match","Exact","5975 OAK VALLEY CT, SANTA MARIA, CA, 93455",108691096,"L"
748747,"5975 OLD JUNGO ROAD","WINNEMUCCA","NV",89445,NA,NA,247,"5975 OLD JUNGO ROAD, WINNEMUCCA, NV, 89445","Tie",NA,NA,NA,NA
748748,"5975 PORT TOBACCO ROAD","INDIAN HEAD","MD",20640,38.4934213390001,-77.1672351129999,248,"5975 PORT TOBACCO ROAD, INDIAN HEAD, MD, 20640","Match","Exact","5975 PORT TOBACCO RD, INDIAN HEAD, MD, 20640",25423267,"L"
748749,"5975 S FIREGLOW AVE","BOISE","ID",83709,43.54940464,-116.318544833,249,"5975 S FIREGLOW AVE, BOISE, ID, 83709","Match","Exact","5975 S FIREGLOW AVE, BOISE, ID, 83709",617930050,"R"
748750,"5975 SHORE PARKWAY APT 2D","BROOKLYN","NY",11236,40.6324594930001,-73.88399772,250,"5975 SHORE PARKWAY APT 2D, BROOKLYN, NY, 11236","Match","Exact","5975 SHORE PKWY, BROOKLYN, NY, 11236",650063517,"R"
748751,"5975 SOUTH COOK STREET","CENTENNIAL","CO",80121,39.607831472,-104.948215759,251,"5975 SOUTH COOK STREET, CENTENNIAL, CO, 80121","Match","Exact","5975 S COOK ST, CENTENNIAL, CO, 80121",177344634,"R"
748752,"5975 SUNCREST DRIVE","PINECREST","FL",33156,25.6586998880001,-80.287564596,252,"5975 SUNCREST DRIVE, PINECREST, FL, 33156","Match","Exact","5975 SUNCREST DR, PINECREST, FL, 33156",115986120,"R"
748753,"5975 SW 59TH STREET","SOUTH MIAMI","FL",33143,25.7157917640001,-80.291436903,253,"5975 SW 59TH STREET, SOUTH MIAMI, FL, 33143","Match","Exact","5975 SW 59TH ST, SOUTH MIAMI, FL, 33143",115978697,"R"
748754,"5975 SW CHINOOK LN","CULVER","OR",97734,44.548412983,-121.248863477,254,"5975 SW CHINOOK LN, CULVER, OR, 97734","Match","Exact","5975 SW CHINOOK LN, CULVER, OR, 97734",153240373,"R"
748755,"5975 TRIPLE CROWN DR","MEDINA","OH",44256,41.110591809,-81.8459293349999,255,"5975 TRIPLE CROWN DR, MEDINA, OH, 44256","Match","Exact","5975 TRIPLE CROWN DR, MEDINA, OH, 44256",58692676,"L"
748756,"5975 VENTURA LANE","BEAUMONT","TX",77706,30.0943715220001,-94.1617972339999,256,"5975 VENTURA LANE, BEAUMONT, TX, 77706","Match","Non_Exact","5975 VENTURA ST, BEAUMONT, TX, 77706",73851867,"L"
748757,"5975 W QUAIL AVE","LAS VEGAS","NV",89118,36.083736613,-115.222436414,257,"5975 W QUAIL AVE, LAS VEGAS, NV, 89118","Match","Exact","5975 W QUAIL AVE, LAS VEGAS, NV, 89118",201922552,"L"
748758,"5975 WEST 60TH AVE","ARVADA","CO",80003,39.805556283,-105.062299239,258,"5975 WEST 60TH AVE, ARVADA, CO, 80003","Match","Exact","5975 W 60TH AVE, ARVADA, CO, 80003",177289084,"R"
748759,"5975 WOODRIDGE DRIVE","GREEN LANE","PA",18054,40.3415352280001,-75.453512114,259,"5975 WOODRIDGE DRIVE, GREEN LANE, PA, 18054","Match","Exact","5975 WOODRIDGE DR, GREEN LANE, PA, 18054",634149641,"R"
748760,"5975","SUNRISE","FL",33313,NA,NA,260,"5975, SUNRISE, FL, 33313","No_Match",NA,NA,NA,NA
748761,"5976 ADAMS ROAD","TALENT","OR",97540,42.2457625930001,-122.81980902,261,"5976 ADAMS ROAD, TALENT, OR, 97540","Match","Exact","5976 ADAMS RD, TALENT, OR, 97540",155607271,"L"
748762,"5976 CAMPBELL RD","YORK","SC",29745,35.043770646,-81.112881746,262,"5976 CAMPBELL RD, YORK, SC, 29745","Match","Exact","5976 CAMPBELL RD, YORK, SC, 29745",652414120,"L"
748763,"5976 COLFAX ST","DALTON GARDENS","ID",83815,47.726466159,-116.778807415,263,"5976 COLFAX ST, DALTON GARDENS, ID, 83815","Match","Non_Exact","5976 N COLFAX ST, DALTON GARDENS, ID, 83815",639507995,"R"
748764,"5976 HIAWATHA DRIVE","WINNECONNE","WI",54986,44.132945869,-88.696623524,264,"5976 HIAWATHA DRIVE, WINNECONNE, WI, 54986","Match","Exact","5976 HIAWATHA DR, WINNECONNE, WI, 54986",74528961,"L"
748765,"5976 HYGIENE ROAD","LONGMONT","CO",80503,40.188810217,-105.213857548,265,"5976 HYGIENE ROAD, LONGMONT, CO, 80503","Match","Exact","5976 HYGIENE RD, LONGMONT, CO, 80503",188154144,"R"
748766,"5976 LEAFRIDGE LANE","COLUMBUS","OH",43232,39.9216204860001,-82.838684159,266,"5976 LEAFRIDGE LANE, COLUMBUS, OH, 43232","Match","Exact","5976 LEAFRIDGE LN, COLUMBUS, OH, 43232",218645478,"L"
748767,"5976 MAHONING AVENUE NW","Warren","OH",44481,41.3165563520001,-80.85288911,267,"5976 MAHONING AVENUE NW, Warren, OH, 44481","Match","Non_Exact","5976 MAHONING AVE NW, WARREN, OH, 44483",633563973,"R"
748768,"5976 MAHONING AVENUE NW","WARREN","OH",44481,41.3165563520001,-80.85288911,268,"5976 MAHONING AVENUE NW, WARREN, OH, 44481","Match","Non_Exact","5976 MAHONING AVE NW, WARREN, OH, 44483",633563973,"R"
748769,"5976 MONTERY COURT","FAYETTEVILLE","NC",28314,35.0773565980001,-78.992167608,269,"5976 MONTERY COURT, FAYETTEVILLE, NC, 28314","Match","Non_Exact","5976 MONTEREY CT, FAYETTEVILLE, NC, 28314",64194513,"L"
748770,"5976 PANTHER BUTTE","LITTLETON","CO",80124,39.5273291660001,-104.919719943,270,"5976 PANTHER BUTTE, LITTLETON, CO, 80124","Match","Exact","5976 PANTHER BUTTE, LITTLETON, CO, 80124",130819799,"L"
748771,"5976 ROUTE 9H AND 23","HUDSON","NY",12534,NA,NA,271,"5976 ROUTE 9H AND 23, HUDSON, NY, 12534","No_Match",NA,NA,NA,NA
748772,"5976 S DUNNS FARM RD","MAPLE CITY","MI",49664,44.8963514380001,-85.943564114,272,"5976 S DUNNS FARM RD, MAPLE CITY, MI, 49664","Match","Exact","5976 S DUNNS FARM RD, MAPLE CITY, MI, 49664",634827331,"L"
748773,"5976 Southern Avenue SE",NA,NA,NA,NA,NA,273,"5976 Southern Avenue SE, , , ","No_Match",NA,NA,NA,NA
748774,"5976 SOUTHERN AVENUE SE","WASHINGTON","DC",20019,38.8887346810001,-76.914692214,274,"5976 SOUTHERN AVENUE SE, WASHINGTON, DC, 20019","Match","Exact","5976 SOUTHERN AVE SE, WASHINGTON, DC, 20019",76234224,"L"
748775,"5976 SW 112TH LANE","COOPER CITY","FL",33330,26.045071233,-80.2984706089999,275,"5976 SW 112TH LANE, COOPER CITY, FL, 33330","Match","Exact","5976 SW 112TH LN, COOPER CITY, FL, 33330",114778716,"L"
748776,"5976 W HEAVY CLOUD CIRCLE","HERRIMAN","UT",84096,40.491872777,-112.033217359,276,"5976 W HEAVY CLOUD CIRCLE, HERRIMAN, UT, 84096","Match","Exact","5976 W HEAVY CLOUD CIR, HERRIMAN, UT, 84096",619736320,"R"
748777,"5976 WEDGEWOOD RD","MEDINA","OH",44256,41.099283616,-81.9042695269999,277,"5976 WEDGEWOOD RD, MEDINA, OH, 44256","Match","Exact","5976 WEDGEWOOD RD, MEDINA, OH, 44256",58693470,"R"
748778,"5976 WINDHAM HILL RD","WINDHAM","VT",5359,43.1650727960001,-72.7252784629999,278,"5976 WINDHAM HILL RD, WINDHAM, VT, 5359","Match","Exact","5976 WINDHAM HILL RD, WINDHAM, VT, 05359",171082408,"R"
748779,"5976 WRIGHTSBORO ROAD","HARLEM","GA",30814,33.476070663,-82.276830737,279,"5976 WRIGHTSBORO ROAD, HARLEM, GA, 30814","Match","Exact","5976 WRIGHTSBORO RD, HARLEM, GA, 30814",55386918,"L"
748780,"59765 LUCILLE LN","ANZA","CA",92539,33.5065241030001,-116.619329026,280,"59765 LUCILLE LN, ANZA, CA, 92539","Match","Exact","59765 LUCILLE LN, ANZA, CA, 92539",619788221,"L"
748781,"5977 188TH STREET WEST","FARMINGTON","MN",55024,44.678197439,-93.186111126,281,"5977 188TH STREET WEST, FARMINGTON, MN, 55024","Match","Exact","5977 188TH ST W, FARMINGTON, MN, 55024",37939563,"R"
748782,"5977 ALLEE WAY","BRASELTON","GA",30517,34.1124065170001,-83.8275995879999,282,"5977 ALLEE WAY, BRASELTON, GA, 30517","Match","Exact","5977 ALLEE WAY, BRASELTON, GA, 30517",627671503,"R"
748783,"5977 BUTMAN RD","GLADWIN","MI",48624,44.1453609060001,-84.467834255,283,"5977 BUTMAN RD, GLADWIN, MI, 48624","Match","Exact","5977 BUTMAN RD, GLADWIN, MI, 48624",110428594,"L"
748784,"5977 DEER CREEK RD","MORRISDALE","PA",16858,41.0737605900001,-78.22782847,284,"5977 DEER CREEK RD, MORRISDALE, PA, 16858","Match","Exact","5977 DEER CREEK RD, MORRISDALE, PA, 16858",50539132,"L"
748785,"5977 FIESTA DRIVE","NEWBURGH","IN",47630,37.948433833,-87.386139419,285,"5977 FIESTA DRIVE, NEWBURGH, IN, 47630","Match","Exact","5977 FIESTA DR, NEWBURGH, IN, 47630",646580838,"R"
748786,"5977 LOS MOLINOS","BUENA PARK","CA",90620,33.8428502400001,-118.029182731,286,"5977 LOS MOLINOS, BUENA PARK, CA, 90620","Match","Non_Exact","5977 LOS MOLINOS DR, BUENA PARK, CA, 90620",609052875,"L"
748787,"5977 MAXFIELD CT","MANASSAS","VA",22025,38.6757626950001,-77.3817169929999,287,"5977 MAXFIELD CT, MANASSAS, VA, 22025","Match","Non_Exact","5977 MAXFIELD CT, MANASSAS, VA, 20112",619940645,"L"
748788,"5977 N BAY RIDGE","WHITEFISH BAY","WI",53217,43.125399121,-87.910262137,288,"5977 N BAY RIDGE, WHITEFISH BAY, WI, 53217","Match","Non_Exact","5977 N BAY RIDGE AVE, WHITEFISH BAY, WI, 53217",77737064,"L"
748789,"5977 NW 21ST STRE 58C","LAUDERHILL","FL",33313,NA,NA,289,"5977 NW 21ST STRE 58C, LAUDERHILL, FL, 33313","No_Match",NA,NA,NA,NA
748790,"5977 NW 21ST STREET","LAUDERHILL","FL",33313,26.153404317,-80.2299979379999,290,"5977 NW 21ST STREET, LAUDERHILL, FL, 33313","Match","Exact","5977 NW 21ST ST, LAUDERHILL, FL, 33313",114707621,"R"
748791,"5977 OLD JACKSONBORO RD","RAVENELL","SC",29470,32.78657164,-80.233058948,291,"5977 OLD JACKSONBORO RD, RAVENELL, SC, 29470","Match","Non_Exact","5977 OLD JACKSONBORO RD, RAVENEL, SC, 29470",108902408,"L"
748792,"5977 ROSIE LN","MABLETON","GA",30126,33.8078189170001,-84.520266711,292,"5977 ROSIE LN, MABLETON, GA, 30126","Match","Non_Exact","5977 ROSIE LN SE, MABLETON, GA, 30126",17267368,"L"
748793,"5977 W HEAVY CLOUD CIRCLE","HERRIMAN","UT",84096,40.4919297690001,-112.033097142,293,"5977 W HEAVY CLOUD CIRCLE, HERRIMAN, UT, 84096","Match","Exact","5977 W HEAVY CLOUD CIR, HERRIMAN, UT, 84096",619736320,"L"
748794,"5977 WESCOTT HILLS WAY","KINGSTOWN","VA",22315,38.762180158,-77.142111374,294,"5977 WESCOTT HILLS WAY, KINGSTOWN, VA, 22315","Match","Non_Exact","5977 WESCOTT HILLS WAY, KINGSTOWNE, VA, 22315",636673919,"R"
748795,"5978 ALICE DRIVE","WESTERVILLE","OH",43081,40.11532142,-82.828130534,295,"5978 ALICE DRIVE, WESTERVILLE, OH, 43081","Match","Exact","5978 ALICE DR, WESTERVILLE, OH, 43081",135764542,"L"
748796,"5978 BAY HILL CIRCLE","LAKE WORTH","FL",33463,26.5836941740001,-80.135938691,296,"5978 BAY HILL CIRCLE, LAKE WORTH, FL, 33463","Match","Exact","5978 BAY HILL CIR, LAKE WORTH, FL, 33463",115578011,"L"
748797,"5978 CHASEWOOD PARKWAY 103","MINNETONKA","MN",55343,44.894943439,-93.4278598829999,297,"5978 CHASEWOOD PARKWAY 103, MINNETONKA, MN, 55343","Match","Exact","5978 CHASEWOOD PKWY, MINNETONKA, MN, 55343",43839383,"R"
748798,"5978 GENERAL DIAZ ST","NEW ORLEANS","LA",70124,29.998477117,-90.105504802,298,"5978 GENERAL DIAZ ST, NEW ORLEANS, LA, 70124","Match","Exact","5978 GENERAL DIAZ ST, NEW ORLEANS, LA, 70124",191705835,"L"
748799,"5978 N 25TH E","IDAHO FALLS","ID",83401,43.5493398,-111.983914424,299,"5978 N 25TH E, IDAHO FALLS, ID, 83401","Match","Exact","5978 N 25TH E, IDAHO FALLS, ID, 83401",119189034,"R"
748800,"5978 N PIKE LAKE RD","DULUTH","MN",55811,46.8706496710001,-92.308853514,300,"5978 N PIKE LAKE RD, DULUTH, MN, 55811","Match","Exact","5978 N PIKE LAKE RD, DULUTH, MN, 55811",163207537,"R"
748801,"5978 PEBBLE BEACH AVENUE","MEMPHIS","TN",38115,35.066077035,-89.864029404,301,"5978 PEBBLE BEACH AVENUE, MEMPHIS, TN, 38115","Match","Exact","5978 PEBBLE BEACH AVE, MEMPHIS, TN, 38115",72928632,"L"
748802,"5978 SCHROEDER RD APT A","MADISON","WI",53711,43.046355722,-89.481423623,302,"5978 SCHROEDER RD APT A, MADISON, WI, 53711","Match","Exact","5978 SCHROEDER RD, MADISON, WI, 53711",49494579,"R"
748803,"5978 TRILLIUM TRAIL","ONTARIO","NY",14519,43.2175968490001,-77.316710238,303,"5978 TRILLIUM TRAIL, ONTARIO, NY, 14519","Match","Exact","5978 TRILLIUM TRL, ONTARIO, NY, 14519",626870982,"L"
748804,"5979 CONTRA COSTA RD","OAKLAND","CA",94618,37.8466151640001,-122.234799754,304,"5979 CONTRA COSTA RD, OAKLAND, CA, 94618","Match","Exact","5979 CONTRA COSTA RD, OAKLAND, CA, 94618",124999745,"R"
748805,"5979 COUNTY RD 59","MIDLAND CITY","AL",36350,31.3998116450001,-85.5130940019999,305,"5979 COUNTY RD 59, MIDLAND CITY, AL, 36350","Match","Exact","5979 CO RD 59, MIDLAND CITY, AL, 36350",652574317,"R"
748806,"5979 CR 283","EDNA","TX",77957,29.1409886490001,-96.725385955,306,"5979 CR 283, EDNA, TX, 77957","Match","Exact","5979 CO RD 283, EDNA, TX, 77957",42113118,"R"
748807,"5979 DEERFIELD ROAD","RIVERSIDE","CA",92504,33.962554626,-117.419396027,307,"5979 DEERFIELD ROAD, RIVERSIDE, CA, 92504","Match","Exact","5979 DEERFIELD RD, RIVERSIDE, CA, 92504",194739311,"R"
748808,"5979 DEVECCHI AVE APT 5","CITRUS HEIGHTS","CA",95621,NA,NA,308,"5979 DEVECCHI AVE APT 5, CITRUS HEIGHTS, CA, 95621","No_Match",NA,NA,NA,NA
748809,"5979 FM1830","ARGYLE","TX",76226,NA,NA,309,"5979 FM1830, ARGYLE, TX, 76226","No_Match",NA,NA,NA,NA
748810,"5979 HALLE FARM DRIVE","WILLOUGHBY","OH",44094,41.6074694530001,-81.444920702,310,"5979 HALLE FARM DRIVE, WILLOUGHBY, OH, 44094","Match","Exact","5979 HALLE FARM DR, WILLOUGHBY, OH, 44094",635645661,"L"
748811,"5979 IDLEWOOD ROAD","MOUND","MN",55364,44.9248381620001,-93.676803719,311,"5979 IDLEWOOD ROAD, MOUND, MN, 55364","Match","Exact","5979 IDLEWOOD RD, MOUND, MN, 55364",43817793,"L"
748812,"5979 KENILWOOD DRIVE","HOUSTON","TX",77033,29.670284313,-95.3296311079999,312,"5979 KENILWOOD DRIVE, HOUSTON, TX, 77033","Match","Exact","5979 KENILWOOD DR, HOUSTON, TX, 77033",96091325,"L"
748813,"5979 MEADOW BROOK DR","BURKE","VA",22015,38.7892848000001,-77.26331334,313,"5979 MEADOW BROOK DR, BURKE, VA, 22015","Match","Exact","5979 MEADOW BROOK DR, BURKE, VA, 22015",645576515,"R"
748814,"5979 NW 24TH PL","SUNRISE","FL",33313,26.1564892370001,-80.2319802229999,314,"5979 NW 24TH PL, SUNRISE, FL, 33313","Match","Exact","5979 NW 24TH PL, SUNRISE, FL, 33313",114780166,"R"
748815,"5979 RED FEATHER DRIVE","BAY CITY","MI",48706,43.56786914,-83.931269148,315,"5979 RED FEATHER DRIVE, BAY CITY, MI, 48706","Match","Exact","5979 RED FEATHER DR, BAY CITY, MI, 48706",636947683,"L"
748816,"5979 RENNER RD","COLUMBUS","OH",43228,39.982774684,-83.164361839,316,"5979 RENNER RD, COLUMBUS, OH, 43228","Match","Exact","5979 RENNER RD, COLUMBUS, OH, 43228",135629876,"L"
748817,"5979 ROBIN OAK CT","SHOREVIEW","MN",55126,45.122324985,-93.140784133,317,"5979 ROBIN OAK CT, SHOREVIEW, MN, 55126","Match","Exact","5979 ROBIN OAK CT, SHOREVIEW, MN, 55126",97634803,"L"
748818,"5979 ROEBUCK ROAD","JUPITER","FL",33458,26.948917663,-80.125370821,318,"5979 ROEBUCK ROAD, JUPITER, FL, 33458","Match","Exact","5979 ROEBUCK RD, JUPITER, FL, 33458",115348945,"L"
748819,"5979 S ST ANDREWS PL","LOS ANGELES","CA",90047,33.9855832270001,-118.311475547,319,"5979 S ST ANDREWS PL, LOS ANGELES, CA, 90047","Match","Exact","5979 S ST ANDREWS PL, LOS ANGELES, CA, 90047",142690278,"R"
748820,"5979 SAMIA CT","LAS VEGAS","NV",89110,36.16449191,-115.043067716,320,"5979 SAMIA CT, LAS VEGAS, NV, 89110","Match","Exact","5979 SAMIA CT, LAS VEGAS, NV, 89110",201947643,"L"
748821,"5979 SOUTH STREET RD","AUBURN","NY",13021,42.906131804,-76.56433365,321,"5979 SOUTH STREET RD, AUBURN, NY, 13021","Match","Exact","5979 S STREET RD, AUBURN, NY, 13021",641629592,"L"
748822,"5979 STATE RTE 248","CANISTEO","NY",14823,NA,NA,322,"5979 STATE RTE 248, CANISTEO, NY, 14823","No_Match",NA,NA,NA,NA
748823,"597CR120","EUREKA SPRINGS","AR",72631,NA,NA,323,"597CR120, EUREKA SPRINGS, AR, 72631","No_Match",NA,NA,NA,NA
748824,"598 1/2 OLD STATE HIGHWAY","KEELER","CA",93530,36.487665647,-117.870960459,324,"598 1/2 OLD STATE HIGHWAY, KEELER, CA, 93530","Match","Exact","598 OLD STATE HWY, KEELER, CA, 93530",642905036,"L"
748825,"598 ADENA TRACE","VERSAILLES","KY",40383,38.0363155150001,-84.743626385,325,"598 ADENA TRACE, VERSAILLES, KY, 40383","Match","Exact","598 ADENA TRCE, VERSAILLES, KY, 40383",38507895,"L"
748826,"598 AUBURN ST","WHITMAN","MA",2382,42.070471705,-70.952165549,326,"598 AUBURN ST, WHITMAN, MA, 2382","Match","Exact","598 AUBURN ST, WHITMAN, MA, 02382",87446042,"L"
748827,"598 BAEDER ROAD","JENKINTOWN","PR",19046,NA,NA,327,"598 BAEDER ROAD, JENKINTOWN, PR, 19046","No_Match",NA,NA,NA,NA
748828,"598 BEAUTY HILL ROAD","BARNSTEAD","NH",3218,43.365501802,-71.30317002,328,"598 BEAUTY HILL ROAD, BARNSTEAD, NH, 3218","Match","Exact","598 BEAUTY HILL RD, BARNSTEAD, NH, 03218",145475113,"R"
748829,"598 BEECH SPRINGS ROAD","JONESBORO","LA",71251,32.254038429,-92.706060666,329,"598 BEECH SPRINGS ROAD, JONESBORO, LA, 71251","Match","Exact","598 BEECH SPRINGS RD, JONESBORO, LA, 71251",161003399,"R"
748830,"598 BERRY RIVER ROAD","BARRINGTON","NH",3825,43.2580924690001,-71.067187619,330,"598 BERRY RIVER ROAD, BARRINGTON, NH, 3825","Match","Exact","598 BERRY RIVER RD, BARRINGTON, NH, 03825",649959830,"L"
748831,"598 BIG GOOSE ROAD","SHERIDAN","WY",82801,44.7666172200001,-107.062836922,331,"598 BIG GOOSE ROAD, SHERIDAN, WY, 82801","Match","Exact","598 BIG GOOSE RD, SHERIDAN, WY, 82801",605379932,"R"
748832,"598 BLUE JAY DR","HAYWARD","CA",94544,37.629886964,-122.044718036,332,"598 BLUE JAY DR, HAYWARD, CA, 94544","Match","Exact","598 BLUE JAY DR, HAYWARD, CA, 94544",125024633,"L"
748833,"598 BLUE JAY DRIVE","HAYWARD","CA",94544,37.629886964,-122.044718036,333,"598 BLUE JAY DRIVE, HAYWARD, CA, 94544","Match","Exact","598 BLUE JAY DR, HAYWARD, CA, 94544",125024633,"L"
748834,"598 BRIGGS STREET","COLUMBUS","OH",43206,39.951001035,-82.988095308,334,"598 BRIGGS STREET, COLUMBUS, OH, 43206","Match","Exact","598 BRIGGS ST, COLUMBUS, OH, 43206",135580029,"L"
748835,"598 BURNETT ROAD","MT. JULIET","TN",37122,36.139028253,-86.5123717929999,335,"598 BURNETT ROAD, MT. JULIET, TN, 37122","Match","Exact","598 BURNETT RD, MOUNT JULIET, TN, 37122",645004076,"R"
748836,"598 CALBRIETH WAY","NORTH AUGUSTA","SC",29860,33.575642153,-81.953855689,336,"598 CALBRIETH WAY, NORTH AUGUSTA, SC, 29860","Match","Exact","598 CALBRIETH WAY, NORTH AUGUSTA, SC, 29860",65020476,"R"
748837,"598 CANDLEWOOD ST","BREA","CA",92821,33.926804587,-117.887310752,337,"598 CANDLEWOOD ST, BREA, CA, 92821","Match","Exact","598 CANDLEWOOD ST, BREA, CA, 92821",144007860,"R"
748838,"598 CASSELL STREET","MARYSVILLE","PA",17053,40.33880773,-76.9327080159999,338,"598 CASSELL STREET, MARYSVILLE, PA, 17053","Match","Exact","598 CASSELL ST, MARYSVILLE, PA, 17053",617447999,"L"
748839,"598 CHILD ST","WARREN","RI",2885,41.733381686,-71.251144294,339,"598 CHILD ST, WARREN, RI, 2885","Match","Exact","598 CHILD ST, WARREN, RI, 02885",640070151,"L"
748840,"598 CIGARSKI ROAD","SHAVERTOWN","PA",18708,41.2717322340001,-75.973200488,340,"598 CIGARSKI ROAD, SHAVERTOWN, PA, 18708","Match","Exact","598 CIGARSKI RD, SHAVERTOWN, PA, 18708",80936941,"R"
748841,"598 COLUMBIA AVE 309","SAN JOSE","CA",95126,37.32427706,-121.899347749,341,"598 COLUMBIA AVE 309, SAN JOSE, CA, 95126","Match","Exact","598 COLUMBIA AVE, SAN JOSE, CA, 95126",638160627,"L"
748842,"598 DOVE LANE","STONE MOUNTAIN","GA",30087,33.7774339270001,-84.124573508,342,"598 DOVE LANE, STONE MOUNTAIN, GA, 30087","Match","Exact","598 DOVE LN, STONE MOUNTAIN, GA, 30087",619388646,"L"
748843,"598 EAST DOMINION BLVD","COLUMBUS","OH",43214,40.0539892670001,-83.005788004,343,"598 EAST DOMINION BLVD, COLUMBUS, OH, 43214","Match","Exact","598 E DOMINION BLVD, COLUMBUS, OH, 43214",218697141,"L"
748844,"598 EAST HOBCAW DRIVE","MOUNT PLEASANT","SC",29464,32.8215784290001,-79.8863680219999,344,"598 EAST HOBCAW DRIVE, MOUNT PLEASANT, SC, 29464","Match","Exact","598 E HOBCAW DR, MOUNT PLEASANT, SC, 29464",108853775,"R"
748845,"598 ELWOOD RD","EAST NORTHPORT","NY",11731,40.8419388890001,-73.334417446,345,"598 ELWOOD RD, EAST NORTHPORT, NY, 11731","Match","Exact","598 ELWOOD RD, E NORTHPORT, NY, 11731",113968580,"R"
748846,"598 FLOWING WELLS LN","SPRING CREEK","ND",89815,NA,NA,346,"598 FLOWING WELLS LN, SPRING CREEK, ND, 89815","No_Match",NA,NA,NA,NA
748847,"598 FLOWING WELLS LN","SPRING CREEK","NV",89815,40.7223212810001,-115.610668815,347,"598 FLOWING WELLS LN, SPRING CREEK, NV, 89815","Match","Exact","598 FLOWING WELLS LN, SPRING CREEK, NV, 89815",154555572,"R"
748848,"598 FOURTH ST","INVERNESS","MS",38753,33.3562227200001,-90.5863307,348,"598 FOURTH ST, INVERNESS, MS, 38753","Match","Exact","598 4TH ST, INVERNESS, MS, 38753",636572112,"L"
748849,"598 JENKINS STREET","GREENVILLE","SC",29601,34.837591113,-82.416101579,349,"598 JENKINS STREET, GREENVILLE, SC, 29601","Match","Exact","598 JENKINS ST, GREENVILLE, SC, 29601",38300375,"R"
748850,"598 MACDONOUGH STREET","BROOKLYN","NY",11233,40.683455134,-73.922444949,350,"598 MACDONOUGH STREET, BROOKLYN, NY, 11233","Match","Exact","598 MACDONOUGH ST, BROOKLYN, NY, 11233",59082887,"R"
748851,"598 MAIN STREET","WEST NEWBURY","MA",1985,42.806572019,-70.971273111,351,"598 MAIN STREET, WEST NEWBURY, MA, 1985","Match","Exact","598 MAIN ST, WEST NEWBURY, MA, 01985",86707973,"L"
748852,"598 MANHATTAN AVE APT 3L","BROOKLYN","NY",11222,40.7231146080001,-73.9503956739999,352,"598 MANHATTAN AVE APT 3L, BROOKLYN, NY, 11222","Match","Exact","598 MANHATTAN AVE, BROOKLYN, NY, 11222",59076496,"R"
748853,"598 MESA DR S","MADERA","CA",93636,NA,NA,353,"598 MESA DR S, MADERA, CA, 93636","No_Match",NA,NA,NA,NA
748854,"598 MILL SPRINGS","COATESVILLE","IN",46121,39.735298863,-86.714737137,354,"598 MILL SPRINGS, COATESVILLE, IN, 46121","Match","Exact","598 MILL SPRINGS, COATESVILLE, IN, 46121",50105121,"L"
748855,"598 MONTGOMERY STREET","BROOKLYN","NY",11225,40.6650638780001,-73.944818646,355,"598 MONTGOMERY STREET, BROOKLYN, NY, 11225","Match","Exact","598 MONTGOMERY ST, BROOKLYN, NY, 11225",59079573,"R"
748856,"598 MULL AVE","AKRON","OH",44313,41.099735292,-81.572658819,356,"598 MULL AVE, AKRON, OH, 44313","Match","Exact","598 MULL AVE, AKRON, OH, 44313",61338234,"L"
748857,"598 N 1800 E RD","MILFORD","IL",60953,40.5742167500001,-87.784763588,357,"598 N 1800 E RD, MILFORD, IL, 60953","Match","Exact","598 N 1800 EAST RD, MILFORD, IL, 60953",90758996,"R"
748858,"598 NEILL AVENUE","NASHVILLE","TN",37206,36.1814430480001,-86.760015889,358,"598 NEILL AVENUE, NASHVILLE, TN, 37206","Match","Exact","598 NEILL AVE, NASHVILLE, TN, 37206",97226076,"L"
748859,"598 NELLIE SMITH ROAD","HOMERVILLE","GA",31634,30.999865162,-82.707108848,359,"598 NELLIE SMITH ROAD, HOMERVILLE, GA, 31634","Match","Exact","598 NELLIE SMITH RD, HOMERVILLE, GA, 31634",5075664,"L"
748860,"598 NORTH 5TH STREET","NEWARK","NJ",7107,40.7688063520001,-74.180766994,360,"598 NORTH 5TH STREET, NEWARK, NJ, 7107","Match","Exact","598 N 5TH ST, NEWARK, NJ, 07107",63494770,"L"
748861,"598 NW 96TH STREET","MIAMI","FL",33150,25.8633311400001,-80.207622981,361,"598 NW 96TH STREET, MIAMI, FL, 33150","Match","Exact","598 NW 96TH ST, MIAMI, FL, 33150",116003099,"L"
748862,"598 PARK LANE","ENCINITAS","CA",92024,33.0421362590001,-117.279596019,362,"598 PARK LANE, ENCINITAS, CA, 92024","Match","Exact","598 PARK LN, ENCINITAS, CA, 92024",612853910,"L"
748863,"598 PRESIDENT STREET 1E","BROOKLYN","NY",11215,40.6763431580001,-73.9823526549999,363,"598 PRESIDENT STREET 1E, BROOKLYN, NY, 11215","Match","Exact","598 PRESIDENT ST, BROOKLYN, NY, 11215",59078096,"R"
748864,"598 RALEIGH MANOR ROAD","RICHMOND","VA",23229,37.583115299,-77.574274697,364,"598 RALEIGH MANOR ROAD, RICHMOND, VA, 23229","Match","Exact","598 RALEIGH MANOR RD, RICHMOND, VA, 23229",626911958,"R"
748865,"598 ROAD 9","POWELL","WY",82435,44.7976511430001,-108.759939773,365,"598 ROAD 9, POWELL, WY, 82435","Match","Exact","598 RD 9, POWELL, WY, 82435",149192226,"L"
748866,"598 ROCKY HOLLOW ROAD","JACKSONVILLE","AL",36265,33.90920973,-85.8566351869999,366,"598 ROCKY HOLLOW ROAD, JACKSONVILLE, AL, 36265","Match","Exact","598 ROCKY HOLLOW RD, JACKSONVILLE, AL, 36265",66537269,"R"
748867,"598 RYE STREET","S WINDSOR","CT",6074,41.866318075,-72.5733208939999,367,"598 RYE STREET, S WINDSOR, CT, 6074","Match","Exact","598 RYE ST, SOUTH WINDSOR, CT, 06074",3490584,"R"
748868,"598 S RANDALL","RHOME","TX",76078,NA,NA,368,"598 S RANDALL, RHOME, TX, 76078","Tie",NA,NA,NA,NA
748869,"598 SLICK ROCK ROAD","GOLDSBORO","NC",27534,35.2707066790001,-77.931030839,369,"598 SLICK ROCK ROAD, GOLDSBORO, NC, 27534","Match","Exact","598 SLICK ROCK RD, GOLDSBORO, NC, 27534",636106976,"L"
748870,"598 SUGAR VALLEY LANE","CONYERS","GA",30094,33.582407303,-84.026706051,370,"598 SUGAR VALLEY LANE, CONYERS, GA, 30094","Match","Non_Exact","598 SUGAR VALLEY LN SE, CONYERS, GA, 30094",23738587,"L"
748871,"598 SULPHUR SPRINGS ROAD","ADAIRVILLE","KY",42202,36.7222918580001,-86.779135619,371,"598 SULPHUR SPRINGS ROAD, ADAIRVILLE, KY, 42202","Match","Exact","598 SULPHUR SPRINGS RD, ADAIRVILLE, KY, 42202",15834869,"L"
748872,"598 SW 16TH ST","BOCA RATON","FL",33432,26.333606823,-80.0949196189999,372,"598 SW 16TH ST, BOCA RATON, FL, 33432","Match","Exact","598 SW 16TH ST, BOCA RATON, FL, 33432",115303558,"L"
748873,"598 SW 72ND TERRACE","OKEECHOBEE","FL",34974,27.2390437940001,-80.90253539,373,"598 SW 72ND TERRACE, OKEECHOBEE, FL, 34974","Match","Exact","598 SW 72ND TER, OKEECHOBEE, FL, 34974",4973120,"L"
748874,"598 SWAIN AVE","ELMHURST","IL",60126,41.8817530920001,-87.947107574,374,"598 SWAIN AVE, ELMHURST, IL, 60126","Match","Exact","598 SWAIN AVE, ELMHURST, IL, 60126",112545151,"R"
748875,"598 TOLSON AVENUE","VAN ALSTYNE","TX",75495,33.427381503,-96.571052295,375,"598 TOLSON AVENUE, VAN ALSTYNE, TX, 75495","Match","Exact","598 TOLSON AVE, VAN ALSTYNE, TX, 75495",646221990,"L"
748876,"598 TRACE ROAD","DALLAS","GA",30157,33.9486228580001,-84.7531911459999,376,"598 TRACE ROAD, DALLAS, GA, 30157","Match","Exact","598 TRACE RD, DALLAS, GA, 30157",17733494,"R"
748877,"598 TRAVERTINE TRAIL","BUDA","TX",78610,30.060667166,-97.823145778,377,"598 TRAVERTINE TRAIL, BUDA, TX, 78610","Match","Exact","598 TRAVERTINE TRL, BUDA, TX, 78610",639350822,"R"
748878,"598 TYLER ROAD","WEBSTER","NH",3303,43.2878691060001,-71.7106125989999,378,"598 TYLER ROAD, WEBSTER, NH, 3303","Match","Exact","598 TYLER RD, WEBSTER, NH, 03303",117729107,"R"
748879,"598 WARWICK NECK AV","WARWICK","RI",2889,41.6878504420001,-71.378180387,379,"598 WARWICK NECK AV, WARWICK, RI, 2889","Match","Exact","598 WARWICK NECK AVE, WARWICK, RI, 02889",159150891,"L"
748880,"598 WELSH DR","RUTHER GLEN","VA",22546,38.0117452440001,-77.551637853,380,"598 WELSH DR, RUTHER GLEN, VA, 22546","Match","Exact","598 WELSH DR, RUTHER GLEN, VA, 22546",21944361,"L"
748881,"598 WEST DASHER LANE","SANTA CLAUS","IN",47579,38.114451123,-86.941342992,381,"598 WEST DASHER LANE, SANTA CLAUS, IN, 47579","Match","Non_Exact","598 DASHER LN, SANTA CLAUS, IN, 47579",7992591,"R"
748882,"598 WING DRIVE JUDICIARY","ST CLAIR","MO",63077,38.297472156,-91.061543472,382,"598 WING DRIVE JUDICIARY, ST CLAIR, MO, 63077","Match","Exact","598 WING DR, SAINT CLAIR, MO, 63077",611757710,"R"
748883,"598 WOOD VALLEY DR","COLLIERVILLE","TN",38017,35.059963381,-89.6478766659999,383,"598 WOOD VALLEY DR, COLLIERVILLE, TN, 38017","Match","Exact","598 WOOD VALLEY DR, COLLIERVILLE, TN, 38017",72969729,"R"
748884,"5980 ARAPAHO ROAD APT 21J","DALLAS","TX",75248,32.9616281260001,-96.806549423,384,"5980 ARAPAHO ROAD APT 21J, DALLAS, TX, 75248","Match","Exact","5980 ARAPAHO RD, DALLAS, TX, 75248",103253927,"R"
748885,"5980 BARONSCOURT WAY","DUBLIN","OH",43016,40.0914215500001,-83.168365697,385,"5980 BARONSCOURT WAY, DUBLIN, OH, 43016","Match","Exact","5980 BARONSCOURT WAY, DUBLIN, OH, 43016",218700661,"R"
748886,"5980 CATCHPENNY RD","QUANTICO","MD",21856,38.3585129910001,-75.726712795,386,"5980 CATCHPENNY RD, QUANTICO, MD, 21856","Match","Exact","5980 CATCHPENNY RD, QUANTICO, MD, 21856",114451052,"L"
748887,"5980 DANDRIDGE LANE APT 227","SAN DIEGO","CA",92115,32.7482934220001,-117.068384733,387,"5980 DANDRIDGE LANE APT 227, SAN DIEGO, CA, 92115","Match","Exact","5980 DANDRIDGE LN, SAN DIEGO, CA, 92115",195351160,"R"
748888,"5980 DANDRIDGE LN UNIT 208","SAN DIEGO","CA",92115,32.7482934220001,-117.068384733,388,"5980 DANDRIDGE LN UNIT 208, SAN DIEGO, CA, 92115","Match","Exact","5980 DANDRIDGE LN, SAN DIEGO, CA, 92115",195351160,"R"
748889,"5980 DOGWOOD WAY","NAPLES","FL",34116,26.2064043500001,-81.726921918,389,"5980 DOGWOOD WAY, NAPLES, FL, 34116","Match","Exact","5980 DOGWOOD WAY, NAPLES, FL, 34116",115134677,"R"
748890,"5980 E 144 STREET NORTH","TULSA","OK",74021,36.3628271650001,-95.908119652,390,"5980 E 144 STREET NORTH, TULSA, OK, 74021","Match","Non_Exact","5980 E 144TH ST N, COLLINSVILLE, OK, 74021",638662988,"R"
748891,"5980 E STEARNS ST","LONG BEACH","CA",90815,33.7959817060001,-118.115763724,391,"5980 E STEARNS ST, LONG BEACH, CA, 90815","Match","Exact","5980 STEARNS ST, LONG BEACH, CA, 90815",141745726,"R"
748892,"5980 E VIA CASELLA","FRESNO","CA",93727,36.713725411,-119.682958537,392,"5980 E VIA CASELLA, FRESNO, CA, 93727","Match","Non_Exact","5980 E VIA CASELLA DR, FRESNO, CA, 93727",627015097,"L"
748893,"5980 GEMSTONE DRIVE","CHANDLER","AZ",85249,33.220017999,-111.767739,393,"5980 GEMSTONE DRIVE, CHANDLER, AZ, 85249","Match","Non_Exact","5980 S GEMSTONE DR, CHANDLER, AZ, 85249",128873224,"R"
748894,"5980 GOOD FORTUNE RD","PEYTON","CO",80831,38.9176969690001,-104.568820709,394,"5980 GOOD FORTUNE RD, PEYTON, CO, 80831","Match","Exact","5980 GOOD FORTUNE RD, PEYTON, CO, 80831",610701071,"L"
748895,"5980 HIDDEN HOLM LANE","AUSTELL","GA",30168,33.807964729,-84.618355197,395,"5980 HIDDEN HOLM LANE, AUSTELL, GA, 30168","Match","Exact","5980 HIDDEN HOLM LN, AUSTELL, GA, 30168",624490281,"L"
748896,"5980 JAKE SEARS CIRCLE APT-201","VIRGINIA BEACH","VA",23464,36.791806281,-76.197255271,396,"5980 JAKE SEARS CIRCLE APT-201, VIRGINIA BEACH, VA, 23464","Match","Exact","5980 JAKE SEARS CIR, VA BCH, VA, 23464",122303112,"L"
748897,"5980 KRAFT AVE SE","GRAND RAPIDS","MI",49512,42.8559660020001,-85.5278025919999,397,"5980 KRAFT AVE SE, GRAND RAPIDS, MI, 49512","Match","Exact","5980 KRAFT AVE SE, GRAND RAPIDS, MI, 49512",12496854,"L"
748898,"5980 OAK STREET","ROCKFORD","MN",55373,45.08286014,-93.751689895,398,"5980 OAK STREET, ROCKFORD, MN, 55373","Match","Exact","5980 OAK ST, ROCKFORD, MN, 55373",605181910,"R"
748899,"5980 RICHMOND HWY APT 601","ALEXANDRIA","VA",22303,38.788452588,-77.066220964,399,"5980 RICHMOND HWY APT 601, ALEXANDRIA, VA, 22303","Match","Exact","5980 RICHMOND HWY, ALEXANDRIA, VA, 22303",647377661,"L"
748900,"5980 S GEMSTONE DR","CHANDLER","AZ",85249,33.21999851,-111.767739,400,"5980 S GEMSTONE DR, CHANDLER, AZ, 85249","Match","Exact","5980 S GEMSTONE DR, CHANDLER, AZ, 85249",128873224,"R"
748901,"5980 SHOW TERRANCE","FREMONT","CA",94555,37.5542047980001,-122.05711465,401,"5980 SHOW TERRANCE, FREMONT, CA, 94555","Match","Non_Exact","5980 SHOW TER, FREMONT, CA, 94555",125042056,"R"
748902,"5980 SOUTH GEMSTONE","CHANDLER","AZ",85249,33.220017999,-111.767739,402,"5980 SOUTH GEMSTONE, CHANDLER, AZ, 85249","Match","Non_Exact","5980 S GEMSTONE DR, CHANDLER, AZ, 85249",128873224,"R"
748903,"5980 SUN VALLEY WAY","SACRAMENTO","CA",95823,38.4616009870001,-121.433072463,403,"5980 SUN VALLEY WAY, SACRAMENTO, CA, 95823","Match","Exact","5980 SUN VALLEY WAY, SACRAMENTO, CA, 95823",133353127,"L"
748904,"5980 THANE RD","JUNEAU","AK",99801,58.2463085480001,-134.296991385,404,"5980 THANE RD, JUNEAU, AK, 99801","Match","Exact","5980 THANE RD, JUNEAU, AK, 99801",624865936,"R"
748905,"5980 UNIT 31 COLERAIN AVE","CINCINNATI","OH",45239,NA,NA,405,"5980 UNIT 31 COLERAIN AVE, CINCINNATI, OH, 45239","No_Match",NA,NA,NA,NA
748906,"5980 VALLEY SAGE RD","ACTON","CA",93510,34.5039974970001,-118.236883307,406,"5980 VALLEY SAGE RD, ACTON, CA, 93510","Match","Exact","5980 VALLEY SAGE RD, ACTON, CA, 93510",241112737,"L"
748907,"5980 WOFFORD BLVD","WOFFORD HEIGHTS","CA",93285,NA,NA,407,"5980 WOFFORD BLVD, WOFFORD HEIGHTS, CA, 93285","No_Match",NA,NA,NA,NA
748908,"5981 CR 222","CULLMAN","AL",35057,34.0981348560001,-86.9416170219999,408,"5981 CR 222, CULLMAN, AL, 35057","Match","Exact","5981 CO RD 222, CULLMAN, AL, 35057",130225145,"R"
748909,"5981 CURRY FORD RD","ORLANDO","FL",32822,28.521224354,-81.303920024,409,"5981 CURRY FORD RD, ORLANDO, FL, 32822","Match","Exact","5981 CURRY FORD RD, ORLANDO, FL, 32822",612565876,"L"
748910,"5981 FRIAR WAY","SAN JOSE","CA",95129,37.3053631510001,-122.00841811,410,"5981 FRIAR WAY, SAN JOSE, CA, 95129","Match","Exact","5981 FRIAR WAY, SAN JOSE, CA, 95129",122942071,"R"
748911,"5981 HHEARTWOOD CT","HARRISBURG","NC",28075,NA,NA,411,"5981 HHEARTWOOD CT, HARRISBURG, NC, 28075","No_Match",NA,NA,NA,NA
748912,"5981 JOHNSON ROAD","LAKE WYLIE","SC",29710,35.090410918,-81.0689915729999,412,"5981 JOHNSON ROAD, LAKE WYLIE, SC, 29710","Match","Exact","5981 JOHNSON RD, LAKE WYLIE, SC, 29710",19788850,"L"
748913,"5981 LYNWOOD CTR RD","BAINBRIDGE ISLAND","WA",98110,47.617699235,-122.549484631,413,"5981 LYNWOOD CTR RD, BAINBRIDGE ISLAND, WA, 98110","Match","Non_Exact","5981 LYNWOOD CENTER RD NE, BAINBRIDGE ISLAND, WA, 98110",624631890,"L"
748914,"5981 PINEY CT","GREENACRES","FL",33463,26.6056666480001,-80.1384167309999,414,"5981 PINEY CT, GREENACRES, FL, 33463","Match","Exact","5981 PINEY CT, GREENACRES, FL, 33463",115334895,"L"
748915,"5981 SILVER CHARMS WAY","NEW ALBANY","OH",43054,40.105662905,-82.8282413009999,415,"5981 SILVER CHARMS WAY, NEW ALBANY, OH, 43054","Match","Exact","5981 SILVER CHARMS WAY, NEW ALBANY, OH, 43054",218701184,"R"
748916,"5981 SOUTH PARK VISTA DR","SOUTH OGDEN","UT",84405,41.153060575,-111.953392339,416,"5981 SOUTH PARK VISTA DR, SOUTH OGDEN, UT, 84405","Match","Non_Exact","5981 PARK VISTA DR, SOUTH OGDEN, UT, 84405",649513891,"R"
748917,"5981 THOMAS ROAD","OXFORD","MI",48371,42.8848999090001,-83.301097098,417,"5981 THOMAS ROAD, OXFORD, MI, 48371","Match","Exact","5981 THOMAS RD, OXFORD, MI, 48371",110469352,"R"
748918,"5981 WELLMAN RD","MCLOUTH","KS",66054,39.154810524,-95.254674909,418,"5981 WELLMAN RD, MCLOUTH, KS, 66054","Match","Non_Exact","5981 WELLMAN RD, MC LOUTH, KS, 66054",22262441,"L"
748919,"59811 WALLOWA LAKE HWY","JOSEPH","OR",97846,45.275119348,-117.209978136,419,"59811 WALLOWA LAKE HWY, JOSEPH, OR, 97846","Match","Exact","59811 WALLOWA LAKE HWY, JOSEPH, OR, 97846",637903456,"R"
748920,"59812 290TH ST","WADENA","MN",56482,46.3835310100001,-95.2432979559999,420,"59812 290TH ST, WADENA, MN, 56482","Match","Exact","59812 290TH ST, WADENA, MN, 56482",168294369,"R"
748921,"5982 BEAVOIR DRIVE","MILLINGTON","TN",38053,35.289561835,-89.913066057,421,"5982 BEAVOIR DRIVE, MILLINGTON, TN, 38053","Match","Non_Exact","5982 BEAUVOIR DR, MILLINGTON, TN, 38053",72951724,"L"
748922,"5982 BROUGHTON RD","ST CHARLES","MI",48655,43.3375124120001,-84.131554691,422,"5982 BROUGHTON RD, ST CHARLES, MI, 48655","Match","Exact","5982 BROUGHTON RD, SAINT CHARLES, MI, 48655",80230049,"L"
748923,"5982 DEER STREET","WEST RICHLAND","WA",99353,46.30450496,-119.364086639,423,"5982 DEER STREET, WEST RICHLAND, WA, 99353","Match","Exact","5982 DEER ST, WEST RICHLAND, WA, 99353",174985970,"R"
748924,"5982 FOXCROFT COURT","MORROW","GA",30260,33.5912628130001,-84.3518528819999,424,"5982 FOXCROFT COURT, MORROW, GA, 30260","Match","Exact","5982 FOXCROFT CT, MORROW, GA, 30260",625780790,"R"
748925,"5982 NORTHBEND COURT","DOUGLASVILLE","GA",30134,33.7324979750001,-84.798256448,425,"5982 NORTHBEND COURT, DOUGLASVILLE, GA, 30134","Match","Exact","5982 NORTHBEND CT, DOUGLASVILLE, GA, 30134",618476971,"R"
748926,"5982 WEST CARLSVILLE ROAD","STURGEON BAY","WI",54235,44.946194554,-87.372075611,426,"5982 WEST CARLSVILLE ROAD, STURGEON BAY, WI, 54235","Match","Exact","5982 W CARLSVILLE RD, STURGEON BAY, WI, 54235",167266583,"L"
748927,"5983 CANTERBURY DRIVE","EASTON","MD",21601,38.714037524,-76.105096636,427,"5983 CANTERBURY DRIVE, EASTON, MD, 21601","Match","Exact","5983 CANTERBURY DR, EASTON, MD, 21601",68408488,"R"
748928,"5983 CENTRAL SCHOOL ROAD","MILTON","FL",32570,30.771290316,-87.075893025,428,"5983 CENTRAL SCHOOL ROAD, MILTON, FL, 32570","Match","Exact","5983 CENTRAL SCHOOL RD, MILTON, FL, 32570",74593946,"L"
748929,"5983 MANISTIQUE","DETROIT","MI",48224,42.4041064040001,-82.9608265049999,429,"5983 MANISTIQUE, DETROIT, MI, 48224","Match","Non_Exact","5983 MANISTIQUE ST, DETROIT, MI, 48224",95469677,"L"
748930,"5983 N NINA AVE","CHICAGO","IL",60631,41.990018509,-87.8007534399999,430,"5983 N NINA AVE, CHICAGO, IL, 60631","Match","Exact","5983 N NINA AVE, CHICAGO, IL, 60631",605171453,"R"
748931,"5983 N POINT","ST. LOUIS","MO",63147,NA,NA,431,"5983 N POINT, ST. LOUIS, MO, 63147","No_Match",NA,NA,NA,NA
748932,"5983 NORHAM DRIVE","ALEXANDRIA","VA",22315,38.756245957,-77.144962634,432,"5983 NORHAM DRIVE, ALEXANDRIA, VA, 22315","Match","Exact","5983 NORHAM DR, ALEXANDRIA, VA, 22315",635445446,"L"
748933,"5983 RIVERBEND LANE","REVA","VA",22735,38.5126306600001,-78.144313919,433,"5983 RIVERBEND LANE, REVA, VA, 22735","Match","Exact","5983 RIVERBEND LN, REVA, VA, 22735",29857323,"L"
748934,"5983 W 600 S","CRAWFORDSVILLE","IN",47933,NA,NA,434,"5983 W 600 S, CRAWFORDSVILLE, IN, 47933","No_Match",NA,NA,NA,NA
748935,"5983 W MERCURY WAY","CHANDLER","AZ",85226,33.302347549,-111.944599024,435,"5983 W MERCURY WAY, CHANDLER, AZ, 85226","Match","Exact","5983 W MERCURY WAY, CHANDLER, AZ, 85226",128781245,"L"
748936,"59835 TERN CT","HOMER","AK",99603,59.675680915,-151.453297328,436,"59835 TERN CT, HOMER, AK, 99603","Match","Exact","59835 TERN CT, HOMER, AK, 99603",625154755,"R"
748937,"5984 39TH AVE N","SAINT PETERSNURG","FL",33709,27.807181905,-82.7164231089999,437,"5984 39TH AVE N, SAINT PETERSNURG, FL, 33709","Match","Non_Exact","5984 39TH AVE N, SAINT PETERSBURG, FL, 33709",124696366,"L"
748938,"5984 ARMSTRONG RD","PINCONNING","MI",48650,43.9108505830001,-83.946326428,438,"5984 ARMSTRONG RD, PINCONNING, MI, 48650","Match","Exact","5984 ARMSTRONG RD, PINCONNING, MI, 48650",160921721,"L"
748939,"5984 BAGDAD","CINCINNATI","OH",45230,39.0930308420001,-84.3978363479999,439,"5984 BAGDAD, CINCINNATI, OH, 45230","Match","Non_Exact","5984 BAGDAD DR, CINCINNATI, OH, 45230",103937637,"L"
748940,"5984 DAWSON DR","MIDDLETOWN","OH",45044,39.4296003540001,-84.415793394,440,"5984 DAWSON DR, MIDDLETOWN, OH, 45044","Match","Exact","5984 DAWSON DR, MIDDLETOWN, OH, 45044",640820748,"L"
748941,"5984 DOWNINGTON PT NW","ACWORTH","GA",30101,NA,NA,441,"5984 DOWNINGTON PT NW, ACWORTH, GA, 30101","Tie",NA,NA,NA,NA
748942,"5984 HWY 51","WILSONVILLE","AL",35186,33.325324961,-86.5574811499999,442,"5984 HWY 51, WILSONVILLE, AL, 35186","Match","Non_Exact","5984 CO RD 51, WILSONVILLE, AL, 35186",648732412,"R"
748943,"5984 LETIA LUA","PAGO PAGO","AS",96799,NA,NA,443,"5984 LETIA LUA, PAGO PAGO, AS, 96799","No_Match",NA,NA,NA,NA
748944,"5984 TREVISO TERRACE","FREMONT","CA",94555,37.557828784,-122.061863157,444,"5984 TREVISO TERRACE, FREMONT, CA, 94555","Match","Exact","5984 TREVISO TER, FREMONT, CA, 94555",125056519,"R"
748945,"5984 VERSAILLES AVE","ANN ARBOR","MI",48103,42.2789726830001,-83.8479123509999,445,"5984 VERSAILLES AVE, ANN ARBOR, MI, 48103","Match","Non_Exact","5984 VERSAILLES AVE E, ANN ARBOR, MI, 48103",627085031,"L"
748946,"5985 ALTON STREET","DENVER","CO",80238,39.8055973,-104.882952144,446,"5985 ALTON STREET, DENVER, CO, 80238","Match","Non_Exact","5985 N ALTON ST, DENVER, CO, 80238",650195717,"L"
748947,"5985 BROOKSTONE CT","AUBREY","TX",76227,33.300719664,-97.0897102489999,447,"5985 BROOKSTONE CT, AUBREY, TX, 76227","Match","Exact","5985 BROOKSTONE CT, AUBREY, TX, 76227",649938507,"R"
748948,"5985 DADO DRIVE","NOBLESVILLE","IN",46062,40.059217608,-86.068218794,448,"5985 DADO DRIVE, NOBLESVILLE, IN, 46062","Match","Exact","5985 DADO DR, NOBLESVILLE, IN, 46062",626226422,"R"
748949,"5985 DEVECCHI AVE","CITRUS HEIGHTS","CA",95621,38.674837704,-121.327089629,449,"5985 DEVECCHI AVE, CITRUS HEIGHTS, CA, 95621","Match","Exact","5985 DEVECCHI AVE, CITRUS HEIGHTS, CA, 95621",133384866,"R"
748950,"5985 DIVISION RD","WEST BEND","WI",53095,43.4071145080001,-88.281424828,450,"5985 DIVISION RD, WEST BEND, WI, 53095","Match","Exact","5985 DIVISION RD, WEST BEND, WI, 53095",79572752,"L"
748951,"5985 E SETTLER COURT","ANAHEIM","CA",92807,33.841458124,-117.784858311,451,"5985 E SETTLER COURT, ANAHEIM, CA, 92807","Match","Exact","5985 E SETTLER CT, ANAHEIM, CA, 92807",144033385,"L"
748952,"5985 EAST SETTLER COURT","ANAHEIM","CA",92807,33.841455538,-117.784869764,452,"5985 EAST SETTLER COURT, ANAHEIM, CA, 92807","Match","Exact","5985 E SETTLER CT, ANAHEIM, CA, 92807",144033385,"L"
748953,"5985 G ROAD","NEBRASKA CITY","NE",68410,40.697025657,-95.895488369,453,"5985 G ROAD, NEBRASKA CITY, NE, 68410","Match","Exact","5985 G RD, NEBRASKA CITY, NE, 68410",10394325,"R"
748954,"5985 HICKORY BEND DRIVE","DOUGLASVILLE","GA",30135,33.645320644,-84.781895017,454,"5985 HICKORY BEND DRIVE, DOUGLASVILLE, GA, 30135","Match","Exact","5985 HICKORY BEND DR, DOUGLASVILLE, GA, 30135",16655615,"L"
748955,"5985 IDDLEWOOD PLACE","LITHONIA","GA",30038,33.6440527720001,-84.1399685119999,455,"5985 IDDLEWOOD PLACE, LITHONIA, GA, 30038","Match","Non_Exact","5985 IDLEWOOD PL, LITHONIA, GA, 30038",637664790,"L"
748956,"5985 INDEPENDENCE ST","ARVADA","CO",80002,39.8061572660001,-105.104906544,456,"5985 INDEPENDENCE ST, ARVADA, CO, 80002","Match","Non_Exact","5985 INDEPENDENCE ST, ARVADA, CO, 80004",177287588,"L"
748957,"5985 INDEPENDENCE ST","ARVADA","CO",80004,39.8061572660001,-105.104906544,457,"5985 INDEPENDENCE ST, ARVADA, CO, 80004","Match","Exact","5985 INDEPENDENCE ST, ARVADA, CO, 80004",177287588,"L"
748958,"5985 KATEY WAY","MILFORD","OH",45150,39.193296747,-84.211911044,458,"5985 KATEY WAY, MILFORD, OH, 45150","Match","Exact","5985 KATEY WAY, MILFORD, OH, 45150",118463553,"R"
748959,"5985 MALTA WAY","YORBA LINDA","CA",92887,33.8747765700001,-117.706352765,459,"5985 MALTA WAY, YORBA LINDA, CA, 92887","Match","Exact","5985 MALTA WAY, YORBA LINDA, CA, 92887",144089901,"R"
748960,"5985 N 400 W","ANDERSON","IN",46011,40.1921301400001,-85.747536128,460,"5985 N 400 W, ANDERSON, IN, 46011","Match","Exact","5985 N 400 W, ANDERSON, IN, 46011",31120680,"R"
748961,"5985 N FEDERAK HWY","FORT LAUDERDALE","FL",33308,NA,NA,461,"5985 N FEDERAK HWY, FORT LAUDERDALE, FL, 33308","No_Match",NA,NA,NA,NA
748962,"5985 N FEDERAL HWY","FORT LAUDERDALE","FL",33308,26.2020657620001,-80.109253392,462,"5985 N FEDERAL HWY, FORT LAUDERDALE, FL, 33308","Match","Exact","5985 N FEDERAL HWY, FORT LAUDERDALE, FL, 33308",114723891,"L"
748963,"5985 N FEDERL HWY","FORT LAUDERDALE","FL",33308,26.2020657620001,-80.109253392,463,"5985 N FEDERL HWY, FORT LAUDERDALE, FL, 33308","Match","Non_Exact","5985 N FEDERAL HWY, FORT LAUDERDALE, FL, 33308",114723891,"L"
748964,"5985 NW 61 AVE","JOHNSTON","IA",50131,41.6710351950001,-93.699802822,464,"5985 NW 61 AVE, JOHNSTON, IA, 50131","Match","Exact","5985 NW 61ST AVE, JOHNSTON, IA, 50131",65775684,"R"
748965,"5985 NW 61ST AVENUE","JOHNSTON","IA",50131,41.6710351950001,-93.699802822,465,"5985 NW 61ST AVENUE, JOHNSTON, IA, 50131","Match","Exact","5985 NW 61ST AVE, JOHNSTON, IA, 50131",65775684,"R"
748966,"5985 PRESTICK WAY","FONTANA","CA",92336,NA,NA,466,"5985 PRESTICK WAY, FONTANA, CA, 92336","No_Match",NA,NA,NA,NA
748967,"5985 ROBIN OAK CT","SHOREVIEW","MN",55126,45.1223861510001,-93.140796461,467,"5985 ROBIN OAK CT, SHOREVIEW, MN, 55126","Match","Exact","5985 ROBIN OAK CT, SHOREVIEW, MN, 55126",97634803,"L"
748968,"5985 SINGLETON RD","NORCROSS","GA",30093,33.9064412270001,-84.197744954,468,"5985 SINGLETON RD, NORCROSS, GA, 30093","Match","Exact","5985 SINGLETON RD, NORCROSS, GA, 30093",651216664,"R"
748969,"5985 TAPESTRY DRIVE","WOODBRIDGE","VA",22193,38.669983642,-77.386293703,469,"5985 TAPESTRY DRIVE, WOODBRIDGE, VA, 22193","Match","Exact","5985 TAPESTRY DR, WOODBRIDGE, VA, 22193",76531805,"L"
748970,"5985 TOPANGA CANYON BOULEVARD","WOODLAND HILLS","CA",91367,34.1788329510001,-118.605278484,470,"5985 TOPANGA CANYON BOULEVARD, WOODLAND HILLS, CA, 91367","Match","Non_Exact","5985 N TOPANGA CANYON BLVD, WOODLAND HILLS, CA, 91367",241188589,"L"
748971,"5985 W 136TH LN","SAVAGE","MN",55378,44.7566249010001,-93.355752428,471,"5985 W 136TH LN, SAVAGE, MN, 55378","Match","Exact","5985 W 136TH LN, SAVAGE, MN, 55378",38145291,"L"
748972,"5985 W MAIN STREET","KALAMAZOO","MI",49009,42.295863807,-85.6672107379999,472,"5985 W MAIN STREET, KALAMAZOO, MI, 49009","Match","Exact","5985 W MAIN ST, KALAMAZOO, MI, 49009",12223232,"L"
748973,"5985 WEDGEWOOD DR","MENTOR ON THE LAKE","OH",44060,41.708823137,-81.3791465739999,473,"5985 WEDGEWOOD DR, MENTOR ON THE LAKE, OH, 44060","Match","Exact","5985 WEDGEWOOD DR, MENTOR ON THE LAKE, OH, 44060",137461562,"L"
748974,"5985","ARVADA","CO",80004,NA,NA,474,"5985, ARVADA, CO, 80004","No_Match",NA,NA,NA,NA
748975,"59850 ROMEO PLANK","RAY TWP","MI",48096,42.737551136,-82.960254186,475,"59850 ROMEO PLANK, RAY TWP, MI, 48096","Match","Non_Exact","59850 ROMEO PLANK RD, RAY TWP, MI, 48096",630065222,"L"
748976,"5986 COUNTY VIEW DRIVE","HAMILTON","OH",45011,39.404945286,-84.466628129,476,"5986 COUNTY VIEW DRIVE, HAMILTON, OH, 45011","Match","Non_Exact","5986 COUNTRY VIEW DR, HAMILTON, OH, 45011",113792555,"L"
748977,"5986 KNIGHT ARNOLD RD SUITE 5","MEMPHIS","TN",38115,35.0607678170001,-89.866752901,477,"5986 KNIGHT ARNOLD RD SUITE 5, MEMPHIS, TN, 38115","Match","Exact","5986 KNIGHT ARNOLD RD, MEMPHIS, TN, 38115",72928655,"L"
748978,"5986 KNIGHT ARNOLD RD SUITE 6","MEMPHIS","TN",38115,35.0607678170001,-89.866752901,478,"5986 KNIGHT ARNOLD RD SUITE 6, MEMPHIS, TN, 38115","Match","Exact","5986 KNIGHT ARNOLD RD, MEMPHIS, TN, 38115",72928655,"L"
748979,"5986 KNIGHT ARNOLD ROAD EXT STE 1","MEMPHIS","TN",38115,35.0606868190001,-89.8640118439999,479,"5986 KNIGHT ARNOLD ROAD EXT STE 1, MEMPHIS, TN, 38115","Match","Non_Exact","5986 KNIGHT ARNOLD RD EXD, MEMPHIS, TN, 38115",72928662,"L"
748980,"5986 MILLER RD","NIAGARA FALLS","NY",14304,43.1372629780001,-78.97658454,480,"5986 MILLER RD, NIAGARA FALLS, NY, 14304","Match","Exact","5986 MILLER RD, NIAGARA FALLS, NY, 14304",48685731,"R"
748981,"5986 OTTAWA ST","OXON HILL","MD",20745,38.8074670410001,-76.992913188,481,"5986 OTTAWA ST, OXON HILL, MD, 20745","Match","Exact","5986 OTTAWA ST, OXON HILL, MD, 20745",76315062,"L"
748982,"59865 WATSON RD","ST IGNATIUS","MT",59865,NA,NA,482,"59865 WATSON RD, ST IGNATIUS, MT, 59865","No_Match",NA,NA,NA,NA
748983,"59866 GLACIER SPRING N","WASHINGTON","MI",48094,42.733624336,-83.0471051659999,483,"59866 GLACIER SPRING N, WASHINGTON, MI, 48094","Match","Exact","59866 GLACIER SPRING N, WASHINGTON, MI, 48094",625420386,"R"
748984,"59868 E HIGHWAY 224","ESTACADA","OR",97023,45.087260385,-122.05779437,484,"59868 E HIGHWAY 224, ESTACADA, OR, 97023","Match","Non_Exact","59868 STATE HWY 224, ESTACADA, OR, 97023",157907906,"R"
748985,"5987 BRIDLE PATH DRIVE","BARTLETT","TN",38134,35.1951564170001,-89.863807977,485,"5987 BRIDLE PATH DRIVE, BARTLETT, TN, 38134","Match","Exact","5987 BRIDLE PATH DR, BARTLETT, TN, 38134",72924503,"R"
748986,"5987 COHO STREET UNIT C","JBER","AK",99506,NA,NA,486,"5987 COHO STREET UNIT C, JBER, AK, 99506","No_Match",NA,NA,NA,NA
748987,"5987 HIGH VALLEY DRIVE","WHITE LAKE","MI",48383,42.6213960650001,-83.526282612,487,"5987 HIGH VALLEY DRIVE, WHITE LAKE, MI, 48383","Match","Exact","5987 HIGH VALLEY DR, WHITE LAKE, MI, 48383",69785923,"R"
748988,"5987 KEATING ROAD","LACHINE","MI",49753,45.1329285510001,-83.700918829,488,"5987 KEATING ROAD, LACHINE, MI, 49753","Match","Exact","5987 KEATING RD, LACHINE, MI, 49753",135788142,"R"
748989,"5987 MAGNOLIA RIDGE","STONE MOUNTAIN","GA",30087,33.7750390080001,-84.14892294,489,"5987 MAGNOLIA RIDGE, STONE MOUNTAIN, GA, 30087","Match","Exact","5987 MAGNOLIA RIDGE, STONE MOUNTAIN, GA, 30087",645263342,"R"
748990,"5987 MILLER ST APT 3","ARVADA","CO",80004,39.8057050210001,-105.114272594,490,"5987 MILLER ST APT 3, ARVADA, CO, 80004","Match","Exact","5987 MILLER ST, ARVADA, CO, 80004",177285264,"L"
748991,"5987 ORCHARD WOODS DRIVE","WEST BLOOMFIELD","MI",48324,42.5859640050001,-83.401172088,491,"5987 ORCHARD WOODS DRIVE, WEST BLOOMFIELD, MI, 48324","Match","Exact","5987 ORCHARD WOODS DR, W BLOOMFIELD, MI, 48324",69785748,"L"
748992,"5987 PRESS ROAD","SMITHTON","IL",62285,NA,NA,492,"5987 PRESS ROAD, SMITHTON, IL, 62285","No_Match",NA,NA,NA,NA
748993,"5987 S ROCK CREEK DRIVE","CASTLE ROCK","CO",80109,39.407900141,-104.910524898,493,"5987 S ROCK CREEK DRIVE, CASTLE ROCK, CO, 80109","Match","Exact","5987 S ROCK CREEK DR, CASTLE ROCK, CO, 80109",130821488,"R"
748994,"5987 SAN MATEO DR","COLORADO SPRINGS","CO",80911,38.76382088,-104.714185128,494,"5987 SAN MATEO DR, COLORADO SPRINGS, CO, 80911","Match","Exact","5987 SAN MATEO DR, COLORADO SPRINGS, CO, 80911",643448153,"R"
748995,"5987 SW MOORE STREET","PALM CITY","FL",34990,27.1470601560001,-80.332790672,495,"5987 SW MOORE STREET, PALM CITY, FL, 34990","Match","Exact","5987 SW MOORE ST, PALM CITY, FL, 34990",120439037,"R"
748996,"5987 VALLE DEL SOL DR","EL PASO","TX",79924,31.9085608170001,-106.398878729,496,"5987 VALLE DEL SOL DR, EL PASO, TX, 79924","Match","Exact","5987 VALLE DEL SOL DR, EL PASO, TX, 79924",635454254,"L"
748997,"5987 VIA DEL CIELO","PLEASANTON","CA",94566,37.671010799,-121.898590832,497,"5987 VIA DEL CIELO, PLEASANTON, CA, 94566","Match","Exact","5987 VIA DEL CIELO, PLEASANTON, CA, 94566",125031860,"L"
748998,"5987","CRAWFORDSVILLE","IN",47933,NA,NA,498,"5987, CRAWFORDSVILLE, IN, 47933","No_Match",NA,NA,NA,NA
748999,"59879 JADEN DRIVE","SAINT HELENS","OR",97051,45.8637333030001,-122.834995824,499,"59879 JADEN DRIVE, SAINT HELENS, OR, 97051","Match","Exact","59879 JADEN DR, SAINT HELENS, OR, 97051",158094207,"R"
749000,"5988 CHAMPLAIN WAY","HERRIMAN","UT",84096,40.5040665660001,-112.033553899,500,"5988 CHAMPLAIN WAY, HERRIMAN, UT, 84096","Match","Exact","5988 CHAMPLAIN WAY, HERRIMAN, UT, 84096",635615456,"L"
