"ID","Address","City","State","Zip","lat","long","id","input_address","match_indicator","match_type","matched_address","tiger_line_id","tiger_side"
926501,"9130 SPOTTSWOODS ROAD","JACKSONVILLE","FL",32208,30.4053700900001,-81.715578073,1,"9130 SPOTTSWOODS ROAD, JACKSONVILLE, FL, 32208","Match","Non_Exact","9130 SPOTTSWOOD RD, JACKSONVILLE, FL, 32208",83887779,"L"
926502,"9130 SW 166TH PL","TAMPA","FL",33196,25.68149054,-80.46171629,2,"9130 SW 166TH PL, TAMPA, FL, 33196","Match","Non_Exact","9130 SW 166TH PL, MIAMI, FL, 33196",116090560,"R"
926503,"9130 W 88TH CIRCLE","WESTMINSTER","CO",80021,39.857376409,-105.099756888,3,"9130 W 88TH CIRCLE, WESTMINSTER, CO, 80021","Match","Exact","9130 W 88TH CIR, WESTMINSTER, CO, 80021",624974904,"R"
926504,"9130","CINCINNATI","OH",45242,NA,NA,4,"9130, CINCINNATI, OH, 45242","No_Match",NA,NA,NA,NA
926505,"91300 CAPE ARAGO HWY","COOS BAY","OR",97420,43.348297325,-124.314548763,5,"91300 CAPE ARAGO HWY, COOS BAY, OR, 97420","Match","Exact","91300 CAPE ARAGO HWY, COOS BAY, OR, 97420",137017017,"R"
926506,"9131 85TH AVENUE","WOODHAVEN","NY",11421,NA,NA,6,"9131 85TH AVENUE, WOODHAVEN, NY, 11421","No_Match",NA,NA,NA,NA
926507,"9131 BRADY DR","DALLAS","TX",75243,32.9036186720001,-96.743728215,7,"9131 BRADY DR, DALLAS, TX, 75243","Match","Exact","9131 BRADY DR, DALLAS, TX, 75243",102914395,"L"
926508,"9131 CARRIAGE HOUSE LANE","COLUMBIA","MD",21045,39.208029702,-76.8270266379999,8,"9131 CARRIAGE HOUSE LANE, COLUMBIA, MD, 21045","Match","Exact","9131 CARRIAGE HOUSE LN, COLUMBIA, MD, 21045",158942747,"L"
926509,"9131 CATHEDRAL PLACE","ANCHORAGE","AK",99507,61.1380277540001,-149.808881247,9,"9131 CATHEDRAL PLACE, ANCHORAGE, AK, 99507","Match","Exact","9131 CATHEDRAL PL, ANCHORAGE, AK, 99507",190808821,"L"
926510,"9131 CATHERINE FOSTER COURT","JACKSONVILLE","FL",32225,30.358612829,-81.55164949,10,"9131 CATHERINE FOSTER COURT, JACKSONVILLE, FL, 32225","Match","Exact","9131 CATHERINE FOSTER CT, JACKSONVILLE, FL, 32225",83951505,"R"
926511,"9131 CENTENARY COURT","CAMBY","IN",46113,39.642793673,-86.32296644,11,"9131 CENTENARY COURT, CAMBY, IN, 46113","Match","Exact","9131 CENTENARY CT, CAMBY, IN, 46113",108070528,"R"
926512,"9131 COLLEGE PARKWAY - SUITE 130","FORT MYERS","FL",33919,26.5564970570001,-81.9046524619999,12,"9131 COLLEGE PARKWAY - SUITE 130, FORT MYERS, FL, 33919","Match","Exact","9131 COLLEGE PKWY, FORT MYERS, FL, 33919",118169683,"R"
926513,"9131 CONDCORD HUNT CIRCLE","BRENTWOOD","TN",37027,NA,NA,13,"9131 CONDCORD HUNT CIRCLE, BRENTWOOD, TN, 37027","No_Match",NA,NA,NA,NA
926514,"9131 DENKER AVENUE","LOS ANGELES","CA",90047,33.95339563,-118.304657289,14,"9131 DENKER AVENUE, LOS ANGELES, CA, 90047","Match","Non_Exact","9131 S DENKER AVE, LOS ANGELES, CA, 90047",141659079,"R"
926515,"9131 E 102ND ST","TULSA","OK",74133,36.015925231,-95.874422538,15,"9131 E 102ND ST, TULSA, OK, 74133","Match","Exact","9131 E 102ND ST, TULSA, OK, 74133",166499267,"R"
926516,"9131 FIELD ROAD","PIKESVILLE","MD",21208,39.395747832,-76.75881386,16,"9131 FIELD ROAD, PIKESVILLE, MD, 21208","Match","Exact","9131 FIELD RD, PIKESVILLE, MD, 21208",647291203,"R"
926517,"9131 ILTIS DRIVE","URBANDALE","IA",50322,41.6415082390001,-93.7437438699999,17,"9131 ILTIS DRIVE, URBANDALE, IA, 50322","Match","Exact","9131 ILTIS DR, URBANDALE, IA, 50322",65855823,"R"
926518,"9131 JEAN VERTE","SAN ANTONIO","TX",78250,29.5249211920001,-98.680006602,18,"9131 JEAN VERTE, SAN ANTONIO, TX, 78250","Match","Exact","9131 JEAN VERTE, SAN ANTONIO, TX, 78250",101575776,"L"
926519,"9131 LAMONT AVE APT 2B","ELMHURST","NY",11373,NA,NA,19,"9131 LAMONT AVE APT 2B, ELMHURST, NY, 11373","No_Match",NA,NA,NA,NA
926520,"9131 LAMONT AVENUE APT 2B","ELMHURST","NY",11373,NA,NA,20,"9131 LAMONT AVENUE APT 2B, ELMHURST, NY, 11373","No_Match",NA,NA,NA,NA
926521,"9131 MORNING MIST COURT","CLARKSTON","MI",48348,42.7677708000001,-83.409078688,21,"9131 MORNING MIST COURT, CLARKSTON, MI, 48348","Match","Exact","9131 MORNING MIST CT, CLARKSTON, MI, 48348",69786548,"R"
926522,"9131 N 57 AVENUE","GLENDALE","AZ",85302,33.5690336490001,-112.181925886,22,"9131 N 57 AVENUE, GLENDALE, AZ, 85302","Match","Non_Exact","9131 N 57TH AVE, GLENDALE, AZ, 85302",128192613,"R"
926523,"9131 OLMSTED DRIVE APT 3","CHARLOTTE","NC",28272,35.3116379730001,-80.747251155,23,"9131 OLMSTED DRIVE APT 3, CHARLOTTE, NC, 28272","Match","Non_Exact","9131 OLMSTED DR, CHARLOTTE, NC, 28262",70512988,"L"
926524,"9131 S DALTON AVE","LOS ANGELES","CA",90047,33.9533971010001,-118.303569381,24,"9131 S DALTON AVE, LOS ANGELES, CA, 90047","Match","Exact","9131 DALTON AVE, LOS ANGELES, CA, 90047",141659080,"R"
926525,"9131 S LASALLE ST","CHICAGO","IL",60620,41.7280288160001,-87.627604199,25,"9131 S LASALLE ST, CHICAGO, IL, 60620","Match","Non_Exact","9131 S LA SALLE ST, CHICAGO, IL, 60620",111832416,"L"
926526,"9131 STONY POINT PKWY","RICHMOND","VA",23235,37.5524486150001,-77.566316133,26,"9131 STONY POINT PKWY, RICHMOND, VA, 23235","Match","Exact","9131 STONY POINT PKWY, RICHMOND, VA, 23235",201597605,"L"
926527,"9131 TABORFIELD AVENUE","ORLANDO","FL",32836,NA,NA,27,"9131 TABORFIELD AVENUE, ORLANDO, FL, 32836","No_Match",NA,NA,NA,NA
926528,"9131 W CORY LN 1","BOISE","ID",83704,43.6274664260001,-116.295832003,28,"9131 W CORY LN 1, BOISE, ID, 83704","Match","Exact","9131 CORY LN, BOISE, ID, 83704",623785683,"L"
926529,"9131 W WALKER ST","WEST ALLIS","WI",53214,43.0216121620001,-88.0264526399999,29,"9131 W WALKER ST, WEST ALLIS, WI, 53214","Match","Non_Exact","9131 W WALKER ST, WEST ALLIS, WI, 53214",77729720,"L"
926530,"91312 PERIWINKLE LOOP NE","LACEY","WA",98516,NA,NA,30,"91312 PERIWINKLE LOOP NE, LACEY, WA, 98516","No_Match",NA,NA,NA,NA
926531,"9132 5TH ST","LANHAM","MD",20706,38.9709124330001,-76.857540996,31,"9132 5TH ST, LANHAM, MD, 20706","Match","Exact","9132 5TH ST, LANHAM, MD, 20706",76308627,"L"
926532,"9132 CEDAR RIDGE","TEMPERANCE","MI",48182,41.782462771,-83.560425992,32,"9132 CEDAR RIDGE, TEMPERANCE, MI, 48182","Match","Non_Exact","9132 CEDAR RIDGE LN, TEMPERANCE, MI, 48182",624042937,"R"
926533,"9132 CLINTON AVE SOUTH","BLOOMINGTON","MN",55420,44.8382737570001,-93.272080533,33,"9132 CLINTON AVE SOUTH, BLOOMINGTON, MN, 55420","Match","Exact","9132 CLINTON AVE S, BLOOMINGTON, MN, 55420",43596287,"R"
926534,"9132 DEVON CREST","ELK GROVE","CA",95624,38.450148991,-121.361646937,34,"9132 DEVON CREST, ELK GROVE, CA, 95624","Match","Non_Exact","9132 DEVON CREST WAY, ELK GROVE, CA, 95624",133396058,"L"
926535,"9132 DEVONSHIRE BLVD","JACKSONVILLE","FL",32208,30.4035046830001,-81.72795035,35,"9132 DEVONSHIRE BLVD, JACKSONVILLE, FL, 32208","Match","Exact","9132 DEVONSHIRE BLVD, JACKSONVILLE, FL, 32208",83887567,"L"
926536,"9132 E MULESHOE ST","TUCSON","AZ",85747,32.111571903,-110.797483755,36,"9132 E MULESHOE ST, TUCSON, AZ, 85747","Match","Exact","9132 E MULESHOE ST, TUCSON, AZ, 85747",121403219,"R"
926537,"9132 GLENDOWER COURT","JACKSONVILLE","FL",32257,30.2137649410001,-81.600415399,37,"9132 GLENDOWER COURT, JACKSONVILLE, FL, 32257","Match","Exact","9132 GLENDOWER CT, JACKSONVILLE, FL, 32257",83944810,"R"
926538,"9132 GOSHEN PARK PLACE","GAITHERSBURG","MD",20882,39.2098971200001,-77.19417175,38,"9132 GOSHEN PARK PLACE, GAITHERSBURG, MD, 20882","Match","Exact","9132 GOSHEN PARK PL, GAITHERSBURG, MD, 20882",62133320,"L"
926539,"9132 NW 57TH STREET","PARKVILLE","MO",64152,39.1998666040001,-94.6861322999999,39,"9132 NW 57TH STREET, PARKVILLE, MO, 64152","Match","Exact","9132 57TH ST, PARKVILLE, MO, 64152",39693747,"R"
926540,"9132 PALOMINO DRIVE","PICKERINGTON","OH",43147,39.919017045,-82.7581563859999,40,"9132 PALOMINO DRIVE, PICKERINGTON, OH, 43147","Match","Non_Exact","9132 PALOMINO DR NW, PICKERINGTON, OH, 43147",37247107,"L"
926541,"9132 S KEDZIE","EVERGREEN PARK","IL",60805,41.7273929470001,-87.702017685,41,"9132 S KEDZIE, EVERGREEN PARK, IL, 60805","Match","Non_Exact","9132 S KEDZIE AVE, EVERGREEN PARK, IL, 60805",111820072,"R"
926542,"9132 S PULASKI ROAD 1W","OAK LAWN","IL",60453,41.7267987380001,-87.721621398,42,"9132 S PULASKI ROAD 1W, OAK LAWN, IL, 60453","Match","Non_Exact","9132 S PULASKI RD, OAK LAWN, IL, 60453",111818519,"R"
926543,"9132 STEINER ST","FORT WORTH","TX",76244,32.906029657,-97.2811293939999,43,"9132 STEINER ST, FORT WORTH, TX, 76244","Match","Exact","9132 STEINER ST, FORT WORTH, TX, 76244",619870505,"R"
926544,"9132 STRADA PLACE","NAPLES","FL",34108,26.25429868,-81.800490667,44,"9132 STRADA PLACE, NAPLES, FL, 34108","Match","Exact","9132 STRADA PL, NAPLES, FL, 34108",619138883,"L"
926545,"9132 THERMAL STREET","OAKLAND","CA",94605,37.7546904640001,-122.159823977,45,"9132 THERMAL STREET, OAKLAND, CA, 94605","Match","Exact","9132 THERMAL ST, OAKLAND, CA, 94605",125011086,"L"
926546,"9133 BLOM BLVD","SHREVEPORT","LA",71118,32.4036857790001,-93.789540298,46,"9133 BLOM BLVD, SHREVEPORT, LA, 71118","Match","Exact","9133 BLOM BLVD, SHREVEPORT, LA, 71118",57464373,"L"
926547,"9133 BROOKSIDE DR","WHITMORE LAKE","MI",48189,42.416807115,-83.7617779569999,47,"9133 BROOKSIDE DR, WHITMORE LAKE, MI, 48189","Match","Exact","9133 BROOKSIDE DR, WHITMORE LAKE, MI, 48189",26012951,"L"
926548,"9133 COUNTY LANE ROAD","ROCKY MOUINT","NC",27803,35.861412423,-77.820847589,48,"9133 COUNTY LANE ROAD, ROCKY MOUINT, NC, 27803","Match","Non_Exact","9133 COUNTY LINE RD, ROCKY MOUNT, NC, 27803",26724221,"L"
926549,"9133 COUNTY LANE ROAD","ROCKY MOUNT","NC",27803,35.861412423,-77.820847589,49,"9133 COUNTY LANE ROAD, ROCKY MOUNT, NC, 27803","Match","Non_Exact","9133 COUNTY LINE RD, ROCKY MOUNT, NC, 27803",26724221,"L"
926550,"9133 GRANITE COURT","WALDORF","MD",20603,38.6495009400001,-76.983025583,50,"9133 GRANITE COURT, WALDORF, MD, 20603","Match","Exact","9133 GRANITE CT, WALDORF, MD, 20603",25411234,"L"
926551,"9133 OLD COURTHOUSE ROAD","VIENNA","VA",22182,38.923712972,-77.2612286259999,51,"9133 OLD COURTHOUSE ROAD, VIENNA, VA, 22182","Match","Exact","9133 OLD COURTHOUSE RD, VIENNA, VA, 22182",215921984,"L"
926552,"9133 ORCHARD BLVD","MIDWEST CITY","OK",73130,35.442727635,-97.3687757119999,52,"9133 ORCHARD BLVD, MIDWEST CITY, OK, 73130","Match","Exact","9133 ORCHARD BLVD, MIDWEST CITY, OK, 73130",606184495,"L"
926553,"9133 ORCHARD BLVD","OKLAHOMA CITY","OK",73130,35.442727635,-97.3687757119999,53,"9133 ORCHARD BLVD, OKLAHOMA CITY, OK, 73130","Match","Exact","9133 ORCHARD BLVD, OKLAHOMA CITY, OK, 73130",606184495,"L"
926554,"9133 PERRY RD","ATLAS","MI",48411,42.939797694,-83.5309653099999,54,"9133 PERRY RD, ATLAS, MI, 48411","Match","Exact","9133 PERRY RD, ATLAS, MI, 48411",69581373,"R"
926555,"9133 REDWATER DRIVE","ANTELOPE","CA",95843,38.7260421780001,-121.374898011,55,"9133 REDWATER DRIVE, ANTELOPE, CA, 95843","Match","Exact","9133 REDWATER DR, ANTELOPE, CA, 95843",133385122,"R"
926556,"9133 RIDGE RD","DITTMER","MO",63023,38.3093046500001,-90.6850253759999,56,"9133 RIDGE RD, DITTMER, MO, 63023","Match","Exact","9133 RIDGE RD, DITTMER, MO, 63023",607864912,"R"
926557,"9133 SHADOWBROOK TRAIL","ORLANDO","FL",32825,28.5211260930001,-81.259825257,57,"9133 SHADOWBROOK TRAIL, ORLANDO, FL, 32825","Match","Exact","9133 SHADOWBROOK TRL, ORLANDO, FL, 32825",94421576,"L"
926558,"9133 SORENTO LANE","SHREVEPORT","LA",71115,32.3977603920001,-93.711762681,58,"9133 SORENTO LANE, SHREVEPORT, LA, 71115","Match","Non_Exact","9133 SORRENTO DR, SHREVEPORT, LA, 71115",624571968,"R"
926559,"9133 SOUTHERNWOOD WAY","INDIANAPOLIS","IN",46231,39.735442323,-86.323924381,59,"9133 SOUTHERNWOOD WAY, INDIANAPOLIS, IN, 46231","Match","Exact","9133 SOUTHERNWOOD WAY, INDIANAPOLIS, IN, 46231",108069738,"R"
926560,"9134 AERIE LAKE RD","ALBORN","MN",55702,47.0071776070001,-92.639793528,60,"9134 AERIE LAKE RD, ALBORN, MN, 55702","Match","Exact","9134 AERIE LAKE RD, ALBORN, MN, 55702",163230711,"R"
926561,"9134 BENSON AVENUE","SAN DIEGO","CA",92114,NA,NA,61,"9134 BENSON AVENUE, SAN DIEGO, CA, 92114","No_Match",NA,NA,NA,NA
926562,"9134 CHIANTI COURT","BOYNTON BEACH","FL",33472,26.54140233,-80.13451123,62,"9134 CHIANTI COURT, BOYNTON BEACH, FL, 33472","Match","Exact","9134 CHIANTI CT, BOYNTON BEACH, FL, 33472",115489242,"L"
926563,"9134 E NEWTON PL","TULSA","OK",74115,36.1746953040001,-95.874239409,63,"9134 E NEWTON PL, TULSA, OK, 74115","Match","Non_Exact","9134 E NEWTON PL, TULSA, OK, 74115",166448399,"R"
926564,"9134 FAWN LAKE DR NE","STACY","MN",55079,45.4002987060001,-93.035629496,64,"9134 FAWN LAKE DR NE, STACY, MN, 55079","Match","Exact","9134 FAWN LAKE DR NE, STACY, MN, 55079",97522372,"L"
926565,"9134 GALE BLVD UNIT 3","THORNTON","CO",80260,39.8623515830001,-105.0004719,65,"9134 GALE BLVD UNIT 3, THORNTON, CO, 80260","Match","Exact","9134 GALE BLVD, THORNTON, CO, 80260",633249737,"R"
926566,"9134 GAUCHY AVE","RIVERSIDE","CA",92508,NA,NA,66,"9134 GAUCHY AVE, RIVERSIDE, CA, 92508","No_Match",NA,NA,NA,NA
926567,"9134 JACKIES BEND","REYNOLDSBURG","OH",43068,39.9794233870001,-82.762775357,67,"9134 JACKIES BEND, REYNOLDSBURG, OH, 43068","Match","Exact","9134 JACKIES BEND, REYNOLDSBURG, OH, 43068",61568791,"L"
926568,"9134 LAKES AT 610 DR","HOUSTON","TX",77054,29.6696418770001,-95.419964522,68,"9134 LAKES AT 610 DR, HOUSTON, TX, 77054","Match","Exact","9134 LAKES AT 610 DR, HOUSTON, TX, 77054",624743640,"R"
926569,"9134 LIBERTY ROAD","RANDALLSTOWN","MD",21087,39.369804786,-76.8007043009999,69,"9134 LIBERTY ROAD, RANDALLSTOWN, MD, 21087","Match","Non_Exact","9134 LIBERTY RD, RANDALLSTOWN, MD, 21133",191550108,"R"
926570,"9134 MCMILLAN LANE","TAMPA","FL",33635,28.0311700280001,-82.592776311,70,"9134 MCMILLAN LANE, TAMPA, FL, 33635","Match","Exact","9134 MCMILLAN LN, TAMPA, FL, 33635",104506618,"L"
926571,"9134 N WOOLSEY AVE","PORTLAND","OR",97203,45.589027301,-122.713458776,71,"9134 N WOOLSEY AVE, PORTLAND, OR, 97203","Match","Exact","9134 N WOOLSEY AVE, PORTLAND, OR, 97203",627138844,"R"
926572,"9134 PISCATAWAY RD UNIT 1819","CLINTON","MD",20735,38.7640282830001,-76.9054486649999,72,"9134 PISCATAWAY RD UNIT 1819, CLINTON, MD, 20735","Match","Exact","9134 PISCATAWAY RD, CLINTON, MD, 20735",76320622,"R"
926573,"9134 RESTOVER LN","HOUSTON","TX",77064,29.905310286,-95.565764101,73,"9134 RESTOVER LN, HOUSTON, TX, 77064","Match","Exact","9134 RESTOVER LN, HOUSTON, TX, 77064",96227588,"L"
926574,"9134 S LUELLA","CHICAGO","IL",60617,41.7291563430001,-87.569446052,74,"9134 S LUELLA, CHICAGO, IL, 60617","Match","Non_Exact","9134 S LUELLA AVE, CHICAGO, IL, 60617",111776194,"R"
926575,"9134 SE 172 SANTEE PLACE","THE VILLAGES","FL",32162,28.9711631050001,-82.0012038369999,75,"9134 SE 172 SANTEE PLACE, THE VILLAGES, FL, 32162","Match","Exact","9134 SE 172ND SANTEE PL, THE VILLAGES, FL, 32162",116840051,"R"
926576,"9134 SELBORNE LANE","CHATTAHOOCHEE HILLS","GA",30268,33.523854387,-84.736422499,76,"9134 SELBORNE LANE, CHATTAHOOCHEE HILLS, GA, 30268","Match","Non_Exact","9134 SELBORNE WAY, CHATTAHOOCHEE HILLS, GA, 30268",628098956,"R"
926577,"9134 SEPULVEDA BLVD NUM2014","NORTH HILLS","CA",91343,34.236341646,-118.467475014,77,"9134 SEPULVEDA BLVD NUM2014, NORTH HILLS, CA, 91343","Match","Exact","9134 SEPULVEDA BLVD, NORTH HILLS, CA, 91343",141548956,"R"
926578,"9134 SOUTH LUELLA AVENUE","CHICAGO","IL",60617,41.7291673990001,-87.569446292,78,"9134 SOUTH LUELLA AVENUE, CHICAGO, IL, 60617","Match","Exact","9134 S LUELLA AVE, CHICAGO, IL, 60617",111776194,"R"
926579,"9134 SOUTH OGLESBY","CHICAGO","IL",60617,41.7291979460001,-87.567023375,79,"9134 SOUTH OGLESBY, CHICAGO, IL, 60617","Match","Non_Exact","9134 S OGLESBY AVE, CHICAGO, IL, 60617",111776209,"R"
926580,"9134 SPRINT HILL LANE","GREEN BELT","MD",20770,NA,NA,80,"9134 SPRINT HILL LANE, GREEN BELT, MD, 20770","No_Match",NA,NA,NA,NA
926581,"9134 SW 21 TERRACE","MIAMI","FL",33165,25.7496914920001,-80.3430462709999,81,"9134 SW 21 TERRACE, MIAMI, FL, 33165","Match","Exact","9134 SW 21ST TER, MIAMI, FL, 33165",115973121,"L"
926582,"9134 W 26TH PLACE","BROOKFIELD","IL",60513,41.841286681,-87.850548272,82,"9134 W 26TH PLACE, BROOKFIELD, IL, 60513","Match","Exact","9134 26TH PL, BROOKFIELD, IL, 60513",111791557,"R"
926583,"9134 WOODLAND DRIVE","HIGHLANDS RANCH","CO",80126,39.550036995,-104.988491198,83,"9134 WOODLAND DRIVE, HIGHLANDS RANCH, CO, 80126","Match","Exact","9134 WOODLAND DR, HIGHLANDS RANCH, CO, 80126",130817521,"R"
926584,"9135 13TH AVE","MIAMI","FL",33147,25.8581063410001,-80.219389395,84,"9135 13TH AVE, MIAMI, FL, 33147","Match","Non_Exact","9135 NW 13TH AVE, MIAMI, FL, 33147",116002812,"R"
926585,"9135 ADMIRALS POINTE CT","INDIANAPOLIS","IN",46236,39.92032793,-85.9510139349999,85,"9135 ADMIRALS POINTE CT, INDIANAPOLIS, IN, 46236","Match","Exact","9135 ADMIRALS POINTE CT, INDIANAPOLIS, IN, 46236",108033565,"R"
926586,"9135 BARTLEY AVE","SANTA FE SPRINGS","CA",90670,33.9602919590001,-118.08526053,86,"9135 BARTLEY AVE, SANTA FE SPRINGS, CA, 90670","Match","Exact","9135 BARTLEY AVE, SANTA FE SPRINGS, CA, 90670",141739267,"R"
926587,"9135 BEHNER CIRCLE","INDIANAPOLIS","IN",46250,39.9210873060001,-86.05872651,87,"9135 BEHNER CIRCLE, INDIANAPOLIS, IN, 46250","Match","Exact","9135 BEHNER CIR, INDIANAPOLIS, IN, 46250",108024608,"L"
926588,"9135 CHANEY AVE","DOWNEY","CA",90240,33.9537068750001,-118.107393968,88,"9135 CHANEY AVE, DOWNEY, CA, 90240","Match","Exact","9135 CHANEY AVE, DOWNEY, CA, 90240",141738148,"R"
926589,"9135 CULLEN WAY","INGLEWOOD","CA",90305,NA,NA,89,"9135 CULLEN WAY, INGLEWOOD, CA, 90305","No_Match",NA,NA,NA,NA
926590,"9135 E 49TH PL","TULSA","OK",74145,36.092060216,-95.8740668189999,90,"9135 E 49TH PL, TULSA, OK, 74145","Match","Exact","9135 E 49TH PL, TULSA, OK, 74145",166454810,"L"
926591,"9135 ERIE ST","HIGHLAND","IN",46322,41.546162683,-87.460394423,91,"9135 ERIE ST, HIGHLAND, IN, 46322","Match","Exact","9135 ERIE ST, HIGHLAND, IN, 46322",98422223,"L"
926592,"9135 FEDERAL APT 2A","DES PLAIN","IL",60616,NA,NA,92,"9135 FEDERAL APT 2A, DES PLAIN, IL, 60616","No_Match",NA,NA,NA,NA
926593,"9135 FRIARBRIDGE DR","SUWANEE","GA",30024,34.0561394050001,-84.1183862829999,93,"9135 FRIARBRIDGE DR, SUWANEE, GA, 30024","Match","Exact","9135 FRIARBRIDGE DR, SUWANEE, GA, 30024",627324968,"R"
926594,"9135 GREENBRIER COVE","GERMANTOWN","TN",38139,35.0913565770001,-89.7571637409999,94,"9135 GREENBRIER COVE, GERMANTOWN, TN, 38139","Match","Exact","9135 GREENBRIER COVE, GERMANTOWN, TN, 38139",72949148,"L"
926595,"9135 GREENWAY CT K-177","SAGINAW","MI",48609,43.420512241,-84.0943147469999,95,"9135 GREENWAY CT K-177, SAGINAW, MI, 48609","Match","Exact","9135 GREENWAY CT, SAGINAW, MI, 48609",80222417,"R"
926596,"9135 JUDICIAL DRIVE APT 3410","SAN DEIGO","PA",92122,NA,NA,96,"9135 JUDICIAL DRIVE APT 3410, SAN DEIGO, PA, 92122","No_Match",NA,NA,NA,NA
926597,"9135 KINGSVIEW LANE N","MAPLE GROVE","MN",55369,45.1202234670001,-93.468866546,97,"9135 KINGSVIEW LANE N, MAPLE GROVE, MN, 55369","Match","Exact","9135 KINGSVIEW LN N, MAPLE GROVE, MN, 55369",43814953,"L"
926598,"9135 LAKE PARCEL DRIVE","FORT","GA",22060,NA,NA,98,"9135 LAKE PARCEL DRIVE, FORT, GA, 22060","No_Match",NA,NA,NA,NA
926599,"9135 NORTH FLORA","KANSAS CITY","MO",64155,39.2606297560001,-94.5599486689999,99,"9135 NORTH FLORA, KANSAS CITY, MO, 64155","Match","Non_Exact","9135 N FLORA AVE, KANSAS CITY, MO, 64155",89791244,"R"
926600,"9135 OLD BAXTER RD","BAXTER","TN",38544,36.136320072,-85.659293551,100,"9135 OLD BAXTER RD, BAXTER, TN, 38544","Match","Exact","9135 OLD BAXTER RD, BAXTER, TN, 38544",25140033,"L"
926601,"9135 PARK ST","LENEXA","KS",66215,38.962514379,-94.744667625,101,"9135 PARK ST, LENEXA, KS, 66215","Match","Exact","9135 PARK ST, LENEXA, KS, 66215",91271276,"L"
926602,"9135 PISCATAWAY ROAD","CLINTON","MD",20735,38.764272685,-76.904204088,102,"9135 PISCATAWAY ROAD, CLINTON, MD, 20735","Match","Exact","9135 PISCATAWAY RD, CLINTON, MD, 20735",76332058,"L"
926603,"9135 S CULLEN WAY","INGLEWOOD","CA",90305,NA,NA,103,"9135 S CULLEN WAY, INGLEWOOD, CA, 90305","No_Match",NA,NA,NA,NA
926604,"9135 S MAY STREET","CHICAGO","IL",60620,41.727973192,-87.6518899879999,104,"9135 S MAY STREET, CHICAGO, IL, 60620","Match","Exact","9135 S MAY ST, CHICAGO, IL, 60620",111831643,"L"
926605,"9135 S WABASH AVE","CHICAGO","IL",60619,41.7282378,-87.622368904,105,"9135 S WABASH AVE, CHICAGO, IL, 60619","Match","Exact","9135 S WABASH AVE, CHICAGO, IL, 60619",111772847,"L"
926606,"9135 SOUTH MAY STREET","CHICAGO","IL",60620,41.7279842720001,-87.6518902729999,106,"9135 SOUTH MAY STREET, CHICAGO, IL, 60620","Match","Exact","9135 S MAY ST, CHICAGO, IL, 60620",111831643,"L"
926607,"9135 SW 43AVE","PORTLAND","OR",97219,NA,NA,107,"9135 SW 43AVE, PORTLAND, OR, 97219","No_Match",NA,NA,NA,NA
926608,"9135 SW BARNES RD 663","PORTLAND","OR",97225,45.508863928,-122.771009904,108,"9135 SW BARNES RD 663, PORTLAND, OR, 97225","Match","Non_Exact","9135 SW BARNES RD, PORTLAND, OR, 97225",158187312,"R"
926609,"9135 WEST ROCKIN R ROAD","ATOKA","OK",74525,NA,NA,109,"9135 WEST ROCKIN R ROAD, ATOKA, OK, 74525","No_Match",NA,NA,NA,NA
926610,"9135 WILSON CT","TOBYHANNA","PA",18466,41.180631605,-75.3595227769999,110,"9135 WILSON CT, TOBYHANNA, PA, 18466","Match","Exact","9135 WILSON CT, TOBYHANNA, PA, 18466",136796831,"L"
926611,"9136 CHARDON RD","KIRTLAND","OH",44094,41.5786430700001,-81.315900546,111,"9136 CHARDON RD, KIRTLAND, OH, 44094","Match","Exact","9136 CHARDON RD, KIRTLAND, OH, 44094",137473995,"R"
926612,"9136 DESMOND","ST LOUIS","MO",63126,38.545634202,-90.3667441589999,112,"9136 DESMOND, ST LOUIS, MO, 63126","Match","Non_Exact","9136 DESMOND DR, SAINT LOUIS, MO, 63126",100142110,"L"
926613,"9136 DR KORCZAK TERR","SKOKIE","IL",60076,42.047477617,-87.720598243,113,"9136 DR KORCZAK TERR, SKOKIE, IL, 60076","Match","Exact","9136 DR KORCZAK TER, SKOKIE, IL, 60076",111740182,"L"
926614,"9136 FALCON RIDGE DRIVE UNIT 2","BRIDGEVIEW","IL",60455,41.7255062560001,-87.80685701,114,"9136 FALCON RIDGE DRIVE UNIT 2, BRIDGEVIEW, IL, 60455","Match","Exact","9136 FALCON RIDGE DR, BRIDGEVIEW, IL, 60455",112216231,"L"
926615,"9136 HARDESTY DRIVE","CLINTON","MD",20735,38.76445547,-76.905184483,115,"9136 HARDESTY DRIVE, CLINTON, MD, 20735","Match","Exact","9136 HARDESTY DR, CLINTON, MD, 20735",76342995,"L"
926616,"9136 HYACINTH AVE","BATON ROUGE","LA",70810,30.3848853000001,-91.109790365,116,"9136 HYACINTH AVE, BATON ROUGE, LA, 70810","Match","Exact","9136 HYACINTH AVE, BATON ROUGE, LA, 70810",92192756,"R"
926617,"9136 PASCAGOULA DR","BATON ROUGE","LA",70810,30.346747378,-91.129187702,117,"9136 PASCAGOULA DR, BATON ROUGE, LA, 70810","Match","Exact","9136 PASCAGOULA DR, BATON ROUGE, LA, 70810",92199904,"R"
926618,"9136 PAXTON AVE","CHICAGO","IL",60617,41.7291200430001,-87.570669924,118,"9136 PAXTON AVE, CHICAGO, IL, 60617","Match","Non_Exact","9136 S PAXTON AVE, CHICAGO, IL, 60617",111776189,"R"
926619,"9136 PICCADILLY CIR","WINDSOR","CA",95492,38.554621963,-122.797047206,119,"9136 PICCADILLY CIR, WINDSOR, CA, 95492","Match","Exact","9136 PICCADILLY CIR, WINDSOR, CA, 95492",67512080,"L"
926620,"9136 PLEASANT VALLEY DRIVE","ALEXANDER","AR",72002,34.608071491,-92.4357073799999,120,"9136 PLEASANT VALLEY DRIVE, ALEXANDER, AR, 72002","Match","Exact","9136 PLEASANT VALLEY DR, ALEXANDER, AR, 72002",649895387,"L"
926621,"9136 RIZES WAY","ELK GROVE","CA",95758,38.4267022000001,-121.478339474,121,"9136 RIZES WAY, ELK GROVE, CA, 95758","Match","Exact","9136 RIZES WAY, ELK GROVE, CA, 95758",133386388,"R"
926622,"9136 S FRANCISCO","CHICAGO","IL",60805,41.7272393580001,-87.694603595,122,"9136 S FRANCISCO, CHICAGO, IL, 60805","Match","Non_Exact","9136 S FRANCISCO AVE, CHICAGO, IL, 60805",605315023,"R"
926623,"9136 S PAXTON","CHICAGO","IL",60617,41.7291083370001,-87.5706695659999,123,"9136 S PAXTON, CHICAGO, IL, 60617","Match","Non_Exact","9136 S PAXTON AVE, CHICAGO, IL, 60617",111776189,"R"
926624,"9136 S PHILLIPS AVE","CHICAGO","IL",60617,41.729187202,-87.564586576,124,"9136 S PHILLIPS AVE, CHICAGO, IL, 60617","Match","Exact","9136 S PHILLIPS AVE, CHICAGO, IL, 60617",111776425,"R"
926625,"9136 S SACRAMENTO AVE","EVERGREEN PARK","IL",60805,41.7272377640001,-87.697082675,125,"9136 S SACRAMENTO AVE, EVERGREEN PARK, IL, 60805","Match","Exact","9136 SACRAMENTO AVE, EVERGREEN PARK, IL, 60805",605315059,"R"
926626,"9136 SE STEELE ST","PORTLAND","OR",97266,45.4846131530001,-122.56920715,126,"9136 SE STEELE ST, PORTLAND, OR, 97266","Match","Exact","9136 SE STEELE ST, PORTLAND, OR, 97266",157520583,"R"
926627,"9136 THETFORD WAY","MONTGOMERY","AL",36117,32.3328604340001,-86.128633937,127,"9136 THETFORD WAY, MONTGOMERY, AL, 36117","Match","Exact","9136 THETFORD WAY, MONTGOMERY, AL, 36117",650726061,"R"
926628,"9136 TYNE LANE","INVER GROVE HEIGHTS","MN",55077,44.8173465670001,-93.104432875,128,"9136 TYNE LANE, INVER GROVE HEIGHTS, MN, 55077","Match","Exact","9136 TYNE LN, INVER GROVE HEIGHTS, MN, 55077",37930751,"R"
926629,"9136 TYNE LN","INVER GROVE HEIGHTS","MN",55077,44.8173465670001,-93.104432875,129,"9136 TYNE LN, INVER GROVE HEIGHTS, MN, 55077","Match","Exact","9136 TYNE LN, INVER GROVE HEIGHTS, MN, 55077",37930751,"R"
926630,"9136 W KIRBY AVE","TOLLESON","AZ",85353,33.41599152,-112.25671526,130,"9136 W KIRBY AVE, TOLLESON, AZ, 85353","Match","Exact","9136 W KIRBY AVE, TOLLESON, AZ, 85353",243953593,"L"
926631,"9137 APPLEWOOD CT","GIRARD","PA",16417,42.0064571520001,-80.30228706,131,"9137 APPLEWOOD CT, GIRARD, PA, 16417","Match","Exact","9137 APPLEWOOD CT, GIRARD, PA, 16417",117508554,"R"
926632,"9137 CLENDENEN WAY","SACRAMENTO","CA",95826,38.5435221330001,-121.351409917,132,"9137 CLENDENEN WAY, SACRAMENTO, CA, 95826","Match","Exact","9137 CLENDENEN WAY, SACRAMENTO, CA, 95826",133419477,"R"
926633,"9137 E MINERAL CIR SUITE 110","CENTENNIAL","CO",80112,39.576325287,-104.882979188,133,"9137 E MINERAL CIR SUITE 110, CENTENNIAL, CO, 80112","Match","Non_Exact","9137 E MINERAL CIR, CENTENNIAL, CO, 80112",177347784,"R"
926634,"9137 GALBRATH DRIVE","NORTH HIGHLANDS","CA",95660,NA,NA,134,"9137 GALBRATH DRIVE, NORTH HIGHLANDS, CA, 95660","No_Match",NA,NA,NA,NA
926635,"9137 GARNISH","DOWNEY","CA",90240,33.952529197,-118.105749792,135,"9137 GARNISH, DOWNEY, CA, 90240","Match","Non_Exact","9137 GARNISH DR, DOWNEY, CA, 90240",141738353,"R"
926636,"9137 GRANDVIEW DR","OVERLAND PARK","KS",66212,38.963093207,-94.6897414749999,136,"9137 GRANDVIEW DR, OVERLAND PARK, KS, 66212","Match","Exact","9137 GRANDVIEW DR, OVERLAND PARK, KS, 66212",91276925,"L"
926637,"9137 GREENHEATHER DRIVE","HUNTERSVILLE","NC",28078,35.4102222380001,-80.8731925129999,137,"9137 GREENHEATHER DRIVE, HUNTERSVILLE, NC, 28078","Match","Exact","9137 GREENHEATHER DR, HUNTERSVILLE, NC, 28078",70627288,"L"
926638,"9137 HACIENDAS","LAS VEGAS","NV",89148,NA,NA,138,"9137 HACIENDAS, LAS VEGAS, NV, 89148","No_Match",NA,NA,NA,NA
926639,"9137 MANSFIELD ROAD","SHREVEPORT","LA",71118,32.404761132,-93.801397799,139,"9137 MANSFIELD ROAD, SHREVEPORT, LA, 71118","Match","Exact","9137 MANSFIELD RD, SHREVEPORT, LA, 71118",57487815,"L"
926640,"9137 NW ESSON CT","PORTLAND","OR",97229,45.541408495,-122.771648795,140,"9137 NW ESSON CT, PORTLAND, OR, 97229","Match","Exact","9137 NW ESSON CT, PORTLAND, OR, 97229",157591629,"L"
926641,"9137 POLO PONY COURT","MECHANICSVILLE","VA",23116,37.701146947,-77.414100693,141,"9137 POLO PONY COURT, MECHANICSVILLE, VA, 23116","Match","Exact","9137 POLO PONY CT, MECHANICSVILLE, VA, 23116",84967315,"R"
926642,"9137 ROUNDLEAF WAY","GAITHERSBURG","MD",20879,39.1834541470001,-77.1871730189999,142,"9137 ROUNDLEAF WAY, GAITHERSBURG, MD, 20879","Match","Exact","9137 ROUNDLEAF WAY, GAITHERSBURG, MD, 20879",62050263,"R"
926643,"9137 S GALE RD","GOODRICH","MI",48438,42.9006375220001,-83.533248575,143,"9137 S GALE RD, GOODRICH, MI, 48438","Match","Exact","9137 GALE RD, GOODRICH, MI, 48438",69581628,"R"
926644,"9137 S URBAN AVENUE","CHICAGO","IL",60619,41.7284009300001,-87.623280596,144,"9137 S URBAN AVENUE, CHICAGO, IL, 60619","Match","Exact","9137 S URBAN AVE, CHICAGO, IL, 60619",111772846,"L"
926645,"91378 QUEEN NICOLE TERRACE","GERMANTOWN","MD",20877,NA,NA,145,"91378 QUEEN NICOLE TERRACE, GERMANTOWN, MD, 20877","No_Match",NA,NA,NA,NA
926646,"9138 DEVAUN PARK BLVD","CALABASH","NC",28467,33.876450913,-78.557768299,146,"9138 DEVAUN PARK BLVD, CALABASH, NC, 28467","Match","Non_Exact","9138 DEVAUN PARK BLVD SW, CALABASH, NC, 28467",624757332,"R"
926647,"9138 E ENCANTO ST","MESA","AZ",85207,33.4337019720001,-111.633865638,147,"9138 E ENCANTO ST, MESA, AZ, 85207","Match","Exact","9138 E ENCANTO ST, MESA, AZ, 85207",243914576,"R"
926648,"9138 EDMONSTON COURT APT 101","GREENBELT","MD",20770,39.000596263,-76.8995871719999,148,"9138 EDMONSTON COURT APT 101, GREENBELT, MD, 20770","Match","Exact","9138 EDMONSTON CT, GREENBELT, MD, 20770",76338015,"L"
926649,"9138 EDMONSTON COURT APT 301","GREENBELT","MD",20770,39.000596263,-76.8995871719999,149,"9138 EDMONSTON COURT APT 301, GREENBELT, MD, 20770","Match","Exact","9138 EDMONSTON CT, GREENBELT, MD, 20770",76338015,"L"
926650,"9138 FAIRWAY LOOP","DADE CITY","FL",33525,28.290408755,-82.168030066,150,"9138 FAIRWAY LOOP, DADE CITY, FL, 33525","Match","Exact","9138 FAIRWAY LOOP, DADE CITY, FL, 33525",618494927,"R"
926651,"9138 RAEFORD DRIVE","DALLAS","TX",75243,32.89784883,-96.74621617,151,"9138 RAEFORD DRIVE, DALLAS, TX, 75243","Match","Exact","9138 RAEFORD DR, DALLAS, TX, 75243",102914432,"R"
926652,"9138 SW 180TH PL","BEAVERTON","OR",97007,45.454076925,-122.862271206,152,"9138 SW 180TH PL, BEAVERTON, OR, 97007","Match","Exact","9138 SW 180TH PL, BEAVERTON, OR, 97007",158200628,"R"
926653,"9139 7TH AVE S","SEATTLE","WA",98108,47.5215916700001,-122.324988313,153,"9139 7TH AVE S, SEATTLE, WA, 98108","Match","Exact","9139 7TH AVE S, SEATTLE, WA, 98108",186592481,"R"
926654,"9139 ALPINE DR","URBANDALE","IA",50322,41.6406545560001,-93.743707144,154,"9139 ALPINE DR, URBANDALE, IA, 50322","Match","Exact","9139 ALPINE DR, URBANDALE, IA, 50322",65855859,"L"
926655,"9139 BLETCHLEY AVE NW","NORTH CANTON","OH",44720,40.91942486,-81.3995352109999,155,"9139 BLETCHLEY AVE NW, NORTH CANTON, OH, 44720","Match","Exact","9139 BLETCHLEY AVE NW, NORTH CANTON, OH, 44720",64708937,"L"
926656,"9139 EWING AVENUE","SKOKIE","IL",60203,42.046929692,-87.712391987,156,"9139 EWING AVENUE, SKOKIE, IL, 60203","Match","Non_Exact","9139 EWING AVE, EVANSTON, IL, 60203",639819901,"R"
926657,"9139 FISK RD","DARMA","MI",49269,42.3664092990001,-84.5709721919999,157,"9139 FISK RD, DARMA, MI, 49269","Match","Non_Exact","9139 FISK RD, PARMA, MI, 49269",652799501,"L"
926658,"9139 HANOVER ST","OMAHA","NE",68122,41.3278923570001,-96.055504143,158,"9139 HANOVER ST, OMAHA, NE, 68122","Match","Exact","9139 HANOVER ST, OMAHA, NE, 68122",646765898,"R"
926659,"9139 LAS TUNAS DRIVE","TEMPLE CITY","CA",91780,34.1052984940001,-118.069667357,159,"9139 LAS TUNAS DRIVE, TEMPLE CITY, CA, 91780","Match","Exact","9139 LAS TUNAS DR, TEMPLE CITY, CA, 91780",141635090,"L"
926660,"9139 MARASOL LANE","CONCORD","NC",28027,35.447400594,-80.732761259,160,"9139 MARASOL LANE, CONCORD, NC, 28027","Match","Exact","9139 MARASOL LN, CONCORD, NC, 28027",624739644,"L"
926661,"9139 N HIGHWAY 1247","EUBANK","KY",42567,37.2092996470001,-84.638894979,161,"9139 N HIGHWAY 1247, EUBANK, KY, 42567","Match","Non_Exact","9139 STATE HWY 1247, EUBANK, KY, 42567",39073981,"L"
926662,"9139 PARK STREET","BELLFLOWER","CA",90706,33.8784067120001,-118.138935279,162,"9139 PARK STREET, BELLFLOWER, CA, 90706","Match","Exact","9139 PARK ST, BELLFLOWER, CA, 90706",142774893,"L"
926663,"9139 PARKWAY","HIGHLAND","IN",46322,41.547511184,-87.479114355,163,"9139 PARKWAY, HIGHLAND, IN, 46322","Match","Non_Exact","9139 PARKWAY DR, HIGHLAND, IN, 46322",98444199,"L"
926664,"9139 QUAIL BROOK CIRCLE","ELK GROVE","CA",95624,38.4247731190001,-121.367245102,164,"9139 QUAIL BROOK CIRCLE, ELK GROVE, CA, 95624","Match","Exact","9139 QUAIL BROOK CIR, ELK GROVE, CA, 95624",133403407,"R"
926665,"9139 SAGUARO RD","RIVERSIDE","CA",92503,33.914551149,-117.43224106,165,"9139 SAGUARO RD, RIVERSIDE, CA, 92503","Match","Exact","9139 SAGUARO RD, RIVERSIDE, CA, 92503",194740401,"R"
926666,"9139 SEAFAIR LANE","TALLAHASSEE","FL",32317,30.4881054620001,-84.1205539379999,166,"9139 SEAFAIR LANE, TALLAHASSEE, FL, 32317","Match","Exact","9139 SEAFAIR LN, TALLAHASSEE, FL, 32317",633566839,"R"
926667,"9139 WOODPOINTE WAY","FAIRFAX STATION","VA",22039,38.731196873,-77.2582881439999,167,"9139 WOODPOINTE WAY, FAIRFAX STATION, VA, 22039","Match","Non_Exact","9139 WOOD POINTE WAY, FAIRFAX STATION, VA, 22039",644564137,"R"
926668,"914 1/2 HOBSON STREET","NAPOLEON","OH",43545,41.3949645210001,-84.123855538,168,"914 1/2 HOBSON STREET, NAPOLEON, OH, 43545","Match","Exact","914 HOBSON ST, NAPOLEON, OH, 43545",33767655,"R"
926669,"914 10TH AVE SW","LARGO","FL",33770,27.9076445600001,-82.798316732,169,"914 10TH AVE SW, LARGO, FL, 33770","Match","Exact","914 10TH AVE SW, LARGO, FL, 33770",124671916,"R"
926670,"914 164TH ST SE 310","MILL CREEK","WA",98012,47.849403502,-122.22123441,170,"914 164TH ST SE 310, MILL CREEK, WA, 98012","Match","Exact","914 164TH ST SE, MILL CREEK, WA, 98012",649529385,"R"
926671,"914 164TH ST SE NUMB 395","MILL CREEK","WA",98012,47.849403502,-122.22123441,171,"914 164TH ST SE NUMB 395, MILL CREEK, WA, 98012","Match","Exact","914 164TH ST SE, MILL CREEK, WA, 98012",649529385,"R"
926672,"914 164TH ST SE","MILL CREEK","WA",98012,47.849403502,-122.22123441,172,"914 164TH ST SE, MILL CREEK, WA, 98012","Match","Exact","914 164TH ST SE, MILL CREEK, WA, 98012",649529385,"R"
926673,"914 16TH ST","CLOQUET","MN",55720,46.7093535810001,-92.446449533,173,"914 16TH ST, CLOQUET, MN, 55720","Match","Exact","914 16TH ST, CLOQUET, MN, 55720",162680560,"R"
926674,"914 23RD AVE E","SEATTLE","WA",98112,47.6269374030001,-122.302372954,174,"914 23RD AVE E, SEATTLE, WA, 98112","Match","Exact","914 23RD AVE E, SEATTLE, WA, 98112",186587864,"R"
926675,"914 24TH AVE E","SEATTLE","WA",98112,47.626826399,-122.301108298,175,"914 24TH AVE E, SEATTLE, WA, 98112","Match","Exact","914 24TH AVE E, SEATTLE, WA, 98112",186587891,"R"
926676,"914 24TH STREET","SANTA MONICA","CA",90403,34.0382536490001,-118.483835052,176,"914 24TH STREET, SANTA MONICA, CA, 90403","Match","Exact","914 24TH ST, SANTA MONICA, CA, 90403",141559245,"R"
926677,"914 36TH ST NW","AUSTIN","MN",55912,43.6718711010001,-93.0272691979999,177,"914 36TH ST NW, AUSTIN, MN, 55912","Match","Exact","914 36TH ST NW, AUSTIN, MN, 55912",610515703,"L"
926678,"914 6TH AVE SOUTH UNIT 208","SAINT CLOUD","MN",56301,45.5503118450001,-94.1559388759999,178,"914 6TH AVE SOUTH UNIT 208, SAINT CLOUD, MN, 56301","Match","Exact","914 6TH AVE S, SAINT CLOUD, MN, 56301",614550179,"L"
926679,"914 7TH AVE N","JACKSONVILLE BEACH","FL",32250,30.294538908,-81.4000865039999,179,"914 7TH AVE N, JACKSONVILLE BEACH, FL, 32250","Match","Exact","914 7TH AVE N, JACKSONVILLE BEACH, FL, 32250",83923243,"L"
926680,"914 7TH AVENUE SE","ROCHESTER","MN",55904,44.0121807530001,-92.453689644,180,"914 7TH AVENUE SE, ROCHESTER, MN, 55904","Match","Exact","914 7TH AVE SE, ROCHESTER, MN, 55904",30553851,"L"
926681,"914 9TH AVENUE","NASHVILLE","TN",37208,36.170460394,-86.790667968,181,"914 9TH AVENUE, NASHVILLE, TN, 37208","Match","Non_Exact","914 9TH AVE N, NASHVILLE, TN, 37208",606369885,"R"
926682,"914 ACORN LN","MUSCATINE","IA",52761,41.4427018100001,-91.054684347,182,"914 ACORN LN, MUSCATINE, IA, 52761","Match","Exact","914 ACORN LN, MUSCATINE, IA, 52761",98995292,"L"
926683,"914 ADAMS AVENUE","WURTLAND","KY",41144,38.548215333,-82.772015728,183,"914 ADAMS AVENUE, WURTLAND, KY, 41144","Match","Exact","914 ADAMS AVE, WURTLAND, KY, 41144",151401357,"R"
926684,"914 ALLEN DRIVE","YEADON","PA",19050,39.923741492,-75.252306255,184,"914 ALLEN DRIVE, YEADON, PA, 19050","Match","Exact","914 ALLEN DR, YEADON, PA, 19050",134900223,"L"
926685,"914 ALLIEGOOD CT","TALLAHASSEE","FL",32303,30.4675830320001,-84.2994249079999,185,"914 ALLIEGOOD CT, TALLAHASSEE, FL, 32303","Match","Exact","914 ALLIEGOOD CT, TALLAHASSEE, FL, 32303",82887356,"R"
926686,"914 AMES HILL RD","BRATTLEBORO","VT",5301,42.852516494,-72.657210517,186,"914 AMES HILL RD, BRATTLEBORO, VT, 5301","Match","Exact","914 AMES HILL RD, BRATTLEBORO, VT, 05301",624491917,"L"
926687,"914 ANDERSON CREEK SCHOOL RD","BUNNLEVEL","NC",28323,35.283868747,-78.916358649,187,"914 ANDERSON CREEK SCHOOL RD, BUNNLEVEL, NC, 28323","Match","Exact","914 ANDERSON CREEK SCHOOL RD, BUNNLEVEL, NC, 28323",71985700,"L"
926688,"914 ANN DRIVE","WYLIE","TX",75098,33.0235114280001,-96.549093372,188,"914 ANN DRIVE, WYLIE, TX, 75098","Match","Exact","914 ANN DR, WYLIE, TX, 75098",651398112,"L"
926689,"914 ASH DRIVE","NEW HAMPTON","IA",50659,43.059923682,-92.329074081,189,"914 ASH DRIVE, NEW HAMPTON, IA, 50659","Match","Exact","914 ASH DR, NEW HAMPTON, IA, 50659",9741433,"R"
926690,"914 ASHFORD PARKWAY","HOUSTON","TX",77077,29.757813293,-95.605099077,190,"914 ASHFORD PARKWAY, HOUSTON, TX, 77077","Match","Exact","914 ASHFORD PKWY, HOUSTON, TX, 77077",96020939,"R"
926691,"914 AUGUST DRIVE","SILVER SPRING","MD",20902,NA,NA,191,"914 AUGUST DRIVE, SILVER SPRING, MD, 20902","No_Match",NA,NA,NA,NA
926692,"914 AVENUE E","COUNCIL BLUFFS","IA",51503,41.2661232030001,-95.857716032,192,"914 AVENUE E, COUNCIL BLUFFS, IA, 51503","Match","Exact","914 AVENUE E, COUNCIL BLUFFS, IA, 51503",43901069,"R"
926693,"914 B NORTH AVE","BURLINGTON","VT",5408,44.502465149,-73.23878681,193,"914 B NORTH AVE, BURLINGTON, VT, 5408","Match","Exact","914 NORTH AVE, BURLINGTON, VT, 05408",135827116,"R"
926694,"914 B WATERVIEW WAY","CHAMPAIGN","IL",61822,40.1495432140001,-88.260187177,194,"914 B WATERVIEW WAY, CHAMPAIGN, IL, 61822","Match","Exact","914 WATERVIEW WAY, CHAMPAIGN, IL, 61822",614473216,"R"
926695,"914 BAILEY COURT","MATTHEWS","NC",28104,35.123129804,-80.643024283,195,"914 BAILEY COURT, MATTHEWS, NC, 28104","Match","Exact","914 BAILEY CT, MATTHEWS, NC, 28104",14199085,"R"
926696,"914 BASS BLVD","PROCTOR","MN",55810,NA,NA,196,"914 BASS BLVD, PROCTOR, MN, 55810","No_Match",NA,NA,NA,NA
926697,"914 BEAVER LAKE BLVD","PLATTSMOUTH","NE",68048,40.925390259,-95.894977856,197,"914 BEAVER LAKE BLVD, PLATTSMOUTH, NE, 68048","Match","Exact","914 BEAVER LAKE BLVD, PLATTSMOUTH, NE, 68048",10359137,"R"
926698,"914 BELOIT AVE","FOREST PARK","IL",60130,41.8700013590001,-87.8116687099999,198,"914 BELOIT AVE, FOREST PARK, IL, 60130","Match","Exact","914 BELOIT AVE, FOREST PARK, IL, 60130",111791871,"L"
926699,"914 BENSTON RD","WHITEHALL","MI",49461,43.392422287,-86.331900659,199,"914 BENSTON RD, WHITEHALL, MI, 49461","Match","Exact","914 BENSTON RD, WHITEHALL, MI, 49461",77668353,"R"
926700,"914 BLANDINA SY APT  1","UTICA","NY",13501,43.0933954560001,-75.211608468,200,"914 BLANDINA SY APT  1, UTICA, NY, 13501","Match","Non_Exact","914 BLANDINA ST, UTICA, NY, 13501",171531608,"R"
926701,"914 BLOOM ROAD","DANVILLE","PA",17821,NA,NA,201,"914 BLOOM ROAD, DANVILLE, PA, 17821","No_Match",NA,NA,NA,NA
926702,"914 BOULDER BLUFF LANE","LOWELL","MI",49331,42.9810409520001,-85.388345949,202,"914 BOULDER BLUFF LANE, LOWELL, MI, 49331","Match","Exact","914 BOULDER BLUFF LN, LOWELL, MI, 49331",650687630,"R"
926703,"914 BROOK STREET","FAYETTEVILLE","NC",28305,35.0582208070001,-78.8953420289999,203,"914 BROOK STREET, FAYETTEVILLE, NC, 28305","Match","Exact","914 BROOK ST, FAYETTEVILLE, NC, 28305",64201461,"R"
926704,"914 CAMPBELL ST","WILMINGTON","NC",28401,34.242745164,-77.938176326,204,"914 CAMPBELL ST, WILMINGTON, NC, 28401","Match","Exact","914 CAMPBELL ST, WILMINGTON, NC, 28401",639115027,"R"
926705,"914 CENTER ST","BLACK EARTH","WI",53515,43.140437687,-89.746759721,205,"914 CENTER ST, BLACK EARTH, WI, 53515","Match","Exact","914 CENTER ST, BLACK EARTH, WI, 53515",49458657,"L"
926706,"914 CENTRAL AVE","EVANSDALE","IA",50707,42.469161614,-92.282668708,206,"914 CENTRAL AVE, EVANSDALE, IA, 50707","Match","Exact","914 CENTRAL AVE, EVANSDALE, IA, 50707",77255929,"R"
926707,"914 CHAMBLISS","MEMPHIS","TN",38117,NA,NA,207,"914 CHAMBLISS, MEMPHIS, TN, 38117","No_Match",NA,NA,NA,NA
926708,"914 CHERRY STREET","SHELL ROCK","IA",50670,NA,NA,208,"914 CHERRY STREET, SHELL ROCK, IA, 50670","Tie",NA,NA,NA,NA
926709,"914 CHICKESAW LANE","WYLIE","TX",75098,33.021057091,-96.5545866799999,209,"914 CHICKESAW LANE, WYLIE, TX, 75098","Match","Exact","914 CHICKESAW LN, WYLIE, TX, 75098",619923032,"R"
926710,"914 CLEVELAND ST","BROOKLYN","NJ",11208,NA,NA,210,"914 CLEVELAND ST, BROOKLYN, NJ, 11208","No_Match",NA,NA,NA,NA
926711,"914 CLEVELAND ST","BROOKLYN","NY",11208,40.662390515,-73.879471902,211,"914 CLEVELAND ST, BROOKLYN, NY, 11208","Match","Exact","914 CLEVELAND ST, BROOKLYN, NY, 11208",652212144,"R"
926712,"914 CLEVELAND STREET","BROOKLYN","NY",11208,40.662390515,-73.879471902,212,"914 CLEVELAND STREET, BROOKLYN, NY, 11208","Match","Exact","914 CLEVELAND ST, BROOKLYN, NY, 11208",652212144,"R"
926713,"914 CLUBHOUSE BLVD","NEW SMYRNA BEACH","FL",32168,29.0395313330001,-80.989675542,213,"914 CLUBHOUSE BLVD, NEW SMYRNA BEACH, FL, 32168","Match","Non_Exact","914 CLUB HOUSE BLVD, NEW SMYRNA BEACH, FL, 32168",94530586,"L"
926714,"914 COBIA DRIVE","PANAMA CITY BEACH","FL",32411,30.155799669,-85.73692256,214,"914 COBIA DRIVE, PANAMA CITY BEACH, FL, 32411","Match","Non_Exact","914 COBIA DR, PANAMA CITY BEACH, FL, 32408",7026542,"R"
926715,"914 COLLIER RD NW APT 1102","ATLANTA","GA",30318,NA,NA,215,"914 COLLIER RD NW APT 1102, ATLANTA, GA, 30318","No_Match",NA,NA,NA,NA
926716,"914 COLLIER RD","ATLANTA","GA",30318,NA,NA,216,"914 COLLIER RD, ATLANTA, GA, 30318","No_Match",NA,NA,NA,NA
926717,"914 COLLIER ROAD NW APT 1201","ATLANTA","GA",30318,NA,NA,217,"914 COLLIER ROAD NW APT 1201, ATLANTA, GA, 30318","No_Match",NA,NA,NA,NA
926718,"914 CONCORD ST","ORLANDO","FL",32805,28.551112075,-81.392246517,218,"914 CONCORD ST, ORLANDO, FL, 32805","Match","Non_Exact","914 W CONCORD ST, ORLANDO, FL, 32805",94303749,"L"
926719,"914 CONEWANGO AVENUE","WARREN","PA",16365,41.8612589700001,-79.147727574,219,"914 CONEWANGO AVENUE, WARREN, PA, 16365","Match","Exact","914 CONEWANGO AVE, WARREN, PA, 16365",98678344,"R"
926720,"914 COPPER LAKE ROAD","CEDAR PARK","TX",78613,30.510713948,-97.7789546549999,220,"914 COPPER LAKE ROAD, CEDAR PARK, TX, 78613","Match","Exact","914 COPPER LAKE RD, CEDAR PARK, TX, 78613",648866617,"R"
926721,"914 COUNTY ROAD 501","BERRYVILLE","AR",72616,36.339321924,-93.577533289,221,"914 COUNTY ROAD 501, BERRYVILLE, AR, 72616","Match","Exact","914 CO RD 501, BERRYVILLE, AR, 72616",20087569,"L"
926722,"914 CRANBROOK AVE","TORRANCE","CA",90503,33.8384053010001,-118.335691151,222,"914 CRANBROOK AVE, TORRANCE, CA, 90503","Match","Exact","914 CRANBROOK AVE, TORRANCE, CA, 90503",142690509,"L"
926723,"914 CRESTLANE DRIVE","SMYRNA","GA",30080,33.8736080480001,-84.481733542,223,"914 CRESTLANE DRIVE, SMYRNA, GA, 30080","Match","Non_Exact","914 CRESTLANE DR SE, SMYRNA, GA, 30080",17259526,"R"
926724,"914 CROOKED CREEK","NEW BERN","NC",28560,35.075057886,-76.9433494799999,224,"914 CROOKED CREEK, NEW BERN, NC, 28560","Match","Non_Exact","914 CROOKED CREEK DR, NEW BERN, NC, 28560",34153741,"R"
926725,"914 CUNNINGHAM COURT","TIPP CITY","OH",45371,39.975768713,-84.189382257,225,"914 CUNNINGHAM COURT, TIPP CITY, OH, 45371","Match","Exact","914 CUNNINGHAM CT, TIPP CITY, OH, 45371",135306744,"R"
926726,"914 CURTIS STREET","BISMARCK","ND",58501,46.8140600040001,-100.76116106,226,"914 CURTIS STREET, BISMARCK, ND, 58501","Match","Exact","914 CURTIS ST, BISMARCK, ND, 58501",198849786,"L"
926727,"914 DEJARNETTE ST","ELIZABETHTON","TN",37643,36.3388902560001,-82.201204947,227,"914 DEJARNETTE ST, ELIZABETHTON, TN, 37643","Match","Exact","914 DEJARNETTE ST, ELIZABETHTON, TN, 37643",43042692,"R"
926728,"914 DELESANDRI LANE","KEMAH","TX",77565,29.526679528,-95.0260724,228,"914 DELESANDRI LANE, KEMAH, TX, 77565","Match","Exact","914 DELESANDRI LN, KEMAH, TX, 77565",616370851,"L"
926729,"914 DEWEY AVE","ANN ARBOR","MI",48104,42.2658879730001,-83.737442814,229,"914 DEWEY AVE, ANN ARBOR, MI, 48104","Match","Exact","914 DEWEY AVE, ANN ARBOR, MI, 48104",26015174,"R"
926730,"914 DIVISADERO STREET","SAN FRANSISCO","CA",94115,37.7779907660001,-122.438336474,230,"914 DIVISADERO STREET, SAN FRANSISCO, CA, 94115","Match","Non_Exact","914 DIVISADERO ST, SAN FRANCISCO, CA, 94115",192301592,"R"
926731,"914 DUNN HOLLOW RD","TOWNSEND","TN",37882,35.698579244,-83.7247184079999,231,"914 DUNN HOLLOW RD, TOWNSEND, TN, 37882","Match","Exact","914 DUNN HOLLOW RD, TOWNSEND, TN, 37882",607464947,"L"
926732,"914 E 10TH ST","CHATTANOOGA","TN",37403,35.0394961800001,-85.2949319429999,232,"914 E 10TH ST, CHATTANOOGA, TN, 37403","Match","Exact","914 E 10TH ST, CHATTANOOGA, TN, 37403",59307764,"R"
926733,"914 E 10TH STREET","CHATTANOOGA","TN",37403,35.0394961800001,-85.2949319429999,233,"914 E 10TH STREET, CHATTANOOGA, TN, 37403","Match","Exact","914 E 10TH ST, CHATTANOOGA, TN, 37403",59307764,"R"
926734,"914 E 300 N","LAYTON","UT",84041,41.0648560670001,-111.949234221,234,"914 E 300 N, LAYTON, UT, 84041","Match","Exact","914 E 300 N, LAYTON, UT, 84041",229351594,"R"
926735,"914 E 53RD ST UNIT 2","CHICAGO","IL",60615,41.7993900640001,-87.6033258259999,235,"914 E 53RD ST UNIT 2, CHICAGO, IL, 60615","Match","Non_Exact","914 E 53RD ST, CHICAGO, IL, 60615",605538060,"L"
926736,"914 E C STREET","BRUNSWICK","MD",21716,39.3125348,-77.612993753,236,"914 E C STREET, BRUNSWICK, MD, 21716","Match","Exact","914 E C ST, BRUNSWICK, MD, 21716",60707160,"R"
926737,"914 E COPELAND DRIVE","POWELL","TN",37849,36.0726650610001,-83.999845739,237,"914 E COPELAND DRIVE, POWELL, TN, 37849","Match","Exact","914 E COPELAND DR, POWELL, TN, 37849",604667526,"R"
926738,"914 E LANZIT AVENUE","LOS ANGELES","CA",90059,33.934268494,-118.258555296,238,"914 E LANZIT AVENUE, LOS ANGELES, CA, 90059","Match","Exact","914 E LANZIT AVE, LOS ANGELES, CA, 90059",141673299,"R"
926739,"914 E LIMESTONE ST","KUNA","ID",83634,43.495286192,-116.401885583,239,"914 E LIMESTONE ST, KUNA, ID, 83634","Match","Exact","914 E LIMESTONE ST, KUNA, ID, 83634",617936189,"L"
926740,"914 E RAILROAD AVENUE","FORT MORGAN","CO",80701,40.2484898160001,-103.790673035,240,"914 E RAILROAD AVENUE, FORT MORGAN, CO, 80701","Match","Exact","914 E RAILROAD AVE, FORT MORGAN, CO, 80701",636172978,"R"
926741,"914 E WASHINGTON","MCALESTER","OK",74501,34.93115047,-95.756781383,241,"914 E WASHINGTON, MCALESTER, OK, 74501","Match","Non_Exact","914 E WASHINGTON AVE, MCALESTER, OK, 74501",106291189,"L"
926742,"914 EAST 100 SOUTH","ROCHESTER","IN",46975,41.040328581,-86.230146813,242,"914 EAST 100 SOUTH, ROCHESTER, IN, 46975","Match","Exact","914 E 100 S, ROCHESTER, IN, 46975",7848400,"L"
926743,"914 EAST 37TH ST","BALTIMORE","MD",21218,39.3333927210001,-76.604017047,243,"914 EAST 37TH ST, BALTIMORE, MD, 21218","Match","Exact","914 E 37TH ST, BALTIMORE, MD, 21218",206437449,"L"
926744,"914 EAST 81ST STREET","BROOKLYN","NY",11236,40.6356744440001,-73.912142825,244,"914 EAST 81ST STREET, BROOKLYN, NY, 11236","Match","Exact","914 E 81ST ST, BROOKLYN, NY, 11236",59086455,"R"
926745,"914 EAST BROADWAY 3RD FLOOR","LOUISVILLE","KY",40204,38.2445004240001,-85.7371198119999,245,"914 EAST BROADWAY 3RD FLOOR, LOUISVILLE, KY, 40204","Match","Exact","914 E BROADWAY, LOUISVILLE, KY, 40204",96846220,"R"
926746,"914 EDGEBROOK DRIVE","BOYLSTON","MA",1505,42.341719423,-71.7369198659999,246,"914 EDGEBROOK DRIVE, BOYLSTON, MA, 1505","Match","Exact","914 EDGEBROOK DR, BOYLSTON, MA, 01505",40086586,"R"
926747,"914 EDGEWOOD RD","EDGEWATER","MD",21037,38.8988097380001,-76.520521101,247,"914 EDGEWOOD RD, EDGEWATER, MD, 21037","Match","Exact","914 EDGEWOOD RD, EDGEWATER, MD, 21037",68177543,"L"
926748,"914 EDGEWOOD ROAD","YARDLEY","PA",19067,40.22452559,-74.833062677,248,"914 EDGEWOOD ROAD, YARDLEY, PA, 19067","Match","Exact","914 EDGEWOOD RD, YARDLEY, PA, 19067",134720854,"R"
926749,"914 EMANUEL CLEAVER LL BLVD APT 2E","KANSAS CITY","MO",64110,NA,NA,249,"914 EMANUEL CLEAVER LL BLVD APT 2E, KANSAS CITY, MO, 64110","No_Match",NA,NA,NA,NA
926750,"914 F STREET","FRESNO","CA",93706,36.7296856150001,-119.794038425,250,"914 F STREET, FRESNO, CA, 93706","Match","Exact","914 F ST, FRESNO, CA, 93706",197579652,"R"
926751,"914 FEDERAL AVENUE EAST","SEATTLE","WA",98102,47.6270759390001,-122.319135567,251,"914 FEDERAL AVENUE EAST, SEATTLE, WA, 98102","Match","Exact","914 FEDERAL AVE E, SEATTLE, WA, 98102",186584110,"R"
926752,"914 FLAMINGO DRIVE","ATLANTA","GA",30311,33.730133074,-84.46824673,252,"914 FLAMINGO DRIVE, ATLANTA, GA, 30311","Match","Non_Exact","914 FLAMINGO DR SW, ATLANTA, GA, 30311",17340684,"L"
926753,"914 FM 517 RD W SUITE 242","DICKINSON","TX",77539,NA,NA,253,"914 FM 517 RD W SUITE 242, DICKINSON, TX, 77539","No_Match",NA,NA,NA,NA
926754,"914 GARDEN ST","BIRMINGHAM","AL",35221,33.441825113,-86.9034654339999,254,"914 GARDEN ST, BIRMINGHAM, AL, 35221","Match","Exact","914 GARDEN ST, BIRMINGHAM, AL, 35221",81557593,"L"
926755,"914 GARDEN STREET","KISSIMMEE","FL",34744,28.335618019,-81.395590377,255,"914 GARDEN STREET, KISSIMMEE, FL, 34744","Match","Exact","914 GARDEN ST, KISSIMMEE, FL, 34744",176691243,"R"
926756,"914 GARDNER ROAD","FLOSSMOOR","IL",60422,41.5455805930001,-87.673845479,256,"914 GARDNER ROAD, FLOSSMOOR, IL, 60422","Match","Exact","914 GARDNER RD, FLOSSMOOR, IL, 60422",111709830,"R"
926757,"914 GARFIELD STREET","CANON CITY","CO",81212,38.433875287,-105.215417204,257,"914 GARFIELD STREET, CANON CITY, CO, 81212","Match","Exact","914 GARFIELD ST, CANON CITY, CO, 81212",636170509,"R"
926758,"914 GARRETT ST","COLUMBIA","KY",42728,37.106717141,-85.320085962,258,"914 GARRETT ST, COLUMBIA, KY, 42728","Match","Exact","914 GARRETT ST, COLUMBIA, KY, 42728",39047036,"L"
926759,"914 GERVAS DRIVE","MANCHESTER","MO",63021,38.5715197320001,-90.494269889,259,"914 GERVAS DRIVE, MANCHESTER, MO, 63021","Match","Exact","914 GERVAS DR, MANCHESTER, MO, 63021",100193236,"L"
926760,"914 GORSUCH AVE","BALTIMORE","MD",21218,39.3262439970001,-76.603925526,260,"914 GORSUCH AVE, BALTIMORE, MD, 21218","Match","Exact","914 GORSUCH AVE, BALTIMORE, MD, 21218",206409344,"L"
926761,"914 GRAND AVE","SPENCER","IA",51301,43.14691959,-95.145075898,261,"914 GRAND AVE, SPENCER, IA, 51301","Match","Exact","914 GRAND AVE, SPENCER, IA, 51301",82786023,"R"
926762,"914 GRAND AVENUE","WAUSAU","WI",54403,44.9494119020001,-89.621921992,262,"914 GRAND AVENUE, WAUSAU, WI, 54403","Match","Exact","914 GRAND AVE, WAUSAU, WI, 54403",117138655,"R"
926763,"914 GREENWICH STREET","SAN FRANCISCO","CA",94133,37.8016581890001,-122.414795699,263,"914 GREENWICH STREET, SAN FRANCISCO, CA, 94133","Match","Exact","914 GREENWICH ST, SAN FRANCISCO, CA, 94133",192280311,"R"
926764,"914 GRINNELL ST","KEY WEST","FL",33040,24.555491508,-81.7939326809999,264,"914 GRINNELL ST, KEY WEST, FL, 33040","Match","Exact","914 GRINNELL ST, KEY WEST, FL, 33040",116486486,"R"
926765,"914 GROVE ST","PETOSKEY","MI",49770,45.3708061290001,-84.9467143259999,265,"914 GROVE ST, PETOSKEY, MI, 49770","Match","Exact","914 GROVE ST, PETOSKEY, MI, 49770",133984723,"L"
926766,"914 GROVE STREET","PETOSKEY","MI",49770,45.3708061290001,-84.9467143259999,266,"914 GROVE STREET, PETOSKEY, MI, 49770","Match","Exact","914 GROVE ST, PETOSKEY, MI, 49770",133984723,"L"
926767,"914 HADDINGTON COURT SOUTH","WHITSETT","NC",27377,NA,NA,267,"914 HADDINGTON COURT SOUTH, WHITSETT, NC, 27377","No_Match",NA,NA,NA,NA
926768,"914 HARVEST","HOWARD","KS",67349,37.418007247,-96.3769889929999,268,"914 HARVEST, HOWARD, KS, 67349","Match","Non_Exact","914 HARVEST RD, HOWARD, KS, 67349",18272599,"R"
926769,"914 HAVEN COURT","TULARE","CA",93274,36.218692205,-119.379748158,269,"914 HAVEN COURT, TULARE, CA, 93274","Match","Non_Exact","914 N HAVEN CT, TULARE, CA, 93274",624527273,"L"
926770,"914 HEMSATH ROAD SUITE 100A","SAINT CHARLES","MO",63303,38.753934429,-90.535799185,270,"914 HEMSATH ROAD SUITE 100A, SAINT CHARLES, MO, 63303","Match","Exact","914 HEMSATH RD, SAINT CHARLES, MO, 63303",605584394,"R"
926771,"914 HIGHLAND AVE","MCKEESPORT","PA",15133,40.342355582,-79.878244875,271,"914 HIGHLAND AVE, MCKEESPORT, PA, 15133","Match","Exact","914 HIGHLAND AVE, MCKEESPORT, PA, 15133",617240172,"R"
926772,"914 HIGHLAND AVENUE","CARROLLTON","KY",41008,38.681608441,-85.1724514319999,272,"914 HIGHLAND AVENUE, CARROLLTON, KY, 41008","Match","Exact","914 HIGHLAND AVE, CARROLLTON, KY, 41008",65119995,"R"
926773,"914 HIGHLAND CIRCLE","BLACKSBURG","VA",24060,37.2243692500001,-80.38794333,273,"914 HIGHLAND CIRCLE, BLACKSBURG, VA, 24060","Match","Exact","914 HIGHLAND CIR, BLACKSBURG, VA, 24060",73628431,"L"
926774,"914 HIGHLAND DRIVE","CLEBURNE","TX",76033,32.332112114,-97.397272657,274,"914 HIGHLAND DRIVE, CLEBURNE, TX, 76033","Match","Exact","914 HIGHLAND DR, CLEBURNE, TX, 76033",638657846,"R"
926775,"914 HIGHMEADOW CT","LANCASTER","PA",17601,40.070293979,-76.380395069,275,"914 HIGHMEADOW CT, LANCASTER, PA, 17601","Match","Exact","914 HIGHMEADOW CT, LANCASTER, PA, 17601",179690871,"L"
926776,"914 HIGHWAY 36","VILONIA","AR",72173,35.158783267,-92.177051256,276,"914 HIGHWAY 36, VILONIA, AR, 72173","Match","Non_Exact","914 STATE HWY 36, VILONIA, AR, 72173",141042158,"L"
926777,"914 HONDA WAY","TIMMONSVILLE","SC",29161,34.122083907,-79.923589587,277,"914 HONDA WAY, TIMMONSVILLE, SC, 29161","Match","Exact","914 HONDA WAY, TIMMONSVILLE, SC, 29161",28865215,"R"
926778,"914 HOUSTON HEIGHTS RD","CHARLOTTE","NC",28262,35.3241148770001,-80.7087488989999,278,"914 HOUSTON HEIGHTS RD, CHARLOTTE, NC, 28262","Match","Exact","914 HOUSTON HEIGHTS RD, CHARLOTTE, NC, 28262",70562454,"L"
926779,"914 HUDSON ST","GLOUCESTER CITY","NJ",8030,39.895894565,-75.116351161,279,"914 HUDSON ST, GLOUCESTER CITY, NJ, 8030","Match","Exact","914 HUDSON ST, GLOUCESTER CITY, NJ, 08030",134347105,"R"
926780,"914 HYDE PARK AVENUE","BOSTON","MA",2136,42.2686920800001,-71.1208697659999,280,"914 HYDE PARK AVENUE, BOSTON, MA, 2136","Match","Exact","914 HYDE PARK AVE, BOSTON, MA, 02136",85704071,"L"
926781,"914 INDIAN HILLS DRIVE","DAYTON","TN",37321,35.523606069,-84.987775966,281,"914 INDIAN HILLS DRIVE, DAYTON, TN, 37321","Match","Exact","914 INDIAN HILLS DR, DAYTON, TN, 37321",59528545,"R"
926782,"914 INWOOD TERRACE","JACKSONVILLE","FL",32207,30.2921424580001,-81.654132353,282,"914 INWOOD TERRACE, JACKSONVILLE, FL, 32207","Match","Exact","914 INWOOD TER, JACKSONVILLE, FL, 32207",83914923,"R"
926783,"914 IRIS DRIVE","GASTONIA","NC",28056,35.1895090940001,-81.149217301,283,"914 IRIS DRIVE, GASTONIA, NC, 28056","Match","Exact","914 IRIS DR, GASTONIA, NC, 28056",70383148,"R"
926784,"914 ISLAND LAKE DR","OXFORD","MI",48371,42.8256544720001,-83.283398088,284,"914 ISLAND LAKE DR, OXFORD, MI, 48371","Match","Exact","914 ISLAND LAKE DR, OXFORD, MI, 48371",69820312,"L"
926785,"914 KENSINGTON PLACE","MEMPHIS","TN",38107,35.161901114,-89.994870809,285,"914 KENSINGTON PLACE, MEMPHIS, TN, 38107","Match","Exact","914 KENSINGTON PL, MEMPHIS, TN, 38107",607416415,"R"
926786,"914 KETCH COURT","CHESAPEAKE","VA",23320,36.7666247720001,-76.2247962439999,286,"914 KETCH COURT, CHESAPEAKE, VA, 23320","Match","Exact","914 KETCH CT, CHESAPEAKE, VA, 23320",121778530,"R"
926787,"914 KNOLL FOREST DRIVE","SUGARLAND","TX",77479,29.547738565,-95.6915738759999,287,"914 KNOLL FOREST DRIVE, SUGARLAND, TX, 77479","Match","Non_Exact","914 KNOLL FOREST DR, SUGAR LAND, TX, 77479",78347450,"L"
926788,"914 KNOLLWOOD DR","DAVENPORT","FL",33837,NA,NA,288,"914 KNOLLWOOD DR, DAVENPORT, FL, 33837","No_Match",NA,NA,NA,NA
926789,"914 LACEY ST SE","OLYMPIA","WA",98503,47.0380616250001,-122.806751163,289,"914 LACEY ST SE, OLYMPIA, WA, 98503","Match","Exact","914 LACEY ST SE, OLYMPIA, WA, 98503",180974704,"L"
926790,"914 LAFAYETTE BOULEVARD","BOWLING GREEN","OH",43402,41.386637482,-83.678790421,290,"914 LAFAYETTE BOULEVARD, BOWLING GREEN, OH, 43402","Match","Exact","914 LAFAYETTE BLVD, BOWLING GREEN, OH, 43402",38740381,"R"
926791,"914 LANCASTER LANE","LAKE ZURICH","IL",60047,42.212588447,-88.104906195,291,"914 LANCASTER LANE, LAKE ZURICH, IL, 60047","Match","Exact","914 LANCASTER LN, LAKE ZURICH, IL, 60047",119702117,"L"
926792,"914 LATHAM STREET","ETOWAH","TN",37331,35.3248755020001,-84.536791148,292,"914 LATHAM STREET, ETOWAH, TN, 37331","Match","Exact","914 LATHAM ST, ETOWAH, TN, 37331",88539125,"L"
926793,"914 LEXINGTON CIRCLE APT E","EDINBURG","TX",78539,26.2960303830001,-98.180811294,293,"914 LEXINGTON CIRCLE APT E, EDINBURG, TX, 78539","Match","Exact","914 LEXINGTON CIR, EDINBURG, TX, 78539",647574800,"R"
926794,"914 LIBERTY STREET","EMMAUS","PA",18049,40.542128345,-75.5031578589999,294,"914 LIBERTY STREET, EMMAUS, PA, 18049","Match","Exact","914 LIBERTY ST, EMMAUS, PA, 18049",80766398,"L"
926795,"914 LINDEMANN AVE","DUPO","IL",62239,38.516642919,-90.201412637,295,"914 LINDEMANN AVE, DUPO, IL, 62239","Match","Exact","914 LINDEMANN AVE, DUPO, IL, 62239",635624803,"L"
926796,"914 MACON STREET","BALTIMORE","MD",21224,39.282495297,-76.557403119,296,"914 MACON STREET, BALTIMORE, MD, 21224","Match","Non_Exact","914 S MACON ST, BALTIMORE, MD, 21224",649505009,"R"
926797,"914 MAIN ST","HURON","OH",44839,41.388048575,-82.5615242539999,297,"914 MAIN ST, HURON, OH, 44839","Match","Exact","914 MAIN ST, HURON, OH, 44839",55327149,"R"
926798,"914 MAIN STREET 2303","HOUSTON","TX",77002,29.7575427370001,-95.364449292,298,"914 MAIN STREET 2303, HOUSTON, TX, 77002","Match","Exact","914 MAIN ST, HOUSTON, TX, 77002",96067701,"R"
926799,"914 MAIN STREET","FRYEBURG","ME",4037,44.024801537,-70.9727340859999,299,"914 MAIN STREET, FRYEBURG, ME, 4037","Match","Exact","914 MAIN ST, FRYEBURG, ME, 04037",92671514,"L"
926800,"914 MARISA COURT","DESOTO","TX",75116,NA,NA,300,"914 MARISA COURT, DESOTO, TX, 75116","No_Match",NA,NA,NA,NA
926801,"914 MARKWORTH RD","CANTON ILL","MD",21228,NA,NA,301,"914 MARKWORTH RD, CANTON ILL, MD, 21228","No_Match",NA,NA,NA,NA
926802,"914 MASSACHUSETTS AVENUE","WASHINGTON","DC",20002,38.8911819780001,-76.993611658,302,"914 MASSACHUSETTS AVENUE, WASHINGTON, DC, 20002","Match","Non_Exact","914 MASSACHUSETTS AVE NE, WASHINGTON, DC, 20002",76237995,"L"
926803,"914 MATADERO COURT","PALO ALTO","CA",94306,37.4134214440001,-122.141447208,303,"914 MATADERO COURT, PALO ALTO, CA, 94306","Match","Exact","914 MATADERO CT, PALO ALTO, CA, 94306",123180883,"L"
926804,"914 MATHER DR","BEAR","DE",19701,39.56881258,-75.6673838849999,304,"914 MATHER DR, BEAR, DE, 19701","Match","Exact","914 MATHER DR, BEAR, DE, 19701",638029157,"R"
926805,"914 MIDWAY LANE","SEAFORD","DE",19973,38.6645816600001,-75.635165619,305,"914 MIDWAY LANE, SEAFORD, DE, 19973","Match","Exact","914 MIDWAY LN, SEAFORD, DE, 19973",106083200,"L"
926806,"914 MITCHELL","LANSING","MI",48917,42.7444157400001,-84.5985863179999,306,"914 MITCHELL, LANSING, MI, 48917","Match","Non_Exact","914 MITCHELL AVE, LANSING, MI, 48917",17496342,"R"
926807,"914 MOCKINGBIRD RD","SYLACAUGA","AL",35150,33.175213571,-86.206968761,307,"914 MOCKINGBIRD RD, SYLACAUGA, AL, 35150","Match","Non_Exact","914 MOCKINGBIRD LN, SYLACAUGA, AL, 35150",66970888,"R"
926808,"914 MONROE BOULEVARD","SOUTH HAVEN","MI",49090,42.3921234970001,-86.283637282,308,"914 MONROE BOULEVARD, SOUTH HAVEN, MI, 49090","Match","Exact","914 MONROE BLVD, SOUTH HAVEN, MI, 49090",34747862,"L"
926809,"914 MONROE STR NY 11552","NY","NY",11552,40.6843971480001,-73.655425994,309,"914 MONROE STR NY 11552, NY, NY, 11552","Match","Non_Exact","914 MONROE ST, W HEMPSTEAD, NY, 11552",147674716,"R"
926810,"914 MONTANA STREET UNIT B","BELGRADE","MT",59714,45.7678785890001,-111.17629403,310,"914 MONTANA STREET UNIT B, BELGRADE, MT, 59714","Match","Exact","914 MONTANA ST, BELGRADE, MT, 59714",163495079,"L"
926811,"914 MONTICELLO ST","GREENSBORO","NC",27410,36.0962743200001,-79.870500256,311,"914 MONTICELLO ST, GREENSBORO, NC, 27410","Match","Exact","914 MONTICELLO ST, GREENSBORO, NC, 27410",131027463,"R"
926812,"914 MORGAN AVE","NISKAYUNA","NY",12309,42.7916286540001,-73.884295074,312,"914 MORGAN AVE, NISKAYUNA, NY, 12309","Match","Exact","914 MORGAN AVE, NISKAYUNA, NY, 12309",18030825,"R"
926813,"914 MOSSBIRDGE CT","PLEASANT HILL","CA",94523,37.956515128,-122.05528172,313,"914 MOSSBIRDGE CT, PLEASANT HILL, CA, 94523","Match","Non_Exact","914 MOSSBRIDGE CT, PLEASANT HILL, CA, 94523",192092384,"L"
926814,"914 MOSSBIRDGE WAY","PLEASANT HILL","CA",94523,37.956515128,-122.05528172,314,"914 MOSSBIRDGE WAY, PLEASANT HILL, CA, 94523","Match","Non_Exact","914 MOSSBRIDGE CT, PLEASANT HILL, CA, 94523",192092384,"L"
926815,"914 MOSSBRIDGE CT","PLEASANT HILL","CA",94523,37.956515128,-122.05528172,315,"914 MOSSBRIDGE CT, PLEASANT HILL, CA, 94523","Match","Exact","914 MOSSBRIDGE CT, PLEASANT HILL, CA, 94523",192092384,"L"
926816,"914 MUIRFIELD DRIVE","MARYVILLE","TN",37801,35.729670781,-84.018047128,316,"914 MUIRFIELD DRIVE, MARYVILLE, TN, 37801","Match","Exact","914 MUIRFIELD DR, MARYVILLE, TN, 37801",89847215,"L"
926817,"914 MUIRFILED DRIVE","MARYVILLE","TN",37801,35.729670781,-84.018047128,317,"914 MUIRFILED DRIVE, MARYVILLE, TN, 37801","Match","Non_Exact","914 MUIRFIELD DR, MARYVILLE, TN, 37801",89847215,"L"
926818,"914 MULDER DRIVE","ARLINGTON","TX",76001,32.6248680300001,-97.122509819,318,"914 MULDER DRIVE, ARLINGTON, TX, 76001","Match","Exact","914 MULDER DR, ARLINGTON, TX, 76001",652030616,"L"
926819,"914 MYERS INN","MYRTLE BEACH","SC",29588,NA,NA,319,"914 MYERS INN, MYRTLE BEACH, SC, 29588","No_Match",NA,NA,NA,NA
926820,"914 N 4TH ST","CIMARRON","KS",67835,37.8164470140001,-100.343334697,320,"914 N 4TH ST, CIMARRON, KS, 67835","Match","Exact","914 N 4TH ST, CIMARRON, KS, 67835",145766480,"R"
926821,"914 N 6TH ST","THOMAS","OK",73669,35.753381308,-98.7450603999999,321,"914 N 6TH ST, THOMAS, OK, 73669","Match","Exact","914 N 6TH ST, THOMAS, OK, 73669",150591299,"L"
926822,"914 N 9TH ST","ATCHISON","KS",66002,39.570879946,-95.125102274,322,"914 N 9TH ST, ATCHISON, KS, 66002","Match","Exact","914 N 9TH ST, ATCHISON, KS, 66002",10061854,"R"
926823,"914 N ARMSTRONG","LITCHFIELD","MN",55355,45.136127613,-94.523868412,323,"914 N ARMSTRONG, LITCHFIELD, MN, 55355","Match","Non_Exact","914 N ARMSTRONG AVE, LITCHFIELD, MN, 55355",36966339,"R"
926824,"914 N BARTON ST","ARLINGTON","VA",22201,38.8832881370001,-77.087591473,324,"914 N BARTON ST, ARLINGTON, VA, 22201","Match","Exact","914 N BARTON ST, ARLINGTON, VA, 22201",638189117,"L"
926825,"914 N COCKRELL HILL","DE SOTO","TX",75115,32.6056533570001,-96.89127316,325,"914 N COCKRELL HILL, DE SOTO, TX, 75115","Match","Non_Exact","914 N COCKRELL HILL RD, DESOTO, TX, 75115",627730826,"R"
926826,"914 N ELM AVE","ST. LOUIS","MO",63119,38.6056513820001,-90.355943747,326,"914 N ELM AVE, ST. LOUIS, MO, 63119","Match","Exact","914 N ELM AVE, SAINT LOUIS, MO, 63119",629417390,"R"
926827,"914 N EUCALYPTUS AVE UNIT 107","INGLEWOOD","CA",90302,33.974932821,-118.359427847,327,"914 N EUCALYPTUS AVE UNIT 107, INGLEWOOD, CA, 90302","Match","Non_Exact","914 N EUCALYPTUS AVE, INGLEWOOD, CA, 90302",141653888,"R"
926828,"914 N HAMILTON AVE","INDIANAPOLIS","IN",46201,39.7798589340001,-86.124920816,328,"914 N HAMILTON AVE, INDIANAPOLIS, IN, 46201","Match","Exact","914 N HAMILTON AVE, INDIANAPOLIS, IN, 46201",107993561,"L"
926829,"914 N IROQUOIS AVE","ANAHEIM","CA",92801,33.8442168220001,-117.945653612,329,"914 N IROQUOIS AVE, ANAHEIM, CA, 92801","Match","Exact","914 N IROQUOIS AVE, ANAHEIM, CA, 92801",144022306,"R"
926830,"914 N MAIN STREET","ABERDEEN","SD",57401,45.475037123,-98.488037573,330,"914 N MAIN STREET, ABERDEEN, SD, 57401","Match","Exact","914 N MAIN ST, ABERDEEN, SD, 57401",200795120,"R"
926831,"914 N MAPLE","WATERTOWN","SD",57201,44.91110078,-97.111195328,331,"914 N MAPLE, WATERTOWN, SD, 57201","Match","Exact","914 N MAPLE, WATERTOWN, SD, 57201",200729647,"R"
926832,"914 N STANTON ST","EL PASO","TX",79902,31.7646053140001,-106.490909562,332,"914 N STANTON ST, EL PASO, TX, 79902","Match","Exact","914 N STANTON ST, EL PASO, TX, 79902",189341514,"R"
926833,"914 NE VAN LOON LANE","CAPE CORAL","FL",33909,26.6527886110001,-81.955424265,333,"914 NE VAN LOON LANE, CAPE CORAL, FL, 33909","Match","Exact","914 NE VAN LOON LN, CAPE CORAL, FL, 33909",118008513,"R"
926834,"914 NORTH MERRIMAN ROAD","GEORGETOWN","SC",29440,33.3848253040001,-79.2909386319999,334,"914 NORTH MERRIMAN ROAD, GEORGETOWN, SC, 29440","Match","Exact","914 N MERRIMAN RD, GEORGETOWN, SC, 29440",28961835,"R"
926835,"914 NORTH MIDLAND BOULEVARD 12","NAMPA","ID",83651,43.592160414,-116.593064996,335,"914 NORTH MIDLAND BOULEVARD 12, NAMPA, ID, 83651","Match","Exact","914 N MIDLAND BLVD, NAMPA, ID, 83651",122839552,"L"
926836,"914 NORTH MONROE","LITTLE ROCK","AR",72205,34.7594663260001,-92.327673642,336,"914 NORTH MONROE, LITTLE ROCK, AR, 72205","Match","Non_Exact","914 N MONROE ST, LITTLE ROCK, AR, 72205",83505344,"L"
926837,"914 NORTH ORIANNA STREET","PHILADELPHIA","PA",19123,39.9658754800001,-75.1432485559999,337,"914 NORTH ORIANNA STREET, PHILADELPHIA, PA, 19123","Match","Exact","914 N ORIANNA ST, PHILADELPHIA, PA, 19123",639162387,"L"
926838,"914 NORTH SNODGRASS","TAYLORVILLE","IL",62568,39.5571559270001,-89.283478367,338,"914 NORTH SNODGRASS, TAYLORVILLE, IL, 62568","Match","Non_Exact","914 N SNODGRASS ST, TAYLORVILLE, IL, 62568",99318604,"R"
926839,"914 NORTH TENNESSEE STREET","AMARILLO","TX",79106,35.2232842930001,-101.875754659,339,"914 NORTH TENNESSEE STREET, AMARILLO, TX, 79106","Match","Exact","914 N TENNESSEE ST, AMARILLO, TX, 79106",182469529,"R"
926840,"914 NORTHWOOD DRIVE","EFFINGHAM","IL",62401,39.146843819,-88.556420192,340,"914 NORTHWOOD DRIVE, EFFINGHAM, IL, 62401","Match","Exact","914 NORTHWOOD DR, EFFINGHAM, IL, 62401",635504949,"L"
926841,"914 NW MAIN STREET","LEES SUMMIT","MO",64086,38.9310936690001,-94.385723711,341,"914 NW MAIN STREET, LEES SUMMIT, MO, 64086","Match","Exact","914 NW MAIN ST, LEES SUMMIT, MO, 64086",647945684,"L"
926842,"914 OAK HILL DRIVE","ROGERS","AR",72758,36.326553259,-94.160485985,342,"914 OAK HILL DRIVE, ROGERS, AR, 72758","Match","Non_Exact","914 OAKHILL DR, ROGERS, AR, 72758",47833851,"R"
926843,"914 OAKBLUFF DR","LANCASTER","TX",75146,32.5987305800001,-96.774807819,343,"914 OAKBLUFF DR, LANCASTER, TX, 75146","Match","Exact","914 OAKBLUFF DR, LANCASTER, TX, 75146",102955193,"L"
926844,"914 ORCHARD HEIGHTS COURT","FARIBAULT","MN",55021,44.3008731460001,-93.243243148,344,"914 ORCHARD HEIGHTS COURT, FARIBAULT, MN, 55021","Match","Exact","914 ORCHARD HEIGHTS CT, FARIBAULT, MN, 55021",37333810,"L"
926845,"914 PARK AVE","CHATTANOOGA","TN",37403,35.040591829,-85.294993845,345,"914 PARK AVE, CHATTANOOGA, TN, 37403","Match","Exact","914 PARK AVE, CHATTANOOGA, TN, 37403",59307732,"L"
926846,"914 PARK ST","DECORAH","OR",52101,NA,NA,346,"914 PARK ST, DECORAH, OR, 52101","No_Match",NA,NA,NA,NA
926847,"914 PINE SPRINGS RD","COLUMBIA","SC",29210,34.0376048200001,-81.122726685,347,"914 PINE SPRINGS RD, COLUMBIA, SC, 29210","Match","Exact","914 PINE SPRINGS RD, COLUMBIA, SC, 29210",70087780,"R"
926848,"914 PIRATES WAY","MANTEO","NC",27954,35.897287406,-75.640218064,348,"914 PIRATES WAY, MANTEO, NC, 27954","Match","Exact","914 PIRATES WAY, MANTEO, NC, 27954",81315790,"L"
926849,"914 POPLAR DR","ALTAMONTE SPRINGS","FL",32714,28.6773712990001,-81.421078503,349,"914 POPLAR DR, ALTAMONTE SPRINGS, FL, 32714","Match","Exact","914 POPLAR DR, ALTAMONTE SPRINGS, FL, 32714",93735197,"L"
926850,"914 PRINCE ROAD","ST AUGUSTINE","FL",32086,29.8447901380001,-81.318054113,350,"914 PRINCE ROAD, ST AUGUSTINE, FL, 32086","Match","Exact","914 PRINCE RD, SAINT AUGUSTINE, FL, 32086",629657017,"L"
926851,"914 QUARTER HORSE ROAD","WILLIAMS","AZ",86046,35.262247674,-112.176120767,351,"914 QUARTER HORSE ROAD, WILLIAMS, AZ, 86046","Match","Exact","914 QUARTER HORSE RD, WILLIAMS, AZ, 86046",653153065,"L"
926852,"914 RAILROAD AVE STE 6","TALLAHASSEE","FL",32310,30.43392979,-84.28968628,352,"914 RAILROAD AVE STE 6, TALLAHASSEE, FL, 32310","Match","Exact","914 RAILROAD AVE, TALLAHASSEE, FL, 32310",82850988,"R"
926853,"914 RAMBLING DRIVE","ROCHESTER HILLS","MI",48307,42.667938791,-83.1211001349999,353,"914 RAMBLING DRIVE, ROCHESTER HILLS, MI, 48307","Match","Exact","914 RAMBLING DR, ROCHESTER HILLS, MI, 48307",69790674,"R"
926854,"914 RANLETT AVE","LA PUENTE","CA",91744,34.0353146510001,-117.934058114,354,"914 RANLETT AVE, LA PUENTE, CA, 91744","Match","Exact","914 RANLETT AVE, LA PUENTE, CA, 91744",141714091,"R"
926855,"914 RIDGE TOP RD","HENRICO","VA",23229,37.587837333,-77.536614054,355,"914 RIDGE TOP RD, HENRICO, VA, 23229","Match","Exact","914 RIDGE TOP RD, HENRICO, VA, 23229",106645351,"L"
926856,"914 RIDGE TOP RD","RICHMOND","VA",23229,37.587837333,-77.536614054,356,"914 RIDGE TOP RD, RICHMOND, VA, 23229","Match","Exact","914 RIDGE TOP RD, RICHMOND, VA, 23229",106645351,"L"
926857,"914 ROBIN ROAD","STATE COLLEGE","PA",16801,40.7836263990001,-77.866738335,357,"914 ROBIN ROAD, STATE COLLEGE, PA, 16801","Match","Exact","914 ROBIN RD, STATE COLLEGE, PA, 16801",50403821,"L"
926858,"914 ROSEWOOD TER","ENDWELL","NY",13760,42.1331127540001,-76.014506082,358,"914 ROSEWOOD TER, ENDWELL, NY, 13760","Match","Exact","914 ROSEWOOD TER, ENDWELL, NY, 13760",46338467,"L"
926859,"914 S 2ND AVE","SIOUX FALLS","SD",57104,43.5376517380001,-96.723741385,359,"914 S 2ND AVE, SIOUX FALLS, SD, 57104","Match","Exact","914 S 2ND AVE, SIOUX FALLS, SD, 57104",34972872,"L"
926860,"914 S ALVORD BLVD","EVANSVILLE","IN",47714,37.9641840520001,-87.524554592,360,"914 S ALVORD BLVD, EVANSVILLE, IN, 47714","Match","Exact","914 S ALVORD BLVD, EVANSVILLE, IN, 47714",39786621,"L"
926861,"914 S CO RD 625E","MILAN","IN",47031,39.0637745160001,-85.144930335,361,"914 S CO RD 625E, MILAN, IN, 47031","Match","Non_Exact","914 S CO RD 625 E, MILAN, IN, 47031",647290259,"L"
926862,"914 S COPPER","DEMING","NM",88030,32.2599800730001,-107.758753514,362,"914 S COPPER, DEMING, NM, 88030","Match","Non_Exact","914 S COPPER ST, DEMING, NM, 88030",201327392,"L"
926863,"914 S GUNTHER ST","SANTA ANA","CA",92704,33.7359083900001,-117.916711464,363,"914 S GUNTHER ST, SANTA ANA, CA, 92704","Match","Exact","914 S GUNTHER ST, SANTA ANA, CA, 92704",144257912,"R"
926864,"914 S HICKORY ST","PECOS","TX",79772,31.4184722630001,-103.495524359,364,"914 S HICKORY ST, PECOS, TX, 79772","Match","Exact","914 S HICKORY ST, PECOS, TX, 79772",132660005,"R"
926865,"914 S MADISON ST","MUNCIE","IN",47302,40.186721118,-85.381766102,365,"914 S MADISON ST, MUNCIE, IN, 47302","Match","Exact","914 S MADISON ST, MUNCIE, IN, 47302",30837741,"L"
926866,"914 S NORTHWOOD AVE","COMPTON","CA",90220,33.8880305810001,-118.244068809,366,"914 S NORTHWOOD AVE, COMPTON, CA, 90220","Match","Exact","914 S NORTHWOOD AVE, COMPTON, CA, 90220",141680743,"L"
926867,"914 SACRAMENTO ST APT B","VALLEJO","CA",94590,38.1055656410001,-122.258184947,367,"914 SACRAMENTO ST APT B, VALLEJO, CA, 94590","Match","Exact","914 SACRAMENTO ST, VALLEJO, CA, 94590",192569321,"R"
926868,"914 SANGERVILLE CIRCLE","UPPER MARLBORO","MD",20774,38.8774348320001,-76.766838794,368,"914 SANGERVILLE CIRCLE, UPPER MARLBORO, MD, 20774","Match","Exact","914 SANGERVILLE CIR, UPPER MARLBORO, MD, 20774",648124097,"L"
926869,"914 SE 14TH CT","OKEECHOBEE","FL",34974,27.230313767,-80.82013998,369,"914 SE 14TH CT, OKEECHOBEE, FL, 34974","Match","Exact","914 SE 14TH CT, OKEECHOBEE, FL, 34974",4932820,"R"
926870,"914 SE CHAPARAL DRIVE","ANKENY","IA",50021,41.716593877,-93.584233909,370,"914 SE CHAPARAL DRIVE, ANKENY, IA, 50021","Match","Exact","914 SE CHAPARAL DR, ANKENY, IA, 50021",65805943,"R"
926871,"914 SE LAKE ST","STUART","FL",34994,27.192385351,-80.23858325,371,"914 SE LAKE ST, STUART, FL, 34994","Match","Exact","914 SE LAKE ST, STUART, FL, 34994",120436436,"L"
926872,"914 SEASONS PKW","NORCROSS","GA",30093,NA,NA,372,"914 SEASONS PKW, NORCROSS, GA, 30093","No_Match",NA,NA,NA,NA
926873,"914 SEVEN LAKES NORTH","WEST END","NC",27376,NA,NA,373,"914 SEVEN LAKES NORTH, WEST END, NC, 27376","No_Match",NA,NA,NA,NA
926874,"914 SHADY LANE","AUSTIN","TX",78702,30.257968498,-97.6945606199999,374,"914 SHADY LANE, AUSTIN, TX, 78702","Match","Exact","914 SHADY LN, AUSTIN, TX, 78702",63949042,"L"
926875,"914 SHEELER OAKS DIR","APOPKA","FL",32703,28.65080126,-81.491992813,375,"914 SHEELER OAKS DIR, APOPKA, FL, 32703","Match","Non_Exact","914 SHEELER OAKS DR, APOPKA, FL, 32703",94323231,"R"
926876,"914 SHORTER AVENUE","ROME","GA",30165,34.2667875340001,-85.2049346379999,376,"914 SHORTER AVENUE, ROME, GA, 30165","Match","Exact","914 SHORTER AVE, ROME, GA, 30165",30674874,"R"
926877,"914 SILVER SPRING AVE NO 103","SILVER","MD",20910,NA,NA,377,"914 SILVER SPRING AVE NO 103, SILVER, MD, 20910","No_Match",NA,NA,NA,NA
926878,"914 SILVER SPRING AVE STE 100","SILVER SPRING","MD",20910,38.9916133460001,-77.024402473,378,"914 SILVER SPRING AVE STE 100, SILVER SPRING, MD, 20910","Match","Exact","914 SILVER SPRING AVE, SILVER SPRING, MD, 20910",62068169,"L"
926879,"914 SILVER SPRING AVE STE 106","SILVER SPRING","MD",20910,38.9916133460001,-77.024402473,379,"914 SILVER SPRING AVE STE 106, SILVER SPRING, MD, 20910","Match","Exact","914 SILVER SPRING AVE, SILVER SPRING, MD, 20910",62068169,"L"
926880,"914 SIMPSON ST APT 5A","BRONX","NY",10459,40.8202924620001,-73.893474247,380,"914 SIMPSON ST APT 5A, BRONX, NY, 10459","Match","Exact","914 SIMPSON ST, BRONX, NY, 10459",80302397,"R"
926881,"914 SIMPSON STREET 2ND FLOOR","BRONX","NY",10463,40.8202924620001,-73.893474247,381,"914 SIMPSON STREET 2ND FLOOR, BRONX, NY, 10463","Match","Non_Exact","914 SIMPSON ST, BRONX, NY, 10459",80302397,"R"
926882,"914 SKY HIGH ROAD","TULLY","NY",13159,42.8161855810001,-76.0829758789999,382,"914 SKY HIGH ROAD, TULLY, NY, 13159","Match","Exact","914 SKY HIGH RD, TULLY, NY, 13159",652994607,"R"
926883,"914 SOMBRA STREET","TAMPA","FL",33619,27.9408492260001,-82.334769103,383,"914 SOMBRA STREET, TAMPA, FL, 33619","Match","Exact","914 SOMBRA ST, TAMPA, FL, 33619",646566880,"R"
926884,"914 SOUTH MAIN STREET","FARMVILLE","VA",23901,37.2917020420001,-78.396807763,384,"914 SOUTH MAIN STREET, FARMVILLE, VA, 23901","Match","Exact","914 S MAIN ST, FARMVILLE, VA, 23901",73975551,"R"
926885,"914 SOUTH STATE STREET","ANN ARBOR","MI",48104,42.2707211530001,-83.740635422,385,"914 SOUTH STATE STREET, ANN ARBOR, MI, 48104","Match","Exact","914 S STATE ST, ANN ARBOR, MI, 48104",635875676,"R"
926886,"914 SPARROW VALLEY WAY","CHARLOTTE","NC",28214,35.3068115310001,-80.986018283,386,"914 SPARROW VALLEY WAY, CHARLOTTE, NC, 28214","Match","Exact","914 SPARROW VALLEY WAY, CHARLOTTE, NC, 28214",70555868,"L"
926887,"914 ST ANDREWS WAY","BEL AIR","MD",21015,39.529025215,-76.315117207,387,"914 ST ANDREWS WAY, BEL AIR, MD, 21015","Match","Exact","914 SAINT ANDREWS WAY, BEL AIR, MD, 21015",624775648,"L"
926888,"914 ST OLAF AVENUE","NORTHFIELD","MN",55057,44.4605789450001,-93.173797677,388,"914 ST OLAF AVENUE, NORTHFIELD, MN, 55057","Match","Exact","914 SAINT OLAF AVE, NORTHFIELD, MN, 55057",37327294,"L"
926889,"914 STATE RD","CROYDON","PA",19021,40.0874092780001,-74.903001585,389,"914 STATE RD, CROYDON, PA, 19021","Match","Exact","914 STATE RD, CROYDON, PA, 19021",134717475,"R"
926890,"914 STONEBRIDGE DR","LANCASTER","PA",17601,40.068852373,-76.391383047,390,"914 STONEBRIDGE DR, LANCASTER, PA, 17601","Match","Exact","914 STONEBRIDGE DR, LANCASTER, PA, 17601",179685299,"L"
926891,"914 SUGAR GAP RD APT 102","WAKE FOREST","NC",27587,NA,NA,391,"914 SUGAR GAP RD APT 102, WAKE FOREST, NC, 27587","No_Match",NA,NA,NA,NA
926892,"914 TANYA LYNN DR","JEFFERSON CITY","MO",65109,38.5740041400001,-92.209678006,392,"914 TANYA LYNN DR, JEFFERSON CITY, MO, 65109","Match","Exact","914 TANYA LYNN DR, JEFFERSON CITY, MO, 65109",645513923,"L"
926893,"914 TARAWOOD LANE","VALRICO","FL",33594,27.9515042890001,-82.265906893,393,"914 TARAWOOD LANE, VALRICO, FL, 33594","Match","Exact","914 TARAWOOD LN, VALRICO, FL, 33594",104544410,"L"
926894,"914 TAYLOR STREET","TALLAHASSEE","FL",32310,30.419029621,-84.297521048,394,"914 TAYLOR STREET, TALLAHASSEE, FL, 32310","Match","Exact","914 TAYLOR ST, TALLAHASSEE, FL, 32310",82851119,"R"
926895,"914 TERANCE AVE","JONESBORO","GA",30236,33.471371301,-84.362248149,395,"914 TERANCE AVE, JONESBORO, GA, 30236","Match","Non_Exact","914 TERANCE AVE, JONESBORO, GA, 30238",23333572,"R"
926896,"914 THISTLE GREEN LANE","DUNCANVILLE","TX",75137,32.6333224300001,-96.92712147,396,"914 THISTLE GREEN LANE, DUNCANVILLE, TX, 75137","Match","Exact","914 THISTLE GREEN LN, DUNCANVILLE, TX, 75137",102942120,"L"
926897,"914 TILDEN","LAS VEGAS","NM",87701,35.590669539,-105.216916733,397,"914 TILDEN, LAS VEGAS, NM, 87701","Match","Non_Exact","914 TILDEN ST, LAS VEGAS, NM, 87701",169001249,"L"
926898,"914 TOWERVIEW STREET SW","DECATUR","AL",35601,34.5657038690001,-87.000559175,398,"914 TOWERVIEW STREET SW, DECATUR, AL, 35601","Match","Exact","914 TOWERVIEW ST SW, DECATUR, AL, 35601",97123315,"R"
926899,"914 TOWNSEND STREET","CHESTER","PA",19013,39.839464186,-75.389992487,399,"914 TOWNSEND STREET, CHESTER, PA, 19013","Match","Exact","914 TOWNSEND ST, CHESTER, PA, 19013",134889893,"L"
926900,"914 TRANQUILITY DR","PEARL RIVER","LA",70452,30.3412081270001,-89.728966504,400,"914 TRANQUILITY DR, PEARL RIVER, LA, 70452","Match","Exact","914 TRANQUILITY DR, PEARL RIVER, LA, 70452",111260515,"R"
926901,"914 TURTLE COVE","MESQUITE","NV",89027,36.823473504,-114.080770439,401,"914 TURTLE COVE, MESQUITE, NV, 89027","Match","Exact","914 TURTLE COVE, MESQUITE, NV, 89027",202006320,"R"
926902,"914 UNDERWOOD","TOLEDO","OH",43607,41.6494438070001,-83.616866925,402,"914 UNDERWOOD, TOLEDO, OH, 43607","Match","Non_Exact","914 UNDERWOOD AVE, TOLEDO, OH, 43607",33935640,"R"
926903,"914 UNION VILLAGE ROAD","NORWICH","VT",5058,NA,NA,403,"914 UNION VILLAGE ROAD, NORWICH, VT, 5058","No_Match",NA,NA,NA,NA
926904,"914 UNIVERSITY AVE NE","MINNEAPOLIS","MN",55413,44.998008488,-93.2632691049999,404,"914 UNIVERSITY AVE NE, MINNEAPOLIS, MN, 55413","Match","Exact","914 UNIVERSITY AVE NE, MINNEAPOLIS, MN, 55413",43631775,"L"
926905,"914 UTICA AVE","VENTURA","CA",93004,34.275394503,-119.169515879,405,"914 UTICA AVE, VENTURA, CA, 93004","Match","Exact","914 UTICA AVE, VENTURA, CA, 93004",109957088,"L"
926906,"914 VARNEY ST SE","WASHINGTON","DC",20032,38.8358329490001,-76.990979287,406,"914 VARNEY ST SE, WASHINGTON, DC, 20032","Match","Exact","914 VARNEY ST SE, WASHINGTON, DC, 20032",623974666,"L"
926907,"914 VETCH CIR","LAFAYETTE","CO",80026,40.009140055,-105.097532561,407,"914 VETCH CIR, LAFAYETTE, CO, 80026","Match","Exact","914 VETCH CIR, LAFAYETTE, CO, 80026",220750348,"R"
926908,"914 VIA SELVA","RIO RICO","AZ",85648,31.43710307,-111.038359776,408,"914 VIA SELVA, RIO RICO, AZ, 85648","Match","Exact","914 VIA SELVA, RIO RICO, AZ, 85648",120898104,"L"
926909,"914 VINE STREET","MONESSEN","PW",15062,NA,NA,409,"914 VINE STREET, MONESSEN, PW, 15062","No_Match",NA,NA,NA,NA
926910,"914 W 21ST ST","KEARNEY","NE",68845,40.6967813700001,-99.0944442049999,410,"914 W 21ST ST, KEARNEY, NE, 68845","Match","Exact","914 W 21ST ST, KEARNEY, NE, 68845",137863088,"L"
926911,"914 W ECARNACION","PHARR","TX",78577,NA,NA,411,"914 W ECARNACION, PHARR, TX, 78577","No_Match",NA,NA,NA,NA
926912,"914 W I 30","GARLAND","TX",75043,32.8360710110001,-96.604763114,412,"914 W I 30, GARLAND, TX, 75043","Match","Non_Exact","914 W I- 30, GARLAND, TX, 75043",103202594,"L"
926913,"914 W NEWMAN","HARRISON","AR",72601,36.222883634,-93.1181938,413,"914 W NEWMAN, HARRISON, AR, 72601","Match","Non_Exact","914 W NEWMAN AVE, HARRISON, AR, 72601",19982868,"L"
926914,"914 W ST MARYS CT","PEORIA","IL",61614,40.7719273880001,-89.607056507,414,"914 W ST MARYS CT, PEORIA, IL, 61614","Match","Exact","914 ST MARYS CT, PEORIA, IL, 61614",8712327,"L"
926915,"914 WALNUT BEND LN","HOUSTON","TX",77042,29.7528748940001,-95.5672253229999,415,"914 WALNUT BEND LN, HOUSTON, TX, 77042","Match","Exact","914 WALNUT BEND LN, HOUSTON, TX, 77042",96022731,"R"
926916,"914 WEST 31 ST","HOUSTON","TX",77018,29.8152245250001,-95.415388482,416,"914 WEST 31 ST, HOUSTON, TX, 77018","Match","Exact","914 W 31ST ST, HOUSTON, TX, 77018",96054528,"R"
926917,"914 WEST 77TH STREET","CHICAGO","IL",60620,41.754241505,-87.647214874,417,"914 WEST 77TH STREET, CHICAGO, IL, 60620","Match","Exact","914 W 77TH ST, CHICAGO, IL, 60620",604997583,"R"
926918,"914 WEST EMBASSY DR","DELTONA","FL",32725,28.8890799870001,-81.2777112589999,418,"914 WEST EMBASSY DR, DELTONA, FL, 32725","Match","Exact","914 W EMBASSY DR, DELTONA, FL, 32725",94519098,"L"
926919,"914 WEST OAKS","STILLWATER","OK",74075,NA,NA,419,"914 WEST OAKS, STILLWATER, OK, 74075","No_Match",NA,NA,NA,NA
926920,"914 WEST REDWOOD RD","STERLING","VA",20164,39.0034136420001,-77.420351582,420,"914 WEST REDWOOD RD, STERLING, VA, 20164","Match","Exact","914 W REDWOOD RD, STERLING, VA, 20164",62327150,"R"
926921,"914 WEST ROBERT AVE","OXNARD","CA",93030,34.210672474,-119.188468569,421,"914 WEST ROBERT AVE, OXNARD, CA, 93030","Match","Exact","914 W ROBERT AVE, OXNARD, CA, 93030",110115967,"L"
926922,"914 WEST STREET","TAMPA","FL",33602,27.970391912,-82.472029242,422,"914 WEST STREET, TAMPA, FL, 33602","Match","Non_Exact","914 W WEST ST, TAMPA, FL, 33602",104521156,"L"
926923,"914 WESTBURY RD","WESTBURY","NY",11590,40.748788416,-73.57195862,423,"914 WESTBURY RD, WESTBURY, NY, 11590","Match","Exact","914 WESTBURY RD, WESTBURY, NY, 11590",147631832,"R"
926924,"914 WESTLAND DR SW","MARRIETTA","GA",30064,33.9486384470001,-84.578059572,424,"914 WESTLAND DR SW, MARRIETTA, GA, 30064","Match","Non_Exact","914 WESTLAND DR SW, MARIETTA, GA, 30064",17205649,"R"
926925,"914 WESTMINSTER DRIVE","MIDLOTHIAN","TX",76065,32.49195616,-96.945158339,425,"914 WESTMINSTER DRIVE, MIDLOTHIAN, TX, 76065","Match","Exact","914 WESTMINSTER DR, MIDLOTHIAN, TX, 76065",648648745,"R"
926926,"914 WHINERY STREET","PHILADELPHIA","MS",39350,32.7711512750001,-89.128887972,426,"914 WHINERY STREET, PHILADELPHIA, MS, 39350","Match","Exact","914 WHINERY ST, PHILADELPHIA, MS, 39350",649919984,"R"
926927,"914 WILD WOLF DRIVE","GREENSBORO","NC",27406,35.99131018,-79.812082636,427,"914 WILD WOLF DRIVE, GREENSBORO, NC, 27406","Match","Exact","914 WILD WOLF DR, GREENSBORO, NC, 27406",640277608,"L"
926928,"914 WILD WOLF DRVIE","GREENSBORO","NC",27406,35.99131018,-79.812082636,428,"914 WILD WOLF DRVIE, GREENSBORO, NC, 27406","Match","Non_Exact","914 WILD WOLF DR, GREENSBORO, NC, 27406",640277608,"L"
926929,"914 WILLIAMS AVE","NATCHITOCHES","LA",71457,31.765079959,-93.083603984,429,"914 WILLIAMS AVE, NATCHITOCHES, LA, 71457","Match","Exact","914 WILLIAMS AVE, NATCHITOCHES, LA, 71457",13349512,"L"
926930,"914 WILSON ST SE","OLYMPIA","WA",98501,47.04144254,-122.872945671,430,"914 WILSON ST SE, OLYMPIA, WA, 98501","Match","Exact","914 WILSON ST SE, OLYMPIA, WA, 98501",180946373,"L"
926931,"914 WINSAP COURT","HALETHORPE","MD",21227,39.2397843540001,-76.650772455,431,"914 WINSAP COURT, HALETHORPE, MD, 21227","Match","Exact","914 WINSAP CT, HALETHORPE, MD, 21227",191486805,"L"
926932,"914 WOODLEE DRIVE","BYRAM","MS",39272,32.220133827,-90.271514944,432,"914 WOODLEE DRIVE, BYRAM, MS, 39272","Match","Exact","914 WOODLEE DR, BYRAM, MS, 39272",65381914,"R"
926933,"914 WOODRIDGE DR","ATLANATA","GA",30339,33.872773497,-84.468137074,433,"914 WOODRIDGE DR, ATLANATA, GA, 30339","Match","Non_Exact","914 WOODRIDGE CT, ATLANTA, GA, 30339",17259599,"L"
926934,"914 WYNN CIRCLE","LIVERMORE","CA",94550,37.6838017360001,-121.736208422,434,"914 WYNN CIRCLE, LIVERMORE, CA, 94550","Match","Exact","914 WYNN CIR, LIVERMORE, CA, 94550",125054805,"R"
926935,"914 YONKERS AVE","YONKERS","NY",10573,40.9147921730001,-73.859348369,435,"914 YONKERS AVE, YONKERS, NY, 10573","Match","Non_Exact","914 YONKERS AVE, YONKERS, NY, 10704",139745457,"R"
926936,"914 Z COURT","SHEBOYGAN","WI",53083,43.7724079970001,-87.7149318039999,436,"914 Z COURT, SHEBOYGAN, WI, 53083","Match","Exact","914 Z CT, SHEBOYGAN, WI, 53083",79496861,"R"
926937,"914-1/2 SHIRLAND AVE","SOUTH BELOIT","IL",61080,42.496217868,-89.049285222,437,"914-1/2 SHIRLAND AVE, SOUTH BELOIT, IL, 61080","Match","Exact","914 SHIRLAND AVE, SOUTH BELOIT, IL, 61080",49246970,"L"
926938,"914-A PEARL ST","NORFOLK","VA",23510,36.8354562920001,-76.291070116,438,"914-A PEARL ST, NORFOLK, VA, 23510","Match","Non_Exact","914 PEARL ST, NORFOLK, VA, 23523",122127507,"R"
926939,"914","DAVENPORT","FL",33837,NA,NA,439,"914, DAVENPORT, FL, 33837","No_Match",NA,NA,NA,NA
926940,"914","LILBURN","GA",30047,NA,NA,440,"914, LILBURN, GA, 30047","No_Match",NA,NA,NA,NA
926941,"9140 ALDRICH AVE S","BLOOMINGTON","MN",55420,44.838282717,-93.2898672599999,441,"9140 ALDRICH AVE S, BLOOMINGTON, MN, 55420","Match","Exact","9140 ALDRICH AVE S, BLOOMINGTON, MN, 55420",43595723,"R"
926942,"9140 BEECH MEADOW COURT","CLARENCE CENTER","NY",14032,43.0221062700001,-78.651107582,442,"9140 BEECH MEADOW COURT, CLARENCE CENTER, NY, 14032","Match","Exact","9140 BEECH MEADOW CT, CLARENCE CENTER, NY, 14032",48360589,"L"
926943,"9140 BLACK HEATH CIRCLE UNIT C","CHARLOTTE","NC",28214,35.2603897660001,-80.959467592,443,"9140 BLACK HEATH CIRCLE UNIT C, CHARLOTTE, NC, 28214","Match","Exact","9140 BLACK HEATH CIR, CHARLOTTE, NC, 28214",70474189,"R"
926944,"9140 BRANT POINT","NEW HAVEN","IN",46774,41.0545341060001,-85.021946917,444,"9140 BRANT POINT, NEW HAVEN, IN, 46774","Match","Exact","9140 BRANT PT, NEW HAVEN, IN, 46774",6406677,"L"
926945,"9140 BURNT STORE ROAD","PUNTA GORDA","FL",33950,26.898786208,-82.023105459,445,"9140 BURNT STORE ROAD, PUNTA GORDA, FL, 33950","Match","Exact","9140 BURNT STORE RD, PUNTA GORDA, FL, 33950",647562574,"R"
926946,"9140 CAROLINA ST","BONITA SPRINGS","FL",34135,26.334394721,-81.7999707499999,446,"9140 CAROLINA ST, BONITA SPRINGS, FL, 34135","Match","Exact","9140 CAROLINA ST, BONITA SPGS, FL, 34135",118003406,"R"
926947,"9140 CLEVELAND","MERRIVILLE","IN",46410,41.452235156,-87.35890922,447,"9140 CLEVELAND, MERRIVILLE, IN, 46410","Match","Non_Exact","9140 CLEVELAND ST, MERRILLVILLE, IN, 46410",606280071,"L"
926948,"9140 CREEKWOOD LAKE TR","GRAND BLANC","MI",48439,42.8976465420001,-83.711756207,448,"9140 CREEKWOOD LAKE TR, GRAND BLANC, MI, 48439","Match","Exact","9140 CREEKWOOD LAKE TRL, GRAND BLANC, MI, 48439",69576657,"R"
926949,"9140 E COUNTY ROAD 500 NORTH","OTWELL","IN",47564,38.4953528720001,-87.108656068,449,"9140 E COUNTY ROAD 500 NORTH, OTWELL, IN, 47564","Match","Exact","9140 E CO RD 500 N, OTWELL, IN, 47564",32178250,"L"
926950,"9140 E HOLMES ST","TUCSON","AZ",85710,32.2256279600001,-110.796512825,450,"9140 E HOLMES ST, TUCSON, AZ, 85710","Match","Exact","9140 E HOLMES ST, TUCSON, AZ, 85710",121188189,"R"
926951,"9140 FM 804","LARUE","TX",75770,32.1664513910001,-95.7070968959999,451,"9140 FM 804, LARUE, TX, 75770","Match","Exact","9140 FM 804, LARUE, TX, 75770",125821818,"R"
926952,"9140 GOLFSIDE DR STE 12N","JACKSONVILLE","FL",32256,30.2220873860001,-81.568194353,452,"9140 GOLFSIDE DR STE 12N, JACKSONVILLE, FL, 32256","Match","Exact","9140 GOLFSIDE DR, JACKSONVILLE, FL, 32256",83920190,"L"
926953,"9140 GRANITE PLACE","ANCHORAGE","AK",99507,61.138120004,-149.824743474,453,"9140 GRANITE PLACE, ANCHORAGE, AK, 99507","Match","Exact","9140 GRANITE PL, ANCHORAGE, AK, 99507",190800535,"R"
926954,"9140 HIGHWAY 6 NORTH 1910","HOUSTON","TX",77095,29.9101911810001,-95.628254936,454,"9140 HIGHWAY 6 NORTH 1910, HOUSTON, TX, 77095","Match","Exact","9140 HWY 6 N, HOUSTON, TX, 77095",642107212,"R"
926955,"9140 HIGHWAY 6 NORTH 516","HOUSTON","TX",77095,29.9101911810001,-95.628254936,455,"9140 HIGHWAY 6 NORTH 516, HOUSTON, TX, 77095","Match","Exact","9140 HWY 6 N, HOUSTON, TX, 77095",642107212,"R"
926956,"9140 HIGHWAY 6 NORTH APT 1502","HOUSTON","TX",77095,29.9101911810001,-95.628254936,456,"9140 HIGHWAY 6 NORTH APT 1502, HOUSTON, TX, 77095","Match","Exact","9140 HWY 6 N, HOUSTON, TX, 77095",642107212,"R"
926957,"9140 HWY 6 N 1105","HOUSTON","TX",77095,29.9101911810001,-95.628254936,457,"9140 HWY 6 N 1105, HOUSTON, TX, 77095","Match","Non_Exact","9140 HWY 6 N, HOUSTON, TX, 77095",642107212,"R"
926958,"9140 HWY 6 N AT 2805","HOUSTON","TX",77095,29.9101911810001,-95.628254936,458,"9140 HWY 6 N AT 2805, HOUSTON, TX, 77095","Match","Non_Exact","9140 HWY 6 N, HOUSTON, TX, 77095",642107212,"R"
926959,"9140 HWY 6 NORTH","HOUSTON","TX",77095,29.9101911810001,-95.628254936,459,"9140 HWY 6 NORTH, HOUSTON, TX, 77095","Match","Exact","9140 HWY 6 N, HOUSTON, TX, 77095",642107212,"R"
926960,"9140 JAMES AVE S","BLOOMINGTON","MN",55431,44.838628988,-93.301077503,460,"9140 JAMES AVE S, BLOOMINGTON, MN, 55431","Match","Exact","9140 JAMES AVE S, BLOOMINGTON, MN, 55431",43595558,"R"
926961,"9140 MCMAHON CT","REYNOLDSURG","OH",43068,39.972719544,-82.7573277929999,461,"9140 MCMAHON CT, REYNOLDSURG, OH, 43068","Match","Non_Exact","9140 MCMAHON CT, REYNOLDSBURG, OH, 43068",61517911,"R"
926962,"9140 MEGATHA LAN","OWINGS","MD",20736,38.711125242,-76.617202328,462,"9140 MEGATHA LAN, OWINGS, MD, 20736","Match","Non_Exact","9140 MEGATHA LN, OWINGS, MD, 20736",78172336,"L"
926963,"9140 N 97TH DR","PEORIA","AZ",85345,33.5692526710001,-112.269439846,463,"9140 N 97TH DR, PEORIA, AZ, 85345","Match","Exact","9140 N 97TH DR, PEORIA, AZ, 85345",128402327,"R"
926964,"9140 RANGPUR CIRCLE","RIVERSIDE","CA",92508,33.8852187210001,-117.320286958,464,"9140 RANGPUR CIRCLE, RIVERSIDE, CA, 92508","Match","Exact","9140 RANGPUR CIR, RIVERSIDE, CA, 92508",194837046,"R"
926965,"9140 S BENNETT","CHICAGO","IL",60617,41.728948174,-87.5779564279999,465,"9140 S BENNETT, CHICAGO, IL, 60617","Match","Non_Exact","9140 S BENNETT AVE, CHICAGO, IL, 60617",111775476,"R"
926966,"9140 S NOBEL WAY","INGLEWOOD","CA",90305,33.953638363,-118.332557253,466,"9140 S NOBEL WAY, INGLEWOOD, CA, 90305","Match","Exact","9140 S NOBEL WAY, INGLEWOOD, CA, 90305",632052867,"R"
926967,"9140 SCHAAD CIRCLE","NEWBURGH","IN",47630,37.952998216,-87.4176735629999,467,"9140 SCHAAD CIRCLE, NEWBURGH, IN, 47630","Match","Exact","9140 SCHAAD CIR, NEWBURGH, IN, 47630",632527457,"L"
926968,"9140 SCHENK ROAD","WATERLOO","IA",50703,42.6310158730001,-92.2782827349999,468,"9140 SCHENK ROAD, WATERLOO, IA, 50703","Match","Exact","9140 SCHENK RD, WATERLOO, IA, 50703",212735244,"R"
926969,"9140 SOUTH COTTAGE GROVE","CHICAGO","IL",60628,NA,NA,469,"9140 SOUTH COTTAGE GROVE, CHICAGO, IL, 60628","No_Match",NA,NA,NA,NA
926970,"9140 WEST LAKE RUBY DRIVE","WINTER HAVEN","FL",33884,NA,NA,470,"9140 WEST LAKE RUBY DRIVE, WINTER HAVEN, FL, 33884","No_Match",NA,NA,NA,NA
926971,"9140 YUCCA ST","APPLE VALLEY","CA",92308,34.416980387,-117.192051499,471,"9140 YUCCA ST, APPLE VALLEY, CA, 92308","Match","Exact","9140 YUCCA ST, APPLE VALLEY, CA, 92308",144740173,"L"
926972,"91406 E CHELSEA RD","KENNEWICK","WA",99338,46.2140166950001,-119.305404792,472,"91406 E CHELSEA RD, KENNEWICK, WA, 99338","Match","Exact","91406 E CHELSEA RD, KENNEWICK, WA, 99338",606997995,"L"
926973,"9141 87TH STREET 2ND FL","WOODHAVEN","NY",11421,NA,NA,473,"9141 87TH STREET 2ND FL, WOODHAVEN, NY, 11421","No_Match",NA,NA,NA,NA
926974,"9141 DICKENS AVENUE","SURFSIDE","FL",33154,25.878633199,-80.1262368929999,474,"9141 DICKENS AVENUE, SURFSIDE, FL, 33154","Match","Exact","9141 DICKENS AVE, SURFSIDE, FL, 33154",116043624,"R"
926975,"9141 EL VERDE CIRCLE","FOUNTAIN VALLEY","CA",92708,33.7073611930001,-117.968851366,475,"9141 EL VERDE CIRCLE, FOUNTAIN VALLEY, CA, 92708","Match","Exact","9141 EL VERDE CIR, FOUNTAIN VALLEY, CA, 92708",144019039,"L"
926976,"9141 EQUUS CIRCLE","BOYNTON BEACH","FL",33472,26.543475583,-80.203097892,476,"9141 EQUUS CIRCLE, BOYNTON BEACH, FL, 33472","Match","Exact","9141 EQUUS CIR, BOYNTON BEACH, FL, 33472",627913250,"R"
926977,"9141 LEHALL SQ E","LAKELAND","FL",33810,28.166366195,-81.978481712,477,"9141 LEHALL SQ E, LAKELAND, FL, 33810","Match","Exact","9141 LEHALL SQ E, LAKELAND, FL, 33810",104869660,"R"
926978,"9141 LILLY CT","THORNTON","CO",80229,39.8621393280001,-104.966532061,478,"9141 LILLY CT, THORNTON, CO, 80229","Match","Exact","9141 LILLY CT, THORNTON, CO, 80229",177297081,"L"
926979,"9141 MEADOW GARDENS CIR","SHERWOOD","AR",72120,34.859268135,-92.2083458709999,479,"9141 MEADOW GARDENS CIR, SHERWOOD, AR, 72120","Match","Exact","9141 MEADOW GARDENS CIR, SHERWOOD, AR, 72120",651730915,"L"
926980,"9141 N CASTLE WAY","HAYDEN","ID",83835,47.7552960990001,-116.770419894,480,"9141 N CASTLE WAY, HAYDEN, ID, 83835","Match","Exact","9141 N CASTLE WAY, HAYDEN, ID, 83835",192942784,"L"
926981,"9141 OVERSEAS HIGHWAY","MARATHON","FL",33050,24.7246901950001,-81.0501464119999,481,"9141 OVERSEAS HIGHWAY, MARATHON, FL, 33050","Match","Exact","9141 OVERSEAS HWY, MARATHON, FL, 33050",612431409,"R"
926982,"9141 PARKWAY DR","HIGHLAND","IN",46322,41.5474886370001,-87.479125629,482,"9141 PARKWAY DR, HIGHLAND, IN, 46322","Match","Exact","9141 PARKWAY DR, HIGHLAND, IN, 46322",98444199,"L"
926983,"9141 PEACE ST","FORT WORTH","TX",76244,32.906499523,-97.299580845,483,"9141 PEACE ST, FORT WORTH, TX, 76244","Match","Exact","9141 PEACE ST, FORT WORTH, TX, 76244",102116969,"R"
926984,"9141 PECK AVE","ANCHORAGE","AK",99504,61.222666718,-149.715597604,484,"9141 PECK AVE, ANCHORAGE, AK, 99504","Match","Exact","9141 PECK AVE, ANCHORAGE, AK, 99504",190810650,"L"
926985,"9141 PECK AVENUE 306","ANCHORAGE","AK",99504,61.222666718,-149.715597604,485,"9141 PECK AVENUE 306, ANCHORAGE, AK, 99504","Match","Exact","9141 PECK AVE, ANCHORAGE, AK, 99504",190810650,"L"
926986,"9141 ROUNDABOUT LANE","CORDOVA","TN",38018,35.1306104870001,-89.757909415,486,"9141 ROUNDABOUT LANE, CORDOVA, TN, 38018","Match","Exact","9141 ROUNDABOUT LN, CORDOVA, TN, 38018",607429427,"L"
926987,"9141 S LOWE AVE","CHICAGO","IL",60620,41.7280341630001,-87.639739462,487,"9141 S LOWE AVE, CHICAGO, IL, 60620","Match","Exact","9141 S LOWE AVE, CHICAGO, IL, 60620",111832077,"L"
926988,"9141 S PHILLIPS","CHICAGO","IL",60617,41.7291235660001,-87.564570009,488,"9141 S PHILLIPS, CHICAGO, IL, 60617","Match","Non_Exact","9141 S PHILLIPS AVE, CHICAGO, IL, 60617",111776425,"L"
926989,"9141 SYLVESTER ST","DETROIT","MI",48214,42.3738218140001,-82.997415399,489,"9141 SYLVESTER ST, DETROIT, MI, 48214","Match","Exact","9141 SYLVESTER ST, DETROIT, MI, 48214",95483665,"L"
926990,"9141 W BUCKEYE RD","TOLLESON","AZ",85353,33.4356725540001,-112.256682871,490,"9141 W BUCKEYE RD, TOLLESON, AZ, 85353","Match","Exact","9141 BUCKEYE RD, TOLLESON, AZ, 85353",128944355,"L"
926991,"9141 WEST 79TH PL","ARVADA","CO",80006,39.8411103010001,-105.100056026,491,"9141 WEST 79TH PL, ARVADA, CO, 80006","Match","Non_Exact","9141 W 79TH PL, ARVADA, CO, 80005",624283037,"L"
926992,"9141 WICKHAM WAY","ORLANDO","FL",32836,28.4315343430001,-81.504591201,492,"9141 WICKHAM WAY, ORLANDO, FL, 32836","Match","Exact","9141 WICKHAM WAY, ORLANDO, FL, 32836",606134737,"L"
926993,"9141 WOODLEAF DR","JONESBORO","GA",30236,33.5038133420001,-84.3142485659999,493,"9141 WOODLEAF DR, JONESBORO, GA, 30236","Match","Non_Exact","9141 WOODLEAF CIR, JONESBORO, GA, 30236",23330877,"R"
926994,"9142 113 STREET","RICHMOND HILL","NY",11418,NA,NA,494,"9142 113 STREET, RICHMOND HILL, NY, 11418","No_Match",NA,NA,NA,NA
926995,"9142 ASHFORD PLACE","MONTGOMERY","AL",36117,NA,NA,495,"9142 ASHFORD PLACE, MONTGOMERY, AL, 36117","No_Match",NA,NA,NA,NA
926996,"9142 BAY TRACE DRIVE","LINDEN","NC",20356,35.238313948,-78.8255387249999,496,"9142 BAY TRACE DRIVE, LINDEN, NC, 20356","Match","Non_Exact","9142 BAY TRACE DR, LINDEN, NC, 28356",64259053,"R"
926997,"9142 CALVERTON TER","PICKERINGTON","OH",43147,39.928077069,-82.7572025869999,497,"9142 CALVERTON TER, PICKERINGTON, OH, 43147","Match","Exact","9142 CALVERTON TER, PICKERINGTON, OH, 43147",37247115,"L"
926998,"9142 MINEOLA CT","MANASSAS","VA",20111,38.755440149,-77.434542027,498,"9142 MINEOLA CT, MANASSAS, VA, 20111","Match","Exact","9142 MINEOLA CT, MANASSAS, VA, 20111",641057045,"L"
926999,"9142 REDWOOD DR","BASTROP","LA",71220,32.7577783620001,-91.9457631719999,499,"9142 REDWOOD DR, BASTROP, LA, 71220","Match","Exact","9142 REDWOOD DR, BASTROP, LA, 71220",75387471,"R"
927000,"9142 STEPHENS MANOR DRIVE","MECHANICSVILLE","VA",23116,37.6833633250001,-77.4137924889999,500,"9142 STEPHENS MANOR DRIVE, MECHANICSVILLE, VA, 23116","Match","Exact","9142 STEPHENS MANOR DR, MECHANICSVILLE, VA, 23116",84969891,"L"
