"ID","Address","City","State","Zip","lat","long","id","input_address","match_indicator","match_type","matched_address","tiger_line_id","tiger_side"
511001,"3231 JASPER WAY","MIRAMAR","FL",33029,25.9818925540001,-80.270498635,1,"3231 JASPER WAY, MIRAMAR, FL, 33029","Match","Non_Exact","3231 JASPER WAY, MIRAMAR, FL, 33025",114759791,"L"
511002,"3231 LA PALOMA AVE","DAYTONA BEACH","FL",32118,29.1573189650001,-80.974522409,2,"3231 LA PALOMA AVE, DAYTONA BEACH, FL, 32118","Match","Exact","3231 LA PALOMA AVE, DAYTONA BEACH, FL, 32118",629443999,"L"
511003,"3231 LANDON STREET","LYNCHBURG","VA",24503,37.4288463520001,-79.1795733169999,3,"3231 LANDON STREET, LYNCHBURG, VA, 24503","Match","Exact","3231 LANDON ST, LYNCHBURG, VA, 24503",62623549,"L"
511004,"3231 LAPP LANE","NAPERVILLE","IL",60564,41.705459358,-88.21932557,4,"3231 LAPP LANE, NAPERVILLE, IL, 60564","Match","Exact","3231 LAPP LN, NAPERVILLE, IL, 60564",111618614,"L"
511005,"3231 LINA DRIVE","TUCKER","GA",30084,33.880143547,-84.217515068,5,"3231 LINA DRIVE, TUCKER, GA, 30084","Match","Exact","3231 LINA DR, TUCKER, GA, 30084",619386169,"R"
511006,"3231 LOST MESA COURT","NORTH LAS VEGAS","NV",89031,36.2472726610001,-115.183265743,6,"3231 LOST MESA COURT, NORTH LAS VEGAS, NV, 89031","Match","Exact","3231 LOST MESA CT, N LAS VEGAS, NV, 89031",201951415,"L"
511007,"3231 LUNN DRIVE","FLORENCE","SC",29501,34.1498268400001,-79.8369291179999,7,"3231 LUNN DRIVE, FLORENCE, SC, 29501","Match","Exact","3231 LUNN DR, FLORENCE, SC, 29501",28889063,"L"
511008,"3231 MAYS CHAPEL RD","SANFORD","NC",27330,35.622376988,-79.209054363,8,"3231 MAYS CHAPEL RD, SANFORD, NC, 27330","Match","Exact","3231 MAYS CHAPEL RD, SANFORD, NC, 27330",71348160,"R"
511009,"3231 MEADOW RUN DRIVE","VENICE","FL",34293,27.075614995,-82.37358599,9,"3231 MEADOW RUN DRIVE, VENICE, FL, 34293","Match","Exact","3231 MEADOW RUN DR, VENICE, FL, 34293",16423319,"R"
511010,"3231 MEADOWVIEW LANE","MANKATO","MN",56001,44.070631383,-93.989857753,10,"3231 MEADOWVIEW LANE, MANKATO, MN, 56001","Match","Exact","3231 MEADOWVIEW LN, MANKATO, MN, 56001",28124674,"L"
511011,"3231 MONTELENA DR","SAN JSOE","CA",95135,37.314154095,-121.781092866,11,"3231 MONTELENA DR, SAN JSOE, CA, 95135","Match","Non_Exact","3231 MONTELENA DR, SAN JOSE, CA, 95135",123160544,"L"
511012,"3231 MORGAN CLARK ROAD","CHARLOTTE","NC",28208,35.228766755,-80.876149901,12,"3231 MORGAN CLARK ROAD, CHARLOTTE, NC, 28208","Match","Exact","3231 MORGAN CLARK RD, CHARLOTTE, NC, 28208",648566890,"R"
511013,"3231 MT PHILO RD","CHARLOTTE","VT",5445,44.3087934690001,-73.224930457,13,"3231 MT PHILO RD, CHARLOTTE, VT, 5445","Match","Exact","3231 MOUNT PHILO RD, CHARLOTTE, VT, 05445",135861577,"R"
511014,"3231 N CLIFTON AVE APT 1N","CHICAGO","IL",60657,41.9404854840001,-87.657754855,14,"3231 N CLIFTON AVE APT 1N, CHICAGO, IL, 60657","Match","Non_Exact","3231 N CLIFTON AVE, CHICAGO, IL, 60657",111762390,"R"
511015,"3231 N KENMORE AVE APT 1N","CHICAGO","IL",60657,41.940795252,-87.6553421409999,15,"3231 N KENMORE AVE APT 1N, CHICAGO, IL, 60657","Match","Non_Exact","3231 N KENMORE AVE, CHICAGO, IL, 60657",605163783,"R"
511016,"3231 N LOOP 1604","SAN ANTONIO","TX",78257,NA,NA,16,"3231 N LOOP 1604, SAN ANTONIO, TX, 78257","No_Match",NA,NA,NA,NA
511017,"3231 NEVADA AVE","EL MONTE","CA",91731,34.06691569,-118.036998546,17,"3231 NEVADA AVE, EL MONTE, CA, 91731","Match","Exact","3231 NEVADA AVE, EL MONTE, CA, 91731",141649300,"L"
511018,"3231 NICOLLET AVENUE SO","MINNEAPOLIS","MN",55408,44.9442054140001,-93.277925823,18,"3231 NICOLLET AVENUE SO, MINNEAPOLIS, MN, 55408","Match","Exact","3231 NICOLLET AVE S, MINNEAPOLIS, MN, 55408",43633563,"L"
511019,"3231 NW 104 AVE","CORAL SPRINGS","FL",33065,26.27112499,-80.264920817,19,"3231 NW 104 AVE, CORAL SPRINGS, FL, 33065","Match","Exact","3231 NW 104TH AVE, CORAL SPRINGS, FL, 33065",114690117,"R"
511020,"3231 NW SPENCER ST","PORTLAND","OR",97229,45.5469084170001,-122.774986023,20,"3231 NW SPENCER ST, PORTLAND, OR, 97229","Match","Exact","3231 NW SPENCER ST, PORTLAND, OR, 97229",157556883,"L"
511021,"3231 OCEAN PARK BLVD SUITE 201","SANTA MONICA","CA",90405,34.021345749,-118.451412403,21,"3231 OCEAN PARK BLVD SUITE 201, SANTA MONICA, CA, 90405","Match","Exact","3231 OCEAN PARK BLVD, SANTA MONICA, CA, 90405",653224526,"L"
511022,"3231 OLD BLUE RIDGE ST","SAN ANTONIO","TX",78230,29.5397403590001,-98.548553597,22,"3231 OLD BLUE RIDGE ST, SAN ANTONIO, TX, 78230","Match","Exact","3231 OLD BLUE RIDGE ST, SAN ANTONIO, TX, 78230",101569593,"L"
511023,"3231 PLEASANT GARDEN RD APT 1C","GREENSBORO","NC",27406,36.0248086510001,-79.7728360469999,23,"3231 PLEASANT GARDEN RD APT 1C, GREENSBORO, NC, 27406","Match","Exact","3231 PLEASANT GARDEN RD, GREENSBORO, NC, 27406",647273667,"L"
511024,"3231 PLYMOUTH ROCK DR","DOUGLASVILLE","GA",30135,33.725740204,-84.685154185,24,"3231 PLYMOUTH ROCK DR, DOUGLASVILLE, GA, 30135","Match","Exact","3231 PLYMOUTH ROCK DR, DOUGLASVILLE, GA, 30135",16651394,"L"
511025,"3231 RAMONA AVENUE","BALTIMORE","MD",21213,39.3243598350001,-76.565230624,25,"3231 RAMONA AVENUE, BALTIMORE, MD, 21213","Match","Exact","3231 RAMONA AVE, BALTIMORE, MD, 21213",647409901,"R"
511026,"3231 ROSEWAY DRIVE","INDIANAPOLIS","IN",46226,39.816305985,-86.028401921,26,"3231 ROSEWAY DRIVE, INDIANAPOLIS, IN, 46226","Match","Exact","3231 ROSEWAY DR, INDIANAPOLIS, IN, 46226",108002841,"R"
511027,"3231 ROWENA DR","CORONA","CA",92882,33.842670388,-117.58186321,27,"3231 ROWENA DR, CORONA, CA, 92882","Match","Exact","3231 ROWENA DR, CORONA, CA, 92882",195084008,"R"
511028,"3231 S CAREYSHEA","WASILLA","AK",99623,61.5465392880001,-149.544071922,28,"3231 S CAREYSHEA, WASILLA, AK, 99623","Match","Non_Exact","3231 CARYSHEA ST, WASILLA, AK, 99623",191044446,"L"
511029,"3231 SFWS BLDG AUBURN UNNIV","AUBURN","AL",36849,NA,NA,29,"3231 SFWS BLDG AUBURN UNNIV, AUBURN, AL, 36849","No_Match",NA,NA,NA,NA
511030,"3231 SHADOW VIEW LN","MISSOURI CITY","TX",77459,29.5406820160001,-95.552841358,30,"3231 SHADOW VIEW LN, MISSOURI CITY, TX, 77459","Match","Exact","3231 SHADOW VIEW LN, MISSOURI CITY, TX, 77459",648707768,"L"
511031,"3231 STAMFORD ROAD","PORTSMOUTH","VA",23703,36.862020397,-76.389873692,31,"3231 STAMFORD ROAD, PORTSMOUTH, VA, 23703","Match","Exact","3231 STAMFORD RD, PORTSMOUTH, VA, 23703",122190836,"R"
511032,"3231 SUNSET DRIVE","JOPLIN","MO",64804,37.0586540780001,-94.553496181,32,"3231 SUNSET DRIVE, JOPLIN, MO, 64804","Match","Exact","3231 SUNSET DR, JOPLIN, MO, 64804",640636477,"R"
511033,"3231 TIMUCUA CIR","ORLANDO","FL",32837,28.3495611440001,-81.422934637,33,"3231 TIMUCUA CIR, ORLANDO, FL, 32837","Match","Exact","3231 TIMUCUA CIR, ORLANDO, FL, 32837",94338679,"R"
511034,"3231 TRUMBULL LAKE RD","RIVES JUNCTION","MI",49277,42.3676841400001,-84.3767258669999,34,"3231 TRUMBULL LAKE RD, RIVES JUNCTION, MI, 49277","Match","Non_Exact","3231 TRUMBLE LAKE RD, RIVES JUNCTION, MI, 49277",17626781,"L"
511035,"3231 TURKEY POINT ROAD","NORTH EAST","MD",21901,39.51114741,-75.953758626,35,"3231 TURKEY POINT ROAD, NORTH EAST, MD, 21901","Match","Exact","3231 TURKEY POINT RD, NORTH EAST, MD, 21901",187415503,"L"
511036,"3231 VAN TASSEL DRIVE","INDIANAPOLIS","IN",46240,39.8873931790001,-86.111398745,36,"3231 VAN TASSEL DRIVE, INDIANAPOLIS, IN, 46240","Match","Exact","3231 VAN TASSEL DR, INDIANAPOLIS, IN, 46240",108030976,"R"
511037,"3231 W RAPALO RD","PHOENIX","AZ",85086,33.810741095,-112.12962964,37,"3231 W RAPALO RD, PHOENIX, AZ, 85086","Match","Exact","3231 W RAPALO RD, PHOENIX, AZ, 85086",128856140,"L"
511038,"3231 W VISTA BONITA DR","GLENDALE","AZ",85027,33.6969812250001,-112.129247039,38,"3231 W VISTA BONITA DR, GLENDALE, AZ, 85027","Match","Non_Exact","3231 W VISTA BONITA DR, PHOENIX, AZ, 85027",128892505,"R"
511039,"3231 WEST ALLEGHENY AVENUE","PHILADELPHIA","PA",19132,40.005435375,-75.1826418539999,39,"3231 WEST ALLEGHENY AVENUE, PHILADELPHIA, PA, 19132","Match","Exact","3231 W ALLEGHENY AVE, PHILADELPHIA, PA, 19132",131401699,"R"
511040,"3231 WESTERN AVE","PARK FOREST","IL",60466,41.482814332,-87.674196646,40,"3231 WESTERN AVE, PARK FOREST, IL, 60466","Match","Exact","3231 WESTERN AVE, PARK FOREST, IL, 60466",605645718,"L"
511041,"3231 WOODS CANYON CT","MISSOURI CITY","TX",77459,29.542550256,-95.506409675,41,"3231 WOODS CANYON CT, MISSOURI CITY, TX, 77459","Match","Exact","3231 WOODS CANYON CT, MISSOURI CITY, TX, 77459",624577023,"R"
511042,"3231-C BUSINESS PARK DR STE 109","VISTA","CA",92081,33.1335184810001,-117.228636321,42,"3231-C BUSINESS PARK DR STE 109, VISTA, CA, 92081","Match","Non_Exact","3231 BUS PARK DR, VISTA, CA, 92081",195420801,"R"
511043,"3231","GARDENA","CA",90247,NA,NA,43,"3231, GARDENA, CA, 90247","No_Match",NA,NA,NA,NA
511044,"32311 CAMINO SAN IGNACIO","WARNER SPRINGS","CA",92070,NA,NA,44,"32311 CAMINO SAN IGNACIO, WARNER SPRINGS, CA, 92070","No_Match",NA,NA,NA,NA
511045,"32311 DAISY DR","WINCHESTER","CA",92596,33.6065590310001,-117.09453448,45,"32311 DAISY DR, WINCHESTER, CA, 92596","Match","Exact","32311 DAISY DR, WINCHESTER, CA, 92596",609000282,"L"
511046,"32314 271ST AVE","CHATFIELD","MN",55923,43.819773796,-92.109164337,46,"32314 271ST AVE, CHATFIELD, MN, 55923","Match","Non_Exact","32314 271ST AVE NE, CHATFIELD, MN, 55923",608264099,"R"
511047,"32314 740 ROAD","IMPERIAL","NE",69033,40.551826464,-101.816264011,47,"32314 740 ROAD, IMPERIAL, NE, 69033","Match","Exact","32314 740 RD, IMPERIAL, NE, 69033",176817310,"L"
511048,"32315 HANNAN RD","ROMULUS","MI",48174,NA,NA,48,"32315 HANNAN RD, ROMULUS, MI, 48174","No_Match",NA,NA,NA,NA
511049,"32317 OGEMAW","WESTLAND","MI",48186,42.2927027750001,-83.358635922,49,"32317 OGEMAW, WESTLAND, MI, 48186","Match","Non_Exact","32317 OGEMAW ST, WESTLAND, MI, 48186",95415229,"R"
511050,"32317 OGENAW","WESTLAND","MI",48186,42.2927027750001,-83.358635922,50,"32317 OGENAW, WESTLAND, MI, 48186","Match","Non_Exact","32317 OGEMAW ST, WESTLAND, MI, 48186",95415229,"R"
511051,"32318 EVENING PRIMROSE TRAIL","CAMPO","CA",91906,32.6183503240001,-116.459506677,51,"32318 EVENING PRIMROSE TRAIL, CAMPO, CA, 91906","Match","Exact","32318 EVENING PRIMROSE TRL, CAMPO, CA, 91906",638576048,"L"
511052,"3232  W CLARKSTON CIR","SOUTH JORDAN","UT",84095,40.558981439,-111.968409429,52,"3232  W CLARKSTON CIR, SOUTH JORDAN, UT, 84095","Match","Exact","3232 CLARKSTON CIR, SOUTH JORDAN, UT, 84095",176154515,"R"
511053,"3232 150TH PLACE","FLUSHING","NY",11354,NA,NA,53,"3232 150TH PLACE, FLUSHING, NY, 11354","No_Match",NA,NA,NA,NA
511054,"3232 190TH","PROLE","IA",50229,41.3819694810001,-93.821830367,54,"3232 190TH, PROLE, IA, 50229","Match","Non_Exact","3232 190TH ST, PROLE, IA, 50229",75204024,"R"
511055,"3232 1ST AVENUE S 1","MINNEAPOLIS","MN",55408,44.944319496,-93.276677369,55,"3232 1ST AVENUE S 1, MINNEAPOLIS, MN, 55408","Match","Exact","3232 1ST AVE S, MINNEAPOLIS, MN, 55408",43633575,"R"
511056,"3232 34TH AVE S","SEATTLE","WA",98144,47.574697782,-122.289863211,56,"3232 34TH AVE S, SEATTLE, WA, 98144","Match","Exact","3232 34TH AVE S, SEATTLE, WA, 98144",186594808,"L"
511057,"3232 43RD STREET","SACRAMENTO","CA",95817,38.5451396190001,-121.456702624,57,"3232 43RD STREET, SACRAMENTO, CA, 95817","Match","Exact","3232 43RD ST, SACRAMENTO, CA, 95817",133389679,"R"
511058,"3232 480TH ST","MAURICE","IA",51036,42.953236125,-96.152292412,58,"3232 480TH ST, MAURICE, IA, 51036","Match","Exact","3232 480TH ST, MAURICE, IA, 51036",93367600,"L"
511059,"3232 4TH AVE","SAN DIEGO","CA",92103,32.7390834340001,-117.161263052,59,"3232 4TH AVE, SAN DIEGO, CA, 92103","Match","Exact","3232 4TH AVE, SAN DIEGO, CA, 92103",195343125,"L"
511060,"3232 APRIL LANE","PALM HARBOR","FL",34684,28.098410749,-82.731183034,60,"3232 APRIL LANE, PALM HARBOR, FL, 34684","Match","Exact","3232 APRIL LN, PALM HARBOR, FL, 34684",124749721,"R"
511061,"3232 AVENIDA REPOSO","ESCONDIDO","CA",92029,33.0692567200001,-117.080837431,61,"3232 AVENIDA REPOSO, ESCONDIDO, CA, 92029","Match","Exact","3232 AVE REPOSO, ESCONDIDO, CA, 92029",195413652,"L"
511062,"3232 AVENIDA RESPOSO","ESCONDIDO","CA",92029,NA,NA,62,"3232 AVENIDA RESPOSO, ESCONDIDO, CA, 92029","No_Match",NA,NA,NA,NA
511063,"3232 BARKSDALE ROAD","FAYETTEVILLE","NC",28301,35.1009748330001,-78.898896349,63,"3232 BARKSDALE ROAD, FAYETTEVILLE, NC, 28301","Match","Exact","3232 BARKSDALE RD, FAYETTEVILLE, NC, 28301",64198607,"R"
511064,"3232 BATAAN STREET","DALLAS","TX",75112,NA,NA,64,"3232 BATAAN STREET, DALLAS, TX, 75112","No_Match",NA,NA,NA,NA
511065,"3232 BERWICK KNOLL AVE N","BROOKLYN PARK","MN",55443,45.1147182330001,-93.32318852,65,"3232 BERWICK KNOLL AVE N, BROOKLYN PARK, MN, 55443","Match","Exact","3232 BERWICK KNOLL, BROOKLYN PARK, MN, 55443",43842967,"L"
511066,"3232 BOSTONIAN DRIVE","ROSSMOOR","CA",90720,33.7911388360001,-118.077110457,66,"3232 BOSTONIAN DRIVE, ROSSMOOR, CA, 90720","Match","Exact","3232 BOSTONIAN DR, ROSSMOOR, CA, 90720",144002785,"R"
511067,"3232 BOXDALE STREET","MEMPHIS","TN",38118,35.06026403,-89.9028722739999,67,"3232 BOXDALE STREET, MEMPHIS, TN, 38118","Match","Exact","3232 BOXDALE ST, MEMPHIS, TN, 38118",72927796,"L"
511068,"3232 BRUNER AVE","BRONX","NY",10469,40.875269045,-73.839497147,68,"3232 BRUNER AVE, BRONX, NY, 10469","Match","Exact","3232 BRUNER AVE, BRONX, NY, 10469",80310420,"R"
511069,"3232 CAHABA MANOR DRIVE","TRUSSVILE","AL",35173,33.5974196450001,-86.57819907,69,"3232 CAHABA MANOR DRIVE, TRUSSVILE, AL, 35173","Match","Non_Exact","3232 CAHABA MANOR DR, TRUSSVILLE, AL, 35173",630197712,"R"
511070,"3232 CALIFORNIA STREET","COSTA MESA","CA",92626,33.689683358,-117.932297834,70,"3232 CALIFORNIA STREET, COSTA MESA, CA, 92626","Match","Exact","3232 CALIFORNIA ST, COSTA MESA, CA, 92626",144039447,"R"
511071,"3232 CHARLEMAGNE AVENUE","LONG BEACH","CA",90808,33.8162189980001,-118.130422311,71,"3232 CHARLEMAGNE AVENUE, LONG BEACH, CA, 90808","Match","Non_Exact","3232 N CHARLEMAGNE AVE, LONG BEACH, CA, 90808",141700894,"R"
511072,"3232 CLIFTON AVE","SAINT LOUIIS","MO",63139,38.6034281660001,-90.294144499,72,"3232 CLIFTON AVE, SAINT LOUIIS, MO, 63139","Match","Non_Exact","3232 CLIFTON AVE, SAINT LOUIS, MO, 63139",605124732,"L"
511073,"3232 CLIFTON AVE","SAINT LOUIS","MO",63139,38.6034281660001,-90.294144499,73,"3232 CLIFTON AVE, SAINT LOUIS, MO, 63139","Match","Exact","3232 CLIFTON AVE, SAINT LOUIS, MO, 63139",605124732,"L"
511074,"3232 CLINTON AVENUE S FLOOR 2","MINNEAPOLIS","MN",55408,44.9443324120001,-93.271555978,74,"3232 CLINTON AVENUE S FLOOR 2, MINNEAPOLIS, MN, 55408","Match","Exact","3232 CLINTON AVE S, MINNEAPOLIS, MN, 55408",43633795,"R"
511075,"3232 CONNEMARA TRACE","LAWRENCEVILLE","GA",30044,33.8972885360001,-84.0793475299999,75,"3232 CONNEMARA TRACE, LAWRENCEVILLE, GA, 30044","Match","Exact","3232 CONNEMARA TRCE, LAWRENCEVILLE, GA, 30044",88915685,"L"
511076,"3232 COUNTRY CLUB DR","CAMERON PARK","CA",95682,38.660200165,-120.975466023,76,"3232 COUNTRY CLUB DR, CAMERON PARK, CA, 95682","Match","Exact","3232 COUNTRY CLUB DR, CAMERON PARK, CA, 95682",133024453,"L"
511077,"3232 CULBRETH ROAD","FAYETTEVILLE","NC",28312,34.9578109020001,-78.757317455,77,"3232 CULBRETH ROAD, FAYETTEVILLE, NC, 28312","Match","Exact","3232 CULBRETH RD, FAYETTEVILLE, NC, 28312",64235675,"R"
511078,"3232 DEERFIELD DR","TAMPA","FL",33619,27.9184979190001,-82.363945985,78,"3232 DEERFIELD DR, TAMPA, FL, 33619","Match","Exact","3232 DEERFIELD DR, TAMPA, FL, 33619",104538969,"L"
511079,"3232 E 27TH","HAYS","KS",67601,38.885419798,-99.283139636,79,"3232 E 27TH, HAYS, KS, 67601","Match","Non_Exact","3232 E 27TH ST, HAYS, KS, 67601",149828999,"R"
511080,"3232 E 3RD STREET","TUCSON","AZ",85716,32.2324627510001,-110.924215004,80,"3232 E 3RD STREET, TUCSON, AZ, 85716","Match","Exact","3232 E 3RD ST, TUCSON, AZ, 85716",121174994,"R"
511081,"3232 E BIRCHWOOD PLACE","CHANDLER","AZ",85249,33.226904565,-111.786735999,81,"3232 E BIRCHWOOD PLACE, CHANDLER, AZ, 85249","Match","Exact","3232 E BIRCHWOOD PL, CHANDLER, AZ, 85249",128854227,"L"
511082,"3232 E CYPRESS ST","PHOENIX","AZ",85008,33.4723610250001,-112.011992801,82,"3232 E CYPRESS ST, PHOENIX, AZ, 85008","Match","Exact","3232 E CYPRESS ST, PHOENIX, AZ, 85008",128223116,"L"
511083,"3232 GEORGETOWN ROAD","PARIS","KY",40361,38.2237822330001,-84.409847653,83,"3232 GEORGETOWN ROAD, PARIS, KY, 40361","Match","Exact","3232 GEORGETOWN RD, PARIS, KY, 40361",31877824,"L"
511084,"3232 GEORGIA AVE NW  505","WASHINGTON","DC",20010,38.9306953440001,-77.0234746949999,84,"3232 GEORGIA AVE NW  505, WASHINGTON, DC, 20010","Match","Exact","3232 GEORGIA AVE NW, WASHINGTON, DC, 20010",76224174,"L"
511085,"3232 GEORGIA AVENUE NW APT 305","WASHINGTON","DC",20010,38.9306953440001,-77.0234746949999,85,"3232 GEORGIA AVENUE NW APT 305, WASHINGTON, DC, 20010","Match","Exact","3232 GEORGIA AVE NW, WASHINGTON, DC, 20010",76224174,"L"
511086,"3232 GEORIGA AVE NW STE 605","WASHINGTON","DC",20010,38.9306953440001,-77.0234746949999,86,"3232 GEORIGA AVE NW STE 605, WASHINGTON, DC, 20010","Match","Non_Exact","3232 GEORGIA AVE NW, WASHINGTON, DC, 20010",76224174,"L"
511087,"3232 HAWKSBURY CT","DUBLIN","OH",43017,40.074478051,-83.103294455,87,"3232 HAWKSBURY CT, DUBLIN, OH, 43017","Match","Exact","3232 HAWKSBURY CT, DUBLIN, OH, 43017",218660112,"R"
511088,"3232 HENDERSONVILLE HWY","PISGAH FOREST","NC",28768,NA,NA,88,"3232 HENDERSONVILLE HWY, PISGAH FOREST, NC, 28768","Tie",NA,NA,NA,NA
511089,"3232 HIGH POINT","SPRINGFIELD","MO",65810,NA,NA,89,"3232 HIGH POINT, SPRINGFIELD, MO, 65810","No_Match",NA,NA,NA,NA
511090,"3232 HILLCREST DR","BOZEMAN","MT",59715,45.645974375,-111.049074688,90,"3232 HILLCREST DR, BOZEMAN, MT, 59715","Match","Exact","3232 HILLCREST DR, BOZEMAN, MT, 59715",615078056,"L"
511091,"3232 HUNTERS WAY","BELLEVILLE","IL",62221,38.539258939,-89.934931304,91,"3232 HUNTERS WAY, BELLEVILLE, IL, 62221","Match","Exact","3232 HUNTERS WAY, BELLEVILLE, IL, 62221",640637227,"R"
511092,"3232 HUNTERS WAY","FAIRVIEW HEIGHTS","IL",62208,NA,NA,92,"3232 HUNTERS WAY, FAIRVIEW HEIGHTS, IL, 62208","No_Match",NA,NA,NA,NA
511093,"3232 HUNTERSRIDGE LN","TAYLOR MILL","KY",41015,39.0084385390001,-84.5156613089999,93,"3232 HUNTERSRIDGE LN, TAYLOR MILL, KY, 41015","Match","Exact","3232 HUNTERSRIDGE LN, TAYLOR MILL, KY, 41015",103885904,"R"
511094,"3232 JEFFREY DRIVE","MCKEESPORT","PA",15133,40.320628163,-79.854466266,94,"3232 JEFFREY DRIVE, MCKEESPORT, PA, 15133","Match","Exact","3232 JEFFREY DR, MCKEESPORT, PA, 15133",51678133,"R"
511095,"3232 JUDAH ST","SAN FRANCISCO","CA",94122,37.7608407130001,-122.496660388,95,"3232 JUDAH ST, SAN FRANCISCO, CA, 94122","Match","Exact","3232 JUDAH ST, SAN FRANCISCO, CA, 94122",192276899,"R"
511096,"3232 KENNETT SQ","PITTSBURGH","PA",15213,40.4346411110001,-79.9611552549999,96,"3232 KENNETT SQ, PITTSBURGH, PA, 15213","Match","Exact","3232 KENNETT SQ, PITTSBURGH, PA, 15213",51649010,"R"
511097,"3232 KIMBALL AVENUE","TOLEDO","OH",43610,41.6809127110001,-83.558672459,97,"3232 KIMBALL AVENUE, TOLEDO, OH, 43610","Match","Exact","3232 KIMBALL AVE, TOLEDO, OH, 43610",33934541,"R"
511098,"3232 L STREET","OMAHA","NE",68107,41.212245825,-95.961735754,98,"3232 L STREET, OMAHA, NE, 68107","Match","Exact","3232 L ST, OMAHA, NE, 68107",116986287,"R"
511099,"3232 MANOR GLENN CT","VIRGINIA BEACH","VA",23453,36.802128639,-76.080544764,99,"3232 MANOR GLENN CT, VIRGINIA BEACH, VA, 23453","Match","Exact","3232 MANOR GLENN CT, VIRGINIA BCH, VA, 23453",122292870,"R"
511100,"3232 MCKINNEY AVE STE 500","DALLAS","TX",75201,32.8034440340001,-96.799929501,100,"3232 MCKINNEY AVE STE 500, DALLAS, TX, 75201","Match","Non_Exact","3232 MCKINNEY AVE, DALLAS, TX, 75204",102909161,"R"
511101,"3232 MESQUITE DR","VENUS","TX",76084,32.5167892000001,-97.132744845,101,"3232 MESQUITE DR, VENUS, TX, 76084","Match","Exact","3232 MESQUITE DR, VENUS, TX, 76084",225914351,"R"
511102,"3232 MINNESOTA  AVE SE","WSHINGTON","DC",20019,38.879145458,-76.960710491,102,"3232 MINNESOTA  AVE SE, WSHINGTON, DC, 20019","Match","Non_Exact","3232 MINNESOTA AVE SE, WASHINGTON, DC, 20019",76231914,"L"
511103,"3232 MINNESOTA AVE SE","WASHINGTON","DC",20019,38.879145458,-76.960710491,103,"3232 MINNESOTA AVE SE, WASHINGTON, DC, 20019","Match","Exact","3232 MINNESOTA AVE SE, WASHINGTON, DC, 20019",76231914,"L"
511104,"3232 N CLARK STREET","CHICAGO","IL",60657,41.940611877,-87.651211893,104,"3232 N CLARK STREET, CHICAGO, IL, 60657","Match","Exact","3232 N CLARK ST, CHICAGO, IL, 60657",111766715,"L"
511105,"3232 N LOCUST ST APT 316","DENTON","TX",76207,33.244800947,-97.131822556,105,"3232 N LOCUST ST APT 316, DENTON, TX, 76207","Match","Non_Exact","3232 N LOCUST ST, DENTON, TX, 76207",614169042,"L"
511106,"3232 N LOCUST UNIT 126","DENTON","TX",76207,NA,NA,106,"3232 N LOCUST UNIT 126, DENTON, TX, 76207","No_Match",NA,NA,NA,NA
511107,"3232 N TUSCON BLVD APT 212","TUSCON","AZ",85716,NA,NA,107,"3232 N TUSCON BLVD APT 212, TUSCON, AZ, 85716","No_Match",NA,NA,NA,NA
511108,"3232 N VAN RD","OLNEY","IL",62450,38.688610763,-88.066360483,108,"3232 N VAN RD, OLNEY, IL, 62450","Match","Exact","3232 N VAN RD, OLNEY, IL, 62450",29953283,"R"
511109,"3232 NELSON AVE","ROBBINS","IL",60472,41.6342198840001,-87.706532104,109,"3232 NELSON AVE, ROBBINS, IL, 60472","Match","Exact","3232 NELSON AVE, ROBBINS, IL, 60472",112208073,"R"
511110,"3232 NORTH HALSTED AVE  711","CHICAGO","IL",60657,41.941027229,-87.6493065929999,110,"3232 NORTH HALSTED AVE  711, CHICAGO, IL, 60657","Match","Non_Exact","3232 N HALSTED ST, CHICAGO, IL, 60657",605198724,"L"
511111,"3232 NORTH HALSTED AVE 711","CHICAGO","IL",60657,41.941027229,-87.6493065929999,111,"3232 NORTH HALSTED AVE 711, CHICAGO, IL, 60657","Match","Non_Exact","3232 N HALSTED ST, CHICAGO, IL, 60657",605198724,"L"
511112,"3232 NORTH HILLS BOULEVARD","F","AR",72703,NA,NA,112,"3232 NORTH HILLS BOULEVARD, F, AR, 72703","No_Match",NA,NA,NA,NA
511113,"3232 NORTH LOCUST APT 516","DENTON","TX",76207,33.244782425,-97.131822556,113,"3232 NORTH LOCUST APT 516, DENTON, TX, 76207","Match","Non_Exact","3232 N LOCUST ST, DENTON, TX, 76207",614169042,"L"
511114,"3232 NW 34TH CT","LAUDERDALE LAKES","FL",33309,26.1698425290001,-80.1902818189999,114,"3232 NW 34TH CT, LAUDERDALE LAKES, FL, 33309","Match","Exact","3232 NW 34TH CT, LAUDERDALE LAKES, FL, 33309",114762555,"L"
511115,"3232 PARKVIEW DR","BENSALEM","PA",19020,40.0974437020001,-74.938982035,115,"3232 PARKVIEW DR, BENSALEM, PA, 19020","Match","Exact","3232 PARKVIEW DR, BENSALEM, PA, 19020",134714795,"L"
511116,"3232 PERCY AVENUE","OCEANSIDE","NY",11572,NA,NA,116,"3232 PERCY AVENUE, OCEANSIDE, NY, 11572","No_Match",NA,NA,NA,NA
511117,"3232 PRIEST WOODS DRIVE","NASHVILLE","TN",37214,36.1277560790001,-86.633237579,117,"3232 PRIEST WOODS DRIVE, NASHVILLE, TN, 37214","Match","Exact","3232 PRIEST WOODS DR, NASHVILLE, TN, 37214",97205618,"R"
511118,"3232 RADCLIFFE AVE","BRONX","NY",10469,40.871951349,-73.860336385,118,"3232 RADCLIFFE AVE, BRONX, NY, 10469","Match","Non_Exact","3232 RADCLIFF AVE, BRONX, NY, 10469",80303350,"R"
511119,"3232 RIO MIRANDA DR STE B-2","BAKERSFIELD","CA",93308,NA,NA,119,"3232 RIO MIRANDA DR STE B-2, BAKERSFIELD, CA, 93308","No_Match",NA,NA,NA,NA
511120,"3232 RITTER RD","WATERLOO","NY",13165,42.867808928,-76.8876398899999,120,"3232 RITTER RD, WATERLOO, NY, 13165","Match","Exact","3232 RITTER RD, WATERLOO, NY, 13165",14681587,"L"
511121,"3232 SADDLEWOOD CIRCLE","MYRLE BEACH","SC",29579,33.7884778270001,-78.9551996549999,121,"3232 SADDLEWOOD CIRCLE, MYRLE BEACH, SC, 29579","Match","Non_Exact","3232 SADDLEWOOD CIR, MYRTLE BEACH, SC, 29579",630413278,"L"
511122,"3232 SAINT ANN STREET","NEW ORLEANS","LA",70119,29.9752403790001,-90.088078493,122,"3232 SAINT ANN STREET, NEW ORLEANS, LA, 70119","Match","Exact","3232 SAINT ANN ST, NEW ORLEANS, LA, 70119",191707747,"L"
511123,"3232 SAVILLE ST SW","ATLANTA","GA",30331,33.665645225,-84.5162424389999,123,"3232 SAVILLE ST SW, ATLANTA, GA, 30331","Match","Non_Exact","3232 SAVILLE ST, ATLANTA, GA, 30331",647335543,"L"
511124,"3232 SHORESIDE PKWY","HURST","TX",76053,32.8050824520001,-97.191220959,124,"3232 SHORESIDE PKWY, HURST, TX, 76053","Match","Exact","3232 SHORESIDE PKWY, HURST, TX, 76053",102113923,"R"
511125,"3232 SILVER LAKE COURT","KISSIMMEE","FL",34744,28.3449528100001,-81.2914051549999,125,"3232 SILVER LAKE COURT, KISSIMMEE, FL, 34744","Match","Exact","3232 SILVER LAKE CT, KISSIMMEE, FL, 34744",629466508,"L"
511126,"3232 SINGLE PEAK","SAN ANTONIO","TX",78261,29.705181731,-98.434354586,126,"3232 SINGLE PEAK, SAN ANTONIO, TX, 78261","Match","Exact","3232 SINGLE PEAK, SAN ANTONIO, TX, 78261",101494749,"R"
511127,"3232 SOUTH 400 EAST APT 1000","SALT LAKE CITY","UT",84115,40.700455296,-111.879804162,127,"3232 SOUTH 400 EAST APT 1000, SALT LAKE CITY, UT, 84115","Match","Exact","3232 S 400 E, SALT LAKE CITY, UT, 84115",176079671,"R"
511128,"3232 TAMARAC LANE","JOHNSTOWN","CO",80534,40.3304819270001,-104.946642318,128,"3232 TAMARAC LANE, JOHNSTOWN, CO, 80534","Match","Exact","3232 TAMARAC LN, JOHNSTOWN, CO, 80534",188753233,"L"
511129,"3232 THOMAS RD","BLOOMINGTON","IN",47404,39.1995213860001,-86.630226955,129,"3232 THOMAS RD, BLOOMINGTON, IN, 47404","Match","Non_Exact","3232 N THOMAS RD, BLOOMINGTON, IN, 47404",42337246,"R"
511130,"3232 US HWY 11","CUBA","AL",36907,32.4455331990001,-88.359304078,130,"3232 US HWY 11, CUBA, AL, 36907","Match","Exact","3232 US HWY 11, CUBA, AL, 36907",657279,"R"
511131,"3232 VALLEY VIEW STREET","POWDER SPRINGS","GA",30127,33.880197916,-84.648595799,131,"3232 VALLEY VIEW STREET, POWDER SPRINGS, GA, 30127","Match","Non_Exact","3232 VALLEY VIEW LN, POWDER SPGS, GA, 30127",17172884,"R"
511132,"3232 W 111TH PL","INGLEWOOD","CA",90303,33.9338698720001,-118.329051583,132,"3232 W 111TH PL, INGLEWOOD, CA, 90303","Match","Exact","3232 W 111TH PL, INGLEWOOD, CA, 90303",142752070,"L"
511133,"3232 W 56TH STREET","INDIANAPOLIS","IN",46228,39.8535897780001,-86.2146805519999,133,"3232 W 56TH STREET, INDIANAPOLIS, IN, 46228","Match","Exact","3232 W 56TH ST, INDIANAPOLIS, IN, 46228",107982017,"R"
511134,"3232 W CLARKSTON CIR","SOUTH JORDAN","UT",84095,40.558981439,-111.968409429,134,"3232 W CLARKSTON CIR, SOUTH JORDAN, UT, 84095","Match","Exact","3232 CLARKSTON CIR, SOUTH JORDAN, UT, 84095",176154515,"R"
511135,"3232 W SAINT PAUL AVE","MILWAUKEE","WI",53208,43.0347822620001,-87.954476566,135,"3232 W SAINT PAUL AVE, MILWAUKEE, WI, 53208","Match","Exact","3232 W ST PAUL AVE, MILWAUKEE, WI, 53208",77740051,"R"
511136,"3232 WEST CLARKSTON CIR","SOUTH JORDAN","UT",84095,40.5589813010001,-111.968405018,136,"3232 WEST CLARKSTON CIR, SOUTH JORDAN, UT, 84095","Match","Non_Exact","3232 CLARKSTON CIR, SOUTH JORDAN, UT, 84095",176154515,"R"
511137,"3232 WESTCHASE BLVD","HOUSTON","TX",77073,NA,NA,137,"3232 WESTCHASE BLVD, HOUSTON, TX, 77073","No_Match",NA,NA,NA,NA
511138,"3232 WHITTENBURG DR","MARYVILLE","TN",37804,35.7717750090001,-83.89703952,138,"3232 WHITTENBURG DR, MARYVILLE, TN, 37804","Match","Exact","3232 WHITTENBURG DR, MARYVILLE, TN, 37804",618139899,"L"
511139,"3232","TULSA","OK",74110,NA,NA,139,"3232, TULSA, OK, 74110","No_Match",NA,NA,NA,NA
511140,"32320 AMARIGIA RD","ARCHIE","MO",64725,38.531924179,-94.453768867,140,"32320 AMARIGIA RD, ARCHIE, MO, 64725","Match","Non_Exact","32320 S AMARUGIA RD, ARCHIE, MO, 64725",100915258,"L"
511141,"32320 BIG SANDY DR","COARSEGOLD","CA",93614,37.218366368,-119.705451589,141,"32320 BIG SANDY DR, COARSEGOLD, CA, 93614","Match","Exact","32320 BIG SANDY DR, COARSEGOLD, CA, 93614",102331319,"R"
511142,"32322 224TH AVE SE","KENT","WA",98042,47.312187652,-122.044099768,142,"32322 224TH AVE SE, KENT, WA, 98042","Match","Exact","32322 224TH AVE SE, KENT, WA, 98042",186641289,"L"
511143,"32323 316TH STREET","LE SUEUR","MN",56058,44.494056351,-93.913738236,143,"32323 316TH STREET, LE SUEUR, MN, 56058","Match","Exact","32323 316TH ST, LE SUEUR, MN, 56058",607221825,"R"
511144,"32326 CLINTON KEITH RD","WILDOMAR","CA",92595,NA,NA,144,"32326 CLINTON KEITH RD, WILDOMAR, CA, 92595","No_Match",NA,NA,NA,NA
511145,"32326 US 52","CHATFIELD","MN",55923,43.822003755,-92.14121113,145,"32326 US 52, CHATFIELD, MN, 55923","Match","Non_Exact","32326 US HWY 52, CHATFIELD, MN, 55923",27574159,"R"
511146,"32328 SHERIDAN","BEVERLY HILLS","MI",48025,42.526616351,-83.208871937,146,"32328 SHERIDAN, BEVERLY HILLS, MI, 48025","Match","Non_Exact","32328 SHERIDAN DR, BEVERLY HILLS, MI, 48025",69735737,"R"
511147,"32328 WILDFLOWER TRAIL","SPANISH FORT","AL",36527,30.696017469,-87.810868472,147,"32328 WILDFLOWER TRAIL, SPANISH FORT, AL, 36527","Match","Exact","32328 WILDFLOWER TRL, SPANISH FORT, AL, 36527",648126764,"R"
511148,"3233 52ND AVE SW","ANNISTON","AL",36863,32.821729797,-85.250728069,148,"3233 52ND AVE SW, ANNISTON, AL, 36863","Match","Non_Exact","3233 52ND AVE SW, LANETT, AL, 36863",630814040,"L"
511149,"3233 52ND AVE SW","LANETT","AL",36863,32.821729797,-85.250728069,149,"3233 52ND AVE SW, LANETT, AL, 36863","Match","Exact","3233 52ND AVE SW, LANETT, AL, 36863",630814040,"L"
511150,"3233 ADIE ROAD","SAINT ANN","MO",63074,38.718253179,-90.401277346,150,"3233 ADIE ROAD, SAINT ANN, MO, 63074","Match","Exact","3233 ADIE RD, SAINT ANN, MO, 63074",100117735,"L"
511151,"3233 AMANDA BELLE","SOUTHAVEN","MS",38672,34.938469352,-89.9328951849999,151,"3233 AMANDA BELLE, SOUTHAVEN, MS, 38672","Match","Exact","3233 AMANDA BELLE, SOUTHAVEN, MS, 38672",614094757,"L"
511152,"3233 ASHWOOD PARK DRIVE","BELMONT","NC",28012,35.1584541300001,-81.0283960419999,152,"3233 ASHWOOD PARK DRIVE, BELMONT, NC, 28012","Match","Exact","3233 ASHWOOD PARK DR, BELMONT, NC, 28012",633795055,"L"
511153,"3233 BARRINGTON DRIVE","HARRISONBURG","VA",22801,38.39552265,-78.854085841,153,"3233 BARRINGTON DRIVE, HARRISONBURG, VA, 22801","Match","Exact","3233 BARRINGTON DR, HARRISONBURG, VA, 22801",635367455,"L"
511154,"3233 BRICK ROAD","CARROLTOWN","PA",15722,40.5820265630001,-78.704613588,154,"3233 BRICK ROAD, CARROLTOWN, PA, 15722","Match","Non_Exact","3233 BRICK RD, CARROLLTOWN, PA, 15722",635548169,"R"
511155,"3233 BRIGHTON PLACE","LEXINGTON","KY",40509,38.012061546,-84.4152405299999,155,"3233 BRIGHTON PLACE, LEXINGTON, KY, 40509","Match","Non_Exact","3233 BRIGHTON PLACE DR, LEXINGTON, KY, 40509",31940110,"R"
511156,"3233 BROOKASHER DR","JACKSONVILLE","FL",32218,30.4271541260001,-81.6989289809999,156,"3233 BROOKASHER DR, JACKSONVILLE, FL, 32218","Match","Exact","3233 BROOKASHER DR, JACKSONVILLE, FL, 32218",623830253,"L"
511157,"3233 BROOKSHIRE WAY","DULUTH","GA",30096,33.999086817,-84.1296093729999,157,"3233 BROOKSHIRE WAY, DULUTH, GA, 30096","Match","Exact","3233 BROOKSHIRE WAY, DULUTH, GA, 30096",88882979,"L"
511158,"3233 C STREET SE","WASHINGTON","DC",20019,NA,NA,158,"3233 C STREET SE, WASHINGTON, DC, 20019","No_Match",NA,NA,NA,NA
511159,"3233 CHESTNUT RIDGE ROAD","GRANTSVILLE","MD",21536,39.6976508710001,-79.098662963,159,"3233 CHESTNUT RIDGE ROAD, GRANTSVILLE, MD, 21536","Match","Exact","3233 CHESTNUT RIDGE RD, GRANTSVILLE, MD, 21536",640365077,"L"
511160,"3233 CONTINENTAL DRIVE","MISSOURI CITY","TX",77459,29.5822645550001,-95.55387395,160,"3233 CONTINENTAL DRIVE, MISSOURI CITY, TX, 77459","Match","Exact","3233 CONTINENTAL DR, MISSOURI CITY, TX, 77459",78346857,"R"
511161,"3233 D STREET SE","WASHINGTON DC","DC",20019,38.884420705,-76.960843869,161,"3233 D STREET SE, WASHINGTON DC, DC, 20019","Match","Exact","3233 D ST SE, WASHINGTON, DC, 20019",76231891,"R"
511162,"3233 DE LA CRUZ BLVD / SUITE D","SANTA CLARA","CA",95054,37.382476081,-121.941488004,162,"3233 DE LA CRUZ BLVD / SUITE D, SANTA CLARA, CA, 95054","Match","Non_Exact","3233 DE LA CRUZ BLVD, SANTA CLARA, CA, 95054",647586457,"R"
511163,"3233 DE LA CRUZ BLVD UNIT D","SAN JOSE","CA",95054,NA,NA,163,"3233 DE LA CRUZ BLVD UNIT D, SAN JOSE, CA, 95054","No_Match",NA,NA,NA,NA
511164,"3233 DUTCH TOWN ROAD","HOMER","LA",71270,32.788572667,-93.0708396799999,164,"3233 DUTCH TOWN ROAD, HOMER, LA, 71270","Match","Non_Exact","3233 DUTCHTOWN RD, HOMER, LA, 71040",639195881,"L"
511165,"3233 E DESERT FLOWER LANE","PHOENIX","AZ",85044,33.319337869,-112.01447259,165,"3233 E DESERT FLOWER LANE, PHOENIX, AZ, 85044","Match","Exact","3233 E DESERT FLOWER LN, PHOENIX, AZ, 85044",128784714,"L"
511166,"3233 E VIA MONTE VERDI","CLOVIS","CA",93619,36.915942063,-119.725267094,166,"3233 E VIA MONTE VERDI, CLOVIS, CA, 93619","Match","Exact","3233 E VIA MONTE VERDI, CLOVIS, CA, 93619",606261178,"R"
511167,"3233 EAST MEMORIAL ROAD SUITE 103","EDMOND","OK",73013,35.6091568300001,-97.456441765,167,"3233 EAST MEMORIAL ROAD SUITE 103, EDMOND, OK, 73013","Match","Exact","3233 E MEMORIAL RD, EDMOND, OK, 73013",100426071,"L"
511168,"3233 FIRST AVE","YORK","PA",17402,39.9759036620001,-76.661275659,168,"3233 FIRST AVE, YORK, PA, 17402","Match","Exact","3233 1ST AVE, YORK, PA, 17402",88733728,"L"
511169,"3233 FRIENDSHIP","IOWA CITY","IA",52245,41.655352801,-91.4857149649999,169,"3233 FRIENDSHIP, IOWA CITY, IA, 52245","Match","Non_Exact","3233 FRIENDSHIP ST, IOWA CITY, IA, 52245",84496777,"R"
511170,"3233 GALAXY BLVD","STERLING HEIGHTS","MI",48314,42.6183861810001,-83.079495143,170,"3233 GALAXY BLVD, STERLING HEIGHTS, MI, 48314","Match","Exact","3233 GALAXY BLVD, STERLING HEIGHTS, MI, 48314",618494670,"L"
511171,"3233 GRUBBER RD","MONROE","MI",48161,NA,NA,171,"3233 GRUBBER RD, MONROE, MI, 48161","No_Match",NA,NA,NA,NA
511172,"3233 HIGH RIDGE BLVD","HIGH RIDGE","MO",63049,38.4531885150001,-90.540333845,172,"3233 HIGH RIDGE BLVD, HIGH RIDGE, MO, 63049","Match","Exact","3233 HIGH RIDGE BLVD, HIGH RIDGE, MO, 63049",649761831,"R"
511173,"3233 KATHY LN","FORT WORTH","TX",76123,32.623837049,-97.36546372,173,"3233 KATHY LN, FORT WORTH, TX, 76123","Match","Exact","3233 KATHY LN, FORT WORTH, TX, 76123",642860283,"L"
511174,"3233 KEMPER STREET APT 300","SAN DIEGO","CA",92110,32.750868242,-117.21607456,174,"3233 KEMPER STREET APT 300, SAN DIEGO, CA, 92110","Match","Exact","3233 KEMPER ST, SAN DIEGO, CA, 92110",195674353,"R"
511175,"3233 MABERRY","GRAND PRAIRIE","TX",75052,32.6923936150001,-97.033896068,175,"3233 MABERRY, GRAND PRAIRIE, TX, 75052","Match","Non_Exact","3233 MABERRY CT, GRAND PRAIRIE, TX, 75052",102984458,"R"
511176,"3233 MANGUM RD   APT 201","HOUSTON","TX",77092,29.8182661390001,-95.459394241,176,"3233 MANGUM RD   APT 201, HOUSTON, TX, 77092","Match","Exact","3233 MANGUM RD, HOUSTON, TX, 77092",96639580,"L"
511177,"3233 MARIE LANE","FORT WORTH","TX",76123,32.6231383040001,-97.364848438,177,"3233 MARIE LANE, FORT WORTH, TX, 76123","Match","Exact","3233 MARIE LN, FORT WORTH, TX, 76123",642860288,"R"
511178,"3233 MARIPOSA AVE","PALMDALE","CA",93551,34.617893485,-118.187920818,178,"3233 MARIPOSA AVE, PALMDALE, CA, 93551","Match","Exact","3233 MARIPOSA AVE, PALMDALE, CA, 93551",141822696,"L"
511179,"3233 MARY DRIVE","MARIETTA","GA",30066,34.029428545,-84.492951928,179,"3233 MARY DRIVE, MARIETTA, GA, 30066","Match","Exact","3233 MARY DR, MARIETTA, GA, 30066",17202487,"L"
511180,"3233 MAY APPLE DR","BATAVIA","OH",45103,39.082818128,-84.0611178079999,180,"3233 MAY APPLE DR, BATAVIA, OH, 45103","Match","Exact","3233 MAY APPLE DR, BATAVIA, OH, 45103",118461916,"L"
511181,"3233 MEXICO DRIVE","NASHVILLE","TN",37218,36.181229983,-86.8372579369999,181,"3233 MEXICO DRIVE, NASHVILLE, TN, 37218","Match","Exact","3233 MEXICO DR, NASHVILLE, TN, 37218",97178875,"L"
511182,"3233 MORAINE ROAD","CAZENOVIA","NY",13035,NA,NA,182,"3233 MORAINE ROAD, CAZENOVIA, NY, 13035","No_Match",NA,NA,NA,NA
511183,"3233 N 27TH STREET","MILWAUKEE","WI",53216,43.078070602,-87.947242691,183,"3233 N 27TH STREET, MILWAUKEE, WI, 53216","Match","Exact","3233 N 27TH ST, MILWAUKEE, WI, 53216",653015628,"L"
511184,"3233 N ARSENAL AVE","INDIANAPOLIS","IN",46218,39.8142664170001,-86.134067999,184,"3233 N ARSENAL AVE, INDIANAPOLIS, IN, 46218","Match","Exact","3233 N ARSENAL AVE, INDIANAPOLIS, IN, 46218",107990166,"R"
511185,"3233 N DOUSMAN ST","MILWAUKEE","WI",53212,43.077204452,-87.896447692,185,"3233 N DOUSMAN ST, MILWAUKEE, WI, 53212","Match","Exact","3233 N DOUSMAN ST, MILWAUKEE, WI, 53212",637062880,"L"
511186,"3233 N RILEY CIR","VERONA","WI",53593,43.032067929,-89.628624524,186,"3233 N RILEY CIR, VERONA, WI, 53593","Match","Exact","3233 N RILEY CIR, VERONA, WI, 53593",49461963,"L"
511187,"3233 NE 10 STREET","POMPANO BEACH","FL",33026,26.246589031,-80.088857025,187,"3233 NE 10 STREET, POMPANO BEACH, FL, 33026","Match","Non_Exact","3233 NE 10TH ST, POMPANO BEACH, FL, 33062",114695966,"L"
511188,"3233 NE 32 AVENUE APT 302","FT LAUDERDALE","FL",33308,26.168829929,-80.103027235,188,"3233 NE 32 AVENUE APT 302, FT LAUDERDALE, FL, 33308","Match","Non_Exact","3233 NE 32ND AVE, FORT LAUDERDALE, FL, 33308",114724828,"L"
511189,"3233 NE ROSA PARK WAY","PORTLAND","OR",97211,NA,NA,189,"3233 NE ROSA PARK WAY, PORTLAND, OR, 97211","No_Match",NA,NA,NA,NA
511190,"3233 NEBRASKA","SAINT LOUIS","MO",63118,38.596917073,-90.231715697,190,"3233 NEBRASKA, SAINT LOUIS, MO, 63118","Match","Non_Exact","3233 NEBRASKA AVE, SAINT LOUIS, MO, 63118",605127265,"R"
511191,"3233 NORTH 47TH ST","MILWAUKEE","WI",53216,43.077738722,-87.972614942,191,"3233 NORTH 47TH ST, MILWAUKEE, WI, 53216","Match","Exact","3233 N 47TH ST, MILWAUKEE, WI, 53216",77732153,"L"
511192,"3233 OLMSTEAD RD","OLMSTEAD","KY",42265,36.749068944,-86.980191641,192,"3233 OLMSTEAD RD, OLMSTEAD, KY, 42265","Match","Exact","3233 OLMSTEAD RD, OLMSTEAD, KY, 42265",15833895,"R"
511193,"3233 OXFORD AVE SE","ALBANY","OR",97322,44.6221458590001,-123.065320401,193,"3233 OXFORD AVE SE, ALBANY, OR, 97322","Match","Exact","3233 OXFORD AVE SE, ALBANY, OR, 97322",623843366,"R"
511194,"3233 POPE ST SE","WASHINGTON","DC",20020,38.873615946,-76.959659459,194,"3233 POPE ST SE, WASHINGTON, DC, 20020","Match","Exact","3233 POPE ST SE, WASHINGTON, DC, 20020",645508707,"R"
511195,"3233 POPLAR RIDGE DR","GLOUCESTER","VA",23061,37.443815579,-76.641248992,195,"3233 POPLAR RIDGE DR, GLOUCESTER, VA, 23061","Match","Exact","3233 POPLAR RIDGE DR, GLOUCESTER, VA, 23061",636816606,"L"
511196,"3233 PUTNAM AVENUE","HURRICANE","WV",25526,38.4378790220001,-82.011725848,196,"3233 PUTNAM AVENUE, HURRICANE, WV, 25526","Match","Exact","3233 PUTNAM AVE, HURRICANE, WV, 25526",130510827,"R"
511197,"3233 RADCLIFFE ROAD","THOUSAND OAKS","CA",91360,34.224546296,-118.862963768,197,"3233 RADCLIFFE ROAD, THOUSAND OAKS, CA, 91360","Match","Exact","3233 RADCLIFFE RD, THOUSAND OAKS, CA, 91360",109975097,"L"
511198,"3233 RIVER ROAD","KANAKEE","IL",60901,41.0732293950001,-87.818825525,198,"3233 RIVER ROAD, KANAKEE, IL, 60901","Match","Non_Exact","3233 RIVER RD, KANKAKEE, IL, 60901",98371392,"R"
511199,"3233 ROCKCREEK DR","REX","GA",30273,33.566355319,-84.284954183,199,"3233 ROCKCREEK DR, REX, GA, 30273","Match","Non_Exact","3233 ROCK CREEK DR, REX, GA, 30273",23326354,"L"
511200,"3233 S 90TH E AVE","TULSA","OK",74145,36.116800133,-95.875929,200,"3233 S 90TH E AVE, TULSA, OK, 74145","Match","Exact","3233 S 90TH EAST AVE, TULSA, OK, 74145",166453454,"L"
511201,"3233 S HIGHPOINTE DR","NEW BERLIN","WI",53151,NA,NA,201,"3233 S HIGHPOINTE DR, NEW BERLIN, WI, 53151","Tie",NA,NA,NA,NA
511202,"3233 S LAKESHORE DR","HARBOR BEACH","MI",48441,43.755084916,-82.6201014809999,202,"3233 S LAKESHORE DR, HARBOR BEACH, MI, 48441","Match","Non_Exact","3233 S LAKESHORE RD, HARBOR BEACH, MI, 48441",161248160,"R"
511203,"3233 SE VIRGINIA AVE","GRESHAM","OR",97080,45.4743160940001,-122.375284209,203,"3233 SE VIRGINIA AVE, GRESHAM, OR, 97080","Match","Exact","3233 SE VIRGINIA AVE, GRESHAM, OR, 97080",157531265,"R"
511204,"3233 SHAMROCK DR","CHARLOTTE","NC",28215,35.2341696780001,-80.769009706,204,"3233 SHAMROCK DR, CHARLOTTE, NC, 28215","Match","Exact","3233 SHAMROCK DR, CHARLOTTE, NC, 28215",70580690,"L"
511205,"3233 SPARR BLVD","GLENDALE","CA",91208,34.1975322220001,-118.226661003,205,"3233 SPARR BLVD, GLENDALE, CA, 91208","Match","Exact","3233 SPARR BLVD, GLENDALE, CA, 91208",141609052,"L"
511206,"3233 SPARR BLVD","GLENDALE","TX",91208,NA,NA,206,"3233 SPARR BLVD, GLENDALE, TX, 91208","No_Match",NA,NA,NA,NA
511207,"3233 SUGA CREEK FALLS AVE","ATLANTA","GA",30316,NA,NA,207,"3233 SUGA CREEK FALLS AVE, ATLANTA, GA, 30316","No_Match",NA,NA,NA,NA
511208,"3233 SUGAR CREEK FALLS AVE","ATLANTA","GA",30316,33.6900698900001,-84.3055024459999,208,"3233 SUGAR CREEK FALLS AVE, ATLANTA, GA, 30316","Match","Non_Exact","3233 SUGAR CREEK FALLS AVE SE, ATLANTA, GA, 30316",23395267,"R"
511209,"3233 TAYSHEE CIR","ANCHORAGE","AK",99504,61.1915019960001,-149.755071495,209,"3233 TAYSHEE CIR, ANCHORAGE, AK, 99504","Match","Exact","3233 TAYSHEE CIR, ANCHORAGE, AK, 99504",190802984,"L"
511210,"3233 TUMBLEWEED LANE","GRAYLING","MI",49738,44.6774272000001,-84.538825748,210,"3233 TUMBLEWEED LANE, GRAYLING, MI, 49738","Match","Exact","3233 TUMBLEWEED LN, GRAYLING, MI, 49738",174464890,"R"
511211,"3233 TURTLE POINT DRIVE APT- A","FAYETTEVILLE","NC",28304,35.034404539,-78.92564172,211,"3233 TURTLE POINT DRIVE APT- A, FAYETTEVILLE, NC, 28304","Match","Exact","3233 TURTLE POINT DR, FAYETTEVILLE, NC, 28304",646521204,"L"
511212,"3233 W BEACH","CHICAGO","IL",60651,41.9073635620001,-87.708105448,212,"3233 W BEACH, CHICAGO, IL, 60651","Match","Non_Exact","3233 W BEACH AVE, CHICAGO, IL, 60651",605058380,"L"
511213,"3233 W EASTWOOD","CHICAGO","IL",69625,NA,NA,213,"3233 W EASTWOOD, CHICAGO, IL, 69625","No_Match",NA,NA,NA,NA
511214,"3233 W SANTA CLARA DRIVE","SAINT GEORGE","UT",84765,37.1329588020001,-113.658697683,214,"3233 W SANTA CLARA DRIVE, SAINT GEORGE, UT, 84765","Match","Non_Exact","3233 SANTA CLARA DR, SANTA CLARA, UT, 84765",166171044,"L"
511215,"3233 W WINDWARD PASS","SPRINGFIELD","MO",65810,37.1057151310001,-93.345568826,215,"3233 W WINDWARD PASS, SPRINGFIELD, MO, 65810","Match","Exact","3233 W WINDWARD PASS, SPRINGFIELD, MO, 65810",76710521,"R"
511216,"3233 WALTERS LANE","FORESTVILLE","MD",20747,38.84503958,-76.891877092,216,"3233 WALTERS LANE, FORESTVILLE, MD, 20747","Match","Exact","3233 WALTERS LN, FORESTVILLE, MD, 20747",647276498,"R"
511217,"3233 WAYBURN AVE SW","GRANDVILLE","MI",49418,42.90552208,-85.74884596,217,"3233 WAYBURN AVE SW, GRANDVILLE, MI, 49418","Match","Exact","3233 WAYBURN AVE SW, GRANDVILLE, MI, 49418",12453737,"R"
511218,"3233 WEST 2ND STREET APT 1","OWENSBORO","KY",42301,NA,NA,218,"3233 WEST 2ND STREET APT 1, OWENSBORO, KY, 42301","No_Match",NA,NA,NA,NA
511219,"3233 WEST DALLAS ST APT 1111","HOUSTON","TX",77019,29.7572772720001,-95.399456755,219,"3233 WEST DALLAS ST APT 1111, HOUSTON, TX, 77019","Match","Exact","3233 W DALLAS ST, HOUSTON, TX, 77019",96062116,"L"
511220,"3233 WICKLOW LANE","LAKE WYLIE","SC",29710,35.140842972,-81.09127934,220,"3233 WICKLOW LANE, LAKE WYLIE, SC, 29710","Match","Exact","3233 WICKLOW LN, LAKE WYLIE, SC, 29710",614166905,"L"
511221,"3233 WILLIAMS","RENTON","WA",98055,NA,NA,221,"3233 WILLIAMS, RENTON, WA, 98055","No_Match",NA,NA,NA,NA
511222,"3233-B CYPRESS PARK ROAD","GREENSBORO","NC",27407,36.030306545,-79.8461122959999,222,"3233-B CYPRESS PARK ROAD, GREENSBORO, NC, 27407","Match","Exact","3233 CYPRESS PARK RD, GREENSBORO, NC, 27407",131106356,"L"
511223,"32331 CAMBRIDGE","WARREN","MI",48092,NA,NA,223,"32331 CAMBRIDGE, WARREN, MI, 48092","No_Match",NA,NA,NA,NA
511224,"32331 E 721 TERRACE","WAGONER","OK",74467,35.9708089060001,-95.308915885,224,"32331 E 721 TERRACE, WAGONER, OK, 74467","Match","Exact","32331 E 721 TER, WAGONER, OK, 74467",83143972,"R"
511225,"32331 N CAMBRIDGE DRIVE","FRASER","MI",48026,42.53341763,-82.963638434,225,"32331 N CAMBRIDGE DRIVE, FRASER, MI, 48026","Match","Exact","32331 CAMBRIDGE DR, FRASER, MI, 48026",110675739,"L"
511226,"32334 RINCON RANCH RD","PAUMA VALLEY","CA",92061,33.30169555,-116.942985307,226,"32334 RINCON RANCH RD, PAUMA VALLEY, CA, 92061","Match","Exact","32334 RINCON RANCH RD, PAUMA VALLEY, CA, 92061",195309465,"L"
511227,"32334 W 281ST STREET SOUTH","BRISTOW","OK",74010,35.755334888,-96.3550276779999,227,"32334 W 281ST STREET SOUTH, BRISTOW, OK, 74010","Match","Exact","32334 W 281ST ST S, BRISTOW, OK, 74010",165894838,"L"
511228,"32335 WEST ST","KIRKLAND","IL",60146,42.0991462740001,-88.933697885,228,"32335 WEST ST, KIRKLAND, IL, 60146","Match","Exact","32335 WEST ST, KIRKLAND, IL, 60146",52268713,"L"
511229,"32336 BAYSHORE DRIVE","MILLSBORO","DE",19966,38.629794804,-75.1888867499999,229,"32336 BAYSHORE DRIVE, MILLSBORO, DE, 19966","Match","Exact","32336 BAYSHORE DR, MILLSBORO, DE, 19966",647454771,"R"
511230,"3233948201","PASADENA","CA",91105,NA,NA,230,"3233948201, PASADENA, CA, 91105","No_Match",NA,NA,NA,NA
511231,"3233D DE LA CRUZ BLVD","SANTA CLARA","CA",95054,37.382476081,-121.941488004,231,"3233D DE LA CRUZ BLVD, SANTA CLARA, CA, 95054","Match","Exact","3233 DE LA CRUZ BLVD, SANTA CLARA, CA, 95054",647586457,"R"
511232,"3234 17TH AVENUE","FOREST GROVE","OR",97116,45.515548618,-123.090656339,232,"3234 17TH AVENUE, FOREST GROVE, OR, 97116","Match","Exact","3234 17TH AVE, FOREST GROVE, OR, 97116",158176299,"R"
511233,"3234 ALPINE TERRACE","NEW RICHMOND","OH",45157,NA,NA,233,"3234 ALPINE TERRACE, NEW RICHMOND, OH, 45157","Tie",NA,NA,NA,NA
511234,"3234 ASHLAND AVENUE","INDIANAPOLIS","IN",46226,39.8161437030001,-86.038817594,234,"3234 ASHLAND AVENUE, INDIANAPOLIS, IN, 46226","Match","Exact","3234 ASHLAND AVE, INDIANAPOLIS, IN, 46226",108002619,"L"
511235,"3234 ATCHISON CIR","AURORA","CO",80011,39.7610764710001,-104.824445181,235,"3234 ATCHISON CIR, AURORA, CO, 80011","Match","Exact","3234 ATCHISON CIR, AURORA, CO, 80011",177351057,"R"
511236,"3234 BENT OAK RD","PENSACOLA","FL",32526,30.446246203,-87.30308923,236,"3234 BENT OAK RD, PENSACOLA, FL, 32526","Match","Exact","3234 BENT OAK RD, PENSACOLA, FL, 32526",93212271,"R"
511237,"3234 BOWLING GREEN CT","CINCINNATI","OH",45225,39.142791221,-84.552746503,237,"3234 BOWLING GREEN CT, CINCINNATI, OH, 45225","Match","Exact","3234 BOWLING GREEN CT, CINCINNATI, OH, 45225",103922182,"R"
511238,"3234 BRIDGE DR","EAST JORDAN","MI",49727,45.2561083360001,-85.1586592639999,238,"3234 BRIDGE DR, EAST JORDAN, MI, 49727","Match","Exact","3234 BRIDGE DR, EAST JORDAN, MI, 49727",134484556,"R"
511239,"3234 CAMPBELL STREET","KANSAS CITY","MO",64109,39.0681168040001,-94.574376484,239,"3234 CAMPBELL STREET, KANSAS CITY, MO, 64109","Match","Exact","3234 CAMPBELL ST, KANSAS CITY, MO, 64109",91446395,"R"
511240,"3234 CHADBOURNE ROAD","SHAKER HEIGHTS","OH",44120,41.471589325,-81.574089552,240,"3234 CHADBOURNE ROAD, SHAKER HEIGHTS, OH, 44120","Match","Exact","3234 CHADBOURNE RD, SHAKER HEIGHTS, OH, 44120",61123533,"R"
511241,"3234 COLLINS STREET","ROCKFORD","IL",61109,42.226411957,-89.07839949,241,"3234 COLLINS STREET, ROCKFORD, IL, 61109","Match","Exact","3234 COLLINS ST, ROCKFORD, IL, 61109",49292930,"L"
511242,"3234 COUNTY RD 71","HEFLIN","AL",36264,33.5957809720001,-85.442423767,242,"3234 COUNTY RD 71, HEFLIN, AL, 36264","Match","Exact","3234 CO RD 71, HEFLIN, AL, 36264",636430966,"L"
511243,"3234 COUNTY ROAD 1141","CULLMAN","AL",35057,34.2360286030001,-86.947571271,243,"3234 COUNTY ROAD 1141, CULLMAN, AL, 35057","Match","Exact","3234 CO RD 1141, CULLMAN, AL, 35057",639891967,"R"
511244,"3234 DOTHAN ROAD","BRINSON","GA",39825,30.94974878,-84.702916795,244,"3234 DOTHAN ROAD, BRINSON, GA, 39825","Match","Exact","3234 DOTHAN RD, BRINSON, GA, 39825",636635910,"R"
511245,"3234 E ANDERSON STREET","INVERNESS","FL",34453,28.864223947,-82.380720427,245,"3234 E ANDERSON STREET, INVERNESS, FL, 34453","Match","Non_Exact","3234 E ANDERSON, INVERNESS, FL, 34453",86201267,"L"
511246,"3234 E MONO","FRESNO","CA",93702,36.737001639,-119.770279898,246,"3234 E MONO, FRESNO, CA, 93702","Match","Non_Exact","3234 E MONO AVE, FRESNO, CA, 93702",197580662,"R"
511247,"3234 E TRACTION RD","CRAWFORDSVILLE","IN",47933,40.0396534070001,-86.843706579,247,"3234 E TRACTION RD, CRAWFORDSVILLE, IN, 47933","Match","Exact","3234 TRACTION RD, CRAWFORDSVILLE, IN, 47933",29362993,"L"
511248,"3234 EMPIRE BLVD SW","ATLANTA","GA",30354,33.6675562230001,-84.39293846,248,"3234 EMPIRE BLVD SW, ATLANTA, GA, 30354","Match","Exact","3234 EMPIRE BLVD SW, ATLANTA, GA, 30354",17412094,"L"
511249,"3234 ESPERANZA CT","SAN JOSE","CA",95135,37.3069060890001,-121.761558075,249,"3234 ESPERANZA CT, SAN JOSE, CA, 95135","Match","Exact","3234 ESPERANZA CT, SAN JOSE, CA, 95135",123171334,"L"
511250,"3234 FORREST RUN DRIVE","FORESTVILLE","MD",20747,38.8472578010001,-76.88903393,250,"3234 FORREST RUN DRIVE, FORESTVILLE, MD, 20747","Match","Non_Exact","3234 FOREST RUN DR, FORESTVILLE, MD, 20747",76356686,"L"
511251,"3234 FRICK RD","HOUSTON","TX",77086,29.9229245500001,-95.472444669,251,"3234 FRICK RD, HOUSTON, TX, 77086","Match","Exact","3234 FRICK RD, HOUSTON, TX, 77086",96653614,"L"
511252,"3234 FRICK ROAD","HOUSTON","TX",77086,29.9229245500001,-95.472444669,252,"3234 FRICK ROAD, HOUSTON, TX, 77086","Match","Exact","3234 FRICK RD, HOUSTON, TX, 77086",96653614,"L"
511253,"3234 GERVAIS LANE","MYRTLE BEACH","SC",29588,33.624959645,-79.027899727,253,"3234 GERVAIS LANE, MYRTLE BEACH, SC, 29588","Match","Exact","3234 GERVAIS LN, MYRTLE BEACH, SC, 29588",631030994,"R"
511254,"3234 GLENWOOD ST","HIGHLAND","IN",46322,41.5660597630001,-87.450895652,254,"3234 GLENWOOD ST, HIGHLAND, IN, 46322","Match","Exact","3234 GLENWOOD ST, HIGHLAND, IN, 46322",98428314,"R"
511255,"3234 HAMMOND COURT","INDIANAPOLIS","IN",46268,39.8696869940001,-86.215107168,255,"3234 HAMMOND COURT, INDIANAPOLIS, IN, 46268","Match","Exact","3234 HAMMOND CT, INDIANAPOLIS, IN, 46268",108039617,"L"
511256,"3234 HAMMONDS COURT","INDIANAPOLIS","IN",46268,NA,NA,256,"3234 HAMMONDS COURT, INDIANAPOLIS, IN, 46268","No_Match",NA,NA,NA,NA
511257,"3234 HIGHPOINT COURT","SNELLVILLE","GA",30078,33.8485173510001,-84.0425435509999,257,"3234 HIGHPOINT COURT, SNELLVILLE, GA, 30078","Match","Non_Exact","3234 HIGH POINT CT, SNELLVILLE, GA, 30078",88901196,"L"
511258,"3234 HWY 29","BREWTON","AL",36426,31.082587684,-87.008023276,258,"3234 HWY 29, BREWTON, AL, 36426","Match","Non_Exact","3234 US HWY 29, BREWTON, AL, 36426",1933049,"L"
511259,"3234 LIBERTY CIRCLE","JACKSONVILLE","FL",32206,30.3579954680001,-81.649946696,259,"3234 LIBERTY CIRCLE, JACKSONVILLE, FL, 32206","Match","Exact","3234 LIBERTY CIR, JACKSONVILLE, FL, 32206",83899048,"L"
511260,"3234 MCEWAN LANE","ORLANTO","FL",32812,28.5032793010001,-81.322193376,260,"3234 MCEWAN LANE, ORLANTO, FL, 32812","Match","Non_Exact","3234 MCEWAN LN, ORLANDO, FL, 32812",94307976,"R"
511261,"3234 MEADOW STREET","TOMS RIVER","NJ",8753,39.956635353,-74.113981444,261,"3234 MEADOW STREET, TOMS RIVER, NJ, 8753","Match","Exact","3234 MEADOW ST, TOMS RIVER, NJ, 08753",203737714,"L"
511262,"3234 N 5TH ST","NILES","MI",49120,41.874331823,-86.232924087,262,"3234 N 5TH ST, NILES, MI, 49120","Match","Exact","3234 N 5TH ST, NILES, MI, 49120",119979007,"L"
511263,"3234 N CALIFORNIA APT 2 N","CHICAGO","IL",60618,NA,NA,263,"3234 N CALIFORNIA APT 2 N, CHICAGO, IL, 60618","No_Match",NA,NA,NA,NA
511264,"3234 N CAMBRIDGE AVE","MILWAUKEE","WI",53211,43.076511644,-87.891396291,264,"3234 N CAMBRIDGE AVE, MILWAUKEE, WI, 53211","Match","Exact","3234 N CAMBRIDGE AVE, MILWAUKEE, WI, 53211",77743655,"R"
511265,"3234 NORTH 1000 EAST","BUHL","ID",83316,42.466410851,-114.849082739,265,"3234 NORTH 1000 EAST, BUHL, ID, 83316","Match","Exact","3234 N 1000 E, BUHL, ID, 83316",649896988,"R"
511266,"3234 NORWOOD AVE","SAN JOSE","CA",95148,37.3303684840001,-121.789620083,266,"3234 NORWOOD AVE, SAN JOSE, CA, 95148","Match","Exact","3234 NORWOOD AVE, SAN JOSE, CA, 95148",122917213,"R"
511267,"3234 NW 17TH STREET","OKLAHOMA CITY","OK",73107,35.4869642620001,-97.5732465419999,267,"3234 NW 17TH STREET, OKLAHOMA CITY, OK, 73107","Match","Exact","3234 NW 17TH ST, OKLAHOMA CITY, OK, 73107",100396469,"L"
511268,"3234 NW 204 TER","MIAMI GARDENS","FL",33056,25.960861143,-80.25578573,268,"3234 NW 204 TER, MIAMI GARDENS, FL, 33056","Match","Exact","3234 NW 204TH TER, MIAMI GARDENS, FL, 33056",116064618,"L"
511269,"3234 NW 94TH AVE APT 332","SUNRISE","FL",33351,26.1678851180001,-80.275542929,269,"3234 NW 94TH AVE APT 332, SUNRISE, FL, 33351","Match","Non_Exact","3234 NW 94TH AVE, SUNRISE, FL, 33351",637116200,"R"
511270,"3234 RECTOR ROAD","MORNING VIEW","KY",41063,38.88084323,-84.501182743,270,"3234 RECTOR ROAD, MORNING VIEW, KY, 41063","Match","Exact","3234 RECTOR RD, MORNING VIEW, KY, 41063",652744369,"L"
511271,"3234 RIVER AVENUE","COLUMBUS","GA",31904,32.5016247770001,-84.993688533,271,"3234 RIVER AVENUE, COLUMBUS, GA, 31904","Match","Exact","3234 RIVER AVE, COLUMBUS, GA, 31904",98935258,"R"
511272,"3234 RUCKLE ST","INDIANAPOLIS","IN",46205,39.814690151,-86.148480889,272,"3234 RUCKLE ST, INDIANAPOLIS, IN, 46205","Match","Exact","3234 RUCKLE ST, INDIANAPOLIS, IN, 46205",107989150,"L"
511273,"3234 S 19TH","ABILENE","TX",79605,32.42711101,-99.762526575,273,"3234 S 19TH, ABILENE, TX, 79605","Match","Non_Exact","3234 S 19TH ST, ABILENE, TX, 79605",129960186,"R"
511274,"3234 SE SPRUCE ST","HILLSBORO","OR",97123,45.5105934580001,-122.949499052,274,"3234 SE SPRUCE ST, HILLSBORO, OR, 97123","Match","Exact","3234 SE SPRUCE ST, HILLSBORO, OR, 97123",158179799,"R"
511275,"3234 SUMMERDALE LANE","COLUMBUS","OH",43221,40.0186723790001,-83.10197713,275,"3234 SUMMERDALE LANE, COLUMBUS, OH, 43221","Match","Exact","3234 SUMMERDALE LN, COLUMBUS, OH, 43221",218484759,"R"
511276,"3234 TAYLOR RD","WICHITA FALLS","TX",76305,33.9146630830001,-98.327369459,276,"3234 TAYLOR RD, WICHITA FALLS, TX, 76305","Match","Exact","3234 TAYLOR RD, WICHITA FALLS, TX, 76305",169828806,"L"
511277,"3234 W DESERT LILY DR","LEHI","UT",84043,40.434784839,-111.901052311,277,"3234 W DESERT LILY DR, LEHI, UT, 84043","Match","Exact","3234 W DESERT LILY DR, LEHI, UT, 84043",627750989,"R"
511278,"3234 W SUNNYSIDE AVE","PHOENIX","AZ",85029,33.5939922810001,-112.128206793,278,"3234 W SUNNYSIDE AVE, PHOENIX, AZ, 85029","Match","Non_Exact","3234 W SUNNYSIDE DR, PHOENIX, AZ, 85029",128181158,"R"
511279,"3234 W SUNNYSIDE DR","PHOENIX","AZ",85029,33.5939922810001,-112.128206793,279,"3234 W SUNNYSIDE DR, PHOENIX, AZ, 85029","Match","Exact","3234 W SUNNYSIDE DR, PHOENIX, AZ, 85029",128181158,"R"
511280,"3234 WEST 64TH ST","CHICAGO","IL",60629,41.777133576,-87.703992275,280,"3234 WEST 64TH ST, CHICAGO, IL, 60629","Match","Exact","3234 W 64TH ST, CHICAGO, IL, 60629",111819410,"R"
511281,"3234 WEST CHASE CIRCLE","STOW","OH",44224,41.1438379320001,-81.3962942209999,281,"3234 WEST CHASE CIRCLE, STOW, OH, 44224","Match","Exact","3234 W CHASE CIR, STOW, OH, 44224",61366406,"L"
511282,"3234 WEST NORRIS STREET","PHILADELPHIA","PA",19121,39.9869934600001,-75.186335712,282,"3234 WEST NORRIS STREET, PHILADELPHIA, PA, 19121","Match","Exact","3234 W NORRIS ST, PHILADELPHIA, PA, 19121",131403443,"L"
511283,"32340 LILAC LANE","LOGAN","OH",43138,39.5245791310001,-82.421038193,283,"32340 LILAC LANE, LOGAN, OH, 43138","Match","Exact","32340 LILAC LN, LOGAN, OH, 43138",624471249,"L"
511284,"32342 RENDOVA CIR NE","CAMBRIDGE","MN",55008,45.5564613170001,-93.176577894,284,"32342 RENDOVA CIR NE, CAMBRIDGE, MN, 55008","Match","Exact","32342 RENDOVA CIRCLE N E, CAMBRIDGE, MN, 55008",97622068,"L"
511285,"32342 RENDOVA CIR NE","STANCHFIELD","MN",55080,NA,NA,285,"32342 RENDOVA CIR NE, STANCHFIELD, MN, 55080","No_Match",NA,NA,NA,NA
511286,"3234670 THIRD STREET","CLOVERDALE","OR",97112,NA,NA,286,"3234670 THIRD STREET, CLOVERDALE, OR, 97112","No_Match",NA,NA,NA,NA
511287,"32349 STONEY BROOK DRIVE","AVON LAKE","OH",44012,41.5049699200001,-82.0011605559999,287,"32349 STONEY BROOK DRIVE, AVON LAKE, OH, 44012","Match","Exact","32349 STONEY BROOK DR, AVON LAKE, OH, 44012",55431752,"R"
511288,"32349 WILLOUGHBY RD","FARMINGTON HILLS","MI",48334,42.4979328420001,-83.3680114909999,288,"32349 WILLOUGHBY RD, FARMINGTON HILLS, MI, 48334","Match","Exact","32349 WILLOUGHBY RD, FARMINGTON HILLS, MI, 48334",69723305,"R"
511289,"3235 170TH PL","HAMMOND","IN",46323,41.5851403190001,-87.450156663,289,"3235 170TH PL, HAMMOND, IN, 46323","Match","Exact","3235 170TH PL, HAMMOND, IN, 46323",98446656,"L"
511290,"3235 5TH ST","PORT ARTHUR","TX",77642,29.89508592,-93.91447722,290,"3235 5TH ST, PORT ARTHUR, TX, 77642","Match","Exact","3235 5TH ST, PORT ARTHUR, TX, 77642",73868170,"L"
511291,"3235 ALBACORE ALLEY","SAN DIEGO","CA",92136,NA,NA,291,"3235 ALBACORE ALLEY, SAN DIEGO, CA, 92136","No_Match",NA,NA,NA,NA
511292,"3235 ALDRICH DR","CUMMING","GA",30040,34.2621078500001,-84.16117027,292,"3235 ALDRICH DR, CUMMING, GA, 30040","Match","Exact","3235 ALDRICH DR, CUMMING, GA, 30040",627696537,"L"
511293,"3235 AMBERGROVE","DACULA","GA",30019,34.038641812,-83.906298378,293,"3235 AMBERGROVE, DACULA, GA, 30019","Match","Non_Exact","3235 AMBERGROVE TRCE, DACULA, GA, 30019",651741773,"R"
511294,"3235 ARBORWOOD DRIVE","SUMTER","SC",29154,33.9149775990001,-80.4209917379999,294,"3235 ARBORWOOD DRIVE, SUMTER, SC, 29154","Match","Exact","3235 ARBORWOOD DR, SUMTER, SC, 29154",202713943,"R"
511295,"3235 CABERNET DR","MIRA LOMA","CA",91752,34.0300815040001,-117.511735066,295,"3235 CABERNET DR, MIRA LOMA, CA, 91752","Match","Exact","3235 CABERNET DR, MIRA LOMA, CA, 91752",194732582,"L"
511296,"3235 CAMBRIDGE AVE APT 1H","BRONX","NY",10463,40.884005958,-73.908562116,296,"3235 CAMBRIDGE AVE APT 1H, BRONX, NY, 10463","Match","Exact","3235 CAMBRIDGE AVE, BRONX, NY, 10463",80310317,"L"
511297,"3235 CAMBRIDGE AVENUE APT 3K","BRONX","NY",NA,40.884005958,-73.908562116,297,"3235 CAMBRIDGE AVENUE APT 3K, BRONX, NY, ","Match","Exact","3235 CAMBRIDGE AVE, BRONX, NY, 10463",80310317,"L"
511298,"3235 CANAVERAL DR","SAN ANTONIO","TX",78217,29.529923367,-98.435534403,298,"3235 CANAVERAL DR, SAN ANTONIO, TX, 78217","Match","Exact","3235 CANAVERAL DR, SAN ANTONIO, TX, 78217",635394396,"L"
511299,"3235 CHERRY PLUM WAY","CASTLE ROCK","CO",80104,39.3417639940001,-104.859031399,299,"3235 CHERRY PLUM WAY, CASTLE ROCK, CO, 80104","Match","Exact","3235 CHERRY PLUM WAY, CASTLE ROCK, CO, 80104",130797138,"L"
511300,"3235 COLUMBUS STREET","NEW ORLEANS","LA",70114,29.935285515,-90.0224134119999,300,"3235 COLUMBUS STREET, NEW ORLEANS, LA, 70114","Match","Exact","3235 COLUMBUS ST, NEW ORLEANS, LA, 70114",651167264,"R"
511301,"3235 DAVIS AVE","ROANOKE","VA",24015,37.2419777170001,-79.998038465,301,"3235 DAVIS AVE, ROANOKE, VA, 24015","Match","Exact","3235 DAVIS AVE, ROANOKE, VA, 24015",62908736,"R"
511302,"3235 EDENBURG DRIVE","HUEYTOWN","AL",35023,33.4201033210001,-87.0449429619999,302,"3235 EDENBURG DRIVE, HUEYTOWN, AL, 35023","Match","Exact","3235 EDENBURG DR, HUEYTOWN, AL, 35023",640552727,"R"
511303,"3235 GARFIELD AVE","KANSAS CITY","MO",64109,39.06757622,-94.5587305239999,303,"3235 GARFIELD AVE, KANSAS CITY, MO, 64109","Match","Exact","3235 GARFIELD AVE, KANSAS CITY, MO, 64109",91449878,"L"
511304,"3235 GATEWAY LEDGE","COMMERCE TOWNSHIP","MI",48390,42.5688870760001,-83.462489336,304,"3235 GATEWAY LEDGE, COMMERCE TOWNSHIP, MI, 48390","Match","Non_Exact","3235 GATEWAY LEDGE DR, COMMERCE TOWNSHIP, MI, 48390",69785334,"R"
511305,"3235 GLADE SPRINGS DR","KINGWOOD","TX",77339,30.065288368,-95.191418632,305,"3235 GLADE SPRINGS DR, KINGWOOD, TX, 77339","Match","Exact","3235 GLADE SPRINGS DR, KINGWOOD, TX, 77339",96048475,"L"
511306,"3235 GLADE SPRINGS","KINGWOOD","TX",77339,30.065288368,-95.191418632,306,"3235 GLADE SPRINGS, KINGWOOD, TX, 77339","Match","Non_Exact","3235 GLADE SPRINGS DR, KINGWOOD, TX, 77339",96048475,"L"
511307,"3235 GRACE AVENUE","BRONX","NY",10469,40.8755593290001,-73.837722277,307,"3235 GRACE AVENUE, BRONX, NY, 10469","Match","Exact","3235 GRACE AVE, BRONX, NY, 10469",80310286,"L"
511308,"3235 GRANT 16","GRAPEVINE","AR",72057,NA,NA,308,"3235 GRANT 16, GRAPEVINE, AR, 72057","No_Match",NA,NA,NA,NA
511309,"3235 GROTEFENDT RD","MARINE","IL",62061,38.7740714440001,-89.8102467699999,309,"3235 GROTEFENDT RD, MARINE, IL, 62061","Match","Exact","3235 GROTEFENDT RD, MARINE, IL, 62061",107736428,"L"
511310,"3235 HERITAGE TRAIL APT 2307","DENTON","TX",76201,NA,NA,310,"3235 HERITAGE TRAIL APT 2307, DENTON, TX, 76201","No_Match",NA,NA,NA,NA
511311,"3235 HIGHLAND RD APT 6104","BATON ROUGE","LA",70802,30.4191946120001,-91.176983939,311,"3235 HIGHLAND RD APT 6104, BATON ROUGE, LA, 70802","Match","Exact","3235 HIGHLAND RD, BATON ROUGE, LA, 70802",651016213,"L"
511312,"3235 JEFFERSON AVE APT 2","CINCINNATI","OH",45220,39.1394806770001,-84.512568636,312,"3235 JEFFERSON AVE APT 2, CINCINNATI, OH, 45220","Match","Exact","3235 JEFFERSON AVE, CINCINNATI, OH, 45220",103961612,"L"
511313,"3235 JULIAN ST","DENVER","CO",80211,39.762879889,-105.032273098,313,"3235 JULIAN ST, DENVER, CO, 80211","Match","Exact","3235 JULIAN ST, DENVER, CO, 80211",177300840,"L"
511314,"3235 LIBERTY STREET SW","ALBANY","OR",97321,44.6117475520001,-123.118954811,314,"3235 LIBERTY STREET SW, ALBANY, OR, 97321","Match","Exact","3235 LIBERTY ST SW, ALBANY, OR, 97321",156073609,"R"
511315,"3235 LINCOLN ST","FRANKLIN PARK","IL",60131,41.9371140530001,-87.883755099,315,"3235 LINCOLN ST, FRANKLIN PARK, IL, 60131","Match","Exact","3235 LINCOLN ST, FRANKLIN PARK, IL, 60131",111725532,"R"
511316,"3235 LUBEC VALLEY LANE","HENDERSON","NV",89074,36.026250992,-115.103953924,316,"3235 LUBEC VALLEY LANE, HENDERSON, NV, 89074","Match","Non_Exact","3235 E LUBEC VALLEY LN, HENDERSON, NV, 89074",627060159,"R"
511317,"3235 MARBRISA COURT","SAN JOSE","CA",95135,37.306382661,-121.761433068,317,"3235 MARBRISA COURT, SAN JOSE, CA, 95135","Match","Exact","3235 MARBRISA CT, SAN JOSE, CA, 95135",123171338,"R"
511318,"3235 MCCAIN","JACKSON","MI",49203,42.232789987,-84.4557885999999,318,"3235 MCCAIN, JACKSON, MI, 49203","Match","Non_Exact","3235 MCCAIN RD, JACKSON, MI, 49203",17615827,"L"
511319,"3235 MEADE DR","STOCKTON","CA",95219,37.999508991,-121.355165353,319,"3235 MEADE DR, STOCKTON, CA, 95219","Match","Exact","3235 MEADE DR, STOCKTON, CA, 95219",133890666,"L"
511320,"3235 N CR 100 W","ANDERSON","IN",46011,40.153970912,-85.690919315,320,"3235 N CR 100 W, ANDERSON, IN, 46011","Match","Exact","3235 CO RD 100 W, ANDERSON, IN, 46011",31109520,"L"
511321,"3235 N NICHOLS","WASILLA","AK",99623,NA,NA,321,"3235 N NICHOLS, WASILLA, AK, 99623","No_Match",NA,NA,NA,NA
511322,"3235 N TRAVIS","SPRINGFIELD","MO",65803,37.2565655710001,-93.277234215,322,"3235 N TRAVIS, SPRINGFIELD, MO, 65803","Match","Non_Exact","3235 N TRAVIS AVE, SPRINGFIELD, MO, 65803",625051623,"R"
511323,"3235 NAVAJO DRIVE","CHATTANOOGA","TN",37411,35.02013458,-85.257868054,323,"3235 NAVAJO DRIVE, CHATTANOOGA, TN, 37411","Match","Exact","3235 NAVAJO DR, CHATTANOOGA, TN, 37411",59314281,"L"
511324,"3235 NE 211 TERR","AVENTURA","FL",33180,25.971279442,-80.1364448159999,324,"3235 NE 211 TERR, AVENTURA, FL, 33180","Match","Exact","3235 NE 211TH TER, AVENTURA, FL, 33180",640561867,"R"
511325,"3235 NIGHT IN GALE DR","DOVER","PA",17315,39.9651691180001,-76.8344819439999,325,"3235 NIGHT IN GALE DR, DOVER, PA, 17315","Match","Exact","3235 NIGHT IN GALE DR, DOVER, PA, 17315",636717177,"L"
511326,"3235 NW 27TH TERRACE","BOCA RATON","FL",33434,26.380656039,-80.14224502,326,"3235 NW 27TH TERRACE, BOCA RATON, FL, 33434","Match","Exact","3235 NW 27TH TER, BOCA RATON, FL, 33434",115537756,"L"
511327,"3235 O STREET SE","WASHINGTON","DC",20020,38.871167262,-76.959327327,327,"3235 O STREET SE, WASHINGTON, DC, 20020","Match","Exact","3235 O ST SE, WASHINGTON, DC, 20020",76238109,"R"
511328,"3235 ROSE CR","HATBORO","PA",19040,40.1740114,-75.096941036,328,"3235 ROSE CR, HATBORO, PA, 19040","Match","Exact","3235 ROSE CIR, HATBORO, PA, 19040",135126342,"R"
511329,"3235 ROSEDALE DRIVE STE 3","DALLAS","TX",75205,32.8475827190001,-96.783595948,329,"3235 ROSEDALE DRIVE STE 3, DALLAS, TX, 75205","Match","Non_Exact","3235 ROSEDALE AVE, DALLAS, TX, 75205",102907329,"L"
511330,"3235 ROSWELL RD NW","ATLANTA","GA",30305,33.843091653,-84.3790964999999,330,"3235 ROSWELL RD NW, ATLANTA, GA, 30305","Match","Non_Exact","3235 ROSWELL RD, ATLANTA, GA, 30305",17378356,"R"
511331,"3235 S 58TH CT","CICERO","IL",60804,41.832148596,-87.769518892,331,"3235 S 58TH CT, CICERO, IL, 60804","Match","Exact","3235 S 58TH CT, CICERO, IL, 60804",111795693,"L"
511332,"3235 S CARPENTER ST","CHICAGO","IL",60608,41.8346873850001,-87.6522665109999,332,"3235 S CARPENTER ST, CHICAGO, IL, 60608","Match","Exact","3235 S CARPENTER ST, CHICAGO, IL, 60608",111828197,"L"
511333,"3235 S EASTERN AVE","LAS VEGAS","NV",89169,36.131241172,-115.118527204,333,"3235 S EASTERN AVE, LAS VEGAS, NV, 89169","Match","Exact","3235 S EASTERN AVE, LAS VEGAS, NV, 89169",201871558,"R"
511334,"3235 SE QUAY STREET","PORT ST LUCIE","FL",34984,27.246506357,-80.345593954,334,"3235 SE QUAY STREET, PORT ST LUCIE, FL, 34984","Match","Exact","3235 SE QUAY ST, PORT ST LUCIE, FL, 34984",120171264,"R"
511335,"3235 SHAMROCK DR","FAYETTEVILLE","NC",28303,35.0782838050001,-78.929882683,335,"3235 SHAMROCK DR, FAYETTEVILLE, NC, 28303","Match","Exact","3235 SHAMROCK DR, FAYETTEVILLE, NC, 28303",64198289,"L"
511336,"3235 SHONTO TRAIL","FLAGSTAFF","AZ",86005,35.0905609640001,-111.696618234,336,"3235 SHONTO TRAIL, FLAGSTAFF, AZ, 86005","Match","Exact","3235 SHONTO TRL, FLAGSTAFF, AZ, 86005",188867814,"R"
511337,"3235 SKYVIEW DR","TALLAHASSEE","FL",32303,30.5150906150001,-84.346610071,337,"3235 SKYVIEW DR, TALLAHASSEE, FL, 32303","Match","Exact","3235 SKYVIEW DR, TALLAHASSEE, FL, 32303",82877593,"R"
511338,"3235 SOUTH EVANSTON AVENUE","TULSA","OK",74105,36.116449104,-95.9462932599999,338,"3235 SOUTH EVANSTON AVENUE, TULSA, OK, 74105","Match","Exact","3235 S EVANSTON AVE, TULSA, OK, 74105",166449660,"L"
511339,"3235 SOUTH SCENIC ROAD","HARRISBURG","PA",17109,40.2938628150001,-76.8487120089999,339,"3235 SOUTH SCENIC ROAD, HARRISBURG, PA, 17109","Match","Exact","3235 S SCENIC RD, HARRISBURG, PA, 17109",70820708,"R"
511340,"3235 SPRUCEWOOD LANE","WILMETTE","IL",60091,42.084044411,-87.7549882009999,340,"3235 SPRUCEWOOD LANE, WILMETTE, IL, 60091","Match","Exact","3235 SPRUCEWOOD LN, WILMETTE, IL, 60091",111738395,"L"
511341,"3235 SPRUCEWOOD LN","WILMETTE","IL",60091,42.084044411,-87.7549882009999,341,"3235 SPRUCEWOOD LN, WILMETTE, IL, 60091","Match","Exact","3235 SPRUCEWOOD LN, WILMETTE, IL, 60091",111738395,"L"
511342,"3235 SUNRISE DR","COLUMBUS","IN",47203,39.231324713,-85.878697989,342,"3235 SUNRISE DR, COLUMBUS, IN, 47203","Match","Exact","3235 SUNRISE DR, COLUMBUS, IN, 47203",640577453,"R"
511343,"3235 SW DICKINSON STREET","PORTLAND","OR",97219,45.4473416660001,-122.710251639,343,"3235 SW DICKINSON STREET, PORTLAND, OR, 97219","Match","Exact","3235 SW DICKINSON ST, PORTLAND, OR, 97219",157525447,"R"
511344,"3235 TAMMERY CT","COLUMBUS","OH",43231,40.0639085130001,-82.932392024,344,"3235 TAMMERY CT, COLUMBUS, OH, 43231","Match","Exact","3235 TAMMERY CT, COLUMBUS, OH, 43231",218488171,"R"
511345,"3235 TIMKEN CIRCLE","ESCONDIDO","CA",92027,33.1532458780001,-117.028697086,345,"3235 TIMKEN CIRCLE, ESCONDIDO, CA, 92027","Match","Exact","3235 TIMKEN CIR, ESCONDIDO, CA, 92027",612878706,"R"
511346,"3235 TOPSIDE RD","SEIVERVILLE","TN",37764,NA,NA,346,"3235 TOPSIDE RD, SEIVERVILLE, TN, 37764","No_Match",NA,NA,NA,NA
511347,"3235 TUCKAHOE RD","BLOOMFIELD VILLAGE","MI",48301,42.547202521,-83.261144546,347,"3235 TUCKAHOE RD, BLOOMFIELD VILLAGE, MI, 48301","Match","Exact","3235 TUCKAHOE RD, BLOOMFIELD VILLAGE, MI, 48301",69777019,"L"
511348,"3235 W DISCOVERY LOOP","WASILLA","AK",99654,61.6132167540001,-149.492493424,348,"3235 W DISCOVERY LOOP, WASILLA, AK, 99654","Match","Exact","3235 W DISCOVERY LOOP, WASILLA, AK, 99654",611942255,"R"
511349,"3235 W GREENWAY RD","PHOENIX","AZ",85053,33.6252581860001,-112.127841909,349,"3235 W GREENWAY RD, PHOENIX, AZ, 85053","Match","Exact","3235 W GREENWAY RD, PHOENIX, AZ, 85053",128177591,"L"
511350,"3235 W PARADISE","PHOENIX","AZ",85029,33.5951486050001,-112.128381614,350,"3235 W PARADISE, PHOENIX, AZ, 85029","Match","Non_Exact","3235 W PARADISE DR, PHOENIX, AZ, 85029",128181156,"L"
511351,"3235 W SOUTHMOR RD","MORRIS","IL",60450,41.327055849,-88.481905124,351,"3235 W SOUTHMOR RD, MORRIS, IL, 60450","Match","Exact","3235 W SOUTHMOR RD, MORRIS, IL, 60450",653705131,"R"
511352,"3235 W VISTA BONITA DRIVE","PHOENIX","AZ",85027,33.696960534,-112.129324226,352,"3235 W VISTA BONITA DRIVE, PHOENIX, AZ, 85027","Match","Exact","3235 W VISTA BONITA DR, PHOENIX, AZ, 85027",128892505,"R"
511353,"3235 WAKEFIELD APT B RD","HARRISBURG","PA",17109,40.2890976730001,-76.8477683959999,353,"3235 WAKEFIELD APT B RD, HARRISBURG, PA, 17109","Match","Non_Exact","3235 WAKEFIELD RD, HARRISBURG, PA, 17109",70820717,"L"
511354,"3235 WOODLAND DRIVE","LECLAIRE","IA",52753,41.584600197,-90.3898348399999,354,"3235 WOODLAND DRIVE, LECLAIRE, IA, 52753","Match","Exact","3235 WOODLAND DR, LECLAIRE, IA, 52753",122731076,"R"
511355,"32350 HILLTOP DR","NEW CHURCH","VA",23415,37.93543923,-75.504080346,355,"32350 HILLTOP DR, NEW CHURCH, VA, 23415","Match","Exact","32350 HILLTOP DR, NEW CHURCH, VA, 23415",114602764,"R"
511356,"32352 CLEAR WATER DRIVE","LAKE ELSINORE","CA",92532,33.6574069420001,-117.249746012,356,"32352 CLEAR WATER DRIVE, LAKE ELSINORE, CA, 92532","Match","Exact","32352 CLEAR WATER DR, LAKE ELSINORE, CA, 92532",608994545,"R"
511357,"32354 BONNET HILL","FARMINGTON HILLS","MI",48334,42.5058119510001,-83.3686141329999,357,"32354 BONNET HILL, FARMINGTON HILLS, MI, 48334","Match","Non_Exact","32354 BONNET HILL RD, FARMINGTON HILLS, MI, 48334",69775596,"R"
511358,"32354 HEILBERGER DR","ERHARD","MN",56534,46.432234986,-95.96250566,358,"32354 HEILBERGER DR, ERHARD, MN, 56534","Match","Exact","32354 HEILBERGER DR, ERHARD, MN, 56534",168334832,"R"
511359,"32356 270TH ST","NEOLA","IA",51559,41.4830122160001,-95.669949786,359,"32356 270TH ST, NEOLA, IA, 51559","Match","Exact","32356 270TH ST, NEOLA, IA, 51559",43920469,"R"
511360,"32356 270TH STREET","NEOLA","IA",51559,41.4830122160001,-95.669949786,360,"32356 270TH STREET, NEOLA, IA, 51559","Match","Exact","32356 270TH ST, NEOLA, IA, 51559",43920469,"R"
511361,"32356 BLAZING STAR STREET","WINCHESTER","CA",92596,33.607676256,-117.09474645,361,"32356 BLAZING STAR STREET, WINCHESTER, CA, 92596","Match","Exact","32356 BLAZING STAR ST, WINCHESTER, CA, 92596",609000283,"L"
511362,"3236 13TH STREET SE","WASHINGTON","DC",20032,38.8438283730001,-76.988496192,362,"3236 13TH STREET SE, WASHINGTON, DC, 20032","Match","Exact","3236 13TH ST SE, WASHINGTON, DC, 20032",76232510,"L"
511363,"3236 26TH ST NE","HARVEY","ND",58341,47.7894281910001,-99.881961075,363,"3236 26TH ST NE, HARVEY, ND, 58341","Match","Exact","3236 26TH ST NE, HARVEY, ND, 58341",174082491,"R"
511364,"3236 BETHEL CHURCH DRIVE","WOODBRIDGE","VA",22192,38.6573112140001,-77.3072568119999,364,"3236 BETHEL CHURCH DRIVE, WOODBRIDGE, VA, 22192","Match","Exact","3236 BETHEL CHURCH DR, WOODBRIDGE, VA, 22192",207143831,"R"
511365,"3236 BRIDGE HILL DRIVE APT 1023","FORT WORTH","TX",76116,NA,NA,365,"3236 BRIDGE HILL DRIVE APT 1023, FORT WORTH, TX, 76116","No_Match",NA,NA,NA,NA
511366,"3236 BROMLEY LANE","AURORA","IL",60502,41.779445638,-88.236275985,366,"3236 BROMLEY LANE, AURORA, IL, 60502","Match","Exact","3236 BROMLEY LN, AURORA, IL, 60502",112683287,"L"
511367,"3236 CARRINGTON","BELLINGHAM","WA",98226,48.7735529010001,-122.421586605,367,"3236 CARRINGTON, BELLINGHAM, WA, 98226","Match","Non_Exact","3236 CARRINGTON WAY, BELLINGHAM, WA, 98226",183785887,"L"
511368,"3236 CENTENNIAL","FOREST HIULL","TX",76119,32.663497706,-97.278315311,368,"3236 CENTENNIAL, FOREST HIULL, TX, 76119","Match","Non_Exact","3236 CENTENNIAL RD, FOREST HILL, TX, 76119",101902716,"R"
511369,"3236 CHESINGTON","FORT WORTH","TX",76137,32.869106775,-97.310061062,369,"3236 CHESINGTON, FORT WORTH, TX, 76137","Match","Non_Exact","3236 CHESINGTON DR, FORT WORTH, TX, 76137",619872358,"R"
511370,"3236 CLINTON AVE","MINNEAPOLIS","MN",55408,44.944270633,-93.271554865,370,"3236 CLINTON AVE, MINNEAPOLIS, MN, 55408","Match","Non_Exact","3236 CLINTON AVE S, MINNEAPOLIS, MN, 55408",43633795,"R"
511371,"3236 CROOKED RUN RD","WILLARD","NC",28478,34.676047016,-78.049524994,371,"3236 CROOKED RUN RD, WILLARD, NC, 28478","Match","Exact","3236 CROOKED RUN RD, WILLARD, NC, 28478",14131699,"L"
511372,"3236 CROSS WIND RD","CHARLOTTE","NC",28227,35.1780620170001,-80.720320337,372,"3236 CROSS WIND RD, CHARLOTTE, NC, 28227","Match","Non_Exact","3236 CROSS WINDS RD, CHARLOTTE, NC, 28227",70576538,"R"
511373,"3236 DARK WOODS DR","FRANKLIN","TN",37064,35.919788542,-86.9087177389999,373,"3236 DARK WOODS DR, FRANKLIN, TN, 37064","Match","Exact","3236 DARK WOODS DR, FRANKLIN, TN, 37064",636650058,"R"
511374,"3236 DORNICH DRIVE","MOUNT DORA","FL",32757,NA,NA,374,"3236 DORNICH DRIVE, MOUNT DORA, FL, 32757","No_Match",NA,NA,NA,NA
511375,"3236 DUQUESNE DR","CHESAPEAKE","VA",23321,36.8424948460001,-76.421345136,375,"3236 DUQUESNE DR, CHESAPEAKE, VA, 23321","Match","Exact","3236 DUQUESNE DR, CHESAPEAKE, VA, 23321",631968790,"R"
511376,"3236 E 36TH ST N","TULSA","OK",74110,36.206110471,-95.942295923,376,"3236 E 36TH ST N, TULSA, OK, 74110","Match","Non_Exact","3236 E 36TH ST N, TULSA, OK, 74115",636621868,"R"
511377,"3236 E 36TH STREET NORTH","TULSA","OK",74110,36.206110471,-95.942295923,377,"3236 E 36TH STREET NORTH, TULSA, OK, 74110","Match","Non_Exact","3236 E 36TH ST N, TULSA, OK, 74115",636621868,"R"
511378,"3236 E KIRKHOFF","FRESNO","CA",93702,NA,NA,378,"3236 E KIRKHOFF, FRESNO, CA, 93702","No_Match",NA,NA,NA,NA
511379,"3236 EHLERS LANE","SAINT HELENA","CA",95474,38.531129429,-122.499062714,379,"3236 EHLERS LANE, SAINT HELENA, CA, 95474","Match","Non_Exact","3236 EHLERS LN, SAINT HELENA, CA, 94574",67447099,"R"
511380,"3236 ELMHURST STREET APT 1","DETROIT","MI",48206,42.3822746210001,-83.122163381,380,"3236 ELMHURST STREET APT 1, DETROIT, MI, 48206","Match","Exact","3236 ELMHURST ST, DETROIT, MI, 48206",95471400,"R"
511381,"3236 GIFFORD LN","SARASOTA","FL",34239,27.300395397,-82.5043800349999,381,"3236 GIFFORD LN, SARASOTA, FL, 34239","Match","Exact","3236 GIFFORD LN, SARASOTA, FL, 34239",16353302,"R"
511382,"3236 GREEN LAKE CT","DECATUR","IL",62521,39.8064988840001,-88.904028678,382,"3236 GREEN LAKE CT, DECATUR, IL, 62521","Match","Non_Exact","3236 GREENLAKE CT, DECATUR, IL, 62521",20750356,"L"
511383,"3236 LITTLE ISLAND ROAD","VIRGINIA BEACH","VA",23456,36.716487258,-75.935056172,383,"3236 LITTLE ISLAND ROAD, VIRGINIA BEACH, VA, 23456","Match","Exact","3236 LITTLE ISLAND RD, VA BCH, VA, 23456",122294707,"L"
511384,"3236 LONG ISLAND ST","WEST SACRAMENTO","CA",95691,38.5381486810001,-121.576883771,384,"3236 LONG ISLAND ST, WEST SACRAMENTO, CA, 95691","Match","Exact","3236 LONG ISLAND ST, WEST SACRAMENTO, CA, 95691",67706495,"L"
511385,"3236 MARINER BAY ST","LAS VEGAS","NV",89117,36.1320872630001,-115.284333905,385,"3236 MARINER BAY ST, LAS VEGAS, NV, 89117","Match","Exact","3236 MARINER BAY ST, LAS VEGAS, NV, 89117",201898045,"R"
511386,"3236 MERCER UNIVERSITY DR STE 117","CHAMBLEE","GA",30341,33.876684907,-84.257352215,386,"3236 MERCER UNIVERSITY DR STE 117, CHAMBLEE, GA, 30341","Match","Exact","3236 MERCER UNIVERSITY DR, CHAMBLEE, GA, 30341",639507563,"L"
511387,"3236 NE 17TH AVE","OCALA","FL",34479,29.2205386300001,-82.11517199,387,"3236 NE 17TH AVE, OCALA, FL, 34479","Match","Exact","3236 NE 17TH AVE, OCALA, FL, 34479",631757427,"R"
511388,"3236 NE 61ST","PORTLAND","OR",97213,45.5463649540001,-122.600432749,388,"3236 NE 61ST, PORTLAND, OR, 97213","Match","Non_Exact","3236 NE 61ST AVE, PORTLAND, OR, 97213",157511476,"R"
511389,"3236 NORTH KENMORE AVE UNIT 1","CHICAGO","IL",60657,41.9408603790001,-87.655358882,389,"3236 NORTH KENMORE AVE UNIT 1, CHICAGO, IL, 60657","Match","Exact","3236 N KENMORE AVE, CHICAGO, IL, 60657",605163783,"L"
511390,"3236 PINYON CREEK","BRYAN","TX",77807,30.607080635,-96.3957837409999,390,"3236 PINYON CREEK, BRYAN, TX, 77807","Match","Non_Exact","3236 PINYON CREEK DR, BRYAN, TX, 77807",633955897,"L"
511391,"3236 RD M2 NE","MOSES LAKE","WA",98837,NA,NA,391,"3236 RD M2 NE, MOSES LAKE, WA, 98837","No_Match",NA,NA,NA,NA
511392,"3236 S GEKELLER LANE B-102","BOISE","ID",83706,43.57301368,-116.183476618,392,"3236 S GEKELLER LANE B-102, BOISE, ID, 83706","Match","Non_Exact","3236 GEKELER LN, BOISE, ID, 83706",117866760,"L"
511393,"3236 S MENDENHALL RD APT 4","MEMPHIS","TN",38115,35.060328311,-89.8858798209999,393,"3236 S MENDENHALL RD APT 4, MEMPHIS, TN, 38115","Match","Non_Exact","3236 S MENDENHALL RD, MEMPHIS, TN, 38115",72928147,"L"
511394,"3236 S MORGAN WAY","SOMERTON","AZ",85365,32.6685572580001,-114.66903205,394,"3236 S MORGAN WAY, SOMERTON, AZ, 85365","Match","Non_Exact","3236 S MORGAN WAY, MARTINEZ LAKE, AZ, 85365",129624120,"L"
511395,"3236 S SILVER ST","WICHITA","KS",67217,37.6362010280001,-97.345855463,395,"3236 S SILVER ST, WICHITA, KS, 67217","Match","Exact","3236 SILVER ST, WICHITA, KS, 67217",115656084,"L"
511396,"3236 SARDENIA TERRACE","DELTONA","FL",32738,28.8955309070001,-81.171988443,396,"3236 SARDENIA TERRACE, DELTONA, FL, 32738","Match","Non_Exact","3236 SARDINIA TER, DELTONA, FL, 32738",94503142,"R"
511397,"3236 SE CLINTON STREET","PORTLAND","OR",92677,45.5035277530001,-122.632161712,397,"3236 SE CLINTON STREET, PORTLAND, OR, 92677","Match","Non_Exact","3236 SE CLINTON ST, PORTLAND, OR, 97202",157509997,"R"
511398,"3236 SHAG BARK CT","JANESVILLE","WI",53545,42.722040012,-89.034989734,398,"3236 SHAG BARK CT, JANESVILLE, WI, 53545","Match","Exact","3236 SHAG BARK CT, JANESVILLE, WI, 53545",49861187,"L"
511399,"3236 SWEET CLOVER LANE","LEXINGTON","KY",40509,38.013927645,-84.401051679,399,"3236 SWEET CLOVER LANE, LEXINGTON, KY, 40509","Match","Exact","3236 SWEET CLOVER LN, LEXINGTON, KY, 40509",634870314,"R"
511400,"3236 TITANIC AVE","EL PASO","TX",79904,31.8530200650001,-106.457153717,400,"3236 TITANIC AVE, EL PASO, TX, 79904","Match","Exact","3236 TITANIC AVE, EL PASO, TX, 79904",189337555,"R"
511401,"3236 VALLEY FORGE","FOREST HILL","TX",76140,32.6535555680001,-97.273282676,401,"3236 VALLEY FORGE, FOREST HILL, TX, 76140","Match","Non_Exact","3236 VALLEY FORGE TRL, FOREST HILL, TX, 76140",101902805,"R"
511402,"3236 VALLEY FORGE","FORT WORTH","TX",76140,32.6535555680001,-97.273282676,402,"3236 VALLEY FORGE, FORT WORTH, TX, 76140","Match","Non_Exact","3236 VALLEY FORGE TRL, FORT WORTH, TX, 76140",101902805,"R"
511403,"3236 W  WIMBLEDON DRIVE","AUGUSTA","GA",30909,33.478534359,-82.068889364,403,"3236 W  WIMBLEDON DRIVE, AUGUSTA, GA, 30909","Match","Exact","3236 W WIMBLEDON DR, AUGUSTA, GA, 30909",636429941,"R"
511404,"3236 W 186TH STREET","HOMEWOOD","IL",60430,41.551655587,-87.694889344,404,"3236 W 186TH STREET, HOMEWOOD, IL, 60430","Match","Exact","3236 186TH ST, HOMEWOOD, IL, 60430",112376271,"R"
511405,"3236 W MARIPOSA ST","PHOENIX","AZ",85017,33.5078016100001,-112.128785254,405,"3236 W MARIPOSA ST, PHOENIX, AZ, 85017","Match","Exact","3236 W MARIPOSA ST, PHOENIX, AZ, 85017",128204782,"R"
511406,"3236 WEST LOFTYVIEW COURT","HIGH POINT","NC",27260,35.9828231540001,-79.9639687539999,406,"3236 WEST LOFTYVIEW COURT, HIGH POINT, NC, 27260","Match","Exact","3236 W LOFTYVIEW CT, HIGH POINT, NC, 27260",131042730,"R"
511407,"3236 WHITNEY DRIVE EAST","TALLAHASSEE","FL",32309,30.5037448050001,-84.218754251,407,"3236 WHITNEY DRIVE EAST, TALLAHASSEE, FL, 32309","Match","Exact","3236 WHITNEY DR E, TALLAHASSEE, FL, 32309",82877852,"R"
511408,"3236 WINDYRIDGE","SPRINGFIELD","OH",45502,NA,NA,408,"3236 WINDYRIDGE, SPRINGFIELD, OH, 45502","No_Match",NA,NA,NA,NA
511409,"3236 WOODLAND COURT","DAVENPORT","IA",52807,41.5538749360001,-90.537990754,409,"3236 WOODLAND COURT, DAVENPORT, IA, 52807","Match","Exact","3236 WOODLAND CT, DAVENPORT, IA, 52807",122709186,"L"
511410,"3236 WYNBROOKE CIRCLE","LOUISVILLE","KY",40241,38.292474407,-85.5638935859999,410,"3236 WYNBROOKE CIRCLE, LOUISVILLE, KY, 40241","Match","Exact","3236 WYNBROOKE CIR, LOUISVILLE, KY, 40241",96882416,"L"
511411,"3236 ZIMMERMAN ROAD","TRAVERSE CITY","MI",49685,44.733858868,-85.6749658849999,411,"3236 ZIMMERMAN ROAD, TRAVERSE CITY, MI, 49685","Match","Exact","3236 ZIMMERMAN RD, TRAVERSE CITY, MI, 49685",652703293,"R"
511412,"32360 NORTHAMPTON DRIVE","WARREN","MI",48093,42.5325287040001,-83.002949917,412,"32360 NORTHAMPTON DRIVE, WARREN, MI, 48093","Match","Exact","32360 NORTHAMPTON DR, WARREN, MI, 48093",110698705,"R"
511413,"32361 DUTTON RD","WANETTE","OK",74878,35.0980538380001,-97.1245615669999,413,"32361 DUTTON RD, WANETTE, OK, 74878","Match","Exact","32361 DUTTON RD, WANETTE, OK, 74878",651043463,"R"
511414,"32362 FERNLEAF DRIVE","LAKE ELSINORE","CA",92532,33.661525726,-117.25292357,414,"32362 FERNLEAF DRIVE, LAKE ELSINORE, CA, 92532","Match","Exact","32362 FERNLEAF DR, LAKE ELSINORE, CA, 92532",608994539,"R"
511415,"32369 LONG NECK RD","MILLSBORO","DE",19966,38.6322267420001,-75.180992568,415,"32369 LONG NECK RD, MILLSBORO, DE, 19966","Match","Exact","32369 LONG NECK RD, MILLSBORO, DE, 19966",106119011,"R"
511416,"32369 US HIGHWAY 98","LILLIAN","AL",36549,30.4145015280001,-87.474968527,416,"32369 US HIGHWAY 98, LILLIAN, AL, 36549","Match","Exact","32369 US HWY 98, LILLIAN, AL, 36549",131673246,"L"
511417,"3237 5TH AVENUE","BEAVER FALLS","PA",15010,40.7730878200001,-80.325012995,417,"3237 5TH AVENUE, BEAVER FALLS, PA, 15010","Match","Exact","3237 5TH AVE, BEAVER FALLS, PA, 15010",52556653,"L"
511418,"3237 ALJEMA AVE","BILLINGS","MT",59102,45.8004129080001,-108.597951524,418,"3237 ALJEMA AVE, BILLINGS, MT, 59102","Match","Exact","3237 ALJEMA AVE, BILLINGS, MT, 59102",181473786,"R"
511419,"3237 BACON AVE","BERKLEY","MI",48072,42.5015422120001,-83.198299252,419,"3237 BACON AVE, BERKLEY, MI, 48072","Match","Exact","3237 BACON AVE, BERKLEY, MI, 48072",69737587,"L"
511420,"3237 BAYSWATER CT","FAR ROCKAWAY","NY",11691,NA,NA,420,"3237 BAYSWATER CT, FAR ROCKAWAY, NY, 11691","No_Match",NA,NA,NA,NA
511421,"3237 BEECHWOOD BOULEVARD","PITTSBURGH",NA,NA,40.4180809320001,-79.923159104,421,"3237 BEECHWOOD BOULEVARD, PITTSBURGH, , ","Match","Exact","3237 BEECHWOOD BLVD, PITTSBURGH, PA, 15217",51681244,"L"
511422,"3237 BENDA STREET","LOS ANGELES","CA",90068,34.128251495,-118.343793582,422,"3237 BENDA STREET, LOS ANGELES, CA, 90068","Match","Exact","3237 BENDA ST, LOS ANGELES, CA, 90068",141594225,"L"
511423,"3237 BOY WOOD ROAD","GRAHAM","NC",27253,36.0069509210001,-79.375541583,423,"3237 BOY WOOD ROAD, GRAHAM, NC, 27253","Match","Exact","3237 BOY WOOD RD, GRAHAM, NC, 27253",71666615,"L"
511424,"3237 BRISBANE DRIVE","LANSING","MI",48911,42.7040318350001,-84.59404627,424,"3237 BRISBANE DRIVE, LANSING, MI, 48911","Match","Exact","3237 BRISBANE DR, LANSING, MI, 48911",17496739,"L"
511425,"3237 BRUNSWICK VIEW RD","BARTLETT","TN",38133,35.213368744,-89.7695718699999,425,"3237 BRUNSWICK VIEW RD, BARTLETT, TN, 38133","Match","Non_Exact","3237 BRUNSWICK VIEW COVE, BARTLETT, TN, 38133",617978586,"R"
511426,"3237 CAIN HARBOR DR","NASHVILLE","KY",37214,NA,NA,426,"3237 CAIN HARBOR DR, NASHVILLE, KY, 37214","No_Match",NA,NA,NA,NA
511427,"3237 CAIN HARBOR DR","NASHVILLE","TN",37214,36.23955885,-86.6984646399999,427,"3237 CAIN HARBOR DR, NASHVILLE, TN, 37214","Match","Exact","3237 CAIN HARBOR DR, NASHVILLE, TN, 37214",97219655,"L"
511428,"3237 CANYONVILLE RIDDLE RD","RIDDLE","OR",97469,42.9318746160001,-123.33678609,428,"3237 CANYONVILLE RIDDLE RD, RIDDLE, OR, 97469","Match","Exact","3237 CANYONVILLE RIDDLE RD, RIDDLE, OR, 97469",613893209,"R"
511429,"3237 CHADWOOD LANE N DRIVE APT A","INDIANAPOLIS","IN",46268,39.9083086000001,-86.2153615669999,429,"3237 CHADWOOD LANE N DRIVE APT A, INDIANAPOLIS, IN, 46268","Match","Non_Exact","3237 CHADWOOD LN N DR, INDIANAPOLIS, IN, 46268",108025433,"L"
511430,"3237 COASTAL HIGHWAY","CRAWFORDVILLE","FL",32327,30.1071870970001,-84.378708912,430,"3237 COASTAL HIGHWAY, CRAWFORDVILLE, FL, 32327","Match","Exact","3237 COASTAL HWY, CRAWFORDVILLE, FL, 32327",610456713,"R"
511431,"3237 COMMUNITY AVE","GLENDALE","CA",91214,34.227856452,-118.249525004,431,"3237 COMMUNITY AVE, GLENDALE, CA, 91214","Match","Exact","3237 COMMUNITY AVE, GLENDALE, CA, 91214",141589292,"R"
511432,"3237 CORAL LAKE WAY","CORAL SPRINGS","FL",33189,26.270709079,-80.238007938,432,"3237 CORAL LAKE WAY, CORAL SPRINGS, FL, 33189","Match","Non_Exact","3237 CORAL LAKE WAY, CORAL SPRINGS, FL, 33065",114780371,"R"
511433,"3237 EASTLAND DRIVE","PEARL","MS",39208,32.2865167050001,-90.110368418,433,"3237 EASTLAND DRIVE, PEARL, MS, 39208","Match","Exact","3237 EASTLAND DR, PEARL, MS, 39208",116904493,"L"
511434,"3237 GAINESVILLE CT","INDIANAPOLIS","IN",46227,39.6426445540001,-86.109775941,434,"3237 GAINESVILLE CT, INDIANAPOLIS, IN, 46227","Match","Exact","3237 GAINESVILLE CT, INDIANAPOLIS, IN, 46227",609040609,"R"
511435,"3237 GINA PL","WOODBRIDGE","VA",22193,38.645739092,-77.31082979,435,"3237 GINA PL, WOODBRIDGE, VA, 22193","Match","Exact","3237 GINA PL, WOODBRIDGE, VA, 22193",76532227,"R"
511436,"3237 GLEN ST","EUREKA","CA",95503,40.778835777,-124.183460325,436,"3237 GLEN ST, EUREKA, CA, 95503","Match","Exact","3237 GLEN ST, EUREKA, CA, 95503",112990555,"R"
511437,"3237 GUILFORD AVENUE","INDIANAPOLIS","IN",46205,39.814126593,-86.139397012,437,"3237 GUILFORD AVENUE, INDIANAPOLIS, IN, 46205","Match","Exact","3237 GUILFORD AVE, INDIANAPOLIS, IN, 46205",107990101,"R"
511438,"3237 GYPSUM","RENO","NV",89503,39.5567958340001,-119.830021607,438,"3237 GYPSUM, RENO, NV, 89503","Match","Non_Exact","3237 GYPSUM RD, RENO, NV, 89503",107042324,"L"
511439,"3237 HUMMINGBIRD DRIVE","NASHVILLE","TN",37218,36.2170711860001,-86.828691493,439,"3237 HUMMINGBIRD DRIVE, NASHVILLE, TN, 37218","Match","Exact","3237 HUMMINGBIRD DR, NASHVILLE, TN, 37218",97184040,"L"
511440,"3237 HUNTERS WAY","BELLEVILLE","IL",62221,38.5392725500001,-89.9346402899999,440,"3237 HUNTERS WAY, BELLEVILLE, IL, 62221","Match","Exact","3237 HUNTERS WAY, BELLEVILLE, IL, 62221",640637227,"L"
511441,"3237 HUNTINGTON PLACE DRIVE","SARASOTA","FL",34237,27.3482372,-82.500199653,441,"3237 HUNTINGTON PLACE DRIVE, SARASOTA, FL, 34237","Match","Exact","3237 HUNTINGTON PLACE DR, SARASOTA, FL, 34237",16379150,"L"
511442,"3237 LISBON LANE","OXNARD","CA",93036,34.247340077,-119.175984389,442,"3237 LISBON LANE, OXNARD, CA, 93036","Match","Exact","3237 LISBON LN, OXNARD, CA, 93036",617497585,"L"
511443,"3237 LIVINGSTON ST NW","WASHINGTON","DC",20015,38.963097582,-77.065164936,443,"3237 LIVINGSTON ST NW, WASHINGTON, DC, 20015","Match","Exact","3237 LIVINGSTON ST NW, WASHINGTON, DC, 20015",76220584,"R"
511444,"3237 LOGAN LANE","GARNET VALLEY","PA",19060,NA,NA,444,"3237 LOGAN LANE, GARNET VALLEY, PA, 19060","No_Match",NA,NA,NA,NA
511445,"3237 LONG BEACH ROAD UNIT 100","OCEANSIDE","NY",11572,40.6320399850001,-73.640804041,445,"3237 LONG BEACH ROAD UNIT 100, OCEANSIDE, NY, 11572","Match","Exact","3237 LONG BEACH RD, OCEANSIDE, NY, 11572",147681239,"L"
511446,"3237 MAPLE GROVE","SUAMICO","WI",54173,44.630555493,-88.036714377,446,"3237 MAPLE GROVE, SUAMICO, WI, 54173","Match","Exact","3237 MAPLE GROVE, SUAMICO, WI, 54173",640617172,"L"
511447,"3237 MAX CT","CARMICHAEL","CA",95608,38.6238147190001,-121.333292519,447,"3237 MAX CT, CARMICHAEL, CA, 95608","Match","Exact","3237 MAX CT, CARMICHAEL, CA, 95608",133393998,"R"
511448,"3237 MOUNTBATTEN DRIVE","CANTONMENT","FL",32533,30.5520031980001,-87.3337168909999,448,"3237 MOUNTBATTEN DRIVE, CANTONMENT, FL, 32533","Match","Exact","3237 MOUNTBATTEN DR, CANTONMENT, FL, 32533",93284443,"R"
511449,"3237 N 25TH STREET","PHILADELPHIA","PA",19129,40.0049338580001,-75.170442156,449,"3237 N 25TH STREET, PHILADELPHIA, PA, 19129","Match","Exact","3237 N 25TH ST, PHILADELPHIA, PA, 19129",131402318,"R"
511450,"3237 N ETTING STREET","PHILADELPHIA","PA",19129,40.0053358000001,-75.1740155909999,450,"3237 N ETTING STREET, PHILADELPHIA, PA, 19129","Match","Exact","3237 N ETTING ST, PHILADELPHIA, PA, 19129",652461771,"R"
511451,"3237 N SENSENEY CIR","CLARKSVILLE","TN",37042,36.6231533170001,-87.3809569049999,451,"3237 N SENSENEY CIR, CLARKSVILLE, TN, 37042","Match","Exact","3237 N SENSENEY CIR, CLARKSVILLE, TN, 37042",31831388,"R"
511452,"3237 NANDALE DRIVE","CINCINNATI","OH",45239,39.2166976140001,-84.588625736,452,"3237 NANDALE DRIVE, CINCINNATI, OH, 45239","Match","Exact","3237 NANDALE DR, CINCINNATI, OH, 45239",624735275,"L"
511453,"3237 O ST SE","WASHINGTON","DC",20020,38.871112145,-76.959275625,453,"3237 O ST SE, WASHINGTON, DC, 20020","Match","Exact","3237 O ST SE, WASHINGTON, DC, 20020",76238109,"R"
511454,"3237 OAK TIMBER DRIVE","FOREST HILL","TX",76119,32.665232528,-97.278027188,454,"3237 OAK TIMBER DRIVE, FOREST HILL, TX, 76119","Match","Non_Exact","3237 OAK TIMBER DR E, FOREST HILL, TX, 76119",101902717,"L"
511455,"3237 OAK TREE LANE","WINTER HAVEN","FL",33884,28.0001327360001,-81.6429967399999,455,"3237 OAK TREE LANE, WINTER HAVEN, FL, 33884","Match","Exact","3237 OAK TREE LN, WINTER HAVEN, FL, 33884",614467782,"R"
511456,"3237 ORMOND RD","CLEVELAND","OH",44118,41.4951778440001,-81.563465196,456,"3237 ORMOND RD, CLEVELAND, OH, 44118","Match","Exact","3237 ORMOND RD, CLEVELAND, OH, 44118",61125238,"L"
511457,"3237 PATE CREEK VIEW","SNELLVILLE","GA",30078,33.832421912,-83.993362179,457,"3237 PATE CREEK VIEW, SNELLVILLE, GA, 30078","Match","Exact","3237 PATE CREEK VW, SNELLVILLE, GA, 30078",636271033,"L"
511458,"3237 PLATINUM ST NE","GRAND RAPIDS","MI",49525,NA,NA,458,"3237 PLATINUM ST NE, GRAND RAPIDS, MI, 49525","No_Match",NA,NA,NA,NA
511459,"3237 POIRIER ROAD","BLANCHARD","ID",83804,47.9981584760001,-117.035902944,459,"3237 POIRIER ROAD, BLANCHARD, ID, 83804","Match","Exact","3237 POIRIER RD, BLANCHARD, ID, 83804",169499294,"L"
511460,"3237 PURPLE ASH","ZIONSVILLE","IN",46077,39.996642405,-86.257090039,460,"3237 PURPLE ASH, ZIONSVILLE, IN, 46077","Match","Non_Exact","3237 PURPLE ASH DR, ZIONSVILLE, IN, 46077",610979322,"L"
511461,"3237 RAM HORN ROAD","VARNVILLE","SC",29944,32.800116362,-80.93749468,461,"3237 RAM HORN ROAD, VARNVILLE, SC, 29944","Match","Exact","3237 RAM HORN RD, VARNVILLE, SC, 29944",624730887,"L"
511462,"3237 RAMSGATE ROAD","AUGUSTA","GA",30909,33.4966026600001,-82.0613248769999,462,"3237 RAMSGATE ROAD, AUGUSTA, GA, 30909","Match","Exact","3237 RAMSGATE RD, AUGUSTA, GA, 30909",55644117,"R"
511463,"3237 RIVERMONT STREET","WEST SACRAMENTO","CA",95691,38.53800334,-121.557281476,463,"3237 RIVERMONT STREET, WEST SACRAMENTO, CA, 95691","Match","Exact","3237 RIVERMONT ST, WEST SACRAMENTO, CA, 95691",67706680,"R"
511464,"3237 S EDGEFIELD AVENUE","DALLAS","TX",75224,32.7098768550001,-96.84399681,464,"3237 S EDGEFIELD AVENUE, DALLAS, TX, 75224","Match","Exact","3237 S EDGEFIELD AVE, DALLAS, TX, 75224",102947722,"R"
511465,"3237 SARIC COURT UNIT 3","HIGHLAND","IN",46322,41.537775271,-87.450139951,465,"3237 SARIC COURT UNIT 3, HIGHLAND, IN, 46322","Match","Exact","3237 SARIC CT, HIGHLAND, IN, 46322",98446870,"R"
511466,"3237 ST ANN STREET","NEW ORLEANS","LA",70119,29.975269606,-90.088102963,466,"3237 ST ANN STREET, NEW ORLEANS, LA, 70119","Match","Exact","3237 SAINT ANN ST, NEW ORLEANS, LA, 70119",191707747,"R"
511467,"3237 STONEWALL STREET","SHREVEPORT","LA",71109,32.489269532,-93.789281364,467,"3237 STONEWALL STREET, SHREVEPORT, LA, 71109","Match","Exact","3237 STONEWALL ST, SHREVEPORT, LA, 71109",57434848,"L"
511468,"3237 THEODORE R HAGANS DRIVE NE","WASHINGTON","DC",20018,38.922605919,-76.96025387,468,"3237 THEODORE R HAGANS DRIVE NE, WASHINGTON, DC, 20018","Match","Exact","3237 THEODORE R HAGANS DR NE, WASHINGTON, DC, 20018",636091667,"L"
511469,"3237 TULANE DR","KENNER","LA",70065,30.014588829,-90.276289952,469,"3237 TULANE DR, KENNER, LA, 70065","Match","Exact","3237 TULANE DR, KENNER, LA, 70065",93492313,"L"
511470,"3237 VICTORIAN LN","LONG GROVE","IL",60047,42.173429621,-88.013451131,470,"3237 VICTORIAN LN, LONG GROVE, IL, 60047","Match","Exact","3237 VICTORIAN LN, LONG GROVE, IL, 60047",119689299,"L"
511471,"3237 VIRGINA RD","WELLSVILLE","KS",66092,38.6168654790001,-95.083838225,471,"3237 VIRGINA RD, WELLSVILLE, KS, 66092","Match","Non_Exact","3237 VIRGINIA RD, WELLSVILLE, KS, 66092",651731563,"L"
511472,"3237 W 14TH ST","ANNISTON","AL",36201,33.6623328420001,-85.869032787,472,"3237 W 14TH ST, ANNISTON, AL, 36201","Match","Exact","3237 W 14TH ST, ANNISTON, AL, 36201",66556161,"L"
511473,"3237 W SUNNYSIDE AVE APT 2E","CHICAGO","IL",60625,41.9629931760001,-87.7096894759999,473,"3237 W SUNNYSIDE AVE APT 2E, CHICAGO, IL, 60625","Match","Non_Exact","3237 W SUNNYSIDE AVE, CHICAGO, IL, 60625",605170108,"L"
511474,"3237 WATERHOUSE STREET","KENNESAW","GA",30152,33.9821954930001,-84.647392176,474,"3237 WATERHOUSE STREET, KENNESAW, GA, 30152","Match","Exact","3237 WATERHOUSE ST, KENNESAW, GA, 30152",614187203,"L"
511475,"3237 WENIG ROAD NE","CEDAR RAPIDS","IA",52402,42.011353645,-91.677523147,475,"3237 WENIG ROAD NE, CEDAR RAPIDS, IA, 52402","Match","Exact","3237 WENIG RD NE, CEDAR RAPIDS, IA, 52402",17019714,"L"
511476,"3237 WEST 31ST AVENUE","ANCHORAGE","AK",99517,61.192572141,-149.943722102,476,"3237 WEST 31ST AVENUE, ANCHORAGE, AK, 99517","Match","Exact","3237 W 31ST AVE, ANCHORAGE, AK, 99517",190794710,"R"
511477,"3237 WEST LEMOYNE REAR","CHICAGO","IL",60651,41.908267503,-87.7081631359999,477,"3237 WEST LEMOYNE REAR, CHICAGO, IL, 60651","Match","Non_Exact","3237 W LEMOYNE ST, CHICAGO, IL, 60651",605058353,"L"
511478,"3237 WESTMONT AVE","BALTIMORE","MD",21216,39.3011949890001,-76.6704371179999,478,"3237 WESTMONT AVE, BALTIMORE, MD, 21216","Match","Exact","3237 WESTMONT AVE, BALTIMORE, MD, 21216",640388673,"R"
511479,"3237 WESTMONT AVENUE","BALTIMORE","MD",21216,39.3011949890001,-76.6704371179999,479,"3237 WESTMONT AVENUE, BALTIMORE, MD, 21216","Match","Exact","3237 WESTMONT AVE, BALTIMORE, MD, 21216",640388673,"R"
511480,"32370 NORCHESTER ST","BEVERLY HILLS","MI",48025,42.526860076,-83.231312515,480,"32370 NORCHESTER ST, BEVERLY HILLS, MI, 48025","Match","Exact","32370 NORCHESTER ST, BEVERLY HILLS, MI, 48025",69823026,"R"
511481,"32370 SMOKEHOUSE","BULVERDE","TX",78163,29.7741200840001,-98.454550809,481,"32370 SMOKEHOUSE, BULVERDE, TX, 78163","Match","Non_Exact","32370 SMOKEHOUSE RD, BULVERDE, TX, 78163",72256858,"R"
511482,"32371 ALIPAZ ST UNIT 46","SAN JUAN CAPISTRANO","CA",92675,33.4930847040001,-117.670371424,482,"32371 ALIPAZ ST UNIT 46, SAN JUAN CAPISTRANO, CA, 92675","Match","Exact","32371 ALIPAZ ST, SAN JUAN CAPISTRANO, CA, 92675",645532876,"R"
511483,"32371 ALIPAZ STREET 81","SAN JUAN CAPISTRANO","CA",92675,33.4930847040001,-117.670371424,483,"32371 ALIPAZ STREET 81, SAN JUAN CAPISTRANO, CA, 92675","Match","Exact","32371 ALIPAZ ST, SAN JUAN CAPISTRANO, CA, 92675",645532876,"R"
511484,"32371 LAMBERT AVE","MALVERN","IA",51551,41.0017817570001,-95.568175953,484,"32371 LAMBERT AVE, MALVERN, IA, 51551","Match","Exact","32371 LAMBERT AVE, MALVERN, IA, 51551",10167787,"L"
511485,"32372 LODGEPOLE DRIVE","EVERGREEN","CO",80439,39.5845516680001,-105.370226541,485,"32372 LODGEPOLE DRIVE, EVERGREEN, CO, 80439","Match","Exact","32372 LODGEPOLE DR, EVERGREEN, CO, 80439",177276081,"L"
511486,"32374 SAINT MARTIN STREET","WINCHESTER","CA",92596,33.585085588,-117.094397373,486,"32374 SAINT MARTIN STREET, WINCHESTER, CA, 92596","Match","Exact","32374 SAINT MARTIN ST, WINCHESTER, CA, 92596",609000069,"L"
511487,"32375 DAHL DR","TEMECULA","CA",92592,33.5059789210001,-117.094301381,487,"32375 DAHL DR, TEMECULA, CA, 92592","Match","Exact","32375 DAHL DR, TEMECULA, CA, 92592",618700974,"R"
511488,"32375 N GANTZEL RD","SAN TAN VALLEY","AZ",85142,NA,NA,488,"32375 N GANTZEL RD, SAN TAN VALLEY, AZ, 85142","No_Match",NA,NA,NA,NA
511489,"32377 EAST 750 NORTH RD","ARROWSMITH","IL",61722,40.3912247900001,-88.645470179,489,"32377 EAST 750 NORTH RD, ARROWSMITH, IL, 61722","Match","Exact","32377 E 750 NORTH RD, ARROWSMITH, IL, 61722",20590697,"L"
511490,"32377 HWY 131 880581","STEAMBOAT SPRINGS","CO",80487,NA,NA,490,"32377 HWY 131 880581, STEAMBOAT SPRINGS, CO, 80487","No_Match",NA,NA,NA,NA
511491,"3238 153RD ST","FLUSHING","NY",11354,NA,NA,491,"3238 153RD ST, FLUSHING, NY, 11354","No_Match",NA,NA,NA,NA
511492,"3238 5TH BAXTER XING","FORT MILL","SC",29708,35.0234817240001,-80.974155863,492,"3238 5TH BAXTER XING, FORT MILL, SC, 29708","Match","Non_Exact","3238 FIFTH BAXTER ST, FORT MILL, SC, 29708",19809937,"L"
511493,"3238 ALICE STREET","DEARBORN","MI",48124,42.2883155260001,-83.246536008,493,"3238 ALICE STREET, DEARBORN, MI, 48124","Match","Exact","3238 ALICE ST, DEARBORN, MI, 48124",95445112,"R"
511494,"3238 BALBOA ST APT A","SAN FRANCISCO","CA",94121,37.775899118,-122.493472125,494,"3238 BALBOA ST APT A, SAN FRANCISCO, CA, 94121","Match","Exact","3238 BALBOA ST, SAN FRANCISCO, CA, 94121",192277234,"R"
511495,"3238 BRIDLEPATH LANE","DRESHER","PA",19025,40.1306231470001,-75.1610466019999,495,"3238 BRIDLEPATH LANE, DRESHER, PA, 19025","Match","Exact","3238 BRIDLEPATH LN, DRESHER, PA, 19025",135091787,"R"
511496,"3238 COUNTY ROAD 536","ALVIN","TX",77511,29.4591469220001,-95.279615102,496,"3238 COUNTY ROAD 536, ALVIN, TX, 77511","Match","Exact","3238 CO RD 536, ALVIN, TX, 77511",116576215,"L"
511497,"3238 E 1ST ST","TUCSON","AZ",85716,32.235126028,-110.9245243,497,"3238 E 1ST ST, TUCSON, AZ, 85716","Match","Exact","3238 E 1ST ST, TUCSON, AZ, 85716",121174965,"R"
511498,"3238 E 1ST","TUCSON","AZ",85716,32.235126028,-110.9245243,498,"3238 E 1ST, TUCSON, AZ, 85716","Match","Non_Exact","3238 E 1ST ST, TUCSON, AZ, 85716",121174965,"R"
511499,"3238 E ORCHARD ST","ONTARIO","CA",91762,NA,NA,499,"3238 E ORCHARD ST, ONTARIO, CA, 91762","No_Match",NA,NA,NA,NA
511500,"3238 E ST RD 38","NEW CASTLE","IN",47362,39.9205355080001,-85.322383288,500,"3238 E ST RD 38, NEW CASTLE, IN, 47362","Match","Exact","3238 STATE RD 38, NEW CASTLE, IN, 47362",29984393,"R"
