"ID","Address","City","State","Zip","lat","long","id","input_address","match_indicator","match_type","matched_address","tiger_line_id","tiger_side"
993501,"PO BOX 65882","ORANGE PARK","FL",32065,NA,NA,1,"PO BOX 65882, ORANGE PARK, FL, 32065","No_Match",NA,NA,NA,NA
993502,"PO BOX 65882","SLC","UT",84165,NA,NA,2,"PO BOX 65882, SLC, UT, 84165","No_Match",NA,NA,NA,NA
993503,"PO BOX 659","ELKHART","KS",67950,NA,NA,3,"PO BOX 659, ELKHART, KS, 67950","No_Match",NA,NA,NA,NA
993504,"PO BOX 659","NEW YORK","NY",10002,NA,NA,4,"PO BOX 659, NEW YORK, NY, 10002","No_Match",NA,NA,NA,NA
993505,"PO BOX 659","NEW YORK","NY",10012,NA,NA,5,"PO BOX 659, NEW YORK, NY, 10012","No_Match",NA,NA,NA,NA
993506,"PO BOX 659","SHASTA","CA",96087,NA,NA,6,"PO BOX 659, SHASTA, CA, 96087","No_Match",NA,NA,NA,NA
993507,"PO BOX 6593","FOLSOM","CA",95763,NA,NA,7,"PO BOX 6593, FOLSOM, CA, 95763","No_Match",NA,NA,NA,NA
993508,"PO BOX 6593","INCLINE VILLAGE","NV",89450,NA,NA,8,"PO BOX 6593, INCLINE VILLAGE, NV, 89450","No_Match",NA,NA,NA,NA
993509,"PO BOX 6594","FORT WAYNE","IN",46896,NA,NA,9,"PO BOX 6594, FORT WAYNE, IN, 46896","No_Match",NA,NA,NA,NA
993510,"PO BOX 6595","IRVINE","CA",92616,NA,NA,10,"PO BOX 6595, IRVINE, CA, 92616","No_Match",NA,NA,NA,NA
993511,"PO BOX 65957","TUCSON","AZ",85728,NA,NA,11,"PO BOX 65957, TUCSON, AZ, 85728","No_Match",NA,NA,NA,NA
993512,"PO BOX 6596","FULLERTON","CA",92834,NA,NA,12,"PO BOX 6596, FULLERTON, CA, 92834","No_Match",NA,NA,NA,NA
993513,"PO BOX 6597","BEVERLY HILLS","CA",90212,NA,NA,13,"PO BOX 6597, BEVERLY HILLS, CA, 90212","No_Match",NA,NA,NA,NA
993514,"PO BOX 6598","CHARLESTON","WV",25362,NA,NA,14,"PO BOX 6598, CHARLESTON, WV, 25362","No_Match",NA,NA,NA,NA
993515,"PO BOX 66","ARKANSAS CITY","AR",71630,NA,NA,15,"PO BOX 66, ARKANSAS CITY, AR, 71630","No_Match",NA,NA,NA,NA
993516,"PO BOX 66","ASPERMONT","TX",79502,NA,NA,16,"PO BOX 66, ASPERMONT, TX, 79502","No_Match",NA,NA,NA,NA
993517,"PO BOX 66","BENTON","AR",72018,NA,NA,17,"PO BOX 66, BENTON, AR, 72018","No_Match",NA,NA,NA,NA
993518,"PO BOX 66","BUFFALO","SD",57720,NA,NA,18,"PO BOX 66, BUFFALO, SD, 57720","No_Match",NA,NA,NA,NA
993519,"PO BOX 66","BYRON","MN",55920,NA,NA,19,"PO BOX 66, BYRON, MN, 55920","No_Match",NA,NA,NA,NA
993520,"PO BOX 66","CASTILE","NY",14427,NA,NA,20,"PO BOX 66, CASTILE, NY, 14427","No_Match",NA,NA,NA,NA
993521,"PO BOX 66","CHESTERVILLE","OH",43317,NA,NA,21,"PO BOX 66, CHESTERVILLE, OH, 43317","No_Match",NA,NA,NA,NA
993522,"PO BOX 66","CHESWOLD","DE",19936,NA,NA,22,"PO BOX 66, CHESWOLD, DE, 19936","No_Match",NA,NA,NA,NA
993523,"PO BOX 66","CLIO","SC",29525,NA,NA,23,"PO BOX 66, CLIO, SC, 29525","No_Match",NA,NA,NA,NA
993524,"PO BOX 66","ESTELLINE","TX",79233,NA,NA,24,"PO BOX 66, ESTELLINE, TX, 79233","No_Match",NA,NA,NA,NA
993525,"PO BOX 66","FLORENCE","MT",59833,NA,NA,25,"PO BOX 66, FLORENCE, MT, 59833","No_Match",NA,NA,NA,NA
993526,"PO BOX 66","FOREST CITY","IA",50436,NA,NA,26,"PO BOX 66, FOREST CITY, IA, 50436","No_Match",NA,NA,NA,NA
993527,"PO BOX 66","GAIL","TX",79738,NA,NA,27,"PO BOX 66, GAIL, TX, 79738","No_Match",NA,NA,NA,NA
993528,"PO BOX 66","GERALDINE","MT",59446,NA,NA,28,"PO BOX 66, GERALDINE, MT, 59446","No_Match",NA,NA,NA,NA
993529,"PO BOX 66","HALLIEFORD","VA",23068,NA,NA,29,"PO BOX 66, HALLIEFORD, VA, 23068","No_Match",NA,NA,NA,NA
993530,"PO BOX 66","HALSEY","NE",96142,NA,NA,30,"PO BOX 66, HALSEY, NE, 96142","No_Match",NA,NA,NA,NA
993531,"PO BOX 66","HAYTI","SD",57241,NA,NA,31,"PO BOX 66, HAYTI, SD, 57241","No_Match",NA,NA,NA,NA
993532,"PO BOX 66","LEMONT","PA",16851,NA,NA,32,"PO BOX 66, LEMONT, PA, 16851","No_Match",NA,NA,NA,NA
993533,"PO BOX 66","MANAWA","WI",54949,NA,NA,33,"PO BOX 66, MANAWA, WI, 54949","No_Match",NA,NA,NA,NA
993534,"PO BOX 66","MARATHON","TX",79842,NA,NA,34,"PO BOX 66, MARATHON, TX, 79842","No_Match",NA,NA,NA,NA
993535,"PO BOX 66","MCGREGOR","MN",55760,NA,NA,35,"PO BOX 66, MCGREGOR, MN, 55760","No_Match",NA,NA,NA,NA
993536,"PO BOX 66","MOSCOW","PA",18444,NA,NA,36,"PO BOX 66, MOSCOW, PA, 18444","No_Match",NA,NA,NA,NA
993537,"PO BOX 66","NEW HOLLAND","OH",43145,NA,NA,37,"PO BOX 66, NEW HOLLAND, OH, 43145","No_Match",NA,NA,NA,NA
993538,"PO BOX 66","OGLESBY","TX",76561,NA,NA,38,"PO BOX 66, OGLESBY, TX, 76561","No_Match",NA,NA,NA,NA
993539,"PO BOX 66","PETTUS","TX",78146,NA,NA,39,"PO BOX 66, PETTUS, TX, 78146","No_Match",NA,NA,NA,NA
993540,"PO BOX 66","RED LODGE","MT",59068,NA,NA,40,"PO BOX 66, RED LODGE, MT, 59068","No_Match",NA,NA,NA,NA
993541,"PO BOX 66","SAN JACINTO","CA",92581,NA,NA,41,"PO BOX 66, SAN JACINTO, CA, 92581","No_Match",NA,NA,NA,NA
993542,"PO BOX 66","SMARTSVILLE","CA",95977,NA,NA,42,"PO BOX 66, SMARTSVILLE, CA, 95977","No_Match",NA,NA,NA,NA
993543,"PO BOX 66","STATE PARK","SC",29147,NA,NA,43,"PO BOX 66, STATE PARK, SC, 29147","No_Match",NA,NA,NA,NA
993544,"PO BOX 66","SWEDESBORO","NJ",8085,NA,NA,44,"PO BOX 66, SWEDESBORO, NJ, 8085","No_Match",NA,NA,NA,NA
993545,"PO BOX 66","UPPER MARLBORO","MD",20773,NA,NA,45,"PO BOX 66, UPPER MARLBORO, MD, 20773","No_Match",NA,NA,NA,NA
993546,"PO BOX 66","WAUBUN","MN",56589,NA,NA,46,"PO BOX 66, WAUBUN, MN, 56589","No_Match",NA,NA,NA,NA
993547,"PO BOX 66","WELLSTON","OH",45692,NA,NA,47,"PO BOX 66, WELLSTON, OH, 45692","No_Match",NA,NA,NA,NA
993548,"PO BOX 66","WHIGHAM","GA",39897,NA,NA,48,"PO BOX 66, WHIGHAM, GA, 39897","No_Match",NA,NA,NA,NA
993549,"PO BOX 66","WINDSOR","SC",28856,NA,NA,49,"PO BOX 66, WINDSOR, SC, 28856","No_Match",NA,NA,NA,NA
993550,"PO BOX 66","WINSLOW","IN",47558,NA,NA,50,"PO BOX 66, WINSLOW, IN, 47558","No_Match",NA,NA,NA,NA
993551,"PO BOX 660","ALPHARETTA","GA",30009,NA,NA,51,"PO BOX 660, ALPHARETTA, GA, 30009","No_Match",NA,NA,NA,NA
993552,"PO BOX 660","BANDON","OR",97411,NA,NA,52,"PO BOX 660, BANDON, OR, 97411","No_Match",NA,NA,NA,NA
993553,"PO BOX 660","BARRANQUITAS","PR",794,NA,NA,53,"PO BOX 660, BARRANQUITAS, PR, 794","No_Match",NA,NA,NA,NA
993554,"PO BOX 660","BAXTER SPRINGS","KS",66713,NA,NA,54,"PO BOX 660, BAXTER SPRINGS, KS, 66713","No_Match",NA,NA,NA,NA
993555,"PO BOX 660","CRESCENT CITY","CA",95524,NA,NA,55,"PO BOX 660, CRESCENT CITY, CA, 95524","No_Match",NA,NA,NA,NA
993556,"PO BOX 660","CUERO","TX",77954,NA,NA,56,"PO BOX 660, CUERO, TX, 77954","No_Match",NA,NA,NA,NA
993557,"PO BOX 660","EVANSVILLE","WY",82636,NA,NA,57,"PO BOX 660, EVANSVILLE, WY, 82636","No_Match",NA,NA,NA,NA
993558,"PO BOX 660","FOLLY BEACH","SC",29439,NA,NA,58,"PO BOX 660, FOLLY BEACH, SC, 29439","No_Match",NA,NA,NA,NA
993559,"PO BOX 660","JACKSON","WY",83001,NA,NA,59,"PO BOX 660, JACKSON, WY, 83001","No_Match",NA,NA,NA,NA
993560,"PO BOX 660","LANSDOWNE","PA",19050,NA,NA,60,"PO BOX 660, LANSDOWNE, PA, 19050","No_Match",NA,NA,NA,NA
993561,"PO BOX 660","LILLIAN","TX",76061,NA,NA,61,"PO BOX 660, LILLIAN, TX, 76061","No_Match",NA,NA,NA,NA
993562,"PO BOX 660","SAINT JAMES","MO",65559,NA,NA,62,"PO BOX 660, SAINT JAMES, MO, 65559","No_Match",NA,NA,NA,NA
993563,"PO BOX 660","SWEETWATER","TX",79556,NA,NA,63,"PO BOX 660, SWEETWATER, TX, 79556","No_Match",NA,NA,NA,NA
993564,"PO BOX 6601","CHESAPEAKE","VA",23323,NA,NA,64,"PO BOX 6601, CHESAPEAKE, VA, 23323","No_Match",NA,NA,NA,NA
993565,"PO BOX 660204","AUSTIN","TX",78759,NA,NA,65,"PO BOX 660204, AUSTIN, TX, 78759","No_Match",NA,NA,NA,NA
993566,"PO BOX 66026","WEST DES MOINES","IA",50265,NA,NA,66,"PO BOX 66026, WEST DES MOINES, IA, 50265","No_Match",NA,NA,NA,NA
993567,"PO BOX 6603","MADISON","WI",53716,NA,NA,67,"PO BOX 6603, MADISON, WI, 53716","No_Match",NA,NA,NA,NA
993568,"PO BOX 660362","VESTAVIA HILLS","AL",35266,NA,NA,68,"PO BOX 660362, VESTAVIA HILLS, AL, 35266","No_Match",NA,NA,NA,NA
993569,"PO BOX 660384","AUSTIN","TX",78766,NA,NA,69,"PO BOX 660384, AUSTIN, TX, 78766","No_Match",NA,NA,NA,NA
993570,"PO BOX 6604","BOISE","ID",83706,NA,NA,70,"PO BOX 6604, BOISE, ID, 83706","No_Match",NA,NA,NA,NA
993571,"PO BOX 6605","KINGWOOD","TX",77325,NA,NA,71,"PO BOX 6605, KINGWOOD, TX, 77325","No_Match",NA,NA,NA,NA
993572,"PO BOX 660574 - WAKEFIELD STATION","BRONX","NY",10466,NA,NA,72,"PO BOX 660574 - WAKEFIELD STATION, BRONX, NY, 10466","No_Match",NA,NA,NA,NA
993573,"PO BOX 660802","SACRAMENTO","CA",95866,NA,NA,73,"PO BOX 660802, SACRAMENTO, CA, 95866","No_Match",NA,NA,NA,NA
993574,"PO BOX 661","EAST SPENCER","NC",28039,NA,NA,74,"PO BOX 661, EAST SPENCER, NC, 28039","No_Match",NA,NA,NA,NA
993575,"PO BOX 661","FORNEY","TX",75126,NA,NA,75,"PO BOX 661, FORNEY, TX, 75126","No_Match",NA,NA,NA,NA
993576,"PO BOX 661","LAME DEER","MT",59043,NA,NA,76,"PO BOX 661, LAME DEER, MT, 59043","No_Match",NA,NA,NA,NA
993577,"PO BOX 661","MARIANNA","AR",72360,NA,NA,77,"PO BOX 661, MARIANNA, AR, 72360","No_Match",NA,NA,NA,NA
993578,"PO BOX 661","ONEONTA","AL",35121,NA,NA,78,"PO BOX 661, ONEONTA, AL, 35121","No_Match",NA,NA,NA,NA
993579,"PO BOX 661","POMPANO BEACH","FL",33061,NA,NA,79,"PO BOX 661, POMPANO BEACH, FL, 33061","No_Match",NA,NA,NA,NA
993580,"PO BOX 661","REDWAY","CA",95569,NA,NA,80,"PO BOX 661, REDWAY, CA, 95569","No_Match",NA,NA,NA,NA
993581,"PO BOX 661","RICHMOND","MN",56368,NA,NA,81,"PO BOX 661, RICHMOND, MN, 56368","No_Match",NA,NA,NA,NA
993582,"PO BOX 661","SOCORRO","NM",87801,NA,NA,82,"PO BOX 661, SOCORRO, NM, 87801","No_Match",NA,NA,NA,NA
993583,"PO BOX 661","STIGLER","OK",74462,NA,NA,83,"PO BOX 661, STIGLER, OK, 74462","No_Match",NA,NA,NA,NA
993584,"PO BOX 661","SUQUAMISH","WA",98392,NA,NA,84,"PO BOX 661, SUQUAMISH, WA, 98392","No_Match",NA,NA,NA,NA
993585,"PO BOX 661","TOK","AK",99780,NA,NA,85,"PO BOX 661, TOK, AK, 99780","No_Match",NA,NA,NA,NA
993586,"PO BOX 661074","SACRAMENTO","CA",95866,NA,NA,86,"PO BOX 661074, SACRAMENTO, CA, 95866","No_Match",NA,NA,NA,NA
993587,"PO BOX 66122","PORTLAND","OR",97290,NA,NA,87,"PO BOX 66122, PORTLAND, OR, 97290","No_Match",NA,NA,NA,NA
993588,"PO BOX 6613","SANTA ANNA","CA",92706,NA,NA,88,"PO BOX 6613, SANTA ANNA, CA, 92706","No_Match",NA,NA,NA,NA
993589,"PO BOX 66134","BALTIMORE","MD",21239,NA,NA,89,"PO BOX 66134, BALTIMORE, MD, 21239","No_Match",NA,NA,NA,NA
993590,"PO BOX 66136","VIRGINIA BEACH","VA",23466,NA,NA,90,"PO BOX 66136, VIRGINIA BEACH, VA, 23466","No_Match",NA,NA,NA,NA
993591,"PO BOX 661473","SACRAMENTO","CA",95866,NA,NA,91,"PO BOX 661473, SACRAMENTO, CA, 95866","No_Match",NA,NA,NA,NA
993592,"PO BOX 6615","ROCKY MOUNT","NC",27802,NA,NA,92,"PO BOX 6615, ROCKY MOUNT, NC, 27802","No_Match",NA,NA,NA,NA
993593,"PO BOX 6615","SAN ANTONIO","TX",78209,NA,NA,93,"PO BOX 6615, SAN ANTONIO, TX, 78209","No_Match",NA,NA,NA,NA
993594,"PO BOX 661592","SACRAMENTO","CA",95866,NA,NA,94,"PO BOX 661592, SACRAMENTO, CA, 95866","No_Match",NA,NA,NA,NA
993595,"PO BOX 6616","HILTON HEAD ISLAND","SC",29938,NA,NA,95,"PO BOX 6616, HILTON HEAD ISLAND, SC, 29938","No_Match",NA,NA,NA,NA
993596,"PO BOX 661717","LOS ANGELES","CA",90066,NA,NA,96,"PO BOX 661717, LOS ANGELES, CA, 90066","No_Match",NA,NA,NA,NA
993597,"PO BOX 66185","BURIEN","WA",98166,NA,NA,97,"PO BOX 66185, BURIEN, WA, 98166","No_Match",NA,NA,NA,NA
993598,"PO BOX 662","ARKANSAS CITY","KS",67005,NA,NA,98,"PO BOX 662, ARKANSAS CITY, KS, 67005","No_Match",NA,NA,NA,NA
993599,"PO BOX 662","FOX ISLAND","WA",98333,NA,NA,99,"PO BOX 662, FOX ISLAND, WA, 98333","No_Match",NA,NA,NA,NA
993600,"PO BOX 662","ISABELA","PR",662,NA,NA,100,"PO BOX 662, ISABELA, PR, 662","No_Match",NA,NA,NA,NA
993601,"PO BOX 662","JANESVILLE","CA",96114,NA,NA,101,"PO BOX 662, JANESVILLE, CA, 96114","No_Match",NA,NA,NA,NA
993602,"PO BOX 662","KALONA","IA",52247,NA,NA,102,"PO BOX 662, KALONA, IA, 52247","No_Match",NA,NA,NA,NA
993603,"PO BOX 662","KYLE","SD",57752,NA,NA,103,"PO BOX 662, KYLE, SD, 57752","No_Match",NA,NA,NA,NA
993604,"PO BOX 662","MANOR","TX",78653,NA,NA,104,"PO BOX 662, MANOR, TX, 78653","No_Match",NA,NA,NA,NA
993605,"PO BOX 662","MARSHALLTOWN","IA",50158,NA,NA,105,"PO BOX 662, MARSHALLTOWN, IA, 50158","No_Match",NA,NA,NA,NA
993606,"PO BOX 662","PRINCETON","NJ",8542,NA,NA,106,"PO BOX 662, PRINCETON, NJ, 8542","No_Match",NA,NA,NA,NA
993607,"PO BOX 662","RAYMOND","WA",98577,NA,NA,107,"PO BOX 662, RAYMOND, WA, 98577","No_Match",NA,NA,NA,NA
993608,"PO BOX 662","RIDGWAY","CO",81432,NA,NA,108,"PO BOX 662, RIDGWAY, CO, 81432","No_Match",NA,NA,NA,NA
993609,"PO BOX 662","WAPPINGERS FALLS","NY",12590,NA,NA,109,"PO BOX 662, WAPPINGERS FALLS, NY, 12590","No_Match",NA,NA,NA,NA
993610,"PO BOX 662","ZILLAH","WA",98953,NA,NA,110,"PO BOX 662, ZILLAH, WA, 98953","No_Match",NA,NA,NA,NA
993611,"PO BOX 662003","ARCADIA","CA",91066,NA,NA,111,"PO BOX 662003, ARCADIA, CA, 91066","No_Match",NA,NA,NA,NA
993612,"PO BOX 662114","LIHUE","HI",96766,NA,NA,112,"PO BOX 662114, LIHUE, HI, 96766","No_Match",NA,NA,NA,NA
993613,"PO BOX 6622","FORT SMITH","AR",72906,NA,NA,113,"PO BOX 6622, FORT SMITH, AR, 72906","No_Match",NA,NA,NA,NA
993614,"PO BOX 6622","KATY","TX",77491,NA,NA,114,"PO BOX 6622, KATY, TX, 77491","No_Match",NA,NA,NA,NA
993615,"PO BOX 6622","KNOXVILLE","TN",37914,NA,NA,115,"PO BOX 6622, KNOXVILLE, TN, 37914","No_Match",NA,NA,NA,NA
993616,"PO BOX 6627","BRECKENRIDGE","CO",80424,NA,NA,116,"PO BOX 6627, BRECKENRIDGE, CO, 80424","No_Match",NA,NA,NA,NA
993617,"PO BOX 6627","OCEAN ISLE BEACH","NC",28469,NA,NA,117,"PO BOX 6627, OCEAN ISLE BEACH, NC, 28469","No_Match",NA,NA,NA,NA
993618,"PO BOX 6628","DOTHAN","AL",36302,NA,NA,118,"PO BOX 6628, DOTHAN, AL, 36302","No_Match",NA,NA,NA,NA
993619,"PO BOX 6628","LARGO","MD",20792,NA,NA,119,"PO BOX 6628, LARGO, MD, 20792","No_Match",NA,NA,NA,NA
993620,"PO BOX 66284","VIRGINIA BEACH","VA",23466,NA,NA,120,"PO BOX 66284, VIRGINIA BEACH, VA, 23466","No_Match",NA,NA,NA,NA
993621,"PO BOX 663","AUSTIN","TX",78767,NA,NA,121,"PO BOX 663, AUSTIN, TX, 78767","No_Match",NA,NA,NA,NA
993622,"PO BOX 663","EDGEMONT","SD",57735,NA,NA,122,"PO BOX 663, EDGEMONT, SD, 57735","No_Match",NA,NA,NA,NA
993623,"PO BOX 663","GREENVILLE","GA",30222,NA,NA,123,"PO BOX 663, GREENVILLE, GA, 30222","No_Match",NA,NA,NA,NA
993624,"PO BOX 663","HANALEI","HI",96714,NA,NA,124,"PO BOX 663, HANALEI, HI, 96714","No_Match",NA,NA,NA,NA
993625,"PO BOX 663","HEALY","AK",99743,NA,NA,125,"PO BOX 663, HEALY, AK, 99743","No_Match",NA,NA,NA,NA
993626,"PO BOX 663","HOCKLEY","TX",77447,NA,NA,126,"PO BOX 663, HOCKLEY, TX, 77447","No_Match",NA,NA,NA,NA
993627,"PO BOX 663","JACKSONVILLE","IL",62650,NA,NA,127,"PO BOX 663, JACKSONVILLE, IL, 62650","No_Match",NA,NA,NA,NA
993628,"PO BOX 663","LAVEEN","AZ",85339,NA,NA,128,"PO BOX 663, LAVEEN, AZ, 85339","No_Match",NA,NA,NA,NA
993629,"PO BOX 663","MARS","PA",16046,NA,NA,129,"PO BOX 663, MARS, PA, 16046","No_Match",NA,NA,NA,NA
993630,"PO BOX 663","NEW HAVEN","WV",25265,NA,NA,130,"PO BOX 663, NEW HAVEN, WV, 25265","No_Match",NA,NA,NA,NA
993631,"PO BOX 663","SLATERSVILLE","RI",2876,NA,NA,131,"PO BOX 663, SLATERSVILLE, RI, 2876","No_Match",NA,NA,NA,NA
993632,"PO BOX 663","SLATERSVILLE","RI",2906,NA,NA,132,"PO BOX 663, SLATERSVILLE, RI, 2906","No_Match",NA,NA,NA,NA
993633,"PO BOX 663","SYRACUSE","NY",13201,NA,NA,133,"PO BOX 663, SYRACUSE, NY, 13201","No_Match",NA,NA,NA,NA
993634,"PO BOX 66304","BALTIMORE","MD",21239,NA,NA,134,"PO BOX 66304, BALTIMORE, MD, 21239","No_Match",NA,NA,NA,NA
993635,"PO BOX 6631","PORTSMOUTH","NH",3802,NA,NA,135,"PO BOX 6631, PORTSMOUTH, NH, 3802","No_Match",NA,NA,NA,NA
993636,"PO BOX 6632","BEND","OR",97708,NA,NA,136,"PO BOX 6632, BEND, OR, 97708","No_Match",NA,NA,NA,NA
993637,"PO BOX 66353","HOUSTON","TX",77266,NA,NA,137,"PO BOX 66353, HOUSTON, TX, 77266","No_Match",NA,NA,NA,NA
993638,"PO BOX 66386","HOUSTON","TX",77266,NA,NA,138,"PO BOX 66386, HOUSTON, TX, 77266","No_Match",NA,NA,NA,NA
993639,"PO BOX 664 MBARARA UGANDA","UGANDA",NA,NA,NA,NA,139,"PO BOX 664 MBARARA UGANDA, UGANDA, , ","No_Match",NA,NA,NA,NA
993640,"PO BOX 664","ARROYO HONDO","NM",87513,NA,NA,140,"PO BOX 664, ARROYO HONDO, NM, 87513","No_Match",NA,NA,NA,NA
993641,"PO BOX 664","BARBOURVILLE","KY",40906,NA,NA,141,"PO BOX 664, BARBOURVILLE, KY, 40906","No_Match",NA,NA,NA,NA
993642,"PO BOX 664","CARTERSVILLE","GA",30120,NA,NA,142,"PO BOX 664, CARTERSVILLE, GA, 30120","No_Match",NA,NA,NA,NA
993643,"PO BOX 664","DULCE","NM",87528,NA,NA,143,"PO BOX 664, DULCE, NM, 87528","No_Match",NA,NA,NA,NA
993644,"PO BOX 664","ENTERPRISE","UT",84725,NA,NA,144,"PO BOX 664, ENTERPRISE, UT, 84725","No_Match",NA,NA,NA,NA
993645,"PO BOX 664","ENUMCLAW","WA",98022,NA,NA,145,"PO BOX 664, ENUMCLAW, WA, 98022","No_Match",NA,NA,NA,NA
993646,"PO BOX 664","HEMPSTEAD","TX",77445,NA,NA,146,"PO BOX 664, HEMPSTEAD, TX, 77445","No_Match",NA,NA,NA,NA
993647,"PO BOX 664","MARIPOSA","CA",95338,NA,NA,147,"PO BOX 664, MARIPOSA, CA, 95338","No_Match",NA,NA,NA,NA
993648,"PO BOX 664","NEW WAVERLY","TX",77358,NA,NA,148,"PO BOX 664, NEW WAVERLY, TX, 77358","No_Match",NA,NA,NA,NA
993649,"PO BOX 664","OKANOGAN","WA",98840,NA,NA,149,"PO BOX 664, OKANOGAN, WA, 98840","No_Match",NA,NA,NA,NA
993650,"PO BOX 664","ORANGEBURG","NY",10962,NA,NA,150,"PO BOX 664, ORANGEBURG, NY, 10962","No_Match",NA,NA,NA,NA
993651,"PO BOX 664","PRINCETON JUNCTION","NJ",8550,NA,NA,151,"PO BOX 664, PRINCETON JUNCTION, NJ, 8550","No_Match",NA,NA,NA,NA
993652,"PO BOX 664","PRINCETON JUNCTION","NJ",8850,NA,NA,152,"PO BOX 664, PRINCETON JUNCTION, NJ, 8850","No_Match",NA,NA,NA,NA
993653,"PO BOX 664","RED SPRINGS","NC",28377,NA,NA,153,"PO BOX 664, RED SPRINGS, NC, 28377","No_Match",NA,NA,NA,NA
993654,"PO BOX 664","SAFETY HARBOR","FL",34695,NA,NA,154,"PO BOX 664, SAFETY HARBOR, FL, 34695","No_Match",NA,NA,NA,NA
993655,"PO BOX 664","SAGLE","ID",83860,NA,NA,155,"PO BOX 664, SAGLE, ID, 83860","No_Match",NA,NA,NA,NA
993656,"PO BOX 664","SANDERSVILLE","GA",31082,NA,NA,156,"PO BOX 664, SANDERSVILLE, GA, 31082","No_Match",NA,NA,NA,NA
993657,"PO BOX 664","SKOWHEGAN","ME",4976,NA,NA,157,"PO BOX 664, SKOWHEGAN, ME, 4976","No_Match",NA,NA,NA,NA
993658,"PO BOX 664","SOLEDAD","CA",93960,NA,NA,158,"PO BOX 664, SOLEDAD, CA, 93960","No_Match",NA,NA,NA,NA
993659,"PO BOX 664","TALKEETNA","AK",99676,NA,NA,159,"PO BOX 664, TALKEETNA, AK, 99676","No_Match",NA,NA,NA,NA
993660,"PO BOX 6641","CARMEL","CA",93955,NA,NA,160,"PO BOX 6641, CARMEL, CA, 93955","No_Match",NA,NA,NA,NA
993661,"PO BOX 66410","HOUSTON","TX",77266,NA,NA,161,"PO BOX 66410, HOUSTON, TX, 77266","No_Match",NA,NA,NA,NA
993662,"PO BOX 66434","ALBANY","NY",12206,NA,NA,162,"PO BOX 66434, ALBANY, NY, 12206","No_Match",NA,NA,NA,NA
993663,"PO BOX 66436","HOUSTON","TX",77266,NA,NA,163,"PO BOX 66436, HOUSTON, TX, 77266","No_Match",NA,NA,NA,NA
993664,"PO BOX 6647","KATY","TX",77491,NA,NA,164,"PO BOX 6647, KATY, TX, 77491","No_Match",NA,NA,NA,NA
993665,"PO BOX 665","ANDOVER","KS",67002,NA,NA,165,"PO BOX 665, ANDOVER, KS, 67002","No_Match",NA,NA,NA,NA
993666,"PO BOX 665","AUGUSTA","KS",67002,NA,NA,166,"PO BOX 665, AUGUSTA, KS, 67002","No_Match",NA,NA,NA,NA
993667,"PO BOX 665","BOISE","ID",83701,NA,NA,167,"PO BOX 665, BOISE, ID, 83701","No_Match",NA,NA,NA,NA
993668,"PO BOX 665","BUFFALO GAP","TX",79508,NA,NA,168,"PO BOX 665, BUFFALO GAP, TX, 79508","No_Match",NA,NA,NA,NA
993669,"PO BOX 665","BURNET","TX",78611,NA,NA,169,"PO BOX 665, BURNET, TX, 78611","No_Match",NA,NA,NA,NA
993670,"PO BOX 665","DOVER","AR",72837,NA,NA,170,"PO BOX 665, DOVER, AR, 72837","No_Match",NA,NA,NA,NA
993671,"PO BOX 665","EOLA","TX",76937,NA,NA,171,"PO BOX 665, EOLA, TX, 76937","No_Match",NA,NA,NA,NA
993672,"PO BOX 665","GAINESVILLE","TX",76241,NA,NA,172,"PO BOX 665, GAINESVILLE, TX, 76241","No_Match",NA,NA,NA,NA
993673,"PO BOX 665","GLADSTONE","OR",97027,NA,NA,173,"PO BOX 665, GLADSTONE, OR, 97027","No_Match",NA,NA,NA,NA
993674,"PO BOX 665","GODLEY","TX",76044,NA,NA,174,"PO BOX 665, GODLEY, TX, 76044","No_Match",NA,NA,NA,NA
993675,"PO BOX 665","JAMESTOWN","KY",42629,NA,NA,175,"PO BOX 665, JAMESTOWN, KY, 42629","No_Match",NA,NA,NA,NA
993676,"PO BOX 665","LAGUNA NIGUEL","CA",92677,NA,NA,176,"PO BOX 665, LAGUNA NIGUEL, CA, 92677","No_Match",NA,NA,NA,NA
993677,"PO BOX 665","LOVEJOY","GA",30228,NA,NA,177,"PO BOX 665, LOVEJOY, GA, 30228","No_Match",NA,NA,NA,NA
993678,"PO BOX 665","PARKTON","NC",28371,NA,NA,178,"PO BOX 665, PARKTON, NC, 28371","No_Match",NA,NA,NA,NA
993679,"PO BOX 665","TRUCKEE","CA",96160,NA,NA,179,"PO BOX 665, TRUCKEE, CA, 96160","No_Match",NA,NA,NA,NA
993680,"PO BOX 6650","DILLON","CO",80435,NA,NA,180,"PO BOX 6650, DILLON, CO, 80435","No_Match",NA,NA,NA,NA
993681,"PO BOX 6652","TYLER","TX",75711,NA,NA,181,"PO BOX 6652, TYLER, TX, 75711","No_Match",NA,NA,NA,NA
993682,"PO BOX 6653","AUGUSTA","GA",30916,NA,NA,182,"PO BOX 6653, AUGUSTA, GA, 30916","No_Match",NA,NA,NA,NA
993683,"PO BOX 66547","ALBANY","NY",12206,NA,NA,183,"PO BOX 66547, ALBANY, NY, 12206","No_Match",NA,NA,NA,NA
993684,"PO BOX 6655","KINGWOOD","TX",77325,NA,NA,184,"PO BOX 6655, KINGWOOD, TX, 77325","No_Match",NA,NA,NA,NA
993685,"PO BOX 6656","NORTH AUGUSTA","SC",29861,NA,NA,185,"PO BOX 6656, NORTH AUGUSTA, SC, 29861","No_Match",NA,NA,NA,NA
993686,"PO BOX 6657","CLEVELAND","OH",44101,NA,NA,186,"PO BOX 6657, CLEVELAND, OH, 44101","No_Match",NA,NA,NA,NA
993687,"PO BOX 6657","MILWAUKEE","WI",53206,NA,NA,187,"PO BOX 6657, MILWAUKEE, WI, 53206","No_Match",NA,NA,NA,NA
993688,"PO BOX 66572","TUCSON","AZ",85728,NA,NA,188,"PO BOX 66572, TUCSON, AZ, 85728","No_Match",NA,NA,NA,NA
993689,"PO BOX 666","BRISTOL","VA",24203,NA,NA,189,"PO BOX 666, BRISTOL, VA, 24203","No_Match",NA,NA,NA,NA
993690,"PO BOX 666","CHICKASHA","OK",73023,NA,NA,190,"PO BOX 666, CHICKASHA, OK, 73023","No_Match",NA,NA,NA,NA
993691,"PO BOX 666","EL PASO","TX",79906,NA,NA,191,"PO BOX 666, EL PASO, TX, 79906","No_Match",NA,NA,NA,NA
993692,"PO BOX 666","ENKA","NC",28728,NA,NA,192,"PO BOX 666, ENKA, NC, 28728","No_Match",NA,NA,NA,NA
993693,"PO BOX 666","FAIRPLAY","CO",80440,NA,NA,193,"PO BOX 666, FAIRPLAY, CO, 80440","No_Match",NA,NA,NA,NA
993694,"PO BOX 666","GRANBY","CO",80446,NA,NA,194,"PO BOX 666, GRANBY, CO, 80446","No_Match",NA,NA,NA,NA
993695,"PO BOX 666","HUGO","CO",80821,NA,NA,195,"PO BOX 666, HUGO, CO, 80821","No_Match",NA,NA,NA,NA
993696,"PO BOX 666","KENWOOD","CA",95452,NA,NA,196,"PO BOX 666, KENWOOD, CA, 95452","No_Match",NA,NA,NA,NA
993697,"PO BOX 666","NEW CITY","NY",10956,NA,NA,197,"PO BOX 666, NEW CITY, NY, 10956","No_Match",NA,NA,NA,NA
993698,"PO BOX 666","SPARTA","GA",31087,NA,NA,198,"PO BOX 666, SPARTA, GA, 31087","No_Match",NA,NA,NA,NA
993699,"PO BOX 6664","JACKSONVILLE","FL",32236,NA,NA,199,"PO BOX 6664, JACKSONVILLE, FL, 32236","No_Match",NA,NA,NA,NA
993700,"PO BOX 6664","LAKELAND","FL",33807,NA,NA,200,"PO BOX 6664, LAKELAND, FL, 33807","No_Match",NA,NA,NA,NA
993701,"PO BOX 6664","PAGO PAGO","AS",96799,NA,NA,201,"PO BOX 6664, PAGO PAGO, AS, 96799","No_Match",NA,NA,NA,NA
993702,"PO BOX 6664","SNOWMASS VILLAGE","CO",81615,NA,NA,202,"PO BOX 6664, SNOWMASS VILLAGE, CO, 81615","No_Match",NA,NA,NA,NA
993703,"PO BOX 667 REDAN","REDAN","GA",30074,NA,NA,203,"PO BOX 667 REDAN, REDAN, GA, 30074","No_Match",NA,NA,NA,NA
993704,"PO BOX 667","BLAKELY","GA",39823,NA,NA,204,"PO BOX 667, BLAKELY, GA, 39823","No_Match",NA,NA,NA,NA
993705,"PO BOX 667","CAPTAIN BOOK","HI",96704,NA,NA,205,"PO BOX 667, CAPTAIN BOOK, HI, 96704","No_Match",NA,NA,NA,NA
993706,"PO BOX 667","CHINO HILLS","CA",91709,NA,NA,206,"PO BOX 667, CHINO HILLS, CA, 91709","No_Match",NA,NA,NA,NA
993707,"PO BOX 667","DELTA JUNCTION","AK",99737,NA,NA,207,"PO BOX 667, DELTA JUNCTION, AK, 99737","No_Match",NA,NA,NA,NA
993708,"PO BOX 667","DOVE CREEK","CO",81324,NA,NA,208,"PO BOX 667, DOVE CREEK, CO, 81324","No_Match",NA,NA,NA,NA
993709,"PO BOX 667","GUAYNABO","PR",970,NA,NA,209,"PO BOX 667, GUAYNABO, PR, 970","No_Match",NA,NA,NA,NA
993710,"PO BOX 667","JERICHO","NY",11753,NA,NA,210,"PO BOX 667, JERICHO, NY, 11753","No_Match",NA,NA,NA,NA
993711,"PO BOX 667","LEAKEY","TX",78873,NA,NA,211,"PO BOX 667, LEAKEY, TX, 78873","No_Match",NA,NA,NA,NA
993712,"PO BOX 667","MANSFIELD","WA",98830,NA,NA,212,"PO BOX 667, MANSFIELD, WA, 98830","No_Match",NA,NA,NA,NA
993713,"PO BOX 667","MEADVIEW","AZ",86444,NA,NA,213,"PO BOX 667, MEADVIEW, AZ, 86444","No_Match",NA,NA,NA,NA
993714,"PO BOX 667","MERIDIANVILLE","AL",35759,NA,NA,214,"PO BOX 667, MERIDIANVILLE, AL, 35759","No_Match",NA,NA,NA,NA
993715,"PO BOX 667","SOUTH ROYALTON","VT",5068,NA,NA,215,"PO BOX 667, SOUTH ROYALTON, VT, 5068","No_Match",NA,NA,NA,NA
993716,"PO BOX 667","WEST LIBERTY","OH",43357,NA,NA,216,"PO BOX 667, WEST LIBERTY, OH, 43357","No_Match",NA,NA,NA,NA
993717,"PO BOX 667019","HOUSTON","TX",77266,NA,NA,217,"PO BOX 667019, HOUSTON, TX, 77266","No_Match",NA,NA,NA,NA
993718,"PO BOX 667041","HOUSTON","TX",77266,NA,NA,218,"PO BOX 667041, HOUSTON, TX, 77266","No_Match",NA,NA,NA,NA
993719,"PO BOX 667062","FORT LAUDERDALE","FL",33311,NA,NA,219,"PO BOX 667062, FORT LAUDERDALE, FL, 33311","No_Match",NA,NA,NA,NA
993720,"PO BOX 6671","BEAVERTON","OR",97007,NA,NA,220,"PO BOX 6671, BEAVERTON, OR, 97007","No_Match",NA,NA,NA,NA
993721,"PO BOX 667133","HOUSTON","TX",77266,NA,NA,221,"PO BOX 667133, HOUSTON, TX, 77266","No_Match",NA,NA,NA,NA
993722,"PO BOX 667151","HOUSTON","TX",77266,NA,NA,222,"PO BOX 667151, HOUSTON, TX, 77266","No_Match",NA,NA,NA,NA
993723,"PO BOX 6672","HIGH POINT","NC",27262,NA,NA,223,"PO BOX 6672, HIGH POINT, NC, 27262","No_Match",NA,NA,NA,NA
993724,"PO BOX 6672","VAN BUREN","AR",72956,NA,NA,224,"PO BOX 6672, VAN BUREN, AR, 72956","No_Match",NA,NA,NA,NA
993725,"PO BOX 667253","HOUSTON","TX",77266,NA,NA,225,"PO BOX 667253, HOUSTON, TX, 77266","No_Match",NA,NA,NA,NA
993726,"PO BOX 667339","HOUSTON","TX",77266,NA,NA,226,"PO BOX 667339, HOUSTON, TX, 77266","No_Match",NA,NA,NA,NA
993727,"PO BOX 667368","CHARLOTTE","NC",28266,NA,NA,227,"PO BOX 667368, CHARLOTTE, NC, 28266","No_Match",NA,NA,NA,NA
993728,"PO BOX 6674","BLOOMINGTON","IN",47407,NA,NA,228,"PO BOX 6674, BLOOMINGTON, IN, 47407","No_Match",NA,NA,NA,NA
993729,"PO BOX 6674","PARIS","TX",75461,NA,NA,229,"PO BOX 6674, PARIS, TX, 75461","No_Match",NA,NA,NA,NA
993730,"PO BOX 6674","SAN ANTONIO","TX",78209,NA,NA,230,"PO BOX 6674, SAN ANTONIO, TX, 78209","No_Match",NA,NA,NA,NA
993731,"PO BOX 66742","MOBILE","AL",36660,NA,NA,231,"PO BOX 66742, MOBILE, AL, 36660","No_Match",NA,NA,NA,NA
993732,"PO BOX 667571","HOUSTON","TX",77266,NA,NA,232,"PO BOX 667571, HOUSTON, TX, 77266","No_Match",NA,NA,NA,NA
993733,"PO BOX 66765","ALBUQUERQUE","NM",87193,NA,NA,233,"PO BOX 66765, ALBUQUERQUE, NM, 87193","No_Match",NA,NA,NA,NA
993734,"PO BOX 6678","ATLANTA","GA",30315,NA,NA,234,"PO BOX 6678, ATLANTA, GA, 30315","No_Match",NA,NA,NA,NA
993735,"PO BOX 667812","CHARLOTTE","GA",28266,NA,NA,235,"PO BOX 667812, CHARLOTTE, GA, 28266","No_Match",NA,NA,NA,NA
993736,"PO BOX 667812","CHARLOTTE","NC",28266,NA,NA,236,"PO BOX 667812, CHARLOTTE, NC, 28266","No_Match",NA,NA,NA,NA
993737,"PO BOX 667974","POMPANO BEACH","FL",33066,NA,NA,237,"PO BOX 667974, POMPANO BEACH, FL, 33066","No_Match",NA,NA,NA,NA
993738,"PO BOX 668","AUBREY","TX",76227,NA,NA,238,"PO BOX 668, AUBREY, TX, 76227","No_Match",NA,NA,NA,NA
993739,"PO BOX 668","BAYSIDE","CA",95524,NA,NA,239,"PO BOX 668, BAYSIDE, CA, 95524","No_Match",NA,NA,NA,NA
993740,"PO BOX 668","CAMP SHERMAN","OR",97730,NA,NA,240,"PO BOX 668, CAMP SHERMAN, OR, 97730","No_Match",NA,NA,NA,NA
993741,"PO BOX 668","CANBY","OR",97013,NA,NA,241,"PO BOX 668, CANBY, OR, 97013","No_Match",NA,NA,NA,NA
993742,"PO BOX 668","DANBURY","TX",77534,NA,NA,242,"PO BOX 668, DANBURY, TX, 77534","No_Match",NA,NA,NA,NA
993743,"PO BOX 668","JACKSON","MS",39205,NA,NA,243,"PO BOX 668, JACKSON, MS, 39205","No_Match",NA,NA,NA,NA
993744,"PO BOX 668","KASILOF","AK",99610,NA,NA,244,"PO BOX 668, KASILOF, AK, 99610","No_Match",NA,NA,NA,NA
993745,"PO BOX 668","LAKE JACKSON","TX",77566,NA,NA,245,"PO BOX 668, LAKE JACKSON, TX, 77566","No_Match",NA,NA,NA,NA
993746,"PO BOX 668","LIBERTY HILL","TX",78642,NA,NA,246,"PO BOX 668, LIBERTY HILL, TX, 78642","No_Match",NA,NA,NA,NA
993747,"PO BOX 668","LOCKHART","TX",78644,NA,NA,247,"PO BOX 668, LOCKHART, TX, 78644","No_Match",NA,NA,NA,NA
993748,"PO BOX 668","RED LODGE","MT",59068,NA,NA,248,"PO BOX 668, RED LODGE, MT, 59068","No_Match",NA,NA,NA,NA
993749,"PO BOX 668","SAINT AUGUSTINE","FL",32085,NA,NA,249,"PO BOX 668, SAINT AUGUSTINE, FL, 32085","No_Match",NA,NA,NA,NA
993750,"PO BOX 668","TAOS","NM",87571,NA,NA,250,"PO BOX 668, TAOS, NM, 87571","No_Match",NA,NA,NA,NA
993751,"PO BOX 668","VALLEY MILLS","TX",76689,NA,NA,251,"PO BOX 668, VALLEY MILLS, TX, 76689","No_Match",NA,NA,NA,NA
993752,"PO BOX 668","WAKE FOREST","NC",27588,NA,NA,252,"PO BOX 668, WAKE FOREST, NC, 27588","No_Match",NA,NA,NA,NA
993753,"PO BOX 6682","SPARTANBURG","SC",29304,NA,NA,253,"PO BOX 6682, SPARTANBURG, SC, 29304","No_Match",NA,NA,NA,NA
993754,"PO BOX 6683","GREENVILLE","SC",29606,NA,NA,254,"PO BOX 6683, GREENVILLE, SC, 29606","No_Match",NA,NA,NA,NA
993755,"PO BOX 668421","POMPANO BEACH","FL",33066,NA,NA,255,"PO BOX 668421, POMPANO BEACH, FL, 33066","No_Match",NA,NA,NA,NA
993756,"PO BOX 6687","KINGWOOD","TX",77325,NA,NA,256,"PO BOX 6687, KINGWOOD, TX, 77325","No_Match",NA,NA,NA,NA
993757,"PO BOX 66872","PORTLAND","OR",97290,NA,NA,257,"PO BOX 66872, PORTLAND, OR, 97290","No_Match",NA,NA,NA,NA
993758,"PO BOX 668721","CHARLOTTE","NC",28266,NA,NA,258,"PO BOX 668721, CHARLOTTE, NC, 28266","No_Match",NA,NA,NA,NA
993759,"PO BOX 668871","POMPANO BEACH","FL",33066,NA,NA,259,"PO BOX 668871, POMPANO BEACH, FL, 33066","No_Match",NA,NA,NA,NA
993760,"PO BOX 669","AUSTIN","TX",78701,NA,NA,260,"PO BOX 669, AUSTIN, TX, 78701","No_Match",NA,NA,NA,NA
993761,"PO BOX 669","GOLDTHWAITE","TX",76844,NA,NA,261,"PO BOX 669, GOLDTHWAITE, TX, 76844","No_Match",NA,NA,NA,NA
993762,"PO BOX 669","HUMBODLT","IA",50548,NA,NA,262,"PO BOX 669, HUMBODLT, IA, 50548","No_Match",NA,NA,NA,NA
993763,"PO BOX 669","HUMBOLDT","IA",50548,NA,NA,263,"PO BOX 669, HUMBOLDT, IA, 50548","No_Match",NA,NA,NA,NA
993764,"PO BOX 669","JACKSON","WY",83001,NA,NA,264,"PO BOX 669, JACKSON, WY, 83001","No_Match",NA,NA,NA,NA
993765,"PO BOX 669","LEXINGTON","MS",39095,NA,NA,265,"PO BOX 669, LEXINGTON, MS, 39095","No_Match",NA,NA,NA,NA
993766,"PO BOX 669","MACOMB","IL",61455,NA,NA,266,"PO BOX 669, MACOMB, IL, 61455","No_Match",NA,NA,NA,NA
993767,"PO BOX 669","MAYTOWN","PA",17550,NA,NA,267,"PO BOX 669, MAYTOWN, PA, 17550","No_Match",NA,NA,NA,NA
993768,"PO BOX 669","ROSAMOND","CA",93560,NA,NA,268,"PO BOX 669, ROSAMOND, CA, 93560","No_Match",NA,NA,NA,NA
993769,"PO BOX 669","WOLFEBORO","NH",3894,NA,NA,269,"PO BOX 669, WOLFEBORO, NH, 3894","No_Match",NA,NA,NA,NA
993770,"PO BOX 6693","ITHICA","NY",14851,NA,NA,270,"PO BOX 6693, ITHICA, NY, 14851","No_Match",NA,NA,NA,NA
993771,"PO BOX 669574","MARIETTA","GA",30066,NA,NA,271,"PO BOX 669574, MARIETTA, GA, 30066","No_Match",NA,NA,NA,NA
993772,"PO BOX 6698","CHARLOTTESVILLE","VA",22906,NA,NA,272,"PO BOX 6698, CHARLOTTESVILLE, VA, 22906","No_Match",NA,NA,NA,NA
993773,"PO BOX 67","BEVERLY","KS",67423,NA,NA,273,"PO BOX 67, BEVERLY, KS, 67423","No_Match",NA,NA,NA,NA
993774,"PO BOX 67","BOX ELDER","MT",59521,NA,NA,274,"PO BOX 67, BOX ELDER, MT, 59521","No_Match",NA,NA,NA,NA
993775,"PO BOX 67","BUNKER HILL","KS",67626,NA,NA,275,"PO BOX 67, BUNKER HILL, KS, 67626","No_Match",NA,NA,NA,NA
993776,"PO BOX 67","CHAUNCEY","GA",31011,NA,NA,276,"PO BOX 67, CHAUNCEY, GA, 31011","No_Match",NA,NA,NA,NA
993777,"PO BOX 67","EAGLE LAKE","FL",33839,NA,NA,277,"PO BOX 67, EAGLE LAKE, FL, 33839","No_Match",NA,NA,NA,NA
993778,"PO BOX 67","EAST SETAUKET","NY",11733,NA,NA,278,"PO BOX 67, EAST SETAUKET, NY, 11733","No_Match",NA,NA,NA,NA
993779,"PO BOX 67","EAST SETUAKET","NY",11733,NA,NA,279,"PO BOX 67, EAST SETUAKET, NY, 11733","No_Match",NA,NA,NA,NA
993780,"PO BOX 67","ESMOND","ND",58332,NA,NA,280,"PO BOX 67, ESMOND, ND, 58332","No_Match",NA,NA,NA,NA
993781,"PO BOX 67","FLORISSANT","MO",63032,NA,NA,281,"PO BOX 67, FLORISSANT, MO, 63032","No_Match",NA,NA,NA,NA
993782,"PO BOX 67","JASPER","MN",56144,NA,NA,282,"PO BOX 67, JASPER, MN, 56144","No_Match",NA,NA,NA,NA
993783,"PO BOX 67","JUDSON","TX",75660,NA,NA,283,"PO BOX 67, JUDSON, TX, 75660","No_Match",NA,NA,NA,NA
993784,"PO BOX 67","LEXINGTON","VA",24450,NA,NA,284,"PO BOX 67, LEXINGTON, VA, 24450","No_Match",NA,NA,NA,NA
993785,"PO BOX 67","LOWDEN","IA",52255,NA,NA,285,"PO BOX 67, LOWDEN, IA, 52255","No_Match",NA,NA,NA,NA
993786,"PO BOX 67","MARION","IA",52302,NA,NA,286,"PO BOX 67, MARION, IA, 52302","No_Match",NA,NA,NA,NA
993787,"PO BOX 67","MITCHELLVILLE","IA",50169,NA,NA,287,"PO BOX 67, MITCHELLVILLE, IA, 50169","No_Match",NA,NA,NA,NA
993788,"PO BOX 67","OAK BLUFFS","MA",2557,NA,NA,288,"PO BOX 67, OAK BLUFFS, MA, 2557","No_Match",NA,NA,NA,NA
993789,"PO BOX 67","OAKDALE","TN",37829,NA,NA,289,"PO BOX 67, OAKDALE, TN, 37829","No_Match",NA,NA,NA,NA
993790,"PO BOX 67","OKEMOS","MI",48805,NA,NA,290,"PO BOX 67, OKEMOS, MI, 48805","No_Match",NA,NA,NA,NA
993791,"PO BOX 67","RAPELJE","MT",59067,NA,NA,291,"PO BOX 67, RAPELJE, MT, 59067","No_Match",NA,NA,NA,NA
993792,"PO BOX 67","RONALD","WA",98940,NA,NA,292,"PO BOX 67, RONALD, WA, 98940","No_Match",NA,NA,NA,NA
993793,"PO BOX 67","SANFORD","FL",32772,NA,NA,293,"PO BOX 67, SANFORD, FL, 32772","No_Match",NA,NA,NA,NA
993794,"PO BOX 67","SMITHWICK","SD",57782,NA,NA,294,"PO BOX 67, SMITHWICK, SD, 57782","No_Match",NA,NA,NA,NA
993795,"PO BOX 67","SO. PRAIRIE","WA",98385,NA,NA,295,"PO BOX 67, SO. PRAIRIE, WA, 98385","No_Match",NA,NA,NA,NA
993796,"PO BOX 67","SOD","WV",25564,NA,NA,296,"PO BOX 67, SOD, WV, 25564","No_Match",NA,NA,NA,NA
993797,"PO BOX 67","WANCHESE","NC",27981,NA,NA,297,"PO BOX 67, WANCHESE, NC, 27981","No_Match",NA,NA,NA,NA
993798,"PO BOX 67","WARTRACE","TN",37183,NA,NA,298,"PO BOX 67, WARTRACE, TN, 37183","No_Match",NA,NA,NA,NA
993799,"PO BOX 67","WAYNE","WV",25570,NA,NA,299,"PO BOX 67, WAYNE, WV, 25570","No_Match",NA,NA,NA,NA
993800,"PO BOX 67","WEED","CA",96094,NA,NA,300,"PO BOX 67, WEED, CA, 96094","No_Match",NA,NA,NA,NA
993801,"PO BOX 67","WESTON","TX",75097,NA,NA,301,"PO BOX 67, WESTON, TX, 75097","No_Match",NA,NA,NA,NA
993802,"PO BOX 67","WEYERHAUSER","WI",54895,NA,NA,302,"PO BOX 67, WEYERHAUSER, WI, 54895","No_Match",NA,NA,NA,NA
993803,"PO BOX 67","YORK","AL",36925,NA,NA,303,"PO BOX 67, YORK, AL, 36925","No_Match",NA,NA,NA,NA
993804,"PO BOX 67/ 1408 OLD POST ROAD","RIFTON","NY",12478,NA,NA,304,"PO BOX 67/ 1408 OLD POST ROAD, RIFTON, NY, 12478","No_Match",NA,NA,NA,NA
993805,"PO BOX 670","ALEDO","TX",76008,NA,NA,305,"PO BOX 670, ALEDO, TX, 76008","No_Match",NA,NA,NA,NA
993806,"PO BOX 670","ALLENWOOD","NJ",8720,NA,NA,306,"PO BOX 670, ALLENWOOD, NJ, 8720","No_Match",NA,NA,NA,NA
993807,"PO BOX 670","CAMDEN","SC",29021,NA,NA,307,"PO BOX 670, CAMDEN, SC, 29021","No_Match",NA,NA,NA,NA
993808,"PO BOX 670","CISCO","TX",76437,NA,NA,308,"PO BOX 670, CISCO, TX, 76437","No_Match",NA,NA,NA,NA
993809,"PO BOX 670","CROSBY","TX",77532,NA,NA,309,"PO BOX 670, CROSBY, TX, 77532","No_Match",NA,NA,NA,NA
993810,"PO BOX 670","LOYAL","KY",40854,NA,NA,310,"PO BOX 670, LOYAL, KY, 40854","No_Match",NA,NA,NA,NA
993811,"PO BOX 670","PORT ISABEL","TX",78578,NA,NA,311,"PO BOX 670, PORT ISABEL, TX, 78578","No_Match",NA,NA,NA,NA
993812,"PO BOX 670","TEMPLETON","CA",93465,NA,NA,312,"PO BOX 670, TEMPLETON, CA, 93465","No_Match",NA,NA,NA,NA
993813,"PO BOX 670","TIOGA","TX",76271,NA,NA,313,"PO BOX 670, TIOGA, TX, 76271","No_Match",NA,NA,NA,NA
993814,"PO BOX 670046","CHUGIAK","AK",99567,NA,NA,314,"PO BOX 670046, CHUGIAK, AK, 99567","No_Match",NA,NA,NA,NA
993815,"PO BOX 670094","BRONX","NY",10467,NA,NA,315,"PO BOX 670094, BRONX, NY, 10467","No_Match",NA,NA,NA,NA
993816,"PO BOX 670215","HOUSTON","TX",77267,NA,NA,316,"PO BOX 670215, HOUSTON, TX, 77267","No_Match",NA,NA,NA,NA
993817,"PO BOX 670221","CHUGIAK","AK",99567,NA,NA,317,"PO BOX 670221, CHUGIAK, AK, 99567","No_Match",NA,NA,NA,NA
993818,"PO BOX 670227","HOUSTON","TX",77267,NA,NA,318,"PO BOX 670227, HOUSTON, TX, 77267","No_Match",NA,NA,NA,NA
993819,"PO BOX 670271","CHUGIAK","AK",99567,NA,NA,319,"PO BOX 670271, CHUGIAK, AK, 99567","No_Match",NA,NA,NA,NA
993820,"PO BOX 6706","GULFPORT","MS",39506,NA,NA,320,"PO BOX 6706, GULFPORT, MS, 39506","No_Match",NA,NA,NA,NA
993821,"PO BOX 67061","OAK GROVE","OR",97268,NA,NA,321,"PO BOX 67061, OAK GROVE, OR, 97268","No_Match",NA,NA,NA,NA
993822,"PO BOX 670614","DALLAS","TX",75367,NA,NA,322,"PO BOX 670614, DALLAS, TX, 75367","No_Match",NA,NA,NA,NA
993823,"PO BOX 670698","CHUGIAK","AK",99567,NA,NA,323,"PO BOX 670698, CHUGIAK, AK, 99567","No_Match",NA,NA,NA,NA
993824,"PO BOX 670883","FLUSHING","NY",11367,NA,NA,324,"PO BOX 670883, FLUSHING, NY, 11367","No_Match",NA,NA,NA,NA
993825,"PO BOX 671","BELLE GLADE","FL",33430,NA,NA,325,"PO BOX 671, BELLE GLADE, FL, 33430","No_Match",NA,NA,NA,NA
993826,"PO BOX 671","BOONVILLE","CA",95415,NA,NA,326,"PO BOX 671, BOONVILLE, CA, 95415","No_Match",NA,NA,NA,NA
993827,"PO BOX 671","CEDARVILLE","MI",49719,NA,NA,327,"PO BOX 671, CEDARVILLE, MI, 49719","No_Match",NA,NA,NA,NA
993828,"PO BOX 671","EAST MORICHES","NY",11940,NA,NA,328,"PO BOX 671, EAST MORICHES, NY, 11940","No_Match",NA,NA,NA,NA
993829,"PO BOX 671","HOWE","TX",75459,NA,NA,329,"PO BOX 671, HOWE, TX, 75459","No_Match",NA,NA,NA,NA
993830,"PO BOX 671","LITCHFIELD","CT",6759,NA,NA,330,"PO BOX 671, LITCHFIELD, CT, 6759","No_Match",NA,NA,NA,NA
993831,"PO BOX 671","NARBERTH","PA",19072,NA,NA,331,"PO BOX 671, NARBERTH, PA, 19072","No_Match",NA,NA,NA,NA
993832,"PO BOX 671","NEWTON","KS",67114,NA,NA,332,"PO BOX 671, NEWTON, KS, 67114","No_Match",NA,NA,NA,NA
993833,"PO BOX 671","PORTAGE","MI",49081,NA,NA,333,"PO BOX 671, PORTAGE, MI, 49081","No_Match",NA,NA,NA,NA
993834,"PO BOX 671","PORTGAGE","MI",49081,NA,NA,334,"PO BOX 671, PORTGAGE, MI, 49081","No_Match",NA,NA,NA,NA
993835,"PO BOX 671","QUESTA","NM",87556,NA,NA,335,"PO BOX 671, QUESTA, NM, 87556","No_Match",NA,NA,NA,NA
993836,"PO BOX 671","RHINELANDER","WI",54501,NA,NA,336,"PO BOX 671, RHINELANDER, WI, 54501","No_Match",NA,NA,NA,NA
993837,"PO BOX 671","WALDPORT","OR",97394,NA,NA,337,"PO BOX 671, WALDPORT, OR, 97394","No_Match",NA,NA,NA,NA
993838,"PO BOX 6711","DENVER","CO",80206,NA,NA,338,"PO BOX 6711, DENVER, CO, 80206","No_Match",NA,NA,NA,NA
993839,"PO BOX 671106","CHUGIAK","AK",99567,NA,NA,339,"PO BOX 671106, CHUGIAK, AK, 99567","No_Match",NA,NA,NA,NA
993840,"PO BOX 671191","CHUGIAK","AK",99567,NA,NA,340,"PO BOX 671191, CHUGIAK, AK, 99567","No_Match",NA,NA,NA,NA
993841,"PO BOX 671292","CHUGIAK","AK",99567,NA,NA,341,"PO BOX 671292, CHUGIAK, AK, 99567","No_Match",NA,NA,NA,NA
993842,"PO BOX 6713","GREENVILLE","SC",29606,NA,NA,342,"PO BOX 6713, GREENVILLE, SC, 29606","No_Match",NA,NA,NA,NA
993843,"PO BOX 67133","LINCOLN","NE",68506,NA,NA,343,"PO BOX 67133, LINCOLN, NE, 68506","No_Match",NA,NA,NA,NA
993844,"PO BOX 6714","HELENA","MT",59604,NA,NA,344,"PO BOX 6714, HELENA, MT, 59604","No_Match",NA,NA,NA,NA
993845,"PO BOX 6714","LONGVIEW","TX",75608,NA,NA,345,"PO BOX 6714, LONGVIEW, TX, 75608","No_Match",NA,NA,NA,NA
993846,"PO BOX 6718","MCKINNEY","TX",75071,NA,NA,346,"PO BOX 6718, MCKINNEY, TX, 75071","No_Match",NA,NA,NA,NA
993847,"PO BOX 6718","SHREVEPORT","LA",71136,NA,NA,347,"PO BOX 6718, SHREVEPORT, LA, 71136","No_Match",NA,NA,NA,NA
993848,"PO BOX 671818","CHUGIAK","AK",99567,NA,NA,348,"PO BOX 671818, CHUGIAK, AK, 99567","No_Match",NA,NA,NA,NA
993849,"PO BOX 67188","MILWAUKIE","OR",97268,NA,NA,349,"PO BOX 67188, MILWAUKIE, OR, 97268","No_Match",NA,NA,NA,NA
993850,"PO BOX 672","ALBION","CA",94537,NA,NA,350,"PO BOX 672, ALBION, CA, 94537","No_Match",NA,NA,NA,NA
993851,"PO BOX 672","CHESTER","VT",5143,NA,NA,351,"PO BOX 672, CHESTER, VT, 5143","No_Match",NA,NA,NA,NA
993852,"PO BOX 672","COULEE CITY","WA",99115,NA,NA,352,"PO BOX 672, COULEE CITY, WA, 99115","No_Match",NA,NA,NA,NA
993853,"PO BOX 672","DARRINGTON","WA",98241,NA,NA,353,"PO BOX 672, DARRINGTON, WA, 98241","No_Match",NA,NA,NA,NA
993854,"PO BOX 672","GARIBALDI","OR",97118,NA,NA,354,"PO BOX 672, GARIBALDI, OR, 97118","No_Match",NA,NA,NA,NA
993855,"PO BOX 672","HAWTHORNE","NV",89415,NA,NA,355,"PO BOX 672, HAWTHORNE, NV, 89415","No_Match",NA,NA,NA,NA
993856,"PO BOX 672","JENNINGS","LA",70546,NA,NA,356,"PO BOX 672, JENNINGS, LA, 70546","No_Match",NA,NA,NA,NA
993857,"PO BOX 672","MIDLOTHIAN","IL",60445,NA,NA,357,"PO BOX 672, MIDLOTHIAN, IL, 60445","No_Match",NA,NA,NA,NA
993858,"PO BOX 672","MILLVILLE","NJ",8332,NA,NA,358,"PO BOX 672, MILLVILLE, NJ, 8332","No_Match",NA,NA,NA,NA
993859,"PO BOX 672","NEWPORT","TN",37822,NA,NA,359,"PO BOX 672, NEWPORT, TN, 37822","No_Match",NA,NA,NA,NA
993860,"PO BOX 672","QUEBRADILLAS","PR",678,NA,NA,360,"PO BOX 672, QUEBRADILLAS, PR, 678","No_Match",NA,NA,NA,NA
993861,"PO BOX 672","SAXTONS RIVER","VT",5154,NA,NA,361,"PO BOX 672, SAXTONS RIVER, VT, 5154","No_Match",NA,NA,NA,NA
993862,"PO BOX 672","SHELBY","NC",28151,NA,NA,362,"PO BOX 672, SHELBY, NC, 28151","No_Match",NA,NA,NA,NA
993863,"PO BOX 672","WAITSFIELD","VT",5673,NA,NA,363,"PO BOX 672, WAITSFIELD, VT, 5673","No_Match",NA,NA,NA,NA
993864,"PO BOX 672046","MARIETTA","GA",30006,NA,NA,364,"PO BOX 672046, MARIETTA, GA, 30006","No_Match",NA,NA,NA,NA
993865,"PO BOX 6723","OCEAN VIEW","HI",96737,NA,NA,365,"PO BOX 6723, OCEAN VIEW, HI, 96737","No_Match",NA,NA,NA,NA
993866,"PO BOX 6723","WOODLAND HILLS","CA",91365,NA,NA,366,"PO BOX 6723, WOODLAND HILLS, CA, 91365","No_Match",NA,NA,NA,NA
993867,"PO BOX 672358","CHUGIAK","AK",99567,NA,NA,367,"PO BOX 672358, CHUGIAK, AK, 99567","No_Match",NA,NA,NA,NA
993868,"PO BOX 672414","HOUSTON","TX",77267,NA,NA,368,"PO BOX 672414, HOUSTON, TX, 77267","No_Match",NA,NA,NA,NA
993869,"PO BOX 6728","JACKSON","WY",83002,NA,NA,369,"PO BOX 6728, JACKSON, WY, 83002","No_Match",NA,NA,NA,NA
993870,"PO BOX 6728","MARIETTA","GA",30065,NA,NA,370,"PO BOX 6728, MARIETTA, GA, 30065","No_Match",NA,NA,NA,NA
993871,"PO BOX 673","ARLEE","MT",59821,NA,NA,371,"PO BOX 673, ARLEE, MT, 59821","No_Match",NA,NA,NA,NA
993872,"PO BOX 673","BENNETTSVILLE","SC",29512,NA,NA,372,"PO BOX 673, BENNETTSVILLE, SC, 29512","No_Match",NA,NA,NA,NA
993873,"PO BOX 673","BERKELEY SPRINGS","WV",25411,NA,NA,373,"PO BOX 673, BERKELEY SPRINGS, WV, 25411","No_Match",NA,NA,NA,NA
993874,"PO BOX 673","BORING","OR",97009,NA,NA,374,"PO BOX 673, BORING, OR, 97009","No_Match",NA,NA,NA,NA
993875,"PO BOX 673","CHIPLEY","FL",32428,NA,NA,375,"PO BOX 673, CHIPLEY, FL, 32428","No_Match",NA,NA,NA,NA
993876,"PO BOX 673","HALLETTSVILLE","TX",77964,NA,NA,376,"PO BOX 673, HALLETTSVILLE, TX, 77964","No_Match",NA,NA,NA,NA
993877,"PO BOX 673","HIGH ROLLS MTN PRK","NM",88325,NA,NA,377,"PO BOX 673, HIGH ROLLS MTN PRK, NM, 88325","No_Match",NA,NA,NA,NA
993878,"PO BOX 673","IRRIGON","OR",97844,NA,NA,378,"PO BOX 673, IRRIGON, OR, 97844","No_Match",NA,NA,NA,NA
993879,"PO BOX 673","LEAKESVILLE","MS",39451,NA,NA,379,"PO BOX 673, LEAKESVILLE, MS, 39451","No_Match",NA,NA,NA,NA
993880,"PO BOX 673","RICHLAND","MI",49083,NA,NA,380,"PO BOX 673, RICHLAND, MI, 49083","No_Match",NA,NA,NA,NA
993881,"PO BOX 673","ROCKFORD","IL",61105,NA,NA,381,"PO BOX 673, ROCKFORD, IL, 61105","No_Match",NA,NA,NA,NA
993882,"PO BOX 673","WILSON","NY",14172,NA,NA,382,"PO BOX 673, WILSON, NY, 14172","No_Match",NA,NA,NA,NA
993883,"PO BOX 673","ZEPHYR COVE","NV",89448,NA,NA,383,"PO BOX 673, ZEPHYR COVE, NV, 89448","No_Match",NA,NA,NA,NA
993884,"PO BOX 67305","LOS ANGELES","CA",90067,NA,NA,384,"PO BOX 67305, LOS ANGELES, CA, 90067","No_Match",NA,NA,NA,NA
993885,"PO BOX 6734","C'STED","VI",823,NA,NA,385,"PO BOX 6734, C'STED, VI, 823","No_Match",NA,NA,NA,NA
993886,"PO BOX 673583","MARIETTA","GA",30006,NA,NA,386,"PO BOX 673583, MARIETTA, GA, 30006","No_Match",NA,NA,NA,NA
993887,"PO BOX 6736","OCEAN VIEW","HI",96737,NA,NA,387,"PO BOX 6736, OCEAN VIEW, HI, 96737","No_Match",NA,NA,NA,NA
993888,"PO BOX 6736","WHEELING","WV",26003,NA,NA,388,"PO BOX 6736, WHEELING, WV, 26003","No_Match",NA,NA,NA,NA
993889,"PO BOX 6738","LONGVIEW","TX",75608,NA,NA,389,"PO BOX 6738, LONGVIEW, TX, 75608","No_Match",NA,NA,NA,NA
993890,"PO BOX 673882","MARIETTA","GA",30006,NA,NA,390,"PO BOX 673882, MARIETTA, GA, 30006","No_Match",NA,NA,NA,NA
993891,"PO BOX 674","CAMP WOOD","TX",78833,NA,NA,391,"PO BOX 674, CAMP WOOD, TX, 78833","No_Match",NA,NA,NA,NA
993892,"PO BOX 674","DINUBA","CA",93618,NA,NA,392,"PO BOX 674, DINUBA, CA, 93618","No_Match",NA,NA,NA,NA
993893,"PO BOX 674","EVANS","GA",30809,NA,NA,393,"PO BOX 674, EVANS, GA, 30809","No_Match",NA,NA,NA,NA
993894,"PO BOX 674","FLORENCE","AL",35631,NA,NA,394,"PO BOX 674, FLORENCE, AL, 35631","No_Match",NA,NA,NA,NA
993895,"PO BOX 674","FULSHEAR","TX",77441,NA,NA,395,"PO BOX 674, FULSHEAR, TX, 77441","No_Match",NA,NA,NA,NA
993896,"PO BOX 674","LONDON","OH",43140,NA,NA,396,"PO BOX 674, LONDON, OH, 43140","No_Match",NA,NA,NA,NA
993897,"PO BOX 674","PALMER LAKE","CO",80132,NA,NA,397,"PO BOX 674, PALMER LAKE, CO, 80132","No_Match",NA,NA,NA,NA
993898,"PO BOX 674","ROSE CITY","MI",48654,NA,NA,398,"PO BOX 674, ROSE CITY, MI, 48654","No_Match",NA,NA,NA,NA
993899,"PO BOX 674","SELMA","AL",36702,NA,NA,399,"PO BOX 674, SELMA, AL, 36702","No_Match",NA,NA,NA,NA
993900,"PO BOX 674","SPINDALE","NC",28160,NA,NA,400,"PO BOX 674, SPINDALE, NC, 28160","No_Match",NA,NA,NA,NA
993901,"PO BOX 674","SUSANVILLE","CA",96130,NA,NA,401,"PO BOX 674, SUSANVILLE, CA, 96130","No_Match",NA,NA,NA,NA
993902,"PO BOX 6741","TALLAHASSEE","FL",32314,NA,NA,402,"PO BOX 6741, TALLAHASSEE, FL, 32314","No_Match",NA,NA,NA,NA
993903,"PO BOX 67414","ALBUQUERQUE","NM",87193,NA,NA,403,"PO BOX 67414, ALBUQUERQUE, NM, 87193","No_Match",NA,NA,NA,NA
993904,"PO BOX 6743","LAS CRUCES","NM",88006,NA,NA,404,"PO BOX 6743, LAS CRUCES, NM, 88006","No_Match",NA,NA,NA,NA
993905,"PO BOX 6743","ORANGE","CA",92863,NA,NA,405,"PO BOX 6743, ORANGE, CA, 92863","No_Match",NA,NA,NA,NA
993906,"PO BOX 67431","TOPEKA","KS",66667,NA,NA,406,"PO BOX 67431, TOPEKA, KS, 66667","No_Match",NA,NA,NA,NA
993907,"PO BOX 674771","MARIETTA","GA",30006,NA,NA,407,"PO BOX 674771, MARIETTA, GA, 30006","No_Match",NA,NA,NA,NA
993908,"PO BOX 6749","RICHMOND","VA",23230,NA,NA,408,"PO BOX 6749, RICHMOND, VA, 23230","No_Match",NA,NA,NA,NA
993909,"PO BOX 675","BLYTHE","CA",92226,NA,NA,409,"PO BOX 675, BLYTHE, CA, 92226","No_Match",NA,NA,NA,NA
993910,"PO BOX 675","HONAUNAU","HI",96726,NA,NA,410,"PO BOX 675, HONAUNAU, HI, 96726","No_Match",NA,NA,NA,NA
993911,"PO BOX 675","LA VETA","CO",81055,NA,NA,411,"PO BOX 675, LA VETA, CO, 81055","No_Match",NA,NA,NA,NA
993912,"PO BOX 675","NATALBANY","LA",70451,NA,NA,412,"PO BOX 675, NATALBANY, LA, 70451","No_Match",NA,NA,NA,NA
993913,"PO BOX 675","NORTH BALDWIN","NY",11510,NA,NA,413,"PO BOX 675, NORTH BALDWIN, NY, 11510","No_Match",NA,NA,NA,NA
993914,"PO BOX 675","OAKLAND","MD",21550,NA,NA,414,"PO BOX 675, OAKLAND, MD, 21550","No_Match",NA,NA,NA,NA
993915,"PO BOX 675","OSCEOLA","WI",54020,NA,NA,415,"PO BOX 675, OSCEOLA, WI, 54020","No_Match",NA,NA,NA,NA
993916,"PO BOX 675","ST ALBANS","WV",25177,NA,NA,416,"PO BOX 675, ST ALBANS, WV, 25177","No_Match",NA,NA,NA,NA
993917,"PO BOX 675","SUNAPEE","NH",3782,NA,NA,417,"PO BOX 675, SUNAPEE, NH, 3782","No_Match",NA,NA,NA,NA
993918,"PO BOX 675","TELL CITY","IN",47586,NA,NA,418,"PO BOX 675, TELL CITY, IN, 47586","No_Match",NA,NA,NA,NA
993919,"PO BOX 675143","RANCHO SANTA FE","CA",92067,NA,NA,419,"PO BOX 675143, RANCHO SANTA FE, CA, 92067","No_Match",NA,NA,NA,NA
993920,"PO BOX 6752","SAN ANTONIO","TX",78209,NA,NA,420,"PO BOX 6752, SAN ANTONIO, TX, 78209","No_Match",NA,NA,NA,NA
993921,"PO BOX 675314","RANCHO SANTA FE","CA",92067,NA,NA,421,"PO BOX 675314, RANCHO SANTA FE, CA, 92067","No_Match",NA,NA,NA,NA
993922,"PO BOX 675393","RANCHO SANTA FE","CA",92067,NA,NA,422,"PO BOX 675393, RANCHO SANTA FE, CA, 92067","No_Match",NA,NA,NA,NA
993923,"PO BOX 67562","PHOENIX","AZ",85082,NA,NA,423,"PO BOX 67562, PHOENIX, AZ, 85082","No_Match",NA,NA,NA,NA
993924,"PO BOX 6758","FALLS CHURCH","VA",22040,NA,NA,424,"PO BOX 6758, FALLS CHURCH, VA, 22040","No_Match",NA,NA,NA,NA
993925,"PO BOX 676","CANTON","NY",13617,NA,NA,425,"PO BOX 676, CANTON, NY, 13617","No_Match",NA,NA,NA,NA
993926,"PO BOX 676","FAIRFIEDL","TX",75840,NA,NA,426,"PO BOX 676, FAIRFIEDL, TX, 75840","No_Match",NA,NA,NA,NA
993927,"PO BOX 676","REX","GA",30273,NA,NA,427,"PO BOX 676, REX, GA, 30273","No_Match",NA,NA,NA,NA
993928,"PO BOX 676","ROCKSPRINGS","TX",78880,NA,NA,428,"PO BOX 676, ROCKSPRINGS, TX, 78880","No_Match",NA,NA,NA,NA
993929,"PO BOX 676","SMYRNA","TN",37167,NA,NA,429,"PO BOX 676, SMYRNA, TN, 37167","No_Match",NA,NA,NA,NA
993930,"PO BOX 676","VAN VLECK","TX",77482,NA,NA,430,"PO BOX 676, VAN VLECK, TX, 77482","No_Match",NA,NA,NA,NA
993931,"PO BOX 676115","RANCHO SANTA FE","CA",92067,NA,NA,431,"PO BOX 676115, RANCHO SANTA FE, CA, 92067","No_Match",NA,NA,NA,NA
993932,"PO BOX 67644","BALTIMORE","MD",21215,NA,NA,432,"PO BOX 67644, BALTIMORE, MD, 21215","No_Match",NA,NA,NA,NA
993933,"PO BOX 67644","BALTIMORE","NM",21215,NA,NA,433,"PO BOX 67644, BALTIMORE, NM, 21215","No_Match",NA,NA,NA,NA
993934,"PO BOX 67675","PHOENIX","AZ",85082,NA,NA,434,"PO BOX 67675, PHOENIX, AZ, 85082","No_Match",NA,NA,NA,NA
993935,"PO BOX 67676","BALTIMORE","MD",21215,NA,NA,435,"PO BOX 67676, BALTIMORE, MD, 21215","No_Match",NA,NA,NA,NA
993936,"PO BOX 677","ENFIELD","NH",3748,NA,NA,436,"PO BOX 677, ENFIELD, NH, 3748","No_Match",NA,NA,NA,NA
993937,"PO BOX 677","MONT BELVIEU","TX",77580,NA,NA,437,"PO BOX 677, MONT BELVIEU, TX, 77580","No_Match",NA,NA,NA,NA
993938,"PO BOX 677","MORONGO VALLEY","CA",92256,NA,NA,438,"PO BOX 677, MORONGO VALLEY, CA, 92256","No_Match",NA,NA,NA,NA
993939,"PO BOX 677","NORTH SAN JUAN","CA",95960,NA,NA,439,"PO BOX 677, NORTH SAN JUAN, CA, 95960","No_Match",NA,NA,NA,NA
993940,"PO BOX 677","PINEBLUFF","NC",28373,NA,NA,440,"PO BOX 677, PINEBLUFF, NC, 28373","No_Match",NA,NA,NA,NA
993941,"PO BOX 677","THIENSVILLE","WI",53092,NA,NA,441,"PO BOX 677, THIENSVILLE, WI, 53092","No_Match",NA,NA,NA,NA
993942,"PO BOX 677","ZEBULON","NC",27597,NA,NA,442,"PO BOX 677, ZEBULON, NC, 27597","No_Match",NA,NA,NA,NA
993943,"PO BOX 677055","ORLANDO","FL",32867,NA,NA,443,"PO BOX 677055, ORLANDO, FL, 32867","No_Match",NA,NA,NA,NA
993944,"PO BOX 6771","HOUSTON","TX",77265,NA,NA,444,"PO BOX 6771, HOUSTON, TX, 77265","No_Match",NA,NA,NA,NA
993945,"PO BOX 6772","EUREKA","CA",95502,NA,NA,445,"PO BOX 6772, EUREKA, CA, 95502","No_Match",NA,NA,NA,NA
993946,"PO BOX 677218","ORLANDO","FL",32867,NA,NA,446,"PO BOX 677218, ORLANDO, FL, 32867","No_Match",NA,NA,NA,NA
993947,"PO BOX 6773","BELLEVUE","WA",98008,NA,NA,447,"PO BOX 6773, BELLEVUE, WA, 98008","No_Match",NA,NA,NA,NA
993948,"PO BOX 6774","FOLSOM","CA",95763,NA,NA,448,"PO BOX 6774, FOLSOM, CA, 95763","No_Match",NA,NA,NA,NA
993949,"PO BOX 6774","JACKSON","MS",39282,NA,NA,449,"PO BOX 6774, JACKSON, MS, 39282","No_Match",NA,NA,NA,NA
993950,"PO BOX 6774","PORTLAND","OR",97230,NA,NA,450,"PO BOX 6774, PORTLAND, OR, 97230","No_Match",NA,NA,NA,NA
993951,"PO BOX 67755","ROCHESTER","NY",14617,NA,NA,451,"PO BOX 67755, ROCHESTER, NY, 14617","No_Match",NA,NA,NA,NA
993952,"PO BOX 6776","ALTADENA","CA",91003,NA,NA,452,"PO BOX 6776, ALTADENA, CA, 91003","No_Match",NA,NA,NA,NA
993953,"PO BOX 678","HIAWASSEE","GA",30546,NA,NA,453,"PO BOX 678, HIAWASSEE, GA, 30546","No_Match",NA,NA,NA,NA
993954,"PO BOX 678","HOMER","AK",99603,NA,NA,454,"PO BOX 678, HOMER, AK, 99603","No_Match",NA,NA,NA,NA
993955,"PO BOX 678266","ORLANDO","FL",32867,NA,NA,455,"PO BOX 678266, ORLANDO, FL, 32867","No_Match",NA,NA,NA,NA
993956,"PO BOX 6784","BRANDON","FL",33508,NA,NA,456,"PO BOX 6784, BRANDON, FL, 33508","No_Match",NA,NA,NA,NA
993957,"PO BOX 6786","EVANSVILLE","IN",47719,NA,NA,457,"PO BOX 6786, EVANSVILLE, IN, 47719","No_Match",NA,NA,NA,NA
993958,"PO BOX 6786","VENTURA","CA",93006,NA,NA,458,"PO BOX 6786, VENTURA, CA, 93006","No_Match",NA,NA,NA,NA
993959,"PO BOX 6786","VIRGINIA BEACH","VA",23456,NA,NA,459,"PO BOX 6786, VIRGINIA BEACH, VA, 23456","No_Match",NA,NA,NA,NA
993960,"PO BOX 6787","NEW ORLEANS","LA",70174,NA,NA,460,"PO BOX 6787, NEW ORLEANS, LA, 70174","No_Match",NA,NA,NA,NA
993961,"PO BOX 6788","SAN JUAN","PR",914,NA,NA,461,"PO BOX 6788, SAN JUAN, PR, 914","No_Match",NA,NA,NA,NA
993962,"PO BOX 6789","HOLYOKE","MA",1040,NA,NA,462,"PO BOX 6789, HOLYOKE, MA, 1040","No_Match",NA,NA,NA,NA
993963,"PO BOX 679 780 RHOADES RD","WINLOCK","WA",98596,46.5034929190001,-122.91575777,463,"PO BOX 679 780 RHOADES RD, WINLOCK, WA, 98596","Match","Exact","780 RHOADES RD, WINLOCK, WA, 98596",180715735,"L"
993964,"PO BOX 679","COLDWATER","MS",38618,NA,NA,464,"PO BOX 679, COLDWATER, MS, 38618","No_Match",NA,NA,NA,NA
993965,"PO BOX 679","ROSLYN","WA",98941,NA,NA,465,"PO BOX 679, ROSLYN, WA, 98941","No_Match",NA,NA,NA,NA
993966,"PO BOX 679","STAYTON","OR",97383,NA,NA,466,"PO BOX 679, STAYTON, OR, 97383","No_Match",NA,NA,NA,NA
993967,"PO BOX 679","TYLERTOWN","MS",39667,NA,NA,467,"PO BOX 679, TYLERTOWN, MS, 39667","No_Match",NA,NA,NA,NA
993968,"PO BOX 6792","SHERWOOD","AR",72124,NA,NA,468,"PO BOX 6792, SHERWOOD, AR, 72124","No_Match",NA,NA,NA,NA
993969,"PO BOX 68-2443","DALLAS","TX",75243,NA,NA,469,"PO BOX 68-2443, DALLAS, TX, 75243","No_Match",NA,NA,NA,NA
993970,"PO BOX 68","ADIN","CA",96006,NA,NA,470,"PO BOX 68, ADIN, CA, 96006","No_Match",NA,NA,NA,NA
993971,"PO BOX 68","BOYDTON","VA",23917,NA,NA,471,"PO BOX 68, BOYDTON, VA, 23917","No_Match",NA,NA,NA,NA
993972,"PO BOX 68","BRIDGEPORT","CA",93517,NA,NA,472,"PO BOX 68, BRIDGEPORT, CA, 93517","No_Match",NA,NA,NA,NA
993973,"PO BOX 68","BURLINGTON","PA",18814,NA,NA,473,"PO BOX 68, BURLINGTON, PA, 18814","No_Match",NA,NA,NA,NA
993974,"PO BOX 68","COTTAGE GROVE","WI",53527,NA,NA,474,"PO BOX 68, COTTAGE GROVE, WI, 53527","No_Match",NA,NA,NA,NA
993975,"PO BOX 68","EDMESTON","NY",13335,NA,NA,475,"PO BOX 68, EDMESTON, NY, 13335","No_Match",NA,NA,NA,NA
993976,"PO BOX 68","ELYSIAN","MN",56028,NA,NA,476,"PO BOX 68, ELYSIAN, MN, 56028","No_Match",NA,NA,NA,NA
993977,"PO BOX 68","EMMETT","ID",83617,NA,NA,477,"PO BOX 68, EMMETT, ID, 83617","No_Match",NA,NA,NA,NA
993978,"PO BOX 68","FRONT ROYAL","VA",22630,NA,NA,478,"PO BOX 68, FRONT ROYAL, VA, 22630","No_Match",NA,NA,NA,NA
993979,"PO BOX 68","GRAND MARAIS","MN",55604,NA,NA,479,"PO BOX 68, GRAND MARAIS, MN, 55604","No_Match",NA,NA,NA,NA
993980,"PO BOX 68","GRANDIN","FL",32138,NA,NA,480,"PO BOX 68, GRANDIN, FL, 32138","No_Match",NA,NA,NA,NA
993981,"PO BOX 68","HARPER","TX",78631,NA,NA,481,"PO BOX 68, HARPER, TX, 78631","No_Match",NA,NA,NA,NA
993982,"PO BOX 68","HUNGERFORD","TX",77448,NA,NA,482,"PO BOX 68, HUNGERFORD, TX, 77448","No_Match",NA,NA,NA,NA
993983,"PO BOX 68","LA HONDA","CA",94020,NA,NA,483,"PO BOX 68, LA HONDA, CA, 94020","No_Match",NA,NA,NA,NA
993984,"PO BOX 68","LANSE","PA",16849,NA,NA,484,"PO BOX 68, LANSE, PA, 16849","No_Match",NA,NA,NA,NA
993985,"PO BOX 68","LAWRENCE","KS",66044,NA,NA,485,"PO BOX 68, LAWRENCE, KS, 66044","No_Match",NA,NA,NA,NA
993986,"PO BOX 68","LESAGE","WV",25537,NA,NA,486,"PO BOX 68, LESAGE, WV, 25537","No_Match",NA,NA,NA,NA
993987,"PO BOX 68","MANHATTAN BEACH","CA",90267,NA,NA,487,"PO BOX 68, MANHATTAN BEACH, CA, 90267","No_Match",NA,NA,NA,NA
993988,"PO BOX 68","MARNE","MI",49435,NA,NA,488,"PO BOX 68, MARNE, MI, 49435","No_Match",NA,NA,NA,NA
993989,"PO BOX 68","MOUNT HOPE","OH",44660,NA,NA,489,"PO BOX 68, MOUNT HOPE, OH, 44660","No_Match",NA,NA,NA,NA
993990,"PO BOX 68","Nahant","MA",1908,NA,NA,490,"PO BOX 68, Nahant, MA, 1908","No_Match",NA,NA,NA,NA
993991,"PO BOX 68","NAHANT","MA",1908,NA,NA,491,"PO BOX 68, NAHANT, MA, 1908","No_Match",NA,NA,NA,NA
993992,"PO BOX 68","PETERSBURG","TX",79250,NA,NA,492,"PO BOX 68, PETERSBURG, TX, 79250","No_Match",NA,NA,NA,NA
993993,"PO BOX 68","PILOT","VA",24138,NA,NA,493,"PO BOX 68, PILOT, VA, 24138","No_Match",NA,NA,NA,NA
993994,"PO BOX 68","RALEIGH","NC",27602,NA,NA,494,"PO BOX 68, RALEIGH, NC, 27602","No_Match",NA,NA,NA,NA
993995,"PO BOX 68","RISING FAWN","GA",30738,NA,NA,495,"PO BOX 68, RISING FAWN, GA, 30738","No_Match",NA,NA,NA,NA
993996,"PO BOX 68","SNELLVILLE","GA",30078,NA,NA,496,"PO BOX 68, SNELLVILLE, GA, 30078","No_Match",NA,NA,NA,NA
993997,"PO BOX 68","WINERMERE","FL",34786,NA,NA,497,"PO BOX 68, WINERMERE, FL, 34786","No_Match",NA,NA,NA,NA
993998,"PO BOX 68","WOLF CREEK","OR",97497,NA,NA,498,"PO BOX 68, WOLF CREEK, OR, 97497","No_Match",NA,NA,NA,NA
993999,"PO BOX 68","YOUNG HARRIS","GA",30582,NA,NA,499,"PO BOX 68, YOUNG HARRIS, GA, 30582","No_Match",NA,NA,NA,NA
994000,"PO BOX 680","GRANTSVILLE","WV",26147,NA,NA,500,"PO BOX 680, GRANTSVILLE, WV, 26147","No_Match",NA,NA,NA,NA
