"ID","Address","City","State","Zip","lat","long","id","input_address","match_indicator","match_type","matched_address","tiger_line_id","tiger_side"
944501,"957 RIVER RD","HILLSBOROUGH","NJ",8844,40.530081867,-74.703256917,1,"957 RIVER RD, HILLSBOROUGH, NJ, 8844","Match","Exact","957 RIVER RD, HILLSBOROUGH, NJ, 08844",59976711,"R"
944502,"957 ROBINSON RD","FERRISBURGH","VT",5456,44.229830936,-73.2248283979999,2,"957 ROBINSON RD, FERRISBURGH, VT, 5456","Match","Exact","957 ROBINSON RD, FERRISBURGH, VT, 05456",136457260,"L"
944503,"957 ROSS ST","PLYMOUTH","MI",48170,42.3616557830001,-83.471615116,3,"957 ROSS ST, PLYMOUTH, MI, 48170","Match","Exact","957 ROSS ST, PLYMOUTH, MI, 48170",95408405,"L"
944504,"957 S FRONT ST","COOS BAY","OR",97420,43.35862996,-124.211226268,4,"957 S FRONT ST, COOS BAY, OR, 97420","Match","Exact","957 S FRONT ST, COOS BAY, OR, 97420",137015287,"R"
944505,"957 SIOUX DR","ROUND LAKE HEIGHTS","IL",60073,42.386933614,-88.105300373,5,"957 SIOUX DR, ROUND LAKE HEIGHTS, IL, 60073","Match","Exact","957 SIOUX DR, ROUND LAKE HEIGHTS, IL, 60073",119755691,"R"
944506,"957 SOUTH 3RD STREED","CLINTON","IN",47842,39.6518607730001,-87.399610348,6,"957 SOUTH 3RD STREED, CLINTON, IN, 47842","Match","Non_Exact","957 S 3RD ST, CLINTON, IN, 47842",66502716,"L"
944507,"957 TIMOTHY CT","GAHANNA","OH",43230,40.044217164,-82.8923510079999,7,"957 TIMOTHY CT, GAHANNA, OH, 43230","Match","Exact","957 TIMOTHY CT, GAHANNA, OH, 43230",135746754,"R"
944508,"957 VENTURA AVENUE","ALBANY","CA",94707,37.88834996,-122.282735874,8,"957 VENTURA AVENUE, ALBANY, CA, 94707","Match","Exact","957 VENTURA AVE, ALBANY, CA, 94707",124992277,"L"
944509,"957 VENTURA","ALBANY","CA",94707,37.88834996,-122.282735874,9,"957 VENTURA, ALBANY, CA, 94707","Match","Non_Exact","957 VENTURA AVE, ALBANY, CA, 94707",124992277,"L"
944510,"957 W 500 S","SALT LAKE CITY","UT",84104,40.758452725,-111.918503607,10,"957 W 500 S, SALT LAKE CITY, UT, 84104","Match","Exact","957 W 500 S, SALT LAKE CITY, UT, 84104",176066751,"L"
944511,"957 W FOOTHILL BLVD","UPLAND","CA",91786,34.10698189,-117.66417922,11,"957 W FOOTHILL BLVD, UPLAND, CA, 91786","Match","Exact","957 W FOOTHILL BLVD, UPLAND, CA, 91786",144670118,"R"
944512,"957 WABASH AVENUE","ZANESVILLE","OH",43701,39.969943148,-82.0172453719999,12,"957 WABASH AVENUE, ZANESVILLE, OH, 43701","Match","Exact","957 WABASH AVE, ZANESVILLE, OH, 43701",45594055,"R"
944513,"957 WALNUT ST","SMITHMILL","PA",16680,40.7648324720001,-78.418535822,13,"957 WALNUT ST, SMITHMILL, PA, 16680","Match","Exact","957 WALNUT ST, SMITHMILL, PA, 16680",50505010,"L"
944514,"957 WEATHERSFIELD DRIVE","DUNEDIN","FL",34698,28.0135593030001,-82.758092311,14,"957 WEATHERSFIELD DRIVE, DUNEDIN, FL, 34698","Match","Exact","957 WEATHERSFIELD DR, DUNEDIN, FL, 34698",124756262,"L"
944515,"957 WEST AVE SUITE 102","CROSSVILLE","TN",38555,35.9538615160001,-85.038017386,15,"957 WEST AVE SUITE 102, CROSSVILLE, TN, 38555","Match","Exact","957 WEST AVE, CROSSVILLE, TN, 38555",608806672,"L"
944516,"957 WEST ST","VALPARAISO","IN",46385,41.4610392750001,-87.073214357,16,"957 WEST ST, VALPARAISO, IN, 46385","Match","Exact","957 WEST ST, VALPARAISO, IN, 46385",119914210,"R"
944517,"957 WHITCOMB ST","GARY","IN",46404,41.5940814480001,-87.385296986,17,"957 WHITCOMB ST, GARY, IN, 46404","Match","Exact","957 WHITCOMB ST, GARY, IN, 46404",606329399,"L"
944518,"957 WILDWOOD DRIVE","MELBOURNE","FL",32940,28.2046617010001,-80.6897835359999,18,"957 WILDWOOD DRIVE, MELBOURNE, FL, 32940","Match","Exact","957 WILDWOOD DR, MELBOURNE, FL, 32940",93936764,"R"
944519,"957 WILLAMETTE","EUGENE","OR",97401,NA,NA,19,"957 WILLAMETTE, EUGENE, OR, 97401","Tie",NA,NA,NA,NA
944520,"957 WINDMILL PARKWAY","EVANS","GA",30809,33.56110677,-82.2049621789999,20,"957 WINDMILL PARKWAY, EVANS, GA, 30809","Match","Exact","957 WINDMILL PKWY, EVANS, GA, 30809",55385237,"L"
944521,"957 WOODOAK DRIVE","BALDWIN","NY",11510,40.629017768,-73.601507149,21,"957 WOODOAK DRIVE, BALDWIN, NY, 11510","Match","Exact","957 WOODOAK DR, BALDWIN, NY, 11510",147638428,"L"
944522,"957 YANCEY COURT","LOGANVILLE","GA",30052,33.847836038,-83.898496692,22,"957 YANCEY COURT, LOGANVILLE, GA, 30052","Match","Exact","957 YANCEY CT, LOGANVILLE, GA, 30052",634034745,"L"
944523,"957 ZEE STREET","NORTON SHORES","MI",49441,NA,NA,23,"957 ZEE STREET, NORTON SHORES, MI, 49441","No_Match",NA,NA,NA,NA
944524,"9570 BERGER ROAD SUITE A","COLUMBIA","MD",21046,39.172679379,-76.8443372629999,24,"9570 BERGER ROAD SUITE A, COLUMBIA, MD, 21046","Match","Exact","9570 BERGER RD, COLUMBIA, MD, 21046",158967625,"R"
944525,"9570 DUFF RD","HILLSBORO","OH",45133,39.273612169,-83.500847444,25,"9570 DUFF RD, HILLSBORO, OH, 45133","Match","Exact","9570 DUFF RD, HILLSBORO, OH, 45133",101058665,"R"
944526,"9570 E VIA MONTOYA","SCOTTSDALE","AZ",85255,33.6901952650001,-111.875893224,26,"9570 E VIA MONTOYA, SCOTTSDALE, AZ, 85255","Match","Exact","9570 E VIA MONTOYA, SCOTTSDALE, AZ, 85255",128269724,"L"
944527,"9570 GEORGE RUFF RD","BULLOCK","NC",27507,36.530030679,-78.594872074,27,"9570 GEORGE RUFF RD, BULLOCK, NC, 27507","Match","Exact","9570 GEORGE RUFF RD, BULLOCK, NC, 27507",637647620,"R"
944528,"9570 GROVE RD","CORDOVA","TN",38016,35.196636793,-89.743622586,28,"9570 GROVE RD, CORDOVA, TN, 38016","Match","Exact","9570 GROVE RD, CORDOVA, TN, 38016",72954758,"L"
944529,"9570 LINWOOD AVE","SHREVEPORT","LA",71106,32.3860736030001,-93.7634371239999,29,"9570 LINWOOD AVE, SHREVEPORT, LA, 71106","Match","Exact","9570 LINWOOD AVE, SHREVEPORT, LA, 71106",649423289,"R"
944530,"9570 N CARLOTTA AVENUE","BROWN DEER","VI",53223,NA,NA,30,"9570 N CARLOTTA AVENUE, BROWN DEER, VI, 53223","No_Match",NA,NA,NA,NA
944531,"9570 OSDELL LANE","ETHEL","LA",70730,30.785742735,-91.064618874,31,"9570 OSDELL LANE, ETHEL, LA, 70730","Match","Exact","9570 OSDELL LN, ETHEL, LA, 70730",75682931,"R"
944532,"9570 PARDEE RD","TAYLOR","MI",48180,42.237978996,-83.254633611,32,"9570 PARDEE RD, TAYLOR, MI, 48180","Match","Exact","9570 PARDEE RD, TAYLOR, MI, 48180",95438052,"R"
944533,"9570 PARDEE","TAYLOR","MI",48180,42.237978996,-83.254633611,33,"9570 PARDEE, TAYLOR, MI, 48180","Match","Non_Exact","9570 PARDEE RD, TAYLOR, MI, 48180",95438052,"R"
944534,"9570 RED APPLE LN","COLUMBIA","MD",21113,39.156573436,-76.843692878,34,"9570 RED APPLE LN, COLUMBIA, MD, 21113","Match","Non_Exact","9570 RED APPLE LN, COLUMBIA, MD, 21046",158930363,"R"
944535,"9570 SOLOSHINE ST","LAS VEGAS","NV",89123,36.0160507690001,-115.151823616,35,"9570 SOLOSHINE ST, LAS VEGAS, NV, 89123","Match","Non_Exact","9570 S SOLOSHINE ST, LAS VEGAS, NV, 89123",201926073,"L"
944536,"9570 SW 107 AVENUE SUITE 104","MIAMI","FL",33176,25.680207196,-80.3680987549999,36,"9570 SW 107 AVENUE SUITE 104, MIAMI, FL, 33176","Match","Non_Exact","9570 SW 107TH AVE, MIAMI, FL, 33176",116261035,"R"
944537,"9570 SW CYPRESS STREET","BEAVERTON","OR",97005,45.4833784260001,-122.775497662,37,"9570 SW CYPRESS STREET, BEAVERTON, OR, 97005","Match","Exact","9570 SW CYPRESS ST, BEAVERTON, OR, 97005",158187652,"L"
944538,"9570 WEST HEATHER LANE","MIRAMAR","FL",33025,25.9803017180001,-80.2716989199999,38,"9570 WEST HEATHER LANE, MIRAMAR, FL, 33025","Match","Exact","9570 W HEATHER LN, MIRAMAR, FL, 33025",114733618,"R"
944539,"9570-6 COMPASS POINT DR SOUTH","SAN DIEGO","CA",92126,32.9271867460001,-117.119886324,39,"9570-6 COMPASS POINT DR SOUTH, SAN DIEGO, CA, 92126","Match","Exact","9570 COMPASS POINT DR S, SAN DIEGO, CA, 92126",645309581,"L"
944540,"9571 BUCHANON AVE","PORTLAND","OR",97203,45.5949205590001,-122.740112065,40,"9571 BUCHANON AVE, PORTLAND, OR, 97203","Match","Non_Exact","9571 N BUCHANAN AVE, PORTLAND, OR, 97203",157493550,"L"
944541,"9571 N RUSH CREEK ROAD","SALEM","IN",47167,38.7269053160001,-86.185628809,41,"9571 N RUSH CREEK ROAD, SALEM, IN, 47167","Match","Exact","9571 N RUSH CREEK RD, SALEM, IN, 47167",77546109,"R"
944542,"9571 NW MARING DRIVE","PORTLAND","OR",97229,45.5297808220001,-122.775359187,42,"9571 NW MARING DRIVE, PORTLAND, OR, 97229","Match","Exact","9571 NW MARING DR, PORTLAND, OR, 97229",158218416,"R"
944543,"9571 PONTIUS ST NE","ALLIANCE","OH",44601,40.984275043,-81.2127419079999,43,"9571 PONTIUS ST NE, ALLIANCE, OH, 44601","Match","Exact","9571 PONTIUS ST NE, ALLIANCE, OH, 44601",64721559,"L"
944544,"9571 RUSSELL AVE","GARDEN GROVE","CA",92844,33.7686094470001,-117.961771658,44,"9571 RUSSELL AVE, GARDEN GROVE, CA, 92844","Match","Exact","9571 RUSSELL AVE, GARDEN GROVE, CA, 92844",144034990,"L"
944545,"9571 SE 43 STREET","MERCER ISLAND","WA",98040,47.569238281,-122.210785372,45,"9571 SE 43 STREET, MERCER ISLAND, WA, 98040","Match","Exact","9571 SE 43RD ST, MERCER ISLAND, WA, 98040",186697539,"L"
944546,"9571 SHEPARD RD","MACEDONIA","OH",44056,41.336084612,-81.4891140559999,46,"9571 SHEPARD RD, MACEDONIA, OH, 44056","Match","Exact","9571 SHEPARD RD, MACEDONIA, OH, 44056",61363470,"L"
944547,"9571 W UNSER AVE","LITTLETON","CO",80128,39.5576094510001,-105.106534591,47,"9571 W UNSER AVE, LITTLETON, CO, 80128","Match","Exact","9571 W UNSER AVE, LITTLETON, CO, 80128",177747201,"L"
944548,"9571","BLOOMINGTON","IL",61705,NA,NA,48,"9571, BLOOMINGTON, IL, 61705","No_Match",NA,NA,NA,NA
944549,"95718 EGGERS RAOD","BROOKINGS","OR",97415,42.1310230230001,-124.346607266,49,"95718 EGGERS RAOD, BROOKINGS, OR, 97415","Match","Non_Exact","95718 EGGERS RD, BROOKINGS, OR, 97415",137121192,"R"
944550,"9572 ALWOOD AVE F","GARDEN GROVE","CA",92841,33.787184961,-117.965856127,50,"9572 ALWOOD AVE F, GARDEN GROVE, CA, 92841","Match","Exact","9572 ALWOOD AVE, GARDEN GROVE, CA, 92841",609070174,"R"
944551,"9572 MAZANT LANE","SHREVEPORT","LA",71115,32.394714676,-93.701922274,51,"9572 MAZANT LANE, SHREVEPORT, LA, 71115","Match","Exact","9572 MAZANT LN, SHREVEPORT, LA, 71115",639249809,"L"
944552,"9572 SOTHERDEN RD","BREWERTON","NY",13029,43.2326625690001,-76.118312982,52,"9572 SOTHERDEN RD, BREWERTON, NY, 13029","Match","Exact","9572 SOTHERDEN RD, BREWERTON, NY, 13029",46581335,"R"
944553,"9572 STONEGLEN DRIVE","COLORADO SPRINGS","CO",80920,38.9668012760001,-104.765615966,53,"9572 STONEGLEN DRIVE, COLORADO SPRINGS, CO, 80920","Match","Exact","9572 STONEGLEN DR, CO SPGS, CO, 80920",105574498,"R"
944554,"9572 WHISPER RIDGE TRAIL","WEEKI WACHEE","FL",34613,28.568130663,-82.542306217,54,"9572 WHISPER RIDGE TRAIL, WEEKI WACHEE, FL, 34613","Match","Exact","9572 WHISPER RIDGE TRL, WEEKI WACHEE, FL, 34613",85457663,"R"
944555,"9573 CRESTVIEW ST","SEMINOLE","FL",33772,27.8593513800001,-82.788471669,55,"9573 CRESTVIEW ST, SEMINOLE, FL, 33772","Match","Exact","9573 CRESTVIEW ST, SEMINOLE, FL, 33772",646793079,"R"
944556,"9573 CRYSTAL WATER WAY","ELK GROVE","CA",95624,38.4171245060001,-121.341501222,56,"9573 CRYSTAL WATER WAY, ELK GROVE, CA, 95624","Match","Exact","9573 CRYSTAL WATER WAY, ELK GROVE, CA, 95624",133405055,"R"
944557,"9573 LISA LANE","PERRYSBURG","OH",43551,41.585900634,-83.578740403,57,"9573 LISA LANE, PERRYSBURG, OH, 43551","Match","Exact","9573 LISA LN, PERRYSBURG, OH, 43551",38739510,"L"
944558,"9573 LISA LN","PERRYSBURG","OH",43551,41.585900634,-83.578740403,58,"9573 LISA LN, PERRYSBURG, OH, 43551","Match","Exact","9573 LISA LN, PERRYSBURG, OH, 43551",38739510,"L"
944559,"9573 MONROE STREET NE","BLAINE","MN",54499,45.144161421,-93.253934111,59,"9573 MONROE STREET NE, BLAINE, MN, 54499","Match","Non_Exact","9573 MONROE ST NE, BLAINE, MN, 55434",97486906,"R"
944560,"9573 PEARL CIR 102","PARKER","CO",NA,39.5444950850001,-104.797470668,60,"9573 PEARL CIR 102, PARKER, CO, ","Match","Exact","9573 PEARL CIR, PARKER, CO, 80134",647983187,"R"
944561,"9573 SE 168 MAPLESONG LANE","THE VILLAGES","FL",32162,28.976527617,-81.99479223,61,"9573 SE 168 MAPLESONG LANE, THE VILLAGES, FL, 32162","Match","Exact","9573 SE 168TH MAPLESONG LN, THE VILLAGES, FL, 32162",116840324,"L"
944562,"9573 STATE HWY 70","MINOCQUA","WI",54548,45.8881115570001,-89.707442145,62,"9573 STATE HWY 70, MINOCQUA, WI, 54548","Match","Exact","9573 STATE HWY 70, MINOCQUA, WI, 54548",196578908,"L"
944563,"9573 W MONTE VISTA RD","PHOENIX","AZ",85307,33.470201273,-112.26660416,63,"9573 W MONTE VISTA RD, PHOENIX, AZ, 85307","Match","Non_Exact","9573 W MONTE VISTA RD, PHOENIX, AZ, 85037",243951479,"R"
944564,"9574 JAYHAWK TERRACE","MANASSA","VA",20110,38.752743127,-77.454938673,64,"9574 JAYHAWK TERRACE, MANASSA, VA, 20110","Match","Non_Exact","9574 JAYHAWK TER, MANASSAS, VA, 20110",76534948,"L"
944565,"9574 JAYHAWK TERRACE","MANASSAS","VA",20110,38.752743127,-77.454938673,65,"9574 JAYHAWK TERRACE, MANASSAS, VA, 20110","Match","Exact","9574 JAYHAWK TER, MANASSAS, VA, 20110",76534948,"L"
944566,"9574 LILLIAN DRIVE","AMHERST","WI",54406,44.447869358,-89.305751769,66,"9574 LILLIAN DRIVE, AMHERST, WI, 54406","Match","Exact","9574 LILLIAN DR, AMHERST, WI, 54406",126800651,"R"
944567,"9574 LINNETT HILL DRIVE","LORTON","VA",22079,38.694894737,-77.2324881229999,67,"9574 LINNETT HILL DRIVE, LORTON, VA, 22079","Match","Exact","9574 LINNETT HILL DR, LORTON, VA, 22079",619944537,"R"
944568,"9574 MARCHS POINT RD","ANACORTES","WA",98221,48.4778686700001,-122.572853803,68,"9574 MARCHS POINT RD, ANACORTES, WA, 98221","Match","Non_Exact","9574 MARCH'S POINT RD, ANACORTES, WA, 98221",183672930,"R"
944569,"9574 N LANDON CIRCLE","CEDAR HILLS","UT",84062,40.4063439540001,-111.75302799,69,"9574 N LANDON CIRCLE, CEDAR HILLS, UT, 84062","Match","Non_Exact","9574 LANDON CT, CEDAR HILLS, UT, 84062",624228850,"R"
944570,"9574 TALBERT AVE","FOUNTAIN VALLEY","CA",92708,33.701635276,-117.962248914,70,"9574 TALBERT AVE, FOUNTAIN VALLEY, CA, 92708","Match","Exact","9574 TALBERT AVE, FOUNTAIN VALLEY, CA, 92708",144038047,"R"
944571,"9575 CANTON LOOP","ANCHORAGE","AK",99515,61.134172762,-149.9154803,71,"9575 CANTON LOOP, ANCHORAGE, AK, 99515","Match","Exact","9575 CANTON LOOP, ANCHORAGE, AK, 99515",643755246,"R"
944572,"9575 COUNTY ROAD HH","FREMONT","WI",54940,NA,NA,72,"9575 COUNTY ROAD HH, FREMONT, WI, 54940","No_Match",NA,NA,NA,NA
944573,"9575 DAIMAND AVE","KAUFMAN","TX",75142,NA,NA,73,"9575 DAIMAND AVE, KAUFMAN, TX, 75142","No_Match",NA,NA,NA,NA
944574,"9575 KATY FREEWAY STE 370","HOUSTON","TX",77024,29.783812723,-95.530904121,74,"9575 KATY FREEWAY STE 370, HOUSTON, TX, 77024","Match","Exact","9575 KATY FWY, HOUSTON, TX, 77024",96630795,"L"
944575,"9575 KATY FREEWAY STE 370","HOUSTON","TX",77249,29.783812723,-95.530904121,75,"9575 KATY FREEWAY STE 370, HOUSTON, TX, 77249","Match","Non_Exact","9575 KATY FWY, HOUSTON, TX, 77024",96630795,"L"
944576,"9575 LAGUNA SPRINGS DR STE 102","ELK GROVE","CA",95757,38.4095369130001,-121.395737448,76,"9575 LAGUNA SPRINGS DR STE 102, ELK GROVE, CA, 95757","Match","Non_Exact","9575 LAGUNA SPRINGS DR, ELK GROVE, CA, 95758",636422659,"L"
944577,"9575 OAKBROOK RIDGE","RURAL HALL","NC",27045,36.2527774530001,-80.330353136,77,"9575 OAKBROOK RIDGE, RURAL HALL, NC, 27045","Match","Exact","9575 OAKBROOK RIDGE, RURAL HALL, NC, 27045",634529767,"R"
944578,"9575 SCOTSMOOR SE","CALEDONIA","MI",49316,NA,NA,78,"9575 SCOTSMOOR SE, CALEDONIA, MI, 49316","Tie",NA,NA,NA,NA
944579,"9575 SW MORRISON","PORTLAND","OR",97225,45.517339023,-122.775768599,79,"9575 SW MORRISON, PORTLAND, OR, 97225","Match","Non_Exact","9575 SW MORRISON ST, PORTLAND, OR, 97225",158184995,"R"
944580,"9575 UNION TERRACE LANE N","MAPLE GROVE","MN",55369,45.127989574,-93.4158473959999,80,"9575 UNION TERRACE LANE N, MAPLE GROVE, MN, 55369","Match","Exact","9575 UNION TERRACE LN N, MAPLE GROVE, MN, 55369",43838557,"R"
944581,"9575 W ANN ARBOR RD","PLYMOUTH","MI",48170,42.3386365690001,-83.5744602189999,81,"9575 W ANN ARBOR RD, PLYMOUTH, MI, 48170","Match","Non_Exact","9575 ANN ARBOR RD W, PLYMOUTH, MI, 48170",26033980,"L"
944582,"9575 WELLINGTON CT","YPSILANTI","MI",48197,42.1824556720001,-83.57057198,82,"9575 WELLINGTON CT, YPSILANTI, MI, 48197","Match","Exact","9575 WELLINGTON CT, YPSILANTI, MI, 48197",619511767,"L"
944583,"9575 WOODBINE","REDFORD","MI",48035,42.3647226480001,-83.2764531139999,83,"9575 WOODBINE, REDFORD, MI, 48035","Match","Non_Exact","9575 WOODBINE, REDFORD, MI, 48239",95430838,"L"
944584,"95750 JERRYS FLAT RD UNIT 17","GOLD BEACH","OR",97444,42.454358336,-124.370232654,84,"95750 JERRYS FLAT RD UNIT 17, GOLD BEACH, OR, 97444","Match","Exact","95750 JERRYS FLAT RD, GOLD BEACH, OR, 97444",640127333,"R"
944585,"9576 HICKORY HILL","TWINSBURG","OH",44087,41.3293070870001,-81.46764612,85,"9576 HICKORY HILL, TWINSBURG, OH, 44087","Match","Non_Exact","9576 HICKORY HILL DR, TWINSBURG, OH, 44087",61363649,"R"
944586,"9576 HIGHWAY 265","MT CROGHAN","SC",29727,NA,NA,86,"9576 HIGHWAY 265, MT CROGHAN, SC, 29727","No_Match",NA,NA,NA,NA
944587,"9576 SW FLOWERMOUND CIRCLE","PORT SAINT LUCIE","FL",34978,27.2914049570001,-80.4371000529999,87,"9576 SW FLOWERMOUND CIRCLE, PORT SAINT LUCIE, FL, 34978","Match","Non_Exact","9576 FLOWERMOUND CIR, PORT SAINT LUCIE, FL, 34987",627983703,"R"
944588,"9577 CROSLEY","REDFORD","MI",48239,42.3643653280001,-83.288564798,88,"9577 CROSLEY, REDFORD, MI, 48239","Match","Exact","9577 CROSLEY, REDFORD, MI, 48239",95430732,"L"
944589,"9577 J2 RANCH RD","INEZ","TX",77968,NA,NA,89,"9577 J2 RANCH RD, INEZ, TX, 77968","No_Match",NA,NA,NA,NA
944590,"9577 PINTAIL TRAIL","JONESBORO","GA",30238,33.493950403,-84.4019782949999,90,"9577 PINTAIL TRAIL, JONESBORO, GA, 30238","Match","Exact","9577 PINTAIL TRL, JONESBORO, GA, 30238",23321208,"R"
944591,"9577 W NICHOLS PL","LITTLETON","CO",80128,39.5720019140001,-105.104458247,91,"9577 W NICHOLS PL, LITTLETON, CO, 80128","Match","Exact","9577 W NICHOLS PL, LITTLETON, CO, 80128",177324729,"L"
944592,"95775 MARTIN RANCH RD","BROOKINGS","OR",97415,42.1395295450001,-124.345064023,92,"95775 MARTIN RANCH RD, BROOKINGS, OR, 97415","Match","Exact","95775 MARTIN RANCH RD, BROOKINGS, OR, 97415",137138866,"L"
944593,"9578 BIRCH DRIVE","LOVELAND","OH",45140,39.2931772430001,-84.2595160929999,93,"9578 BIRCH DRIVE, LOVELAND, OH, 45140","Match","Exact","9578 BIRCH DR, LOVELAND, OH, 45140",647934189,"R"
944594,"9578 HAMILTON STREET","ALTA LOMA","CA",91701,34.1311818500001,-117.595952636,94,"9578 HAMILTON STREET, ALTA LOMA, CA, 91701","Match","Exact","9578 HAMILTON ST, RANCHO CUCAMONGA, CA, 91701",144731170,"L"
944595,"9578 HWY 392 W","HARRISON","AR",72601,NA,NA,95,"9578 HWY 392 W, HARRISON, AR, 72601","No_Match",NA,NA,NA,NA
944596,"9578 LESLIE AVENUE","KANSAS CITY","MO",64139,38.947709982,-94.413759885,96,"9578 LESLIE AVENUE, KANSAS CITY, MO, 64139","Match","Exact","9578 LESLIE AVE, KANSAS CITY, MO, 64139",651292317,"R"
944597,"9578 NAPLES DR","CYPRESS","CA",90630,33.823249047,-118.046254399,97,"9578 NAPLES DR, CYPRESS, CA, 90630","Match","Exact","9578 NAPLES DR, CYPRESS, CA, 90630",144250992,"L"
944598,"9579 HWY 60 WEST","POPLAR BLUFF","MO",63901,NA,NA,98,"9579 HWY 60 WEST, POPLAR BLUFF, MO, 63901","No_Match",NA,NA,NA,NA
944599,"9579 LINNETT HILL DRIVE","LORTON","VA",22079,38.694846291,-77.2324713309999,99,"9579 LINNETT HILL DRIVE, LORTON, VA, 22079","Match","Exact","9579 LINNETT HILL DR, LORTON, VA, 22079",619944537,"L"
944600,"9579 RAVENSWORTH DR","HOUSTON","TX",77031,29.6437641810001,-95.546759795,100,"9579 RAVENSWORTH DR, HOUSTON, TX, 77031","Match","Exact","9579 RAVENSWORTH DR, HOUSTON, TX, 77031",96036809,"L"
944601,"9579 S HIDDEN POINT DR","SANDY","UT",NA,40.5779970520001,-111.911181364,101,"9579 S HIDDEN POINT DR, SANDY, UT, ","Match","Exact","9579 HIDDEN POINT DR, SANDY, UT, 84070",617251430,"L"
944602,"9579 SAGE RANCH CT","ELK GROVE","CA",95624,38.413778608,-121.339335944,102,"9579 SAGE RANCH CT, ELK GROVE, CA, 95624","Match","Exact","9579 SAGE RANCH CT, ELK GROVE, CA, 95624",133405158,"R"
944603,"958 19TH STREET","NEWPORT NEWS","VA",23607,36.980776647,-76.4084899489999,103,"958 19TH STREET, NEWPORT NEWS, VA, 23607","Match","Exact","958 19TH ST, NEWPORT NEWS, VA, 23607",638663357,"R"
944604,"958 70TH ST","BROOKLYN","NY",11228,40.627586095,-74.011837035,104,"958 70TH ST, BROOKLYN, NY, 11228","Match","Exact","958 70TH ST, BROOKLYN, NY, 11228",59094653,"R"
944605,"958 8TH AVE NW","ALTOONA","IA",50009,41.660522954,-93.472889202,105,"958 8TH AVE NW, ALTOONA, IA, 50009","Match","Exact","958 8TH AVE NW, ALTOONA, IA, 50009",65864985,"R"
944606,"958 ALGOMA DR","PORT WASHINGTON","WI",53074,43.3944959070001,-87.8892876849999,106,"958 ALGOMA DR, PORT WASHINGTON, WI, 53074","Match","Exact","958 ALGOMA DR, PORT WASHINGTON, WI, 53074",95910461,"L"
944607,"958 ANDREA DRIVE","EL CAJON","CA",92020,NA,NA,107,"958 ANDREA DRIVE, EL CAJON, CA, 92020","No_Match",NA,NA,NA,NA
944608,"958 ANTIOCH RD","WARFILED","VA",23889,36.897087997,-77.783775792,108,"958 ANTIOCH RD, WARFILED, VA, 23889","Match","Non_Exact","958 ANTIOCH RD, WARFIELD, VA, 23889",54034060,"R"
944609,"958 ARBOR VISTA BLVD","JACKSON","MS",39209,32.303956203,-90.220726454,109,"958 ARBOR VISTA BLVD, JACKSON, MS, 39209","Match","Exact","958 ARBOR VISTA BLVD, JACKSON, MS, 39209",65367276,"L"
944610,"958 ARBOR VISTA BOULEVARD","JACKSON","MS",39209,32.303956203,-90.220726454,110,"958 ARBOR VISTA BOULEVARD, JACKSON, MS, 39209","Match","Exact","958 ARBOR VISTA BLVD, JACKSON, MS, 39209",65367276,"L"
944611,"958 ASHEVILLE AVE APT 304","FORT MILL","SC",29708,35.0616394310001,-80.9979231149999,111,"958 ASHEVILLE AVE APT 304, FORT MILL, SC, 29708","Match","Exact","958 ASHEVILLE AVE, FORT MILL, SC, 29708",651082576,"R"
944612,"958 BAMA AVE","NORTH AUGUSTA","SC",29841,33.498425357,-81.962305092,112,"958 BAMA AVE, NORTH AUGUSTA, SC, 29841","Match","Exact","958 BAMA AVE, NORTH AUGUSTA, SC, 29841",640354836,"L"
944613,"958 BAYARD AVE","ST PAUL","MN",55102,44.922371153,-93.1405939109999,113,"958 BAYARD AVE, ST PAUL, MN, 55102","Match","Exact","958 BAYARD AVE, SAINT PAUL, MN, 55102",97647223,"L"
944614,"958 BELLE OAK DRIVE","LEESBURG","FL",34787,28.8007843880001,-81.884868408,114,"958 BELLE OAK DRIVE, LEESBURG, FL, 34787","Match","Non_Exact","958 BELLE OAK DR, LEESBURG, FL, 34748",94232159,"L"
944615,"958 BLUEBELL CIR","JOLIET","IL",60431,41.5378193500001,-88.278572324,115,"958 BLUEBELL CIR, JOLIET, IL, 60431","Match","Exact","958 BLUEBELL CIR, JOLIET, IL, 60431",629573491,"R"
944616,"958 CADOTTE","MACKINAW CITY","MI",49701,45.7784789130001,-84.751781475,116,"958 CADOTTE, MACKINAW CITY, MI, 49701","Match","Non_Exact","958 CADOTTE ST, MACKINAW CITY, MI, 49701",133994336,"R"
944617,"958 CAMELOT MNR","PORTAGE","IN",46368,41.5443959340001,-87.215801526,117,"958 CAMELOT MNR, PORTAGE, IN, 46368","Match","Exact","958 CAMELOT MANOR, PORTAGE, IN, 46368",119931740,"L"
944618,"958 CHAMBOARD LANE","HOUSTON","TX",77018,29.8307789670001,-95.417619798,118,"958 CHAMBOARD LANE, HOUSTON, TX, 77018","Match","Exact","958 CHAMBOARD LN, HOUSTON, TX, 77018",96054261,"R"
944619,"958 CHESTER RIVER DRIVE","GRASONVILLE","MD",21638,38.9713537390001,-76.212357093,119,"958 CHESTER RIVER DRIVE, GRASONVILLE, MD, 21638","Match","Exact","958 CHESTER RIVER DR, GRASONVILLE, MD, 21638",647246999,"L"
944620,"958 CR 246 NORTH","TYLER","TX",75705,32.376336581,-95.034510212,120,"958 CR 246 NORTH, TYLER, TX, 75705","Match","Exact","958 CO RD 246 N, TYLER, TX, 75705",141268119,"L"
944621,"958 E 10TH ST","BROOKLYN","NY",11230,40.6256404470001,-73.9663615329999,121,"958 E 10TH ST, BROOKLYN, NY, 11230","Match","Exact","958 E 10TH ST, BROOKLYN, NY, 11230",59097921,"R"
944622,"958 E HARVARD PL","ONTARIO","CA",91764,34.0788836830001,-117.636588904,122,"958 E HARVARD PL, ONTARIO, CA, 91764","Match","Exact","958 E HARVARD PL, ONTARIO, CA, 91764",144732904,"R"
944623,"958 E HIGH ST","HICKSVILLE","OH",43526,41.302521944,-84.748505909,123,"958 E HIGH ST, HICKSVILLE, OH, 43526","Match","Exact","958 E HIGH ST, HICKSVILLE, OH, 43526",207559868,"R"
944624,"958 ELM STREET","WHEATLAND","WY",82201,42.072556825,-104.954457904,124,"958 ELM STREET, WHEATLAND, WY, 82201","Match","Exact","958 ELM ST, WHEATLAND, WY, 82201",160443236,"R"
944625,"958 FERN AVENUE SE","ATLANTA","GA",30315,33.7282033020001,-84.385140592,125,"958 FERN AVENUE SE, ATLANTA, GA, 30315","Match","Exact","958 FERN AVE SE, ATLANTA, GA, 30315",17413433,"L"
944626,"958 FERN","ATLANTA","GA",30315,NA,NA,126,"958 FERN, ATLANTA, GA, 30315","No_Match",NA,NA,NA,NA
944627,"958 HEAVENLY VIEW CT","GARDENERVILLE","NV",85253,38.908834535,-119.75933512,127,"958 HEAVENLY VIEW CT, GARDENERVILLE, NV, 85253","Match","Non_Exact","958 HEAVENLY VIEW CT, GARDNERVILLE, NV, 89460",173757114,"R"
944628,"958 HIGH RIDE TRAIL","LOGANVILLE","GA",30052,NA,NA,128,"958 HIGH RIDE TRAIL, LOGANVILLE, GA, 30052","No_Match",NA,NA,NA,NA
944629,"958 LEONARD AVENUE","ZANESVILLE","OH",43701,39.97078163,-82.017240331,129,"958 LEONARD AVENUE, ZANESVILLE, OH, 43701","Match","Exact","958 LEONARD AVE, ZANESVILLE, OH, 43701",45594035,"R"
944630,"958 LINDHOLM ROAD","KANE","PA",16735,41.7428906820001,-78.596855305,130,"958 LINDHOLM ROAD, KANE, PA, 16735","Match","Exact","958 LINDHOLM RD, KANE, PA, 16735",652459020,"R"
944631,"958 MAGNOLIA RD","MARYSVILLE","CA",95901,39.23689861,-121.584219453,131,"958 MAGNOLIA RD, MARYSVILLE, CA, 95901","Match","Exact","958 MAGNOLIA RD, MARYSVILLE, CA, 95901",106948387,"R"
944632,"958 MAIN STREET","LAWN","TX",79530,32.1350943310001,-99.7576763179999,132,"958 MAIN STREET, LAWN, TX, 79530","Match","Exact","958 MAIN ST, LAWN, TX, 79530",129950288,"R"
944633,"958 MANTON WAY","PITTSBURGH","PA",15201,40.4213655900001,-79.9898724,133,"958 MANTON WAY, PITTSBURGH, PA, 15201","Match","Non_Exact","958 MANTON WAY, PITTSBURGH, PA, 15210",51636665,"R"
944634,"958 MCGEARY PLACE","MAYS LANDING","NJ",8330,39.4665532010001,-74.73590746,134,"958 MCGEARY PLACE, MAYS LANDING, NJ, 8330","Match","Exact","958 MCGEARY PL, MAYS LANDING, NJ, 08330",202496494,"L"
944635,"958 MONTEREY CT","SHOREVIEW","MN",55126,NA,NA,135,"958 MONTEREY CT, SHOREVIEW, MN, 55126","Tie",NA,NA,NA,NA
944636,"958 MONTROSE AVENUE","COLUMBUS","OH",43209,39.9495978030001,-82.9316892109999,136,"958 MONTROSE AVENUE, COLUMBUS, OH, 43209","Match","Exact","958 MONTROSE AVE, COLUMBUS, OH, 43209",218647288,"L"
944637,"958 N 27TH ST","MILWAUKEE","WI",53208,43.042882623,-87.9476880139999,137,"958 N 27TH ST, MILWAUKEE, WI, 53208","Match","Exact","958 N 27TH ST, MILWAUKEE, WI, 53208",77740285,"R"
944638,"958 N SAN JOSE DR","ABILENE","TX",79603,32.4611811070001,-99.781755805,138,"958 N SAN JOSE DR, ABILENE, TX, 79603","Match","Exact","958 N SAN JOSE DR, ABILENE, TX, 79603",129956678,"L"
944639,"958 N WESTERN AVE STE 5","LOS ANGELES","CA",90029,34.087980241,-118.30915761,139,"958 N WESTERN AVE STE 5, LOS ANGELES, CA, 90029","Match","Non_Exact","958 N WESTERN AVE, LOS ANGELES, CA, 90029",141603184,"R"
944640,"958 NORTHAMPTON ST","CAMBRIA","CA",93428,35.5680821730001,-121.095308858,140,"958 NORTHAMPTON ST, CAMBRIA, CA, 93428","Match","Exact","958 NORTHAMPTON ST, CAMBRIA, CA, 93428",109795145,"R"
944641,"958 NOTTINGHILL COURT","MONROE","MI",48161,41.9194982320001,-83.457039213,141,"958 NOTTINGHILL COURT, MONROE, MI, 48161","Match","Non_Exact","958 NOTTING HILL DR, MONROE, MI, 48161",40496803,"L"
944642,"958 NW 13TH ST","STUART","FL",34994,27.220868979,-80.265885946,142,"958 NW 13TH ST, STUART, FL, 34994","Match","Exact","958 NW 13TH ST, STUART, FL, 34994",120415369,"R"
944643,"958 OLIVER CT","WOODLAND","CA",95776,38.6667755140001,-121.741107873,143,"958 OLIVER CT, WOODLAND, CA, 95776","Match","Exact","958 OLIVER CT, WOODLAND, CA, 95776",640863691,"R"
944644,"958 PALO VERDE AVE","LONG BEACH","CA",90815,33.7801315240001,-118.107986489,144,"958 PALO VERDE AVE, LONG BEACH, CA, 90815","Match","Exact","958 PALO VERDE AVE, LONG BEACH, CA, 90815",141755300,"R"
944645,"958 PENNSYLVANIA AVE","TRENTON","NJ",8638,40.2395113370001,-74.74445051,145,"958 PENNSYLVANIA AVE, TRENTON, NJ, 8638","Match","Exact","958 PENNSYLVANIA AVE, TRENTON, NJ, 08638",60180535,"L"
944646,"958 PINEY CHURCH RD","CONCORD","NC",28025,35.3498955860001,-80.562132597,146,"958 PINEY CHURCH RD, CONCORD, NC, 28025","Match","Exact","958 PINEY CHURCH RD, CONCORD, NC, 28025",24915670,"L"
944647,"958 POPHAM ROAD","PHIPPSBURG","ME",4562,43.751387907,-69.786831784,147,"958 POPHAM ROAD, PHIPPSBURG, ME, 4562","Match","Exact","958 POPHAM RD, PHIPPSBURG, ME, 04562",75601917,"L"
944648,"958 QUAIL RUN QUAY","VIRGINIA BEACH","VA",23452,36.862897049,-76.074449928,148,"958 QUAIL RUN QUAY, VIRGINIA BEACH, VA, 23452","Match","Exact","958 QUAIL RUN QUAY, VA BCH, VA, 23452",122297258,"R"
944649,"958 RIDGEFIELD LN","WHEELING","IL",60090,42.1220274710001,-87.928291442,149,"958 RIDGEFIELD LN, WHEELING, IL, 60090","Match","Exact","958 RIDGEFIELD LN, WHEELING, IL, 60090",111846997,"R"
944650,"958 RUNYON BRANCH RD","PINSONFORK","KY",41555,NA,NA,150,"958 RUNYON BRANCH RD, PINSONFORK, KY, 41555","No_Match",NA,NA,NA,NA
944651,"958 SAINT JOHNS PLACE","BROOKLYN","NY",11213,40.671425395,-73.946455611,151,"958 SAINT JOHNS PLACE, BROOKLYN, NY, 11213","Match","Exact","958 ST JOHNS PL, BROOKLYN, NY, 11213",59079460,"R"
944652,"958 SAN SIMEON DRIVE","CONCORD","CA",94518,37.951224218,-122.02285238,152,"958 SAN SIMEON DRIVE, CONCORD, CA, 94518","Match","Exact","958 SAN SIMEON DR, CONCORD, CA, 94518",192055518,"R"
944653,"958 SCHUMAN PLACE","BALDWIN","NY",11510,40.674548277,-73.6048770789999,153,"958 SCHUMAN PLACE, BALDWIN, NY, 11510","Match","Exact","958 SCHUMAN PL, BALDWIN, NY, 11510",147629960,"R"
944654,"958 SHADY SPRING WAY","LAWRENCEVILLE","GA",30045,33.9089100300001,-83.999345443,154,"958 SHADY SPRING WAY, LAWRENCEVILLE, GA, 30045","Match","Exact","958 SHADY SPRING WAY, LAWRENCEVILLE, GA, 30045",636139005,"L"
944655,"958 SHAW CIRCLE","MELBOURNE","FL",32940,28.248106104,-80.695606875,155,"958 SHAW CIRCLE, MELBOURNE, FL, 32940","Match","Exact","958 SHAW CIR, MELBOURNE, FL, 32940",640618861,"R"
944656,"958 SHERMAN DR","MARSHALL","WI",53559,43.1349495590001,-89.0800756739999,156,"958 SHERMAN DR, MARSHALL, WI, 53559","Match","Exact","958 SHERMAN DR, MARSHALL, WI, 53559",49528267,"R"
944657,"958 SHERWOOD CIRCLE","FOREST PARK","GA",30297,33.597184053,-84.363006003,157,"958 SHERWOOD CIRCLE, FOREST PARK, GA, 30297","Match","Exact","958 SHERWOOD CIR, FOREST PARK, GA, 30297",23314960,"L"
944658,"958 SHORES ST NE","SALEM","OR",97301,44.9425678690001,-122.975085003,158,"958 SHORES ST NE, SALEM, OR, 97301","Match","Exact","958 SHORES ST NE, SALEM, OR, 97301",647642084,"R"
944659,"958 SHRIVER CIR","LAKE MARY","FL",32746,28.7316697700001,-81.3479620589999,159,"958 SHRIVER CIR, LAKE MARY, FL, 32746","Match","Exact","958 SHRIVER CIR, LAKE MARY, FL, 32746",93764340,"R"
944660,"958 SMITH AVENUE","HARRISONBURG","VA",22802,38.4645027830001,-78.882736612,160,"958 SMITH AVENUE, HARRISONBURG, VA, 22802","Match","Exact","958 SMITH AVE, HARRISONBURG, VA, 22802",55730559,"R"
944661,"958 SOUTH 36TH ST","MANITOWOC","WI",54220,44.0893369550001,-87.692007973,161,"958 SOUTH 36TH ST, MANITOWOC, WI, 54220","Match","Exact","958 S 36TH ST, MANITOWOC, WI, 54220",147949224,"R"
944662,"958 SOUTH STREET","ROSLINDALE","MA",2131,42.287784016,-71.138031511,162,"958 SOUTH STREET, ROSLINDALE, MA, 2131","Match","Exact","958 SOUTH ST, ROSLINDALE, MA, 02131",85703404,"L"
944663,"958 SPANISH MOSS TRAIL","LOGANVILLE","GA",30052,33.8454827210001,-83.876958664,163,"958 SPANISH MOSS TRAIL, LOGANVILLE, GA, 30052","Match","Exact","958 SPANISH MOSS TRL, LOGANVILLE, GA, 30052",618476283,"L"
944664,"958 STEAMBOAT LANE","HEATHSVILLE","VA",22473,37.8765288170001,-76.4397370679999,164,"958 STEAMBOAT LANE, HEATHSVILLE, VA, 22473","Match","Exact","958 STEAMBOAT LN, HEATHSVILLE, VA, 22473",649837911,"R"
944665,"958 TAMARIND CIR","ROCKLEDGE","FL",32955,28.3108897180001,-80.7258389259999,165,"958 TAMARIND CIR, ROCKLEDGE, FL, 32955","Match","Exact","958 TAMARIND CIR, ROCKLEDGE, FL, 32955",93930895,"R"
944666,"958 TAMATIND CIR","ROCKLEDGE","FL",32955,NA,NA,166,"958 TAMATIND CIR, ROCKLEDGE, FL, 32955","No_Match",NA,NA,NA,NA
944667,"958 TUCKAWANNA DR SW","ATLANTA","GA",30311,33.729038938,-84.485590971,167,"958 TUCKAWANNA DR SW, ATLANTA, GA, 30311","Match","Exact","958 TUCKAWANNA DR SW, ATLANTA, GA, 30311",17337488,"L"
944668,"958 VILLAGE DRIVE WEST APT B","NORTH BRUNSWICK","NJ",8902,40.4642173610001,-74.4618361839999,168,"958 VILLAGE DRIVE WEST APT B, NORTH BRUNSWICK, NJ, 8902","Match","Exact","958 VILLAGE DR W, N BRUNSWICK, NJ, 08902",60327547,"L"
944669,"958 VILLAGE TRAIL  APT 607","PORT ORANGE","FL",32127,29.1224122460001,-81.0112784409999,169,"958 VILLAGE TRAIL  APT 607, PORT ORANGE, FL, 32127","Match","Exact","958 VILLAGE TRL, PORT ORANGE, FL, 32127",94544315,"L"
944670,"958 VILLAGE TRAIL APT 312","PORT ORANGE","FL",32127,29.1224122460001,-81.0112784409999,170,"958 VILLAGE TRAIL APT 312, PORT ORANGE, FL, 32127","Match","Exact","958 VILLAGE TRL, PORT ORANGE, FL, 32127",94544315,"L"
944671,"958 WEST MAIN STREET","SUN PRAIRIE","WI",53590,43.180900347,-89.2300427869999,171,"958 WEST MAIN STREET, SUN PRAIRIE, WI, 53590","Match","Exact","958 W MAIN ST, SUN PRAIRIE, WI, 53590",49542909,"R"
944672,"958 WEST PARK AVENUE","NILES","OH",44446,41.1808293450001,-80.779703793,172,"958 WEST PARK AVENUE, NILES, OH, 44446","Match","Exact","958 W PARK AVE, NILES, OH, 44446",117408445,"R"
944673,"958 WINDMILL PARKWAY","EVANS","GA",30809,33.561076026,-82.2046902599999,173,"958 WINDMILL PARKWAY, EVANS, GA, 30809","Match","Exact","958 WINDMILL PKWY, EVANS, GA, 30809",55385237,"R"
944674,"9580 COMMERCE CENTER DRIVE","RANCHO CUCAMONGA","CA",91730,34.079521953,-117.576893845,174,"9580 COMMERCE CENTER DRIVE, RANCHO CUCAMONGA, CA, 91730","Match","Exact","9580 COMMERCE CENTER DR, RANCHO CUCAMONGA, CA, 91730",144637656,"R"
944675,"9580 HULTMAN RD","INDEPENDENCE","OR",97351,44.7966376100001,-123.145984083,175,"9580 HULTMAN RD, INDEPENDENCE, OR, 97351","Match","Exact","9580 HULTMAN RD, INDEPENDENCE, OR, 97351",155785179,"R"
944676,"9580 LAKE ROAD","BULLOCK","NC",27507,36.533966181,-78.495290724,176,"9580 LAKE ROAD, BULLOCK, NC, 27507","Match","Exact","9580 LAKE RD, BULLOCK, NC, 27507",77111792,"R"
944677,"9580 PLANTATION LAKE ROAD","COLLIERVILLE","TN",38017,35.0154285290001,-89.7452230549999,177,"9580 PLANTATION LAKE ROAD, COLLIERVILLE, TN, 38017","Match","Exact","9580 PLANTATION LAKE RD, COLLIERVILLE, TN, 38017",72960079,"L"
944678,"9580 ROD RD","JOHNS CREEK","GA",30022,34.0137348380001,-84.273157635,178,"9580 ROD RD, JOHNS CREEK, GA, 30022","Match","Exact","9580 ROD RD, JOHNS CREEK, GA, 30022",644687130,"L"
944679,"9580 SILVERCREEK ROAD","WHITEHALL","MI",49461,NA,NA,179,"9580 SILVERCREEK ROAD, WHITEHALL, MI, 49461","No_Match",NA,NA,NA,NA
944680,"9580 SUN ISLE DRIVE","SAINT PETERSBURG","FL",33701,NA,NA,180,"9580 SUN ISLE DRIVE, SAINT PETERSBURG, FL, 33701","No_Match",NA,NA,NA,NA
944681,"9580 VICTORIA LANE 301A","NAPLES","FL",34109,26.2584551620001,-81.770492437,181,"9580 VICTORIA LANE 301A, NAPLES, FL, 34109","Match","Exact","9580 VICTORIA LN, NAPLES, FL, 34109",115160665,"R"
944682,"9581 BRONTE DRIVE","BURKE","VA",22015,38.808919342,-77.277342037,182,"9581 BRONTE DRIVE, BURKE, VA, 22015","Match","Exact","9581 BRONTE DR, BURKE, VA, 22015",75974118,"R"
944683,"9581 BURGOYNE ROAD","BERRIEN SPRINGS","MI",49103,41.9451396100001,-86.417716094,183,"9581 BURGOYNE ROAD, BERRIEN SPRINGS, MI, 49103","Match","Exact","9581 BURGOYNE RD, BERRIEN SPRINGS, MI, 49103",119967748,"R"
944684,"9581 DEE RD UNITY 1J","DES PLAINES","IL",60016,42.0536408680001,-87.855060953,184,"9581 DEE RD UNITY 1J, DES PLAINES, IL, 60016","Match","Exact","9581 DEE RD, DES PLAINES, IL, 60016",111730570,"R"
944685,"9581 ELM POINT COVE","LAKELAND","TN",38002,35.2411233450001,-89.7436710169999,185,"9581 ELM POINT COVE, LAKELAND, TN, 38002","Match","Exact","9581 ELM POINT COVE, LAKELAND, TN, 38002",72901050,"R"
944686,"9581 GREEN SPRUCE STREET","LAS VEGAS","NV",89123,36.015761711,-115.155257866,186,"9581 GREEN SPRUCE STREET, LAS VEGAS, NV, 89123","Match","Exact","9581 GREEN SPRUCE ST, LAS VEGAS, NV, 89123",201997105,"R"
944687,"9581 HASTINGS WAY","OOLTEWAH","TN",37363,35.0534798300001,-85.081021854,187,"9581 HASTINGS WAY, OOLTEWAH, TN, 37363","Match","Exact","9581 HASTINGS WAY, OOLTEWAH, TN, 37363",625202506,"R"
944688,"9581 PINTAIL TRAIL","JONESBORO","GA",30238,33.4938753820001,-84.401940784,188,"9581 PINTAIL TRAIL, JONESBORO, GA, 30238","Match","Exact","9581 PINTAIL TRL, JONESBORO, GA, 30238",23321208,"R"
944689,"9581","BERRIEN SPRINGS","MI",49103,NA,NA,189,"9581, BERRIEN SPRINGS, MI, 49103","No_Match",NA,NA,NA,NA
944690,"9582 DAVENPORT ST","ALBUQUERQUE","NM",87114,35.186637047,-106.679891763,190,"9582 DAVENPORT ST, ALBUQUERQUE, NM, 87114","Match","Non_Exact","9582 DAVENPORT ST NW, ALBUQUERQUE, NM, 87114",206744010,"R"
944691,"9582 FINTRY STREET","BRISTOW","VA",20136,38.7492707590001,-77.58401608,191,"9582 FINTRY STREET, BRISTOW, VA, 20136","Match","Exact","9582 FINTRY ST, BRISTOW, VA, 20136",619914219,"L"
944692,"9582 HALEKULANI","GARDEN GROVE","CA",92841,33.779039563,-117.965890946,192,"9582 HALEKULANI, GARDEN GROVE, CA, 92841","Match","Non_Exact","9582 HALEKULANI DR, GARDEN GROVE, CA, 92841",144034935,"R"
944693,"9582 MAGENTA ST","MANASSAS","VA",20110,38.730600682,-77.48838291,193,"9582 MAGENTA ST, MANASSAS, VA, 20110","Match","Exact","9582 MAGENTA ST, MANASSAS, VA, 20110",207142759,"R"
944694,"9582 MIDDLE ROAD","EAST CONCORD","NY",14055,42.5301133570001,-78.63758022,194,"9582 MIDDLE ROAD, EAST CONCORD, NY, 14055","Match","Exact","9582 MIDDLE RD, EAST CONCORD, NY, 14055",48281116,"R"
944695,"9582 TOPEKA LANE","WEST CHESTER","OH",45069,39.3138670710001,-84.4016799999999,195,"9582 TOPEKA LANE, WEST CHESTER, OH, 45069","Match","Exact","9582 TOPEKA LN, WEST CHESTER, OH, 45069",113814459,"L"
944696,"9582 W 87TH ST","OVERLAND PARK","KS",66212,38.971197724,-94.696854414,196,"9582 W 87TH ST, OVERLAND PARK, KS, 66212","Match","Exact","9582 W 87TH ST, OVERLAND PARK, KS, 66212",91275122,"R"
944697,"9582 ZETLAND DRIVE","HUNTINGTON BEACH","CA",92646,33.6638913130001,-117.960817817,197,"9582 ZETLAND DRIVE, HUNTINGTON BEACH, CA, 92646","Match","Exact","9582 ZETLAND DR, HUNTINGTON BEACH, CA, 92646",144045022,"R"
944698,"9583 MORNING SHADOW","CORDOVA","TN",38018,NA,NA,198,"9583 MORNING SHADOW, CORDOVA, TN, 38018","No_Match",NA,NA,NA,NA
944699,"9583 N US HWY 183","GOLIAD","TX",77963,28.8046909010001,-97.385988668,199,"9583 N US HWY 183, GOLIAD, TX, 77963","Match","Exact","9583 US HWY 183, GOLIAD, TX, 77963",36043592,"R"
944700,"9584 AUTUMN LEAF WAY","RENO","NV",89506,39.6299695500001,-119.870952422,200,"9584 AUTUMN LEAF WAY, RENO, NV, 89506","Match","Exact","9584 AUTUMN LEAF WAY, RENO, NV, 89506",653208298,"L"
944701,"9584 CAVELL STREET","LIVONIA","MI",48150,42.3633414880001,-83.3156205669999,201,"9584 CAVELL STREET, LIVONIA, MI, 48150","Match","Exact","9584 CAVELL ST, LIVONIA, MI, 48150",95427649,"R"
944702,"9584 TABERNA LANE","OLMSTED TOWNSHIP","OH",44138,41.3541474400001,-81.952946453,202,"9584 TABERNA LANE, OLMSTED TOWNSHIP, OH, 44138","Match","Exact","9584 TABERNA LN, OLMSTED TWP, OH, 44138",633983166,"R"
944703,"9584 UNION PIER RD","UNION PIER","MI",49129,41.828032555,-86.684223559,203,"9584 UNION PIER RD, UNION PIER, MI, 49129","Match","Exact","9584 UNION PIER RD, UNION PIER, MI, 49129",647542577,"L"
944704,"9585 13 MILE ROAD","ROCKFORD","MI",49341,43.161717454,-85.431929671,204,"9585 13 MILE ROAD, ROCKFORD, MI, 49341","Match","Non_Exact","9585 13 MILE RD NE, ROCKFORD, MI, 49341",12478952,"L"
944705,"9585 BELLA TERRA DR","FORT WORTH","TX",76126,32.7066485190001,-97.486083886,205,"9585 BELLA TERRA DR, FORT WORTH, TX, 76126","Match","Exact","9585 BELLA TERRA DR, FORT WORTH, TX, 76126",619864928,"L"
944706,"9585 BRISTOW COURT","MOBILE","AL",36695,30.637388586,-88.2669348329999,206,"9585 BRISTOW COURT, MOBILE, AL, 36695","Match","Exact","9585 BRISTOW CT, MOBILE, AL, 36695",637460781,"L"
944707,"9585 CANDIDA ST","SAN DIEGO","CA",92126,32.8970184020001,-117.121566813,207,"9585 CANDIDA ST, SAN DIEGO, CA, 92126","Match","Exact","9585 CANDIDA ST, SAN DIEGO, CA, 92126",195319142,"R"
944708,"9585 HIGHWAY 78 STE C","LADSON","SC",29456,32.987618415,-80.0974408559999,208,"9585 HIGHWAY 78 STE C, LADSON, SC, 29456","Match","Non_Exact","9585 US HWY 78, LADSON, SC, 29456",647985958,"R"
944709,"9585 W BERRY LN","CRYSTAL RIVER","FL",34428,28.987245999,-82.5955453189999,209,"9585 W BERRY LN, CRYSTAL RIVER, FL, 34428","Match","Exact","9585 W BERRY LN, CRYSTAL RIVER, FL, 34428",86187671,"L"
944710,"9585 WHITE OAK LANE SUITE 205","JOHNSTON","IA",50131,41.664708422,-93.751643682,210,"9585 WHITE OAK LANE SUITE 205, JOHNSTON, IA, 50131","Match","Exact","9585 WHITE OAK LN, JOHNSTON, IA, 50131",65862799,"R"
944711,"9586 CR 7190","POTTERSVILLE","MO",65790,36.7027678800001,-92.031059837,211,"9586 CR 7190, POTTERSVILLE, MO, 65790","Match","Exact","9586 CO RD 7190, POTTERSVILLE, MO, 65790",649033053,"R"
944712,"9587 HALF MILE DRIVE","MARSHFIELD","WI",54449,44.5954387840001,-90.190410786,212,"9587 HALF MILE DRIVE, MARSHFIELD, WI, 54449","Match","Exact","9587 HALF MILE DR, MARSHFIELD, WI, 54449",51278963,"L"
944713,"9587 MAPLE DR","ROSEMONT","IL",60018,41.991872754,-87.8657553799999,213,"9587 MAPLE DR, ROSEMONT, IL, 60018","Match","Exact","9587 MAPLE DR, ROSEMONT, IL, 60018",605270893,"L"
944714,"9587 VOLK AVE","LAS VEGAS","NV",89178,36.023124008,-115.302562839,214,"9587 VOLK AVE, LAS VEGAS, NV, 89178","Match","Exact","9587 VOLK AVE, LAS VEGAS, NV, 89178",641455679,"R"
944715,"9587 W 89TH CIRCLE","WESTMINSTER","CO",80021,39.8576442090001,-105.102313446,215,"9587 W 89TH CIRCLE, WESTMINSTER, CO, 80021","Match","Exact","9587 W 89TH CIR, WESTMINSTER, CO, 80021",177800250,"R"
944716,"9587 WELDON CIRCLE UNIT B104","TAMARAC","FL",33321,26.2204229450001,-80.2798363319999,216,"9587 WELDON CIRCLE UNIT B104, TAMARAC, FL, 33321","Match","Exact","9587 WELDON CIR, TAMARAC, FL, 33321",114784716,"R"
944717,"9588 79E","HENDERSON","TX",75652,NA,NA,217,"9588 79E, HENDERSON, TX, 75652","No_Match",NA,NA,NA,NA
944718,"9588 AVENUE G","NILAND","CA",92257,33.351917557,-115.72743552,218,"9588 AVENUE G, NILAND, CA, 92257","Match","Exact","9588 AVE G, NILAND, CA, 92257",194510268,"R"
944719,"9588 FOREST LN 914","DALLAS","TX",75243,32.9091298710001,-96.727976805,219,"9588 FOREST LN 914, DALLAS, TX, 75243","Match","Exact","9588 FOREST LN, DALLAS, TX, 75243",103244524,"R"
944720,"9588 FOREST LN APT 914","DALLAS","TX",75243,32.9091298710001,-96.727976805,220,"9588 FOREST LN APT 914, DALLAS, TX, 75243","Match","Exact","9588 FOREST LN, DALLAS, TX, 75243",103244524,"R"
944721,"9588 FOUR WINDS DRIVE - 1512","ELK GROVE","CA",95758,NA,NA,221,"9588 FOUR WINDS DRIVE - 1512, ELK GROVE, CA, 95758","No_Match",NA,NA,NA,NA
944722,"9588 KENLEY CT","PARKLAND","FL",33076,26.3312778700001,-80.25476916,222,"9588 KENLEY CT, PARKLAND, FL, 33076","Match","Exact","9588 KENLEY CT, PARKLAND, FL, 33076",625179561,"R"
944723,"9588 MARKLEY BLVD","SUMMERVILLE","SC",29485,32.9415067260001,-80.140979697,223,"9588 MARKLEY BLVD, SUMMERVILLE, SC, 29485","Match","Exact","9588 MARKLEY BLVD, SUMMERVILLE, SC, 29485",178486084,"L"
944724,"9588 NE JACKSONVILLE ROAD","ANTHONY","FL",32617,29.2901778310001,-82.11225068,224,"9588 NE JACKSONVILLE ROAD, ANTHONY, FL, 32617","Match","Exact","9588 NE JACKSONVILLE RD, ANTHONY, FL, 32617",116810871,"L"
944725,"9588 NE JACKSONVILLE ROAD","ANTHOY","FL",32617,29.2901778310001,-82.11225068,225,"9588 NE JACKSONVILLE ROAD, ANTHOY, FL, 32617","Match","Non_Exact","9588 NE JACKSONVILLE RD, ANTHONY, FL, 32617",116810871,"L"
944726,"9588 OSR","MADISONVILLE","TX",77864,NA,NA,226,"9588 OSR, MADISONVILLE, TX, 77864","No_Match",NA,NA,NA,NA
944727,"9588 WINDSWEPT","HOUSTON","TX",77063,29.7247222030001,-95.5344702199999,227,"9588 WINDSWEPT, HOUSTON, TX, 77063","Match","Non_Exact","9588 WINDSWEPT LN, HOUSTON, TX, 77063",96613806,"L"
944728,"9589 BRENTWOOD BLVD","NAVARRE","FL",32566,30.4145700890001,-86.822755043,228,"9589 BRENTWOOD BLVD, NAVARRE, FL, 32566","Match","Exact","9589 BRENTWOOD BLVD, NAVARRE, FL, 32566",74582930,"R"
944729,"9589 BRENTWOOD","NAVARRE","FL",32566,30.4145700890001,-86.822755043,229,"9589 BRENTWOOD, NAVARRE, FL, 32566","Match","Non_Exact","9589 BRENTWOOD BLVD, NAVARRE, FL, 32566",74582930,"R"
944730,"9589 FOUR WINDS DRIVE APT 911","ELK GROVE","CA",95758,38.4094557820001,-121.460458892,230,"9589 FOUR WINDS DRIVE APT 911, ELK GROVE, CA, 95758","Match","Exact","9589 FOUR WINDS DR, ELK GROVE, CA, 95758",614153129,"L"
944731,"9589 FOUR WINDS DRIVE APT 925","ELK GROVE","CA",95758,38.4094557820001,-121.460458892,231,"9589 FOUR WINDS DRIVE APT 925, ELK GROVE, CA, 95758","Match","Exact","9589 FOUR WINDS DR, ELK GROVE, CA, 95758",614153129,"L"
944732,"9589 GOLD COAST DRIVE","SAN DIEGO","CA",92126,32.9053550020001,-117.119567307,232,"9589 GOLD COAST DRIVE, SAN DIEGO, CA, 92126","Match","Exact","9589 GOLD COAST DR, SAN DIEGO, CA, 92126",650449315,"R"
944733,"9589 LINFIELD DRIVE","CINCINNATI","OH",45242,39.2327720370001,-84.389082699,233,"9589 LINFIELD DRIVE, CINCINNATI, OH, 45242","Match","Exact","9589 LINFIELD DR, CINCINNATI, OH, 45242",103927787,"L"
944734,"9589 ROUTTS HILL ROAD","WARRENTON","VA",20186,38.6381297290001,-77.8357752209999,234,"9589 ROUTTS HILL ROAD, WARRENTON, VA, 20186","Match","Exact","9589 ROUTTS HILL RD, WARRENTON, VA, 20186",146286684,"R"
944735,"9589 W HARMONY LN","PEORIA","AZ",85382,33.6752178790001,-112.267514191,235,"9589 W HARMONY LN, PEORIA, AZ, 85382","Match","Exact","9589 W HARMONY LN, PEORIA, AZ, 85382",619122100,"L"
944736,"9589 W LILLY WOOD DR","BOISE","ID",83709,43.540389971,-116.301457113,236,"9589 W LILLY WOOD DR, BOISE, ID, 83709","Match","Non_Exact","9589 W LILLYWOOD DR, BOISE, ID, 83709",617937338,"L"
944737,"958B ACEQUIAS DE LAS JOYAS","SANTA FE","NM",87505,35.6741967290001,-105.979314303,237,"958B ACEQUIAS DE LAS JOYAS, SANTA FE, NM, 87505","Match","Non_Exact","958 ACEQUIA DE LAS JOYAS, SANTA FE, NM, 87505",169406851,"L"
944738,"959 10TH ST SW","PINE ISLAND","MN",55963,44.1935115000001,-92.6650886309999,238,"959 10TH ST SW, PINE ISLAND, MN, 55963","Match","Exact","959 10TH ST SW, PINE ISLAND, MN, 55963",632532143,"R"
944739,"959 1ST AVE APT 4B","NEW YORK","NY",10022,NA,NA,239,"959 1ST AVE APT 4B, NEW YORK, NY, 10022","No_Match",NA,NA,NA,NA
944740,"959 1ST AVENUE APT 4B","NEW YORK","NY",10022,NA,NA,240,"959 1ST AVENUE APT 4B, NEW YORK, NY, 10022","No_Match",NA,NA,NA,NA
944741,"959 1ST AVENUE SUITE 20C","NEW YORK","NY",10022,NA,NA,241,"959 1ST AVENUE SUITE 20C, NEW YORK, NY, 10022","No_Match",NA,NA,NA,NA
944742,"959 25TH STREET","ROCK ISLAND","IL",61201,41.5016015750001,-90.56501589,242,"959 25TH STREET, ROCK ISLAND, IL, 61201","Match","Exact","959 25TH ST, ROCK ISLAND, IL, 61201",9208421,"L"
944743,"959 45TH ST","OAKLAND","CA",94608,37.8347099920001,-122.274532071,243,"959 45TH ST, OAKLAND, CA, 94608","Match","Exact","959 45TH ST, OAKLAND, CA, 94608",124996112,"L"
944744,"959 ANZA DRIVE","PACIFICA","CA",94044,37.597086231,-122.501574786,244,"959 ANZA DRIVE, PACIFICA, CA, 94044","Match","Exact","959 ANZA DR, PACIFICA, CA, 94044",192369514,"L"
944745,"959 AUGUSTA ST","MOBILE","AL",36604,30.681605631,-88.0551225409999,245,"959 AUGUSTA ST, MOBILE, AL, 36604","Match","Exact","959 AUGUSTA ST, MOBILE, AL, 36604",61867611,"L"
944746,"959 BAY DRIVE","DEALE","MD",20751,38.783791448,-76.5325781,246,"959 BAY DRIVE, DEALE, MD, 20751","Match","Exact","959 BAY DR, DEALE, MD, 20751",68179024,"R"
944747,"959 BAYBERRY DR","MEDINA","OH",44256,41.1280384400001,-81.843608058,247,"959 BAYBERRY DR, MEDINA, OH, 44256","Match","Exact","959 BAYBERRY DR, MEDINA, OH, 44256",58676512,"L"
944748,"959 BEDFORD AVENUE 1L","BROOKLYN","NY",11205,40.691376172,-73.9554953849999,248,"959 BEDFORD AVENUE 1L, BROOKLYN, NY, 11205","Match","Exact","959 BEDFORD AVE, BROOKLYN, NY, 11205",59078638,"L"
944749,"959 BEECHFERN LANE","ROCKLEDGE","FL",32955,28.3126996390001,-80.734896863,249,"959 BEECHFERN LANE, ROCKLEDGE, FL, 32955","Match","Exact","959 BEECHFERN LN, ROCKLEDGE, FL, 32955",93894600,"R"
944750,"959 BRIDGE ST APT 405","WEST SACRAMENTO","CA",95961,38.576585498,-121.516181086,250,"959 BRIDGE ST APT 405, WEST SACRAMENTO, CA, 95961","Match","Non_Exact","959 BRIDGE ST, WEST SACRAMENTO, CA, 95691",650188453,"L"
944751,"959 CHALCEDONY STREET APT 4","SAN DIEGO","CA",92109,32.8018525040001,-117.254027637,251,"959 CHALCEDONY STREET APT 4, SAN DIEGO, CA, 92109","Match","Exact","959 CHALCEDONY ST, SAN DIEGO, CA, 92109",195299497,"R"
944752,"959 CHATTANOOGA AVENUE","PACIFIC PALISADES","CA",90272,34.051705127,-118.543727577,252,"959 CHATTANOOGA AVENUE, PACIFIC PALISADES, CA, 90272","Match","Exact","959 CHATTANOOGA AVE, PACIFIC PALISADES, CA, 90272",141557383,"L"
944753,"959 CHIPMAN LANE","OWOSSO","MI",48867,43.0129020300001,-84.181375836,253,"959 CHIPMAN LANE, OWOSSO, MI, 48867","Match","Exact","959 CHIPMAN LN, OWOSSO, MI, 48867",23657236,"R"
944754,"959 CLARENCE COURT","MADISON","WI",53715,43.0569691600001,-89.387709897,254,"959 CLARENCE COURT, MADISON, WI, 53715","Match","Exact","959 CLARENCE CT, MADISON, WI, 53715",49473461,"L"
944755,"959 COLE PLACE ROAD","ALLARDT","TN",38504,36.3964183470001,-84.7212972089999,255,"959 COLE PLACE ROAD, ALLARDT, TN, 38504","Match","Exact","959 COLE PLACE RD, ALLARDT, TN, 38504",636663775,"R"
944756,"959 COUNTY STREET 2989","BLANCHARD","OK",73010,35.2529045420001,-97.671771963,256,"959 COUNTY STREET 2989, BLANCHARD, OK, 73010","Match","Exact","959 COUNTY STREET 2989, BLANCHARD, OK, 73010",15259773,"R"
944757,"959 CRAMER COURT","BALDWIN","NY",11510,40.680193226,-73.6053971439999,257,"959 CRAMER COURT, BALDWIN, NY, 11510","Match","Exact","959 CRAMER CT, BALDWIN, NY, 11510",147833001,"L"
944758,"959 DALE STREET","PASADENA","CA",91106,34.1319031960001,-118.13061325,258,"959 DALE STREET, PASADENA, CA, 91106","Match","Exact","959 DALE ST, PASADENA, CA, 91106",141630985,"L"
944759,"959 DELAWARE AVENUE","MENDOTA HEIGHTS","MN",55118,44.916321619,-93.1058276379999,259,"959 DELAWARE AVENUE, MENDOTA HEIGHTS, MN, 55118","Match","Exact","959 DELAWARE AVE, MENDOTA HEIGHTS, MN, 55118",37915600,"R"
944760,"959 DOGWOOD DRIVE","GRENADA","MI",38901,NA,NA,260,"959 DOGWOOD DRIVE, GRENADA, MI, 38901","No_Match",NA,NA,NA,NA
944761,"959 DONAGHE ST APT 4","STAUNTON","VA",24401,38.1646633570001,-79.073711874,261,"959 DONAGHE ST APT 4, STAUNTON, VA, 24401","Match","Exact","959 DONAGHE ST, STAUNTON, VA, 24401",98813579,"R"
944762,"959 DRYDEN ROAD APT B","ITHACA","NY",14850,42.4550655470001,-76.4381589389999,262,"959 DRYDEN ROAD APT B, ITHACA, NY, 14850","Match","Exact","959 DRYDEN RD, ITHACA, NY, 14850",18867484,"R"
944763,"959 E 130TH STREET","CLEVELAND","OH",44108,41.531308992,-81.5926256449999,263,"959 E 130TH STREET, CLEVELAND, OH, 44108","Match","Exact","959 E 130TH ST, CLEVELAND, OH, 44108",61120770,"L"
944764,"959 E HOLLYWOOD AVENUE","SALT LAKE CITY","UT",84105,40.7273859410001,-111.863433286,264,"959 E HOLLYWOOD AVENUE, SALT LAKE CITY, UT, 84105","Match","Exact","959 E HOLLYWOOD AVE, SALT LAKE CITY, UT, 84105",176080904,"L"
944765,"959 EAST 95 ST","BROOKLYN","NY",11236,40.6463887830001,-73.9065741649999,265,"959 EAST 95 ST, BROOKLYN, NY, 11236","Match","Exact","959 E 95TH ST, BROOKLYN, NY, 11236",59086313,"L"
944766,"959 EAST FOURTH STREET","MARION","IN",46952,40.5577563470001,-85.650259158,266,"959 EAST FOURTH STREET, MARION, IN, 46952","Match","Exact","959 E 4TH ST, MARION, IN, 46952",639210806,"L"
944767,"959 EAST HOLLYWOOD AVENUE","SALT LAKE CITY","UT",84105,40.7273859410001,-111.863445071,267,"959 EAST HOLLYWOOD AVENUE, SALT LAKE CITY, UT, 84105","Match","Exact","959 E HOLLYWOOD AVE, SALT LAKE CITY, UT, 84105",176080904,"L"
944768,"959 EAST MAIN STREET APT 1022","LEXINGTON","SC",29072,33.9732053860001,-81.221191302,268,"959 EAST MAIN STREET APT 1022, LEXINGTON, SC, 29072","Match","Exact","959 E MAIN ST, LEXINGTON, SC, 29072",632100167,"R"
944769,"959 EAST MAIN STREET APT 123","LEXINGTON","SC",29072,33.9732053860001,-81.221191302,269,"959 EAST MAIN STREET APT 123, LEXINGTON, SC, 29072","Match","Exact","959 E MAIN ST, LEXINGTON, SC, 29072",632100167,"R"
944770,"959 EVANS STREET","NEENAH","WI",54956,44.1700869900001,-88.4886388749999,270,"959 EVANS STREET, NEENAH, WI, 54956","Match","Exact","959 EVANS ST, NEENAH, WI, 54956",74487158,"R"
944771,"959 FALCON DR","ALLEN","TX",75013,33.124924095,-96.6786116219999,271,"959 FALCON DR, ALLEN, TX, 75013","Match","Exact","959 FALCON DR, ALLEN, TX, 75013",614162048,"L"
944772,"959 FOURTH STREET","LAFAYETTE","CA",94549,37.891556612,-122.111072764,272,"959 FOURTH STREET, LAFAYETTE, CA, 94549","Match","Exact","959 4TH ST, LAFAYETTE, CA, 94549",192048847,"L"
944773,"959 GLADSTONE ROAD","GLADSTONE","VA",24553,37.5472895230001,-78.8499548,273,"959 GLADSTONE ROAD, GLADSTONE, VA, 24553","Match","Exact","959 GLADSTONE RD, GLADSTONE, VA, 24553",98899752,"R"
944774,"959 GOLF COURSE DRIVE STE 114","ROHNERT PARK","CA",94928,38.363079215,-122.692419176,274,"959 GOLF COURSE DRIVE STE 114, ROHNERT PARK, CA, 94928","Match","Exact","959 GOLF COURSE DR, ROHNERT PARK, CA, 94928",606664884,"L"
944775,"959 GOLF COURSE DRIVE SUITE 272","ROHNERT PARK","CA",94928,38.363079215,-122.692419176,275,"959 GOLF COURSE DRIVE SUITE 272, ROHNERT PARK, CA, 94928","Match","Exact","959 GOLF COURSE DR, ROHNERT PARK, CA, 94928",606664884,"L"
944776,"959 HAVENSPORT DRIVE","CINCINNATI","OH",45240,39.298604701,-84.512408065,276,"959 HAVENSPORT DRIVE, CINCINNATI, OH, 45240","Match","Exact","959 HAVENSPORT DR, CINCINNATI, OH, 45240",103943278,"L"
944777,"959 HEMINGWAY ST","CORONA","CA",92880,NA,NA,277,"959 HEMINGWAY ST, CORONA, CA, 92880","No_Match",NA,NA,NA,NA
944778,"959 HIGHWAY 95N","SHINER","TX",77984,NA,NA,278,"959 HIGHWAY 95N, SHINER, TX, 77984","No_Match",NA,NA,NA,NA
944779,"959 HIGHWAY T","BOLIVAR","MO",65613,NA,NA,279,"959 HIGHWAY T, BOLIVAR, MO, 65613","No_Match",NA,NA,NA,NA
944780,"959 IRVINGTON RD","KILMARNOCK","VA",22482,NA,NA,280,"959 IRVINGTON RD, KILMARNOCK, VA, 22482","No_Match",NA,NA,NA,NA
944781,"959 IVERNESS ROAD","FRANKFORT","KY",40601,NA,NA,281,"959 IVERNESS ROAD, FRANKFORT, KY, 40601","No_Match",NA,NA,NA,NA
944782,"959 KAWAIKI PLACE","HONOLULU","HI",96825,21.293772221,-157.704116149,282,"959 KAWAIKI PLACE, HONOLULU, HI, 96825","Match","Exact","959 KAWAIKI PL, HONOLULU, HI, 96825",203244154,"R"
944783,"959 LA MESA TERRACE UNIT D","SUNNYVALE","CA",94086,37.3855545370001,-122.042051372,283,"959 LA MESA TERRACE UNIT D, SUNNYVALE, CA, 94086","Match","Non_Exact","959 LA MESA TER, SUNNYVALE, CA, 94086",618166147,"R"
944784,"959 LAKE HARBOUR DR APT 601","RIDGELAND","MS",39157,32.4130368560001,-90.1003826209999,284,"959 LAKE HARBOUR DR APT 601, RIDGELAND, MS, 39157","Match","Exact","959 LAKE HARBOUR DR, RIDGELAND, MS, 39157",152499769,"R"
944785,"959 LAS TABLAS ROAD","TEMPLETON","CA",93465,35.554379983,-120.715649158,285,"959 LAS TABLAS ROAD, TEMPLETON, CA, 93465","Match","Exact","959 LAS TABLAS RD, TEMPLETON, CA, 93465",109769360,"L"
944786,"959 LINCOLN STREET","SALT LAKE CITY","UT",84105,40.7483865930001,-111.863872876,286,"959 LINCOLN STREET, SALT LAKE CITY, UT, 84105","Match","Non_Exact","959 S LINCOLN ST, SALT LAKE CITY, UT, 84105",176080359,"L"
944787,"959 LOMA VERDE AVE","PALO ALTO","CA",94303,37.4341948420001,-122.114765345,287,"959 LOMA VERDE AVE, PALO ALTO, CA, 94303","Match","Exact","959 LOMA VERDE AVE, PALO ALTO, CA, 94303",122951608,"L"
944788,"959 MAIN ST","BROCKTON","MA",2301,42.0664606330001,-71.0165209209999,288,"959 MAIN ST, BROCKTON, MA, 2301","Match","Exact","959 MAIN ST, BROCKTON, MA, 02301",87444303,"R"
944789,"959 MARIETTA ST","ATLANTA","GA",30318,33.777902215,-84.4088655099999,289,"959 MARIETTA ST, ATLANTA, GA, 30318","Match","Exact","959 MARIETTA ST, ATLANTA, GA, 30318",647333633,"R"
944790,"959 MCDANIEL ST","ATLANTA","GA",30310,33.728677518,-84.401624461,290,"959 MCDANIEL ST, ATLANTA, GA, 30310","Match","Non_Exact","959 MCDANIEL ST SW, ATLANTA, GA, 30310",17346032,"R"
944791,"959 MOUNTAIN WILLOW LANE","PARK CITY","UT",84098,NA,NA,291,"959 MOUNTAIN WILLOW LANE, PARK CITY, UT, 84098","No_Match",NA,NA,NA,NA
944792,"959 MYRTLE COURT","MT. PLEASANT","SC",29464,32.789475054,-79.8529229809999,292,"959 MYRTLE COURT, MT. PLEASANT, SC, 29464","Match","Exact","959 MYRTLE CT, MOUNT PLEASANT, SC, 29464",108827871,"R"
944793,"959 N 33RD ST","MILWAUKEE","WI",53208,43.042601006,-87.9552056109999,293,"959 N 33RD ST, MILWAUKEE, WI, 53208","Match","Exact","959 N 33RD ST, MILWAUKEE, WI, 53208",77740001,"L"
944794,"959 N CROFT AVE","LOS ANGELES","CA",90069,34.088078323,-118.374229313,294,"959 N CROFT AVE, LOS ANGELES, CA, 90069","Match","Exact","959 N CROFT AVE, LOS ANGELES, CA, 90069",141598009,"L"
944795,"959 N CROFT AVENUE","LOS ANGELES","CA",90069,34.088078323,-118.374229313,295,"959 N CROFT AVENUE, LOS ANGELES, CA, 90069","Match","Exact","959 N CROFT AVE, LOS ANGELES, CA, 90069",141598009,"L"
944796,"959 N DARIEN STREET","PHILADELPHIA","PA",19123,39.9698989070001,-75.1505573749999,296,"959 N DARIEN STREET, PHILADELPHIA, PA, 19123","Match","Exact","959 N DARIEN ST, PHILADELPHIA, PA, 19123",131422179,"R"
944797,"959 N MONROE AVE","LINDENHURST","NY",11757,40.7069229460001,-73.374206015,297,"959 N MONROE AVE, LINDENHURST, NY, 11757","Match","Exact","959 N MONROE AVE, LINDENHURST, NY, 11757",647007520,"R"
944798,"959 N SUMMIT AVE","PASADENA","CA",91103,34.162585333,-118.147599234,298,"959 N SUMMIT AVE, PASADENA, CA, 91103","Match","Exact","959 N SUMMIT AVE, PASADENA, CA, 91103",141627847,"L"
944799,"959 NE ANNIE MATTOX ST","LAKE CITY","FL",32055,30.19477018,-82.6250114869999,299,"959 NE ANNIE MATTOX ST, LAKE CITY, FL, 32055","Match","Non_Exact","959 ANNIE MATTOX AVE, LAKE CITY, FL, 32055",5161029,"R"
944800,"959 NW MAPLEWOOD CT","GRAIN VALLEY","MO",64029,39.039025112,-94.209439188,300,"959 NW MAPLEWOOD CT, GRAIN VALLEY, MO, 64029","Match","Exact","959 NW MAPLEWOOD CT, GRAIN VALLEY, MO, 64029",628942111,"L"
944801,"959 OLD GURLEY PIKE","NEW HOPE","AL",35760,34.5898284450001,-86.397691472,301,"959 OLD GURLEY PIKE, NEW HOPE, AL, 35760","Match","Exact","959 OLD GURLEY PIKE, NEW HOPE, AL, 35760",58204211,"R"
944802,"959 OLD STAGECOACH ROAD","CAMDEN","SC",29020,34.2794189570001,-80.530608937,302,"959 OLD STAGECOACH ROAD, CAMDEN, SC, 29020","Match","Exact","959 OLD STAGECOACH RD, CAMDEN, SC, 29020",78470846,"R"
944803,"959 OSWEGATCHIE TRAIL RD","STAR LAKE","NY",13690,44.16554024,-75.057729917,303,"959 OSWEGATCHIE TRAIL RD, STAR LAKE, NY, 13690","Match","Non_Exact","959 OSWEGATCHIE TRL RD, STAR LAKE, NY, 13690",155187279,"R"
944804,"959 OTSEGO RD","WEST HEMPSTEAD","NY",11552,40.6776245030001,-73.6587609269999,304,"959 OTSEGO RD, WEST HEMPSTEAD, NY, 11552","Match","Exact","959 OTSEGO RD, W HEMPSTEAD, NY, 11552",147675355,"L"
944805,"959 OWENS ROAD","OXON HILL","MD",20745,38.8247517550001,-76.9938381649999,305,"959 OWENS ROAD, OXON HILL, MD, 20745","Match","Exact","959 OWENS RD, OXON HILL, MD, 20745",76311927,"R"
944806,"959 PARKSIDE STREET","CINCINNATI","OH",45202,39.1105494780001,-84.4958709589999,306,"959 PARKSIDE STREET, CINCINNATI, OH, 45202","Match","Non_Exact","959 PARKSIDE PL, CINCINNATI, OH, 45202",103937056,"R"
944807,"959 PEEL CASTLE LN","AUSTELL","GA",30106,33.857732033,-84.585199013,307,"959 PEEL CASTLE LN, AUSTELL, GA, 30106","Match","Exact","959 PEEL CASTLE LN, AUSTELL, GA, 30106",17222290,"R"
944808,"959 PEMBROOK","CLEVELAND HEIGHTS","OH",44121,41.5341966030001,-81.55223136,308,"959 PEMBROOK, CLEVELAND HEIGHTS, OH, 44121","Match","Non_Exact","959 PEMBROOK RD, CLEVELAND HEIGHTS, OH, 44121",61124151,"L"
944809,"959 PEQUOT AVE","NEW LONDON","CT",6320,41.3133285710001,-72.094848605,309,"959 PEQUOT AVE, NEW LONDON, CT, 6320","Match","Exact","959 PEQUOT AVE, NEW LONDON, CT, 06320",56851671,"R"
944810,"959 PROVIDENCE WAY","HERCULANEUM","TX",63048,NA,NA,310,"959 PROVIDENCE WAY, HERCULANEUM, TX, 63048","No_Match",NA,NA,NA,NA
944811,"959 Q RD","GOFF","KS",66428,39.6942215940001,-95.939243184,311,"959 Q RD, GOFF, KS, 66428","Match","Exact","959 Q RD, GOFF, KS, 66428",10200123,"L"
944812,"959 REDHAWK LANE","GREENSBURG","PA",15601,40.2849916420001,-79.620139735,312,"959 REDHAWK LANE, GREENSBURG, PA, 15601","Match","Exact","959 REDHAWK LN, GREENSBURG, PA, 15601",624589935,"L"
944813,"959 RESER ROAD","WALLA WALLA","WA",99362,46.0422237220001,-118.313136631,313,"959 RESER ROAD, WALLA WALLA, WA, 99362","Match","Exact","959 RESER RD, WALLA WALLA, WA, 99362",651698467,"R"
944814,"959 ROSA AVE","METAIRIE","LA",70005,30.008503025,-90.131543613,314,"959 ROSA AVE, METAIRIE, LA, 70005","Match","Exact","959 ROSA AVE, METAIRIE, LA, 70005",93498669,"R"
944815,"959 SADDLE LN","ROUND LAKE BEACH","IL",60073,42.389913929,-88.059030739,315,"959 SADDLE LN, ROUND LAKE BEACH, IL, 60073","Match","Exact","959 SADDLE LN, ROUND LAKE BEACH, IL, 60073",119690239,"R"
944816,"959 SHADOW CREEK BLVD","BUDA","TX",78610,30.0421973310001,-97.8152567829999,316,"959 SHADOW CREEK BLVD, BUDA, TX, 78610","Match","Exact","959 SHADOW CREEK BLVD, BUDA, TX, 78610",636877048,"L"
944817,"959 SHERWOOD CIRCLE","FOREST PARK","GA",30297,33.5971950160001,-84.363005813,317,"959 SHERWOOD CIRCLE, FOREST PARK, GA, 30297","Match","Exact","959 SHERWOOD CIR, FOREST PARK, GA, 30297",23314960,"R"
944818,"959 SHURLING DRIVE","MACON","GA",31211,NA,NA,318,"959 SHURLING DRIVE, MACON, GA, 31211","No_Match",NA,NA,NA,NA
944819,"959 SILVER CREEK DR","DESOTO","TX",75115,32.597162385,-96.8809205329999,319,"959 SILVER CREEK DR, DESOTO, TX, 75115","Match","Exact","959 SILVER CREEK DR, DESOTO, TX, 75115",627982970,"R"
944820,"959 SOUTH LAKE DRIVE","DUQUOIN","IL",62832,37.9958061290001,-89.231924901,320,"959 SOUTH LAKE DRIVE, DUQUOIN, IL, 62832","Match","Non_Exact","959 S LAKE DR, DU QUOIN, IL, 62832",93110267,"L"
944821,"959 SPRUCE STREET","WINNETKA","IL",60093,42.107092719,-87.7403011379999,321,"959 SPRUCE STREET, WINNETKA, IL, 60093","Match","Exact","959 SPRUCE ST, WINNETKA, IL, 60093",111737803,"R"
944822,"959 STATE ROUTE 28","MILFORD","OH",45150,NA,NA,322,"959 STATE ROUTE 28, MILFORD, OH, 45150","Tie",NA,NA,NA,NA
944823,"959 STATE ST 2A","NEW HAVEN","CT",6511,41.3151588700001,-72.910474264,323,"959 STATE ST 2A, NEW HAVEN, CT, 6511","Match","Exact","959 STATE ST, NEW HAVEN, CT, 06511",3701536,"R"
944824,"959 STEWART DR APT 637","SUNNYVALE","CA",94085,37.383914663,-122.003544187,324,"959 STEWART DR APT 637, SUNNYVALE, CA, 94085","Match","Exact","959 STEWART DR, SUNNYVALE, CA, 94085",648346834,"L"
944825,"959 STEWART DR APT 739","SUNNYVALE","CA",94085,37.383914663,-122.003544187,325,"959 STEWART DR APT 739, SUNNYVALE, CA, 94085","Match","Exact","959 STEWART DR, SUNNYVALE, CA, 94085",648346834,"L"
944826,"959 SYBERTON ROAD","GALLITZIN","PA",16641,NA,NA,326,"959 SYBERTON ROAD, GALLITZIN, PA, 16641","No_Match",NA,NA,NA,NA
944827,"959 TERRA AVENUE","ASHLAND","OR",97520,42.1782702520001,-122.679778992,327,"959 TERRA AVENUE, ASHLAND, OR, 97520","Match","Exact","959 TERRA AVE, ASHLAND, OR, 97520",155523104,"L"
944828,"959 TIA JUANA ST","LAGUNA BEACH","CA",92651,33.5289456100001,-117.754982669,328,"959 TIA JUANA ST, LAGUNA BEACH, CA, 92651","Match","Exact","959 TIA JUANA ST, LAGUNA BEACH, CA, 92651",144069463,"L"
944829,"959 VINCENT COURT","LANSING","MI",48910,42.686922028,-84.566715549,329,"959 VINCENT COURT, LANSING, MI, 48910","Match","Exact","959 VINCENT CT, LANSING, MI, 48910",17502383,"L"
944830,"959 VINE STREET","ST CLAIR","MI",48079,42.8284549300001,-82.49482994,330,"959 VINE STREET, ST CLAIR, MI, 48079","Match","Exact","959 VINE ST, SAINT CLAIR, MI, 48079",110960998,"L"
944831,"959 VISTA VERDE LANE","NIPOMO","CA",93444,35.0267574310001,-120.496765945,331,"959 VISTA VERDE LANE, NIPOMO, CA, 93444","Match","Exact","959 VISTA VERDE LN, NIPOMO, CA, 93444",109855385,"R"
944832,"959 W 530 N","PLEASANT GROVE","UT",84062,40.3684132810001,-111.753745289,332,"959 W 530 N, PLEASANT GROVE, UT, 84062","Match","Exact","959 W 530 N, PLEASANT GROVE, UT, 84062",651129780,"L"
944833,"959 W WEBSTER AVE APT 3B","CHICAGO","IL",60614,41.921743061,-87.6529281649999,333,"959 W WEBSTER AVE APT 3B, CHICAGO, IL, 60614","Match","Non_Exact","959 W WEBSTER AVE, CHICAGO, IL, 60614",111767020,"L"
944834,"959 WALNUT DR","PASO ROBLES","CA",93446,35.6341769110001,-120.663901299,334,"959 WALNUT DR, PASO ROBLES, CA, 93446","Match","Exact","959 WALNUT DR, PASO ROBLES, CA, 93446",645469911,"L"
944835,"959 WATERMARK DRIVE","EVANS","GA",30809,33.5431051830001,-82.1935439219999,335,"959 WATERMARK DRIVE, EVANS, GA, 30809","Match","Exact","959 WATERMARK DR, EVANS, GA, 30809",641150835,"L"
944836,"959 WEALTHY STREET SE","GRAND RAPIDS","MI",49506,42.955568059,-85.64542728,336,"959 WEALTHY STREET SE, GRAND RAPIDS, MI, 49506","Match","Exact","959 WEALTHY ST SE, GRAND RAPIDS, MI, 49506",12461541,"L"
944837,"959 WHISPERING WOODS DRIVE","MACEDONIA","OH",44056,41.28793834,-81.481865528,337,"959 WHISPERING WOODS DRIVE, MACEDONIA, OH, 44056","Match","Exact","959 WHISPERING WOODS DR, MACEDONIA, OH, 44056",61400524,"L"
944838,"959 WHITEFIELD RD","PITTSTON","ME",4345,44.222190977,-69.684723022,338,"959 WHITEFIELD RD, PITTSTON, ME, 4345","Match","Exact","959 WHITEFIELD RD, PITTSTON, ME, 04345",75477438,"L"
944839,"959 WHITFIELD WALK","ZEBULON","GA",30295,33.070373133,-84.3206311819999,339,"959 WHITFIELD WALK, ZEBULON, GA, 30295","Match","Exact","959 WHITFIELD WALK, ZEBULON, GA, 30295",649963615,"R"
944840,"959 WINONA BLVD","ROCHESTER","NY",14617,43.2199432290001,-77.604547867,340,"959 WINONA BLVD, ROCHESTER, NY, 14617","Match","Exact","959 WINONA BLVD, ROCHESTER, NY, 14617",14535847,"L"
944841,"959 WRIGLEY DRIVE","MYRTLE BEACH","SC",29588,33.6748847710001,-78.976312267,341,"959 WRIGLEY DRIVE, MYRTLE BEACH, SC, 29588","Match","Exact","959 WRIGLEY DR, MYRTLE BEACH, SC, 29588",631138058,"L"
944842,"959 WYOMING AVE","EXETER","PA",18643,41.3247285580001,-75.810405353,342,"959 WYOMING AVE, EXETER, PA, 18643","Match","Exact","959 WYOMING AVE, EXETER, PA, 18643",614304904,"L"
944843,"959","BROOKLYN","NY",11225,NA,NA,343,"959, BROOKLYN, NY, 11225","No_Match",NA,NA,NA,NA
944844,"959","ROHNERT PARK","CA",94928,NA,NA,344,"959, ROHNERT PARK, CA, 94928","No_Match",NA,NA,NA,NA
944845,"9590 AVENUE G","NILAND","CA",92257,33.351998243,-115.72743552,345,"9590 AVENUE G, NILAND, CA, 92257","Match","Exact","9590 AVE G, NILAND, CA, 92257",194510268,"R"
944846,"9590 CALLE LA CUESTA","RIVERSIDE","CA",92503,33.904351836,-117.436133167,346,"9590 CALLE LA CUESTA, RIVERSIDE, CA, 92503","Match","Non_Exact","9590 CLL LA CUESTA, RIVERSIDE, CA, 92503",194740479,"L"
944847,"9590 CRAIN HIGHWAY  APT 303","UPPER MARLBORO","MD",20772,38.759442721,-76.808389312,347,"9590 CRAIN HIGHWAY  APT 303, UPPER MARLBORO, MD, 20772","Match","Exact","9590 CRAIN HWY, UPPER MARLBORO, MD, 20772",637842868,"R"
944848,"9590 CRAIN HIGHWAY APT 409","UPPER MARLBORO","MD",NA,38.759442721,-76.808389312,348,"9590 CRAIN HIGHWAY APT 409, UPPER MARLBORO, MD, ","Match","Exact","9590 CRAIN HWY, UPPER MARLBORO, MD, 20772",637842868,"R"
944849,"9590 DORIS CT","BELVIDERE","IL",61008,42.2948055030001,-88.82112462,349,"9590 DORIS CT, BELVIDERE, IL, 61008","Match","Exact","9590 DORIS CT, BELVIDERE, IL, 61008",92159466,"L"
944850,"9590 E IRONWOOD SQUARE DR 210","SCOTTSDALE","AZ",85258,33.5778385080001,-111.876285134,350,"9590 E IRONWOOD SQUARE DR 210, SCOTTSDALE, AZ, 85258","Match","Non_Exact","9590 E IRONWOOD SQUARE DR, SCOTTSDALE, AZ, 85258",243972912,"L"
944851,"9590 LONE RIVER DRIVE","RENO","NV",89506,39.6318021640001,-119.875161155,351,"9590 LONE RIVER DRIVE, RENO, NV, 89506","Match","Non_Exact","9590 LONG RIVER DR, RENO, NV, 89506",107117728,"L"
944852,"9590 MAIN ST","REMSEN","NY",13438,43.325786087,-75.186556342,352,"9590 MAIN ST, REMSEN, NY, 13438","Match","Exact","9590 MAIN ST, REMSEN, NY, 13438",171538324,"R"
944853,"9590 MAIN STREET","REMSEN","NY",13438,43.325786087,-75.186556342,353,"9590 MAIN STREET, REMSEN, NY, 13438","Match","Exact","9590 MAIN ST, REMSEN, NY, 13438",171538324,"R"
944854,"9590 NW 40 ST RD","DORAL","FL",33178,NA,NA,354,"9590 NW 40 ST RD, DORAL, FL, 33178","No_Match",NA,NA,NA,NA
944855,"9590 NW 40TH ST RD","DORAL","FL",33178,NA,NA,355,"9590 NW 40TH ST RD, DORAL, FL, 33178","No_Match",NA,NA,NA,NA
944856,"9590 OLD M 72","WILLIAMSBURG","MI",49690,NA,NA,356,"9590 OLD M 72, WILLIAMSBURG, MI, 49690","No_Match",NA,NA,NA,NA
944857,"9590 POLO CLUB COURT","LITTLETON","CO",80125,39.5135195330001,-105.065617295,357,"9590 POLO CLUB COURT, LITTLETON, CO, 80125","Match","Exact","9590 POLO CLUB CT, LITTLETON, CO, 80125",130840164,"R"
944858,"9590 RD 44","GURLEY","NE",69141,41.308811582,-103.127804087,358,"9590 RD 44, GURLEY, NE, 69141","Match","Exact","9590 RD 44, GURLEY, NE, 69141",135927421,"L"
944859,"9590 ROAD 44","GURLEY","NE",69141,41.308811582,-103.127804087,359,"9590 ROAD 44, GURLEY, NE, 69141","Match","Exact","9590 RD 44, GURLEY, NE, 69141",135927421,"L"
944860,"9590 ROOKWOOD CIRCLE","OOLTEWAH","TN",37363,35.0471849240001,-85.0760055,360,"9590 ROOKWOOD CIRCLE, OOLTEWAH, TN, 37363","Match","Exact","9590 ROOKWOOD CIR, OOLTEWAH, TN, 37363",627197956,"L"
944861,"9590 VICTORIA LANE B106","NAPLES","FL",34109,26.2585657290001,-81.770968083,361,"9590 VICTORIA LANE B106, NAPLES, FL, 34109","Match","Exact","9590 VICTORIA LN, NAPLES, FL, 34109",115160666,"R"
944862,"95905 KAREN WALK","FERNANDINA BEACH","FL",32034,30.583347088,-81.5402472819999,362,"95905 KAREN WALK, FERNANDINA BEACH, FL, 32034","Match","Exact","95905 KAREN WALK, FERNANDINA BCH, FL, 32034",610866139,"L"
944863,"9591 ASH LANE","FREEMONT","WI",54940,44.2405536850001,-88.87612991,363,"9591 ASH LANE, FREEMONT, WI, 54940","Match","Non_Exact","9591 ASH LN, FREMONT, WI, 54940",74495787,"R"
944864,"9591 ASH LANE","FREMONT","WI",54940,44.2405536850001,-88.87612991,364,"9591 ASH LANE, FREMONT, WI, 54940","Match","Exact","9591 ASH LN, FREMONT, WI, 54940",74495787,"R"
944865,"9591 DUKE DRIVE","WESTMINSTER","CA",92683,33.73426849,-117.961597558,365,"9591 DUKE DRIVE, WESTMINSTER, CA, 92683","Match","Exact","9591 DUKE DR, WESTMINSTER, CA, 92683",144037389,"L"
944866,"9591 E 26TH AVE","DENVER","CO",80238,NA,NA,366,"9591 E 26TH AVE, DENVER, CO, 80238","No_Match",NA,NA,NA,NA
944867,"9591 EAST 750 NORTH","SHERIDAN","IN",46069,40.150573792,-86.2874302979999,367,"9591 EAST 750 NORTH, SHERIDAN, IN, 46069","Match","Exact","9591 E 750 N, SHERIDAN, IN, 46069",610991865,"R"
944868,"9591 GRAYFIELD","REDFORD","MI",48239,42.365442704,-83.2679446079999,368,"9591 GRAYFIELD, REDFORD, MI, 48239","Match","Exact","9591 GRAYFIELD, REDFORD, MI, 48239",95431522,"L"
944869,"9591 HEYDEN","DETROIT","MI",48228,42.3653102930001,-83.23854491,369,"9591 HEYDEN, DETROIT, MI, 48228","Match","Non_Exact","9591 HEYDEN ST, DETROIT, MI, 48228",95438916,"L"
944870,"9591 W GAMBIT TRL","PEORIA","AZ",85383,33.7348615180001,-112.266612293,370,"9591 W GAMBIT TRL, PEORIA, AZ, 85383","Match","Exact","9591 GAMBIT TRL, PEORIA, AZ, 85383",647696131,"R"
944871,"9591 WEST GAMBIT TRAIL","PEORIA","AZ",85383,33.7348615180001,-112.266612293,371,"9591 WEST GAMBIT TRAIL, PEORIA, AZ, 85383","Match","Non_Exact","9591 GAMBIT TRL, PEORIA, AZ, 85383",647696131,"R"
944872,"9591 WOODLAND RIDGEDR","TAMPA","FL",33637,NA,NA,372,"9591 WOODLAND RIDGEDR, TAMPA, FL, 33637","No_Match",NA,NA,NA,NA
944873,"9591 YORK ALPHA DR UNIT 6","NORTH ROYALTON","OH",44133,41.3167897970001,-81.7578606289999,373,"9591 YORK ALPHA DR UNIT 6, NORTH ROYALTON, OH, 44133","Match","Exact","9591 YORK ALPHA DR, N ROYALTON, OH, 44133",61132756,"L"
944874,"9592 LILLIAN DRIVE","AMHERST","WI",54406,44.447175428,-89.305743202,374,"9592 LILLIAN DRIVE, AMHERST, WI, 54406","Match","Exact","9592 LILLIAN DR, AMHERST, WI, 54406",126800651,"R"
944875,"9592 N MACIE LOOP","HAYDEN","ID",83835,47.7573798170001,-116.800663341,375,"9592 N MACIE LOOP, HAYDEN, ID, 83835","Match","Exact","9592 N MACIE LOOP, HAYDEN, ID, 83835",192957272,"R"
944876,"9592 RIVERSIDE DR","SAINT LOUIS","MI",48880,43.4311884320001,-84.599608906,376,"9592 RIVERSIDE DR, SAINT LOUIS, MI, 48880","Match","Exact","9592 RIVERSIDE DR, SAINT LOUIS, MI, 48880",80161220,"R"
944877,"9592 STRATHAM COURT","JACKSONVILLE","FL",32244,30.1975652990001,-81.810320632,377,"9592 STRATHAM COURT, JACKSONVILLE, FL, 32244","Match","Exact","9592 STRATHAM CT, JACKSONVILLE, FL, 32244",83962932,"R"
944878,"9593 KENNEDY RD","MUNITH","MI",49259,42.3791167740001,-84.257070357,378,"9593 KENNEDY RD, MUNITH, MI, 49259","Match","Exact","9593 KENNEDY RD, MUNITH, MI, 49259",17632979,"L"
944879,"9593 KENNEDY","MUNITH","MI",49259,42.3791167740001,-84.257070357,379,"9593 KENNEDY, MUNITH, MI, 49259","Match","Non_Exact","9593 KENNEDY RD, MUNITH, MI, 49259",17632979,"L"
944880,"9593 MARTINSVILLE HIGHWAY","DANVILLE","VA",24541,36.6112006880001,-79.565291406,380,"9593 MARTINSVILLE HIGHWAY, DANVILLE, VA, 24541","Match","Exact","9593 MARTINSVILLE HWY, DANVILLE, VA, 24541",56652163,"R"
944881,"9593 S COLTSFOOT DRIVE","PARKER","CO",80134,39.5393136910001,-104.782827803,381,"9593 S COLTSFOOT DRIVE, PARKER, CO, 80134","Match","Exact","9593 S COLTSFOOT DR, PARKER, CO, 80134",130842944,"R"
944882,"9593 W POCATELLO CREEK RD","POCATELLO","ID",83201,42.8925448090001,-112.41094168,382,"9593 W POCATELLO CREEK RD, POCATELLO, ID, 83201","Match","Exact","9593 W POCATELLO CREEK RD, POCATELLO, ID, 83201",204378040,"R"
944883,"9593 WEST DARRYL PARKWAY","BATON ROUGE","LA",70815,30.470568364,-91.078770538,383,"9593 WEST DARRYL PARKWAY, BATON ROUGE, LA, 70815","Match","Exact","9593 W DARRYL PKWY, BATON ROUGE, LA, 70815",92190319,"L"
944884,"9594 COUNTY RD 21-N","WEST UNITY","OH",43570,NA,NA,384,"9594 COUNTY RD 21-N, WEST UNITY, OH, 43570","No_Match",NA,NA,NA,NA
944885,"9594 CRUTCH RANCH ROAD","BORGER","TX",79007,NA,NA,385,"9594 CRUTCH RANCH ROAD, BORGER, TX, 79007","No_Match",NA,NA,NA,NA
944886,"9594 DOLIVER DR","HOUSTON","TX",77063,29.749143282,-95.536455781,386,"9594 DOLIVER DR, HOUSTON, TX, 77063","Match","Exact","9594 DOLIVER DR, HOUSTON, TX, 77063",96296272,"R"
944887,"9594 DOLIVER","HOUSTON","TX",77063,29.749143282,-95.536455781,387,"9594 DOLIVER, HOUSTON, TX, 77063","Match","Non_Exact","9594 DOLIVER DR, HOUSTON, TX, 77063",96296272,"R"
944888,"9594 LONG GROVE ROAD","RINEYVILLE","KY",40162,37.7348021920001,-86.028377666,388,"9594 LONG GROVE ROAD, RINEYVILLE, KY, 40162","Match","Exact","9594 LONG GROVE RD, RINEYVILLE, KY, 40162",34626576,"R"
944889,"9594 S 350 E","LYNN","IN",47355,40.0255568470001,-84.911346567,389,"9594 S 350 E, LYNN, IN, 47355","Match","Exact","9594 S 350 E, LYNN, IN, 47355",647633072,"L"
944890,"9594 TARA BLVD","JONESBORO","GA",30236,33.5175168540001,-84.3633656489999,390,"9594 TARA BLVD, JONESBORO, GA, 30236","Match","Exact","9594 TARA BLVD, JONESBORO, GA, 30236",23338595,"L"
944891,"9594 WEST PALMETTO AVENUE","WAUWATOSA","WI",53222,43.0947475140001,-88.0325535869999,391,"9594 WEST PALMETTO AVENUE, WAUWATOSA, WI, 53222","Match","Exact","9594 W PALMETTO AVE, WAUWATOSA, WI, 53222",77727760,"R"
944892,"95944 WIKAO ST APT D-101","MILILANI","HI",96789,NA,NA,392,"95944 WIKAO ST APT D-101, MILILANI, HI, 96789","No_Match",NA,NA,NA,NA
944893,"9595 105TH AVE","MILACA","MN",56353,45.6859929450001,-93.626623937,393,"9595 105TH AVE, MILACA, MN, 56353","Match","Exact","9595 105TH AVE, MILACA, MN, 56353",634415179,"L"
944894,"9595 AUDREY END NW 451","CONCORD","NC",28027,NA,NA,394,"9595 AUDREY END NW 451, CONCORD, NC, 28027","No_Match",NA,NA,NA,NA
944895,"9595 BASILWOOD DR","MANASSAS","VA",20110,38.730168593,-77.4846871669999,395,"9595 BASILWOOD DR, MANASSAS, VA, 20110","Match","Exact","9595 BASILWOOD DR, MANASSAS, VA, 20110",76531766,"L"
944896,"9595 BRIGHT ANGEL WAY","LAS VEGAS","NV",89149,36.27182722,-115.305857546,396,"9595 BRIGHT ANGEL WAY, LAS VEGAS, NV, 89149","Match","Exact","9595 BRIGHT ANGEL WAY, LAS VEGAS, NV, 89149",201906267,"R"
944897,"9595 COLLINS AV APT 305","SURFSIDE","FL",33154,25.8868707120001,-80.122711672,397,"9595 COLLINS AV APT 305, SURFSIDE, FL, 33154","Match","Exact","9595 COLLINS AVE, SURFSIDE, FL, 33154",116038353,"R"
944898,"9595 COLLINS AVENUE APT 505","SURFSIDE","FL",33154,25.8868707120001,-80.122711672,398,"9595 COLLINS AVENUE APT 505, SURFSIDE, FL, 33154","Match","Exact","9595 COLLINS AVE, SURFSIDE, FL, 33154",116038353,"R"
944899,"9595 FONTAINEBLEAU BLVD APT 1907","MIAMI","FL",33127,25.7733504230001,-80.348388281,399,"9595 FONTAINEBLEAU BLVD APT 1907, MIAMI, FL, 33127","Match","Non_Exact","9595 FONTAINEBLEAU BLVD, MIAMI, FL, 33172",116091482,"R"
944900,"9595 NELSON RD STE 203","LONGMONT","CO",80501,40.152409242,-105.128584093,400,"9595 NELSON RD STE 203, LONGMONT, CO, 80501","Match","Exact","9595 NELSON RD, LONGMONT, CO, 80501",640384712,"L"
944901,"9595 NICKLAUS LN","LAKEWOOD","IL",60014,42.2084377630001,-88.3832118179999,401,"9595 NICKLAUS LN, LAKEWOOD, IL, 60014","Match","Non_Exact","9595 NICKLAUS LN, VILLAGE OF LAKEWOOD, IL, 60014",119857790,"R"
944902,"9595 SETINA PLACE","SACRAMENTO","CA",95827,38.540990466,-121.339674358,402,"9595 SETINA PLACE, SACRAMENTO, CA, 95827","Match","Exact","9595 SETINA PL, SACRAMENTO, CA, 95827",615447713,"L"
944903,"9595 SIX PINES BLVD - STE 8210","THE WOODLANDS","TX",77380,NA,NA,403,"9595 SIX PINES BLVD - STE 8210, THE WOODLANDS, TX, 77380","No_Match",NA,NA,NA,NA
944904,"9595 SIX PINES DRIVE SUITE 8210","THE WOODLANDS","TX",77380,NA,NA,404,"9595 SIX PINES DRIVE SUITE 8210, THE WOODLANDS, TX, 77380","No_Match",NA,NA,NA,NA
944905,"9595 SIX PINES SUITE 8210","THE WOODLANDS","TX",77382,NA,NA,405,"9595 SIX PINES SUITE 8210, THE WOODLANDS, TX, 77382","No_Match",NA,NA,NA,NA
944906,"9595 SR 245","DE GRAFF","OH",43318,40.2329667170001,-83.939541661,406,"9595 SR 245, DE GRAFF, OH, 43318","Match","Non_Exact","9595 STATE RTE 245, DE GRAFF, OH, 43318",134657309,"R"
944907,"9595 SWEDE CREEK ROAD","PALO CEDRO","CA",96073,40.5674168510001,-122.219975025,407,"9595 SWEDE CREEK ROAD, PALO CEDRO, CA, 96073","Match","Exact","9595 SWEDE CREEK RD, PALO CEDRO, CA, 96073",651460056,"R"
944908,"9595 WELLINGTON CIR","WINDSOR","CA",95492,38.550690736,-122.829079853,408,"9595 WELLINGTON CIR, WINDSOR, CA, 95492","Match","Exact","9595 WELLINGTON CIR, WINDSOR, CA, 95492",67511586,"R"
944909,"9595 WILSHIRE BLVD STE 900","BEVERLY HILLS","CA",90212,34.067082213,-118.402659138,409,"9595 WILSHIRE BLVD STE 900, BEVERLY HILLS, CA, 90212","Match","Exact","9595 WILSHIRE BLVD, BEVERLY HILLS, CA, 90212",141571610,"R"
944910,"9595 WILSHIRE BLVD STE","BEVERLY HILLS","CA",90212,34.067082213,-118.402659138,410,"9595 WILSHIRE BLVD STE, BEVERLY HILLS, CA, 90212","Match","Exact","9595 WILSHIRE BLVD, BEVERLY HILLS, CA, 90212",141571610,"R"
944911,"9595 WILSHIRE BLVD SUITE 502","BEVERLY HILLS","CA",90212,34.067082213,-118.402659138,411,"9595 WILSHIRE BLVD SUITE 502, BEVERLY HILLS, CA, 90212","Match","Exact","9595 WILSHIRE BLVD, BEVERLY HILLS, CA, 90212",141571610,"R"
944912,"9595 WILSHIRE BOULEVARD SUITE 900","BEVERLY HILLS","CA",90212,34.067082213,-118.402659138,412,"9595 WILSHIRE BOULEVARD SUITE 900, BEVERLY HILLS, CA, 90212","Match","Exact","9595 WILSHIRE BLVD, BEVERLY HILLS, CA, 90212",141571610,"R"
944913,"9595 WILSHIRE","LOS ANGELES","CA",90048,NA,NA,413,"9595 WILSHIRE, LOS ANGELES, CA, 90048","No_Match",NA,NA,NA,NA
944914,"9595 WINKLER DR","HOUSTON","TX",77017,29.6701257330001,-95.2479860289999,414,"9595 WINKLER DR, HOUSTON, TX, 77017","Match","Exact","9595 WINKLER DR, HOUSTON, TX, 77017",96606333,"L"
944915,"9596 EGRETS LANDING DRIVE","JACKSONVILLE","FL",32257,30.2042964070001,-81.588472355,415,"9596 EGRETS LANDING DRIVE, JACKSONVILLE, FL, 32257","Match","Exact","9596 EGRETS LANDING DR, JACKSONVILLE, FL, 32257",650053515,"R"
944916,"9596 PINO DRIVE","LAKESIDE","CA",92040,32.8544404360001,-116.90794329,416,"9596 PINO DRIVE, LAKESIDE, CA, 92040","Match","Exact","9596 PINO DR, LAKESIDE, CA, 92040",195667877,"L"
944917,"9597 GREENWAY DRIVE","TWINSBURG","OH",44087,41.328600948,-81.4749485259999,417,"9597 GREENWAY DRIVE, TWINSBURG, OH, 44087","Match","Exact","9597 GREENWAY DR, TWINSBURG, OH, 44087",61363580,"R"
944918,"9597 IMLAY CITY RD","KENOCKEE","MI",48006,43.0314377070001,-82.717820665,418,"9597 IMLAY CITY RD, KENOCKEE, MI, 48006","Match","Exact","9597 IMLAY CITY RD, KENOCKEE, MI, 48006",110987397,"R"
944919,"9597 JONES RD 974","HOUSTON","TX",77065,29.9103095610001,-95.584568498,419,"9597 JONES RD 974, HOUSTON, TX, 77065","Match","Exact","9597 JONES RD, HOUSTON, TX, 77065",96006239,"L"
944920,"9597 JONES RD PO BOX 319","HOUSTON","TX",77065,29.9103095610001,-95.584568498,420,"9597 JONES RD PO BOX 319, HOUSTON, TX, 77065","Match","Exact","9597 JONES RD, HOUSTON, TX, 77065",96006239,"L"
944921,"9597 JONES ROAD 161","HOUSTON","TX",77065,29.9103095610001,-95.584568498,421,"9597 JONES ROAD 161, HOUSTON, TX, 77065","Match","Exact","9597 JONES RD, HOUSTON, TX, 77065",96006239,"L"
944922,"9597 LEES MILL RD","WARRENTON","VA",20186,38.637972131,-77.8123291969999,422,"9597 LEES MILL RD, WARRENTON, VA, 20186","Match","Exact","9597 LEES MILL RD, WARRENTON, VA, 20186",146305284,"R"
944923,"9597 N 50TH ST W","PORTER","OK",74454,NA,NA,423,"9597 N 50TH ST W, PORTER, OK, 74454","No_Match",NA,NA,NA,NA
944924,"9597 VELENCIA AVE","CONCORD","NC",28027,NA,NA,424,"9597 VELENCIA AVE, CONCORD, NC, 28027","No_Match",NA,NA,NA,NA
944925,"9597ROSEBANK MT OLIVE RD","LEXINTON","MS",39095,NA,NA,425,"9597ROSEBANK MT OLIVE RD, LEXINTON, MS, 39095","No_Match",NA,NA,NA,NA
944926,"9598 VINES ROAD","BACONTON","GA",31716,31.4098087630001,-84.103713618,426,"9598 VINES ROAD, BACONTON, GA, 31716","Match","Exact","9598 VINES RD, BACONTON, GA, 31716",84156314,"R"
944927,"9599 ADELTA BLVD APT 1207","DALLAS","TX",75243,NA,NA,427,"9599 ADELTA BLVD APT 1207, DALLAS, TX, 75243","No_Match",NA,NA,NA,NA
944928,"9599 APACHE AVE","FREMONT","WI",54940,44.1991161280001,-88.88220734,428,"9599 APACHE AVE, FREMONT, WI, 54940","Match","Exact","9599 APACHE AVE, FREMONT, WI, 54940",74496652,"L"
944929,"9599 BELLMORE LANE","HIGHLANDS RANCH","CO",80126,39.541659963,-104.95665807,429,"9599 BELLMORE LANE, HIGHLANDS RANCH, CO, 80126","Match","Non_Exact","9599 S BELLMORE LN, HIGHLANDS RANCH, CO, 80126",130818211,"R"
944930,"9599 CLOVERCROFT ROAD","FRANKLIN","TN",37067,35.9322660780001,-86.714202515,430,"9599 CLOVERCROFT ROAD, FRANKLIN, TN, 37067","Match","Exact","9599 CLOVERCROFT RD, FRANKLIN, TN, 37067",636649855,"R"
944931,"9599 GATOR DRIVE UNIT 7","SEBASTIAN","FL",32958,NA,NA,431,"9599 GATOR DRIVE UNIT 7, SEBASTIAN, FL, 32958","No_Match",NA,NA,NA,NA
944932,"9599 GATOR DRIVE UNIT 7","SEBATIAN","FL",32958,NA,NA,432,"9599 GATOR DRIVE UNIT 7, SEBATIAN, FL, 32958","No_Match",NA,NA,NA,NA
944933,"9599 JOHN WERNER DR","CHEBOYGAN","MI",49721,45.597636363,-84.463308476,433,"9599 JOHN WERNER DR, CHEBOYGAN, MI, 49721","Match","Exact","9599 JOHN WERNER DR, CHEBOYGAN, MI, 49721",134526881,"L"
944934,"9599 JUNIPER WAY","ARVADA","CO",80003,39.8695168890001,-105.167932576,434,"9599 JUNIPER WAY, ARVADA, CO, 80003","Match","Non_Exact","9599 JUNIPER WAY, ARVADA, CO, 80007",641517325,"L"
944935,"9599 LAUDER","DETROIT","MI",48227,42.3662412080001,-83.1897026789999,435,"9599 LAUDER, DETROIT, MI, 48227","Match","Non_Exact","9599 LAUDER ST, DETROIT, MI, 48227",95441652,"L"
944936,"9599 LEDBURY CT NW","CONCORD","NC",28027,35.380942927,-80.732996333,436,"9599 LEDBURY CT NW, CONCORD, NC, 28027","Match","Exact","9599 LEDBURY CT NW, CONCORD, NC, 28027",618562858,"R"
944937,"9599 LENORE","REDFORD","MI",48239,42.3649180370001,-83.278899017,437,"9599 LENORE, REDFORD, MI, 48239","Match","Exact","9599 LENORE, REDFORD, MI, 48239",95430835,"L"
944938,"9599 N 300 W","DECATUR","IN",46733,40.8835286250001,-84.9966748909999,438,"9599 N 300 W, DECATUR, IN, 46733","Match","Exact","9599 N 300 W, DECATUR, IN, 46733",6483169,"R"
944939,"9599 PIEDMONT","DETROIT","MI",48228,42.366035004,-83.228818683,439,"9599 PIEDMONT, DETROIT, MI, 48228","Match","Non_Exact","9599 PIEDMONT ST, DETROIT, MI, 48228",95439154,"L"
944940,"9599 SUMMERTON DR","FISHERS","IN",46037,39.928177152,-85.997397279,440,"9599 SUMMERTON DR, FISHERS, IN, 46037","Match","Exact","9599 SUMMERTON DR, FISHERS, IN, 46037",642781892,"L"
944941,"9599 W CHARLESTON BLVD","LAS VEGAS","NV",89117,36.1588540440001,-115.305906222,441,"9599 W CHARLESTON BLVD, LAS VEGAS, NV, 89117","Match","Exact","9599 W CHARLESTON BLVD, LAS VEGAS, NV, 89117",635955454,"R"
944942,"95A ELMWOOD TERRACE","ELMWOOD PARK","NJ",7407,40.9168607920001,-74.126648078,442,"95A ELMWOOD TERRACE, ELMWOOD PARK, NJ, 7407","Match","Exact","95 ELMWOOD TER, ELMWOOD PARK, NJ, 07407",64406044,"L"
944943,"95AA VANDERBILT AVE","BROOKLYN","NY",11205,40.6947205490001,-73.97013844,443,"95AA VANDERBILT AVE, BROOKLYN, NY, 11205","Match","Exact","95 VANDERBILT AVE, BROOKLYN, NY, 11205",59100608,"L"
944944,"95B TARALLI TERRACE","FRAMINGHAM","MA",1702,NA,NA,444,"95B TARALLI TERRACE, FRAMINGHAM, MA, 1702","Tie",NA,NA,NA,NA
944945,"95E MIDDLEBRIDGE RD","NARRAGANSETT","RI",2882,41.4578934830001,-71.450583126,445,"95E MIDDLEBRIDGE RD, NARRAGANSETT, RI, 2882","Match","Exact","95 MIDDLEBRIDGE RD, NARRAGANSETT, RI, 02882",58906535,"R"
944946,"95N OLD YORK ROAD","NEW HOPE","PA",18938,40.362187781,-74.964671513,446,"95N OLD YORK ROAD, NEW HOPE, PA, 18938","Match","Exact","95 OLD YORK RD, NEW HOPE, PA, 18938",134718338,"R"
944947,"96  VINE ST NW","ATLANTA","GA",30314,33.757430175,-84.407828264,447,"96  VINE ST NW, ATLANTA, GA, 30314","Match","Exact","96 VINE ST NW, ATLANTA, GA, 30314",17342899,"L"
944948,"96 5TH AVENUE APT 4J","NEW YORK","NY",10011,40.7365700080001,-73.9932148889999,448,"96 5TH AVENUE APT 4J, NEW YORK, NY, 10011","Match","Exact","96 5TH AVE, NEW YORK, NY, 10011",59653525,"L"
944949,"96 5TH AVENUE","NEW YORK","NY",10011,40.7365700080001,-73.9932148889999,449,"96 5TH AVENUE, NEW YORK, NY, 10011","Match","Exact","96 5TH AVE, NEW YORK, NY, 10011",59653525,"L"
944950,"96 A044 COUNTY RD","GUADALUPITA","NM",87722,NA,NA,450,"96 A044 COUNTY RD, GUADALUPITA, NM, 87722","No_Match",NA,NA,NA,NA
944951,"96 ABIGAIL ROAD","NORWICH","VT",5055,43.7254683080001,-72.333291956,451,"96 ABIGAIL ROAD, NORWICH, VT, 5055","Match","Exact","96 ABIGAIL RD, NORWICH, VT, 05055",637675956,"R"
944952,"96 AHULUA ST","KULA","HI",96790,20.732912995,-156.357834011,452,"96 AHULUA ST, KULA, HI, 96790","Match","Exact","96 AHULUA ST, KULA, HI, 96790",85102695,"R"
944953,"96 ALLEN RD  RT 314","GRAND ISLE","VT",5458,44.700593419,-73.333087835,453,"96 ALLEN RD  RT 314, GRAND ISLE, VT, 5458","Match","Exact","96 ALLEN RD, GRAND ISLE, VT, 05458",136612755,"R"
944954,"96 ALTEA ROAD","WOODLAND","GA",30293,NA,NA,454,"96 ALTEA ROAD, WOODLAND, GA, 30293","No_Match",NA,NA,NA,NA
944955,"96 APPALOSSA LN","CODY","WY",82414,44.5746927110001,-109.019061196,455,"96 APPALOSSA LN, CODY, WY, 82414","Match","Non_Exact","96 APPALOOSA LN, CODY, WY, 82414",612522012,"R"
944956,"96 ARMSTRONG ST","WEST SPRINGFIELD","MA",1089,42.1083321930001,-72.625986226,456,"96 ARMSTRONG ST, WEST SPRINGFIELD, MA, 1089","Match","Exact","96 ARMSTRONG ST, W SPRINGFIELD, MA, 01089",4062067,"R"
944957,"96 ASBURY AVENUE","FREEHOLD","NJ",7728,40.2530275230001,-74.228609045,457,"96 ASBURY AVENUE, FREEHOLD, NJ, 7728","Match","Exact","96 ASBURY AVE, FREEHOLD, NJ, 07728",640001366,"L"
944958,"96 BARBARA STREET","PROVIDENCE","RI",2909,41.8210636900001,-71.462402915,458,"96 BARBARA STREET, PROVIDENCE, RI, 2909","Match","Exact","96 BARBARA ST, PROVIDENCE, RI, 02909",47458901,"L"
944959,"96 BAXTER STREET","DENNISPORT","MA",2639,41.6723387270001,-70.14684733,459,"96 BAXTER STREET, DENNISPORT, MA, 2639","Match","Exact","96 BAXTER ST, DENNISPORT, MA, 02639",635803436,"R"
944960,"96 BAY 25TH STREET","BROOKLYN","NY",11214,40.602151043,-73.9996069439999,460,"96 BAY 25TH STREET, BROOKLYN, NY, 11214","Match","Exact","96 BAY 25TH ST, BROOKLYN, NY, 11214",59088272,"R"
944961,"96 BEAR CREEK ROAD","JONESBURG","MO",63351,38.8627022270001,-91.37848809,461,"96 BEAR CREEK ROAD, JONESBURG, MO, 63351","Match","Exact","96 BEAR CREEK RD, JONESBURG, MO, 63351",40297993,"R"
944962,"96 BEARBERRY LANE","KETCHIKAN","AK",99901,55.4532239310001,-131.823890702,462,"96 BEARBERRY LANE, KETCHIKAN, AK, 99901","Match","Exact","96 BEARBERRY LN, KETCHIKAN, AK, 99901",207048385,"L"
944963,"96 BEAUSOLEIL","WOONSOCKET","RI",2895,41.987604966,-71.479436761,463,"96 BEAUSOLEIL, WOONSOCKET, RI, 2895","Match","Non_Exact","96 BEAUSOLEIL AVE, WOONSOCKET, RI, 02895",631991947,"L"
944964,"96 BELMONT ST APT 2","SOMERVILLE","MA",2143,42.388740555,-71.108091159,464,"96 BELMONT ST APT 2, SOMERVILLE, MA, 2143","Match","Exact","96 BELMONT ST, SOMERVILLE, MA, 02143",86868513,"L"
944965,"96 BELNEL RD","HYDE PARK","MA",2136,42.260485417,-71.103769313,465,"96 BELNEL RD, HYDE PARK, MA, 2136","Match","Exact","96 BELNEL RD, HYDE PARK, MA, 02136",85705459,"L"
944966,"96 BLACKWOOD DRIVE","PACHECO","CA",94553,37.982831436,-122.069532214,466,"96 BLACKWOOD DRIVE, PACHECO, CA, 94553","Match","Exact","96 BLACKWOOD DR, PACHECO, CA, 94553",192047760,"R"
944967,"96 BLUEBIRD LANE","EAST TAUNTON","MA",2718,NA,NA,467,"96 BLUEBIRD LANE, EAST TAUNTON, MA, 2718","No_Match",NA,NA,NA,NA
944968,"96 BOOKER ST","WELLS","TX",75976,31.4929330420001,-94.947152896,468,"96 BOOKER ST, WELLS, TX, 75976","Match","Exact","96 BOOKER ST, WELLS, TX, 75976",72314358,"L"
944969,"96 BREAKWATER ROAD","BREWSTER","MA",2631,41.7651021670001,-70.0825004709999,469,"96 BREAKWATER ROAD, BREWSTER, MA, 2631","Match","Exact","96 BREAKWATER RD, BREWSTER, MA, 02631",121624912,"R"
944970,"96 BRETT HILL RD","SOUTH PARIS","ME",4281,44.224522483,-70.491398111,470,"96 BRETT HILL RD, SOUTH PARIS, ME, 4281","Match","Exact","96 BRETT HILL RD, SOUTH PARIS, ME, 04281",625425745,"L"
944971,"96 BROAD STREET","CHARLESTON","SC",29401,32.776328134,-79.932418991,471,"96 BROAD STREET, CHARLESTON, SC, 29401","Match","Exact","96 BROAD ST, CHARLESTON, SC, 29401",108807853,"R"
944972,"96 BROOKLYN ROAD","STANHOPE","NJ",7874,40.9122945510001,-74.7002084599999,472,"96 BROOKLYN ROAD, STANHOPE, NJ, 7874","Match","Exact","96 BROOKLYN RD, STANHOPE, NJ, 07874",98023765,"R"
944973,"96 BROOKSIDE PLACE","NEW ROCHELLE","NY",10801,40.9247959200001,-73.7843288029999,473,"96 BROOKSIDE PLACE, NEW ROCHELLE, NY, 10801","Match","Exact","96 BROOKSIDE PL, NEW ROCHELLE, NY, 10801",640546362,"L"
944974,"96 BUCKEYE BRANCH DRIVE","CLYDE","NC",28721,35.6550022810001,-82.88922308,474,"96 BUCKEYE BRANCH DRIVE, CLYDE, NC, 28721","Match","Exact","96 BUCKEYE BRANCH DR, CLYDE, NC, 28721",630167860,"R"
944975,"96 BUNKER HILL ROAD","LANCASTER","NH",3584,44.4898075460001,-71.561593632,475,"96 BUNKER HILL ROAD, LANCASTER, NH, 3584","Match","Non_Exact","96 BUNKER HILL ST, LANCASTER, NH, 03584",167896056,"R"
944976,"96 BURLINGAME RD","SMITHFIELD","RI",2917,41.9120500830001,-71.564103471,476,"96 BURLINGAME RD, SMITHFIELD, RI, 2917","Match","Exact","96 BURLINGAME RD, SMITHFIELD, RI, 02917",47506564,"R"
944977,"96 BURNING TREE LANE","READING","PA",19607,40.279311545,-75.912176648,477,"96 BURNING TREE LANE, READING, PA, 19607","Match","Exact","96 BURNING TREE LN, READING, PA, 19607",80399678,"R"
944978,"96 CALCUTTA CA","INDIATLANTC","FL",32903,28.136359101,-80.5856669839999,478,"96 CALCUTTA CA, INDIATLANTC, FL, 32903","Match","Non_Exact","96 CALCUTTA CT, INDIALANTIC, FL, 32903",93958227,"L"
944979,"96 CALLE URANO URB ATLANTIC VIEW","CAROLINA","PR",979,18.447647655,-66.036867117,479,"96 CALLE URANO URB ATLANTIC VIEW, CAROLINA, PR, 979","Match","Non_Exact","96 CLL URANO, CAROLINA, PR, 00979",206234572,"L"
944980,"96 CAROL PLACE","WAYNE","NJ",7470,40.9351620200001,-74.2268869219999,480,"96 CAROL PLACE, WAYNE, NJ, 7470","Match","Exact","96 CAROL PL, WAYNE, NJ, 07470",65269756,"L"
944981,"96 CHESSBOROUGH ST","WEST ROXBURY","MA",2132,42.2829884650001,-71.168452838,481,"96 CHESSBOROUGH ST, WEST ROXBURY, MA, 2132","Match","Non_Exact","96 CHESBROUGH RD, WEST ROXBURY, MA, 02132",85694556,"L"
944982,"96 CHESTNUT HILL ROAD","EAST HAMPTON","CT",6424,41.551921491,-72.522681619,482,"96 CHESTNUT HILL ROAD, EAST HAMPTON, CT, 6424","Match","Exact","96 CHESTNUT HILL RD, EAST HAMPTON, CT, 06424",113885514,"R"
944983,"96 CHESTNUT STREET","MARS HILL","NC",28754,35.828601629,-82.5466284239999,483,"96 CHESTNUT STREET, MARS HILL, NC, 28754","Match","Exact","96 CHESTNUT ST, MARS HILL, NC, 28754",40933205,"R"
944984,"96 CHILDERBURG FAYETTE HWY","CHILDERSBURG","AL",35044,33.2767388400001,-86.36078617,484,"96 CHILDERBURG FAYETTE HWY, CHILDERSBURG, AL, 35044","Match","Non_Exact","96 CHILDERSBURG FAYETTE HWY, CHILDERSBURG, AL, 35044",66920489,"L"
944985,"96 CHURCH ST","WEST ROXBURY","MA",2132,42.2909832220001,-71.14809766,485,"96 CHURCH ST, WEST ROXBURY, MA, 2132","Match","Exact","96 CHURCH ST, WEST ROXBURY, MA, 02132",85702846,"L"
944986,"96 CHURCH STREET","LACONIA","NH",3246,43.5308365070001,-71.466848258,486,"96 CHURCH STREET, LACONIA, NH, 3246","Match","Exact","96 CHURCH ST, LACONIA, NH, 03246",145479465,"L"
944987,"96 CHURCH STREET","WALTHAM","MA",2452,42.3796406490001,-71.232944644,487,"96 CHURCH STREET, WALTHAM, MA, 2452","Match","Exact","96 CHURCH ST, WALTHAM, MA, 02452",86890428,"L"
944988,"96 CLARKSON AVE","BROOKLYN","NY",11226,40.6550247800001,-73.9566287869999,488,"96 CLARKSON AVE, BROOKLYN, NY, 11226","Match","Exact","96 CLARKSON AVE, BROOKLYN, NY, 11226",59079524,"R"
944989,"96 CLEARMEADOW DR","EAST MEADOW","NY",11554,40.728024464,-73.550908513,489,"96 CLEARMEADOW DR, EAST MEADOW, NY, 11554","Match","Exact","96 CLEARMEADOW DR, EAST MEADOW, NY, 11554",147632283,"R"
944990,"96 CODY CREEK PLACE","MOUNTAIN HOME","AR",72653,36.2755832890001,-92.390557985,490,"96 CODY CREEK PLACE, MOUNTAIN HOME, AR, 72653","Match","Exact","96 CODY CREEK PL, MOUNTAIN HOME, AR, 72653",610890694,"L"
944991,"96 COLONIAL DRIVE","WEBB CITY","MO",64870,NA,NA,491,"96 COLONIAL DRIVE, WEBB CITY, MO, 64870","Tie",NA,NA,NA,NA
944992,"96 COMMONWEALTH AVENUE","WEST MIFFLIN","PA",15122,NA,NA,492,"96 COMMONWEALTH AVENUE, WEST MIFFLIN, PA, 15122","No_Match",NA,NA,NA,NA
944993,"96 CONCORD METTING ROAD","GLEN MILLS","PA",19342,39.8819145890001,-75.499212593,493,"96 CONCORD METTING ROAD, GLEN MILLS, PA, 19342","Match","Non_Exact","96 CONCORD MEETING RD, GLEN MILLS, PA, 19342",134869057,"L"
944994,"96 COPPER LANE","REEDSVILLE","PA",17084,40.671767258,-77.617865248,494,"96 COPPER LANE, REEDSVILLE, PA, 17084","Match","Exact","96 COPPER LN, REEDSVILLE, PA, 17084",624244965,"R"
944995,"96 CORNFIELD ROAD","MIDDLETOWN","NY",10940,41.5050471380001,-74.4790111519999,495,"96 CORNFIELD ROAD, MIDDLETOWN, NY, 10940","Match","Exact","96 CORNFIELD RD, MIDDLETOWN, NY, 10940",128990792,"L"
944996,"96 COTTAGE ST APT 3A","LITTLETON","NH",3561,44.303352682,-71.7695666769999,496,"96 COTTAGE ST APT 3A, LITTLETON, NH, 3561","Match","Exact","96 COTTAGE ST, LITTLETON, NH, 03561",145671935,"L"
944997,"96 COUNCIL AVE","CLAWSON","MI",48017,42.5470442870001,-83.148473998,497,"96 COUNCIL AVE, CLAWSON, MI, 48017","Match","Exact","96 COUNCIL AVE, CLAWSON, MI, 48017",69743641,"R"
944998,"96 COUNTY ROAD 104","OXFORD","MS",38655,34.4203939180001,-89.5332295599999,498,"96 COUNTY ROAD 104, OXFORD, MS, 38655","Match","Exact","96 CO RD 104, OXFORD, MS, 38655",618207682,"R"
944999,"96 COUNTY ROAD 4426","MOUNT PLEASANT","TX",75455,33.1202966640001,-94.929441388,499,"96 COUNTY ROAD 4426, MOUNT PLEASANT, TX, 75455","Match","Exact","96 CO RD 4426, MOUNT PLEASANT, TX, 75455",633787138,"R"
945000,"96 CRAM ST","BRADLEY","ME",4411,44.9160199610001,-68.62030082,500,"96 CRAM ST, BRADLEY, ME, 4411","Match","Exact","96 CRAM ST, BRADLEY, ME, 04411",123640795,"L"
