"ID","Address","City","State","Zip","lat","long","id","input_address","match_indicator","match_type","matched_address","tiger_line_id","tiger_side"
995501,"PO BOX 74","SMITHWICK","SD",57782,NA,NA,1,"PO BOX 74, SMITHWICK, SD, 57782","No_Match",NA,NA,NA,NA
995502,"PO BOX 74","STOWE","VT",5672,NA,NA,2,"PO BOX 74, STOWE, VT, 5672","No_Match",NA,NA,NA,NA
995503,"PO BOX 74","TAHOLAH","WA",98587,NA,NA,3,"PO BOX 74, TAHOLAH, WA, 98587","No_Match",NA,NA,NA,NA
995504,"PO BOX 74","VERMILION","OH",44089,NA,NA,4,"PO BOX 74, VERMILION, OH, 44089","No_Match",NA,NA,NA,NA
995505,"PO BOX 74","VINTON","VA",24179,NA,NA,5,"PO BOX 74, VINTON, VA, 24179","No_Match",NA,NA,NA,NA
995506,"PO BOX 74","W DUMMERSTON","VT",5357,NA,NA,6,"PO BOX 74, W DUMMERSTON, VT, 5357","No_Match",NA,NA,NA,NA
995507,"PO BOX 74","WELLS","NY",12190,NA,NA,7,"PO BOX 74, WELLS, NY, 12190","No_Match",NA,NA,NA,NA
995508,"PO BOX 74","WESTDALE","NY",13483,NA,NA,8,"PO BOX 74, WESTDALE, NY, 13483","No_Match",NA,NA,NA,NA
995509,"PO BOX 74","WINONA","MN",55987,NA,NA,9,"PO BOX 74, WINONA, MN, 55987","No_Match",NA,NA,NA,NA
995510,"PO BOX 74","WOLVERINE","MI",49799,NA,NA,10,"PO BOX 74, WOLVERINE, MI, 49799","No_Match",NA,NA,NA,NA
995511,"PO BOX 740","ISLIP TERRACE","NY",11752,NA,NA,11,"PO BOX 740, ISLIP TERRACE, NY, 11752","No_Match",NA,NA,NA,NA
995512,"PO BOX 740","UVALDE","TX",78802,NA,NA,12,"PO BOX 740, UVALDE, TX, 78802","No_Match",NA,NA,NA,NA
995513,"PO BOX 740083","BOYNTON BEACH","FL",33474,NA,NA,13,"PO BOX 740083, BOYNTON BEACH, FL, 33474","No_Match",NA,NA,NA,NA
995514,"PO BOX 740133","SAN DIEGO","CA",92174,NA,NA,14,"PO BOX 740133, SAN DIEGO, CA, 92174","No_Match",NA,NA,NA,NA
995515,"PO BOX 740176","HOUSTON","TX",77274,NA,NA,15,"PO BOX 740176, HOUSTON, TX, 77274","No_Match",NA,NA,NA,NA
995516,"PO BOX 740184","DALLAS","TX",75374,NA,NA,16,"PO BOX 740184, DALLAS, TX, 75374","No_Match",NA,NA,NA,NA
995517,"PO BOX 74021","NEWNAN","GA",30263,NA,NA,17,"PO BOX 74021, NEWNAN, GA, 30263","No_Match",NA,NA,NA,NA
995518,"PO BOX 740250","ARVADA","CO",80006,NA,NA,18,"PO BOX 740250, ARVADA, CO, 80006","No_Match",NA,NA,NA,NA
995519,"PO BOX 740321","NEW ORLEANS","LA",70174,NA,NA,19,"PO BOX 740321, NEW ORLEANS, LA, 70174","No_Match",NA,NA,NA,NA
995520,"PO BOX 740386","SAN DIEGO","CA",92174,NA,NA,20,"PO BOX 740386, SAN DIEGO, CA, 92174","No_Match",NA,NA,NA,NA
995521,"PO BOX 74061","PHOENIX","AZ",85087,NA,NA,21,"PO BOX 74061, PHOENIX, AZ, 85087","No_Match",NA,NA,NA,NA
995522,"PO BOX 740691","ORANGE CITY","FL",32774,NA,NA,22,"PO BOX 740691, ORANGE CITY, FL, 32774","No_Match",NA,NA,NA,NA
995523,"PO BOX 741","BLACK HAWK","CO",80422,NA,NA,23,"PO BOX 741, BLACK HAWK, CO, 80422","No_Match",NA,NA,NA,NA
995524,"PO BOX 741","HOT SPRINGS","VA",24445,NA,NA,24,"PO BOX 741, HOT SPRINGS, VA, 24445","No_Match",NA,NA,NA,NA
995525,"PO BOX 741","LEOTI","KS",67861,NA,NA,25,"PO BOX 741, LEOTI, KS, 67861","No_Match",NA,NA,NA,NA
995526,"PO BOX 741","NEW PALTZ","NY",12561,NA,NA,26,"PO BOX 741, NEW PALTZ, NY, 12561","No_Match",NA,NA,NA,NA
995527,"PO BOX 741","RUSSELLVILLE","AR",72811,NA,NA,27,"PO BOX 741, RUSSELLVILLE, AR, 72811","No_Match",NA,NA,NA,NA
995528,"PO BOX 741","SABINAL","TX",78881,NA,NA,28,"PO BOX 741, SABINAL, TX, 78881","No_Match",NA,NA,NA,NA
995529,"PO BOX 741","WILLIAMSVILLE","NY",14231,NA,NA,29,"PO BOX 741, WILLIAMSVILLE, NY, 14231","No_Match",NA,NA,NA,NA
995530,"PO BOX 7410","BONNEY LAKE","WA",98391,NA,NA,30,"PO BOX 7410, BONNEY LAKE, WA, 98391","No_Match",NA,NA,NA,NA
995531,"PO BOX 7411","SANTA MONICA","CA",90406,NA,NA,31,"PO BOX 7411, SANTA MONICA, CA, 90406","No_Match",NA,NA,NA,NA
995532,"PO BOX 741125","RIVERDALE","GA",30274,NA,NA,32,"PO BOX 741125, RIVERDALE, GA, 30274","No_Match",NA,NA,NA,NA
995533,"PO BOX 741394","BOYNTON BEACH","FL",33467,NA,NA,33,"PO BOX 741394, BOYNTON BEACH, FL, 33467","No_Match",NA,NA,NA,NA
995534,"PO BOX 741409","RIVERDALE","GA",30274,NA,NA,34,"PO BOX 741409, RIVERDALE, GA, 30274","No_Match",NA,NA,NA,NA
995535,"PO BOX 741451","ORANGE CITY","FL",32774,NA,NA,35,"PO BOX 741451, ORANGE CITY, FL, 32774","No_Match",NA,NA,NA,NA
995536,"PO BOX 7415","ATLANTA","GA",30357,NA,NA,36,"PO BOX 7415, ATLANTA, GA, 30357","No_Match",NA,NA,NA,NA
995537,"PO BOX 741541","BOYNTON BEACH","FL",33474,NA,NA,37,"PO BOX 741541, BOYNTON BEACH, FL, 33474","No_Match",NA,NA,NA,NA
995538,"PO BOX 741541","BOYTON BEACH","FL",33474,NA,NA,38,"PO BOX 741541, BOYTON BEACH, FL, 33474","No_Match",NA,NA,NA,NA
995539,"PO BOX 741632","NEW ORLEANS","LA",70174,NA,NA,39,"PO BOX 741632, NEW ORLEANS, LA, 70174","No_Match",NA,NA,NA,NA
995540,"PO BOX 741855","NEW ORLEANS","LA",70174,NA,NA,40,"PO BOX 741855, NEW ORLEANS, LA, 70174","No_Match",NA,NA,NA,NA
995541,"PO BOX 741946","SAN DIEGO","CA",92174,NA,NA,41,"PO BOX 741946, SAN DIEGO, CA, 92174","No_Match",NA,NA,NA,NA
995542,"PO BOX 742","ALDERSON","WV",24910,NA,NA,42,"PO BOX 742, ALDERSON, WV, 24910","No_Match",NA,NA,NA,NA
995543,"PO BOX 742","BRUNDIDGE","AL",36010,NA,NA,43,"PO BOX 742, BRUNDIDGE, AL, 36010","No_Match",NA,NA,NA,NA
995544,"PO BOX 742","BUFFALO","NY",14207,NA,NA,44,"PO BOX 742, BUFFALO, NY, 14207","No_Match",NA,NA,NA,NA
995545,"PO BOX 742","COMMERCE","GA",30529,NA,NA,45,"PO BOX 742, COMMERCE, GA, 30529","No_Match",NA,NA,NA,NA
995546,"PO BOX 742","CULLODEN","WV",25510,NA,NA,46,"PO BOX 742, CULLODEN, WV, 25510","No_Match",NA,NA,NA,NA
995547,"PO BOX 742","HALLETTSVILLE","TX",77964,NA,NA,47,"PO BOX 742, HALLETTSVILLE, TX, 77964","No_Match",NA,NA,NA,NA
995548,"PO BOX 742","SPANISH FORK","UT",84660,NA,NA,48,"PO BOX 742, SPANISH FORK, UT, 84660","No_Match",NA,NA,NA,NA
995549,"PO BOX 742","SPRINGFIELD","MO",65801,NA,NA,49,"PO BOX 742, SPRINGFIELD, MO, 65801","No_Match",NA,NA,NA,NA
995550,"PO BOX 742","VELMA","OK",73491,NA,NA,50,"PO BOX 742, VELMA, OK, 73491","No_Match",NA,NA,NA,NA
995551,"PO BOX 742","WASHINGTON","OK",73093,NA,NA,51,"PO BOX 742, WASHINGTON, OK, 73093","No_Match",NA,NA,NA,NA
995552,"PO BOX 742","WAYNE","WV",25570,NA,NA,52,"PO BOX 742, WAYNE, WV, 25570","No_Match",NA,NA,NA,NA
995553,"PO BOX 742","WEST RUTLAND","VT",5777,NA,NA,53,"PO BOX 742, WEST RUTLAND, VT, 5777","No_Match",NA,NA,NA,NA
995554,"PO BOX 742029","LOS ANGELES","CA",90004,NA,NA,54,"PO BOX 742029, LOS ANGELES, CA, 90004","No_Match",NA,NA,NA,NA
995555,"PO BOX 742146","SAN DIEGO","CA",92174,NA,NA,55,"PO BOX 742146, SAN DIEGO, CA, 92174","No_Match",NA,NA,NA,NA
995556,"PO BOX 742346","SAN DIEGO","CA",92174,NA,NA,56,"PO BOX 742346, SAN DIEGO, CA, 92174","No_Match",NA,NA,NA,NA
995557,"PO BOX 742421","RIVERDALE","GA",30274,NA,NA,57,"PO BOX 742421, RIVERDALE, GA, 30274","No_Match",NA,NA,NA,NA
995558,"PO BOX 74248","PHOENIX","AZ",85087,NA,NA,58,"PO BOX 74248, PHOENIX, AZ, 85087","No_Match",NA,NA,NA,NA
995559,"PO BOX 7425","ST THOMAS","VI",801,NA,NA,59,"PO BOX 7425, ST THOMAS, VI, 801","No_Match",NA,NA,NA,NA
995560,"PO BOX 743","ALBA","TX",75410,NA,NA,60,"PO BOX 743, ALBA, TX, 75410","No_Match",NA,NA,NA,NA
995561,"PO BOX 743","BUXTON","NC",27920,NA,NA,61,"PO BOX 743, BUXTON, NC, 27920","No_Match",NA,NA,NA,NA
995562,"PO BOX 743","CASHIERS","NC",28717,NA,NA,62,"PO BOX 743, CASHIERS, NC, 28717","No_Match",NA,NA,NA,NA
995563,"PO BOX 743","DURANT","OK",74702,NA,NA,63,"PO BOX 743, DURANT, OK, 74702","No_Match",NA,NA,NA,NA
995564,"PO BOX 743","FRAINT","CA",93626,NA,NA,64,"PO BOX 743, FRAINT, CA, 93626","No_Match",NA,NA,NA,NA
995565,"PO BOX 743","FREDERIKSTED","VI",841,NA,NA,65,"PO BOX 743, FREDERIKSTED, VI, 841","No_Match",NA,NA,NA,NA
995566,"PO BOX 743","ONTARIO","OR",97914,NA,NA,66,"PO BOX 743, ONTARIO, OR, 97914","No_Match",NA,NA,NA,NA
995567,"PO BOX 743","POND CREEK","OK",73766,NA,NA,67,"PO BOX 743, POND CREEK, OK, 73766","No_Match",NA,NA,NA,NA
995568,"PO BOX 743","SEBRING","FL",33871,NA,NA,68,"PO BOX 743, SEBRING, FL, 33871","No_Match",NA,NA,NA,NA
995569,"PO BOX 743","SEWARD","AK",99664,NA,NA,69,"PO BOX 743, SEWARD, AK, 99664","No_Match",NA,NA,NA,NA
995570,"PO BOX 743","SPRINGFIELD","TN",37172,NA,NA,70,"PO BOX 743, SPRINGFIELD, TN, 37172","No_Match",NA,NA,NA,NA
995571,"PO BOX 743","TEKOA","WA",99033,NA,NA,71,"PO BOX 743, TEKOA, WA, 99033","No_Match",NA,NA,NA,NA
995572,"PO BOX 7432","BISMARCK","ND",58501,NA,NA,72,"PO BOX 7432, BISMARCK, ND, 58501","No_Match",NA,NA,NA,NA
995573,"PO BOX 7434","ATLANTA","GA",30357,NA,NA,73,"PO BOX 7434, ATLANTA, GA, 30357","No_Match",NA,NA,NA,NA
995574,"PO BOX 74342","DAVIS","CA",95617,NA,NA,74,"PO BOX 74342, DAVIS, CA, 95617","No_Match",NA,NA,NA,NA
995575,"PO BOX 743811","DALLAS","TX",75374,NA,NA,75,"PO BOX 743811, DALLAS, TX, 75374","No_Match",NA,NA,NA,NA
995576,"PO BOX 743982","DALLAS","TX",75374,NA,NA,76,"PO BOX 743982, DALLAS, TX, 75374","No_Match",NA,NA,NA,NA
995577,"PO BOX 744","ARCATA","CA",95518,NA,NA,77,"PO BOX 744, ARCATA, CA, 95518","No_Match",NA,NA,NA,NA
995578,"PO BOX 744","ATHENS","GA",30603,NA,NA,78,"PO BOX 744, ATHENS, GA, 30603","No_Match",NA,NA,NA,NA
995579,"PO BOX 744","CYPRESS","TX",77410,NA,NA,79,"PO BOX 744, CYPRESS, TX, 77410","No_Match",NA,NA,NA,NA
995580,"PO BOX 744","ELLENSBURG","WA",98926,NA,NA,80,"PO BOX 744, ELLENSBURG, WA, 98926","No_Match",NA,NA,NA,NA
995581,"PO BOX 744","KILAUEA","HI",96754,NA,NA,81,"PO BOX 744, KILAUEA, HI, 96754","No_Match",NA,NA,NA,NA
995582,"PO BOX 744","LOGANSPORT","IN",46947,NA,NA,82,"PO BOX 744, LOGANSPORT, IN, 46947","No_Match",NA,NA,NA,NA
995583,"PO BOX 744","MEMPHIS","TX",79245,NA,NA,83,"PO BOX 744, MEMPHIS, TX, 79245","No_Match",NA,NA,NA,NA
995584,"PO BOX 744","MILWAUKEE","WI",53201,NA,NA,84,"PO BOX 744, MILWAUKEE, WI, 53201","No_Match",NA,NA,NA,NA
995585,"PO BOX 744","ODESSA","WA",99159,NA,NA,85,"PO BOX 744, ODESSA, WA, 99159","No_Match",NA,NA,NA,NA
995586,"PO BOX 744","PAHALA","HI",96777,NA,NA,86,"PO BOX 744, PAHALA, HI, 96777","No_Match",NA,NA,NA,NA
995587,"PO BOX 744","RUPERT","ID",83350,NA,NA,87,"PO BOX 744, RUPERT, ID, 83350","No_Match",NA,NA,NA,NA
995588,"PO BOX 744","SPOKANE","WA",99210,NA,NA,88,"PO BOX 744, SPOKANE, WA, 99210","No_Match",NA,NA,NA,NA
995589,"PO BOX 744","SUPERIOR","MT",59872,NA,NA,89,"PO BOX 744, SUPERIOR, MT, 59872","No_Match",NA,NA,NA,NA
995590,"PO BOX 744","WASHOUGAL","WA",98671,NA,NA,90,"PO BOX 744, WASHOUGAL, WA, 98671","No_Match",NA,NA,NA,NA
995591,"PO BOX 744","WESTCLIFFE","CO",81252,NA,NA,91,"PO BOX 744, WESTCLIFFE, CO, 81252","No_Match",NA,NA,NA,NA
995592,"PO BOX 7442","ATLANTA","GA",30309,NA,NA,92,"PO BOX 7442, ATLANTA, GA, 30309","No_Match",NA,NA,NA,NA
995593,"PO BOX 7444","WESLEY CHAPEL","FL",33545,NA,NA,93,"PO BOX 7444, WESLEY CHAPEL, FL, 33545","No_Match",NA,NA,NA,NA
995594,"PO BOX 7445","LAKELAND","FL",33807,NA,NA,94,"PO BOX 7445, LAKELAND, FL, 33807","No_Match",NA,NA,NA,NA
995595,"PO BOX 7445","LONGBEACH","CA",90807,NA,NA,95,"PO BOX 7445, LONGBEACH, CA, 90807","No_Match",NA,NA,NA,NA
995596,"PO BOX 7445","PINE BLUFF","AR",71611,NA,NA,96,"PO BOX 7445, PINE BLUFF, AR, 71611","No_Match",NA,NA,NA,NA
995597,"PO BOX 7446","WILSON","NC",27895,NA,NA,97,"PO BOX 7446, WILSON, NC, 27895","No_Match",NA,NA,NA,NA
995598,"PO BOX 745","BARTLESVILLE","OK",74005,NA,NA,98,"PO BOX 745, BARTLESVILLE, OK, 74005","No_Match",NA,NA,NA,NA
995599,"PO BOX 745","ENTERPRISE","UT",84725,NA,NA,99,"PO BOX 745, ENTERPRISE, UT, 84725","No_Match",NA,NA,NA,NA
995600,"PO BOX 745","HAWLEY","TX",79525,NA,NA,100,"PO BOX 745, HAWLEY, TX, 79525","No_Match",NA,NA,NA,NA
995601,"PO BOX 745","HIGHLANDS","NC",28741,NA,NA,101,"PO BOX 745, HIGHLANDS, NC, 28741","No_Match",NA,NA,NA,NA
995602,"PO BOX 745","LOGANDALE","NV",89021,NA,NA,102,"PO BOX 745, LOGANDALE, NV, 89021","No_Match",NA,NA,NA,NA
995603,"PO BOX 745","MANHATTAN BEACH","CA",90266,NA,NA,103,"PO BOX 745, MANHATTAN BEACH, CA, 90266","No_Match",NA,NA,NA,NA
995604,"PO BOX 745","NEW CASTLE","CO",81647,NA,NA,104,"PO BOX 745, NEW CASTLE, CO, 81647","No_Match",NA,NA,NA,NA
995605,"PO BOX 745","NORTH HIGHLAND","CA",95660,NA,NA,105,"PO BOX 745, NORTH HIGHLAND, CA, 95660","No_Match",NA,NA,NA,NA
995606,"PO BOX 745","NORTH PLATTE","NE",69103,NA,NA,106,"PO BOX 745, NORTH PLATTE, NE, 69103","No_Match",NA,NA,NA,NA
995607,"PO BOX 745","PROSPECT","KY",40059,NA,NA,107,"PO BOX 745, PROSPECT, KY, 40059","No_Match",NA,NA,NA,NA
995608,"PO BOX 745","SANFORD","FL",32772,NA,NA,108,"PO BOX 745, SANFORD, FL, 32772","No_Match",NA,NA,NA,NA
995609,"PO BOX 745","TENNESSEE COLONY","TX",75861,NA,NA,109,"PO BOX 745, TENNESSEE COLONY, TX, 75861","No_Match",NA,NA,NA,NA
995610,"PO BOX 745","VENICE","CA",90294,NA,NA,110,"PO BOX 745, VENICE, CA, 90294","No_Match",NA,NA,NA,NA
995611,"PO BOX 7453","NEWPORT BEACH","CA",92658,NA,NA,111,"PO BOX 7453, NEWPORT BEACH, CA, 92658","No_Match",NA,NA,NA,NA
995612,"PO BOX 7456","NEWARK","NJ",7107,NA,NA,112,"PO BOX 7456, NEWARK, NJ, 7107","No_Match",NA,NA,NA,NA
995613,"PO BOX 745873","ARVADA","CO",80006,NA,NA,113,"PO BOX 745873, ARVADA, CO, 80006","No_Match",NA,NA,NA,NA
995614,"PO BOX 7459","CLEARWATER","FL",33758,NA,NA,114,"PO BOX 7459, CLEARWATER, FL, 33758","No_Match",NA,NA,NA,NA
995615,"PO BOX 74594","ROMULUS","MI",48174,NA,NA,115,"PO BOX 74594, ROMULUS, MI, 48174","No_Match",NA,NA,NA,NA
995616,"PO BOX 746","BRISTOW","OK",74010,NA,NA,116,"PO BOX 746, BRISTOW, OK, 74010","No_Match",NA,NA,NA,NA
995617,"PO BOX 746","CAPITAN","NM",88316,NA,NA,117,"PO BOX 746, CAPITAN, NM, 88316","No_Match",NA,NA,NA,NA
995618,"PO BOX 746","CENTREVILLE","MS",39631,NA,NA,118,"PO BOX 746, CENTREVILLE, MS, 39631","No_Match",NA,NA,NA,NA
995619,"PO BOX 746","CRANE","OR",97732,NA,NA,119,"PO BOX 746, CRANE, OR, 97732","No_Match",NA,NA,NA,NA
995620,"PO BOX 746","ELY","MN",55731,NA,NA,120,"PO BOX 746, ELY, MN, 55731","No_Match",NA,NA,NA,NA
995621,"PO BOX 746","FENCE LAKE","NM",87315,NA,NA,121,"PO BOX 746, FENCE LAKE, NM, 87315","No_Match",NA,NA,NA,NA
995622,"PO BOX 746","GARRETT","KY",41630,NA,NA,122,"PO BOX 746, GARRETT, KY, 41630","No_Match",NA,NA,NA,NA
995623,"PO BOX 746","LAWRENCEVILLE","GA",30046,NA,NA,123,"PO BOX 746, LAWRENCEVILLE, GA, 30046","No_Match",NA,NA,NA,NA
995624,"PO BOX 746","LINESVILLE","PA",16424,NA,NA,124,"PO BOX 746, LINESVILLE, PA, 16424","No_Match",NA,NA,NA,NA
995625,"PO BOX 746","MATHEWS","VA",23109,NA,NA,125,"PO BOX 746, MATHEWS, VA, 23109","No_Match",NA,NA,NA,NA
995626,"PO BOX 746","POST FALLS","ID",83877,NA,NA,126,"PO BOX 746, POST FALLS, ID, 83877","No_Match",NA,NA,NA,NA
995627,"PO BOX 746","UNADILLA","NY",13849,NA,NA,127,"PO BOX 746, UNADILLA, NY, 13849","No_Match",NA,NA,NA,NA
995628,"PO BOX 746","WAIMEA","HI",NA,NA,NA,128,"PO BOX 746, WAIMEA, HI, ","No_Match",NA,NA,NA,NA
995629,"PO BOX 7462","BEAVERTON","OR",97007,NA,NA,129,"PO BOX 7462, BEAVERTON, OR, 97007","No_Match",NA,NA,NA,NA
995630,"PO BOX 7464","TALLAHASSEE","FL",32314,NA,NA,130,"PO BOX 7464, TALLAHASSEE, FL, 32314","No_Match",NA,NA,NA,NA
995631,"PO BOX 74661","ROMULUS","MI",48174,NA,NA,131,"PO BOX 74661, ROMULUS, MI, 48174","No_Match",NA,NA,NA,NA
995632,"PO BOX 74696","SAN ANTONIO","TX",78265,NA,NA,132,"PO BOX 74696, SAN ANTONIO, TX, 78265","No_Match",NA,NA,NA,NA
995633,"PO BOX 747","BOERNE","TX",78006,NA,NA,133,"PO BOX 747, BOERNE, TX, 78006","No_Match",NA,NA,NA,NA
995634,"PO BOX 747","CHILOQUIN","OR",97624,NA,NA,134,"PO BOX 747, CHILOQUIN, OR, 97624","No_Match",NA,NA,NA,NA
995635,"PO BOX 747","COLUSA","CA",95932,NA,NA,135,"PO BOX 747, COLUSA, CA, 95932","No_Match",NA,NA,NA,NA
995636,"PO BOX 747","FARGO","ND",58107,NA,NA,136,"PO BOX 747, FARGO, ND, 58107","No_Match",NA,NA,NA,NA
995637,"PO BOX 747","HANA","HI",96713,NA,NA,137,"PO BOX 747, HANA, HI, 96713","No_Match",NA,NA,NA,NA
995638,"PO BOX 747","VELARDE","NM",87582,NA,NA,138,"PO BOX 747, VELARDE, NM, 87582","No_Match",NA,NA,NA,NA
995639,"PO BOX 747","WARROAD","MN",56649,NA,NA,139,"PO BOX 747, WARROAD, MN, 56649","No_Match",NA,NA,NA,NA
995640,"PO BOX 747","WARROAD","MN",56763,NA,NA,140,"PO BOX 747, WARROAD, MN, 56763","No_Match",NA,NA,NA,NA
995641,"PO BOX 747","WEAVERVILLE","NC",28787,NA,NA,141,"PO BOX 747, WEAVERVILLE, NC, 28787","No_Match",NA,NA,NA,NA
995642,"PO BOX 7470","BONNEY LAKE","WA",98391,NA,NA,142,"PO BOX 7470, BONNEY LAKE, WA, 98391","No_Match",NA,NA,NA,NA
995643,"PO BOX 74714","LOS ANGELES","CA",90004,NA,NA,143,"PO BOX 74714, LOS ANGELES, CA, 90004","No_Match",NA,NA,NA,NA
995644,"PO BOX 7472","Deer Isle","CT",4063,NA,NA,144,"PO BOX 7472, Deer Isle, CT, 4063","No_Match",NA,NA,NA,NA
995645,"PO BOX 7475","JERSEY CITY","NJ",7307,NA,NA,145,"PO BOX 7475, JERSEY CITY, NJ, 7307","No_Match",NA,NA,NA,NA
995646,"PO BOX 748","ACWORTH","GA",30101,NA,NA,146,"PO BOX 748, ACWORTH, GA, 30101","No_Match",NA,NA,NA,NA
995647,"PO BOX 748","BONNERS FERRY","ID",83805,NA,NA,147,"PO BOX 748, BONNERS FERRY, ID, 83805","No_Match",NA,NA,NA,NA
995648,"PO BOX 748","CARLSBORG","WA",98324,NA,NA,148,"PO BOX 748, CARLSBORG, WA, 98324","No_Match",NA,NA,NA,NA
995649,"PO BOX 748","LAMPASAS","TX",76550,NA,NA,149,"PO BOX 748, LAMPASAS, TX, 76550","No_Match",NA,NA,NA,NA
995650,"PO BOX 748","MASON","TX",76856,NA,NA,150,"PO BOX 748, MASON, TX, 76856","No_Match",NA,NA,NA,NA
995651,"PO BOX 748","OAK CREEK","CO",80467,NA,NA,151,"PO BOX 748, OAK CREEK, CO, 80467","No_Match",NA,NA,NA,NA
995652,"PO BOX 748","SPOTSYLVANIA","VA",22553,NA,NA,152,"PO BOX 748, SPOTSYLVANIA, VA, 22553","No_Match",NA,NA,NA,NA
995653,"PO BOX 7480","BEAUMONT","TX",77726,NA,NA,153,"PO BOX 7480, BEAUMONT, TX, 77726","No_Match",NA,NA,NA,NA
995654,"PO BOX 748074","REGO PARK","NY",11374,NA,NA,154,"PO BOX 748074, REGO PARK, NY, 11374","No_Match",NA,NA,NA,NA
995655,"PO BOX 7486 GREENWOOD","GREENWOOD","IN",46142,NA,NA,155,"PO BOX 7486 GREENWOOD, GREENWOOD, IN, 46142","No_Match",NA,NA,NA,NA
995656,"PO BOX 7486","AUSTIN","TX",78713,NA,NA,156,"PO BOX 7486, AUSTIN, TX, 78713","No_Match",NA,NA,NA,NA
995657,"PO BOX 7486","SAVANNAH","GA",31418,NA,NA,157,"PO BOX 7486, SAVANNAH, GA, 31418","No_Match",NA,NA,NA,NA
995658,"PO BOX 7489","DETROIT","MI",48207,NA,NA,158,"PO BOX 7489, DETROIT, MI, 48207","No_Match",NA,NA,NA,NA
995659,"PO BOX 749","BARROW","AK",99723,NA,NA,159,"PO BOX 749, BARROW, AK, 99723","No_Match",NA,NA,NA,NA
995660,"PO BOX 749","CHRISTIANSTED","VI",820,NA,NA,160,"PO BOX 749, CHRISTIANSTED, VI, 820","No_Match",NA,NA,NA,NA
995661,"PO BOX 749","PERKINS","OK",74059,NA,NA,161,"PO BOX 749, PERKINS, OK, 74059","No_Match",NA,NA,NA,NA
995662,"PO BOX 749","STANTON","NE",68779,NA,NA,162,"PO BOX 749, STANTON, NE, 68779","No_Match",NA,NA,NA,NA
995663,"PO BOX 7490","STEELTON","PA",17113,NA,NA,163,"PO BOX 7490, STEELTON, PA, 17113","No_Match",NA,NA,NA,NA
995664,"PO BOX 7491","HOUSTON","TX",77248,NA,NA,164,"PO BOX 7491, HOUSTON, TX, 77248","No_Match",NA,NA,NA,NA
995665,"PO BOX 7491","SILVER SRPING","MD",20907,NA,NA,165,"PO BOX 7491, SILVER SRPING, MD, 20907","No_Match",NA,NA,NA,NA
995666,"PO BOX 74911","FAIRBANKS","AK",99707,NA,NA,166,"PO BOX 74911, FAIRBANKS, AK, 99707","No_Match",NA,NA,NA,NA
995667,"PO BOX 7493","FREDERICKSBURG","VA",22404,NA,NA,167,"PO BOX 7493, FREDERICKSBURG, VA, 22404","No_Match",NA,NA,NA,NA
995668,"PO BOX 7495","KINGSPORT","TN",37664,NA,NA,168,"PO BOX 7495, KINGSPORT, TN, 37664","No_Match",NA,NA,NA,NA
995669,"PO BOX 75","BUCKHEAD","GA",30625,NA,NA,169,"PO BOX 75, BUCKHEAD, GA, 30625","No_Match",NA,NA,NA,NA
995670,"PO BOX 75","COPAKE","NY",12516,NA,NA,170,"PO BOX 75, COPAKE, NY, 12516","No_Match",NA,NA,NA,NA
995671,"PO BOX 75","DEFERIET","NY",13628,NA,NA,171,"PO BOX 75, DEFERIET, NY, 13628","No_Match",NA,NA,NA,NA
995672,"PO BOX 75","ELLENDALE","ND",58436,NA,NA,172,"PO BOX 75, ELLENDALE, ND, 58436","No_Match",NA,NA,NA,NA
995673,"PO BOX 75","FT LUPTON","CO",80621,NA,NA,173,"PO BOX 75, FT LUPTON, CO, 80621","No_Match",NA,NA,NA,NA
995674,"PO BOX 75","GOUVERNEUR","NY",13642,NA,NA,174,"PO BOX 75, GOUVERNEUR, NY, 13642","No_Match",NA,NA,NA,NA
995675,"PO BOX 75","HANOVERTON","OH",44423,NA,NA,175,"PO BOX 75, HANOVERTON, OH, 44423","No_Match",NA,NA,NA,NA
995676,"PO BOX 75","HARRISVILLE","WV",26362,NA,NA,176,"PO BOX 75, HARRISVILLE, WV, 26362","No_Match",NA,NA,NA,NA
995677,"PO BOX 75","HAWTHORNE","NV",89415,NA,NA,177,"PO BOX 75, HAWTHORNE, NV, 89415","No_Match",NA,NA,NA,NA
995678,"PO BOX 75","HILLSIDE","NJ",7205,NA,NA,178,"PO BOX 75, HILLSIDE, NJ, 7205","No_Match",NA,NA,NA,NA
995679,"PO BOX 75","HOLLISTER","MO",65673,NA,NA,179,"PO BOX 75, HOLLISTER, MO, 65673","No_Match",NA,NA,NA,NA
995680,"PO BOX 75","HOMER CITY","PA",15748,NA,NA,180,"PO BOX 75, HOMER CITY, PA, 15748","No_Match",NA,NA,NA,NA
995681,"PO BOX 75","KENOZA","NY",12750,NA,NA,181,"PO BOX 75, KENOZA, NY, 12750","No_Match",NA,NA,NA,NA
995682,"PO BOX 75","MIDLAND","NC",28107,NA,NA,182,"PO BOX 75, MIDLAND, NC, 28107","No_Match",NA,NA,NA,NA
995683,"PO BOX 75","MONESSEN","PA",15062,NA,NA,183,"PO BOX 75, MONESSEN, PA, 15062","No_Match",NA,NA,NA,NA
995684,"PO BOX 75","MONTICELLO","WI",53570,NA,NA,184,"PO BOX 75, MONTICELLO, WI, 53570","No_Match",NA,NA,NA,NA
995685,"PO BOX 75","MORA","NM",87732,NA,NA,185,"PO BOX 75, MORA, NM, 87732","No_Match",NA,NA,NA,NA
995686,"PO BOX 75","NEW YORK","NY",10113,NA,NA,186,"PO BOX 75, NEW YORK, NY, 10113","No_Match",NA,NA,NA,NA
995687,"PO BOX 75","NEWTON","AL",36352,NA,NA,187,"PO BOX 75, NEWTON, AL, 36352","No_Match",NA,NA,NA,NA
995688,"PO BOX 75","NORTH EGREMONT","MA",1252,NA,NA,188,"PO BOX 75, NORTH EGREMONT, MA, 1252","No_Match",NA,NA,NA,NA
995689,"PO BOX 75","OAKLAND","AR",72661,NA,NA,189,"PO BOX 75, OAKLAND, AR, 72661","No_Match",NA,NA,NA,NA
995690,"PO BOX 75","POPLAR","WI",54864,NA,NA,190,"PO BOX 75, POPLAR, WI, 54864","No_Match",NA,NA,NA,NA
995691,"PO BOX 75","RIO DELL","CA",95562,NA,NA,191,"PO BOX 75, RIO DELL, CA, 95562","No_Match",NA,NA,NA,NA
995692,"PO BOX 75","SAYBROOK","IL",61770,NA,NA,192,"PO BOX 75, SAYBROOK, IL, 61770","No_Match",NA,NA,NA,NA
995693,"PO BOX 75","SPARROW BUSH","NY",12780,NA,NA,193,"PO BOX 75, SPARROW BUSH, NY, 12780","No_Match",NA,NA,NA,NA
995694,"PO BOX 75","TIOGA","WV",26691,NA,NA,194,"PO BOX 75, TIOGA, WV, 26691","No_Match",NA,NA,NA,NA
995695,"PO BOX 75","TROPIC","UT",84776,NA,NA,195,"PO BOX 75, TROPIC, UT, 84776","No_Match",NA,NA,NA,NA
995696,"PO BOX 75","WATFORD CITY","ND",58854,NA,NA,196,"PO BOX 75, WATFORD CITY, ND, 58854","No_Match",NA,NA,NA,NA
995697,"PO BOX 75","WISCONSIN DELLS","WI",53965,NA,NA,197,"PO BOX 75, WISCONSIN DELLS, WI, 53965","No_Match",NA,NA,NA,NA
995698,"PO BOX 750","BATTLE GROUND","WA",98604,NA,NA,198,"PO BOX 750, BATTLE GROUND, WA, 98604","No_Match",NA,NA,NA,NA
995699,"PO BOX 750","ERIE","CO",80516,NA,NA,199,"PO BOX 750, ERIE, CO, 80516","No_Match",NA,NA,NA,NA
995700,"PO BOX 750","PAHOA","HI",96778,NA,NA,200,"PO BOX 750, PAHOA, HI, 96778","No_Match",NA,NA,NA,NA
995701,"PO BOX 750","SUSANVILLE","CA",96127,NA,NA,201,"PO BOX 750, SUSANVILLE, CA, 96127","No_Match",NA,NA,NA,NA
995702,"PO BOX 750","WENDELL","NC",27591,NA,NA,202,"PO BOX 750, WENDELL, NC, 27591","No_Match",NA,NA,NA,NA
995703,"PO BOX 750","WOLF POINT","MT",59201,NA,NA,203,"PO BOX 750, WOLF POINT, MT, 59201","No_Match",NA,NA,NA,NA
995704,"PO BOX 7500","PONCE","PR",732,NA,NA,204,"PO BOX 7500, PONCE, PR, 732","No_Match",NA,NA,NA,NA
995705,"PO BOX 75006","CEDAR RAPIDS","IA",52407,NA,NA,205,"PO BOX 75006, CEDAR RAPIDS, IA, 52407","No_Match",NA,NA,NA,NA
995706,"PO BOX 750065","PETALUMA","CA",94975,NA,NA,206,"PO BOX 750065, PETALUMA, CA, 94975","No_Match",NA,NA,NA,NA
995707,"PO BOX 75012","TAMPA","FL",33675,NA,NA,207,"PO BOX 75012, TAMPA, FL, 33675","No_Match",NA,NA,NA,NA
995708,"PO BOX 750141","FAIRBANKS","AK",99775,NA,NA,208,"PO BOX 750141, FAIRBANKS, AK, 99775","No_Match",NA,NA,NA,NA
995709,"PO BOX 75023","BATON ROUGE","LA",70874,NA,NA,209,"PO BOX 75023, BATON ROUGE, LA, 70874","No_Match",NA,NA,NA,NA
995710,"PO BOX 7504","ALBUQUERQUE","NM",87104,NA,NA,210,"PO BOX 7504, ALBUQUERQUE, NM, 87104","No_Match",NA,NA,NA,NA
995711,"PO BOX 7504","HOUSTON","TX",77270,NA,NA,211,"PO BOX 7504, HOUSTON, TX, 77270","No_Match",NA,NA,NA,NA
995712,"PO BOX 750532","LAS VEGAS","NV",89136,NA,NA,212,"PO BOX 750532, LAS VEGAS, NV, 89136","No_Match",NA,NA,NA,NA
995713,"PO BOX 75055","N CHESTERFIELD","VA",23236,NA,NA,213,"PO BOX 75055, N CHESTERFIELD, VA, 23236","No_Match",NA,NA,NA,NA
995714,"PO BOX 750571","DAYTON","OH",45475,NA,NA,214,"PO BOX 750571, DAYTON, OH, 45475","No_Match",NA,NA,NA,NA
995715,"PO BOX 750584","LAS VEGAS","NV",89136,NA,NA,215,"PO BOX 750584, LAS VEGAS, NV, 89136","No_Match",NA,NA,NA,NA
995716,"PO BOX 75064","LAS VEGAS","NV",89136,NA,NA,216,"PO BOX 75064, LAS VEGAS, NV, 89136","No_Match",NA,NA,NA,NA
995717,"PO BOX 75064","LOS ANGELES","CA",90075,NA,NA,217,"PO BOX 75064, LOS ANGELES, CA, 90075","No_Match",NA,NA,NA,NA
995718,"PO BOX 750654","MEMPHIS","TN",38175,NA,NA,218,"PO BOX 750654, MEMPHIS, TN, 38175","No_Match",NA,NA,NA,NA
995719,"PO BOX 750744","LAS VEGAS","NV",89136,NA,NA,219,"PO BOX 750744, LAS VEGAS, NV, 89136","No_Match",NA,NA,NA,NA
995720,"PO BOX 7508","THOUSAND OAKS","CA",91359,NA,NA,220,"PO BOX 7508, THOUSAND OAKS, CA, 91359","No_Match",NA,NA,NA,NA
995721,"PO BOX 750874","DAYTON","OH",45475,NA,NA,221,"PO BOX 750874, DAYTON, OH, 45475","No_Match",NA,NA,NA,NA
995722,"PO BOX 750989","FAIRBANKS","AK",99708,NA,NA,222,"PO BOX 750989, FAIRBANKS, AK, 99708","No_Match",NA,NA,NA,NA
995723,"PO BOX 751","ARBUCKLE","CA",95912,NA,NA,223,"PO BOX 751, ARBUCKLE, CA, 95912","No_Match",NA,NA,NA,NA
995724,"PO BOX 751","BALDWIN CITY","KS",66006,NA,NA,224,"PO BOX 751, BALDWIN CITY, KS, 66006","No_Match",NA,NA,NA,NA
995725,"PO BOX 751","BIG SANDY","TX",75755,NA,NA,225,"PO BOX 751, BIG SANDY, TX, 75755","No_Match",NA,NA,NA,NA
995726,"PO BOX 751","BLACK HAWK","CO",80422,NA,NA,226,"PO BOX 751, BLACK HAWK, CO, 80422","No_Match",NA,NA,NA,NA
995727,"PO BOX 751","BLAKESLEE","PA",18610,NA,NA,227,"PO BOX 751, BLAKESLEE, PA, 18610","No_Match",NA,NA,NA,NA
995728,"PO BOX 751","CENTRAL CITY","CO",80427,NA,NA,228,"PO BOX 751, CENTRAL CITY, CO, 80427","No_Match",NA,NA,NA,NA
995729,"PO BOX 751","CHAGRIN FALLS","OH",44022,NA,NA,229,"PO BOX 751, CHAGRIN FALLS, OH, 44022","No_Match",NA,NA,NA,NA
995730,"PO BOX 751","GRACEVILLE","FL",32440,NA,NA,230,"PO BOX 751, GRACEVILLE, FL, 32440","No_Match",NA,NA,NA,NA
995731,"PO BOX 751","KERNVILLE","CA",93238,NA,NA,231,"PO BOX 751, KERNVILLE, CA, 93238","No_Match",NA,NA,NA,NA
995732,"PO BOX 751","NESHANIC STATION","NJ",8853,NA,NA,232,"PO BOX 751, NESHANIC STATION, NJ, 8853","No_Match",NA,NA,NA,NA
995733,"PO BOX 751","ORACLE","AZ",85623,NA,NA,233,"PO BOX 751, ORACLE, AZ, 85623","No_Match",NA,NA,NA,NA
995734,"PO BOX 751","SALEM","AR",72576,NA,NA,234,"PO BOX 751, SALEM, AR, 72576","No_Match",NA,NA,NA,NA
995735,"PO BOX 751","SKIDMORE","TX",78389,NA,NA,235,"PO BOX 751, SKIDMORE, TX, 78389","No_Match",NA,NA,NA,NA
995736,"PO BOX 751","VIENNA","OH",44473,NA,NA,236,"PO BOX 751, VIENNA, OH, 44473","No_Match",NA,NA,NA,NA
995737,"PO BOX 75100","HONOLULU","HI",96836,NA,NA,237,"PO BOX 75100, HONOLULU, HI, 96836","No_Match",NA,NA,NA,NA
995738,"PO BOX 751014","PETALUMA","CA",94975,NA,NA,238,"PO BOX 751014, PETALUMA, CA, 94975","No_Match",NA,NA,NA,NA
995739,"PO BOX 751120","FAIRBANKS","AK",99775,NA,NA,239,"PO BOX 751120, FAIRBANKS, AK, 99775","No_Match",NA,NA,NA,NA
995740,"PO BOX 75118","NEW ORLEANS","LA",70175,NA,NA,240,"PO BOX 75118, NEW ORLEANS, LA, 70175","No_Match",NA,NA,NA,NA
995741,"PO BOX 7512","NATCHITOCHES","LA",71457,NA,NA,241,"PO BOX 7512, NATCHITOCHES, LA, 71457","No_Match",NA,NA,NA,NA
995742,"PO BOX 751243","MEMPHIS","TN",38175,NA,NA,242,"PO BOX 751243, MEMPHIS, TN, 38175","No_Match",NA,NA,NA,NA
995743,"PO BOX 7513","ATLANTA","GA",30357,NA,NA,243,"PO BOX 7513, ATLANTA, GA, 30357","No_Match",NA,NA,NA,NA
995744,"PO BOX 7513","PAGO PAGO","AS",96799,NA,NA,244,"PO BOX 7513, PAGO PAGO, AS, 96799","No_Match",NA,NA,NA,NA
995745,"PO BOX 751348","PETALUMA","CA",94975,NA,NA,245,"PO BOX 751348, PETALUMA, CA, 94975","No_Match",NA,NA,NA,NA
995746,"PO BOX 7515 GIRARD AVE","LA JOLLA","CA",92037,32.8407941250001,-117.272576315,246,"PO BOX 7515 GIRARD AVE, LA JOLLA, CA, 92037","Match","Exact","7515 GIRARD AVE, LA JOLLA, CA, 92037",195716797,"R"
995747,"PO BOX 751539","PETALUMA","CA",94975,NA,NA,247,"PO BOX 751539, PETALUMA, CA, 94975","No_Match",NA,NA,NA,NA
995748,"PO BOX 751694","LAS VEGAS","NV",89136,NA,NA,248,"PO BOX 751694, LAS VEGAS, NV, 89136","No_Match",NA,NA,NA,NA
995749,"PO BOX 751732","LAS VEGAS","NV",89136,NA,NA,249,"PO BOX 751732, LAS VEGAS, NV, 89136","No_Match",NA,NA,NA,NA
995750,"PO BOX 7518","HAMPTON","VA",23666,NA,NA,250,"PO BOX 7518, HAMPTON, VA, 23666","No_Match",NA,NA,NA,NA
995751,"PO BOX 7518","KILMARNOCK","VA",22482,NA,NA,251,"PO BOX 7518, KILMARNOCK, VA, 22482","No_Match",NA,NA,NA,NA
995752,"PO BOX 75187","HONOLULU","HI",96836,NA,NA,252,"PO BOX 75187, HONOLULU, HI, 96836","No_Match",NA,NA,NA,NA
995753,"PO BOX 751882","HOUSTON","TX",77275,NA,NA,253,"PO BOX 751882, HOUSTON, TX, 77275","No_Match",NA,NA,NA,NA
995754,"PO BOX 752","ALTAMONT","NY",12009,NA,NA,254,"PO BOX 752, ALTAMONT, NY, 12009","No_Match",NA,NA,NA,NA
995755,"PO BOX 752","ASHLAND","NH",3217,NA,NA,255,"PO BOX 752, ASHLAND, NH, 3217","No_Match",NA,NA,NA,NA
995756,"PO BOX 752","HOMEWOOD","IL",60430,NA,NA,256,"PO BOX 752, HOMEWOOD, IL, 60430","No_Match",NA,NA,NA,NA
995757,"PO BOX 752","LAKE VILLAGE","AR",71653,NA,NA,257,"PO BOX 752, LAKE VILLAGE, AR, 71653","No_Match",NA,NA,NA,NA
995758,"PO BOX 752","MIDWAY","PA",15060,NA,NA,258,"PO BOX 752, MIDWAY, PA, 15060","No_Match",NA,NA,NA,NA
995759,"PO BOX 752","MOUNTAINAIR","NM",87036,NA,NA,259,"PO BOX 752, MOUNTAINAIR, NM, 87036","No_Match",NA,NA,NA,NA
995760,"PO BOX 752","PAYSON","AZ",85547,NA,NA,260,"PO BOX 752, PAYSON, AZ, 85547","No_Match",NA,NA,NA,NA
995761,"PO BOX 752","PORT HADLOCK","WA",98339,NA,NA,261,"PO BOX 752, PORT HADLOCK, WA, 98339","No_Match",NA,NA,NA,NA
995762,"PO BOX 752","SCOTTSVILLE","TX",75688,NA,NA,262,"PO BOX 752, SCOTTSVILLE, TX, 75688","No_Match",NA,NA,NA,NA
995763,"PO BOX 752","SGT BLUFF","IA",51054,NA,NA,263,"PO BOX 752, SGT BLUFF, IA, 51054","No_Match",NA,NA,NA,NA
995764,"PO BOX 752","STEVENSON","WA",98648,NA,NA,264,"PO BOX 752, STEVENSON, WA, 98648","No_Match",NA,NA,NA,NA
995765,"PO BOX 752","TELLURIDE","CO",81435,NA,NA,265,"PO BOX 752, TELLURIDE, CO, 81435","No_Match",NA,NA,NA,NA
995766,"PO BOX 752","ZUNI","NM",87327,NA,NA,266,"PO BOX 752, ZUNI, NM, 87327","No_Match",NA,NA,NA,NA
995767,"PO BOX 752013","HOUSTON","TX",77275,NA,NA,267,"PO BOX 752013, HOUSTON, TX, 77275","No_Match",NA,NA,NA,NA
995768,"PO BOX 752104","DAYTON","OH",45475,NA,NA,268,"PO BOX 752104, DAYTON, OH, 45475","No_Match",NA,NA,NA,NA
995769,"PO BOX 752176","DAYTON","OH",45475,NA,NA,269,"PO BOX 752176, DAYTON, OH, 45475","No_Match",NA,NA,NA,NA
995770,"PO BOX 752234","LAS VEGAS","NV",89136,NA,NA,270,"PO BOX 752234, LAS VEGAS, NV, 89136","No_Match",NA,NA,NA,NA
995771,"PO BOX 752252","DAYTON","OH",45475,NA,NA,271,"PO BOX 752252, DAYTON, OH, 45475","No_Match",NA,NA,NA,NA
995772,"PO BOX 75227","SALEM","MI",48175,NA,NA,272,"PO BOX 75227, SALEM, MI, 48175","No_Match",NA,NA,NA,NA
995773,"PO BOX 752343","DAYTON","OH",45475,NA,NA,273,"PO BOX 752343, DAYTON, OH, 45475","No_Match",NA,NA,NA,NA
995774,"PO BOX 752454","LAS VEGAS","NV",89136,NA,NA,274,"PO BOX 752454, LAS VEGAS, NV, 89136","No_Match",NA,NA,NA,NA
995775,"PO BOX 75253","KAPOLEI","HI",96707,NA,NA,275,"PO BOX 75253, KAPOLEI, HI, 96707","No_Match",NA,NA,NA,NA
995776,"PO BOX 752552","MEMPHIS","TN",38175,NA,NA,276,"PO BOX 752552, MEMPHIS, TN, 38175","No_Match",NA,NA,NA,NA
995777,"PO BOX 752586","LAS VEGAS","NV",89136,NA,NA,277,"PO BOX 752586, LAS VEGAS, NV, 89136","No_Match",NA,NA,NA,NA
995778,"PO BOX 75264","KAPOLEI","HI",96707,NA,NA,278,"PO BOX 75264, KAPOLEI, HI, 96707","No_Match",NA,NA,NA,NA
995779,"PO BOX 752672","MEMPHIS","TN",38175,NA,NA,279,"PO BOX 752672, MEMPHIS, TN, 38175","No_Match",NA,NA,NA,NA
995780,"PO BOX 752722","MEMPHIS","TN",38175,NA,NA,280,"PO BOX 752722, MEMPHIS, TN, 38175","No_Match",NA,NA,NA,NA
995781,"PO BOX 75292","LOS ANGELES","CA",90075,NA,NA,281,"PO BOX 75292, LOS ANGELES, CA, 90075","No_Match",NA,NA,NA,NA
995782,"PO BOX 753","BERRYVILLE","VA",22611,NA,NA,282,"PO BOX 753, BERRYVILLE, VA, 22611","No_Match",NA,NA,NA,NA
995783,"PO BOX 753","CHILDRESS","TX",79201,NA,NA,283,"PO BOX 753, CHILDRESS, TX, 79201","No_Match",NA,NA,NA,NA
995784,"PO BOX 753","DANVILLE","KY",40423,NA,NA,284,"PO BOX 753, DANVILLE, KY, 40423","No_Match",NA,NA,NA,NA
995785,"PO BOX 753","EASTPOINTE","MI",48021,NA,NA,285,"PO BOX 753, EASTPOINTE, MI, 48021","No_Match",NA,NA,NA,NA
995786,"PO BOX 753","HEALDTON","OK",73438,NA,NA,286,"PO BOX 753, HEALDTON, OK, 73438","No_Match",NA,NA,NA,NA
995787,"PO BOX 753","JACKSON CENTER","OH",45334,NA,NA,287,"PO BOX 753, JACKSON CENTER, OH, 45334","No_Match",NA,NA,NA,NA
995788,"PO BOX 753","MAULDIN","SC",29662,NA,NA,288,"PO BOX 753, MAULDIN, SC, 29662","No_Match",NA,NA,NA,NA
995789,"PO BOX 753","MCALESTER","OK",74501,NA,NA,289,"PO BOX 753, MCALESTER, OK, 74501","No_Match",NA,NA,NA,NA
995790,"PO BOX 753","ROSCOMMON","MI",48653,NA,NA,290,"PO BOX 753, ROSCOMMON, MI, 48653","No_Match",NA,NA,NA,NA
995791,"PO BOX 7530","LAKE TAPPS","WA",98391,NA,NA,291,"PO BOX 7530, LAKE TAPPS, WA, 98391","No_Match",NA,NA,NA,NA
995792,"PO BOX 753074","MEMPHIS","TN",38175,NA,NA,292,"PO BOX 753074, MEMPHIS, TN, 38175","No_Match",NA,NA,NA,NA
995793,"PO BOX 753123","HOUSTON","TX",77275,NA,NA,293,"PO BOX 753123, HOUSTON, TX, 77275","No_Match",NA,NA,NA,NA
995794,"PO BOX 7535","DENVER","CO",80207,NA,NA,294,"PO BOX 7535, DENVER, CO, 80207","No_Match",NA,NA,NA,NA
995795,"PO BOX 75385","KAMPALA","AA",0,NA,NA,295,"PO BOX 75385, KAMPALA, AA, 0","No_Match",NA,NA,NA,NA
995796,"PO BOX 754","BLUEFIELD","VA",24605,NA,NA,296,"PO BOX 754, BLUEFIELD, VA, 24605","No_Match",NA,NA,NA,NA
995797,"PO BOX 754","COCOA","FL",32923,NA,NA,297,"PO BOX 754, COCOA, FL, 32923","No_Match",NA,NA,NA,NA
995798,"PO BOX 754","LAWTON","MI",49065,NA,NA,298,"PO BOX 754, LAWTON, MI, 49065","No_Match",NA,NA,NA,NA
995799,"PO BOX 754","ORACEL","AZ",85623,NA,NA,299,"PO BOX 754, ORACEL, AZ, 85623","No_Match",NA,NA,NA,NA
995800,"PO BOX 754","ORACLE","AZ",85623,NA,NA,300,"PO BOX 754, ORACLE, AZ, 85623","No_Match",NA,NA,NA,NA
995801,"PO BOX 754","PALATKA","FL",32178,NA,NA,301,"PO BOX 754, PALATKA, FL, 32178","No_Match",NA,NA,NA,NA
995802,"PO BOX 754","STANWOOD","WA",98292,NA,NA,302,"PO BOX 754, STANWOOD, WA, 98292","No_Match",NA,NA,NA,NA
995803,"PO BOX 754","TITUSVILLE","FL",32781,NA,NA,303,"PO BOX 754, TITUSVILLE, FL, 32781","No_Match",NA,NA,NA,NA
995804,"PO BOX 7542","OLYMPIA","WA",98507,NA,NA,304,"PO BOX 7542, OLYMPIA, WA, 98507","No_Match",NA,NA,NA,NA
995805,"PO BOX 7542","SHREVEPORT","LA",71137,NA,NA,305,"PO BOX 7542, SHREVEPORT, LA, 71137","No_Match",NA,NA,NA,NA
995806,"PO BOX 7545","BURBANK","CA",91510,NA,NA,306,"PO BOX 7545, BURBANK, CA, 91510","No_Match",NA,NA,NA,NA
995807,"PO BOX 7545","ROCKY MOUNT","NC",27804,NA,NA,307,"PO BOX 7545, ROCKY MOUNT, NC, 27804","No_Match",NA,NA,NA,NA
995808,"PO BOX 754737","MEMPHIS","TN",38175,NA,NA,308,"PO BOX 754737, MEMPHIS, TN, 38175","No_Match",NA,NA,NA,NA
995809,"PO BOX 755","CHRISTIANSTED","VI",821,NA,NA,309,"PO BOX 755, CHRISTIANSTED, VI, 821","No_Match",NA,NA,NA,NA
995810,"PO BOX 755","GLENNVILLE","GA",30427,NA,NA,310,"PO BOX 755, GLENNVILLE, GA, 30427","No_Match",NA,NA,NA,NA
995811,"PO BOX 755","HAMBURG","NY",14075,NA,NA,311,"PO BOX 755, HAMBURG, NY, 14075","No_Match",NA,NA,NA,NA
995812,"PO BOX 755","KAPAA","HI",96722,NA,NA,312,"PO BOX 755, KAPAA, HI, 96722","No_Match",NA,NA,NA,NA
995813,"PO BOX 755","LELAND","NC",28451,NA,NA,313,"PO BOX 755, LELAND, NC, 28451","No_Match",NA,NA,NA,NA
995814,"PO BOX 755","LINDALE","TX",75771,NA,NA,314,"PO BOX 755, LINDALE, TX, 75771","No_Match",NA,NA,NA,NA
995815,"PO BOX 755","LOUISVILLE","KY",40202,NA,NA,315,"PO BOX 755, LOUISVILLE, KY, 40202","No_Match",NA,NA,NA,NA
995816,"PO BOX 755","MILL CITY","OR",97360,NA,NA,316,"PO BOX 755, MILL CITY, OR, 97360","No_Match",NA,NA,NA,NA
995817,"PO BOX 755","MOUNT MORRIS","MI",48458,NA,NA,317,"PO BOX 755, MOUNT MORRIS, MI, 48458","No_Match",NA,NA,NA,NA
995818,"PO BOX 755","OJAI","CA",93024,NA,NA,318,"PO BOX 755, OJAI, CA, 93024","No_Match",NA,NA,NA,NA
995819,"PO BOX 755","PORT ARANSAS","TX",78373,NA,NA,319,"PO BOX 755, PORT ARANSAS, TX, 78373","No_Match",NA,NA,NA,NA
995820,"PO BOX 755","RIDGEFIELD","NJ",7657,NA,NA,320,"PO BOX 755, RIDGEFIELD, NJ, 7657","No_Match",NA,NA,NA,NA
995821,"PO BOX 755","SAN JOAQUIN","CA",93660,NA,NA,321,"PO BOX 755, SAN JOAQUIN, CA, 93660","No_Match",NA,NA,NA,NA
995822,"PO BOX 755","SPOKANE","WA",99210,NA,NA,322,"PO BOX 755, SPOKANE, WA, 99210","No_Match",NA,NA,NA,NA
995823,"PO BOX 755","STRATFORD","OK",74872,NA,NA,323,"PO BOX 755, STRATFORD, OK, 74872","No_Match",NA,NA,NA,NA
995824,"PO BOX 755","SYLVA","NC",28779,NA,NA,324,"PO BOX 755, SYLVA, NC, 28779","No_Match",NA,NA,NA,NA
995825,"PO BOX 755","WILLIAMS","CA",95987,NA,NA,325,"PO BOX 755, WILLIAMS, CA, 95987","No_Match",NA,NA,NA,NA
995826,"PO BOX 755","WILTON","IA",52747,NA,NA,326,"PO BOX 755, WILTON, IA, 52747","No_Match",NA,NA,NA,NA
995827,"PO BOX 7550","ABILENE","TX",79608,NA,NA,327,"PO BOX 7550, ABILENE, TX, 79608","No_Match",NA,NA,NA,NA
995828,"PO BOX 7551","PSL","FL",34985,NA,NA,328,"PO BOX 7551, PSL, FL, 34985","No_Match",NA,NA,NA,NA
995829,"PO BOX 75514","COLORADO SPRINGS","CO",80970,NA,NA,329,"PO BOX 75514, COLORADO SPRINGS, CO, 80970","No_Match",NA,NA,NA,NA
995830,"PO BOX 7553","HELENA","MT",59604,NA,NA,330,"PO BOX 7553, HELENA, MT, 59604","No_Match",NA,NA,NA,NA
995831,"PO BOX 7557","CHARLESTON","WV",25356,NA,NA,331,"PO BOX 7557, CHARLESTON, WV, 25356","No_Match",NA,NA,NA,NA
995832,"PO BOX 7558","INCLINE VILLAGE","NV",89450,NA,NA,332,"PO BOX 7558, INCLINE VILLAGE, NV, 89450","No_Match",NA,NA,NA,NA
995833,"PO BOX 756","ANAHUAC","TX",77514,NA,NA,333,"PO BOX 756, ANAHUAC, TX, 77514","No_Match",NA,NA,NA,NA
995834,"PO BOX 756","AROMAS","CA",95004,NA,NA,334,"PO BOX 756, AROMAS, CA, 95004","No_Match",NA,NA,NA,NA
995835,"PO BOX 756","CARLIN","NV",89822,NA,NA,335,"PO BOX 756, CARLIN, NV, 89822","No_Match",NA,NA,NA,NA
995836,"PO BOX 756","CRESTLINE","CA",92325,NA,NA,336,"PO BOX 756, CRESTLINE, CA, 92325","No_Match",NA,NA,NA,NA
995837,"PO BOX 756","ELDON","MO",65026,NA,NA,337,"PO BOX 756, ELDON, MO, 65026","No_Match",NA,NA,NA,NA
995838,"PO BOX 756","ELIZABETHTOWN","KY",42701,NA,NA,338,"PO BOX 756, ELIZABETHTOWN, KY, 42701","No_Match",NA,NA,NA,NA
995839,"PO BOX 756","FORT ASHBY","WV",26719,NA,NA,339,"PO BOX 756, FORT ASHBY, WV, 26719","No_Match",NA,NA,NA,NA
995840,"PO BOX 756","HALEIWA","HI",96712,NA,NA,340,"PO BOX 756, HALEIWA, HI, 96712","No_Match",NA,NA,NA,NA
995841,"PO BOX 756","MARSHALLTOWN","IA",50158,NA,NA,341,"PO BOX 756, MARSHALLTOWN, IA, 50158","No_Match",NA,NA,NA,NA
995842,"PO BOX 756","ST. THOMAS","VI",804,NA,NA,342,"PO BOX 756, ST. THOMAS, VI, 804","No_Match",NA,NA,NA,NA
995843,"PO BOX 756","TRENT","SD",57065,NA,NA,343,"PO BOX 756, TRENT, SD, 57065","No_Match",NA,NA,NA,NA
995844,"PO BOX 756","WARSAW","IN",46580,NA,NA,344,"PO BOX 756, WARSAW, IN, 46580","No_Match",NA,NA,NA,NA
995845,"PO BOX 7561","MONROE","LA",71211,NA,NA,345,"PO BOX 7561, MONROE, LA, 71211","No_Match",NA,NA,NA,NA
995846,"PO BOX 7563","BLOOMFIELD","CT",6002,NA,NA,346,"PO BOX 7563, BLOOMFIELD, CT, 6002","No_Match",NA,NA,NA,NA
995847,"PO BOX 7564","BEVERLY HILLS","CA",90212,NA,NA,347,"PO BOX 7564, BEVERLY HILLS, CA, 90212","No_Match",NA,NA,NA,NA
995848,"PO BOX 7564","BURBANK","CA",91505,NA,NA,348,"PO BOX 7564, BURBANK, CA, 91505","No_Match",NA,NA,NA,NA
995849,"PO BOX 7564","PO BOX 7564","CA",91505,NA,NA,349,"PO BOX 7564, PO BOX 7564, CA, 91505","No_Match",NA,NA,NA,NA
995850,"PO BOX 75666","HONOLULU","HI",96836,NA,NA,350,"PO BOX 75666, HONOLULU, HI, 96836","No_Match",NA,NA,NA,NA
995851,"PO BOX 757","BLACK RIVER FALLS","WI",54615,NA,NA,351,"PO BOX 757, BLACK RIVER FALLS, WI, 54615","No_Match",NA,NA,NA,NA
995852,"PO BOX 757","CIRCLEVILLE","OH",43113,NA,NA,352,"PO BOX 757, CIRCLEVILLE, OH, 43113","No_Match",NA,NA,NA,NA
995853,"PO BOX 757","HAPPY CAMP","CA",96039,NA,NA,353,"PO BOX 757, HAPPY CAMP, CA, 96039","No_Match",NA,NA,NA,NA
995854,"PO BOX 757","IDAHO SPRINGS","CO",80452,NA,NA,354,"PO BOX 757, IDAHO SPRINGS, CO, 80452","No_Match",NA,NA,NA,NA
995855,"PO BOX 757","PORT AUSTIN","MI",48467,NA,NA,355,"PO BOX 757, PORT AUSTIN, MI, 48467","No_Match",NA,NA,NA,NA
995856,"PO BOX 757","SALIDA","CO",81201,NA,NA,356,"PO BOX 757, SALIDA, CO, 81201","No_Match",NA,NA,NA,NA
995857,"PO BOX 7571","GOODYEAR","AZ",85338,NA,NA,357,"PO BOX 7571, GOODYEAR, AZ, 85338","No_Match",NA,NA,NA,NA
995858,"PO BOX 7571","SARASOTA","FL",34278,NA,NA,358,"PO BOX 7571, SARASOTA, FL, 34278","No_Match",NA,NA,NA,NA
995859,"PO BOX 75719","TAMPA","FL",33675,NA,NA,359,"PO BOX 75719, TAMPA, FL, 33675","No_Match",NA,NA,NA,NA
995860,"PO BOX 7573","TACOMA","WA",98417,NA,NA,360,"PO BOX 7573, TACOMA, WA, 98417","No_Match",NA,NA,NA,NA
995861,"PO BOX 75747 PL868 BLK 216 NTINDA","KAMPALA, UGANDA",NA,NA,NA,NA,361,"PO BOX 75747 PL868 BLK 216 NTINDA, KAMPALA, UGANDA, , ","No_Match",NA,NA,NA,NA
995862,"PO BOX 7577","LONG BEACH","CA",90807,NA,NA,362,"PO BOX 7577, LONG BEACH, CA, 90807","No_Match",NA,NA,NA,NA
995863,"PO BOX 75797","LOS ANGELES","CA",90075,NA,NA,363,"PO BOX 75797, LOS ANGELES, CA, 90075","No_Match",NA,NA,NA,NA
995864,"PO BOX 758","CANTON","TX",75103,NA,NA,364,"PO BOX 758, CANTON, TX, 75103","No_Match",NA,NA,NA,NA
995865,"PO BOX 758","LOUISBURG","NC",27549,NA,NA,365,"PO BOX 758, LOUISBURG, NC, 27549","No_Match",NA,NA,NA,NA
995866,"PO BOX 758","MONTICELLO","FL",32345,NA,NA,366,"PO BOX 758, MONTICELLO, FL, 32345","No_Match",NA,NA,NA,NA
995867,"PO BOX 758","RAYMOND","MS",39154,NA,NA,367,"PO BOX 758, RAYMOND, MS, 39154","No_Match",NA,NA,NA,NA
995868,"PO BOX 758","SALTVILLE","VA",24370,NA,NA,368,"PO BOX 758, SALTVILLE, VA, 24370","No_Match",NA,NA,NA,NA
995869,"PO BOX 7582","CHRISTIANSTED","VI",823,NA,NA,369,"PO BOX 7582, CHRISTIANSTED, VI, 823","No_Match",NA,NA,NA,NA
995870,"PO BOX 7589","JACKSONVILLE","NC",28546,NA,NA,370,"PO BOX 7589, JACKSONVILLE, NC, 28546","No_Match",NA,NA,NA,NA
995871,"PO BOX 759","AGUANGA","CA",92536,NA,NA,371,"PO BOX 759, AGUANGA, CA, 92536","No_Match",NA,NA,NA,NA
995872,"PO BOX 759","BONSALL","CA",92003,NA,NA,372,"PO BOX 759, BONSALL, CA, 92003","No_Match",NA,NA,NA,NA
995873,"PO BOX 759","FORT MYERS","FL",33902,NA,NA,373,"PO BOX 759, FORT MYERS, FL, 33902","No_Match",NA,NA,NA,NA
995874,"PO BOX 759","KAILUA-KONA","HI",96745,NA,NA,374,"PO BOX 759, KAILUA-KONA, HI, 96745","No_Match",NA,NA,NA,NA
995875,"PO BOX 759","TEKOA","WA",99033,NA,NA,375,"PO BOX 759, TEKOA, WA, 99033","No_Match",NA,NA,NA,NA
995876,"PO BOX 7593","PHOENIX","AZ",85011,NA,NA,376,"PO BOX 7593, PHOENIX, AZ, 85011","No_Match",NA,NA,NA,NA
995877,"PO BOX 7593","PUEBLO","CO",81007,NA,NA,377,"PO BOX 7593, PUEBLO, CO, 81007","No_Match",NA,NA,NA,NA
995878,"PO BOX 7595","VISALIA","CA",93290,NA,NA,378,"PO BOX 7595, VISALIA, CA, 93290","No_Match",NA,NA,NA,NA
995879,"PO BOX 7596","COLORADO SPRINGS","CO",80933,NA,NA,379,"PO BOX 7596, COLORADO SPRINGS, CO, 80933","No_Match",NA,NA,NA,NA
995880,"PO BOX 76","BLUEFIELD","VA",24605,NA,NA,380,"PO BOX 76, BLUEFIELD, VA, 24605","No_Match",NA,NA,NA,NA
995881,"PO BOX 76","BROWNSVILLE","VT",5071,NA,NA,381,"PO BOX 76, BROWNSVILLE, VT, 5071","No_Match",NA,NA,NA,NA
995882,"PO BOX 76","CENTER HARBOR","NH",3226,NA,NA,382,"PO BOX 76, CENTER HARBOR, NH, 3226","No_Match",NA,NA,NA,NA
995883,"PO BOX 76","CHANNING","TX",79018,NA,NA,383,"PO BOX 76, CHANNING, TX, 79018","No_Match",NA,NA,NA,NA
995884,"PO BOX 76","COLUMBIAVILLE","NY",12050,NA,NA,384,"PO BOX 76, COLUMBIAVILLE, NY, 12050","No_Match",NA,NA,NA,NA
995885,"PO BOX 76","CRAIG","AK",99921,NA,NA,385,"PO BOX 76, CRAIG, AK, 99921","No_Match",NA,NA,NA,NA
995886,"PO BOX 76","EDGARD","LA",70049,NA,NA,386,"PO BOX 76, EDGARD, LA, 70049","No_Match",NA,NA,NA,NA
995887,"PO BOX 76","ELDRIDGE","IA",52748,NA,NA,387,"PO BOX 76, ELDRIDGE, IA, 52748","No_Match",NA,NA,NA,NA
995888,"PO BOX 76","ELDRIDGE","IA",52749,NA,NA,388,"PO BOX 76, ELDRIDGE, IA, 52749","No_Match",NA,NA,NA,NA
995889,"PO BOX 76","FELTON","PA",17322,NA,NA,389,"PO BOX 76, FELTON, PA, 17322","No_Match",NA,NA,NA,NA
995890,"PO BOX 76","FERRIS","TX",75125,NA,NA,390,"PO BOX 76, FERRIS, TX, 75125","No_Match",NA,NA,NA,NA
995891,"PO BOX 76","FOYIL","OK",74031,NA,NA,391,"PO BOX 76, FOYIL, OK, 74031","No_Match",NA,NA,NA,NA
995892,"PO BOX 76","GREAT CACAPON","WV",25422,NA,NA,392,"PO BOX 76, GREAT CACAPON, WV, 25422","No_Match",NA,NA,NA,NA
995893,"PO BOX 76","ITHACA","NY",14851,NA,NA,393,"PO BOX 76, ITHACA, NY, 14851","No_Match",NA,NA,NA,NA
995894,"PO BOX 76","JOHNSON","VT",5656,NA,NA,394,"PO BOX 76, JOHNSON, VT, 5656","No_Match",NA,NA,NA,NA
995895,"PO BOX 76","LIVINGSTON MANOR","NY",12758,NA,NA,395,"PO BOX 76, LIVINGSTON MANOR, NY, 12758","No_Match",NA,NA,NA,NA
995896,"PO BOX 76","LOST CITY","WV",26810,NA,NA,396,"PO BOX 76, LOST CITY, WV, 26810","No_Match",NA,NA,NA,NA
995897,"PO BOX 76","LOWER WATERFORD","VT",5848,NA,NA,397,"PO BOX 76, LOWER WATERFORD, VT, 5848","No_Match",NA,NA,NA,NA
995898,"PO BOX 76","MARINETTE","WI",54143,NA,NA,398,"PO BOX 76, MARINETTE, WI, 54143","No_Match",NA,NA,NA,NA
995899,"PO BOX 76","MARLOW","NH",3456,NA,NA,399,"PO BOX 76, MARLOW, NH, 3456","No_Match",NA,NA,NA,NA
995900,"PO BOX 76","MCMINNVILLE","OR",97128,NA,NA,400,"PO BOX 76, MCMINNVILLE, OR, 97128","No_Match",NA,NA,NA,NA
995901,"PO BOX 76","ORACLE","AZ",85623,NA,NA,401,"PO BOX 76, ORACLE, AZ, 85623","No_Match",NA,NA,NA,NA
995902,"PO BOX 76","PONTOTOC","MS",38863,NA,NA,402,"PO BOX 76, PONTOTOC, MS, 38863","No_Match",NA,NA,NA,NA
995903,"PO BOX 76","ROGERS","TX",76569,NA,NA,403,"PO BOX 76, ROGERS, TX, 76569","No_Match",NA,NA,NA,NA
995904,"PO BOX 76","SIKES","LA",71473,NA,NA,404,"PO BOX 76, SIKES, LA, 71473","No_Match",NA,NA,NA,NA
995905,"PO BOX 76","SPEARVILLE","KS",67876,NA,NA,405,"PO BOX 76, SPEARVILLE, KS, 67876","No_Match",NA,NA,NA,NA
995906,"PO BOX 76","UNIONTOWN","PA",15401,NA,NA,406,"PO BOX 76, UNIONTOWN, PA, 15401","No_Match",NA,NA,NA,NA
995907,"PO BOX 76","VALATIE","NY",12184,NA,NA,407,"PO BOX 76, VALATIE, NY, 12184","No_Match",NA,NA,NA,NA
995908,"PO BOX 76","WADDINGTON","NY",13694,NA,NA,408,"PO BOX 76, WADDINGTON, NY, 13694","No_Match",NA,NA,NA,NA
995909,"PO BOX 76","WINNETT","MT",59087,NA,NA,409,"PO BOX 76, WINNETT, MT, 59087","No_Match",NA,NA,NA,NA
995910,"PO BOX 760","CHESTER","VT",5143,NA,NA,410,"PO BOX 760, CHESTER, VT, 5143","No_Match",NA,NA,NA,NA
995911,"PO BOX 760","CLOVIS","NM",88101,NA,NA,411,"PO BOX 760, CLOVIS, NM, 88101","No_Match",NA,NA,NA,NA
995912,"PO BOX 760","GORDON","GA",31031,NA,NA,412,"PO BOX 760, GORDON, GA, 31031","No_Match",NA,NA,NA,NA
995913,"PO BOX 760","LOS GATOS","CA",95031,NA,NA,413,"PO BOX 760, LOS GATOS, CA, 95031","No_Match",NA,NA,NA,NA
995914,"PO BOX 760","NYACK","NY",10960,NA,NA,414,"PO BOX 760, NYACK, NY, 10960","No_Match",NA,NA,NA,NA
995915,"PO BOX 760","RATHDRUM","ID",83858,NA,NA,415,"PO BOX 760, RATHDRUM, ID, 83858","No_Match",NA,NA,NA,NA
995916,"PO BOX 760","WOODBRIDGE","NJ",7095,NA,NA,416,"PO BOX 760, WOODBRIDGE, NJ, 7095","No_Match",NA,NA,NA,NA
995917,"PO BOX 760041","TRIDELL","UT",84076,NA,NA,417,"PO BOX 760041, TRIDELL, UT, 84076","No_Match",NA,NA,NA,NA
995918,"PO BOX 760070","SOUTHFIELD","MI",48076,NA,NA,418,"PO BOX 760070, SOUTHFIELD, MI, 48076","No_Match",NA,NA,NA,NA
995919,"PO BOX 7601","ROCKY MOUNT","NC",27804,NA,NA,419,"PO BOX 7601, ROCKY MOUNT, NC, 27804","No_Match",NA,NA,NA,NA
995920,"PO BOX 760144","LATHRUP VILLAGE","MI",48076,NA,NA,420,"PO BOX 760144, LATHRUP VILLAGE, MI, 48076","No_Match",NA,NA,NA,NA
995921,"PO BOX 7603","LAKELAND","FL",33807,NA,NA,421,"PO BOX 7603, LAKELAND, FL, 33807","No_Match",NA,NA,NA,NA
995922,"PO BOX 7604","GAITHERSBURG","MD",20898,NA,NA,422,"PO BOX 7604, GAITHERSBURG, MD, 20898","No_Match",NA,NA,NA,NA
995923,"PO BOX 7605","SANTA ROSA","CA",95407,NA,NA,423,"PO BOX 7605, SANTA ROSA, CA, 95407","No_Match",NA,NA,NA,NA
995924,"PO BOX 76051","ST PETERSBURG","FL",33734,NA,NA,424,"PO BOX 76051, ST PETERSBURG, FL, 33734","No_Match",NA,NA,NA,NA
995925,"PO BOX 760588","LATHRUP VILLAGE","MI",48076,NA,NA,425,"PO BOX 760588, LATHRUP VILLAGE, MI, 48076","No_Match",NA,NA,NA,NA
995926,"PO BOX 760637","SAN ANTONIO","TX",78245,NA,NA,426,"PO BOX 760637, SAN ANTONIO, TX, 78245","No_Match",NA,NA,NA,NA
995927,"PO BOX 76082","TAMPA","FL",33765,NA,NA,427,"PO BOX 76082, TAMPA, FL, 33765","No_Match",NA,NA,NA,NA
995928,"PO BOX 7609","TYLER","TX",75711,NA,NA,428,"PO BOX 7609, TYLER, TX, 75711","No_Match",NA,NA,NA,NA
995929,"PO BOX 761","ATHENA","OR",97813,NA,NA,429,"PO BOX 761, ATHENA, OR, 97813","No_Match",NA,NA,NA,NA
995930,"PO BOX 761","BIG LAKE","MN",55309,NA,NA,430,"PO BOX 761, BIG LAKE, MN, 55309","No_Match",NA,NA,NA,NA
995931,"PO BOX 761","CLARKS SUMMIT","PA",18411,NA,NA,431,"PO BOX 761, CLARKS SUMMIT, PA, 18411","No_Match",NA,NA,NA,NA
995932,"PO BOX 761","CRESTONE","CO",81131,NA,NA,432,"PO BOX 761, CRESTONE, CO, 81131","No_Match",NA,NA,NA,NA
995933,"PO BOX 761","CUPERTINO","CA",95014,NA,NA,433,"PO BOX 761, CUPERTINO, CA, 95014","No_Match",NA,NA,NA,NA
995934,"PO BOX 761","DELTA JUNCTION","AK",99737,NA,NA,434,"PO BOX 761, DELTA JUNCTION, AK, 99737","No_Match",NA,NA,NA,NA
995935,"PO BOX 761","DUNN","NC",28334,NA,NA,435,"PO BOX 761, DUNN, NC, 28334","No_Match",NA,NA,NA,NA
995936,"PO BOX 761","LAWAI","HI",96765,NA,NA,436,"PO BOX 761, LAWAI, HI, 96765","No_Match",NA,NA,NA,NA
995937,"PO BOX 761","ONLEY","VA",23418,NA,NA,437,"PO BOX 761, ONLEY, VA, 23418","No_Match",NA,NA,NA,NA
995938,"PO BOX 761","PALISADE","CO",81526,NA,NA,438,"PO BOX 761, PALISADE, CO, 81526","No_Match",NA,NA,NA,NA
995939,"PO BOX 761","RAYMORE","MO",64083,NA,NA,439,"PO BOX 761, RAYMORE, MO, 64083","No_Match",NA,NA,NA,NA
995940,"PO BOX 761","SPRINGTOWN","TX",76082,NA,NA,440,"PO BOX 761, SPRINGTOWN, TX, 76082","No_Match",NA,NA,NA,NA
995941,"PO BOX 761","VALATIE","NY",12184,NA,NA,441,"PO BOX 761, VALATIE, NY, 12184","No_Match",NA,NA,NA,NA
995942,"PO BOX 761","WAKEFIELD","RI",2880,NA,NA,442,"PO BOX 761, WAKEFIELD, RI, 2880","No_Match",NA,NA,NA,NA
995943,"PO BOX 7611","WESTCHESTER","IL",60154,NA,NA,443,"PO BOX 7611, WESTCHESTER, IL, 60154","No_Match",NA,NA,NA,NA
995944,"PO BOX 7612","GURNEE","IL",60031,NA,NA,444,"PO BOX 7612, GURNEE, IL, 60031","No_Match",NA,NA,NA,NA
995945,"PO BOX 7612","ROCKY MOUNT","NC",27804,NA,NA,445,"PO BOX 7612, ROCKY MOUNT, NC, 27804","No_Match",NA,NA,NA,NA
995946,"PO BOX 76126","MILWAUKEE","WI",53216,NA,NA,446,"PO BOX 76126, MILWAUKEE, WI, 53216","No_Match",NA,NA,NA,NA
995947,"PO BOX 7617","PONCE","PR",732,NA,NA,447,"PO BOX 7617, PONCE, PR, 732","No_Match",NA,NA,NA,NA
995948,"PO BOX 761869","SAN ANTONIO","TX",78245,NA,NA,448,"PO BOX 761869, SAN ANTONIO, TX, 78245","No_Match",NA,NA,NA,NA
995949,"PO BOX 7619","RALEIGH","NC",27695,NA,NA,449,"PO BOX 7619, RALEIGH, NC, 27695","No_Match",NA,NA,NA,NA
995950,"PO BOX 762","ABERDEEN","WA",98563,NA,NA,450,"PO BOX 762, ABERDEEN, WA, 98563","No_Match",NA,NA,NA,NA
995951,"PO BOX 762","HENDERSON","TX",75653,NA,NA,451,"PO BOX 762, HENDERSON, TX, 75653","No_Match",NA,NA,NA,NA
995952,"PO BOX 762","MISSOURI CITY","TX",77459,NA,NA,452,"PO BOX 762, MISSOURI CITY, TX, 77459","No_Match",NA,NA,NA,NA
995953,"PO BOX 762","OJAI","CA",93024,NA,NA,453,"PO BOX 762, OJAI, CA, 93024","No_Match",NA,NA,NA,NA
995954,"PO BOX 762","PETERSBURG","AK",99833,NA,NA,454,"PO BOX 762, PETERSBURG, AK, 99833","No_Match",NA,NA,NA,NA
995955,"PO BOX 762","PRAIRIE GROVE","AR",72753,NA,NA,455,"PO BOX 762, PRAIRIE GROVE, AR, 72753","No_Match",NA,NA,NA,NA
995956,"PO BOX 762","REFUGIO","TX",78377,NA,NA,456,"PO BOX 762, REFUGIO, TX, 78377","No_Match",NA,NA,NA,NA
995957,"PO BOX 762","SILVERTON","CO",81433,NA,NA,457,"PO BOX 762, SILVERTON, CO, 81433","No_Match",NA,NA,NA,NA
995958,"PO BOX 762353","SAN ANTONIO","TX",78245,NA,NA,458,"PO BOX 762353, SAN ANTONIO, TX, 78245","No_Match",NA,NA,NA,NA
995959,"PO BOX 762462","SAN ANTONIO","TX",78245,NA,NA,459,"PO BOX 762462, SAN ANTONIO, TX, 78245","No_Match",NA,NA,NA,NA
995960,"PO BOX 7625","CHICAGO","IL",60680,NA,NA,460,"PO BOX 7625, CHICAGO, IL, 60680","No_Match",NA,NA,NA,NA
995961,"PO BOX 76260","SANDY SPRINGS","GA",30358,NA,NA,461,"PO BOX 76260, SANDY SPRINGS, GA, 30358","No_Match",NA,NA,NA,NA
995962,"PO BOX 763","BIG SANDY","TX",75755,NA,NA,462,"PO BOX 763, BIG SANDY, TX, 75755","No_Match",NA,NA,NA,NA
995963,"PO BOX 763","BUCHANAN","GA",30113,NA,NA,463,"PO BOX 763, BUCHANAN, GA, 30113","No_Match",NA,NA,NA,NA
995964,"PO BOX 763","HEREFORD","AZ",85615,NA,NA,464,"PO BOX 763, HEREFORD, AZ, 85615","No_Match",NA,NA,NA,NA
995965,"PO BOX 763","JOPLIN","MO",64802,NA,NA,465,"PO BOX 763, JOPLIN, MO, 64802","No_Match",NA,NA,NA,NA
995966,"PO BOX 763","KIRTLAND","NM",87417,NA,NA,466,"PO BOX 763, KIRTLAND, NM, 87417","No_Match",NA,NA,NA,NA
995967,"PO BOX 763","SHEFFIELD","AL",35660,NA,NA,467,"PO BOX 763, SHEFFIELD, AL, 35660","No_Match",NA,NA,NA,NA
995968,"PO BOX 763","STANHOPE","NJ",7874,NA,NA,468,"PO BOX 763, STANHOPE, NJ, 7874","No_Match",NA,NA,NA,NA
995969,"PO BOX 763","SUSANVILLE","CA",96130,NA,NA,469,"PO BOX 763, SUSANVILLE, CA, 96130","No_Match",NA,NA,NA,NA
995970,"PO BOX 763085","DALLAS","TX",75376,NA,NA,470,"PO BOX 763085, DALLAS, TX, 75376","No_Match",NA,NA,NA,NA
995971,"PO BOX 763125","DALLAS","TX",75376,NA,NA,471,"PO BOX 763125, DALLAS, TX, 75376","No_Match",NA,NA,NA,NA
995972,"PO BOX 7633","DENVER","CO",80207,NA,NA,472,"PO BOX 7633, DENVER, CO, 80207","No_Match",NA,NA,NA,NA
995973,"PO BOX 7633","SAN DIEGO","CA",92167,NA,NA,473,"PO BOX 7633, SAN DIEGO, CA, 92167","No_Match",NA,NA,NA,NA
995974,"PO BOX 7633","SAN JOSE","CA",95150,NA,NA,474,"PO BOX 7633, SAN JOSE, CA, 95150","No_Match",NA,NA,NA,NA
995975,"PO BOX 763476","DALLAS","TX",75376,NA,NA,475,"PO BOX 763476, DALLAS, TX, 75376","No_Match",NA,NA,NA,NA
995976,"PO BOX 763596","DALLAS","TX",75376,NA,NA,476,"PO BOX 763596, DALLAS, TX, 75376","No_Match",NA,NA,NA,NA
995977,"PO BOX 763596","DALLAS","TX",76376,NA,NA,477,"PO BOX 763596, DALLAS, TX, 76376","No_Match",NA,NA,NA,NA
995978,"PO BOX 7636","COLUMBIA","SC",29202,NA,NA,478,"PO BOX 7636, COLUMBIA, SC, 29202","No_Match",NA,NA,NA,NA
995979,"PO BOX 763661","DALLAS","TX",75376,NA,NA,479,"PO BOX 763661, DALLAS, TX, 75376","No_Match",NA,NA,NA,NA
995980,"PO BOX 764","AMITY","OR",97101,NA,NA,480,"PO BOX 764, AMITY, OR, 97101","No_Match",NA,NA,NA,NA
995981,"PO BOX 764","BENTONVILLE","AR",72712,NA,NA,481,"PO BOX 764, BENTONVILLE, AR, 72712","No_Match",NA,NA,NA,NA
995982,"PO BOX 764","CHIMAYO","NM",87522,NA,NA,482,"PO BOX 764, CHIMAYO, NM, 87522","No_Match",NA,NA,NA,NA
995983,"PO BOX 764","CLYDE","NC",28721,NA,NA,483,"PO BOX 764, CLYDE, NC, 28721","No_Match",NA,NA,NA,NA
995984,"PO BOX 764","DAVENPORT","WA",99122,NA,NA,484,"PO BOX 764, DAVENPORT, WA, 99122","No_Match",NA,NA,NA,NA
995985,"PO BOX 764","DECATUR","TX",76234,NA,NA,485,"PO BOX 764, DECATUR, TX, 76234","No_Match",NA,NA,NA,NA
995986,"PO BOX 764","HULBERT","OK",74441,NA,NA,486,"PO BOX 764, HULBERT, OK, 74441","No_Match",NA,NA,NA,NA
995987,"PO BOX 764","ITTA BENA","MS",38941,NA,NA,487,"PO BOX 764, ITTA BENA, MS, 38941","No_Match",NA,NA,NA,NA
995988,"PO BOX 764","LAKE CITY","FL",32056,NA,NA,488,"PO BOX 764, LAKE CITY, FL, 32056","No_Match",NA,NA,NA,NA
995989,"PO BOX 764","MCLOUD","OK",74851,NA,NA,489,"PO BOX 764, MCLOUD, OK, 74851","No_Match",NA,NA,NA,NA
995990,"PO BOX 764","MEADVIEW","AZ",86444,NA,NA,490,"PO BOX 764, MEADVIEW, AZ, 86444","No_Match",NA,NA,NA,NA
995991,"PO BOX 764","POCONO SUMMIT","PA",18346,NA,NA,491,"PO BOX 764, POCONO SUMMIT, PA, 18346","No_Match",NA,NA,NA,NA
995992,"PO BOX 764","POULSBO","WA",98370,NA,NA,492,"PO BOX 764, POULSBO, WA, 98370","No_Match",NA,NA,NA,NA
995993,"PO BOX 764","RHINELANDER","WI",54501,NA,NA,493,"PO BOX 764, RHINELANDER, WI, 54501","No_Match",NA,NA,NA,NA
995994,"PO BOX 764","STONE MOUNTAIN","GA",30086,NA,NA,494,"PO BOX 764, STONE MOUNTAIN, GA, 30086","No_Match",NA,NA,NA,NA
995995,"PO BOX 764","WACO","TX",76708,NA,NA,495,"PO BOX 764, WACO, TX, 76708","No_Match",NA,NA,NA,NA
995996,"PO BOX 764","WESTMINSTER","CA",92684,NA,NA,496,"PO BOX 764, WESTMINSTER, CA, 92684","No_Match",NA,NA,NA,NA
995997,"PO BOX 764021","DALLAS","TX",75376,NA,NA,497,"PO BOX 764021, DALLAS, TX, 75376","No_Match",NA,NA,NA,NA
995998,"PO BOX 764301","DALLAS","TX",75376,NA,NA,498,"PO BOX 764301, DALLAS, TX, 75376","No_Match",NA,NA,NA,NA
995999,"PO BOX 764463","DALLAS","TX",75376,NA,NA,499,"PO BOX 764463, DALLAS, TX, 75376","No_Match",NA,NA,NA,NA
996000,"PO BOX 764993","DALLAS","TX",75376,NA,NA,500,"PO BOX 764993, DALLAS, TX, 75376","No_Match",NA,NA,NA,NA
