"ID","Address","City","State","Zip","lat","long","id","input_address","match_indicator","match_type","matched_address","tiger_line_id","tiger_side"
15501,"101 NORTH PARK STREET STE 220","TRAVERSE CITY","MI",49684,44.7641043830001,-85.618216181,1,"101 NORTH PARK STREET STE 220, TRAVERSE CITY, MI, 49684","Match","Exact","101 N PARK ST, TRAVERSE CITY, MI, 49684",145541082,"L"
15502,"101 NORTH RAILROAD STREET","PATOKA","IL",62875,38.7540587570001,-89.096153305,2,"101 NORTH RAILROAD STREET, PATOKA, IL, 62875","Match","Exact","101 N RAILROAD ST, PATOKA, IL, 62875",93045120,"L"
15503,"101 NORTH RIDGE STREET","JONESVILLE","NC",28642,36.2276443160001,-80.8287255449999,3,"101 NORTH RIDGE STREET, JONESVILLE, NC, 28642","Match","Non_Exact","101 RIDGE ST, JONESVILLE, NC, 28642",84739319,"R"
15504,"101 NORTH SCOTT","ELMO","MO",64445,40.51854417,-95.115144883,4,"101 NORTH SCOTT, ELMO, MO, 64445","Match","Non_Exact","101 N SCOTT ST, ELMO, MO, 64445",38554585,"L"
15505,"101 NORTH SHORE ROAD","GRAY","ME",4039,43.9453350700001,-70.3721362809999,5,"101 NORTH SHORE ROAD, GRAY, ME, 4039","Match","Exact","101 N SHORE RD, GRAY, ME, 04039",635191746,"L"
15506,"101 NORTH STAR ST NW","CARROLLTON","OH",44615,40.5913567750001,-81.094964622,6,"101 NORTH STAR ST NW, CARROLLTON, OH, 44615","Match","Exact","101 N STAR ST NW, CARROLLTON, OH, 44615",44188423,"R"
15507,"101 NORTH THIRD STREET","IRONTON","OH",45638,38.535517392,-82.685832889,7,"101 NORTH THIRD STREET, IRONTON, OH, 45638","Match","Exact","101 N 3RD ST, IRONTON, OH, 45638",55028401,"R"
15508,"101 NORTH UNION STREET","MONTGOMERY","AL",36130,32.37777104,-86.299704557,8,"101 NORTH UNION STREET, MONTGOMERY, AL, 36130","Match","Non_Exact","101 N UNION ST, MONTGOMERY, AL, 36104",1469512,"L"
15509,"101 NORTH WOLFE STREET APT 254","BALTIMORE","MD",21231,39.2931862720001,-76.590575716,9,"101 NORTH WOLFE STREET APT 254, BALTIMORE, MD, 21231","Match","Exact","101 N WOLFE ST, BALTIMORE, MD, 21231",206450781,"R"
15510,"101 NORTHCREST STREET","RIPLEY","TN",38063,35.7542239740001,-89.526934029,10,"101 NORTHCREST STREET, RIPLEY, TN, 38063","Match","Exact","101 NORTHCREST ST, RIPLEY, TN, 38063",624449192,"R"
15511,"101 NORTHWESTERN PARKWAY","LOUISVILLE","KY",40212,NA,NA,11,"101 NORTHWESTERN PARKWAY, LOUISVILLE, KY, 40212","No_Match",NA,NA,NA,NA
15512,"101 NORTHWOOD AVENUE","SILVER SPRING","MD",20901,39.027604943,-77.013495765,12,"101 NORTHWOOD AVENUE, SILVER SPRING, MD, 20901","Match","Exact","101 NORTHWOOD AVE, SILVER SPRING, MD, 20901",62065086,"R"
15513,"101 NORTHWOODS DRIVE","WHITE HOUSE","TN",37188,36.4470317440001,-86.668844217,13,"101 NORTHWOODS DRIVE, WHITE HOUSE, TN, 37188","Match","Exact","101 NORTHWOODS DR, WHITE HOUSE, TN, 37188",29788782,"L"
15514,"101 NW 1ST STREET","EVANSVILLE","IN",47708,37.970831709,-87.5750855489999,14,"101 NW 1ST STREET, EVANSVILLE, IN, 47708","Match","Exact","101 NW 1ST ST, EVANSVILLE, IN, 47708",39782431,"R"
15515,"101 NW 23RD COURT","GRIMES","IA",50111,41.7070982930001,-93.794857651,15,"101 NW 23RD COURT, GRIMES, IA, 50111","Match","Exact","101 NW 23RD CT, GRIMES, IA, 50111",640794673,"R"
15516,"101 NW 341 RD","WARRENSBURG","MO",64093,38.7795857500001,-93.808103258,16,"101 NW 341 RD, WARRENSBURG, MO, 64093","Match","Exact","101 NW 341ST RD, WARRENSBURG, MO, 64093",95341024,"R"
15517,"101 NW 47TH STREET","MIAMI","FL",33127,25.8184996100001,-80.197867639,17,"101 NW 47TH STREET, MIAMI, FL, 33127","Match","Exact","101 NW 47TH ST, MIAMI, FL, 33127",116007346,"R"
15518,"101 NW 63RD STREET","OKLAHOMA CITY","OK",73116,35.5368671960001,-97.516640224,18,"101 NW 63RD STREET, OKLAHOMA CITY, OK, 73116","Match","Exact","101 NW 63RD ST, OKLAHOMA CITY, OK, 73116",100433725,"R"
15519,"101 NW 73RD ST","BREMERTON","WA",98311,47.6291266580001,-122.652845883,19,"101 NW 73RD ST, BREMERTON, WA, 98311","Match","Exact","101 NW 73RD ST, BREMERTON, WA, 98311",187647530,"R"
15520,"101 NW 75TH STREET SUITE 1","GAINESVILLE","FL",32607,29.6540828290001,-82.422400146,20,"101 NW 75TH STREET SUITE 1, GAINESVILLE, FL, 32607","Match","Non_Exact","101 NW 75TH ST, GAINESVILLE, FL, 32607",650346533,"R"
15521,"101 NW FOURTH STREET ONS003","EVANSVILLE","IN",47708,NA,NA,21,"101 NW FOURTH STREET ONS003, EVANSVILLE, IN, 47708","Tie",NA,NA,NA,NA
15522,"101 NW FOURTH STREET","EVANSVILLE","IN",47708,37.9724848170001,-87.571825395,22,"101 NW FOURTH STREET, EVANSVILLE, IN, 47708","Match","Exact","101 NW 4TH ST, EVANSVILLE, IN, 47708",39782472,"R"
15523,"101 NWCR 0017","CORSICANA","TX",75110,NA,NA,23,"101 NWCR 0017, CORSICANA, TX, 75110","No_Match",NA,NA,NA,NA
15524,"101 OAK KNOLL DRIVE","OAKWOOD","OH",45419,39.706509323,-84.1720220999999,24,"101 OAK KNOLL DRIVE, OAKWOOD, OH, 45419","Match","Exact","101 OAK KNOLL DR, OAKWOOD, OH, 45419",143580113,"R"
15525,"101 OAK LEAF WAY","PEARL","MS",39208,32.2393848090001,-90.0428689999999,25,"101 OAK LEAF WAY, PEARL, MS, 39208","Match","Exact","101 OAK LEAF WAY, PEARL, MS, 39208",627509231,"L"
15526,"101 OAK ST N BOX 811","LESTER PRAIRIE","MN",55354,44.8860979740001,-94.0394805609999,26,"101 OAK ST N BOX 811, LESTER PRAIRIE, MN, 55354","Match","Exact","101 OAK ST N, LESTER PR, MN, 55354",36797294,"L"
15527,"101 OAK ST","PORTLAND","IN",47371,40.4343626410001,-84.9988519089999,27,"101 OAK ST, PORTLAND, IN, 47371","Match","Exact","101 OAK ST, PORTLAND, IN, 47371",604865865,"R"
15528,"101 OAKAWANA TRAIL","BLUE RIDGE","GA",30513,34.872260447,-84.341087694,28,"101 OAKAWANA TRAIL, BLUE RIDGE, GA, 30513","Match","Exact","101 OAKAWANA TRL, BLUE RIDGE, GA, 30513",635222138,"L"
15529,"101 OAKFORD CIRCLE","WAYNE","PA",19087,40.0385620710001,-75.405384624,29,"101 OAKFORD CIRCLE, WAYNE, PA, 19087","Match","Exact","101 OAKFORD CIR, WAYNE, PA, 19087",134865921,"L"
15530,"101 OAKHURST AVE","BLUEFIELD","WV",24701,37.2577214070001,-81.216473215,30,"101 OAKHURST AVE, BLUEFIELD, WV, 24701","Match","Exact","101 OAKHURST AVE, BLUEFIELD, WV, 24701",47705430,"L"
15531,"101 OAKLAND ST","ENGLEWOOD","NJ",7631,40.9045384840001,-73.987451885,31,"101 OAKLAND ST, ENGLEWOOD, NJ, 7631","Match","Exact","101 OAKLAND ST, ENGLEWOOD, NJ, 07631",64372829,"R"
15532,"101 OAKLAND WAY","FOUNTAIN INN","SC",29644,34.6939991140001,-82.198654714,32,"101 OAKLAND WAY, FOUNTAIN INN, SC, 29644","Match","Exact","101 OAKLAND WAY, FOUNTAIN INN, SC, 29644",38314171,"L"
15533,"101 OAKMONT DRIVE","LA PLACE","LA",70068,NA,NA,33,"101 OAKMONT DRIVE, LA PLACE, LA, 70068","No_Match",NA,NA,NA,NA
15534,"101 OAKRIDGE CIRCLE","OAK CREEK","CO",80467,40.2698284900001,-106.959112465,34,"101 OAKRIDGE CIRCLE, OAK CREEK, CO, 80467","Match","Non_Exact","101 OAK RIDGE CIR, OAK CREEK, CO, 80467",640078421,"L"
15535,"101 OAKRIDGE LN","HARDIN","IL",62047,39.149787114,-90.623619709,35,"101 OAKRIDGE LN, HARDIN, IL, 62047","Match","Exact","101 OAKRIDGE LN, HARDIN, IL, 62047",44696574,"L"
15536,"101 OBERON PLACE","MACON","GA",31210,32.8883654530001,-83.717292318,36,"101 OBERON PLACE, MACON, GA, 31210","Match","Exact","101 OBERON PL, MACON, GA, 31210",81093427,"L"
15537,"101 OCEAN GATE DRIVE","ATLANTIC BEACH","FL",32233,NA,NA,37,"101 OCEAN GATE DRIVE, ATLANTIC BEACH, FL, 32233","No_Match",NA,NA,NA,NA
15538,"101 OCEAN PARKWAY 1G","BROOKLYN","NY",11218,40.6479457300001,-73.974762938,38,"101 OCEAN PARKWAY 1G, BROOKLYN, NY, 11218","Match","Exact","101 OCEAN PKWY, BROOKLYN, NY, 11218",59080552,"L"
15539,"101 OCEAN PARKWAY APT 5G","BROOKLYN","NY",11218,40.6479457300001,-73.974762938,39,"101 OCEAN PARKWAY APT 5G, BROOKLYN, NY, 11218","Match","Exact","101 OCEAN PKWY, BROOKLYN, NY, 11218",59080552,"L"
15540,"101 OGDEN STREET","SARASOTA","FL",34242,27.3007222840001,-82.558661402,40,"101 OGDEN STREET, SARASOTA, FL, 34242","Match","Exact","101 OGDEN ST, SARASOTA, FL, 34242",16348236,"L"
15541,"101 OKLAHOMA DRIVE","DARLINGTON","SC",29532,34.317786912,-79.854260766,41,"101 OKLAHOMA DRIVE, DARLINGTON, SC, 29532","Match","Exact","101 OKLAHOMA DR, DARLINGTON, SC, 29532",78398827,"L"
15542,"101 OLD HOUSE WAY","SIMPSONVILLE","SC",29681,34.814267365,-82.2270617089999,42,"101 OLD HOUSE WAY, SIMPSONVILLE, SC, 29681","Match","Exact","101 OLD HOUSE WAY, SIMPSONVILLE, SC, 29681",38368671,"L"
15543,"101 OLD MAIN STREET","BRADENTON","FL",34205,27.4664319080001,-82.5709010419999,43,"101 OLD MAIN STREET, BRADENTON, FL, 34205","Match","Non_Exact","101 MAIN DR, BRADENTON, FL, 34205",16286092,"R"
15544,"101 OLD MAMARONECK ROAD","WHITE PLAINS","NY",10605,41.019276312,-73.760888119,44,"101 OLD MAMARONECK ROAD, WHITE PLAINS, NY, 10605","Match","Exact","101 OLD MAMARONECK RD, WHITE PLAINS, NY, 10605",624538102,"L"
15545,"101 OLD NISKAYUNA RD","ALBANY","NY",12211,42.7173326760001,-73.7673931849999,45,"101 OLD NISKAYUNA RD, ALBANY, NY, 12211","Match","Exact","101 OLD NISKAYUNA RD, ALBANY, NY, 12211",18306743,"R"
15546,"101 OLD PARIS MOUNTAIN ROAD","GREENVILLE","SC",29609,34.8732765300001,-82.4019291659999,46,"101 OLD PARIS MOUNTAIN ROAD, GREENVILLE, SC, 29609","Match","Exact","101 OLD PARIS MOUNTAIN RD, GREENVILLE, SC, 29609",647220533,"L"
15547,"101 OLD SETTLER RD","KYLE","TX",78640,29.973730806,-97.896668489,47,"101 OLD SETTLER RD, KYLE, TX, 78640","Match","Exact","101 OLD SETTLER RD, KYLE, TX, 78640",624280865,"R"
15548,"101 OLD SHORT HILLS ROAD PH 2","WEST ORANGE","NJ",7052,NA,NA,48,"101 OLD SHORT HILLS ROAD PH 2, WEST ORANGE, NJ, 7052","No_Match",NA,NA,NA,NA
15549,"101 OLD STONE WAY","WEYMOUTH","MA",2189,42.199939584,-70.928512758,49,"101 OLD STONE WAY, WEYMOUTH, MA, 2189","Match","Exact","101 OLD STONE WAY, WEYMOUTH, MA, 02189",87274438,"R"
15550,"101 OLIVE STREET","HAUGHTON","LA",71037,32.5720712500001,-93.6287288939999,50,"101 OLIVE STREET, HAUGHTON, LA, 71037","Match","Exact","101 OLIVE ST, HAUGHTON, LA, 71037",604719185,"L"
15551,"101 ONONDAGO TRAIL","MEDFORD","NJ",8055,39.8601767420001,-74.815757011,51,"101 ONONDAGO TRAIL, MEDFORD, NJ, 8055","Match","Exact","101 ONONDAGO TRL, MEDFORD, NJ, 08055",134039091,"L"
15552,"101 ONONDOGA TRAIL","MEDFORD LAKES","NJ",8055,39.8601767420001,-74.815757011,52,"101 ONONDOGA TRAIL, MEDFORD LAKES, NJ, 8055","Match","Non_Exact","101 ONONDAGO TRL, MEDFORD LAKES, NJ, 08055",134039091,"L"
15553,"101 OPEN RANGE LN","SIMPSONVILLE","SC",29681,34.7229902220001,-82.23676603,53,"101 OPEN RANGE LN, SIMPSONVILLE, SC, 29681","Match","Exact","101 OPEN RANGE LN, SIMPSONVILLE, SC, 29681",647230629,"L"
15554,"101 ORANGE STREET APT 210","NEW HAVEN","CT",6510,41.305096744,-72.9245249799999,54,"101 ORANGE STREET APT 210, NEW HAVEN, CT, 6510","Match","Exact","101 ORANGE ST, NEW HAVEN, CT, 06510",3701352,"R"
15555,"101 ORANGE STREET","STAMFORD","CT",6902,41.054521639,-73.517243908,55,"101 ORANGE STREET, STAMFORD, CT, 6902","Match","Exact","101 ORANGE ST, STAMFORD, CT, 06902",3246970,"R"
15556,"101 ORCHARD AVE","KINGWOOD","WV",26537,39.4658523840001,-79.67288101,56,"101 ORCHARD AVE, KINGWOOD, WV, 26537","Match","Exact","101 ORCHARD AVE, KINGWOOD, WV, 26537",51498862,"L"
15557,"101 ORCHARD CT","ROCKY MOUNT","NC",27804,35.9746615170001,-77.871958149,57,"101 ORCHARD CT, ROCKY MOUNT, NC, 27804","Match","Exact","101 ORCHARD CT, ROCKY MOUNT, NC, 27804",90391046,"R"
15558,"101 ORCHARD LANE","ALEXANDRIA","KY",41001,38.965205913,-84.3894765909999,58,"101 ORCHARD LANE, ALEXANDRIA, KY, 41001","Match","Exact","101 ORCHARD LN, ALEXANDRIA, KY, 41001",104450442,"R"
15559,"101 ORCHARD PARK BLVD","ROCHESTER","NY",14609,43.178097135,-77.533972403,59,"101 ORCHARD PARK BLVD, ROCHESTER, NY, 14609","Match","Exact","101 ORCHARD PARK BLVD, ROCHESTER, NY, 14609",14542552,"R"
15560,"101 ORCHARD ROAD","CUMBERLAND","ME",4021,43.835657478,-70.3006673099999,60,"101 ORCHARD ROAD, CUMBERLAND, ME, 4021","Match","Exact","101 ORCHARD RD, CUMBERLAND, ME, 04021",624067166,"R"
15561,"101 ORION COVE","KYLE","TX",78640,29.997209786,-97.852270544,61,"101 ORION COVE, KYLE, TX, 78640","Match","Exact","101 ORION COVE, KYLE, TX, 78640",63845108,"L"
15562,"101 ORO FINO","RED RIVER","NM",87558,36.7115978190001,-105.415153697,62,"101 ORO FINO, RED RIVER, NM, 87558","Match","Non_Exact","101 ORO FINO ST, RED RIVER, NM, 87558",635542056,"R"
15563,"101 OSAGE RD","BRIGHTON","IL",62012,39.0335369150001,-90.1090528129999,63,"101 OSAGE RD, BRIGHTON, IL, 62012","Match","Exact","101 OSAGE RD, BRIGHTON, IL, 62012",97943016,"R"
15564,"101 OSPREY WAY","NEWPORT NEWS","VA",23608,37.160383048,-76.561505375,64,"101 OSPREY WAY, NEWPORT NEWS, VA, 23608","Match","Exact","101 OSPREY WAY, NEWPORT NEWS, VA, 23608",103816000,"R"
15565,"101 OVERLAND AVE","DUQUESNE","PA",15110,40.37935752,-79.8559838579999,65,"101 OVERLAND AVE, DUQUESNE, PA, 15110","Match","Exact","101 OVERLAND AVE, DUQUESNE, PA, 15110",51671610,"L"
15566,"101 OVERLOOK DR APT 2C","SALISBURY","MD",21804,38.3981365240001,-75.560722286,66,"101 OVERLOOK DR APT 2C, SALISBURY, MD, 21804","Match","Exact","101 OVERLOOK DR, SALISBURY, MD, 21804",604758080,"R"
15567,"101 OWENS ST","DES LACS","ND",58733,48.2579369640001,-101.562094812,67,"101 OWENS ST, DES LACS, ND, 58733","Match","Exact","101 OWENS ST, DES LACS, ND, 58733",200485265,"R"
15568,"101 OXFORD COURT","PEACHTREE CITY","GA",30269,33.413661109,-84.5949582439999,68,"101 OXFORD COURT, PEACHTREE CITY, GA, 30269","Match","Exact","101 OXFORD CT, PEACHTREE CITY, GA, 30269",75941635,"L"
15569,"101 OXFORD LN","LAFAYETTE","LA",70506,30.1975912030001,-92.100969639,69,"101 OXFORD LN, LAFAYETTE, LA, 70506","Match","Exact","101 OXFORD LN, LAFAYETTE, LA, 70506",85612040,"L"
15570,"101 OXFORD PL APT 21","HIGH POINT","NC",27262,35.986416096,-80.025388548,70,"101 OXFORD PL APT 21, HIGH POINT, NC, 27262","Match","Exact","101 OXFORD PL, HIGH POINT, NC, 27262",131037825,"L"
15571,"101 OXFORD STREET","BRIDGEPORT","CT",6606,41.219895588,-73.214948045,71,"101 OXFORD STREET, BRIDGEPORT, CT, 6606","Match","Exact","101 OXFORD ST, BRIDGEPORT, CT, 06606",3222156,"L"
15572,"101 OYSTER BAY RD","SWANSBORO","NC",28584,34.6994511990001,-77.1222562139999,72,"101 OYSTER BAY RD, SWANSBORO, NC, 28584","Match","Exact","101 OYSTER BAY RD, SWANSBORO, NC, 28584",635540823,"L"
15573,"101 PACE STREET","GREENVILLE","SC",29609,34.9165735550001,-82.424144368,73,"101 PACE STREET, GREENVILLE, SC, 29609","Match","Exact","101 PACE ST, GREENVILLE, SC, 29609",38297933,"R"
15574,"101 PACIFICA SUITE 270","IRVINE","CA",92618,33.6585029460001,-117.754718057,74,"101 PACIFICA SUITE 270, IRVINE, CA, 92618","Match","Exact","101 PACIFICA, IRVINE, CA, 92618",144394126,"R"
15575,"101 PACKARD RD","STOW","MA",1775,42.4430422140001,-71.511483492,75,"101 PACKARD RD, STOW, MA, 1775","Match","Exact","101 PACKARD RD, STOW, MA, 01775",86900763,"R"
15576,"101 PALAFOX PLACE SUITE 1710","PENSACOLA","FL",32502,NA,NA,76,"101 PALAFOX PLACE SUITE 1710, PENSACOLA, FL, 32502","No_Match",NA,NA,NA,NA
15577,"101 PALAFOX PLACE","PENSACOLA","FL",32502,NA,NA,77,"101 PALAFOX PLACE, PENSACOLA, FL, 32502","No_Match",NA,NA,NA,NA
15578,"101 PALCO STREET","BARDSTOWN","KY",40004,37.8352728850001,-85.455883302,78,"101 PALCO STREET, BARDSTOWN, KY, 40004","Match","Exact","101 PALCO ST, BARDSTOWN, KY, 40004",35146305,"R"
15579,"101 PANSY LN","KISSIMMEE","FL",34759,NA,NA,79,"101 PANSY LN, KISSIMMEE, FL, 34759","No_Match",NA,NA,NA,NA
15580,"101 PANTHER PATH","LIBERTY HILL","TX",78642,30.669009955,-97.930511324,80,"101 PANTHER PATH, LIBERTY HILL, TX, 78642","Match","Exact","101 PANTHER PATH, LIBERTY HILL, TX, 78642",126439116,"R"
15581,"101 PARADE POINT","ROCKWALL","TX",75032,32.846121408,-96.3923199719999,81,"101 PARADE POINT, ROCKWALL, TX, 75032","Match","Non_Exact","101 PARADE POINT DR, ROCKWALL, TX, 75032",629585362,"L"
15582,"101 PARAMOUNT","IRVINE","CA",92620,33.6854575470001,-117.731051469,82,"101 PARAMOUNT, IRVINE, CA, 92620","Match","Non_Exact","101 PARAMOUNT, IRVINE, CA, 92618",650592485,"L"
15583,"101 PARIS","LANSING","MI",48911,NA,NA,83,"101 PARIS, LANSING, MI, 48911","No_Match",NA,NA,NA,NA
15584,"101 PARK AVE STE 1300","OKLAHOMA CITY","OK",73102,35.468773506,-97.51458833,84,"101 PARK AVE STE 1300, OKLAHOMA CITY, OK, 73102","Match","Exact","101 PARK AVE, OKLAHOMA CITY, OK, 73102",100402422,"R"
15585,"101 PARK AVENUE APT C","KINSTON","NC",28501,35.27116814,-77.5807149619999,85,"101 PARK AVENUE APT C, KINSTON, NC, 28501","Match","Exact","101 PARK AVE, KINSTON, NC, 28501",13890025,"L"
15586,"101 PARK AVENUE","NEW YORK","NY",10178,40.750891439,-73.9785624899999,86,"101 PARK AVENUE, NEW YORK, NY, 10178","Match","Exact","101 PARK AVE, NEW YORK, NY, 10178",59658664,"R"
15587,"101 PARK DR","ATMORE","AL",36502,31.0359399760001,-87.478256938,87,"101 PARK DR, ATMORE, AL, 36502","Match","Exact","101 PARK DR, ATMORE, AL, 36502",647423924,"L"
15588,"101 PARK LANE CIRCLE","LOCKPORT","NY",14094,43.165527926,-78.670781458,88,"101 PARK LANE CIRCLE, LOCKPORT, NY, 14094","Match","Exact","101 PARK LANE CIR, LOCKPORT, NY, 14094",48691894,"L"
15589,"101 PARK ST","WOODBINE","IA",51579,41.732926106,-95.709994638,89,"101 PARK ST, WOODBINE, IA, 51579","Match","Exact","101 PARK ST, WOODBINE, IA, 51579",130979657,"R"
15590,"101 PARKCANYON LANE","CARY","NC",27519,35.7848785520001,-78.868549855,90,"101 PARKCANYON LANE, CARY, NC, 27519","Match","Exact","101 PARKCANYON LN, CARY, NC, 27519",72552130,"L"
15591,"101 PARKER STREET","MORRISON","TN",37357,35.604214869,-85.920562284,91,"101 PARKER STREET, MORRISON, TN, 37357","Match","Exact","101 PARKER ST, MORRISON, TN, 37357",81353467,"L"
15592,"101 PARKLANE BLVD 102","SUGAR LAND","TX",77478,NA,NA,92,"101 PARKLANE BLVD 102, SUGAR LAND, TX, 77478","No_Match",NA,NA,NA,NA
15593,"101 PARKSHORE DR UNIT 138","FOLSOM","CA",95630,38.6574661980001,-121.187953561,93,"101 PARKSHORE DR UNIT 138, FOLSOM, CA, 95630","Match","Exact","101 PARKSHORE DR, FOLSOM, CA, 95630",640620131,"R"
15594,"101 PARKSIDE LANE","DINGMANS FERRY","PA",18328,41.246771268,-74.887419439,94,"101 PARKSIDE LANE, DINGMANS FERRY, PA, 18328","Match","Exact","101 PARKSIDE LN, DINGMANS FERRY, PA, 18328",648363441,"R"
15595,"101 PARKVINE CIRCLE","CARY","NC",27519,35.7806408880001,-78.866587495,95,"101 PARKVINE CIRCLE, CARY, NC, 27519","Match","Exact","101 PARKVINE CIR, CARY, NC, 27519",72633910,"L"
15596,"101 PARKWAY DRIVE","LAFAYETTE","LA",70508,30.1514355080001,-92.05889609,96,"101 PARKWAY DRIVE, LAFAYETTE, LA, 70508","Match","Exact","101 PARKWAY DR, LAFAYETTE, LA, 70508",85627837,"L"
15597,"101 PARKWAY","WHITE HALL","AR",71602,34.276327823,-92.0956152589999,97,"101 PARKWAY, WHITE HALL, AR, 71602","Match","Non_Exact","101 PARKWAY DR, WHITE HALL, AR, 71602",2547356,"L"
15598,"101 PARLOCK CT","IRMO","SC",29063,34.1061937100001,-81.202007382,98,"101 PARLOCK CT, IRMO, SC, 29063","Match","Exact","101 PARLOCK CT, IRMO, SC, 29063",71816038,"R"
15599,"101 PARMA AVE","NEW CASTLE","DE",19720,39.7080037870001,-75.559474697,99,"101 PARMA AVE, NEW CASTLE, DE, 19720","Match","Exact","101 PARMA AVE, NEW CASTLE, DE, 19720",187293888,"L"
15600,"101 PARQUE CIRCLE","GEORGETOWN","TX",78626,30.657177075,-97.662576504,100,"101 PARQUE CIRCLE, GEORGETOWN, TX, 78626","Match","Exact","101 PARQUE CIR, GEORGETOWN, TX, 78626",126446451,"R"
15601,"101 PATTERSON STREET","LAFAYETTE","LA",70501,30.244425742,-92.0182126129999,101,"101 PATTERSON STREET, LAFAYETTE, LA, 70501","Match","Exact","101 PATTERSON ST, LAFAYETTE, LA, 70501",639775754,"L"
15602,"101 PATTON BLVD","NEW HYDE PARK","NY",11040,40.7519647570001,-73.6932962019999,102,"101 PATTON BLVD, NEW HYDE PARK, NY, 11040","Match","Exact","101 PATTON BLVD, NEW HYDE PARK, NY, 11040",147665548,"L"
15603,"101 PAUL WITTKE DR","HEALDSBURG","CA",95448,38.6324690650001,-122.873001446,103,"101 PAUL WITTKE DR, HEALDSBURG, CA, 95448","Match","Exact","101 PAUL WITTKE DR, HEALDSBURG, CA, 95448",67533086,"R"
15604,"101 PAULDING DRIVE","CHAPPAQUA","NY",10514,41.1637933060001,-73.755805336,104,"101 PAULDING DRIVE, CHAPPAQUA, NY, 10514","Match","Exact","101 PAULDING DR, CHAPPAQUA, NY, 10514",139736464,"R"
15605,"101 PEACEFUL LN","CONVERSE","TX",78109,29.4943032890001,-98.3116444509999,105,"101 PEACEFUL LN, CONVERSE, TX, 78109","Match","Non_Exact","101 PEACEFUL DR, CONVERSE, TX, 78109",646350989,"L"
15606,"101 PEACH TREE ST","FULTON","KY",42041,NA,NA,106,"101 PEACH TREE ST, FULTON, KY, 42041","No_Match",NA,NA,NA,NA
15607,"101 PEARL STREET","HARTFORD","CT",6103,41.766165329,-72.6751281809999,107,"101 PEARL STREET, HARTFORD, CT, 6103","Match","Exact","101 PEARL ST, HARTFORD, CT, 06103",3495194,"L"
15608,"101 PEBBLE COURT","CHAPEL HILL","NC",27514,35.9682571220001,-79.066121257,108,"101 PEBBLE COURT, CHAPEL HILL, NC, 27514","Match","Non_Exact","101 PEBBLE CT, CHAPEL HILL, NC, 27516",72377808,"L"
15609,"101 PEBBLE","GATESVILLE","TX",76528,31.4475905830001,-97.703303303,109,"101 PEBBLE, GATESVILLE, TX, 76528","Match","Non_Exact","101 PEBBLE LN, GATESVILLE, TX, 76528",635775783,"R"
15610,"101 PELICAN DR SE","MOSES LAKE","WA",98837,47.085444013,-119.296408259,110,"101 PELICAN DR SE, MOSES LAKE, WA, 98837","Match","Exact","101 PELICAN DR SE, MOSES LAKE, WA, 98837",157101590,"R"
15611,"101 PELICAN DR","VALLEJO","CA",94589,38.1507386660001,-122.272285126,111,"101 PELICAN DR, VALLEJO, CA, 94589","Match","Exact","101 PELICAN DR, VALLEJO, CA, 94589",192531228,"R"
15612,"101 PEPPERHILL LANE","GREENWOOD","SC",29649,34.245340985,-82.212692213,112,"101 PEPPERHILL LANE, GREENWOOD, SC, 29649","Match","Exact","101 PEPPERHILL LN, GREENWOOD, SC, 29649",50819840,"L"
15613,"101 PEREZ DRIVE","NEWARK","NJ",7103,40.742268423,-74.184415265,113,"101 PEREZ DRIVE, NEWARK, NJ, 7103","Match","Exact","101 PEREZ DR, NEWARK, NJ, 07103",63474504,"R"
15614,"101 PETRONIA STREET","KEY WEST","FL",33040,24.5503576610001,-81.804733147,114,"101 PETRONIA STREET, KEY WEST, FL, 33040","Match","Exact","101 PETRONIA ST, KEY WEST, FL, 33040",116475020,"R"
15615,"101 PHEASANT RUN LANE","LANCASTER","NY",14086,42.9287962930001,-78.67491287,115,"101 PHEASANT RUN LANE, LANCASTER, NY, 14086","Match","Exact","101 PHEASANT RUN LN, LANCASTER, NY, 14086",48317521,"L"
15616,"101 PHELPS AVE","NORTH ADAMS","MA",1247,42.6972649430001,-73.156415136,116,"101 PHELPS AVE, NORTH ADAMS, MA, 1247","Match","Exact","101 PHELPS AVE, NORTH ADAMS, MA, 01247",3915226,"L"
15617,"101 PHYLLIS DR","GLEN BURNIE","MD",21060,39.1453330430001,-76.58755137,117,"101 PHYLLIS DR, GLEN BURNIE, MD, 21060","Match","Exact","101 PHYLLIS DR, GLEN BURNIE, MD, 21060",68183415,"R"
15618,"101 PHYLLIS DRIVE","BENSON","NC",27504,35.425025577,-78.5162638529999,118,"101 PHYLLIS DRIVE, BENSON, NC, 27504","Match","Exact","101 PHYLLIS DR, BENSON, NC, 27504",26549344,"L"
15619,"101 PIERCE STREET","MABANK","TX",75156,32.2749966270001,-96.110474723,119,"101 PIERCE STREET, MABANK, TX, 75156","Match","Non_Exact","101 PIERCE DR, MABANK, TX, 75156",125817359,"L"
15620,"101 PILGRIMS VILLAGE DRIVE SUITE 40","CUMMING","GA",30040,NA,NA,120,"101 PILGRIMS VILLAGE DRIVE SUITE 40, CUMMING, GA, 30040","No_Match",NA,NA,NA,NA
15621,"101 PIN CHERRY ROAD","BISMARK","AR",71913,NA,NA,121,"101 PIN CHERRY ROAD, BISMARK, AR, 71913","No_Match",NA,NA,NA,NA
15622,"101 PINE COVE ST","BEAUFORT","SC",29902,32.432740919,-80.694737381,122,"101 PINE COVE ST, BEAUFORT, SC, 29902","Match","Exact","101 PINE COVE ST, BEAUFORT, SC, 29902",87606225,"L"
15623,"101 PINE FOREST DR 28G","MAUMELLE","AR",72113,34.86797268,-92.400400895,123,"101 PINE FOREST DR 28G, MAUMELLE, AR, 72113","Match","Exact","101 PINE FOREST DR, MAUMELLE, AR, 72113",83571877,"L"
15624,"101 PINE KNOLL COURT","EATONTON","GA",31024,33.221074914,-83.296539901,124,"101 PINE KNOLL COURT, EATONTON, GA, 31024","Match","Exact","101 PINE KNOLL CT, EATONTON, GA, 31024",16673185,"L"
15625,"101 PINE RIDGE II","CLIFTON PARK","NY",12065,42.8486594120001,-73.7607935,125,"101 PINE RIDGE II, CLIFTON PARK, NY, 12065","Match","Exact","101 PINE RIDGE II, CLIFTON PARK, NY, 12065",640543826,"R"
15626,"101 PINE ST","ST MARYS","GA",31558,30.759091991,-81.5761335189999,126,"101 PINE ST, ST MARYS, GA, 31558","Match","Exact","101 PINE ST, SAINT MARYS, GA, 31558",125699708,"L"
15627,"101 PINE STREET","BOONVILLE","NC",27011,36.2355059020001,-80.714999327,127,"101 PINE STREET, BOONVILLE, NC, 27011","Match","Non_Exact","101 PINE, BOONVILLE, NC, 27011",84746689,"L"
15628,"101 PINE STREET","SONORA","CA",95370,37.9838499040001,-120.384520976,128,"101 PINE STREET, SONORA, CA, 95370","Match","Exact","101 PINE ST, SONORA, CA, 95370",101374164,"L"
15629,"101 PINE TREE LANE","FREEBURG","IL",62243,38.4278678100001,-89.921264636,129,"101 PINE TREE LANE, FREEBURG, IL, 62243","Match","Exact","101 PINE TREE LN, FREEBURG, IL, 62243",107848425,"L"
15630,"101 PINECREST DRIVE","DAHLONEGA","GA",30533,34.554959475,-84.02086997,130,"101 PINECREST DRIVE, DAHLONEGA, GA, 30533","Match","Exact","101 PINECREST DR, DAHLONEGA, GA, 30533",101120763,"L"
15631,"101 PINES EDGE DRIVE","NORTHAMPTON","MA",1060,42.3451241160001,-72.646328006,131,"101 PINES EDGE DRIVE, NORTHAMPTON, MA, 1060","Match","Exact","101 PINES EDGE DR, NORTHAMPTON, MA, 01060",39870958,"R"
15632,"101 PINESHADOW DR","GOOSE CREEK","SC",29445,32.9705032410001,-80.018402007,132,"101 PINESHADOW DR, GOOSE CREEK, SC, 29445","Match","Exact","101 PINESHADOW DR, GOOSE CREEK, SC, 29445",100753459,"L"
15633,"101 PINETOP CIRCLE E","FAIRHOPE","AL",36532,30.5500641300001,-87.888593624,133,"101 PINETOP CIRCLE E, FAIRHOPE, AL, 36532","Match","Exact","101 PINETOP CIR E, FAIRHOPE, AL, 36532",131672097,"R"
15634,"101 PINETREE DRIVE","GRANVILLE","OH",43023,40.092281142,-82.481976382,134,"101 PINETREE DRIVE, GRANVILLE, OH, 43023","Match","Exact","101 PINETREE DR, GRANVILLE, OH, 43023",61505021,"R"
15635,"101 PINKERTON DRIVE","BEAVER","PA",15009,NA,NA,135,"101 PINKERTON DRIVE, BEAVER, PA, 15009","No_Match",NA,NA,NA,NA
15636,"101 PINNACLE PLACE","SMYRNA","TN",37167,35.9164237590001,-86.5271122249999,136,"101 PINNACLE PLACE, SMYRNA, TN, 37167","Match","Exact","101 PINNACLE PL, SMYRNA, TN, 37167",59029241,"L"
15637,"101 PIRATE LANE","MELBOURNE","FL",32901,28.0493511610001,-80.610949707,137,"101 PIRATE LANE, MELBOURNE, FL, 32901","Match","Exact","101 PIRATE LN, MELBOURNE, FL, 32901",601722625,"R"
15638,"101 PISTOL CREEK DRIVE","MONUMENT","CO",80132,39.05877823,-104.827472295,138,"101 PISTOL CREEK DRIVE, MONUMENT, CO, 80132","Match","Exact","101 PISTOL CREEK DR, MONUMENT, CO, 80132",643928873,"L"
15639,"101 PLAZA REAL SOUTH-SUITE 416","BOCA RATON","FL",33432,26.349299473,-80.084887879,139,"101 PLAZA REAL SOUTH-SUITE 416, BOCA RATON, FL, 33432","Match","Non_Exact","101 PLZ REAL S, BOCA RATON, FL, 33432",617882292,"R"
15640,"101 PLAZA REAL SOUTH","BOCA RATON","FL",33432,26.349299473,-80.084887879,140,"101 PLAZA REAL SOUTH, BOCA RATON, FL, 33432","Match","Non_Exact","101 PLZ REAL S, BOCA RATON, FL, 33432",617882292,"R"
15641,"101 POINTER DRIVE","ANGIER","NC",27501,NA,NA,141,"101 POINTER DRIVE, ANGIER, NC, 27501","No_Match",NA,NA,NA,NA
15642,"101 POLK STREET - 203","SAN FRANCISCO","CA",94102,37.777550525,-122.418056651,142,"101 POLK STREET - 203, SAN FRANCISCO, CA, 94102","Match","Exact","101 POLK ST, SAN FRANCISCO, CA, 94102",192287206,"L"
15643,"101 PONDVIEW CIRCLE","BELCHERTOWN","MA",1007,42.299172986,-72.397056043,143,"101 PONDVIEW CIRCLE, BELCHERTOWN, MA, 1007","Match","Exact","101 PONDVIEW CIR, BELCHERTOWN, MA, 01007",39881524,"L"
15644,"101 POPLAR ST","MONTGOMERY","AL",36113,32.3801914650001,-86.3442488649999,144,"101 POPLAR ST, MONTGOMERY, AL, 36113","Match","Exact","101 POPLAR ST, MONTGOMERY, AL, 36113",1508108,"R"
15645,"101 POPLAR STREET","DEPUE","IL",61322,41.3239798120001,-89.312896893,145,"101 POPLAR STREET, DEPUE, IL, 61322","Match","Exact","101 POPLAR ST, DEPUE, IL, 61322",8483913,"R"
15646,"101 PRAIRIE VIEW CT","BELMONT","NC",28012,NA,NA,146,"101 PRAIRIE VIEW CT, BELMONT, NC, 28012","No_Match",NA,NA,NA,NA
15647,"101 PRESERVE PARKWAY","BALL GROUND","GA",30107,NA,NA,147,"101 PRESERVE PARKWAY, BALL GROUND, GA, 30107","No_Match",NA,NA,NA,NA
15648,"101 PRIMROSE BOULEVARD","KYLE","TX",78640,29.9935036310001,-97.865028256,148,"101 PRIMROSE BOULEVARD, KYLE, TX, 78640","Match","Exact","101 PRIMROSE BLVD, KYLE, TX, 78640",63847273,"L"
15649,"101 PRIMROSE LANE","WAGGAMAN","LA",70094,NA,NA,149,"101 PRIMROSE LANE, WAGGAMAN, LA, 70094","No_Match",NA,NA,NA,NA
15650,"101 PRINCETON AVE","EGG HARBOR TWP","NJ",8234,39.383496805,-74.673206878,150,"101 PRINCETON AVE, EGG HARBOR TWP, NJ, 8234","Match","Exact","101 PRINCETON AVE, EGG HARBOR TOWNSHIP, NJ, 08234",202506413,"R"
15651,"101 PRISCILLA CT","MANKATO","MN",56001,44.140001069,-93.973408088,151,"101 PRISCILLA CT, MANKATO, MN, 56001","Match","Exact","101 PRISCILLA CT, MANKATO, MN, 56001",28116371,"R"
15652,"101 PROMENADE AVE UNIT 337","WAYZATA","MN",55391,44.9694431710001,-93.50649981,152,"101 PROMENADE AVE UNIT 337, WAYZATA, MN, 55391","Match","Exact","101 PROMENADE AVE, WAYZATA, MN, 55391",641217066,"R"
15653,"101 PROSPECT AVE 6","HACKENSACK","NJ",7601,40.8859219450001,-74.056993007,153,"101 PROSPECT AVE 6, HACKENSACK, NJ, 7601","Match","Exact","101 PROSPECT AVE, HACKENSACK, NJ, 07601",64385814,"L"
15654,"101 PROSPECT PARK SW APT 3C","BROOKLYN","NY",11218,40.6576680310001,-73.9741899319999,154,"101 PROSPECT PARK SW APT 3C, BROOKLYN, NY, 11218","Match","Exact","101 PROSPECT PARK SW, BROOKLYN, NY, 11218",59078363,"R"
15655,"101 PROSPECTIVE 5N","HACKENSACK","NJ",7601,NA,NA,155,"101 PROSPECTIVE 5N, HACKENSACK, NJ, 7601","No_Match",NA,NA,NA,NA
15656,"101 PROSPERITY CIRCLE","LAFAYETTE","LA",70508,30.1412368220001,-92.05111605,156,"101 PROSPERITY CIRCLE, LAFAYETTE, LA, 70508","Match","Exact","101 PROSPERITY CIR, LAFAYETTE, LA, 70508",85634545,"L"
15657,"101 PROSPET AVENUE","IRVINGTON","NJ",7111,NA,NA,157,"101 PROSPET AVENUE, IRVINGTON, NJ, 7111","No_Match",NA,NA,NA,NA
15658,"101 PROVIDENCE LANE","LANSDALE","PA",19446,40.2226033520001,-75.294187412,158,"101 PROVIDENCE LANE, LANSDALE, PA, 19446","Match","Exact","101 PROVIDENCE LN, LANSDALE, PA, 19446",616539935,"L"
15659,"101 PUFFER AVE","SWANSEA","MA",2777,41.7302940710001,-71.211537489,159,"101 PUFFER AVE, SWANSEA, MA, 2777","Match","Exact","101 PUFFER AVE, SWANSEA, MA, 02777",46766623,"R"
15660,"101 PUGLIESES WAY 2ND FLOOR","DELRAY BEACH","FL",33444,26.4635402750001,-80.070593942,160,"101 PUGLIESES WAY 2ND FLOOR, DELRAY BEACH, FL, 33444","Match","Exact","101 PUGLIESES WAY, DELRAY BEACH, FL, 33444",648308669,"R"
15661,"101 PUMA DRIVE","WEST MONROE","LA",71291,32.5597932210001,-92.239643139,161,"101 PUMA DRIVE, WEST MONROE, LA, 71291","Match","Exact","101 PUMA DR, WEST MONROE, LA, 71291",631810486,"R"
15662,"101 QUAIL OAKS CIRCLE","GROVELND","FL",34736,28.569263602,-81.854981547,162,"101 QUAIL OAKS CIRCLE, GROVELND, FL, 34736","Match","Non_Exact","101 QUAIL OAKS CIR, GROVELAND, FL, 34736",94195759,"L"
15663,"101 RACE ST APT 210","CATASAUQUA","PA",18032,40.64910444,-75.4679147969999,163,"101 RACE ST APT 210, CATASAUQUA, PA, 18032","Match","Exact","101 RACE ST, CATASAUQUA, PA, 18032",80764022,"R"
15664,"101 RAIL ROAD PLAZA","BAYSHORE","NY",11706,40.7252242170001,-73.2535377469999,164,"101 RAIL ROAD PLAZA, BAYSHORE, NY, 11706","Match","Non_Exact","101 RAILROAD PLZ, BAY SHORE, NY, 11706",113996452,"R"
15665,"101 RAILWAY AVE","PORTAL","ND",58772,NA,NA,165,"101 RAILWAY AVE, PORTAL, ND, 58772","No_Match",NA,NA,NA,NA
15666,"101 RAINBOW DRIVE","GADSDEN","AL",35901,NA,NA,166,"101 RAINBOW DRIVE, GADSDEN, AL, 35901","No_Match",NA,NA,NA,NA
15667,"101 RAMOS ST","VACAVILLE","CA",95688,38.349362404,-121.995168191,167,"101 RAMOS ST, VACAVILLE, CA, 95688","Match","Exact","101 RAMOS ST, VACAVILLE, CA, 95688",192534445,"L"
15668,"101 RAMPART WAY-APT 101","EAST LANSING","MI",48823,42.7536386200001,-84.483348786,168,"101 RAMPART WAY-APT 101, EAST LANSING, MI, 48823","Match","Non_Exact","101 RAMPART WAY, EAST LANSING, MI, 48823",17520116,"L"
15669,"101 RANDOLPH MASSEY ROAD","ALAMO","TN",38001,NA,NA,169,"101 RANDOLPH MASSEY ROAD, ALAMO, TN, 38001","No_Match",NA,NA,NA,NA
15670,"101 RANGER RD","GREELEY","PA",18425,41.4104427450001,-75.044279449,170,"101 RANGER RD, GREELEY, PA, 18425","Match","Exact","101 RANGER RD, GREELEY, PA, 18425",191408888,"R"
15671,"101 RASPBERRY COURT","MELVILLE","NY",11747,40.7601488500001,-73.416665908,171,"101 RASPBERRY COURT, MELVILLE, NY, 11747","Match","Exact","101 RASPBERRY CT, MELVILLE, NY, 11747",114233107,"L"
15672,"101 READING COURT","LADSON","SC",29456,32.961656487,-80.139512482,172,"101 READING COURT, LADSON, SC, 29456","Match","Exact","101 READING CT, LADSON, SC, 29456",178486409,"L"
15673,"101 RED CYPRESS DRIVE","GOOSE CREEK","SC",29445,33.0214864330001,-80.039521275,173,"101 RED CYPRESS DRIVE, GOOSE CREEK, SC, 29445","Match","Exact","101 RED CYPRESS DR, GOOSE CREEK, SC, 29445",100756188,"L"
15674,"101 RED FOX ROAD","MILLERSVILLE","PA",17551,39.984299288,-76.375626659,174,"101 RED FOX ROAD, MILLERSVILLE, PA, 17551","Match","Exact","101 RED FOX RD, MILLERSVILLE, PA, 17551",179688815,"L"
15675,"101 RED ST","RICHLAND","MS",39218,32.226200841,-90.173832907,175,"101 RED ST, RICHLAND, MS, 39218","Match","Exact","101 RED ST, RICHLAND, MS, 39218",116904982,"L"
15676,"101 RED STAR ROAD","GREENFIELD PARK","NY",12435,41.714665374,-74.481527098,176,"101 RED STAR ROAD, GREENFIELD PARK, NY, 12435","Match","Exact","101 RED STAR RD, GREENFIELD PARK, NY, 12435",41886511,"R"
15677,"101 REGENCY COURT","WARNER ROBINS","GA",31088,32.5768916430001,-83.708831561,177,"101 REGENCY COURT, WARNER ROBINS, GA, 31088","Match","Exact","101 REGENCY CT, WARNER ROBINS, GA, 31088",642389957,"R"
15678,"101 REILLYWOOD AVE","HADDONFIELD","NJ",8033,39.8898856660001,-75.031730382,178,"101 REILLYWOOD AVE, HADDONFIELD, NJ, 8033","Match","Exact","101 REILLYWOOD AVE, HADDONFIELD, NJ, 08033",134354974,"L"
15679,"101 RESERVOIR RD","BROUSSARD","LA",70518,30.134550652,-91.953468432,179,"101 RESERVOIR RD, BROUSSARD, LA, 70518","Match","Exact","101 RESERVOIR RD, BROUSSARD, LA, 70518",648161131,"R"
15680,"101 RESOLUTE ST","ROCHESTER","NY",14621,43.190654384,-77.609894798,180,"101 RESOLUTE ST, ROCHESTER, NY, 14621","Match","Exact","101 RESOLUTE ST, ROCHESTER, NY, 14621",14566043,"R"
15681,"101 REYNARD DRIVE","MILFORD","NJ",8848,40.586117303,-75.115109476,181,"101 REYNARD DRIVE, MILFORD, NJ, 8848","Match","Exact","101 REYNARD DR, MILFORD, NJ, 08848",60022742,"R"
15682,"101 REYNOLDS AVE","MONT ALTO","PA",17237,39.8396214890001,-77.555212997,182,"101 REYNOLDS AVE, MONT ALTO, PA, 17237","Match","Exact","101 REYNOLDS AVE, MONT ALTO, PA, 17237",60091159,"R"
15683,"101 RHETT CT","ELKTON","MD",21921,39.704286579,-75.792038592,183,"101 RHETT CT, ELKTON, MD, 21921","Match","Exact","101 RHETT CT, ELKTON, MD, 21921",187383352,"R"
15684,"101 RICE BENT WAY STE 1","COLUMBIA","SC",29229,NA,NA,184,"101 RICE BENT WAY STE 1, COLUMBIA, SC, 29229","No_Match",NA,NA,NA,NA
15685,"101 RICHFIELD LANE","COLCHESTER","VT",5446,44.5452694160001,-73.268643857,185,"101 RICHFIELD LANE, COLCHESTER, VT, 5446","Match","Exact","101 RICHFIELD LN, COLCHESTER, VT, 05446",135837807,"L"
15686,"101 RIDGE CIRCLE","BRANDON","MS",39047,32.391597023,-89.972592553,186,"101 RIDGE CIRCLE, BRANDON, MS, 39047","Match","Exact","101 RIDGE CIR, BRANDON, MS, 39047",636896908,"L"
15687,"101 RIDGEDALE ROAD","FAIRFIELD","CT",6824,41.1780280880001,-73.2601412609999,187,"101 RIDGEDALE ROAD, FAIRFIELD, CT, 6824","Match","Exact","101 RIDGEDALE RD, FAIRFIELD, CT, 06824",3240325,"L"
15688,"101 RIPLEY COURT","SUMMERVILLE","SC",29483,33.041505452,-80.16572516,188,"101 RIPLEY COURT, SUMMERVILLE, SC, 29483","Match","Exact","101 RIPLEY CT, SUMMERVILLE, SC, 29483",605132012,"L"
15689,"101 RIVENDALE DR","COLUMBIA","SC",29229,34.157701692,-80.9387262769999,189,"101 RIVENDALE DR, COLUMBIA, SC, 29229","Match","Exact","101 RIVENDALE DR, COLUMBIA, SC, 29229",633745508,"L"
15690,"101 RIVER BRIDGE WAY","HUNTSVILLE","AL",35811,34.812118399,-86.4913364779999,190,"101 RIVER BRIDGE WAY, HUNTSVILLE, AL, 35811","Match","Exact","101 RIVER BRIDGE WAY, HUNTSVILLE, AL, 35811",647672311,"L"
15691,"101 RIVER CHASE ROAD","NEW MARKET","AL",35761,34.8517084000001,-86.462324224,191,"101 RIVER CHASE ROAD, NEW MARKET, AL, 35761","Match","Non_Exact","101 RIVERCHASE RD, NEW MARKET, AL, 35761",58199674,"L"
15692,"101 RIVER HOUSE PL APT 2328","BATON ROUGE","LA",70802,NA,NA,192,"101 RIVER HOUSE PL APT 2328, BATON ROUGE, LA, 70802","No_Match",NA,NA,NA,NA
15693,"101 RIVER HOUSE PLACE APT 2115","BATON ROUGE","LA",70802,NA,NA,193,"101 RIVER HOUSE PLACE APT 2115, BATON ROUGE, LA, 70802","No_Match",NA,NA,NA,NA
15694,"101 RIVER RD","MARIETTA","OH",45750,39.467218685,-81.481088024,194,"101 RIVER RD, MARIETTA, OH, 45750","Match","Exact","101 RIVER RD, MARIETTA, OH, 45750",45680472,"R"
15695,"101 RIVER ROAD","ALLENSTOWN","NH",3275,NA,NA,195,"101 RIVER ROAD, ALLENSTOWN, NH, 3275","No_Match",NA,NA,NA,NA
15696,"101 RIVER VIEW COURT","HAMPTON","GA",30228,33.414700872,-84.2850596059999,196,"101 RIVER VIEW COURT, HAMPTON, GA, 30228","Match","Exact","101 RIVER VIEW CT, HAMPTON, GA, 30228",653449519,"L"
15697,"101 RIVERBOAT ROW","NEWPORT","OH",41071,NA,NA,197,"101 RIVERBOAT ROW, NEWPORT, OH, 41071","No_Match",NA,NA,NA,NA
15698,"101 RIVERDALE LANE","LOCUST GROVE","VA",22508,38.352452697,-77.75854837,198,"101 RIVERDALE LANE, LOCUST GROVE, VA, 22508","Match","Exact","101 RIVERDALE LN, LOCUST GROVE, VA, 22508",29890145,"L"
15699,"101 RIVERFRONT BLVD SUITE 120","BRADENTON","FL",34205,27.498773101,-82.564263889,199,"101 RIVERFRONT BLVD SUITE 120, BRADENTON, FL, 34205","Match","Exact","101 RIVERFRONT BLVD, BRADENTON, FL, 34205",16252301,"L"
15700,"101 RIVERHOUSE PLACE  APT 1225","BATON ROUGE","LA",70802,NA,NA,200,"101 RIVERHOUSE PLACE  APT 1225, BATON ROUGE, LA, 70802","No_Match",NA,NA,NA,NA
15701,"101 RIVERSIDE COURT","DECATUR","IN",46733,40.8469758590001,-84.9414735939999,201,"101 RIVERSIDE COURT, DECATUR, IN, 46733","Match","Exact","101 RIVERSIDE CT, DECATUR, IN, 46733",6483390,"L"
15702,"101 RIVERVIEW CIRCLE","SALINE","MI",48176,42.1552761310001,-83.805149571,202,"101 RIVERVIEW CIRCLE, SALINE, MI, 48176","Match","Exact","101 RIVERVIEW CIR, SALINE, MI, 48176",637117049,"R"
15703,"101 RIVERVIEW DR","BLAIR","NE",68008,41.550883793,-96.111654277,203,"101 RIVERVIEW DR, BLAIR, NE, 68008","Match","Exact","101 RIVERVIEW DR, BLAIR, NE, 68008",176765045,"R"
15704,"101 RIVERWOOD DR","FRANKLIN","TN",37069,35.971417526,-86.9001148409999,204,"101 RIVERWOOD DR, FRANKLIN, TN, 37069","Match","Exact","101 RIVERWOOD DR, FRANKLIN, TN, 37069",73116277,"L"
15705,"101 ROBIE ST","BUFFALO","NY",14214,42.9310310920001,-78.852282579,205,"101 ROBIE ST, BUFFALO, NY, 14214","Match","Non_Exact","101 ROBIE AVE, BUFFALO, NY, 14214",48289633,"R"
15706,"101 ROBINSON WALK APT B","BRISTOL","TN",37620,36.5702237100001,-82.145362099,206,"101 ROBINSON WALK APT B, BRISTOL, TN, 37620","Match","Exact","101 ROBINSON WALK, BRISTOL, TN, 37620",617906492,"L"
15707,"101 ROCK CLIFF CT UNIT 4","LOUISVILLE","KY",40218,38.2048404870001,-85.6754393969999,207,"101 ROCK CLIFF CT UNIT 4, LOUISVILLE, KY, 40218","Match","Exact","101 ROCK CLIFF CT, LOUISVILLE, KY, 40218",635341902,"L"
15708,"101 ROCK HAVEN ROAD","CARRBORO","NC",27510,35.8918567330001,-79.0812210189999,208,"101 ROCK HAVEN ROAD, CARRBORO, NC, 27510","Match","Exact","101 ROCK HAVEN RD, CARRBORO, NC, 27510",635551293,"R"
15709,"101 ROCK SQUIRREL","SAN ANTONIO","TX",78231,29.5741441100001,-98.552394823,209,"101 ROCK SQUIRREL, SAN ANTONIO, TX, 78231","Match","Exact","101 ROCK SQUIRREL, SAN ANTONIO, TX, 78231",101567547,"L"
15710,"101 ROCKMONT ROAD","GREENVILLE","SC",29615,34.8755039260001,-82.342415864,210,"101 ROCKMONT ROAD, GREENVILLE, SC, 29615","Match","Exact","101 ROCKMONT RD, GREENVILLE, SC, 29615",38302764,"L"
15711,"101 ROCKRIMMON RD","BELLEFONTE","PA",16823,40.9023549570001,-77.7909751879999,211,"101 ROCKRIMMON RD, BELLEFONTE, PA, 16823","Match","Non_Exact","101 ROCKRIMMON DR, BELLEFONTE, PA, 16823",624324481,"L"
15712,"101 RODALE STREET","DAVENPORT","FL",33837,28.234703052,-81.575454527,212,"101 RODALE STREET, DAVENPORT, FL, 33837","Match","Exact","101 RODALE ST, DAVENPORT, FL, 33837",104805203,"R"
15713,"101 RODEO DRIVE","SPRING CREEK","PA",16436,41.878377406,-79.50927961,213,"101 RODEO DRIVE, SPRING CREEK, PA, 16436","Match","Exact","101 RODEO DR, SPRING CREEK, PA, 16436",98689546,"L"
15714,"101 RONDANE  PL","WILLIAMSBURG","VA",23188,37.361096655,-76.7678274909999,214,"101 RONDANE  PL, WILLIAMSBURG, VA, 23188","Match","Exact","101 RONDANE PL, WILLIAMSBURG, VA, 23188",103743491,"L"
15715,"101 ROOSEVELT DRIVE","DOTHAN","AL",36301,31.2280938590001,-85.422479706,215,"101 ROOSEVELT DRIVE, DOTHAN, AL, 36301","Match","Exact","101 ROOSEVELT DR, DOTHAN, AL, 36301",101213672,"L"
15716,"101 ROPE FERRY ROAD","WATERFORD","CT",6385,41.339889806,-72.1425799049999,216,"101 ROPE FERRY ROAD, WATERFORD, CT, 6385","Match","Exact","101 ROPE FERRY RD, WATERFORD, CT, 06385",56844724,"R"
15717,"101 ROSALYNN COURT","RALEIGH","NC",27610,NA,NA,217,"101 ROSALYNN COURT, RALEIGH, NC, 27610","No_Match",NA,NA,NA,NA
15718,"101 ROSE ANN CT","EASLEY","SC",29642,34.8010998780001,-82.5408905849999,218,"101 ROSE ANN CT, EASLEY, SC, 29642","Match","Exact","101 ROSE ANN CT, EASLEY, SC, 29642",26181023,"L"
15719,"101 ROSE AVE","HURON","OH",44839,41.4101408490001,-82.5866603389999,219,"101 ROSE AVE, HURON, OH, 44839","Match","Exact","101 ROSE AVE, HURON, OH, 44839",55327516,"L"
15720,"101 ROSEBUD ST","BALDWIN","LA",70538,29.8363250100001,-91.544776122,220,"101 ROSEBUD ST, BALDWIN, LA, 70538","Match","Non_Exact","101 ROSEBUD ST, FRANKLIN, LA, 70538",635318469,"R"
15721,"101 ROSEBUD","YERINGTON","NV",89447,NA,NA,221,"101 ROSEBUD, YERINGTON, NV, 89447","No_Match",NA,NA,NA,NA
15722,"101 ROSEVIEW DRIVE","GRANVILLE","OH",43023,40.053294115,-82.522580879,222,"101 ROSEVIEW DRIVE, GRANVILLE, OH, 43023","Match","Exact","101 ROSEVIEW DR, GRANVILLE, OH, 43023",631939570,"L"
15723,"101 ROUTE 130 S SUITE 10","CINNAMINSON","NJ",8077,NA,NA,223,"101 ROUTE 130 S SUITE 10, CINNAMINSON, NJ, 8077","No_Match",NA,NA,NA,NA
15724,"101 ROWAN CT","MANAHAWKIN","NJ",8050,39.706253487,-74.2629085899999,224,"101 ROWAN CT, MANAHAWKIN, NJ, 8050","Match","Exact","101 ROWAN CT, MANAHAWKIN, NJ, 08050",203773148,"L"
15725,"101 ROYAL DR APT404","MADISON","AL",35758,34.684020258,-86.7536045539999,225,"101 ROYAL DR APT404, MADISON, AL, 35758","Match","Exact","101 ROYAL DR, MADISON, AL, 35758",58198220,"L"
15726,"101 ROYALL AVE","ELROY","WI",53929,43.7481876580001,-90.2763880219999,226,"101 ROYALL AVE, ELROY, WI, 53929","Match","Exact","101 ROYALL AVE, ELROY, WI, 53929",50952371,"L"
15727,"101 RUGBY LANE","SOUTH WINDSOR","CT",6074,41.802830708,-72.5819247599999,227,"101 RUGBY LANE, SOUTH WINDSOR, CT, 6074","Match","Exact","101 RUGBY LN, SOUTH WINDSOR, CT, 06074",3527337,"R"
15728,"101 RUMFORD ST","WATERBURY","CT",6704,41.5645701220001,-73.02307738,228,"101 RUMFORD ST, WATERBURY, CT, 6704","Match","Exact","101 RUMFORD ST, WATERBURY, CT, 06704",3730196,"L"
15729,"101 RUSSELL STREET","WINTERS","CA",95694,38.5204398340001,-121.969967781,229,"101 RUSSELL STREET, WINTERS, CA, 95694","Match","Exact","101 RUSSELL ST, WINTERS, CA, 95694",67695103,"L"
15730,"101 RUSTIC","GARLAND","TX",75040,NA,NA,230,"101 RUSTIC, GARLAND, TX, 75040","No_Match",NA,NA,NA,NA
15731,"101 RUSTLE ROAD","JORDAN","MN",55352,44.6644175850001,-93.6335834069999,231,"101 RUSTLE ROAD, JORDAN, MN, 55352","Match","Exact","101 RUSTLE RD, JORDAN, MN, 55352",38139757,"L"
15732,"101 RUTGERS PL APT1","RIVERS EDGE","NJ",7661,40.913277211,-74.037658902,232,"101 RUTGERS PL APT1, RIVERS EDGE, NJ, 7661","Match","Non_Exact","101 RUTGERS PL, RIVER EDGE, NJ, 07661",64384693,"L"
15733,"101 RUTHWOOD DR","LAFAYETTE","LA",70503,30.154756365,-92.069841234,233,"101 RUTHWOOD DR, LAFAYETTE, LA, 70503","Match","Exact","101 RUTHWOOD DR, LAFAYETTE, LA, 70503",85613290,"L"
15734,"101 RUTLEDGE AVE APT D","CHARLESTON","SC",29401,32.781207744,-79.942613723,234,"101 RUTLEDGE AVE APT D, CHARLESTON, SC, 29401","Match","Exact","101 RUTLEDGE AVE, CHARLESTON, SC, 29401",108807340,"L"
15735,"101 RYERSON ROAD","WARWICK","NY",10990,41.2428714120001,-74.4336652759999,235,"101 RYERSON ROAD, WARWICK, NY, 10990","Match","Exact","101 RYERSON RD, WARWICK, NY, 10990",124409517,"R"
15736,"101 S  2ND STREET","KIMBALLTON","IA",51543,41.6263372650001,-95.074940355,236,"101 S  2ND STREET, KIMBALLTON, IA, 51543","Match","Non_Exact","101 W 2ND ST, KIMBALLTON, IA, 51543",61728256,"R"
15737,"101 S 108TH AVENUE","OMAHA","NE",68154,41.2621722120001,-96.082489358,237,"101 S 108TH AVENUE, OMAHA, NE, 68154","Match","Exact","101 S 108TH AVE, OMAHA, NE, 68154",633064848,"L"
15738,"101 S 10TH STREET","RICHMOND","IN",47374,39.8272105340001,-84.889072082,238,"101 S 10TH STREET, RICHMOND, IN, 47374","Match","Exact","101 S 10TH ST, RICHMOND, IN, 47374",31324338,"R"
15739,"101 S 17 TH ST","SAN JOSE","CA",95112,37.341930743,-121.872917811,239,"101 S 17 TH ST, SAN JOSE, CA, 95112","Match","Non_Exact","101 S 17TH ST, SAN JOSE, CA, 95112",122908696,"R"
15740,"101 S 19TH STREET","TERRE HAUTE","IN",47807,39.466477749,-87.388307993,240,"101 S 19TH STREET, TERRE HAUTE, IN, 47807","Match","Exact","101 S 19TH ST, TERRE HAUTE, IN, 47807",606511143,"R"
15741,"101 S 2ND ST","KIMBALLTON","IA",51543,41.6263372650001,-95.074940355,241,"101 S 2ND ST, KIMBALLTON, IA, 51543","Match","Non_Exact","101 W 2ND ST, KIMBALLTON, IA, 51543",61728256,"R"
15742,"101 S 39TH ST APT G201","PHILADELPHIA","PA",19104,39.9552833760001,-75.19994425,242,"101 S 39TH ST APT G201, PHILADELPHIA, PA, 19104","Match","Non_Exact","101 S 39TH ST, PHILADELPHIA, PA, 19104",131404016,"L"
15743,"101 S 3RD AVE STE 275","GRAND JUNCTION","CO",81501,NA,NA,243,"101 S 3RD AVE STE 275, GRAND JUNCTION, CO, 81501","No_Match",NA,NA,NA,NA
15744,"101 S 5TH STREET","MONTEVIDEO","MN",56265,44.9454105570001,-95.7205716299999,244,"101 S 5TH STREET, MONTEVIDEO, MN, 56265","Match","Exact","101 S 5TH ST, MONTEVIDEO, MN, 56265",36667829,"L"
15745,"101 S 6TH ST","CARLTON","OR",97111,45.2940029650001,-123.170505447,245,"101 S 6TH ST, CARLTON, OR, 97111","Match","Exact","101 S 6TH ST, CARLTON, OR, 97111",616804726,"R"
15746,"101 S 9TH ST","RUPERT","ID",83350,42.6051419400001,-113.668794216,246,"101 S 9TH ST, RUPERT, ID, 83350","Match","Exact","101 S 9TH ST, RUPERT, ID, 83350",105174691,"L"
15747,"101 S ARLINGTON AVE","BALTIMORE","MD",21223,39.2866698650001,-76.6351792469999,247,"101 S ARLINGTON AVE, BALTIMORE, MD, 21223","Match","Exact","101 S ARLINGTON AVE, BALTIMORE, MD, 21223",206417856,"L"
15748,"101 S BANK STREET","ONEIDA","TN",37841,36.5034138840001,-84.51086858,248,"101 S BANK STREET, ONEIDA, TN, 37841","Match","Exact","101 BANK ST, ONEIDA, TN, 37841",26341564,"R"
15749,"101 S BROOKSIDE DR","OAK HARBOR","OH",43449,41.5113891830001,-83.156937391,249,"101 S BROOKSIDE DR, OAK HARBOR, OH, 43449","Match","Exact","101 BROOKSIDE DR, OAK HARBOR, OH, 43449",44071840,"L"
15750,"101 S CALDWELL ST","MANOR","TX",78653,30.3411953240001,-97.5586998699999,250,"101 S CALDWELL ST, MANOR, TX, 78653","Match","Exact","101 S CALDWELL ST, MANOR, TX, 78653",64010445,"R"
15751,"101 S CALIFORNIA AVENUE STE D-100C","PALO ALTO","CA",94306,37.4287962070001,-122.142792872,251,"101 S CALIFORNIA AVENUE STE D-100C, PALO ALTO, CA, 94306","Match","Non_Exact","101 S CALIFORNIA AVE, PALO ALTO, CA, 94306",647551261,"L"
15752,"101 S CHARLES ST","BEECHER CITY","IL",62414,39.1870513640001,-88.786941919,252,"101 S CHARLES ST, BEECHER CITY, IL, 62414","Match","Exact","101 S CHARLES ST, BEECHER CITY, IL, 62414",94756664,"L"
15753,"101 S CLINTON AVE","DALLAS","TX",75208,32.7450447030001,-96.842879373,253,"101 S CLINTON AVE, DALLAS, TX, 75208","Match","Exact","101 S CLINTON AVE, DALLAS, TX, 75208",102945874,"R"
15754,"101 S CONGRESS AVE","BOYNTON BEACH","FL",33426,26.5239995490001,-80.0904247189999,254,"101 S CONGRESS AVE, BOYNTON BEACH, FL, 33426","Match","Exact","101 S CONGRESS AVE, BOYNTON BEACH, FL, 33426",640323191,"R"
15755,"101 S Coombs St Suite A","Napa","CA",94559,38.2876154410001,-122.286978815,255,"101 S Coombs St Suite A, Napa, CA, 94559","Match","Exact","101 COOMBS ST, NAPA, CA, 94559",67417033,"L"
15756,"101 S COOMBS ST SUITE A","NAPA","CA",94559,38.2876154410001,-122.286978815,256,"101 S COOMBS ST SUITE A, NAPA, CA, 94559","Match","Exact","101 COOMBS ST, NAPA, CA, 94559",67417033,"L"
15757,"101 S COREY ST","MOORELAND","IN",47360,39.997765428,-85.250021077,257,"101 S COREY ST, MOORELAND, IN, 47360","Match","Non_Exact","101 N CORY ST, MOORELAND, IN, 47360",29991090,"R"
15758,"101 S COUNTRY CLUB RD E1","MUSKOGEE","OK",74403,NA,NA,258,"101 S COUNTRY CLUB RD E1, MUSKOGEE, OK, 74403","Tie",NA,NA,NA,NA
15759,"101 S DALLAS ST SUITE 100","ENNIS","TX",75119,NA,NA,259,"101 S DALLAS ST SUITE 100, ENNIS, TX, 75119","Tie",NA,NA,NA,NA
15760,"101 S EOLA DR APT 214","ORLANDO","FL",32801,NA,NA,260,"101 S EOLA DR APT 214, ORLANDO, FL, 32801","Tie",NA,NA,NA,NA
15761,"101 S EOLA DRIVE UNIT 1121","ORLANDO","FL",32801,NA,NA,261,"101 S EOLA DRIVE UNIT 1121, ORLANDO, FL, 32801","Tie",NA,NA,NA,NA
15762,"101 S EULA DRIVE UNIT 514","ORLANDO","FL",32801,NA,NA,262,"101 S EULA DRIVE UNIT 514, ORLANDO, FL, 32801","No_Match",NA,NA,NA,NA
15763,"101 S FIFTH ST STE 2500","LOUISVILLE","KY",40202,38.25668957,-85.758189618,263,"101 S FIFTH ST STE 2500, LOUISVILLE, KY, 40202","Match","Non_Exact","101 S 5TH ST, LOUISVILLE, KY, 40202",96844666,"L"
15764,"101 S FIFTH ST SUITE 2500 PNC TOWER","LOUISVILLE","KY",40202,38.25668957,-85.758189618,264,"101 S FIFTH ST SUITE 2500 PNC TOWER, LOUISVILLE, KY, 40202","Match","Non_Exact","101 S 5TH ST, LOUISVILLE, KY, 40202",96844666,"L"
15765,"101 S FRANKLIN AVENUE","MARGATE","NJ",8402,39.3288694840001,-74.497339219,265,"101 S FRANKLIN AVENUE, MARGATE, NJ, 8402","Match","Non_Exact","101 S FRANKLIN AVE, MARGATE CITY, NJ, 08402",202527364,"L"
15766,"101 S GARLAND AVE STE 108","ORLANDO","FL",32801,NA,NA,266,"101 S GARLAND AVE STE 108, ORLANDO, FL, 32801","Tie",NA,NA,NA,NA
15767,"101 S GARLAND AVE","ORLANDO","FL",32801,28.5412182380001,-81.381722695,267,"101 S GARLAND AVE, ORLANDO, FL, 32801","Match","Exact","101 S GARLAND AVE, ORLANDO, FL, 32801",619007963,"L"
15768,"101 S GARLAND SUITE 108","ORLANDO","FL",32801,NA,NA,268,"101 S GARLAND SUITE 108, ORLANDO, FL, 32801","No_Match",NA,NA,NA,NA
15769,"101 S GEORGE ST PO BOX 509","YORK","PA",17405,NA,NA,269,"101 S GEORGE ST PO BOX 509, YORK, PA, 17405","No_Match",NA,NA,NA,NA
15770,"101 S GILMORE","BAZINE","KS",67516,NA,NA,270,"101 S GILMORE, BAZINE, KS, 67516","No_Match",NA,NA,NA,NA
15771,"101 S GREENFIELD ROAD","GILBERT","AZ",85296,33.349317625,-111.738401651,271,"101 S GREENFIELD ROAD, GILBERT, AZ, 85296","Match","Exact","101 S GREENFIELD RD, GILBERT, AZ, 85296",243919860,"L"
15772,"101 S GREGG ST","COLUMBIA","SC",29205,33.9895577790001,-81.015978148,272,"101 S GREGG ST, COLUMBIA, SC, 29205","Match","Exact","101 S GREGG ST, COLUMBIA, SC, 29205",71828083,"R"
15773,"101 S HANLEY RD STE 1310","CLAYTON","MO",63105,NA,NA,273,"101 S HANLEY RD STE 1310, CLAYTON, MO, 63105","Tie",NA,NA,NA,NA
15774,"101 S HILMAR","WEINERT","TX",76388,33.322689391,-99.675381139,274,"101 S HILMAR, WEINERT, TX, 76388","Match","Non_Exact","101 S HILMAR ST, WEINERT, TX, 76388",185484825,"L"
15775,"101 S HOLLIE","DEQUINCY","LA",70633,30.449835438,-93.434083532,275,"101 S HOLLIE, DEQUINCY, LA, 70633","Match","Non_Exact","101 S HOLLY ST, DEQUINCY, LA, 70633",88422314,"L"
15776,"101 S IZARD","FORREST CITY","AR",72335,35.0094726310001,-90.7841516249999,276,"101 S IZARD, FORREST CITY, AR, 72335","Match","Non_Exact","101 S IZARD ST, FORREST CITY, AR, 72335",12644656,"L"
15777,"101 S JACOB LANE","WINTERS","TX",79567,31.9571998960001,-99.9799581839999,277,"101 S JACOB LANE, WINTERS, TX, 79567","Match","Exact","101 S JACOB LN, WINTERS, TX, 79567",129897913,"L"
15778,"101 S JIM WRIGHT FREEWAY SUITE 200","FORT WORTH","TX",76108,NA,NA,278,"101 S JIM WRIGHT FREEWAY SUITE 200, FORT WORTH, TX, 76108","Tie",NA,NA,NA,NA
15779,"101 S JOLIET CIRCLE","AURORA","CO",80012,39.7142581100001,-104.861617368,279,"101 S JOLIET CIRCLE, AURORA, CO, 80012","Match","Exact","101 S JOLIET CIR, AURORA, CO, 80012",177372303,"R"
15780,"101 S LA CANADA DR SUITE 17","GREEN VALLEY","AZ",85614,NA,NA,280,"101 S LA CANADA DR SUITE 17, GREEN VALLEY, AZ, 85614","No_Match",NA,NA,NA,NA
15781,"101 S LA CANADA SUITE 54","GREEN VALLEY","AZ",85614,NA,NA,281,"101 S LA CANADA SUITE 54, GREEN VALLEY, AZ, 85614","No_Match",NA,NA,NA,NA
15782,"101 S LAUBER LANE","DERBY","KS",67037,37.544016174,-97.258585646,282,"101 S LAUBER LANE, DERBY, KS, 67037","Match","Exact","101 S LAUBER LN, DERBY, KS, 67037",115653728,"R"
15783,"101 S MAIN ST STE 14","NEW CASTLE","IN",47362,NA,NA,283,"101 S MAIN ST STE 14, NEW CASTLE, IN, 47362","Tie",NA,NA,NA,NA
15784,"101 S MAIN ST","CRAIG","MO",64437,40.192345554,-95.374610698,284,"101 S MAIN ST, CRAIG, MO, 64437","Match","Non_Exact","101 N MAIN ST, CRAIG, MO, 64437",16009055,"R"
15785,"101 S MAIN ST","DELEVAN","NY",14042,42.485452094,-78.480416969,285,"101 S MAIN ST, DELEVAN, NY, 14042","Match","Exact","101 S MAIN ST, DELEVAN, NY, 14042",122043806,"L"
15786,"101 S MAIN ST","GROVER HILL","OH",45849,41.0191302960001,-84.476560136,286,"101 S MAIN ST, GROVER HILL, OH, 45849","Match","Exact","101 S MAIN ST, GROVER HILL, OH, 45849",6714668,"R"
15787,"101 S MAIN","NOBLE","OK",73068,35.139198589,-97.394667151,287,"101 S MAIN, NOBLE, OK, 73068","Match","Non_Exact","101 S MAIN ST, NOBLE, OK, 73068",99912782,"R"
15788,"101 S MOSHANNON AVE","SNOW SHOE","PA",16874,NA,NA,288,"101 S MOSHANNON AVE, SNOW SHOE, PA, 16874","Tie",NA,NA,NA,NA
15789,"101 S NELSON ST","HAHIRA","GA",31632,30.9915396580001,-83.367831145,289,"101 S NELSON ST, HAHIRA, GA, 31632","Match","Exact","101 S NELSON ST, HAHIRA, GA, 31632",87714007,"R"
15790,"101 S PALMETTO AVE STE 2","DAYTONA BEACH","FL",32114,NA,NA,290,"101 S PALMETTO AVE STE 2, DAYTONA BEACH, FL, 32114","Tie",NA,NA,NA,NA
15791,"101 S PENMAN ROAD","JACKSONVILLE BEACH","FL",32250,30.288600525,-81.405680499,291,"101 S PENMAN ROAD, JACKSONVILLE BEACH, FL, 32250","Match","Exact","101 PENMAN RD, JACKSONVILLE BEACH, FL, 32250",83923206,"R"
15792,"101 S PLAZA PLACE","ATLANTIC CITY","NJ",8401,39.3452382670001,-74.463620212,292,"101 S PLAZA PLACE, ATLANTIC CITY, NJ, 8401","Match","Exact","101 S PLAZA PL, ATLANTIC CITY, NJ, 08401",202527610,"L"
15793,"101 S POPLAR AVE","BROKEN ARROW","OK",74012,36.052459013,-95.809509448,293,"101 S POPLAR AVE, BROKEN ARROW, OK, 74012","Match","Exact","101 S POPLAR AVE, BROKEN ARROW, OK, 74012",166489712,"L"
15794,"101 S PROSPECT","SILOAM SPRINGS","AR",72761,36.184299658,-94.552942133,294,"101 S PROSPECT, SILOAM SPRINGS, AR, 72761","Match","Non_Exact","101 PROSPECT ST, SILOAM SPRINGS, AR, 72761",635480722,"R"
15795,"101 S QUEEN ST","MARTINSBURG","WV",25401,39.4573766840001,-77.963612944,295,"101 S QUEEN ST, MARTINSBURG, WV, 25401","Match","Exact","101 S QUEEN ST, MARTINSBURG, WV, 25401",123379135,"L"
15796,"101 S RAILROAD ST","MYERSTOWN","PA",17067,40.374215341,-76.3032283439999,296,"101 S RAILROAD ST, MYERSTOWN, PA, 17067","Match","Exact","101 S RAILROAD ST, MYERSTOWN, PA, 17067",80679965,"L"
15797,"101 S RAINBOW BLVD STE 20","LAS VEGAS","NV",89145,36.173156566,-115.244238722,297,"101 S RAINBOW BLVD STE 20, LAS VEGAS, NV, 89145","Match","Non_Exact","101 S RAINBOW BLVD, LAS VEGAS, NV, 89145",652655332,"R"
15798,"101 S RED HILL RD","MARTINSBURG","WV",25401,39.4626802600001,-77.9846261339999,298,"101 S RED HILL RD, MARTINSBURG, WV, 25401","Match","Exact","101 S RED HILL RD, MARTINSBURG, WV, 25401",123379850,"L"
15799,"101 S RIVER ST RM 201","ENTERPRISE","OR",97828,NA,NA,299,"101 S RIVER ST RM 201, ENTERPRISE, OR, 97828","Tie",NA,NA,NA,NA
15800,"101 S RUCKER","ROLLA","MO",65401,37.9439991560001,-91.7757779029999,300,"101 S RUCKER, ROLLA, MO, 65401","Match","Non_Exact","101 S RUCKER AVE, ROLLA, MO, 65401",45075392,"R"
15801,"101 S SANTA FE AVE","FOUNTAIN","CO",80817,38.6830187830001,-104.704573064,301,"101 S SANTA FE AVE, FOUNTAIN, CO, 80817","Match","Exact","101 S SANTA FE AVE, FOUNTAIN, CO, 80817",635773712,"R"
15802,"101 S SUMMIT","ARKANSAS CITY","KS",67005,37.062199702,-97.038990717,302,"101 S SUMMIT, ARKANSAS CITY, KS, 67005","Match","Non_Exact","101 S SUMMIT ST, ARKANSAS CITY, KS, 67005",44342693,"L"
15803,"101 S THIRD STREET","WACO","TX",76701,31.558345224,-97.1299093809999,303,"101 S THIRD STREET, WACO, TX, 76701","Match","Exact","101 S 3RD ST, WACO, TX, 76701",146736145,"R"
15804,"101 S TOPANGA CANYON BLVD 1705","TOPANGA","CA",90290,34.0902959360001,-118.603777623,304,"101 S TOPANGA CANYON BLVD 1705, TOPANGA, CA, 90290","Match","Exact","101 TOPANGA CANYON BLVD, TOPANGA, CA, 90290",142710794,"L"
15805,"101 S TRYON STREET 27TH FLOOR","CHARLOTTE","NC",28280,NA,NA,305,"101 S TRYON STREET 27TH FLOOR, CHARLOTTE, NC, 28280","No_Match",NA,NA,NA,NA
15806,"101 S TWIN CREEK DRIVE APT 1305","KILLEEN","TX",76543,31.1051531210001,-97.6849038989999,306,"101 S TWIN CREEK DRIVE APT 1305, KILLEEN, TX, 76543","Match","Non_Exact","101 S TWIN CREEK DR, KILLEEN, TX, 76543",146194126,"L"
15807,"101 S UNIVERSITY ST","GUIDE ROCK","NE",68942,NA,NA,307,"101 S UNIVERSITY ST, GUIDE ROCK, NE, 68942","No_Match",NA,NA,NA,NA
15808,"101 S VICTORIA AVE APT 1","VENTNOR","NJ",8406,39.341625831,-74.470983646,308,"101 S VICTORIA AVE APT 1, VENTNOR, NJ, 8406","Match","Non_Exact","101 S VICTORIA AVE, VENTNOR CITY, NJ, 08406",202488769,"L"
15809,"101 S WALNUT STREET","MILFORD","DE",19963,38.914626045,-75.4282448169999,309,"101 S WALNUT STREET, MILFORD, DE, 19963","Match","Non_Exact","101 N WALNUT ST, MILFORD, DE, 19963",68083588,"R"
15810,"101 S WALTON ST STE 113","DALLAS","TX",75226,NA,NA,310,"101 S WALTON ST STE 113, DALLAS, TX, 75226","Tie",NA,NA,NA,NA
15811,"101 S WASHINGTON ST","LAKE CITY","MN",55041,44.4498568450001,-92.2660842559999,311,"101 S WASHINGTON ST, LAKE CITY, MN, 55041","Match","Exact","101 S WASHINGTON ST, LAKE CITY, MN, 55041",31620175,"R"
15812,"101 S WASHINGTON ST","MARION","IN",46952,40.560575875,-85.659774918,312,"101 S WASHINGTON ST, MARION, IN, 46952","Match","Exact","101 S WASHINGTON ST, MARION, IN, 46952",95008188,"L"
15813,"101 S WELCOME SLOUGH RD","CATHLAMET","WA",98612,46.174505321,-123.388825511,313,"101 S WELCOME SLOUGH RD, CATHLAMET, WA, 98612","Match","Exact","101 S WELCOME SLOUGH RD, CATHLAMET, WA, 98612",624094367,"R"
15814,"101 S WHITING STREET APT 603","ALEXANDRIA","VA",22304,38.8136249470001,-77.136982572,314,"101 S WHITING STREET APT 603, ALEXANDRIA, VA, 22304","Match","Non_Exact","101 S WHITING ST, ALEXANDRIA, VA, 22304",639594650,"L"
15815,"101 SABIN","KALAMAZOO","MI",49006,42.293097102,-85.630576719,315,"101 SABIN, KALAMAZOO, MI, 49006","Match","Non_Exact","101 SABIN ST, KALAMAZOO, MI, 49006",12223695,"L"
15816,"101 SAINT FRANCIS RD","EUFAULA","AL",36027,31.9151592630001,-85.1412411059999,316,"101 SAINT FRANCIS RD, EUFAULA, AL, 36027","Match","Exact","101 ST FRANCIS RD, EUFAULA, AL, 36027",69076115,"R"
15817,"101 SAINT PAUL LANE","CEDAR CREEK","TX",78612,30.154352997,-97.469343075,317,"101 SAINT PAUL LANE, CEDAR CREEK, TX, 78612","Match","Exact","101 SAINT PAUL LN, CEDAR CREEK, TX, 78612",45490143,"L"
15818,"101 SALEM RD","TWP OF WASHINGTON","NJ",7676,40.987433745,-74.076813841,318,"101 SALEM RD, TWP OF WASHINGTON, NJ, 7676","Match","Exact","101 SALEM RD, TOWNSHIP OF WASHINGTON, NJ, 07676",64377537,"R"
15819,"101 SALIENT LANE","MOUNT JULIET","TN",37122,36.162095606,-86.4780446629999,319,"101 SALIENT LANE, MOUNT JULIET, TN, 37122","Match","Exact","101 SALIENT LN, MOUNT JULIET, TN, 37122",642240062,"L"
15820,"101 SALT MARSH LANE","GROVELAND","FL",34736,28.6229159100001,-81.7884413319999,320,"101 SALT MARSH LANE, GROVELAND, FL, 34736","Match","Exact","101 SALT MARSH LN, GROVELAND, FL, 34736",640084896,"L"
15821,"101 SALT MARSH LN","GROVELAND","FL",34736,28.6229159100001,-81.7884413319999,321,"101 SALT MARSH LN, GROVELAND, FL, 34736","Match","Exact","101 SALT MARSH LN, GROVELAND, FL, 34736",640084896,"L"
15822,"101 SAM BLACK RD","MIDLAND","NC",28107,NA,NA,322,"101 SAM BLACK RD, MIDLAND, NC, 28107","No_Match",NA,NA,NA,NA
15823,"101 SAN LUCAS","BELEN","NM",87002,34.6265701350001,-106.726522289,323,"101 SAN LUCAS, BELEN, NM, 87002","Match","Non_Exact","101 SAN LUCAS AVE, BELEN, NM, 87002",179345733,"L"
15824,"101 SANRO RD","LAFAYETTE","LA",70507,30.286412252,-92.091178373,324,"101 SANRO RD, LAFAYETTE, LA, 70507","Match","Non_Exact","101 SANRO DR, LAFAYETTE, LA, 70507",85641390,"L"
15825,"101 SANTEE TRAIL","CLEMSON","SC",29631,34.706754646,-82.831696141,325,"101 SANTEE TRAIL, CLEMSON, SC, 29631","Match","Exact","101 SANTEE TRL, CLEMSON, SC, 29631",26176014,"L"
15826,"101 SARATOGA DR","GREENVILLE","SC",29650,34.884725001,-82.255110466,326,"101 SARATOGA DR, GREENVILLE, SC, 29650","Match","Non_Exact","101 SARATOGA DR, GREER, SC, 29650",38310612,"R"
15827,"101 SASSAFRAS LANE","MILTON","DE",19968,38.7722134370001,-75.310434887,327,"101 SASSAFRAS LANE, MILTON, DE, 19968","Match","Exact","101 SASSAFRAS LN, MILTON, DE, 19968",623857411,"L"
15828,"101 SAVANNAH LOOP","MOUNTAIN VIEW","CA",94043,37.3938092270001,-122.067243948,328,"101 SAVANNAH LOOP, MOUNTAIN VIEW, CA, 94043","Match","Exact","101 SAVANNAH LOOP, MOUNTAIN VIEW, CA, 94043",649875115,"R"
15829,"101 SCARBOROUGH COURT","ELLENWOOD","GA",30294,33.633797046,-84.214137637,329,"101 SCARBOROUGH COURT, ELLENWOOD, GA, 30294","Match","Exact","101 SCARBOROUGH CT, ELLENWOOD, GA, 30294",23198575,"L"
15830,"101 SCARBOROUGH DRIVE","GREER","SC",29650,34.8758446790001,-82.258168417,330,"101 SCARBOROUGH DRIVE, GREER, SC, 29650","Match","Exact","101 SCARBOROUGH DR, GREER, SC, 29650",38322909,"L"
15831,"101 SCENIC DR","VICKSBURG","MS",39183,32.3921376280001,-90.85885072,331,"101 SCENIC DR, VICKSBURG, MS, 39183","Match","Exact","101 SCENIC DR, VICKSBURG, MS, 39183",71307673,"R"
15832,"101 SCENIC HILLS DR","LA VERNIA","TX",78121,29.293199487,-98.1354512349999,332,"101 SCENIC HILLS DR, LA VERNIA, TX, 78121","Match","Exact","101 SCENIC HILLS DR, LA VERNIA, TX, 78121",627731242,"L"
15833,"101 SCHOOL HOUSE LANE","WILLIAMSBURG","VA",23188,NA,NA,333,"101 SCHOOL HOUSE LANE, WILLIAMSBURG, VA, 23188","No_Match",NA,NA,NA,NA
15834,"101 SCHOOL ST","COMSTOCK PARK","MI",49321,43.036310986,-85.6645120319999,334,"101 SCHOOL ST, COMSTOCK PARK, MI, 49321","Match","Non_Exact","101 SCHOOL ST NE, COMSTOCK PARK, MI, 49321",12451058,"R"
15835,"101 SCHOOL STREET","CAMBRIDGE","MA",2139,42.363998134,-71.098513641,335,"101 SCHOOL STREET, CAMBRIDGE, MA, 2139","Match","Exact","101 SCHOOL ST, CAMBRIDGE, MA, 02139",86870115,"R"
15836,"101 SCOTCH PINE DRIVE","MONETA","VA",24121,37.099368536,-79.621118711,336,"101 SCOTCH PINE DRIVE, MONETA, VA, 24121","Match","Exact","101 SCOTCH PINE DR, MONETA, VA, 24121",62672851,"L"
15837,"101 SCOTLOW WAY","MORRISVILLE","NC",27560,35.8310114880001,-78.857864376,337,"101 SCOTLOW WAY, MORRISVILLE, NC, 27560","Match","Exact","101 SCOTLOW WAY, MORRISVILLE, NC, 27560",208372120,"R"
15838,"101 SCOTT STREET","ELMO","MO",64445,NA,NA,338,"101 SCOTT STREET, ELMO, MO, 64445","Tie",NA,NA,NA,NA
15839,"101 SE 130TH","PORTLAND","OR",97233,45.5216455570001,-122.529251804,339,"101 SE 130TH, PORTLAND, OR, 97233","Match","Non_Exact","101 SE 130TH AVE, PORTLAND, OR, 97233",157519921,"R"
15840,"101 SE 3RD ST","PENLETON","OR",97801,45.674378727,-118.785211044,340,"101 SE 3RD ST, PENLETON, OR, 97801","Match","Non_Exact","101 SE 3RD ST, PENDLETON, OR, 97801",170404467,"L"
15841,"101 SE 74TH","OAK ISLAND","NC",28465,33.9086520010001,-78.0910118589999,341,"101 SE 74TH, OAK ISLAND, NC, 28465","Match","Non_Exact","101 SE 74TH ST, OAK ISLAND, NC, 28465",153143653,"L"
15842,"101 SE COURT STREET","MARION","SC",29571,34.1778154570001,-79.4003377559999,342,"101 SE COURT STREET, MARION, SC, 29571","Match","Exact","101 SE COURT ST, MARION, SC, 29571",28774154,"L"
15843,"101 SE FOURTH STREET","SNOW HILL","NC",28580,35.453140627,-77.671948017,343,"101 SE FOURTH STREET, SNOW HILL, NC, 28580","Match","Exact","101 SE 4TH ST, SNOW HILL, NC, 28580",26504865,"L"
15844,"101 SEA GULL LANE","MIDWAY","KY",40347,38.1882877510001,-84.702067719,344,"101 SEA GULL LANE, MIDWAY, KY, 40347","Match","Exact","101 SEA GULL LN, MIDWAY, KY, 40347",211986191,"L"
15845,"101 SEA ISLAND","PONTE VERDA","FL",32082,NA,NA,345,"101 SEA ISLAND, PONTE VERDA, FL, 32082","Tie",NA,NA,NA,NA
15846,"101 SEABREEZE BLVD APT 308","DAYTONA BEACH","FL",32118,29.231889466,-81.02162458,346,"101 SEABREEZE BLVD APT 308, DAYTONA BEACH, FL, 32118","Match","Exact","101 SEABREEZE BLVD, DAYTONA BEACH, FL, 32118",94553430,"L"
15847,"101 SEAHORSE CT","MIDWAY","KY",40347,38.1883131610001,-84.702476152,347,"101 SEAHORSE CT, MIDWAY, KY, 40347","Match","Exact","101 SEAHORSE CT, MIDWAY, KY, 40347",211986192,"R"
15848,"101 SEASIDE AVE UNIT B","STAMFORD","CT",6902,41.055575391,-73.509946456,348,"101 SEASIDE AVE UNIT B, STAMFORD, CT, 6902","Match","Exact","101 SEASIDE AVE, STAMFORD, CT, 06902",3247176,"R"
15849,"101 SECOND AVE","ROCHESTER","TX",79544,33.3178880730001,-99.853466485,349,"101 SECOND AVE, ROCHESTER, TX, 79544","Match","Exact","101 2ND AVE, ROCHESTER, TX, 79544",185484588,"L"
15850,"101 SEFORD DRIVE","SAN ANTONIO","TX",78209,29.4778236490001,-98.441238273,350,"101 SEFORD DRIVE, SAN ANTONIO, TX, 78209","Match","Exact","101 SEFORD DR, SAN ANTONIO, TX, 78209",101559633,"L"
15851,"101 SEGRES RD","KINGSTREE","SC",29556,33.648451273,-79.81236756,351,"101 SEGRES RD, KINGSTREE, SC, 29556","Match","Exact","101 SEGRES RD, KINGSTREE, SC, 29556",640442992,"R"
15852,"101 SELMA ST","NORRISTOWN","PA",19401,40.1206258190001,-75.362340069,352,"101 SELMA ST, NORRISTOWN, PA, 19401","Match","Exact","101 SELMA ST, NORRISTOWN, PA, 19401",135081513,"L"
15853,"101 SEMINOLE CANYON DR","GEORGETOWN","TX",78628,30.577845057,-97.773153249,353,"101 SEMINOLE CANYON DR, GEORGETOWN, TX, 78628","Match","Exact","101 SEMINOLE CANYON DR, GEORGETOWN, TX, 78628",641087302,"R"
15854,"101 SEMINOLE LANE","LONGVIEW","TX",75601,NA,NA,354,"101 SEMINOLE LANE, LONGVIEW, TX, 75601","No_Match",NA,NA,NA,NA
15855,"101 SENA WAY","RICHMOND","KY",40475,37.891985214,-84.294638688,355,"101 SENA WAY, RICHMOND, KY, 40475","Match","Exact","101 SENA WAY, RICHMOND, KY, 40475",31991824,"L"
15856,"101 SENECA ROAD","RICHMOND","VA",23226,37.570497113,-77.5165774819999,356,"101 SENECA ROAD, RICHMOND, VA, 23226","Match","Exact","101 SENECA RD, RICHMOND, VA, 23226",201534260,"R"
15857,"101 SERENDIPITY COVE","HOT SPRINGS","AR",71913,34.4308654170001,-93.111899464,357,"101 SERENDIPITY COVE, HOT SPRINGS, AR, 71913","Match","Exact","101 SERENDIPITY COVE, HOT SPRINGS, AR, 71913",632824281,"L"
15858,"101 SETTLERS TRACE APT 2214","LAFAYETTE","LA",70508,30.171316345,-92.0353724619999,358,"101 SETTLERS TRACE APT 2214, LAFAYETTE, LA, 70508","Match","Non_Exact","101 SETTLERS TRACE BLVD, LAFAYETTE, LA, 70508",642937515,"R"
15859,"101 SEWALLS FALLS ROAD","CONCORD","NH",3301,43.25788013,-71.570901592,359,"101 SEWALLS FALLS ROAD, CONCORD, NH, 3301","Match","Exact","101 SEWALLS FALLS RD, CONCORD, NH, 03301",117727052,"L"
15860,"101 SEXTON STREET","STRUTHERS","OH",44471,41.0538165510001,-80.5954666869999,360,"101 SEXTON STREET, STRUTHERS, OH, 44471","Match","Exact","101 SEXTON ST, STRUTHERS, OH, 44471",64600105,"R"
15861,"101 SHADY ACRES LN TRLR 11","BRENHAM","TX",77833,30.177231804,-96.471414827,361,"101 SHADY ACRES LN TRLR 11, BRENHAM, TX, 77833","Match","Exact","101 SHADY ACRES LN, BRENHAM, TX, 77833",39252857,"L"
15862,"101 SHADY CREEK CT","GREER","SC",29650,34.887708939,-82.281542251,362,"101 SHADY CREEK CT, GREER, SC, 29650","Match","Exact","101 SHADY CREEK CT, GREER, SC, 29650",38309839,"L"
15863,"101 SHEARWATER CT E APPT 66","JERSEY CITY","NJ",7305,NA,NA,363,"101 SHEARWATER CT E APPT 66, JERSEY CITY, NJ, 7305","No_Match",NA,NA,NA,NA
15864,"101 SHEFFIELD CIRCLE","CHAPEL HILL","NC",27517,35.926021086,-79.009419281,364,"101 SHEFFIELD CIRCLE, CHAPEL HILL, NC, 27517","Match","Exact","101 SHEFFIELD CIR, CHAPEL HILL, NC, 27517",72391987,"R"
15865,"101 SHELL DR STE 270","WATSONVILLE","CA",95076,36.877554574,-121.825498345,365,"101 SHELL DR STE 270, WATSONVILLE, CA, 95076","Match","Non_Exact","101 SHELL RD, WATSONVILLE, CA, 95076",630951780,"R"
15866,"101 SHELLEY HILL ROAD","CLINTON CORNERS","NY",12514,41.898162266,-73.739969968,366,"101 SHELLEY HILL ROAD, CLINTON CORNERS, NY, 12514","Match","Non_Exact","101 SHELLY HILL RD, CLINTON CORNERS, NY, 12514",640455458,"R"
15867,"101 SHEPHERD LANE","SHADY VALLEY","TN",37688,NA,NA,367,"101 SHEPHERD LANE, SHADY VALLEY, TN, 37688","No_Match",NA,NA,NA,NA
15868,"101 SHEPHERD WAY NO 306","POOLER","GA",31322,NA,NA,368,"101 SHEPHERD WAY NO 306, POOLER, GA, 31322","No_Match",NA,NA,NA,NA
15869,"101 SHERBROOKE WAY","GRIFFIN","GA",30223,33.28256893,-84.305792889,369,"101 SHERBROOKE WAY, GRIFFIN, GA, 30223","Match","Exact","101 SHERBROOKE WAY, GRIFFIN, GA, 30223",23772150,"R"
15870,"101 SHERBURNE ST","MANCHESTER","NH",3104,42.991938863,-71.407335067,370,"101 SHERBURNE ST, MANCHESTER, NH, 3104","Match","Exact","101 SHERBURNE ST, MANCHESTER, NH, 03104",113534077,"R"
15871,"101 SHERIDAN","MUSKEGON","MI",49442,NA,NA,371,"101 SHERIDAN, MUSKEGON, MI, 49442","No_Match",NA,NA,NA,NA
15872,"101 SHERMAN PLACE","JERSEY CITY","NJ",7307,40.7454547780001,-74.055189926,372,"101 SHERMAN PLACE, JERSEY CITY, NJ, 7307","Match","Exact","101 SHERMAN PL, JERSEY CITY, NJ, 07307",59604937,"L"
15873,"101 SHERWOOD FARM LANE","ORLANDO","FL",32825,NA,NA,373,"101 SHERWOOD FARM LANE, ORLANDO, FL, 32825","No_Match",NA,NA,NA,NA
15874,"101 SHERWOOD ROAD","ROME","GA",30165,34.262009752,-85.194502735,374,"101 SHERWOOD ROAD, ROME, GA, 30165","Match","Non_Exact","101 SHERWOOD RD SW, ROME, GA, 30165",30675657,"L"
15875,"101 SHIRLEY LANE","PENDLETON","IN",46064,39.99766785,-85.751154495,375,"101 SHIRLEY LANE, PENDLETON, IN, 46064","Match","Exact","101 SHIRLEY LN, PENDLETON, IN, 46064",645021951,"R"
15876,"101 SHOALS POINT","EATONTON","GA",31024,33.2244479340001,-83.429174457,376,"101 SHOALS POINT, EATONTON, GA, 31024","Match","Exact","101 SHOALS PT, EATONTON, GA, 31024",636057898,"L"
15877,"101 SILK TREE LN","ROUND ROCK","TX",78664,30.4938244740001,-97.61201808,377,"101 SILK TREE LN, ROUND ROCK, TX, 78664","Match","Exact","101 SILK TREE LN, ROUND ROCK, TX, 78664",126482961,"L"
15878,"101 SILVER AVE","GLASSBOR0","NJ",8028,39.7123263290001,-75.1139173509999,378,"101 SILVER AVE, GLASSBOR0, NJ, 8028","Match","Non_Exact","101 SILVER AVE, GLASSBORO, NJ, 08028",134588546,"R"
15879,"101 SILVER AVE","GLASSBORO","NJ",8028,39.7123263290001,-75.1139173509999,379,"101 SILVER AVE, GLASSBORO, NJ, 8028","Match","Exact","101 SILVER AVE, GLASSBORO, NJ, 08028",134588546,"R"
15880,"101 SIMPLICITY ACRES","MIDDLESEX","VT",5602,44.3302000850001,-72.655582037,380,"101 SIMPLICITY ACRES, MIDDLESEX, VT, 5602","Match","Exact","101 SIMPLICITY ACRES, MIDDLESEX, VT, 05602",627058625,"R"
15881,"101 SIOUX CIRCLE","EAGLE PASS","TX",78852,28.7599947160001,-100.51803221,381,"101 SIOUX CIRCLE, EAGLE PASS, TX, 78852","Match","Exact","101 SIOUX CIR, EAGLE PASS, TX, 78852",183397373,"L"
15882,"101 SKIPPER COURT","ST. MARYS","GA",31558,30.7772970950001,-81.587095443,382,"101 SKIPPER COURT, ST. MARYS, GA, 31558","Match","Exact","101 SKIPPER CT, SAINT MARYS, GA, 31558",125709570,"R"
15883,"101 SKYLINE RIDGE","LOS GATOS","CA",95033,37.209856975,-122.058442476,383,"101 SKYLINE RIDGE, LOS GATOS, CA, 95033","Match","Exact","101 SKYLINE RIDGE, LOS GATOS, CA, 95033",645913172,"R"
15884,"101 SLADE AVENUE","WEST SENECA","NY",14224,42.8317171780001,-78.7892237249999,384,"101 SLADE AVENUE, WEST SENECA, NY, 14224","Match","Exact","101 SLADE AVE, WEST SENECA, NY, 14224",48304442,"R"
15885,"101 SMITH RD","LANDRUM","SC",29356,35.0987508650001,-82.226983422,385,"101 SMITH RD, LANDRUM, SC, 29356","Match","Exact","101 SMITH RD, LANDRUM, SC, 29356",38316806,"L"
15886,"101 SMITH STREET","LOWELL","MA",1851,42.6348410480001,-71.322574951,386,"101 SMITH STREET, LOWELL, MA, 1851","Match","Exact","101 SMITH ST, LOWELL, MA, 01851",86876852,"R"
15887,"101 SMITHFIELD ST","PITTSBURGH","PA",15222,40.4372826530001,-80.000520603,387,"101 SMITHFIELD ST, PITTSBURGH, PA, 15222","Match","Exact","101 SMITHFIELD ST, PITTSBURGH, PA, 15222",51633821,"L"
15888,"101 SMOKE RISE DRIVE","WARREN","NJ",7059,40.6106886110001,-74.5564098089999,388,"101 SMOKE RISE DRIVE, WARREN, NJ, 7059","Match","Exact","101 SMOKE RISE DR, WARREN, NJ, 07059",59938428,"L"
15889,"101 SOUTH  HANOVER 7M","LEXINGTON","KY",40502,38.0341224250001,-84.4834865299999,389,"101 SOUTH  HANOVER 7M, LEXINGTON, KY, 40502","Match","Non_Exact","101 S HANOVER AVE, LEXINGTON, KY, 40502",31952204,"R"
15890,"101 SOUTH 1ST STREET","NAZARETH","TX",79063,34.542873743,-102.101058302,390,"101 SOUTH 1ST STREET, NAZARETH, TX, 79063","Match","Exact","101 S 1ST ST, NAZARETH, TX, 79063",186505371,"R"
15891,"101 SOUTH 200 EAST SUITE 700","SALT LAKE CITY","UT",84111,NA,NA,391,"101 SOUTH 200 EAST SUITE 700, SALT LAKE CITY, UT, 84111","No_Match",NA,NA,NA,NA
15892,"101 SOUTH 3RD STREET","AUGUSTA","AR",72006,35.2834261360001,-91.36539225,392,"101 SOUTH 3RD STREET, AUGUSTA, AR, 72006","Match","Exact","101 S 3RD ST, AUGUSTA, AR, 72006",12890508,"R"
15893,"101 SOUTH 4TH STREET","CAMPBELL","CA",95008,37.285744122,-121.948445741,393,"101 SOUTH 4TH STREET, CAMPBELL, CA, 95008","Match","Exact","101 S 4TH ST, CAMPBELL, CA, 95008",122904823,"R"
15894,"101 SOUTH 5TH STREET APT 1309","MINNEAPOLIS","MN",55402,44.9781787900001,-93.269150053,394,"101 SOUTH 5TH STREET APT 1309, MINNEAPOLIS, MN, 55402","Match","Exact","101 S 5TH ST, MINNEAPOLIS, MN, 55402",43632346,"R"
15895,"101 SOUTH 8TH STREET UNIT 5A","BROOKLYN","NY",11211,40.7096573750001,-73.9650575869999,395,"101 SOUTH 8TH STREET UNIT 5A, BROOKLYN, NY, 11211","Match","Non_Exact","101 S 8TH ST, BROOKLYN, NY, 11249",59076037,"L"
15896,"101 SOUTH A ST","SPRINGFIELD","OR",97477,44.045687145,-123.024615305,396,"101 SOUTH A ST, SPRINGFIELD, OR, 97477","Match","Exact","101 S A ST, SPRINGFIELD, OR, 97477",178172677,"R"
15897,"101 SOUTH BANKS","CALDWELL","TX",77836,30.5240011720001,-96.70089059,397,"101 SOUTH BANKS, CALDWELL, TX, 77836","Match","Non_Exact","101 S BANKS ST, CALDWELL, TX, 77836",24805621,"R"
15898,"101 SOUTH BOYD","RINCON","GA",31326,32.2934740540001,-81.225628719,398,"101 SOUTH BOYD, RINCON, GA, 31326","Match","Non_Exact","101 S BOYD ST, RINCON, GA, 31326",6271880,"L"
15899,"101 SOUTH BROADWAY","FOREST CITY","NC",28043,35.332341264,-81.8621295139999,399,"101 SOUTH BROADWAY, FOREST CITY, NC, 28043","Match","Non_Exact","101 S BROADWAY ST, FOREST CITY, NC, 28043",19389757,"R"
15900,"101 SOUTH BROADWAY","NYACK","NY",10960,NA,NA,400,"101 SOUTH BROADWAY, NYACK, NY, 10960","Tie",NA,NA,NA,NA
15901,"101 SOUTH CLEARSTONE CT","EASLEY","SC",29640,34.8041814970001,-82.5239317849999,401,"101 SOUTH CLEARSTONE CT, EASLEY, SC, 29640","Match","Non_Exact","101 S CLEARSTONE CT, EASLEY, SC, 29642",26177679,"L"
15902,"101 SOUTH CONREY ST","KNOXVILLE","IA",50138,41.319390449,-93.113170983,402,"101 SOUTH CONREY ST, KNOXVILLE, IA, 50138","Match","Non_Exact","101 CONREY ST, KNOXVILLE, IA, 50138",89482639,"L"
15903,"101 SOUTH COURTENAY PARKWAY","MERRITT ISLAND","FL",32952,28.3557897750001,-80.700188028,403,"101 SOUTH COURTENAY PARKWAY, MERRITT ISLAND, FL, 32952","Match","Exact","101 S COURTENAY PKWY, MERRITT ISLAND, FL, 32952",636364223,"R"
15904,"101 SOUTH CT","WINCHESTER","KY",40391,38.003906441,-84.189419328,404,"101 SOUTH CT, WINCHESTER, KY, 40391","Match","Exact","101 SOUTH CT, WINCHESTER, KY, 40391",31789029,"L"
15905,"101 SOUTH ELM STREET","GREENSBORO","NC",27401,36.0724098040001,-79.7902944259999,405,"101 SOUTH ELM STREET, GREENSBORO, NC, 27401","Match","Exact","101 S ELM ST, GREENSBORO, NC, 27401",131032934,"L"
15906,"101 SOUTH EOLA DRIVE APT 618","ORLANDO","FL",32810,28.541293232,-81.369883186,406,"101 SOUTH EOLA DRIVE APT 618, ORLANDO, FL, 32810","Match","Non_Exact","101 S EOLA DR, ORLANDO, FL, 32801",94282577,"L"
15907,"101 SOUTH FIFTH STREET","PAOLA","KS",66071,38.57310097,-94.8874631419999,407,"101 SOUTH FIFTH STREET, PAOLA, KS, 66071","Match","Non_Exact","101 5TH ST, PAOLA, KS, 66071",85239982,"R"
15908,"101 SOUTH FRANKLIN STREET","RED LION","PA",17356,39.8963056160001,-76.610965337,408,"101 SOUTH FRANKLIN STREET, RED LION, PA, 17356","Match","Exact","101 S FRANKLIN ST, RED LION, PA, 17356",611417670,"L"
15909,"101 SOUTH GARLAND AVENUE SUITE 108","ORLANDO","FL",32801,28.5412182380001,-81.381722695,409,"101 SOUTH GARLAND AVENUE SUITE 108, ORLANDO, FL, 32801","Match","Exact","101 S GARLAND AVE, ORLANDO, FL, 32801",619007963,"L"
15910,"101 SOUTH GILBERT STREET","CLEVELAND","OK",74020,36.3088434570001,-96.476442477,410,"101 SOUTH GILBERT STREET, CLEVELAND, OK, 74020","Match","Non_Exact","101 S GILBERT AVE, CLEVELAND, OK, 74020",605554625,"R"
15911,"101 SOUTH HANLEY ROAD SUITE 600","SAINT LOUIS","MO",63105,38.6497932450001,-90.3341063,411,"101 SOUTH HANLEY ROAD SUITE 600, SAINT LOUIS, MO, 63105","Match","Exact","101 S HANLEY RD, SAINT LOUIS, MO, 63105",100195820,"R"
15912,"101 SOUTH JONES STREET","BARNEVELD","WI",53507,43.014914908,-89.8953190779999,412,"101 SOUTH JONES STREET, BARNEVELD, WI, 53507","Match","Exact","101 S JONES ST, BARNEVELD, WI, 53507",49793343,"R"
15913,"101 SOUTH KRAEMER BLVD","PLACENTIA","CA",92870,NA,NA,413,"101 SOUTH KRAEMER BLVD, PLACENTIA, CA, 92870","No_Match",NA,NA,NA,NA
15914,"101 SOUTH LANCASTER STREET","ANNVILLE","PA",17003,40.3277173120001,-76.516732866,414,"101 SOUTH LANCASTER STREET, ANNVILLE, PA, 17003","Match","Exact","101 S LANCASTER ST, ANNVILLE, PA, 17003",80670913,"L"
15915,"101 SOUTH MAIN STREET","LYNDONVILLE","NY",14098,43.318052494,-78.3887711959999,415,"101 SOUTH MAIN STREET, LYNDONVILLE, NY, 14098","Match","Exact","101 S MAIN ST, LYNDONVILLE, NY, 14098",636403834,"R"
15916,"101 SOUTH MAIN STREET","SWAINSBORO","GA",30401,32.5972880670001,-82.33414986,416,"101 SOUTH MAIN STREET, SWAINSBORO, GA, 30401","Match","Exact","101 S MAIN ST, SWAINSBORO, GA, 30401",16047791,"R"
15917,"101 SOUTH MAIN","TEMPLE","TX",76501,31.0955846030001,-97.341590874,417,"101 SOUTH MAIN, TEMPLE, TX, 76501","Match","Non_Exact","101 S MAIN ST, TEMPLE, TX, 76501",146149107,"L"
15918,"101 SOUTH MOUNT STREET","FAIRFIELD","TX",75840,31.7272085220001,-96.160602634,418,"101 SOUTH MOUNT STREET, FAIRFIELD, TX, 75840","Match","Non_Exact","101 N MOUNT ST, FAIRFIELD, TX, 75840",88986783,"L"
15919,"101 SOUTH PARKVIEW","TRUMANN","AR",72472,35.6710369370001,-90.520948017,419,"101 SOUTH PARKVIEW, TRUMANN, AR, 72472","Match","Non_Exact","101 S PARKVIEW DR, TRUMANN, AR, 72472",69474882,"R"
15920,"101 SOUTH REID STREET SUITE 307","SIOUX FALLS","SD",57103,43.546885042,-96.722441052,420,"101 SOUTH REID STREET SUITE 307, SIOUX FALLS, SD, 57103","Match","Exact","101 S REID ST, SIOUX FALLS, SD, 57103",34972339,"R"
15921,"101 SOUTH ROCKINGHAM AVE","LOS ANGELES","CA",90049,34.0578405410001,-118.492870365,421,"101 SOUTH ROCKINGHAM AVE, LOS ANGELES, CA, 90049","Match","Exact","101 S ROCKINGHAM AVE, LOS ANGELES, CA, 90049",141558237,"R"
15922,"101 SOUTH ROSE","PARK RIDGE","IL",60068,42.009607784,-87.8528765579999,422,"101 SOUTH ROSE, PARK RIDGE, IL, 60068","Match","Non_Exact","101 S ROSE AVE, PARK RIDGE, IL, 60068",605258998,"L"
15923,"101 SOUTH SHAKER ROAD","HARVARD","MA",1451,42.5293769990001,-71.5594260619999,423,"101 SOUTH SHAKER ROAD, HARVARD, MA, 1451","Match","Exact","101 S SHAKER RD, HARVARD, MA, 01451",40108500,"L"
15924,"101 SOUTH SHORE RD","NORTHFIELD","NJ",8225,39.3772969520001,-74.536765771,424,"101 SOUTH SHORE RD, NORTHFIELD, NJ, 8225","Match","Non_Exact","101 SHORE RD, NORTHFIELD, NJ, 08225",642610648,"R"
15925,"101 SOUTH ST","CAMBRIDGE","WI",53523,43.0026751890001,-89.0168964059999,425,"101 SOUTH ST, CAMBRIDGE, WI, 53523","Match","Exact","101 SOUTH ST, CAMBRIDGE, WI, 53523",49463249,"L"
15926,"101 SOUTH STREET","SAUSALITO","CA",94965,37.846962137,-122.479039551,426,"101 SOUTH STREET, SAUSALITO, CA, 94965","Match","Exact","101 SOUTH ST, SAUSALITO, CA, 94965",192770408,"L"
15927,"101 SOUTH UNION STREET","WINONA","MS",38967,NA,NA,427,"101 SOUTH UNION STREET, WINONA, MS, 38967","No_Match",NA,NA,NA,NA
15928,"101 SOUTH WHITING ST","ALEXANDRIA","VA",22304,38.8136305130001,-77.136978784,428,"101 SOUTH WHITING ST, ALEXANDRIA, VA, 22304","Match","Exact","101 S WHITING ST, ALEXANDRIA, VA, 22304",639594650,"L"
15929,"101 SOUTHBROOK DRIVE","GUYTON","GA",31312,32.2268732480001,-81.370286145,429,"101 SOUTHBROOK DRIVE, GUYTON, GA, 31312","Match","Exact","101 SOUTHBROOK DR, GUYTON, GA, 31312",619931178,"L"
15930,"101 SOUTHEAST OCEAN BLVD SUITE 203","STUART","FL",34994,27.197538208,-80.2508971199999,430,"101 SOUTHEAST OCEAN BLVD SUITE 203, STUART, FL, 34994","Match","Exact","101 SE OCEAN BLVD, STUART, FL, 34994",120415717,"L"
15931,"101 SOUTHERN OAKS LANE","BLACKSHEAR","GA",31516,31.307777963,-82.2516189309999,431,"101 SOUTHERN OAKS LANE, BLACKSHEAR, GA, 31516","Match","Exact","101 SOUTHERN OAKS LN, BLACKSHEAR, GA, 31516",625205531,"L"
15932,"101 SOUTHERN PARKWAY","RIDGEWOOD","NJ",7450,40.976295572,-74.1090101409999,432,"101 SOUTHERN PARKWAY, RIDGEWOOD, NJ, 7450","Match","Exact","101 SOUTHERN PKWY, RIDGEWOOD, NJ, 07450",64377057,"L"
15933,"101 SOUTHFIELD AVENUE","STAMFORD","CT",6901,NA,NA,433,"101 SOUTHFIELD AVENUE, STAMFORD, CT, 6901","No_Match",NA,NA,NA,NA
15934,"101 SOUTHRIDGE DRIVE","VERONA","KY",41092,38.786390178,-84.6993730729999,434,"101 SOUTHRIDGE DRIVE, VERONA, KY, 41092","Match","Exact","101 SOUTHRIDGE DR, VERONA, KY, 41092",627143404,"L"
15935,"101 SPARTAN WAY","EAST SYRACUSE","NY",13057,NA,NA,435,"101 SPARTAN WAY, EAST SYRACUSE, NY, 13057","No_Match",NA,NA,NA,NA
15936,"101 SPRING BRANCH DR","KYLE","TX",78640,29.9992771500001,-97.874681937,436,"101 SPRING BRANCH DR, KYLE, TX, 78640","Match","Exact","101 SPRING BRANCH DR, KYLE, TX, 78640",63833722,"R"
15937,"101 SPRING MEADOW LANE","KERRVILLE","TX",78028,NA,NA,437,"101 SPRING MEADOW LANE, KERRVILLE, TX, 78028","No_Match",NA,NA,NA,NA
15938,"101 SPRING ST","ALTAMONTE SPRINGS","FL",32701,28.6776192250001,-81.356275255,438,"101 SPRING ST, ALTAMONTE SPRINGS, FL, 32701","Match","Exact","101 SPRING ST, ALTAMONTE SPRINGS, FL, 32701",93738397,"L"
15939,"101 SPRINGFIELD DR","SELLERSVILLE","PA",18960,40.3479832620001,-75.318280234,439,"101 SPRINGFIELD DR, SELLERSVILLE, PA, 18960","Match","Exact","101 SPRINGFIELD DR, SELLERSVILLE, PA, 18960",638522671,"L"
15940,"101 SPRINGHURST ST","BEDFORD HILLS","NY",10507,41.225882427,-73.698518556,440,"101 SPRINGHURST ST, BEDFORD HILLS, NY, 10507","Match","Non_Exact","101 SPRINGHURST RD, BEDFORD HILLS, NY, 10507",649730286,"L"
15941,"101 SPRUCE VALLEY DRIVE","PITTSBURGH","PA",15229,40.5109793400001,-80.045139325,441,"101 SPRUCE VALLEY DRIVE, PITTSBURGH, PA, 15229","Match","Exact","101 SPRUCE VALLEY DR, PITTSBURGH, PA, 15229",51704723,"L"
15942,"101 SPURGEON RD","WEST MONROE","LA",71291,NA,NA,442,"101 SPURGEON RD, WEST MONROE, LA, 71291","No_Match",NA,NA,NA,NA
15943,"101 ST FELIX ST","BROOKLYN","NY",11217,40.6867831260001,-73.9773245279999,443,"101 ST FELIX ST, BROOKLYN, NY, 11217","Match","Exact","101 ST FELIX ST, BROOKLYN, NY, 11217",59077594,"L"
15944,"101 ST GEORGE BLVD  10Q","SAVANNAH","GA",31419,NA,NA,444,"101 ST GEORGE BLVD  10Q, SAVANNAH, GA, 31419","No_Match",NA,NA,NA,NA
15945,"101 ST GEORGE BLVD APT 9I","SAVANNAH","GA",31419,NA,NA,445,"101 ST GEORGE BLVD APT 9I, SAVANNAH, GA, 31419","No_Match",NA,NA,NA,NA
15946,"101 ST HELENS ST","SAINT HELENS","OR",97051,45.863916149,-122.798496885,446,"101 ST HELENS ST, SAINT HELENS, OR, 97051","Match","Exact","101 SAINT HELENS ST, SAINT HELENS, OR, 97051",158082401,"R"
15947,"101 ST MATTHEWS LANE","SPARTANBURG","SC",29301,NA,NA,447,"101 ST MATTHEWS LANE, SPARTANBURG, SC, 29301","Tie",NA,NA,NA,NA
15948,"101 STARK RD","TUNKHANNOCK","PA",18657,41.579377247,-75.880175359,448,"101 STARK RD, TUNKHANNOCK, PA, 18657","Match","Exact","101 STARK RD, TUNKHANNOCK, PA, 18657",140202556,"L"
15949,"101 STARLING CT","BOX ELDER","SD",57719,44.120205856,-103.105033982,449,"101 STARLING CT, BOX ELDER, SD, 57719","Match","Exact","101 STARLING CT, BOX ELDER, SD, 57719",205515769,"L"
15950,"101 STATE LINE ST","VALLEY SPRINGS","SD",57068,NA,NA,450,"101 STATE LINE ST, VALLEY SPRINGS, SD, 57068","No_Match",NA,NA,NA,NA
15951,"101 STATION LANDING SUITE 2100","MEDFORD","MA",2155,NA,NA,451,"101 STATION LANDING SUITE 2100, MEDFORD, MA, 2155","No_Match",NA,NA,NA,NA
15952,"101 STEFFY LANE","RAMONA","CA",92065,33.033012022,-116.837569832,452,"101 STEFFY LANE, RAMONA, CA, 92065","Match","Non_Exact","101 STEFFY RD, RAMONA, CA, 92065",195729406,"R"
15953,"101 STELLA ROAD","BELLINGHAM","MA",2038,NA,NA,453,"101 STELLA ROAD, BELLINGHAM, MA, 2038","No_Match",NA,NA,NA,NA
15954,"101 STENGAR LANE","ROSEBURG","OR",97471,43.2812676230001,-123.397759938,454,"101 STENGAR LANE, ROSEBURG, OR, 97471","Match","Exact","101 STENGAR LN, ROSEBURG, OR, 97471",137238836,"L"
15955,"101 STEVENS PLACE","SYRACUSE","NY",13210,43.018955502,-76.136344884,455,"101 STEVENS PLACE, SYRACUSE, NY, 13210","Match","Exact","101 STEVENS PL, SYRACUSE, NY, 13210",46572045,"L"
15956,"101 STILL HILL ROAD","HAMDEN","CT",6518,41.4228395220001,-72.9326188489999,456,"101 STILL HILL ROAD, HAMDEN, CT, 6518","Match","Exact","101 STILL HILL RD, HAMDEN, CT, 06518",3711297,"R"
15957,"101 STILL WILD LANE","ELGIN","SC",29045,NA,NA,457,"101 STILL WILD LANE, ELGIN, SC, 29045","No_Match",NA,NA,NA,NA
15958,"101 STILLWATER DR","WINTERVILLE","GA",30683,33.9700749450001,-83.3002554129999,458,"101 STILLWATER DR, WINTERVILLE, GA, 30683","Match","Non_Exact","101 STILLWATER CT, WINTERVILLE, GA, 30683",619384052,"L"
15959,"101 STONE CIRCLE DRIVE","TRYON","NC",28782,NA,NA,459,"101 STONE CIRCLE DRIVE, TRYON, NC, 28782","No_Match",NA,NA,NA,NA
15960,"101 STONE RIVER RD","HUNTSVILLE","AL",35811,34.8001402510001,-86.484567044,460,"101 STONE RIVER RD, HUNTSVILLE, AL, 35811","Match","Exact","101 STONE RIVER RD, HUNTSVILLE, AL, 35811",616683965,"R"
15961,"101 STONERIDGE DR","GAFFNEY","SC",29341,35.0565671960001,-81.70490648,461,"101 STONERIDGE DR, GAFFNEY, SC, 29341","Match","Exact","101 STONERIDGE DR, GAFFNEY, SC, 29341",18999749,"L"
15962,"101 STRASSLE DRIVE","WHITE HOUSE","TN",37188,36.4574145650001,-86.638174126,462,"101 STRASSLE DRIVE, WHITE HOUSE, TN, 37188","Match","Exact","101 STRASSLE DR, WHITE HOUSE, TN, 37188",29795805,"L"
15963,"101 STRATFORD DRIVE","LAFAYETTE","LA",70503,30.1733268030001,-92.053273936,463,"101 STRATFORD DRIVE, LAFAYETTE, LA, 70503","Match","Exact","101 STRATFORD DR, LAFAYETTE, LA, 70503",85618360,"L"
15964,"101 STRATMORE CIRCLE","BOSSIER CITY","LA",71111,32.5724998040001,-93.719781804,464,"101 STRATMORE CIRCLE, BOSSIER CITY, LA, 71111","Match","Exact","101 STRATMORE CIR, BOSSIER CITY, LA, 71111",108522287,"L"
15965,"101 STRAWS POINT ROAD","RYE","NH",3870,42.993419755,-70.754202009,465,"101 STRAWS POINT ROAD, RYE, NH, 3870","Match","Exact","101 STRAWS PT RD, RYE, NH, 03870",635527361,"L"
15966,"101 STRETCH CT","FRANKFORT","KY",40601,38.206719208,-84.8140100849999,466,"101 STRETCH CT, FRANKFORT, KY, 40601","Match","Non_Exact","101 STRETCH LN, FRANKFORT, KY, 40601",97054033,"L"
15967,"101 SUBURBAN DRIVE","ELKTON","MD",21921,39.6080983040001,-75.7904798709999,467,"101 SUBURBAN DRIVE, ELKTON, MD, 21921","Match","Exact","101 SUBURBAN DR, ELKTON, MD, 21921",207861960,"L"
15968,"101 SUFFOLK CT","GARDEN CITY","KS",67846,37.93295404,-100.861016503,468,"101 SUFFOLK CT, GARDEN CITY, KS, 67846","Match","Exact","101 SUFFOLK CT, GARDEN CITY, KS, 67846",145432222,"R"
15969,"101 SUITE B WOODCHASE PARK DRIVE","CLINTON","MS",39213,NA,NA,469,"101 SUITE B WOODCHASE PARK DRIVE, CLINTON, MS, 39213","No_Match",NA,NA,NA,NA
15970,"101 SULLIVAN DRIVE","PUTNEY","VT",5346,43.113504425,-72.534806175,470,"101 SULLIVAN DRIVE, PUTNEY, VT, 5346","Match","Non_Exact","101 SULLIVAN RD, PUTNEY, VT, 05346",171104081,"L"
15971,"101 SUMBURST DR","FAIRBORN","OH",45324,39.7884433350001,-84.0290814049999,471,"101 SUMBURST DR, FAIRBORN, OH, 45324","Match","Non_Exact","101 SUNBURST DR, FAIRBORN, OH, 45324",143384554,"R"
15972,"101 SUMMER HOUSE LANE","YORK","PA",17408,39.9642587270001,-76.802633385,472,"101 SUMMER HOUSE LANE, YORK, PA, 17408","Match","Exact","101 SUMMER HOUSE LN, YORK, PA, 17408",88756817,"L"
15973,"101 SUMMERSHADE COURT","HARVEST","AL",35749,34.8083591290001,-86.760410645,473,"101 SUMMERSHADE COURT, HARVEST, AL, 35749","Match","Exact","101 SUMMERSHADE CT, HARVEST, AL, 35749",646132489,"L"
15974,"101 SUMMIT AVE UNIT 508","PARK RIDGE","IL",60068,42.0090037910001,-87.82924832,474,"101 SUMMIT AVE UNIT 508, PARK RIDGE, IL, 60068","Match","Exact","101 SUMMIT AVE, PARK RIDGE, IL, 60068",111733392,"L"
15975,"101 SUMMIT AVE","FORT WORTH","TX",76102,NA,NA,475,"101 SUMMIT AVE, FORT WORTH, TX, 76102","No_Match",NA,NA,NA,NA
15976,"101 SUMMIT LANE APT H2","BALA CYNWYD","PA",19027,40.0050056950001,-75.235829778,476,"101 SUMMIT LANE APT H2, BALA CYNWYD, PA, 19027","Match","Non_Exact","101 SUMMIT LN, BALA CYNWYD, PA, 19004",135091531,"R"
15977,"101 SUMMIT VIEW","VICTORIA","TX",77904,28.851563587,-97.0146488029999,477,"101 SUMMIT VIEW, VICTORIA, TX, 77904","Match","Exact","101 SUMMIT VW, VICTORIA, TX, 77904",627182530,"L"
15978,"101 SUNCREST PL","DIVIDE","CO",80814,38.9500567530001,-105.149611437,478,"101 SUNCREST PL, DIVIDE, CO, 80814","Match","Exact","101 SUNCREST PL, DIVIDE, CO, 80814",130951020,"L"
15979,"101 SUNCREST PLACE","DIVIDE","CO",80814,38.9500567530001,-105.149611437,479,"101 SUNCREST PLACE, DIVIDE, CO, 80814","Match","Exact","101 SUNCREST PL, DIVIDE, CO, 80814",130951020,"L"
15980,"101 SUNDEW COURT","ALLENTOWN","PA",18104,40.581076088,-75.584654195,480,"101 SUNDEW COURT, ALLENTOWN, PA, 18104","Match","Exact","101 SUNDEW CT, ALLENTOWN, PA, 18104",80813117,"R"
15981,"101 SUNFLOWER ST","LAKE JACKSON","TX",77566,29.060735446,-95.44246778,481,"101 SUNFLOWER ST, LAKE JACKSON, TX, 77566","Match","Non_Exact","101 SUNFLOWER LN, LAKE JACKSON, TX, 77566",116574328,"R"
15982,"101 SUNNY DALE DRIVE","GREER","SC",29651,34.9364145210001,-82.210502379,482,"101 SUNNY DALE DRIVE, GREER, SC, 29651","Match","Non_Exact","101 SUNNYDALE DR, GREER, SC, 29651",19460225,"L"
15983,"101 SUNNY RIDGE","COUNCIL BLUFFS","IA",51503,41.2759368440001,-95.825970884,483,"101 SUNNY RIDGE, COUNCIL BLUFFS, IA, 51503","Match","Non_Exact","101 SUNNY RIDGE DR, COUNCIL BLUFFS, IA, 51503",43911024,"L"
15984,"101 SUNSET DRIVE","LODI","WI",53555,43.3097666890001,-89.5324125069999,484,"101 SUNSET DRIVE, LODI, WI, 53555","Match","Exact","101 SUNSET DR, LODI, WI, 53555",73342135,"L"
15985,"101 SUPREME COURT DRIVE","LAFAYETTE","LA",70503,30.13251265,-92.091681966,485,"101 SUPREME COURT DRIVE, LAFAYETTE, LA, 70503","Match","Exact","101 SUPREME COURT DR, LAFAYETTE, LA, 70503",85613083,"L"
15986,"101 SURREY LANE","COLONIA","NJ",7067,40.584090019,-74.312374758,486,"101 SURREY LANE, COLONIA, NJ, 7067","Match","Exact","101 SURREY LN, COLONIA, NJ, 07067",60273729,"L"
15987,"101 SURREY PLACE","PERRY","GA",31069,NA,NA,487,"101 SURREY PLACE, PERRY, GA, 31069","No_Match",NA,NA,NA,NA
15988,"101 SURREY RD","ELKINS PARK","PA",19027,40.0646364630001,-75.122769478,488,"101 SURREY RD, ELKINS PARK, PA, 19027","Match","Exact","101 SURREY RD, ELKINS PARK, PA, 19027",135094622,"L"
15989,"101 SUSAN CAROL","SAN ANTONIO","TX",78216,29.500238541,-98.500792744,489,"101 SUSAN CAROL, SAN ANTONIO, TX, 78216","Match","Non_Exact","101 SUSAN CAROL DR, SAN ANTONIO, TX, 78216",101497201,"R"
15990,"101 SUSOBEL PLACE","WOODSTOCK","GA",30188,34.099341333,-84.4558741709999,490,"101 SUSOBEL PLACE, WOODSTOCK, GA, 30188","Match","Non_Exact","101 SUSOBELL PL, WOODSTOCK, GA, 30188",635304704,"L"
15991,"101 SUTHERLAND DR","RADFORD","VA",24141,37.1259347880001,-80.541933725,491,"101 SUTHERLAND DR, RADFORD, VA, 24141","Match","Exact","101 SUTHERLAND DR, RADFORD, VA, 24141",632328985,"L"
15992,"101 SW 117TH AVE","PEMBROKE PINES","FL",33025,26.007057757,-80.303876738,492,"101 SW 117TH AVE, PEMBROKE PINES, FL, 33025","Match","Exact","101 SW 117TH AVE, PEMBROKE PINES, FL, 33025",114790692,"L"
15993,"101 SW 117TH AVE","PEMBROKE PNES","FL",33025,26.007057757,-80.303876738,493,"101 SW 117TH AVE, PEMBROKE PNES, FL, 33025","Match","Exact","101 SW 117TH AVE, PEMBROKE PINES, FL, 33025",114790692,"L"
15994,"101 SW 119TH ST  UNIT 204","BURIEN","WA",98146,47.4967184990001,-122.334970234,494,"101 SW 119TH ST  UNIT 204, BURIEN, WA, 98146","Match","Non_Exact","101 SW 119TH ST, BURIEN, WA, 98146",239765476,"L"
15995,"101 SWAN CT","SPRINGTOWN","TX",76082,32.9742626890001,-97.6795510439999,495,"101 SWAN CT, SPRINGTOWN, TX, 76082","Match","Exact","101 SWAN CT, SPRINGTOWN, TX, 76082",624549354,"L"
15996,"101 SWANN TRAIL","CLAYTON","NC",27527,NA,NA,496,"101 SWANN TRAIL, CLAYTON, NC, 27527","No_Match",NA,NA,NA,NA
15997,"101 SWEET BRIAR TRAIL","STATESBORO","GA",30461,32.4981636540001,-81.7708126489999,497,"101 SWEET BRIAR TRAIL, STATESBORO, GA, 30461","Match","Exact","101 SWEET BRIAR TRL, STATESBORO, GA, 30461",629684223,"L"
15998,"101 SWIFT CURRENTS","AUSTIN","TX",78746,NA,NA,498,"101 SWIFT CURRENTS, AUSTIN, TX, 78746","No_Match",NA,NA,NA,NA
15999,"101 SYCAMORE STREET","BROCKTON","MA",2301,42.08470664,-71.042597063,499,"101 SYCAMORE STREET, BROCKTON, MA, 2301","Match","Exact","101 SYCAMORE ST, BROCKTON, MA, 02301",87443293,"R"
16000,"101 SYDNEY WAY","ELIZABETH CITY","NC",27909,36.3449707350001,-76.2348523799999,500,"101 SYDNEY WAY, ELIZABETH CITY, NC, 27909","Match","Exact","101 SYDNEY WAY, ELIZABETH CITY, NC, 27909",18599828,"L"
