"ID","Address","City","State","Zip","lat","long","id","input_address","match_indicator","match_type","matched_address","tiger_line_id","tiger_side"
691501,"5104 WABASH","KANSAS CITY","MO",64130,39.0336025650001,-94.55591727,1,"5104 WABASH, KANSAS CITY, MO, 64130","Match","Non_Exact","5104 WABASH AVE, KANSAS CITY, MO, 64130",91452436,"R"
691502,"5104 WARBLERS WAY DR","MIDLAND","MI",48640,43.6501683880001,-84.289283945,2,"5104 WARBLERS WAY DR, MIDLAND, MI, 48640","Match","Exact","5104 WARBLERS WAY DR, MIDLAND, MI, 48640",81202438,"R"
691503,"5104 WAVERLY DRIVE","PICO RIVERA","CA",90660,33.9999104070001,-118.08524416,3,"5104 WAVERLY DRIVE, PICO RIVERA, CA, 90660","Match","Exact","5104 WAVERLY DR, PICO RIVERA, CA, 90660",141818134,"L"
691504,"5104 WETHEREDSVILLE ROAD","BALTIMORE","MD",21207,39.3146825690001,-76.7047968059999,4,"5104 WETHEREDSVILLE ROAD, BALTIMORE, MD, 21207","Match","Exact","5104 WETHEREDSVILLE RD, BALTIMORE, MD, 21207",206412542,"R"
691505,"5104 WHISPERING LEAF TRAIL","VALRICO","FL",33596,27.9041052630001,-82.211137322,5,"5104 WHISPERING LEAF TRAIL, VALRICO, FL, 33596","Match","Exact","5104 WHISPERING LEAF TRL, VALRICO, FL, 33596",104627762,"L"
691506,"5104 WILSON DR","METAIRIE","LA",70003,30.026886921,-90.2170842799999,6,"5104 WILSON DR, METAIRIE, LA, 70003","Match","Exact","5104 WILSON DR, METAIRIE, LA, 70003",93493606,"L"
691507,"51048 SIOUX DRIVE","MACOMB","MI",48042,42.6727965200001,-82.92427524,7,"51048 SIOUX DRIVE, MACOMB, MI, 48042","Match","Exact","51048 SIOUX DR, MACOMB, MI, 48042",628786234,"R"
691508,"5105 164TH AVE SE","BELLEVUE","WA",98006,NA,NA,8,"5105 164TH AVE SE, BELLEVUE, WA, 98006","Tie",NA,NA,NA,NA
691509,"5105 54TH ST","LUBBOCK","TX",79414,33.545081528,-101.920430532,9,"5105 54TH ST, LUBBOCK, TX, 79414","Match","Exact","5105 54TH ST, LUBBOCK, TX, 79414",185250902,"L"
691510,"5105 7TH AVENUE DR W","BRADENTON","FL",34209,27.493580631,-82.612464274,10,"5105 7TH AVENUE DR W, BRADENTON, FL, 34209","Match","Exact","5105 7TH AVENUE DR W, BRADENTON, FL, 34209",16232965,"L"
691511,"5105 ALONSO DRIVE","AUSTIN","TX",78738,30.3341515910001,-98.033665195,11,"5105 ALONSO DRIVE, AUSTIN, TX, 78738","Match","Exact","5105 ALONSO DR, AUSTIN, TX, 78738",649001211,"L"
691512,"5105 BALSAM LN N","PLYMOUNTH","MN",55442,45.047643511,-93.4237765239999,12,"5105 BALSAM LN N, PLYMOUNTH, MN, 55442","Match","Non_Exact","5105 BALSAM LN N, PLYMOUTH, MN, 55442",43608229,"L"
691513,"5105 BALTIMORE LN","LANHAM","MD",20706,38.960052395,-76.82485797,13,"5105 BALTIMORE LN, LANHAM, MD, 20706","Match","Exact","5105 BALTIMORE LN, LANHAM, MD, 20706",76310955,"R"
691514,"5105 BERMUDA","KENNEWICK","WA",99338,NA,NA,14,"5105 BERMUDA, KENNEWICK, WA, 99338","No_Match",NA,NA,NA,NA
691515,"5105 BLEEDING HEART STREET","WAUSAU","WI",54401,NA,NA,15,"5105 BLEEDING HEART STREET, WAUSAU, WI, 54401","No_Match",NA,NA,NA,NA
691516,"5105 BURLINGTON AVENUE","PENSACOLA","FL",32505,30.4616336670001,-87.257412384,16,"5105 BURLINGTON AVENUE, PENSACOLA, FL, 32505","Match","Exact","5105 BURLINGTON AVE, PENSACOLA, FL, 32505",93214240,"L"
691517,"5105 BURROW DRIVE","NORTH LITTLE ROCK","AR",72116,34.8023064070001,-92.223346481,17,"5105 BURROW DRIVE, NORTH LITTLE ROCK, AR, 72116","Match","Exact","5105 BURROW DR, N LITTLE ROCK, AR, 72116",83514786,"L"
691518,"5105 CAROLE PLACE SW","STONE MOUNTAIN","GA",30087,33.791213027,-84.08297462,18,"5105 CAROLE PLACE SW, STONE MOUNTAIN, GA, 30087","Match","Non_Exact","5105 CAROLE PL, STONE MOUNTAIN, GA, 30087",645507814,"L"
691519,"5105 COTTAGE BLUFF LN","KNIGHTDALE","NC",27545,35.7656203920001,-78.469903895,19,"5105 COTTAGE BLUFF LN, KNIGHTDALE, NC, 27545","Match","Exact","5105 COTTAGE BLUFF LN, KNIGHTDALE, NC, 27545",72600067,"R"
691520,"5105 DAIS STREET","REMBERT","SC",29128,34.0650963350001,-80.494040846,20,"5105 DAIS STREET, REMBERT, SC, 29128","Match","Non_Exact","5105 DAIS RD, REMBERT, SC, 29128",202663573,"R"
691521,"5105 DANENS DRIVE","EDINA","MN",55439,44.8790613790001,-93.351771957,21,"5105 DANENS DRIVE, EDINA, MN, 55439","Match","Exact","5105 DANENS DR, EDINA, MN, 55439",43834659,"L"
691522,"5105 DAVENPORT STREET","OMAHA","NE",68132,41.2614044920001,-95.992947229,22,"5105 DAVENPORT STREET, OMAHA, NE, 68132","Match","Exact","5105 DAVENPORT ST, OMAHA, NE, 68132",116983032,"L"
691523,"5105 DODSON ST","SOMIS","CA",93066,34.2589054160001,-119.00112113,23,"5105 DODSON ST, SOMIS, CA, 93066","Match","Exact","5105 DODSON ST, SOMIS, CA, 93066",109960466,"L"
691524,"5105 E BUTTERWEED DR","TUCSON","AZ",85756,32.1296091500001,-110.88407737,24,"5105 E BUTTERWEED DR, TUCSON, AZ, 85756","Match","Exact","5105 E BUTTERWEED DR, TUCSON, AZ, 85756",606817244,"L"
691525,"5105 EAST 500 SOUTH","WHITESTOWN","IN",46075,39.967797224,-86.3717156069999,25,"5105 EAST 500 SOUTH, WHITESTOWN, IN, 46075","Match","Exact","5105 E 500 S, WHITESTOWN, IN, 46075",610976498,"R"
691526,"5105 EAST WOODWIND LANE","ANAHEIM","CA",92870,33.867126258,-117.802679648,26,"5105 EAST WOODWIND LANE, ANAHEIM, CA, 92870","Match","Non_Exact","5105 E WOODWIND LN, ANAHEIM, CA, 92807",144032584,"L"
691527,"5105 ESHER COURT","VIRGINIA BEACH","VA",23464,36.8000585120001,-76.1538677189999,27,"5105 ESHER COURT, VIRGINIA BEACH, VA, 23464","Match","Exact","5105 ESHER CT, VA BCH, VA, 23464",122265152,"R"
691528,"5105 EVANDERS WAY APT 307","CHARLOTTE","NC",28216,NA,NA,28,"5105 EVANDERS WAY APT 307, CHARLOTTE, NC, 28216","No_Match",NA,NA,NA,NA
691529,"5105 EVELYN BYRD RD","RICHMOND","VA",23225,37.527738835,-77.488647671,29,"5105 EVELYN BYRD RD, RICHMOND, VA, 23225","Match","Exact","5105 EVELYN BYRD RD, RICHMOND, VA, 23225",201536682,"R"
691530,"5105 FORDS MILL RD","VERSAILLES","KY",40383,37.899846521,-84.748654959,30,"5105 FORDS MILL RD, VERSAILLES, KY, 40383","Match","Exact","5105 FORDS MILL RD, VERSAILLES, KY, 40383",636715372,"L"
691531,"5105 GARRETT STREAM COURT","DALLAS","TX",75206,32.812294412,-96.7792518749999,31,"5105 GARRETT STREAM COURT, DALLAS, TX, 75206","Match","Exact","5105 GARRETT STREAM CT, DALLAS, TX, 75206",651877079,"L"
691532,"5105 GEMMA WAY APT 1","LOUISVILLE","KY",40219,38.158508646,-85.672219774,32,"5105 GEMMA WAY APT 1, LOUISVILLE, KY, 40219","Match","Exact","5105 GEMMA WAY, LOUISVILLE, KY, 40219",618511978,"L"
691533,"5105 GLEN FRANK DR","LEWISBURG","OH",45338,39.813960665,-84.570351729,33,"5105 GLEN FRANK DR, LEWISBURG, OH, 45338","Match","Exact","5105 GLEN FRANK DR, LEWISBURG, OH, 45338",54606749,"L"
691534,"5105 GOLDEN EYE DR","PORTAGE","MI",49024,42.2437679670001,-85.6299202279999,34,"5105 GOLDEN EYE DR, PORTAGE, MI, 49024","Match","Exact","5105 GOLDEN EYE DR, PORTAGE, MI, 49024",12240149,"R"
691535,"5105 GRAND LOOP UNIT 301","TACOMA","WA",98407,47.299078347,-122.505130706,35,"5105 GRAND LOOP UNIT 301, TACOMA, WA, 98407","Match","Exact","5105 GRAND LOOP, TACOMA, WA, 98407",645053594,"R"
691536,"5105 HADDONSTONE DRIVE","ARLINGTON","TX",76017,32.6637621890001,-97.218523529,36,"5105 HADDONSTONE DRIVE, ARLINGTON, TX, 76017","Match","Exact","5105 HADDONSTONE DR, ARLINGTON, TX, 76017",102188631,"L"
691537,"5105 HARVARD DR","BARTLESVILLE","OK",74006,36.7471733740001,-95.9203743419999,37,"5105 HARVARD DR, BARTLESVILLE, OK, 74006","Match","Exact","5105 HARVARD DR, BARTLESVILLE, OK, 74006",18706817,"L"
691538,"5105 HOLLOW LOG LANE","BIRMINGHAM","AL",35244,33.3795885260001,-86.746136634,38,"5105 HOLLOW LOG LANE, BIRMINGHAM, AL, 35244","Match","Exact","5105 HOLLOW LOG LN, BIRMINGHAM, AL, 35244",82108479,"L"
691539,"5105 INDIANOLA AVE","INDIANAPOLIS","IN",46205,39.8454992380001,-86.1351906469999,39,"5105 INDIANOLA AVE, INDIANAPOLIS, IN, 46205","Match","Exact","5105 INDIANOLA AVE, INDIANAPOLIS, IN, 46205",108067966,"R"
691540,"5105 IRVINGTON PLACE","LOS ANGELES","CA",90042,34.115097189,-118.205713632,40,"5105 IRVINGTON PLACE, LOS ANGELES, CA, 90042","Match","Exact","5105 IRVINGTON PL, LOS ANGELES, CA, 90042",141613970,"L"
691541,"5105 JUNIUS STREET","DALLAS","TX",75214,32.8013679650001,-96.76575862,41,"5105 JUNIUS STREET, DALLAS, TX, 75214","Match","Exact","5105 JUNIUS ST, DALLAS, TX, 75214",102919758,"L"
691542,"5105 KINDERSTON DR","HOLLY SPRINGS","NC",27540,35.648093251,-78.804524989,42,"5105 KINDERSTON DR, HOLLY SPRINGS, NC, 27540","Match","Exact","5105 KINDERSTON DR, HOLLY SPRINGS, NC, 27540",72580011,"L"
691543,"5105 LAKEWIND DRIVE","BUTTE DES MORTS","WI",54927,44.1013141940001,-88.6541811229999,43,"5105 LAKEWIND DRIVE, BUTTE DES MORTS, WI, 54927","Match","Exact","5105 LAKEWIND DR, BUTTE DES MORTS, WI, 54927",74483309,"L"
691544,"5105 LEANING OAK DRIVE","KILLEEN","TX",76542,31.0599648640001,-97.710657345,44,"5105 LEANING OAK DRIVE, KILLEEN, TX, 76542","Match","Exact","5105 LEANING OAK DR, KILLEEN, TX, 76542",146167198,"R"
691545,"5105 LINCOLN VILLAGE DRIVE","COLUMBUS","IN",47203,NA,NA,45,"5105 LINCOLN VILLAGE DRIVE, COLUMBUS, IN, 47203","Tie",NA,NA,NA,NA
691546,"5105 MARATHON LANE","RALEIGH","NC",27616,35.8408242090001,-78.557640131,46,"5105 MARATHON LANE, RALEIGH, NC, 27616","Match","Exact","5105 MARATHON LN, RALEIGH, NC, 27616",612818446,"L"
691547,"5105 N 135TH AVE","OMAHA","NE",68164,41.304457099,-96.126192983,47,"5105 N 135TH AVE, OMAHA, NE, 68164","Match","Exact","5105 N 135TH AVE, OMAHA, NE, 68164",117005054,"R"
691548,"5105 N HEARSEY DRIVE","AUSTIN","TX",78744,30.1985974620001,-97.733345473,48,"5105 N HEARSEY DRIVE, AUSTIN, TX, 78744","Match","Exact","5105 N HEARSEY DR, AUSTIN, TX, 78744",64014044,"L"
691549,"5105 N TONGASS HWY","KETCHIKAN","AK",99901,55.3760403890001,-131.725706982,49,"5105 N TONGASS HWY, KETCHIKAN, AK, 99901","Match","Exact","5105 N TONGASS HWY, KETCHIKAN, AK, 99901",207039329,"L"
691550,"5105 NE 19TH STREET","OKLAHOMA CITY","OK",73127,35.4896737180001,-97.614946248,50,"5105 NE 19TH STREET, OKLAHOMA CITY, OK, 73127","Match","Non_Exact","5105 NW 19TH ST, OKLAHOMA CITY, OK, 73127",100426504,"R"
691551,"5105 NW 21 AVENUE SUITE 450","FORT LAUDERDALE","FL",33309,26.189244182,-80.1712077139999,51,"5105 NW 21 AVENUE SUITE 450, FORT LAUDERDALE, FL, 33309","Match","Non_Exact","5105 NW 21ST AVE, FORT LAUDERDALE, FL, 33309",114787470,"L"
691552,"5105 OAK BAYOU AVENUE","MARRERO","LA",70072,29.870158222,-90.102551519,52,"5105 OAK BAYOU AVENUE, MARRERO, LA, 70072","Match","Exact","5105 OAK BAYOU AVE, MARRERO, LA, 70072",93532882,"R"
691553,"5105 PERRIER ST","NEW ORLEANS","LA",70115,29.923956251,-90.109988056,53,"5105 PERRIER ST, NEW ORLEANS, LA, 70115","Match","Exact","5105 PERRIER ST, NEW ORLEANS, LA, 70115",191712790,"R"
691554,"5105 PORTRAITS PL","LAS VEGAS","NV",89149,36.2537827100001,-115.250088215,54,"5105 PORTRAITS PL, LAS VEGAS, NV, 89149","Match","Exact","5105 PORTRAITS PL, LAS VEGAS, NV, 89149",201907238,"L"
691555,"5105 PROMISE LAND DRIVE","FRISCO","TX",75035,33.12063984,-96.786398527,55,"5105 PROMISE LAND DRIVE, FRISCO, TX, 75035","Match","Exact","5105 PROMISE LAND DR, FRISCO, TX, 75035",123527875,"L"
691556,"5105 QUAKER DRIVE","SUFFOLK","VA",23437,36.6580343320001,-76.718610943,56,"5105 QUAKER DRIVE, SUFFOLK, VA, 23437","Match","Exact","5105 QUAKER DR, SUFFOLK, VA, 23437",122236981,"L"
691557,"5105 QUANTICO LN N","PLYMOUTH","MN",55446,45.0460351070001,-93.476293512,57,"5105 QUANTICO LN N, PLYMOUTH, MN, 55446","Match","Exact","5105 QUANTICO LN N, PLYMOUTH, MN, 55446",43665368,"L"
691558,"5105 RED FOX DRIVE","ANNANDALE","VA",22003,38.8134912080001,-77.2579708379999,58,"5105 RED FOX DRIVE, ANNANDALE, VA, 22003","Match","Exact","5105 RED FOX DR, ANNANDALE, VA, 22003",76024449,"L"
691559,"5105 ROHN AVE","TAMPA","FL",33614,27.9925469180001,-82.48796823,59,"5105 ROHN AVE, TAMPA, FL, 33614","Match","Non_Exact","5105 ROHN AVE N, TAMPA, FL, 33614",104516353,"R"
691560,"5105 S HARPER APT 609","CHICAGO","IL",60615,NA,NA,60,"5105 S HARPER APT 609, CHICAGO, IL, 60615","No_Match",NA,NA,NA,NA
691561,"5105 S","AUSTIN","TX",78721,NA,NA,61,"5105 S, AUSTIN, TX, 78721","No_Match",NA,NA,NA,NA
691562,"5105 SE 302ND AVE","GRESHAM","OR",97080,45.4856455930001,-122.35225244,62,"5105 SE 302ND AVE, GRESHAM, OR, 97080","Match","Exact","5105 SE 302ND AVE, GRESHAM, OR, 97080",157531494,"L"
691563,"5105 SE 302ND AVENUE","GRESHAM","OR",97080,45.4856455930001,-122.35225244,63,"5105 SE 302ND AVENUE, GRESHAM, OR, 97080","Match","Exact","5105 SE 302ND AVE, GRESHAM, OR, 97080",157531494,"L"
691564,"5105 SELMA PIKE","SPRINGFIELD","OH",45502,39.8471373410001,-83.767340894,64,"5105 SELMA PIKE, SPRINGFIELD, OH, 45502","Match","Exact","5105 SELMA PIKE, SPRINGFIELD, OH, 45502",135014499,"R"
691565,"5105 SOUTH ARGONNE STREET","CENTENNIAL","CO",80015,39.623456682,-104.771286993,65,"5105 SOUTH ARGONNE STREET, CENTENNIAL, CO, 80015","Match","Exact","5105 S ARGONNE ST, CENTENNIAL, CO, 80015",177517988,"L"
691566,"5105 SOUTH PARK LANE","SPOKANE","WA",99223,47.6094812110001,-117.300738031,66,"5105 SOUTH PARK LANE, SPOKANE, WA, 99223","Match","Exact","5105 S PARK LN, SPOKANE, WA, 99223",189899519,"R"
691567,"5105 SOUTH ROLLING GREEN AVE - 302","SIOUX FALLS","SD",57108,43.500061294,-96.777266869,67,"5105 SOUTH ROLLING GREEN AVE - 302, SIOUX FALLS, SD, 57108","Match","Exact","5105 S ROLLING GREEN AVE, SIOUX FALLS, SD, 57108",629618148,"L"
691568,"5105 SOUTHBURY DRIVE","ROSEVILLE","CA",95747,38.7730304580001,-121.382709676,68,"5105 SOUTHBURY DRIVE, ROSEVILLE, CA, 95747","Match","Exact","5105 SOUTHBURY DR, ROSEVILLE, CA, 95747",649970168,"R"
691569,"5105 SOUTHSIDE DR","NICHAS","SC",29418,32.860187335,-80.034102882,69,"5105 SOUTHSIDE DR, NICHAS, SC, 29418","Match","Non_Exact","5105 SOUTHSIDE DR, CHARLESTON, SC, 29418",108851468,"L"
691570,"5105 STAGE COARCH RD","STOUGHTON","MA",2072,NA,NA,70,"5105 STAGE COARCH RD, STOUGHTON, MA, 2072","No_Match",NA,NA,NA,NA
691571,"5105 STAGECOACH WAY","ANTIOCH","CA",94531,37.954632229,-121.768151233,71,"5105 STAGECOACH WAY, ANTIOCH, CA, 94531","Match","Exact","5105 STAGECOACH WAY, ANTIOCH, CA, 94531",192099755,"L"
691572,"5105 STANDIFER RD","COHUTTA","GA",30710,34.9485954950001,-84.974913468,72,"5105 STANDIFER RD, COHUTTA, GA, 30710","Match","Exact","5105 STANDIFER RD, COHUTTA, GA, 30710",653690944,"L"
691573,"5105 STRATFORD ROAD","NORTH LITTLE ROCK","AR",72116,34.801617573,-92.241034016,73,"5105 STRATFORD ROAD, NORTH LITTLE ROCK, AR, 72116","Match","Exact","5105 STRATFORD RD, N LITTLE ROCK, AR, 72116",83514296,"L"
691574,"5105 SWELLS PT DR","FREDERICKSBURG","VA",22407,NA,NA,74,"5105 SWELLS PT DR, FREDERICKSBURG, VA, 22407","No_Match",NA,NA,NA,NA
691575,"5105 THEDA DRIVE","AMARILLO","TX",79109,35.153660535,-101.898534651,75,"5105 THEDA DRIVE, AMARILLO, TX, 79109","Match","Exact","5105 THEDA DR, AMARILLO, TX, 79109",182653097,"L"
691576,"5105 THOMAS LONG ROAD","CRISFIELD","MD",21817,38.022892873,-75.825703539,76,"5105 THOMAS LONG ROAD, CRISFIELD, MD, 21817","Match","Exact","5105 THOMAS LONG RD, CRISFIELD, MD, 21817",104147046,"R"
691577,"5105 THORNRIDGE DR","COLUMBIA","MO",65203,38.894511123,-92.346170598,77,"5105 THORNRIDGE DR, COLUMBIA, MO, 65203","Match","Exact","5105 THORNRIDGE DR, COLUMBIA, MO, 65203",23486112,"L"
691578,"5105 TILLARY ROAD","KNOXVILLE","TN",37912,35.9964995870001,-83.9802061459999,78,"5105 TILLARY ROAD, KNOXVILLE, TN, 37912","Match","Non_Exact","5105 TILLERY RD, KNOXVILLE, TN, 37912",42659032,"L"
691579,"5105 VAN SLYKE RD","FLINT","MI",48507,NA,NA,79,"5105 VAN SLYKE RD, FLINT, MI, 48507","No_Match",NA,NA,NA,NA
691580,"5105 VILLAGEWOOD DRIVE","SACRAMENTO","CA",95823,38.4555708250001,-121.443246231,80,"5105 VILLAGEWOOD DRIVE, SACRAMENTO, CA, 95823","Match","Non_Exact","5105 VILLAGE WOOD DR, SACRAMENTO, CA, 95823",133389358,"R"
691581,"5105 W 49TH ST","EDINA","MN",55436,44.9132796540001,-93.3531143599999,81,"5105 W 49TH ST, EDINA, MN, 55436","Match","Exact","5105 W 49TH ST, EDINA, MN, 55436",43650529,"L"
691582,"5105 WALLIS ROAD","BRYAN","TX",77808,30.707890655,-96.327866021,82,"5105 WALLIS ROAD, BRYAN, TX, 77808","Match","Exact","5105 WALLIS RD, BRYAN, TX, 77808",650530357,"R"
691583,"5105 WEST 7TH STREET","SANTA ANA","CA",92703,33.7505857420001,-117.936544009,83,"5105 WEST 7TH STREET, SANTA ANA, CA, 92703","Match","Exact","5105 W 7TH ST, SANTA ANA, CA, 92703",609056822,"R"
691584,"5105 WEST BENT GRASS","SIOUX FALLS","SD",57107,43.575993843,-96.789430334,84,"5105 WEST BENT GRASS, SIOUX FALLS, SD, 57107","Match","Non_Exact","5105 W BENT GRASS ST, SIOUX FALLS, SD, 57107",34992943,"R"
691585,"5105 WEST DULIN LANE","BROOKLINE","MO",65619,37.128401001,-93.389640291,85,"5105 WEST DULIN LANE, BROOKLINE, MO, 65619","Match","Exact","5105 W DULIN LN, BROOKLINE, MO, 65619",605905170,"L"
691586,"5105 WILLIAMS FORK TRAIL APT 207","BOULDER","CO",80301,40.0664904810001,-105.197737838,86,"5105 WILLIAMS FORK TRAIL APT 207, BOULDER, CO, 80301","Match","Exact","5105 WILLIAMS FORK TRL, BOULDER, CO, 80301",188171568,"L"
691587,"5105 YOSEMITE DRIVE","ROCKVILLE","MD",20853,39.0930439100001,-77.102236378,87,"5105 YOSEMITE DRIVE, ROCKVILLE, MD, 20853","Match","Exact","5105 YOSEMITE DR, ROCKVILLE, MD, 20853",62059414,"R"
691588,"5106 14TH STREET","GULFPORT","MS",39501,30.364072079,-89.128101751,88,"5106 14TH STREET, GULFPORT, MS, 39501","Match","Exact","5106 14TH ST, GULFPORT, MS, 39501",111389702,"R"
691589,"5106 27TH AVENUE NE","SEATTLE","WA",98105,47.66644775,-122.298486945,89,"5106 27TH AVENUE NE, SEATTLE, WA, 98105","Match","Exact","5106 27TH AVE NE, SEATTLE, WA, 98105",186585773,"R"
691590,"5106 97TH STREET","CORONA","NY",11368,NA,NA,90,"5106 97TH STREET, CORONA, NY, 11368","No_Match",NA,NA,NA,NA
691591,"5106 ALDERNEY","ROSENBERG","TX",77471,29.555212243,-95.775762245,91,"5106 ALDERNEY, ROSENBERG, TX, 77471","Match","Non_Exact","5106 ALDERNEY CT, ROSENBERG, TX, 77471",78329653,"R"
691592,"5106 AMBER HILL PL","LOUISVILLE","KY",40241,38.3145375980001,-85.551589628,92,"5106 AMBER HILL PL, LOUISVILLE, KY, 40241","Match","Exact","5106 AMBER HILL PL, LOUISVILLE, KY, 40241",96935536,"L"
691593,"5106 AMBER HILL PLACE","LOUISVILLE","KY",40241,38.3145375980001,-85.551589628,93,"5106 AMBER HILL PLACE, LOUISVILLE, KY, 40241","Match","Exact","5106 AMBER HILL PL, LOUISVILLE, KY, 40241",96935536,"L"
691594,"5106 ANDERSON STREET","SHAWNEE","KS",66226,39.036822955,-94.847857447,94,"5106 ANDERSON STREET, SHAWNEE, KS, 66226","Match","Exact","5106 ANDERSON ST, SHAWNEE, KS, 66226",91310293,"R"
691595,"5106 CALDERA DRIVE","SPARKS","NV",89436,39.5863053840001,-119.72294882,95,"5106 CALDERA DRIVE, SPARKS, NV, 89436","Match","Exact","5106 CALDERA DR, SPARKS, NV, 89436",107102053,"L"
691596,"5106 CAREW","HOUSTON","TX",77025,NA,NA,96,"5106 CAREW, HOUSTON, TX, 77025","No_Match",NA,NA,NA,NA
691597,"5106 COMANCHE NE","ALBUQUERQUE","NM",87110,35.123286889,-106.587652822,97,"5106 COMANCHE NE, ALBUQUERQUE, NM, 87110","Match","Non_Exact","5106 COMANCHE RD NE, ALBUQUERQUE, NM, 87110",206712455,"R"
691598,"5106 CREEKWOOD DRIVE","GREENVILLE","IN",47124,38.3531024930001,-85.953793895,98,"5106 CREEKWOOD DRIVE, GREENVILLE, IN, 47124","Match","Exact","5106 CREEKWOOD DR, GREENVILLE, IN, 47124",89553451,"R"
691599,"5106 CROSSWOOD AVE","BALTIMORE","MD",21214,39.3431832420001,-76.5579541069999,99,"5106 CROSSWOOD AVE, BALTIMORE, MD, 21214","Match","Exact","5106 CROSSWOOD AVE, BALTIMORE, MD, 21214",206411256,"L"
691600,"5106 DAWN VIEW PL","LOS ANGELES","CA",90043,33.9943894370001,-118.358001715,100,"5106 DAWN VIEW PL, LOS ANGELES, CA, 90043","Match","Exact","5106 DAWN VIEW PL, LOS ANGELES, CA, 90043",141653686,"L"
691601,"5106 EAST BAKER DRIVE","CAVE CREEK","AZ",85331,33.7558634050001,-111.971570025,101,"5106 EAST BAKER DRIVE, CAVE CREEK, AZ, 85331","Match","Exact","5106 E BAKER DR, CAVE CREEK, AZ, 85331",128374131,"L"
691602,"5106 FOREST RIDGE DRIVE","MCDONALD","PA",15057,40.3639378550001,-80.1691818849999,102,"5106 FOREST RIDGE DRIVE, MCDONALD, PA, 15057","Match","Non_Exact","5106 FOREST RIDGE DR, MC DONALD, PA, 15057",51936605,"R"
691603,"5106 FOREST VIEW CT","ANN ARBOR","MI",48108,42.2122042080001,-83.768196277,103,"5106 FOREST VIEW CT, ANN ARBOR, MI, 48108","Match","Exact","5106 FOREST VIEW CT, ANN ARBOR, MI, 48108",26035288,"L"
691604,"5106 GLORE ROAD SW","MABLETON","GA",30126,33.8291011790001,-84.5913295189999,104,"5106 GLORE ROAD SW, MABLETON, GA, 30126","Match","Exact","5106 GLORE RD SW, MABLETON, GA, 30126",17207406,"R"
691605,"5106 GLOW HAVEN WAY","PERRY HALL","MD",21128,39.4054009120001,-76.427654252,105,"5106 GLOW HAVEN WAY, PERRY HALL, MD, 21128","Match","Exact","5106 GLOW HAVEN WAY, PERRY HALL, MD, 21128",633841513,"L"
691606,"5106 HAVENWOOD COURT","UPPER MARLBORO","MD",20772,NA,NA,106,"5106 HAVENWOOD COURT, UPPER MARLBORO, MD, 20772","No_Match",NA,NA,NA,NA
691607,"5106 HONEA EGYPT RD","MONTOMERY","TX",77316,NA,NA,107,"5106 HONEA EGYPT RD, MONTOMERY, TX, 77316","No_Match",NA,NA,NA,NA
691608,"5106 IVY CHASE WAY NE","ATLANTA","GA",30342,33.8562295,-84.382165357,108,"5106 IVY CHASE WAY NE, ATLANTA, GA, 30342","Match","Non_Exact","5106 IVY CHASE WAY, ATLANTA, GA, 30342",618356168,"L"
691609,"5106 JALISCO LANE","ORLANDO","FL",32808,28.489134891,-81.3068362179999,109,"5106 JALISCO LANE, ORLANDO, FL, 32808","Match","Non_Exact","5106 JALISCO LN, ORLANDO, FL, 32822",625166702,"R"
691610,"5106 KITTIE LEE LANE","MEMPHIS","TN",38118,35.0602582010001,-89.892809112,110,"5106 KITTIE LEE LANE, MEMPHIS, TN, 38118","Match","Exact","5106 KITTIE LEE LN, MEMPHIS, TN, 38118",72928063,"L"
691611,"5106 LAMAR BLVD APT 135","AUSTIN","TX",78751,30.3183270170001,-97.731094148,111,"5106 LAMAR BLVD APT 135, AUSTIN, TX, 78751","Match","Non_Exact","5106 N LAMAR BLVD, AUSTIN, TX, 78751",63931531,"L"
691612,"5106 LANAI WAY","TAMPA","FL",33624,28.0705481090001,-82.5350737059999,112,"5106 LANAI WAY, TAMPA, FL, 33624","Match","Exact","5106 LANAI WAY, TAMPA, FL, 33624",104510177,"R"
691613,"5106 LEE STREET","LEHIGH ACRES","FL",33971,26.616800961,-81.733379258,113,"5106 LEE STREET, LEHIGH ACRES, FL, 33971","Match","Exact","5106 LEE ST, LEHIGH ACRES, FL, 33971",118047202,"R"
691614,"5106 MANDURIA ST","ORLANDO","FL",32819,28.4527494500001,-81.448544613,114,"5106 MANDURIA ST, ORLANDO, FL, 32819","Match","Exact","5106 MANDURIA ST, ORLANDO, FL, 32819",94289551,"L"
691615,"5106 MEADOWS RUN","RICHMOND","VA",23223,37.5581691530001,-77.359830529,115,"5106 MEADOWS RUN, RICHMOND, VA, 23223","Match","Exact","5106 MEADOWS RUN, RICHMOND, VA, 23223",106650925,"L"
691616,"5106 MIDDAY DRIVE","FLORISSANT","MO",63033,38.7952992630001,-90.258605621,116,"5106 MIDDAY DRIVE, FLORISSANT, MO, 63033","Match","Exact","5106 MIDDAY DR, FLORISSANT, MO, 63033",100189394,"R"
691617,"5106 MOUNT TOBIN PLACE","WINNECMUCCA","NV",89445,40.9573669700001,-117.71351388,117,"5106 MOUNT TOBIN PLACE, WINNECMUCCA, NV, 89445","Match","Non_Exact","5106 MOUNT TOBIN PL, WINNEMUCCA, NV, 89445",170920864,"R"
691618,"5106 MOUNT TOBIN PLACE","WINNEMUCCA","NV",89445,40.9573669700001,-117.71351388,118,"5106 MOUNT TOBIN PLACE, WINNEMUCCA, NV, 89445","Match","Exact","5106 MOUNT TOBIN PL, WINNEMUCCA, NV, 89445",170920864,"R"
691619,"5106 N ALBINA AVE","PORTLAND","OR",97217,45.559817454,-122.674984396,119,"5106 N ALBINA AVE, PORTLAND, OR, 97217","Match","Exact","5106 N ALBINA AVE, PORTLAND, OR, 97217",157503326,"R"
691620,"5106 N AVERS","CHICAGO","IL",60625,41.9739674800001,-87.724556405,120,"5106 N AVERS, CHICAGO, IL, 60625","Match","Non_Exact","5106 N AVERS AVE, CHICAGO, IL, 60625",605183984,"R"
691621,"5106 N HALES DR 153","OKLAHOMA CITY","OK",73136,35.5222259810001,-97.5695479089999,121,"5106 N HALES DR 153, OKLAHOMA CITY, OK, 73136","Match","Non_Exact","5106 HALES DR, OKLAHOMA CITY, OK, 73112",100396050,"R"
691622,"5106 N LAMAR BLVD UNIT 127","AUSTIN","TX",78751,30.3183274740001,-97.731093812,122,"5106 N LAMAR BLVD UNIT 127, AUSTIN, TX, 78751","Match","Non_Exact","5106 N LAMAR BLVD, AUSTIN, TX, 78751",63931531,"L"
691623,"5106 NEW HAMPSHIRE AVENUE NW","WASHINGTON D.C.","VA",20011,NA,NA,123,"5106 NEW HAMPSHIRE AVENUE NW, WASHINGTON D.C., VA, 20011","No_Match",NA,NA,NA,NA
691624,"5106 NW 61ST AVE","OCALA","FL",34462,29.2397830510001,-82.22003513,124,"5106 NW 61ST AVE, OCALA, FL, 34462","Match","Non_Exact","5106 NW 61ST AVE, OCALA, FL, 34482",116798505,"L"
691625,"5106 NW ASH AVENUE","LAWTON","OK",73505,34.6166868780001,-98.455101659,125,"5106 NW ASH AVENUE, LAWTON, OK, 73505","Match","Exact","5106 NW ASH AVE, LAWTON, OK, 73505",14991247,"L"
691626,"5106 PARKSIDE DRIVE","NORTH CHARLESTON","SC",29405,32.889490096,-79.9910541679999,126,"5106 PARKSIDE DRIVE, NORTH CHARLESTON, SC, 29405","Match","Exact","5106 PARKSIDE DR, N CHARLESTON, SC, 29405",108799345,"L"
691627,"5106 PARKVIEW DR","OMAHA","NE",68134,41.305359395,-96.066453705,127,"5106 PARKVIEW DR, OMAHA, NE, 68134","Match","Exact","5106 PARKVIEW DR, OMAHA, NE, 68134",116968963,"L"
691628,"5106 PARRISH CREEK TERRACE","CHESTEFIELD","VA",23832,37.4166308100001,-77.6036960169999,128,"5106 PARRISH CREEK TERRACE, CHESTEFIELD, VA, 23832","Match","Non_Exact","5106 PARRISH CREEK TER, CHESTERFIELD, VA, 23832",624688959,"R"
691629,"5106 RAVENS FOREST LN","KATY","TX",77494,29.719787964,-95.804687976,129,"5106 RAVENS FOREST LN, KATY, TX, 77494","Match","Non_Exact","5106 RAVEN FOREST LN, KATY, TX, 77494",624621955,"R"
691630,"5106 RHODESDALE VIENNA RD","RHODESDALE","MD",21659,NA,NA,130,"5106 RHODESDALE VIENNA RD, RHODESDALE, MD, 21659","No_Match",NA,NA,NA,NA
691631,"5106 RIO GRANDE","MIDLAND","TX",79705,NA,NA,131,"5106 RIO GRANDE, MIDLAND, TX, 79705","No_Match",NA,NA,NA,NA
691632,"5106 ROLLING OAK LANE","CHARLOTTE","NC",28227,35.192501324,-80.7128865339999,132,"5106 ROLLING OAK LANE, CHARLOTTE, NC, 28227","Match","Exact","5106 ROLLING OAK LN, CHARLOTTE, NC, 28227",70494501,"L"
691633,"5106 SCARBOROUGH MEWS","WILLIAMSBURG","VA",23188,37.2998513630001,-76.743491993,133,"5106 SCARBOROUGH MEWS, WILLIAMSBURG, VA, 23188","Match","Exact","5106 SCARBOROUGH MEWS, WILLIAMSBURG, VA, 23188",103772788,"L"
691634,"5106 SOUTH WASHINGTON AVE","LANSING","MI",48911,42.682795991,-84.562796743,134,"5106 SOUTH WASHINGTON AVE, LANSING, MI, 48911","Match","Exact","5106 S WASHINGTON AVE, LANSING, MI, 48911",652793777,"R"
691635,"5106 SOUTHPORT DRIVE","ROWLETT","TX",75088,32.8827325190001,-96.5546526259999,135,"5106 SOUTHPORT DRIVE, ROWLETT, TX, 75088","Match","Exact","5106 SOUTHPORT DR, ROWLETT, TX, 75088",103172547,"L"
691636,"5106 STATE HIGHWAY Y","GALENA","MO",65656,NA,NA,136,"5106 STATE HIGHWAY Y, GALENA, MO, 65656","No_Match",NA,NA,NA,NA
691637,"5106 STONEYWOOD CIRCLE SE","MABLETON","GA",30126,33.825326342,-84.5431112859999,137,"5106 STONEYWOOD CIRCLE SE, MABLETON, GA, 30126","Match","Exact","5106 STONEYWOOD CIR SE, MABLETON, GA, 30126",17223426,"L"
691638,"5106 STRAIGHTLINE PIKE","RICHMOND","IN",47374,39.757127321,-84.8899948979999,138,"5106 STRAIGHTLINE PIKE, RICHMOND, IN, 47374","Match","Exact","5106 STRAIGHTLINE PIKE, RICHMOND, IN, 47374",31325613,"L"
691639,"5106 TILDEN AVENUE","BROOKLYN","NY",11203,40.6482468880001,-73.9288679429999,139,"5106 TILDEN AVENUE, BROOKLYN, NY, 11203","Match","Exact","5106 TILDEN AVE, BROOKLYN, NY, 11203",59085756,"R"
691640,"5106 VILLAGE SQUARE DR","AUSTIN","TX",78744,30.18817282,-97.744246072,140,"5106 VILLAGE SQUARE DR, AUSTIN, TX, 78744","Match","Exact","5106 VILLAGE SQUARE DR, AUSTIN, TX, 78744",63950191,"L"
691641,"5106 W ADAMS","CHICAGO","IL",60644,41.878494092,-87.753684585,141,"5106 W ADAMS, CHICAGO, IL, 60644","Match","Non_Exact","5106 W ADAMS ST, CHICAGO, IL, 60644",111765664,"R"
691642,"5106 WATERLICK RD","FOREST","VA",24551,37.3397809360001,-79.278328668,142,"5106 WATERLICK RD, FOREST, VA, 24551","Match","Exact","5106 WATERLICK RD, FOREST, VA, 24551",62679635,"R"
691643,"5106 WEDGEFIELD RD","GRANBURY","TX",76049,32.365024572,-97.684209187,143,"5106 WEDGEFIELD RD, GRANBURY, TX, 76049","Match","Exact","5106 WEDGEFIELD RD, GRANBURY, TX, 76049",158793606,"R"
691644,"5106 WOLFPEN WOODS DRIVE","PROSPECT","KY",40059,38.3218041320001,-85.6059735699999,144,"5106 WOLFPEN WOODS DRIVE, PROSPECT, KY, 40059","Match","Exact","5106 WOLFPEN WOODS DR, PROSPECT, KY, 40059",96888707,"R"
691645,"5106 WOODLAW AVE","LOS ANGELES","CA",90011,NA,NA,145,"5106 WOODLAW AVE, LOS ANGELES, CA, 90011","No_Match",NA,NA,NA,NA
691646,"5106 YALE CT","BRENTWOOD","TN",37027,36.0118247620001,-86.8086803039999,146,"5106 YALE CT, BRENTWOOD, TN, 37027","Match","Exact","5106 YALE CT, BRENTWOOD, TN, 37027",607905016,"R"
691647,"51063 29 PALMS HWY 57","MORONGO VALLEY","CA",92256,34.0698597050001,-116.550830369,147,"51063 29 PALMS HWY 57, MORONGO VALLEY, CA, 92256","Match","Exact","51063 29 PALMS HWY, MORONGO VALLEY, CA, 92256",637409294,"R"
691648,"51065 WESTON DR","PLYMOUTH","MI",48170,42.3657963740001,-83.544829686,148,"51065 WESTON DR, PLYMOUTH, MI, 48170","Match","Exact","51065 WESTON DR, PLYMOUTH, MI, 48170",95695392,"L"
691649,"5107 11TH AVENUE","BROOKLYN","NY",11219,40.6364903570001,-73.997753323,149,"5107 11TH AVENUE, BROOKLYN, NY, 11219","Match","Exact","5107 11TH AVE, BROOKLYN, NY, 11219",59080030,"L"
691650,"5107 241ST ST SW","MOUNTLAKE TERRACE","WA",98043,47.779957779,-122.301991642,150,"5107 241ST ST SW, MOUNTLAKE TERRACE, WA, 98043","Match","Exact","5107 241ST ST SW, MOUNTLAKE TERRACE, WA, 98043",187757094,"L"
691651,"5107 39TH ST W","BRADENTON","FL",34210,27.4505852090001,-82.600524209,151,"5107 39TH ST W, BRADENTON, FL, 34210","Match","Exact","5107 39TH ST W, BRADENTON, FL, 34210",16260301,"R"
691652,"5107 7TH ST NW","WASHINGTON","DC",20011,38.952154879,-77.022099899,152,"5107 7TH ST NW, WASHINGTON, DC, 20011","Match","Exact","5107 7TH ST NW, WASHINGTON, DC, 20011",76223394,"R"
691653,"5107 ALTICE RD","MONETA","VA",24121,37.1909889070001,-79.633157723,153,"5107 ALTICE RD, MONETA, VA, 24121","Match","Exact","5107 ALTICE RD, MONETA, VA, 24121",62661401,"L"
691654,"5107 ALTICE ROAD","MONETA","VA",24121,37.1909889070001,-79.633157723,154,"5107 ALTICE ROAD, MONETA, VA, 24121","Match","Exact","5107 ALTICE RD, MONETA, VA, 24121",62661401,"L"
691655,"5107 AMBER LANE","GALIVANTS FERRY","SC",29544,NA,NA,155,"5107 AMBER LANE, GALIVANTS FERRY, SC, 29544","No_Match",NA,NA,NA,NA
691656,"5107 BANNER ROSLIN RD","JAMESTOWN","TN",38556,36.2665572330001,-84.9780397169999,156,"5107 BANNER ROSLIN RD, JAMESTOWN, TN, 38556","Match","Exact","5107 BANNER ROSLIN RD, JAMESTOWN, TN, 38556",25030193,"L"
691657,"5107 BEECH ST","BELLAIRE","TX",77401,29.710627952,-95.4682948289999,157,"5107 BEECH ST, BELLAIRE, TX, 77401","Match","Exact","5107 BEECH ST, BELLAIRE, TX, 77401",96033501,"L"
691658,"5107 BEECH STREET","BELLAIRE","TX",77401,29.710627952,-95.4682948289999,158,"5107 BEECH STREET, BELLAIRE, TX, 77401","Match","Exact","5107 BEECH ST, BELLAIRE, TX, 77401",96033501,"L"
691659,"5107 BIG SPRING DR","PEARLAND","TX",77584,29.5319883070001,-95.299677076,159,"5107 BIG SPRING DR, PEARLAND, TX, 77584","Match","Exact","5107 BIG SPRING DR, PEARLAND, TX, 77584",116648206,"R"
691660,"5107 BRIGHT OWL ROAD","PERRY HALL","MD",21128,39.395817155,-76.436481799,160,"5107 BRIGHT OWL ROAD, PERRY HALL, MD, 21128","Match","Exact","5107 BRIGHT OWL RD, PERRY HALL, MD, 21128",614112646,"L"
691661,"5107 BRIZWORTH PLACE NE","ATLANTA","GA",30319,33.8362858560001,-84.341554542,161,"5107 BRIZWORTH PLACE NE, ATLANTA, GA, 30319","Match","Non_Exact","5107 BRIXWORTH PL, ATLANTA, GA, 30319",23413398,"R"
691662,"5107 CALEDONIA ROAD","RICHMOND","VA",23225,37.525971601,-77.489428727,162,"5107 CALEDONIA ROAD, RICHMOND, VA, 23225","Match","Exact","5107 CALEDONIA RD, RICHMOND, VA, 23225",201536684,"R"
691663,"5107 CALLA AVE NW","WARREN","OH",44483,41.2950314350001,-80.867432488,163,"5107 CALLA AVE NW, WARREN, OH, 44483","Match","Exact","5107 CALLA AVE NW, WARREN, OH, 44483",117403034,"R"
691664,"5107 CANTERBURY","POWELL","OH",43065,40.1469504510001,-83.11140059,164,"5107 CANTERBURY, POWELL, OH, 43065","Match","Non_Exact","5107 CANTERBURY DR, POWELL, OH, 43065",24600896,"R"
691665,"5107 CATON LANE","WAUNAKEE","WI",53597,43.15864501,-89.389239306,165,"5107 CATON LANE, WAUNAKEE, WI, 53597","Match","Exact","5107 CATON LN, WAUNAKEE, WI, 53597",49470605,"R"
691666,"5107 CHANTICLEER AVE","ANNANDALE","VA",22003,38.8158672110001,-77.239586399,166,"5107 CHANTICLEER AVE, ANNANDALE, VA, 22003","Match","Exact","5107 CHANTICLEER AVE, ANNANDALE, VA, 22003",75972797,"L"
691667,"5107 CHESTER AVE","PHILADELPHIA","PA",19143,39.9422415010001,-75.219283907,167,"5107 CHESTER AVE, PHILADELPHIA, PA, 19143","Match","Exact","5107 CHESTER AVE, PHILADELPHIA, PA, 19143",131399962,"R"
691668,"5107 CHRISTIAN AVE","FORT WAYNE","IN",46835,41.1239517660001,-85.077102439,168,"5107 CHRISTIAN AVE, FORT WAYNE, IN, 46835","Match","Exact","5107 CHRISTIAN AVE, FORT WAYNE, IN, 46835",6404639,"L"
691669,"5107 COLLEGE AVE","COLLEGE PARK","MD",20740,38.9789943970001,-76.9243511609999,169,"5107 COLLEGE AVE, COLLEGE PARK, MD, 20740","Match","Exact","5107 COLLEGE AVE, COLLEGE PARK, MD, 20740",76305570,"R"
691670,"5107 COLLEGE AVENUE","COLLEGE PARK","MD",20746,38.9789943970001,-76.9243511609999,170,"5107 COLLEGE AVENUE, COLLEGE PARK, MD, 20746","Match","Non_Exact","5107 COLLEGE AVE, COLLEGE PARK, MD, 20740",76305570,"R"
691671,"5107 CORNFLOWER CT","CHARLESTON","SC",29414,32.852341994,-80.090781312,171,"5107 CORNFLOWER CT, CHARLESTON, SC, 29414","Match","Exact","5107 CORNFLOWER CT, CHARLESTON, SC, 29414",108897328,"R"
691672,"5107 COYLE AVE","SKOKIE","IL",60077,42.0073131190001,-87.755596339,172,"5107 COYLE AVE, SKOKIE, IL, 60077","Match","Exact","5107 COYLE AVE, SKOKIE, IL, 60077",605255089,"L"
691673,"5107 DOWNING","FORT MILL","SC",29708,35.0298070750001,-80.984232063,173,"5107 DOWNING, FORT MILL, SC, 29708","Match","Non_Exact","5107 DOWNING DR, FORT MILL, SC, 29708",618822002,"L"
691674,"5107 ELLA AVENUE","EIGHT MILE","AL",36613,30.7680043460001,-88.143616817,174,"5107 ELLA AVENUE, EIGHT MILE, AL, 36613","Match","Exact","5107 ELLA AVE, EIGHT MILE, AL, 36613",62014413,"R"
691675,"5107 EVIDENCE CV","SPICEWOOD","TX",78669,30.3506745230001,-98.05854658,175,"5107 EVIDENCE CV, SPICEWOOD, TX, 78669","Match","Exact","5107 EVIDENCE COVE, SPICEWOOD, TX, 78669",63994286,"R"
691676,"5107 FLEMING LANE","BLOOMINGTON","IL",61705,40.4589140470001,-88.884465295,176,"5107 FLEMING LANE, BLOOMINGTON, IL, 61705","Match","Exact","5107 FLEMING LN, BLOOMINGTON, IL, 61705",648195980,"L"
691677,"5107 GARDEN LANE","LAS VEGAS","NV",89119,36.0969513960001,-115.137554519,177,"5107 GARDEN LANE, LAS VEGAS, NV, 89119","Match","Exact","5107 GARDEN LN, LAS VEGAS, NV, 89119",201871264,"R"
691678,"5107 GARDNER DRIVE","ALEXANDRIA","VA",22304,38.811407343,-77.1189406359999,178,"5107 GARDNER DRIVE, ALEXANDRIA, VA, 22304","Match","Exact","5107 GARDNER DR, ALEXANDRIA, VA, 22304",76064488,"L"
691679,"5107 GEORGE MILES ROAD","BURLINGTON","NC",27217,36.2302219790001,-79.311244334,179,"5107 GEORGE MILES ROAD, BURLINGTON, NC, 27217","Match","Exact","5107 GEORGE MILES RD, BURLINGTON, NC, 27217",71700287,"R"
691680,"5107 HEATHERTON","TROTWOOD","OH",45426,39.8055210470001,-84.2751966869999,180,"5107 HEATHERTON, TROTWOOD, OH, 45426","Match","Non_Exact","5107 HEATHERTON DR, TROTWOOD, OH, 45426",143564708,"R"
691681,"5107 HIGGINS DR","MONTCLAIR","VA",22025,38.613179571,-77.3614093959999,181,"5107 HIGGINS DR, MONTCLAIR, VA, 22025","Match","Exact","5107 HIGGINS DR, MONTCLAIR, VA, 22025",76526997,"L"
691682,"5107 HUNTCREST DRIVE","MABELTON","GA",30126,33.829846237,-84.599123184,182,"5107 HUNTCREST DRIVE, MABELTON, GA, 30126","Match","Non_Exact","5107 HUNTCREST DR SW, MABLETON, GA, 30126",614186232,"L"
691683,"5107 INADALE AVENUE","LOS ANGELLES","CA",90043,33.995801084,-118.350614797,183,"5107 INADALE AVENUE, LOS ANGELLES, CA, 90043","Match","Non_Exact","5107 INADALE AVE, LOS ANGELES, CA, 90043",142729013,"R"
691684,"5107 INTERNATIONAL BLVD","OAKLAND","CA",94601,37.7691564610001,-122.20827959,184,"5107 INTERNATIONAL BLVD, OAKLAND, CA, 94601","Match","Exact","5107 INTERNATIONAL BLVD, OAKLAND, CA, 94601",606256630,"R"
691685,"5107 JAMESON DRIVE","COLUMBUS","OH",43232,39.928102559,-82.855383374,185,"5107 JAMESON DRIVE, COLUMBUS, OH, 43232","Match","Exact","5107 JAMESON DR, COLUMBUS, OH, 43232",218677000,"R"
691686,"5107 JORDAN HALL","RALEIGH","NC",27695,NA,NA,186,"5107 JORDAN HALL, RALEIGH, NC, 27695","No_Match",NA,NA,NA,NA
691687,"5107 KRICK","NORFOLK","VA",23512,NA,NA,187,"5107 KRICK, NORFOLK, VA, 23512","No_Match",NA,NA,NA,NA
691688,"5107 LADY LANE","GREENSBORO","NC",27406,36.0195562260001,-79.673457517,188,"5107 LADY LANE, GREENSBORO, NC, 27406","Match","Exact","5107 LADY LN, GREENSBORO, NC, 27406",131058195,"R"
691689,"5107 LOCKRIDGE SKY LN","SUGAR LAND","TX",77479,29.54448574,-95.595626739,189,"5107 LOCKRIDGE SKY LN, SUGAR LAND, TX, 77479","Match","Exact","5107 LOCKRIDGE SKY LN, SUGAR LAND, TX, 77479",642932029,"R"
691690,"5107 LUCAS LANE","AUSTIN","TX",78731,30.335314688,-97.76357416,190,"5107 LUCAS LANE, AUSTIN, TX, 78731","Match","Exact","5107 LUCAS LN, AUSTIN, TX, 78731",63929251,"R"
691691,"5107 MIRIAM ST","LOS ANGELES","CA",90042,34.1148856820001,-118.2052209,191,"5107 MIRIAM ST, LOS ANGELES, CA, 90042","Match","Exact","5107 MIRIAM ST, LOS ANGELES, CA, 90042",141613985,"L"
691692,"5107 MORELAND STREET","SUFFOLK","VA",23435,36.8736962150001,-76.417764539,192,"5107 MORELAND STREET, SUFFOLK, VA, 23435","Match","Exact","5107 MORELAND ST, SUFFOLK, VA, 23435",640864090,"L"
691693,"5107 NE 19TH AVE","PORTLAND","OR",97211,45.559736134,-122.64581248,193,"5107 NE 19TH AVE, PORTLAND, OR, 97211","Match","Exact","5107 NE 19TH AVE, PORTLAND, OR, 97211",157505702,"L"
691694,"5107 PARKGATE","COMMERCE","MI",48382,42.5961649010001,-83.505170188,194,"5107 PARKGATE, COMMERCE, MI, 48382","Match","Non_Exact","5107 PARKGATE DR, COMMERCE TOWNSHIP, MI, 48382",69830713,"L"
691695,"5107 RASPBERRY LANE","YOUNGSTOWN","OH",44511,NA,NA,195,"5107 RASPBERRY LANE, YOUNGSTOWN, OH, 44511","No_Match",NA,NA,NA,NA
691696,"5107 ROBLEE DRIVE","UPPER MORLBORO","MD",20772,38.819295633,-76.813680072,196,"5107 ROBLEE DRIVE, UPPER MORLBORO, MD, 20772","Match","Non_Exact","5107 ROBLEE DR, UPPER MARLBORO, MD, 20772",76320142,"R"
691697,"5107 ROSEMEAD BLVD APT 28","SAN GABRIEL","CA",91776,34.093922428,-118.073391473,197,"5107 ROSEMEAD BLVD APT 28, SAN GABRIEL, CA, 91776","Match","Exact","5107 ROSEMEAD BLVD, SAN GABRIEL, CA, 91776",647705082,"L"
691698,"5107 S BLACKSTONE AVE","CHICAGO","IL",60615,41.8022479430001,-87.590493225,198,"5107 S BLACKSTONE AVE, CHICAGO, IL, 60615","Match","Exact","5107 S BLACKSTONE AVE, CHICAGO, IL, 60615",111771717,"L"
691699,"5107 S MCCOLL RD","EDINBURG","TX",78539,26.257425497,-98.2031907859999,199,"5107 S MCCOLL RD, EDINBURG, TX, 78539","Match","Exact","5107 MCCOLL RD, EDINBURG, TX, 78539",71542867,"R"
691700,"5107 S TRAVIS ST","AMARILLO","TX",79110,35.1543396810001,-101.856200309,200,"5107 S TRAVIS ST, AMARILLO, TX, 79110","Match","Exact","5107 S TRAVIS ST, AMARILLO, TX, 79110",182655494,"L"
691701,"5107 SANTREY DRIVE","HOUSTON","TX",77084,29.851325337,-95.661385203,201,"5107 SANTREY DRIVE, HOUSTON, TX, 77084","Match","Exact","5107 SANTREY DR, HOUSTON, TX, 77084",96015479,"L"
691702,"5107 SOUTH RIDGE EAST","ASHTABULA","OH",44004,41.8772498810001,-80.724240304,202,"5107 SOUTH RIDGE EAST, ASHTABULA, OH, 44004","Match","Non_Exact","5107 S RIDGE RD E, ASHTABULA, OH, 44004",117331440,"L"
691703,"5107 SPANISH OAK DR","HOUSTON","TX",77066,29.9737961330001,-95.498185346,203,"5107 SPANISH OAK DR, HOUSTON, TX, 77066","Match","Exact","5107 SPANISH OAK DR, HOUSTON, TX, 77066",96010263,"R"
691704,"5107 TEDS ROAD","WEST RIVER","MD",20778,38.8291448690001,-76.5327835699999,204,"5107 TEDS ROAD, WEST RIVER, MD, 20778","Match","Non_Exact","5107 TEDS LN, WEST RIVER, MD, 20778",68215851,"L"
691705,"5107 TURNABOUT LN","AUSTIN","TX",78731,30.327199625,-97.7477330249999,205,"5107 TURNABOUT LN, AUSTIN, TX, 78731","Match","Exact","5107 TURNABOUT LN, AUSTIN, TX, 78731",63929439,"R"
691706,"5107 VISTA DE LUZ DR NW","ALBUQUERQUE","NM",87120,35.142853883,-106.701696218,206,"5107 VISTA DE LUZ DR NW, ALBUQUERQUE, NM, 87120","Match","Exact","5107 VISTA DE LUZ DR NW, ALBUQUERQUE, NM, 87120",206701976,"L"
691707,"5107 W 20TH STREET","LOS ANGELES","CA",90016,34.0400318860001,-118.351810703,207,"5107 W 20TH STREET, LOS ANGELES, CA, 90016","Match","Exact","5107 W 20TH ST, LOS ANGELES, CA, 90016",141601079,"R"
691708,"5107-48TH             STREET","MOLINE","IL",61265,NA,NA,208,"5107-48TH             STREET, MOLINE, IL, 61265","No_Match",NA,NA,NA,NA
691709,"51070 EAST END ROAD","HOMER","AK",99603,59.7612139300001,-151.207229857,209,"51070 EAST END ROAD, HOMER, AK, 99603","Match","Exact","51070 E END RD, HOMER, AK, 99603",615235837,"L"
691710,"51074 MOTT RD APT 99","CANTON","MI",48188,42.262501242,-83.542150643,210,"51074 MOTT RD APT 99, CANTON, MI, 48188","Match","Exact","51074 MOTT RD, CANTON, MI, 48188",647870971,"R"
691711,"51074 MOTT RD","CANTON","MI",48188,42.262501242,-83.542150643,211,"51074 MOTT RD, CANTON, MI, 48188","Match","Exact","51074 MOTT RD, CANTON, MI, 48188",647870971,"R"
691712,"5108 122ND ST SE","EVERETT","WA",98208,47.886982592,-122.163450753,212,"5108 122ND ST SE, EVERETT, WA, 98208","Match","Exact","5108 122ND ST SE, EVERETT, WA, 98208",187800090,"R"
691713,"5108 280TH STREET NE","IOWA CITY","IA",52440,NA,NA,213,"5108 280TH STREET NE, IOWA CITY, IA, 52440","No_Match",NA,NA,NA,NA
691714,"5108 68TH STREET","URBANDALE","IA",50322,41.656494508,-93.711996122,214,"5108 68TH STREET, URBANDALE, IA, 50322","Match","Exact","5108 68TH ST, URBANDALE, IA, 50322",65808989,"R"
691715,"5108 77TH AVENUE NORTH","BROOKLYN CENTER","MN",55443,45.094906483,-93.3465393609999,215,"5108 77TH AVENUE NORTH, BROOKLYN CENTER, MN, 55443","Match","Exact","5108 77TH AVE N, BROOKLYN CENTER, MN, 55443",43614673,"R"
691716,"5108 96TH ST","LUBBOCK","TX",79424,33.507007248,-101.920335726,216,"5108 96TH ST, LUBBOCK, TX, 79424","Match","Exact","5108 96TH ST, LUBBOCK, TX, 79424",185273806,"L"
691717,"5108 ABBEY GLEN DRIVE","FLOWER MOUND","TX",75028,33.055148269,-97.089808627,217,"5108 ABBEY GLEN DRIVE, FLOWER MOUND, TX, 75028","Match","Exact","5108 ABBEY GLEN DR, FLOWER MOUND, TX, 75028",103404686,"R"
691718,"5108 ALDRICH AVE S","MINNEAPOLIS","MN",55419,44.9102557080001,-93.2895615589999,218,"5108 ALDRICH AVE S, MINNEAPOLIS, MN, 55419","Match","Exact","5108 ALDRICH AVE S, MINNEAPOLIS, MN, 55419",43629201,"R"
691719,"5108 AMPTHILL DRIVE","ALEXANDRIA","VA",22312,38.81343192,-77.1599198179999,219,"5108 AMPTHILL DRIVE, ALEXANDRIA, VA, 22312","Match","Exact","5108 AMPTHILL DR, ALEXANDRIA, VA, 22312",75981310,"R"
691720,"5108 ARTHUR AVE","EAST STROUDSBURG","PA",18301,41.025342821,-75.153312797,220,"5108 ARTHUR AVE, EAST STROUDSBURG, PA, 18301","Match","Exact","5108 ARTHUR AVE, E STROUDSBURG, PA, 18301",635506061,"L"
691721,"5108 BEALS DR","EL PASO","TX",79924,31.886605205,-106.422673662,221,"5108 BEALS DR, EL PASO, TX, 79924","Match","Exact","5108 BEALS DR, EL PASO, TX, 79924",189338920,"R"
691722,"5108 BELL STREET","HOUSTON","TX",77023,29.7338975850001,-95.323881152,222,"5108 BELL STREET, HOUSTON, TX, 77023","Match","Exact","5108 BELL ST, HOUSTON, TX, 77023",96081969,"R"
691723,"5108 BELLERIVE DRIVE","DALLAS","TX",75287,32.993295588,-96.821381586,223,"5108 BELLERIVE DRIVE, DALLAS, TX, 75287","Match","Exact","5108 BELLERIVE DR, DALLAS, TX, 75287",123534397,"R"
691724,"5108 BENTON AVENUE","EDINA","MN",55436,44.897182039,-93.3537790729999,224,"5108 BENTON AVENUE, EDINA, MN, 55436","Match","Exact","5108 BENTON AVE, EDINA, MN, 55436",43834528,"R"
691725,"5108 BIRCHWOOD DRIVE","MCKINNEY","TX",75071,33.237115487,-96.68242199,225,"5108 BIRCHWOOD DRIVE, MCKINNEY, TX, 75071","Match","Exact","5108 BIRCHWOOD DR, MCKINNEY, TX, 75071",616523358,"R"
691726,"5108 BRADFORD DR","PACE","FL",32571,30.622194458,-87.123586851,226,"5108 BRADFORD DR, PACE, FL, 32571","Match","Exact","5108 BRADFORD DR, PACE, FL, 32571",74613538,"R"
691727,"5108 BRIDGEPORT RD","MCKINNEY","TX",75071,33.2242641880001,-96.6801985339999,227,"5108 BRIDGEPORT RD, MCKINNEY, TX, 75071","Match","Exact","5108 BRIDGEPORT RD, MCKINNEY, TX, 75071",614159218,"R"
691728,"5108 BRITTANY DR S APT 405","ST PETERSBURG","FL",33715,27.7151595620001,-82.7050060829999,228,"5108 BRITTANY DR S APT 405, ST PETERSBURG, FL, 33715","Match","Exact","5108 BRITTANY DR S, SAINT PETERSBURG, FL, 33715",124709385,"R"
691729,"5108 BURNLEY STATION ROAD","BARBOURSVILLE","VA",22923,38.1632914100001,-78.325421094,229,"5108 BURNLEY STATION ROAD, BARBOURSVILLE, VA, 22923","Match","Exact","5108 BURNLEY STATION RD, BARBOURSVILLE, VA, 22923",83387764,"R"
691730,"5108 CEDAR RIDGE DR","LAGRANGE","KY",40031,38.3861016170001,-85.448192381,230,"5108 CEDAR RIDGE DR, LAGRANGE, KY, 40031","Match","Exact","5108 CEDAR RIDGE DR, LAGRANGE, KY, 40031",130923502,"L"
691731,"5108 CHAD DR SUITE 100","TYLER","TX",75703,32.2937054720001,-95.2861433319999,231,"5108 CHAD DR SUITE 100, TYLER, TX, 75703","Match","Exact","5108 CHAD DR, TYLER, TX, 75703",141272972,"L"
691732,"5108 DONATELLO ST","CORAL GABLES","FL",33146,25.7237450430001,-80.270321753,232,"5108 DONATELLO ST, CORAL GABLES, FL, 33146","Match","Exact","5108 DONATELLO ST, CORAL GABLES, FL, 33146",116013497,"R"
691733,"5108 DONOVAN DR UNIT 107","ALEXANDRIA","VA",22304,38.809298653,-77.120360212,233,"5108 DONOVAN DR UNIT 107, ALEXANDRIA, VA, 22304","Match","Exact","5108 DONOVAN DR, ALEXANDRIA, VA, 22304",76065552,"R"
691734,"5108 ELM CT","DENVER","CO",80221,39.7895163200001,-105.022789494,234,"5108 ELM CT, DENVER, CO, 80221","Match","Exact","5108 ELM CT, DENVER, CO, 80221",177299090,"R"
691735,"5108 FOREST CREEK ROAD","RALEIGH","NC",27606,35.713553274,-78.6936625339999,235,"5108 FOREST CREEK ROAD, RALEIGH, NC, 27606","Match","Exact","5108 FOREST CREEK RD, RALEIGH, NC, 27606",72504313,"L"
691736,"5108 GASTON AVE","DALLAS","TX",75214,32.8022696690001,-96.76674658,236,"5108 GASTON AVE, DALLAS, TX, 75214","Match","Exact","5108 GASTON AVE, DALLAS, TX, 75214",102919754,"R"
691737,"5108 GISSELLE STREET","EDINBURG","TX",78541,26.3132882130001,-98.21633201,237,"5108 GISSELLE STREET, EDINBURG, TX, 78541","Match","Non_Exact","5108 W GISSELLE ST, EDINBURG, TX, 78541",627374537,"R"
691738,"5108 GLEN FORREST DRIVE","FLOWERING BRANCH","GA",30542,34.165486249,-83.883219985,238,"5108 GLEN FORREST DRIVE, FLOWERING BRANCH, GA, 30542","Match","Non_Exact","5108 GLEN FORREST DR, FLOWERY BRANCH, GA, 30542",653494421,"R"
691739,"5108 GOLDEN LANE","FORT WORTH","TX",76123,32.626234385,-97.4025711039999,239,"5108 GOLDEN LANE, FORT WORTH, TX, 76123","Match","Exact","5108 GOLDEN LN, FORT WORTH, TX, 76123",101925957,"R"
691740,"5108 HAZELWOOD RD","HAMPTON","VA",23605,37.02773438,-76.4414500569999,240,"5108 HAZELWOOD RD, HAMPTON, VA, 23605","Match","Exact","5108 HAZELWOOD RD, HAMPTON, VA, 23605",103755397,"R"
691741,"5108 HILLWEL ROAD","BALTIMORE","MD",21229,39.281935377,-76.7012340799999,241,"5108 HILLWEL ROAD, BALTIMORE, MD, 21229","Match","Non_Exact","5108 HILLWELL RD, BALTIMORE, MD, 21229",206453574,"R"
691742,"5108 HWY 140 SUITE B","MARIPOSA","CA",95338,NA,NA,242,"5108 HWY 140 SUITE B, MARIPOSA, CA, 95338","No_Match",NA,NA,NA,NA
691743,"5108 IDLEWILD STREET","DULUTH","MN",55811,46.8483167480001,-92.0215861359999,243,"5108 IDLEWILD STREET, DULUTH, MN, 55811","Match","Non_Exact","5108 IDLEWILD ST, DULUTH, MN, 55804",163215002,"R"
691744,"5108 INCLINE DR","HOUSTON","TX",77066,29.943111824,-95.495854156,244,"5108 INCLINE DR, HOUSTON, TX, 77066","Match","Exact","5108 INCLINE DR, HOUSTON, TX, 77066",624186807,"R"
691745,"5108 JACKSON RD","APISON","TN",37302,35.0303963380001,-85.021492821,245,"5108 JACKSON RD, APISON, TN, 37302","Match","Exact","5108 JACKSON RD, APISON, TN, 37302",618937261,"R"
691746,"5108 KINGSPINE ROAD","ROLLING HILLS ESTATE","CA",90274,33.788955114,-118.367005574,246,"5108 KINGSPINE ROAD, ROLLING HILLS ESTATE, CA, 90274","Match","Non_Exact","5108 KINGSPINE RD, ROLLING HILLS, CA, 90274",141687324,"L"
691747,"5108 LEANNE LA","MCFARLAND","WI",53558,43.0246947730001,-89.284982376,247,"5108 LEANNE LA, MCFARLAND, WI, 53558","Match","Exact","5108 LEANNE LN, MCFARLAND, WI, 53558",49518107,"L"
691748,"5108 LISTER","KANSAS CITY","MO",64130,39.032344331,-94.5293434439999,248,"5108 LISTER, KANSAS CITY, MO, 64130","Match","Non_Exact","5108 LISTER AVE, KANSAS CITY, MO, 64130",91453324,"R"
691749,"5108 LONGFIELD RD","BLOOMINGTON","IL",61705,40.462369247,-88.884557867,249,"5108 LONGFIELD RD, BLOOMINGTON, IL, 61705","Match","Exact","5108 LONGFIELD RD, BLOOMINGTON, IL, 61705",648195903,"R"
691750,"5108 MANDEVILLE ST","NEW ORLEANS","LA",70122,30.0103579120001,-90.0575361859999,250,"5108 MANDEVILLE ST, NEW ORLEANS, LA, 70122","Match","Exact","5108 MANDEVILLE ST, NEW ORLEANS, LA, 70122",191704373,"L"
691751,"5108 MEADOW COVE","SAN ANTONIO","TX",78250,29.4813117570001,-98.650285291,251,"5108 MEADOW COVE, SAN ANTONIO, TX, 78250","Match","Exact","5108 MEADOW COVE, SAN ANTONIO, TX, 78250",101505903,"R"
691752,"5108 N 20TH AVE","PHOENIX","AZ",85015,33.5117889790001,-112.102433845,252,"5108 N 20TH AVE, PHOENIX, AZ, 85015","Match","Exact","5108 N 20TH AVE, PHOENIX, AZ, 85015",128205480,"L"
691753,"5108 N KOSTNER AVE","CHICAGO","IL",60630,41.9738761,-87.738065238,253,"5108 N KOSTNER AVE, CHICAGO, IL, 60630","Match","Exact","5108 N KOSTNER AVE, CHICAGO, IL, 60630",111755267,"L"
691754,"5108 N192ND AVENUE CIR","ELKHORN","NE",68022,NA,NA,254,"5108 N192ND AVENUE CIR, ELKHORN, NE, 68022","No_Match",NA,NA,NA,NA
691755,"5108 NICHOLAS ST","OMAHA","NE",68132,41.269619311,-95.99303567,255,"5108 NICHOLAS ST, OMAHA, NE, 68132","Match","Exact","5108 NICHOLAS ST, OMAHA, NE, 68132",116978504,"R"
691756,"5108 OLD MAJETTE TOWER ROAD","PANAMA CITY","FL",32404,30.2415705980001,-85.523199743,256,"5108 OLD MAJETTE TOWER ROAD, PANAMA CITY, FL, 32404","Match","Exact","5108 MAJETTE TOWER RD, PANAMA CITY, FL, 32404",636333346,"L"
691757,"5108 OVERLOOK DRIVE NE","ROSWELL","GA",30075,34.0171366270001,-84.4002521149999,257,"5108 OVERLOOK DRIVE NE, ROSWELL, GA, 30075","Match","Non_Exact","5108 OVERLOOK DR, ROSWELL, GA, 30075",17200191,"R"
691758,"5108 PINE RIDGE ROAD NORTH","EAST STROUDSBURG","PA",18302,41.071251332,-75.042908809,258,"5108 PINE RIDGE ROAD NORTH, EAST STROUDSBURG, PA, 18302","Match","Exact","5108 PINE RIDGE RD N, E STROUDSBURG, PA, 18302",136783091,"R"
691759,"5108 READING RD","CINCINNATI","OH",45237,39.1784464950001,-84.466095055,259,"5108 READING RD, CINCINNATI, OH, 45237","Match","Exact","5108 READING RD, CINCINNATI, OH, 45237",103928746,"R"
691760,"5108 REGENT DR","NASHVILLE","TN",37220,36.0648758720001,-86.768269115,260,"5108 REGENT DR, NASHVILLE, TN, 37220","Match","Exact","5108 REGENT DR, NASHVILLE, TN, 37220",97193347,"L"
691761,"5108 ROSEWOOD PL","FAIRBURN","GA",30213,33.6140956680001,-84.595440872,261,"5108 ROSEWOOD PL, FAIRBURN, GA, 30213","Match","Exact","5108 ROSEWOOD PL, FAIRBURN, GA, 30213",643409968,"R"
691762,"5108 S EAST AVENUE","FRESNO","CA",93725,36.661364217,-119.772754506,262,"5108 S EAST AVENUE, FRESNO, CA, 93725","Match","Exact","5108 S EAST AVE, FRESNO, CA, 93725",651369787,"L"
691763,"5108 S HAMPTON RD APT 29G","DALLAS","TX",75232,32.6835615420001,-96.856925411,263,"5108 S HAMPTON RD APT 29G, DALLAS, TX, 75232","Match","Non_Exact","5108 S HAMPTON RD, DALLAS, TX, 75232",102947498,"L"
691764,"5108 SAYLOR PARK DR APT 7","WHITEHALL","PA",18052,40.6764010160001,-75.49811228,264,"5108 SAYLOR PARK DR APT 7, WHITEHALL, PA, 18052","Match","Exact","5108 SAYLOR PARK DR, WHITEHALL, PA, 18052",642779576,"L"
691765,"5108 SE POWELL BLVD","PORTLAND","OR",97206,45.49748514,-122.610312181,265,"5108 SE POWELL BLVD, PORTLAND, OR, 97206","Match","Exact","5108 SE POWELL BLVD, PORTLAND, OR, 97206",157514879,"R"
691766,"5108 SHAGBARK OAK RD","GARNER","NC",27529,35.6409248950001,-78.602853096,266,"5108 SHAGBARK OAK RD, GARNER, NC, 27529","Match","Exact","5108 SHAGBARK OAK RD, GARNER, NC, 27529",612823665,"R"
691767,"5108 SHELLY RAY RD","FORT WORTH","TX",76244,32.9212327130001,-97.274817991,267,"5108 SHELLY RAY RD, FORT WORTH, TX, 76244","Match","Exact","5108 SHELLY RAY RD, FORT WORTH, TX, 76244",617676248,"R"
691768,"5108 SOMERSETT LANE","WILMINGTON","NC",28409,34.200844981,-77.8716050419999,268,"5108 SOMERSETT LANE, WILMINGTON, NC, 28409","Match","Non_Exact","5108 SOMERSET LN, WILMINGTON, NC, 28409",152761009,"R"
691769,"5108 SPYGLASS  DR","DALLAS","TX",75287,32.9908077220001,-96.820509594,269,"5108 SPYGLASS  DR, DALLAS, TX, 75287","Match","Exact","5108 SPYGLASS DR, DALLAS, TX, 75287",123534389,"R"
691770,"5108 STATE 87 SW","BACKUS","MN",56435,NA,NA,270,"5108 STATE 87 SW, BACKUS, MN, 56435","No_Match",NA,NA,NA,NA
691771,"5108 SW 124TH PL","OKLAHOMA CITY","OK",73173,35.3440458650001,-97.608947438,271,"5108 SW 124TH PL, OKLAHOMA CITY, OK, 73173","Match","Exact","5108 SW 124TH PL, OKLAHOMA CITY, OK, 73173",627468342,"R"
691772,"5108 TORRESDALE AVENUE","PHILADELPHIA","PA",19124,40.0129357180001,-75.0715003559999,272,"5108 TORRESDALE AVENUE, PHILADELPHIA, PA, 19124","Match","Exact","5108 TORRESDALE AVE, PHILADELPHIA, PA, 19124",131428859,"L"
691773,"5108 VIRTUE ARC DRIVE","STOCKTON","CA",95207,37.9936430650001,-121.325381809,273,"5108 VIRTUE ARC DRIVE, STOCKTON, CA, 95207","Match","Exact","5108 VIRTUE ARC DR, STOCKTON, CA, 95207",133844820,"R"
691774,"5108 VISTA DEL RANCHO","NO LAS VEGAS","NV",89030,NA,NA,274,"5108 VISTA DEL RANCHO, NO LAS VEGAS, NV, 89030","No_Match",NA,NA,NA,NA
691775,"5108 W 35TH ST N","SIOUX FALLS","SD",57107,43.5811417140001,-96.7893687489999,275,"5108 W 35TH ST N, SIOUX FALLS, SD, 57107","Match","Exact","5108 W 35TH ST N, SIOUX FALLS, SD, 57107",35012647,"R"
691776,"5108 W SAINT JAMES DR","SIOUX FALLS","SD",57106,43.5057654,-96.789349219,276,"5108 W SAINT JAMES DR, SIOUX FALLS, SD, 57106","Match","Exact","5108 W ST JAMES DR, SIOUX FALLS, SD, 57106",34970626,"R"
691777,"5108 WALNUT CREEK APT C122","NEW ORLEANS","LA",70123,NA,NA,277,"5108 WALNUT CREEK APT C122, NEW ORLEANS, LA, 70123","No_Match",NA,NA,NA,NA
691778,"5108 WEAVER DRIVE","COLORADO SPRINGS","CO",80922,38.9072232660001,-104.693072694,278,"5108 WEAVER DRIVE, COLORADO SPRINGS, CO, 80922","Match","Exact","5108 WEAVER DR, COLORADO SPRINGS, CO, 80922",610704581,"L"
691779,"5108 WEST VILLAGE TRAIL","ADA","MI",49301,42.9508043280001,-85.544502804,279,"5108 WEST VILLAGE TRAIL, ADA, MI, 49301","Match","Exact","5108 W VILLAGE TRL, ADA, MI, 49301",616675701,"L"
691780,"5108 WHITE PINE DR","FLOWER MOUND","TX",75028,33.0558102410001,-97.059362643,280,"5108 WHITE PINE DR, FLOWER MOUND, TX, 75028","Match","Exact","5108 WHITE PINE DR, FLOWER MOUND, TX, 75028",103413244,"R"
691781,"5108 WINEBERRY DRIVE","DURHAM","NC",27713,35.89278204,-78.922855762,281,"5108 WINEBERRY DRIVE, DURHAM, NC, 27713","Match","Exact","5108 WINEBERRY DR, DURHAM, NC, 27713",71763270,"R"
691782,"51080 29TH ST","GROVE CITY","MN",56243,NA,NA,282,"51080 29TH ST, GROVE CITY, MN, 56243","No_Match",NA,NA,NA,NA
691783,"51080 SHELBY DR","SHELBY TWP","MI",48316,42.6694479990001,-83.063689859,283,"51080 SHELBY DR, SHELBY TWP, MI, 48316","Match","Non_Exact","51080 SHELBY RD, SHELBY TOWNSHIP, MI, 48316",110656923,"R"
691784,"51081 MILANO DRIVE","MACOMB","MI",48042,42.671947018,-82.966458694,284,"51081 MILANO DRIVE, MACOMB, MI, 48042","Match","Exact","51081 MILANO DR, MACOMB, MI, 48042",110704038,"L"
691785,"5109 1/2 W POINT LOMA BLVD","SAN DIEGO","CA",92107,32.7541812110001,-117.247871285,285,"5109 1/2 W POINT LOMA BLVD, SAN DIEGO, CA, 92107","Match","Exact","5109 W POINT LOMA BLVD, SAN DIEGO, CA, 92107",195339357,"L"
691786,"5109 17TH STREET","GULFPORT","MS",39501,NA,NA,286,"5109 17TH STREET, GULFPORT, MS, 39501","No_Match",NA,NA,NA,NA
691787,"5109 25TH AVE NW","ROCHESTER","MN",55901,44.074597037,-92.500437494,287,"5109 25TH AVE NW, ROCHESTER, MN, 55901","Match","Exact","5109 25TH AVE NW, ROCHESTER, MN, 55901",30563095,"L"
691788,"5109 26TH RD N","ARLINGTON","VA",22207,38.9004631010001,-77.1363968159999,288,"5109 26TH RD N, ARLINGTON, VA, 22207","Match","Exact","5109 26TH RD N, ARLINGTON, VA, 22207",76466952,"R"
691789,"5109 58 TERRACE EAST","BRADENTGON","FL",34208,NA,NA,289,"5109 58 TERRACE EAST, BRADENTGON, FL, 34208","No_Match",NA,NA,NA,NA
691790,"5109 82ND ST APT 7","LUBBOCK","TX",79424,33.519723045,-101.918593378,290,"5109 82ND ST APT 7, LUBBOCK, TX, 79424","Match","Exact","5109 82ND ST, LUBBOCK, TX, 79424",185252687,"R"
691791,"5109 ALDERSHOT DRIVE","LANHAM","MD",20706,38.96018151,-76.851396641,291,"5109 ALDERSHOT DRIVE, LANHAM, MD, 20706","Match","Exact","5109 ALDERSHOT DR, LANHAM, MD, 20706",76346032,"R"
691792,"5109 ARBOR CHASE DRIVE","RALEIGH","NC",27616,35.838862589,-78.556756487,292,"5109 ARBOR CHASE DRIVE, RALEIGH, NC, 27616","Match","Exact","5109 ARBOR CHASE DR, RALEIGH, NC, 27616",72648834,"R"
691793,"5109 BACK STRETCH BLVD","UPPER MARLBORO","MD",20772,38.819517804,-76.7701288279999,293,"5109 BACK STRETCH BLVD, UPPER MARLBORO, MD, 20772","Match","Exact","5109 BACK STRETCH BLVD, UPPER MARLBORO, MD, 20772",76416502,"R"
691794,"5109 BAYONNE LANE","COLUMBUS","OH",43221,40.057977416,-83.1233778759999,294,"5109 BAYONNE LANE, COLUMBUS, OH, 43221","Match","Exact","5109 BAYONNE LN, COLUMBUS, OH, 43221",651907105,"R"
691795,"5109 BLAKENBRAN TRAIL","FUQUAY VARINA","NC",27526,35.6419757100001,-78.779602031,295,"5109 BLAKENBRAN TRAIL, FUQUAY VARINA, NC, 27526","Match","Exact","5109 BLAKENBRAN TRL, FUQUAY VARINA, NC, 27526",612828259,"L"
691796,"5109 BUCKHEAD TRL","KNOXVILLE","TN",37919,35.905302174,-83.971354073,296,"5109 BUCKHEAD TRL, KNOXVILLE, TN, 37919","Match","Non_Exact","5109 BUCKHEAD TRL SW, KNOXVILLE, TN, 37919",42616313,"R"
691797,"5109 CASCADE DR","CORPUS CHRISTI","TX",78413,27.6960597140001,-97.387454953,297,"5109 CASCADE DR, CORPUS CHRISTI, TX, 78413","Match","Exact","5109 CASCADE DR, CORPUS CHRISTI, TX, 78413",178520671,"R"
691798,"5109 CEDAR AVE","PHILADELPHIA","PA",19143,39.9502574810001,-75.225182914,298,"5109 CEDAR AVE, PHILADELPHIA, PA, 19143","Match","Exact","5109 CEDAR AVE, PHILADELPHIA, PA, 19143",131399291,"R"
691799,"5109 CHAPMAN ST","CINCINNATI","OH",45202,39.161434367,-84.389696806,299,"5109 CHAPMAN ST, CINCINNATI, OH, 45202","Match","Non_Exact","5109 CHAPMAN ST, CINCINNATI, OH, 45227",103971854,"L"
691800,"5109 COLLEGE AVE","BAKERSFIELD","CA",93306,35.383173292,-118.94687446,300,"5109 COLLEGE AVE, BAKERSFIELD, CA, 93306","Match","Exact","5109 COLLEGE AVE, BAKERSFIELD, CA, 93306",109095842,"R"
691801,"5109 CONTOURA DRIVE","ORLANDO","FL",32810,28.63489199,-81.43813161,301,"5109 CONTOURA DRIVE, ORLANDO, FL, 32810","Match","Exact","5109 CONTOURA DR, ORLANDO, FL, 32810",94330796,"L"
691802,"5109 DOMINICA LN","KELLER","TX",76244,32.9262838510001,-97.274940341,302,"5109 DOMINICA LN, KELLER, TX, 76244","Match","Exact","5109 DOMINICA LN, KELLER, TX, 76244",643331724,"R"
691803,"5109 E BURNSIDE ST APT 8","PORTLAND","OR",97215,45.522894131,-122.611061181,303,"5109 E BURNSIDE ST APT 8, PORTLAND, OR, 97215","Match","Non_Exact","5109 E BURNSIDE ST, PORTLAND, OR, 97215",157512372,"L"
691804,"5109 EANES LANE","HENRICO","VA",23231,37.5176249740001,-77.382844324,304,"5109 EANES LANE, HENRICO, VA, 23231","Match","Exact","5109 EANES LN, HENRICO, VA, 23231",640610536,"L"
691805,"5109 EAST ROVEY AVE","PARADISE VALLEY","AZ",85253,33.5249347710001,-111.972133749,305,"5109 EAST ROVEY AVE, PARADISE VALLEY, AZ, 85253","Match","Exact","5109 E ROVEY AVE, PARADISE VALLEY, AZ, 85253",128221513,"R"
691806,"5109 ECK ROAD","MIDDLETOWN","OH",45042,39.5133878300001,-84.445974494,306,"5109 ECK ROAD, MIDDLETOWN, OH, 45042","Match","Exact","5109 ECK RD, MIDDLETOWN, OH, 45042",113795242,"R"
691807,"5109 ESKER DRIVE","MADISON","WI",53704,43.115405051,-89.293981849,307,"5109 ESKER DRIVE, MADISON, WI, 53704","Match","Exact","5109 ESKER DR, MADISON, WI, 53704",640726614,"L"
691808,"5109 FALLING LEAVES LANE","MCFARLAND","WI",53558,43.023462523,-89.29214455,308,"5109 FALLING LEAVES LANE, MCFARLAND, WI, 53558","Match","Exact","5109 FALLING LEAVES LN, MCFARLAND, WI, 53558",49486968,"R"
691809,"5109 FOXCROFT DRIVE","MIDLAND","MI",48642,43.6440714510001,-84.201329118,309,"5109 FOXCROFT DRIVE, MIDLAND, MI, 48642","Match","Exact","5109 FOXCROFT DR, MIDLAND, MI, 48642",81192964,"L"
691810,"5109 FRANKLIN AVE","NEW ORLEANS","LA",70122,30.010716266,-90.050721527,310,"5109 FRANKLIN AVE, NEW ORLEANS, LA, 70122","Match","Exact","5109 FRANKLIN AVE, NEW ORLEANS, LA, 70122",635845925,"R"
691811,"5109 FRANKLIN AVENUE","NEW ORLEANS","LA",70122,30.010716266,-90.050721527,311,"5109 FRANKLIN AVENUE, NEW ORLEANS, LA, 70122","Match","Exact","5109 FRANKLIN AVE, NEW ORLEANS, LA, 70122",635845925,"R"
691812,"5109 GOLDSBORO DR APT 13F","NEWPORT NEWS","VA",23605,37.0318046720001,-76.4441567809999,312,"5109 GOLDSBORO DR APT 13F, NEWPORT NEWS, VA, 23605","Match","Exact","5109 GOLDSBORO DR, NEWPORT NEWS, VA, 23605",103804347,"L"
691813,"5109 GOLDSBORO DRIVE 10H","HAMPTON","VA",23605,37.0318046720001,-76.4441567809999,313,"5109 GOLDSBORO DRIVE 10H, HAMPTON, VA, 23605","Match","Exact","5109 GOLDSBORO DR, HAMPTON, VA, 23605",103804347,"L"
691814,"5109 GRAND LAKE ST","PEARLAND","TX",77401,29.699344496,-95.46821464,314,"5109 GRAND LAKE ST, PEARLAND, TX, 77401","Match","Non_Exact","5109 GRAND LAKE ST, BELLAIRE, TX, 77401",96033708,"L"
691815,"5109 GRANDVIEW DRIVE","ALBANY","GA",31721,31.584158653,-84.3006685569999,315,"5109 GRANDVIEW DRIVE, ALBANY, GA, 31721","Match","Exact","5109 GRANDVIEW DR, ALBANY, GA, 31721",651035466,"R"
691816,"5109 GRAY DR","HORN LAKE","MS",38637,34.9444273600001,-90.080458542,316,"5109 GRAY DR, HORN LAKE, MS, 38637","Match","Exact","5109 GRAY DR, HORN LAKE, MS, 38637",91826268,"L"
691817,"5109 HARBOUR BEACH BLVD","BRIGANTINE","NJ",8203,39.381674665,-74.405107212,317,"5109 HARBOUR BEACH BLVD, BRIGANTINE, NJ, 8203","Match","Exact","5109 HARBOUR BEACH BLVD, BRIGANTINE, NJ, 08203",202503224,"R"
691818,"5109 HESSEL RD","SEBASTOPOL","CA",95472,38.346137502,-122.767321804,318,"5109 HESSEL RD, SEBASTOPOL, CA, 95472","Match","Exact","5109 HESSEL RD, SEBASTOPOL, CA, 95472",604970659,"L"
691819,"5109 HIGH DR","TEXARKANA","TX",75503,33.4668859450001,-94.132117845,319,"5109 HIGH DR, TEXARKANA, TX, 75503","Match","Exact","5109 HIGH DR, TEXARKANA, TX, 75503",633330709,"L"
691820,"5109 HIGH","TEXARKANA","TX",75503,33.4668859450001,-94.132117845,320,"5109 HIGH, TEXARKANA, TX, 75503","Match","Non_Exact","5109 HIGH DR, TEXARKANA, TX, 75503",633330709,"L"
691821,"5109 JENNY DRIVE","ACWORTH","GA",30101,34.0722324390001,-84.677550643,321,"5109 JENNY DRIVE, ACWORTH, GA, 30101","Match","Exact","5109 JENNY DR, ACWORTH, GA, 30101",17208016,"R"
691822,"5109 JULIP DRIVE","KNIGHTDALE","NC",27545,35.748819306,-78.462237567,322,"5109 JULIP DRIVE, KNIGHTDALE, NC, 27545","Match","Exact","5109 JULIP DR, KNIGHTDALE, NC, 27545",72664502,"L"
691823,"5109 KINDERSTON DRIVE","HOLLY SPRINGS","NC",27540,35.648049783,-78.8045104999999,323,"5109 KINDERSTON DRIVE, HOLLY SPRINGS, NC, 27540","Match","Exact","5109 KINDERSTON DR, HOLLY SPRINGS, NC, 27540",72580011,"L"
691824,"5109 KODIAK COURT","CHARLOTTE","NC",28215,35.2853328840001,-80.6882158349999,324,"5109 KODIAK COURT, CHARLOTTE, NC, 28215","Match","Exact","5109 KODIAK CT, CHARLOTTE, NC, 28215",70597445,"L"
691825,"5109 LITCHFIELD RD","FORT WAYNE","IN",46835,41.127721724,-85.0280191909999,325,"5109 LITCHFIELD RD, FORT WAYNE, IN, 46835","Match","Exact","5109 LITCHFIELD RD, FORT WAYNE, IN, 46835",6391479,"R"
691826,"5109 LONGVIEW ROAD","KANSAS CITY","MO",64137,38.91654628,-94.531332176,326,"5109 LONGVIEW ROAD, KANSAS CITY, MO, 64137","Match","Exact","5109 LONGVIEW RD, KANSAS CITY, MO, 64137",91506725,"R"
691827,"5109 LUPINE CT","ROCKVILLE","MD",20853,39.1051836720001,-77.101995986,327,"5109 LUPINE CT, ROCKVILLE, MD, 20853","Match","Exact","5109 LUPINE CT, ROCKVILLE, MD, 20853",62059337,"R"
691828,"5109 MAGNOLIA TREE LANE","CHARLOTTE","NC",28215,35.228296544,-80.733681414,328,"5109 MAGNOLIA TREE LANE, CHARLOTTE, NC, 28215","Match","Exact","5109 MAGNOLIA TREE LN, CHARLOTTE, NC, 28215",70595192,"R"
691829,"5109 MID RIDGE CT","WAKE FOREST","NC",27587,35.983687633,-78.46882219,329,"5109 MID RIDGE CT, WAKE FOREST, NC, 27587","Match","Exact","5109 MID RIDGE CT, WAKE FOREST, NC, 27587",72601182,"R"
691830,"5109 MONTVILLE TRAILS DR","MEDINA","OH",44256,41.109345848,-81.872519466,330,"5109 MONTVILLE TRAILS DR, MEDINA, OH, 44256","Match","Exact","5109 MONTVILLE TRAILS DR, MEDINA, OH, 44256",632326028,"R"
691831,"5109 N JEFFERSON","GLADSTONE","MO",64119,NA,NA,331,"5109 N JEFFERSON, GLADSTONE, MO, 64119","No_Match",NA,NA,NA,NA
691832,"5109 N ORCHARD ROAD","RICHLAND","IN",47634,37.959599199,-87.104724554,332,"5109 N ORCHARD ROAD, RICHLAND, IN, 47634","Match","Exact","5109 N ORCHARD RD, RICHLAND, IN, 47634",7996830,"R"
691833,"5109 N STATE ROAD 75","FRANKFORT","IN",46041,40.358593435,-86.524294507,333,"5109 N STATE ROAD 75, FRANKFORT, IN, 46041","Match","Non_Exact","5109 STATE RD 75, FRANKFORT, IN, 46041",27227306,"R"
691834,"5109 NE 17TH TERRACE","OAKLAND PARK","FL",33334,26.1911008170001,-80.1234807129999,334,"5109 NE 17TH TERRACE, OAKLAND PARK, FL, 33334","Match","Non_Exact","5109 NE 17TH TER, OAKLAND PARK, FL, 33334",114723665,"L"
691835,"5109 NORTH CHEYENNE TRAIL","ROGERS","AR",72756,36.4023156810001,-94.1119402749999,335,"5109 NORTH CHEYENNE TRAIL, ROGERS, AR, 72756","Match","Exact","5109 N CHEYENNE TRL, ROGERS, AR, 72756",47870841,"R"
691836,"5109 NORTH VAN BUREN","ENID","OK",73703,36.436238675,-97.8901901249999,336,"5109 NORTH VAN BUREN, ENID, OK, 73703","Match","Non_Exact","5109 N VAN BUREN ST, ENID, OK, 73703",638571084,"R"
691837,"5109 NW 10TH ST","ANKENY","IA",50023,41.7405496900001,-93.666488983,337,"5109 NW 10TH ST, ANKENY, IA, 50023","Match","Exact","5109 NW 10TH ST, ANKENY, IA, 50023",649068215,"L"
691838,"5109 PANOLA VALLEY DR","LITHONIA","GA",30038,33.6606780590001,-84.1813883729999,338,"5109 PANOLA VALLEY DR, LITHONIA, GA, 30038","Match","Exact","5109 PANOLA VALLEY DR, LITHONIA, GA, 30038",23373900,"R"
691839,"5109 PATRICK HENRY STREET","BELLAIRE","TX",77401,29.6976999250001,-95.468205473,339,"5109 PATRICK HENRY STREET, BELLAIRE, TX, 77401","Match","Exact","5109 PATRICK HENRY ST, BELLAIRE, TX, 77401",96033642,"L"
691840,"5109 PEPPERTREE CIRCLE","TRUSSVILLE","AL",35173,33.65788445,-86.553648355,340,"5109 PEPPERTREE CIRCLE, TRUSSVILLE, AL, 35173","Match","Exact","5109 PEPPERTREE CIR, TRUSSVILLE, AL, 35173",635560325,"R"
691841,"5109 PLEASANT AVENUE NO 307","FAIRFIELD","OH",45014,39.3404229270001,-84.5598860539999,341,"5109 PLEASANT AVENUE NO 307, FAIRFIELD, OH, 45014","Match","Non_Exact","5109 PLEASANT AVE, FAIRFIELD, OH, 45014",113797659,"R"
691842,"5109 PROVENCIAL DR","AUSTIN","TX",78724,30.2863660990001,-97.66215692,342,"5109 PROVENCIAL DR, AUSTIN, TX, 78724","Match","Exact","5109 PROVENCIAL DR, AUSTIN, TX, 78724",63951840,"R"
691843,"5109 RAINBOW DRIVE","JEFFERSON CITY","MO",65109,38.591284639,-92.287489093,343,"5109 RAINBOW DRIVE, JEFFERSON CITY, MO, 65109","Match","Exact","5109 RAINBOW DR, JEFFERSON CITY, MO, 65109",604583471,"R"
691844,"5109 RALEIGH ST APT 518","ORLANDO","FL",32811,28.5277778190001,-81.44700168,344,"5109 RALEIGH ST APT 518, ORLANDO, FL, 32811","Match","Exact","5109 RALEIGH ST, ORLANDO, FL, 32811",94272920,"R"
691845,"5109 RED POLL DRIVE","GREENSBORO","NC",27405,36.1904531340001,-79.6966519489999,345,"5109 RED POLL DRIVE, GREENSBORO, NC, 27405","Match","Exact","5109 RED POLL DR, GREENSBORO, NC, 27405",648002996,"L"
691846,"5109 ROCK WATER DR","LOUISVILLE","KY",40241,38.3188005960001,-85.537804678,346,"5109 ROCK WATER DR, LOUISVILLE, KY, 40241","Match","Exact","5109 ROCK WATER DR, LOUISVILLE, KY, 40241",624268021,"R"
691847,"5109 S 194 ST","OMAHA","NE",68135,41.2066658430001,-96.218701955,347,"5109 S 194 ST, OMAHA, NE, 68135","Match","Exact","5109 S 194TH ST, OMAHA, NE, 68135",117029400,"L"
691848,"5109 SANTIAGO AVENUE","FT PIERCE","FL",34947,NA,NA,348,"5109 SANTIAGO AVENUE, FT PIERCE, FL, 34947","No_Match",NA,NA,NA,NA
691849,"5109 SE 104TH AVE","PORTLAND","OR",97266,45.4852893460001,-122.555730248,349,"5109 SE 104TH AVE, PORTLAND, OR, 97266","Match","Exact","5109 SE 104TH AVE, PORTLAND, OR, 97266",638570119,"R"
691850,"5109 SE 58TH","OKLAHOMA CITY","OK",73135,NA,NA,350,"5109 SE 58TH, OKLAHOMA CITY, OK, 73135","Tie",NA,NA,NA,NA
691851,"5109 SOUTH FERDINAND ST","SEATTLE","WA",98118,47.5582382690001,-122.269243854,351,"5109 SOUTH FERDINAND ST, SEATTLE, WA, 98118","Match","Exact","5109 S FERDINAND ST, SEATTLE, WA, 98118",239759004,"L"
691852,"5109 SOUTH LINKS CIRCLE","SUFFOLK","VA",23435,36.872415442,-76.4521721309999,352,"5109 SOUTH LINKS CIRCLE, SUFFOLK, VA, 23435","Match","Exact","5109 S LINKS CIR, SUFFOLK, VA, 23435",637326049,"L"
691853,"5109 STEPHANIE DRIVE","GRANITE CITY","IL",62040,38.7582620090001,-90.101958918,353,"5109 STEPHANIE DRIVE, GRANITE CITY, IL, 62040","Match","Exact","5109 STEPHANIE DR, GRANITE CITY, IL, 62040",107719328,"R"
691854,"5109 STONEHAVEN DR","MADISON","WI",53716,43.06933073,-89.293329869,354,"5109 STONEHAVEN DR, MADISON, WI, 53716","Match","Exact","5109 STONEHAVEN DR, MADISON, WI, 53716",49479653,"L"
691855,"5109 SUMMERBROOK DRIVE","COLLEYVILLE","TX",76034,32.8837630790001,-97.128524431,355,"5109 SUMMERBROOK DRIVE, COLLEYVILLE, TX, 76034","Match","Exact","5109 SUMMERBROOK DR, COLLEYVILLE, TX, 76034",102090929,"R"
691856,"5109 SW 139 AVENUE","MIRAMAR","FL",33027,25.960098354,-80.330467099,356,"5109 SW 139 AVENUE, MIRAMAR, FL, 33027","Match","Exact","5109 SW 139TH AVE, MIRAMAR, FL, 33027",617659973,"L"
691857,"5109 SW 139TH AVENUE","MIRAMAR","FL",33027,25.960098354,-80.330467099,357,"5109 SW 139TH AVENUE, MIRAMAR, FL, 33027","Match","Exact","5109 SW 139TH AVE, MIRAMAR, FL, 33027",617659973,"L"
691858,"5109 TAYLOR DR","AVE MARIE","FL",34142,26.333780199,-81.437039716,358,"5109 TAYLOR DR, AVE MARIE, FL, 34142","Match","Non_Exact","5109 TAYLOR DR, AVE MARIA, FL, 34142",619148289,"L"
691859,"5109 TEN TEN RD","APEX","NC",27539,35.687442151,-78.7570331909999,359,"5109 TEN TEN RD, APEX, NC, 27539","Match","Exact","5109 TEN TEN RD, APEX, NC, 27539",644907205,"L"
691860,"5109 TURNSBERRY COURT","ELK GROVE","CA",95758,38.413863474,-121.445702659,360,"5109 TURNSBERRY COURT, ELK GROVE, CA, 95758","Match","Exact","5109 TURNSBERRY CT, ELK GROVE, CA, 95758",133354131,"L"
691861,"5109 TYLER ST","SACRAMENTO","CA",95841,38.6592370880001,-121.358366858,361,"5109 TYLER ST, SACRAMENTO, CA, 95841","Match","Exact","5109 TYLER ST, SACRAMENTO, CA, 95841",133332602,"L"
691862,"5109 URBANDALE AVE","DES MOINES","IA",50310,41.622241924,-93.6891736969999,362,"5109 URBANDALE AVE, DES MOINES, IA, 50310","Match","Exact","5109 URBANDALE AVE, DES MOINES, IA, 50310",65779559,"R"
691863,"5109 WEATHERBY DRIVE","CHESTER","VA",23831,37.3544750200001,-77.4619970109999,363,"5109 WEATHERBY DRIVE, CHESTER, VA, 23831","Match","Exact","5109 WEATHERBY DR, CHESTER, VA, 23831",648460235,"R"
691864,"5109 WEDGE WOOD DR","GARLAND","TX",75043,32.854366371,-96.5663102779999,364,"5109 WEDGE WOOD DR, GARLAND, TX, 75043","Match","Non_Exact","5109 WEDGEWOOD DR, GARLAND, TX, 75043",103262536,"L"
691865,"5109 WEEPING CHERRY DR","BROWNS SUMMIT","NC",27214,36.1492424520001,-79.779335695,365,"5109 WEEPING CHERRY DR, BROWNS SUMMIT, NC, 27214","Match","Exact","5109 WEEPING CHERRY DR, BROWNS SUMMIT, NC, 27214",131097914,"L"
691866,"5109 WHITE OAK LOOP RD","WILSON","NC",27893,35.6936966580001,-77.817614363,366,"5109 WHITE OAK LOOP RD, WILSON, NC, 27893","Match","Exact","5109 WHITE OAK LOOP, WILSON, NC, 27893",26707915,"L"
691867,"5109 WILDERNESS ROAD","NEWBERN","VA",24126,NA,NA,367,"5109 WILDERNESS ROAD, NEWBERN, VA, 24126","No_Match",NA,NA,NA,NA
691868,"5109 WINDMILL PL","EVANS","GA",30809,33.564001321,-82.19540749,368,"5109 WINDMILL PL, EVANS, GA, 30809","Match","Exact","5109 WINDMILL PL, EVANS, GA, 30809",55381885,"R"
691869,"5109 WINTON ROAD UNIT A","FAIRFIELD","OH",45014,39.338966902,-84.53959723,369,"5109 WINTON ROAD UNIT A, FAIRFIELD, OH, 45014","Match","Exact","5109 WINTON RD, FAIRFIELD, OH, 45014",113819425,"R"
691870,"5109 WOODLAND AVE","WESTERN SPRINGS","IL",60558,41.7967550500001,-87.9029324429999,370,"5109 WOODLAND AVE, WESTERN SPRINGS, IL, 60558","Match","Exact","5109 WOODLAND AVE, WESTERN SPRINGS, IL, 60558",111789414,"L"
691871,"5109-B W ENTERPRISE ST","N CHAS","SC",29405,NA,NA,371,"5109-B W ENTERPRISE ST, N CHAS, SC, 29405","No_Match",NA,NA,NA,NA
691872,"51092 SHADY LANE","ELKHART","IN",46514,41.7517640180001,-85.982189292,372,"51092 SHADY LANE, ELKHART, IN, 46514","Match","Exact","51092 SHADY LN, ELKHART, IN, 46514",7749327,"L"
691873,"510A 1ST STREET","GLASGOW","MO",65254,39.2255262480001,-92.8472200149999,373,"510A 1ST STREET, GLASGOW, MO, 65254","Match","Exact","510 1ST ST, GLASGOW, MO, 65254",23105561,"R"
691874,"510W 123RD ST UNIT 7","NEW YORK","NY",10027,40.8115035490001,-73.958387223,374,"510W 123RD ST UNIT 7, NEW YORK, NY, 10027","Match","Non_Exact","510 W 123RD ST, NEW YORK, NY, 10027",639434119,"L"
691875,"511 1/2 ASHLAND AVE UNIT B","SANTA MONICA","CA",90405,34.001936475,-118.477585997,375,"511 1/2 ASHLAND AVE UNIT B, SANTA MONICA, CA, 90405","Match","Exact","511 ASHLAND AVE, SANTA MONICA, CA, 90405",141568906,"L"
691876,"511 11TH AVENUE WEST","HUNTINGTON","WV",25701,38.4098555,-82.447683161,376,"511 11TH AVENUE WEST, HUNTINGTON, WV, 25701","Match","Non_Exact","511 11TH AVE, HUNTINGTON, WV, 25701",101317562,"R"
691877,"511 14TH STREET NE","NAPLES","FL",34120,26.2384968690001,-81.57847101,377,"511 14TH STREET NE, NAPLES, FL, 34120","Match","Exact","511 14TH ST NE, NAPLES, FL, 34120",115132121,"L"
691878,"511 15TH ST","SPIRIT LAKE","IA",51360,43.425547485,-95.0978839319999,378,"511 15TH ST, SPIRIT LAKE, IA, 51360","Match","Exact","511 15TH ST, SPIRIT LAKE, IA, 51360",9805162,"L"
691879,"511 16TH ST NE","WATERTOWN","SD",57201,44.9061815160001,-97.09011035,379,"511 16TH ST NE, WATERTOWN, SD, 57201","Match","Exact","511 16TH ST NE, WATERTOWN, SD, 57201",200729820,"L"
691880,"511 1ST AVENUE","ELIZABETH","NJ",7206,40.653808143,-74.199513924,380,"511 1ST AVENUE, ELIZABETH, NJ, 7206","Match","Exact","511 1ST AVE, ELIZABETH, NJ, 07206",60579288,"R"
691881,"511 24TH AVE WEST","BRADENTON","FL",34205,27.4784281870001,-82.567397189,381,"511 24TH AVE WEST, BRADENTON, FL, 34205","Match","Exact","511 24TH AVE W, BRADENTON, FL, 34205",16235605,"L"
691882,"511 29TH STREET APT A","DES MOINES","GA",50310,NA,NA,382,"511 29TH STREET APT A, DES MOINES, GA, 50310","No_Match",NA,NA,NA,NA
691883,"511 36TH ST UNIT B","NEWPORT BEACH","CA",92663,33.6185585420001,-117.932058995,383,"511 36TH ST UNIT B, NEWPORT BEACH, CA, 92663","Match","Exact","511 36TH ST, NEWPORT BEACH, CA, 92663",624308980,"R"
691884,"511 37TH NW ST","CANTON","OH",44709,40.83852305,-81.374049164,384,"511 37TH NW ST, CANTON, OH, 44709","Match","Non_Exact","511 37TH ST NW, CANTON, OH, 44709",64678456,"R"
691885,"511 3RD AVE NE","HILLSBORO","ND",58045,47.4070240610001,-97.05410552,385,"511 3RD AVE NE, HILLSBORO, ND, 58045","Match","Exact","511 3RD AVE NE, HILLSBORO, ND, 58045",171860915,"R"
691886,"511 3RD STREET","ENCINITAS","CA",92024,33.0455886780001,-117.295724278,386,"511 3RD STREET, ENCINITAS, CA, 92024","Match","Exact","511 3RD ST, ENCINITAS, CA, 92024",195292843,"L"
691887,"511 40TH ST S APT 314","FARGO","ND",58103,46.8696568830001,-96.847700375,387,"511 40TH ST S APT 314, FARGO, ND, 58103","Match","Exact","511 40TH ST S, FARGO, ND, 58103",151469152,"L"
691888,"511 47TH AVENUE 3M","LONG ISLAND CITY","NY",11101,40.745183581,-73.955351263,388,"511 47TH AVENUE 3M, LONG ISLAND CITY, NY, 11101","Match","Non_Exact","511 47TH RD, LONG ISLAND CITY, NY, 11101",59691848,"L"
691889,"511 4TH AVE 1","ASBURY PARK","NJ",7712,40.223731049,-74.006117865,389,"511 4TH AVE 1, ASBURY PARK, NJ, 7712","Match","Exact","511 4TH AVE, ASBURY PARK, NJ, 07712",90464797,"R"
691890,"511 4TH AVE NE","BOWMAN","ND",58623,46.18897925,-103.401009092,390,"511 4TH AVE NE, BOWMAN, ND, 58623","Match","Non_Exact","511 4TH AVE NW, BOWMAN, ND, 58623",197088171,"L"
691891,"511 4TH ST NE","NAPLES","FL",34120,26.2382805410001,-81.5987215179999,391,"511 4TH ST NE, NAPLES, FL, 34120","Match","Exact","511 4TH ST NE, NAPLES, FL, 34120",115132134,"L"
691892,"511 5TH ST NE","CLARA CITY","MN",56222,NA,NA,392,"511 5TH ST NE, CLARA CITY, MN, 56222","No_Match",NA,NA,NA,NA
691893,"511 6TH AVE SUITE 122","NEW YORK","NY",10011,40.736844519,-73.9972199429999,393,"511 6TH AVE SUITE 122, NEW YORK, NY, 10011","Match","Exact","511 6TH AVE, NEW YORK, NY, 10011",59653334,"L"
691894,"511 7TH AVENUE","BELMAR","NJ",7719,40.181619981,-74.020934257,394,"511 7TH AVENUE, BELMAR, NJ, 7719","Match","Exact","511 7TH AVE, BELMAR, NJ, 07719",90465337,"L"
691895,"511 7TH STREET","SPENCER","NC",28159,35.6910308590001,-80.440093953,395,"511 7TH STREET, SPENCER, NC, 28159","Match","Exact","511 7TH ST, SPENCER, NC, 28159",25268487,"L"
691896,"511 9TH AVE NO","ST CLOUD","MN",56303,45.5640334330001,-94.166994513,396,"511 9TH AVE NO, ST CLOUD, MN, 56303","Match","Exact","511 9TH AVE N, SAINT CLOUD, MN, 56303",631790077,"L"
691897,"511 9TH STREET   APT 5","MORA","MN",55051,45.8860173470001,-93.289103681,397,"511 9TH STREET   APT 5, MORA, MN, 55051","Match","Non_Exact","511 N 9TH ST, MORA, MN, 55051",163045678,"L"
691898,"511 9TH STREET","BROOKLYN","NY",11215,40.6656435560001,-73.9789849329999,398,"511 9TH STREET, BROOKLYN, NY, 11215","Match","Exact","511 9TH ST, BROOKLYN, NY, 11215",59078167,"L"
691899,"511 9TH STREET","MENA","AR",71953,34.5835216360001,-94.2415121069999,399,"511 9TH STREET, MENA, AR, 71953","Match","Exact","511 9TH ST, MENA, AR, 71953",34506149,"L"
691900,"511 ADAMS STREET APT 2","DORCHESTER","MA",2122,42.292334931,-71.057355792,400,"511 ADAMS STREET APT 2, DORCHESTER, MA, 2122","Match","Exact","511 ADAMS ST, DORCHESTER, MA, 02122",85713607,"R"
691901,"511 AKARD","DALLAS","TX",75201,NA,NA,401,"511 AKARD, DALLAS, TX, 75201","No_Match",NA,NA,NA,NA
691902,"511 ALANDELE AVE","LOS ANGELES","CA",90036,34.0664301830001,-118.356941934,402,"511 ALANDELE AVE, LOS ANGELES, CA, 90036","Match","Exact","511 ALANDELE AVE, LOS ANGELES, CA, 90036",141599044,"R"
691903,"511 ALBEMARLE COURT","WILMINGTON","NC",28405,34.2539934640001,-77.863433264,403,"511 ALBEMARLE COURT, WILMINGTON, NC, 28405","Match","Exact","511 ALBEMARLE CT, WILMINGTON, NC, 28405",650665287,"L"
691904,"511 ALCOTT DR APT 26A","COLUMBIA","SC",29203,34.061380925,-81.026019548,404,"511 ALCOTT DR APT 26A, COLUMBIA, SC, 29203","Match","Exact","511 ALCOTT DR, COLUMBIA, SC, 29203",647337259,"R"
691905,"511 ALEN RD","BELCHERTOWN","MA",1007,42.3012815930001,-72.41867637,405,"511 ALEN RD, BELCHERTOWN, MA, 1007","Match","Non_Exact","511 ALLEN RD, BELCHERTOWN, MA, 01007",39853827,"R"
691906,"511 ALEXANDER PL","GARRETT","IN",46738,41.3316364030001,-85.130260202,406,"511 ALEXANDER PL, GARRETT, IN, 46738","Match","Exact","511 ALEXANDER PL, GARRETT, IN, 46738",640683992,"R"
691907,"511 ALLAN MOLLOHAN DRIVE","MT ZION","WV",26151,NA,NA,407,"511 ALLAN MOLLOHAN DRIVE, MT ZION, WV, 26151","No_Match",NA,NA,NA,NA
691908,"511 ALLEN STREET","CRAWFORDSVILLE","IN",47933,40.045697547,-86.909986321,408,"511 ALLEN STREET, CRAWFORDSVILLE, IN, 47933","Match","Exact","511 ALLEN ST, CRAWFORDSVILLE, IN, 47933",29351606,"L"
691909,"511 ALLYN CIRCLE","JANESVILLE","MN",56048,44.1218360130001,-93.701217451,409,"511 ALLYN CIRCLE, JANESVILLE, MN, 56048","Match","Exact","511 ALLYN CIR, JANESVILLE, MN, 56048",28735911,"R"
691910,"511 ANDERSON LANE","MADISON","TN",37115,36.272989103,-86.7013453169999,410,"511 ANDERSON LANE, MADISON, TN, 37115","Match","Exact","511 ANDERSON LN, MADISON, TN, 37115",97183120,"L"
691911,"511 ANNEX AVE","NASHVILLE","TN",37209,36.1544020000001,-86.8815071929999,411,"511 ANNEX AVE, NASHVILLE, TN, 37209","Match","Exact","511 ANNEX AVE, NASHVILLE, TN, 37209",97178515,"L"
691912,"511 APACHE TRAIL","MORGANVILLE","NJ",7751,40.3570857560001,-74.214294764,412,"511 APACHE TRAIL, MORGANVILLE, NJ, 7751","Match","Exact","511 APACHE TRL, MORGANVILLE, NJ, 07751",628706143,"L"
691913,"511 ARBOR AVE","SCHENECTADY","NY",12306,42.778158718,-73.9730091879999,413,"511 ARBOR AVE, SCHENECTADY, NY, 12306","Match","Exact","511 ARBOR AVE, SCHENECTADY, NY, 12306",18027119,"L"
691914,"511 ARBOR GREEN","RICHMOND","TX",77469,29.531387184,-95.720672895,414,"511 ARBOR GREEN, RICHMOND, TX, 77469","Match","Non_Exact","511 ARBOR GREEN LN, RICHMOND, TX, 77469",616469169,"L"
691915,"511 ARGYLL LANE","SCHAUMBURG","IL",60194,42.035582408,-88.1072084849999,415,"511 ARGYLL LANE, SCHAUMBURG, IL, 60194","Match","Exact","511 ARGYLL LN, SCHAUMBURG, IL, 60194",112384391,"R"
691916,"511 ATHENIAN CT APT L","CHARLOTTE","NC",28262,35.327055408,-80.742650591,416,"511 ATHENIAN CT APT L, CHARLOTTE, NC, 28262","Match","Exact","511 ATHENIAN CT, CHARLOTTE, NC, 28262",614168616,"L"
691917,"511 AUSTIN STREET","DOWNERS GROVE","IL",60515,41.7976460310001,-87.998034984,417,"511 AUSTIN STREET, DOWNERS GROVE, IL, 60515","Match","Exact","511 AUSTIN ST, DOWNERS GROVE, IL, 60515",112580241,"L"
691918,"511 AUTUMN RIDGE RD UNIT 202","LAKE IN THE HILLS","IL",60156,42.1777875340001,-88.346323048,418,"511 AUTUMN RIDGE RD UNIT 202, LAKE IN THE HILLS, IL, 60156","Match","Exact","511 AUTUMN RIDGE RD, LAKE IN THE HILLS, IL, 60156",647082518,"L"
691919,"511 AVE OF THE AMERICAS APT 357","NEW YORK","NY",10011,40.736844519,-73.9972199429999,419,"511 AVE OF THE AMERICAS APT 357, NEW YORK, NY, 10011","Match","Exact","511 AVE OF THE AMERICAS, NEW YORK, NY, 10011",59653334,"L"
691920,"511 AVENUE OF THE AMERICAS 4030","NEW YORK","NY",10011,40.736844519,-73.9972199429999,420,"511 AVENUE OF THE AMERICAS 4030, NEW YORK, NY, 10011","Match","Exact","511 AVE OF THE AMERICAS, NEW YORK, NY, 10011",59653334,"L"
691921,"511 AVENUE OF THE AMERICAS UNIT 341","NEW YORK","NY",10011,40.736844519,-73.9972199429999,421,"511 AVENUE OF THE AMERICAS UNIT 341, NEW YORK, NY, 10011","Match","Exact","511 AVE OF THE AMERICAS, NEW YORK, NY, 10011",59653334,"L"
691922,"511 AVENUE OF THE AMERICAS","NEW YORK","NY",10011,40.736844519,-73.9972199429999,422,"511 AVENUE OF THE AMERICAS, NEW YORK, NY, 10011","Match","Exact","511 AVE OF THE AMERICAS, NEW YORK, NY, 10011",59653334,"L"
691923,"511 AVENUE OF THE AMERICAS","NEW","NY",10011,40.736844519,-73.9972199429999,423,"511 AVENUE OF THE AMERICAS, NEW, NY, 10011","Match","Non_Exact","511 AVE OF THE AMERICAS, NEW YORK, NY, 10011",59653334,"L"
691924,"511 BACCICH","NEW ORLEANS","LA",70122,NA,NA,424,"511 BACCICH, NEW ORLEANS, LA, 70122","No_Match",NA,NA,NA,NA
691925,"511 BAINBRIDGE ST","RICHMOND","VA",23224,37.525304712,-77.439432487,425,"511 BAINBRIDGE ST, RICHMOND, VA, 23224","Match","Exact","511 BAINBRIDGE ST, RICHMOND, VA, 23224",639928683,"R"
691926,"511 BAINBRIDGE STREET APT 195","RICHMOND","VA",23224,37.525304712,-77.439432487,426,"511 BAINBRIDGE STREET APT 195, RICHMOND, VA, 23224","Match","Exact","511 BAINBRIDGE ST, RICHMOND, VA, 23224",639928683,"R"
691927,"511 BALDWIN ST","JENISON","MI",49428,42.907145083,-85.794061722,427,"511 BALDWIN ST, JENISON, MI, 49428","Match","Exact","511 BALDWIN ST, JENISON, MI, 49428",641567479,"L"
691928,"511 BALDWIN STREET","JENISON","MI",49428,42.907145083,-85.794061722,428,"511 BALDWIN STREET, JENISON, MI, 49428","Match","Exact","511 BALDWIN ST, JENISON, MI, 49428",641567479,"L"
691929,"511 BALDWIN","JENISON","MI",49428,42.907145083,-85.794061722,429,"511 BALDWIN, JENISON, MI, 49428","Match","Non_Exact","511 BALDWIN ST, JENISON, MI, 49428",641567479,"L"
691930,"511 BARRON","WINONA","MS",38967,33.4766480660001,-89.741434692,430,"511 BARRON, WINONA, MS, 38967","Match","Non_Exact","511 BARRON ST, WINONA, MS, 38967",161382652,"R"
691931,"511 BAY ROAD","DUXBURY","MA",2332,42.0118326370001,-70.7064922549999,431,"511 BAY ROAD, DUXBURY, MA, 2332","Match","Exact","511 BAY RD, DUXBURY, MA, 02332",87455409,"R"
691932,"511 BEACH 129TH STREET","BELLE HARBOR","NY",11694,40.5800208100001,-73.850330184,432,"511 BEACH 129TH STREET, BELLE HARBOR, NY, 11694","Match","Exact","511 BEACH 129TH ST, BELLE HARBOR, NY, 11694",59709375,"L"
691933,"511 BEACON ST APT 8","BOSTON","MA",2215,42.3506095050001,-71.090352057,433,"511 BEACON ST APT 8, BOSTON, MA, 2215","Match","Exact","511 BEACON ST, BOSTON, MA, 02215",637150045,"L"
691934,"511 BELLEWOOD RD","LOUISVILLE","KY",40223,38.252634121,-85.542687207,434,"511 BELLEWOOD RD, LOUISVILLE, KY, 40223","Match","Exact","511 BELLEWOOD RD, LOUISVILLE, KY, 40223",96865228,"R"
691935,"511 BELLVIEW CIRCLE","BEAUFORT","SC",29902,32.3831308700001,-80.725691763,435,"511 BELLVIEW CIRCLE, BEAUFORT, SC, 29902","Match","Non_Exact","511 N BELLEVIEW CIR, BEAUFORT, SC, 29902",87644181,"R"
691936,"511 BELMAR CIRCLE","GLENCOE","AL",35905,33.975050201,-85.933729923,436,"511 BELMAR CIRCLE, GLENCOE, AL, 35905","Match","Exact","511 BELMAR CIR, GLENCOE, AL, 35905",66775406,"R"
691937,"511 BENEDICT AVE","TARRYTOWN","NY",10591,41.06410407,-73.839704774,437,"511 BENEDICT AVE, TARRYTOWN, NY, 10591","Match","Exact","511 BENEDICT AVE, TARRYTOWN, NY, 10591",139731386,"R"
691938,"511 BENT OAK DRIVE","GUYTON","GA",31312,32.2726346000001,-81.374732041,438,"511 BENT OAK DRIVE, GUYTON, GA, 31312","Match","Exact","511 BENT OAK DR, GUYTON, GA, 31312",211395928,"R"
691939,"511 BERTRAND DRIVE APT 2205","LAFAYETTE","LA",70506,30.211088649,-92.044446799,439,"511 BERTRAND DRIVE APT 2205, LAFAYETTE, LA, 70506","Match","Exact","511 BERTRAND DR, LAFAYETTE, LA, 70506",85614646,"L"
691940,"511 BIRCH POINT ROAD","WISCASSET","ME",4578,43.9673123490001,-69.697670444,440,"511 BIRCH POINT ROAD, WISCASSET, ME, 4578","Match","Exact","511 BIRCH POINT RD, WISCASSET, ME, 04578",75301174,"R"
691941,"511 BIVENS ST","WINGATE","NC",28174,34.986897873,-80.453804614,441,"511 BIVENS ST, WINGATE, NC, 28174","Match","Exact","511 BIVENS ST, WINGATE, NC, 28174",14176452,"L"
691942,"511 BLACK ST","SCHULENBURG","TX",78956,29.6758834990001,-96.9049849,442,"511 BLACK ST, SCHULENBURG, TX, 78956","Match","Exact","511 BLACK ST, SCHULENBURG, TX, 78956",42002197,"R"
691943,"511 BLACKSTONE COURT","DANVILLE","CA",94506,37.794840864,-121.920728947,443,"511 BLACKSTONE COURT, DANVILLE, CA, 94506","Match","Exact","511 BLACKSTONE CT, DANVILLE, CA, 94506",192096484,"R"
691944,"511 BLAND STREET","GASSVILLE","AR",72635,36.2747345120001,-92.497261975,444,"511 BLAND STREET, GASSVILLE, AR, 72635","Match","Exact","511 BLAND ST, GASSVILLE, AR, 72635",2952877,"L"
691945,"511 BLUE FIELD LANE","FORT MILL","SC",29708,35.0565049750001,-81.0003545069999,445,"511 BLUE FIELD LANE, FORT MILL, SC, 29708","Match","Exact","511 BLUE FIELD LN, FORT MILL, SC, 29708",19805412,"L"
691946,"511 BOHICKET ROAD","WILMORE","KY",40390,37.8549372460001,-84.6486311309999,446,"511 BOHICKET ROAD, WILMORE, KY, 40390","Match","Exact","511 BOHICKET RD, WILMORE, KY, 40390",38465563,"L"
691947,"511 BRASHER ST","NASHUA","IA",50658,42.9507354690001,-92.537463563,447,"511 BRASHER ST, NASHUA, IA, 50658","Match","Exact","511 BRASHER ST, NASHUA, IA, 50658",9733753,"R"
691948,"511 BRETT PLACE","SOUTH PLAINFIELD","NJ",7080,40.5841628900001,-74.4085061229999,448,"511 BRETT PLACE, SOUTH PLAINFIELD, NJ, 7080","Match","Exact","511 BRETT PL, S PLAINFIELD, NJ, 07080",60261275,"L"
691949,"511 BRIAN CIRCLE","MARY ESTHER","FL",32569,30.4203938840001,-86.661202165,449,"511 BRIAN CIRCLE, MARY ESTHER, FL, 32569","Match","Exact","511 BRIAN CIR, MARY ESTHER, FL, 32569",74388698,"L"
691950,"511 BRIARWYCK DR","BALLWIN","MO",63011,38.6097792620001,-90.553274071,450,"511 BRIARWYCK DR, BALLWIN, MO, 63011","Match","Exact","511 BRIARWYCK DR, BALLWIN, MO, 63011",100111303,"R"
691951,"511 BROADROCK RD","WAKEFIELD","RI",2879,41.460312447,-71.486021977,451,"511 BROADROCK RD, WAKEFIELD, RI, 2879","Match","Non_Exact","511 BROAD ROCK RD, WAKEFIELD, RI, 02879",58929714,"L"
691952,"511 BROADWAY","DAYTON","WY",82836,44.8749197110001,-107.260960664,452,"511 BROADWAY, DAYTON, WY, 82836","Match","Non_Exact","511 BROADWAY AVE, DAYTON, WY, 82836",147421070,"R"
691953,"511 BRULE GUILLOT RD","THIBODAUX","LA",70301,29.7978950240001,-90.878964065,453,"511 BRULE GUILLOT RD, THIBODAUX, LA, 70301","Match","Exact","511 BRULE GUILLOT RD, THIBODAUX, LA, 70301",628133828,"R"
691954,"511 BUCKEYE DRIVE","ATTICA","OH",44807,41.0605350490001,-82.878938564,454,"511 BUCKEYE DRIVE, ATTICA, OH, 44807","Match","Exact","511 BUCKEYE DR, ATTICA, OH, 44807",12970051,"L"
691955,"511 BUTTERMILK LANE","BRADFORDWOODS","PA",15015,40.635613773,-80.0786332659999,455,"511 BUTTERMILK LANE, BRADFORDWOODS, PA, 15015","Match","Exact","511 BUTTERMILK LN, BRADFORDWOODS, PA, 15015",641911055,"R"
691956,"511 C STREET","ANTIOCH","CA",94509,38.01464256,-121.808756887,456,"511 C STREET, ANTIOCH, CA, 94509","Match","Exact","511 C ST, ANTIOCH, CA, 94509",192032445,"L"
691957,"511 CALEDONIA STREET","SAUSALITO","CA",94965,37.860526156,-122.488965876,457,"511 CALEDONIA STREET, SAUSALITO, CA, 94965","Match","Exact","511 CALEDONIA ST, SAUSALITO, CA, 94965",192770177,"L"
691958,"511 CALICO ROAD","OCEANSIDE","CA",92058,NA,NA,458,"511 CALICO ROAD, OCEANSIDE, CA, 92058","No_Match",NA,NA,NA,NA
691959,"511 CALLANDALE LANE","DURHAM","NC",27703,35.9599534280001,-78.832672347,459,"511 CALLANDALE LANE, DURHAM, NC, 27703","Match","Exact","511 CALLANDALE LN, DURHAM, NC, 27703",650044780,"L"
691960,"511 CANDLEWOOD LAKE ROAD","NEW MILFORD","CT",6770,NA,NA,460,"511 CANDLEWOOD LAKE ROAD, NEW MILFORD, CT, 6770","No_Match",NA,NA,NA,NA
691961,"511 CANNON RD","SILVER SPRING","MD",20904,39.070098059,-77.000039049,461,"511 CANNON RD, SILVER SPRING, MD, 20904","Match","Exact","511 CANNON RD, SILVER SPRING, MD, 20904",62089430,"R"
691962,"511 CAPITOL COURT NE","WASHINGTON","DC",20002,38.896729242,-77.002393076,462,"511 CAPITOL COURT NE, WASHINGTON, DC, 20002","Match","Exact","511 CAPITOL CT NE, WASHINGTON, DC, 20002",645508375,"R"
691963,"511 CAPPS STREET","MARLIN","TX",76661,31.3096661910001,-96.889646092,463,"511 CAPPS STREET, MARLIN, TX, 76661","Match","Exact","511 CAPPS ST, MARLIN, TX, 76661",24839854,"R"
691964,"511 CARDINAL AVE","OSWEGO","IL",60543,41.693420324,-88.3088606649999,464,"511 CARDINAL AVE, OSWEGO, IL, 60543","Match","Exact","511 CARDINAL AVE, OSWEGO, IL, 60543",54501346,"R"
691965,"511 CARROL ST","AULANDER","NC",27805,36.232994218,-77.107463122,465,"511 CARROL ST, AULANDER, NC, 27805","Match","Non_Exact","511 CARROLL ST, AULANDER, NC, 27805",56518221,"L"
691966,"511 CASTLEMAN ROAD","VESTAL","NY",13850,42.0134826500001,-76.0156849059999,466,"511 CASTLEMAN ROAD, VESTAL, NY, 13850","Match","Exact","511 CASTLEMAN RD, VESTAL, NY, 13850",46339635,"L"
691967,"511 CASTLEWOOD PL","UPPER MARLBORO","MD",20774,38.8820387800001,-76.839443084,467,"511 CASTLEWOOD PL, UPPER MARLBORO, MD, 20774","Match","Exact","511 CASTLEWOOD PL, UPPER MARLBORO, MD, 20774",76332411,"R"
691968,"511 CEDAR AVE","WOODWARD","IA",50276,41.8535052620001,-93.9206962969999,468,"511 CEDAR AVE, WOODWARD, IA, 50276","Match","Non_Exact","511 S CEDAR AVE, WOODWARD, IA, 50276",65631205,"R"
691969,"511 CELEBRATION AVE","CELEBRATION","FL",34737,28.319963751,-81.537068512,469,"511 CELEBRATION AVE, CELEBRATION, FL, 34737","Match","Non_Exact","511 CELEBRATION AVE, CELEBRATION, FL, 34747",176681965,"R"
691970,"511 CHAMPION DR","CANTON","GA",30114,34.2204780600001,-84.5458923369999,470,"511 CHAMPION DR, CANTON, GA, 30114","Match","Non_Exact","511 CHAMPION CT, CANTON, GA, 30114",625409936,"L"
691971,"511 CHAPARRO","CALDWELL","ID",83605,43.643902885,-116.692658427,471,"511 CHAPARRO, CALDWELL, ID, 83605","Match","Non_Exact","511 CHAPARRO ST, CALDWELL, ID, 83605",122833017,"L"
691972,"511 CHESTNUT STREET","LEXINGTON","KY",40508,38.048175793,-84.483093041,472,"511 CHESTNUT STREET, LEXINGTON, KY, 40508","Match","Exact","511 CHESTNUT ST, LEXINGTON, KY, 40508",618010210,"L"
691973,"511 COLFELT COURT","EXTON","PA",19341,40.042828297,-75.6243477579999,473,"511 COLFELT COURT, EXTON, PA, 19341","Match","Exact","511 COLFELT CT, EXTON, PA, 19341",179529799,"R"
691974,"511 COLLEGE AVE","WINTHROP HARBOR","IL",60096,42.4857177170001,-87.825230382,474,"511 COLLEGE AVE, WINTHROP HARBOR, IL, 60096","Match","Exact","511 COLLEGE AVE, WINTHROP HARBOR, IL, 60096",119627834,"L"
691975,"511 COLLEGE HILL","WARSAW","IL",62379,NA,NA,475,"511 COLLEGE HILL, WARSAW, IL, 62379","Tie",NA,NA,NA,NA
691976,"511 COLLINS LANDING","FRANKFORT","KY",40601,38.198898779,-84.893361231,476,"511 COLLINS LANDING, FRANKFORT, KY, 40601","Match","Exact","511 COLLINS LNDG, FRANKFORT, KY, 40601",649173854,"L"
691977,"511 COMMERCE ROAD","PINE BLUFF","AR",71601,34.2238505710001,-91.972193907,477,"511 COMMERCE ROAD, PINE BLUFF, AR, 71601","Match","Exact","511 COMMERCE RD, PINE BLUFF, AR, 71601",2574188,"R"
691978,"511 COMMONS DRIVE","SHOREWOODS","IL",60404,NA,NA,478,"511 COMMONS DRIVE, SHOREWOODS, IL, 60404","No_Match",NA,NA,NA,NA
691979,"511 CONLEY ROAD","RICHMOND","VA",23227,37.5994297030001,-77.4380064489999,479,"511 CONLEY ROAD, RICHMOND, VA, 23227","Match","Exact","511 CONLEY RD, RICHMOND, VA, 23227",106649053,"L"
691980,"511 CORDILLERA TRACE","BOERNE","TX",78006,29.839045578,-98.593715494,480,"511 CORDILLERA TRACE, BOERNE, TX, 78006","Match","Exact","511 CORDILLERA TRCE, BOERNE, TX, 78006",642983143,"R"
691981,"511 CORNERSTONE ST","LYNCHBURG","VA",24502,37.345738753,-79.225817611,481,"511 CORNERSTONE ST, LYNCHBURG, VA, 24502","Match","Exact","511 CORNERSTONE ST, LYNCHBURG, VA, 24502",651945853,"L"
691982,"511 COTTONWOOD AVE","LAUREL","MT",59044,45.6736244300001,-108.758205776,482,"511 COTTONWOOD AVE, LAUREL, MT, 59044","Match","Exact","511 COTTONWOOD AVE, LAUREL, MT, 59044",181460373,"R"
691983,"511 CR 3676","QUEEN CITY","TX",75572,NA,NA,483,"511 CR 3676, QUEEN CITY, TX, 75572","No_Match",NA,NA,NA,NA
691984,"511 CRABAPPLE LANE","DAYTON","NV",89403,39.289644487,-119.523933385,484,"511 CRABAPPLE LANE, DAYTON, NV, 89403","Match","Exact","511 CRABAPPLE LN, DAYTON, NV, 89403",646846520,"R"
691985,"511 CRESHEIM VALLEY ROAD WYNDMOOR P","WYNDMOOR","PA",19038,40.078408,-75.1968428229999,485,"511 CRESHEIM VALLEY ROAD WYNDMOOR P, WYNDMOOR, PA, 19038","Match","Exact","511 CRESHEIM VALLEY RD, WYNDMOOR, PA, 19038",635284990,"L"
691986,"511 CREST VIEW AVENUE 129","BELMONT","CA",94402,37.528785269,-122.283190697,486,"511 CREST VIEW AVENUE 129, BELMONT, CA, 94402","Match","Non_Exact","511 CREST VIEW AVE, BELMONT, CA, 94002",192381611,"L"
691987,"511 CRUMBAUGH RD","GEORGETOWN","KY",40324,38.205479154,-84.513389003,487,"511 CRUMBAUGH RD, GEORGETOWN, KY, 40324","Match","Exact","511 CRUMBAUGH RD, GEORGETOWN, KY, 40324",41250591,"L"
691988,"511 CURRY CT","MANTECA","CA",95337,37.7937923540001,-121.231449951,488,"511 CURRY CT, MANTECA, CA, 95337","Match","Exact","511 CURRY CT, MANTECA, CA, 95337",133858420,"R"
691989,"511 CYPRESS VIEW DRIVE","OLDSMAR","FL",34677,28.0529675280001,-82.666625177,489,"511 CYPRESS VIEW DRIVE, OLDSMAR, FL, 34677","Match","Exact","511 CYPRESS VIEW DR, OLDSMAR, FL, 34677",124776245,"R"
691990,"511 DAHILA ST APT 2","PRAIRIE VIEW","TX",77446,30.079691482,-95.9831245779999,490,"511 DAHILA ST APT 2, PRAIRIE VIEW, TX, 77446","Match","Exact","511 DAHILA ST, PRAIRIE VIEW, TX, 77446",78353763,"R"
691991,"511 DANIELS ST","SCOBEY","MT",59263,48.7880221790001,-105.420638015,491,"511 DANIELS ST, SCOBEY, MT, 59263","Match","Exact","511 DANIELS ST, SCOBEY, MT, 59263",205454161,"L"
691992,"511 DAVID RD","LEAGUE CITY","TX",77573,29.5122504030001,-95.0817063699999,492,"511 DAVID RD, LEAGUE CITY, TX, 77573","Match","Non_Exact","511 DAVID AVE, LEAGUE CITY, TX, 77573",96682548,"R"
691993,"511 DELAWARE","KANSAS CITY","MO",64111,NA,NA,493,"511 DELAWARE, KANSAS CITY, MO, 64111","No_Match",NA,NA,NA,NA
691994,"511 DIXIE STREET","PARMA","MO",63870,36.6092900530001,-89.814270871,494,"511 DIXIE STREET, PARMA, MO, 63870","Match","Non_Exact","511 S DIXIE ST, PARMA, MO, 63870",30623394,"L"
691995,"511 DOVECOFT LN","ROSENBERG","TX",77469,29.5294776370001,-95.7199756539999,495,"511 DOVECOFT LN, ROSENBERG, TX, 77469","Match","Exact","511 DOVECOFT LN, ROSENBERG, TX, 77469",637596614,"L"
691996,"511 DRAPER SW","BLACKSBURG","VA",24060,37.2258286090001,-80.411924652,496,"511 DRAPER SW, BLACKSBURG, VA, 24060","Match","Non_Exact","511 DRAPER RD SW, BLACKSBURG, VA, 24060",73616381,"R"
691997,"511 DRYDEN LN","BUDA","TX",78610,30.1069382420001,-97.8797552079999,497,"511 DRYDEN LN, BUDA, TX, 78610","Match","Exact","511 DRYDEN LN, BUDA, TX, 78610",636449439,"L"
691998,"511 DUNAD AVE","OPA LOCKA","FL",33054,25.904193562,-80.2555658329999,498,"511 DUNAD AVE, OPA LOCKA, FL, 33054","Match","Exact","511 DUNAD AVE, OPA LOCKA, FL, 33054",116032082,"L"
691999,"511 DUPONT DRIVE","TALLAHASSEE","FL",32305,30.40934086,-84.291374079,499,"511 DUPONT DRIVE, TALLAHASSEE, FL, 32305","Match","Exact","511 DUPONT DR, TALLAHASSEE, FL, 32305",82852125,"L"
692000,"511 E 123RD STREET","CLEVELAND","OH",44108,41.5433171,-81.599929779,500,"511 E 123RD STREET, CLEVELAND, OH, 44108","Match","Exact","511 E 123RD ST, CLEVELAND, OH, 44108",653487183,"L"
