"ID","Address","City","State","Zip","lat","long","id","input_address","match_indicator","match_type","matched_address","tiger_line_id","tiger_side"
368501,"2255 ANDERSON HIGHWAY","ELBERTON","GA",30635,34.1875999010001,-82.8358830769999,1,"2255 ANDERSON HIGHWAY, ELBERTON, GA, 30635","Match","Exact","2255 ANDERSON HWY, ELBERTON, GA, 30635",22964846,"L"
368502,"2255 ARKANSAS LANE","GRAND PRAIRIE","TX",75052,32.706090461,-97.0354693,2,"2255 ARKANSAS LANE, GRAND PRAIRIE, TX, 75052","Match","Exact","2255 ARKANSAS LN, GRAND PRAIRIE, TX, 75052",639257177,"L"
368503,"2255 ARKANSAS LN  NO-2302","GRAND PRARIE","TX",75052,32.706090461,-97.0354693,3,"2255 ARKANSAS LN  NO-2302, GRAND PRARIE, TX, 75052","Match","Non_Exact","2255 ARKANSAS LN, GRAND PRAIRIE, TX, 75052",639257177,"L"
368504,"2255 ARKANSAS LN APT 2106","GRAND PRAIRIE","TX",75052,32.706090461,-97.0354693,4,"2255 ARKANSAS LN APT 2106, GRAND PRAIRIE, TX, 75052","Match","Exact","2255 ARKANSAS LN, GRAND PRAIRIE, TX, 75052",639257177,"L"
368505,"2255 ARKANSAS STREET STE 4130","GRAND PRAIRIE","TX",75052,32.706090461,-97.0354693,5,"2255 ARKANSAS STREET STE 4130, GRAND PRAIRIE, TX, 75052","Match","Non_Exact","2255 ARKANSAS LN, GRAND PRAIRIE, TX, 75052",639257177,"L"
368506,"2255 BB WATSON RD","CONWAY","SC",29526,33.8399028110001,-78.862382526,6,"2255 BB WATSON RD, CONWAY, SC, 29526","Match","Non_Exact","2255 B B WATSON RD, CONWAY, SC, 29526",29100808,"R"
368507,"2255 BEAVER DAM ROAD","CASSATT","SC",29032,34.399102246,-80.48385424,7,"2255 BEAVER DAM ROAD, CASSATT, SC, 29032","Match","Exact","2255 BEAVER DAM RD, CASSATT, SC, 29032",78482188,"L"
368508,"2255 BEDFORD AVENUE APT 6I","BROOKLYN","NY",11226,40.6489012160001,-73.955760455,8,"2255 BEDFORD AVENUE APT 6I, BROOKLYN, NY, 11226","Match","Exact","2255 BEDFORD AVE, BROOKLYN, NY, 11226",59081361,"L"
368509,"2255 BENSON RIDGE","LITHONIA","GA",30058,33.7269005590001,-84.067870541,9,"2255 BENSON RIDGE, LITHONIA, GA, 30058","Match","Exact","2255 BENSON RIDGE, LITHONIA, GA, 30058",619382183,"R"
368510,"2255 BRAESWOOD PARK DRIVE UNIT 291","HOUSTON","TX",77030,29.6944807890001,-95.411006684,10,"2255 BRAESWOOD PARK DRIVE UNIT 291, HOUSTON, TX, 77030","Match","Exact","2255 BRAESWOOD PARK DR, HOUSTON, TX, 77030",96609867,"R"
368511,"2255 BRUCKNER BLVD APT 1","BRONX","NY",10472,40.827822053,-73.8483843069999,11,"2255 BRUCKNER BLVD APT 1, BRONX, NY, 10472","Match","Exact","2255 BRUCKNER BLVD, BRONX, NY, 10472",80306101,"L"
368512,"2255 CAHUILLA ST UNIT 107","COLTON","CA",92324,34.046048951,-117.289136145,12,"2255 CAHUILLA ST UNIT 107, COLTON, CA, 92324","Match","Exact","2255 CAHUILLA ST, COLTON, CA, 92324",145227454,"R"
368513,"2255 CARVILLE DR APT 9B","RENO","NV",89512,39.542543698,-119.786017416,13,"2255 CARVILLE DR APT 9B, RENO, NV, 89512","Match","Exact","2255 CARVILLE DR, RENO, NV, 89512",107048029,"R"
368514,"2255 COUNTY RD 1257","BLANCHARD","OK",73010,35.193755647,-97.70953249,14,"2255 COUNTY RD 1257, BLANCHARD, OK, 73010","Match","Exact","2255 CO RD 1257, BLANCHARD, OK, 73010",648937450,"R"
368515,"2255 CRENSHAW BLVD","LOS ANGELES","CA",90016,34.037306459,-118.332483212,15,"2255 CRENSHAW BLVD, LOS ANGELES, CA, 90016","Match","Exact","2255 CRENSHAW BLVD, LOS ANGELES, CA, 90016",638699412,"R"
368516,"2255 DAKOTA ST","EUGENE","OR",97402,44.090108011,-123.1956126,16,"2255 DAKOTA ST, EUGENE, OR, 97402","Match","Exact","2255 DAKOTA ST, EUGENE, OR, 97402",178162446,"R"
368517,"2255 DUNN AVENUE SUITE 601C","JACKSONVILLE","FL",32218,NA,NA,17,"2255 DUNN AVENUE SUITE 601C, JACKSONVILLE, FL, 32218","No_Match",NA,NA,NA,NA
368518,"2255 E EL MORO AVE","MESA","AZ",85204,33.3985970960001,-111.782684381,18,"2255 E EL MORO AVE, MESA, AZ, 85204","Match","Exact","2255 E EL MORO AVE, MESA, AZ, 85204",128246884,"R"
368519,"2255 E SUNNYSIDE AVE UNIT 58506","SALT LAKE CITY","UT",84158,40.750741486,-111.825902109,19,"2255 E SUNNYSIDE AVE UNIT 58506, SALT LAKE CITY, UT, 84158","Match","Non_Exact","2255 SUNNYSIDE AVE, SLC, UT, 84108",176081720,"L"
368520,"2255 E SUNSET RD APT 2055","LAS VEGAS","NV",89119,NA,NA,20,"2255 E SUNSET RD APT 2055, LAS VEGAS, NV, 89119","Tie",NA,NA,NA,NA
368521,"2255 EAST SUNNYSIDE AVENUE","SALT LAKE CITY","UT",84108,40.750741486,-111.825915057,21,"2255 EAST SUNNYSIDE AVENUE, SALT LAKE CITY, UT, 84108","Match","Exact","2255 E SUNNYSIDE AVE, SALT LAKE CITY, UT, 84108",176081720,"L"
368522,"2255 EDDISON ROAD","ADAIRVILLE","KY",42202,36.7001392720001,-86.749825952,22,"2255 EDDISON ROAD, ADAIRVILLE, KY, 42202","Match","Exact","2255 EDDISON RD, ADAIRVILLE, KY, 42202",29604165,"L"
368523,"2255 EQUESTRIAN LOOP S","SALEM","OR",97302,44.910936448,-123.074214632,23,"2255 EQUESTRIAN LOOP S, SALEM, OR, 97302","Match","Exact","2255 EQUESTRIAN LOOP S, SALEM, OR, 97302",648361459,"L"
368524,"2255 FIFTH AVENUE SUITE 7E","NEW YORK","NY",10037,40.814008782,-73.936703582,24,"2255 FIFTH AVENUE SUITE 7E, NEW YORK, NY, 10037","Match","Exact","2255 5TH AVE, NEW YORK, NY, 10037",611227433,"R"
368525,"2255 FIFTH AVENUE- 8C","NEW YORK","NY",10037,40.814008782,-73.936703582,25,"2255 FIFTH AVENUE- 8C, NEW YORK, NY, 10037","Match","Non_Exact","2255 5TH AVE, NEW YORK, NY, 10037",611227433,"R"
368526,"2255 FOUR SEASONS DR","GAMBRILLS","MD",21054,39.057367388,-76.690550106,26,"2255 FOUR SEASONS DR, GAMBRILLS, MD, 21054","Match","Exact","2255 FOUR SEASONS DR, GAMBRILLS, MD, 21054",68161110,"L"
368527,"2255 FRAY ROAD","RUCKERSVILLE","VA",22968,38.1981725540001,-78.422181542,27,"2255 FRAY ROAD, RUCKERSVILLE, VA, 22968","Match","Exact","2255 FRAY RD, RUCKERSVILLE, VA, 22968",221701634,"R"
368528,"2255 GEORGETOWN AVENUE","TOLEDO","OH",43613,41.689814438,-83.597767431,28,"2255 GEORGETOWN AVENUE, TOLEDO, OH, 43613","Match","Exact","2255 GEORGETOWN AVE, TOLEDO, OH, 43613",33933232,"L"
368529,"2255 GLADES ROAD SUITE 221","BOCA RATON","FL",33431,26.368207915,-80.1266674,29,"2255 GLADES ROAD SUITE 221, BOCA RATON, FL, 33431","Match","Exact","2255 GLADES RD, BOCA RATON, FL, 33431",640587632,"R"
368530,"2255 GLADES ROAD SUITE 324A","BOCA RATON","FL",33431,26.368207915,-80.1266674,30,"2255 GLADES ROAD SUITE 324A, BOCA RATON, FL, 33431","Match","Exact","2255 GLADES RD, BOCA RATON, FL, 33431",640587632,"R"
368531,"2255 GOODWIN ROAD","ELMONT","NY",11003,40.697897508,-73.723819358,31,"2255 GOODWIN ROAD, ELMONT, NY, 11003","Match","Exact","2255 GOODWIN RD, ELMONT, NY, 11003",647171484,"R"
368532,"2255 GOVE HILL ROAD","THETFORD CENTER","VT",5075,43.8176001580001,-72.32003952,32,"2255 GOVE HILL ROAD, THETFORD CENTER, VT, 5075","Match","Exact","2255 GOVE HILL RD, THETFORD CENTER, VT, 05075",181140619,"R"
368533,"2255 HIDEAWAY CT","EUGENE","OR",97401,44.074092088,-123.078028978,33,"2255 HIDEAWAY CT, EUGENE, OR, 97401","Match","Exact","2255 HIDEAWAY CT, EUGENE, OR, 97401",178170477,"L"
368534,"2255 Hutchinson Rd","YUBA CITY","CA",95993,39.0398542680001,-121.657889999,34,"2255 Hutchinson Rd, YUBA CITY, CA, 95993","Match","Exact","2255 HUTCHINSON RD, YUBA CITY, CA, 95993",68573625,"R"
368535,"2255 INDIAN CREEK CIRCLE","ANN ARBOR","MI",48105,42.3198540340001,-83.726723227,35,"2255 INDIAN CREEK CIRCLE, ANN ARBOR, MI, 48105","Match","Exact","2255 INDIAN CREEK CIR, ANN ARBOR, MI, 48105",625061647,"R"
368536,"2255 KALAKAUA AVE 33F","HONOLULU","HI",96815,21.279049506,-157.828899987,36,"2255 KALAKAUA AVE 33F, HONOLULU, HI, 96815","Match","Exact","2255 KALAKAUA AVE, HONOLULU, HI, 96815",203241878,"R"
368537,"2255 KIMBERTON RD PO BOX 147","KIMBERTON","PA",19442,NA,NA,37,"2255 KIMBERTON RD PO BOX 147, KIMBERTON, PA, 19442","No_Match",NA,NA,NA,NA
368538,"2255 LEGACY TRAIL","IRVING","TX",75063,32.9241631410001,-96.97473648,38,"2255 LEGACY TRAIL, IRVING, TX, 75063","Match","Exact","2255 LEGACY TRL, IRVING, TX, 75063",635289913,"R"
368539,"2255 LIGHT HORSE HARRY RD","MACUNGIE","PA",18062,40.5391364440001,-75.563051157,39,"2255 LIGHT HORSE HARRY RD, MACUNGIE, PA, 18062","Match","Exact","2255 LIGHT HORSE HARRY RD, MACUNGIE, PA, 18062",645840500,"R"
368540,"2255 LINCOLN ST","EUGENE","OR",97405,44.0348824380001,-123.097013538,40,"2255 LINCOLN ST, EUGENE, OR, 97405","Match","Exact","2255 LINCOLN ST, EUGENE, OR, 97405",178167237,"L"
368541,"2255 LUPINE STREET","LAKEWOOD","CO",80228,39.67492129,-105.172740708,41,"2255 LUPINE STREET, LAKEWOOD, CO, 80228","Match","Non_Exact","2255 S LUPINE ST, LAKEWOOD, CO, 80228",627328981,"R"
368542,"2255 MAGANS OCEAN WALK","VERO BEACH","FL",32963,27.577754391,-80.3275131569999,42,"2255 MAGANS OCEAN WALK, VERO BEACH, FL, 32963","Match","Exact","2255 MAGANS OCEAN WALK, VERO BEACH, FL, 32963",120324099,"R"
368543,"2255 MEMORIAL BLVD UNIT 12303","MURFREESBORO","TN",37129,35.878404167,-86.384522435,43,"2255 MEMORIAL BLVD UNIT 12303, MURFREESBORO, TN, 37129","Match","Exact","2255 MEMORIAL BLVD, MURFREESBORO, TN, 37129",639068941,"L"
368544,"2255 MIDLOTHIAN DR","ALTADENA","CA",91001,34.1840168860001,-118.107590751,44,"2255 MIDLOTHIAN DR, ALTADENA, CA, 91001","Match","Exact","2255 MIDLOTHIAN DR, ALTADENA, CA, 91001",141631682,"L"
368545,"2255 MOON VIEW DR","HACIENDA HEIGHTS","CA",91745,33.984694962,-117.938701194,45,"2255 MOON VIEW DR, HACIENDA HEIGHTS, CA, 91745","Match","Exact","2255 MOON VIEW DR, HACIENDA HTS, CA, 91745",141756684,"R"
368546,"2255 N BONNIE BRAE","DENTON","TX",76207,33.2371161830001,-97.1607965439999,46,"2255 N BONNIE BRAE, DENTON, TX, 76207","Match","Non_Exact","2255 N BONNIE BRAE ST, DENTON, TX, 76207",103384850,"R"
368547,"2255 N FITCH MOUNTAIN ROAD","HEALDSBURG","CA",95448,38.6229569770001,-122.838450517,47,"2255 N FITCH MOUNTAIN ROAD, HEALDSBURG, CA, 95448","Match","Exact","2255 N FITCH MOUNTAIN RD, HEALDSBURG, CA, 95448",635779359,"R"
368548,"2255 N LAWNDALE AVE","CHICAGO","IL",60647,41.922183121,-87.719356945,48,"2255 N LAWNDALE AVE, CHICAGO, IL, 60647","Match","Exact","2255 N LAWNDALE AVE, CHICAGO, IL, 60647",111758701,"R"
368549,"2255 NEW HOPE ROAD","LAWRENCEVILLE","GA",30045,33.917371501,-83.90406348,49,"2255 NEW HOPE ROAD, LAWRENCEVILLE, GA, 30045","Match","Exact","2255 NEW HOPE RD, LAWRENCEVILLE, GA, 30045",625650767,"L"
368550,"2255 OLD FARM ROAD","SCOTCH PLAINS","NJ",7076,40.6539287260001,-74.38121195,50,"2255 OLD FARM ROAD, SCOTCH PLAINS, NJ, 7076","Match","Exact","2255 OLD FARM RD, SCOTCH PLAINS, NJ, 07076",640083256,"L"
368551,"2255 OLD MARLTON PIKE","MARLTON","NJ",8053,39.8902015680001,-74.87233967,51,"2255 OLD MARLTON PIKE, MARLTON, NJ, 8053","Match","Non_Exact","2255 OLD MARLTON PIKE E, MARLTON, NJ, 08053",134064105,"L"
368552,"2255 ORANGE ST APT 10","HIGHLAND","CA",92346,34.1370080090001,-117.213121506,52,"2255 ORANGE ST APT 10, HIGHLAND, CA, 92346","Match","Non_Exact","2255 N ORANGE ST, HIGHLAND, CA, 92346",144967078,"R"
368553,"2255 OXON RUN DRIVE","TEMPLE HILLS","MD",20748,38.8431613180001,-76.967727458,53,"2255 OXON RUN DRIVE, TEMPLE HILLS, MD, 20748","Match","Exact","2255 OXON RUN DR, TEMPLE HILLS, MD, 20748",76369747,"R"
368554,"2255 PAR LN 919","WILLOUGHBY HILL","OH",44094,NA,NA,54,"2255 PAR LN 919, WILLOUGHBY HILL, OH, 44094","No_Match",NA,NA,NA,NA
368555,"2255 PASEO DE LOS CHAMISOS APT B","SANTA FE","NM",87505,35.646304097,-105.977005467,55,"2255 PASEO DE LOS CHAMISOS APT B, SANTA FE, NM, 87505","Match","Non_Exact","2255 PSO DE LOS CHAMISOS, SANTA FE, NM, 87505",636576792,"L"
368556,"2255 QUEEN STREET SOUTH","ST PETERSBURG","FL",33712,27.747750121,-82.657324934,56,"2255 QUEEN STREET SOUTH, ST PETERSBURG, FL, 33712","Match","Exact","2255 QUEEN ST S, SAINT PETERSBURG, FL, 33712",124710631,"R"
368557,"2255 RENAISSANCE DR SUITE A","LAS VEGAS","NV",89119,36.1021868070001,-115.122896499,57,"2255 RENAISSANCE DR SUITE A, LAS VEGAS, NV, 89119","Match","Exact","2255 RENAISSANCE DR, LAS VEGAS, NV, 89119",201922635,"L"
368558,"2255 RICHTER STREET","DUNEDIN","FL",34698,28.0363317320001,-82.744651731,58,"2255 RICHTER STREET, DUNEDIN, FL, 34698","Match","Exact","2255 RICHTER ST, DUNEDIN, FL, 34698",633400970,"R"
368559,"2255 RIDGEVIEW DRIVE","MUSCATINE","IA",52761,41.4165880740001,-91.125965541,59,"2255 RIDGEVIEW DRIVE, MUSCATINE, IA, 52761","Match","Exact","2255 RIDGEVIEW DR, MUSCATINE, IA, 52761",99004654,"R"
368560,"2255 S BAHAMA DR","GI;BERT","AZ",85295,33.3102393130001,-111.754247288,60,"2255 S BAHAMA DR, GI;BERT, AZ, 85295","Match","Non_Exact","2255 S BAHAMA DR, GILBERT, AZ, 85295",128810559,"L"
368561,"2255 S DONOVAN WAY","SAN RAMON","CA",94582,37.7635401750001,-121.896405546,61,"2255 S DONOVAN WAY, SAN RAMON, CA, 94582","Match","Exact","2255 S DONOVAN WAY, SAN RAMON, CA, 94582",634182601,"L"
368562,"2255 S ELLSWORTH ST","ALLENTOWN","PA",18103,40.5804362170001,-75.440636609,62,"2255 S ELLSWORTH ST, ALLENTOWN, PA, 18103","Match","Exact","2255 S ELLSWORTH ST, ALLENTOWN, PA, 18103",649885681,"L"
368563,"2255 SAN GORGINIO ROAD","LA CANADA FLINTRIDGE","CA",91011,34.2286247420001,-118.225097608,63,"2255 SAN GORGINIO ROAD, LA CANADA FLINTRIDGE, CA, 91011","Match","Non_Exact","2255 SAN GORGONIO RD, LA CANADA, CA, 91011",141589806,"R"
368564,"2255 SAN JOSE AVENUE APT E","ALAMEDA","CA",94501,37.761871656,-122.247867988,64,"2255 SAN JOSE AVENUE APT E, ALAMEDA, CA, 94501","Match","Exact","2255 SAN JOSE AVE, ALAMEDA, CA, 94501",125005368,"L"
368565,"2255 SATELITE BLVD UNIT D207","DULUTH","GA",30097,33.981903936,-84.0927736309999,65,"2255 SATELITE BLVD UNIT D207, DULUTH, GA, 30097","Match","Non_Exact","2255 SATELLITE BLVD, DULUTH, GA, 30097",644928311,"L"
368566,"2255 SATELLITE BLVD APT C202","DULUTH","GA",30097,33.981903936,-84.0927736309999,66,"2255 SATELLITE BLVD APT C202, DULUTH, GA, 30097","Match","Exact","2255 SATELLITE BLVD, DULUTH, GA, 30097",644928311,"L"
368567,"2255 SATELLITE BLVD","DULUTH","GA",30097,33.981903936,-84.0927736309999,67,"2255 SATELLITE BLVD, DULUTH, GA, 30097","Match","Exact","2255 SATELLITE BLVD, DULUTH, GA, 30097",644928311,"L"
368568,"2255 SCAMMEL DR","DALLAS","TX",75227,32.751598202,-96.677266694,68,"2255 SCAMMEL DR, DALLAS, TX, 75227","Match","Exact","2255 SCAMMEL DR, DALLAS, TX, 75227",102970419,"L"
368569,"2255 SE 25TH AVE","HOMESTEAD","FL",33035,25.452227152,-80.4397732369999,69,"2255 SE 25TH AVE, HOMESTEAD, FL, 33035","Match","Exact","2255 SE 25TH AVE, HOMESTEAD, FL, 33035",632268126,"L"
368570,"2255 SE VETERANS MEMORIAL PKWY 9225","PORT SAINT LUCIE","FL",34985,NA,NA,70,"2255 SE VETERANS MEMORIAL PKWY 9225, PORT SAINT LUCIE, FL, 34985","No_Match",NA,NA,NA,NA
368571,"2255 SE VETERANS MEMORIAL PKWY 9225","PORT ST LUCIE","FL",34985,NA,NA,71,"2255 SE VETERANS MEMORIAL PKWY 9225, PORT ST LUCIE, FL, 34985","No_Match",NA,NA,NA,NA
368572,"2255 SE VETERANS MEMORIAL PKY","PORT ST LUCIE","FL",34952,NA,NA,72,"2255 SE VETERANS MEMORIAL PKY, PORT ST LUCIE, FL, 34952","No_Match",NA,NA,NA,NA
368573,"2255 SEABROOK ISLAND ROAD","JOHNS ISLAND","SC",29455,32.5918795910001,-80.160007988,73,"2255 SEABROOK ISLAND ROAD, JOHNS ISLAND, SC, 29455","Match","Exact","2255 SEABROOK ISLAND RD, JOHNS ISLAND, SC, 29455",605789269,"R"
368574,"2255 SHADY TIMBERS CIRCLE APT B","TALLAHASSEE","FL",32304,30.4513093200001,-84.324448336,74,"2255 SHADY TIMBERS CIRCLE APT B, TALLAHASSEE, FL, 32304","Match","Exact","2255 SHADY TIMBERS CIR, TALLAHASSEE, FL, 32304",618802034,"R"
368575,"2255 SHERMAN AVE","NORTH MUSKEGON","MI",49445,43.2651258400001,-86.254973883,75,"2255 SHERMAN AVE, NORTH MUSKEGON, MI, 49445","Match","Non_Exact","2255 SHERMAN ST, N MUSKEGON, MI, 49445",647178286,"L"
368576,"2255 SHERWOOD AVE APT 2","TOLEDO","OH",43614,41.604630629,-83.599411988,76,"2255 SHERWOOD AVE APT 2, TOLEDO, OH, 43614","Match","Exact","2255 SHERWOOD AVE, TOLEDO, OH, 43614",33960295,"L"
368577,"2255 SHOWERS DR","MOUNTAIN VIEW","CA",94040,37.407541377,-122.107826621,77,"2255 SHOWERS DR, MOUNTAIN VIEW, CA, 94040","Match","Exact","2255 SHOWERS DR, MOUNTAIN VIEW, CA, 94040",650170855,"L"
368578,"2255 STAGECOACH DRIVE","CANYON LAKE","TX",78133,29.8854134920001,-98.255944593,78,"2255 STAGECOACH DRIVE, CANYON LAKE, TX, 78133","Match","Exact","2255 STAGECOACH DR, CANYON LAKE, TX, 78133",72237346,"R"
368579,"2255 SUNRISE BLVD","FORT MYERS","FL",33907,26.562921422,-81.865069551,79,"2255 SUNRISE BLVD, FORT MYERS, FL, 33907","Match","Exact","2255 SUNRISE BLVD, FORT MYERS, FL, 33907",118026793,"L"
368580,"2255 SWITZER APT E204","GULFPORT","MS",39507,30.406080767,-89.003811935,80,"2255 SWITZER APT E204, GULFPORT, MS, 39507","Match","Non_Exact","2255 SWITZER RD, GULFPORT, MS, 39507",111397475,"R"
368581,"2255 SWITZER RD APT E201","GULFPORT","MS",39507,30.406080767,-89.003811935,81,"2255 SWITZER RD APT E201, GULFPORT, MS, 39507","Match","Exact","2255 SWITZER RD, GULFPORT, MS, 39507",111397475,"R"
368582,"2255 SWITZER RD","GULFPORT","MS",39507,30.406080767,-89.003811935,82,"2255 SWITZER RD, GULFPORT, MS, 39507","Match","Exact","2255 SWITZER RD, GULFPORT, MS, 39507",111397475,"R"
368583,"2255 SYCAMORE LN APT 38","DAVIS","CA",95616,NA,NA,83,"2255 SYCAMORE LN APT 38, DAVIS, CA, 95616","No_Match",NA,NA,NA,NA
368584,"2255 TEAL BRIAR LN  APT 102","BURLINGTON","KY",41005,39.0278398390001,-84.7108578099999,84,"2255 TEAL BRIAR LN  APT 102, BURLINGTON, KY, 41005","Match","Exact","2255 TEAL BRIAR LN, BURLINGTON, KY, 41005",635524833,"L"
368585,"2255 TROTTER RIDGE COURT","YORK","PA",17408,39.9669636830001,-76.7979419329999,85,"2255 TROTTER RIDGE COURT, YORK, PA, 17408","Match","Non_Exact","2255 TROTTER RIDGE RD, YORK, PA, 17408",627571378,"R"
368586,"2255 VICTORIA STREET NORTH","ROSEVILLE","NM",55113,NA,NA,86,"2255 VICTORIA STREET NORTH, ROSEVILLE, NM, 55113","No_Match",NA,NA,NA,NA
368587,"2255 W 111TH STREET","CHICAGO","IL",60643,41.6918152490001,-87.678177945,87,"2255 W 111TH STREET, CHICAGO, IL, 60643","Match","Exact","2255 W 111TH ST, CHICAGO, IL, 60643",111822555,"L"
368588,"2255 W ARGYLE","CHICAGO","IL",60625,41.972298032,-87.6856170569999,88,"2255 W ARGYLE, CHICAGO, IL, 60625","Match","Non_Exact","2255 W ARGYLE ST, CHICAGO, IL, 60625",605185156,"L"
368589,"2255 W CANTERBURY DRIVE","LAPLACE","LA",70068,30.0967236070001,-90.492613005,89,"2255 W CANTERBURY DRIVE, LAPLACE, LA, 70068","Match","Non_Exact","2255 W CANTERBURY DR, LA PLACE, LA, 70068",93691265,"L"
368590,"2255 W HURON","CHICAGO","IL",60610,NA,NA,90,"2255 W HURON, CHICAGO, IL, 60610","No_Match",NA,NA,NA,NA
368591,"2255 W LASKEY RD","TOLEDO","OH",43613,41.7067271670001,-83.598796286,91,"2255 W LASKEY RD, TOLEDO, OH, 43613","Match","Exact","2255 W LASKEY RD, TOLEDO, OH, 43613",635572620,"L"
368592,"2255 W MEYER RD","WENTZVILLE","MO",63385,NA,NA,92,"2255 W MEYER RD, WENTZVILLE, MO, 63385","Tie",NA,NA,NA,NA
368593,"2255 WAGNER ROAD","GREENVILLE","OH",45331,40.135311399,-84.7221119549999,93,"2255 WAGNER ROAD, GREENVILLE, OH, 45331","Match","Exact","2255 WAGNER RD, GREENVILLE, OH, 45331",54561668,"L"
368594,"2255 WARM SPRINGS LANE","TEMPLETON","CA",93465,35.5854263860001,-120.665970493,94,"2255 WARM SPRINGS LANE, TEMPLETON, CA, 93465","Match","Exact","2255 WARM SPRINGS LN, TEMPLETON, CA, 93465",640876309,"L"
368595,"2255 WASHINGTON STREET NE","PALM BAY","FL",32905,28.055643613,-80.5987101489999,95,"2255 WASHINGTON STREET NE, PALM BAY, FL, 32905","Match","Non_Exact","2255 WASHINGTON ST, PALM BAY, FL, 32905",93909836,"R"
368596,"2255 WATERS FERRY DRIVE","LAWRENCEVILLE","GA",30043,34.0098276910001,-84.0004008559999,96,"2255 WATERS FERRY DRIVE, LAWRENCEVILLE, GA, 30043","Match","Exact","2255 WATERS FERRY DR, LAWRENCEVILLE, GA, 30043",88936769,"R"
368597,"2255 WATERS FERRY ROAD","LAWRENCEVILLE","GA",30043,34.0098276910001,-84.0004008559999,97,"2255 WATERS FERRY ROAD, LAWRENCEVILLE, GA, 30043","Match","Non_Exact","2255 WATERS FERRY DR, LAWRENCEVILLE, GA, 30043",88936769,"R"
368598,"2255 WHISPERING MAPLE DRIVE","ORLANDO","FL",32837,28.3937295750001,-81.4145465139999,98,"2255 WHISPERING MAPLE DRIVE, ORLANDO, FL, 32837","Match","Exact","2255 WHISPERING MAPLE DR, ORLANDO, FL, 32837",94339517,"L"
368599,"2255 WILDWOOD DRIVE","FLORENCE","MS",39073,32.176563878,-90.103933978,99,"2255 WILDWOOD DRIVE, FLORENCE, MS, 39073","Match","Exact","2255 WILDWOOD DR, FLORENCE, MS, 39073",627364781,"L"
368600,"2255 WILLOWBROOK LN","PERRIS","CA",92571,33.812994288,-117.207622325,100,"2255 WILLOWBROOK LN, PERRIS, CA, 92571","Match","Exact","2255 WILLOWBROOK LN, PERRIS, CA, 92571",195090412,"L"
368601,"2255 WILNOR DRIVE","WINDOM","MN",56101,43.886262754,-95.148284861,101,"2255 WILNOR DRIVE, WINDOM, MN, 56101","Match","Non_Exact","2255 WILLNOR DR, WINDOM, MN, 56101",30325612,"L"
368602,"2255 WILSON ST LOT 11","MENOMONIE","WI",54751,44.9091211360001,-91.924944223,102,"2255 WILSON ST LOT 11, MENOMONIE, WI, 54751","Match","Exact","2255 WILSON ST, MENOMONIE, WI, 54751",648650538,"L"
368603,"2255 WINDMILL COURT","BRYANS ROAD","MD",20616,38.6516458940001,-77.0638232489999,103,"2255 WINDMILL COURT, BRYANS ROAD, MD, 20616","Match","Exact","2255 WINDMILL CT, BRYANS ROAD, MD, 20616",646637266,"R"
368604,"2255 WORDEN ST 12","SAN DIEGO","CA",92107,32.7420625140001,-117.229325399,104,"2255 WORDEN ST 12, SAN DIEGO, CA, 92107","Match","Exact","2255 WORDEN ST, SAN DIEGO, CA, 92107",195339703,"R"
368605,"2255-C WINTERVILLE ROAD","ATHENS","GA",30605,33.95603349,-83.321489051,105,"2255-C WINTERVILLE ROAD, ATHENS, GA, 30605","Match","Exact","2255 WINTERVILLE RD, ATHENS, GA, 30605",4808350,"L"
368606,"22550 AVE 18 3/4","MADERA","CA",93637,37.0230604540001,-120.137895226,106,"22550 AVE 18 3/4, MADERA, CA, 93637","Match","Exact","22550 AVE 18 3/4, MADERA, CA, 93637",102345652,"R"
368607,"22550 FOXCROFT","WOODHAVEN","MI",48183,42.140917137,-83.2555550549999,107,"22550 FOXCROFT, WOODHAVEN, MI, 48183","Match","Non_Exact","22550 FOXCROFT ST, WOODHAVEN, MI, 48183",95505358,"R"
368608,"22550 IRONWOOD ROAD","LAKEVILLE","MN",55044,44.6234756700001,-93.328378,108,"22550 IRONWOOD ROAD, LAKEVILLE, MN, 55044","Match","Exact","22550 IRONWOOD RD, LAKEVILLE, MN, 55044",38146250,"R"
368609,"22550 LA ROCHELLE DR","SANTA CLARITA","CA",91350,34.4504096000001,-118.531427886,109,"22550 LA ROCHELLE DR, SANTA CLARITA, CA, 91350","Match","Exact","22550 LA ROCHELLE DR, SANTA CLARITA, CA, 91350",141518708,"R"
368610,"22550 LA ROCHELLE DRIVE","SANTA CLARITA","CA",91350,34.4504096000001,-118.531427886,110,"22550 LA ROCHELLE DRIVE, SANTA CLARITA, CA, 91350","Match","Exact","22550 LA ROCHELLE DR, SANTA CLARITA, CA, 91350",141518708,"R"
368611,"22550 US HIGHWAY 75","NETAWAKA","KS",66516,NA,NA,111,"22550 US HIGHWAY 75, NETAWAKA, KS, 66516","No_Match",NA,NA,NA,NA
368612,"22551 CABIN BRANCH AVENUE 1528","CLARKSBURG","MD",20871,NA,NA,112,"22551 CABIN BRANCH AVENUE 1528, CLARKSBURG, MD, 20871","No_Match",NA,NA,NA,NA
368613,"22551 GENE CAMPBELL BOULEVARD","NEW CANEY","TX",77357,NA,NA,113,"22551 GENE CAMPBELL BOULEVARD, NEW CANEY, TX, 77357","No_Match",NA,NA,NA,NA
368614,"22552 MARYLHURST CT","LAKE FOREST","CA",92630,33.6349567350001,-117.680398671,114,"22552 MARYLHURST CT, LAKE FOREST, CA, 92630","Match","Exact","22552 MARYLHURST CT, LAKE FOREST, CA, 92630",144064719,"L"
368615,"22552 SCHOOLCRAFT","LIVONIA","MI",48127,NA,NA,115,"22552 SCHOOLCRAFT, LIVONIA, MI, 48127","No_Match",NA,NA,NA,NA
368616,"22552 SW 93RD PASSAGE","CUTLER BAY","FL",33190,25.557553802,-80.34306925,116,"22552 SW 93RD PASSAGE, CUTLER BAY, FL, 33190","Match","Non_Exact","22552 SW 93 PASS, CUTLER BAY, FL, 33190",631937239,"R"
368617,"22553 GREEN ACRES BLVD","DENHAM SPRINGS","LA",70726,30.3960579640001,-90.907693416,117,"22553 GREEN ACRES BLVD, DENHAM SPRINGS, LA, 70726","Match","Exact","22553 GREEN ACRES BLVD, DENHAM SPRINGS, LA, 70726",612917044,"L"
368618,"22554 TERRACE COURT APT 201","NOVI","MI",48375,42.4548980710001,-83.438554997,118,"22554 TERRACE COURT APT 201, NOVI, MI, 48375","Match","Exact","22554 TERRACE CT, NOVI, MI, 48375",69812605,"R"
368619,"22555 AMENDOLA TERRACE","ASHBURN","VA",20148,38.9928729910001,-77.5044621279999,119,"22555 AMENDOLA TERRACE, ASHBURN, VA, 20148","Match","Exact","22555 AMENDOLA TER, ASHBURN, VA, 20148",641112414,"R"
368620,"22555 CHEROKEE ROSE","LAND O LAKES","FL",34639,28.2326143380001,-82.441894024,120,"22555 CHEROKEE ROSE, LAND O LAKES, FL, 34639","Match","Non_Exact","22555 CHEROKEE ROSE PL, LAND O LAKES, FL, 34639",618494350,"L"
368621,"22556 BOLANOS COURT","PORT CHARLOTTE","FL",33952,26.9947924850001,-82.0731641679999,121,"22556 BOLANOS COURT, PORT CHARLOTTE, FL, 33952","Match","Exact","22556 BOLANOS CT, PORT CHARLOTTE, FL, 33952",4304494,"R"
368622,"22556 HOWARDSVILLE WOOD CT","ASHBURN","VA",20148,38.992310837,-77.493089845,122,"22556 HOWARDSVILLE WOOD CT, ASHBURN, VA, 20148","Match","Non_Exact","22556 HOWARDSVILLE WOODS CT, ASHBURN, VA, 20148",62353312,"R"
368623,"22556 NATURE CENTER ROAD","OKOBOJI","IA",51355,NA,NA,123,"22556 NATURE CENTER ROAD, OKOBOJI, IA, 51355","No_Match",NA,NA,NA,NA
368624,"22556 PRAIRIE XING","PLAINFIELD","IL",60544,41.6283493670001,-88.1709351009999,124,"22556 PRAIRIE XING, PLAINFIELD, IL, 60544","Match","Exact","22556 PRAIRIE CROSSING, PLAINFIELD, IL, 60544",111614454,"L"
368625,"22557 NW 216 RD","JETMORE","KS",67854,38.1018819270001,-99.935334606,125,"22557 NW 216 RD, JETMORE, KS, 67854","Match","Exact","22557 216 RD, JETMORE, KS, 67854",138279139,"L"
368626,"2256 12TH PLACE NW","WASHINGTON","DC",20009,38.920013049,-77.028833767,126,"2256 12TH PLACE NW, WASHINGTON, DC, 20009","Match","Exact","2256 12TH PL NW, WASHINGTON, DC, 20009",76224251,"L"
368627,"2256 80 ROAD","BURR OAK","KS",66936,NA,NA,127,"2256 80 ROAD, BURR OAK, KS, 66936","No_Match",NA,NA,NA,NA
368628,"2256 89TH STREET","NORMAN","OK",73019,NA,NA,128,"2256 89TH STREET, NORMAN, OK, 73019","No_Match",NA,NA,NA,NA
368629,"2256 ALICE ROAD","COX'S MILLS","WV",26342,38.986777766,-80.8013857239999,129,"2256 ALICE ROAD, COX'S MILLS, WV, 26342","Match","Non_Exact","2256 ALICE RD, COXS MILLS, WV, 26342",49983421,"R"
368630,"2256 ALICE ROAD","COXS MILLS","WV",26342,38.986777766,-80.8013857239999,130,"2256 ALICE ROAD, COXS MILLS, WV, 26342","Match","Exact","2256 ALICE RD, COXS MILLS, WV, 26342",49983421,"R"
368631,"2256 ASH AVENUE","BATAVIA","IA",52533,40.978752759,-92.1687799269999,131,"2256 ASH AVENUE, BATAVIA, IA, 52533","Match","Exact","2256 ASH AVE, BATAVIA, IA, 52533",84428869,"L"
368632,"2256 BARRISTER ST","NORTH PORT","FL",34288,27.054952734,-82.1068170789999,132,"2256 BARRISTER ST, NORTH PORT, FL, 34288","Match","Exact","2256 BARRISTER ST, NORTH PORT, FL, 34288",16344330,"R"
368633,"2256 BARRY AVE","LOS ANGELES","CA",90064,34.0339687320001,-118.446152623,133,"2256 BARRY AVE, LOS ANGELES, CA, 90064","Match","Exact","2256 BARRY AVE, LOS ANGELES, CA, 90064",642861397,"L"
368634,"2256 BELMORE LANE","BIRMINGHAM","AL",35207,33.572676992,-86.8259048899999,134,"2256 BELMORE LANE, BIRMINGHAM, AL, 35207","Match","Exact","2256 BELMORE LN, BIRMINGHAM, AL, 35207",81571760,"L"
368635,"2256 BERNAYS DRIVE","YORK","PA",17404,39.9949438190001,-76.7589638279999,135,"2256 BERNAYS DRIVE, YORK, PA, 17404","Match","Exact","2256 BERNAYS DR, YORK, PA, 17404",88774906,"L"
368636,"2256 BRIGHTSEAT RD","HYATTSVILLE","MD",20785,38.9201149740001,-76.860234997,136,"2256 BRIGHTSEAT RD, HYATTSVILLE, MD, 20785","Match","Exact","2256 BRIGHTSEAT RD, HYATTSVILLE, MD, 20785",76404844,"L"
368637,"2256 BRIGHTSEAT ROAD","LANDOVER","MD",20785,38.9201149740001,-76.860234997,137,"2256 BRIGHTSEAT ROAD, LANDOVER, MD, 20785","Match","Exact","2256 BRIGHTSEAT RD, LANDOVER, MD, 20785",76404844,"L"
368638,"2256 CENTER ST","HONOLULU","HI",96818,NA,NA,138,"2256 CENTER ST, HONOLULU, HI, 96818","No_Match",NA,NA,NA,NA
368639,"2256 CHRISTIAN CIRCLE SE","CONYERS","GA",30013,33.57454976,-84.013372924,139,"2256 CHRISTIAN CIRCLE SE, CONYERS, GA, 30013","Match","Exact","2256 CHRISTIAN CIR SE, CONYERS, GA, 30013",23739261,"R"
368640,"2256 COURTLAND DR","FRISCO","TX",75034,33.1115875310001,-96.871850009,140,"2256 COURTLAND DR, FRISCO, TX, 75034","Match","Exact","2256 COURTLAND DR, FRISCO, TX, 75034",641485905,"L"
368641,"2256 COUSHATTE RD","BELLVILLE","TX",77418,29.9268437440001,-96.229908499,141,"2256 COUSHATTE RD, BELLVILLE, TX, 77418","Match","Exact","2256 COUSHATTE RD, BELLVILLE, TX, 77418",41811746,"R"
368642,"2256 DEHART FARM RD","WILDWOOD","MO",63038,38.59214924,-90.7076310149999,142,"2256 DEHART FARM RD, WILDWOOD, MO, 63038","Match","Exact","2256 DEHART FARM RD, WILDWOOD, MO, 63038",100180450,"R"
368643,"2256 FARNHAM DRIVE","OCOEE","FL",34761,28.59708241,-81.5646703099999,143,"2256 FARNHAM DRIVE, OCOEE, FL, 34761","Match","Exact","2256 FARNHAM DR, OCOEE, FL, 34761",649052226,"L"
368644,"2256 FORESTGLADE DR","STONE MOUNTAIN","GA",30087,33.843854139,-84.1846287719999,144,"2256 FORESTGLADE DR, STONE MOUNTAIN, GA, 30087","Match","Exact","2256 FORESTGLADE DR, STONE MOUNTAIN, GA, 30087",23386554,"L"
368645,"2256 HAMAL","IRVINE","CA",92618,33.688032843,-117.740876479,145,"2256 HAMAL, IRVINE, CA, 92618","Match","Exact","2256 HAMAL, IRVINE, CA, 92618",650766556,"R"
368646,"2256 HEITMAN ST","FORT MYERS","FL",33901,26.635649566,-81.871336657,146,"2256 HEITMAN ST, FORT MYERS, FL, 33901","Match","Exact","2256 HEITMAN ST, FORT MYERS, FL, 33901",118020308,"R"
368647,"2256 JEANS COURT","SIGNAL HILLS","CA",90755,33.798175363,-118.155113032,147,"2256 JEANS COURT, SIGNAL HILLS, CA, 90755","Match","Non_Exact","2256 JEANS CT, SIGNAL HILL, CA, 90755",142672570,"L"
368648,"2256 MEALS DRIVE","MEDFORD","OR",97501,42.2984654410001,-122.893079109,148,"2256 MEALS DRIVE, MEDFORD, OR, 97501","Match","Exact","2256 MEALS DR, MEDFORD, OR, 97501",155512745,"R"
368649,"2256 MILTON LN","FORT COLLINS","CO",80524,NA,NA,149,"2256 MILTON LN, FORT COLLINS, CO, 80524","No_Match",NA,NA,NA,NA
368650,"2256 MONTROSE AVE UNIT 4","LOS ANGELES","CA",91020,34.208907325,-118.226741695,150,"2256 MONTROSE AVE UNIT 4, LOS ANGELES, CA, 91020","Match","Non_Exact","2256 MONTROSE AVE, MONTROSE, CA, 91020",141590413,"L"
368651,"2256 NE TIMBERWOLF LOOP","PRINEVILLE","OR",97754,44.3220863810001,-120.839215632,151,"2256 NE TIMBERWOLF LOOP, PRINEVILLE, OR, 97754","Match","Exact","2256 NE TIMBERWOLF LOOP, PRINEVILLE, OR, 97754",152405308,"L"
368652,"2256 NEW YORK STREET","NEW ORLEANS","LA",70122,30.0244092090001,-90.059588216,152,"2256 NEW YORK STREET, NEW ORLEANS, LA, 70122","Match","Exact","2256 NEW YORK ST, NEW ORLEANS, LA, 70122",191704066,"R"
368653,"2256 NORTH CLARK ST APT 2","CHICAGO","IL",60660,41.923402938,-87.639152136,153,"2256 NORTH CLARK ST APT 2, CHICAGO, IL, 60660","Match","Non_Exact","2256 N CLARK ST, CHICAGO, IL, 60614",111892210,"L"
368654,"2256 PATTERSON RD","RIVERBANK","CA",95367,37.7326727340001,-120.95723185,154,"2256 PATTERSON RD, RIVERBANK, CA, 95367","Match","Exact","2256 PATTERSON RD, RIVERBANK, CA, 95367",102600650,"R"
368655,"2256 QUAIL RIDGE ROAD NORTH","PALM BEACH GARDENS","FL",33418,NA,NA,155,"2256 QUAIL RIDGE ROAD NORTH, PALM BEACH GARDENS, FL, 33418","Tie",NA,NA,NA,NA
368656,"2256 REXWOOD RD","CLEVELAND HEIGHTS","OH",44118,41.498558116,-81.568911413,156,"2256 REXWOOD RD, CLEVELAND HEIGHTS, OH, 44118","Match","Exact","2256 REXWOOD RD, CLEVELAND HEIGHTS, OH, 44118",61123263,"R"
368657,"2256 ROCK LAKE LOOP","VIRGINIA BEACH","VA",23456,36.7792870800001,-76.1128894139999,157,"2256 ROCK LAKE LOOP, VIRGINIA BEACH, VA, 23456","Match","Exact","2256 ROCK LAKE LOOP, VA BCH, VA, 23456",122282377,"R"
368658,"2256 ROSEDALE ROAD","FREMONT","NE",68025,41.5022875660001,-96.498420768,158,"2256 ROSEDALE ROAD, FREMONT, NE, 68025","Match","Exact","2256 ROSEDALE RD, FREMONT, NE, 68025",136333509,"L"
368659,"2256 ROYAL VINEYARD","SMYRNA","GA",30080,33.896196489,-84.470867776,159,"2256 ROYAL VINEYARD, SMYRNA, GA, 30080","Match","Non_Exact","2256 ROYAL VINEYARD LN, SMYRNA, GA, 30080",642999491,"R"
368660,"2256 S ALBANY AVE","CHICAGO","IL",60623,41.8506363560001,-87.7027756749999,160,"2256 S ALBANY AVE, CHICAGO, IL, 60623","Match","Exact","2256 S ALBANY AVE, CHICAGO, IL, 60623",605092983,"R"
368661,"2256 SAVANNAH LANE","LEXINGTON","KY",40513,38.0238323930001,-84.571725858,161,"2256 SAVANNAH LANE, LEXINGTON, KY, 40513","Match","Exact","2256 SAVANNAH LN, LEXINGTON, KY, 40513",31941611,"R"
368662,"2256 SPRING ST","GARDENDALE","AL",35071,33.676217798,-86.825367096,162,"2256 SPRING ST, GARDENDALE, AL, 35071","Match","Exact","2256 SPRING ST, GARDENDALE, AL, 35071",81611193,"R"
368663,"2256 VALLEY OAK LN  2042","WEST SACRAMENTO","CA",95691,38.5575654620001,-121.533618972,163,"2256 VALLEY OAK LN  2042, WEST SACRAMENTO, CA, 95691","Match","Exact","2256 VALLEY OAK LN, WEST SACRAMENTO, CA, 95691",630299989,"L"
368664,"2256 W 31ST STREET","LOS ANGELES","CA",90018,34.0264697050001,-118.31656408,164,"2256 W 31ST STREET, LOS ANGELES, CA, 90018","Match","Exact","2256 W 31ST ST, LOS ANGELES, CA, 90018",141605770,"L"
368665,"2256 W 81ST","CHICAGO","IL",60620,NA,NA,165,"2256 W 81ST, CHICAGO, IL, 60620","Tie",NA,NA,NA,NA
368666,"2256 W COUNTY ROAD 64","FORT COLLINS","CO",80524,40.7115162360001,-105.117733801,166,"2256 W COUNTY ROAD 64, FORT COLLINS, CO, 80524","Match","Exact","2256 W CO RD 64, FORT COLLINS, CO, 80524",188479294,"R"
368667,"2256 W FAIRVIEW DR","ROCKPORT","IN",47635,NA,NA,167,"2256 W FAIRVIEW DR, ROCKPORT, IN, 47635","Tie",NA,NA,NA,NA
368668,"2256 W LINDNER SUITE 18","MESA","AZ",85202,NA,NA,168,"2256 W LINDNER SUITE 18, MESA, AZ, 85202","No_Match",NA,NA,NA,NA
368669,"2256 WHITLEY BRANCH ROAD","NORTH TAZEWELL","VA",24630,37.1603885820001,-81.515201081,169,"2256 WHITLEY BRANCH ROAD, NORTH TAZEWELL, VA, 24630","Match","Exact","2256 WHITLEY BRANCH RD, N TAZEWELL, VA, 24630",47321446,"R"
368670,"2256 WOODRIDGE CT","Y","OH",44515,41.0774043160001,-80.7506031299999,170,"2256 WOODRIDGE CT, Y, OH, 44515","Match","Non_Exact","2256 WOODRIDGE CT, YOUNGSTOWN, OH, 44515",64591486,"R"
368671,"22561 CRESCENT WAY","RICHTON PARK","IL",60471,41.4771710750001,-87.723297804,171,"22561 CRESCENT WAY, RICHTON PARK, IL, 60471","Match","Exact","22561 CRESCENT WAY, RICHTON PARK, IL, 60471",629478972,"R"
368672,"22561 HOWARDSVILLE WOODS CT","ASHBURN","VA",20148,38.9922799170001,-77.493103252,172,"22561 HOWARDSVILLE WOODS CT, ASHBURN, VA, 20148","Match","Exact","22561 HOWARDSVILLE WOODS CT, ASHBURN, VA, 20148",62353312,"L"
368673,"22561 PLEASANT DRIVE","RICHTON PARK","IL",60471,41.4791110470001,-87.733084299,173,"22561 PLEASANT DRIVE, RICHTON PARK, IL, 60471","Match","Exact","22561 PLEASANT DR, RICHTON PARK, IL, 60471",111708099,"L"
368674,"22561 SW 88TH PL UNIT 205","CUTLER BAY","FL",33190,25.5581882560001,-80.333195949,174,"22561 SW 88TH PL UNIT 205, CUTLER BAY, FL, 33190","Match","Non_Exact","22561 SW 88TH PL, CUTLER BAY, FL, 33190",648440227,"R"
368675,"22562 RYE RD","SHAKER HEIGHTS","OH",44122,41.4747796190001,-81.5208099979999,175,"22562 RYE RD, SHAKER HEIGHTS, OH, 44122","Match","Exact","22562 RYE RD, SHAKER HEIGHTS, OH, 44122",61125994,"R"
368676,"22563 BOYD RD LOT 18","CARTHAGE","NY",13619,43.996128985,-75.618790937,176,"22563 BOYD RD LOT 18, CARTHAGE, NY, 13619","Match","Exact","22563 BOYD RD, CARTHAGE, NY, 13619",651776696,"L"
368677,"22563 SE 42ND TERRACE","ISSAQUAH","WA",98029,47.5683455870001,-122.038130476,177,"22563 SE 42ND TERRACE, ISSAQUAH, WA, 98029","Match","Exact","22563 SE 42ND TER, ISSAQUAH, WA, 98029",648778169,"R"
368678,"22565 ENADIA WAY","WEST HILLS","CA",91307,34.20051291,-118.617710202,178,"22565 ENADIA WAY, WEST HILLS, CA, 91307","Match","Exact","22565 ENADIA WAY, WEST HILLS, CA, 91307",141534451,"R"
368679,"22568 MISSION BLVD 113","HAYWARD","CA",94541,37.672474537,-122.084258537,179,"22568 MISSION BLVD 113, HAYWARD, CA, 94541","Match","Exact","22568 MISSION BLVD, HAYWARD, CA, 94541",606221698,"L"
368680,"22568 MISSION BLVD 212","HAYWARD","CA",94541,37.672474537,-122.084258537,180,"22568 MISSION BLVD 212, HAYWARD, CA, 94541","Match","Exact","22568 MISSION BLVD, HAYWARD, CA, 94541",606221698,"L"
368681,"22568 MISSION BLVD","HAYWARD","CA",94541,37.672474537,-122.084258537,181,"22568 MISSION BLVD, HAYWARD, CA, 94541","Match","Exact","22568 MISSION BLVD, HAYWARD, CA, 94541",606221698,"L"
368682,"2257 13TH STREET","CORALVILLE","IA",52241,41.6895216180001,-91.5952855579999,182,"2257 13TH STREET, CORALVILLE, IA, 52241","Match","Exact","2257 13TH ST, CORALVILLE, IA, 52241",84505182,"R"
368683,"2257 ACACIA AVENUE","SUTTER","CA",95982,39.1608535680001,-121.753641669,183,"2257 ACACIA AVENUE, SUTTER, CA, 95982","Match","Exact","2257 ACACIA AVE, SUTTER, CA, 95982",68571216,"R"
368684,"2257 BASCOM WAY","CLEARWATER","FL",33764,27.955414999,-82.743890716,184,"2257 BASCOM WAY, CLEARWATER, FL, 33764","Match","Exact","2257 BASCOM WAY, CLEARWATER, FL, 33764",124670097,"R"
368685,"2257 BLACKWOOD ROAD","BEND","MI",48188,42.288578031,-83.538896354,185,"2257 BLACKWOOD ROAD, BEND, MI, 48188","Match","Non_Exact","2257 BLACKWOOD RD, CANTON, MI, 48188",650152234,"L"
368686,"2257 BLACKWOOD ROAD","CANTON","MI",48188,42.288578031,-83.538896354,186,"2257 BLACKWOOD ROAD, CANTON, MI, 48188","Match","Exact","2257 BLACKWOOD RD, CANTON, MI, 48188",650152234,"L"
368687,"2257 BRADY ROAD","THERIOT","LA",70397,29.395881757,-90.798237467,187,"2257 BRADY ROAD, THERIOT, LA, 70397","Match","Exact","2257 BRADY RD, THERIOT, LA, 70397",639886040,"R"
368688,"2257 BUENA VISTA AVENUE","ALAMEDA","CA",94501,37.769414399,-122.242425079,188,"2257 BUENA VISTA AVENUE, ALAMEDA, CA, 94501","Match","Exact","2257 BUENA VISTA AVE, ALAMEDA, CA, 94501",618773522,"L"
368689,"2257 BYRON CT","MARIETTA","GA",30064,33.908041,-84.620829063,189,"2257 BYRON CT, MARIETTA, GA, 30064","Match","Exact","2257 BYRON CT, MARIETTA, GA, 30064",17196302,"L"
368690,"2257 CEDAR LANE RD","VIENNA","VA",22182,38.8991565170001,-77.227737738,190,"2257 CEDAR LANE RD, VIENNA, VA, 22182","Match","Exact","2257 CEDAR LN, VIENNA, VA, 22182",619931918,"L"
368691,"2257 COUNTY ROAD 68","TORONTO","OH",43964,40.541709638,-80.6624463159999,191,"2257 COUNTY ROAD 68, TORONTO, OH, 43964","Match","Exact","2257 CO RD 68, TORONTO, OH, 43964",648862857,"L"
368692,"2257 CRAVEN RD","GREEN COVE SPRINS","FL",32043,29.920788997,-81.7696346399999,192,"2257 CRAVEN RD, GREEN COVE SPRINS, FL, 32043","Match","Non_Exact","2257 CRAVEN RD, GREEN COVE SPRINGS, FL, 32043",627290434,"L"
368693,"2257 DILLONS FURROW RD","SOLON","IA",52333,41.768175311,-91.4778262409999,193,"2257 DILLONS FURROW RD, SOLON, IA, 52333","Match","Exact","2257 DILLONS FURROW RD, SOLON, IA, 52333",84519726,"L"
368694,"2257 DILLONS FURROW","SOLON","IA",52333,41.768175311,-91.4778262409999,194,"2257 DILLONS FURROW, SOLON, IA, 52333","Match","Non_Exact","2257 DILLONS FURROW RD, SOLON, IA, 52333",84519726,"L"
368695,"2257 DONNINGTON LANE NW","CONCORD","NC",28027,35.3824036190001,-80.732639281,195,"2257 DONNINGTON LANE NW, CONCORD, NC, 28027","Match","Exact","2257 DONNINGTON LN NW, CONCORD, NC, 28027",619512128,"L"
368696,"2257 EWELL PARK DRIVE","LAWRENCEVILLE","GA",30043,33.9669381050001,-84.0796481369999,196,"2257 EWELL PARK DRIVE, LAWRENCEVILLE, GA, 30043","Match","Exact","2257 EWELL PARK DR, LAWRENCEVILLE, GA, 30043",624024016,"R"
368697,"2257 FERNBERG ROAD","ELY","MN",55731,47.9620152410001,-91.5610560659999,197,"2257 FERNBERG ROAD, ELY, MN, 55731","Match","Exact","2257 FERNBERG RD, ELY, MN, 55731",608798655,"R"
368698,"2257 GUYAN RIVER ROAD","RANGER","WV",25557,38.1209407870001,-82.179238781,198,"2257 GUYAN RIVER ROAD, RANGER, WV, 25557","Match","Exact","2257 GUYAN RIVER RD, RANGER, WV, 25557",78726478,"L"
368699,"2257 HALLER ST","SAN DIEGO","CA",92104,32.7305508200001,-117.112632333,199,"2257 HALLER ST, SAN DIEGO, CA, 92104","Match","Exact","2257 HALLER ST, SAN DIEGO, CA, 92104",649832058,"L"
368700,"2257 HILLSIDE DRIVE","CHENEY","WA",99004,47.50092105,-117.585654131,200,"2257 HILLSIDE DRIVE, CHENEY, WA, 99004","Match","Exact","2257 HILLSIDE DR, CHENEY, WA, 99004",623831954,"R"
368701,"2257 KESWICK LN","ROCK HILL","SC",29732,34.9701156450001,-81.057087229,201,"2257 KESWICK LN, ROCK HILL, SC, 29732","Match","Exact","2257 KESWICK LN, ROCK HILL, SC, 29732",637567516,"L"
368702,"2257 KLONDIKE","COYERS","GA",30094,NA,NA,202,"2257 KLONDIKE, COYERS, GA, 30094","No_Match",NA,NA,NA,NA
368703,"2257 LESLIE BROOK DRIVE","DECATUR","GA",30035,33.726055709,-84.2199301429999,203,"2257 LESLIE BROOK DRIVE, DECATUR, GA, 30035","Match","Exact","2257 LESLIE BROOK DR, DECATUR, GA, 30035",23404091,"R"
368704,"2257 LORING PLACE NORTH NO 2","BRONX","NY",10468,40.8611231190001,-73.908861631,204,"2257 LORING PLACE NORTH NO 2, BRONX, NY, 10468","Match","Exact","2257 LORING PL N, BRONX, NY, 10468",80298516,"L"
368705,"2257 MEAD LN","MONTROSE","CO",81401,38.4646598350001,-107.828076812,205,"2257 MEAD LN, MONTROSE, CO, 81401","Match","Exact","2257 MEAD LN, MONTROSE, CO, 81401",635742629,"L"
368706,"2257 MENALTO AVE","E PALO ALTO","CA",94303,37.469340613,-122.150236507,206,"2257 MENALTO AVE, E PALO ALTO, CA, 94303","Match","Exact","2257 MENALTO AVE, E PALO ALTO, CA, 94303",192366352,"L"
368707,"2257 N LOOP 336 W STE 140326","CONROE","TX",77304,30.3274475650001,-95.495674574,207,"2257 N LOOP 336 W STE 140326, CONROE, TX, 77304","Match","Non_Exact","2257 N LOOP 336 W, CONROE, TX, 77304",648307499,"R"
368708,"2257 NAMEOKE AVENUE","FAR ROCKAWAY","NY",11691,NA,NA,208,"2257 NAMEOKE AVENUE, FAR ROCKAWAY, NY, 11691","No_Match",NA,NA,NA,NA
368709,"2257 NORTH POINT DRIVE","YORK","PA",17406,39.990209529,-76.7308659559999,209,"2257 NORTH POINT DRIVE, YORK, PA, 17406","Match","Exact","2257 N POINT DR, YORK, PA, 17406",88755262,"L"
368710,"2257 NW IRVING ST","PORTLAND","OR",97210,45.5276699390001,-122.69763446,210,"2257 NW IRVING ST, PORTLAND, OR, 97210","Match","Exact","2257 NW IRVING ST, PORTLAND, OR, 97210",157498309,"R"
368711,"2257 OLD BEAVER RD","KAWKAWLIN","MI",48631,43.6675128210001,-83.95842506,211,"2257 OLD BEAVER RD, KAWKAWLIN, MI, 48631","Match","Non_Exact","2257 E BEAVER RD, KAWKAWLIN, MI, 48631",81150942,"L"
368712,"2257 OLD PHILADELPHIA PIKE ROAD","LANCASTER","PA",17602,40.0398341590001,-76.220769113,212,"2257 OLD PHILADELPHIA PIKE ROAD, LANCASTER, PA, 17602","Match","Non_Exact","2257 OLD PHILADELPHIA PIKE, LANCASTER, PA, 17602",179695799,"L"
368713,"2257 PINE LANE","BUSHKILL","PA",18324,41.0964068980001,-75.030162245,213,"2257 PINE LANE, BUSHKILL, PA, 18324","Match","Exact","2257 PINE LN, BUSHKILL, PA, 18324",191420041,"R"
368714,"2257 RIVERSIDE DRIVE","VASSALBORO","ME",4989,44.4568893050001,-69.6785790989999,214,"2257 RIVERSIDE DRIVE, VASSALBORO, ME, 4989","Match","Exact","2257 RIVERSIDE DR, VASSALBORO, ME, 04989",75453148,"R"
368715,"2257 ROAD 99","SIDNEY","NE",69162,41.155886025,-103.105707507,215,"2257 ROAD 99, SIDNEY, NE, 69162","Match","Exact","2257 RD 99, SIDNEY, NE, 69162",135925136,"R"
368716,"2257 ROCKSRAM  CT","BUFORD","GA",30519,34.045628015,-83.961291978,216,"2257 ROCKSRAM  CT, BUFORD, GA, 30519","Match","Exact","2257 ROCKSRAM CT, BUFORD, GA, 30519",88953846,"R"
368717,"2257 ROCKSRAM CT","BUFORD","GA",30519,34.045628015,-83.961291978,217,"2257 ROCKSRAM CT, BUFORD, GA, 30519","Match","Exact","2257 ROCKSRAM CT, BUFORD, GA, 30519",88953846,"R"
368718,"2257 ROYAL HAVEN CREST","VIRGINIA BEACH","VA",23454,36.831328387,-76.051052145,218,"2257 ROYAL HAVEN CREST, VIRGINIA BEACH, VA, 23454","Match","Exact","2257 ROYAL HAVEN CRST, VIRGINIA BCH, VA, 23454",122276669,"R"
368719,"2257 SAM HOUSTON AVENUE","HUNTSVILLE","TX",77340,30.7140076480001,-95.551071652,219,"2257 SAM HOUSTON AVENUE, HUNTSVILLE, TX, 77340","Match","Exact","2257 SAM HOUSTON AVE, HUNTSVILLE, TX, 77340",22196745,"R"
368720,"2257 SCOTTWOOD AVE APT 2","TOLEDO","OH",43620,41.665198993,-83.559148497,220,"2257 SCOTTWOOD AVE APT 2, TOLEDO, OH, 43620","Match","Exact","2257 SCOTTWOOD AVE, TOLEDO, OH, 43620",33938494,"L"
368721,"2257 SEVEN MILE POINT RD","ALLOUEZ","MI",49805,47.3703372300001,-88.415295951,221,"2257 SEVEN MILE POINT RD, ALLOUEZ, MI, 49805","Match","Exact","2257 7 MILE POINT RD, ALLOUEZ, MI, 49805",651211756,"R"
368722,"2257 SNOQUALMIE DR","LAYTON","UT",84040,41.092544468,-111.903637185,222,"2257 SNOQUALMIE DR, LAYTON, UT, 84040","Match","Exact","2257 SNOQUALMIE DR, LAYTON, UT, 84040",625698866,"L"
368723,"2257 STEINER STREET","MOBILE","AL",36605,30.6418423040001,-88.092902034,223,"2257 STEINER STREET, MOBILE, AL, 36605","Match","Exact","2257 STEINER ST, MOBILE, AL, 36605",61862463,"L"
368724,"2257 STONE GARDEN LANE","LEXINGTON","KY",40513,38.0055959810001,-84.57626837,224,"2257 STONE GARDEN LANE, LEXINGTON, KY, 40513","Match","Exact","2257 STONE GARDEN LN, LEXINGTON, KY, 40513",31939037,"L"
368725,"2257 SW NEWPORT ISLES BLVD","PORT ST LUCIE","FL",34953,27.2551979840001,-80.403633419,225,"2257 SW NEWPORT ISLES BLVD, PORT ST LUCIE, FL, 34953","Match","Exact","2257 SW NEWPORT ISLES BLVD, PORT ST LUCIE, FL, 34953",610711460,"R"
368726,"2257 VISTA PARKWAY N","WEST PALM BEACH","FL",33411,26.720309021,-80.150071457,226,"2257 VISTA PARKWAY N, WEST PALM BEACH, FL, 33411","Match","Exact","2257 VISTA PKWY N, WEST PALM BEACH, FL, 33411",625221085,"L"
368727,"2257 WALL ST","BERLIN","WI",54923,43.974395234,-88.8760967169999,227,"2257 WALL ST, BERLIN, WI, 54923","Match","Exact","2257 WALL ST, BERLIN, WI, 54923",647227602,"L"
368728,"2257 WALSH AVE","PETERSBURG","VA",23803,37.218000837,-77.3497509869999,228,"2257 WALSH AVE, PETERSBURG, VA, 23803","Match","Exact","2257 WALSH AVE, PETERSBURG, VA, 23803",54153478,"L"
368729,"2257 WATER GARDEN D","HANOVER","PA",17331,39.751923715,-76.954029539,229,"2257 WATER GARDEN D, HANOVER, PA, 17331","Match","Non_Exact","2257 WATER GARDEN DR, HANOVER, PA, 17331",613641105,"L"
368730,"2257 WEST ROAD","CHESAPEAKE","VA",23323,36.6418118240001,-76.337671775,230,"2257 WEST ROAD, CHESAPEAKE, VA, 23323","Match","Exact","2257 WEST RD, CHESAPEAKE, VA, 23323",121794003,"L"
368731,"2257 WHITESIDE AVE SE","PALM BAY","FL",32909,27.940045152,-80.632248003,231,"2257 WHITESIDE AVE SE, PALM BAY, FL, 32909","Match","Exact","2257 WHITESIDE AVE SE, PALM BAY, FL, 32909",93911369,"L"
368732,"2257 WHITNEY AVE","TOLEDO","OH",43606,41.6648707900001,-83.568310988,232,"2257 WHITNEY AVE, TOLEDO, OH, 43606","Match","Exact","2257 WHITNEY AVE, TOLEDO, OH, 43606",33952695,"L"
368733,"22570 BELTON DR","DETROIT","MI",48239,42.3522549140001,-83.2616874839999,233,"22570 BELTON DR, DETROIT, MI, 48239","Match","Non_Exact","22570 BELTON AVE, DETROIT, MI, 48239",95431812,"R"
368734,"22571 ARMSTRONG TERRACE APT404","ASHBURN","VA",20148,38.9918846310001,-77.483801821,234,"22571 ARMSTRONG TERRACE APT404, ASHBURN, VA, 20148","Match","Exact","22571 ARMSTRONG TER, ASHBURN, VA, 20148",62353336,"L"
368735,"22571 SE 313TH PL","BLACK DIAMOND","WA",98010,47.320278783,-122.040509363,235,"22571 SE 313TH PL, BLACK DIAMOND, WA, 98010","Match","Exact","22571 SE 313TH PL, BLACK DIAMOND, WA, 98010",636810621,"R"
368736,"22571 WHIPPOORWILL LANE","SPRINGDALE","AR",72762,36.213507513,-94.279797639,236,"22571 WHIPPOORWILL LANE, SPRINGDALE, AR, 72762","Match","Non_Exact","22571 WHIPPORWILL LN, SPRINGDALE, AR, 72762",651725275,"L"
368737,"22572 DUNCAN STREET","QUEEN CREEK","AZ",85142,33.2469470500001,-111.59651899,237,"22572 DUNCAN STREET, QUEEN CREEK, AZ, 85142","Match","Non_Exact","22572 E DUNCAN ST, QUEEN CREEK, AZ, 85142",641875503,"L"
368738,"22573 CORINTH ROAD","THOMPONSONVILLE","IL",62890,37.8264287870001,-88.748060045,238,"22573 CORINTH ROAD, THOMPONSONVILLE, IL, 62890","Match","Non_Exact","22573 CORINTH RD, THOMPSONVILLE, IL, 62890",6038839,"R"
368739,"22574 CO RD 3","MERRIFIELD","MN",56425,46.4817720280001,-94.1729417349999,239,"22574 CO RD 3, MERRIFIELD, MN, 56425","Match","Non_Exact","22574 CO RD 3, MERRIFIELD, MN, 56465",611809506,"R"
368740,"22574 FOXCROFT","WOODHAVEN","MI",48183,42.140735082,-83.2554388459999,240,"22574 FOXCROFT, WOODHAVEN, MI, 48183","Match","Non_Exact","22574 FOXCROFT ST, WOODHAVEN, MI, 48183",95505358,"R"
368741,"22574 HWY P","CRAIG","MO",64437,NA,NA,241,"22574 HWY P, CRAIG, MO, 64437","No_Match",NA,NA,NA,NA
368742,"22574 SECRET WAY","CORONA","CA",92883,33.7921069000001,-117.504329197,242,"22574 SECRET WAY, CORONA, CA, 92883","Match","Exact","22574 SECRET WAY, CORONA, CA, 92883",618480194,"L"
368743,"22575 KRAUSE STREET","DEERWOOD","MN",56444,46.516086268,-93.9252754239999,243,"22575 KRAUSE STREET, DEERWOOD, MN, 56444","Match","Non_Exact","22575 KRUSE ST, DEERWOOD, MN, 56444",162822728,"L"
368744,"22575 LEANNE TERRACE","ASHBURN","VA",20148,38.9938203180001,-77.5045288489999,244,"22575 LEANNE TERRACE, ASHBURN, VA, 20148","Match","Exact","22575 LEANNE TER, ASHBURN, VA, 20148",641112321,"L"
368745,"22575 NANA LOOP","ROBERTSDALE","AL",36567,NA,NA,245,"22575 NANA LOOP, ROBERTSDALE, AL, 36567","No_Match",NA,NA,NA,NA
368746,"22575 SW 102 COURT","CUTLER BAY","FL",33190,25.5576981630001,-80.3564029949999,246,"22575 SW 102 COURT, CUTLER BAY, FL, 33190","Match","Exact","22575 SW 102ND CT, CUTLER BAY, FL, 33190",624582660,"R"
368747,"22576 AMY LANE","ROGERS","MN",55374,45.182159047,-93.5653149459999,247,"22576 AMY LANE, ROGERS, MN, 55374","Match","Exact","22576 AMY LN, ROGERS, MN, 55374",43853556,"R"
368748,"22577 432ND STREET","ZUMBROTA","MN",55992,NA,NA,248,"22577 432ND STREET, ZUMBROTA, MN, 55992","No_Match",NA,NA,NA,NA
368749,"22577 COLLEGE AVE","ROBERTSDALE","AL",36567,30.556420029,-87.699857208,249,"22577 COLLEGE AVE, ROBERTSDALE, AL, 36567","Match","Exact","22577 COLLEGE AVE, ROBERTSDALE, AL, 36567",131633523,"L"
368750,"22578 ALA HIGHWAY 79","SCOTTSBORO","AL",35768,NA,NA,250,"22578 ALA HIGHWAY 79, SCOTTSBORO, AL, 35768","No_Match",NA,NA,NA,NA
368751,"22578 FM 365","BEAUMONT","TX",77705,29.9276704910001,-94.295783624,251,"22578 FM 365, BEAUMONT, TX, 77705","Match","Exact","22578 FM 365, BEAUMONT, TX, 77705",647791081,"L"
368752,"22578 FOREST VIEW COURT","ASHBURN","VA",20148,38.9919982430001,-77.524334956,252,"22578 FOREST VIEW COURT, ASHBURN, VA, 20148","Match","Exact","22578 FOREST VIEW CT, ASHBURN, VA, 20148",635117562,"L"
368753,"22579 CHICKADEE CIRCLE","LEXINGTON PARK","MD",20653,38.285311904,-76.482390986,253,"22579 CHICKADEE CIRCLE, LEXINGTON PARK, MD, 20653","Match","Exact","22579 CHICKADEE CIR, LEXINGTON PARK, MD, 20653",623999165,"R"
368754,"2258 130TH STREET","TINGLEY","IA",50863,40.854731314,-94.2321477099999,254,"2258 130TH STREET, TINGLEY, IA, 50863","Match","Exact","2258 130TH ST, TINGLEY, IA, 50863",81412628,"L"
368755,"2258 20TH AVENUE","SAN FRANCISCO","CA",94116,37.745658281,-122.476940714,255,"2258 20TH AVENUE, SAN FRANCISCO, CA, 94116","Match","Exact","2258 20TH AVE, SAN FRANCISCO, CA, 94116",192278316,"L"
368756,"2258 24TH STREET SECOND FLOOR","ASTORIA","NY",11105,NA,NA,256,"2258 24TH STREET SECOND FLOOR, ASTORIA, NY, 11105","No_Match",NA,NA,NA,NA
368757,"2258 ALAZAN DR","CORPUS CHRISTI","TX",78418,27.647963857,-97.290690078,257,"2258 ALAZAN DR, CORPUS CHRISTI, TX, 78418","Match","Exact","2258 ALAZAN DR, CORPUS CHRISTI, TX, 78418",178532220,"R"
368758,"2258 ARLINGTON STREET","SARASOTA","FL",34239,27.317344948,-82.5246591659999,258,"2258 ARLINGTON STREET, SARASOTA, FL, 34239","Match","Exact","2258 ARLINGTON ST, SARASOTA, FL, 34239",16351418,"R"
368759,"2258 AVENTURINE PLACE","CARLSBAD","CA",92009,33.1050678600001,-117.257065086,259,"2258 AVENTURINE PLACE, CARLSBAD, CA, 92009","Match","Exact","2258 AVENTURINE PL, CARLSBAD, CA, 92009",195767527,"R"
368760,"2258 CARTER HILL RD","MONTGOMERY","AL",36110,32.3566496710001,-86.278569865,260,"2258 CARTER HILL RD, MONTGOMERY, AL, 36110","Match","Non_Exact","2258 CARTER HILL RD, MONTGOMERY, AL, 36106",1475676,"R"
368761,"2258 CROWLEY ST","MUSKEGON","MI",49441,43.2118128880001,-86.264108173,261,"2258 CROWLEY ST, MUSKEGON, MI, 49441","Match","Exact","2258 CROWLEY ST, MUSKEGON, MI, 49441",77652974,"L"
368762,"2258 DARTT HILL RD","BETHEL","VT",5032,43.828320655,-72.7145027139999,262,"2258 DARTT HILL RD, BETHEL, VT, 5032","Match","Exact","2258 DARTT HILL RD, BETHEL, VT, 05032",139296994,"L"
368763,"2258 DAYBREAK DR","AURORA","IL",60503,41.7141638000001,-88.256504186,263,"2258 DAYBREAK DR, AURORA, IL, 60503","Match","Exact","2258 DAYBREAK DR, AURORA, IL, 60503",111635826,"L"
368764,"2258 E SANTA CRUZ DR","GILBERT","AZ",85234,33.377110359,-111.741679234,264,"2258 E SANTA CRUZ DR, GILBERT, AZ, 85234","Match","Exact","2258 E SANTA CRUZ DR, GILBERT, AZ, 85234",128330156,"L"
368765,"2258 E SANTA CRUZ DRIVE","GILBERT","AZ",85234,33.377110359,-111.741679234,265,"2258 E SANTA CRUZ DRIVE, GILBERT, AZ, 85234","Match","Exact","2258 E SANTA CRUZ DR, GILBERT, AZ, 85234",128330156,"L"
368766,"2258 EAST BEARFIELD SUBDIVISION","GLADSTONE","MO",64119,NA,NA,266,"2258 EAST BEARFIELD SUBDIVISION, GLADSTONE, MO, 64119","No_Match",NA,NA,NA,NA
368767,"2258 EAST FT UNION BLVD B7/8","COTTONWOOD HEIGHTS","UT",84121,40.623975434,-111.826105353,267,"2258 EAST FT UNION BLVD B7/8, COTTONWOOD HEIGHTS, UT, 84121","Match","Non_Exact","2258 FORT UNION BLVD, COTTONWOOD HEIGHTS, UT, 84121",176116180,"R"
368768,"2258 EUCLID AVENUE","CLEVELAND","OH",44115,41.501590202,-81.6750963059999,268,"2258 EUCLID AVENUE, CLEVELAND, OH, 44115","Match","Exact","2258 EUCLID AVE, CLEVELAND, OH, 44115",638281096,"L"
368769,"2258 GOLDEN FALCON DR","RUSKIN","FL",33570,27.7343341870001,-82.404761645,269,"2258 GOLDEN FALCON DR, RUSKIN, FL, 33570","Match","Exact","2258 GOLDEN FALCON DR, RUSKIN, FL, 33570",646593488,"R"
368770,"2258 GOLDEN FALCON DRIVE","RUSKIN","FL",33570,27.7343341870001,-82.404761645,270,"2258 GOLDEN FALCON DRIVE, RUSKIN, FL, 33570","Match","Exact","2258 GOLDEN FALCON DR, RUSKIN, FL, 33570",646593488,"R"
368771,"2258 GOLDEN FALCON DRIVE","RUSKING","FL",33570,27.7343341870001,-82.404761645,271,"2258 GOLDEN FALCON DRIVE, RUSKING, FL, 33570","Match","Non_Exact","2258 GOLDEN FALCON DR, RUSKIN, FL, 33570",646593488,"R"
368772,"2258 GREORY LAKE ROAD","NORTH AUGUSTA","SC",29860,33.553536195,-81.9970556769999,272,"2258 GREORY LAKE ROAD, NORTH AUGUSTA, SC, 29860","Match","Non_Exact","2258 GREGORY LAKE RD, NORTH AUGUSTA, SC, 29860",652106012,"R"
368773,"2258 HAFER ROAD","FAYETTEVILLE","PA",17222,39.9453126510001,-77.5739001009999,273,"2258 HAFER ROAD, FAYETTEVILLE, PA, 17222","Match","Exact","2258 HAFER RD, FAYETTEVILLE, PA, 17222",633801447,"R"
368774,"2258 HALSTED LN","AURORA","IL",60503,41.7215567980001,-88.260344692,274,"2258 HALSTED LN, AURORA, IL, 60503","Match","Exact","2258 HALSTED LN, AURORA, IL, 60503",645783884,"R"
368775,"2258 HIGHWAY 434","WOLF CREEK","MT",59648,47.050291106,-112.126371904,275,"2258 HIGHWAY 434, WOLF CREEK, MT, 59648","Match","Non_Exact","2258 STATE HWY 434, WOLF CREEK, MT, 59648",202367482,"L"
368776,"2258 HYLAND RIDGE DRIVE","CHARLOTTESVILLE","VA",22911,38.041181184,-78.43246442,276,"2258 HYLAND RIDGE DRIVE, CHARLOTTESVILLE, VA, 22911","Match","Exact","2258 HYLAND RIDGE DR, CHARLOTTESVILLE, VA, 22911",651264735,"R"
368777,"2258 JUNIPER DRIVE","COPLAY","PA",18037,40.6756991890001,-75.545445676,277,"2258 JUNIPER DRIVE, COPLAY, PA, 18037","Match","Exact","2258 JUNIPER DR, COPLAY, PA, 18037",80793989,"L"
368778,"2258 KNIGHTSBRIDGE CT","GRAND FORKS","ND",58201,47.8938315070001,-97.059876511,278,"2258 KNIGHTSBRIDGE CT, GRAND FORKS, ND, 58201","Match","Exact","2258 KNIGHTSBRIDGE CT, GRAND FORKS, ND, 58201",171291965,"R"
368779,"2258 LILIEDAHL ROAD","LEESVILLE","LA",71446,30.930649961,-93.319120979,279,"2258 LILIEDAHL ROAD, LEESVILLE, LA, 71446","Match","Exact","2258 LILIEDAHL RD, LEESVILLE, LA, 71446",13566141,"L"
368780,"2258 N ALABAMA ST","INDIANAPOLIS","IN",46205,39.7985080600001,-86.152012462,280,"2258 N ALABAMA ST, INDIANAPOLIS, IN, 46205","Match","Exact","2258 N ALABAMA ST, INDIANAPOLIS, IN, 46205",107989716,"L"
368781,"2258 N IRVINE ST","CORNELIUS","OR",97113,45.5264147410001,-123.043371452,281,"2258 N IRVINE ST, CORNELIUS, OR, 97113","Match","Exact","2258 N IRVINE ST, CORNELIUS, OR, 97113",158218135,"L"
368782,"2258 N KEYSTONE AVE APT 3","CHICAGO","IL",60639,41.9218870870001,-87.727918867,282,"2258 N KEYSTONE AVE APT 3, CHICAGO, IL, 60639","Match","Non_Exact","2258 N KEYSTONE AVE, CHICAGO, IL, 60639",111758614,"L"
368783,"2258 N1730 NORTH ROAD","WATSEKA","IL",60970,NA,NA,283,"2258 N1730 NORTH ROAD, WATSEKA, IL, 60970","No_Match",NA,NA,NA,NA
368784,"2258 NEW KENT CT","NEWPORT NEWS","VA",23602,37.117534494,-76.4889347829999,284,"2258 NEW KENT CT, NEWPORT NEWS, VA, 23602","Match","Exact","2258 NEW KENT CT, NEWPORT NEWS, VA, 23602",103822831,"R"
368785,"2258 NOELLE PLACE","POWDER SPRINGS","GA",30127,33.8969815470001,-84.696988961,285,"2258 NOELLE PLACE, POWDER SPRINGS, GA, 30127","Match","Exact","2258 NOELLE PL, POWDER SPGS, GA, 30127",634051265,"L"
368786,"2258 PIEPER LN","TUSTIN","CA",92782,33.7463068120001,-117.785501881,286,"2258 PIEPER LN, TUSTIN, CA, 92782","Match","Exact","2258 PIEPER LN, TUSTIN, CA, 92782",144138670,"R"
368787,"2258 REMICK DR","CLINTON TOWNSHIP","MI",48036,NA,NA,287,"2258 REMICK DR, CLINTON TOWNSHIP, MI, 48036","No_Match",NA,NA,NA,NA
368788,"2258 S MOSELY","WICHITA","KS",67211,NA,NA,288,"2258 S MOSELY, WICHITA, KS, 67211","No_Match",NA,NA,NA,NA
368789,"2258 S OTSEGO AVE APT C","GAYLORD","MI",49735,NA,NA,289,"2258 S OTSEGO AVE APT C, GAYLORD, MI, 49735","No_Match",NA,NA,NA,NA
368790,"2258 SANDY SHORE 202","KENTWOOD","MI",49508,NA,NA,290,"2258 SANDY SHORE 202, KENTWOOD, MI, 49508","No_Match",NA,NA,NA,NA
368791,"2258 SOAR DRIVE","SPARKS","NV",89441,39.666846562,-119.72007972,291,"2258 SOAR DRIVE, SPARKS, NV, 89441","Match","Exact","2258 SOAR DR, SPARKS, NV, 89441",107119861,"L"
368792,"2258 STATE HIGHWAY 162","ESPERANCE","NY",12066,NA,NA,292,"2258 STATE HIGHWAY 162, ESPERANCE, NY, 12066","No_Match",NA,NA,NA,NA
368793,"2258 TOPISAW DR SE","BOGUE CHITTO","MS",39629,31.443608446,-90.3378067529999,293,"2258 TOPISAW DR SE, BOGUE CHITTO, MS, 39629","Match","Exact","2258 TOPISAW DR SE, BOGUE CHITTO, MS, 39629",612488776,"L"
368794,"2258 W 24TH STREET","LOS ANGELES","CA",90018,34.0348836110001,-118.316589173,294,"2258 W 24TH STREET, LOS ANGELES, CA, 90018","Match","Exact","2258 W 24TH ST, LOS ANGELES, CA, 90018",141605711,"L"
368795,"2258 WASHINGTON RD","MARION CENTER","PA",15759,40.727208074,-79.0636888069999,295,"2258 WASHINGTON RD, MARION CENTER, PA, 15759","Match","Exact","2258 WASHINGTON RD, MARION CENTER, PA, 15759",636375270,"L"
368796,"22581 OAKHURST FOREST DR","PORTER","TX",77365,NA,NA,296,"22581 OAKHURST FOREST DR, PORTER, TX, 77365","No_Match",NA,NA,NA,NA
368797,"22581 WHISPERING BIRCH DR","CHUGIAK","AK",99567,61.4241840460001,-149.447687468,297,"22581 WHISPERING BIRCH DR, CHUGIAK, AK, 99567","Match","Exact","22581 WHISPERING BIRCH DR, CHUGIAK, AK, 99567",605335860,"R"
368798,"22583 N TUOLUMNE ROAD","TWAIN HARTE","CA",95383,38.0319810830001,-120.223602203,298,"22583 N TUOLUMNE ROAD, TWAIN HARTE, CA, 95383","Match","Exact","22583 N TUOLUMNE RD, TWAIN HARTE, CA, 95383",101387108,"R"
368799,"22583 NORWALK SQUARE","ASHBURN","VA",20148,38.9918666230001,-77.5060342099999,299,"22583 NORWALK SQUARE, ASHBURN, VA, 20148","Match","Exact","22583 NORWALK SQ, ASHBURN, VA, 20148",641112457,"R"
368800,"22584 CASTLE OAK ROAD","CLARKSBURG","MD",20871,39.2242039450001,-77.2379669759999,300,"22584 CASTLE OAK ROAD, CLARKSBURG, MD, 20871","Match","Exact","22584 CASTLE OAK RD, CLARKSBURG, MD, 20871",648058908,"R"
368801,"22584 HIGHWAY 30","KIMBERLY","ID",83341,42.533494445,-114.335520954,301,"22584 HIGHWAY 30, KIMBERLY, ID, 83341","Match","Non_Exact","22584 US HWY 30, KIMBERLY, ID, 83341",118792267,"R"
368802,"22585 W PINE ST","SELIGMAN","AZ",86337,NA,NA,302,"22585 W PINE ST, SELIGMAN, AZ, 86337","No_Match",NA,NA,NA,NA
368803,"225855 SITTING BULL","APPLE VALLEY","CA",92308,NA,NA,303,"225855 SITTING BULL, APPLE VALLEY, CA, 92308","No_Match",NA,NA,NA,NA
368804,"22587 FOREST RUN DR","ASHBURN","VA",20148,38.9897868410001,-77.521217592,304,"22587 FOREST RUN DR, ASHBURN, VA, 20148","Match","Exact","22587 FOREST RUN DR, ASHBURN, VA, 20148",62361867,"L"
368805,"22587 STATE ROUTE 163","GENOA","OH",43430,41.515302352,-83.371776869,305,"22587 STATE ROUTE 163, GENOA, OH, 43430","Match","Exact","22587 STATE RTE 163, GENOA, OH, 43430",44075996,"L"
368806,"22587 WATERBURY STREET","WOODLAND HILLS","CA",91364,34.1489476570001,-118.617837061,306,"22587 WATERBURY STREET, WOODLAND HILLS, CA, 91364","Match","Exact","22587 WATERBURY ST, WOODLAND HILLS, CA, 91364",141535893,"R"
368807,"22588 STEPHANIE","FLAT ROCK","MI",48134,42.1407538350001,-83.2799500689999,307,"22588 STEPHANIE, FLAT ROCK, MI, 48134","Match","Non_Exact","22588 STEPHANIE CT, FLAT ROCK, MI, 48134",95686690,"R"
368808,"22588 WILLETS AVE","CONFER","CO",80433,39.515581577,-105.256995486,308,"22588 WILLETS AVE, CONFER, CO, 80433","Match","Non_Exact","22588 WILLETS AVE, CONIFER, CO, 80433",177747920,"R"
368809,"22589 WINDING WOODS WAY","CLARKSBURG","MD",20871,39.2295405470001,-77.244976841,309,"22589 WINDING WOODS WAY, CLARKSBURG, MD, 20871","Match","Exact","22589 WINDING WOODS WAY, CLARKSBURG, MD, 20871",651076656,"R"
368810,"2259 140TH ST","TRIPOLI","IA",50676,42.847519741,-92.3061833209999,310,"2259 140TH ST, TRIPOLI, IA, 50676","Match","Exact","2259 140TH ST, TRIPOLI, IA, 50676",77343785,"R"
368811,"2259 39TH STREET","WASHOUGAL","WA",98671,45.592339005,-122.326932163,311,"2259 39TH STREET, WASHOUGAL, WA, 98671","Match","Exact","2259 39TH ST, WASHOUGAL, WA, 98671",158332698,"L"
368812,"2259 ALSTON AVE","FORT WORTH","TX",76110,32.719202852,-97.3341914659999,312,"2259 ALSTON AVE, FORT WORTH, TX, 76110","Match","Exact","2259 ALSTON AVE, FORT WORTH, TX, 76110",101886020,"L"
368813,"2259 ANNA DR","SANTA CLARA","CA",95050,37.3511267740001,-121.963886474,313,"2259 ANNA DR, SANTA CLARA, CA, 95050","Match","Exact","2259 ANNA DR, SANTA CLARA, CA, 95050",614038971,"R"
368814,"2259 ANTLER LAKE LANE","MILLTOWN","WI",54858,45.5351821570001,-92.421770658,314,"2259 ANTLER LAKE LANE, MILLTOWN, WI, 54858","Match","Exact","2259 ANTLER LAKE LN, MILLTOWN, WI, 54858",110835990,"L"
368815,"2259 AURIE DRIVE","DECATUR","GA",30034,33.7006595840001,-84.297281095,315,"2259 AURIE DRIVE, DECATUR, GA, 30034","Match","Exact","2259 AURIE DR, DECATUR, GA, 30034",23368698,"R"
368816,"2259 BAHIA DRIVE","LA JOLLA","CA",92037,32.820210725,-117.241703517,316,"2259 BAHIA DRIVE, LA JOLLA, CA, 92037","Match","Exact","2259 BAHIA DR, LA JOLLA, CA, 92037",195301680,"R"
368817,"2259 BROOKSIDE ROAD","MOUNT OLIVE","AL",35117,33.66931836,-86.9073365679999,317,"2259 BROOKSIDE ROAD, MOUNT OLIVE, AL, 35117","Match","Exact","2259 BROOKSIDE RD, MOUNT OLIVE, AL, 35117",81542243,"L"
368818,"2259 BUTLERS CHAPEL RD","MARTINSBURG","WV",25403,39.5321715790001,-78.0002960039999,318,"2259 BUTLERS CHAPEL RD, MARTINSBURG, WV, 25403","Match","Exact","2259 BUTLERS CHAPEL RD, MARTINSBURG, WV, 25403",607662978,"L"
368819,"2259 COSTARICAN  61","CLEARWATER","FL",33763,28.001095789,-82.7434935159999,319,"2259 COSTARICAN  61, CLEARWATER, FL, 33763","Match","Non_Exact","2259 COSTA RICAN DR, CLEARWATER, FL, 33763",124669107,"R"
368820,"2259 DEAN RD","BETHEL","OH",45106,38.9338152720001,-84.120258314,320,"2259 DEAN RD, BETHEL, OH, 45106","Match","Exact","2259 DEAN RD, BETHEL, OH, 45106",118462776,"L"
368821,"2259 EAST 1975 NORTH","LAYTON","UT",84040,NA,NA,321,"2259 EAST 1975 NORTH, LAYTON, UT, 84040","No_Match",NA,NA,NA,NA
368822,"2259 EDSALL AVENUE","BRONX","NY",10463,40.8780630090001,-73.919902344,322,"2259 EDSALL AVENUE, BRONX, NY, 10463","Match","Exact","2259 EDSALL AVE, BRONX, NY, 10463",80296060,"L"
368823,"2259 EVANS CREEK TERRACE","RENO","NV",89509,39.464055194,-119.820733257,323,"2259 EVANS CREEK TERRACE, RENO, NV, 89509","Match","Non_Exact","2259 EVANS CREEK TER, RENO, NV, 89519",107073337,"R"
368824,"2259 EXCHANGE PLACE","CONYERS","GA",30013,33.6257444250001,-83.9874839289999,324,"2259 EXCHANGE PLACE, CONYERS, GA, 30013","Match","Non_Exact","2259 EXCHANGE PL SE, CONYERS, GA, 30013",614155033,"R"
368825,"2259 GNARLED PINE DR","DUBLIN","OH",43016,40.1308905710001,-83.076141806,325,"2259 GNARLED PINE DR, DUBLIN, OH, 43016","Match","Exact","2259 GNARLED PINE DR, DUBLIN, OH, 43016",218664528,"L"
368826,"2259 GRAND POPLAR STREET","OCOEE","FL",34761,28.6024422360001,-81.509684389,326,"2259 GRAND POPLAR STREET, OCOEE, FL, 34761","Match","Exact","2259 GRAND POPLAR ST, OCOEE, FL, 34761",94387285,"R"
368827,"2259 GRANT 56","SHERIDAN","AR",72150,34.442435119,-92.3344029259999,327,"2259 GRANT 56, SHERIDAN, AR, 72150","Match","Exact","2259 GRANT 56, SHERIDAN, AR, 72150",2483884,"L"
368828,"2259 HIGHGATE RD","WESTLAKE VILLAGE","CA",91361,34.140543547,-118.836099488,328,"2259 HIGHGATE RD, WESTLAKE VILLAGE, CA, 91361","Match","Exact","2259 HIGHGATE RD, WESTLAKE VILLAGE, CA, 91361",109977451,"R"
368829,"2259 LAUREL GROVE LANE","ORANGE PARK","FL",32073,30.1614747250001,-81.707322615,329,"2259 LAUREL GROVE LANE, ORANGE PARK, FL, 32073","Match","Exact","2259 LAUREL GROVE LN, ORANGE PARK, FL, 32073",83837828,"L"
368830,"2259 LEWIS STREET","CRESTVIEW","FL",32536,30.773079592,-86.604371358,330,"2259 LEWIS STREET, CRESTVIEW, FL, 32536","Match","Exact","2259 LEWIS ST, CRESTVIEW, FL, 32536",625203816,"R"
368831,"2259 LEXINGTON WAY","KENNESAW","GA",30144,34.0417595390001,-84.617719424,331,"2259 LEXINGTON WAY, KENNESAW, GA, 30144","Match","Exact","2259 LEXINGTON WAY, KENNESAW, GA, 30144",17186425,"R"
368832,"2259 LIV 247","CHULA","MO",64635,39.946177269,-93.5211922,332,"2259 LIV 247, CHULA, MO, 64635","Match","Exact","2259 LIV 247, CHULA, MO, 64635",18105165,"L"
368833,"2259 MILL STREET","ANDERSON","CA",96007,40.453930525,-122.298865543,333,"2259 MILL STREET, ANDERSON, CA, 96007","Match","Exact","2259 MILL ST, ANDERSON, CA, 96007",126679202,"R"
368834,"2259 MITHRA STREET","NEW ORLEANS","LA",70122,30.013687164,-90.058751376,334,"2259 MITHRA STREET, NEW ORLEANS, LA, 70122","Match","Exact","2259 MITHRA ST, NEW ORLEANS, LA, 70122",191704315,"L"
368835,"2259 N 53RD STREET","PHILADELPHIA","PA",19131,39.991576475,-75.231065644,335,"2259 N 53RD STREET, PHILADELPHIA, PA, 19131","Match","Exact","2259 N 53RD ST, PHILADELPHIA, PA, 19131",131396716,"R"
368836,"2259 NEW VILLAGE RD","COLUMBUS","OH",43232,39.925759021,-82.902755374,336,"2259 NEW VILLAGE RD, COLUMBUS, OH, 43232","Match","Exact","2259 NEW VILLAGE RD, COLUMBUS, OH, 43232",135595979,"R"
368837,"2259 OXLEY DR","WATERFORD","MI",48328,42.670180192,-83.3329091969999,337,"2259 OXLEY DR, WATERFORD, MI, 48328","Match","Exact","2259 OXLEY DR, WATERFORD, MI, 48328",69771076,"L"
368838,"2259 PINE GROVE ROAD","RINGGOLD","GA",30736,34.938904156,-85.1911381199999,338,"2259 PINE GROVE ROAD, RINGGOLD, GA, 30736","Match","Exact","2259 PINE GROVE RD, RINGGOLD, GA, 30736",66693822,"L"
368839,"2259 PORTER WAY","STOCKTON","CA",95207,38.0012414600001,-121.338569787,339,"2259 PORTER WAY, STOCKTON, CA, 95207","Match","Exact","2259 PORTER WAY, STOCKTON, CA, 95207",133930594,"R"
368840,"2259 PROPECT AVE","SCRANTON","PA",18505,NA,NA,340,"2259 PROPECT AVE, SCRANTON, PA, 18505","No_Match",NA,NA,NA,NA
368841,"2259 RED PINES LANE SW","ROCHESTER","MN",55902,NA,NA,341,"2259 RED PINES LANE SW, ROCHESTER, MN, 55902","No_Match",NA,NA,NA,NA
368842,"2259 S 11TH STREET","SPRINGFIELD","IL",62703,39.775224537,-89.64083952,342,"2259 S 11TH STREET, SPRINGFIELD, IL, 62703","Match","Exact","2259 S 11TH ST, SPRINGFIELD, IL, 62703",97326987,"R"
368843,"2259 S CANFIELD AVENUE","LOS ANGELES","CA",90034,34.04164367,-118.390733884,343,"2259 S CANFIELD AVENUE, LOS ANGELES, CA, 90034","Match","Exact","2259 S CANFIELD AVE, LOS ANGELES, CA, 90034",141574640,"R"
368844,"2259 SAN RAMON BLVD","SAN RAMON","CA",94593,NA,NA,344,"2259 SAN RAMON BLVD, SAN RAMON, CA, 94593","No_Match",NA,NA,NA,NA
368845,"2259 SCHAEFFER RD","SEBASTOPOL","CA",95472,38.3549991960001,-122.812957219,345,"2259 SCHAEFFER RD, SEBASTOPOL, CA, 95472","Match","Exact","2259 SCHAEFFER RD, SEBASTOPOL, CA, 95472",604987663,"L"
368846,"2259 SEQUOIA WAY","DAVENPORT","FL",33896,28.2258935990001,-81.542324516,346,"2259 SEQUOIA WAY, DAVENPORT, FL, 33896","Match","Exact","2259 SEQUOIA WAY, DAVENPORT, FL, 33896",648236389,"R"
368847,"2259 SNOWMASS CREEK ROAD","SNOWMASS","CO",81654,39.3046761140001,-106.973423115,347,"2259 SNOWMASS CREEK ROAD, SNOWMASS, CO, 81654","Match","Exact","2259 SNOWMASS CREEK RD, SNOWMASS, CO, 81654",640121925,"L"
368848,"2259 SOUTH TOWNSHIP ROAD 159","TIFFIN","OH",44883,NA,NA,348,"2259 SOUTH TOWNSHIP ROAD 159, TIFFIN, OH, 44883","No_Match",NA,NA,NA,NA
368849,"2259 ST CHARLES DR","CLEARWATER","FL",33764,27.950955514,-82.74340582,349,"2259 ST CHARLES DR, CLEARWATER, FL, 33764","Match","Exact","2259 SAINT CHARLES DR, CLEARWATER, FL, 33764",124676287,"R"
368850,"2259 STATE 84 SW","PINE RIVER","MN",56474,NA,NA,350,"2259 STATE 84 SW, PINE RIVER, MN, 56474","No_Match",NA,NA,NA,NA
368851,"2259 SUMMER RIDGE DR","HOOVER","AL",35226,33.4126807980001,-86.849309475,351,"2259 SUMMER RIDGE DR, HOOVER, AL, 35226","Match","Exact","2259 SUMMER RIDGE DR, HOOVER, AL, 35226",645916567,"R"
368852,"2259 TENMILE VALLEY ROAD","TENMILE","OR",NA,43.101738088,-123.561218527,352,"2259 TENMILE VALLEY ROAD, TENMILE, OR, ","Match","Exact","2259 TENMILE VALLEY RD, TENMILE, OR, 97481",613877577,"L"
368853,"2259 TOWNE PARK DRIVE","HUNTSVILLE","AL",35803,34.616787819,-86.5748530119999,353,"2259 TOWNE PARK DRIVE, HUNTSVILLE, AL, 35803","Match","Non_Exact","2259 TOWNE PARK DR SW, HUNTSVILLE, AL, 35803",648166933,"L"
368854,"2259 TREVOR CT","LINCOLN","NE",68512,40.7317278940001,-96.690952318,354,"2259 TREVOR CT, LINCOLN, NE, 68512","Match","Exact","2259 TREVOR CT, LINCOLN, NE, 68512",28299319,"R"
368855,"2259 TWP RD 159","TIFFIN","OH",44883,41.0907822120001,-83.1121415059999,355,"2259 TWP RD 159, TIFFIN, OH, 44883","Match","Non_Exact","2259 S TWP RD 159, TIFFIN, OH, 44883",12971921,"R"
368856,"2259 VALLEY BROOK WAY","BROOKHAVEN","GA",30319,33.8515810960001,-84.3420938639999,356,"2259 VALLEY BROOK WAY, BROOKHAVEN, GA, 30319","Match","Exact","2259 VALLEY BROOK WAY, BROOKHAVEN, GA, 30319",23394433,"R"
368857,"2259 W MAGILL","FRESNO","CA",93711,36.8357409880001,-119.831814794,357,"2259 W MAGILL, FRESNO, CA, 93711","Match","Non_Exact","2259 W MAGILL AVE, FRESNO, CA, 93711",197578259,"R"
368858,"2259 WARM SPRING ROAD","CHAMBERSBURG","PA",17202,39.883793359,-77.7260073149999,358,"2259 WARM SPRING ROAD, CHAMBERSBURG, PA, 17202","Match","Exact","2259 WARM SPRING RD, CHAMBERSBURG, PA, 17202",60082535,"L"
368859,"2259 WESTERN AVENUE","BRONX","NY",10458,NA,NA,359,"2259 WESTERN AVENUE, BRONX, NY, 10458","No_Match",NA,NA,NA,NA
368860,"22590 BUENA VISTA RD","ROCKBRIDGE","OH",43149,39.562378418,-82.607984318,360,"22590 BUENA VISTA RD, ROCKBRIDGE, OH, 43149","Match","Exact","22590 BUENA VISTA RD, ROCKBRIDGE, OH, 43149",624265397,"L"
368861,"22590 NE 149TH ST","RAIFORD","FL",32083,30.0716476000001,-82.2469964429999,361,"22590 NE 149TH ST, RAIFORD, FL, 32083","Match","Exact","22590 NE 149TH ST, RAIFORD, FL, 32083",6780297,"L"
368862,"22592 E 2200 NORTH ROAD","LEXINGTON","IL",61753,NA,NA,362,"22592 E 2200 NORTH ROAD, LEXINGTON, IL, 61753","No_Match",NA,NA,NA,NA
368863,"22594 STILLWATER VALLEY LN","PORTER","TX",77365,30.119224753,-95.246386205,363,"22594 STILLWATER VALLEY LN, PORTER, TX, 77365","Match","Exact","22594 STILLWATER VALLEY, PORTER, TX, 77365",635049505,"R"
368864,"22595 CHEROKEE ROSE PL","LAND O' LAKES","FL",34639,28.2328539170001,-82.441496667,364,"22595 CHEROKEE ROSE PL, LAND O' LAKES, FL, 34639","Match","Non_Exact","22595 CHEROKEE ROSE PL, LAND O LAKES, FL, 34639",618494350,"L"
368865,"22595 CIRCLE DRIVE","ROBERTSDALE","AL",36567,30.5538980420001,-87.693933639,365,"22595 CIRCLE DRIVE, ROBERTSDALE, AL, 36567","Match","Exact","22595 CIRCLE DR, ROBERTSDALE, AL, 36567",131633703,"R"
368866,"22595 N SCOTTSDALE ROAD STE 100","SCOTTSDALE","AZ",85255,NA,NA,366,"22595 N SCOTTSDALE ROAD STE 100, SCOTTSDALE, AZ, 85255","No_Match",NA,NA,NA,NA
368867,"22595 RAMBLE ROAD","LEWES","DE",19958,38.7055001460001,-75.2168018849999,367,"22595 RAMBLE ROAD, LEWES, DE, 19958","Match","Exact","22595 RAMBLE RD, LEWES, DE, 19958",640556499,"L"
368868,"22595 VOSS HIATT AVE","CICERO","IN",46034,NA,NA,368,"22595 VOSS HIATT AVE, CICERO, IN, 46034","No_Match",NA,NA,NA,NA
368869,"22597 NE 96TH ST","REDMOND","WA",98053,47.6851205340001,-122.038367334,369,"22597 NE 96TH ST, REDMOND, WA, 98053","Match","Exact","22597 NE 96TH ST, REDMOND, WA, 98053",186957854,"R"
368870,"22598 DUSTY LN","GROVELAND","FL",34736,28.676438401,-81.909541508,370,"22598 DUSTY LN, GROVELAND, FL, 34736","Match","Exact","22598 DUSTY LN, GROVELAND, FL, 34736",94201615,"R"
368871,"22598 LONG BEN LANE","CUDJOE KEY","FL",33042,NA,NA,371,"22598 LONG BEN LANE, CUDJOE KEY, FL, 33042","No_Match",NA,NA,NA,NA
368872,"22599 BLUE BIRD LANE","POTEAU","OK",74953,35.103650961,-94.657226367,372,"22599 BLUE BIRD LANE, POTEAU, OK, 74953","Match","Exact","22599 BLUE BIRD LN, POTEAU, OK, 74953",606800962,"L"
368873,"22599 SYCAMORE ROAD","MOUNT VERNON","OH",43050,40.3139484600001,-82.345798067,373,"22599 SYCAMORE ROAD, MOUNT VERNON, OH, 43050","Match","Exact","22599 SYCAMORE RD, MOUNT VERNON, OH, 43050",24623662,"R"
368874,"225A FALLON ROAD APT 405","STONEHAM","MA",2180,42.4687389650001,-71.111086964,374,"225A FALLON ROAD APT 405, STONEHAM, MA, 2180","Match","Exact","225 FALLON RD, STONEHAM, MA, 02180",87173283,"L"
368875,"225A STUYVESANT AVE","LYNDHURST","NJ",7071,NA,NA,375,"225A STUYVESANT AVE, LYNDHURST, NJ, 7071","Tie",NA,NA,NA,NA
368876,"226  BUR RIDGE","HILLSIDE","IL",60162,NA,NA,376,"226  BUR RIDGE, HILLSIDE, IL, 60162","No_Match",NA,NA,NA,NA
368877,"226 10TH STREET","HERMOSA BEACH","CA",90254,33.860977076,-118.398161604,377,"226 10TH STREET, HERMOSA BEACH, CA, 90254","Match","Exact","226 10TH ST, HERMOSA BEACH, CA, 90254",141583148,"R"
368878,"226 11TH AVE N 3","ST. CLOUD","MN",56301,45.5603824240001,-94.166872917,378,"226 11TH AVE N 3, ST. CLOUD, MN, 56301","Match","Non_Exact","226 11TH AVE N, SAINT CLOUD, MN, 56303",107415192,"R"
368879,"226 11TH AVE N 3","ST. CLOUD","MN",56303,45.5603824240001,-94.166872917,379,"226 11TH AVE N 3, ST. CLOUD, MN, 56303","Match","Exact","226 11TH AVE N, SAINT CLOUD, MN, 56303",107415192,"R"
368880,"226 16TH AVE WEST","BRADENTON","FL",34205,27.4853123610001,-82.564764557,380,"226 16TH AVE WEST, BRADENTON, FL, 34205","Match","Exact","226 16TH AVE W, BRADENTON, FL, 34205",16272456,"R"
368881,"226 16TH STREET APT 3","BROOKLYN","NY",11215,40.664151325,-73.988140492,381,"226 16TH STREET APT 3, BROOKLYN, NY, 11215","Match","Exact","226 16TH ST, BROOKLYN, NY, 11215",59075780,"R"
368882,"226 1ST AVENUE","ALPHA","NJ",8865,40.669183258,-75.160034407,382,"226 1ST AVENUE, ALPHA, NJ, 8865","Match","Exact","226 1ST AVE, ALPHA, NJ, 08865",642714171,"L"
368883,"226 1ST ST","ROCHESTER","MI",48307,42.6766875110001,-83.136109431,383,"226 1ST ST, ROCHESTER, MI, 48307","Match","Exact","226 1ST ST, ROCHESTER, MI, 48307",69713384,"R"
368884,"226 2ND AVE","LIBERTYVILLE","IL",60048,NA,NA,384,"226 2ND AVE, LIBERTYVILLE, IL, 60048","Tie",NA,NA,NA,NA
368885,"226 31ST ROAD","BROOKVILLE","KS",67425,38.8548322890001,-97.928570183,385,"226 31ST ROAD, BROOKVILLE, KS, 67425","Match","Exact","226 31ST RD, BROOKVILLE, KS, 67425",132877355,"L"
368886,"226 3RD ST NUMBER 302","BONITA SPRINGS","FL",34134,26.3277585640001,-81.8260180789999,386,"226 3RD ST NUMBER 302, BONITA SPRINGS, FL, 34134","Match","Exact","226 3RD ST, BONITA SPGS, FL, 34134",115136284,"R"
368887,"226 5TH AVE N APT 905","ST PETERSBURG","FL",33701,27.7775663680001,-82.6360546559999,387,"226 5TH AVE N APT 905, ST PETERSBURG, FL, 33701","Match","Exact","226 5TH AVE N, SAINT PETERSBURG, FL, 33701",124707327,"L"
368888,"226 66 STREET APT 16","NEW YORK","NY",7093,NA,NA,388,"226 66 STREET APT 16, NEW YORK, NY, 7093","No_Match",NA,NA,NA,NA
368889,"226 7TH AVE E","CRESCO","IA",52136,43.3790107990001,-92.112184295,389,"226 7TH AVE E, CRESCO, IA, 52136","Match","Exact","226 7TH AVE E, CRESCO, IA, 52136",27407543,"R"
368890,"226 7TH AVENUE NORTH APARTMENT 2","ST. PETERSBURG","FL",33701,27.779423443,-82.636063733,390,"226 7TH AVENUE NORTH APARTMENT 2, ST. PETERSBURG, FL, 33701","Match","Exact","226 7TH AVE N, SAINT PETERSBURG, FL, 33701",124707313,"L"
368891,"226 8TH STREET","KERSEY","CO",80644,40.388557844,-104.55616794,391,"226 8TH STREET, KERSEY, CO, 80644","Match","Exact","226 8TH ST, KERSEY, CO, 80644",188715398,"R"
368892,"226 ABIGAIL DRIVE","COLCHESTER","VT",5446,44.5070459500001,-73.199486924,392,"226 ABIGAIL DRIVE, COLCHESTER, VT, 5446","Match","Exact","226 ABIGAIL DR, COLCHESTER, VT, 05446",135840947,"L"
368893,"226 ABSHIRE","SAN ANTONIO","TX",78237,29.424044495,-98.575740174,393,"226 ABSHIRE, SAN ANTONIO, TX, 78237","Match","Non_Exact","226 ABSHIRE ST, SAN ANTONIO, TX, 78237",101511124,"L"
368894,"226 ADAMS STREET","PORT TOWNSEND","WA",98368,48.1150495140001,-122.755678775,394,"226 ADAMS STREET, PORT TOWNSEND, WA, 98368","Match","Exact","226 ADAMS ST, PORT TOWNSEND, WA, 98368",151991846,"R"
368895,"226 ALEXANDER ST","MARIETTA","GA",30060,33.949255442,-84.5448365239999,395,"226 ALEXANDER ST, MARIETTA, GA, 30060","Match","Exact","226 ALEXANDER ST, MARIETTA, GA, 30060",17254267,"R"
368896,"226 ALEXANDER","MARIETTA","GA",30060,33.949255442,-84.5448365239999,396,"226 ALEXANDER, MARIETTA, GA, 30060","Match","Non_Exact","226 ALEXANDER ST, MARIETTA, GA, 30060",17254267,"R"
368897,"226 ALLEN DRIVE","ARDMORE","OK",73401,34.193269183,-97.1246410699999,397,"226 ALLEN DRIVE, ARDMORE, OK, 73401","Match","Exact","226 ALLEN DR, ARDMORE, OK, 73401",14840721,"R"
368898,"226 ALMOND DR","BAYTOWN","TX",77520,29.782108968,-95.040124051,398,"226 ALMOND DR, BAYTOWN, TX, 77520","Match","Exact","226 ALMOND DR, BAYTOWN, TX, 77520",96571691,"L"
368899,"226 ALTA VISTA","WATERLOO","IA",50703,42.4994596390001,-92.311467211,399,"226 ALTA VISTA, WATERLOO, IA, 50703","Match","Non_Exact","226 ALTA VISTA AVE, WATERLOO, IA, 50703",77253307,"R"
368900,"226 AMBLING CIRCLE","COLUMBIA","SC",29210,34.0622731290001,-81.14464473,400,"226 AMBLING CIRCLE, COLUMBIA, SC, 29210","Match","Exact","226 AMBLING CIR, COLUMBIA, SC, 29210",70071565,"R"
368901,"226 AMBURY STREET","FORT MYERS","FL",33913,26.5515308670001,-81.6526898979999,401,"226 AMBURY STREET, FORT MYERS, FL, 33913","Match","Exact","226 AMBURY ST, FORT MYERS, FL, 33913",118082533,"R"
368902,"226 ANNALISA PLACE","MERRITT ISLAND","FL",32953,28.4412258450001,-80.712866989,402,"226 ANNALISA PLACE, MERRITT ISLAND, FL, 32953","Match","Exact","226 ANNALISA PL, MERRITT ISLAND, FL, 32953",93887249,"L"
368903,"226 APPLE PACKER ROAD","MARTINSBURG","PA",16662,40.305750098,-78.336390912,403,"226 APPLE PACKER ROAD, MARTINSBURG, PA, 16662","Match","Exact","226 APPLE PACKER RD, MARTINSBURG, PA, 16662",49720163,"R"
368904,"226 ASHBURTON LN","WEST COLUMBIA","SC",29170,33.9113955280001,-81.166829767,404,"226 ASHBURTON LN, WEST COLUMBIA, SC, 29170","Match","Exact","226 ASHBURTON LN, WEST COLUMBIA, SC, 29170",630188033,"R"
368905,"226 B JEFFERS CIRCLE","ELGIN","SC",29045,34.1590627750001,-80.785146514,405,"226 B JEFFERS CIRCLE, ELGIN, SC, 29045","Match","Exact","226 JEFFERS CIR, ELGIN, SC, 29045",635589499,"R"
368906,"226 B SOUTH SWAIN ST","RALEIGH","NC",27601,35.777525418,-78.629151201,406,"226 B SOUTH SWAIN ST, RALEIGH, NC, 27601","Match","Exact","226 S SWAIN ST, RALEIGH, NC, 27601",72508880,"R"
368907,"226 BARKER ROAD","WYNCOTE","PA",19002,40.089790921,-75.150014734,407,"226 BARKER ROAD, WYNCOTE, PA, 19002","Match","Non_Exact","226 BARKER RD, WYNCOTE, PA, 19095",135106296,"L"
368908,"226 BARTLETT AVENUE","LIVERPOOL","NY",13088,43.0853978470001,-76.1813897549999,408,"226 BARTLETT AVENUE, LIVERPOOL, NY, 13088","Match","Exact","226 BARTLETT AVE, LIVERPOOL, NY, 13088",46568169,"R"
368909,"226 BAY BEACH WAY","LAVALLETTE","NJ",8735,39.9815997600001,-74.0719216049999,409,"226 BAY BEACH WAY, LAVALLETTE, NJ, 8735","Match","Exact","226 BAY BEACH WAY, LAVALLETTE, NJ, 08735",203738685,"R"
368910,"226 BEACH RD","WOLCOTT","CT",6716,41.6076366500001,-72.998617721,410,"226 BEACH RD, WOLCOTT, CT, 6716","Match","Exact","226 BEACH RD, WOLCOTT, CT, 06716",3735685,"L"
368911,"226 BEAVER CREST","PELHAM","AL",35124,33.334367408,-86.8171393919999,411,"226 BEAVER CREST, PELHAM, AL, 35124","Match","Exact","226 BEAVER CRST, PELHAM, AL, 35124",82097458,"L"
368912,"226 BELLEVUE ROAD","NEW HAVEN","CT",6511,41.3257346410001,-72.9460082539999,412,"226 BELLEVUE ROAD, NEW HAVEN, CT, 6511","Match","Exact","226 BELLEVUE RD, NEW HAVEN, CT, 06511",3699074,"L"
368913,"226 BELVEDERE STREET","LYNCHBURG","VA",24503,37.4368449180001,-79.17517307,413,"226 BELVEDERE STREET, LYNCHBURG, VA, 24503","Match","Exact","226 BELVEDERE ST, LYNCHBURG, VA, 24503",62740543,"L"
368914,"226 BERTLANE","INKSTER","MI",48131,NA,NA,414,"226 BERTLANE, INKSTER, MI, 48131","No_Match",NA,NA,NA,NA
368915,"226 BEVERLY DR","ARCATA","CA",95521,40.859236911,-124.068411095,415,"226 BEVERLY DR, ARCATA, CA, 95521","Match","Exact","226 BEVERLY DR, ARCATA, CA, 95521",112992539,"R"
368916,"226 BIRCH AVENUE","WILMINGTON","DE",19805,39.736215144,-75.596451288,416,"226 BIRCH AVENUE, WILMINGTON, DE, 19805","Match","Exact","226 BIRCH AVE, WILMINGTON, DE, 19805",187297442,"L"
368917,"226 BIRCHSIDE CIRCLE","LOCUST GROVE","VA",22508,38.3360164870001,-77.758166611,417,"226 BIRCHSIDE CIRCLE, LOCUST GROVE, VA, 22508","Match","Exact","226 BIRCHSIDE CIR, LOCUST GROVE, VA, 22508",29891766,"L"
368918,"226 BLUE HILL AVENUE","MILTON","MA",2186,42.2576003610001,-71.098275579,418,"226 BLUE HILL AVENUE, MILTON, MA, 2186","Match","Exact","226 BLUE HILL AVE, MILTON, MA, 02186",87246975,"L"
368919,"226 BLUESTONE AVE","MOUNTAIN TOP","PA",18707,41.1606818500001,-75.8736485319999,419,"226 BLUESTONE AVE, MOUNTAIN TOP, PA, 18707","Match","Exact","226 BLUESTONE AVE, MOUNTAIN TOP, PA, 18707",647571169,"R"
368920,"226 BRADLEY 257","HERMITAGE","AR",NA,NA,NA,420,"226 BRADLEY 257, HERMITAGE, AR, ","No_Match",NA,NA,NA,NA
368921,"226 BRADY DR","DICKSON","TN",37055,36.0708767830001,-87.3473427059999,421,"226 BRADY DR, DICKSON, TN, 37055","Match","Exact","226 BRADY DR, DICKSON, TN, 37055",627345363,"L"
368922,"226 BRANDONWOOD DRIVE","JOHNSON CITY","TN",37604,36.3284068770001,-82.408716413,422,"226 BRANDONWOOD DRIVE, JOHNSON CITY, TN, 37604","Match","Exact","226 BRANDONWOOD DR, JOHNSON CITY, TN, 37604",127934720,"R"
368923,"226 BREES BLVD","SAN ANTONIO","TX",78209,29.4924479160001,-98.449896684,423,"226 BREES BLVD, SAN ANTONIO, TX, 78209","Match","Exact","226 BREES BLVD, SAN ANTONIO, TX, 78209",101499406,"R"
368924,"226 BRIGHTWOOD ROAD","EDEN","NC",27320,36.4863171530001,-79.808795382,424,"226 BRIGHTWOOD ROAD, EDEN, NC, 27320","Match","Non_Exact","226 BRIGHTWOOD RD, EDEN, NC, 27288",647181158,"R"
368925,"226 BROADWAY ST","LAKE ELSINORE","CA",92530,33.691234819,-117.380998485,425,"226 BROADWAY ST, LAKE ELSINORE, CA, 92530","Match","Exact","226 BROADWAY ST, LAKE ELSINORE, CA, 92530",194849786,"R"
368926,"226 BROKAW AVE","DONORA","PA",15033,40.169165112,-79.86439649,426,"226 BROKAW AVE, DONORA, PA, 15033","Match","Exact","226 BROKAW AVE, DONORA, PA, 15033",52810742,"L"
368927,"226 BROKEN OAK TRL","CULLOWHEE","NC",28723,35.172304276,-83.1728454079999,427,"226 BROKEN OAK TRL, CULLOWHEE, NC, 28723","Match","Exact","226 BROKEN OAK TRL, CULLOWHEE, NC, 28723",619287844,"R"
368928,"226 BROWNWOOD CT","IRVING","TX",75060,32.8127781210001,-96.9862692899999,428,"226 BROWNWOOD CT, IRVING, TX, 75060","Match","Exact","226 BROWNWOOD CT, IRVING, TX, 75060",102887179,"L"
368929,"226 BRUSH MOUNTAIN ROAD","SPRING MILLS","PA",16875,NA,NA,429,"226 BRUSH MOUNTAIN ROAD, SPRING MILLS, PA, 16875","No_Match",NA,NA,NA,NA
368930,"226 BRYANT RD","PENSACOLA","FL",32507,30.381736097,-87.2849109759999,430,"226 BRYANT RD, PENSACOLA, FL, 32507","Match","Exact","226 BRYANT RD, PENSACOLA, FL, 32507",93216438,"R"
368931,"226 BUCKEYE STREET","WOODLAND","CA",95695,38.6834229630001,-121.793767473,431,"226 BUCKEYE STREET, WOODLAND, CA, 95695","Match","Exact","226 BUCKEYE ST, WOODLAND, CA, 95695",67689325,"R"
368932,"226 BUCKSHOLLOW RD","MAHOPAC","NY",10541,41.36550586,-73.7409177979999,432,"226 BUCKSHOLLOW RD, MAHOPAC, NY, 10541","Match","Non_Exact","226 BUCKS HOLLOW RD, MAHOPAC, NY, 10541",139678359,"R"
368933,"226 CALIFORNIA LOOP","SACRAMENTO","CA",95822,38.4907714450001,-121.46678871,433,"226 CALIFORNIA LOOP, SACRAMENTO, CA, 95822","Match","Non_Exact","226 CALIFORNIA LOOP, SACRAMENTO, CA, 95823",133351226,"L"
368934,"226 CAMARGO","SAN ANTONIO","TX",78210,29.414782282,-98.486590271,434,"226 CAMARGO, SAN ANTONIO, TX, 78210","Match","Non_Exact","226 CAMARGO ST, SAN ANTONIO, TX, 78210",101526608,"R"
368935,"226 CAPE CONROE DRIVE","MONTGOMERY","TX",77356,30.3826197610001,-95.6486381079999,435,"226 CAPE CONROE DRIVE, MONTGOMERY, TX, 77356","Match","Exact","226 CAPE CONROE DR, MONTGOMERY, TX, 77356",79267245,"R"
368936,"226 CAROLYN DRIVE","HARAHAN","LA",70123,29.937106724,-90.198892337,436,"226 CAROLYN DRIVE, HARAHAN, LA, 70123","Match","Exact","226 CAROLYN DR, HARAHAN, LA, 70123",93532571,"L"
368937,"226 CARR ROAD","SEYMOUR","TN",37865,35.851321383,-83.776963746,437,"226 CARR ROAD, SEYMOUR, TN, 37865","Match","Exact","226 CARR RD, SEYMOUR, TN, 37865",89855638,"R"
368938,"226 CASCADE DRIVE","THIBODAUX","LA",70301,29.851595751,-90.8023545739999,438,"226 CASCADE DRIVE, THIBODAUX, LA, 70301","Match","Exact","226 CASCADE DR, THIBODAUX, LA, 70301",92345533,"R"
368939,"226 CEDAR RIDGE DR","NOANVILLE","TX",76559,NA,NA,439,"226 CEDAR RIDGE DR, NOANVILLE, TX, 76559","No_Match",NA,NA,NA,NA
368940,"226 CEDAR SPRINGS PLACE","MADISON","AL",35758,34.6983182640001,-86.781572968,440,"226 CEDAR SPRINGS PLACE, MADISON, AL, 35758","Match","Exact","226 CEDAR SPRINGS PL, MADISON, AL, 35758",639047326,"R"
368941,"226 CENTER AVENUE","MCDONALD","PA",15057,40.37134288,-80.231902062,441,"226 CENTER AVENUE, MCDONALD, PA, 15057","Match","Non_Exact","226 CENTER AVE, MC DONALD, PA, 15057",52799419,"L"
368942,"226 CENTRAL AVE","LYNBROOK","NY",11563,40.6643535330001,-73.6787764219999,442,"226 CENTRAL AVE, LYNBROOK, NY, 11563","Match","Exact","226 CENTRAL AVE, LYNBROOK, NY, 11563",147670901,"L"
368943,"226 CHAMONIX COURT","CREVE COEUR","MO",63141,38.6585264490001,-90.463287244,443,"226 CHAMONIX COURT, CREVE COEUR, MO, 63141","Match","Exact","226 CHAMONIX CT, CREVE COEUR, MO, 63141",100124433,"R"
368944,"226 CHAMPIONS HILLS DRIVE","BERRYVILLE","AR",72616,36.3761138940001,-93.5698957659999,444,"226 CHAMPIONS HILLS DRIVE, BERRYVILLE, AR, 72616","Match","Non_Exact","226 CHAMPION HILLS DR, BERRYVILLE, AR, 72616",20081741,"R"
368945,"226 CHAPARRAL PI SE","CALGARY CN",NA,NA,NA,NA,445,"226 CHAPARRAL PI SE, CALGARY CN, , ","No_Match",NA,NA,NA,NA
368946,"226 CHAPEL AVENUE","NASHVILLE","TN",37206,36.1849266500001,-86.736622075,446,"226 CHAPEL AVENUE, NASHVILLE, TN, 37206","Match","Exact","226 CHAPEL AVE, NASHVILLE, TN, 37206",97189058,"R"
368947,"226 CHARLESTON ST","CADIZ","OH",43907,40.2710039020001,-80.990670414,447,"226 CHARLESTON ST, CADIZ, OH, 43907","Match","Exact","226 CHARLESTON ST, CADIZ, OH, 43907",37708142,"R"
368948,"226 CHATEAU DR","LOCKPORT","LA",70374,29.6200274940001,-90.505120359,448,"226 CHATEAU DR, LOCKPORT, LA, 70374","Match","Exact","226 CHATEAU DR, LOCKPORT, LA, 70374",92349753,"L"
368949,"226 CHATHAM COURT","PACHACO","CA",94533,37.9839951070001,-122.07273188,449,"226 CHATHAM COURT, PACHACO, CA, 94533","Match","Non_Exact","226 CHATHAM CT, PACHECO, CA, 94553",192078831,"R"
368950,"226 CHEROKEE DR UNIT D","BOLINGBROOK","IL",60440,41.7034718400001,-88.090220959,450,"226 CHEROKEE DR UNIT D, BOLINGBROOK, IL, 60440","Match","Exact","226 CHEROKEE DR, BOLINGBROOK, IL, 60440",111534698,"R"
368951,"226 CHERRY AVE","COOKEVILLE","TN",38501,36.166354153,-85.503481501,451,"226 CHERRY AVE, COOKEVILLE, TN, 38501","Match","Exact","226 CHERRY AVE, COOKEVILLE, TN, 38501",25141174,"L"
368952,"226 CHESTNUT AVE","BOSTON","MA",2130,42.314746213,-71.108069311,452,"226 CHESTNUT AVE, BOSTON, MA, 2130","Match","Exact","226 CHESTNUT AVE, BOSTON, MA, 02130",85724572,"L"
368953,"226 CHLOE DRIVE","FAYETTEVILLE","NC",28301,35.1032324610001,-78.880544097,453,"226 CHLOE DRIVE, FAYETTEVILLE, NC, 28301","Match","Exact","226 CHLOE DR, FAYETTEVILLE, NC, 28301",64200776,"R"
368954,"226 CHRISTOPHER COLUMBUS DR 2","JERSEY CITY","NJ",7302,40.7212598630001,-74.048557064,454,"226 CHRISTOPHER COLUMBUS DR 2, JERSEY CITY, NJ, 7302","Match","Exact","226 CHRISTOPHER COLUMBUS DR, JERSEY CITY, NJ, 07302",59605962,"R"
368955,"226 CLEMENS DR","PIKEVILLE","NC",27863,35.4836315790001,-78.033427289,455,"226 CLEMENS DR, PIKEVILLE, NC, 27863","Match","Exact","226 CLEMENS DR, PIKEVILLE, NC, 27863",605718891,"R"
368956,"226 CLIFTON AVE","MOUNT JULIET","TN",37122,36.161479012,-86.508846397,456,"226 CLIFTON AVE, MOUNT JULIET, TN, 37122","Match","Exact","226 CLIFTON AVE, MOUNT JULIET, TN, 37122",650046981,"L"
368957,"226 CLIFTON ROAD","ROCKY MOUNT","NC",27804,35.957708204,-77.833543148,457,"226 CLIFTON ROAD, ROCKY MOUNT, NC, 27804","Match","Exact","226 CLIFTON RD, ROCKY MOUNT, NC, 27804",90382502,"R"
368958,"226 CLINTON","N. FOND DU LAC","WI",54937,43.8179772460001,-88.486844863,458,"226 CLINTON, N. FOND DU LAC, WI, 54937","Match","Non_Exact","226 CLINTON ST, N FOND DU LAC, WI, 54937",74809044,"R"
368959,"226 COACHLIGHT SQUARE","MONTROSE","NY",10548,41.2501674870001,-73.949289985,459,"226 COACHLIGHT SQUARE, MONTROSE, NY, 10548","Match","Exact","226 COACHLIGHT SQ, MONTROSE, NY, 10548",139839128,"L"
368960,"226 COLLINGSWORTH TRACE NE","DACULA","GA",30019,NA,NA,460,"226 COLLINGSWORTH TRACE NE, DACULA, GA, 30019","No_Match",NA,NA,NA,NA
368961,"226 COLUMBIA AVE","SYRACUSE","NY",13207,43.0208010310001,-76.167983409,461,"226 COLUMBIA AVE, SYRACUSE, NY, 13207","Match","Exact","226 COLUMBIA AVE, SYRACUSE, NY, 13207",46570424,"R"
368962,"226 COLUMBIA DRIVE UNIT 1","TALLAHASSEE","FL",32304,30.4443461400001,-84.323533719,462,"226 COLUMBIA DRIVE UNIT 1, TALLAHASSEE, FL, 32304","Match","Exact","226 COLUMBIA DR, TALLAHASSEE, FL, 32304",618824076,"L"
368963,"226 COLUMBIA","ELMHURST","IL",60126,41.9074603600001,-87.933530643,463,"226 COLUMBIA, ELMHURST, IL, 60126","Match","Non_Exact","226 COLUMBIA AVE, ELMHURST, IL, 60126",112693907,"R"
368964,"226 CONKLIN AVE","BELLPORT","NY",11713,NA,NA,464,"226 CONKLIN AVE, BELLPORT, NY, 11713","No_Match",NA,NA,NA,NA
368965,"226 CONTINENTAL","SAN ANTONIO","TX",78228,29.452710188,-98.573526624,465,"226 CONTINENTAL, SAN ANTONIO, TX, 78228","Match","Non_Exact","226 CONTINENTAL AVE, SAN ANTONIO, TX, 78228",101510299,"L"
368966,"226 CORSAIR AVENUE","LAUDERDALE BY THE SE","FL",33308,26.1939398280001,-80.099698156,466,"226 CORSAIR AVENUE, LAUDERDALE BY THE SE, FL, 33308","Match","Non_Exact","226 CORSAIR AVE, FORT LAUDERDALE, FL, 33308",114725006,"L"
368967,"226 COUNTY RD 1300","YANTIS","TX",75497,32.9130921490001,-95.491636054,467,"226 COUNTY RD 1300, YANTIS, TX, 75497","Match","Exact","226 CO RD 1300, YANTIS, TX, 75497",625051477,"L"
368968,"226 COVENTRY LANE","LONGMEADOW","MA",1106,42.0631827460001,-72.5597406049999,468,"226 COVENTRY LANE, LONGMEADOW, MA, 1106","Match","Exact","226 COVENTRY LN, LONGMEADOW, MA, 01106",4063798,"L"
368969,"226 COZY LN","CEDAR HILL","TX",75104,32.574924937,-96.945645176,469,"226 COZY LN, CEDAR HILL, TX, 75104","Match","Exact","226 COZY LN, CEDAR HILL, TX, 75104",616806535,"R"
368970,"226 CRESTVIEW TRACE","GRAY","GA",31032,32.990242461,-83.579350066,470,"226 CRESTVIEW TRACE, GRAY, GA, 31032","Match","Exact","226 CRESTVIEW TRCE, GRAY, GA, 31032",628070332,"L"
368971,"226 CROMWELL CT","LAFAYETTE","IN",47909,40.374926943,-86.909094191,471,"226 CROMWELL CT, LAFAYETTE, IN, 47909","Match","Exact","226 CROMWELL CT, LAFAYETTE, IN, 47909",27317235,"L"
368972,"226 CUBA AVENUE","STATEN ISLAND","NY",10306,40.562836228,-74.109199367,472,"226 CUBA AVENUE, STATEN ISLAND, NY, 10306","Match","Exact","226 CUBA AVE, STATEN ISLAND, NY, 10306",59868916,"L"
368973,"226 DALE ROAD","CENTER SANDWICH","NH",3227,43.8216369410001,-71.46225491,473,"226 DALE ROAD, CENTER SANDWICH, NH, 3227","Match","Exact","226 DALE RD, CENTER SANDWICH, NH, 03227",145604477,"L"
368974,"226 DAVON RD","LAPLACE","LA",70068,NA,NA,474,"226 DAVON RD, LAPLACE, LA, 70068","No_Match",NA,NA,NA,NA
368975,"226 DEL PRADO DR","DALY CITY","CA",94015,37.6789768580001,-122.479882925,475,"226 DEL PRADO DR, DALY CITY, CA, 94015","Match","Exact","226 DEL PRADO DR, DALY CITY, CA, 94015",192368813,"R"
368976,"226 DENBY LANE","ALTOONA","PA",16601,40.559354994,-78.382949883,476,"226 DENBY LANE, ALTOONA, PA, 16601","Match","Exact","226 DENBY LN, ALTOONA, PA, 16601",617449479,"L"
368977,"226 DIAMOND COURT","JACKSONVILLE","NC",28546,34.778894973,-77.311899501,477,"226 DIAMOND COURT, JACKSONVILLE, NC, 28546","Match","Exact","226 DIAMOND CT, JACKSONVILLE, NC, 28546",620019427,"R"
368978,"226 DOGWOOD LANE","EL DORADO","AR",71730,33.225519811,-92.708917448,478,"226 DOGWOOD LANE, EL DORADO, AR, 71730","Match","Exact","226 DOGWOOD LN, EL DORADO, AR, 71730",28172214,"R"
368979,"226 DOUGLAS PIKE","N SMITHFIELD","RI",2896,41.9602545180001,-71.582724186,479,"226 DOUGLAS PIKE, N SMITHFIELD, RI, 2896","Match","Exact","226 DOUGLAS PIKE, NORTH SMITHFIELD, RI, 02896",47509182,"L"
368980,"226 DOUGLAS ROAD","STATEN ISLAND","NY",10304,40.607517563,-74.096319192,480,"226 DOUGLAS ROAD, STATEN ISLAND, NY, 10304","Match","Exact","226 DOUGLAS RD, STATEN ISLAND, NY, 10304",59886167,"L"
368981,"226 DOWNER DRIVE","CLARKSVILLE","TN",37042,36.563152874,-87.387144134,481,"226 DOWNER DRIVE, CLARKSVILLE, TN, 37042","Match","Exact","226 DOWNER DR, CLARKSVILLE, TN, 37042",31813851,"R"
368982,"226 E  LEE HWY","NEW MARKET","VA",22844,38.647615484,-78.657177543,482,"226 E  LEE HWY, NEW MARKET, VA, 22844","Match","Exact","226 E LEE HWY, NEW MARKET, VA, 22844",635299041,"R"
368983,"226 E 45TH ST","INDIANAPOLIS","IN",46205,39.838257695,-86.153213786,483,"226 E 45TH ST, INDIANAPOLIS, IN, 46205","Match","Exact","226 E 45TH ST, INDIANAPOLIS, IN, 46205",107984405,"L"
368984,"226 E 50TH AVE","GARY","IN",46409,41.527648302,-87.333340928,484,"226 E 50TH AVE, GARY, IN, 46409","Match","Exact","226 E 50TH AVE, GARY, IN, 46409",98434130,"L"
368985,"226 E 72ND TER","KANSAS CITY","MO",64114,38.9965403080001,-94.586574148,485,"226 E 72ND TER, KANSAS CITY, MO, 64114","Match","Exact","226 E 72ND TER, KANSAS CITY, MO, 64114",91454656,"L"
368986,"226 E 87TH ST APT 3D","NEW YORK","NY",10128,40.7791112510001,-73.952590084,486,"226 E 87TH ST APT 3D, NEW YORK, NY, 10128","Match","Non_Exact","226 E 87TH ST, NEW YORK, NY, 10128",610381041,"R"
368987,"226 E CHICAGO ST","COLDWATER","MI",49036,41.9391388760001,-84.991594458,487,"226 E CHICAGO ST, COLDWATER, MI, 49036","Match","Exact","226 E CHICAGO ST, COLDWATER, MI, 49036",8214431,"L"
368988,"226 E DOMINGUEZ ST","CARSON","CA",90745,33.8393980180001,-118.276008405,488,"226 E DOMINGUEZ ST, CARSON, CA, 90745","Match","Exact","226 E DOMINGUEZ ST, CARSON, CA, 90745",141669619,"R"
368989,"226 E EVERETT STREET","FALCONER","NY",14733,42.1216040800001,-79.1935724579999,489,"226 E EVERETT STREET, FALCONER, NY, 14733","Match","Exact","226 E EVERETT ST, FALCONER, NY, 14733",120753975,"R"
368990,"226 E FIRST ST","MOLINE","KS",67353,37.3598742140001,-96.301069823,490,"226 E FIRST ST, MOLINE, KS, 67353","Match","Exact","226 1ST ST, MOLINE, KS, 67353",635804147,"L"
368991,"226 E FRIEND ST","COLUMBIANA","OH",44408,40.8873761290001,-80.689068992,491,"226 E FRIEND ST, COLUMBIANA, OH, 44408","Match","Exact","226 E FRIEND ST, COLUMBIANA, OH, 44408",63645628,"R"
368992,"226 E GAARDER ROAD","HOLMEN","WI",54636,43.955729289,-91.25506852,492,"226 E GAARDER ROAD, HOLMEN, WI, 54636","Match","Exact","226 E GAARDER RD, HOLMEN, WI, 54636",51017953,"R"
368993,"226 E HOSPITAL RD","PAOLI","IN",47454,38.568343391,-86.465368683,493,"226 E HOSPITAL RD, PAOLI, IN, 47454","Match","Exact","226 E HOSPITAL RD, PAOLI, IN, 47454",32141946,"R"
368994,"226 E KITTY HAWK DR","MIDWEST CITY","OK",73110,35.4435968060001,-97.3969281779999,494,"226 E KITTY HAWK DR, MIDWEST CITY, OK, 73110","Match","Non_Exact","226 E KITTYHAWK DR, MIDWEST CITY, OK, 73110",100414911,"R"
368995,"226 E NORTHERN AVE","CROWLEY","LA",70526,30.222696758,-92.376438663,495,"226 E NORTHERN AVE, CROWLEY, LA, 70526","Match","Exact","226 E NORTHERN AVE, CROWLEY, LA, 70526",88301501,"R"
368996,"226 E PALO VERDE ST","GILBERT","AZ",85296,33.3476368660001,-111.784610602,496,"226 E PALO VERDE ST, GILBERT, AZ, 85296","Match","Exact","226 E PALO VERDE ST, GILBERT, AZ, 85296",128969392,"L"
368997,"226 E PAN AMERICAN CIR","MURRAY","UT",84107,40.6758727760001,-111.884279869,497,"226 E PAN AMERICAN CIR, MURRAY, UT, 84107","Match","Non_Exact","226 PAN AMERICAN DR, MURRAY, UT, 84107",176080060,"R"
368998,"226 E RANDOLPH PLACE","LONG BEACH","CA",90807,33.8318234230001,-118.190192372,498,"226 E RANDOLPH PLACE, LONG BEACH, CA, 90807","Match","Exact","226 E RANDOLPH PL, LONG BEACH, CA, 90807",142768489,"R"
368999,"226 E SEMINOLE PL","TULSA","OK",74106,36.181042237,-95.992998055,499,"226 E SEMINOLE PL, TULSA, OK, 74106","Match","Exact","226 E SEMINOLE PL, TULSA, OK, 74106",166436802,"R"
369000,"226 EAGLE RIDGE DRIVE - SUITE 506","LAKE WALES","FL",33859,NA,NA,500,"226 EAGLE RIDGE DRIVE - SUITE 506, LAKE WALES, FL, 33859","No_Match",NA,NA,NA,NA
