"ID","Address","City","State","Zip","lat","long","id","input_address","match_indicator","match_type","matched_address","tiger_line_id","tiger_side"
125501,"12551 BEACH HIGHWAY","GREENWOOD","DE",19950,38.8058272160001,-75.524083226,1,"12551 BEACH HIGHWAY, GREENWOOD, DE, 19950","Match","Exact","12551 BEACH HWY, GREENWOOD, DE, 19950",106078501,"L"
125502,"12551 BLINNWOOD LANE","HOUSTON","TX",77070,29.9554131730001,-95.5633678519999,2,"12551 BLINNWOOD LANE, HOUSTON, TX, 77070","Match","Exact","12551 BLINNWOOD LN, HOUSTON, TX, 77070",627727311,"R"
125503,"12551 CAPITOL STATION","COLUMBIA","SC",29211,NA,NA,3,"12551 CAPITOL STATION, COLUMBIA, SC, 29211","No_Match",NA,NA,NA,NA
125504,"12551 CYPRESS","CHINO","CA",91710,34.0254627830001,-117.663261804,4,"12551 CYPRESS, CHINO, CA, 91710","Match","Non_Exact","12551 CYPRESS AVE, CHINO, CA, 91710",144673818,"L"
125505,"12551 FLETCHER DR","GARDEN GROVE","CA",92840,33.780523583,-117.956953304,5,"12551 FLETCHER DR, GARDEN GROVE, CA, 92840","Match","Exact","12551 FLETCHER DR, GARDEN GROVE, CA, 92840",144034915,"R"
125506,"12551 GALYEAN STABLE RD","BENTONVILLE","AR",72712,36.409499327,-94.304846475,6,"12551 GALYEAN STABLE RD, BENTONVILLE, AR, 72712","Match","Non_Exact","12551 GALYEAN STABLES RD, BENTONVILLE, AR, 72712",635479072,"L"
125507,"12551 NW TOBLIN LN","PORT ST LUCIE","FL",34987,27.3223805710001,-80.452966943,7,"12551 NW TOBLIN LN, PORT ST LUCIE, FL, 34987","Match","Exact","12551 NW TOBLIN LN, PORT ST LUCIE, FL, 34987",619768941,"L"
125508,"12551 ROCHEPORT GRAVEL ROAD","ROCHEPORT","MO",65279,NA,NA,8,"12551 ROCHEPORT GRAVEL ROAD, ROCHEPORT, MO, 65279","Tie",NA,NA,NA,NA
125509,"12551 SOUTH ALPINE DRIVE","ALSIP","IL",60803,41.6630902310001,-87.757248267,9,"12551 SOUTH ALPINE DRIVE, ALSIP, IL, 60803","Match","Exact","12551 S ALPINE DR, ALSIP, IL, 60803",111815554,"L"
125510,"12551 WOODBURN WAY","SAN JOSE","CA",95127,NA,NA,10,"12551 WOODBURN WAY, SAN JOSE, CA, 95127","No_Match",NA,NA,NA,NA
125511,"12551 WOODPINE DR","SOUTH LYON","MI",48178,42.467157334,-83.695603427,11,"12551 WOODPINE DR, SOUTH LYON, MI, 48178","Match","Exact","12551 WOODPINE DR, SOUTH LYON, MI, 48178",23568695,"L"
125512,"12552 KNIGHTSBRIDGE DRIVE","WOODBRIDGE","VA",22192,38.6829930230001,-77.336527582,12,"12552 KNIGHTSBRIDGE DRIVE, WOODBRIDGE, VA, 22192","Match","Exact","12552 KNIGHTSBRIDGE DR, WOODBRIDGE, VA, 22192",76517830,"R"
125513,"12552 OVERLOOK MTN DR","CHARLOTTE","NC",28216,35.3458652460001,-80.94870222,13,"12552 OVERLOOK MTN DR, CHARLOTTE, NC, 28216","Match","Exact","12552 OVERLOOK MOUNTAIN DR, CHARLOTTE, NC, 28216",70546012,"R"
125514,"12552 OXNARD ST","NORTH HOLLYWOOD","CA",91606,34.179402334,-118.406340501,14,"12552 OXNARD ST, NORTH HOLLYWOOD, CA, 91606","Match","Exact","12552 OXNARD ST, N HOLLYWOOD, CA, 91606",640424375,"L"
125515,"12552 PRESERVATION WAY NW","PICKERINGTON","OH",43147,39.9128837690001,-82.717157748,15,"12552 PRESERVATION WAY NW, PICKERINGTON, OH, 43147","Match","Exact","12552 PRESERVATION WAY NW, PICKERINGTON, OH, 43147",650379136,"R"
125516,"12553 COUNTY ROAD EE","IDALIA","CO",80735,NA,NA,16,"12553 COUNTY ROAD EE, IDALIA, CO, 80735","No_Match",NA,NA,NA,NA
125517,"12553 E 41ST ST APT 509","TULSA","OK",74146,36.1045422930001,-95.8371212119999,17,"12553 E 41ST ST APT 509, TULSA, OK, 74146","Match","Non_Exact","12553 E 41ST ST, TULSA, OK, 74146",166457379,"L"
125518,"12553 NEW BRITTANY BLVD STE V-32","FORT MYERS","FL",33907,26.5602183230001,-81.880874472,18,"12553 NEW BRITTANY BLVD STE V-32, FORT MYERS, FL, 33907","Match","Non_Exact","12553 NEW BRITTANY BLVD, FORT MYERS, FL, 33907",118066894,"R"
125519,"12553 NEW BRITTANY BLVD-BLDG 32","FORT MYERS","FL",33907,NA,NA,19,"12553 NEW BRITTANY BLVD-BLDG 32, FORT MYERS, FL, 33907","No_Match",NA,NA,NA,NA
125520,"12553 SUSANNA DRIVE","CHARLOTTE","NC",28214,35.3331193170001,-80.969022825,20,"12553 SUSANNA DRIVE, CHARLOTTE, NC, 28214","Match","Exact","12553 SUSANNA DR, CHARLOTTE, NC, 28214",618148157,"R"
125521,"12554 CAROW CIRCLE","FRAZEE","MN",56544,46.7549917210001,-95.790837966,21,"12554 CAROW CIRCLE, FRAZEE, MN, 56544","Match","Exact","12554 CAROW CIR, FRAZEE, MN, 56544",624679279,"L"
125522,"12555 72ND TRAIL","LIVE OAK","FL",32060,30.3166574270001,-83.007273471,22,"12555 72ND TRAIL, LIVE OAK, FL, 32060","Match","Exact","12555 72ND TRL, LIVE OAK, FL, 32060",610562479,"L"
125523,"12555 BISCAYNE BLVD SUITE 973S","MIAMI","FL",33181,NA,NA,23,"12555 BISCAYNE BLVD SUITE 973S, MIAMI, FL, 33181","No_Match",NA,NA,NA,NA
125524,"12555 BISCAYNE BLVD UNIT 969","MIAMI","FL",33181,NA,NA,24,"12555 BISCAYNE BLVD UNIT 969, MIAMI, FL, 33181","No_Match",NA,NA,NA,NA
125525,"12555 BISCAYNE BLVD","NORTH MIAMI","FL",33181,25.892396041,-80.162820047,25,"12555 BISCAYNE BLVD, NORTH MIAMI, FL, 33181","Match","Exact","12555 BISCAYNE BLVD, NORTH MIAMI, FL, 33181",116037732,"R"
125526,"12555 HIGH BLUFF DRIVE SUITE 301","SAN DIEGO","CA",92130,32.9468440410001,-117.240580612,26,"12555 HIGH BLUFF DRIVE SUITE 301, SAN DIEGO, CA, 92130","Match","Exact","12555 HIGH BLUFF DR, SAN DIEGO, CA, 92130",650386710,"R"
125527,"12555 LAKE FOREST DRIVE","GULFPORT","MS",39503,30.464762679,-89.0415560929999,27,"12555 LAKE FOREST DRIVE, GULFPORT, MS, 39503","Match","Exact","12555 LAKE FOREST DR, GULFPORT, MS, 39503",624682766,"L"
125528,"12555 LAWYERS ROAD","MINT HILL","NC",28227,35.160305244,-80.6471988549999,28,"12555 LAWYERS ROAD, MINT HILL, NC, 28227","Match","Exact","12555 LAWYERS RD, MINT HILL, NC, 28227",70555246,"L"
125529,"12555 LEISURE LN","HORTON","MI",49246,42.0824204310001,-84.4965295659999,29,"12555 LEISURE LN, HORTON, MI, 49246","Match","Exact","12555 LEISURE LN, HORTON, MI, 49246",17625398,"R"
125530,"12555 OLD STATE HIGHWAY 28","PIKEVILLE","TN",37367,35.5826569210001,-85.221076704,30,"12555 OLD STATE HIGHWAY 28, PIKEVILLE, TN, 37367","Match","Exact","12555 OLD STATE HWY 28, PIKEVILLE, TN, 37367",612058391,"L"
125531,"12555 ORANGE DR 4020","DAVIE","FL",33330,26.064101796,-80.3169959159999,31,"12555 ORANGE DR 4020, DAVIE, FL, 33330","Match","Exact","12555 ORANGE DR, DAVIE, FL, 33330",114782770,"L"
125532,"12555 ORANGE DRIVE   - 4154","DAVIE","FL",33330,26.064101796,-80.3169959159999,32,"12555 ORANGE DRIVE   - 4154, DAVIE, FL, 33330","Match","Exact","12555 ORANGE DR, DAVIE, FL, 33330",114782770,"L"
125533,"12555 ORANGE DRIVE   -","DAVIE","FL",33330,26.064101796,-80.3169959159999,33,"12555 ORANGE DRIVE   -, DAVIE, FL, 33330","Match","Exact","12555 ORANGE DR, DAVIE, FL, 33330",114782770,"L"
125534,"12555 ORANGE DRIVE 4020","DAVIE","FL",33330,26.064101796,-80.3169959159999,34,"12555 ORANGE DRIVE 4020, DAVIE, FL, 33330","Match","Exact","12555 ORANGE DR, DAVIE, FL, 33330",114782770,"L"
125535,"12555 PENNOCK AVE SUITE 215","APPLE VALLEY","MN",55124,44.767719076,-93.218962835,35,"12555 PENNOCK AVE SUITE 215, APPLE VALLEY, MN, 55124","Match","Exact","12555 PENNOCK AVE, APPLE VALLEY, MN, 55124",37905611,"R"
125536,"12555 PINON COURT","GARDEN GROVE","CA",92843,NA,NA,36,"12555 PINON COURT, GARDEN GROVE, CA, 92843","No_Match",NA,NA,NA,NA
125537,"12555 SE OLD CYPRESS DRIVE","HOBE SOUND","FL",33455,27.0478781360001,-80.146580012,37,"12555 SE OLD CYPRESS DRIVE, HOBE SOUND, FL, 33455","Match","Exact","12555 SE OLD CYPRESS DR, HOBE SOUND, FL, 33455",618063693,"L"
125538,"12555 SW HWY 126","POWELL BUTTE","OR",97753,44.2476294320001,-120.999576762,38,"12555 SW HWY 126, POWELL BUTTE, OR, 97753","Match","Exact","12555 SW HWY 126, POWELL BUTTE, OR, 97753",152399010,"R"
125539,"12555 VERSAILLES DR","HOUSTON","TX",77015,29.7841347230001,-95.207231006,39,"12555 VERSAILLES DR, HOUSTON, TX, 77015","Match","Exact","12555 VERSAILLES DR, HOUSTON, TX, 77015",96096351,"L"
125540,"12555 VERSAILLES","HOUSTON","TX",77015,29.7841347230001,-95.207231006,40,"12555 VERSAILLES, HOUSTON, TX, 77015","Match","Non_Exact","12555 VERSAILLES DR, HOUSTON, TX, 77015",96096351,"L"
125541,"12556 DOWNING DRIVE","MCCALLA","AL",35111,33.2699584160001,-87.076187056,41,"12556 DOWNING DRIVE, MCCALLA, AL, 35111","Match","Non_Exact","12556 DOWNING DR, MC CALLA, AL, 35111",653335613,"R"
125542,"12556 S 67TH E AVE","BIXBY","OK",74008,NA,NA,42,"12556 S 67TH E AVE, BIXBY, OK, 74008","No_Match",NA,NA,NA,NA
125543,"12556 SW 114TH TER","PORTLAND","OR",97223,45.429460969,-122.794653193,43,"12556 SW 114TH TER, PORTLAND, OR, 97223","Match","Exact","12556 SW 114TH TER, PORTLAND, OR, 97223",158217190,"R"
125544,"12557 ASHGLEN DR N","JACKSONVILLE","FL",32224,30.27629914,-81.492720799,44,"12557 ASHGLEN DR N, JACKSONVILLE, FL, 32224","Match","Exact","12557 ASHGLEN DR N, JACKSONVILLE, FL, 32224",83942617,"L"
125545,"12557 SW MORGAN RD","SHERWOOD","OR",97140,45.3390484610001,-122.806173648,45,"12557 SW MORGAN RD, SHERWOOD, OR, 97140","Match","Exact","12557 SW MORGAN RD, SHERWOOD, OR, 97140",157908401,"L"
125546,"12558 ELMDALE","DETROIT","MI",48213,42.4058069820001,-82.9808788619999,46,"12558 ELMDALE, DETROIT, MI, 48213","Match","Non_Exact","12558 ELMDALE ST, DETROIT, MI, 48213",95468669,"R"
125547,"12558 ELTON STREET","VICTOVILLE","CA",92392,34.498693915,-117.388871332,47,"12558 ELTON STREET, VICTOVILLE, CA, 92392","Match","Non_Exact","12558 ELTON ST, VICTORVILLE, CA, 92392",614832643,"L"
125548,"12558 MISSION HILLS CIRCLE S","JACKSONVILLE","FL",32225,30.375614049,-81.496209009,48,"12558 MISSION HILLS CIRCLE S, JACKSONVILLE, FL, 32225","Match","Exact","12558 MISSION HILLS CIR S, JACKSONVILLE, FL, 32225",83941007,"L"
125549,"12558 SW 53 COURT","MIRAMAR","FL",33169,25.958757587,-80.312926841,49,"12558 SW 53 COURT, MIRAMAR, FL, 33169","Match","Non_Exact","12558 SW 53RD CT, MIRAMAR, FL, 33027",114781891,"L"
125550,"12559 MUD SPRINGS CIRCLE","KAMAS","UT",84036,40.661379589,-111.409565024,50,"12559 MUD SPRINGS CIRCLE, KAMAS, UT, 84036","Match","Exact","12559 MUD SPRINGS CIR, KAMAS, UT, 84036",611495309,"L"
125551,"12559 S PAGE ST","CALUMET PARK","IL",60827,41.66512426,-87.664610045,51,"12559 S PAGE ST, CALUMET PARK, IL, 60827","Match","Exact","12559 S PAGE ST, CALUMET PARK, IL, 60827",111875852,"L"
125552,"12559 SCULLY AVENUE","SARATOGA","CA",95070,37.2866131590001,-122.016978394,52,"12559 SCULLY AVENUE, SARATOGA, CA, 95070","Match","Exact","12559 SCULLY AVE, SARATOGA, CA, 95070",122941254,"R"
125553,"12559 SHARPS LANE","MAGNOLIA","TX",77354,30.2308808560001,-95.665658053,53,"12559 SHARPS LANE, MAGNOLIA, TX, 77354","Match","Exact","12559 SHARPS LN, MAGNOLIA, TX, 77354",648585790,"L"
125554,"1256 107TH LN NW","COON RAPIDS","MN",55433,45.1657025390001,-93.2994124799999,54,"1256 107TH LN NW, COON RAPIDS, MN, 55433","Match","Exact","1256 107TH LN NW, COON RAPIDS, MN, 55433",97484906,"R"
125555,"1256 5TH AVENUE","TROY","NY",12280,42.7237471710001,-73.689367815,55,"1256 5TH AVENUE, TROY, NY, 12280","Match","Non_Exact","1256 5TH AVE, TROY, NY, 12180",35729190,"R"
125556,"1256 93RD  STREET","NIAGARA FALLS","NY",14301,43.090271536,-78.955963749,56,"1256 93RD  STREET, NIAGARA FALLS, NY, 14301","Match","Non_Exact","1256 93RD ST, NIAGARA FALLS, NY, 14304",48687609,"L"
125557,"1256 ARKANSAS 115","SMITHVILLE","AR",72466,36.0043658760001,-91.468942816,57,"1256 ARKANSAS 115, SMITHVILLE, AR, 72466","Match","Exact","1256 STATE HWY 115, SMITHVILLE, AR, 72466",33258981,"L"
125558,"1256 ARROWHEAD BEACH RD","DRESDEN","NY",14441,42.6914167130001,-76.958720774,58,"1256 ARROWHEAD BEACH RD, DRESDEN, NY, 14441","Match","Exact","1256 ARROWHEAD BEACH RD, DRESDEN, NY, 14441",15112165,"L"
125559,"1256 ASH AVENUE","NEOGA","IL",62447,39.3281602530001,-88.466415747,59,"1256 ASH AVENUE, NEOGA, IL, 62447","Match","Non_Exact","1256 ASH DR, NEOGA, IL, 62447",5710232,"R"
125560,"1256 BAYRIDGE DRIVE","ATLANTA","GA",30274,NA,NA,60,"1256 BAYRIDGE DRIVE, ATLANTA, GA, 30274","No_Match",NA,NA,NA,NA
125561,"1256 BEECH HOLLOW DR","NASHVILLE","TN",37211,36.0120756150001,-86.732831695,61,"1256 BEECH HOLLOW DR, NASHVILLE, TN, 37211","Match","Exact","1256 BEECH HOLLOW DR, NASHVILLE, TN, 37211",630192851,"R"
125562,"1256 CAMPBELL LANE","BOWLING GREEN","KY",42104,36.9591504050001,-86.450003027,62,"1256 CAMPBELL LANE, BOWLING GREEN, KY, 42104","Match","Exact","1256 CAMPBELL LN, BOWLING GREEN, KY, 42104",639345035,"R"
125563,"1256 CHISHOLM STREET NUMBER 7","NEW YORK","NY",10025,NA,NA,63,"1256 CHISHOLM STREET NUMBER 7, NEW YORK, NY, 10025","No_Match",NA,NA,NA,NA
125564,"1256 CIRCLE TERRACE BLVD NE","COLUMBIA HEIGHTS","MN",55421,45.0418081400001,-93.2419945459999,64,"1256 CIRCLE TERRACE BLVD NE, COLUMBIA HEIGHTS, MN, 55421","Match","Exact","1256 CIRCLE TER BLVD NE, COLUMBIA HEIGHTS, MN, 55421",97493592,"R"
125565,"1256 COOKS ROAD","MOUNT JULIET","TN",37122,36.2517015830001,-86.456898311,65,"1256 COOKS ROAD, MOUNT JULIET, TN, 37122","Match","Exact","1256 COOKS RD, MOUNT JULIET, TN, 37122",89704294,"R"
125566,"1256 DAKOTA STREET","LINCOLN","NE",68502,40.781816984,-96.703523919,66,"1256 DAKOTA STREET, LINCOLN, NE, 68502","Match","Exact","1256 DAKOTA ST, LINCOLN, NE, 68502",28254968,"L"
125567,"1256 DEVENS CT","BRENTWOOD","TN",37027,35.989058109,-86.785502531,67,"1256 DEVENS CT, BRENTWOOD, TN, 37027","Match","Exact","1256 DEVENS CT, BRENTWOOD, TN, 37027",73129269,"L"
125568,"1256 E 13TH STREET APT A8","BROOKLYN","NY",11230,40.618743996,-73.96206953,68,"1256 E 13TH STREET APT A8, BROOKLYN, NY, 11230","Match","Non_Exact","1256 E 13TH ST, BROOKLYN, NY, 11230",59089688,"R"
125569,"1256 E DELANO DR","CASA GRANDE","AZ",85122,NA,NA,69,"1256 E DELANO DR, CASA GRANDE, AZ, 85122","No_Match",NA,NA,NA,NA
125570,"1256 E PROSPECT ST","YORK","PA",17403,39.9617850280001,-76.700222625,70,"1256 E PROSPECT ST, YORK, PA, 17403","Match","Exact","1256 E PROSPECT ST, YORK, PA, 17403",88732274,"R"
125571,"1256 EAST AVENUE Q4","PALMDALE","CA",93550,NA,NA,71,"1256 EAST AVENUE Q4, PALMDALE, CA, 93550","No_Match",NA,NA,NA,NA
125572,"1256 ELK  STREET  APT2","FRANKLIN","PA",16323,41.398725207,-79.82944622,72,"1256 ELK  STREET  APT2, FRANKLIN, PA, 16323","Match","Exact","1256 ELK ST, FRANKLIN, PA, 16323",608469376,"R"
125573,"1256 FIREFLY CIR","COLORADO SPRINGS","CO",80916,38.812446988,-104.74779998,73,"1256 FIREFLY CIR, COLORADO SPRINGS, CO, 80916","Match","Exact","1256 FIREFLY CIR, COLORADO SPRINGS, CO, 80916",617229115,"R"
125574,"1256 FOREST AVENUE","HIGHLAND PARK","IL",60035,42.175281893,-87.7891100579999,74,"1256 FOREST AVENUE, HIGHLAND PARK, IL, 60035","Match","Exact","1256 FOREST AVE, HIGHLAND PARK, IL, 60035",119731853,"L"
125575,"1256 FRANCE STREER","DAPHNE","AL",36526,NA,NA,75,"1256 FRANCE STREER, DAPHNE, AL, 36526","No_Match",NA,NA,NA,NA
125576,"1256 GLENCAIRE DR","WALNUT","CA",91789,33.9966182420001,-117.844978237,76,"1256 GLENCAIRE DR, WALNUT, CA, 91789","Match","Non_Exact","1256 GLENCLAIRE DR, WALNUT, CA, 91789",141776141,"L"
125577,"1256 GOLDFINCH WAY","OCONOMOWOC","WI",53066,43.1298218750001,-88.474542302,77,"1256 GOLDFINCH WAY, OCONOMOWOC, WI, 53066","Match","Exact","1256 GOLDFINCH WAY, OCONOMOWOC, WI, 53066",53850880,"L"
125578,"1256 GRAYLYNN DRIVE","BIRMINGHAM","AL",35216,33.432173189,-86.797866766,78,"1256 GRAYLYNN DRIVE, BIRMINGHAM, AL, 35216","Match","Exact","1256 GRAYLYNN DR, BIRMINGHAM, AL, 35216",81666791,"R"
125579,"1256 HAIHAI ST","HILO","HI",96720,19.671938981,-155.104302307,79,"1256 HAIHAI ST, HILO, HI, 96720","Match","Exact","1256 HAIHAI ST, HILO, HI, 96720",614315402,"R"
125580,"1256 HIGHWAY 159 EAST","BELLVILLE","TX",77418,NA,NA,80,"1256 HIGHWAY 159 EAST, BELLVILLE, TX, 77418","No_Match",NA,NA,NA,NA
125581,"1256 HOMESTEAD DRIVE","VIRGINIA BEACH","VA",23464,36.798770086,-76.1481297509999,81,"1256 HOMESTEAD DRIVE, VIRGINIA BEACH, VA, 23464","Match","Exact","1256 HOMESTEAD DR, VA BCH, VA, 23464",122265180,"L"
125582,"1256 HWY Z","MEXICO","MO",65265,39.318645487,-91.89347064,82,"1256 HWY Z, MEXICO, MO, 65265","Match","Exact","1256 HWY Z, MEXICO, MO, 65265",34314975,"R"
125583,"1256 JUDY AVE","BRIDGEPORT","IL",62417,38.7146007320001,-87.7593546579999,83,"1256 JUDY AVE, BRIDGEPORT, IL, 62417","Match","Exact","1256 JUDY AVE, BRIDGEPORT, IL, 62417",29660399,"L"
125584,"1256 KENNEDY COURT","CHAMBERSBURG","PA",17202,39.9009370430001,-77.597427285,84,"1256 KENNEDY COURT, CHAMBERSBURG, PA, 17202","Match","Exact","1256 KENNEDY CT, CHAMBERSBURG, PA, 17202",60085392,"R"
125585,"1256 LINDEN AVE","ARBUTUS","MD",21227,39.252324107,-76.695925017,85,"1256 LINDEN AVE, ARBUTUS, MD, 21227","Match","Exact","1256 LINDEN AVE, ARBUTUS, MD, 21227",191485425,"L"
125586,"1256 LOCH TANNA LOOP","ST JOHNS","FL",32259,30.1048146300001,-81.57673856,86,"1256 LOCH TANNA LOOP, ST JOHNS, FL, 32259","Match","Exact","1256 LOCH TANNA LOOP, SAINT JOHNS, FL, 32259",92635383,"L"
125587,"1256 MC 462","FOUKE","AR",71837,NA,NA,87,"1256 MC 462, FOUKE, AR, 71837","No_Match",NA,NA,NA,NA
125588,"1256 MILLBROOK RD","CORONA","CA",92882,33.855276272,-117.590792008,88,"1256 MILLBROOK RD, CORONA, CA, 92882","Match","Exact","1256 MILLBROOK RD, CORONA, CA, 92882",195083994,"L"
125589,"1256 N STATE HWY 309","PARIS","AR",72855,35.3026731190001,-93.731033794,89,"1256 N STATE HWY 309, PARIS, AR, 72855","Match","Exact","1256 STATE HWY 309, PARIS, AR, 72855",81481085,"R"
125590,"1256 NEWPORT AVE SW","BANDON","OR",97411,43.11195035,-124.430575256,90,"1256 NEWPORT AVE SW, BANDON, OR, 97411","Match","Exact","1256 NEWPORT AVE SW, BANDON, OR, 97411",136994491,"R"
125591,"1256 NEWTON STREET APT 1","AKRON","OH",44305,41.072962981,-81.477509098,91,"1256 NEWTON STREET APT 1, AKRON, OH, 44305","Match","Exact","1256 NEWTON ST, AKRON, OH, 44305",61350965,"R"
125592,"1256 NORTH 51ST STREET","FAYETTEVILLE","AR",72704,36.080342902,-94.233048616,92,"1256 NORTH 51ST STREET, FAYETTEVILLE, AR, 72704","Match","Non_Exact","1256 N 51ST AVE, FAYETTEVILLE, AR, 72704",49042022,"R"
125593,"1256 OAK ST","OCOEE","FL",34761,28.566267049,-81.52737768,93,"1256 OAK ST, OCOEE, FL, 34761","Match","Exact","1256 OAK ST, OCOEE, FL, 34761",94321636,"R"
125594,"1256 OAK STREET","NAPA","CA",94559,38.2936565040001,-122.285600853,94,"1256 OAK STREET, NAPA, CA, 94559","Match","Exact","1256 OAK ST, NAPA, CA, 94559",67417001,"R"
125595,"1256 OLDE FARM ROAD APT 108","SCHAUMBURG","IL",60173,42.0737924630001,-88.048762955,95,"1256 OLDE FARM ROAD APT 108, SCHAUMBURG, IL, 60173","Match","Non_Exact","1256 OLDE FARM RD, SCHAUMBURG, IL, 60173",112375647,"R"
125596,"1256 PARK RD","HENDERSON","TN",38340,35.463561998,-88.657547122,96,"1256 PARK RD, HENDERSON, TN, 38340","Match","Exact","1256 PARK RD, HENDERSON, TN, 38340",21079540,"R"
125597,"1256 PATTON STREET","PITTSBURGH","PA",15221,40.4359984270001,-79.8742216699999,97,"1256 PATTON STREET, PITTSBURGH, PA, 15221","Match","Exact","1256 PATTON ST, PITTSBURGH, PA, 15221",51653931,"R"
125598,"1256 POMEROY ROAD","ARROYO GRANDE","CA",93420,35.0576166660001,-120.52763549,98,"1256 POMEROY ROAD, ARROYO GRANDE, CA, 93420","Match","Exact","1256 POMEROY RD, ARROYO GRANDE, CA, 93420",629269364,"R"
125599,"1256 RIPLEY EE1","DONIPHAN","MO",63935,NA,NA,99,"1256 RIPLEY EE1, DONIPHAN, MO, 63935","No_Match",NA,NA,NA,NA
125600,"1256 ROCKBRIDGE ROAD","CONYERS","GA",30012,33.677023154,-84.029735589,100,"1256 ROCKBRIDGE ROAD, CONYERS, GA, 30012","Match","Exact","1256 ROCKBRIDGE RD, CONYERS, GA, 30012",649308257,"L"
125601,"1256 S PARKCREST","MESA","AZ",85206,33.3920071090001,-111.733755342,101,"1256 S PARKCREST, MESA, AZ, 85206","Match","Exact","1256 S PARKCREST, MESA, AZ, 85206",642854076,"R"
125602,"1256 S RENO RD","SPRINGTOWN","TX",76082,32.9294923080001,-97.595327608,102,"1256 S RENO RD, SPRINGTOWN, TX, 76082","Match","Exact","1256 S RENO RD, SPRINGTOWN, TX, 76082",636351207,"R"
125603,"1256 SAGUARO RD","GREENVILLE","NC",27834,35.6529417670001,-77.426299919,103,"1256 SAGUARO RD, GREENVILLE, NC, 27834","Match","Exact","1256 SAGUARO RD, GREENVILLE, NC, 27834",80026019,"L"
125604,"1256 SCOTTSGATE CT S","XENIA","OH",45385,39.722981964,-83.992719785,104,"1256 SCOTTSGATE CT S, XENIA, OH, 45385","Match","Exact","1256 SCOTTSGATE CT S, XENIA, OH, 45385",143410901,"L"
125605,"1256 SHEPHERD LANE","CINCINNATI","OH",45215,39.235965476,-84.454941193,105,"1256 SHEPHERD LANE, CINCINNATI, OH, 45215","Match","Exact","1256 SHEPHERD LN, CINCINNATI, OH, 45215",103927117,"R"
125606,"1256 SIERRA COURT","GARDENDALE","AL",35071,33.636480464,-86.856855309,106,"1256 SIERRA COURT, GARDENDALE, AL, 35071","Match","Exact","1256 SIERRA CT, GARDENDALE, AL, 35071",81771102,"R"
125607,"1256 SMITH ST","GREEN BAY","WI",54302,44.517021599,-87.992835553,107,"1256 SMITH ST, GREEN BAY, WI, 54302","Match","Exact","1256 SMITH ST, GREEN BAY, WI, 54302",148102685,"R"
125608,"1256 SUBSTATION RD","WALDORF","MD",20601,NA,NA,108,"1256 SUBSTATION RD, WALDORF, MD, 20601","No_Match",NA,NA,NA,NA
125609,"1256 SUMMER LN","JACKSON","MS",39211,32.3862494520001,-90.134785205,109,"1256 SUMMER LN, JACKSON, MS, 39211","Match","Exact","1256 SUMMER LN, JACKSON, MS, 39211",65361061,"L"
125610,"1256 SUTTON RD","CINCINNATI","OH",45230,39.0766329690001,-84.391809493,110,"1256 SUTTON RD, CINCINNATI, OH, 45230","Match","Exact","1256 SUTTON RD, CINCINNATI, OH, 45230",647384658,"R"
125611,"1256 THOMPSON AVE","SEVERN","MD",21144,39.129387466,-76.680349862,111,"1256 THOMPSON AVE, SEVERN, MD, 21144","Match","Exact","1256 THOMPSON AVE, SEVERN, MD, 21144",635581186,"R"
125612,"1256 W 133RD CIRCLE","WESTMINSTER","CO",80234,39.9380436260001,-105.001943132,112,"1256 W 133RD CIRCLE, WESTMINSTER, CO, 80234","Match","Exact","1256 W 133RD CIR, WESTMINSTER, CO, 80234",177411492,"R"
125613,"1256 W 26TH STREET","RIVIERA BEACH","FL",33404,26.783615792,-80.0747502739999,113,"1256 W 26TH STREET, RIVIERA BEACH, FL, 33404","Match","Exact","1256 W 26TH ST, RIVIERA BEACH, FL, 33404",115275922,"R"
125614,"1256 W 59TH ST","KANSAS CITY","MO",64113,39.0210169980001,-94.6052740919999,114,"1256 W 59TH ST, KANSAS CITY, MO, 64113","Match","Exact","1256 W 59TH ST, KANSAS CITY, MO, 64113",91447007,"R"
125615,"1256 W LATHROP RD  SUITE 108","MANTECA","CA",95336,NA,NA,115,"1256 W LATHROP RD  SUITE 108, MANTECA, CA, 95336","No_Match",NA,NA,NA,NA
125616,"1256 WATER LILY WAY","SAN JOSE","CA",95129,NA,NA,116,"1256 WATER LILY WAY, SAN JOSE, CA, 95129","No_Match",NA,NA,NA,NA
125617,"1256 WEST NATHROP RD 203","MANTECA","CA",95336,NA,NA,117,"1256 WEST NATHROP RD 203, MANTECA, CA, 95336","No_Match",NA,NA,NA,NA
125618,"1256 WEST WEBSTER AVENUE","CHICAGO","IL",60614,41.921652669,-87.660302144,118,"1256 WEST WEBSTER AVENUE, CHICAGO, IL, 60614","Match","Exact","1256 W WEBSTER AVE, CHICAGO, IL, 60614",605243402,"R"
125619,"1256 WHITEHORN ROAD","COVINGTON","TN",38019,35.4934065620001,-89.551661466,119,"1256 WHITEHORN ROAD, COVINGTON, TN, 38019","Match","Exact","1256 WHITEHORN RD, COVINGTON, TN, 38019",73173816,"R"
125620,"12560 ARROWWOOD LANE","BELVIDERE","IL",61008,42.334505542,-88.870047469,120,"12560 ARROWWOOD LANE, BELVIDERE, IL, 61008","Match","Exact","12560 ARROWWOOD LN, BELVIDERE, IL, 61008",647163387,"L"
125621,"12560 COUNTY ROAD 1500 E","MCLENANSBORO","IL",62859,38.0869983740001,-88.4281316029999,121,"12560 COUNTY ROAD 1500 E, MCLENANSBORO, IL, 62859","Match","Non_Exact","12560 CO RD 1500 E, MC LEANSBORO, IL, 62859",93012905,"R"
125622,"12560 ELK ROCK ROAD","LAKE OSWEGO","OR",97034,45.433537786,-122.653391285,122,"12560 ELK ROCK ROAD, LAKE OSWEGO, OR, 97034","Match","Exact","12560 ELK ROCK RD, LAKE OSWEGO, OR, 97034",633212478,"R"
125623,"12560 ENGLAND AVENUE","BATON ROUGE","LA",70814,30.483369958,-91.043853798,123,"12560 ENGLAND AVENUE, BATON ROUGE, LA, 70814","Match","Exact","12560 ENGLAND AVE, BATON ROUGE, LA, 70814",92211481,"L"
125624,"12560 FM 2410","BELTON","TX",76513,NA,NA,124,"12560 FM 2410, BELTON, TX, 76513","No_Match",NA,NA,NA,NA
125625,"12560 LICKING CREEK CT","MERCERSBURG","PA",17236,39.7780935930001,-77.930858485,125,"12560 LICKING CREEK CT, MERCERSBURG, PA, 17236","Match","Exact","12560 LICKING CREEK CT, MERCERSBURG, PA, 17236",605523760,"L"
125626,"12560 MAJESTY CIRCLE 207","BOYNTON BEACH","FL",33437,26.489076293,-80.136588842,126,"12560 MAJESTY CIRCLE 207, BOYNTON BEACH, FL, 33437","Match","Exact","12560 MAJESTY CIR, BOYNTON BEACH, FL, 33437",115533533,"R"
125627,"12560 SENDA PANACEA","SAN DIEGO","CA",92129,32.9499099400001,-117.148223883,127,"12560 SENDA PANACEA, SAN DIEGO, CA, 92129","Match","Exact","12560 SENDA PANACEA, SAN DIEGO, CA, 92129",645318999,"R"
125628,"12560 TOWNHILL COURT","VICTORVILLE","CA",92392,34.478462317,-117.384245041,128,"12560 TOWNHILL COURT, VICTORVILLE, CA, 92392","Match","Exact","12560 TOWNHILL CT, VICTORVILLE, CA, 92392",144746001,"L"
125629,"12561 ANAND BROOK DR","ORLAND PARK","IL",60467,41.641869559,-87.925264069,129,"12561 ANAND BROOK DR, ORLAND PARK, IL, 60467","Match","Exact","12561 ANAND BROOK DR, ORLAND PARK, IL, 60467",111615942,"R"
125630,"12561 LAKESIDE PARKWAY","FAYETTEVILLE","GA",30215,33.413033807,-84.3926021189999,130,"12561 LAKESIDE PARKWAY, FAYETTEVILLE, GA, 30215","Match","Exact","12561 LAKESIDE PKWY, FAYETTEVILLE, GA, 30215",632412533,"L"
125631,"12561 LOCKHAVEN DRIVE","BATON ROUGE","LA",70815,30.4560172450001,-91.043163083,131,"12561 LOCKHAVEN DRIVE, BATON ROUGE, LA, 70815","Match","Non_Exact","12561 LOCKHAVEN AVE, BATON ROUGE, LA, 70815",92209104,"L"
125632,"12561 S HAAS DR","PALOS PARK","IL",60464,41.6618456460001,-87.881413604,132,"12561 S HAAS DR, PALOS PARK, IL, 60464","Match","Exact","12561 HAAS DR, PALOS PARK, IL, 60464",111860825,"R"
125633,"12562 DALE ST UNIT 41","GARDEN GROVE","CA",92841,33.7800651480001,-117.98402212,133,"12562 DALE ST UNIT 41, GARDEN GROVE, CA, 92841","Match","Non_Exact","12562 DALE AVE, GARDEN GROVE, CA, 92841",144117150,"L"
125634,"12562 DALE STREET STE 45","GARDEN GROVE","CA",92841,33.7800651480001,-117.98402212,134,"12562 DALE STREET STE 45, GARDEN GROVE, CA, 92841","Match","Non_Exact","12562 DALE AVE, GARDEN GROVE, CA, 92841",144117150,"L"
125635,"12562 DALE STREET UNIT 41","GARDEN GROVE","CA",92841,33.7800651480001,-117.98402212,135,"12562 DALE STREET UNIT 41, GARDEN GROVE, CA, 92841","Match","Non_Exact","12562 DALE AVE, GARDEN GROVE, CA, 92841",144117150,"L"
125636,"12562 DALE STREET","GARDEN GROVE","CA",92841,33.7800651480001,-117.98402212,136,"12562 DALE STREET, GARDEN GROVE, CA, 92841","Match","Non_Exact","12562 DALE AVE, GARDEN GROVE, CA, 92841",144117150,"L"
125637,"12562 NEWPORT AVENUE","TUSTIN","CA",92780,33.754193355,-117.806112702,137,"12562 NEWPORT AVENUE, TUSTIN, CA, 92780","Match","Exact","12562 NEWPORT AVE, TUSTIN, CA, 92780",144086250,"L"
125638,"12562 VALLE DEZAVALA","SAN ANTONIO","TX",78249,29.5661347710001,-98.60562384,138,"12562 VALLE DEZAVALA, SAN ANTONIO, TX, 78249","Match","Exact","12562 VALLE DEZAVALA, SAN ANTONIO, TX, 78249",101558318,"R"
125639,"12562","JACKSONVILLE","FL",32225,NA,NA,139,"12562, JACKSONVILLE, FL, 32225","No_Match",NA,NA,NA,NA
125640,"12563 82ND AVE N","SEMINOLE","FL",33776,27.847293022,-82.812245445,140,"12563 82ND AVE N, SEMINOLE, FL, 33776","Match","Exact","12563 82ND AVE N, SEMINOLE, FL, 33776",124690332,"R"
125641,"12563 EBY STREET","OVERLAND PARK","KS",66213,38.9011440310001,-94.6916481279999,141,"12563 EBY STREET, OVERLAND PARK, KS, 66213","Match","Exact","12563 EBY ST, OVERLAND PARK, KS, 66213",91306788,"R"
125642,"12563 REGINALD DR","JACKSONVILLE","FL",32246,30.310316245,-81.474555508,142,"12563 REGINALD DR, JACKSONVILLE, FL, 32246","Match","Exact","12563 REGINALD DR, JACKSONVILLE, FL, 32246",83941945,"R"
125643,"12563 RIVER ROAD","LULING","LA",70003,29.931723248,-90.351065455,143,"12563 RIVER ROAD, LULING, LA, 70003","Match","Non_Exact","12563 RIVER RD, LULING, LA, 70070",93628125,"R"
125644,"12563 RIVER ROAD","LULING","LA",70070,29.931723248,-90.351065455,144,"12563 RIVER ROAD, LULING, LA, 70070","Match","Exact","12563 RIVER RD, LULING, LA, 70070",93628125,"R"
125645,"12563","SEMINOLE","FL",33776,NA,NA,145,"12563, SEMINOLE, FL, 33776","No_Match",NA,NA,NA,NA
125646,"12564 CENTRAL AVE C","CHINO","CA",91710,34.024596955,-117.689410954,146,"12564 CENTRAL AVE C, CHINO, CA, 91710","Match","Exact","12564 CENTRAL AVE, CHINO, CA, 91710",144673009,"R"
125647,"12564 DEER RIDGE TRAIL","NAMPA","ID",83686,43.495399433,-116.645603192,147,"12564 DEER RIDGE TRAIL, NAMPA, ID, 83686","Match","Exact","12564 DEER RIDGE TRL, NAMPA, ID, 83686",122837092,"L"
125648,"12564 DEWHURST CIRCLE","JACKSONVILLE","FL",32219,30.4534420470001,-81.756980519,148,"12564 DEWHURST CIRCLE, JACKSONVILLE, FL, 32219","Match","Non_Exact","12564 DEWHURST CIR, JACKSONVILLE, FL, 32218",641026669,"R"
125649,"12564 E PACIFIC CIR UNIT A","AURORA","CO",80014,39.6781257920001,-104.841626464,149,"12564 E PACIFIC CIR UNIT A, AURORA, CO, 80014","Match","Non_Exact","12564 E PACIFIC CIR, AURORA, CO, 80014",177523954,"R"
125650,"12564 OAKPLAZA APT 77","OMAHA","NE",68144,NA,NA,150,"12564 OAKPLAZA APT 77, OMAHA, NE, 68144","No_Match",NA,NA,NA,NA
125651,"12565 304TH AVE","SELBY","SD",57472,45.569461335,-100.099797757,151,"12565 304TH AVE, SELBY, SD, 57472","Match","Exact","12565 304TH AVE, SELBY, SD, 57472",198549529,"L"
125652,"12565 42ND AVE NE","SEATTLE","WA",98125,47.7202967860001,-122.28308666,152,"12565 42ND AVE NE, SEATTLE, WA, 98125","Match","Exact","12565 42ND AVE NE, SEATTLE, WA, 98125",636482910,"L"
125653,"12565 BROOK LANE","CHESTER","VA",23831,37.3518056840001,-77.428667505,153,"12565 BROOK LANE, CHESTER, VA, 23831","Match","Exact","12565 BROOK LN, CHESTER, VA, 23831",201550988,"L"
125654,"12565 CHOCTAW RIDGE","VALLEY CENTER","CA",92082,33.236278817,-117.060020177,154,"12565 CHOCTAW RIDGE, VALLEY CENTER, CA, 92082","Match","Non_Exact","12565 CHOCTAW RIDGE RD, VALLEY CENTER, CA, 92082",624892500,"R"
125655,"12565 FOX ROAD","YORKVILLE","IL",60560,NA,NA,155,"12565 FOX ROAD, YORKVILLE, IL, 60560","No_Match",NA,NA,NA,NA
125656,"12565 S HORSESHOE LANE","MANHATTEN","IL",60442,41.458946014,-87.9190265889999,156,"12565 S HORSESHOE LANE, MANHATTEN, IL, 60442","Match","Non_Exact","12565 HORSESHOE LN, MANHATTAN, IL, 60442",111617078,"R"
125657,"12565 SAMPSON ROAD","JACKSONVILLE","FL",32218,30.462853459,-81.686038219,157,"12565 SAMPSON ROAD, JACKSONVILLE, FL, 32218","Match","Exact","12565 SAMPSON RD, JACKSONVILLE, FL, 32218",83939521,"L"
125658,"12565 STONE LINED CIRCLE","WOODBRIDGE","VA",22192,38.681511491,-77.346773164,158,"12565 STONE LINED CIRCLE, WOODBRIDGE, VA, 22192","Match","Exact","12565 STONE LINED CIR, WOODBRIDGE, VA, 22192",641114157,"L"
125659,"12565 VAUGHN STREET","EAST CONCORD","NY",14055,42.5334313020001,-78.64073381,159,"12565 VAUGHN STREET, EAST CONCORD, NY, 14055","Match","Exact","12565 VAUGHN ST, EAST CONCORD, NY, 14055",48280137,"R"
125660,"12565","SEATTLE","WA",98125,NA,NA,160,"12565, SEATTLE, WA, 98125","No_Match",NA,NA,NA,NA
125661,"125655 FLATWOOD CREEK DRIVE","GIBSONTON","FL",33534,NA,NA,161,"125655 FLATWOOD CREEK DRIVE, GIBSONTON, FL, 33534","No_Match",NA,NA,NA,NA
125662,"12566 ARMADA PL","WOODBRIDGE","VA",22912,38.6810514060001,-77.294933837,162,"12566 ARMADA PL, WOODBRIDGE, VA, 22912","Match","Non_Exact","12566 ARMADA PL, WOODBRIDGE, VA, 22192",76519251,"L"
125663,"12566 CLEARVIEW LANE","INDIANAPOLIS","IN",46236,39.8969488070001,-85.943385689,163,"12566 CLEARVIEW LANE, INDIANAPOLIS, IN, 46236","Match","Exact","12566 CLEARVIEW LN, INDIANAPOLIS, IN, 46236",108044319,"R"
125664,"12566 E WEST MAPLE RD","WALLED LAKE","MI",48390,NA,NA,164,"12566 E WEST MAPLE RD, WALLED LAKE, MI, 48390","No_Match",NA,NA,NA,NA
125665,"12566 EMPOLI COURT","FORT WAYNE","IN",46845,41.198733599,-85.149982199,165,"12566 EMPOLI COURT, FORT WAYNE, IN, 46845","Match","Exact","12566 EMPOLI CT, FORT WAYNE, IN, 46845",646574923,"R"
125666,"12567 PERCY LANE","JACKSONVILLE","FL",32218,30.4622818990001,-81.6934703429999,166,"12567 PERCY LANE, JACKSONVILLE, FL, 32218","Match","Exact","12567 PERCY LN, JACKSONVILLE, FL, 32218",83933552,"L"
125667,"12567 SATLFORD CIRCLE","FISHERS","IN",46037,NA,NA,167,"12567 SATLFORD CIRCLE, FISHERS, IN, 46037","No_Match",NA,NA,NA,NA
125668,"12567 UPPER FRED ROAD","MOUNT VERNON","OH",43050,NA,NA,168,"12567 UPPER FRED ROAD, MOUNT VERNON, OH, 43050","No_Match",NA,NA,NA,NA
125669,"12567 US HWY 18","HOT SPRINGS","SD",57747,43.4190415830001,-103.546686084,169,"12567 US HWY 18, HOT SPRINGS, SD, 57747","Match","Exact","12567 US HWY 18, HOT SPRINGS, SD, 57747",647649690,"R"
125670,"12567 W CEDAR DRIVE UNIT 100","LAKEWOOD","CO",80228,39.7122274590001,-105.141009388,170,"12567 W CEDAR DRIVE UNIT 100, LAKEWOOD, CO, 80228","Match","Non_Exact","12567 W CEDAR DR, LAKEWOOD, CO, 80228",177800786,"R"
125671,"12568 BURNINGLOG LN","DALLAS","TX",75243,32.9177270910001,-96.736263824,171,"12568 BURNINGLOG LN, DALLAS, TX, 75243","Match","Exact","12568 BURNINGLOG LN, DALLAS, TX, 75243",102914645,"R"
125672,"12568 EVERGLADE STREET","LOS ANGELES","CA",90066,34.0116502000001,-118.442686094,172,"12568 EVERGLADE STREET, LOS ANGELES, CA, 90066","Match","Exact","12568 EVERGLADE ST, LOS ANGELES, CA, 90066",141570323,"R"
125673,"12568 KINGSTON PIKE","KNOXVILLE","TN",37934,35.8665067540001,-84.200489131,173,"12568 KINGSTON PIKE, KNOXVILLE, TN, 37934","Match","Exact","12568 KINGSTON PIKE, KNOXVILLE, TN, 37934",42601962,"L"
125674,"12568 MACARTHUR DR","TRACY","CA",95304,NA,NA,174,"12568 MACARTHUR DR, TRACY, CA, 95304","No_Match",NA,NA,NA,NA
125675,"12568 N ANGELS GATE","HIGHLAND","UT",84003,40.4593845110001,-111.803398599,175,"12568 N ANGELS GATE, HIGHLAND, UT, 84003","Match","Exact","12568 ANGELS GATE, HIGHLAND, UT, 84003",625702234,"L"
125676,"12568 NW GROVESHIRE AVE","BANKS","OR",97106,45.6111088600001,-123.108188905,176,"12568 NW GROVESHIRE AVE, BANKS, OR, 97106","Match","Exact","12568 NW GROVESHIRE AVE, BANKS, OR, 97106",158214354,"L"
125677,"12568 ROUTE 23","ASHLAND","NY",12407,NA,NA,177,"12568 ROUTE 23, ASHLAND, NY, 12407","No_Match",NA,NA,NA,NA
125678,"12569 88TH PL N","MAPLE GROVE","MN",55311,45.115608308,-93.4402813469999,178,"12569 88TH PL N, MAPLE GROVE, MN, 55311","Match","Non_Exact","12569 88TH PL N, MAPLE GROVE, MN, 55369",43843712,"L"
125679,"12569 FLATFOOT RD","STONEY CREEK","VA",23882,36.9469637780001,-77.404845135,179,"12569 FLATFOOT RD, STONEY CREEK, VA, 23882","Match","Non_Exact","12569 FLATFOOT RD, STONY CREEK, VA, 23882",168088564,"L"
125680,"12569 NARCOOSSEE ROAD","ORLANDO","FL",32832,28.384345458,-81.244370706,180,"12569 NARCOOSSEE ROAD, ORLANDO, FL, 32832","Match","Exact","12569 NARCOOSSEE RD, ORLANDO, FL, 32832",646791656,"L"
125681,"12569 PINE MARSH WAY","JACKSONVILLE","FL",32226,30.467518924,-81.555712833,181,"12569 PINE MARSH WAY, JACKSONVILLE, FL, 32226","Match","Exact","12569 PINE MARSH WAY, JACKSONVILLE, FL, 32226",614103156,"R"
125682,"12569 STONE TOWER LOOP","FORT MYERS","FL",33913,26.60000158,-81.751710864,182,"12569 STONE TOWER LOOP, FORT MYERS, FL, 33913","Match","Exact","12569 STONE TOWER LOOP, FORT MYERS, FL, 33913",619079667,"R"
125683,"12569 SUMMIT MANOR DR 303","FAIRFAX","VA",22033,38.867069572,-77.380282369,183,"12569 SUMMIT MANOR DR 303, FAIRFAX, VA, 22033","Match","Exact","12569 SUMMIT MANOR DR, FAIRFAX, VA, 22033",76041685,"L"
125684,"12569 SUMMIT MANOR DRIVE APT 303","FAIRFAX","VA",22033,38.867069572,-77.380282369,184,"12569 SUMMIT MANOR DRIVE APT 303, FAIRFAX, VA, 22033","Match","Exact","12569 SUMMIT MANOR DR, FAIRFAX, VA, 22033",76041685,"L"
125685,"12569 WISSANT LANE","ST. LOUIS","MO",63146,38.698317849,-90.4634407789999,185,"12569 WISSANT LANE, ST. LOUIS, MO, 63146","Match","Exact","12569 WISSANT LN, SAINT LOUIS, MO, 63146",641802406,"R"
125686,"1256NE 184TH PL","SHORELINE","WA",98155,47.762696652,-122.314401354,186,"1256NE 184TH PL, SHORELINE, WA, 98155","Match","Non_Exact","1256 NE 184TH PL, SHORELINE, WA, 98155",186575746,"L"
125687,"1257 11TH AVENUE SOUTH","NASHVILLE","TN",37203,36.140393917,-86.785880692,187,"1257 11TH AVENUE SOUTH, NASHVILLE, TN, 37203","Match","Exact","1257 11TH AVE S, NASHVILLE, TN, 37203",636664425,"L"
125688,"1257 140TH STREET","BEJOU","MN",56516,47.4413539110001,-96.008726291,188,"1257 140TH STREET, BEJOU, MN, 56516","Match","Exact","1257 140TH ST, BEJOU, MN, 56516",606428025,"L"
125689,"1257 19TH AVE","SAN FRANCISCO","CA",94122,37.764361889,-122.477302529,189,"1257 19TH AVE, SAN FRANCISCO, CA, 94122","Match","Exact","1257 19TH AVE, SAN FRANCISCO, CA, 94122",640954329,"R"
125690,"1257 340TH STREET","BELLINGHAM","MN",56212,45.1534952550001,-96.40164451,190,"1257 340TH STREET, BELLINGHAM, MN, 56212","Match","Exact","1257 340TH ST, BELLINGHAM, MN, 56212",165079524,"R"
125691,"1257 50TH STREET","BROOKLYN","NY",11219,40.6350426320001,-73.993638281,191,"1257 50TH STREET, BROOKLYN, NY, 11219","Match","Exact","1257 50TH ST, BROOKLYN, NY, 11219",59080200,"L"
125692,"1257 BAGLEY","DETROIT","MI",48226,42.3308089490001,-83.0624852459999,192,"1257 BAGLEY, DETROIT, MI, 48226","Match","Non_Exact","1257 BAGLEY ST, DETROIT, MI, 48226",95479503,"L"
125693,"1257 BARKS ROAD EAST","MARION","OH",43302,40.5640590130001,-83.0904110929999,193,"1257 BARKS ROAD EAST, MARION, OH, 43302","Match","Exact","1257 BARKS RD E, MARION, OH, 43302",12709960,"R"
125694,"1257 BLISS RD","WHITE RIVER JUNCTION","VT",5001,43.640871685,-72.384906814,194,"1257 BLISS RD, WHITE RIVER JUNCTION, VT, 5001","Match","Exact","1257 BLISS RD, WHITE RIVER JUNCTION, VT, 05001",631847105,"R"
125695,"1257 BLUEBIRD AVENUE","MARCO ISLAND","FL",34145,25.9550659430001,-81.715971312,195,"1257 BLUEBIRD AVENUE, MARCO ISLAND, FL, 34145","Match","Exact","1257 BLUEBIRD AVE, MARCO ISLAND, FL, 34145",115122238,"R"
125696,"1257 CHASE AVE","LAKEWOOD","OH",44107,41.489426983,-81.790927939,196,"1257 CHASE AVE, LAKEWOOD, OH, 44107","Match","Exact","1257 CHASE AVE, LAKEWOOD, OH, 44107",61100356,"L"
125697,"1257 COLTONS MILL ROAD","BEDFORD","VA",24523,37.463938012,-79.466419493,197,"1257 COLTONS MILL ROAD, BEDFORD, VA, 24523","Match","Exact","1257 COLTONS MILL RD, BEDFORD, VA, 24523",62631263,"R"
125698,"1257 CRESTRIDGE LN","RIVERDALE","GA",30296,33.541121763,-84.4323125179999,198,"1257 CRESTRIDGE LN, RIVERDALE, GA, 30296","Match","Exact","1257 CRESTRIDGE LN, RIVERDALE, GA, 30296",23328841,"R"
125699,"1257 CUMBERLAND RD","ATLANTA","GA",30306,33.7944048040001,-84.346025509,199,"1257 CUMBERLAND RD, ATLANTA, GA, 30306","Match","Non_Exact","1257 CUMBERLAND RD NE, ATLANTA, GA, 30306",651706972,"R"
125700,"1257 DEPUGH ST","ALTAMONTE SPRINGS","FL",32701,28.664987443,-81.347579658,200,"1257 DEPUGH ST, ALTAMONTE SPRINGS, FL, 32701","Match","Exact","1257 DEPUGH ST, ALTAMONTE SPRINGS, FL, 32701",93743379,"R"
125701,"1257 DUNDEE DR","CANTON","MI",48188,42.2976394720001,-83.45535209,201,"1257 DUNDEE DR, CANTON, MI, 48188","Match","Exact","1257 DUNDEE DR, CANTON, MI, 48188",95698487,"L"
125702,"1257 E 100 S","SALT LAKE CITY","UT",84102,40.767186845,-111.854852011,202,"1257 E 100 S, SALT LAKE CITY, UT, 84102","Match","Exact","1257 E 100 S, SALT LAKE CITY, UT, 84102",176120094,"L"
125703,"1257 E 3000 NORTH RD","CLIFTON","IL",60927,40.9447015440001,-87.89385965,203,"1257 E 3000 NORTH RD, CLIFTON, IL, 60927","Match","Exact","1257 E 3000 N RD, CLIFTON, IL, 60927",90766625,"R"
125704,"1257 E OGORMAN CT","SPRINGFIELD","MO",65803,37.267752327,-93.272821612,204,"1257 E OGORMAN CT, SPRINGFIELD, MO, 65803","Match","Non_Exact","1257 E O GORMAN CT, SPRINGFIELD, MO, 65803",605854672,"L"
125705,"1257 EAST 18TH STREET APT 1R","BROOKLYN","NY",11230,40.619861541,-73.957462968,205,"1257 EAST 18TH STREET APT 1R, BROOKLYN, NY, 11230","Match","Exact","1257 E 18TH ST, BROOKLYN, NY, 11230",59101774,"L"
125706,"1257 EASTERN PKWY","LOUISVILLE","KY",40204,38.226023753,-85.722204075,206,"1257 EASTERN PKWY, LOUISVILLE, KY, 40204","Match","Exact","1257 EASTERN PKWY, LOUISVILLE, KY, 40204",96847338,"L"
125707,"1257 EASTERN PLACE","GRAND RAPIDS","MI",49505,42.9864715680001,-85.6494972679999,207,"1257 EASTERN PLACE, GRAND RAPIDS, MI, 49505","Match","Non_Exact","1257 EASTERN PL NE, GRAND RAPIDS, MI, 49505",12459889,"L"
125708,"1257 ELSIE ST","FORT ATKSINSON","WI",53538,42.933796005,-88.8548429049999,208,"1257 ELSIE ST, FORT ATKSINSON, WI, 53538","Match","Non_Exact","1257 ELSIE ST, FORT ATKINSON, WI, 53538",53240951,"L"
125709,"1257 GLENHURST DRIVE","LODI","CA",95240,38.1176313720001,-121.286694171,209,"1257 GLENHURST DRIVE, LODI, CA, 95240","Match","Exact","1257 GLENHURST DR, LODI, CA, 95240",133840811,"R"
125710,"1257 GRANVIA VALMONTE","PALM SPRINGS","CA",92262,33.8321667220001,-116.532089749,210,"1257 GRANVIA VALMONTE, PALM SPRINGS, CA, 92262","Match","Non_Exact","1257 E GRANVIA VALMONTE, PALM SPRINGS, CA, 92262",194763488,"R"
125711,"1257 HALDEMAN ROAD","MOREHEAD","KY",40351,38.2452750690001,-83.323767812,211,"1257 HALDEMAN ROAD, MOREHEAD, KY, 40351","Match","Exact","1257 HALDEMAN RD, MOREHEAD, KY, 40351",39633811,"R"
125712,"1257 HAWK DRIVE","CENTRAL POINT","OR",97502,42.3888886,-122.896713899,212,"1257 HAWK DRIVE, CENTRAL POINT, OR, 97502","Match","Exact","1257 HAWK DR, CENTRAL POINT, OR, 97502",155563090,"R"
125713,"1257 HERKIMER ROAD","BRICK","NJ",8724,40.121118305,-74.120903262,213,"1257 HERKIMER ROAD, BRICK, NJ, 8724","Match","Exact","1257 HERKIMER RD, BRICK, NJ, 08724",203731938,"R"
125714,"1257 HIGH ST","WILLIAMSPORT","PA",17701,41.2445087350001,-77.0316881969999,214,"1257 HIGH ST, WILLIAMSPORT, PA, 17701","Match","Exact","1257 HIGH ST, WILLIAMSPORT, PA, 17701",59445044,"L"
125715,"1257 HUNTINGTON DRIVE","SOUTH PASADENA","CA",91031,34.1026017230001,-118.15453468,215,"1257 HUNTINGTON DRIVE, SOUTH PASADENA, CA, 91031","Match","Non_Exact","1257 HUNTINGTON DR, SOUTH PASADENA, CA, 91030",640121388,"R"
125716,"1257 INDIAN HILL RD","TOMS RIVER","NJ",8753,39.997833406,-74.1750322679999,216,"1257 INDIAN HILL RD, TOMS RIVER, NJ, 8753","Match","Exact","1257 INDIAN HILL RD, TOMS RIVER, NJ, 08753",203843471,"R"
125717,"1257 IOWA STREET","PELLA","IA",50219,41.37982097,-92.9571427939999,217,"1257 IOWA STREET, PELLA, IA, 50219","Match","Exact","1257 IOWA ST, PELLA, IA, 50219",89486504,"L"
125718,"1257 JOHN RILEY BARNHILL ROAD","BAKER","FL",32531,30.85538218,-86.686290392,218,"1257 JOHN RILEY BARNHILL ROAD, BAKER, FL, 32531","Match","Exact","1257 JOHN RILEY BARNHILL RD, BAKER, FL, 32531",74451680,"R"
125719,"1257 KINCAID STREET","DUPONT","WA",98327,NA,NA,219,"1257 KINCAID STREET, DUPONT, WA, 98327","No_Match",NA,NA,NA,NA
125720,"1257 LA LOMA RD","PASADENA","CA",91105,34.130987797,-118.174827277,220,"1257 LA LOMA RD, PASADENA, CA, 91105","Match","Exact","1257 LA LOMA RD, PASADENA, CA, 91105",141614808,"R"
125721,"1257 LAKEVIEW DRIVE","CHINA","ME",4358,44.470474697,-69.509562004,221,"1257 LAKEVIEW DRIVE, CHINA, ME, 4358","Match","Exact","1257 LAKEVIEW DR, CHINA, ME, 04358",625749954,"R"
125722,"1257 LASSO DR","LITTLE ELM","TX",75068,33.1802166300001,-96.92005346,222,"1257 LASSO DR, LITTLE ELM, TX, 75068","Match","Non_Exact","1257 LASSO TRL, LITTLE ELM, TX, 75068",614125197,"L"
125723,"1257 LLOYD CENTER","PORTLAND","OR",97232,45.5318861550001,-122.654199258,223,"1257 LLOYD CENTER, PORTLAND, OR, 97232","Match","Exact","1257 LLOYD CENTER, PORTLAND, OR, 97232",157592505,"L"
125724,"1257 MAPLELEAF TR","ELGIN","TX",78621,NA,NA,224,"1257 MAPLELEAF TR, ELGIN, TX, 78621","No_Match",NA,NA,NA,NA
125725,"1257 MARYLAND DRIVE","LADSON","SC",29456,32.9727963940001,-80.146184825,225,"1257 MARYLAND DRIVE, LADSON, SC, 29456","Match","Exact","1257 MARYLAND DR, LADSON, SC, 29456",178460396,"R"
125726,"1257 MEMORIAL DRIVE","CLEVELAND","MS",38671,33.7275963610001,-90.726291331,226,"1257 MEMORIAL DRIVE, CLEVELAND, MS, 38671","Match","Non_Exact","1257 MEMORIAL DR, CLEVELAND, MS, 38732",843559,"L"
125727,"1257 MEMORIAL DRIVE","CLEVELAND","MS",38732,33.7275963610001,-90.726291331,227,"1257 MEMORIAL DRIVE, CLEVELAND, MS, 38732","Match","Exact","1257 MEMORIAL DR, CLEVELAND, MS, 38732",843559,"L"
125728,"1257 MEMORIAL DRIVE","CLEVELAND","MS",38773,33.7275963610001,-90.726291331,228,"1257 MEMORIAL DRIVE, CLEVELAND, MS, 38773","Match","Non_Exact","1257 MEMORIAL DR, CLEVELAND, MS, 38732",843559,"L"
125729,"1257 MUCHNEY CIRCLE","AKRON","OH",44312,40.9790280890001,-81.480150174,229,"1257 MUCHNEY CIRCLE, AKRON, OH, 44312","Match","Exact","1257 MUCHNEY CIR, AKRON, OH, 44312",61381793,"L"
125730,"1257 NORTH  SOUTH RD UNIT D","UNIVERSITY CITY","MO",63130,NA,NA,230,"1257 NORTH  SOUTH RD UNIT D, UNIVERSITY CITY, MO, 63130","No_Match",NA,NA,NA,NA
125731,"1257 OAKWOOD","TOLEDO","OH",43607,41.6563653330001,-83.5742841859999,231,"1257 OAKWOOD, TOLEDO, OH, 43607","Match","Non_Exact","1257 OAKWOOD AVE, TOLEDO, OH, 43607",33938334,"L"
125732,"1257 PARK AVE APT S3","NEW YORK","NY",10029,40.7873140240001,-73.951985539,232,"1257 PARK AVE APT S3, NEW YORK, NY, 10029","Match","Exact","1257 PARK AVE, NEW YORK, NY, 10029",639434527,"R"
125733,"1257 PINGSTON CREEK ROAD","KETTLE FALLS","WA",99141,48.6518578490001,-117.990439418,233,"1257 PINGSTON CREEK ROAD, KETTLE FALLS, WA, 99141","Match","Exact","1257 PINGSTON CREEK RD, KETTLE FALLS, WA, 99141",174837408,"L"
125734,"1257 RALEIGH WAY","LAWRENCEVILLE","GA",30043,NA,NA,234,"1257 RALEIGH WAY, LAWRENCEVILLE, GA, 30043","Tie",NA,NA,NA,NA
125735,"1257 ROUTE 989","ROCHESTER","PA",15074,40.727271102,-80.186720877,235,"1257 ROUTE 989, ROCHESTER, PA, 15074","Match","Non_Exact","1257 STATE RTE 989, ROCHESTER, PA, 15074",52566270,"L"
125736,"1257 S CRAWFORD COURT","MOUNTAIN HOUSE","CA",95391,37.762229361,-121.556237474,236,"1257 S CRAWFORD COURT, MOUNTAIN HOUSE, CA, 95391","Match","Exact","1257 S CRAWFORD CT, MOUNTAIN HOUSE, CA, 95391",650508409,"R"
125737,"1257 SALEM CHURCH RD","LINCOLNTON","GA",30817,33.693845778,-82.427529379,237,"1257 SALEM CHURCH RD, LINCOLNTON, GA, 30817","Match","Exact","1257 SALEM CHURCH RD, LINCOLNTON, GA, 30817",43126835,"L"
125738,"1257 SANDY CROSS ROAD","BURLINGTON","NC",27217,36.1242818630001,-79.3898917449999,238,"1257 SANDY CROSS ROAD, BURLINGTON, NC, 27217","Match","Exact","1257 SANDY CROSS RD, BURLINGTON, NC, 27217",71673148,"R"
125739,"1257 SHEFFIELD EGREMONT RD","GREAT BARRINGTON","MA",1230,42.1507798660001,-73.395363542,239,"1257 SHEFFIELD EGREMONT RD, GREAT BARRINGTON, MA, 1230","Match","Non_Exact","1257 SHEFFIELD-EGREMONT RD, GREAT BARRINGTON, MA, 01230",3957209,"L"
125740,"1257 SOUR SPRINGS RD","OWINGSVILLE","KY",40358,38.081992089,-83.704636702,240,"1257 SOUR SPRINGS RD, OWINGSVILLE, KY, 40358","Match","Non_Exact","1257 SOUR SPRINGS RD, OLYMPIA, KY, 40358",649837047,"L"
125741,"1257 SPRINGFIELD RD","DANFORTH","ME",4424,45.6101431480001,-67.917395971,241,"1257 SPRINGFIELD RD, DANFORTH, ME, 4424","Match","Exact","1257 SPRINGFIELD RD, DANFORTH, ME, 04424",124226131,"L"
125742,"1257 SW 21ST TERRACE","MIAMI","FL",33145,25.751829113,-80.215334745,242,"1257 SW 21ST TERRACE, MIAMI, FL, 33145","Match","Exact","1257 SW 21ST TER, MIAMI, FL, 33145",116266573,"R"
125743,"1257 SW MARTIN HWY UNIT 1377","PALM CITY","FL",34991,NA,NA,243,"1257 SW MARTIN HWY UNIT 1377, PALM CITY, FL, 34991","No_Match",NA,NA,NA,NA
125744,"1257 W LOGAN ST","FREEPORT","IL",61032,42.2914387490001,-89.6434374139999,244,"1257 W LOGAN ST, FREEPORT, IL, 61032","Match","Exact","1257 W LOGAN ST, FREEPORT, IL, 61032",32693602,"R"
125745,"1257 W MULBERRY ST","SPRINGFIELD","OH",45506,39.9212047020001,-83.831642968,245,"1257 W MULBERRY ST, SPRINGFIELD, OH, 45506","Match","Exact","1257 W MULBERRY ST, SPRINGFIELD, OH, 45506",135008509,"L"
125746,"1257 WARNER ST","CHICO","CA",95928,39.7371135400001,-121.854895346,246,"1257 WARNER ST, CHICO, CA, 95928","Match","Non_Exact","1257 WARNER ST, CHICO, CA, 95926",68473357,"L"
125747,"1257 WAYNE ROAD","DUDLEY","GA",31022,32.5472395800001,-83.082955904,247,"1257 WAYNE ROAD, DUDLEY, GA, 31022","Match","Exact","1257 WAYNE RD, DUDLEY, GA, 31022",639146045,"R"
125748,"1257 WHITMAN AVE","CAMDEN","NJ",8104,39.928535115,-75.1030445919999,248,"1257 WHITMAN AVE, CAMDEN, NJ, 8104","Match","Exact","1257 WHITMAN AVE, CAMDEN, NJ, 08104",134416755,"L"
125749,"1257 WOODBROOK CIRCLE WEST","COLUMBUS","OH",43223,39.930068159,-83.0599955549999,249,"1257 WOODBROOK CIRCLE WEST, COLUMBUS, OH, 43223","Match","Exact","1257 WOODBROOK CIR W, COLUMBUS, OH, 43223",218644602,"R"
125750,"1257 WOODVIEW DRIVE","WAUKESHA","WI",53189,42.9733381080001,-88.261243258,250,"1257 WOODVIEW DRIVE, WAUKESHA, WI, 53189","Match","Exact","1257 WOODVIEW DR, WAUKESHA, WI, 53189",53841397,"R"
125751,"12570 BIRCH RD","ANCHORAGE","AK",99516,61.1076439780001,-149.774192031,251,"12570 BIRCH RD, ANCHORAGE, AK, 99516","Match","Exact","12570 BIRCH RD, ANCHORAGE, AK, 99516",190827106,"R"
125752,"12570 E ALASKA AVENUE","AURORA","CO",80012,39.7049579500001,-104.842150299,252,"12570 E ALASKA AVENUE, AURORA, CO, 80012","Match","Exact","12570 E ALASKA AVE, AURORA, CO, 80012",177353750,"R"
125753,"12570 JACKSON DRIVE","BURTON","OH",44021,41.4288601390001,-81.187465807,253,"12570 JACKSON DRIVE, BURTON, OH, 44021","Match","Exact","12570 JACKSON DR, BURTON, OH, 44021",137436167,"L"
125754,"12570 MILLER FARMS DR","OLIVE BRANCH","MS",38654,34.905490736,-89.7677032299999,254,"12570 MILLER FARMS DR, OLIVE BRANCH, MS, 38654","Match","Exact","12570 MILLER FARMS DR, OLIVE BRANCH, MS, 38654",617660991,"L"
125755,"12570 NORTH GRANVILLE CANYON WAY","ORO VALLEY","AZ",85755,32.434034723,-110.973340742,255,"12570 NORTH GRANVILLE CANYON WAY, ORO VALLEY, AZ, 85755","Match","Exact","12570 N GRANVILLE CANYON WAY, ORO VALLEY, AZ, 85755",121223100,"L"
125756,"12570 TERA BELLA ST","PACOIMA","CA",91331,34.2664257320001,-118.4066097,256,"12570 TERA BELLA ST, PACOIMA, CA, 91331","Match","Non_Exact","12570 TERRA BELLA ST, PACOIMA, CA, 91331",141551236,"L"
125757,"12570 VITTORIA WAY","FORT MYERS","FL",33912,26.565336313,-81.802830948,257,"12570 VITTORIA WAY, FORT MYERS, FL, 33912","Match","Exact","12570 VITTORIA WAY, FORT MYERS, FL, 33912",118132812,"L"
125758,"12571 SOUTH CEDAR PLACE","JENKS","OK",74037,35.9819494660001,-95.973422725,258,"12571 SOUTH CEDAR PLACE, JENKS, OK, 74037","Match","Exact","12571 S CEDAR PL, JENKS, OK, 74037",628000980,"L"
125759,"12571 WEST US HIGHWAY 40","CAMBRIDGE CITY","IN",47327,39.8136823670001,-85.113727883,259,"12571 WEST US HIGHWAY 40, CAMBRIDGE CITY, IN, 47327","Match","Exact","12571 W US HWY 40, CAMBRIDGE CITY, IN, 47327",646592935,"R"
125760,"12572 E PARADISE DR","SCOTTSDALE","AZ",85259,33.5963756730001,-111.809232553,260,"12572 E PARADISE DR, SCOTTSDALE, AZ, 85259","Match","Exact","12572 E PARADISE DR, SCOTTSDALE, AZ, 85259",128582866,"L"
125761,"12572 NAPLES ST NE","BLAINE","MN",55449,45.1978113000001,-93.1827004149999,261,"12572 NAPLES ST NE, BLAINE, MN, 55449","Match","Exact","12572 NAPLES ST NE, BLAINE, MN, 55449",642698938,"R"
125762,"12572 STAIS COUNTRY CT NW","BEMIDJI","MN",56601,47.5909250990001,-94.9412655629999,262,"12572 STAIS COUNTRY CT NW, BEMIDJI, MN, 56601","Match","Exact","12572 STAIS COUNTRY CT NW, BEMIDJI, MN, 56601",624407367,"R"
125763,"12572 US HWY 12","RYEGATE","MT",59074,46.3034504730001,-109.339043634,263,"12572 US HWY 12, RYEGATE, MT, 59074","Match","Exact","12572 US HWY 12, RYEGATE, MT, 59074",170700220,"R"
125764,"12573 9TH ST APT B108","GARDEN GROVE","CA",92840,33.7802548170001,-117.932332215,264,"12573 9TH ST APT B108, GARDEN GROVE, CA, 92840","Match","Exact","12573 9TH ST, GARDEN GROVE, CA, 92840",144036310,"R"
125765,"12573 E PARADISE DR","SCOTTSDALE","AZ",85259,33.5963644060001,-111.809309236,265,"12573 E PARADISE DR, SCOTTSDALE, AZ, 85259","Match","Exact","12573 E PARADISE DR, SCOTTSDALE, AZ, 85259",128582866,"R"
125766,"12573 LARKWOOD DR","ST LOUIS","MO",63146,38.684695017,-90.461392153,266,"12573 LARKWOOD DR, ST LOUIS, MO, 63146","Match","Exact","12573 LARKWOOD DR, SAINT LOUIS, MO, 63146",100124116,"R"
125767,"12573 LEAVITT RD","OBERLIN","OH",44074,41.3022602290001,-82.217044282,267,"12573 LEAVITT RD, OBERLIN, OH, 44074","Match","Exact","12573 LEAVITT RD, OBERLIN, OH, 44074",635637439,"L"
125768,"12573 SE 27TH AVE","MILWAUKIE","OR",97222,45.431648094,-122.636046559,268,"12573 SE 27TH AVE, MILWAUKIE, OR, 97222","Match","Exact","12573 SE 27TH AVE, MILWAUKIE, OR, 97222",157991791,"R"
125769,"12573 SWEETWATER LANE","JACKSONVILLE","FL",32218,30.463724214,-81.616196503,269,"12573 SWEETWATER LANE, JACKSONVILLE, FL, 32218","Match","Exact","12573 SWEETWATER LN, JACKSONVILLE, FL, 32218",83890967,"R"
125770,"12574  ELM HURST DR","ATHENS","AL",35613,34.7377428250001,-86.878824249,270,"12574  ELM HURST DR, ATHENS, AL, 35613","Match","Exact","12574 ELM HURST DR, ATHENS, AL, 35613",637496533,"L"
125771,"12574 BLUNTLEAF CT","MORENO VALLEY","CA",92553,33.937902385,-117.212790451,271,"12574 BLUNTLEAF CT, MORENO VALLEY, CA, 92553","Match","Exact","12574 BLUNTLEAF CT, MORENO VALLEY, CA, 92553",194790845,"R"
125772,"12574 SPRING VIOLET PLACE","CARMEL","IN",46033,39.970545771,-86.078986851,272,"12574 SPRING VIOLET PLACE, CARMEL, IN, 46033","Match","Exact","12574 SPRING VIOLET PL, CARMEL, IN, 46033",29327593,"L"
125773,"12574 W CHEERY LYNN","AVONDALE","AZ",85392,33.4838816660001,-112.330036002,273,"12574 W CHEERY LYNN, AVONDALE, AZ, 85392","Match","Non_Exact","12574 W CHEERY LYNN RD, AVONDALE, AZ, 85392",128847737,"R"
125774,"12574 WESTERLEY LN","HOUSTON","TX",77077,29.759289332,-95.604936798,274,"12574 WESTERLEY LN, HOUSTON, TX, 77077","Match","Exact","12574 WESTERLEY LN, HOUSTON, TX, 77077",96552876,"R"
125775,"12575 2190 RD","ECKERT","CO",81418,38.8365304640001,-107.95386725,275,"12575 2190 RD, ECKERT, CO, 81418","Match","Exact","12575 2190 RD, ECKERT, CO, 81418",122358990,"L"
125776,"12575 BEATRICE STREET  STE B20","LOS ANGELES","CA",90066,33.98043054,-118.416188638,276,"12575 BEATRICE STREET  STE B20, LOS ANGELES, CA, 90066","Match","Exact","12575 BEATRICE ST, LOS ANGELES, CA, 90066",141578190,"R"
125777,"12575 BEATRICE STREET STE B20","LOS ANGELES","CA",90066,33.98043054,-118.416188638,277,"12575 BEATRICE STREET STE B20, LOS ANGELES, CA, 90066","Match","Exact","12575 BEATRICE ST, LOS ANGELES, CA, 90066",141578190,"R"
125778,"12575 BEATRICE STREET UNIT 2B","LOS ANGELES","CA",90066,33.98043054,-118.416188638,278,"12575 BEATRICE STREET UNIT 2B, LOS ANGELES, CA, 90066","Match","Exact","12575 BEATRICE ST, LOS ANGELES, CA, 90066",141578190,"R"
125779,"12575 CTY RD 27 SW","FARWELL","MN",56327,45.868783718,-95.5644315649999,279,"12575 CTY RD 27 SW, FARWELL, MN, 56327","Match","Exact","12575 CO RD 27 SW, FARWELL, MN, 56327",636237609,"R"
125780,"12575 OLD GERMANTOWN RD","WAYNESBORO","PA",17268,39.729357054,-77.514526277,280,"12575 OLD GERMANTOWN RD, WAYNESBORO, PA, 17268","Match","Exact","12575 OLD GERMANTOWN RD, WAYNESBORO, PA, 17268",60098851,"L"
125781,"12575 PEARSON ROAD","MONTGOMERY","TX",77356,30.428386478,-95.647276101,281,"12575 PEARSON ROAD, MONTGOMERY, TX, 77356","Match","Exact","12575 PEARSON RD, MONTGOMERY, TX, 77356",648406358,"L"
125782,"12575 SW MORENO DR","GASTON","OR",97119,45.4293758160001,-123.082307006,282,"12575 SW MORENO DR, GASTON, OR, 97119","Match","Exact","12575 SW MORENO DR, GASTON, OR, 97119",158202112,"L"
125783,"12575","LAS VEGAS","NV",89161,NA,NA,283,"12575, LAS VEGAS, NV, 89161","No_Match",NA,NA,NA,NA
125784,"12576 MABEE CIRCLE","GARDEN GROVE","CA",92841,NA,NA,284,"12576 MABEE CIRCLE, GARDEN GROVE, CA, 92841","No_Match",NA,NA,NA,NA
125785,"12576 MACARTHUR RD","LACHINE","MI",49753,45.132295207,-83.7109504599999,285,"12576 MACARTHUR RD, LACHINE, MI, 49753","Match","Exact","12576 MACARTHUR RD, LACHINE, MI, 49753",135788143,"L"
125786,"12576 SHORELINE DRIVE","SPERRY","OK",74073,36.3378647550001,-96.095936282,286,"12576 SHORELINE DRIVE, SPERRY, OK, 74073","Match","Exact","12576 SHORELINE DR, SPERRY, OK, 74073",627555958,"R"
125787,"12577 BLAZING STAR ROAD","NEVADA CITY","CA",95959,39.240910328,-120.951188559,287,"12577 BLAZING STAR ROAD, NEVADA CITY, CA, 95959","Match","Exact","12577 BLAZING STAR RD, NEVADA CITY, CA, 95959",106556455,"R"
125788,"12577 FISHER DRIVE","ENGLEWOOD","CO",80112,39.540579968,-104.842747379,288,"12577 FISHER DRIVE, ENGLEWOOD, CO, 80112","Match","Exact","12577 FISHER DR, ENGLEWOOD, CO, 80112",649061747,"L"
125789,"12577 WASHINGTON ST","CROWN POINT","IN",46307,41.3893942600001,-87.3360607769999,289,"12577 WASHINGTON ST, CROWN POINT, IN, 46307","Match","Exact","12577 WASHINGTON ST, CROWN POINT, IN, 46307",633722716,"L"
125790,"12578 CLINTON STREET","ALDEN","NY",14004,42.8582476300001,-78.5193751429999,290,"12578 CLINTON STREET, ALDEN, NY, 14004","Match","Exact","12578 CLINTON ST, ALDEN, NY, 14004",48313946,"L"
125791,"12578 COUNTY RD 60","ALTURAS","CA",96101,41.409445722,-120.563797561,291,"12578 COUNTY RD 60, ALTURAS, CA, 96101","Match","Exact","12578 CO RD 60, ALTURAS, CA, 96101",127152297,"R"
125792,"12578 DICK RD","LINCOLN","MO",65338,38.380200668,-93.4645427839999,292,"12578 DICK RD, LINCOLN, MO, 65338","Match","Exact","12578 DICK RD, LINCOLN, MO, 65338",22701770,"R"
125793,"12579 CRESTA PLACE","SAN DIEGO","CA",92128,33.01978232,-117.058653842,293,"12579 CRESTA PLACE, SAN DIEGO, CA, 92128","Match","Exact","12579 CRESTA PL, SAN DIEGO, CA, 92128",195316360,"R"
125794,"12579 GLEDHILL STREET","SAN DIEGO","CA",92128,NA,NA,294,"12579 GLEDHILL STREET, SAN DIEGO, CA, 92128","No_Match",NA,NA,NA,NA
125795,"12579 S EZRA CIR","HERRIMAN","UT",84096,40.5228985140001,-112.045709135,295,"12579 S EZRA CIR, HERRIMAN, UT, 84096","Match","Exact","12579 S EZRA CIR, HERRIMAN, UT, 84096",651942047,"L"
125796,"1258 10TH ST APT 10","SANTA MONICA","CA",90401,34.0229282490001,-118.491707759,296,"1258 10TH ST APT 10, SANTA MONICA, CA, 90401","Match","Exact","1258 10TH ST, SANTA MONICA, CA, 90401",141559142,"R"
125797,"1258 2ND AVE 3N","NEW","NY",10075,NA,NA,297,"1258 2ND AVE 3N, NEW, NY, 10075","No_Match",NA,NA,NA,NA
125798,"1258 4TH AVENUE","CHAMBERSBURG","PA",17202,39.963441044,-77.582940621,298,"1258 4TH AVENUE, CHAMBERSBURG, PA, 17202","Match","Exact","1258 4TH AVE, CHAMBERSBURG, PA, 17202",60100136,"R"
125799,"1258 ALLISON COURT","BELCAMP","MD",21017,39.474093655,-76.242357054,299,"1258 ALLISON COURT, BELCAMP, MD, 21017","Match","Exact","1258 ALLISON CT, BELCAMP, MD, 21017",191649615,"R"
125800,"1258 BRADLEY CIRCLE","ELGIN","IL",60120,42.064126614,-88.24404595,300,"1258 BRADLEY CIRCLE, ELGIN, IL, 60120","Match","Exact","1258 BRADLEY CIR, ELGIN, IL, 60120",639786775,"R"
125801,"1258 BRIGGS ST","DIGHTON","MA",2715,41.8436672390001,-71.1470794909999,301,"1258 BRIGGS ST, DIGHTON, MA, 2715","Match","Exact","1258 BRIGGS ST, DIGHTON, MA, 02715",46778381,"L"
125802,"1258 BROOKS POINTE DE SE","LAWRENCEVILLE","GA",30045,33.9438599320001,-83.90977752,302,"1258 BROOKS POINTE DE SE, LAWRENCEVILLE, GA, 30045","Match","Non_Exact","1258 BROOKS POINTE DR, LAWRENCEVILLE, GA, 30045",627475397,"L"
125803,"1258 BROOKS POINTE DR","LAWRENCEVILLE","GA",30045,33.9438599320001,-83.90977752,303,"1258 BROOKS POINTE DR, LAWRENCEVILLE, GA, 30045","Match","Exact","1258 BROOKS POINTE DR, LAWRENCEVILLE, GA, 30045",627475397,"L"
125804,"1258 BRUSHY POINT RD","GALLIPOLIS","OH",45631,38.840957873,-82.3449538849999,304,"1258 BRUSHY POINT RD, GALLIPOLIS, OH, 45631","Match","Exact","1258 BRUSHY POINT RD, GALLIPOLIS, OH, 45631",54973632,"L"
125805,"1258 CAREY CHAPEL RD","HENDERSON","NC",27537,36.3327245520001,-78.3527934209999,305,"1258 CAREY CHAPEL RD, HENDERSON, NC, 27537","Match","Exact","1258 CAREY CHAPEL RD, HENDERSON, NC, 27537",636022186,"R"
125806,"1258 CAVE HOLLOW LANE","FARMINGTON","UT",84025,40.959632062,-111.888108571,306,"1258 CAVE HOLLOW LANE, FARMINGTON, UT, 84025","Match","Non_Exact","1258 S CAVE HOLLOW LN, FARMINGTON, UT, 84025",155336240,"L"
125807,"1258 CEDAR AVE APARTMENT 202","COLUMBUS","GA",31906,32.4709298710001,-84.96066677,307,"1258 CEDAR AVE APARTMENT 202, COLUMBUS, GA, 31906","Match","Exact","1258 CEDAR AVE, COLUMBUS, GA, 31906",98939067,"R"
125808,"1258 CEDAR AVENUE UNIT 301","COLUMBUS","GA",31906,32.4709298710001,-84.96066677,308,"1258 CEDAR AVENUE UNIT 301, COLUMBUS, GA, 31906","Match","Exact","1258 CEDAR AVE, COLUMBUS, GA, 31906",98939067,"R"
125809,"1258 CLARK RD","GILBERTOWN","AL",36908,31.847680102,-88.292443868,309,"1258 CLARK RD, GILBERTOWN, AL, 36908","Match","Exact","1258 CLARK RD, GILBERTOWN, AL, 36908",102312,"R"
125810,"1258 CLEVELAND AVENUE","JEFFERSONVILLE","IN",47130,NA,NA,310,"1258 CLEVELAND AVENUE, JEFFERSONVILLE, IN, 47130","No_Match",NA,NA,NA,NA
125811,"1258 COLONIAL PARK DRIVE","SEVERN","MD",21144,39.1244346650001,-76.6755434139999,311,"1258 COLONIAL PARK DRIVE, SEVERN, MD, 21144","Match","Exact","1258 COLONIAL PARK DR, SEVERN, MD, 21144",637457819,"L"
125812,"1258 CORNELL AVE","BINGHAMTON","NY",13901,42.156428588,-75.8843146299999,312,"1258 CORNELL AVE, BINGHAMTON, NY, 13901","Match","Exact","1258 CORNELL AVE, BINGHAMTON, NY, 13901",46362136,"R"
125813,"1258 COUNTY ROAD 1745","CHICO","TX",76431,33.286211612,-97.889600082,313,"1258 COUNTY ROAD 1745, CHICO, TX, 76431","Match","Exact","1258 CO RD 1745, CHICO, TX, 76431",103656727,"L"
125814,"1258 COURTYARD DRIVE","SOUTHHAVEN","MS",38671,NA,NA,314,"1258 COURTYARD DRIVE, SOUTHHAVEN, MS, 38671","No_Match",NA,NA,NA,NA
125815,"1258 COVERED BRIDGE TRAIL","CHAPEL HILL","NC",27517,35.7750362990001,-79.066304816,315,"1258 COVERED BRIDGE TRAIL, CHAPEL HILL, NC, 27517","Match","Exact","1258 COVERED BRIDGE TRL, CHAPEL HILL, NC, 27517",651590976,"R"
125816,"1258 CRAVENS LANE UNIT 1","CARPINTERIA","CA",93013,34.40731169,-119.539490619,316,"1258 CRAVENS LANE UNIT 1, CARPINTERIA, CA, 93013","Match","Exact","1258 CRAVENS LN, CARPINTERIA, CA, 93013",108694271,"R"
125817,"1258 CRESCENT DRIVE","OAK HARBOR","WA",98277,48.2847717710001,-122.547504673,317,"1258 CRESCENT DRIVE, OAK HARBOR, WA, 98277","Match","Exact","1258 CRESCENT DR, OAK HARBOR, WA, 98277",187581592,"L"
125818,"1258 CRONIN COURT","LEMONT","IL",60439,41.65868541,-87.974401843,318,"1258 CRONIN COURT, LEMONT, IL, 60439","Match","Exact","1258 CRONIN CT, LEMONT, IL, 60439",112205513,"L"
125819,"1258 DANIELL DR","SMYRNA","GA",30080,33.869350013,-84.517021498,319,"1258 DANIELL DR, SMYRNA, GA, 30080","Match","Exact","1258 DANIELL DR, SMYRNA, GA, 30080",640540533,"R"
125820,"1258 DARR","ST. LOUIS","MO",63137,38.7608420650001,-90.2304590159999,320,"1258 DARR, ST. LOUIS, MO, 63137","Match","Non_Exact","1258 DARR DR, SAINT LOUIS, MO, 63137",100148890,"L"
125821,"1258 DEKALB AVE NE","ATLANTA","GA",30307,33.7609441440001,-84.346403416,321,"1258 DEKALB AVE NE, ATLANTA, GA, 30307","Match","Exact","1258 DEKALB AVE NE, ATLANTA, GA, 30307",23365122,"L"
125822,"1258 DONEY WAY","BOZEMAN","MT",59715,45.5724510960001,-111.102276464,322,"1258 DONEY WAY, BOZEMAN, MT, 59715","Match","Non_Exact","1258 DONEY WAY, BOZEMAN, MT, 59718",615078677,"L"
125823,"1258 DONEY WAY","BOZEMAN","MT",59718,45.5724510960001,-111.102276464,323,"1258 DONEY WAY, BOZEMAN, MT, 59718","Match","Exact","1258 DONEY WAY, BOZEMAN, MT, 59718",615078677,"L"
125824,"1258 E SONORA ST","SAN BERNARDINO","CA",92404,34.164437455,-117.259252065,324,"1258 E SONORA ST, SAN BERNARDINO, CA, 92404","Match","Non_Exact","1258 E SONORA ST, SAN BERNARDINO, CA, 92407",144654371,"L"
125825,"1258 E SONORA STREET","SAN BERNARDINO","CA",92404,34.164437455,-117.259252065,325,"1258 E SONORA STREET, SAN BERNARDINO, CA, 92404","Match","Non_Exact","1258 E SONORA ST, SAN BERNARDINO, CA, 92407",144654371,"L"
125826,"1258 EAST MCFADDEN APT D","SANTA ANA","CA",92705,NA,NA,326,"1258 EAST MCFADDEN APT D, SANTA ANA, CA, 92705","No_Match",NA,NA,NA,NA
125827,"1258 EDMUND AVE","ST PAUL","MN",55104,44.9584150360001,-93.152967163,327,"1258 EDMUND AVE, ST PAUL, MN, 55104","Match","Non_Exact","1258 W EDMUND AVE, SAINT PAUL, MN, 55104",97642180,"L"
125828,"1258 EDSEL STREET SE","KENTWOOD","MI",49508,42.880619951,-85.633797994,328,"1258 EDSEL STREET SE, KENTWOOD, MI, 49508","Match","Exact","1258 EDSEL ST SE, KENTWOOD, MI, 49508",12464850,"R"
125829,"1258 FENCEWAY DR","COLUMBUS","OH",43229,40.0620346420001,-82.9849420799999,329,"1258 FENCEWAY DR, COLUMBUS, OH, 43229","Match","Exact","1258 FENCEWAY DR, COLUMBUS, OH, 43229",218697191,"L"
125830,"1258 FETZER LANE","OAKLEY","CA",94561,38.0012946630001,-121.713204445,330,"1258 FETZER LANE, OAKLEY, CA, 94561","Match","Exact","1258 FETZER LN, OAKLEY, CA, 94561",192105436,"L"
125831,"1258 FILLMORE AVENUE","BLOOMINGTON","CA",92316,34.078987485,-117.383952857,331,"1258 FILLMORE AVENUE, BLOOMINGTON, CA, 92316","Match","Non_Exact","1258 S FILLMORE AVE, BLOOMINGTON, CA, 92316",144989579,"L"
125832,"1258 FOREST DALE DRIVE","MOBILE","AL",36618,30.7146500960001,-88.1620969799999,332,"1258 FOREST DALE DRIVE, MOBILE, AL, 36618","Match","Exact","1258 FOREST DALE DR, MOBILE, AL, 36618",61856461,"R"
125833,"1258 FORRESTDALE DRIVE","MOBILE","AL",36618,30.7146500960001,-88.1620969799999,333,"1258 FORRESTDALE DRIVE, MOBILE, AL, 36618","Match","Non_Exact","1258 FOREST DALE DR, MOBILE, AL, 36618",61856461,"R"
125834,"1258 GATEWOOD ROAD","WADESBORO","NC",28170,34.921291297,-80.007296631,334,"1258 GATEWOOD ROAD, WADESBORO, NC, 28170","Match","Exact","1258 GATEWOOD RD, WADESBORO, NC, 28170",647168657,"L"
125835,"1258 GAY LAC LA BELLE ROAD","LAKE LINDEN","MI",49945,47.2347871100001,-88.140839436,335,"1258 GAY LAC LA BELLE ROAD, LAKE LINDEN, MI, 49945","Match","Exact","1258 GAY LAC LA BELLE RD, LAKE LINDEN, MI, 49945",182009667,"R"
125836,"1258 GRAPE STREET SOUTHEAST","ATLANTA","GA",30315,33.7197309840001,-84.384817675,336,"1258 GRAPE STREET SOUTHEAST, ATLANTA, GA, 30315","Match","Exact","1258 GRAPE ST SE, ATLANTA, GA, 30315",17346631,"L"
125837,"1258 HERKIMER STREET","BROOKLYN","NY",11233,40.677568749,-73.9118183589999,337,"1258 HERKIMER STREET, BROOKLYN, NY, 11233","Match","Exact","1258 HERKIMER ST, BROOKLYN, NY, 11233",59098142,"R"
125838,"1258 HORSHAM WAY","APEX","NC",27502,35.746152807,-78.860208875,338,"1258 HORSHAM WAY, APEX, NC, 27502","Match","Exact","1258 HORSHAM WAY, APEX, NC, 27502",72640869,"L"
125839,"1258 JEFFERSON AVE","BROOKLYN","NY",11221,40.691920462,-73.912641389,339,"1258 JEFFERSON AVE, BROOKLYN, NY, 11221","Match","Exact","1258 JEFFERSON AVE, BROOKLYN, NY, 11221",59083068,"R"
125840,"1258 LEANNE COURT","KENNEDALE","TX",76060,32.6433694560001,-97.1944868149999,340,"1258 LEANNE COURT, KENNEDALE, TX, 76060","Match","Exact","1258 LEANNE CT, KENNEDALE, TX, 76060",101951120,"L"
125841,"1258 LIZBETH LANE","CEDARBURG","WI",53012,NA,NA,341,"1258 LIZBETH LANE, CEDARBURG, WI, 53012","No_Match",NA,NA,NA,NA
125842,"1258 LUFFNESS DRIVE","JACKSONVILLE","FL",32221,30.2985319100001,-81.853125682,342,"1258 LUFFNESS DRIVE, JACKSONVILLE, FL, 32221","Match","Exact","1258 LUFFNESS DR, JACKSONVILLE, FL, 32221",646998763,"L"
125843,"1258 MCFADDEN DRIVE","FULLERTON","CA",92833,33.883137005,-117.963848126,343,"1258 MCFADDEN DRIVE, FULLERTON, CA, 92833","Match","Exact","1258 MCFADDEN DR, FULLERTON, CA, 92833",651738011,"R"
125844,"1258 MEIGS PL NE APT 1","WASHINGTON","DC",20002,38.907655579,-76.98467512,344,"1258 MEIGS PL NE APT 1, WASHINGTON, DC, 20002","Match","Exact","1258 MEIGS PL NE, WASHINGTON, DC, 20002",76230116,"L"
125845,"1258 N MILWAUKEE AVE UNIT 3N","CHICAGO","IL",60622,41.904476065,-87.668228395,345,"1258 N MILWAUKEE AVE UNIT 3N, CHICAGO, IL, 60622","Match","Non_Exact","1258 N MILWAUKEE AVE, CHICAGO, IL, 60622",111764857,"L"
125846,"1258 NW SHATTUCK WAY UNIT 104","GRESHAM","OR",97030,45.5104449,-122.444087624,346,"1258 NW SHATTUCK WAY UNIT 104, GRESHAM, OR, 97030","Match","Non_Exact","1258 NW SHATTUCK WAY, GRESHAM, OR, 97030",624411810,"L"
125847,"1258 ORTIZ SE SUITE 203","ALBUQUERQUE","NM",87108,35.0627486380001,-106.585314657,347,"1258 ORTIZ SE SUITE 203, ALBUQUERQUE, NM, 87108","Match","Non_Exact","1258 ORTIZ DR SE, ALBUQUERQUE, NM, 87108",206718345,"L"
125848,"1258 PACIFIC BEACH DR UNIT 7","SAN DIEGO","CA",92109,32.7928020260001,-117.245364265,348,"1258 PACIFIC BEACH DR UNIT 7, SAN DIEGO, CA, 92109","Match","Exact","1258 PACIFIC BEACH DR, SAN DIEGO, CA, 92109",195303347,"L"
125849,"1258 RAGEN RD SE","PALM BAY","FL",32909,27.936981512,-80.636991424,349,"1258 RAGEN RD SE, PALM BAY, FL, 32909","Match","Exact","1258 RAGEN RD SE, PALM BAY, FL, 32909",93956956,"R"
125850,"1258 RANGEN RD SE","PALM BAY","FL",32909,NA,NA,350,"1258 RANGEN RD SE, PALM BAY, FL, 32909","No_Match",NA,NA,NA,NA
125851,"1258 ROUTE 11","CHAMPLAIN","NY",12919,NA,NA,351,"1258 ROUTE 11, CHAMPLAIN, NY, 12919","No_Match",NA,NA,NA,NA
125852,"1258 ROYAL BIRKDALE CIRCLE","ROCKLEDGE","FL",32955,28.341584917,-80.74903956,352,"1258 ROYAL BIRKDALE CIRCLE, ROCKLEDGE, FL, 32955","Match","Exact","1258 ROYAL BIRKDALE CIR, ROCKLEDGE, FL, 32955",93893737,"R"
125853,"1258 S BLUE ISLAND AVE","CHICAGO","IL",60608,41.865711237,-87.654468682,353,"1258 S BLUE ISLAND AVE, CHICAGO, IL, 60608","Match","Exact","1258 S BLUE ISLAND AVE, CHICAGO, IL, 60608",637492865,"L"
125854,"1258 S MILITARY TRL APT 813","DEERFIELD BEACH","FL",33442,26.30222945,-80.130669837,354,"1258 S MILITARY TRL APT 813, DEERFIELD BEACH, FL, 33442","Match","Non_Exact","1258 S MILITARY TRL, DEERFIELD BEACH, FL, 33442",650075180,"L"
125855,"1258 SADDLEBROOK LANE","WOODBURY","MN",55125,44.9301824830001,-92.924450886,355,"1258 SADDLEBROOK LANE, WOODBURY, MN, 55125","Match","Exact","1258 SADDLEBROOK LN, WOODBURY, MN, 55125",638114778,"L"
125856,"1258 SNOWY EGRET DR","FAYETTEVILLE","NC",28306,35.0056676140001,-78.937766387,356,"1258 SNOWY EGRET DR, FAYETTEVILLE, NC, 28306","Match","Exact","1258 SNOWY EGRET DR, FAYETTEVILLE, NC, 28306",624744506,"L"
125857,"1258 SPRING CREEK DR","LANCASTER","TX",75146,32.5909176440001,-96.778954845,357,"1258 SPRING CREEK DR, LANCASTER, TX, 75146","Match","Exact","1258 SPRING CREEK DR, LANCASTER, TX, 75146",619599398,"R"
125858,"1258 SPRINGWATER DRIVE","MANDEVILLE","LA",70471,30.391307162,-90.0793634349999,358,"1258 SPRINGWATER DRIVE, MANDEVILLE, LA, 70471","Match","Exact","1258 SPRINGWATER DR, MANDEVILLE, LA, 70471",111290287,"L"
125859,"1258 STATE ROUTE 147","WEST CHARLTON","NY",12010,NA,NA,359,"1258 STATE ROUTE 147, WEST CHARLTON, NY, 12010","No_Match",NA,NA,NA,NA
125860,"1258 STETSON ROAD","HELENA","MT",59602,46.7111730550001,-112.018380451,360,"1258 STETSON ROAD, HELENA, MT, 59602","Match","Exact","1258 STETSON RD, HELENA, MT, 59602",617978913,"L"
125861,"1258 TIMBER LANE","SOUTH LAKE TAHOE","CA",96150,38.944651865,-119.942548457,361,"1258 TIMBER LANE, SOUTH LAKE TAHOE, CA, 96150","Match","Exact","1258 TIMBER LN, SOUTH LAKE TAHOE, CA, 96150",133036004,"L"
125862,"1258 VALDOSTA RD","SAN JOSE","CA",95121,37.295189083,-121.814081765,362,"1258 VALDOSTA RD, SAN JOSE, CA, 95121","Match","Exact","1258 VALDOSTA RD, SAN JOSE, CA, 95121",122916214,"R"
125863,"1258 VAN BUREN AVE","ST.PAUL","MN",55104,44.9620413260001,-93.1533285789999,363,"1258 VAN BUREN AVE, ST.PAUL, MN, 55104","Match","Non_Exact","1258 W VAN BUREN AVE, SAINT PAUL, MN, 55104",97642106,"L"
125864,"1258 W PITCHFORK RD","MURRAY","UT",84123,40.645087919,-111.929048147,364,"1258 W PITCHFORK RD, MURRAY, UT, 84123","Match","Exact","1258 PITCHFORK RD, MURRAY, UT, 84123",176133765,"R"
125865,"1258 W168TH ST","GARDENA","CA",90247,NA,NA,365,"1258 W168TH ST, GARDENA, CA, 90247","No_Match",NA,NA,NA,NA
125866,"1258 WATERVIEW DRIVE","ROCKVILLE CENTRE","NY",11570,40.6699329140001,-73.653250209,366,"1258 WATERVIEW DRIVE, ROCKVILLE CENTRE, NY, 11570","Match","Exact","1258 WATERVIEW DR, ROCKVILLE CENTRE, NY, 11570",147675511,"R"
125867,"1258 WAYMAR COURT","MARIETTA","GA",30008,33.886439259,-84.5891004919999,367,"1258 WAYMAR COURT, MARIETTA, GA, 30008","Match","Exact","1258 WAYMAR CT, MARIETTA, GA, 30008",17235188,"R"
125868,"1258 WINFORD AVE","VENTURA","CA",93004,34.2691079040001,-119.175952996,368,"1258 WINFORD AVE, VENTURA, CA, 93004","Match","Exact","1258 WINFORD AVE, VENTURA, CA, 93004",109957037,"L"
125869,"1258 WOODSTOCK AVE","HOPWOOD","PA",15445,39.8804091650001,-79.702174239,369,"1258 WOODSTOCK AVE, HOPWOOD, PA, 15445","Match","Non_Exact","1258 WOODSTOCK ST, HOPWOOD, PA, 15445",51165757,"R"
125870,"1258 WRIGLEY","LAKEPORT","CA",95453,39.0342005590001,-122.931154846,370,"1258 WRIGLEY, LAKEPORT, CA, 95453","Match","Non_Exact","1258 WRIGLEY ST, LAKEPORT, CA, 95453",640034833,"R"
125871,"12580 CHILLICOTHE RD","CHESTERLAND","OH",44026,41.5265049660001,-81.337913822,371,"12580 CHILLICOTHE RD, CHESTERLAND, OH, 44026","Match","Exact","12580 CHILLICOTHE RD, CHESTERLAND, OH, 44026",137440029,"R"
125872,"12580 ESTHER ST","BORON","CA",93516,35.007732575,-117.646478,372,"12580 ESTHER ST, BORON, CA, 93516","Match","Exact","12580 ESTHER ST, BORON, CA, 93516",109483605,"R"
125873,"12580 HALL SHOP ROAD","FULTON","MD",20759,39.17338263,-76.948544984,373,"12580 HALL SHOP ROAD, FULTON, MD, 20759","Match","Exact","12580 HALL SHOP RD, FULTON, MD, 20759",158958457,"R"
125874,"12580 HWY 151","IGNACIO","CO",81137,37.0251441030001,-107.484924326,374,"12580 HWY 151, IGNACIO, CO, 81137","Match","Non_Exact","12580 STATE HWY 151, IGNACIO, CO, 81137",647743769,"L"
125875,"12580 OLD TROY PIKE","SAINT PARIS","OH",43072,40.0822718630001,-84.003519804,375,"12580 OLD TROY PIKE, SAINT PARIS, OH, 43072","Match","Exact","12580 OLD TROY PIKE, SAINT PARIS, OH, 43072",606288713,"L"
125876,"12580 PIKE 16","CURRYVILLE","MO",63339,39.4025404870001,-91.3956139269999,376,"12580 PIKE 16, CURRYVILLE, MO, 63339","Match","Exact","12580 PIKE 16, CURRYVILLE, MO, 63339",636520572,"L"
125877,"12580 SOUTH MAIN ST","SOMERVILLE","TN",38068,35.2378549760001,-89.3501868289999,377,"12580 SOUTH MAIN ST, SOMERVILLE, TN, 38068","Match","Exact","12580 S MAIN ST, SOMERVILLE, TN, 38068",72698739,"R"
125878,"12580 SOUTHWOOD DR","LAURINBURG","NC",28352,34.744968552,-79.407773806,378,"12580 SOUTHWOOD DR, LAURINBURG, NC, 28352","Match","Exact","12580 SOUTHWOOD DR, LAURINBURG, NC, 28352",25794484,"L"
125879,"12580 SWN144 RERRACE","MIAMI","FL",33186,NA,NA,379,"12580 SWN144 RERRACE, MIAMI, FL, 33186","No_Match",NA,NA,NA,NA
125880,"12580 WALNUT CREEK PIKE","ASHVILLE","OH",43103,39.74649893,-82.915532076,380,"12580 WALNUT CREEK PIKE, ASHVILLE, OH, 43103","Match","Exact","12580 WALNUT CREEK PIKE, ASHVILLE, OH, 43103",37456776,"L"
125881,"12581 CARMEL CANYON ROAD","SAN DIEGO","CA",92130,32.9475568330001,-117.214416483,381,"12581 CARMEL CANYON ROAD, SAN DIEGO, CA, 92130","Match","Exact","12581 CARMEL CANYON RD, SAN DIEGO, CA, 92130",195671522,"R"
125882,"12581 CLUSTER PINE ROAD","GARDEN GROVE","CA",92845,33.779658834,-118.012874063,382,"12581 CLUSTER PINE ROAD, GARDEN GROVE, CA, 92845","Match","Non_Exact","12581 CLUSTER PINES RD, GARDEN GROVE, CA, 92845",144004310,"R"
125883,"12581 FOXHILL AVENUE N","HUGO","MN",55038,45.133406473,-92.990144684,383,"12581 FOXHILL AVENUE N, HUGO, MN, 55038","Match","Exact","12581 FOXHILL AVE N, HUGO, MN, 55038",614154013,"L"
125884,"12582 ARGYLE DR","LOS ALAMITOS","CA",90720,33.7806796350001,-118.085559882,384,"12582 ARGYLE DR, LOS ALAMITOS, CA, 90720","Match","Exact","12582 ARGYLE DR, LOS ALAMITOS, CA, 90720",144002624,"L"
125885,"12582 STATE HWY 80","DANVILLE","AR",72833,35.0198547750001,-93.4275643729999,385,"12582 STATE HWY 80, DANVILLE, AR, 72833","Match","Exact","12582 STATE HWY 80, DANVILLE, AR, 72833",24322273,"L"
125886,"12582 STRATHMORE DRIVE","GARDEN GROVE","CA",92840,33.780572396,-117.92740864,386,"12582 STRATHMORE DRIVE, GARDEN GROVE, CA, 92840","Match","Exact","12582 STRATHMORE DR, GARDEN GROVE, CA, 92840",144036546,"L"
125887,"12582 W DESERT ROSE ROAD","AVONDALE","AZ",85392,33.4652687110001,-112.333893177,387,"12582 W DESERT ROSE ROAD, AVONDALE, AZ, 85392","Match","Exact","12582 DESERT ROSE RD, AVONDALE, AZ, 85392",128404421,"R"
125888,"12583 PRITCHARD LN","CRIVITZ","WI",54114,45.2287319490001,-88.3833652019999,388,"12583 PRITCHARD LN, CRIVITZ, WI, 54114","Match","Exact","12583 PRITCHARD LN, CRIVITZ, WI, 54114",170330268,"R"
125889,"12584 310TH AVE","LOWRY","MN",56349,45.717185407,-95.571904262,389,"12584 310TH AVE, LOWRY, MN, 56349","Match","Exact","12584 310TH AVE, LOWRY, MN, 56349",165119549,"R"
125890,"12584 LOOKINGBILL LANE","ATHENS","AL",35611,34.6977233320001,-87.093733836,390,"12584 LOOKINGBILL LANE, ATHENS, AL, 35611","Match","Exact","12584 LOOKINGBILL LN, ATHENS, AL, 35611",95244539,"R"
125891,"12584 MISTY CREEK LANE","OAK HILL","VA",20171,NA,NA,391,"12584 MISTY CREEK LANE, OAK HILL, VA, 20171","No_Match",NA,NA,NA,NA
125892,"12584 MORAY FIRTH WAY","BRISTOW","VA",20136,38.7373951920001,-77.571103094,392,"12584 MORAY FIRTH WAY, BRISTOW, VA, 20136","Match","Exact","12584 MORAY FIRTH WAY, BRISTOW, VA, 20136",207162238,"R"
125893,"12584 VILLA HILL LANE","CREVE COEUR","MO",63141,38.66752309,-90.4658438019999,393,"12584 VILLA HILL LANE, CREVE COEUR, MO, 63141","Match","Exact","12584 VILLA HILL LN, CREVE COEUR, MO, 63141",100124395,"L"
125894,"12585 GLENBROOK WAY","APPLE VALLEY","MN",55124,NA,NA,394,"12585 GLENBROOK WAY, APPLE VALLEY, MN, 55124","No_Match",NA,NA,NA,NA
125895,"12585 GREENWOOD DR","TRUCKEE","CA",96161,39.368583814,-120.179423208,395,"12585 GREENWOOD DR, TRUCKEE, CA, 96161","Match","Exact","12585 GREENWOOD DR, TRUCKEE, CA, 96161",106524514,"R"
125896,"12585 LARCHMERE BLVD","CLEVELAND","OH",44120,41.4878280400001,-81.5958051219999,396,"12585 LARCHMERE BLVD, CLEVELAND, OH, 44120","Match","Exact","12585 LARCHMERE BLVD, CLEVELAND, OH, 44120",61122748,"L"
125897,"12585 N 2100TH ST","TEUTOPOLIS","IL",62467,39.0976407960001,-88.417105708,397,"12585 N 2100TH ST, TEUTOPOLIS, IL, 62467","Match","Exact","12585 N 2100TH ST, TEUTOPOLIS, IL, 62467",94763236,"L"
125898,"12585 RINAKER ROAD","CARLINVILLE","IL",62626,39.259035226,-89.913608708,398,"12585 RINAKER ROAD, CARLINVILLE, IL, 62626","Match","Exact","12585 RINAKER RD, CARLINVILLE, IL, 62626",624990690,"R"
125899,"12585 SOUTH REED ROAD","GRAFTON","OH",44044,41.304290173,-81.990936964,399,"12585 SOUTH REED ROAD, GRAFTON, OH, 44044","Match","Exact","12585 S REED RD, GRAFTON, OH, 44044",55435219,"R"
125900,"12585 SW 68TH AVE B","TIGARD","OR",97223,45.4298522820001,-122.746787814,400,"12585 SW 68TH AVE B, TIGARD, OR, 97223","Match","Non_Exact","12585 SW 68TH AVE, TIGARD, OR, 97223",624979856,"R"
125901,"12585 TAHOSA LANE","COLORADO SPRINGS","CO",80908,39.0149809760001,-104.752132629,401,"12585 TAHOSA LANE, COLORADO SPRINGS, CO, 80908","Match","Exact","12585 TAHOSA LN, COLORADO SPRINGS, CO, 80908",610683685,"L"
125902,"12585 TRAVERSE PLACE","FISHERS","IN",46038,39.9705478830001,-86.0122449959999,402,"12585 TRAVERSE PLACE, FISHERS, IN, 46038","Match","Exact","12585 TRAVERSE PL, FISHERS, IN, 46038",29329193,"R"
125903,"12585 TRAVERSE PLACE","FISHES","IN",46038,39.9705478830001,-86.0122449959999,403,"12585 TRAVERSE PLACE, FISHES, IN, 46038","Match","Non_Exact","12585 TRAVERSE PL, FISHERS, IN, 46038",29329193,"R"
125904,"12585 WEST SKYLINE PARKWAY","PROCTOR","MN",55810,46.6917558810001,-92.268942867,404,"12585 WEST SKYLINE PARKWAY, PROCTOR, MN, 55810","Match","Exact","12585 W SKYLINE PKWY, PROCTOR, MN, 55810",651186693,"L"
125905,"12587 ATLANTA COURT","HAGERSTOWN","MD",21740,39.661496109,-77.752432584,405,"12587 ATLANTA COURT, HAGERSTOWN, MD, 21740","Match","Exact","12587 ATLANTA CT, HAGERSTOWN, MD, 21740",625271281,"R"
125906,"12587 BENTLEY BLVD","FISHERS","IN",46038,39.9709275760001,-86.023259228,406,"12587 BENTLEY BLVD, FISHERS, IN, 46038","Match","Exact","12587 BENTLEY BLVD, FISHERS, IN, 46038",231601799,"L"
125907,"12587 CARMEL CANYON ROAD","SAN DIEGO","CA",92130,32.947447455,-117.214523057,407,"12587 CARMEL CANYON ROAD, SAN DIEGO, CA, 92130","Match","Exact","12587 CARMEL CANYON RD, SAN DIEGO, CA, 92130",195671522,"R"
125908,"12588 COLUBIAN","COLUBUS","OH",43223,NA,NA,408,"12588 COLUBIAN, COLUBUS, OH, 43223","No_Match",NA,NA,NA,NA
125909,"12588 CRICKET LANE","WOODBRIDGE","VA",22192,38.6790338600001,-77.315347451,409,"12588 CRICKET LANE, WOODBRIDGE, VA, 22192","Match","Exact","12588 CRICKET LN, WOODBRIDGE, VA, 22192",76524849,"R"
125910,"12588 DOE MILL RD -POB 501","FOREST RANCH","CA",95942,39.850240822,-121.663476686,410,"12588 DOE MILL RD -POB 501, FOREST RANCH, CA, 95942","Match","Exact","12588 DOE MILL RD, FOREST RANCH, CA, 95942",634215856,"R"
125911,"12588 SOUTH STARLITE HILL LANE","HERRIMAN","UT",84096,40.5226881580001,-112.035635679,411,"12588 SOUTH STARLITE HILL LANE, HERRIMAN, UT, 84096","Match","Exact","12588 S STARLITE HILL LN, HERRIMAN, UT, 84096",604581224,"R"
125912,"12588 WEST LACHLON ST","BOISE","ID",83709,43.5565625580001,-116.33920406,412,"12588 WEST LACHLON ST, BOISE, ID, 83709","Match","Non_Exact","12588 W LACHLAN ST, BOISE, ID, 83709",646289634,"R"
125913,"12589 ANSIN CIRCLE","POTOMAC","MD",20854,39.059950099,-77.160265378,413,"12589 ANSIN CIRCLE, POTOMAC, MD, 20854","Match","Non_Exact","12589 ANSIN CIR DR, POTOMAC, MD, 20854",618601834,"R"
125914,"12589 AYRSHIRE ST E","JACKSONVILLE","FL",32226,NA,NA,414,"12589 AYRSHIRE ST E, JACKSONVILLE, FL, 32226","No_Match",NA,NA,NA,NA
125915,"12589 MOUNTAIN SPRINGS PLACE","TRINITY","FL",34655,28.1810317850001,-82.607699123,415,"12589 MOUNTAIN SPRINGS PLACE, TRINITY, FL, 34655","Match","Exact","12589 MOUNTAIN SPRINGS PL, TRINITY, FL, 34655",641298584,"L"
125916,"12589 N US HWY 231","ODON","IN",47562,38.8398697800001,-86.9226890419999,416,"12589 N US HWY 231, ODON, IN, 47562","Match","Exact","12589 US HWY 231, ODON, IN, 47562",32083019,"L"
125917,"12589 SOUTH 18TH ST","VICKSBURG","MI",49097,42.13479277,-85.5887414699999,417,"12589 SOUTH 18TH ST, VICKSBURG, MI, 49097","Match","Exact","12589 S 18TH ST, VICKSBURG, MI, 49097",12233738,"L"
125918,"12589 W 2000 N","BLUEBELL","UT",84007,NA,NA,418,"12589 W 2000 N, BLUEBELL, UT, 84007","No_Match",NA,NA,NA,NA
125919,"1258A CENTER STREET","HONOLULU","HI",96816,21.2838427090001,-157.798557993,419,"1258A CENTER STREET, HONOLULU, HI, 96816","Match","Exact","1258 CENTER ST, HONOLULU, HI, 96816",203242544,"L"
125920,"1259 AALA STREET SUITE 201","HONOLULU","HI",96817,21.3162378280001,-157.861541861,420,"1259 AALA STREET SUITE 201, HONOLULU, HI, 96817","Match","Exact","1259 AALA ST, HONOLULU, HI, 96817",203235907,"R"
125921,"1259 ARGONNE RD","CLEVELAND","OH",44121,41.5257624550001,-81.52993409,421,"1259 ARGONNE RD, CLEVELAND, OH, 44121","Match","Exact","1259 ARGONNE RD, CLEVELAND, OH, 44121",61124694,"L"
125922,"1259 ARGYLE DRIVE","MADISON","OH",44057,41.839903473,-81.033258285,422,"1259 ARGYLE DRIVE, MADISON, OH, 44057","Match","Exact","1259 ARGYLE DR, MADISON, OH, 44057",137468551,"L"
125923,"1259 BASSETT AVE","LOUISVILLE","KY",40204,38.2390408840001,-85.711075794,423,"1259 BASSETT AVE, LOUISVILLE, KY, 40204","Match","Exact","1259 BASSETT AVE, LOUISVILLE, KY, 40204",618500860,"L"
125924,"1259 BAYVIEW LANE","GULF BREEZE","FL",32563,30.383461332,-87.081967573,424,"1259 BAYVIEW LANE, GULF BREEZE, FL, 32563","Match","Exact","1259 BAYVIEW LN, GULF BREEZE, FL, 32563",74572161,"L"
125925,"1259 BEACON HILL WAY","COLORADO SPRINGS","CO",80905,38.814800388,-104.84877379,425,"1259 BEACON HILL WAY, COLORADO SPRINGS, CO, 80905","Match","Exact","1259 BEACON HILL WAY, COLORADO SPRINGS, CO, 80905",105550958,"L"
125926,"1259 BELFAST ST","GREENVILLE","MS",38703,33.424419202,-91.0315460319999,426,"1259 BELFAST ST, GREENVILLE, MS, 38703","Match","Exact","1259 BELFAST ST, GREENVILLE, MS, 38703",1153207,"R"
125927,"1259 BENTWOOD CT","ALTOONA","IA",50009,41.6403552140001,-93.4666426159999,427,"1259 BENTWOOD CT, ALTOONA, IA, 50009","Match","Exact","1259 BENTWOOD CT, ALTOONA, IA, 50009",65862727,"R"
125928,"1259 BETHANY CHURCH RD","FOREST CITY","NC",28043,35.2984428440001,-81.907940249,428,"1259 BETHANY CHURCH RD, FOREST CITY, NC, 28043","Match","Exact","1259 BETHANY CHURCH RD, FOREST CITY, NC, 28043",636834590,"R"
125929,"1259 BOYDEN AVE","LANCASTER","CA",93534,34.7064518080001,-118.152132059,429,"1259 BOYDEN AVE, LANCASTER, CA, 93534","Match","Exact","1259 BOYDEN AVE, LANCASTER, CA, 93534",141525865,"L"
125930,"1259 BRITNY DR","FLORENCE","SC",29501,34.1701764060001,-79.833705213,430,"1259 BRITNY DR, FLORENCE, SC, 29501","Match","Non_Exact","1259 BRITTANY DR, FLORENCE, SC, 29501",619599907,"R"
125931,"1259 CAMBRIA WAY","ENCINITAS","CA",92024,33.059479556,-117.264286428,431,"1259 CAMBRIA WAY, ENCINITAS, CA, 92024","Match","Exact","1259 CAMBRIA WAY, ENCINITAS, CA, 92024",195670110,"R"
125932,"1259 CARL DASHER ROAD","GLENNVILLE","GA",30427,NA,NA,432,"1259 CARL DASHER ROAD, GLENNVILLE, GA, 30427","No_Match",NA,NA,NA,NA
125933,"1259 CHATEAU WOODS","FERGUSON","MO",63135,38.7638799150001,-90.297657374,433,"1259 CHATEAU WOODS, FERGUSON, MO, 63135","Match","Non_Exact","1259 CHATEAU WOODS DR, FERGUSON, MO, 63135",100177454,"L"
125934,"1259 CHESTNUT ST","MONACA","PA",15061,40.6789314220001,-80.2795281369999,434,"1259 CHESTNUT ST, MONACA, PA, 15061","Match","Exact","1259 CHESTNUT ST, MONACA, PA, 15061",608474224,"L"
125935,"1259 COAN DR","LOCUST GROVE","GA",30248,33.3908216140001,-84.0767607459999,435,"1259 COAN DR, LOCUST GROVE, GA, 30248","Match","Exact","1259 COAN DR, LOCUST GROVE, GA, 30248",619915069,"L"
125936,"1259 COLLIER RD","MOSCOW","OH",45153,38.869192088,-84.142803463,436,"1259 COLLIER RD, MOSCOW, OH, 45153","Match","Exact","1259 COLLIER RD, MOSCOW, OH, 45153",635569648,"L"
125937,"1259 COMMONWEALTH AVE","BRONX","NY",10472,40.8316141540001,-73.868212645,437,"1259 COMMONWEALTH AVE, BRONX, NY, 10472","Match","Exact","1259 COMMONWEALTH AVE, BRONX, NY, 10472",80304338,"L"
125938,"1259 CONLEY THOMPSON RD","MARION","OH",43302,40.610810471,-83.2694638409999,438,"1259 CONLEY THOMPSON RD, MARION, OH, 43302","Match","Exact","1259 CONLEY THOMPSON RD, MARION, OH, 43302",12713307,"L"
125939,"1259 DAPHNE DRIVE","SAN JOSE","CA",95129,37.2997019580001,-122.021603673,439,"1259 DAPHNE DRIVE, SAN JOSE, CA, 95129","Match","Exact","1259 DAPHNE DR, SAN JOSE, CA, 95129",122940756,"R"
125940,"1259 DECATUR STREET","CAMDEN","NJ",8104,39.9230805880001,-75.1022810589999,440,"1259 DECATUR STREET, CAMDEN, NJ, 8104","Match","Exact","1259 DECATUR ST, CAMDEN, NJ, 08104",134348032,"L"
125941,"1259 DEVONWORTH DR","CHESTERFIELD","MO",63017,38.6250518570001,-90.504986629,441,"1259 DEVONWORTH DR, CHESTERFIELD, MO, 63017","Match","Exact","1259 DEVONWORTH DR, CHESTERFIELD, MO, 63017",636519395,"L"
125942,"1259 E 167TH STRET","SOUTH HOLLAND","IL",60473,NA,NA,442,"1259 E 167TH STRET, SOUTH HOLLAND, IL, 60473","No_Match",NA,NA,NA,NA
125943,"1259 E 200 S","SALT LAKE CITY","UT",84102,40.7650161060001,-111.854871567,443,"1259 E 200 S, SALT LAKE CITY, UT, 84102","Match","Exact","1259 E 200 S, SALT LAKE CITY, UT, 84102",176068302,"L"
125944,"1259 E 79TH STREET","CLEVELAND","OH",44103,41.520791719,-81.633580259,444,"1259 E 79TH STREET, CLEVELAND, OH, 44103","Match","Exact","1259 E 79TH ST, CLEVELAND, OH, 44103",61113823,"L"
125945,"1259 E BRYAN AVE","SALT LAKE CITY","UT",84105,40.735542292,-111.855204932,445,"1259 E BRYAN AVE, SALT LAKE CITY, UT, 84105","Match","Exact","1259 E BRYAN AVE, SALT LAKE CITY, UT, 84105",176080732,"L"
125946,"1259 EAST 55TH STREET","BROOKLYN","NY",11234,40.625907908,-73.922773088,446,"1259 EAST 55TH STREET, BROOKLYN, NY, 11234","Match","Exact","1259 E 55TH ST, BROOKLYN, NY, 11234",59097955,"L"
125947,"1259 EDITH AVE","GRAND RAPIDS","MI",49505,42.986065597,-85.631316767,447,"1259 EDITH AVE, GRAND RAPIDS, MI, 49505","Match","Non_Exact","1259 EDITH AVE NE, GRAND RAPIDS, MI, 49505",12460867,"L"
125948,"1259 EL CAMINO REAL 182","MENLO PARK","CA",94025,37.4549211710001,-122.185748987,448,"1259 EL CAMINO REAL 182, MENLO PARK, CA, 94025","Match","Exact","1259 EL CAMINO REAL, MENLO PARK, CA, 94025",639030520,"L"
125949,"1259 EL CAMINO REAL STE - 196","MENLO PARK","CA",94025,37.4549211710001,-122.185748987,449,"1259 EL CAMINO REAL STE - 196, MENLO PARK, CA, 94025","Match","Exact","1259 EL CAMINO REAL, MENLO PARK, CA, 94025",639030520,"L"
125950,"1259 EL CAMINO","MENLO PARK","CA",94025,NA,NA,450,"1259 EL CAMINO, MENLO PARK, CA, 94025","No_Match",NA,NA,NA,NA
125951,"1259 FARRAGUT DR","COUPEVILLE","WA",98239,48.1644268330001,-122.62160596,451,"1259 FARRAGUT DR, COUPEVILLE, WA, 98239","Match","Non_Exact","1259 S FARRAGUT DR, COUPEVILLE, WA, 98239",187584197,"L"
125952,"1259 FENWAY CIRCLE","DECATUR","GA",30030,33.756666771,-84.28332733,452,"1259 FENWAY CIRCLE, DECATUR, GA, 30030","Match","Exact","1259 FENWAY CIR, DECATUR, GA, 30030",23367635,"R"
125953,"1259 FRANK MARSHALL RD","OZARK","AL",36360,31.4969182890001,-85.626784524,453,"1259 FRANK MARSHALL RD, OZARK, AL, 36360","Match","Exact","1259 FRANK MARSHALL RD, OZARK, AL, 36360",639013899,"L"
125954,"1259 GATE POST LANE","POWDER SPRINGS","GA",30127,33.919566097,-84.711096201,454,"1259 GATE POST LANE, POWDER SPRINGS, GA, 30127","Match","Exact","1259 GATE POST LN, POWDER SPGS, GA, 30127",17225055,"R"
125955,"1259 GRANT AVE 5E","BRONX","NY",10456,40.8347544650001,-73.9142965729999,455,"1259 GRANT AVE 5E, BRONX, NY, 10456","Match","Exact","1259 GRANT AVE, BRONX, NY, 10456",80299890,"L"
125956,"1259 HARBOR LIGHTS ROAD","SUAMICO","WI",54173,44.6205385040001,-88.032058369,456,"1259 HARBOR LIGHTS ROAD, SUAMICO, WI, 54173","Match","Exact","1259 HARBOR LIGHTS RD, SUAMICO, WI, 54173",148098758,"R"
125957,"1259 HIGHLAND DRIVE","CHATTANOOGA","TN",37405,35.0765436570001,-85.292067574,457,"1259 HIGHLAND DRIVE, CHATTANOOGA, TN, 37405","Match","Exact","1259 HIGHLAND DR, CHATTANOOGA, TN, 37405",59323283,"L"
125958,"1259 INDIAN CREEK RD","MINERAL","VA",23117,37.897973006,-77.932689044,458,"1259 INDIAN CREEK RD, MINERAL, VA, 23117","Match","Exact","1259 INDIAN CREEK RD, MINERAL, VA, 23117",84937313,"L"
125959,"1259 JOHN BART RD","LEBANON","IN",46052,40.0582112060001,-86.450691827,459,"1259 JOHN BART RD, LEBANON, IN, 46052","Match","Exact","1259 JOHN BART RD, LEBANON, IN, 46052",610986158,"R"
125960,"1259 JOHNSON AVE","SAN DIEGO","CA",92103,32.753055827,-117.152173578,460,"1259 JOHNSON AVE, SAN DIEGO, CA, 92103","Match","Exact","1259 JOHNSON AVE, SAN DIEGO, CA, 92103",195652483,"R"
125961,"1259 JOHNSONS AVE","SAN DIEGO","CA",92103,NA,NA,461,"1259 JOHNSONS AVE, SAN DIEGO, CA, 92103","No_Match",NA,NA,NA,NA
125962,"1259 JULIUS STREET","NORTH HUNTINGDON","PA",15642,40.3381284430001,-79.701742843,462,"1259 JULIUS STREET, NORTH HUNTINGDON, PA, 15642","Match","Exact","1259 JULIUS ST, N HUNTINGDON, PA, 15642",52967231,"R"
125963,"1259 JULIUS STREET","NORTH HUNTINGDON","PW",15642,NA,NA,463,"1259 JULIUS STREET, NORTH HUNTINGDON, PW, 15642","No_Match",NA,NA,NA,NA
125964,"1259 LAFAYETTE ROAD","NORTH KINGSTOWN","RI",2852,41.546210494,-71.4989079759999,464,"1259 LAFAYETTE ROAD, NORTH KINGSTOWN, RI, 2852","Match","Exact","1259 LAFAYETTE RD, NORTH KINGSTOWN, RI, 02852",58912006,"L"
125965,"1259 LIMPKIN LANE","MIDDLEBURG","FL",32068,30.137238143,-81.860451618,465,"1259 LIMPKIN LANE, MIDDLEBURG, FL, 32068","Match","Exact","1259 LIMPKIN LN, MIDDLEBURG, FL, 32068",640723030,"L"
125966,"1259 LOCUST FORK RD","STAMPING GROUND","KY",40379,38.316498978,-84.671020141,466,"1259 LOCUST FORK RD, STAMPING GROUND, KY, 40379","Match","Exact","1259 LOCUST FORK RD, STAMPING GROUND, KY, 40379",41236299,"R"
125967,"1259 MACKINAW AVE","CALUMET CITY","IL",60409,41.5981575760001,-87.541909146,467,"1259 MACKINAW AVE, CALUMET CITY, IL, 60409","Match","Exact","1259 MACKINAW AVE, CALUMET CITY, IL, 60409",111783575,"L"
125968,"1259 MACKINAW AVENUE","CALUMET CITY","IL",60409,41.5981575760001,-87.541909146,468,"1259 MACKINAW AVENUE, CALUMET CITY, IL, 60409","Match","Exact","1259 MACKINAW AVE, CALUMET CITY, IL, 60409",111783575,"L"
125969,"1259 MELROY COURT","RIVERDALE","GA",30296,33.5613826530001,-84.430731447,469,"1259 MELROY COURT, RIVERDALE, GA, 30296","Match","Exact","1259 MELROY CT, RIVERDALE, GA, 30296",23325560,"R"
125970,"1259 MILANO DR UNIT 3","WEST SACRAMENO","CA",95691,38.5543997990001,-121.518062398,470,"1259 MILANO DR UNIT 3, WEST SACRAMENO, CA, 95691","Match","Non_Exact","1259 MILANO ST, WEST SACRAMENTO, CA, 95691",627319337,"R"
125971,"1259 MOBILE RD","CARROLLTON","OH",44615,40.6021452350001,-81.0598404309999,471,"1259 MOBILE RD, CARROLLTON, OH, 44615","Match","Non_Exact","1259 MOBILE RD NE, CARROLLTON, OH, 44615",44182228,"L"
125972,"1259 N YARBERRY CT","SPRINGFIELD","MO",65802,37.220383708,-93.2178063709999,472,"1259 N YARBERRY CT, SPRINGFIELD, MO, 65802","Match","Non_Exact","1259 N YARBERRY AVE, SPRINGFIELD, MO, 65802",76696411,"L"
125973,"1259 NEW YORK AVE","LOGAN","OH",43138,39.5463082910001,-82.386328862,473,"1259 NEW YORK AVE, LOGAN, OH, 43138","Match","Exact","1259 NEW YORK AVE, LOGAN, OH, 43138",36075038,"L"
125974,"1259 NOBLE AVENUE","BRONX","NY",10472,40.8317356680001,-73.870223841,474,"1259 NOBLE AVENUE, BRONX, NY, 10472","Match","Exact","1259 NOBLE AVE, BRONX, NY, 10472",80304332,"L"
125975,"1259 NORMAN CHAPEL ROAD NW","CLEVELAND","TN",37312,35.1982631390001,-84.875495094,475,"1259 NORMAN CHAPEL ROAD NW, CLEVELAND, TN, 37312","Match","Exact","1259 NORMAN CHAPEL RD NW, CLEVELAND, TN, 37312",57586439,"L"
125976,"1259 OLD ROUTE 36","WINCHESTER","IL",62694,NA,NA,476,"1259 OLD ROUTE 36, WINCHESTER, IL, 62694","No_Match",NA,NA,NA,NA
125977,"1259 PALATKA PLACE","BOLIVIA","NC",28422,33.997166576,-78.21697915,477,"1259 PALATKA PLACE, BOLIVIA, NC, 28422","Match","Exact","1259 PALATKA PL, BOLIVIA, NC, 28422",625136845,"L"
125978,"1259 PERSIMMON PLACE DR","BETHLEHEM","GA",30620,33.9218715370001,-83.75450871,478,"1259 PERSIMMON PLACE DR, BETHLEHEM, GA, 30620","Match","Exact","1259 PERSIMMON PLACE DR, BETHLEHEM, GA, 30620",600584678,"R"
125979,"1259 QUARRY RD","DANVILLE","KY",40422,NA,NA,479,"1259 QUARRY RD, DANVILLE, KY, 40422","No_Match",NA,NA,NA,NA
125980,"1259 RAYMOND ROAD","NORTH BELLMORE","NY",11710,40.6903694920001,-73.531556616,480,"1259 RAYMOND ROAD, NORTH BELLMORE, NY, 11710","Match","Exact","1259 RAYMOND RD, N BELLMORE, NY, 11710",147636321,"L"
125981,"1259 RIDGE AVE","MANAHAWKIN","NJ",8050,39.728352709,-74.246184692,481,"1259 RIDGE AVE, MANAHAWKIN, NJ, 8050","Match","Exact","1259 RIDGE AVE, MANAHAWKIN, NJ, 08050",203849917,"R"
125982,"1259 ROUND HOUSE RD","QUAKERTOWN","PA",18951,40.5017427970001,-75.267604198,482,"1259 ROUND HOUSE RD, QUAKERTOWN, PA, 18951","Match","Exact","1259 ROUND HOUSE RD, QUAKERTOWN, PA, 18951",134695098,"R"
125983,"1259 S FALCON DRIVE","PALATINE","IL",60067,42.0872598500001,-88.067689372,483,"1259 S FALCON DRIVE, PALATINE, IL, 60067","Match","Exact","1259 S FALCON DR, PALATINE, IL, 60067",633603035,"L"
125984,"1259 S FOREST LN","PRAIRIE DU SAC","WI",53578,43.2945639340001,-89.732478731,484,"1259 S FOREST LN, PRAIRIE DU SAC, WI, 53578","Match","Exact","1259 FOREST LN, PRAIRIE DU SAC, WI, 53578",86551310,"R"
125985,"1259 S GLENDALE AVE NUM C","GLENDALE","CA",91205,34.1300491640001,-118.252492135,485,"1259 S GLENDALE AVE NUM C, GLENDALE, CA, 91205","Match","Non_Exact","1259 S GLENDALE AVE, GLENDALE, CA, 91205",141610296,"R"
125986,"1259 S TAYLOR ST","PHILADELPHIA","PA",19146,39.936843218,-75.1848619309999,486,"1259 S TAYLOR ST, PHILADELPHIA, PA, 19146","Match","Exact","1259 S TAYLOR ST, PHILADELPHIA, PA, 19146",131406951,"L"
125987,"1259 SAXON BOULEVARD","DELTONA","FL",32725,28.8984140860001,-81.2359486679999,487,"1259 SAXON BOULEVARD, DELTONA, FL, 32725","Match","Exact","1259 SAXON BLVD, DELTONA, FL, 32725",94503040,"R"
125988,"1259 SHELTER COVE","WINSTON-SALEM","NC",27106,36.1228752600001,-80.3164525289999,488,"1259 SHELTER COVE, WINSTON-SALEM, NC, 27106","Match","Exact","1259 SHELTER COVE, WINSTON SALEM, NC, 27106",84603308,"R"
125989,"1259 SOUTH 2ND","SPRINGFIELD","OR",97477,44.0360230300001,-123.020701499,489,"1259 SOUTH 2ND, SPRINGFIELD, OR, 97477","Match","Non_Exact","1259 S 2ND ST, SPRINGFIELD, OR, 97477",647959494,"L"
125990,"1259 STATE HWY 94","BIGGESVILLE","IL",61418,40.8156161310001,-90.9040622539999,490,"1259 STATE HWY 94, BIGGESVILLE, IL, 61418","Match","Non_Exact","1259 STATE HWY 94, BIGGSVILLE, IL, 61418",648189356,"L"
125991,"1259 TOLLESON","SPRINGDALE","AR",72764,36.201791816,-94.111848505,491,"1259 TOLLESON, SPRINGDALE, AR, 72764","Match","Non_Exact","1259 TOLLESON LOOP, SPRINGDALE, AR, 72764",49093851,"R"
125992,"1259 W BELDEN AVE","CHICAGO","IL",60614,41.9234507410001,-87.660352799,492,"1259 W BELDEN AVE, CHICAGO, IL, 60614","Match","Non_Exact","1259 W BELDEN AVE, CHICAGO, IL, 60614",605167221,"L"
125993,"1259 W NORBERRY STREET","LANCASTER","CA",93534,34.692724297,-118.154000366,493,"1259 W NORBERRY STREET, LANCASTER, CA, 93534","Match","Exact","1259 NORBERRY ST, LANCASTER, CA, 93534",141526008,"L"
125994,"1259 W VICTORIA STREET","CHICAGO","IL",60660,41.9873008870001,-87.662245345,494,"1259 W VICTORIA STREET, CHICAGO, IL, 60660","Match","Exact","1259 W VICTORIA ST, CHICAGO, IL, 60660",605179258,"L"
125995,"1259 WADE STEDMAN RD","FAYETTEVILLE","NC",28301,NA,NA,495,"1259 WADE STEDMAN RD, FAYETTEVILLE, NC, 28301","No_Match",NA,NA,NA,NA
125996,"1259 WARNER AVE","MANSFEILD","OH",44905,40.76859505,-82.469138491,496,"1259 WARNER AVE, MANSFEILD, OH, 44905","Match","Non_Exact","1259 WARNER AVE, MANSFIELD, OH, 44905",207219593,"R"
125997,"1259 WAYSIDE DRIVE","SANDY","UT",84094,40.5967935580001,-111.854721782,497,"1259 WAYSIDE DRIVE, SANDY, UT, 84094","Match","Exact","1259 WAYSIDE DR, SANDY, UT, 84094",176089102,"L"
125998,"1259 WEILAND ST APT A1","KENT","WA",98030,47.380935381,-122.217636192,498,"1259 WEILAND ST APT A1, KENT, WA, 98030","Match","Exact","1259 WEILAND ST, KENT, WA, 98030",239759180,"L"
125999,"1259 WEST 23RD STREET UNIT 1","SAN PEDRO","CA",90731,33.723391441,-118.304693497,499,"1259 WEST 23RD STREET UNIT 1, SAN PEDRO, CA, 90731","Match","Exact","1259 W 23RD ST, SAN PEDRO, CA, 90731",642861304,"L"
126000,"1259 WHISPERING OAKS DR","DESOTO","TX",75115,32.610387657,-96.8887383859999,500,"1259 WHISPERING OAKS DR, DESOTO, TX, 75115","Match","Exact","1259 WHISPERING OAKS DR, DESOTO, TX, 75115",102944084,"R"
