"ID","Address","City","State","Zip","lat","long","id","input_address","match_indicator","match_type","matched_address","tiger_line_id","tiger_side"
563501,"3737 MORGANFORD RD APT G","SAINT LOUIS","MO",63116,38.5910895910001,-90.263758466,1,"3737 MORGANFORD RD APT G, SAINT LOUIS, MO, 63116","Match","Exact","3737 MORGANFORD RD, SAINT LOUIS, MO, 63116",618276403,"R"
563502,"3737 MT BLANC CIR","ANCHORAGE","AK",99508,61.1870198510001,-149.854355564,2,"3737 MT BLANC CIR, ANCHORAGE, AK, 99508","Match","Exact","3737 MOUNT BLANC CIR, ANCHORAGE, AK, 99508",190799072,"L"
563503,"3737 N 1ST STREET","MILWAUKEE","WI",53212,43.084513906,-87.910940222,3,"3737 N 1ST STREET, MILWAUKEE, WI, 53212","Match","Exact","3737 N 1ST ST, MILWAUKEE, WI, 53212",77739027,"L"
563504,"3737 N KINGSHIGHWAY","SAINT LOUIS","MO",63115,NA,NA,4,"3737 N KINGSHIGHWAY, SAINT LOUIS, MO, 63115","No_Match",NA,NA,NA,NA
563505,"3737 N MERIDIAN ST 3 FLR","INDIANAPOLIS","IN",46208,39.8233570090001,-86.156830908,5,"3737 N MERIDIAN ST 3 FLR, INDIANAPOLIS, IN, 46208","Match","Non_Exact","3737 N MERIDIAN ST, INDIANAPOLIS, IN, 46208",652688022,"R"
563506,"3737 N MERIDIAN STREET SUITE 506","INDIANAPOLIS","IN",46208,39.8233570090001,-86.156830908,6,"3737 N MERIDIAN STREET SUITE 506, INDIANAPOLIS, IN, 46208","Match","Non_Exact","3737 N MERIDIAN ST, INDIANAPOLIS, IN, 46208",652688022,"R"
563507,"3737 N POLE LOOP NE","RIO RANCHO","NM",87144,35.3204931020001,-106.58965922,7,"3737 N POLE LOOP NE, RIO RANCHO, NM, 87144","Match","Exact","3737 N POLE LOOP NE, RIO RANCHO, NM, 87144",628070516,"R"
563508,"3737 N SHERMAN BLVD","MILWAUKEE","WI",53216,43.0847972870001,-87.967199711,8,"3737 N SHERMAN BLVD, MILWAUKEE, WI, 53216","Match","Exact","3737 N SHERMAN BLVD, MILWAUKEE, WI, 53216",77731690,"L"
563509,"3737 NAHID COURT","CORPUS CHRISTI","TX",78418,27.6341088830001,-97.3254721069999,9,"3737 NAHID COURT, CORPUS CHRISTI, TX, 78418","Match","Exact","3737 NAHID CT, CORPUS CHRISTI, TX, 78418",651960460,"L"
563510,"3737 NE 135TH AVENUE","PORTLAND","OR",97230,45.5497002610001,-122.52402926,10,"3737 NE 135TH AVENUE, PORTLAND, OR, 97230","Match","Exact","3737 NE 135TH AVE, PORTLAND, OR, 97230",157519401,"L"
563511,"3737 NORTH 18TH STREET","PHILADELPHIA","PA",19140,40.010699292,-75.157455666,11,"3737 NORTH 18TH STREET, PHILADELPHIA, PA, 19140","Match","Exact","3737 N 18TH ST, PHILADELPHIA, PA, 19140",131417745,"R"
563512,"3737 NORTH BROADWAY","ST. LOUIS","MO",63147,38.663310107,-90.1958835139999,12,"3737 NORTH BROADWAY, ST. LOUIS, MO, 63147","Match","Exact","3737 N BROADWAY, SAINT LOUIS, MO, 63147",107603883,"L"
563513,"3737 NORTH MERIDIAN ST STE 402","INDIANAPOLIS","IN",46208,39.823355985,-86.156830901,13,"3737 NORTH MERIDIAN ST STE 402, INDIANAPOLIS, IN, 46208","Match","Exact","3737 N MERIDIAN ST, INDIANAPOLIS, IN, 46208",652688022,"R"
563514,"3737 NORTH MERIDIAN STREET","INDIANAPOLIS","IN",46208,39.823355985,-86.156830901,14,"3737 NORTH MERIDIAN STREET, INDIANAPOLIS, IN, 46208","Match","Exact","3737 N MERIDIAN ST, INDIANAPOLIS, IN, 46208",652688022,"R"
563515,"3737 NORTH PATTERSON AVENUE","WINSTON SALEM","NC",27105,36.145070908,-80.244226458,15,"3737 NORTH PATTERSON AVENUE, WINSTON SALEM, NC, 27105","Match","Non_Exact","3737 PATTERSON AVE, WINSTON SALEM, NC, 27105",615646029,"R"
563516,"3737 NW 75TH STREET","GAINESVILLE","FL",32606,29.687011366,-82.4222735819999,16,"3737 NW 75TH STREET, GAINESVILLE, FL, 32606","Match","Exact","3737 NW 75TH ST, GAINESVILLE, FL, 32606",648282512,"R"
563517,"3737 NW OAK AVE","REDMOND","OR",97756,44.2951967590001,-121.212308833,17,"3737 NW OAK AVE, REDMOND, OR, 97756","Match","Exact","3737 NW OAK AVE, REDMOND, OR, 97756",152571690,"R"
563518,"3737 OAK TIMBER DRIVE","FOREST HILLS","TX",76119,NA,NA,18,"3737 OAK TIMBER DRIVE, FOREST HILLS, TX, 76119","No_Match",NA,NA,NA,NA
563519,"3737 PALADERA PLACE CT","SPRING","TX",77386,30.1516642220001,-95.382340405,19,"3737 PALADERA PLACE CT, SPRING, TX, 77386","Match","Exact","3737 PALADERA PLACE CT, SPRING, TX, 77386",652898571,"L"
563520,"3737 REDAN ROAD APT 2003","DECATUR","GA",30032,33.7606779490001,-84.236501204,20,"3737 REDAN ROAD APT 2003, DECATUR, GA, 30032","Match","Exact","3737 REDAN RD, DECATUR, GA, 30032",23394966,"R"
563521,"3737 REDAN ROAD","DECATUR","GA",30032,33.7606779490001,-84.236501204,21,"3737 REDAN ROAD, DECATUR, GA, 30032","Match","Exact","3737 REDAN RD, DECATUR, GA, 30032",23394966,"R"
563522,"3737 ROUGE WAY","LOUISVILLE","KY",40218,38.202664004,-85.647082785,22,"3737 ROUGE WAY, LOUISVILLE, KY, 40218","Match","Exact","3737 ROUGE WAY, LOUISVILLE, KY, 40218",96856593,"L"
563523,"3737 ROYAL CYPRESS LANE","LAKE WORTH","FL",33467,26.623216411,-80.1838373579999,23,"3737 ROYAL CYPRESS LANE, LAKE WORTH, FL, 33467","Match","Exact","3737 ROYAL CYPRESS LN, LAKE WORTH, FL, 33467",115578396,"R"
563524,"3737 RUSSELL RD","WODDBRIDGE","VA",22192,38.6662855370001,-77.324516686,24,"3737 RUSSELL RD, WODDBRIDGE, VA, 22192","Match","Non_Exact","3737 RUSSELL RD, WOODBRIDGE, VA, 22192",636659603,"L"
563525,"3737 RUSSELL RD","WOODBRIDGE","VA",22192,38.6662855370001,-77.324516686,25,"3737 RUSSELL RD, WOODBRIDGE, VA, 22192","Match","Exact","3737 RUSSELL RD, WOODBRIDGE, VA, 22192",636659603,"L"
563526,"3737 S 58TH COURT","CICERO","IL",60804,41.8246308080001,-87.769292736,26,"3737 S 58TH COURT, CICERO, IL, 60804","Match","Exact","3737 S 58TH CT, CICERO, IL, 60804",111796847,"L"
563527,"3737 S GILLHAM DR","BLOOMINGTON","IN",47403,39.127187023,-86.613260855,27,"3737 S GILLHAM DR, BLOOMINGTON, IN, 47403","Match","Exact","3737 S GILLHAM DR, BLOOMINGTON, IN, 47403",42320591,"R"
563528,"3737 S SCATTERFIELD RD","ANDERSON","IN",46013,40.0773865130001,-85.652875212,28,"3737 S SCATTERFIELD RD, ANDERSON, IN, 46013","Match","Exact","3737 SCATTERFIELD RD, ANDERSON, IN, 46013",31129170,"R"
563529,"3737 SE CARUTHERS","PORTLAND","OR",97214,45.5054908210001,-122.625013455,29,"3737 SE CARUTHERS, PORTLAND, OR, 97214","Match","Non_Exact","3737 SE CARUTHERS ST, PORTLAND, OR, 97214",157514259,"L"
563530,"3737 SEMINARY RD WHITE OAK APT103","ALEXANDRIA","VA",22304,38.820659624,-77.095077971,30,"3737 SEMINARY RD WHITE OAK APT103, ALEXANDRIA, VA, 22304","Match","Exact","3737 SEMINARY RD, ALEXANDRIA, VA, 22304",76063277,"R"
563531,"3737 SEQUOIA DRIVE","SAN LUIS OBISPO","CA",93401,35.2603600510001,-120.629737592,31,"3737 SEQUOIA DRIVE, SAN LUIS OBISPO, CA, 93401","Match","Exact","3737 SEQUOIA DR, SAN LUIS OBISPO, CA, 93401",645357571,"R"
563532,"3737 SOUTH 58TH COURT","CICERO","IL",60804,41.824642489,-87.7692930809999,32,"3737 SOUTH 58TH COURT, CICERO, IL, 60804","Match","Exact","3737 S 58TH CT, CICERO, IL, 60804",111796847,"L"
563533,"3737 ST JOHNS BLUFF RD S","JACKSONVILLE","FL",32224,30.283117502,-81.5255679479999,33,"3737 ST JOHNS BLUFF RD S, JACKSONVILLE, FL, 32224","Match","Exact","3737 SAINT JOHNS BLUFF RD S, JACKSONVILLE, FL, 32224",83920637,"R"
563534,"3737 ST JOHNS BLUFF ROAD-2603","JACKSONVILLE","FL",32224,NA,NA,34,"3737 ST JOHNS BLUFF ROAD-2603, JACKSONVILLE, FL, 32224","No_Match",NA,NA,NA,NA
563535,"3737 SYCAMORE LANE","ROCKWALL","TX",75032,32.889186271,-96.461215005,35,"3737 SYCAMORE LANE, ROCKWALL, TX, 75032","Match","Exact","3737 SYCAMORE LN, ROCKWALL, TX, 75032",123787577,"L"
563536,"3737 SYCAMORE LN","ROCKWALL","TX",75032,32.889186271,-96.461215005,36,"3737 SYCAMORE LN, ROCKWALL, TX, 75032","Match","Exact","3737 SYCAMORE LN, ROCKWALL, TX, 75032",123787577,"L"
563537,"3737 TIMBERGLEN RD-APT 1907","DALLAS","TX",75287,33.004919043,-96.850051368,37,"3737 TIMBERGLEN RD-APT 1907, DALLAS, TX, 75287","Match","Non_Exact","3737 TIMBERGLEN RD, DALLAS, TX, 75287",650105833,"L"
563538,"3737 TYLER STREET NE","MINNEAPOLIS","MN",55421,45.036237262,-93.2447287099999,38,"3737 TYLER STREET NE, MINNEAPOLIS, MN, 55421","Match","Exact","3737 TYLER ST NE, MINNEAPOLIS, MN, 55421",97493584,"R"
563539,"3737 US HWY 26","DUBOIS","WY",83001,43.651035156,-109.935160885,39,"3737 US HWY 26, DUBOIS, WY, 83001","Match","Non_Exact","3737 US HWY 26, DUBOIS, WY, 82513",148496611,"L"
563540,"3737 UTAH ST","SAN DIEGO","CA",92104,32.7460211530001,-117.132792202,40,"3737 UTAH ST, SAN DIEGO, CA, 92104","Match","Exact","3737 UTAH ST, SAN DIEGO, CA, 92104",195345686,"R"
563541,"3737 W 63RD STREET","CHICAGO","IL",60629,41.778755474,-87.716368174,41,"3737 W 63RD STREET, CHICAGO, IL, 60629","Match","Exact","3737 W 63RD ST, CHICAGO, IL, 60629",111816712,"L"
563542,"3737 W AMBER NICKOLE DR","ANTHEM","AZ",85086,33.8300310870001,-112.140652556,42,"3737 W AMBER NICKOLE DR, ANTHEM, AZ, 85086","Match","Non_Exact","3737 AMBER NICKOLE CT, ANTHEM, AZ, 85086",624066930,"R"
563543,"3737 W CLINTON AVE","MILWAUKEE","WI",53209,43.150883257,-87.958073591,43,"3737 W CLINTON AVE, MILWAUKEE, WI, 53209","Match","Exact","3737 W CLINTON AVE, MILWAUKEE, WI, 53209",77735156,"L"
563544,"3737 WATERFORD LANE","WALNUT CREEK","CA",94598,37.914190755,-121.996344939,44,"3737 WATERFORD LANE, WALNUT CREEK, CA, 94598","Match","Exact","3737 WATERFORD LN, WALNUT CREEK, CA, 94598",192092477,"R"
563545,"3737 WENDWOOD LANE  APT 205","CHARLOTTE","NC",28211,35.1875065410001,-80.808186281,45,"3737 WENDWOOD LANE  APT 205, CHARLOTTE, NC, 28211","Match","Exact","3737 WENDWOOD LN, CHARLOTTE, NC, 28211",70627441,"L"
563546,"3737 WESTOWN PARKW 2D","WEST DES MOINES","IA",50266,41.595426891,-93.756085051,46,"3737 WESTOWN PARKW 2D, WEST DES MOINES, IA, 50266","Match","Non_Exact","3737 WESTOWN PKWY, WEST DES MOINES, IA, 50266",65853988,"R"
563547,"3737 WILLOWICK DRIVE","WILMINGTON","NC",28409,NA,NA,47,"3737 WILLOWICK DRIVE, WILMINGTON, NC, 28409","No_Match",NA,NA,NA,NA
563548,"3737 WINDGATE ST","MEDFORD","OR",97504,42.3228344400001,-122.808946214,48,"3737 WINDGATE ST, MEDFORD, OR, 97504","Match","Exact","3737 WINDGATE ST, MEDFORD, OR, 97504",624910441,"R"
563549,"3737 WISNER HIGHWAY","ADRIAN","MI",49221,41.937525372,-84.0452535159999,49,"3737 WISNER HIGHWAY, ADRIAN, MI, 49221","Match","Exact","3737 WISNER HWY, ADRIAN, MI, 49221",624009941,"R"
563550,"37370 LARAMIE ST","PALMDALE","CA",93552,34.561526766,-118.053771467,50,"37370 LARAMIE ST, PALMDALE, CA, 93552","Match","Exact","37370 LARAMIE ST, PALMDALE, CA, 93552",141837874,"R"
563551,"37375 MILES RD","MORELAND HILLS","OH",44022,41.425344092,-81.4275084239999,51,"37375 MILES RD, MORELAND HILLS, OH, 44022","Match","Exact","37375 MILES RD, MORELAND HILLS, OH, 44022",61180120,"L"
563552,"37375 NETHERLANDS AVE","CLARKSBURG","CA",95612,38.3900458140001,-121.54838326,52,"37375 NETHERLANDS AVE, CLARKSBURG, CA, 95612","Match","Exact","37375 NETHERLANDS AVE, CLARKSBURG, CA, 95612",67703286,"R"
563553,"37376 HILLS CREEK ROAD","SPRINGFIELD","OR",97478,43.994424671,-122.881554028,53,"37376 HILLS CREEK ROAD, SPRINGFIELD, OR, 97478","Match","Exact","37376 HILLS CREEK RD, SPRINGFIELD, OR, 97478",651768553,"R"
563554,"3737A BAMBERGER AVE","SAINT LOUIS","MO",63116,38.5896742730001,-90.249513776,54,"3737A BAMBERGER AVE, SAINT LOUIS, MO, 63116","Match","Exact","3737 BAMBERGER AVE, SAINT LOUIS, MO, 63116",605133750,"R"
563555,"3738 58TH ST","WOODSIDE","NY",11377,40.749444446,-73.904664504,55,"3738 58TH ST, WOODSIDE, NY, 11377","Match","Exact","3738 58TH ST, WOODSIDE, NY, 11377",59693311,"R"
563556,"3738 73RD STREET","JACKSON HEIGHTS","NY",11372,NA,NA,56,"3738 73RD STREET, JACKSON HEIGHTS, NY, 11372","No_Match",NA,NA,NA,NA
563557,"3738 ALAMOS AVE","CLOVIS","CA",93619,NA,NA,57,"3738 ALAMOS AVE, CLOVIS, CA, 93619","No_Match",NA,NA,NA,NA
563558,"3738 BRIARHILL ST","MOHEGAN LAKE","NY",10547,41.3304349300001,-73.849561839,58,"3738 BRIARHILL ST, MOHEGAN LAKE, NY, 10547","Match","Exact","3738 BRIARHILL ST, MOHEGAN LAKE, NY, 10547",139724820,"R"
563559,"3738 BUCKINGHAM DR","ROANOKE","VA",24018,37.2454545030001,-80.017698546,59,"3738 BUCKINGHAM DR, ROANOKE, VA, 24018","Match","Exact","3738 BUCKINGHAM DR, ROANOKE, VA, 24018",62908044,"R"
563560,"3738 COLONY DR","SAN ANTONIO","TX",78230,29.5315465960001,-98.558501222,60,"3738 COLONY DR, SAN ANTONIO, TX, 78230","Match","Exact","3738 COLONY DR, SAN ANTONIO, TX, 78230",101492891,"L"
563561,"3738 COUNTY ROAD 116","CALDWELL","TX",77836,30.4433265110001,-96.721005611,61,"3738 COUNTY ROAD 116, CALDWELL, TX, 77836","Match","Exact","3738 CO RD 116, CALDWELL, TX, 77836",24814763,"L"
563562,"3738 COVERED BRIDGE ROAD","SPRING HILL","TN",37179,35.8038728660001,-86.86412322,62,"3738 COVERED BRIDGE ROAD, SPRING HILL, TN, 37179","Match","Non_Exact","3738 COVERED BRIDGE RD, THOMPSONS STATION, TN, 37179",640830698,"L"
563563,"3738 DLINDA","BELLINGHAM","WA",98226,48.7761599460001,-122.412182301,63,"3738 DLINDA, BELLINGHAM, WA, 98226","Match","Non_Exact","3738 DLINDA ST, BELLINGHAM, WA, 98226",183773344,"R"
563564,"3738 FM 1899","COLORADO CITY","TX",79512,32.4238032550001,-100.812439235,64,"3738 FM 1899, COLORADO CITY, TX, 79512","Match","Exact","3738 FM 1899, COLORADO CITY, TX, 79512",183126975,"R"
563565,"3738 FOX DALE LANE","HOLIDAY","FL",34691,28.2068408810001,-82.7518613679999,65,"3738 FOX DALE LANE, HOLIDAY, FL, 34691","Match","Exact","3738 FOX DALE LN, HOLIDAY, FL, 34691",86347608,"R"
563566,"3738 GLEN OAKS BLVD","SIOUX CITY","IA",51104,42.535402295,-96.385616867,66,"3738 GLEN OAKS BLVD, SIOUX CITY, IA, 51104","Match","Exact","3738 GLEN OAKS BLVD, SIOUX CITY, IA, 51104",93446144,"R"
563567,"3738 JASON AVENUE","ALEXANDRIA","VA",22302,38.830036653,-77.094405063,67,"3738 JASON AVENUE, ALEXANDRIA, VA, 22302","Match","Exact","3738 JASON AVE, ALEXANDRIA, VA, 22302",643142781,"R"
563568,"3738 LAKE RD NW","STRASBURG","OH",44680,40.6235801330001,-81.523625513,68,"3738 LAKE RD NW, STRASBURG, OH, 44680","Match","Exact","3738 LAKE RD NW, STRASBURG, OH, 44680",612297425,"L"
563569,"3738 MAIN STREET","JACKSON","MS",39213,32.344246178,-90.205608976,69,"3738 MAIN STREET, JACKSON, MS, 39213","Match","Exact","3738 MAIN ST, JACKSON, MS, 39213",65369224,"R"
563570,"3738 MILFORD AVENUE","BALTIMORE","MD",21207,39.3350694650001,-76.698589235,70,"3738 MILFORD AVENUE, BALTIMORE, MD, 21207","Match","Exact","3738 MILFORD AVE, BALTIMORE, MD, 21207",206404242,"L"
563571,"3738 MILITARY ROAD","ARLINGTON","VA",22207,38.921689938,-77.1207836999999,71,"3738 MILITARY ROAD, ARLINGTON, VA, 22207","Match","Non_Exact","3738 N MILITARY RD, ARLINGTON, VA, 22207",76466165,"L"
563572,"3738 MILL CREEK DRIVE","VISALIA","CA",93291,36.33286409,-119.331002555,72,"3738 MILL CREEK DRIVE, VISALIA, CA, 93291","Match","Exact","3738 MILL CREEK DR, VISALIA, CA, 93291",651106408,"R"
563573,"3738 N KEDVALE AVE","CHICAGO","IL",60641,41.949239758,-87.7307265489999,73,"3738 N KEDVALE AVE, CHICAGO, IL, 60641","Match","Exact","3738 N KEDVALE AVE, CHICAGO, IL, 60641",111756727,"L"
563574,"3738 N PAULINA ST","CHICAGO","IL",60613,41.949899966,-87.671377917,74,"3738 N PAULINA ST, CHICAGO, IL, 60613","Match","Exact","3738 N PAULINA ST, CHICAGO, IL, 60613",605152212,"L"
563575,"3738 NATRONA CT","ELLENWOOD","GA",30294,33.603927201,-84.268705626,75,"3738 NATRONA CT, ELLENWOOD, GA, 30294","Match","Exact","3738 NATRONA CT, ELLENWOOD, GA, 30294",624616508,"R"
563576,"3738 NE DOGWOOD","MADRAS","OR",97741,NA,NA,76,"3738 NE DOGWOOD, MADRAS, OR, 97741","No_Match",NA,NA,NA,NA
563577,"3738 NICOLYN DRIVE","RALEIGH","NC",27616,35.871283315,-78.528456459,77,"3738 NICOLYN DRIVE, RALEIGH, NC, 27616","Match","Exact","3738 NICOLYN DR, RALEIGH, NC, 27616",612829111,"R"
563578,"3738 NORTHWOOD PLACE","SAGINAW","MI",48603,43.457751058,-83.98944739,78,"3738 NORTHWOOD PLACE, SAGINAW, MI, 48603","Match","Exact","3738 NORTHWOOD PL, SAGINAW, MI, 48603",80242919,"R"
563579,"3738 OLD US 1 HIGHWAY","NEW HILL","NC",27562,35.6785489850001,-78.938865553,79,"3738 OLD US 1 HIGHWAY, NEW HILL, NC, 27562","Match","Exact","3738 OLD US 1 HWY, NEW HILL, NC, 27562",652444002,"L"
563580,"3738 PABLO LN","LINCOLN","NE",68516,40.73133749,-96.666015102,80,"3738 PABLO LN, LINCOLN, NE, 68516","Match","Exact","3738 PABLO LN, LINCOLN, NE, 68516",624292800,"R"
563581,"3738 PATRIOTS PLACE DRIVE","CONCORD","NC",28025,35.364411938,-80.575247416,81,"3738 PATRIOTS PLACE DRIVE, CONCORD, NC, 28025","Match","Exact","3738 PATRIOTS PLACE DR, CONCORD, NC, 28025",24918317,"L"
563582,"3738 PENNANT CT NW","OLYMPIA","WA",98502,47.0859233690001,-122.955536374,82,"3738 PENNANT CT NW, OLYMPIA, WA, 98502","Match","Exact","3738 PENNANT CT NW, OLYMPIA, WA, 98502",630052372,"R"
563583,"3738 QUEEN AVE N","MINNEAPOLIS","MN",55412,45.023004799,-93.3095703659999,83,"3738 QUEEN AVE N, MINNEAPOLIS, MN, 55412","Match","Exact","3738 QUEEN AVE N, MINNEAPOLIS, MN, 55412",43621989,"R"
563584,"3738 RENFROE AVE","DOUGLASVILLE","GA",30135,33.707802117,-84.698205279,84,"3738 RENFROE AVE, DOUGLASVILLE, GA, 30135","Match","Exact","3738 RENFROE AVE, DOUGLASVILLE, GA, 30135",618478348,"R"
563585,"3738 RIVER INTERNATIONAL DRIVE","TAMPA","FL",33610,NA,NA,85,"3738 RIVER INTERNATIONAL DRIVE, TAMPA, FL, 33610","No_Match",NA,NA,NA,NA
563586,"3738 ROBLAR RD","PETALUMA","CA",94954,38.32030459,-122.754267319,86,"3738 ROBLAR RD, PETALUMA, CA, 94954","Match","Non_Exact","3738 ROBLAR RD, PETALUMA, CA, 94952",604970808,"R"
563587,"3738 ROCK HOUSE ROAD","SACHSE","TX",75048,32.958779588,-96.571462894,87,"3738 ROCK HOUSE ROAD, SACHSE, TX, 75048","Match","Exact","3738 ROCK HOUSE RD, SACHSE, TX, 75048",649828894,"R"
563588,"3738 ROYAL PL","BONITA","CA",91902,32.6557195030001,-117.059971813,88,"3738 ROYAL PL, BONITA, CA, 91902","Match","Exact","3738 ROYAL PL, BONITA, CA, 91902",195356566,"R"
563589,"3738 S BEVERLY HILLS DRIVE","TOLEDO","OH",43614,41.6141762870001,-83.6318021019999,89,"3738 S BEVERLY HILLS DRIVE, TOLEDO, OH, 43614","Match","Exact","3738 S BEVERLY HILLS DR, TOLEDO, OH, 43614",33936300,"R"
563590,"3738 S HARRIS RANCH AVE","BOISE","ID",83716,43.56805531,-116.127071618,90,"3738 S HARRIS RANCH AVE, BOISE, ID, 83716","Match","Exact","3738 S HARRIS RANCH AVE, BOISE, ID, 83716",648980396,"L"
563591,"3738 S UNION AVENUE","CHICAGO","IL",60609,41.8263859630001,-87.643563238,91,"3738 S UNION AVENUE, CHICAGO, IL, 60609","Match","Exact","3738 S UNION AVE, CHICAGO, IL, 60609",111829166,"R"
563592,"3738 SADDLEBACK DR","PALMDALE","CA",93550,34.573690178,-118.061772826,92,"3738 SADDLEBACK DR, PALMDALE, CA, 93550","Match","Exact","3738 SADDLEBACK DR, PALMDALE, CA, 93550",241181259,"L"
563593,"3738 SOUTHLAWN  - 5","HOUSTON","TX",77021,29.690754902,-95.3677111229999,93,"3738 SOUTHLAWN  - 5, HOUSTON, TX, 77021","Match","Non_Exact","3738 SOUTHLAWN ST, HOUSTON, TX, 77021",96574213,"R"
563594,"3738 SOUTHSIDE BLVD","JACKSONVILLE","FL",32216,30.279735239,-81.5592744529999,94,"3738 SOUTHSIDE BLVD, JACKSONVILLE, FL, 32216","Match","Non_Exact","3738 SOUTHSIDE BLVD, JACKSONVILLE, FL, 32256",83920443,"L"
563595,"3738 TEJON","DENVER","CO",80211,39.7685575250001,-105.011191114,95,"3738 TEJON, DENVER, CO, 80211","Match","Non_Exact","3738 TEJON ST, DENVER, CO, 80211",177303482,"R"
563596,"3738 TETON PASS","ELLENWOOD","GA",30294,33.6019715360001,-84.267360679,96,"3738 TETON PASS, ELLENWOOD, GA, 30294","Match","Exact","3738 TETON PASS, ELLENWOOD, GA, 30294",639678494,"R"
563597,"3738 VILLA TERRACE","SAN DIEGO","CA",92104,32.7465019260001,-117.135730339,97,"3738 VILLA TERRACE, SAN DIEGO, CA, 92104","Match","Exact","3738 VILLA TER, SAN DIEGO, CA, 92104",195345426,"L"
563598,"3738 W CENTURY BLVD","INGLEWOOD","CA",90303,33.945456848,-118.338169992,98,"3738 W CENTURY BLVD, INGLEWOOD, CA, 90303","Match","Exact","3738 W CENTURY BLVD, INGLEWOOD, CA, 90303",241242693,"L"
563599,"3738 W MOUNTAIN VIEW DR","FAYETTEVILLE","AR",72704,36.070579561,-94.213846903,99,"3738 W MOUNTAIN VIEW DR, FAYETTEVILLE, AR, 72704","Match","Exact","3738 W MOUNTAIN VIEW DR, FAYETTEVILLE, AR, 72704",617846331,"R"
563600,"3738 W PRINCETON CIRCLE","DENVER","CO",80236,39.6395128010001,-105.039159206,100,"3738 W PRINCETON CIRCLE, DENVER, CO, 80236","Match","Exact","3738 W PRINCETON CIR, DENVER, CO, 80236",177329924,"L"
563601,"3738 WATTS BLUFF DR","CHARLOTTE","NC",28213,35.294202365,-80.6908225829999,101,"3738 WATTS BLUFF DR, CHARLOTTE, NC, 28213","Match","Exact","3738 WATTS BLUFF DR, CHARLOTTE, NC, 28213",70562593,"R"
563602,"3738 WILDWOOD RIDGE DRIVE","KINGWOOD","TX",77339,30.052842626,-95.192854413,102,"3738 WILDWOOD RIDGE DRIVE, KINGWOOD, TX, 77339","Match","Exact","3738 WILDWOOD RIDGE DR, KINGWOOD, TX, 77339",96553919,"R"
563603,"3738 WINTON DRIVE","JACKSONVILLE","FL",32208,30.3892468120001,-81.707309363,103,"3738 WINTON DRIVE, JACKSONVILLE, FL, 32208","Match","Exact","3738 WINTON DR, JACKSONVILLE, FL, 32208",83891551,"L"
563604,"3738 WINTON DRIVE","JACKSONVILLE",NA,NA,30.3892468120001,-81.707309363,104,"3738 WINTON DRIVE, JACKSONVILLE, , ","Match","Exact","3738 WINTON DR, JACKSONVILLE, FL, 32208",83891551,"L"
563605,"3738","CHULA VISTA","CA",91911,NA,NA,105,"3738, CHULA VISTA, CA, 91911","No_Match",NA,NA,NA,NA
563606,"37381 GEBHARDT BEACH CIRCLE","MENAHGA","MN",56464,46.765718109,-95.060017176,106,"37381 GEBHARDT BEACH CIRCLE, MENAHGA, MN, 56464","Match","Exact","37381 GEBHARDT BEACH CIR, MENAHGA, MN, 56464",168425936,"L"
563607,"37385 SKINNER ROAD","POMEROY","OH",45769,39.1034803740001,-81.9670881059999,107,"37385 SKINNER ROAD, POMEROY, OH, 45769","Match","Exact","37385 SKINNER RD, POMEROY, OH, 45769",101279135,"L"
563608,"37387 ROCKIE LANE","PALMDALE","CA",93552,34.560803068,-118.020494654,108,"37387 ROCKIE LANE, PALMDALE, CA, 93552","Match","Exact","37387 ROCKIE LN, PALMDALE, CA, 93552",141838388,"R"
563609,"37388 STELLARVIEW AVE","MURRIETA","CA",92563,33.578487893,-117.13760222,109,"37388 STELLARVIEW AVE, MURRIETA, CA, 92563","Match","Exact","37388 STELLARVIEW AVE, MURRIETA, CA, 92563",609000350,"R"
563610,"37388 STELLARVIEW AVENUE","MURRIETA","CA",92563,33.578487893,-117.13760222,110,"37388 STELLARVIEW AVENUE, MURRIETA, CA, 92563","Match","Exact","37388 STELLARVIEW AVE, MURRIETA, CA, 92563",609000350,"R"
563611,"3739 53RD STREET APT 216","MOLINE","IL",61265,NA,NA,111,"3739 53RD STREET APT 216, MOLINE, IL, 61265","No_Match",NA,NA,NA,NA
563612,"3739 59TH AVE CIR E","ELLENTON","FL",34222,NA,NA,112,"3739 59TH AVE CIR E, ELLENTON, FL, 34222","Tie",NA,NA,NA,NA
563613,"3739 6TH ST","RIVERSIDE","CA",92501,33.9840263580001,-117.373251782,113,"3739 6TH ST, RIVERSIDE, CA, 92501","Match","Exact","3739 6TH ST, RIVERSIDE, CA, 92501",194741955,"R"
563614,"3739 AIRDIRE COURT","BURTONSVILLE","MD",20866,39.095034341,-76.933086177,114,"3739 AIRDIRE COURT, BURTONSVILLE, MD, 20866","Match","Exact","3739 AIRDIRE CT, BURTONSVILLE, MD, 20866",637463252,"L"
563615,"3739 ALBANS","HOUSTON","TX",77005,29.723688404,-95.4352870229999,115,"3739 ALBANS, HOUSTON, TX, 77005","Match","Non_Exact","3739 ALBANS RD, HOUSTON, TX, 77005",96062844,"L"
563616,"3739 ANIOTON CT","CINCINNATI","OH",45237,39.1694145450001,-84.4170158699999,116,"3739 ANIOTON CT, CINCINNATI, OH, 45237","Match","Non_Exact","3739 ANIOTON CT, CINCINNATI, OH, 45227",103931850,"R"
563617,"3739 BALBOA ST 106","SAN FRANCISCO","CA",94121,37.7756445900001,-122.498816991,117,"3739 BALBOA ST 106, SAN FRANCISCO, CA, 94121","Match","Exact","3739 BALBOA ST, SAN FRANCISCO, CA, 94121",192276776,"L"
563618,"3739 BALBOA STREET SUITE 245","SAN FRANCISCO","CA",94121,37.7756445900001,-122.498816991,118,"3739 BALBOA STREET SUITE 245, SAN FRANCISCO, CA, 94121","Match","Exact","3739 BALBOA ST, SAN FRANCISCO, CA, 94121",192276776,"L"
563619,"3739 BALBOA STREET UNIT 106","SAN FRANCISCO","CA",94121,37.7756445900001,-122.498816991,119,"3739 BALBOA STREET UNIT 106, SAN FRANCISCO, CA, 94121","Match","Exact","3739 BALBOA ST, SAN FRANCISCO, CA, 94121",192276776,"L"
563620,"3739 BEVERLY HILLS","TOLEDO","OH",43614,NA,NA,120,"3739 BEVERLY HILLS, TOLEDO, OH, 43614","Tie",NA,NA,NA,NA
563621,"3739 BLACK EAGLE DR APT 13","ANTELOPE","CA",95843,38.7195161080001,-121.381554942,121,"3739 BLACK EAGLE DR APT 13, ANTELOPE, CA, 95843","Match","Exact","3739 BLACK EAGLE DR, ANTELOPE, CA, 95843",133389080,"R"
563622,"3739 BLAINE RD","POPLAR GROVE","IL",61065,42.4474008940001,-88.865783167,122,"3739 BLAINE RD, POPLAR GROVE, IL, 61065","Match","Exact","3739 BLAINE RD, POPLAR GROVE, IL, 61065",92157367,"R"
563623,"3739 BRIAR RUN DRIVE","CLERMONT","FL",34711,28.5125325270001,-81.7423086049999,123,"3739 BRIAR RUN DRIVE, CLERMONT, FL, 34711","Match","Exact","3739 BRIAR RUN DR, CLERMONT, FL, 34711",633903256,"L"
563624,"3739 BRIDGET LANE","SAINT ANN","MO",63074,NA,NA,124,"3739 BRIDGET LANE, SAINT ANN, MO, 63074","No_Match",NA,NA,NA,NA
563625,"3739 BRITTANY WALK","ATLANTA","GA",30331,33.6819526840001,-84.507713966,125,"3739 BRITTANY WALK, ATLANTA, GA, 30331","Match","Exact","3739 BRITTANY WALK, ATLANTA, GA, 30331",636184400,"L"
563626,"3739 CASTLE TARRACE","SILVER SPRING","MD",20904,NA,NA,126,"3739 CASTLE TARRACE, SILVER SPRING, MD, 20904","Tie",NA,NA,NA,NA
563627,"3739 CEDARWOOD DRIVE","NASHVILLE","TN",37216,36.2200511830001,-86.709047411,127,"3739 CEDARWOOD DRIVE, NASHVILLE, TN, 37216","Match","Exact","3739 CEDARWOOD DR, NASHVILLE, TN, 37216",97194381,"L"
563628,"3739 CLEVELAND AVE","WELLINGTON","CO",80549,40.703943053,-105.006513148,128,"3739 CLEVELAND AVE, WELLINGTON, CO, 80549","Match","Exact","3739 CLEVELAND AVE, WELLINGTON, CO, 80549",188479344,"L"
563629,"3739 DURFEE AVE","EL MONTE","CA",91732,34.069706658,-118.008405907,129,"3739 DURFEE AVE, EL MONTE, CA, 91732","Match","Exact","3739 DURFEE AVE, EL MONTE, CA, 91732",142747718,"L"
563630,"3739 E 1ST AVE","POST FALLS","ID",83854,47.7060272780001,-116.898143024,130,"3739 E 1ST AVE, POST FALLS, ID, 83854","Match","Exact","3739 E 1ST AVE, POST FALLS, ID, 83854",192946368,"L"
563631,"3739 E 650 N","ALEXANDRIA","IN",46001,40.2013911940001,-85.595319085,131,"3739 E 650 N, ALEXANDRIA, IN, 46001","Match","Exact","3739 E 650 N, ALEXANDRIA, IN, 46001",31117312,"R"
563632,"3739 E MILLBREA AVE","FRESNO","CA",93710,NA,NA,132,"3739 E MILLBREA AVE, FRESNO, CA, 93710","No_Match",NA,NA,NA,NA
563633,"3739 ELMLAWN","TOLEDO","OH",43614,41.601120081,-83.6329245269999,133,"3739 ELMLAWN, TOLEDO, OH, 43614","Match","Non_Exact","3739 ELMLAWN DR, TOLEDO, OH, 43614",33936389,"L"
563634,"3739 ERIN BROOK DR","NEW PORT RICHEY","FL",34655,28.2136122950001,-82.673126091,134,"3739 ERIN BROOK DR, NEW PORT RICHEY, FL, 34655","Match","Exact","3739 ERIN BROOK DR, NEW PORT RICHEY, FL, 34655",86350712,"R"
563635,"3739 GREENLEAF CIRCLE  APT 211","KALAMAZOO","MI",49008,42.2509068840001,-85.630729926,135,"3739 GREENLEAF CIRCLE  APT 211, KALAMAZOO, MI, 49008","Match","Exact","3739 GREENLEAF CIR, KALAMAZOO, MI, 49008",12239620,"L"
563636,"3739 HARTLAND RD","GASPORT","NY",14067,43.2294431060001,-78.5761185169999,136,"3739 HARTLAND RD, GASPORT, NY, 14067","Match","Exact","3739 HARTLAND RD, GASPORT, NY, 14067",606446794,"R"
563637,"3739 HICKORY BLVD","HUDSON","NC",28638,35.819740461,-81.44216819,137,"3739 HICKORY BLVD, HUDSON, NC, 28638","Match","Exact","3739 HICKORY BLVD, HUDSON, NC, 28638",45867675,"L"
563638,"3739 JAYLYNN DRIVE","WEST HARRISON","IN",47060,NA,NA,138,"3739 JAYLYNN DRIVE, WEST HARRISON, IN, 47060","No_Match",NA,NA,NA,NA
563639,"3739 MIMOSA AVE","MEMPHIS","TN",38111,35.1388632640001,-89.9368287189999,139,"3739 MIMOSA AVE, MEMPHIS, TN, 38111","Match","Exact","3739 MIMOSA AVE, MEMPHIS, TN, 38111",636695638,"R"
563640,"3739 MOORHILL DR","EVENDALE","OH",45241,39.254540675,-84.404810207,140,"3739 MOORHILL DR, EVENDALE, OH, 45241","Match","Non_Exact","3739 MOORHILL DR, SHARONVILLE, OH, 45241",103945138,"R"
563641,"3739 N 22ND AVE N","ST PETERBURG","FL",33713,27.791872466,-82.684402499,141,"3739 N 22ND AVE N, ST PETERBURG, FL, 33713","Match","Non_Exact","3739 22ND AVE N, SAINT PETERSBURG, FL, 33713",124704543,"R"
563642,"3739 N MELROSE DRIVE","PORTLAND","OR",97227,45.549198484,-122.68411159,142,"3739 N MELROSE DRIVE, PORTLAND, OR, 97227","Match","Exact","3739 N MELROSE DR, PORTLAND, OR, 97227",157605476,"L"
563643,"3739 NORTH APOPKA VINELAND RD","ORLANDO","FL",32818,28.5903402610001,-81.496758985,143,"3739 NORTH APOPKA VINELAND RD, ORLANDO, FL, 32818","Match","Exact","3739 N APOPKA VINELAND RD, ORLANDO, FL, 32818",640932056,"L"
563644,"3739 NORTON ROAD","HOWELL","MI",48843,42.5948501730001,-83.987973618,144,"3739 NORTON ROAD, HOWELL, MI, 48843","Match","Exact","3739 NORTON RD, HOWELL, MI, 48843",619591456,"L"
563645,"3739 OAK HILL","SAINT LOUIS","MO",63116,38.590091344,-90.257177497,145,"3739 OAK HILL, SAINT LOUIS, MO, 63116","Match","Non_Exact","3739 OAK HILL AVE, SAINT LOUIS, MO, 63116",605133263,"R"
563646,"3739 SANGUNETTI LANE","STOCKTON","CA",95205,37.9910020900001,-121.274539575,146,"3739 SANGUNETTI LANE, STOCKTON, CA, 95205","Match","Non_Exact","3739 SANGUINETTI LN, STOCKTON, CA, 95205",634297455,"L"
563647,"3739 SE 62ND","PORTLAND","OR",97206,45.495529391,-122.599414411,147,"3739 SE 62ND, PORTLAND, OR, 97206","Match","Non_Exact","3739 SE 62ND AVE, PORTLAND, OR, 97206",157516301,"R"
563648,"3739 SOUTH 185TH DRIVE","GOODYEAR","AZ",85338,33.4124439930001,-112.457486312,148,"3739 SOUTH 185TH DRIVE, GOODYEAR, AZ, 85338","Match","Exact","3739 S 185TH DR, GOODYEAR, AZ, 85338",618471871,"L"
563649,"3739 SOUTH HICKORY RIDGE MALL","MEMPHIS","TN",38115,35.0494908590001,-89.864056384,149,"3739 SOUTH HICKORY RIDGE MALL, MEMPHIS, TN, 38115","Match","Exact","3739 S HICKORY RIDGE MALL, MEMPHIS, TN, 38115",607469401,"R"
563650,"3739 STEVE LILLIE CIRCLE","STOCKTON","CA",95209,37.9091097260001,-121.294270408,150,"3739 STEVE LILLIE CIRCLE, STOCKTON, CA, 95209","Match","Non_Exact","3739 STEVE LILLIE CIR, STOCKTON, CA, 95206",133877239,"R"
563651,"3739 THOMPSON RD","NEEDMORE","PA",17238,39.77030102,-78.1645218099999,151,"3739 THOMPSON RD, NEEDMORE, PA, 17238","Match","Exact","3739 THOMPSON RD, NEEDMORE, PA, 17238",61020723,"L"
563652,"3739 WOODSIDE AVE","LYNCHBURG","VA",24503,37.432527432,-79.194544416,152,"3739 WOODSIDE AVE, LYNCHBURG, VA, 24503","Match","Exact","3739 WOODSIDE AVE, LYNCHBURG, VA, 24503",638660460,"L"
563653,"37392 NORTH SHORELAND DRIVE","STURGEON LAKE","MN",55783,46.3968054310001,-92.7544394079999,153,"37392 NORTH SHORELAND DRIVE, STURGEON LAKE, MN, 55783","Match","Non_Exact","37392 N SHORELAND RD, STURGEON LAKE, MN, 55783",611840909,"L"
563654,"37395 CHARTER OAKS BLVD","CLINTON TOWNSHIP","MI",48036,42.5732185540001,-82.917730513,154,"37395 CHARTER OAKS BLVD, CLINTON TOWNSHIP, MI, 48036","Match","Exact","37395 CHARTER OAKS BLVD, CLINTON TOWNSHIP, MI, 48036",624943868,"L"
563655,"37398 N CREMONA AVE","LAKE VILLA","IL",60046,42.4066365080001,-88.038372873,155,"37398 N CREMONA AVE, LAKE VILLA, IL, 60046","Match","Exact","37398 N CREMONA AVE, LAKE VILLA, IL, 60046",119624380,"L"
563656,"373A JONES ROAD","TALLMADGE","OH",44278,41.0903512420001,-81.4433550099999,156,"373A JONES ROAD, TALLMADGE, OH, 44278","Match","Exact","373 JONES RD, TALLMADGE, OH, 44278",61352208,"L"
563657,"374  HERITAGE PLACE","JACKSON","MS",39212,32.221518717,-90.252538239,157,"374  HERITAGE PLACE, JACKSON, MS, 39212","Match","Exact","374 HERITAGE PL, JACKSON, MS, 39212",65382121,"L"
563658,"374 18TH ST SE","CEDAR RAPIDS","IA",52403,41.984897345,-91.6446761509999,158,"374 18TH ST SE, CEDAR RAPIDS, IA, 52403","Match","Exact","374 18TH ST SE, CEDAR RAPIDS, IA, 52403",17022173,"L"
563659,"374 5TH ST APT 219","SAN FRANCISCO","CA",94107,37.779279267,-122.402159103,159,"374 5TH ST APT 219, SAN FRANCISCO, CA, 94107","Match","Exact","374 5TH ST, SAN FRANCISCO, CA, 94107",192287757,"R"
563660,"374 AND A HALF N HARWOOD ST","ORANGE","CA",92866,NA,NA,160,"374 AND A HALF N HARWOOD ST, ORANGE, CA, 92866","No_Match",NA,NA,NA,NA
563661,"374 ASH STREET","BROCKTON","MA",2301,42.075796768,-71.033901522,161,"374 ASH STREET, BROCKTON, MA, 2301","Match","Exact","374 ASH ST, BROCKTON, MA, 02301",87443581,"L"
563662,"374 ATLANTIC AVE","KEYPORT","NJ",7735,40.4277728590001,-74.1951142349999,162,"374 ATLANTIC AVE, KEYPORT, NJ, 7735","Match","Non_Exact","374 ATLANTIC ST, KEYPORT, NJ, 07735",90535685,"R"
563663,"374 AUTUMN LAN","ATLANTA","GA",30310,NA,NA,163,"374 AUTUMN LAN, ATLANTA, GA, 30310","No_Match",NA,NA,NA,NA
563664,"374 AUTUMN LANE","ATLANTA","GA",30310,33.746268226,-84.459639323,164,"374 AUTUMN LANE, ATLANTA, GA, 30310","Match","Non_Exact","374 AUTUMN LN SW, ATLANTA, GA, 30310",17339928,"L"
563665,"374 AUTUMN LANE","ATLANTA","GA",30314,NA,NA,165,"374 AUTUMN LANE, ATLANTA, GA, 30314","No_Match",NA,NA,NA,NA
563666,"374 AVON RD","DEQUEEN","AR",71832,34.0935607770001,-94.3395380429999,166,"374 AVON RD, DEQUEEN, AR, 71832","Match","Non_Exact","374 AVON RD, DE QUEEN, AR, 71832",84823823,"R"
563667,"374 BEDFORD AVE APT 2B","BROOKLYN","NY",11249,40.7115323090001,-73.963185088,167,"374 BEDFORD AVE APT 2B, BROOKLYN, NY, 11249","Match","Exact","374 BEDFORD AVE, BROOKLYN, NY, 11249",59076080,"R"
563668,"374 BOBWHITE DRIVE","SARASOTA","FL",34236,27.317396784,-82.561423385,168,"374 BOBWHITE DRIVE, SARASOTA, FL, 34236","Match","Non_Exact","374 BOB WHITE DR, SARASOTA, FL, 34236",16399040,"R"
563669,"374 BOWDEN ROAD","HONORAVILLE","AL",36042,31.861788921,-86.405887558,169,"374 BOWDEN ROAD, HONORAVILLE, AL, 36042","Match","Exact","374 BOWDEN RD, HONORAVILLE, AL, 36042",10438522,"R"
563670,"374 BROOME STREET APT 3 SOUTH","NEW YORK","NY",10013,40.72024809,-73.9961710759999,170,"374 BROOME STREET APT 3 SOUTH, NEW YORK, NY, 10013","Match","Exact","374 BROOME ST, NEW YORK, NY, 10013",652208642,"R"
563671,"374 BUCKSKIN CT","PARKER","CO",80138,39.505574359,-104.657050036,171,"374 BUCKSKIN CT, PARKER, CO, 80138","Match","Exact","374 BUCKSKIN CT, PARKER, CO, 80138",130875421,"R"
563672,"374 CALLINA ST","BIG PINE","CA",93513,37.162684088,-118.286337179,172,"374 CALLINA ST, BIG PINE, CA, 93513","Match","Exact","374 CALLINA ST, BIG PINE, CA, 93513",175851262,"L"
563673,"374 CAMINO ELEVADO","BONITA","CA",91902,NA,NA,173,"374 CAMINO ELEVADO, BONITA, CA, 91902","No_Match",NA,NA,NA,NA
563674,"374 CATCLAW RD","BIG SANDY","TX",75755,32.7294386880001,-95.099040037,174,"374 CATCLAW RD, BIG SANDY, TX, 75755","Match","Exact","374 CATCLAW RD, BIG SANDY, TX, 75755",147584563,"R"
563675,"374 CHAN MAR DR","CALEDONIA","MS",39740,33.6634652400001,-88.304581564,175,"374 CHAN MAR DR, CALEDONIA, MS, 39740","Match","Exact","374 CHAN MAR DR, CALEDONIA, MS, 39740",757173,"R"
563676,"374 CHAROLET AVENUE","HARPER","TX",78631,30.2839605930001,-99.236726674,176,"374 CHAROLET AVENUE, HARPER, TX, 78631","Match","Exact","374 CHAROLET AVE, HARPER, TX, 78631",176847393,"L"
563677,"374 CHERRY TREE CIR","PALM BAY","FL",32907,28.005202232,-80.728404962,177,"374 CHERRY TREE CIR, PALM BAY, FL, 32907","Match","Non_Exact","374 CHERRY TREE CIR NW, PALM BAY, FL, 32907",93896955,"L"
563678,"374 CLIFF OVERLOOK","NOBLESVILLE","IN",46062,40.0384984020001,-86.035517295,178,"374 CLIFF OVERLOOK, NOBLESVILLE, IN, 46062","Match","Exact","374 CLIFF OVERLOOK, NOBLESVILLE, IN, 46062",639700722,"R"
563679,"374 CO RD MM","BROOKLYN","WI",53521,42.8738453450001,-89.369074769,179,"374 CO RD MM, BROOKLYN, WI, 53521","Match","Exact","374 CO RD MM, BROOKLYN, WI, 53521",649745976,"R"
563680,"374 CORNELL AVE APT 1B","CALUMET CITY","IL",60409,41.625929129,-87.5771906369999,180,"374 CORNELL AVE APT 1B, CALUMET CITY, IL, 60409","Match","Exact","374 CORNELL AVE, CALUMET CITY, IL, 60409",111779669,"R"
563681,"374 COUNTY RD 2600 N","MAHOMET","IL",61853,40.252497487,-88.3867782149999,181,"374 COUNTY RD 2600 N, MAHOMET, IL, 61853","Match","Exact","374 CO RD 2600 N, MAHOMET, IL, 61853",649939973,"L"
563682,"374 COUNTY ROAD 3","DODGE","NE",68633,41.7034612750001,-96.867642812,182,"374 COUNTY ROAD 3, DODGE, NE, 68633","Match","Exact","374 CO RD 3, DODGE, NE, 68633",136337022,"R"
563683,"374 CR 3670","LAMAR","AR",72846,NA,NA,183,"374 CR 3670, LAMAR, AR, 72846","No_Match",NA,NA,NA,NA
563684,"374 DONIPHAN DR","PT CHARLOTTE","FL",33954,27.0226512790001,-82.185908212,184,"374 DONIPHAN DR, PT CHARLOTTE, FL, 33954","Match","Exact","374 DONIPHAN DR, PT CHARLOTTE, FL, 33954",4284822,"R"
563685,"374 E 222ND STREET","EUCLID","OH",44123,41.6046552830001,-81.5268350979999,185,"374 E 222ND STREET, EUCLID, OH, 44123","Match","Exact","374 E 222ND ST, EUCLID, OH, 44123",61108344,"R"
563686,"374 E 3360 S APT 55","SALT LAKE CITY","UT",84111,NA,NA,186,"374 E 3360 S APT 55, SALT LAKE CITY, UT, 84111","No_Match",NA,NA,NA,NA
563687,"374 E BROOK STREET","SAN TAN VALLEY","AZ",85140,33.2572610890001,-111.561965524,187,"374 E BROOK STREET, SAN TAN VALLEY, AZ, 85140","Match","Exact","374 BROOK ST, SAN TAN VALLEY, AZ, 85140",624418381,"L"
563688,"374 E HOFFMAN ROAD","ST LOUIS","MI",48880,43.3860144290001,-84.596329753,188,"374 E HOFFMAN ROAD, ST LOUIS, MI, 48880","Match","Exact","374 E HOFFMAN RD, SAINT LOUIS, MI, 48880",80161524,"L"
563689,"374 E HORSESHOE AVE","GILBERT","AZ",85233,33.3459958130001,-111.781865167,189,"374 E HORSESHOE AVE, GILBERT, AZ, 85233","Match","Non_Exact","374 E HORSESHOE AVE, GILBERT, AZ, 85296",128794432,"R"
563690,"374 E MAIN STREET","VERNAL","UT",84078,40.455799127,-109.521418246,190,"374 E MAIN STREET, VERNAL, UT, 84078","Match","Exact","374 E MAIN ST, VERNAL, UT, 84078",647490717,"L"
563691,"374 E MCMILLAN LN","MURRAY","UT",84107,40.6465992610001,-111.881219277,191,"374 E MCMILLAN LN, MURRAY, UT, 84107","Match","Exact","374 E MCMILLAN LN, MURRAY, UT, 84107",176085076,"R"
563692,"374 E PACES FERRY ROAD  APT 210","ATLANTA","GA",30305,NA,NA,192,"374 E PACES FERRY ROAD  APT 210, ATLANTA, GA, 30305","No_Match",NA,NA,NA,NA
563693,"374 EAST H STREET","CHULA VISTA","CA",91910,32.640346197,-117.04871311,193,"374 EAST H STREET, CHULA VISTA, CA, 91910","Match","Exact","374 E H ST, CHULA VISTA, CA, 91910",195356822,"R"
563694,"374 EAST MILLSTREAM RD","CREAM RIDGE","NJ",8514,40.106110621,-74.493243171,194,"374 EAST MILLSTREAM RD, CREAM RIDGE, NJ, 8514","Match","Exact","374 E MILLSTREAM RD, CREAM RIDGE, NJ, 08514",649151365,"R"
563695,"374 EAST SMEULSEN DRIVE","EDGERTON","WI",53534,NA,NA,195,"374 EAST SMEULSEN DRIVE, EDGERTON, WI, 53534","No_Match",NA,NA,NA,NA
563696,"374 EASTERN PARKWAY APT C6","BROOKLYN","NY",11225,40.670091939,-73.9562783929999,196,"374 EASTERN PARKWAY APT C6, BROOKLYN, NY, 11225","Match","Exact","374 EASTERN PKWY, BROOKLYN, NY, 11225",640853022,"L"
563697,"374 EASTLINE ROAD","BALLSTON LAKE","NY",12019,42.964259498,-73.829885389,197,"374 EASTLINE ROAD, BALLSTON LAKE, NY, 12019","Match","Exact","374 EASTLINE RD, BALLSTON LAKE, NY, 12019",18800101,"R"
563698,"374 EATON STREET","PROVIDENCE","RI",2908,41.843138728,-71.440740686,198,"374 EATON STREET, PROVIDENCE, RI, 2908","Match","Exact","374 EATON ST, PROVIDENCE, RI, 02908",47458141,"L"
563699,"374 ENGLEWOOD DR","KERRVILLE","TX",78028,30.0171383520001,-99.139002939,199,"374 ENGLEWOOD DR, KERRVILLE, TX, 78028","Match","Exact","374 ENGLEWOOD DR, KERRVILLE, TX, 78028",176903128,"L"
563700,"374 FANNIS CIRCLE","GALLATIN","TN",37066,36.3882309300001,-86.492985152,200,"374 FANNIS CIRCLE, GALLATIN, TN, 37066","Match","Exact","374 FANNIS CIR, GALLATIN, TN, 37066",620028418,"L"
563701,"374 FAY DR","COLORADO SPRINGS","CO",80911,38.7296528840001,-104.716997313,201,"374 FAY DR, COLORADO SPRINGS, CO, 80911","Match","Exact","374 FAY DR, COLORADO SPRINGS, CO, 80911",610758505,"L"
563702,"374 FOSTER DR","FALLING WATERS","WV",25419,39.5591420820001,-77.8893751049999,202,"374 FOSTER DR, FALLING WATERS, WV, 25419","Match","Exact","374 FOSTER DR, FALLING WATERS, WV, 25419",123382205,"L"
563703,"374 FOURTH AVENUE APT 5","SALT LAKE CITY","UT",84103,40.77397753,-111.878307488,203,"374 FOURTH AVENUE APT 5, SALT LAKE CITY, UT, 84103","Match","Non_Exact","374 E 4TH AVE, SALT LAKE CITY, UT, 84103",176067576,"R"
563704,"374 FRANCES DR NW","ROANOKE","VA",24017,37.2768314,-80.007687634,204,"374 FRANCES DR NW, ROANOKE, VA, 24017","Match","Exact","374 FRANCES DR NW, ROANOKE, VA, 24017",62902607,"L"
563705,"374 FRANKLIN AVE","WEST BERLIN","NJ",8091,39.81228607,-74.933559999,205,"374 FRANKLIN AVE, WEST BERLIN, NJ, 8091","Match","Exact","374 FRANKLIN AVE, WEST BERLIN, NJ, 08091",134364074,"R"
563706,"374 FRANKLIN AVENUE","WEST BERLIN","NJ",11783,39.81228607,-74.933559999,206,"374 FRANKLIN AVENUE, WEST BERLIN, NJ, 11783","Match","Non_Exact","374 FRANKLIN AVE, WEST BERLIN, NJ, 08091",134364074,"R"
563707,"374 GARFIELD ST","GARY","IN",46404,41.604273533,-87.3593610889999,207,"374 GARFIELD ST, GARY, IN, 46404","Match","Exact","374 GARFIELD ST, GARY, IN, 46404",98425572,"R"
563708,"374 GARFIELD","BATTLE CREEK","MI",49017,42.327405153,-85.173850375,208,"374 GARFIELD, BATTLE CREEK, MI, 49017","Match","Non_Exact","374 GARFIELD AVE, BATTLE CREEK, MI, 49017",11723797,"R"
563709,"374 GITTENS COURT","DE PERE","WI",54115,44.431440819,-88.0076548119999,209,"374 GITTENS COURT, DE PERE, WI, 54115","Match","Exact","374 GITTENS CT, DE PERE, WI, 54115",632871294,"L"
563710,"374 GLENWOOD SPRINGS ROAD","EATONTON","GA",31024,33.290648753,-83.427634124,210,"374 GLENWOOD SPRINGS ROAD, EATONTON, GA, 31024","Match","Exact","374 GLENWOOD SPRINGS RD, EATONTON, GA, 31024",16675484,"L"
563711,"374 GOLF COURSE ROAD","WARREN","VT",5674,44.1386359140001,-72.8799701139999,211,"374 GOLF COURSE ROAD, WARREN, VT, 5674","Match","Exact","374 GOLF COURSE RD, WARREN, VT, 05674",136687067,"L"
563712,"374 GOLFVIEW RD 306","N. PALM BEACH","FL",33408,26.835903052,-80.062361176,212,"374 GOLFVIEW RD 306, N. PALM BEACH, FL, 33408","Match","Exact","374 GOLFVIEW RD, NORTH PALM BEACH, FL, 33408",115532625,"L"
563713,"374 GOLFVIEW RD APT 306","NORTH PALM BEACH","FL",33408,26.835903052,-80.062361176,213,"374 GOLFVIEW RD APT 306, NORTH PALM BEACH, FL, 33408","Match","Exact","374 GOLFVIEW RD, NORTH PALM BEACH, FL, 33408",115532625,"L"
563714,"374 GRANDE RIVER BLVD","TOMS RIVER","NJ",8755,40.0280575470001,-74.242536894,214,"374 GRANDE RIVER BLVD, TOMS RIVER, NJ, 8755","Match","Exact","374 GRANDE RIVER BLVD, TOMS RIVER, NJ, 08755",203763893,"L"
563715,"374 GROVE HILL DR","STOCKBRIDGE","GA",30281,33.5624777680001,-84.258012686,215,"374 GROVE HILL DR, STOCKBRIDGE, GA, 30281","Match","Non_Exact","374 GROVE HILL RD, STOCKBRIDGE, GA, 30281",23211898,"R"
563716,"374 HAMILTON DR","STEWARTSVILLE","NJ",8886,40.681882414,-75.139658308,216,"374 HAMILTON DR, STEWARTSVILLE, NJ, 8886","Match","Exact","374 HAMILTON DR, STEWARTSVILLE, NJ, 08886",98104146,"R"
563717,"374 HARRY S TRUMAN DR","UPPER MARLBORO","MD",20774,38.884668816,-76.8335500169999,217,"374 HARRY S TRUMAN DR, UPPER MARLBORO, MD, 20774","Match","Exact","374 HARRY S TRUMAN DR, UPPER MARLBORO, MD, 20774",76378484,"L"
563718,"374 HAWTHORNE HILLS PLACE","ORLANDO","FL",32835,28.5433425250001,-81.507447676,218,"374 HAWTHORNE HILLS PLACE, ORLANDO, FL, 32835","Match","Exact","374 HAWTHORNE HILLS PL, ORLANDO, FL, 32835",94419942,"R"
563719,"374 HAWTHORNE TERRACE","MOUNT VERNON","NY",10552,40.9221054280001,-73.821383866,219,"374 HAWTHORNE TERRACE, MOUNT VERNON, NY, 10552","Match","Exact","374 HAWTHORNE TER, MOUNT VERNON, NY, 10552",139748600,"L"
563720,"374 HEMA PL","HONOLULU","HI",96821,21.283403288,-157.757635087,220,"374 HEMA PL, HONOLULU, HI, 96821","Match","Exact","374 HEMA PL, HONOLULU, HI, 96821",203243785,"L"
563721,"374 HERITAGE PLACE","JACKSON","MS",39212,32.221518717,-90.252538239,221,"374 HERITAGE PLACE, JACKSON, MS, 39212","Match","Exact","374 HERITAGE PL, JACKSON, MS, 39212",65382121,"L"
563722,"374 HICKORY GROVE ROAD","LEESBURG","GA",31763,31.6422552990001,-84.280010582,222,"374 HICKORY GROVE ROAD, LEESBURG, GA, 31763","Match","Exact","374 HICKORY GROVE RD, LEESBURG, GA, 31763",635492283,"L"
563723,"374 HIGHLAND AVE","WORTHINGTON","OH",43085,40.104644998,-83.00507995,223,"374 HIGHLAND AVE, WORTHINGTON, OH, 43085","Match","Exact","374 HIGHLAND AVE, WORTHINGTON, OH, 43085",135568305,"L"
563724,"374 HILLVIEW DR","WINONA","MN",55987,44.0231998730001,-91.632493563,224,"374 HILLVIEW DR, WINONA, MN, 55987","Match","Exact","374 HILLVIEW DR, WINONA, MN, 55987",31671815,"R"
563725,"374 HOWLAND DR","GAHANNA","OH",43230,40.0079863400001,-82.843678101,225,"374 HOWLAND DR, GAHANNA, OH, 43230","Match","Exact","374 HOWLAND DR, GAHANNA, OH, 43230",135616234,"R"
563726,"374 ISABELL IVY RD","VICTORIA","TX",77905,28.715364487,-97.137415225,226,"374 ISABELL IVY RD, VICTORIA, TX, 77905","Match","Exact","374 ISABELL IVY RD, VICTORIA, TX, 77905",652140643,"L"
563727,"374 JOSEPH BIGGS HWY","RISING SUN","MD",21911,NA,NA,227,"374 JOSEPH BIGGS HWY, RISING SUN, MD, 21911","No_Match",NA,NA,NA,NA
563728,"374 JUDSON STREET","TIVERTON","RI",2878,41.6670693820001,-71.1816319609999,228,"374 JUDSON STREET, TIVERTON, RI, 2878","Match","Exact","374 JUDSON ST, TIVERTON, RI, 02878",47358234,"R"
563729,"374 KELLYBROOK PL","GALLOWAY","OH",43119,39.955618826,-83.227828829,229,"374 KELLYBROOK PL, GALLOWAY, OH, 43119","Match","Exact","374 KELLYBROOK PL, GALLOWAY, OH, 43119",218679168,"L"
563730,"374 KENDALL PL","COLUMBUS","OH",43205,39.9590146960001,-82.964264994,230,"374 KENDALL PL, COLUMBUS, OH, 43205","Match","Exact","374 KENDALL PL, COLUMBUS, OH, 43205",218485204,"L"
563731,"374 LANE ROAD","DALLAS","GA",30157,33.912236971,-84.873512883,231,"374 LANE ROAD, DALLAS, GA, 30157","Match","Exact","374 LANE RD, DALLAS, GA, 30157",207990967,"R"
563732,"374 LANTERN LANE","GREEN BAY","WI",54115,44.410234378,-88.1016343329999,232,"374 LANTERN LANE, GREEN BAY, WI, 54115","Match","Non_Exact","374 LANTERN LN, DE PERE, WI, 54115",148122845,"R"
563733,"374 LEBANON ST","MALDEN","MA",2148,42.4400871830001,-71.048764722,233,"374 LEBANON ST, MALDEN, MA, 2148","Match","Exact","374 LEBANON ST, MALDEN, MA, 02148",86872750,"L"
563734,"374 LONG BRANCH AVENUE","LONG BRANCH","NJ",7740,40.3181920370001,-73.985218317,234,"374 LONG BRANCH AVENUE, LONG BRANCH, NJ, 7740","Match","Exact","374 LONG BRANCH AVE, LONG BRANCH, NJ, 07740",90460590,"L"
563735,"374 LONGVIEW RD","MCCONNELLSBURG","PA",17233,39.8960428660001,-78.0333826569999,235,"374 LONGVIEW RD, MCCONNELLSBURG, PA, 17233","Match","Non_Exact","374 LONG VIEW DR, MC CONNELLSBURG, PA, 17233",61026453,"R"
563736,"374 LOVELAND DRIVE","GLENDALE HEIGHTS","IL",60139,41.9317595630001,-88.0731561549999,236,"374 LOVELAND DRIVE, GLENDALE HEIGHTS, IL, 60139","Match","Exact","374 LOVELAND DR, GLENDALE HEIGHTS, IL, 60139",112520581,"L"
563737,"374 LOVELAND DRIVE","GLENDALE HTS","IL",60139,41.9317595630001,-88.0731561549999,237,"374 LOVELAND DRIVE, GLENDALE HTS, IL, 60139","Match","Exact","374 LOVELAND DR, GLENDALE HEIGHTS, IL, 60139",112520581,"L"
563738,"374 MC FALL","APALACHIN","NY",13732,42.05556016,-76.154550168,238,"374 MC FALL, APALACHIN, NY, 13732","Match","Non_Exact","374 MCFALL RD, APALACHIN, NY, 13732",46715344,"R"
563739,"374 MEADOW ROAD","EMPORIUM","PA",15834,41.517465198,-78.214064794,239,"374 MEADOW ROAD, EMPORIUM, PA, 15834","Match","Exact","374 MEADOW RD, EMPORIUM, PA, 15834",126262591,"R"
563740,"374 MIDDLESEX RD","DARIEN","CT",6820,41.086639717,-73.48556905,240,"374 MIDDLESEX RD, DARIEN, CT, 6820","Match","Exact","374 MIDDLESEX RD, DARIEN, CT, 06820",618530298,"R"
563741,"374 MILLER ROAD","HOLLSOPPLE","PA",15935,NA,NA,241,"374 MILLER ROAD, HOLLSOPPLE, PA, 15935","No_Match",NA,NA,NA,NA
563742,"374 MORGAN FIELD BLVD NE","LUDOWICI","GA",31316,NA,NA,242,"374 MORGAN FIELD BLVD NE, LUDOWICI, GA, 31316","No_Match",NA,NA,NA,NA
563743,"374 MORGAN FIELD BLVD","LUDOWICI","GA",31316,NA,NA,243,"374 MORGAN FIELD BLVD, LUDOWICI, GA, 31316","No_Match",NA,NA,NA,NA
563744,"374 N DE GAULLE CT","AURORA","CO",80018,39.724345016,-104.707449137,244,"374 N DE GAULLE CT, AURORA, CO, 80018","Match","Exact","374 DE GAULLE CT, AURORA, CO, 80018",633260578,"R"
563745,"374 N DEGAULLE CT","AURORA","CO",80018,39.7235116960001,-104.708508919,245,"374 N DEGAULLE CT, AURORA, CO, 80018","Match","Non_Exact","374 N DE GAULLE ST, AURORA, CO, 80018",177563864,"R"
563746,"374 N ELLICOTT CREEK ROAD","AMHERST","NY",14228,43.0222768530001,-78.808922517,246,"374 N ELLICOTT CREEK ROAD, AMHERST, NY, 14228","Match","Exact","374 N ELLICOTT CREEK RD, AMHERST, NY, 14228",637924714,"L"
563747,"374 N ELLICOTT CREEK ROAD","AMHERST","NY",15228,43.0222768530001,-78.808922517,247,"374 N ELLICOTT CREEK ROAD, AMHERST, NY, 15228","Match","Non_Exact","374 N ELLICOTT CREEK RD, AMHERST, NY, 14228",637924714,"L"
563748,"374 N MYRTLE AVE","ELMHURST","IL",60126,41.908963364,-87.94895891,248,"374 N MYRTLE AVE, ELMHURST, IL, 60126","Match","Exact","374 N MYRTLE AVE, ELMHURST, IL, 60126",112544548,"L"
563749,"374 N TIMBER RIDGE ROAD","LA PORTE","IN",46350,41.6109570990001,-86.778711997,249,"374 N TIMBER RIDGE ROAD, LA PORTE, IN, 46350","Match","Exact","374 N TIMBER RIDGE RD, LA PORTE, IN, 46350",15419433,"L"
563750,"374 NICOLLETT","MEMPHIS","TN",38118,NA,NA,250,"374 NICOLLETT, MEMPHIS, TN, 38118","No_Match",NA,NA,NA,NA
563751,"374 NORTH WEST STREET","CANTON","MS",39046,32.6175481770001,-90.045615018,251,"374 NORTH WEST STREET, CANTON, MS, 39046","Match","Exact","374 N WEST ST, CANTON, MS, 39046",152476216,"R"
563752,"374 OAK HILL DR","SARASOTA","FL",34232,27.340070742,-82.4752762909999,252,"374 OAK HILL DR, SARASOTA, FL, 34232","Match","Exact","374 OAK HILL DR, SARASOTA, FL, 34232",640582122,"R"
563753,"374 OLD HOMESTEAD HWY","SWANZEY","NH",3446,42.846862383,-72.33255535,253,"374 OLD HOMESTEAD HWY, SWANZEY, NH, 3446","Match","Non_Exact","374 HOMESTEAD AVE, SWANZEY, NH, 03446",642784434,"R"
563754,"374 ORCHARD WOODS DRIVE","SAUNDERSTOWN","RI",2874,41.537183628,-71.490471365,254,"374 ORCHARD WOODS DRIVE, SAUNDERSTOWN, RI, 2874","Match","Exact","374 ORCHARD WOODS DR, SAUNDERSTOWN, RI, 02874",636488371,"R"
563755,"374 PAOLI WOODS","PAOLI","PA",19301,40.0377123810001,-75.477424774,255,"374 PAOLI WOODS, PAOLI, PA, 19301","Match","Non_Exact","374 PAOLI WOODS DR, PAOLI, PA, 19301",641156346,"L"
563756,"374 PARK STREET","STOUGHTON","MA",2072,42.120050984,-71.089148134,256,"374 PARK STREET, STOUGHTON, MA, 2072","Match","Exact","374 PARK ST, STOUGHTON, MA, 02072",87267720,"L"
563757,"374 PARKSIDE AVE APT 2","BROOKLYN","NY",11226,40.6557550590001,-73.9580880949999,257,"374 PARKSIDE AVE APT 2, BROOKLYN, NY, 11226","Match","Exact","374 PARKSIDE AVE, BROOKLYN, NY, 11226",59079522,"R"
563758,"374 PLUM CREEK ROAD","SUNBURY","PA",17801,40.849255617,-76.7425767519999,258,"374 PLUM CREEK ROAD, SUNBURY, PA, 17801","Match","Exact","374 PLUM CREEK RD, SUNBURY, PA, 17801",48084966,"R"
563759,"374 PROSPECT PLACE APT 16","BROOKLYN","NY",11238,40.6767049250001,-73.964293689,259,"374 PROSPECT PLACE APT 16, BROOKLYN, NY, 11238","Match","Exact","374 PROSPECT PL, BROOKLYN, NY, 11238",59078412,"R"
563760,"374 PROSPECT ST","WEST SPRINGFIELD","MA",1089,42.1546157430001,-72.645768516,260,"374 PROSPECT ST, WEST SPRINGFIELD, MA, 1089","Match","Non_Exact","374 PROSPECT AVE, W SPRINGFIELD, MA, 01089",4020727,"R"
563761,"374 RALEIGH RD","RAHWAY","NJ",7065,40.619795729,-74.270815415,261,"374 RALEIGH RD, RAHWAY, NJ, 7065","Match","Exact","374 RALEIGH RD, RAHWAY, NJ, 07065",60562567,"L"
563762,"374 RENFRO ST","ROCKWALL","TX",75087,32.9285707770001,-96.45128482,262,"374 RENFRO ST, ROCKWALL, TX, 75087","Match","Exact","374 RENFRO ST, ROCKWALL, TX, 75087",642859752,"L"
563763,"374 RIDGE ST","ARLINGTON","MA",2474,42.4332022350001,-71.168858665,263,"374 RIDGE ST, ARLINGTON, MA, 2474","Match","Exact","374 RIDGE ST, ARLINGTON, MA, 02474",86885017,"L"
563764,"374 RIDGEWOOD CIRCLE","FAIRHOPE","AL",36532,30.513523392,-87.9063089159999,264,"374 RIDGEWOOD CIRCLE, FAIRHOPE, AL, 36532","Match","Exact","374 RIDGEWOOD CIR, FAIRHOPE, AL, 36532",131650045,"R"
563765,"374 RIVER ROAD","JONESBORO","GA",30236,33.5704161940001,-84.3781812399999,265,"374 RIVER ROAD, JONESBORO, GA, 30236","Match","Exact","374 RIVER RD, JONESBORO, GA, 30236",23313192,"L"
563766,"374 ROAD T","CLARKSON","NE",68629,NA,NA,266,"374 ROAD T, CLARKSON, NE, 68629","No_Match",NA,NA,NA,NA
563767,"374 ROSEWOOD CIRCLE","MALVERN","AR",72104,34.424250203,-92.809249039,267,"374 ROSEWOOD CIRCLE, MALVERN, AR, 72104","Match","Exact","374 ROSEWOOD CIR, MALVERN, AR, 72104",645659128,"R"
563768,"374 ROSEWOOD DR","BRANSON","MO",65616,36.694639642,-93.217055576,268,"374 ROSEWOOD DR, BRANSON, MO, 65616","Match","Exact","374 ROSEWOOD DR, BRANSON, MO, 65616",20184268,"R"
563769,"374 S 10TH ST","PAGOSA SPRINGS","CO",81147,37.2620019940001,-107.019702849,269,"374 S 10TH ST, PAGOSA SPRINGS, CO, 81147","Match","Exact","374 S 10TH ST, PAGOSA SPRINGS, CO, 81147",127334741,"L"
563770,"374 S BROADWAY","LINDENHURST","NY",11757,40.6803031590001,-73.373640914,270,"374 S BROADWAY, LINDENHURST, NY, 11757","Match","Exact","374 S BROADWAY, LINDENHURST, NY, 11757",113974152,"L"
563771,"374 S GRAND BLVD MAILBOX 59","ST LOUIS","MO",63103,NA,NA,271,"374 S GRAND BLVD MAILBOX 59, ST LOUIS, MO, 63103","Tie",NA,NA,NA,NA
563772,"374 S VANCOUVER AVE","LOS ANGELES","CA",90022,34.0302300280001,-118.15641944,272,"374 S VANCOUVER AVE, LOS ANGELES, CA, 90022","Match","Exact","374 S VANCOUVER AVE, LOS ANGELES, CA, 90022",142689578,"L"
563773,"374 SALEM GLEN WAY","CONYERS","GA",30013,33.5997441370001,-83.9674531479999,273,"374 SALEM GLEN WAY, CONYERS, GA, 30013","Match","Exact","374 SALEM GLEN WAY, CONYERS, GA, 30013",618466489,"L"
563774,"374 SALEM STREET","ANDOVER","MA",1810,42.6229017690001,-71.092591466,274,"374 SALEM STREET, ANDOVER, MA, 1810","Match","Exact","374 SALEM ST, ANDOVER, MA, 01810",619612458,"L"
563775,"374 SE 20TH ST","TRENTON","MO",64683,40.046800886,-93.518794858,275,"374 SE 20TH ST, TRENTON, MO, 64683","Match","Exact","374 S E 20TH ST, TRENTON, MO, 64683",17857585,"L"
563776,"374 SELYE TERRACE","ROCHESTER","NY",14613,43.181744634,-77.642191453,276,"374 SELYE TERRACE, ROCHESTER, NY, 14613","Match","Exact","374 SELYE TER, ROCHESTER, NY, 14613",14531497,"R"
563777,"374 SEQUIM COMMON","FREMONT","CA",94539,37.4904319600001,-121.924553718,277,"374 SEQUIM COMMON, FREMONT, CA, 94539","Match","Exact","374 SEQUIM CMN, FREMONT, CA, 94539",124989938,"R"
563778,"374 SFC 448","FORREST CITY","AR",72335,35.045916113,-90.762664851,278,"374 SFC 448, FORREST CITY, AR, 72335","Match","Exact","374 SFC 448, FORREST CITY, AR, 72335",12644165,"R"
563779,"374 SHARON DR","BARRINGTON","IL",60010,42.16027891,-88.12077362,279,"374 SHARON DR, BARRINGTON, IL, 60010","Match","Exact","374 SHARON DR, BARRINGTON, IL, 60010",119718802,"L"
563780,"374 SHEERIN DR","HAMILTON","OH",45013,39.400619883,-84.625179981,280,"374 SHEERIN DR, HAMILTON, OH, 45013","Match","Exact","374 SHEERIN DR, HAMILTON, OH, 45013",113805062,"L"
563781,"374 SOUTH 1ST AVENUE","WALLA WALLA","WA",99362,46.062872574,-118.334492904,281,"374 SOUTH 1ST AVENUE, WALLA WALLA, WA, 99362","Match","Exact","374 S 1ST AVE, WALLA WALLA, WA, 99362",174675697,"L"
563782,"374 SOUTH MAIN STREET","ST ALBANS","VT",5478,44.7948205010001,-73.0942855879999,282,"374 SOUTH MAIN STREET, ST ALBANS, VT, 5478","Match","Exact","374 S MAIN ST, SAINT ALBANS, VT, 05478",653648022,"L"
563783,"374 SOUTH MARY AVENUE","SUNNYVALE","CA",94086,37.3766603490001,-122.046798078,283,"374 SOUTH MARY AVENUE, SUNNYVALE, CA, 94086","Match","Exact","374 S MARY AVE, SUNNYVALE, CA, 94086",636547229,"L"
563784,"374 SPRING FALLS DR","LAWRENCEVILLE","GA",30045,33.9573510910001,-83.9528863369999,284,"374 SPRING FALLS DR, LAWRENCEVILLE, GA, 30045","Match","Exact","374 SPRING FALLS DR, LAWRENCEVILLE, GA, 30045",88918915,"L"
563785,"374 SPRING GARDEN AVE","BAKER CITY","OR",97814,44.7728801120001,-117.824114888,285,"374 SPRING GARDEN AVE, BAKER CITY, OR, 97814","Match","Exact","374 SPRING GARDEN AVE, BAKER CITY, OR, 97814",137639280,"R"
563786,"374 SUNSET DR","COTTER","AR",72626,36.2852404230001,-92.5240063539999,286,"374 SUNSET DR, COTTER, AR, 72626","Match","Exact","374 SUNSET DR, COTTER, AR, 72626",635468756,"L"
563787,"374 SW PRIMA VISTA BLVD","PORT ST LUCIE","FL",34983,NA,NA,287,"374 SW PRIMA VISTA BLVD, PORT ST LUCIE, FL, 34983","Tie",NA,NA,NA,NA
563788,"374 TEDDY DRIVE","SAN FRANCISCO","CA",94134,37.7155797990001,-122.410124675,288,"374 TEDDY DRIVE, SAN FRANCISCO, CA, 94134","Match","Non_Exact","374 TEDDY AVE, SAN FRANCISCO, CA, 94134",192290319,"R"
563789,"374 THE RETREAT","MARIETTA","GA",30064,33.961160508,-84.597033293,289,"374 THE RETREAT, MARIETTA, GA, 30064","Match","Exact","374 THE RETREAT, MARIETTA, GA, 30064",634054177,"R"
563790,"374 W 2000 N","MAPLETON","UT",84664,40.1485663340001,-111.58317722,290,"374 W 2000 N, MAPLETON, UT, 84664","Match","Exact","374 W 2000 N, MAPLETON, UT, 84664",134238093,"R"
563791,"374 W 400 N","SALT LAKE CITY","UT",84103,40.7780445610001,-111.901756506,291,"374 W 400 N, SALT LAKE CITY, UT, 84103","Match","Exact","374 W 400 N, SALT LAKE CITY, UT, 84103",176118810,"R"
563792,"374 W CALIFORNIA AVE APT 1","GLENDALE","CA",91203,34.149844402,-118.260575427,292,"374 W CALIFORNIA AVE APT 1, GLENDALE, CA, 91203","Match","Non_Exact","374 W CALIFORNIA AVE, GLENDALE, CA, 91203",142730624,"L"
563793,"374 W FERRY ST","BUFFALO","NY",14213,42.9153583630001,-78.887843994,293,"374 W FERRY ST, BUFFALO, NY, 14213","Match","Exact","374 W FERRY ST, BUFFALO, NY, 14213",48288982,"L"
563794,"374 WEST 5TH ST","BENTON","KY",42025,36.8669090490001,-88.359695084,294,"374 WEST 5TH ST, BENTON, KY, 42025","Match","Exact","374 W 5TH ST, BENTON, KY, 42025",99506390,"R"
563795,"374 WEST ELM STREET","BROCKTON","MA",2301,42.0810032110001,-71.03373142,295,"374 WEST ELM STREET, BROCKTON, MA, 2301","Match","Exact","374 W ELM ST, BROCKTON, MA, 02301",87443565,"L"
563796,"374 WEST FORK APT 2330","IRVING","TX",75039,32.8646459880001,-96.935347037,296,"374 WEST FORK APT 2330, IRVING, TX, 75039","Match","Exact","374 W FORK, IRVING, TX, 75039",103279190,"R"
563797,"374 WEST MAIN STREET","CONYNGHAM","PA",18219,40.9941604320001,-76.061117923,297,"374 WEST MAIN STREET, CONYNGHAM, PA, 18219","Match","Non_Exact","374 S MAIN ST, CONYNGHAM, PA, 18219",80907785,"L"
563798,"374 WILD WING BLVD UNIT B","CONWAY","SC",29526,33.786603821,-78.981606701,298,"374 WILD WING BLVD UNIT B, CONWAY, SC, 29526","Match","Non_Exact","374 WILDWING BLVD, CONWAY, SC, 29526",619050341,"R"
563799,"374 WINDSOR RD","MIDWEST CITY","OK",73130,35.4696201420001,-97.3128953889999,299,"374 WINDSOR RD, MIDWEST CITY, OK, 73130","Match","Exact","374 WINDSOR RD, MIDWEST CITY, OK, 73130",606169641,"L"
563800,"3740 5TH","SAN DIEGO","CA",92104,NA,NA,300,"3740 5TH, SAN DIEGO, CA, 92104","No_Match",NA,NA,NA,NA
563801,"3740 73E","CONCORD","NC",28025,NA,NA,301,"3740 73E, CONCORD, NC, 28025","No_Match",NA,NA,NA,NA
563802,"3740 86TH STREET","URBANDALE","IA",50322,41.628259428,-93.736542492,302,"3740 86TH STREET, URBANDALE, IA, 50322","Match","Exact","3740 86TH ST, URBANDALE, IA, 50322",65828437,"L"
563803,"3740 BEACH BLVD STE 102","JACKSONVILLE","FL",32207,30.3024708140001,-81.628062724,303,"3740 BEACH BLVD STE 102, JACKSONVILLE, FL, 32207","Match","Exact","3740 BEACH BLVD, JACKSONVILLE, FL, 32207",639972760,"R"
563804,"3740 BENGAL ROAD","GULF BREEZE","FL",32563,30.381091983,-87.065634948,304,"3740 BENGAL ROAD, GULF BREEZE, FL, 32563","Match","Exact","3740 BENGAL RD, GULF BREEZE, FL, 32563",640614031,"R"
563805,"3740 BOILING SPRINGS ROAD STE F324","BOILING SPRINGS","SC",29316,35.0470279140001,-81.9831910469999,305,"3740 BOILING SPRINGS ROAD STE F324, BOILING SPRINGS, SC, 29316","Match","Exact","3740 BOILING SPRINGS RD, BOILING SPRINGS, SC, 29316",19462491,"R"
563806,"3740 BOILING SPRINGS ROAD","BOILING SPRINGS","SC",29316,35.0470279140001,-81.9831910469999,306,"3740 BOILING SPRINGS ROAD, BOILING SPRINGS, SC, 29316","Match","Exact","3740 BOILING SPRINGS RD, BOILING SPRINGS, SC, 29316",19462491,"R"
563807,"3740 BOWEN ROAD","TOLEDO","OH",43613,41.6878245550001,-83.6104651219999,307,"3740 BOWEN ROAD, TOLEDO, OH, 43613","Match","Exact","3740 BOWEN RD, TOLEDO, OH, 43613",33932585,"R"
563808,"3740 BRAVE DRIVE","LAKE HAVASU CITY","AZ",86406,34.4702893050001,-114.267422126,308,"3740 BRAVE DRIVE, LAKE HAVASU CITY, AZ, 86406","Match","Exact","3740 BRAVE DR, LAKE HAVASU CITY, AZ, 86406",190282455,"R"
563809,"3740 BURKES SPRING ROAD","LORETTO","KY",40037,NA,NA,309,"3740 BURKES SPRING ROAD, LORETTO, KY, 40037","No_Match",NA,NA,NA,NA
563810,"3740 CAMP STEWART ROAD","CHARLOTTE","NC",28215,35.2358172780001,-80.6354705049999,310,"3740 CAMP STEWART ROAD, CHARLOTTE, NC, 28215","Match","Exact","3740 CAMP STEWART RD, CHARLOTTE, NC, 28215",70594266,"L"
563811,"3740 CEDARGATE WAY","SACRAMENTO","CA",95834,NA,NA,311,"3740 CEDARGATE WAY, SACRAMENTO, CA, 95834","No_Match",NA,NA,NA,NA
563812,"3740 CENTER WAY","FAIRFAX","VA",22033,38.8757009300001,-77.36386544,312,"3740 CENTER WAY, FAIRFAX, VA, 22033","Match","Exact","3740 CENTER WAY, FAIRFAX, VA, 22033",215919072,"R"
563813,"3740 CHATHAM ROAD","LOUISVILLE","KY",40218,38.207358475,-85.639791756,313,"3740 CHATHAM ROAD, LOUISVILLE, KY, 40218","Match","Exact","3740 CHATHAM RD, LOUISVILLE, KY, 40218",96856756,"R"
563814,"3740 CIMA DR","NORTH LAS VEGAS","NV",89032,36.2278141090001,-115.183193478,314,"3740 CIMA DR, NORTH LAS VEGAS, NV, 89032","Match","Exact","3740 CIMA DR, N LAS VEGAS, NV, 89032",201908769,"R"
563815,"3740 CLUB DR APT 3101","DULUTH","GA",30096,33.942204342,-84.1330476909999,315,"3740 CLUB DR APT 3101, DULUTH, GA, 30096","Match","Exact","3740 CLUB DR, DULUTH, GA, 30096",88929675,"L"
563816,"3740 CLUB DRIVE APT 4303","DULUTH","GA",30096,33.942204342,-84.1330476909999,316,"3740 CLUB DRIVE APT 4303, DULUTH, GA, 30096","Match","Exact","3740 CLUB DR, DULUTH, GA, 30096",88929675,"L"
563817,"3740 COBBLESTONE CT","BINGHAMTON","NY",13903,42.0565336920001,-75.8981823359999,317,"3740 COBBLESTONE CT, BINGHAMTON, NY, 13903","Match","Exact","3740 COBBLESTONE CT, BINGHAMTON, NY, 13903",46344302,"R"
563818,"3740 COLONY DR STE 125","SAN ANTONIO","TX",78230,29.5315291520001,-98.558523226,318,"3740 COLONY DR STE 125, SAN ANTONIO, TX, 78230","Match","Exact","3740 COLONY DR, SAN ANTONIO, TX, 78230",101492891,"L"
563819,"3740 CONCORD RD","DOYLESTOWN","PA",18902,40.322552613,-75.1094991699999,319,"3740 CONCORD RD, DOYLESTOWN, PA, 18902","Match","Exact","3740 CONCORD RD, DOYLESTOWN, PA, 18902",134779237,"R"
563820,"3740 DACORO LANE SUITE 200","CASTLE ROCK","CO",80109,NA,NA,320,"3740 DACORO LANE SUITE 200, CASTLE ROCK, CO, 80109","No_Match",NA,NA,NA,NA
563821,"3740 DENMARK AVE","EAGAN","MN",55123,44.8213846020001,-93.159407007,321,"3740 DENMARK AVE, EAGAN, MN, 55123","Match","Exact","3740 DENMARK AVE, EAGAN, MN, 55123",37908944,"L"
563822,"3740 DICKSONIA DRIVE","LEXINGTON","KY",40517,37.9718647930001,-84.502324121,322,"3740 DICKSONIA DRIVE, LEXINGTON, KY, 40517","Match","Exact","3740 DICKSONIA DR, LEXINGTON, KY, 40517",31946828,"L"
563823,"3740 E ASHLAN AVE","FRESNO","CA",93726,36.794120218,-119.76196536,323,"3740 E ASHLAN AVE, FRESNO, CA, 93726","Match","Exact","3740 E ASHLAN AVE, FRESNO, CA, 93726",197575561,"R"
563824,"3740 E IMPERIAL HIGHWAY","LYNWOOD","CA",90262,33.9319934120001,-118.198521983,324,"3740 E IMPERIAL HIGHWAY, LYNWOOD, CA, 90262","Match","Exact","3740 IMPERIAL HWY, LYNWOOD, CA, 90262",141678078,"R"
563825,"3740 EAST KESWICK DAM RD","REDDING","CA",96003,40.6257073720001,-122.398978695,325,"3740 EAST KESWICK DAM RD, REDDING, CA, 96003","Match","Exact","3740 E KESWICK DAM RD, REDDING, CA, 96003",126671152,"L"
563826,"3740 EAST KESWICK DAM ROAD","REDDING","CA",96003,40.6257073720001,-122.398978695,326,"3740 EAST KESWICK DAM ROAD, REDDING, CA, 96003","Match","Exact","3740 E KESWICK DAM RD, REDDING, CA, 96003",126671152,"L"
563827,"3740 EUREKA DRIVE","STUDIO CITY","CA",91604,34.1382489280001,-118.372964705,327,"3740 EUREKA DRIVE, STUDIO CITY, CA, 91604","Match","Exact","3740 EUREKA DR, STUDIO CITY, CA, 91604",642192001,"L"
563828,"3740 EXECUTIVE CENTER DR","AUGUSTA","GA",30907,33.5092162780001,-82.081402038,328,"3740 EXECUTIVE CENTER DR, AUGUSTA, GA, 30907","Match","Exact","3740 EXECUTIVE CENTER DR, AUGUSTA, GA, 30907",55380450,"R"
563829,"3740 EXECUTIVE CENTER DRIVE","AUGUSTA","GA",30907,33.5092162780001,-82.081402038,329,"3740 EXECUTIVE CENTER DRIVE, AUGUSTA, GA, 30907","Match","Exact","3740 EXECUTIVE CENTER DR, AUGUSTA, GA, 30907",55380450,"R"
563830,"3740 FAITH DRIVE","CONWAY","SC",29526,33.8823713730001,-79.159469477,330,"3740 FAITH DRIVE, CONWAY, SC, 29526","Match","Non_Exact","3740 FAITH DR, CONWAY, SC, 29527",29101714,"R"
563831,"3740 FILLMORE STREET APT 204","SAN FRANCISCO","CA",94123,37.805212854,-122.437130156,331,"3740 FILLMORE STREET APT 204, SAN FRANCISCO, CA, 94123","Match","Exact","3740 FILLMORE ST, SAN FRANCISCO, CA, 94123",192301962,"R"
563832,"3740 FREDERICK ST","AUSTINTOWN","OH",44515,41.097705712,-80.7145002619999,332,"3740 FREDERICK ST, AUSTINTOWN, OH, 44515","Match","Exact","3740 FREDERICK ST, AUSTINTOWN, OH, 44515",64592342,"R"
563833,"3740 GARDNERSVILLE ROAD","CRITTENDEN","KY",41030,38.7749225200001,-84.530005089,333,"3740 GARDNERSVILLE ROAD, CRITTENDEN, KY, 41030","Match","Exact","3740 GARDNERSVILLE RD, CRITTENDEN, KY, 41030",103851147,"L"
563834,"3740 GRAND AVENUE SOUTH","MINNEAPOLIS","MN",55409,44.9351374170001,-93.284361298,334,"3740 GRAND AVENUE SOUTH, MINNEAPOLIS, MN, 55409","Match","Non_Exact","3740 GRAND AVE, MINNEAPOLIS, MN, 55409",43633622,"R"
563835,"3740 GREENFIELD AVE","LOS ANGELES","CA",90034,34.016391132,-118.414183936,335,"3740 GREENFIELD AVE, LOS ANGELES, CA, 90034","Match","Exact","3740 GREENFIELD AVE, LOS ANGELES, CA, 90034",141573893,"L"
563836,"3740 HOLTON CRL","EULESS","TX",76040,32.816761378,-97.071709159,336,"3740 HOLTON CRL, EULESS, TX, 76040","Match","Exact","3740 HOLTON CIR, EULESS, TX, 76040",636760409,"L"
563837,"3740 INVERRARY DRIVE APT 2F","LAUDERHILL","FL",33319,26.171748381,-80.229206973,337,"3740 INVERRARY DRIVE APT 2F, LAUDERHILL, FL, 33319","Match","Exact","3740 INVERRARY DR, LAUDERHILL, FL, 33319",114705932,"R"
563838,"3740 LAKE TIMBERLANE DRIVE","GRETNA","LA",70056,29.8525372400001,-90.0315766699999,338,"3740 LAKE TIMBERLANE DRIVE, GRETNA, LA, 70056","Match","Exact","3740 LAKE TIMBERLANE DR, GRETNA, LA, 70056",93511278,"R"
563839,"3740 LEPRECHAUN DRIVE","DECATUR","GA",30034,33.710160284,-84.235314929,339,"3740 LEPRECHAUN DRIVE, DECATUR, GA, 30034","Match","Exact","3740 LEPRECHAUN DR, DECATUR, GA, 30034",628093461,"R"
563840,"3740 LONDON BRIDGE RD","WESTMINSTER","MD",21157,NA,NA,340,"3740 LONDON BRIDGE RD, WESTMINSTER, MD, 21157","No_Match",NA,NA,NA,NA
563841,"3740 MERRIWEATHER LN","ROCHESTER HILLS","MI",48309,42.7048732850001,-83.2120437949999,341,"3740 MERRIWEATHER LN, ROCHESTER HILLS, MI, 48309","Match","Non_Exact","3740 MERRIWEATHER LN, ROCHESTER HLS, MI, 48306",69801079,"R"
563842,"3740 N 40TH ST","MILWAUKEE","WI",53216,43.0850213480001,-87.963107603,342,"3740 N 40TH ST, MILWAUKEE, WI, 53216","Match","Exact","3740 N 40TH ST, MILWAUKEE, WI, 53216",77731708,"R"
563843,"3740 N 700 E","NORTH OGDEN","UT",84414,NA,NA,343,"3740 N 700 E, NORTH OGDEN, UT, 84414","No_Match",NA,NA,NA,NA
563844,"3740 N HALSTED ST UNIT 1407","CHICAGO","IL",60613,41.950345032,-87.649589925,344,"3740 N HALSTED ST UNIT 1407, CHICAGO, IL, 60613","Match","Non_Exact","3740 N HALSTED ST, CHICAGO, IL, 60613",111766611,"L"
563845,"3740 N HARVARD ST","KINGMAN","AZ",86409,35.2327663090001,-114.049219874,345,"3740 N HARVARD ST, KINGMAN, AZ, 86409","Match","Exact","3740 N HARVARD ST, KINGMAN, AZ, 86409",639661249,"R"
563846,"3740 N HIGH SCHOOL RD","INDIANAPOLIS","IN",46224,39.822627545,-86.270278257,346,"3740 N HIGH SCHOOL RD, INDIANAPOLIS, IN, 46224","Match","Exact","3740 N HIGH SCHOOL RD, INDIANAPOLIS, IN, 46224",641064029,"L"
563847,"3740 N JOSEY LANE SUITE 246","CARROLLTON","TX",75007,33.0129995140001,-96.8868902839999,347,"3740 N JOSEY LANE SUITE 246, CARROLLTON, TX, 75007","Match","Non_Exact","3740 N JOSEY LN, CARROLLTON, TX, 75007",103443690,"R"
563848,"3740 N JOSEY LN - STE 102","CARROLLTON","TX",57707,NA,NA,348,"3740 N JOSEY LN - STE 102, CARROLLTON, TX, 57707","No_Match",NA,NA,NA,NA
563849,"3740 N PANAMA AVENUE","CHICAGO","IL",60634,41.947560545,-87.829173306,349,"3740 N PANAMA AVENUE, CHICAGO, IL, 60634","Match","Exact","3740 N PANAMA AVE, CHICAGO, IL, 60634",111747107,"L"
563850,"3740 NW JACKSON AVE UNIT 1","CORVALLIS","OR",97300,NA,NA,350,"3740 NW JACKSON AVE UNIT 1, CORVALLIS, OR, 97300","No_Match",NA,NA,NA,NA
563851,"3740 NW PINON HILLS TERR","PORTLAND","OR",97229,45.5463814070001,-122.811205012,351,"3740 NW PINON HILLS TERR, PORTLAND, OR, 97229","Match","Exact","3740 NW PINON HILLS TER, PORTLAND, OR, 97229",605204578,"L"
563852,"3740 PARAISO WAY","LA CRESCENTA","CA",91214,34.245313298,-118.260885387,352,"3740 PARAISO WAY, LA CRESCENTA, CA, 91214","Match","Exact","3740 PARAISO WAY, LA CRESCENTA, CA, 91214",141588895,"L"
563853,"3740 POWER DAM DRIVE","CARMEL","IN",46033,39.937457624,-86.100077649,353,"3740 POWER DAM DRIVE, CARMEL, IN, 46033","Match","Non_Exact","3740 POWER DR, CARMEL, IN, 46033",29326877,"L"
563854,"3740 RIDGE RD SE","SMYRNA","GA",30080,33.862264397,-84.500347166,354,"3740 RIDGE RD SE, SMYRNA, GA, 30080","Match","Non_Exact","3740 RIDGE RD, SMYRNA, GA, 30080",653450329,"R"
563855,"3740 RIVER ROAD","COLUMBUS","NC",28722,35.225556511,-82.1563454669999,355,"3740 RIVER ROAD, COLUMBUS, NC, 28722","Match","Exact","3740 RIVER RD, COLUMBUS, NC, 28722",44316411,"R"
563856,"3740 ROBLAR ROAD","PETALUMA","CA",94952,38.3203432540001,-122.75432406,356,"3740 ROBLAR ROAD, PETALUMA, CA, 94952","Match","Exact","3740 ROBLAR RD, PETALUMA, CA, 94952",604970808,"R"
563857,"3740 RUSTY DELL RD","FORT WORTH","TX",76111,32.7872181860001,-97.293235162,357,"3740 RUSTY DELL RD, FORT WORTH, TX, 76111","Match","Exact","3740 RUSTY DELL RD, FORT WORTH, TX, 76111",102105738,"L"
563858,"3740 SO OCEAN BLVD APT 506","HIGHLAND BEACH","FL",33487,26.4076912140001,-80.0649388149999,358,"3740 SO OCEAN BLVD APT 506, HIGHLAND BEACH, FL, 33487","Match","Non_Exact","3740 S OCEAN BLVD, HIGHLAND BEACH, FL, 33487",647638554,"R"
563859,"3740 STEWART AVE","LOS ANGELES","CA",90066,34.0036580240001,-118.43851613,359,"3740 STEWART AVE, LOS ANGELES, CA, 90066","Match","Exact","3740 STEWART AVE, LOS ANGELES, CA, 90066",141570491,"L"
563860,"3740 SUMMERVILLE LANE","FORT WORTH","TX",76244,32.9583316490001,-97.2797835919999,360,"3740 SUMMERVILLE LANE, FORT WORTH, TX, 76244","Match","Non_Exact","3740 SUMMERSVILLE LN, FORT WORTH, TX, 76244",637603995,"R"
563861,"3740 SUNSET BLVD","LOS ANGELES","CA",90026,34.0906737450001,-118.278181481,361,"3740 SUNSET BLVD, LOS ANGELES, CA, 90026","Match","Exact","3740 SUNSET BLVD, LOS ANGELES, CA, 90026",141604632,"L"
563862,"3740 SW COMUS STREET","PORTLAND","OR",97219,45.446787043,-122.715571471,362,"3740 SW COMUS STREET, PORTLAND, OR, 97219","Match","Exact","3740 SW COMUS ST, PORTLAND, OR, 97219",157564488,"L"
563863,"3740 SW PLAZA DR APT 203","TOPEKA","KS",66609,39.0003236530001,-95.691319544,363,"3740 SW PLAZA DR APT 203, TOPEKA, KS, 66609","Match","Non_Exact","3740 SW PLAZA DR, TOPEKA, KS, 66609",17891955,"L"
563864,"3740 TEA OLIVE DRIVE","GASTONIA","NC",28120,35.204062477,-81.1305253419999,364,"3740 TEA OLIVE DRIVE, GASTONIA, NC, 28120","Match","Non_Exact","3740 TEA OLIVE DR, GASTONIA, NC, 28056",70420672,"L"
563865,"3740 VERDE GARDENS CIRCLE","JACKSONVILLE","FL",32218,30.4499886990001,-81.709541526,365,"3740 VERDE GARDENS CIRCLE, JACKSONVILLE, FL, 32218","Match","Exact","3740 VERDE GARDENS CIR, JACKSONVILLE, FL, 32218",624530655,"R"
563866,"3740 W 118TH STREET","HAWTHORNE","CA",90250,NA,NA,366,"3740 W 118TH STREET, HAWTHORNE, CA, 90250","Tie",NA,NA,NA,NA
563867,"3740 W 3850 N","BERYL","UT",84714,37.7775313160001,-113.742461676,367,"3740 W 3850 N, BERYL, UT, 84714","Match","Exact","3740 W 3850 N, BERYL, UT, 84714",165402323,"L"
563868,"3740 W 92ND COURT","MERRILLVILLE","IN",46410,41.451548422,-87.382138316,368,"3740 W 92ND COURT, MERRILLVILLE, IN, 46410","Match","Exact","3740 W 92ND CT, MERRILLVILLE, IN, 46410",616579113,"L"
563869,"3740 W AGATITE","CHICAGO","IL",60625,41.961941983,-87.721564676,369,"3740 W AGATITE, CHICAGO, IL, 60625","Match","Non_Exact","3740 W AGATITE AVE, CHICAGO, IL, 60625",111756362,"R"
563870,"3740 W BUCKEYE ROAD RD","PHOENIX","AZ",85009,33.4369021630001,-112.138287632,370,"3740 W BUCKEYE ROAD RD, PHOENIX, AZ, 85009","Match","Non_Exact","3740 W BUCKEYE RD, PHOENIX, AZ, 85009",642658476,"R"
563871,"3740 W HANCOCK","DETROIT","MI",48208,42.343074163,-83.1023297949999,371,"3740 W HANCOCK, DETROIT, MI, 48208","Match","Non_Exact","3740 W HANCOCK ST, DETROIT, MI, 48208",95472616,"R"
563872,"3740 W IRONWOOD HILL DRIVE 6","TUCSON","AZ",85745,32.250717824,-111.043369493,372,"3740 W IRONWOOD HILL DRIVE 6, TUCSON, AZ, 85745","Match","Non_Exact","3740 W IRONWOOD HILL DR, TUCSON, AZ, 85745",641014109,"R"
563873,"3740 WARWICK BLVD APT 3","LAWRENCE","KS",66049,NA,NA,373,"3740 WARWICK BLVD APT 3, LAWRENCE, KS, 66049","No_Match",NA,NA,NA,NA
563874,"3740 WEAVER ROAD","WILSON","NC",27893,35.747884351,-77.859382365,374,"3740 WEAVER ROAD, WILSON, NC, 27893","Match","Exact","3740 WEAVER RD, WILSON, NC, 27893",26730481,"L"
563875,"3740 WENDWOOD LANE APT 301","CHARLOTTE","NC",28211,35.1874338910001,-80.807638003,375,"3740 WENDWOOD LANE APT 301, CHARLOTTE, NC, 28211","Match","Exact","3740 WENDWOOD LN, CHARLOTTE, NC, 28211",618149818,"R"
563876,"3740 WEST 92ND CT","MERRILLVILLE","IN",46410,41.451545824,-87.382131881,376,"3740 WEST 92ND CT, MERRILLVILLE, IN, 46410","Match","Exact","3740 W 92ND CT, MERRILLVILLE, IN, 46410",616579113,"L"
563877,"3740 WEST STATE ROUTE 161","BELLEVILLE","IL",62223,38.5519435690001,-90.0133077419999,377,"3740 WEST STATE ROUTE 161, BELLEVILLE, IL, 62223","Match","Non_Exact","3740 STATE RTE 161, BELLEVILLE, IL, 62223",614586545,"R"
563878,"3740 WINDERWOOD CIRCLE NORTH","MEMPHIS","TN",38128,35.2107522360001,-89.937865567,378,"3740 WINDERWOOD CIRCLE NORTH, MEMPHIS, TN, 38128","Match","Non_Exact","3740 WINDERWOOD CIR, MEMPHIS, TN, 38128",641636758,"L"
563879,"3740 WOODRIDGE DR","DECATUR","IL",62522,NA,NA,379,"3740 WOODRIDGE DR, DECATUR, IL, 62522","No_Match",NA,NA,NA,NA
563880,"3740 YUHAS AVE","HELENA","MT",59602,46.6271535110001,-112.02679526,380,"3740 YUHAS AVE, HELENA, MT, 59602","Match","Exact","3740 YUHAS AVE, HELENA, MT, 59602",617981493,"L"
563881,"37400 RICKARD LAND","N FORT MYERS","FL",33917,26.8196480760001,-81.8351138689999,381,"37400 RICKARD LAND, N FORT MYERS, FL, 33917","Match","Non_Exact","37400 RICKARD LN, N FORT MYERS, FL, 33917",648027073,"R"
563882,"37404 N ELK-CHATTAROY ROAD","ELK","WA",99009,47.9954238330001,-117.252304235,382,"37404 N ELK-CHATTAROY ROAD, ELK, WA, 99009","Match","Non_Exact","37404 N ELK CHATTAROY RD, ELK, WA, 99009",189850537,"L"
563883,"37406 DAVEY JONES BLVD","GREENBACKVILLE","VA",23356,38.006399426,-75.414555763,383,"37406 DAVEY JONES BLVD, GREENBACKVILLE, VA, 23356","Match","Exact","37406 DAVEY JONES BLVD, GREENBACKVILLE, VA, 23356",114569581,"L"
563884,"37406 WHITE ROAD","PRAIRIEVILLE","LA",70769,30.2932177060001,-90.980858271,384,"37406 WHITE ROAD, PRAIRIEVILLE, LA, 70769","Match","Exact","37406 WHITE RD, PRAIRIEVILLE, LA, 70769",648948933,"R"
563885,"37407 160TH AVE SE","AUBURNB","WA",98092,47.266512091,-122.128695566,385,"37407 160TH AVE SE, AUBURNB, WA, 98092","Match","Non_Exact","37407 160TH AVE SE, AUBURN, WA, 98092",186657166,"R"
563886,"37407 PRAIRIE DR","PRAIRIEVILLE","LA",70769,30.2783142280001,-90.97667925,386,"37407 PRAIRIE DR, PRAIRIEVILLE, LA, 70769","Match","Exact","37407 PRAIRIE DR, PRAIRIEVILLE, LA, 70769",115035955,"R"
563887,"37408 HARROW COURT","PALMDALE","CA",93550,34.5617421850001,-118.107050158,387,"37408 HARROW COURT, PALMDALE, CA, 93550","Match","Exact","37408 HARROW CT, PALMDALE, CA, 93550",141836069,"L"
563888,"3741 12TH AVE SW 15D","CEDAR RAPIDS","IA",52404,41.965633197,-91.7209304419999,388,"3741 12TH AVE SW 15D, CEDAR RAPIDS, IA, 52404","Match","Exact","3741 12TH AVE SW, CEDAR RAPIDS, IA, 52404",17024264,"L"
563889,"3741 136TH AVE SE","BELLEVUE","WA",98006,47.577059283,-122.158397221,389,"3741 136TH AVE SE, BELLEVUE, WA, 98006","Match","Exact","3741 136TH AVE SE, BELLEVUE, WA, 98006",239772917,"R"
563890,"3741 19TH AVENUE SOUTH","ST PETERSBURG","FL",33711,27.750754108,-82.6842202779999,390,"3741 19TH AVENUE SOUTH, ST PETERSBURG, FL, 33711","Match","Exact","3741 19TH AVE S, SAINT PETERSBURG, FL, 33711",124705633,"R"
563891,"3741 37TH STREET SE","DELANO","MN",55328,45.097855468,-93.811769049,391,"3741 37TH STREET SE, DELANO, MN, 55328","Match","Exact","3741 37TH ST SE, DELANO, MN, 55328",44004480,"R"
563892,"3741 5TH AVE S","MINNEAPOLIS","MN",55409,44.93518979,-93.268836562,392,"3741 5TH AVE S, MINNEAPOLIS, MN, 55409","Match","Exact","3741 5TH AVE S, MINNEAPOLIS, MN, 55409",43633935,"L"
563893,"3741 94TH COURT NORTH","BROOKLYN PARK","MN",55443,45.1255076050001,-93.329817201,393,"3741 94TH COURT NORTH, BROOKLYN PARK, MN, 55443","Match","Non_Exact","3741 94TH AVE N, BROOKLYN PARK, MN, 55443",640743406,"R"
563894,"3741 APALACHEE RIDGE","MONROE","GA",30656,33.8875759210001,-83.7570075899999,394,"3741 APALACHEE RIDGE, MONROE, GA, 30656","Match","Exact","3741 APALACHEE RIDGE, MONROE, GA, 30656",77627590,"R"
563895,"3741 AVALON AVE","PORT ARTHUR","TX",77642,29.9231360520001,-93.936247699,395,"3741 AVALON AVE, PORT ARTHUR, TX, 77642","Match","Exact","3741 AVALON AVE, PORT ARTHUR, TX, 77642",73863228,"L"
563896,"3741 BELL ST","KANSAS CITY","MO",64111,39.0598448160001,-94.6060906499999,396,"3741 BELL ST, KANSAS CITY, MO, 64111","Match","Exact","3741 BELL ST, KANSAS CITY, MO, 64111",91446505,"L"
563897,"3741 BELLA TERRA ROAD","BROOKLET","GA",30415,32.355103624,-81.717943277,397,"3741 BELLA TERRA ROAD, BROOKLET, GA, 30415","Match","Exact","3741 BELLA TERRA RD, BROOKLET, GA, 30415",6156382,"L"
563898,"3741 BOONE ROAD","GREENWOOD","AR",72936,35.1762186940001,-94.320088762,398,"3741 BOONE ROAD, GREENWOOD, AR, 72936","Match","Exact","3741 BOONE RD, GREENWOOD, AR, 72936",652955135,"R"
563899,"3741 CARMEL VIEW ROAD UNIT 4","SAN DIEGO","CA",92130,32.940958149,-117.232921267,399,"3741 CARMEL VIEW ROAD UNIT 4, SAN DIEGO, CA, 92130","Match","Exact","3741 CARMEL VIEW RD, SAN DIEGO, CA, 92130",195690404,"R"
563900,"3741 CR 56","AUBURN","IN",46706,41.324473847,-85.01439254,400,"3741 CR 56, AUBURN, IN, 46706","Match","Exact","3741 CO RD 56, AUBURN, IN, 46706",6515417,"L"
563901,"3741 DARRTOWN RD","OXFORD","OH",45056,39.4816192850001,-84.6663530019999,401,"3741 DARRTOWN RD, OXFORD, OH, 45056","Match","Exact","3741 DARRTOWN RD, OXFORD, OH, 45056",113786765,"R"
563902,"3741 DEVILS RD","CUSICK","WA",99119,NA,NA,402,"3741 DEVILS RD, CUSICK, WA, 99119","No_Match",NA,NA,NA,NA
563903,"3741 DOUGLAS BLVD SUITE 370","ROSEVILLE","CA",95661,38.7442073550001,-121.239495625,403,"3741 DOUGLAS BLVD SUITE 370, ROSEVILLE, CA, 95661","Match","Exact","3741 DOUGLAS BLVD, ROSEVILLE, CA, 95661",106792751,"L"
563904,"3741 E ESPLANADE AVE","GILBERT","AZ",85297,33.270100551,-111.708970819,404,"3741 E ESPLANADE AVE, GILBERT, AZ, 85297","Match","Exact","3741 E ESPLANADE AVE, GILBERT, AZ, 85297",128852121,"R"
563905,"3741 EAST KIRKWOOD AVENUE","ORANGE","CA",92869,33.774945099,-117.813089161,405,"3741 EAST KIRKWOOD AVENUE, ORANGE, CA, 92869","Match","Exact","3741 E KIRKWOOD AVE, ORANGE, CA, 92869",144053075,"L"
563906,"3741 FAIRHAVEN DRIVE","FORT WORTH","TX",76123,32.625406619,-97.37374313,406,"3741 FAIRHAVEN DRIVE, FORT WORTH, TX, 76123","Match","Exact","3741 FAIRHAVEN DR, FORT WORTH, TX, 76123",101931429,"R"
563907,"3741 FANNY LAKE RD","CAMBRIDGE","MN",55008,45.558762782,-93.17335551,407,"3741 FANNY LAKE RD, CAMBRIDGE, MN, 55008","Match","Non_Exact","3741 FANNY LAKE RD NE, CAMBRIDGE, MN, 55008",97622136,"R"
563908,"3741 GIBBSTONE DR","COLUMBUS","OH",43204,39.9816679950001,-83.102396657,408,"3741 GIBBSTONE DR, COLUMBUS, OH, 43204","Match","Exact","3741 GIBBSTONE DR, COLUMBUS, OH, 43204",641106540,"L"
563909,"3741 GLASSTOP DRIVE","LAS VEGAS","NV",89141,35.958468854,-115.189229352,409,"3741 GLASSTOP DRIVE, LAS VEGAS, NV, 89141","Match","Exact","3741 GLASSTOP DR, LAS VEGAS, NV, 89141",650777334,"L"
563910,"3741 GOSHAWK LANDING","COLUMBUS","OH",43230,40.056055057,-82.854125519,410,"3741 GOSHAWK LANDING, COLUMBUS, OH, 43230","Match","Exact","3741 GOSHAWK LNDG, COLUMBUS, OH, 43230",646943005,"L"
563911,"3741 JACOB LOIS DRIVE","JACKSONVILLE","FL",32218,30.4469247390001,-81.709443305,411,"3741 JACOB LOIS DRIVE, JACKSONVILLE, FL, 32218","Match","Exact","3741 JACOB LOIS DR, JACKSONVILLE, FL, 32218",629897698,"R"
563912,"3741 JENNINGS","TROY","MI",48083,42.574773862,-83.137226074,412,"3741 JENNINGS, TROY, MI, 48083","Match","Non_Exact","3741 JENNINGS DR, TROY, MI, 48083",69742602,"L"
563913,"3741 KENZIES WAY","SANTA CLARA","UT",84765,NA,NA,413,"3741 KENZIES WAY, SANTA CLARA, UT, 84765","Tie",NA,NA,NA,NA
563914,"3741 LEHIGH ST","JACKSONVILLE","FL",32206,30.361722802,-81.658283207,414,"3741 LEHIGH ST, JACKSONVILLE, FL, 32206","Match","Exact","3741 LEHIGH ST, JACKSONVILLE, FL, 32206",83897894,"R"
563915,"3741 MARRIETA WAY","ST CLOUD","FL",34772,28.222586848,-81.299807197,415,"3741 MARRIETA WAY, ST CLOUD, FL, 34772","Match","Non_Exact","3741 MARIETTA WAY, SAINT CLOUD, FL, 34772",640009629,"L"
563916,"3741 MONARCH DRIVE NE","GRAND RAPIDS","MI",49525,42.9792579260001,-85.578330624,416,"3741 MONARCH DRIVE NE, GRAND RAPIDS, MI, 49525","Match","Exact","3741 MONARCH DR NE, GRAND RAPIDS, MI, 49525",12483288,"L"
563917,"3741 MOSS ROSE DRIVE","NASHVILLE","TN",37216,36.2032484210001,-86.6984886339999,417,"3741 MOSS ROSE DRIVE, NASHVILLE, TN, 37216","Match","Exact","3741 MOSS ROSE DR, NASHVILLE, TN, 37216",97194602,"L"
563918,"3741 NE 22ND AVE","OCALA","FL",34479,29.225605939,-82.108305409,418,"3741 NE 22ND AVE, OCALA, FL, 34479","Match","Exact","3741 NE 22ND AVE, OCALA, FL, 34479",116727897,"R"
563919,"3741 NEHEMIAH WAY","MEMPHIS","TN",38109,35.0464108150001,-90.062089823,419,"3741 NEHEMIAH WAY, MEMPHIS, TN, 38109","Match","Exact","3741 NEHEMIAH WAY, MEMPHIS, TN, 38109",72968310,"L"
563920,"3741 NIMITZ STREET","EAU CLAIRE","WI",54701,44.7775312110001,-91.488456771,420,"3741 NIMITZ STREET, EAU CLAIRE, WI, 54701","Match","Exact","3741 NIMITZ ST, EAU CLAIRE, WI, 54701",46078182,"L"
563921,"3741 NORFOLK DR","MOUNTAIN HOUSE","CA",95377,37.7040317340001,-121.438398396,421,"3741 NORFOLK DR, MOUNTAIN HOUSE, CA, 95377","Match","Non_Exact","3741 NORFOLK DR, TRACY, CA, 95377",133882270,"R"
563922,"3741 NW 7TH PL","FORT LAUDERDALE","FL",33311,26.1313150170001,-80.197978658,422,"3741 NW 7TH PL, FORT LAUDERDALE, FL, 33311","Match","Exact","3741 NW 7TH PL, FORT LAUDERDALE, FL, 33311",114709650,"R"
563923,"3741 NW 95TH TERRACE UNIT 1502","SUNRISE","FL",33351,26.1720636210001,-80.277750117,423,"3741 NW 95TH TERRACE UNIT 1502, SUNRISE, FL, 33351","Match","Non_Exact","3741 NW 95TH TER, SUNRISE, FL, 33351",639262103,"L"
563924,"3741 PELICAN BAY CT","WELLINGTON","FL",33414,26.6263210560001,-80.234117387,424,"3741 PELICAN BAY CT, WELLINGTON, FL, 33414","Match","Exact","3741 PELICAN BAY CT, WELLINGTON, FL, 33414",115501045,"L"
563925,"3741 PREAKNESS PLACE APT 1411","PALM HARBOR","FL",34684,28.061153142,-82.714694513,425,"3741 PREAKNESS PLACE APT 1411, PALM HARBOR, FL, 34684","Match","Exact","3741 PREAKNESS PL, PALM HARBOR, FL, 34684",124816225,"L"
563926,"3741 RED HAWK CIRCLE","EDEN","UT",84310,41.326234319,-111.811151173,426,"3741 RED HAWK CIRCLE, EDEN, UT, 84310","Match","Exact","3741 RED HAWK CIR, EDEN, UT, 84310",605790491,"R"
563927,"3741 RIVERSIDE DRIVE","CORAL SPRINGS","FL",33065,26.2767912410001,-80.233486811,427,"3741 RIVERSIDE DRIVE, CORAL SPRINGS, FL, 33065","Match","Exact","3741 RIVERSIDE DR, CORAL SPRINGS, FL, 33065",114737853,"R"
563928,"3741 S ADOBE DRIVE","CHANDLER","AZ",85286,33.252382561,-111.788128543,428,"3741 S ADOBE DRIVE, CHANDLER, AZ, 85286","Match","Exact","3741 S ADOBE DR, CHANDLER, AZ, 85286",646719954,"R"
563929,"3741 S OLIVE ST","SANTA ANA","CA",92707,33.697372026,-117.877514436,429,"3741 S OLIVE ST, SANTA ANA, CA, 92707","Match","Exact","3741 S OLIVE ST, SANTA ANA, CA, 92707",144044150,"L"
563930,"3741 SCHOOL STREET","JAY","FL",32565,NA,NA,430,"3741 SCHOOL STREET, JAY, FL, 32565","No_Match",NA,NA,NA,NA
563931,"3741 SOUTH STATE HWY 95","FLATONIA","TX",78941,29.646123435,-97.127553539,431,"3741 SOUTH STATE HWY 95, FLATONIA, TX, 78941","Match","Exact","3741 S STATE HWY 95, FLATONIA, TX, 78941",42020870,"R"
563932,"3741 STONEHOUSE LANE","DOVER","PA",17315,39.985143001,-76.841147082,432,"3741 STONEHOUSE LANE, DOVER, PA, 17315","Match","Exact","3741 STONEHOUSE LN, DOVER, PA, 17315",651786505,"L"
563933,"3741 SW 160TH AVE APT 302","MIRAMAR","FL",33027,25.974712524,-80.358473395,433,"3741 SW 160TH AVE APT 302, MIRAMAR, FL, 33027","Match","Non_Exact","3741 SW 160TH AVE, MIRAMAR, FL, 33027",648202047,"R"
563934,"3741 SWINGALONG AVENUE","BATON ROUGE","LA",70814,NA,NA,434,"3741 SWINGALONG AVENUE, BATON ROUGE, LA, 70814","No_Match",NA,NA,NA,NA
563935,"3741 TRINITY LANE","ABILENE","TX",79602,32.4060300140001,-99.702816727,435,"3741 TRINITY LANE, ABILENE, TX, 79602","Match","Exact","3741 TRINITY LN, ABILENE, TX, 79602",129970131,"L"
563936,"3741 VALLEY STREET","DAYTON","OH",45424,39.786529713,-84.1486415259999,436,"3741 VALLEY STREET, DAYTON, OH, 45424","Match","Non_Exact","3741 VALLEY ST, DAYTON, OH, 45404",649929992,"L"
563937,"3741 VEBTURE DR","DULUTH","GA",30096,NA,NA,437,"3741 VEBTURE DR, DULUTH, GA, 30096","No_Match",NA,NA,NA,NA
563938,"3741 W 121ST ST","ALSIP","IL",60803,41.672815094,-87.7133891839999,438,"3741 W 121ST ST, ALSIP, IL, 60803","Match","Exact","3741 W 121ST ST, ALSIP, IL, 60803",111824673,"L"
563939,"3741 W 6TH STREET","WINONA","MN",55987,44.0605892740001,-91.692310046,439,"3741 W 6TH STREET, WINONA, MN, 55987","Match","Exact","3741 6TH ST, WINONA, MN, 55987",31662319,"L"
563940,"3741 W BROWARD BLVD","PLANTATION","FL",33312,26.121124794,-80.19799126,440,"3741 W BROWARD BLVD, PLANTATION, FL, 33312","Match","Non_Exact","3741 W BROWARD BLVD, FT LAUDERDALE, FL, 33312",637297465,"L"
563941,"3741 W LYNDALE STREET 2R","CHICAGO","IL",60647,41.9218108260001,-87.7205748869999,441,"3741 W LYNDALE STREET 2R, CHICAGO, IL, 60647","Match","Non_Exact","3741 W LYNDALE ST, CHICAGO, IL, 60647",605206761,"L"
563942,"3741 WARD RD","WHEAT RIDGE","CO",80033,39.767166332,-105.137887234,442,"3741 WARD RD, WHEAT RIDGE, CO, 80033","Match","Exact","3741 WARD RD, WHEAT RIDGE, CO, 80033",177286021,"L"
563943,"3741 WEST 5TH AVE","BEAVER FALLS","PA",15010,40.7793422490001,-80.334797017,443,"3741 WEST 5TH AVE, BEAVER FALLS, PA, 15010","Match","Exact","3741 W 5TH AVE, BEAVER FALLS, PA, 15010",608504985,"L"
563944,"3741-5 ALLEN ST","ALLENTOWN","PA",18104,40.5912543760001,-75.5391658189999,444,"3741-5 ALLEN ST, ALLENTOWN, PA, 18104","Match","Exact","3741 ALLEN ST, ALLENTOWN, PA, 18104",80827692,"R"
563945,"3741-B MADISON LANE","FALLS CHURCH","VA",22041,38.842970635,-77.139149657,445,"3741-B MADISON LANE, FALLS CHURCH, VA, 22041","Match","Exact","3741 MADISON LN, FALLS CHURCH, VA, 22041",619694408,"L"
563946,"37411 GEIGER ROAD","ZEPHYRHILLS","FL",33541,28.2447232050001,-82.2002237459999,446,"37411 GEIGER ROAD, ZEPHYRHILLS, FL, 33541","Match","Non_Exact","37411 GEIGER RD, ZEPHYRHILLS, FL, 33542",653608918,"L"
563947,"37412 HUNTERS RDG","SOLON","OH",44139,41.396605208,-81.411315863,447,"37412 HUNTERS RDG, SOLON, OH, 44139","Match","Exact","37412 HUNTERS RIDGE, SOLON, OH, 44139",61136768,"R"
563948,"37412 PEGGY LANE","RICHMOND","MI",48062,42.827386597,-82.7398977459999,448,"37412 PEGGY LANE, RICHMOND, MI, 48062","Match","Exact","37412 PEGGY LN, RICHMOND, MI, 48062",110713982,"L"
563949,"37413 LUMIERE","MURRIETA","CA",92563,33.5780084630001,-117.140556607,449,"37413 LUMIERE, MURRIETA, CA, 92563","Match","Non_Exact","37413 LUMIERE AVE, MURRIETA, CA, 92563",633956749,"L"
563950,"37414 WOODRIVER DR","DADE CITY","FL",33523,28.476944675,-82.1972818469999,450,"37414 WOODRIVER DR, DADE CITY, FL, 33523","Match","Exact","37414 WOODRIVER DR, DADE CITY, FL, 33523",86403380,"L"
563951,"37415 S HERRON LN","TUCSON","AZ",85658,32.5393734740001,-111.20263125,451,"37415 S HERRON LN, TUCSON, AZ, 85658","Match","Non_Exact","37415 S HERRON LN, MARANA, AZ, 85658",129339928,"L"
563952,"3742 10TH ST N","FARGO","ND",58102,46.9281592020001,-96.793996094,452,"3742 10TH ST N, FARGO, ND, 58102","Match","Exact","3742 10TH ST N, FARGO, ND, 58102",151451034,"R"
563953,"3742 BAYMAR DRIVE","YOUNGSTOWN","OH",44511,41.063732841,-80.695540631,453,"3742 BAYMAR DRIVE, YOUNGSTOWN, OH, 44511","Match","Exact","3742 BAYMAR DR, YOUNGSTOWN, OH, 44511",64592820,"R"
563954,"3742 BEECH STREET","FLOSSMOOR","IL",60422,41.547891286,-87.707906338,454,"3742 BEECH STREET, FLOSSMOOR, IL, 60422","Match","Exact","3742 BEECH ST, FLOSSMOOR, IL, 60422",111707784,"R"
563955,"3742 BENGAL DRIVE","POWDER SPRINGS","GA",30127,33.874320649,-84.66262232,455,"3742 BENGAL DRIVE, POWDER SPRINGS, GA, 30127","Match","Exact","3742 BENGAL DR, POWDER SPGS, GA, 30127",17172589,"R"
563956,"3742 BONNELL CT","REX","GA",30273,NA,NA,456,"3742 BONNELL CT, REX, GA, 30273","No_Match",NA,NA,NA,NA
563957,"3742 CAMDEN CT","WESTLAKE","OH",44145,41.434907551,-81.950089879,457,"3742 CAMDEN CT, WESTLAKE, OH, 44145","Match","Exact","3742 CAMDEN CT, WESTLAKE, OH, 44145",61149962,"R"
563958,"3742 CHARLESTON SQUARE","MEMPHIS","TN",38122,35.1480677590001,-89.9367880899999,458,"3742 CHARLESTON SQUARE, MEMPHIS, TN, 38122","Match","Exact","3742 CHARLESTON SQ, MEMPHIS, TN, 38122",72915852,"L"
563959,"3742 CROSLAND RD","WINSTON SALEM","NC",27106,36.156924809,-80.324719838,459,"3742 CROSLAND RD, WINSTON SALEM, NC, 27106","Match","Exact","3742 CROSLAND RD, WINSTON SALEM, NC, 27106",84647397,"L"
563960,"3742 DURHAM-CHAPEL HILL BLVD","DURHAM","NC",27707,35.9709679580001,-78.952431382,460,"3742 DURHAM-CHAPEL HILL BLVD, DURHAM, NC, 27707","Match","Exact","3742 DURHAM-CHAPEL HILL BLVD, DURHAM, NC, 27707",653881895,"R"
563961,"3742 FOND DU LAC RD","OSHKOSH","WI",44902,43.9691205830001,-88.527731231,461,"3742 FOND DU LAC RD, OSHKOSH, WI, 44902","Match","Non_Exact","3742 FOND DU LAC RD, OSHKOSH, WI, 54902",74491186,"L"
563962,"3742 FOND DU LAC RD","OSHKOSH","WI",54902,43.9691205830001,-88.527731231,462,"3742 FOND DU LAC RD, OSHKOSH, WI, 54902","Match","Exact","3742 FOND DU LAC RD, OSHKOSH, WI, 54902",74491186,"L"
563963,"3742 FOSTER HILL DRIVE N","ST. PETERSBURG","FL",33704,27.806162112,-82.648195841,463,"3742 FOSTER HILL DRIVE N, ST. PETERSBURG, FL, 33704","Match","Exact","3742 FOSTER HILL DR N, SAINT PETERSBURG, FL, 33704",124704330,"L"
563964,"3742 FOXFORD STREAM ROAD","NOTTINGHAM","MD",21236,39.3896689060001,-76.495463162,464,"3742 FOXFORD STREAM ROAD, NOTTINGHAM, MD, 21236","Match","Exact","3742 FOXFORD STREAM RD, NOTTINGHAM, MD, 21236",191512671,"L"
563965,"3742 GREENWICH AVE","DULUTH","GA",30096,33.9833614360001,-84.162203279,465,"3742 GREENWICH AVE, DULUTH, GA, 30096","Match","Exact","3742 GREENWICH AVE, DULUTH, GA, 30096",628070908,"R"
563966,"3742 LOS LAGOS DR","EDINBURG","TX",78542,26.275616832,-98.1277853989999,466,"3742 LOS LAGOS DR, EDINBURG, TX, 78542","Match","Exact","3742 LOS LAGOS DR, EDINBURG, TX, 78542",632510701,"R"
563967,"3742 LOYOLA DRIVE APT 174","KENNER","LA",70065,30.029329719,-90.268820582,467,"3742 LOYOLA DRIVE APT 174, KENNER, LA, 70065","Match","Exact","3742 LOYOLA DR, KENNER, LA, 70065",648301325,"R"
563968,"3742 LYNDALE AVE N","MINNEAPOLIS","MN",55412,45.0229155380001,-93.288036265,468,"3742 LYNDALE AVE N, MINNEAPOLIS, MN, 55412","Match","Exact","3742 LYNDALE AVE N, MINNEAPOLIS, MN, 55412",43622375,"R"
563969,"3742 LYNDALE AVENUE","MINNEAPOLIS","MN",55412,45.0229155380001,-93.288036265,469,"3742 LYNDALE AVENUE, MINNEAPOLIS, MN, 55412","Match","Non_Exact","3742 LYNDALE AVE N, MINNEAPOLIS, MN, 55412",43622375,"R"
563970,"3742 MORROW STREET","SHREVEPORT","LA",71109,32.458332484,-93.798566635,470,"3742 MORROW STREET, SHREVEPORT, LA, 71109","Match","Exact","3742 MORROW ST, SHREVEPORT, LA, 71109",57460295,"R"
563971,"3742 PEAR ORCHARD WAY","SUFFOLK","VA",23435,36.860311859,-76.4400801629999,471,"3742 PEAR ORCHARD WAY, SUFFOLK, VA, 23435","Match","Exact","3742 PEAR ORCHARD WAY, SUFFOLK, VA, 23435",624113542,"L"
563972,"3742 RUETTE SAN RAPHAEL","SAN DIEGO","CA",92130,32.925049916,-117.232196575,472,"3742 RUETTE SAN RAPHAEL, SAN DIEGO, CA, 92130","Match","Exact","3742 RUETTE SAN RAPHAEL, SAN DIEGO, CA, 92130",195687222,"L"
563973,"3742 SAINT PAUL RD","SUMMERTON","SC",29148,NA,NA,473,"3742 SAINT PAUL RD, SUMMERTON, SC, 29148","No_Match",NA,NA,NA,NA
563974,"3742 SAN ANSELINE AVENUE","LONG BEACH","CA",90808,33.826193646,-118.120871106,474,"3742 SAN ANSELINE AVENUE, LONG BEACH, CA, 90808","Match","Exact","3742 SAN ANSELINE AVE, LONG BEACH, CA, 90808",141742324,"R"
563975,"3742 STURTEVANT","DETROIT","MI",48206,42.384206046,-83.127807111,475,"3742 STURTEVANT, DETROIT, MI, 48206","Match","Non_Exact","3742 STURTEVANT ST, DETROIT, MI, 48206",95470553,"R"
563976,"3742 SUN VALLEY ST NW","GRAND RAPIDS","MI",49544,43.035378516,-85.7618156729999,476,"3742 SUN VALLEY ST NW, GRAND RAPIDS, MI, 49544","Match","Exact","3742 SUN VALLEY ST NW, GRAND RAPIDS, MI, 49544",12450236,"L"
563977,"3742 SUNLIGHT COURT","REDDING","CA",96001,40.5883331380001,-122.429295803,477,"3742 SUNLIGHT COURT, REDDING, CA, 96001","Match","Exact","3742 SUNLIGHT CT, REDDING, CA, 96001",126645144,"R"
563978,"3742 UNION MILLS RD","TROY","VA",22974,37.9376367690001,-78.299297601,478,"3742 UNION MILLS RD, TROY, VA, 22974","Match","Exact","3742 UNION MILLS RD, TROY, VA, 22974",73794153,"L"
563979,"3742 VIA CAPITOLA","MADERA","CA",93637,36.961294627,-120.106903096,479,"3742 VIA CAPITOLA, MADERA, CA, 93637","Match","Exact","3742 VIA CAPITOLA, MADERA, CA, 93637",612100893,"L"
563980,"3742 W PESCADOR DR","COEUR D ALENE","ID",83815,47.7338423480001,-116.836335176,480,"3742 W PESCADOR DR, COEUR D ALENE, ID, 83815","Match","Exact","3742 PESCADOR DR, COEUR D ALENE, ID, 83815",637309555,"L"
563981,"3742 W ROSE HILL ST APT 102","BOISE","ID",83705,43.6006951030001,-116.227785191,481,"3742 W ROSE HILL ST APT 102, BOISE, ID, 83705","Match","Exact","3742 ROSE HILL ST, BOISE, ID, 83705",117885754,"R"
563982,"3742 WARRIOR PATH","DECATUR","GA",30034,NA,NA,482,"3742 WARRIOR PATH, DECATUR, GA, 30034","No_Match",NA,NA,NA,NA
563983,"3742 WARRIORS PATH","DECATUR","GA",30034,33.6800732040001,-84.261550834,483,"3742 WARRIORS PATH, DECATUR, GA, 30034","Match","Exact","3742 WARRIORS PATH, DECATUR, GA, 30034",23395486,"L"
563984,"3742 WEST IRVING PARK RD APT 2","CHICAGO","IL",60618,41.953744622,-87.7217648819999,484,"3742 WEST IRVING PARK RD APT 2, CHICAGO, IL, 60618","Match","Exact","3742 W IRVING PARK RD, CHICAGO, IL, 60618",111756803,"R"
563985,"3742 YARNALL ROAD","HALETHORPE","MD",21227,NA,NA,485,"3742 YARNALL ROAD, HALETHORPE, MD, 21227","No_Match",NA,NA,NA,NA
563986,"37420 MOSS ROCK DRIVE","CORVALLIS","OR",97330,44.6613140540001,-123.285504517,486,"37420 MOSS ROCK DRIVE, CORVALLIS, OR, 97330","Match","Exact","37420 MOSS ROCK DR, CORVALLIS, OR, 97330",155870999,"L"
563987,"37420 SODAVILLE CUT OFF DR","LEBANON","OR",97355,44.491902069,-122.898351138,487,"37420 SODAVILLE CUT OFF DR, LEBANON, OR, 97355","Match","Exact","37420 SODAVILLE CUT OFF DR, LEBANON, OR, 97355",156043506,"L"
563988,"37421 GLENBROOK TERRACE","FREMONT","CA",94536,37.560708993,-122.002089409,488,"37421 GLENBROOK TERRACE, FREMONT, CA, 94536","Match","Exact","37421 GLENBROOK TER, FREMONT, CA, 94536",617582249,"R"
563989,"37421 SOUTH COUNTY RD 216","MOORELAND","OK",73852,NA,NA,489,"37421 SOUTH COUNTY RD 216, MOORELAND, OK, 73852","No_Match",NA,NA,NA,NA
563990,"37422 18TH AVE S","FEDERAL WAY","WA",98003,47.2660138890001,-122.311571651,490,"37422 18TH AVE S, FEDERAL WAY, WA, 98003","Match","Exact","37422 18TH AVE S, FEDERAL WAY, WA, 98003",186719026,"L"
563991,"37425 SILK TREE LANE","PALMDALE","CA",93550,34.562501082,-118.09621158,491,"37425 SILK TREE LANE, PALMDALE, CA, 93550","Match","Exact","37425 SILK TREE LN, PALMDALE, CA, 93550",141835835,"L"
563992,"37429 OAK HILLS","DENHAM SPRINGS","LA",70706,30.6099122850001,-90.9286568529999,492,"37429 OAK HILLS, DENHAM SPRINGS, LA, 70706","Match","Non_Exact","37429 OAK HILLS DR, DENHAM SPRINGS, LA, 70706",115087858,"R"
563993,"37429 PARKWOOD AVE","PRARIEVILLE","LA",70769,30.280954954,-90.9761406229999,493,"37429 PARKWOOD AVE, PRARIEVILLE, LA, 70769","Match","Non_Exact","37429 PARKWOOD AVE, PRAIRIEVILLE, LA, 70769",115035941,"L"
563994,"3743 1600 RD","DELTA","CO",81416,38.7061021580001,-108.063801055,494,"3743 1600 RD, DELTA, CO, 81416","Match","Exact","3743 1600 RD, DELTA, CO, 81416",647354671,"L"
563995,"3743 ABERDEEN DRIVE","SARASOTA","FL",34240,27.301457735,-82.428467545,495,"3743 ABERDEEN DRIVE, SARASOTA, FL, 34240","Match","Exact","3743 ABERDEEN DR, SARASOTA, FL, 34240",16388693,"R"
563996,"3743 AIRDIRE COURT","BURTONSVILLE","MD",20866,39.0950153730001,-76.933034489,496,"3743 AIRDIRE COURT, BURTONSVILLE, MD, 20866","Match","Exact","3743 AIRDIRE CT, BURTONSVILLE, MD, 20866",637463252,"L"
563997,"3743 BLUE CROWN LN","EUSTIS","FL",32736,28.8529797950001,-81.6430784459999,497,"3743 BLUE CROWN LN, EUSTIS, FL, 32736","Match","Exact","3743 BLUE CROWN LN, EUSTIS, FL, 32736",617499108,"L"
563998,"3743 CARLON STREET","HOUSTON","TX",77005,29.7071966230001,-95.435238603,498,"3743 CARLON STREET, HOUSTON, TX, 77005","Match","Exact","3743 CARLON ST, HOUSTON, TX, 77005",96034941,"L"
563999,"3743 CLEVELAND AVE","WELLINGTON","CO",80549,40.703943053,-105.006409596,499,"3743 CLEVELAND AVE, WELLINGTON, CO, 80549","Match","Exact","3743 CLEVELAND AVE, WELLINGTON, CO, 80549",188479344,"L"
564000,"3743 DALMATIAN DRIVE","HOUSTON","TN",77045,NA,NA,500,"3743 DALMATIAN DRIVE, HOUSTON, TN, 77045","No_Match",NA,NA,NA,NA
