"ID","Address","City","State","Zip","lat","long","id","input_address","match_indicator","match_type","matched_address","tiger_line_id","tiger_side"
656501,"4700 CALHOUN RD","HOUSTON","TX",77204,29.7223563900001,-95.337662661,1,"4700 CALHOUN RD, HOUSTON, TX, 77204","Match","Exact","4700 CALHOUN RD, HOUSTON, TX, 77204",96615918,"R"
656502,"4700 CALHOUN","HOUSTON","TX",77024,NA,NA,2,"4700 CALHOUN, HOUSTON, TX, 77024","No_Match",NA,NA,NA,NA
656503,"4700 CANYON CREST DRIVE","RIVERSIDE","CA",92507,33.964840049,-117.33111136,3,"4700 CANYON CREST DRIVE, RIVERSIDE, CA, 92507","Match","Exact","4700 CANYON CREST DR, RIVERSIDE, CA, 92507",194746308,"L"
656504,"4700 CAPITAL BLVD ST","CLOUD","FL",34769,28.2388421090001,-81.3210900609999,4,"4700 CAPITAL BLVD ST, CLOUD, FL, 34769","Match","Non_Exact","4700 CAPITAL BLVD, SAINT CLOUD, FL, 34769",639353313,"L"
656505,"4700 CARSON POND RD","CHARLOTTE","NC",28226,35.0949879520001,-80.8028093459999,5,"4700 CARSON POND RD, CHARLOTTE, NC, 28226","Match","Non_Exact","4700 CARSONS POND RD, CHARLOTTE, NC, 28226",616654266,"L"
656506,"4700 CINDERELLA ROA","CHARLOTTE","NC",28213,35.2649376690001,-80.789558691,6,"4700 CINDERELLA ROA, CHARLOTTE, NC, 28213","Match","Non_Exact","4700 CINDERELLA RD, CHARLOTTE, NC, 28213",70480868,"R"
656507,"4700 CINDERELLA ROAD","CHARLOTTE","NC",28213,35.2649376690001,-80.789558691,7,"4700 CINDERELLA ROAD, CHARLOTTE, NC, 28213","Match","Exact","4700 CINDERELLA RD, CHARLOTTE, NC, 28213",70480868,"R"
656508,"4700 CITY AVENUE - APT 5304","PHILADELPHIA","PA",19131,40.002475631,-75.2238349849999,8,"4700 CITY AVENUE - APT 5304, PHILADELPHIA, PA, 19131","Match","Non_Exact","4700 E CITY AVE, PHILADELPHIA, PA, 19131",131396763,"L"
656509,"4700 CITY AVENUE APT 5206","PHILADELPHIA","PA",19131,40.002475631,-75.2238349849999,9,"4700 CITY AVENUE APT 5206, PHILADELPHIA, PA, 19131","Match","Non_Exact","4700 E CITY AVE, PHILADELPHIA, PA, 19131",131396763,"L"
656510,"4700 CLAYTON RD","CONCORD","CA",94521,37.9612618350001,-121.982847183,10,"4700 CLAYTON RD, CONCORD, CA, 94521","Match","Exact","4700 CLAYTON RD, CONCORD, CA, 94521",192058863,"R"
656511,"4700 CLEARVIEW ROAD","BELGRADE","MT",59714,45.7898557730001,-111.077199843,11,"4700 CLEARVIEW ROAD, BELGRADE, MT, 59714","Match","Exact","4700 CLEARVIEW RD, BELGRADE, MT, 59714",163509517,"R"
656512,"4700 COLLEGE OAK DR","SACRAMENTO","CA",95841,38.650392922,-121.350553342,12,"4700 COLLEGE OAK DR, SACRAMENTO, CA, 95841","Match","Exact","4700 COLLEGE OAK DR, SACRAMENTO, CA, 95841",133426210,"R"
656513,"4700 COLLEGE OAK DRIVE","SACRAMENTO","CA",95841,38.650392922,-121.350553342,13,"4700 COLLEGE OAK DRIVE, SACRAMENTO, CA, 95841","Match","Exact","4700 COLLEGE OAK DR, SACRAMENTO, CA, 95841",133426210,"R"
656514,"4700 COUNTRY CREEK DRIVE APT 99","DALLAS","TX",75236,32.6968263050001,-96.90108494,14,"4700 COUNTRY CREEK DRIVE APT 99, DALLAS, TX, 75236","Match","Exact","4700 COUNTRY CREEK DR, DALLAS, TX, 75236",102989623,"L"
656515,"4700 COUNTY ROAD 89","MANVEL","TX",77578,NA,NA,15,"4700 COUNTY ROAD 89, MANVEL, TX, 77578","No_Match",NA,NA,NA,NA
656516,"4700 DELBROOK RD","MECHANICSBURG","PA",17050,40.2299364580001,-76.961317386,16,"4700 DELBROOK RD, MECHANICSBURG, PA, 17050","Match","Exact","4700 DELBROOK RD, MECHANICSBURG, PA, 17050",60943150,"L"
656517,"4700 DON ZAREMBO DR","LOS ANGELES","CA",90008,34.003331738,-118.356610191,17,"4700 DON ZAREMBO DR, LOS ANGELES, CA, 90008","Match","Exact","4700 DON ZAREMBO DR, LOS ANGELES, CA, 90008",141601504,"L"
656518,"4700 DUNLEARY DRIVE","DUBLIN","OH",43017,40.1261365990001,-83.1203692719999,18,"4700 DUNLEARY DRIVE, DUBLIN, OH, 43017","Match","Exact","4700 DUNLEARY DR, DUBLIN, OH, 43017",218663197,"L"
656519,"4700 ELYSIAN FIELDS","NEW ORLEANS","LA",70122,30.006131521,-90.0599669549999,19,"4700 ELYSIAN FIELDS, NEW ORLEANS, LA, 70122","Match","Non_Exact","4700 ELYSIAN FIELDS AVE, NEW ORLEANS, LA, 70122",191704397,"L"
656520,"4700 ENGLISHTOWN DR","ARLINGTON","TX",76016,32.693852733,-97.1817863209999,20,"4700 ENGLISHTOWN DR, ARLINGTON, TX, 76016","Match","Exact","4700 ENGLISHTOWN DR, ARLINGTON, TX, 76016",102114921,"R"
656521,"4700 FALLS OF NEUSE RD STE 110","RALEIGH","NC",27609,35.8451586320001,-78.6146610499999,21,"4700 FALLS OF NEUSE RD STE 110, RALEIGH, NC, 27609","Match","Exact","4700 FALLS OF NEUSE RD, RALEIGH, NC, 27609",72506192,"R"
656522,"4700 FIFTH AVE","PITTSBURGH","PA",15213,40.4471412340001,-79.9468343,22,"4700 FIFTH AVE, PITTSBURGH, PA, 15213","Match","Exact","4700 5TH AVE, PITTSBURGH, PA, 15213",639327434,"R"
656523,"4700 FIREBROOK BLVD","LEXINGTON","KY",40513,37.99514523,-84.5900013099999,23,"4700 FIREBROOK BLVD, LEXINGTON, KY, 40513","Match","Exact","4700 FIREBROOK BLVD, LEXINGTON, KY, 40513",31937993,"R"
656524,"4700 FM 2022","CROCKETT","TX",75835,31.3909236050001,-95.407534068,24,"4700 FM 2022, CROCKETT, TX, 75835","Match","Exact","4700 FM 2022, CROCKETT, TX, 75835",651891843,"R"
656525,"4700 FOREST HIGHLAND DRIVE","RALEIGH","NC",27604,35.8109853240001,-78.555174608,25,"4700 FOREST HIGHLAND DRIVE, RALEIGH, NC, 27604","Match","Exact","4700 FOREST HIGHLAND DR, RALEIGH, NC, 27604",72655575,"R"
656526,"4700 FORRESTER WAY","ANTELOPE","CA",95843,38.721850734,-121.355228991,26,"4700 FORRESTER WAY, ANTELOPE, CA, 95843","Match","Exact","4700 FORRESTER WAY, ANTELOPE, CA, 95843",133372398,"R"
656527,"4700 FOUNTAIN GATE DRIVE","NORMAN","OK",73072,35.231426508,-97.511028417,27,"4700 FOUNTAIN GATE DRIVE, NORMAN, OK, 73072","Match","Exact","4700 FOUNTAIN GATE DR, NORMAN, OK, 73072",99919389,"L"
656528,"4700 GABRIEL DR","NEW ORLEANS","LA",70127,30.0202742540001,-89.9806240999999,28,"4700 GABRIEL DR, NEW ORLEANS, LA, 70127","Match","Exact","4700 GABRIEL DR, NEW ORLEANS, LA, 70127",191721659,"L"
656529,"4700 GLACIER MEADOWS LOOP","SPRINGFIELD","OR",97478,44.039236101,-122.951966458,29,"4700 GLACIER MEADOWS LOOP, SPRINGFIELD, OR, 97478","Match","Non_Exact","4700 GLACIER MEADOW LOOP, SPRINGFIELD, OR, 97478",651061008,"R"
656530,"4700 GRAND AVENUE SOUTH","MINNEAPOLIS","MN",55419,44.917637637,-93.284434504,30,"4700 GRAND AVENUE SOUTH, MINNEAPOLIS, MN, 55419","Match","Non_Exact","4700 GRAND AVE, MINNEAPOLIS, MN, 55419",43634089,"R"
656531,"4700 HAMPTON FARMS DRIVE","ALLISON PARK","PA",15101,40.5949313770001,-79.93322147,31,"4700 HAMPTON FARMS DRIVE, ALLISON PARK, PA, 15101","Match","Exact","4700 HAMPTON FARMS DR, ALLISON PARK, PA, 15101",51608949,"L"
656532,"4700 HAPPY HOLLOW LN","LINCOLN","NE",68516,40.7436161140001,-96.6542528319999,32,"4700 HAPPY HOLLOW LN, LINCOLN, NE, 68516","Match","Exact","4700 HAPPY HOLLOW LN, LINCOLN, NE, 68516",640632250,"R"
656533,"4700 HARLEY RD","WAXHAW","NC",28173,NA,NA,33,"4700 HARLEY RD, WAXHAW, NC, 28173","No_Match",NA,NA,NA,NA
656534,"4700 HERRMANN ST","METAIRIE","LA",70006,30.0196915220001,-90.186915121,34,"4700 HERRMANN ST, METAIRIE, LA, 70006","Match","Exact","4700 HERRMANN ST, METAIRIE, LA, 70006",93497410,"L"
656535,"4700 HICKEY RIDGE RD","BAXTER","TN",38544,36.0601236160001,-85.615590675,35,"4700 HICKEY RIDGE RD, BAXTER, TN, 38544","Match","Exact","4700 HICKEY RIDGE RD, BAXTER, TN, 38544",25152704,"L"
656536,"4700 HIGHWAY 365 SUITE A-288","PORT ARTHUR","TX",77642,NA,NA,36,"4700 HIGHWAY 365 SUITE A-288, PORT ARTHUR, TX, 77642","No_Match",NA,NA,NA,NA
656537,"4700 HILWIN CIRCLE","AUSTIN","TX",78756,30.32040957,-97.745205605,37,"4700 HILWIN CIRCLE, AUSTIN, TX, 78756","Match","Exact","4700 HILWIN CIR, AUSTIN, TX, 78756",63929572,"L"
656538,"4700 HOLLY AVENUE","FAIRFAX","VA",22030,38.8442653440001,-77.357892668,38,"4700 HOLLY AVENUE, FAIRFAX, VA, 22030","Match","Exact","4700 HOLLY AVE, FAIRFAX, VA, 22030",638130113,"R"
656539,"4700 HUNT STREET","CASS CITY","MI",48726,43.6050317740001,-83.178299366,39,"4700 HUNT STREET, CASS CITY, MI, 48726","Match","Exact","4700 HUNT ST, CASS CITY, MI, 48726",81242634,"R"
656540,"4700 HWY 149","CUMBERLAND CITY","TN",37050,NA,NA,40,"4700 HWY 149, CUMBERLAND CITY, TN, 37050","No_Match",NA,NA,NA,NA
656541,"4700 HWY 80","HAUGHTON","LA",71037,NA,NA,41,"4700 HWY 80, HAUGHTON, LA, 71037","No_Match",NA,NA,NA,NA
656542,"4700 JEFFERY AVE","WEST PALM BEACH","FL",33407,26.755619725,-80.081370701,42,"4700 JEFFERY AVE, WEST PALM BEACH, FL, 33407","Match","Exact","4700 JEFFERY AVE, WEST PALM BEACH, FL, 33407",115268567,"R"
656543,"4700 KIMBERLY CT","BRIDGEPORT","MI",48722,NA,NA,43,"4700 KIMBERLY CT, BRIDGEPORT, MI, 48722","No_Match",NA,NA,NA,NA
656544,"4700 KNOX STREET","FORT BRAGG","NC",28310,NA,NA,44,"4700 KNOX STREET, FORT BRAGG, NC, 28310","No_Match",NA,NA,NA,NA
656545,"4700 LANDCHESTER ROAD","CLEVELAND","OH",44109,41.4287287430001,-81.6921719119999,45,"4700 LANDCHESTER ROAD, CLEVELAND, OH, 44109","Match","Exact","4700 LANDCHESTER RD, CLEVELAND, OH, 44109",61116466,"R"
656546,"4700 LATIMER","RALEIGH","NC",27609,35.845380747,-78.629504816,46,"4700 LATIMER, RALEIGH, NC, 27609","Match","Non_Exact","4700 LATIMER RD, RALEIGH, NC, 27609",72505823,"R"
656547,"4700 LINCOLN ROAD NE","ALBUQUERQUE","NM",87109,35.1420090560001,-106.590812376,47,"4700 LINCOLN ROAD NE, ALBUQUERQUE, NM, 87109","Match","Exact","4700 LINCOLN RD NE, ALBUQUERQUE, NM, 87109",645553532,"R"
656548,"4700 LONE TREE BLVD","ANTIOCH","CA",94531,37.9637144550001,-121.771848044,48,"4700 LONE TREE BLVD, ANTIOCH, CA, 94531","Match","Non_Exact","4700 LONE TREE WAY, ANTIOCH, CA, 94531",192100632,"R"
656549,"4700 LONGMIRE EXT SUITE 47864","ATLANTA","GA",30340,33.9052279800001,-84.271079055,49,"4700 LONGMIRE EXT SUITE 47864, ATLANTA, GA, 30340","Match","Non_Exact","4700 LONGMIRE WAY, ATLANTA, GA, 30340",23360781,"R"
656550,"4700 LUCERNE LAKES BLVD WEST 604","LAKE WORTH","FL",33467,26.6111136530001,-80.162933094,50,"4700 LUCERNE LAKES BLVD WEST 604, LAKE WORTH, FL, 33467","Match","Exact","4700 LUCERNE LAKES BLVD W, LAKE WORTH, FL, 33467",611293927,"R"
656551,"4700 MCMASTERS AVE","HANNIBAL","MO",63401,39.7246622750001,-91.39187337,51,"4700 MCMASTERS AVE, HANNIBAL, MO, 63401","Match","Exact","4700 MCMASTERS AVE, HANNIBAL, MO, 63401",35345216,"R"
656552,"4700 MILLENIA BLVD  SUITE 175","ORLANDO","FL",32839,28.4851568190001,-81.440680213,52,"4700 MILLENIA BLVD  SUITE 175, ORLANDO, FL, 32839","Match","Exact","4700 MILLENIA BLVD, ORLANDO, FL, 32839",94356476,"L"
656553,"4700 MILLENIA BLVD STE 175 PMB92916","ORLANDO","FL",32839,28.4851568190001,-81.440680213,53,"4700 MILLENIA BLVD STE 175 PMB92916, ORLANDO, FL, 32839","Match","Exact","4700 MILLENIA BLVD, ORLANDO, FL, 32839",94356476,"L"
656554,"4700 MILLENIA BLVD SUITE 175","ORLANDO","FL",32839,28.4851568190001,-81.440680213,54,"4700 MILLENIA BLVD SUITE 175, ORLANDO, FL, 32839","Match","Exact","4700 MILLENIA BLVD, ORLANDO, FL, 32839",94356476,"L"
656555,"4700 MILLWOOD DR BOX 87235","BATON ROUGE","LA",70817,30.406709139,-91.0326378999999,55,"4700 MILLWOOD DR BOX 87235, BATON ROUGE, LA, 70817","Match","Exact","4700 MILLWOOD DR, BATON ROUGE, LA, 70817",606176278,"L"
656556,"4700 MINUTEMEN WAY","WILLIAMSBURG","VA",23188,37.341590646,-76.759220306,56,"4700 MINUTEMEN WAY, WILLIAMSBURG, VA, 23188","Match","Exact","4700 MINUTEMEN WAY, WILLIAMSBURG, VA, 23188",641203585,"L"
656557,"4700 MONTAIRE DRIVE","SHINGLE SPRINGS","CA",95682,38.602692592,-120.971763337,57,"4700 MONTAIRE DRIVE, SHINGLE SPRINGS, CA, 95682","Match","Exact","4700 MONTAIRE DR, SHINGLE SPRINGS, CA, 95682",133048444,"L"
656558,"4700 MONTEREY OAKS APT 718","AUSTIN","TX",78749,30.231962395,-97.839894159,58,"4700 MONTEREY OAKS APT 718, AUSTIN, TX, 78749","Match","Non_Exact","4700 MONTEREY OAKS BLVD, AUSTIN, TX, 78749",624609992,"R"
656559,"4700 MUELLER BLVD","AUSTIN","TX",78623,NA,NA,59,"4700 MUELLER BLVD, AUSTIN, TX, 78623","No_Match",NA,NA,NA,NA
656560,"4700 N 16TH STREET APT 136","PHOENIX","AZ",85016,33.505762528,-112.047542316,60,"4700 N 16TH STREET APT 136, PHOENIX, AZ, 85016","Match","Non_Exact","4700 N 16TH ST, PHOENIX, AZ, 85016",128209600,"L"
656561,"4700 N 17TH STREET","OZARK","MO",65721,37.0632961410001,-93.2232042479999,61,"4700 N 17TH STREET, OZARK, MO, 65721","Match","Exact","4700 N 17TH ST, OZARK, MO, 65721",647807005,"L"
656562,"4700 N 39TH STREET","MILWAUKEE","WI",53209,43.1027308870001,-87.961530818,62,"4700 N 39TH STREET, MILWAUKEE, WI, 53209","Match","Exact","4700 N 39TH ST, MILWAUKEE, WI, 53209",77737294,"R"
656563,"4700 N AUDUBON RD","INDIANAPOLIS","IN",46226,39.8422677130001,-86.0705282389999,63,"4700 N AUDUBON RD, INDIANAPOLIS, IN, 46226","Match","Exact","4700 N AUDUBON RD, INDIANAPOLIS, IN, 46226",107996255,"L"
656564,"4700 N BEACH STREET","FORT WORTH","TX",76132,32.8273212080001,-97.2903187049999,64,"4700 N BEACH STREET, FORT WORTH, TX, 76132","Match","Non_Exact","4700 N BEACH ST, FT WORTH, TX, 76117",631993242,"L"
656565,"4700 N CAPITAL OF TEXAS APT 336","AUSTIN","TX",78746,NA,NA,65,"4700 N CAPITAL OF TEXAS APT 336, AUSTIN, TX, 78746","No_Match",NA,NA,NA,NA
656566,"4700 N CAPITAL OF TEXAS HWY APT 101","AUSTIN","TX",78746,30.34488401,-97.800268737,66,"4700 N CAPITAL OF TEXAS HWY APT 101, AUSTIN, TX, 78746","Match","Non_Exact","4700 N CAPITAL OF TEXAS HWY, AUSTIN, TX, 78746",64021933,"L"
656567,"4700 N CAPITAL OF TEXAS HWY APT 733","AUSTIN","TX",78746,30.34488401,-97.800268737,67,"4700 N CAPITAL OF TEXAS HWY APT 733, AUSTIN, TX, 78746","Match","Non_Exact","4700 N CAPITAL OF TEXAS HWY, AUSTIN, TX, 78746",64021933,"L"
656568,"4700 N CLOVERDALE RD 101","BOISE","ID",83713,43.6472743050001,-116.334335875,68,"4700 N CLOVERDALE RD 101, BOISE, ID, 83713","Match","Non_Exact","4700 N CLOVERDALE RD, BOISE, ID, 83713",117889632,"R"
656569,"4700 N DIXIE HIGHWAY","OAKLAND PARK","FL",33334,26.1852939990001,-80.134769992,69,"4700 N DIXIE HIGHWAY, OAKLAND PARK, FL, 33334","Match","Exact","4700 N DIXIE HWY, OAKLAND PARK, FL, 33334",114822201,"R"
656570,"4700 N DRY CAMP RD","WILLCOX","AZ",85643,NA,NA,70,"4700 N DRY CAMP RD, WILLCOX, AZ, 85643","No_Match",NA,NA,NA,NA
656571,"4700 N JOSEY LN APT 3921","CARROLLTON","TX",75010,33.040079502,-96.881895637,71,"4700 N JOSEY LN APT 3921, CARROLLTON, TX, 75010","Match","Non_Exact","4700 N JOSEY LN, CARROLLTON, TX, 75010",218037480,"L"
656572,"4700 N MESA STE C3","EL PASO","TX",79912,NA,NA,72,"4700 N MESA STE C3, EL PASO, TX, 79912","No_Match",NA,NA,NA,NA
656573,"4700 N PAULINA","CHICAGO","IL",60640,41.9671835780001,-87.6709825629999,73,"4700 N PAULINA, CHICAGO, IL, 60640","Match","Non_Exact","4700 N PAULINA ST, CHICAGO, IL, 60640",111761362,"L"
656574,"4700 N POST RD","ARCADIA","OK",73007,35.702657118,-97.353783065,74,"4700 N POST RD, ARCADIA, OK, 73007","Match","Exact","4700 N POST RD, ARCADIA, OK, 73007",646646546,"R"
656575,"4700 NEPTUNE RD","ST. CLOUD","FL",34769,NA,NA,75,"4700 NEPTUNE RD, ST. CLOUD, FL, 34769","No_Match",NA,NA,NA,NA
656576,"4700 NEPTUNE ROAD","ST. CLOUD","FL",34769,NA,NA,76,"4700 NEPTUNE ROAD, ST. CLOUD, FL, 34769","No_Match",NA,NA,NA,NA
656577,"4700 NORMAL BLVD","LINCOLN","NE",68506,40.7885596310001,-96.654905981,77,"4700 NORMAL BLVD, LINCOLN, NE, 68506","Match","Exact","4700 NORMAL BLVD, LINCOLN, NE, 68506",28297667,"L"
656578,"4700 NORTH MAIN APT 1-E","FALL RIVER","ME",2720,NA,NA,78,"4700 NORTH MAIN APT 1-E, FALL RIVER, ME, 2720","No_Match",NA,NA,NA,NA
656579,"4700 NORTHLAND DRIVE","MORLEY","MI",49336,NA,NA,79,"4700 NORTHLAND DRIVE, MORLEY, MI, 49336","No_Match",NA,NA,NA,NA
656580,"4700 NORTHWOOD HILLS DRIVE","MEMPHIS","TN",38128,35.254198907,-89.9033926119999,80,"4700 NORTHWOOD HILLS DRIVE, MEMPHIS, TN, 38128","Match","Exact","4700 NORTHWOOD HILLS DR, MEMPHIS, TN, 38128",631751080,"L"
656581,"4700 NW 159TH ST","EDMOND","OK",73013,35.632379918,-97.6077907069999,81,"4700 NW 159TH ST, EDMOND, OK, 73013","Match","Exact","4700 NW 159TH ST, EDMOND, OK, 73013",626361797,"L"
656582,"4700 NW 18 COURT","LAUDERHILL","FL",33313,26.1489423670001,-80.212429607,82,"4700 NW 18 COURT, LAUDERHILL, FL, 33313","Match","Exact","4700 NW 18TH CT, LAUDERHILL, FL, 33313",114708108,"L"
656583,"4700 NW 35TH STREET","LAUDERDALE LAKE","FL",33319,26.1704624270001,-80.211551468,83,"4700 NW 35TH STREET, LAUDERDALE LAKE, FL, 33319","Match","Non_Exact","4700 NW 35TH ST, LAUDERDALE LAKES, FL, 33319",114706333,"L"
656584,"4700 OAKLEYS LANE","RICHMOND","VA",23231,37.5273811980001,-77.343648101,84,"4700 OAKLEYS LANE, RICHMOND, VA, 23231","Match","Exact","4700 OAKLEYS LN, RICHMOND, VA, 23231",106662993,"L"
656585,"4700 OLD CRANE HIGHWAY","UPPER MARLBORO","MD",20772,NA,NA,85,"4700 OLD CRANE HIGHWAY, UPPER MARLBORO, MD, 20772","Tie",NA,NA,NA,NA
656586,"4700 OLD ORCHARD ROAD","SKOKIE","IL",60076,42.062466908,-87.744653617,86,"4700 OLD ORCHARD ROAD, SKOKIE, IL, 60076","Match","Exact","4700 OLD ORCHARD RD, SKOKIE, IL, 60076",111738676,"R"
656587,"4700 POCAHONTAS AVE","RICHMOND","VA",23226,37.5604224570001,-77.506483535,87,"4700 POCAHONTAS AVE, RICHMOND, VA, 23226","Match","Exact","4700 POCAHONTAS AVE, RICHMOND, VA, 23226",201534449,"R"
656588,"4700 PRESIDENT GEORGE BUSH HWY","ROWLETT","TX",75088,NA,NA,88,"4700 PRESIDENT GEORGE BUSH HWY, ROWLETT, TX, 75088","No_Match",NA,NA,NA,NA
656589,"4700 PRESTBURY DRIVE","SUWANEE","GA",30024,34.077259279,-84.074696546,89,"4700 PRESTBURY DRIVE, SUWANEE, GA, 30024","Match","Exact","4700 PRESTBURY DR, SUWANEE, GA, 30024",634065149,"L"
656590,"4700 PRESTWICK DR","COLLEYVILLE","TX",76034,32.8782584030001,-97.110429739,90,"4700 PRESTWICK DR, COLLEYVILLE, TX, 76034","Match","Exact","4700 PRESTWICK DR, COLLEYVILLE, TX, 76034",102089912,"L"
656591,"4700 RAINBOW BLVD","WESTWOOD","KS",66205,39.0440070130001,-94.611906366,91,"4700 RAINBOW BLVD, WESTWOOD, KS, 66205","Match","Exact","4700 RAINBOW BLVD, WESTWOOD, KS, 66205",91286277,"R"
656592,"4700 RAMONA BLVD","MONTEREY PARK","CA",91754,34.0606808810001,-118.167905039,92,"4700 RAMONA BLVD, MONTEREY PARK, CA, 91754","Match","Non_Exact","4700 W RAMONA BLVD, MONTEREY PARK, CA, 91754",141635743,"R"
656593,"4700 RHAWN ST","JUPITER","FL",33458,NA,NA,93,"4700 RHAWN ST, JUPITER, FL, 33458","No_Match",NA,NA,NA,NA
656594,"4700 RIGGING DRIVE","FERNANDINA BEACH","FL",32034,30.5926916610001,-81.4500044389999,94,"4700 RIGGING DRIVE, FERNANDINA BEACH, FL, 32034","Match","Exact","4700 RIGGING DR, FERNANDINA BCH, FL, 32034",84114490,"L"
656595,"4700 RIVER RD","EUGENE","OR",97404,NA,NA,95,"4700 RIVER RD, EUGENE, OR, 97404","No_Match",NA,NA,NA,NA
656596,"4700 RIVER SHORE RD","PORTSMOUTH","VA",23703,36.8958587170001,-76.3960274089999,96,"4700 RIVER SHORE RD, PORTSMOUTH, VA, 23703","Match","Exact","4700 RIVER SHORE RD, PORTSMOUTH, VA, 23703",635845937,"L"
656597,"4700 RIVERWOOD CIRCLE APT 302","RALEIGH","NC",27612,35.8390364320001,-78.682638216,97,"4700 RIVERWOOD CIRCLE APT 302, RALEIGH, NC, 27612","Match","Exact","4700 RIVERWOOD CIR, RALEIGH, NC, 27612",650671820,"L"
656598,"4700 RIVERWOOD CIRCLE APT 453","RALEIGH","NC",27612,35.8390364320001,-78.682638216,98,"4700 RIVERWOOD CIRCLE APT 453, RALEIGH, NC, 27612","Match","Exact","4700 RIVERWOOD CIR, RALEIGH, NC, 27612",650671820,"L"
656599,"4700 ROBINSON RD SUITE 300","JACKSON","LA",39204,NA,NA,99,"4700 ROBINSON RD SUITE 300, JACKSON, LA, 39204","No_Match",NA,NA,NA,NA
656600,"4700 ROBINSON RD SUITE 300","JACKSON","MS",39204,32.2933465680001,-90.261594313,100,"4700 ROBINSON RD SUITE 300, JACKSON, MS, 39204","Match","Exact","4700 ROBINSON RD, JACKSON, MS, 39204",635251626,"L"
656601,"4700 S 900 E SUITE 16","MURRAY","UT",84117,40.6682164420001,-111.865132226,101,"4700 S 900 E SUITE 16, MURRAY, UT, 84117","Match","Non_Exact","4700 S 900 E, MURRAY, UT, 84117",639882498,"R"
656602,"4700 S 900 E SUITE 26","MURRAY","UT",84117,40.6682164420001,-111.865132226,102,"4700 S 900 E SUITE 26, MURRAY, UT, 84117","Match","Non_Exact","4700 S 900 E, MURRAY, UT, 84117",639882498,"R"
656603,"4700 S BAHA AVE APT 26","SIOUX FALLS","SD",57106,43.50243139,-96.7698527049999,103,"4700 S BAHA AVE APT 26, SIOUX FALLS, SD, 57106","Match","Non_Exact","4700 S BAHA AVE, SIOUX FALLS, SD, 57106",34993699,"R"
656604,"4700 S CO RD 500 W","VALLONIA","IN",47281,38.80703679,-86.129617874,104,"4700 S CO RD 500 W, VALLONIA, IN, 47281","Match","Exact","4700 S CO RD 500 W, VALLONIA, IN, 47281",31263363,"L"
656605,"4700 S HWY 74F","CASHION","OK",73016,35.8305299520001,-97.674311904,105,"4700 S HWY 74F, CASHION, OK, 73016","Match","Non_Exact","4700 STATE HWY 74F, CASHION, OK, 73016",121911854,"R"
656606,"4700 S KAY AVE","SIOUX FALLS","SD",57106,43.5038717310001,-96.812197854,106,"4700 S KAY AVE, SIOUX FALLS, SD, 57106","Match","Non_Exact","4700 S KEY AVE, SIOUX FALLS, SD, 57106",35005148,"L"
656607,"4700 S LAKE PARK  APT 1003","CHICAGO","IL",60615,NA,NA,107,"4700 S LAKE PARK  APT 1003, CHICAGO, IL, 60615","No_Match",NA,NA,NA,NA
656608,"4700 S LAKE PARK  APT 505","CHICAGO","IL",60615,NA,NA,108,"4700 S LAKE PARK  APT 505, CHICAGO, IL, 60615","No_Match",NA,NA,NA,NA
656609,"4700 S LAKE PARK AVE APT 1703","CHICAGO","IL",60615,41.809659593,-87.592406956,109,"4700 S LAKE PARK AVE APT 1703, CHICAGO, IL, 60615","Match","Non_Exact","4700 S LAKE PARK AVE, CHICAGO, IL, 60615",111771570,"R"
656610,"4700 S LAKE PARK AVE","CHICAGO","IL",60615,41.809659593,-87.592406956,110,"4700 S LAKE PARK AVE, CHICAGO, IL, 60615","Match","Exact","4700 S LAKE PARK AVE, CHICAGO, IL, 60615",111771570,"R"
656611,"4700 S LAKEPARK 1003","CHICAGO","IL",60615,NA,NA,111,"4700 S LAKEPARK 1003, CHICAGO, IL, 60615","No_Match",NA,NA,NA,NA
656612,"4700 S RIDGE RD APT 5112","MCKINNEY","TX",75070,33.1517703910001,-96.697212669,112,"4700 S RIDGE RD APT 5112, MCKINNEY, TX, 75070","Match","Non_Exact","4700 S RIDGE RD, MCKINNEY, TX, 75070",638646727,"R"
656613,"4700 S RIDGE RD APT 5116","MCKINNEY","TX",75070,33.1517703910001,-96.697212669,113,"4700 S RIDGE RD APT 5116, MCKINNEY, TX, 75070","Match","Non_Exact","4700 S RIDGE RD, MCKINNEY, TX, 75070",638646727,"R"
656614,"4700 SAINT JAMES WAY","DECATUR","GA",30035,33.7351841070001,-84.1972575299999,114,"4700 SAINT JAMES WAY, DECATUR, GA, 30035","Match","Exact","4700 SAINT JAMES WAY, DECATUR, GA, 30035",634040796,"L"
656615,"4700 SAINT MARGARETT","PARAGOULD","AR",72450,36.065006727,-90.5480591639999,115,"4700 SAINT MARGARETT, PARAGOULD, AR, 72450","Match","Non_Exact","4700 SAINT MARGARETT DR, PARAGOULD, AR, 72450",47053139,"R"
656616,"4700 SE 134TH STREET","OKLAHOMA CITY","OK",73165,35.334247964,-97.436817989,116,"4700 SE 134TH STREET, OKLAHOMA CITY, OK, 73165","Match","Exact","4700 SE 134TH ST, OKLAHOMA CITY, OK, 73165",99951388,"R"
656617,"4700 SHADY HILL LN","KETTERING","OH",45429,39.67802061,-84.154131411,117,"4700 SHADY HILL LN, KETTERING, OH, 45429","Match","Exact","4700 SHADY HILL LN, KETTERING, OH, 45429",143583610,"L"
656618,"4700 SHERIDAN STREET SUITE J","HOLLYWOOD","FL",33021,26.032611618,-80.1913022109999,118,"4700 SHERIDAN STREET SUITE J, HOLLYWOOD, FL, 33021","Match","Exact","4700 SHERIDAN ST, HOLLYWOOD, FL, 33021",637739402,"R"
656619,"4700 SKATES CIRCLE","FORT MYERS","FL",33905,26.6821346340001,-81.7180347939999,119,"4700 SKATES CIRCLE, FORT MYERS, FL, 33905","Match","Exact","4700 SKATES CIR, FORT MYERS, FL, 33905",653199405,"R"
656620,"4700 SOLARA CIRCLE APT 4039","SANFORD","FL",32771,28.7885275420001,-81.3448439759999,120,"4700 SOLARA CIRCLE APT 4039, SANFORD, FL, 32771","Match","Exact","4700 SOLARA CIR, SANFORD, FL, 32771",649924659,"R"
656621,"4700 SOMERSET AVE","DETROIT","MI",48224,42.396989665,-82.94616913,121,"4700 SOMERSET AVE, DETROIT, MI, 48224","Match","Non_Exact","4700 SOMERSET, DETROIT, MI, 48224",95470128,"R"
656622,"4700 SOUTH FOLSOM","LINCOLN","NE",68523,40.7656452260001,-96.730344682,122,"4700 SOUTH FOLSOM, LINCOLN, NE, 68523","Match","Non_Exact","4700 S FOLSOM ST, LINCOLN, NE, 68523",642356967,"L"
656623,"4700 SPOTTSWOOD","ORLANDO","FL",32812,28.4865835700001,-81.310877262,123,"4700 SPOTTSWOOD, ORLANDO, FL, 32812","Match","Non_Exact","4700 SPOTTSWOOD DR, ORLANDO, FL, 32812",94288335,"R"
656624,"4700 SPRUCE WAY","MAPLE PLAIN","MN",55359,45.0008915440001,-93.6431293159999,124,"4700 SPRUCE WAY, MAPLE PLAIN, MN, 55359","Match","Exact","4700 SPRUCE WAY, MAPLE PLAIN, MN, 55359",637408983,"L"
656625,"4700 STOCKWOOD DRIVE","FORT WORTH","TX",76135,32.823859097,-97.408080145,125,"4700 STOCKWOOD DRIVE, FORT WORTH, TX, 76135","Match","Exact","4700 STOCKWOOD DR, FORT WORTH, TX, 76135",102106445,"R"
656626,"4700 STRASS DR","AUSTIN","TX",78731,30.321012981,-97.745953494,126,"4700 STRASS DR, AUSTIN, TX, 78731","Match","Exact","4700 STRASS DR, AUSTIN, TX, 78731",63929569,"L"
656627,"4700 SW ARCHER ROAD APT90","GAINESVILLE","FL",32608,29.613536814,-82.39357598,127,"4700 SW ARCHER ROAD APT90, GAINESVILLE, FL, 32608","Match","Non_Exact","4700 SW ARCHER RD, GAINESVILLE, FL, 32608",612571649,"R"
656628,"4700 TEE BOX COURT","FUQUAY VARINA","NC",27526,35.6276715830001,-78.7403481279999,128,"4700 TEE BOX COURT, FUQUAY VARINA, NC, 27526","Match","Exact","4700 TEE BOX CT, FUQUAY VARINA, NC, 27526",72585132,"R"
656629,"4700 TODD RD SW","SHALLOTTW","NC",28470,33.9356227260001,-78.407693196,129,"4700 TODD RD SW, SHALLOTTW, NC, 28470","Match","Non_Exact","4700 TODD RD SW, SHALLOTTE, NC, 28470",638755042,"R"
656630,"4700 UPHAM ST","WHEAT RIDGE","CO",80033,39.7821069330001,-105.077941212,130,"4700 UPHAM ST, WHEAT RIDGE, CO, 80033","Match","Exact","4700 UPHAM ST, WHEAT RIDGE, CO, 80033",640551244,"R"
656631,"4700 VALLEY FORGE LANE","VIRGINIA BEACH","VA",23462,36.8493381440001,-76.140891083,131,"4700 VALLEY FORGE LANE, VIRGINIA BEACH, VA, 23462","Match","Exact","4700 VALLEY FORGE LN, VA BCH, VA, 23462",122263616,"R"
656632,"4700 VAN BUREN ST","GARY","IN",46408,41.533025493,-87.3447115829999,132,"4700 VAN BUREN ST, GARY, IN, 46408","Match","Exact","4700 VAN BUREN ST, GARY, IN, 46408",98433789,"R"
656633,"4700 VAN BUREN","GARY","IN",46408,41.533025493,-87.3447115829999,133,"4700 VAN BUREN, GARY, IN, 46408","Match","Non_Exact","4700 VAN BUREN ST, GARY, IN, 46408",98433789,"R"
656634,"4700 W 27TH ST APPT HH5","LAWRENCE","KS",66047,38.9353438900001,-95.303606165,134,"4700 W 27TH ST APPT HH5, LAWRENCE, KS, 66047","Match","Non_Exact","4700 W 27TH ST, LAWRENCE, KS, 66047",17703958,"R"
656635,"4700 W 77TH STREET STE 200","MINNEAPOLIS","MN",55435,44.8631906780001,-93.343298265,135,"4700 W 77TH STREET STE 200, MINNEAPOLIS, MN, 55435","Match","Non_Exact","4700 W 77TH ST, MINNEAPOLIS, MN, 55435",641219920,"R"
656636,"4700 W ASH ST","POTTSVILLE","AR",72858,35.2541202560001,-93.0600615609999,136,"4700 W ASH ST, POTTSVILLE, AR, 72858","Match","Exact","4700 W ASH ST, POTTSVILLE, AR, 72858",635812075,"R"
656637,"4700 W DAYBREAK PARKWAY SUITE 100","SOUTH JORDAN","UT",84009,NA,NA,137,"4700 W DAYBREAK PARKWAY SUITE 100, SOUTH JORDAN, UT, 84009","No_Match",NA,NA,NA,NA
656638,"4700 W GUADALUPE ST APT A-115","AUSTIN","TX",78751,30.3151588490001,-97.7323449789999,138,"4700 W GUADALUPE ST APT A-115, AUSTIN, TX, 78751","Match","Non_Exact","4700 GUADALUPE ST W, AUSTIN, TX, 78751",635282252,"L"
656639,"4700 W MIDWAY RD","FORT PIERCE","FL",34981,27.3744467660001,-80.37137154,139,"4700 W MIDWAY RD, FORT PIERCE, FL, 34981","Match","Exact","4700 W MIDWAY RD, FORT PIERCE, FL, 34981",610727651,"L"
656640,"4700 W VILLAGE APT 5405","SMYRNA","GA",30080,NA,NA,140,"4700 W VILLAGE APT 5405, SMYRNA, GA, 30080","No_Match",NA,NA,NA,NA
656641,"4700 WALLAKER RD","BENZONIA","MI",49616,44.562673062,-86.079480481,141,"4700 WALLAKER RD, BENZONIA, MI, 49616","Match","Exact","4700 WALLAKER RD, BENZONIA, MI, 49616",145907965,"R"
656642,"4700 WARBLER DRIVE","MOSES LAKE","WA",98837,NA,NA,142,"4700 WARBLER DRIVE, MOSES LAKE, WA, 98837","No_Match",NA,NA,NA,NA
656643,"4700 WENDA STREET 308","HOUSTON","TX",77033,29.6526462690001,-95.353075006,143,"4700 WENDA STREET 308, HOUSTON, TX, 77033","Match","Exact","4700 WENDA ST, HOUSTON, TX, 77033",96599611,"R"
656644,"4700 WERNETT ROAD","PASCO","WA",99301,46.248830916,-119.152228079,144,"4700 WERNETT ROAD, PASCO, WA, 99301","Match","Non_Exact","4700 W WERNETT RD, PASCO, WA, 99301",175248553,"L"
656645,"4700 WEST 115TH PLACE","ALSIP","IL",60803,41.6831588580001,-87.735554223,145,"4700 WEST 115TH PLACE, ALSIP, IL, 60803","Match","Exact","4700 W 115TH PL, ALSIP, IL, 60803",111818434,"R"
656646,"4700 WEST VILLAGE CROSSING SE","SMYRNA","GA",30067,33.842494134,-84.491172711,146,"4700 WEST VILLAGE CROSSING SE, SMYRNA, GA, 30067","Match","Non_Exact","4700 W VILLAGE CROSSING SE, SMYRNA, GA, 30080",625652577,"L"
656647,"4700 WEST VILLAGE XING SE UNIT 5317","SMYRNA","GA",30080,33.842494134,-84.491172711,147,"4700 WEST VILLAGE XING SE UNIT 5317, SMYRNA, GA, 30080","Match","Exact","4700 W VILLAGE CROSSING SE, SMYRNA, GA, 30080",625652577,"L"
656648,"4700 WESTGROVE ST APT 318","RALEIGH","NC",27606,35.786851143,-78.7028571659999,148,"4700 WESTGROVE ST APT 318, RALEIGH, NC, 27606","Match","Exact","4700 WESTGROVE ST, RALEIGH, NC, 27606",72622514,"L"
656649,"4700 WESTGROVE STREET APT 706","RALEIGH","NC",27606,35.786851143,-78.7028571659999,149,"4700 WESTGROVE STREET APT 706, RALEIGH, NC, 27606","Match","Exact","4700 WESTGROVE ST, RALEIGH, NC, 27606",72622514,"L"
656650,"4700 WESTGROVE","RALEIGH","NC",27606,35.786851143,-78.7028571659999,150,"4700 WESTGROVE, RALEIGH, NC, 27606","Match","Non_Exact","4700 WESTGROVE ST, RALEIGH, NC, 27606",72622514,"L"
656651,"4700 WHITE TAIL CT","VIRGINIA BEACH","VA",23464,36.794611305,-76.1456832549999,151,"4700 WHITE TAIL CT, VIRGINIA BEACH, VA, 23464","Match","Non_Exact","4700 WHITETAIL CT, VA BCH, VA, 23464",122265382,"R"
656652,"4700 WICHERS DR STE 201","MARRERO","LA",70072,29.8893547760001,-90.0968556619999,152,"4700 WICHERS DR STE 201, MARRERO, LA, 70072","Match","Exact","4700 WICHERS DR, MARRERO, LA, 70072",93508521,"R"
656653,"4700 WILLOW COVE BLVD C4","ALLEN PARK","MI",48101,42.2725133590001,-83.20961149,153,"4700 WILLOW COVE BLVD C4, ALLEN PARK, MI, 48101","Match","Exact","4700 WILLOW COVE BLVD, ALLEN PARK, MI, 48101",95696898,"L"
656654,"4700 WILLOW HILLS LANE","CINCINNATI","OH",45243,39.1547270410001,-84.331371001,154,"4700 WILLOW HILLS LANE, CINCINNATI, OH, 45243","Match","Exact","4700 WILLOW HILLS LN, CINCINNATI, OH, 45243",103971950,"L"
656655,"4700 WIMBLETON WAY APT 1422","DALLAS","TX",75227,32.7784138590001,-96.687209992,155,"4700 WIMBLETON WAY APT 1422, DALLAS, TX, 75227","Match","Exact","4700 WIMBLETON WAY, DALLAS, TX, 75227",635763538,"R"
656656,"4700 WINTERLOCHEN ROAD","RALEIGH","NC",27603,NA,NA,156,"4700 WINTERLOCHEN ROAD, RALEIGH, NC, 27603","No_Match",NA,NA,NA,NA
656657,"4700 WISSAHICKON AVE","PHILADELPHIA","PA",19144,40.0173781460001,-75.172074016,157,"4700 WISSAHICKON AVE, PHILADELPHIA, PA, 19144","Match","Exact","4700 WISSAHICKON AVE, PHILADELPHIA, PA, 19144",131443813,"L"
656658,"4700 WISSAHICKON AVENYE","PHILADELPHIA","PA",19144,40.0173781460001,-75.172074016,158,"4700 WISSAHICKON AVENYE, PHILADELPHIA, PA, 19144","Match","Non_Exact","4700 WISSAHICKON AVE, PHILADELPHIA, PA, 19144",131443813,"L"
656659,"4700","ANTIOCH","CA",94531,NA,NA,159,"4700, ANTIOCH, CA, 94531","No_Match",NA,NA,NA,NA
656660,"47000 SALTZ ROAD","CANTON","MI",48187,42.31431845,-83.501880609,160,"47000 SALTZ ROAD, CANTON, MI, 48187","Match","Exact","47000 SALTZ RD, CANTON, MI, 48187",645087554,"L"
656661,"4700B CHELSEA CT","BENSALEM","PA",19020,40.136586836,-74.935495279,161,"4700B CHELSEA CT, BENSALEM, PA, 19020","Match","Exact","4700 CHELSEA CT, BENSALEM, PA, 19020",134748526,"L"
656662,"4701 10TH AVE N","GREENACRES","FL",33463,26.6297047670001,-80.117217243,162,"4701 10TH AVE N, GREENACRES, FL, 33463","Match","Exact","4701 10TH AVE N, GREENACRES, FL, 33463",115518594,"R"
656663,"4701 14TH STREET","PLANO","TX",75074,33.011696725,-96.6457497659999,163,"4701 14TH STREET, PLANO, TX, 75074","Match","Exact","4701 14TH ST, PLANO, TX, 75074",210509277,"L"
656664,"4701 23RD AVENUE SOUTH","SAINT PETERSBURG","FL",33711,27.747545641,-82.697761395,164,"4701 23RD AVENUE SOUTH, SAINT PETERSBURG, FL, 33711","Match","Exact","4701 23RD AVE S, SAINT PETERSBURG, FL, 33711",652508772,"R"
656665,"4701 38TH AVENUE NE","SEATTLE","WA",98105,47.662632349,-122.287782184,165,"4701 38TH AVENUE NE, SEATTLE, WA, 98105","Match","Exact","4701 38TH AVE NE, SEATTLE, WA, 98105",186706012,"L"
656666,"4701 40TH LANE","ST LOUIS PARK","MN",55416,44.930500828,-93.339535516,166,"4701 40TH LANE, ST LOUIS PARK, MN, 55416","Match","Non_Exact","4701 W 40TH LN, SAINT LOUIS PARK, MN, 55416",43626083,"L"
656667,"4701 42ND ST NE","TACOMA","WA",98422,47.2944882690001,-122.384247402,167,"4701 42ND ST NE, TACOMA, WA, 98422","Match","Exact","4701 42ND ST NE, TACOMA, WA, 98422",184679325,"L"
656668,"4701 43RD STREET","LUBBOCK","TX",79414,33.555104026,-101.911596011,168,"4701 43RD STREET, LUBBOCK, TX, 79414","Match","Exact","4701 43RD ST, LUBBOCK, TX, 79414",185326387,"L"
656669,"4701 4TH AVENUE SOUTH","MINNEAPOLIS","MN",55419,44.9177474640001,-93.2702638759999,169,"4701 4TH AVENUE SOUTH, MINNEAPOLIS, MN, 55419","Match","Exact","4701 4TH AVE S, MINNEAPOLIS, MN, 55419",43634410,"L"
656670,"4701 7TH AVE SW UNIT 135","OLYMPIA","WA",98502,NA,NA,170,"4701 7TH AVE SW UNIT 135, OLYMPIA, WA, 98502","No_Match",NA,NA,NA,NA
656671,"4701 8TH STREET SOUTH","ARLINGTON","VA",22204,38.860179799,-77.1090625109999,171,"4701 8TH STREET SOUTH, ARLINGTON, VA, 22204","Match","Exact","4701 8TH ST S, ARLINGTON, VA, 22204",76469206,"R"
656672,"4701 ALTAMESA DRIVE 2C","FORT WORTH","TX",76133,32.6479322860001,-97.39610743,172,"4701 ALTAMESA DRIVE 2C, FORT WORTH, TX, 76133","Match","Non_Exact","4701 ALTAMESA BLVD, FORT WORTH, TX, 76133",649895440,"L"
656673,"4701 AMALIE","HOUSOTN","TX",77093,29.855619388,-95.324097524,173,"4701 AMALIE, HOUSOTN, TX, 77093","Match","Non_Exact","4701 AMALIE ST, HOUSTON, TX, 77093",96074909,"L"
656674,"4701 ANDERSON RD TRAIL 169","HOUSTON","TX",77053,29.606046888,-95.44808606,174,"4701 ANDERSON RD TRAIL 169, HOUSTON, TX, 77053","Match","Exact","4701 ANDERSON RD, HOUSTON, TX, 77053",649682608,"L"
656675,"4701 ANDERSON RD TRAILER 68","HOUSTON","TX",77053,29.606046888,-95.44808606,175,"4701 ANDERSON RD TRAILER 68, HOUSTON, TX, 77053","Match","Exact","4701 ANDERSON RD, HOUSTON, TX, 77053",649682608,"L"
656676,"4701 ANDERSON RD","HOUSTON","TX",77053,29.606046888,-95.44808606,176,"4701 ANDERSON RD, HOUSTON, TX, 77053","Match","Exact","4701 ANDERSON RD, HOUSTON, TX, 77053",649682608,"L"
656677,"4701 ARCHING OAK LANE","CHARLOTTE","NC",28212,35.191475102,-80.770059488,177,"4701 ARCHING OAK LANE, CHARLOTTE, NC, 28212","Match","Exact","4701 ARCHING OAK LN, CHARLOTTE, NC, 28212",70613738,"L"
656678,"4701 ASHEVILLE HWY","KNOXVILLE","TN",37914,36.0048679430001,-83.8559478069999,178,"4701 ASHEVILLE HWY, KNOXVILLE, TN, 37914","Match","Exact","4701 ASHEVILLE HWY, KNOXVILLE, TN, 37914",42625797,"L"
656679,"4701 AZALEA COURT","MIDLAND","TX",79707,32.032288309,-102.150362964,179,"4701 AZALEA COURT, MIDLAND, TX, 79707","Match","Exact","4701 AZALEA CT, MIDLAND, TX, 79707",139595476,"R"
656680,"4701 BLAZING STAR TRAIL","CHEYENNE","WY",82009,41.1615049440001,-104.725106757,180,"4701 BLAZING STAR TRAIL, CHEYENNE, WY, 82009","Match","Non_Exact","4701 BLAZING STAR RD, CHEYENNE, WY, 82009",160173761,"L"
656681,"4701 BRIAR BRUSH DRIVE","MCKINNEY","TX",75071,NA,NA,181,"4701 BRIAR BRUSH DRIVE, MCKINNEY, TX, 75071","No_Match",NA,NA,NA,NA
656682,"4701 BRIDLEWOOD LANE","BALCH SPRINGS","TX",75180,32.7091321720001,-96.593247138,182,"4701 BRIDLEWOOD LANE, BALCH SPRINGS, TX, 75180","Match","Exact","4701 BRIDLEWOOD LN, BALCH SPRINGS, TX, 75180",630978982,"L"
656683,"4701 BUTTERWORTH PLACE NW","WASHINGTON","DC",20016,38.948806882,-77.092752256,183,"4701 BUTTERWORTH PLACE NW, WASHINGTON, DC, 20016","Match","Exact","4701 BUTTERWORTH PL NW, WASHINGTON, DC, 20016",76219508,"R"
656684,"4701 CALLE DE TOSCA","SAN JOSE","CA",95118,37.257179766,-121.896922972,184,"4701 CALLE DE TOSCA, SAN JOSE, CA, 95118","Match","Non_Exact","4701 CLL DE TOSCA, SAN JOSE, CA, 95118",122921638,"R"
656685,"4701 CAROLINA SPRINGS COURT","LOUISVILLE","KY",40299,38.175974109,-85.54406141,185,"4701 CAROLINA SPRINGS COURT, LOUISVILLE, KY, 40299","Match","Exact","4701 CAROLINA SPRINGS CT, LOUISVILLE, KY, 40299",96883692,"R"
656686,"4701 CHARLES PL 2625","PLANO","TX",75093,33.0460857670001,-96.7887795139999,186,"4701 CHARLES PL 2625, PLANO, TX, 75093","Match","Exact","4701 CHARLES PL, PLANO, TX, 75093",210488704,"L"
656687,"4701 CHARLES PL APT 1532","PLANO","TX",75093,33.0460857670001,-96.7887795139999,187,"4701 CHARLES PL APT 1532, PLANO, TX, 75093","Match","Exact","4701 CHARLES PL, PLANO, TX, 75093",210488704,"L"
656688,"4701 CHARLES PL APT 2625","PLANO","TX",75093,33.0460857670001,-96.7887795139999,188,"4701 CHARLES PL APT 2625, PLANO, TX, 75093","Match","Exact","4701 CHARLES PL, PLANO, TX, 75093",210488704,"L"
656689,"4701 CHARLES PLACE APT 1823","PLANO","TX",75093,33.0460857670001,-96.7887795139999,189,"4701 CHARLES PLACE APT 1823, PLANO, TX, 75093","Match","Exact","4701 CHARLES PL, PLANO, TX, 75093",210488704,"L"
656690,"4701 CHARLES PLACE APT 1921","PLANO","TX",75093,33.0460857670001,-96.7887795139999,190,"4701 CHARLES PLACE APT 1921, PLANO, TX, 75093","Match","Exact","4701 CHARLES PL, PLANO, TX, 75093",210488704,"L"
656691,"4701 CHARLES PLACE APT 2224","PLANO","TX",75093,33.0460857670001,-96.7887795139999,191,"4701 CHARLES PLACE APT 2224, PLANO, TX, 75093","Match","Exact","4701 CHARLES PL, PLANO, TX, 75093",210488704,"L"
656692,"4701 CHARLMARK DRIVE","NEW ORLEANS","LA",70127,30.0209777860001,-89.972553496,192,"4701 CHARLMARK DRIVE, NEW ORLEANS, LA, 70127","Match","Exact","4701 CHARLMARK DR, NEW ORLEANS, LA, 70127",191721722,"R"
656693,"4701 CHARMALCE DR","NEW ORLEANS","LA",70127,NA,NA,193,"4701 CHARMALCE DR, NEW ORLEANS, LA, 70127","No_Match",NA,NA,NA,NA
656694,"4701 CHUCKAR ST","WEST RICHLAND","WA",99353,NA,NA,194,"4701 CHUCKAR ST, WEST RICHLAND, WA, 99353","No_Match",NA,NA,NA,NA
656695,"4701 COLUMBIA RD","ANNANDALE","VA",22003,NA,NA,195,"4701 COLUMBIA RD, ANNANDALE, VA, 22003","No_Match",NA,NA,NA,NA
656696,"4701 COPPER HILL DRIVE","SPRING HILL","FL",34609,28.499907314,-82.501355797,196,"4701 COPPER HILL DRIVE, SPRING HILL, FL, 34609","Match","Exact","4701 COPPER HILL DR, SPRING HILL, FL, 34609",85467907,"L"
656697,"4701 CORINTH DR","ST JOSEPH","MO",64506,39.8037639720001,-94.784322646,197,"4701 CORINTH DR, ST JOSEPH, MO, 64506","Match","Exact","4701 CORINTH DR, SAINT JOSEPH, MO, 64506",618688846,"L"
656698,"4701 COUNTY ROAD 63","IOWA COLONY","TX",77583,29.410467258,-95.3996930819999,198,"4701 COUNTY ROAD 63, IOWA COLONY, TX, 77583","Match","Exact","4701 CO RD 63, IOWA COLONY, TX, 77583",642459477,"L"
656699,"4701 COVINGTON RD","FORT WAYNE","IN",46804,41.0600682630001,-85.201121052,199,"4701 COVINGTON RD, FORT WAYNE, IN, 46804","Match","Exact","4701 COVINGTON RD, FORT WAYNE, IN, 46804",606508537,"L"
656700,"4701 CR 305","GRANDVIEW","TX",76050,32.2729896390001,-97.295811465,200,"4701 CR 305, GRANDVIEW, TX, 76050","Match","Exact","4701 CO RD 305, GRANDVIEW, TX, 76050",103551585,"L"
656701,"4701 D ADRIAN COURT","GODFREY","IL",62035,38.929750498,-90.211105091,201,"4701 D ADRIAN COURT, GODFREY, IL, 62035","Match","Exact","4701 D ADRIAN CT, GODFREY, IL, 62035",107677501,"R"
656702,"4701 DARLA DRIVE","FORT WORTH","TX",76132,32.667642743,-97.3936937129999,202,"4701 DARLA DRIVE, FORT WORTH, TX, 76132","Match","Exact","4701 DARLA DR, FORT WORTH, TX, 76132",101882279,"L"
656703,"4701 DEER VALLEY RD","RESCUE","CA",95672,38.7271860130001,-120.957302772,203,"4701 DEER VALLEY RD, RESCUE, CA, 95672","Match","Exact","4701 DEER VALLEY RD, RESCUE, CA, 95672",133023638,"R"
656704,"4701 DELHI PIKE","CINCINNATI","OH",45238,39.094465503,-84.6028417649999,204,"4701 DELHI PIKE, CINCINNATI, OH, 45238","Match","Non_Exact","4701 DELHI RD, CINCINNATI, OH, 45238",103918857,"L"
656705,"4701 DERBY LANE SE","SMYRNA","GA",30082,33.847454568,-84.531985962,205,"4701 DERBY LANE SE, SMYRNA, GA, 30082","Match","Non_Exact","4701 DERBY LN, SMYRNA, GA, 30082",17240151,"L"
656706,"4701 DREXEL ROAD","COLLEGE PARK","MD",20740,38.9753075630001,-76.9332849259999,206,"4701 DREXEL ROAD, COLLEGE PARK, MD, 20740","Match","Exact","4701 DREXEL RD, COLLEGE PARK, MD, 20740",76349286,"R"
656707,"4701 E 26TH AVE","LAKE STATION","IN",46405,41.570472384,-87.2263808549999,207,"4701 E 26TH AVE, LAKE STATION, IN, 46405","Match","Exact","4701 E 26TH AVE, LAKE STATION, IN, 46405",98438215,"R"
656708,"4701 E PARIS AVE SE","GRAND RAPIDS","MI",49508,NA,NA,208,"4701 E PARIS AVE SE, GRAND RAPIDS, MI, 49508","Tie",NA,NA,NA,NA
656709,"4701 E WILLOW AVE","PHOENIX","AZ",85032,33.6076912710001,-111.979591512,209,"4701 E WILLOW AVE, PHOENIX, AZ, 85032","Match","Exact","4701 E WILLOW AVE, PHOENIX, AZ, 85032",128915450,"R"
656710,"4701 EAGLES NEST CIRCLE","KETTERING","OH",45429,39.67778803,-84.1773035049999,210,"4701 EAGLES NEST CIRCLE, KETTERING, OH, 45429","Match","Non_Exact","4701 EAGLES NEST LN, KETTERING, OH, 45429",143580933,"L"
656711,"4701 EAST COFFEE CREEK ROAD LOT 18","EDMOND","OK",73034,35.6962335960001,-97.421322163,211,"4701 EAST COFFEE CREEK ROAD LOT 18, EDMOND, OK, 73034","Match","Exact","4701 E COFFEE CREEK RD, EDMOND, OK, 73034",100423441,"L"
656712,"4701 EAST DE ORA WAY","LONG BEACH","CA",90815,NA,NA,212,"4701 EAST DE ORA WAY, LONG BEACH, CA, 90815","No_Match",NA,NA,NA,NA
656713,"4701 EAST DEORA WAY","LONG BEACH","CA",90815,NA,NA,213,"4701 EAST DEORA WAY, LONG BEACH, CA, 90815","No_Match",NA,NA,NA,NA
656714,"4701 EAST HANNA AVE","TAMPA","FL",33610,28.0033980810001,-82.4059644229999,214,"4701 EAST HANNA AVE, TAMPA, FL, 33610","Match","Exact","4701 E HANNA AVE, TAMPA, FL, 33610",104612771,"R"
656715,"4701 EAST LANE","BALTIMORE","MD",21210,39.3502446420001,-76.6295798319999,215,"4701 EAST LANE, BALTIMORE, MD, 21210","Match","Non_Exact","4701 EAST LN, BALTIMORE, MD, 21210",206407149,"R"
656716,"4701 EAST ROAD","BATAVIA","NY",14020,42.964540034,-78.1684130799999,216,"4701 EAST ROAD, BATAVIA, NY, 14020","Match","Exact","4701 EAST RD, BATAVIA, NY, 14020",48140981,"R"
656717,"4701 EASTVIEW DRIVE","NEW ORLEANS","LA",70126,30.0194878670001,-89.992573943,217,"4701 EASTVIEW DRIVE, NEW ORLEANS, LA, 70126","Match","Exact","4701 EASTVIEW DR, NEW ORLEANS, LA, 70126",191721062,"R"
656718,"4701 EDGELAWN AVENUE NW","ROANOKE","VA",24017,37.299565403,-80.0130161829999,218,"4701 EDGELAWN AVENUE NW, ROANOKE, VA, 24017","Match","Exact","4701 EDGELAWN AVE NW, ROANOKE, VA, 24017",62941607,"R"
656719,"4701 ELLICOT WAY","RENO","NV",89519,39.481135916,-119.85414526,219,"4701 ELLICOT WAY, RENO, NV, 89519","Match","Non_Exact","4701 ELLICOTT WAY, RENO, NV, 89519",107073100,"R"
656720,"4701 FLAT SHOALS RD 32B","UNION CITY","GA",30291,33.5842575510001,-84.54036501,220,"4701 FLAT SHOALS RD 32B, UNION CITY, GA, 30291","Match","Exact","4701 FLAT SHOALS RD, UNION CITY, GA, 30291",17351041,"R"
656721,"4701 FLAT SHOALS RD APT 39A","UNION CITY","GA",30291,33.5842575510001,-84.54036501,221,"4701 FLAT SHOALS RD APT 39A, UNION CITY, GA, 30291","Match","Exact","4701 FLAT SHOALS RD, UNION CITY, GA, 30291",17351041,"R"
656722,"4701 FROST PLACE","ORANGE","TX",77630,30.108783208,-93.792149845,222,"4701 FROST PLACE, ORANGE, TX, 77630","Match","Exact","4701 FROST PL, ORANGE, TX, 77630",74045730,"L"
656723,"4701 GAINSVILLE AVE","HEMET","CA",92544,33.74836413,-116.92164352,223,"4701 GAINSVILLE AVE, HEMET, CA, 92544","Match","Exact","4701 GAINSVILLE AVE, HEMET, CA, 92544",194758434,"L"
656724,"4701 GAY STREET","WICHITA FALLS","TX",76306,33.970287053,-98.523156351,224,"4701 GAY STREET, WICHITA FALLS, TX, 76306","Match","Exact","4701 GAY ST, WICHITA FALLS, TX, 76306",169839951,"R"
656725,"4701 GIRTON","SHADY SIDE","MD",20764,38.8528601690001,-76.496508993,225,"4701 GIRTON, SHADY SIDE, MD, 20764","Match","Non_Exact","4701 GIRTON AVE, SHADY SIDE, MD, 20764",68178277,"L"
656726,"4701 GREENFIELD PLACE","MONTCLAIR","VA",22025,38.6067378220001,-77.349700908,226,"4701 GREENFIELD PLACE, MONTCLAIR, VA, 22025","Match","Exact","4701 GREENFIELD PL, MONTCLAIR, VA, 22025",76508899,"L"
656727,"4701 HARTMANN ROAD","MOUNT VERNON","IN",47620,37.9705525640001,-87.740686422,227,"4701 HARTMANN ROAD, MOUNT VERNON, IN, 47620","Match","Non_Exact","4701 HARTMAN RD, MOUNT VERNON, IN, 47620",39742752,"R"
656728,"4701 HEDGEMORE DRIVE","CHARLOTTE","NC",28209,35.1665535590001,-80.8474974069999,228,"4701 HEDGEMORE DRIVE, CHARLOTTE, NC, 28209","Match","Exact","4701 HEDGEMORE DR, CHARLOTTE, NC, 28209",70487052,"L"
656729,"4701 HIGHLANDS DRIVE","MCKINNEY","TX",75070,33.1647786,-96.674401446,229,"4701 HIGHLANDS DRIVE, MCKINNEY, TX, 75070","Match","Exact","4701 HIGHLANDS DR, MCKINNEY, TX, 75070",210483077,"R"
656730,"4701 HIGHWAY 952","JACKSON","LA",70748,30.909386141,-91.179460874,230,"4701 HIGHWAY 952, JACKSON, LA, 70748","Match","Exact","4701 HWY 952, JACKSON, LA, 70748",639600467,"R"
656731,"4701 HILCREST DR","WEST BEND","WI",53095,43.4130183,-88.270137813,231,"4701 HILCREST DR, WEST BEND, WI, 53095","Match","Non_Exact","4701 HILLCREST DR, WEST BEND, WI, 53095",79557517,"R"
656732,"4701 HUTCHINSON ROAD","AWENDAW","SC",29429,32.9302139870001,-79.724671373,232,"4701 HUTCHINSON ROAD, AWENDAW, SC, 29429","Match","Exact","4701 HUTCHINSON RD, AWENDAW, SC, 29429",605852611,"L"
656733,"4701 HWY 90 WEST","HONDO","TX",78861,NA,NA,233,"4701 HWY 90 WEST, HONDO, TX, 78861","No_Match",NA,NA,NA,NA
656734,"4701 IBERVILLE STREET","NEW ORLEANS","LA",70119,29.979759621,-90.106093485,234,"4701 IBERVILLE STREET, NEW ORLEANS, LA, 70119","Match","Exact","4701 IBERVILLE ST, NEW ORLEANS, LA, 70119",191706047,"R"
656735,"4701 JEFFERSON","HOUSTON","TX",77023,29.7331531080001,-95.3323669119999,235,"4701 JEFFERSON, HOUSTON, TX, 77023","Match","Non_Exact","4701 JEFFERSON ST, HOUSTON, TX, 77023",96081801,"L"
656736,"4701 JOBE TRL","NOLENSVILLE","TN",37135,35.950129154,-86.682614563,236,"4701 JOBE TRL, NOLENSVILLE, TN, 37135","Match","Exact","4701 JOBE TRL, NOLENSVILLE, TN, 37135",614926542,"L"
656737,"4701 JOHN DAVID DR","KILLEEN","TX",76549,31.091646166,-97.799630609,237,"4701 JOHN DAVID DR, KILLEEN, TX, 76549","Match","Exact","4701 JOHN DAVID DR, KILLEEN, TX, 76549",146175848,"L"
656738,"4701 KAMRAN CT","EDMOND","OK",73013,35.6260297860001,-97.419707725,238,"4701 KAMRAN CT, EDMOND, OK, 73013","Match","Exact","4701 KAMRAN CT, EDMOND, OK, 73013",617263093,"L"
656739,"4701 KAUAIHAU RD-UNIT D101","KAPAA","HI",96746,NA,NA,239,"4701 KAUAIHAU RD-UNIT D101, KAPAA, HI, 96746","Tie",NA,NA,NA,NA
656740,"4701 KENMORE AVE APT 604","ALEXANDRIA","VA",22304,38.828227715,-77.1114290849999,240,"4701 KENMORE AVE APT 604, ALEXANDRIA, VA, 22304","Match","Exact","4701 KENMORE AVE, ALEXANDRIA, VA, 22304",638916875,"L"
656741,"4701 KENMORE AVE","ALEXANDRIA","VA",22304,38.828227715,-77.1114290849999,241,"4701 KENMORE AVE, ALEXANDRIA, VA, 22304","Match","Exact","4701 KENMORE AVE, ALEXANDRIA, VA, 22304",638916875,"L"
656742,"4701 KENMORE AVENUE APT 804","ALEXANDRIA","UT",22304,NA,NA,242,"4701 KENMORE AVENUE APT 804, ALEXANDRIA, UT, 22304","No_Match",NA,NA,NA,NA
656743,"4701 KENMORE AVENUE APT 804","ALEXANDRIA","VA",22304,38.828227715,-77.1114290849999,243,"4701 KENMORE AVENUE APT 804, ALEXANDRIA, VA, 22304","Match","Exact","4701 KENMORE AVE, ALEXANDRIA, VA, 22304",638916875,"L"
656744,"4701 KENMORE AVENUE","ALEXANDRIA","VA",22304,38.828227715,-77.1114290849999,244,"4701 KENMORE AVENUE, ALEXANDRIA, VA, 22304","Match","Exact","4701 KENMORE AVE, ALEXANDRIA, VA, 22304",638916875,"L"
656745,"4701 KENMORE","CHICAGO","IL",60640,NA,NA,245,"4701 KENMORE, CHICAGO, IL, 60640","No_Match",NA,NA,NA,NA
656746,"4701 KINGS WAY NORTH","GURNEE","IL",60031,42.3544247030001,-87.9195319299999,246,"4701 KINGS WAY NORTH, GURNEE, IL, 60031","Match","Exact","4701 KINGS WAY N, GURNEE, IL, 60031",119670004,"L"
656747,"4701 KLONDIKE AVE","ANCHORAGE","AK",99508,NA,NA,247,"4701 KLONDIKE AVE, ANCHORAGE, AK, 99508","No_Match",NA,NA,NA,NA
656748,"4701 LAGUNITA WAY","OCEANSIDE","CA",99205,33.2362398810001,-117.300282423,248,"4701 LAGUNITA WAY, OCEANSIDE, CA, 99205","Match","Non_Exact","4701 LAGUNITA WAY, OCEANSIDE, CA, 92057",624458494,"R"
656749,"4701 LAKELAND DR APT 31I","FLOWOOD","MS",39232,NA,NA,249,"4701 LAKELAND DR APT 31I, FLOWOOD, MS, 39232","No_Match",NA,NA,NA,NA
656750,"4701 LAKELAND DRIVE APT 13G","FLOWOOD","MS",39232,NA,NA,250,"4701 LAKELAND DRIVE APT 13G, FLOWOOD, MS, 39232","No_Match",NA,NA,NA,NA
656751,"4701 LAKELAND DRIVE","FLOWOOD","MS",39232,NA,NA,251,"4701 LAKELAND DRIVE, FLOWOOD, MS, 39232","No_Match",NA,NA,NA,NA
656752,"4701 LAVINGTON PL","NOTTINGHAM","MD",21236,39.381742214,-76.465896702,252,"4701 LAVINGTON PL, NOTTINGHAM, MD, 21236","Match","Exact","4701 LAVINGTON PL, NOTTINGHAM, MD, 21236",191480020,"R"
656753,"4701 LAWNTARA STREET","HARRISBURG","PA",17111,40.269447885,-76.8065992799999,253,"4701 LAWNTARA STREET, HARRISBURG, PA, 17111","Match","Non_Exact","4701 LAWNTARA RD, HARRISBURG, PA, 17111",70822409,"R"
656754,"4701 LIMESTONE ROAD","WILMINGTON","DE",19808,39.740114023,-75.6892690289999,254,"4701 LIMESTONE ROAD, WILMINGTON, DE, 19808","Match","Exact","4701 LIMESTONE RD, WILMINGTON, DE, 19808",638050343,"R"
656755,"4701 LLANO LN","FAIR OAKS","CA",95628,38.650937293,-121.278383534,255,"4701 LLANO LN, FAIR OAKS, CA, 95628","Match","Exact","4701 LLANO LN, FAIR OAKS, CA, 95628",133346020,"L"
656756,"4701 LOIS LN","WICHITA FALLS","TX",76306,33.971473185,-98.52607611,256,"4701 LOIS LN, WICHITA FALLS, TX, 76306","Match","Exact","4701 LOIS LN, WICHITA FALLS, TX, 76306",169854982,"L"
656757,"4701 MARTHA LOUISE DR","WEST PALM BEACH","FL",33417,26.7149745190001,-80.113854681,257,"4701 MARTHA LOUISE DR, WEST PALM BEACH, FL, 33417","Match","Exact","4701 MARTHA LOUISE DR, WEST PALM BEACH, FL, 33417",115579842,"L"
656758,"4701 MILDRED DRIVE","FREMONT","CA",94536,37.5417110970001,-121.998938503,258,"4701 MILDRED DRIVE, FREMONT, CA, 94536","Match","Exact","4701 MILDRED DR, FREMONT, CA, 94536",125029587,"R"
656759,"4701 MIMSEY RD","UPPER MARLBORO","MD",20772,38.8255735610001,-76.712549489,259,"4701 MIMSEY RD, UPPER MARLBORO, MD, 20772","Match","Exact","4701 MIMSEY RD, UPPER MARLBORO, MD, 20772",76329092,"L"
656760,"4701 MONTEREY OAK BLVD APT 531","AUSTIN","TX",78749,30.230697902,-97.837365457,260,"4701 MONTEREY OAK BLVD APT 531, AUSTIN, TX, 78749","Match","Non_Exact","4701 MONTEREY OAKS BLVD, AUSTIN, TX, 78749",650112047,"L"
656761,"4701 MONTEREY OAKS BLVD APT 1324","AUSTIN","TX",78749,30.230697902,-97.837365457,261,"4701 MONTEREY OAKS BLVD APT 1324, AUSTIN, TX, 78749","Match","Exact","4701 MONTEREY OAKS BLVD, AUSTIN, TX, 78749",650112047,"L"
656762,"4701 MONTEREY OAKS","AUSTIN","TX",78749,30.230697902,-97.837365457,262,"4701 MONTEREY OAKS, AUSTIN, TX, 78749","Match","Non_Exact","4701 MONTEREY OAKS BLVD, AUSTIN, TX, 78749",650112047,"L"
656763,"4701 N 19TH AVE STE 200","PHOENIX","AZ",85015,33.505755951,-112.099881124,263,"4701 N 19TH AVE STE 200, PHOENIX, AZ, 85015","Match","Non_Exact","4701 N 19TH AVE, PHOENIX, AZ, 85015",128958950,"R"
656764,"4701 N ALBANY","CHICAGO","IL",60625,NA,NA,264,"4701 N ALBANY, CHICAGO, IL, 60625","No_Match",NA,NA,NA,NA
656765,"4701 N BEACON ST APT 16","CHICAGO","IL",60640,41.9672764850001,-87.664132402,265,"4701 N BEACON ST APT 16, CHICAGO, IL, 60640","Match","Non_Exact","4701 N BEACON ST, CHICAGO, IL, 60640",111761554,"R"
656766,"4701 N EVEREST","OKLAHOMA CITY","OK",73111,35.518748541,-97.489896851,266,"4701 N EVEREST, OKLAHOMA CITY, OK, 73111","Match","Non_Exact","4701 N EVEREST AVE, OKLAHOMA CITY, OK, 73111",100401119,"L"
656767,"4701 N WASHINGTON ST APT 1001","STILLWATER","OK",74075,36.170473929,-97.0697231,267,"4701 N WASHINGTON ST APT 1001, STILLWATER, OK, 74075","Match","Non_Exact","4701 N WASHINGTON ST, STILLWATER, OK, 74075",166394996,"R"
656768,"4701 NATHAN DRIVE","KNOXVILLE","TN",37938,36.1127117940001,-83.9270099409999,268,"4701 NATHAN DRIVE, KNOXVILLE, TN, 37938","Match","Exact","4701 NATHAN DR, KNOXVILLE, TN, 37938",42665156,"L"
656769,"4701 NATICK AVE UNIT 311","SHERMAN OAKS","CA",91403,34.1558157270001,-118.454156692,269,"4701 NATICK AVE UNIT 311, SHERMAN OAKS, CA, 91403","Match","Exact","4701 NATICK AVE, SHERMAN OAKS, CA, 91403",142049719,"L"
656770,"4701 NEWCASTLE WAY","ANCHORAGE","AK",99503,61.1777503810001,-149.903639214,270,"4701 NEWCASTLE WAY, ANCHORAGE, AK, 99503","Match","Exact","4701 NEWCASTLE WAY, ANCHORAGE, AK, 99503",190797998,"L"
656771,"4701 NOME ST","DALLAS","TX",75216,32.7150378320001,-96.7453324589999,271,"4701 NOME ST, DALLAS, TX, 75216","Match","Exact","4701 NOME ST, DALLAS, TX, 75216",102956845,"L"
656772,"4701 NORTH CHARLES STREET","BALTIMORE","MD",21210,39.351544367,-76.6232031279999,272,"4701 NORTH CHARLES STREET, BALTIMORE, MD, 21210","Match","Exact","4701 N CHARLES ST, BALTIMORE, MD, 21210",206465262,"R"
656773,"4701 NORTHSHORE DR","North Little Rock","AP",72118,NA,NA,273,"4701 NORTHSHORE DR, North Little Rock, AP, 72118","No_Match",NA,NA,NA,NA
656774,"4701 NORTHSHORE DR","NORTH LITTLE ROCK","AR",72118,34.808482919,-92.352978505,274,"4701 NORTHSHORE DR, NORTH LITTLE ROCK, AR, 72118","Match","Exact","4701 NORTHSHORE DR, N LITTLE ROCK, AR, 72118",83570019,"R"
656775,"4701 NW 17TH STREET","LAUDERHILL","FL",33313,26.1468750400001,-80.212202052,275,"4701 NW 17TH STREET, LAUDERHILL, FL, 33313","Match","Exact","4701 NW 17TH ST, LAUDERHILL, FL, 33313",114708096,"R"
656776,"4701 NW 65TH  AVE","LAUDERHILL","FL",33319,26.1826378010001,-80.2368658729999,276,"4701 NW 65TH  AVE, LAUDERHILL, FL, 33319","Match","Exact","4701 NW 65TH AVE, LAUDERHILL, FL, 33319",608969858,"R"
656777,"4701 NW 75TH ST","COCONUT CREEK","FL",33073,26.3237846530001,-80.187440517,277,"4701 NW 75TH ST, COCONUT CREEK, FL, 33073","Match","Exact","4701 NW 75TH ST, COCONUT CREEK, FL, 33073",114791603,"L"
656778,"4701 OLD CANOE CREEK ROAD 700625","SAINT CLOUD","FL",34769,28.2556702090001,-81.3136948009999,278,"4701 OLD CANOE CREEK ROAD 700625, SAINT CLOUD, FL, 34769","Match","Non_Exact","4701 OLD CANOE CREEK RD, SAINT CLOUD, FL, 34769",653173998,"L"
656779,"4701 OLD CANOE CREEK ROAD UNIT 702","SAINT CLOUD","FL",34770,NA,NA,279,"4701 OLD CANOE CREEK ROAD UNIT 702, SAINT CLOUD, FL, 34770","No_Match",NA,NA,NA,NA
656780,"4701 OLD HUNDRED ROAD","MIDLOTHIAN","VA",23112,37.4232556040001,-77.6388667209999,280,"4701 OLD HUNDRED ROAD, MIDLOTHIAN, VA, 23112","Match","Exact","4701 OLD HUNDRED RD, MIDLOTHIAN, VA, 23112",201583006,"L"
656781,"4701 OLD SUPER RD   APT 559","CAMP SPRINGS","MD",20746,NA,NA,281,"4701 OLD SUPER RD   APT 559, CAMP SPRINGS, MD, 20746","No_Match",NA,NA,NA,NA
656782,"4701 OWENS WAY SUITE 500","PRINCE GEORGE","VA",23875,NA,NA,282,"4701 OWENS WAY SUITE 500, PRINCE GEORGE, VA, 23875","No_Match",NA,NA,NA,NA
656783,"4701 PARKWOOD DRIVE","MILTON","WI",53563,42.741677591,-89.0100482939999,283,"4701 PARKWOOD DRIVE, MILTON, WI, 53563","Match","Exact","4701 PARKWOOD DR, MILTON, WI, 53563",617255255,"L"
656784,"4701 PATRICK HENRY DR BLDG 16","SANTA CLARA","CA",95054,37.4009650090001,-121.984980766,284,"4701 PATRICK HENRY DR BLDG 16, SANTA CLARA, CA, 95054","Match","Exact","4701 PATRICK HENRY DR, SANTA CLARA, CA, 95054",614030707,"R"
656785,"4701 PATRICK HENRY DR UNIT 2","SANTA CLARA","CA",95054,37.4009650090001,-121.984980766,285,"4701 PATRICK HENRY DR UNIT 2, SANTA CLARA, CA, 95054","Match","Exact","4701 PATRICK HENRY DR, SANTA CLARA, CA, 95054",614030707,"R"
656786,"4701 PATRICK HENRY DRIVE SUITE 801","SANTA CLARA","CA",95054,37.4009650090001,-121.984980766,286,"4701 PATRICK HENRY DRIVE SUITE 801, SANTA CLARA, CA, 95054","Match","Exact","4701 PATRICK HENRY DR, SANTA CLARA, CA, 95054",614030707,"R"
656787,"4701 PHOENIX LANE","PASCO","WA",99301,46.2700205410001,-119.158856073,287,"4701 PHOENIX LANE, PASCO, WA, 99301","Match","Exact","4701 PHOENIX LN, PASCO, WA, 99301",648108482,"L"
656788,"4701 PHOENIX LN","PASCO","WA",99301,46.2700205410001,-119.158856073,288,"4701 PHOENIX LN, PASCO, WA, 99301","Match","Exact","4701 PHOENIX LN, PASCO, WA, 99301",648108482,"L"
656789,"4701 PINE ST","PHILADELPHIA","PA",19143,39.9523313280001,-75.216506634,289,"4701 PINE ST, PHILADELPHIA, PA, 19143","Match","Exact","4701 PINE ST, PHILADELPHIA, PA, 19143",131399770,"R"
656790,"4701 PINE STREET","PHILADELPHIA","PA",19143,39.9523313280001,-75.216506634,290,"4701 PINE STREET, PHILADELPHIA, PA, 19143","Match","Exact","4701 PINE ST, PHILADELPHIA, PA, 19143",131399770,"R"
656791,"4701 POMPTON COURT","PEARLAND","TX",77584,29.5410658930001,-95.2934355849999,291,"4701 POMPTON COURT, PEARLAND, TX, 77584","Match","Exact","4701 POMPTON CT, PEARLAND, TX, 77584",116644721,"R"
656792,"4701 PORTSMOUTH CT","SOUTH BEND","IN",46616,41.6803527320001,-86.313122687,292,"4701 PORTSMOUTH CT, SOUTH BEND, IN, 46616","Match","Non_Exact","4701 PORTSMOUTH CT, SOUTH BEND, IN, 46619",8051865,"R"
656793,"4701 POTTER CREST CIRCLE","ANCHORAGE","AK",99516,61.053815908,-149.794385506,293,"4701 POTTER CREST CIRCLE, ANCHORAGE, AK, 99516","Match","Exact","4701 POTTER CREST CIR, ANCHORAGE, AK, 99516",190820328,"R"
656794,"4701 POTTER CREST CR","ANCHORAGE","AK",99516,61.053815908,-149.794385506,294,"4701 POTTER CREST CR, ANCHORAGE, AK, 99516","Match","Exact","4701 POTTER CREST CIR, ANCHORAGE, AK, 99516",190820328,"R"
656795,"4701 PRESTON PARK BLVD 412","PLANO","TX",75098,33.026200187,-96.788566069,295,"4701 PRESTON PARK BLVD 412, PLANO, TX, 75098","Match","Non_Exact","4701 PRESTON PARK BLVD, PLANO, TX, 75093",210509057,"R"
656796,"4701 PRESTON PARK BLVD APT 1224","PLANO","TX",75093,33.026200187,-96.788566069,296,"4701 PRESTON PARK BLVD APT 1224, PLANO, TX, 75093","Match","Exact","4701 PRESTON PARK BLVD, PLANO, TX, 75093",210509057,"R"
656797,"4701 PRESTON PARK BLVD APT 1438","PLANO","TX",75093,33.026200187,-96.788566069,297,"4701 PRESTON PARK BLVD APT 1438, PLANO, TX, 75093","Match","Exact","4701 PRESTON PARK BLVD, PLANO, TX, 75093",210509057,"R"
656798,"4701 PRESTON PARK BLVD APT 1628","PLANO","TX",75093,33.026200187,-96.788566069,298,"4701 PRESTON PARK BLVD APT 1628, PLANO, TX, 75093","Match","Exact","4701 PRESTON PARK BLVD, PLANO, TX, 75093",210509057,"R"
656799,"4701 PRESTON PARK BLVD","PLANO","TX",75093,33.026200187,-96.788566069,299,"4701 PRESTON PARK BLVD, PLANO, TX, 75093","Match","Exact","4701 PRESTON PARK BLVD, PLANO, TX, 75093",210509057,"R"
656800,"4701 PREWITT RANCH ROAD","KILLEEN","TX",76549,31.069415377,-97.808431105,300,"4701 PREWITT RANCH ROAD, KILLEEN, TX, 76549","Match","Exact","4701 PREWITT RANCH RD, KILLEEN, TX, 76549",642788422,"R"
656801,"4701 PRINSTON","CORPUS CHRISTI","TX",78411,27.718986956,-97.377443704,301,"4701 PRINSTON, CORPUS CHRISTI, TX, 78411","Match","Non_Exact","4701 PRINSTON DR, CORPUS CHRISTI, TX, 78411",178521364,"R"
656802,"4701 PURDUE ST","METAIRIE","LA",70003,30.0206907630001,-90.21204929,302,"4701 PURDUE ST, METAIRIE, LA, 70003","Match","Non_Exact","4701 PURDUE DR, METAIRIE, LA, 70003",93496772,"R"
656803,"4701 S KEATING","CHICAGO","IL",60630,NA,NA,303,"4701 S KEATING, CHICAGO, IL, 60630","No_Match",NA,NA,NA,NA
656804,"4701 S LAKESHORE DRIVE 5","TEMPE","AZ",85282,33.380422384,-111.921426609,304,"4701 S LAKESHORE DRIVE 5, TEMPE, AZ, 85282","Match","Non_Exact","4701 S LAKESHORE DR, TEMPE, AZ, 85282",128923932,"L"
656805,"4701 S SHIELDS AVE","SIOUX FALLS","SD",57103,43.5016912570001,-96.685922245,305,"4701 S SHIELDS AVE, SIOUX FALLS, SD, 57103","Match","Exact","4701 S SHIELDS AVE, SIOUX FALLS, SD, 57103",34981496,"R"
656806,"4701 S SKY DANCE LN","SIERRA VISTA","AZ",85650,31.481984454,-110.285677722,306,"4701 S SKY DANCE LN, SIERRA VISTA, AZ, 85650","Match","Exact","4701 S SKY DANCE LN, SIERRA VISTA, AZ, 85650",651614422,"R"
656807,"4701 S WORLDWIDE DR","INVERNESS","FL",34452,28.793525377,-82.3281762509999,307,"4701 S WORLDWIDE DR, INVERNESS, FL, 34452","Match","Exact","4701 S WORLDWIDE DR, INVERNESS, FL, 34452",86204084,"R"
656808,"4701 SANGAMORE RD STE 100N PMB 1065","BETHESDA","MD",20816,38.948732078,-77.12016686,308,"4701 SANGAMORE RD STE 100N PMB 1065, BETHESDA, MD, 20816","Match","Exact","4701 SANGAMORE RD, BETHESDA, MD, 20816",62059106,"R"
656809,"4701 SE MASON LANE","MILWAUKIE","OR",97222,45.456279238,-122.615049185,309,"4701 SE MASON LANE, MILWAUKIE, OR, 97222","Match","Exact","4701 SE MASON LN, MILWAUKIE, OR, 97222",157961647,"L"
656810,"4701 SEBASTOPOL","PEALAND","TX",77584,29.5584723970001,-95.292201279,310,"4701 SEBASTOPOL, PEALAND, TX, 77584","Match","Non_Exact","4701 SEBASTOPOL DR, PEARLAND, TX, 77584",116643481,"R"
656811,"4701 SEPTARIA QUAY","CHESAPEAKE","VA",23321,36.813735126,-76.427238922,311,"4701 SEPTARIA QUAY, CHESAPEAKE, VA, 23321","Match","Exact","4701 SEPTARIA QUAY, CHESAPEAKE, VA, 23321",121785758,"R"
656812,"4701 SEQUIM-DUNGENESS WAY","SEQUIM","WA",98382,48.1426669840001,-123.123795676,312,"4701 SEQUIM-DUNGENESS WAY, SEQUIM, WA, 98382","Match","Exact","4701 SEQUIM-DUNGENESS WAY, SEQUIM, WA, 98382",150846595,"L"
656813,"4701 SHELLEY DRIVE","FLOWER MOUND","TX",75022,33.0336018140001,-97.103226347,313,"4701 SHELLEY DRIVE, FLOWER MOUND, TX, 75022","Match","Exact","4701 SHELLEY DR, FLOWER MOUND, TX, 75022",634085052,"R"
656814,"4701 SHORE DRIVE SUITE 103","VIRGINIA BEACH","VA",23455,36.903892227,-76.1325351789999,314,"4701 SHORE DRIVE SUITE 103, VIRGINIA BEACH, VA, 23455","Match","Exact","4701 SHORE DR, VIRGINIA BCH, VA, 23455",122303902,"R"
656815,"4701 SISK ROAD","WICHITA FALLS","TX",76310,33.8598612110001,-98.60344895,315,"4701 SISK ROAD, WICHITA FALLS, TX, 76310","Match","Exact","4701 SISK RD, WICHITA FALLS, TX, 76310",169841404,"L"
656816,"4701 SOUTH GRAND","SAINT LOUIS","MO",63111,38.574448805,-90.2493977939999,316,"4701 SOUTH GRAND, SAINT LOUIS, MO, 63111","Match","Non_Exact","4701 S GRAND BLVD, SAINT LOUIS, MO, 63111",639790211,"R"
656817,"4701 SOUTHWEST DRIVE","JONESBORO","AR",72404,NA,NA,317,"4701 SOUTHWEST DRIVE, JONESBORO, AR, 72404","No_Match",NA,NA,NA,NA
656818,"4701 STAGGERBRUSH RD APT 1025","AUSTIN","TX",78749,30.2339884360001,-97.837851654,318,"4701 STAGGERBRUSH RD APT 1025, AUSTIN, TX, 78749","Match","Exact","4701 STAGGERBRUSH RD, AUSTIN, TX, 78749",650112023,"L"
656819,"4701 STAGGERBRUSH RD","AUSTIN","TX",78749,30.2339884360001,-97.837851654,319,"4701 STAGGERBRUSH RD, AUSTIN, TX, 78749","Match","Exact","4701 STAGGERBRUSH RD, AUSTIN, TX, 78749",650112023,"L"
656820,"4701 STATE HIGHWAY 68","OGDENSBURG","NY",13669,NA,NA,320,"4701 STATE HIGHWAY 68, OGDENSBURG, NY, 13669","No_Match",NA,NA,NA,NA
656821,"4701 STILL PLACE","WOODBRIDGE","RI",22193,NA,NA,321,"4701 STILL PLACE, WOODBRIDGE, RI, 22193","No_Match",NA,NA,NA,NA
656822,"4701 STODDARD RD 2ND FLOOR","MODESTO","CA",95356,37.706306306,-121.069542828,322,"4701 STODDARD RD 2ND FLOOR, MODESTO, CA, 95356","Match","Exact","4701 STODDARD RD, MODESTO, CA, 95356",102623836,"R"
656823,"4701 STRAIT LANE","CARROLLTON","TX",75010,33.0382768870001,-96.854910274,323,"4701 STRAIT LANE, CARROLLTON, TX, 75010","Match","Exact","4701 STRAIT LN, CARROLLTON, TX, 75010",218072227,"R"
656824,"4701 SUMMERLIN RD","FT MYERS","FL",33919,NA,NA,324,"4701 SUMMERLIN RD, FT MYERS, FL, 33919","No_Match",NA,NA,NA,NA
656825,"4701 SUNNYHILL COURT","LITTLE ROCK","AR",72209,34.680635609,-92.32893562,325,"4701 SUNNYHILL COURT, LITTLE ROCK, AR, 72209","Match","Non_Exact","4701 SUNNY HILL CT, LITTLE ROCK, AR, 72209",83512778,"L"
656826,"4701 SW 31 DR","HOLLYWOOD","FL",33021,25.983084653,-80.189216379,326,"4701 SW 31 DR, HOLLYWOOD, FL, 33021","Match","Non_Exact","4701 SW 31ST DR, HOLLYWOOD, FL, 33023",114735470,"R"
656827,"4701 SW 31 DR","HOLLYWOOD","FL",33023,25.983084653,-80.189216379,327,"4701 SW 31 DR, HOLLYWOOD, FL, 33023","Match","Exact","4701 SW 31ST DR, HOLLYWOOD, FL, 33023",114735470,"R"
656828,"4701 SW ADMIRAL WAY 129","SEATTLE","WA",98116,47.5811187730001,-122.39193045,328,"4701 SW ADMIRAL WAY 129, SEATTLE, WA, 98116","Match","Non_Exact","4701 SW ADMIRAL WAY, SEATTLE, WA, 98116",186663373,"R"
656829,"4701 SW ADMIRAL WAY 90","SEATTLE","WA",98116,47.5811187730001,-122.39193045,329,"4701 SW ADMIRAL WAY 90, SEATTLE, WA, 98116","Match","Non_Exact","4701 SW ADMIRAL WAY, SEATTLE, WA, 98116",186663373,"R"
656830,"4701 SW ADMIRAL WAY NO 53","SEATTLE","WA",98116,NA,NA,330,"4701 SW ADMIRAL WAY NO 53, SEATTLE, WA, 98116","No_Match",NA,NA,NA,NA
656831,"4701 SW ADMIRAL WAY UNIT 65","SEATTLE","WA",98116,47.5811187730001,-122.39193045,331,"4701 SW ADMIRAL WAY UNIT 65, SEATTLE, WA, 98116","Match","Non_Exact","4701 SW ADMIRAL WAY, SEATTLE, WA, 98116",186663373,"R"
656832,"4701 SW JAMISON CIRCLE APT 106","BENTONVILLE","AR",72713,36.31741902,-94.266697691,332,"4701 SW JAMISON CIRCLE APT 106, BENTONVILLE, AR, 72713","Match","Non_Exact","4701 SW JAMISON CIR, BENTONVILLE, AR, 72713",650539514,"R"
656833,"4701 THUNDERBIRD AVE","MCALLEN","TX",78504,26.2729791130001,-98.2621261959999,333,"4701 THUNDERBIRD AVE, MCALLEN, TX, 78504","Match","Exact","4701 THUNDERBIRD AVE, MCALLEN, TX, 78504",632843233,"L"
656834,"4701 TOWNE CENTRE SUITE 202","SAGINAW","MI",48604,43.4752224790001,-83.963520361,334,"4701 TOWNE CENTRE SUITE 202, SAGINAW, MI, 48604","Match","Non_Exact","4701 TOWNE CENTRE RD, SAGINAW, MI, 48604",80220314,"R"
656835,"4701 TRAVERTINE DR","TAMPA","FL",33615,27.98234798,-82.577901931,335,"4701 TRAVERTINE DR, TAMPA, FL, 33615","Match","Exact","4701 TRAVERTINE DR, TAMPA, FL, 33615",640439503,"R"
656836,"4701 VALLEY CREST DRIVE APT 303","MIDLOTHIAN","VA",23112,37.422116126,-77.619795294,336,"4701 VALLEY CREST DRIVE APT 303, MIDLOTHIAN, VA, 23112","Match","Exact","4701 VALLEY CREST DR, MIDLOTHIAN, VA, 23112",201565085,"R"
656837,"4701 VALLEY VIEW RD","HARRISBURG","PA",17112,NA,NA,337,"4701 VALLEY VIEW RD, HARRISBURG, PA, 17112","No_Match",NA,NA,NA,NA
656838,"4701 VIA EL SERENO","TORRANCE","CA",90505,33.8042421980001,-118.365214959,338,"4701 VIA EL SERENO, TORRANCE, CA, 90505","Match","Non_Exact","4701 VIA EL SERRENO, TORRANCE, CA, 90505",641495498,"L"
656839,"4701 VILLA MARE LN","NAPLES","FL",34103,26.2043535500001,-81.813754748,339,"4701 VILLA MARE LN, NAPLES, FL, 34103","Match","Exact","4701 VILLA MARE LN, NAPLES, FL, 34103",650104668,"R"
656840,"4701 W 11TH AVE","GARY","IN",46406,41.591535794,-87.3951671739999,340,"4701 W 11TH AVE, GARY, IN, 46406","Match","Exact","4701 W 11TH AVE, GARY, IN, 46406",98424979,"L"
656841,"4701 W MAIN STREET","LOWELL","IN",46356,41.32618762,-87.390510365,341,"4701 W MAIN STREET, LOWELL, IN, 46356","Match","Exact","4701 W MAIN ST, LOWELL, IN, 46356",98449496,"L"
656842,"4701 W RESEARCH DRIVE","SIOUX FALLS","SD",57107,43.5705191660001,-96.7838275459999,342,"4701 W RESEARCH DRIVE, SIOUX FALLS, SD, 57107","Match","Exact","4701 W RESEARCH DR, SIOUX FALLS, SD, 57107",618473922,"L"
656843,"4701 W THUNDERBIRD","GLENDALE","AZ",85306,33.6107231870001,-112.157843219,343,"4701 W THUNDERBIRD, GLENDALE, AZ, 85306","Match","Non_Exact","4701 W THUNDERBIRD RD, GLENDALE, AZ, 85306",128176953,"L"
656844,"4701 WESTERN RD","MISSION","TX",78574,26.273390019,-98.401266837,344,"4701 WESTERN RD, MISSION, TX, 78574","Match","Exact","4701 WESTERN RD, MISSION, TX, 78574",627284043,"L"
656845,"4701 WEXFORD","CORPUS CHRISTI","TX",78411,27.717780577,-97.376111098,345,"4701 WEXFORD, CORPUS CHRISTI, TX, 78411","Match","Non_Exact","4701 WEXFORD DR, CORPUS CHRISTI, TX, 78411",178521434,"R"
656846,"4701 WILD BRIAR PASS","AUSTIN","TX",78746,30.2771189640001,-97.822207036,346,"4701 WILD BRIAR PASS, AUSTIN, TX, 78746","Match","Exact","4701 WILD BRIAR PASS, AUSTIN, TX, 78746",63937990,"L"
656847,"4701 WILFORD WAY","EDINA","MN",55435,44.878201292,-93.343419046,347,"4701 WILFORD WAY, EDINA, MN, 55435","Match","Exact","4701 WILFORD WAY, EDINA, MN, 55435",43834784,"L"
656848,"4701 WILLARD AVE 1104","CHEVY CHASE","MD",20815,NA,NA,348,"4701 WILLARD AVE 1104, CHEVY CHASE, MD, 20815","No_Match",NA,NA,NA,NA
656849,"4701 WILLARD AVE APARTMENT 1503","CHEVY CHASE","MD",20815,NA,NA,349,"4701 WILLARD AVE APARTMENT 1503, CHEVY CHASE, MD, 20815","No_Match",NA,NA,NA,NA
656850,"4701 WILLARD AVE APT 209","CHEVY CHASE","MD",20815,NA,NA,350,"4701 WILLARD AVE APT 209, CHEVY CHASE, MD, 20815","No_Match",NA,NA,NA,NA
656851,"4701 WILLARD AVENUE APT 824","CHEVY CHASE","MD",20815,NA,NA,351,"4701 WILLARD AVENUE APT 824, CHEVY CHASE, MD, 20815","No_Match",NA,NA,NA,NA
656852,"4701 WILLARD AVENUE APT 829","CHEVY CHASE","MD",20815,NA,NA,352,"4701 WILLARD AVENUE APT 829, CHEVY CHASE, MD, 20815","No_Match",NA,NA,NA,NA
656853,"4701 WILLARD AVENUE SUITE 914","CHEVY CHASE","MD",20815,NA,NA,353,"4701 WILLARD AVENUE SUITE 914, CHEVY CHASE, MD, 20815","No_Match",NA,NA,NA,NA
656854,"4701 WILLIAMS DR","GEORGETOWN","TX",78663,30.687045938,-97.722289352,354,"4701 WILLIAMS DR, GEORGETOWN, TX, 78663","Match","Non_Exact","4701 WILLIAMS DR, GEORGETOWN, TX, 78633",648539410,"R"
656855,"4701 WILLOWBEND CT","CHINO","CA",91709,33.9597033740001,-117.702258028,355,"4701 WILLOWBEND CT, CHINO, CA, 91709","Match","Non_Exact","4701 WILLOWBEND CT, CHINO HILLS, CA, 91709",144988097,"R"
656856,"4701 WINCHESTER PIKE","COLUMBUS","OH",43232,39.897115952,-82.876403134,356,"4701 WINCHESTER PIKE, COLUMBUS, OH, 43232","Match","Exact","4701 WINCHESTER PIKE, COLUMBUS, OH, 43232",218675515,"R"
656857,"4701 WINTERBERRY LANE","MONROE","NC",28110,35.0522847620001,-80.6107645229999,357,"4701 WINTERBERRY LANE, MONROE, NC, 28110","Match","Exact","4701 WINTERBERRY LN, MONROE, NC, 28110",642590771,"L"
656858,"4701 WOOD STORK DRIVE","CHESAPEAKE","VA",23321,NA,NA,358,"4701 WOOD STORK DRIVE, CHESAPEAKE, VA, 23321","No_Match",NA,NA,NA,NA
656859,"47010 STATE ROUTE 46","NEW WATERFORD","OH",44445,40.8416722040001,-80.613099516,359,"47010 STATE ROUTE 46, NEW WATERFORD, OH, 44445","Match","Exact","47010 STATE RTE 46, NEW WATERFORD, OH, 44445",63662794,"R"
656860,"47010 SUNNYBROOK LANE","NOVI","MI",48374,42.4548601710001,-83.508057314,360,"47010 SUNNYBROOK LANE, NOVI, MI, 48374","Match","Exact","47010 SUNNYBROOK LN, NOVI, MI, 48374",69782190,"L"
656861,"47011 TOWN HALL RD","BELGRADE","MN",56312,45.4483086700001,-95.086807107,361,"47011 TOWN HALL RD, BELGRADE, MN, 56312","Match","Exact","47011 TOWN HALL RD, BELGRADE, MN, 56312",107412770,"R"
656862,"47016 266TH ST WEST","LAKE HUGHES","CA",93532,34.7339626080001,-118.599531975,362,"47016 266TH ST WEST, LAKE HUGHES, CA, 93532","Match","Exact","47016 266TH ST W, LAKE HUGHES, CA, 93532",142825616,"R"
656863,"4701SPRINGWILLOW ROAD","FT. WORTH","TX",76109,NA,NA,363,"4701SPRINGWILLOW ROAD, FT. WORTH, TX, 76109","No_Match",NA,NA,NA,NA
656864,"4702  FRONTIER  TRAIL","AUSTIN","TX",78745,30.226155788,-97.7933767709999,364,"4702  FRONTIER  TRAIL, AUSTIN, TX, 78745","Match","Exact","4702 FRONTIER TRL, AUSTIN, TX, 78745",63939098,"R"
656865,"4702 117TH PLACE NE","KIRKLADN","WA",98033,47.6524348770001,-122.184735817,365,"4702 117TH PLACE NE, KIRKLADN, WA, 98033","Match","Non_Exact","4702 117TH PL NE, KIRKLAND, WA, 98033",186921566,"L"
656866,"4702 117TH PLACE NE","KIRKLAND","WA",98033,47.6524348770001,-122.184735817,366,"4702 117TH PLACE NE, KIRKLAND, WA, 98033","Match","Exact","4702 117TH PL NE, KIRKLAND, WA, 98033",186921566,"L"
656867,"4702 118TH AVENUE SE","BELLEVUE","WA",98006,47.562446214,-122.182937435,367,"4702 118TH AVENUE SE, BELLEVUE, WA, 98006","Match","Exact","4702 118TH AVE SE, BELLEVUE, WA, 98006",186609089,"L"
656868,"4702 128TH AVE NE","LAKE STEVENS","WA",98258,48.038088089,-122.058254293,368,"4702 128TH AVE NE, LAKE STEVENS, WA, 98258","Match","Exact","4702 128TH AVE NE, LAKE STEVENS, WA, 98258",187780623,"L"
656869,"4702 20TH AVE","MOLINE","IL",61265,41.494743967,-90.4692408769999,369,"4702 20TH AVE, MOLINE, IL, 61265","Match","Exact","4702 20TH AVE, MOLINE, IL, 61265",639888250,"R"
656870,"4702 22ND AVENUE NW","ROCHESTER","MN",55901,44.0713449310001,-92.497207389,370,"4702 22ND AVENUE NW, ROCHESTER, MN, 55901","Match","Exact","4702 22ND AVE NW, ROCHESTER, MN, 55901",30558630,"R"
656871,"4702 42ND AVE S","SEATTLE","WA",98118,47.5604694740001,-122.280722655,371,"4702 42ND AVE S, SEATTLE, WA, 98118","Match","Exact","4702 42ND AVE S, SEATTLE, WA, 98118",186596045,"L"
656872,"4702 4TH ST","LUBBOCK","TX",79415,33.5922912990001,-101.914142548,372,"4702 4TH ST, LUBBOCK, TX, 79415","Match","Non_Exact","4702 4TH ST, LUBBOCK, TX, 79416",185245793,"L"
656873,"4702 6TH PLACE NE","WASHINGTON","DC",20017,38.950099692,-76.99800887,373,"4702 6TH PLACE NE, WASHINGTON, DC, 20017","Match","Exact","4702 6TH PL NE, WASHINGTON, DC, 20017",76228127,"L"
656874,"4702 8TH ST NW","WASHINGTON","DC",20011,38.947381917,-77.023613091,374,"4702 8TH ST NW, WASHINGTON, DC, 20011","Match","Exact","4702 8TH ST NW, WASHINGTON, DC, 20011",76223485,"L"
656875,"4702 BRAMBLE WAY","SHREVEPORT","LA",71118,32.400574423,-93.842026563,375,"4702 BRAMBLE WAY, SHREVEPORT, LA, 71118","Match","Exact","4702 BRAMBLE WAY, SHREVEPORT, LA, 71118",57432631,"R"
656876,"4702 BRIGHTON PARK DR","WINSTON SALEM","NC",27103,36.068727886,-80.3430015499999,376,"4702 BRIGHTON PARK DR, WINSTON SALEM, NC, 27103","Match","Exact","4702 BRIGHTON PARK DR, WINSTON SALEM, NC, 27103",84692549,"L"
656877,"4702 BUTTERFIELD RD","ARLINGTON","TX",76017,32.670834761,-97.199825988,377,"4702 BUTTERFIELD RD, ARLINGTON, TX, 76017","Match","Exact","4702 BUTTERFIELD RD, ARLINGTON, TX, 76017",101902427,"R"
656878,"4702 CABLE ROAD","LITTLE FALLS","MN",56345,NA,NA,378,"4702 CABLE ROAD, LITTLE FALLS, MN, 56345","No_Match",NA,NA,NA,NA
656879,"4702 CARSONHILL","AUSTIN","TX",78723,30.288157315,-97.677184239,379,"4702 CARSONHILL, AUSTIN, TX, 78723","Match","Non_Exact","4702 CARSONHILL DR, AUSTIN, TX, 78723",64000061,"L"
656880,"4702 CLEAR AVE","TAMPA","FL",33629,27.9294300170001,-82.522518006,380,"4702 CLEAR AVE, TAMPA, FL, 33629","Match","Non_Exact","4702 W CLEAR AVE, TAMPA, FL, 33629",104525258,"L"
656881,"4702 CLEAR AVENUE","TAMPA","FL",33629,27.9294300170001,-82.522518006,381,"4702 CLEAR AVENUE, TAMPA, FL, 33629","Match","Non_Exact","4702 W CLEAR AVE, TAMPA, FL, 33629",104525258,"L"
656882,"4702 COLUMBUS AVE","SANDUSKY","OH",44870,41.4027820700001,-82.6791381909999,382,"4702 COLUMBUS AVE, SANDUSKY, OH, 44870","Match","Exact","4702 COLUMBUS AVE, SANDUSKY, OH, 44870",55335059,"R"
656883,"4702 COUNTY ROAD 207","CARPENTER","WY",82054,41.100649719,-104.386997994,383,"4702 COUNTY ROAD 207, CARPENTER, WY, 82054","Match","Exact","4702 CO RD 207, CARPENTER, WY, 82054",636256731,"R"
656884,"4702 CREEKVIEW LN","BALCH SPRINGS","TX",75180,32.7091533550001,-96.592352287,384,"4702 CREEKVIEW LN, BALCH SPRINGS, TX, 75180","Match","Exact","4702 CREEKVIEW LN, BALCH SPRINGS, TX, 75180",630978981,"R"
656885,"4702 DEER LODGE ROAD","NEW PORT RICHEY","FL",34655,28.22736395,-82.647479558,385,"4702 DEER LODGE ROAD, NEW PORT RICHEY, FL, 34655","Match","Exact","4702 DEER LODGE RD, NEW PORT RICHEY, FL, 34655",617794541,"R"
656886,"4702 E 300 N","CRAWFORDSVILLE","IN",47933,NA,NA,386,"4702 E 300 N, CRAWFORDSVILLE, IN, 47933","No_Match",NA,NA,NA,NA
656887,"4702 E PINE GLEN LANE","MEAD","WA",99021,NA,NA,387,"4702 E PINE GLEN LANE, MEAD, WA, 99021","No_Match",NA,NA,NA,NA
656888,"4702 FITZGERALD DR","MANSFEILD","TX",76063,32.5584462100001,-97.060435495,388,"4702 FITZGERALD DR, MANSFEILD, TX, 76063","Match","Non_Exact","4702 FITZGERALD DR, MANSFIELD, TX, 76063",618508027,"L"
656889,"4702 GARDEN GROVE DRIVE","COLUMBIA","MO",65203,38.8924927250001,-92.405266882,389,"4702 GARDEN GROVE DRIVE, COLUMBIA, MO, 65203","Match","Exact","4702 GARDEN GROVE DR, COLUMBIA, MO, 65203",23500800,"L"
656890,"4702 GREYSTONE","SAINT JOSEPH","MO",64505,39.808683128,-94.785027009,390,"4702 GREYSTONE, SAINT JOSEPH, MO, 64505","Match","Non_Exact","4702 GREYSTONE DR, SAINT JOSEPH, MO, 64505",651279450,"L"
656891,"4702 HALLORAN COURT","UPPER MARLBORO","MD",20772,38.8338324600001,-76.7800026909999,391,"4702 HALLORAN COURT, UPPER MARLBORO, MD, 20772","Match","Exact","4702 HALLORAN CT, UPPER MARLBORO, MD, 20772",76346804,"L"
656892,"4702 HARMONY LANDING","SPRINGFIELD","TN",37172,36.4774447450001,-86.847962895,392,"4702 HARMONY LANDING, SPRINGFIELD, TN, 37172","Match","Non_Exact","4702 HARMONY LANDING RD, SPRINGFIELD, TN, 37172",97451160,"R"
656893,"4702 HILL SPRING TERRACE","CHESTER","VA",23831,37.3199338910001,-77.448315602,393,"4702 HILL SPRING TERRACE, CHESTER, VA, 23831","Match","Exact","4702 HILL SPRING TER, CHESTER, VA, 23831",201564731,"R"
656894,"4702 KENSINGTON DR","SAINT JOSEPH","MO",64506,39.8063948230001,-94.788711273,394,"4702 KENSINGTON DR, SAINT JOSEPH, MO, 64506","Match","Exact","4702 KENSINGTON DR, SAINT JOSEPH, MO, 64506",15989494,"R"
656895,"4702 LEO DRIVE","MADISON","WI",53716,43.080437309,-89.3013289309999,395,"4702 LEO DRIVE, MADISON, WI, 53716","Match","Exact","4702 LEO DR, MADISON, WI, 53716",49475389,"L"
656896,"4702 LONG BRANCH LOOP","CHEYENNE","WY",82001,41.1416437120001,-104.753642548,396,"4702 LONG BRANCH LOOP, CHEYENNE, WY, 82001","Match","Exact","4702 LONG BRANCH LOOP, CHEYENNE, WY, 82001",160175649,"L"
656897,"4702 MADISION","GREENSBORO","NC",27406,NA,NA,397,"4702 MADISION, GREENSBORO, NC, 27406","No_Match",NA,NA,NA,NA
656898,"4702 MISSION BLVD UNIT 9","SAN DIEGO","CA",92109,32.79942126,-117.256377623,398,"4702 MISSION BLVD UNIT 9, SAN DIEGO, CA, 92109","Match","Exact","4702 MISSION BLVD, SAN DIEGO, CA, 92109",612888346,"L"
656899,"4702 MOORE STREET","HOUSTON","TX",77009,29.802487781,-95.360073728,399,"4702 MOORE STREET, HOUSTON, TX, 77009","Match","Exact","4702 MOORE ST, HOUSTON, TX, 77009",96059188,"R"
656900,"4702 N 36TH AVE","OMAHA","NE",68111,41.3015042060001,-95.967375897,400,"4702 N 36TH AVE, OMAHA, NE, 68111","Match","Exact","4702 N 36TH AVE, OMAHA, NE, 68111",116979309,"L"
656901,"4702 N 47TH ST","OMAHA","NE",68104,41.301485889,-95.983712182,401,"4702 N 47TH ST, OMAHA, NE, 68104","Match","Exact","4702 N 47TH ST, OMAHA, NE, 68104",116978137,"L"
656902,"4702 NEW CASTLE DR","COLUMBIA","MO",65202,38.9011198590001,-92.3678825919999,402,"4702 NEW CASTLE DR, COLUMBIA, MO, 65202","Match","Non_Exact","4702 NEW CASTLE DR, COLUMBIA, MO, 65203",23494837,"R"
656903,"4702 NORTH 2ND AVE","TUCSON","AZ",85704,32.2917439660001,-110.963092882,403,"4702 NORTH 2ND AVE, TUCSON, AZ, 85704","Match","Exact","4702 N 2ND AVE, TUCSON, AZ, 85704",121166954,"R"
656904,"4702 NW 94TH COURT","DORAL","FL",33178,25.8161884130001,-80.349955342,404,"4702 NW 94TH COURT, DORAL, FL, 33178","Match","Exact","4702 NW 94TH CT, DORAL, FL, 33178",116087558,"R"
656905,"4702 OLD SPANISH TRAIL","HOUSTON","TX",77021,29.7060908880001,-95.343287022,405,"4702 OLD SPANISH TRAIL, HOUSTON, TX, 77021","Match","Exact","4702 OLD SPANISH TRL, HOUSTON, TX, 77021",233372582,"L"
656906,"4702 PALISADE LANE","GODFREY","IL",62035,38.93206696,-90.262776461,406,"4702 PALISADE LANE, GODFREY, IL, 62035","Match","Exact","4702 PALISADE LN, GODFREY, IL, 62035",107676933,"L"
656907,"4702 PARK HILL RD","TAHLEQUAH","OK",74464,35.86910965,-94.967468859,407,"4702 PARK HILL RD, TAHLEQUAH, OK, 74464","Match","Non_Exact","4702 S PARK HILL RD, TAHLEQUAH, OK, 74464",53649321,"L"
656908,"4702 PARKSIDE DRIVE","BALTIMORE","MD",21206,39.322555535,-76.557469257,408,"4702 PARKSIDE DRIVE, BALTIMORE, MD, 21206","Match","Exact","4702 PARKSIDE DR, BALTIMORE, MD, 21206",206411494,"L"
656909,"4702 PIER DR","GREENACRES","FL",33463,26.6333847920001,-80.133063837,409,"4702 PIER DR, GREENACRES, FL, 33463","Match","Exact","4702 PIER DR, GREENACRES, FL, 33463",115314746,"R"
656910,"4702 PLATA STREET","CLINTON","MD",20735,38.7671303830001,-76.926426035,410,"4702 PLATA STREET, CLINTON, MD, 20735","Match","Exact","4702 PLATA ST, CLINTON, MD, 20735",76332237,"R"
656911,"4702 RATON BLVD","HUNTSVILLE","AL",35810,34.7636512130001,-86.6324286179999,411,"4702 RATON BLVD, HUNTSVILLE, AL, 35810","Match","Non_Exact","4702 RATON BLVD NW, HUNTSVILLE, AL, 35810",58113300,"R"
656912,"4702 RIDGE OAK DRIVE","AUSTIN","TX",78731,30.332212849,-97.765976684,412,"4702 RIDGE OAK DRIVE, AUSTIN, TX, 78731","Match","Exact","4702 RIDGE OAK DR, AUSTIN, TX, 78731",63929249,"L"
656913,"4702 S 176TH EAST AVENUE","TULSA","OK",74134,36.0957868360001,-95.7812682219999,413,"4702 S 176TH EAST AVENUE, TULSA, OK, 74134","Match","Exact","4702 S 176TH EAST AVE, TULSA, OK, 74134",624659860,"R"
656914,"4702 S 5TH ST","ABILENE","TX",79605,32.445928607,-99.783350904,414,"4702 S 5TH ST, ABILENE, TX, 79605","Match","Exact","4702 S 5TH ST, ABILENE, TX, 79605",129958452,"R"
656915,"4702 S COLLEGE RD","WILMINGTON","NC",28412,34.1556577640001,-77.892103407,415,"4702 S COLLEGE RD, WILMINGTON, NC, 28412","Match","Exact","4702 S COLLEGE RD, WILMINGTON, NC, 28412",647214057,"R"
656916,"4702 S WESTERN AVE","SPRINGFIELD","MO",65810,37.1294967330001,-93.351930199,416,"4702 S WESTERN AVE, SPRINGFIELD, MO, 65810","Match","Exact","4702 WESTERN AVE, SPRINGFIELD, MO, 65810",76707473,"L"
656917,"4702 SOUTH HANNA STREET","FORT WAYNE","IN",46806,41.0414242940001,-85.127372957,417,"4702 SOUTH HANNA STREET, FORT WAYNE, IN, 46806","Match","Exact","4702 S HANNA ST, FORT WAYNE, IN, 46806",6382833,"R"
656918,"4702 SOUTHWOOD DRIVE","BROOKLYN","OH",44144,41.429039996,-81.751302271,418,"4702 SOUTHWOOD DRIVE, BROOKLYN, OH, 44144","Match","Exact","4702 SOUTHWOOD DR, BROOKLYN, OH, 44144",650916680,"R"
656919,"4702 STARBOARD DR","SOUTH BEND","IN",46628,41.740153579,-86.3408269669999,419,"4702 STARBOARD DR, SOUTH BEND, IN, 46628","Match","Non_Exact","4702 N STARBOARD DR, SOUTH BEND, IN, 46628",639718148,"R"
656920,"4702 STONELEIGH DRIVE","SAN ANTONIO","TX",78220,29.4009586220001,-98.40271569,420,"4702 STONELEIGH DRIVE, SAN ANTONIO, TX, 78220","Match","Exact","4702 STONELEIGH DR, SAN ANTONIO, TX, 78220",101537088,"R"
656921,"4702 SW SLAVIN RD NO 6","PORTLAND","OR",97239,NA,NA,421,"4702 SW SLAVIN RD NO 6, PORTLAND, OR, 97239","No_Match",NA,NA,NA,NA
656922,"4702 TALL SHIPS","FRIENDSWOOD","TX",77546,NA,NA,422,"4702 TALL SHIPS, FRIENDSWOOD, TX, 77546","No_Match",NA,NA,NA,NA
656923,"4702 THOMAS HOBY PLACE","SARASOTA","FL",34241,27.2874609350001,-82.411603531,423,"4702 THOMAS HOBY PLACE, SARASOTA, FL, 34241","Match","Exact","4702 THOMAS HOBY PL, SARASOTA, FL, 34241",16415384,"R"
656924,"4702 US HWY 50 EAST","BEDFORD","IN",47421,38.87507528,-86.3670124779999,424,"4702 US HWY 50 EAST, BEDFORD, IN, 47421","Match","Exact","4702 US HWY 50 E, BEDFORD, IN, 47421",648419086,"L"
656925,"4702 W 159TH STREET","LAWNDALE","CA",90260,33.886427161,-118.359266431,425,"4702 W 159TH STREET, LAWNDALE, CA, 90260","Match","Exact","4702 W 159TH ST, LAWNDALE, CA, 90260",241243073,"L"
656926,"4702 W REDDING AVE","VISALIA","CA",93277,36.2958460470001,-119.342418726,426,"4702 W REDDING AVE, VISALIA, CA, 93277","Match","Exact","4702 W REDDING AVE, VISALIA, CA, 93277",202819325,"R"
656927,"4702 WASHINGTON STREET EXTENSION","WILMINGTON","DE",19809,NA,NA,427,"4702 WASHINGTON STREET EXTENSION, WILMINGTON, DE, 19809","No_Match",NA,NA,NA,NA
656928,"4702 WELLINGTON POINT","HUNTSVILLE","AL",35816,34.7500599800001,-86.643221268,428,"4702 WELLINGTON POINT, HUNTSVILLE, AL, 35816","Match","Non_Exact","4702 WELLINGTON PT NW, HUNTSVILLE, AL, 35816",58113218,"R"
656929,"4702 WOODFORD STREET","BAYTOWN","TX",77521,29.819335562,-94.989487132,429,"4702 WOODFORD STREET, BAYTOWN, TX, 77521","Match","Exact","4702 WOODFORD ST, BAYTOWN, TX, 77521",96108354,"R"
656930,"47021 VICTORIAN SQUARE SOUTH","CANTON","MI",48188,42.271096146,-83.50155976,430,"47021 VICTORIAN SQUARE SOUTH, CANTON, MI, 48188","Match","Exact","47021 VICTORIAN SQ S, CANTON, MI, 48188",617694163,"R"
656931,"47025 SR 64 E","MYAKKA CITY","FL",34251,27.473072143,-82.0555317929999,431,"47025 SR 64 E, MYAKKA CITY, FL, 34251","Match","Non_Exact","47025 STATE HWY 64 E, MYAKKA CITY, FL, 34251",16279018,"L"
656932,"4703 1ST ST NE","HICKORY","NC",28601,35.7968277090001,-81.3060979649999,432,"4703 1ST ST NE, HICKORY, NC, 28601","Match","Exact","4703 1ST ST NE, HICKORY, NC, 28601",45946705,"L"
656933,"4703 4TH STREET NW","WASHINGTON","DC",20011,38.9475712340001,-77.017378531,433,"4703 4TH STREET NW, WASHINGTON, DC, 20011","Match","Exact","4703 4TH ST NW, WASHINGTON, DC, 20011",76223604,"R"
656934,"4703 58TH LN","WOODSIDE","NY",11377,40.7400532230001,-73.9073554139999,434,"4703 58TH LN, WOODSIDE, NY, 11377","Match","Exact","4703 58TH LN, WOODSIDE, NY, 11377",59692876,"L"
656935,"4703 70TH STREET","MERIDAN","KS",66512,39.1727684860001,-95.545246036,435,"4703 70TH STREET, MERIDAN, KS, 66512","Match","Non_Exact","4703 70TH ST, MERIDEN, KS, 66512",22260651,"R"
656936,"4703 AMBERLEY AVE","BALTIMORE","MD",21229,39.2822156010001,-76.693179363,436,"4703 AMBERLEY AVE, BALTIMORE, MD, 21229","Match","Exact","4703 AMBERLEY AVE, BALTIMORE, MD, 21229",206413496,"L"
656937,"4703 ANNAPOLIS RD","BLADENSBURG","MD",20710,38.9391829090001,-76.938006297,437,"4703 ANNAPOLIS RD, BLADENSBURG, MD, 20710","Match","Exact","4703 ANNAPOLIS RD, BLADENSBURG, MD, 20710",639591867,"L"
656938,"4703 ANTIQUE MEADOWS DR","FRIENDSWOOD","TX",77546,29.5448731760001,-95.1845517689999,438,"4703 ANTIQUE MEADOWS DR, FRIENDSWOOD, TX, 77546","Match","Exact","4703 ANTIQUE MEADOWS DR, FRIENDSWOOD, TX, 77546",96134163,"R"
656939,"4703 BANTRY ROAD","GROVETOWN","GA",30813,33.5069599440001,-82.177297717,439,"4703 BANTRY ROAD, GROVETOWN, GA, 30813","Match","Exact","4703 BANTRY RD, GROVETOWN, GA, 30813",635563136,"R"
656940,"4703 CEDAR COALS CT","COLUMBIA","MO",65203,38.9355897390001,-92.406450351,440,"4703 CEDAR COALS CT, COLUMBIA, MO, 65203","Match","Exact","4703 CEDAR COALS CT, COLUMBIA, MO, 65203",604989261,"L"
656941,"4703 CORY CORNERS ROAD","MARION","NY",14505,43.1729895020001,-77.2327897489999,441,"4703 CORY CORNERS ROAD, MARION, NY, 14505","Match","Exact","4703 CORY CORNERS RD, MARION, NY, 14505",607791435,"L"
656942,"4703 CURTIS AVE","OMAHA","NE",68104,41.3157574840001,-95.9840539589999,442,"4703 CURTIS AVE, OMAHA, NE, 68104","Match","Exact","4703 CURTIS AVE, OMAHA, NE, 68104",116977965,"L"
656943,"4703 E GREENBLUFF RD","COLBERT","WA",99005,47.8090979020001,-117.341159106,443,"4703 E GREENBLUFF RD, COLBERT, WA, 99005","Match","Exact","4703 E GREENBLUFF RD, COLBERT, WA, 99005",632912217,"L"
656944,"4703 EAST WOODSIDE WAY","GILBERT","AZ",85297,33.2850359340001,-111.688379937,444,"4703 EAST WOODSIDE WAY, GILBERT, AZ, 85297","Match","Exact","4703 E WOODSIDE WAY, GILBERT, AZ, 85297",601671789,"R"
656945,"4703 ELDRIDEGE RD","HIXSON","TN",37343,35.1296574200001,-85.262163974,445,"4703 ELDRIDEGE RD, HIXSON, TN, 37343","Match","Non_Exact","4703 ELDRIDGE RD, HIXSON, TN, 37343",59305431,"L"
656946,"4703 ELM LEAF DR","DALLAS","TX",75236,32.67819468,-96.9005432719999,446,"4703 ELM LEAF DR, DALLAS, TX, 75236","Match","Exact","4703 ELM LEAF DR, DALLAS, TX, 75236",102940991,"L"
656947,"4703 FAIRVIEW DR","AUSTIN","TX",78731,30.3275749250001,-97.760112,447,"4703 FAIRVIEW DR, AUSTIN, TX, 78731","Match","Exact","4703 FAIRVIEW DR, AUSTIN, TX, 78731",63929271,"R"
656948,"4703 FALL CREEK COURT","WENTZVILLE","MO",63051,38.8193400820001,-90.888299988,448,"4703 FALL CREEK COURT, WENTZVILLE, MO, 63051","Match","Non_Exact","4703 FALL CREEK CT, WENTZVILLE, MO, 63385",605534324,"L"
656949,"4703 GINGER COVE APT F","TAMPA","FL",33634,27.9785402250001,-82.560600786,449,"4703 GINGER COVE APT F, TAMPA, FL, 33634","Match","Non_Exact","4703 GINGER COVE DR, TAMPA, FL, 33634",640440479,"R"
656950,"4703 GONZALES STREET","AUSTIN","TX",78702,30.256582806,-97.700009935,450,"4703 GONZALES STREET, AUSTIN, TX, 78702","Match","Exact","4703 GONZALES ST, AUSTIN, TX, 78702",63949016,"R"
656951,"4703 GRAY LOOP UNIT B","JBER","AK",99506,NA,NA,451,"4703 GRAY LOOP UNIT B, JBER, AK, 99506","No_Match",NA,NA,NA,NA
656952,"4703 HEARTSTONE CIRCLE","LAS VEGAS","NV",89129,36.2464993080001,-115.275102626,452,"4703 HEARTSTONE CIRCLE, LAS VEGAS, NV, 89129","Match","Exact","4703 HEARTSTONE CIR, LAS VEGAS, NV, 89129",650835169,"L"
656953,"4703 HEMPSTEAD 3","HOPE","AR",71801,33.59781113,-93.567147953,453,"4703 HEMPSTEAD 3, HOPE, AR, 71801","Match","Exact","4703 HEMPSTEAD 3, HOPE, AR, 71801",10865730,"R"
656954,"4703 HERITAGE DRIVE","DURHAM","NC",27712,36.0747475810001,-78.9438223609999,454,"4703 HERITAGE DRIVE, DURHAM, NC, 27712","Match","Exact","4703 HERITAGE DR, DURHAM, NC, 27712",71755365,"L"
656955,"4703 HUNTING TRAIL","LAKE WORTH","FL",33460,26.6126015360001,-80.198470363,455,"4703 HUNTING TRAIL, LAKE WORTH, FL, 33460","Match","Non_Exact","4703 HUNTING TRL, LAKE WORTH, FL, 33467",115281915,"R"
656956,"4703 LEACH LAKE WAY","FORT IRWIN","CA",92310,35.256853585,-116.701121264,456,"4703 LEACH LAKE WAY, FORT IRWIN, CA, 92310","Match","Exact","4703 LEACH LAKE WAY, FORT IRWIN, CA, 92310",648930987,"R"
656957,"4703 LONG ST","LINDEN","NC",28356,35.2539363560001,-78.7484937949999,457,"4703 LONG ST, LINDEN, NC, 28356","Match","Exact","4703 LONG ST, LINDEN, NC, 28356",64209206,"R"
656958,"4703 MAMMOTH CAVE ROAD","CAVE CITY","KY",42127,37.1323354200001,-86.031998801,458,"4703 MAMMOTH CAVE ROAD, CAVE CITY, KY, 42127","Match","Exact","4703 MAMMOTH CAVE RD, CAVE CITY, KY, 42127",632840665,"L"
656959,"4703 MELISSA CT","SUGAR LAND","TX",77479,29.5809313460001,-95.691553926,459,"4703 MELISSA CT, SUGAR LAND, TX, 77479","Match","Exact","4703 MELISSA CT, SUGAR LAND, TX, 77479",78296605,"R"
656960,"4703 MOUNTAIN CREEK RD","CHATTANOOGA","TN",37415,35.143786413,-85.300731506,460,"4703 MOUNTAIN CREEK RD, CHATTANOOGA, TN, 37415","Match","Exact","4703 MOUNTAIN CREEK RD, CHATTANOOGA, TN, 37415",59334080,"L"
656961,"4703 MOUNTAIN CREEK ROAD","CHATTANOOGA","TN",37415,35.143786413,-85.300731506,461,"4703 MOUNTAIN CREEK ROAD, CHATTANOOGA, TN, 37415","Match","Exact","4703 MOUNTAIN CREEK RD, CHATTANOOGA, TN, 37415",59334080,"L"
656962,"4703 N SPRINGFIELD","CHICAGO","IL",60625,41.9665794100001,-87.725530914,462,"4703 N SPRINGFIELD, CHICAGO, IL, 60625","Match","Non_Exact","4703 N SPRINGFIELD AVE, CHICAGO, IL, 60625",605187126,"R"
656963,"4703 NETA LANE","WICHITA FALLS","TX",76302,33.8621698360001,-98.497257164,463,"4703 NETA LANE, WICHITA FALLS, TX, 76302","Match","Exact","4703 NETA LN, WICHITA FALLS, TX, 76302",169846192,"L"
656964,"4703 NEW TOWN BLVD","OWINGS MILLS","MD",21117,39.399146339,-76.816747041,464,"4703 NEW TOWN BLVD, OWINGS MILLS, MD, 21117","Match","Exact","4703 NEW TOWN BLVD, OWINGS MILLS, MD, 21117",638538577,"R"
656965,"4703 NOPALITOS WAY","BRYAN","TX",77807,NA,NA,465,"4703 NOPALITOS WAY, BRYAN, TX, 77807","No_Match",NA,NA,NA,NA
656966,"4703 OAKWOOD DRIVE","HILLSBORO","MO",63050,38.2239693270001,-90.558501983,466,"4703 OAKWOOD DRIVE, HILLSBORO, MO, 63050","Match","Exact","4703 OAKWOOD DR, HILLSBORO, MO, 63050",62793320,"R"
656967,"4703 OLD SOPER ROAD","CAMP SPRINGS","MD",20746,38.824833745,-76.9126052249999,467,"4703 OLD SOPER ROAD, CAMP SPRINGS, MD, 20746","Match","Exact","4703 OLD SOPER RD, CAMP SPRINGS, MD, 20746",638235429,"R"
656968,"4703 PAMELA CIRCLE","SOUTH FULTON","TN",38257,36.4750582200001,-88.8605632059999,468,"4703 PAMELA CIRCLE, SOUTH FULTON, TN, 38257","Match","Exact","4703 PAMELA CIR, SOUTH FULTON, TN, 38257",30901156,"L"
656969,"4703 PINE CIRCLE","BELLAIRE","TX",77401,29.694016296,-95.4601006139999,469,"4703 PINE CIRCLE, BELLAIRE, TX, 77401","Match","Exact","4703 PINE CIR, BELLAIRE, TX, 77401",96573841,"R"
656970,"4703 PLYMOUTH WAY","MISSOURI CITY","TX",77459,29.598430991,-95.579918548,470,"4703 PLYMOUTH WAY, MISSOURI CITY, TX, 77459","Match","Exact","4703 PLYMOUTH WAY, MISSOURI CITY, TX, 77459",78290651,"L"
656971,"4703 RICHMARR PLACE","ALEXANDRIA","VA",22304,38.814940102,-77.1157320199999,471,"4703 RICHMARR PLACE, ALEXANDRIA, VA, 22304","Match","Exact","4703 RICHMARR PL, ALEXANDRIA, VA, 22304",75982986,"R"
656972,"4703 RIDGEFALL ROAD","GREENSBORO","NC",27410,36.147271188,-79.9321947729999,472,"4703 RIDGEFALL ROAD, GREENSBORO, NC, 27410","Match","Exact","4703 RIDGEFALL RD, GREENSBORO, NC, 27410",131100287,"R"
656973,"4703 ROCKINGCHAIR DR","VALRICO","FL",33596,27.869418168,-82.2637368119999,473,"4703 ROCKINGCHAIR DR, VALRICO, FL, 33596","Match","Exact","4703 ROCKINGCHAIR DR, VALRICO, FL, 33596",104600537,"R"
656974,"4703 SANDS RD","HARWOOD","MD",20776,38.852413733,-76.687833041,474,"4703 SANDS RD, HARWOOD, MD, 20776","Match","Exact","4703 SANDS RD, HARWOOD, MD, 20776",633218511,"L"
656975,"4703 SHAILMAR DR","NEW ORLEANS","LA",70126,30.0167628230001,-90.017716035,475,"4703 SHAILMAR DR, NEW ORLEANS, LA, 70126","Match","Non_Exact","4703 SHALIMAR DR, NEW ORLEANS, LA, 70126",191705415,"R"
656976,"4703 SHORELINE CT","PASCO","WA",99301,46.2708381690001,-119.248107521,476,"4703 SHORELINE CT, PASCO, WA, 99301","Match","Exact","4703 SHORELINE CT, PASCO, WA, 99301",635733568,"R"
656977,"4703 SOUTH EDMAR","IMPERIAL","MO",63052,38.413270541,-90.4301687179999,477,"4703 SOUTH EDMAR, IMPERIAL, MO, 63052","Match","Non_Exact","4703 S EDMAR DR, IMPERIAL, MO, 63052",62781498,"L"
656978,"4703 THREE OAKS RD","BALTIMORE","MD",21208,39.369760517,-76.759058185,478,"4703 THREE OAKS RD, BALTIMORE, MD, 21208","Match","Exact","4703 THREE OAKS RD, BALTIMORE, MD, 21208",191506524,"L"
656979,"4703 TRIPLE CROWN DR","BAKERSFIELD","CA",93312,35.402202823,-119.128558507,479,"4703 TRIPLE CROWN DR, BAKERSFIELD, CA, 93312","Match","Exact","4703 TRIPLE CROWN DR, BAKERSFIELD, CA, 93312",109136769,"L"
656980,"4703 VALLEY GLEN","CORONA","CA",92880,NA,NA,480,"4703 VALLEY GLEN, CORONA, CA, 92880","No_Match",NA,NA,NA,NA
656981,"4703 VIRGINIA WOODS","MCKINNEY","TX",75071,33.1995465000001,-96.6775468979999,481,"4703 VIRGINIA WOODS, MCKINNEY, TX, 75071","Match","Non_Exact","4703 VIRGINIA WOODS DR, MCKINNEY, TX, 75071",123539175,"L"
656982,"4703 W AMANDA DR","WASILLA","AK",99623,61.5945601220001,-149.568432972,482,"4703 W AMANDA DR, WASILLA, AK, 99623","Match","Exact","4703 W AMANDA DR, WASILLA, AK, 99623",646860337,"L"
656983,"4703 W BRADDOCK ROAD APT 202","ALEXANDRIA","VA",22311,38.835695274,-77.109234575,483,"4703 W BRADDOCK ROAD APT 202, ALEXANDRIA, VA, 22311","Match","Non_Exact","4703 W BRADDOCK RD, ALEXANDRIA, VA, 22311",638914220,"R"
656984,"4703 WEST LEONA ST","TAMPA","FL",33629,27.915317556,-82.525285884,484,"4703 WEST LEONA ST, TAMPA, FL, 33629","Match","Exact","4703 W LEONA ST, TAMPA, FL, 33629",104525408,"R"
656985,"4703 WEST NEBO DR","WEST JORDAN","UT",84088,40.605576903,-112.002578058,485,"4703 WEST NEBO DR, WEST JORDAN, UT, 84088","Match","Exact","4703 W NEBO DR, WEST JORDAN, UT, 84088",176143870,"L"
656986,"4703 WEST NEBO DRIVE","WEST JORDAN","UT",84088,40.605576903,-112.002578058,486,"4703 WEST NEBO DRIVE, WEST JORDAN, UT, 84088","Match","Exact","4703 W NEBO DR, WEST JORDAN, UT, 84088",176143870,"L"
656987,"4703 WESTERN AVE","OLIVEHURST","CA",95961,39.090135472,-121.556357203,487,"4703 WESTERN AVE, OLIVEHURST, CA, 95961","Match","Exact","4703 WESTERN AVE, OLIVEHURST, CA, 95961",106941917,"R"
656988,"4703 WOODWAY LANE NW","WASHINGTON","DC",20016,38.937007726,-77.093440202,488,"4703 WOODWAY LANE NW, WASHINGTON, DC, 20016","Match","Exact","4703 WOODWAY LN NW, WASHINGTON, DC, 20016",76219958,"R"
656989,"47030 PHILLIP STREET/SUITE A","SIOUX FALLS","SD",57108,NA,NA,489,"47030 PHILLIP STREET/SUITE A, SIOUX FALLS, SD, 57108","No_Match",NA,NA,NA,NA
656990,"47038 RIVERCREST DR","SHELBY TWP","MI",48315,42.6417562610001,-82.997370604,490,"47038 RIVERCREST DR, SHELBY TWP, MI, 48315","Match","Exact","47038 RIVERCREST DR, SHELBY TOWNSHIP, MI, 48315",110692127,"R"
656991,"4704 11TH STREET","LONG ISLAND CITY","NY",11101,NA,NA,491,"4704 11TH STREET, LONG ISLAND CITY, NY, 11101","No_Match",NA,NA,NA,NA
656992,"4704 17 STREET NW","WASHINGTON","DC",20011,38.9470383930001,-77.03881917,492,"4704 17 STREET NW, WASHINGTON, DC, 20011","Match","Exact","4704 17TH ST NW, WASHINGTON, DC, 20011",76222362,"L"
656993,"4704 ALCON DRIVE","TEMPLE HILLS","MD",20746,38.8103281200001,-76.9251543679999,493,"4704 ALCON DRIVE, TEMPLE HILLS, MD, 20746","Match","Non_Exact","4704 ALCON DR, TEMPLE HILLS, MD, 20748",76314830,"L"
656994,"4704 ALDRICH AVE S","MINNEAPOLIS","MN",55419,44.9175404740001,-93.289588325,494,"4704 ALDRICH AVE S, MINNEAPOLIS, MN, 55419","Match","Exact","4704 ALDRICH AVE S, MINNEAPOLIS, MN, 55419",43629094,"R"
656995,"4704 BAYTREE","FORT WORTH","TX",76137,32.8720568270001,-97.2828467419999,495,"4704 BAYTREE, FORT WORTH, TX, 76137","Match","Non_Exact","4704 BAYTREE DR, FORT WORTH, TX, 76137",101854419,"R"
656996,"4704 BROOKVILLE STREET","HAWTHORN","PA",16230,NA,NA,496,"4704 BROOKVILLE STREET, HAWTHORN, PA, 16230","No_Match",NA,NA,NA,NA
656997,"4704 CAPAY DRIVE NUMBER 3","SAN JOSE","CA",95118,37.2588694460001,-121.888491895,497,"4704 CAPAY DRIVE NUMBER 3, SAN JOSE, CA, 95118","Match","Exact","4704 CAPAY DR, SAN JOSE, CA, 95118",122999319,"R"
656998,"4704 CARSON HILL DR","AUSTIN","TX",78723,30.28815947,-97.677143843,498,"4704 CARSON HILL DR, AUSTIN, TX, 78723","Match","Non_Exact","4704 CARSONHILL DR, AUSTIN, TX, 78723",64000061,"L"
656999,"4704 CASSWELL DR","NEW PORT RICHEY","FL",34652,28.2322475660001,-82.73658913,499,"4704 CASSWELL DR, NEW PORT RICHEY, FL, 34652","Match","Exact","4704 CASSWELL DR, NEW PORT RICHEY, FL, 34652",647360145,"L"
657000,"4704 CASTOR DR","PUEBLO","CO",81001,NA,NA,500,"4704 CASTOR DR, PUEBLO, CO, 81001","No_Match",NA,NA,NA,NA
