"ID","Address","City","State","Zip","lat","long","id","input_address","match_indicator","match_type","matched_address","tiger_line_id","tiger_side"
678001,"500 BILMARK AVE","CHARLOTTE","NC",28213,35.2662424960001,-80.78093437,1,"500 BILMARK AVE, CHARLOTTE, NC, 28213","Match","Exact","500 BILMARK AVE, CHARLOTTE, NC, 28213",70557859,"R"
678002,"500 BILMARK","CHARLOTTE","NC",28213,35.2662424960001,-80.78093437,2,"500 BILMARK, CHARLOTTE, NC, 28213","Match","Non_Exact","500 BILMARK AVE, CHARLOTTE, NC, 28213",70557859,"R"
678003,"500 BLACK BEAR RD","BOZEMAN","MT",59718,NA,NA,3,"500 BLACK BEAR RD, BOZEMAN, MT, 59718","No_Match",NA,NA,NA,NA
678004,"500 BLACK RIVER ROAD","FAR HILLS","NJ",7931,40.67374977,-74.721829685,4,"500 BLACK RIVER ROAD, FAR HILLS, NJ, 7931","Match","Exact","500 BLACK RIVER RD, FAR HILLS, NJ, 07931",642916564,"R"
678005,"500 BLUFF VIEW DRIVE","GUILFORD","CT",6437,41.424301948,-72.698457947,5,"500 BLUFF VIEW DRIVE, GUILFORD, CT, 6437","Match","Exact","500 BLUFF VIEW DR, GUILFORD, CT, 06437",3746044,"L"
678006,"500 BONSALL ROAD","RIDLEY PARK","PA",19078,39.8734451820001,-75.335365328,6,"500 BONSALL ROAD, RIDLEY PARK, PA, 19078","Match","Exact","500 BONSALL RD, RIDLEY PARK, PA, 19078",134903370,"L"
678007,"500 BOSTON POST ROAD","MILFORD","CT",6460,41.2287541740001,-73.067834596,7,"500 BOSTON POST ROAD, MILFORD, CT, 6460","Match","Exact","500 BOSTON POST RD, MILFORD, CT, 06460",3713279,"L"
678008,"500 BOSTWICK AVE","BRIDGEPORT","CT",6611,NA,NA,8,"500 BOSTWICK AVE, BRIDGEPORT, CT, 6611","No_Match",NA,NA,NA,NA
678009,"500 BOULEVARD EAST","WEEHAWKIN","NJ",7086,NA,NA,9,"500 BOULEVARD EAST, WEEHAWKIN, NJ, 7086","No_Match",NA,NA,NA,NA
678010,"500 BOWMAN RD","SPRINGFIELD","OH",45505,39.930935515,-83.682397744,10,"500 BOWMAN RD, SPRINGFIELD, OH, 45505","Match","Exact","500 BOWMAN RD, SPRINGFIELD, OH, 45505",640455173,"R"
678011,"500 BOYD CIRCLE","NICEVILLE","FL",32578,30.5121969080001,-86.477900243,11,"500 BOYD CIRCLE, NICEVILLE, FL, 32578","Match","Exact","500 BOYD CIR, NICEVILLE, FL, 32578",74393511,"L"
678012,"500 BRADLEY AVE","TARBORO","NC",27886,35.9026125550001,-77.5320748089999,12,"500 BRADLEY AVE, TARBORO, NC, 27886","Match","Exact","500 BRADLEY AVE, TARBORO, NC, 27886",90178690,"L"
678013,"500 BRAEBURN COURT","WASHINGTON","MO",63090,38.5036490950001,-91.032774569,13,"500 BRAEBURN COURT, WASHINGTON, MO, 63090","Match","Exact","500 BRAEBURN CT, WASHINGTON, MO, 63090",625100037,"L"
678014,"500 BRASSEL ST","LOCKPORT","IL",60441,41.563094461,-88.058798203,14,"500 BRASSEL ST, LOCKPORT, IL, 60441","Match","Exact","500 BRASSEL ST, LOCKPORT, IL, 60441",111545660,"L"
678015,"500 BREAUX RD","LAFAYETTE","LA",70507,30.30369547,-92.036762825,15,"500 BREAUX RD, LAFAYETTE, LA, 70507","Match","Exact","500 BREAUX RD, LAFAYETTE, LA, 70507",643209454,"R"
678016,"500 Breezeway Drive","PEARL CITY","IL",61062,42.2599886420001,-89.8304009839999,16,"500 Breezeway Drive, PEARL CITY, IL, 61062","Match","Exact","500 BREEZEWAY DR, PEARL CITY, IL, 61062",32703938,"R"
678017,"500 BREEZEWAY DRIVE","PEARL CITY","IL",61062,42.2599886420001,-89.8304009839999,17,"500 BREEZEWAY DRIVE, PEARL CITY, IL, 61062","Match","Exact","500 BREEZEWAY DR, PEARL CITY, IL, 61062",32703938,"R"
678018,"500 BRENNAN LANE","FRANKLIN","TN",37067,35.9432459270001,-86.802226261,18,"500 BRENNAN LANE, FRANKLIN, TN, 37067","Match","Exact","500 BRENNAN LN, FRANKLIN, TN, 37067",73124777,"R"
678019,"500 BRIAN DR","SPARTANBURG","SC",29307,34.970317224,-81.860308978,19,"500 BRIAN DR, SPARTANBURG, SC, 29307","Match","Exact","500 BRIAN DR, SPARTANBURG, SC, 29307",631808512,"L"
678020,"500 BRIARWOOD DR","SOUTHLAKE","TX",76092,32.9459091960001,-97.121582302,20,"500 BRIARWOOD DR, SOUTHLAKE, TX, 76092","Match","Exact","500 BRIARWOOD DR, SOUTHLAKE, TX, 76092",102146182,"L"
678021,"500 BRIDGE STREET","YUBA CITY","CA",95991,39.1352658100001,-121.615572014,21,"500 BRIDGE STREET, YUBA CITY, CA, 95991","Match","Exact","500 BRIDGE ST, YUBA CITY, CA, 95991",68568815,"L"
678022,"500 BROAD AVE","LEONIA","NJ",7605,NA,NA,22,"500 BROAD AVE, LEONIA, NJ, 7605","No_Match",NA,NA,NA,NA
678023,"500 BROAD ST","NEWARK","NJ",7102,40.7445025270001,-74.1698012859999,23,"500 BROAD ST, NEWARK, NJ, 7102","Match","Exact","500 BROAD ST, NEWARK, NJ, 07102",63486107,"L"
678024,"500 BROADMEADOWS BLVD APT 305","COLUMBUS","OH",43214,40.0738719560001,-83.030685711,24,"500 BROADMEADOWS BLVD APT 305, COLUMBUS, OH, 43214","Match","Exact","500 BROADMEADOWS BLVD, COLUMBUS, OH, 43214",218686080,"R"
678025,"500 BROADWAY 3124","MALDEN","MA",2148,NA,NA,25,"500 BROADWAY 3124, MALDEN, MA, 2148","No_Match",NA,NA,NA,NA
678026,"500 BROADWAY APT 4141","MALDEN","MA",2148,NA,NA,26,"500 BROADWAY APT 4141, MALDEN, MA, 2148","No_Match",NA,NA,NA,NA
678027,"500 BROADWAY APT 5164","MALDEN","MA",2148,NA,NA,27,"500 BROADWAY APT 5164, MALDEN, MA, 2148","No_Match",NA,NA,NA,NA
678028,"500 BROADWAY UNIT A208","FARMINGTON","UT",84025,40.988460166,-111.910201169,28,"500 BROADWAY UNIT A208, FARMINGTON, UT, 84025","Match","Non_Exact","500 N BROADWAY, FARMINGTON, UT, 84025",645853103,"R"
678029,"500 BROOKSIDE DRIVE B","ANDOVER","MA",1810,42.6854911790001,-71.1970822919999,29,"500 BROOKSIDE DRIVE B, ANDOVER, MA, 1810","Match","Exact","500 BROOKSIDE DR, ANDOVER, MA, 01810",86671375,"R"
678030,"500 BROOKSIDE DRIVE","MADILL","OK",73446,NA,NA,30,"500 BROOKSIDE DRIVE, MADILL, OK, 73446","No_Match",NA,NA,NA,NA
678031,"500 BROWN STREET","MONROEVILLE","AL",36460,31.4308627780001,-87.333429624,31,"500 BROWN STREET, MONROEVILLE, AL, 36460","Match","Exact","500 BROWN ST, MONROEVILLE, AL, 36460",2015031,"R"
678032,"500 BRUSHY CREEK RD STE 504","CEDAR PARK","TX",78613,30.5049038970001,-97.814054836,32,"500 BRUSHY CREEK RD STE 504, CEDAR PARK, TX, 78613","Match","Exact","500 BRUSHY CREEK RD, CEDAR PARK, TX, 78613",126421582,"L"
678033,"500 BRYAN AVENUE","BADEN","PA",15005,40.6385168030001,-80.228918995,33,"500 BRYAN AVENUE, BADEN, PA, 15005","Match","Exact","500 BRYAN AVE, BADEN, PA, 15005",52568545,"R"
678034,"500 BUFFALO RIDGE ROAD","COLUMBIA","MO",65203,38.872664521,-92.3505862549999,34,"500 BUFFALO RIDGE ROAD, COLUMBIA, MO, 65203","Match","Non_Exact","500 W BUFFALO RIDGE RD, COLUMBIA, MO, 65203",648088802,"R"
678035,"500 BULLET HOLE ROAD","MAHOPAC","NY",10541,41.398473048,-73.7661367059999,35,"500 BULLET HOLE ROAD, MAHOPAC, NY, 10541","Match","Exact","500 BULLET HOLE RD, MAHOPAC, NY, 10541",139713161,"R"
678036,"500 BURNING TREE DR","ARNOLD","MD",21012,39.042992843,-76.472726001,36,"500 BURNING TREE DR, ARNOLD, MD, 21012","Match","Exact","500 BURNING TREE DR, ARNOLD, MD, 21012",68174487,"L"
678037,"500 BURTON AVENUE","CAMBRIDGE","MD",21613,38.557357623,-76.081937524,37,"500 BURTON AVENUE, CAMBRIDGE, MD, 21613","Match","Non_Exact","500 BURTON ST, CAMBRIDGE, MD, 21613",99662894,"L"
678038,"500 BUTTERFLY DRIVE","CHESAPEAKE","VA",23322,36.704348226,-76.255887296,38,"500 BUTTERFLY DRIVE, CHESAPEAKE, VA, 23322","Match","Exact","500 BUTTERFLY DR, CHESAPEAKE, VA, 23322",121778825,"R"
678039,"500 BUXTON COURT","WINDSOR","CT",6095,41.8884226540001,-72.630646852,39,"500 BUXTON COURT, WINDSOR, CT, 6095","Match","Exact","500 BUXTON CT, WINDSOR, CT, 06095",3484742,"R"
678040,"500 CALLE ANDALUCIA   APT 121","AGUADILLA","PR",603,NA,NA,40,"500 CALLE ANDALUCIA   APT 121, AGUADILLA, PR, 603","No_Match",NA,NA,NA,NA
678041,"500 CALMWATER LN","JOHNS CREEK","GA",30022,34.0414512520001,-84.2009670959999,41,"500 CALMWATER LN, JOHNS CREEK, GA, 30022","Match","Exact","500 CALMWATER LN, JOHNS CREEK, GA, 30022",17377238,"L"
678042,"500 CAMA STREET","CHARLOTTE","NC",28217,35.1918173500001,-80.8829183889999,42,"500 CAMA STREET, CHARLOTTE, NC, 28217","Match","Non_Exact","500 W CAMA ST, CHARLOTTE, NC, 28217",70484861,"R"
678043,"500 CAMINO ESCOLLO","SAN CLEMENTE","CA",92673,NA,NA,43,"500 CAMINO ESCOLLO, SAN CLEMENTE, CA, 92673","No_Match",NA,NA,NA,NA
678044,"500 CAMP LIGHT WAY","KNOXVILLE","TN",37923,35.9295030010001,-84.0583245449999,44,"500 CAMP LIGHT WAY, KNOXVILLE, TN, 37923","Match","Exact","500 CAMP LIGHT WAY, KNOXVILLE, TN, 37923",634002751,"R"
678045,"500 CANAL ST","NEW SMYRNA BEACH","FL",32168,29.0237084990001,-80.926074269,45,"500 CANAL ST, NEW SMYRNA BEACH, FL, 32168","Match","Exact","500 CANAL ST, NEW SMYRNA BEACH, FL, 32168",639408874,"L"
678046,"500 CANARY LANE","DESOTO","TX",75115,32.572490257,-96.848719019,46,"500 CANARY LANE, DESOTO, TX, 75115","Match","Exact","500 CANARY LN, DESOTO, TX, 75115",102954047,"R"
678047,"500 CANYON RIM DR","AUSTIN","TX",78746,30.2960793450001,-97.843686793,47,"500 CANYON RIM DR, AUSTIN, TX, 78746","Match","Exact","500 CANYON RIM DR, AUSTIN, TX, 78746",63937776,"R"
678048,"500 CAPE FEAR AVE","FAYETTEVILLE","NC",28303,35.0653016950001,-78.9094164809999,48,"500 CAPE FEAR AVE, FAYETTEVILLE, NC, 28303","Match","Exact","500 CAPE FEAR AVE, FAYETTEVILLE, NC, 28303",64199949,"R"
678049,"500 CAPE FEAR AVENUE","FAYETTEVILLE","NC",28303,35.0653016950001,-78.9094164809999,49,"500 CAPE FEAR AVENUE, FAYETTEVILLE, NC, 28303","Match","Exact","500 CAPE FEAR AVE, FAYETTEVILLE, NC, 28303",64199949,"R"
678050,"500 CAPITAL MALL 24TH FLOOR","SACRAMENTO","CA",95814,38.5787171750001,-121.501430743,50,"500 CAPITAL MALL 24TH FLOOR, SACRAMENTO, CA, 95814","Match","Non_Exact","500 CAPITOL MALL, SACRAMENTO, CA, 95814",133321855,"R"
678051,"500 CAPITAL MALL SUITE 2350","SACRAMENTO","CA",95814,38.5787171750001,-121.501430743,51,"500 CAPITAL MALL SUITE 2350, SACRAMENTO, CA, 95814","Match","Non_Exact","500 CAPITOL MALL, SACRAMENTO, CA, 95814",133321855,"R"
678052,"500 CAPITOL MALL STE 2350","SACRAMENTO","CA",95814,38.5787171750001,-121.501430743,52,"500 CAPITOL MALL STE 2350, SACRAMENTO, CA, 95814","Match","Exact","500 CAPITOL MALL, SACRAMENTO, CA, 95814",133321855,"R"
678053,"500 CAPITOL MALL SUITE 1550","SACRAMENTO","CA",95814,38.5787171750001,-121.501430743,53,"500 CAPITOL MALL SUITE 1550, SACRAMENTO, CA, 95814","Match","Exact","500 CAPITOL MALL, SACRAMENTO, CA, 95814",133321855,"R"
678054,"500 CAPITOL MALL SUITE 2200","SACRAMENTO","CA",95814,38.5787171750001,-121.501430743,54,"500 CAPITOL MALL SUITE 2200, SACRAMENTO, CA, 95814","Match","Exact","500 CAPITOL MALL, SACRAMENTO, CA, 95814",133321855,"R"
678055,"500 CAPITOL MALL SUITE 2350","SACRAMENTO","CA",95814,38.5787171750001,-121.501430743,55,"500 CAPITOL MALL SUITE 2350, SACRAMENTO, CA, 95814","Match","Exact","500 CAPITOL MALL, SACRAMENTO, CA, 95814",133321855,"R"
678056,"500 CAPITOL MALL","SACRAMENTO","CA",95814,38.5787171750001,-121.501430743,56,"500 CAPITOL MALL, SACRAMENTO, CA, 95814","Match","Exact","500 CAPITOL MALL, SACRAMENTO, CA, 95814",133321855,"R"
678057,"500 CARSON","PENSACOLA","FL",32507,30.3253001360001,-87.390478249,57,"500 CARSON, PENSACOLA, FL, 32507","Match","Non_Exact","500 CARSON DR, PENSACOLA, FL, 32507",93260045,"L"
678058,"500 CARTER DRIVE","COPPELL","TX",75019,32.9572586130001,-96.979881796,58,"500 CARTER DRIVE, COPPELL, TX, 75019","Match","Exact","500 CARTER DR, COPPELL, TX, 75019",642781710,"L"
678059,"500 CARTER OAK DRIVE","SHERMAN","IL",62684,39.8898414550001,-89.588713835,59,"500 CARTER OAK DRIVE, SHERMAN, IL, 62684","Match","Non_Exact","500 CHARTER OAK DR, SHERMAN, IL, 62684",97311541,"L"
678060,"500 CASTLE DRIVE APT B","BALTIMORE","MD",21212,39.3722314190001,-76.6073959889999,60,"500 CASTLE DRIVE APT B, BALTIMORE, MD, 21212","Match","Exact","500 CASTLE DR, BALTIMORE, MD, 21212",191474094,"L"
678061,"500 CEDAR LANE","COLUMBIA","MO",65205,38.955693071,-92.2798352889999,61,"500 CEDAR LANE, COLUMBIA, MO, 65205","Match","Non_Exact","500 CEDAR LN, COLUMBIA, MO, 65201",23491471,"L"
678062,"500 CEDAR STREET","EVANSTON","WY",82930,41.2755067800001,-110.95896233,62,"500 CEDAR STREET, EVANSTON, WY, 82930","Match","Exact","500 CEDAR ST, EVANSTON, WY, 82930",160278322,"R"
678063,"500 CEDAR STREET","UNIONDALE","NY",11553,40.7048827260001,-73.597694831,63,"500 CEDAR STREET, UNIONDALE, NY, 11553","Match","Exact","500 CEDAR ST, UNIONDALE, NY, 11553",147628371,"R"
678064,"500 CENTRAL AVE 1520","NEW JERSEY","NJ",7087,40.7563975940001,-74.04300533,64,"500 CENTRAL AVE 1520, NEW JERSEY, NJ, 7087","Match","Non_Exact","500 CENTRAL AVE, UNION CITY, NJ, 07087",59597786,"R"
678065,"500 CENTRAL AVE APT 1602","UNION CITY","NJ",7087,40.7563975940001,-74.04300533,65,"500 CENTRAL AVE APT 1602, UNION CITY, NJ, 7087","Match","Exact","500 CENTRAL AVE, UNION CITY, NJ, 07087",59597786,"R"
678066,"500 CENTRAL AVE","UNION CITY","NJ",7087,40.7563975940001,-74.04300533,66,"500 CENTRAL AVE, UNION CITY, NJ, 7087","Match","Exact","500 CENTRAL AVE, UNION CITY, NJ, 07087",59597786,"R"
678067,"500 CENTRAL AVENUE","CROYDON","PA",19021,40.0930154850001,-74.891306404,67,"500 CENTRAL AVENUE, CROYDON, PA, 19021","Match","Exact","500 CENTRAL AVE, CROYDON, PA, 19021",134716695,"R"
678068,"500 CENTRAL PARK AVENUE APT 223","SCARSDALE","NY",10583,41.0046546890001,-73.812248826,68,"500 CENTRAL PARK AVENUE APT 223, SCARSDALE, NY, 10583","Match","Exact","500 CENTRAL PARK AVE, SCARSDALE, NY, 10583",139832127,"R"
678069,"500 CENTRAL PARK DRIVE APT 1110","OKLAHOMA CITY","OK",73105,35.5261233580001,-97.5055881929999,69,"500 CENTRAL PARK DRIVE APT 1110, OKLAHOMA CITY, OK, 73105","Match","Exact","500 CENTRAL PARK DR, OKLAHOMA CITY, OK, 73105",100438481,"L"
678070,"500 CENTRAL PARK DRIVE APT 512","OKLAHOMA CITY","OK",73106,35.5261233580001,-97.5055881929999,70,"500 CENTRAL PARK DRIVE APT 512, OKLAHOMA CITY, OK, 73106","Match","Non_Exact","500 CENTRAL PARK DR, OKLAHOMA CITY, OK, 73105",100438481,"L"
678071,"500 CENTRAL PARK DRIVE APT 520","OKLAHOMA CITY","OK",73105,35.5261233580001,-97.5055881929999,71,"500 CENTRAL PARK DRIVE APT 520, OKLAHOMA CITY, OK, 73105","Match","Exact","500 CENTRAL PARK DR, OKLAHOMA CITY, OK, 73105",100438481,"L"
678072,"500 CHALLEDON DRIVE","COLUMBIA","SC",29229,34.0621134020001,-81.160628996,72,"500 CHALLEDON DRIVE, COLUMBIA, SC, 29229","Match","Non_Exact","500 CHALLEDON DR, COLUMBIA, SC, 29212",70049546,"L"
678073,"500 CHANDLER DR","BAYTOWN","TX",77521,29.753944963,-94.957962718,73,"500 CHANDLER DR, BAYTOWN, TX, 77521","Match","Exact","500 CHANDLER DR, BAYTOWN, TX, 77521",96109983,"L"
678074,"500 CHANTRY FLATS RD","RENO","NV",89510,39.720079282,-119.577007035,74,"500 CHANTRY FLATS RD, RENO, NV, 89510","Match","Exact","500 CHANTRY FLATS RD, RENO, NV, 89510",107099782,"L"
678075,"500 CHARLES STREET","PERTH AMBOY","NJ",8861,40.518044065,-74.2668789639999,75,"500 CHARLES STREET, PERTH AMBOY, NJ, 8861","Match","Exact","500 CHARLES ST, PERTH AMBOY, NJ, 08861",60281084,"R"
678076,"500 CHARLOTTE AVENUE","NASHVILLE","TN",37243,36.1655418130001,-86.782659084,76,"500 CHARLOTTE AVENUE, NASHVILLE, TN, 37243","Match","Exact","500 CHARLOTTE AVE, NASHVILLE, TN, 37243",97187900,"R"
678077,"500 CHASE PARK S STE 104","BIRMINGHAM","AL",35244,NA,NA,77,"500 CHASE PARK S STE 104, BIRMINGHAM, AL, 35244","No_Match",NA,NA,NA,NA
678078,"500 CIELO AZUL","CORRALES","NM",87048,35.224356911,-106.648793596,78,"500 CIELO AZUL, CORRALES, NM, 87048","Match","Exact","500 CIELO AZUL, CORRALES, NM, 87048",645289788,"R"
678079,"500 CLEGERN DR","EDMOND","OK",73034,35.6497468150001,-97.4734830469999,79,"500 CLEGERN DR, EDMOND, OK, 73034","Match","Exact","500 CLEGERN DR, EDMOND, OK, 73034",100408473,"R"
678080,"500 CLEVELAND AVE 500 UNIT 107","ATLANTA","GA",30354,33.6814127640001,-84.369377215,80,"500 CLEVELAND AVE 500 UNIT 107, ATLANTA, GA, 30354","Match","Non_Exact","500 CLEVELAND AVE SE, ATLANTA, GA, 30354",619890917,"L"
678081,"500 CLEVELAND AVENUE SE","ATLANTA","GA",30354,33.6814127640001,-84.369377215,81,"500 CLEVELAND AVENUE SE, ATLANTA, GA, 30354","Match","Exact","500 CLEVELAND AVE SE, ATLANTA, GA, 30354",619890917,"L"
678082,"500 CLEVELAND AVENUE SUITE 126","ATLANTA","GA",30354,33.6814127640001,-84.369377215,82,"500 CLEVELAND AVENUE SUITE 126, ATLANTA, GA, 30354","Match","Non_Exact","500 CLEVELAND AVE SE, ATLANTA, GA, 30354",619890917,"L"
678083,"500 CLIFTON BLUE ST","WAKE FOREST","NC",27587,35.961909344,-78.499545435,83,"500 CLIFTON BLUE ST, WAKE FOREST, NC, 27587","Match","Exact","500 CLIFTON BLUE ST, WAKE FOREST, NC, 27587",625612195,"R"
678084,"500 COACHLIGHT DRIVE","BENTONVILLE","AR",72712,36.3775570810001,-94.229904859,84,"500 COACHLIGHT DRIVE, BENTONVILLE, AR, 72712","Match","Exact","500 COACHLIGHT DR, BENTONVILLE, AR, 72712",47848832,"R"
678085,"500 COBB ST APT 107","DURHAM","NC",27701,35.9890822880001,-78.9078748599999,85,"500 COBB ST APT 107, DURHAM, NC, 27701","Match","Non_Exact","500 W COBB ST, DURHAM, NC, 27701",71740508,"R"
678086,"500 COBBLESTONE CREEK COURT","MABLETON","GA",30126,33.810913876,-84.539219111,86,"500 COBBLESTONE CREEK COURT, MABLETON, GA, 30126","Match","Exact","500 COBBLESTONE CREEK CT, MABLETON, GA, 30126",618315253,"L"
678087,"500 COIT ROAD APT 325","PLANO","TX",75075,33.00601378,-96.767624832,87,"500 COIT ROAD APT 325, PLANO, TX, 75075","Match","Exact","500 COIT RD, PLANO, TX, 75075",650105639,"R"
678088,"500 COLLEGE AVE","SWARTHMORE","PA",19081,39.906434743,-75.3510435699999,88,"500 COLLEGE AVE, SWARTHMORE, PA, 19081","Match","Exact","500 COLLEGE AVE, SWARTHMORE, PA, 19081",134879185,"L"
678089,"500 COLLEGE AVENUE","RACINE","WI",53403,42.7278758100001,-87.785264529,89,"500 COLLEGE AVENUE, RACINE, WI, 53403","Match","Exact","500 COLLEGE AVE, RACINE, WI, 53403",77910447,"R"
678090,"500 COLLEGE AVENUE","WHEATON","IL",60187,41.867223021,-88.099367415,90,"500 COLLEGE AVENUE, WHEATON, IL, 60187","Match","Exact","500 COLLEGE AVE, WHEATON, IL, 60187",636318676,"R"
678091,"500 COLLEGE DRIVE","LAKE JACKSON","TX",77566,NA,NA,91,"500 COLLEGE DRIVE, LAKE JACKSON, TX, 77566","No_Match",NA,NA,NA,NA
678092,"500 COLLEGE HILL - WILLIAM JEWEL","LIBERTY","MO",64068,39.251867943,-94.4117030369999,92,"500 COLLEGE HILL - WILLIAM JEWEL, LIBERTY, MO, 64068","Match","Non_Exact","500 COLLEGE HILL ST, LIBERTY, MO, 64068",616143533,"R"
678093,"500 COLLEGE HILL","LIBERTY","MO",64068,NA,NA,93,"500 COLLEGE HILL, LIBERTY, MO, 64068","Tie",NA,NA,NA,NA
678094,"500 COLONIAL CENTER PKWY STE 500","ROSWELL","GA",30076,34.043594098,-84.322228213,94,"500 COLONIAL CENTER PKWY STE 500, ROSWELL, GA, 30076","Match","Exact","500 COLONIAL CENTER PKWY, ROSWELL, GA, 30076",647354027,"R"
678095,"500 COLONIAL DRIVE","CLARKSDALE","MS",38614,34.233292084,-90.573542286,95,"500 COLONIAL DRIVE, CLARKSDALE, MS, 38614","Match","Exact","500 COLONIAL DR, CLARKSDALE, MS, 38614",950546,"L"
678096,"500 COLONIAL RD","ROGERSVILLE","TN",37857,NA,NA,96,"500 COLONIAL RD, ROGERSVILLE, TN, 37857","No_Match",NA,NA,NA,NA
678097,"500 COLTON CREEK RD SUITE 202","MIDLOTHIAN","VA",23113,37.5134336290001,-77.684049871,97,"500 COLTON CREEK RD SUITE 202, MIDLOTHIAN, VA, 23113","Match","Exact","500 COLTON CREEK RD, MIDLOTHIAN, VA, 23113",642988953,"R"
678098,"500 COMANCHE WAY","DALE","TX",78616,30.0120461670001,-97.6229200989999,98,"500 COMANCHE WAY, DALE, TX, 78616","Match","Exact","500 COMANCHE WAY, DALE, TX, 78616",45547282,"R"
678099,"500 COMMERCE DRIVE - SUITE 110","MOON TOWNSHIP","PA",15108,40.5039568500001,-80.212165515,99,"500 COMMERCE DRIVE - SUITE 110, MOON TOWNSHIP, PA, 15108","Match","Exact","500 COMMERCE DR, MOON TOWNSHIP, PA, 15108",51919590,"R"
678100,"500 COMMERCIAL ST","ELKO","NV",89801,40.831799447,-115.761775734,100,"500 COMMERCIAL ST, ELKO, NV, 89801","Match","Exact","500 COMMERCIAL ST, ELKO, NV, 89801",154549050,"R"
678101,"500 COMMONWEALTH AVENUE","ALEXANDRIA","VA",22301,38.8122450210001,-77.061617008,101,"500 COMMONWEALTH AVENUE, ALEXANDRIA, VA, 22301","Match","Exact","500 COMMONWEALTH AVE, ALEXANDRIA, VA, 22301",75988076,"L"
678102,"500 COMMONWEALTH DR","WARRENDALE","PA",15086,40.672954836,-80.1041588149999,102,"500 COMMONWEALTH DR, WARRENDALE, PA, 15086","Match","Exact","500 COMMONWEALTH DR, WARRENDALE, PA, 15086",607661422,"R"
678103,"500 CONCRETE WORKS ROAD","WINSTON SALEM","NC",27107,35.953855397,-80.177721589,103,"500 CONCRETE WORKS ROAD, WINSTON SALEM, NC, 27107","Match","Exact","500 CONCRETE WORKS RD, WINSTON SALEM, NC, 27107",604800102,"L"
678104,"500 CONRAD HILTON","CISCO","TX",76437,32.3904623990001,-98.9808646019999,104,"500 CONRAD HILTON, CISCO, TX, 76437","Match","Non_Exact","500 CONRAD HILTON BLVD, CISCO, TX, 76437",158683852,"L"
678105,"500 COPE CREEK RD  5","SYLVA","NC",28779,35.373881499,-83.1979726499999,105,"500 COPE CREEK RD  5, SYLVA, NC, 28779","Match","Exact","500 COPE CREEK RD, SYLVA, NC, 28779",642173008,"R"
678106,"500 CORTLAND AVE","SAN FRANCISCO","CA",94110,37.7390542750001,-122.416469549,106,"500 CORTLAND AVE, SAN FRANCISCO, CA, 94110","Match","Exact","500 CORTLAND AVE, SAN FRANCISCO, CA, 94110",192288662,"R"
678107,"500 COUNTY ROAD 4605","BOGATA","TX",75417,33.4545350130001,-95.052917339,107,"500 COUNTY ROAD 4605, BOGATA, TX, 75417","Match","Exact","500 CO RD 4605, BOGATA, TX, 75417",68960239,"L"
678108,"500 COUNTY ROAD 6102","NACOGDOCHES","TX",75964,31.557618539,-94.693256248,108,"500 COUNTY ROAD 6102, NACOGDOCHES, TX, 75964","Match","Exact","500 CO RD 6102, NACOGDOCHES, TX, 75964",618185326,"R"
678109,"500 COVE ROAD","ASHLAND","OR",97520,42.234329195,-122.563906006,109,"500 COVE ROAD, ASHLAND, OR, 97520","Match","Exact","500 COVE RD, ASHLAND, OR, 97520",640101984,"L"
678110,"500 COVENTRY RD","KENSINGTON","CA",94707,37.901163146,-122.282499435,110,"500 COVENTRY RD, KENSINGTON, CA, 94707","Match","Exact","500 COVENTRY RD, KENSINGTON, CA, 94707",192044337,"R"
678111,"500 CRAWFORD ST APT 732","HOUSTON","TX",77002,29.757572774,-95.3567948529999,111,"500 CRAWFORD ST APT 732, HOUSTON, TX, 77002","Match","Exact","500 CRAWFORD ST, HOUSTON, TX, 77002",96069584,"R"
678112,"500 CREEK CROSSING LANE","GLEN BURNIE","MD",21090,39.158184492,-76.594684724,112,"500 CREEK CROSSING LANE, GLEN BURNIE, MD, 21090","Match","Non_Exact","500 CREEK CROSSING LN, GLEN BURNIE, MD, 21060",68194583,"R"
678113,"500 CREEK ROAD","DRIPPING SPRINGS","TX",78620,30.1896705710001,-98.099361286,113,"500 CREEK ROAD, DRIPPING SPRINGS, TX, 78620","Match","Exact","500 CREEK RD, DRIPPING SPRINGS, TX, 78620",635383454,"L"
678114,"500 CREEK VIEW ROAD STE 502","NEWARK","DE",19711,39.689332968,-75.745120137,114,"500 CREEK VIEW ROAD STE 502, NEWARK, DE, 19711","Match","Exact","500 CREEK VIEW RD, NEWARK, DE, 19711",187262951,"L"
678115,"500 CREEKSIDE LANE","MORGAN HILL","CA",95037,37.129595223,-121.643383206,115,"500 CREEKSIDE LANE, MORGAN HILL, CA, 95037","Match","Exact","500 CREEKSIDE LN, MORGAN HILL, CA, 95037",123157811,"L"
678116,"500 CRESCENT DR  B","TROY","OH",45373,40.0367169900001,-84.222436692,116,"500 CRESCENT DR  B, TROY, OH, 45373","Match","Exact","500 CRESCENT DR, TROY, OH, 45373",641747632,"R"
678117,"500 CREST CIRCLE SOUTH","JASPER","AL",35501,33.8394258640001,-87.270023959,117,"500 CREST CIRCLE SOUTH, JASPER, AL, 35501","Match","Exact","500 CREST CIR S, JASPER, AL, 35501",120545712,"L"
678118,"500 CROSS CREEK LANE","TAYLORSVILLE","KY",40071,38.085210998,-85.475484382,118,"500 CROSS CREEK LANE, TAYLORSVILLE, KY, 40071","Match","Exact","500 CROSS CREEK LN, TAYLORSVILLE, KY, 40071",47752011,"L"
678119,"500 CROSS MOUNTAIN DRIVE","FREDERICKSBURG","TX",78624,30.2923386900001,-98.869819665,119,"500 CROSS MOUNTAIN DRIVE, FREDERICKSBURG, TX, 78624","Match","Exact","500 CROSS MOUNTAIN DR, FREDERICKSBURG, TX, 78624",176836217,"L"
678120,"500 CRUISER LN","ATLANTIC BEACH","FL",32233,30.3298870670001,-81.4046195499999,120,"500 CRUISER LN, ATLANTIC BEACH, FL, 32233","Match","Exact","500 CRUISER LN, ATLANTIC BCH, FL, 32233",83907581,"L"
678121,"500 CULPEPPER ROAD","LEXINGTON","KY",40502,38.019298904,-84.4802768,121,"500 CULPEPPER ROAD, LEXINGTON, KY, 40502","Match","Exact","500 CULPEPPER RD, LEXINGTON, KY, 40502",31923814,"L"
678122,"500 CUMBERLAND AVENUE","WHITEHALL","OH",43213,39.9658084930001,-82.8712571199999,122,"500 CUMBERLAND AVENUE, WHITEHALL, OH, 43213","Match","Non_Exact","500 CUMBERLAND DR, WHITEHALL, OH, 43213",218649829,"L"
678123,"500 CUMMINGS CENTER SUITE 4400","BEVERLY","MA",1915,NA,NA,123,"500 CUMMINGS CENTER SUITE 4400, BEVERLY, MA, 1915","No_Match",NA,NA,NA,NA
678124,"500 CUMMINGS CENTER SUITE 4440","BEVERLY","MA",1915,NA,NA,124,"500 CUMMINGS CENTER SUITE 4440, BEVERLY, MA, 1915","No_Match",NA,NA,NA,NA
678125,"500 CUMMINGS CENTER SUITE 4550","BEVERLY","MA",1915,NA,NA,125,"500 CUMMINGS CENTER SUITE 4550, BEVERLY, MA, 1915","No_Match",NA,NA,NA,NA
678126,"500 CYNTHIA RD","GREENSBORO","NC",27406,35.983578349,-79.7873519669999,126,"500 CYNTHIA RD, GREENSBORO, NC, 27406","Match","Exact","500 CYNTHIA RD, GREENSBORO, NC, 27406",131046763,"L"
678127,"500 DALLAS SUITE 3030","HOUSTON","TX",77002,29.7579855610001,-95.3703502229999,127,"500 DALLAS SUITE 3030, HOUSTON, TX, 77002","Match","Non_Exact","500 DALLAS ST, HOUSTON, TX, 77002",96067520,"R"
678128,"500 DALRAIDA DR","MONTGOMERY","AL",36109,32.391188798,-86.2454097949999,128,"500 DALRAIDA DR, MONTGOMERY, AL, 36109","Match","Non_Exact","500 DALRAIDA RD, MONTGOMERY, AL, 36109",1471916,"R"
678129,"500 DAMONTE RANCH PKWY STE 860","RENO","NV",89521,39.4206681640001,-119.753115812,129,"500 DAMONTE RANCH PKWY STE 860, RENO, NV, 89521","Match","Exact","500 DAMONTE RANCH PKWY, RENO, NV, 89521",647885381,"R"
678130,"500 DAVIS AVE","LINWOOD","NJ",8221,NA,NA,130,"500 DAVIS AVE, LINWOOD, NJ, 8221","No_Match",NA,NA,NA,NA
678131,"500 DAVIS AVE","STERLINGTON","LA",71280,NA,NA,131,"500 DAVIS AVE, STERLINGTON, LA, 71280","No_Match",NA,NA,NA,NA
678132,"500 DAYTON STREET","KENNWICK","WA",99336,NA,NA,132,"500 DAYTON STREET, KENNWICK, WA, 99336","Tie",NA,NA,NA,NA
678133,"500 DEAL RD","DYERSBURG","TN",38024,36.0828189810001,-89.426962793,133,"500 DEAL RD, DYERSBURG, TN, 38024","Match","Exact","500 DEAL RD, DYERSBURG, TN, 38024",607814524,"R"
678134,"500 DEEPWOODS DRIVE","VALLEY GRANDE","AL",36701,32.48705274,-87.014190892,134,"500 DEEPWOODS DRIVE, VALLEY GRANDE, AL, 36701","Match","Exact","500 DEEPWOODS DR, VALLEY GRANDE, AL, 36701",1282527,"R"
678135,"500 DEERFIELD DR","PEKIN","IL",61554,40.550045686,-89.645280443,135,"500 DEERFIELD DR, PEKIN, IL, 61554","Match","Exact","500 DEERFIELD DR, PEKIN, IL, 61554",22519630,"R"
678136,"500 DEQUEEN ST","MENA","AR",71953,34.5852592950001,-94.2386059359999,136,"500 DEQUEEN ST, MENA, AR, 71953","Match","Exact","500 DEQUEEN ST, MENA, AR, 71953",34506089,"R"
678137,"500 DICKSON ST","ENDICOTT","NY",13760,42.0955540310001,-76.072667801,137,"500 DICKSON ST, ENDICOTT, NY, 13760","Match","Exact","500 DICKSON ST, ENDICOTT, NY, 13760",46372393,"L"
678138,"500 DILLARD RD","FORT DAVIS","TX",79734,30.5441667010001,-104.027436142,138,"500 DILLARD RD, FORT DAVIS, TX, 79734","Match","Exact","500 DILLARD RD, FORT DAVIS, TX, 79734",641059100,"R"
678139,"500 DODDS AVENUE","CHATTANOOGA","TN",37404,35.029773649,-85.265020898,139,"500 DODDS AVENUE, CHATTANOOGA, TN, 37404","Match","Exact","500 DODDS AVE, CHATTANOOGA, TN, 37404",59309516,"L"
678140,"500 DOGWOOD AVE","EGG HARBOR TOWNSHIP","NJ",8234,39.4079393810001,-74.631692933,140,"500 DOGWOOD AVE, EGG HARBOR TOWNSHIP, NJ, 8234","Match","Exact","500 DOGWOOD AVE, EGG HARBOR TOWNSHIP, NJ, 08234",202481394,"L"
678141,"500 DONA ANA SCHOOL RD","LAS CRUCES","NM",88007,32.3854634140001,-106.808680237,141,"500 DONA ANA SCHOOL RD, LAS CRUCES, NM, 88007","Match","Non_Exact","500 E DONA ANA SCHOOL RD, LAS CRUCES, NM, 88007",616320138,"R"
678142,"500 DORRINGTON CT","ROSEVILLE","CA",95661,38.763787182,-121.226385122,142,"500 DORRINGTON CT, ROSEVILLE, CA, 95661","Match","Exact","500 DORRINGTON CT, ROSEVILLE, CA, 95661",608083677,"R"
678143,"500 DORSET ST","SOUTH BURLINGTON","VT",5403,NA,NA,143,"500 DORSET ST, SOUTH BURLINGTON, VT, 5403","No_Match",NA,NA,NA,NA
678144,"500 DR MLK JR PL N","CONROE","TX",77301,NA,NA,144,"500 DR MLK JR PL N, CONROE, TX, 77301","No_Match",NA,NA,NA,NA
678145,"500 DRAGON DR","JASPER","GA",30143,34.442436785,-84.3976989399999,145,"500 DRAGON DR, JASPER, GA, 30143","Match","Exact","500 DRAGON DR, JASPER, GA, 30143",70212943,"L"
678146,"500 DRAGON DRIVE","JASPER","GA",30143,34.442436785,-84.3976989399999,146,"500 DRAGON DRIVE, JASPER, GA, 30143","Match","Exact","500 DRAGON DR, JASPER, GA, 30143",70212943,"L"
678147,"500 DRAYTON STREET","WINNSBORO","SC",29180,34.3854427740001,-81.094893967,147,"500 DRAYTON STREET, WINNSBORO, SC, 29180","Match","Exact","500 DRAYTON ST, WINNSBORO, SC, 29180",40614961,"R"
678148,"500 DRY VALLEY RD APT D202","COOKEVILLE","TN",38506,NA,NA,148,"500 DRY VALLEY RD APT D202, COOKEVILLE, TN, 38506","No_Match",NA,NA,NA,NA
678149,"500 DRY VALLEY ROAD APT C304","COOKEVILLE","TN",38506,NA,NA,149,"500 DRY VALLEY ROAD APT C304, COOKEVILLE, TN, 38506","No_Match",NA,NA,NA,NA
678150,"500 DRYER AVENUE","FAIRHOPE","AL",36532,NA,NA,150,"500 DRYER AVENUE, FAIRHOPE, AL, 36532","No_Match",NA,NA,NA,NA
678151,"500 DUCK CREEK PARKWAY","SMYRNA","DE",19977,39.3018062020001,-75.62721261,151,"500 DUCK CREEK PARKWAY, SMYRNA, DE, 19977","Match","Exact","500 DUCK CREEK PKWY, SMYRNA, DE, 19977",648167778,"R"
678152,"500 DUKE GIBSON DR","KANSAS CITY","MO",64145,38.892728242,-94.601241992,152,"500 DUKE GIBSON DR, KANSAS CITY, MO, 64145","Match","Exact","500 DUKE GIBSON DR, KANSAS CITY, MO, 64145",91492218,"R"
678153,"500 DUNWOODY COURT","FRANKLIN","TN",37069,35.9496978820001,-86.864885214,153,"500 DUNWOODY COURT, FRANKLIN, TN, 37069","Match","Exact","500 DUNWOODY CT, FRANKLIN, TN, 37069",73123551,"R"
678154,"500 DUPONT CIRCLE","DURHAM","NC",27705,36.016301551,-78.9547318309999,154,"500 DUPONT CIRCLE, DURHAM, NC, 27705","Match","Exact","500 DUPONT CIR, DURHAM, NC, 27705",623992390,"L"
678155,"500 DURAZNO STREET","TULAROSA","NM",88352,33.0744595250001,-106.020082525,155,"500 DURAZNO STREET, TULAROSA, NM, 88352","Match","Exact","500 DURAZNO ST, TULAROSA, NM, 88352",132309310,"L"
678156,"500 DUSTY RD","BOONVILLE","IN",47601,38.0655360380001,-87.234516889,156,"500 DUSTY RD, BOONVILLE, IN, 47601","Match","Exact","500 DUSTY RD, BOONVILLE, IN, 47601",639772465,"L"
678157,"500 DUVAL STREET","ST. AUGUSTINE","FL",32084,29.886525293,-81.340929613,157,"500 DUVAL STREET, ST. AUGUSTINE, FL, 32084","Match","Exact","500 DUVAL ST, SAINT AUGUSTINE, FL, 32084",92582596,"R"
678158,"500 E 147TH ST APT 1","BRONX","NY",10455,40.813561017,-73.915560173,158,"500 E 147TH ST APT 1, BRONX, NY, 10455","Match","Non_Exact","500 E 147TH ST, BRONX, NY, 10455",80300776,"R"
678159,"500 E 14TH AVE CT","COAL VALLEY","IL",61240,41.4373949860001,-90.455569296,159,"500 E 14TH AVE CT, COAL VALLEY, IL, 61240","Match","Exact","500 E 14TH AVENUE CT, COAL VALLEY, IL, 61240",9228051,"R"
678160,"500 E 165 ST 5L","BRONX","NY",10456,40.826818782,-73.9087706569999,160,"500 E 165 ST 5L, BRONX, NY, 10456","Match","Non_Exact","500 E 165TH ST, BRONX, NY, 10456",80300620,"R"
678161,"500 E 165TH STREET UNIT 6T","BRONX","NY",10456,40.826818782,-73.9087706569999,161,"500 E 165TH STREET UNIT 6T, BRONX, NY, 10456","Match","Non_Exact","500 E 165TH ST, BRONX, NY, 10456",80300620,"R"
678162,"500 E 17TH","ELLIS","KS",67637,38.929515032,-99.555297772,162,"500 E 17TH, ELLIS, KS, 67637","Match","Non_Exact","500 E 17TH ST, ELLIS, KS, 67637",149801526,"L"
678163,"500 E 31ST ST APT 111","BRYAN","TX",77803,NA,NA,163,"500 E 31ST ST APT 111, BRYAN, TX, 77803","Tie",NA,NA,NA,NA
678164,"500 E 33RD APT 2011","CHICAGO","IL",60616,NA,NA,164,"500 E 33RD APT 2011, CHICAGO, IL, 60616","No_Match",NA,NA,NA,NA
678165,"500 E 33RD ST UNIT 2203","CHICAGO","IL",60616,NA,NA,165,"500 E 33RD ST UNIT 2203, CHICAGO, IL, 60616","Tie",NA,NA,NA,NA
678166,"500 E 33RD ST UNIT 806","CHICAGO","IL",60616,NA,NA,166,"500 E 33RD ST UNIT 806, CHICAGO, IL, 60616","Tie",NA,NA,NA,NA
678167,"500 E 33RD STREET APT 1515","CHICAGO","IL",60616,NA,NA,167,"500 E 33RD STREET APT 1515, CHICAGO, IL, 60616","Tie",NA,NA,NA,NA
678168,"500 E 33RD STREET U","CHICAGO","IL",60616,NA,NA,168,"500 E 33RD STREET U, CHICAGO, IL, 60616","Tie",NA,NA,NA,NA
678169,"500 E 3RD ST APT 429","DAYTON","OH",45402,NA,NA,169,"500 E 3RD ST APT 429, DAYTON, OH, 45402","Tie",NA,NA,NA,NA
678170,"500 E 4TH ST STE 525","AUSTIN","TX",78701,NA,NA,170,"500 E 4TH ST STE 525, AUSTIN, TX, 78701","Tie",NA,NA,NA,NA
678171,"500 E 63RD ST","NEW YORK","NY",10065,40.7611453800001,-73.9578247319999,171,"500 E 63RD ST, NEW YORK, NY, 10065","Match","Exact","500 E 63RD ST, NEW YORK, NY, 10065",59658458,"R"
678172,"500 E 67TH STREET","CHICAGO","IL",60637,41.7730205460001,-87.612945053,172,"500 E 67TH STREET, CHICAGO, IL, 60637","Match","Exact","500 E 67TH ST, CHICAGO, IL, 60637",111772389,"L"
678173,"500 E 77TH STREET","NEW YORK","NY",10162,40.770022628,-73.951284341,173,"500 E 77TH STREET, NEW YORK, NY, 10162","Match","Exact","500 E 77TH ST, NEW YORK, NY, 10162",59658401,"R"
678174,"500 E 85TH ST 6-H","NEW YORK","NY",10028,40.775164735,-73.9474380189999,174,"500 E 85TH ST 6-H, NEW YORK, NY, 10028","Match","Non_Exact","500 E 85TH ST, NEW YORK, NY, 10028",59658381,"R"
678175,"500 E 88TH 2S","Chicago","IL",60619,NA,NA,175,"500 E 88TH 2S, Chicago, IL, 60619","No_Match",NA,NA,NA,NA
678176,"500 E 9TH ST","CAMERON","TX",76520,30.855546755,-96.970689416,176,"500 E 9TH ST, CAMERON, TX, 76520","Match","Exact","500 E 9TH ST, CAMERON, TX, 76520",25191962,"R"
678177,"500 E ABSECON BOULEVARD","ABSECON","NJ",8201,39.430327461,-74.5087696149999,177,"500 E ABSECON BOULEVARD, ABSECON, NJ, 8201","Match","Non_Exact","500 W ABSECON BLVD, ABSECON, NJ, 08201",647601026,"R"
678178,"500 E AVENUE J","ROBSTOWN","TX",78380,27.799135559,-97.661614782,178,"500 E AVENUE J, ROBSTOWN, TX, 78380","Match","Exact","500 E AVE J, ROBSTOWN, TX, 78380",605822883,"R"
678179,"500 E BROADWAY STE 100","VANCOUVER","WA",98660,45.6249877770001,-122.671074669,179,"500 E BROADWAY STE 100, VANCOUVER, WA, 98660","Match","Non_Exact","500 BROADWAY ST, VANCOUVER, WA, 98660",648928445,"R"
678180,"500 E BROADWAY","CHEYENNE","OK",73628,NA,NA,180,"500 E BROADWAY, CHEYENNE, OK, 73628","No_Match",NA,NA,NA,NA
678181,"500 E BROADWAY","LOGANSPORT","IN",46947,40.7542851420001,-86.364333995,181,"500 E BROADWAY, LOGANSPORT, IN, 46947","Match","Exact","500 E BROADWAY, LOGANSPORT, IN, 46947",27185616,"L"
678182,"500 E CARSON PLAZA DR SUITE 202A","CARSON","CA",90746,33.8456004550001,-118.26606763,182,"500 E CARSON PLAZA DR SUITE 202A, CARSON, CA, 90746","Match","Non_Exact","500 E CARSON PLAZA DR, CARSON, CA, 90746",241251246,"R"
678183,"500 E COLLEGE","MARSHALL","MO",65340,39.1088890870001,-93.190157289,183,"500 E COLLEGE, MARSHALL, MO, 65340","Match","Non_Exact","500 E COLLEGE ST, MARSHALL, MO, 65340",21027259,"R"
678184,"500 E DELAWARE RD","BURBANK","CA",91504,34.191577083,-118.314656272,184,"500 E DELAWARE RD, BURBANK, CA, 91504","Match","Exact","500 DELAWARE RD, BURBANK, CA, 91504",141595093,"R"
678185,"500 E EAGLE FLATS PKWY 207","APPLETON","WI",54915,44.255738191,-88.39864664,185,"500 E EAGLE FLATS PKWY 207, APPLETON, WI, 54915","Match","Non_Exact","500 E EAGLE FLATS PKWY, APPLETON, WI, 54915",650521848,"R"
678186,"500 E FALLS BLVD","QUINCY","MA",2169,42.2380970990001,-70.987955396,186,"500 E FALLS BLVD, QUINCY, MA, 2169","Match","Exact","500 FALLS BLVD, QUINCY, MA, 02169",87306288,"R"
678187,"500 E FOOTHILL DRIVE","PROVO","UT",84604,40.2934263930001,-111.649668772,187,"500 E FOOTHILL DRIVE, PROVO, UT, 84604","Match","Exact","500 E FOOTHILL DR, PROVO, UT, 84604",625022222,"R"
678188,"500 E FRONT ST","CLAREMONT","MN",55924,44.0432872330001,-92.987753923,188,"500 E FRONT ST, CLAREMONT, MN, 55924","Match","Exact","500 E FRONT ST, CLAREMONT, MN, 55924",647445766,"R"
678189,"500 E GIBSON ST","HAUBSTADT","IN",47639,38.2050759160001,-87.569813025,189,"500 E GIBSON ST, HAUBSTADT, IN, 47639","Match","Exact","500 E GIBSON ST, HAUBSTADT, IN, 47639",36376722,"R"
678190,"500 E GRANT ST NO 1402","MINNEAPOLIS","MN",55404,NA,NA,190,"500 E GRANT ST NO 1402, MINNEAPOLIS, MN, 55404","No_Match",NA,NA,NA,NA
678191,"500 E HIGHMEADOW DR APT 2203","AUBREY","TX",76227,NA,NA,191,"500 E HIGHMEADOW DR APT 2203, AUBREY, TX, 76227","No_Match",NA,NA,NA,NA
678192,"500 E HORATIO AVE SUITE 5","MAITLAND","FL",32751,NA,NA,192,"500 E HORATIO AVE SUITE 5, MAITLAND, FL, 32751","Tie",NA,NA,NA,NA
678193,"500 E LANCASTER AVE APT 126D","ST DAVIDS","PA",19087,40.0420194060001,-75.3709206779999,193,"500 E LANCASTER AVE APT 126D, ST DAVIDS, PA, 19087","Match","Non_Exact","500 E LANCASTER AVE, SAINT DAVIDS, PA, 19087",605238548,"R"
678194,"500 E LAS OLAS BLVD APT 1701","FORT LAUDERDALE","FL",33301,26.119204843,-80.13809735,194,"500 E LAS OLAS BLVD APT 1701, FORT LAUDERDALE, FL, 33301","Match","Non_Exact","500 E LAS OLAS BLVD, FORT LAUDERDALE, FL, 33301",608969963,"R"
678195,"500 E LAS OLAS BLVD APT 1907","FORT LAUDERDALE","FL",33301,26.119204843,-80.13809735,195,"500 E LAS OLAS BLVD APT 1907, FORT LAUDERDALE, FL, 33301","Match","Non_Exact","500 E LAS OLAS BLVD, FORT LAUDERDALE, FL, 33301",608969963,"R"
678196,"500 E LEITERSBURG ST","GREENCASTLE","PA",17225,39.7800819300001,-77.722330724,196,"500 E LEITERSBURG ST, GREENCASTLE, PA, 17225","Match","Exact","500 LEITERSBURG ST, GREENCASTLE, PA, 17225",605523086,"R"
678197,"500 E LEXINGTON DR 204","GLENDALE","CA",91206,34.1517755840001,-118.25008401,197,"500 E LEXINGTON DR 204, GLENDALE, CA, 91206","Match","Non_Exact","500 E LEXINGTON DR, GLENDALE, CA, 91206",142730221,"R"
678198,"500 E MAIN ST SUITE 1604","NORFOLK","VA",23510,36.845832859,-76.2891918239999,198,"500 E MAIN ST SUITE 1604, NORFOLK, VA, 23510","Match","Non_Exact","500 E MAIN ST, NORFOLK, VA, 23510",122127482,"L"
678199,"500 E MAIN ST UNIT 1603","NORFOLK","VA",23501,NA,NA,199,"500 E MAIN ST UNIT 1603, NORFOLK, VA, 23501","No_Match",NA,NA,NA,NA
678200,"500 E MAIN STREET SUITE 1604","NORFOLK","VA",23510,36.845832859,-76.2891918239999,200,"500 E MAIN STREET SUITE 1604, NORFOLK, VA, 23510","Match","Non_Exact","500 E MAIN ST, NORFOLK, VA, 23510",122127482,"L"
678201,"500 E MAIN","GREENVILLE","OH",45331,40.1056329690001,-84.628540191,201,"500 E MAIN, GREENVILLE, OH, 45331","Match","Non_Exact","500 E MAIN ST, GREENVILLE, OH, 45331",639287951,"L"
678202,"500 E MAIN","ROFF","OK",74865,34.6273516030001,-96.835559609,202,"500 E MAIN, ROFF, OK, 74865","Match","Non_Exact","500 E MAIN ST, ROFF, OK, 74865",58492468,"L"
678203,"500 E MINNEHAHA PARKWAY","MINNEAPOLIS","MN",55417,44.9126839370001,-93.268924989,203,"500 E MINNEHAHA PARKWAY, MINNEAPOLIS, MN, 55417","Match","Non_Exact","500 E MINNEHAHA PKWY, MINNEAPOLIS, MN, 55419",43634514,"L"
678204,"500 E MINNEHAHA PKWY","MINNEAPOLIS","MN",55419,44.9126839370001,-93.268924989,204,"500 E MINNEHAHA PKWY, MINNEAPOLIS, MN, 55419","Match","Exact","500 E MINNEHAHA PKWY, MINNEAPOLIS, MN, 55419",43634514,"L"
678205,"500 E MYRTLE","INDEPENDENCE","KS",67301,37.2243351180001,-95.7010886319999,205,"500 E MYRTLE, INDEPENDENCE, KS, 67301","Match","Non_Exact","500 E MYRTLE ST, INDEPENDENCE, KS, 67301",13801859,"R"
678206,"500 E NEWPORT RD","LITITZ","PA",17543,40.1675228400001,-76.295098132,206,"500 E NEWPORT RD, LITITZ, PA, 17543","Match","Exact","500 E NEWPORT RD, LITITZ, PA, 17543",648140261,"R"
678207,"500 E NORTH STREET","BLOOMFIELD","IA",52537,40.754652967,-92.409261626,207,"500 E NORTH STREET, BLOOMFIELD, IA, 52537","Match","Exact","500 E NORTH ST, BLOOMFIELD, IA, 52537",54659220,"R"
678208,"500 E PAGES LN","CENTERVILLE","UT",84014,40.906573882,-111.870710654,208,"500 E PAGES LN, CENTERVILLE, UT, 84014","Match","Exact","500 E PAGES LN, CENTERVILLE, UT, 84014",155312277,"R"
678209,"500 E REMINGTON DR STE 25","SUNNYVALE","CA",94087,NA,NA,209,"500 E REMINGTON DR STE 25, SUNNYVALE, CA, 94087","Tie",NA,NA,NA,NA
678210,"500 E ROOSEVELT ST","APPLLETON","WI",54911,44.2765226070001,-88.399555221,210,"500 E ROOSEVELT ST, APPLLETON, WI, 54911","Match","Non_Exact","500 E ROOSEVELT ST, APPLETON, WI, 54911",74920381,"L"
678211,"500 E SAINT JOHNS AVE STE 2-620","AUSTIN","TX",78752,NA,NA,211,"500 E SAINT JOHNS AVE STE 2-620, AUSTIN, TX, 78752","Tie",NA,NA,NA,NA
678212,"500 E SAN ANTONIO AVE RM 701","EL PASO","TX",79901,NA,NA,212,"500 E SAN ANTONIO AVE RM 701, EL PASO, TX, 79901","Tie",NA,NA,NA,NA
678213,"500 E SANTA ANITA UNIT L","BURBANK","CA",91501,NA,NA,213,"500 E SANTA ANITA UNIT L, BURBANK, CA, 91501","No_Match",NA,NA,NA,NA
678214,"500 E ST CHARLES RD APT 509","LOMBARD","IL",60148,NA,NA,214,"500 E ST CHARLES RD APT 509, LOMBARD, IL, 60148","Tie",NA,NA,NA,NA
678215,"500 E STASSENY LANE NUMBER 321","AUSTIN","TX",78745,NA,NA,215,"500 E STASSENY LANE NUMBER 321, AUSTIN, TX, 78745","Tie",NA,NA,NA,NA
678216,"500 E STASSNEY LN","AUSTIN","TX",78745,30.202494619,-97.7710563319999,216,"500 E STASSNEY LN, AUSTIN, TX, 78745","Match","Exact","500 E STASSNEY LN, AUSTIN, TX, 78745",64013925,"R"
678217,"500 E STATE RD","TIPTON","IN",46072,NA,NA,217,"500 E STATE RD, TIPTON, IN, 46072","No_Match",NA,NA,NA,NA
678218,"500 E STOCKTON ST","RICHMOND","VA",23224,37.522744306,-77.436869225,218,"500 E STOCKTON ST, RICHMOND, VA, 23224","Match","Exact","500 STOCKTON ST, RICHMOND, VA, 23224",201542703,"L"
678219,"500 E SYCAMORE ST","KOKOM","IN",46901,40.486508669,-86.126227413,219,"500 E SYCAMORE ST, KOKOM, IN, 46901","Match","Non_Exact","500 E SYCAMORE ST, KOKOMO, IN, 46901",27263856,"L"
678220,"500 E TAOS ST","HOBBS","NM",88240,NA,NA,220,"500 E TAOS ST, HOBBS, NM, 88240","Tie",NA,NA,NA,NA
678221,"500 E TARPON AVE","TARPON SPRINGS","FL",34689,28.146236463,-82.75035186,221,"500 E TARPON AVE, TARPON SPRINGS, FL, 34689","Match","Non_Exact","500 E TARPON AVE, TARPON SPNGS, FL, 34689",124661006,"R"
678222,"500 E TUDOR RD STE 200","ANCHORAGE","AK",99503,NA,NA,222,"500 E TUDOR RD STE 200, ANCHORAGE, AK, 99503","Tie",NA,NA,NA,NA
678223,"500 E VIRGINIA ST","EVANSVILLE","IN",47711,37.9818856890001,-87.557663249,223,"500 E VIRGINIA ST, EVANSVILLE, IN, 47711","Match","Exact","500 E VIRGINIA ST, EVANSVILLE, IN, 47711",39782833,"L"
678224,"500 E WALNUT ST STE 102","COLUMBIA","MO",65201,38.9526453570001,-92.331700772,224,"500 E WALNUT ST STE 102, COLUMBIA, MO, 65201","Match","Non_Exact","500 E WALNUT ST, COLUMBIA, MO, 65201",23480997,"R"
678225,"500 E WASHINGTON ST","ROCHESTER","PA",15074,40.7032800980001,-80.2770614039999,225,"500 E WASHINGTON ST, ROCHESTER, PA, 15074","Match","Exact","500 E WASHINGTON ST, ROCHESTER, PA, 15074",52564950,"L"
678226,"500 E WHITESTONE BLVD 3222","CEDAR PARK","TX",78613,NA,NA,226,"500 E WHITESTONE BLVD 3222, CEDAR PARK, TX, 78613","Tie",NA,NA,NA,NA
678227,"500 E WILSON ST","MILWAUKEE","WI",53207,43.0000869880001,-87.9029347379999,227,"500 E WILSON ST, MILWAUKEE, WI, 53207","Match","Exact","500 E WILSON ST, MILWAUKEE, WI, 53207",77753406,"R"
678228,"500 EARLE LANE","REDONDO BEACH","CA",90278,33.8585064860001,-118.371825917,228,"500 EARLE LANE, REDONDO BEACH, CA, 90278","Match","Exact","500 EARLE LN, REDONDO BEACH, CA, 90278",142690416,"R"
678229,"500 EARLYWOOD DRIVE","FRANKLIN","IN",46131,39.520446801,-86.075030789,229,"500 EARLYWOOD DRIVE, FRANKLIN, IN, 46131","Match","Exact","500 EARLYWOOD DR, FRANKLIN, IN, 46131",606977474,"L"
678230,"500 EAST 10TH","CARUTHERSVILLE","MO",63830,NA,NA,230,"500 EAST 10TH, CARUTHERSVILLE, MO, 63830","No_Match",NA,NA,NA,NA
678231,"500 EAST 14TH STREET SUITE 2","SIOUX FALLS","SD",57104,43.5414471380001,-96.720809689,231,"500 EAST 14TH STREET SUITE 2, SIOUX FALLS, SD, 57104","Match","Exact","500 E 14TH ST, SIOUX FALLS, SD, 57104",34972958,"L"
678232,"500 EAST 165 STREET","BRONX","NY",10459,40.826822484,-73.908782244,232,"500 EAST 165 STREET, BRONX, NY, 10459","Match","Non_Exact","500 E 165TH ST, BRONX, NY, 10456",80300620,"R"
678233,"500 EAST 26TH STREET","SOUTH SIOUX CITY","NE",68776,42.465328936,-96.406406881,233,"500 EAST 26TH STREET, SOUTH SIOUX CITY, NE, 68776","Match","Exact","500 E 26TH ST, SOUTH SIOUX CITY, NE, 68776",193818671,"R"
678234,"500 EAST 40TH STREET","BROOKLYN","NY",11203,40.6434275350001,-73.939189073,234,"500 EAST 40TH STREET, BROOKLYN, NY, 11203","Match","Exact","500 E 40TH ST, BROOKLYN, NY, 11203",59081883,"R"
678235,"500 EAST 6TH STREET","WASHINGTON","MO",63090,38.5530461480001,-91.0084720679999,235,"500 EAST 6TH STREET, WASHINGTON, MO, 63090","Match","Exact","500 E 6TH ST, WASHINGTON, MO, 63090",99717656,"L"
678236,"500 EAST 77TH ST SUITE 2324","NEW YORK","NY",10165,40.770022628,-73.951284341,236,"500 EAST 77TH ST SUITE 2324, NEW YORK, NY, 10165","Match","Non_Exact","500 E 77TH ST, NEW YORK, NY, 10162",59658401,"R"
678237,"500 EAST 77TH STREET APT 3119","NY","NY",10162,40.770022628,-73.951284341,237,"500 EAST 77TH STREET APT 3119, NY, NY, 10162","Match","Exact","500 E 77TH ST, NEW YORK, NY, 10162",59658401,"R"
678238,"500 EAST 83RD STREET - APT 8D","NEW YORK","NY",10028,40.7739484800001,-73.948490592,238,"500 EAST 83RD STREET - APT 8D, NEW YORK, NY, 10028","Match","Exact","500 E 83RD ST, NEW YORK, NY, 10028",650090220,"R"
678239,"500 EAST ANDERSON LANE APT 242X","AUSTIN","TX",78752,30.3418550820001,-97.702587298,239,"500 EAST ANDERSON LANE APT 242X, AUSTIN, TX, 78752","Match","Exact","500 E ANDERSON LN, AUSTIN, TX, 78752",634276083,"R"
678240,"500 EAST CEDAR LANE","MEQUON","WI",53092,43.199819394,-87.901838348,240,"500 EAST CEDAR LANE, MEQUON, WI, 53092","Match","Exact","500 E CEDAR LN, MEQUON, WI, 53092",95908799,"L"
678241,"500 EAST CENTER STREET","GIFFORD","IL",61847,40.3071681120001,-88.0177588079999,241,"500 EAST CENTER STREET, GIFFORD, IL, 61847","Match","Exact","500 E CENTER ST, GIFFORD, IL, 61847",621843020,"R"
678242,"500 EAST E STREET SUITE 120","ONTARIO","CA",91764,34.068253101,-117.645898342,242,"500 EAST E STREET SUITE 120, ONTARIO, CA, 91764","Match","Exact","500 E E ST, ONTARIO, CA, 91764",144676009,"R"
678243,"500 EAST GLENHILL BLVD","LAFAYETTE","LA",70501,30.2609280020001,-92.0027369759999,243,"500 EAST GLENHILL BLVD, LAFAYETTE, LA, 70501","Match","Exact","500 E GLENHILL BLVD, LAFAYETTE, LA, 70501",85641373,"R"
678244,"500 EAST GRANT STREET  UNIT 304","MINNEAPOLIS","MN",55404,44.970193538,-93.269451052,244,"500 EAST GRANT STREET  UNIT 304, MINNEAPOLIS, MN, 55404","Match","Exact","500 E GRANT ST, MINNEAPOLIS, MN, 55404",43632402,"L"
678245,"500 EAST GRANT STREET UNIT 1602","MINNEAPOLIS","MN",55404,44.970193538,-93.269451052,245,"500 EAST GRANT STREET UNIT 1602, MINNEAPOLIS, MN, 55404","Match","Exact","500 E GRANT ST, MINNEAPOLIS, MN, 55404",43632402,"L"
678246,"500 EAST GRANT STREET UNIT 2001","MINNEAPOLIS","MN",55404,44.970193538,-93.269451052,246,"500 EAST GRANT STREET UNIT 2001, MINNEAPOLIS, MN, 55404","Match","Exact","500 E GRANT ST, MINNEAPOLIS, MN, 55404",43632402,"L"
678247,"500 EAST GRANT STREET UNIT 401","MINNEAPOLIS","MN",55404,44.970193538,-93.269451052,247,"500 EAST GRANT STREET UNIT 401, MINNEAPOLIS, MN, 55404","Match","Exact","500 E GRANT ST, MINNEAPOLIS, MN, 55404",43632402,"L"
678248,"500 EAST HICKORY","ELK CITY","KS",67344,37.2918704250001,-95.9056339269999,248,"500 EAST HICKORY, ELK CITY, KS, 67344","Match","Non_Exact","500 E HICKORY ST, ELK CITY, KS, 67344",13779031,"R"
678249,"500 EAST LEXINGTON STREET","BALTIMORE","MD",21202,39.2913319940001,-76.608980582,249,"500 EAST LEXINGTON STREET, BALTIMORE, MD, 21202","Match","Exact","500 E LEXINGTON ST, BALTIMORE, MD, 21202",206420765,"L"
678250,"500 EAST MAIN SPACE 14","MOUNT VERNON","TX",75457,NA,NA,250,"500 EAST MAIN SPACE 14, MOUNT VERNON, TX, 75457","No_Match",NA,NA,NA,NA
678251,"500 EAST MAIN STREET SUITE 130","NORFOLK","VA",23510,36.845832912,-76.28919466,251,"500 EAST MAIN STREET SUITE 130, NORFOLK, VA, 23510","Match","Exact","500 E MAIN ST, NORFOLK, VA, 23510",122127482,"L"
678252,"500 EAST MAIN STREET","GREENVILLE","OH",45331,40.1056329690001,-84.628540191,252,"500 EAST MAIN STREET, GREENVILLE, OH, 45331","Match","Exact","500 E MAIN ST, GREENVILLE, OH, 45331",639287951,"L"
678253,"500 EAST MARKET ST","IOWA CITY","IA",52245,41.663560139,-91.528543723,253,"500 EAST MARKET ST, IOWA CITY, IA, 52245","Match","Exact","500 E MARKET ST, IOWA CITY, IA, 52245",84495502,"L"
678254,"500 EAST MORRISON ST","EDGEWOOD","IA",52042,42.6417688540001,-91.397516947,254,"500 EAST MORRISON ST, EDGEWOOD, IA, 52042","Match","Exact","500 E MORRISON ST, EDGEWOOD, IA, 52042",636215230,"R"
678255,"500 EAST PARKWAY DRIVE","MORGANTOWN","WV",26501,39.6091932310001,-79.9454506659999,255,"500 EAST PARKWAY DRIVE, MORGANTOWN, WV, 26501","Match","Non_Exact","500 PARKWAY DR, MORGANTOWN, WV, 26501",50757840,"L"
678256,"500 EAST PINE","WEST","TX",76691,31.800508687,-97.087707773,256,"500 EAST PINE, WEST, TX, 76691","Match","Non_Exact","500 E PINE ST, WEST, TX, 76691",146731578,"R"
678257,"500 EAST PRATT ST - SUITE 900","BALTIMORE","MD",21202,39.2867020410001,-76.608687486,257,"500 EAST PRATT ST - SUITE 900, BALTIMORE, MD, 21202","Match","Exact","500 E PRATT ST, BALTIMORE, MD, 21202",206420861,"L"
678258,"500 EAST PRATT STREET STE 900","BALTIMORE","MD",21202,39.2867020410001,-76.608687486,258,"500 EAST PRATT STREET STE 900, BALTIMORE, MD, 21202","Match","Exact","500 E PRATT ST, BALTIMORE, MD, 21202",206420861,"L"
678259,"500 EAST PRATT","BALTIMORE","MD",21202,39.2867020410001,-76.608687486,259,"500 EAST PRATT, BALTIMORE, MD, 21202","Match","Non_Exact","500 E PRATT ST, BALTIMORE, MD, 21202",206420861,"L"
678260,"500 EAST PRINCETON STREET","ORLANDO","FL",32803,28.571297498,-81.37169647,260,"500 EAST PRINCETON STREET, ORLANDO, FL, 32803","Match","Exact","500 E PRINCETON ST, ORLANDO, FL, 32803",637882044,"R"
678261,"500 EAST ROBINSON ST","GAFFNEY","SC",29340,35.074182023,-81.642631705,261,"500 EAST ROBINSON ST, GAFFNEY, SC, 29340","Match","Exact","500 E ROBINSON ST, GAFFNEY, SC, 29340",18988539,"L"
678262,"500 EAST SAINT JOHNS AVE STE 2-620","AUSTIN","TX",78752,30.333913076,-97.7064706639999,262,"500 EAST SAINT JOHNS AVE STE 2-620, AUSTIN, TX, 78752","Match","Exact","500 E SAINT JOHNS AVE, AUSTIN, TX, 78752",63932415,"L"
678263,"500 EAST SPRUCE STREET","RIVERTON","WY",82501,43.032468135,-108.38381681,263,"500 EAST SPRUCE STREET, RIVERTON, WY, 82501","Match","Non_Exact","500 SPRUCE ST, RIVERTON, WY, 82501",148485004,"L"
678264,"500 EAST WALNUT ST - SUITE 102","COLUMBIA","MO",65201,38.9526453570001,-92.331700772,264,"500 EAST WALNUT ST - SUITE 102, COLUMBIA, MO, 65201","Match","Exact","500 E WALNUT ST, COLUMBIA, MO, 65201",23480997,"R"
678265,"500 EAST WALNUT","EVANSVILLE","IN",47713,37.9736853590001,-87.5577926839999,265,"500 EAST WALNUT, EVANSVILLE, IN, 47713","Match","Non_Exact","500 E WALNUT ST, EVANSVILLE, IN, 47713",39783085,"L"
678266,"500 EASTBROOK APT B","HUNTSVILLE","AL",35811,NA,NA,266,"500 EASTBROOK APT B, HUNTSVILLE, AL, 35811","No_Match",NA,NA,NA,NA
678267,"500 EASTER LN","JACKSBORO","TX",76458,33.2301233370001,-98.2500440479999,267,"500 EASTER LN, JACKSBORO, TX, 76458","Match","Exact","500 EASTER LN, JACKSBORO, TX, 76458",182946620,"R"
678268,"500 EASTVIEW DRIVE","IRWIN","PA",15642,40.352267059,-79.777605615,268,"500 EASTVIEW DRIVE, IRWIN, PA, 15642","Match","Exact","500 EASTVIEW DR, IRWIN, PA, 15642",649266803,"L"
678269,"500 EDDY AVE","MISSOULA","MT",59801,46.8630417860001,-113.990780431,269,"500 EDDY AVE, MISSOULA, MT, 59801","Match","Exact","500 EDDY AVE, MISSOULA, MT, 59801",205239584,"L"
678270,"500 EDGERTON COURT","COLUMBIA","SC",29205,33.9958405180001,-81.011044565,270,"500 EDGERTON COURT, COLUMBIA, SC, 29205","Match","Exact","500 EDGERTON CT, COLUMBIA, SC, 29205",71828062,"R"
678271,"500 EDWARD BEST ROAD","LOUISBURG","NC",27549,36.0801780680001,-78.168278301,271,"500 EDWARD BEST ROAD, LOUISBURG, NC, 27549","Match","Exact","500 EDWARD BEST RD, LOUISBURG, NC, 27549",640616257,"L"
678272,"500 EDWARD","EAST JORDAN","MI",49727,NA,NA,272,"500 EDWARD, EAST JORDAN, MI, 49727","No_Match",NA,NA,NA,NA
678273,"500 EDWARDS ST","EMERSON","IA",51533,41.0182014750001,-95.4057326069999,273,"500 EDWARDS ST, EMERSON, IA, 51533","Match","Exact","500 EDWARDS ST, EMERSON, IA, 51533",652002380,"L"
678274,"500 EGGER COURT","ROUND ROCK","TX",78664,30.5279378590001,-97.677243618,274,"500 EGGER COURT, ROUND ROCK, TX, 78664","Match","Exact","500 EGGER CT, ROUND ROCK, TX, 78664",126424651,"R"
678275,"500 EIGHTH ST NW","WASHINGTON","DC",20004,38.896222736,-77.0229603879999,275,"500 EIGHTH ST NW, WASHINGTON, DC, 20004","Match","Exact","500 8TH ST NW, WASHINGTON, DC, 20004",76226371,"L"
678276,"500 EL CAMINO REAL","SANTA CLARA","CA",95053,37.345417094,-121.933690859,276,"500 EL CAMINO REAL, SANTA CLARA, CA, 95053","Match","Exact","500 EL CAMINO REAL, SANTA CLARA, CA, 95053",618171862,"L"
678277,"500 ELIZABETH AVENUE","DOUGLAS","AZ",85607,31.339603862,-109.518891936,277,"500 ELIZABETH AVENUE, DOUGLAS, AZ, 85607","Match","Exact","500 ELIZABETH AVE, DOUGLAS, AZ, 85607",121091580,"L"
678278,"500 ELK GROVE BLVD","ELK GROVE","IL",60007,NA,NA,278,"500 ELK GROVE BLVD, ELK GROVE, IL, 60007","Tie",NA,NA,NA,NA
678279,"500 ELMDALE NE","GRAND RAPIDS","MI",49525,43.025669743,-85.656543937,279,"500 ELMDALE NE, GRAND RAPIDS, MI, 49525","Match","Non_Exact","500 ELMDALE ST NE, GRAND RAPIDS, MI, 49525",12451285,"R"
678280,"500 ENERGYWAY APT 4212","FORT WORTH","TX",76102,NA,NA,280,"500 ENERGYWAY APT 4212, FORT WORTH, TX, 76102","No_Match",NA,NA,NA,NA
678281,"500 ESSINGTON AVE","PHILADELPHIA","PA",19153,NA,NA,281,"500 ESSINGTON AVE, PHILADELPHIA, PA, 19153","No_Match",NA,NA,NA,NA
678282,"500 ESTATE SOUTHGATE","CHRISTIANSTED","VI",820,NA,NA,282,"500 ESTATE SOUTHGATE, CHRISTIANSTED, VI, 820","No_Match",NA,NA,NA,NA
678283,"500 EXTER ROAD","LEBANON","CT",6249,41.6404728250001,-72.207304675,283,"500 EXTER ROAD, LEBANON, CT, 6249","Match","Non_Exact","500 EXETER RD, LEBANON, CT, 06249",651683646,"L"
678284,"500 FAIRHILL STREET","WILLOW GROVE","PA",19090,40.151996867,-75.1150456999999,284,"500 FAIRHILL STREET, WILLOW GROVE, PA, 19090","Match","Exact","500 FAIRHILL ST, WILLOW GROVE, PA, 19090",135080216,"L"
678285,"500 FALKIRK CT","LOUISVILLE","KY",40243,38.236445815,-85.5508248629999,285,"500 FALKIRK CT, LOUISVILLE, KY, 40243","Match","Exact","500 FALKIRK CT, LOUISVILLE, KY, 40243",96865647,"L"
678286,"500 FALLS BLVD APT 4232","QUINCY","MA",2169,42.2380970990001,-70.987955396,286,"500 FALLS BLVD APT 4232, QUINCY, MA, 2169","Match","Exact","500 FALLS BLVD, QUINCY, MA, 02169",87306288,"R"
678287,"500 FEDERAL STREET","ANDOVER","MA",1810,42.6896639730001,-71.2009925629999,287,"500 FEDERAL STREET, ANDOVER, MA, 1810","Match","Exact","500 FEDERAL ST, ANDOVER, MA, 01810",86704184,"L"
678288,"500 FERGUSON DR","WACO","TX",76712,31.5590349190001,-97.284257864,288,"500 FERGUSON DR, WACO, TX, 76712","Match","Exact","500 FERGUSON DR, WACO, TX, 76712",146762073,"L"
678289,"500 FERNWOOD AVE","PLEASANTVILLE","NJ",8232,39.3849708490001,-74.5404928849999,289,"500 FERNWOOD AVE, PLEASANTVILLE, NJ, 8232","Match","Exact","500 FERNWOOD AVE, PLEASANTVILLE, NJ, 08232",202485964,"R"
678290,"500 FERRY ROAD UNIT 310","GALVESTON","TX",77550,29.320616038,-94.770340092,290,"500 FERRY ROAD UNIT 310, GALVESTON, TX, 77550","Match","Exact","500 FERRY RD, GALVESTON, TX, 77550",96680780,"R"
678291,"500 FIFTH AVENUE","MCKEESPORT","PA",15132,40.351238779,-79.861993626,291,"500 FIFTH AVENUE, MCKEESPORT, PA, 15132","Match","Exact","500 5TH AVE, MCKEESPORT, PA, 15132",627073257,"R"
678292,"500 FIFTH AVENUE","NEW YORK","NY",10110,40.7535382730001,-73.980854607,292,"500 FIFTH AVENUE, NEW YORK, NY, 10110","Match","Exact","500 5TH AVE, NEW YORK, NY, 10110",59658642,"L"
678293,"500 FIFTH STREET NW","WASHINGTON","DC",20001,38.8962255710001,-77.01893376,293,"500 FIFTH STREET NW, WASHINGTON, DC, 20001","Match","Exact","500 5TH ST NW, WASHINGTON, DC, 20001",76226406,"L"
678294,"500 FILMORE APT C3","WICHITA FALLS","TX",76301,33.908569372,-98.517965233,294,"500 FILMORE APT C3, WICHITA FALLS, TX, 76301","Match","Non_Exact","500 FILLMORE ST, WICHITA FALLS, TX, 76301",169858524,"R"
678295,"500 FISHER ST","KEESLER AFB","MS",39534,NA,NA,295,"500 FISHER ST, KEESLER AFB, MS, 39534","No_Match",NA,NA,NA,NA
678296,"500 FLANAGAN STREET UNIT A","MINOOKA","IL",60447,41.447045094,-88.272317226,296,"500 FLANAGAN STREET UNIT A, MINOOKA, IL, 60447","Match","Non_Exact","500 FLANAGAN DR, MINOOKA, IL, 60447",54451161,"R"
678297,"500 FONVILLE STREET","TUSKEGEE","AL",36083,32.4251635150001,-85.696239953,297,"500 FONVILLE STREET, TUSKEGEE, AL, 36083","Match","Exact","500 FONVILLE ST, TUSKEGEE, AL, 36083",69127510,"R"
678298,"500 FORD AVENUE","FORDS","NJ",8863,NA,NA,298,"500 FORD AVENUE, FORDS, NJ, 8863","No_Match",NA,NA,NA,NA
678299,"500 FOREST DRIVE","LAKEPORT","CA",95453,39.058527478,-122.919971689,299,"500 FOREST DRIVE, LAKEPORT, CA, 95453","Match","Exact","500 FOREST DR, LAKEPORT, CA, 95453",67057466,"L"
678300,"500 FORGE RD","GLEN MILLS","PA",19342,39.917276821,-75.4769780619999,300,"500 FORGE RD, GLEN MILLS, PA, 19342","Match","Exact","500 FORGE RD, GLEN MILLS, PA, 19342",134905988,"L"
678301,"500 FRANCIS DRIVE","MECHANICSBURG","PA",17050,40.2498339260001,-76.976717578,301,"500 FRANCIS DRIVE, MECHANICSBURG, PA, 17050","Match","Exact","500 FRANCIS DR, MECHANICSBURG, PA, 17050",60954230,"R"
678302,"500 FRANK W BURR BLVD    47","TEANECK","NJ",7666,40.8723719110001,-74.006734642,302,"500 FRANK W BURR BLVD    47, TEANECK, NJ, 7666","Match","Exact","500 FRANK W BURR BLVD, TEANECK, NJ, 07666",64415128,"L"
678303,"500 FRAZIER STREET","MONROE","LA",71203,32.5353618780001,-92.039130298,303,"500 FRAZIER STREET, MONROE, LA, 71203","Match","Exact","500 FRAZIER ST, MONROE, LA, 71203",161089459,"R"
678304,"500 FREEDOM STREET","ITTA BENA","MS",38941,33.493401416,-90.329664668,304,"500 FREEDOM STREET, ITTA BENA, MS, 38941","Match","Exact","500 FREEDOM ST, ITTA BENA, MS, 38941",1039040,"L"
678305,"500 FRIENDSHIP ROAD","PADUCAH","KY",42003,37.0261088680001,-88.6656248199999,305,"500 FRIENDSHIP ROAD, PADUCAH, KY, 42003","Match","Non_Exact","500 S FRIENDSHIP RD, PADUCAH, KY, 42003",8395788,"R"
678306,"500 GAITHER ROAD","WINSTON-SALEM","NC",27101,36.122673223,-80.1738604129999,306,"500 GAITHER ROAD, WINSTON-SALEM, NC, 27101","Match","Exact","500 GAITHER RD, WINSTON SALEM, NC, 27101",84615759,"R"
678307,"500 GAMBLE ST SUITE 413 WEST WING","TALLAHASSEE","FL",32307,30.428825423,-84.28831066,307,"500 GAMBLE ST SUITE 413 WEST WING, TALLAHASSEE, FL, 32307","Match","Non_Exact","500 GAMBLE ST, TALLAHASSEE, FL, 32310",82887197,"R"
678308,"500 GARRISON COURT - APT 407A","NEW CASTLE","DE",19720,NA,NA,308,"500 GARRISON COURT - APT 407A, NEW CASTLE, DE, 19720","No_Match",NA,NA,NA,NA
678309,"500 GATE TREE DRIVE","DANVILLE","CA",94526,37.8209731860001,-121.974769929,309,"500 GATE TREE DRIVE, DANVILLE, CA, 94526","Match","Non_Exact","500 GATETREE DR, DANVILLE, CA, 94526",192065060,"L"
678310,"500 GATEWAY DRIVE","CLAYTON","NC",27520,35.662415815,-78.489764338,310,"500 GATEWAY DRIVE, CLAYTON, NC, 27520","Match","Exact","500 GATEWAY DR, CLAYTON, NC, 27520",640775613,"L"
678311,"500 GAYLE AVENUE APT 104","MODESTO","CA",95350,37.6696313200001,-120.999214028,311,"500 GAYLE AVENUE APT 104, MODESTO, CA, 95350","Match","Exact","500 GAYLE AVE, MODESTO, CA, 95350",102603710,"L"
678312,"500 GEIGER CIRCLE","KEY LARGO","FL",33037,25.086661609,-80.439026213,312,"500 GEIGER CIRCLE, KEY LARGO, FL, 33037","Match","Exact","500 GEIGER CIR, KEY LARGO, FL, 33037",116466246,"L"
678313,"500 GEORGETOWN SHORTCUT ROAD","GEORGETOWN","FL",32139,NA,NA,313,"500 GEORGETOWN SHORTCUT ROAD, GEORGETOWN, FL, 32139","No_Match",NA,NA,NA,NA
678314,"500 GILMAN PLACE NORTH","ST PETERSBURG","FL",33716,27.889139314,-82.660566634,314,"500 GILMAN PLACE NORTH, ST PETERSBURG, FL, 33716","Match","Exact","500 GILMAN PL N, SAINT PETERSBURG, FL, 33716",645830843,"L"
678315,"500 GIRARD PARK DR","LAFAYETTE","LA",70503,30.2046054750001,-92.020071075,315,"500 GIRARD PARK DR, LAFAYETTE, LA, 70503","Match","Exact","500 GIRARD PARK DR, LAFAYETTE, LA, 70503",85639203,"R"
678316,"500 GIRARD PARK DRIVE","LAFAYETTE","LA",70503,30.2046054750001,-92.020071075,316,"500 GIRARD PARK DRIVE, LAFAYETTE, LA, 70503","Match","Exact","500 GIRARD PARK DR, LAFAYETTE, LA, 70503",85639203,"R"
678317,"500 GLEN HILL DRIVE","SAUNDERSTOWN","RI",2874,41.52028132,-71.5084580229999,317,"500 GLEN HILL DRIVE, SAUNDERSTOWN, RI, 2874","Match","Exact","500 GLEN HILL DR, SAUNDERSTOWN, RI, 02874",58920294,"R"
678318,"500 GLENWOOD CIR APT 119","MONTEREY","CA",93940,36.5872701640001,-121.884674388,318,"500 GLENWOOD CIR APT 119, MONTEREY, CA, 93940","Match","Exact","500 GLENWOOD CIR, MONTEREY, CA, 93940",196825325,"L"
678319,"500 GLENWOOD CIRCLE SUITE 119","MONTEREY","CA",93940,36.5872701640001,-121.884674388,319,"500 GLENWOOD CIRCLE SUITE 119, MONTEREY, CA, 93940","Match","Exact","500 GLENWOOD CIR, MONTEREY, CA, 93940",196825325,"L"
678320,"500 GLENWOOD CIRCLE UNIT 516","MONTEREY","CA",93940,36.5872701640001,-121.884674388,320,"500 GLENWOOD CIRCLE UNIT 516, MONTEREY, CA, 93940","Match","Exact","500 GLENWOOD CIR, MONTEREY, CA, 93940",196825325,"L"
678321,"500 GOLF COURT","NORTH WOODMERE","NY",11581,40.642875174,-73.723937556,321,"500 GOLF COURT, NORTH WOODMERE, NY, 11581","Match","Non_Exact","500 GOLF CT, VALLEY STREAM, NY, 11581",147677102,"L"
678322,"500 GOLFVIEW DRIVE","SAN JOSE","CA",95127,37.3891834080001,-121.823050892,322,"500 GOLFVIEW DRIVE, SAN JOSE, CA, 95127","Match","Non_Exact","500 GOLF VIEW DR, SAN JOSE, CA, 95127",122965049,"L"
678323,"500 GOODWINS CHAPEL ROAD","PRINCETON","WV",27439,37.34437172,-80.9817034609999,323,"500 GOODWINS CHAPEL ROAD, PRINCETON, WV, 27439","Match","Non_Exact","500 GOODWYNS CHAPEL RD, PRINCETON, WV, 24739",647645075,"R"
678324,"500 GRAHAM WAY UNIT A","MULKILTEO","WA",98275,NA,NA,324,"500 GRAHAM WAY UNIT A, MULKILTEO, WA, 98275","No_Match",NA,NA,NA,NA
678325,"500 GRAND AVE","WAUASAU","WI",54403,44.952728945,-89.623151241,325,"500 GRAND AVE, WAUASAU, WI, 54403","Match","Non_Exact","500 GRAND AVE, WAUSAU, WI, 54403",117138634,"R"
678326,"500 GRAND AVENUE PARKWAY STE 9103","PFLUGERVILLE","TX",78660,30.471359265,-97.641364004,326,"500 GRAND AVENUE PARKWAY STE 9103, PFLUGERVILLE, TX, 78660","Match","Exact","500 GRAND AVENUE PKWY, PFLUGERVILLE, TX, 78660",635396860,"R"
678327,"500 GRAND CONCOURSE AVENUE","BRONX","NY",10451,40.818070334,-73.92752332,327,"500 GRAND CONCOURSE AVENUE, BRONX, NY, 10451","Match","Non_Exact","500 GRAND CONCOURSE, BRONX, NY, 10451",80300220,"R"
678328,"500 GRAND STREET C8F","NEW YORK","NY",10002,NA,NA,328,"500 GRAND STREET C8F, NEW YORK, NY, 10002","No_Match",NA,NA,NA,NA
678329,"500 GRANT STREET 407","MINNEAPOLIS MN","MN",55404,44.970193538,-93.269451052,329,"500 GRANT STREET 407, MINNEAPOLIS MN, MN, 55404","Match","Non_Exact","500 E GRANT ST, MINNEAPOLIS, MN, 55404",43632402,"L"
678330,"500 GRAVES RD","OMAHA","IL",62871,NA,NA,330,"500 GRAVES RD, OMAHA, IL, 62871","No_Match",NA,NA,NA,NA
678331,"500 GREENTREE DRIVE APT O 68","COLUMBUS","MS",39702,33.501277477,-88.362363075,331,"500 GREENTREE DRIVE APT O 68, COLUMBUS, MS, 39702","Match","Exact","500 GREENTREE DR, COLUMBUS, MS, 39702",642281373,"L"
678332,"500 GREENWICH ST","NEW YORK CITY","NY",10013,40.7253746750001,-74.0092059359999,332,"500 GREENWICH ST, NEW YORK CITY, NY, 10013","Match","Exact","500 GREENWICH ST, NEW YORK, NY, 10013",59661678,"L"
678333,"500 GREENWICH STREET 602","NEW YORK","NY",10013,40.7253746750001,-74.0092059359999,333,"500 GREENWICH STREET 602, NEW YORK, NY, 10013","Match","Exact","500 GREENWICH ST, NEW YORK, NY, 10013",59661678,"L"
678334,"500 GREENWOOD PLACE","SYCRACUSE","NY",13210,43.0390829560001,-76.121310072,334,"500 GREENWOOD PLACE, SYCRACUSE, NY, 13210","Match","Non_Exact","500 GREENWOOD PL, SYRACUSE, NY, 13210",46573473,"R"
678335,"500 GRESHAM ROAD","KNOXVILLE","TN",37918,36.0407172050001,-83.935903755,335,"500 GRESHAM ROAD, KNOXVILLE, TN, 37918","Match","Exact","500 GRESHAM RD, KNOXVILLE, TN, 37918",42617012,"L"
678336,"500 GREY CT","CENTRAL POINT","OR",97502,42.3699292090001,-122.903343611,336,"500 GREY CT, CENTRAL POINT, OR, 97502","Match","Non_Exact","500 GRAY CT, CENTRAL POINT, OR, 97502",651769933,"R"
678337,"500 GRIFFITH","TERRELL","TX",75160,32.74584249,-96.283921037,337,"500 GRIFFITH, TERRELL, TX, 75160","Match","Non_Exact","500 GRIFFITH AVE, TERRELL, TX, 75160",123735891,"R"
678338,"500 GROVE LANE","LEXINGTON","KY",40517,37.9771734080001,-84.502663747,338,"500 GROVE LANE, LEXINGTON, KY, 40517","Match","Exact","500 GROVE LN, LEXINGTON, KY, 40517",31938854,"L"
678339,"500 HADDON AVE","COLLINGSWOOD","NJ",8108,NA,NA,339,"500 HADDON AVE, COLLINGSWOOD, NJ, 8108","No_Match",NA,NA,NA,NA
678340,"500 HALE STREET","SUFFIELD","CT",6078,41.9637506510001,-72.6740670469999,340,"500 HALE STREET, SUFFIELD, CT, 6078","Match","Exact","500 HALE ST, SUFFIELD, CT, 06078",604946312,"R"
678341,"500 HALOA RD","HAIKU","HI",96708,20.909522775,-156.27408382,341,"500 HALOA RD, HAIKU, HI, 96708","Match","Exact","500 HALOA RD, HAIKU, HI, 96708",85092297,"R"
678342,"500 HANNON WAY","LEXINGTON","KY",40509,37.990341583,-84.40586741,342,"500 HANNON WAY, LEXINGTON, KY, 40509","Match","Exact","500 HANNON WAY, LEXINGTON, KY, 40509",618013620,"L"
678343,"500 HANSEN PL","POLK CITY","IA",50226,41.762666419,-93.708793879,343,"500 HANSEN PL, POLK CITY, IA, 50226","Match","Exact","500 HANSEN PL, POLK CITY, IA, 50226",65862556,"L"
678344,"500 HARBOR VIEW HARBOR VIEW MARINA","BALTIMORE","IL",21230,NA,NA,344,"500 HARBOR VIEW HARBOR VIEW MARINA, BALTIMORE, IL, 21230","No_Match",NA,NA,NA,NA
678345,"500 HARCOURT","ANGOLA","IN",46703,NA,NA,345,"500 HARCOURT, ANGOLA, IN, 46703","No_Match",NA,NA,NA,NA
678346,"500 HARDING LANE","LAVON","TX",75166,33.017548494,-96.438677668,346,"500 HARDING LANE, LAVON, TX, 75166","Match","Exact","500 HARDING LN, LAVON, TX, 75166",616588266,"L"
678347,"500 HARRIS AVE","SACRAMENTO","CA",95838,38.6386030800001,-121.454727812,347,"500 HARRIS AVE, SACRAMENTO, CA, 95838","Match","Exact","500 HARRIS AVE, SACRAMENTO, CA, 95838",133320869,"R"
678348,"500 HARRISON PLACE DRIVE 326","DELAND","FL",32724,29.0199073210001,-81.295683853,348,"500 HARRISON PLACE DRIVE 326, DELAND, FL, 32724","Match","Exact","500 HARRISON PLACE DR, DELAND, FL, 32724",94600991,"L"
678349,"500 HARRISON","LAPORTE","IN",46350,41.6099838860001,-86.717553279,349,"500 HARRISON, LAPORTE, IN, 46350","Match","Non_Exact","500 HARRISON ST, LAPORTE, IN, 46350",15407185,"R"
678350,"500 HART STREET","BROOKLYN","NY",11221,40.6958638610001,-73.930951475,350,"500 HART STREET, BROOKLYN, NY, 11221","Match","Exact","500 HART ST, BROOKLYN, NY, 11221",59082568,"R"
678351,"500 HASSETT AVENUE","RIVER OAKS","TX",76114,32.7670216160001,-97.395671276,351,"500 HASSETT AVENUE, RIVER OAKS, TX, 76114","Match","Exact","500 HASSETT AVE, RIVER OAKS, TX, 76114",102109547,"R"
678352,"500 HAVEERSTRAW ROAD","SUFFERN","NY",10901,41.1399626040001,-74.117529769,352,"500 HAVEERSTRAW ROAD, SUFFERN, NY, 10901","Match","Non_Exact","500 HAVERSTRAW RD, SUFFERN, NY, 10901",124592001,"L"
678353,"500 HAVERSTRAW RD","SUFFERN","NY",10901,41.1399626040001,-74.117529769,353,"500 HAVERSTRAW RD, SUFFERN, NY, 10901","Match","Exact","500 HAVERSTRAW RD, SUFFERN, NY, 10901",124592001,"L"
678354,"500 HAVERSTRAW ROAD","SUFFERN","NY",10901,41.1399626040001,-74.117529769,354,"500 HAVERSTRAW ROAD, SUFFERN, NY, 10901","Match","Exact","500 HAVERSTRAW RD, SUFFERN, NY, 10901",124592001,"L"
678355,"500 HAWKS NEST PT","LEXINGTON","KY",40515,37.959299264,-84.5121006969999,355,"500 HAWKS NEST PT, LEXINGTON, KY, 40515","Match","Exact","500 HAWKS NEST PT, LEXINGTON, KY, 40515",618016726,"R"
678356,"500 HENLEY PERRY","MARSHALL","TX",75670,32.536704172,-94.363055338,356,"500 HENLEY PERRY, MARSHALL, TX, 75670","Match","Non_Exact","500 HENLEY PERRY DR, MARSHALL, TX, 75670",141175581,"L"
678357,"500 HICKERSON ST UNIT 2602","CONROE","TX",77301,30.302017719,-95.458969657,357,"500 HICKERSON ST UNIT 2602, CONROE, TX, 77301","Match","Exact","500 HICKERSON ST, CONROE, TX, 77301",79281117,"R"
678358,"500 HIGH AVE WEST","OSKALOOSA","IA",52577,41.2953086810001,-92.649866496,358,"500 HIGH AVE WEST, OSKALOOSA, IA, 52577","Match","Exact","500 HIGH AVE W, OSKALOOSA, IA, 52577",639210118,"L"
678359,"500 HIGH POINT DRIVE APT 415","HARTSDALE","NY",10456,41.032407258,-73.789169524,359,"500 HIGH POINT DRIVE APT 415, HARTSDALE, NY, 10456","Match","Non_Exact","500 HIGH POINT DR, HARTSDALE, NY, 10530",139738777,"R"
678360,"500 HIGH STREET","SEBASTOPOL","CA",95472,38.398072842,-122.823244822,360,"500 HIGH STREET, SEBASTOPOL, CA, 95472","Match","Exact","500 HIGH ST, SEBASTOPOL, CA, 95472",67465769,"R"
678361,"500 HIGHLAND STREET NW","VIENNA","VA",22180,38.9024104600001,-77.2797219409999,361,"500 HIGHLAND STREET NW, VIENNA, VA, 22180","Match","Exact","500 HIGHLAND ST NW, VIENNA, VA, 22180",75968608,"L"
678362,"500 HIGHLANDS LAKE DR","LAKE PLACID","FL",33852,27.3274888890001,-81.3184447,362,"500 HIGHLANDS LAKE DR, LAKE PLACID, FL, 33852","Match","Exact","500 HIGHLANDS LAKE DR, LAKE PLACID, FL, 33852",4667881,"L"
678363,"500 HILLCREST DR","WORLAND","WY",82401,44.0215048150001,-107.931701813,363,"500 HILLCREST DR, WORLAND, WY, 82401","Match","Non_Exact","500 N HILLCREST DR, WORLAND, WY, 82401",149718685,"R"
678364,"500 HILLSHADE CT UNIT B","WINTERVILLE","NC",28590,35.557168722,-77.399446744,364,"500 HILLSHADE CT UNIT B, WINTERVILLE, NC, 28590","Match","Exact","500 HILLSHADE CT, WINTERVILLE, NC, 28590",636028856,"R"
678365,"500 HILLSIDE DR APT 1702","BEEVILLE","TX",78102,28.4057482920001,-97.731627923,365,"500 HILLSIDE DR APT 1702, BEEVILLE, TX, 78102","Match","Non_Exact","500 S HILLSIDE DR, BEEVILLE, TX, 78102",637298709,"L"
678366,"500 HILLTOP DR APT 149","REDDING","CA",96003,40.599071033,-122.371125815,366,"500 HILLTOP DR APT 149, REDDING, CA, 96003","Match","Exact","500 HILLTOP DR, REDDING, CA, 96003",126706851,"R"
678367,"500 HINES STREET","LAGRANGE","GA",30241,33.038766219,-85.0226984289999,367,"500 HINES STREET, LAGRANGE, GA, 30241","Match","Exact","500 HINES ST, LAGRANGE, GA, 30241",1759649,"L"
678368,"500 HIRSCH STREET","NEWPORT","AR",72112,35.5995499270001,-91.280462282,368,"500 HIRSCH STREET, NEWPORT, AR, 72112","Match","Exact","500 HIRSCH ST, NEWPORT, AR, 72112",69426351,"R"
678369,"500 HODGSON ROAD","DARLINGTON","PA",16115,40.776898191,-80.4677981249999,369,"500 HODGSON ROAD, DARLINGTON, PA, 16115","Match","Exact","500 HODGSON RD, DARLINGTON, PA, 16115",636461399,"L"
678370,"500 HOES LANE","PISCATAWAY","NJ",8854,40.533959442,-74.469586651,370,"500 HOES LANE, PISCATAWAY, NJ, 8854","Match","Exact","500 HOES LN, PISCATAWAY, NJ, 08854",641737970,"R"
678371,"500 HOFFMAN LANE","HAUPPAGE","NY",11788,40.822928763,-73.186199614,371,"500 HOFFMAN LANE, HAUPPAGE, NY, 11788","Match","Non_Exact","500 HOFFMAN LN, HAUPPAUGE, NY, 11788",113989263,"R"
678372,"500 HOGUE ROAD","COLDSPRING","TX",77331,30.5980903720001,-95.1730058099999,372,"500 HOGUE ROAD, COLDSPRING, TX, 77331","Match","Exact","500 HOGUE RD, COLDSPRING, TX, 77331",24269695,"L"
678373,"500 HOLCOMB ROAD","LAS CRUCES","NM",88007,32.43100215,-106.871600758,373,"500 HOLCOMB ROAD, LAS CRUCES, NM, 88007","Match","Exact","500 HOLCOMB RD, LAS CRUCES, NM, 88007",189568687,"R"
678374,"500 HOLICK AVE","HENDERSON","NV",89011,36.062500721,-114.998065521,374,"500 HOLICK AVE, HENDERSON, NV, 89011","Match","Exact","500 HOLICK AVE, HENDERSON, NV, 89011",201880517,"R"
678375,"500 HOLMES AVE","LAKE PLACID","FL",33852,27.2826179370001,-81.333940619,375,"500 HOLMES AVE, LAKE PLACID, FL, 33852","Match","Exact","500 HOLMES AVE, LAKE PLACID, FL, 33852",4665579,"R"
678376,"500 HORSESHOE HILL ROAD","HOCKESSIN","DE",19707,39.7886906890001,-75.669381888,376,"500 HORSESHOE HILL ROAD, HOCKESSIN, DE, 19707","Match","Exact","500 HORSESHOE HILL RD, HOCKESSIN, DE, 19707",187252675,"L"
678377,"500 HOUSER ST","PARK HILLS","MO",63601,37.8480452750001,-90.507430885,377,"500 HOUSER ST, PARK HILLS, MO, 63601","Match","Exact","500 HOUSER ST, PARK HILLS, MO, 63601",62380159,"R"
678378,"500 HOWARD BAKER JR BLVD","KNOXVILLE","TN",37915,NA,NA,378,"500 HOWARD BAKER JR BLVD, KNOXVILLE, TN, 37915","No_Match",NA,NA,NA,NA
678379,"500 HUDGINS STREET","SMITHVILLE","TX",78957,30.008559086,-97.154691752,379,"500 HUDGINS STREET, SMITHVILLE, TX, 78957","Match","Exact","500 HUDGINS ST, SMITHVILLE, TX, 78957",45469101,"R"
678380,"500 HUDSON ST","JOHNSBURG","NY",12843,43.5988842350001,-73.960983504,380,"500 HUDSON ST, JOHNSBURG, NY, 12843","Match","Exact","500 HUDSON ST, JOHNSBURG, NY, 12843",173910763,"R"
678381,"500 HULL STREET APT 128","RICHMOND","VA",23224,NA,NA,381,"500 HULL STREET APT 128, RICHMOND, VA, 23224","No_Match",NA,NA,NA,NA
678382,"500 HULLCREST BLVD","MUNCY","PA",17756,41.126802049,-76.788493289,382,"500 HULLCREST BLVD, MUNCY, PA, 17756","Match","Exact","500 HULLCREST BLVD, MUNCY, PA, 17756",48074063,"L"
678383,"500 HUNT WAY LANE","HERNDON","VA",20170,38.9574298150001,-77.383875028,383,"500 HUNT WAY LANE, HERNDON, VA, 20170","Match","Exact","500 HUNT WAY LN, HERNDON, VA, 20170",76002728,"R"
678384,"500 HUNTER RIDGE RD","SAN MARCOS","TX",78666,29.823465099,-98.0061512619999,384,"500 HUNTER RIDGE RD, SAN MARCOS, TX, 78666","Match","Exact","500 HUNTER RIDGE RD, SAN MARCOS, TX, 78666",63823117,"R"
678385,"500 HWY 11 S","BEATTYVILLE","KY",41311,NA,NA,385,"500 HWY 11 S, BEATTYVILLE, KY, 41311","No_Match",NA,NA,NA,NA
678386,"500 I-45 SOUTH","CONROE","TX",77304,30.306483562,-95.469197928,386,"500 I-45 SOUTH, CONROE, TX, 77304","Match","Non_Exact","500 I- 45 S, CONROE, TX, 77304",79341172,"R"
678387,"500 IDYLLWILD DR","SAN JACINTO","CA",92583,33.7950010490001,-116.966159385,387,"500 IDYLLWILD DR, SAN JACINTO, CA, 92583","Match","Exact","500 IDYLLWILD DR, SAN JACINTO, CA, 92583",651007473,"R"
678388,"500 IMMANUEL ROAD","PFLUERGVILLE","TX",78660,NA,NA,388,"500 IMMANUEL ROAD, PFLUERGVILLE, TX, 78660","No_Match",NA,NA,NA,NA
678389,"500 IMMANUEL ROAD","PFLUGERVILLE","TX",78660,NA,NA,389,"500 IMMANUEL ROAD, PFLUGERVILLE, TX, 78660","No_Match",NA,NA,NA,NA
678390,"500 INDIANA AVENUE NW","WASHINGTON","DC",20001,38.8945271210001,-77.019525045,390,"500 INDIANA AVENUE NW, WASHINGTON, DC, 20001","Match","Exact","500 INDIANA AVE NW, WASHINGTON, DC, 20001",76226414,"L"
678391,"500 INDUSTRIAL DRIVE SUITE 2110","LAWRENCEBURG","IN",47025,39.101167042,-84.868565602,391,"500 INDUSTRIAL DRIVE SUITE 2110, LAWRENCEBURG, IN, 47025","Match","Exact","500 INDUSTRIAL DR, LAWRENCEBURG, IN, 47025",642298417,"L"
678392,"500 INDUSTRIAL DRIVE","WHITE","GA",30184,34.286394644,-84.738485566,392,"500 INDUSTRIAL DRIVE, WHITE, GA, 30184","Match","Non_Exact","500 INDUSTRIAL DR NE, WHITE, GA, 30184",634724310,"R"
678393,"500 INGRAHAM ST","Bay City","MI",48708,43.561600217,-83.8982700779999,393,"500 INGRAHAM ST, Bay City, MI, 48708","Match","Exact","500 INGRAHAM ST, BAY CITY, MI, 48708",81142191,"R"
678394,"500 INGRAHAM ST","BAY CITY","MI",48708,43.561600217,-83.8982700779999,394,"500 INGRAHAM ST, BAY CITY, MI, 48708","Match","Exact","500 INGRAHAM ST, BAY CITY, MI, 48708",81142191,"R"
678395,"500 ISLAND DR","CHOCOWINITY","NC",27817,35.412521634,-76.971752105,395,"500 ISLAND DR, CHOCOWINITY, NC, 27817","Match","Exact","500 ISLAND DR, CHOCOWINITY, NC, 27817",638665269,"R"
678396,"500 IVY AVE","PALM BEACH GARDENS","FL",33410,26.8218824370001,-80.090097902,396,"500 IVY AVE, PALM BEACH GARDENS, FL, 33410","Match","Exact","500 IVY AVE, PALM BEACH GARDENS, FL, 33410",115580299,"R"
678397,"500 JACKSON PL UNIT 203","GLENDALE","CA",91206,34.1558896350001,-118.25016762,397,"500 JACKSON PL UNIT 203, GLENDALE, CA, 91206","Match","Exact","500 JACKSON PL, GLENDALE, CA, 91206",141608894,"R"
678398,"500 JACKSON STREET","KENNER","LA",70062,29.9743636310001,-90.2408172889999,398,"500 JACKSON STREET, KENNER, LA, 70062","Match","Exact","500 JACKSON ST, KENNER, LA, 70062",93548926,"R"
678399,"500 JARNAGAN LN","FAYETTEVILLE","AR",72701,NA,NA,399,"500 JARNAGAN LN, FAYETTEVILLE, AR, 72701","No_Match",NA,NA,NA,NA
678400,"500 JEFFERSON COUNTY PARKWAY","GOLDEN","CO",80401,39.7310879450001,-105.20574447,400,"500 JEFFERSON COUNTY PARKWAY, GOLDEN, CO, 80401","Match","Exact","500 JEFFERSON COUNTY PKWY, GOLDEN, CO, 80401",642118182,"R"
678401,"500 JEFFERSON ST","POTTSVILLE","PA",17901,40.6843148350001,-76.1884857429999,401,"500 JEFFERSON ST, POTTSVILLE, PA, 17901","Match","Exact","500 JEFFERSON ST, POTTSVILLE, PA, 17901",70947641,"L"
678402,"500 JESSE STONE HIGGINS HALL 4TH FL","BATON ROUGE","LA",70813,NA,NA,402,"500 JESSE STONE HIGGINS HALL 4TH FL, BATON ROUGE, LA, 70813","No_Match",NA,NA,NA,NA
678403,"500 JIM SAPP RD","CLAXTON","GA",NA,32.1927861230001,-81.967705211,403,"500 JIM SAPP RD, CLAXTON, GA, ","Match","Exact","500 JIM SAPP RD, CLAXTON, GA, 30417",6297488,"L"
678404,"500 JOHN JAMES PARKWAY","AMHERST","NY",14228,NA,NA,404,"500 JOHN JAMES PARKWAY, AMHERST, NY, 14228","No_Match",NA,NA,NA,NA
678405,"500 JOSEPH C WILSON BLVD","ROCHESTER","NY",14627,43.131931648,-77.625211833,405,"500 JOSEPH C WILSON BLVD, ROCHESTER, NY, 14627","Match","Exact","500 JOSEPH C WILSON BLVD, ROCHESTER, NY, 14627",642705186,"L"
678406,"500 KAISER DRIVE","FOLCROFT","PA",19032,39.890990833,-75.270115881,406,"500 KAISER DRIVE, FOLCROFT, PA, 19032","Match","Exact","500 KAISER DR, FOLCROFT, PA, 19032",653368619,"L"
678407,"500 KANSAS AVE","PLATTE","SD",57369,43.3859683140001,-98.834423441,407,"500 KANSAS AVE, PLATTE, SD, 57369","Match","Exact","500 KANSAS AVE, PLATTE, SD, 57369",648301456,"L"
678408,"500 KATHY DRIVE","MESQUITE","TX",75149,32.7511645660001,-96.6017759599999,408,"500 KATHY DRIVE, MESQUITE, TX, 75149","Match","Exact","500 KATHY DR, MESQUITE, TX, 75149",102963725,"L"
678409,"500 KELSEY TRAIL","CRESCENT CITY","CA",95531,41.8440529490001,-124.109763452,409,"500 KELSEY TRAIL, CRESCENT CITY, CA, 95531","Match","Exact","500 KELSEY TRL, CRESCENT CITY, CA, 95531",113183507,"L"
678410,"500 KEMP LANDING","SUFFOLK","VA",23434,36.770729293,-76.5923131169999,410,"500 KEMP LANDING, SUFFOLK, VA, 23434","Match","Exact","500 KEMP LNDG, SUFFOLK, VA, 23434",122230721,"R"
678411,"500 KENILWORTH AVENUE","EAST DUNDEE","IL",60118,42.109902198,-88.270618793,411,"500 KENILWORTH AVENUE, EAST DUNDEE, IL, 60118","Match","Exact","500 KENILWORTH AVE, EAST DUNDEE, IL, 60118",119500530,"R"
678412,"500 KENION RD","HILLSBOROUGH","NC",27278,36.1347357160001,-79.127790854,412,"500 KENION RD, HILLSBOROUGH, NC, 27278","Match","Exact","500 KENION RD, HILLSBOROUGH, NC, 27278",627867666,"R"
678413,"500 KENNEDY AVE NW","NEW PRAGUE","MN",56071,44.5487223100001,-93.6011870679999,413,"500 KENNEDY AVE NW, NEW PRAGUE, MN, 56071","Match","Exact","500 KENNEDY AVE NW, NEW PRAGUE, MN, 56071",624277710,"R"
678414,"500 KENRIDGE CIRCLE","STONE MOUNTAIN","GA",30086,33.7888756950001,-84.22236721,414,"500 KENRIDGE CIRCLE, STONE MOUNTAIN, GA, 30086","Match","Non_Exact","500 KENRIDGE CIR, STONE MOUNTAIN, GA, 30083",647245342,"L"
678415,"500 KENYON STREET NW","WASHINGTON","DC",20010,38.930259097,-77.020106883,415,"500 KENYON STREET NW, WASHINGTON, DC, 20010","Match","Exact","500 KENYON ST NW, WASHINGTON, DC, 20010",76224212,"L"
678416,"500 KENYON STREET NW","WASHINGTON","DC",20032,38.930259097,-77.020106883,416,"500 KENYON STREET NW, WASHINGTON, DC, 20032","Match","Non_Exact","500 KENYON ST NW, WASHINGTON, DC, 20010",76224212,"L"
678417,"500 KERRINGTON LANE","PIKE ROAD","AL",36064,32.260482386,-86.037477488,417,"500 KERRINGTON LANE, PIKE ROAD, AL, 36064","Match","Non_Exact","500 KERINGTON LN, PIKE ROAD, AL, 36064",653610778,"R"
678418,"500 KILBURN COURT","FRANKLIN","TN",37067,35.929676757,-86.8282447669999,418,"500 KILBURN COURT, FRANKLIN, TN, 37067","Match","Exact","500 KILBURN CT, FRANKLIN, TN, 37067",607923601,"L"
678419,"500 KILLEBREW STREET","LYON","MS",38645,NA,NA,419,"500 KILLEBREW STREET, LYON, MS, 38645","No_Match",NA,NA,NA,NA
678420,"500 KIME ST","WILLARD","MO",65781,37.306532412,-93.4201615709999,420,"500 KIME ST, WILLARD, MO, 65781","Match","Exact","500 KIME ST, WILLARD, MO, 65781",635577438,"R"
678421,"500 KINVARRA COURT","SAN RAMON","CA",94582,37.762455909,-121.90103795,421,"500 KINVARRA COURT, SAN RAMON, CA, 94582","Match","Exact","500 KINVARRA CT, SAN RAMON, CA, 94582",192115667,"R"
678422,"500 KNIGHTS RUN AVE","TAMPA","FL",33602,27.93788475,-82.450973442,422,"500 KNIGHTS RUN AVE, TAMPA, FL, 33602","Match","Exact","500 KNIGHTS RUN AVE, TAMPA, FL, 33602",104653732,"R"
678423,"500 KNOLL WAY","COLUMBUS","GA",31904,NA,NA,423,"500 KNOLL WAY, COLUMBUS, GA, 31904","No_Match",NA,NA,NA,NA
678424,"500 KUCK LANE","PETALUMA",NA,NA,38.2573703530001,-122.71401856,424,"500 KUCK LANE, PETALUMA, , ","Match","Exact","500 KUCK LN, PETALUMA, CA, 94952",67490558,"R"
678425,"500 LA MIRADA DR","CORNVILLE","AZ",86325,34.730444032,-111.97267496,425,"500 LA MIRADA DR, CORNVILLE, AZ, 86325","Match","Non_Exact","500 S LA MIRADA DR, CORNVILLE, AZ, 86325",625745735,"R"
678426,"500 LA TERRAZA BLVD SUITE 150","ESCONDIDO","CA",92025,33.1124112150001,-117.096531228,426,"500 LA TERRAZA BLVD SUITE 150, ESCONDIDO, CA, 92025","Match","Non_Exact","500 LA TERRAZA BLVD, ESCONDIDO, CA, 92025",636467636,"L"
678427,"500 LAKE COOK RD STE 350","DEERFIELD","IL",60015,42.1527728950001,-87.8392224949999,427,"500 LAKE COOK RD STE 350, DEERFIELD, IL, 60015","Match","Exact","500 LAKE COOK RD, DEERFIELD, IL, 60015",112362353,"R"
678428,"500 LAKETOWER DRIVE UNIT 2","LEXINGTON","KY",40502,38.009090642,-84.4699300459999,428,"500 LAKETOWER DRIVE UNIT 2, LEXINGTON, KY, 40502","Match","Exact","500 LAKETOWER DR, LEXINGTON, KY, 40502",31927275,"L"
678429,"500 LAKETOWER DRIVE UNIT 85","LEXINGTON","KY",40502,38.009090642,-84.4699300459999,429,"500 LAKETOWER DRIVE UNIT 85, LEXINGTON, KY, 40502","Match","Exact","500 LAKETOWER DR, LEXINGTON, KY, 40502",31927275,"L"
678430,"500 LAKETOWER RD 18","LEXINGTON","KY",40502,38.009090642,-84.4699300459999,430,"500 LAKETOWER RD 18, LEXINGTON, KY, 40502","Match","Non_Exact","500 LAKETOWER DR, LEXINGTON, KY, 40502",31927275,"L"
678431,"500 LANIER AVE WEST STE 606A7","FAYETTEVILLE","GA",30214,NA,NA,431,"500 LANIER AVE WEST STE 606A7, FAYETTEVILLE, GA, 30214","No_Match",NA,NA,NA,NA
678432,"500 LANIERS WAY","EVANS","GA",30809,33.5603025390001,-82.1085622849999,432,"500 LANIERS WAY, EVANS, GA, 30809","Match","Exact","500 LANIERS WAY, EVANS, GA, 30809",619374381,"R"
678433,"500 LAUREL DRIVE","MONROEVILLE","PA",15146,40.448054314,-79.7816764729999,433,"500 LAUREL DRIVE, MONROEVILLE, PA, 15146","Match","Exact","500 LAUREL DR, MONROEVILLE, PA, 15146",51668942,"R"
678434,"500 LAUREL STREET","MANCHESTER","NH",3103,42.9887253310001,-71.438990208,434,"500 LAUREL STREET, MANCHESTER, NH, 3103","Match","Exact","500 LAUREL ST, MANCHESTER, NH, 03103",113576050,"L"
678435,"500 LAWNWOOD WAY","OXNARD","CA",93030,34.2181220360001,-119.182043293,435,"500 LAWNWOOD WAY, OXNARD, CA, 93030","Match","Exact","500 LAWNWOOD WAY, OXNARD, CA, 93030",110115934,"L"
678436,"500 LEES LANDING","JONESBORO","GA",30238,33.4601334380001,-84.375729856,436,"500 LEES LANDING, JONESBORO, GA, 30238","Match","Exact","500 LEES LNDG, JONESBORO, GA, 30238",636089150,"L"
678437,"500 LEVENHALL DRIVE","FAYETTEVILLE","NC",28314,35.051473614,-78.941489982,437,"500 LEVENHALL DRIVE, FAYETTEVILLE, NC, 28314","Match","Exact","500 LEVENHALL DR, FAYETTEVILLE, NC, 28314",64216537,"R"
678438,"500 LEWIS LANE","COVINGTON","IN",47932,40.1405541880001,-87.3834433169999,438,"500 LEWIS LANE, COVINGTON, IN, 47932","Match","Exact","500 LEWIS LN, COVINGTON, IN, 47932",55217862,"R"
678439,"500 LIMESTONE ROAD","CLARKSBURG","WV",26301,NA,NA,439,"500 LIMESTONE ROAD, CLARKSBURG, WV, 26301","No_Match",NA,NA,NA,NA
678440,"500 LIMESTONE ROAD","CLARKSBURG","WV",26440,NA,NA,440,"500 LIMESTONE ROAD, CLARKSBURG, WV, 26440","No_Match",NA,NA,NA,NA
678441,"500 LINCOLN STREET A9","SITKA","AK",99835,NA,NA,441,"500 LINCOLN STREET A9, SITKA, AK, 99835","No_Match",NA,NA,NA,NA
678442,"500 LINDEN AVE APT 5204","NEWPORT NEWS","VA",23606,37.0874800720001,-76.4757264959999,442,"500 LINDEN AVE APT 5204, NEWPORT NEWS, VA, 23606","Match","Exact","500 LINDEN AVE, NEWPORT NEWS, VA, 23606",618473667,"L"
678443,"500 LINDEN PL","ORANGE","NJ",7050,40.7769188890001,-74.234861036,443,"500 LINDEN PL, ORANGE, NJ, 7050","Match","Exact","500 LINDEN PL, ORANGE, NJ, 07050",63449942,"L"
678444,"500 LINDEN STREET","FORT COLLINS","CO",80524,40.592969753,-105.069539758,444,"500 LINDEN STREET, FORT COLLINS, CO, 80524","Match","Exact","500 LINDEN ST, FORT COLLINS, CO, 80524",188510601,"R"
678445,"500 LITTLE VALLEY RD","ROSEBURG","OR",97471,43.166196751,-123.386681663,445,"500 LITTLE VALLEY RD, ROSEBURG, OR, 97471","Match","Exact","500 LITTLE VALLEY RD, ROSEBURG, OR, 97471",637419035,"L"
678446,"500 LIVERPOOL DRIVE","MCDONOUGH","GA",30252,33.4421719540001,-84.047366589,446,"500 LIVERPOOL DRIVE, MCDONOUGH, GA, 30252","Match","Exact","500 LIVERPOOL DR, MCDONOUGH, GA, 30252",619917770,"R"
678447,"500 LOMBARD LANE","HIGHLANDS","NC",28741,35.058294227,-83.135172769,447,"500 LOMBARD LANE, HIGHLANDS, NC, 28741","Match","Exact","500 LOMBARD LN, HIGHLANDS, NC, 28741",608016565,"R"
678448,"500 LONDON AVE","EGG HARBOR","NJ",8215,39.535659191,-74.643470895,448,"500 LONDON AVE, EGG HARBOR, NJ, 8215","Match","Non_Exact","500 LONDON AVE, EGG HARBOR CY, NJ, 08215",202531982,"R"
678449,"500 LONESOME STAR TRAIL","HASLET","TX",76052,32.9432831600001,-97.367555134,449,"500 LONESOME STAR TRAIL, HASLET, TX, 76052","Match","Non_Exact","500 LONESOME STAR, HASLET, TX, 76052",637603616,"R"
678450,"500 LONGWOOD DR NE","CEDAR RAPIDS","IA",52402,41.996692324,-91.646842846,450,"500 LONGWOOD DR NE, CEDAR RAPIDS, IA, 52402","Match","Exact","500 LONGWOOD DR NE, CEDAR RAPIDS, IA, 52402",17022010,"R"
678451,"500 LONGWOOD","GLENCOE","IL",60022,42.133514989,-87.747582912,451,"500 LONGWOOD, GLENCOE, IL, 60022","Match","Non_Exact","500 LONGWOOD AVE, GLENCOE, IL, 60022",111840585,"L"
678452,"500 LOUISVILLE ST APT 5","STARKVILLE","MS",39759,33.455980563,-88.821827694,452,"500 LOUISVILLE ST APT 5, STARKVILLE, MS, 39759","Match","Exact","500 LOUISVILLE ST, STARKVILLE, MS, 39759",607235605,"L"
678453,"500 LOUISVILLE STREET APT 50","STARKVILLE","MS",39759,33.455980563,-88.821827694,453,"500 LOUISVILLE STREET APT 50, STARKVILLE, MS, 39759","Match","Exact","500 LOUISVILLE ST, STARKVILLE, MS, 39759",607235605,"L"
678454,"500 LOVERIDGE CIR APT 255","PITTSBURG","CA",94565,38.0068381180001,-121.872961479,454,"500 LOVERIDGE CIR APT 255, PITTSBURG, CA, 94565","Match","Exact","500 LOVERIDGE CIR, PITTSBURG, CA, 94565",192113648,"R"
678455,"500 LOWDERMILK ST","GREENSBORO","NC",27401,36.0786687730001,-79.745844808,455,"500 LOWDERMILK ST, GREENSBORO, NC, 27401","Match","Exact","500 LOWDERMILK ST, GREENSBORO, NC, 27401",131035864,"R"
678456,"500 LUNALILO HOME ROAD","HONOLULU","HI",96825,NA,NA,456,"500 LUNALILO HOME ROAD, HONOLULU, HI, 96825","No_Match",NA,NA,NA,NA
678457,"500 M ST NW UNIT 2","WASHINGTON","DC",20001,38.905642427,-77.0190072629999,457,"500 M ST NW UNIT 2, WASHINGTON, DC, 20001","Match","Exact","500 M ST NW, WASHINGTON, DC, 20001",76226265,"L"
678458,"500 MADIGAN AVENUE","MORGANTOWN","WV",26501,39.6183520070001,-79.965662579,458,"500 MADIGAN AVENUE, MORGANTOWN, WV, 26501","Match","Exact","500 MADIGAN AVE, MORGANTOWN, WV, 26501",636679139,"L"
678459,"500 MADISON AVE STE 300","TOLEDO","OH",43604,41.6518679660001,-83.535847,459,"500 MADISON AVE STE 300, TOLEDO, OH, 43604","Match","Exact","500 MADISON AVE, TOLEDO, OH, 43604",33943829,"R"
678460,"500 MAIDEN LANE","ROCHESTER","NY",14616,43.223748045,-77.652581385,460,"500 MAIDEN LANE, ROCHESTER, NY, 14616","Match","Exact","500 MAIDEN LN, ROCHESTER, NY, 14616",14527082,"R"
678461,"500 MAIN ST A","WINNSBORO","TX",75494,NA,NA,461,"500 MAIN ST A, WINNSBORO, TX, 75494","Tie",NA,NA,NA,NA
678462,"500 MAIN ST B","WINNSBORO","TX",75494,NA,NA,462,"500 MAIN ST B, WINNSBORO, TX, 75494","Tie",NA,NA,NA,NA
678463,"500 MAIN ST STE 6A","WALTHAM","MA",2452,42.376820412,-71.233026891,463,"500 MAIN ST STE 6A, WALTHAM, MA, 2452","Match","Exact","500 MAIN ST, WALTHAM, MA, 02452",87091515,"L"
678464,"500 MAIN ST SUITE 6A","WALTHAM","MA",2452,42.376820412,-71.233026891,464,"500 MAIN ST SUITE 6A, WALTHAM, MA, 2452","Match","Exact","500 MAIN ST, WALTHAM, MA, 02452",87091515,"L"
678465,"500 MAIN ST SUITE 6A","WATHAM","MA",2452,42.376820412,-71.233026891,465,"500 MAIN ST SUITE 6A, WATHAM, MA, 2452","Match","Non_Exact","500 MAIN ST, WALTHAM, MA, 02452",87091515,"L"
678466,"500 MAIN ST","OVID","CO",80744,40.9635576430001,-102.387884197,466,"500 MAIN ST, OVID, CO, 80744","Match","Exact","500 MAIN ST, OVID, CO, 80744",136360425,"R"
678467,"500 MAIN ST","THERESA","NY",13673,44.2176797070001,-75.805323731,467,"500 MAIN ST, THERESA, NY, 13673","Match","Non_Exact","500 MAIN ST, THERESA, NY, 13691",154233705,"R"
678468,"500 MAIN ST","TROY","IN",47588,37.9960839990001,-86.800411449,468,"500 MAIN ST, TROY, IN, 47588","Match","Exact","500 MAIN ST, TROY, IN, 47588",7682216,"L"
678469,"500 MAIN STREET STE 150","CHICO","CA",95928,39.728213171,-121.837935174,469,"500 MAIN STREET STE 150, CHICO, CA, 95928","Match","Exact","500 MAIN ST, CHICO, CA, 95928",68428650,"R"
678470,"500 MAIN STREET SUITE 1200","FORT WORTH","TX",76102,32.754442381,-97.33109289,470,"500 MAIN STREET SUITE 1200, FORT WORTH, TX, 76102","Match","Exact","500 MAIN ST, FORT WORTH, TX, 76102",101888808,"R"
678471,"500 MAIN STREET","EAU CLAIRE","WI",54701,44.811167964,-91.496518425,471,"500 MAIN STREET, EAU CLAIRE, WI, 54701","Match","Exact","500 MAIN ST, EAU CLAIRE, WI, 54701",46066806,"L"
678472,"500 MAIN STREET","WARREN","RI",2885,41.7292679810001,-71.2822918099999,472,"500 MAIN STREET, WARREN, RI, 2885","Match","Exact","500 MAIN ST, WARREN, RI, 02885",46480109,"L"
678473,"500 MAINE ST STE 1","QUINCY","IL",62301,39.931923366,-91.408371753,473,"500 MAINE ST STE 1, QUINCY, IL, 62301","Match","Exact","500 MAINE ST, QUINCY, IL, 62301",35088031,"L"
678474,"500 MAINE STREET","QUINCY","IL",62306,39.931923366,-91.408371753,474,"500 MAINE STREET, QUINCY, IL, 62306","Match","Non_Exact","500 MAINE ST, QUINCY, IL, 62301",35088031,"L"
678475,"500 MALLORY LANE APT 26H","STARKVILLE","MS",39759,33.4516787700001,-88.848907122,475,"500 MALLORY LANE APT 26H, STARKVILLE, MS, 39759","Match","Exact","500 MALLORY LN, STARKVILLE, MS, 39759",607235967,"R"
678476,"500 MANDEVILLE STREET","NEW ORLEANS","LA",70117,29.962856464,-90.053929081,476,"500 MANDEVILLE STREET, NEW ORLEANS, LA, 70117","Match","Exact","500 MANDEVILLE ST, NEW ORLEANS, LA, 70117",191716825,"L"
678477,"500 MANHATTAN DR APT A2","BOULDER","CO",80303,39.996818342,-105.22979899,477,"500 MANHATTAN DR APT A2, BOULDER, CO, 80303","Match","Exact","500 MANHATTAN DR, BOULDER, CO, 80303",608810683,"R"
678478,"500 MANHATTAN DR","BOULDER","CO",80303,39.996818342,-105.22979899,478,"500 MANHATTAN DR, BOULDER, CO, 80303","Match","Exact","500 MANHATTAN DR, BOULDER, CO, 80303",608810683,"R"
678479,"500 MANLEY LANE","COTTAGE GROVE","WI",53527,NA,NA,479,"500 MANLEY LANE, COTTAGE GROVE, WI, 53527","No_Match",NA,NA,NA,NA
678480,"500 MANORBROOK DRIVE","CHAGRIN FALLS","OH",44022,41.4369954570001,-81.344818494,480,"500 MANORBROOK DRIVE, CHAGRIN FALLS, OH, 44022","Match","Exact","500 MANORBROOK DR, CHAGRIN FALLS, OH, 44022",137439472,"R"
678481,"500 MAPLE COURT APT 101","FREDERICKSBURG","VA",22401,38.3146788,-77.4949963139999,481,"500 MAPLE COURT APT 101, FREDERICKSBURG, VA, 22401","Match","Exact","500 MAPLE CT, FREDERICKSBURG, VA, 22401",85036053,"R"
678482,"500 MARION AVENUE","WILMINGTON","DE",18909,39.7668372690001,-75.500742444,482,"500 MARION AVENUE, WILMINGTON, DE, 18909","Match","Non_Exact","500 MARION AVE, WILMINGTON, DE, 19809",187261572,"R"
678483,"500 MARKET AVE S","CANTON","OH",44702,40.7955938280001,-81.3757318149999,483,"500 MARKET AVE S, CANTON, OH, 44702","Match","Exact","500 MARKET AVE S, CANTON, OH, 44702",64682273,"L"
678484,"500 MARQUETTE AVE NW STE 1200","ALBUQUERQUE","NM",87102,35.088339654,-106.652228129,484,"500 MARQUETTE AVE NW STE 1200, ALBUQUERQUE, NM, 87102","Match","Exact","500 MARQUETTE AVE NW, ALBUQUERQUE, NM, 87102",206706521,"L"
678485,"500 MARVIEW AVE","AKRON","OH",44310,41.0995182250001,-81.5032409039999,485,"500 MARVIEW AVE, AKRON, OH, 44310","Match","Exact","500 MARVIEW AVE, AKRON, OH, 44310",61349506,"L"
678486,"500 MCDANIEL ST SW","ATLANTA","GA",30312,33.7414495900001,-84.40287861,486,"500 MCDANIEL ST SW, ATLANTA, GA, 30312","Match","Exact","500 MCDANIEL ST SW, ATLANTA, GA, 30312",643282706,"L"
678487,"500 MCLENNAN STREET SUITE 401","CLEARWATER","FL",33756,27.9454861670001,-82.799843208,487,"500 MCLENNAN STREET SUITE 401, CLEARWATER, FL, 33756","Match","Exact","500 MCLENNAN ST, CLEARWATER, FL, 33756",124670805,"L"
678488,"500 MCLENNAN STREET","CLEARWATER","FL",33756,27.9454861670001,-82.799843208,488,"500 MCLENNAN STREET, CLEARWATER, FL, 33756","Match","Exact","500 MCLENNAN ST, CLEARWATER, FL, 33756",124670805,"L"
678489,"500 MEADOWFIELD ROAD","YORKTOWN","VA",23682,37.1938009900001,-76.502990126,489,"500 MEADOWFIELD ROAD, YORKTOWN, VA, 23682","Match","Non_Exact","500 MEADOWFIELD RD, YORKTOWN, VA, 23692",103749977,"L"
678490,"500 MEADOWVIEW DRIVE NE","HARTSELLE","AL",35640,34.458562584,-86.92677981,490,"500 MEADOWVIEW DRIVE NE, HARTSELLE, AL, 35640","Match","Exact","500 MEADOWVIEW DR NE, HARTSELLE, AL, 35640",97128735,"L"
678491,"500 MEDICAL CENTER BLVD STE 220","CONROE","TX",77304,30.284405227,-95.466220444,491,"500 MEDICAL CENTER BLVD STE 220, CONROE, TX, 77304","Match","Exact","500 MEDICAL CENTER BLVD, CONROE, TX, 77304",79327819,"R"
678492,"500 MERRIMAN AVENUE","NEEDLES","CA",92363,34.8521372650001,-114.61534059,492,"500 MERRIMAN AVENUE, NEEDLES, CA, 92363","Match","Non_Exact","500 MERRIMAN ST, NEEDLES, CA, 92363",144523979,"R"
678493,"500 MIDDLE STREET","BROWNSVILLE","PA",15417,40.030541316,-79.880716335,493,"500 MIDDLE STREET, BROWNSVILLE, PA, 15417","Match","Exact","500 MIDDLE ST, BROWNSVILLE, PA, 15417",52815709,"R"
678494,"500 MIDDLETON DR","BOULDER CREEK","CA",95006,37.131976745,-122.119055864,494,"500 MIDDLETON DR, BOULDER CREEK, CA, 95006","Match","Exact","500 MIDDLETON DR, BOULDER CREEK, CA, 95006",617411275,"R"
678495,"500 MILAM DR","CONWAY","AR",72032,35.085452506,-92.403090479,495,"500 MILAM DR, CONWAY, AR, 72032","Match","Exact","500 MILAM DR, CONWAY, AR, 72032",141044230,"R"
678496,"500 MILIMISH LANE","VINE GROVE","KY",40175,37.7796543010001,-85.969362867,496,"500 MILIMISH LANE, VINE GROVE, KY, 40175","Match","Exact","500 MILIMISH LN, VINE GROVE, KY, 40175",34630155,"R"
678497,"500 MILL STONE RD","CHESAPEAKE","VA",23322,36.6693799290001,-76.211158398,497,"500 MILL STONE RD, CHESAPEAKE, VA, 23322","Match","Exact","500 MILL STONE RD, CHESAPEAKE, VA, 23322",121792043,"L"
678498,"500 MILLER AVE","FAYETTEVILLE","NC",28304,35.038762234,-78.945802709,498,"500 MILLER AVE, FAYETTEVILLE, NC, 28304","Match","Exact","500 MILLER AVE, FAYETTEVILLE, NC, 28304",64199323,"R"
678499,"500 MILLS RANCH ROAD","OROVILLE","CA",95966,39.566561805,-121.33472021,499,"500 MILLS RANCH ROAD, OROVILLE, CA, 95966","Match","Exact","500 MILLS RANCH RD, OROVILLE, CA, 95966",68424405,"R"
678500,"500 MINNETONKA MILLS ROAD","HOPKINS","MN",55343,NA,NA,500,"500 MINNETONKA MILLS ROAD, HOPKINS, MN, 55343","No_Match",NA,NA,NA,NA
