"ID","Address","City","State","Zip","lat","long","id","input_address","match_indicator","match_type","matched_address","tiger_line_id","tiger_side"
880501,"8140 BEST DRIVE","SHREVEPORT","LA",71129,NA,NA,1,"8140 BEST DRIVE, SHREVEPORT, LA, 71129","No_Match",NA,NA,NA,NA
880502,"8140 E MCKINNEY ST","DENTON","TX",76208,33.190332885,-97.048491321,2,"8140 E MCKINNEY ST, DENTON, TX, 76208","Match","Exact","8140 E MCKINNEY ST, DENTON, TX, 76208",640490823,"L"
880503,"8140 E SKYVIEW DRIVE","ORANGE","CA",92869,33.7913440880001,-117.766230252,3,"8140 E SKYVIEW DRIVE, ORANGE, CA, 92869","Match","Exact","8140 E SKYVIEW DR, ORANGE, CA, 92869",144124981,"L"
880504,"8140 EAST SIENNA STREET","MESA","AZ",85207,33.4857524770001,-111.655120716,4,"8140 EAST SIENNA STREET, MESA, AZ, 85207","Match","Exact","8140 E SIENNA ST, MESA, AZ, 85207",128862340,"L"
880505,"8140 EASTERN AVENUE NW","WASHINGTON","DC",20012,38.98913179,-77.03248015,5,"8140 EASTERN AVENUE NW, WASHINGTON, DC, 20012","Match","Exact","8140 EASTERN AVE NW, WASHINGTON, DC, 20012",62067911,"L"
880506,"8140 GLASGOW DR","LAURINBURG","NC",28352,34.690005308,-79.518749868,6,"8140 GLASGOW DR, LAURINBURG, NC, 28352","Match","Exact","8140 GLASGOW DR, LAURINBURG, NC, 28352",25788570,"R"
880507,"8140 HAROLD COURT APT 2C","GLEN BURNIE","MD",21061,39.1303376910001,-76.6340778639999,7,"8140 HAROLD COURT APT 2C, GLEN BURNIE, MD, 21061","Match","Exact","8140 HAROLD CT, GLEN BURNIE, MD, 21061",68194355,"R"
880508,"8140 HAWTHORNE STREET","GULFPORT","MS",39501,30.4017035580001,-89.110417847,8,"8140 HAWTHORNE STREET, GULFPORT, MS, 39501","Match","Non_Exact","8140 HAWTHORN ST, GULFPORT, MS, 39501",111394191,"R"
880509,"8140 HERITAGE PLACE DR","FORT WORTH","TX",76137,32.888719108,-97.29817214,9,"8140 HERITAGE PLACE DR, FORT WORTH, TX, 76137","Match","Exact","8140 HERITAGE PLACE DR, FORT WORTH, TX, 76137",102098513,"R"
880510,"8140 MARSHA LP","ANCHORAGE","AK",99507,61.1472211220001,-149.831826921,10,"8140 MARSHA LP, ANCHORAGE, AK, 99507","Match","Exact","8140 MARSHA LOOP, ANCHORAGE, AK, 99507",605334251,"R"
880511,"8140 N 107TH AVE NO 145","PHOENIX","AZ",85344,NA,NA,11,"8140 N 107TH AVE NO 145, PHOENIX, AZ, 85344","No_Match",NA,NA,NA,NA
880512,"8140 N IRON RIDGE DR","TUCSON","AZ",85743,32.354594047,-111.126976984,12,"8140 N IRON RIDGE DR, TUCSON, AZ, 85743","Match","Exact","8140 N IRON RIDGE DR, TUCSON, AZ, 85743",606806670,"L"
880513,"8140 NORTH MOPAC STE 250 BLDG 4","AUSTIN","TX",78759,30.3674872670001,-97.743294842,13,"8140 NORTH MOPAC STE 250 BLDG 4, AUSTIN, TX, 78759","Match","Non_Exact","8140 N MO PAC EXPY, AUSTIN, TX, 78759",63973947,"L"
880514,"8140 PENINSULA CIR","GRAND BLANC","MI",48439,42.9082064660001,-83.71209792,14,"8140 PENINSULA CIR, GRAND BLANC, MI, 48439","Match","Exact","8140 PENINSULA CIR, GRAND BLANC, MI, 48439",618399807,"L"
880515,"8140 RAVENSWALK LANE","CINCINNATI","OH",45243,39.2021532160001,-84.346887341,15,"8140 RAVENSWALK LANE, CINCINNATI, OH, 45243","Match","Exact","8140 RAVENSWALK LN, CINCINNATI, OH, 45243",103972651,"R"
880516,"8140 S CLYDE AVE","CHICAGO","IL",60617,41.7472203560001,-87.573474805,16,"8140 S CLYDE AVE, CHICAGO, IL, 60617","Match","Exact","8140 S CLYDE AVE, CHICAGO, IL, 60617",111775927,"R"
880517,"8140 S HOUGHTON RD STE 130","TUCSON","AZ",85747,32.104537022,-110.77271243,17,"8140 S HOUGHTON RD STE 130, TUCSON, AZ, 85747","Match","Non_Exact","8140 S HOUGHTON RD, TUCSON, AZ, 85747",618216167,"R"
880518,"8140 S WOLCOTT","CHICAGO","IL",60620,41.745839806,-87.6706083289999,18,"8140 S WOLCOTT, CHICAGO, IL, 60620","Match","Non_Exact","8140 S WOLCOTT AVE, CHICAGO, IL, 60620",111821115,"R"
880519,"8140 SILKWOOD CT","BOISE","ID",83704,43.636624155,-116.282756573,19,"8140 SILKWOOD CT, BOISE, ID, 83704","Match","Non_Exact","8140 W SILKWOOD CT, BOISE, ID, 83704",117879884,"R"
880520,"8140 SUZANNE","DETROIT","MI",48234,42.435647196,-83.021453315,20,"8140 SUZANNE, DETROIT, MI, 48234","Match","Non_Exact","8140 SUZANNE ST, DETROIT, MI, 48234",95466469,"R"
880521,"8140 TOWNSHIPLINE RD UNIT 21109","INDIANAPOLIS","IN",46260,39.9053540960001,-86.203040877,21,"8140 TOWNSHIPLINE RD UNIT 21109, INDIANAPOLIS, IN, 46260","Match","Non_Exact","8140 TOWNSHIP LINE RD, INDIANAPOLIS, IN, 46260",640840024,"L"
880522,"8140 TOWNSHIPLINE RD UNIT 4205","INDIANAPOLIS","IN",46260,39.9053540960001,-86.203040877,22,"8140 TOWNSHIPLINE RD UNIT 4205, INDIANAPOLIS, IN, 46260","Match","Non_Exact","8140 TOWNSHIP LINE RD, INDIANAPOLIS, IN, 46260",640840024,"L"
880523,"8140 TOWNSHIPLINE RD UNIT 4303","INDIANAPOLIS","IN",46260,39.9053540960001,-86.203040877,23,"8140 TOWNSHIPLINE RD UNIT 4303, INDIANAPOLIS, IN, 46260","Match","Non_Exact","8140 TOWNSHIP LINE RD, INDIANAPOLIS, IN, 46260",640840024,"L"
880524,"8140 VANALDEN AVENUE","RESEDA","CA",91335,34.2182105640001,-118.549168939,24,"8140 VANALDEN AVENUE, RESEDA, CA, 91335","Match","Exact","8140 VANALDEN AVE, RESEDA, CA, 91335",141541315,"R"
880525,"8140 WAKEFIELD AVE","JACKSONVILLE","FL",32208,30.3895000260001,-81.6435858519999,25,"8140 WAKEFIELD AVE, JACKSONVILLE, FL, 32208","Match","Exact","8140 WAKEFIELD AVE, JACKSONVILLE, FL, 32208",83897543,"L"
880526,"81408 476TH AVENUE","ORD","NE",68862,41.63099377,-98.943743458,26,"81408 476TH AVENUE, ORD, NE, 68862","Match","Exact","81408 476TH AVE, ORD, NE, 68862",198325153,"R"
880527,"8141 28TH ST S","WIS RAPIDS","WI",54494,44.3199505630001,-89.790285486,27,"8141 28TH ST S, WIS RAPIDS, WI, 54494","Match","Exact","8141 28TH ST S, WISCONSIN RAPIDS, WI, 54494",51290244,"R"
880528,"8141 BRIARWOOD STREET","ANCHORAGE","AK",99518,61.1475387450001,-149.860148534,28,"8141 BRIARWOOD STREET, ANCHORAGE, AK, 99518","Match","Exact","8141 BRIARWOOD ST, ANCHORAGE, AK, 99518",653127779,"L"
880529,"8141 BUCKPARK LN","POTOMAC","MD",20854,NA,NA,29,"8141 BUCKPARK LN, POTOMAC, MD, 20854","No_Match",NA,NA,NA,NA
880530,"8141 BUCKS LANE","EVANSVILLE","IN",47711,38.0531260550001,-87.5602532949999,30,"8141 BUCKS LANE, EVANSVILLE, IN, 47711","Match","Exact","8141 BUCKS LN, EVANSVILLE, IN, 47711",632520164,"R"
880531,"8141 E BUCKSPARK LANE","POTOMAC","MD",20854,NA,NA,31,"8141 E BUCKSPARK LANE, POTOMAC, MD, 20854","Tie",NA,NA,NA,NA
880532,"8141 FARNAM","OMAHA","NE",68114,41.2585471520001,-96.040066023,32,"8141 FARNAM, OMAHA, NE, 68114","Match","Non_Exact","8141 FARNAM DR, OMAHA, NE, 68114",117014880,"L"
880533,"8141 GLAMORGAN LANE","MATTHEWS","NC",28104,35.1350338300001,-80.6339797429999,33,"8141 GLAMORGAN LANE, MATTHEWS, NC, 28104","Match","Exact","8141 GLAMORGAN LN, MATTHEWS, NC, 28104",14218868,"L"
880534,"8141 GLAMORGAN LN","MATTHEWS","NC",28104,35.1350338300001,-80.6339797429999,34,"8141 GLAMORGAN LN, MATTHEWS, NC, 28104","Match","Exact","8141 GLAMORGAN LN, MATTHEWS, NC, 28104",14218868,"L"
880535,"8141 HINDS AVE","NORTH HOLLYWOOD","CA",91605,34.2183445270001,-118.39106627,35,"8141 HINDS AVE, NORTH HOLLYWOOD, CA, 91605","Match","Exact","8141 HINDS AVE, N HOLLYWOOD, CA, 91605",141581283,"L"
880536,"8141 HUDSON ST","WARREN","MI",48089,42.4579668100001,-83.024423117,36,"8141 HUDSON ST, WARREN, MI, 48089","Match","Non_Exact","8141 HUDSON AVE, WARREN, MI, 48089",110676924,"L"
880537,"8141 LAND O LAKES DRIVE","KALAMAZOO","MI",49048,42.200024983,-85.529734542,37,"8141 LAND O LAKES DRIVE, KALAMAZOO, MI, 49048","Match","Exact","8141 LAND O LAKES DR, KALAMAZOO, MI, 49048",12253963,"R"
880538,"8141 LAND-O-LAKES DRIVE","KALAMAZOO","MI",49048,42.1983133700001,-85.5294331439999,38,"8141 LAND-O-LAKES DRIVE, KALAMAZOO, MI, 49048","Match","Exact","8141 LAND-O-LAKES DR, KALAMAZOO, MI, 49048",12232302,"L"
880539,"8141 LINDEN DRIVE","KING GEORGE","VA",22485,38.3032111480001,-77.269803316,39,"8141 LINDEN DRIVE, KING GEORGE, VA, 22485","Match","Exact","8141 LINDEN DR, KING GEORGE, VA, 22485",22060735,"L"
880540,"8141 LOVING FORREST CT","SPRINGFIELD","VA",22153,38.7381365900001,-77.241134615,40,"8141 LOVING FORREST CT, SPRINGFIELD, VA, 22153","Match","Non_Exact","8141 LOVING FOREST CT, SPRINGFIELD, VA, 22153",639869219,"R"
880541,"8141 MARSEILLE DRIVE","HUNTINGTON BEACH","CA",92647,33.713162722,-117.986581731,41,"8141 MARSEILLE DRIVE, HUNTINGTON BEACH, CA, 92647","Match","Exact","8141 MARSEILLE DR, HUNTINGTON BEACH, CA, 92647",144018586,"L"
880542,"8141 MILL CREEK DR","ZUNI","VA",23898,36.8303924960001,-76.787936605,42,"8141 MILL CREEK DR, ZUNI, VA, 23898","Match","Exact","8141 MILL CREEK DR, ZUNI, VA, 23898",198635580,"R"
880543,"8141 N 51ST STREET","BROWN DEER","WI",53223,43.166158448,-87.9747888859999,43,"8141 N 51ST STREET, BROWN DEER, WI, 53223","Match","Exact","8141 N 51ST ST, BROWN DEER, WI, 53223",77725647,"L"
880544,"8141 OLD FLOYD RD","ROME","NY",13440,43.2258500030001,-75.346037998,44,"8141 OLD FLOYD RD, ROME, NY, 13440","Match","Exact","8141 OLD FLOYD RD, ROME, NY, 13440",171525212,"L"
880545,"8141 PLATEAU DR","FORT WORTH","TX",76120,32.740228126,-97.179846692,45,"8141 PLATEAU DR, FORT WORTH, TX, 76120","Match","Exact","8141 PLATEAU DR, FORT WORTH, TX, 76120",637604409,"L"
880546,"8141 S MICHIGAN","CHICAGO","IL",60619,41.746573848,-87.621256017,46,"8141 S MICHIGAN, CHICAGO, IL, 60619","Match","Non_Exact","8141 S MICHIGAN AVE, CHICAGO, IL, 60619",111772728,"L"
880547,"8141 S WINCHESTER AVE","CHICAGO","IL",60620,41.745823907,-87.671803621,47,"8141 S WINCHESTER AVE, CHICAGO, IL, 60620","Match","Exact","8141 S WINCHESTER AVE, CHICAGO, IL, 60620",111821113,"L"
880548,"8141 S WINCHESTER","CHICAGO","IL",60620,41.745823907,-87.671803621,48,"8141 S WINCHESTER, CHICAGO, IL, 60620","Match","Non_Exact","8141 S WINCHESTER AVE, CHICAGO, IL, 60620",111821113,"L"
880549,"8141 SILK CIR","INDIANAPOLIS","IN",46256,39.9145698340001,-86.0249215219999,49,"8141 SILK CIR, INDIANAPOLIS, IN, 46256","Match","Exact","8141 SILK CIR, INDIANAPOLIS, IN, 46256",108017700,"R"
880550,"8141 SW 170 TERRACE","MIAMI","FL",33157,25.6122979310001,-80.324085388,50,"8141 SW 170 TERRACE, MIAMI, FL, 33157","Match","Exact","8141 SW 170TH TER, MIAMI, FL, 33157",116085082,"R"
880551,"8141 SW 170 TERRACE","MIAMI","FL",33178,25.6122979310001,-80.324085388,51,"8141 SW 170 TERRACE, MIAMI, FL, 33178","Match","Non_Exact","8141 SW 170TH TER, MIAMI, FL, 33157",116085082,"R"
880552,"8141 SW 170TH TER","MIAMI","FL",33157,25.6122979310001,-80.324085388,52,"8141 SW 170TH TER, MIAMI, FL, 33157","Match","Exact","8141 SW 170TH TER, MIAMI, FL, 33157",116085082,"R"
880553,"8141 SW 180 ST","PALMETTO BAY","FL",33157,25.603310526,-80.323412847,53,"8141 SW 180 ST, PALMETTO BAY, FL, 33157","Match","Exact","8141 SW 180TH ST, PALMETTO BAY, FL, 33157",116066616,"R"
880554,"8141 SW YACHTSMANS DRIVE","STUART","FL",34997,27.1037520960001,-80.2851737949999,54,"8141 SW YACHTSMANS DRIVE, STUART, FL, 34997","Match","Exact","8141 SW YACHTSMANS DR, STUART, FL, 34997",120471650,"R"
880555,"8141 TRANQUIL LAKE WAY","CONROE","TX",77385,30.2040329970001,-95.4453171649999,55,"8141 TRANQUIL LAKE WAY, CONROE, TX, 77385","Match","Exact","8141 TRANQUIL LAKE WAY, CONROE, TX, 77385",614129793,"R"
880556,"8141 UNIVERSITY DRIVE","CLAYTON","MO",63105,38.654018729,-90.341750147,56,"8141 UNIVERSITY DRIVE, CLAYTON, MO, 63105","Match","Exact","8141 UNIVERSITY DR, CLAYTON, MO, 63105",100134649,"R"
880557,"8141 UTAH AVE S","BLOOMINGTON","MN",55438,44.8550682640001,-93.385387137,57,"8141 UTAH AVE S, BLOOMINGTON, MN, 55438","Match","Exact","8141 UTAH AVE S, BLOOMINGTON, MN, 55438",43810696,"L"
880558,"8141 W GLOBE AVE","PHOENIX","AZ",85043,33.4186539250001,-112.235040608,58,"8141 W GLOBE AVE, PHOENIX, AZ, 85043","Match","Exact","8141 W GLOBE AVE, PHOENIX, AZ, 85043",243959107,"L"
880559,"8141 WARREN AVE","MILWAUKEE","WI",53213,43.0538964580001,-88.014543668,59,"8141 WARREN AVE, MILWAUKEE, WI, 53213","Match","Exact","8141 WARREN AVE, MILWAUKEE, WI, 53213",77729461,"L"
880560,"81413 GOLDEN POPPY WAY","LA QUINTA","CA",92253,33.602406757,-116.243730166,60,"81413 GOLDEN POPPY WAY, LA QUINTA, CA, 92253","Match","Exact","81413 GOLDEN POPPY WAY, LA QUINTA, CA, 92253",653162395,"R"
880561,"81415 45TH ST","LYONS","IL",60534,NA,NA,61,"81415 45TH ST, LYONS, IL, 60534","No_Match",NA,NA,NA,NA
880562,"8142 150TH PL SE","NEWCASTLE","WA",98059,47.5299072500001,-122.139231703,62,"8142 150TH PL SE, NEWCASTLE, WA, 98059","Match","Exact","8142 150TH PL SE, NEWCASTLE, WA, 98059",635621664,"R"
880563,"8142 BELLOWPARK DR","REYNOLDSBURG","OH",43068,39.97574253,-82.785758156,63,"8142 BELLOWPARK DR, REYNOLDSBURG, OH, 43068","Match","Non_Exact","8142 BELLOW PARK DR, REYNOLDSBURG, OH, 43068",627088163,"R"
880564,"8142 BIRCHFIELD DRIVE","INDIANAPOLIS","IN",46268,39.9024287490001,-86.2200632829999,64,"8142 BIRCHFIELD DRIVE, INDIANAPOLIS, IN, 46268","Match","Exact","8142 BIRCHFIELD DR, INDIANAPOLIS, IN, 46268",636072797,"L"
880565,"8142 BUFFIN ROAD","HENRICO","VA",23231,37.4416119000001,-77.3461582199999,65,"8142 BUFFIN ROAD, HENRICO, VA, 23231","Match","Exact","8142 BUFFIN RD, HENRICO, VA, 23231",106680130,"R"
880566,"8142 CALIFORNIA ST","BUENA PARK","CA",90621,33.864868383,-117.990635297,66,"8142 CALIFORNIA ST, BUENA PARK, CA, 90621","Match","Exact","8142 CALIFORNIA ST, BUENA PARK, CA, 90621",144010233,"R"
880567,"8142 DOTTY RD","ROSEDALE","MD",21237,39.3733967220001,-76.484746054,67,"8142 DOTTY RD, ROSEDALE, MD, 21237","Match","Exact","8142 DOTTY RD, ROSEDALE, MD, 21237",625237841,"R"
880568,"8142 DRIGGS HL","WEST PALM BEACH","FL",33411,26.718458356,-80.172783916,68,"8142 DRIGGS HL, WEST PALM BEACH, FL, 33411","Match","Exact","8142 DRIGGS HILL, WEST PALM BEACH, FL, 33411",115348807,"R"
880569,"8142 FOREST OAK WAY","CITRUS HEIGHTS","CA",95610,38.709531505,-121.260451451,69,"8142 FOREST OAK WAY, CITRUS HEIGHTS, CA, 95610","Match","Exact","8142 FOREST OAK WAY, CITRUS HEIGHTS, CA, 95610",133328999,"R"
880570,"8142 FORREST AVE","PHILADELPHIA","PA",19150,40.0740684020001,-75.17168552,70,"8142 FORREST AVE, PHILADELPHIA, PA, 19150","Match","Exact","8142 FORREST AVE, PHILADELPHIA, PA, 19150",131394939,"L"
880571,"8142 FOXDALE DR","JACKSONVILLE","FL",32210,30.2608103270001,-81.782479587,71,"8142 FOXDALE DR, JACKSONVILLE, FL, 32210","Match","Exact","8142 FOXDALE DR, JACKSONVILLE, FL, 32210",83973899,"L"
880572,"8142 GEYSER","RESEDA","CA",91335,34.2182520040001,-118.542616592,72,"8142 GEYSER, RESEDA, CA, 91335","Match","Non_Exact","8142 GEYSER AVE, RESEDA, CA, 91335",141541387,"R"
880573,"8142 HALIFAX WAY","NORTH CHARLESTON","SC",29420,32.935129799,-80.090889185,73,"8142 HALIFAX WAY, NORTH CHARLESTON, SC, 29420","Match","Exact","8142 HALIFAX WAY, N CHARLESTON, SC, 29420",178478991,"R"
880574,"8142 HALLECK PL","SPRINGFIELD","VA",22151,38.8003978090001,-77.2271948539999,74,"8142 HALLECK PL, SPRINGFIELD, VA, 22151","Match","Exact","8142 HALLECK PL, SPRINGFIELD, VA, 22151",75976077,"R"
880575,"8142 HAROLD COURT APT 3C","GLEN BURNIE","MD",21061,39.13044806,-76.634160811,75,"8142 HAROLD COURT APT 3C, GLEN BURNIE, MD, 21061","Match","Exact","8142 HAROLD CT, GLEN BURNIE, MD, 21061",68179233,"L"
880576,"8142 HIDDEN PONDS DR","GRAND BLANC","MI",48439,42.911430959,-83.7015786599999,76,"8142 HIDDEN PONDS DR, GRAND BLANC, MI, 48439","Match","Exact","8142 HIDDEN PONDS DR, GRAND BLANC, MI, 48439",618399477,"R"
880577,"8142 LINCOLN AVENUE","SKOKIE","IL",60077,42.0287895380001,-87.755025052,77,"8142 LINCOLN AVENUE, SKOKIE, IL, 60077","Match","Exact","8142 LINCOLN AVE, SKOKIE, IL, 60077",112370307,"L"
880578,"8142 MONON","CINCINNATI","OH",45216,39.209086627,-84.4722777549999,78,"8142 MONON, CINCINNATI, OH, 45216","Match","Non_Exact","8142 MONON AVE, CINCINNATI, OH, 45216",103928033,"R"
880579,"8142 NEW KINGS RD","JACKSONVILLE","FL",32219,30.399928356,-81.740625344,79,"8142 NEW KINGS RD, JACKSONVILLE, FL, 32219","Match","Exact","8142 NEW KINGS RD, JACKSONVILLE, FL, 32219",83965384,"L"
880580,"8142 POST ROAD","NIAGARA FALLS, ONTAR",NA,NA,NA,NA,80,"8142 POST ROAD, NIAGARA FALLS, ONTAR, , ","No_Match",NA,NA,NA,NA
880581,"8142 QUILL POINT DRIVE","BOWIE","MD",20720,38.9979634260001,-76.7884335269999,81,"8142 QUILL POINT DRIVE, BOWIE, MD, 20720","Match","Exact","8142 QUILL POINT DR, BOWIE, MD, 20720",76340486,"L"
880582,"8142 SCULLY RD","DEXTER","MI",48130,42.3998387130001,-83.834165818,82,"8142 SCULLY RD, DEXTER, MI, 48130","Match","Exact","8142 SCULLY RD, DEXTER, MI, 48130",26010117,"R"
880583,"8142 SOFT WINDS DRIVE","CORONA","CA",92883,33.798855239,-117.517455762,83,"8142 SOFT WINDS DRIVE, CORONA, CA, 92883","Match","Exact","8142 SOFT WINDS DR, CORONA, CA, 92883",633951154,"L"
880584,"8142 TRAVERSE COURT","CINCINNATI","OH",45242,39.2291339230001,-84.3506168599999,84,"8142 TRAVERSE COURT, CINCINNATI, OH, 45242","Match","Exact","8142 TRAVERSE CT, CINCINNATI, OH, 45242",103938629,"L"
880585,"8143 15TH AVENUE","HYATTSVILLE","MD",20783,38.9885119080001,-76.981287903,85,"8143 15TH AVENUE, HYATTSVILLE, MD, 20783","Match","Exact","8143 15TH AVE, HYATTSVILLE, MD, 20783",647300540,"R"
880586,"8143 16TH AVE S","BLOOMINGTON","MN",55425,44.8559928760001,-93.2517010079999,86,"8143 16TH AVE S, BLOOMINGTON, MN, 55425","Match","Exact","8143 16TH AVE S, BLOOMINGTON, MN, 55425",43593656,"L"
880587,"8143 CARTEN STREET","DOUGLASVILLE","GA",30134,33.758152486,-84.751010459,87,"8143 CARTEN STREET, DOUGLASVILLE, GA, 30134","Match","Exact","8143 CARTEN ST, DOUGLASVILLE, GA, 30134",648392887,"R"
880588,"8143 CONRIDGE DR","MEMPHIS","TN",38125,35.025589788,-89.792748853,88,"8143 CONRIDGE DR, MEMPHIS, TN, 38125","Match","Exact","8143 CONRIDGE DR, MEMPHIS, TN, 38125",72964605,"R"
880589,"8143 FM 859","EDGEWOOD","TX",75117,32.6659038170001,-95.8802595129999,89,"8143 FM 859, EDGEWOOD, TX, 75117","Match","Exact","8143 FM 859, EDGEWOOD, TX, 75117",42947853,"R"
880590,"8143 GARGEN GATE STREET","CHINO","CA",91710,NA,NA,90,"8143 GARGEN GATE STREET, CHINO, CA, 91710","No_Match",NA,NA,NA,NA
880591,"8143 HAMPTON DRIVE","WOODRIDGE","IL",60517,41.739087623,-88.032587178,91,"8143 HAMPTON DRIVE, WOODRIDGE, IL, 60517","Match","Exact","8143 HAMPTON DR, WOODRIDGE, IL, 60517",112674620,"R"
880592,"8143 JULIAN DR","WESTERVILLE","OH",43082,40.173414671,-82.89237352,92,"8143 JULIAN DR, WESTERVILLE, OH, 43082","Match","Exact","8143 JULIAN DR, WESTERVILLE, OH, 43082",213002037,"L"
880593,"8143 S PERRY AVE","CHICAGO","IL",60620,41.7461944820001,-87.626896291,93,"8143 S PERRY AVE, CHICAGO, IL, 60620","Match","Exact","8143 S PERRY AVE, CHICAGO, IL, 60620",605520051,"L"
880594,"8143 SAN FIDEL WAY","SAN ANTONIO","TX",78255,29.6632577450001,-98.645871499,94,"8143 SAN FIDEL WAY, SAN ANTONIO, TX, 78255","Match","Exact","8143 SAN FIDEL WAY, SAN ANTONIO, TX, 78255",627920548,"L"
880595,"8143 SOUTH EBERHART","CHICAGO","IL",60619,41.746702627,-87.612367535,95,"8143 SOUTH EBERHART, CHICAGO, IL, 60619","Match","Non_Exact","8143 S EBERHART AVE, CHICAGO, IL, 60619",111772906,"L"
880596,"8143 VENTANA CIELO NW","ALBUQUERQUE","NM",87114,35.1954920370001,-106.756229509,96,"8143 VENTANA CIELO NW, ALBUQUERQUE, NM, 87114","Match","Non_Exact","8143 VENTANA CIELO AVE NW, ALBUQUERQUE, NM, 87114",635340004,"L"
880597,"8143 VIA MALLORCA","LA JOLLA","CA",92037,32.8546095020001,-117.235655847,97,"8143 VIA MALLORCA, LA JOLLA, CA, 92037","Match","Exact","8143 VIA MALLORCA, LA JOLLA, CA, 92037",195301368,"R"
880598,"8143 WHITHAM LN","INDIANAPOLIS","IN",46237,39.6485071480001,-86.088446656,98,"8143 WHITHAM LN, INDIANAPOLIS, IN, 46237","Match","Non_Exact","8143 WHITHAM DR, INDIANAPOLIS, IN, 46237",108069109,"R"
880599,"8143 WITTHAM LN","INDIANAPOLIS","IN",46237,NA,NA,99,"8143 WITTHAM LN, INDIANAPOLIS, IN, 46237","No_Match",NA,NA,NA,NA
880600,"8143 WOODLAND AVE","STONEWOOD","WV",26301,39.257957312,-80.314514254,100,"8143 WOODLAND AVE, STONEWOOD, WV, 26301","Match","Exact","8143 WOODLAND AVE, STONEWOOD, WV, 26301",53303033,"R"
880601,"8144 13TH ST","WESTMINSTER","CA",92683,33.755656206,-117.986678035,101,"8144 13TH ST, WESTMINSTER, CA, 92683","Match","Exact","8144 13TH ST, WESTMINSTER, CA, 92683",144016247,"R"
880602,"8144 24TH AVENUE NORTH","ST PETERSBURG","FL",33710,27.7937101950001,-82.75266842,102,"8144 24TH AVENUE NORTH, ST PETERSBURG, FL, 33710","Match","Exact","8144 24TH AVE N, SAINT PETERSBURG, FL, 33710",124693751,"L"
880603,"8144 AMETHYST DR","MCLEAN","VA",22102,38.928306053,-77.225036723,103,"8144 AMETHYST DR, MCLEAN, VA, 22102","Match","Exact","8144 AMETHYST DR, MCLEAN, VA, 22102",645569738,"L"
880604,"8144 BALSAMWOOD LANE","LIVERPOOL","NY",13090,43.1702611260001,-76.228186087,104,"8144 BALSAMWOOD LANE, LIVERPOOL, NY, 13090","Match","Exact","8144 BALSAMWOOD LN, LIVERPOOL, NY, 13090",46621856,"L"
880605,"8144 BOBOLINK DRIVE","CINCINNATI","OH",45244,39.215659315,-84.5345917449999,105,"8144 BOBOLINK DRIVE, CINCINNATI, OH, 45244","Match","Non_Exact","8144 BOBOLINK DR, CINCINNATI, OH, 45224",633017928,"R"
880606,"8144 GARLAND LANE N","MAPLE GROVE","MN",55311,45.1026033160001,-93.4963472269999,106,"8144 GARLAND LANE N, MAPLE GROVE, MN, 55311","Match","Exact","8144 GARLAND LN N, MAPLE GROVE, MN, 55311",43845085,"R"
880607,"8144 IRVING STREET","WESTMINSTER","CO",80031,39.8446034890001,-105.029599599,107,"8144 IRVING STREET, WESTMINSTER, CO, 80031","Match","Exact","8144 IRVING ST, WESTMINSTER, CO, 80031",177294451,"R"
880608,"8144 MISTY MEADOW DRIVE","PALOS HEIGHTS","IL",60463,41.6493572970001,-87.820041959,108,"8144 MISTY MEADOW DRIVE, PALOS HEIGHTS, IL, 60463","Match","Exact","8144 MISTY MEADOW DR, PALOS HEIGHTS, IL, 60463",112208938,"L"
880609,"8144 N CRYSTAL ROAD","DUBOIS","IN",47527,38.498449275,-86.751669448,109,"8144 N CRYSTAL ROAD, DUBOIS, IN, 47527","Match","Exact","8144 N CRYSTAL RD, DUBOIS, IN, 47527",7890100,"R"
880610,"8144 N STATE ROAD 161","GENTRYVILLE","IN",47537,NA,NA,110,"8144 N STATE ROAD 161, GENTRYVILLE, IN, 47537","No_Match",NA,NA,NA,NA
880611,"8144 N STONEHAVEN DRIVE","HAYDEN","ID",83835,47.7458835250001,-116.77141625,111,"8144 N STONEHAVEN DRIVE, HAYDEN, ID, 83835","Match","Non_Exact","8144 N STONE HAVEN DR, HAYDEN, ID, 83835",192940163,"L"
880612,"8144 NORTH EDGE O WOODS DRIVE","MILWAUKEE","WI",53222,43.1661986670001,-87.9940519949999,112,"8144 NORTH EDGE O WOODS DRIVE, MILWAUKEE, WI, 53222","Match","Non_Exact","8144 N EDGE O WOODS DR, MILWAUKEE, WI, 53223",77725326,"R"
880613,"8144 PIONEER DR","BAKERSFIELD","CA",93306,35.368959584,-118.912256836,113,"8144 PIONEER DR, BAKERSFIELD, CA, 93306","Match","Exact","8144 PIONEER DR, BAKERSFIELD, CA, 93306",109097932,"L"
880614,"8144 POMPANO STREET","NAVARRE","FL",32566,30.3999390660001,-86.8825400549999,114,"8144 POMPANO STREET, NAVARRE, FL, 32566","Match","Exact","8144 POMPANO ST, NAVARRE, FL, 32566",74596800,"R"
880615,"8144 SIRRON ST","DETROIT","MI",48234,42.4403494760001,-83.021563074,115,"8144 SIRRON ST, DETROIT, MI, 48234","Match","Exact","8144 SIRRON ST, DETROIT, MI, 48234",95466447,"R"
880616,"8144 SVL BOX","VICTORVILLE","CA",92395,NA,NA,116,"8144 SVL BOX, VICTORVILLE, CA, 92395","No_Match",NA,NA,NA,NA
880617,"8144 SW 119TH PATH","MIAMI","FL",33183,25.692315093,-80.387550796,117,"8144 SW 119TH PATH, MIAMI, FL, 33183","Match","Exact","8144 SW 119TH PATH, MIAMI, FL, 33183",625161343,"R"
880618,"8144 WESTERN","THE COLONY","TX",75056,33.1155210650001,-96.9248281659999,118,"8144 WESTERN, THE COLONY, TX, 75056","Match","Exact","8144 WESTERN, THE COLONY, TX, 75056",650734738,"R"
880619,"8144A JOHNSON ST","DEL RIO","TX",78840,29.3510473370001,-100.793666599,119,"8144A JOHNSON ST, DEL RIO, TX, 78840","Match","Exact","8144 JOHNSON ST, DEL RIO, TX, 78840",173577605,"L"
880620,"8145 AMERICAN HOLLY RD","LORTON","VA",22079,38.7176732820001,-77.2292803,120,"8145 AMERICAN HOLLY RD, LORTON, VA, 22079","Match","Exact","8145 AMERICAN HOLLY RD, LORTON, VA, 22079",635866926,"R"
880621,"8145 AUDRAIN DRIVE","SAINT LOUIS","MO",63121,38.7019702050001,-90.3166107549999,121,"8145 AUDRAIN DRIVE, SAINT LOUIS, MO, 63121","Match","Exact","8145 AUDRAIN DR, SAINT LOUIS, MO, 63121",100133693,"R"
880622,"8145 AURORA MIST ST","LAS VEGAS","NV",89113,36.040321143,-115.258162764,122,"8145 AURORA MIST ST, LAS VEGAS, NV, 89113","Match","Exact","8145 AURORA MIST ST, LAS VEGAS, NV, 89113",625027556,"R"
880623,"8145 E FRENCH RD","ELSIE","MI",48831,43.059653901,-84.4029212089999,123,"8145 E FRENCH RD, ELSIE, MI, 48831","Match","Exact","8145 E FRENCH RD, ELSIE, MI, 48831",17295358,"L"
880624,"8145 HOPEWELL ROAD","BESSEMER","AL",35022,33.3468453130001,-86.954874543,124,"8145 HOPEWELL ROAD, BESSEMER, AL, 35022","Match","Exact","8145 HOPEWELL RD, BESSEMER, AL, 35022",640553088,"L"
880625,"8145 HWY 6","HOUSTON","TX",77083,29.6922301330001,-95.6437279089999,125,"8145 HWY 6, HOUSTON, TX, 77083","Match","Non_Exact","8145 STATE HWY 6, HOUSTON, TX, 77083",96607963,"R"
880626,"8145 KINGSBURY","CLAYTON","MO",63105,38.655695619,-90.341915007,126,"8145 KINGSBURY, CLAYTON, MO, 63105","Match","Non_Exact","8145 KINGSBURY BLVD, CLAYTON, MO, 63105",100134644,"R"
880627,"8145 LANGHORNE ROAD","SCOTTSVILLE","VA",24590,37.804632226,-78.543523068,127,"8145 LANGHORNE ROAD, SCOTTSVILLE, VA, 24590","Match","Exact","8145 LANGHORNE RD, SCOTTSVILLE, VA, 24590",83360957,"R"
880628,"8145 MCCAULEY WAY APT 2230","LORTON","VA",22079,38.709789807,-77.2244779649999,128,"8145 MCCAULEY WAY APT 2230, LORTON, VA, 22079","Match","Non_Exact","8145 MCCAULEY RD, LORTON, VA, 22079",648188184,"R"
880629,"8145 MOUNTAIN VIEW ROAD","LAKE POINT","UT",84074,40.6770098600001,-112.262905379,129,"8145 MOUNTAIN VIEW ROAD, LAKE POINT, UT, 84074","Match","Exact","8145 MOUNTAIN VIEW RD, LAKE POINT, UT, 84074",155386616,"L"
880630,"8145 NEBRASKA AVENUE","TAMPA","FL",33604,28.0218386290001,-82.451262637,130,"8145 NEBRASKA AVENUE, TAMPA, FL, 33604","Match","Non_Exact","8145 N NEBRASKA AVE, TAMPA, FL, 33604",104519436,"R"
880631,"8145 S COTTAGE GROVE","CHICAGO","IL",60619,41.7467775100001,-87.605100651,131,"8145 S COTTAGE GROVE, CHICAGO, IL, 60619","Match","Non_Exact","8145 S COTTAGE GROVE AVE, CHICAGO, IL, 60619",111772983,"L"
880632,"8145 S VANDRIV","AURORA","CO",80016,NA,NA,132,"8145 S VANDRIV, AURORA, CO, 80016","No_Match",NA,NA,NA,NA
880633,"8145 S VANDRIVER WAY","AURORA","CO",80016,39.568490426,-104.665372046,133,"8145 S VANDRIVER WAY, AURORA, CO, 80016","Match","Exact","8145 S VANDRIVER WAY, AURORA, CO, 80016",650191133,"L"
880634,"8145 SOUTH TROPICAL TRAIL","MERRITT ISLAND","FL",32952,28.213881658,-80.641422152,134,"8145 SOUTH TROPICAL TRAIL, MERRITT ISLAND, FL, 32952","Match","Exact","8145 S TROPICAL TRL, MERRITT ISLAND, FL, 32952",93956579,"R"
880635,"8145 TRILLIUM LANE","VICTORIA","MN",55386,44.8561604230001,-93.669994227,135,"8145 TRILLIUM LANE, VICTORIA, MN, 55386","Match","Exact","8145 TRILLIUM LN, VICTORIA, MN, 55386",43507111,"L"
880636,"8145 WEMSHA STREET","LINCOLN","NE",68507,40.8384325590001,-96.6106909439999,136,"8145 WEMSHA STREET, LINCOLN, NE, 68507","Match","Exact","8145 WEMSHA ST, LINCOLN, NE, 68507",28278727,"R"
880637,"8145 WEST AVE D","LANCASTER","CA",93536,34.7764669580001,-118.27570842,137,"8145 WEST AVE D, LANCASTER, CA, 93536","Match","Exact","8145 W AVE D, LANCASTER, CA, 93536",141829913,"R"
880638,"8145 WHITBURN DRIVE APT 103","CLAYTON","MO",63105,38.639445365,-90.347167793,138,"8145 WHITBURN DRIVE APT 103, CLAYTON, MO, 63105","Match","Exact","8145 WHITBURN DR, CLAYTON, MO, 63105",100134737,"R"
880639,"8145 WHITE OAK HWY","BRANCH","LA",70516,30.398119907,-92.33019587,139,"8145 WHITE OAK HWY, BRANCH, LA, 70516","Match","Exact","8145 WHITE OAK HWY, BRANCH, LA, 70516",88315583,"L"
880640,"81451 HIGHWAY 25","FOLSOM","LA",70437,30.6179556160001,-90.185044928,140,"81451 HIGHWAY 25, FOLSOM, LA, 70437","Match","Non_Exact","81451 STATE RTE 25, FOLSOM, LA, 70437",632223923,"L"
880641,"8146 CHESTNUT AVENUE","KANSAS CITY","MO",64132,38.97896875,-94.555506274,141,"8146 CHESTNUT AVENUE, KANSAS CITY, MO, 64132","Match","Exact","8146 CHESTNUT AVE, KANSAS CITY, MO, 64132",91457139,"R"
880642,"8146 DELRIDGE WAY SW","SEATTLE","WA",98106,47.529691911,-122.360446751,142,"8146 DELRIDGE WAY SW, SEATTLE, WA, 98106","Match","Exact","8146 DELRIDGE WAY SW, SEATTLE, WA, 98106",186591163,"L"
880643,"8146 EAST POTTER ROAD","DAVISON","MI",48423,43.048536862,-83.5520623629999,143,"8146 EAST POTTER ROAD, DAVISON, MI, 48423","Match","Exact","8146 E POTTER RD, DAVISON, MI, 48423",69578251,"R"
880644,"8146 FLEETS RUNDRIVE","CORDOVA","TN",38018,NA,NA,144,"8146 FLEETS RUNDRIVE, CORDOVA, TN, 38018","No_Match",NA,NA,NA,NA
880645,"8146 ROCKCREEK PLACE NUMBER 5","CORDOVA","TN",38016,35.1926746610001,-89.791171436,145,"8146 ROCKCREEK PLACE NUMBER 5, CORDOVA, TN, 38016","Match","Exact","8146 ROCKCREEK PL, CORDOVA, TN, 38016",635942705,"L"
880646,"8146 S MERRILL AVE","CHICAGO","IL",60617,41.7471410250001,-87.5722534829999,146,"8146 S MERRILL AVE, CHICAGO, IL, 60617","Match","Exact","8146 S MERRILL AVE, CHICAGO, IL, 60617",111775931,"R"
880647,"8146 WOODCREST DR","GROSSE ILE","MI",48138,42.155629796,-83.14459231,147,"8146 WOODCREST DR, GROSSE ILE, MI, 48138","Match","Non_Exact","8146 WOODCREST, GROSSE ILE, MI, 48138",95708361,"R"
880648,"81466 N 5TH AVENUE","PHOENIX","AZ",85023,NA,NA,148,"81466 N 5TH AVENUE, PHOENIX, AZ, 85023","No_Match",NA,NA,NA,NA
880649,"81469 HIGHWAY 1023","BUSH","LA",70431,NA,NA,149,"81469 HIGHWAY 1023, BUSH, LA, 70431","No_Match",NA,NA,NA,NA
880650,"8147 46TH AVE N UNIT 218","SAINT PETERSBURG","FL",33709,27.8136349820001,-82.751408151,150,"8147 46TH AVE N UNIT 218, SAINT PETERSBURG, FL, 33709","Match","Exact","8147 46TH AVE N, SAINT PETERSBURG, FL, 33709",124692770,"R"
880651,"8147 DEER CREEK ROAD","MORRISDALE","PA",16858,41.084579063,-78.245767922,151,"8147 DEER CREEK ROAD, MORRISDALE, PA, 16858","Match","Exact","8147 DEER CREEK RD, MORRISDALE, PA, 16858",642650312,"L"
880652,"8147 GREENWOOD AVE","MUNSTER","IN",46321,41.565451008,-87.4953598879999,152,"8147 GREENWOOD AVE, MUNSTER, IN, 46321","Match","Exact","8147 GREENWOOD AVE, MUNSTER, IN, 46321",98421139,"L"
880653,"8147 JACK BOND","ARLINGTON","TN",38002,35.296111888,-89.791991031,153,"8147 JACK BOND, ARLINGTON, TN, 38002","Match","Non_Exact","8147 JACK BOND RD, ARLINGTON, TN, 38002",643501060,"L"
880654,"8147 LAGOS DE CAMPO BLVD","TAMARAC","FL",33321,26.2063650060001,-80.258374836,154,"8147 LAGOS DE CAMPO BLVD, TAMARAC, FL, 33321","Match","Exact","8147 LAGOS DE CAMPO BLVD, TAMARAC, FL, 33321",649332852,"L"
880655,"8147 NE 97TH TERRACE","KANSAS CITY","MO",64157,39.2700197300001,-94.481492306,155,"8147 NE 97TH TERRACE, KANSAS CITY, MO, 64157","Match","Exact","8147 NE 97TH TER, KANSAS CITY, MO, 64157",89791262,"L"
880656,"8147 ORELLE CRK CT","CITRUS HEIGHTS","CA",95610,38.7144186250001,-121.250861782,156,"8147 ORELLE CRK CT, CITRUS HEIGHTS, CA, 95610","Match","Exact","8147 ORELLE CREEK CT, CITRUS HEIGHTS, CA, 95610",133329047,"L"
880657,"8147 S SCONCE RD","CANBY","OR",97013,45.1580327630001,-122.69832059,157,"8147 S SCONCE RD, CANBY, OR, 97013","Match","Exact","8147 S SCONCE RD, CANBY, OR, 97013",157901343,"R"
880658,"8147 SABAL OAK LANE","JACKSONVILLE","FL",32256,30.218861787,-81.522996067,158,"8147 SABAL OAK LANE, JACKSONVILLE, FL, 32256","Match","Exact","8147 SABAL OAK LN, JACKSONVILLE, FL, 32256",83935462,"L"
880659,"8147 SOUTH VINCENNES","CHICAGO","IL",60620,41.7458492210001,-87.635495162,159,"8147 SOUTH VINCENNES, CHICAGO, IL, 60620","Match","Non_Exact","8147 S VINCENNES AVE, CHICAGO, IL, 60620",112049192,"L"
880660,"8147 SOUTH WABASH AVE","CHICAGO","IL",60619,41.746464948,-87.622865874,160,"8147 SOUTH WABASH AVE, CHICAGO, IL, 60619","Match","Exact","8147 S WABASH AVE, CHICAGO, IL, 60619",111772699,"L"
880661,"8147 W FARM ROAD 42","WALNUT GROVE","MO",65770,37.3700534500001,-93.449166716,161,"8147 W FARM ROAD 42, WALNUT GROVE, MO, 65770","Match","Non_Exact","8149 W FARM RD 42, WALNUT GROVE, MO, 65770",608960431,"L"
880662,"8148 162ND ST","CHIPPEWA FALLS","WI",54729,44.9612854900001,-91.345012393,162,"8148 162ND ST, CHIPPEWA FALLS, WI, 54729","Match","Exact","8148 162ND ST, CHIPPEWA FALLS, WI, 54729",78928010,"R"
880663,"8148 E BAILEY WAY","ANAHEIM","CA",92808,33.8508024810001,-117.733473422,163,"8148 E BAILEY WAY, ANAHEIM, CA, 92808","Match","Exact","8148 E BAILEY WAY, ANAHEIM, CA, 92808",144125837,"R"
880664,"8148 GENESEE AVE 21","SAN DIEGO","CA",92122,32.8648920530001,-117.212897411,164,"8148 GENESEE AVE 21, SAN DIEGO, CA, 92122","Match","Exact","8148 GENESEE AVE, SAN DIEGO, CA, 92122",195302109,"L"
880665,"8148 HIGH SCHOOL ROAD","ELKINS PARK","PA",19027,40.074456125,-75.1201230409999,165,"8148 HIGH SCHOOL ROAD, ELKINS PARK, PA, 19027","Match","Exact","8148 HIGH SCHOOL RD, ELKINS PARK, PA, 19027",135094580,"L"
880666,"8148 NORTH RD","LE ROY","NY",14482,43.0252218030001,-77.945005662,166,"8148 NORTH RD, LE ROY, NY, 14482","Match","Exact","8148 NORTH RD, LE ROY, NY, 14482",48156600,"R"
880667,"8148 S BLACKSTONE","CHICAGO","IL",60619,41.74690423,-87.588233917,167,"8148 S BLACKSTONE, CHICAGO, IL, 60619","Match","Non_Exact","8148 S BLACKSTONE AVE, CHICAGO, IL, 60619",111775143,"R"
880668,"8148 S EVERHART","CHICAGO","IL",60619,41.7465926730001,-87.612379414,168,"8148 S EVERHART, CHICAGO, IL, 60619","Match","Non_Exact","8148 S EBERHART AVE, CHICAGO, IL, 60619",111772906,"R"
880669,"8148 S GIFFIN LANE","LAKE NEBAGAMON","WI",54849,46.4682418670001,-91.7504544939999,169,"8148 S GIFFIN LANE, LAKE NEBAGAMON, WI, 54849","Match","Exact","8148 S GIFFIN LN, LAKE NEBAGAMON, WI, 54849",164831339,"R"
880670,"8148 S KENWOOD AVE","CHICAGO","IL",60619,41.7468640000001,-87.591735238,170,"8148 S KENWOOD AVE, CHICAGO, IL, 60619","Match","Exact","8148 S KENWOOD AVE, CHICAGO, IL, 60619",111774948,"R"
880671,"8148 S LANGLEY AVE","CHICAGO","IL",60619,41.746675065,-87.607537518,171,"8148 S LANGLEY AVE, CHICAGO, IL, 60619","Match","Exact","8148 S LANGLEY AVE, CHICAGO, IL, 60619",111772968,"R"
880672,"8148 S LANGLEY","CHICAGO","IL",60619,41.746675065,-87.607537518,172,"8148 S LANGLEY, CHICAGO, IL, 60619","Match","Non_Exact","8148 S LANGLEY AVE, CHICAGO, IL, 60619",111772968,"R"
880673,"8148 S PAXTON","CHICAGO","IL",60617,41.747125306,-87.5710389289999,173,"8148 S PAXTON, CHICAGO, IL, 60617","Match","Non_Exact","8148 S PAXTON AVE, CHICAGO, IL, 60617",111775995,"R"
880674,"8148 S PRAIRIE","CHICAGO","IL",60620,NA,NA,174,"8148 S PRAIRIE, CHICAGO, IL, 60620","No_Match",NA,NA,NA,NA
880675,"8148 S SPRUCE CIR","CENTENNIAL","CO",80112,39.5691931650001,-104.897207613,175,"8148 S SPRUCE CIR, CENTENNIAL, CO, 80112","Match","Exact","8148 S SPRUCE CIR, CENTENNIAL, CO, 80112",177347621,"L"
880676,"8148 SOUTH PRARIE AVE","CHICAGO","IL",60619,41.7460861490001,-87.618023866,176,"8148 SOUTH PRARIE AVE, CHICAGO, IL, 60619","Match","Non_Exact","8148 S PRAIRIE AVE, CHICAGO, IL, 60619",632000906,"R"
880677,"8148 US HWY 33W","CAMDEN","WV",26338,NA,NA,177,"8148 US HWY 33W, CAMDEN, WV, 26338","No_Match",NA,NA,NA,NA
880678,"8148 VENTANA CIELO AVE NW","ALBUQUERQUE","NM",87114,35.1954328940001,-106.756427867,178,"8148 VENTANA CIELO AVE NW, ALBUQUERQUE, NM, 87114","Match","Exact","8148 VENTANA CIELO AVE NW, ALBUQUERQUE, NM, 87114",627763032,"R"
880679,"8149 E AVERY DR","INDIANAPOLIS","IN",46268,39.9030891250001,-86.238578468,179,"8149 E AVERY DR, INDIANAPOLIS, IN, 46268","Match","Non_Exact","8149 AVERY DR W, INDIANAPOLIS, IN, 46268",107975675,"R"
880680,"8149 EAST AVERY DRIVE","INDIANAPOLIS","IN",46268,NA,NA,180,"8149 EAST AVERY DRIVE, INDIANAPOLIS, IN, 46268","No_Match",NA,NA,NA,NA
880681,"8149 FALETT COURT","SACRAMENTO","CA",95825,NA,NA,181,"8149 FALETT COURT, SACRAMENTO, CA, 95825","No_Match",NA,NA,NA,NA
880682,"8149 HIGH CORNER ROAD","BROOKSVILLE","FL",34607,28.534814054,-82.275891068,182,"8149 HIGH CORNER ROAD, BROOKSVILLE, FL, 34607","Match","Non_Exact","8149 HIGH CORNER RD, BROOKSVILLE, FL, 34602",85457246,"L"
880683,"8149 KRAAY AVENUE","MUNSTER","IN",46321,41.5650262670001,-87.491757513,183,"8149 KRAAY AVENUE, MUNSTER, IN, 46321","Match","Exact","8149 KRAAY AVE, MUNSTER, IN, 46321",98421189,"L"
880684,"8149 LAURA RAY ROAD","LINDEN","NC",28356,35.1869437280001,-78.740468321,184,"8149 LAURA RAY ROAD, LINDEN, NC, 28356","Match","Exact","8149 LAURA RAY RD, LINDEN, NC, 28356",64239275,"L"
880685,"8149 MADISON RD","WYOMING","IA",52362,42.0692958560001,-91.035471071,185,"8149 MADISON RD, WYOMING, IA, 52362","Match","Exact","8149 MADISON RD, WYOMING, IA, 52362",16530940,"L"
880686,"8149 N 18 WAY","PHOENIX","AZ",85020,33.5546111830001,-112.040494654,186,"8149 N 18 WAY, PHOENIX, AZ, 85020","Match","Exact","8149 N 18TH WAY, PHOENIX, AZ, 85020",128918923,"R"
880687,"8149 NATIONAL RD","WHEELING","WV",26003,NA,NA,187,"8149 NATIONAL RD, WHEELING, WV, 26003","No_Match",NA,NA,NA,NA
880688,"8149 NE 27TH AV","ALTOONA","IA",50009,41.6187885190001,-93.441755412,188,"8149 NE 27TH AV, ALTOONA, IA, 50009","Match","Exact","8149 NE 27TH AVE, ALTOONA, IA, 50009",65791306,"L"
880689,"8149 S SAGINAW AVE","CHICAGO","IL",60617,41.747074142,-87.5600794859999,189,"8149 S SAGINAW AVE, CHICAGO, IL, 60617","Match","Exact","8149 S SAGINAW AVE, CHICAGO, IL, 60617",112046855,"L"
880690,"8149 S WENTWORTH AVE","CHICAGO","IL",60619,NA,NA,190,"8149 S WENTWORTH AVE, CHICAGO, IL, 60619","Tie",NA,NA,NA,NA
880691,"8149 SANTA MONICA BLVD - PMB 370","WEST HOLLYWOOD","CA",90046,34.0907568690001,-118.366484949,191,"8149 SANTA MONICA BLVD - PMB 370, WEST HOLLYWOOD, CA, 90046","Match","Non_Exact","8149 W SANTA MONICA BLVD, W HOLLYWOOD, CA, 90046",141598098,"R"
880692,"8149 SANTA MONICA BLVD UNIT 140","LOS ANGELES","CA",90046,34.0907568690001,-118.366484949,192,"8149 SANTA MONICA BLVD UNIT 140, LOS ANGELES, CA, 90046","Match","Non_Exact","8149 W SANTA MONICA BLVD, LOS ANGELES, CA, 90046",141598098,"R"
880693,"8149 SOMERSBY PLACE","COLORADO SPRINGS","CO",80908,38.949333392,-104.674755518,193,"8149 SOMERSBY PLACE, COLORADO SPRINGS, CO, 80908","Match","Exact","8149 SOMERSBY PL, COLORADO SPRINGS, CO, 80908",650727455,"R"
880694,"8149 TAHOE PARKE CIR","AUSTIN","TX",78726,30.421814533,-97.8557522259999,194,"8149 TAHOE PARKE CIR, AUSTIN, TX, 78726","Match","Exact","8149 TAHOE PARKE CIR, AUSTIN, TX, 78726",64026910,"R"
880695,"8149 TAHOE PARKE CIRCLE","AUSTIN","TX",78726,30.421814533,-97.8557522259999,195,"8149 TAHOE PARKE CIRCLE, AUSTIN, TX, 78726","Match","Exact","8149 TAHOE PARKE CIR, AUSTIN, TX, 78726",64026910,"R"
880696,"8149 W 4TH ST","RATHDRUM","ID",83858,NA,NA,196,"8149 W 4TH ST, RATHDRUM, ID, 83858","Tie",NA,NA,NA,NA
880697,"815  KILEY PARKWAY 2406","SPARKS","NV",89436,39.603005678,-119.732192074,197,"815  KILEY PARKWAY 2406, SPARKS, NV, 89436","Match","Exact","815 KILEY PKWY, SPARKS, NV, 89436",640024896,"R"
880698,"815  N  LABREA AVE APT 282","INGLEWOOD","CA",90302,33.9732015540001,-118.357577873,198,"815  N  LABREA AVE APT 282, INGLEWOOD, CA, 90302","Match","Non_Exact","815 N LA BREA AVE, INGLEWOOD, CA, 90302",142749670,"L"
880699,"815 10TH ST NE","MASSILLON","OH",44646,40.8046464080001,-81.5137739849999,199,"815 10TH ST NE, MASSILLON, OH, 44646","Match","Exact","815 10TH ST NE, MASSILLON, OH, 44646",64711931,"L"
880700,"815 10TH ST","VADER","WA",98593,46.3984519590001,-122.953265131,200,"815 10TH ST, VADER, WA, 98593","Match","Exact","815 10TH ST, VADER, WA, 98593",180738458,"R"
880701,"815 124TH ST SW SPC 19","EVERETT","WA",98204,47.8855953250001,-122.241469343,201,"815 124TH ST SW SPC 19, EVERETT, WA, 98204","Match","Exact","815 124TH ST SW, EVERETT, WA, 98204",187797494,"L"
880702,"815 12TH STREET 1","LAWRENCEVILLE","IL",62439,38.72930497,-87.6831876539999,202,"815 12TH STREET 1, LAWRENCEVILLE, IL, 62439","Match","Exact","815 12TH ST, LAWRENCEVILLE, IL, 62439",29661471,"L"
880703,"815 13TH STREET","ACTON","ME",4001,43.533514536,-70.869768832,203,"815 13TH STREET, ACTON, ME, 4001","Match","Exact","815 13TH ST, ACTON, ME, 04001",92766760,"L"
880704,"815 15TH ST","SAN MIGUEL","CA",93451,35.753806845,-120.691704443,204,"815 15TH ST, SAN MIGUEL, CA, 93451","Match","Exact","815 15TH ST, SAN MIGUEL, CA, 93451",109711026,"R"
880705,"815 17TH STREET","MANHATTAN BEACH","CA",90266,33.890311689,-118.402721366,205,"815 17TH STREET, MANHATTAN BEACH, CA, 90266","Match","Exact","815 17TH ST, MANHATTAN BEACH, CA, 90266",141582333,"L"
880706,"815 19TH ST E","ZUMBROTA","MN",55992,44.2813839500001,-92.661636164,206,"815 19TH ST E, ZUMBROTA, MN, 55992","Match","Non_Exact","815 19TH ST, ZUMBROTA, MN, 55992",31561814,"R"
880707,"815 1ST AVE UNIT 331","SEATTLE","WA",98104,47.6034077560001,-122.335075321,207,"815 1ST AVE UNIT 331, SEATTLE, WA, 98104","Match","Exact","815 1ST AVE, SEATTLE, WA, 98104",186589561,"L"
880708,"815 1ST AVENUE STE 110","SEATTLE","WA",98104,47.6034077560001,-122.335075321,208,"815 1ST AVENUE STE 110, SEATTLE, WA, 98104","Match","Exact","815 1ST AVE, SEATTLE, WA, 98104",186589561,"L"
880709,"815 1ST AVENUE STE110","SEATTLE","WA",98104,47.6034077560001,-122.335075321,209,"815 1ST AVENUE STE110, SEATTLE, WA, 98104","Match","Exact","815 1ST AVE, SEATTLE, WA, 98104",186589561,"L"
880710,"815 1ST STREET SE","ELBOW LAKE","MN",56531,45.991124009,-95.965954558,210,"815 1ST STREET SE, ELBOW LAKE, MN, 56531","Match","Exact","815 1ST ST SE, ELBOW LAKE, MN, 56531",203190008,"L"
880711,"815 2ND AVE","FAIRBANKS","AK",99701,64.843747959,-147.726647619,211,"815 2ND AVE, FAIRBANKS, AK, 99701","Match","Exact","815 2ND AVE, FAIRBANKS, AK, 99701",190893546,"L"
880712,"815 2ND AVENUE","STEINHATCHEE","FL",32359,29.6770452590001,-83.38126503,212,"815 2ND AVENUE, STEINHATCHEE, FL, 32359","Match","Non_Exact","815 2ND AVE N, STEINHATCHEE, FL, 32359",53973312,"L"
880713,"815 3 1/2 AVE NW","BYRON","MN",55920,44.0378440710001,-92.650776618,213,"815 3 1/2 AVE NW, BYRON, MN, 55920","Match","Exact","815 3 1/2 AVE NW, BYRON, MN, 55920",30557667,"R"
880714,"815 31ST STREET","BETTENDORF","IA",52722,41.529994835,-90.4893889699999,214,"815 31ST STREET, BETTENDORF, IA, 52722","Match","Exact","815 31ST ST, BETTENDORF, IA, 52722",122712097,"R"
880715,"815 34TH AVE E APT 101","WEST FARGO","ND",58078,46.8305247810001,-96.893579529,215,"815 34TH AVE E APT 101, WEST FARGO, ND, 58078","Match","Exact","815 34TH AVE E, WEST FARGO, ND, 58078",642619324,"R"
880716,"815 34TH AVE EAST APT 213","WEST FARGO","ND",58078,46.8305247810001,-96.893579529,216,"815 34TH AVE EAST APT 213, WEST FARGO, ND, 58078","Match","Exact","815 34TH AVE E, WEST FARGO, ND, 58078",642619324,"R"
880717,"815 3RD ST NE","SIDNEY","MT",59270,47.7141402550001,-104.145806898,217,"815 3RD ST NE, SIDNEY, MT, 59270","Match","Exact","815 3RD ST NE, SIDNEY, MT, 59270",161878127,"L"
880718,"815 48TH PLACE NE","WASHINGTON","DC",20019,38.9000779450001,-76.93270015,218,"815 48TH PLACE NE, WASHINGTON, DC, 20019","Match","Exact","815 48TH PL NE, WASHINGTON, DC, 20019",76233374,"R"
880719,"815 4TH AVE SOUTH","GREAT FALLS","MT",59405,47.5008679860001,-111.29351999,219,"815 4TH AVE SOUTH, GREAT FALLS, MT, 59405","Match","Exact","815 4TH AVE S, GREAT FALLS, MT, 59405",202226085,"L"
880720,"815 4TH ST","DOUGLAS","AK",99824,58.275269531,-134.394132809,220,"815 4TH ST, DOUGLAS, AK, 99824","Match","Exact","815 4TH ST, DOUGLAS, AK, 99824",190964588,"R"
880721,"815 4TH STREET","HEMPSTEAD","TX",77445,30.0970304360001,-96.071437338,221,"815 4TH STREET, HEMPSTEAD, TX, 77445","Match","Exact","815 4TH ST, HEMPSTEAD, TX, 77445",78351868,"L"
880722,"815 4TH STREET","MERRILL","IA",51038,42.723521588,-96.25130429,222,"815 4TH STREET, MERRILL, IA, 51038","Match","Exact","815 4TH ST, MERRILL, IA, 51038",93330346,"L"
880723,"815 8TH AVENUE","BROOKLYN","NY",11215,40.6662374490001,-73.978809075,223,"815 8TH AVENUE, BROOKLYN, NY, 11215","Match","Exact","815 8TH AVE, BROOKLYN, NY, 11215",59078174,"L"
880724,"815 A STREET","DAVIS","CA",95616,38.5511345210001,-121.747733244,224,"815 A STREET, DAVIS, CA, 95616","Match","Exact","815 A ST, DAVIS, CA, 95616",67691437,"L"
880725,"815 ALAMEDA AVENUE","CORONADO","CA",92118,32.692226186,-117.187274422,225,"815 ALAMEDA AVENUE, CORONADO, CA, 92118","Match","Non_Exact","815 ALAMEDA BLVD, CORONADO, CA, 92118",195343909,"L"
880726,"815 ALBANY ST APT 813","BOSTON","MA",2119,42.332195175,-71.0753145629999,226,"815 ALBANY ST APT 813, BOSTON, MA, 2119","Match","Exact","815 ALBANY ST, BOSTON, MA, 02119",85722374,"R"
880727,"815 ALLISON DRIVE","INDUSTRY","PA",15052,40.660208593,-80.385663565,227,"815 ALLISON DRIVE, INDUSTRY, PA, 15052","Match","Exact","815 ALLISON DR, INDUSTRY, PA, 15052",52558062,"L"
880728,"815 ALMAHURST LANE","LOVELAND","OH",45140,39.238775289,-84.2779990779999,228,"815 ALMAHURST LANE, LOVELAND, OH, 45140","Match","Exact","815 ALMAHURST LN, LOVELAND, OH, 45140",118458588,"L"
880729,"815 ALMARIDA DR","CAMPBELL","CA",95008,37.2989487360001,-121.941391394,229,"815 ALMARIDA DR, CAMPBELL, CA, 95008","Match","Exact","815 ALMARIDA DR, CAMPBELL, CA, 95008",122997558,"L"
880730,"815 AMA REAL","PACIFIC PALISADES","CA",90272,NA,NA,230,"815 AMA REAL, PACIFIC PALISADES, CA, 90272","No_Match",NA,NA,NA,NA
880731,"815 ARLINGTON ROAD","YORK","PA",17403,39.952674169,-76.718209873,231,"815 ARLINGTON ROAD, YORK, PA, 17403","Match","Exact","815 ARLINGTON RD, YORK, PA, 17403",611416665,"L"
880732,"815 ASPEN WAY","PADUCAH","KY",42003,37.0552575150001,-88.6335869919999,232,"815 ASPEN WAY, PADUCAH, KY, 42003","Match","Exact","815 ASPEN WAY, PADUCAH, KY, 42003",8416107,"R"
880733,"815 ATLANTA COURT","NAPERVILLE","IL",60504,41.757532064,-88.165218098,233,"815 ATLANTA COURT, NAPERVILLE, IL, 60504","Match","Non_Exact","815 ATLANTA CT, NAPERVILLE, IL, 60540",112535973,"L"
880734,"815 ATLANTA CT","NAPERVILLE","IL",60540,41.757532064,-88.165218098,234,"815 ATLANTA CT, NAPERVILLE, IL, 60540","Match","Exact","815 ATLANTA CT, NAPERVILLE, IL, 60540",112535973,"L"
880735,"815 AUBURN STREET","BUFFALO","NY",14222,42.9183806730001,-78.870550491,235,"815 AUBURN STREET, BUFFALO, NY, 14222","Match","Non_Exact","815 AUBURN AVE, BUFFALO, NY, 14222",652642287,"R"
880736,"815 AUGUSTA STREET","FRANKFORT","KY",40601,38.2097858430001,-84.880495049,236,"815 AUGUSTA STREET, FRANKFORT, KY, 40601","Match","Exact","815 AUGUSTA ST, FRANKFORT, KY, 40601",97044543,"R"
880737,"815 AUSTIN","MADERA","CA",93638,36.9706029760001,-120.059760276,237,"815 AUSTIN, MADERA, CA, 93638","Match","Non_Exact","815 AUSTIN ST, MADERA, CA, 93638",102337851,"R"
880738,"815 AVE C","STERLING","IL",61081,41.793256462,-89.6999322199999,238,"815 AVE C, STERLING, IL, 61081","Match","Exact","815 AVE C, STERLING, IL, 61081",48967853,"L"
880739,"815 AVENUE F","GADSDEN","AL",35901,34.0277452060001,-86.007144569,239,"815 AVENUE F, GADSDEN, AL, 35901","Match","Exact","815 AVE F, GADSDEN, AL, 35901",66771214,"R"
880740,"815 AVENUE G","DANVILLE","PA",17821,40.953925552,-76.6284468759999,240,"815 AVENUE G, DANVILLE, PA, 17821","Match","Exact","815 AVE G, DANVILLE, PA, 17821",48055209,"R"
880741,"815 AVENUE J","SOUTH HOUSTON","TX",77587,29.6573936250001,-95.221441102,241,"815 AVENUE J, SOUTH HOUSTON, TX, 77587","Match","Exact","815 AVE J, SOUTH HOUSTON, TX, 77587",96103519,"L"
880742,"815 AYDEN OAK LANE","OCOEE","FL",34761,28.6188616850001,-81.532711918,242,"815 AYDEN OAK LANE, OCOEE, FL, 34761","Match","Exact","815 AYDEN OAK LN, OCOEE, FL, 34761",628004499,"R"
880743,"815 B DUMAINE","NEW ORLEANS","LA",70116,29.9603929730001,-90.064339635,243,"815 B DUMAINE, NEW ORLEANS, LA, 70116","Match","Non_Exact","815 DUMAINE ST, NEW ORLEANS, LA, 70116",191710908,"R"
880744,"815 B WEST MARKHAM AVE","DURHAM","NC",27701,36.0098884860001,-78.903434096,244,"815 B WEST MARKHAM AVE, DURHAM, NC, 27701","Match","Exact","815 W MARKHAM AVE, DURHAM, NC, 27701",71774752,"L"
880745,"815 BAINBRIDGE ROAD","WEST CHESTER","PA",19382,39.924118987,-75.550565886,245,"815 BAINBRIDGE ROAD, WEST CHESTER, PA, 19382","Match","Non_Exact","815 BAINBRIDGE DR, WEST CHESTER, PA, 19382",179600717,"L"
880746,"815 BALEEN AVE","KENAI","AK",99611,60.51799192,-151.256401219,246,"815 BALEEN AVE, KENAI, AK, 99611","Match","Exact","815 BALEEN AVE, KENAI, AK, 99611",191035424,"L"
880747,"815 BATHOLOMEW STREET","NEW ORLEANS","LA",70117,29.962642612,-90.036276389,247,"815 BATHOLOMEW STREET, NEW ORLEANS, LA, 70117","Match","Non_Exact","815 BARTHOLOMEW ST, NEW ORLEANS, LA, 70117",191717391,"R"
880748,"815 BEALE ST","SOUTH BEND","IN",46616,41.6999188950001,-86.261826308,248,"815 BEALE ST, SOUTH BEND, IN, 46616","Match","Exact","815 BEALE ST, SOUTH BEND, IN, 46616",8089648,"R"
880749,"815 BEAR CANYON LANE","ARROYO GRANDE","CA",93420,35.1453226310001,-120.568254974,249,"815 BEAR CANYON LANE, ARROYO GRANDE, CA, 93420","Match","Exact","815 BEAR CANYON LN, ARROYO GRANDE, CA, 93420",109780905,"L"
880750,"815 BEDFORDSHIRE RD","LOUISVILLE","KY",40222,38.235582542,-85.596689853,250,"815 BEDFORDSHIRE RD, LOUISVILLE, KY, 40222","Match","Exact","815 BEDFORDSHIRE RD, LOUISVILLE, KY, 40222",96863978,"R"
880751,"815 BEECH STREET","LAKE ODESSA","MI",48849,42.7590611160001,-85.14653864,251,"815 BEECH STREET, LAKE ODESSA, MI, 48849","Match","Exact","815 BEECH ST, LAKE ODESSA, MI, 48849",10517088,"R"
880752,"815 BEECHCRAFT AVE","GRAND PRAIRIE","TX",75051,32.7357415280001,-97.016140859,252,"815 BEECHCRAFT AVE, GRAND PRAIRIE, TX, 75051","Match","Exact","815 BEECHCRAFT AVE, GRAND PRAIRIE, TX, 75051",617668662,"R"
880753,"815 BEECHCRAFT AVE","GRAND PRARIE","TX",75051,32.7357415280001,-97.016140859,253,"815 BEECHCRAFT AVE, GRAND PRARIE, TX, 75051","Match","Exact","815 BEECHCRAFT AVE, GRAND PRAIRIE, TX, 75051",617668662,"R"
880754,"815 BELLAIRE DRIVE","DEMAREST","NJ",7627,40.9530451530001,-73.945358953,254,"815 BELLAIRE DRIVE, DEMAREST, NJ, 7627","Match","Exact","815 BELLAIRE DR, DEMAREST, NJ, 07627",641207069,"R"
880755,"815 BELMAR PASS","FAIRBURN","GA",30213,33.641997013,-84.6304348309999,255,"815 BELMAR PASS, FAIRBURN, GA, 30213","Match","Exact","815 BELMAR PASS, FAIRBURN, GA, 30213",643415409,"R"
880756,"815 BELVIN AVENUE","DURHAM","NC",27705,36.035119965,-78.882160509,256,"815 BELVIN AVENUE, DURHAM, NC, 27705","Match","Non_Exact","815 BELVIN AVE, DURHAM, NC, 27704",71741317,"L"
880757,"815 BERTRAND AVE","PRESCOTT","AZ",86303,34.5342401090001,-112.481042943,257,"815 BERTRAND AVE, PRESCOTT, AZ, 86303","Match","Exact","815 BERTRAND AVE, PRESCOTT, AZ, 86303",648170921,"R"
880758,"815 BERWYN AVENUE","DURHAM","NC",27704,36.033542561,-78.879174645,258,"815 BERWYN AVENUE, DURHAM, NC, 27704","Match","Exact","815 BERWYN AVE, DURHAM, NC, 27704",71790734,"R"
880759,"815 BEVERLY ST","NEW IBERIA","LA",70560,29.9753303190001,-91.840138963,259,"815 BEVERLY ST, NEW IBERIA, LA, 70560","Match","Exact","815 BEVERLY ST, NEW IBERIA, LA, 70560",85354333,"R"
880760,"815 BIRCH ROAD","FRANKLIN","GA",30217,33.306775363,-85.02927496,260,"815 BIRCH ROAD, FRANKLIN, GA, 30217","Match","Exact","815 BIRCH RD, FRANKLIN, GA, 30217",9411596,"L"
880761,"815 BLUE MOON CT","GREENSBORO","NC",27455,36.1722857230001,-79.7946186459999,261,"815 BLUE MOON CT, GREENSBORO, NC, 27455","Match","Exact","815 BLUE MOON CT, GREENSBORO, NC, 27455",651421618,"L"
880762,"815 BOULDER DRIVE","COLUMBIA","MO",65201,38.924902699,-92.329073168,262,"815 BOULDER DRIVE, COLUMBIA, MO, 65201","Match","Exact","815 BOULDER DR, COLUMBIA, MO, 65201",23494757,"L"
880763,"815 BRAZOS ST  STE A  PMB506","AUSTIN","TX",78701,30.2697206070001,-97.740700942,263,"815 BRAZOS ST  STE A  PMB506, AUSTIN, TX, 78701","Match","Exact","815 BRAZOS ST, AUSTIN, TX, 78701",63946472,"R"
880764,"815 BRAZOS ST 364A","AUSTIN","TX",78701,30.2697206070001,-97.740700942,264,"815 BRAZOS ST 364A, AUSTIN, TX, 78701","Match","Exact","815 BRAZOS ST, AUSTIN, TX, 78701",63946472,"R"
880765,"815 BRAZOS ST STE 500","AUSTIN","TX",78701,30.2697206070001,-97.740700942,265,"815 BRAZOS ST STE 500, AUSTIN, TX, 78701","Match","Exact","815 BRAZOS ST, AUSTIN, TX, 78701",63946472,"R"
880766,"815 BRISTOL CIRCLE","GRAND LEDGE","MI",48837,42.74532463,-84.726753485,266,"815 BRISTOL CIRCLE, GRAND LEDGE, MI, 48837","Match","Exact","815 BRISTOL CIR, GRAND LEDGE, MI, 48837",628722083,"L"
880767,"815 BROAD STREET","COLLINGDALE","PA",19023,39.9176576630001,-75.283524583,267,"815 BROAD STREET, COLLINGDALE, PA, 19023","Match","Exact","815 BROAD ST, COLLINGDALE, PA, 19023",134884460,"R"
880768,"815 BROAD STREET","MURRAY","KY",42071,36.59649354,-88.306645692,268,"815 BROAD STREET, MURRAY, KY, 42071","Match","Exact","815 BROAD ST, MURRAY, KY, 42071",31709315,"R"
880769,"815 BROMPTON STREET","FREDERICKSBURG","VA",22401,38.299905837,-77.466879677,269,"815 BROMPTON STREET, FREDERICKSBURG, VA, 22401","Match","Exact","815 BROMPTON ST, FREDERICKSBURG, VA, 22401",85005370,"L"
880770,"815 BROOKLINE ST SW","ATLANTA","GA",30310,33.7271739020001,-84.414236929,270,"815 BROOKLINE ST SW, ATLANTA, GA, 30310","Match","Exact","815 BROOKLINE ST SW, ATLANTA, GA, 30310",618354897,"R"
880771,"815 BROOKLINE STREET NW","ATLANTA","GA",30310,NA,NA,271,"815 BROOKLINE STREET NW, ATLANTA, GA, 30310","Tie",NA,NA,NA,NA
880772,"815 BRUCK STREET","COLUMBUS","OH",43206,39.9465352720001,-82.987177123,272,"815 BRUCK STREET, COLUMBUS, OH, 43206","Match","Exact","815 BRUCK ST, COLUMBUS, OH, 43206",135580283,"R"
880773,"815 BUCKINGHAM PL","DANVILLE","CA",94506,37.8023596840001,-121.905850014,273,"815 BUCKINGHAM PL, DANVILLE, CA, 94506","Match","Exact","815 BUCKINGHAM PL, DANVILLE, CA, 94506",192096770,"L"
880774,"815 CENTER STREET","RICHMOND","TX",77469,29.5874329550001,-95.769147386,274,"815 CENTER STREET, RICHMOND, TX, 77469","Match","Exact","815 CENTER ST, RICHMOND, TX, 77469",78333240,"L"
880775,"815 CENTRAL PARK AVE","GREENSBORO","NC",27407,36.048152648,-79.897877437,275,"815 CENTRAL PARK AVE, GREENSBORO, NC, 27407","Match","Exact","815 CENTRAL PARK AVE, GREENSBORO, NC, 27407",642169092,"R"
880776,"815 CENTRE STREET APT 2","BOSTON","MA",2130,NA,NA,276,"815 CENTRE STREET APT 2, BOSTON, MA, 2130","No_Match",NA,NA,NA,NA
880777,"815 CHAD CT","FRANKLIN","TN",37067,35.9215168330001,-86.830293881,277,"815 CHAD CT, FRANKLIN, TN, 37067","Match","Exact","815 CHAD CT, FRANKLIN, TN, 37067",73120421,"L"
880778,"815 CHAMBERS CREEK CIRCLE","HEWITT","TX",76643,31.46606652,-97.182201542,278,"815 CHAMBERS CREEK CIRCLE, HEWITT, TX, 76643","Match","Exact","815 CHAMBERS CREEK CIR, HEWITT, TX, 76643",623724428,"L"
880779,"815 CHANCE RD","DURHAM","NC",27703,35.9986660960001,-78.834869426,279,"815 CHANCE RD, DURHAM, NC, 27703","Match","Exact","815 CHANCE RD, DURHAM, NC, 27703",71747940,"L"
880780,"815 CHAPEL HILL","LAWRENCEVILLE","GA",30045,33.9524676460001,-83.927089874,280,"815 CHAPEL HILL, LAWRENCEVILLE, GA, 30045","Match","Exact","815 CHAPEL HILL, LAWRENCEVILLE, GA, 30045",623984382,"R"
880781,"815 CHERRY STREET","CAMDEN","NJ",8103,39.9348458330001,-75.113035069,281,"815 CHERRY STREET, CAMDEN, NJ, 8103","Match","Exact","815 CHERRY ST, CAMDEN, NJ, 08103",134346105,"L"
880782,"815 CHERRY STREET","HUNTSVILLE","AL",35816,34.729879044,-86.606358915,282,"815 CHERRY STREET, HUNTSVILLE, AL, 35816","Match","Non_Exact","815 CHERRY ST NW, HUNTSVILLE, AL, 35816",58116864,"L"
880783,"815 CHEYENNE AVE","ALLIANCE","NE",69301,42.102314748,-102.873728319,283,"815 CHEYENNE AVE, ALLIANCE, NE, 69301","Match","Exact","815 CHEYENNE AVE, ALLIANCE, NE, 69301",162351079,"R"
880784,"815 CHURCH AVENUE","WEST CHESTER","PA",19382,39.9476694680001,-75.595873232,284,"815 CHURCH AVENUE, WEST CHESTER, PA, 19382","Match","Exact","815 CHURCH AVE, WEST CHESTER, PA, 19382",179520861,"L"
880785,"815 CHURCHILL TERRACE","HAMPTON","VA",23666,37.050522146,-76.4237627699999,285,"815 CHURCHILL TERRACE, HAMPTON, VA, 23666","Match","Exact","815 CHURCHILL TER, HAMPTON, VA, 23666",103755219,"L"
880786,"815 CIRENCESTER AVE","MIDDELSBORO","KY",40965,36.6136724130001,-83.726307084,286,"815 CIRENCESTER AVE, MIDDELSBORO, KY, 40965","Match","Non_Exact","815 CIRENCESTER AVE, MIDDLESBORO, KY, 40965",87968848,"R"
880787,"815 CLARENCE DRIVE","NATCHITOCHES","LA",71457,31.7408713670001,-93.071042709,287,"815 CLARENCE DRIVE, NATCHITOCHES, LA, 71457","Match","Exact","815 CLARENCE DR, NATCHITOCHES, LA, 71457",13367290,"L"
880788,"815 CLAY AVENUE","SCRANTON","PA",18510,41.410930874,-75.6486709929999,288,"815 CLAY AVENUE, SCRANTON, PA, 18510","Match","Exact","815 CLAY AVE, SCRANTON, PA, 18510",139328869,"L"
880789,"815 COLE STREET","DANVILLE","VA",24541,36.5774651620001,-79.3880574469999,289,"815 COLE STREET, DANVILLE, VA, 24541","Match","Exact","815 COLE ST, DANVILLE, VA, 24541",56590302,"R"
880790,"815 COLORADO BLVD STE 400","LOS ANGELES","CA",90041,34.1401103370001,-118.184259829,290,"815 COLORADO BLVD STE 400, LOS ANGELES, CA, 90041","Match","Exact","815 COLORADO BLVD, LOS ANGELES, CA, 90041",651710758,"R"
880791,"815 COMMANDER ST","FLORENCE","SC",29501,34.2076130940001,-79.764813643,291,"815 COMMANDER ST, FLORENCE, SC, 29501","Match","Non_Exact","815 COMMANDER ST, FLORENCE, SC, 29506",28876422,"L"
880792,"815 COMPANION DR","CROSBY","TX",77532,29.908666759,-95.080290417,292,"815 COMPANION DR, CROSBY, TX, 77532","Match","Exact","815 COMPANION DR, CROSBY, TX, 77532",96652630,"L"
880793,"815 CONNER ROAD","NEWPORT NEWS","VA",23608,NA,NA,293,"815 CONNER ROAD, NEWPORT NEWS, VA, 23608","No_Match",NA,NA,NA,NA
880794,"815 CORNSTALK DR","NEW CASTLE","DE",19720,39.620562626,-75.651644255,294,"815 CORNSTALK DR, NEW CASTLE, DE, 19720","Match","Exact","815 CORNSTALK DR, NEW CASTLE, DE, 19720",187281642,"R"
880795,"815 CORONATION","SOUTH BEND","IN",46635,NA,NA,295,"815 CORONATION, SOUTH BEND, IN, 46635","No_Match",NA,NA,NA,NA
880796,"815 COUNTRY CLUB DRIVE UNIT E","LIBERTYVILLE","IL",60048,42.271528905,-87.941126121,296,"815 COUNTRY CLUB DRIVE UNIT E, LIBERTYVILLE, IL, 60048","Match","Exact","815 COUNTRY CLUB DR, LIBERTYVILLE, IL, 60048",119642759,"R"
880797,"815 COUNTY ROAD 2540","MERIDIAN","TX",76665,31.969455231,-97.6881626219999,297,"815 COUNTY ROAD 2540, MERIDIAN, TX, 76665","Match","Exact","815 CO RD 2540, MERIDIAN, TX, 76665",158580395,"L"
880798,"815 COUNTY ROAD 424","HALEYVILLE","AL",35565,34.210210112,-87.490386127,298,"815 COUNTY ROAD 424, HALEYVILLE, AL, 35565","Match","Exact","815 CO RD 424, HALEYVILLE, AL, 35565",141379697,"R"
880799,"815 COUNTY ROAD 754","BELLE","MO",65013,38.288658447,-91.686296321,299,"815 COUNTY ROAD 754, BELLE, MO, 65013","Match","Exact","815 CO RD 754, BELLE, MO, 65013",40341298,"R"
880800,"815 CR 2175","DECATUR","TX",76234,33.2825797890001,-97.605528931,300,"815 CR 2175, DECATUR, TX, 76234","Match","Exact","815 CO RD 2175, DECATUR, TX, 76234",103683851,"L"
880801,"815 CR 792","BUNA","TX",77612,NA,NA,301,"815 CR 792, BUNA, TX, 77612","No_Match",NA,NA,NA,NA
880802,"815 CYPRESS COURT","HUMMELSTOWN","PA",17036,40.2426200200001,-76.7217647479999,302,"815 CYPRESS COURT, HUMMELSTOWN, PA, 17036","Match","Exact","815 CYPRESS CT, HUMMELSTOWN, PA, 17036",70843372,"R"
880803,"815 CYPRESS POND LANE","GASTONIA","NC",28056,35.1580848250001,-81.082053145,303,"815 CYPRESS POND LANE, GASTONIA, NC, 28056","Match","Exact","815 CYPRESS POND LN, GASTONIA, NC, 28056",70416597,"L"
880804,"815 DAISY HILL COURT","APOPKA","FL",32712,28.7205837700001,-81.526821245,304,"815 DAISY HILL COURT, APOPKA, FL, 32712","Match","Exact","815 DAISY HILL CT, APOPKA, FL, 32712",640908064,"R"
880805,"815 DALEHAVEN DRIVE","ROSWELL","GA",30075,NA,NA,305,"815 DALEHAVEN DRIVE, ROSWELL, GA, 30075","No_Match",NA,NA,NA,NA
880806,"815 DAMSON PLUM CT","SPARTANBURG","SC",29301,34.9078380060001,-82.061020158,306,"815 DAMSON PLUM CT, SPARTANBURG, SC, 29301","Match","Exact","815 DAMSON PLUM CT, SPARTANBURG, SC, 29301",619834930,"L"
880807,"815 DARCIE WAY","MARTINEZ","CA",94553,38.0142835510001,-122.084433241,307,"815 DARCIE WAY, MARTINEZ, CA, 94553","Match","Exact","815 DARCIE WAY, MARTINEZ, CA, 94553",623854249,"R"
880808,"815 DEL ORO DRIVE","OJAI","CA",93023,34.459506533,-119.252484531,308,"815 DEL ORO DRIVE, OJAI, CA, 93023","Match","Exact","815 DEL ORO DR, OJAI, CA, 93023",110118595,"R"
880809,"815 DELAFIELD ST NE","WASHINGTON","DC",20017,38.949262225,-76.994552848,309,"815 DELAFIELD ST NE, WASHINGTON, DC, 20017","Match","Exact","815 DELAFIELD ST NE, WASHINGTON, DC, 20017",76228176,"R"
880810,"815 DELMAR WAY","RENO","NV",89509,39.514342491,-119.831937584,310,"815 DELMAR WAY, RENO, NV, 89509","Match","Exact","815 DELMAR WAY, RENO, NV, 89509",107044693,"R"
880811,"815 DEMERIUS ST APT MI","DURHAM","NC",27701,36.0121059430001,-78.903543258,311,"815 DEMERIUS ST APT MI, DURHAM, NC, 27701","Match","Exact","815 DEMERIUS ST, DURHAM, NC, 27701",71739413,"L"
880812,"815 DIAMOND RIM DR","COLORADO SPRINGS","CO",80921,NA,NA,312,"815 DIAMOND RIM DR, COLORADO SPRINGS, CO, 80921","No_Match",NA,NA,NA,NA
880813,"815 DOGWOOD STREET","SILOAM SPRINGS","AR",72761,NA,NA,313,"815 DOGWOOD STREET, SILOAM SPRINGS, AR, 72761","Tie",NA,NA,NA,NA
880814,"815 DORIAN COURT","FAR ROCKAWAY","NY",11691,40.60287842,-73.7443173469999,314,"815 DORIAN COURT, FAR ROCKAWAY, NY, 11691","Match","Exact","815 DORIAN CT, FAR ROCKAWAY, NY, 11691",59723365,"L"
880815,"815 DOVE PARK RD","COVINGTON","LA",70433,30.4163186100001,-90.063698952,315,"815 DOVE PARK RD, COVINGTON, LA, 70433","Match","Exact","815 DOVE PARK RD, COVINGTON, LA, 70433",111235889,"L"
880816,"815 DRUID OAK NE","ATLANTA","GA",30329,33.82404482,-84.315134858,316,"815 DRUID OAK NE, ATLANTA, GA, 30329","Match","Non_Exact","815 DRUID OAKS NE, ATLANTA, GA, 30329",23390315,"R"
880817,"815 DUBOCE AVENUE APT 3","SAN FRANCISCO","CA",94117,37.7689834400001,-122.436788524,317,"815 DUBOCE AVENUE APT 3, SAN FRANCISCO, CA, 94117","Match","Exact","815 DUBOCE AVE, SAN FRANCISCO, CA, 94117",192283564,"L"
880818,"815 DUDLEY ST","LAKEWOOD","CO",80215,39.7296927140001,-105.093773057,318,"815 DUDLEY ST, LAKEWOOD, CO, 80215","Match","Exact","815 DUDLEY ST, LAKEWOOD, CO, 80215",177319108,"L"
880819,"815 DUKE AVENUE","COLUMBIA","SC",29203,34.0404580480001,-81.044126171,319,"815 DUKE AVENUE, COLUMBIA, SC, 29203","Match","Exact","815 DUKE AVE, COLUMBIA, SC, 29203",71819776,"L"
880820,"815 DUNNE STREET","MORTON","IL",61550,40.6113470180001,-89.449043112,320,"815 DUNNE STREET, MORTON, IL, 61550","Match","Non_Exact","815 E DUNNE ST, MORTON, IL, 61550",22503901,"L"
880821,"815 E 15TH STREET","KEWANEE","IL",61443,41.2614484280001,-89.913457616,321,"815 E 15TH STREET, KEWANEE, IL, 61443","Match","Exact","815 E 15TH ST, KEWANEE, IL, 61443",8921846,"L"
880822,"815 E 169TH ST","BRONX","NY",10453,40.8297768900001,-73.898185579,322,"815 E 169TH ST, BRONX, NY, 10453","Match","Non_Exact","815 E 169TH ST, BRONX, NY, 10459",80302048,"L"
880823,"815 E 213TH STREET","BRONX","NY",10467,40.8783360140001,-73.861149984,323,"815 E 213TH STREET, BRONX, NY, 10467","Match","Exact","815 E 213TH ST, BRONX, NY, 10467",80297318,"L"
880824,"815 E 500 S","LAFAYETTE","IN",47909,40.343268913,-86.889501409,324,"815 E 500 S, LAFAYETTE, IN, 47909","Match","Exact","815 E 500 S, LAFAYETTE, IN, 47909",618728898,"R"
880825,"815 E 77TH ST","KANSAS CITY","MO",64131,38.988087782,-94.5791144189999,325,"815 E 77TH ST, KANSAS CITY, MO, 64131","Match","Exact","815 E 77TH ST, KANSAS CITY, MO, 64131",91455262,"R"
880826,"815 E 88TH PLACE","LOS ANGELES","CA",90002,33.9565152440001,-118.260325893,326,"815 E 88TH PLACE, LOS ANGELES, CA, 90002","Match","Exact","815 E 88TH PL, LOS ANGELES, CA, 90002",141671308,"L"
880827,"815 E 8TH ST","MOSCOW","ID",83843,46.7276187680001,-116.990223078,327,"815 E 8TH ST, MOSCOW, ID, 83843","Match","Exact","815 E 8TH ST, MOSCOW, ID, 83843",193857522,"L"
880828,"815 E ACADEMY AVE","JENNINGS","LA",70546,NA,NA,328,"815 E ACADEMY AVE, JENNINGS, LA, 70546","Tie",NA,NA,NA,NA
880829,"815 E BUCHANAN","HARLINGEN","TX",78550,26.1844352740001,-97.687687592,329,"815 E BUCHANAN, HARLINGEN, TX, 78550","Match","Non_Exact","815 E BUCHANAN ST, HARLINGEN, TX, 78550",89957407,"L"
880830,"815 E BUTLER RD APT 338","GREENVILLE","SC",29607,NA,NA,330,"815 E BUTLER RD APT 338, GREENVILLE, SC, 29607","Tie",NA,NA,NA,NA
880831,"815 E BUTLER RD APT 807","GREENVILLE","SC",29607,NA,NA,331,"815 E BUTLER RD APT 807, GREENVILLE, SC, 29607","Tie",NA,NA,NA,NA
880832,"815 E GRAND RIVER AVE  -  SUITE F","HOWELL","MI",48843,42.6041195710001,-83.921289148,332,"815 E GRAND RIVER AVE  -  SUITE F, HOWELL, MI, 48843","Match","Non_Exact","815 E GRAND RIVER AVE, HOWELL, MI, 48843",23571204,"L"
880833,"815 E GRAND RIVER AVE SUITE E","HOWELL","MI",48843,42.6041195710001,-83.921289148,333,"815 E GRAND RIVER AVE SUITE E, HOWELL, MI, 48843","Match","Non_Exact","815 E GRAND RIVER AVE, HOWELL, MI, 48843",23571204,"L"
880834,"815 E HEATH ST","ROCKWALL","TX",75087,32.9365314500001,-96.452952088,334,"815 E HEATH ST, ROCKWALL, TX, 75087","Match","Exact","815 E HEATH ST, ROCKWALL, TX, 75087",123780118,"L"
880835,"815 E HILL STREET","SPRINGFIELD","MO",65803,37.2530294630001,-93.2822214559999,335,"815 E HILL STREET, SPRINGFIELD, MO, 65803","Match","Exact","815 E HILL ST, SPRINGFIELD, MO, 65803",76677155,"L"
880836,"815 E JACKSON ST","RIALTO","CA",92376,NA,NA,336,"815 E JACKSON ST, RIALTO, CA, 92376","Tie",NA,NA,NA,NA
880837,"815 E MEYER BLVD","KANSAS CITY","MO",64131,39.011616996,-94.577907721,337,"815 E MEYER BLVD, KANSAS CITY, MO, 64131","Match","Exact","815 E MEYER BLVD, KANSAS CITY, MO, 64131",91454779,"R"
880838,"815 E MINTON ST","PHOENIX","AZ",85042,33.3798771360001,-112.061836056,338,"815 E MINTON ST, PHOENIX, AZ, 85042","Match","Exact","815 E MINTON ST, PHOENIX, AZ, 85042",243999766,"R"
880839,"815 E NEW YORK ST LOT 71","RAPID CITY","SD",57701,NA,NA,339,"815 E NEW YORK ST LOT 71, RAPID CITY, SD, 57701","No_Match",NA,NA,NA,NA
880840,"815 E NORTH AVE","BELTON","MO",64012,38.8143265360001,-94.527579036,340,"815 E NORTH AVE, BELTON, MO, 64012","Match","Exact","815 E NORTH AVE, BELTON, MO, 64012",639918701,"R"
880841,"815 E OAKWOOD","CHICAGO","IL",60653,NA,NA,341,"815 E OAKWOOD, CHICAGO, IL, 60653","No_Match",NA,NA,NA,NA
880842,"815 E SENECA AVE","DES MOINES","ID",50316,NA,NA,342,"815 E SENECA AVE, DES MOINES, ID, 50316","No_Match",NA,NA,NA,NA
880843,"815 E SIERRA AVE","SPOKANE","WA",99208,47.731798455,-117.397715095,343,"815 E SIERRA AVE, SPOKANE, WA, 99208","Match","Exact","815 E SIERRA AVE, SPOKANE, WA, 99208",189869436,"R"
880844,"815 E SOUTH ST","BOLIVAR","MO",65613,37.6043810530001,-93.403752334,344,"815 E SOUTH ST, BOLIVAR, MO, 65613","Match","Exact","815 E SOUTH ST, BOLIVAR, MO, 65613",23030522,"R"
880845,"815 E WESTGLOW LANE","GREENWOOD VILLAGE","CO",80121,39.6161683930001,-104.978255165,345,"815 E WESTGLOW LANE, GREENWOOD VILLAGE, CO, 80121","Match","Exact","815 E WESTGLOW LN, GREENWOOD VILLAGE, CO, 80121",177519428,"L"
880846,"815 E-95TH ST","CLEVELAND","OH",44108,NA,NA,346,"815 E-95TH ST, CLEVELAND, OH, 44108","No_Match",NA,NA,NA,NA
880847,"815 EAST 11TH ST","LAWRENCE","KS",66044,38.963782058,-95.227121424,347,"815 EAST 11TH ST, LAWRENCE, KS, 66044","Match","Exact","815 E 11TH ST, LAWRENCE, KS, 66044",17704708,"R"
880848,"815 EAST 15TH STREET","THE DALLES","OR",97058,45.5908169040001,-121.180617008,348,"815 EAST 15TH STREET, THE DALLES, OR, 97058","Match","Exact","815 E 15TH ST, THE DALLES, OR, 97058",175533222,"R"
880849,"815 EAST 95TH","CLEVELAND","OH",44108,41.535078045,-81.6214147439999,349,"815 EAST 95TH, CLEVELAND, OH, 44108","Match","Non_Exact","815 E 95TH ST, CLEVELAND, OH, 44108",61112286,"L"
880850,"815 EAST ALPINE DRIVE","ALPINE","UT",84004,40.450541931,-111.761878634,350,"815 EAST ALPINE DRIVE, ALPINE, UT, 84004","Match","Non_Exact","815 ALPINE DR, ALPINE, UT, 84004",134213780,"L"
880851,"815 EAST BRIARMEADOW AVE","MURRAY","UT",84107,40.635294523,-111.868729331,351,"815 EAST BRIARMEADOW AVE, MURRAY, UT, 84107","Match","Exact","815 E BRIARMEADOW AVE, MURRAY, UT, 84107",176087177,"L"
880852,"815 EAST BUTLER ROAD UNIT 836","GREENVILLE","SC",29607,34.8024327630001,-82.285402808,352,"815 EAST BUTLER ROAD UNIT 836, GREENVILLE, SC, 29607","Match","Exact","815 E BUTLER RD, GREENVILLE, SC, 29607",630209599,"L"
880853,"815 EAST C STREET","IRON MOUNTAIN","MI",49801,45.816435787,-88.0546415059999,353,"815 EAST C STREET, IRON MOUNTAIN, MI, 49801","Match","Exact","815 E C ST, IRON MOUNTAIN, MI, 49801",170158865,"L"
880854,"815 EAST COLORADO ST SUITE 140","GLENDALE","CA",91205,34.142672788,-118.245229282,354,"815 EAST COLORADO ST SUITE 140, GLENDALE, CA, 91205","Match","Exact","815 E COLORADO ST, GLENDALE, CA, 91205",141611051,"L"
880855,"815 EAST FORT PIERCE DRIVE","ST. GEORGE","UT",84790,37.074034666,-113.564951269,355,"815 EAST FORT PIERCE DRIVE, ST. GEORGE, UT, 84790","Match","Exact","815 E FORT PIERCE DR, SAINT GEORGE, UT, 84790",166168521,"L"
880856,"815 EAST GLENBROOK ROAD","BAYSIDE","WI",53217,43.1879350720001,-87.897973225,356,"815 EAST GLENBROOK ROAD, BAYSIDE, WI, 53217","Match","Exact","815 E GLENBROOK RD, BAYSIDE, WI, 53217",77736464,"R"
880857,"815 EAST HENRY STREET","SAVANNAH","GA",31401,32.059792219,-81.085076731,357,"815 EAST HENRY STREET, SAVANNAH, GA, 31401","Match","Exact","815 E HENRY ST, SAVANNAH, GA, 31401",6176806,"R"
880858,"815 EAST MEYER","KANSAS CITY","MO",64131,39.0116171170001,-94.577910635,358,"815 EAST MEYER, KANSAS CITY, MO, 64131","Match","Non_Exact","815 E MEYER BLVD, KANSAS CITY, MO, 64131",91454779,"R"
880859,"815 EBENEZER ROAD","TOONE","TN",38381,35.330276322,-88.918968532,359,"815 EBENEZER ROAD, TOONE, TN, 38381","Match","Exact","815 EBENEZER RD, TOONE, TN, 38381",636643059,"R"
880860,"815 ECHO HOLLOW ROAD","LENOIR CITY","TN",37771,35.8523893500001,-84.299270119,360,"815 ECHO HOLLOW ROAD, LENOIR CITY, TN, 37771","Match","Exact","815 ECHO HOLLOW RD, LENOIR CITY, TN, 37771",99963902,"L"
880861,"815 EDGEMONT AVE","BRISTOL","TN",37620,36.584350602,-82.179992512,361,"815 EDGEMONT AVE, BRISTOL, TN, 37620","Match","Exact","815 EDGEMONT AVE, BRISTOL, TN, 37620",127838834,"R"
880862,"815 ELMWOOD AVE","COLUMBIA","SC",29201,34.0114980990001,-81.0450140149999,362,"815 ELMWOOD AVE, COLUMBIA, SC, 29201","Match","Exact","815 ELMWOOD AVE, COLUMBIA, SC, 29201",71820467,"L"
880863,"815 EVERGREEN ROAD","FORD CITY","PA",16226,40.7577095410001,-79.543300025,363,"815 EVERGREEN ROAD, FORD CITY, PA, 16226","Match","Exact","815 EVERGREEN RD, FORD CITY, PA, 16226",52464604,"L"
880864,"815 EYRIE DRIVE SUITE 2","OVIEDO","FL",32765,28.658384664,-81.223253805,364,"815 EYRIE DRIVE SUITE 2, OVIEDO, FL, 32765","Match","Exact","815 EYRIE DR, OVIEDO, FL, 32765",93746631,"L"
880865,"815 FAIRCREST ST SW","CANTON","OH",44706,40.750473436,-81.387191843,365,"815 FAIRCREST ST SW, CANTON, OH, 44706","Match","Exact","815 FAIRCREST ST SW, CANTON, OH, 44706",638565572,"R"
880866,"815 FAIRCREST STREET SW","CANTON","OH",44707,40.750473436,-81.387191843,366,"815 FAIRCREST STREET SW, CANTON, OH, 44707","Match","Non_Exact","815 FAIRCREST ST SW, CANTON, OH, 44706",638565572,"R"
880867,"815 FAIRFAX COURT","BARRINGTON","IL",60010,42.1656746080001,-88.133301321,367,"815 FAIRFAX COURT, BARRINGTON, IL, 60010","Match","Exact","815 FAIRFAX CT, BARRINGTON, IL, 60010",119655378,"L"
880868,"815 FAIRVIEW AVE APT 1","ARCADIA","CA",91007,34.128716109,-118.05858904,368,"815 FAIRVIEW AVE APT 1, ARCADIA, CA, 91007","Match","Exact","815 FAIRVIEW AVE, ARCADIA, CA, 91007",141644347,"R"
880869,"815 FAIRVIEW AVE APT F3","MURFREESBORO","TN",37132,35.853275325,-86.3736847229999,369,"815 FAIRVIEW AVE APT F3, MURFREESBORO, TN, 37132","Match","Non_Exact","815 FAIRVIEW AVE, MURFREESBORO, TN, 37130",59015715,"L"
880870,"815 FAWNWAY","SAN ANTONIO","TX",22039,29.658227948,-98.5095855599999,370,"815 FAWNWAY, SAN ANTONIO, TX, 22039","Match","Non_Exact","815 FAWNWAY, SAN ANTONIO, TX, 78260",101702526,"L"
880871,"815 FIRST AVE BOX 110","SEATTLE","WA",98104,47.6034077560001,-122.335075321,371,"815 FIRST AVE BOX 110, SEATTLE, WA, 98104","Match","Exact","815 1ST AVE, SEATTLE, WA, 98104",186589561,"L"
880872,"815 FONT LANE","ST LOUIS","MO",63137,38.7559526370001,-90.2167366159999,372,"815 FONT LANE, ST LOUIS, MO, 63137","Match","Exact","815 FONT LN, SAINT LOUIS, MO, 63137",100150379,"R"
880873,"815 FOREST AVE","SOUTH AMBOY","NJ",8879,40.4487794230001,-74.247683678,373,"815 FOREST AVE, SOUTH AMBOY, NJ, 8879","Match","Non_Exact","815 FORREST AVE, SOUTH AMBOY, NJ, 08879",60284859,"R"
880874,"815 FRANKLIN AVE UNIT 6","VALLEY STREAM","NY",11580,40.686481594,-73.6859851249999,374,"815 FRANKLIN AVE UNIT 6, VALLEY STREAM, NY, 11580","Match","Exact","815 FRANKLIN AVE, VALLEY STREAM, NY, 11580",647178105,"L"
880875,"815 FRANKLIN STREET","JACKSONVILLE","FL",32206,30.331709329,-81.639385053,375,"815 FRANKLIN STREET, JACKSONVILLE, FL, 32206","Match","Exact","815 FRANKLIN ST, JACKSONVILLE, FL, 32206",83900426,"R"
880876,"815 FRAZINE RD","MODESTO","CA",95357,37.653214946,-120.911924448,376,"815 FRAZINE RD, MODESTO, CA, 95357","Match","Exact","815 FRAZINE RD, MODESTO, CA, 95357",102625282,"L"
880877,"815 FRIARS POINT ROAD","CLARKSDALE","MS",38614,NA,NA,377,"815 FRIARS POINT ROAD, CLARKSDALE, MS, 38614","No_Match",NA,NA,NA,NA
880878,"815 FROST RD APT 804","STREETSBORO","OH",44241,41.2614999960001,-81.363287032,378,"815 FROST RD APT 804, STREETSBORO, OH, 44241","Match","Exact","815 FROST RD, STREETSBORO, OH, 44241",641180198,"L"
880879,"815 GALLIVAN BOULEVARD","BOSTON","MA",2122,42.28549888,-71.04279507,379,"815 GALLIVAN BOULEVARD, BOSTON, MA, 2122","Match","Exact","815 GALLIVAN BLVD, BOSTON, MA, 02122",647324054,"L"
880880,"815 GERLACH DR APT 1713","DURANT","OK",74701,34.026617517,-96.3801801499999,380,"815 GERLACH DR APT 1713, DURANT, OK, 74701","Match","Exact","815 GERLACH DR, DURANT, OK, 74701",645935948,"L"
880881,"815 GILLESPIE STREET","JACKSON","MS",39202,32.3162310230001,-90.174865419,381,"815 GILLESPIE STREET, JACKSON, MS, 39202","Match","Exact","815 GILLESPIE ST, JACKSON, MS, 39202",65371279,"R"
880882,"815 GLASS AVE","ESSEX","MD",21221,39.309245333,-76.46679956,382,"815 GLASS AVE, ESSEX, MD, 21221","Match","Exact","815 GLASS AVE, ESSEX, MD, 21221",191489744,"R"
880883,"815 GLEN ABBEY DR","GREENVILLE","NC",27858,35.5712388490001,-77.252076315,383,"815 GLEN ABBEY DR, GREENVILLE, NC, 27858","Match","Exact","815 GLEN ABBEY DR, GREENVILLE, NC, 27858",617979967,"L"
880884,"815 GLENWAY DRIVE APT 12","INGLEWOOD","CA",90302,33.970280395,-118.366672428,384,"815 GLENWAY DRIVE APT 12, INGLEWOOD, CA, 90302","Match","Exact","815 GLENWAY DR, INGLEWOOD, CA, 90302",141654072,"R"
880885,"815 GLENWOOD LANSING ROAD","GLENWOOD","IL",60425,NA,NA,385,"815 GLENWOOD LANSING ROAD, GLENWOOD, IL, 60425","No_Match",NA,NA,NA,NA
880886,"815 GRANT AVE","BELPRE","OH",45714,39.2821959510001,-81.582661554,386,"815 GRANT AVE, BELPRE, OH, 45714","Match","Exact","815 GRANT AVE, BELPRE, OH, 45714",45683848,"L"
880887,"815 GRAVESEND NECK RD 5G","BROOKLYN","NY",11223,40.5942472950001,-73.962100139,387,"815 GRAVESEND NECK RD 5G, BROOKLYN, NY, 11223","Match","Exact","815 GRAVESEND NECK RD, BROOKLYN, NY, 11223",59091033,"L"
880888,"815 GRAVESEND NECK ROAD APT 5G","BROOKLYN","NY",11223,40.5942472950001,-73.962100139,388,"815 GRAVESEND NECK ROAD APT 5G, BROOKLYN, NY, 11223","Match","Exact","815 GRAVESEND NECK RD, BROOKLYN, NY, 11223",59091033,"L"
880889,"815 GREEN RD / APT 201","YPSILANTI","MI",48198,42.258648888,-83.625512688,389,"815 GREEN RD / APT 201, YPSILANTI, MI, 48198","Match","Exact","815 GREEN RD, YPSILANTI, MI, 48198",26055529,"L"
880890,"815 GREGORY CT","STAFFORD","TX",77477,29.609856295,-95.572071824,390,"815 GREGORY CT, STAFFORD, TX, 77477","Match","Exact","815 GREGORY CT, STAFFORD, TX, 77477",78294887,"L"
880891,"815 GROVE ST","CONNEAUT","OH",44030,41.9580397280001,-80.560462155,391,"815 GROVE ST, CONNEAUT, OH, 44030","Match","Exact","815 GROVE ST, CONNEAUT, OH, 44030",117309832,"L"
880892,"815 HACKER STREET","BUFFALO","IA",52728,41.4615591450001,-90.7262605779999,392,"815 HACKER STREET, BUFFALO, IA, 52728","Match","Exact","815 HACKER ST, BUFFALO, IA, 52728",122744815,"R"
880893,"815 HAMPTON DR APT 5","VENICE","CA",90291,33.9934958320001,-118.474005204,393,"815 HAMPTON DR APT 5, VENICE, CA, 90291","Match","Exact","815 HAMPTON DR, VENICE, CA, 90291",642869849,"R"
880894,"815 HAMPTON DR APT 5","VENICE","FL",90291,NA,NA,394,"815 HAMPTON DR APT 5, VENICE, FL, 90291","No_Match",NA,NA,NA,NA
880895,"815 HARMAR ST","FORT WAYNE","IN",46803,41.080722273,-85.1261831589999,395,"815 HARMAR ST, FORT WAYNE, IN, 46803","Match","Exact","815 HARMAR ST, FORT WAYNE, IN, 46803",6379720,"L"
880896,"815 HARRISON ST APT 2","OREGON CITY","OR",97045,45.354101117,-122.596968814,396,"815 HARRISON ST APT 2, OREGON CITY, OR, 97045","Match","Exact","815 HARRISON ST, OREGON CITY, OR, 97045",157976763,"L"
880897,"815 HARRY HALL AVE","WIGGINS","MS",39577,30.854601707,-89.127642153,397,"815 HARRY HALL AVE, WIGGINS, MS, 39577","Match","Exact","815 HARRY HALL AVE, WIGGINS, MS, 39577",89349876,"L"
880898,"815 HASKELL AVE","ORLANDO","FL",32807,28.5583908680001,-81.313887726,398,"815 HASKELL AVE, ORLANDO, FL, 32807","Match","Exact","815 HASKELL AVE, ORLANDO, FL, 32807",94286554,"R"
880899,"815 HASTINGS ST","DELTA","CO",81416,38.7362499450001,-108.061379919,399,"815 HASTINGS ST, DELTA, CO, 81416","Match","Exact","815 HASTINGS ST, DELTA, CO, 81416",122365052,"L"
880900,"815 HAYWARD AVENUE","TAKOMA","MD",20912,38.977433154,-76.996424111,400,"815 HAYWARD AVENUE, TAKOMA, MD, 20912","Match","Non_Exact","815 HAYWARD AVE, TAKOMA PARK, MD, 20912",76303014,"R"
880901,"815 HICKORY HILL BLVD","ERIE","PA",16509,42.0634848980001,-80.056537303,401,"815 HICKORY HILL BLVD, ERIE, PA, 16509","Match","Exact","815 HICKORY HILL BLVD, ERIE, PA, 16509",648055657,"L"
880902,"815 HIGH ST","CHARLOTTE","MI",48813,42.5756341380001,-84.8433589059999,402,"815 HIGH ST, CHARLOTTE, MI, 48813","Match","Exact","815 HIGH ST, CHARLOTTE, MI, 48813",12030048,"L"
880903,"815 HOMESTEAD BLVD - STE 157","HOMESTEAD","FL",33030,25.478688198,-80.464410904,403,"815 HOMESTEAD BLVD - STE 157, HOMESTEAD, FL, 33030","Match","Non_Exact","815 N HOMESTEAD BLVD, HOMESTEAD, FL, 33030",116277792,"L"
880904,"815 HORTON RD","DURHAM","NC",27704,36.0520729470001,-78.911054958,404,"815 HORTON RD, DURHAM, NC, 27704","Match","Exact","815 HORTON RD, DURHAM, NC, 27704",71747072,"L"
880905,"815 HUMMINGBIRD STREET","PHARR","TX",78577,NA,NA,405,"815 HUMMINGBIRD STREET, PHARR, TX, 78577","No_Match",NA,NA,NA,NA
880906,"815 HUNGERFORD PL","CHARLOTTE","NC",28207,35.1915268880001,-80.814824863,406,"815 HUNGERFORD PL, CHARLOTTE, NC, 28207","Match","Exact","815 HUNGERFORD PL, CHARLOTTE, NC, 28207",70537851,"L"
880907,"815 HYDE RD","PIERRE","SD",57501,NA,NA,407,"815 HYDE RD, PIERRE, SD, 57501","No_Match",NA,NA,NA,NA
880908,"815 IDLEWOOD DR","ALLEN","TX",75002,33.0841600270001,-96.631429576,408,"815 IDLEWOOD DR, ALLEN, TX, 75002","Match","Exact","815 IDLEWOOD DR, ALLEN, TX, 75002",123560238,"L"
880909,"815 JAMAICA COURT","SAN DIEGO","CA",92109,32.773622774,-117.251116377,409,"815 JAMAICA COURT, SAN DIEGO, CA, 92109","Match","Exact","815 JAMAICA CT, SAN DIEGO, CA, 92109",195299964,"R"
880910,"815 JAMIE DRIVE","GRAND PRAIRIE","TX",75052,32.6419264150001,-97.014448027,410,"815 JAMIE DRIVE, GRAND PRAIRIE, TX, 75052","Match","Exact","815 JAMIE DR, GRAND PRAIRIE, TX, 75052",103280853,"R"
880911,"815 JEFFERSON ST","KERRVILLE","TX",78028,30.047303689,-99.138166599,411,"815 JEFFERSON ST, KERRVILLE, TX, 78028","Match","Exact","815 JEFFERSON ST, KERRVILLE, TX, 78028",176887708,"L"
880912,"815 JH THOMAS ROAD","ANNVILLE","KY",40402,37.2700325050001,-84.031266834,412,"815 JH THOMAS ROAD, ANNVILLE, KY, 40402","Match","Non_Exact","815 J H THOMAS RD, ANNVILLE, KY, 40402",635914857,"L"
880913,"815 JOHN ST SUITE 110","EVANSVILLE","IN",47720,37.97633289,-87.552794664,413,"815 JOHN ST SUITE 110, EVANSVILLE, IN, 47720","Match","Non_Exact","815 JOHN ST, EVANSVILLE, IN, 47713",39785150,"R"
880914,"815 JOHN STREET SUITE 110","EVANSVILLE","IN",47713,37.97633289,-87.552794664,414,"815 JOHN STREET SUITE 110, EVANSVILLE, IN, 47713","Match","Exact","815 JOHN ST, EVANSVILLE, IN, 47713",39785150,"R"
880915,"815 JUDITH COURT","ZUMBROTA","MN",55992,44.2872023420001,-92.6592616949999,415,"815 JUDITH COURT, ZUMBROTA, MN, 55992","Match","Exact","815 JUDITH CT, ZUMBROTA, MN, 55992",31560942,"R"
880916,"815 JUNCTION POINT LANE","TOMBALL","TX",77375,NA,NA,416,"815 JUNCTION POINT LANE, TOMBALL, TX, 77375","No_Match",NA,NA,NA,NA
880917,"815 KENDALL DRIVE","NASHVILLE","TN",37209,36.136324513,-86.861819568,417,"815 KENDALL DRIVE, NASHVILLE, TN, 37209","Match","Exact","815 KENDALL DR, NASHVILLE, TN, 37209",97180271,"R"
880918,"815 KENNEDY ST","BURLINGTON","KS",66839,38.2040643510001,-95.745240553,418,"815 KENNEDY ST, BURLINGTON, KS, 66839","Match","Exact","815 KENNEDY ST, BURLINGTON, KS, 66839",10029783,"L"
880919,"815 KEWANNA AVENUE","PITTSBURGH","PA",15234,40.3626771470001,-80.0361257819999,419,"815 KEWANNA AVENUE, PITTSBURGH, PA, 15234","Match","Exact","815 KEWANNA AVE, PITTSBURGH, PA, 15234",621927770,"L"
880920,"815 KIM LANE","MESQUITE","TX",75149,32.7513830670001,-96.6122497439999,420,"815 KIM LANE, MESQUITE, TX, 75149","Match","Exact","815 KIM LN, MESQUITE, TX, 75149",103165513,"L"
880921,"815 KIMBARK ST","LAFAYETTE","CO",80026,39.9932004180001,-105.10018809,421,"815 KIMBARK ST, LAFAYETTE, CO, 80026","Match","Exact","815 KIMBARK ST, LAFAYETTE, CO, 80026",188169266,"L"
880922,"815 KINGFISHER LANE","CINCINNATI","OH",45246,39.2670045900001,-84.450019743,422,"815 KINGFISHER LANE, CINCINNATI, OH, 45246","Match","Exact","815 KINGFISHER LN, CINCINNATI, OH, 45246",103959240,"L"
880923,"815 KINTNER ROAD","INTNERSVILLE","PA",18930,40.5565224010001,-75.1821142159999,423,"815 KINTNER ROAD, INTNERSVILLE, PA, 18930","Match","Non_Exact","815 KINTNER RD, KINTNERSVILLE, PA, 18930",134769678,"L"
880924,"815 KOLIC HELMEY ROAD","GUYTON","GA",31312,32.2109814140001,-81.281624533,424,"815 KOLIC HELMEY ROAD, GUYTON, GA, 31312","Match","Exact","815 KOLIC HELMEY RD, GUYTON, GA, 31312",650737360,"R"
880925,"815 LAKE STONE DRIVE","MONROE","LA",28112,NA,NA,425,"815 LAKE STONE DRIVE, MONROE, LA, 28112","No_Match",NA,NA,NA,NA
880926,"815 LAWRENCE - APT 7","EUGENE","OR",97401,44.050752781,-123.098818466,426,"815 LAWRENCE - APT 7, EUGENE, OR, 97401","Match","Non_Exact","815 LAWRENCE ST, EUGENE, OR, 97401",605386749,"L"
880927,"815 LEICESTER NUMBER 304","ELK GROVE VILLAGE","IL",60007,42.0064790180001,-88.013599415,427,"815 LEICESTER NUMBER 304, ELK GROVE VILLAGE, IL, 60007","Match","Non_Exact","815 LEICESTER RD, ELK GROVE VILLAGE, IL, 60007",605600868,"L"
880928,"815 LINCOLNWAY EAST APT 601","MASSILLON","OH",44646,NA,NA,428,"815 LINCOLNWAY EAST APT 601, MASSILLON, OH, 44646","No_Match",NA,NA,NA,NA
880929,"815 LINDBERGH DR","BEAUMONT","TX",77707,30.068545644,-94.155480349,429,"815 LINDBERGH DR, BEAUMONT, TX, 77707","Match","Exact","815 LINDBERGH DR, BEAUMONT, TX, 77707",73853088,"L"
880930,"815 LIVINGSTON LANE","BARRINGTON","IL",60010,42.118814097,-88.131300987,430,"815 LIVINGSTON LANE, BARRINGTON, IL, 60010","Match","Exact","815 LIVINGSTON LN, BARRINGTON, IL, 60010",111862720,"R"
880931,"815 LIZARD CREEK ROAD","LEHIGHTON","PA",18235,NA,NA,431,"815 LIZARD CREEK ROAD, LEHIGHTON, PA, 18235","Tie",NA,NA,NA,NA
880932,"815 LOCKHAVEN LN","COPPELL","TX",75019,32.9740980390001,-96.9683989339999,432,"815 LOCKHAVEN LN, COPPELL, TX, 75019","Match","Exact","815 LOCKHAVEN LN, COPPELL, TX, 75019",102884000,"L"
880933,"815 LOCUST DRIVE","RICHMOND","IN",47374,NA,NA,433,"815 LOCUST DRIVE, RICHMOND, IN, 47374","No_Match",NA,NA,NA,NA
880934,"815 LORI LANE","MOUNT JULIET","TN",37122,36.256451295,-86.549845101,434,"815 LORI LANE, MOUNT JULIET, TN, 37122","Match","Exact","815 LORI LN, MOUNT JULIET, TN, 37122",89694402,"R"
880935,"815 LOURAY DR","BATON ROUGE","LA",70808,30.382855342,-91.1283732539999,435,"815 LOURAY DR, BATON ROUGE, LA, 70808","Match","Exact","815 LOURAY DR, BATON ROUGE, LA, 70808",92192392,"L"
880936,"815 LOWER DINGLE HILL RD","ANDES","NY",13731,42.1303780870001,-74.7531018569999,436,"815 LOWER DINGLE HILL RD, ANDES, NY, 13731","Match","Exact","815 LOWER DINGLE HILL RD, ANDES, NY, 13731",649375455,"L"
880937,"815 MAIN STREET","SANFORD","ME",4073,43.443706665,-70.7823764889999,437,"815 MAIN STREET, SANFORD, ME, 4073","Match","Exact","815 MAIN ST, SANFORD, ME, 04073",92737934,"L"
880938,"815 MARGARET STREET","SUMMERSVILLE","WV",26651,38.288065714,-80.8334213649999,438,"815 MARGARET STREET, SUMMERSVILLE, WV, 26651","Match","Exact","815 MARGARET ST, SUMMERSVILLE, WV, 26651",50054415,"L"
880939,"815 MARIGOLD DR S","CAMBRIDGE","MN",55008,45.565486553,-93.2075773989999,439,"815 MARIGOLD DR S, CAMBRIDGE, MN, 55008","Match","Exact","815 MARIGOLD DR S, CAMBRIDGE, MN, 55008",234898194,"R"
880940,"815 MARKET STREET","SCOTTDALE","PA",15683,40.101808528,-79.59414077,440,"815 MARKET STREET, SCOTTDALE, PA, 15683","Match","Exact","815 MARKET ST, SCOTTDALE, PA, 15683",52957210,"L"
880941,"815 MARLBANK PLACE","PASO ROBLES","CA",93446,35.6261496000001,-120.671333682,441,"815 MARLBANK PLACE, PASO ROBLES, CA, 93446","Match","Non_Exact","815 MARLBANK LN, PASO ROBLES, CA, 93446",641280354,"L"
880942,"815 MARLEY AVE","GLENBURNIE","MD",21060,39.1595499100001,-76.608455853,442,"815 MARLEY AVE, GLENBURNIE, MD, 21060","Match","Non_Exact","815 MARLEY AVE, GLEN BURNIE, MD, 21060",636149738,"R"
880943,"815 MARLSTONE PLACE","COLORADO SPRINGS","CO",80904,38.8493490130001,-104.842149347,443,"815 MARLSTONE PLACE, COLORADO SPRINGS, CO, 80904","Match","Exact","815 MARLSTONE PL, COLORADO SPRINGS, CO, 80904",105529693,"R"
880944,"815 MARTIN STREET","EAGLE LAKE","TX",77434,29.586733037,-96.324160095,444,"815 MARTIN STREET, EAGLE LAKE, TX, 77434","Match","Exact","815 MARTIN ST, EAGLE LAKE, TX, 77434",624490618,"L"
880945,"815 MASON LBVD","MARION","IN",46953,40.552917854,-85.6720517689999,445,"815 MASON LBVD, MARION, IN, 46953","Match","Non_Exact","815 MASON BLVD, MARION, IN, 46953",95007891,"L"
880946,"815 MAURY UNIT 2","MEMPHIS","TN",38107,35.1605547520001,-90.005725275,446,"815 MAURY UNIT 2, MEMPHIS, TN, 38107","Match","Non_Exact","815 MAURY ST, MEMPHIS, TN, 38107",607416690,"L"
880947,"815 MCGRATH RD 2F","FAIRBANKS","AK",99712,64.895757577,-147.662625453,447,"815 MCGRATH RD 2F, FAIRBANKS, AK, 99712","Match","Exact","815 MCGRATH RD, FAIRBANKS, AK, 99712",614941714,"L"
880948,"815 MEADOW LN","FORT WALTON BEACH","FL",32547,30.4574862760001,-86.654191322,448,"815 MEADOW LN, FORT WALTON BEACH, FL, 32547","Match","Exact","815 MEADOW LN, FORT WALTON BEACH, FL, 32547",74388739,"R"
880949,"815 MEADOWLARK LANE","DELRAY BEACH","FL",33445,26.473636976,-80.118920235,449,"815 MEADOWLARK LANE, DELRAY BEACH, FL, 33445","Match","Exact","815 MEADOWLARK LN, DELRAY BEACH, FL, 33445",115576580,"R"
880950,"815 MEMORIAL DRIVE","INTL FALLS","MN",56649,48.5764341610001,-93.386960634,450,"815 MEMORIAL DRIVE, INTL FALLS, MN, 56649","Match","Exact","815 MEMORIAL DR, INTERNATIONAL FALLS, MN, 56649",611831111,"R"
880951,"815 MIDDLE RIVER DR","FORT LAUDERDALE","FL",33304,26.135220041,-80.117620084,451,"815 MIDDLE RIVER DR, FORT LAUDERDALE, FL, 33304","Match","Exact","815 MIDDLE RIVER DR, FORT LAUDERDALE, FL, 33304",114726044,"L"
880952,"815 MIDDLE","CHAMBERSBURG","PA",17201,39.9233914330001,-77.6536036539999,452,"815 MIDDLE, CHAMBERSBURG, PA, 17201","Match","Non_Exact","815 MIDDLE ST, CHAMBERSBURG, PA, 17201",60082278,"L"
880953,"815 MILLSTEAD CT","LAWRENCVILLE","GA",30236,33.5337142760001,-84.281782821,453,"815 MILLSTEAD CT, LAWRENCVILLE, GA, 30236","Match","Non_Exact","815 MILLSTEAD CT, LAKE SPIVEY, GA, 30236",23203844,"L"
880954,"815 MISSION 66","VICKSBURG","MS",39183,32.351782267,-90.8626578399999,454,"815 MISSION 66, VICKSBURG, MS, 39183","Match","Exact","815 MISSION 66, VICKSBURG, MS, 39183",71299551,"R"
880955,"815 MISTY DRIVE","BENTON","AR",72019,34.58523911,-92.5943915719999,455,"815 MISTY DRIVE, BENTON, AR, 72019","Match","Exact","815 MISTY DR, BENTON, AR, 72019",24192783,"R"
880956,"815 MONONGALIA AVE SW","WILLMAR","MN",56201,45.1161556160001,-95.052840937,456,"815 MONONGALIA AVE SW, WILLMAR, MN, 56201","Match","Exact","815 MONONGALIA AVE SW, WILLMAR, MN, 56201",36719058,"R"
880957,"815 MONROE ST","OREGON CITY","OR",97045,45.355790918,-122.600461131,457,"815 MONROE ST, OREGON CITY, OR, 97045","Match","Exact","815 MONROE ST, OREGON CITY, OR, 97045",157976653,"L"
880958,"815 MONROE ST","SAINT CHARLES","MO",63301,38.7860552000001,-90.490197994,458,"815 MONROE ST, SAINT CHARLES, MO, 63301","Match","Exact","815 MONROE ST, SAINT CHARLES, MO, 63301",100022004,"L"
880959,"815 MONTROSE AVENUE/204","VENICE","FL",34293,27.074671408,-82.362150049,459,"815 MONTROSE AVENUE/204, VENICE, FL, 34293","Match","Non_Exact","815 MONTROSE DR, VENICE, FL, 34293",16393638,"R"
880960,"815 MOONEY AVENUE","HAMMOND","LA",70403,30.4935543980001,-90.4742075249999,460,"815 MOONEY AVENUE, HAMMOND, LA, 70403","Match","Exact","815 MOONEY AVE, HAMMOND, LA, 70403",75755047,"R"
880961,"815 MOONLITE DR","ODENVILLE","AL",35120,33.6787215100001,-86.466120033,461,"815 MOONLITE DR, ODENVILLE, AL, 35120","Match","Exact","815 MOONLITE DR, ODENVILLE, AL, 35120",66900742,"R"
880962,"815 MORLANDO DR","ENDICOTT","NY",13760,42.1064353900001,-76.0787778449999,462,"815 MORLANDO DR, ENDICOTT, NY, 13760","Match","Exact","815 MORLANDO DR, ENDICOTT, NY, 13760",46336933,"L"
880963,"815 MOUNTAIN AVE APT C16","SPRINGFIELD","NJ",7081,40.6884045240001,-74.333659618,463,"815 MOUNTAIN AVE APT C16, SPRINGFIELD, NJ, 7081","Match","Exact","815 MOUNTAIN AVE, SPRINGFIELD, NJ, 07081",653267272,"L"
880964,"815 MOUNTAIN ROAD","STRASBURG","VA",22657,39.0139314690001,-78.422419081,464,"815 MOUNTAIN ROAD, STRASBURG, VA, 22657","Match","Exact","815 MOUNTAIN RD, STRASBURG, VA, 22657",632974203,"L"
880965,"815 MT MORIAH RD","MEMPHIS","TN",38117,35.108686666,-89.8953238889999,465,"815 MT MORIAH RD, MEMPHIS, TN, 38117","Match","Exact","815 MOUNT MORIAH RD, MEMPHIS, TN, 38117",72926563,"R"
880966,"815 N  LABREA AVE 166","INGLEWOOD","CA",90302,33.9732015540001,-118.357577873,466,"815 N  LABREA AVE 166, INGLEWOOD, CA, 90302","Match","Non_Exact","815 N LA BREA AVE, INGLEWOOD, CA, 90302",142749670,"L"
880967,"815 N  MULANIX","KIRKSVILLE","MO",63501,40.200419933,-92.579973126,467,"815 N  MULANIX, KIRKSVILLE, MO, 63501","Match","Non_Exact","815 N MULANIX ST, KIRKSVILLE, MO, 63501",24761694,"L"
880968,"815 N 24TH ST","RICHMOND","VA",23223,37.5366982360001,-77.415378749,468,"815 N 24TH ST, RICHMOND, VA, 23223","Match","Exact","815 N 24TH ST, RICHMOND, VA, 23223",201541253,"R"
880969,"815 N 24TH STREET","RICHMOND","VA",23223,37.5366982360001,-77.415378749,469,"815 N 24TH STREET, RICHMOND, VA, 23223","Match","Exact","815 N 24TH ST, RICHMOND, VA, 23223",201541253,"R"
880970,"815 N 28TH ST","BISMARCK","ND",58501,46.812373318,-100.749054886,470,"815 N 28TH ST, BISMARCK, ND, 58501","Match","Exact","815 N 28TH ST, BISMARCK, ND, 58501",198849958,"R"
880971,"815 N 2ND ST","DARDANELLE","AR",72834,35.226558681,-93.1586886869999,471,"815 N 2ND ST, DARDANELLE, AR, 72834","Match","Exact","815 N 2ND ST, DARDANELLE, AR, 72834",24307655,"L"
880972,"815 N 2ND ST","DENNISON","OH",44621,40.4009843860001,-81.334713391,472,"815 N 2ND ST, DENNISON, OH, 44621","Match","Exact","815 N 2ND ST, DENNISON, OH, 44621",44228285,"L"
880973,"815 N 2ND STREET","DENNISON","OH",44621,40.4009843860001,-81.334713391,473,"815 N 2ND STREET, DENNISON, OH, 44621","Match","Exact","815 N 2ND ST, DENNISON, OH, 44621",44228285,"L"
880974,"815 N 52ND ST APT 2410","PHOENIX","AZ",85008,NA,NA,474,"815 N 52ND ST APT 2410, PHOENIX, AZ, 85008","No_Match",NA,NA,NA,NA
880975,"815 N 52ND STREET 2326","PHOENIX","AZ",85008,NA,NA,475,"815 N 52ND STREET 2326, PHOENIX, AZ, 85008","No_Match",NA,NA,NA,NA
880976,"815 N 63RD STREET","KANSAS CITY","MO",64138,NA,NA,476,"815 N 63RD STREET, KANSAS CITY, MO, 64138","No_Match",NA,NA,NA,NA
880977,"815 N 63RD STREET","PHILADELPHIA","PA",19139,39.9759342300001,-75.245640793,477,"815 N 63RD STREET, PHILADELPHIA, PA, 19139","Match","Non_Exact","815 N 63RD ST, PHILADELPHIA, PA, 19151",131397163,"R"
880978,"815 N 6TH STREET","OKEMAH","OK",74859,35.439524863,-96.307315118,478,"815 N 6TH STREET, OKEMAH, OK, 74859","Match","Exact","815 N 6TH ST, OKEMAH, OK, 74859",107366091,"L"
880979,"815 N AYLESBURY ROAD","GOOSE CREEK","SC",29445,33.030213717,-80.063528156,479,"815 N AYLESBURY ROAD, GOOSE CREEK, SC, 29445","Match","Exact","815 N AYLESBURY RD, GOOSE CREEK, SC, 29445",636581272,"R"
880980,"815 N BAKER AVE APT A206","EAST WENATCHEE","WA",98802,47.4156740240001,-120.290425957,480,"815 N BAKER AVE APT A206, EAST WENATCHEE, WA, 98802","Match","Non_Exact","815 N BAKER AVE, EAST WENATCHEE, WA, 98802",640448726,"L"
880981,"815 N BEVILLE AVENUE","INDIANAPOLIS","IN",46201,39.7784920390001,-86.122547334,481,"815 N BEVILLE AVENUE, INDIANAPOLIS, IN, 46201","Match","Exact","815 N BEVILLE AVE, INDIANAPOLIS, IN, 46201",107993565,"R"
880982,"815 N CALIFORNIA ST","INDIANAPOLIS","IN",46202,39.778559607,-86.1688732109999,482,"815 N CALIFORNIA ST, INDIANAPOLIS, IN, 46202","Match","Exact","815 N CALIFORNIA ST, INDIANAPOLIS, IN, 46202",107991126,"R"
880983,"815 N CAPITOL AVE APT B","LANSING","MI",48905,NA,NA,483,"815 N CAPITOL AVE APT B, LANSING, MI, 48905","No_Match",NA,NA,NA,NA
880984,"815 N DOUGLAS","ARL HGHTS","IL",60004,NA,NA,484,"815 N DOUGLAS, ARL HGHTS, IL, 60004","No_Match",NA,NA,NA,NA
880985,"815 N DOUGLAS","ARL HGTS","IL",60004,NA,NA,485,"815 N DOUGLAS, ARL HGTS, IL, 60004","No_Match",NA,NA,NA,NA
880986,"815 N DOULGAS","ARL HGHTS","IL",60004,NA,NA,486,"815 N DOULGAS, ARL HGHTS, IL, 60004","No_Match",NA,NA,NA,NA
880987,"815 N DUTTON AVE","SANTA ROSA","CA",95401,38.4407574100001,-122.728896452,487,"815 N DUTTON AVE, SANTA ROSA, CA, 95401","Match","Exact","815 N DUTTON AVE, SANTA ROSA, CA, 95401",67489613,"L"
880988,"815 N ELMHURST RD","PROSPECT HEIGHTS","IL",60070,42.1123964330001,-87.9367913729999,488,"815 N ELMHURST RD, PROSPECT HEIGHTS, IL, 60070","Match","Exact","815 N ELMHURST RD, PROSPECT HEIGHTS, IL, 60070",605609522,"R"
880989,"815 N GRANT ST","LEBANON","IN",46052,40.05400709,-86.460042086,489,"815 N GRANT ST, LEBANON, IN, 46052","Match","Exact","815 N GRANT ST, LEBANON, IN, 46052",29251909,"R"
880990,"815 N HARLEM AVE","OAK PARK","IL",60302,41.8947719990001,-87.80525096,490,"815 N HARLEM AVE, OAK PARK, IL, 60302","Match","Exact","815 N HARLEM AVE, OAK PARK, IL, 60302",111752601,"R"
880991,"815 N HICKORY ST","CHATTANOOGA","TN",37404,35.0511282480001,-85.270075401,491,"815 N HICKORY ST, CHATTANOOGA, TN, 37404","Match","Exact","815 N HICKORY ST, CHATTANOOGA, TN, 37404",59308597,"L"
880992,"815 N HOMESTEAD AVE 112","HOMESTEAD","FL",33030,NA,NA,492,"815 N HOMESTEAD AVE 112, HOMESTEAD, FL, 33030","No_Match",NA,NA,NA,NA
880993,"815 N HOMESTEAD BLVD 301","HOMESTEAD","FL",33030,25.478694949,-80.4644077359999,493,"815 N HOMESTEAD BLVD 301, HOMESTEAD, FL, 33030","Match","Non_Exact","815 N HOMESTEAD BLVD, HOMESTEAD, FL, 33030",116277792,"L"
880994,"815 N HOMESTEAD BLVD 603","HOMESTEAD","FL",33030,25.478694949,-80.4644077359999,494,"815 N HOMESTEAD BLVD 603, HOMESTEAD, FL, 33030","Match","Non_Exact","815 N HOMESTEAD BLVD, HOMESTEAD, FL, 33030",116277792,"L"
880995,"815 N HOMESTEAD BLVD BOX 631","HOMESTEAD","FL",33030,25.478694949,-80.4644077359999,495,"815 N HOMESTEAD BLVD BOX 631, HOMESTEAD, FL, 33030","Match","Non_Exact","815 N HOMESTEAD BLVD, HOMESTEAD, FL, 33030",116277792,"L"
880996,"815 N HOMESTEAD BLVD NO 318","HOMESTEAD","FL",33030,NA,NA,496,"815 N HOMESTEAD BLVD NO 318, HOMESTEAD, FL, 33030","No_Match",NA,NA,NA,NA
880997,"815 N HOMESTEAD BLVD NUMBER 640","HOMESTEAD","FL",33030,25.478694949,-80.4644077359999,497,"815 N HOMESTEAD BLVD NUMBER 640, HOMESTEAD, FL, 33030","Match","Non_Exact","815 N HOMESTEAD BLVD, HOMESTEAD, FL, 33030",116277792,"L"
880998,"815 N HOMESTEAD BLVD SUITE 326","HOMESTEAD","FL",33030,25.478694949,-80.4644077359999,498,"815 N HOMESTEAD BLVD SUITE 326, HOMESTEAD, FL, 33030","Match","Non_Exact","815 N HOMESTEAD BLVD, HOMESTEAD, FL, 33030",116277792,"L"
880999,"815 N HOMESTEAD BLVD SUITE 358","HOMESTEAD","FL",33030,25.478694949,-80.4644077359999,499,"815 N HOMESTEAD BLVD SUITE 358, HOMESTEAD, FL, 33030","Match","Non_Exact","815 N HOMESTEAD BLVD, HOMESTEAD, FL, 33030",116277792,"L"
881000,"815 N KENDRICK AVE","GLENDIVE","MT",59330,47.111260336,-104.708790603,500,"815 N KENDRICK AVE, GLENDIVE, MT, 59330","Match","Exact","815 N KENDRICK AVE, GLENDIVE, MT, 59330",161614524,"L"
