"ID","Address","City","State","Zip","lat","long","id","input_address","match_indicator","match_type","matched_address","tiger_line_id","tiger_side"
969501,"PO BOX 10991","EUGENE","OR",97440,NA,NA,1,"PO BOX 10991, EUGENE, OR, 97440","No_Match",NA,NA,NA,NA
969502,"PO BOX 11 894 GERMAN HILL RD","FACTORYVILLE","PA",18414,NA,NA,2,"PO BOX 11 894 GERMAN HILL RD, FACTORYVILLE, PA, 18414","No_Match",NA,NA,NA,NA
969503,"PO BOX 11","ADEL","OR",97620,NA,NA,3,"PO BOX 11, ADEL, OR, 97620","No_Match",NA,NA,NA,NA
969504,"PO BOX 11","APACHE JCT","AZ",85219,NA,NA,4,"PO BOX 11, APACHE JCT, AZ, 85219","No_Match",NA,NA,NA,NA
969505,"PO BOX 11","ASPEN","CO",81612,NA,NA,5,"PO BOX 11, ASPEN, CO, 81612","No_Match",NA,NA,NA,NA
969506,"PO BOX 11","BOYES HOT SPRINGS","CA",95416,NA,NA,6,"PO BOX 11, BOYES HOT SPRINGS, CA, 95416","No_Match",NA,NA,NA,NA
969507,"PO BOX 11","BRANCHBURG","NJ",7826,NA,NA,7,"PO BOX 11, BRANCHBURG, NJ, 7826","No_Match",NA,NA,NA,NA
969508,"PO BOX 11","BROOKLYN","PA",18813,NA,NA,8,"PO BOX 11, BROOKLYN, PA, 18813","No_Match",NA,NA,NA,NA
969509,"PO BOX 11","BROWERVILLE","MN",56438,NA,NA,9,"PO BOX 11, BROWERVILLE, MN, 56438","No_Match",NA,NA,NA,NA
969510,"PO BOX 11","BUTTE FALLS","OR",97522,NA,NA,10,"PO BOX 11, BUTTE FALLS, OR, 97522","No_Match",NA,NA,NA,NA
969511,"PO BOX 11","CAMPBELLTON","TX",78008,NA,NA,11,"PO BOX 11, CAMPBELLTON, TX, 78008","No_Match",NA,NA,NA,NA
969512,"PO BOX 11","CANFIELD","OH",44406,NA,NA,12,"PO BOX 11, CANFIELD, OH, 44406","No_Match",NA,NA,NA,NA
969513,"PO BOX 11","CUMBERLAND CENTER","ME",4021,NA,NA,13,"PO BOX 11, CUMBERLAND CENTER, ME, 4021","No_Match",NA,NA,NA,NA
969514,"PO BOX 11","DANVILLE","WV",25053,NA,NA,14,"PO BOX 11, DANVILLE, WV, 25053","No_Match",NA,NA,NA,NA
969515,"PO BOX 11","DINGESS","WV",25671,NA,NA,15,"PO BOX 11, DINGESS, WV, 25671","No_Match",NA,NA,NA,NA
969516,"PO BOX 11","EAGLE","CO",81631,NA,NA,16,"PO BOX 11, EAGLE, CO, 81631","No_Match",NA,NA,NA,NA
969517,"PO BOX 11","GRACEMONT","OK",73042,NA,NA,17,"PO BOX 11, GRACEMONT, OK, 73042","No_Match",NA,NA,NA,NA
969518,"PO BOX 11","GRAND MARAIS","MI",49839,NA,NA,18,"PO BOX 11, GRAND MARAIS, MI, 49839","No_Match",NA,NA,NA,NA
969519,"PO BOX 11","HARRISON CITY","PA",15636,NA,NA,19,"PO BOX 11, HARRISON CITY, PA, 15636","No_Match",NA,NA,NA,NA
969520,"PO BOX 11","HOCKLEY","TX",77447,NA,NA,20,"PO BOX 11, HOCKLEY, TX, 77447","No_Match",NA,NA,NA,NA
969521,"PO BOX 11","JAMESTOWN","NC",27282,NA,NA,21,"PO BOX 11, JAMESTOWN, NC, 27282","No_Match",NA,NA,NA,NA
969522,"PO BOX 11","KELLYVILLE","OK",74039,NA,NA,22,"PO BOX 11, KELLYVILLE, OK, 74039","No_Match",NA,NA,NA,NA
969523,"PO BOX 11","KOUNTZE","TX",77625,NA,NA,23,"PO BOX 11, KOUNTZE, TX, 77625","No_Match",NA,NA,NA,NA
969524,"PO BOX 11","LEWISTOWN","PA",17044,NA,NA,24,"PO BOX 11, LEWISTOWN, PA, 17044","No_Match",NA,NA,NA,NA
969525,"PO BOX 11","MIDVALE","ID",83645,NA,NA,25,"PO BOX 11, MIDVALE, ID, 83645","No_Match",NA,NA,NA,NA
969526,"PO BOX 11","MILLBRAE","CA",94030,NA,NA,26,"PO BOX 11, MILLBRAE, CA, 94030","No_Match",NA,NA,NA,NA
969527,"PO BOX 11","MILLERTON","NY",12546,NA,NA,27,"PO BOX 11, MILLERTON, NY, 12546","No_Match",NA,NA,NA,NA
969528,"PO BOX 11","MINERVA","NY",12851,NA,NA,28,"PO BOX 11, MINERVA, NY, 12851","No_Match",NA,NA,NA,NA
969529,"PO BOX 11","ORANGE BEACH","AL",36561,NA,NA,29,"PO BOX 11, ORANGE BEACH, AL, 36561","No_Match",NA,NA,NA,NA
969530,"PO BOX 11","OREM","UT",84059,NA,NA,30,"PO BOX 11, OREM, UT, 84059","No_Match",NA,NA,NA,NA
969531,"PO BOX 11","PANAMA","NY",14767,NA,NA,31,"PO BOX 11, PANAMA, NY, 14767","No_Match",NA,NA,NA,NA
969532,"PO BOX 11","PRAY","MT",59065,NA,NA,32,"PO BOX 11, PRAY, MT, 59065","No_Match",NA,NA,NA,NA
969533,"PO BOX 11","REDWOOD CITY","CA",94064,NA,NA,33,"PO BOX 11, REDWOOD CITY, CA, 94064","No_Match",NA,NA,NA,NA
969534,"PO BOX 11","REEDSVILLE","WI",54230,NA,NA,34,"PO BOX 11, REEDSVILLE, WI, 54230","No_Match",NA,NA,NA,NA
969535,"PO BOX 11","SPENCERPORT","NY",14559,NA,NA,35,"PO BOX 11, SPENCERPORT, NY, 14559","No_Match",NA,NA,NA,NA
969536,"PO BOX 11","SPRING GROVE","MN",55974,NA,NA,36,"PO BOX 11, SPRING GROVE, MN, 55974","No_Match",NA,NA,NA,NA
969537,"PO BOX 11","ST CHARLES","AR",72140,NA,NA,37,"PO BOX 11, ST CHARLES, AR, 72140","No_Match",NA,NA,NA,NA
969538,"PO BOX 11","TALLMADGE","OH",44278,NA,NA,38,"PO BOX 11, TALLMADGE, OH, 44278","No_Match",NA,NA,NA,NA
969539,"PO BOX 11","TREGO","MT",59934,NA,NA,39,"PO BOX 11, TREGO, MT, 59934","No_Match",NA,NA,NA,NA
969540,"PO BOX 11","WEST BRANCH","MI",48661,NA,NA,40,"PO BOX 11, WEST BRANCH, MI, 48661","No_Match",NA,NA,NA,NA
969541,"PO BOX 11","WESTMINSTER","MD",21158,NA,NA,41,"PO BOX 11, WESTMINSTER, MD, 21158","No_Match",NA,NA,NA,NA
969542,"PO BOX 110 286","CAMBRIA HEIGHTS","NY",11411,NA,NA,42,"PO BOX 110 286, CAMBRIA HEIGHTS, NY, 11411","No_Match",NA,NA,NA,NA
969543,"PO BOX 110","BOWIE","TX",76230,NA,NA,43,"PO BOX 110, BOWIE, TX, 76230","No_Match",NA,NA,NA,NA
969544,"PO BOX 110","CHELSEA","MI",48118,NA,NA,44,"PO BOX 110, CHELSEA, MI, 48118","No_Match",NA,NA,NA,NA
969545,"PO BOX 110","EAGLE BUTTE","SD",57625,NA,NA,45,"PO BOX 110, EAGLE BUTTE, SD, 57625","No_Match",NA,NA,NA,NA
969546,"PO BOX 110","EBONY","VA",23845,NA,NA,46,"PO BOX 110, EBONY, VA, 23845","No_Match",NA,NA,NA,NA
969547,"PO BOX 110","GRAND MARAIS","MI",49839,NA,NA,47,"PO BOX 110, GRAND MARAIS, MI, 49839","No_Match",NA,NA,NA,NA
969548,"PO BOX 110","GRANTSVILLE","WV",26147,NA,NA,48,"PO BOX 110, GRANTSVILLE, WV, 26147","No_Match",NA,NA,NA,NA
969549,"PO BOX 110","HOT SPRINGS","SD",57747,NA,NA,49,"PO BOX 110, HOT SPRINGS, SD, 57747","No_Match",NA,NA,NA,NA
969550,"PO BOX 110","JUBA EC",NA,NA,NA,NA,50,"PO BOX 110, JUBA EC, , ","No_Match",NA,NA,NA,NA
969551,"PO BOX 110","KENNARD","NE",68034,NA,NA,51,"PO BOX 110, KENNARD, NE, 68034","No_Match",NA,NA,NA,NA
969552,"PO BOX 110","KITE","KY",41828,NA,NA,52,"PO BOX 110, KITE, KY, 41828","No_Match",NA,NA,NA,NA
969553,"PO BOX 110","KYLERTOWN","PA",16847,NA,NA,53,"PO BOX 110, KYLERTOWN, PA, 16847","No_Match",NA,NA,NA,NA
969554,"PO BOX 110","LEMON GROVE","CA",92145,NA,NA,54,"PO BOX 110, LEMON GROVE, CA, 92145","No_Match",NA,NA,NA,NA
969555,"PO BOX 110","MIDDLETON","ID",83644,NA,NA,55,"PO BOX 110, MIDDLETON, ID, 83644","No_Match",NA,NA,NA,NA
969556,"PO BOX 110","NEW VIENNA","OH",45159,NA,NA,56,"PO BOX 110, NEW VIENNA, OH, 45159","No_Match",NA,NA,NA,NA
969557,"PO BOX 110","NEW VIENNA","OH",NA,NA,NA,57,"PO BOX 110, NEW VIENNA, OH, ","No_Match",NA,NA,NA,NA
969558,"PO BOX 110","PITTSFIELD","IL",62363,NA,NA,58,"PO BOX 110, PITTSFIELD, IL, 62363","No_Match",NA,NA,NA,NA
969559,"PO BOX 110","SYCAMORE","OH",44882,NA,NA,59,"PO BOX 110, SYCAMORE, OH, 44882","No_Match",NA,NA,NA,NA
969560,"PO BOX 110","WILD ROSE","WI",54984,NA,NA,60,"PO BOX 110, WILD ROSE, WI, 54984","No_Match",NA,NA,NA,NA
969561,"PO BOX 1100","FLORA VISTA","NM",87415,NA,NA,61,"PO BOX 1100, FLORA VISTA, NM, 87415","No_Match",NA,NA,NA,NA
969562,"PO BOX 1100","TROY","MT",59935,NA,NA,62,"PO BOX 1100, TROY, MT, 59935","No_Match",NA,NA,NA,NA
969563,"PO BOX 1100","WINDERMERE","FL",34786,NA,NA,63,"PO BOX 1100, WINDERMERE, FL, 34786","No_Match",NA,NA,NA,NA
969564,"PO BOX 110021","NAPLES","FL",34108,NA,NA,64,"PO BOX 110021, NAPLES, FL, 34108","No_Match",NA,NA,NA,NA
969565,"PO BOX 11004","SPRIINGFIELD","MO",65808,NA,NA,65,"PO BOX 11004, SPRIINGFIELD, MO, 65808","No_Match",NA,NA,NA,NA
969566,"PO BOX 11004","SPRINGFIELD","MO",65808,NA,NA,66,"PO BOX 11004, SPRINGFIELD, MO, 65808","No_Match",NA,NA,NA,NA
969567,"PO BOX 110092","LAKEWOOD RANCH","FL",34211,NA,NA,67,"PO BOX 110092, LAKEWOOD RANCH, FL, 34211","No_Match",NA,NA,NA,NA
969568,"PO BOX 1101","FLAGLER BEACH","FL",32136,NA,NA,68,"PO BOX 1101, FLAGLER BEACH, FL, 32136","No_Match",NA,NA,NA,NA
969569,"PO BOX 1101","LANCASTER","SC",29721,NA,NA,69,"PO BOX 1101, LANCASTER, SC, 29721","No_Match",NA,NA,NA,NA
969570,"PO BOX 1101","LIMON","CO",80828,NA,NA,70,"PO BOX 1101, LIMON, CO, 80828","No_Match",NA,NA,NA,NA
969571,"PO BOX 1101","OLYMPIA","WA",98507,NA,NA,71,"PO BOX 1101, OLYMPIA, WA, 98507","No_Match",NA,NA,NA,NA
969572,"PO BOX 1101","PHILIPSBURG","MT",59858,NA,NA,72,"PO BOX 1101, PHILIPSBURG, MT, 59858","No_Match",NA,NA,NA,NA
969573,"PO BOX 1101","REYNOLDSBURG","OH",43068,NA,NA,73,"PO BOX 1101, REYNOLDSBURG, OH, 43068","No_Match",NA,NA,NA,NA
969574,"PO BOX 1101","WILSON","WY",83014,NA,NA,74,"PO BOX 1101, WILSON, WY, 83014","No_Match",NA,NA,NA,NA
969575,"PO BOX 110131","ANCHORAGE","AK",99511,NA,NA,75,"PO BOX 110131, ANCHORAGE, AK, 99511","No_Match",NA,NA,NA,NA
969576,"PO BOX 11014","OKLAHOMA CITY","OK",73136,NA,NA,76,"PO BOX 11014, OKLAHOMA CITY, OK, 73136","No_Match",NA,NA,NA,NA
969577,"PO BOX 110188","PALM BAY","FL",32911,NA,NA,77,"PO BOX 110188, PALM BAY, FL, 32911","No_Match",NA,NA,NA,NA
969578,"PO BOX 1102","BLOCK ISLAND","RI",2807,NA,NA,78,"PO BOX 1102, BLOCK ISLAND, RI, 2807","No_Match",NA,NA,NA,NA
969579,"PO BOX 1102","CEDAREDGE","CO",81413,NA,NA,79,"PO BOX 1102, CEDAREDGE, CO, 81413","No_Match",NA,NA,NA,NA
969580,"PO BOX 1102","CHESTER","PA",19016,NA,NA,80,"PO BOX 1102, CHESTER, PA, 19016","No_Match",NA,NA,NA,NA
969581,"PO BOX 1102","FAIRMONT","NC",28340,NA,NA,81,"PO BOX 1102, FAIRMONT, NC, 28340","No_Match",NA,NA,NA,NA
969582,"PO BOX 1102","GRAND ISLE","LA",70358,NA,NA,82,"PO BOX 1102, GRAND ISLE, LA, 70358","No_Match",NA,NA,NA,NA
969583,"PO BOX 1102","HAWTHORNE","FL",32640,NA,NA,83,"PO BOX 1102, HAWTHORNE, FL, 32640","No_Match",NA,NA,NA,NA
969584,"PO BOX 1102","ORLANDO","FL",32802,NA,NA,84,"PO BOX 1102, ORLANDO, FL, 32802","No_Match",NA,NA,NA,NA
969585,"PO BOX 1102","SCOTTSBLUFF","NE",69361,NA,NA,85,"PO BOX 1102, SCOTTSBLUFF, NE, 69361","No_Match",NA,NA,NA,NA
969586,"PO BOX 11023","HICKORY","NC",28603,NA,NA,86,"PO BOX 11023, HICKORY, NC, 28603","No_Match",NA,NA,NA,NA
969587,"PO BOX 110263","NAPLES","FL",34108,NA,NA,87,"PO BOX 110263, NAPLES, FL, 34108","No_Match",NA,NA,NA,NA
969588,"PO BOX 11029","ASPEN","CO",81612,NA,NA,88,"PO BOX 11029, ASPEN, CO, 81612","No_Match",NA,NA,NA,NA
969589,"PO BOX 1103","CHAPEL HILL","NC",27514,NA,NA,89,"PO BOX 1103, CHAPEL HILL, NC, 27514","No_Match",NA,NA,NA,NA
969590,"PO BOX 1103","CHINOOK","MT",59523,NA,NA,90,"PO BOX 1103, CHINOOK, MT, 59523","No_Match",NA,NA,NA,NA
969591,"PO BOX 1103","FERNDALE","CA",95536,NA,NA,91,"PO BOX 1103, FERNDALE, CA, 95536","No_Match",NA,NA,NA,NA
969592,"PO BOX 1103","MARYSVILLE","WA",98270,NA,NA,92,"PO BOX 1103, MARYSVILLE, WA, 98270","No_Match",NA,NA,NA,NA
969593,"PO BOX 1103","MONCKS CORNER","NC",29461,NA,NA,93,"PO BOX 1103, MONCKS CORNER, NC, 29461","No_Match",NA,NA,NA,NA
969594,"PO BOX 1103","MONCKS CORNER","SC",29461,NA,NA,94,"PO BOX 1103, MONCKS CORNER, SC, 29461","No_Match",NA,NA,NA,NA
969595,"PO BOX 1103","MONTCLAIR","NJ",7042,NA,NA,95,"PO BOX 1103, MONTCLAIR, NJ, 7042","No_Match",NA,NA,NA,NA
969596,"PO BOX 11032","SANTA ROSA","CA",95406,NA,NA,96,"PO BOX 11032, SANTA ROSA, CA, 95406","No_Match",NA,NA,NA,NA
969597,"PO BOX 11035","ZEPHYR COVE","NV",89448,NA,NA,97,"PO BOX 11035, ZEPHYR COVE, NV, 89448","No_Match",NA,NA,NA,NA
969598,"PO BOX 1104","BADIN","NC",28009,NA,NA,98,"PO BOX 1104, BADIN, NC, 28009","No_Match",NA,NA,NA,NA
969599,"PO BOX 1104","HAIKU","HI",96708,NA,NA,99,"PO BOX 1104, HAIKU, HI, 96708","No_Match",NA,NA,NA,NA
969600,"PO BOX 1104","KINSTON","NC",28503,NA,NA,100,"PO BOX 1104, KINSTON, NC, 28503","No_Match",NA,NA,NA,NA
969601,"PO BOX 1104","MAXTON","NC",28364,NA,NA,101,"PO BOX 1104, MAXTON, NC, 28364","No_Match",NA,NA,NA,NA
969602,"PO BOX 1104","WILDOMAR","CA",92595,NA,NA,102,"PO BOX 1104, WILDOMAR, CA, 92595","No_Match",NA,NA,NA,NA
969603,"PO BOX 1104","ZILLAH","WA",98953,NA,NA,103,"PO BOX 1104, ZILLAH, WA, 98953","No_Match",NA,NA,NA,NA
969604,"PO BOX 110437","BRADENTON","FL",34211,NA,NA,104,"PO BOX 110437, BRADENTON, FL, 34211","No_Match",NA,NA,NA,NA
969605,"PO BOX 11044","TAMPA","FL",33680,NA,NA,105,"PO BOX 11044, TAMPA, FL, 33680","No_Match",NA,NA,NA,NA
969606,"PO BOX 11045","MILWAUKEE","WI",53211,NA,NA,106,"PO BOX 11045, MILWAUKEE, WI, 53211","No_Match",NA,NA,NA,NA
969607,"PO BOX 110455","ANCHORAGE","AK",99511,NA,NA,107,"PO BOX 110455, ANCHORAGE, AK, 99511","No_Match",NA,NA,NA,NA
969608,"PO BOX 110462","DURHAM","NC",27709,NA,NA,108,"PO BOX 110462, DURHAM, NC, 27709","No_Match",NA,NA,NA,NA
969609,"PO BOX 110463","DURHAM","NC",27709,NA,NA,109,"PO BOX 110463, DURHAM, NC, 27709","No_Match",NA,NA,NA,NA
969610,"PO BOX 110491","DURHAM","NC",27709,NA,NA,110,"PO BOX 110491, DURHAM, NC, 27709","No_Match",NA,NA,NA,NA
969611,"PO BOX 110499","BRADENTON","FL",34211,NA,NA,111,"PO BOX 110499, BRADENTON, FL, 34211","No_Match",NA,NA,NA,NA
969612,"PO BOX 1105","CAMPBELLSPORT","WI",53010,NA,NA,112,"PO BOX 1105, CAMPBELLSPORT, WI, 53010","No_Match",NA,NA,NA,NA
969613,"PO BOX 1105","CHESAPEAKE","VA",23327,NA,NA,113,"PO BOX 1105, CHESAPEAKE, VA, 23327","No_Match",NA,NA,NA,NA
969614,"PO BOX 1105","CLATSKANIE","OR",97016,NA,NA,114,"PO BOX 1105, CLATSKANIE, OR, 97016","No_Match",NA,NA,NA,NA
969615,"PO BOX 1105","JEFFERSON","NC",28640,NA,NA,115,"PO BOX 1105, JEFFERSON, NC, 28640","No_Match",NA,NA,NA,NA
969616,"PO BOX 1105","MARION","SC",29571,NA,NA,116,"PO BOX 1105, MARION, SC, 29571","No_Match",NA,NA,NA,NA
969617,"PO BOX 1105","REPUBLIC","WA",99166,NA,NA,117,"PO BOX 1105, REPUBLIC, WA, 99166","No_Match",NA,NA,NA,NA
969618,"PO BOX 1105","SAN LUIS OBISPO","CA",93406,NA,NA,118,"PO BOX 1105, SAN LUIS OBISPO, CA, 93406","No_Match",NA,NA,NA,NA
969619,"PO BOX 1105","SANTA BARBARA","CA",93102,NA,NA,119,"PO BOX 1105, SANTA BARBARA, CA, 93102","No_Match",NA,NA,NA,NA
969620,"PO BOX 1105","SIDNEY","MT",59270,NA,NA,120,"PO BOX 1105, SIDNEY, MT, 59270","No_Match",NA,NA,NA,NA
969621,"PO BOX 1105","TILLAMOOK","OR",97141,NA,NA,121,"PO BOX 1105, TILLAMOOK, OR, 97141","No_Match",NA,NA,NA,NA
969622,"PO BOX 1105","WARSAW","KY",41095,NA,NA,122,"PO BOX 1105, WARSAW, KY, 41095","No_Match",NA,NA,NA,NA
969623,"PO BOX 11050","HILO","HI",96720,NA,NA,123,"PO BOX 11050, HILO, HI, 96720","No_Match",NA,NA,NA,NA
969624,"PO BOX 110500","GAINESVILLE","FL",32611,NA,NA,124,"PO BOX 110500, GAINESVILLE, FL, 32611","No_Match",NA,NA,NA,NA
969625,"PO BOX 11051","EUGENE","OR",97440,NA,NA,125,"PO BOX 11051, EUGENE, OR, 97440","No_Match",NA,NA,NA,NA
969626,"PO BOX 11051","HONOLULU","HI",96828,NA,NA,126,"PO BOX 11051, HONOLULU, HI, 96828","No_Match",NA,NA,NA,NA
969627,"PO BOX 1106","HILLSBORO","OR",97123,NA,NA,127,"PO BOX 1106, HILLSBORO, OR, 97123","No_Match",NA,NA,NA,NA
969628,"PO BOX 1106","JACKSON","MS",39215,NA,NA,128,"PO BOX 1106, JACKSON, MS, 39215","No_Match",NA,NA,NA,NA
969629,"PO BOX 1106","ST PETERSBURG","FL",33731,NA,NA,129,"PO BOX 1106, ST PETERSBURG, FL, 33731","No_Match",NA,NA,NA,NA
969630,"PO BOX 1106","ST. PETERSBURG","FL",33731,NA,NA,130,"PO BOX 1106, ST. PETERSBURG, FL, 33731","No_Match",NA,NA,NA,NA
969631,"PO BOX 1106","WICKENBURG","AZ",85358,NA,NA,131,"PO BOX 1106, WICKENBURG, AZ, 85358","No_Match",NA,NA,NA,NA
969632,"PO BOX 1106","YUBA CITY","CA",95992,NA,NA,132,"PO BOX 1106, YUBA CITY, CA, 95992","No_Match",NA,NA,NA,NA
969633,"PO BOX 110608","ANCHORAGE","AK",99511,NA,NA,133,"PO BOX 110608, ANCHORAGE, AK, 99511","No_Match",NA,NA,NA,NA
969634,"PO BOX 11061","JACKSON","WY",83002,NA,NA,134,"PO BOX 11061, JACKSON, WY, 83002","No_Match",NA,NA,NA,NA
969635,"PO BOX 11064","CARROLLTON","TX",75011,NA,NA,135,"PO BOX 11064, CARROLLTON, TX, 75011","No_Match",NA,NA,NA,NA
969636,"PO BOX 110667","CAMPBELL","CA",95011,NA,NA,136,"PO BOX 110667, CAMPBELL, CA, 95011","No_Match",NA,NA,NA,NA
969637,"PO BOX 11067","CASA GRANDE","AZ",85130,NA,NA,137,"PO BOX 11067, CASA GRANDE, AZ, 85130","No_Match",NA,NA,NA,NA
969638,"PO BOX 110680","GAINESVILLE","FL",32611,NA,NA,138,"PO BOX 110680, GAINESVILLE, FL, 32611","No_Match",NA,NA,NA,NA
969639,"PO BOX 1107","BRACKETTVILLE","TX",78832,NA,NA,139,"PO BOX 1107, BRACKETTVILLE, TX, 78832","No_Match",NA,NA,NA,NA
969640,"PO BOX 1107","GAUTIER","MS",39553,NA,NA,140,"PO BOX 1107, GAUTIER, MS, 39553","No_Match",NA,NA,NA,NA
969641,"PO BOX 1107","GROVETON","TX",75845,NA,NA,141,"PO BOX 1107, GROVETON, TX, 75845","No_Match",NA,NA,NA,NA
969642,"PO BOX 1107","KOLOA","HI",96756,NA,NA,142,"PO BOX 1107, KOLOA, HI, 96756","No_Match",NA,NA,NA,NA
969643,"PO BOX 1107","KOLOA","HI",96766,NA,NA,143,"PO BOX 1107, KOLOA, HI, 96766","No_Match",NA,NA,NA,NA
969644,"PO BOX 1107","POLSON","MT",59860,NA,NA,144,"PO BOX 1107, POLSON, MT, 59860","No_Match",NA,NA,NA,NA
969645,"PO BOX 1107","TROY","MT",59935,NA,NA,145,"PO BOX 1107, TROY, MT, 59935","No_Match",NA,NA,NA,NA
969646,"PO BOX 11073","BAKERSFIELD","CA",93389,NA,NA,146,"PO BOX 11073, BAKERSFIELD, CA, 93389","No_Match",NA,NA,NA,NA
969647,"PO BOX 1108","HAMILTON","OH",45012,NA,NA,147,"PO BOX 1108, HAMILTON, OH, 45012","No_Match",NA,NA,NA,NA
969648,"PO BOX 1108","IDYLLWILD","CA",92549,NA,NA,148,"PO BOX 1108, IDYLLWILD, CA, 92549","No_Match",NA,NA,NA,NA
969649,"PO BOX 1108","LAKE DALLAS","TX",75065,NA,NA,149,"PO BOX 1108, LAKE DALLAS, TX, 75065","No_Match",NA,NA,NA,NA
969650,"PO BOX 1108","VINELAND","NJ",8362,NA,NA,150,"PO BOX 1108, VINELAND, NJ, 8362","No_Match",NA,NA,NA,NA
969651,"PO BOX 1108","WILDER","VT",5088,NA,NA,151,"PO BOX 1108, WILDER, VT, 5088","No_Match",NA,NA,NA,NA
969652,"PO BOX 110813","ANCHORAGE","AK",99511,NA,NA,152,"PO BOX 110813, ANCHORAGE, AK, 99511","No_Match",NA,NA,NA,NA
969653,"PO BOX 110822","BIRMINGHAM","AL",35211,NA,NA,153,"PO BOX 110822, BIRMINGHAM, AL, 35211","No_Match",NA,NA,NA,NA
969654,"PO BOX 11084","FORT WORTH","TX",76110,NA,NA,154,"PO BOX 11084, FORT WORTH, TX, 76110","No_Match",NA,NA,NA,NA
969655,"PO BOX 11084","LEXINGTON","KY",40507,NA,NA,155,"PO BOX 11084, LEXINGTON, KY, 40507","No_Match",NA,NA,NA,NA
969656,"PO BOX 11085","BOZEMAN","MT",59719,NA,NA,156,"PO BOX 11085, BOZEMAN, MT, 59719","No_Match",NA,NA,NA,NA
969657,"PO BOX 11086","LOUISVILLE","KY",40251,NA,NA,157,"PO BOX 11086, LOUISVILLE, KY, 40251","No_Match",NA,NA,NA,NA
969658,"PO BOX 11087","NAPLES","FL",34101,NA,NA,158,"PO BOX 11087, NAPLES, FL, 34101","No_Match",NA,NA,NA,NA
969659,"PO BOX 110893","CAMPBELL","CA",95011,NA,NA,159,"PO BOX 110893, CAMPBELL, CA, 95011","No_Match",NA,NA,NA,NA
969660,"PO BOX 1109","GREENVILLE","ME",4441,NA,NA,160,"PO BOX 1109, GREENVILLE, ME, 4441","No_Match",NA,NA,NA,NA
969661,"PO BOX 1109","NEW LONDON","NH",3257,NA,NA,161,"PO BOX 1109, NEW LONDON, NH, 3257","No_Match",NA,NA,NA,NA
969662,"PO BOX 11093","MIDLAND","TX",79702,NA,NA,162,"PO BOX 11093, MIDLAND, TX, 79702","No_Match",NA,NA,NA,NA
969663,"PO BOX 11094","NEW ORLEANS","LA",70181,NA,NA,163,"PO BOX 11094, NEW ORLEANS, LA, 70181","No_Match",NA,NA,NA,NA
969664,"PO BOX 110962","ANCHORAGE","AK",99511,NA,NA,164,"PO BOX 110962, ANCHORAGE, AK, 99511","No_Match",NA,NA,NA,NA
969665,"PO BOX 110963","ANCHORAGE","AK",99511,NA,NA,165,"PO BOX 110963, ANCHORAGE, AK, 99511","No_Match",NA,NA,NA,NA
969666,"PO BOX 111 WYKAGLYL STATION","NEW  ROCHELLE","NY",10804,NA,NA,166,"PO BOX 111 WYKAGLYL STATION, NEW  ROCHELLE, NY, 10804","No_Match",NA,NA,NA,NA
969667,"PO BOX 111 WYKAGLYL STATION","NEW ROCHELLE","NY",10804,NA,NA,167,"PO BOX 111 WYKAGLYL STATION, NEW ROCHELLE, NY, 10804","No_Match",NA,NA,NA,NA
969668,"PO BOX 111","AURORA","NE",68818,NA,NA,168,"PO BOX 111, AURORA, NE, 68818","No_Match",NA,NA,NA,NA
969669,"PO BOX 111","BURLESON","TX",76097,NA,NA,169,"PO BOX 111, BURLESON, TX, 76097","No_Match",NA,NA,NA,NA
969670,"PO BOX 111","CASCADE LOCKS","OR",97014,NA,NA,170,"PO BOX 111, CASCADE LOCKS, OR, 97014","No_Match",NA,NA,NA,NA
969671,"PO BOX 111","CIRCLEVILLE","OH",43113,NA,NA,171,"PO BOX 111, CIRCLEVILLE, OH, 43113","No_Match",NA,NA,NA,NA
969672,"PO BOX 111","CLOSPLINT","KY",40927,NA,NA,172,"PO BOX 111, CLOSPLINT, KY, 40927","No_Match",NA,NA,NA,NA
969673,"PO BOX 111","DALE","IN",47523,NA,NA,173,"PO BOX 111, DALE, IN, 47523","No_Match",NA,NA,NA,NA
969674,"PO BOX 111","DARLINGTON","MD",21034,NA,NA,174,"PO BOX 111, DARLINGTON, MD, 21034","No_Match",NA,NA,NA,NA
969675,"PO BOX 111","DOWNS","IL",61736,NA,NA,175,"PO BOX 111, DOWNS, IL, 61736","No_Match",NA,NA,NA,NA
969676,"PO BOX 111","FAIRFIELD","WA",99012,NA,NA,176,"PO BOX 111, FAIRFIELD, WA, 99012","No_Match",NA,NA,NA,NA
969677,"PO BOX 111","FAYETTEVILLE","CA",28302,NA,NA,177,"PO BOX 111, FAYETTEVILLE, CA, 28302","No_Match",NA,NA,NA,NA
969678,"PO BOX 111","FAYETTEVILLE","NC",28032,NA,NA,178,"PO BOX 111, FAYETTEVILLE, NC, 28032","No_Match",NA,NA,NA,NA
969679,"PO BOX 111","FAYETTEVILLE","NC",28302,NA,NA,179,"PO BOX 111, FAYETTEVILLE, NC, 28302","No_Match",NA,NA,NA,NA
969680,"PO BOX 111","FLEISCHMANNS","NY",12430,NA,NA,180,"PO BOX 111, FLEISCHMANNS, NY, 12430","No_Match",NA,NA,NA,NA
969681,"PO BOX 111","JERSAY","GA",30018,NA,NA,181,"PO BOX 111, JERSAY, GA, 30018","No_Match",NA,NA,NA,NA
969682,"PO BOX 111","JESSUP","PA",18434,NA,NA,182,"PO BOX 111, JESSUP, PA, 18434","No_Match",NA,NA,NA,NA
969683,"PO BOX 111","KILA","MT",59920,NA,NA,183,"PO BOX 111, KILA, MT, 59920","No_Match",NA,NA,NA,NA
969684,"PO BOX 111","KIRKWOOD","CA",95646,NA,NA,184,"PO BOX 111, KIRKWOOD, CA, 95646","No_Match",NA,NA,NA,NA
969685,"PO BOX 111","MATAGORDA","TX",77457,NA,NA,185,"PO BOX 111, MATAGORDA, TX, 77457","No_Match",NA,NA,NA,NA
969686,"PO BOX 111","MINGO JUNCTION","OH",43938,NA,NA,186,"PO BOX 111, MINGO JUNCTION, OH, 43938","No_Match",NA,NA,NA,NA
969687,"PO BOX 111","MOFFETT FIELD","CA",94035,NA,NA,187,"PO BOX 111, MOFFETT FIELD, CA, 94035","No_Match",NA,NA,NA,NA
969688,"PO BOX 111","MUENSTER","TX",76252,NA,NA,188,"PO BOX 111, MUENSTER, TX, 76252","No_Match",NA,NA,NA,NA
969689,"PO BOX 111","NORTH ANDOVER","MA",1845,NA,NA,189,"PO BOX 111, NORTH ANDOVER, MA, 1845","No_Match",NA,NA,NA,NA
969690,"PO BOX 111","PERKINSVILLE","NY",14529,NA,NA,190,"PO BOX 111, PERKINSVILLE, NY, 14529","No_Match",NA,NA,NA,NA
969691,"PO BOX 111","RIDGELAND","WI",54763,NA,NA,191,"PO BOX 111, RIDGELAND, WI, 54763","No_Match",NA,NA,NA,NA
969692,"PO BOX 111","RUSH SPRINGS","OK",73082,NA,NA,192,"PO BOX 111, RUSH SPRINGS, OK, 73082","No_Match",NA,NA,NA,NA
969693,"PO BOX 111","SNOW SHOE","PA",16874,NA,NA,193,"PO BOX 111, SNOW SHOE, PA, 16874","No_Match",NA,NA,NA,NA
969694,"PO BOX 111","TUNKHANNOCK","PA",18657,NA,NA,194,"PO BOX 111, TUNKHANNOCK, PA, 18657","No_Match",NA,NA,NA,NA
969695,"PO BOX 111","WAREN","VT",5674,NA,NA,195,"PO BOX 111, WAREN, VT, 5674","No_Match",NA,NA,NA,NA
969696,"PO BOX 111","WAYLAND","KY",41666,NA,NA,196,"PO BOX 111, WAYLAND, KY, 41666","No_Match",NA,NA,NA,NA
969697,"PO BOX 111","WOODINVILLE","WA",98072,NA,NA,197,"PO BOX 111, WOODINVILLE, WA, 98072","No_Match",NA,NA,NA,NA
969698,"PO BOX 1110","PEARLAND","TX",77588,NA,NA,198,"PO BOX 1110, PEARLAND, TX, 77588","No_Match",NA,NA,NA,NA
969699,"PO BOX 1110","RED LODGE","MT",59068,NA,NA,199,"PO BOX 1110, RED LODGE, MT, 59068","No_Match",NA,NA,NA,NA
969700,"PO BOX 1110","RIMROCK","AZ",86335,NA,NA,200,"PO BOX 1110, RIMROCK, AZ, 86335","No_Match",NA,NA,NA,NA
969701,"PO BOX 1110","SCOBEY","MT",59263,NA,NA,201,"PO BOX 1110, SCOBEY, MT, 59263","No_Match",NA,NA,NA,NA
969702,"PO BOX 11106","MIAMI","FL",33101,NA,NA,202,"PO BOX 11106, MIAMI, FL, 33101","No_Match",NA,NA,NA,NA
969703,"PO BOX 1111","AMHERST","NY",14226,NA,NA,203,"PO BOX 1111, AMHERST, NY, 14226","No_Match",NA,NA,NA,NA
969704,"PO BOX 1111","COLUMBUS","OH",43216,NA,NA,204,"PO BOX 1111, COLUMBUS, OH, 43216","No_Match",NA,NA,NA,NA
969705,"PO BOX 1111","DALLAS","OR",97338,NA,NA,205,"PO BOX 1111, DALLAS, OR, 97338","No_Match",NA,NA,NA,NA
969706,"PO BOX 1111","EAGAR","AZ",85925,NA,NA,206,"PO BOX 1111, EAGAR, AZ, 85925","No_Match",NA,NA,NA,NA
969707,"PO BOX 1111","ERIE","CO",80516,NA,NA,207,"PO BOX 1111, ERIE, CO, 80516","No_Match",NA,NA,NA,NA
969708,"PO BOX 1111","EUREKA","MT",59917,NA,NA,208,"PO BOX 1111, EUREKA, MT, 59917","No_Match",NA,NA,NA,NA
969709,"PO BOX 1111","GEORGE WEST","TX",78022,NA,NA,209,"PO BOX 1111, GEORGE WEST, TX, 78022","No_Match",NA,NA,NA,NA
969710,"PO BOX 1111","INDIAN TRAIL","NC",28079,NA,NA,210,"PO BOX 1111, INDIAN TRAIL, NC, 28079","No_Match",NA,NA,NA,NA
969711,"PO BOX 1111","LIVINGSTON MANOR","NY",12758,NA,NA,211,"PO BOX 1111, LIVINGSTON MANOR, NY, 12758","No_Match",NA,NA,NA,NA
969712,"PO BOX 1111","SANTA BARBARA","CA",93102,NA,NA,212,"PO BOX 1111, SANTA BARBARA, CA, 93102","No_Match",NA,NA,NA,NA
969713,"PO BOX 11115","OLYMPIA","WA",98508,NA,NA,213,"PO BOX 11115, OLYMPIA, WA, 98508","No_Match",NA,NA,NA,NA
969714,"PO BOX 11115","TAKOMA PARK","MD",20913,NA,NA,214,"PO BOX 11115, TAKOMA PARK, MD, 20913","No_Match",NA,NA,NA,NA
969715,"PO BOX 11116","WASHINGTON","DC",20008,NA,NA,215,"PO BOX 11116, WASHINGTON, DC, 20008","No_Match",NA,NA,NA,NA
969716,"PO BOX 1112","BROKEN ARROW","OK",74013,NA,NA,216,"PO BOX 1112, BROKEN ARROW, OK, 74013","No_Match",NA,NA,NA,NA
969717,"PO BOX 1112","GARDENA","CA",90249,NA,NA,217,"PO BOX 1112, GARDENA, CA, 90249","No_Match",NA,NA,NA,NA
969718,"PO BOX 1112","GEORGETOWN","KY",40324,NA,NA,218,"PO BOX 1112, GEORGETOWN, KY, 40324","No_Match",NA,NA,NA,NA
969719,"PO BOX 1112","HAWKINSVILLE","GA",31036,NA,NA,219,"PO BOX 1112, HAWKINSVILLE, GA, 31036","No_Match",NA,NA,NA,NA
969720,"PO BOX 1112","KILAUEA","HI",96754,NA,NA,220,"PO BOX 1112, KILAUEA, HI, 96754","No_Match",NA,NA,NA,NA
969721,"PO BOX 1112","LINDEN","CA",95236,NA,NA,221,"PO BOX 1112, LINDEN, CA, 95236","No_Match",NA,NA,NA,NA
969722,"PO BOX 1112","MARTINSVILLE","VA",24114,NA,NA,222,"PO BOX 1112, MARTINSVILLE, VA, 24114","No_Match",NA,NA,NA,NA
969723,"PO BOX 1112","OMAK","WA",98841,NA,NA,223,"PO BOX 1112, OMAK, WA, 98841","No_Match",NA,NA,NA,NA
969724,"PO BOX 1112","PARIS","TX",75461,NA,NA,224,"PO BOX 1112, PARIS, TX, 75461","No_Match",NA,NA,NA,NA
969725,"PO BOX 1112","ROBBINS","NC",27325,NA,NA,225,"PO BOX 1112, ROBBINS, NC, 27325","No_Match",NA,NA,NA,NA
969726,"PO BOX 1112","SAN LEANDRO","CA",94577,NA,NA,226,"PO BOX 1112, SAN LEANDRO, CA, 94577","No_Match",NA,NA,NA,NA
969727,"PO Box 1112","Spring Valley","NY",10977,NA,NA,227,"PO Box 1112, Spring Valley, NY, 10977","No_Match",NA,NA,NA,NA
969728,"PO BOX 1112","STANFIELD","OR",97875,NA,NA,228,"PO BOX 1112, STANFIELD, OR, 97875","No_Match",NA,NA,NA,NA
969729,"PO BOX 11121","KILLEEN","TX",76522,NA,NA,229,"PO BOX 11121, KILLEEN, TX, 76522","No_Match",NA,NA,NA,NA
969730,"PO BOX 11121","KILLEEN","TX",76542,NA,NA,230,"PO BOX 11121, KILLEEN, TX, 76542","No_Match",NA,NA,NA,NA
969731,"PO BOX 11124","ERIE","PA",16514,NA,NA,231,"PO BOX 11124, ERIE, PA, 16514","No_Match",NA,NA,NA,NA
969732,"PO BOX 11124","JACKSON","WY",83002,NA,NA,232,"PO BOX 11124, JACKSON, WY, 83002","No_Match",NA,NA,NA,NA
969733,"PO BOX 111265","ANCHORAGE","AK",99511,NA,NA,233,"PO BOX 111265, ANCHORAGE, AK, 99511","No_Match",NA,NA,NA,NA
969734,"PO BOX 111274","MEMPHIS","TN",38111,NA,NA,234,"PO BOX 111274, MEMPHIS, TN, 38111","No_Match",NA,NA,NA,NA
969735,"PO BOX 1113","CHALLIS","ID",83226,NA,NA,235,"PO BOX 1113, CHALLIS, ID, 83226","No_Match",NA,NA,NA,NA
969736,"PO BOX 1113","GUAYAMA","PR",785,NA,NA,236,"PO BOX 1113, GUAYAMA, PR, 785","No_Match",NA,NA,NA,NA
969737,"PO BOX 1113","QUESTA","NM",87556,NA,NA,237,"PO BOX 1113, QUESTA, NM, 87556","No_Match",NA,NA,NA,NA
969738,"PO BOX 1113","ROCKSPRINGS","TX",78880,NA,NA,238,"PO BOX 1113, ROCKSPRINGS, TX, 78880","No_Match",NA,NA,NA,NA
969739,"PO BOX 1113","SAN GABRIEL","CA",91778,NA,NA,239,"PO BOX 1113, SAN GABRIEL, CA, 91778","No_Match",NA,NA,NA,NA
969740,"PO BOX 1113","SOCIAL CIRCLE","GA",30025,NA,NA,240,"PO BOX 1113, SOCIAL CIRCLE, GA, 30025","No_Match",NA,NA,NA,NA
969741,"PO BOX 1113","STILLWATER","OK",74076,NA,NA,241,"PO BOX 1113, STILLWATER, OK, 74076","No_Match",NA,NA,NA,NA
969742,"PO BOX 11131","CHARLESTON","WV",25339,NA,NA,242,"PO BOX 11131, CHARLESTON, WV, 25339","No_Match",NA,NA,NA,NA
969743,"PO BOX 11131","EUGENE","OR",97440,NA,NA,243,"PO BOX 11131, EUGENE, OR, 97440","No_Match",NA,NA,NA,NA
969744,"PO BOX 11133","FORT SMITH","AR",72917,NA,NA,244,"PO BOX 11133, FORT SMITH, AR, 72917","No_Match",NA,NA,NA,NA
969745,"PO BOX 111342","CARROLLTON","TX",75011,NA,NA,245,"PO BOX 111342, CARROLLTON, TX, 75011","No_Match",NA,NA,NA,NA
969746,"PO BOX 11136","JACKSONVILLE","FL",32239,NA,NA,246,"PO BOX 11136, JACKSONVILLE, FL, 32239","No_Match",NA,NA,NA,NA
969747,"PO BOX 111365","TACOMA","WA",98411,NA,NA,247,"PO BOX 111365, TACOMA, WA, 98411","No_Match",NA,NA,NA,NA
969748,"PO BOX 1114","BAIRD","TX",79504,NA,NA,248,"PO BOX 1114, BAIRD, TX, 79504","No_Match",NA,NA,NA,NA
969749,"PO BOX 1114","BRANDON","FL",33509,NA,NA,249,"PO BOX 1114, BRANDON, FL, 33509","No_Match",NA,NA,NA,NA
969750,"PO BOX 1114","CALIFORNIA","MO",65018,NA,NA,250,"PO BOX 1114, CALIFORNIA, MO, 65018","No_Match",NA,NA,NA,NA
969751,"PO BOX 1114","LA VETA","CO",81055,NA,NA,251,"PO BOX 1114, LA VETA, CO, 81055","No_Match",NA,NA,NA,NA
969752,"PO BOX 1114","MONTICELLO","NY",12701,NA,NA,252,"PO BOX 1114, MONTICELLO, NY, 12701","No_Match",NA,NA,NA,NA
969753,"PO BOX 1114","SKOWHEGAN","ME",4976,NA,NA,253,"PO BOX 1114, SKOWHEGAN, ME, 4976","No_Match",NA,NA,NA,NA
969754,"PO BOX 1114","SUNSET BEACH","CA",90742,NA,NA,254,"PO BOX 1114, SUNSET BEACH, CA, 90742","No_Match",NA,NA,NA,NA
969755,"PO BOX 1114","VAIL","CO",81658,NA,NA,255,"PO BOX 1114, VAIL, CO, 81658","No_Match",NA,NA,NA,NA
969756,"PO BOX 1114","VANSANT","VA",24656,NA,NA,256,"PO BOX 1114, VANSANT, VA, 24656","No_Match",NA,NA,NA,NA
969757,"PO BOX 1114","WILLOW","AK",99688,NA,NA,257,"PO BOX 1114, WILLOW, AK, 99688","No_Match",NA,NA,NA,NA
969758,"PO BOX 111441","HOUSTON","TX",77293,NA,NA,258,"PO BOX 111441, HOUSTON, TX, 77293","No_Match",NA,NA,NA,NA
969759,"PO BOX 11145","SPRING","TX",77391,NA,NA,259,"PO BOX 11145, SPRING, TX, 77391","No_Match",NA,NA,NA,NA
969760,"PO BOX 111454","ANCHORAGE","AK",99511,NA,NA,260,"PO BOX 111454, ANCHORAGE, AK, 99511","No_Match",NA,NA,NA,NA
969761,"PO BOX 111483","PALM BAY","FL",32911,NA,NA,261,"PO BOX 111483, PALM BAY, FL, 32911","No_Match",NA,NA,NA,NA
969762,"PO BOX 1115","DRAPER","UT",84020,NA,NA,262,"PO BOX 1115, DRAPER, UT, 84020","No_Match",NA,NA,NA,NA
969763,"PO BOX 1115","ELMA","WA",98541,NA,NA,263,"PO BOX 1115, ELMA, WA, 98541","No_Match",NA,NA,NA,NA
969764,"PO BOX 1115","MAGDALENA","NM",87825,NA,NA,264,"PO BOX 1115, MAGDALENA, NM, 87825","No_Match",NA,NA,NA,NA
969765,"PO BOX 1115","PAROWAN","UT",84761,NA,NA,265,"PO BOX 1115, PAROWAN, UT, 84761","No_Match",NA,NA,NA,NA
969766,"PO BOX 1115","WEST YELLOWSTONE","MT",59758,NA,NA,266,"PO BOX 1115, WEST YELLOWSTONE, MT, 59758","No_Match",NA,NA,NA,NA
969767,"PO BOX 1115","ZEBULON","GA",30295,NA,NA,267,"PO BOX 1115, ZEBULON, GA, 30295","No_Match",NA,NA,NA,NA
969768,"PO BOX 11153","TRUCKEE","CA",96162,NA,NA,268,"PO BOX 11153, TRUCKEE, CA, 96162","No_Match",NA,NA,NA,NA
969769,"PO BOX 111545","MEMPHIS","TN",38111,NA,NA,269,"PO BOX 111545, MEMPHIS, TN, 38111","No_Match",NA,NA,NA,NA
969770,"PO BOX 1116","BIG TIMBER","MT",59011,NA,NA,270,"PO BOX 1116, BIG TIMBER, MT, 59011","No_Match",NA,NA,NA,NA
969771,"PO BOX 1116","ELLIJAY","GA",30540,NA,NA,271,"PO BOX 1116, ELLIJAY, GA, 30540","No_Match",NA,NA,NA,NA
969772,"PO BOX 1116","FOLSOM","LA",70437,NA,NA,272,"PO BOX 1116, FOLSOM, LA, 70437","No_Match",NA,NA,NA,NA
969773,"PO BOX 1116","KLAMATH FALLS","OR",97601,NA,NA,273,"PO BOX 1116, KLAMATH FALLS, OR, 97601","No_Match",NA,NA,NA,NA
969774,"PO BOX 1116","NEW TOWN","ND",58763,NA,NA,274,"PO BOX 1116, NEW TOWN, ND, 58763","No_Match",NA,NA,NA,NA
969775,"PO BOX 1116","WOODSTON","KS",67675,NA,NA,275,"PO BOX 1116, WOODSTON, KS, 67675","No_Match",NA,NA,NA,NA
969776,"PO BOX 11161","HONOLULU","HI",96828,NA,NA,276,"PO BOX 11161, HONOLULU, HI, 96828","No_Match",NA,NA,NA,NA
969777,"PO BOX 11162","ATLANTA","GA",30310,NA,NA,277,"PO BOX 11162, ATLANTA, GA, 30310","No_Match",NA,NA,NA,NA
969778,"PO BOX 11162","BAINBRIDGE ISLAND","WA",98110,NA,NA,278,"PO BOX 11162, BAINBRIDGE ISLAND, WA, 98110","No_Match",NA,NA,NA,NA
969779,"PO BOX 111624","MEMPHIS","TN",38111,NA,NA,279,"PO BOX 111624, MEMPHIS, TN, 38111","No_Match",NA,NA,NA,NA
969780,"PO BOX 111651","NASHVILLE","TN",37222,NA,NA,280,"PO BOX 111651, NASHVILLE, TN, 37222","No_Match",NA,NA,NA,NA
969781,"PO BOX 111684","ANCHORAGE","AK",99515,NA,NA,281,"PO BOX 111684, ANCHORAGE, AK, 99515","No_Match",NA,NA,NA,NA
969782,"PO BOX 1117","EL GRANADA","CA",94018,NA,NA,282,"PO BOX 1117, EL GRANADA, CA, 94018","No_Match",NA,NA,NA,NA
969783,"PO BOX 1117","ELKHORN CITY","KY",41522,NA,NA,283,"PO BOX 1117, ELKHORN CITY, KY, 41522","No_Match",NA,NA,NA,NA
969784,"PO BOX 1117","LABELLE","FL",33975,NA,NA,284,"PO BOX 1117, LABELLE, FL, 33975","No_Match",NA,NA,NA,NA
969785,"PO BOX 1117","SPARKS GLENCOE","MD",21152,NA,NA,285,"PO BOX 1117, SPARKS GLENCOE, MD, 21152","No_Match",NA,NA,NA,NA
969786,"PO BOX 11171","SANTA ANA","CA",92711,NA,NA,286,"PO BOX 11171, SANTA ANA, CA, 92711","No_Match",NA,NA,NA,NA
969787,"PO BOX 11171","SPRING HILL","FL",34610,NA,NA,287,"PO BOX 11171, SPRING HILL, FL, 34610","No_Match",NA,NA,NA,NA
969788,"PO BOX 11173","LOS ANGELES","CA",90295,NA,NA,288,"PO BOX 11173, LOS ANGELES, CA, 90295","No_Match",NA,NA,NA,NA
969789,"PO BOX 11173","WINSTON SALEM","NC",27116,NA,NA,289,"PO BOX 11173, WINSTON SALEM, NC, 27116","No_Match",NA,NA,NA,NA
969790,"PO BOX 111744","CARROLLTON","TX",75011,NA,NA,290,"PO BOX 111744, CARROLLTON, TX, 75011","No_Match",NA,NA,NA,NA
969791,"PO BOX 111775","HOUSTON","TX",77293,NA,NA,291,"PO BOX 111775, HOUSTON, TX, 77293","No_Match",NA,NA,NA,NA
969792,"PO BOX 111778","CAMPBELL","CA",95011,NA,NA,292,"PO BOX 111778, CAMPBELL, CA, 95011","No_Match",NA,NA,NA,NA
969793,"PO BOX 1118","CHESTERFIELD","VA",23231,NA,NA,293,"PO BOX 1118, CHESTERFIELD, VA, 23231","No_Match",NA,NA,NA,NA
969794,"PO BOX 1118","OCALA","FL",34478,NA,NA,294,"PO BOX 1118, OCALA, FL, 34478","No_Match",NA,NA,NA,NA
969795,"PO BOX 1118","SAN LEANDRO","CA",94577,NA,NA,295,"PO BOX 1118, SAN LEANDRO, CA, 94577","No_Match",NA,NA,NA,NA
969796,"PO BOX 1118","SAVANNAH","TN",38372,NA,NA,296,"PO BOX 1118, SAVANNAH, TN, 38372","No_Match",NA,NA,NA,NA
969797,"PO BOX 1118/680 POPPY WAY","BROOMFIELD","CO",80038,NA,NA,297,"PO BOX 1118/680 POPPY WAY, BROOMFIELD, CO, 80038","No_Match",NA,NA,NA,NA
969798,"PO BOX 111822","CAMPBELL","CA",95011,NA,NA,298,"PO BOX 111822, CAMPBELL, CA, 95011","No_Match",NA,NA,NA,NA
969799,"PO BOX 111835","NAPLES","FL",34108,NA,NA,299,"PO BOX 111835, NAPLES, FL, 34108","No_Match",NA,NA,NA,NA
969800,"PO BOX 11187","WASHINGTON","DC",20008,NA,NA,300,"PO BOX 11187, WASHINGTON, DC, 20008","No_Match",NA,NA,NA,NA
969801,"PO BOX 1119","EDGEWOOD","NM",87015,NA,NA,301,"PO BOX 1119, EDGEWOOD, NM, 87015","No_Match",NA,NA,NA,NA
969802,"PO BOX 1119","GLOUCESTER","VA",23061,NA,NA,302,"PO BOX 1119, GLOUCESTER, VA, 23061","No_Match",NA,NA,NA,NA
969803,"PO BOX 1119","HANCEVILLE","AL",35077,NA,NA,303,"PO BOX 1119, HANCEVILLE, AL, 35077","No_Match",NA,NA,NA,NA
969804,"PO BOX 11192","CARSON","CA",90749,NA,NA,304,"PO BOX 11192, CARSON, CA, 90749","No_Match",NA,NA,NA,NA
969805,"PO BOX 111923","CARROLLTON","TX",75011,NA,NA,305,"PO BOX 111923, CARROLLTON, TX, 75011","No_Match",NA,NA,NA,NA
969806,"PO BOX 11199","OAKLAND","CA",94611,NA,NA,306,"PO BOX 11199, OAKLAND, CA, 94611","No_Match",NA,NA,NA,NA
969807,"PO BOX 112","ALEXANDER","AR",72002,NA,NA,307,"PO BOX 112, ALEXANDER, AR, 72002","No_Match",NA,NA,NA,NA
969808,"PO BOX 112","ATWATER","MN",56209,NA,NA,308,"PO BOX 112, ATWATER, MN, 56209","No_Match",NA,NA,NA,NA
969809,"PO BOX 112","BAXTER","TN",38544,NA,NA,309,"PO BOX 112, BAXTER, TN, 38544","No_Match",NA,NA,NA,NA
969810,"PO BOX 112","BLUE RIVER","OR",97413,NA,NA,310,"PO BOX 112, BLUE RIVER, OR, 97413","No_Match",NA,NA,NA,NA
969811,"PO BOX 112","BRADFORD","NH",3221,NA,NA,311,"PO BOX 112, BRADFORD, NH, 3221","No_Match",NA,NA,NA,NA
969812,"PO BOX 112","BRUCE","MS",38915,NA,NA,312,"PO BOX 112, BRUCE, MS, 38915","No_Match",NA,NA,NA,NA
969813,"PO BOX 112","CATAULA","GA",31804,NA,NA,313,"PO BOX 112, CATAULA, GA, 31804","No_Match",NA,NA,NA,NA
969814,"PO BOX 112","CHRISTINE","TX",78012,NA,NA,314,"PO BOX 112, CHRISTINE, TX, 78012","No_Match",NA,NA,NA,NA
969815,"PO BOX 112","CONWAY","NC",27820,NA,NA,315,"PO BOX 112, CONWAY, NC, 27820","No_Match",NA,NA,NA,NA
969816,"PO BOX 112","DRAKESBORO","KY",42332,NA,NA,316,"PO BOX 112, DRAKESBORO, KY, 42332","No_Match",NA,NA,NA,NA
969817,"PO BOX 112","FRIENDSVILLE","MD",21531,NA,NA,317,"PO BOX 112, FRIENDSVILLE, MD, 21531","No_Match",NA,NA,NA,NA
969818,"PO BOX 112","GATES","NC",27937,NA,NA,318,"PO BOX 112, GATES, NC, 27937","No_Match",NA,NA,NA,NA
969819,"PO BOX 112","HAMILTON","MT",59840,NA,NA,319,"PO BOX 112, HAMILTON, MT, 59840","No_Match",NA,NA,NA,NA
969820,"PO BOX 112","HUTCHINSON","MN",55350,NA,NA,320,"PO BOX 112, HUTCHINSON, MN, 55350","No_Match",NA,NA,NA,NA
969821,"PO BOX 112","KIMBALL","SD",57355,NA,NA,321,"PO BOX 112, KIMBALL, SD, 57355","No_Match",NA,NA,NA,NA
969822,"PO BOX 112","LOMA","MT",59460,NA,NA,322,"PO BOX 112, LOMA, MT, 59460","No_Match",NA,NA,NA,NA
969823,"PO BOX 112","OAKESDALE","WA",99158,NA,NA,323,"PO BOX 112, OAKESDALE, WA, 99158","No_Match",NA,NA,NA,NA
969824,"PO BOX 112","ONIDA","SD",57564,NA,NA,324,"PO BOX 112, ONIDA, SD, 57564","No_Match",NA,NA,NA,NA
969825,"PO BOX 112","PAYNESVILLE","MN",56362,NA,NA,325,"PO BOX 112, PAYNESVILLE, MN, 56362","No_Match",NA,NA,NA,NA
969826,"PO BOX 112","SEAL HARBOR","ME",4675,NA,NA,326,"PO BOX 112, SEAL HARBOR, ME, 4675","No_Match",NA,NA,NA,NA
969827,"PO BOX 112","SISSETON","SD",57262,NA,NA,327,"PO BOX 112, SISSETON, SD, 57262","No_Match",NA,NA,NA,NA
969828,"PO BOX 112","SOUTH HERO","VT",5486,NA,NA,328,"PO BOX 112, SOUTH HERO, VT, 5486","No_Match",NA,NA,NA,NA
969829,"PO BOX 112","WACO","KY",40385,NA,NA,329,"PO BOX 112, WACO, KY, 40385","No_Match",NA,NA,NA,NA
969830,"PO BOX 112","WEST SACRAMENTO","CA",95691,NA,NA,330,"PO BOX 112, WEST SACRAMENTO, CA, 95691","No_Match",NA,NA,NA,NA
969831,"PO BOX 1120","BAY SPRINGS","MD",39422,NA,NA,331,"PO BOX 1120, BAY SPRINGS, MD, 39422","No_Match",NA,NA,NA,NA
969832,"PO BOX 1120","BROOMFIELD","CO",80038,NA,NA,332,"PO BOX 1120, BROOMFIELD, CO, 80038","No_Match",NA,NA,NA,NA
969833,"PO BOX 1120","GLENWOOD SPRINGS","CO",81602,NA,NA,333,"PO BOX 1120, GLENWOOD SPRINGS, CO, 81602","No_Match",NA,NA,NA,NA
969834,"PO BOX 1120","SUNRAY","TX",79086,NA,NA,334,"PO BOX 1120, SUNRAY, TX, 79086","No_Match",NA,NA,NA,NA
969835,"PO BOX 1120","WEAVERVILLE","CA",96093,NA,NA,335,"PO BOX 1120, WEAVERVILLE, CA, 96093","No_Match",NA,NA,NA,NA
969836,"PO BOX 112018","TACOMA","WA",98411,NA,NA,336,"PO BOX 112018, TACOMA, WA, 98411","No_Match",NA,NA,NA,NA
969837,"PO BOX 11202","DURHAM","NC",27703,NA,NA,337,"PO BOX 11202, DURHAM, NC, 27703","No_Match",NA,NA,NA,NA
969838,"PO BOX 112057","HOUSTON","TX",77293,NA,NA,338,"PO BOX 112057, HOUSTON, TX, 77293","No_Match",NA,NA,NA,NA
969839,"PO BOX 11206","ERIE","PA",16514,NA,NA,339,"PO BOX 11206, ERIE, PA, 16514","No_Match",NA,NA,NA,NA
969840,"PO BOX 11207","DANVILLE","VA",24543,NA,NA,340,"PO BOX 11207, DANVILLE, VA, 24543","No_Match",NA,NA,NA,NA
969841,"PO BOX 112078","TACOMA","WA",98411,NA,NA,341,"PO BOX 112078, TACOMA, WA, 98411","No_Match",NA,NA,NA,NA
969842,"PO BOX 11208","CASA GRANDE","AZ",85130,NA,NA,342,"PO BOX 11208, CASA GRANDE, AZ, 85130","No_Match",NA,NA,NA,NA
969843,"PO BOX 11208","JACKSON","WY",83002,NA,NA,343,"PO BOX 11208, JACKSON, WY, 83002","No_Match",NA,NA,NA,NA
969844,"PO BOX 1121","BOWIE","TX",76230,NA,NA,344,"PO BOX 1121, BOWIE, TX, 76230","No_Match",NA,NA,NA,NA
969845,"PO BOX 1121","CAIRO","NY",12413,NA,NA,345,"PO BOX 1121, CAIRO, NY, 12413","No_Match",NA,NA,NA,NA
969846,"PO BOX 1121","COLTON","CA",92324,NA,NA,346,"PO BOX 1121, COLTON, CA, 92324","No_Match",NA,NA,NA,NA
969847,"PO BOX 1121","LYONS","CO",80540,NA,NA,347,"PO BOX 1121, LYONS, CO, 80540","No_Match",NA,NA,NA,NA
969848,"PO BOX 1121","MAMMOTH LAKES","CA",93546,NA,NA,348,"PO BOX 1121, MAMMOTH LAKES, CA, 93546","No_Match",NA,NA,NA,NA
969849,"PO BOX 1121","ROXBORO","NC",27573,NA,NA,349,"PO BOX 1121, ROXBORO, NC, 27573","No_Match",NA,NA,NA,NA
969850,"PO BOX 1121","SALEM","MO",65560,NA,NA,350,"PO BOX 1121, SALEM, MO, 65560","No_Match",NA,NA,NA,NA
969851,"PO BOX 1121","SITKA","AK",99835,NA,NA,351,"PO BOX 1121, SITKA, AK, 99835","No_Match",NA,NA,NA,NA
969852,"PO BOX 1121","STERLING","CO",80751,NA,NA,352,"PO BOX 1121, STERLING, CO, 80751","No_Match",NA,NA,NA,NA
969853,"PO BOX 11212","BOZEMAN","MT",59719,NA,NA,353,"PO BOX 11212, BOZEMAN, MT, 59719","No_Match",NA,NA,NA,NA
969854,"PO BOX 11212","MILWAUKEE","WI",53211,NA,NA,354,"PO BOX 11212, MILWAUKEE, WI, 53211","No_Match",NA,NA,NA,NA
969855,"PO BOX 11214","PENSACOLA","FL",32524,NA,NA,355,"PO BOX 11214, PENSACOLA, FL, 32524","No_Match",NA,NA,NA,NA
969856,"PO BOX 11216","DAYTONA BEACH","FL",32120,NA,NA,356,"PO BOX 11216, DAYTONA BEACH, FL, 32120","No_Match",NA,NA,NA,NA
969857,"PO BOX 112196","TACOMA","WA",98411,NA,NA,357,"PO BOX 112196, TACOMA, WA, 98411","No_Match",NA,NA,NA,NA
969858,"PO BOX 1122","BONNERS FERRY","ID",83805,NA,NA,358,"PO BOX 1122, BONNERS FERRY, ID, 83805","No_Match",NA,NA,NA,NA
969859,"PO BOX 1122","ELVERTA","CA",95626,NA,NA,359,"PO BOX 1122, ELVERTA, CA, 95626","No_Match",NA,NA,NA,NA
969860,"PO BOX 1122","OLMITO","TX",78575,NA,NA,360,"PO BOX 1122, OLMITO, TX, 78575","No_Match",NA,NA,NA,NA
969861,"PO BOX 1122","RUIDOSO","NM",88355,NA,NA,361,"PO BOX 1122, RUIDOSO, NM, 88355","No_Match",NA,NA,NA,NA
969862,"PO BOX 11220","HOUSTON","TX",77293,NA,NA,362,"PO BOX 11220, HOUSTON, TX, 77293","No_Match",NA,NA,NA,NA
969863,"PO BOX 112220","CARROLLTON","TX",75011,NA,NA,363,"PO BOX 112220, CARROLLTON, TX, 75011","No_Match",NA,NA,NA,NA
969864,"PO BOX 1123","ATHENS","WV",24712,NA,NA,364,"PO BOX 1123, ATHENS, WV, 24712","No_Match",NA,NA,NA,NA
969865,"PO BOX 1123","BETHEL","NC",27812,NA,NA,365,"PO BOX 1123, BETHEL, NC, 27812","No_Match",NA,NA,NA,NA
969866,"PO BOX 1123","CALISTOGA","CA",94515,NA,NA,366,"PO BOX 1123, CALISTOGA, CA, 94515","No_Match",NA,NA,NA,NA
969867,"PO BOX 1123","ELVERTA","CA",95626,NA,NA,367,"PO BOX 1123, ELVERTA, CA, 95626","No_Match",NA,NA,NA,NA
969868,"PO BOX 1123","FOREST PARK","GA",30298,NA,NA,368,"PO BOX 1123, FOREST PARK, GA, 30298","No_Match",NA,NA,NA,NA
969869,"PO BOX 1123","FULSHEAR","TX",77441,NA,NA,369,"PO BOX 1123, FULSHEAR, TX, 77441","No_Match",NA,NA,NA,NA
969870,"PO BOX 1123","MEREDITH","NH",3253,NA,NA,370,"PO BOX 1123, MEREDITH, NH, 3253","No_Match",NA,NA,NA,NA
969871,"PO BOX 1123","PITTSFIELD","MA",1201,NA,NA,371,"PO BOX 1123, PITTSFIELD, MA, 1201","No_Match",NA,NA,NA,NA
969872,"PO BOX 1123","RAINIER","WA",98576,NA,NA,372,"PO BOX 1123, RAINIER, WA, 98576","No_Match",NA,NA,NA,NA
969873,"PO BOX 11231","JACKSON","WY",83002,NA,NA,373,"PO BOX 11231, JACKSON, WY, 83002","No_Match",NA,NA,NA,NA
969874,"PO BOX 11234","MINNEAPOLIS","MN",55411,NA,NA,374,"PO BOX 11234, MINNEAPOLIS, MN, 55411","No_Match",NA,NA,NA,NA
969875,"PO BOX 11235","TRUCKEE","CA",96162,NA,NA,375,"PO BOX 11235, TRUCKEE, CA, 96162","No_Match",NA,NA,NA,NA
969876,"PO BOX 11239","YAKIMA","WA",98909,NA,NA,376,"PO BOX 11239, YAKIMA, WA, 98909","No_Match",NA,NA,NA,NA
969877,"PO BOX 1124","AIKEN","SC",29802,NA,NA,377,"PO BOX 1124, AIKEN, SC, 29802","No_Match",NA,NA,NA,NA
969878,"PO BOX 1124","FRANKFORT","MI",49635,NA,NA,378,"PO BOX 1124, FRANKFORT, MI, 49635","No_Match",NA,NA,NA,NA
969879,"PO BOX 1124","GRAYSON","GA",30017,NA,NA,379,"PO BOX 1124, GRAYSON, GA, 30017","No_Match",NA,NA,NA,NA
969880,"PO BOX 1124","JUNCTION CITY","KS",66441,NA,NA,380,"PO BOX 1124, JUNCTION CITY, KS, 66441","No_Match",NA,NA,NA,NA
969881,"PO BOX 1124","SCOBEY","MT",59263,NA,NA,381,"PO BOX 1124, SCOBEY, MT, 59263","No_Match",NA,NA,NA,NA
969882,"PO BOX 112408","NAPLES","FL",34108,NA,NA,382,"PO BOX 112408, NAPLES, FL, 34108","No_Match",NA,NA,NA,NA
969883,"PO BOX 11241","SPRING HILL","FL",34610,NA,NA,383,"PO BOX 11241, SPRING HILL, FL, 34610","No_Match",NA,NA,NA,NA
969884,"PO BOX 11242","SANTA ROSA","CA",98506,NA,NA,384,"PO BOX 11242, SANTA ROSA, CA, 98506","No_Match",NA,NA,NA,NA
969885,"PO BOX 11244","HILO","HI",96720,NA,NA,385,"PO BOX 11244, HILO, HI, 96720","No_Match",NA,NA,NA,NA
969886,"PO BOX 1125","COEBURN","VA",24230,NA,NA,386,"PO BOX 1125, COEBURN, VA, 24230","No_Match",NA,NA,NA,NA
969887,"PO BOX 1125","CORTARO","AZ",85652,NA,NA,387,"PO BOX 1125, CORTARO, AZ, 85652","No_Match",NA,NA,NA,NA
969888,"PO BOX 1125","FOREST GROVE","OR",97116,NA,NA,388,"PO BOX 1125, FOREST GROVE, OR, 97116","No_Match",NA,NA,NA,NA
969889,"PO BOX 1125","JACKSONVILLE","OR",97530,NA,NA,389,"PO BOX 1125, JACKSONVILLE, OR, 97530","No_Match",NA,NA,NA,NA
969890,"PO BOX 1125","KAMAS","UT",84036,NA,NA,390,"PO BOX 1125, KAMAS, UT, 84036","No_Match",NA,NA,NA,NA
969891,"PO BOX 1125","OXFORD","GA",30054,NA,NA,391,"PO BOX 1125, OXFORD, GA, 30054","No_Match",NA,NA,NA,NA
969892,"PO BOX 1125","WOODINVILLE","WA",98072,NA,NA,392,"PO BOX 1125, WOODINVILLE, WA, 98072","No_Match",NA,NA,NA,NA
969893,"PO BOX 1125","YERMO","CA",92398,NA,NA,393,"PO BOX 1125, YERMO, CA, 92398","No_Match",NA,NA,NA,NA
969894,"PO BOX 11254","TALLAHASSEE","FL",32302,NA,NA,394,"PO BOX 11254, TALLAHASSEE, FL, 32302","No_Match",NA,NA,NA,NA
969895,"PO BOX 112541","ANCHORAGE","AK",99511,NA,NA,395,"PO BOX 112541, ANCHORAGE, AK, 99511","No_Match",NA,NA,NA,NA
969896,"PO BOX 11256","OAKLAND","CA",94611,NA,NA,396,"PO BOX 11256, OAKLAND, CA, 94611","No_Match",NA,NA,NA,NA
969897,"PO BOX 1126","AMAGANSETT","NY",11930,NA,NA,397,"PO BOX 1126, AMAGANSETT, NY, 11930","No_Match",NA,NA,NA,NA
969898,"PO BOX 1126","CHARLOTTESVILLE","VA",22902,NA,NA,398,"PO BOX 1126, CHARLOTTESVILLE, VA, 22902","No_Match",NA,NA,NA,NA
969899,"PO BOX 1126","NEW LONDON","NH",3257,NA,NA,399,"PO BOX 1126, NEW LONDON, NH, 3257","No_Match",NA,NA,NA,NA
969900,"PO BOX 1126","SAN ANDREAS","CA",95249,NA,NA,400,"PO BOX 1126, SAN ANDREAS, CA, 95249","No_Match",NA,NA,NA,NA
969901,"PO BOX 112645","ANCHORAGE","AK",99511,NA,NA,401,"PO BOX 112645, ANCHORAGE, AK, 99511","No_Match",NA,NA,NA,NA
969902,"PO BOX 11266","PORTLAND","ME",4104,NA,NA,402,"PO BOX 11266, PORTLAND, ME, 4104","No_Match",NA,NA,NA,NA
969903,"PO BOX 1127","CHATHAM","VA",24531,NA,NA,403,"PO BOX 1127, CHATHAM, VA, 24531","No_Match",NA,NA,NA,NA
969904,"PO BOX 1127","EATONTOWN","NJ",7724,NA,NA,404,"PO BOX 1127, EATONTOWN, NJ, 7724","No_Match",NA,NA,NA,NA
969905,"PO BOX 1127","NEW YORK","NY",10009,NA,NA,405,"PO BOX 1127, NEW YORK, NY, 10009","No_Match",NA,NA,NA,NA
969906,"PO BOX 11277","SPRING","TX",77391,NA,NA,406,"PO BOX 11277, SPRING, TX, 77391","No_Match",NA,NA,NA,NA
969907,"PO BOX 1128","ANDREWS","TX",79714,NA,NA,407,"PO BOX 1128, ANDREWS, TX, 79714","No_Match",NA,NA,NA,NA
969908,"PO BOX 1128","ASHBURN","VA",20146,NA,NA,408,"PO BOX 1128, ASHBURN, VA, 20146","No_Match",NA,NA,NA,NA
969909,"PO BOX 1128","COSMOPOLIS","WA",98537,NA,NA,409,"PO BOX 1128, COSMOPOLIS, WA, 98537","No_Match",NA,NA,NA,NA
969910,"PO BOX 1128","JERICHO CENTER","VT",5465,NA,NA,410,"PO BOX 1128, JERICHO CENTER, VT, 5465","No_Match",NA,NA,NA,NA
969911,"PO BOX 1128","KETCHUM","ID",83340,NA,NA,411,"PO BOX 1128, KETCHUM, ID, 83340","No_Match",NA,NA,NA,NA
969912,"PO BOX 1128","MALTA","MT",59538,NA,NA,412,"PO BOX 1128, MALTA, MT, 59538","No_Match",NA,NA,NA,NA
969913,"PO BOX 1128","PALMETTO","GA",30268,NA,NA,413,"PO BOX 1128, PALMETTO, GA, 30268","No_Match",NA,NA,NA,NA
969914,"PO BOX 1128","ROBBINSVILLE","NC",28771,NA,NA,414,"PO BOX 1128, ROBBINSVILLE, NC, 28771","No_Match",NA,NA,NA,NA
969915,"PO BOX 1128","ST ALBANS","VT",5478,NA,NA,415,"PO BOX 1128, ST ALBANS, VT, 5478","No_Match",NA,NA,NA,NA
969916,"PO BOX 11281","LYNCHBURG","VA",24506,NA,NA,416,"PO BOX 11281, LYNCHBURG, VA, 24506","No_Match",NA,NA,NA,NA
969917,"PO BOX 11282","SPOKANE","WA",99221,NA,NA,417,"PO BOX 11282, SPOKANE, WA, 99221","No_Match",NA,NA,NA,NA
969918,"PO BOX 1129","BETHEL","AK",99559,NA,NA,418,"PO BOX 1129, BETHEL, AK, 99559","No_Match",NA,NA,NA,NA
969919,"PO BOX 1129","JERICHO CENTER","VT",5465,NA,NA,419,"PO BOX 1129, JERICHO CENTER, VT, 5465","No_Match",NA,NA,NA,NA
969920,"PO BOX 1129","PECOS","NM",87552,NA,NA,420,"PO BOX 1129, PECOS, NM, 87552","No_Match",NA,NA,NA,NA
969921,"PO BOX 11291","INDIANAPOLIS","IN",46201,NA,NA,421,"PO BOX 11291, INDIANAPOLIS, IN, 46201","No_Match",NA,NA,NA,NA
969922,"PO BOX 113 222 ELM ST","PERSHING","IN",47370,NA,NA,422,"PO BOX 113 222 ELM ST, PERSHING, IN, 47370","No_Match",NA,NA,NA,NA
969923,"PO BOX 113","ARENDTSVILLE","PA",17303,NA,NA,423,"PO BOX 113, ARENDTSVILLE, PA, 17303","No_Match",NA,NA,NA,NA
969924,"PO BOX 113","BEERSHEBA SPRINGS","TN",37305,NA,NA,424,"PO BOX 113, BEERSHEBA SPRINGS, TN, 37305","No_Match",NA,NA,NA,NA
969925,"PO BOX 113","BETHEL","ME",4217,NA,NA,425,"PO BOX 113, BETHEL, ME, 4217","No_Match",NA,NA,NA,NA
969926,"PO BOX 113","BOYDS","MD",20841,NA,NA,426,"PO BOX 113, BOYDS, MD, 20841","No_Match",NA,NA,NA,NA
969927,"PO BOX 113","BREINIGSVILLE","PA",18031,NA,NA,427,"PO BOX 113, BREINIGSVILLE, PA, 18031","No_Match",NA,NA,NA,NA
969928,"PO BOX 113","BROOKFIELD","WI",53008,NA,NA,428,"PO BOX 113, BROOKFIELD, WI, 53008","No_Match",NA,NA,NA,NA
969929,"PO BOX 113","CAMBRIDGEPORT","VT",5141,NA,NA,429,"PO BOX 113, CAMBRIDGEPORT, VT, 5141","No_Match",NA,NA,NA,NA
969930,"PO BOX 113","CANUTE","OK",73626,NA,NA,430,"PO BOX 113, CANUTE, OK, 73626","No_Match",NA,NA,NA,NA
969931,"PO BOX 113","CATAUMET","MA",2534,NA,NA,431,"PO BOX 113, CATAUMET, MA, 2534","No_Match",NA,NA,NA,NA
969932,"PO BOX 113","CENTERVILLE","TX",75833,NA,NA,432,"PO BOX 113, CENTERVILLE, TX, 75833","No_Match",NA,NA,NA,NA
969933,"PO BOX 113","CHADBOURN","NC",28431,NA,NA,433,"PO BOX 113, CHADBOURN, NC, 28431","No_Match",NA,NA,NA,NA
969934,"PO BOX 113","CHALLIS","ID",83226,NA,NA,434,"PO BOX 113, CHALLIS, ID, 83226","No_Match",NA,NA,NA,NA
969935,"PO BOX 113","EAST NORWICH","NY",11732,NA,NA,435,"PO BOX 113, EAST NORWICH, NY, 11732","No_Match",NA,NA,NA,NA
969936,"PO BOX 113","EDGEWATER","MD",21037,NA,NA,436,"PO BOX 113, EDGEWATER, MD, 21037","No_Match",NA,NA,NA,NA
969937,"PO BOX 113","FLORENCE","CO",81226,NA,NA,437,"PO BOX 113, FLORENCE, CO, 81226","No_Match",NA,NA,NA,NA
969938,"PO BOX 113","FORT DICK","CA",95538,NA,NA,438,"PO BOX 113, FORT DICK, CA, 95538","No_Match",NA,NA,NA,NA
969939,"PO BOX 113","FREDERICKSBURG","OH",44627,NA,NA,439,"PO BOX 113, FREDERICKSBURG, OH, 44627","No_Match",NA,NA,NA,NA
969940,"PO BOX 113","HILLSBORO","WI",54634,NA,NA,440,"PO BOX 113, HILLSBORO, WI, 54634","No_Match",NA,NA,NA,NA
969941,"PO BOX 113","HUNTINGTON","OR",97907,NA,NA,441,"PO BOX 113, HUNTINGTON, OR, 97907","No_Match",NA,NA,NA,NA
969942,"PO BOX 113","LAKE NORDEN","SD",57248,NA,NA,442,"PO BOX 113, LAKE NORDEN, SD, 57248","No_Match",NA,NA,NA,NA
969943,"PO BOX 113","LANCASTER","SC",29721,NA,NA,443,"PO BOX 113, LANCASTER, SC, 29721","No_Match",NA,NA,NA,NA
969944,"PO BOX 113","LITTLE ROCK","AR",72002,NA,NA,444,"PO BOX 113, LITTLE ROCK, AR, 72002","No_Match",NA,NA,NA,NA
969945,"PO BOX 113","LOGANDALE","NV",89021,NA,NA,445,"PO BOX 113, LOGANDALE, NV, 89021","No_Match",NA,NA,NA,NA
969946,"PO BOX 113","LONGWOOD","NC",28452,NA,NA,446,"PO BOX 113, LONGWOOD, NC, 28452","No_Match",NA,NA,NA,NA
969947,"PO BOX 113","MIDLAND","GA",31820,NA,NA,447,"PO BOX 113, MIDLAND, GA, 31820","No_Match",NA,NA,NA,NA
969948,"PO BOX 113","PALISADE","MN",56469,NA,NA,448,"PO BOX 113, PALISADE, MN, 56469","No_Match",NA,NA,NA,NA
969949,"PO BOX 113","RODANTHE","NC",27968,NA,NA,449,"PO BOX 113, RODANTHE, NC, 27968","No_Match",NA,NA,NA,NA
969950,"PO BOX 113","SECOND MESA","AZ",86043,NA,NA,450,"PO BOX 113, SECOND MESA, AZ, 86043","No_Match",NA,NA,NA,NA
969951,"PO BOX 113","SMYRNA","NC",28579,NA,NA,451,"PO BOX 113, SMYRNA, NC, 28579","No_Match",NA,NA,NA,NA
969952,"PO BOX 113","SPARKMAN","AR",71763,NA,NA,452,"PO BOX 113, SPARKMAN, AR, 71763","No_Match",NA,NA,NA,NA
969953,"PO BOX 113","SUNBURG","MN",56289,NA,NA,453,"PO BOX 113, SUNBURG, MN, 56289","No_Match",NA,NA,NA,NA
969954,"PO BOX 113","SWAN VALLEY","ID",83449,NA,NA,454,"PO BOX 113, SWAN VALLEY, ID, 83449","No_Match",NA,NA,NA,NA
969955,"PO BOX 113","VIRGINIA CITY","MT",59755,NA,NA,455,"PO BOX 113, VIRGINIA CITY, MT, 59755","No_Match",NA,NA,NA,NA
969956,"PO BOX 113","W. MANCHESTER","OH",45382,NA,NA,456,"PO BOX 113, W. MANCHESTER, OH, 45382","No_Match",NA,NA,NA,NA
969957,"PO BOX 113","WRIGHTWOOD","CA",92397,NA,NA,457,"PO BOX 113, WRIGHTWOOD, CA, 92397","No_Match",NA,NA,NA,NA
969958,"PO BOX 1130","ALMA","CO",80420,NA,NA,458,"PO BOX 1130, ALMA, CO, 80420","No_Match",NA,NA,NA,NA
969959,"PO BOX 1130","COMERIO","PR",782,NA,NA,459,"PO BOX 1130, COMERIO, PR, 782","No_Match",NA,NA,NA,NA
969960,"PO BOX 1130","KEAAU","HI",96749,NA,NA,460,"PO BOX 1130, KEAAU, HI, 96749","No_Match",NA,NA,NA,NA
969961,"PO BOX 1130","THREE FORKS","MT",59752,NA,NA,461,"PO BOX 1130, THREE FORKS, MT, 59752","No_Match",NA,NA,NA,NA
969962,"PO BOX 1130","VENTURA","CA",93002,NA,NA,462,"PO BOX 1130, VENTURA, CA, 93002","No_Match",NA,NA,NA,NA
969963,"PO BOX 11305","MERRILLVILLE","IN",46411,NA,NA,463,"PO BOX 11305, MERRILLVILLE, IN, 46411","No_Match",NA,NA,NA,NA
969964,"PO BOX 1131","BELTON","TX",76513,NA,NA,464,"PO BOX 1131, BELTON, TX, 76513","No_Match",NA,NA,NA,NA
969965,"PO BOX 1131","COSMOPOLIS","WA",98537,NA,NA,465,"PO BOX 1131, COSMOPOLIS, WA, 98537","No_Match",NA,NA,NA,NA
969966,"PO BOX 1131","CRIPPLE CFEEK","CO",80813,NA,NA,466,"PO BOX 1131, CRIPPLE CFEEK, CO, 80813","No_Match",NA,NA,NA,NA
969967,"PO BOX 1131","CRIPPLE CREEK","CO",80813,NA,NA,467,"PO BOX 1131, CRIPPLE CREEK, CO, 80813","No_Match",NA,NA,NA,NA
969968,"PO BOX 1131","DUVALL","WA",98019,NA,NA,468,"PO BOX 1131, DUVALL, WA, 98019","No_Match",NA,NA,NA,NA
969969,"PO BOX 1131","GLASGOW","MT",59230,NA,NA,469,"PO BOX 1131, GLASGOW, MT, 59230","No_Match",NA,NA,NA,NA
969970,"PO BOX 1131","LENOIR CITY","TN",37771,NA,NA,470,"PO BOX 1131, LENOIR CITY, TN, 37771","No_Match",NA,NA,NA,NA
969971,"PO BOX 1131","MAKAWAO","HI",96768,NA,NA,471,"PO BOX 1131, MAKAWAO, HI, 96768","No_Match",NA,NA,NA,NA
969972,"PO BOX 1131","MIDDLESBORO","KY",40965,NA,NA,472,"PO BOX 1131, MIDDLESBORO, KY, 40965","No_Match",NA,NA,NA,NA
969973,"PO BOX 1131","POCAHONTAS","AR",72455,NA,NA,473,"PO BOX 1131, POCAHONTAS, AR, 72455","No_Match",NA,NA,NA,NA
969974,"PO BOX 11314","MURFREESBORO","TN",37129,NA,NA,474,"PO BOX 11314, MURFREESBORO, TN, 37129","No_Match",NA,NA,NA,NA
969975,"PO BOX 11314","PORTLAND","ME",4104,NA,NA,475,"PO BOX 11314, PORTLAND, ME, 4104","No_Match",NA,NA,NA,NA
969976,"PO BOX 1132","JAY","OK",74346,NA,NA,476,"PO BOX 1132, JAY, OK, 74346","No_Match",NA,NA,NA,NA
969977,"PO BOX 1132","PAGO PAGO","AS",96799,NA,NA,477,"PO BOX 1132, PAGO PAGO, AS, 96799","No_Match",NA,NA,NA,NA
969978,"PO BOX 1132","TELLURIDE","CO",81435,NA,NA,478,"PO BOX 1132, TELLURIDE, CO, 81435","No_Match",NA,NA,NA,NA
969979,"PO BOX 11323","GLENDALE","CA",91226,NA,NA,479,"PO BOX 11323, GLENDALE, CA, 91226","No_Match",NA,NA,NA,NA
969980,"PO BOX 11327","CINCINNATI","OH",45211,NA,NA,480,"PO BOX 11327, CINCINNATI, OH, 45211","No_Match",NA,NA,NA,NA
969981,"PO BOX 1133","ARCHER","FL",32618,NA,NA,481,"PO BOX 1133, ARCHER, FL, 32618","No_Match",NA,NA,NA,NA
969982,"PO BOX 1133","BELMONT","MS",38827,NA,NA,482,"PO BOX 1133, BELMONT, MS, 38827","No_Match",NA,NA,NA,NA
969983,"PO BOX 1133","BUFFALO","NY",14215,NA,NA,483,"PO BOX 1133, BUFFALO, NY, 14215","No_Match",NA,NA,NA,NA
969984,"PO BOX 1133","DE QUEEN","AR",71832,NA,NA,484,"PO BOX 1133, DE QUEEN, AR, 71832","No_Match",NA,NA,NA,NA
969985,"PO BOX 1133","DUBOIS","WY",82513,NA,NA,485,"PO BOX 1133, DUBOIS, WY, 82513","No_Match",NA,NA,NA,NA
969986,"PO BOX 1133","FRANKLIN","VA",23851,NA,NA,486,"PO BOX 1133, FRANKLIN, VA, 23851","No_Match",NA,NA,NA,NA
969987,"PO BOX 1133","SAVANNAH","GA",31322,NA,NA,487,"PO BOX 1133, SAVANNAH, GA, 31322","No_Match",NA,NA,NA,NA
969988,"PO BOX 1133","SPANAWAY","WA",98387,NA,NA,488,"PO BOX 1133, SPANAWAY, WA, 98387","No_Match",NA,NA,NA,NA
969989,"PO BOX 11332","PIEDMONT","CA",94611,NA,NA,489,"PO BOX 11332, PIEDMONT, CA, 94611","No_Match",NA,NA,NA,NA
969990,"PO BOX 1134","APTOS","CA",95003,NA,NA,490,"PO BOX 1134, APTOS, CA, 95003","No_Match",NA,NA,NA,NA
969991,"PO BOX 1134","CARLIN","NV",89822,NA,NA,491,"PO BOX 1134, CARLIN, NV, 89822","No_Match",NA,NA,NA,NA
969992,"PO BOX 1134","CARSON","WA",98610,NA,NA,492,"PO BOX 1134, CARSON, WA, 98610","No_Match",NA,NA,NA,NA
969993,"PO BOX 1134","FLAT ROCK","NC",28731,NA,NA,493,"PO BOX 1134, FLAT ROCK, NC, 28731","No_Match",NA,NA,NA,NA
969994,"PO BOX 1134","KYLE","TX",78640,NA,NA,494,"PO BOX 1134, KYLE, TX, 78640","No_Match",NA,NA,NA,NA
969995,"PO BOX 1134","MANOR","TX",78653,NA,NA,495,"PO BOX 1134, MANOR, TX, 78653","No_Match",NA,NA,NA,NA
969996,"PO BOX 1134","MONTICELLO","AR",71655,NA,NA,496,"PO BOX 1134, MONTICELLO, AR, 71655","No_Match",NA,NA,NA,NA
969997,"PO BOX 1134","WHAETRIDGE","CO",80034,NA,NA,497,"PO BOX 1134, WHAETRIDGE, CO, 80034","No_Match",NA,NA,NA,NA
969998,"PO BOX 1134","WHEATRIDGE","CO",80034,NA,NA,498,"PO BOX 1134, WHEATRIDGE, CO, 80034","No_Match",NA,NA,NA,NA
969999,"PO BOX 1134","WHITEHALL","MT",59759,NA,NA,499,"PO BOX 1134, WHITEHALL, MT, 59759","No_Match",NA,NA,NA,NA
970000,"PO BOX 11341","MINNEAPIOLIS","MN",55411,NA,NA,500,"PO BOX 11341, MINNEAPIOLIS, MN, 55411","No_Match",NA,NA,NA,NA
