"ID","Address","City","State","Zip","lat","long","id","input_address","match_indicator","match_type","matched_address","tiger_line_id","tiger_side"
1,"-  13913 CHERRY CREEK DRIVE","TAMPA","FL",33618,28.080053408,-82.495379535,1,"-  13913 CHERRY CREEK DRIVE, TAMPA, FL, 33618","Match","Exact","13913 CHERRY CREEK DR, TAMPA, FL, 33618",104510787,"R"
2,"- 218 LONGFELLOW AVENUE","WORTHINGTON","OH",43085,40.0987985840001,-83.023189895,2,"- 218 LONGFELLOW AVENUE, WORTHINGTON, OH, 43085","Match","Exact","218 LONGFELLOW AVE, WORTHINGTON, OH, 43085",218662083,"R"
3,"- 2740 N HARBOR CITY BLVD","MELBOURNE","FL",32935,NA,NA,3,"- 2740 N HARBOR CITY BLVD, MELBOURNE, FL, 32935","No_Match",NA,NA,NA,NA
4,"- 28306 ROLLING RIDGE DR","KATY","TX",77494,29.7158530580001,-95.834431465,4,"- 28306 ROLLING RIDGE DR, KATY, TX, 77494","Match","Exact","28306 ROLLING RIDGE DR, KATY, TX, 77494",641055656,"L"
5,"----------------------------","--------------------","IL",66666,NA,NA,5,"----------------------------, --------------------, IL, 66666","No_Match",NA,NA,NA,NA
6,"-------------------------","--------------------","IL",66666,NA,NA,6,"-------------------------, --------------------, IL, 66666","No_Match",NA,NA,NA,NA
7,"------","CHARLOTTE","NC",28226,NA,NA,7,"------, CHARLOTTE, NC, 28226","No_Match",NA,NA,NA,NA
8,"-----","GREENVILLE","SC",29601,NA,NA,8,"-----, GREENVILLE, SC, 29601","No_Match",NA,NA,NA,NA
9,"--","--",NA,NA,NA,NA,9,"--, --, , ","No_Match",NA,NA,NA,NA
10,"-","-","CA",0,NA,NA,10,"-, -, CA, 0","No_Match",NA,NA,NA,NA
11,"-","-","FL",0,NA,NA,11,"-, -, FL, 0","No_Match",NA,NA,NA,NA
12,"-","-","FL",99999,NA,NA,12,"-, -, FL, 99999","No_Match",NA,NA,NA,NA
13,"-","-","GA",30906,NA,NA,13,"-, -, GA, 30906","No_Match",NA,NA,NA,NA
14,"-","-","IL",60563,NA,NA,14,"-, -, IL, 60563","No_Match",NA,NA,NA,NA
15,"-","-","MA",0,NA,NA,15,"-, -, MA, 0","No_Match",NA,NA,NA,NA
16,"-","-","MI",49001,NA,NA,16,"-, -, MI, 49001","No_Match",NA,NA,NA,NA
17,"-","-",NA,NA,NA,NA,17,"-, -, , ","No_Match",NA,NA,NA,NA
18,"-","-","NM",99999,NA,NA,18,"-, -, NM, 99999","No_Match",NA,NA,NA,NA
19,"-","-","NY",0,NA,NA,19,"-, -, NY, 0","No_Match",NA,NA,NA,NA
20,"-","-","NY",14222,NA,NA,20,"-, -, NY, 14222","No_Match",NA,NA,NA,NA
21,"-","-","RI",2919,NA,NA,21,"-, -, RI, 2919","No_Match",NA,NA,NA,NA
22,"-200 PARAGON MILLS RD APT A-18","NASHVILLE","TN",37211,NA,NA,22,"-200 PARAGON MILLS RD APT A-18, NASHVILLE, TN, 37211","No_Match",NA,NA,NA,NA
23,"-3871 REDWINE ROAD APT","ATLANTA","GA",30344,NA,NA,23,"-3871 REDWINE ROAD APT, ATLANTA, GA, 30344","No_Match",NA,NA,NA,NA
24,"-708 SW BELLE AVENUE","TOPEKA","KS",66604,NA,NA,24,"-708 SW BELLE AVENUE, TOPEKA, KS, 66604","No_Match",NA,NA,NA,NA
25,".",NA,NA,NA,NA,NA,25,"., , , ","No_Match",NA,NA,NA,NA
26,"/125 MESA OAK WAY","CITRUS HEIGHTS","CA",95610,NA,NA,26,"/125 MESA OAK WAY, CITRUS HEIGHTS, CA, 95610","No_Match",NA,NA,NA,NA
27,"0 COLUMBUS BLVD","TAUNTON","MA",2780,NA,NA,27,"0 COLUMBUS BLVD, TAUNTON, MA, 2780","No_Match",NA,NA,NA,NA
28,"0 N 620 INDIAN KNOLL ROAD","WEST CHICAGO","IL",60185,NA,NA,28,"0 N 620 INDIAN KNOLL ROAD, WEST CHICAGO, IL, 60185","Tie",NA,NA,NA,NA
29,"0 PARALLEL ST","SALEM","MA",1970,NA,NA,29,"0 PARALLEL ST, SALEM, MA, 1970","No_Match",NA,NA,NA,NA
30,"0 PARRELL STREET","SALEM","MA",1970,NA,NA,30,"0 PARRELL STREET, SALEM, MA, 1970","No_Match",NA,NA,NA,NA
31,"0 S 425 FLORIDA LANE","WINFIELD","IL",60190,NA,NA,31,"0 S 425 FLORIDA LANE, WINFIELD, IL, 60190","Tie",NA,NA,NA,NA
32,"0 SPRING VALLEY RD","CHANDLERSVILLE","OH",43727,NA,NA,32,"0 SPRING VALLEY RD, CHANDLERSVILLE, OH, 43727","No_Match",NA,NA,NA,NA
33,"0 WOODHOLM RD","MANCHESTER","MA",1944,NA,NA,33,"0 WOODHOLM RD, MANCHESTER, MA, 1944","No_Match",NA,NA,NA,NA
34,"0-10253 8TH AVE NW","GRAND RAPIDS","MI",49534,NA,NA,34,"0-10253 8TH AVE NW, GRAND RAPIDS, MI, 49534","No_Match",NA,NA,NA,NA
35,"0-11429 14TH AVE","GRAND RAPIDS","MI",49534,NA,NA,35,"0-11429 14TH AVE, GRAND RAPIDS, MI, 49534","No_Match",NA,NA,NA,NA
36,"0-33 WALTON ROAD","FAIR LAWN","NJ",7410,40.922576312,-74.091970284,36,"0-33 WALTON ROAD, FAIR LAWN, NJ, 7410","Match","Exact","0-33 WALTON RD, FAIR LAWN, NJ, 07410",64381394,"R"
37,"0-38 MORLOTT AVE","FAIR LAWN","NJ",7410,40.9246136730001,-74.1385946509999,37,"0-38 MORLOTT AVE, FAIR LAWN, NJ, 7410","Match","Non_Exact","MORLOT AVE, FAIR LAWN, NJ, 07410",64405580,"R"
38,"0-44 PINE AVE","FAIR LAWN","NJ",7410,40.9207995260001,-74.103531672,38,"0-44 PINE AVE, FAIR LAWN, NJ, 7410","Match","Exact","0-44 PINE AVE, FAIR LAWN, NJ, 07410",64381187,"L"
39,"0-50 34TH ST","FAIR LAWN","NJ",7410,40.9223739240001,-74.100896478,39,"0-50 34TH ST, FAIR LAWN, NJ, 7410","Match","Exact","0-50 34TH ST, FAIR LAWN, NJ, 07410",64381102,"L"
40,"0-87 BLUE HILL AVE","FAIR LAWN","NJ",7410,40.9226039760001,-74.093574674,40,"0-87 BLUE HILL AVE, FAIR LAWN, NJ, 7410","Match","Exact","0-87 BLUE HILL AVE, FAIR LAWN, NJ, 07410",651700626,"R"
41,"0","0","CA",92658,NA,NA,41,"0, 0, CA, 92658","No_Match",NA,NA,NA,NA
42,"0","O","IL",0,NA,NA,42,"0, O, IL, 0","No_Match",NA,NA,NA,NA
43,"000","DURHAM","NC",0,NA,NA,43,"000, DURHAM, NC, 0","No_Match",NA,NA,NA,NA
44,"000","OXON HILL","MD",0,NA,NA,44,"000, OXON HILL, MD, 0","No_Match",NA,NA,NA,NA
45,"0000","XXX","IL",0,NA,NA,45,"0000, XXX, IL, 0","No_Match",NA,NA,NA,NA
46,"00000","JACKSONVILLE","NC",0,NA,NA,46,"00000, JACKSONVILLE, NC, 0","No_Match",NA,NA,NA,NA
47,"00000","MIAMI","FL",33170,NA,NA,47,"00000, MIAMI, FL, 33170","No_Match",NA,NA,NA,NA
48,"00000","ROANOKE RAPIDS","NC",0,NA,NA,48,"00000, ROANOKE RAPIDS, NC, 0","No_Match",NA,NA,NA,NA
49,"00004 N ADVANCE ROAD","EAST JORDAN","MI",49727,45.205189321,-85.114314645,49,"00004 N ADVANCE ROAD, EAST JORDAN, MI, 49727","Match","Exact","4 N ADVANCE RD, EAST JORDAN, MI, 49727",642577451,"R"
50,"00009 KOEHN RD","ST MARYS","OH",45885,40.5058186740001,-84.4491702609999,50,"00009 KOEHN RD, ST MARYS, OH, 45885","Match","Exact","9 KOEHN RD, SAINT MARYS, OH, 45885",36420824,"L"
51,"0001  MIGUEL ANGEL LOPEZ ALVAREZ","VEGA BAJA","PR",693,NA,NA,51,"0001  MIGUEL ANGEL LOPEZ ALVAREZ, VEGA BAJA, PR, 693","No_Match",NA,NA,NA,NA
52,"0001 BLUE GROUSE","GYPSUM","CO",81637,NA,NA,52,"0001 BLUE GROUSE, GYPSUM, CO, 81637","No_Match",NA,NA,NA,NA
53,"001 COUNTY ROAD 1650","CULLMAN","AL",35050,NA,NA,53,"001 COUNTY ROAD 1650, CULLMAN, AL, 35050","Tie",NA,NA,NA,NA
54,"001","TUCSON","AZ",85730,NA,NA,54,"001, TUCSON, AZ, 85730","No_Match",NA,NA,NA,NA
55,"0028 MALL STREET","SOUTH FORK","CO",81154,NA,NA,55,"0028 MALL STREET, SOUTH FORK, CO, 81154","No_Match",NA,NA,NA,NA
56,"003803 SWANN CT","SUITLAND","MD",20706,38.837314275,-76.920792526,56,"003803 SWANN CT, SUITLAND, MD, 20706","Match","Non_Exact","3803 SWANN CT, SUITLAND, MD, 20746",76338289,"R"
57,"0055 COTTONWOOD DRIVE","DILLON","CO",80435,39.6356346250001,-106.044104365,57,"0055 COTTONWOOD DRIVE, DILLON, CO, 80435","Match","Exact","55 COTTONWOOD DR, DILLON, CO, 80435",106046945,"L"
58,"0058 ROBINS EGG LANE","EAGLE","CO",81631,39.6342585850001,-106.811446576,58,"0058 ROBINS EGG LANE, EAGLE, CO, 81631","Match","Exact","58 ROBINS EGG LN, EAGLE, CO, 81631",105744405,"L"
59,"0063 EDWARDS ACCESS ROAD","EDWARDS","CO",81632,39.6455506880001,-106.592702895,59,"0063 EDWARDS ACCESS ROAD, EDWARDS, CO, 81632","Match","Exact","63 EDWARDS ACCESS RD, EDWARDS, CO, 81632",635512106,"L"
60,"0065 SOUTH 500 EAST","LAGRANGE","IN",46761,41.641159262,-85.330736367,60,"0065 SOUTH 500 EAST, LAGRANGE, IN, 46761","Match","Exact","65 S 500 E, LAGRANGE, IN, 46761",8196564,"R"
61,"0077 RED BARN","EDWARDS","CO",81632,39.6423676220001,-106.580241647,61,"0077 RED BARN, EDWARDS, CO, 81632","Match","Non_Exact","77 RED BARN ST, EDWARDS, CO, 81632",234547819,"L"
62,"008 CURRY HALL","UNIVERSITY PARK","PA",16802,NA,NA,62,"008 CURRY HALL, UNIVERSITY PARK, PA, 16802","No_Match",NA,NA,NA,NA
63,"00868 OLD M-75 LOOP","BOYNE CITY","MI",49712,NA,NA,63,"00868 OLD M-75 LOOP, BOYNE CITY, MI, 49712","No_Match",NA,NA,NA,NA
64,"00913","SAN JUAN","PR",913,NA,NA,64,"00913, SAN JUAN, PR, 913","No_Match",NA,NA,NA,NA
65,"01 BERRY HILL RD","LOS LUNAS","NM",87031,34.7842411890001,-106.686973964,65,"01 BERRY HILL RD, LOS LUNAS, NM, 87031","Match","Exact","1 BERRY HILL RD, LOS LUNAS, NM, 87031",179193983,"R"
66,"01 BRICKELL AVENUE  900","MIAMI","FL",33131,NA,NA,66,"01 BRICKELL AVENUE  900, MIAMI, FL, 33131","No_Match",NA,NA,NA,NA
67,"01 CR 323","TAYLOR","MS",38673,34.32584302,-89.5604409759999,67,"01 CR 323, TAYLOR, MS, 38673","Match","Exact","1 CO RD 323, TAYLOR, MS, 38673",636555949,"R"
68,"01 EAST FOREST HOME PO 398","ROACHDALE","IN",46172,39.84939138,-86.802178635,68,"01 EAST FOREST HOME PO 398, ROACHDALE, IN, 46172","Match","Non_Exact","1 E FOREST HOME ST, ROACHDALE, IN, 46172",50102083,"L"
69,"01 ORANGE TREE DRIVE","ATLANTIS","FL",33462,NA,NA,69,"01 ORANGE TREE DRIVE, ATLANTIS, FL, 33462","No_Match",NA,NA,NA,NA
70,"01-08 NORTH 8TH ST","PATERSON","NJ",7522,40.9264833030001,-74.181730893,70,"01-08 NORTH 8TH ST, PATERSON, NJ, 7522","Match","Exact","1 N 8TH ST, PATERSON, NJ, 07522",65262716,"L"
71,"0103 BLUE FLAG DRIVE","BRECKENRIDGE","CO",80424,39.461278387,-106.039046569,71,"0103 BLUE FLAG DRIVE, BRECKENRIDGE, CO, 80424","Match","Exact","103 BLUE FLAG DR, BRECKENRIDGE, CO, 80424",106054198,"L"
72,"01227 OVERLOOK COURT","WHITNEY","TX",76692,32.028818782,-97.421872255,72,"01227 OVERLOOK COURT, WHITNEY, TX, 76692","Match","Non_Exact","1227 OVERLOOK DR, WHITNEY, TX, 76692",160530733,"R"
73,"0124 BANION CT","SAN PABLO","CA",94806,37.9910072590001,-122.313450048,73,"0124 BANION CT, SAN PABLO, CA, 94806","Match","Exact","124 BANION CT, SAN PABLO, CA, 94806",192037729,"R"
74,"0131 ERMINE","CARBONDALE","CO",81623,39.400276584,-107.10232414,74,"0131 ERMINE, CARBONDALE, CO, 81623","Match","Non_Exact","131 ERMINE LN, CARBONDALE, CO, 81623",644250678,"L"
75,"01391 ST RT 18","HICKSVILLE","OH",43526,41.320944125,-84.798647965,75,"01391 ST RT 18, HICKSVILLE, OH, 43526","Match","Non_Exact","1391 STATE RTE 18, HICKSVILLE, OH, 43526",207559668,"R"
76,"0150 FRIST CAMPUS CTR","PRINCETON","NJ",8544,NA,NA,76,"0150 FRIST CAMPUS CTR, PRINCETON, NJ, 8544","No_Match",NA,NA,NA,NA
77,"0150 VAGNEUR LANE","BASALT","CO",81621,39.3486741200001,-107.062219976,77,"0150 VAGNEUR LANE, BASALT, CO, 81621","Match","Exact","150 VAGNEUR LN, BASALT, CO, 81621",105953454,"R"
78,"01520 SW CORBETT HILL CIRCLE","PORTLAND","OR",97219,45.4379169590001,-122.663129555,78,"01520 SW CORBETT HILL CIRCLE, PORTLAND, OR, 97219","Match","Exact","1520 SW CORBETT HILL CIR, PORTLAND, OR, 97219",157603497,"L"
79,"0165 OLD MAIN HILL","LOGAN","UT",84332,NA,NA,79,"0165 OLD MAIN HILL, LOGAN, UT, 84332","No_Match",NA,NA,NA,NA
80,"017 NC HIGHWAY 37 NORTH","GATES","NC",27937,36.438653011,-76.758257483,80,"017 NC HIGHWAY 37 NORTH, GATES, NC, 27937","Match","Non_Exact","17 STATE HWY 37 N, GATES, NC, 27937",18576352,"R"
81,"01806E US HWY 50","PIERCEVILLE","KS",67868,NA,NA,81,"01806E US HWY 50, PIERCEVILLE, KS, 67868","No_Match",NA,NA,NA,NA
82,"01855 JENKINS RD","BOYNE FALLS","MI",49713,45.1777127760001,-84.815879751,82,"01855 JENKINS RD, BOYNE FALLS, MI, 49713","Match","Exact","1855 JENKINS RD, BOYNE FALLS, MI, 49713",134497245,"R"
83,"01953 BUCKSKIN ROAD","HICKSVILLE","OH",43526,41.3249311540001,-84.786886817,83,"01953 BUCKSKIN ROAD, HICKSVILLE, OH, 43526","Match","Exact","1953 BUCKSKIN RD, HICKSVILLE, OH, 43526",207559682,"R"
84,"0199 GEIL LANE","DILLON","CO",80435,39.6021173020001,-106.0027526,84,"0199 GEIL LANE, DILLON, CO, 80435","Match","Exact","199 GEIL LN, DILLON, CO, 80435",106059537,"L"
85,"02 352 PARK STREET","WINFIELD","IL",60190,NA,NA,85,"02 352 PARK STREET, WINFIELD, IL, 60190","No_Match",NA,NA,NA,NA
86,"02 INDEPENDENCE CIR","SOUTHBURY","CT",6488,41.4848067360001,-73.254441653,86,"02 INDEPENDENCE CIR, SOUTHBURY, CT, 6488","Match","Exact","2 INDEPENDENCE CIR, SOUTHBURY, CT, 06488",624765788,"L"
87,"020 N CHERRY","CAMERON","MO",64429,NA,NA,87,"020 N CHERRY, CAMERON, MO, 64429","No_Match",NA,NA,NA,NA
88,"0200 CRYSTAL PARK DR","REDSTONE","CO",81623,39.166178517,-107.245168286,88,"0200 CRYSTAL PARK DR, REDSTONE, CO, 81623","Match","Exact","200 CRYSTAL PARK DR, REDSTONE, CO, 81623",105967211,"R"
89,"0201 NORTH OAK ST EXT","BLUFFTON","IN",46714,40.745949737,-85.1784496659999,89,"0201 NORTH OAK ST EXT, BLUFFTON, IN, 46714","Match","Non_Exact","201 N OAK ST EXD, BLUFFTON, IN, 46714",6616716,"R"
90,"0202 LONE PINE 5","ASPEN","CO",81611,39.194828106,-106.814991749,90,"0202 LONE PINE 5, ASPEN, CO, 81611","Match","Non_Exact","202 LONE PINE RD, ASPEN, CO, 81611",635579281,"L"
91,"0202 SWEENEY STREET","PORTLAND","OR",97239,45.483799386,-122.676714796,91,"0202 SWEENEY STREET, PORTLAND, OR, 97239","Match","Non_Exact","202 SW SWEENEY ST, PORTLAND, OR, 97239",157508776,"R"
92,"0206 BEAR PAW LN POX8509","AVON","CO",81620,39.619170964,-106.546863726,92,"0206 BEAR PAW LN POX8509, AVON, CO, 81620","Match","Non_Exact","206 BEAR PAW, AVON, CO, 81620",105766198,"L"
93,"02124 GREENVILLE RD","ST MARYS","OH",45885,40.5213876760001,-84.412498711,93,"02124 GREENVILLE RD, ST MARYS, OH, 45885","Match","Exact","2124 GREENVILLE RD, SAINT MARYS, OH, 45885",209203183,"R"
94,"0230 COUNTY ROAD 2","MCCLURE","OH",43534,NA,NA,94,"0230 COUNTY ROAD 2, MCCLURE, OH, 43534","No_Match",NA,NA,NA,NA
95,"02324 COUNTY RD F","EDON","OH",43518,NA,NA,95,"02324 COUNTY RD F, EDON, OH, 43518","No_Match",NA,NA,NA,NA
96,"02338 STATE RTE 2","EDGERTON","OH",43517,41.4082665930001,-84.629617651,96,"02338 STATE RTE 2, EDGERTON, OH, 43517","Match","Exact","2338 STATE RTE 2, EDGERTON, OH, 43517",207559731,"L"
97,"02615 M66 S","EAST JORDAN","MI",49727,NA,NA,97,"02615 M66 S, EAST JORDAN, MI, 49727","No_Match",NA,NA,NA,NA
98,"0264 SR 327","HUDSON","IN",46747,41.520663691,-85.170523666,98,"0264 SR 327, HUDSON, IN, 46747","Match","Non_Exact","264 STATE RD 327, HUDSON, IN, 46747",6512569,"L"
99,"0283 SOUTH CEDAR SPRINGS RANCH ROAD","RIFLE","CO",81650,39.457970607,-107.741296774,99,"0283 SOUTH CEDAR SPRINGS RANCH ROAD, RIFLE, CO, 81650","Match","Exact","283 S CEDAR SPRINGS RANCH RD, RIFLE, CO, 81650",633432001,"L"
100,"02970 BOYNE CITY ROAD","BOYNE CITY","MI",49712,45.2476891590001,-85.053974968,100,"02970 BOYNE CITY ROAD, BOYNE CITY, MI, 49712","Match","Exact","2970 BOYNE CITY RD, BOYNE CITY, MI, 49712",134487765,"L"
101,"02B FIREHOUSES LN","MADRID","NM",87010,35.4054861290001,-106.153477741,101,"02B FIREHOUSES LN, MADRID, NM, 87010","Match","Non_Exact","2 FIREHOUSE LN, MADRID, NM, 87010",628003554,"L"
102,"03 BELLE FERN COURT","OCOEE","FL",34761,NA,NA,102,"03 BELLE FERN COURT, OCOEE, FL, 34761","No_Match",NA,NA,NA,NA
103,"03 CAMINO CHARRO","SANTA FE","NM",87507,NA,NA,103,"03 CAMINO CHARRO, SANTA FE, NM, 87507","No_Match",NA,NA,NA,NA
104,"03 PERITSA AVE","PRYOR","MT",59066,45.427876595,-108.531833516,104,"03 PERITSA AVE, PRYOR, MT, 59066","Match","Non_Exact","3 PERITSA LN, PRYOR, MT, 59066",181634345,"L"
105,"03 RITA LANE","LOS LUNAS","NM",87031,34.807928889,-106.545273039,105,"03 RITA LANE, LOS LUNAS, NM, 87031","Match","Exact","3 RITA LN, LOS LUNAS, NM, 87031",179327009,"R"
106,"030 POST OAK BLVD UNIT 601","HOUSTON","TX",77056,29.753815226,-95.452539001,106,"030 POST OAK BLVD UNIT 601, HOUSTON, TX, 77056","Match","Non_Exact","30 POST OAK BLVD, HOUSTON, TX, 77027",637135278,"R"
107,"03012 WILDWOOD HARBOR RD","BOYNE CITY","MI",49712,45.2475306470001,-85.000694933,107,"03012 WILDWOOD HARBOR RD, BOYNE CITY, MI, 49712","Match","Exact","3012 WILDWOOD HARBOR RD, BOYNE CITY, MI, 49712",134502082,"R"
108,"0305 SW MONGOMERY AVE","PORTLAND","OR",97201,NA,NA,108,"0305 SW MONGOMERY AVE, PORTLAND, OR, 97201","No_Match",NA,NA,NA,NA
109,"0308 ARROWHEAD LANE","COALDALE","CO",81222,38.3520488010001,-105.744462525,109,"0308 ARROWHEAD LANE, COALDALE, CO, 81222","Match","Exact","308 ARROWHEAD LN, COALDALE, CO, 81222",612598372,"R"
110,"0320 SW MONTGOMERY ST NO 423","PORTLAND","OR",97201,NA,NA,110,"0320 SW MONTGOMERY ST NO 423, PORTLAND, OR, 97201","No_Match",NA,NA,NA,NA
111,"0322 NAVAJO ROAD","GYPSUM","CO",81637,39.6365283870001,-106.900583919,111,"0322 NAVAJO ROAD, GYPSUM, CO, 81637","Match","Exact","322 NAVAJO RD, GYPSUM, CO, 81637",105774175,"L"
112,"0325 SW RIVERSIDE STREET","PORTLAND","OR",97219,45.4503654750001,-122.675305999,112,"0325 SW RIVERSIDE STREET, PORTLAND, OR, 97219","Match","Exact","325 SW RIVERSIDE ST, PORTLAND, OR, 97219",157526120,"L"
113,"03254","MOULTONBOROUGH","NH",3254,NA,NA,113,"03254, MOULTONBOROUGH, NH, 3254","No_Match",NA,NA,NA,NA
114,"0339 SW TEXAS ST","PORTLAND","OR",97219,45.473695074,-122.674671355,114,"0339 SW TEXAS ST, PORTLAND, OR, 97219","Match","Exact","339 SW TEXAS ST, PORTLAND, OR, 97219",157562290,"L"
115,"0340 E 625 S","NORTH JUDSON","IN",46366,41.2118007830001,-86.690616494,115,"0340 E 625 S, NORTH JUDSON, IN, 46366","Match","Exact","340 E 625 S, NORTH JUDSON, IN, 46366",8253581,"R"
116,"03488 ST RT 576","BRYAN","OH",43506,41.462469791,-84.61280379,116,"03488 ST RT 576, BRYAN, OH, 43506","Match","Non_Exact","3488 STATE RTE 576, BRYAN, OH, 43506",635845265,"R"
117,"03577 COUNTY RD C-60","EDGERTON","OH",43517,NA,NA,117,"03577 COUNTY RD C-60, EDGERTON, OH, 43517","No_Match",NA,NA,NA,NA
118,"03739 MIDDLE STREET","GRAND JUNCTION","MI",49056,42.4049328310001,-86.0745315999999,118,"03739 MIDDLE STREET, GRAND JUNCTION, MI, 49056","Match","Exact","3739 MIDDLE ST, GRAND JCT, MI, 49056",34759616,"R"
119,"04 113TH ST SE","EVERETT","WA",98208,47.895298858,-122.23288921,119,"04 113TH ST SE, EVERETT, WA, 98208","Match","Exact","4 113TH ST SE, EVERETT, WA, 98208",187799832,"R"
120,"04 COUNTY ROAD 1068","ABBEVILLE","MS",38601,NA,NA,120,"04 COUNTY ROAD 1068, ABBEVILLE, MS, 38601","No_Match",NA,NA,NA,NA
121,"04 CR 1068","ABBEVILLE","MS",38601,NA,NA,121,"04 CR 1068, ABBEVILLE, MS, 38601","No_Match",NA,NA,NA,NA
122,"04 FIFTH GREEN DR","TAOS","NM",87571,36.3619518260001,-105.375937377,122,"04 FIFTH GREEN DR, TAOS, NM, 87571","Match","Exact","4 FIFTH GREEN DR, TAOS, NM, 87571",635542163,"L"
123,"04 SUMMIT CIRCLE PA","GIBSONIA","PA",15044,NA,NA,123,"04 SUMMIT CIRCLE PA, GIBSONIA, PA, 15044","No_Match",NA,NA,NA,NA
124,"04","BIG HORN","WY",82833,NA,NA,124,"04, BIG HORN, WY, 82833","No_Match",NA,NA,NA,NA
125,"04033 US 31 SOUTH","CHARLEVOIX","MI",49720,45.2686590810001,-85.3434387839999,125,"04033 US 31 SOUTH, CHARLEVOIX, MI, 49720","Match","Non_Exact","4033 OLD 31, CHARLEVOIX, MI, 49720",134500956,"L"
126,"0405 MID VALLEY DRIVE","NEW CASTLE","CO",81647,39.540018312,-107.605588069,126,"0405 MID VALLEY DRIVE, NEW CASTLE, CO, 81647","Match","Non_Exact","405 MID VALLEY RD, NEW CASTLE, CO, 81647",605403692,"L"
127,"0405 NOGAL RD 222","EAGLE","CO",81637,39.6596959250001,-106.820242862,127,"0405 NOGAL RD 222, EAGLE, CO, 81637","Match","Non_Exact","405 NOGAL RD, EAGLE, CO, 81631",650094265,"R"
128,"041 JAMESON RD","LITHIA","FL",33547,NA,NA,128,"041 JAMESON RD, LITHIA, FL, 33547","No_Match",NA,NA,NA,NA
129,"0425 CR 183","FOREST","OH",45843,40.8118874350001,-83.55455564,129,"0425 CR 183, FOREST, OH, 45843","Match","Exact","425 CO RD 183, FOREST, OH, 45843",36521061,"L"
130,"04316 COSIER ROAD","EAST JORDAN","MI",49727,45.1649273940001,-85.0624514639999,130,"04316 COSIER ROAD, EAST JORDAN, MI, 49727","Match","Exact","4316 COSIER RD, EAST JORDAN, MI, 49727",134499988,"R"
131,"04469 OLD HORTON BAY ROAD","BOYNE CITY","MI",49712,45.2714567900001,-85.045336752,131,"04469 OLD HORTON BAY ROAD, BOYNE CITY, MI, 49712","Match","Exact","4469 OLD HORTON BAY RD, BOYNE CITY, MI, 49712",134495373,"L"
132,"045 KILARNEY RIDGE LOOP","CARY","NC",27511,NA,NA,132,"045 KILARNEY RIDGE LOOP, CARY, NC, 27511","No_Match",NA,NA,NA,NA
133,"0472 ASTER DRIVE","GLENWOOD SPRINGS","CO",81601,39.486369193,-107.254059807,133,"0472 ASTER DRIVE, GLENWOOD SPRINGS, CO, 81601","Match","Exact","472 ASTER DR, GLENWOOD SPGS, CO, 81601",605488498,"R"
134,"0475 TR 30","ADA","OH",45810,NA,NA,134,"0475 TR 30, ADA, OH, 45810","No_Match",NA,NA,NA,NA
135,"04751 HARBOR VISTA RD S","FLORENCE","OR",97439,NA,NA,135,"04751 HARBOR VISTA RD S, FLORENCE, OR, 97439","No_Match",NA,NA,NA,NA
136,"05 LAS VIGAS","LOS LUNAS","NM",87031,34.7993431730001,-106.587270549,136,"05 LAS VIGAS, LOS LUNAS, NM, 87031","Match","Non_Exact","5 LAS VIGAS LN, LOS LUNAS, NM, 87031",179330008,"R"
137,"05017 FOUNTAIN STREET","HICKSVILLE","OH",43526,41.281447014,-84.727563818,137,"05017 FOUNTAIN STREET, HICKSVILLE, OH, 43526","Match","Non_Exact","5017 FOUNTAIN STREET RD, HICKSVILLE, OH, 43526",6672296,"R"
138,"05160 CR 6","EDGERTON","OH",43517,NA,NA,138,"05160 CR 6, EDGERTON, OH, 43517","No_Match",NA,NA,NA,NA
139,"0521 RABBIT WAY","OLD SNOWMASS","CO",81654,39.2622980800001,-106.971726275,139,"0521 RABBIT WAY, OLD SNOWMASS, CO, 81654","Match","Non_Exact","521 RABBIT WAY, SNOWMASS, CO, 81654",105954226,"R"
140,"0524 SW DAKOTA STREET","PORTLAND","OR",97239,45.4779658640001,-122.673423899,140,"0524 SW DAKOTA STREET, PORTLAND, OR, 97239","Match","Exact","524 SW DAKOTA ST, PORTLAND, OR, 97239",157508844,"R"
141,"0532 JACKSON CREEK ROAD","WINNSBORO","SC",29180,34.276302856,-81.153862079,141,"0532 JACKSON CREEK ROAD, WINNSBORO, SC, 29180","Match","Exact","532 JACKSON CREEK RD, WINNSBORO, SC, 29180",40610238,"R"
142,"0533 E 300N","LAPORTE","IN",46350,41.602630693,-86.724151482,142,"0533 E 300N, LAPORTE, IN, 46350","Match","Non_Exact","533 E ST, LAPORTE, IN, 46350",15407616,"R"
143,"05373 CR 12","BRYAN","OH",43506,41.489645786,-84.593347735,143,"05373 CR 12, BRYAN, OH, 43506","Match","Exact","5373 CO RD 12, BRYAN, OH, 43506",207468059,"L"
144,"0542 W 400 S","HARTFORD CITY","IN",47348,NA,NA,144,"0542 W 400 S, HARTFORD CITY, IN, 47348","Tie",NA,NA,NA,NA
145,"05471 23 1/2 STREET","GOBLES","MI",49055,42.3985899840001,-85.779096711,145,"05471 23 1/2 STREET, GOBLES, MI, 49055","Match","Exact","5471 23 1/2 ST, GOBLES, MI, 49055",34753702,"R"
146,"05471 23 1/3 STREET","GOBLES","MI",49055,NA,NA,146,"05471 23 1/3 STREET, GOBLES, MI, 49055","No_Match",NA,NA,NA,NA
147,"05520 HORTON CREEK DR","CHARLEVOIX","MI",49720,45.278789933,-85.087824439,147,"05520 HORTON CREEK DR, CHARLEVOIX, MI, 49720","Match","Non_Exact","5520 HORTON CREEK RD, CHARLEVOIX, MI, 49720",640069943,"L"
148,"056 MARYLAND AVE N","BROOKLYN PARK","MN",55428,NA,NA,148,"056 MARYLAND AVE N, BROOKLYN PARK, MN, 55428","No_Match",NA,NA,NA,NA
149,"0563 N 600 E","MILL CREEK","IN",46365,41.618751489,-86.5816998509999,149,"0563 N 600 E, MILL CREEK, IN, 46365","Match","Exact","563 N 600 E, MILL CREEK, IN, 46365",633633886,"R"
150,"05675 CHURCH ROAD","BOYNE CITY","MI",49712,45.3212669800001,-85.090446802,150,"05675 CHURCH ROAD, BOYNE CITY, MI, 49712","Match","Exact","5675 CHURCH RD, BOYNE CITY, MI, 49712",134502512,"R"
151,"05770 STEPHENS ROAD","CHARLEVOIX","MI",49720,45.2897511260001,-85.10782934,151,"05770 STEPHENS ROAD, CHARLEVOIX, MI, 49720","Match","Exact","5770 STEPHENS RD, CHARLEVOIX, MI, 49720",134502292,"R"
152,"0591 FRISCO CREEK DRIVE","DEL NORTE","CO",81132,37.666511643,-106.343452118,152,"0591 FRISCO CREEK DRIVE, DEL NORTE, CO, 81132","Match","Exact","591 FRISCO CREEK DR, DEL NORTE, CO, 81132",104349794,"L"
153,"05975 MILES RD","EAST JORDAN","MI",49727,45.118275442,-85.198190123,153,"05975 MILES RD, EAST JORDAN, MI, 49727","Match","Exact","5975 MILES RD, EAST JORDAN, MI, 49727",134500022,"L"
154,"06","LOS ANGELES","CA",90010,NA,NA,154,"06, LOS ANGELES, CA, 90010","No_Match",NA,NA,NA,NA
155,"0615 SW PALATINE HILL ROAD","PORTLAND","OR",97219,45.4500824100001,-122.672570033,155,"0615 SW PALATINE HILL ROAD, PORTLAND, OR, 97219","Match","Exact","615 SW PALATINE HILL RD, PORTLAND, OR, 97219",157526132,"L"
156,"0630 N 400 E","LAGRANGE","IN",46761,41.652593817,-85.348883179,156,"0630 N 400 E, LAGRANGE, IN, 46761","Match","Exact","630 N 400 E, LAGRANGE, IN, 46761",8187223,"L"
157,"06474 BOYNE CITY RD","CHARLEVOIX","MI",49720,45.284421299,-85.108260905,157,"06474 BOYNE CITY RD, CHARLEVOIX, MI, 49720","Match","Exact","6474 BOYNE CITY RD, CHARLEVOIX, MI, 49720",134498167,"R"
158,"0650 SW GAINES ST 1013","PORTLAND","OR",97201,NA,NA,158,"0650 SW GAINES ST 1013, PORTLAND, OR, 97201","No_Match",NA,NA,NA,NA
159,"06504 CR 43","HOLYOKE","CO",80734,40.482244425,-102.263029164,159,"06504 CR 43, HOLYOKE, CO, 80734","Match","Exact","6504 CO RD 43, HOLYOKE, CO, 80734",649644155,"R"
160,"06573 SOUTHLAND ROAD","NEW KNOXVILLE","OH",45871,40.481141764,-84.327213128,160,"06573 SOUTHLAND ROAD, NEW KNOXVILLE, OH, 45871","Match","Exact","6573 SOUTHLAND RD, NEW KNOXVILLE, OH, 45871",36428659,"L"
161,"06573","NEW KNOXVILLE","OH",45871,NA,NA,161,"06573, NEW KNOXVILLE, OH, 45871","No_Match",NA,NA,NA,NA
162,"06577 ST MARYS KOSSUTH RD","SAINT MARYS","OH",45885,40.6191085510001,-84.330472598,162,"06577 ST MARYS KOSSUTH RD, SAINT MARYS, OH, 45885","Match","Exact","6577 SAINT MARYS KOSSUTH RD, SAINT MARYS, OH, 45885",209203860,"L"
163,"067 BUFFALO HILL RD","JEMEZ PUEBLO","NM",87024,35.6103067220001,-106.724350511,163,"067 BUFFALO HILL RD, JEMEZ PUEBLO, NM, 87024","Match","Exact","67 BUFFALO HILL RD, JEMEZ PUEBLO, NM, 87024",194023567,"L"
164,"0677 SW LOWELL ST","PORTLAND","OR",97239,45.493812962,-122.671226699,164,"0677 SW LOWELL ST, PORTLAND, OR, 97239","Match","Exact","677 SW LOWELL ST, PORTLAND, OR, 97239",647832448,"L"
165,"068 WASHINGTON STREET","BALDWIN","NY",11510,40.6329680920001,-73.612607453,165,"068 WASHINGTON STREET, BALDWIN, NY, 11510","Match","Exact","68 WASHINGTON ST, BALDWIN, NY, 11510",147637973,"R"
166,"06878 STATE ROUTE 364","NEW BREMEN","OH",45869,40.448836913,-84.434003398,166,"06878 STATE ROUTE 364, NEW BREMEN, OH, 45869","Match","Exact","6878 STATE RTE 364, NEW BREMEN, OH, 45869",640339352,"R"
167,"07 SUMMERWOOD DR APT 607","CLARKSTON","GA",30021,NA,NA,167,"07 SUMMERWOOD DR APT 607, CLARKSTON, GA, 30021","No_Match",NA,NA,NA,NA
168,"07 WEST 6TH STREET","WEST JEFFERSON","NC",28694,36.4074831770001,-81.494864126,168,"07 WEST 6TH STREET, WEST JEFFERSON, NC, 28694","Match","Exact","7 W 6TH ST, W JEFFERSON, NC, 28694",154031989,"L"
169,"0701 CANYON CRRED ROAD","GLENWOOD SPRINGS","CO",81601,NA,NA,169,"0701 CANYON CRRED ROAD, GLENWOOD SPRINGS, CO, 81601","No_Match",NA,NA,NA,NA
170,"0721 LANE 2 NORTH","ALAMOSA","CO",81101,37.6035551620001,-106.021051652,170,"0721 LANE 2 NORTH, ALAMOSA, CO, 81101","Match","Non_Exact","721 LN 2 N, ALAMOSA, CO, 81101",104179995,"L"
171,"0751 N 0475 W BX 74","MANTI","UT",84642,NA,NA,171,"0751 N 0475 W BX 74, MANTI, UT, 84642","No_Match",NA,NA,NA,NA
172,"07678 OPENLANDER ROAD","SHERWOOD","OH",43556,41.333227105,-84.592099315,172,"07678 OPENLANDER ROAD, SHERWOOD, OH, 43556","Match","Exact","7678 OPENLANDER RD, SHERWOOD, OH, 43556",207558431,"L"
173,"07733 EGLER ROAD","DEFIANCE","OH",43512,41.3300206760001,-84.24677237,173,"07733 EGLER ROAD, DEFIANCE, OH, 43512","Match","Exact","7733 EGLER RD, DEFIANCE, OH, 43512",6695380,"R"
174,"08 NW 6TH STREET","BENTONVILLE","AR",72712,NA,NA,174,"08 NW 6TH STREET, BENTONVILLE, AR, 72712","No_Match",NA,NA,NA,NA
175,"08 WORCHESTER AVE","MIDDLETOWN","DE",19734,NA,NA,175,"08 WORCHESTER AVE, MIDDLETOWN, DE, 19734","No_Match",NA,NA,NA,NA
176,"08064 EASTERN AVENUE","CHARLEVOIX","MI",49720,45.3253082030001,-85.21960202,176,"08064 EASTERN AVENUE, CHARLEVOIX, MI, 49720","Match","Exact","8064 EASTERN AVE, CHARLEVOIX, MI, 49720",636261658,"R"
177,"08166 MCSAUBA ROAD","CHARLEVOIX","MI",49720,45.3270350500001,-85.251728826,177,"08166 MCSAUBA ROAD, CHARLEVOIX, MI, 49720","Match","Exact","8166 MCSAUBA RD, CHARLEVOIX, MI, 49720",134483407,"R"
178,"08568 MERCER ROAD","CHARLEVOIX","MI",49720,45.3291280670001,-85.2404965599999,178,"08568 MERCER ROAD, CHARLEVOIX, MI, 49720","Match","Exact","8568 MERCER RD, CHARLEVOIX, MI, 49720",647566468,"R"
179,"08652 CENTER RD","NEW KNOXVILLE","OH",45871,40.5109854610001,-84.285395659,179,"08652 CENTER RD, NEW KNOXVILLE, OH, 45871","Match","Exact","8652 CENTER RD, NEW KNOXVILLE, OH, 45871",649028805,"R"
180,"0882 N 0325 W","MANTI","UT",84642,NA,NA,180,"0882 N 0325 W, MANTI, UT, 84642","No_Match",NA,NA,NA,NA
181,"09 W 132ND ST","OVERLAND PARK","KS",66213,NA,NA,181,"09 W 132ND ST, OVERLAND PARK, KS, 66213","No_Match",NA,NA,NA,NA
182,"09138 RIVERBEND DRIVE","SOUTH HAVEN","MI",49090,42.3846651170001,-86.210846949,182,"09138 RIVERBEND DRIVE, SOUTH HAVEN, MI, 49090","Match","Exact","9138 RIVERBEND DR, SOUTH HAVEN, MI, 49090",34748130,"L"
183,"09270 KETTLERSVILLE ROAD","NEW KNOXVILLE","OH",45871,40.48671613,-84.259549527,183,"09270 KETTLERSVILLE ROAD, NEW KNOXVILLE, OH, 45871","Match","Exact","9270 KETTLERSVILLE RD, NEW KNOXVILLE, OH, 45871",209201332,"R"
184,"0934 KOEHN RD","ST MARYS","OH",45885,40.5058457920001,-84.43585117,184,"0934 KOEHN RD, ST MARYS, OH, 45885","Match","Exact","934 KOEHN RD, SAINT MARYS, OH, 45885",36420820,"L"
185,"09404 73RD","SOUTH HAVEN","MI",49090,42.388439356,-86.254287769,185,"09404 73RD, SOUTH HAVEN, MI, 49090","Match","Non_Exact","9404 73RD ST, SOUTH HAVEN, MI, 49090",34747790,"L"
186,"095B YELLOWSTONE RD","WRIGHTWOOD","CA",92397,NA,NA,186,"095B YELLOWSTONE RD, WRIGHTWOOD, CA, 92397","No_Match",NA,NA,NA,NA
187,"09701 ST RT 107 LOT 13","MONTPELIER","OH",43543,41.58634743,-84.639380205,187,"09701 ST RT 107 LOT 13, MONTPELIER, OH, 43543","Match","Non_Exact","9701 STATE RTE 107, MONTPELIER, OH, 43543",649954610,"R"
188,"09711 SANTA FE LINE ROAD","WAPAKONETA","OH",45895,40.4927752230001,-83.9938608639999,188,"09711 SANTA FE LINE ROAD, WAPAKONETA, OH, 45895","Match","Exact","9711 SANTA FE LINE RD, WAPAKONETA, OH, 45895",635637079,"L"
189,"0994 CR 28","CORUNNA","IN",46730,41.4247410140001,-85.148282072,189,"0994 CR 28, CORUNNA, IN, 46730","Match","Exact","994 CO RD 28, CORUNNA, IN, 46730",6512923,"R"
190,"0AK STREET","NEWARK","NJ",7106,NA,NA,190,"0AK STREET, NEWARK, NJ, 7106","No_Match",NA,NA,NA,NA
191,"0N054 CEDAR CT","WINFIELD","IL",60190,41.873789215,-88.1428077849999,191,"0N054 CEDAR CT, WINFIELD, IL, 60190","Match","Exact","0N54 CEDAR CT, WINFIELD, IL, 60190",112594764,"R"
192,"0N080 PIERCE AVENUE","WHEATON","IL",60187,41.8742975970001,-88.128241078,192,"0N080 PIERCE AVENUE, WHEATON, IL, 60187","Match","Exact","0N80 PIERCE AVE, WHEATON, IL, 60187",635446897,"L"
193,"0N151 WINDERMERE RD UNIT 1004","WINFIELD","IL",60190,41.876316155,-88.159871876,193,"0N151 WINDERMERE RD UNIT 1004, WINFIELD, IL, 60190","Match","Exact","0N151 WINDERMERE RD, WINFIELD, IL, 60190",112579923,"R"
194,"0N295B DOOLEY DRIVE UNIT G3","GENEVA","IL",60134,NA,NA,194,"0N295B DOOLEY DRIVE UNIT G3, GENEVA, IL, 60134","No_Match",NA,NA,NA,NA
195,"0N325 ARMSTRONG LN","GENEVA","IL",60134,NA,NA,195,"0N325 ARMSTRONG LN, GENEVA, IL, 60134","Tie",NA,NA,NA,NA
196,"0N338 FEECE CT","GENEVA","IL",60134,41.8735707530001,-88.370128017,196,"0N338 FEECE CT, GENEVA, IL, 60134","Match","Exact","FEECE CT, GENEVA, IL, 60134",624340612,"R"
197,"0N451 PETER RD","WINFIELD","IL",60190,41.8802675760001,-88.139737961,197,"0N451 PETER RD, WINFIELD, IL, 60190","Match","Exact","0N451 PETER RD, WINFIELD, IL, 60190",647514219,"R"
198,"0N457 CLOOS CT","WINFIELD","IL",60190,41.880437536,-88.1501834699999,198,"0N457 CLOOS CT, WINFIELD, IL, 60190","Match","Exact","0N457 CLOOS CT, WINFIELD, IL, 60190",112521077,"L"
199,"0N519 DOBSON LN","GENEVA","IL",60134,41.875476195,-88.37020777,199,"0N519 DOBSON LN, GENEVA, IL, 60134","Match","Exact","0N519 DOBSON LN, GENEVA, IL, 60134",624340610,"L"
200,"0N550 WELLINGTON CT","GENEVA","IL",60134,41.8761270730001,-88.3962130259999,200,"0N550 WELLINGTON CT, GENEVA, IL, 60134","Match","Exact","0N550 WELLINGTON CT, GENEVA, IL, 60134",640736090,"R"
201,"0N553 ARMSTRONG LANE","GENEVA","IL",60134,NA,NA,201,"0N553 ARMSTRONG LANE, GENEVA, IL, 60134","Tie",NA,NA,NA,NA
202,"0N560 WELLINGTON CT","GENEVA","IL",60134,41.87613371,-88.396258157,202,"0N560 WELLINGTON CT, GENEVA, IL, 60134","Match","Exact","0N560 WELLINGTON CT, GENEVA, IL, 60134",640736090,"R"
203,"0N623 COURTNEY LANE","WINFIELD","IL",60190,NA,NA,203,"0N623 COURTNEY LANE, WINFIELD, IL, 60190","No_Match",NA,NA,NA,NA
204,"0N751 WOODS AVE","WHEATON","IL",60187,41.886401735,-88.1434110879999,204,"0N751 WOODS AVE, WHEATON, IL, 60187","Match","Exact","0N751 WOODS AVE, WHEATON, IL, 60187",112517953,"R"
205,"0NE 46TH ST","WEEHAWKEN","NJ",7086,NA,NA,205,"0NE 46TH ST, WEEHAWKEN, NJ, 7086","No_Match",NA,NA,NA,NA
206,"0S161 WILLIS CIRCLE","GENEVA","IL",60134,41.8660278740001,-88.388623556,206,"0S161 WILLIS CIRCLE, GENEVA, IL, 60134","Match","Exact","0S161 WILLIS CIR, GENEVA, IL, 60134",119580687,"R"
207,"0S360 ELLITHORPE LANE","GENEVA","IL",60134,NA,NA,207,"0S360 ELLITHORPE LANE, GENEVA, IL, 60134","No_Match",NA,NA,NA,NA
208,"0S466","WINFIELD","IL",60190,NA,NA,208,"0S466, WINFIELD, IL, 60190","No_Match",NA,NA,NA,NA
209,"0S530 SUMMIT DRIVE","WINFIELD","IL",60190,41.8620038670001,-88.162058681,209,"0S530 SUMMIT DRIVE, WINFIELD, IL, 60190","Match","Exact","0S530 SUMMIT DR, WINFIELD, IL, 60190",112527047,"R"
210,"0S564 BRANFORD LN","GENEVA","IL",60134,NA,NA,210,"0S564 BRANFORD LN, GENEVA, IL, 60134","No_Match",NA,NA,NA,NA
211,"0S582 JEFFERSON ST","WINFIELD","IL",60190,NA,NA,211,"0S582 JEFFERSON ST, WINFIELD, IL, 60190","Tie",NA,NA,NA,NA
212,"0S620 VILLA AVE","VILLA PARK","IL",60181,41.8625822990001,-87.96822429,212,"0S620 VILLA AVE, VILLA PARK, IL, 60181","Match","Exact","0S620 VILLA AVE, VILLA PARK, IL, 60181",112735035,"R"
213,"1  25TH AVENUE","SAN FRANCISCO","CA",94121,37.7895614380001,-122.485746574,213,"1  25TH AVENUE, SAN FRANCISCO, CA, 94121","Match","Exact","1 25TH AVE, SAN FRANCISCO, CA, 94121",192276425,"R"
214,"1  E  CHASE  STREET  STE  213","BALTIMORE","MD",21202,39.302403321,-76.615915791,214,"1  E  CHASE  STREET  STE  213, BALTIMORE, MD, 21202","Match","Non_Exact","1 E CHASE ST, BALTIMORE, MD, 21202",642142032,"R"
215,"1  ELDERBERRY  LINE  APT 110","READING","MA",1867,42.5575462300001,-71.105922699,215,"1  ELDERBERRY  LINE  APT 110, READING, MA, 1867","Match","Non_Exact","1 ELDERBERRY LN, READING, MA, 01867",87121815,"R"
216,"1  RIDGEWOOD DRIVE","PLEASANTVILLE","NY",10570,41.126226956,-73.7957638789999,216,"1  RIDGEWOOD DRIVE, PLEASANTVILLE, NY, 10570","Match","Exact","1 RIDGEWOOD DR, PLEASANTVILLE, NY, 10570",139840768,"L"
217,"1 - B MEADOWCREST ROAD","HOOKSETT","NH",3106,43.0681475150001,-71.4684305869999,217,"1 - B MEADOWCREST ROAD, HOOKSETT, NH, 3106","Match","Exact","1 MEADOWCREST RD, HOOKSETT, NH, 03106",117723146,"R"
218,"1 1/2 OPUS DRIVE","NEWARK","DE",19702,39.6494415240001,-75.671627674,218,"1 1/2 OPUS DRIVE, NEWARK, DE, 19702","Match","Exact","1 OPUS DR, NEWARK, DE, 19702",187281401,"R"
219,"1 12TH STREET SUITE 10","ASTORIA","OR",97103,46.1899879640001,-123.830151697,219,"1 12TH STREET SUITE 10, ASTORIA, OR, 97103","Match","Exact","1 12TH ST, ASTORIA, OR, 97103",159244644,"L"
220,"1 13 1 MATOBA-KITA KAWAGOE","SATIMA JAPAN",NA,NA,NA,NA,220,"1 13 1 MATOBA-KITA KAWAGOE, SATIMA JAPAN, , ","No_Match",NA,NA,NA,NA
221,"1 13 GRUNWALD","ST JOHN","VI",830,NA,NA,221,"1 13 GRUNWALD, ST JOHN, VI, 830","No_Match",NA,NA,NA,NA
222,"1 14TH STREET","HOBOKEN","NJ",7030,40.752770867,-74.02360126,222,"1 14TH STREET, HOBOKEN, NJ, 7030","Match","Exact","1 14TH ST, HOBOKEN, NJ, 07030",642616208,"R"
223,"1 16TH STREET UNIT C","SAINT AUGUSTINE","FL",32080,29.855299761,-81.265841192,223,"1 16TH STREET UNIT C, SAINT AUGUSTINE, FL, 32080","Match","Exact","1 16TH ST, SAINT AUGUSTINE, FL, 32080",92585626,"R"
224,"1 18TH AVE","PAGE","AZ",86040,36.9306783060001,-111.461128651,224,"1 18TH AVE, PAGE, AZ, 86040","Match","Exact","1 18TH AVE, PAGE, AZ, 86040",188942898,"R"
225,"1 2362 OLD LAWSON CREEK RD","DOUGLAS","AK",99824,58.284889461,-134.409460902,225,"1 2362 OLD LAWSON CREEK RD, DOUGLAS, AK, 99824","Match","Exact","2362 OLD LAWSON CREEK RD, DOUGLAS, AK, 99824",190964416,"R"
226,"1 2ND EAST STREET","NEW YORK","NY",10003,NA,NA,226,"1 2ND EAST STREET, NEW YORK, NY, 10003","No_Match",NA,NA,NA,NA
227,"1 2ND STREET APT 608","JERSEY CITY","NJ",7302,NA,NA,227,"1 2ND STREET APT 608, JERSEY CITY, NJ, 7302","No_Match",NA,NA,NA,NA
228,"1 2ND STREET APT 909","JERSEY CITY","NJ",7302,NA,NA,228,"1 2ND STREET APT 909, JERSEY CITY, NJ, 7302","No_Match",NA,NA,NA,NA
229,"1 425 PARK AVENUE SOUTH 10B","NEW YORK CITY","NY",10010,40.744051073,-73.9835409999999,229,"1 425 PARK AVENUE SOUTH 10B, NEW YORK CITY, NY, 10010","Match","Non_Exact","425 PARK AVE S, NEW YORK, NY, 10016",59654407,"R"
230,"1 55TH PLACE SOUTH","BIRMINGHAM","AL",35212,33.539352582,-86.751135039,230,"1 55TH PLACE SOUTH, BIRMINGHAM, AL, 35212","Match","Exact","1 55TH PL S, BIRMINGHAM, AL, 35212",81578684,"L"
231,"1 7 LEHIGH AVENUE","NEWARK","NJ",7112,NA,NA,231,"1 7 LEHIGH AVENUE, NEWARK, NJ, 7112","No_Match",NA,NA,NA,NA
232,"1 7TH STREET STE 1401","AUGUSTA","GA",30901,33.476565088,-81.96231449,232,"1 7TH STREET STE 1401, AUGUSTA, GA, 30901","Match","Exact","1 7TH ST, AUGUSTA, GA, 30901",55641361,"R"
233,"1 A  30TH AVENUE","ISLE OF PALMS","SC",29451,32.793436484,-79.772017348,233,"1 A  30TH AVENUE, ISLE OF PALMS, SC, 29451","Match","Exact","1 30TH AVE, ISLE OF PALMS, SC, 29451",108810250,"L"
234,"1 A MAIN STREET","EAST WINDOSR","NJ",8520,40.2801761540001,-74.5327622579999,234,"1 A MAIN STREET, EAST WINDOSR, NJ, 8520","Match","Non_Exact","1 MAIN ST, EAST WINDSOR, NJ, 08520",60219279,"L"
235,"1 AAA DRIVE SUITE 203","TRENTON","NJ",8691,40.2064327780001,-74.629979614,235,"1 AAA DRIVE SUITE 203, TRENTON, NJ, 8691","Match","Exact","1 AAA DR, TRENTON, NJ, 08691",60204284,"L"
236,"1 AARON COURT","BETHPAGE","NY",11714,40.760095843,-73.472590247,236,"1 AARON COURT, BETHPAGE, NY, 11714","Match","Non_Exact","1 ARON CT, BETHPAGE, NY, 11714",147642997,"L"
237,"1 ABBEY DRIVE","ST. BENEDICT","OR",97373,45.0585332220001,-122.778962303,237,"1 ABBEY DRIVE, ST. BENEDICT, OR, 97373","Match","Exact","1 ABBEY DR, SAINT BENEDICT, OR, 97373",636185393,"R"
238,"1 ABBEY SAWYER MEMORIAL HIGHWAY","DOVER","NH",3820,43.2110669360001,-70.874166512,238,"1 ABBEY SAWYER MEMORIAL HIGHWAY, DOVER, NH, 3820","Match","Exact","1 ABBEY SAWYER MEM HWY, DOVER, NH, 03820",635539267,"R"
239,"1 ABBOTT PLACE","PORTSMOUTH","VA",23702,36.805592022,-76.3172034,239,"1 ABBOTT PLACE, PORTSMOUTH, VA, 23702","Match","Exact","1 ABBOTT PL, PORTSMOUTH, VA, 23702",122195662,"R"
240,"1 ABBOTT ROAD UNIT 123","ELLINGTON","CT",6029,41.878445653,-72.4991647369999,240,"1 ABBOTT ROAD UNIT 123, ELLINGTON, CT, 6029","Match","Exact","1 ABBOTT RD, ELLINGTON, CT, 06029",623768566,"R"
241,"1 ABBY COURT","MORICHES","NY",11955,40.798230211,-72.821742816,241,"1 ABBY COURT, MORICHES, NY, 11955","Match","Exact","1 ABBY CT, MORICHES, NY, 11955",114273983,"R"
242,"1 ABBY LANE","MASTIC","NY",11950,40.789471679,-72.830515374,242,"1 ABBY LANE, MASTIC, NY, 11950","Match","Exact","1 ABBY LN, MASTIC, NY, 11950",114058393,"L"
243,"1 ABEL DR","FREDERICKSBURG","VA",22406,38.4115611230001,-77.50396455,243,"1 ABEL DR, FREDERICKSBURG, VA, 22406","Match","Exact","1 ABEL DR, FREDERICKSBURG, VA, 22406",25564053,"L"
244,"1 ABRAMS HILL","KINGSTON","MA",2364,41.9944493840001,-70.727629112,244,"1 ABRAMS HILL, KINGSTON, MA, 2364","Match","Exact","1 ABRAMS HILL, KINGSTON, MA, 02364",87468715,"L"
245,"1 ACE DRIVE","ROMNEY","WV",26757,39.3264486350001,-78.692649398,245,"1 ACE DRIVE, ROMNEY, WV, 26757","Match","Exact","1 ACE DR, ROMNEY, WV, 26757",56066473,"L"
246,"1 ACORN LANE","PLAINVIEW","NY",11803,40.7871790950001,-73.496417919,246,"1 ACORN LANE, PLAINVIEW, NY, 11803","Match","Exact","1 ACORN LN, PLAINVIEW, NY, 11803",147641973,"L"
247,"1 ADA SUITE 200","IRVINE","CA",92618,33.6542322980001,-117.73734504,247,"1 ADA SUITE 200, IRVINE, CA, 92618","Match","Exact","1 ADA, IRVINE, CA, 92618",629884071,"R"
248,"1 ADAMS AVE","BAYVILLE","NY",11709,40.9095672290001,-73.554022555,248,"1 ADAMS AVE, BAYVILLE, NY, 11709","Match","Exact","1 ADAMS AVE, BAYVILLE, NY, 11709",147654744,"L"
249,"1 ADRIENNE PLACE","CANTON","MA",2021,42.185331493,-71.122793723,249,"1 ADRIENNE PLACE, CANTON, MA, 2021","Match","Non_Exact","1 ADRIENNE DR, CANTON, MA, 02021",87266432,"L"
250,"1 AIREY COURT","JB ANDREWS","MD",20762,NA,NA,250,"1 AIREY COURT, JB ANDREWS, MD, 20762","No_Match",NA,NA,NA,NA
251,"1 AIRPARK WAY","ONEIDA","TN",37841,NA,NA,251,"1 AIRPARK WAY, ONEIDA, TN, 37841","No_Match",NA,NA,NA,NA
252,"1 AJAX DRIVE SUITE 102","MADISON HEIGHTS","MI",48071,42.511373077,-83.106556008,252,"1 AJAX DRIVE SUITE 102, MADISON HEIGHTS, MI, 48071","Match","Exact","1 AJAX DR, MADISON HEIGHTS, MI, 48071",69744754,"R"
253,"1 ALAMO","SANTA ROSA","CA",95407,NA,NA,253,"1 ALAMO, SANTA ROSA, CA, 95407","No_Match",NA,NA,NA,NA
254,"1 ALAVA LANE","HOT SPRINGS VILLAGE","AR",71909,34.641839277,-92.997240119,254,"1 ALAVA LANE, HOT SPRINGS VILLAGE, AR, 71909","Match","Exact","1 ALAVA LN, HOT SPRINGS VILLAGE, AR, 71909",22747195,"L"
255,"1 ALBERT STREET","OAKFIELD","NY",14125,43.0687866580001,-78.276371156,255,"1 ALBERT STREET, OAKFIELD, NY, 14125","Match","Exact","1 ALBERT ST, OAKFIELD, NY, 14125",48143176,"R"
256,"1 ALBERT STREET","POMPTON PLAINS","NJ",7444,NA,NA,256,"1 ALBERT STREET, POMPTON PLAINS, NJ, 7444","No_Match",NA,NA,NA,NA
257,"1 ALBERTSON AVE","BLAIRSTOWN","NJ",7825,40.9378060220001,-74.946366758,257,"1 ALBERTSON AVE, BLAIRSTOWN, NJ, 7825","Match","Exact","1 ALBERTSON AVE, BLAIRSTOWN, NJ, 07825",98107921,"L"
258,"1 ALDEN ROAD","EAST ROCKAWAY","NY",11518,40.6433595300001,-73.673366885,258,"1 ALDEN ROAD, EAST ROCKAWAY, NY, 11518","Match","Exact","1 ALDEN RD, EAST ROCKAWAY, NY, 11518",147679764,"R"
259,"1 ALEX COURT","MONROE","NJ",8831,40.357116569,-74.406104177,259,"1 ALEX COURT, MONROE, NJ, 8831","Match","Exact","1 ALEX CT, MONROE, NJ, 08831",632412727,"L"
260,"1 ALEXANDER ST APT 232C","YONKERS","NY",10701,40.936018038,-73.9027351999999,260,"1 ALEXANDER ST APT 232C, YONKERS, NY, 10701","Match","Exact","1 ALEXANDER ST, YONKERS, NY, 10701",634269230,"R"
261,"1 ALEXANDER ST","YONKERS","NY",10701,40.936018038,-73.9027351999999,261,"1 ALEXANDER ST, YONKERS, NY, 10701","Match","Exact","1 ALEXANDER ST, YONKERS, NY, 10701",634269230,"R"
262,"1 ALEXANDER STREET  APT 118","YONKERS","NY",10701,40.936018038,-73.9027351999999,262,"1 ALEXANDER STREET  APT 118, YONKERS, NY, 10701","Match","Exact","1 ALEXANDER ST, YONKERS, NY, 10701",634269230,"R"
263,"1 ALEXANDER STREET APT 118","YONKERS","NY",10701,40.936018038,-73.9027351999999,263,"1 ALEXANDER STREET APT 118, YONKERS, NY, 10701","Match","Exact","1 ALEXANDER ST, YONKERS, NY, 10701",634269230,"R"
264,"1 ALEXANDER STREET","YONKERS","NY",10701,40.936018038,-73.9027351999999,264,"1 ALEXANDER STREET, YONKERS, NY, 10701","Match","Exact","1 ALEXANDER ST, YONKERS, NY, 10701",634269230,"R"
265,"1 ALFRED MILEY AVE","SHEBOYGAN FALLS","WI",53085,43.7376115590001,-87.804373616,265,"1 ALFRED MILEY AVE, SHEBOYGAN FALLS, WI, 53085","Match","Exact","1 ALFRED MILEY AVE, SHEBOYGAN FALLS, WI, 53085",624878998,"L"
266,"1 ALFREDSON LA","SHERMAN","CT",6784,41.589703404,-73.498083515,266,"1 ALFREDSON LA, SHERMAN, CT, 6784","Match","Exact","1 ALFREDSON LN, SHERMAN, CT, 06784",3285869,"L"
267,"1 ALHAMBRA CIR APT 307","CORAL GABLES","GA",33134,NA,NA,267,"1 ALHAMBRA CIR APT 307, CORAL GABLES, GA, 33134","No_Match",NA,NA,NA,NA
268,"1 ALHAMBRA CIRCLE APT 307","CORAL GABLES","FL",33134,25.755962455,-80.254844407,268,"1 ALHAMBRA CIRCLE APT 307, CORAL GABLES, FL, 33134","Match","Exact","1 ALHAMBRA CIR, CORAL GABLES, FL, 33134",116011956,"R"
269,"1 ALL AMERICAN WAY","FORT BRAGG","NC",28310,NA,NA,269,"1 ALL AMERICAN WAY, FORT BRAGG, NC, 28310","No_Match",NA,NA,NA,NA
270,"1 ALLEGRE COURT","LOS LUNAS","NM",87031,34.777846083,-106.70263334,270,"1 ALLEGRE COURT, LOS LUNAS, NM, 87031","Match","Non_Exact","1 ALEGRE CT, LOS LUNAS, NM, 87031",179193759,"L"
271,"1 ALLEN ST","LYNBROOK","NY",11563,40.662936975,-73.661312338,271,"1 ALLEN ST, LYNBROOK, NY, 11563","Match","Exact","1 ALLEN ST, LYNBROOK, NY, 11563",147675568,"L"
272,"1 ALMY DRIVE","MALVERN","PA",19355,40.0598270090001,-75.557366265,272,"1 ALMY DRIVE, MALVERN, PA, 19355","Match","Exact","1 ALMY DR, MALVERN, PA, 19355",179506604,"L"
273,"1 ALPHA DRIVE","ELIZABETHTOWN","PA",17022,40.149414678,-76.5935846089999,273,"1 ALPHA DRIVE, ELIZABETHTOWN, PA, 17022","Match","Exact","1 ALPHA DR, ELIZABETHTOWN, PA, 17022",649453929,"R"
274,"1 ALPNIE LOOP","WEST DOVER","VT",5356,42.9493692520001,-72.88826598,274,"1 ALPNIE LOOP, WEST DOVER, VT, 5356","Match","Non_Exact","1 ALPINE LOOP, WEST DOVER, VT, 05356",171104684,"L"
275,"1 ALVIN DR","GREENVILLE","SC",29605,34.795515381,-82.386493988,275,"1 ALVIN DR, GREENVILLE, SC, 29605","Match","Exact","1 ALVIN DR, GREENVILLE, SC, 29605",38305368,"R"
276,"1 AMBER LANE","GROVELAND","MA",1834,42.756572272,-71.008098756,276,"1 AMBER LANE, GROVELAND, MA, 1834","Match","Exact","1 AMBER LN, GROVELAND, MA, 01834",625003543,"R"
277,"1 AMBER LANE","NORTHAMPTON","MA",1060,42.3182935950001,-72.63207384,277,"1 AMBER LANE, NORTHAMPTON, MA, 1060","Match","Exact","1 AMBER LN, NORTHAMPTON, MA, 01060",627057770,"L"
278,"1 AMBER LEAF DR","VICKSBURG","MS",39180,32.3481087810001,-90.7785775949999,278,"1 AMBER LEAF DR, VICKSBURG, MS, 39180","Match","Exact","1 AMBER LEAF DR, VICKSBURG, MS, 39180",71294839,"L"
279,"1 AMBIANA AVENUE","RAYMOND","ME",4071,NA,NA,279,"1 AMBIANA AVENUE, RAYMOND, ME, 4071","No_Match",NA,NA,NA,NA
280,"1 AMBOY ROAD","MATAWAN","NJ",7747,40.409008575,-74.2541537239999,280,"1 AMBOY ROAD, MATAWAN, NJ, 7747","Match","Exact","1 AMBOY RD, MATAWAN, NJ, 07747",60286367,"R"
281,"1 AMERICAN BLVD","EAU CLAIRE","WI",54701,44.7930522360001,-91.5336862939999,281,"1 AMERICAN BLVD, EAU CLAIRE, WI, 54701","Match","Exact","1 AMERICAN BLVD, EAU CLAIRE, WI, 54701",46066938,"R"
282,"1 AMESBURY DRIVE","SIMPSONVILLE","SC",29681,NA,NA,282,"1 AMESBURY DRIVE, SIMPSONVILLE, SC, 29681","No_Match",NA,NA,NA,NA
283,"1 AMHERST ST E40-160","CAMBRIDGE","MA",2142,42.3610678220001,-71.0844678619999,283,"1 AMHERST ST E40-160, CAMBRIDGE, MA, 2142","Match","Exact","1 AMHERST ST, CAMBRIDGE, MA, 02142",86871154,"R"
284,"1 AMITY COURT","PITTSFORD","NY",14534,43.0629727360001,-77.464979722,284,"1 AMITY COURT, PITTSFORD, NY, 14534","Match","Exact","1 AMITY CT, PITTSFORD, NY, 14534",14548011,"L"
285,"1 AMSDEN ST","LEBANON","NH",3766,43.6468238040001,-72.256797234,285,"1 AMSDEN ST, LEBANON, NH, 3766","Match","Exact","1 AMSDEN ST, LEBANON, NH, 03766",145660346,"L"
286,"1 AMY STREET","PROVIDENCE","RI",2906,41.825017884,-71.392335997,286,"1 AMY STREET, PROVIDENCE, RI, 2906","Match","Exact","1 AMY ST, PROVIDENCE, RI, 02906",47467682,"R"
287,"1 AMY WAY","WAYNE","NJ",7470,40.932788986,-74.2093050559999,287,"1 AMY WAY, WAYNE, NJ, 7470","Match","Non_Exact","1 AMY, WAYNE, NJ, 07470",65273649,"R"
288,"1 ANCHORAGE LANE","MARBLEHEAD","MA",1945,42.5181761860001,-70.851462866,288,"1 ANCHORAGE LANE, MARBLEHEAD, MA, 1945","Match","Exact","1 ANCHORAGE LN, MARBLEHEAD, MA, 01945",86648855,"R"
289,"1 ANDERSON PL","WEBB CITY","MO",64870,37.129264332,-94.4880101049999,289,"1 ANDERSON PL, WEBB CITY, MO, 64870","Match","Exact","1 ANDERSON PL, WEBB CITY, MO, 64870",627732798,"L"
290,"1 ANGELAS WAY","BURLINGTON","CT",6013,41.756488608,-72.920232646,290,"1 ANGELAS WAY, BURLINGTON, CT, 6013","Match","Non_Exact","1 ANGELA'S WAY, BURLINGTON, CT, 06013",627062968,"L"
291,"1 ANGELL COURT","WARWICK","RI",2806,NA,NA,291,"1 ANGELL COURT, WARWICK, RI, 2806","No_Match",NA,NA,NA,NA
292,"1 ANNES LANE","GREENLAND","NH",3840,43.045026455,-70.824232965,292,"1 ANNES LANE, GREENLAND, NH, 3840","Match","Exact","1 ANNES LN, GREENLAND, NH, 03840",113665751,"R"
293,"1 ANTHONY WAY","CANTON","MA",1801,NA,NA,293,"1 ANTHONY WAY, CANTON, MA, 1801","No_Match",NA,NA,NA,NA
294,"1 APPIAN WAY UNIT 715-6","SOUTH SAN FRANCISCO","CA",94080,37.6431251330001,-122.450370565,294,"1 APPIAN WAY UNIT 715-6, SOUTH SAN FRANCISCO, CA, 94080","Match","Exact","1 APPIAN WAY, S SAN FRAN, CA, 94080",635506194,"L"
295,"1 APPLE COURT","NANUET","NY",10954,41.0778900540001,-73.9894130289999,295,"1 APPLE COURT, NANUET, NY, 10954","Match","Exact","1 APPLE CT, NANUET, NY, 10954",124597205,"L"
296,"1 APPLE LANE","CALIFON","NJ",7830,40.7154769970001,-74.772455107,296,"1 APPLE LANE, CALIFON, NJ, 7830","Match","Exact","1 APPLE LN, CALIFON, NJ, 07830",60026227,"L"
297,"1 APPLE MOUNTAIN RD","ESTANCIA","NM",87016,34.7996835660001,-106.257173238,297,"1 APPLE MOUNTAIN RD, ESTANCIA, NM, 87016","Match","Exact","1 APPLE MOUNTAIN RD, ESTANCIA, NM, 87016",611097771,"L"
298,"1 APPLE ORCHARD LANE","LAKE WYLIE","SC",29710,35.106221212,-81.06175508,298,"1 APPLE ORCHARD LANE, LAKE WYLIE, SC, 29710","Match","Exact","1 APPLE ORCHARD LN, LAKE WYLIE, SC, 29710",19788710,"L"
299,"1 APPLE RIDGE UNIT 2","MAYNARD","MA",1754,42.435027957,-71.474838905,299,"1 APPLE RIDGE UNIT 2, MAYNARD, MA, 1754","Match","Non_Exact","1 APPLE RIDGE RD, MAYNARD, MA, 01754",87098389,"L"
300,"1 APPLEWOOD LN","ELMER","NJ",8318,39.4974731620001,-75.127692592,300,"1 APPLEWOOD LN, ELMER, NJ, 8318","Match","Exact","1 APPLEWOOD LN, ELMER, NJ, 08318",174422164,"R"
301,"1 ARBOR CROSSING DR","KENNEBUNK","ME",4043,43.3877235840001,-70.551229308,301,"1 ARBOR CROSSING DR, KENNEBUNK, ME, 4043","Match","Exact","1 ARBOR CROSSING, KENNEBUNK, ME, 04043",627007547,"R"
302,"1 ARBOR DRIVE","NEW HARTFORD","NY",13413,43.0726087150001,-75.3277307609999,302,"1 ARBOR DRIVE, NEW HARTFORD, NY, 13413","Match","Exact","1 ARBOR DR, NEW HARTFORD, NY, 13413",171527181,"L"
303,"1 ARBOR FIELD CT","OLD WESTBURY","NY",11568,40.779409522,-73.5693569159999,303,"1 ARBOR FIELD CT, OLD WESTBURY, NY, 11568","Match","Exact","1 ARBOR FIELD CT, OLD WESTBURY, NY, 11568",636073752,"R"
304,"1 ARBORCREST ROAD","AMESBURY","MA",1913,42.8292970640001,-70.949206127,304,"1 ARBORCREST ROAD, AMESBURY, MA, 1913","Match","Exact","1 ARBORCREST RD, AMESBURY, MA, 01913",617055440,"R"
305,"1 ARCADIAN PARK","CHARLESTON","SC",29407,32.7894046770001,-79.9822048349999,305,"1 ARCADIAN PARK, CHARLESTON, SC, 29407","Match","Exact","1 ARCADIAN PARK, CHARLESTON, SC, 29407",647986600,"L"
306,"1 ARLENE DRIVE","WEST LONG BRANCH","NJ",7764,40.2896072500001,-74.032519441,306,"1 ARLENE DRIVE, WEST LONG BRANCH, NJ, 7764","Match","Non_Exact","1 S ARLENE DR, W LONG BRANCH, NJ, 07764",90460807,"R"
307,"1 ARLINGTON CT","SCOTCH PLAIN","NJ",7076,40.6221017890001,-74.3534800419999,307,"1 ARLINGTON CT, SCOTCH PLAIN, NJ, 7076","Match","Non_Exact","1 ARLINGTON CT, SCOTCH PLAINS, NJ, 07076",60584630,"L"
308,"1 ARON COURT","BETHPAGE","NY",11714,40.760095843,-73.472590247,308,"1 ARON COURT, BETHPAGE, NY, 11714","Match","Exact","1 ARON CT, BETHPAGE, NY, 11714",147642997,"L"
309,"1 ARROW DRIVE","LIVINGSTON","NJ",7039,40.7742523900001,-74.333821222,309,"1 ARROW DRIVE, LIVINGSTON, NJ, 7039","Match","Exact","1 ARROW DR, LIVINGSTON, NJ, 07039",63458207,"L"
310,"1 ARROW HEAD ROAD","DERRY","NH",3038,42.907643315,-71.3257617,310,"1 ARROW HEAD ROAD, DERRY, NH, 3038","Match","Non_Exact","1 ARROWHEAD RD, DERRY, NH, 03038",113686406,"R"
311,"1 ARROW LANE","CHADDSFORD","PA",19317,39.887315271,-75.56522913,311,"1 ARROW LANE, CHADDSFORD, PA, 19317","Match","Non_Exact","1 ARROW LN, CHADDS FORD, PA, 19317",134868342,"L"
312,"1 ARROWCREST DRIVE","CROTON-ON-HUDSON","NY",10520,41.217832081,-73.9084046949999,312,"1 ARROWCREST DRIVE, CROTON-ON-HUDSON, NY, 10520","Match","Exact","1 ARROWCREST DR, CROTON ON HUDSON, NY, 10520",139822674,"R"
313,"1 ARROWHEAD DR","LONG VALLEY","NJ",7853,NA,NA,313,"1 ARROWHEAD DR, LONG VALLEY, NJ, 7853","No_Match",NA,NA,NA,NA
314,"1 ARTHUR AVENUE APT 4","BINGHAMTON","NY",13905,42.0979196260001,-75.925318593,314,"1 ARTHUR AVENUE APT 4, BINGHAMTON, NY, 13905","Match","Non_Exact","1 ARTHUR ST, BINGHAMTON, NY, 13905",46342190,"L"
315,"1 ASHBURY WOODS DRIVE     APT 309","HUNTSVILLE","AL",35824,34.6582913990001,-86.717795747,315,"1 ASHBURY WOODS DRIVE     APT 309, HUNTSVILLE, AL, 35824","Match","Non_Exact","1 ASHBURY WOODS DR SW, HUNTSVILLE, AL, 35824",630204810,"L"
316,"1 ASHLEY CIRCLE","MADISON","WI",53711,43.020439841,-89.484482473,316,"1 ASHLEY CIRCLE, MADISON, WI, 53711","Match","Non_Exact","1 ASHLEY CIR, MADISON, WI, 53719",49500506,"R"
317,"1 ASHLEY WOOD COURT","BLYTHEWOOD","SC",29016,34.175894833,-81.0056719149999,317,"1 ASHLEY WOOD COURT, BLYTHEWOOD, SC, 29016","Match","Exact","1 ASHLEY WOOD CT, BLYTHEWOOD, SC, 29016",71852887,"R"
318,"1 ASHMILL COURT","NOTTINGHAM","MD",21236,39.383736313,-76.4795747639999,318,"1 ASHMILL COURT, NOTTINGHAM, MD, 21236","Match","Exact","1 ASHMILL CT, NOTTINGHAM, MD, 21236",191502859,"R"
319,"1 ASPEN DR STE 85","LOVELAND","CO",80538,40.4218190940001,-105.094445605,319,"1 ASPEN DR STE 85, LOVELAND, CO, 80538","Match","Exact","1 ASPEN DR, LOVELAND, CO, 80538",188521202,"L"
320,"1 ASPEN LANE","ACTON","MA",1720,42.516222466,-71.429484685,320,"1 ASPEN LANE, ACTON, MA, 1720","Match","Exact","1 ASPEN LN, ACTON, MA, 01720",646805091,"R"
321,"1 ASTELLAS WAY","NORTHBROOK","NJ",60062,NA,NA,321,"1 ASTELLAS WAY, NORTHBROOK, NJ, 60062","No_Match",NA,NA,NA,NA
322,"1 ASTER LANE","GARFIELD","NJ",7026,40.8868403060001,-74.1277749509999,322,"1 ASTER LANE, GARFIELD, NJ, 7026","Match","Exact","1 ASTER LN, GARFIELD, NJ, 07026",651699849,"R"
323,"1 ATHERTON RD","HUDSON","MA",1749,42.3756436670001,-71.5751552259999,323,"1 ATHERTON RD, HUDSON, MA, 1749","Match","Exact","1 ATHERTON RD, HUDSON, MA, 01749",86928312,"R"
324,"1 ATWELL COURT","POTOMAC","MD",20854,39.0567335270001,-77.173593277,324,"1 ATWELL COURT, POTOMAC, MD, 20854","Match","Exact","1 ATWELL CT, POTOMAC, MD, 20854",62105265,"R"
325,"1 AUBREY AVENUE","LEBANON","PA",17042,NA,NA,325,"1 AUBREY AVENUE, LEBANON, PA, 17042","No_Match",NA,NA,NA,NA
326,"1 AUGUST COURT","LITTLE ROCK","AR",72210,NA,NA,326,"1 AUGUST COURT, LITTLE ROCK, AR, 72210","No_Match",NA,NA,NA,NA
327,"1 AUGUSTA DRIVE","COLUMBINE VALLEY","CO",80123,39.6072507980001,-105.035083371,327,"1 AUGUSTA DRIVE, COLUMBINE VALLEY, CO, 80123","Match","Exact","1 AUGUSTA DR, COLUMBINE VALLEY, CO, 80123",177541570,"R"
328,"1 AURORA L GONZALEZ DR","TOLEDO","OH",43609,41.6312702070001,-83.563097392,328,"1 AURORA L GONZALEZ DR, TOLEDO, OH, 43609","Match","Exact","1 AURORA L GONZALEZ DR, TOLEDO, OH, 43609",33939203,"L"
329,"1 AUTUMN LANE","MANDEVILLE","LA",70448,30.381159983,-90.0811030949999,329,"1 AUTUMN LANE, MANDEVILLE, LA, 70448","Match","Exact","1 AUTUMN LN, MANDEVILLE, LA, 70448",111284705,"R"
330,"1 AUTUMN TRAIL","BARRINGTON","OH",60010,NA,NA,330,"1 AUTUMN TRAIL, BARRINGTON, OH, 60010","No_Match",NA,NA,NA,NA
331,"1 AVE AT PORT IMPERIAL- APT 1325","WEST NEW YORK","NJ",7093,NA,NA,331,"1 AVE AT PORT IMPERIAL- APT 1325, WEST NEW YORK, NJ, 7093","No_Match",NA,NA,NA,NA
332,"1 AVOCADO LANE NO 436","EUSTIS","FL",32726,28.8768843890001,-81.695553182,332,"1 AVOCADO LANE NO 436, EUSTIS, FL, 32726","Match","Non_Exact","1 AVOCADO LN, EUSTIS, FL, 32726",94092766,"L"
333,"1 AVOCADO LN NO 436","EUSTIS","FL",32726,28.8768843890001,-81.695553182,333,"1 AVOCADO LN NO 436, EUSTIS, FL, 32726","Match","Non_Exact","1 AVOCADO LN, EUSTIS, FL, 32726",94092766,"L"
334,"1 AVONDALE COURT","BRIARCLIFF MANOR","NY",10510,41.127664779,-73.841108232,334,"1 AVONDALE COURT, BRIARCLIFF MANOR, NY, 10510","Match","Exact","1 AVONDALE CT, BRIARCLIFF MANOR, NY, 10510",139823955,"L"
335,"1 AVONRIDGE ROAD","RARITAN","NJ",8869,40.5632071050001,-74.645341878,335,"1 AVONRIDGE ROAD, RARITAN, NJ, 8869","Match","Exact","1 AVONRIDGE RD, RARITAN, NJ, 08869",59946821,"L"
336,"1 AZEE DRIVE","HAZLET","NJ",7730,40.4248914840001,-74.146277858,336,"1 AZEE DRIVE, HAZLET, NJ, 7730","Match","Exact","1 AZEE DR, HAZLET, NJ, 07730",90476122,"L"
337,"1 B CANVASSBACK COURT","BERLIN","MD",21811,38.376622814,-75.1299797409999,337,"1 B CANVASSBACK COURT, BERLIN, MD, 21811","Match","Exact","1 CANVASSBACK CT, BERLIN, MD, 21811",114525460,"L"
338,"1 B-E P O BOX 2164","ELLICOTT CITY","MD",21041,NA,NA,338,"1 B-E P O BOX 2164, ELLICOTT CITY, MD, 21041","No_Match",NA,NA,NA,NA
339,"1 BABCOCK COURT","STONY POINT","NY",10980,41.221246595,-73.999939263,339,"1 BABCOCK COURT, STONY POINT, NY, 10980","Match","Exact","1 BABCOCK CT, STONY POINT, NY, 10980",124590486,"L"
340,"1 BABKIRK DRIVE","SCARBOROUGH","ME",4074,43.6368891980001,-70.391531421,340,"1 BABKIRK DRIVE, SCARBOROUGH, ME, 4074","Match","Exact","1 BABKIRK DR, SCARBOROUGH, ME, 04074",624992019,"R"
341,"1 BABYLON TPKE UNIT 428","ROOSEVELT","NY",11575,40.678632179,-73.5890688429999,341,"1 BABYLON TPKE UNIT 428, ROOSEVELT, NY, 11575","Match","Exact","1 BABYLON TPKE, ROOSEVELT, NY, 11575",147630686,"L"
342,"1 BAEDERWOOD CT","DERWOOD","MD",20855,39.1316873700001,-77.155032967,342,"1 BAEDERWOOD CT, DERWOOD, MD, 20855","Match","Exact","1 BAEDERWOOD CT, DERWOOD, MD, 20855",62052190,"R"
343,"1 BAINBRIDGE DR","DALLAS","GA",30132,33.9721699510001,-84.813873842,343,"1 BAINBRIDGE DR, DALLAS, GA, 30132","Match","Exact","1 BAINBRIDGE DR, DALLAS, GA, 30132",17747475,"L"
344,"1 BAIRD ST","BURLINGTON","VT",5401,44.4490486820001,-73.2144661999999,344,"1 BAIRD ST, BURLINGTON, VT, 5401","Match","Exact","1 BAIRD ST, BURLINGTON, VT, 05401",135834407,"L"
345,"1 BAKER ROAD","LIVINGSTON","NJ",7039,40.7893611700001,-74.351163073,345,"1 BAKER ROAD, LIVINGSTON, NJ, 7039","Match","Exact","1 BAKER RD, LIVINGSTON, NJ, 07039",63456442,"L"
346,"1 BALINT DRIVE APT 768","YONKERS","NY",10710,40.9586650000001,-73.8437119979999,346,"1 BALINT DRIVE APT 768, YONKERS, NY, 10710","Match","Exact","1 BALINT DR, YONKERS, NY, 10710",647113934,"L"
347,"1 BANCROFT DRIVE","PORTSMOUTH","RI",2871,41.558860569,-71.277494672,347,"1 BANCROFT DRIVE, PORTSMOUTH, RI, 2871","Match","Exact","1 BANCROFT DR, PORTSMOUTH, RI, 02871",47347895,"R"
348,"1 BANK BLAZA","WHEELING","WV",26003,40.0769013890001,-80.70919443,348,"1 BANK BLAZA, WHEELING, WV, 26003","Match","Non_Exact","1 BANK ST, WHEELING, WV, 26003",38100839,"R"
349,"1 BANK STREET APT 6 O","NEW YORK","NY",10014,40.737166223,-74.001516725,349,"1 BANK STREET APT 6 O, NEW YORK, NY, 10014","Match","Exact","1 BANK ST, NEW YORK, NY, 10014",59659965,"R"
350,"1 BARBADOS AVE UNIT 1D","TAMPA","FL",33606,27.9282374800001,-82.4523412899999,350,"1 BARBADOS AVE UNIT 1D, TAMPA, FL, 33606","Match","Exact","1 BARBADOS AVE, TAMPA, FL, 33606",104531137,"L"
351,"1 BARKER STREET / 511","MT. KISCO","NY",10549,41.211765079,-73.726005184,351,"1 BARKER STREET / 511, MT. KISCO, NY, 10549","Match","Exact","1 BARKER ST, MOUNT KISCO, NY, 10549",139760018,"L"
352,"1 BARREL FACTORY COURT","POQUOSON","VA",23662,37.1220958530001,-76.3689943649999,352,"1 BARREL FACTORY COURT, POQUOSON, VA, 23662","Match","Exact","1 BARREL FACTORY CT, POQUOSON, VA, 23662",103827143,"R"
353,"1 BARRINGTON PLACE SUITE 100","BEL AIR","MD",21014,NA,NA,353,"1 BARRINGTON PLACE SUITE 100, BEL AIR, MD, 21014","No_Match",NA,NA,NA,NA
354,"1 BARUNA COURT","NEWPORT BEACH","CA",92663,33.6265827550001,-117.93866952,354,"1 BARUNA COURT, NEWPORT BEACH, CA, 92663","Match","Exact","1 BARUNA CT, NEWPORT BEACH, CA, 92663",144046710,"R"
355,"1 BASIL WAY APT 7","BLOOMINGTON","IL",61705,40.451885368,-89.025191621,355,"1 BASIL WAY APT 7, BLOOMINGTON, IL, 61705","Match","Exact","1 BASIL WAY, BLOOMINGTON, IL, 61705",20576880,"L"
356,"1 BATTERY PARK PLAZA FL 18","NEW YORK","NY",10004,40.7045889730001,-74.0143186669999,356,"1 BATTERY PARK PLAZA FL 18, NEW YORK, NY, 10004","Match","Non_Exact","1 BATTERY PL, NEW YORK, NY, 10004",59659606,"R"
357,"1 BATTERY PARK PLAZA","NEW YORK","NY",10004,40.7045889730001,-74.0143186669999,357,"1 BATTERY PARK PLAZA, NEW YORK, NY, 10004","Match","Non_Exact","1 BATTERY PL, NEW YORK, NY, 10004",59659606,"R"
358,"1 BAY CLUB DRIVE APT 21 P","BAYSIDE","NY",11360,40.7784584950001,-73.7809263889999,358,"1 BAY CLUB DRIVE APT 21 P, BAYSIDE, NY, 11360","Match","Exact","1 BAY CLUB DR, BAYSIDE, NY, 11360",609299566,"L"
359,"1 BAYOU SHADOWS","HOUSTON","TX",77024,29.756060652,-95.544396202,359,"1 BAYOU SHADOWS, HOUSTON, TX, 77024","Match","Non_Exact","1 BAYOU SHADOWS ST, HOUSTON, TX, 77024",96139968,"R"
360,"1 BAYSPRINGS CT","SAVANNAH","GA",31405,32.0701862380001,-81.223917161,360,"1 BAYSPRINGS CT, SAVANNAH, GA, 31405","Match","Exact","1 BAYSPRINGS CT, SAVANNAH, GA, 31405",6194405,"L"
361,"1 BAYWOOD DR","CHEEKTOWAGA","NY",14227,42.878458493,-78.711618904,361,"1 BAYWOOD DR, CHEEKTOWAGA, NY, 14227","Match","Exact","1 BAYWOOD DR, CHEEKTOWAGA, NY, 14227",48327867,"L"
362,"1 BEACH DR SE UNIT 2011","ST PETERSBURG","FL",33701,27.7711593860001,-82.633344704,362,"1 BEACH DR SE UNIT 2011, ST PETERSBURG, FL, 33701","Match","Exact","1 BEACH DR SE, SAINT PETERSBURG, FL, 33701",124713652,"R"
363,"1 BEACH DRIVE SE UNIT 2314","ST PETERSBURG","FL",33701,27.7711593860001,-82.633344704,363,"1 BEACH DRIVE SE UNIT 2314, ST PETERSBURG, FL, 33701","Match","Exact","1 BEACH DR SE, SAINT PETERSBURG, FL, 33701",124713652,"R"
364,"1 BEACH LANE SW","LAKEWOOD","WA",98498,47.1628604220001,-122.54193404,364,"1 BEACH LANE SW, LAKEWOOD, WA, 98498","Match","Exact","1 BEACH LN SW, LAKEWOOD, WA, 98498",184621570,"L"
365,"1 BEACON STREET 15TH FLOOR","BOSTON","MA",2108,42.3581123710001,-71.060421576,365,"1 BEACON STREET 15TH FLOOR, BOSTON, MA, 2108","Match","Exact","1 BEACON ST, BOSTON, MA, 02108",85720176,"R"
366,"1 BEACON STREET SUITE 1500","BOSTON","MA",2108,42.3581123710001,-71.060421576,366,"1 BEACON STREET SUITE 1500, BOSTON, MA, 2108","Match","Exact","1 BEACON ST, BOSTON, MA, 02108",85720176,"R"
367,"1 BEAR PLACE UNIT 97126","WACO","TX",76798,NA,NA,367,"1 BEAR PLACE UNIT 97126, WACO, TX, 76798","No_Match",NA,NA,NA,NA
368,"1 BEAUMONT","ALISO VIEJO","CA",92656,33.578491764,-117.734545988,368,"1 BEAUMONT, ALISO VIEJO, CA, 92656","Match","Exact","1 BEAUMONT, ALISO VIEJO, CA, 92656",144402276,"L"
369,"1 BECTON DRIVE","FRANKLIN LAKES","NJ",7417,NA,NA,369,"1 BECTON DRIVE, FRANKLIN LAKES, NJ, 7417","No_Match",NA,NA,NA,NA
370,"1 BEECH CIRCLE","ANDOVER","MA",1810,42.65959566,-71.15077156,370,"1 BEECH CIRCLE, ANDOVER, MA, 1810","Match","Exact","1 BEECH CIR, ANDOVER, MA, 01810",86629414,"R"
371,"1 BEECH HILL RD","SPARTANBURG","SC",29307,NA,NA,371,"1 BEECH HILL RD, SPARTANBURG, SC, 29307","No_Match",NA,NA,NA,NA
372,"1 BEECH LN","GEORGETOWN","MA",1833,42.744087601,-70.979446746,372,"1 BEECH LN, GEORGETOWN, MA, 1833","Match","Exact","1 BEECH LN, GEORGETOWN, MA, 01833",635774516,"L"
373,"1 BEECH PLACE","BRONX","NY",10465,40.811751664,-73.807560064,373,"1 BEECH PLACE, BRONX, NY, 10465","Match","Exact","1 BEECH PL, BRONX, NY, 10465",80307707,"R"
374,"1 BEICHEN WEST RD CHAOYANG DISTRICT","BEIJING CHINA 100101","OH",44122,NA,NA,374,"1 BEICHEN WEST RD CHAOYANG DISTRICT, BEIJING CHINA 100101, OH, 44122","No_Match",NA,NA,NA,NA
375,"1 BELAIRE","LAGUNA NIGUEL","CA",92677,33.5032075180001,-117.714881139,375,"1 BELAIRE, LAGUNA NIGUEL, CA, 92677","Match","Exact","1 BELAIRE, LAGUNA NIGUEL, CA, 92677",144098742,"R"
376,"1 BELKNAP STREET","ARLINGTON","MA",2474,42.4080484880001,-71.1469150469999,376,"1 BELKNAP STREET, ARLINGTON, MA, 2474","Match","Exact","1 BELKNAP ST, ARLINGTON, MA, 02474",647973601,"R"
377,"1 BELL ACRES","PECOS","TX",79772,31.4166791700001,-103.520725126,377,"1 BELL ACRES, PECOS, TX, 79772","Match","Non_Exact","1 BELL ACRES ST, PECOS, TX, 79772",637612088,"L"
378,"1 BELL TERRACE","STROUDSBURG","PA",18360,40.9879254460001,-75.2002304499999,378,"1 BELL TERRACE, STROUDSBURG, PA, 18360","Match","Exact","1 BELL TER, STROUDSBURG, PA, 18360",136768729,"L"
379,"1 BELLEVUE DRIVE APT 2","SYRACUSE","NY",13212,43.1259086920001,-76.115020956,379,"1 BELLEVUE DRIVE APT 2, SYRACUSE, NY, 13212","Match","Exact","1 BELLEVUE DR, SYRACUSE, NY, 13212",46588228,"L"
380,"1 BELLEVUE PLACE","SENECA FALLS","NY",13148,NA,NA,380,"1 BELLEVUE PLACE, SENECA FALLS, NY, 13148","No_Match",NA,NA,NA,NA
381,"1 BELLS LANE APT V2","HACKETTSTOWN","NJ",7840,40.845091294,-74.8267844069999,381,"1 BELLS LANE APT V2, HACKETTSTOWN, NJ, 7840","Match","Exact","1 BELLS LN, HACKETTSTOWN, NJ, 07840",98092404,"L"
382,"1 BELLWOOD DRIVE","BARRINGTON","IL",60010,42.154729178,-88.179954623,382,"1 BELLWOOD DRIVE, BARRINGTON, IL, 60010","Match","Exact","1 BELLWOOD DR, BARRINGTON, IL, 60010",119700110,"L"
383,"1 BELVEDERE","ALISO VIEJO","CA",92656,NA,NA,383,"1 BELVEDERE, ALISO VIEJO, CA, 92656","No_Match",NA,NA,NA,NA
384,"1 BENICIA RD","VALLEJO","CA",94590,38.0988938620001,-122.243236398,384,"1 BENICIA RD, VALLEJO, CA, 94590","Match","Exact","1 BENICIA RD, VALLEJO, CA, 94590",192527748,"R"
385,"1 BENNETT AVE","SUMMERSVILLE","WV",26651,38.287868583,-80.864974435,385,"1 BENNETT AVE, SUMMERSVILLE, WV, 26651","Match","Exact","1 BENNETT AVE, SUMMERSVILLE, WV, 26651",50062117,"L"
386,"1 BENNETT STREET","SOMERSWORTH","NH",3878,43.2496605590001,-70.857098311,386,"1 BENNETT STREET, SOMERSWORTH, NH, 3878","Match","Exact","1 BENNETT ST, SOMERSWORTH, NH, 03878",117807001,"R"
387,"1 BENNETTS BRIDGE RD","SANDY HOOK","CT",6470,NA,NA,387,"1 BENNETTS BRIDGE RD, SANDY HOOK, CT, 6470","No_Match",NA,NA,NA,NA
388,"1 BENTLEY COURT","MANSFIELD","TX",76063,32.5928293640001,-97.104631846,388,"1 BENTLEY COURT, MANSFIELD, TX, 76063","Match","Exact","1 BENTLEY CT, MANSFIELD, TX, 76063",101962752,"L"
389,"1 BENTLEY COURT","VOORHEES","NJ",8043,39.836637647,-74.933183265,389,"1 BENTLEY COURT, VOORHEES, NJ, 8043","Match","Exact","1 BENTLEY CT, VOORHEES, NJ, 08043",134382061,"R"
390,"1 BENTLEY CT","MANSFIELD","TX",76063,32.5928293640001,-97.104631846,390,"1 BENTLEY CT, MANSFIELD, TX, 76063","Match","Exact","1 BENTLEY CT, MANSFIELD, TX, 76063",101962752,"L"
391,"1 BENTON COURT","WILMINGTON","DE",19810,39.8107282720001,-75.518937267,391,"1 BENTON COURT, WILMINGTON, DE, 19810","Match","Exact","1 BENTON CT, WILMINGTON, DE, 19810",187259727,"R"
392,"1 BENTON ROAD UNIT 2","SOMERVILLE","MA",2143,42.386684921,-71.106808992,392,"1 BENTON ROAD UNIT 2, SOMERVILLE, MA, 2143","Match","Exact","1 BENTON RD, SOMERVILLE, MA, 02143",86868530,"R"
393,"1 BENTWOOD DRIVE","WESTAMPTON","NJ",8060,40.0203398240001,-74.853112873,393,"1 BENTWOOD DRIVE, WESTAMPTON, NJ, 8060","Match","Exact","1 BENTWOOD DR, WESTAMPTON, NJ, 08060",134073203,"R"
394,"1 BERGEN PLAZA 2ND FLOOR","HACKENSACK","NJ",7601,40.8802185010001,-74.0442284279999,394,"1 BERGEN PLAZA 2ND FLOOR, HACKENSACK, NJ, 7601","Match","Non_Exact","1 BERGEN ST, HACKENSACK, NJ, 07601",64386396,"L"
395,"1 BERKLEY AVE","ASSONET","MA",2702,41.797326076,-71.090575588,395,"1 BERKLEY AVE, ASSONET, MA, 2702","Match","Exact","1 BERKLEY AVE, ASSONET, MA, 02702",46757823,"L"
396,"1 BERKSHIRE SQUARE 309","ADAMS","MA",1220,42.6249699250001,-73.118803654,396,"1 BERKSHIRE SQUARE 309, ADAMS, MA, 1220","Match","Exact","1 BERKSHIRE SQ, ADAMS, MA, 01220",3978321,"R"
397,"1 BERKSHIRE SQUARE 407","ADAMS","MA",1220,42.6249699250001,-73.118803654,397,"1 BERKSHIRE SQUARE 407, ADAMS, MA, 1220","Match","Exact","1 BERKSHIRE SQ, ADAMS, MA, 01220",3978321,"R"
398,"1 BERNICE STREET","SAN FRANCISCO","CA",94103,37.7702865370001,-122.41377477,398,"1 BERNICE STREET, SAN FRANCISCO, CA, 94103","Match","Exact","1 BERNICE ST, SAN FRANCISCO, CA, 94103",192294334,"L"
399,"1 BERRY ST","PLAINVILLE","MA",2762,42.02314893,-71.3458349439999,399,"1 BERRY ST, PLAINVILLE, MA, 2762","Match","Exact","1 BERRY ST, PLAINVILLE, MA, 02762",87258266,"R"
400,"1 BIANCHINI ROAD","GLOUCESTER","MA",1930,42.679455708,-70.6489269749999,400,"1 BIANCHINI ROAD, GLOUCESTER, MA, 1930","Match","Exact","1 BIANCHINI RD, GLOUCESTER, MA, 01930",86633305,"L"
401,"1 BICKFORD AVENUE","BOSTON","MA",2120,42.326425226,-71.1023003029999,401,"1 BICKFORD AVENUE, BOSTON, MA, 2120","Match","Exact","1 BICKFORD AVE, BOSTON, MA, 02120",85699009,"R"
402,"1 BIG BLUE AVE","SOUTH WHITLEY","IN",46787,41.0831138120001,-85.6327582119999,402,"1 BIG BLUE AVE, SOUTH WHITLEY, IN, 46787","Match","Exact","1 BIG BLUE AVE, SOUTH WHITLEY, IN, 46787",6648949,"R"
403,"1 BIG SKY RD","WATERVILLE","ME",4901,44.5715417530001,-69.668345,403,"1 BIG SKY RD, WATERVILLE, ME, 4901","Match","Non_Exact","1 BIG SKY LN, WATERVILLE, ME, 04901",607814174,"R"
404,"1 BIGELOW DRIVE","HARRISBURG","PA",17103,NA,NA,404,"1 BIGELOW DRIVE, HARRISBURG, PA, 17103","No_Match",NA,NA,NA,NA
405,"1 BIGGANS PLACE","PHILADELPHIA","PA",19154,40.081995007,-74.9772483469999,405,"1 BIGGANS PLACE, PHILADELPHIA, PA, 19154","Match","Exact","1 BIGGANS PL, PHILADELPHIA, PA, 19154",131434610,"L"
406,"1 BIRCH ROAD","SUSSEX","NJ",7461,41.232646102,-74.5376155399999,406,"1 BIRCH ROAD, SUSSEX, NJ, 7461","Match","Exact","1 BIRCH RD, SUSSEX, NJ, 07461",97995290,"R"
407,"1 BIRCH RUN","SARATOGA SPRINGS","NY",12866,NA,NA,407,"1 BIRCH RUN, SARATOGA SPRINGS, NY, 12866","Tie",NA,NA,NA,NA
408,"1 BIRCH STREET","HIRAM","GA",30141,33.877179203,-84.774368833,408,"1 BIRCH STREET, HIRAM, GA, 30141","Match","Exact","1 BIRCH ST, HIRAM, GA, 30141",618967152,"L"
409,"1 BIRCH WOODS DRIVE","BEVERLY","MA",1915,42.560244127,-70.8548265599999,409,"1 BIRCH WOODS DRIVE, BEVERLY, MA, 1915","Match","Exact","1 BIRCH WOODS DR, BEVERLY, MA, 01915",86736006,"L"
410,"1 BIRCHWOOD AVE","NANUET","NY",10954,41.0968049050001,-74.0334133969999,410,"1 BIRCHWOOD AVE, NANUET, NY, 10954","Match","Exact","1 BIRCHWOOD AVE, NANUET, NY, 10954",124620653,"R"
411,"1 BIRDIE LANE","BANNOCKBURN","IL",60015,NA,NA,411,"1 BIRDIE LANE, BANNOCKBURN, IL, 60015","No_Match",NA,NA,NA,NA
412,"1 BIRDWOOD DRIVE","NATCHEZ","MS",39120,31.573451516,-91.367260046,412,"1 BIRDWOOD DRIVE, NATCHEZ, MS, 39120","Match","Exact","1 BIRDWOOD DR, NATCHEZ, MS, 39120",79847278,"R"
413,"1 BIRDWOOD DRIVE","NATHEZ","MS",39120,31.573451516,-91.367260046,413,"1 BIRDWOOD DRIVE, NATHEZ, MS, 39120","Match","Non_Exact","1 BIRDWOOD DR, NATCHEZ, MS, 39120",79847278,"R"
414,"1 BISBEE RD","NEWARK","DE",19711,39.6959031660001,-75.7102667519999,414,"1 BISBEE RD, NEWARK, DE, 19711","Match","Exact","1 BISBEE RD, NEWARK, DE, 19711",187264106,"L"
415,"1 BITTERSWEET LANE","STRATHAM","NH",3885,43.00895625,-70.9106347649999,415,"1 BITTERSWEET LANE, STRATHAM, NH, 3885","Match","Exact","1 BITTERSWEET LN, STRATHAM, NH, 03885",648227042,"R"
416,"1 BLACK RIVER DRIVE","PARAGOULD","AR",72450,36.086902454,-90.469065206,416,"1 BLACK RIVER DRIVE, PARAGOULD, AR, 72450","Match","Exact","1 BLACK RIVER DR, PARAGOULD, AR, 72450",641722988,"L"
417,"1 BLACKFIELD DRIVE","TIBURON","CA",94920,37.8987722160001,-122.5012943,417,"1 BLACKFIELD DRIVE, TIBURON, CA, 94920","Match","Exact","1 BLACKFIELD DR, TIBURON, CA, 94920",192785798,"L"
418,"1 BLAIR ROAD","MERRIMACK","NH",3054,42.896294014,-71.505670304,418,"1 BLAIR ROAD, MERRIMACK, NH, 3054","Match","Exact","1 BLAIR RD, MERRIMACK, NH, 03054",113535039,"R"
419,"1 BLAKE AVE","CORRALITOS","CA",95076,36.9859531290001,-121.811489909,419,"1 BLAKE AVE, CORRALITOS, CA, 95076","Match","Exact","1 BLAKE AVE, CORRALITOS, CA, 95076",125537580,"L"
420,"1 BLAVELT RD","MONSEY","NY",10952,41.1157940780001,-74.070079655,420,"1 BLAVELT RD, MONSEY, NY, 10952","Match","Non_Exact","1 BLAUVELT RD, MONSEY, NY, 10952",618488966,"L"
421,"1 BLOOMINGDALE PLACE 318","BLOOMINGDALE","IL",60108,NA,NA,421,"1 BLOOMINGDALE PLACE 318, BLOOMINGDALE, IL, 60108","No_Match",NA,NA,NA,NA
422,"1 BLUE BIRD COURT","SAVANNAH","GA",31419,32.008364461,-81.2603805969999,422,"1 BLUE BIRD COURT, SAVANNAH, GA, 31419","Match","Non_Exact","1 BLUEBIRD CT, SAVANNAH, GA, 31419",638019621,"L"
423,"1 BLUE CORN TRACE","SANTA FE","NM",87508,35.4507729850001,-106.07711313,423,"1 BLUE CORN TRACE, SANTA FE, NM, 87508","Match","Exact","1 BLUE CORN TRCE, SANTA FE, NM, 87508",641142554,"R"
424,"1 BLUE HERONS WAY","PEPPERELL","MA",1463,42.684357178,-71.6131163869999,424,"1 BLUE HERONS WAY, PEPPERELL, MA, 1463","Match","Exact","1 BLUE HERONS WAY, PEPPERELL, MA, 01463",86929085,"L"
425,"1 BLUEBERRY LANE","HAVERHILL","MA",1832,42.7833886380001,-71.1613569849999,425,"1 BLUEBERRY LANE, HAVERHILL, MA, 1832","Match","Exact","1 BLUEBERRY LN, HAVERHILL, MA, 01832",86664523,"R"
426,"1 BLUEBERRY LANE","PERKASIE","PA",18944,40.3953340520001,-75.196131591,426,"1 BLUEBERRY LANE, PERKASIE, PA, 18944","Match","Exact","1 BLUEBERRY LN, PERKASIE, PA, 18944",134757260,"L"
427,"1 BLUES ALLEY","CLARKSDALE","MS",38614,NA,NA,427,"1 BLUES ALLEY, CLARKSDALE, MS, 38614","No_Match",NA,NA,NA,NA
428,"1 BLYTHEWOOD COURT","NORTH BRUNSWICK","NJ",8902,NA,NA,428,"1 BLYTHEWOOD COURT, NORTH BRUNSWICK, NJ, 8902","No_Match",NA,NA,NA,NA
429,"1 BLYTHWOOD COURT","NORTH BRUNSWICK","NJ",8902,NA,NA,429,"1 BLYTHWOOD COURT, NORTH BRUNSWICK, NJ, 8902","No_Match",NA,NA,NA,NA
430,"1 BOBTAIL TRAIL","PICAYUNE","MS",39466,30.598611916,-89.767045535,430,"1 BOBTAIL TRAIL, PICAYUNE, MS, 39466","Match","Non_Exact","1 BOB TAIL TRL, PICAYUNE, MS, 39466",111492862,"L"
431,"1 BON PRICE TERRACE","ST LOUIS","MO",63132,38.6693010590001,-90.362524316,431,"1 BON PRICE TERRACE, ST LOUIS, MO, 63132","Match","Exact","1 BON PRICE TER, SAINT LOUIS, MO, 63132",100193898,"R"
432,"1 BONAPARTE POINT ROAD","HOPATCONG","NJ",7843,40.9538742920001,-74.6399513009999,432,"1 BONAPARTE POINT ROAD, HOPATCONG, NJ, 7843","Match","Exact","1 BONAPARTE POINT RD, HOPATCONG, NJ, 07843",98043761,"L"
433,"1 BONTECOU ROAD","STONY POINT","NY",10980,41.2172771720001,-73.998430103,433,"1 BONTECOU ROAD, STONY POINT, NY, 10980","Match","Exact","1 BONTECOU RD, STONY POINT, NY, 10980",124590495,"R"
434,"1 BOOKINGS DR","ST LOUIS","MO",63130,NA,NA,434,"1 BOOKINGS DR, ST LOUIS, MO, 63130","No_Match",NA,NA,NA,NA
435,"1 BOSQUET CT APT Q3","SUMMERVILLE","SC",29485,32.9804947590001,-80.185370909,435,"1 BOSQUET CT APT Q3, SUMMERVILLE, SC, 29485","Match","Exact","1 BOSQUET CT, SUMMERVILLE, SC, 29485",636197928,"R"
436,"1 BOSTWICK AVENUE","BRIDGEPORT","CT",6605,41.1588913200001,-73.211808861,436,"1 BOSTWICK AVENUE, BRIDGEPORT, CT, 6605","Match","Exact","1 BOSTWICK AVE, BRIDGEPORT, CT, 06605",3228963,"L"
437,"1 BOTANY BAY CIRCLE","PETERSBURG","VA",23803,37.210630296,-77.429473367,437,"1 BOTANY BAY CIRCLE, PETERSBURG, VA, 23803","Match","Exact","1 BOTANY BAY CIR, PETERSBURG, VA, 23803",54212831,"L"
438,"1 BOTANY VIEW COURT EXTENSION","ASHEVIILE","NC",28805,NA,NA,438,"1 BOTANY VIEW COURT EXTENSION, ASHEVIILE, NC, 28805","No_Match",NA,NA,NA,NA
439,"1 BOULDER HILL ROAD","LEBANON","NJ",8833,40.6995023420001,-74.811313147,439,"1 BOULDER HILL ROAD, LEBANON, NJ, 8833","Match","Exact","1 BOULDER HILL RD, LEBANON, NJ, 08833",60029834,"L"
440,"1 BOUNTY CT","MAULDIN","SC",29662,34.7578857680001,-82.321209015,440,"1 BOUNTY CT, MAULDIN, SC, 29662","Match","Exact","1 BOUNTY CT, MAULDIN, SC, 29662",38337702,"L"
441,"1 BOW CREEK DRIVE","MOUNTAIN TOP","PA",18707,41.150410622,-75.8876987629999,441,"1 BOW CREEK DRIVE, MOUNTAIN TOP, PA, 18707","Match","Exact","1 BOW CREEK DR, MOUNTAIN TOP, PA, 18707",80940566,"L"
442,"1 BOXELDER COURT","GREENSBORO","NC",27405,36.175890968,-79.6990024579999,442,"1 BOXELDER COURT, GREENSBORO, NC, 27405","Match","Exact","1 BOXELDER CT, GREENSBORO, NC, 27405",131115274,"R"
443,"1 BOXWOOD RD","NORWALK","CT",6851,41.151436984,-73.416446069,443,"1 BOXWOOD RD, NORWALK, CT, 6851","Match","Non_Exact","1 BOX WOOD RD, NORWALK, CT, 06851",3261297,"L"
444,"1 BOYAN PLACE","PORTSMOUTH","NH",3801,43.069991374,-70.745137165,444,"1 BOYAN PLACE, PORTSMOUTH, NH, 3801","Match","Exact","1 BOYAN PL, PORTSMOUTH, NH, 03801",113667410,"R"
445,"1 BRADFORD ST","MEDFORD","MA",2155,42.403749013,-71.11161843,445,"1 BRADFORD ST, MEDFORD, MA, 2155","Match","Non_Exact","1 BRADFORD AVE, MEDFORD, MA, 02155",86858879,"R"
446,"1 BRADLEY RD - 600","WOODBRIDGE","CT",6525,41.3434487810001,-72.9841038179999,446,"1 BRADLEY RD - 600, WOODBRIDGE, CT, 6525","Match","Exact","1 BRADLEY RD, WOODBRIDGE, CT, 06525",3697063,"L"
447,"1 BRAMBLE TRAIL","NEWTOWN","CT",6470,41.453285443,-73.323899059,447,"1 BRAMBLE TRAIL, NEWTOWN, CT, 6470","Match","Exact","1 BRAMBLE TRL, NEWTOWN, CT, 06470",625040297,"L"
448,"1 BRAMBLEWOOD STREET","BRIDGEWATER","MA",2324,41.9767099430001,-70.927356016,448,"1 BRAMBLEWOOD STREET, BRIDGEWATER, MA, 2324","Match","Exact","1 BRAMBLEWOOD ST, BRIDGEWATER, MA, 02324",87466565,"R"
449,"1 BRANDON RD","HUNTSVILLE","TX",77320,NA,NA,449,"1 BRANDON RD, HUNTSVILLE, TX, 77320","No_Match",NA,NA,NA,NA
450,"1 BRANDY PLACE","MONROE TWP","NJ",8831,40.3632060960001,-74.380225189,450,"1 BRANDY PLACE, MONROE TWP, NJ, 8831","Match","Exact","1 BRANDY PL, MONROE TOWNSHIP, NJ, 08831",60256261,"R"
451,"1 BRANDYWINE DRIVE","MORGANVILLE","NJ",7751,NA,NA,451,"1 BRANDYWINE DRIVE, MORGANVILLE, NJ, 7751","No_Match",NA,NA,NA,NA
452,"1 BRANDYWINE RD","MILLIS","MA",2054,42.14317959,-71.3802452479999,452,"1 BRANDYWINE RD, MILLIS, MA, 2054","Match","Non_Exact","1 BRANDYWINE TER, MILLIS, MA, 02054",623841549,"R"
453,"1 BRATENAHL PLACE SUITE 402","CLEVELAND","OH",44108,41.5501684990001,-81.6155185809999,453,"1 BRATENAHL PLACE SUITE 402, CLEVELAND, OH, 44108","Match","Exact","1 BRATENAHL PL, CLEVELAND, OH, 44108",624189441,"L"
454,"1 BRATENAHL PLACE","BRATENAHL","OH",44108,41.5501684990001,-81.6155185809999,454,"1 BRATENAHL PLACE, BRATENAHL, OH, 44108","Match","Exact","1 BRATENAHL PL, BRATENAHL, OH, 44108",624189441,"L"
455,"1 BRAZOS CIRCLE","ROSWELL","NM",88201,NA,NA,455,"1 BRAZOS CIRCLE, ROSWELL, NM, 88201","Tie",NA,NA,NA,NA
456,"1 BRETON STREET","PALMER","MA",1069,42.1627046880001,-72.3551705479999,456,"1 BRETON STREET, PALMER, MA, 1069","Match","Exact","1 BRETON ST, PALMER, MA, 01069",4028867,"L"
457,"1 BREWERY SQUARE S123","NEW HAVEN","CT",6513,NA,NA,457,"1 BREWERY SQUARE S123, NEW HAVEN, CT, 6513","No_Match",NA,NA,NA,NA
458,"1 BRIAN DR","BRUNSWICK","ME",4011,43.9056062940001,-69.9871393239999,458,"1 BRIAN DR, BRUNSWICK, ME, 4011","Match","Exact","1 BRIAN DR, BRUNSWICK, ME, 04011",78049841,"R"
459,"1 BRIAR STREET","EXETER","NH",3833,42.976462021,-70.92728576,459,"1 BRIAR STREET, EXETER, NH, 3833","Match","Exact","1 BRIAR ST, EXETER, NH, 03833",113674208,"R"
460,"1 BRIARCLIFF ROAD","MOUNTAIN LAKES","NJ",7046,40.896310887,-74.435936661,460,"1 BRIARCLIFF ROAD, MOUNTAIN LAKES, NJ, 7046","Match","Exact","1 BRIARCLIFF RD, MOUNTAIN LAKES, NJ, 07046",649305077,"L"
461,"1 BRIARCREEK PLACE","GREENVILLE","SC",29615,34.866600502,-82.350998019,461,"1 BRIARCREEK PLACE, GREENVILLE, SC, 29615","Match","Exact","1 BRIARCREEK PL, GREENVILLE, SC, 29615",38331293,"R"
462,"1 BRIARFIELD LANE","HUNTINGTON","NY",11743,40.8689724920001,-73.398036167,462,"1 BRIARFIELD LANE, HUNTINGTON, NY, 11743","Match","Exact","1 BRIARFIELD LN, HUNTINGTON, NY, 11743",113963821,"R"
463,"1 BRIARWOOD COURT","JOHNSON CITY","TN",37604,36.2871801640001,-82.369035971,463,"1 BRIARWOOD COURT, JOHNSON CITY, TN, 37604","Match","Exact","1 BRIARWOOD CT, JOHNSON CITY, TN, 37604",127925184,"L"
464,"1 BRIARWOOD COURT","LANDENBERG","PA",19350,39.7699061280001,-75.746870912,464,"1 BRIARWOOD COURT, LANDENBERG, PA, 19350","Match","Exact","1 BRIARWOOD CT, LANDENBERG, PA, 19350",179518486,"L"
465,"1 BRIDGE DR","MANHASSET","NY",11030,40.8016078200001,-73.694730092,465,"1 BRIDGE DR, MANHASSET, NY, 11030","Match","Non_Exact","1 BRIDGE RD, MANHASSET, NY, 11030",147660688,"L"
466,"1 BRIDGE ST STE 210","PLYMOUTH","NH",3264,43.760025537,-71.687301681,466,"1 BRIDGE ST STE 210, PLYMOUTH, NH, 3264","Match","Exact","1 BRIDGE ST, PLYMOUTH, NH, 03264",145667343,"R"
467,"1 BRIDGE STREET","PLYMOUTH","NH",3264,43.760025537,-71.687301681,467,"1 BRIDGE STREET, PLYMOUTH, NH, 3264","Match","Exact","1 BRIDGE ST, PLYMOUTH, NH, 03264",145667343,"R"
468,"1 BRIGHTLEAF COURT","DURHAM","NC",27713,35.9316699600001,-78.926549748,468,"1 BRIGHTLEAF COURT, DURHAM, NC, 27713","Match","Exact","1 BRIGHTLEAF CT, DURHAM, NC, 27713",71748684,"L"
469,"1 BRIGHTON LANE","TAYLORS","SC",29687,34.91006035,-82.298379363,469,"1 BRIGHTON LANE, TAYLORS, SC, 29687","Match","Exact","1 BRIGHTON LN, TAYLORS, SC, 29687",38309511,"L"
470,"1 BRILAINA COURT","AYER","MA",1432,42.5618798900001,-71.579974578,470,"1 BRILAINA COURT, AYER, MA, 1432","Match","Exact","1 BRILAINA CT, AYER, MA, 01432",86935635,"L"
471,"1 BRITTANY WAY","ATLANTA","GA",30324,33.8315816690001,-84.3545995759999,471,"1 BRITTANY WAY, ATLANTA, GA, 30324","Match","Exact","1 BRITTANY WAY, ATLANTA, GA, 30324",618354352,"R"
472,"1 BROAD COVE","WEST BATH","ME",4530,NA,NA,472,"1 BROAD COVE, WEST BATH, ME, 4530","Tie",NA,NA,NA,NA
473,"1 BROAD STREET APT 28B","STAMFORD","CT",6901,NA,NA,473,"1 BROAD STREET APT 28B, STAMFORD, CT, 6901","No_Match",NA,NA,NA,NA
474,"1 BROADWAY APT 335","MENANDS","NY",12204,42.681206547,-73.732443539,474,"1 BROADWAY APT 335, MENANDS, NY, 12204","Match","Exact","1 BROADWAY, MENANDS, NY, 12204",18310703,"R"
475,"1 BROADWAY CO A2A PHARMACEUTICALS","CAMBRIDGE","MA",2142,NA,NA,475,"1 BROADWAY CO A2A PHARMACEUTICALS, CAMBRIDGE, MA, 2142","No_Match",NA,NA,NA,NA
476,"1 BROADWAY FL 14","CAMBRIDGE","MA",2142,NA,NA,476,"1 BROADWAY FL 14, CAMBRIDGE, MA, 2142","No_Match",NA,NA,NA,NA
477,"1 BROADWAY ST","CAMBRIDGE","MA",2142,NA,NA,477,"1 BROADWAY ST, CAMBRIDGE, MA, 2142","No_Match",NA,NA,NA,NA
478,"1 BROADWAY UNIT 515","TACOMA","WA",98402,47.264266245,-122.446334755,478,"1 BROADWAY UNIT 515, TACOMA, WA, 98402","Match","Exact","1 BROADWAY, TACOMA, WA, 98402",184646364,"L"
479,"1 BROADWAY UNIT 720","TACOMA","WA",98402,47.264266245,-122.446334755,479,"1 BROADWAY UNIT 720, TACOMA, WA, 98402","Match","Exact","1 BROADWAY, TACOMA, WA, 98402",184646364,"L"
480,"1 BROADWAY","BOSTON","MA",2142,NA,NA,480,"1 BROADWAY, BOSTON, MA, 2142","No_Match",NA,NA,NA,NA
481,"1 BROADWAY","CAMBRIDGE","MA",2142,NA,NA,481,"1 BROADWAY, CAMBRIDGE, MA, 2142","No_Match",NA,NA,NA,NA
482,"1 BROADWAY","ISLIP","NY",11722,40.7992963980001,-73.193401578,482,"1 BROADWAY, ISLIP, NY, 11722","Match","Non_Exact","1 BROADWAY AVE, CENTRAL ISLIP, NY, 11722",645467816,"R"
483,"1 BROOK DRIVE","HIGHTSTOWN","NJ",8520,40.2658173140001,-74.527594742,483,"1 BROOK DRIVE, HIGHTSTOWN, NJ, 8520","Match","Exact","1 BROOK DR, HIGHTSTOWN, NJ, 08520",60191750,"R"
484,"1 BROOKLINE CT","CLAYTON","NC",27527,35.6379599800001,-78.405318847,484,"1 BROOKLINE CT, CLAYTON, NC, 27527","Match","Exact","1 BROOKLINE CT, CLAYTON, NC, 27527",26541256,"L"
485,"1 BROOKRIDGE LN","NEWARK","DE",19711,39.751914379,-75.72770926,485,"1 BROOKRIDGE LN, NEWARK, DE, 19711","Match","Exact","1 BROOKRIDGE LN, NEWARK, DE, 19711",187277853,"L"
486,"1 BROOKSIDE AVENUE APT 304","POUGHKEEPSIE","NY",12601,41.7097456980001,-73.928905812,486,"1 BROOKSIDE AVENUE APT 304, POUGHKEEPSIE, NY, 12601","Match","Exact","1 BROOKSIDE AVE, POUGHKEEPSIE, NY, 12601",4228603,"L"
487,"1 BROOKSIDE DRIVE EAST APT Q","HARRIMAN","NY",10926,41.313275214,-74.140755822,487,"1 BROOKSIDE DRIVE EAST APT Q, HARRIMAN, NY, 10926","Match","Exact","1 BROOKSIDE DR E, HARRIMAN, NY, 10926",124446613,"R"
488,"1 BROOKSIDE DRIVE","WESTPORT","CT",6880,41.149628814,-73.352803755,488,"1 BROOKSIDE DRIVE, WESTPORT, CT, 6880","Match","Exact","1 BROOKSIDE DR, WESTPORT, CT, 06880",3238388,"L"
489,"1 BROOKSIDE LANE","MANSFIELD","CT",6250,41.792130286,-72.1729760759999,489,"1 BROOKSIDE LANE, MANSFIELD, CT, 6250","Match","Non_Exact","1 BROOKSIDE LN, MANSFIELD CTR, CT, 06250",56992850,"L"
490,"1 BROOKSIDE RD","BEACON","NY",12508,NA,NA,490,"1 BROOKSIDE RD, BEACON, NY, 12508","No_Match",NA,NA,NA,NA
491,"1 BROWN AVE UNIT 42","AMESBURY","MA",1913,42.8727477620001,-70.929614825,491,"1 BROWN AVE UNIT 42, AMESBURY, MA, 1913","Match","Exact","1 BROWN AVE, AMESBURY, MA, 01913",86686158,"R"
492,"1 BROWN AVE UNIT 78","AMESBURY","MA",1913,42.8727477620001,-70.929614825,492,"1 BROWN AVE UNIT 78, AMESBURY, MA, 1913","Match","Exact","1 BROWN AVE, AMESBURY, MA, 01913",86686158,"R"
493,"1 BROWN ST APT 1321","PHILADELPHIA","PA",19123,39.962147271,-75.137461807,493,"1 BROWN ST APT 1321, PHILADELPHIA, PA, 19123","Match","Exact","1 BROWN ST, PHILADELPHIA, PA, 19123",131445136,"L"
494,"1 BROWN ST APT 1614","PHILADEPHIA","PA",19123,39.962147271,-75.137461807,494,"1 BROWN ST APT 1614, PHILADEPHIA, PA, 19123","Match","Non_Exact","1 BROWN ST, PHILADELPHIA, PA, 19123",131445136,"L"
495,"1 BRUCE AVE","NEW PALTZ","NY",12561,41.7388847,-74.0764717,495,"1 BRUCE AVE, NEW PALTZ, NY, 12561","Match","Non_Exact","1 BRUCE ST, NEW PALTZ, NY, 12561",41875499,"R"
496,"1 BRYAN ROAD","ATHENS","OH",45701,39.34108501,-82.090750735,496,"1 BRYAN ROAD, ATHENS, OH, 45701","Match","Exact","1 BRYAN RD, ATHENS, OH, 45701",37098041,"R"
497,"1 BRYANT DR","SUCCASUNNA","NJ",7876,40.8617914020001,-74.642297379,497,"1 BRYANT DR, SUCCASUNNA, NJ, 7876","Match","Exact","1 BRYANT DR, SUCCASUNNA, NJ, 07876",650435905,"L"
498,"1 BUCKEYE DRIVE","SAINT LOUIS","MO",63135,38.759296487,-90.311693941,498,"1 BUCKEYE DRIVE, SAINT LOUIS, MO, 63135","Match","Exact","1 BUCKEYE DR, SAINT LOUIS, MO, 63135",100144968,"R"
499,"1 BUCKINGHAM DRIVE","ORMOND BEACH","FL",32176,29.348507893,-81.069961931,499,"1 BUCKINGHAM DRIVE, ORMOND BEACH, FL, 32176","Match","Exact","1 BUCKINGHAM DR, ORMOND BEACH, FL, 32176",94519879,"R"
500,"1 BUCKINGHAM ROAD","TEWKSBURY","MA",1876,42.6175498060001,-71.2066044319999,500,"1 BUCKINGHAM ROAD, TEWKSBURY, MA, 1876","Match","Exact","1 BUCKINGHAM RD, TEWKSBURY, MA, 01876",646884779,"R"
