"ID","Address","City","State","Zip","lat","long","id","input_address","match_indicator","match_type","matched_address","tiger_line_id","tiger_side"
471001,"300 MENDHAM ROAD","MORRISTOWN","NJ",7960,40.788452826,-74.5510019229999,1,"300 MENDHAM ROAD, MORRISTOWN, NJ, 7960","Match","Exact","300 MENDHAM RD, MORRISTOWN, NJ, 07960",60441723,"R"
471002,"300 MENUAL BLVD NW  STE A 566","ALBUQERQUE","NM",87107,35.1107257960001,-106.645451804,2,"300 MENUAL BLVD NW  STE A 566, ALBUQERQUE, NM, 87107","Match","Non_Exact","300 MENAUL BLVD NW, ALBUQUERQUE, NM, 87107",206708145,"L"
471003,"300 MERCER STREET","NEW YORK","NY",10002,40.7300185610001,-73.99402083,3,"300 MERCER STREET, NEW YORK, NY, 10002","Match","Non_Exact","300 MERCER ST, NEW YORK, NY, 10003",650072371,"R"
471004,"300 MERIDIAN STREET APT D","GROTON","CT",6340,41.355938538,-72.0734485629999,4,"300 MERIDIAN STREET APT D, GROTON, CT, 6340","Match","Exact","300 MERIDIAN ST, GROTON, CT, 06340",56871687,"L"
471005,"300 MESA VISTA RD","ANTHONY","NM",88021,31.980094002,-106.674525704,5,"300 MESA VISTA RD, ANTHONY, NM, 88021","Match","Non_Exact","300 MESA VISITA RD, ANTHONY, NM, 88021",647332137,"R"
471006,"300 MESA VISTA ROAD","ANTHONY","NM",88021,31.980094002,-106.674525704,6,"300 MESA VISTA ROAD, ANTHONY, NM, 88021","Match","Non_Exact","300 MESA VISITA RD, ANTHONY, NM, 88021",647332137,"R"
471007,"300 MESSMER ST","SALISBURY","NC",28144,35.677917758,-80.4867888219999,7,"300 MESSMER ST, SALISBURY, NC, 28144","Match","Non_Exact","300 MESSNER ST, SALISBURY, NC, 28144",25267607,"R"
471008,"300 MIDDLETOWN AVE","NORTH HAVEN","CT",6473,41.3472955070001,-72.8549639509999,8,"300 MIDDLETOWN AVE, NORTH HAVEN, CT, 6473","Match","Exact","300 MIDDLETOWN AVE, NORTH HAVEN, CT, 06473",3704934,"L"
471009,"300 MILAM COURT","IRVING","TX",75038,32.8579709700001,-96.968740918,9,"300 MILAM COURT, IRVING, TX, 75038","Match","Exact","300 MILAM CT, IRVING, TX, 75038",102890849,"R"
471010,"300 MILDRED NW","ALBUQUERQUE","NM",87102,NA,NA,10,"300 MILDRED NW, ALBUQUERQUE, NM, 87102","No_Match",NA,NA,NA,NA
471011,"300 MILITARY ROAD","SUFFOLK","VA",23434,36.727192831,-76.59749858,11,"300 MILITARY ROAD, SUFFOLK, VA, 23434","Match","Exact","300 MILITARY RD, SUFFOLK, VA, 23434",122238211,"L"
471012,"300 MILL RD","MARTINEZ","CA",94553,37.997765315,-122.110717396,12,"300 MILL RD, MARTINEZ, CA, 94553","Match","Exact","300 MILL RD, MARTINEZ, CA, 94553",192045535,"L"
471013,"300 MILLER LOOP","FORT BENNING","GA",31905,32.3698567070001,-84.956043901,13,"300 MILLER LOOP, FORT BENNING, GA, 31905","Match","Exact","300 MILLER LOOP, FORT BENNING, GA, 31905",76774899,"R"
471014,"300 MOATE CIRCLE","VIRGINIA BEACH","VA",23462,36.830980443,-76.1489823759999,14,"300 MOATE CIRCLE, VIRGINIA BEACH, VA, 23462","Match","Exact","300 MOATE CIR, VA BCH, VA, 23462",653478770,"L"
471015,"300 MOBLEY ROAD","CLARKSVILLE","TN",37043,36.4850142280001,-87.193521816,15,"300 MOBLEY ROAD, CLARKSVILLE, TN, 37043","Match","Exact","300 MOBLEY RD, CLARKSVILLE, TN, 37043",31822054,"L"
471016,"300 MOCKINGBIRD LANE","GRAMBLING","LA",71246,32.532862036,-92.698678049,16,"300 MOCKINGBIRD LANE, GRAMBLING, LA, 71246","Match","Non_Exact","300 MOCKINGBIRD LN, GRAMBLING, LA, 71245",164099064,"R"
471017,"300 MONROE AVE NW","GRAND RAPIDS","MI",49503,42.968818959,-85.672215689,17,"300 MONROE AVE NW, GRAND RAPIDS, MI, 49503","Match","Exact","300 MONROE AVE NW, GRAND RAPIDS, MI, 49503",647621854,"R"
471018,"300 MONROE AVENUE","WHITING","NJ",8759,39.9452934290001,-74.3691549009999,18,"300 MONROE AVENUE, WHITING, NJ, 8759","Match","Exact","300 MONROE AVE, WHITING, NJ, 08759",203762552,"R"
471019,"300 MONTANA AVE","ST CLOUD","FL",34769,28.256389706,-81.300260726,19,"300 MONTANA AVE, ST CLOUD, FL, 34769","Match","Exact","300 MONTANA AVE, SAINT CLOUD, FL, 34769",176659726,"R"
471020,"300 MONTEREY BLVD","SAINT PETERSBURG","FL",33704,27.794749242,-82.6254251989999,20,"300 MONTEREY BLVD, SAINT PETERSBURG, FL, 33704","Match","Non_Exact","300 MONTEREY BLVD NE, SAINT PETERSBURG, FL, 33704",124713237,"L"
471021,"300 MONTEVALLO COURT","MOBILE","AL",36608,30.6947973470001,-88.170768583,21,"300 MONTEVALLO COURT, MOBILE, AL, 36608","Match","Exact","300 MONTEVALLO CT, MOBILE, AL, 36608",61853798,"R"
471022,"300 MONTGOMERY ST APT 32","BLOOMFIELD","NJ",7003,40.7922263240001,-74.19321632,22,"300 MONTGOMERY ST APT 32, BLOOMFIELD, NJ, 7003","Match","Exact","300 MONTGOMERY ST, BLOOMFIELD, NJ, 07003",63451328,"L"
471023,"300 MONTICELLO CT APT 1","SAN ANTONIO","TX",78223,29.373918696,-98.470606445,23,"300 MONTICELLO CT APT 1, SAN ANTONIO, TX, 78223","Match","Exact","300 MONTICELLO CT, SAN ANTONIO, TX, 78223",101534050,"R"
471024,"300 MOONLIGHT DR","SHAKOPEE","MN",55379,44.7422756940001,-93.527806647,24,"300 MOONLIGHT DR, SHAKOPEE, MN, 55379","Match","Exact","300 MOONLIGHT DR, SHAKOPEE, MN, 55379",38150175,"R"
471025,"300 MORAGA ROAD","MORAGA","CA",94556,NA,NA,25,"300 MORAGA ROAD, MORAGA, CA, 94556","No_Match",NA,NA,NA,NA
471026,"300 MORNING WALK PATH","BENTON HARBOR","MI",49022,42.1259988670001,-86.46158458,26,"300 MORNING WALK PATH, BENTON HARBOR, MI, 49022","Match","Exact","300 MORNING WALK PATH, BENTON HARBOR, MI, 49022",643034399,"L"
471027,"300 MORNINGSIDE DR","LEROY","IL",61752,40.3297138020001,-88.772444725,27,"300 MORNINGSIDE DR, LEROY, IL, 61752","Match","Non_Exact","300 MORNINGSIDE DR, LE ROY, IL, 61752",648899873,"L"
471028,"300 MOSER RD","DANVILLE","PA",17821,40.927514253,-76.621843059,28,"300 MOSER RD, DANVILLE, PA, 17821","Match","Exact","300 MOSER RD, DANVILLE, PA, 17821",48077965,"R"
471029,"300 MOSSY OAK DRIVE","CRANBERRY TWP","PA",16066,40.725055748,-80.07186538,29,"300 MOSSY OAK DRIVE, CRANBERRY TWP, PA, 16066","Match","Exact","300 MOSSY OAK DR, CRANBERRY TOWNSHIP, PA, 16066",627074710,"R"
471030,"300 MOUNT HIGHLAND DRIVE","BUTTE","MT",59701,45.969191994,-112.497713282,30,"300 MOUNT HIGHLAND DRIVE, BUTTE, MT, 59701","Match","Exact","300 MOUNT HIGHLAND DR, BUTTE, MT, 59701",640931431,"R"
471031,"300 MOUNT ROSE STREET","RENO","NV",89509,39.509648672,-119.809649624,31,"300 MOUNT ROSE STREET, RENO, NV, 89509","Match","Exact","300 MOUNT ROSE ST, RENO, NV, 89509",107045424,"L"
471032,"300 MOUNTAIN COVE CT","MCCALL","ID",83638,44.9171603950001,-116.076827191,32,"300 MOUNTAIN COVE CT, MCCALL, ID, 83638","Match","Exact","300 MOUNTAIN COVE CT, MCCALL, ID, 83638",634901762,"L"
471033,"300 MT CARMEL RD","HOT SPRINGS","AR",71913,34.405969215,-93.078755369,33,"300 MT CARMEL RD, HOT SPRINGS, AR, 71913","Match","Exact","300 MOUNT CARMEL RD, HOT SPRINGS, AR, 71913",22771260,"R"
471034,"300 MULBERRY DRIVE","ROYERSFORD","PA",19468,40.2294901970001,-75.5462496229999,34,"300 MULBERRY DRIVE, ROYERSFORD, PA, 19468","Match","Exact","300 MULBERRY DR, ROYERSFORD, PA, 19468",135131256,"L"
471035,"300 MULBERRY ST SUITE 300","MACON","GA",31201,32.8364138680001,-83.625731515,35,"300 MULBERRY ST SUITE 300, MACON, GA, 31201","Match","Exact","300 MULBERRY ST, MACON, GA, 31201",81085936,"L"
471036,"300 MULL AVENUE","AKRON","OH",44313,41.099473362,-81.559907091,36,"300 MULL AVENUE, AKRON, OH, 44313","Match","Exact","300 MULL AVE, AKRON, OH, 44313",61339415,"L"
471037,"300 MYRTLE AVE","WEST BERLIN","NJ",8091,39.7978243630001,-74.9179525439999,37,"300 MYRTLE AVE, WEST BERLIN, NJ, 8091","Match","Exact","300 MYRTLE AVE, WEST BERLIN, NJ, 08091",642883360,"L"
471038,"300 MYSTIC BROOK DR","O FALLON","MO",63366,38.812367696,-90.772805322,38,"300 MYSTIC BROOK DR, O FALLON, MO, 63366","Match","Exact","300 MYSTIC BROOK DR, O FALLON, MO, 63366",617665581,"R"
471039,"300 N 130TH ST UNIT 9301","SEATTLE","WA",98133,47.7232317530001,-122.354083877,39,"300 N 130TH ST UNIT 9301, SEATTLE, WA, 98133","Match","Non_Exact","300 N 130TH ST, SEATTLE, WA, 98133",186574247,"L"
471040,"300 N 130TH STREET UNIT 7205","SEATTLE","WA",98133,47.7232317530001,-122.354083877,40,"300 N 130TH STREET UNIT 7205, SEATTLE, WA, 98133","Match","Non_Exact","300 N 130TH ST, SEATTLE, WA, 98133",186574247,"L"
471041,"300 N 14TH STREET","EASTON","PA",19042,40.693299037,-75.230338428,41,"300 N 14TH STREET, EASTON, PA, 19042","Match","Non_Exact","300 N 14TH ST, EASTON, PA, 18042",136882355,"L"
471042,"300 N 38TH AVE APT 11","HATTIESBURG","MS",39401,NA,NA,42,"300 N 38TH AVE APT 11, HATTIESBURG, MS, 39401","No_Match",NA,NA,NA,NA
471043,"300 N 4TH APT 307","MANHATTAN","KS",66502,NA,NA,43,"300 N 4TH APT 307, MANHATTAN, KS, 66502","No_Match",NA,NA,NA,NA
471044,"300 N 4TH ST APT 1506","SAINT LOUIS","MO",63102,NA,NA,44,"300 N 4TH ST APT 1506, SAINT LOUIS, MO, 63102","Tie",NA,NA,NA,NA
471045,"300 N 4TH STREET SUITE 2802","ST LOUIS","MO",63102,NA,NA,45,"300 N 4TH STREET SUITE 2802, ST LOUIS, MO, 63102","Tie",NA,NA,NA,NA
471046,"300 N 5TH AVE STE 230","ANN ARBOR","MI",48104,NA,NA,46,"300 N 5TH AVE STE 230, ANN ARBOR, MI, 48104","Tie",NA,NA,NA,NA
471047,"300 N 5TH STREET","ELGIN","NE",68636,41.9856412870001,-98.079760092,47,"300 N 5TH STREET, ELGIN, NE, 68636","Match","Exact","300 N 5TH ST, ELGIN, NE, 68636",161680863,"L"
471048,"300 N ADAMS","MEDICINE LODGE","KS",67104,37.28404004,-98.5835530579999,48,"300 N ADAMS, MEDICINE LODGE, KS, 67104","Match","Non_Exact","300 N ADAMS ST, MEDICINE LODGE, KS, 67104",160724954,"R"
471049,"300 N AKARD APT 1806","DALLAS","TX",75201,NA,NA,49,"300 N AKARD APT 1806, DALLAS, TX, 75201","No_Match",NA,NA,NA,NA
471050,"300 N AKARD ST APT 1108","DALLAS","TX",75201,32.7821228240001,-96.7999311889999,50,"300 N AKARD ST APT 1108, DALLAS, TX, 75201","Match","Non_Exact","300 N AKARD ST, DALLAS, TX, 75201",102909852,"R"
471051,"300 N AKARD ST APT 2313","DALLAS","TX",75201,32.7821228240001,-96.7999311889999,51,"300 N AKARD ST APT 2313, DALLAS, TX, 75201","Match","Non_Exact","300 N AKARD ST, DALLAS, TX, 75201",102909852,"R"
471052,"300 N AKARD STREET  UNIT 1206","DALLAS","TX",75201,32.7821228240001,-96.7999311889999,52,"300 N AKARD STREET  UNIT 1206, DALLAS, TX, 75201","Match","Non_Exact","300 N AKARD ST, DALLAS, TX, 75201",102909852,"R"
471053,"300 N AKARD STREET APT 1610","DALLAS","TX",75202,32.779028139,-96.799279798,53,"300 N AKARD STREET APT 1610, DALLAS, TX, 75202","Match","Non_Exact","300 S AKARD ST, DALLAS, TX, 75202",102910226,"L"
471054,"300 N AKARD STREET UNIT 1206","DALLAS","TX",75201,32.7821228240001,-96.7999311889999,54,"300 N AKARD STREET UNIT 1206, DALLAS, TX, 75201","Match","Non_Exact","300 N AKARD ST, DALLAS, TX, 75201",102909852,"R"
471055,"300 N ALICE","MONAHANS","TX",79756,31.596189483,-102.894829949,55,"300 N ALICE, MONAHANS, TX, 79756","Match","Non_Exact","300 N ALICE AVE, MONAHANS, TX, 79756",182586142,"R"
471056,"300 N AREVA RD","ROOSEVELT","UT",84066,40.3037050560001,-110.012500167,56,"300 N AREVA RD, ROOSEVELT, UT, 84066","Match","Exact","300 AREVA RD, ROOSEVELT, UT, 84066",608046065,"L"
471057,"300 N BEATY STREET","ATHENS","AL",35611,34.80598324,-86.967547687,57,"300 N BEATY STREET, ATHENS, AL, 35611","Match","Exact","300 N BEATY ST, ATHENS, AL, 35611",95231500,"R"
471058,"300 N BLAIR DRIVE","NORMAL","IL",61761,40.515270695,-88.968850656,58,"300 N BLAIR DRIVE, NORMAL, IL, 61761","Match","Exact","300 N BLAIR DR, NORMAL, IL, 61761",20547136,"R"
471059,"300 N BRANDON AVE","MORAVIA","IA",52571,40.892507025,-92.8209716759999,59,"300 N BRANDON AVE, MORAVIA, IA, 52571","Match","Exact","300 N BRANDON AVE, MORAVIA, IA, 52571",637584279,"L"
471060,"300 N BROAD STREET STE 106","NEW ORLEANS","LA",70119,NA,NA,60,"300 N BROAD STREET STE 106, NEW ORLEANS, LA, 70119","Tie",NA,NA,NA,NA
471061,"300 N BROAD STREET SUITE 207","NEW ORLEANS","LA",70119,NA,NA,61,"300 N BROAD STREET SUITE 207, NEW ORLEANS, LA, 70119","Tie",NA,NA,NA,NA
471062,"300 N BROADWAY STREET","ST. PAUL","MN",55101,44.9486772180001,-93.08365545,62,"300 N BROADWAY STREET, ST. PAUL, MN, 55101","Match","Exact","300 N BROADWAY ST, SAINT PAUL, MN, 55101",97648775,"R"
471063,"300 N BROADWAY","AZLE","TX",76020,32.8949889530001,-97.514657748,63,"300 N BROADWAY, AZLE, TX, 76020","Match","Non_Exact","300 N BROADWAY ST, AZLE, TX, 76020",102092942,"L"
471064,"300 N BRUNSWICK ST","WICHITA","KS",67212,37.687363627,-97.427855919,64,"300 N BRUNSWICK ST, WICHITA, KS, 67212","Match","Exact","300 N BRUNSWICK ST, WICHITA, KS, 67212",115630046,"R"
471065,"300 N CANAL ST APT 2605","CHICAGO","IL",60606,NA,NA,65,"300 N CANAL ST APT 2605, CHICAGO, IL, 60606","Tie",NA,NA,NA,NA
471066,"300 N CATALINA ST","BURBANK","CA",91505,34.1605132380001,-118.334013496,66,"300 N CATALINA ST, BURBANK, CA, 91505","Match","Exact","300 N CATALINA ST, BURBANK, CA, 91505",142726275,"R"
471067,"300 N COAL ST","MEXICO","MO",65265,39.173873363,-91.8814701589999,67,"300 N COAL ST, MEXICO, MO, 65265","Match","Exact","300 N COAL ST, MEXICO, MO, 65265",34293403,"R"
471068,"300 N COAL STREET","MEXICO","MO",65265,39.173873363,-91.8814701589999,68,"300 N COAL STREET, MEXICO, MO, 65265","Match","Exact","300 N COAL ST, MEXICO, MO, 65265",34293403,"R"
471069,"300 N DAISY STREET","LOMPOC","CA",93436,34.642253522,-120.442366998,69,"300 N DAISY STREET, LOMPOC, CA, 93436","Match","Exact","300 N DAISY ST, LOMPOC, CA, 93436",108616617,"L"
471070,"300 N DAKOTA AVE STE 307 POB 358","SIOUX FALLS","SD",57101,NA,NA,70,"300 N DAKOTA AVE STE 307 POB 358, SIOUX FALLS, SD, 57101","No_Match",NA,NA,NA,NA
471071,"300 N EASTERN AVE","MOORE","OK",73160,35.341062949,-97.4768530219999,71,"300 N EASTERN AVE, MOORE, OK, 73160","Match","Exact","300 N EASTERN AVE, MOORE, OK, 73160",99938753,"R"
471072,"300 N EL MOLINO AVE UNIT 302","PASADENA","CA",91101,NA,NA,72,"300 N EL MOLINO AVE UNIT 302, PASADENA, CA, 91101","Tie",NA,NA,NA,NA
471073,"300 N FAYETTE DR","FAYETTEVILLE","GA",30214,33.517990432,-84.4564006269999,73,"300 N FAYETTE DR, FAYETTEVILLE, GA, 30214","Match","Exact","300 N FAYETTE DR, FAYETTEVILLE, GA, 30214",75930102,"L"
471074,"300 N FIFTH AVE STE 230","ANN ARBOR","MI",48104,NA,NA,74,"300 N FIFTH AVE STE 230, ANN ARBOR, MI, 48104","Tie",NA,NA,NA,NA
471075,"300 N FLOWERREE ST","CENTER","MO",63436,39.510738802,-91.531302308,75,"300 N FLOWERREE ST, CENTER, MO, 63436","Match","Non_Exact","300 N FLOWEREE ST, CENTER, MO, 63436",37987706,"L"
471076,"300 N GARDEN TERRACE","BELLINGHAM","WA",98225,48.7368613940001,-122.489945208,76,"300 N GARDEN TERRACE, BELLINGHAM, WA, 98225","Match","Exact","300 N GARDEN TER, BELLINGHAM, WA, 98225",648996500,"L"
471077,"300 N GREENE ST","GREENSBORO","NC",27401,36.0756048430001,-79.791326278,77,"300 N GREENE ST, GREENSBORO, NC, 27401","Match","Exact","300 N GREENE ST, GREENSBORO, NC, 27401",131032916,"R"
471078,"300 N HIGH ST","MUNCIE","IN",47305,40.1954913660001,-85.3876068769999,78,"300 N HIGH ST, MUNCIE, IN, 47305","Match","Exact","300 N HIGH ST, MUNCIE, IN, 47305",644927163,"R"
471079,"300 N HIGH STREET","MUNCIE","IN",47305,40.1954913660001,-85.3876068769999,79,"300 N HIGH STREET, MUNCIE, IN, 47305","Match","Exact","300 N HIGH ST, MUNCIE, IN, 47305",644927163,"R"
471080,"300 N HIGHWAY AIA UNIT G303","WEST PALM BEACH","FL",33477,NA,NA,80,"300 N HIGHWAY AIA UNIT G303, WEST PALM BEACH, FL, 33477","No_Match",NA,NA,NA,NA
471081,"300 N HOBART BLVD","LOS ANGELES","CA",90004,34.0763768360001,-118.305357384,81,"300 N HOBART BLVD, LOS ANGELES, CA, 90004","Match","Exact","300 N HOBART BLVD, LOS ANGELES, CA, 90004",141603367,"R"
471082,"300 N INDIAN HOUSE ROAD","TUCSON","AZ",85711,32.225110251,-110.864228371,82,"300 N INDIAN HOUSE ROAD, TUCSON, AZ, 85711","Match","Exact","300 N INDIAN HOUSE RD, TUCSON, AZ, 85711",121412054,"R"
471083,"300 N LAMAR BLVD","OXFORD","MS",38655,34.367502948,-89.5184859,83,"300 N LAMAR BLVD, OXFORD, MS, 38655","Match","Exact","300 N LAMAR BLVD, OXFORD, MS, 38655",647886956,"R"
471084,"300 N LASALLE ST STE 1400","CHICAGO","IL",60654,NA,NA,84,"300 N LASALLE ST STE 1400, CHICAGO, IL, 60654","No_Match",NA,NA,NA,NA
471085,"300 N LASALLE ST STE 4000","CHICAGO","IL",60654,NA,NA,85,"300 N LASALLE ST STE 4000, CHICAGO, IL, 60654","No_Match",NA,NA,NA,NA
471086,"300 N LASALLE ST","CHICAGO","IL",60654,41.888485331,-87.6326164229999,86,"300 N LASALLE ST, CHICAGO, IL, 60654","Match","Non_Exact","300 N LA SALLE DR, CHICAGO, IL, 60654",111768655,"L"
471087,"300 N LASALLE","CHICAGO","IL",60654,41.888485331,-87.6326164229999,87,"300 N LASALLE, CHICAGO, IL, 60654","Match","Non_Exact","300 N LA SALLE DR, CHICAGO, IL, 60654",111768655,"L"
471088,"300 N MAIN ST","CHARLES CITY","IA",50616,43.0681722890001,-92.678056537,88,"300 N MAIN ST, CHARLES CITY, IA, 50616","Match","Exact","300 N MAIN ST, CHARLES CITY, IA, 50616",7349150,"R"
471089,"300 N MAIN","COMMERCE","OK",74339,36.9363402660001,-94.877515246,89,"300 N MAIN, COMMERCE, OK, 74339","Match","Non_Exact","300 N MAIN ST, COMMERCE, OK, 74339",56278864,"R"
471090,"300 N MAPLEWOOD","RANTOUL","IL",61866,40.312347824,-88.136503459,90,"300 N MAPLEWOOD, RANTOUL, IL, 61866","Match","Non_Exact","300 N MAPLEWOOD DR, RANTOUL, IL, 61866",639220270,"R"
471091,"300 N MISSOURI ST","MEXICO","MO",65265,39.174151033,-91.891544504,91,"300 N MISSOURI ST, MEXICO, MO, 65265","Match","Non_Exact","300 N MISSOURI AVE, MEXICO, MO, 65265",34293389,"R"
471092,"300 N MONROE","MUNCIE","IN",47305,40.195758111,-85.380554387,92,"300 N MONROE, MUNCIE, IN, 47305","Match","Non_Exact","300 N MONROE ST, MUNCIE, IN, 47305",30836514,"R"
471093,"300 N NEW BALLAS RD","CREVE COEUR","MO",63141,38.6600817400001,-90.443279461,93,"300 N NEW BALLAS RD, CREVE COEUR, MO, 63141","Match","Exact","300 N NEW BALLAS RD, CREVE COEUR, MO, 63141",100162692,"R"
471094,"300 N NEW YORK AVE SUITE 1081","WINTER PARK","FL",32790,NA,NA,94,"300 N NEW YORK AVE SUITE 1081, WINTER PARK, FL, 32790","No_Match",NA,NA,NA,NA
471095,"300 N PARK AVE","SANFORD","FL",32771,28.813510163,-81.268042959,95,"300 N PARK AVE, SANFORD, FL, 32771","Match","Exact","300 N PARK AVE, SANFORD, FL, 32771",93749619,"L"
471096,"300 N PATRICK BLVD","BROOKFIELD","WI",53405,43.0346474450001,-88.134722069,96,"300 N PATRICK BLVD, BROOKFIELD, WI, 53405","Match","Non_Exact","300 PATRICK BLVD, BROOKFIELD, WI, 53045",53855737,"L"
471097,"300 N PAULDING DR NO 6675","DALLAS","GA",30132,NA,NA,97,"300 N PAULDING DR NO 6675, DALLAS, GA, 30132","No_Match",NA,NA,NA,NA
471098,"300 N RESLER SUITE B2","EL PASO","TX",79912,NA,NA,98,"300 N RESLER SUITE B2, EL PASO, TX, 79912","No_Match",NA,NA,NA,NA
471099,"300 N REVERE RD","FAIRLAWN","OH",44333,41.1304510840001,-81.597442418,99,"300 N REVERE RD, FAIRLAWN, OH, 44333","Match","Exact","300 N REVERE RD, FAIRLAWN, OH, 44333",61337134,"L"
471100,"300 N ROUND VALLEY ROAD","BISHOP","CA",93514,37.4141054790001,-118.586649939,100,"300 N ROUND VALLEY ROAD, BISHOP, CA, 93514","Match","Exact","300 N ROUND VALLEY RD, BISHOP, CA, 93514",175874754,"R"
471101,"300 N SENECA ST","RITTMAN","OH",44270,40.9808680460001,-81.779082849,101,"300 N SENECA ST, RITTMAN, OH, 44270","Match","Exact","300 N SENECA ST, RITTMAN, OH, 44270",58764182,"R"
471102,"300 N STATE STREET - APT 3011","CHICAGO","IL",60654,41.8878977960001,-87.628023673,102,"300 N STATE STREET - APT 3011, CHICAGO, IL, 60654","Match","Non_Exact","300 N STATE ST, CHICAGO, IL, 60654",643187414,"L"
471103,"300 N SUNSET DR","ABERDEEN","SD",57401,NA,NA,103,"300 N SUNSET DR, ABERDEEN, SD, 57401","No_Match",NA,NA,NA,NA
471104,"300 N WALNUT ST","WILMINGTON","DE",19801,39.7387557000001,-75.5489601359999,104,"300 N WALNUT ST, WILMINGTON, DE, 19801","Match","Exact","300 N WALNUT ST, WILMINGTON, DE, 19801",187258099,"R"
471105,"300 N WASHINGTON ST","GETTYSBURG","PA",17325,39.8267240210001,-77.2333026589999,105,"300 N WASHINGTON ST, GETTYSBURG, PA, 17325","Match","Non_Exact","300 S WASHINGTON ST, GETTYSBURG, PA, 17325",60881711,"R"
471106,"300 N WEST AVE","LINCOLN","AR",72744,35.9528016360001,-94.4256275609999,106,"300 N WEST AVE, LINCOLN, AR, 72744","Match","Exact","300 N WEST AVE, LINCOLN, AR, 72744",49035795,"R"
471107,"300 N WILSON DRIVE","WEST UNION","OH",45693,38.795209734,-83.536633991,107,"300 N WILSON DRIVE, WEST UNION, OH, 45693","Match","Exact","300 N WILSON DR, WEST UNION, OH, 45693",100851014,"R"
471108,"300 NAGHTEN STREET","COLUMBUS","OH",43215,39.9686915300001,-82.993344679,108,"300 NAGHTEN STREET, COLUMBUS, OH, 43215","Match","Non_Exact","300 E NAGHTEN ST, COLUMBUS, OH, 43215",135579048,"L"
471109,"300 NANCY STREET","GEORGETOWN","DE",19947,38.6874398960001,-75.394062608,109,"300 NANCY STREET, GEORGETOWN, DE, 19947","Match","Exact","300 NANCY ST, GEORGETOWN, DE, 19947",106111182,"R"
471110,"300 NE 14TH AVE","FORT LAUDERDALE","FL",33301,26.1258352510001,-80.1293188179999,110,"300 NE 14TH AVE, FORT LAUDERDALE, FL, 33301","Match","Exact","300 NE 14TH AVE, FORT LAUDERDALE, FL, 33301",114723117,"R"
471111,"300 NE 150 TH STREET","MIAMI","FL",33161,25.912829887,-80.193528434,111,"300 NE 150 TH STREET, MIAMI, FL, 33161","Match","Non_Exact","300 NE 150TH ST, MIAMI, FL, 33161",116031516,"R"
471112,"300 NE 180 DRIVE","N MIAMI BCH","FL",33162,25.9371958030001,-80.194475855,112,"300 NE 180 DRIVE, N MIAMI BCH, FL, 33162","Match","Exact","300 NE 180TH DR, N MIAMI BEACH, FL, 33162",116030647,"R"
471113,"300 NE 8TH STREET","COOPER","TX",75432,33.375781928,-95.681358277,113,"300 NE 8TH STREET, COOPER, TX, 75432","Match","Exact","300 NE 8TH ST, COOPER, TX, 75432",70336545,"R"
471114,"300 NE MOBERLY LN APT E7","BENTONVILLE","AR",72712,36.3691385060001,-94.18323093,114,"300 NE MOBERLY LN APT E7, BENTONVILLE, AR, 72712","Match","Exact","300 MOBERLY LN, BENTONVILLE, AR, 72712",47849229,"R"
471115,"300 NE PINOT GRIS","CORVALLIS","OR",97330,44.6208006900001,-123.240165815,115,"300 NE PINOT GRIS, CORVALLIS, OR, 97330","Match","Non_Exact","300 PINOT GRIS DR, CORVALLIS, OR, 97330",155871157,"R"
471116,"300 NEAL DRIVE","LIBERTY HILL","TX",78642,30.6769944220001,-97.908688804,116,"300 NEAL DRIVE, LIBERTY HILL, TX, 78642","Match","Exact","300 NEAL DR, LIBERTY HILL, TX, 78642",620004437,"R"
471117,"300 NEW JERSEY AVE NW STE 900","WASHINGTON","DC",20001,38.8940156300001,-77.0106910549999,117,"300 NEW JERSEY AVE NW STE 900, WASHINGTON, DC, 20001","Match","Non_Exact","300 NEW JERSEY AVE NW, WASHINGTON, DC, 20001",76226716,"L"
471118,"300 NEW JERSEY AVENUE SUITE 900","WASHINGTON","DC",20001,NA,NA,118,"300 NEW JERSEY AVENUE SUITE 900, WASHINGTON, DC, 20001","No_Match",NA,NA,NA,NA
471119,"300 NEW STINE RD","BAKERSFIELD","CA",93309,NA,NA,119,"300 NEW STINE RD, BAKERSFIELD, CA, 93309","Tie",NA,NA,NA,NA
471120,"300 NEW STREET","EATONTON","GA",31024,33.3203556600001,-83.374527593,120,"300 NEW STREET, EATONTON, GA, 31024","Match","Exact","300 NEW ST, EATONTON, GA, 31024",16679507,"R"
471121,"300 NEW STREET","FAIRPORT HARBOR","OH",44077,41.748024978,-81.274797711,121,"300 NEW STREET, FAIRPORT HARBOR, OH, 44077","Match","Exact","300 NEW ST, FAIRPORT HARBOR, OH, 44077",137464650,"R"
471122,"300 NEW YORK RANCH RD APT 11","JACKSON","CA",95642,38.3570230810001,-120.767136077,122,"300 NEW YORK RANCH RD APT 11, JACKSON, CA, 95642","Match","Non_Exact","300 NEW YORK RANCH RD, JACKSON, CA, 95642",650876805,"R"
471123,"300 NEW YORK RANCH RD APT 28","JACKSON","CA",95642,38.3570230810001,-120.767136077,123,"300 NEW YORK RANCH RD APT 28, JACKSON, CA, 95642","Match","Non_Exact","300 NEW YORK RANCH RD, JACKSON, CA, 95642",650876805,"R"
471124,"300 NEWPORT AVENUE","WILLIAMSBURG","VA",23185,37.2669096720001,-76.7042589279999,124,"300 NEWPORT AVENUE, WILLIAMSBURG, VA, 23185","Match","Exact","300 NEWPORT AVE, WILLIAMSBURG, VA, 23185",103839067,"R"
471125,"300 NICHOLSON AVE","WAVELAND","MS",39576,30.291963713,-89.3620384129999,125,"300 NICHOLSON AVE, WAVELAND, MS, 39576","Match","Exact","300 NICHOLSON AVE, WAVELAND, MS, 39576",111132135,"R"
471126,"300 NORCIA LOOP","LIBERTY HILL","TX",78642,30.650658471,-97.841260814,126,"300 NORCIA LOOP, LIBERTY HILL, TX, 78642","Match","Exact","300 NORCIA LOOP, LIBERTY HILL, TX, 78642",641111079,"R"
471127,"300 NORTH 143 STREET","WICHITA","KS",67203,NA,NA,127,"300 NORTH 143 STREET, WICHITA, KS, 67203","No_Match",NA,NA,NA,NA
471128,"300 NORTH 30TH STREET","WILMINGTON","NC",28405,34.242786977,-77.90721475,128,"300 NORTH 30TH STREET, WILMINGTON, NC, 28405","Match","Exact","300 N 30TH ST, WILMINGTON, NC, 28405",636285404,"R"
471129,"300 NORTH 4TH ST APT 815","SAINT LOUIS","MO",63102,38.628477221,-90.187483405,129,"300 NORTH 4TH ST APT 815, SAINT LOUIS, MO, 63102","Match","Exact","300 N 4TH ST, SAINT LOUIS, MO, 63102",650041249,"R"
471130,"300 NORTH 4TH STREET  APT 906","ST LOUIS","MO",63102,38.628477221,-90.187483405,130,"300 NORTH 4TH STREET  APT 906, ST LOUIS, MO, 63102","Match","Exact","300 N 4TH ST, SAINT LOUIS, MO, 63102",650041249,"R"
471131,"300 NORTH 7TH STREET","MURPHYSBORO","IL",62966,NA,NA,131,"300 NORTH 7TH STREET, MURPHYSBORO, IL, 62966","No_Match",NA,NA,NA,NA
471132,"300 NORTH AVENUE","WILSON","NC",27893,35.741880231,-77.918603046,132,"300 NORTH AVENUE, WILSON, NC, 27893","Match","Non_Exact","300 NORTH AVE N, WILSON, NC, 27893",26704583,"R"
471133,"300 NORTH B STREET","LENOIR CITY","TN",37771,35.792073658,-84.2684070769999,133,"300 NORTH B STREET, LENOIR CITY, TN, 37771","Match","Exact","300 N B ST, LENOIR CITY, TN, 37771",99964392,"L"
471134,"300 NORTH BRANCH DRIVE","TRENTON","OH",45067,39.477705369,-84.476639231,134,"300 NORTH BRANCH DRIVE, TRENTON, OH, 45067","Match","Exact","300 N BRANCH DR, TRENTON, OH, 45067",113815451,"L"
471135,"300 NORTH BROADWAY","YONKERTS","NY",10701,40.9449995890001,-73.8941473479999,135,"300 NORTH BROADWAY, YONKERTS, NY, 10701","Match","Non_Exact","300 N BROADWAY, YONKERS, NY, 10701",652208699,"R"
471136,"300 NORTH BURNET DRIVE","BAYTOWN","TX",77520,29.7850175520001,-95.0422776729999,136,"300 NORTH BURNET DRIVE, BAYTOWN, TX, 77520","Match","Non_Exact","300 N BURNETT DR, BAYTOWN, TX, 77520",96421839,"L"
471137,"300 NORTH COLLEGE STREET","NORTHFIELD","MN",55057,44.459691879,-93.155499116,137,"300 NORTH COLLEGE STREET, NORTHFIELD, MN, 55057","Match","Non_Exact","300 COLLEGE ST, NORTHFIELD, MN, 55057",37314552,"R"
471138,"300 NORTH DEAN ROAD SUITE 5 127","AUBURN","AL",36830,32.609745199,-85.464891687,138,"300 NORTH DEAN ROAD SUITE 5 127, AUBURN, AL, 36830","Match","Exact","300 N DEAN RD, AUBURN, AL, 36830",1570070,"R"
471139,"300 NORTH ELM APT 110","DENTON","TX",76201,33.216727543,-97.1336498749999,139,"300 NORTH ELM APT 110, DENTON, TX, 76201","Match","Non_Exact","300 N ELM ST, DENTON, TX, 76201",640569090,"R"
471140,"300 NORTH END AVE APT 6L","NEW YORK","NY",10282,40.7164281140001,-74.0147306869999,140,"300 NORTH END AVE APT 6L, NEW YORK, NY, 10282","Match","Exact","300 N END AVE, NEW YORK, NY, 10282",59660891,"L"
471141,"300 NORTH END AVENUE","NEW YORK","NY",10282,40.7164281140001,-74.0147306869999,141,"300 NORTH END AVENUE, NEW YORK, NY, 10282","Match","Exact","300 N END AVE, NEW YORK, NY, 10282",59660891,"L"
471142,"300 NORTH FIFTH AVE","ANN ARBOR","MI",48104,42.2832605240001,-83.7458828809999,142,"300 NORTH FIFTH AVE, ANN ARBOR, MI, 48104","Match","Exact","300 N 5TH AVE, ANN ARBOR, MI, 48104",26014528,"R"
471143,"300 NORTH FISHER STREET","JONESBORO","AR",72401,35.846678162,-90.697095797,143,"300 NORTH FISHER STREET, JONESBORO, AR, 72401","Match","Exact","300 N FISHER ST, JONESBORO, AR, 72401",46927114,"R"
471144,"300 NORTH GREEN STREET","GREENSBORO","NC",27401,NA,NA,144,"300 NORTH GREEN STREET, GREENSBORO, NC, 27401","No_Match",NA,NA,NA,NA
471145,"300 NORTH GREENE STREET SUITE 2000","GREENSBORO","NC",27401,36.0753131450001,-79.791350843,145,"300 NORTH GREENE STREET SUITE 2000, GREENSBORO, NC, 27401","Match","Exact","300 N GREENE ST, GREENSBORO, NC, 27401",131032916,"R"
471146,"300 NORTH JULIAN STREET","EBENSBURG","PA",15931,40.4870155740001,-78.727094106,146,"300 NORTH JULIAN STREET, EBENSBURG, PA, 15931","Match","Exact","300 N JULIAN ST, EBENSBURG, PA, 15931",50238099,"R"
471147,"300 NORTH LANG","DIXON","MO",65459,37.9979365080001,-92.09183745,147,"300 NORTH LANG, DIXON, MO, 65459","Match","Non_Exact","300 N LANG ST, DIXON, MO, 65459",26373824,"R"
471148,"300 NORTH LARCH","ELMHURST","IL",60126,41.9072616330001,-87.942934388,148,"300 NORTH LARCH, ELMHURST, IL, 60126","Match","Non_Exact","300 N LARCH AVE, ELMHURST, IL, 60126",112544654,"L"
471149,"300 NORTH MAIN ST","FRANKLIN","KY",42134,36.7239955960001,-86.577632378,149,"300 NORTH MAIN ST, FRANKLIN, KY, 42134","Match","Exact","300 N MAIN ST, FRANKLIN, KY, 42134",29599674,"R"
471150,"300 NORTH MAIN","RAWSON","OH",45881,40.9610754660001,-83.7852197669999,150,"300 NORTH MAIN, RAWSON, OH, 45881","Match","Non_Exact","300 N MAIN ST, RAWSON, OH, 45881",634350783,"L"
471151,"300 NORTH MILLER AVENUE","BAINBRIDGE","GA",38917,30.918357588,-84.5884379789999,151,"300 NORTH MILLER AVENUE, BAINBRIDGE, GA, 38917","Match","Non_Exact","300 N MILLER AVE, BAINBRIDGE, GA, 39817",84278514,"R"
471152,"300 NORTH RIDGE STREET","DANVILLE","VA",24541,36.5875107270001,-79.397141238,152,"300 NORTH RIDGE STREET, DANVILLE, VA, 24541","Match","Exact","300 N RIDGE ST, DANVILLE, VA, 24541",56589812,"R"
471153,"300 NORTH ST","MORGANTON","NC",28655,NA,NA,153,"300 NORTH ST, MORGANTON, NC, 28655","No_Match",NA,NA,NA,NA
471154,"300 NORTH STATE","CHICAGO","IL",60654,41.8878977960001,-87.628023673,154,"300 NORTH STATE, CHICAGO, IL, 60654","Match","Non_Exact","300 N STATE ST, CHICAGO, IL, 60654",643187414,"L"
471155,"300 NORTH STEVENS ST","ELLAVILLE","GA",31806,32.2424645580001,-84.3114868229999,155,"300 NORTH STEVENS ST, ELLAVILLE, GA, 31806","Match","Exact","300 N STEVENS ST, ELLAVILLE, GA, 31806",30396399,"R"
471156,"300 NORTH STREET","HARRISBURG","PA",17120,NA,NA,156,"300 NORTH STREET, HARRISBURG, PA, 17120","No_Match",NA,NA,NA,NA
471157,"300 NORTH VIEW TERRACE","ALEXANDRIA","VA",22301,38.810041217,-77.065373543,157,"300 NORTH VIEW TERRACE, ALEXANDRIA, VA, 22301","Match","Exact","300 N VIEW TER, ALEXANDRIA, VA, 22301",75987989,"L"
471158,"300 NORTH WATER STREET SUITE H","KENT","OH",44240,41.1516328600001,-81.3582051399999,158,"300 NORTH WATER STREET SUITE H, KENT, OH, 44240","Match","Non_Exact","300 S WATER ST, KENT, OH, 44240",137515875,"R"
471159,"300 NORTH WEST STREET","HILLSDALE","MI",49242,41.933321242,-84.63530859,159,"300 NORTH WEST STREET, HILLSDALE, MI, 49242","Match","Exact","300 N WEST ST, HILLSDALE, MI, 49242",8281354,"L"
471160,"300 NORVICH CT","FRANKLIN","TN",37069,35.96511114,-86.8900545499999,160,"300 NORVICH CT, FRANKLIN, TN, 37069","Match","Exact","300 NORVICH CT, FRANKLIN, TN, 37069",73119985,"L"
471161,"300 NP AVE SUITE 303","FARGO","ND",58102,46.875909576,-96.783175172,161,"300 NP AVE SUITE 303, FARGO, ND, 58102","Match","Non_Exact","300 NP AVE N, FARGO, ND, 58102",151472435,"L"
471162,"300 NW 145TH STREET","MIAMI","FL",33168,25.907684325,-80.205682661,162,"300 NW 145TH STREET, MIAMI, FL, 33168","Match","Non_Exact","300 NW 145TH ST, MIAMI, FL, 33168",116033336,"L"
471163,"300 NW 192ND STREET","MIAMI","FL",33169,25.950814339,-80.2076578959999,163,"300 NW 192ND STREET, MIAMI, FL, 33169","Match","Exact","300 NW 192ND ST, MIAMI, FL, 33169",116029685,"L"
471164,"300 NW 20TH AVENUE","POMPANO BEACH","FL",33069,26.234084685,-80.1499873819999,164,"300 NW 20TH AVENUE, POMPANO BEACH, FL, 33069","Match","Exact","300 NW 20TH AVE, POMPANO BEACH, FL, 33069",114694346,"R"
471165,"300 NW 34TH TERRACE","GAINESVILLE","FL",32607,29.65407865,-82.373234924,165,"300 NW 34TH TERRACE, GAINESVILLE, FL, 32607","Match","Exact","300 NW 34TH TER, GAINESVILLE, FL, 32607",6805175,"L"
471166,"300 NW 56TH ST","SEATTLE","WA",98107,47.669429581,-122.360887218,166,"300 NW 56TH ST, SEATTLE, WA, 98107","Match","Exact","300 NW 56TH ST, SEATTLE, WA, 98107",186579230,"R"
471167,"300 NW 65 TERRACE","MARGATE","FL",33063,NA,NA,167,"300 NW 65 TERRACE, MARGATE, FL, 33063","Tie",NA,NA,NA,NA
471168,"300 NW 77 AVENUE","MARGATE","FL",33063,26.2349615410001,-80.228578582,168,"300 NW 77 AVENUE, MARGATE, FL, 33063","Match","Exact","300 NW 77TH AVE, MARGATE, FL, 33063",635913536,"R"
471169,"300 OAK AVE","SHELBY","NC",28152,35.2465679920001,-81.6588599,169,"300 OAK AVE, SHELBY, NC, 28152","Match","Exact","300 OAK AVE, SHELBY, NC, 28152",19323065,"R"
471170,"300 OAK CREEK ROAD","FRANKLIN","NC",28734,35.1706671690001,-83.4658311909999,170,"300 OAK CREEK ROAD, FRANKLIN, NC, 28734","Match","Exact","300 OAK CREEK RD, FRANKLIN, NC, 28734",635242220,"L"
471171,"300 OAK DR","ORMOND BEACH","FL",32176,NA,NA,171,"300 OAK DR, ORMOND BEACH, FL, 32176","No_Match",NA,NA,NA,NA
471172,"300 OAK RIDGE CT","SWANSBORO","NC",28584,34.692567921,-77.14339754,172,"300 OAK RIDGE CT, SWANSBORO, NC, 28584","Match","Exact","300 OAK RIDGE CT, SWANSBORO, NC, 28584",625328980,"R"
471173,"300 OAK ST LOT 2","ANGOLA","IN",46703,41.645981959,-84.997157353,173,"300 OAK ST LOT 2, ANGOLA, IN, 46703","Match","Exact","300 OAK ST, ANGOLA, IN, 46703",604804919,"R"
471174,"300 OAK STREET","WARNER ROBINS","GA",31088,32.6119921530001,-83.647049489,174,"300 OAK STREET, WARNER ROBINS, GA, 31088","Match","Exact","300 OAK ST, WARNER ROBINS, GA, 31088",91218649,"L"
471175,"300 OAKLAWN","SPRINGDALE","AR",72756,NA,NA,175,"300 OAKLAWN, SPRINGDALE, AR, 72756","No_Match",NA,NA,NA,NA
471176,"300 OAKWOOD DRIVE","HURST","TX",76053,32.813321785,-97.1995491929999,176,"300 OAKWOOD DRIVE, HURST, TX, 76053","Match","Exact","300 OAKWOOD DR, HURST, TX, 76053",102186093,"L"
471177,"300 OCEAN AVE A41","OCEAN CITY","NJ",8226,39.2835743840001,-74.565708512,177,"300 OCEAN AVE A41, OCEAN CITY, NJ, 8226","Match","Exact","300 OCEAN AVE, OCEAN CITY, NJ, 08226",174343419,"R"
471178,"300 OCEAN PARKWAY 2K","BROOKLYN","NY",11218,40.6420294820001,-73.974152563,178,"300 OCEAN PARKWAY 2K, BROOKLYN, NY, 11218","Match","Exact","300 OCEAN PKWY, BROOKLYN, NY, 11218",59074675,"R"
471179,"300 OCEAN TRAIL WAY APT 1008","JUPITER","FL",33477,NA,NA,179,"300 OCEAN TRAIL WAY APT 1008, JUPITER, FL, 33477","No_Match",NA,NA,NA,NA
471180,"300 OLD COUNTRY ROAD SUITE 351","MINEOLA","NY",11501,NA,NA,180,"300 OLD COUNTRY ROAD SUITE 351, MINEOLA, NY, 11501","No_Match",NA,NA,NA,NA
471181,"300 OLD COUNTRY ROAD","SEVERNA PARK","MD",21147,NA,NA,181,"300 OLD COUNTRY ROAD, SEVERNA PARK, MD, 21147","No_Match",NA,NA,NA,NA
471182,"300 OLD HWY 25","COLUMBIANA","AL",35051,33.173957192,-86.609828109,182,"300 OLD HWY 25, COLUMBIANA, AL, 35051","Match","Exact","300 OLD HWY 25, COLUMBIANA, AL, 35051",82129541,"L"
471183,"300 OLD PELZER RD APT 15","PIEDMONT","SC",29673,NA,NA,183,"300 OLD PELZER RD APT 15, PIEDMONT, SC, 29673","No_Match",NA,NA,NA,NA
471184,"300 OLD SOUTH WOODWARD AVENUE","BIRMINGHAM","MI",48009,NA,NA,184,"300 OLD SOUTH WOODWARD AVENUE, BIRMINGHAM, MI, 48009","No_Match",NA,NA,NA,NA
471185,"300 OLD YORK ROAD","DULUTH","GA",30097,34.041275892,-84.1678207049999,185,"300 OLD YORK ROAD, DULUTH, GA, 30097","Match","Exact","300 OLD YORK RD, DULUTH, GA, 30097",17389951,"L"
471186,"300 OLIVE ST STE 1001","LOS ANGELES","CA",90013,34.0522985270001,-118.250193692,186,"300 OLIVE ST STE 1001, LOS ANGELES, CA, 90013","Match","Non_Exact","300 S OLIVE ST, LOS ANGELES, CA, 90013",141617292,"L"
471187,"300 OLYMPIC DRIVE","TAZEWELL","VA",24651,37.138085378,-81.4174426169999,187,"300 OLYMPIC DRIVE, TAZEWELL, VA, 24651","Match","Exact","300 OLYMPIC DR, TAZEWELL, VA, 24651",47321769,"R"
471188,"300 ONEIDA ST","JACKSONVILLE","AR",72076,34.8609318490001,-92.168614116,188,"300 ONEIDA ST, JACKSONVILLE, AR, 72076","Match","Exact","300 ONEIDA ST, JACKSONVILLE, AR, 72076",618984425,"L"
471189,"300 OPELIKA RD 1935","AUBURN","AL",36830,32.6126229340001,-85.4770420099999,189,"300 OPELIKA RD 1935, AUBURN, AL, 36830","Match","Exact","300 OPELIKA RD, AUBURN, AL, 36830",1569889,"R"
471190,"300 ORLEANS BLVD","MCDONOUGH","GA",30253,33.439085038,-84.20164579,190,"300 ORLEANS BLVD, MCDONOUGH, GA, 30253","Match","Exact","300 ORLEANS BLVD, MCDONOUGH, GA, 30253",23197975,"R"
471191,"300 OSBORNE STREET","ST MARYS","GA",31558,30.72335149,-81.5478651179999,191,"300 OSBORNE STREET, ST MARYS, GA, 31558","Match","Exact","300 OSBORNE ST, SAINT MARYS, GA, 31558",125701383,"R"
471192,"300 OTIS STREET APT 2","BANGOR","ME",4401,NA,NA,192,"300 OTIS STREET APT 2, BANGOR, ME, 4401","No_Match",NA,NA,NA,NA
471193,"300 OTTER RUN","STUART","FL",34997,NA,NA,193,"300 OTTER RUN, STUART, FL, 34997","No_Match",NA,NA,NA,NA
471194,"300 OVERCREST DR","BENBROOK","TX",76126,32.666779508,-97.4856209339999,194,"300 OVERCREST DR, BENBROOK, TX, 76126","Match","Exact","300 OVERCREST DR, BENBROOK, TX, 76126",101876337,"R"
471195,"300 OXCART ROAD","ASHLAND","KY",41101,38.4900888710001,-82.6867857679999,195,"300 OXCART ROAD, ASHLAND, KY, 41101","Match","Exact","300 OXCART RD, ASHLAND, KY, 41101",151060275,"L"
471196,"300 PAGE STREET","SAN FRANCISCO","CA",94102,37.773656422,-122.425833566,196,"300 PAGE STREET, SAN FRANCISCO, CA, 94102","Match","Exact","300 PAGE ST, SAN FRANCISCO, CA, 94102",192283900,"R"
471197,"300 PAISLEY ROAD","GRETNA","VA",24557,37.038254447,-79.3715569889999,197,"300 PAISLEY ROAD, GRETNA, VA, 24557","Match","Exact","300 PAISLEY RD, GRETNA, VA, 24557",652158279,"L"
471198,"300 PALISADE AVE","YONKERS","NY",10701,40.943884865,-73.892752532,198,"300 PALISADE AVE, YONKERS, NY, 10701","Match","Non_Exact","300 PALISADE AVE, YONKERS, NY, 10703",635852822,"R"
471199,"300 PALM COAST PARKWAY SW UNIT 309","PALM COAST","FL",32164,NA,NA,199,"300 PALM COAST PARKWAY SW UNIT 309, PALM COAST, FL, 32164","No_Match",NA,NA,NA,NA
471200,"300 PALM COAST PARKWAYSW UNIT 309","PALM COAST","FL",32164,NA,NA,200,"300 PALM COAST PARKWAYSW UNIT 309, PALM COAST, FL, 32164","No_Match",NA,NA,NA,NA
471201,"300 PALMETTO PARK APT 107","LEXINGTON","SC",29072,34.0013101870001,-81.206814128,201,"300 PALMETTO PARK APT 107, LEXINGTON, SC, 29072","Match","Non_Exact","300 PALMETTO PARK BLVD, LEXINGTON, SC, 29072",70079780,"R"
471202,"300 PARADISE VALLEY RD","CLEVELAND","GA",30528,34.6403712800001,-83.8397509979999,202,"300 PARADISE VALLEY RD, CLEVELAND, GA, 30528","Match","Exact","300 PARADISE VALLEY RD, CLEVELAND, GA, 30528",89043085,"R"
471203,"300 PARIS STREET","LAFAYETTE","LA",70506,30.2075508630001,-92.0645595239999,203,"300 PARIS STREET, LAFAYETTE, LA, 70506","Match","Exact","300 PARIS ST, LAFAYETTE, LA, 70506",85612431,"R"
471204,"300 PARK AVE","FALLS CHURCH","VA",22046,38.8849564860001,-77.1727628679999,204,"300 PARK AVE, FALLS CHURCH, VA, 22046","Match","Exact","300 PARK AVE, FALLS CHURCH, VA, 22046",75979453,"R"
471205,"300 PARK BLDG 3 APT 452","CALUMET CITY","IL",60409,NA,NA,205,"300 PARK BLDG 3 APT 452, CALUMET CITY, IL, 60409","No_Match",NA,NA,NA,NA
471206,"300 PARK BOULEVARD STE 350","ITASKA","IL",60143,41.987965552,-88.021072126,206,"300 PARK BOULEVARD STE 350, ITASKA, IL, 60143","Match","Non_Exact","300 PARK BLVD, ITASCA, IL, 60143",639892765,"L"
471207,"300 PARK RIDGE COURT APT 303","STAFFORD","VA",22554,38.4912241110001,-77.3842730329999,207,"300 PARK RIDGE COURT APT 303, STAFFORD, VA, 22554","Match","Exact","300 PARK RIDGE CT, STAFFORD, VA, 22554",25562680,"R"
471208,"300 PARK ST NE","VIENNA","VA",22180,38.9064584870001,-77.2667349869999,208,"300 PARK ST NE, VIENNA, VA, 22180","Match","Exact","300 PARK ST NE, VIENNA, VA, 22180",75968725,"L"
471209,"300 PARK ST","BARRETT","MN",56311,45.911333622,-95.8913338579999,209,"300 PARK ST, BARRETT, MN, 56311","Match","Exact","300 PARK ST, BARRETT, MN, 56311",634391290,"R"
471210,"300 PARK ST","GASTON","OR",97119,45.435978843,-123.142110974,210,"300 PARK ST, GASTON, OR, 97119","Match","Exact","300 PARK ST, GASTON, OR, 97119",635888747,"R"
471211,"300 PARK ST","ODEBOLT","IA",51458,42.310906963,-95.246632687,211,"300 PARK ST, ODEBOLT, IA, 51458","Match","Exact","300 PARK ST, ODEBOLT, IA, 51458",77500272,"L"
471212,"300 PARKER LANE","OXFORD","AR",72565,36.2235178080001,-91.9444371069999,212,"300 PARKER LANE, OXFORD, AR, 72565","Match","Exact","300 PARKER LN, OXFORD, AR, 72565",645679490,"R"
471213,"300 PARSIPPANY RD APT 30A","PARSIPPANY","NJ",7054,40.8531717720001,-74.425900369,213,"300 PARSIPPANY RD APT 30A, PARSIPPANY, NJ, 7054","Match","Exact","300 PARSIPPANY RD, PARSIPPANY, NJ, 07054",60446843,"L"
471214,"300 PASEO DE PERALTA STE 202","SANTA FE","NM",87501,35.692239799,-105.942473508,214,"300 PASEO DE PERALTA STE 202, SANTA FE, NM, 87501","Match","Non_Exact","300 PSO DE PERALTA, SANTA FE, NM, 87501",635866243,"R"
471215,"300 PASEO DEL CANON WEST","TAOS","NM",87571,NA,NA,215,"300 PASEO DEL CANON WEST, TAOS, NM, 87571","No_Match",NA,NA,NA,NA
471216,"300 PASTEUR DR GRANT S152","PALO ALTO","CA",94305,37.43361989,-122.176478418,216,"300 PASTEUR DR GRANT S152, PALO ALTO, CA, 94305","Match","Exact","300 PASTEUR DR, PALO ALTO, CA, 94305",618159437,"L"
471217,"300 PATTERSON ROAD","BOLIVAR","PA",15923,40.3544004010001,-79.1960226099999,217,"300 PATTERSON ROAD, BOLIVAR, PA, 15923","Match","Non_Exact","300 PATTERSON, BOLIVAR, PA, 15923",53006771,"R"
471218,"300 PATTON DRIVE","CHESHIRE","CT",6410,41.4926097380001,-72.911347512,218,"300 PATTON DRIVE, CHESHIRE, CT, 6410","Match","Exact","300 PATTON DR, CHESHIRE, CT, 06410",3712537,"R"
471219,"300 PEACHTREE DRIVE","IRMO","SC",29063,34.1197967630001,-81.1501452479999,219,"300 PEACHTREE DRIVE, IRMO, SC, 29063","Match","Exact","300 PEACHTREE DR, IRMO, SC, 29063",71816259,"R"
471220,"300 PEACHTREE POINT COURT","CARY","NC",27513,35.811904821,-78.805024105,220,"300 PEACHTREE POINT COURT, CARY, NC, 27513","Match","Exact","300 PEACHTREE POINT CT, CARY, NC, 27513",208346959,"R"
471221,"300 PEACHTREE ST  3H","ATLANTA","GA",30308,33.7635670220001,-84.386503896,221,"300 PEACHTREE ST  3H, ATLANTA, GA, 30308","Match","Exact","300 PEACHTREE ST, ATLANTA, GA, 30308",653670913,"L"
471222,"300 PEACHTREE ST NE SUITE 9H","ATLANTA","GA",30308,33.7635670220001,-84.386503896,222,"300 PEACHTREE ST NE SUITE 9H, ATLANTA, GA, 30308","Match","Non_Exact","300 PEACHTREE ST, ATLANTA, GA, 30308",653670913,"L"
471223,"300 PEACHTREE ST NE UNIT 23I","ATLANTA","GA",30311,NA,NA,223,"300 PEACHTREE ST NE UNIT 23I, ATLANTA, GA, 30311","No_Match",NA,NA,NA,NA
471224,"300 PEACHTREE ST NE","ATLANTA","GA",30308,33.7635670220001,-84.386503896,224,"300 PEACHTREE ST NE, ATLANTA, GA, 30308","Match","Non_Exact","300 PEACHTREE ST, ATLANTA, GA, 30308",653670913,"L"
471225,"300 PEACHTREE","ATLANTA","GA",30308,33.7635670220001,-84.386503896,225,"300 PEACHTREE, ATLANTA, GA, 30308","Match","Non_Exact","300 PEACHTREE ST, ATLANTA, GA, 30308",653670913,"L"
471226,"300 PEASE COURT","JANESVILLE","WI",53545,42.6862404240001,-89.022992059,226,"300 PEASE COURT, JANESVILLE, WI, 53545","Match","Exact","300 PEASE CT, JANESVILLE, WI, 53545",49853899,"R"
471227,"300 PEBBLE TRAIL","CAVE CITY","AR",72521,35.93181486,-91.610592918,227,"300 PEBBLE TRAIL, CAVE CITY, AR, 72521","Match","Exact","300 PEBBLE TRL, CAVE CITY, AR, 72521",645523803,"R"
471228,"300 PECAN LN","LAURINBURG","NC",28352,34.7803292880001,-79.4838627509999,228,"300 PECAN LN, LAURINBURG, NC, 28352","Match","Exact","300 PECAN LN, LAURINBURG, NC, 28352",25786473,"L"
471229,"300 PECORE ST APT 24","HOUSTON","TX",77009,29.790621345,-95.3744109679999,229,"300 PECORE ST APT 24, HOUSTON, TX, 77009","Match","Exact","300 PECORE ST, HOUSTON, TX, 77009",96065581,"L"
471230,"300 PELHAM RD APT 6E","NEW ROCHELLE","NY",10805,40.900509221,-73.777726727,230,"300 PELHAM RD APT 6E, NEW ROCHELLE, NY, 10805","Match","Exact","300 PELHAM RD, NEW ROCHELLE, NY, 10805",139752936,"L"
471231,"300 PELHAM RD","NEW ROCHELLE","NY",10805,40.900509221,-73.777726727,231,"300 PELHAM RD, NEW ROCHELLE, NY, 10805","Match","Exact","300 PELHAM RD, NEW ROCHELLE, NY, 10805",139752936,"L"
471232,"300 PELHAM ROAD - 2R","NEW ROCHELLE","NY",10801,40.900509221,-73.777726727,232,"300 PELHAM ROAD - 2R, NEW ROCHELLE, NY, 10801","Match","Non_Exact","300 PELHAM RD, NEW ROCHELLE, NY, 10805",139752936,"L"
471233,"300 PELHAM ROAD APT 4K","NEW ROCHELLE","NY",10805,40.900509221,-73.777726727,233,"300 PELHAM ROAD APT 4K, NEW ROCHELLE, NY, 10805","Match","Exact","300 PELHAM RD, NEW ROCHELLE, NY, 10805",139752936,"L"
471234,"300 PELHAM ROAD APT 99","GREENVILLE","SC",29615,34.8653995980001,-82.346391765,234,"300 PELHAM ROAD APT 99, GREENVILLE, SC, 29615","Match","Exact","300 PELHAM RD, GREENVILLE, SC, 29615",624818607,"R"
471235,"300 PELHAM ROAD NUMBER 32","GREENVILLE","SC",29615,34.8653995980001,-82.346391765,235,"300 PELHAM ROAD NUMBER 32, GREENVILLE, SC, 29615","Match","Exact","300 PELHAM RD, GREENVILLE, SC, 29615",624818607,"R"
471236,"300 PEMBERTON AVENUE","P","NJ",7060,40.600936054,-74.414876254,236,"300 PEMBERTON AVENUE, P, NJ, 7060","Match","Non_Exact","300 PEMBERTON AVE, PLAINFIELD, NJ, 07060",60561004,"R"
471237,"300 PENNANT LANE","FAIRBURN","LA",30213,NA,NA,237,"300 PENNANT LANE, FAIRBURN, LA, 30213","No_Match",NA,NA,NA,NA
471238,"300 PENRUTH AVENUE","LOUISVILLE","KY",40207,38.2638029930001,-85.68113685,238,"300 PENRUTH AVENUE, LOUISVILLE, KY, 40207","Match","Exact","300 PENRUTH AVE, LOUISVILLE, KY, 40207",648881971,"L"
471239,"300 PERIWINKLE","PATTERSON","CA",95363,NA,NA,239,"300 PERIWINKLE, PATTERSON, CA, 95363","No_Match",NA,NA,NA,NA
471240,"300 PERKINS CIRCLE","LAS VEGAS","NV",89106,36.194478529,-115.144923884,240,"300 PERKINS CIRCLE, LAS VEGAS, NV, 89106","Match","Exact","300 PERKINS CIR, LAS VEGAS, NV, 89106",201866843,"R"
471241,"300 PERRY STREET","CASTLE ROCK","CO",80104,39.372337127,-104.858654928,241,"300 PERRY STREET, CASTLE ROCK, CO, 80104","Match","Exact","300 PERRY ST, CASTLE ROCK, CO, 80104",130796560,"R"
471242,"300 PERSHING AVENUE","BLAIRSVILLE","PA",15717,40.427919269,-79.258610968,242,"300 PERSHING AVENUE, BLAIRSVILLE, PA, 15717","Match","Exact","300 PERSHING AVE, BLAIRSVILLE, PA, 15717",66295254,"L"
471243,"300 PETERSON ST","FORT COLLINS","CO",80524,40.584144773,-105.071935867,243,"300 PETERSON ST, FORT COLLINS, CO, 80524","Match","Exact","300 PETERSON ST, FORT COLLINS, CO, 80524",188571195,"L"
471244,"300 PETTIGRY ST","GREENVILLE","SC",29601,34.8500887430001,-82.38971414,244,"300 PETTIGRY ST, GREENVILLE, SC, 29601","Match","Non_Exact","300 PETTIGRU ST, GREENVILLE, SC, 29601",38301298,"R"
471245,"300 PFORZHEIMER MAIL CENTER","CAMBRIDGE","MA",2138,NA,NA,245,"300 PFORZHEIMER MAIL CENTER, CAMBRIDGE, MA, 2138","No_Match",NA,NA,NA,NA
471246,"300 PHEASANT TAIL LANE","DILLON","MT",59725,45.1485165220001,-112.68617251,246,"300 PHEASANT TAIL LANE, DILLON, MT, 59725","Match","Exact","300 PHEASANT TAIL LN, DILLON, MT, 59725",651343719,"R"
471247,"300 PHICO STREET","CHAPMANVILLE","WV",25508,37.944607987,-82.017630234,247,"300 PHICO STREET, CHAPMANVILLE, WV, 25508","Match","Exact","300 PHICO ST, CHAPMANVILLE, WV, 25508",78799031,"L"
471248,"300 PIKE ST 400","CINCINNATI","OH",45249,NA,NA,248,"300 PIKE ST 400, CINCINNATI, OH, 45249","Tie",NA,NA,NA,NA
471249,"300 PINE ROCK COURT","ALEXANDER","AR",72202,34.6389100330001,-92.418828747,249,"300 PINE ROCK COURT, ALEXANDER, AR, 72202","Match","Non_Exact","300 PINE ROCK CT, ALEXANDER, AR, 72002",650461369,"R"
471250,"300 PINE TREE RD","SELMA","NC",27576,35.682588179,-78.300197022,250,"300 PINE TREE RD, SELMA, NC, 27576","Match","Exact","300 PINE TREE RD, SELMA, NC, 27576",26520024,"R"
471251,"300 PINEHILL DRIVE","BOONEVILLE","MS",38829,34.6574980170001,-88.5279819249999,251,"300 PINEHILL DRIVE, BOONEVILLE, MS, 38829","Match","Non_Exact","300 PINEHILL RD, BOONEVILLE, MS, 38829",91013663,"R"
471252,"300 PINERIDGE RD","SANTA CRUZ","CA",95060,37.043547523,-122.113757444,252,"300 PINERIDGE RD, SANTA CRUZ, CA, 95060","Match","Exact","300 PINERIDGE RD, SANTA CRUZ, CA, 95060",605996400,"R"
471253,"300 PINYAN LANE","CANTON","GA",30115,34.190808067,-84.438035406,253,"300 PINYAN LANE, CANTON, GA, 30115","Match","Exact","300 PINYAN LN, CANTON, GA, 30115",68864859,"R"
471254,"300 PLANTATION DR","TITUSVILLE","FL",32780,28.515112538,-80.8673063419999,254,"300 PLANTATION DR, TITUSVILLE, FL, 32780","Match","Exact","300 PLANTATION DR, TITUSVILLE, FL, 32780",93951183,"L"
471255,"300 PLANTATION ISLAND DRIVE","ST. AUGUSTINE","FL",32084,NA,NA,255,"300 PLANTATION ISLAND DRIVE, ST. AUGUSTINE, FL, 32084","No_Match",NA,NA,NA,NA
471256,"300 PLANTATION RD  APT 9","THIBODAUX","LA",70301,29.7810136030001,-90.82339559,256,"300 PLANTATION RD  APT 9, THIBODAUX, LA, 70301","Match","Exact","300 PLANTATION RD, THIBODAUX, LA, 70301",92329283,"L"
471257,"300 PLEASANT HILL CHURCH RD","HARRISON","GA",31035,32.8218807310001,-82.6552897989999,257,"300 PLEASANT HILL CHURCH RD, HARRISON, GA, 31035","Match","Exact","300 PLEASANT HILL CHURCH RD, HARRISON, GA, 31035",16763629,"R"
471258,"300 PLEASANT ST","ASHLAND","OH",44805,40.8726365300001,-82.319934464,258,"300 PLEASANT ST, ASHLAND, OH, 44805","Match","Exact","300 PLEASANT ST, ASHLAND, OH, 44805",30169168,"R"
471259,"300 PLEASANT VALLEY DRIVE","TARRANT","AL",35217,33.602799438,-86.780005352,259,"300 PLEASANT VALLEY DRIVE, TARRANT, AL, 35217","Match","Exact","300 PLEASANT VALLEY DR, TARRANT, AL, 35217",81565131,"R"
471260,"300 PLUM ST    99","CAPITOLA","CA",95010,NA,NA,260,"300 PLUM ST    99, CAPITOLA, CA, 95010","No_Match",NA,NA,NA,NA
471261,"300 PLUM STREET 74","CAPITOLA","CA",95010,NA,NA,261,"300 PLUM STREET 74, CAPITOLA, CA, 95010","No_Match",NA,NA,NA,NA
471262,"300 POLK ST","STEVENS POINT","WI",54481,NA,NA,262,"300 POLK ST, STEVENS POINT, WI, 54481","No_Match",NA,NA,NA,NA
471263,"300 POMPTON RD","WAYNE","NJ",7470,NA,NA,263,"300 POMPTON RD, WAYNE, NJ, 7470","No_Match",NA,NA,NA,NA
471264,"300 POND ROAD","MT VERNON","ME",4352,44.504448573,-69.9884132,264,"300 POND ROAD, MT VERNON, ME, 4352","Match","Exact","300 POND RD, MOUNT VERNON, ME, 04352",75485008,"R"
471265,"300 POOR FARM ROAD","NEW IPSWICH","NH",3071,42.734362563,-71.899725975,265,"300 POOR FARM ROAD, NEW IPSWICH, NH, 3071","Match","Exact","300 POOR FARM RD, NEW IPSWICH, NH, 03071",628574962,"R"
471266,"300 POPLAR AVE APT 112","HUMMELSTOWN","PA",17036,40.26376592,-76.7012266569999,266,"300 POPLAR AVE APT 112, HUMMELSTOWN, PA, 17036","Match","Exact","300 POPLAR AVE, HUMMELSTOWN, PA, 17036",70844835,"L"
471267,"300 PORCHTOWN RD","PITTSGROVE","NJ",8318,39.5706585070001,-75.101121798,267,"300 PORCHTOWN RD, PITTSGROVE, NJ, 8318","Match","Exact","300 PORCHTOWN RD, PITTSGROVE, NJ, 08318",174423153,"L"
471268,"300 PORTICO STREET","LYNCHBURG","VA",24502,37.342382833,-79.225021506,268,"300 PORTICO STREET, LYNCHBURG, VA, 24502","Match","Exact","300 PORTICO ST, LYNCHBURG, VA, 24502",624657438,"R"
471269,"300 POTTSGROVE RD","DANVILLE","PA",17821,40.9871384850001,-76.76211982,269,"300 POTTSGROVE RD, DANVILLE, PA, 17821","Match","Exact","300 POTTSGROVE RD, DANVILLE, PA, 17821",59192571,"R"
471270,"300 PRESCOTT PL","PLAINFIELD","NJ",7063,40.6050074620001,-74.4366920969999,270,"300 PRESCOTT PL, PLAINFIELD, NJ, 7063","Match","Exact","300 PRESCOTT PL, PLAINFIELD, NJ, 07063",60602292,"R"
471271,"300 PRINCE DRIVE","PINCKNEYVILLE","IL",NA,NA,NA,271,"300 PRINCE DRIVE, PINCKNEYVILLE, IL, ","No_Match",NA,NA,NA,NA
471272,"300 PRINCE HAVEN CT","KERNERSVILLE","NC",27284,36.1344376750001,-80.0633288769999,272,"300 PRINCE HAVEN CT, KERNERSVILLE, NC, 27284","Match","Exact","300 PRINCE HAVEN CT, KERNERSVILLE, NC, 27284",84649871,"R"
471273,"300 PRIVATE ROAD 6040","CAMERON","TX",76520,30.8237393380001,-96.890442273,273,"300 PRIVATE ROAD 6040, CAMERON, TX, 76520","Match","Non_Exact","300 PVT RD 6040, CAMERON, TX, 76520",25208675,"R"
471274,"300 PROMENADE BLVD APT 1093","LAS VEGAS","NV",89107,NA,NA,274,"300 PROMENADE BLVD APT 1093, LAS VEGAS, NV, 89107","No_Match",NA,NA,NA,NA
471275,"300 PROMENADE CIRCLE","SUISUN CITY","CA",94585,38.247676407,-122.022038729,275,"300 PROMENADE CIRCLE, SUISUN CITY, CA, 94585","Match","Exact","300 PROMENADE CIR, SUISUN CITY, CA, 94585",192557869,"R"
471276,"300 PROMENADE DRIVE APT 103","DUNEDIN","FL",34698,28.003202451,-82.7635484799999,276,"300 PROMENADE DRIVE APT 103, DUNEDIN, FL, 34698","Match","Exact","300 PROMENADE DR, DUNEDIN, FL, 34698",124728696,"L"
471277,"300 PROPECT AVENUE","HACKENSACK","NJ",7661,NA,NA,277,"300 PROPECT AVENUE, HACKENSACK, NJ, 7661","No_Match",NA,NA,NA,NA
471278,"300 PULTENEY STREET","GENEVA","NY",14456,42.8603107770001,-76.9855605179999,278,"300 PULTENEY STREET, GENEVA, NY, 14456","Match","Exact","300 PULTENEY ST, GENEVA, NY, 14456",636405555,"L"
471279,"300 PUTNAM AVENUE","BROOKLYN","NY",11216,40.6841363460001,-73.949093638,279,"300 PUTNAM AVENUE, BROOKLYN, NY, 11216","Match","Exact","300 PUTNAM AVE, BROOKLYN, NY, 11216",59078918,"R"
471280,"300 PUTNAM ROAD","UNION","NJ",7083,40.682131478,-74.2495839109999,280,"300 PUTNAM ROAD, UNION, NJ, 7083","Match","Exact","300 PUTNAM RD, UNION, NJ, 07083",60573239,"L"
471281,"300 PUUMAKANI PL","KAHULUI","HI",96732,20.874100147,-156.487317217,281,"300 PUUMAKANI PL, KAHULUI, HI, 96732","Match","Exact","300 PUUMAKANI PL, KAHULUI, HI, 96732",85102339,"R"
471282,"300 QUINTON COURT APT 17202","LEXINGTON","KY",40509,38.012541205,-84.455772124,282,"300 QUINTON COURT APT 17202, LEXINGTON, KY, 40509","Match","Exact","300 QUINTON CT, LEXINGTON, KY, 40509",31927432,"R"
471283,"300 RABRO DRIVE 128","HAUPPAUGE","NY",11788,40.812860895,-73.218652317,283,"300 RABRO DRIVE 128, HAUPPAUGE, NY, 11788","Match","Exact","300 RABRO DR, HAUPPAUGE, NY, 11788",114257086,"L"
471284,"300 RAILWAY AVENUE SUITE 430","CAMPBELL","CA",95008,37.2836559450001,-121.944316057,284,"300 RAILWAY AVENUE SUITE 430, CAMPBELL, CA, 95008","Match","Exact","300 RAILWAY AVE, CAMPBELL, CA, 95008",123180358,"L"
471285,"300 RANDOLPHVILLE RD","PISCATAWAY","NJ",8854,NA,NA,285,"300 RANDOLPHVILLE RD, PISCATAWAY, NJ, 8854","Tie",NA,NA,NA,NA
471286,"300 RANDY RD","ROANOKE","TX",76262,33.012176239,-97.215257346,286,"300 RANDY RD, ROANOKE, TX, 76262","Match","Exact","300 RANDY RD, ROANOKE, TX, 76262",103342295,"L"
471287,"300 REAVIS PLACE","SAINT LOUIS","MO",63119,38.5750741270001,-90.3653494659999,287,"300 REAVIS PLACE, SAINT LOUIS, MO, 63119","Match","Exact","300 REAVIS PL, SAINT LOUIS, MO, 63119",100194718,"L"
471288,"300 RED BROOK BLVD STE 12","OWINGS MILLS","MD",21117,39.4134568360001,-76.802025149,288,"300 RED BROOK BLVD STE 12, OWINGS MILLS, MD, 21117","Match","Exact","300 RED BROOK BLVD, OWINGS MILLS, MD, 21117",648400313,"R"
471289,"300 REDBIRD LN","LEXINGTON","NC",27295,35.933614499,-80.3054576659999,289,"300 REDBIRD LN, LEXINGTON, NC, 27295","Match","Exact","300 REDBIRD LN, LEXINGTON, NC, 27295",604791080,"L"
471290,"300 REDBUD DR","NORTH AUGUSTA","SC",29860,33.5677982280001,-81.943653384,290,"300 REDBUD DR, NORTH AUGUSTA, SC, 29860","Match","Exact","300 REDBUD DR, NORTH AUGUSTA, SC, 29860",633628114,"R"
471291,"300 REUNION CT","GARNER","NC",27529,35.610314594,-78.578207694,291,"300 REUNION CT, GARNER, NC, 27529","Match","Exact","300 REUNION CT, GARNER, NC, 27529",646714353,"R"
471292,"300 RHODES ST PO BOX 78","BIG ROCK","IL",60511,41.761511215,-88.547253277,292,"300 RHODES ST PO BOX 78, BIG ROCK, IL, 60511","Match","Non_Exact","300 RHODES AVE, BIG ROCK, IL, 60511",119497456,"R"
471293,"300 RICE STREET NW","SLEEPY EYE","MN",56085,44.2993573430001,-94.725767836,293,"300 RICE STREET NW, SLEEPY EYE, MN, 56085","Match","Exact","300 RICE ST NW, SLEEPY EYE, MN, 56085",28567136,"L"
471294,"300 RICHARD ARRINGTON BLVD N","BIRMINGHAM","AL",35203,NA,NA,294,"300 RICHARD ARRINGTON BLVD N, BIRMINGHAM, AL, 35203","No_Match",NA,NA,NA,NA
471295,"300 RICHMOND TERR","STATEN ISLAND","NY",10301,40.6478758590001,-74.083044613,295,"300 RICHMOND TERR, STATEN ISLAND, NY, 10301","Match","Exact","300 RICHMOND TER, STATEN ISLAND, NY, 10301",59883806,"L"
471296,"300 RIDGE CHURCH ROAD","AMITY","PA",15311,40.04541276,-80.1543473949999,296,"300 RIDGE CHURCH ROAD, AMITY, PA, 15311","Match","Exact","300 RIDGE CHURCH RD, AMITY, PA, 15311",52796278,"R"
471297,"300 RIDGE TERRACE LANE","MONTEBELLO","CA",90640,34.039257911,-118.094487685,297,"300 RIDGE TERRACE LANE, MONTEBELLO, CA, 90640","Match","Exact","300 RIDGE TERRACE LN, MONTEBELLO, CA, 90640",142740101,"R"
471298,"300 RIDGLEY LANE","FINCASTLE","VA",24090,37.494911476,-79.884260561,298,"300 RIDGLEY LANE, FINCASTLE, VA, 24090","Match","Exact","300 RIDGLEY LN, FINCASTLE, VA, 24090",62483781,"R"
471299,"300 RIGGS AVENUE","SEVERNA PARK","MD",21146,39.0689344580001,-76.553725497,299,"300 RIGGS AVENUE, SEVERNA PARK, MD, 21146","Match","Exact","300 RIGGS AVE, SEVERNA PARK, MD, 21146",68167906,"R"
471300,"300 RILEY STREET","FALLS CHURCH","VA",22046,38.888397109,-77.1744337229999,300,"300 RILEY STREET, FALLS CHURCH, VA, 22046","Match","Exact","300 RILEY ST, FALLS CHURCH, VA, 22046",75979198,"R"
471301,"300 RIO GRANDE AVE","RIO GRANDE","NJ",8242,39.01100418,-74.873956546,301,"300 RIO GRANDE AVE, RIO GRANDE, NJ, 8242","Match","Exact","300 RIO GRANDE AVE, RIO GRANDE, NJ, 08242",647427302,"R"
471302,"300 RIVER BLUFF CIRCLE","GEORGETOWN","TX",78626,30.656822092,-97.656808137,302,"300 RIVER BLUFF CIRCLE, GEORGETOWN, TX, 78626","Match","Exact","300 RIVER BLUFF CIR, GEORGETOWN, TX, 78626",126477033,"R"
471303,"300 RIVER CLAY ROAD","FORT MILL","SC",29708,35.0849731270001,-80.959817454,303,"300 RIVER CLAY ROAD, FORT MILL, SC, 29708","Match","Exact","300 RIVER CLAY RD, FORT MILL, SC, 29708",618822743,"L"
471304,"300 RIVER DRIVE NORTH","GREAT FALLS","MT",59403,47.5085099710001,-111.309034707,304,"300 RIVER DRIVE NORTH, GREAT FALLS, MT, 59403","Match","Non_Exact","300 RIVER DR N, GREAT FALLS, MT, 59401",640945649,"L"
471305,"300 RIVER PLACE  SUITE 3000","DETROIT","MI",48207,42.3365085350001,-83.017768814,305,"300 RIVER PLACE  SUITE 3000, DETROIT, MI, 48207","Match","Non_Exact","300 RIVER PLACE DR, DETROIT, MI, 48207",95484633,"R"
471306,"300 RIVER PLACE DRIVE SUITE 5350","DETROIT","MI",48207,42.3365085350001,-83.017768814,306,"300 RIVER PLACE DRIVE SUITE 5350, DETROIT, MI, 48207","Match","Exact","300 RIVER PLACE DR, DETROIT, MI, 48207",95484633,"R"
471307,"300 RIVER PLACE DRIVE SUITE 5500","DETROIT","MI",48207,42.3365085350001,-83.017768814,307,"300 RIVER PLACE DRIVE SUITE 5500, DETROIT, MI, 48207","Match","Exact","300 RIVER PLACE DR, DETROIT, MI, 48207",95484633,"R"
471308,"300 RIVER ROAD","LIBERTY HILL","TX",78642,30.722973095,-97.9084609399999,308,"300 RIVER ROAD, LIBERTY HILL, TX, 78642","Match","Exact","300 RIVER RD, LIBERTY HILL, TX, 78642",126413345,"R"
471309,"300 RIVER SHORE ROAD","CHESTERTOWN","MD",21620,39.2075187980001,-76.052562574,309,"300 RIVER SHORE ROAD, CHESTERTOWN, MD, 21620","Match","Non_Exact","300 RIVERSHORE RD, CHESTERTOWN, MD, 21620",620132099,"L"
471310,"300 RIVERCREST BLVD","ALLEN","TX",75002,33.1146194230001,-96.659070941,310,"300 RIVERCREST BLVD, ALLEN, TX, 75002","Match","Exact","300 RIVERCREST BLVD, ALLEN, TX, 75002",210476615,"L"
471311,"300 RIVERFRONT DR","DETROIT","MI",48226,42.324272423,-83.056429723,311,"300 RIVERFRONT DR, DETROIT, MI, 48226","Match","Exact","300 RIVERFRONT DR, DETROIT, MI, 48226",650157601,"L"
471312,"300 RIVERSIDE DRIVE APT 8H","NEW YORK","NY",10025,40.7997540850001,-73.9718798599999,312,"300 RIVERSIDE DRIVE APT 8H, NEW YORK, NY, 10025","Match","Exact","300 RIVERSIDE DR, NEW YORK, NY, 10025",59656550,"R"
471313,"300 ROBERTS AVE","YORK","SC",29745,35.002209958,-81.215813165,313,"300 ROBERTS AVE, YORK, SC, 29745","Match","Exact","300 ROBERTS AVE, YORK, SC, 29745",636586154,"R"
471314,"300 ROCKYFORD STREET","MORGANTON","NC",28655,35.7586391130001,-81.686247693,314,"300 ROCKYFORD STREET, MORGANTON, NC, 28655","Match","Exact","300 ROCKYFORD ST, MORGANTON, NC, 28655",37157282,"R"
471315,"300 RODD ST","MIDLAND","MI",48640,43.6132574640001,-84.2421556159999,315,"300 RODD ST, MIDLAND, MI, 48640","Match","Exact","300 RODD ST, MIDLAND, MI, 48640",81196518,"R"
471316,"300 ROLLING OAKS DR APT 322","THOUSAND OAKS","CA",91361,34.174303513,-118.87041941,316,"300 ROLLING OAKS DR APT 322, THOUSAND OAKS, CA, 91361","Match","Exact","300 ROLLING OAKS DR, THOUSAND OAKS, CA, 91361",110048304,"L"
471317,"300 ROSALINDA DR","DEL RIO","TX",78840,29.382917456,-100.926276929,317,"300 ROSALINDA DR, DEL RIO, TX, 78840","Match","Exact","300 ROSALINDA DR, DEL RIO, TX, 78840",642309099,"R"
471318,"300 ROSALINDA DRIVE","DEL RIO","TX",78840,29.382917456,-100.926276929,318,"300 ROSALINDA DRIVE, DEL RIO, TX, 78840","Match","Exact","300 ROSALINDA DR, DEL RIO, TX, 78840",642309099,"R"
471319,"300 ROSEDON DRIVE","MONTGOMERY","AL",36116,32.307807331,-86.2643706919999,319,"300 ROSEDON DRIVE, MONTGOMERY, AL, 36116","Match","Exact","300 ROSEDON DR, MONTGOMERY, AL, 36116",1544675,"R"
471320,"300 ROSELLE RD APT 409","SCHAUMBURG","IL",60193,42.022085309,-88.079964863,320,"300 ROSELLE RD APT 409, SCHAUMBURG, IL, 60193","Match","Non_Exact","300 S ROSELLE RD, SCHAUMBURG, IL, 60193",605601382,"R"
471321,"300 ROSSIE SMITH ROAD","MERIDIAN","MS",39302,32.330017232,-88.667899475,321,"300 ROSSIE SMITH ROAD, MERIDIAN, MS, 39302","Match","Non_Exact","300 ROSSIE SMITH RD, MERIDIAN, MS, 39301",636885308,"L"
471322,"300 ROSWELL AVE","ROME","GA",30161,34.2492958600001,-85.159458794,322,"300 ROSWELL AVE, ROME, GA, 30161","Match","Exact","300 ROSWELL AVE, ROME, GA, 30161",30703548,"R"
471323,"300 ROYAL OAK BLVD APT 1607","FRANKLIN","TN",37067,NA,NA,323,"300 ROYAL OAK BLVD APT 1607, FRANKLIN, TN, 37067","No_Match",NA,NA,NA,NA
471324,"300 RUNNELLS ST","TERRELL","TX",75160,32.728645946,-96.270061622,324,"300 RUNNELLS ST, TERRELL, TX, 75160","Match","Exact","300 RUNNELLS ST, TERRELL, TX, 75160",123736841,"R"
471325,"300 RUTH ST","SPRING LAKE","NC",28390,35.1700147220001,-78.98351166,325,"300 RUTH ST, SPRING LAKE, NC, 28390","Match","Exact","300 RUTH ST, SPRING LAKE, NC, 28390",64192489,"L"
471326,"300 RUTH STREET","SPRING LAKE","NC",28390,35.1700147220001,-78.98351166,326,"300 RUTH STREET, SPRING LAKE, NC, 28390","Match","Exact","300 RUTH ST, SPRING LAKE, NC, 28390",64192489,"L"
471327,"300 RUTH","SPRING LAKE","NC",28390,35.1700147220001,-78.98351166,327,"300 RUTH, SPRING LAKE, NC, 28390","Match","Non_Exact","300 RUTH ST, SPRING LAKE, NC, 28390",64192489,"L"
471328,"300 S 15TH ST","PALATKA","FL",32177,29.6464789950001,-81.64501552,328,"300 S 15TH ST, PALATKA, FL, 32177","Match","Exact","300 S 15TH ST, PALATKA, FL, 32177",86072826,"L"
471329,"300 S 1ST STREET","BEAVER CREEK","MN",56116,43.6120486830001,-96.366854691,329,"300 S 1ST STREET, BEAVER CREEK, MN, 56116","Match","Exact","300 S FIRST ST, BEAVER CREEK, MN, 56116",30497407,"L"
471330,"300 S 25TH AVENUE","HATTIESBURG","MS",39401,31.320907515,-89.327787856,330,"300 S 25TH AVENUE, HATTIESBURG, MS, 39401","Match","Exact","300 S 25TH AVE, HATTIESBURG, MS, 39401",324294,"L"
471331,"300 S 2ND AVE","MAYODAN","NC",27027,36.410029965,-79.9676042729999,331,"300 S 2ND AVE, MAYODAN, NC, 27027","Match","Exact","300 S 2ND AVE, MAYODAN, NC, 27027",56211031,"R"
471332,"300 S 3RD STREET","MONTICELLO","IN",47960,40.7418983640001,-86.769244831,332,"300 S 3RD STREET, MONTICELLO, IN, 47960","Match","Exact","300 S 3RD ST, MONTICELLO, IN, 47960",606924917,"L"
471333,"300 S 4TH ST","DRAYTON","ND",58225,48.559174066,-97.181828713,333,"300 S 4TH ST, DRAYTON, ND, 58225","Match","Exact","300 S 4TH ST, DRAYTON, ND, 58225",196160156,"L"
471334,"300 S 4TH STREET","OREGON","IL",61061,42.011800968,-89.332588159,334,"300 S 4TH STREET, OREGON, IL, 61061","Match","Exact","300 S 4TH ST, OREGON, IL, 61061",52330359,"L"
471335,"300 S 5TH ST","BELLEVUE","ID",83313,NA,NA,335,"300 S 5TH ST, BELLEVUE, ID, 83313","Tie",NA,NA,NA,NA
471336,"300 S 9TH STREET","OQUAWKA","IL",61469,40.929361595,-90.94828248,336,"300 S 9TH STREET, OQUAWKA, IL, 61469","Match","Exact","300 9TH ST, OQUAWKA, IL, 61469",5283702,"R"
471337,"300 S A W GRIMES BLVD 26101","ROUND ROCK","TX",78664,NA,NA,337,"300 S A W GRIMES BLVD 26101, ROUND ROCK, TX, 78664","No_Match",NA,NA,NA,NA
471338,"300 S ASHLAND AVE","LA GRANGE","IL",60525,41.8087595800001,-87.872075759,338,"300 S ASHLAND AVE, LA GRANGE, IL, 60525","Match","Exact","300 S ASHLAND AVE, LA GRANGE, IL, 60525",111790292,"R"
471339,"300 S ATLANTIC BLVD STE 201F","MONTEREY PARK","CA",91754,NA,NA,339,"300 S ATLANTIC BLVD STE 201F, MONTEREY PARK, CA, 91754","Tie",NA,NA,NA,NA
471340,"300 S BISCAYNE BLVD  APT 818","MIAMI","FL",33131,25.77093819,-80.1883685829999,340,"300 S BISCAYNE BLVD  APT 818, MIAMI, FL, 33131","Match","Non_Exact","300 BISCAYNE BLVD WAY, MIAMI, FL, 33131",650146922,"R"
471341,"300 S BISCAYNE BOULEVARD APT 818","MIAMI","FL",33131,25.7711388390001,-80.1872568169999,341,"300 S BISCAYNE BOULEVARD APT 818, MIAMI, FL, 33131","Match","Exact","300 BISCAYNE BLVD, MIAMI, FL, 33131",642015700,"R"
471342,"300 S BROADWAY","BALTIMORE","MD",21231,39.2875443350001,-76.5937039839999,342,"300 S BROADWAY, BALTIMORE, MD, 21231","Match","Exact","300 S BROADWAY, BALTIMORE, MD, 21231",206424558,"R"
471343,"300 S BURR OAK ST","RUSHFORD","MN",55971,43.8076753070001,-91.7458591019999,343,"300 S BURR OAK ST, RUSHFORD, MN, 55971","Match","Exact","300 S BURR OAK ST, RUSHFORD, MN, 55971",27565633,"L"
471344,"300 S CAPITOL AVE","LANSING","MI",48901,42.731229452,-84.5538973609999,344,"300 S CAPITOL AVE, LANSING, MI, 48901","Match","Non_Exact","300 S CAPITOL AVE, LANSING, MI, 48933",17499258,"R"
471345,"300 S CHURCH ST","JONESBORO","AR",72401,35.840524176,-90.7040120889999,345,"300 S CHURCH ST, JONESBORO, AR, 72401","Match","Exact","300 S CHURCH ST, JONESBORO, AR, 72401",46909153,"R"
471346,"300 S COL ROWE BLVD","MCALLEN","TX",78501,26.2045861620001,-98.220752553,346,"300 S COL ROWE BLVD, MCALLEN, TX, 78501","Match","Non_Exact","300 N COL ROWE BLVD, MCALLEN, TX, 78501",71502304,"R"
471347,"300 S CONNELL ST","WILMINGTON","DE",19805,39.741965764,-75.567663373,347,"300 S CONNELL ST, WILMINGTON, DE, 19805","Match","Exact","300 S CONNELL ST, WILMINGTON, DE, 19805",187257226,"L"
471348,"300 S DIXIE HIGHWAY SUITE A","LANTANA","FL",33462,NA,NA,348,"300 S DIXIE HIGHWAY SUITE A, LANTANA, FL, 33462","Tie",NA,NA,NA,NA
471349,"300 S EAST STREET","GETTYSBURG","SD",57442,45.0091590870001,-99.9542375089999,349,"300 S EAST STREET, GETTYSBURG, SD, 57442","Match","Exact","300 S EAST ST, GETTYSBURG, SD, 57442",198465759,"L"
471350,"300 S FEDERAL HIGHWAY","HALLANDALE","FL",33009,25.9817806500001,-80.1423006319999,350,"300 S FEDERAL HIGHWAY, HALLANDALE, FL, 33009","Match","Exact","300 S FEDERAL HWY, HALLANDALE, FL, 33009",640127512,"L"
471351,"300 S GILLETTE AVE STE 2000","GILLETTE","WY",82716,NA,NA,351,"300 S GILLETTE AVE STE 2000, GILLETTE, WY, 82716","Tie",NA,NA,NA,NA
471352,"300 S GOODWIN AVE APT 204","URBANA","IL",61801,NA,NA,352,"300 S GOODWIN AVE APT 204, URBANA, IL, 61801","Tie",NA,NA,NA,NA
471353,"300 S GRAND  1118","ST LOUIS","MO",63103,NA,NA,353,"300 S GRAND  1118, ST LOUIS, MO, 63103","No_Match",NA,NA,NA,NA
471354,"300 S GRAND BOULEVARD SUITE 420","ST LOUIS","MO",63103,NA,NA,354,"300 S GRAND BOULEVARD SUITE 420, ST LOUIS, MO, 63103","Tie",NA,NA,NA,NA
471355,"300 S HARRIS ST","WILLOW SPRINGS","MO",65793,36.9897662130001,-91.9716683349999,355,"300 S HARRIS ST, WILLOW SPRINGS, MO, 65793","Match","Exact","300 S HARRIS ST, WILLOW SPGS, MO, 65793",33342736,"L"
471356,"300 S HIGHLAND SPRGS AVE  6-C  217","BANNING","CA",92220,33.9304781660001,-116.946824455,356,"300 S HIGHLAND SPRGS AVE  6-C  217, BANNING, CA, 92220","Match","Exact","300 HIGHLAND SPRINGS AVE, BANNING, CA, 92220",608989670,"R"
471357,"300 S HIGHLAND SPRINGS STE 6C PM162","BANNING","CA",92220,33.9304781660001,-116.946824455,357,"300 S HIGHLAND SPRINGS STE 6C PM162, BANNING, CA, 92220","Match","Non_Exact","300 HIGHLAND SPRINGS AVE, BANNING, CA, 92220",608989670,"R"
471358,"300 S HIGHLANDER WAY","HOWELL","MI",48843,42.611597127,-83.95394652,358,"300 S HIGHLANDER WAY, HOWELL, MI, 48843","Match","Exact","300 S HIGHLANDER WAY, HOWELL, MI, 48843",23573841,"L"
471359,"300 S HIGHWAY W","SMITHTON","MO",65350,NA,NA,359,"300 S HIGHWAY W, SMITHTON, MO, 65350","No_Match",NA,NA,NA,NA
471360,"300 S HILUSI","MOUNT PROSPECT","IL",60056,42.0607286860001,-87.943744795,360,"300 S HILUSI, MOUNT PROSPECT, IL, 60056","Match","Non_Exact","300 S HI LUSI AVE, MOUNT PROSPECT, IL, 60056",111719773,"R"
471361,"300 S HULEN ST SUIT 124-687","FORT WORTH","TX",76123,NA,NA,361,"300 S HULEN ST SUIT 124-687, FORT WORTH, TX, 76123","No_Match",NA,NA,NA,NA
471362,"300 S JACKSON ST","WAXAHACHIE","TX",75165,32.3839921160001,-96.8473977579999,362,"300 S JACKSON ST, WAXAHACHIE, TX, 75165","Match","Exact","300 S JACKSON ST, WAXAHACHIE, TX, 75165",103450662,"R"
471363,"300 S JACKSON STREET  SUITE 550","DENVER","CO",80206,39.721091545,-104.942535462,363,"300 S JACKSON STREET  SUITE 550, DENVER, CO, 80206","Match","Exact","300 JACKSON ST, DENVER, CO, 80206",177338504,"R"
471364,"300 S JACKSON STREET","TULLAHOMA","TN",37388,35.3592765330001,-86.209237923,364,"300 S JACKSON STREET, TULLAHOMA, TN, 37388","Match","Exact","300 S JACKSON ST, TULLAHOMA, TN, 37388",58229555,"L"
471365,"300 S KIESEL","BAY CITY","MI",48706,43.599906182,-83.911008301,365,"300 S KIESEL, BAY CITY, MI, 48706","Match","Non_Exact","300 S KIESEL ST, BAY CITY, MI, 48706",81139549,"R"
471366,"300 S LINCOLN AVE","LEBANON","PA",17042,40.3358794280001,-76.411823103,366,"300 S LINCOLN AVE, LEBANON, PA, 17042","Match","Exact","300 S LINCOLN AVE, LEBANON, PA, 17042",611340816,"L"
471367,"300 S MADISON AVENUE","WATKINS GLEN","NY",14891,42.3802215380001,-76.874179022,367,"300 S MADISON AVENUE, WATKINS GLEN, NY, 14891","Match","Exact","300 S MADISON AVE, WATKINS GLEN, NY, 14891",18197038,"R"
471368,"300 S MAIN AVE","MONAHANS","TX",79756,31.5927007770001,-102.892401404,368,"300 S MAIN AVE, MONAHANS, TX, 79756","Match","Exact","300 S MAIN AVE, MONAHANS, TX, 79756",182586442,"R"
471369,"300 S MAIN ST","81067","CO",81067,38.0515328610001,-103.720628565,369,"300 S MAIN ST, 81067, CO, 81067","Match","Non_Exact","300 S MAIN ST, ROCKY FORD, CO, 81067",112918137,"R"
471370,"300 S MAIN ST","ASHEBORO","NC",27203,35.7029243120001,-79.810377311,370,"300 S MAIN ST, ASHEBORO, NC, 27203","Match","Exact","300 S MAIN ST, ASHEBORO, NC, 27203",20405993,"L"
471371,"300 S MAIN ST","BLACKSBURG","VA",24060,37.2278657460001,-80.412391589,371,"300 S MAIN ST, BLACKSBURG, VA, 24060","Match","Exact","300 S MAIN ST, BLACKSBURG, VA, 24060",73616331,"L"
471372,"300 S MARION ST","CARDINGTON","OH",43315,40.498543076,-82.894199323,372,"300 S MARION ST, CARDINGTON, OH, 43315","Match","Exact","300 S MARION ST, CARDINGTON, OH, 43315",12749922,"R"
471373,"300 S MECHANIC","BUTLER","MO",64730,38.253818912,-94.330357898,373,"300 S MECHANIC, BUTLER, MO, 64730","Match","Non_Exact","300 S MECHANIC ST, BUTLER, MO, 64730",44779790,"L"
471374,"300 S MELROSE DR","MIAMI SPRINGS","FL",33166,25.813768092,-80.302924603,374,"300 S MELROSE DR, MIAMI SPRINGS, FL, 33166","Match","Exact","300 S MELROSE DR, MIAMI SPRINGS, FL, 33166",640556274,"L"
471375,"300 S MORRISON AVE","COLLINSVILLE","IL",62234,38.6682292940001,-89.983638695,375,"300 S MORRISON AVE, COLLINSVILLE, IL, 62234","Match","Exact","300 S MORRISON AVE, COLLINSVILLE, IL, 62234",107703485,"L"
471376,"300 S NEW PROSPECT RD","JACKSON","NJ",8527,40.1267547640001,-74.254940344,376,"300 S NEW PROSPECT RD, JACKSON, NJ, 8527","Match","Exact","300 S NEW PROSPECT RD, JACKSON, NJ, 08527",203719644,"L"
471377,"300 S OAK PARK AVE","OAK PARK","IL",60302,41.8831573620001,-87.794343156,377,"300 S OAK PARK AVE, OAK PARK, IL, 60302","Match","Exact","300 S OAK PARK AVE, OAK PARK, IL, 60302",111753014,"L"
471378,"300 S OLIVE ST STE 1001","LOS ANGELES","CA",90013,34.0522985270001,-118.250193692,378,"300 S OLIVE ST STE 1001, LOS ANGELES, CA, 90013","Match","Non_Exact","300 S OLIVE ST, LOS ANGELES, CA, 90013",141617292,"L"
471379,"300 S OLIVE STREET 1B","MEDIA","PA",19063,NA,NA,379,"300 S OLIVE STREET 1B, MEDIA, PA, 19063","Tie",NA,NA,NA,NA
471380,"300 S PATTERSON PARK AVENUE APT 2","BALTIMORE","MD",21231,NA,NA,380,"300 S PATTERSON PARK AVENUE APT 2, BALTIMORE, MD, 21231","Tie",NA,NA,NA,NA
471381,"300 S PINCH RD","ELKVIEW","WV",25071,38.4036700080001,-81.481026667,381,"300 S PINCH RD, ELKVIEW, WV, 25071","Match","Exact","300 S PINCH RD, ELKVIEW, WV, 25071",78627601,"R"
471382,"300 S PINE ISLAND RD SUITE 102","PLANTATION","FL",33324,NA,NA,382,"300 S PINE ISLAND RD SUITE 102, PLANTATION, FL, 33324","No_Match",NA,NA,NA,NA
471383,"300 S PINE ISLAND ROAD SUITE 102","PLANTATION","FL",33324,NA,NA,383,"300 S PINE ISLAND ROAD SUITE 102, PLANTATION, FL, 33324","No_Match",NA,NA,NA,NA
471384,"300 S PINE","NOWATA","OK",74048,NA,NA,384,"300 S PINE, NOWATA, OK, 74048","No_Match",NA,NA,NA,NA
471385,"300 S PRESTON","THAYER","KS",66776,37.4857103040001,-95.471798776,385,"300 S PRESTON, THAYER, KS, 66776","Match","Non_Exact","302 PRESTON ST, THAYER, KS, 66776",18417551,"L"
471386,"300 S RAYMOND AVE","PASADENA","CA",91105,34.140883677,-118.148833549,386,"300 S RAYMOND AVE, PASADENA, CA, 91105","Match","Exact","300 S RAYMOND AVE, PASADENA, CA, 91105",141629576,"L"
471387,"300 S REXFORD DRIVE APT 102","BEVERLY HILLS","CA",90212,34.0620227700001,-118.393830765,387,"300 S REXFORD DRIVE APT 102, BEVERLY HILLS, CA, 90212","Match","Non_Exact","300 S REXFORD DR, BEVERLY HILLS, CA, 90212",142719109,"L"
471388,"300 S RIVERSIDE PLAZE STE 1500","CHICAGO","IL",60606,NA,NA,388,"300 S RIVERSIDE PLAZE STE 1500, CHICAGO, IL, 60606","No_Match",NA,NA,NA,NA
471389,"300 S ROBINSON STREET","TEHACHAPI","CA",93561,35.129583741,-118.446410531,389,"300 S ROBINSON STREET, TEHACHAPI, CA, 93561","Match","Exact","300 S ROBINSON ST, TEHACHAPI, CA, 93561",108983223,"R"
471390,"300 S ROBINSON","TEHACHAPI","CA",93561,35.129583741,-118.446410531,390,"300 S ROBINSON, TEHACHAPI, CA, 93561","Match","Non_Exact","300 S ROBINSON ST, TEHACHAPI, CA, 93561",108983223,"R"
471391,"300 S RODNEY PARHAM RD STE1 UNIT280","LITTLE ROCK","AK",72205,NA,NA,391,"300 S RODNEY PARHAM RD STE1 UNIT280, LITTLE ROCK, AK, 72205","No_Match",NA,NA,NA,NA
471392,"300 S RODNEY PARHAM RD STE1 UNIT280","LITTLE ROCK","AR",72205,NA,NA,392,"300 S RODNEY PARHAM RD STE1 UNIT280, LITTLE ROCK, AR, 72205","Tie",NA,NA,NA,NA
471393,"300 S RODNEY PARHAM ROAD SUITE 1","LITTLE ROCK","AK",72205,NA,NA,393,"300 S RODNEY PARHAM ROAD SUITE 1, LITTLE ROCK, AK, 72205","No_Match",NA,NA,NA,NA
471394,"300 S RODNEY PARHAM ROAD SUITE 1","LITTLE ROCK","AR",72205,NA,NA,394,"300 S RODNEY PARHAM ROAD SUITE 1, LITTLE ROCK, AR, 72205","Tie",NA,NA,NA,NA
471395,"300 S SANTE FE AVE 3-454","LOS ANGELES","CA",90013,NA,NA,395,"300 S SANTE FE AVE 3-454, LOS ANGELES, CA, 90013","No_Match",NA,NA,NA,NA
471396,"300 S SANTE FE AVENUE","LOS ANGELES","CA",90013,NA,NA,396,"300 S SANTE FE AVENUE, LOS ANGELES, CA, 90013","No_Match",NA,NA,NA,NA
471397,"300 S SECOND STREET","ELKHART","IN",46516,41.684756819,-85.9738508729999,397,"300 S SECOND STREET, ELKHART, IN, 46516","Match","Exact","300 S 2ND ST, ELKHART, IN, 46516",7750531,"L"
471398,"300 S SIDE ROAD","BREVARD","NC",28712,NA,NA,398,"300 S SIDE ROAD, BREVARD, NC, 28712","No_Match",NA,NA,NA,NA
471399,"300 S SPRING ST STE 715","LITTLE ROCK","AR",72201,34.74654695,-92.274295637,399,"300 S SPRING ST STE 715, LITTLE ROCK, AR, 72201","Match","Non_Exact","300 S SPRING ST, LITTLE ROCK, AR, 72201",83510735,"R"
471400,"300 S SPRING ST SUITE 1020","LITTLE ROCK","AR",72001,NA,NA,400,"300 S SPRING ST SUITE 1020, LITTLE ROCK, AR, 72001","No_Match",NA,NA,NA,NA
471401,"300 S SPRING ST SUITE 604","LITTLE ROCK","AR",72201,34.74654695,-92.274295637,401,"300 S SPRING ST SUITE 604, LITTLE ROCK, AR, 72201","Match","Non_Exact","300 S SPRING ST, LITTLE ROCK, AR, 72201",83510735,"R"
471402,"300 S ST LOUIS BLVD SUITE 204","SOUTH BEND","IN",46617,NA,NA,402,"300 S ST LOUIS BLVD SUITE 204, SOUTH BEND, IN, 46617","Tie",NA,NA,NA,NA
471403,"300 S ST PAUL ST 229","75201","TX",75201,NA,NA,403,"300 S ST PAUL ST 229, 75201, TX, 75201","No_Match",NA,NA,NA,NA
471404,"300 S STATE ROAD 201","BLUFFTON","IN",46714,40.7381376230001,-85.1362195249999,404,"300 S STATE ROAD 201, BLUFFTON, IN, 46714","Match","Exact","300 STATE RD 201, BLUFFTON, IN, 46714",6622485,"L"
471405,"300 S STATE ST 10TH FLOOR","SYRACUSE","NY",13202,43.0485626560001,-76.1474242309999,405,"300 S STATE ST 10TH FLOOR, SYRACUSE, NY, 13202","Match","Non_Exact","300 S STATE ST, SYRACUSE, NY, 13202",46570920,"R"
471406,"300 S VAL VISTA DR  153","MESA","AZ",85204,33.4097068410001,-111.753750771,406,"300 S VAL VISTA DR  153, MESA, AZ, 85204","Match","Non_Exact","300 S VAL VISTA DR, MESA, AZ, 85204",128935229,"R"
471407,"300 S WARREN","JACKSONVILLE","AR",72076,34.8649837890001,-92.1159670659999,407,"300 S WARREN, JACKSONVILLE, AR, 72076","Match","Non_Exact","300 WARREN ST, JACKSONVILLE, AR, 72076",83519286,"L"
471408,"300 S WATTERS RD  APT 516","ALLEN","TX",75013,33.09756559,-96.685058901,408,"300 S WATTERS RD  APT 516, ALLEN, TX, 75013","Match","Exact","300 WATTERS RD, ALLEN, TX, 75013",642472906,"L"
471409,"300 S WESTERN","DE LAND","IL",61839,40.1185249760001,-88.647636636,409,"300 S WESTERN, DE LAND, IL, 61839","Match","Non_Exact","300 WESTERN AVE, DE LAND, IL, 61839",647135936,"R"
471410,"300 S WILLIAMS ST","STILWELL","OK",74960,35.8121065620001,-94.636012299,410,"300 S WILLIAMS ST, STILWELL, OK, 74960","Match","Exact","300 S WILLIAMS ST, STILWELL, OK, 74960",49615207,"L"
471411,"300 S WYANDEMERE SPRINGS DRIVE","MOORE","OK",73160,35.3361992530001,-97.457817875,411,"300 S WYANDEMERE SPRINGS DRIVE, MOORE, OK, 73160","Match","Non_Exact","300 S WYNDEMERE SPRINGS, MOORE, OK, 73160",633175713,"R"
471412,"300 S YORK RD","HATBORO","PA",19040,40.172999831,-75.108143577,412,"300 S YORK RD, HATBORO, PA, 19040","Match","Exact","300 S YORK RD, HATBORO, PA, 19040",135080450,"R"
471413,"300 SAINT CATHERINE STREET","QUARRYVILLE","PA",17566,39.8934786240001,-76.161421333,413,"300 SAINT CATHERINE STREET, QUARRYVILLE, PA, 17566","Match","Exact","300 SAINT CATHERINE ST, QUARRYVILLE, PA, 17566",179671566,"R"
471414,"300 SAINT MATTHIAS DRIVE","CARENCRO","LA",70520,30.3370831510001,-92.0561993809999,414,"300 SAINT MATTHIAS DRIVE, CARENCRO, LA, 70520","Match","Exact","300 SAINT MATTHIAS DR, CARENCRO, LA, 70520",624544490,"R"
471415,"300 SAINT PAUL PLACE","BALTIMORE","MD",21202,39.2923454,-76.614064018,415,"300 SAINT PAUL PLACE, BALTIMORE, MD, 21202","Match","Non_Exact","300 SAINT PAUL ST, BALTIMORE, MD, 21202",640498686,"L"
471416,"300 SAINT PAUL STREET","N SMITHFIELD","RI",2896,42.0096941560001,-71.546767468,416,"300 SAINT PAUL STREET, N SMITHFIELD, RI, 2896","Match","Exact","300 SAINT PAUL ST, NORTH SMITHFIELD, RI, 02896",651145682,"L"
471417,"300 SAMI DRIVE","GOLDSBORO","NC",27530,35.3343486100001,-78.0810056879999,417,"300 SAMI DRIVE, GOLDSBORO, NC, 27530","Match","Non_Exact","300 SAMI ST, GOLDSBORO, NC, 27530",14424174,"L"
471418,"300 SAN GABRIEL VILLAGE BLVD 820","GEORGETOWN","TX",78626,NA,NA,418,"300 SAN GABRIEL VILLAGE BLVD 820, GEORGETOWN, TX, 78626","No_Match",NA,NA,NA,NA
471419,"300 SAN GABRIEL VILLAGE UNIT810","GEORGETOWN","TX",78626,NA,NA,419,"300 SAN GABRIEL VILLAGE UNIT810, GEORGETOWN, TX, 78626","No_Match",NA,NA,NA,NA
471420,"300 SAN MAR GALE DR","SABINA","OH",45169,39.485318336,-83.630793448,420,"300 SAN MAR GALE DR, SABINA, OH, 45169","Match","Non_Exact","300 SAN MAR GALE RD, SABINA, OH, 45169",146841198,"R"
471421,"300 SAN PEDRO AVE","GLENDORA","NJ",8029,39.841393426,-75.06480894,421,"300 SAN PEDRO AVE, GLENDORA, NJ, 8029","Match","Non_Exact","300 SAN PEDRO DR, GLENDORA, NJ, 08029",134352611,"R"
471422,"300 SAND BANK ROAD","WATERTOWN","CT",6795,41.5643474840001,-73.129569729,422,"300 SAND BANK ROAD, WATERTOWN, CT, 6795","Match","Exact","300 SAND BANK RD, WATERTOWN, CT, 06795",3109429,"L"
471423,"300 SANDS ROAD","SWEETWATER","TN",37874,35.5478229070001,-84.428646938,423,"300 SANDS ROAD, SWEETWATER, TN, 37874","Match","Exact","300 SANDS RD, SWEETWATER, TN, 37874",85298379,"R"
471424,"300 SARATOGA AVE","BROOKLYN","NY",11233,40.674999621,-73.916626854,424,"300 SARATOGA AVE, BROOKLYN, NY, 11233","Match","Exact","300 SARATOGA AVE, BROOKLYN, NY, 11233",59083743,"R"
471425,"300 SAUK TRAIL","PARK FOREST","IL",60466,41.4802956560001,-87.6929988749999,425,"300 SAUK TRAIL, PARK FOREST, IL, 60466","Match","Exact","300 SAUK TRL, PARK FOREST, IL, 60466",112212769,"R"
471426,"300 SAYBROOK ST","HARTFORD","CT",6106,NA,NA,426,"300 SAYBROOK ST, HARTFORD, CT, 6106","No_Match",NA,NA,NA,NA
471427,"300 SCHOOL ST","WEIRTON","WV",26062,40.4180197790001,-80.5704822069999,427,"300 SCHOOL ST, WEIRTON, WV, 26062","Match","Exact","300 SCHOOL ST, WEIRTON, WV, 26062",65500902,"R"
471428,"300 SCOTIA DRIVE","HYPOLUXO","FL",33462,26.5624232230001,-80.0522629,428,"300 SCOTIA DRIVE, HYPOLUXO, FL, 33462","Match","Exact","300 SCOTIA DR, HYPOLUXO, FL, 33462",640947976,"L"
471429,"300 SE 4 TERRACE","DAVIE","FL",33004,26.0437241980001,-80.13915019,429,"300 SE 4 TERRACE, DAVIE, FL, 33004","Match","Non_Exact","300 SE 4TH TER, DANIA, FL, 33004",114752629,"R"
471430,"300 SE 5TH AVE","BOCA RATON","FL",33432,26.3470321950001,-80.077204089,430,"300 SE 5TH AVE, BOCA RATON, FL, 33432","Match","Exact","300 SE 5TH AVE, BOCA RATON, FL, 33432",115542208,"L"
471431,"300 SE 6TH COURT","POMPANO BEACH","FL",33060,26.2212253750001,-80.118740184,431,"300 SE 6TH COURT, POMPANO BEACH, FL, 33060","Match","Exact","300 SE 6TH CT, POMPANO BEACH, FL, 33060",114695303,"R"
471432,"300 SEA STREET","QUINCY","MA",2169,42.2622479340001,-70.9885309649999,432,"300 SEA STREET, QUINCY, MA, 2169","Match","Exact","300 SEA ST, QUINCY, MA, 02169",87250157,"L"
471433,"300 SEAFARER DR","CAROLINA BEACH","NC",28428,34.025083006,-77.8995617419999,433,"300 SEAFARER DR, CAROLINA BEACH, NC, 28428","Match","Exact","300 SEAFARER DR, CAROLINA BCH, NC, 28428",639114089,"L"
471434,"300 SECOND AVE","LONG BRANCH","NJ",7740,40.295359354,-73.983630578,434,"300 SECOND AVE, LONG BRANCH, NJ, 7740","Match","Exact","300 2ND AVE, LONG BRANCH, NJ, 07740",90462618,"R"
471435,"300 SECOND STREET","BARABOO","WI",53913,43.4689254460001,-89.738903395,435,"300 SECOND STREET, BARABOO, WI, 53913","Match","Exact","300 2ND ST, BARABOO, WI, 53913",86534442,"L"
471436,"300 SENTINEL DRIVE  400","ANNAPOLIS JUNCTION","MD",29701,NA,NA,436,"300 SENTINEL DRIVE  400, ANNAPOLIS JUNCTION, MD, 29701","No_Match",NA,NA,NA,NA
471437,"300 SERENE ESTATES LANE","LINCOLN","CA",95648,38.9878826980001,-121.287616212,437,"300 SERENE ESTATES LANE, LINCOLN, CA, 95648","Match","Exact","300 SERENE ESTATES LN, LINCOLN, CA, 95648",106810738,"R"
471438,"300 SERENE ESTATES LANE","LINCONL","CA",95648,38.9878826980001,-121.287616212,438,"300 SERENE ESTATES LANE, LINCONL, CA, 95648","Match","Non_Exact","300 SERENE ESTATES LN, LINCOLN, CA, 95648",106810738,"R"
471439,"300 SEVILLA AVENUE SUITE 200","CORAL GABLES","FL",33134,25.7462401940001,-80.260702314,439,"300 SEVILLA AVENUE SUITE 200, CORAL GABLES, FL, 33134","Match","Exact","300 SEVILLA AVE, CORAL GABLES, FL, 33134",116013052,"L"
471440,"300 SEVILLA AVENUE SUITE 200","TAMPA","FL",33134,25.7462401940001,-80.260702314,440,"300 SEVILLA AVENUE SUITE 200, TAMPA, FL, 33134","Match","Non_Exact","300 SEVILLA AVE, MIAMI, FL, 33134",116013052,"L"
471441,"300 SHADOW CREEK AVENUE","PINEVILLE","LA",71360,31.3373616320001,-92.388304026,441,"300 SHADOW CREEK AVENUE, PINEVILLE, LA, 71360","Match","Exact","300 SHADOW CREEK, PINEVILLE, LA, 71360",651116789,"R"
471442,"300 SHADOW GLEN","MCDONOUGH","GA",30253,33.50242274,-84.212061369,442,"300 SHADOW GLEN, MCDONOUGH, GA, 30253","Match","Exact","300 SHADOW GLEN, MCDONOUGH, GA, 30253",633068891,"L"
471443,"300 SHADOW MOUNTAIN DR 605","EL PASO","TX",79912,31.834181609,-106.525975232,443,"300 SHADOW MOUNTAIN DR 605, EL PASO, TX, 79912","Match","Exact","300 SHADOW MOUNTAIN DR, EL PASO, TX, 79912",189424750,"R"
471444,"300 SHADOW WOOD DR","PALESTINE","TX",75801,31.735976135,-95.649800988,444,"300 SHADOW WOOD DR, PALESTINE, TX, 75801","Match","Exact","300 SHADOW WOOD DR, PALESTINE, TX, 75801",640120196,"R"
471445,"300 SHALLOWFORD PLACE","LOUISVILLE","KY",40245,38.2374390570001,-85.425832451,445,"300 SHALLOWFORD PLACE, LOUISVILLE, KY, 40245","Match","Exact","300 SHALLOWFORD PL, LOUISVILLE, KY, 40245",635550428,"R"
471446,"300 SHANNON ST","FAYETTE","MS",39069,31.707160835,-91.068190997,446,"300 SHANNON ST, FAYETTE, MS, 39069","Match","Exact","300 SHANNON ST, FAYETTE, MS, 39069",612206787,"R"
471447,"300 SHEMWOOD APT 1D","GREENVILLE","SC",29605,NA,NA,447,"300 SHEMWOOD APT 1D, GREENVILLE, SC, 29605","No_Match",NA,NA,NA,NA
471448,"300 SHEOAH BLVD APT 1209","WINTER SPRINGS","FL",32708,28.7074717130001,-81.3135962429999,448,"300 SHEOAH BLVD APT 1209, WINTER SPRINGS, FL, 32708","Match","Exact","300 SHEOAH BLVD, WINTER SPRINGS, FL, 32708",93791317,"L"
471449,"300 SHEOAH BLVD UNIT 604","WINTER SPRINGS","FL",32708,28.7074717130001,-81.3135962429999,449,"300 SHEOAH BLVD UNIT 604, WINTER SPRINGS, FL, 32708","Match","Exact","300 SHEOAH BLVD, WINTER SPRINGS, FL, 32708",93791317,"L"
471450,"300 SHERIDAN AVENUE","ALBANY","NY",12210,42.659710202,-73.762577177,450,"300 SHERIDAN AVENUE, ALBANY, NY, 12210","Match","Exact","300 SHERIDAN AVE, ALBANY, NY, 12210",18340899,"L"
471451,"300 SHILLING DR","SOMERSET","NJ",8873,40.5046921650001,-74.518973247,451,"300 SHILLING DR, SOMERSET, NJ, 8873","Match","Exact","300 SHILLING DR, SOMERSET, NJ, 08873",634485219,"L"
471452,"300 SHILOH PASS NW","KENNESAW","GA",30144,34.0605248790001,-84.560179026,452,"300 SHILOH PASS NW, KENNESAW, GA, 30144","Match","Exact","300 SHILOH PASS NW, KENNESAW, GA, 30144",627205946,"R"
471453,"300 SHORELINE DRIVE","GULF BREEZE","FL",32561,NA,NA,453,"300 SHORELINE DRIVE, GULF BREEZE, FL, 32561","No_Match",NA,NA,NA,NA
471454,"300 SIGN PINE RD","CHESAPEAKE","VA",23322,36.646509693,-76.229162242,454,"300 SIGN PINE RD, CHESAPEAKE, VA, 23322","Match","Exact","300 SIGN PINE RD, CHESAPEAKE, VA, 23322",121791191,"R"
471455,"300 SILVER CIRCLE","WARNER ROBINS","GA",31093,32.6714491230001,-83.7064345329999,455,"300 SILVER CIRCLE, WARNER ROBINS, GA, 31093","Match","Exact","300 SILVER CIR, WARNER ROBINS, GA, 31093",91253158,"L"
471456,"300 SIXTH ST","RAPID CITY","SD",57701,44.083156322,-103.226331595,456,"300 SIXTH ST, RAPID CITY, SD, 57701","Match","Exact","300 6TH ST, RAPID CITY, SD, 57701",636614738,"L"
471457,"300 SKYRIDGE ROAD","FRANKLIN LAKES","NJ",7417,40.9943450310001,-74.2260796699999,457,"300 SKYRIDGE ROAD, FRANKLIN LAKES, NJ, 7417","Match","Non_Exact","300 SKY RIDGE RD, FRANKLIN LAKES, NJ, 07417",64423532,"L"
471458,"300 SMITH POND RD","WATERTOWN","CT",6795,41.634536408,-73.125861256,458,"300 SMITH POND RD, WATERTOWN, CT, 6795","Match","Exact","300 SMITH POND RD, WATERTOWN, CT, 06795",3108428,"R"
471459,"300 SNEAD FAIRWAY","PORTSMOUTH","VA",23701,36.8126848730001,-76.394245256,459,"300 SNEAD FAIRWAY, PORTSMOUTH, VA, 23701","Match","Exact","300 SNEAD FAIRWAY, PORTSMOUTH, VA, 23701",122190791,"R"
471460,"300 SOMERSET STREET","HARRISON","NJ",7029,40.740127047,-74.157559837,460,"300 SOMERSET STREET, HARRISON, NJ, 7029","Match","Exact","300 SOMERSET ST, HARRISON, NJ, 07029",59601486,"L"
471461,"300 SOOYS LANDING ROAD","PORT REPUBLIC","NJ",8241,39.535863824,-74.5007738849999,461,"300 SOOYS LANDING ROAD, PORT REPUBLIC, NJ, 8241","Match","Exact","300 SOOYS LANDING RD, PORT REPUBLIC, NJ, 08241",202521654,"R"
471462,"300 SOUTH 1ST AVENUE","BARTOW","FL",33830,27.895189504,-81.834890334,462,"300 SOUTH 1ST AVENUE, BARTOW, FL, 33830","Match","Exact","300 S 1ST AVE, BARTOW, FL, 33830",104820961,"L"
471463,"300 SOUTH 28TH ST","BATTLE CREEK","MI",49015,42.2941904750001,-85.2285520199999,463,"300 SOUTH 28TH ST, BATTLE CREEK, MI, 49015","Match","Exact","300 S 28TH ST, BATTLE CREEK, MI, 49015",11711602,"R"
471464,"300 SOUTH 3RD","ELMO","MO",64445,40.516909013,-95.116434878,464,"300 SOUTH 3RD, ELMO, MO, 64445","Match","Non_Exact","300 S 3RD ST, ELMO, MO, 64445",608406509,"R"
471465,"300 SOUTH 501 WEST","SALT LAKE","UT",84101,NA,NA,465,"300 SOUTH 501 WEST, SALT LAKE, UT, 84101","No_Match",NA,NA,NA,NA
471466,"300 SOUTH BISCAYNE BLVD APT 3107","MIAMI","FL",33131,NA,NA,466,"300 SOUTH BISCAYNE BLVD APT 3107, MIAMI, FL, 33131","No_Match",NA,NA,NA,NA
471467,"300 SOUTH BISCAYNE BLVD UNIT 33136","MIAMI","FL",33131,NA,NA,467,"300 SOUTH BISCAYNE BLVD UNIT 33136, MIAMI, FL, 33131","No_Match",NA,NA,NA,NA
471468,"300 SOUTH CENTRAL AVENUE A30","HARTSDALE","NY",10530,41.012043852,-73.806370229,468,"300 SOUTH CENTRAL AVENUE A30, HARTSDALE, NY, 10530","Match","Exact","300 S CENTRAL AVE, HARTSDALE, NY, 10530",634099351,"R"
471469,"300 SOUTH CHERRY STREET","HAMMOND","LA",70401,30.5026408090001,-90.457983827,469,"300 SOUTH CHERRY STREET, HAMMOND, LA, 70401","Match","Non_Exact","300 S CHERRY ST, HAMMOND, LA, 70403",75751828,"L"
471470,"300 SOUTH CHERRY STREET","HAMMONDD","LA",70401,30.5026408090001,-90.457983827,470,"300 SOUTH CHERRY STREET, HAMMONDD, LA, 70401","Match","Non_Exact","300 S CHERRY ST, HAMMOND, LA, 70403",75751828,"L"
471471,"300 SOUTH CHESTER ROAD SUITE 106","SWARTHMORE","PA",19081,39.8971728070001,-75.351255674,471,"300 SOUTH CHESTER ROAD SUITE 106, SWARTHMORE, PA, 19081","Match","Exact","300 S CHESTER RD, SWARTHMORE, PA, 19081",134879299,"R"
471472,"300 SOUTH CHESTER","PLEASANTVILLE","NJ",8232,NA,NA,472,"300 SOUTH CHESTER, PLEASANTVILLE, NJ, 8232","No_Match",NA,NA,NA,NA
471473,"300 SOUTH CHURCH STREET","FERRIS","TX",75125,32.532844341,-96.66672615,473,"300 SOUTH CHURCH STREET, FERRIS, TX, 75125","Match","Exact","300 S CHURCH ST, FERRIS, TX, 75125",103451768,"L"
471474,"300 SOUTH FEDERAL HIGHWAY","HALLANDALE","FL",33009,25.981797226,-80.1423013249999,474,"300 SOUTH FEDERAL HIGHWAY, HALLANDALE, FL, 33009","Match","Exact","300 S FEDERAL HWY, HALLANDALE, FL, 33009",640127512,"L"
471475,"300 SOUTH GRAND AVE","LOS ANGELES","CA",90071,34.0529722700001,-118.25124416,475,"300 SOUTH GRAND AVE, LOS ANGELES, CA, 90071","Match","Exact","300 S GRAND AVE, LOS ANGELES, CA, 90071",141617273,"L"
471476,"300 SOUTH LAKE","BLYTHEVILLE","AR",72315,35.925516051,-89.8998378589999,476,"300 SOUTH LAKE, BLYTHEVILLE, AR, 72315","Match","Non_Exact","300 S LAKE ST, BLYTHEVILLE, AR, 72315",604500323,"R"
471477,"300 SOUTH MAHONEY","TELLURIDE","CO",81435,NA,NA,477,"300 SOUTH MAHONEY, TELLURIDE, CO, 81435","No_Match",NA,NA,NA,NA
471478,"300 SOUTH MAIN AVE","SIOUX FALLS","SD",57104,43.544596703,-96.728263128,478,"300 SOUTH MAIN AVE, SIOUX FALLS, SD, 57104","Match","Exact","300 S MAIN AVE, SIOUX FALLS, SD, 57104",34972827,"L"
471479,"300 SOUTH MAIN STREET","BLACKSBURG","VA",24060,37.2278772940001,-80.412404083,479,"300 SOUTH MAIN STREET, BLACKSBURG, VA, 24060","Match","Exact","300 S MAIN ST, BLACKSBURG, VA, 24060",73616331,"L"
471480,"300 SOUTH MAIN STREET","DEFOREST","WI",53532,43.244874145,-89.343795963,480,"300 SOUTH MAIN STREET, DEFOREST, WI, 53532","Match","Exact","300 S MAIN ST, DEFOREST, WI, 53532",49465453,"L"
471481,"300 SOUTH MILL STREET","WINNSBORO","TX",75494,32.9556988790001,-95.2921250969999,481,"300 SOUTH MILL STREET, WINNSBORO, TX, 75494","Match","Exact","300 S MILL ST, WINNSBORO, TX, 75494",42973778,"L"
471482,"300 SOUTH MURRAY STREET","GAINESBORO","TN",38562,36.354516232,-85.657085138,482,"300 SOUTH MURRAY STREET, GAINESBORO, TN, 38562","Match","Exact","300 S MURRAY ST, GAINESBORO, TN, 38562",25102360,"R"
471483,"300 SOUTH OLIVE ST APT 1001","LOS ANGELES","CA",90013,34.0522985270001,-118.250193692,483,"300 SOUTH OLIVE ST APT 1001, LOS ANGELES, CA, 90013","Match","Exact","300 S OLIVE ST, LOS ANGELES, CA, 90013",141617292,"L"
471484,"300 SOUTH ORLEANS ROAD","ORLEANS","MA",2653,41.75895517,-69.9890097489999,484,"300 SOUTH ORLEANS ROAD, ORLEANS, MA, 2653","Match","Exact","300 S ORLEANS RD, ORLEANS, MA, 02653",121603855,"R"
471485,"300 SOUTH PERRY STREET","ATTICA","IN",47918,40.2926769260001,-87.2495987139999,485,"300 SOUTH PERRY STREET, ATTICA, IN, 47918","Match","Exact","300 S PERRY ST, ATTICA, IN, 47918",55223944,"L"
471486,"300 SOUTH PINE ISLAND ROAD STE 265","PLANTATION","FL",33324,NA,NA,486,"300 SOUTH PINE ISLAND ROAD STE 265, PLANTATION, FL, 33324","No_Match",NA,NA,NA,NA
471487,"300 SOUTH PINE ISLAND","PLANTATION","FL",33324,NA,NA,487,"300 SOUTH PINE ISLAND, PLANTATION, FL, 33324","No_Match",NA,NA,NA,NA
471488,"300 SOUTH POINTE DR APT4306","MIAMI BEACH","FL",33139,25.7682965130001,-80.1340292,488,"300 SOUTH POINTE DR APT4306, MIAMI BEACH, FL, 33139","Match","Exact","300 S POINTE DR, MIAMI BEACH, FL, 33139",116020795,"L"
471489,"300 SOUTH RIDGE ST","RYE BROOK","NY",10573,40.9983075810001,-73.681974075,489,"300 SOUTH RIDGE ST, RYE BROOK, NY, 10573","Match","Exact","300 S RIDGE ST, RYE BROOK, NY, 10573",139810098,"L"
471490,"300 SOUTH RIVERSIDE DRIVE","POMPANO BEACH","FL",33062,26.2296986690001,-80.0932826339999,490,"300 SOUTH RIVERSIDE DRIVE, POMPANO BEACH, FL, 33062","Match","Exact","300 S RIVERSIDE DR, POMPANO BEACH, FL, 33062",114696132,"L"
471491,"300 SOUTH SAINT PAUL STREET 725","DALLAS","TX",75201,32.779890827,-96.795225283,491,"300 SOUTH SAINT PAUL STREET 725, DALLAS, TX, 75201","Match","Exact","300 S ST PAUL ST, DALLAS, TX, 75201",102910254,"L"
471492,"300 SOUTH SAINT PAUL STREET 823","DALLAS","TX",75201,32.779890827,-96.795225283,492,"300 SOUTH SAINT PAUL STREET 823, DALLAS, TX, 75201","Match","Exact","300 S ST PAUL ST, DALLAS, TX, 75201",102910254,"L"
471493,"300 SOUTH SECOND STREET","SPRINGFIELD","IL",62701,39.799431935,-89.6533433439999,493,"300 SOUTH SECOND STREET, SPRINGFIELD, IL, 62701","Match","Exact","300 S 2ND ST, SPRINGFIELD, IL, 62701",97323092,"L"
471494,"300 SOUTH SPRING STREET 1702","LOS ANGELES","CA",90013,34.0501480520001,-118.247045152,494,"300 SOUTH SPRING STREET 1702, LOS ANGELES, CA, 90013","Match","Exact","300 S SPRING ST, LOS ANGELES, CA, 90013",141618122,"L"
471495,"300 SOUTH ST PAUL ST 421","DALLAS","TX",75201,32.779890827,-96.795225283,495,"300 SOUTH ST PAUL ST 421, DALLAS, TX, 75201","Match","Exact","300 S ST PAUL ST, DALLAS, TX, 75201",102910254,"L"
471496,"300 SOUTH ST PAUL ST APT 1026","DALLAS","TX",75201,32.779890827,-96.795225283,496,"300 SOUTH ST PAUL ST APT 1026, DALLAS, TX, 75201","Match","Exact","300 S ST PAUL ST, DALLAS, TX, 75201",102910254,"L"
471497,"300 SOUTH SYCAMORE STREET","PETERSBURG","VA",23803,37.22307117,-77.401541827,497,"300 SOUTH SYCAMORE STREET, PETERSBURG, VA, 23803","Match","Exact","300 S SYCAMORE ST, PETERSBURG, VA, 23803",54151009,"R"
471498,"300 SOUTH THIRD STREET","PADUCAH","KY",42001,37.084088384,-88.594793459,498,"300 SOUTH THIRD STREET, PADUCAH, KY, 42001","Match","Non_Exact","300 S 3RD ST, PADUCAH, KY, 42003",8396942,"R"
471499,"300 SOUTH WALNUT ST PIKE APT E8","BLOOMINGTON","IN",47401,39.1645785010001,-86.533632317,499,"300 SOUTH WALNUT ST PIKE APT E8, BLOOMINGTON, IN, 47401","Match","Exact","300 S WALNUT ST, BLOOMINGTON, IN, 47401",645270992,"R"
471500,"300 SOUTHERN WALK DRIVE","MILLEDGEVILLE","GA",31061,33.159149213,-83.267952506,500,"300 SOUTHERN WALK DRIVE, MILLEDGEVILLE, GA, 31061","Match","Non_Exact","300 SOUTHERN WALK DR NE, MILLEDGEVILLE, GA, 31061",625204953,"L"
