"ID","Address","City","State","Zip","lat","long","id","input_address","match_indicator","match_type","matched_address","tiger_line_id","tiger_side"
709501,"5307 N MISHLER RD","HUNTINGTON","IN",46750,40.908270026,-85.479732799,1,"5307 N MISHLER RD, HUNTINGTON, IN, 46750","Match","Exact","5307 N MISHLER RD, HUNTINGTON, IN, 46750",6546856,"R"
709502,"5307 NOYES AVENUE","CHARLESTON","WV",25304,38.3175080090001,-81.5727177959999,2,"5307 NOYES AVENUE, CHARLESTON, WV, 25304","Match","Exact","5307 NOYES AVE, CHARLESTON, WV, 25304",78595900,"R"
709503,"5307 PARTRIDGE STREET","DURHAM","NC",27704,36.0701131270001,-78.903895689,3,"5307 PARTRIDGE STREET, DURHAM, NC, 27704","Match","Exact","5307 PARTRIDGE ST, DURHAM, NC, 27704",71735748,"L"
709504,"5307 PLAINFIELD AVE","BALTIMORE","MD",21206,39.3344021930001,-76.547303089,4,"5307 PLAINFIELD AVE, BALTIMORE, MD, 21206","Match","Exact","5307 PLAINFIELD AVE, BALTIMORE, MD, 21206",206411669,"R"
709505,"5307 RADCLIFF DRIVE","GREENDALE","WI",53129,42.928752613,-87.9832450979999,5,"5307 RADCLIFF DRIVE, GREENDALE, WI, 53129","Match","Exact","5307 RADCLIFF DR, GREENDALE, WI, 53129",77750093,"L"
709506,"5307 RED CLOUD RD","COLORADO CITY","CO",81019,37.944743391,-104.875270672,6,"5307 RED CLOUD RD, COLORADO CITY, CO, 81019","Match","Exact","5307 RED CLOUD RD, COLO CITY, CO, 81019",105052399,"L"
709507,"5307 RIVERVIEW DR","ST AUGUSTINE","FL",32080,29.79700575,-81.270269732,7,"5307 RIVERVIEW DR, ST AUGUSTINE, FL, 32080","Match","Exact","5307 RIVERVIEW DR, SAINT AUGUSTINE, FL, 32080",92586388,"L"
709508,"5307 S HYDE PARK BLVD","CHICAGO","IL",60615,41.799422244,-87.584041277,8,"5307 S HYDE PARK BLVD, CHICAGO, IL, 60615","Match","Exact","5307 S HYDE PARK BLVD, CHICAGO, IL, 60615",111771981,"L"
709509,"5307 S WHEELING AVE","TULSA","OK",74105,36.085927333,-95.964454078,9,"5307 S WHEELING AVE, TULSA, OK, 74105","Match","Exact","5307 S WHEELING AVE, TULSA, OK, 74105",166444192,"L"
709510,"5307 SADDLEWOOD TER","PARRISH","FL",34219,27.5652271710001,-82.362541505,10,"5307 SADDLEWOOD TER, PARRISH, FL, 34219","Match","Exact","5307 SADDLEWOOD TER, PARRISH, FL, 34219",624802851,"R"
709511,"5307 SANTA FE","PASCO","WA",99301,46.2756583620001,-119.143091896,11,"5307 SANTA FE, PASCO, WA, 99301","Match","Non_Exact","5307 SANTA FE LN, PASCO, WA, 99301",652122261,"R"
709512,"5307 SHAW AVENUE","SAINT LOUIS","MO",63110,38.6181871950001,-90.2748685029999,12,"5307 SHAW AVENUE, SAINT LOUIS, MO, 63110","Match","Exact","5307 SHAW AVE, SAINT LOUIS, MO, 63110",107594648,"R"
709513,"5307 SOUTH HYDE PARK BLVD APT 408","CHICAGO","IL",60615,41.7994238200001,-87.58404132,13,"5307 SOUTH HYDE PARK BLVD APT 408, CHICAGO, IL, 60615","Match","Exact","5307 S HYDE PARK BLVD, CHICAGO, IL, 60615",111771981,"L"
709514,"5307 STATE HWY 303 NE","BREMERTON","WA",98310,47.6114247200001,-122.62877219,14,"5307 STATE HWY 303 NE, BREMERTON, WA, 98310","Match","Non_Exact","5307 STATE HWY 303 NE, BREMERTON, WA, 98311",187641489,"L"
709515,"5307 STATE HWY 303","BREMERTON","WA",98312,47.6114247200001,-122.62877219,15,"5307 STATE HWY 303, BREMERTON, WA, 98312","Match","Non_Exact","5307 STATE HWY 303, BREMERTON, WA, 98311",187641489,"L"
709516,"5307 STEVEN HILL DR","NORTH CHESTERFIELD","VA",23234,37.4287323410001,-77.4850016519999,16,"5307 STEVEN HILL DR, NORTH CHESTERFIELD, VA, 23234","Match","Exact","5307 STEVEN HILL DR, NORTH CHESTERFIELD, VA, 23234",223166018,"R"
709517,"5307 SUNNYSLOPE AVENUE","SHERMAN OAKS","CA",91404,34.1668916790001,-118.42715144,17,"5307 SUNNYSLOPE AVENUE, SHERMAN OAKS, CA, 91404","Match","Non_Exact","5307 SUNNYSLOPE AVE, SHERMAN OAKS, CA, 91401",141561870,"L"
709518,"5307 SYLVAN ROAD","RICHMOND","VA",23225,37.5268900560001,-77.495320523,18,"5307 SYLVAN ROAD, RICHMOND, VA, 23225","Match","Exact","5307 SYLVAN RD, RICHMOND, VA, 23225",610891644,"R"
709519,"5307 TUMMEL CT","WESLEY CHAPEL","FL",33545,28.2343277150001,-82.290720812,19,"5307 TUMMEL CT, WESLEY CHAPEL, FL, 33545","Match","Exact","5307 TUMMEL CT, WESLEY CHAPEL, FL, 33545",641074624,"L"
709520,"5307 VANTAGE AVE APT 3","VALLEY VILLAGE","CA",91607,34.1672302110001,-118.398145288,20,"5307 VANTAGE AVE APT 3, VALLEY VILLAGE, CA, 91607","Match","Exact","5307 VANTAGE AVE, VALLEY VLG, CA, 91607",141564544,"L"
709521,"5307 W 100 S","ANDERSON","IN",46011,40.0902301290001,-85.774729265,21,"5307 W 100 S, ANDERSON, IN, 46011","Match","Exact","5307 W 100 S, ANDERSON, IN, 46011",31110755,"L"
709522,"5307 WEST COVE WAY","GRAND PRAIRIE","TX",75052,32.6433076390001,-97.0582485039999,22,"5307 WEST COVE WAY, GRAND PRAIRIE, TX, 75052","Match","Exact","5307 W COVE WAY, GRAND PRAIRIE, TX, 75052",649881393,"R"
709523,"53074 MEMORIAL STREET","LAKE ELSINORE","CA",92532,33.7070644930001,-117.302126826,23,"53074 MEMORIAL STREET, LAKE ELSINORE, CA, 92532","Match","Exact","53074 MEMORIAL ST, LAKE ELSINORE, CA, 92532",617967254,"R"
709524,"53074 RIDGEWOOD DRIVE","CHESTERFIELD","MI",48051,42.690743248,-82.803945083,24,"53074 RIDGEWOOD DRIVE, CHESTERFIELD, MI, 48051","Match","Non_Exact","53074 RIDGEWOOD, CHESTERFIELD, MI, 48051",110706409,"R"
709525,"5307A KENTUCKY AVENUE","NASHVILLE","TN",37209,36.1597539150001,-86.8519235589999,25,"5307A KENTUCKY AVENUE, NASHVILLE, TN, 37209","Match","Exact","5307 KENTUCKY AVE, NASHVILLE, TN, 37209",97179066,"L"
709526,"5308 108TH STR SW","LAKEWOOD","WA",98499,47.1595502580001,-122.507127641,26,"5308 108TH STR SW, LAKEWOOD, WA, 98499","Match","Exact","5308 108TH ST SW, LAKEWOOD, WA, 98499",184622951,"R"
709527,"5308 13TH AVE SUITE 594","BROOKLYN","NY",11219,40.632709488,-73.994543182,27,"5308 13TH AVE SUITE 594, BROOKLYN, NY, 11219","Match","Exact","5308 13TH AVE, BROOKLYN, NY, 11219",59080239,"R"
709528,"5308 13TH STREET NW","WASHINGTON","DC",20011,38.954242423,-77.029701104,28,"5308 13TH STREET NW, WASHINGTON, DC, 20011","Match","Exact","5308 13TH ST NW, WASHINGTON, DC, 20011",76223272,"L"
709529,"5308 5TH STREET NW","WASHINGTON","DC",20011,38.9544713450001,-77.019800101,29,"5308 5TH STREET NW, WASHINGTON, DC, 20011","Match","Exact","5308 5TH ST NW, WASHINGTON, DC, 20011",76223403,"L"
709530,"5308 ANGORA TER APT B","PHILADELPHIA","PA",19143,39.9468751950001,-75.230333371,30,"5308 ANGORA TER APT B, PHILADELPHIA, PA, 19143","Match","Exact","5308 ANGORA TER, PHILADELPHIA, PA, 19143",131441947,"L"
709531,"5308 AURORA WAY","BAKERSFIELD","CA",93306,35.402176105,-118.885665383,31,"5308 AURORA WAY, BAKERSFIELD, CA, 93306","Match","Exact","5308 AURORA WAY, BAKERSFIELD, CA, 93306",627326742,"L"
709532,"5308 B ST","LITTLE ROCK","AR",72205,34.7538157870001,-92.3319519789999,32,"5308 B ST, LITTLE ROCK, AR, 72205","Match","Exact","5308 B ST, LITTLE ROCK, AR, 72205",83505287,"R"
709533,"5308 BAKER AVE NW","SEATTLE","WA",98107,NA,NA,33,"5308 BAKER AVE NW, SEATTLE, WA, 98107","No_Match",NA,NA,NA,NA
709534,"5308 BIG BEND DR","FORT WORTH","TX",76137,32.872056764,-97.270960593,34,"5308 BIG BEND DR, FORT WORTH, TX, 76137","Match","Exact","5308 BIG BEND DR, FORT WORTH, TX, 76137",640624215,"R"
709535,"5308 BINBRANCH","MCKINNEY","TX",75071,33.23641853,-96.687010356,35,"5308 BINBRANCH, MCKINNEY, TX, 75071","Match","Non_Exact","5308 BINBRANCH LN, MCKINNEY, TX, 75071",614184140,"R"
709536,"5308 BROADWOOD AVE","PEACHTREE CORNERS","GA",30092,33.993605238,-84.2304882029999,36,"5308 BROADWOOD AVE, PEACHTREE CORNERS, GA, 30092","Match","Exact","5308 BROADWOOD AVE, PEACHTREE CORNERS, GA, 30092",645856086,"R"
709537,"5308 BUCKTOWN ROAD","CAMBRIDGE","MD",21613,38.5482942420001,-76.038390281,37,"5308 BUCKTOWN ROAD, CAMBRIDGE, MD, 21613","Match","Exact","5308 BUCKTOWN RD, CAMBRIDGE, MD, 21613",99676222,"L"
709538,"5308 BURNS","DETROIT","MI",48236,NA,NA,38,"5308 BURNS, DETROIT, MI, 48236","No_Match",NA,NA,NA,NA
709539,"5308 CENTRAL AVENUE","ST PETERSBURG","FL",33707,27.770925278,-82.7055333289999,39,"5308 CENTRAL AVENUE, ST PETERSBURG, FL, 33707","Match","Exact","5308 CENTRAL AVE, SAINT PETERSBURG, FL, 33707",124700290,"L"
709540,"5308 CHAFFINS FARM COURT","HAYMARKET","VA",20169,38.8424667940001,-77.624369734,40,"5308 CHAFFINS FARM COURT, HAYMARKET, VA, 20169","Match","Exact","5308 CHAFFINS FARM CT, HAYMARKET, VA, 20169",616849414,"L"
709541,"5308 COLONY HILL RD","FORT WORTH","TX",76262,32.7558094830001,-97.241102525,41,"5308 COLONY HILL RD, FORT WORTH, TX, 76262","Match","Non_Exact","5308 COLONY HILL RD, FT WORTH, TX, 76112",101897538,"R"
709542,"5308 COTTONWOOD STE 3","MEMPHIS","TN",38118,35.068907365,-89.886239131,42,"5308 COTTONWOOD STE 3, MEMPHIS, TN, 38118","Match","Non_Exact","5308 COTTONWOOD RD, MEMPHIS, TN, 38118",72928096,"L"
709543,"5308 E ROYAL DRIVE","POST FALLS","ID",83854,47.7184023180001,-116.879522768,43,"5308 E ROYAL DRIVE, POST FALLS, ID, 83854","Match","Exact","5308 E ROYAL DR, POST FALLS, ID, 83854",192901423,"R"
709544,"5308 EASTRIDGE CT","BAKERSFIELD","CA",93306,35.397318167,-118.934360729,44,"5308 EASTRIDGE CT, BAKERSFIELD, CA, 93306","Match","Exact","5308 EASTRIDGE CT, BAKERSFIELD, CA, 93306",109562819,"L"
709545,"5308 FOX BRIAR TRAIL","ORLANDO","FL",32808,28.6060015520001,-81.465704585,45,"5308 FOX BRIAR TRAIL, ORLANDO, FL, 32808","Match","Exact","5308 FOX BRIAR TRL, ORLANDO, FL, 32808",94268573,"L"
709546,"5308 GLOUCESTER RD","HIGH RIDGE","MO",63049,38.472415147,-90.526808069,46,"5308 GLOUCESTER RD, HIGH RIDGE, MO, 63049","Match","Exact","5308 GLOUCESTER RD, HIGH RIDGE, MO, 63049",62793893,"L"
709547,"5308 GREAT DIVIDE DRIVE","BEE CAVE","TX",78738,30.2961990480001,-97.955079699,47,"5308 GREAT DIVIDE DRIVE, BEE CAVE, TX, 78738","Match","Exact","5308 GREAT DIVIDE DR, BEE CAVE, TX, 78738",64018673,"R"
709548,"5308 GREEN OASIS DR","DOVER","FL",33527,27.9078922260001,-82.2066799469999,48,"5308 GREEN OASIS DR, DOVER, FL, 33527","Match","Exact","5308 GREEN OASIS DR, DOVER, FL, 33527",624597333,"L"
709549,"5308 HAYLOFT COURT","FORT WORTH","TX",76123,32.619377226,-97.406094307,49,"5308 HAYLOFT COURT, FORT WORTH, TX, 76123","Match","Exact","5308 HAYLOFT CT, FORT WORTH, TX, 76123",102119902,"L"
709550,"5308 INDIANA AVE","NASHVILLE","TN",37209,36.1564660450001,-86.851531331,50,"5308 INDIANA AVE, NASHVILLE, TN, 37209","Match","Exact","5308 INDIANA AVE, NASHVILLE, TN, 37209",97223042,"R"
709551,"5308 LA QUINTA HILLS STREET","NORTH LAS VEGAS","NV",89081,36.256017242,-115.132470199,51,"5308 LA QUINTA HILLS STREET, NORTH LAS VEGAS, NV, 89081","Match","Exact","5308 LA QUINTA HILLS ST, N LAS VEGAS, NV, 89081",612678533,"R"
709552,"5308 LABANDERA TR","BENBROOK","TX",76126,NA,NA,52,"5308 LABANDERA TR, BENBROOK, TX, 76126","No_Match",NA,NA,NA,NA
709553,"5308 LANDES STREET","PORT TOWNSEND","WA",98368,48.138228483,-122.783106356,53,"5308 LANDES STREET, PORT TOWNSEND, WA, 98368","Match","Exact","5308 LANDES ST, PORT TOWNSEND, WA, 98368",151999752,"R"
709554,"5308 LAUREL POINT DRIVE","VALRICO","FL",33596,NA,NA,54,"5308 LAUREL POINT DRIVE, VALRICO, FL, 33596","No_Match",NA,NA,NA,NA
709555,"5308 MAPLE LANE","COLLEYVILLE","TX",76034,32.8870468100001,-97.1243332189999,55,"5308 MAPLE LANE, COLLEYVILLE, TX, 76034","Match","Exact","5308 MAPLE LN, COLLEYVILLE, TX, 76034",102090750,"R"
709556,"5308 MAPLE ST","BELLAIRE","TX",77401,29.6910567140001,-95.4775763819999,56,"5308 MAPLE ST, BELLAIRE, TX, 77401","Match","Exact","5308 MAPLE ST, BELLAIRE, TX, 77401",96038887,"R"
709557,"5308 MARSH LANDING LANE","SUFFOLK","VA",23435,36.8773338980001,-76.443362379,57,"5308 MARSH LANDING LANE, SUFFOLK, VA, 23435","Match","Exact","5308 MARSH LANDING LN, SUFFOLK, VA, 23435",122233268,"R"
709558,"5308 MCCONNELL DR","KERNERSVILLE","NC",27284,36.11794209,-80.081568325,58,"5308 MCCONNELL DR, KERNERSVILLE, NC, 27284","Match","Exact","5308 MCCONNELL DR, KERNERSVILLE, NC, 27284",635547942,"R"
709559,"5308 MCINTOSH POINT","SANFORD","FL",32773,28.734254078,-81.299968497,59,"5308 MCINTOSH POINT, SANFORD, FL, 32773","Match","Exact","5308 MCINTOSH PT, SANFORD, FL, 32773",93759162,"L"
709560,"5308 MCKENNA ROAD","MONONA","WI",53716,43.062071712,-89.33596242,60,"5308 MCKENNA ROAD, MONONA, WI, 53716","Match","Non_Exact","5308 MC KENNA RD, MONONA, WI, 53716",49556268,"L"
709561,"5308 MEADOW STREAM WAY","CRESTWOOD","KY",40014,38.340297638,-85.5004967949999,61,"5308 MEADOW STREAM WAY, CRESTWOOD, KY, 40014","Match","Exact","5308 MEADOW STREAM WAY, CRESTWOOD, KY, 40014",130932514,"L"
709562,"5308 MIAMI ST","SOUTH BEND","IN",46614,41.619390509,-86.234723209,62,"5308 MIAMI ST, SOUTH BEND, IN, 46614","Match","Exact","5308 MIAMI ST, SOUTH BEND, IN, 46614",8082223,"L"
709563,"5308 MICHIGAN AVE","NASHVILLE","TN",37209,36.1586648360001,-86.8518202659999,63,"5308 MICHIGAN AVE, NASHVILLE, TN, 37209","Match","Exact","5308 MICHIGAN AVE, NASHVILLE, TN, 37209",97179069,"R"
709564,"5308 N CAPITOL ST NW","WASHINGTON","DC",20011,38.9549359750001,-77.009051905,64,"5308 N CAPITOL ST NW, WASHINGTON, DC, 20011","Match","Exact","5308 N CAPITOL ST NW, WASHINGTON, DC, 20011",649878240,"L"
709565,"5308 N RED HILLS PL","MERIDIAN","ID",83646,43.6530871840001,-116.385532519,65,"5308 N RED HILLS PL, MERIDIAN, ID, 83646","Match","Exact","5308 N RED HILLS PL, MERIDIAN, ID, 83646",619857989,"R"
709566,"5308 NE 46 STREET","KANSAS CITY","MO",64117,39.177276873,-94.517780798,66,"5308 NE 46 STREET, KANSAS CITY, MO, 64117","Match","Exact","5308 NE 46TH ST, KANSAS CITY, MO, 64117",89758745,"L"
709567,"5308 NORTH PEARL STREET","JACKSONVILLE","FL",32208,30.372241683,-81.656660049,67,"5308 NORTH PEARL STREET, JACKSONVILLE, FL, 32208","Match","Exact","5308 N PEARL ST, JACKSONVILLE, FL, 32208",83897899,"L"
709568,"5308 NW ROTHERWOOD DRIVE","LAWTON","OK",73505,34.6310408950001,-98.45871907,68,"5308 NW ROTHERWOOD DRIVE, LAWTON, OK, 73505","Match","Exact","5308 NW ROTHERWOOD DR, LAWTON, OK, 73505",14990376,"L"
709569,"5308 OAK BEND CT","MOBILE","AL",36609,30.658330934,-88.166211613,69,"5308 OAK BEND CT, MOBILE, AL, 36609","Match","Exact","5308 OAK BEND CT, MOBILE, AL, 36609",61944959,"R"
709570,"5308 OAKBROOK DR","FAIRFIELD","OH",45014,39.334613077,-84.551181731,70,"5308 OAKBROOK DR, FAIRFIELD, OH, 45014","Match","Exact","5308 OAKBROOK DR, FAIRFIELD, OH, 45014",113816727,"R"
709571,"5308 OLIVE ROAD","RALEIGH","NC",27606,35.7520298160001,-78.7208914459999,71,"5308 OLIVE ROAD, RALEIGH, NC, 27606","Match","Exact","5308 OLIVE RD, RALEIGH, NC, 27606",72600723,"R"
709572,"5308 PEACHTREE CREEK CIR","ATLANTA","GA",30341,33.8656900490001,-84.284782335,72,"5308 PEACHTREE CREEK CIR, ATLANTA, GA, 30341","Match","Non_Exact","5308 PEACHTREE CREEK CIR, ATLANTA, GA, 30345",651708152,"R"
709573,"5308 PLEASANT ST","WEST DES MOINES","IA",52066,41.58759909,-93.782052501,73,"5308 PLEASANT ST, WEST DES MOINES, IA, 52066","Match","Non_Exact","5308 PLEASANT ST, WEST DES MOINES, IA, 50266",65796586,"R"
709574,"5308 RIVER WOODS CT","DEXTER","MI",48130,42.326659992,-83.836376397,74,"5308 RIVER WOODS CT, DEXTER, MI, 48130","Match","Exact","5308 RIVER WOODS CT, DEXTER, MI, 48130",26036533,"L"
709575,"5308 ROLLINGMEADOWS DRIVE","GREENSBORO","NC",27406,35.9842234930001,-79.666972529,75,"5308 ROLLINGMEADOWS DRIVE, GREENSBORO, NC, 27406","Match","Non_Exact","5308 ROLLING MEADOW DR, GREENSBORO, NC, 27406",131081293,"R"
709576,"5308 S BROADWAY CIRCLE 5-204","ENGLEWOOD","CO",80113,39.6186942480001,-104.984337912,76,"5308 S BROADWAY CIRCLE 5-204, ENGLEWOOD, CO, 80113","Match","Non_Exact","5308 S BROADWAY CIR, ENGLEWOOD, CO, 80113",637538280,"L"
709577,"5308 S WOODCLIFFE DR","SPRINGFIELD","MO",65804,37.1159021170001,-93.230614792,77,"5308 S WOODCLIFFE DR, SPRINGFIELD, MO, 65804","Match","Exact","5308 S WOODCLIFFE DR, SPRINGFIELD, MO, 65804",76709540,"L"
709578,"5308 SECOND STREET","ST. AUGUSTINE","FL",32080,29.7972184720001,-81.265052365,78,"5308 SECOND STREET, ST. AUGUSTINE, FL, 32080","Match","Exact","5308 2ND ST, SAINT AUGUSTINE, FL, 32080",92586375,"R"
709579,"5308 SELAGO DRIVE","FORT WORTH","TX",76244,32.9433113870001,-97.26919481,79,"5308 SELAGO DRIVE, FORT WORTH, TX, 76244","Match","Exact","5308 SELAGO DR, FORT WORTH, TX, 76244",102117228,"L"
709580,"5308 SPRING HILL DRIVE","SPRING HILL","FL",34606,28.4588663760001,-82.6258764519999,80,"5308 SPRING HILL DRIVE, SPRING HILL, FL, 34606","Match","Exact","5308 SPRING HILL DR, SPRING HILL, FL, 34606",85430236,"L"
709581,"5308 SPRING ST","WARM SPRINGS","GA",31830,32.886090358,-84.675286661,81,"5308 SPRING ST, WARM SPRINGS, GA, 31830","Match","Exact","5308 SPRING ST, WARM SPRINGS, GA, 31830",9425594,"R"
709582,"5308 TELMO","IRVINE","CA",92618,33.6447805190001,-117.746900589,82,"5308 TELMO, IRVINE, CA, 92618","Match","Exact","5308 TELMO, IRVINE, CA, 92618",641649166,"L"
709583,"5308 TOWNSEND DR","FLOWER MOUND","TX",75028,33.057142104,-97.067508392,83,"5308 TOWNSEND DR, FLOWER MOUND, TX, 75028","Match","Exact","5308 TOWNSEND DR, FLOWER MOUND, TX, 75028",624694953,"R"
709584,"5308 W 73RD STREET","PRAIRIE VILLAGE","KS",66208,38.9970656300001,-94.647073844,84,"5308 W 73RD STREET, PRAIRIE VILLAGE, KS, 66208","Match","Exact","5308 W 73RD ST, PRAIRIE VLG, KS, 66208",91278155,"R"
709585,"5308 WENESLY CT","RALEIGH","NC",27616,35.8518887650001,-78.566105278,85,"5308 WENESLY CT, RALEIGH, NC, 27616","Match","Non_Exact","5308 WENESLY CT W, RALEIGH, NC, 27616",72624079,"L"
709586,"5308 WESTWIND ST NE","ALBUQUERQUE","NM",87111,35.1426573090001,-106.512296927,86,"5308 WESTWIND ST NE, ALBUQUERQUE, NM, 87111","Match","Exact","5308 WESTWIND ST NE, ALBUQUERQUE, NM, 87111",206715131,"R"
709587,"5308 WOODFORD DRIVE","BIRMINGHAM","AL",35242,33.399591743,-86.725759207,87,"5308 WOODFORD DRIVE, BIRMINGHAM, AL, 35242","Match","Exact","5308 WOODFORD DR, BIRMINGHAM, AL, 35242",82064058,"R"
709588,"53088 WINDHAM DRIVE","CHESTERFIELD","MI",48051,42.691621775,-82.805097297,88,"53088 WINDHAM DRIVE, CHESTERFIELD, MI, 48051","Match","Exact","53088 WINDHAM DR, CHESTERFIELD, MI, 48051",110731565,"R"
709589,"53089 PRESTWICK COURT","GRANGER","IN",46530,41.7231193330001,-86.0689236279999,89,"53089 PRESTWICK COURT, GRANGER, IN, 46530","Match","Exact","53089 PRESTWICK CT, GRANGER, IN, 46530",8074428,"R"
709590,"5309 28TH AVE S","SEATTLE","WA",98108,47.5545146010001,-122.296876645,90,"5309 28TH AVE S, SEATTLE, WA, 98108","Match","Exact","5309 28TH AVE S, SEATTLE, WA, 98108",186595485,"R"
709591,"5309 5TH ST","ST CHARLES","MO",63304,38.745542088,-90.652297292,91,"5309 5TH ST, ST CHARLES, MO, 63304","Match","Exact","5309 5TH ST, SAINT CHARLES, MO, 63304",100016186,"L"
709592,"5309 5TH STREET NW","WASHINGTON","DC",20020,38.954471724,-77.01978601,92,"5309 5TH STREET NW, WASHINGTON, DC, 20020","Match","Non_Exact","5309 5TH ST NW, WASHINGTON, DC, 20011",76223403,"R"
709593,"5309 74TH AVE NE","MARYSVILLE","WA",98270,48.0431866920001,-122.131410885,93,"5309 74TH AVE NE, MARYSVILLE, WA, 98270","Match","Exact","5309 74TH AVE NE, MARYSVILLE, WA, 98270",187776751,"R"
709594,"5309 AGNES AVE","VALLEY VILLAGE","CA",91607,34.1669321590001,-118.395379605,94,"5309 AGNES AVE, VALLEY VILLAGE, CA, 91607","Match","Exact","5309 AGNES AVE, VALLEY VLG, CA, 91607",141564563,"L"
709595,"5309 ANNETTE ST","BAKERSFIELD","CA",93313,35.30709326,-119.050585753,95,"5309 ANNETTE ST, BAKERSFIELD, CA, 93313","Match","Exact","5309 ANNETTE ST, BAKERSFIELD, CA, 93313",109091778,"L"
709596,"5309 AUDUBAN","DETROIT","MI",48224,42.4054466440001,-82.9393487089999,96,"5309 AUDUBAN, DETROIT, MI, 48224","Match","Non_Exact","5309 AUDUBON, DETROIT, MI, 48224",95487079,"L"
709597,"5309 AVENUE F","AUSTIN","TX",78751,30.3178637500001,-97.7210794869999,97,"5309 AVENUE F, AUSTIN, TX, 78751","Match","Exact","5309 AVE F, AUSTIN, TX, 78751",63931810,"R"
709598,"5309 BABCOCK RD APT 208","SAN ANTONIO","TX",78240,NA,NA,98,"5309 BABCOCK RD APT 208, SAN ANTONIO, TX, 78240","No_Match",NA,NA,NA,NA
709599,"5309 BALLESTER ST","HOPE MILLS","NC",28348,34.9515644580001,-78.961175703,99,"5309 BALLESTER ST, HOPE MILLS, NC, 28348","Match","Exact","5309 BALLESTER ST, HOPE MILLS, NC, 28348",64234309,"R"
709600,"5309 BEACHWOOD FORREST","LITHONIA","GA",30038,33.665335278,-84.175636749,100,"5309 BEACHWOOD FORREST, LITHONIA, GA, 30038","Match","Non_Exact","5309 BEECHWOOD FOREST DR, LITHONIA, GA, 30038",23397773,"R"
709601,"5309 BROADFIELD DRIVE","COLUMBUS","GA",31907,32.5198378110001,-84.87742652,101,"5309 BROADFIELD DRIVE, COLUMBUS, GA, 31907","Match","Exact","5309 BROADFIELD DR, COLUMBUS, GA, 31907",637668903,"L"
709602,"5309 BROADWATER CT","TEMPLE HILLS","MD",20748,38.816996003,-76.957491007,102,"5309 BROADWATER CT, TEMPLE HILLS, MD, 20748","Match","Exact","5309 BROADWATER CT, TEMPLE HILLS, MD, 20748",76341261,"R"
709603,"5309 BROOK VALLEY COURT","STOCKTON","CA",95219,37.990225133,-121.355826582,103,"5309 BROOK VALLEY COURT, STOCKTON, CA, 95219","Match","Non_Exact","5309 BROOK VALLEY PL, STOCKTON, CA, 95219",133878753,"R"
709604,"5309 BUCHANAN LANE","PASCO","WA",99301,NA,NA,104,"5309 BUCHANAN LANE, PASCO, WA, 99301","No_Match",NA,NA,NA,NA
709605,"5309 CARNELIAN DR","RALEIGH","NC",27610,35.732204826,-78.563223201,105,"5309 CARNELIAN DR, RALEIGH, NC, 27610","Match","Exact","5309 CARNELIAN DR, RALEIGH, NC, 27610",647313817,"L"
709606,"5309 CARNELIAN DRIVE","RALEIGH","NC",27610,35.732204826,-78.563223201,106,"5309 CARNELIAN DRIVE, RALEIGH, NC, 27610","Match","Exact","5309 CARNELIAN DR, RALEIGH, NC, 27610",647313817,"L"
709607,"5309 CILANTO PLACE","LEON VALLEY","TX",78238,NA,NA,107,"5309 CILANTO PLACE, LEON VALLEY, TX, 78238","No_Match",NA,NA,NA,NA
709608,"5309 CORNEL AVE","EL PASO","TX",79924,31.892284112,-106.416218426,108,"5309 CORNEL AVE, EL PASO, TX, 79924","Match","Non_Exact","5309 CORNELL AVE, EL PASO, TX, 79924",189339434,"L"
709609,"5309 CORNELIUS RD","ALFRED STATION","NY",14803,42.2278403890001,-77.8351707429999,109,"5309 CORNELIUS RD, ALFRED STATION, NY, 14803","Match","Exact","5309 CORNELIUS RD, ALFRED STA, NY, 14803",635602883,"L"
709610,"5309 COTTONWOOD STE 3","MEMPHIS","TN",38118,NA,NA,110,"5309 COTTONWOOD STE 3, MEMPHIS, TN, 38118","No_Match",NA,NA,NA,NA
709611,"5309 CYPRESS DRIVE","ROWLETT","TX",75089,NA,NA,111,"5309 CYPRESS DRIVE, ROWLETT, TX, 75089","No_Match",NA,NA,NA,NA
709612,"5309 DAYAN DRIVE","CHARLOTTE","NC",28216,35.325137666,-80.84947891,112,"5309 DAYAN DRIVE, CHARLOTTE, NC, 28216","Match","Exact","5309 DAYAN DR, CHARLOTTE, NC, 28216",70471981,"L"
709613,"5309 DENTON DRIVE","LAKE OSWEGO","OR",97035,45.4255249550001,-122.731755482,113,"5309 DENTON DRIVE, LAKE OSWEGO, OR, 97035","Match","Exact","5309 DENTON DR, LAKE OSWEGO, OR, 97035",157949247,"R"
709614,"5309 DESERT SAND PL NW","ALBUQUERQUE","NM",87120,35.1559185510001,-106.699506071,114,"5309 DESERT SAND PL NW, ALBUQUERQUE, NM, 87120","Match","Exact","5309 DESERT SAND PL NW, ALBUQUERQUE, NM, 87120",206756283,"L"
709615,"5309 DILBAGH","DURHAM","NC",27703,35.9240559790001,-78.813767394,115,"5309 DILBAGH, DURHAM, NC, 27703","Match","Non_Exact","5309 DILBAGH DR, DURHAM, NC, 27703",71778849,"L"
709616,"5309 DOON STREET","VIRGINIA BEACH","VA",23464,36.781121652,-76.169260138,116,"5309 DOON STREET, VIRGINIA BEACH, VA, 23464","Match","Exact","5309 DOON ST, VA BCH, VA, 23464",122301058,"R"
709617,"5309 DRAYCOTT COURT","BRYAN","TX",77802,30.67122578,-96.286645557,117,"5309 DRAYCOTT COURT, BRYAN, TX, 77802","Match","Exact","5309 DRAYCOTT CT, BRYAN, TX, 77802",21844664,"R"
709618,"5309 EAST LANCASTER AVENUE","FORT WORTH","TX",76112,32.7402166850001,-97.240258115,118,"5309 EAST LANCASTER AVENUE, FORT WORTH, TX, 76112","Match","Exact","5309 E LANCASTER AVE, FORT WORTH, TX, 76112",102137089,"L"
709619,"5309 FEATHER ROCK","ALBUQUERQUE","NM",87114,NA,NA,119,"5309 FEATHER ROCK, ALBUQUERQUE, NM, 87114","No_Match",NA,NA,NA,NA
709620,"5309 FORT PIERCE BLVD","FORT PIERCE","FL",34951,27.5303617800001,-80.4024831629999,120,"5309 FORT PIERCE BLVD, FORT PIERCE, FL, 34951","Match","Exact","5309 FORT PIERCE BLVD, FORT PIERCE, FL, 34951",120157413,"L"
709621,"5309 GREENS DRIVE","LADY LAKE","FL",32159,28.9218485010001,-81.865863722,121,"5309 GREENS DRIVE, LADY LAKE, FL, 32159","Match","Exact","5309 GREENS DR, LADY LAKE, FL, 32159",94147011,"R"
709622,"5309 HADDON PLACE","MCDONOUGH","GA",30253,NA,NA,122,"5309 HADDON PLACE, MCDONOUGH, GA, 30253","No_Match",NA,NA,NA,NA
709623,"5309 HEMLOCK DRIVE","BAYTOWN","TX",77521,29.7735804540001,-95.0083116769999,123,"5309 HEMLOCK DRIVE, BAYTOWN, TX, 77521","Match","Exact","5309 HEMLOCK DR, BAYTOWN, TX, 77521",96108535,"L"
709624,"5309 HERFORD DR","SACHSE","TX",75048,32.963017042,-96.574164482,124,"5309 HERFORD DR, SACHSE, TX, 75048","Match","Exact","5309 HERFORD DR, SACHSE, TX, 75048",646694388,"R"
709625,"5309 HEVERLY RD","TRUMANSBURG","NY",14886,42.4710723270001,-76.764545904,125,"5309 HEVERLY RD, TRUMANSBURG, NY, 14886","Match","Exact","5309 HEVERLY RD, TRUMANSBURG, NY, 14886",18198234,"L"
709626,"5309 JADE CREEK WAY","ELK GROVE","CA",95758,38.4329082940001,-121.442824977,126,"5309 JADE CREEK WAY, ELK GROVE, CA, 95758","Match","Exact","5309 JADE CREEK WAY, ELK GROVE, CA, 95758",133379610,"R"
709627,"5309 JESSICA COURT","FAIR OAKS","CA",95628,38.662645266,-121.232588884,127,"5309 JESSICA COURT, FAIR OAKS, CA, 95628","Match","Exact","5309 JESSICA CT, FAIR OAKS, CA, 95628",133356442,"R"
709628,"5309 JESSUP LN","WOODBRIDGE","VA",22193,38.631010351,-77.367654344,128,"5309 JESSUP LN, WOODBRIDGE, VA, 22193","Match","Exact","5309 JESSUP LN, WOODBRIDGE, VA, 22193",76526693,"R"
709629,"5309 JONQUIL COURT","MIDDLETON","WI",53562,43.1139170220001,-89.472800456,129,"5309 JONQUIL COURT, MIDDLETON, WI, 53562","Match","Exact","5309 JONQUIL CT, MIDDLETON, WI, 53562",49466097,"L"
709630,"5309 JUNIPER BEACH ROAD","PROSPECT","KY",40059,38.316863578,-85.6485584819999,130,"5309 JUNIPER BEACH ROAD, PROSPECT, KY, 40059","Match","Exact","5309 JUNIPER BEACH RD, PROSPECT, KY, 40059",96897996,"L"
709631,"5309 JUSTIN COURT APT 103","VIRGINIA BEACH","VA",23462,36.8692437710001,-76.164050477,131,"5309 JUSTIN COURT APT 103, VIRGINIA BEACH, VA, 23462","Match","Exact","5309 JUSTIN CT, VA BCH, VA, 23462",122273594,"R"
709632,"5309 JUSTIN CT APT 103","VIRGINIA BEACH","VA",23462,36.8692437710001,-76.164050477,132,"5309 JUSTIN CT APT 103, VIRGINIA BEACH, VA, 23462","Match","Exact","5309 JUSTIN CT, VA BCH, VA, 23462",122273594,"R"
709633,"5309 LAUREL POINTE DRIVE","VALRICO","FL",33596,27.890465191,-82.2068112869999,133,"5309 LAUREL POINTE DRIVE, VALRICO, FL, 33596","Match","Exact","5309 LAUREL POINTE DR, VALRICO, FL, 33596",104592144,"R"
709634,"5309 LIDO LANE","BAKERSFIELD","CA",93309,35.321457563,-119.065218416,134,"5309 LIDO LANE, BAKERSFIELD, CA, 93309","Match","Exact","5309 LIDO LN, BAKERSFIELD, CA, 93309",109091404,"R"
709635,"5309 LIONS GATE LANE","KILLEEN","TX",76549,31.0842527670001,-97.7988689759999,135,"5309 LIONS GATE LANE, KILLEEN, TX, 76549","Match","Exact","5309 LIONS GATE LN, KILLEEN, TX, 76549",640174270,"L"
709636,"5309 LOLETA AVE","LOS ANGELES","CA",90041,34.1429623940001,-118.198141147,136,"5309 LOLETA AVE, LOS ANGELES, CA, 90041","Match","Exact","5309 LOLETA AVE, LOS ANGELES, CA, 90041",141613493,"L"
709637,"5309 LONG LEAF DR","WICHITA FALLS","TX",76310,33.848865334,-98.575817181,137,"5309 LONG LEAF DR, WICHITA FALLS, TX, 76310","Match","Exact","5309 LONG LEAF DR, WICHITA FALLS, TX, 76310",169852896,"L"
709638,"5309 LONG LEAF DRIVE","WICHITA FALLS","TX",76310,33.848865334,-98.575817181,138,"5309 LONG LEAF DRIVE, WICHITA FALLS, TX, 76310","Match","Exact","5309 LONG LEAF DR, WICHITA FALLS, TX, 76310",169852896,"L"
709639,"5309 MAYFAIR ST SW","CEDAR RAPIDS","IA",52404,41.9480883570001,-91.7395433899999,139,"5309 MAYFAIR ST SW, CEDAR RAPIDS, IA, 52404","Match","Exact","5309 MAYFAIR ST SW, CEDAR RAPIDS, IA, 52404",650432359,"R"
709640,"5309 MCPHERSON BLVD STE 105-145","FORT WORTH","TX",76123,NA,NA,140,"5309 MCPHERSON BLVD STE 105-145, FORT WORTH, TX, 76123","No_Match",NA,NA,NA,NA
709641,"5309 MICHIGAN AVENUE 2S","SAINT LOUIS","MO",63111,38.565918891,-90.243218558,141,"5309 MICHIGAN AVENUE 2S, SAINT LOUIS, MO, 63111","Match","Exact","5309 MICHIGAN AVE, SAINT LOUIS, MO, 63111",107602095,"R"
709642,"5309 MISSION WOODS ROAD","MISSION WOODS","KS",66205,39.032667508,-94.611016766,142,"5309 MISSION WOODS ROAD, MISSION WOODS, KS, 66205","Match","Exact","5309 MISSION WOODS RD, MISSION WOODS, KS, 66205",91286352,"R"
709643,"5309 MORGAN MONOR DR","LULA","GA",30554,34.3740145370001,-83.678237079,143,"5309 MORGAN MONOR DR, LULA, GA, 30554","Match","Non_Exact","5309 MORGAN MANOR DR, LULA, GA, 30554",625648333,"L"
709644,"5309 MOUNTAIN VIEW DR","LAS VEGAS","NV",89146,36.1549146830001,-115.212906444,144,"5309 MOUNTAIN VIEW DR, LAS VEGAS, NV, 89146","Match","Exact","5309 MOUNTAIN VIEW DR, LAS VEGAS, NV, 89146",201861226,"L"
709645,"5309 N OLCOTT AVE","CHICAGO","IL",60656,41.976442423,-87.814419298,145,"5309 N OLCOTT AVE, CHICAGO, IL, 60656","Match","Exact","5309 N OLCOTT AVE, CHICAGO, IL, 60656",111874515,"R"
709646,"5309 NE 101ST CIRCLE","VANCOUVER","WA",97034,45.6950794050001,-122.616933205,146,"5309 NE 101ST CIRCLE, VANCOUVER, WA, 97034","Match","Non_Exact","5309 NE 101ST CIR, VANCOUVER, WA, 98686",158348399,"L"
709647,"5309 NW 13TH CIRCLE","CAMAS","WA",98607,45.5885471670001,-122.4645022,147,"5309 NW 13TH CIRCLE, CAMAS, WA, 98607","Match","Exact","5309 NW 13TH CIR, CAMAS, WA, 98607",646583240,"L"
709648,"5309 NW ROTHERWOOD DR","LAWTON","OK",73505,34.631048299,-98.4581700639999,148,"5309 NW ROTHERWOOD DR, LAWTON, OK, 73505","Match","Exact","5309 NW ROTHERWOOD DR, LAWTON, OK, 73505",14990376,"R"
709649,"5309 PAGEWOOD LN","HOUSTON","TX",77056,29.727676344,-95.468574372,149,"5309 PAGEWOOD LN, HOUSTON, TX, 77056","Match","Exact","5309 PAGEWOOD LN, HOUSTON, TX, 77056",96033290,"L"
709650,"5309 PERNOD ST","ST LOUIS","MO",63139,38.5953885070001,-90.280176741,150,"5309 PERNOD ST, ST LOUIS, MO, 63139","Match","Non_Exact","5309 PERNOD AVE, SAINT LOUIS, MO, 63139",107599683,"R"
709651,"5309 RAVENGLASS CT","WAXHAW","NC",28173,34.9803708850001,-80.691711931,151,"5309 RAVENGLASS CT, WAXHAW, NC, 28173","Match","Exact","5309 RAVENGLASS CT, WAXHAW, NC, 28173",14206254,"L"
709652,"5309 RAVENSWORTH ROAD","SPRINGFIELD","VA",22151,38.8065731890001,-77.2116719799999,152,"5309 RAVENSWORTH ROAD, SPRINGFIELD, VA, 22151","Match","Exact","5309 RAVENSWORTH RD, SPRINGFIELD, VA, 22151",75976263,"R"
709653,"5309 RICHLAND COURT","NORTH RICHLAND HILLS","TX",76180,32.8427057170001,-97.226166313,153,"5309 RICHLAND COURT, NORTH RICHLAND HILLS, TX, 76180","Match","Exact","5309 RICHLAND CT, NORTH RICHLAND HILLS, TX, 76180",101864851,"L"
709654,"5309 RIDGESON DR","MCKINNEY","TX",75071,33.2332162500001,-96.687018785,154,"5309 RIDGESON DR, MCKINNEY, TX, 75071","Match","Exact","5309 RIDGESON DR, MCKINNEY, TX, 75071",616525878,"R"
709655,"5309 S CITRUS AVENUE","FORT PIERCE","FL",34982,27.3684675980001,-80.338395442,155,"5309 S CITRUS AVENUE, FORT PIERCE, FL, 34982","Match","Exact","5309 S CITRUS AVE, FORT PIERCE, FL, 34982",610725470,"R"
709656,"5309 S WOLCOTT AVE","CHICAGO","IL",60609,41.7973508210001,-87.671956591,156,"5309 S WOLCOTT AVE, CHICAGO, IL, 60609","Match","Exact","5309 S WOLCOTT AVE, CHICAGO, IL, 60609",111805503,"L"
709657,"5309 SAN MATEO CT","ARLINGTON","TX",76017,32.6592906650001,-97.163121604,157,"5309 SAN MATEO CT, ARLINGTON, TX, 76017","Match","Exact","5309 SAN MATEO CT, ARLINGTON, TX, 76017",101932692,"R"
709658,"5309 SAVANNAH BENR DRIVE","ROSHARON","TX",77583,NA,NA,158,"5309 SAVANNAH BENR DRIVE, ROSHARON, TX, 77583","No_Match",NA,NA,NA,NA
709659,"5309 SCENIC VIEW","AUSTIN","TX",78746,30.31179881,-97.8049672989999,159,"5309 SCENIC VIEW, AUSTIN, TX, 78746","Match","Non_Exact","5309 SCENIC VIEW DR, AUSTIN, TX, 78746",63925581,"L"
709660,"5309 SEIP ROAD","BETHLEHEM","PA",18017,40.6822076780001,-75.393685454,160,"5309 SEIP ROAD, BETHLEHEM, PA, 18017","Match","Exact","5309 SEIP RD, BETHLEHEM, PA, 18017",648285067,"R"
709661,"5309 SIPPLE AVENUE","BALTIMORE","MD",21206,39.3309948080001,-76.544118607,161,"5309 SIPPLE AVENUE, BALTIMORE, MD, 21206","Match","Exact","5309 SIPPLE AVE, BALTIMORE, MD, 21206",206457222,"R"
709662,"5309 SW 34TH AVE","FORT LAUDERDALE","FL",33312,26.056258622,-80.190968078,162,"5309 SW 34TH AVE, FORT LAUDERDALE, FL, 33312","Match","Exact","5309 SW 34TH AVE, FORT LAUDERDALE, FL, 33312",114791095,"R"
709663,"5309 VIA CAPOTE","THOUSAND OAKS","CA",91320,34.1676413060001,-118.987896089,163,"5309 VIA CAPOTE, THOUSAND OAKS, CA, 91320","Match","Exact","5309 VIA CAPOTE, THOUSAND OAKS, CA, 91320",110057735,"L"
709664,"5309 W 121ST STREET","HAWTHORNE","CA",90250,33.9229748820001,-118.372471882,164,"5309 W 121ST STREET, HAWTHORNE, CA, 90250","Match","Exact","5309 W 121ST ST, HAWTHORNE, CA, 90250",141655805,"R"
709665,"5309 W RAYMOND ST","PHOENIX","AZ",85043,33.414814753,-112.173898235,165,"5309 W RAYMOND ST, PHOENIX, AZ, 85043","Match","Exact","5309 W RAYMOND ST, PHOENIX, AZ, 85043",243954691,"R"
709666,"5309 WADE STEADMAN RD","WADE","NC",28395,35.136335237,-78.6973823129999,166,"5309 WADE STEADMAN RD, WADE, NC, 28395","Match","Non_Exact","5309 WADE STEDMAN RD, WADE, NC, 28395",651480051,"L"
709667,"5309 WHITE COYOTE PL","LAS VEGAS","NV",89130,36.257650002,-115.245542851,167,"5309 WHITE COYOTE PL, LAS VEGAS, NV, 89130","Match","Exact","5309 WHITE COYOTE PL, LAS VEGAS, NV, 89130",201935217,"L"
709668,"5309 WINDING BROOK RD","CHARLOTTE","NC",28226,35.137919358,-80.816898266,168,"5309 WINDING BROOK RD, CHARLOTTE, NC, 28226","Match","Exact","5309 WINDING BROOK RD, CHARLOTTE, NC, 28226",70489908,"L"
709669,"5309 WITHAM COURT","TAMPA","FL",33647,28.091089341,-82.393352454,169,"5309 WITHAM COURT, TAMPA, FL, 33647","Match","Exact","5309 WITHAM CT, TAMPA, FL, 33647",104574309,"L"
709670,"53090 CEDAR LP","EDINA","MO",63537,NA,NA,170,"53090 CEDAR LP, EDINA, MO, 63537","No_Match",NA,NA,NA,NA
709671,"53093 POPPY ROAD","SOUTH BEND","IN",46628,41.7212642740001,-86.360873071,171,"53093 POPPY ROAD, SOUTH BEND, IN, 46628","Match","Exact","53093 POPPY RD, SOUTH BEND, IN, 46628",616551103,"R"
709672,"53093 POPPY","SOUTH BEND","IN",46628,41.7212642740001,-86.360873071,172,"53093 POPPY, SOUTH BEND, IN, 46628","Match","Non_Exact","53093 POPPY RD, SOUTH BEND, IN, 46628",616551103,"R"
709673,"530A BYPASS 123","SENECA","SC",29678,34.6974095890001,-82.966275869,173,"530A BYPASS 123, SENECA, SC, 29678","Match","Non_Exact","530 US HWY 123, SENECA, SC, 29678",639837605,"L"
709674,"530B 8TH AVE SE","MOULTIRE","GA",31768,31.1718539,-83.7825373969999,174,"530B 8TH AVE SE, MOULTIRE, GA, 31768","Match","Non_Exact","530 8TH AVE SE, MOULTRIE, GA, 31768",84269566,"L"
709675,"530B BOYD STREET","SPARTANBURG","SC",29302,34.945128448,-81.911019159,175,"530B BOYD STREET, SPARTANBURG, SC, 29302","Match","Exact","530 BOYD ST, SPARTANBURG, SC, 29302",19508597,"L"
709676,"530C ALAMEDA DEL PRADO NUM 209","NOVATO","CA",94949,38.0649889310001,-122.539762083,176,"530C ALAMEDA DEL PRADO NUM 209, NOVATO, CA, 94949","Match","Exact","530 ALAMEDA DEL PRADO, NOVATO, CA, 94949",632971494,"R"
709677,"530D GRAND STREET APT 7D","NEW YORK","NY",10002,40.7144539650001,-73.981586952,177,"530D GRAND STREET APT 7D, NEW YORK, NY, 10002","Match","Exact","530 GRAND ST, NEW YORK, NY, 10002",59654852,"L"
709678,"531 11TH STREET","PRAIRIE FARM","WI",54762,45.286604277,-91.931857408,178,"531 11TH STREET, PRAIRIE FARM, WI, 54762","Match","Exact","531 11TH ST, PRAIRIE FARM, WI, 54762",126298660,"R"
709679,"531 15TH STREET","WEST BABYLON","NY",11796,40.71960778,-73.39046129,179,"531 15TH STREET, WEST BABYLON, NY, 11796","Match","Non_Exact","531 15TH ST, WEST BABYLON, NY, 11704",113971532,"R"
709680,"531 17 MILE RD","MARION","MI",49665,44.0591633990001,-85.098502814,180,"531 17 MILE RD, MARION, MI, 49665","Match","Exact","531 17 MILE RD, MARION, MI, 49665",110622328,"R"
709681,"531 2ND AVE NW","FOREST LAKE","MN",55025,NA,NA,181,"531 2ND AVE NW, FOREST LAKE, MN, 55025","No_Match",NA,NA,NA,NA
709682,"531 2ND ST E","HECTOR","MN",55342,44.7402662120001,-94.7135295209999,182,"531 2ND ST E, HECTOR, MN, 55342","Match","Exact","531 2ND ST E, HECTOR, MN, 55342",605040636,"R"
709683,"531 2ND ST","HECTOR","MN",55342,NA,NA,183,"531 2ND ST, HECTOR, MN, 55342","Tie",NA,NA,NA,NA
709684,"531 34TH AVENUE","SANTA CRUZ","CA",95062,36.9600185730001,-121.971297122,184,"531 34TH AVENUE, SANTA CRUZ, CA, 95062","Match","Exact","531 34TH AVE, SANTA CRUZ, CA, 95062",125509119,"L"
709685,"531 3RD ST","CLAREMONT","MN",55924,44.046832405,-93.003870079,185,"531 3RD ST, CLAREMONT, MN, 55924","Match","Non_Exact","531 W 3RD ST, CLAREMONT, MN, 55924",31420323,"L"
709686,"531 59TH STREET","SAN DIEGO","CA",92114,32.710445894,-117.069959876,186,"531 59TH STREET, SAN DIEGO, CA, 92114","Match","Exact","531 59TH ST, SAN DIEGO, CA, 92114",195352161,"R"
709687,"531 5TH AVE NE","FAYETTE","AL",35555,33.690242336,-87.824054909,187,"531 5TH AVE NE, FAYETTE, AL, 35555","Match","Exact","531 5TH AVE NE, FAYETTE, AL, 35555",120505642,"L"
709688,"531 6TH AVENUE","BROOKLYN","NY",11215,40.665148855,-73.986340743,188,"531 6TH AVENUE, BROOKLYN, NY, 11215","Match","Exact","531 6TH AVE, BROOKLYN, NY, 11215",59075808,"L"
709689,"531 ALISON DRIVE APT 20","HUMMELSTOWN","PA",17036,40.267711664,-76.694336149,189,"531 ALISON DRIVE APT 20, HUMMELSTOWN, PA, 17036","Match","Exact","531 ALISON DR, HUMMELSTOWN, PA, 17036",70832722,"R"
709690,"531 ALISON DRIVE APT 21","HUMMELSTOWN","PA",17036,40.267711664,-76.694336149,190,"531 ALISON DRIVE APT 21, HUMMELSTOWN, PA, 17036","Match","Exact","531 ALISON DR, HUMMELSTOWN, PA, 17036",70832722,"R"
709691,"531 ARABELLA","STREET","LA",70115,NA,NA,191,"531 ARABELLA, STREET, LA, 70115","No_Match",NA,NA,NA,NA
709692,"531 AVENUE N","ANSON","TX",79501,32.7627520950001,-99.901452711,192,"531 AVENUE N, ANSON, TX, 79501","Match","Exact","531 AVENUE N, ANSON, TX, 79501",624946059,"R"
709693,"531 BANNERMAN MILL RD","RICHLANDS","NC",28574,34.8456938320001,-77.569983437,193,"531 BANNERMAN MILL RD, RICHLANDS, NC, 28574","Match","Non_Exact","531 BANNERMANS MILL RD, RICHLANDS, NC, 28574",636120854,"L"
709694,"531 BARKER LANE","BLUEMONT","VA",20135,39.0753247590001,-77.891000009,194,"531 BARKER LANE, BLUEMONT, VA, 20135","Match","Exact","531 BARKER LN, BLUEMONT, VA, 20135",223512723,"L"
709695,"531 BELMONT ST","HINCKLEY","IL",60520,41.7716038180001,-88.633877022,195,"531 BELMONT ST, HINCKLEY, IL, 60520","Match","Non_Exact","531 BELMONT AVE, HINCKLEY, IL, 60520",52262352,"L"
709696,"531 BELMONTE PARK N 1012","DAYTON","OH",45405,39.76717554,-84.2036773899999,196,"531 BELMONTE PARK N 1012, DAYTON, OH, 45405","Match","Exact","531 BELMONTE PARK N, DAYTON, OH, 45405",143631014,"R"
709697,"531 BELMONTE PARK N SUITE 504","DAYTON","OH",45405,39.76717554,-84.2036773899999,197,"531 BELMONTE PARK N SUITE 504, DAYTON, OH, 45405","Match","Exact","531 BELMONTE PARK N, DAYTON, OH, 45405",143631014,"R"
709698,"531 BERKELEY AVE","FIRCREST","WA",98466,47.234840809,-122.514070743,198,"531 BERKELEY AVE, FIRCREST, WA, 98466","Match","Exact","531 BERKELEY AVE, FIRCREST, WA, 98466",184619544,"L"
709699,"531 BIG INDIAN LOOP","MOORESVILLE","NC",28117,35.611058298,-80.877966197,199,"531 BIG INDIAN LOOP, MOORESVILLE, NC, 28117","Match","Exact","531 BIG INDIAN LOOP, MOORESVILLE, NC, 28117",651686700,"R"
709700,"531 BLACK HAWK TRAIL","LOVELAND","OH",45140,39.2291242150001,-84.278215067,200,"531 BLACK HAWK TRAIL, LOVELAND, OH, 45140","Match","Exact","531 BLACK HAWK TRL, LOVELAND, OH, 45140",118457958,"L"
709701,"531 BOB WHITE STEET","DESOTO","TX",75115,32.5962880920001,-96.852122615,201,"531 BOB WHITE STEET, DESOTO, TX, 75115","Match","Exact","531 BOB WHITE ST, DESOTO, TX, 75115",103263086,"L"
709702,"531 BOULEVARD SE","ATLANTA","GA",30312,33.7400271120001,-84.368160169,202,"531 BOULEVARD SE, ATLANTA, GA, 30312","Match","Exact","531 BOULEVARD SE, ATLANTA, GA, 30312",17358155,"R"
709703,"531 BRADY LANE","PONTIAC","MI",48342,42.6526332080001,-83.267735581,203,"531 BRADY LANE, PONTIAC, MI, 48342","Match","Exact","531 BRADY LN, PONTIAC, MI, 48342",627686627,"R"
709704,"531 BRIARWOOD COURT","ALDEN","NY",14004,42.879839271,-78.549620524,204,"531 BRIARWOOD COURT, ALDEN, NY, 14004","Match","Exact","531 BRIARWOOD CT, ALDEN, NY, 14004",48336225,"R"
709705,"531 BRISTOL WAY","RICHMOND HILL","GA",31324,31.9329966970001,-81.314617544,205,"531 BRISTOL WAY, RICHMOND HILL, GA, 31324","Match","Exact","531 BRISTOL WAY, RICHMOND HILL, GA, 31324",634072581,"L"
709706,"531 BROADWAY STREET","SCRANTON","PA",18505,41.405711824,-75.675485914,206,"531 BROADWAY STREET, SCRANTON, PA, 18505","Match","Exact","531 BROADWAY ST, SCRANTON, PA, 18505",139322647,"L"
709707,"531 BROOKLYN AVE","DAYTON","OH",45417,39.760036606,-84.2400306499999,207,"531 BROOKLYN AVE, DAYTON, OH, 45417","Match","Exact","531 BROOKLYN AVE, DAYTON, OH, 45417",652718148,"L"
709708,"531 BROOKLYN AVENUE","BROOKLYN NY","NY",11225,40.6615470140001,-73.945520753,208,"531 BROOKLYN AVENUE, BROOKLYN NY, NY, 11225","Match","Non_Exact","531 BROOKLYN AVE, BROOKLYN, NY, 11225",59079599,"L"
709709,"531 BROOKSIDE LANE","BEAUMONT","CA",92223,33.9360425900001,-116.988705487,209,"531 BROOKSIDE LANE, BEAUMONT, CA, 92223","Match","Exact","531 BROOKSIDE LN, BEAUMONT, CA, 92223",195092028,"L"
709710,"531 BROWN AVENUE","GALLOWAY","NJ",8205,39.4437258900001,-74.482135359,210,"531 BROWN AVENUE, GALLOWAY, NJ, 8205","Match","Non_Exact","531 E BROWN AVE, GALLOWAY, NJ, 08205",202485278,"R"
709711,"531 BRUCE ST","YREKA","CA",96097,NA,NA,211,"531 BRUCE ST, YREKA, CA, 96097","No_Match",NA,NA,NA,NA
709712,"531 BRUENER RD","PORT EDWARDS","WI",54469,44.358489886,-89.864971888,212,"531 BRUENER RD, PORT EDWARDS, WI, 54469","Match","Exact","531 BRUENER RD, PORT EDWARDS, WI, 54469",648582397,"R"
709713,"531 BRUNSWICK STREET","BALTIMORE","MD",21223,39.278546412,-76.658945379,213,"531 BRUNSWICK STREET, BALTIMORE, MD, 21223","Match","Exact","531 BRUNSWICK ST, BALTIMORE, MD, 21223",206415031,"L"
709714,"531 BULLINGHAM LN","ALLEN","TX",75002,33.0945124350001,-96.643524628,214,"531 BULLINGHAM LN, ALLEN, TX, 75002","Match","Exact","531 BULLINGHAM LN, ALLEN, TX, 75002",210485261,"R"
709715,"531 CALIFORNIA ST","STRATFORD","CT",6614,41.19942102,-73.1384242789999,215,"531 CALIFORNIA ST, STRATFORD, CT, 6614","Match","Exact","531 CALIFORNIA ST, STRATFORD, CT, 06614",3227118,"L"
709716,"531 CAMELIA TRAIL","BRANDON","MS",39047,32.371807846,-90.004390905,216,"531 CAMELIA TRAIL, BRANDON, MS, 39047","Match","Exact","531 CAMELIA TRL, BRANDON, MS, 39047",116922097,"R"
709717,"531 CAMERON LANE","ALLEN","TX",75002,33.093988666,-96.6408709579999,217,"531 CAMERON LANE, ALLEN, TX, 75002","Match","Exact","531 CAMERON LN, ALLEN, TX, 75002",210520952,"L"
709718,"531 CAPTAIN MARSHAL","PRAIRIE GROVE","AR",72753,35.979964592,-94.296867048,218,"531 CAPTAIN MARSHAL, PRAIRIE GROVE, AR, 72753","Match","Non_Exact","531 CAPTAIN MARSHALL ST, PRAIRIE GROVE, AR, 72753",49096021,"R"
709719,"531 CASSWALL ST","NAPA","CA",94558,38.2841522310001,-122.309262653,219,"531 CASSWALL ST, NAPA, CA, 94558","Match","Exact","531 CASSWALL ST, NAPA, CA, 94558",67416581,"R"
709720,"531 CATTAIL CT","NEW LONDON","WI",54961,44.4128173080001,-88.7457650279999,220,"531 CATTAIL CT, NEW LONDON, WI, 54961","Match","Exact","531 CATTAIL CT, NEW LONDON, WI, 54961",74970078,"R"
709721,"531 CEDAR CT NE","PINE ISLAND","MN",55963,44.208340752,-92.636735108,221,"531 CEDAR CT NE, PINE ISLAND, MN, 55963","Match","Exact","531 CEDAR CT NE, PINE ISLAND, MN, 55963",31553981,"R"
709722,"531 CENTERVILLE LANE","GARDNERVILLE","NV",89460,38.9104502120001,-119.813767873,222,"531 CENTERVILLE LANE, GARDNERVILLE, NV, 89460","Match","Exact","531 CENTERVILLE LN, GARDNERVILLE, NV, 89460",173745216,"L"
709723,"531 CENTURY DRIVE","LARGO","FL",33771,27.911537561,-82.784089175,223,"531 CENTURY DRIVE, LARGO, FL, 33771","Match","Exact","531 CENTURY DR, LARGO, FL, 33771",124675424,"R"
709724,"531 CHEROKEE RD","PHILIPPI","WV",26416,NA,NA,224,"531 CHEROKEE RD, PHILIPPI, WV, 26416","No_Match",NA,NA,NA,NA
709725,"531 CHERRY RIDGE DRIVE","TRAVERSE CITY","MI",49696,44.7075507650001,-85.566404393,225,"531 CHERRY RIDGE DRIVE, TRAVERSE CITY, MI, 49696","Match","Exact","531 CHERRY RIDGE DR, TRAVERSE CITY, MI, 49696",614093687,"R"
709726,"531 CHURCH STREET","LANCASTER","PA",17602,40.0336945780001,-76.3045125689999,226,"531 CHURCH STREET, LANCASTER, PA, 17602","Match","Exact","531 CHURCH ST, LANCASTER, PA, 17602",652465590,"L"
709727,"531 CLAY STARKS RD","WOODBURN","KY",42170,36.822593404,-86.5104324819999,227,"531 CLAY STARKS RD, WOODBURN, KY, 42170","Match","Exact","531 CLAY STARKS RD, WOODBURN, KY, 42170",28009522,"L"
709728,"531 CLOVERDALE COURT","WEXFORD","PA",15090,40.6407354300001,-80.0595460869999,228,"531 CLOVERDALE COURT, WEXFORD, PA, 15090","Match","Exact","531 CLOVERDALE CT, WEXFORD, PA, 15090",650421286,"R"
709729,"531 COLLEGE STREET","MADISONVILLE","TN",37354,35.5237495470001,-84.363634705,229,"531 COLLEGE STREET, MADISONVILLE, TN, 37354","Match","Exact","531 COLLEGE ST, MADISONVILLE, TN, 37354",85305677,"R"
709730,"531 COREY AVENUE","BRADDOCK","PA",15207,40.4068617840001,-79.8662543359999,230,"531 COREY AVENUE, BRADDOCK, PA, 15207","Match","Non_Exact","531 COREY AVE, BRADDOCK, PA, 15104",51669688,"L"
709731,"531 CORTLAND CIRCLE","CHESHIRE","CT",6410,41.5089374720001,-72.872995438,231,"531 CORTLAND CIRCLE, CHESHIRE, CT, 6410","Match","Exact","531 CORTLAND CIR, CHESHIRE, CT, 06410",3751639,"L"
709732,"531 COUNTY ROAD 102","ABILENE","TX",79601,32.439923306,-99.617422808,232,"531 COUNTY ROAD 102, ABILENE, TX, 79601","Match","Exact","531 CO RD 102, ABILENE, TX, 79601",129533762,"R"
709733,"531 CREEKSIDE DR","BELTON","TX",76513,NA,NA,233,"531 CREEKSIDE DR, BELTON, TX, 76513","No_Match",NA,NA,NA,NA
709734,"531 CROSS ST","HARRISON","NJ",7029,40.7501406650001,-74.151557999,234,"531 CROSS ST, HARRISON, NJ, 7029","Match","Exact","531 CROSS ST, HARRISON, NJ, 07029",59608318,"R"
709735,"531 DEMPSTER","MT PROSPECT","IL",60056,42.0372788670001,-87.947086352,235,"531 DEMPSTER, MT PROSPECT, IL, 60056","Match","Non_Exact","531 DEMPSTER ST, MOUNT PROSPECT, IL, 60056",605604230,"L"
709736,"531 DEWEY STREET","FOLEY","MN",56329,45.665449224,-93.908190291,236,"531 DEWEY STREET, FOLEY, MN, 56329","Match","Exact","531 DEWEY ST, FOLEY, MN, 56329",167357006,"L"
709737,"531 E 191ST PLACE","CHICAGO","IL",60628,NA,NA,237,"531 E 191ST PLACE, CHICAGO, IL, 60628","No_Match",NA,NA,NA,NA
709738,"531 E 20TH ST APT 10G","NEW YORK","NY",10010,40.7337090090001,-73.97691169,238,"531 E 20TH ST APT 10G, NEW YORK, NY, 10010","Match","Non_Exact","531 E 20TH ST, NEW YORK, NY, 10010",611237895,"L"
709739,"531 E 7TH ST","REDFIELD","SD",57469,44.877677937,-98.5058751729999,239,"531 E 7TH ST, REDFIELD, SD, 57469","Match","Exact","531 E 7TH ST, REDFIELD, SD, 57469",201215575,"L"
709740,"531 E 81ST STREET APT 1D","NEW YORK","NY",10028,40.772285783,-73.948454838,240,"531 E 81ST STREET APT 1D, NEW YORK, NY, 10028","Match","Non_Exact","531 E 81ST ST, NEW YORK, NY, 10028",650086912,"L"
709741,"531 E BETHANY HOME RD","PHOENIX","AZ",85012,33.5237471520001,-112.066481605,241,"531 E BETHANY HOME RD, PHOENIX, AZ, 85012","Match","Exact","531 E BETHANY HOME RD, PHOENIX, AZ, 85012",128607276,"R"
709742,"531 E BROOKS ST","NORMAN","OK",73071,35.2074612660001,-97.433509293,242,"531 E BROOKS ST, NORMAN, OK, 73071","Match","Exact","531 E BROOKS ST, NORMAN, OK, 73071",99911986,"L"
709743,"531 E CARVER ST","DURHAM","NC",27704,NA,NA,243,"531 E CARVER ST, DURHAM, NC, 27704","Tie",NA,NA,NA,NA
709744,"531 E FRONTAGE RD N","DUTTON","MT",59433,NA,NA,244,"531 E FRONTAGE RD N, DUTTON, MT, 59433","No_Match",NA,NA,NA,NA
709745,"531 E KING ST","LITTLESTOWN","PA",17340,39.7492181470001,-77.07781123,245,"531 E KING ST, LITTLESTOWN, PA, 17340","Match","Exact","531 E KING ST, LITTLESTOWN, PA, 17340",637977882,"R"
709746,"531 E LEMON AVE","LAKE ALFRED","FL",33850,28.1000928240001,-81.721369641,246,"531 E LEMON AVE, LAKE ALFRED, FL, 33850","Match","Exact","531 E LEMON AVE, LAKE ALFRED, FL, 33850",647849662,"R"
709747,"531 E LYNNWOOD STREET","PHOENIX","AZ",85004,NA,NA,247,"531 E LYNNWOOD STREET, PHOENIX, AZ, 85004","No_Match",NA,NA,NA,NA
709748,"531 E ROELAND AVE","APPLETON","WI",54915,44.2371551740001,-88.397143308,248,"531 E ROELAND AVE, APPLETON, WI, 54915","Match","Exact","531 E ROELAND AVE, APPLETON, WI, 54915",74804840,"R"
709749,"531 E SPRINGFIELD RD","ARCOLA","IL",61910,39.680876486,-88.298941675,249,"531 E SPRINGFIELD RD, ARCOLA, IL, 61910","Match","Exact","531 E SPRINGFIELD RD, ARCOLA, IL, 61910",5741813,"L"
709750,"531 E WOOD AVE","SPRINGFIELD","IL",62702,39.8245919010001,-89.648662638,250,"531 E WOOD AVE, SPRINGFIELD, IL, 62702","Match","Exact","531 WOOD AVE, SPRINGFIELD, IL, 62702",97324545,"L"
709751,"531 EAST 20TH STREET","NEW YORK","NY",10010,40.7337090090001,-73.97691169,251,"531 EAST 20TH STREET, NEW YORK, NY, 10010","Match","Exact","531 E 20TH ST, NEW YORK, NY, 10010",611237895,"L"
709752,"531 EAST ANTHONY STREET","CELINA","OH",45822,40.5519057980001,-84.563317576,252,"531 EAST ANTHONY STREET, CELINA, OH, 45822","Match","Exact","531 E ANTHONY ST, CELINA, OH, 45822",43111698,"R"
709753,"531 EAST BOSTON AVENUE","YOUNGSTOWN","OH",44502,41.0684670750001,-80.645480402,253,"531 EAST BOSTON AVENUE, YOUNGSTOWN, OH, 44502","Match","Exact","531 E BOSTON AVE, YOUNGSTOWN, OH, 44502",64596414,"R"
709754,"531 EAST CHESTNUT STREET","LANCASTER","PA",17602,40.0422946580001,-76.29501828,254,"531 EAST CHESTNUT STREET, LANCASTER, PA, 17602","Match","Exact","531 E CHESTNUT ST, LANCASTER, PA, 17602",179663093,"L"
709755,"531 EAST DURHAM STREET","PHILADELPHIA","PA",19119,40.0661737730001,-75.18271365,255,"531 EAST DURHAM STREET, PHILADELPHIA, PA, 19119","Match","Exact","531 E DURHAM ST, PHILADELPHIA, PA, 19119",131394777,"L"
709756,"531 EAST MARIPOSA STREET","ALTADENA","CA",91001,34.1900181280001,-118.138391336,256,"531 EAST MARIPOSA STREET, ALTADENA, CA, 91001","Match","Exact","531 E MARIPOSA ST, ALTADENA, CA, 91001",141628093,"L"
709757,"531 EAST MERCED AVENUE","WEST COVINA","CA",91790,34.054100899,-117.935453767,257,"531 EAST MERCED AVENUE, WEST COVINA, CA, 91790","Match","Exact","531 E MERCED AVE, WEST COVINA, CA, 91790",640417506,"L"
709758,"531 EAST ONTARIO AVE","ATLANTA","GA",30310,33.740860373,-84.438825175,258,"531 EAST ONTARIO AVE, ATLANTA, GA, 30310","Match","Non_Exact","531 E ONTARIO AVE SW, ATLANTA, GA, 30310",17341206,"R"
709759,"531 EDGEWOOD PLACE","RIVER FOREST","IL",60305,41.8888915520001,-87.8273499269999,259,"531 EDGEWOOD PLACE, RIVER FOREST, IL, 60305","Match","Exact","531 EDGEWOOD PL, RIVER FOREST, IL, 60305",111749338,"R"
709760,"531 ELFORD RD","FAIRLESS HILLS","PA",19030,40.1690860370001,-74.840865139,260,"531 ELFORD RD, FAIRLESS HILLS, PA, 19030","Match","Exact","531 ELFORD RD, FAIRLESS HILLS, PA, 19030",134721952,"L"
709761,"531 ELKINS LAKE","HUNTSVILLE","TX",77340,30.6659268350001,-95.526897563,261,"531 ELKINS LAKE, HUNTSVILLE, TX, 77340","Match","Exact","531 ELKINS LAKE, HUNTSVILLE, TX, 77340",22197112,"R"
709762,"531 ELMA MEADOW LANE","ELMA","NY",14059,42.825007552,-78.604932236,262,"531 ELMA MEADOW LANE, ELMA, NY, 14059","Match","Exact","531 ELMA MEADOW LN, ELMA, NY, 14059",48313490,"R"
709763,"531 ENCINITAS BLVD SUITE 120","ENCINITAS","CA",92024,33.0468404050001,-117.2816386,263,"531 ENCINITAS BLVD SUITE 120, ENCINITAS, CA, 92024","Match","Exact","531 ENCINITAS BLVD, ENCINITAS, CA, 92024",195293035,"R"
709764,"531 ENCINITAS BLVD","ENCINITAS","CA",92024,33.0468404050001,-117.2816386,264,"531 ENCINITAS BLVD, ENCINITAS, CA, 92024","Match","Exact","531 ENCINITAS BLVD, ENCINITAS, CA, 92024",195293035,"R"
709765,"531 ESPLANADE  APT 512","REDONDO BEACH","CA",90277,33.834819274,-118.389261171,265,"531 ESPLANADE  APT 512, REDONDO BEACH, CA, 90277","Match","Exact","531 ESPLANADE, REDONDO BEACH, CA, 90277",141583990,"R"
709766,"531 EUCALYPTUS DRIVE","EL SEGUNDO","CA",90245,33.922686501,-118.413538772,266,"531 EUCALYPTUS DRIVE, EL SEGUNDO, CA, 90245","Match","Exact","531 EUCALYPTUS DR, EL SEGUNDO, CA, 90245",141579954,"L"
709767,"531 FAIRFAX AVENUE","BESSEMER","AL",35020,33.3833555140001,-86.953920017,267,"531 FAIRFAX AVENUE, BESSEMER, AL, 35020","Match","Exact","531 FAIRFAX AVE, BESSEMER, AL, 35020",81709726,"R"
709768,"531 FALLWOOD DR SE","CONCORD","NC",28025,35.411485391,-80.5474521149999,268,"531 FALLWOOD DR SE, CONCORD, NC, 28025","Match","Exact","531 FALLWOOD DR SE, CONCORD, NC, 28025",24900673,"R"
709769,"531 FISHPOND ROAD","GLASSBORO","NJ",8028,39.710355183,-75.105019367,269,"531 FISHPOND ROAD, GLASSBORO, NJ, 8028","Match","Non_Exact","531 FISH POND RD, GLASSBORO, NJ, 08028",134598206,"L"
709770,"531 FOREST HILL DR","COPPELL","TX",75019,32.9874862070001,-96.979343396,270,"531 FOREST HILL DR, COPPELL, TX, 75019","Match","Exact","531 FOREST HILL DR, COPPELL, TX, 75019",103174297,"L"
709771,"531 FRANKLIN SQUARE DR","CHAMBERSBURG","PA",17201,39.9555188950001,-77.6271433799999,271,"531 FRANKLIN SQUARE DR, CHAMBERSBURG, PA, 17201","Match","Exact","531 FRANKLIN SQUARE DR, CHAMBERSBURG, PA, 17201",617883571,"L"
709772,"531 FRAUNFELTER RD N","LIMA","OH",45807,NA,NA,272,"531 FRAUNFELTER RD N, LIMA, OH, 45807","No_Match",NA,NA,NA,NA
709773,"531 GARONNE STREET","OXNARD","CA",93036,34.245044852,-119.173916316,273,"531 GARONNE STREET, OXNARD, CA, 93036","Match","Exact","531 GARONNE ST, OXNARD, CA, 93036",617499553,"R"
709774,"531 GLENDORA AVE APT 51","STOCKTON","CA",95207,38.0079873710001,-121.317223665,274,"531 GLENDORA AVE APT 51, STOCKTON, CA, 95207","Match","Exact","531 GLENDORA AVE, STOCKTON, CA, 95207",133845425,"R"
709775,"531 GRAND APT 407","KANSAS CITY","MO",64106,39.1078126130001,-94.580121455,275,"531 GRAND APT 407, KANSAS CITY, MO, 64106","Match","Non_Exact","531 GRAND BLVD, KANSAS CITY, MO, 64106",91444998,"L"
709776,"531 GREENLEAF AVE APARTMENT B","BURLINGTON","WA",98233,48.473229738,-122.3285218,276,"531 GREENLEAF AVE APARTMENT B, BURLINGTON, WA, 98233","Match","Exact","531 GREENLEAF AVE, BURLINGTON, WA, 98233",183650056,"R"
709777,"531 GULLEDGE LANE","DALLAS","TX",75217,32.7078078330001,-96.692293929,277,"531 GULLEDGE LANE, DALLAS, TX, 75217","Match","Exact","531 GULLEDGE LN, DALLAS, TX, 75217",102958765,"R"
709778,"531 HAMLIN ST","GRAND FORKS","ND",58203,NA,NA,278,"531 HAMLIN ST, GRAND FORKS, ND, 58203","No_Match",NA,NA,NA,NA
709779,"531 HAMMOND DRIVE NE","ATLANTA","GA",30328,33.9190587310001,-84.369461413,279,"531 HAMMOND DRIVE NE, ATLANTA, GA, 30328","Match","Exact","531 HAMMOND DR NE, ATLANTA, GA, 30328",17354783,"R"
709780,"531 HARBOR DRIVE NORTH","INDIAN ROCKS BEACH","FL",33785,27.9089137180001,-82.836446359,280,"531 HARBOR DRIVE NORTH, INDIAN ROCKS BEACH, FL, 33785","Match","Exact","531 HARBOR DR N, INDIAN ROCKS BEACH, FL, 33785",124670253,"R"
709781,"531 HARDENDORF AVE NE","ATLANTA","GA",30307,33.7687868300001,-84.33183273,281,"531 HARDENDORF AVE NE, ATLANTA, GA, 30307","Match","Exact","531 HARDENDORF AVE NE, ATLANTA, GA, 30307",23365092,"R"
709782,"531 HARDING WAY WEST","GALION","OH",44833,40.7339971330001,-82.797167843,282,"531 HARDING WAY WEST, GALION, OH, 44833","Match","Exact","531 HARDING WAY W, GALION, OH, 44833",12076499,"L"
709783,"531 HAWKRIDGE TERRACE","ORINDA","CA",94563,37.8898092800001,-122.17952455,283,"531 HAWKRIDGE TERRACE, ORINDA, CA, 94563","Match","Exact","531 HAWKRIDGE TER, ORINDA, CA, 94563",192045139,"R"
709784,"531 HAYWOOD RD","ASHEVILLE","NC",28806,35.578606146,-82.585279149,284,"531 HAYWOOD RD, ASHEVILLE, NC, 28806","Match","Exact","531 HAYWOOD RD, ASHEVILLE, NC, 28806",36843212,"R"
709785,"531 HAYWOOD ROAD","ASHEVILLE","NC",28806,35.578606146,-82.585279149,285,"531 HAYWOOD ROAD, ASHEVILLE, NC, 28806","Match","Exact","531 HAYWOOD RD, ASHEVILLE, NC, 28806",36843212,"R"
709786,"531 HEMLOCK ST","FLORENCE","OR",97439,43.97124267,-124.112461275,286,"531 HEMLOCK ST, FLORENCE, OR, 97439","Match","Exact","531 HEMLOCK ST, FLORENCE, OR, 97439",178139449,"L"
709787,"531 HIGH ST","FALL RIVER","MA",2720,41.708653445,-71.150295887,287,"531 HIGH ST, FALL RIVER, MA, 2720","Match","Exact","531 HIGH ST, FALL RIVER, MA, 02720",46769822,"R"
709788,"531 HILLEND CT","APOPKA","FL",32712,28.7319026480001,-81.522256403,288,"531 HILLEND CT, APOPKA, FL, 32712","Match","Exact","531 HILLEND CT, APOPKA, FL, 32712",649105848,"L"
709789,"531 HOFFMAN LN","HAUPPAUGE","NY",11788,40.823820229,-73.186155421,289,"531 HOFFMAN LN, HAUPPAUGE, NY, 11788","Match","Exact","531 HOFFMAN LN, HAUPPAUGE, NY, 11788",113989263,"L"
709790,"531 HOLLOWAY AVENUE","SAN FRANSISCO","CA",94112,37.721836506,-122.458524872,290,"531 HOLLOWAY AVENUE, SAN FRANSISCO, CA, 94112","Match","Non_Exact","531 HOLLOWAY AVE, SAN FRANCISCO, CA, 94112",192285482,"L"
709791,"531 INDIANWOOD DRIVE","CAROL STREAM","IL",60188,41.9153422210001,-88.13589584,291,"531 INDIANWOOD DRIVE, CAROL STREAM, IL, 60188","Match","Exact","531 INDIANWOOD DR, CAROL STREAM, IL, 60188",112518143,"R"
709792,"531 IRON BRIDGE LANE","DAUPHIN","PA",17018,40.3767110590001,-76.912823927,292,"531 IRON BRIDGE LANE, DAUPHIN, PA, 17018","Match","Exact","531 IRON BRIDGE LN, DAUPHIN, PA, 17018",70812945,"L"
709793,"531 IVERNES AVE","MELBO","FL",32940,NA,NA,293,"531 IVERNES AVE, MELBO, FL, 32940","No_Match",NA,NA,NA,NA
709794,"531 JACKSON AVE","MAGNOLIA","NJ",8049,39.854560355,-75.041721615,294,"531 JACKSON AVE, MAGNOLIA, NJ, 8049","Match","Exact","531 JACKSON AVE, MAGNOLIA, NJ, 08049",134356032,"R"
709795,"531 JANEWAY DR 177","NORRISTOWN","PA",19401,40.124268817,-75.319390287,295,"531 JANEWAY DR 177, NORRISTOWN, PA, 19401","Match","Exact","531 JANEWAY DR, NORRISTOWN, PA, 19401",135083210,"L"
709796,"531 JOHN ST","CARTHAGE","NY",13619,43.9834998090001,-75.614487418,296,"531 JOHN ST, CARTHAGE, NY, 13619","Match","Exact","531 JOHN ST, CARTHAGE, NY, 13619",154243064,"R"
709797,"531 KELLOGG STREET","RIPON","WI",54971,43.848778614,-88.843595353,297,"531 KELLOGG STREET, RIPON, WI, 54971","Match","Exact","531 KELLOGG ST, RIPON, WI, 54971",74814112,"L"
709798,"531 KENILWORTH LANE","BALLWIN","MO",63011,38.6077355670001,-90.5528853179999,298,"531 KENILWORTH LANE, BALLWIN, MO, 63011","Match","Exact","531 KENILWORTH LN, BALLWIN, MO, 63011",100111308,"R"
709799,"531 KENTUCKY","JOPLIN","MO",64801,37.0856772920001,-94.510104938,299,"531 KENTUCKY, JOPLIN, MO, 64801","Match","Non_Exact","531 KENTUCKY AVE, JOPLIN, MO, 64801",635335251,"L"
709800,"531 KING STREET","REDWOOD CITY","CA",94062,37.4762573470001,-122.239499436,300,"531 KING STREET, REDWOOD CITY, CA, 94062","Match","Exact","531 KING ST, REDWOOD CITY, CA, 94062",192362451,"L"
709801,"531 KINGS HWY APT N3","MOORESTOWN","NJ",8057,39.9569879810001,-74.9635532739999,301,"531 KINGS HWY APT N3, MOORESTOWN, NJ, 8057","Match","Exact","531 KINGS HWY, MOORESTOWN, NJ, 08057",642282087,"R"
709802,"531 KINGSTON ROAD","HARRISBURG","PA",17112,40.3283611160001,-76.797690018,302,"531 KINGSTON ROAD, HARRISBURG, PA, 17112","Match","Exact","531 KINGSTON RD, HARRISBURG, PA, 17112",70823294,"R"
709803,"531 KNOX ST","BLACKFOOT","ID",83221,43.185377031,-112.357172775,303,"531 KNOX ST, BLACKFOOT, ID, 83221","Match","Exact","531 KNOX ST, BLACKFOOT, ID, 83221",130066714,"R"
709804,"531 LAKE JERICHO ROAD","SMITHFIELD","KY",40068,38.4497984400001,-85.292583581,304,"531 LAKE JERICHO ROAD, SMITHFIELD, KY, 40068","Match","Exact","531 LAKE JERICHO RD, SMITHFIELD, KY, 40068",95295047,"L"
709805,"531 LASUEN MALL","STANFORD","CA",94305,37.425875122,-122.169050975,305,"531 LASUEN MALL, STANFORD, CA, 94305","Match","Exact","531 LASUEN MALL, STANFORD, CA, 94305",614022294,"R"
709806,"531 LAUREL RD","YEADON","PA",19050,39.93823358,-75.2529128639999,306,"531 LAUREL RD, YEADON, PA, 19050","Match","Exact","531 LAUREL RD, YEADON, PA, 19050",134878669,"L"
709807,"531 LAWNDALE DRIVE SE","CEDAR RAPIDS","IA",52403,41.9815015630001,-91.598376569,307,"531 LAWNDALE DRIVE SE, CEDAR RAPIDS, IA, 52403","Match","Exact","531 LAWNDALE DR SE, CEDAR RAPIDS, IA, 52403",17027779,"R"
709808,"531 LAYFAYETTE CT","HAZLETON","PA",18201,40.9599816080001,-75.978713918,308,"531 LAYFAYETTE CT, HAZLETON, PA, 18201","Match","Non_Exact","531 LAFAYETTE CT, HAZLETON, PA, 18201",80922513,"L"
709809,"531 LICKSKILLET ROAD","WARRENTON","NC",27589,36.2674589640001,-78.207856636,309,"531 LICKSKILLET ROAD, WARRENTON, NC, 27589","Match","Exact","531 LICKSKILLET RD, WARRENTON, NC, 27589",635422780,"R"
709810,"531 LOCUST AVENUE","PORT CHESTER","NY",10573,41.01189901,-73.6585620279999,310,"531 LOCUST AVENUE, PORT CHESTER, NY, 10573","Match","Exact","531 LOCUST AVE, PORT CHESTER, NY, 10573",647182583,"R"
709811,"531 MADISON ST","MINERAL POINT","WI",53565,42.8632593150001,-90.1869872079999,311,"531 MADISON ST, MINERAL POINT, WI, 53565","Match","Exact","531 MADISON ST, MINERAL POINT, WI, 53565",49797566,"R"
709812,"531 MAIN ST NUMBER 1111","EL SEGUNDO","CA",90245,33.92267983,-118.41594533,312,"531 MAIN ST NUMBER 1111, EL SEGUNDO, CA, 90245","Match","Exact","531 MAIN ST, EL SEGUNDO, CA, 90245",141579884,"L"
709813,"531 MAIN ST STE 979","EL SEGUNDO","CA",90245,33.92267983,-118.41594533,313,"531 MAIN ST STE 979, EL SEGUNDO, CA, 90245","Match","Exact","531 MAIN ST, EL SEGUNDO, CA, 90245",141579884,"L"
709814,"531 MAIN ST","ZANESVILLE","OH",43701,39.940083664,-82.006056988,314,"531 MAIN ST, ZANESVILLE, OH, 43701","Match","Exact","531 MAIN ST, ZANESVILLE, OH, 43701",45594748,"R"
709815,"531 MAIN STREET APT 428","NEW YORK","NY",10044,40.761307516,-73.950306027,315,"531 MAIN STREET APT 428, NEW YORK, NY, 10044","Match","Exact","531 MAIN ST, NEW YORK, NY, 10044",650067787,"L"
709816,"531 MAIN STREET SUITE 1132","EL SEGUNDO","CA",90245,33.92267983,-118.41594533,316,"531 MAIN STREET SUITE 1132, EL SEGUNDO, CA, 90245","Match","Exact","531 MAIN ST, EL SEGUNDO, CA, 90245",141579884,"L"
709817,"531 MAIN STREET","NEW YORK","NY",10044,40.761307516,-73.950306027,317,"531 MAIN STREET, NEW YORK, NY, 10044","Match","Exact","531 MAIN ST, NEW YORK, NY, 10044",650067787,"L"
709818,"531 MAIN STREET","WILLIAMSTOWN","MA",1267,42.707938998,-73.1924226149999,318,"531 MAIN STREET, WILLIAMSTOWN, MA, 1267","Match","Exact","531 MAIN ST, WILLIAMSTOWN, MA, 01267",3950590,"L"
709819,"531 MARIANNA STREET","MEMPHIS","TN",38111,35.1176080010001,-89.970630872,319,"531 MARIANNA STREET, MEMPHIS, TN, 38111","Match","Exact","531 MARIANNA ST, MEMPHIS, TN, 38111",72918067,"R"
709820,"531 MARYKNOLL DR","ROCHESTER HILLS","MI",48309,NA,NA,320,"531 MARYKNOLL DR, ROCHESTER HILLS, MI, 48309","Tie",NA,NA,NA,NA
709821,"531 MCCOMBS ROAD","VENETIA","PA",15367,40.259211905,-80.0594263259999,321,"531 MCCOMBS ROAD, VENETIA, PA, 15367","Match","Exact","531 MCCOMBS RD, VENETIA, PA, 15367",52820217,"R"
709822,"531 MCDUFF AVE","FREEMONT","CA",94539,37.4781245710001,-121.916236399,322,"531 MCDUFF AVE, FREEMONT, CA, 94539","Match","Non_Exact","531 MCDUFF AVE, FREMONT, CA, 94539",125067314,"L"
709823,"531 MCLEAN ST","CLIFTON HILL","MO",65244,39.4398372790001,-92.666192673,323,"531 MCLEAN ST, CLIFTON HILL, MO, 65244","Match","Exact","531 MCLEAN ST, CLIFTON HILL, MO, 65244",23793053,"L"
709824,"531 MEADOWLAND DR","HUBBARD","OH",44425,41.147307133,-80.572092262,324,"531 MEADOWLAND DR, HUBBARD, OH, 44425","Match","Exact","531 MEADOWLAND DR, HUBBARD, OH, 44425",117400093,"L"
709825,"531 MINNESOTA AVENUE","BUFFALO","NY",14215,42.945821139,-78.809575985,325,"531 MINNESOTA AVENUE, BUFFALO, NY, 14215","Match","Exact","531 MINNESOTA AVE, BUFFALO, NY, 14215",48296910,"R"
709826,"531 MITCHELL DRIVE","SAN LUIS OBISPO","CA",93401,35.265015369,-120.655603418,326,"531 MITCHELL DRIVE, SAN LUIS OBISPO, CA, 93401","Match","Exact","531 MITCHELL DR, SAN LUIS OBISPO, CA, 93401",109756364,"L"
709827,"531 MOORE STREET","MILLERSBURG","PA",17061,40.543212108,-76.956552414,327,"531 MOORE STREET, MILLERSBURG, PA, 17061","Match","Exact","531 MOORE ST, MILLERSBURG, PA, 17061",70835017,"L"
709828,"531 MULBERRY DRIVE","DELAFIELD","WI",53018,43.0782769310001,-88.405266825,328,"531 MULBERRY DRIVE, DELAFIELD, WI, 53018","Match","Exact","531 MULBERRY DR, DELAFIELD, WI, 53018",53842053,"L"
709829,"531 MYRTLEWOOD DRIVE","SANTA ROSA","CA",95407,38.422869022,-122.719744138,329,"531 MYRTLEWOOD DRIVE, SANTA ROSA, CA, 95407","Match","Exact","531 MYRTLEWOOD DR, SANTA ROSA, CA, 95407",67470296,"R"
709830,"531 N DEXFORD DR","LA HABRA","CA",90631,33.935910952,-117.97194557,330,"531 N DEXFORD DR, LA HABRA, CA, 90631","Match","Exact","531 N DEXFORD DR, LA HABRA, CA, 90631",144089345,"L"
709831,"531 N DEXFORD DRIVE","LA HABRA","CA",90611,33.935910952,-117.97194557,331,"531 N DEXFORD DRIVE, LA HABRA, CA, 90611","Match","Non_Exact","531 N DEXFORD DR, LA HABRA, CA, 90631",144089345,"L"
709832,"531 N HIGGINS AVE","MISSOULA","MT",59802,46.8743434,-113.992623228,332,"531 N HIGGINS AVE, MISSOULA, MT, 59802","Match","Exact","531 N HIGGINS AVE, MISSOULA, MT, 59802",205239280,"L"
709833,"531 N MAIN STREET","MORTON","IL",61550,40.61504588,-89.457066007,333,"531 N MAIN STREET, MORTON, IL, 61550","Match","Exact","531 N MAIN ST, MORTON, IL, 61550",22503441,"L"
709834,"531 N OCEAN BLVD APT 1907","POMPANO BEACH","FL",33062,NA,NA,334,"531 N OCEAN BLVD APT 1907, POMPANO BEACH, FL, 33062","Tie",NA,NA,NA,NA
709835,"531 N ROSSMORE AVE","LOS ANGELES","CA",90004,34.079876933,-118.327194648,335,"531 N ROSSMORE AVE, LOS ANGELES, CA, 90004","Match","Exact","531 N ROSSMORE AVE, LOS ANGELES, CA, 90004",141599979,"L"
709836,"531 N UNION STREET","LINCOLN","IL",62656,40.156710107,-89.367989633,336,"531 N UNION STREET, LINCOLN, IL, 62656","Match","Exact","531 N UNION ST, LINCOLN, IL, 62656",22456158,"L"
709837,"531 N WILDERNESS TRL","PONTE VEDRA","FL",32082,30.1786435290001,-81.395870599,337,"531 N WILDERNESS TRL, PONTE VEDRA, FL, 32082","Match","Exact","531 N WILDERNESS TRL, PONTE VEDRA, FL, 32082",92617245,"L"
709838,"531 NE 21ST COURT","WILTON MANORS","FL",33305,26.154520957,-80.138619298,338,"531 NE 21ST COURT, WILTON MANORS, FL, 33305","Match","Non_Exact","531 NE 21ST CT, WILTON MANORS, FL, 33305",640899531,"L"
709839,"531 NE 39TH STREET","POMPANO BEACH","FL",33064,NA,NA,339,"531 NE 39TH STREET, POMPANO BEACH, FL, 33064","Tie",NA,NA,NA,NA
709840,"531 NE 39TH STREET","POMPANO","FL",33064,26.278861261,-80.116426739,340,"531 NE 39TH STREET, POMPANO, FL, 33064","Match","Non_Exact","531 NE 39TH ST, POMPANO BEACH, FL, 33064",114742588,"L"
709841,"531 NE 76TH STREET","MIAMI","FL",33138,25.844952446,-80.1859377439999,341,"531 NE 76TH STREET, MIAMI, FL, 33138","Match","Exact","531 NE 76TH ST, MIAMI, FL, 33138",116006857,"L"
709842,"531 NEW STREET","OXFORD","PA",19363,39.784959391,-75.9745963349999,342,"531 NEW STREET, OXFORD, PA, 19363","Match","Exact","531 NEW ST, OXFORD, PA, 19363",179482537,"L"
709843,"531 NEWBURY ST APT 1","BOSTON","MA",2215,42.34803357,-71.094187841,343,"531 NEWBURY ST APT 1, BOSTON, MA, 2215","Match","Exact","531 NEWBURY ST, BOSTON, MA, 02215",85696968,"R"
709844,"531 NORTH 300WEST","MALAD","ID",83252,NA,NA,344,"531 NORTH 300WEST, MALAD, ID, 83252","No_Match",NA,NA,NA,NA
709845,"531 NORTH MAGNOLIA STREET","GRAMERCY","LA",70057,30.0552475210001,-90.696077808,345,"531 NORTH MAGNOLIA STREET, GRAMERCY, LA, 70057","Match","Non_Exact","531 N MAGNOLIA ST, GRAMERCY, LA, 70052",93664868,"L"
709846,"531 NORTH MAIN ST","MAGNOLIA","OH",44643,40.656453927,-81.298112282,346,"531 NORTH MAIN ST, MAGNOLIA, OH, 44643","Match","Exact","531 N MAIN ST, MAGNOLIA, OH, 44643",64722715,"L"
709847,"531 NORTH ST","KNIGHTSTOWN","IN",46148,39.803315431,-85.52146104,347,"531 NORTH ST, KNIGHTSTOWN, IN, 46148","Match","Non_Exact","531 E NORTH ST, KNIGHTSTOWN, IN, 46148",647684742,"L"
709848,"531 NW 102ND TERRACE","GAINESVILLE","FL",32607,29.6576161680001,-82.45122987,348,"531 NW 102ND TERRACE, GAINESVILLE, FL, 32607","Match","Exact","531 NW 102ND TER, GAINESVILLE, FL, 32607",6802940,"R"
709849,"531 NW 105TH STREET","MIAMI","FL",33150,25.871167164,-80.206467822,349,"531 NW 105TH STREET, MIAMI, FL, 33150","Match","Exact","531 NW 105TH ST, MIAMI, FL, 33150",116002918,"R"
709850,"531 NW 8TH AVENUE","BOYNTON BEACH","FL",33435,26.5343786540001,-80.071125651,350,"531 NW 8TH AVENUE, BOYNTON BEACH, FL, 33435","Match","Exact","531 NW 8TH AVE, BOYNTON BEACH, FL, 33435",115338989,"L"
709851,"531 NW BROOK ST  APT 3","NEWPORT","OR",97365,44.639811079,-124.058923593,351,"531 NW BROOK ST  APT 3, NEWPORT, OR, 97365","Match","Non_Exact","531 NW BROOK ST, NEWPORT, OR, 97365",155931230,"R"
709852,"531 OAKLANE","MCPHERSON","KS",67460,38.385275651,-97.6605678,352,"531 OAKLANE, MCPHERSON, KS, 67460","Match","Non_Exact","531 OAKLANE ST, MCPHERSON, KS, 67460",142871772,"R"
709853,"531 OAKWOOD DR","VICKSBURG","MS",39180,32.322816614,-90.836124336,353,"531 OAKWOOD DR, VICKSBURG, MS, 39180","Match","Exact","531 OAKWOOD DR, VICKSBURG, MS, 39180",71302948,"L"
709854,"531 OLD STONE ROAD","BOLINGBROOK","IL",60440,41.692038208,-88.0898356,354,"531 OLD STONE ROAD, BOLINGBROOK, IL, 60440","Match","Exact","531 OLD STONE RD, BOLINGBROOK, IL, 60440",111535183,"L"
709855,"531 ORCHARD HILL","LANCASTER","OH",43130,39.7282579320001,-82.590941213,355,"531 ORCHARD HILL, LANCASTER, OH, 43130","Match","Non_Exact","531 ORCHARD HILL DR, LANCASTER, OH, 43130",37249714,"R"
709856,"531 OTIS BOULEVARD","SPARTANBURG","SC",29302,34.948524003,-81.915064838,356,"531 OTIS BOULEVARD, SPARTANBURG, SC, 29302","Match","Exact","531 OTIS BLVD, SPARTANBURG, SC, 29302",19513764,"R"
709857,"531 PARAMOUNT WAY","SANTA ROSA","CA",95403,38.472947119,-122.729108933,357,"531 PARAMOUNT WAY, SANTA ROSA, CA, 95403","Match","Non_Exact","531 PARAMOUNT ST, SANTA ROSA, CA, 95403",605019201,"R"
709858,"531 PARTRIDGE COURT","PEWAUKEE","WI",53072,43.090060427,-88.265849901,358,"531 PARTRIDGE COURT, PEWAUKEE, WI, 53072","Match","Exact","531 PARTRIDGE CT, PEWAUKEE, WI, 53072",53810734,"R"
709859,"531 PAULELE ST","KAILUA","HI",96734,21.3861478430001,-157.73373322,359,"531 PAULELE ST, KAILUA, HI, 96734","Match","Exact","531 PAULELE ST, KAILUA, HI, 96734",203240164,"L"
709860,"531 PINE STREET","BROOKLYN","NY",11208,40.672428971,-73.87021283,360,"531 PINE STREET, BROOKLYN, NY, 11208","Match","Exact","531 PINE ST, BROOKLYN, NY, 11208",59095290,"L"
709861,"531 PINEWOOD AVENUE","TOLEDO","OH",43606,41.651102226,-83.555759098,361,"531 PINEWOOD AVENUE, TOLEDO, OH, 43606","Match","Non_Exact","531 PINEWOOD AVE, TOLEDO, OH, 43604",33943855,"L"
709862,"531 PLANTATION DRIVE","CLARKESVILLE","GA",30523,NA,NA,362,"531 PLANTATION DRIVE, CLARKESVILLE, GA, 30523","No_Match",NA,NA,NA,NA
709863,"531 POND ROAD","LEWISTON","ME",4240,44.123047087,-70.147625523,363,"531 POND ROAD, LEWISTON, ME, 4240","Match","Exact","531 POND RD, LEWISTON, ME, 04240",77970277,"R"
709864,"531 PRESERVE PT","FLOWERY BRANCH","GA",30542,NA,NA,364,"531 PRESERVE PT, FLOWERY BRANCH, GA, 30542","No_Match",NA,NA,NA,NA
709865,"531 PROSPECTOR RIDGE DRIVE","WILDWOOD","MO",63011,38.602292576,-90.618067194,365,"531 PROSPECTOR RIDGE DRIVE, WILDWOOD, MO, 63011","Match","Exact","531 PROSPECTOR RIDGE DR, WILDWOOD, MO, 63011",100170375,"L"
709866,"531 R T BRADDY RD","FLORENCE","MS",39073,32.1336341700001,-90.058309682,366,"531 R T BRADDY RD, FLORENCE, MS, 39073","Match","Non_Exact","531 BRADDY LN, FLORENCE, MS, 39073",605250273,"R"
709867,"531 RADIANCE AVE","SAN ANTONIO","FL",78218,NA,NA,367,"531 RADIANCE AVE, SAN ANTONIO, FL, 78218","No_Match",NA,NA,NA,NA
709868,"531 RANCH ROAD","WESTON","FL",33326,26.1098249450001,-80.3649992649999,368,"531 RANCH ROAD, WESTON, FL, 33326","Match","Exact","531 RANCH RD, WESTON, FL, 33326",114818297,"L"
709869,"531 RANDOLPH","TRAVERSE CITY","MI",49684,44.767462004,-85.632177439,369,"531 RANDOLPH, TRAVERSE CITY, MI, 49684","Match","Non_Exact","531 RANDOLPH ST, TRAVERSE CITY, MI, 49684",145514145,"R"
709870,"531 RANKIN RD","LORMAN","MS",39096,31.853721208,-90.987564931,370,"531 RANKIN RD, LORMAN, MS, 39096","Match","Exact","531 RANKIN RD, LORMAN, MS, 39096",617479163,"R"
709871,"531 RED FOX LANE","WAYNE","PA",19087,40.059132241,-75.404484838,371,"531 RED FOX LANE, WAYNE, PA, 19087","Match","Exact","531 RED FOX LN, WAYNE, PA, 19087",179499692,"L"
709872,"531 RIDGE ROAD","PHILLIPSBURG","NJ",8865,40.752912092,-75.122622021,372,"531 RIDGE ROAD, PHILLIPSBURG, NJ, 8865","Match","Exact","531 RIDGE RD, PHILLIPSBURG, NJ, 08865",630941260,"L"
709873,"531 RIDGEVIEW DRIVE","MOUNT PLEASANT","PA",15666,40.1418097440001,-79.550429064,373,"531 RIDGEVIEW DRIVE, MOUNT PLEASANT, PA, 15666","Match","Non_Exact","531 RIDGEVIEW RD, MT PLEASANT, PA, 15666",613067016,"L"
709874,"531 RIVER ROUGE DR","NASHVILLE","TN",37209,36.147706471,-86.882160744,374,"531 RIVER ROUGE DR, NASHVILLE, TN, 37209","Match","Exact","531 RIVER ROUGE DR, NASHVILLE, TN, 37209",97178526,"L"
709875,"531 ROCK ELM DRIVE","AUBURN","GA",30011,34.017866525,-83.87818416,375,"531 ROCK ELM DRIVE, AUBURN, GA, 30011","Match","Exact","531 ROCK ELM DR, AUBURN, GA, 30011",623986770,"L"
709876,"531 ROCKHILL","SAN ANTONIO","TX",78209,29.506899494,-98.441084185,376,"531 ROCKHILL, SAN ANTONIO, TX, 78209","Match","Non_Exact","531 ROCKHILL DR, SAN ANTONIO, TX, 78209",101499463,"L"
709877,"531 ROMAN MIST WAY","VERONA","WI",53593,43.0534745240001,-89.5487410279999,377,"531 ROMAN MIST WAY, VERONA, WI, 53593","Match","Exact","531 ROMAN MIST WAY, VERONA, WI, 53593",648125336,"L"
709878,"531 ROUNDTOP","ELIZABETHTOWN","KY",42701,37.6359596350001,-85.822925348,378,"531 ROUNDTOP, ELIZABETHTOWN, KY, 42701","Match","Non_Exact","531 ROUNDTOP RD, ELIZABETHTOWN, KY, 42701",34623528,"L"
709879,"531 RUBIO ST","TAFT","TX",78390,27.9668478940001,-97.401135962,379,"531 RUBIO ST, TAFT, TX, 78390","Match","Exact","531 RUBIO ST, TAFT, TX, 78390",36324300,"R"
709880,"531 S 12TH STREET","SAINT CHARLES","IL",60174,41.9058380000001,-88.328498134,380,"531 S 12TH STREET, SAINT CHARLES, IL, 60174","Match","Exact","531 S 12TH ST, SAINT CHARLES, IL, 60174",119506143,"R"
709881,"531 S 17TH STREET B","PHILADELPHIA","PA",19146,39.944522003,-75.170263135,381,"531 S 17TH STREET B, PHILADELPHIA, PA, 19146","Match","Non_Exact","531 S 17TH ST, PHILADELPHIA, PA, 19146",131407844,"L"
709882,"531 S 18TH ST APT 1","NEWARK","NJ",7103,NA,NA,382,"531 S 18TH ST APT 1, NEWARK, NJ, 7103","Tie",NA,NA,NA,NA
709883,"531 S 2ND STREET","SHOW LOW","AZ",85901,34.244440384,-110.039463084,383,"531 S 2ND STREET, SHOW LOW, AZ, 85901","Match","Exact","531 S 2ND ST, SHOW LOW, AZ, 85901",638537930,"L"
709884,"531 S 38TH AVE APT 202","WEST RICHLAND","WA",99353,46.296081358,-119.337031486,384,"531 S 38TH AVE APT 202, WEST RICHLAND, WA, 99353","Match","Non_Exact","531 S 38TH AVE, WEST RICHLAND, WA, 99353",175007976,"R"
709885,"531 S 38TH AVE APT B104","WEST RICHLAND","WA",99353,46.296081358,-119.337031486,385,"531 S 38TH AVE APT B104, WEST RICHLAND, WA, 99353","Match","Non_Exact","531 S 38TH AVE, WEST RICHLAND, WA, 99353",175007976,"R"
709886,"531 S 38TH AVE","WEST RICHLAND","WA",99353,46.296081358,-119.337031486,386,"531 S 38TH AVE, WEST RICHLAND, WA, 99353","Match","Exact","531 S 38TH AVE, WEST RICHLAND, WA, 99353",175007976,"R"
709887,"531 S 55 STREET","OMAHA","NE",68106,41.255530075,-95.99799863,387,"531 S 55 STREET, OMAHA, NE, 68106","Match","Exact","531 S 55TH ST, OMAHA, NE, 68106",116982995,"L"
709888,"531 S BRADDOCK AVENUE APT 3","PITTSBURGH","PA",15221,40.4270332510001,-79.8579599889999,388,"531 S BRADDOCK AVENUE APT 3, PITTSBURGH, PA, 15221","Match","Non_Exact","531 BRADDOCK RD, PITTSBURGH, PA, 15221",607611475,"L"
709889,"531 S LAKE SHORE DRIVE","LAKE GENEVA","WI",53147,42.586193951,-88.4305286269999,389,"531 S LAKE SHORE DRIVE, LAKE GENEVA, WI, 53147","Match","Exact","531 LAKE SHORE DR, LAKE GENEVA, WI, 53147",639714312,"R"
709890,"531 S MITCHELL AVE","ELMHURST","IL",60126,41.8839248950001,-87.945890714,390,"531 S MITCHELL AVE, ELMHURST, IL, 60126","Match","Exact","531 MITCHELL AVE, ELMHURST, IL, 60126",112545147,"L"
709891,"531 S NIAGARA STREET","BURBANK","CA",91505,34.150561732,-118.331298019,391,"531 S NIAGARA STREET, BURBANK, CA, 91505","Match","Exact","531 S NIAGARA ST, BURBANK, CA, 91505",142726355,"R"
709892,"531 S PLYMOUTH CT","CHICAGO","IL",60605,NA,NA,392,"531 S PLYMOUTH CT, CHICAGO, IL, 60605","No_Match",NA,NA,NA,NA
709893,"531 S SAN JULIAN ST","LOS ANGELES","CA",90013,34.043994142,-118.245363999,393,"531 S SAN JULIAN ST, LOS ANGELES, CA, 90013","Match","Exact","531 SAN JULIAN ST, LOS ANGELES, CA, 90013",141620310,"R"
709894,"531 S SUMMIT","BOWLING GREEN","OH",43402,41.367307919,-83.647310685,394,"531 S SUMMIT, BOWLING GREEN, OH, 43402","Match","Non_Exact","531 S SUMMIT ST, BOWLING GREEN, OH, 43402",38719719,"R"
709895,"531 SANTA FE COURT","MORGANTOWN","WV",26508,39.6139173440001,-79.934393765,395,"531 SANTA FE COURT, MORGANTOWN, WV, 26508","Match","Exact","531 SANTA FE CT, MORGANTOWN, WV, 26508",624750379,"R"
709896,"531 SAULSBURY STREET","LAKEWOOD","CO",80226,39.724076638,-105.075533493,396,"531 SAULSBURY STREET, LAKEWOOD, CO, 80226","Match","Exact","531 SAULSBURY ST, LAKEWOOD, CO, 80226",177320172,"L"
709897,"531 SAVANNAH RIDGE","MURFREESBORO","TN",37127,35.780227145,-86.387346723,397,"531 SAVANNAH RIDGE, MURFREESBORO, TN, 37127","Match","Exact","531 SAVANNAH RIDGE, MURFREESBORO, TN, 37127",606784879,"L"
709898,"531 SE MAYNARD RD","CARY","NC",27511,35.766601571,-78.7683796539999,398,"531 SE MAYNARD RD, CARY, NC, 27511","Match","Exact","531 SE MAYNARD RD, CARY, NC, 27511",72499150,"L"
709899,"531 SECOND ST","REEDSBURG","WI",53959,43.533458395,-90.0034789809999,399,"531 SECOND ST, REEDSBURG, WI, 53959","Match","Exact","531 2ND ST, REEDSBURG, WI, 53959",86541418,"R"
709900,"531 SEVEN MILE RIDGE RD","INDIAN MOUND","TN",37079,36.488789463,-87.626363392,400,"531 SEVEN MILE RIDGE RD, INDIAN MOUND, TN, 37079","Match","Exact","531 SEVEN MILE RIDGE RD, INDIAN MOUND, TN, 37079",607877327,"R"
709901,"531 SEVENTH ST EAST","ZOLFO SPRINGS","FL",33890,27.491299838,-81.790852241,401,"531 SEVENTH ST EAST, ZOLFO SPRINGS, FL, 33890","Match","Exact","531 SEVENTH ST E, ZOLFO SPRINGS, FL, 33890",16196758,"R"
709902,"531 SHERWOOD DR N","MIDDLETOWN","NY",10941,41.471595935,-74.350971825,402,"531 SHERWOOD DR N, MIDDLETOWN, NY, 10941","Match","Exact","531 SHERWOOD DR N, MIDDLETOWN, NY, 10941",124497443,"L"
709903,"531 SHREWSBURY DR","CLARKSTON","MI",48348,42.7732128750001,-83.324749665,403,"531 SHREWSBURY DR, CLARKSTON, MI, 48348","Match","Exact","531 SHREWSBURY DR, CLARKSTON, MI, 48348",69770529,"L"
709904,"531 SMITHLAND AVE","LA JUNTA","CO",81050,37.9829274690001,-103.539060304,404,"531 SMITHLAND AVE, LA JUNTA, CO, 81050","Match","Exact","531 SMITHLAND AVE, LA JUNTA, CO, 81050",112931908,"R"
709905,"531 SONOMA RD","JACKSONVILLE","NC",28546,34.8244041890001,-77.4045328619999,405,"531 SONOMA RD, JACKSONVILLE, NC, 28546","Match","Exact","531 SONOMA RD, JACKSONVILLE, NC, 28546",642436260,"L"
709906,"531 SOUTH 6TH AVENUE","STERLING","CO",80751,40.6209127880001,-103.220016107,406,"531 SOUTH 6TH AVENUE, STERLING, CO, 80751","Match","Exact","531 S 6TH AVE, STERLING, CO, 80751",136182180,"R"
709907,"531 SOUTH EASY STREET","SEBASTIAN","FL",32958,27.7978754100001,-80.4778635709999,407,"531 SOUTH EASY STREET, SEBASTIAN, FL, 32958","Match","Exact","531 S EASY ST, SEBASTIAN, FL, 32958",120296859,"R"
709908,"531 SOUTH FORT THOMAS AVENUE","FORT THOMAS","KY",41075,39.0720549390001,-84.4460953729999,408,"531 SOUTH FORT THOMAS AVENUE, FORT THOMAS, KY, 41075","Match","Exact","531 S FORT THOMAS AVE, FORT THOMAS, KY, 41075",104448988,"R"
709909,"531 SOUTH HARRIS STREET","HELENA","MT",59601,46.5780376970001,-112.013013932,409,"531 SOUTH HARRIS STREET, HELENA, MT, 59601","Match","Exact","531 S HARRIS ST, HELENA, MT, 59601",202350623,"L"
709910,"531 SOUTH MCLEAN","MEMPHIS","TN",38104,35.1311961600001,-90.000702798,410,"531 SOUTH MCLEAN, MEMPHIS, TN, 38104","Match","Non_Exact","531 S MCLEAN BLVD, MEMPHIS, TN, 38104",72912445,"R"
709911,"531 SOUTH SYCAMORE AVE","NEW BRAUNFELS","TX",78130,29.690982928,-98.128078685,411,"531 SOUTH SYCAMORE AVE, NEW BRAUNFELS, TX, 78130","Match","Exact","531 S SYCAMORE AVE, NEW BRAUNFELS, TX, 78130",72246973,"L"
709912,"531 SOUTH WATER STREET","MILWAUKEE","WI",53204,43.027217604,-87.906103209,412,"531 SOUTH WATER STREET, MILWAUKEE, WI, 53204","Match","Exact","531 S WATER ST, MILWAUKEE, WI, 53204",77744974,"R"
709913,"531 SOUTHWOOD DRIVE","BRENTWOOD","CA",94513,NA,NA,413,"531 SOUTHWOOD DRIVE, BRENTWOOD, CA, 94513","No_Match",NA,NA,NA,NA
709914,"531 SPECTATOR AVENUE","CAPITOL HEIGHTS","MD",20786,NA,NA,414,"531 SPECTATOR AVENUE, CAPITOL HEIGHTS, MD, 20786","No_Match",NA,NA,NA,NA
709915,"531 STERLING STREET","NEWTOWN","PA",18940,40.224203882,-74.927611622,415,"531 STERLING STREET, NEWTOWN, PA, 18940","Match","Exact","531 STERLING ST, NEWTOWN, PA, 18940",636358567,"L"
709916,"531 STOLPE STREET SW","GRAND RAPIDS","MI",49503,42.9386267460001,-85.680388411,416,"531 STOLPE STREET SW, GRAND RAPIDS, MI, 49503","Match","Exact","531 STOLPE ST SW, GRAND RAPIDS, MI, 49503",12458157,"R"
709917,"531 SUMMIT ROAD","MADISON","WI",53704,43.115909937,-89.377319144,417,"531 SUMMIT ROAD, MADISON, WI, 53704","Match","Exact","531 SUMMIT RD, MADISON, WI, 53704",49470953,"L"
709918,"531 SW 10TH COURT","DEERFIELD BEACH","FL",33441,26.3039775510001,-80.110968446,418,"531 SW 10TH COURT, DEERFIELD BEACH, FL, 33441","Match","Non_Exact","531 SW 10TH CT, DEERFIELD BEACH, FL, 33441",114741947,"R"
709919,"531 SW 90TH CT","MIAMI","FL",33174,25.7641357480001,-80.341878575,419,"531 SW 90TH CT, MIAMI, FL, 33174","Match","Non_Exact","531 SW 90TH CT, MIAMI, FL, 33174",115971119,"R"
709920,"531 SWALLOWTAIL DRIVE","HAINES CITY","FL",33844,28.1490364520001,-81.6163390579999,420,"531 SWALLOWTAIL DRIVE, HAINES CITY, FL, 33844","Match","Exact","531 SWALLOWTAIL DR, HAINES CITY, FL, 33844",648004439,"L"
709921,"531 SYCAMORE DRIVE","PICKERINGTON","OH",43147,39.872133778,-82.741581883,421,"531 SYCAMORE DRIVE, PICKERINGTON, OH, 43147","Match","Exact","531 SYCAMORE DR, PICKERINGTON, OH, 43147",37217116,"R"
709922,"531 TARMARACK DRIVE","WEST BEND","WI",53095,NA,NA,422,"531 TARMARACK DRIVE, WEST BEND, WI, 53095","No_Match",NA,NA,NA,NA
709923,"531 TIA JUANA ST","SAN BERNARDINO","CA",92411,34.1089726330001,-117.321984077,423,"531 TIA JUANA ST, SAN BERNARDINO, CA, 92411","Match","Non_Exact","531 TIAJUANA ST, SAN BERNARDINO, CA, 92411",144653035,"R"
709924,"531 TWIN LAKES","HALIFAX","ME",2338,NA,NA,424,"531 TWIN LAKES, HALIFAX, ME, 2338","No_Match",NA,NA,NA,NA
709925,"531 UPPER BROAD STREET","NEWPORT","TN",37821,35.9587234750001,-83.1979004629999,425,"531 UPPER BROAD STREET, NEWPORT, TN, 37821","Match","Exact","531 UPPER BROAD ST, NEWPORT, TN, 37821",132771648,"L"
709926,"531 US HWY 22 EAST PMB 156","WHITEHOUSE STATION","NJ",8889,NA,NA,426,"531 US HWY 22 EAST PMB 156, WHITEHOUSE STATION, NJ, 8889","No_Match",NA,NA,NA,NA
709927,"531 VARDAR LANE","BIRMINGHAM","AL",35210,33.520789221,-86.7096633049999,427,"531 VARDAR LANE, BIRMINGHAM, AL, 35210","Match","Exact","531 VARDAR LN, BIRMINGHAM, AL, 35210",81587644,"L"
709928,"531 VICTORIA COURT","SAN LEANDRO","CA",94577,37.736151767,-122.154340556,428,"531 VICTORIA COURT, SAN LEANDRO, CA, 94577","Match","Exact","531 VICTORIA CT, SAN LEANDRO, CA, 94577",125011388,"R"
709929,"531 VINE ST","BETHEL","DE",19931,38.5715466890001,-75.6262351029999,429,"531 VINE ST, BETHEL, DE, 19931","Match","Exact","531 VINE ST, BETHEL, DE, 19931",106134251,"L"
709930,"531 VINE ST","LAUREL","DE",19931,38.5715466890001,-75.6262351029999,430,"531 VINE ST, LAUREL, DE, 19931","Match","Non_Exact","531 VINE ST, BETHEL, DE, 19931",106134251,"L"
709931,"531 W 111TH STREET","NEW YORK","NY",10025,40.80424349,-73.964814824,431,"531 W 111TH STREET, NEW YORK, NY, 10025","Match","Exact","531 W 111TH ST, NEW YORK, NY, 10025",639467244,"R"
709932,"531 W 206TH STREET S","MOUNDS","OK",74047,NA,NA,432,"531 W 206TH STREET S, MOUNDS, OK, 74047","No_Match",NA,NA,NA,NA
709933,"531 W 49TH PL","LOS ANGELES","CA",90037,33.998010837,-118.28340908,433,"531 W 49TH PL, LOS ANGELES, CA, 90037","Match","Exact","531 W 49TH PL, LOS ANGELES, CA, 90037",141607896,"R"
709934,"531 W CANTON AVE","WINTER PARK","FL",32789,28.6004313440001,-81.356150933,434,"531 W CANTON AVE, WINTER PARK, FL, 32789","Match","Exact","531 W CANTON AVE, WINTER PARK, FL, 32789",94277052,"R"
709935,"531 W CHESTNUT","DENISON","TX",75020,33.754572388,-96.542101444,435,"531 W CHESTNUT, DENISON, TX, 75020","Match","Non_Exact","531 W CHESTNUT ST, DENISON, TX, 75020",63357444,"R"
709936,"531 W COLLEGE","JONESBORO","AR",72401,35.8260187880001,-90.709648763,436,"531 W COLLEGE, JONESBORO, AR, 72401","Match","Non_Exact","531 W COLLEGE AVE, JONESBORO, AR, 72401",46909856,"L"
709937,"531 W EVANS STREET","FLORENCE","SC",29501,34.196905272,-79.7747623129999,437,"531 W EVANS STREET, FLORENCE, SC, 29501","Match","Exact","531 W EVANS ST, FLORENCE, SC, 29501",28878249,"R"
709938,"531 W KELLOGG RD","BELLINGHAM","WA",98226,NA,NA,438,"531 W KELLOGG RD, BELLINGHAM, WA, 98226","Tie",NA,NA,NA,NA
709939,"531 W OAKLAND ST","SUMTER","SC",29150,33.915742783,-80.353243361,439,"531 W OAKLAND ST, SUMTER, SC, 29150","Match","Non_Exact","531 W OAKLAND AVE, SUMTER, SC, 29150",202670848,"L"
709940,"531 W PINE ST","LONG BEACH","NY",11561,40.585380032,-73.6794016119999,440,"531 W PINE ST, LONG BEACH, NY, 11561","Match","Non_Exact","531 W PENN ST, LONG BEACH, NY, 11561",645738717,"R"
709941,"531 WARREN ST","PRESCOTT","AR",71857,33.809159691,-93.383898561,441,"531 WARREN ST, PRESCOTT, AR, 71857","Match","Exact","531 WARREN ST, PRESCOTT, AR, 71857",10259179,"L"
709942,"531 WASHINGTON AVE","RAVENNA","OH",44266,41.164010627,-81.234602366,442,"531 WASHINGTON AVE, RAVENNA, OH, 44266","Match","Exact","531 WASHINGTON AVE, RAVENNA, OH, 44266",208687710,"L"
709943,"531 WATCH HILL ROAD","MIDLOTHIAN","VA",23113,37.4910659490001,-77.6366477079999,443,"531 WATCH HILL ROAD, MIDLOTHIAN, VA, 23113","Match","Non_Exact","531 WATCH HILL RD, MIDLOTHIAN, VA, 23114",201529166,"R"
709944,"531 WAYSIDE ROAD","PORTOLA","CA",94028,37.3808971500001,-122.241426654,444,"531 WAYSIDE ROAD, PORTOLA, CA, 94028","Match","Non_Exact","531 WAYSIDE RD, PORTOLA VALLEY, CA, 94028",644167819,"L"
709945,"531 WEBSTER STREET","TRAVERSE CITY","MI",49686,44.7605818280001,-85.6126388169999,445,"531 WEBSTER STREET, TRAVERSE CITY, MI, 49686","Match","Exact","531 WEBSTER ST, TRAVERSE CITY, MI, 49686",145514983,"R"
709946,"531 WEST MAIN","BELLVILLE","TX",77418,29.9526460370001,-96.2631067679999,446,"531 WEST MAIN, BELLVILLE, TX, 77418","Match","Non_Exact","531 W MAIN ST, BELLVILLE, TX, 77418",41824747,"L"
709947,"531 WESTMINSTER WAY","COPPELL","TX",75019,32.981153298,-97.007525766,447,"531 WESTMINSTER WAY, COPPELL, TX, 75019","Match","Exact","531 WESTMINSTER WAY, COPPELL, TX, 75019",103175290,"R"
709948,"531 WESTVIEW","ST. LOUIS","MO",63130,38.6589506980001,-90.3495753779999,448,"531 WESTVIEW, ST. LOUIS, MO, 63130","Match","Non_Exact","531 WESTVIEW DR, SAINT LOUIS, MO, 63130",100133231,"L"
709949,"531 WHITE AVE","NORTHVALE","NJ",7647,41.0118702390001,-73.962835763,449,"531 WHITE AVE, NORTHVALE, NJ, 7647","Match","Exact","531 WHITE AVE, NORTHVALE, NJ, 07647",64369890,"L"
709950,"531 WILDHORSE LN","SAN MARCOS","CA",92078,33.1541336770001,-117.207433072,450,"531 WILDHORSE LN, SAN MARCOS, CA, 92078","Match","Non_Exact","531 WILD HORSE LN, SAN MARCOS, CA, 92078",195294846,"R"
709951,"531 WILSON","CENTRAL","SC",29630,34.6822825890001,-82.7171971289999,451,"531 WILSON, CENTRAL, SC, 29630","Match","Non_Exact","531 WILSON RD, CENTRAL, SC, 29630",25441760,"L"
709952,"531 WINDY ACRES DR","COLUMBIA FALLS","MT",59912,48.3263357280001,-114.160132796,452,"531 WINDY ACRES DR, COLUMBIA FALLS, MT, 59912","Match","Non_Exact","531 WINDACRES DR, COLUMBIA FALLS, MT, 59912",204089976,"R"
709953,"531 WOODSONG WAY APT 303","SMYRNA","GA",30082,33.881729524,-84.539125325,453,"531 WOODSONG WAY APT 303, SMYRNA, GA, 30082","Match","Exact","531 WOODSONG WAY, SMYRNA, GA, 30082",17251814,"L"
709954,"531 WRANGLER RD","WESTCLIFFE","CO",81252,38.255550294,-105.54240173,454,"531 WRANGLER RD, WESTCLIFFE, CO, 81252","Match","Exact","531 WRANGLER RD, WESTCLIFFE, CO, 81252",237582237,"L"
709955,"531-C HARKLE ROAD","SANTA FE","NM",87505,35.659937203,-105.949346841,455,"531-C HARKLE ROAD, SANTA FE, NM, 87505","Match","Exact","531 HARKLE RD, SANTA FE, NM, 87505",169396161,"L"
709956,"531","AVENEL","NJ",7001,NA,NA,456,"531, AVENEL, NJ, 7001","No_Match",NA,NA,NA,NA
709957,"531","GARDNERVILLE","NV",89460,NA,NA,457,"531, GARDNERVILLE, NV, 89460","No_Match",NA,NA,NA,NA
709958,"5310  TIMBERWYCK TRAIL","INTERLOCHEN","MI",49684,44.608982283,-85.766034839,458,"5310  TIMBERWYCK TRAIL, INTERLOCHEN, MI, 49684","Match","Non_Exact","5310 TIMBERWYCK TRL, INTERLOCHEN, MI, 49643",644028724,"L"
709959,"5310 12TH AVE S","SAINT PETERSBURG","FL",33707,27.758435197,-82.705385968,459,"5310 12TH AVE S, SAINT PETERSBURG, FL, 33707","Match","Exact","5310 12TH AVE S, SAINT PETERSBURG, FL, 33707",124700547,"L"
709960,"5310 12TH AVE SOUTH","GULFPORT","FL",33707,27.758435197,-82.705385968,460,"5310 12TH AVE SOUTH, GULFPORT, FL, 33707","Match","Exact","5310 12TH AVE S, GULFPORT, FL, 33707",124700547,"L"
709961,"5310 16TH AVE","MOLINE","IL",61265,41.4986546820001,-90.4651810889999,461,"5310 16TH AVE, MOLINE, IL, 61265","Match","Exact","5310 16TH AVE, MOLINE, IL, 61265",9214460,"R"
709962,"5310 236TH AVE NE","REDMOND","WA",98053,47.6553117180001,-122.024540525,462,"5310 236TH AVE NE, REDMOND, WA, 98053","Match","Exact","5310 236TH AVE NE, REDMOND, WA, 98053",627139757,"R"
709963,"5310 89TH CRESCENT CIRCLE NORTH","BROOKLYN PARK","MN",55443,45.11638779,-93.348615546,463,"5310 89TH CRESCENT CIRCLE NORTH, BROOKLYN PARK, MN, 55443","Match","Non_Exact","5310 89TH CRESCENT CIR, BROOKLYN PARK, MN, 55443",43844085,"L"
709964,"5310 ABITARE BOULEVARD","VOORHEES","NJ",8043,39.8536050180001,-74.998867504,464,"5310 ABITARE BOULEVARD, VOORHEES, NJ, 8043","Match","Exact","5310 ABITARE BLVD, VOORHEES, NJ, 08043",651392715,"L"
709965,"5310 ALISON ST UNIT 104","ARVADA","CO",80002,39.79320145,-105.086097692,465,"5310 ALISON ST UNIT 104, ARVADA, CO, 80002","Match","Non_Exact","5310 ALLISON ST, ARVADA, CO, 80002",648202559,"R"
709966,"5310 ARAPAHOE LANE","MADISON","WI",53704,43.153093504,-89.374620659,466,"5310 ARAPAHOE LANE, MADISON, WI, 53704","Match","Exact","5310 ARAPAHOE LN, MADISON, WI, 53704",49470702,"L"
709967,"5310 BAYBERRY PARK DRIVE","NEW BERN","NC",28562,35.0068537980001,-76.996599013,467,"5310 BAYBERRY PARK DRIVE, NEW BERN, NC, 28562","Match","Exact","5310 BAYBERRY PARK DR, NEW BERN, NC, 28562",617976142,"R"
709968,"5310 BENTLEY RD APT 203","WEST BLOOMFIELD","MI",48322,42.5439353030001,-83.386733728,468,"5310 BENTLEY RD APT 203, WEST BLOOMFIELD, MI, 48322","Match","Exact","5310 BENTLEY RD, W BLOOMFIELD, MI, 48322",69819921,"R"
709969,"5310 BLUE SPRINGS RD","MARIANNA","FL",32446,30.792472365,-85.15283819,469,"5310 BLUE SPRINGS RD, MARIANNA, FL, 32446","Match","Exact","5310 BLUE SPRINGS RD, MARIANNA, FL, 32446",7190884,"L"
709970,"5310 BRADLEY BOULEVARD","BETHESDA","MD",21804,38.9773884090001,-77.107881708,470,"5310 BRADLEY BOULEVARD, BETHESDA, MD, 21804","Match","Non_Exact","5310 BRADLEY BLVD, BETHESDA, MD, 20814",62058895,"L"
709971,"5310 BRIARCLIFF LANE","FULSHEAR","TX",77441,29.7094143950001,-95.858025579,471,"5310 BRIARCLIFF LANE, FULSHEAR, TX, 77441","Match","Exact","5310 BRIARCLIFF LN, FULSHEAR, TX, 77441",642961604,"L"
709972,"5310 BULLARD AVE","NEW ORLEANS","LA",70128,30.0346782070001,-89.951741233,472,"5310 BULLARD AVE, NEW ORLEANS, LA, 70128","Match","Exact","5310 BULLARD AVE, NEW ORLEANS, LA, 70128",635846711,"L"
709973,"5310 BURNETT DR","MADISON","WI",53705,43.0670422810001,-89.4702630849999,473,"5310 BURNETT DR, MADISON, WI, 53705","Match","Exact","5310 BURNETT DR, MADISON, WI, 53705",49467191,"R"
709974,"5310 CANYON CREST DRIVE UNIT 51","RIVERSIDE","CA",92507,33.957424605,-117.329899407,474,"5310 CANYON CREST DRIVE UNIT 51, RIVERSIDE, CA, 92507","Match","Exact","5310 CANYON CREST DR, RIVERSIDE, CA, 92507",195085592,"L"
709975,"5310 CONIFER VIEW LAND","LAKELAND","TN",38002,35.2708675700001,-89.717970172,475,"5310 CONIFER VIEW LAND, LAKELAND, TN, 38002","Match","Non_Exact","5310 CONIFER VIEW LN, LAKELAND, TN, 38002",615260544,"R"
709976,"5310 CR 256","MOULTON","TX",77975,29.613492583,-97.064948715,476,"5310 CR 256, MOULTON, TX, 77975","Match","Exact","5310 CO RD 256, MOULTON, TX, 77975",42269422,"R"
709977,"5310 CRAFTSMAN DR","PARKER","CO",80134,39.4394302050001,-104.781452278,477,"5310 CRAFTSMAN DR, PARKER, CO, 80134","Match","Exact","5310 CRAFTSMAN DR, PARKER, CO, 80134",627765811,"L"
709978,"5310 CROSSWIND DRIVE","RICHTON PARK","IL",60471,41.4729774470001,-87.7475546109999,478,"5310 CROSSWIND DRIVE, RICHTON PARK, IL, 60471","Match","Non_Exact","5310 CROSSWIND, RICHTON PARK, IL, 60471",614123183,"R"
709979,"5310 CUMBERLAND ST","CAPITOL HEIGHTS","MD",20743,38.8819335740001,-76.91501089,479,"5310 CUMBERLAND ST, CAPITOL HEIGHTS, MD, 20743","Match","Exact","5310 CUMBERLAND ST, CAPITOL HEIGHTS, MD, 20743",76313569,"L"
709980,"5310 CURLYBARK PLACE","BRENTWOOD","TN",37027,36.0198967480001,-86.814532981,480,"5310 CURLYBARK PLACE, BRENTWOOD, TN, 37027","Match","Exact","5310 CURLYBARK PL, BRENTWOOD, TN, 37027",73119187,"L"
709981,"5310 DANBURY FOREST DRIVE","SPRINGFIELD","VA",22151,38.805565314,-77.23469806,481,"5310 DANBURY FOREST DRIVE, SPRINGFIELD, VA, 22151","Match","Exact","5310 DANBURY FOREST DR, SPRINGFIELD, VA, 22151",642598034,"L"
709982,"5310 EAST OREM","HOUSTON","TX",77048,29.6259009400001,-95.343593334,482,"5310 EAST OREM, HOUSTON, TX, 77048","Match","Non_Exact","5310 E OREM DR, HOUSTON, TX, 77048",96090733,"R"
709983,"5310 EL MEDANO STREET","SAN ANTONIO","TX",78233,29.557499535,-98.3850490789999,483,"5310 EL MEDANO STREET, SAN ANTONIO, TX, 78233","Match","Exact","5310 EL MEDANO ST, SAN ANTONIO, TX, 78233",101501043,"R"
709984,"5310 EL PASO DR","EL PASO","TX",79905,31.770619249,-106.427201957,484,"5310 EL PASO DR, EL PASO, TX, 79905","Match","Exact","5310 EL PASO DR, EL PASO, TX, 79905",189344951,"R"
709985,"5310 ELMHURST ROAD APT C","WEST PALM BEACH","FL",33417,26.7034069000001,-80.1242932169999,485,"5310 ELMHURST ROAD APT C, WEST PALM BEACH, FL, 33417","Match","Exact","5310 ELMHURST RD, WEST PALM BEACH, FL, 33417",115270814,"R"
709986,"5310 FAIR RAIN DR","RALEIGH","NC",27616,35.8901466570001,-78.553542562,486,"5310 FAIR RAIN DR, RALEIGH, NC, 27616","Match","Exact","5310 FAIR RAIN DR, RALEIGH, NC, 27616",612822170,"R"
709987,"5310 FAIRTIDE DRIVE","BAYTOWN","TX",77521,29.808430645,-94.9792720789999,487,"5310 FAIRTIDE DRIVE, BAYTOWN, TX, 77521","Match","Exact","5310 FAIRTIDE DR, BAYTOWN, TX, 77521",96575047,"L"
709988,"5310 FALLS DRIVE","CUMMINGS","GA",30028,34.2993761170001,-84.073685779,488,"5310 FALLS DRIVE, CUMMINGS, GA, 30028","Match","Non_Exact","5310 FALLS DR, CUMMING, GA, 30028",650776124,"R"
709989,"5310 FEAGAN STREET","HOUSTON","TX",77007,29.765983895,-95.41496348,489,"5310 FEAGAN STREET, HOUSTON, TX, 77007","Match","Exact","5310 FEAGAN ST, HOUSTON, TX, 77007",96060715,"R"
709990,"5310 FORDWICK DR","ROANOKE","VA",24018,37.212509498,-80.0226143959999,490,"5310 FORDWICK DR, ROANOKE, VA, 24018","Match","Exact","5310 FORDWICK DR, ROANOKE, VA, 24018",62920524,"L"
709991,"5310 FOX COVE LANE APT 10","GREENSBORO","NC",27407,36.0199504290001,-79.90697332,491,"5310 FOX COVE LANE APT 10, GREENSBORO, NC, 27407","Match","Exact","5310 FOX COVE LN, GREENSBORO, NC, 27407",131086937,"L"
709992,"5310 FREDRICKSBURG AVE","JACKSONVILLE","FL",32208,30.4001058370001,-81.729422961,492,"5310 FREDRICKSBURG AVE, JACKSONVILLE, FL, 32208","Match","Non_Exact","5310 FREDERICKSBURG AVE, JACKSONVILLE, FL, 32208",83887657,"L"
709993,"5310 FT PIERCE BLVD","FORT PIERCE","FL",34951,27.530348615,-80.402470798,493,"5310 FT PIERCE BLVD, FORT PIERCE, FL, 34951","Match","Exact","5310 FORT PIERCE BLVD, FORT PIERCE, FL, 34951",120157413,"R"
709994,"5310 FT PIERCE","FORT PIERCE","FL",34951,27.530348615,-80.402470798,494,"5310 FT PIERCE, FORT PIERCE, FL, 34951","Match","Non_Exact","5310 FORT PIERCE BLVD, FORT PIERCE, FL, 34951",120157413,"R"
709995,"5310 GALLEON CROSSING","DECATUR","GA",30035,33.716283237,-84.203511812,495,"5310 GALLEON CROSSING, DECATUR, GA, 30035","Match","Exact","5310 GALLEON CROSSING, DECATUR, GA, 30035",619385838,"L"
709996,"5310 GODAS CIRCLE","COLUMBIA","MO",65202,38.966499062,-92.256022697,496,"5310 GODAS CIRCLE, COLUMBIA, MO, 65202","Match","Exact","5310 GODAS CIR, COLUMBIA, MO, 65202",23499572,"L"
709997,"5310 GODFREY ROAD SUITE 35","GODFREY","IL",62035,38.942696009,-90.190904925,497,"5310 GODFREY ROAD SUITE 35, GODFREY, IL, 62035","Match","Exact","5310 GODFREY RD, GODFREY, IL, 62035",107677441,"L"
709998,"5310 HAMPTON ROAD","FAYETTEVILLE","NC",28311,35.134179675,-78.883487182,498,"5310 HAMPTON ROAD, FAYETTEVILLE, NC, 28311","Match","Exact","5310 HAMPTON RD, FAYETTEVILLE, NC, 28311",64267597,"L"
709999,"5310 HARVEST HILL RD STE 277","DALLAS","TX",75230,NA,NA,499,"5310 HARVEST HILL RD STE 277, DALLAS, TX, 75230","No_Match",NA,NA,NA,NA
710000,"5310 HAUSER WAY","DEXTER","MI",48130,NA,NA,500,"5310 HAUSER WAY, DEXTER, MI, 48130","No_Match",NA,NA,NA,NA
