"ID","Address","City","State","Zip","lat","long","id","input_address","match_indicator","match_type","matched_address","tiger_line_id","tiger_side"
929001,"919 SE KRUEGER PARKWAY","STUART","FL",34996,27.1907108360001,-80.2300139869999,1,"919 SE KRUEGER PARKWAY, STUART, FL, 34996","Match","Exact","919 SE KRUEGER PKWY, STUART, FL, 34996",120401587,"R"
929002,"919 SHARP DRIVE","CEDAR HILL","TX",75104,32.575585034,-96.92888557,2,"919 SHARP DRIVE, CEDAR HILL, TX, 75104","Match","Non_Exact","919 SHARP, CEDAR HILL, TX, 75104",102981867,"R"
929003,"919 SHEPHARD STREET NW","WASHINGTON","DC",20011,38.939746201,-77.0252968899999,3,"919 SHEPHARD STREET NW, WASHINGTON, DC, 20011","Match","Non_Exact","919 SHEPHERD ST NW, WASHINGTON, DC, 20011",76223545,"R"
929004,"919 SKYLINE BLVD","AVENAL","CA",93204,NA,NA,4,"919 SKYLINE BLVD, AVENAL, CA, 93204","No_Match",NA,NA,NA,NA
929005,"919 SOUTH PETERS ST","GARRETT","IN",46738,41.34233414,-85.1380184499999,5,"919 SOUTH PETERS ST, GARRETT, IN, 46738","Match","Exact","919 S PETERS ST, GARRETT, IN, 46738",6514299,"R"
929006,"919 SPANGLER RD NE","CANTON","OH",44714,40.8290654250001,-81.36346837,6,"919 SPANGLER RD NE, CANTON, OH, 44714","Match","Non_Exact","919 SPANGLER ST NE, CANTON, OH, 44714",64679334,"L"
929007,"919 SPRUCE DRIVE","CODY","WY",82414,44.5313416110001,-109.071185877,7,"919 SPRUCE DRIVE, CODY, WY, 82414","Match","Exact","919 SPRUCE DR, CODY, WY, 82414",149205139,"R"
929008,"919 SPRUCE STREET","SUGAR GROVE","IL",60554,41.7974414560001,-88.432655483,8,"919 SPRUCE STREET, SUGAR GROVE, IL, 60554","Match","Exact","919 SPRUCE ST, SUGAR GROVE, IL, 60554",119557835,"R"
929009,"919 SS 12TH AVENUE APT 401","MINNEAPOLIS","MN",55414,NA,NA,9,"919 SS 12TH AVENUE APT 401, MINNEAPOLIS, MN, 55414","No_Match",NA,NA,NA,NA
929010,"919 ST FERDINAND STREET","NEW ORLEANS","LA",70117,29.9665741950001,-90.0488688309999,10,"919 ST FERDINAND STREET, NEW ORLEANS, LA, 70117","Match","Exact","919 SAINT FERDINAND ST, NEW ORLEANS, LA, 70117",191716725,"R"
929011,"919 ST GERMAIN RD","CHULA VISTA","CA",91913,32.6477897180001,-116.973177404,11,"919 ST GERMAIN RD, CHULA VISTA, CA, 91913","Match","Exact","919 SAINT GERMAIN RD, CHULA VISTA, CA, 91913",195663834,"R"
929012,"919 STANFORD TERRACE","INVERNESS","FL",34450,28.820366774,-82.308642343,12,"919 STANFORD TERRACE, INVERNESS, FL, 34450","Match","Non_Exact","919 STANFORD, INVERNESS, FL, 34450",86232749,"L"
929013,"919 STEPHEN LANE","LA GRANGE","TX",78945,30.006393723,-96.956472784,13,"919 STEPHEN LANE, LA GRANGE, TX, 78945","Match","Exact","919 STEPHEN LN, LA GRANGE, TX, 78945",42029984,"L"
929014,"919 STEPHENS ST","GREENSBORO","NC",27406,36.0555119520001,-79.7752890419999,14,"919 STEPHENS ST, GREENSBORO, NC, 27406","Match","Exact","919 STEPHENS ST, GREENSBORO, NC, 27406",131033963,"L"
929015,"919 STERLING PL","BROOKLYN","NY",11216,40.6724272100001,-73.9482283629999,15,"919 STERLING PL, BROOKLYN, NY, 11216","Match","Exact","919 STERLING PL, BROOKLYN, NY, 11216",59079423,"L"
929016,"919 STONEYS LN","EL CAJON","CA",92021,32.8084579900001,-116.950655371,16,"919 STONEYS LN, EL CAJON, CA, 92021","Match","Non_Exact","919 STONEY'S LN, EL CAJON, CA, 92021",612880502,"L"
929017,"919 STRATHORN ROAD","CARY","NC",27519,35.796680859,-78.88621076,17,"919 STRATHORN ROAD, CARY, NC, 27519","Match","Non_Exact","919 STRATHORN DR, CARY, NC, 27519",612821559,"L"
929018,"919 SUMMIT DR","CHENEY","WA",99004,47.4978185080001,-117.582613318,18,"919 SUMMIT DR, CHENEY, WA, 99004","Match","Exact","919 SUMMIT DR, CHENEY, WA, 99004",189861764,"L"
929019,"919 SUNNINGDALE","RICHARDSON","TX",75081,32.934251929,-96.714388199,19,"919 SUNNINGDALE, RICHARDSON, TX, 75081","Match","Exact","919 SUNNINGDALE, RICHARDSON, TX, 75081",103172443,"L"
929020,"919 THE ALAMEDA","SAN JOSE","CA",95126,37.331717371,-121.907701489,20,"919 THE ALAMEDA, SAN JOSE, CA, 95126","Match","Exact","919 THE ALAMEDA, SAN JOSE, CA, 95126",638207857,"L"
929021,"919 THIRD AVENUE 37TH FLOOR","NEW YORK","NY",10022,40.75910552,-73.9683584589999,21,"919 THIRD AVENUE 37TH FLOOR, NEW YORK, NY, 10022","Match","Exact","919 3RD AVE, NEW YORK, NY, 10022",59657495,"R"
929022,"919 THIRD AVENUE","NEW YORK","NY",10022,40.75910552,-73.9683584589999,22,"919 THIRD AVENUE, NEW YORK, NY, 10022","Match","Exact","919 3RD AVE, NEW YORK, NY, 10022",59657495,"R"
929023,"919 TIMBER TRAIL","CEDAR PARK","TX",78613,30.5036502680001,-97.834025316,23,"919 TIMBER TRAIL, CEDAR PARK, TX, 78613","Match","Exact","919 TIMBER TRL, CEDAR PARK, TX, 78613",126470786,"R"
929024,"919 TOWER STREET","RALEIGH","NC",27607,35.795903615,-78.663698218,24,"919 TOWER STREET, RALEIGH, NC, 27607","Match","Exact","919 TOWER ST, RALEIGH, NC, 27607",72502442,"L"
929025,"919 TRADEWINDS COVE","PAINESVILLE","OH",44077,41.7660699420001,-81.2154504809999,25,"919 TRADEWINDS COVE, PAINESVILLE, OH, 44077","Match","Exact","919 TRADEWINDS COVE, PAINESVILLE, OH, 44077",623996484,"L"
929026,"919 TREE LODGE PARKWAY","LITHIA SPRINGS","GA",30122,33.7718409500001,-84.62716176,26,"919 TREE LODGE PARKWAY, LITHIA SPRINGS, GA, 30122","Match","Exact","919 TREE LODGE PKWY, LITHIA SPGS, GA, 30122",645837707,"R"
929027,"919 UNIVERSITY BLVD W","SILVER SPRING","MD",20901,39.034061546,-77.024066983,27,"919 UNIVERSITY BLVD W, SILVER SPRING, MD, 20901","Match","Exact","919 UNIVERSITY BLVD W, SILVER SPRING, MD, 20901",640175903,"R"
929028,"919 VALLEY RIDGE DRIVE UNIT 212","BIRMINGHAM","AL",35209,33.480265993,-86.809831995,28,"919 VALLEY RIDGE DRIVE UNIT 212, BIRMINGHAM, AL, 35209","Match","Exact","919 VALLEY RIDGE DR, BIRMINGHAM, AL, 35209",653337894,"L"
929029,"919 W 128TH PL","COMPTON","CA",90222,NA,NA,29,"919 W 128TH PL, COMPTON, CA, 90222","No_Match",NA,NA,NA,NA
929030,"919 W 16TH UNIT C","HOUSTON","TX",77008,NA,NA,30,"919 W 16TH UNIT C, HOUSTON, TX, 77008","No_Match",NA,NA,NA,NA
929031,"919 W 2ND STREET","FARMINGTON","MO",63640,37.7793327900001,-90.432695987,31,"919 W 2ND STREET, FARMINGTON, MO, 63640","Match","Exact","919 W 2ND ST, FARMINGTON, MO, 63640",62400553,"R"
929032,"919 W 3RD ST","MCGREGOR","TX",76657,31.4370694420001,-97.413142174,32,"919 W 3RD ST, MCGREGOR, TX, 76657","Match","Non_Exact","919 W 3RD ST, MC GREGOR, TX, 76657",146771616,"L"
929033,"919 W 3RD STREET","YANKTON","SD",57078,42.870480591,-97.4052538449999,33,"919 W 3RD STREET, YANKTON, SD, 57078","Match","Exact","919 W 3RD ST, YANKTON, SD, 57078",172839598,"L"
929034,"919 W CATO SPRINGS ROAD","FAYETTEVILLE","AR",72703,36.0412877750001,-94.174343793,34,"919 W CATO SPRINGS ROAD, FAYETTEVILLE, AR, 72703","Match","Non_Exact","919 W CATO SPRINGS RD, FAYETTEVILLE, AR, 72701",617846295,"L"
929035,"919 W CLAY STREET","RICHMOND","VA",23220,37.552049319,-77.448189747,35,"919 W CLAY STREET, RICHMOND, VA, 23220","Match","Exact","919 W CLAY ST, RICHMOND, VA, 23220",201539023,"L"
929036,"919 W CROSS STREET 2","YPSILANTI","MI",48197,NA,NA,36,"919 W CROSS STREET 2, YPSILANTI, MI, 48197","No_Match",NA,NA,NA,NA
929037,"919 W ERIE STREET","ALBION","MI",49224,42.242990675,-84.7684333669999,37,"919 W ERIE STREET, ALBION, MI, 49224","Match","Exact","919 W ERIE ST, ALBION, MI, 49224",11708730,"L"
929038,"919 W PARKER","WATERLOO","IA",50703,42.5167192930001,-92.355513378,38,"919 W PARKER, WATERLOO, IA, 50703","Match","Non_Exact","919 W PARKER ST, WATERLOO, IA, 50703",77251929,"L"
929039,"919 W PINE STREET APARTMENT A","UPLAND","CA",91786,NA,NA,39,"919 W PINE STREET APARTMENT A, UPLAND, CA, 91786","No_Match",NA,NA,NA,NA
929040,"919 W VIA DE GALA","SAHUARITA","AZ",85629,31.987112998,-110.985246382,40,"919 W VIA DE GALA, SAHUARITA, AZ, 85629","Match","Exact","919 W VIA DE GALA, SAHUARITA, AZ, 85629",624764039,"L"
929041,"919 W WOOD","BLOOMINGTON","IL",61701,40.4711546440001,-89.002929194,41,"919 W WOOD, BLOOMINGTON, IL, 61701","Match","Non_Exact","919 W WOOD ST, BLOOMINGTON, IL, 61701",20546009,"R"
929042,"919 WASHINGTON STREET","HOBOKEN","NJ",7030,40.747576178,-74.027799198,42,"919 WASHINGTON STREET, HOBOKEN, NJ, 7030","Match","Exact","919 WASHINGTON ST, HOBOKEN, NJ, 07030",59606929,"R"
929043,"919 WATERLOO AVE","EL CAJON","CA",92019,32.783572389,-116.922084303,43,"919 WATERLOO AVE, EL CAJON, CA, 92019","Match","Exact","919 WATERLOO AVE, EL CAJON, CA, 92019",195333924,"L"
929044,"919 WEST BLVD","MEXICO","MO",65265,39.164861413,-91.892271479,44,"919 WEST BLVD, MEXICO, MO, 65265","Match","Non_Exact","919 WEST ST, MEXICO, MO, 65265",34293707,"L"
929045,"919 WEST LOCUST STREET","ONTARIO","CA",91762,34.0446142070001,-117.666349437,45,"919 WEST LOCUST STREET, ONTARIO, CA, 91762","Match","Exact","919 W LOCUST ST, ONTARIO, CA, 91762",640049797,"L"
929046,"919 WEST MINNEHAHA PARKWAY","MINNEAPOLIS","MN",55419,44.9077612090001,-93.291218476,46,"919 WEST MINNEHAHA PARKWAY, MINNEAPOLIS, MN, 55419","Match","Exact","919 W MINNEHAHA PKWY, MINNEAPOLIS, MN, 55419",43835235,"L"
929047,"919 WHITE OAK ESTATE","VAN BUREN","AR",72956,35.506669435,-94.34790306,47,"919 WHITE OAK ESTATE, VAN BUREN, AR, 72956","Match","Exact","919 WHITE OAK EST, VAN BUREN, AR, 72956",53498307,"L"
929048,"919 WILD WOLF DRIVE","GREESBORO","NC",27406,35.9913180570001,-79.812139445,48,"919 WILD WOLF DRIVE, GREESBORO, NC, 27406","Match","Non_Exact","919 WILD WOLF DR, GREENSBORO, NC, 27406",640277608,"R"
929049,"919 WILLOW WEST DRIVE","HOUSTON","TX",77073,30.009985611,-95.414585652,49,"919 WILLOW WEST DRIVE, HOUSTON, TX, 77073","Match","Exact","919 WILLOW WEST DR, HOUSTON, TX, 77073",642868948,"L"
929050,"919 WISCONSIN AVENUE","SHEBOYGAN","WI",53081,43.7530656710001,-87.71498343,50,"919 WISCONSIN AVENUE, SHEBOYGAN, WI, 53081","Match","Exact","919 WISCONSIN AVE, SHEBOYGAN, WI, 53081",79497073,"L"
929051,"919 WOOD STREET","BRISTOL","PA",19007,40.1005770260001,-74.848825169,51,"919 WOOD STREET, BRISTOL, PA, 19007","Match","Exact","919 WOOD ST, BRISTOL, PA, 19007",134718025,"L"
929052,"919 WOODLAND","PORT WASHINGTON","WI",53074,43.3909717560001,-87.888179517,52,"919 WOODLAND, PORT WASHINGTON, WI, 53074","Match","Non_Exact","919 WOODLAND AVE, PORT WASHINGTON, WI, 53074",95901989,"L"
929053,"9190 ALKIRE STREET","ARVADA","CO",80005,39.8633646690001,-105.147641646,53,"9190 ALKIRE STREET, ARVADA, CO, 80005","Match","Exact","9190 ALKIRE ST, ARVADA, CO, 80005",177802152,"R"
929054,"9190 BISCAYNE BLVD SUITE 204","MIAMI SHORES","FL",33138,25.859829975,-80.182574556,54,"9190 BISCAYNE BLVD SUITE 204, MIAMI SHORES, FL, 33138","Match","Exact","9190 BISCAYNE BLVD, MIAMI SHORES, FL, 33138",116003776,"L"
929055,"9190 BRAXTON DRIVE","EDEN PRAIRIE","MN",55347,44.8366372830001,-93.492840176,55,"9190 BRAXTON DRIVE, EDEN PRAIRIE, MN, 55347","Match","Exact","9190 BRAXTON DR, EDEN PRAIRIE, MN, 55347",43799612,"R"
929056,"9190 CALISTA DRIVE","NORTH RIDGE","OH",44039,41.3577044410001,-82.040212662,56,"9190 CALISTA DRIVE, NORTH RIDGE, OH, 44039","Match","Non_Exact","9190 CALISTA DR, N RIDGEVILLE, OH, 44039",55439615,"R"
929057,"9190 CAMPBELL CREEK DR","COMMERCE TOWNSHIP","MI",48390,42.560183571,-83.458763243,57,"9190 CAMPBELL CREEK DR, COMMERCE TOWNSHIP, MI, 48390","Match","Exact","9190 CAMPBELL CREEK DR, COMMERCE TOWNSHIP, MI, 48390",69759455,"L"
929058,"9190 DOUBLE DIAMOND PKWY","RENO","NV",89521,39.449602161,-119.74975964,58,"9190 DOUBLE DIAMOND PKWY, RENO, NV, 89521","Match","Exact","9190 DOUBLE DIAMOND PKWY, RENO, NV, 89521",107093263,"L"
929059,"9190 E NEPTUNE DR","FLAGSTAFF","AZ",86004,35.2767207480001,-111.486062407,59,"9190 E NEPTUNE DR, FLAGSTAFF, AZ, 86004","Match","Exact","9190 E NEPTUNE DR, FLAGSTAFF, AZ, 86004",189144559,"R"
929060,"9190 E SUGARBERRY PLACE","TUCSON","AZ",85747,32.112840125,-110.796719414,60,"9190 E SUGARBERRY PLACE, TUCSON, AZ, 85747","Match","Non_Exact","9190 E SUGAR BERRY PL, TUCSON, AZ, 85747",121387023,"R"
929061,"9190 FAIRWAY DR","FOLEY","AL",36535,30.358733532,-87.644608906,61,"9190 FAIRWAY DR, FOLEY, AL, 36535","Match","Exact","9190 FAIRWAY DR, FOLEY, AL, 36535",131713879,"R"
929062,"9190 SIERRA AVE STE 202","FONTANA","CA",92335,34.086828242,-117.435718689,62,"9190 SIERRA AVE STE 202, FONTANA, CA, 92335","Match","Exact","9190 SIERRA AVE, FONTANA, CA, 92335",144645296,"R"
929063,"9190 SOLON AVENUE","CINCINNATI","OH",45242,39.2502350340001,-84.31167447,63,"9190 SOLON AVENUE, CINCINNATI, OH, 45242","Match","Non_Exact","9190 SOLON DR, CINCINNATI, OH, 45242",653477366,"L"
929064,"9190 TUOLUMNE DRIVE NO 16","SACRAMENTO","CA",95841,NA,NA,64,"9190 TUOLUMNE DRIVE NO 16, SACRAMENTO, CA, 95841","No_Match",NA,NA,NA,NA
929065,"9190 W OLYMPIC BLVD  STE 327","BEVERLY HILLS","CA",90212,34.05939392,-118.391656302,65,"9190 W OLYMPIC BLVD  STE 327, BEVERLY HILLS, CA, 90212","Match","Non_Exact","9190 W OLYMPIC BLVD, BEVERLY HILLS, CA, 90212",142719188,"L"
929066,"9190 W OLYMPIC BLVD 104","BEVERLY HILLS","CA",90212,34.05939392,-118.391656302,66,"9190 W OLYMPIC BLVD 104, BEVERLY HILLS, CA, 90212","Match","Non_Exact","9190 W OLYMPIC BLVD, BEVERLY HILLS, CA, 90212",142719188,"L"
929067,"9190 W OLYMPIC BLVD 409","BEVERLY HILLS","CA",90212,34.05939392,-118.391656302,67,"9190 W OLYMPIC BLVD 409, BEVERLY HILLS, CA, 90212","Match","Non_Exact","9190 W OLYMPIC BLVD, BEVERLY HILLS, CA, 90212",142719188,"L"
929068,"9190 W OLYMPIC BLVD STE 138","BEVERLY HILLS","CA",90212,34.05939392,-118.391656302,68,"9190 W OLYMPIC BLVD STE 138, BEVERLY HILLS, CA, 90212","Match","Non_Exact","9190 W OLYMPIC BLVD, BEVERLY HILLS, CA, 90212",142719188,"L"
929069,"9190 W OLYMPIC BLVD STE 204","BEVERLY HILLS","CA",90212,34.05939392,-118.391656302,69,"9190 W OLYMPIC BLVD STE 204, BEVERLY HILLS, CA, 90212","Match","Non_Exact","9190 W OLYMPIC BLVD, BEVERLY HILLS, CA, 90212",142719188,"L"
929070,"9190 W OLYMPIC BLVD SUITE 300","BEVERLY HILLS","CA",90212,34.05939392,-118.391656302,70,"9190 W OLYMPIC BLVD SUITE 300, BEVERLY HILLS, CA, 90212","Match","Non_Exact","9190 W OLYMPIC BLVD, BEVERLY HILLS, CA, 90212",142719188,"L"
929071,"9190 W OLYMPIC BLVD UNIT 410","BEVERLY HILLS","CA",90212,34.05939392,-118.391656302,71,"9190 W OLYMPIC BLVD UNIT 410, BEVERLY HILLS, CA, 90212","Match","Non_Exact","9190 W OLYMPIC BLVD, BEVERLY HILLS, CA, 90212",142719188,"L"
929072,"9190 WESTON DR","BRENTWOOD","TN",37027,35.9966448060001,-86.768993522,72,"9190 WESTON DR, BRENTWOOD, TN, 37027","Match","Exact","9190 WESTON DR, BRENTWOOD, TN, 37027",607905175,"R"
929073,"91906 CATCHING CREEK LANE","MYRTLE POINT","OR",97458,43.0140325460001,-124.204371213,73,"91906 CATCHING CREEK LANE, MYRTLE POINT, OR, 97458","Match","Exact","91906 CATCHING CREEK LN, MYRTLE POINT, OR, 97458",137036294,"R"
929074,"9191 BARKER CYPRESS ROAD","CYPRESS","TX",77433,29.912306087,-95.686085948,74,"9191 BARKER CYPRESS ROAD, CYPRESS, TX, 77433","Match","Exact","9191 BARKER CYPRESS RD, CYPRESS, TX, 77433",642107264,"L"
929075,"9191 BOLSA AVE STE 207","WESTMINSTER","CA",92683,NA,NA,75,"9191 BOLSA AVE STE 207, WESTMINSTER, CA, 92683","No_Match",NA,NA,NA,NA
929076,"9191 CLUBHOUSE DR","DELMAR","MD",21875,38.44517173,-75.577951519,76,"9191 CLUBHOUSE DR, DELMAR, MD, 21875","Match","Exact","9191 CLUBHOUSE DR, DELMAR, MD, 21875",617508513,"R"
929077,"9191 EAST 6000 NORTH","GRANT PARK","IL",60940,NA,NA,77,"9191 EAST 6000 NORTH, GRANT PARK, IL, 60940","No_Match",NA,NA,NA,NA
929078,"9191 FOX RUN DR","BRENTWOOD","TN",37027,36.0025484440001,-86.768898789,78,"9191 FOX RUN DR, BRENTWOOD, TN, 37027","Match","Exact","9191 FOX RUN DR, BRENTWOOD, TN, 37027",73119064,"R"
929079,"9191 FOX RUN DRIVE","BRENTWOOD","TN",37027,36.0025484440001,-86.768898789,79,"9191 FOX RUN DRIVE, BRENTWOOD, TN, 37027","Match","Exact","9191 FOX RUN DR, BRENTWOOD, TN, 37027",73119064,"R"
929080,"9191 FOXRUN DRIVE","BRENTWOOD","TN",37027,36.0025484440001,-86.768898789,80,"9191 FOXRUN DRIVE, BRENTWOOD, TN, 37027","Match","Non_Exact","9191 FOX RUN DR, BRENTWOOD, TN, 37027",73119064,"R"
929081,"9191 GARLAND APT 10210","DALLAS","TX",75218,32.828617621,-96.708479466,81,"9191 GARLAND APT 10210, DALLAS, TX, 75218","Match","Non_Exact","9191 GARLAND RD, DALLAS, TX, 75218",103200942,"L"
929082,"9191 GARLAND RD UNIT 117","DALLAS","TX",75218,32.828617621,-96.708479466,82,"9191 GARLAND RD UNIT 117, DALLAS, TX, 75218","Match","Exact","9191 GARLAND RD, DALLAS, TX, 75218",103200942,"L"
929083,"9191 GARLAND ROAD 2310","DALLAS","TX",75218,32.828617621,-96.708479466,83,"9191 GARLAND ROAD 2310, DALLAS, TX, 75218","Match","Exact","9191 GARLAND RD, DALLAS, TX, 75218",103200942,"L"
929084,"9191 HAWKEYE DRIVE","JACKSONVILLE","FL",32221,30.29229027,-81.806979073,84,"9191 HAWKEYE DRIVE, JACKSONVILLE, FL, 32221","Match","Exact","9191 HAWKEYE DR, JACKSONVILLE, FL, 32221",637648258,"L"
929085,"9191 HOLLY LANE N","MAPLE GROVE","MN",55311,45.121572444,-93.496081396,85,"9191 HOLLY LANE N, MAPLE GROVE, MN, 55311","Match","Exact","9191 HOLLY LN N, MAPLE GROVE, MN, 55311",619803409,"L"
929086,"9191 INDIANTOWN ROAD","KING GEORGE","VA",22485,38.2860165820001,-77.175735362,86,"9191 INDIANTOWN ROAD, KING GEORGE, VA, 22485","Match","Exact","9191 INDIANTOWN RD, KING GEORGE, VA, 22485",605373856,"R"
929087,"9191 METCALF ROAD","WAITE HILL","OH",44094,41.6216043970001,-81.3716595829999,87,"9191 METCALF ROAD, WAITE HILL, OH, 44094","Match","Exact","9191 METCALF RD, WAITE HILL, OH, 44094",137463629,"L"
929088,"9191 MOORE RD","PLEASANT GROVE","CA",95668,38.86787194,-121.46055887,88,"9191 MOORE RD, PLEASANT GROVE, CA, 95668","Match","Exact","9191 MOORE RD, PLEASANT GROVE, CA, 95668",106762467,"R"
929089,"9191 N KATHLEEN TERRACE","DUNELLON","FL",34430,28.996200236,-82.562593914,89,"9191 N KATHLEEN TERRACE, DUNELLON, FL, 34430","Match","Non_Exact","9191 N KATHLEEN TER, DUNNELLON, FL, 34433",610762930,"L"
929090,"9191 NASHVILLE ROAD","BOWLING GREEN","KY",42101,36.8832665,-86.525640461,90,"9191 NASHVILLE ROAD, BOWLING GREEN, KY, 42101","Match","Exact","9191 NASHVILLE RD, BOWLING GREEN, KY, 42101",649957252,"L"
929091,"9191 R G SKINNER PKWY STE 703","JACKSONVILLE","FL",32256,NA,NA,91,"9191 R G SKINNER PKWY STE 703, JACKSONVILLE, FL, 32256","No_Match",NA,NA,NA,NA
929092,"9191 SW 138 PL","MIAMI","FL",33186,25.6838841090001,-80.42280188,92,"9191 SW 138 PL, MIAMI, FL, 33186","Match","Exact","9191 SW 138TH PL, MIAMI, FL, 33186",642153729,"R"
929093,"9191 WESTMINSTER AVE STE 204","GARDEN GROVE","CA",92844,33.7595245740001,-117.965569958,93,"9191 WESTMINSTER AVE STE 204, GARDEN GROVE, CA, 92844","Match","Non_Exact","9191 WESTMINSTER BLVD, GARDEN GROVE, CA, 92844",635461987,"L"
929094,"9192 EAST 53RD AVENUE","DENVER","CO",80238,39.794473408,-104.883871153,94,"9192 EAST 53RD AVENUE, DENVER, CO, 80238","Match","Exact","9192 E 53RD AVE, DENVER, CO, 80238",645173144,"R"
929095,"9192 FLETCHER TRACE PARKWAY","LAKELAND","TN",38016,35.209735499,-89.7561156679999,95,"9192 FLETCHER TRACE PARKWAY, LAKELAND, TN, 38016","Match","Non_Exact","9192 FLETCHER TRACE PKWY, LAKELAND, TN, 38002",72940751,"R"
929096,"9192 HERITAGE RD","CARLISLE","OH",45005,39.5868568820001,-84.292855733,96,"9192 HERITAGE RD, CARLISLE, OH, 45005","Match","Exact","9192 HERITAGE RD, CARLISLE, OH, 45005",159017569,"R"
929097,"9192 JULIE BETH ST","CYPRESS","CA",90630,33.8290235640001,-118.049744414,97,"9192 JULIE BETH ST, CYPRESS, CA, 90630","Match","Exact","9192 JULIE BETH ST, CYPRESS, CA, 90630",144254222,"L"
929098,"9192 SHAD LANE","SANDY","UT",84093,40.5838886270001,-111.825541402,98,"9192 SHAD LANE, SANDY, UT, 84093","Match","Non_Exact","9192 S SHAD LN, SANDY, UT, 84093",176109557,"R"
929099,"9192 SPRING RUN BLVD","BONITA SPRINGS","MA",34135,NA,NA,99,"9192 SPRING RUN BLVD, BONITA SPRINGS, MA, 34135","No_Match",NA,NA,NA,NA
929100,"9192 STONEVIEW ST","DALLAS","TX",75232,NA,NA,100,"9192 STONEVIEW ST, DALLAS, TX, 75232","No_Match",NA,NA,NA,NA
929101,"9193 CASCADE FALLS DRIVE","BRISTOW","VA",20136,38.75996575,-77.5560553779999,101,"9193 CASCADE FALLS DRIVE, BRISTOW, VA, 20136","Match","Exact","9193 CASCADE FALLS DR, BRISTOW, VA, 20136",619921392,"R"
929102,"9193 N W OAK","ALEXANDRIA","IN",46001,NA,NA,102,"9193 N W OAK, ALEXANDRIA, IN, 46001","Tie",NA,NA,NA,NA
929103,"9193 NC HWY 49 NORTH","ROXBORO","NC",27574,36.5210187770001,-78.790504303,103,"9193 NC HWY 49 NORTH, ROXBORO, NC, 27574","Match","Non_Exact","9193 STATE HWY 49, ROXBORO, NC, 27574",77098901,"R"
929104,"9193 S WILD ACRES DR","WEST JORDAN","UT",84081,40.5839257040001,-112.012876588,104,"9193 S WILD ACRES DR, WEST JORDAN, UT, 84081","Match","Exact","9193 WILD ACRES DR, WEST JORDAN, UT, 84081",611643281,"L"
929105,"9193 TELFER RUN","ORLANDO","FL",32817,28.5886548820001,-81.259378694,105,"9193 TELFER RUN, ORLANDO, FL, 32817","Match","Exact","9193 TELFER RUN, ORLANDO, FL, 32817",94340942,"R"
929106,"9193 WEDGEFIELD DRIVE","SANDY","UT",84093,40.584377234,-111.81210431,106,"9193 WEDGEFIELD DRIVE, SANDY, UT, 84093","Match","Exact","9193 WEDGEFIELD DR, SANDY, UT, 84093",176157491,"R"
929107,"9194 SNIPES CIRCLE","JONESBORO","GA",30236,NA,NA,107,"9194 SNIPES CIRCLE, JONESBORO, GA, 30236","No_Match",NA,NA,NA,NA
929108,"9194 W GOLF RD","NILES","IL",60714,42.0541097330001,-87.854882959,108,"9194 W GOLF RD, NILES, IL, 60714","Match","Exact","9194 W GOLF RD, NILES, IL, 60714",111730571,"R"
929109,"9195 70TH AVE SE","ASHLEY","ND",58413,46.0869416530001,-98.922717176,109,"9195 70TH AVE SE, ASHLEY, ND, 58413","Match","Exact","9195 70TH AVE SE, ASHLEY, ND, 58413",204416102,"L"
929110,"9195 BUD SMITH RD","WAKE FOREST","NC",27587,36.0228972680001,-78.5539607819999,110,"9195 BUD SMITH RD, WAKE FOREST, NC, 27587","Match","Exact","9195 BUD SMITH RD, WAKE FOREST, NC, 27587",72664460,"L"
929111,"9195 COUNTY RD 17","BOWBELLS","ND",58721,48.73634896,-102.218133167,111,"9195 COUNTY RD 17, BOWBELLS, ND, 58721","Match","Exact","9195 CO RD 17, BOWBELLS, ND, 58721",200036269,"L"
929112,"9195 GRAMFORD ST","COLUMBUS","OH",43240,40.1547532650001,-82.9851181179999,112,"9195 GRAMFORD ST, COLUMBUS, OH, 43240","Match","Exact","9195 GRAMFORD ST, COLUMBUS, OH, 43240",639287746,"L"
929113,"9195 HESSEY RD","IRON RIVER","WI",54847,46.675332956,-91.379480497,113,"9195 HESSEY RD, IRON RIVER, WI, 54847","Match","Exact","9195 HESSEY RD, IRON RIVER, WI, 54847",194307476,"R"
929114,"9195 HICKORY DR","OLIVE BRANCH","MS",38654,34.990121274,-89.821680253,114,"9195 HICKORY DR, OLIVE BRANCH, MS, 38654","Match","Exact","9195 HICKORY DR, OLIVE BRANCH, MS, 38654",91834894,"L"
929115,"9195 IL ROUTE 72","KINGSTON","IL",60145,42.09973058,-88.770872953,115,"9195 IL ROUTE 72, KINGSTON, IL, 60145","Match","Non_Exact","9195 STATE RTE 72, KINGSTON, IL, 60145",642648063,"L"
929116,"9195 LEWIS AVE","TEMPERANCE","MI",48182,41.7829412400001,-83.56896096,116,"9195 LEWIS AVE, TEMPERANCE, MI, 48182","Match","Exact","9195 LEWIS AVE, TEMPERANCE, MI, 48182",40483087,"L"
929117,"9195 LONG ROAD","VERSAILLES","OH",45380,40.2407211170001,-84.4675453789999,117,"9195 LONG ROAD, VERSAILLES, OH, 45380","Match","Exact","9195 LONG RD, VERSAILLES, OH, 45380",54539633,"R"
929118,"9195 MORNING RIDGE RD SUITE 102","CORDOVA","TN",38016,35.203766579,-89.756364318,118,"9195 MORNING RIDGE RD SUITE 102, CORDOVA, TN, 38016","Match","Exact","9195 MORNING RIDGE RD, CORDOVA, TN, 38016",72977392,"L"
929119,"9195 PORTLAND RD NE","BROOKS","OR",97305,45.0509640660001,-122.951474777,119,"9195 PORTLAND RD NE, BROOKS, OR, 97305","Match","Exact","9195 PORTLAND RD NE, BROOKS, OR, 97305",156266615,"R"
929120,"9195 POTTER ROAD","FLUSHING","MI",48433,43.0451942450001,-83.859642514,120,"9195 POTTER ROAD, FLUSHING, MI, 48433","Match","Non_Exact","9195 W POTTER RD, FLUSHING, MI, 48433",69561412,"L"
929121,"9195 S MEYER LN","OAK CREEK","WI",53154,42.876906627,-87.9412422029999,121,"9195 S MEYER LN, OAK CREEK, WI, 53154","Match","Exact","9195 S MEYER LN, OAK CREEK, WI, 53154",77764514,"L"
929122,"9195 SAN LUIS OBISPO LANE","RIVERSIDE","CA",92508,33.8836568500001,-117.317314134,122,"9195 SAN LUIS OBISPO LANE, RIVERSIDE, CA, 92508","Match","Exact","9195 SAN LUIS OBISPO LN, RIVERSIDE, CA, 92508",633953627,"L"
929123,"9195 SOUTH MEYER LANE APT 10104","OAK CREEK","WI",53154,42.876907884,-87.9412422519999,123,"9195 SOUTH MEYER LANE APT 10104, OAK CREEK, WI, 53154","Match","Exact","9195 S MEYER LN, OAK CREEK, WI, 53154",77764514,"L"
929124,"9195 SW 114TH ST","MIAMI","FL",33176,25.6639414960001,-80.3427536519999,124,"9195 SW 114TH ST, MIAMI, FL, 33176","Match","Exact","9195 SW 114TH ST, MIAMI, FL, 33176",115981304,"R"
929125,"9195 YARROW LANE","MANASSAS","VA",20110,38.741261395,-77.4788480299999,125,"9195 YARROW LANE, MANASSAS, VA, 20110","Match","Exact","9195 YARROW LN, MANASSAS, VA, 20110",76535321,"L"
929126,"91956 PUHIKANI ST","EWA BEACH","HI",96706,NA,NA,126,"91956 PUHIKANI ST, EWA BEACH, HI, 96706","No_Match",NA,NA,NA,NA
929127,"9196 FLINT","CASPER","WY",82601,NA,NA,127,"9196 FLINT, CASPER, WY, 82601","No_Match",NA,NA,NA,NA
929128,"9196 HIDDEN BLOSSOM LN UNIT 502","FISH CREEK","WI",54212,45.1171691050001,-87.240232065,128,"9196 HIDDEN BLOSSOM LN UNIT 502, FISH CREEK, WI, 54212","Match","Exact","9196 HIDDEN BLOSSOM LN, FISH CREEK, WI, 54212",167268870,"L"
929129,"9196 SE KARIN ST","HOBE SOUND","FL",33455,27.0465794580001,-80.129862375,129,"9196 SE KARIN ST, HOBE SOUND, FL, 33455","Match","Exact","9196 SE KARIN ST, HOBE SOUND, FL, 33455",120411255,"L"
929130,"91966 DEADWOOD CK RD","DEADWOOD","OR",97430,44.1451840220001,-123.725080066,130,"91966 DEADWOOD CK RD, DEADWOOD, OR, 97430","Match","Exact","91966 DEADWOOD CREEK RD, DEADWOOD, OR, 97430",178180081,"L"
929131,"9197 CAMBRIAN COMMONS DRIVE","COLUMBUS","OH",43240,40.153010389,-82.9762759399999,131,"9197 CAMBRIAN COMMONS DRIVE, COLUMBUS, OH, 43240","Match","Exact","9197 CAMBRIAN COMMONS DR, COLUMBUS, OH, 43240",213002138,"R"
929132,"9197 CONGER ROAD","LEAF RIVER","IL",61047,42.1479236260001,-89.317173015,132,"9197 CONGER ROAD, LEAF RIVER, IL, 61047","Match","Non_Exact","9197 N CONGER RD, LEAF RIVER, IL, 61047",52323180,"L"
929133,"9197 FONTAINEBLEAU BLVD","MIAMI","FL",33172,25.773624845,-80.3429397799999,133,"9197 FONTAINEBLEAU BLVD, MIAMI, FL, 33172","Match","Exact","9197 FONTAINEBLEAU BLVD, MIAMI, FL, 33172",629016745,"L"
929134,"9198 CLUBHOUSE DRIVE","DELMAR","MD",21875,NA,NA,134,"9198 CLUBHOUSE DRIVE, DELMAR, MD, 21875","No_Match",NA,NA,NA,NA
929135,"9198 ESTEBURY CIRCLE","COLORADO SPRINGS","CO",80920,38.958821631,-104.743080524,135,"9198 ESTEBURY CIRCLE, COLORADO SPRINGS, CO, 80920","Match","Exact","9198 ESTEBURY CIR, CO SPGS, CO, 80920",617227983,"L"
929136,"9198 WAYNE BROWN DRIVE","POWELL","OH",43065,40.1668287740001,-83.0993651479999,136,"9198 WAYNE BROWN DRIVE, POWELL, OH, 43065","Match","Exact","9198 WAYNE BROWN DR, POWELL, OH, 43065",24597754,"L"
929137,"91988 RED HOUSE LN APT 3","PAISLEY","OR",97636,42.720314398,-120.500341441,137,"91988 RED HOUSE LN APT 3, PAISLEY, OR, 97636","Match","Non_Exact","91988 REDHOUSE LN, PAISLEY, OR, 97636",177929124,"R"
929138,"9199 BURBANK ROAD","WOOSTER","OH",44691,40.9104081080001,-81.979891256,138,"9199 BURBANK ROAD, WOOSTER, OH, 44691","Match","Exact","9199 BURBANK RD, WOOSTER, OH, 44691",647841336,"R"
929139,"9199 N BETHANNE DRIVE","BROWN DEER","WI",53223,43.1846470240001,-87.986000179,139,"9199 N BETHANNE DRIVE, BROWN DEER, WI, 53223","Match","Exact","9199 N BETHANNE DR, BROWN DEER, WI, 53223",77767620,"L"
929140,"9199 N SAYBROOK DRIVE APT 218","FRESNO","CA",93720,NA,NA,140,"9199 N SAYBROOK DRIVE APT 218, FRESNO, CA, 93720","No_Match",NA,NA,NA,NA
929141,"9199 NOBLET RD","DAVISON","MI",48423,42.969304148,-83.529092137,141,"9199 NOBLET RD, DAVISON, MI, 48423","Match","Exact","9199 NOBLET RD, DAVISON, MI, 48423",69586374,"R"
929142,"9199 PEACH BLOSSOM CT","CINCINNATI","OH",45231,39.232110871,-84.518758329,142,"9199 PEACH BLOSSOM CT, CINCINNATI, OH, 45231","Match","Non_Exact","9199 PEACHBLOSSOM CT, CINCINNATI, OH, 45231",103920130,"L"
929143,"9199 SHADY MORNING LANE","CORDOVA","TN",38016,NA,NA,143,"9199 SHADY MORNING LANE, CORDOVA, TN, 38016","No_Match",NA,NA,NA,NA
929144,"9199 SPRINGHILL LANE","GREENBELT","MD",20770,39.0043570440001,-76.902679156,144,"9199 SPRINGHILL LANE, GREENBELT, MD, 20770","Match","Exact","9199 SPRINGHILL LN, GREENBELT, MD, 20770",76326699,"R"
929145,"9199 WILLIAMS RD","ROGERS","AR",72756,36.3462631,-94.050347722,145,"9199 WILLIAMS RD, ROGERS, AR, 72756","Match","Exact","9199 WILLIAMS RD, ROGERS, AR, 72756",47868022,"L"
929146,"919A POPLAR ST","PHILADELPHIA","PA",19123,39.968361906,-75.1522221929999,146,"919A POPLAR ST, PHILADELPHIA, PA, 19123","Match","Exact","919 POPLAR ST, PHILADELPHIA, PA, 19123",131422147,"R"
929147,"91A HARBOR ST","PEPPERELL","MA",1463,42.6512763010001,-71.651336992,147,"91A HARBOR ST, PEPPERELL, MA, 1463","Match","Exact","91 HARBOR ST, PEPPERELL, MA, 01463",647975198,"L"
929148,"91A HARBOR STREET","PEPPERELL","MA",1463,42.6512763010001,-71.651336992,148,"91A HARBOR STREET, PEPPERELL, MA, 1463","Match","Exact","91 HARBOR ST, PEPPERELL, MA, 01463",647975198,"L"
929149,"91F CALLE KENNEDY","DORADO","PR",646,18.4784252430001,-66.2673866499999,149,"91F CALLE KENNEDY, DORADO, PR, 646","Match","Non_Exact","91 CLL KENNEDY, DORADO, PR, 00646",206226107,"L"
929150,"92 1/2 WOODWARD ST","JERSEY CITY","NJ",7304,40.711132064,-74.0672410769999,150,"92 1/2 WOODWARD ST, JERSEY CITY, NJ, 7304","Match","Exact","92 WOODWARD ST, JERSEY CITY, NJ, 07304",59604810,"R"
929151,"92 1160 OUEONANI STEET","KAPOLEI","HI",96707,NA,NA,151,"92 1160 OUEONANI STEET, KAPOLEI, HI, 96707","No_Match",NA,NA,NA,NA
929152,"92 1218 PALAHIA ST Y204","KAPOLEI","HI",96707,NA,NA,152,"92 1218 PALAHIA ST Y204, KAPOLEI, HI, 96707","No_Match",NA,NA,NA,NA
929153,"92 1250 MAKAKILO DRIVE","KAPOLEI","HI",96707,NA,NA,153,"92 1250 MAKAKILO DRIVE, KAPOLEI, HI, 96707","No_Match",NA,NA,NA,NA
929154,"92 31 57TH AVENUE","ELMHURST","NY",11373,NA,NA,154,"92 31 57TH AVENUE, ELMHURST, NY, 11373","No_Match",NA,NA,NA,NA
929155,"92 6TH AVENUE APARTMENT 4","BROOKLYN","NY",11217,40.6795109190001,-73.9752096679999,155,"92 6TH AVENUE APARTMENT 4, BROOKLYN, NY, 11217","Match","Exact","92 6TH AVE, BROOKLYN, NY, 11217",59077728,"R"
929156,"92 7TH AVENUE APARTMENT 8","BROOKLYN","NY",8809,NA,NA,156,"92 7TH AVENUE APARTMENT 8, BROOKLYN, NY, 8809","No_Match",NA,NA,NA,NA
929157,"92 8527 KING KAMEHAMEHA BLVD","OCEAN VIEW","HI",96737,NA,NA,157,"92 8527 KING KAMEHAMEHA BLVD, OCEAN VIEW, HI, 96737","No_Match",NA,NA,NA,NA
929158,"92 AIRPORT BLVD","FREEDOM","CA",95019,36.9385832240001,-121.777786883,158,"92 AIRPORT BLVD, FREEDOM, CA, 95019","Match","Exact","92 AIRPORT BLVD, FREEDOM, CA, 95019",647487673,"R"
929159,"92 ALLEN STREET","WALPOLE","MA",2081,42.13677562,-71.263241147,159,"92 ALLEN STREET, WALPOLE, MA, 2081","Match","Exact","92 ALLEN ST, WALPOLE, MA, 02081",87276259,"R"
929160,"92 ALMOND DRIVE","TOMS RIVER","NJ",8753,40.015272817,-74.1371344679999,160,"92 ALMOND DRIVE, TOMS RIVER, NJ, 8753","Match","Exact","92 ALMOND DR, TOMS RIVER, NJ, 08753",203727920,"L"
929161,"92 ANNAPOLIS ROAD","PENNSVILLE","NJ",8070,39.645452189,-75.523473882,161,"92 ANNAPOLIS ROAD, PENNSVILLE, NJ, 8070","Match","Exact","92 ANNAPOLIS RD, PENNSVILLE, NJ, 08070",174411633,"L"
929162,"92 APPLETON LN","RICHLANDS","NC",28574,34.829518411,-77.570147729,162,"92 APPLETON LN, RICHLANDS, NC, 28574","Match","Exact","92 APPLETON LN, RICHLANDS, NC, 28574",620021273,"R"
929163,"92 ARBORWOOD DR","LANCASTER","NY",14086,42.9232409850001,-78.6553531599999,163,"92 ARBORWOOD DR, LANCASTER, NY, 14086","Match","Exact","92 ARBORWOOD DR, LANCASTER, NY, 14086",648787862,"L"
929164,"92 ARCH STREET","KEENE","NH",3431,42.9380681120001,-72.3222047039999,164,"92 ARCH STREET, KEENE, NH, 3431","Match","Exact","92 ARCH ST, KEENE, NH, 03431",124078386,"R"
929165,"92 ARGILE CT","FRANKLIN","OH",45005,39.5682042030001,-84.28775101,165,"92 ARGILE CT, FRANKLIN, OH, 45005","Match","Exact","92 ARGILE CT, FRANKLIN, OH, 45005",159026250,"L"
929166,"92 ARLINGTON AVE","JJERSEY CITY","NJ",7305,40.7052711430001,-74.076547993,166,"92 ARLINGTON AVE, JJERSEY CITY, NJ, 7305","Match","Non_Exact","92 ARLINGTON AVE, JERSEY CITY, NJ, 07305",59604460,"R"
929167,"92 ASH ST","GARDNER","MA",1440,42.579164689,-72.001496899,167,"92 ASH ST, GARDNER, MA, 1440","Match","Exact","92 ASH ST, GARDNER, MA, 01440",636370869,"L"
929168,"92 AUBINWOOD ROAD","AMHERST","MA",1002,42.370829745,-72.47690632,168,"92 AUBINWOOD ROAD, AMHERST, MA, 1002","Match","Exact","92 AUBINWOOD RD, AMHERST, MA, 01002",39853316,"L"
929169,"92 AUGUSTA NATIONAL DR","CUMMAQUID","MA",2637,NA,NA,169,"92 AUGUSTA NATIONAL DR, CUMMAQUID, MA, 2637","No_Match",NA,NA,NA,NA
929170,"92 AYERS POINT ROAD","OLD SAYBROOK","CT",6475,41.3279768510001,-72.367137703,170,"92 AYERS POINT ROAD, OLD SAYBROOK, CT, 6475","Match","Exact","92 AYERS POINT RD, OLD SAYBROOK, CT, 06475",113893024,"R"
929171,"92 BAHAMA REEF","NOVATO","CA",94949,38.0796216470001,-122.509302193,171,"92 BAHAMA REEF, NOVATO, CA, 94949","Match","Exact","92 BAHAMA REEF, NOVATO, CA, 94949",192762859,"R"
929172,"92 BALSAM RD","LUMBERTON","NJ",8048,39.9537843040001,-74.8158166429999,172,"92 BALSAM RD, LUMBERTON, NJ, 8048","Match","Exact","92 BALSAM RD, LUMBERTON, NJ, 08048",653275384,"R"
929173,"92 BARBOURTOWN ROAD","CANTON","CT",6019,41.868536346,-72.916114528,173,"92 BARBOURTOWN ROAD, CANTON, CT, 6019","Match","Exact","92 BARBOURTOWN RD, CANTON, CT, 06019",604948147,"L"
929174,"92 BARNES LANES","CALVERT","AL",36513,31.157585564,-88.009251636,174,"92 BARNES LANES, CALVERT, AL, 36513","Match","Non_Exact","92 BARNES RD, CALVERT, AL, 36513",62243928,"L"
929175,"92 BARRETTE LN","WENDELL","NC",27591,35.6889363780001,-78.347659358,175,"92 BARRETTE LN, WENDELL, NC, 27591","Match","Exact","92 BARRETTE LN, WENDELL, NC, 27591",26560438,"L"
929176,"92 BARTHOLOMEW HILL RD","GOSHEN","CT",6756,41.848734318,-73.2760885019999,176,"92 BARTHOLOMEW HILL RD, GOSHEN, CT, 6756","Match","Exact","92 BARTHOLOMEW HILL RD, GOSHEN, CT, 06756",649725571,"R"
929177,"92 BARTON ST","PRESQUE ISLE","ME",4769,46.6766305180001,-68.006250795,177,"92 BARTON ST, PRESQUE ISLE, ME, 4769","Match","Exact","92 BARTON ST, PRESQUE ISLE, ME, 04769",636223149,"R"
929178,"92 BAYVIEW DR","SOUTH SAN FRANCISCO","CA",94080,37.668924686,-122.413070131,178,"92 BAYVIEW DR, SOUTH SAN FRANCISCO, CA, 94080","Match","Exact","92 BAYVIEW DR, S SAN FRAN, CA, 94080",604989831,"R"
929179,"92 BEAN RD UNIT 2","FREMONT","NH",3044,42.961406772,-71.093591429,179,"92 BEAN RD UNIT 2, FREMONT, NH, 3044","Match","Exact","92 BEAN RD, FREMONT, NH, 03044",635526769,"L"
929180,"92 BECK","WOODBINE","GA",31569,30.8487186510001,-81.650308173,180,"92 BECK, WOODBINE, GA, 31569","Match","Non_Exact","92 BECK ST, WOODBINE, GA, 31569",627206095,"L"
929181,"92 BELMONT ST","LOWELL","MA",1851,42.6313978750001,-71.3359034169999,181,"92 BELMONT ST, LOWELL, MA, 1851","Match","Exact","92 BELMONT ST, LOWELL, MA, 01851",86876312,"L"
929182,"92 BENTLY AVENUE","JERSEY CITY","NJ",7304,40.7211666790001,-74.077426018,182,"92 BENTLY AVENUE, JERSEY CITY, NJ, 7304","Match","Non_Exact","92 BENTLEY AVE, JERSEY CITY, NJ, 07304",59604165,"R"
929183,"92 BERKELEY DR","WAYNESBORO","VA",22980,38.0896637480001,-78.9336867389999,183,"92 BERKELEY DR, WAYNESBORO, VA, 22980","Match","Exact","92 BERKELEY DR, WAYNESBORO, VA, 22980",98843543,"L"
929184,"92 BIG PEACE ROAD","FAIRFIELD","NJ",7004,40.881936985,-74.319847935,184,"92 BIG PEACE ROAD, FAIRFIELD, NJ, 7004","Match","Non_Exact","92 BIG PIECE RD, FAIRFIELD, NJ, 07004",638995750,"R"
929185,"92 BLACK BROOK ROAD","SOUTH EASTON","MA",2375,42.0421981440001,-71.114569334,185,"92 BLACK BROOK ROAD, SOUTH EASTON, MA, 2375","Match","Exact","92 BLACK BROOK RD, SOUTH EASTON, MA, 02375",46779870,"L"
929186,"92 BLAUCH LN","FREDERICKSBURG","PA",17206,40.4828756300001,-76.4795122959999,186,"92 BLAUCH LN, FREDERICKSBURG, PA, 17206","Match","Non_Exact","92 BLAUCH LN, FREDERICKSBURG, PA, 17026",80681385,"R"
929187,"92 BOONE STREET","SPRUCE PINE","NC",28777,35.908998293,-82.077363081,187,"92 BOONE STREET, SPRUCE PINE, NC, 28777","Match","Exact","92 BOONE ST, SPRUCE PINE, NC, 28777",37292062,"R"
929188,"92 BOYD STREET","NEWARK","NJ",7103,40.7311018670001,-74.1916661399999,188,"92 BOYD STREET, NEWARK, NJ, 7103","Match","Exact","92 BOYD ST, NEWARK, NJ, 07103",618467737,"L"
929189,"92 BRENTON STREET","LITCHFIELD","NH",3052,42.874084666,-71.445164554,189,"92 BRENTON STREET, LITCHFIELD, NH, 3052","Match","Exact","92 BRENTON ST, LITCHFIELD, NH, 03052",113578541,"L"
929190,"92 BRIDGE ST","EAST FALMOUTH","MA",2536,41.5487895540001,-70.575001877,190,"92 BRIDGE ST, EAST FALMOUTH, MA, 2536","Match","Exact","92 BRIDGE ST, EAST FALMOUTH, MA, 02536",121573481,"R"
929191,"92 BRIDGE STREET","EAST FALMOUTH","MA",2536,41.5487895540001,-70.575001877,191,"92 BRIDGE STREET, EAST FALMOUTH, MA, 2536","Match","Exact","92 BRIDGE ST, EAST FALMOUTH, MA, 02536",121573481,"R"
929192,"92 BROWN ST","PAWTUCKET","RI",2861,NA,NA,192,"92 BROWN ST, PAWTUCKET, RI, 2861","No_Match",NA,NA,NA,NA
929193,"92 BUENA VISTA AVENUE LOFT 314","YONKERS","NY",10701,40.9320668440001,-73.9030638799999,193,"92 BUENA VISTA AVENUE LOFT 314, YONKERS, NY, 10701","Match","Exact","92 BUENA VISTA AVE, YONKERS, NY, 10701",139804442,"L"
929194,"92 BURLINGTON  AVENUE","PATERSON","NJ",7502,40.9138537650001,-74.1976793059999,194,"92 BURLINGTON  AVENUE, PATERSON, NJ, 7502","Match","Exact","92 BURLINGTON AVE, PATERSON, NJ, 07502",65260654,"R"
929195,"92 BURNETT AVE","MAPLEWOOD","NJ",30080,40.719948828,-74.260731242,195,"92 BURNETT AVE, MAPLEWOOD, NJ, 30080","Match","Non_Exact","92 BURNETT AVE, MAPLEWOOD, NJ, 07040",63495861,"L"
929196,"92 BURNEY LANE","FORT THOMAS","KY",41075,39.068990442,-84.454990375,196,"92 BURNEY LANE, FORT THOMAS, KY, 41075","Match","Exact","92 BURNEY LN, FORT THOMAS, KY, 41075",104448751,"L"
929197,"92 BUTLER DR","SO. BURLINGTON","VT",5403,44.430996818,-73.1597921919999,197,"92 BUTLER DR, SO. BURLINGTON, VT, 5403","Match","Exact","92 BUTLER DR, S BURLINGTON, VT, 05403",135863974,"L"
929198,"92 BYAM RD","NEW BOSTON","NH",3070,42.991733169,-71.660755663,198,"92 BYAM RD, NEW BOSTON, NH, 3070","Match","Exact","92 BYAM RD, NEW BOSTON, NH, 03070",113579888,"R"
929199,"92 CANDLELIGHT LN","WILLACOOCHEE","GA",31650,31.441878697,-83.088499858,199,"92 CANDLELIGHT LN, WILLACOOCHEE, GA, 31650","Match","Exact","92 CANDLELIGHT LN, WILLACOOCHEE, GA, 31650",6935830,"R"
929200,"92 CANDLEWOOD LANE","WHITEVILLE","NC",28472,34.3775931010001,-78.709399379,200,"92 CANDLEWOOD LANE, WHITEVILLE, NC, 28472","Match","Exact","92 CANDLEWOOD LN, WHITEVILLE, NC, 28472",64150160,"R"
929201,"92 CARPENTER STREET","NORWICH","VT",5055,43.714659398,-72.3039127659999,201,"92 CARPENTER STREET, NORWICH, VT, 5055","Match","Exact","92 CARPENTER ST, NORWICH, VT, 05055",139264315,"L"
929202,"92 CARSON STREET","EMPORIUM","PA",15834,41.506841438,-78.2463021949999,202,"92 CARSON STREET, EMPORIUM, PA, 15834","Match","Exact","92 CARSON ST, EMPORIUM, PA, 15834",647444556,"R"
929203,"92 CATHARINE STREET","POUGHKEEPSIE","NY",12601,41.7065980350001,-73.922931953,203,"92 CATHARINE STREET, POUGHKEEPSIE, NY, 12601","Match","Exact","92 CATHARINE ST, POUGHKEEPSIE, NY, 12601",4167751,"L"
929204,"92 CAYUGA AVE","MASHPEE","MA",2649,41.625308472,-70.517874878,204,"92 CAYUGA AVE, MASHPEE, MA, 2649","Match","Exact","92 CAYUGA AVE, MASHPEE, MA, 02649",121572317,"L"
929205,"92 CEDAR DRIVE","COLTS NECK","NJ",7722,40.2953514180001,-74.198632473,205,"92 CEDAR DRIVE, COLTS NECK, NJ, 7722","Match","Exact","92 CEDAR DR, COLTS NECK, NJ, 07722",90506521,"L"
929206,"92 CEDAR STREET","COLONIA","NJ",7067,40.602945963,-74.316766495,206,"92 CEDAR STREET, COLONIA, NJ, 7067","Match","Exact","92 CEDAR ST, COLONIA, NJ, 07067",60368882,"L"
929207,"92 CENTRAL AVENUE","RENSSELAER","NY",12144,42.6552594570001,-73.728777389,207,"92 CENTRAL AVENUE, RENSSELAER, NY, 12144","Match","Exact","92 CENTRAL AVE, RENSSELAER, NY, 12144",35727580,"R"
929208,"92 CHANTECLAIRE CIRCLE","GULF BREEZE","FL",32561,30.368753274,-87.175266417,208,"92 CHANTECLAIRE CIRCLE, GULF BREEZE, FL, 32561","Match","Exact","92 CHANTECLAIRE CIR, GULF BREEZE, FL, 32561",74581313,"R"
929209,"92 CHELAN STREET","HARTLINE","WA",99135,NA,NA,209,"92 CHELAN STREET, HARTLINE, WA, 99135","No_Match",NA,NA,NA,NA
929210,"92 CHERRY ST","MILFORD","CT",6460,41.2271071120001,-73.0528015899999,210,"92 CHERRY ST, MILFORD, CT, 6460","Match","Exact","92 CHERRY ST, MILFORD, CT, 06460",3714729,"L"
929211,"92 CHESTNUT LN","MILFORD","CT",6461,41.23903597,-73.085319103,211,"92 CHESTNUT LN, MILFORD, CT, 6461","Match","Exact","92 CHESTNUT LN, MILFORD, CT, 06461",3752045,"R"
929212,"92 CHILDERS RD","CLAY CITY","KY",40312,37.8318024610001,-83.9414688209999,212,"92 CHILDERS RD, CLAY CITY, KY, 40312","Match","Exact","92 CHILDERS RD, CLAY CITY, KY, 40312",32060392,"L"
929213,"92 CLARIDGE PL","COLONIA","NJ",7067,40.6048600670001,-74.318927418,213,"92 CLARIDGE PL, COLONIA, NJ, 7067","Match","Exact","92 CLARIDGE PL, COLONIA, NJ, 07067",60272414,"R"
929214,"92 CLEMENS DRIVE","DILLSBURG","PA",17019,40.1119024830001,-77.031056607,214,"92 CLEMENS DRIVE, DILLSBURG, PA, 17019","Match","Exact","92 CLEMENS DR, DILLSBURG, PA, 17019",631720459,"L"
929215,"92 COHEN WALKER DR","WARNER ROBINS","GA",31088,32.546440374,-83.675344375,215,"92 COHEN WALKER DR, WARNER ROBINS, GA, 31088","Match","Exact","92 COHEN WALKER DR, WARNER ROBINS, GA, 31088",217649245,"L"
929216,"92 COLD SPRING RD","CARLISLE","PA",17015,40.1071904770001,-77.237093408,216,"92 COLD SPRING RD, CARLISLE, PA, 17015","Match","Exact","92 COLD SPRINGS RD, CARLISLE, PA, 17015",647936330,"L"
929217,"92 COLEMAN STREET","BOSTON","MA",2125,42.3071597680001,-71.067616444,217,"92 COLEMAN STREET, BOSTON, MA, 2125","Match","Exact","92 COLEMAN ST, BOSTON, MA, 02125",653270534,"L"
929218,"92 COLONIAL DRIVE","LITTLETON","MA",1460,42.523846016,-71.472727622,218,"92 COLONIAL DRIVE, LITTLETON, MA, 1460","Match","Exact","92 COLONIAL DR, LITTLETON, MA, 01460",86880348,"L"
929219,"92 COLUMBIA ROAD APT 3","PORTLAND","ME",4103,43.6715636160001,-70.30040769,219,"92 COLUMBIA ROAD APT 3, PORTLAND, ME, 4103","Match","Exact","92 COLUMBIA RD, PORTLAND, ME, 04103",78025672,"L"
929220,"92 COOK ROAD","PROSPECT","CT",6712,41.4867791460001,-72.9539886059999,220,"92 COOK ROAD, PROSPECT, CT, 6712","Match","Exact","92 COOK RD, PROSPECT, CT, 06712",604747775,"L"
929221,"92 CORPORATE PARK SUITE C-668","IRVINE","CA",92606,33.6910966500001,-117.827846726,221,"92 CORPORATE PARK SUITE C-668, IRVINE, CA, 92606","Match","Exact","92 CORPORATE PARK, IRVINE, CA, 92606",144381828,"R"
929222,"92 COUNTY RD 4881","DAYTON","TX",77535,29.9612336530001,-94.962231312,222,"92 COUNTY RD 4881, DAYTON, TX, 77535","Match","Exact","92 CO RD 4881, DAYTON, TX, 77535",611052328,"L"
929223,"92 COVE AVENUE","CRANSTON","RI",2889,41.701670865,-71.419038761,223,"92 COVE AVENUE, CRANSTON, RI, 2889","Match","Non_Exact","92 COVE AVE, WARWICK, RI, 02889",159149524,"L"
929224,"92 COVENTRY RD","MANSFIELD CENTER","CT",6250,41.762273609,-72.2522034839999,224,"92 COVENTRY RD, MANSFIELD CENTER, CT, 6250","Match","Exact","92 COVENTRY RD, MANSFIELD CENTER, CT, 06250",625607464,"R"
929225,"92 CR 130","BOONEVILLE","MS",38829,34.649305844,-88.515196824,225,"92 CR 130, BOONEVILLE, MS, 38829","Match","Exact","92 CO RD 130, BOONEVILLE, MS, 38829",649559472,"R"
929226,"92 CR 211","GAINESVILLE","TX",76240,33.6084757850001,-97.0156759229999,226,"92 CR 211, GAINESVILLE, TX, 76240","Match","Exact","92 CO RD 211, GAINESVILLE, TX, 76240",604741622,"R"
929227,"92 CRUM CREEK RD","NEW CITY","NY",10956,41.1672765390001,-73.993488246,227,"92 CRUM CREEK RD, NEW CITY, NY, 10956","Match","Exact","92 CRUM CREEK RD, NEW CITY, NY, 10956",124591333,"L"
929228,"92 CRUM CREEK ROAD","NEW CITY","NY",10956,41.1672765390001,-73.993488246,228,"92 CRUM CREEK ROAD, NEW CITY, NY, 10956","Match","Exact","92 CRUM CREEK RD, NEW CITY, NY, 10956",124591333,"L"
929229,"92 CRYSTAL LANE","BRIDGEPORT","WV",26330,39.365108623,-80.192589407,229,"92 CRYSTAL LANE, BRIDGEPORT, WV, 26330","Match","Exact","92 CRYSTAL LN, BRIDGEPORT, WV, 26330",51554193,"R"
929230,"92 CUMBERLAND STREET","BANGOR","ME",4401,44.807061811,-68.7702225209999,230,"92 CUMBERLAND STREET, BANGOR, ME, 4401","Match","Exact","92 CUMBERLAND ST, BANGOR, ME, 04401",123628492,"L"
929231,"92 DANFORTH AVENUE APT 711","JERSEY CITY","NJ",7305,40.6950636770001,-74.0901692749999,231,"92 DANFORTH AVENUE APT 711, JERSEY CITY, NJ, 7305","Match","Exact","92 DANFORTH AVE, JERSEY CITY, NJ, 07305",59603334,"R"
929232,"92 DARTMOUTH DR","LITTLE ROCK","AR",72204,34.7216966620001,-92.38642909,232,"92 DARTMOUTH DR, LITTLE ROCK, AR, 72204","Match","Exact","92 DARTMOUTH DR, LITTLE ROCK, AR, 72204",83501664,"R"
929233,"92 DECATUR ST","ARLINGTON","MA",2474,42.4143303110001,-71.136382651,233,"92 DECATUR ST, ARLINGTON, MA, 2474","Match","Exact","92 DECATUR ST, ARLINGTON, MA, 02474",87111997,"L"
929234,"92 DEEP WATER LANE","SOUTH CHATHAM","MA",2659,41.6801207280001,-70.01970139,234,"92 DEEP WATER LANE, SOUTH CHATHAM, MA, 2659","Match","Non_Exact","92 DEEPWATER LN, SOUTH CHATHAM, MA, 02659",121567772,"L"
929235,"92 DEER TRACK LANE","HILLSDALE","NY",12529,42.168720224,-73.525675291,235,"92 DEER TRACK LANE, HILLSDALE, NY, 12529","Match","Exact","92 DEER TRACK LN, HILLSDALE, NY, 12529",41491385,"L"
929236,"92 DEVIR STREET 206","MALDEN","MA",2148,42.4159095570001,-71.0815191849999,236,"92 DEVIR STREET 206, MALDEN, MA, 2148","Match","Exact","92 DEVIR ST, MALDEN, MA, 02148",86860542,"L"
929237,"92 DEXTER FARM LANE","DEER ISLE","ME",4627,NA,NA,237,"92 DEXTER FARM LANE, DEER ISLE, ME, 4627","No_Match",NA,NA,NA,NA
929238,"92 DIMATTEO DR","N TONAWANDA","NY",14120,43.0228691290001,-78.847993633,238,"92 DIMATTEO DR, N TONAWANDA, NY, 14120","Match","Exact","92 DIMATTEO DR, N TONAWANDA, NY, 14120",48694747,"R"
929239,"92 DOGWOOD LANE","FOUR OAKS","NC",27524,35.463481598,-78.396634075,239,"92 DOGWOOD LANE, FOUR OAKS, NC, 27524","Match","Exact","92 DOGWOOD LN, FOUR OAKS, NC, 27524",649383240,"R"
929240,"92 DOGWOOD RD","SYLACAUGA","AL",35150,33.12155103,-86.204748991,240,"92 DOGWOOD RD, SYLACAUGA, AL, 35150","Match","Exact","92 DOGWOOD RD, SYLACAUGA, AL, 35150",66972853,"L"
929241,"92 DREYER AVE","STATEN ISLAND","NY",10314,40.6075633460001,-74.1521326609999,241,"92 DREYER AVE, STATEN ISLAND, NY, 10314","Match","Exact","92 DREYER AVE, STATEN ISLAND, NY, 10314",59883374,"L"
929242,"92 DUPONT STREET APT 2R","BROOKLYN","NY",11222,40.735780902,-73.956081828,242,"92 DUPONT STREET APT 2R, BROOKLYN, NY, 11222","Match","Exact","92 DUPONT ST, BROOKLYN, NY, 11222",59076243,"R"
929243,"92 E BIGELOW STREET","NEWARK","NJ",7114,40.7164999440001,-74.189543253,243,"92 E BIGELOW STREET, NEWARK, NJ, 7114","Match","Exact","92 E BIGELOW ST, NEWARK, NJ, 07114",63485747,"L"
929244,"92 E HARRISON ST","GILBERT","AZ",85295,33.3155423330001,-111.787974212,244,"92 E HARRISON ST, GILBERT, AZ, 85295","Match","Exact","92 E HARRISON ST, GILBERT, AZ, 85295",637416023,"L"
929245,"92 E LAUREL STREET","PORT READING","NJ",7064,NA,NA,245,"92 E LAUREL STREET, PORT READING, NJ, 7064","No_Match",NA,NA,NA,NA
929246,"92 E LYNN ST APT 106","SEATTLE","WA",98102,47.639727796,-122.327368917,246,"92 E LYNN ST APT 106, SEATTLE, WA, 98102","Match","Non_Exact","92 E LYNN ST, SEATTLE, WA, 98102",186583962,"L"
929247,"92 E MAIN STREET","PATERSON","NJ",7522,40.928976683,-74.168233105,247,"92 E MAIN STREET, PATERSON, NJ, 7522","Match","Exact","92 E MAIN ST, PATERSON, NJ, 07522",65263135,"R"
929248,"92 E NICKLAUS","KALISPELL","MT",59901,48.229780417,-114.295190036,248,"92 E NICKLAUS, KALISPELL, MT, 59901","Match","Non_Exact","92 E NICKLAUS AVE, KALISPELL, MT, 59901",204127792,"L"
929249,"92 EAST AVE","PAWTUCKET","RI",2860,41.876099008,-71.3851018129999,249,"92 EAST AVE, PAWTUCKET, RI, 2860","Match","Exact","92 EAST AVE, PAWTUCKET, RI, 02860",47464580,"L"
929250,"92 EAST POPLAR DRIVE UNIT A","DELMAR","NY",12054,42.6251470620001,-73.812344017,250,"92 EAST POPLAR DRIVE UNIT A, DELMAR, NY, 12054","Match","Exact","92 E POPLAR DR, DELMAR, NY, 12054",18363294,"L"
929251,"92 EASTERN PARKWAY","NEWARK","NJ",7106,40.739698796,-74.239824803,251,"92 EASTERN PARKWAY, NEWARK, NJ, 7106","Match","Exact","92 EASTERN PKWY, NEWARK, NJ, 07106",63463468,"L"
929252,"92 EDWARD STREET","COHOES","NY",12047,42.783278797,-73.716284071,252,"92 EDWARD STREET, COHOES, NY, 12047","Match","Exact","92 EDWARD ST, COHOES, NY, 12047",18360879,"R"
929253,"92 EGLIN PARKWAY NE","FORT WALTON BEACH","FL",32548,NA,NA,253,"92 EGLIN PARKWAY NE, FORT WALTON BEACH, FL, 32548","Tie",NA,NA,NA,NA
929254,"92 EMERSON DR","WINDHAM","ME",4062,43.830964447,-70.429116071,254,"92 EMERSON DR, WINDHAM, ME, 4062","Match","Exact","92 EMERSON DR, WINDHAM, ME, 04062",78020837,"L"
929255,"92 ESENCIA DR UNIT 525","RMV","CA",92694,33.5319232750001,-117.600234049,255,"92 ESENCIA DR UNIT 525, RMV, CA, 92694","Match","Exact","92 ESENCIA DR, RMV, CA, 92694",653183835,"L"
929256,"92 EVANS ROAD","BROOKLINE","MA",2445,42.3398846440001,-71.140512142,256,"92 EVANS ROAD, BROOKLINE, MA, 2445","Match","Exact","92 EVANS RD, BROOKLINE, MA, 02445",87332051,"L"
929257,"92 FAWN RIDGE","FRANKLIN","NC",28734,35.1288637260001,-83.489922142,257,"92 FAWN RIDGE, FRANKLIN, NC, 28734","Match","Exact","92 FAWN RIDGE, FRANKLIN, NC, 28734",627145891,"L"
929258,"92 FISHER ST UNIT 1","ATTLEBORO","MA",2703,41.929188041,-71.295316355,258,"92 FISHER ST UNIT 1, ATTLEBORO, MA, 2703","Match","Exact","92 FISHER ST, ATTLEBORO, MA, 02703",46781499,"L"
929259,"92 FLEET STREET","JERSEY CITY","NJ",7306,40.734880226,-74.055416355,259,"92 FLEET STREET, JERSEY CITY, NJ, 7306","Match","Exact","92 FLEET ST, JERSEY CITY, NJ, 07306",59605096,"R"
929260,"92 FLING ST","BREWER","ME",4412,44.7921401140001,-68.7647406949999,260,"92 FLING ST, BREWER, ME, 4412","Match","Exact","92 FLING ST, BREWER, ME, 04412",123629243,"L"
929261,"92 FOREST DRIVE","BARBOURVILLE","KY",40906,NA,NA,261,"92 FOREST DRIVE, BARBOURVILLE, KY, 40906","No_Match",NA,NA,NA,NA
929262,"92 FRANKLIN STREET","BELLEVILLE","NJ",7109,40.780409623,-74.180071778,262,"92 FRANKLIN STREET, BELLEVILLE, NJ, 7109","Match","Exact","92 FRANKLIN ST, BELLEVILLE, NJ, 07109",63480905,"R"
929263,"92 FREMONT STREET APT 818","JERSEY CITY","NJ",7302,40.720348717,-74.059388107,263,"92 FREMONT STREET APT 818, JERSEY CITY, NJ, 7302","Match","Exact","92 FREMONT ST, JERSEY CITY, NJ, 07302",59605726,"R"
929264,"92 FRONT STREET APT 3R","WEST SPRINGFIELD","MA",1089,42.1007130520001,-72.6382083089999,264,"92 FRONT STREET APT 3R, WEST SPRINGFIELD, MA, 1089","Match","Exact","92 FRONT ST, W SPRINGFIELD, MA, 01089",4032553,"R"
929265,"92 GAIL COURT","SMITHS GROVE","KY",42171,37.118546656,-86.221115292,265,"92 GAIL COURT, SMITHS GROVE, KY, 42171","Match","Exact","92 GAIL CT, SMITHS GROVE, KY, 42171",625184211,"L"
929266,"92 GARFIELD DR","PENSACOLA","FL",32505,30.4414759920001,-87.28107992,266,"92 GARFIELD DR, PENSACOLA, FL, 32505","Match","Exact","92 GARFIELD DR, PENSACOLA, FL, 32505",93231350,"L"
929267,"92 GILA ST","MORENCI","AZ",85540,33.0384422610001,-109.319640708,267,"92 GILA ST, MORENCI, AZ, 85540","Match","Exact","92 GILA ST, MORENCI, AZ, 85540",636471630,"L"
929268,"92 GLEN DR","RIDGE","NY",11961,40.926387188,-72.895260848,268,"92 GLEN DR, RIDGE, NY, 11961","Match","Exact","92 GLEN DR, RIDGE, NY, 11961",114060945,"L"
929269,"92 GLEN LANE","SOUTHBURY","CT",6488,41.498434171,-73.201361165,269,"92 GLEN LANE, SOUTHBURY, CT, 6488","Match","Exact","92 GLEN LN, SOUTHBURY, CT, 06488",3753346,"R"
929270,"92 GLENBROOK ROAD","MORRIS PLAINS","NJ",7950,40.8282507280001,-74.487748352,270,"92 GLENBROOK ROAD, MORRIS PLAINS, NJ, 7950","Match","Exact","92 GLENBROOK RD, MORRIS PLAINS, NJ, 07950",649374047,"L"
929271,"92 GLENDOWER RD","ROSLINDALE","MA",2131,42.2755065600001,-71.131248151,271,"92 GLENDOWER RD, ROSLINDALE, MA, 2131","Match","Exact","92 GLENDOWER RD, ROSLINDALE, MA, 02131",85703643,"R"
929272,"92 GLENDOWER ROAD","BOSTON","MA",2131,42.2755065600001,-71.131248151,272,"92 GLENDOWER ROAD, BOSTON, MA, 2131","Match","Exact","92 GLENDOWER RD, BOSTON, MA, 02131",85703643,"R"
929273,"92 GOLDEN RUN ROAD","BOLTON","MA",1740,42.450387882,-71.601411367,273,"92 GOLDEN RUN ROAD, BOLTON, MA, 1740","Match","Exact","92 GOLDEN RUN RD, BOLTON, MA, 01740",40106983,"R"
929274,"92 GRATERFORD ROAD","SCHWENKSVILLE","PA",19473,40.234994295,-75.508140769,274,"92 GRATERFORD ROAD, SCHWENKSVILLE, PA, 19473","Match","Exact","92 GRATERFORD RD, SCHWENKSVILLE, PA, 19473",652466840,"R"
929275,"92 GREEN STREET","BRATTLEBORO","VT",5301,42.8522742170001,-72.5621407359999,275,"92 GREEN STREET, BRATTLEBORO, VT, 5301","Match","Exact","92 GREEN ST, BRATTLEBORO, VT, 05301",171091118,"L"
929276,"92 GREENWAY DRIVE","STATEN ISLAND","NY",10301,40.6209286120001,-74.1071950579999,276,"92 GREENWAY DRIVE, STATEN ISLAND, NY, 10301","Match","Exact","92 GREENWAY DR, STATEN ISLAND, NY, 10301",59891242,"L"
929277,"92 GROVE STREET APARTMENT 27","NEW YORK","NY",10014,40.733571023,-74.002011049,277,"92 GROVE STREET APARTMENT 27, NEW YORK, NY, 10014","Match","Exact","92 GROVE ST, NEW YORK, NY, 10014",59661189,"R"
929278,"92 H AND B PARTIN LANE","PINEVILLE","KY",40977,NA,NA,278,"92 H AND B PARTIN LANE, PINEVILLE, KY, 40977","No_Match",NA,NA,NA,NA
929279,"92 HAMILTON AVE","YONKERS","NY",10705,40.921346489,-73.897879884,279,"92 HAMILTON AVE, YONKERS, NY, 10705","Match","Exact","92 HAMILTON AVE, YONKERS, NY, 10705",139743588,"L"
929280,"92 HAMILTON AVENUE 2E","YONKERS","NY",10705,40.921346489,-73.897879884,280,"92 HAMILTON AVENUE 2E, YONKERS, NY, 10705","Match","Exact","92 HAMILTON AVE, YONKERS, NY, 10705",139743588,"L"
929281,"92 HARLIN DRIVE","GAINESVILLE","MO",65655,36.6037440040001,-92.428861485,281,"92 HARLIN DRIVE, GAINESVILLE, MO, 65655","Match","Exact","92 HARLIN DR, GAINESVILLE, MO, 65655",2270955,"L"
929282,"92 HARMONY CT","HIRAM","GA",30141,NA,NA,282,"92 HARMONY CT, HIRAM, GA, 30141","No_Match",NA,NA,NA,NA
929283,"92 HART ST","BROOKLYN","NY",11206,40.693257627,-73.947999559,283,"92 HART ST, BROOKLYN, NY, 11206","Match","Exact","92 HART ST, BROOKLYN, NY, 11206",59078762,"R"
929284,"92 HASTINGS AVENUE","ELK GROVE","IL",60007,42.0075454620001,-88.005428942,284,"92 HASTINGS AVENUE, ELK GROVE, IL, 60007","Match","Non_Exact","92 HASTINGS AVE, ELK GROVE VILLAGE, IL, 60007",111699887,"R"
929285,"92 HENRY BRIDGE RD","GOFFSTOWN","NH",3045,43.0170553180001,-71.549373998,285,"92 HENRY BRIDGE RD, GOFFSTOWN, NH, 3045","Match","Exact","92 HENRY BRIDGE RD, GOFFSTOWN, NH, 03045",113564372,"L"
929286,"92 HICKORY LANE","BETHLEHEM","CT",6751,41.6238367970001,-73.165883101,286,"92 HICKORY LANE, BETHLEHEM, CT, 6751","Match","Exact","92 HICKORY LN, BETHLEHEM, CT, 06751",637500891,"L"
929287,"92 HIDDEN MEADOWS LN","DENISON","TX",75021,33.739223571,-96.4476508989999,287,"92 HIDDEN MEADOWS LN, DENISON, TX, 75021","Match","Exact","92 HIDDEN MEADOWS LN, DENISON, TX, 75021",617530769,"R"
929288,"92 HIGHBRIDGE LANE","WEST DEPTFORD","NJ",8086,39.821047666,-75.186675491,288,"92 HIGHBRIDGE LANE, WEST DEPTFORD, NJ, 8086","Match","Exact","92 HIGHBRIDGE LN, WEST DEPTFORD, NJ, 08086",651262510,"L"
929289,"92 HIGHLAND DRIVE","RICHBORO","PA",18954,40.221136829,-75.00633726,289,"92 HIGHLAND DRIVE, RICHBORO, PA, 18954","Match","Exact","92 HIGHLAND DR, RICHBORO, PA, 18954",134708720,"R"
929290,"92 HIGHWAY 290","MEETEETSE","WY",82433,44.1453818410001,-108.875579533,290,"92 HIGHWAY 290, MEETEETSE, WY, 82433","Match","Non_Exact","92 STATE HWY 290, MEETEETSE, WY, 82433",653577031,"R"
929291,"92 HILLCREST AVE","YONKERS","NY",10705,40.9244265880001,-73.8882865419999,291,"92 HILLCREST AVE, YONKERS, NY, 10705","Match","Exact","92 HILLCREST AVE, YONKERS, NY, 10705",139743870,"R"
929292,"92 HILLSIDE DRIVE","PLYMOUTH","MA",2360,41.8793033490001,-70.5335443229999,292,"92 HILLSIDE DRIVE, PLYMOUTH, MA, 2360","Match","Exact","92 HILLSIDE DR, PLYMOUTH, MA, 02360",87441144,"L"
929293,"92 HINNANT ROAD","SELMA","NC",27576,35.5277661280001,-78.2300494,293,"92 HINNANT ROAD, SELMA, NC, 27576","Match","Exact","92 HINNANT RD, SELMA, NC, 27576",26555054,"L"
929294,"92 HOLBROOK DRIVE","SONOITA","AZ",85637,31.648253497,-110.649270146,294,"92 HOLBROOK DRIVE, SONOITA, AZ, 85637","Match","Exact","92 HOLBROOK DR, SONOITA, AZ, 85637",120879034,"L"
929295,"92 HOOKER AVE","POUGHKEEPSIE","NY",12601,41.692675288,-73.920867328,295,"92 HOOKER AVE, POUGHKEEPSIE, NY, 12601","Match","Exact","92 HOOKER AVE, POUGHKEEPSIE, NY, 12601",4168112,"L"
929296,"92 HUTCHISON DRIVE","CLAYTON","DE",19938,39.2797716760001,-75.6683248579999,296,"92 HUTCHISON DRIVE, CLAYTON, DE, 19938","Match","Exact","92 HUTCHISON DR, CLAYTON, DE, 19938",68102789,"R"
929297,"92 IDALLA RD","WORCESTER","MA",1606,42.3305937470001,-71.794924766,297,"92 IDALLA RD, WORCESTER, MA, 1606","Match","Exact","92 IDALLA RD, WORCESTER, MA, 01606",40006188,"R"
929298,"92 IONA PLACE","PARAMUS","NJ",7652,40.92638458,-74.063115562,298,"92 IONA PLACE, PARAMUS, NJ, 7652","Match","Exact","92 IONA PL, PARAMUS, NJ, 07652",64383415,"R"
929299,"92 IRA FALLS RD","TRENTON","TN",38382,35.916376604,-88.977521724,299,"92 IRA FALLS RD, TRENTON, TN, 38382","Match","Exact","92 IRA FALLS RD, TRENTON, TN, 38382",636670103,"R"
929300,"92 IVY CT","GROTON","CT",6340,41.339440525,-72.0245599359999,300,"92 IVY CT, GROTON, CT, 6340","Match","Exact","92 IVY CT, GROTON, CT, 06340",611662527,"R"
929301,"92 JACQUELINE DRIVE","MANCHESTER","CT",6040,41.7404403960001,-72.5313577809999,301,"92 JACQUELINE DRIVE, MANCHESTER, CT, 6040","Match","Exact","92 JACQUELINE DR, MANCHESTER, CT, 06040",631748563,"R"
929302,"92 JAKE MOORE ROAD","DALLAS","PA",18612,41.3713712270001,-75.9115540449999,302,"92 JAKE MOORE ROAD, DALLAS, PA, 18612","Match","Exact","92 JAKE MOORE RD, DALLAS, PA, 18612",651756936,"L"
929303,"92 JASMINE CIRCLE","MILFORD","CT",6461,41.241612779,-73.0944210439999,303,"92 JASMINE CIRCLE, MILFORD, CT, 6461","Match","Exact","92 JASMINE CIR, MILFORD, CT, 06461",648629313,"L"
929304,"92 JESSUP DRIVE","LUMBERTON","NC",28360,34.665568781,-79.090177166,304,"92 JESSUP DRIVE, LUMBERTON, NC, 28360","Match","Exact","92 JESSUP DR, LUMBERTON, NC, 28360",637648906,"L"
929305,"92 JORDAN LANE","STAMFORD","CT",6903,41.1255758990001,-73.566767697,305,"92 JORDAN LANE, STAMFORD, CT, 6903","Match","Exact","92 JORDAN LN, STAMFORD, CT, 06903",3272943,"L"
929306,"92 KARATZAS AVENUE","MANCHESTER","NH",3104,43.0006666570001,-71.421070162,306,"92 KARATZAS AVENUE, MANCHESTER, NH, 3104","Match","Exact","92 KARATZAS AVE, MANCHESTER, NH, 03104",113546990,"L"
929307,"92 KEENELAND CIRCLE","LEOMINSTER","MA",1453,42.486226264,-71.766862402,307,"92 KEENELAND CIRCLE, LEOMINSTER, MA, 1453","Match","Exact","92 KEENELAND CIR, LEOMINSTER, MA, 01453",646566618,"L"
929308,"92 KEENELAND CIRCLE","LEOMISNTER","MA",1453,42.486226264,-71.766862402,308,"92 KEENELAND CIRCLE, LEOMISNTER, MA, 1453","Match","Non_Exact","92 KEENELAND CIR, LEOMINSTER, MA, 01453",646566618,"L"
929309,"92 KIBBIE LAKE RD","CONSTANTIA","NY",13044,43.2542060490001,-75.9897607679999,309,"92 KIBBIE LAKE RD, CONSTANTIA, NY, 13044","Match","Exact","92 KIBBIE LAKE RD, CONSTANTIA, NY, 13044",57815435,"R"
929310,"92 KING STREET","OBERLIN","OH",44074,41.290220515,-82.207425422,310,"92 KING STREET, OBERLIN, OH, 44074","Match","Exact","92 KING ST, OBERLIN, OH, 44074",55411577,"R"
929311,"92 LACKAWANNA AVE","SWOYERSVILLE","PA",18704,41.29874091,-75.865599563,311,"92 LACKAWANNA AVE, SWOYERSVILLE, PA, 18704","Match","Exact","92 LACKAWANNA AVE, SWOYERSVILLE, PA, 18704",80915890,"L"
929312,"92 LAKE OTIS ROAD","WINTER HAVEN","FL",33884,28.0117413730001,-81.703929089,312,"92 LAKE OTIS ROAD, WINTER HAVEN, FL, 33884","Match","Exact","92 LAKE OTIS RD, WINTER HAVEN, FL, 33884",104892780,"R"
929313,"92 LAKEWOOD VILLAGE","MEDINA","NY",14103,NA,NA,313,"92 LAKEWOOD VILLAGE, MEDINA, NY, 14103","Tie",NA,NA,NA,NA
929314,"92 LANDING CIRCLE","KINGSLAND","GA",31548,NA,NA,314,"92 LANDING CIRCLE, KINGSLAND, GA, 31548","No_Match",NA,NA,NA,NA
929315,"92 LASALLE AVE","HAMPTON","VA",23661,37.0046571890001,-76.359206345,315,"92 LASALLE AVE, HAMPTON, VA, 23661","Match","Exact","92 LASALLE AVE, HAMPTON, VA, 23661",103759272,"R"
929316,"92 LAUREL STREET","FAIRHAVEN","MA",2719,41.6348010510001,-70.900409214,316,"92 LAUREL STREET, FAIRHAVEN, MA, 2719","Match","Exact","92 LAUREL ST, FAIRHAVEN, MA, 02719",46755587,"R"
929317,"92 LAWSON ROAD","BRUCETON MILLS","WV",26525,39.6316782540001,-79.498394146,317,"92 LAWSON ROAD, BRUCETON MILLS, WV, 26525","Match","Non_Exact","92 LAWSON, BRUCETON MILLS, WV, 26525",51497771,"R"
929318,"92 LAZARUS DR","LEDGEWOOD","NJ",7852,40.885712449,-74.6728650109999,318,"92 LAZARUS DR, LEDGEWOOD, NJ, 7852","Match","Exact","92 LAZARUS DR, LEDGEWOOD, NJ, 07852",60475712,"L"
929319,"92 LEAMOOR DRIVE","PARSIPPANY","NJ",7054,40.8598941380001,-74.444052804,319,"92 LEAMOOR DRIVE, PARSIPPANY, NJ, 7054","Match","Exact","92 LEAMOOR DR, PARSIPPANY, NJ, 07054",640034587,"L"
929320,"92 LINCOLN AVE","MEXICO","NY",13114,43.456219182,-76.2252509099999,320,"92 LINCOLN AVE, MEXICO, NY, 13114","Match","Exact","92 LINCOLN AVE, MEXICO, NY, 13114",57806466,"R"
929321,"92 LITTLE CREEK LANE","COLUMBUS","MS",39702,33.458007944,-88.3591085,321,"92 LITTLE CREEK LANE, COLUMBUS, MS, 39702","Match","Exact","92 LITTLE CREEK LN, COLUMBUS, MS, 39702",751128,"R"
929322,"92 LOG BRANCH ROAD","BAMBERG","SC",29003,33.2892736110001,-81.041741158,322,"92 LOG BRANCH ROAD, BAMBERG, SC, 29003","Match","Exact","92 LOG BRANCH RD, BAMBERG, SC, 29003",18956633,"L"
929323,"92 LOMB MEMORIAL DR","ROCHESTER","NY",14623,43.0861170470001,-77.674458584,323,"92 LOMB MEMORIAL DR, ROCHESTER, NY, 14623","Match","Exact","92 LOMB MEMORIAL DR, ROCHESTER, NY, 14623",653461342,"L"
929324,"92 LOMB MEMORIAL DRIVE 06-1114","ROCHESTER","NY",14623,43.0861170470001,-77.674458584,324,"92 LOMB MEMORIAL DRIVE 06-1114, ROCHESTER, NY, 14623","Match","Exact","92 LOMB MEMORIAL DR, ROCHESTER, NY, 14623",653461342,"L"
929325,"92 LONGVIEW AVE","WHITE PLAINS","NY",10605,41.020534221,-73.76517483,325,"92 LONGVIEW AVE, WHITE PLAINS, NY, 10605","Match","Exact","92 LONGVIEW AVE, WHITE PLAINS, NY, 10605",139803908,"R"
929326,"92 LONGVIEW DRIVE","CRANSTON","RI",2920,41.7509924760001,-71.47142567,326,"92 LONGVIEW DRIVE, CRANSTON, RI, 2920","Match","Exact","92 LONGVIEW DR, CRANSTON, RI, 02920",47470992,"L"
929327,"92 LOWE ROAD","DEER ISLE","ME",4560,NA,NA,327,"92 LOWE ROAD, DEER ISLE, ME, 4560","No_Match",NA,NA,NA,NA
929328,"92 LUTHER STREET","PEAKS ISLAND","ME",4108,43.659660149,-70.1947460599999,328,"92 LUTHER STREET, PEAKS ISLAND, ME, 4108","Match","Exact","92 LUTHER ST, PEAKS ISLAND, ME, 04108",78036408,"L"
929329,"92 LYERLY STREET","HOUSTON","TX",77022,29.8347320830001,-95.3771489539999,329,"92 LYERLY STREET, HOUSTON, TX, 77022","Match","Exact","92 LYERLY ST, HOUSTON, TX, 77022",644889867,"R"
929330,"92 MAIN ST 218","YONKERS","NY",10701,40.9347409690001,-73.9016551129999,330,"92 MAIN ST 218, YONKERS, NY, 10701","Match","Exact","92 MAIN ST, YONKERS, NY, 10701",139742891,"L"
929331,"92 MAIN ST APT 106","DEEP RIVER","CT",6417,41.3904652200001,-72.438046962,331,"92 MAIN ST APT 106, DEEP RIVER, CT, 6417","Match","Exact","92 MAIN ST, DEEP RIVER, CT, 06417",626671896,"L"
929332,"92 MAIN ST","NORTHFIELD","MA",1360,42.696654761,-72.4550682299999,332,"92 MAIN ST, NORTHFIELD, MA, 1360","Match","Exact","92 MAIN ST, NORTHFIELD, MA, 01360",39934363,"L"
929333,"92 MAIN STREET - APT 210","DEEP RIVER","CT",6417,41.3904652200001,-72.438046962,333,"92 MAIN STREET - APT 210, DEEP RIVER, CT, 6417","Match","Exact","92 MAIN ST, DEEP RIVER, CT, 06417",626671896,"L"
929334,"92 MAIN STREET","CORNWALL","NY",12518,41.445921572,-74.0297231919999,334,"92 MAIN STREET, CORNWALL, NY, 12518","Match","Exact","92 MAIN ST, CORNWALL, NY, 12518",648768121,"L"
929335,"92 MAITLAND AVE","PATERSON","NJ",7502,40.9113188250001,-74.198694791,335,"92 MAITLAND AVE, PATERSON, NJ, 7502","Match","Exact","92 MAITLAND AVE, PATERSON, NJ, 07502",65260662,"R"
929336,"92 MALDEN AVE","PALENVILLE","NY",12463,42.169016964,-74.019493333,336,"92 MALDEN AVE, PALENVILLE, NY, 12463","Match","Exact","92 MALDEN AVE, PALENVILLE, NY, 12463",35667089,"R"
929337,"92 MAPLE STREET","NEWBURGH","NY",12550,41.503548375,-74.044322988,337,"92 MAPLE STREET, NEWBURGH, NY, 12550","Match","Exact","92 MAPLE ST, NEWBURGH, NY, 12550",124411961,"R"
929338,"92 MARAKILL LN","NEW PALTZ","NY",12561,41.726857561,-74.18414202,338,"92 MARAKILL LN, NEW PALTZ, NY, 12561","Match","Exact","92 MARAKILL LN, NEW PALTZ, NY, 12561",648160624,"R"
929339,"92 MARGARET DRIVE","BRAINTREE","MA",2184,42.1973959420001,-71.031082542,339,"92 MARGARET DRIVE, BRAINTREE, MA, 2184","Match","Exact","92 MARGARET DR, BRAINTREE, MA, 02184",87265467,"L"
929340,"92 MARGERY RD","BROCKTON","MA",2301,42.0821759880001,-71.069426408,340,"92 MARGERY RD, BROCKTON, MA, 2301","Match","Exact","92 MARGERY RD, BROCKTON, MA, 02301",87441280,"L"
929341,"92 MARIOMI RD","NEW CANAAN","CT",6840,41.175041123,-73.4753230699999,341,"92 MARIOMI RD, NEW CANAAN, CT, 6840","Match","Exact","92 MARIOMI RD, NEW CANAAN, CT, 06840",3258236,"L"
929342,"92 MARSHALL ST","WATERTOWN","MA",2472,42.3708776980001,-71.181554444,342,"92 MARSHALL ST, WATERTOWN, MA, 2472","Match","Exact","92 MARSHALL ST, WATERTOWN, MA, 02472",86864708,"L"
929343,"92 MARTIN LUTHER DRIVE","PLYMOUTH","NC",27962,35.8951572490001,-76.679589149,343,"92 MARTIN LUTHER DRIVE, PLYMOUTH, NC, 27962","Match","Non_Exact","92 MARTIN LUTHER RD, PLYMOUTH, NC, 27962",18685203,"R"
929344,"92 MARVIN WAY","SMITHS GROVE","KY",42171,37.1198700320001,-86.220335452,344,"92 MARVIN WAY, SMITHS GROVE, KY, 42171","Match","Non_Exact","92 MARVIN CT, SMITHS GROVE, KY, 42171",625184228,"L"
929345,"92 MARY ANN LANE","CAMDENTON","MO",65020,38.061270774,-92.764868088,345,"92 MARY ANN LANE, CAMDENTON, MO, 65020","Match","Exact","92 MARY ANN LN, CAMDENTON, MO, 65020",22845067,"R"
929346,"92 MCCALLUM LANE","HATTIESBURG","MS",39401,31.2442741680001,-89.205147584,346,"92 MCCALLUM LANE, HATTIESBURG, MS, 39401","Match","Exact","92 MCCALLUM LN, HATTIESBURG, MS, 39401",321327,"R"
929347,"92 MCDOWELL STREET SUITE 100","WELCH","WY",24801,NA,NA,347,"92 MCDOWELL STREET SUITE 100, WELCH, WY, 24801","No_Match",NA,NA,NA,NA
929348,"92 MCPHERSON DRIVE","FREDERICKSBURG","VA",22406,38.4152937600001,-77.5440323619999,348,"92 MCPHERSON DRIVE, FREDERICKSBURG, VA, 22406","Match","Exact","92 MCPHERSON DR, FREDERICKSBURG, VA, 22406",653483256,"R"
929349,"92 MERILL CORNER ROAD","BROWNFIELD","ME",4010,43.9314730470001,-70.930300792,349,"92 MERILL CORNER ROAD, BROWNFIELD, ME, 4010","Match","Non_Exact","92 MERRILL CORNER RD, BROWNFIELD, ME, 04010",92680851,"R"
929350,"92 MERRILL CORNER ROAD","BROWNFIELD","ME",4010,43.9314730470001,-70.930300792,350,"92 MERRILL CORNER ROAD, BROWNFIELD, ME, 4010","Match","Exact","92 MERRILL CORNER RD, BROWNFIELD, ME, 04010",92680851,"R"
929351,"92 MILL ST","FREEVILLE","NY",13068,42.5133229520001,-76.360510531,351,"92 MILL ST, FREEVILLE, NY, 13068","Match","Exact","92 MILL ST, FREEVILLE, NY, 13068",18875585,"R"
929352,"92 MILL STREET","FREEVILLE","NY",13068,42.5133229520001,-76.360510531,352,"92 MILL STREET, FREEVILLE, NY, 13068","Match","Exact","92 MILL ST, FREEVILLE, NY, 13068",18875585,"R"
929353,"92 MINER ST","CANTON","NY",13617,44.5891452180001,-75.168418072,353,"92 MINER ST, CANTON, NY, 13617","Match","Exact","92 MINER ST, CANTON, NY, 13617",155181666,"L"
929354,"92 MINORTOWN RD","WOODBURY","CT",6798,41.563855141,-73.1864466339999,354,"92 MINORTOWN RD, WOODBURY, CT, 6798","Match","Exact","92 MINORTOWN RD, WOODBURY, CT, 06798",611508470,"L"
929355,"92 MIRROR LAKE ROAD","EAST CALAIS","VT",5650,44.3938387000001,-72.448210262,355,"92 MIRROR LAKE ROAD, EAST CALAIS, VT, 5650","Match","Exact","92 MIRROR LAKE RD, EAST CALAIS, VT, 05650",136663995,"R"
929356,"92 MOHAWK AVENUE","NORWOOD","NJ",7648,40.9856853300001,-73.934985647,356,"92 MOHAWK AVENUE, NORWOOD, NJ, 7648","Match","Exact","92 MOHAWK AVE, NORWOOD, NJ, 07648",64371214,"R"
929357,"92 MONROE ST","BUFFALO","NY",14206,42.8829806460001,-78.851913624,357,"92 MONROE ST, BUFFALO, NY, 14206","Match","Exact","92 MONROE ST, BUFFALO, NY, 14206",48291451,"L"
929358,"92 MOSHER RD","GORHAM","ME",4038,43.723063074,-70.4203690419999,358,"92 MOSHER RD, GORHAM, ME, 4038","Match","Exact","92 MOSHER RD, GORHAM, ME, 04038",78022883,"R"
929359,"92 MOUNT LEBANON ST","PEPPERELL","MA",1463,42.639376972,-71.602085484,359,"92 MOUNT LEBANON ST, PEPPERELL, MA, 1463","Match","Exact","92 MOUNT LEBANON ST, PEPPERELL, MA, 01463",87128551,"L"
929360,"92 MOZART STREET","JAMAICA PLAIN","MA",2130,42.319751174,-71.103638179,360,"92 MOZART STREET, JAMAICA PLAIN, MA, 2130","Match","Exact","92 MOZART ST, JAMAICA PLAIN, MA, 02130",85698749,"L"
929361,"92 MURPHYS CORNER ROAD","WOOLWICH","ME",4579,43.9268600520001,-69.7671900879999,361,"92 MURPHYS CORNER ROAD, WOOLWICH, ME, 4579","Match","Non_Exact","92 MURPHY'S CORNER RD, WOOLWICH, ME, 04579",75600144,"R"
929362,"92 MYSEN CIRCLE","CORDOVA","TN",38018,35.1270074460001,-89.778499618,362,"92 MYSEN CIRCLE, CORDOVA, TN, 38018","Match","Exact","92 MYSEN CIR, CORDOVA, TN, 38018",72947444,"L"
929363,"92 MYSEN DRIVE","CORDOVA","TN",38018,35.1270074460001,-89.778499618,363,"92 MYSEN DRIVE, CORDOVA, TN, 38018","Match","Non_Exact","92 MYSEN CIR, CORDOVA, TN, 38018",72947444,"L"
929364,"92 N CHATSWORTH AVE","LARCHMONT","NY",10538,NA,NA,364,"92 N CHATSWORTH AVE, LARCHMONT, NY, 10538","Tie",NA,NA,NA,NA
929365,"92 N PERSHING AVE","NORTON","OH",44313,41.116110362,-81.578672718,365,"92 N PERSHING AVE, NORTON, OH, 44313","Match","Non_Exact","92 N PERSHING AVE, AKRON, OH, 44313",61337518,"L"
929366,"92 N ROSCOE BLVD","PONTE VEDRA","FL",32082,NA,NA,366,"92 N ROSCOE BLVD, PONTE VEDRA, FL, 32082","Tie",NA,NA,NA,NA
929367,"92 NAUGATUCK AVENUE","MILFORD","CT",6460,41.1945059220001,-73.08574598,367,"92 NAUGATUCK AVENUE, MILFORD, CT, 6460","Match","Exact","92 NAUGATUCK AVE, MILFORD, CT, 06460",3714216,"L"
929368,"92 NE 90TH STREET","ELPORTAL","FL",33138,25.857664877,-80.195498282,368,"92 NE 90TH STREET, ELPORTAL, FL, 33138","Match","Non_Exact","92 NE 90TH ST, EL PORTAL, FL, 33138",116003465,"R"
929369,"92 NE 98 STREET","MIAMI SHORES","FL",33138,25.865209027,-80.1958263289999,369,"92 NE 98 STREET, MIAMI SHORES, FL, 33138","Match","Exact","92 NE 98TH ST, MIAMI SHORES, FL, 33138",116003421,"R"
929370,"92 NE SHANNON DR","DECATUR","AL",35603,34.5314520790001,-86.869828309,370,"92 NE SHANNON DR, DECATUR, AL, 35603","Match","Exact","92 SHANNON DR, DECATUR, AL, 35603",97125231,"L"
929371,"92 NEPONSET AVENUE","ROSLINDALE","MA",2131,42.2864811600001,-71.114328343,371,"92 NEPONSET AVENUE, ROSLINDALE, MA, 2131","Match","Exact","92 NEPONSET AVE, ROSLINDALE, MA, 02131",85704816,"L"
929372,"92 NESTING LOOP","SAINT CLOUD","FL",34769,28.26023444,-81.3087446869999,372,"92 NESTING LOOP, SAINT CLOUD, FL, 34769","Match","Exact","92 NESTING LOOP, SAINT CLOUD, FL, 34769",176693529,"R"
929373,"92 NORRIS AVE","LANCASTER","NY",14086,NA,NA,373,"92 NORRIS AVE, LANCASTER, NY, 14086","No_Match",NA,NA,NA,NA
929374,"92 NORTH 2ND STREET","PATERSON","NJ",7522,40.929050642,-74.170133632,374,"92 NORTH 2ND STREET, PATERSON, NJ, 7522","Match","Exact","92 N 2ND ST, PATERSON, NJ, 07522",65268265,"R"
929375,"92 NORTH BROADWAY","HAVERHILL","MA",1832,42.783877477,-71.1078606729999,375,"92 NORTH BROADWAY, HAVERHILL, MA, 1832","Match","Exact","92 N BROADWAY, HAVERHILL, MA, 01832",86616573,"L"
929376,"92 NORTH MAIN ST","HONEOYE FALLS","NY",14472,42.9581915260001,-77.588340994,376,"92 NORTH MAIN ST, HONEOYE FALLS, NY, 14472","Match","Exact","92 N MAIN ST, HONEOYE FALLS, NY, 14472",14570746,"L"
929377,"92 NORTHCUTT LN","STUTTGART","AR",72160,34.472077416,-91.560495401,377,"92 NORTHCUTT LN, STUTTGART, AR, 72160","Match","Exact","92 NORTHCUTT LN, STUTTGART, AR, 72160",11978029,"L"
929378,"92 NORWALK AVENUE","STATEN ISLAND","NY",10314,40.6053011170001,-74.117550931,378,"92 NORWALK AVENUE, STATEN ISLAND, NY, 10314","Match","Exact","92 NORWALK AVE, STATEN ISLAND, NY, 10314",59883054,"L"
929379,"92 NW 58 HWY","CENTERVIWE","MO",64019,NA,NA,379,"92 NW 58 HWY, CENTERVIWE, MO, 64019","No_Match",NA,NA,NA,NA
929380,"92 OAK FOREST DRIV","CHARLOTTESVILLE","VA",22901,38.0738633460001,-78.495219585,380,"92 OAK FOREST DRIV, CHARLOTTESVILLE, VA, 22901","Match","Exact","92 OAK FOREST DR, CHARLOTTESVILLE, VA, 22901",612456007,"L"
929381,"92 OAK LEDGE AVENUE","SCHUYLKILL HAVEN","PA",17972,40.6492415320001,-76.158266634,381,"92 OAK LEDGE AVENUE, SCHUYLKILL HAVEN, PA, 17972","Match","Exact","92 OAK LEDGE AVE, SCHUYLKILL HAVEN, PA, 17972",640637604,"R"
929382,"92 OAK STREET","NEW BEDFORD","MA",2740,41.6248992870001,-70.9351492869999,382,"92 OAK STREET, NEW BEDFORD, MA, 2740","Match","Exact","92 OAK ST, NEW BEDFORD, MA, 02740",46753355,"R"
929383,"92 OLD DIXON RD","BLACKEY","KY",41804,37.1270753220001,-82.999781997,383,"92 OLD DIXON RD, BLACKEY, KY, 41804","Match","Exact","92 OLD DIXON RD, BLACKEY, KY, 41804",88038076,"L"
929384,"92 OLD GREENE RD","LEWISTON","ME",4240,44.105762041,-70.171582814,384,"92 OLD GREENE RD, LEWISTON, ME, 4240","Match","Exact","92 OLD GREENE RD, LEWISTON, ME, 04240",77962700,"L"
929385,"92 OLD RIVER PL","DEDHAM","MA",2026,42.250065985,-71.174908231,385,"92 OLD RIVER PL, DEDHAM, MA, 2026","Match","Exact","92 OLD RIVER PL, DEDHAM, MA, 02026",87243153,"L"
929386,"92 ONYX PLACE","MATAWAN","NJ",7747,40.3970542340001,-74.2297710189999,386,"92 ONYX PLACE, MATAWAN, NJ, 7747","Match","Exact","92 ONYX PL, MATAWAN, NJ, 07747",90505520,"L"
929387,"92 ORIN STREET","PITTSBURGH","PA",15235,40.463643969,-79.853597033,387,"92 ORIN STREET, PITTSBURGH, PA, 15235","Match","Exact","92 ORIN ST, PITTSBURGH, PA, 15235",51666744,"R"
929388,"92 OUTLOOK DRIVE","WORCESTER","MA",1603,NA,NA,388,"92 OUTLOOK DRIVE, WORCESTER, MA, 1603","No_Match",NA,NA,NA,NA
929389,"92 PARK STREET","MENDON","MA",1756,42.083090102,-71.585301463,389,"92 PARK STREET, MENDON, MA, 1756","Match","Exact","92 PARK ST, MENDON, MA, 01756",623898055,"L"
929390,"92 PAYSAN LANE","MAGNOLIA","DE",19962,39.0586336200001,-75.521801978,390,"92 PAYSAN LANE, MAGNOLIA, DE, 19962","Match","Exact","92 PAYSAN LN, MAGNOLIA, DE, 19962",617129648,"R"
929391,"92 PAYSON RD","BELMONT","MA",2478,42.383147444,-71.170997599,391,"92 PAYSON RD, BELMONT, MA, 2478","Match","Exact","92 PAYSON RD, BELMONT, MA, 02478",86891551,"L"
929392,"92 PEARL ST APT 508","BUFFALO","NY",14202,42.881413906,-78.8769880959999,392,"92 PEARL ST APT 508, BUFFALO, NY, 14202","Match","Exact","92 PEARL ST, BUFFALO, NY, 14202",48290651,"L"
929393,"92 PENFRO DRIVE","IOWA CITY","IA",52246,41.6469978850001,-91.561616483,393,"92 PENFRO DRIVE, IOWA CITY, IA, 52246","Match","Exact","92 PENFRO DR, IOWA CITY, IA, 52246",84494683,"R"
929394,"92 PERKINS AVE","CRANSTON","RI",2910,41.7641932070001,-71.417888854,394,"92 PERKINS AVE, CRANSTON, RI, 2910","Match","Exact","92 PERKINS AVE, CRANSTON, RI, 02910",47471917,"L"
929395,"92 PERUVILLE ROAD","LANSING","NY",14882,42.538635604,-76.487300378,395,"92 PERUVILLE ROAD, LANSING, NY, 14882","Match","Exact","92 PERUVILLE RD, LANSING, NY, 14882",18852834,"L"
929396,"92 PINE RD","PASADENA","MD",21122,39.100690421,-76.511423695,396,"92 PINE RD, PASADENA, MD, 21122","Match","Exact","92 PINE RD, PASADENA, MD, 21122",68169326,"L"
929397,"92 PINNEY HILL","WILLINGTON","CT",6279,41.851687311,-72.289099499,397,"92 PINNEY HILL, WILLINGTON, CT, 6279","Match","Non_Exact","92 PINNEY HILL RD, WILLINGTON, CT, 06279",57011239,"R"
929398,"92 PLAINS ROAD UNIT C81","MILFORD","CT",6461,41.2225314830001,-73.075908628,398,"92 PLAINS ROAD UNIT C81, MILFORD, CT, 6461","Match","Exact","92 PLAINS RD, MILFORD, CT, 06461",3713192,"L"
929399,"92 PLEASANT STREET","HINGHAM","MA",2043,42.2291859690001,-70.874389343,399,"92 PLEASANT STREET, HINGHAM, MA, 2043","Match","Exact","92 PLEASANT ST, HINGHAM, MA, 02043",87430525,"L"
929400,"92 POND VIEW","SOMERSET","KY",42503,37.0516034770001,-84.650412246,400,"92 POND VIEW, SOMERSET, KY, 42503","Match","Non_Exact","92 PONDVIEW DR, SOMERSET, KY, 42503",39086729,"R"
929401,"92 POPLAR STREET","CANONSBURG","PA",15317,40.2529436200001,-80.151759586,401,"92 POPLAR STREET, CANONSBURG, PA, 15317","Match","Exact","92 POPLAR ST, CANONSBURG, PA, 15317",641794999,"R"
929402,"92 POTOMAC ROAD","ROCHESTER","IL",62563,39.746293666,-89.5612139529999,402,"92 POTOMAC ROAD, ROCHESTER, IL, 62563","Match","Exact","92 POTOMAC RD, ROCHESTER, IL, 62563",606966608,"L"
929403,"92 PRESTON TERRACE","MARSHFIELD","MA",2050,42.1407896900001,-70.698193932,403,"92 PRESTON TERRACE, MARSHFIELD, MA, 2050","Match","Exact","92 PRESTON TER, MARSHFIELD, MA, 02050",87473041,"R"
929404,"92 RACE STREET","HOLYOKE","MA",1040,NA,NA,404,"92 RACE STREET, HOLYOKE, MA, 1040","No_Match",NA,NA,NA,NA
929405,"92 RADTKE ROAD","RANDOLPH","NJ",7869,40.842442395,-74.552989066,405,"92 RADTKE ROAD, RANDOLPH, NJ, 7869","Match","Exact","92 RADTKE RD, RANDOLPH, NJ, 07869",60437548,"L"
929406,"92 RANDALL ROAD","MOULTONBOROUGH","NH",3254,43.7602162000001,-71.371474725,406,"92 RANDALL ROAD, MOULTONBOROUGH, NH, 3254","Match","Exact","92 RANDALL RD, MOULTONBOROUGH, NH, 03254",145595974,"R"
929407,"92 REGENCY LANE","LAMAR","SC",29069,34.23520804,-80.1362307209999,407,"92 REGENCY LANE, LAMAR, SC, 29069","Match","Non_Exact","92 REGENCY RD, LAMAR, SC, 29069",79598659,"R"
929408,"92 RICHARD AVENUE","SEVERN","MD",21144,39.108741793,-76.690613523,408,"92 RICHARD AVENUE, SEVERN, MD, 21144","Match","Exact","92 RICHARD AVE, SEVERN, MD, 21144",68211952,"L"
929409,"92 RICHMOND HILL DR","ASHEVILLE","NC",28806,35.6110932870001,-82.5823041099999,409,"92 RICHMOND HILL DR, ASHEVILLE, NC, 28806","Match","Exact","92 RICHMOND HILL DR, ASHEVILLE, NC, 28806",36912580,"R"
929410,"92 RIDDLE HILL RD","GRAFTON","NH",3240,43.574266466,-71.9808505569999,410,"92 RIDDLE HILL RD, GRAFTON, NH, 3240","Match","Exact","92 RIDDLE HILL RD, GRAFTON, NH, 03240",145670547,"R"
929411,"92 RIDGE VIEW CT","ACWORTH","GA",30101,34.0572678940001,-84.7663914239999,411,"92 RIDGE VIEW CT, ACWORTH, GA, 30101","Match","Exact","92 RIDGE VIEW CT, ACWORTH, GA, 30101",618960140,"R"
929412,"92 ROCK HILL CHURCH RD","STAFFORD","VA",22556,38.5010033190001,-77.523207315,412,"92 ROCK HILL CHURCH RD, STAFFORD, VA, 22556","Match","Exact","92 ROCK HILL CHURCH RD, STAFFORD, VA, 22556",25559003,"R"
929413,"92 ROCKVIEW STREET","JAMAICA PLAIN","MA",2130,42.3133857620001,-71.110605463,413,"92 ROCKVIEW STREET, JAMAICA PLAIN, MA, 2130","Match","Exact","92 ROCKVIEW ST, JAMAICA PLAIN, MA, 02130",645437141,"L"
929414,"92 S 100 W","BRIGHAM CITY","UT",84302,41.5084103720001,-112.017424108,414,"92 S 100 W, BRIGHAM CITY, UT, 84302","Match","Exact","92 S 100 W, BRIGHAM CITY, UT, 84302",153904706,"R"
929415,"92 S LAKE ST","NEENAH","WI",54956,44.1882780450001,-88.476622047,415,"92 S LAKE ST, NEENAH, WI, 54956","Match","Exact","92 S LAKE ST, NEENAH, WI, 54956",74499886,"L"
929416,"92 S LANSDOWNE AVE","LANSDOWNE","PA",19050,39.9351394670001,-75.271396351,416,"92 S LANSDOWNE AVE, LANSDOWNE, PA, 19050","Match","Exact","92 S LANSDOWNE AVE, LANSDOWNE, PA, 19050",134884624,"R"
929417,"92 SAINT NICHOLAS AVENUE SUITE 3 G","NEW YORK","NY",10026,40.8021063780001,-73.9525706479999,417,"92 SAINT NICHOLAS AVENUE SUITE 3 G, NEW YORK, NY, 10026","Match","Exact","92 ST NICHOLAS AVE, NEW YORK, NY, 10026",59657701,"R"
929418,"92 SCHOODIC POINT RD","MEDFORD","ME",4463,45.3223270410001,-68.9271102499999,418,"92 SCHOODIC POINT RD, MEDFORD, ME, 4463","Match","Non_Exact","92 SCHODIC RD, MEDFORD, ME, 04463",123975800,"L"
929419,"92 SEARINGTOWN ROAD","ALBERTSN","NY",11507,NA,NA,419,"92 SEARINGTOWN ROAD, ALBERTSN, NY, 11507","Tie",NA,NA,NA,NA
929420,"92 SEBALD CIRCLE","CROSSVILLE","TN",38555,35.923083509,-85.0690598199999,420,"92 SEBALD CIRCLE, CROSSVILLE, TN, 38555","Match","Exact","92 SEBALD CIR, CROSSVILLE, TN, 38555",26272262,"R"
929421,"92 SEDGLEY PARK","WEST HENRIETTA","NY",14586,NA,NA,421,"92 SEDGLEY PARK, WEST HENRIETTA, NY, 14586","No_Match",NA,NA,NA,NA
929422,"92 SELEY DRIVE","NORTH BABYLON","NY",11703,40.739080082,-73.311245239,422,"92 SELEY DRIVE, NORTH BABYLON, NY, 11703","Match","Exact","92 SELEY DR, NORTH BABYLON, NY, 11703",113993091,"L"
929423,"92 SENECA LANE","REEDSVILLE","WV",26547,39.51805182,-79.8469030809999,423,"92 SENECA LANE, REEDSVILLE, WV, 26547","Match","Exact","92 SENECA LN, REEDSVILLE, WV, 26547",635007564,"R"
929424,"92 SETTLERS RIDGE ROAD","MILFORD","CT",6460,41.2308605870001,-73.011849473,424,"92 SETTLERS RIDGE ROAD, MILFORD, CT, 6460","Match","Exact","92 SETTLERS RIDGE RD, MILFORD, CT, 06460",3753460,"R"
929425,"92 SHEPHERD AVENUE","BROOKLYN","NY",11208,40.682653701,-73.8824681309999,425,"92 SHEPHERD AVENUE, BROOKLYN, NY, 11208","Match","Exact","92 SHEPHERD AVE, BROOKLYN, NY, 11208",59084445,"R"
929426,"92 SHINNECOCK AVENUE","MASSAPEQUA","NY",11758,40.6601192300001,-73.435413056,426,"92 SHINNECOCK AVENUE, MASSAPEQUA, NY, 11758","Match","Exact","92 SHINNECOCK AVE, MASSAPEQUA, NY, 11758",147653198,"L"
929427,"92 SLOUGH ROAD","HARVARD","MA",1451,42.4865761460001,-71.5778223849999,427,"92 SLOUGH ROAD, HARVARD, MA, 1451","Match","Exact","92 SLOUGH RD, HARVARD, MA, 01451",40110143,"L"
929428,"92 SOUTH 13TH STREET","BOLTON","NC",28423,34.3223010020001,-78.410972021,428,"92 SOUTH 13TH STREET, BOLTON, NC, 28423","Match","Non_Exact","92 13TH ST, BOLTON, NC, 28423",64129594,"R"
929429,"92 SOUTH AVE","STATEN ISLAND","NY",10303,40.63790264,-74.166116405,429,"92 SOUTH AVE, STATEN ISLAND, NY, 10303","Match","Exact","92 SOUTH AVE, STATEN ISLAND, NY, 10303",653441463,"R"
929430,"92 SOUTH CENTER STREET","WEST JEFFERSON","OH",43162,39.942788078,-83.2677738359999,430,"92 SOUTH CENTER STREET, WEST JEFFERSON, OH, 43162","Match","Exact","92 S CENTER ST, W JEFFERSON, OH, 43162",135264554,"L"
929431,"92 SOUTH EAST RIDGE DRIVE","ST. GEORGE","UT",84790,37.106433564,-113.550551589,431,"92 SOUTH EAST RIDGE DRIVE, ST. GEORGE, UT, 84790","Match","Exact","92 S EAST RIDGE DR, SAINT GEORGE, UT, 84790",627748402,"R"
929432,"92 SOUTH GRAND AVENUE","POUGHKEEPSIE","NY",12603,41.6918251550001,-73.9075211109999,432,"92 SOUTH GRAND AVENUE, POUGHKEEPSIE, NY, 12603","Match","Exact","92 S GRAND AVE, POUGHKEEPSIE, NY, 12603",4168356,"L"
929433,"92 SOUTH HARRISON AVE","CONGERS","NY",10920,NA,NA,433,"92 SOUTH HARRISON AVE, CONGERS, NY, 10920","No_Match",NA,NA,NA,NA
929434,"92 SOUTH ROAD","CROPSEYVILLE","NY",12052,42.745085886,-73.545617415,434,"92 SOUTH ROAD, CROPSEYVILLE, NY, 12052","Match","Exact","92 SOUTH RD, CROPSEYVILLE, NY, 12052",35746217,"R"
929435,"92 SOUTH STREET","NORWELL","MA",3061,NA,NA,435,"92 SOUTH STREET, NORWELL, MA, 3061","No_Match",NA,NA,NA,NA
929436,"92 SOUTHPARK AVE","LONGMEADOW","MA",1106,NA,NA,436,"92 SOUTHPARK AVE, LONGMEADOW, MA, 1106","No_Match",NA,NA,NA,NA
929437,"92 SPARKLE DRIVE","REEDSVILLE","PA",17084,40.6849159930001,-77.59346548,437,"92 SPARKLE DRIVE, REEDSVILLE, PA, 17084","Match","Exact","92 SPARKLE DR, REEDSVILLE, PA, 17084",48013453,"L"
929438,"92 SPINNING WHEEL DRIVE","UXBRIDGE","MA",1569,42.0624251410001,-71.6271799479999,438,"92 SPINNING WHEEL DRIVE, UXBRIDGE, MA, 1569","Match","Exact","92 SPINNING WHEEL DR, UXBRIDGE, MA, 01569",40054489,"L"
929439,"92 ST NICHOLAS AV 3G","NEW YORK","NY",10026,NA,NA,439,"92 ST NICHOLAS AV 3G, NEW YORK, NY, 10026","No_Match",NA,NA,NA,NA
929440,"92 ST NICOLAS AVE","NY","NY",10026,40.8021063780001,-73.9525706479999,440,"92 ST NICOLAS AVE, NY, NY, 10026","Match","Non_Exact","92 ST NICHOLAS AVE, NEW YORK, NY, 10026",59657701,"R"
929441,"92 STATE ROUTE 344","COPAKEFALLS","NY",12517,42.1205657950001,-73.5239170739999,441,"92 STATE ROUTE 344, COPAKEFALLS, NY, 12517","Match","Non_Exact","92 STATE RTE 344, COPAKE FALLS, NY, 12517",41508144,"L"
929442,"92 STEPHENSON WAY","HUNTINGTON VALLEY","PA",19006,40.152752761,-75.034937112,442,"92 STEPHENSON WAY, HUNTINGTON VALLEY, PA, 19006","Match","Non_Exact","92 STEPHENSON WAY, HUNTINGDON VALLEY, PA, 19006",624887647,"L"
929443,"92 STEPHENVILLE PKWY","EDISON","NJ",8820,40.5701685920001,-74.365406391,443,"92 STEPHENVILLE PKWY, EDISON, NJ, 8820","Match","Exact","92 STEPHENVILLE PKWY, EDISON, NJ, 08820",60271839,"R"
929444,"92 STEVENS DRIVE","HANNIBAL","MO",63401,39.7031417200001,-91.394445398,444,"92 STEVENS DRIVE, HANNIBAL, MO, 63401","Match","Exact","92 STEVENS DR, HANNIBAL, MO, 63401",35334835,"R"
929445,"92 STONEWALL DR","RINCON","GA",31326,32.281821736,-81.2395224489999,445,"92 STONEWALL DR, RINCON, GA, 31326","Match","Exact","92 STONEWALL DR, RINCON, GA, 31326",618958492,"L"
929446,"92 STONEYKIRK DR","PINEHURST","NC",28374,35.2086169180001,-79.5035873479999,446,"92 STONEYKIRK DR, PINEHURST, NC, 28374","Match","Exact","92 STONEYKIRK DR, PINEHURST, NC, 28374",632073740,"L"
929447,"92 STONY RD","LAKE HUNTINGTON","NY",12752,41.675771766,-75.003763503,447,"92 STONY RD, LAKE HUNTINGTON, NY, 12752","Match","Exact","92 STONY RD, LAKE HUNTINGTON, NY, 12752",128998045,"L"
929448,"92 SUMMIT AVE","CEDAR KNOLLS","NJ",7927,40.825701404,-74.457627365,448,"92 SUMMIT AVE, CEDAR KNOLLS, NJ, 7927","Match","Exact","92 SUMMIT AVE, CEDAR KNOLLS, NJ, 07927",60442914,"R"
929449,"92 SUNDAY DR","POTTSVILLE","PA",17901,40.6795740000001,-76.258494115,449,"92 SUNDAY DR, POTTSVILLE, PA, 17901","Match","Non_Exact","92 SUNDAY RD, POTTSVILLE, PA, 17901",624377048,"R"
929450,"92 SW 331 RD","CENTERVIEW","MO",64019,38.750662037,-93.80818468,450,"92 SW 331 RD, CENTERVIEW, MO, 64019","Match","Non_Exact","92 SW 331, CENTERVIEW, MO, 64019",95385177,"R"
929451,"92 SW 3RD ST APT 2801","MIAMI","FL",33130,25.7714818800001,-80.195590812,451,"92 SW 3RD ST APT 2801, MIAMI, FL, 33130","Match","Non_Exact","92 SW 3RD ST, MIAMI, FL, 33130",650065034,"L"
929452,"92 SW 3RD ST APT 702","MIAMI","FL",33130,25.7714818800001,-80.195590812,452,"92 SW 3RD ST APT 702, MIAMI, FL, 33130","Match","Non_Exact","92 SW 3RD ST, MIAMI, FL, 33130",650065034,"L"
929453,"92 SW 3RD ST NO 4810","MIAMI","FL",33130,NA,NA,453,"92 SW 3RD ST NO 4810, MIAMI, FL, 33130","No_Match",NA,NA,NA,NA
929454,"92 SW HORTON WAY","BEAVERTON","OR",97006,45.519216441,-122.858506899,454,"92 SW HORTON WAY, BEAVERTON, OR, 97006","Match","Exact","92 SW HORTON WAY, BEAVERTON, OR, 97006",605205392,"L"
929455,"92 TEAL AVE","CHESAPEAKE BEACH","MD",8204,NA,NA,455,"92 TEAL AVE, CHESAPEAKE BEACH, MD, 8204","No_Match",NA,NA,NA,NA
929456,"92 TEAL WAY","HEATHSVILLE","VA",22473,37.861519421,-76.429160571,456,"92 TEAL WAY, HEATHSVILLE, VA, 22473","Match","Exact","92 TEAL WAY, HEATHSVILLE, VA, 22473",30949404,"R"
929457,"92 TEN ACRE RD","MIDDLETOWN","CT",6457,41.589684779,-72.693543059,457,"92 TEN ACRE RD, MIDDLETOWN, CT, 6457","Match","Exact","92 TEN ACRE RD, MIDDLETOWN, CT, 06457",113888437,"R"
929458,"92 THANKSGIVING ACRES","LEXINGTON","VA",24450,37.8614349800001,-79.54985485,458,"92 THANKSGIVING ACRES, LEXINGTON, VA, 24450","Match","Exact","92 THANKSGIVING ACRES, LEXINGTON, VA, 24450",215048370,"R"
929459,"92 THOMAS CARMICHAEL DRIVE","NEWARK","NJ",7112,NA,NA,459,"92 THOMAS CARMICHAEL DRIVE, NEWARK, NJ, 7112","No_Match",NA,NA,NA,NA
929460,"92 THORNDIKE STREET","BROOKLINE","MA",2446,42.347246381,-71.1274124609999,460,"92 THORNDIKE STREET, BROOKLINE, MA, 2446","Match","Exact","92 THORNDIKE ST, BROOKLINE, MA, 02446",87244366,"L"
929461,"92 TIMBER CREEK LN","ACWORTH","GA",30101,34.051474184,-84.769246997,461,"92 TIMBER CREEK LN, ACWORTH, GA, 30101","Match","Exact","92 TIMBER CREEK LN, ACWORTH, GA, 30101",17750004,"R"
929462,"92 TIMBER MILL CIRCLE","CARROLLTON","GA",30116,33.603943744,-85.0008727489999,462,"92 TIMBER MILL CIRCLE, CARROLLTON, GA, 30116","Match","Exact","92 TIMBER MILL CIR, CARROLLTON, GA, 30116",17123873,"R"
929463,"92 TIMBERMILL CR","CARROLLTON","GA",30116,33.603943744,-85.0008727489999,463,"92 TIMBERMILL CR, CARROLLTON, GA, 30116","Match","Non_Exact","92 TIMBER MILL CIR, CARROLLTON, GA, 30116",17123873,"R"
929464,"92 TULIP STREET","BERGENFIELD","NJ",7621,NA,NA,464,"92 TULIP STREET, BERGENFIELD, NJ, 7621","No_Match",NA,NA,NA,NA
929465,"92 TYLER DRIVE","STANFORD","KY",40484,37.5729472350001,-84.781972062,465,"92 TYLER DRIVE, STANFORD, KY, 40484","Match","Exact","92 TYLER DR, STANFORD, KY, 40484",32556161,"R"
929466,"92 UPPER EGYPT ROAD","BUXTON","ME",4093,43.6328847180001,-70.583395401,466,"92 UPPER EGYPT ROAD, BUXTON, ME, 4093","Match","Exact","92 UPPER EGYPT RD, BUXTON, ME, 04093",642180288,"R"
929467,"92 VALLEY VIEW DRIVE","HORSEHEADS","NY",14845,42.1321108750001,-76.815528807,467,"92 VALLEY VIEW DRIVE, HORSEHEADS, NY, 14845","Match","Non_Exact","92 VALLEY AVE, HORSEHEADS, NY, 14845",18533019,"L"
929468,"92 VAN CORTLANDT PARK SOUTH","BRONX","PA",10463,NA,NA,468,"92 VAN CORTLANDT PARK SOUTH, BRONX, PA, 10463","No_Match",NA,NA,NA,NA
929469,"92 VERNON STREET","PATCHOGUE","NY",11772,40.7760420000001,-73.001226576,469,"92 VERNON STREET, PATCHOGUE, NY, 11772","Match","Exact","92 VERNON ST, PATCHOGUE, NY, 11772",114013115,"R"
929470,"92 VIA KATRINA","THOUSAND OAKS","CA",91320,34.1762375970001,-118.977177486,470,"92 VIA KATRINA, THOUSAND OAKS, CA, 91320","Match","Exact","92 VIA KATRINA, THOUSAND OAKS, CA, 91320",624577080,"R"
929471,"92 VIOLETTA STREET","ROCHESTER","NY",14608,43.1398011790001,-77.619334959,471,"92 VIOLETTA STREET, ROCHESTER, NY, 14608","Match","Exact","92 VIOLETTA ST, ROCHESTER, NY, 14608",14534232,"L"
929472,"92 VOSENKILL RD","CATSKILL","NY",12414,42.2447879110001,-73.870492263,472,"92 VOSENKILL RD, CATSKILL, NY, 12414","Match","Exact","92 VOSENKILL RD, CATSKILL, NY, 12414",635550545,"R"
929473,"92 W 800 S","OREM","UT",84058,40.2824413660001,-111.697391728,473,"92 W 800 S, OREM, UT, 84058","Match","Exact","92 W 800 S, OREM, UT, 84058",134206069,"R"
929474,"92 W CAVENESS AVE APT C","WICKENBURG","AZ",85390,33.974220173,-112.735272585,474,"92 W CAVENESS AVE APT C, WICKENBURG, AZ, 85390","Match","Non_Exact","92 CAVANESS AVE, WICKENBURG, AZ, 85390",128132889,"R"
929475,"92 W GADSDEN ST","PENSACOLA","FL",32501,30.42016813,-87.218401203,475,"92 W GADSDEN ST, PENSACOLA, FL, 32501","Match","Exact","92 W GADSDEN ST, PENSACOLA, FL, 32501",93221392,"R"
929476,"92 W MCGUIRE RD","CARBONDALE","IL",62901,NA,NA,476,"92 W MCGUIRE RD, CARBONDALE, IL, 62901","No_Match",NA,NA,NA,NA
929477,"92 W PALM DR","MARGATE","FL",33063,26.2317189130001,-80.202864678,477,"92 W PALM DR, MARGATE, FL, 33063","Match","Exact","92 W PALM DR, MARGATE, FL, 33063",635913616,"R"
929478,"92 WALKER GROVE","SUDBURY","VT",5733,43.75924158,-73.195436876,478,"92 WALKER GROVE, SUDBURY, VT, 5733","Match","Non_Exact","92 WALKER GROVE RD, SUDBURY, VT, 05733",138942720,"L"
929479,"92 WANDA WAY","COATESVILLE","PA",19320,39.968228728,-75.7770249289999,479,"92 WANDA WAY, COATESVILLE, PA, 19320","Match","Exact","92 WANDA WAY, COATESVILLE, PA, 19320",624820479,"R"
929480,"92 WARANOKE ROAD","MANCHESTER","CT",6040,41.7771426910001,-72.498156826,480,"92 WARANOKE ROAD, MANCHESTER, CT, 6040","Match","Exact","92 WARANOKE RD, MANCHESTER, CT, 06040",3499869,"R"
929481,"92 WARREN ROAD","WEST ORANGE","NJ",7022,NA,NA,481,"92 WARREN ROAD, WEST ORANGE, NJ, 7022","No_Match",NA,NA,NA,NA
929482,"92 WEBFOOT DR","GARNER","NC",27529,35.6257172370001,-78.5532753699999,482,"92 WEBFOOT DR, GARNER, NC, 27529","Match","Exact","92 WEBFOOT DR, GARNER, NC, 27529",26553264,"R"
929483,"92 WEIR ST","HINGHAM","MA",2043,42.2483221740001,-70.8578784859999,483,"92 WEIR ST, HINGHAM, MA, 2043","Match","Exact","92 WEIR ST, HINGHAM, MA, 02043",616485931,"R"
929484,"92 WEST MAIN ST","HONEOYE FALLS","NY",14472,42.9501541220001,-77.5976787239999,484,"92 WEST MAIN ST, HONEOYE FALLS, NY, 14472","Match","Exact","92 W MAIN ST, HONEOYE FALLS, NY, 14472",14568833,"L"
929485,"92 WEST MILLER STREET MP 301","ORLANDO","FL",32806,28.523851037,-81.3796804899999,485,"92 WEST MILLER STREET MP 301, ORLANDO, FL, 32806","Match","Non_Exact","92 W MILLER AVE, ORLANDO, FL, 32806",94282698,"L"
929486,"92 WEST TREMONT AVENUE APT 3F","BRONX","NY",10045,40.850716871,-73.9122311149999,486,"92 WEST TREMONT AVENUE APT 3F, BRONX, NY, 10045","Match","Non_Exact","92 W TREMONT AVE, BRONX, NY, 10453",80312772,"L"
929487,"92 WICKLIFFE DR","NAPLES","FL",34110,26.275061199,-81.7645560079999,487,"92 WICKLIFFE DR, NAPLES, FL, 34110","Match","Exact","92 WICKLIFFE DR, NAPLES, FL, 34110",115137288,"R"
929488,"92 WILLIS AVENUE","MINEOLA","NY",11501,40.742575722,-73.637371726,488,"92 WILLIS AVENUE, MINEOLA, NY, 11501","Match","Exact","92 WILLIS AVE, MINEOLA, NY, 11501",147673047,"R"
929489,"92 WILTON ROAD","FAIRFIELD","CT",6824,41.1726698620001,-73.2456549789999,489,"92 WILTON ROAD, FAIRFIELD, CT, 6824","Match","Exact","92 WILTON RD, FAIRFIELD, CT, 06824",3220676,"R"
929490,"92 WOODIN STREET","HAMDEN","CT",6514,41.345466103,-72.9374487549999,490,"92 WOODIN STREET, HAMDEN, CT, 6514","Match","Exact","92 WOODIN ST, HAMDEN, CT, 06514",3698719,"L"
929491,"92 WOODLAND CIRCLE","REEDSVILLE","PA",17084,40.6809649580001,-77.6007076929999,491,"92 WOODLAND CIRCLE, REEDSVILLE, PA, 17084","Match","Exact","92 WOODLAND CIR, REEDSVILLE, PA, 17084",48012483,"R"
929492,"92 WOODLAND GREEN","ROCHESTER","NH",3867,NA,NA,492,"92 WOODLAND GREEN, ROCHESTER, NH, 3867","No_Match",NA,NA,NA,NA
929493,"92 WOODSIDE ROAD","MAPLEWOOD","NJ",7040,40.729375685,-74.247003283,493,"92 WOODSIDE ROAD, MAPLEWOOD, NJ, 7040","Match","Exact","92 WOODSIDE RD, MAPLEWOOD, NJ, 07040",63463542,"R"
929494,"92 WYNDHAM WAY","PETALUMA","CA",94954,38.2565259020001,-122.622369978,494,"92 WYNDHAM WAY, PETALUMA, CA, 94954","Match","Exact","92 WYNDHAM WAY, PETALUMA, CA, 94954",67518550,"L"
929495,"92 YVONNE AVE","CHEEKTOWAGA","NY",14225,42.948006455,-78.768086609,495,"92 YVONNE AVE, CHEEKTOWAGA, NY, 14225","Match","Exact","92 YVONNE AVE, CHEEKTOWAGA, NY, 14225",48299579,"L"
929496,"92 ZEIGLER STREET","ROXBURY","MA",2119,42.32913975,-71.0810333329999,496,"92 ZEIGLER STREET, ROXBURY, MA, 2119","Match","Exact","92 ZEIGLER ST, ROXBURY, MA, 02119",85700530,"L"
929497,"92-02 LIBERTY AVENUE","OZONE PARK","NY",11417,40.68013433,-73.846769777,497,"92-02 LIBERTY AVENUE, OZONE PARK, NY, 11417","Match","Exact","92-2 LIBERTY AVE, OZONE PARK, NY, 11417",59707697,"R"
929498,"92-03","ROCKAWAY BEACH","NY",11693,NA,NA,498,"92-03, ROCKAWAY BEACH, NY, 11693","No_Match",NA,NA,NA,NA
929499,"92-06 156TH AVENUE","HOWARD BEACH","NY",11414,40.6640709870001,-73.841987994,499,"92-06 156TH AVENUE, HOWARD BEACH, NY, 11414","Match","Exact","92-6 156TH AVE, HOWARD BEACH, NY, 11414",59708823,"R"
929500,"92-100 PALAHIA PL","KAPOLEI","HI",96707,21.3611374180001,-158.090386909,500,"92-100 PALAHIA PL, KAPOLEI, HI, 96707","Match","Exact","92-100 PALAHIA PL, KAPOLEI, HI, 96707",203322670,"R"
