"ID","Address","City","State","Zip","lat","long","id","input_address","match_indicator","match_type","matched_address","tiger_line_id","tiger_side"
809001,"6901 23RD AVE SW","SEATTLE","WA",98106,47.5415179180001,-122.362349148,1,"6901 23RD AVE SW, SEATTLE, WA, 98106","Match","Exact","6901 23RD AVE SW, SEATTLE, WA, 98106",186590992,"R"
809002,"6901 76TH AVENU NORTH","BROOKLYN PARK","MN",55428,45.092703306,-93.3692650409999,2,"6901 76TH AVENU NORTH, BROOKLYN PARK, MN, 55428","Match","Exact","6901 76TH AVE N, BROOKLYN PARK, MN, 55428",43613927,"L"
809003,"6901 ALLEN PLACE","FORT WORTH","TX",76116,32.6969868960001,-97.428804354,3,"6901 ALLEN PLACE, FORT WORTH, TX, 76116","Match","Non_Exact","6901 ALLEN PLACE DR, FORT WORTH, TX, 76116",102111160,"R"
809004,"6901 AMES STREET","MORNINGSIDE","MD",20746,38.828269397,-76.888626503,4,"6901 AMES STREET, MORNINGSIDE, MD, 20746","Match","Exact","6901 AMES ST, MORNINGSIDE, MD, 20746",76375464,"R"
809005,"6901 APPALOOSA DRIVE","CORVALLIS","OR",97330,44.640271496,-123.251819138,5,"6901 APPALOOSA DRIVE, CORVALLIS, OR, 97330","Match","Non_Exact","6901 NW APPALOOSA DR, CORVALLIS, OR, 97330",648540048,"L"
809006,"6901 BEAVERWOOD DR","RALEIGH","NC",27616,35.8729954930001,-78.551199689,6,"6901 BEAVERWOOD DR, RALEIGH, NC, 27616","Match","Exact","6901 BEAVERWOOD DR, RALEIGH, NC, 27616",647325665,"L"
809007,"6901 BOCK ROAD","FORT WASHINGTON","MD",20744,NA,NA,7,"6901 BOCK ROAD, FORT WASHINGTON, MD, 20744","No_Match",NA,NA,NA,NA
809008,"6901 BRACHNELL VEIW DR","CHARLOTTE","NC",28269,35.310905995,-80.797702602,8,"6901 BRACHNELL VEIW DR, CHARLOTTE, NC, 28269","Match","Non_Exact","6901 BRACHNELL VIEW DR, CHARLOTTE, NC, 28269",70582490,"L"
809009,"6901 BRASSOW LANE","DEXTER","MI",48130,42.359976225,-83.870037969,9,"6901 BRASSOW LANE, DEXTER, MI, 48130","Match","Exact","6901 BRASSOW LN, DEXTER, MI, 48130",26034436,"R"
809010,"6901 BROOKMILL ROAD","BALTIMORE","MD",21215,39.3573404750001,-76.712089955,10,"6901 BROOKMILL ROAD, BALTIMORE, MD, 21215","Match","Exact","6901 BROOKMILL RD, BALTIMORE, MD, 21215",191469175,"R"
809011,"6901 BRYANBELL DRIVE","N CHESTERFIELD","VA",23234,37.423230975,-77.482663687,11,"6901 BRYANBELL DRIVE, N CHESTERFIELD, VA, 23234","Match","Exact","6901 BRYANBELL DR, NORTH CHESTERFIELD, VA, 23234",201560694,"L"
809012,"6901 CARROLL AVENUE","CINCINNATI","OH",45236,39.1933211890001,-84.392484192,12,"6901 CARROLL AVENUE, CINCINNATI, OH, 45236","Match","Exact","6901 CARROLL AVE, CINCINNATI, OH, 45236",103932663,"L"
809013,"6901 CASTLE PEAK DRIVE","WEST HILLS","CA",91367,34.197292304,-118.660013309,13,"6901 CASTLE PEAK DRIVE, WEST HILLS, CA, 91367","Match","Non_Exact","6901 CASTLE PEAK DR, WEST HILLS, CA, 91307",141722550,"L"
809014,"6901 CHANTEL CT","SAN JOSE","CA",95129,37.2978327960001,-122.030842813,14,"6901 CHANTEL CT, SAN JOSE, CA, 95129","Match","Exact","6901 CHANTEL CT, SAN JOSE, CA, 95129",629508794,"L"
809015,"6901 CHATFORD LANE","CHARLOTTE","NC",28210,35.121345509,-80.829125371,15,"6901 CHATFORD LANE, CHARLOTTE, NC, 28210","Match","Exact","6901 CHATFORD LN, CHARLOTTE, NC, 28210",70500552,"L"
809016,"6901 CHEF MENTEUR HWY","NEW ORLEANS","LA",70126,30.0116345750001,-90.005733326,16,"6901 CHEF MENTEUR HWY, NEW ORLEANS, LA, 70126","Match","Exact","6901 CHEF MENTEUR HWY, NEW ORLEANS, LA, 70126",191743626,"L"
809017,"6901 CHINKAPIN CIR","MANHATTAN","KS",66502,NA,NA,17,"6901 CHINKAPIN CIR, MANHATTAN, KS, 66502","No_Match",NA,NA,NA,NA
809018,"6901 CLINTONVILLE ROAD","CLARKSTON","MI",48348,42.740734967,-83.350257168,18,"6901 CLINTONVILLE ROAD, CLARKSTON, MI, 48348","Match","Exact","6901 CLINTONVILLE RD, CLARKSTON, MI, 48348",618057442,"L"
809019,"6901 CLUBHOUSE COURT","HARRISBURG","PA",17111,40.2981855240001,-76.768844583,19,"6901 CLUBHOUSE COURT, HARRISBURG, PA, 17111","Match","Exact","6901 CLUBHOUSE CT, HARRISBURG, PA, 17111",70843589,"L"
809020,"6901 COBBLERS WAY","AUSTELL","GA",30168,33.788017543,-84.5574081079999,20,"6901 COBBLERS WAY, AUSTELL, GA, 30168","Match","Non_Exact","6901 COBBLERS WAY SW, AUSTELL, GA, 30168",17227900,"L"
809021,"6901 COIT ROAD","FRISCO","TX",75035,NA,NA,21,"6901 COIT ROAD, FRISCO, TX, 75035","No_Match",NA,NA,NA,NA
809022,"6901 CORPORATE DR STE 218","HOUSTON","TX",77036,29.7046226200001,-95.551448434,22,"6901 CORPORATE DR STE 218, HOUSTON, TX, 77036","Match","Exact","6901 CORPORATE DR, HOUSTON, TX, 77036",96608574,"L"
809023,"6901 E LAKE MEAD BLVD  NO 1134","LAS VEGAS","NV",89156,NA,NA,23,"6901 E LAKE MEAD BLVD  NO 1134, LAS VEGAS, NV, 89156","No_Match",NA,NA,NA,NA
809024,"6901 E LAKE MEAD BLVD APT 2103","LAS VEGAS","NV",89156,36.1963046650001,-115.021440306,24,"6901 E LAKE MEAD BLVD APT 2103, LAS VEGAS, NV, 89156","Match","Non_Exact","6901 E LAKE MEAD BLVD, LAS VEGAS, NV, 89156",641518923,"R"
809025,"6901 EAST REDFIELD ROAD","SCOTTSVILLE","AZ",85254,33.6141910640001,-111.932113578,25,"6901 EAST REDFIELD ROAD, SCOTTSVILLE, AZ, 85254","Match","Non_Exact","6901 E REDFIELD RD, SCOTTSDALE, AZ, 85254",128188330,"R"
809026,"6901 ENVIRON BOULEVARD 3D","LAUDERHILL","FL",33319,26.173950425,-80.2440981619999,26,"6901 ENVIRON BOULEVARD 3D, LAUDERHILL, FL, 33319","Match","Exact","6901 ENVIRON BLVD, LAUDERHILL, FL, 33319",608969750,"L"
809027,"6901 FULFORD ST","CLINTON","MD",20735,38.7345230380001,-76.888065205,27,"6901 FULFORD ST, CLINTON, MD, 20735","Match","Exact","6901 FULFORD ST, CLINTON, MD, 20735",76321111,"R"
809028,"6901 GEORGETOWN PIKE","MCLEAN","VA",22101,38.951080817,-77.178212082,28,"6901 GEORGETOWN PIKE, MCLEAN, VA, 22101","Match","Exact","6901 GEORGETOWN PIKE, MCLEAN, VA, 22101",215924060,"L"
809029,"6901 GLASGOW LANE","PORT TOBACCO","MD",20677,38.5226761820001,-77.0799792299999,29,"6901 GLASGOW LANE, PORT TOBACCO, MD, 20677","Match","Exact","6901 GLASGOW LN, PORT TOBACCO, MD, 20677",25421779,"L"
809030,"6901 GLENRIO RD NW APT4313","ALBUQUERQUE","NM",87121,35.0974148190001,-106.717138385,30,"6901 GLENRIO RD NW APT4313, ALBUQUERQUE, NM, 87121","Match","Exact","6901 GLENRIO RD NW, ALBUQUERQUE, NM, 87121",206739057,"R"
809031,"6901 HENZE RD","EVANSVILLE","IN",47720,38.0427596070001,-87.6489377359999,31,"6901 HENZE RD, EVANSVILLE, IN, 47720","Match","Exact","6901 HENZE RD, EVANSVILLE, IN, 47720",653410873,"L"
809032,"6901 KIMBERLY BOULEVARD","NORTH LAUDERDALE","FL",33076,26.2186174550001,-80.218687217,32,"6901 KIMBERLY BOULEVARD, NORTH LAUDERDALE, FL, 33076","Match","Non_Exact","6901 KIMBERLY BLVD, N LAUDERDALE, FL, 33068",114692672,"R"
809033,"6901 LAMOTTE DR","LINO LAKES","MN",55038,45.157906568,-93.064137745,33,"6901 LAMOTTE DR, LINO LAKES, MN, 55038","Match","Exact","6901 LAMOTTE DR, LINO LAKES, MN, 55038",97511253,"R"
809034,"6901 LEYTON PL","SUFFOLK","VA",23435,36.8898189970001,-76.410131755,34,"6901 LEYTON PL, SUFFOLK, VA, 23435","Match","Exact","6901 LEYTON PL, SUFFOLK, VA, 23435",122240907,"L"
809035,"6901 LONE STAR CT","MONTGOMERY","TX",77316,30.280452956,-95.7293104519999,35,"6901 LONE STAR CT, MONTGOMERY, TX, 77316","Match","Exact","6901 LONE STAR CT, MONTGOMERY, TX, 77316",650782293,"R"
809036,"6901 MARSHALL ROAD","LOTUS","CA",95651,38.812224438,-120.90799421,36,"6901 MARSHALL ROAD, LOTUS, CA, 95651","Match","Exact","6901 MARSHALL RD, LOTUS, CA, 95651",639937257,"R"
809037,"6901 MEMORIAL HEIGHTS DR","ALEXANDRIA","VA",22306,38.7680236730001,-77.0809218099999,37,"6901 MEMORIAL HEIGHTS DR, ALEXANDRIA, VA, 22306","Match","Exact","6901 MEMORIAL HEIGHTS DR, ALEXANDRIA, VA, 22306",75989756,"L"
809038,"6901 MERCY ROAD","OMAHA","NE",68106,41.237894757,-96.01939974,38,"6901 MERCY ROAD, OMAHA, NE, 68106","Match","Exact","6901 MERCY RD, OMAHA, NE, 68106",117041671,"L"
809039,"6901 N JONES BLVD","LAS VEGAS","NV",89131,36.285036701,-115.224373258,39,"6901 N JONES BLVD, LAS VEGAS, NV, 89131","Match","Exact","6901 N JONES BLVD, LAS VEGAS, NV, 89131",201857574,"L"
809040,"6901 N JONES BLVD","LAS VEGAS","TX",89131,NA,NA,40,"6901 N JONES BLVD, LAS VEGAS, TX, 89131","No_Match",NA,NA,NA,NA
809041,"6901 N KELLEY","OKLAHOMA CITY","OK",73111,35.540849442,-97.494204574,41,"6901 N KELLEY, OKLAHOMA CITY, OK, 73111","Match","Non_Exact","6901 N KELLEY AVE, OKLAHOMA CITY, OK, 73111",100395665,"L"
809042,"6901 N LAMAR SUITE 124","AUSTIN","TX",78752,NA,NA,42,"6901 N LAMAR SUITE 124, AUSTIN, TX, 78752","No_Match",NA,NA,NA,NA
809043,"6901 N LAMARE SUITE 124","AUSTIN","TX",78752,NA,NA,43,"6901 N LAMARE SUITE 124, AUSTIN, TX, 78752","No_Match",NA,NA,NA,NA
809044,"6901 NE LOOP 820 APT 526","NORTH RICHLAND HILLS","TX",76180,32.840340111,-97.232275719,44,"6901 NE LOOP 820 APT 526, NORTH RICHLAND HILLS, TX, 76180","Match","Non_Exact","6901 NE LOOP 820, NORTH RICHLAND HILLS, TX, 76180",101863106,"L"
809045,"6901 NIUMALU LOOP","HONOLULU","HI",96825,21.2979144010001,-157.695428358,45,"6901 NIUMALU LOOP, HONOLULU, HI, 96825","Match","Exact","6901 NIUMALU LOOP, HONOLULU, HI, 96825",203333995,"R"
809046,"6901 NOBLE DRIVE","HAZELWOOD","MI",63042,NA,NA,46,"6901 NOBLE DRIVE, HAZELWOOD, MI, 63042","No_Match",NA,NA,NA,NA
809047,"6901 NORTH BEACH STREET APT 1023","FORT WORTH","TX",76137,32.8639504270001,-97.29098852,47,"6901 NORTH BEACH STREET APT 1023, FORT WORTH, TX, 76137","Match","Exact","6901 N BEACH ST, FORT WORTH, TX, 76137",636364207,"L"
809048,"6901 NORTH CAMINO DE LA TIERRA","TUCSON","AZ",85741,NA,NA,48,"6901 NORTH CAMINO DE LA TIERRA, TUCSON, AZ, 85741","No_Match",NA,NA,NA,NA
809049,"6901 NW 11TH PL","PLANTATION","FL",33313,26.139530779,-80.240771219,49,"6901 NW 11TH PL, PLANTATION, FL, 33313","Match","Exact","6901 NW 11TH PL, PLANTATION, FL, 33313",608970534,"R"
809050,"6901 NW 16TH ST","PLANTATION","FL",33313,26.1446634480001,-80.240805951,50,"6901 NW 16TH ST, PLANTATION, FL, 33313","Match","Exact","6901 NW 16TH ST, PLANTATION, FL, 33313",114815719,"R"
809051,"6901 OKEECHIBEE BLVD STE D-5 H-4","WPB","FL",33411,26.7080051720001,-80.151061034,51,"6901 OKEECHIBEE BLVD STE D-5 H-4, WPB, FL, 33411","Match","Non_Exact","6901 OKEECHOBEE BLVD, ROYAL PALM BEACH, FL, 33411",647719173,"L"
809052,"6901 OKEECHOBEE BLVD ST D5 H4","WEST PALM BEACH","FL",33411,26.7080051720001,-80.151061034,52,"6901 OKEECHOBEE BLVD ST D5 H4, WEST PALM BEACH, FL, 33411","Match","Exact","6901 OKEECHOBEE BLVD, WEST PALM BEACH, FL, 33411",647719173,"L"
809053,"6901 OKEECHOBEE BLVD ST D5 H4","WEST PALM BECAH","FL",33411,26.7080051720001,-80.151061034,53,"6901 OKEECHOBEE BLVD ST D5 H4, WEST PALM BECAH, FL, 33411","Match","Non_Exact","6901 OKEECHOBEE BLVD, WELLINGTON, FL, 33411",647719173,"L"
809054,"6901 OKEECHOBEE BLVD SUITE D5-H16","WEST PALM BEACH","FL",33411,26.7080051720001,-80.151061034,54,"6901 OKEECHOBEE BLVD SUITE D5-H16, WEST PALM BEACH, FL, 33411","Match","Exact","6901 OKEECHOBEE BLVD, WEST PALM BEACH, FL, 33411",647719173,"L"
809055,"6901 OLD YORK ROAD","PHILADELPHIA","PA",19126,40.058076156,-75.1390228289999,55,"6901 OLD YORK ROAD, PHILADELPHIA, PA, 19126","Match","Exact","6901 OLD YORK RD, PHILADELPHIA, PA, 19126",131413777,"R"
809056,"6901 PERRY AVENUE","BROOKLYN CENTER","MN",55429,45.080187906,-93.343802406,56,"6901 PERRY AVENUE, BROOKLYN CENTER, MN, 55429","Match","Non_Exact","6901 PERRY AVE N, BROOKLYN CENTER, MN, 55429",641287156,"L"
809057,"6901 PETERS PATH","COLLEYVILLE","TX",76034,32.907933728,-97.1518687989999,57,"6901 PETERS PATH, COLLEYVILLE, TX, 76034","Match","Exact","6901 PETERS PATH, COLLEYVILLE, TX, 76034",617845168,"R"
809058,"6901 PLYMOUTH DR","LANTANA","FL",33462,26.573790913,-80.084757807,58,"6901 PLYMOUTH DR, LANTANA, FL, 33462","Match","Exact","6901 PLYMOUTH DR, LANTANA, FL, 33462",115511771,"R"
809059,"6901 RADNOR ROAD","BETHESDA","MD",20817,38.9780776810001,-77.1135636989999,59,"6901 RADNOR ROAD, BETHESDA, MD, 20817","Match","Exact","6901 RADNOR RD, BETHESDA, MD, 20817",62058835,"R"
809060,"6901 RICHMAN WAY","SACRAMENTO","CA",95828,38.502547737,-121.421723911,60,"6901 RICHMAN WAY, SACRAMENTO, CA, 95828","Match","Exact","6901 RICHMAN WAY, SACRAMENTO, CA, 95828",133337800,"L"
809061,"6901 ROSEMARY ST","DEARBORN HEIGHTS","MI",48127,42.3380415400001,-83.303751233,61,"6901 ROSEMARY ST, DEARBORN HEIGHTS, MI, 48127","Match","Exact","6901 ROSEMARY ST, DEARBORN HEIGHTS, MI, 48127",95502797,"L"
809062,"6901 ROUTE ROAD","LOUISVILLE","KY",40299,38.1378896520001,-85.465118944,62,"6901 ROUTE ROAD, LOUISVILLE, KY, 40299","Match","Non_Exact","6901 ROUTT RD, LOUISVILLE, KY, 40299",96905414,"L"
809063,"6901 S OGLESBY","CHICAGO","IL",60649,41.769744082,-87.5682291749999,63,"6901 S OGLESBY, CHICAGO, IL, 60649","Match","Non_Exact","6901 S OGLESBY AVE, CHICAGO, IL, 60649",111775558,"L"
809064,"6901 SALEWSKY CT","ELK GROVE","CA",95757,38.3936542070001,-121.421231896,64,"6901 SALEWSKY CT, ELK GROVE, CA, 95757","Match","Exact","6901 SALEWSKY CT, ELK GROVE, CA, 95757",133430792,"L"
809065,"6901 SAND PEBBLE AVE","TEMPLE TERRACE","FL",33637,NA,NA,65,"6901 SAND PEBBLE AVE, TEMPLE TERRACE, FL, 33637","No_Match",NA,NA,NA,NA
809066,"6901 SCARLET OAKS DR","ELKRIDGE","MD",21075,39.183497721,-76.755017488,66,"6901 SCARLET OAKS DR, ELKRIDGE, MD, 21075","Match","Non_Exact","6901 SCARLET OAK DR, ELKRIDGE, MD, 21075",618948826,"L"
809067,"6901 SCARLET OAKS DRIVE","ELKRIDGE","MD",21075,39.183497721,-76.755017488,67,"6901 SCARLET OAKS DRIVE, ELKRIDGE, MD, 21075","Match","Non_Exact","6901 SCARLET OAK DR, ELKRIDGE, MD, 21075",618948826,"L"
809068,"6901 SPRINGDALE DRIVE","EVANSVILLE","IN",47720,37.9946622430001,-87.6575201479999,68,"6901 SPRINGDALE DRIVE, EVANSVILLE, IN, 47720","Match","Exact","6901 SPRINGDALE DR, EVANSVILLE, IN, 47720",39777539,"L"
809069,"6901 SUNNYWOOD DRIVE","NASHVILLE","TN",37211,36.015719464,-86.700836324,69,"6901 SUNNYWOOD DRIVE, NASHVILLE, TN, 37211","Match","Exact","6901 SUNNYWOOD DR, NASHVILLE, TN, 37211",606839138,"R"
809070,"6901 SW CAPITOL RD","PORTLAND","OR",97219,45.4744352610001,-122.707721764,70,"6901 SW CAPITOL RD, PORTLAND, OR, 97219","Match","Non_Exact","6901 SW CAPITOL HWY, PORTLAND, OR, 97219",647823368,"R"
809071,"6901 SYDENSTRICKER ROAD","SPRINGFIELD","VA",22152,38.766319895,-77.253300611,71,"6901 SYDENSTRICKER ROAD, SPRINGFIELD, VA, 22152","Match","Exact","6901 SYDENSTRICKER RD, SPRINGFIELD, VA, 22152",642594993,"L"
809072,"6901 VIA LOCANDA AVE","LAS VEGAS","NV",89131,36.2947962920001,-115.244618663,72,"6901 VIA LOCANDA AVE, LAS VEGAS, NV, 89131","Match","Exact","6901 VIA LOCANDA AVE, LAS VEGAS, NV, 89131",612679371,"L"
809073,"6901 W 84TH ST APT 221","BLOOMINGTON","MN",55438,NA,NA,73,"6901 W 84TH ST APT 221, BLOOMINGTON, MN, 55438","No_Match",NA,NA,NA,NA
809074,"6901 W MARIPOSA ST","PHOENIX","AZ",85033,33.507723626,-112.207517142,74,"6901 W MARIPOSA ST, PHOENIX, AZ, 85033","Match","Exact","6901 W MARIPOSA ST, PHOENIX, AZ, 85033",128193951,"L"
809075,"6901 W MCDOWELL APT 9205","PHOENIX","AZ",85035,NA,NA,75,"6901 W MCDOWELL APT 9205, PHOENIX, AZ, 85035","No_Match",NA,NA,NA,NA
809076,"6901 W OKEECHOBEE BLVD STE D5 H25","WEST PALM BEACH","FL",33411,26.708005294,-80.151065232,76,"6901 W OKEECHOBEE BLVD STE D5 H25, WEST PALM BEACH, FL, 33411","Match","Exact","6901 OKEECHOBEE BLVD, WEST PALM BEACH, FL, 33411",647719173,"L"
809077,"6901 W84TH S APT 345","BLOOMINGTON","MN",55438,NA,NA,77,"6901 W84TH S APT 345, BLOOMINGTON, MN, 55438","No_Match",NA,NA,NA,NA
809078,"6901 WEST 84TH STREET APT 312","BLOOMINGTON","MN",55438,44.850591939,-93.375272584,78,"6901 WEST 84TH STREET APT 312, BLOOMINGTON, MN, 55438","Match","Non_Exact","6901 W 84TH STREET CIR, BLOOMINGTON, MN, 55438",43593954,"L"
809079,"6901 WEST 84TH STREET SUITE 312","BLOOMINGTON","MN",55438,44.850591939,-93.375272584,79,"6901 WEST 84TH STREET SUITE 312, BLOOMINGTON, MN, 55438","Match","Non_Exact","6901 W 84TH STREET CIR, BLOOMINGTON, MN, 55438",43593954,"L"
809080,"6901 WESTMAR DRIVE","ORLANDO","FL",32819,28.4795825950001,-81.4753626199999,80,"6901 WESTMAR DRIVE, ORLANDO, FL, 32819","Match","Exact","6901 WESTMAR DR, ORLANDO, FL, 32819",639763862,"R"
809081,"6901 WHITTIER DR","MILLVILLE","NJ",8332,39.327112992,-75.0291513619999,81,"6901 WHITTIER DR, MILLVILLE, NJ, 8332","Match","Exact","6901 WHITTIER DR, MILLVILLE, NJ, 08332",174117700,"R"
809082,"6901 YOUNGER DR UNIT 33","BUENA PARK","CA",90620,33.835080045,-118.012127134,82,"6901 YOUNGER DR UNIT 33, BUENA PARK, CA, 90620","Match","Exact","6901 YOUNGER DR, BUENA PARK, CA, 90620",144116710,"R"
809083,"6901","FRISCO","TX",75035,NA,NA,83,"6901, FRISCO, TX, 75035","No_Match",NA,NA,NA,NA
809084,"69010 CAMP POLK ROAD","SISTERS","OR",97759,44.298823283,-121.54371224,84,"69010 CAMP POLK ROAD, SISTERS, OR, 97759","Match","Exact","69010 CAMP POLK RD, SISTERS, OR, 97759",639940038,"R"
809085,"69012 TAMARACK ROAD","WALKERTON","IN",46574,41.4917632140001,-86.426243115,85,"69012 TAMARACK ROAD, WALKERTON, IN, 46574","Match","Exact","69012 TAMARACK RD, WALKERTON, IN, 46574",8048527,"R"
809086,"6902 22ND AVE","HYATTSVILLE","MD",20783,38.973692612,-76.9737344709999,86,"6902 22ND AVE, HYATTSVILLE, MD, 20783","Match","Exact","6902 22ND AVE, HYATTSVILLE, MD, 20783",76303779,"L"
809087,"6902 ALBERT ODOM ROAD","DONALSONVILLE","GA",39845,30.8894273450001,-84.8735391609999,87,"6902 ALBERT ODOM ROAD, DONALSONVILLE, GA, 39845","Match","Exact","6902 ALBERT ODOM RD, DONALSONVILLE, GA, 39845",87872329,"L"
809088,"6902 AMESBURY LN","ROWLETT","TX",75089,32.9207166740001,-96.523548978,88,"6902 AMESBURY LN, ROWLETT, TX, 75089","Match","Exact","6902 AMESBURY LN, ROWLETT, TX, 75089",103278348,"R"
809089,"6902 ATHENA DRIVE","LAKE WORTH","FL",33462,26.574996352,-80.118936372,89,"6902 ATHENA DRIVE, LAKE WORTH, FL, 33462","Match","Non_Exact","6902 ATHENA DR, LAKE WORTH, FL, 33463",115578040,"L"
809090,"6902 BAYARD RD","FT PIERCE","FL",34951,27.545673322,-80.394292317,90,"6902 BAYARD RD, FT PIERCE, FL, 34951","Match","Exact","6902 BAYARD RD, FORT PIERCE, FL, 34951",120157150,"L"
809091,"6902 BELLE MEADOW LANE","RICHMOND","TX",77469,29.516690066,-95.743813307,91,"6902 BELLE MEADOW LANE, RICHMOND, TX, 77469","Match","Exact","6902 BELLE MEADOW LN, RICHMOND, TX, 77469",648705983,"R"
809092,"6902 BONNES BLVD","AUSTELL","GA",30168,33.7863257440001,-84.562354396,92,"6902 BONNES BLVD, AUSTELL, GA, 30168","Match","Exact","6902 BONNES BLVD, AUSTELL, GA, 30168",614181624,"L"
809093,"6902 BRIGHTWOOD APT D","GWYNN OAK","MD",21207,NA,NA,93,"6902 BRIGHTWOOD APT D, GWYNN OAK, MD, 21207","No_Match",NA,NA,NA,NA
809094,"6902 CAMERON CREST CIRCLE APT 125","RALEIGH","NC",27613,35.8745177530001,-78.723927374,94,"6902 CAMERON CREST CIRCLE APT 125, RALEIGH, NC, 27613","Match","Exact","6902 CAMERON CREST CIR, RALEIGH, NC, 27613",72664283,"R"
809095,"6902 CAMERON CREST CIRLCEL","RALEIGH","NC",27613,35.8745177530001,-78.723927374,95,"6902 CAMERON CREST CIRLCEL, RALEIGH, NC, 27613","Match","Non_Exact","6902 CAMERON CREST CIR, RALEIGH, NC, 27613",72664283,"R"
809096,"6902 CIPRIANO WOODS COURT","LANHAM","MD",20706,38.985114352,-76.854740228,96,"6902 CIPRIANO WOODS COURT, LANHAM, MD, 20706","Match","Exact","6902 CIPRIANO WOODS CT, LANHAM, MD, 20706",76350744,"R"
809097,"6902 COOK RD BLDG A","HOUSTON","TX",77072,29.7026899210001,-95.596149372,97,"6902 COOK RD BLDG A, HOUSTON, TX, 77072","Match","Exact","6902 COOK RD, HOUSTON, TX, 77072",96608236,"R"
809098,"6902 FALLS OF NEUSE RD","RALEIGH","NC",27615,35.8797008550001,-78.62515354,98,"6902 FALLS OF NEUSE RD, RALEIGH, NC, 27615","Match","Exact","6902 FALLS OF NEUSE RD, RALEIGH, NC, 27615",72505388,"R"
809099,"6902 FLAMINGO","HOUSTON","TX",77087,29.6660581290001,-95.306841396,99,"6902 FLAMINGO, HOUSTON, TX, 77087","Match","Non_Exact","6902 FLAMINGO DR, HOUSTON, TX, 77087",96092179,"R"
809100,"6902 FORCE ST","HOUSTON","TX",77020,29.786189129,-95.3009548219999,100,"6902 FORCE ST, HOUSTON, TX, 77020","Match","Exact","6902 FORCE ST, HOUSTON, TX, 77020",96080400,"R"
809101,"6902 IMPALA CT","WALDORF","MD",20603,38.62502915,-76.959080624,101,"6902 IMPALA CT, WALDORF, MD, 20603","Match","Exact","6902 IMPALA CT, WALDORF, MD, 20603",25384708,"L"
809102,"6902 KINGS CROSSING WAY","KNOXVILLE","TN",37918,36.072231969,-83.936717796,102,"6902 KINGS CROSSING WAY, KNOXVILLE, TN, 37918","Match","Exact","6902 KINGS CROSSING WAY, KNOXVILLE, TN, 37918",42653844,"L"
809103,"6902 KIPLING STREET","ARVADA","CO",80004,39.821458024,-105.110061439,103,"6902 KIPLING STREET, ARVADA, CO, 80004","Match","Exact","6902 KIPLING ST, ARVADA, CO, 80004",177286925,"R"
809104,"6902 KIPLING","ARVADA","CO",80004,39.821458024,-105.110061439,104,"6902 KIPLING, ARVADA, CO, 80004","Match","Non_Exact","6902 KIPLING ST, ARVADA, CO, 80004",177286925,"R"
809105,"6902 LAGNEY CIR","JACKSONVILLE","FL",32208,30.3963292940001,-81.7006032849999,105,"6902 LAGNEY CIR, JACKSONVILLE, FL, 32208","Match","Exact","6902 LAGNEY CIR, JACKSONVILLE, FL, 32208",83891717,"L"
809106,"6902 LOST THICKET DRIVE","HOUSTON","TX",77085,29.6290521,-95.490263246,106,"6902 LOST THICKET DRIVE, HOUSTON, TX, 77085","Match","Exact","6902 LOST THICKET DR, HOUSTON, TX, 77085",96128715,"L"
809107,"6902 N EDISON AVE","KANSAS CITY","MO",64151,39.219175969,-94.6123266069999,107,"6902 N EDISON AVE, KANSAS CITY, MO, 64151","Match","Exact","6902 N EDISON AVE, KANSAS CITY, MO, 64151",39714178,"L"
809108,"6902 NORTHLEAF DRIVE","HOUSTON","TX",77086,29.9346397310001,-95.487697557,108,"6902 NORTHLEAF DRIVE, HOUSTON, TX, 77086","Match","Exact","6902 NORTHLEAF DR, HOUSTON, TX, 77086",96010662,"L"
809109,"6902 NW SURREYWOOD PLACE","LAWTON","OK",73505,34.6326641410001,-98.4776108949999,109,"6902 NW SURREYWOOD PLACE, LAWTON, OK, 73505","Match","Exact","6902 NW SURREYWOOD PL, LAWTON, OK, 73505",15004003,"R"
809110,"6902 PARK AVENUE","RICHMOND","VA",23226,37.5918625840001,-77.5283825179999,110,"6902 PARK AVENUE, RICHMOND, VA, 23226","Match","Exact","6902 PARK AVE, RICHMOND, VA, 23226",106645386,"R"
809111,"6902 PROVIDENCE PLACE ESTATES","MOBILE","AL",36695,NA,NA,111,"6902 PROVIDENCE PLACE ESTATES, MOBILE, AL, 36695","No_Match",NA,NA,NA,NA
809112,"6902 REFUGEE RD","CANAL WINCHESTER","OH",43110,39.9117058370001,-82.81463661,112,"6902 REFUGEE RD, CANAL WINCHESTER, OH, 43110","Match","Exact","6902 REFUGEE RD, CANAL WINCHESTER, OH, 43110",642177986,"R"
809113,"6902 RIDGE HOLLOW","AUSTIN","TX",78750,30.372098249,-97.791773334,113,"6902 RIDGE HOLLOW, AUSTIN, TX, 78750","Match","Exact","6902 RIDGE HOLLOW, AUSTIN, TX, 78750",64025243,"L"
809114,"6902 RISING SUN AVENUE","PHILADELPHIA","PA",19111,40.0559149060001,-75.089423853,114,"6902 RISING SUN AVENUE, PHILADELPHIA, PA, 19111","Match","Exact","6902 RISING SUN AVE, PHILADELPHIA, PA, 19111",131415109,"L"
809115,"6902 S 29TH E AVE","TULSA","OK",74132,NA,NA,115,"6902 S 29TH E AVE, TULSA, OK, 74132","No_Match",NA,NA,NA,NA
809116,"6902 S PARNELL AVE","CHICAGO","IL",60621,41.7687592340001,-87.638452568,116,"6902 S PARNELL AVE, CHICAGO, IL, 60621","Match","Exact","6902 S PARNELL AVE, CHICAGO, IL, 60621",111831154,"R"
809117,"6902 SE RIVERSIDE DRIVE NO 5","VANCOUVER","WA",98684,NA,NA,117,"6902 SE RIVERSIDE DRIVE NO 5, VANCOUVER, WA, 98684","No_Match",NA,NA,NA,NA
809118,"6902 STRATFORD TOWNES WAY","RICHMOND","VA",23225,37.539909408,-77.520570677,118,"6902 STRATFORD TOWNES WAY, RICHMOND, VA, 23225","Match","Exact","6902 STRATFORD TOWNES WAY, RICHMOND, VA, 23225",624277484,"L"
809119,"6902 TANGLEWOOD ST","LAKEWOOD","CA",90713,33.8412034290001,-118.099040391,119,"6902 TANGLEWOOD ST, LAKEWOOD, CA, 90713","Match","Exact","6902 TANGLEWOOD ST, LAKEWOOD, CA, 90713",141745295,"R"
809120,"6902 TERRAZZO DR NW","CEDAR RAPIDS","IA",52405,41.9745857840001,-91.759605218,120,"6902 TERRAZZO DR NW, CEDAR RAPIDS, IA, 52405","Match","Exact","6902 TERRAZZO DR NW, CEDAR RAPIDS, IA, 52405",17034611,"R"
809121,"6902 TWIN FALLS DRIVE","PLAINFIELD","IL",60586,41.576311591,-88.253135866,121,"6902 TWIN FALLS DRIVE, PLAINFIELD, IL, 60586","Match","Exact","6902 TWIN FALLS DR, PLAINFIELD, IL, 60586",111643792,"R"
809122,"6902 VIVIAN AVE","DALLAS","TX",75223,32.803616832,-96.738218664,122,"6902 VIVIAN AVE, DALLAS, TX, 75223","Match","Exact","6902 VIVIAN AVE, DALLAS, TX, 75223",102921393,"R"
809123,"6902 W 128TH PLACE","CEDAR LAKE","IN",46303,41.3857091680001,-87.417774836,123,"6902 W 128TH PLACE, CEDAR LAKE, IN, 46303","Match","Exact","6902 W 128TH PL, CEDAR LAKE, IN, 46303",98431966,"R"
809124,"69025 GARNER AVE","CATHEDRAL CITY","CA",92234,33.8188775410001,-116.457409823,124,"69025 GARNER AVE, CATHEDRAL CITY, CA, 92234","Match","Exact","69025 GARNER AVE, CATHEDRAL CITY, CA, 92234",194765943,"R"
809125,"6903 25TH AVE","ADELPHI","MD",20783,38.9727426900001,-76.9685747189999,125,"6903 25TH AVE, ADELPHI, MD, 20783","Match","Exact","6903 25TH AVE, ADELPHI, MD, 20783",76303850,"R"
809126,"6903 69TH ST","LUBBOCK","TX",79424,33.5304563280001,-101.964432798,126,"6903 69TH ST, LUBBOCK, TX, 79424","Match","Exact","6903 69TH ST, LUBBOCK, TX, 79424",643107118,"R"
809127,"6903 78TH ST CT E","PUYALLUP","WA",98371,47.185745926,-122.337129292,127,"6903 78TH ST CT E, PUYALLUP, WA, 98371","Match","Exact","6903 78TH STREET CT E, PUYALLUP, WA, 98371",184677596,"L"
809128,"6903 ATHA DR","DALLAS","TX",75217,32.715552071,-96.7030143269999,128,"6903 ATHA DR, DALLAS, TX, 75217","Match","Exact","6903 ATHA DR, DALLAS, TX, 75217",102978187,"L"
809129,"6903 BEACON HOLLOW TURN","BOYNTON BEACH","FL",33437,26.5325130100001,-80.155226354,129,"6903 BEACON HOLLOW TURN, BOYNTON BEACH, FL, 33437","Match","Exact","6903 BEACON HOLLOW TURN, BOYNTON BEACH, FL, 33437",115577244,"R"
809130,"6903 BIRDSEYE AVE NE APT 303","LACEY","WA",98516,47.069041612,-122.785931616,130,"6903 BIRDSEYE AVE NE APT 303, LACEY, WA, 98516","Match","Exact","6903 BIRDSEYE AVE NE, LACEY, WA, 98516",651985776,"L"
809131,"6903 BORDER BROOK 803","SAN ANTONIO","TX",78238,29.471151349,-98.627583807,131,"6903 BORDER BROOK 803, SAN ANTONIO, TX, 78238","Match","Exact","6903 BORDER BROOK, SAN ANTONIO, TX, 78238",609967339,"L"
809132,"6903 BRIGHTWAY PLACE APT K","BALTIMORE","MD",21207,39.3421906620001,-76.73106107,132,"6903 BRIGHTWAY PLACE APT K, BALTIMORE, MD, 21207","Match","Exact","6903 BRIGHTWAY PL, BALTIMORE, MD, 21207",191468832,"L"
809133,"6903 CASA LOMA AVENUE","DALLAS","TX",75214,32.813218276,-96.740458684,133,"6903 CASA LOMA AVENUE, DALLAS, TX, 75214","Match","Exact","6903 CASA LOMA AVE, DALLAS, TX, 75214",102921241,"L"
809134,"6903 CAYMAN CT","AMARILLO","TX",79124,35.231471363,-101.915623189,134,"6903 CAYMAN CT, AMARILLO, TX, 79124","Match","Exact","6903 CAYMAN CT, AMARILLO, TX, 79124",182480559,"R"
809135,"6903 CONSERVATION DR","SPRINGFIELD","VA",22153,38.767403947,-77.261435203,135,"6903 CONSERVATION DR, SPRINGFIELD, VA, 22153","Match","Exact","6903 CONSERVATION DR, SPRINGFIELD, VA, 22153",75974807,"L"
809136,"6903 DEATONHILL DR UNIT 41","AUSTIN","TX",78745,30.208911372,-97.817451359,136,"6903 DEATONHILL DR UNIT 41, AUSTIN, TX, 78745","Match","Exact","6903 DEATONHILL DR, AUSTIN, TX, 78745",641668002,"L"
809137,"6903 E HARBOR DR","ELK RAPIDS","MI",49629,44.9339219880001,-85.392735294,137,"6903 E HARBOR DR, ELK RAPIDS, MI, 49629","Match","Exact","6903 E HARBOR DR, ELK RAPIDS, MI, 49629",145824673,"R"
809138,"6903 FM 1833","ROBSTOWN","TX",78380,27.9076499220001,-97.8862939649999,138,"6903 FM 1833, ROBSTOWN, TX, 78380","Match","Exact","6903 FM 1833, ROBSTOWN, TX, 78380",640132831,"L"
809139,"6903 FOUNDERS ROW APT 116","WEST CHESTER","OH",45069,39.345904594,-84.396977233,139,"6903 FOUNDERS ROW APT 116, WEST CHESTER, OH, 45069","Match","Exact","6903 FOUNDERS ROW, WEST CHESTER, OH, 45069",113811640,"L"
809140,"6903 LONGWOOD DRIVE","COLLEYVILLE","TX",76034,32.9099010030001,-97.128985305,140,"6903 LONGWOOD DRIVE, COLLEYVILLE, TX, 76034","Match","Exact","6903 LONGWOOD DR, COLLEYVILLE, TX, 76034",102102965,"R"
809141,"6903 MALIBU WAY","AMARILLO","TX",79124,35.230298997,-101.915356539,141,"6903 MALIBU WAY, AMARILLO, TX, 79124","Match","Exact","6903 MALIBU WAY, AMARILLO, TX, 79124",182482550,"R"
809142,"6903 NEWBY HALL CT","CLIFTON","VA",20124,38.8041724390001,-77.4329762409999,142,"6903 NEWBY HALL CT, CLIFTON, VA, 20124","Match","Exact","6903 NEWBY HALL CT, CLIFTON, VA, 20124",76002384,"R"
809143,"6903 OLD BENTON DR","APOLLO BEACH","FL",33572,27.7756252070001,-82.382117643,143,"6903 OLD BENTON DR, APOLLO BEACH, FL, 33572","Match","Exact","6903 OLD BENTON DR, APOLLO BEACH, FL, 33572",646590914,"R"
809144,"6903 ORANGEWOOD AVE","CYPRESS","CA",90630,33.7956374720001,-118.012416139,144,"6903 ORANGEWOOD AVE, CYPRESS, CA, 90630","Match","Exact","6903 ORANGEWOOD AVE, CYPRESS, CA, 90630",144080716,"L"
809145,"6903 PARK ST E","FIFE","WA",98424,47.2209999030001,-122.337957331,145,"6903 PARK ST E, FIFE, WA, 98424","Match","Exact","6903 PARK ST E, FIFE, WA, 98424",627704359,"R"
809146,"6903 RIVERTON DRIVE","AUSTIN","TX",78729,30.4454230870001,-97.7512205789999,146,"6903 RIVERTON DRIVE, AUSTIN, TX, 78729","Match","Exact","6903 RIVERTON DR, AUSTIN, TX, 78729",126446497,"L"
809147,"6903 ROCKLEDGE DRIVE SUITE 925","BETHESDA","MD",20817,39.028754979,-77.138805283,147,"6903 ROCKLEDGE DRIVE SUITE 925, BETHESDA, MD, 20817","Match","Exact","6903 ROCKLEDGE DR, BETHESDA, MD, 20817",650140509,"R"
809148,"6903 RUNNING BROOK WAY","HOLLAND","OH",43528,41.628871551,-83.7060884699999,148,"6903 RUNNING BROOK WAY, HOLLAND, OH, 43528","Match","Exact","6903 RUNNING BROOK WAY, HOLLAND, OH, 43528",33958385,"L"
809149,"6903 SAWTOOTH COURT","OCOEE","FL",34761,28.6045145780001,-81.502573319,149,"6903 SAWTOOTH COURT, OCOEE, FL, 34761","Match","Exact","6903 SAWTOOTH CT, OCOEE, FL, 34761",94341813,"R"
809150,"6903 SE KNIGHT ST","PORTLAND","OR",97206,45.4802315850001,-122.591639962,150,"6903 SE KNIGHT ST, PORTLAND, OR, 97206","Match","Exact","6903 SE KNIGHT ST, PORTLAND, OR, 97206",638569485,"L"
809151,"6903 SENEBE WAY","MISSOURI CITY","TX",77459,29.528420882,-95.560675476,151,"6903 SENEBE WAY, MISSOURI CITY, TX, 77459","Match","Exact","6903 SENEBE WAY, MISSOURI CITY, TX, 77459",641050316,"R"
809152,"6903 SHAMAN LANE","HOUSTON","TX",77083,29.702342942,-95.6263909369999,152,"6903 SHAMAN LANE, HOUSTON, TX, 77083","Match","Exact","6903 SHAMAN LN, HOUSTON, TX, 77083",636796687,"L"
809153,"6903 STANSBURY BLVD","MCCORDSVILLE","IN",46055,39.8658424600001,-85.93264708,153,"6903 STANSBURY BLVD, MCCORDSVILLE, IN, 46055","Match","Non_Exact","6903 W STANSBURY BLVD, MCCORDSVILLE, IN, 46055",31089025,"L"
809154,"6903 SWEETGUM AVE NE","LACEY","WA",98516,NA,NA,154,"6903 SWEETGUM AVE NE, LACEY, WA, 98516","No_Match",NA,NA,NA,NA
809155,"6903 TANNERS WAY","SOUTHAVEN","MS",38672,34.9610083050001,-89.9248356639999,155,"6903 TANNERS WAY, SOUTHAVEN, MS, 38672","Match","Non_Exact","6903 TANNER'S WAY COVE, SOUTHAVEN, MS, 38672",614094564,"L"
809156,"6903 THUNDERBIRD DR","ARLINGTON","TX",76002,32.6331155170001,-97.104972133,156,"6903 THUNDERBIRD DR, ARLINGTON, TX, 76002","Match","Exact","6903 THUNDERBIRD DR, ARLINGTON, TX, 76002",101957821,"L"
809157,"6903 TYLER ST","MERRILLVILLE","IN",46410,41.4935039270001,-87.346899448,157,"6903 TYLER ST, MERRILLVILLE, IN, 46410","Match","Exact","6903 TYLER ST, MERRILLVILLE, IN, 46410",98435021,"L"
809158,"6903 VINEYARD RD","DEXTER","NM",88230,33.2264016170001,-104.405620341,158,"6903 VINEYARD RD, DEXTER, NM, 88230","Match","Exact","6903 VINEYARD RD, DEXTER, NM, 88230",131778842,"R"
809159,"6903 WADE AVE","CLINTON","MD",20735,38.760290754,-76.885512021,159,"6903 WADE AVE, CLINTON, MD, 20735","Match","Exact","6903 WADE AVE, CLINTON, MD, 20735",638302198,"L"
809160,"6903 WEATHERWOOD DRIVE","PENSACOLA","FL",32506,30.427800145,-87.3085598659999,160,"6903 WEATHERWOOD DRIVE, PENSACOLA, FL, 32506","Match","Exact","6903 WEATHERWOOD DR, PENSACOLA, FL, 32506",93306386,"L"
809161,"6903 WEST CANDIER COURT","DUNNELLON","FL",34433,29.0100034010001,-82.5507430059999,161,"6903 WEST CANDIER COURT, DUNNELLON, FL, 34433","Match","Exact","6903 W CANDIER CT, DUNNELLON, FL, 34433",610767312,"R"
809162,"69031 GATEWAY DRIVE","EDWARDSBURG","MI",49112,41.797316014,-86.079010725,162,"69031 GATEWAY DRIVE, EDWARDSBURG, MI, 49112","Match","Exact","69031 GATEWAY DR, EDWARDSBURG, MI, 49112",651232199,"L"
809163,"6904 105TH TRL N","BROOKLYN PARK","MN",55445,45.1463485780001,-93.368421036,163,"6904 105TH TRL N, BROOKLYN PARK, MN, 55445","Match","Exact","6904 105TH TRL N, BROOKLYN PARK, MN, 55445",628725462,"L"
809164,"6904 16TH ST RD","GREELEY","CO",80634,40.4137187870001,-104.792529846,164,"6904 16TH ST RD, GREELEY, CO, 80634","Match","Non_Exact","6904 W 16TH ST RD, GREELEY, CO, 80634",188727496,"L"
809165,"6904 ANDERSONS WAY","LAUREL","MD",20707,39.0819803970001,-76.8880036959999,165,"6904 ANDERSONS WAY, LAUREL, MD, 20707","Match","Exact","6904 ANDERSONS WAY, LAUREL, MD, 20707",648240396,"L"
809166,"6904 AQUEDUCT TER","ODESSA","FL",33556,28.1197617990001,-82.5574738019999,166,"6904 AQUEDUCT TER, ODESSA, FL, 33556","Match","Exact","6904 AQUEDUCT TER, ODESSA, FL, 33556",104572716,"R"
809167,"6904 BEACON MOUNTAIN DRIVE","LITHONIA","GA",30038,33.6387918790001,-84.109547333,167,"6904 BEACON MOUNTAIN DRIVE, LITHONIA, GA, 30038","Match","Exact","6904 BEACON MOUNTAIN DR, LITHONIA, GA, 30038",635317624,"L"
809168,"6904 BEARD COURT","LOUISVILLE","KY",40228,38.1294279840001,-85.63271187,168,"6904 BEARD COURT, LOUISVILLE, KY, 40228","Match","Exact","6904 BEARD CT, LOUISVILLE, KY, 40228",96879221,"L"
809169,"6904 BEVERLY LANE","EVERETT","WA",98203,47.9354300140001,-122.228375909,169,"6904 BEVERLY LANE, EVERETT, WA, 98203","Match","Exact","6904 BEVERLY LN, EVERETT, WA, 98203",625113048,"R"
809170,"6904 BONNIE RIDGE DRIVE 102","BALTIMORE","MD",21209,39.3814404840001,-76.6635921339999,170,"6904 BONNIE RIDGE DRIVE 102, BALTIMORE, MD, 21209","Match","Exact","6904 BONNIE RIDGE DR, BALTIMORE, MD, 21209",191472351,"L"
809171,"6904 BRIAR CREEK DRIVE","OKLAHOMA CITY","OK",73162,35.5722316960001,-97.635170908,171,"6904 BRIAR CREEK DRIVE, OKLAHOMA CITY, OK, 73162","Match","Non_Exact","6904 BRIARCREEK DR, OKLAHOMA CITY, OK, 73162",100387906,"R"
809172,"6904 CARIBOU CT","WALDOLF","MD",20603,38.6184988950001,-76.958342079,172,"6904 CARIBOU CT, WALDOLF, MD, 20603","Match","Non_Exact","6904 CARIBOU CT, WALDORF, MD, 20603",25384653,"L"
809173,"6904 CARMICHAEL AVE","BETHESDA","MD",20817,38.9779824390001,-77.147187161,173,"6904 CARMICHAEL AVE, BETHESDA, MD, 20817","Match","Exact","6904 CARMICHAEL AVE, BETHESDA, MD, 20817",62057659,"L"
809174,"6904 CELTIC COURT","AUSTIN","TX",78754,30.348844553,-97.6119791249999,174,"6904 CELTIC COURT, AUSTIN, TX, 78754","Match","Exact","6904 CELTIC CT, AUSTIN, TX, 78754",64006042,"L"
809175,"6904 DECON APPT 113","OKLAHOMA CITY","OK",73132,35.5486288180001,-97.63377453,175,"6904 DECON APPT 113, OKLAHOMA CITY, OK, 73132","Match","Non_Exact","6904 DECON AVE, OKLAHOMA CITY, OK, 73132",100388341,"L"
809176,"6904 DICKS AVENUE","PHILADELPHIA","PA",19136,39.915748438,-75.2333612209999,176,"6904 DICKS AVENUE, PHILADELPHIA, PA, 19136","Match","Non_Exact","6904 DICKS AVE, PHILADELPHIA, PA, 19142",131409321,"L"
809177,"6904 E 118TH STREET SOUTH","BIXBY","OK",74008,35.992482624,-95.8993135539999,177,"6904 E 118TH STREET SOUTH, BIXBY, OK, 74008","Match","Exact","6904 E 118TH ST S, BIXBY, OK, 74008",166505516,"R"
809178,"6904 FAIRBROOK WAY","TAMPA","FL",33634,28.0239799770001,-82.5527251939999,178,"6904 FAIRBROOK WAY, TAMPA, FL, 33634","Match","Exact","6904 FAIRBROOK WAY, TAMPA, FL, 33634",104508038,"L"
809179,"6904 FEDERAL BLVD","LEMON GROVE","CA",91945,32.740996303,-117.049665072,179,"6904 FEDERAL BLVD, LEMON GROVE, CA, 91945","Match","Exact","6904 FEDERAL BLVD, LEMON GROVE, CA, 91945",612892146,"L"
809180,"6904 GENEVA LANE","TEMPLE HILLS","MD",20748,38.7958952450001,-76.907868669,180,"6904 GENEVA LANE, TEMPLE HILLS, MD, 20748","Match","Exact","6904 GENEVA LN, TEMPLE HILLS, MD, 20748",76317085,"L"
809181,"6904 GLENFERRIE CT","RALEIGH","NC",27616,35.8690445280001,-78.554757448,181,"6904 GLENFERRIE CT, RALEIGH, NC, 27616","Match","Exact","6904 GLENFERRIE CT, RALEIGH, NC, 27616",72633327,"R"
809182,"6904 HWY 75","PINSON","AL",35126,33.705395696,-86.669439192,182,"6904 HWY 75, PINSON, AL, 35126","Match","Non_Exact","6904 STATE RTE 75, PINSON, AL, 35126",653882276,"R"
809183,"6904 LARUE BELLE CV","AUSTIN","TX",78639,30.1882655310001,-97.903200886,183,"6904 LARUE BELLE CV, AUSTIN, TX, 78639","Match","Non_Exact","6904 LARUE BELLE COVE, AUSTIN, TX, 78739",64040415,"R"
809184,"6904 LINCOLN DRIVE","MACUNGIE","PA",18062,40.509858249,-75.570149678,184,"6904 LINCOLN DRIVE, MACUNGIE, PA, 18062","Match","Exact","6904 LINCOLN DR, MACUNGIE, PA, 18062",634191165,"L"
809185,"6904 LYREWOOD LN APT 160","OKLAHOMA CITY","OK",73132,35.5418297910001,-97.6296426,185,"6904 LYREWOOD LN APT 160, OKLAHOMA CITY, OK, 73132","Match","Exact","6904 LYREWOOD LN, OKLAHOMA CITY, OK, 73132",650141458,"R"
809186,"6904 MAJESTIC PALM DR","LAS VEGAS","NV",89122,36.086270907,-115.022736395,186,"6904 MAJESTIC PALM DR, LAS VEGAS, NV, 89122","Match","Exact","6904 MAJESTIC PALM DR, LAS VEGAS, NV, 89122",625747536,"L"
809187,"6904 MAJESTIC PALM DRIVE","LAS VEGAS","NV",89122,36.086270907,-115.022736395,187,"6904 MAJESTIC PALM DRIVE, LAS VEGAS, NV, 89122","Match","Exact","6904 MAJESTIC PALM DR, LAS VEGAS, NV, 89122",625747536,"L"
809188,"6904 MAPLE CREEK LN","DALLAS","TX",75252,33.004150429,-96.783012975,188,"6904 MAPLE CREEK LN, DALLAS, TX, 75252","Match","Exact","6904 MAPLE CREEK LN, DALLAS, TX, 75252",123534798,"L"
809189,"6904 MONTAUK CT","COLUMBIA","MO",65203,38.8720369970001,-92.398142099,189,"6904 MONTAUK CT, COLUMBIA, MO, 65203","Match","Exact","6904 MONTAUK CT, COLUMBIA, MO, 65203",643114569,"R"
809190,"6904 MOORES MILL ROAD","HUNTSVILLE","AL",35811,34.8241478080001,-86.526915674,190,"6904 MOORES MILL ROAD, HUNTSVILLE, AL, 35811","Match","Exact","6904 MOORES MILL RD, HUNTSVILLE, AL, 35811",58210461,"R"
809191,"6904 N 41ST ST","MILWAUKEE","WI",53209,43.14321764,-87.963155049,191,"6904 N 41ST ST, MILWAUKEE, WI, 53209","Match","Exact","6904 N 41ST ST, MILWAUKEE, WI, 53209",77726651,"R"
809192,"6904 N KENDALL DRIVE APT F104","MIAMI","FL",33156,NA,NA,192,"6904 N KENDALL DRIVE APT F104, MIAMI, FL, 33156","No_Match",NA,NA,NA,NA
809193,"6904 NE 217TH AVENUE","VANCOUVER","WA",98682,45.6731889060001,-122.450051688,193,"6904 NE 217TH AVENUE, VANCOUVER, WA, 98682","Match","Exact","6904 NE 217TH AVE, VANCOUVER, WA, 98682",158337302,"L"
809194,"6904 NORTH STEVENS STREET","SPOKANE","WA",99208,47.720675354,-117.419304022,194,"6904 NORTH STEVENS STREET, SPOKANE, WA, 99208","Match","Exact","6904 N STEVENS ST, SPOKANE, WA, 99208",189868692,"R"
809195,"6904 NW 25TH","BETHANY","OK",73008,35.4956510490001,-97.634513188,195,"6904 NW 25TH, BETHANY, OK, 73008","Match","Non_Exact","6904 NW 25TH ST, BETHANY, OK, 73008",100390416,"L"
809196,"6904 NW 26TH STREET","MARGATE","FL",33063,26.259638566,-80.2206910749999,196,"6904 NW 26TH STREET, MARGATE, FL, 33063","Match","Exact","6904 NW 26TH ST, MARGATE, FL, 33063",114771674,"R"
809197,"6904 S CORNELL AVE UNIT 1D","CHICAGO","IL",60649,41.7695076190001,-87.584436228,197,"6904 S CORNELL AVE UNIT 1D, CHICAGO, IL, 60649","Match","Non_Exact","6904 S CORNELL AVE, CHICAGO, IL, 60649",111774580,"R"
809198,"6904 SADDLEBOW COURT","CLINTON","MD",20735,38.7519590860001,-76.888865344,198,"6904 SADDLEBOW COURT, CLINTON, MD, 20735","Match","Exact","6904 SADDLEBOW CT, CLINTON, MD, 20735",76343139,"L"
809199,"6904 STONINGTON RD","CINCINNATI","OH",45230,39.066482969,-84.3708556239999,199,"6904 STONINGTON RD, CINCINNATI, OH, 45230","Match","Exact","6904 STONINGTON RD, CINCINNATI, OH, 45230",103955846,"L"
809200,"6904 STORCH CIRCLE","LANHAM","MD",20706,38.985400312,-76.827450227,200,"6904 STORCH CIRCLE, LANHAM, MD, 20706","Match","Exact","6904 STORCH CIR, LANHAM, MD, 20706",76384514,"L"
809201,"6904 SW 110 AVENUE","MIAMI","FL",33173,25.703729357,-80.371526076,201,"6904 SW 110 AVENUE, MIAMI, FL, 33173","Match","Exact","6904 SW 110TH AVE, MIAMI, FL, 33173",116260574,"R"
809202,"6904 THREE LAKES PARKWAY","DES MOINES","IA",50320,41.521274653,-93.561920087,202,"6904 THREE LAKES PARKWAY, DES MOINES, IA, 50320","Match","Exact","6904 THREE LAKES PKWY, DES MOINES, IA, 50320",641423259,"L"
809203,"6904 VANTAGE AVE UNIT 126","NORTH HOLLYWOOD","CA",91605,34.194892259,-118.397630778,203,"6904 VANTAGE AVE UNIT 126, NORTH HOLLYWOOD, CA, 91605","Match","Exact","6904 VANTAGE AVE, N HOLLYWOOD, CA, 91605",141563986,"R"
809204,"6904 W WESTMINSTER DR","SIOUX FALLS","SD",57106,43.523413577,-96.81317408,204,"6904 W WESTMINSTER DR, SIOUX FALLS, SD, 57106","Match","Exact","6904 W WESTMINSTER DR, SIOUX FALLS, SD, 57106",34982054,"R"
809205,"6904 WALEBRIDGE LANE","AUSTIN","TX",78739,30.189669516,-97.898118928,205,"6904 WALEBRIDGE LANE, AUSTIN, TX, 78739","Match","Exact","6904 WALEBRIDGE LN, AUSTIN, TX, 78739",63990025,"L"
809206,"6904 WILLIAMSBURG DRIVE","SYLVANIA","OH",43560,41.69745857,-83.709199412,206,"6904 WILLIAMSBURG DRIVE, SYLVANIA, OH, 43560","Match","Exact","6904 WILLIAMSBURG DR, SYLVANIA, OH, 43560",33927491,"L"
809207,"6904 WINDING CEDAR TRIAL 208","CHARLOTTE","NC",28216,NA,NA,207,"6904 WINDING CEDAR TRIAL 208, CHARLOTTE, NC, 28216","No_Match",NA,NA,NA,NA
809208,"6904 WINTHORP DR","ARLINGTON","TX",76001,32.6323979920001,-97.165748203,208,"6904 WINTHORP DR, ARLINGTON, TX, 76001","Match","Exact","6904 WINTHORP DR, ARLINGTON, TX, 76001",102149467,"L"
809209,"6904 WOODLEY ST","VAN NUYS","CA",91406,34.1962575360001,-118.483647097,209,"6904 WOODLEY ST, VAN NUYS, CA, 91406","Match","Non_Exact","6904 WOODLEY AVE, VAN NUYS, CA, 91406",141556368,"R"
809210,"6904N DORITA AVE","LAS VEGAS","NV",89108,36.227188379,-115.24532681,210,"6904N DORITA AVE, LAS VEGAS, NV, 89108","Match","Exact","6904 DORITA AVE, LAS VEGAS, NV, 89108",201906917,"R"
809211,"6905 172ND AVE NE","ARLINGTON","WA",98223,48.151973894,-122.138320805,211,"6905 172ND AVE NE, ARLINGTON, WA, 98223","Match","Non_Exact","6905 172ND ST NE, ARLINGTON, WA, 98223",639675832,"L"
809212,"6905 172ND ST NE","ARLINGTON","WA",98223,48.151973894,-122.138320805,212,"6905 172ND ST NE, ARLINGTON, WA, 98223","Match","Exact","6905 172ND ST NE, ARLINGTON, WA, 98223",639675832,"L"
809213,"6905 22ND STREET NORTH","SAINT CLOUD","MN",56303,45.5877349460001,-94.254781961,213,"6905 22ND STREET NORTH, SAINT CLOUD, MN, 56303","Match","Exact","6905 22ND ST N, SAINT CLOUD, MN, 56303",611979722,"L"
809214,"6905 29TH AVE W","BRADENTON","FL",34209,27.475116067,-82.621404088,214,"6905 29TH AVE W, BRADENTON, FL, 34209","Match","Exact","6905 29TH AVE W, BRADENTON, FL, 34209",16286511,"L"
809215,"6905 ALWARD WAY","SHINGLETOWN","CA",96088,40.486825475,-121.861155349,215,"6905 ALWARD WAY, SHINGLETOWN, CA, 96088","Match","Exact","6905 ALWARD WAY, SHINGLETOWN, CA, 96088",126607510,"R"
809216,"6905 ANDREW WAY","CYPRESS","CA",90630,33.79607321,-118.012123323,216,"6905 ANDREW WAY, CYPRESS, CA, 90630","Match","Exact","6905 ANDREW WAY, CYPRESS, CA, 90630",144002226,"L"
809217,"6905 BALLARD AVE","LINCOLE","NE",68507,40.855926954,-96.626316332,217,"6905 BALLARD AVE, LINCOLE, NE, 68507","Match","Non_Exact","6905 BALLARD AVE, LINCOLN, NE, 68507",28259212,"R"
809218,"6905 BRIDGLAND LN","TACOMA","WA",98407,47.2736920200001,-122.531011127,218,"6905 BRIDGLAND LN, TACOMA, WA, 98407","Match","Non_Exact","6905 N BRIDGELAND LN, TACOMA, WA, 98407",184643100,"R"
809219,"6905 BROWN DR S","FAIRBURN","GA",30213,33.565512201,-84.492735018,219,"6905 BROWN DR S, FAIRBURN, GA, 30213","Match","Exact","6905 BROWN DR S, FAIRBURN, GA, 30213",17364786,"L"
809220,"6905 CHERRYDALE DR","AUSTIN","TX",78745,30.201300073,-97.8039210159999,220,"6905 CHERRYDALE DR, AUSTIN, TX, 78745","Match","Exact","6905 CHERRYDALE DR, AUSTIN, TX, 78745",63940437,"L"
809221,"6905 CLEATON RD UNIT B108","COLUMBIA","SC",29206,34.0576887660001,-80.950152163,221,"6905 CLEATON RD UNIT B108, COLUMBIA, SC, 29206","Match","Non_Exact","6905 CLEATON DR, COLUMBIA, SC, 29206",71853666,"L"
809222,"6905 CLEATON ROAD UNIT D121","COLUMBIA","SC",29206,34.0576887660001,-80.950152163,222,"6905 CLEATON ROAD UNIT D121, COLUMBIA, SC, 29206","Match","Non_Exact","6905 CLEATON DR, COLUMBIA, SC, 29206",71853666,"L"
809223,"6905 CLEATON ROAD","COLUMBIA","SC",29206,34.0576887660001,-80.950152163,223,"6905 CLEATON ROAD, COLUMBIA, SC, 29206","Match","Non_Exact","6905 CLEATON DR, COLUMBIA, SC, 29206",71853666,"L"
809224,"6905 DEER THICKET DRIVE","MIDLOTHIAN","VA",23112,37.404195433,-77.658690303,224,"6905 DEER THICKET DRIVE, MIDLOTHIAN, VA, 23112","Match","Exact","6905 DEER THICKET DR, MIDLOTHIAN, VA, 23112",201561769,"R"
809225,"6905 DILLON","HOUSTON","TX",77061,29.651797699,-95.307511264,225,"6905 DILLON, HOUSTON, TX, 77061","Match","Non_Exact","6905 DILLON ST, HOUSTON, TX, 77061",96092243,"L"
809226,"6905 DIVER AVE","NORTH LAS VEGAS","NV",89084,36.285697015,-115.183306403,226,"6905 DIVER AVE, NORTH LAS VEGAS, NV, 89084","Match","Exact","6905 DIVER AVE, N LAS VEGAS, NV, 89084",612689605,"L"
809227,"6905 E 113TH TER","KANSAS CITY","MO",64134,38.917821324,-94.5106733809999,227,"6905 E 113TH TER, KANSAS CITY, MO, 64134","Match","Exact","6905 E 113TH TER, KANSAS CITY, MO, 64134",91466093,"R"
809228,"6905 E GENESEE ST","FAYETTEVILLE","NY",13066,43.028176865,-76.0447167689999,228,"6905 E GENESEE ST, FAYETTEVILLE, NY, 13066","Match","Exact","6905 E GENESEE ST, FAYETTEVILLE, NY, 13066",46575900,"L"
809229,"6905 ESTACADO","AMARILLO","TX",79109,35.134406106,-101.909824758,229,"6905 ESTACADO, AMARILLO, TX, 79109","Match","Non_Exact","6905 ESTACADO LN, AMARILLO, TX, 79109",182653355,"R"
809230,"6905 FORREST GATE STREET","NORTH LAS VEGAS","NV",89084,36.286129713,-115.171822783,230,"6905 FORREST GATE STREET, NORTH LAS VEGAS, NV, 89084","Match","Non_Exact","6905 N FOREST GATE ST, N LAS VEGAS, NV, 89084",632840388,"L"
809231,"6905 GETTYBURG DR","FOREST HILL","TX",76140,32.6550604390001,-97.2753472049999,231,"6905 GETTYBURG DR, FOREST HILL, TX, 76140","Match","Non_Exact","6905 GETTYSBURG DR, FOREST HILL, TX, 76140",101902757,"L"
809232,"6905 GIVEN ROAD","CINCINNATI","OH",45243,39.1871659940001,-84.325993496,232,"6905 GIVEN ROAD, CINCINNATI, OH, 45243","Match","Exact","6905 GIVEN RD, CINCINNATI, OH, 45243",103972332,"L"
809233,"6905 GUELIG ROAD","LENA","WI",54139,44.923017325,-88.1101322009999,233,"6905 GUELIG ROAD, LENA, WI, 54139","Match","Exact","6905 GUELIG RD, LENA, WI, 54139",170329465,"R"
809234,"6905 HANA RD","EDISON","NJ",8817,40.534904597,-74.410551051,234,"6905 HANA RD, EDISON, NJ, 8817","Match","Exact","6905 HANA RD, EDISON, NJ, 08817",60296715,"R"
809235,"6905 HOMESTEAD DR","MCKINNEY","TX",75070,33.133882832,-96.7243952439999,235,"6905 HOMESTEAD DR, MCKINNEY, TX, 75070","Match","Exact","6905 HOMESTEAD DR, MCKINNEY, TX, 75070",650326346,"L"
809236,"6905 HUBBARD RD","CLARKSTON","MI",48348,42.7612874230001,-83.425710612,236,"6905 HUBBARD RD, CLARKSTON, MI, 48348","Match","Exact","6905 HUBBARD RD, CLARKSTON, MI, 48348",69786433,"L"
809237,"6905 IVY LEAF","SCHERTZ","TX",78154,29.484962572,-98.268104124,237,"6905 IVY LEAF, SCHERTZ, TX, 78154","Match","Exact","6905 IVY LEAF, SCHERTZ, TX, 78154",645343250,"R"
809238,"6905 KNIGHTSWOOD DR","ORLANDO","FL",32818,28.632129331,-81.474657669,238,"6905 KNIGHTSWOOD DR, ORLANDO, FL, 32818","Match","Exact","6905 KNIGHTSWOOD DR, ORLANDO, FL, 32818",94341729,"L"
809239,"6905 LAKE ROAD","MADISON","OH",44057,41.838475084,-81.0397598449999,239,"6905 LAKE ROAD, MADISON, OH, 44057","Match","Exact","6905 LAKE RD, MADISON, OH, 44057",137468493,"L"
809240,"6905 LONG DRIVE LANE","LOVELAND","OH",45140,39.253427645,-84.2187858029999,240,"6905 LONG DRIVE LANE, LOVELAND, OH, 45140","Match","Exact","6905 LONG DRIVE LN, LOVELAND, OH, 45140",633907937,"R"
809241,"6905 MALACHI TE PLACE","CAPITOL HEIGHTS","MD",20743,38.8988675580001,-76.88715257,241,"6905 MALACHI TE PLACE, CAPITOL HEIGHTS, MD, 20743","Match","Non_Exact","6905 MALACHITE PL, CAPITOL HEIGHTS, MD, 20743",646682133,"R"
809242,"6905 MARCHANT AVE","ATASCADERO","CA",93422,NA,NA,242,"6905 MARCHANT AVE, ATASCADERO, CA, 93422","No_Match",NA,NA,NA,NA
809243,"6905 MARGARUM BND","NEW ALBANY","OH",43054,40.1038851870001,-82.78836351,243,"6905 MARGARUM BND, NEW ALBANY, OH, 43054","Match","Exact","6905 MARGARUM BEND, NEW ALBANY, OH, 43054",218701563,"R"
809244,"6905 MOSLEY","AMARILLO","TX",79119,35.1381609220001,-101.940577551,244,"6905 MOSLEY, AMARILLO, TX, 79119","Match","Non_Exact","6905 MOSLEY ST, AMARILLO, TX, 79119",600389178,"L"
809245,"6905 N INTERSTATE AVENUE - APT 214","PORTLAND","OR",97217,45.5727639130001,-122.682123438,245,"6905 N INTERSTATE AVENUE - APT 214, PORTLAND, OR, 97217","Match","Non_Exact","6905 N INTERSTATE AVE, PORTLAND, OR, 97217",157495845,"L"
809246,"6905 N SOLOMON ROAD","MIDDLEVILLE","MI",49333,42.752311924,-85.388082148,246,"6905 N SOLOMON ROAD, MIDDLEVILLE, MI, 49333","Match","Exact","6905 SOLOMON RD, MIDDLEVILLE, MI, 49333",642569190,"L"
809247,"6905 N WESTERN AVE","CHICAGO","IL",60645,42.0063911250001,-87.69009166,247,"6905 N WESTERN AVE, CHICAGO, IL, 60645","Match","Exact","6905 N WESTERN AVE, CHICAGO, IL, 60645",111744776,"R"
809248,"6905 NE 43RD ST APT C","VANCOUVER","WA",98661,45.6531398750001,-122.60061311,248,"6905 NE 43RD ST APT C, VANCOUVER, WA, 98661","Match","Non_Exact","6905 NE 43RD ST, VANCOUVER, WA, 98661",158345706,"L"
809249,"6905 NE CAMPUS WAY","HILLSBORO","OR",97124,45.532225199,-122.910897393,249,"6905 NE CAMPUS WAY, HILLSBORO, OR, 97124","Match","Non_Exact","6905 CAMPUS ST, HILLSBORO, OR, 97124",158201495,"L"
809250,"6905 NW 29 CT","MARGATE","FL",33063,26.263607042,-80.221150472,250,"6905 NW 29 CT, MARGATE, FL, 33063","Match","Exact","6905 NW 29TH CT, MARGATE, FL, 33063",114771698,"L"
809251,"6905 OLD FORT BAYOU ROAD","OCEAN SPRINGS","MS",39564,30.4508137020001,-88.800937582,251,"6905 OLD FORT BAYOU ROAD, OCEAN SPRINGS, MS, 39564","Match","Exact","6905 OLD FORT BAYOU RD, OCEAN SPRINGS, MS, 39564",640017298,"L"
809252,"6905 OMAHA BLVD","COLORADO SPRINGS","CO",80915,38.8540049640001,-104.699654902,252,"6905 OMAHA BLVD, COLORADO SPRINGS, CO, 80915","Match","Exact","6905 OMAHA BLVD, COLORADO SPRINGS, CO, 80915",105523564,"R"
809253,"6905 OMAHA ROAD","COLORADO SPRINGS","CO",80915,38.8540049640001,-104.699654902,253,"6905 OMAHA ROAD, COLORADO SPRINGS, CO, 80915","Match","Non_Exact","6905 OMAHA BLVD, COLORADO SPRINGS, CO, 80915",105523564,"R"
809254,"6905 PARK AVE    APT 1","GUTTENBERG","NJ",7093,40.792034367,-74.003632099,254,"6905 PARK AVE    APT 1, GUTTENBERG, NJ, 7093","Match","Exact","6905 PARK AVE, GUTTENBERG, NJ, 07093",59599876,"L"
809255,"6905 PARK AVE","GUTTENBERG","NJ",7093,40.792034367,-74.003632099,255,"6905 PARK AVE, GUTTENBERG, NJ, 7093","Match","Exact","6905 PARK AVE, GUTTENBERG, NJ, 07093",59599876,"L"
809256,"6905 PASEO BLVD","KANSAS CITY","MO",64132,39.0016696010001,-94.562343423,256,"6905 PASEO BLVD, KANSAS CITY, MO, 64132","Match","Exact","6905 PASEO BLVD, KANSAS CITY, MO, 64132",91456495,"L"
809257,"6905 POWERS ROAD","ORCHARD PARK","NY",14127,42.7344611820001,-78.7367271379999,257,"6905 POWERS ROAD, ORCHARD PARK, NY, 14127","Match","Exact","6905 POWERS RD, ORCHARD PARK, NY, 14127",638090612,"R"
809258,"6905 PRESTONS ESTATE","ATLANTA","GA",30349,33.6453608900001,-84.6134879639999,258,"6905 PRESTONS ESTATE, ATLANTA, GA, 30349","Match","Exact","6905 PRESTONS ESTATE, ATLANTA, GA, 30349",627062144,"R"
809259,"6905 PUETOLLANO DRIVE","NORTH LAS VEGAS","NV",89084,36.2858543670001,-115.190076049,259,"6905 PUETOLLANO DRIVE, NORTH LAS VEGAS, NV, 89084","Match","Exact","6905 PUETOLLANO DR, N LAS VEGAS, NV, 89084",626862516,"R"
809260,"6905 QUAIL PLACE UNIT G","CARLSBAD","CA",92009,33.108094872,-117.267782817,260,"6905 QUAIL PLACE UNIT G, CARLSBAD, CA, 92009","Match","Exact","6905 QUAIL PL, CARLSBAD, CA, 92009",648590150,"R"
809261,"6905 RED BLUFF DRIVE","MCKINNEY","TX",75070,33.1677353950001,-96.706276034,261,"6905 RED BLUFF DRIVE, MCKINNEY, TX, 75070","Match","Exact","6905 RED BLUFF DR, MCKINNEY, TX, 75070",614169763,"L"
809262,"6905 RIDGELINE CT","CORPUS CHRISTI","TX",78413,27.676888352,-97.392097151,262,"6905 RIDGELINE CT, CORPUS CHRISTI, TX, 78413","Match","Exact","6905 RIDGELINE CT, CORPUS CHRISTI, TX, 78413",635169754,"R"
809263,"6905 ROMEO ROAD","WOODBURY","MN",55125,44.900066146,-92.966628927,263,"6905 ROMEO ROAD, WOODBURY, MN, 55125","Match","Exact","6905 ROMEO RD, WOODBURY, MN, 55125",97801762,"R"
809264,"6905 ROSEMARY RD","EDEN PRAIRIE","MN",55346,44.8777098,-93.453235482,264,"6905 ROSEMARY RD, EDEN PRAIRIE, MN, 55346","Match","Exact","6905 ROSEMARY RD, EDEN PRAIRIE, MN, 55346",43826713,"L"
809265,"6905 S BEN BURR RD","SPOKANE","WA",99223,47.590766052,-117.339598137,265,"6905 S BEN BURR RD, SPOKANE, WA, 99223","Match","Exact","6905 S BEN BURR RD, SPOKANE, WA, 99223",189887852,"L"
809266,"6905 SERENITY WAY","SAN JOSE","CA",95120,37.2102963300001,-121.849010189,266,"6905 SERENITY WAY, SAN JOSE, CA, 95120","Match","Exact","6905 SERENITY WAY, SAN JOSE, CA, 95120",122925818,"L"
809267,"6905 SILERTON RD","HENDERSON","TN",38340,35.336868214,-88.797838466,267,"6905 SILERTON RD, HENDERSON, TN, 38340","Match","Exact","6905 SILERTON RD, HENDERSON, TN, 38340",607865017,"L"
809268,"6905 SILVER LAKE DRIVE","ROWLETT","TX",75089,32.9217292590001,-96.5134350769999,268,"6905 SILVER LAKE DRIVE, ROWLETT, TX, 75089","Match","Exact","6905 SILVER LAKE DR, ROWLETT, TX, 75089",123784464,"L"
809269,"6905 SMOKE RIDGE DRIVE","FAIRBURN","GA",30213,33.56559715,-84.4957446069999,269,"6905 SMOKE RIDGE DRIVE, FAIRBURN, GA, 30213","Match","Exact","6905 SMOKE RIDGE DR, FAIRBURN, GA, 30213",652440426,"L"
809270,"6905 SOUTH STOCKTON MESA DRIVE","SAFFORD","AZ",85546,32.7455382800001,-109.68712534,270,"6905 SOUTH STOCKTON MESA DRIVE, SAFFORD, AZ, 85546","Match","Non_Exact","6905 STOCKTON MESA DR, SAFFORD, AZ, 85546",625686215,"R"
809271,"6905 STAGEHORN LANE","RALEIGH","NC",27615,35.879180993,-78.621926947,271,"6905 STAGEHORN LANE, RALEIGH, NC, 27615","Match","Non_Exact","6905 STAGHORN LN, RALEIGH, NC, 27615",639844314,"L"
809272,"6905 STANDISH DRIVE","HYATTSVILLE","MD",20784,38.936906445,-76.8934038949999,272,"6905 STANDISH DRIVE, HYATTSVILLE, MD, 20784","Match","Exact","6905 STANDISH DR, HYATTSVILLE, MD, 20784",76308869,"R"
809273,"6905 STUDEBAKER LANE","INDIANAPOLIS","IN",46214,39.8118014130001,-86.28181574,273,"6905 STUDEBAKER LANE, INDIANAPOLIS, IN, 46214","Match","Exact","6905 STUDEBAKER LN, INDIANAPOLIS, IN, 46214",108035388,"L"
809274,"6905 SW 38TH STREET","MIRAMAR","FL",33027,25.9749801150001,-80.226060175,274,"6905 SW 38TH STREET, MIRAMAR, FL, 33027","Match","Non_Exact","6905 SW 38TH ST, MIRAMAR, FL, 33023",114734717,"L"
809275,"6905 TERRY LANE","RICHMOND","TX",77406,29.6592980200001,-95.877177901,275,"6905 TERRY LANE, RICHMOND, TX, 77406","Match","Exact","6905 TERRY LN, RICHMOND, TX, 77406",78261227,"L"
809276,"6905 TRAIN STATION WAY","LOUISVILLE","KY",40272,38.0782499920001,-85.89277925,276,"6905 TRAIN STATION WAY, LOUISVILLE, KY, 40272","Match","Exact","6905 TRAIN STATION WAY, LOUISVILLE, KY, 40272",618514408,"R"
809277,"6905 W OREGON DR","LAKEWOOD","CO",80232,39.6857415380001,-105.073409004,277,"6905 W OREGON DR, LAKEWOOD, CO, 80232","Match","Exact","6905 W OREGON DR, LAKEWOOD, CO, 80232",177320766,"R"
809278,"6905 W ROLAND AVE","LITTLETON","CO",80128,NA,NA,278,"6905 W ROLAND AVE, LITTLETON, CO, 80128","No_Match",NA,NA,NA,NA
809279,"6905 WENTWORTH","AMARILLO","TX",79109,35.1442964330001,-101.916945904,279,"6905 WENTWORTH, AMARILLO, TX, 79109","Match","Non_Exact","6905 WENTWORTH DR, AMARILLO, TX, 79109",182659869,"L"
809280,"6905 WEST HOBART AVENUE","CHICAGO","IL",60631,41.984233143,-87.801276925,280,"6905 WEST HOBART AVENUE, CHICAGO, IL, 60631","Match","Exact","6905 W HOBART AVE, CHICAGO, IL, 60631",605171493,"L"
809281,"6905 WESTCHESTER COURT","TEMPLE HILLS","MD",20748,38.794772718,-76.912983939,281,"6905 WESTCHESTER COURT, TEMPLE HILLS, MD, 20748","Match","Exact","6905 WESTCHESTER CT, TEMPLE HILLS, MD, 20748",76317107,"R"
809282,"6905 WICKLOW DR","BROWN SUMMIT","NC",27214,36.185391872,-79.764001838,282,"6905 WICKLOW DR, BROWN SUMMIT, NC, 27214","Match","Non_Exact","6905 WICKLOW DR, BROWNS SUMMIT, NC, 27214",131055126,"L"
809283,"6905 WICKLOW DRIVE","BROWN SUMMIT","NC",27214,36.185391872,-79.764001838,283,"6905 WICKLOW DRIVE, BROWN SUMMIT, NC, 27214","Match","Non_Exact","6905 WICKLOW DR, BROWNS SUMMIT, NC, 27214",131055126,"L"
809284,"6905 WINTERGREEN DR","FRUITPORT","MI",49415,43.1266904400001,-86.17010792,284,"6905 WINTERGREEN DR, FRUITPORT, MI, 49415","Match","Exact","6905 WINTERGREEN DR, FRUITPORT, MI, 49415",77664631,"L"
809285,"6905 YORK ROAD","BALTIMORE","MD",21212,39.3787382790001,-76.608410003,285,"6905 YORK ROAD, BALTIMORE, MD, 21212","Match","Exact","6905 YORK RD, BALTIMORE, MD, 21212",191473731,"R"
809286,"6905A 186TH LANE APT 2C","FRESH MEADOWS","NY",11365,NA,NA,286,"6905A 186TH LANE APT 2C, FRESH MEADOWS, NY, 11365","No_Match",NA,NA,NA,NA
809287,"6906 102ND AVE SE","LAMOURE","ND",58458,NA,NA,287,"6906 102ND AVE SE, LAMOURE, ND, 58458","No_Match",NA,NA,NA,NA
809288,"6906 12TH AVE S","TAMPA","FL",33619,NA,NA,288,"6906 12TH AVE S, TAMPA, FL, 33619","No_Match",NA,NA,NA,NA
809289,"6906 30TH PLACE","BERWYN","IL",60402,41.836834475,-87.795816014,289,"6906 30TH PLACE, BERWYN, IL, 60402","Match","Exact","6906 30TH PL, BERWYN, IL, 60402",111794466,"L"
809290,"6906 BLESSING AVE","AUSTIN","TX",78752,30.32578842,-97.696931601,290,"6906 BLESSING AVE, AUSTIN, TX, 78752","Match","Exact","6906 BLESSING AVE, AUSTIN, TX, 78752",63932687,"L"
809291,"6906 BRENTWOOD DRIVE","UPPER MARLBORO","MD",20772,38.794746424,-76.803782384,291,"6906 BRENTWOOD DRIVE, UPPER MARLBORO, MD, 20772","Match","Exact","6906 BRENTWOOD DR, UPPER MARLBORO, MD, 20772",76344672,"R"
809292,"6906 BROCKLAND","REYNOLDSBURG","OH",43068,39.9172371120001,-82.81488459,292,"6906 BROCKLAND, REYNOLDSBURG, OH, 43068","Match","Non_Exact","6906 BROCKLAND DR, REYNOLDSBURG, OH, 43068",218645604,"L"
809293,"6906 BUCKHORN DRIVE","MADISON","WI",53718,43.090640584,-89.2607150649999,293,"6906 BUCKHORN DRIVE, MADISON, WI, 53718","Match","Exact","6906 BUCKHORN DR, MADISON, WI, 53718",627015576,"R"
809294,"6906 CONGRESSIONAL BLVD","SAN ANTONIO","TX",78244,29.492783393,-98.3427037179999,294,"6906 CONGRESSIONAL BLVD, SAN ANTONIO, TX, 78244","Match","Exact","6906 CONGRESSIONAL BLVD, SAN ANTONIO, TX, 78244",101570528,"R"
809295,"6906 CREAMERY LANE","BAKERSFILED","CA",93313,35.292101433,-119.056014649,295,"6906 CREAMERY LANE, BAKERSFILED, CA, 93313","Match","Non_Exact","6906 CREAMERY LN, BAKERSFIELD, CA, 93313",109135198,"L"
809296,"6906 EXPLORER TR","AMARILLO","TX",79118,35.138748906,-101.860481987,296,"6906 EXPLORER TR, AMARILLO, TX, 79118","Match","Exact","6906 EXPLORER TRL, AMARILLO, TX, 79118",641838332,"L"
809297,"6906 FREEDOM WAY","CHARLESTOWN","IN",47111,38.4215881470001,-85.7044067369999,297,"6906 FREEDOM WAY, CHARLESTOWN, IN, 47111","Match","Exact","6906 FREEDOM WAY, CHARLESTOWN, IN, 47111",646971274,"R"
809298,"6906 GERALD AVE","PARMA","OH",44129,41.405715865,-81.7317111249999,298,"6906 GERALD AVE, PARMA, OH, 44129","Match","Exact","6906 GERALD AVE, PARMA, OH, 44129",61107123,"R"
809299,"6906 HIGH ROCK ROAD","EFLAND","NC",27243,36.134950152,-79.2292068739999,299,"6906 HIGH ROCK ROAD, EFLAND, NC, 27243","Match","Exact","6906 HIGH ROCK RD, EFLAND, NC, 27243",647210585,"L"
809300,"6906 HUMMEL DRIVE","BOISE","ID",83709,43.5956063610001,-116.268472458,300,"6906 HUMMEL DRIVE, BOISE, ID, 83709","Match","Exact","6906 HUMMEL DR, BOISE, ID, 83709",624120063,"R"
809301,"6906 LORETTA PLACE","CHARLOTTE","NC",28215,35.2334016080001,-80.7145894509999,301,"6906 LORETTA PLACE, CHARLOTTE, NC, 28215","Match","Exact","6906 LORETTA PL, CHARLOTTE, NC, 28215",70513239,"L"
809302,"6906 LOY RD","PEKIN","IN",47165,38.5040287780001,-85.957984801,302,"6906 LOY RD, PEKIN, IN, 47165","Match","Non_Exact","6906 S LOY RD, PEKIN, IN, 47165",635486765,"R"
809303,"6906 MEADOW LANE","EVANSVILLE","IN",47720,38.0427575300001,-87.630809041,303,"6906 MEADOW LANE, EVANSVILLE, IN, 47720","Match","Exact","6906 MEADOW LN, EVANSVILLE, IN, 47720",39800960,"R"
809304,"6906 MICHELLE DRIVE","AMARILLO","TX",79109,35.1535143670001,-101.913527176,304,"6906 MICHELLE DRIVE, AMARILLO, TX, 79109","Match","Exact","6906 MICHELLE DR, AMARILLO, TX, 79109",182657740,"R"
809305,"6906 MICKWAYNE CT","HOUSTON","TX",77069,29.980918165,-95.539807277,305,"6906 MICKWAYNE CT, HOUSTON, TX, 77069","Match","Exact","6906 MICKWAYNE CT, HOUSTON, TX, 77069",96162774,"R"
809306,"6906 N 50TH ST","TAMPA","FL",33605,28.0118939110001,-82.401952965,306,"6906 N 50TH ST, TAMPA, FL, 33605","Match","Non_Exact","6906 N 50TH ST, TAMPA, FL, 33617",104555542,"L"
809307,"6906 N 50TH ST","TAMPA","FL",33609,28.0118939110001,-82.401952965,307,"6906 N 50TH ST, TAMPA, FL, 33609","Match","Non_Exact","6906 N 50TH ST, TAMPA, FL, 33617",104555542,"L"
809308,"6906 N GREENWHICH  17","PORTLAND","OR",97217,NA,NA,308,"6906 N GREENWHICH  17, PORTLAND, OR, 97217","No_Match",NA,NA,NA,NA
809309,"6906 N LIME DRIVE","CITRUS SPRINGS","FL",34433,28.964733268,-82.487294041,309,"6906 N LIME DRIVE, CITRUS SPRINGS, FL, 34433","Match","Exact","6906 N LIME DR, CITRUS SPRINGS, FL, 34433",86231983,"R"
809310,"6906 NATURAL BRIDGE RD","SAINT LOUIS","MO",63121,38.6977429880001,-90.287802566,310,"6906 NATURAL BRIDGE RD, SAINT LOUIS, MO, 63121","Match","Exact","6906 NATURAL BRIDGE RD, SAINT LOUIS, MO, 63121",100152538,"L"
809311,"6906 NEW FOREST PARKWAY","HOUSTON","TX",77049,29.8235597280001,-95.177983738,311,"6906 NEW FOREST PARKWAY, HOUSTON, TX, 77049","Match","Exact","6906 NEW FOREST PKWY, HOUSTON, TX, 77049",645138793,"R"
809312,"6906 PASEO BLVD","KANSAS CITY","MO",64132,39.001656929,-94.562674859,312,"6906 PASEO BLVD, KANSAS CITY, MO, 64132","Match","Exact","6906 PASEO BLVD, KANSAS CITY, MO, 64132",91456493,"R"
809313,"6906 PETWORTH ROAD","BALTIMORE","MD",21212,39.379097001,-76.607129324,313,"6906 PETWORTH ROAD, BALTIMORE, MD, 21212","Match","Exact","6906 PETWORTH RD, BALTIMORE, MD, 21212",191473931,"L"
809314,"6906 POPP RD","FORT WAYNE","IN",46845,41.1935242640001,-85.04812657,314,"6906 POPP RD, FORT WAYNE, IN, 46845","Match","Exact","6906 POPP RD, FORT WAYNE, IN, 46845",6375630,"R"
809315,"6906 REESE RD","MEMPHIS","TN",38133,35.1951610730001,-89.832923332,315,"6906 REESE RD, MEMPHIS, TN, 38133","Match","Exact","6906 REESE RD, MEMPHIS, TN, 38133",618107539,"R"
809316,"6906 RIDGE WAY DRIVE","FREDERISCKSBURG","VA",22407,38.2758903910001,-77.573221906,316,"6906 RIDGE WAY DRIVE, FREDERISCKSBURG, VA, 22407","Match","Non_Exact","6906 RIDGE WAY DR, FREDERICKSBURG, VA, 22407",85013764,"L"
809317,"6906 ROYAL OAKLAND WAY","INDIANAPOLIS","IN",46236,39.881623022,-85.9644806219999,317,"6906 ROYAL OAKLAND WAY, INDIANAPOLIS, IN, 46236","Match","Exact","6906 ROYAL OAKLAND WAY, INDIANAPOLIS, IN, 46236",108069806,"L"
809318,"6906 S 120TH PL","SEATTLE","WA",98178,47.4953008680001,-122.247620295,318,"6906 S 120TH PL, SEATTLE, WA, 98178","Match","Exact","6906 S 120TH PL, SEATTLE, WA, 98178",186629806,"L"
809319,"6906 SEA PLACE AVE","ST AUGUSTINE","FL",32086,29.752038971,-81.282450932,319,"6906 SEA PLACE AVE, ST AUGUSTINE, FL, 32086","Match","Exact","6906 SEA PLACE AVE, SAINT AUGUSTINE, FL, 32086",92610608,"L"
809320,"6906 SEWANEE","HOUSTON","TX",77025,29.7050615910001,-95.4310678689999,320,"6906 SEWANEE, HOUSTON, TX, 77025","Match","Non_Exact","6906 SEWANEE ST, HOUSTON, TX, 77025",96063572,"R"
809321,"6906 SHADY ROCK LANE","BLACKLICK","OH",43004,39.993516393,-82.8197874159999,321,"6906 SHADY ROCK LANE, BLACKLICK, OH, 43004","Match","Exact","6906 SHADY ROCK LN, BLACKLICK, OH, 43004",218700438,"R"
809322,"6906 SUMMERSIDE","BEL AIRE","KS",67226,NA,NA,322,"6906 SUMMERSIDE, BEL AIRE, KS, 67226","No_Match",NA,NA,NA,NA
809323,"6906 TALL OAKS DRIVE","TEXARKANA","AR",71854,33.489186466,-94.005937583,323,"6906 TALL OAKS DRIVE, TEXARKANA, AR, 71854","Match","Exact","6906 TALL OAKS DR, TEXARKANA, AR, 71854",57291107,"R"
809324,"6906 TALL TIMBER WAY","INDIANAPOLIS","IN",46241,39.7577621070001,-86.282104346,324,"6906 TALL TIMBER WAY, INDIANAPOLIS, IN, 46241","Match","Exact","6906 TALL TIMBER WAY, INDIANAPOLIS, IN, 46241",108039790,"L"
809325,"6906 VILLAGE DR","PINE BLUFF","AR",71603,34.1604738460001,-92.078393321,325,"6906 VILLAGE DR, PINE BLUFF, AR, 71603","Match","Exact","6906 VILLAGE DR, PINE BLUFF, AR, 71603",2581051,"R"
809326,"6906 VILLAGE PARK DRIVE","MADISON","WI",53718,43.1642515230001,-89.2873004959999,326,"6906 VILLAGE PARK DRIVE, MADISON, WI, 53718","Match","Exact","6906 VILLAGE PARK DR, MADISON, WI, 53718",49509609,"R"
809327,"6906 W BLONDELL DR","WASILLA","AK",99623,61.580163036,-149.624422558,327,"6906 W BLONDELL DR, WASILLA, AK, 99623","Match","Exact","6906 BLONDELL DR, WASILLA, AK, 99623",191061913,"R"
809328,"6906 WINTER RIDGE PLACE","CASTLE PINES","CO",80108,39.485311434,-104.90910793,328,"6906 WINTER RIDGE PLACE, CASTLE PINES, CO, 80108","Match","Exact","6906 WINTER RIDGE PL, CASTLE PINES, CO, 80108",130841871,"L"
809329,"6906 WOODICK DR","DALLAS","TX",75232,NA,NA,329,"6906 WOODICK DR, DALLAS, TX, 75232","No_Match",NA,NA,NA,NA
809330,"6906 WOODLAND DRIVE","DALLAS","TX",75218,32.8724708760001,-96.786376043,330,"6906 WOODLAND DRIVE, DALLAS, TX, 75218","Match","Non_Exact","6906 WOODLAND DR, DALLAS, TX, 75225",102902345,"R"
809331,"6907 121ST AVE EAST","PARRISH","FL",34219,27.576373372,-82.427716961,331,"6907 121ST AVE EAST, PARRISH, FL, 34219","Match","Exact","6907 121ST AVE E, PARRISH, FL, 34219",16229239,"L"
809332,"6907 6TH ST NW","WASHINGTON","DC",20012,38.9737674730001,-77.021406997,332,"6907 6TH ST NW, WASHINGTON, DC, 20012","Match","Exact","6907 6TH ST NW, WASHINGTON, DC, 20012",76221915,"R"
809333,"6907 BEARS BREECH DR","MOSELEY","VA",23120,37.410811498,-77.728044917,333,"6907 BEARS BREECH DR, MOSELEY, VA, 23120","Match","Exact","6907 BEARS BREECH DR, MOSELEY, VA, 23120",635835338,"R"
809334,"6907 BEAVER CREEK RD","BISMARCK","ND",58504,NA,NA,334,"6907 BEAVER CREEK RD, BISMARCK, ND, 58504","No_Match",NA,NA,NA,NA
809335,"6907 CARNATION STREET APT E","RICHMOND","VA",23225,37.5087779260001,-77.5231603989999,335,"6907 CARNATION STREET APT E, RICHMOND, VA, 23225","Match","Exact","6907 CARNATION ST, RICHMOND, VA, 23225",610888093,"L"
809336,"6907 CARRILON ROAD","LITTLE ROCK","AR",72205,34.7507119750001,-92.350312077,336,"6907 CARRILON ROAD, LITTLE ROCK, AR, 72205","Match","Exact","6907 CARRILON RD, LITTLE ROCK, AR, 72205",83504488,"L"
809337,"6907 CLAREMONT ST","WINNEBAGO","IL",61102,42.271407224,-89.170550969,337,"6907 CLAREMONT ST, WINNEBAGO, IL, 61102","Match","Non_Exact","6907 CLAREMONT ST, ROCKFORD, IL, 61102",49251194,"R"
809338,"6907 DOGWOOD DR","KNOXVILLE","TN",37919,35.9024026050001,-84.001037534,338,"6907 DOGWOOD DR, KNOXVILLE, TN, 37919","Match","Exact","6907 DOGWOOD DR, KNOXVILLE, TN, 37919",625162854,"R"
809339,"6907 E TOWNSEND","FRESNO","CA",93727,36.7287488100001,-119.66538862,339,"6907 E TOWNSEND, FRESNO, CA, 93727","Match","Non_Exact","6907 E TOWNSEND AVE, FRESNO, CA, 93727",627014022,"L"
809340,"6907 HOLLINGSWORTH DRIVE","INDIANAPOLIS","IN",46268,39.88072092,-86.219865434,340,"6907 HOLLINGSWORTH DRIVE, INDIANAPOLIS, IN, 46268","Match","Exact","6907 HOLLINGSWORTH DR, INDIANAPOLIS, IN, 46268",108025501,"L"
809341,"6907 IRONBRIDGE LANE","LAUREL","MD",20707,39.084737137,-76.887471964,341,"6907 IRONBRIDGE LANE, LAUREL, MD, 20707","Match","Exact","6907 IRONBRIDGE LN, LAUREL, MD, 20707",624469144,"R"
809342,"6907 IVY MOON DRIVE","SCHERTZ","TX",78154,29.4875456030001,-98.266365131,342,"6907 IVY MOON DRIVE, SCHERTZ, TX, 78154","Match","Non_Exact","6907 IVY MOON, SCHERTZ, TX, 78154",645343389,"R"
809343,"6907 JUSTIN LN","GREENVILLE","TX",75402,33.0994649080001,-96.091237279,343,"6907 JUSTIN LN, GREENVILLE, TX, 75402","Match","Exact","6907 JUSTIN LN, GREENVILLE, TX, 75402",42887777,"L"
809344,"6907 LANGSTON DRIVE","AUSTIN","TX",78723,30.316851087,-97.670905482,344,"6907 LANGSTON DRIVE, AUSTIN, TX, 78723","Match","Exact","6907 LANGSTON DR, AUSTIN, TX, 78723",63999715,"R"
809345,"6907 LAUGHTON DRIVE","CHESTERFIELD","VA",23832,37.4544012160001,-77.5196142149999,345,"6907 LAUGHTON DRIVE, CHESTERFIELD, VA, 23832","Match","Exact","6907 LAUGHTON DR, CHESTERFIELD, VA, 23832",201544608,"L"
809346,"6907 MANCHESTER ROAD","SOUTH BELOIT","IL",61080,42.4759820940001,-88.981697877,346,"6907 MANCHESTER ROAD, SOUTH BELOIT, IL, 61080","Match","Exact","6907 MANCHESTER RD, SOUTH BELOIT, IL, 61080",617301361,"L"
809347,"6907 MARLOWE ROAD","RICHMOND","VA",23225,NA,NA,347,"6907 MARLOWE ROAD, RICHMOND, VA, 23225","No_Match",NA,NA,NA,NA
809348,"6907 MCMAHON ST APT A","COLORADO SPRINGS","CO",80913,38.730832793,-104.795285078,348,"6907 MCMAHON ST APT A, COLORADO SPRINGS, CO, 80913","Match","Non_Exact","6907 MCMAHON ST, COLO SPGS, CO, 80902",642716755,"L"
809349,"6907 NW 70TH ST","TAMARAC","FL",33321,26.21008649,-80.244306627,349,"6907 NW 70TH ST, TAMARAC, FL, 33321","Match","Exact","6907 NW 70TH ST, TAMARAC, FL, 33321",114702496,"R"
809350,"6907 NW 93RD ST","JOHNSTON","IA",50131,41.686004907,-93.7468646249999,350,"6907 NW 93RD ST, JOHNSTON, IA, 50131","Match","Exact","6907 NW 93RD ST, JOHNSTON, IA, 50131",617120451,"R"
809351,"6907 OUTLOOK AVE","OAKLAND","CA",94605,37.772115629,-122.172832036,351,"6907 OUTLOOK AVE, OAKLAND, CA, 94605","Match","Exact","6907 OUTLOOK AVE, OAKLAND, CA, 94605",125008915,"R"
809352,"6907 PLEASANT BAY","SAN ANTONIO","TX",78244,29.491287417,-98.3471606859999,352,"6907 PLEASANT BAY, SAN ANTONIO, TX, 78244","Match","Exact","6907 PLEASANT BAY, SAN ANTONIO, TX, 78244",645362803,"L"
809353,"6907 RAMBLING BROOK LANE","RICHMOND","TX",77469,29.50087376,-95.76451079,353,"6907 RAMBLING BROOK LANE, RICHMOND, TX, 77469","Match","Exact","6907 RAMBLING BROOK LN, RICHMOND, TX, 77469",636806466,"R"
809354,"6907 ROOSEVELT BLVD","PHILADELPHIA","PA",19149,40.039218035,-75.059484447,354,"6907 ROOSEVELT BLVD, PHILADELPHIA, PA, 19149","Match","Exact","6907 ROOSEVELT BLVD, PHILADELPHIA, PA, 19149",131457493,"R"
809355,"6907 SANDWOOD DR NE","ROCKFORD","MI",49341,43.0881114860001,-85.560777187,355,"6907 SANDWOOD DR NE, ROCKFORD, MI, 49341","Match","Non_Exact","6907 SANDWOOD ST NE, ROCKFORD, MI, 49341",12474431,"L"
809356,"6907 SILVER CHARM COURT","CHARLOTTE","NC",28215,35.226759724,-80.713985097,356,"6907 SILVER CHARM COURT, CHARLOTTE, NC, 28215","Match","Exact","6907 SILVER CHARM CT, CHARLOTTE, NC, 28215",70544213,"L"
809357,"6907 SILVER HILL LANE","BARTLETT","TN",38135,35.2307648140001,-89.832903933,357,"6907 SILVER HILL LANE, BARTLETT, TN, 38135","Match","Exact","6907 SILVER HILL LN, BARTLETT, TN, 38135",72900452,"R"
809358,"6907 SOUTH AVE","MIDDLETON","WI",53562,43.093439415,-89.500783397,358,"6907 SOUTH AVE, MIDDLETON, WI, 53562","Match","Exact","6907 SOUTH AVE, MIDDLETON, WI, 53562",49464669,"L"
809359,"6907 STIRLING ROAD","DAVIE","FL",33314,26.046205646,-80.227097901,359,"6907 STIRLING ROAD, DAVIE, FL, 33314","Match","Exact","6907 STIRLING RD, DAVIE, FL, 33314",114715324,"R"
809360,"6907 SW 115TH PLACE APT G","MIAMI","FL",33173,25.7029512460001,-80.3803540929999,360,"6907 SW 115TH PLACE APT G, MIAMI, FL, 33173","Match","Non_Exact","6907 SW 115TH PL, MIAMI, FL, 33173",116075258,"L"
809361,"6907 SW 115TH PLACE UNIT G","MIAMI","FL",33173,25.7029512460001,-80.3803540929999,361,"6907 SW 115TH PLACE UNIT G, MIAMI, FL, 33173","Match","Non_Exact","6907 SW 115TH PL, MIAMI, FL, 33173",116075258,"L"
809362,"6907 TIEDMANN PARKWAY","SUGAR LAND","TX",77479,NA,NA,362,"6907 TIEDMANN PARKWAY, SUGAR LAND, TX, 77479","No_Match",NA,NA,NA,NA
809363,"6907 UNIVERSITY AVE APT 242","MIDDLETON","WI",53562,43.0970458370001,-89.5006051509999,363,"6907 UNIVERSITY AVE APT 242, MIDDLETON, WI, 53562","Match","Exact","6907 UNIVERSITY AVE, MIDDLETON, WI, 53562",49483299,"L"
809364,"6907 UPLAND","COLLEYVILLE","TX",76034,32.909354503,-97.1297688339999,364,"6907 UPLAND, COLLEYVILLE, TX, 76034","Match","Non_Exact","6907 UPLAND LN, COLLEYVILLE, TX, 76034",102090146,"R"
809365,"6907 VILLAGE ROAD","PARKER","CO",80134,39.4596806850001,-104.712714271,365,"6907 VILLAGE ROAD, PARKER, CO, 80134","Match","Non_Exact","6907 N VILLAGE RD, PARKER, CO, 80134",130794817,"L"
809366,"6907 VT RT 14","BROOKFIELD","VT",5036,44.0346564050001,-72.569328672,366,"6907 VT RT 14, BROOKFIELD, VT, 5036","Match","Non_Exact","6907 STATE RTE 14, BROOKFIELD, VT, 05036",181123312,"L"
809367,"6907 W BROADWAY AVE","FOREST LAKE","MN",55025,45.2869225170001,-93.0944953869999,367,"6907 W BROADWAY AVE, FOREST LAKE, MN, 55025","Match","Exact","6907 W BROADWAY AVE, FOREST LAKE, MN, 55025",97519798,"L"
809368,"6907 W SUNRISE BLVD APT 402","PLANTATION","FL",33313,26.1479532920001,-80.240985171,368,"6907 W SUNRISE BLVD APT 402, PLANTATION, FL, 33313","Match","Non_Exact","6907 W SUNRISE BLVD, PLANTATION, FL, 33313",637266365,"L"
809369,"6907 WALTON POINT DRIVE","NAPLES","NY",14512,42.685450545,-77.364772466,369,"6907 WALTON POINT DRIVE, NAPLES, NY, 14512","Match","Exact","6907 WALTON POINT DR, NAPLES, NY, 14512",13487550,"R"
809370,"690731","MINT HILL","NC",28227,NA,NA,370,"690731, MINT HILL, NC, 28227","No_Match",NA,NA,NA,NA
809371,"6908 1/2 S HOOVER STREET","LOS ANGELES","CA",90044,33.977008384,-118.287062563,371,"6908 1/2 S HOOVER STREET, LOS ANGELES, CA, 90044","Match","Exact","6908 S HOOVER ST, LOS ANGELES, CA, 90044",141659476,"L"
809372,"6908 20TH ST","ZEPHYRHILLS","FL",33542,28.2576929430001,-82.171490523,372,"6908 20TH ST, ZEPHYRHILLS, FL, 33542","Match","Exact","6908 20TH ST, ZEPHYRHILLS, FL, 33542",635772144,"R"
809373,"6908 36TH","LUBBOCK","TX",79407,33.56090077,-101.964621957,373,"6908 36TH, LUBBOCK, TX, 79407","Match","Non_Exact","6908 36TH ST, LUBBOCK, TX, 79407",637609731,"L"
809374,"6908 ABLE RD","CHESTERFIELD","VA",23832,37.4632708680001,-77.52524127,374,"6908 ABLE RD, CHESTERFIELD, VA, 23832","Match","Exact","6908 ABLE RD, CHESTERFIELD, VA, 23832",201544538,"L"
809375,"6908 AQUENE LOOP NE","BREMERTON","WA",98311,47.6249605670001,-122.60680232,375,"6908 AQUENE LOOP NE, BREMERTON, WA, 98311","Match","Exact","6908 AQUENE LOOP NE, BREMERTON, WA, 98311",617959414,"R"
809376,"6908 AYR LANE","BETHESDA","MD",20817,38.9802758960001,-77.139871663,376,"6908 AYR LANE, BETHESDA, MD, 20817","Match","Exact","6908 AYR LN, BETHESDA, MD, 20817",642964171,"L"
809377,"6908 BOLELYN DR","HENRICO","VA",23231,37.4547734220001,-77.325086286,377,"6908 BOLELYN DR, HENRICO, VA, 23231","Match","Exact","6908 BOLELYN DR, HENRICO, VA, 23231",641683947,"R"
809378,"6908 BRIARWOOD DR","FORT WORTH","TX",76132,32.655284572,-97.412148794,378,"6908 BRIARWOOD DR, FORT WORTH, TX, 76132","Match","Exact","6908 BRIARWOOD DR, FORT WORTH, TX, 76132",101953116,"R"
809379,"6908 BULLET BLVD","COLUMBUS","GA",31907,32.538486972,-84.8708041639999,379,"6908 BULLET BLVD, COLUMBUS, GA, 31907","Match","Exact","6908 BULLET BLVD, COLUMBUS, GA, 31907",98944167,"R"
809380,"6908 CASTRO VERDE WAY","ELK GROVE","CA",95757,38.3830597250001,-121.422697283,380,"6908 CASTRO VERDE WAY, ELK GROVE, CA, 95757","Match","Exact","6908 CASTRO VERDE WAY, ELK GROVE, CA, 95757",133435017,"R"
809381,"6908 CLOUDY WAY","SPOTSYLVANIA","VA",22551,NA,NA,381,"6908 CLOUDY WAY, SPOTSYLVANIA, VA, 22551","No_Match",NA,NA,NA,NA
809382,"6908 COLONY LOOP DR","AUSTIN","TX",78724,30.3003552120001,-97.640055423,382,"6908 COLONY LOOP DR, AUSTIN, TX, 78724","Match","Exact","6908 COLONY LOOP DR, AUSTIN, TX, 78724",63951923,"L"
809383,"6908 DERBY DOWNS","AUSTIN","TX",78747,30.1498815850001,-97.740362481,383,"6908 DERBY DOWNS, AUSTIN, TX, 78747","Match","Non_Exact","6908 DERBY DOWNS DR, AUSTIN, TX, 78747",624864173,"L"
809384,"6908 ECHO LAKE DR","NEW PORT RICHEY","FL",34653,28.241142607,-82.700247222,384,"6908 ECHO LAKE DR, NEW PORT RICHEY, FL, 34653","Match","Exact","6908 ECHO LAKE DR, NEW PORT RICHEY, FL, 34653",86348496,"L"
809385,"6908 FORBES BLVD","LANHAM","MD",20706,38.984646549,-76.828547341,385,"6908 FORBES BLVD, LANHAM, MD, 20706","Match","Exact","6908 FORBES BLVD, LANHAM, MD, 20706",76338116,"R"
809386,"6908 FOREST GATE ST","NORTH LAS VEGAS","NV",89084,36.2865458520001,-115.171813355,386,"6908 FOREST GATE ST, NORTH LAS VEGAS, NV, 89084","Match","Non_Exact","6908 N FOREST GATE ST, N LAS VEGAS, NV, 89084",632840388,"R"
809387,"6908 FULTON RD","PLEASANT VALLEY","MO",64068,39.2187440170001,-94.474792232,387,"6908 FULTON RD, PLEASANT VALLEY, MO, 64068","Match","Exact","6908 FULTON RD, PLEASANT VLY, MO, 64068",89761707,"L"
809388,"6908 GRAND FALLS","PLANO","TX",75024,33.0674815630001,-96.852039862,388,"6908 GRAND FALLS, PLANO, TX, 75024","Match","Non_Exact","6908 GRAND FALLS CIR, PLANO, TX, 75024",103402307,"L"
809389,"6908 GREAT FALLS DR","PLAINFIELD","IL",60586,41.555261124,-88.250810225,389,"6908 GREAT FALLS DR, PLAINFIELD, IL, 60586","Match","Exact","6908 GREAT FALLS DR, PLAINFIELD, IL, 60586",641432366,"L"
809390,"6908 HALLECK ST","DISTRICT HEIGHTS","MD",20744,38.8569045850001,-76.888281229,390,"6908 HALLECK ST, DISTRICT HEIGHTS, MD, 20744","Match","Non_Exact","6908 HALLECK ST, DISTRICT HEIGHTS, MD, 20747",651697799,"L"
809391,"6908 HILLMEADE ROAD","GLEN DALE","MD",20769,38.984956835,-76.79452918,391,"6908 HILLMEADE ROAD, GLEN DALE, MD, 20769","Match","Non_Exact","6908 HILLMEADE RD, GLENN DALE, MD, 20769",76311215,"L"
809392,"6908 LAURA BLUFF","SCHERTZ","TX",78154,29.4863217540001,-98.26693847,392,"6908 LAURA BLUFF, SCHERTZ, TX, 78154","Match","Exact","6908 LAURA BLUFF, SCHERTZ, TX, 78154",645343369,"R"
809393,"6908 LONG LAKE RD SE","PORT ORCHARD","WA",98367,47.486502011,-122.58688387,393,"6908 LONG LAKE RD SE, PORT ORCHARD, WA, 98367","Match","Exact","6908 LONG LAKE RD SE, PORT ORCHARD, WA, 98367",650128320,"L"
809394,"6908 N HAYSTON AVENUE","FRESNO","CA",93710,36.836445692,-119.748032487,394,"6908 N HAYSTON AVENUE, FRESNO, CA, 93710","Match","Exact","6908 N HAYSTON AVE, FRESNO, CA, 93710",197576376,"R"
809395,"6908 N OAKLEY","CHICAGO","IL",60645,42.006451944,-87.688023131,395,"6908 N OAKLEY, CHICAGO, IL, 60645","Match","Non_Exact","6908 N OAKLEY AVE, CHICAGO, IL, 60645",605247090,"L"
809396,"6908 NEEDHAM DRIVE","CHARLOTTE","NC",28270,35.115999077,-80.7684799469999,396,"6908 NEEDHAM DRIVE, CHARLOTTE, NC, 28270","Match","Exact","6908 NEEDHAM DR, CHARLOTTE, NC, 28270",70505881,"R"
809397,"6908 OAK FALLS DRIVE","MCKINNEY","TX",75070,33.1700462680001,-96.707444744,397,"6908 OAK FALLS DRIVE, MCKINNEY, TX, 75070","Match","Exact","6908 OAK FALLS DR, MCKINNEY, TX, 75070",619928565,"R"
809398,"6908 PALM AVENUE","FAIR OAKS","CA",95628,38.661090329,-121.303568482,398,"6908 PALM AVENUE, FAIR OAKS, CA, 95628","Match","Exact","6908 PALM AVE, FAIR OAKS, CA, 95628",133342547,"R"
809399,"6908 ROOSEVELT RD","OAK PARK","IL",60304,41.865108085,-87.796777118,399,"6908 ROOSEVELT RD, OAK PARK, IL, 60304","Match","Exact","6908 ROOSEVELT RD, OAK PARK, IL, 60304",111793964,"R"
809400,"6908 ROOSEVELT ROAD","OAK PARK","IL",60304,41.865108085,-87.796777118,400,"6908 ROOSEVELT ROAD, OAK PARK, IL, 60304","Match","Exact","6908 ROOSEVELT RD, OAK PARK, IL, 60304",111793964,"R"
809401,"6908 S CRIMSON SKY PL","GOLD CANYON","AZ",85118,NA,NA,401,"6908 S CRIMSON SKY PL, GOLD CANYON, AZ, 85118","Tie",NA,NA,NA,NA
809402,"6908 SANDSTONE CT","FT. WORTH","TX",76120,32.7715707880001,-97.210480608,402,"6908 SANDSTONE CT, FT. WORTH, TX, 76120","Match","Exact","6908 SANDSTONE CT, FORT WORTH, TX, 76120",101866591,"R"
809403,"6908 SOUTH 725 EAST APT D","MIDVALE","UT",84047,40.6257432940001,-111.871362696,403,"6908 SOUTH 725 EAST APT D, MIDVALE, UT, 84047","Match","Non_Exact","6908 S 725 EAST ST, MIDVALE, UT, 84047",176150528,"R"
809404,"6908 SPRINGMONT","ELK GROVE","CA",95758,38.4166488450001,-121.423720967,404,"6908 SPRINGMONT, ELK GROVE, CA, 95758","Match","Non_Exact","6908 SPRINGMONT DR, ELK GROVE, CA, 95758",133369035,"R"
809405,"6908 STONESTHROW CIRCLE N 10208","ST PETERSBURG","FL",33710,27.789359603,-82.736713105,405,"6908 STONESTHROW CIRCLE N 10208, ST PETERSBURG, FL, 33710","Match","Exact","6908 STONESTHROW CIR N, SAINT PETERSBURG, FL, 33710",653186133,"R"
809406,"6908 SULPHUR SPRINGS","PINE BLUFF","AR",71603,34.1887308940001,-92.0827665309999,406,"6908 SULPHUR SPRINGS, PINE BLUFF, AR, 71603","Match","Non_Exact","6908 SULPHUR SPRINGS RD, PINE BLUFF, AR, 71603",2557060,"R"
809407,"6908 VESPER AVE 117","VAN NUYS","CA",91405,34.1962133160001,-118.450897075,407,"6908 VESPER AVE 117, VAN NUYS, CA, 91405","Match","Exact","6908 VESPER AVE, VAN NUYS, CA, 91405",141560945,"R"
809408,"6908 W OAKTON COURT","NILES","IL",60714,NA,NA,408,"6908 W OAKTON COURT, NILES, IL, 60714","Tie",NA,NA,NA,NA
809409,"6908 WAGNER ROAD","CEDAR FALLS","IA",50613,42.5983206930001,-92.376946577,409,"6908 WAGNER ROAD, CEDAR FALLS, IA, 50613","Match","Exact","6908 WAGNER RD, CEDAR FALLS, IA, 50613",641381018,"R"
809410,"6908 WASHINGTON PIKE","KNOXVILLE","TN",37919,36.075459702,-83.832591537,410,"6908 WASHINGTON PIKE, KNOXVILLE, TN, 37919","Match","Non_Exact","6908 WASHINGTON PIKE, KNOXVILLE, TN, 37918",42670423,"R"
809411,"6908 WEST 65TH STREET","CHICAGO","IL",60638,41.7738209820001,-87.793715661,411,"6908 WEST 65TH STREET, CHICAGO, IL, 60638","Match","Exact","6908 W 65TH ST, CHICAGO, IL, 60638",112226340,"L"
809412,"6908 WESTGLEN DR","FORT WORTH","TX",76133,32.642770752,-97.366417839,412,"6908 WESTGLEN DR, FORT WORTH, TX, 76133","Match","Exact","6908 WESTGLEN DR, FORT WORTH, TX, 76133",101893875,"R"
809413,"6908 WILDERNESS RD","RALEIGH","NC",27613,35.8744630790001,-78.683446816,413,"6908 WILDERNESS RD, RALEIGH, NC, 27613","Match","Exact","6908 WILDERNESS RD, RALEIGH, NC, 27613",72604427,"L"
809414,"6908 WILDERNESS ROAD","RALEIGH","NC",27613,35.8744630790001,-78.683446816,414,"6908 WILDERNESS ROAD, RALEIGH, NC, 27613","Match","Exact","6908 WILDERNESS RD, RALEIGH, NC, 27613",72604427,"L"
809415,"6908 WYTHE HILL CIRCLE","PROSPECT","KY",40059,38.3498710100001,-85.612875629,415,"6908 WYTHE HILL CIRCLE, PROSPECT, KY, 40059","Match","Exact","6908 WYTHE HILL CIR, PROSPECT, KY, 40059",96840327,"L"
809416,"69084 HIGHWAY 47","CLATSKANIE","OR",97016,45.9983575150001,-123.254197013,416,"69084 HIGHWAY 47, CLATSKANIE, OR, 97016","Match","Exact","69084 HWY 47, CLATSKANIE, OR, 97016",158075008,"R"
809417,"69084 HIGHWAY 47","MIST","OR",97016,45.9983575150001,-123.254197013,417,"69084 HIGHWAY 47, MIST, OR, 97016","Match","Non_Exact","69084 HWY 47, WESTPORT, OR, 97016",158075008,"R"
809418,"69086 ALLEN CANYON LOOP","WALLOWA","OR",97885,45.5201910870001,-117.490261969,418,"69086 ALLEN CANYON LOOP, WALLOWA, OR, 97885","Match","Exact","69086 ALLEN CANYON LOOP, WALLOWA, OR, 97885",139024461,"L"
809419,"6909 172ND STREET","FRESH MEADOWS","NY",11365,NA,NA,419,"6909 172ND STREET, FRESH MEADOWS, NY, 11365","No_Match",NA,NA,NA,NA
809420,"6909 ASHWOOD ROAD APT 302","WOODBURY","MN",55125,44.9472056860001,-92.967205383,420,"6909 ASHWOOD ROAD APT 302, WOODBURY, MN, 55125","Match","Exact","6909 ASHWOOD RD, WOODBURY, MN, 55125",97826529,"L"
809421,"6909 ASPEN WOOD TRAIL","FORT WORTH","TX",76132,32.652381774,-97.4243427649999,421,"6909 ASPEN WOOD TRAIL, FORT WORTH, TX, 76132","Match","Exact","6909 ASPEN WOOD TRL, FORT WORTH, TX, 76132",102125520,"L"
809422,"6909 ATAIR COURT","EASTVALE","CA",92880,NA,NA,422,"6909 ATAIR COURT, EASTVALE, CA, 92880","No_Match",NA,NA,NA,NA
809423,"6909 BEARGRASS RD","HARMONY","FL",34773,28.202307153,-81.152805153,423,"6909 BEARGRASS RD, HARMONY, FL, 34773","Match","Exact","6909 BEARGRASS RD, HARMONY, FL, 34773",627475665,"L"
809424,"6909 BITTERSWEET DELLS CT","FORT WAYNE","IN",46814,41.0204467500001,-85.284973796,424,"6909 BITTERSWEET DELLS CT, FORT WAYNE, IN, 46814","Match","Exact","6909 BITTERSWEET DELLS CT, FORT WAYNE, IN, 46814",6400705,"L"
809425,"6909 BITTERSWEET DELLS","FT WAYNE","IN",46806,NA,NA,425,"6909 BITTERSWEET DELLS, FT WAYNE, IN, 46806","No_Match",NA,NA,NA,NA
809426,"6909 CAPELLA LANE","LOUISVILLE","KY",40258,38.1525767530001,-85.8738574819999,426,"6909 CAPELLA LANE, LOUISVILLE, KY, 40258","Match","Exact","6909 CAPELLA LN, LOUISVILLE, KY, 40258",650541032,"L"
809427,"6909 CHIMNEY HILL RD","CRESTWOOD","KY",40014,38.326636857,-85.4285616289999,427,"6909 CHIMNEY HILL RD, CRESTWOOD, KY, 40014","Match","Exact","6909 CHIMNEY HILL RD, CRESTWOOD, KY, 40014",130932834,"L"
809428,"6909 COUNTRY LANE","MADISON","WI",53719,43.0026714150001,-89.5038409969999,428,"6909 COUNTRY LANE, MADISON, WI, 53719","Match","Exact","6909 COUNTRY LN, MADISON, WI, 53719",639589398,"L"
809429,"6909 CREEKSIDE LN","PLANO","TX",75023,33.0701597610001,-96.7482605659999,429,"6909 CREEKSIDE LN, PLANO, TX, 75023","Match","Exact","6909 CREEKSIDE LN, PLANO, TX, 75023",123530395,"L"
809430,"6909 CROWN RIDGE","EL PASO","TX",79912,31.874841615,-106.550524309,430,"6909 CROWN RIDGE, EL PASO, TX, 79912","Match","Non_Exact","6909 CROWN RIDGE DR, EL PASO, TX, 79912",189376267,"R"
809431,"6909 DAY BREAK CT","LOUISVILLE","KY",40272,38.111878882,-85.8844606119999,431,"6909 DAY BREAK CT, LOUISVILLE, KY, 40272","Match","Exact","6909 DAY BREAK CT, LOUISVILLE, KY, 40272",96887264,"L"
809432,"6909 E 186TH LANE","FRESH MEADOWS","NY",11365,NA,NA,432,"6909 E 186TH LANE, FRESH MEADOWS, NY, 11365","No_Match",NA,NA,NA,NA
809433,"6909 E PORTIA STREET","MESA","AZ",85207,33.471135528,-111.677753983,433,"6909 E PORTIA STREET, MESA, AZ, 85207","Match","Exact","6909 E PORTIA ST, MESA, AZ, 85207",243957708,"R"
809434,"6909 EAST PORTIA STREET","MESA","AZ",85207,33.471130449,-111.677764841,434,"6909 EAST PORTIA STREET, MESA, AZ, 85207","Match","Exact","6909 E PORTIA ST, MESA, AZ, 85207",243957708,"R"
809435,"6909 FLAT CREEK ROAD","SOMERSET","CA",95684,38.566861213,-120.738721057,435,"6909 FLAT CREEK ROAD, SOMERSET, CA, 95684","Match","Non_Exact","6909 FLAT CREEK DR, SOMERSET, CA, 95684",635390972,"R"
809436,"6909 FOXGLOVE TRAIL","SACHSE","TX",75048,32.9839061710001,-96.6010284129999,436,"6909 FOXGLOVE TRAIL, SACHSE, TX, 75048","Match","Exact","6909 FOXGLOVE TRL, SACHSE, TX, 75048",651529213,"R"
809437,"6909 GATES LANE","CRESTWOOD","KY",40014,38.3245398770001,-85.481160475,437,"6909 GATES LANE, CRESTWOOD, KY, 40014","Match","Exact","6909 GATES LN, CRESTWOOD, KY, 40014",640057464,"L"
809438,"6909 GUITNER ROAD","GREENCASTLE","PA",17225,39.834070597,-77.762957547,438,"6909 GUITNER ROAD, GREENCASTLE, PA, 17225","Match","Exact","6909 GUITNER RD, GREENCASTLE, PA, 17225",605518258,"L"
809439,"6909 HIGHWAY 66","LORIS","SC",29569,34.0728591170001,-78.846730023,439,"6909 HIGHWAY 66, LORIS, SC, 29569","Match","Exact","6909 HWY 66, LORIS, SC, 29569",29048103,"L"
809440,"6909 HILLCREST LANE","EDINA","MN",55435,44.879661357,-93.333316902,440,"6909 HILLCREST LANE, EDINA, MN, 55435","Match","Exact","6909 HILLCREST LN, EDINA, MN, 55435",43835349,"L"
809441,"6909 HWY 1SOUTH","FORREST CITY","AR",72335,NA,NA,441,"6909 HWY 1SOUTH, FORREST CITY, AR, 72335","No_Match",NA,NA,NA,NA
809442,"6909 ISLETA BLVD SW","ALBUQUERQUE","NM",87105,34.9663278310001,-106.695519461,442,"6909 ISLETA BLVD SW, ALBUQUERQUE, NM, 87105","Match","Exact","6909 ISLETA BLVD SW, ALBUQUERQUE, NM, 87105",648097225,"R"
809443,"6909 KARNAK COURT","CHARLOTTE","NC",28216,35.2977472960001,-80.913580643,443,"6909 KARNAK COURT, CHARLOTTE, NC, 28216","Match","Exact","6909 KARNAK CT, CHARLOTTE, NC, 28216",70554324,"L"
809444,"6909 KARNAK CT","CHARLOTTE","NC",28216,35.2977472960001,-80.913580643,444,"6909 KARNAK CT, CHARLOTTE, NC, 28216","Match","Exact","6909 KARNAK CT, CHARLOTTE, NC, 28216",70554324,"L"
809445,"6909 LAMAR AV NW","ALBUQUERQUE","NM",87120,35.14516051,-106.719656637,445,"6909 LAMAR AV NW, ALBUQUERQUE, NM, 87120","Match","Exact","6909 LAMAR AVE NW, ALBUQUERQUE, NM, 87120",206733108,"R"
809446,"6909 LAUREL AVE 11561","TAKOMA PARK","MD",20913,38.9739924470001,-77.012727452,446,"6909 LAUREL AVE 11561, TAKOMA PARK, MD, 20913","Match","Non_Exact","6909 LAUREL AVE, TAKOMA PARK, MD, 20912",62068882,"R"
809447,"6909 N TROOST AVE","GLADSTONE","MO",64118,39.2199771430001,-94.566887486,447,"6909 N TROOST AVE, GLADSTONE, MO, 64118","Match","Exact","6909 N TROOST AVE, GLADSTONE, MO, 64118",89754695,"R"
809448,"6909 NORRIS RD","BAKERSFIELD","CA",93308,35.4196805350001,-119.079894167,448,"6909 NORRIS RD, BAKERSFIELD, CA, 93308","Match","Exact","6909 NORRIS RD, BAKERSFIELD, CA, 93308",109083656,"L"
809449,"6909 OCEANO TERRACE","FORT WORTH","TX",76132,32.650383151,-97.4141612499999,449,"6909 OCEANO TERRACE, FORT WORTH, TX, 76132","Match","Exact","6909 OCEANO TER, FORT WORTH, TX, 76132",101959729,"R"
809450,"6909 OLDE STAGE ROAD","BOULDER","CO",80302,40.1003489400001,-105.302593596,450,"6909 OLDE STAGE ROAD, BOULDER, CO, 80302","Match","Exact","6909 OLDE STAGE RD, BOULDER, CO, 80302",220759499,"L"
809451,"6909 PENNSYLVANIA AVE","KANSAS CITY","MO",64113,39.0037076690001,-94.59629789,451,"6909 PENNSYLVANIA AVE, KANSAS CITY, MO, 64113","Match","Exact","6909 PENNSYLVANIA AVE, KANSAS CITY, MO, 64113",91453778,"L"
809452,"6909 PILGRIM ROAD","MADISON","WI",53711,43.028137099,-89.5007091859999,452,"6909 PILGRIM ROAD, MADISON, WI, 53711","Match","Exact","6909 PILGRIM RD, MADISON, WI, 53711",49465077,"L"
809453,"6909 PRINGLE RD","CASS CITY","MI",48726,43.5737748010001,-83.1072231649999,453,"6909 PRINGLE RD, CASS CITY, MI, 48726","Match","Exact","6909 PRINGLE RD, CASS CITY, MI, 48726",111063476,"R"
809454,"6909 RADNOR RD","BETHESDA","MD",20817,38.978156825,-77.113586841,454,"6909 RADNOR RD, BETHESDA, MD, 20817","Match","Exact","6909 RADNOR RD, BETHESDA, MD, 20817",62058835,"R"
809455,"6909 RADNOR ROAD","BETHESDA","MD",20187,38.978156825,-77.113586841,455,"6909 RADNOR ROAD, BETHESDA, MD, 20187","Match","Non_Exact","6909 RADNOR RD, BETHESDA, MD, 20817",62058835,"R"
809456,"6909 RADNOR ROAD","BETHESDA","MD",20817,38.978156825,-77.113586841,456,"6909 RADNOR ROAD, BETHESDA, MD, 20817","Match","Exact","6909 RADNOR RD, BETHESDA, MD, 20817",62058835,"R"
809457,"6909 RAWHIDE RIDGE","COLUMBIA","MD",21046,39.18020039,-76.8558587809999,457,"6909 RAWHIDE RIDGE, COLUMBIA, MD, 21046","Match","Exact","6909 RAWHIDE RIDGE, COLUMBIA, MD, 21046",158925063,"L"
809458,"6909 ROCKWOOD ROAD","LITTLE ROCK","AR",72207,34.7819494180001,-92.350483644,458,"6909 ROCKWOOD ROAD, LITTLE ROCK, AR, 72207","Match","Exact","6909 ROCKWOOD RD, LITTLE ROCK, AR, 72207",83503642,"L"
809459,"6909 ROSWELL RD APT L","ATLANTA","GA",30328,33.943442315,-84.37232011,459,"6909 ROSWELL RD APT L, ATLANTA, GA, 30328","Match","Exact","6909 ROSWELL RD, ATLANTA, GA, 30328",642752831,"R"
809460,"6909 ROSWELL ROAD APT C","SANDY SPRINGS","GA",30328,33.943442315,-84.37232011,460,"6909 ROSWELL ROAD APT C, SANDY SPRINGS, GA, 30328","Match","Exact","6909 ROSWELL RD, SANDY SPRINGS, GA, 30328",642752831,"R"
809461,"6909 SCHUBERT CT","HUGHSON","CA",95326,37.604991297,-120.867049948,461,"6909 SCHUBERT CT, HUGHSON, CA, 95326","Match","Exact","6909 SCHUBERT CT, HUGHSON, CA, 95326",102635097,"L"
809462,"6909 SILVERLAKE DRIVE","ROWLETT","TX",75089,32.921746956,-96.513447163,462,"6909 SILVERLAKE DRIVE, ROWLETT, TX, 75089","Match","Non_Exact","6909 SILVER LAKE DR, ROWLETT, TX, 75089",123784464,"L"
809463,"6909 SOUTH WOODLAWN AVE","CHICAGO","IL",60637,41.7696485750001,-87.595239226,463,"6909 SOUTH WOODLAWN AVE, CHICAGO, IL, 60637","Match","Exact","6909 S WOODLAWN AVE, CHICAGO, IL, 60637",605502927,"L"
809464,"6909 SOUTH WOODLAWN","CHICAGO","IL",60637,41.7696485750001,-87.595239226,464,"6909 SOUTH WOODLAWN, CHICAGO, IL, 60637","Match","Non_Exact","6909 S WOODLAWN AVE, CHICAGO, IL, 60637",605502927,"L"
809465,"6909 SUMRALL DR","BATON ROUGE","LA",70812,30.513857156,-91.1218187709999,465,"6909 SUMRALL DR, BATON ROUGE, LA, 70812","Match","Exact","6909 SUMRALL DR, BATON ROUGE, LA, 70812",92188368,"L"
809466,"6909 TOLLGATE ROAD","ZIONSVILLE","PA",18092,40.469121052,-75.545159611,466,"6909 TOLLGATE ROAD, ZIONSVILLE, PA, 18092","Match","Exact","6909 TOLLGATE RD, ZIONSVILLE, PA, 18092",80801492,"L"
809467,"6909 VISTA RIDGE CT","FORTWORTH","TX",76132,32.650191125,-97.43137446,467,"6909 VISTA RIDGE CT, FORTWORTH, TX, 76132","Match","Non_Exact","6909 VISTA RIDGE CT, FORT WORTH, TX, 76132",101950329,"R"
809468,"6909 W O DONIEL LOOP W","LAKELAND","FL",33809,28.1315199740001,-81.9337362649999,468,"6909 W O DONIEL LOOP W, LAKELAND, FL, 33809","Match","Non_Exact","6909 ODONIEL LOOP W, LAKELAND, FL, 33809",627408225,"L"
809469,"6909 WATERPOINT COVE","EAST MEMPHIS","TN",38141,35.0065564980001,-89.833581958,469,"6909 WATERPOINT COVE, EAST MEMPHIS, TN, 38141","Match","Non_Exact","6909 WATER POINT COVE E, MEMPHIS, TN, 38141",72943170,"R"
809470,"6909 WAUNAKEE CIR","MEQUON","WI",53092,43.2160652970001,-87.9954710819999,470,"6909 WAUNAKEE CIR, MEQUON, WI, 53092","Match","Exact","6909 WAUNAKEE CIR, MEQUON, WI, 53092",95907715,"R"
809471,"6909 WEEDIN PLACE NE A302","SEATTLE","WA",98115,47.679114849,-122.322376763,471,"6909 WEEDIN PLACE NE A302, SEATTLE, WA, 98115","Match","Exact","6909 WEEDIN PL NE, SEATTLE, WA, 98115",186580675,"L"
809472,"6909","CHARLOTTE","NC",28216,NA,NA,472,"6909, CHARLOTTE, NC, 28216","No_Match",NA,NA,NA,NA
809473,"6909B CINDER RUN","WAXHAW","NC",28173,34.8525189960001,-80.7420739629999,473,"6909B CINDER RUN, WAXHAW, NC, 28173","Match","Exact","6909 CINDER RUN, WAXHAW, NC, 28173",14198304,"L"
809474,"691 104TH RD","CENTRALIA","KS",66415,NA,NA,474,"691 104TH RD, CENTRALIA, KS, 66415","No_Match",NA,NA,NA,NA
809475,"691 43RD STREET SOUTH","ST PETERSBURG","FL",33711,27.763028951,-82.691621524,475,"691 43RD STREET SOUTH, ST PETERSBURG, FL, 33711","Match","Exact","691 43RD ST S, SAINT PETERSBURG, FL, 33711",124700902,"R"
809476,"691 630TH STREET","WASHTA","IA",51061,42.6045483950001,-95.741531959,476,"691 630TH STREET, WASHTA, IA, 51061","Match","Exact","691 630TH ST, WASHTA, IA, 51061",82759024,"R"
809477,"691 6TH STREET SW","WELLS","MN",56097,43.7391245480001,-93.734499267,477,"691 6TH STREET SW, WELLS, MN, 56097","Match","Exact","691 6TH ST SW, WELLS, MN, 56097",28613771,"R"
809478,"691 ACORN ST","GIDDINGS","TX",78942,30.1729807030001,-96.922457505,478,"691 ACORN ST, GIDDINGS, TX, 78942","Match","Exact","691 ACORN ST, GIDDINGS, TX, 78942",39134110,"L"
809479,"691 AURORA AVE","SAINT PAUL","MN",55104,44.954816055,-93.129446929,479,"691 AURORA AVE, SAINT PAUL, MN, 55104","Match","Exact","691 AURORA AVE, SAINT PAUL, MN, 55104",97643869,"R"
809480,"691 BENT CREEK DR","LITITZ","PA",17543,40.1217016950001,-76.34916412,480,"691 BENT CREEK DR, LITITZ, PA, 17543","Match","Exact","691 BENT CREEK DR, LITITZ, PA, 17543",179689641,"R"
809481,"691 BLUE ASH CT","MCDONOUGH","GA",30253,33.4121646250001,-84.185083777,481,"691 BLUE ASH CT, MCDONOUGH, GA, 30253","Match","Exact","691 BLUE ASH CT, MCDONOUGH, GA, 30253",619922845,"R"
809482,"691 CALLECITA JICARILLA","SANTA FE","NM",87505,35.6494668780001,-105.930862315,482,"691 CALLECITA JICARILLA, SANTA FE, NM, 87505","Match","Exact","691 CALLECITA JICARILLA, SANTA FE, NM, 87505",169379771,"L"
809483,"691 CASSANDRA LANE","UNIVERSITY PARK","IL",60484,41.4467230000001,-87.675938355,483,"691 CASSANDRA LANE, UNIVERSITY PARK, IL, 60484","Match","Non_Exact","691 CASSENDRA LN, UNIVERSITY PARK, IL, 60484",607944214,"L"
809484,"691 CASSANDRA","UNIVERSITY PARK","IL",60484,41.4467230000001,-87.675938355,484,"691 CASSANDRA, UNIVERSITY PARK, IL, 60484","Match","Non_Exact","691 CASSENDRA LN, UNIVERSITY PARK, IL, 60484",607944214,"L"
809485,"691 CAYUGA","LEWISTON","NY",14092,NA,NA,485,"691 CAYUGA, LEWISTON, NY, 14092","Tie",NA,NA,NA,NA
809486,"691 CLIFFSIDE DR","AKRON","OH",44313,41.1267471780001,-81.565750861,486,"691 CLIFFSIDE DR, AKRON, OH, 44313","Match","Exact","691 CLIFFSIDE DR, AKRON, OH, 44313",61337622,"R"
809487,"691 CO RTE 37","CENTRAL SQUARE","NY",13036,43.242765886,-76.1528298429999,487,"691 CO RTE 37, CENTRAL SQUARE, NY, 13036","Match","Exact","691 CO RTE 37, CENTRAL SQUARE, NY, 13036",57816799,"L"
809488,"691 COMSTOCK DR","DELTONA","FL",32738,28.8816231540001,-81.2043194839999,488,"691 COMSTOCK DR, DELTONA, FL, 32738","Match","Exact","691 COMSTOCK DR, DELTONA, FL, 32738",94503866,"R"
809489,"691 COOPER STREET","ATLANTA","GA",30315,33.735996625,-84.397085864,489,"691 COOPER STREET, ATLANTA, GA, 30315","Match","Non_Exact","691 COOPER ST SW, ATLANTA, GA, 30315",17345991,"R"
809490,"691 COUNTY ROAD 613","CAPE GIRARDEAU","MO",63701,37.4476018620001,-89.517464764,490,"691 COUNTY ROAD 613, CAPE GIRARDEAU, MO, 63701","Match","Exact","691 CO RD 613, CAPE GIRARDEAU, MO, 63701",35188399,"L"
809491,"691 CRAZY DOE ROAD","LEXINGTON","TN",38351,35.697537364,-88.3983602449999,491,"691 CRAZY DOE ROAD, LEXINGTON, TN, 38351","Match","Exact","691 CRAZY DOE RD, LEXINGTON, TN, 38351",639785370,"R"
809492,"691 CROSS HILL ROAD","VASSALBORO","ME",4989,44.3771339260001,-69.6584341449999,492,"691 CROSS HILL ROAD, VASSALBORO, ME, 4989","Match","Exact","691 CROSS HILL RD, VASSALBORO, ME, 04989",75483054,"R"
809493,"691 DUNBAR ST","WINTER PARK","FL",32789,28.6026310890001,-81.3582102359999,493,"691 DUNBAR ST, WINTER PARK, FL, 32789","Match","Exact","691 DUNBAR ST, WINTER PARK, FL, 32789",94277016,"R"
809494,"691 DUTCH HOLLOW RD","CHARLESTON","WV",25312,NA,NA,494,"691 DUTCH HOLLOW RD, CHARLESTON, WV, 25312","No_Match",NA,NA,NA,NA
809495,"691 E 35 ST","HIALEAH","FL",33013,25.854413283,-80.268833797,495,"691 E 35 ST, HIALEAH, FL, 33013","Match","Exact","691 E 35TH ST, HIALEAH, FL, 33013",115999063,"L"
809496,"691 E 35 TH STREET","HIALEAH","FL",33013,25.854413283,-80.268833797,496,"691 E 35 TH STREET, HIALEAH, FL, 33013","Match","Non_Exact","691 E 35TH ST, HIALEAH, FL, 33013",115999063,"L"
809497,"691 E 35TH STREET","HIALEAH","FL",33013,25.854413283,-80.268833797,497,"691 E 35TH STREET, HIALEAH, FL, 33013","Match","Exact","691 E 35TH ST, HIALEAH, FL, 33013",115999063,"L"
809498,"691 E COUNTY LINE RD","TEKONSHA","MI",49092,42.072577349,-84.943999581,498,"691 E COUNTY LINE RD, TEKONSHA, MI, 49092","Match","Non_Exact","691 S COUNTY LINE RD, TEKONSHA, MI, 49092",8216304,"L"
809499,"691 E MAIN ST","WAVERLY","TN",37185,36.0825043500001,-87.7756866679999,499,"691 E MAIN ST, WAVERLY, TN, 37185","Match","Exact","691 E MAIN ST, WAVERLY, TN, 37185",19872334,"L"
809500,"691 EAST 143RD STREET","BURNSVILLE","MN",55337,44.745090244,-93.265404093,500,"691 EAST 143RD STREET, BURNSVILLE, MN, 55337","Match","Exact","691 E 143RD ST, BURNSVILLE, MN, 55337",37928610,"R"
